station,valid,metar
ZGNN,2002-01-01 00:00,ZGNN 010000Z AUTO 00000KT 1/8SM 09/09 A3021 RMK SLP243 T00920090 52020 IEM_DS3505
ZGNN,2002-01-01 01:00,ZGNN 010100Z AUTO 03004KT 3/8SM 10/09 A3024 RMK T01000090 IEM_DS3505
ZGNN,2002-01-01 02:00,ZGNN 010200Z AUTO 1SM 13/12 A3027 RMK T01300120 IEM_DS3505
ZGNN,2002-01-01 03:00,ZGNN 010300Z AUTO 32006KT 1 1/4SM 16/12 A3027 RMK SLP251 T01640116 52009 IEM_DS3505
ZGNN,2002-01-01 04:00,ZGNN 010400Z AUTO 1 1/2SM 19/12 A3024 RMK T01900120 IEM_DS3505
ZGNN,2002-01-01 05:00,ZGNN 010500Z AUTO 2 1/2SM 20/11 A3018 RMK T02000110 IEM_DS3505
ZGNN,2002-01-01 06:00,ZGNN 010600Z AUTO 32010KT 5SM 21/11 A3015 RMK SLP216 T02100106 57033 IEM_DS3505
ZGNN,2002-01-01 07:00,ZGNN 010700Z AUTO 6SM 21/07 A3015 RMK T02100070 IEM_DS3505
ZGNN,2002-01-01 08:00,ZGNN 010800Z AUTO 6SM 22/07 A3012 RMK T02200070 IEM_DS3505
ZGNN,2002-01-01 09:00,ZGNN 010900Z AUTO 32006KT 6SM 21/08 A3015 RMK SLP214 T02120083 57002 IEM_DS3505
ZGNN,2002-01-01 10:00,ZGNN 011000Z AUTO 34002KT 6SM 20/08 A3015 RMK T02000080 IEM_DS3505
ZGNN,2002-01-01 11:00,ZGNN 011100Z AUTO 30002KT 16/10 A3018 RMK T01600100 IEM_DS3505
ZGNN,2002-01-01 13:00,ZGNN 011300Z AUTO 12002KT 4SM 12/11 A3021 RMK T01200110 IEM_DS3505
ZGNN,2002-01-01 14:00,ZGNN 011400Z AUTO 1 1/2SM 12/10 A3021 RMK T01200100 IEM_DS3505
ZGNN,2002-01-01 15:00,ZGNN 011500Z AUTO 00000KT 4SM 11/10 A3024 RMK SLP244 T01110101 52012 IEM_DS3505
ZGNN,2002-01-01 16:00,ZGNN 011600Z AUTO 1 1/4SM 11/10 A3024 RMK T01100100 IEM_DS3505
ZGNN,2002-01-01 17:00,ZGNN 011700Z AUTO 34002KT 1 1/2SM 10/09 A3024 RMK T01000090 IEM_DS3505
ZGNN,2002-01-01 18:00,ZGNN 011800Z AUTO 22002KT 4SM 09/09 A3024 RMK SLP248 T00930089 52004 IEM_DS3505
ZGNN,2002-01-01 19:00,ZGNN 011900Z AUTO 27002KT 2SM 10/09 A3024 RMK T01000090 IEM_DS3505
ZGNN,2002-01-01 20:00,ZGNN 012000Z AUTO 21004KT 1SM 09/08 A3024 RMK T00900080 IEM_DS3505
ZGNN,2002-01-01 21:00,ZGNN 012100Z AUTO 00000KT 2 1/2SM 09/09 A3024 RMK SLP251 T00900086 52003 IEM_DS3505
ZGNN,2002-01-01 22:00,ZGNN 012200Z AUTO 19002KT 1SM 09/07 A3027 RMK T00900070 IEM_DS3505
ZGNN,2002-01-01 23:00,ZGNN 012300Z AUTO 27002KT 1 1/4SM 09/08 A3030 RMK T00900080 IEM_DS3505
ZGNN,2002-01-02 00:00,ZGNN 020000Z AUTO 00000KT 2 1/2SM 09/08 A3036 RMK SLP284 T00860078 52031 IEM_DS3505
ZGNN,2002-01-02 01:00,ZGNN 020100Z AUTO 1SM 09/08 A3036 RMK T00900080 IEM_DS3505
ZGNN,2002-01-02 02:00,ZGNN 020200Z AUTO 1SM 13/11 A3039 RMK T01300110 IEM_DS3505
ZGNN,2002-01-02 03:00,ZGNN 020300Z AUTO 27002KT 2 1/2SM 17/09 A3039 RMK SLP296 T01700091 52013 IEM_DS3505
ZGNN,2002-01-02 04:00,ZGNN 020400Z AUTO 2 1/2SM 19/06 A3036 RMK T01900060 IEM_DS3505
ZGNN,2002-01-02 05:00,ZGNN 020500Z AUTO 01006KT 2 1/2SM 20/06 A3033 RMK T02000060 IEM_DS3505
ZGNN,2002-01-02 06:00,ZGNN 020600Z AUTO 09006KT 6SM 21/06 A3030 RMK SLP269 T02070065 57026 IEM_DS3505
ZGNN,2002-01-02 07:00,ZGNN 020700Z AUTO 03008KT 21/04 A3030 RMK T02100040 IEM_DS3505
ZGNN,2002-01-02 08:00,ZGNN 020800Z AUTO 01008KT 21/04 A3027 RMK T02100040 IEM_DS3505
ZGNN,2002-01-02 09:00,ZGNN 020900Z AUTO 34004KT 6SM 21/06 A3027 RMK SLP257 T02110060 57012 IEM_DS3505
ZGNN,2002-01-02 10:00,ZGNN 021000Z AUTO 36002KT 19/07 A3030 RMK T01900070 IEM_DS3505
ZGNN,2002-01-02 11:00,ZGNN 021100Z AUTO 36002KT 2 1/2SM 16/08 A3030 RMK T01600080 IEM_DS3505
ZGNN,2002-01-02 12:00,ZGNN 021200Z AUTO 00000KT 5SM 13/08 A3033 RMK SLP281 T01280082 52021 IEM_DS3505
ZGNN,2002-01-02 13:00,ZGNN 021300Z AUTO 2 1/2SM 13/07 A3033 RMK T01300070 IEM_DS3505
ZGNN,2002-01-02 14:00,ZGNN 021400Z AUTO 2SM 12/10 A3033 RMK T01200100 IEM_DS3505
ZGNN,2002-01-02 15:00,ZGNN 021500Z AUTO 00000KT 5SM 11/09 A3033 RMK SLP274 T01120090 57005 IEM_DS3505
ZGNN,2002-01-02 16:00,ZGNN 021600Z AUTO 3SM 11/08 A3030 RMK T01100080 IEM_DS3505
ZGNN,2002-01-02 17:00,ZGNN 021700Z AUTO 3SM 10/07 A3030 RMK T01000070 IEM_DS3505
ZGNN,2002-01-02 18:00,ZGNN 021800Z AUTO 00000KT 4SM 08/06 A3030 RMK SLP268 T00790059 57006 IEM_DS3505
ZGNN,2002-01-02 19:00,ZGNN 021900Z AUTO 2 1/2SM 08/06 A3030 RMK T00800060 IEM_DS3505
ZGNN,2002-01-02 20:00,ZGNN 022000Z AUTO 25002KT 2 1/2SM 07/05 A3030 RMK T00700050 IEM_DS3505
ZGNN,2002-01-02 21:00,ZGNN 022100Z AUTO 00000KT 5SM 06/05 A3030 RMK SLP264 T00620051 57004 IEM_DS3505
ZGNN,2002-01-02 22:00,ZGNN 022200Z AUTO 2 1/2SM 07/05 A3027 RMK T00700050 IEM_DS3505
ZGNN,2002-01-02 23:00,ZGNN 022300Z AUTO 3SM 06/05 A3027 RMK T00600050 IEM_DS3505
ZGNN,2002-01-03 00:00,ZGNN 030000Z AUTO 00000KT 4SM 06/05 A3030 RMK SLP272 T00570050 52006 IEM_DS3505
ZGNN,2002-01-03 01:00,ZGNN 030100Z AUTO 1 1/2SM 09/07 A3033 RMK T00900070 IEM_DS3505
ZGNN,2002-01-03 02:00,ZGNN 030200Z AUTO 1 1/2SM 12/08 A3033 RMK T01200080 IEM_DS3505
ZGNN,2002-01-03 03:00,ZGNN 030300Z AUTO 00000KT 4SM 16/07 A3033 RMK SLP277 T01630070 52007 IEM_DS3505
ZGNN,2002-01-03 04:00,ZGNN 030400Z AUTO 07006KT 19/03 A3030 RMK T01900030 IEM_DS3505
ZGNN,2002-01-03 05:00,ZGNN 030500Z AUTO 6SM 20/04 A3027 RMK T02000040 IEM_DS3505
ZGNN,2002-01-03 06:00,ZGNN 030600Z AUTO 09004KT 7SM 21/04 A3021 RMK SLP236 T02090040 57040 IEM_DS3505
ZGNN,2002-01-03 07:00,ZGNN 030700Z AUTO 6SM 21/03 A3018 RMK T02100030 IEM_DS3505
ZGNN,2002-01-03 08:00,ZGNN 030800Z AUTO 6SM 22/02 A3018 RMK T02200020 IEM_DS3505
ZGNN,2002-01-03 09:00,ZGNN 030900Z AUTO 09004KT 6SM 22/04 A3018 RMK SLP230 T02170044 57006 IEM_DS3505
ZGNN,2002-01-03 10:00,ZGNN 031000Z AUTO 08004KT 6SM 19/05 A3018 RMK T01900050 IEM_DS3505
ZGNN,2002-01-03 11:00,ZGNN 031100Z AUTO 16/07 A3021 RMK T01600070 IEM_DS3505
ZGNN,2002-01-03 12:00,ZGNN 031200Z AUTO 00000KT 6SM 13/08 A3024 RMK SLP251 T01260077 52018 IEM_DS3505
ZGNN,2002-01-03 13:00,ZGNN 031300Z AUTO 2 1/2SM 11/08 A3027 RMK T01100080 IEM_DS3505
ZGNN,2002-01-03 14:00,ZGNN 031400Z AUTO 34002KT 2 1/2SM 11/07 A3027 RMK T01100070 IEM_DS3505
ZGNN,2002-01-03 16:00,ZGNN 031600Z AUTO 2SM 09/07 A3027 RMK T00900070 IEM_DS3505
ZGNN,2002-01-03 17:00,ZGNN 031700Z AUTO 2SM 09/07 A3027 RMK T00900070 IEM_DS3505
ZGNN,2002-01-03 18:00,ZGNN 031800Z AUTO 00000KT 6SM 08/06 A3027 RMK SLP258 T00780060 57001 IEM_DS3505
ZGNN,2002-01-03 19:00,ZGNN 031900Z AUTO 2 1/2SM 07/05 A3027 RMK T00700050 IEM_DS3505
ZGNN,2002-01-03 20:00,ZGNN 032000Z AUTO 17002KT 1SM 07/06 A3027 RMK T00700060 IEM_DS3505
ZGNN,2002-01-03 21:00,ZGNN 032100Z AUTO 00000KT 5SM 06/05 A3027 RMK SLP257 T00590052 57002 IEM_DS3505
ZGNN,2002-01-03 22:00,ZGNN 032200Z AUTO 03002KT 3SM 06/04 A3027 RMK T00600040 IEM_DS3505
ZGNN,2002-01-03 23:00,ZGNN 032300Z AUTO 3SM 06/04 A3030 RMK T00600040 IEM_DS3505
ZGNN,2002-01-04 00:00,ZGNN 040000Z AUTO 00000KT 4SM 05/04 A3030 RMK SLP278 T00500045 52018 IEM_DS3505
ZGNN,2002-01-04 01:00,ZGNN 040100Z AUTO 23002KT 1 1/4SM 08/07 A3033 RMK T00800070 IEM_DS3505
ZGNN,2002-01-04 02:00,ZGNN 040200Z AUTO 20002KT 1 1/2SM 11/08 A3036 RMK T01100080 IEM_DS3505
ZGNN,2002-01-04 03:00,ZGNN 040300Z AUTO 20002KT 4SM 15/09 A3033 RMK SLP279 T01530089 52003 IEM_DS3505
ZGNN,2002-01-04 04:00,ZGNN 040400Z AUTO 18/06 A3033 RMK T01800060 IEM_DS3505
ZGNN,2002-01-04 05:00,ZGNN 040500Z AUTO 5SM 21/05 A3027 RMK T02100050 IEM_DS3505
ZGNN,2002-01-04 06:00,ZGNN 040600Z AUTO 04004KT 6SM 21/06 A3024 RMK SLP241 T02130063 57036 IEM_DS3505
ZGNN,2002-01-04 07:00,ZGNN 040700Z AUTO 35006KT 6SM 22/03 A3021 RMK T02200030 IEM_DS3505
ZGNN,2002-01-04 08:00,ZGNN 040800Z AUTO 35004KT 6SM 22/02 A3018 RMK T02200020 IEM_DS3505
ZGNN,2002-01-04 09:00,ZGNN 040900Z AUTO 00000KT 6SM 22/06 A3018 RMK SLP227 T02190056 57014 IEM_DS3505
ZGNN,2002-01-04 10:00,ZGNN 041000Z AUTO 31002KT 5SM 20/04 A3018 RMK T02000040 IEM_DS3505
ZGNN,2002-01-04 11:00,ZGNN 041100Z AUTO 5SM 16/07 A3018 RMK T01600070 IEM_DS3505
ZGNN,2002-01-04 12:00,ZGNN 041200Z AUTO 00000KT 6SM 13/08 A3021 RMK SLP243 T01260075 52013 IEM_DS3505
ZGNN,2002-01-04 13:00,ZGNN 041300Z AUTO 4SM 12/08 A3024 RMK T01200080 IEM_DS3505
ZGNN,2002-01-04 14:00,ZGNN 041400Z AUTO 4SM 10/08 A3024 RMK T01000080 IEM_DS3505
ZGNN,2002-01-04 15:00,ZGNN 041500Z AUTO 00000KT 6SM 09/07 A3024 RMK SLP245 T00940071 52004 IEM_DS3505
ZGNN,2002-01-04 16:00,ZGNN 041600Z AUTO 27002KT 2SM 09/07 A3024 RMK T00900070 IEM_DS3505
ZGNN,2002-01-04 17:00,ZGNN 041700Z AUTO 2 1/2SM 08/06 A3021 RMK T00800060 IEM_DS3505
ZGNN,2002-01-04 18:00,ZGNN 041800Z AUTO 00000KT 6SM 07/06 A3018 RMK SLP230 T00690060 57014 IEM_DS3505
ZGNN,2002-01-04 19:00,ZGNN 041900Z AUTO 2 1/2SM 07/05 A3018 RMK T00700050 IEM_DS3505
ZGNN,2002-01-04 20:00,ZGNN 042000Z AUTO 1 1/4SM 07/06 A3018 RMK T00700060 IEM_DS3505
ZGNN,2002-01-04 21:00,ZGNN 042100Z AUTO 00000KT 4SM 06/05 A3018 RMK SLP229 T00550048 57001 IEM_DS3505
ZGNN,2002-01-04 22:00,ZGNN 042200Z AUTO 20002KT 3SM 06/05 A3018 RMK T00600050 IEM_DS3505
ZGNN,2002-01-04 23:00,ZGNN 042300Z AUTO 2 1/2SM 06/04 A3021 RMK T00600040 IEM_DS3505
ZGNN,2002-01-05 00:00,ZGNN 050000Z AUTO 00000KT 2 1/2SM 05/05 A3021 RMK SLP243 T00520047 52011 IEM_DS3505
ZGNN,2002-01-05 01:00,ZGNN 050100Z AUTO 1 1/2SM 08/06 A3024 RMK T00800060 IEM_DS3505
ZGNN,2002-01-05 02:00,ZGNN 050200Z AUTO 2SM 11/07 A3024 RMK T01100070 IEM_DS3505
ZGNN,2002-01-05 03:00,ZGNN 050300Z AUTO 00000KT 4SM 16/09 A3024 RMK SLP249 T01610089 52008 IEM_DS3505
ZGNN,2002-01-05 04:00,ZGNN 050400Z AUTO 2 1/2SM 19/07 A3021 RMK T01900070 IEM_DS3505
ZGNN,2002-01-05 05:00,ZGNN 050500Z AUTO 3SM 21/04 A3018 RMK T02100040 IEM_DS3505
ZGNN,2002-01-05 06:00,ZGNN 050600Z AUTO 18004KT 6SM 23/07 A3012 RMK SLP202 T02270072 57045 IEM_DS3505
ZGNN,2002-01-05 07:00,ZGNN 050700Z AUTO 5SM 23/03 A3009 RMK T02300030 IEM_DS3505
ZGNN,2002-01-05 08:00,ZGNN 050800Z AUTO 6SM 24/04 A3006 RMK T02400040 IEM_DS3505
ZGNN,2002-01-05 09:00,ZGNN 050900Z AUTO 22004KT 6SM 24/04 A3006 RMK SLP190 T02350041 57012 IEM_DS3505
ZGNN,2002-01-05 10:00,ZGNN 051000Z AUTO 11004KT 6SM 21/03 A3006 RMK T02100030 IEM_DS3505
ZGNN,2002-01-05 11:00,ZGNN 051100Z AUTO 6SM 16/07 A3009 RMK T01600070 IEM_DS3505
ZGNN,2002-01-05 12:00,ZGNN 051200Z AUTO 00000KT 7SM 12/08 A3009 RMK SLP207 T01250078 52013 IEM_DS3505
ZGNN,2002-01-05 13:00,ZGNN 051300Z AUTO 30002KT 4SM 12/07 A3012 RMK T01200070 IEM_DS3505
ZGNN,2002-01-05 14:00,ZGNN 051400Z AUTO 4SM 11/07 A3012 RMK T01100070 IEM_DS3505
ZGNN,2002-01-05 15:00,ZGNN 051500Z AUTO 00000KT 7SM 10/07 A3012 RMK SLP209 T00950070 52005 IEM_DS3505
ZGNN,2002-01-05 16:00,ZGNN 051600Z AUTO 34002KT 2 1/2SM 10/06 A3012 RMK T01000060 IEM_DS3505
ZGNN,2002-01-05 17:00,ZGNN 051700Z AUTO 33002KT 3SM 08/06 A3012 RMK T00800060 IEM_DS3505
ZGNN,2002-01-05 18:00,ZGNN 051800Z AUTO 00000KT 6SM 08/06 A3012 RMK SLP205 T00780060 57003 IEM_DS3505
ZGNN,2002-01-05 19:00,ZGNN 051900Z AUTO 2SM 07/05 A3012 RMK T00700050 IEM_DS3505
ZGNN,2002-01-05 20:00,ZGNN 052000Z AUTO 1 1/2SM 07/05 A3012 RMK T00700050 IEM_DS3505
ZGNN,2002-01-05 21:00,ZGNN 052100Z AUTO 00000KT 6SM 06/05 A3012 RMK SLP208 T00550050 52002 IEM_DS3505
ZGNN,2002-01-05 22:00,ZGNN 052200Z AUTO 2SM 06/05 A3015 RMK T00600050 IEM_DS3505
ZGNN,2002-01-05 23:00,ZGNN 052300Z AUTO 02002KT 2SM 06/04 A3018 RMK T00600040 IEM_DS3505
ZGNN,2002-01-06 00:00,ZGNN 060000Z AUTO 00000KT 6SM 05/04 A3018 RMK SLP234 T00470045 52023 IEM_DS3505
ZGNN,2002-01-06 01:00,ZGNN 060100Z AUTO 21002KT 1 1/4SM 07/06 A3021 RMK T00700060 IEM_DS3505
ZGNN,2002-01-06 02:00,ZGNN 060200Z AUTO 1 1/4SM 13/08 A3024 RMK T01300080 IEM_DS3505
ZGNN,2002-01-06 03:00,ZGNN 060300Z AUTO 00000KT 5SM 17/09 A3024 RMK SLP251 T01730086 52019 IEM_DS3505
ZGNN,2002-01-06 04:00,ZGNN 060400Z AUTO 2 1/2SM 20/05 A3024 RMK T02000050 IEM_DS3505
ZGNN,2002-01-06 05:00,ZGNN 060500Z AUTO 22/04 A3018 RMK T02200040 IEM_DS3505
ZGNN,2002-01-06 06:00,ZGNN 060600Z AUTO 00000KT 9SM 23/03 A3015 RMK SLP218 T02260031 57031 IEM_DS3505
ZGNN,2002-01-06 07:00,ZGNN 060700Z AUTO 6SM 23/00 A3015 RMK T02300000 IEM_DS3505
ZGNN,2002-01-06 08:00,ZGNN 060800Z AUTO 6SM 24/M03 A3012 RMK T02401030 IEM_DS3505
ZGNN,2002-01-06 09:00,ZGNN 060900Z AUTO 36002KT 7SM 23/06 A3015 RMK SLP216 T02300060 57003 IEM_DS3505
ZGNN,2002-01-06 10:00,ZGNN 061000Z AUTO 02002KT 21/04 A3015 RMK T02100040 IEM_DS3505
ZGNN,2002-01-06 11:00,ZGNN 061100Z AUTO 31002KT 3SM 18/09 A3018 RMK T01800090 IEM_DS3505
ZGNN,2002-01-06 12:00,ZGNN 061200Z AUTO 00000KT 7SM 14/09 A3018 RMK SLP235 T01390086 52016 IEM_DS3505
ZGNN,2002-01-06 13:00,ZGNN 061300Z AUTO 3SM 12/10 A3021 RMK T01200100 IEM_DS3505
ZGNN,2002-01-06 14:00,ZGNN 061400Z AUTO 3SM 12/08 A3024 RMK T01200080 IEM_DS3505
ZGNN,2002-01-06 15:00,ZGNN 061500Z AUTO 00000KT 7SM 11/08 A3024 RMK SLP245 T01080079 52013 IEM_DS3505
ZGNN,2002-01-06 16:00,ZGNN 061600Z AUTO 2SM 11/08 A3024 RMK T01100080 IEM_DS3505
ZGNN,2002-01-06 17:00,ZGNN 061700Z AUTO 22002KT 2SM 10/07 A3024 RMK T01000070 IEM_DS3505
ZGNN,2002-01-06 18:00,ZGNN 061800Z AUTO 00000KT 7SM 09/07 A3024 RMK SLP243 T00870068 57001 IEM_DS3505
ZGNN,2002-01-06 19:00,ZGNN 061900Z AUTO 27002KT 1 1/4SM 10/08 A3024 RMK T01000080 IEM_DS3505
ZGNN,2002-01-06 20:00,ZGNN 062000Z AUTO 1 1/4SM 09/07 A3021 RMK T00900070 IEM_DS3505
ZGNN,2002-01-06 21:00,ZGNN 062100Z AUTO 00000KT 6SM 08/07 A3021 RMK SLP237 T00810070 57006 IEM_DS3505
ZGNN,2002-01-06 22:00,ZGNN 062200Z AUTO 2SM 09/07 A3021 RMK T00900070 IEM_DS3505
ZGNN,2002-01-06 23:00,ZGNN 062300Z AUTO 22002KT 2SM 08/06 A3024 RMK T00800060 IEM_DS3505
ZGNN,2002-01-07 00:00,ZGNN 070000Z AUTO 00000KT 6SM 07/06 RMK SLP256 T00680061 52016 IEM_DS3505
ZGNN,2002-01-07 01:00,ZGNN 070100Z AUTO 1 1/2SM 10/08 A3030 RMK T01000080 IEM_DS3505
ZGNN,2002-01-07 02:00,ZGNN 070200Z AUTO 19002KT 1 1/2SM 12/08 A3033 RMK T01200080 IEM_DS3505
ZGNN,2002-01-07 03:00,ZGNN 070300Z AUTO 34006KT 3SM 18/09 A3030 RMK SLP268 T01830094 52014 IEM_DS3505
ZGNN,2002-01-07 04:00,ZGNN 070400Z AUTO 33006KT 2 1/2SM 21/07 A3030 RMK T02100070 IEM_DS3505
ZGNN,2002-01-07 05:00,ZGNN 070500Z AUTO 2 1/2SM 21/06 A3027 RMK T02100060 IEM_DS3505
ZGNN,2002-01-07 06:00,ZGNN 070600Z AUTO 02004KT 4SM 22/08 A3021 RMK SLP234 T02250079 57033 IEM_DS3505
ZGNN,2002-01-07 07:00,ZGNN 070700Z AUTO 2 1/2SM 22/07 A3018 RMK T02200070 IEM_DS3505
ZGNN,2002-01-07 08:00,ZGNN 070800Z AUTO 3SM 23/07 A3018 RMK T02300070 IEM_DS3505
ZGNN,2002-01-07 09:00,ZGNN 070900Z AUTO 00000KT 4SM 22/10 A3018 RMK SLP224 T02240098 57010 IEM_DS3505
ZGNN,2002-01-07 10:00,ZGNN 071000Z AUTO 3SM 21/08 A3018 RMK T02100080 IEM_DS3505
ZGNN,2002-01-07 11:00,ZGNN 071100Z AUTO 31004KT 2SM 16/09 A3018 RMK T01600090 IEM_DS3505
ZGNN,2002-01-07 12:00,ZGNN 071200Z AUTO 00000KT 4SM 14/10 A3021 RMK SLP239 T01430103 52012 IEM_DS3505
ZGNN,2002-01-07 13:00,ZGNN 071300Z AUTO 35002KT 2SM 14/09 A3021 RMK T01400090 IEM_DS3505
ZGNN,2002-01-07 14:00,ZGNN 071400Z AUTO 2SM 12/10 A3024 RMK T01200100 IEM_DS3505
ZGNN,2002-01-07 15:00,ZGNN 071500Z AUTO 00000KT 4SM 11/09 A3024 RMK SLP251 T01070093 52014 IEM_DS3505
ZGNN,2002-01-07 16:00,ZGNN 071600Z AUTO 1 1/2SM 11/09 A3024 RMK T01100090 IEM_DS3505
ZGNN,2002-01-07 17:00,ZGNN 071700Z AUTO 1 1/4SM 10/09 A3024 RMK T01000090 IEM_DS3505
ZGNN,2002-01-07 18:00,ZGNN 071800Z AUTO 00000KT 4SM 09/08 A3021 RMK SLP240 T00920084 57010 IEM_DS3505
ZGNN,2002-01-07 19:00,ZGNN 071900Z AUTO 1 1/4SM 09/08 A3021 RMK T00900080 IEM_DS3505
ZGNN,2002-01-07 20:00,ZGNN 072000Z AUTO 1 1/2SM 09/07 A3021 RMK T00900070 IEM_DS3505
ZGNN,2002-01-07 21:00,ZGNN 072100Z AUTO 00000KT 1 1/4SM 08/07 RMK SLP234 T00780074 57007 IEM_DS3505
ZGNN,2002-01-07 22:00,ZGNN 072200Z AUTO 1 1/2SM 09/07 A3021 RMK T00900070 IEM_DS3505
ZGNN,2002-01-07 23:00,ZGNN 072300Z AUTO 1 1/4SM 08/07 A3024 RMK T00800070 IEM_DS3505
ZGNN,2002-01-08 00:00,ZGNN 080000Z AUTO 00000KT 1SM 07/07 A3027 RMK SLP254 T00720068 52018 IEM_DS3505
ZGNN,2002-01-08 01:00,ZGNN 080100Z AUTO 1SM 09/08 A3030 RMK T00900080 IEM_DS3505
ZGNN,2002-01-08 02:00,ZGNN 080200Z AUTO 1SM 12/10 A3030 RMK T01200100 IEM_DS3505
ZGNN,2002-01-08 03:00,ZGNN 080300Z AUTO 14002KT 2 1/2SM 17/11 A3033 RMK SLP274 T01720109 52021 IEM_DS3505
ZGNN,2002-01-08 04:00,ZGNN 080400Z AUTO 2SM 20/09 A3030 RMK T02000090 IEM_DS3505
ZGNN,2002-01-08 05:00,ZGNN 080500Z AUTO 2 1/2SM 21/08 A3024 RMK T02100080 IEM_DS3505
ZGNN,2002-01-08 06:00,ZGNN 080600Z AUTO 09002KT 4SM 22/10 A3021 RMK SLP237 T02230096 57035 IEM_DS3505
ZGNN,2002-01-08 07:00,ZGNN 080700Z AUTO 3SM 23/09 A3018 RMK T02300090 IEM_DS3505
ZGNN,2002-01-08 08:00,ZGNN 080800Z AUTO 3SM 23/10 A3015 RMK T02300100 IEM_DS3505
ZGNN,2002-01-08 09:00,ZGNN 080900Z AUTO 14004KT 4SM 23/12 A3015 RMK SLP218 T02300117 57019 IEM_DS3505
ZGNN,2002-01-08 10:00,ZGNN 081000Z AUTO 14004KT 21/09 A3015 RMK T02100090 IEM_DS3505
ZGNN,2002-01-08 11:00,ZGNN 081100Z AUTO 2 1/2SM 18/10 A3018 RMK T01800100 IEM_DS3505
ZGNN,2002-01-08 12:00,ZGNN 081200Z AUTO 00000KT 4SM 15/11 A3021 RMK SLP241 T01480113 52020 IEM_DS3505
ZGNN,2002-01-08 13:00,ZGNN 081300Z AUTO 2SM 14/11 A3024 RMK T01400110 IEM_DS3505
ZGNN,2002-01-08 14:00,ZGNN 081400Z AUTO 02002KT 2SM 14/10 A3024 RMK T01400100 IEM_DS3505
ZGNN,2002-01-08 15:00,ZGNN 081500Z AUTO 00000KT 4SM 13/10 A3024 RMK SLP251 T01270102 52012 IEM_DS3505
ZGNN,2002-01-08 16:00,ZGNN 081600Z AUTO 36002KT 1 1/2SM 12/10 A3024 RMK T01200100 IEM_DS3505
ZGNN,2002-01-08 17:00,ZGNN 081700Z AUTO 1 1/4SM 12/09 A3024 RMK T01200090 IEM_DS3505
ZGNN,2002-01-08 18:00,ZGNN 081800Z AUTO 00000KT 3SM 11/10 A3024 RMK SLP248 T01130105 57002 IEM_DS3505
ZGNN,2002-01-08 19:00,ZGNN 081900Z AUTO 32002KT 1 1/4SM 12/10 A3024 RMK T01200100 IEM_DS3505
ZGNN,2002-01-08 20:00,ZGNN 082000Z AUTO 03002KT 1 1/4SM 11/10 A3024 RMK T01100100 IEM_DS3505
ZGNN,2002-01-08 21:00,ZGNN 082100Z AUTO 01002KT 1SM 10/09 A3024 RMK T01000090 IEM_DS3505
ZGNN,2002-01-08 22:00,ZGNN 082200Z AUTO 02004KT 1SM 12/10 A3024 RMK T01200100 IEM_DS3505
ZGNN,2002-01-08 23:00,ZGNN 082300Z AUTO 03004KT 1 1/4SM 11/09 A3024 RMK T01100090 IEM_DS3505
ZGNN,2002-01-09 00:00,ZGNN 090000Z AUTO 00000KT 1/4SM 10/09 A3027 RMK SLP257 T00960092 52012 IEM_DS3505
ZGNN,2002-01-09 01:00,ZGNN 090100Z AUTO 04002KT 1SM 12/11 A3027 RMK T01200110 IEM_DS3505
ZGNN,2002-01-09 02:00,ZGNN 090200Z AUTO 1 1/4SM 15/13 A3027 RMK T01500130 IEM_DS3505
ZGNN,2002-01-09 03:00,ZGNN 090300Z AUTO 18002KT 2 1/2SM 18/14 A3027 RMK SLP256 T01800142 54000 IEM_DS3505
ZGNN,2002-01-09 04:00,ZGNN 090400Z AUTO 15008KT 19/13 A3024 RMK T01900130 IEM_DS3505
ZGNN,2002-01-09 05:00,ZGNN 090500Z AUTO 15006KT 5SM 21/12 A3021 RMK T02100120 IEM_DS3505
ZGNN,2002-01-09 06:00,ZGNN 090600Z AUTO 16008KT 6SM 22/10 A3015 RMK SLP214 T02220097 57040 IEM_DS3505
ZGNN,2002-01-09 07:00,ZGNN 090700Z AUTO 15008KT 6SM 23/09 A3012 RMK T02300090 IEM_DS3505
ZGNN,2002-01-09 08:00,ZGNN 090800Z AUTO 13008KT 6SM 22/09 A3009 RMK T02200090 IEM_DS3505
ZGNN,2002-01-09 09:00,ZGNN 090900Z AUTO 14006KT 6SM 22/09 A3009 RMK SLP195 T02240091 57020 IEM_DS3505
ZGNN,2002-01-09 10:00,ZGNN 091000Z AUTO 00000KT 6SM A3009 RMK SLP219 57004 IEM_DS3505
ZGNN,2002-01-09 11:00,ZGNN 091100Z AUTO 6SM 19/07 A3012 RMK T01900070 IEM_DS3505
ZGNN,2002-01-09 12:00,ZGNN 091200Z AUTO 00000KT 6SM 17/09 A3015 RMK SLP211 T01710093 52015 IEM_DS3505
ZGNN,2002-01-09 13:00,ZGNN 091300Z AUTO 14006KT 6SM 18/11 A3015 RMK T01800110 IEM_DS3505
ZGNN,2002-01-09 14:00,ZGNN 091400Z AUTO 5SM 17/11 A3018 RMK T01700110 IEM_DS3505
ZGNN,2002-01-09 15:00,ZGNN 091500Z AUTO 00000KT 6SM 14/12 A3018 RMK SLP224 T01400118 52014 IEM_DS3505
ZGNN,2002-01-09 16:00,ZGNN 091600Z AUTO 4SM 14/11 A3018 RMK T01400110 IEM_DS3505
ZGNN,2002-01-09 17:00,ZGNN 091700Z AUTO 4SM 14/11 A3018 RMK T01400110 IEM_DS3505
ZGNN,2002-01-09 18:00,ZGNN 091800Z AUTO 00000KT 6SM 13/12 A3018 RMK SLP219 T01260115 57004 IEM_DS3505
ZGNN,2002-01-09 19:00,ZGNN 091900Z AUTO 02002KT 2 1/2SM 13/11 A3015 RMK T01300110 IEM_DS3505
ZGNN,2002-01-09 20:00,ZGNN 092000Z AUTO 01002KT 2SM 13/12 A3015 RMK T01300120 IEM_DS3505
ZGNN,2002-01-09 21:00,ZGNN 092100Z AUTO 00000KT 5SM 14/14 A3012 RMK SLP208 T01410137 57011 IEM_DS3505
ZGNN,2002-01-09 22:00,ZGNN 092200Z AUTO 2SM 15/13 A3012 RMK T01500130 IEM_DS3505
ZGNN,2002-01-09 23:00,ZGNN 092300Z AUTO 07002KT 2SM 15/14 A3015 RMK T01500140 IEM_DS3505
ZGNN,2002-01-10 00:00,ZGNN 100000Z AUTO 09004KT 2SM 16/15 A3015 RMK SLP218 T01560146 52009 IEM_DS3505
ZGNN,2002-01-10 01:00,ZGNN 100100Z AUTO 07004KT 1 1/2SM 16/14 A3018 RMK T01600140 IEM_DS3505
ZGNN,2002-01-10 02:00,ZGNN 100200Z AUTO 03002KT 2 1/2SM 17/15 A3018 RMK T01700150 IEM_DS3505
ZGNN,2002-01-10 03:00,ZGNN 100300Z AUTO 18004KT 4SM 18/15 A3018 RMK SLP226 T01780147 52008 IEM_DS3505
ZGNN,2002-01-10 04:00,ZGNN 100400Z AUTO 4SM 19/14 A3018 RMK T01900140 IEM_DS3505
ZGNN,2002-01-10 05:00,ZGNN 100500Z AUTO 20/14 A3015 RMK T02000140 IEM_DS3505
ZGNN,2002-01-10 06:00,ZGNN 100600Z AUTO 14004KT 6SM 21/14 A3009 RMK SLP194 T02140143 57031 IEM_DS3505
ZGNN,2002-01-10 07:00,ZGNN 100700Z AUTO 7SM 21/14 A3006 RMK T02100140 IEM_DS3505
ZGNN,2002-01-10 08:00,ZGNN 100800Z AUTO 7SM 21/13 A3006 RMK T02100130 IEM_DS3505
ZGNN,2002-01-10 09:00,ZGNN 100900Z AUTO 00000KT 6SM 22/14 A3006 RMK SLP185 T02160145 57008 IEM_DS3505
ZGNN,2002-01-10 10:00,ZGNN 101000Z AUTO 13004KT 7SM 20/14 A3006 RMK T02000140 IEM_DS3505
ZGNN,2002-01-10 11:00,ZGNN 101100Z AUTO 12002KT 7SM 19/15 A3009 RMK T01900150 IEM_DS3505
ZGNN,2002-01-10 12:00,ZGNN 101200Z AUTO 00000KT 4SM 19/16 A3009 RMK 60003 SLP192 T01910161 52006 IEM_DS3505
ZGNN,2002-01-10 14:00,ZGNN 101400Z AUTO 5SM 18/15 A3009 RMK T01800150 IEM_DS3505
ZGNN,2002-01-10 15:00,ZGNN 101500Z AUTO 00000KT 3SM 16/15 A3009 RMK SLP196 T01630154 52004 IEM_DS3505
ZGNN,2002-01-10 16:00,ZGNN 101600Z AUTO 02002KT 2 1/2SM 16/14 A3009 RMK T01600140 IEM_DS3505
ZGNN,2002-01-10 17:00,ZGNN 101700Z AUTO 3SM 16/14 A3006 RMK T01600140 IEM_DS3505
ZGNN,2002-01-10 18:00,ZGNN 101800Z AUTO 00000KT 3SM 16/15 A3006 RMK 60003 SLP180 T01560149 57015 IEM_DS3505
ZGNN,2002-01-10 19:00,ZGNN 101900Z AUTO 01002KT 1 1/2SM 16/15 A3003 RMK T01600150 IEM_DS3505
ZGNN,2002-01-10 20:00,ZGNN 102000Z AUTO 1 1/2SM 16/14 A3003 RMK T01600140 IEM_DS3505
ZGNN,2002-01-10 21:00,ZGNN 102100Z AUTO 00000KT 4SM 16/15 A3003 RMK 70003 SLP172 T01550150 57008 IEM_DS3505
ZGNN,2002-01-10 22:00,ZGNN 102200Z AUTO 01004KT 2SM 16/15 A3003 RMK T01600150 IEM_DS3505
ZGNN,2002-01-10 23:00,ZGNN 102300Z AUTO 04002KT 1 1/4SM 16/15 A3003 RMK T01600150 IEM_DS3505
ZGNN,2002-01-11 00:00,ZGNN 110000Z AUTO 00000KT 3SM 16/16 A3006 RMK 60000 SLP178 T01620157 52006 IEM_DS3505
ZGNN,2002-01-11 01:00,ZGNN 110100Z AUTO 05002KT 1SM 16/15 A3006 RMK T01600150 IEM_DS3505
ZGNN,2002-01-11 02:00,ZGNN 110200Z AUTO 1SM 17/15 A3009 RMK T01700150 IEM_DS3505
ZGNN,2002-01-11 03:00,ZGNN 110300Z AUTO 07002KT 2 1/2SM 17/16 A3006 RMK SLP186 T01730165 52007 IEM_DS3505
ZGNN,2002-01-11 04:00,ZGNN 110400Z AUTO 03006KT 1SM 17/16 A3003 RMK T01700160 IEM_DS3505
ZGNN,2002-01-11 05:00,ZGNN 110500Z AUTO 1 1/4SM 18/17 A3003 RMK T01800170 IEM_DS3505
ZGNN,2002-01-11 06:00,ZGNN 110600Z AUTO 00000KT 1 1/4SM 18/17 A2997 RMK 60003 SLP160 T01800172 57026 IEM_DS3505
ZGNN,2002-01-11 07:00,ZGNN 110700Z AUTO 11004KT 1 1/4SM 18/17 A2997 RMK T01800170 IEM_DS3505
ZGNN,2002-01-11 08:00,ZGNN 110800Z AUTO 08004KT 1 1/4SM 19/17 A2994 RMK T01900170 IEM_DS3505
ZGNN,2002-01-11 09:00,ZGNN 110900Z AUTO 09004KT 2SM 19/17 A2997 RMK SLP153 T01900174 57006 IEM_DS3505
ZGNN,2002-01-11 10:00,ZGNN 111000Z AUTO 09002KT 2SM 19/17 A2997 RMK T01900170 IEM_DS3505
ZGNN,2002-01-11 11:00,ZGNN 111100Z AUTO 05002KT 2SM 18/16 A2997 RMK T01800160 IEM_DS3505
ZGNN,2002-01-11 12:00,ZGNN 111200Z AUTO 00000KT 2SM 18/17 A3000 RMK 60002 SLP168 T01770170 52014 IEM_DS3505
ZGNN,2002-01-11 13:00,ZGNN 111300Z AUTO 06004KT 1SM 17/16 A3000 RMK T01700160 IEM_DS3505
ZGNN,2002-01-11 14:00,ZGNN 111400Z AUTO 03002KT 1SM 17/16 A3000 RMK T01700160 IEM_DS3505
ZGNN,2002-01-11 15:00,ZGNN 111500Z AUTO 00000KT 2SM 17/17 A3003 RMK SLP170 T01730168 52002 IEM_DS3505
ZGNN,2002-01-11 16:00,ZGNN 111600Z AUTO 3/8SM 16/16 A3000 RMK T01600160 IEM_DS3505
ZGNN,2002-01-11 17:00,ZGNN 111700Z AUTO 29002KT 1SM 16/15 A3000 RMK T01600150 IEM_DS3505
ZGNN,2002-01-11 18:00,ZGNN 111800Z AUTO 00000KT 1/2SM 16/16 A3000 RMK 60000 SLP164 T01570155 57006 IEM_DS3505
ZGNN,2002-01-11 19:00,ZGNN 111900Z AUTO 33002KT 1SM 16/15 A3000 RMK T01600150 IEM_DS3505
ZGNN,2002-01-11 20:00,ZGNN 112000Z AUTO 32002KT 1 1/4SM 16/15 A3000 RMK T01600150 IEM_DS3505
ZGNN,2002-01-11 21:00,ZGNN 112100Z AUTO 00000KT 1 1/4SM 17/16 A2997 RMK 70007 SLP154 T01660161 57009 IEM_DS3505
ZGNN,2002-01-11 22:00,ZGNN 112200Z AUTO 34002KT 1 1/4SM 16/15 A2997 RMK T01600150 IEM_DS3505
ZGNN,2002-01-11 23:00,ZGNN 112300Z AUTO 1 1/4SM 17/16 A3000 RMK T01700160 IEM_DS3505
ZGNN,2002-01-12 00:00,ZGNN 120000Z AUTO 14004KT 1 1/4SM 18/17 A3000 RMK 70006 SLP166 T01760169 52012 IEM_DS3505
ZGNN,2002-01-12 01:00,ZGNN 120100Z AUTO 1 1/4SM 18/16 A3003 RMK T01800160 IEM_DS3505
ZGNN,2002-01-12 02:00,ZGNN 120200Z AUTO 2SM 18/17 A3003 RMK T01800170 IEM_DS3505
ZGNN,2002-01-12 03:00,ZGNN 120300Z AUTO 27002KT 3SM 19/17 A3006 RMK SLP185 T01870172 52019 IEM_DS3505
ZGNN,2002-01-12 04:00,ZGNN 120400Z AUTO 14006KT 7SM 19/17 A3006 RMK T01900170 IEM_DS3505
ZGNN,2002-01-12 05:00,ZGNN 120500Z AUTO 14004KT 7SM 20/16 A3000 RMK T02000160 IEM_DS3505
ZGNN,2002-01-12 06:00,ZGNN 120600Z AUTO 14006KT 5SM 20/17 A2997 RMK 60000 SLP156 T02050174 57029 IEM_DS3505
ZGNN,2002-01-12 07:00,ZGNN 120700Z AUTO 7SM 21/17 A2994 RMK T02100170 IEM_DS3505
ZGNN,2002-01-12 08:00,ZGNN 120800Z AUTO 7SM 22/17 A2994 RMK T02200170 IEM_DS3505
ZGNN,2002-01-12 09:00,ZGNN 120900Z AUTO 00000KT 9SM 22/17 A2997 RMK SLP149 T02230168 57006 IEM_DS3505
ZGNN,2002-01-12 10:00,ZGNN 121000Z AUTO 13004KT 7SM 21/16 A2994 RMK T02100160 IEM_DS3505
ZGNN,2002-01-12 11:00,ZGNN 121100Z AUTO 7SM 21/16 A2997 RMK T02100160 IEM_DS3505
ZGNN,2002-01-12 12:00,ZGNN 121200Z AUTO 27004KT 5SM 19/17 A3000 RMK 60003 SLP166 T01860171 52016 IEM_DS3505
ZGNN,2002-01-12 13:00,ZGNN 121300Z AUTO 25002KT 7SM 19/16 A3003 RMK T01900160 IEM_DS3505
ZGNN,2002-01-12 14:00,ZGNN 121400Z AUTO 11004KT 4SM 18/16 A3003 RMK T01800160 IEM_DS3505
ZGNN,2002-01-12 15:00,ZGNN 121500Z AUTO 11004KT 6SM 18/16 A2997 RMK SLP159 T01840164 57007 IEM_DS3505
ZGNN,2002-01-12 16:00,ZGNN 121600Z AUTO 7SM 17/16 A3000 RMK T01700160 IEM_DS3505
ZGNN,2002-01-12 17:00,ZGNN 121700Z AUTO 5SM 16/15 A3000 RMK T01600150 IEM_DS3505
ZGNN,2002-01-12 18:00,ZGNN 121800Z AUTO 00000KT 4SM 15/15 A3000 RMK 60001 SLP161 T01540151 52002 IEM_DS3505
ZGNN,2002-01-12 19:00,ZGNN 121900Z AUTO 2 1/2SM 15/14 A2997 RMK T01500140 IEM_DS3505
ZGNN,2002-01-12 20:00,ZGNN 122000Z AUTO 11002KT 1 1/2SM 15/14 A2997 RMK T01500140 IEM_DS3505
ZGNN,2002-01-12 21:00,ZGNN 122100Z AUTO 00000KT 1 1/4SM 15/15 A2997 RMK 70002 SLP156 T01490146 57005 IEM_DS3505
ZGNN,2002-01-12 22:00,ZGNN 122200Z AUTO 5SM 15/14 A3000 RMK T01500140 IEM_DS3505
ZGNN,2002-01-12 23:00,ZGNN 122300Z AUTO 1 1/2SM 14/13 A3000 RMK T01400130 IEM_DS3505
ZGNN,2002-01-13 00:00,ZGNN 130000Z AUTO 00000KT 1SM 14/14 A3003 RMK 70002 SLP172 T01440140 52015 IEM_DS3505
ZGNN,2002-01-13 01:00,ZGNN 130100Z AUTO 1SM 16/15 A3003 RMK T01600150 IEM_DS3505
ZGNN,2002-01-13 02:00,ZGNN 130200Z AUTO 3SM 19/16 A3006 RMK T01900160 IEM_DS3505
ZGNN,2002-01-13 03:00,ZGNN 130300Z AUTO 00000KT 7SM 21/17 A3006 RMK SLP177 T02080172 52007 IEM_DS3505
ZGNN,2002-01-13 04:00,ZGNN 130400Z AUTO 11006KT 7SM 21/16 A3003 RMK T02100160 IEM_DS3505
ZGNN,2002-01-13 05:00,ZGNN 130500Z AUTO 7SM 22/16 A3000 RMK T02200160 IEM_DS3505
ZGNN,2002-01-13 06:00,ZGNN 130600Z AUTO 18004KT 12SM 23/17 A2997 RMK SLP151 T02300171 57026 IEM_DS3505
ZGNN,2002-01-13 07:00,ZGNN 130700Z AUTO 7SM 23/17 A2994 RMK T02300170 IEM_DS3505
ZGNN,2002-01-13 08:00,ZGNN 130800Z AUTO 7SM 23/16 A2994 RMK T02300160 IEM_DS3505
ZGNN,2002-01-13 09:00,ZGNN 130900Z AUTO 16004KT 9SM 22/17 A2994 RMK SLP148 T02230172 57004 IEM_DS3505
ZGNN,2002-01-13 10:00,ZGNN 131000Z AUTO 12004KT 7SM 22/17 A2997 RMK T02200170 IEM_DS3505
ZGNN,2002-01-13 11:00,ZGNN 131100Z AUTO 12004KT 7SM 20/17 A2994 RMK T02000170 IEM_DS3505
ZGNN,2002-01-13 12:00,ZGNN 131200Z AUTO 09002KT 9SM 20/17 A2997 RMK SLP153 T01950171 52005 IEM_DS3505
ZGNN,2002-01-13 13:00,ZGNN 131300Z AUTO 4SM 19/16 A2997 RMK T01900160 IEM_DS3505
ZGNN,2002-01-13 14:00,ZGNN 131400Z AUTO 4SM 18/16 A3000 RMK T01800160 IEM_DS3505
ZGNN,2002-01-13 15:00,ZGNN 131500Z AUTO 00000KT 7SM 16/15 A2997 RMK SLP159 T01610154 52006 IEM_DS3505
ZGNN,2002-01-13 16:00,ZGNN 131600Z AUTO 6SM 16/15 A2997 RMK T01600150 IEM_DS3505
ZGNN,2002-01-13 17:00,ZGNN 131700Z AUTO 7SM 16/15 A2997 RMK T01600150 IEM_DS3505
ZGNN,2002-01-13 18:00,ZGNN 131800Z AUTO 00000KT 6SM 15/14 A2997 RMK SLP149 T01460142 57009 IEM_DS3505
ZGNN,2002-01-13 19:00,ZGNN 131900Z AUTO 2 1/2SM 15/14 A2994 RMK T01500140 IEM_DS3505
ZGNN,2002-01-13 20:00,ZGNN 132000Z AUTO 2SM 15/14 A2994 RMK T01500140 IEM_DS3505
ZGNN,2002-01-13 21:00,ZGNN 132100Z AUTO 00000KT 5SM 15/14 A2994 RMK SLP143 T01460142 57007 IEM_DS3505
ZGNN,2002-01-13 22:00,ZGNN 132200Z AUTO 01004KT 1 1/4SM 15/14 A2994 RMK T01500140 IEM_DS3505
ZGNN,2002-01-13 23:00,ZGNN 132300Z AUTO 02002KT 1 1/4SM 15/14 A2994 RMK T01500140 IEM_DS3505
ZGNN,2002-01-14 00:00,ZGNN 140000Z AUTO 00000KT 4SM 15/14 A2997 RMK SLP150 T01460142 52007 IEM_DS3505
ZGNN,2002-01-14 01:00,ZGNN 140100Z AUTO 2 1/2SM 16/15 A2997 RMK T01600150 IEM_DS3505
ZGNN,2002-01-14 02:00,ZGNN 140200Z AUTO 1 1/2SM 17/16 A3000 RMK T01700160 IEM_DS3505
ZGNN,2002-01-14 03:00,ZGNN 140300Z AUTO 14004KT 5SM 20/17 A3000 RMK SLP161 T01960173 52011 IEM_DS3505
ZGNN,2002-01-14 04:00,ZGNN 140400Z AUTO 14006KT 7SM 21/16 A3000 RMK T02100160 IEM_DS3505
ZGNN,2002-01-14 05:00,ZGNN 140500Z AUTO 12006KT 6SM 21/16 A2997 RMK T02100160 IEM_DS3505
ZGNN,2002-01-14 06:00,ZGNN 140600Z AUTO 14002KT 12SM 22/17 A2991 RMK SLP136 T02250170 57024 IEM_DS3505
ZGNN,2002-01-14 07:00,ZGNN 140700Z AUTO 11006KT 7SM 23/16 A2988 RMK T02300160 IEM_DS3505
ZGNN,2002-01-14 08:00,ZGNN 140800Z AUTO 11006KT 7SM 23/16 A2988 RMK T02300160 IEM_DS3505
ZGNN,2002-01-14 09:00,ZGNN 140900Z AUTO 14002KT 12SM 23/16 A2988 RMK SLP126 T02300165 57010 IEM_DS3505
ZGNN,2002-01-14 10:00,ZGNN 141000Z AUTO 13006KT 7SM 22/15 A2988 RMK T02200150 IEM_DS3505
ZGNN,2002-01-14 11:00,ZGNN 141100Z AUTO 13004KT 6SM 21/16 A2988 RMK T02100160 IEM_DS3505
ZGNN,2002-01-14 12:00,ZGNN 141200Z AUTO 00000KT 12SM 19/16 A2988 RMK SLP128 T01880163 52001 IEM_DS3505
ZGNN,2002-01-14 13:00,ZGNN 141300Z AUTO 6SM 18/15 A2988 RMK T01800150 IEM_DS3505
ZGNN,2002-01-14 14:00,ZGNN 141400Z AUTO 6SM 17/15 A2991 RMK T01700150 IEM_DS3505
ZGNN,2002-01-14 15:00,ZGNN 141500Z AUTO 00000KT 11SM 15/15 A2991 RMK SLP137 T01540151 52009 IEM_DS3505
ZGNN,2002-01-14 16:00,ZGNN 141600Z AUTO 36002KT 3SM 15/14 A2991 RMK T01500140 IEM_DS3505
ZGNN,2002-01-14 17:00,ZGNN 141700Z AUTO 4SM 15/13 A2991 RMK T01500130 IEM_DS3505
ZGNN,2002-01-14 18:00,ZGNN 141800Z AUTO 00000KT 5SM 14/14 A2991 RMK SLP133 T01390135 57004 IEM_DS3505
ZGNN,2002-01-14 19:00,ZGNN 141900Z AUTO 2SM 14/13 A2988 RMK T01400130 IEM_DS3505
ZGNN,2002-01-14 20:00,ZGNN 142000Z AUTO 3SM 13/12 A2988 RMK T01300120 IEM_DS3505
ZGNN,2002-01-14 21:00,ZGNN 142100Z AUTO 00000KT 4SM 13/13 A2985 RMK SLP118 T01310129 57014 IEM_DS3505
ZGNN,2002-01-14 22:00,ZGNN 142200Z AUTO 29002KT 1 1/4SM 13/13 A2988 RMK T01300130 IEM_DS3505
ZGNN,2002-01-14 23:00,ZGNN 142300Z AUTO 1 1/2SM 13/12 A2991 RMK T01300120 IEM_DS3505
ZGNN,2002-01-15 00:00,ZGNN 150000Z AUTO 00000KT 1/4SM 13/12 A2991 RMK SLP139 T01270125 52019 IEM_DS3505
ZGNN,2002-01-15 01:00,ZGNN 150100Z AUTO 1/8SM 14/13 A2994 RMK T01400130 IEM_DS3505
ZGNN,2002-01-15 02:00,ZGNN 150200Z AUTO 2 1/2SM 16/16 A2994 RMK T01600160 IEM_DS3505
ZGNN,2002-01-15 03:00,ZGNN 150300Z AUTO 22004KT 6SM 21/17 A2994 RMK SLP149 T02080166 52011 IEM_DS3505
ZGNN,2002-01-15 04:00,ZGNN 150400Z AUTO 7SM 23/15 A2991 RMK T02300150 IEM_DS3505
ZGNN,2002-01-15 05:00,ZGNN 150500Z AUTO 7SM 23/15 A2988 RMK T02300150 IEM_DS3505
ZGNN,2002-01-15 06:00,ZGNN 150600Z AUTO 27006KT 16SM 24/16 A2985 RMK SLP108 T02440163 57040 IEM_DS3505
ZGNN,2002-01-15 07:00,ZGNN 150700Z AUTO 7SM 26/16 A2983 RMK T02600160 IEM_DS3505
ZGNN,2002-01-15 08:00,ZGNN 150800Z AUTO 7SM 26/16 A2983 RMK T02600160 IEM_DS3505
ZGNN,2002-01-15 09:00,ZGNN 150900Z AUTO 34006KT 17SM 24/17 A2980 RMK SLP098 T02440171 57010 IEM_DS3505
ZGNN,2002-01-15 10:00,ZGNN 151000Z AUTO 34002KT 7SM 24/17 A2983 RMK T02400170 IEM_DS3505
ZGNN,2002-01-15 11:00,ZGNN 151100Z AUTO 33002KT 7SM 22/17 A2983 RMK T02200170 IEM_DS3505
ZGNN,2002-01-15 12:00,ZGNN 151200Z AUTO 11004KT 16SM 22/18 A2983 RMK SLP109 T02190179 52010 IEM_DS3505
ZGNN,2002-01-15 13:00,ZGNN 151300Z AUTO 14004KT 6SM 20/17 A2985 RMK T02000170 IEM_DS3505
ZGNN,2002-01-15 14:00,ZGNN 151400Z AUTO 6SM 19/16 A2988 RMK T01900160 IEM_DS3505
ZGNN,2002-01-15 15:00,ZGNN 151500Z AUTO 27004KT 12SM 18/17 A2985 RMK SLP122 T01850170 52014 IEM_DS3505
ZGNN,2002-01-15 16:00,ZGNN 151600Z AUTO 33004KT 7SM 17/16 A2988 RMK T01700160 IEM_DS3505
ZGNN,2002-01-15 17:00,ZGNN 151700Z AUTO 4SM 16/14 A2991 RMK T01600140 IEM_DS3505
ZGNN,2002-01-15 18:00,ZGNN 151800Z AUTO 09002KT 9SM 16/15 A2991 RMK SLP132 T01580153 52010 IEM_DS3505
ZGNN,2002-01-15 20:00,ZGNN 152000Z AUTO 1SM 14/13 A2988 RMK T01400130 IEM_DS3505
ZGNN,2002-01-15 21:00,ZGNN 152100Z AUTO 00000KT 1 1/4SM 15/15 A2988 RMK SLP126 T01480148 57006 IEM_DS3505
ZGNN,2002-01-15 22:00,ZGNN 152200Z AUTO 05002KT 1/8SM 15/15 A2991 RMK T01500150 IEM_DS3505
ZGNN,2002-01-15 23:00,ZGNN 152300Z AUTO 1/8SM 16/15 A2991 RMK T01600150 IEM_DS3505
ZGNN,2002-01-16 00:00,ZGNN 160000Z AUTO 00000KT 1/2SM 16/16 A2994 RMK 60000 SLP141 T01640164 52015 IEM_DS3505
ZGNN,2002-01-16 01:00,ZGNN 160100Z AUTO 12002KT 1SM 16/16 A2997 RMK T01600160 IEM_DS3505
ZGNN,2002-01-16 02:00,ZGNN 160200Z AUTO 1 1/2SM 17/17 A2997 RMK T01700170 IEM_DS3505
ZGNN,2002-01-16 03:00,ZGNN 160300Z AUTO 25002KT 2 1/2SM 19/17 A3000 RMK SLP160 T01900174 52018 IEM_DS3505
ZGNN,2002-01-16 04:00,ZGNN 160400Z AUTO 7SM 21/17 A2997 RMK T02100170 IEM_DS3505
ZGNN,2002-01-16 05:00,ZGNN 160500Z AUTO 26006KT 7SM 22/16 A2994 RMK T02200160 IEM_DS3505
ZGNN,2002-01-16 06:00,ZGNN 160600Z AUTO 14006KT 17SM 24/17 A2988 RMK 60003 SLP125 T02430169 57033 IEM_DS3505
ZGNN,2002-01-16 07:00,ZGNN 160700Z AUTO 7SM 24/16 A2985 RMK T02400160 IEM_DS3505
ZGNN,2002-01-16 08:00,ZGNN 160800Z AUTO 11006KT 7SM 23/17 A2985 RMK T02300170 IEM_DS3505
ZGNN,2002-01-16 09:00,ZGNN 160900Z AUTO 09006KT 19SM 24/18 A2985 RMK SLP112 T02350175 57014 IEM_DS3505
ZGNN,2002-01-16 10:00,ZGNN 161000Z AUTO 11004KT 7SM 22/17 A2985 RMK T02200170 IEM_DS3505
ZGNN,2002-01-16 11:00,ZGNN 161100Z AUTO 09004KT 7SM 22/17 A2985 RMK T02200170 IEM_DS3505
ZGNN,2002-01-16 12:00,ZGNN 161200Z AUTO 00000KT 16SM 20/17 A2985 RMK SLP118 T02020173 52006 IEM_DS3505
ZGNN,2002-01-16 14:00,ZGNN 161400Z AUTO 7SM 19/16 A2988 RMK T01900160 IEM_DS3505
ZGNN,2002-01-16 15:00,ZGNN 161500Z AUTO 16004KT 14SM 19/18 A2988 RMK SLP121 T01920176 52003 IEM_DS3505
ZGNN,2002-01-16 16:00,ZGNN 161600Z AUTO 7SM 19/17 A2988 RMK T01900170 IEM_DS3505
ZGNN,2002-01-16 17:00,ZGNN 161700Z AUTO 7SM 19/17 A2988 RMK T01900170 IEM_DS3505
ZGNN,2002-01-16 18:00,ZGNN 161800Z AUTO 14002KT 12SM 19/18 A2985 RMK SLP115 T01910175 57005 IEM_DS3505
ZGNN,2002-01-16 19:00,ZGNN 161900Z AUTO 7SM 19/17 A2985 RMK T01900170 IEM_DS3505
ZGNN,2002-01-16 20:00,ZGNN 162000Z AUTO 23002KT 7SM 19/17 A2985 RMK T01900170 IEM_DS3505
ZGNN,2002-01-16 21:00,ZGNN 162100Z AUTO 00000KT 9SM 19/17 A2985 RMK 70000 SLP113 T01890174 57002 IEM_DS3505
ZGNN,2002-01-16 22:00,ZGNN 162200Z AUTO 7SM 17/16 A2985 RMK T01700160 IEM_DS3505
ZGNN,2002-01-16 23:00,ZGNN 162300Z AUTO 7SM 17/16 A2988 RMK T01700160 IEM_DS3505
ZGNN,2002-01-17 00:00,ZGNN 170000Z AUTO 00000KT 2 1/2SM 18/17 A2988 RMK 70003 SLP126 T01760173 52012 IEM_DS3505
ZGNN,2002-01-17 01:00,ZGNN 170100Z AUTO 2SM 18/17 A2991 RMK T01800170 IEM_DS3505
ZGNN,2002-01-17 02:00,ZGNN 170200Z AUTO 7SM 20/17 A2991 RMK T02000170 IEM_DS3505
ZGNN,2002-01-17 03:00,ZGNN 170300Z AUTO 18004KT 16SM 23/18 A2991 RMK SLP130 T02270178 52005 IEM_DS3505
ZGNN,2002-01-17 04:00,ZGNN 170400Z AUTO 21006KT 7SM 24/16 A2988 RMK T02400160 IEM_DS3505
ZGNN,2002-01-17 05:00,ZGNN 170500Z AUTO 7SM 24/16 A2985 RMK T02400160 IEM_DS3505
ZGNN,2002-01-17 06:00,ZGNN 170600Z AUTO 20008KT 16SM 27/17 A2980 RMK SLP089 T02660166 57040 IEM_DS3505
ZGNN,2002-01-17 07:00,ZGNN 170700Z AUTO 20008KT 7SM 28/16 A2977 RMK T02800160 IEM_DS3505
ZGNN,2002-01-17 08:00,ZGNN 170800Z AUTO 16006KT 7SM 27/18 A2974 RMK T02700180 IEM_DS3505
ZGNN,2002-01-17 09:00,ZGNN 170900Z AUTO 16008KT 19SM 26/19 A2971 RMK SLP065 T02600187 57023 IEM_DS3505
ZGNN,2002-01-17 10:00,ZGNN 171000Z AUTO 13008KT 6SM 24/18 A2974 RMK T02400180 IEM_DS3505
ZGNN,2002-01-17 11:00,ZGNN 171100Z AUTO 11006KT 6SM 22/18 A2977 RMK T02200180 IEM_DS3505
ZGNN,2002-01-17 12:00,ZGNN 171200Z AUTO 18004KT 16SM 21/19 A2977 RMK SLP085 T02100186 52018 IEM_DS3505
ZGNN,2002-01-17 13:00,ZGNN 171300Z AUTO 14008KT 6SM 20/18 A2977 RMK T02000180 IEM_DS3505
ZGNN,2002-01-17 14:00,ZGNN 171400Z AUTO 14004KT 6SM 19/17 A2980 RMK T01900170 IEM_DS3505
ZGNN,2002-01-17 15:00,ZGNN 171500Z AUTO 16002KT 14SM 20/18 A2980 RMK SLP094 T01970183 52010 IEM_DS3505
ZGNN,2002-01-17 16:00,ZGNN 171600Z AUTO 09002KT 6SM 18/17 A2980 RMK T01800170 IEM_DS3505
ZGNN,2002-01-17 17:00,ZGNN 171700Z AUTO 6SM 17/16 A2983 RMK T01700160 IEM_DS3505
ZGNN,2002-01-17 18:00,ZGNN 171800Z AUTO 36002KT 12SM 17/16 A2980 RMK SLP095 T01660163 52001 IEM_DS3505
ZGNN,2002-01-17 19:00,ZGNN 171900Z AUTO 32002KT 5SM 16/15 A2980 RMK T01600150 IEM_DS3505
ZGNN,2002-01-17 20:00,ZGNN 172000Z AUTO 02002KT 3SM 16/15 A2980 RMK T01600150 IEM_DS3505
ZGNN,2002-01-17 21:00,ZGNN 172100Z AUTO 00000KT 7SM 17/17 A2980 RMK SLP093 T01660166 57002 IEM_DS3505
ZGNN,2002-01-17 22:00,ZGNN 172200Z AUTO 36004KT RMK IEM_DS3505
ZGNN,2002-01-17 23:00,ZGNN 172300Z AUTO 04006KT 1/4SM 17/16 A2985 RMK T01700160 IEM_DS3505
ZGNN,2002-01-18 00:00,ZGNN 180000Z AUTO 07002KT 3/8SM 18/18 A2988 RMK SLP122 T01760176 52027 IEM_DS3505
ZGNN,2002-01-18 01:00,ZGNN 180100Z AUTO 04002KT 1 1/4SM 18/17 A2988 RMK T01800170 IEM_DS3505
ZGNN,2002-01-18 02:00,ZGNN 180200Z AUTO 09008KT 1 1/4SM 18/17 A2994 RMK T01800170 IEM_DS3505
ZGNN,2002-01-18 03:00,ZGNN 180300Z AUTO 07004KT 4SM 17/13 A2994 RMK SLP150 T01660134 52027 IEM_DS3505
ZGNN,2002-01-18 04:00,ZGNN 180400Z AUTO 03012KT 2 1/2SM 16/13 A2997 RMK T01600130 IEM_DS3505
ZGNN,2002-01-18 05:00,ZGNN 180500Z AUTO 03008KT 7SM 15/12 A2994 RMK T01500120 IEM_DS3505
ZGNN,2002-01-18 06:00,ZGNN 180600Z AUTO 04002KT 10SM 15/11 A2994 RMK SLP142 T01480107 57009 IEM_DS3505
ZGNN,2002-01-18 07:00,ZGNN 180700Z AUTO 04008KT 7SM 15/11 A2991 RMK T01500110 IEM_DS3505
ZGNN,2002-01-18 08:00,ZGNN 180800Z AUTO 05010KT 7SM 15/10 A2991 RMK T01500100 IEM_DS3505
ZGNN,2002-01-18 09:00,ZGNN 180900Z AUTO 04004KT 10SM 15/10 A2991 RMK SLP132 T01470104 57010 IEM_DS3505
ZGNN,2002-01-18 10:00,ZGNN 181000Z AUTO 06008KT 7SM 14/10 A2991 RMK T01400100 IEM_DS3505
ZGNN,2002-01-18 11:00,ZGNN 181100Z AUTO 06006KT 7SM 14/09 A2994 RMK T01400090 IEM_DS3505
ZGNN,2002-01-18 12:00,ZGNN 181200Z AUTO 07002KT 7SM 13/08 A2997 RMK SLP153 T01320084 52021 IEM_DS3505
ZGNN,2002-01-18 13:00,ZGNN 181300Z AUTO 06006KT 7SM 13/08 A3000 RMK T01300080 IEM_DS3505
ZGNN,2002-01-18 14:00,ZGNN 181400Z AUTO 05008KT 7SM 12/07 A3000 RMK T01200070 IEM_DS3505
ZGNN,2002-01-18 15:00,ZGNN 181500Z AUTO 07004KT 7SM 12/07 A3003 RMK SLP170 T01220073 52016 IEM_DS3505
ZGNN,2002-01-18 16:00,ZGNN 181600Z AUTO 06006KT 7SM 12/07 A3003 RMK T01200070 IEM_DS3505
ZGNN,2002-01-18 17:00,ZGNN 181700Z AUTO 06008KT 7SM 12/07 A3000 RMK T01200070 IEM_DS3505
ZGNN,2002-01-18 18:00,ZGNN 181800Z AUTO 02002KT 7SM 12/07 A3003 RMK SLP174 T01170067 52003 IEM_DS3505
ZGNN,2002-01-18 19:00,ZGNN 181900Z AUTO 03006KT 7SM 11/06 A3003 RMK T01100060 IEM_DS3505
ZGNN,2002-01-18 20:00,ZGNN 182000Z AUTO 05006KT 7SM 11/06 A3003 RMK T01100060 IEM_DS3505
ZGNN,2002-01-18 21:00,ZGNN 182100Z AUTO 04002KT 7SM 11/07 A3003 RMK SLP175 T01110067 52001 IEM_DS3505
ZGNN,2002-01-18 22:00,ZGNN 182200Z AUTO 06004KT 7SM 11/06 A3003 RMK T01100060 IEM_DS3505
ZGNN,2002-01-18 23:00,ZGNN 182300Z AUTO 05006KT 7SM 11/06 A3006 RMK T01100060 IEM_DS3505
ZGNN,2002-01-19 00:00,ZGNN 190000Z AUTO 07004KT 10SM 11/06 A3009 RMK SLP193 T01060059 52017 IEM_DS3505
ZGNN,2002-01-19 01:00,ZGNN 190100Z AUTO 05006KT 7SM 11/06 A3012 RMK T01100060 IEM_DS3505
ZGNN,2002-01-19 02:00,ZGNN 190200Z AUTO 05004KT 7SM 11/06 A3012 RMK T01100060 IEM_DS3505
ZGNN,2002-01-19 03:00,ZGNN 190300Z AUTO 07004KT 10SM 12/07 A3015 RMK SLP214 T01250067 52021 IEM_DS3505
ZGNN,2002-01-19 04:00,ZGNN 190400Z AUTO 6SM 13/07 A3012 RMK T01300070 IEM_DS3505
ZGNN,2002-01-19 05:00,ZGNN 190500Z AUTO 6SM 15/07 A3009 RMK T01500070 IEM_DS3505
ZGNN,2002-01-19 06:00,ZGNN 190600Z AUTO 04004KT 9SM 15/07 RMK SLP180 T01500071 57033 IEM_DS3505
ZGNN,2002-01-19 07:00,ZGNN 190700Z AUTO 34006KT 15/07 A3000 RMK T01500070 IEM_DS3505
ZGNN,2002-01-19 08:00,ZGNN 190800Z AUTO 01008KT 15/07 A3000 RMK T01500070 IEM_DS3505
ZGNN,2002-01-19 09:00,ZGNN 190900Z AUTO 36006KT 9SM 14/07 A3000 RMK SLP170 T01430072 57010 IEM_DS3505
ZGNN,2002-01-19 10:00,ZGNN 191000Z AUTO 03008KT 7SM 14/07 A3000 RMK T01400070 IEM_DS3505
ZGNN,2002-01-19 11:00,ZGNN 191100Z AUTO 04010KT 7SM 12/07 A3003 RMK T01200070 IEM_DS3505
ZGNN,2002-01-19 12:00,ZGNN 191200Z AUTO 07002KT 7SM 12/07 A3006 RMK SLP186 T01150067 52015 IEM_DS3505
ZGNN,2002-01-19 13:00,ZGNN 191300Z AUTO 05006KT 7SM 11/06 A3006 RMK T01100060 IEM_DS3505
ZGNN,2002-01-19 14:00,ZGNN 191400Z AUTO 07006KT 7SM 11/06 A3009 RMK T01100060 IEM_DS3505
ZGNN,2002-01-19 15:00,ZGNN 191500Z AUTO 02002KT 7SM 10/07 A3009 RMK SLP200 T01050067 52014 IEM_DS3505
ZGNN,2002-01-19 16:00,ZGNN 191600Z AUTO 04008KT 7SM 10/06 A3012 RMK T01000060 IEM_DS3505
ZGNN,2002-01-19 17:00,ZGNN 191700Z AUTO 04008KT 7SM 10/06 A3012 RMK T01000060 IEM_DS3505
ZGNN,2002-01-19 18:00,ZGNN 191800Z AUTO 04002KT 7SM 10/07 A3012 RMK SLP212 T01010067 52012 IEM_DS3505
ZGNN,2002-01-19 19:00,ZGNN 191900Z AUTO 06006KT 7SM 10/06 A3015 RMK T01000060 IEM_DS3505
ZGNN,2002-01-19 20:00,ZGNN 192000Z AUTO 03006KT 7SM 10/06 A3015 RMK T01000060 IEM_DS3505
ZGNN,2002-01-19 21:00,ZGNN 192100Z AUTO 36006KT 7SM 10/06 A3015 RMK SLP220 T00960064 52008 IEM_DS3505
ZGNN,2002-01-19 22:00,ZGNN 192200Z AUTO 35006KT 7SM 09/07 A3018 RMK T00900070 IEM_DS3505
ZGNN,2002-01-19 23:00,ZGNN 192300Z AUTO 35006KT 7SM 09/06 A3021 RMK T00900060 IEM_DS3505
ZGNN,2002-01-20 00:00,ZGNN 200000Z AUTO 36004KT 10SM 10/06 A3024 RMK 60003 SLP247 T00950063 52026 IEM_DS3505
ZGNN,2002-01-20 01:00,ZGNN 200100Z AUTO 01008KT 7SM 10/06 A3027 RMK T01000060 IEM_DS3505
ZGNN,2002-01-20 02:00,ZGNN 200200Z AUTO 01008KT 7SM 11/05 A3030 RMK T01100050 IEM_DS3505
ZGNN,2002-01-20 03:00,ZGNN 200300Z AUTO 02008KT 19SM 11/05 A3030 RMK SLP266 T01100053 52019 IEM_DS3505
ZGNN,2002-01-20 04:00,ZGNN 200400Z AUTO 36010KT 7SM 12/05 A3027 RMK T01200050 IEM_DS3505
ZGNN,2002-01-20 05:00,ZGNN 200500Z AUTO 36008KT 7SM 12/05 A3024 RMK T01200050 IEM_DS3505
ZGNN,2002-01-20 06:00,ZGNN 200600Z AUTO 34010KT 19SM 13/05 A3021 RMK SLP238 T01290046 57028 IEM_DS3505
ZGNN,2002-01-20 07:00,ZGNN 200700Z AUTO 36012KT 7SM 14/05 A3018 RMK T01400050 IEM_DS3505
ZGNN,2002-01-20 08:00,ZGNN 200800Z AUTO 36010KT 7SM 14/04 A3018 RMK T01400040 IEM_DS3505
ZGNN,2002-01-20 09:00,ZGNN 200900Z AUTO 02006KT 19SM 13/04 A3018 RMK SLP230 T01340040 57007 IEM_DS3505
ZGNN,2002-01-20 10:00,ZGNN 201000Z AUTO 01010KT 6SM 13/04 A3018 RMK T01300040 IEM_DS3505
ZGNN,2002-01-20 11:00,ZGNN 201100Z AUTO 03010KT 6SM 11/05 A3021 RMK T01100050 IEM_DS3505
ZGNN,2002-01-20 12:00,ZGNN 201200Z AUTO 02006KT 16SM 11/03 A3024 RMK SLP249 T01110031 52018 IEM_DS3505
ZGNN,2002-01-20 13:00,ZGNN 201300Z AUTO 03006KT 6SM 11/04 A3027 RMK T01100040 IEM_DS3505
ZGNN,2002-01-20 14:00,ZGNN 201400Z AUTO 09002KT 6SM 10/05 A3027 RMK T01000050 IEM_DS3505
ZGNN,2002-01-20 15:00,ZGNN 201500Z AUTO 00000KT 12SM 10/06 A3030 RMK SLP264 T01030065 52015 IEM_DS3505
ZGNN,2002-01-20 18:00,ZGNN 201800Z AUTO 00000KT 12SM 10/05 RMK SLP261 T01000054 57003 IEM_DS3505
ZGNN,2002-01-20 21:00,ZGNN 202100Z AUTO 34004KT 12SM 09/03 A3024 RMK 70003 SLP253 T00880027 57008 IEM_DS3505
ZGNN,2002-01-20 22:00,ZGNN 202200Z AUTO 6SM 09/02 A3027 RMK T00900020 IEM_DS3505
ZGNN,2002-01-20 23:00,ZGNN 202300Z AUTO 36004KT 6SM 09/02 A3027 RMK T00900020 IEM_DS3505
ZGNN,2002-01-21 00:00,ZGNN 210000Z AUTO 00000KT 16SM 09/03 A3030 RMK SLP270 T00920026 52016 IEM_DS3505
ZGNN,2002-01-21 01:00,ZGNN 210100Z AUTO 6SM 09/03 A3033 RMK T00900030 IEM_DS3505
ZGNN,2002-01-21 02:00,ZGNN 210200Z AUTO 36006KT 6SM 11/01 A3033 RMK T01100010 IEM_DS3505
ZGNN,2002-01-21 03:00,ZGNN 210300Z AUTO 34008KT 16SM 12/M01 A3030 RMK SLP272 T01181006 52003 IEM_DS3505
ZGNN,2002-01-21 04:00,ZGNN 210400Z AUTO 35008KT 6SM 13/00 A3027 RMK T01300000 IEM_DS3505
ZGNN,2002-01-21 05:00,ZGNN 210500Z AUTO 03010KT 6SM 14/00 A3024 RMK T01400000 IEM_DS3505
ZGNN,2002-01-21 06:00,ZGNN 210600Z AUTO 34006KT 19SM 15/01 A3018 RMK SLP228 T01490007 57043 IEM_DS3505
ZGNN,2002-01-21 07:00,ZGNN 210700Z AUTO 02010KT 6SM 16/00 A3015 RMK T01600000 IEM_DS3505
ZGNN,2002-01-21 08:00,ZGNN 210800Z AUTO 6SM 16/01 A3012 RMK T01600010 IEM_DS3505
ZGNN,2002-01-21 09:00,ZGNN 210900Z AUTO 02006KT 19SM 16/01 A3012 RMK SLP210 T01620009 57018 IEM_DS3505
ZGNN,2002-01-21 10:00,ZGNN 211000Z AUTO 35006KT 6SM 15/01 A3012 RMK T01500010 IEM_DS3505
ZGNN,2002-01-21 11:00,ZGNN 211100Z AUTO 05008KT 6SM 14/02 A3015 RMK T01400020 IEM_DS3505
ZGNN,2002-01-21 12:00,ZGNN 211200Z AUTO 04002KT 12SM 14/03 A3015 RMK SLP224 T01360031 52014 IEM_DS3505
ZGNN,2002-01-21 13:00,ZGNN 211300Z AUTO 05010KT 6SM 13/01 A3018 RMK T01300010 IEM_DS3505
ZGNN,2002-01-21 14:00,ZGNN 211400Z AUTO 04010KT 6SM 12/01 A3021 RMK T01200010 IEM_DS3505
ZGNN,2002-01-21 15:00,ZGNN 211500Z AUTO 07004KT 12SM 12/02 A3021 RMK SLP242 T01240020 52018 IEM_DS3505
ZGNN,2002-01-21 16:00,ZGNN 211600Z AUTO 05008KT 7SM 12/01 A3021 RMK T01200010 IEM_DS3505
ZGNN,2002-01-21 17:00,ZGNN 211700Z AUTO 02006KT 7SM 12/01 A3021 RMK T01200010 IEM_DS3505
ZGNN,2002-01-21 18:00,ZGNN 211800Z AUTO 00000KT 12SM 12/02 RMK SLP246 T01180020 52004 IEM_DS3505
ZGNN,2002-01-21 21:00,ZGNN 212100Z AUTO 02002KT 12SM 11/02 A3024 RMK SLP242 T01130022 57003 IEM_DS3505
ZGNN,2002-01-21 22:00,ZGNN 212200Z AUTO 02002KT 7SM 11/03 A3024 RMK T01100030 IEM_DS3505
ZGNN,2002-01-21 23:00,ZGNN 212300Z AUTO 02004KT 7SM 11/02 A3024 RMK T01100020 IEM_DS3505
ZGNN,2002-01-22 00:00,ZGNN 220000Z AUTO 00000KT 12SM 11/04 A3027 RMK SLP255 T01070045 52012 IEM_DS3505
ZGNN,2002-01-22 01:00,ZGNN 220100Z AUTO 7SM 11/03 A3027 RMK T01100030 IEM_DS3505
ZGNN,2002-01-22 02:00,ZGNN 220200Z AUTO 7SM 12/02 A3030 RMK T01200020 IEM_DS3505
ZGNN,2002-01-22 03:00,ZGNN 220300Z AUTO 02002KT 12SM 13/03 A3030 RMK SLP265 T01330029 52010 IEM_DS3505
ZGNN,2002-01-22 04:00,ZGNN 220400Z AUTO 7SM 13/01 A3027 RMK T01300010 IEM_DS3505
ZGNN,2002-01-22 05:00,ZGNN 220500Z AUTO 7SM 14/01 A3024 RMK T01400010 IEM_DS3505
ZGNN,2002-01-22 06:00,ZGNN 220600Z AUTO 09004KT 12SM 15/02 A3018 RMK SLP231 T01510023 57033 IEM_DS3505
ZGNN,2002-01-22 07:00,ZGNN 220700Z AUTO 7SM 15/01 A3015 RMK T01500010 IEM_DS3505
ZGNN,2002-01-22 08:00,ZGNN 220800Z AUTO 7SM 15/01 A3012 RMK T01500010 IEM_DS3505
ZGNN,2002-01-22 09:00,ZGNN 220900Z AUTO 04002KT 12SM 15/02 A3012 RMK SLP213 T01540025 57018 IEM_DS3505
ZGNN,2002-01-22 10:00,ZGNN 221000Z AUTO 7SM 15/01 A3015 RMK T01500010 IEM_DS3505
ZGNN,2002-01-22 11:00,ZGNN 221100Z AUTO 08004KT 7SM 14/03 A3015 RMK T01400030 IEM_DS3505
ZGNN,2002-01-22 12:00,ZGNN 221200Z AUTO 09002KT 11SM 14/02 A3015 RMK SLP222 T01420025 52008 IEM_DS3505
ZGNN,2002-01-22 13:00,ZGNN 221300Z AUTO 08004KT 7SM 14/03 A3018 RMK T01400030 IEM_DS3505
ZGNN,2002-01-22 14:00,ZGNN 221400Z AUTO 08002KT 7SM 13/03 A3021 RMK T01300030 IEM_DS3505
ZGNN,2002-01-22 15:00,ZGNN 221500Z AUTO 00000KT 9SM 13/04 A3021 RMK SLP237 T01320045 52015 IEM_DS3505
ZGNN,2002-01-22 16:00,ZGNN 221600Z AUTO 7SM 13/04 A3021 RMK T01300040 IEM_DS3505
ZGNN,2002-01-22 17:00,ZGNN 221700Z AUTO 07002KT 7SM 12/04 A3021 RMK T01200040 IEM_DS3505
ZGNN,2002-01-22 18:00,ZGNN 221800Z AUTO 00000KT 9SM 13/05 A3018 RMK SLP229 T01260053 57007 IEM_DS3505
ZGNN,2002-01-22 19:00,ZGNN 221900Z AUTO 01004KT 7SM 12/04 A3018 RMK T01200040 IEM_DS3505
ZGNN,2002-01-22 20:00,ZGNN 222000Z AUTO 02004KT 7SM 12/05 A3018 RMK T01200050 IEM_DS3505
ZGNN,2002-01-22 21:00,ZGNN 222100Z AUTO 00000KT 9SM 12/05 A3018 RMK SLP225 T01220051 57004 IEM_DS3505
ZGNN,2002-01-22 22:00,ZGNN 222200Z AUTO 36004KT 7SM 12/04 A3018 RMK T01200040 IEM_DS3505
ZGNN,2002-01-22 23:00,ZGNN 222300Z AUTO 05002KT 7SM 12/06 A3018 RMK T01200060 IEM_DS3505
ZGNN,2002-01-23 00:00,ZGNN 230000Z AUTO 00000KT 9SM 12/04 A3021 RMK SLP243 T01210039 52017 IEM_DS3505
ZGNN,2002-01-23 01:00,ZGNN 230100Z AUTO 05002KT 7SM 12/04 A3024 RMK T01200040 IEM_DS3505
ZGNN,2002-01-23 02:00,ZGNN 230200Z AUTO 04006KT 7SM 12/05 A3027 RMK T01200050 IEM_DS3505
ZGNN,2002-01-23 03:00,ZGNN 230300Z AUTO 00000KT 6SM 12/05 A3027 RMK SLP260 T01200050 52017 IEM_DS3505
ZGNN,2002-01-23 04:00,ZGNN 230400Z AUTO 05006KT 3SM 12/03 A3027 RMK T01200030 IEM_DS3505
ZGNN,2002-01-23 05:00,ZGNN 230500Z AUTO 06008KT 12/05 A3024 RMK T01200050 IEM_DS3505
ZGNN,2002-01-23 06:00,ZGNN 230600Z AUTO 04004KT 4SM 12/05 A3021 RMK 60003 SLP234 T01150047 57026 IEM_DS3505
ZGNN,2002-01-23 07:00,ZGNN 230700Z AUTO 05008KT 3SM 10/06 A3018 RMK T01000060 IEM_DS3505
ZGNN,2002-01-23 08:00,ZGNN 230800Z AUTO 04008KT 1 1/4SM 09/07 A3015 RMK T00900070 IEM_DS3505
ZGNN,2002-01-23 09:00,ZGNN 230900Z AUTO 09004KT 2SM 09/08 A3015 RMK SLP221 T00880075 57014 IEM_DS3505
ZGNN,2002-01-23 10:00,ZGNN 231000Z AUTO 04006KT 1 1/4SM 08/07 A3018 RMK T00800070 IEM_DS3505
ZGNN,2002-01-23 11:00,ZGNN 231100Z AUTO 05006KT 1SM 08/07 A3015 RMK T00800070 IEM_DS3505
ZGNN,2002-01-23 12:00,ZGNN 231200Z AUTO 04004KT 2SM 08/07 A3018 RMK 60002 SLP225 T00800074 52004 IEM_DS3505
ZGNN,2002-01-23 13:00,ZGNN 231300Z AUTO 05004KT 1SM 08/07 A3018 RMK T00800070 IEM_DS3505
ZGNN,2002-01-23 14:00,ZGNN 231400Z AUTO 05006KT 1SM 08/07 A3018 RMK T00800070 IEM_DS3505
ZGNN,2002-01-23 15:00,ZGNN 231500Z AUTO 34004KT 2 1/2SM 08/08 A3018 RMK SLP234 T00790075 52009 IEM_DS3505
ZGNN,2002-01-23 16:00,ZGNN 231600Z AUTO 04004KT 1SM 08/07 A3018 RMK T00800070 IEM_DS3505
ZGNN,2002-01-23 17:00,ZGNN 231700Z AUTO 04004KT 1SM 08/07 A3015 RMK T00800070 IEM_DS3505
ZGNN,2002-01-23 18:00,ZGNN 231800Z AUTO 00000KT 2 1/2SM 08/07 A3018 RMK 60004 SLP223 T00820074 57011 IEM_DS3505
ZGNN,2002-01-23 19:00,ZGNN 231900Z AUTO 04006KT 1 1/2SM 08/07 A3015 RMK T00800070 IEM_DS3505
ZGNN,2002-01-23 20:00,ZGNN 232000Z AUTO 05006KT 1 1/4SM 08/07 A3012 RMK T00800070 IEM_DS3505
ZGNN,2002-01-23 21:00,ZGNN 232100Z AUTO 00000KT 2 1/2SM 08/07 A3012 RMK 70009 SLP206 T00820074 57018 IEM_DS3505
ZGNN,2002-01-23 22:00,ZGNN 232200Z AUTO 06002KT 1 1/4SM 08/07 A3012 RMK T00800070 IEM_DS3505
ZGNN,2002-01-23 23:00,ZGNN 232300Z AUTO 05004KT 1 1/4SM 08/07 A3009 RMK T00800070 IEM_DS3505
ZGNN,2002-01-24 00:00,ZGNN 240000Z AUTO 00000KT 1 1/4SM 08/08 RMK 60004 SLP214 T00840080 52008 IEM_DS3505
ZGNN,2002-01-24 01:00,ZGNN 240100Z AUTO 04002KT 1SM 08/07 A3015 RMK T00800070 IEM_DS3505
ZGNN,2002-01-24 02:00,ZGNN 240200Z AUTO 07004KT 1 1/2SM 08/07 A3015 RMK T00800070 IEM_DS3505
ZGNN,2002-01-24 03:00,ZGNN 240300Z AUTO 02004KT 2SM 09/08 A3015 RMK SLP223 T00880080 52009 IEM_DS3505
ZGNN,2002-01-24 04:00,ZGNN 240400Z AUTO 03004KT 2SM 08/08 A3015 RMK T00800080 IEM_DS3505
ZGNN,2002-01-24 05:00,ZGNN 240500Z AUTO 05006KT 2 1/2SM 08/07 A3009 RMK T00800070 IEM_DS3505
ZGNN,2002-01-24 06:00,ZGNN 240600Z AUTO 00000KT 2SM 09/08 A3006 RMK 60020 SLP190 T00880082 57032 IEM_DS3505
ZGNN,2002-01-24 07:00,ZGNN 240700Z AUTO 06004KT 2SM 09/08 A3003 RMK T00900080 IEM_DS3505
ZGNN,2002-01-24 08:00,ZGNN 240800Z AUTO 06004KT 2 1/2SM 09/08 A3003 RMK T00900080 IEM_DS3505
ZGNN,2002-01-24 09:00,ZGNN 240900Z AUTO 00000KT 2SM 09/08 A3003 RMK SLP182 T00900084 57008 IEM_DS3505
ZGNN,2002-01-24 10:00,ZGNN 241000Z AUTO 2 1/2SM 09/07 A3003 RMK T00900070 IEM_DS3505
ZGNN,2002-01-24 11:00,ZGNN 241100Z AUTO 2 1/2SM 08/08 A3003 RMK T00800080 IEM_DS3505
ZGNN,2002-01-24 12:00,ZGNN 241200Z AUTO 34004KT 3SM 09/08 A3006 RMK 60012 SLP189 T00860078 52007 IEM_DS3505
ZGNN,2002-01-24 13:00,ZGNN 241300Z AUTO 03006KT 4SM 08/07 A3006 RMK T00800070 IEM_DS3505
ZGNN,2002-01-24 14:00,ZGNN 241400Z AUTO 03004KT 4SM 08/07 A3009 RMK T00800070 IEM_DS3505
ZGNN,2002-01-24 15:00,ZGNN 241500Z AUTO 00000KT 2 1/2SM 08/08 A3006 RMK SLP193 T00840080 52004 IEM_DS3505
ZGNN,2002-01-24 16:00,ZGNN 241600Z AUTO 1 1/2SM 08/07 A3006 RMK T00800070 IEM_DS3505
ZGNN,2002-01-24 17:00,ZGNN 241700Z AUTO 02002KT 1 1/2SM 08/07 A3006 RMK T00800070 IEM_DS3505
ZGNN,2002-01-24 18:00,ZGNN 241800Z AUTO 00000KT 2SM 09/08 A3003 RMK 60002 SLP183 T00860082 57010 IEM_DS3505
ZGNN,2002-01-24 19:00,ZGNN 241900Z AUTO 35002KT 2SM 09/08 A3003 RMK T00900080 IEM_DS3505
ZGNN,2002-01-24 20:00,ZGNN 242000Z AUTO 34004KT 3SM 09/07 A3003 RMK T00900070 IEM_DS3505
ZGNN,2002-01-24 21:00,ZGNN 242100Z AUTO 00000KT 3SM 09/08 A3000 RMK 70039 SLP174 T00870081 57009 IEM_DS3505
ZGNN,2002-01-24 22:00,ZGNN 242200Z AUTO 01006KT 2SM 08/08 A3003 RMK T00800080 IEM_DS3505
ZGNN,2002-01-24 23:00,ZGNN 242300Z AUTO 35004KT 2SM 08/07 A3003 RMK T00800070 IEM_DS3505
ZGNN,2002-01-25 00:00,ZGNN 250000Z AUTO 32006KT 2 1/2SM 09/08 A3006 RMK 60008 SLP192 T00870081 52018 IEM_DS3505
ZGNN,2002-01-25 01:00,ZGNN 250100Z AUTO 4SM 09/07 A3009 RMK T00900070 IEM_DS3505
ZGNN,2002-01-25 02:00,ZGNN 250200Z AUTO 35004KT 5SM 09/07 A3012 RMK T00900070 IEM_DS3505
ZGNN,2002-01-25 03:00,ZGNN 250300Z AUTO 36004KT 16SM 09/08 A3012 RMK SLP210 T00900080 52017 IEM_DS3505
ZGNN,2002-01-25 04:00,ZGNN 250400Z AUTO 34006KT 7SM 09/07 A3012 RMK T00900070 IEM_DS3505
ZGNN,2002-01-25 05:00,ZGNN 250500Z AUTO 36008KT 7SM RMK IEM_DS3505
ZGNN,2002-01-25 06:00,ZGNN 250600Z AUTO 34004KT 7SM 10/08 A3006 RMK 60004 SLP184 T00960082 57025 IEM_DS3505
ZGNN,2002-01-25 07:00,ZGNN 250700Z AUTO 36006KT 7SM 10/08 A3003 RMK T01000080 IEM_DS3505
ZGNN,2002-01-25 08:00,ZGNN 250800Z AUTO 36008KT 7SM 10/08 A3000 RMK T01000080 IEM_DS3505
ZGNN,2002-01-25 09:00,ZGNN 250900Z AUTO 02006KT 19SM 10/08 A3000 RMK SLP176 T01000079 57008 IEM_DS3505
ZGNN,2002-01-25 10:00,ZGNN 251000Z AUTO 01006KT 7SM 10/08 A3003 RMK T01000080 IEM_DS3505
ZGNN,2002-01-25 11:00,ZGNN 251100Z AUTO 01006KT 7SM 10/07 A3006 RMK T01000070 IEM_DS3505
ZGNN,2002-01-25 12:00,ZGNN 251200Z AUTO 34004KT 16SM 10/08 A3006 RMK 60003 SLP193 T00980077 52017 IEM_DS3505
ZGNN,2002-01-25 13:00,ZGNN 251300Z AUTO 36004KT 7SM 10/08 A3009 RMK T01000080 IEM_DS3505
ZGNN,2002-01-25 15:00,ZGNN 251500Z AUTO 34004KT 12SM 10/07 RMK SLP205 T00960071 52012 IEM_DS3505
ZGNN,2002-01-25 18:00,ZGNN 251800Z AUTO 32004KT 9SM 10/07 RMK SLP207 T00970069 52002 IEM_DS3505
ZGNN,2002-01-25 19:00,ZGNN 251900Z AUTO 35006KT 7SM 09/06 A3009 RMK T00900060 IEM_DS3505
ZGNN,2002-01-25 20:00,ZGNN 252000Z AUTO 32004KT 4SM 08/07 A3009 RMK T00800070 IEM_DS3505
ZGNN,2002-01-25 21:00,ZGNN 252100Z AUTO 36004KT 7SM 08/07 A3009 RMK 70017 SLP199 T00850070 57008 IEM_DS3505
ZGNN,2002-01-25 22:00,ZGNN 252200Z AUTO 01006KT 7SM 08/06 A3009 RMK T00800060 IEM_DS3505
ZGNN,2002-01-25 23:00,ZGNN 252300Z AUTO 34004KT 7SM 08/06 A3012 RMK T00800060 IEM_DS3505
ZGNN,2002-01-26 00:00,ZGNN 260000Z AUTO 00000KT 9SM 08/07 A3015 RMK 60016 SLP221 T00820071 52021 IEM_DS3505
ZGNN,2002-01-26 01:00,ZGNN 260100Z AUTO 7SM 09/06 A3018 RMK T00900060 IEM_DS3505
ZGNN,2002-01-26 02:00,ZGNN 260200Z AUTO 7SM 09/06 A3018 RMK T00900060 IEM_DS3505
ZGNN,2002-01-26 03:00,ZGNN 260300Z AUTO 34006KT 10SM 10/06 A3018 RMK SLP228 T00980059 52008 IEM_DS3505
ZGNN,2002-01-26 04:00,ZGNN 260400Z AUTO 7SM 10/04 A3018 RMK T01000040 IEM_DS3505
ZGNN,2002-01-26 06:00,ZGNN 260600Z AUTO 34008KT 10SM 10/05 A3012 RMK 60003 SLP204 T00990048 57024 IEM_DS3505
ZGNN,2002-01-26 07:00,ZGNN 260700Z AUTO 33008KT 7SM 10/05 A3009 RMK T01000050 IEM_DS3505
ZGNN,2002-01-26 08:00,ZGNN 260800Z AUTO 35008KT 7SM 09/05 A3009 RMK T00900050 IEM_DS3505
ZGNN,2002-01-26 09:00,ZGNN 260900Z AUTO 34004KT 10SM 10/05 A3009 RMK SLP194 T00960052 57010 IEM_DS3505
ZGNN,2002-01-26 10:00,ZGNN 261000Z AUTO 7SM 09/05 A3009 RMK T00900050 IEM_DS3505
ZGNN,2002-01-26 11:00,ZGNN 261100Z AUTO 32002KT 4SM 09/06 A3012 RMK T00900060 IEM_DS3505
ZGNN,2002-01-26 12:00,ZGNN 261200Z AUTO 32004KT 6SM 08/07 A3012 RMK 60004 SLP213 T00850074 52018 IEM_DS3505
ZGNN,2002-01-26 13:00,ZGNN 261300Z AUTO 32002KT 5SM 08/06 A3015 RMK T00800060 IEM_DS3505
ZGNN,2002-01-26 14:00,ZGNN 261400Z AUTO 33002KT 5SM 08/06 A3015 RMK T00800060 IEM_DS3505
ZGNN,2002-01-26 15:00,ZGNN 261500Z AUTO 00000KT 6SM 09/07 A3015 RMK SLP222 T00860071 52009 IEM_DS3505
ZGNN,2002-01-26 16:00,ZGNN 261600Z AUTO 7SM 09/06 A3015 RMK T00900060 IEM_DS3505
ZGNN,2002-01-26 17:00,ZGNN 261700Z AUTO 22002KT 7SM 09/07 A3015 RMK T00900070 IEM_DS3505
ZGNN,2002-01-26 18:00,ZGNN 261800Z AUTO 00000KT 6SM 09/08 A3015 RMK 60000 SLP224 T00870076 52002 IEM_DS3505
ZGNN,2002-01-26 19:00,ZGNN 261900Z AUTO 7SM 09/07 A3015 RMK T00900070 IEM_DS3505
ZGNN,2002-01-26 20:00,ZGNN 262000Z AUTO 7SM 09/05 A3012 RMK T00900050 IEM_DS3505
ZGNN,2002-01-26 21:00,ZGNN 262100Z AUTO 00000KT 6SM 09/08 A3012 RMK 70010 SLP204 T00890079 57019 IEM_DS3505
ZGNN,2002-01-26 22:00,ZGNN 262200Z AUTO 35002KT 7SM 09/07 A3012 RMK T00900070 IEM_DS3505
ZGNN,2002-01-27 00:00,ZGNN 270000Z AUTO 29002KT 7SM 09/07 A3018 RMK 70004 SLP225 T00920069 52020 IEM_DS3505
ZGNN,2002-01-27 01:00,ZGNN 270100Z AUTO 5SM 09/07 A3018 RMK T00900070 IEM_DS3505
ZGNN,2002-01-27 02:00,ZGNN 270200Z AUTO 23004KT 5SM 09/07 A3024 RMK T00900070 IEM_DS3505
ZGNN,2002-01-27 03:00,ZGNN 270300Z AUTO 00000KT 6SM 10/08 A3024 RMK SLP250 T00980075 52025 IEM_DS3505
ZGNN,2002-01-27 04:00,ZGNN 270400Z AUTO 4SM 10/06 A3024 RMK T01000060 IEM_DS3505
ZGNN,2002-01-27 05:00,ZGNN 270500Z AUTO 02006KT 5SM 10/06 A3021 RMK T01000060 IEM_DS3505
ZGNN,2002-01-27 06:00,ZGNN 270600Z AUTO 02004KT 7SM 11/06 A3018 RMK 60000 SLP223 T01060063 57026 IEM_DS3505
ZGNN,2002-01-27 07:00,ZGNN 270700Z AUTO 03004KT 5SM 11/06 A3015 RMK T01100060 IEM_DS3505
ZGNN,2002-01-27 08:00,ZGNN 270800Z AUTO 04006KT 4SM 10/06 A3015 RMK T01000060 IEM_DS3505
ZGNN,2002-01-27 09:00,ZGNN 270900Z AUTO 09002KT 7SM 11/07 A3015 RMK SLP215 T01060068 57008 IEM_DS3505
ZGNN,2002-01-27 10:00,ZGNN 271000Z AUTO 06004KT 4SM 10/06 A3015 RMK T01000060 IEM_DS3505
ZGNN,2002-01-27 11:00,ZGNN 271100Z AUTO 05004KT 4SM 10/06 A3018 RMK T01000060 IEM_DS3505
ZGNN,2002-01-27 12:00,ZGNN 271200Z AUTO 00000KT 7SM 10/06 A3018 RMK SLP234 T00980059 52018 IEM_DS3505
ZGNN,2002-01-27 13:00,ZGNN 271300Z AUTO 06004KT 4SM 09/05 A3021 RMK T00900050 IEM_DS3505
ZGNN,2002-01-27 14:00,ZGNN 271400Z AUTO 06004KT 4SM 09/05 A3024 RMK T00900050 IEM_DS3505
ZGNN,2002-01-27 15:00,ZGNN 271500Z AUTO 00000KT 7SM 09/06 A3024 RMK SLP249 T00940059 52015 IEM_DS3505
ZGNN,2002-01-27 16:00,ZGNN 271600Z AUTO 06002KT 4SM 09/05 A3024 RMK T00900050 IEM_DS3505
ZGNN,2002-01-27 17:00,ZGNN 271700Z AUTO 4SM 09/06 A3024 RMK T00900060 IEM_DS3505
ZGNN,2002-01-27 18:00,ZGNN 271800Z AUTO 00000KT 7SM 09/07 A3024 RMK SLP248 T00910067 57001 IEM_DS3505
ZGNN,2002-01-27 19:00,ZGNN 271900Z AUTO 4SM 09/06 A3024 RMK T00900060 IEM_DS3505
ZGNN,2002-01-27 20:00,ZGNN 272000Z AUTO 29002KT 3SM 09/06 A3021 RMK T00900060 IEM_DS3505
ZGNN,2002-01-27 21:00,ZGNN 272100Z AUTO 00000KT 7SM 09/07 A3021 RMK 70001 SLP240 T00900071 57008 IEM_DS3505
ZGNN,2002-01-27 22:00,ZGNN 272200Z AUTO 4SM 09/06 A3024 RMK T00900060 IEM_DS3505
ZGNN,2002-01-27 23:00,ZGNN 272300Z AUTO 4SM 09/07 A3024 RMK T00900070 IEM_DS3505
ZGNN,2002-01-28 00:00,ZGNN 280000Z AUTO 00000KT 4SM 09/08 A3027 RMK 60000 SLP261 T00920077 52021 IEM_DS3505
ZGNN,2002-01-28 01:00,ZGNN 280100Z AUTO 2 1/2SM 10/06 A3027 RMK T01000060 IEM_DS3505
ZGNN,2002-01-28 02:00,ZGNN 280200Z AUTO 3SM 10/06 A3033 RMK T01000060 IEM_DS3505
ZGNN,2002-01-28 03:00,ZGNN 280300Z AUTO 32004KT 5SM 11/06 A3033 RMK SLP275 T01120056 52014 IEM_DS3505
ZGNN,2002-01-28 04:00,ZGNN 280400Z AUTO 33006KT 5SM 12/05 A3030 RMK T01200050 IEM_DS3505
ZGNN,2002-01-28 05:00,ZGNN 280500Z AUTO 34006KT 6SM 12/04 A3030 RMK T01200040 IEM_DS3505
ZGNN,2002-01-28 06:00,ZGNN 280600Z AUTO 02006KT 7SM 13/04 A3024 RMK SLP251 T01290038 57023 IEM_DS3505
ZGNN,2002-01-28 07:00,ZGNN 280700Z AUTO 6SM 13/04 A3024 RMK T01300040 IEM_DS3505
ZGNN,2002-01-28 08:00,ZGNN 280800Z AUTO 36006KT 6SM 14/04 A3021 RMK T01400040 IEM_DS3505
ZGNN,2002-01-28 09:00,ZGNN 280900Z AUTO 36002KT 7SM 14/06 A3021 RMK SLP242 T01360056 57009 IEM_DS3505
ZGNN,2002-01-28 10:00,ZGNN 281000Z AUTO 01004KT 6SM 13/04 A3021 RMK T01300040 IEM_DS3505
ZGNN,2002-01-28 11:00,ZGNN 281100Z AUTO 6SM 13/05 A3024 RMK T01300050 IEM_DS3505
ZGNN,2002-01-28 12:00,ZGNN 281200Z AUTO 00000KT 7SM 12/08 A3027 RMK SLP256 T01230083 52014 IEM_DS3505
ZGNN,2002-01-28 13:00,ZGNN 281300Z AUTO 6SM 12/07 A3027 RMK T01200070 IEM_DS3505
ZGNN,2002-01-28 14:00,ZGNN 281400Z AUTO 03002KT 6SM 12/08 A3030 RMK T01200080 IEM_DS3505
ZGNN,2002-01-28 15:00,ZGNN 281500Z AUTO 00000KT 6SM 12/09 A3033 RMK SLP274 T01170089 52018 IEM_DS3505
ZGNN,2002-01-28 16:00,ZGNN 281600Z AUTO 3SM 12/07 A3030 RMK T01200070 IEM_DS3505
ZGNN,2002-01-28 17:00,ZGNN 281700Z AUTO 3SM 12/08 A3030 RMK T01200080 IEM_DS3505
ZGNN,2002-01-28 18:00,ZGNN 281800Z AUTO 00000KT 6SM 11/09 A3030 RMK SLP271 T01130093 57003 IEM_DS3505
ZGNN,2002-01-28 19:00,ZGNN 281900Z AUTO 3SM 11/08 A3030 RMK T01100080 IEM_DS3505
ZGNN,2002-01-28 20:00,ZGNN 282000Z AUTO 36002KT 3SM 11/07 A3030 RMK T01100070 IEM_DS3505
ZGNN,2002-01-28 21:00,ZGNN 282100Z AUTO 00000KT 6SM 11/08 A3030 RMK SLP265 T01100081 57006 IEM_DS3505
ZGNN,2002-01-28 22:00,ZGNN 282200Z AUTO 02002KT 4SM 11/07 A3030 RMK T01100070 IEM_DS3505
ZGNN,2002-01-28 23:00,ZGNN 282300Z AUTO 05002KT 4SM 11/07 A3030 RMK T01100070 IEM_DS3505
ZGNN,2002-01-29 00:00,ZGNN 290000Z AUTO 00000KT 4SM 11/08 A3033 RMK SLP281 T01080079 52016 IEM_DS3505
ZGNN,2002-01-29 01:00,ZGNN 290100Z AUTO 6SM 11/06 A3036 RMK T01100060 IEM_DS3505
ZGNN,2002-01-29 02:00,ZGNN 290200Z AUTO 05004KT 6SM 12/05 A3036 RMK T01200050 IEM_DS3505
ZGNN,2002-01-29 03:00,ZGNN 290300Z AUTO 00000KT 5SM 12/05 A3036 RMK SLP291 T01230052 52010 IEM_DS3505
ZGNN,2002-01-29 04:00,ZGNN 290400Z AUTO 6SM 13/04 A3036 RMK T01300040 IEM_DS3505
ZGNN,2002-01-29 05:00,ZGNN 290500Z AUTO 6SM 13/04 A3033 RMK T01300040 IEM_DS3505
ZGNN,2002-01-29 06:00,ZGNN 290600Z AUTO 02004KT 7SM 14/04 A3030 RMK SLP265 T01370038 57025 IEM_DS3505
ZGNN,2002-01-29 07:00,ZGNN 290700Z AUTO 6SM 14/04 A3027 RMK T01400040 IEM_DS3505
ZGNN,2002-01-29 08:00,ZGNN 290800Z AUTO 6SM 14/04 A3024 RMK T01400040 IEM_DS3505
ZGNN,2002-01-29 09:00,ZGNN 290900Z AUTO 09002KT 7SM 14/05 A3024 RMK SLP248 T01440053 57017 IEM_DS3505
ZGNN,2002-01-29 10:00,ZGNN 291000Z AUTO 07004KT 6SM 14/05 A3024 RMK T01400050 IEM_DS3505
ZGNN,2002-01-29 11:00,ZGNN 291100Z AUTO 05004KT 4SM 13/06 A3027 RMK T01300060 IEM_DS3505
ZGNN,2002-01-29 12:00,ZGNN 291200Z AUTO 09002KT 7SM 14/05 A3027 RMK SLP248 T01440053 57017 IEM_DS3505
ZGNN,2002-01-29 13:00,ZGNN 291300Z AUTO 7SM 12/06 A3027 RMK T01200060 IEM_DS3505
ZGNN,2002-01-29 14:00,ZGNN 291400Z AUTO 09002KT 7SM 12/06 A3030 RMK T01200060 IEM_DS3505
ZGNN,2002-01-29 15:00,ZGNN 291500Z AUTO 11004KT 9SM 12/05 A3030 RMK SLP271 T01210054 52011 IEM_DS3505
ZGNN,2002-01-29 16:00,ZGNN 291600Z AUTO 08004KT 6SM 11/05 A3030 RMK T01100050 IEM_DS3505
ZGNN,2002-01-29 17:00,ZGNN 291700Z AUTO 04002KT 6SM 11/05 A3030 RMK T01100050 IEM_DS3505
ZGNN,2002-01-29 18:00,ZGNN 291800Z AUTO 00000KT 7SM 11/05 A3030 RMK SLP266 T01120053 57004 IEM_DS3505
ZGNN,2002-01-29 19:00,ZGNN 291900Z AUTO 05002KT 4SM 11/05 A3027 RMK T01100050 IEM_DS3505
ZGNN,2002-01-29 20:00,ZGNN 292000Z AUTO 01004KT 5SM 11/04 A3027 RMK T01100040 IEM_DS3505
ZGNN,2002-01-29 21:00,ZGNN 292100Z AUTO 00000KT 7SM 11/05 A3027 RMK SLP261 T01100048 57005 IEM_DS3505
ZGNN,2002-01-29 22:00,ZGNN 292200Z AUTO 02002KT 7SM 11/04 A3027 RMK T01100040 IEM_DS3505
ZGNN,2002-01-29 23:00,ZGNN 292300Z AUTO 02002KT 5SM 11/05 A3030 RMK T01100050 IEM_DS3505
ZGNN,2002-01-30 00:00,ZGNN 300000Z AUTO 00000KT 5SM 11/06 A3030 RMK SLP273 T01060063 52011 IEM_DS3505
ZGNN,2002-01-30 01:00,ZGNN 300100Z AUTO 05002KT 5SM 11/05 A3030 RMK T01100050 IEM_DS3505
ZGNN,2002-01-30 02:00,ZGNN 300200Z AUTO 5SM 12/05 A3033 RMK T01200050 IEM_DS3505
ZGNN,2002-01-30 03:00,ZGNN 300300Z AUTO 02004KT 7SM 12/05 A3036 RMK SLP285 T01230049 52012 IEM_DS3505
ZGNN,2002-01-30 04:00,ZGNN 300400Z AUTO 5SM 13/05 A3033 RMK T01300050 IEM_DS3505
ZGNN,2002-01-30 05:00,ZGNN 300500Z AUTO 5SM 14/05 A3030 RMK T01400050 IEM_DS3505
ZGNN,2002-01-30 06:00,ZGNN 300600Z AUTO 07004KT 7SM 15/07 A3027 RMK SLP255 T01480066 57029 IEM_DS3505
ZGNN,2002-01-30 07:00,ZGNN 300700Z AUTO 5SM 15/06 A3024 RMK T01500060 IEM_DS3505
ZGNN,2002-01-30 08:00,ZGNN 300800Z AUTO 5SM 14/06 A3021 RMK T01400060 IEM_DS3505
ZGNN,2002-01-30 09:00,ZGNN 300900Z AUTO 34006KT 7SM 14/06 A3021 RMK SLP241 T01440056 57014 IEM_DS3505
ZGNN,2002-01-30 10:00,ZGNN 301000Z AUTO 33004KT 5SM 14/06 A3021 RMK T01400060 IEM_DS3505
ZGNN,2002-01-30 11:00,ZGNN 301100Z AUTO 33004KT 5SM 13/07 A3024 RMK T01300070 IEM_DS3505
ZGNN,2002-01-30 12:00,ZGNN 301200Z AUTO 00000KT 6SM 13/07 A3024 RMK SLP245 T01330071 52004 IEM_DS3505
ZGNN,2002-01-30 13:00,ZGNN 301300Z AUTO 36002KT 5SM 13/07 A3024 RMK T01300070 IEM_DS3505
ZGNN,2002-01-30 14:00,ZGNN 301400Z AUTO 07002KT 5SM 13/08 A3024 RMK T01300080 IEM_DS3505
ZGNN,2002-01-30 15:00,ZGNN 301500Z AUTO 00000KT 6SM 13/08 A3027 RMK SLP260 T01260077 52015 IEM_DS3505
ZGNN,2002-01-30 16:00,ZGNN 301600Z AUTO 06004KT 3SM 12/07 A3027 RMK T01200070 IEM_DS3505
ZGNN,2002-01-30 17:00,ZGNN 301700Z AUTO 04004KT 4SM 12/06 A3027 RMK T01200060 IEM_DS3505
ZGNN,2002-01-30 18:00,ZGNN 301800Z AUTO 09004KT 6SM 12/06 A3027 RMK SLP254 T01240061 57006 IEM_DS3505
ZGNN,2002-01-30 19:00,ZGNN 301900Z AUTO 3SM 12/07 A3024 RMK T01200070 IEM_DS3505
ZGNN,2002-01-30 20:00,ZGNN 302000Z AUTO 03004KT 3SM 12/06 A3024 RMK T01200060 IEM_DS3505
ZGNN,2002-01-30 21:00,ZGNN 302100Z AUTO 00000KT 6SM 12/07 A3021 RMK SLP241 T01160072 57013 IEM_DS3505
ZGNN,2002-01-30 22:00,ZGNN 302200Z AUTO 05004KT 12/06 A3021 RMK T01200060 IEM_DS3505
ZGNN,2002-01-30 23:00,ZGNN 302300Z AUTO 4SM 11/06 A3021 RMK T01100060 IEM_DS3505
ZGNN,2002-01-31 00:00,ZGNN 310000Z AUTO 00000KT 6SM 12/06 A3024 RMK SLP250 T01160061 52009 IEM_DS3505
ZGNN,2002-01-31 01:00,ZGNN 310100Z AUTO 04002KT 3SM 11/06 A3027 RMK T01100060 IEM_DS3505
ZGNN,2002-01-31 02:00,ZGNN 310200Z AUTO 03006KT 1 1/4SM 10/08 A3030 RMK T01000080 IEM_DS3505
ZGNN,2002-01-31 03:00,ZGNN 310300Z AUTO 09002KT 1 1/4SM 10/10 A3030 RMK SLP271 T01010095 52020 IEM_DS3505
ZGNN,2002-01-31 04:00,ZGNN 310400Z AUTO 05004KT 1SM 10/09 A3030 RMK T01000090 IEM_DS3505
ZGNN,2002-01-31 05:00,ZGNN 310500Z AUTO 1SM 10/09 A3027 RMK T01000090 IEM_DS3505
ZGNN,2002-01-31 06:00,ZGNN 310600Z AUTO 00000KT 1 1/4SM 10/10 A3024 RMK 60004 SLP243 T01020096 57028 IEM_DS3505
ZGNN,2002-01-31 07:00,ZGNN 310700Z AUTO 03004KT 1SM 10/09 A3021 RMK T01000090 IEM_DS3505
ZGNN,2002-01-31 08:00,ZGNN 310800Z AUTO 01006KT 1SM 10/09 A3021 RMK T01000090 IEM_DS3505
ZGNN,2002-01-31 09:00,ZGNN 310900Z AUTO 04002KT 2SM 10/09 A3021 RMK SLP235 T01000092 57008 IEM_DS3505
ZGNN,2002-01-31 10:00,ZGNN 311000Z AUTO 04004KT 1SM 10/09 A3021 RMK T01000090 IEM_DS3505
ZGNN,2002-01-31 11:00,ZGNN 311100Z AUTO 05004KT 1SM 10/09 A3021 RMK T01000090 IEM_DS3505
ZGNN,2002-01-31 12:00,ZGNN 311200Z AUTO 00000KT 1 1/4SM 10/09 A3024 RMK 60008 SLP247 T00960092 52012 IEM_DS3505
ZGNN,2002-01-31 13:00,ZGNN 311300Z AUTO 07004KT 1SM 09/08 A3024 RMK T00900080 IEM_DS3505
ZGNN,2002-01-31 14:00,ZGNN 311400Z AUTO 07004KT 1SM 09/08 A3024 RMK T00900080 IEM_DS3505
ZGNN,2002-01-31 15:00,ZGNN 311500Z AUTO 00000KT 1 1/4SM 09/09 A3027 RMK SLP257 T00940090 52009 IEM_DS3505
ZGNN,2002-01-31 16:00,ZGNN 311600Z AUTO 02004KT 1 1/2SM 09/08 A3027 RMK T00900080 IEM_DS3505
ZGNN,2002-01-31 17:00,ZGNN 311700Z AUTO 05006KT 1SM 09/08 A3027 RMK T00900080 IEM_DS3505
ZGNN,2002-01-31 18:00,ZGNN 311800Z AUTO 00000KT 2SM 09/09 A3027 RMK 60004 SLP255 T00920088 57002 IEM_DS3505
ZGNN,2002-01-31 19:00,ZGNN 311900Z AUTO 01004KT 2 1/2SM 09/08 A3024 RMK T00900080 IEM_DS3505
ZGNN,2002-01-31 20:00,ZGNN 312000Z AUTO 35004KT 4SM 09/08 A3024 RMK T00900080 IEM_DS3505
ZGNN,2002-01-31 21:00,ZGNN 312100Z AUTO 34004KT 4SM 09/08 A3024 RMK 70020 SLP251 T00920084 57004 IEM_DS3505
ZGNN,2002-01-31 22:00,ZGNN 312200Z AUTO 34006KT 7SM 09/08 A3024 RMK T00900080 IEM_DS3505
ZGNN,2002-01-31 23:00,ZGNN 312300Z AUTO 34006KT 7SM 09/07 A3027 RMK T00900070 IEM_DS3505
ZGNN,2002-02-01 00:00,ZGNN 010000Z AUTO 34004KT 2 1/2SM 09/08 A3033 RMK 60016 SLP276 T00880077 52025 IEM_DS3505
ZGNN,2002-02-01 01:00,ZGNN 010100Z AUTO 35004KT 7SM 09/07 A3036 RMK T00900070 IEM_DS3505
ZGNN,2002-02-01 02:00,ZGNN 010200Z AUTO 35006KT 7SM 09/07 A3036 RMK T00900070 IEM_DS3505
ZGNN,2002-02-01 03:00,ZGNN 010300Z AUTO 36008KT 5SM 09/08 A3039 RMK SLP295 T00940075 52018 IEM_DS3505
ZGNN,2002-02-01 04:00,ZGNN 010400Z AUTO 35006KT 7SM 09/07 A3036 RMK T00900070 IEM_DS3505
ZGNN,2002-02-01 05:00,ZGNN 010500Z AUTO 34006KT 7SM 09/07 A3033 RMK T00900070 IEM_DS3505
ZGNN,2002-02-01 06:00,ZGNN 010600Z AUTO 34008KT 4SM 09/07 A3030 RMK 60002 SLP264 T00920071 57030 IEM_DS3505
ZGNN,2002-02-01 07:00,ZGNN 010700Z AUTO 35006KT 7SM 09/07 A3027 RMK T00900070 IEM_DS3505
ZGNN,2002-02-01 08:00,ZGNN 010800Z AUTO 35006KT 7SM 09/07 A3027 RMK T00900070 IEM_DS3505
ZGNN,2002-02-01 09:00,ZGNN 010900Z AUTO 02006KT 4SM 09/08 A3024 RMK SLP255 T00920075 57009 IEM_DS3505
ZGNN,2002-02-01 10:00,ZGNN 011000Z AUTO 34006KT 5SM 09/07 A3027 RMK T00900070 IEM_DS3505
ZGNN,2002-02-01 11:00,ZGNN 011100Z AUTO 34004KT 7SM 09/06 A3027 RMK T00900060 IEM_DS3505
ZGNN,2002-02-01 12:00,ZGNN 011200Z AUTO 34004KT 9SM 09/06 A3030 RMK 60004 SLP267 T00930063 52012 IEM_DS3505
ZGNN,2002-02-01 13:00,ZGNN 011300Z AUTO 01002KT 6SM 09/07 A3030 RMK T00900070 IEM_DS3505
ZGNN,2002-02-01 14:00,ZGNN 011400Z AUTO 6SM 09/07 A3030 RMK T00900070 IEM_DS3505
ZGNN,2002-02-01 15:00,ZGNN 011500Z AUTO 00000KT 9SM 09/07 A3030 RMK SLP274 T00910070 52007 IEM_DS3505
ZGNN,2002-02-01 16:00,ZGNN 011600Z AUTO 06002KT 4SM 09/07 A3030 RMK T00900070 IEM_DS3505
ZGNN,2002-02-01 17:00,ZGNN 011700Z AUTO 5SM 09/07 A3030 RMK T00900070 IEM_DS3505
ZGNN,2002-02-01 18:00,ZGNN 011800Z AUTO 27002KT 5SM 08/08 A3030 RMK SLP268 T00810075 57007 IEM_DS3505
ZGNN,2002-02-01 19:00,ZGNN 011900Z AUTO 27002KT 2SM 08/07 A3030 RMK T00800070 IEM_DS3505
ZGNN,2002-02-01 20:00,ZGNN 012000Z AUTO 3SM 08/07 A3027 RMK T00800070 IEM_DS3505
ZGNN,2002-02-01 21:00,ZGNN 012100Z AUTO 00000KT 4SM 08/08 A3024 RMK 70017 SLP255 T00820076 57012 IEM_DS3505
ZGNN,2002-02-01 22:00,ZGNN 012200Z AUTO 27002KT 2SM 07/07 A3027 RMK T00700070 IEM_DS3505
ZGNN,2002-02-01 23:00,ZGNN 012300Z AUTO 28002KT 2SM 07/06 A3030 RMK T00700060 IEM_DS3505
ZGNN,2002-02-02 00:00,ZGNN 020000Z AUTO 00000KT 4SM 06/06 A3030 RMK 60000 SLP276 T00620057 52020 IEM_DS3505
ZGNN,2002-02-02 01:00,ZGNN 020100Z AUTO 4SM 08/06 A3030 RMK T00800060 IEM_DS3505
ZGNN,2002-02-02 02:00,ZGNN 020200Z AUTO 4SM 10/07 A3033 RMK T01000070 IEM_DS3505
ZGNN,2002-02-02 03:00,ZGNN 020300Z AUTO 25002KT 8SM 11/06 A3033 RMK SLP282 T01100058 52007 IEM_DS3505
ZGNN,2002-02-02 04:00,ZGNN 020400Z AUTO 02006KT 6SM 12/03 A3030 RMK T01200030 IEM_DS3505
ZGNN,2002-02-02 05:00,ZGNN 020500Z AUTO 05006KT 6SM 14/03 A3027 RMK T01400030 IEM_DS3505
ZGNN,2002-02-02 06:00,ZGNN 020600Z AUTO 07004KT 7SM 14/03 A3021 RMK SLP241 T01410032 57040 IEM_DS3505
ZGNN,2002-02-02 07:00,ZGNN 020700Z AUTO 6SM 14/03 A3018 RMK T01400030 IEM_DS3505
ZGNN,2002-02-02 08:00,ZGNN 020800Z AUTO 6SM 14/03 A3015 RMK T01400030 IEM_DS3505
ZGNN,2002-02-02 09:00,ZGNN 020900Z AUTO 00000KT 8SM 14/03 A3015 RMK SLP219 T01380031 57022 IEM_DS3505
ZGNN,2002-02-02 10:00,ZGNN 021000Z AUTO 32002KT 7SM 14/04 A3015 RMK T01400040 IEM_DS3505
ZGNN,2002-02-02 11:00,ZGNN 021100Z AUTO 7SM 13/06 A3015 RMK T01300060 IEM_DS3505
ZGNN,2002-02-02 12:00,ZGNN 021200Z AUTO 00000KT 9SM 12/08 A3015 RMK SLP220 T01240084 52001 IEM_DS3505
ZGNN,2002-02-02 13:00,ZGNN 021300Z AUTO 20002KT 7SM 12/07 A3018 RMK T01200070 IEM_DS3505
ZGNN,2002-02-02 14:00,ZGNN 021400Z AUTO 19002KT 7SM 11/08 A3015 RMK T01100080 IEM_DS3505
ZGNN,2002-02-02 15:00,ZGNN 021500Z AUTO 00000KT 7SM 12/08 A3018 RMK SLP222 T01160084 52003 IEM_DS3505
ZGNN,2002-02-02 16:00,ZGNN 021600Z AUTO 4SM 11/08 A3018 RMK T01100080 IEM_DS3505
ZGNN,2002-02-02 17:00,ZGNN 021700Z AUTO 10002KT 2 1/2SM 11/09 A3015 RMK T01100090 IEM_DS3505
ZGNN,2002-02-02 18:00,ZGNN 021800Z AUTO 00000KT 7SM 11/09 A3015 RMK SLP210 T01130093 57012 IEM_DS3505
ZGNN,2002-02-02 19:00,ZGNN 021900Z AUTO 02002KT 2SM 11/08 A3012 RMK T01100080 IEM_DS3505
ZGNN,2002-02-02 20:00,ZGNN 022000Z AUTO 2 1/2SM 11/09 A3012 RMK T01100090 IEM_DS3505
ZGNN,2002-02-02 21:00,ZGNN 022100Z AUTO 09004KT 7SM 11/08 A3012 RMK 70003 SLP206 T01100079 57004 IEM_DS3505
ZGNN,2002-02-02 22:00,ZGNN 022200Z AUTO 10006KT 4SM 11/07 A3012 RMK T01100070 IEM_DS3505
ZGNN,2002-02-02 23:00,ZGNN 022300Z AUTO 11004KT 4SM 11/08 A3012 RMK T01100080 IEM_DS3505
ZGNN,2002-02-03 00:00,ZGNN 030000Z AUTO 00000KT 3SM 10/09 A3015 RMK 60003 SLP218 T01020092 52012 IEM_DS3505
ZGNN,2002-02-03 01:00,ZGNN 030100Z AUTO 06002KT 1 1/4SM 10/09 A3015 RMK T01000090 IEM_DS3505
ZGNN,2002-02-03 02:00,ZGNN 030200Z AUTO 1 1/4SM 10/09 A3015 RMK T01000090 IEM_DS3505
ZGNN,2002-02-03 03:00,ZGNN 030300Z AUTO 07002KT 4SM 11/09 A3015 RMK SLP218 T01080092 54000 IEM_DS3505
ZGNN,2002-02-03 04:00,ZGNN 030400Z AUTO 1 1/2SM 11/09 A3015 RMK T01100090 IEM_DS3505
ZGNN,2002-02-03 05:00,ZGNN 030500Z AUTO 1 1/2SM 11/09 A3009 RMK T01100090 IEM_DS3505
ZGNN,2002-02-03 06:00,ZGNN 030600Z AUTO 00000KT 2 1/2SM 11/10 A3006 RMK 60000 SLP187 T01120104 57031 IEM_DS3505
ZGNN,2002-02-03 07:00,ZGNN 030700Z AUTO 1SM 11/10 A3003 RMK T01100100 IEM_DS3505
ZGNN,2002-02-03 08:00,ZGNN 030800Z AUTO 11002KT 1SM 11/10 A3003 RMK T01100100 IEM_DS3505
ZGNN,2002-02-03 09:00,ZGNN 030900Z AUTO 09002KT 2 1/2SM 11/11 A3000 RMK SLP171 T01110107 57016 IEM_DS3505
ZGNN,2002-02-03 10:00,ZGNN 031000Z AUTO 07004KT 1 1/4SM 11/10 RMK T01100100 IEM_DS3505
ZGNN,2002-02-03 11:00,ZGNN 031100Z AUTO 08006KT 1 1/2SM 10/10 A3003 RMK T01000100 IEM_DS3505
ZGNN,2002-02-03 12:00,ZGNN 031200Z AUTO 09002KT 2SM 11/10 A3003 RMK 60002 SLP181 T01070099 52010 IEM_DS3505
ZGNN,2002-02-03 13:00,ZGNN 031300Z AUTO 07006KT 2SM 10/09 A3006 RMK T01000090 IEM_DS3505
ZGNN,2002-02-03 14:00,ZGNN 031400Z AUTO 07004KT 1SM 10/09 A3006 RMK T01000090 IEM_DS3505
ZGNN,2002-02-03 15:00,ZGNN 031500Z AUTO 09002KT 2SM 10/10 A3006 RMK SLP191 T01020098 52010 IEM_DS3505
ZGNN,2002-02-03 16:00,ZGNN 031600Z AUTO 07004KT 1SM 10/09 A3006 RMK T01000090 IEM_DS3505
ZGNN,2002-02-03 17:00,ZGNN 031700Z AUTO 06004KT 1SM 10/09 A3006 RMK T01000090 IEM_DS3505
ZGNN,2002-02-03 18:00,ZGNN 031800Z AUTO 07002KT 2SM 10/10 A3006 RMK 60002 SLP186 T01030099 57005 IEM_DS3505
ZGNN,2002-02-03 19:00,ZGNN 031900Z AUTO 06004KT 1SM 10/09 A3006 RMK T01000090 IEM_DS3505
ZGNN,2002-02-03 20:00,ZGNN 032000Z AUTO 05004KT 1SM 10/09 A3006 RMK T01000090 IEM_DS3505
ZGNN,2002-02-03 21:00,ZGNN 032100Z AUTO 09002KT 2SM 10/10 A3006 RMK 70006 SLP182 T01050103 57004 IEM_DS3505
ZGNN,2002-02-03 22:00,ZGNN 032200Z AUTO 03004KT 1SM 10/09 A3006 RMK T01000090 IEM_DS3505
ZGNN,2002-02-03 23:00,ZGNN 032300Z AUTO 04004KT 1SM 10/10 A3009 RMK T01000100 IEM_DS3505
ZGNN,2002-02-04 00:00,ZGNN 040000Z AUTO 00000KT 2 1/2SM 11/10 A3012 RMK 60004 SLP201 T01060104 52019 IEM_DS3505
ZGNN,2002-02-04 01:00,ZGNN 040100Z AUTO 05004KT 1SM 11/10 A3012 RMK T01100100 IEM_DS3505
ZGNN,2002-02-04 02:00,ZGNN 040200Z AUTO 05002KT 1SM 11/10 A3015 RMK T01100100 IEM_DS3505
ZGNN,2002-02-04 03:00,ZGNN 040300Z AUTO 07002KT 2SM 11/11 A3015 RMK SLP219 T01120108 52017 IEM_DS3505
ZGNN,2002-02-04 04:00,ZGNN 040400Z AUTO 36004KT 1 1/4SM 11/10 A3015 RMK T01100100 IEM_DS3505
ZGNN,2002-02-04 05:00,ZGNN 040500Z AUTO 1 1/2SM 11/10 A3012 RMK T01100100 IEM_DS3505
ZGNN,2002-02-04 06:00,ZGNN 040600Z AUTO 36004KT 3SM 12/11 A3009 RMK 60000 SLP200 T01170109 57018 IEM_DS3505
ZGNN,2002-02-04 07:00,ZGNN 040700Z AUTO 35006KT 2 1/2SM 11/10 A3009 RMK T01100100 IEM_DS3505
ZGNN,2002-02-04 08:00,ZGNN 040800Z AUTO 35004KT 4SM 12/10 A3006 RMK T01200100 IEM_DS3505
ZGNN,2002-02-04 09:00,ZGNN 040900Z AUTO 34004KT 2SM 12/11 A3006 RMK SLP188 T01160106 57012 IEM_DS3505
ZGNN,2002-02-04 10:00,ZGNN 041000Z AUTO 36004KT 4SM 11/10 A3006 RMK T01100100 IEM_DS3505
ZGNN,2002-02-04 11:00,ZGNN 041100Z AUTO 36004KT 2SM 11/10 A3009 RMK T01100100 IEM_DS3505
ZGNN,2002-02-04 12:00,ZGNN 041200Z AUTO 00000KT 2 1/2SM 11/10 A3012 RMK 60000 SLP206 T01090105 52018 IEM_DS3505
ZGNN,2002-02-04 13:00,ZGNN 041300Z AUTO 05004KT 1 1/2SM 11/10 A3015 RMK T01100100 IEM_DS3505
ZGNN,2002-02-04 15:00,ZGNN 041500Z AUTO 00000KT 2 1/2SM 11/11 A3018 RMK SLP223 T01080106 52016 IEM_DS3505
ZGNN,2002-02-04 16:00,ZGNN 041600Z AUTO 1 1/4SM 11/10 A3015 RMK T01100100 IEM_DS3505
ZGNN,2002-02-04 17:00,ZGNN 041700Z AUTO 23002KT 1 1/2SM 11/10 A3015 RMK T01100100 IEM_DS3505
ZGNN,2002-02-04 18:00,ZGNN 041800Z AUTO 34006KT 7SM 12/10 RMK 60000 SLP215 T01150099 57007 IEM_DS3505
ZGNN,2002-02-04 21:00,ZGNN 042100Z AUTO 34006KT 7SM 11/09 A3012 RMK 70005 SLP212 T01140094 57003 IEM_DS3505
ZGNN,2002-02-04 22:00,ZGNN 042200Z AUTO 32008KT 7SM 12/07 A3012 RMK T01200070 IEM_DS3505
ZGNN,2002-02-04 23:00,ZGNN 042300Z AUTO 05002KT 7SM 11/08 A3015 RMK T01100080 IEM_DS3505
ZGNN,2002-02-05 00:00,ZGNN 050000Z AUTO 34004KT 16SM 12/09 A3015 RMK 60003 SLP222 T01160088 52010 IEM_DS3505
ZGNN,2002-02-05 01:00,ZGNN 050100Z AUTO 7SM 12/08 A3018 RMK T01200080 IEM_DS3505
ZGNN,2002-02-05 02:00,ZGNN 050200Z AUTO 35008KT 7SM 13/07 A3021 RMK T01300070 IEM_DS3505
ZGNN,2002-02-05 03:00,ZGNN 050300Z AUTO 34008KT 19SM 13/08 A3021 RMK SLP237 T01340080 52015 IEM_DS3505
ZGNN,2002-02-05 04:00,ZGNN 050400Z AUTO 35008KT 6SM 15/07 A3018 RMK T01500070 IEM_DS3505
ZGNN,2002-02-05 05:00,ZGNN 050500Z AUTO 6SM 16/08 A3015 RMK T01600080 IEM_DS3505
ZGNN,2002-02-05 06:00,ZGNN 050600Z AUTO 02006KT 19SM 17/08 A3009 RMK SLP197 T01730081 57038 IEM_DS3505
ZGNN,2002-02-05 07:00,ZGNN 050700Z AUTO 04006KT 6SM 18/07 A3006 RMK T01800070 IEM_DS3505
ZGNN,2002-02-05 08:00,ZGNN 050800Z AUTO 6SM 18/08 A3003 RMK T01800080 IEM_DS3505
ZGNN,2002-02-05 09:00,ZGNN 050900Z AUTO 16002KT 19SM 18/09 A3003 RMK SLP175 T01800091 57022 IEM_DS3505
ZGNN,2002-02-05 10:00,ZGNN 051000Z AUTO 08002KT 6SM 17/09 A3003 RMK T01700090 IEM_DS3505
ZGNN,2002-02-05 11:00,ZGNN 051100Z AUTO 06004KT 6SM 16/10 A3003 RMK T01600100 IEM_DS3505
ZGNN,2002-02-05 12:00,ZGNN 051200Z AUTO 00000KT 11SM 15/11 A3006 RMK SLP185 T01470110 52009 IEM_DS3505
ZGNN,2002-02-05 13:00,ZGNN 051300Z AUTO 6SM 14/10 A3006 RMK T01400100 IEM_DS3505
ZGNN,2002-02-05 14:00,ZGNN 051400Z AUTO 34002KT 6SM 13/10 A3006 RMK T01300100 IEM_DS3505
ZGNN,2002-02-05 15:00,ZGNN 051500Z AUTO 00000KT 9SM 12/11 A3006 RMK SLP189 T01250110 52004 IEM_DS3505
ZGNN,2002-02-05 16:00,ZGNN 051600Z AUTO 02002KT 6SM 13/11 A3006 RMK T01300110 IEM_DS3505
ZGNN,2002-02-05 17:00,ZGNN 051700Z AUTO 34002KT 6SM 14/10 A3006 RMK T01400100 IEM_DS3505
ZGNN,2002-02-05 18:00,ZGNN 051800Z AUTO 00000KT 9SM 14/12 A3003 RMK SLP177 T01360116 57011 IEM_DS3505
ZGNN,2002-02-05 19:00,ZGNN 051900Z AUTO 00000KT 7SM 13/11 A3000 RMK T01300110 IEM_DS3505
ZGNN,2002-02-05 20:00,ZGNN 052000Z AUTO 05002KT 7SM 13/10 A3000 RMK T01300100 IEM_DS3505
ZGNN,2002-02-05 21:00,ZGNN 052100Z AUTO 00000KT 9SM 13/10 A2997 RMK SLP159 T01340103 57017 IEM_DS3505
ZGNN,2002-02-05 22:00,ZGNN 052200Z AUTO 05002KT 3SM 13/11 A3000 RMK T01300110 IEM_DS3505
ZGNN,2002-02-05 23:00,ZGNN 052300Z AUTO 07002KT 4SM 13/11 A3000 RMK T01300110 IEM_DS3505
ZGNN,2002-02-06 00:00,ZGNN 060000Z AUTO 00000KT 4SM 13/11 A3003 RMK SLP172 T01340109 52012 IEM_DS3505
ZGNN,2002-02-06 01:00,ZGNN 060100Z AUTO 05002KT 3SM 14/11 A3003 RMK T01400110 IEM_DS3505
ZGNN,2002-02-06 02:00,ZGNN 060200Z AUTO 11004KT 4SM 14/11 A3006 RMK T01400110 IEM_DS3505
ZGNN,2002-02-06 03:00,ZGNN 060300Z AUTO 14004KT 6SM 15/11 A3006 RMK SLP181 T01490114 52008 IEM_DS3505
ZGNN,2002-02-06 04:00,ZGNN 060400Z AUTO 2 1/2SM 15/11 A3003 RMK T01500110 IEM_DS3505
ZGNN,2002-02-06 05:00,ZGNN 060500Z AUTO 20004KT 2SM 14/12 A3000 RMK T01400120 IEM_DS3505
ZGNN,2002-02-06 06:00,ZGNN 060600Z AUTO 18002KT 3SM 14/14 A2994 RMK 60000 SLP148 T01450136 57032 IEM_DS3505
ZGNN,2002-02-06 07:00,ZGNN 060700Z AUTO 16006KT 4SM 15/13 A2991 RMK T01500130 IEM_DS3505
ZGNN,2002-02-06 08:00,ZGNN 060800Z AUTO 11004KT 4SM 15/13 A2988 RMK T01500130 IEM_DS3505
ZGNN,2002-02-06 09:00,ZGNN 060900Z AUTO 14002KT 6SM 16/14 A2988 RMK SLP124 T01580139 57023 IEM_DS3505
ZGNN,2002-02-06 10:00,ZGNN 061000Z AUTO 12004KT 5SM 16/13 A2988 RMK T01600130 IEM_DS3505
ZGNN,2002-02-06 11:00,ZGNN 061100Z AUTO 07002KT 4SM 15/13 A2988 RMK T01500130 IEM_DS3505
ZGNN,2002-02-06 12:00,ZGNN 061200Z AUTO 00000KT 6SM 15/14 A2991 RMK 60003 SLP139 T01520140 52014 IEM_DS3505
ZGNN,2002-02-06 13:00,ZGNN 061300Z AUTO 09004KT 4SM 15/13 A2994 RMK T01500130 IEM_DS3505
ZGNN,2002-02-06 14:00,ZGNN 061400Z AUTO 08002KT 3SM 15/13 A2994 RMK T01500130 IEM_DS3505
ZGNN,2002-02-06 15:00,ZGNN 061500Z AUTO 00000KT 6SM 15/15 A2997 RMK SLP155 T01500147 52016 IEM_DS3505
ZGNN,2002-02-06 16:00,ZGNN 061600Z AUTO 03002KT 1/2SM 15/14 A2994 RMK T01500140 IEM_DS3505
ZGNN,2002-02-06 17:00,ZGNN 061700Z AUTO 07004KT 1SM 14/14 A2994 RMK T01400140 IEM_DS3505
ZGNN,2002-02-06 18:00,ZGNN 061800Z AUTO 09002KT 5SM 14/14 A2994 RMK 60003 SLP153 T01390135 57002 IEM_DS3505
ZGNN,2002-02-06 19:00,ZGNN 061900Z AUTO 04006KT 1/2SM 13/13 A2994 RMK T01300130 IEM_DS3505
ZGNN,2002-02-06 20:00,ZGNN 062000Z AUTO 04006KT 1/2SM 13/13 A2994 RMK T01300130 IEM_DS3505
ZGNN,2002-02-06 21:00,ZGNN 062100Z AUTO 00000KT 4SM 14/13 A2994 RMK 70000 SLP142 T01360132 57010 IEM_DS3505
ZGNN,2002-02-06 22:00,ZGNN 062200Z AUTO 06004KT 1 1/4SM 13/13 A2994 RMK T01300130 IEM_DS3505
ZGNN,2002-02-06 23:00,ZGNN 062300Z AUTO 06004KT 2SM 14/13 A2997 RMK T01400130 IEM_DS3505
ZGNN,2002-02-07 00:00,ZGNN 070000Z AUTO 09002KT 1 1/2SM 14/13 A2997 RMK 60003 SLP158 T01380134 52015 IEM_DS3505
ZGNN,2002-02-07 01:00,ZGNN 070100Z AUTO 05004KT 2 1/2SM 14/13 A3000 RMK T01400130 IEM_DS3505
ZGNN,2002-02-07 02:00,ZGNN 070200Z AUTO 06006KT 3SM 14/13 A3003 RMK T01400130 IEM_DS3505
ZGNN,2002-02-07 03:00,ZGNN 070300Z AUTO 00000KT 4SM 15/14 A3003 RMK SLP177 T01460135 52019 IEM_DS3505
ZGNN,2002-02-07 04:00,ZGNN 070400Z AUTO 06006KT 2SM 14/13 A3000 RMK T01400130 IEM_DS3505
ZGNN,2002-02-07 05:00,ZGNN 070500Z AUTO 04002KT 1SM 15/13 A3000 RMK T01500130 IEM_DS3505
ZGNN,2002-02-07 06:00,ZGNN 070600Z AUTO 02004KT 4SM 15/14 A2997 RMK 60003 SLP154 T01520145 57023 IEM_DS3505
ZGNN,2002-02-07 07:00,ZGNN 070700Z AUTO 03006KT 1 1/4SM 15/14 A2994 RMK T01500140 IEM_DS3505
ZGNN,2002-02-07 08:00,ZGNN 070800Z AUTO 04006KT 1 1/2SM 15/14 A2991 RMK T01500140 IEM_DS3505
ZGNN,2002-02-07 09:00,ZGNN 070900Z AUTO 09004KT 4SM 16/15 A2991 RMK SLP138 T01560149 57015 IEM_DS3505
ZGNN,2002-02-07 10:00,ZGNN 071000Z AUTO 06004KT 3SM 15/14 A2991 RMK T01500140 IEM_DS3505
ZGNN,2002-02-07 11:00,ZGNN 071100Z AUTO 06004KT 1 1/4SM 15/14 A2994 RMK T01500140 IEM_DS3505
ZGNN,2002-02-07 12:00,ZGNN 071200Z AUTO 09004KT 2 1/2SM 15/14 A2994 RMK 60003 SLP151 T01470145 52012 IEM_DS3505
ZGNN,2002-02-07 13:00,ZGNN 071300Z AUTO 06004KT 1SM 14/14 A2997 RMK T01400140 IEM_DS3505
ZGNN,2002-02-07 14:00,ZGNN 071400Z AUTO 07004KT 1SM 14/13 A3000 RMK T01400130 IEM_DS3505
ZGNN,2002-02-07 15:00,ZGNN 071500Z AUTO 00000KT 4SM 15/14 A3000 RMK SLP165 T01460142 52014 IEM_DS3505
ZGNN,2002-02-07 16:00,ZGNN 071600Z AUTO 06004KT 2 1/2SM 14/13 A3000 RMK T01400130 IEM_DS3505
ZGNN,2002-02-07 17:00,ZGNN 071700Z AUTO 07004KT 4SM 14/13 A3000 RMK T01400130 IEM_DS3505
ZGNN,2002-02-07 18:00,ZGNN 071800Z AUTO 07004KT 5SM 14/14 A3000 RMK 60000 SLP163 T01440135 57002 IEM_DS3505
ZGNN,2002-02-07 19:00,ZGNN 071900Z AUTO 07006KT 3SM 14/13 A3000 RMK T01400130 IEM_DS3505
ZGNN,2002-02-07 20:00,ZGNN 072000Z AUTO 07004KT 2SM 14/13 A3000 RMK T01400130 IEM_DS3505
ZGNN,2002-02-07 21:00,ZGNN 072100Z AUTO 00000KT 4SM 14/14 A3000 RMK 70000 SLP164 T01420138 52001 IEM_DS3505
ZGNN,2002-02-07 22:00,ZGNN 072200Z AUTO 04004KT 1SM 14/13 A3000 RMK T01400130 IEM_DS3505
ZGNN,2002-02-07 23:00,ZGNN 072300Z AUTO 04004KT 1SM 14/13 A3003 RMK T01400130 IEM_DS3505
ZGNN,2002-02-08 00:00,ZGNN 080000Z AUTO 00000KT 4SM 14/14 A3003 RMK 60004 SLP183 T01420138 52019 IEM_DS3505
ZGNN,2002-02-08 01:00,ZGNN 080100Z AUTO 10002KT 1 1/2SM 14/13 A3006 RMK T01400130 IEM_DS3505
ZGNN,2002-02-08 02:00,ZGNN 080200Z AUTO 1 1/2SM 14/13 A3009 RMK T01400130 IEM_DS3505
ZGNN,2002-02-08 03:00,ZGNN 080300Z AUTO 00000KT 2 1/2SM 15/14 A3012 RMK SLP200 T01460139 52017 IEM_DS3505
ZGNN,2002-02-08 04:00,ZGNN 080400Z AUTO 06004KT 1 1/4SM 15/14 A3009 RMK T01500140 IEM_DS3505
ZGNN,2002-02-08 05:00,ZGNN 080500Z AUTO 05004KT 1SM 15/14 A3006 RMK T01500140 IEM_DS3505
ZGNN,2002-02-08 06:00,ZGNN 080600Z AUTO 34004KT 2 1/2SM 16/15 A3003 RMK 60000 SLP180 T01560146 57020 IEM_DS3505
ZGNN,2002-02-08 08:00,ZGNN 080800Z AUTO 03006KT 1 1/4SM 15/14 A3000 RMK T01500140 IEM_DS3505
ZGNN,2002-02-08 09:00,ZGNN 080900Z AUTO 02004KT 2 1/2SM 15/14 A3000 RMK SLP167 T01520145 57013 IEM_DS3505
ZGNN,2002-02-08 10:00,ZGNN 081000Z AUTO 01004KT 1SM 15/14 A3000 RMK T01500140 IEM_DS3505
ZGNN,2002-02-08 11:00,ZGNN 081100Z AUTO 03006KT 1SM 14/14 A3003 RMK T01400140 IEM_DS3505
ZGNN,2002-02-08 12:00,ZGNN 081200Z AUTO 00000KT 6SM 14/14 A3003 RMK 60001 SLP179 T01420135 52012 IEM_DS3505
ZGNN,2002-02-08 13:00,ZGNN 081300Z AUTO 01004KT 2 1/2SM 14/12 A3006 RMK T01400120 IEM_DS3505
ZGNN,2002-02-08 14:00,ZGNN 081400Z AUTO 05002KT 2 1/2SM 14/13 A3006 RMK T01400130 IEM_DS3505
ZGNN,2002-02-08 15:00,ZGNN 081500Z AUTO 00000KT 7SM 14/14 A3006 RMK SLP188 T01420135 52009 IEM_DS3505
ZGNN,2002-02-08 16:00,ZGNN 081600Z AUTO 13002KT 1 1/4SM 14/13 A3006 RMK T01400130 IEM_DS3505
ZGNN,2002-02-08 17:00,ZGNN 081700Z AUTO 00000KT 1 1/4SM 14/13 A3006 RMK T01400130 IEM_DS3505
ZGNN,2002-02-08 18:00,ZGNN 081800Z AUTO 00000KT 7SM 14/13 A3006 RMK 60003 SLP185 T01410134 57003 IEM_DS3505
ZGNN,2002-02-08 19:00,ZGNN 081900Z AUTO 1 1/4SM 13/12 A3006 RMK T01300120 IEM_DS3505
ZGNN,2002-02-08 20:00,ZGNN 082000Z AUTO 07002KT 1 1/4SM 13/12 A3003 RMK T01300120 IEM_DS3505
ZGNN,2002-02-08 21:00,ZGNN 082100Z AUTO 00000KT 6SM 14/13 A3003 RMK 70005 SLP171 T01380127 57014 IEM_DS3505
ZGNN,2002-02-08 22:00,ZGNN 082200Z AUTO 00000KT 2SM 14/12 A3003 RMK T01400120 IEM_DS3505
ZGNN,2002-02-08 23:00,ZGNN 082300Z AUTO 06002KT 2SM 13/12 A3003 RMK T01300120 IEM_DS3505
ZGNN,2002-02-09 00:00,ZGNN 090000Z AUTO 00000KT 4SM 14/12 A3003 RMK 60003 SLP178 T01380123 52007 IEM_DS3505
ZGNN,2002-02-09 01:00,ZGNN 090100Z AUTO 07004KT 2 1/2SM 14/12 A3003 RMK T01400120 IEM_DS3505
ZGNN,2002-02-09 02:00,ZGNN 090200Z AUTO 09002KT 1 1/2SM 13/12 A3006 RMK T01300120 IEM_DS3505
ZGNN,2002-02-09 03:00,ZGNN 090300Z AUTO 11004KT 1 1/4SM 14/13 A3006 RMK SLP186 T01350130 52007 IEM_DS3505
ZGNN,2002-02-09 04:00,ZGNN 090400Z AUTO 1SM 13/12 A3003 RMK T01300120 IEM_DS3505
ZGNN,2002-02-09 05:00,ZGNN 090500Z AUTO 08004KT 1 1/4SM 14/13 A3000 RMK T01400130 IEM_DS3505
ZGNN,2002-02-09 06:00,ZGNN 090600Z AUTO 07002KT 2SM 14/14 A2997 RMK 60003 SLP154 T01450138 57031 IEM_DS3505
ZGNN,2002-02-09 07:00,ZGNN 090700Z AUTO 1SM 14/13 A2991 RMK T01400130 IEM_DS3505
ZGNN,2002-02-09 08:00,ZGNN 090800Z AUTO 08004KT 1SM 15/14 A2991 RMK T01500140 IEM_DS3505
ZGNN,2002-02-09 09:00,ZGNN 090900Z AUTO 09004KT 1 1/4SM 15/14 A2988 RMK SLP129 T01480145 57024 IEM_DS3505
ZGNN,2002-02-09 10:00,ZGNN 091000Z AUTO 05006KT 1SM 15/14 A2988 RMK T01500140 IEM_DS3505
ZGNN,2002-02-09 11:00,ZGNN 091100Z AUTO 04006KT 1SM 14/14 A2991 RMK T01400140 IEM_DS3505
ZGNN,2002-02-09 12:00,ZGNN 091200Z AUTO 07002KT 1/2SM 15/14 A2991 RMK 60003 SLP143 T01460142 52013 IEM_DS3505
ZGNN,2002-02-09 13:00,ZGNN 091300Z AUTO 04006KT 1SM 14/14 A2994 RMK T01400140 IEM_DS3505
ZGNN,2002-02-09 14:00,ZGNN 091400Z AUTO 02006KT 1/2SM 14/14 A2997 RMK T01400140 IEM_DS3505
ZGNN,2002-02-09 15:00,ZGNN 091500Z AUTO 00000KT 1SM 15/15 A3000 RMK SLP173 T01480146 52030 IEM_DS3505
ZGNN,2002-02-09 16:00,ZGNN 091600Z AUTO 02006KT 1SM 15/14 A3003 RMK T01500140 IEM_DS3505
ZGNN,2002-02-09 17:00,ZGNN 091700Z AUTO 03006KT 1SM 15/14 A3003 RMK T01500140 IEM_DS3505
ZGNN,2002-02-09 18:00,ZGNN 091800Z AUTO 36006KT 2 1/2SM 15/14 A3006 RMK 60001 SLP185 T01500141 52012 IEM_DS3505
ZGNN,2002-02-09 19:00,ZGNN 091900Z AUTO 35010KT 7SM 14/12 A3006 RMK T01400120 IEM_DS3505
ZGNN,2002-02-09 20:00,ZGNN 092000Z AUTO 34010KT 4SM 13/12 A3009 RMK T01300120 IEM_DS3505
ZGNN,2002-02-09 21:00,ZGNN 092100Z AUTO 34010KT 6SM 14/12 A3009 RMK 70016 SLP202 T01350120 52016 IEM_DS3505
ZGNN,2002-02-09 22:00,ZGNN 092200Z AUTO 36006KT 7SM 13/11 A3012 RMK T01300110 IEM_DS3505
ZGNN,2002-02-09 23:00,ZGNN 092300Z AUTO 34006KT 4SM 12/11 A3015 RMK T01200110 IEM_DS3505
ZGNN,2002-02-10 00:00,ZGNN 100000Z AUTO 34008KT 5SM 13/11 A3018 RMK 60020 SLP231 T01260111 52029 IEM_DS3505
ZGNN,2002-02-10 01:00,ZGNN 100100Z AUTO 33008KT 7SM 13/10 A3021 RMK T01300100 IEM_DS3505
ZGNN,2002-02-10 02:00,ZGNN 100200Z AUTO 34008KT 7SM 13/10 A3024 RMK T01300100 IEM_DS3505
ZGNN,2002-02-10 03:00,ZGNN 100300Z AUTO 34008KT 19SM 14/10 A3027 RMK SLP252 T01390101 52021 IEM_DS3505
ZGNN,2002-02-10 04:00,ZGNN 100400Z AUTO 34010KT 7SM 15/09 A3024 RMK T01500090 IEM_DS3505
ZGNN,2002-02-10 05:00,ZGNN 100500Z AUTO 36008KT 7SM 15/09 A3021 RMK T01500090 IEM_DS3505
ZGNN,2002-02-10 06:00,ZGNN 100600Z AUTO 32010KT 19SM 16/09 A3018 RMK SLP223 T01620088 57028 IEM_DS3505
ZGNN,2002-02-10 07:00,ZGNN 100700Z AUTO 36008KT 7SM 16/09 A3015 RMK T01600090 IEM_DS3505
ZGNN,2002-02-10 08:00,ZGNN 100800Z AUTO 01006KT 7SM 17/09 A3012 RMK T01700090 IEM_DS3505
ZGNN,2002-02-10 09:00,ZGNN 100900Z AUTO 02008KT 17SM 17/08 A3012 RMK SLP205 T01710084 57018 IEM_DS3505
ZGNN,2002-02-10 10:00,ZGNN 101000Z AUTO 01006KT 6SM 17/09 A3012 RMK T01700090 IEM_DS3505
ZGNN,2002-02-10 11:00,ZGNN 101100Z AUTO 05006KT 6SM 15/10 A3015 RMK T01500100 IEM_DS3505
ZGNN,2002-02-10 12:00,ZGNN 101200Z AUTO 02004KT 16SM 15/09 A3015 RMK SLP220 T01490093 52014 IEM_DS3505
ZGNN,2002-02-10 13:00,ZGNN 101300Z AUTO 06006KT 6SM 14/09 A3018 RMK T01400090 IEM_DS3505
ZGNN,2002-02-10 14:00,ZGNN 101400Z AUTO 6SM 14/08 A3021 RMK T01400080 IEM_DS3505
ZGNN,2002-02-10 15:00,ZGNN 101500Z AUTO 00000KT 12SM 14/09 A3021 RMK SLP236 T01360086 52016 IEM_DS3505
ZGNN,2002-02-10 16:00,ZGNN 101600Z AUTO 06002KT 6SM 13/08 A3021 RMK T01300080 IEM_DS3505
ZGNN,2002-02-10 17:00,ZGNN 101700Z AUTO 02002KT 6SM 14/08 A3021 RMK T01400080 IEM_DS3505
ZGNN,2002-02-10 18:00,ZGNN 101800Z AUTO 00000KT 9SM 13/10 A3021 RMK SLP238 T01330100 52002 IEM_DS3505
ZGNN,2002-02-10 19:00,ZGNN 101900Z AUTO 7SM 14/08 A3021 RMK T01400080 IEM_DS3505
ZGNN,2002-02-10 20:00,ZGNN 102000Z AUTO 04002KT 7SM 13/09 A3018 RMK T01300090 IEM_DS3505
ZGNN,2002-02-10 21:00,ZGNN 102100Z AUTO 00000KT 9SM 13/09 A3018 RMK 70004 SLP224 T01320088 57013 IEM_DS3505
ZGNN,2002-02-10 22:00,ZGNN 102200Z AUTO 7SM 13/08 A3018 RMK T01300080 IEM_DS3505
ZGNN,2002-02-10 23:00,ZGNN 102300Z AUTO 03002KT 7SM 13/09 A3021 RMK T01300090 IEM_DS3505
ZGNN,2002-02-11 00:00,ZGNN 110000Z AUTO 00000KT 9SM 13/08 A3024 RMK 60003 SLP242 T01310078 52017 IEM_DS3505
ZGNN,2002-02-11 01:00,ZGNN 110100Z AUTO 04004KT 7SM 14/06 A3024 RMK T01400060 IEM_DS3505
ZGNN,2002-02-11 02:00,ZGNN 110200Z AUTO 06006KT 7SM 14/06 A3027 RMK T01400060 IEM_DS3505
ZGNN,2002-02-11 03:00,ZGNN 110300Z AUTO 02002KT 7SM 15/06 A3027 RMK SLP254 T01500058 52012 IEM_DS3505
ZGNN,2002-02-11 04:00,ZGNN 110400Z AUTO 03006KT 7SM 16/05 A3024 RMK T01600050 IEM_DS3505
ZGNN,2002-02-11 05:00,ZGNN 110500Z AUTO 06006KT 7SM 16/06 A3021 RMK T01600060 IEM_DS3505
ZGNN,2002-02-11 06:00,ZGNN 110600Z AUTO 07002KT 9SM 16/06 RMK SLP225 T01600056 57029 IEM_DS3505
ZGNN,2002-02-11 07:00,ZGNN 110700Z AUTO 7SM 16/06 A3015 RMK T01600060 IEM_DS3505
ZGNN,2002-02-11 08:00,ZGNN 110800Z AUTO 7SM 16/06 A3015 RMK T01600060 IEM_DS3505
ZGNN,2002-02-11 09:00,ZGNN 110900Z AUTO 14002KT 9SM 16/07 RMK SLP214 T01610073 57011 IEM_DS3505
ZGNN,2002-02-11 10:00,ZGNN 111000Z AUTO 10004KT 7SM 15/08 A3015 RMK T01500080 IEM_DS3505
ZGNN,2002-02-11 11:00,ZGNN 111100Z AUTO 12002KT 7SM 14/09 A3015 RMK T01400090 IEM_DS3505
ZGNN,2002-02-11 12:00,ZGNN 111200Z AUTO 07002KT 7SM 14/09 A3018 RMK SLP223 T01450093 52009 IEM_DS3505
ZGNN,2002-02-11 13:00,ZGNN 111300Z AUTO 03002KT 7SM 14/09 A3018 RMK T01400090 IEM_DS3505
ZGNN,2002-02-11 14:00,ZGNN 111400Z AUTO 05004KT 7SM 14/09 A3021 RMK T01400090 IEM_DS3505
ZGNN,2002-02-11 15:00,ZGNN 111500Z AUTO 00000KT 7SM 14/10 A3021 RMK SLP236 T01400098 52013 IEM_DS3505
ZGNN,2002-02-11 16:00,ZGNN 111600Z AUTO 00000KT 4SM 14/10 A3021 RMK T01400100 IEM_DS3505
ZGNN,2002-02-11 17:00,ZGNN 111700Z AUTO 00000KT 1 1/4SM 13/11 A3021 RMK T01300110 IEM_DS3505
ZGNN,2002-02-11 18:00,ZGNN 111800Z AUTO 00000KT 7SM 13/11 A3021 RMK SLP234 T01340111 57002 IEM_DS3505
ZGNN,2002-02-11 19:00,ZGNN 111900Z AUTO 02002KT 2SM 13/11 A3018 RMK T01300110 IEM_DS3505
ZGNN,2002-02-11 20:00,ZGNN 112000Z AUTO 04004KT 2SM 12/11 A3018 RMK T01200110 IEM_DS3505
ZGNN,2002-02-11 21:00,ZGNN 112100Z AUTO 36002KT 5SM 13/12 A3018 RMK 70000 SLP224 T01260119 57010 IEM_DS3505
ZGNN,2002-02-11 22:00,ZGNN 112200Z AUTO 05004KT 1 1/4SM 12/11 A3018 RMK T01200110 IEM_DS3505
ZGNN,2002-02-11 23:00,ZGNN 112300Z AUTO 1SM 12/11 A3021 RMK T01200110 IEM_DS3505
ZGNN,2002-02-12 00:00,ZGNN 120000Z AUTO 00000KT 1/4SM 13/12 A3021 RMK 60001 SLP242 T01260122 52017 IEM_DS3505
ZGNN,2002-02-12 01:00,ZGNN 120100Z AUTO 35004KT 1SM 12/11 A3024 RMK T01200110 IEM_DS3505
ZGNN,2002-02-12 02:00,ZGNN 120200Z AUTO 36004KT 1SM 12/11 A3027 RMK T01200110 IEM_DS3505
ZGNN,2002-02-12 03:00,ZGNN 120300Z AUTO 00000KT 4SM 13/12 RMK SLP254 T01280122 52012 IEM_DS3505
ZGNN,2002-02-12 04:00,ZGNN 120400Z AUTO 35002KT 1 1/4SM 13/12 A3024 RMK T01300120 IEM_DS3505
ZGNN,2002-02-12 05:00,ZGNN 120500Z AUTO 1 1/4SM 13/12 A3021 RMK T01300120 IEM_DS3505
ZGNN,2002-02-12 06:00,ZGNN 120600Z AUTO 02002KT 4SM 13/12 A3018 RMK 60012 SLP226 T01320125 57027 IEM_DS3505
ZGNN,2002-02-12 07:00,ZGNN 120700Z AUTO 35004KT 1 1/4SM 13/12 A3015 RMK T01300120 IEM_DS3505
ZGNN,2002-02-12 08:00,ZGNN 120800Z AUTO 04004KT 2SM 13/12 A3015 RMK T01300120 IEM_DS3505
ZGNN,2002-02-12 09:00,ZGNN 120900Z AUTO 00000KT 2 1/2SM 13/13 A3015 RMK SLP211 T01320127 57015 IEM_DS3505
ZGNN,2002-02-12 10:00,ZGNN 121000Z AUTO 05004KT 1SM 13/12 A3015 RMK T01300120 IEM_DS3505
ZGNN,2002-02-12 11:00,ZGNN 121100Z AUTO 05004KT 1 1/4SM 13/12 A3012 RMK T01300120 IEM_DS3505
ZGNN,2002-02-12 12:00,ZGNN 121200Z AUTO 00000KT 2SM 13/12 A3012 RMK 60002 SLP208 T01290125 57003 IEM_DS3505
ZGNN,2002-02-12 13:00,ZGNN 121300Z AUTO 00000KT 1 1/4SM 13/12 A3012 RMK T01300120 IEM_DS3505
ZGNN,2002-02-12 14:00,ZGNN 121400Z AUTO 33002KT 1SM 13/12 A3015 RMK T01300120 IEM_DS3505
ZGNN,2002-02-12 15:00,ZGNN 121500Z AUTO 00000KT 2 1/2SM 13/13 A3012 RMK SLP209 T01290127 52001 IEM_DS3505
ZGNN,2002-02-12 16:00,ZGNN 121600Z AUTO 32002KT 1 1/4SM 13/12 A3012 RMK T01300120 IEM_DS3505
ZGNN,2002-02-12 17:00,ZGNN 121700Z AUTO 27002KT 2SM 13/12 A3012 RMK T01300120 IEM_DS3505
ZGNN,2002-02-12 18:00,ZGNN 121800Z AUTO 00000KT 4SM 13/13 A3009 RMK 60000 SLP196 T01320128 57013 IEM_DS3505
ZGNN,2002-02-12 19:00,ZGNN 121900Z AUTO 12002KT 1 1/4SM 13/12 A3006 RMK T01300120 IEM_DS3505
ZGNN,2002-02-12 20:00,ZGNN 122000Z AUTO 1 1/4SM 13/12 A3006 RMK T01300120 IEM_DS3505
ZGNN,2002-02-12 21:00,ZGNN 122100Z AUTO 00000KT 5SM 13/13 A3003 RMK 70013 SLP181 T01320127 57015 IEM_DS3505
ZGNN,2002-02-12 22:00,ZGNN 122200Z AUTO 07002KT 1 1/4SM 13/12 A3003 RMK T01300120 IEM_DS3505
ZGNN,2002-02-12 23:00,ZGNN 122300Z AUTO 10002KT 1 1/4SM 13/12 A3006 RMK T01300120 IEM_DS3505
ZGNN,2002-02-13 00:00,ZGNN 130000Z AUTO 00000KT 1 1/4SM 13/13 A3009 RMK 60003 SLP192 T01310127 52011 IEM_DS3505
ZGNN,2002-02-13 01:00,ZGNN 130100Z AUTO 07004KT 1/2SM 13/12 A3009 RMK T01300120 IEM_DS3505
ZGNN,2002-02-13 02:00,ZGNN 130200Z AUTO 07004KT 1SM 13/13 A3009 RMK T01300130 IEM_DS3505
ZGNN,2002-02-13 03:00,ZGNN 130300Z AUTO 00000KT 1 1/4SM 14/14 A3012 RMK SLP204 T01390135 52012 IEM_DS3505
ZGNN,2002-02-13 04:00,ZGNN 130400Z AUTO 13004KT 1SM 15/14 A3009 RMK T01500140 IEM_DS3505
ZGNN,2002-02-13 05:00,ZGNN 130500Z AUTO 16006KT 1 1/2SM 17/15 A3006 RMK T01700150 IEM_DS3505
ZGNN,2002-02-13 06:00,ZGNN 130600Z AUTO 14002KT 2SM 17/16 A3003 RMK 60000 SLP173 T01670160 57030 IEM_DS3505
ZGNN,2002-02-13 07:00,ZGNN 130700Z AUTO 14010KT 3SM 19/16 A3000 RMK T01900160 IEM_DS3505
ZGNN,2002-02-13 08:00,ZGNN 130800Z AUTO 14010KT 5SM 19/16 A2997 RMK T01900160 IEM_DS3505
ZGNN,2002-02-13 09:00,ZGNN 130900Z AUTO 14006KT 6SM 20/17 A2994 RMK SLP150 T01980172 57022 IEM_DS3505
ZGNN,2002-02-13 11:00,ZGNN 131100Z AUTO 16006KT 5SM 18/16 A2997 RMK T01800160 IEM_DS3505
ZGNN,2002-02-13 12:00,ZGNN 131200Z AUTO 00000KT 6SM 18/17 A3000 RMK SLP164 T01850169 52014 IEM_DS3505
ZGNN,2002-02-13 13:00,ZGNN 131300Z AUTO 4SM 18/16 A3000 RMK T01800160 IEM_DS3505
ZGNN,2002-02-13 14:00,ZGNN 131400Z AUTO 00000KT 4SM 18/16 A3003 RMK T01800160 IEM_DS3505
ZGNN,2002-02-13 15:00,ZGNN 131500Z AUTO 29002KT 7SM 18/17 A3003 RMK SLP180 T01800167 52016 IEM_DS3505
ZGNN,2002-02-13 16:00,ZGNN 131600Z AUTO 36002KT 2 1/2SM 17/16 A3003 RMK T01700160 IEM_DS3505
ZGNN,2002-02-13 17:00,ZGNN 131700Z AUTO 14004KT 4SM 18/16 A3003 RMK T01800160 IEM_DS3505
ZGNN,2002-02-13 18:00,ZGNN 131800Z AUTO 00000KT 7SM 18/16 A3003 RMK SLP177 T01750165 57003 IEM_DS3505
ZGNN,2002-02-13 19:00,ZGNN 131900Z AUTO 4SM 18/16 A3003 RMK T01800160 IEM_DS3505
ZGNN,2002-02-13 20:00,ZGNN 132000Z AUTO 13006KT 3SM 18/16 A3003 RMK T01800160 IEM_DS3505
ZGNN,2002-02-13 21:00,ZGNN 132100Z AUTO 00000KT 7SM 18/17 A3003 RMK 70000 SLP177 T01810169 52001 IEM_DS3505
ZGNN,2002-02-13 22:00,ZGNN 132200Z AUTO 10002KT 1 1/4SM 17/16 A3006 RMK T01700160 IEM_DS3505
ZGNN,2002-02-13 23:00,ZGNN 132300Z AUTO 12002KT 1SM 17/16 A3009 RMK T01700160 IEM_DS3505
ZGNN,2002-02-14 00:00,ZGNN 140000Z AUTO 00000KT 2SM 18/17 A3009 RMK 60002 SLP200 T01760173 52022 IEM_DS3505
ZGNN,2002-02-14 01:00,ZGNN 140100Z AUTO 12002KT 1 1/2SM 18/17 A3012 RMK T01800170 IEM_DS3505
ZGNN,2002-02-14 02:00,ZGNN 140200Z AUTO 1 1/4SM 18/17 A3015 RMK T01800170 IEM_DS3505
ZGNN,2002-02-14 03:00,ZGNN 140300Z AUTO 09002KT 1 1/4SM 18/18 A3018 RMK SLP225 T01810178 52025 IEM_DS3505
ZGNN,2002-02-14 04:00,ZGNN 140400Z AUTO 12004KT 2SM 19/17 A3018 RMK T01900170 IEM_DS3505
ZGNN,2002-02-14 05:00,ZGNN 140500Z AUTO 2 1/2SM 19/17 A3015 RMK T01900170 IEM_DS3505
ZGNN,2002-02-14 06:00,ZGNN 140600Z AUTO 00000KT 2SM 19/18 A3012 RMK 60004 SLP205 T01900182 57020 IEM_DS3505
ZGNN,2002-02-14 07:00,ZGNN 140700Z AUTO 14006KT 5SM 20/17 A3009 RMK T02000170 IEM_DS3505
ZGNN,2002-02-14 08:00,ZGNN 140800Z AUTO 14006KT 7SM 20/17 A3009 RMK T02000170 IEM_DS3505
ZGNN,2002-02-14 09:00,ZGNN 140900Z AUTO 16002KT 12SM 21/18 A3009 RMK SLP198 T02110177 57006 IEM_DS3505
ZGNN,2002-02-14 10:00,ZGNN 141000Z AUTO 14004KT 7SM 21/17 A3009 RMK T02100170 IEM_DS3505
ZGNN,2002-02-14 11:00,ZGNN 141100Z AUTO 13002KT 7SM 20/17 A3012 RMK T02000170 IEM_DS3505
ZGNN,2002-02-14 12:00,ZGNN 141200Z AUTO 00000KT 12SM 20/18 A3012 RMK 60003 SLP207 T01970181 52009 IEM_DS3505
ZGNN,2002-02-14 13:00,ZGNN 141300Z AUTO 01002KT 7SM 19/17 A3015 RMK T01900170 IEM_DS3505
ZGNN,2002-02-14 14:00,ZGNN 141400Z AUTO 06002KT 7SM 19/17 A3015 RMK T01900170 IEM_DS3505
ZGNN,2002-02-14 15:00,ZGNN 141500Z AUTO 00000KT 9SM 18/18 A3018 RMK SLP221 T01820175 52013 IEM_DS3505
ZGNN,2002-02-14 16:00,ZGNN 141600Z AUTO 02002KT 2SM 18/17 A3018 RMK T01800170 IEM_DS3505
ZGNN,2002-02-14 17:00,ZGNN 141700Z AUTO 03002KT 2 1/2SM 17/16 A3015 RMK T01700160 IEM_DS3505
ZGNN,2002-02-14 18:00,ZGNN 141800Z AUTO 00000KT 6SM 18/17 A3015 RMK SLP217 T01750170 57004 IEM_DS3505
ZGNN,2002-02-14 19:00,ZGNN 141900Z AUTO 00000KT 1 1/2SM 17/16 A3015 RMK T01700160 IEM_DS3505
ZGNN,2002-02-14 20:00,ZGNN 142000Z AUTO 04002KT 1 1/4SM 17/16 A3015 RMK T01700160 IEM_DS3505
ZGNN,2002-02-14 21:00,ZGNN 142100Z AUTO 00000KT 6SM 17/17 A3015 RMK 70007 SLP211 T01710169 57005 IEM_DS3505
ZGNN,2002-02-14 22:00,ZGNN 142200Z AUTO 00000KT 2 1/2SM 18/16 A3015 RMK T01800160 IEM_DS3505
ZGNN,2002-02-14 23:00,ZGNN 142300Z AUTO 09002KT 2 1/2SM 17/17 A3015 RMK T01700170 IEM_DS3505
ZGNN,2002-02-15 00:00,ZGNN 150000Z AUTO 00000KT 9SM 18/16 A3018 RMK 70005 SLP230 T01790161 52018 IEM_DS3505
ZGNN,2002-02-15 01:00,ZGNN 150100Z AUTO 00000KT 5SM 18/16 A3021 RMK T01800160 IEM_DS3505
ZGNN,2002-02-15 02:00,ZGNN 150200Z AUTO 13004KT 5SM 18/16 A3024 RMK T01800160 IEM_DS3505
ZGNN,2002-02-15 03:00,ZGNN 150300Z AUTO 09004KT 7SM 19/16 A3024 RMK SLP246 T01900156 52016 IEM_DS3505
ZGNN,2002-02-15 04:00,ZGNN 150400Z AUTO 11006KT 4SM 19/16 A3024 RMK T01900160 IEM_DS3505
ZGNN,2002-02-15 05:00,ZGNN 150500Z AUTO 07006KT 4SM 19/15 A3021 RMK T01900150 IEM_DS3505
ZGNN,2002-02-15 06:00,ZGNN 150600Z AUTO 09006KT 9SM 20/16 A3018 RMK SLP220 T02020162 57025 IEM_DS3505
ZGNN,2002-02-15 07:00,ZGNN 150700Z AUTO 11006KT 7SM 22/16 A3012 RMK T02200160 IEM_DS3505
ZGNN,2002-02-15 08:00,ZGNN 150800Z AUTO 08004KT 7SM 22/16 A3012 RMK T02200160 IEM_DS3505
ZGNN,2002-02-15 09:00,ZGNN 150900Z AUTO 14004KT 9SM 22/16 A3009 RMK SLP197 T02230161 57023 IEM_DS3505
ZGNN,2002-02-15 10:00,ZGNN 151000Z AUTO 06004KT 6SM 22/16 A3009 RMK T02200160 IEM_DS3505
ZGNN,2002-02-15 11:00,ZGNN 151100Z AUTO 03008KT 6SM 19/16 A3012 RMK T01900160 IEM_DS3505
ZGNN,2002-02-15 12:00,ZGNN 151200Z AUTO 07002KT 7SM 18/16 A3012 RMK SLP205 T01820162 52007 IEM_DS3505
ZGNN,2002-02-15 13:00,ZGNN 151300Z AUTO 06004KT 5SM 17/15 A3012 RMK T01700150 IEM_DS3505
ZGNN,2002-02-15 14:00,ZGNN 151400Z AUTO 09006KT 5SM 17/14 A3015 RMK T01700140 IEM_DS3505
ZGNN,2002-02-15 15:00,ZGNN 151500Z AUTO 09004KT 7SM 16/14 A3015 RMK SLP212 T01640143 52007 IEM_DS3505
ZGNN,2002-02-15 16:00,ZGNN 151600Z AUTO 03004KT 4SM 15/14 A3015 RMK T01500140 IEM_DS3505
ZGNN,2002-02-15 17:00,ZGNN 151700Z AUTO 03004KT 4SM 16/14 A3012 RMK T01600140 IEM_DS3505
ZGNN,2002-02-15 18:00,ZGNN 151800Z AUTO 00000KT 9SM 15/14 A3012 RMK SLP209 T01520141 57003 IEM_DS3505
ZGNN,2002-02-15 21:00,ZGNN 152100Z AUTO 07004KT 7SM 16/15 A3012 RMK SLP202 T01560146 57006 IEM_DS3505
ZGNN,2002-02-15 22:00,ZGNN 152200Z AUTO 36002KT 3SM 15/14 A3012 RMK T01500140 IEM_DS3505
ZGNN,2002-02-15 23:00,ZGNN 152300Z AUTO 00000KT 4SM 16/14 A3012 RMK T01600140 IEM_DS3505
ZGNN,2002-02-16 00:00,ZGNN 160000Z AUTO 04002KT 6SM 16/15 A3015 RMK 60003 SLP217 T01600150 52014 IEM_DS3505
ZGNN,2002-02-16 01:00,ZGNN 160100Z AUTO 08004KT 2 1/2SM 16/15 A3015 RMK T01600150 IEM_DS3505
ZGNN,2002-02-16 02:00,ZGNN 160200Z AUTO 4SM 17/15 A3018 RMK T01700150 IEM_DS3505
ZGNN,2002-02-16 03:00,ZGNN 160300Z AUTO 14006KT 4SM 18/16 A3018 RMK SLP223 T01820160 52006 IEM_DS3505
ZGNN,2002-02-16 04:00,ZGNN 160400Z AUTO 15008KT 7SM 20/15 A3015 RMK T02000150 IEM_DS3505
ZGNN,2002-02-16 05:00,ZGNN 160500Z AUTO 16006KT 7SM 21/15 A3012 RMK T02100150 IEM_DS3505
ZGNN,2002-02-16 06:00,ZGNN 160600Z AUTO 14004KT 9SM 21/15 A3009 RMK 60000 SLP192 T02140154 57030 IEM_DS3505
ZGNN,2002-02-16 07:00,ZGNN 160700Z AUTO 14006KT 7SM 21/15 A3006 RMK T02100150 IEM_DS3505
ZGNN,2002-02-16 08:00,ZGNN 160800Z AUTO 16008KT 7SM 21/15 A3006 RMK T02100150 IEM_DS3505
ZGNN,2002-02-16 09:00,ZGNN 160900Z AUTO 16006KT 7SM 20/15 A3006 RMK T02000150 IEM_DS3505
ZGNN,2002-02-16 10:00,ZGNN 161000Z AUTO 15006KT 7SM 20/15 A3006 RMK T02000150 IEM_DS3505
ZGNN,2002-02-16 11:00,ZGNN 161100Z AUTO 13004KT 7SM 19/15 A3006 RMK T01900150 IEM_DS3505
ZGNN,2002-02-16 12:00,ZGNN 161200Z AUTO 00000KT 9SM 19/17 A3009 RMK SLP193 T01930168 52011 IEM_DS3505
ZGNN,2002-02-16 13:00,ZGNN 161300Z AUTO 14004KT 7SM 19/15 A3009 RMK T01900150 IEM_DS3505
ZGNN,2002-02-16 14:00,ZGNN 161400Z AUTO 16002KT 7SM 19/16 A3012 RMK T01900160 IEM_DS3505
ZGNN,2002-02-16 15:00,ZGNN 161500Z AUTO 00000KT 9SM 19/17 A3012 RMK SLP204 T01860166 52012 IEM_DS3505
ZGNN,2002-02-16 16:00,ZGNN 161600Z AUTO 05002KT 6SM 18/16 A3012 RMK T01800160 IEM_DS3505
ZGNN,2002-02-16 17:00,ZGNN 161700Z AUTO 02004KT 6SM 18/16 A3012 RMK T01800160 IEM_DS3505
ZGNN,2002-02-16 18:00,ZGNN 161800Z AUTO 00000KT 7SM 18/16 A3012 RMK SLP204 T01820165 54000 IEM_DS3505
ZGNN,2002-02-16 19:00,ZGNN 161900Z AUTO 05002KT 7SM 18/16 A3012 RMK T01800160 IEM_DS3505
ZGNN,2002-02-16 20:00,ZGNN 162000Z AUTO 02002KT 7SM 18/16 A3012 RMK T01800160 IEM_DS3505
ZGNN,2002-02-16 21:00,ZGNN 162100Z AUTO 00000KT 7SM 18/17 A3012 RMK 70000 SLP204 T01780168 54000 IEM_DS3505
ZGNN,2002-02-16 22:00,ZGNN 162200Z AUTO 03002KT 6SM 17/16 A3012 RMK T01700160 IEM_DS3505
ZGNN,2002-02-16 23:00,ZGNN 162300Z AUTO 6SM 18/16 A3015 RMK T01800160 IEM_DS3505
ZGNN,2002-02-17 00:00,ZGNN 170000Z AUTO 00000KT 4SM 17/16 A3018 RMK 70000 SLP221 T01720165 52016 IEM_DS3505
ZGNN,2002-02-17 01:00,ZGNN 170100Z AUTO 09002KT 6SM 18/16 A3021 RMK T01800160 IEM_DS3505
ZGNN,2002-02-17 02:00,ZGNN 170200Z AUTO 12004KT 6SM 19/15 A3021 RMK T01900150 IEM_DS3505
ZGNN,2002-02-17 04:00,ZGNN 170400Z AUTO 7SM 20/16 A3021 RMK T02000160 IEM_DS3505
ZGNN,2002-02-17 05:00,ZGNN 170500Z AUTO 7SM 21/16 A3015 RMK T02100160 IEM_DS3505
ZGNN,2002-02-17 06:00,ZGNN 170600Z AUTO 11004KT 12SM 22/16 A3012 RMK SLP206 T02200161 57027 IEM_DS3505
ZGNN,2002-02-17 07:00,ZGNN 170700Z AUTO 7SM 22/16 A3009 RMK T02200160 IEM_DS3505
ZGNN,2002-02-17 09:00,ZGNN 170900Z AUTO 25004KT 12SM 23/16 RMK SLP184 T02340161 57021 IEM_DS3505
ZGNN,2002-02-17 10:00,ZGNN 171000Z AUTO 7SM 23/15 A3006 RMK T02300150 IEM_DS3505
ZGNN,2002-02-17 11:00,ZGNN 171100Z AUTO 00000KT 7SM 22/17 A3009 RMK T02200170 IEM_DS3505
ZGNN,2002-02-17 12:00,ZGNN 171200Z AUTO 00000KT 12SM 21/18 A3009 RMK SLP196 T02060177 52011 IEM_DS3505
ZGNN,2002-02-17 13:00,ZGNN 171300Z AUTO 6SM 19/17 A3012 RMK T01900170 IEM_DS3505
ZGNN,2002-02-17 14:00,ZGNN 171400Z AUTO 04002KT 6SM 19/16 A3012 RMK T01900160 IEM_DS3505
ZGNN,2002-02-17 15:00,ZGNN 171500Z AUTO 00000KT 11SM 19/18 A3012 RMK SLP206 T01900179 52010 IEM_DS3505
ZGNN,2002-02-17 16:00,ZGNN 171600Z AUTO 02002KT 6SM 19/17 A3012 RMK T01900170 IEM_DS3505
ZGNN,2002-02-17 17:00,ZGNN 171700Z AUTO 03002KT 6SM 19/16 A3012 RMK T01900160 IEM_DS3505
ZGNN,2002-02-17 18:00,ZGNN 171800Z AUTO 00000KT 10SM 18/17 A3012 RMK SLP202 T01820169 57004 IEM_DS3505
ZGNN,2002-02-17 19:00,ZGNN 171900Z AUTO 00000KT 5SM 17/15 A3012 RMK T01700150 IEM_DS3505
ZGNN,2002-02-17 20:00,ZGNN 172000Z AUTO 00000KT 5SM 16/15 A3009 RMK T01600150 IEM_DS3505
ZGNN,2002-02-17 21:00,ZGNN 172100Z AUTO 00000KT 9SM 17/16 A3009 RMK SLP200 T01680160 57002 IEM_DS3505
ZGNN,2002-02-17 22:00,ZGNN 172200Z AUTO 00000KT 5SM 17/15 A3012 RMK T01700150 IEM_DS3505
ZGNN,2002-02-18 00:00,ZGNN 180000Z AUTO 27004KT 6SM 17/16 A3015 RMK SLP219 T01690164 52018 IEM_DS3505
ZGNN,2002-02-18 01:00,ZGNN 180100Z AUTO 00000KT 6SM 18/16 A3018 RMK T01800160 IEM_DS3505
ZGNN,2002-02-18 02:00,ZGNN 180200Z AUTO 05004KT 6SM 19/16 A3021 RMK T01900160 IEM_DS3505
ZGNN,2002-02-18 03:00,ZGNN 180300Z AUTO 14002KT 7SM 20/17 A3021 RMK SLP232 T02020166 52014 IEM_DS3505
ZGNN,2002-02-18 04:00,ZGNN 180400Z AUTO 6SM 23/15 A3018 RMK T02300150 IEM_DS3505
ZGNN,2002-02-18 05:00,ZGNN 180500Z AUTO 7SM 24/15 A3015 RMK T02400150 IEM_DS3505
ZGNN,2002-02-18 06:00,ZGNN 180600Z AUTO 09004KT 12SM 25/15 A3012 RMK SLP203 T02480149 57028 IEM_DS3505
ZGNN,2002-02-18 07:00,ZGNN 180700Z AUTO 12008KT 7SM 26/14 A3009 RMK T02600140 IEM_DS3505
ZGNN,2002-02-18 08:00,ZGNN 180800Z AUTO 14008KT 7SM 26/14 A3009 RMK T02600140 IEM_DS3505
ZGNN,2002-02-18 09:00,ZGNN 180900Z AUTO 18008KT 16SM 26/13 A3006 RMK SLP187 T02610130 57016 IEM_DS3505
ZGNN,2002-02-18 10:00,ZGNN 181000Z AUTO 14010KT 6SM 25/11 A3009 RMK T02500110 IEM_DS3505
ZGNN,2002-02-18 11:00,ZGNN 181100Z AUTO 13006KT 6SM 23/12 A3009 RMK T02300120 IEM_DS3505
ZGNN,2002-02-18 12:00,ZGNN 181200Z AUTO 20002KT 16SM 22/14 A3012 RMK SLP207 T02180136 52019 IEM_DS3505
ZGNN,2002-02-18 13:00,ZGNN 181300Z AUTO 6SM 21/13 A3015 RMK T02100130 IEM_DS3505
ZGNN,2002-02-18 14:00,ZGNN 181400Z AUTO 6SM 20/13 A3015 RMK T02000130 IEM_DS3505
ZGNN,2002-02-18 15:00,ZGNN 181500Z AUTO 00000KT 14SM 20/14 A3018 RMK SLP223 T01960145 52016 IEM_DS3505
ZGNN,2002-02-18 16:00,ZGNN 181600Z AUTO 12004KT 6SM 19/13 A3018 RMK T01900130 IEM_DS3505
ZGNN,2002-02-18 17:00,ZGNN 181700Z AUTO 12004KT 6SM 18/14 A3018 RMK T01800140 IEM_DS3505
ZGNN,2002-02-18 18:00,ZGNN 181800Z AUTO 14004KT 11SM 18/15 A3018 RMK SLP224 T01820151 52002 IEM_DS3505
ZGNN,2002-02-18 19:00,ZGNN 181900Z AUTO 15006KT 6SM 18/15 A3018 RMK T01800150 IEM_DS3505
ZGNN,2002-02-18 20:00,ZGNN 182000Z AUTO 17006KT 6SM 18/15 A3018 RMK T01800150 IEM_DS3505
ZGNN,2002-02-18 21:00,ZGNN 182100Z AUTO 00000KT 11SM 18/16 A3018 RMK SLP221 T01780161 57003 IEM_DS3505
ZGNN,2002-02-18 22:00,ZGNN 182200Z AUTO 08004KT 4SM 18/16 A3018 RMK T01800160 IEM_DS3505
ZGNN,2002-02-18 23:00,ZGNN 182300Z AUTO 11004KT 2 1/2SM 18/16 A3018 RMK T01800160 IEM_DS3505
ZGNN,2002-02-19 00:00,ZGNN 190000Z AUTO 00000KT 4SM 18/16 A3021 RMK SLP236 T01810161 52014 IEM_DS3505
ZGNN,2002-02-19 01:00,ZGNN 190100Z AUTO 10004KT 4SM 18/15 A3024 RMK T01800150 IEM_DS3505
ZGNN,2002-02-19 02:00,ZGNN 190200Z AUTO 10006KT 4SM 18/15 A3027 RMK T01800150 IEM_DS3505
ZGNN,2002-02-19 03:00,ZGNN 190300Z AUTO 14006KT 4SM 19/16 RMK SLP254 T01940164 52017 IEM_DS3505
ZGNN,2002-02-19 04:00,ZGNN 190400Z AUTO 12008KT 7SM 20/16 A3024 RMK T02000160 IEM_DS3505
ZGNN,2002-02-19 05:00,ZGNN 190500Z AUTO 10010KT 7SM 21/16 A3024 RMK T02100160 IEM_DS3505
ZGNN,2002-02-19 06:00,ZGNN 190600Z AUTO 14006KT 9SM 22/16 A3021 RMK SLP234 T02200164 57019 IEM_DS3505
ZGNN,2002-02-19 07:00,ZGNN 190700Z AUTO 11008KT 6SM 22/15 A3018 RMK T02200150 IEM_DS3505
ZGNN,2002-02-19 08:00,ZGNN 190800Z AUTO 11006KT 6SM 23/15 A3018 RMK T02300150 IEM_DS3505
ZGNN,2002-02-19 09:00,ZGNN 190900Z AUTO 14006KT 9SM 22/16 A3015 RMK SLP216 T02250161 57018 IEM_DS3505
ZGNN,2002-02-19 10:00,ZGNN 191000Z AUTO 10010KT 6SM 22/15 A3015 RMK T02200150 IEM_DS3505
ZGNN,2002-02-19 11:00,ZGNN 191100Z AUTO 09004KT 6SM 21/16 A3018 RMK T02100160 IEM_DS3505
ZGNN,2002-02-19 12:00,ZGNN 191200Z AUTO 00000KT 8SM 21/16 A3018 RMK SLP230 T02070163 52014 IEM_DS3505
ZGNN,2002-02-19 13:00,ZGNN 191300Z AUTO 6SM 20/16 A3021 RMK T02000160 IEM_DS3505
ZGNN,2002-02-19 14:00,ZGNN 191400Z AUTO 09002KT 6SM 20/16 A3024 RMK T02000160 IEM_DS3505
ZGNN,2002-02-19 15:00,ZGNN 191500Z AUTO 00000KT 7SM 18/16 A3024 RMK SLP244 T01830161 52013 IEM_DS3505
ZGNN,2002-02-19 16:00,ZGNN 191600Z AUTO 05002KT 6SM 18/15 A3024 RMK T01800150 IEM_DS3505
ZGNN,2002-02-19 17:00,ZGNN 191700Z AUTO 11004KT 6SM 17/15 A3024 RMK T01700150 IEM_DS3505
ZGNN,2002-02-19 18:00,ZGNN 191800Z AUTO 09004KT 7SM 18/16 A3021 RMK SLP237 T01760161 57006 IEM_DS3505
ZGNN,2002-02-19 19:00,ZGNN 191900Z AUTO 14004KT 7SM 18/15 A3021 RMK T01800150 IEM_DS3505
ZGNN,2002-02-19 20:00,ZGNN 192000Z AUTO 18004KT 4SM 17/15 A3021 RMK T01700150 IEM_DS3505
ZGNN,2002-02-19 21:00,ZGNN 192100Z AUTO 14004KT 6SM 18/16 A3021 RMK SLP227 T01800160 57010 IEM_DS3505
ZGNN,2002-02-19 22:00,ZGNN 192200Z AUTO 14004KT 5SM 17/15 A3021 RMK T01700150 IEM_DS3505
ZGNN,2002-02-19 23:00,ZGNN 192300Z AUTO 14006KT 5SM 17/15 A3021 RMK T01700150 IEM_DS3505
ZGNN,2002-02-20 00:00,ZGNN 200000Z AUTO 14004KT 5SM 18/16 A3024 RMK SLP249 T01780158 52021 IEM_DS3505
ZGNN,2002-02-20 01:00,ZGNN 200100Z AUTO 14006KT 2 1/2SM 17/15 A3027 RMK T01700150 IEM_DS3505
ZGNN,2002-02-20 02:00,ZGNN 200200Z AUTO 3SM 18/15 A3030 RMK T01800150 IEM_DS3505
ZGNN,2002-02-20 03:00,ZGNN 200300Z AUTO 22004KT 2 1/2SM 18/16 A3030 RMK SLP263 T01840164 52014 IEM_DS3505
ZGNN,2002-02-20 04:00,ZGNN 200400Z AUTO 2 1/2SM 18/15 A3027 RMK T01800150 IEM_DS3505
ZGNN,2002-02-20 05:00,ZGNN 200500Z AUTO 13006KT 2 1/2SM 19/16 A3024 RMK T01900160 IEM_DS3505
ZGNN,2002-02-20 06:00,ZGNN 200600Z AUTO 18002KT 4SM 20/16 A3021 RMK SLP229 T02000164 57034 IEM_DS3505
ZGNN,2002-02-20 07:00,ZGNN 200700Z AUTO 5SM 20/16 A3015 RMK T02000160 IEM_DS3505
ZGNN,2002-02-20 08:00,ZGNN 200800Z AUTO 5SM 20/16 A3012 RMK T02000160 IEM_DS3505
ZGNN,2002-02-20 09:00,ZGNN 200900Z AUTO 18004KT 4SM 22/17 A3009 RMK SLP199 T02170167 57029 IEM_DS3505
ZGNN,2002-02-20 10:00,ZGNN 201000Z AUTO 16006KT 7SM 21/16 A3012 RMK T02100160 IEM_DS3505
ZGNN,2002-02-20 11:00,ZGNN 201100Z AUTO 14004KT 7SM 21/16 A3012 RMK T02100160 IEM_DS3505
ZGNN,2002-02-20 12:00,ZGNN 201200Z AUTO 00000KT 5SM 20/17 A3015 RMK SLP213 T02000171 52014 IEM_DS3505
ZGNN,2002-02-20 13:00,ZGNN 201300Z AUTO 00000KT 7SM 20/16 A3015 RMK T02000160 IEM_DS3505
ZGNN,2002-02-20 14:00,ZGNN 201400Z AUTO 7SM 19/16 A3018 RMK T01900160 IEM_DS3505
ZGNN,2002-02-20 15:00,ZGNN 201500Z AUTO 16004KT 5SM 19/17 A3018 RMK SLP226 T01920166 52012 IEM_DS3505
ZGNN,2002-02-20 16:00,ZGNN 201600Z AUTO 7SM 19/15 A3018 RMK T01900150 IEM_DS3505
ZGNN,2002-02-20 17:00,ZGNN 201700Z AUTO 14006KT 7SM 19/15 A3018 RMK T01900150 IEM_DS3505
ZGNN,2002-02-20 18:00,ZGNN 201800Z AUTO 18002KT 5SM 19/16 A3015 RMK SLP215 T01870157 57010 IEM_DS3505
ZGNN,2002-02-20 19:00,ZGNN 201900Z AUTO 13006KT 7SM 18/15 A3015 RMK T01800150 IEM_DS3505
ZGNN,2002-02-20 20:00,ZGNN 202000Z AUTO 13006KT 7SM 18/15 A3012 RMK T01800150 IEM_DS3505
ZGNN,2002-02-20 21:00,ZGNN 202100Z AUTO 14004KT 6SM 18/16 A3015 RMK SLP210 T01810156 57005 IEM_DS3505
ZGNN,2002-02-20 22:00,ZGNN 202200Z AUTO 13004KT 7SM 18/15 A3015 RMK T01800150 IEM_DS3505
ZGNN,2002-02-20 23:00,ZGNN 202300Z AUTO 14004KT 7SM 18/15 A3015 RMK T01800150 IEM_DS3505
ZGNN,2002-02-21 00:00,ZGNN 210000Z AUTO 14004KT 4SM 18/16 A3018 RMK SLP227 T01790157 52016 IEM_DS3505
ZGNN,2002-02-21 01:00,ZGNN 210100Z AUTO 13006KT 5SM 18/15 A3018 RMK T01800150 IEM_DS3505
ZGNN,2002-02-21 02:00,ZGNN 210200Z AUTO 14006KT 4SM 18/15 A3021 RMK T01800150 IEM_DS3505
ZGNN,2002-02-21 03:00,ZGNN 210300Z AUTO 16006KT 6SM 19/16 A3021 RMK SLP229 T01860163 52002 IEM_DS3505
ZGNN,2002-02-21 04:00,ZGNN 210400Z AUTO 16010KT 7SM 18/16 A3018 RMK T01800160 IEM_DS3505
ZGNN,2002-02-21 05:00,ZGNN 210500Z AUTO 15010KT 7SM 19/16 A3015 RMK T01900160 IEM_DS3505
ZGNN,2002-02-21 06:00,ZGNN 210600Z 15005MPS 9999 -RA SCT013 OVC040 20/16 Q1020 NOSIG
ZGNN,2002-02-21 07:00,ZGNN 210700Z 16005MPS 9999 -RA SCT013 OVC036 19/16 Q1019 NOSIG
ZGNN,2002-02-21 08:00,ZGNN 210800Z 16006MPS 9999 SCT016 OVC040 20/16 Q1018 NOSIG
ZGNN,2002-02-21 09:00,ZGNN 210900Z 15006MPS CAVOK 21/16 Q1018 NOSIG
ZGNN,2002-02-21 10:00,ZGNN 211000Z 14003MPS 9999 OVC046 21/16 Q1018 NOSIG
ZGNN,2002-02-21 11:00,ZGNN 211100Z 16003MPS 9999 OVC040 20/16 Q1019 NOSIG
ZGNN,2002-02-21 12:00,ZGNN 211200Z VRB01MPS 9999 OVC040 20/17 Q1019 NOSIG
ZGNN,2002-02-21 13:00,ZGNN 211300Z AUTO 12004KT 7SM 20/17 A3012 RMK T02000170 IEM_DS3505
ZGNN,2002-02-21 14:00,ZGNN 211400Z AUTO 7SM 19/17 A3015 RMK T01900170 IEM_DS3505
ZGNN,2002-02-21 15:00,ZGNN 211500Z AUTO 00000KT 9SM 20/18 A3015 RMK SLP215 T01960177 52012 IEM_DS3505
ZGNN,2002-02-21 16:00,ZGNN 211600Z AUTO 14006KT 7SM 20/17 A3015 RMK T02000170 IEM_DS3505
ZGNN,2002-02-21 17:00,ZGNN 211700Z AUTO 14006KT 7SM 19/17 A3015 RMK T01900170 IEM_DS3505
ZGNN,2002-02-21 18:00,ZGNN 211800Z AUTO 18002KT 9SM 19/18 A3012 RMK SLP209 T01940175 57006 IEM_DS3505
ZGNN,2002-02-21 19:00,ZGNN 211900Z AUTO 7SM 19/17 A3012 RMK T01900170 IEM_DS3505
ZGNN,2002-02-21 20:00,ZGNN 212000Z AUTO 15004KT 7SM 19/17 A3012 RMK T01900170 IEM_DS3505
ZGNN,2002-02-21 21:00,ZGNN 212100Z AUTO 14004KT 9SM 19/17 A3012 RMK 70000 SLP205 T01900174 57004 IEM_DS3505
ZGNN,2002-02-21 22:00,ZGNN 212200Z AUTO 14004KT 7SM 18/17 A3012 RMK T01800170 IEM_DS3505
ZGNN,2002-02-21 23:00,ZGNN 212300Z AUTO 14006KT 7SM 18/17 A3015 RMK T01800170 IEM_DS3505
ZGNN,2002-02-22 00:00,ZGNN 220000Z AUTO 09006KT 3SM 18/17 A3015 RMK 70000 SLP219 T01850174 52014 IEM_DS3505
ZGNN,2002-02-22 01:00,ZGNN 220100Z AUTO 12008KT 4SM 19/16 A3018 RMK T01900160 IEM_DS3505
ZGNN,2002-02-22 02:00,ZGNN 220200Z AUTO 13008KT 4SM 20/17 A3018 RMK T02000170 IEM_DS3505
ZGNN,2002-02-22 03:00,ZGNN 220300Z AUTO 14008KT 7SM 20/18 A3021 RMK SLP232 T02020176 52013 IEM_DS3505
ZGNN,2002-02-22 04:00,ZGNN 220400Z AUTO 13010KT 7SM 22/17 A3015 RMK T02200170 IEM_DS3505
ZGNN,2002-02-22 05:00,ZGNN 220500Z AUTO 14010KT 7SM 22/17 A3012 RMK T02200170 IEM_DS3505
ZGNN,2002-02-22 06:00,ZGNN 220600Z AUTO 18008KT 12SM 23/17 A3009 RMK SLP192 T02260171 57039 IEM_DS3505
ZGNN,2002-02-22 07:00,ZGNN 220700Z AUTO 14010KT 7SM 23/17 A3006 RMK T02300170 IEM_DS3505
ZGNN,2002-02-22 08:00,ZGNN 220800Z AUTO 14012KT 7SM 23/17 A3003 RMK T02300170 IEM_DS3505
ZGNN,2002-02-22 09:00,ZGNN 220900Z AUTO 14008KT 12SM 23/18 A3003 RMK SLP173 T02340180 57019 IEM_DS3505
ZGNN,2002-02-22 10:00,ZGNN 221000Z AUTO 15012KT 7SM 22/17 A3003 RMK T02200170 IEM_DS3505
ZGNN,2002-02-22 11:00,ZGNN 221100Z AUTO 14012KT 7SM 22/17 A3003 RMK T02200170 IEM_DS3505
ZGNN,2002-02-22 12:00,ZGNN 221200Z AUTO 14004KT 11SM 21/18 A3006 RMK SLP181 T02140177 52008 IEM_DS3505
ZGNN,2002-02-22 13:00,ZGNN 221300Z AUTO 14006KT 6SM 20/17 A3009 RMK T02000170 IEM_DS3505
ZGNN,2002-02-22 14:00,ZGNN 221400Z AUTO 14004KT 6SM 20/17 A3009 RMK T02000170 IEM_DS3505
ZGNN,2002-02-22 15:00,ZGNN 221500Z AUTO 00000KT 9SM 20/18 RMK SLP197 T02020180 52016 IEM_DS3505
ZGNN,2002-02-22 17:00,ZGNN 221700Z AUTO 00000KT 7SM 19/17 A3009 RMK T01900170 IEM_DS3505
ZGNN,2002-02-22 18:00,ZGNN 221800Z AUTO 14006KT 9SM 20/18 A3006 RMK SLP187 T01980175 57010 IEM_DS3505
ZGNN,2002-02-22 19:00,ZGNN 221900Z AUTO 15008KT 7SM 19/17 A3006 RMK T01900170 IEM_DS3505
ZGNN,2002-02-22 20:00,ZGNN 222000Z AUTO 7SM 19/17 A3006 RMK T01900170 IEM_DS3505
ZGNN,2002-02-22 21:00,ZGNN 222100Z AUTO 18004KT 9SM 19/18 A3006 RMK SLP183 T01920179 57004 IEM_DS3505
ZGNN,2002-02-22 22:00,ZGNN 222200Z AUTO 7SM 19/17 A3006 RMK T01900170 IEM_DS3505
ZGNN,2002-02-22 23:00,ZGNN 222300Z AUTO 00000KT 7SM 19/17 A3006 RMK T01900170 IEM_DS3505
ZGNN,2002-02-23 00:00,ZGNN 230000Z AUTO 00000KT 6SM 19/18 A3009 RMK SLP195 T01920182 52012 IEM_DS3505
ZGNN,2002-02-23 01:00,ZGNN 230100Z AUTO 18004KT 7SM 20/18 A3009 RMK T02000180 IEM_DS3505
ZGNN,2002-02-23 02:00,ZGNN 230200Z AUTO 19010KT 7SM 22/18 A3009 RMK T02200180 IEM_DS3505
ZGNN,2002-02-23 03:00,ZGNN 230300Z AUTO 20004KT 16SM 23/19 A3012 RMK SLP197 T02290188 52002 IEM_DS3505
ZGNN,2002-02-23 04:00,ZGNN 230400Z AUTO 22006KT 7SM 25/17 A3009 RMK T02500170 IEM_DS3505
ZGNN,2002-02-23 05:00,ZGNN 230500Z AUTO 18006KT 7SM 26/17 A3006 RMK T02600170 IEM_DS3505
ZGNN,2002-02-23 06:00,ZGNN 230600Z AUTO 04006KT 19SM 26/19 A3000 RMK SLP166 T02570189 57030 IEM_DS3505
ZGNN,2002-02-23 07:00,ZGNN 230700Z AUTO 05008KT 7SM 26/18 A2997 RMK T02600180 IEM_DS3505
ZGNN,2002-02-23 08:00,ZGNN 230800Z AUTO 7SM 27/17 A2997 RMK T02700170 IEM_DS3505
ZGNN,2002-02-23 09:00,ZGNN 230900Z AUTO 09006KT 19SM 27/19 A2994 RMK SLP146 T02670187 57019 IEM_DS3505
ZGNN,2002-02-23 10:00,ZGNN 231000Z AUTO 06014KT 7SM 24/18 A2997 RMK T02400180 IEM_DS3505
ZGNN,2002-02-23 12:00,ZGNN 231200Z AUTO 04004KT 17SM 19/16 A3003 RMK SLP174 T01920159 52025 IEM_DS3505
ZGNN,2002-02-23 13:00,ZGNN 231300Z AUTO 04008KT 7SM 19/15 A3006 RMK T01900150 IEM_DS3505
ZGNN,2002-02-23 14:00,ZGNN 231400Z AUTO 06006KT 7SM 19/14 A3009 RMK T01900140 IEM_DS3505
ZGNN,2002-02-23 15:00,ZGNN 231500Z AUTO 04002KT 16SM 19/15 RMK SLP200 T01890154 52027 IEM_DS3505
ZGNN,2002-02-23 16:00,ZGNN 231600Z AUTO 09002KT 7SM 18/15 A3012 RMK T01800150 IEM_DS3505
ZGNN,2002-02-23 17:00,ZGNN 231700Z AUTO 05002KT 7SM 18/15 A3012 RMK T01800150 IEM_DS3505
ZGNN,2002-02-23 18:00,ZGNN 231800Z AUTO 09006KT 16SM 18/14 RMK SLP201 T01820139 52001 IEM_DS3505
ZGNN,2002-02-23 21:00,ZGNN 232100Z AUTO 00000KT 11SM 17/14 A3009 RMK SLP194 T01700135 57007 IEM_DS3505
ZGNN,2002-02-23 22:00,ZGNN 232200Z AUTO 04006KT 7SM 17/13 A3012 RMK T01700130 IEM_DS3505
ZGNN,2002-02-23 23:00,ZGNN 232300Z AUTO 08004KT 7SM 16/13 A3012 RMK T01600130 IEM_DS3505
ZGNN,2002-02-24 00:00,ZGNN 240000Z AUTO 07004KT 12SM 17/13 A3012 RMK SLP210 T01670128 52014 IEM_DS3505
ZGNN,2002-02-24 01:00,ZGNN 240100Z AUTO 06004KT 7SM 17/12 A3015 RMK T01700120 IEM_DS3505
ZGNN,2002-02-24 02:00,ZGNN 240200Z AUTO 06008KT 7SM 17/13 A3018 RMK T01700130 IEM_DS3505
ZGNN,2002-02-24 03:00,ZGNN 240300Z AUTO 14002KT 11SM 18/14 A3018 RMK SLP224 T01780140 52014 IEM_DS3505
ZGNN,2002-02-24 04:00,ZGNN 240400Z AUTO 7SM 18/13 A3015 RMK T01800130 IEM_DS3505
ZGNN,2002-02-24 05:00,ZGNN 240500Z AUTO 07006KT 7SM 19/13 A3012 RMK T01900130 IEM_DS3505
ZGNN,2002-02-24 06:00,ZGNN 240600Z AUTO 09006KT 14SM 20/14 A3006 RMK SLP186 T01950138 57037 IEM_DS3505
ZGNN,2002-02-24 07:00,ZGNN 240700Z AUTO 06008KT 7SM 19/13 A3003 RMK T01900130 IEM_DS3505
ZGNN,2002-02-24 08:00,ZGNN 240800Z AUTO 7SM 20/14 A3000 RMK T02000140 IEM_DS3505
ZGNN,2002-02-24 09:00,ZGNN 240900Z AUTO 09006KT 8SM 19/14 A3000 RMK SLP164 T01890143 57022 IEM_DS3505
ZGNN,2002-02-24 10:00,ZGNN 241000Z AUTO 09006KT 7SM 19/14 A3000 RMK T01900140 IEM_DS3505
ZGNN,2002-02-24 11:00,ZGNN 241100Z AUTO 08004KT 5SM 18/14 A3000 RMK T01800140 IEM_DS3505
ZGNN,2002-02-24 12:00,ZGNN 241200Z AUTO 04002KT 7SM 18/15 A3000 RMK SLP167 T01750146 52002 IEM_DS3505
ZGNN,2002-02-24 13:00,ZGNN 241300Z AUTO 06004KT 4SM 16/14 A3003 RMK T01600140 IEM_DS3505
ZGNN,2002-02-24 14:00,ZGNN 241400Z AUTO 02004KT 4SM RMK IEM_DS3505
ZGNN,2002-02-24 15:00,ZGNN 241500Z AUTO 09002KT 7SM 18/14 A3003 RMK SLP175 T01780145 52009 IEM_DS3505
ZGNN,2002-02-24 16:00,ZGNN 241600Z AUTO 03002KT 4SM 18/14 A3003 RMK T01800140 IEM_DS3505
ZGNN,2002-02-24 17:00,ZGNN 241700Z AUTO 01004KT 4SM 18/14 A3003 RMK T01800140 IEM_DS3505
ZGNN,2002-02-24 18:00,ZGNN 241800Z AUTO 00000KT 6SM 18/16 A3003 RMK SLP171 T01780156 57004 IEM_DS3505
ZGNN,2002-02-24 19:00,ZGNN 241900Z AUTO 13006KT 7SM 19/16 A3000 RMK T01900160 IEM_DS3505
ZGNN,2002-02-24 20:00,ZGNN 242000Z AUTO 15008KT 7SM 20/16 A3000 RMK T02000160 IEM_DS3505
ZGNN,2002-02-24 21:00,ZGNN 242100Z AUTO 16004KT 6SM 20/17 A3000 RMK SLP164 T01980172 57006 IEM_DS3505
ZGNN,2002-02-24 22:00,ZGNN 242200Z AUTO 13006KT 7SM 19/17 A3000 RMK T01900170 IEM_DS3505
ZGNN,2002-02-24 23:00,ZGNN 242300Z AUTO 14006KT 5SM 19/17 A3003 RMK T01900170 IEM_DS3505
ZGNN,2002-02-25 00:00,ZGNN 250000Z AUTO 16004KT 2 1/2SM 20/18 A3006 RMK SLP182 T01970176 52017 IEM_DS3505
ZGNN,2002-02-25 01:00,ZGNN 250100Z AUTO 13006KT 2SM 20/17 A3006 RMK T02000170 IEM_DS3505
ZGNN,2002-02-25 02:00,ZGNN 250200Z AUTO 14006KT 2 1/2SM 20/17 A3009 RMK T02000170 IEM_DS3505
ZGNN,2002-02-25 03:00,ZGNN 250300Z AUTO 18008KT 4SM 21/18 A3009 RMK SLP195 T02120183 52013 IEM_DS3505
ZGNN,2002-02-25 04:00,ZGNN 250400Z AUTO 14010KT 4SM 21/18 A3009 RMK T02100180 IEM_DS3505
ZGNN,2002-02-25 05:00,ZGNN 250500Z AUTO 14010KT 7SM 22/18 A3006 RMK T02200180 IEM_DS3505
ZGNN,2002-02-25 06:00,ZGNN 250600Z AUTO 18008KT 8SM 23/18 A3000 RMK 60003 SLP166 T02310184 57028 IEM_DS3505
ZGNN,2002-02-25 07:00,ZGNN 250700Z AUTO 14014KT 7SM 24/18 A2997 RMK T02400180 IEM_DS3505
ZGNN,2002-02-25 08:00,ZGNN 250800Z AUTO 14014KT 7SM 23/18 A2994 RMK T02300180 IEM_DS3505
ZGNN,2002-02-25 09:00,ZGNN 250900Z AUTO 14008KT 11SM 23/18 A2994 RMK SLP145 T02290180 57020 IEM_DS3505
ZGNN,2002-02-25 10:00,ZGNN 251000Z AUTO 14014KT 7SM 22/18 A2994 RMK T02200180 IEM_DS3505
ZGNN,2002-02-25 11:00,ZGNN 251100Z AUTO 14012KT 7SM 21/17 A2997 RMK T02100170 IEM_DS3505
ZGNN,2002-02-25 12:00,ZGNN 251200Z AUTO 18004KT 7SM 21/18 A2997 RMK SLP157 T02110182 52011 IEM_DS3505
ZGNN,2002-02-25 13:00,ZGNN 251300Z AUTO 15008KT 6SM 20/18 A3000 RMK T02000180 IEM_DS3505
ZGNN,2002-02-25 14:00,ZGNN 251400Z AUTO 15008KT 6SM 20/18 A3003 RMK T02000180 IEM_DS3505
ZGNN,2002-02-25 15:00,ZGNN 251500Z AUTO 00000KT 7SM 20/18 A3003 RMK SLP177 T01960183 52020 IEM_DS3505
ZGNN,2002-02-25 16:00,ZGNN 251600Z AUTO 14002KT 7SM 19/17 A3003 RMK T01900170 IEM_DS3505
ZGNN,2002-02-25 17:00,ZGNN 251700Z AUTO 14008KT 7SM 20/17 A3003 RMK T02000170 IEM_DS3505
ZGNN,2002-02-25 18:00,ZGNN 251800Z AUTO 14006KT 9SM 20/18 A3003 RMK SLP172 T02030179 57004 IEM_DS3505
ZGNN,2002-02-25 19:00,ZGNN 251900Z AUTO 13006KT 7SM 20/17 A3003 RMK T02000170 IEM_DS3505
ZGNN,2002-02-25 20:00,ZGNN 252000Z AUTO 13006KT 7SM 19/17 A3000 RMK T01900170 IEM_DS3505
ZGNN,2002-02-25 21:00,ZGNN 252100Z AUTO 14004KT 7SM 20/18 A3000 RMK 70003 SLP164 T01980179 57008 IEM_DS3505
ZGNN,2002-02-25 22:00,ZGNN 252200Z AUTO 13004KT 7SM 19/17 A3000 RMK T01900170 IEM_DS3505
ZGNN,2002-02-25 23:00,ZGNN 252300Z AUTO 12004KT 4SM 19/17 A3003 RMK T01900170 IEM_DS3505
ZGNN,2002-02-26 00:00,ZGNN 260000Z AUTO 14004KT 2 1/2SM 20/18 A3003 RMK 60003 SLP177 T01960180 52012 IEM_DS3505
ZGNN,2002-02-26 01:00,ZGNN 260100Z AUTO 14008KT 3SM 20/17 A3006 RMK T02000170 IEM_DS3505
ZGNN,2002-02-26 02:00,ZGNN 260200Z AUTO 12010KT 3SM 20/17 A3006 RMK T02000170 IEM_DS3505
ZGNN,2002-02-26 03:00,ZGNN 260300Z AUTO 14006KT 4SM 21/18 A3009 RMK SLP189 T02090182 52012 IEM_DS3505
ZGNN,2002-02-26 04:00,ZGNN 260400Z AUTO 13006KT 4SM 21/18 A3006 RMK T02100180 IEM_DS3505
ZGNN,2002-02-26 05:00,ZGNN 260500Z AUTO 13008KT 7SM 23/18 A3003 RMK T02300180 IEM_DS3505
ZGNN,2002-02-26 06:00,ZGNN 260600Z AUTO 14006KT 9SM 24/19 A2997 RMK 60003 SLP154 T02420187 57034 IEM_DS3505
ZGNN,2002-02-26 07:00,ZGNN 260700Z AUTO 7SM 25/18 A2994 RMK T02500180 IEM_DS3505
ZGNN,2002-02-26 08:00,ZGNN 260800Z AUTO 14012KT 7SM 25/18 A2991 RMK T02500180 IEM_DS3505
ZGNN,2002-02-26 09:00,ZGNN 260900Z AUTO 16004KT 16SM 24/18 A2991 RMK SLP127 T02450184 57026 IEM_DS3505
ZGNN,2002-02-26 10:00,ZGNN 261000Z AUTO 14014KT 7SM 23/18 A2988 RMK T02300180 IEM_DS3505
ZGNN,2002-02-26 11:00,ZGNN 261100Z AUTO 15012KT 7SM 22/17 A2991 RMK T02200170 IEM_DS3505
ZGNN,2002-02-26 12:00,ZGNN 261200Z AUTO 18004KT 12SM 22/18 A2991 RMK SLP138 T02150177 52010 IEM_DS3505
ZGNN,2002-02-26 13:00,ZGNN 261300Z AUTO 14006KT 6SM 20/17 A2994 RMK T02000170 IEM_DS3505
ZGNN,2002-02-26 14:00,ZGNN 261400Z AUTO 6SM 20/17 A2997 RMK T02000170 IEM_DS3505
ZGNN,2002-02-26 15:00,ZGNN 261500Z AUTO 18002KT 11SM 21/18 A2997 RMK SLP148 T02070175 52010 IEM_DS3505
ZGNN,2002-02-26 16:00,ZGNN 261600Z AUTO 18004KT 7SM 19/17 A2994 RMK T01900170 IEM_DS3505
ZGNN,2002-02-26 17:00,ZGNN 261700Z AUTO 7SM 19/17 A2994 RMK T01900170 IEM_DS3505
ZGNN,2002-02-26 18:00,ZGNN 261800Z AUTO 22002KT 7SM 19/17 RMK SLP139 T01930172 57009 IEM_DS3505
ZGNN,2002-02-26 19:00,ZGNN 261900Z AUTO 7SM 18/16 A2991 RMK T01800160 IEM_DS3505
ZGNN,2002-02-26 20:00,ZGNN 262000Z AUTO 7SM 18/16 A2988 RMK T01800160 IEM_DS3505
ZGNN,2002-02-26 21:00,ZGNN 262100Z AUTO 00000KT 6SM 17/16 A2988 RMK 70003 SLP124 T01720165 57015 IEM_DS3505
ZGNN,2002-02-26 22:00,ZGNN 262200Z AUTO 01002KT 4SM 17/16 A2991 RMK T01700160 IEM_DS3505
ZGNN,2002-02-26 23:00,ZGNN 262300Z AUTO 4SM 17/16 A2991 RMK T01700160 IEM_DS3505
ZGNN,2002-02-27 00:00,ZGNN 270000Z AUTO 00000KT 2SM 17/17 A2994 RMK 70003 SLP146 T01730168 52021 IEM_DS3505
ZGNN,2002-02-27 01:00,ZGNN 270100Z AUTO 2SM 19/18 A2997 RMK T01900180 IEM_DS3505
ZGNN,2002-02-27 02:00,ZGNN 270200Z AUTO 4SM 21/18 A2997 RMK T02100180 IEM_DS3505
ZGNN,2002-02-27 03:00,ZGNN 270300Z AUTO 14002KT 7SM 23/19 A2997 RMK SLP154 T02280186 IEM_DS3505
ZGNN,2002-02-27 04:00,ZGNN 270400Z AUTO 17006KT 7SM 24/17 A2994 RMK T02400170 IEM_DS3505
ZGNN,2002-02-27 05:00,ZGNN 270500Z AUTO 19008KT 7SM 26/17 A2991 RMK T02600170 IEM_DS3505
ZGNN,2002-02-27 06:00,ZGNN 270600Z AUTO 14006KT 16SM 26/18 A2988 RMK SLP116 T02560181 57037 IEM_DS3505
ZGNN,2002-02-27 07:00,ZGNN 270700Z AUTO 13006KT 7SM 25/18 A2983 RMK T02500180 IEM_DS3505
ZGNN,2002-02-27 08:00,ZGNN 270800Z AUTO 17006KT 7SM 26/18 A2983 RMK T02600180 IEM_DS3505
ZGNN,2002-02-27 09:00,ZGNN 270900Z AUTO 14006KT 16SM 26/19 A2980 RMK SLP095 T02600187 57021 IEM_DS3505
ZGNN,2002-02-27 10:00,ZGNN 271000Z AUTO 14010KT 7SM 24/19 A2983 RMK T02400190 IEM_DS3505
ZGNN,2002-02-27 11:00,ZGNN 271100Z AUTO 14010KT 7SM 23/19 A2983 RMK T02300190 IEM_DS3505
ZGNN,2002-02-27 12:00,ZGNN 271200Z AUTO 14006KT 12SM 23/19 A2985 RMK SLP114 T02260192 52018 IEM_DS3505
ZGNN,2002-02-27 13:00,ZGNN 271300Z AUTO 15008KT 7SM 22/19 A2988 RMK T02200190 IEM_DS3505
ZGNN,2002-02-27 14:00,ZGNN 271400Z AUTO 16008KT 7SM 21/18 A2991 RMK T02100180 IEM_DS3505
ZGNN,2002-02-27 15:00,ZGNN 271500Z AUTO 22002KT 11SM 22/19 RMK SLP134 T02160191 52020 IEM_DS3505
ZGNN,2002-02-27 18:00,ZGNN 271800Z AUTO 14004KT 9SM 21/19 RMK SLP133 T02140186 54000 IEM_DS3505
ZGNN,2002-02-27 19:00,ZGNN 271900Z AUTO 7SM 21/18 A2991 RMK T02100180 IEM_DS3505
ZGNN,2002-02-27 20:00,ZGNN 272000Z AUTO 12006KT 7SM 20/18 A2991 RMK T02000180 IEM_DS3505
ZGNN,2002-02-27 21:00,ZGNN 272100Z AUTO 14004KT 7SM 21/19 A2988 RMK SLP128 T02080189 57005 IEM_DS3505
ZGNN,2002-02-27 22:00,ZGNN 272200Z AUTO 15004KT 7SM 20/18 A2991 RMK T02000180 IEM_DS3505
ZGNN,2002-02-27 23:00,ZGNN 272300Z AUTO 15004KT 7SM 20/18 A2991 RMK T02000180 IEM_DS3505
ZGNN,2002-02-28 00:00,ZGNN 280000Z AUTO 00000KT 7SM 21/19 A2994 RMK SLP144 T02080189 52015 IEM_DS3505
ZGNN,2002-02-28 01:00,ZGNN 280100Z AUTO 13006KT 7SM 21/18 A2997 RMK T02100180 IEM_DS3505
ZGNN,2002-02-28 02:00,ZGNN 280200Z AUTO 7SM 22/18 A2997 RMK T02200180 IEM_DS3505
ZGNN,2002-02-28 03:00,ZGNN 280300Z AUTO 14006KT 9SM 22/19 A2997 RMK SLP156 T02240190 52012 IEM_DS3505
ZGNN,2002-02-28 04:00,ZGNN 280400Z AUTO 15010KT 7SM 23/18 A2997 RMK T02300180 IEM_DS3505
ZGNN,2002-02-28 05:00,ZGNN 280500Z AUTO 15010KT 7SM 23/18 A2994 RMK T02300180 IEM_DS3505
ZGNN,2002-02-28 06:00,ZGNN 280600Z AUTO 18006KT 9SM 24/20 A2991 RMK SLP127 T02440195 57028 IEM_DS3505
ZGNN,2002-02-28 07:00,ZGNN 280700Z AUTO 14010KT 7SM 24/19 A2988 RMK T02400190 IEM_DS3505
ZGNN,2002-02-28 08:00,ZGNN 280800Z AUTO 13010KT 7SM 24/18 A2985 RMK T02400180 IEM_DS3505
ZGNN,2002-02-28 09:00,ZGNN 280900Z AUTO 16006KT 12SM 24/19 A2985 RMK SLP112 T02400190 57015 IEM_DS3505
ZGNN,2002-02-28 10:00,ZGNN 281000Z AUTO 13008KT 7SM 23/19 A2985 RMK T02300190 IEM_DS3505
ZGNN,2002-02-28 11:00,ZGNN 281100Z AUTO 15006KT 7SM 23/18 A2988 RMK T02300180 IEM_DS3505
ZGNN,2002-02-28 12:00,ZGNN 281200Z AUTO 14006KT 12SM 23/19 A2991 RMK SLP131 T02260190 52018 IEM_DS3505
ZGNN,2002-02-28 13:00,ZGNN 281300Z AUTO 12004KT 7SM 22/18 A2991 RMK T02200180 IEM_DS3505
ZGNN,2002-02-28 14:00,ZGNN 281400Z AUTO 14004KT 7SM 21/18 A2994 RMK T02100180 IEM_DS3505
ZGNN,2002-02-28 15:00,ZGNN 281500Z AUTO 00000KT 12SM 22/19 A2994 RMK SLP141 T02180193 52010 IEM_DS3505
ZGNN,2002-02-28 16:00,ZGNN 281600Z AUTO 7SM 21/19 A2994 RMK T02100190 IEM_DS3505
ZGNN,2002-02-28 17:00,ZGNN 281700Z AUTO 7SM 21/18 A2994 RMK T02100180 IEM_DS3505
ZGNN,2002-02-28 18:00,ZGNN 281800Z AUTO 18002KT 12SM 21/19 A2994 RMK SLP141 T02130191 52001 IEM_DS3505
ZGNN,2002-02-28 19:00,ZGNN 281900Z AUTO 15004KT 7SM 21/18 A2994 RMK T02100180 IEM_DS3505
ZGNN,2002-02-28 20:00,ZGNN 282000Z AUTO 13004KT 7SM 21/18 A2994 RMK T02100180 IEM_DS3505
ZGNN,2002-02-28 21:00,ZGNN 282100Z AUTO 18002KT 9SM 21/19 A2994 RMK SLP136 T02080186 57005 IEM_DS3505
ZGNN,2002-02-28 22:00,ZGNN 282200Z AUTO 13004KT 4SM 20/18 A2994 RMK T02000180 IEM_DS3505
ZGNN,2002-02-28 23:00,ZGNN 282300Z AUTO 14004KT 4SM 20/18 A2994 RMK T02000180 IEM_DS3505
ZGNN,2002-03-01 00:00,ZGNN 010000Z AUTO 14004KT 6SM 21/18 A2997 RMK SLP156 T02060185 52019 IEM_DS3505
ZGNN,2002-03-01 01:00,ZGNN 010100Z AUTO 11004KT 7SM 20/18 A3000 RMK T02000180 IEM_DS3505
ZGNN,2002-03-01 02:00,ZGNN 010200Z AUTO 13006KT 7SM 21/18 A3000 RMK T02100180 IEM_DS3505
ZGNN,2002-03-01 03:00,ZGNN 010300Z AUTO 14004KT 12SM 22/19 A3003 RMK SLP170 T02220186 52014 IEM_DS3505
ZGNN,2002-03-01 04:00,ZGNN 010400Z AUTO 15008KT 7SM 22/18 A3000 RMK T02200180 IEM_DS3505
ZGNN,2002-03-01 05:00,ZGNN 010500Z AUTO 15010KT 7SM 22/18 A2997 RMK T02200180 IEM_DS3505
ZGNN,2002-03-01 06:00,ZGNN 010600Z AUTO 16008KT 12SM 23/19 A2994 RMK 60003 SLP141 T02330186 57029 IEM_DS3505
ZGNN,2002-03-01 07:00,ZGNN 010700Z AUTO 15010KT 7SM 24/18 A2991 RMK T02400180 IEM_DS3505
ZGNN,2002-03-01 08:00,ZGNN 010800Z AUTO 17012KT 7SM 24/18 A2988 RMK T02400180 IEM_DS3505
ZGNN,2002-03-01 09:00,ZGNN 010900Z AUTO 20006KT 12SM 24/18 A2988 RMK SLP123 T02420182 57017 IEM_DS3505
ZGNN,2002-03-01 10:00,ZGNN 011000Z AUTO 17012KT 7SM 23/17 A2988 RMK T02300170 IEM_DS3505
ZGNN,2002-03-01 11:00,ZGNN 011100Z AUTO 16008KT 7SM 23/18 A2991 RMK T02300180 IEM_DS3505
ZGNN,2002-03-01 12:00,ZGNN 011200Z AUTO 16002KT 11SM 22/19 A2991 RMK SLP134 T02240188 52010 IEM_DS3505
ZGNN,2002-03-01 13:00,ZGNN 011300Z AUTO 7SM 22/18 A2994 RMK T02200180 IEM_DS3505
ZGNN,2002-03-01 14:00,ZGNN 011400Z AUTO 16006KT 7SM 22/18 A2994 RMK T02200180 IEM_DS3505
ZGNN,2002-03-01 15:00,ZGNN 011500Z AUTO 00000KT 9SM 22/19 A2994 RMK SLP145 T02170190 52011 IEM_DS3505
ZGNN,2002-03-01 16:00,ZGNN 011600Z AUTO 15004KT 7SM 22/18 A2997 RMK T02200180 IEM_DS3505
ZGNN,2002-03-01 17:00,ZGNN 011700Z AUTO 11006KT 7SM 21/18 A2994 RMK T02100180 IEM_DS3505
ZGNN,2002-03-01 18:00,ZGNN 011800Z AUTO 14004KT 9SM 22/19 A2994 RMK SLP138 T02160188 57006 IEM_DS3505
ZGNN,2002-03-01 19:00,ZGNN 011900Z AUTO 13006KT 7SM 21/18 A2991 RMK T02100180 IEM_DS3505
ZGNN,2002-03-01 20:00,ZGNN 012000Z AUTO 7SM 21/18 A2991 RMK T02100180 IEM_DS3505
ZGNN,2002-03-01 21:00,ZGNN 012100Z AUTO 18002KT 9SM 21/19 A2991 RMK 70003 SLP135 T02110187 57003 IEM_DS3505
ZGNN,2002-03-01 22:00,ZGNN 012200Z AUTO 12004KT 7SM 21/18 A2994 RMK T02100180 IEM_DS3505
ZGNN,2002-03-01 23:00,ZGNN 012300Z AUTO 11004KT 7SM 21/18 A2997 RMK T02100180 IEM_DS3505
ZGNN,2002-03-02 00:00,ZGNN 020000Z AUTO 16004KT 7SM 21/19 A3000 RMK 70003 SLP160 T02090189 52024 IEM_DS3505
ZGNN,2002-03-02 01:00,ZGNN 020100Z AUTO 14006KT 7SM 21/18 A3000 RMK T02100180 IEM_DS3505
ZGNN,2002-03-02 02:00,ZGNN 020200Z AUTO 14008KT 7SM 22/18 A3000 RMK T02200180 IEM_DS3505
ZGNN,2002-03-02 03:00,ZGNN 020300Z AUTO 18008KT 9SM 24/19 A3000 RMK SLP161 T02360188 52001 IEM_DS3505
ZGNN,2002-03-02 04:00,ZGNN 020400Z AUTO 13010KT 7SM 23/18 A3000 RMK T02300180 IEM_DS3505
ZGNN,2002-03-02 05:00,ZGNN 020500Z AUTO 14008KT 7SM 24/18 A2997 RMK T02400180 IEM_DS3505
ZGNN,2002-03-02 06:00,ZGNN 020600Z AUTO 18006KT 15SM 26/18 A2994 RMK SLP138 T02550183 57022 IEM_DS3505
ZGNN,2002-03-02 07:00,ZGNN 020700Z AUTO 16010KT 7SM 25/18 A2988 RMK T02500180 IEM_DS3505
ZGNN,2002-03-02 08:00,ZGNN 020800Z AUTO 14010KT 7SM 24/18 A2988 RMK T02400180 IEM_DS3505
ZGNN,2002-03-02 09:00,ZGNN 020900Z AUTO 18004KT 15SM 24/18 A2988 RMK SLP119 T02400182 57019 IEM_DS3505
ZGNN,2002-03-02 10:00,ZGNN 021000Z AUTO 16010KT 7SM 23/18 A2988 RMK T02300180 IEM_DS3505
ZGNN,2002-03-02 11:00,ZGNN 021100Z AUTO 16008KT 7SM 23/17 A2988 RMK T02300170 IEM_DS3505
ZGNN,2002-03-02 12:00,ZGNN 021200Z AUTO 18002KT 14SM 23/18 A2991 RMK SLP130 T02280184 52010 IEM_DS3505
ZGNN,2002-03-02 13:00,ZGNN 021300Z AUTO 18006KT 7SM 22/18 A2994 RMK T02200180 IEM_DS3505
ZGNN,2002-03-02 14:00,ZGNN 021400Z AUTO 7SM 22/18 A2994 RMK T02200180 IEM_DS3505
ZGNN,2002-03-02 15:00,ZGNN 021500Z AUTO 14002KT 12SM 22/19 RMK SLP150 T02230189 52021 IEM_DS3505
ZGNN,2002-03-02 17:00,ZGNN 021700Z AUTO 12002KT 7SM 20/18 A2997 RMK T02000180 IEM_DS3505
ZGNN,2002-03-02 18:00,ZGNN 021800Z AUTO 00000KT 9SM 20/18 A2997 RMK SLP149 T01990183 57002 IEM_DS3505
ZGNN,2002-03-02 19:00,ZGNN 021900Z AUTO 7SM 20/18 A2994 RMK T02000180 IEM_DS3505
ZGNN,2002-03-02 20:00,ZGNN 022000Z AUTO 7SM 20/17 A2994 RMK T02000170 IEM_DS3505
ZGNN,2002-03-02 21:00,ZGNN 022100Z AUTO 14004KT 9SM 20/18 A2994 RMK SLP142 T02020183 57007 IEM_DS3505
ZGNN,2002-03-02 22:00,ZGNN 022200Z AUTO 12004KT 7SM 20/17 A2994 RMK T02000170 IEM_DS3505
ZGNN,2002-03-02 23:00,ZGNN 022300Z AUTO 7SM 20/18 A2997 RMK T02000180 IEM_DS3505
ZGNN,2002-03-03 00:00,ZGNN 030000Z AUTO 14004KT 7SM 20/18 A3000 RMK SLP160 T02020181 52018 IEM_DS3505
ZGNN,2002-03-03 01:00,ZGNN 030100Z AUTO 13004KT 7SM 20/ A3000 RMK IEM_DS3505
ZGNN,2002-03-03 02:00,ZGNN 030200Z AUTO 12006KT 7SM 21/18 A3003 RMK T02100180 IEM_DS3505
ZGNN,2002-03-03 03:00,ZGNN 030300Z AUTO 16006KT 7SM 22/18 A3003 RMK SLP169 T02150182 52009 IEM_DS3505
ZGNN,2002-03-03 04:00,ZGNN 030400Z AUTO 14010KT 7SM 22/18 A3000 RMK T02200180 IEM_DS3505
ZGNN,2002-03-03 05:00,ZGNN 030500Z AUTO 16010KT 7SM 23/18 A2997 RMK T02300180 IEM_DS3505
ZGNN,2002-03-03 06:00,ZGNN 030600Z AUTO 18006KT 12SM 24/18 A2994 RMK SLP139 T02410180 57030 IEM_DS3505
ZGNN,2002-03-03 07:00,ZGNN 030700Z AUTO 15008KT 7SM 24/18 A2991 RMK T02400180 IEM_DS3505
ZGNN,2002-03-03 08:00,ZGNN 030800Z AUTO 16012KT 7SM 24/17 A2988 RMK T02400170 IEM_DS3505
ZGNN,2002-03-03 09:00,ZGNN 030900Z AUTO 18008KT 14SM 25/18 A2988 RMK SLP118 T02460175 57020 IEM_DS3505
ZGNN,2002-03-03 10:00,ZGNN 031000Z AUTO 19008KT 7SM 23/17 A2988 RMK T02300170 IEM_DS3505
ZGNN,2002-03-03 11:00,ZGNN 031100Z AUTO 7SM 23/17 A2988 RMK T02300170 IEM_DS3505
ZGNN,2002-03-03 12:00,ZGNN 031200Z AUTO 20002KT 11SM 23/18 A2991 RMK SLP133 T02270185 52014 IEM_DS3505
ZGNN,2002-03-03 13:00,ZGNN 031300Z AUTO 16004KT 7SM 22/18 A2991 RMK T02200180 IEM_DS3505
ZGNN,2002-03-03 14:00,ZGNN 031400Z AUTO 17004KT 7SM 22/18 A2994 RMK T02200180 IEM_DS3505
ZGNN,2002-03-03 15:00,ZGNN 031500Z AUTO 00000KT 10SM 22/18 A2994 RMK SLP145 T02170185 52012 IEM_DS3505
ZGNN,2002-03-03 18:00,ZGNN 031800Z AUTO 18004KT 10SM 21/18 RMK SLP137 T02130180 57007 IEM_DS3505
ZGNN,2002-03-03 20:00,ZGNN 032000Z AUTO 7SM 21/18 A2991 RMK T02100180 IEM_DS3505
ZGNN,2002-03-03 21:00,ZGNN 032100Z AUTO 14004KT 9SM 21/18 A2991 RMK SLP133 T02060184 57004 IEM_DS3505
ZGNN,2002-03-03 22:00,ZGNN 032200Z AUTO 4SM 20/18 A2991 RMK T02000180 IEM_DS3505
ZGNN,2002-03-03 23:00,ZGNN 032300Z AUTO 4SM 20/18 A2994 RMK T02000180 IEM_DS3505
ZGNN,2002-03-04 00:00,ZGNN 040000Z AUTO 11002KT 5SM 21/19 A2997 RMK SLP152 T02070186 52018 IEM_DS3505
ZGNN,2002-03-04 01:00,ZGNN 040100Z AUTO 14006KT 4SM 21/18 A3000 RMK T02100180 IEM_DS3505
ZGNN,2002-03-04 02:00,ZGNN 040200Z AUTO 15010KT 4SM 21/18 A3000 RMK T02100180 IEM_DS3505
ZGNN,2002-03-04 03:00,ZGNN 040300Z AUTO 18006KT 3SM 21/20 A3000 RMK SLP159 T02140195 52007 IEM_DS3505
ZGNN,2002-03-04 04:00,ZGNN 040400Z AUTO 14010KT 6SM 21/19 A2997 RMK T02100190 IEM_DS3505
ZGNN,2002-03-04 05:00,ZGNN 040500Z AUTO 16010KT 7SM 22/19 A2994 RMK T02200190 IEM_DS3505
ZGNN,2002-03-04 06:00,ZGNN 040600Z AUTO 18004KT 6SM 22/19 A2991 RMK 60003 SLP131 T02220192 57028 IEM_DS3505
ZGNN,2002-03-04 07:00,ZGNN 040700Z AUTO 16008KT 7SM 22/18 A2988 RMK T02200180 IEM_DS3505
ZGNN,2002-03-04 08:00,ZGNN 040800Z AUTO 15010KT 7SM 22/18 A2985 RMK T02200180 IEM_DS3505
ZGNN,2002-03-04 09:00,ZGNN 040900Z AUTO 20002KT 9SM 23/19 A2985 RMK SLP112 T02260192 57019 IEM_DS3505
ZGNN,2002-03-04 10:00,ZGNN 041000Z AUTO 15006KT 7SM 23/19 A2985 RMK T02300190 IEM_DS3505
ZGNN,2002-03-04 11:00,ZGNN 041100Z AUTO 15008KT 7SM 23/18 A2985 RMK T02300180 IEM_DS3505
ZGNN,2002-03-04 12:00,ZGNN 041200Z AUTO 18004KT 9SM 22/19 A2988 RMK SLP120 T02240190 52008 IEM_DS3505
ZGNN,2002-03-04 13:00,ZGNN 041300Z AUTO 14006KT 6SM 22/18 A2991 RMK T02200180 IEM_DS3505
ZGNN,2002-03-04 14:00,ZGNN 041400Z AUTO 15006KT 7SM 22/18 A2991 RMK T02200180 IEM_DS3505
ZGNN,2002-03-04 15:00,ZGNN 041500Z AUTO 14002KT 9SM 22/19 A2991 RMK SLP136 T02160194 52016 IEM_DS3505
ZGNN,2002-03-04 16:00,ZGNN 041600Z AUTO 14004KT 7SM 21/18 A2991 RMK T02100180 IEM_DS3505
ZGNN,2002-03-04 17:00,ZGNN 041700Z AUTO 7SM 20/18 A2991 RMK T02000180 IEM_DS3505
ZGNN,2002-03-04 18:00,ZGNN 041800Z AUTO 00000KT 7SM 20/20 A2991 RMK SLP136 T02040195 54000 IEM_DS3505
ZGNN,2002-03-04 19:00,ZGNN 041900Z AUTO 00000KT 3SM 19/18 A2991 RMK T01900180 IEM_DS3505
ZGNN,2002-03-04 20:00,ZGNN 042000Z AUTO 01002KT 3SM 19/18 A2991 RMK T01900180 IEM_DS3505
ZGNN,2002-03-04 21:00,ZGNN 042100Z AUTO 00000KT 6SM 20/19 A2994 RMK 70003 SLP138 T02030192 52002 IEM_DS3505
ZGNN,2002-03-04 22:00,ZGNN 042200Z AUTO 35004KT 4SM 20/18 A2994 RMK T02000180 IEM_DS3505
ZGNN,2002-03-04 23:00,ZGNN 042300Z AUTO 21002KT 4SM 20/18 A2997 RMK T02000180 IEM_DS3505
ZGNN,2002-03-05 00:00,ZGNN 050000Z AUTO 04008KT 2 1/2SM 20/19 A3003 RMK 70003 SLP176 T02020191 52037 IEM_DS3505
ZGNN,2002-03-05 01:00,ZGNN 050100Z AUTO 35014KT 7SM 14/12 A3012 RMK T01400120 IEM_DS3505
ZGNN,2002-03-05 02:00,ZGNN 050200Z AUTO 01014KT 7SM 13/11 A3018 RMK T01300110 IEM_DS3505
ZGNN,2002-03-05 03:00,ZGNN 050300Z AUTO 36010KT 19SM 14/09 A3021 RMK SLP231 T01350094 52053 IEM_DS3505
ZGNN,2002-03-05 04:00,ZGNN 050400Z AUTO 36012KT 7SM 13/08 A3018 RMK T01300080 IEM_DS3505
ZGNN,2002-03-05 05:00,ZGNN 050500Z AUTO 36014KT 7SM 14/08 A3018 RMK T01400080 IEM_DS3505
ZGNN,2002-03-05 06:00,ZGNN 050600Z AUTO 34008KT 19SM 14/08 A3015 RMK 60012 SLP213 T01440080 57018 IEM_DS3505
ZGNN,2002-03-05 07:00,ZGNN 050700Z AUTO 36010KT 7SM 15/08 A3012 RMK T01500080 IEM_DS3505
ZGNN,2002-03-05 08:00,ZGNN 050800Z AUTO 35010KT 7SM 16/08 A3012 RMK T01600080 IEM_DS3505
ZGNN,2002-03-05 09:00,ZGNN 050900Z AUTO 36010KT 19SM 16/07 A3009 RMK SLP201 T01600072 57012 IEM_DS3505
ZGNN,2002-03-05 10:00,ZGNN 051000Z AUTO 36010KT 6SM 16/06 A3012 RMK T01600060 IEM_DS3505
ZGNN,2002-03-05 11:00,ZGNN 051100Z AUTO 36008KT 6SM 15/07 A3015 RMK T01500070 IEM_DS3505
ZGNN,2002-03-05 12:00,ZGNN 051200Z AUTO 36008KT 16SM 14/06 A3015 RMK SLP223 T01440056 52022 IEM_DS3505
ZGNN,2002-03-05 13:00,ZGNN 051300Z AUTO 01004KT 6SM 13/07 A3018 RMK T01300070 IEM_DS3505
ZGNN,2002-03-05 14:00,ZGNN 051400Z AUTO 36004KT 6SM 13/07 A3021 RMK T01300070 IEM_DS3505
ZGNN,2002-03-05 15:00,ZGNN 051500Z AUTO 34004KT 16SM 13/06 RMK SLP236 T01280065 52010 IEM_DS3505
ZGNN,2002-03-05 17:00,ZGNN 051700Z AUTO 00000KT 7SM 10/08 A3021 RMK T01000080 IEM_DS3505
ZGNN,2002-03-05 18:00,ZGNN 051800Z AUTO 34004KT 16SM 11/09 RMK SLP233 T01100088 57003 IEM_DS3505
ZGNN,2002-03-05 21:00,ZGNN 052100Z AUTO 36006KT 12SM 14/05 A3018 RMK 70011 SLP227 T01380053 57005 IEM_DS3505
ZGNN,2002-03-05 22:00,ZGNN 052200Z AUTO 36006KT 6SM 14/05 A3021 RMK T01400050 IEM_DS3505
ZGNN,2002-03-05 23:00,ZGNN 052300Z AUTO 35004KT 6SM 14/05 A3024 RMK T01400050 IEM_DS3505
ZGNN,2002-03-06 00:00,ZGNN 060000Z AUTO 34006KT 16SM 14/05 A3027 RMK 70011 SLP256 T01400050 52029 IEM_DS3505
ZGNN,2002-03-06 01:00,ZGNN 060100Z AUTO 35006KT 6SM 14/06 A3030 RMK T01400060 IEM_DS3505
ZGNN,2002-03-06 02:00,ZGNN 060200Z AUTO 36010KT 6SM 14/05 A3030 RMK T01400050 IEM_DS3505
ZGNN,2002-03-06 03:00,ZGNN 060300Z AUTO 36006KT 16SM 14/05 A3030 RMK SLP272 T01440050 52015 IEM_DS3505
ZGNN,2002-03-06 04:00,ZGNN 060400Z AUTO 34008KT 6SM 14/05 A3030 RMK T01400050 IEM_DS3505
ZGNN,2002-03-06 05:00,ZGNN 060500Z AUTO 35010KT 6SM 14/03 A3027 RMK T01400030 IEM_DS3505
ZGNN,2002-03-06 06:00,ZGNN 060600Z AUTO 36006KT 16SM 15/02 A3024 RMK SLP245 T01500018 57027 IEM_DS3505
ZGNN,2002-03-06 07:00,ZGNN 060700Z AUTO 36008KT 6SM 15/02 A3021 RMK T01500020 IEM_DS3505
ZGNN,2002-03-06 08:00,ZGNN 060800Z AUTO 35006KT 6SM 16/04 A3018 RMK T01600040 IEM_DS3505
ZGNN,2002-03-06 09:00,ZGNN 060900Z AUTO 00000KT 16SM 15/06 A3015 RMK SLP222 T01540061 57022 IEM_DS3505
ZGNN,2002-03-06 10:00,ZGNN 061000Z AUTO 11002KT 6SM 15/07 A3015 RMK T01500070 IEM_DS3505
ZGNN,2002-03-06 11:00,ZGNN 061100Z AUTO 29002KT 6SM 15/08 A3018 RMK T01500080 IEM_DS3505
ZGNN,2002-03-06 12:00,ZGNN 061200Z AUTO 00000KT 9SM 14/10 A3018 RMK SLP230 T01410097 52008 IEM_DS3505
ZGNN,2002-03-06 13:00,ZGNN 061300Z AUTO 6SM 14/09 A3021 RMK T01400090 IEM_DS3505
ZGNN,2002-03-06 15:00,ZGNN 061500Z AUTO 00000KT 9SM 13/10 RMK SLP245 T01340103 52015 IEM_DS3505
ZGNN,2002-03-06 17:00,ZGNN 061700Z AUTO 13002KT 7SM 13/10 A3018 RMK T01300100 IEM_DS3505
ZGNN,2002-03-06 18:00,ZGNN 061800Z AUTO 00000KT 9SM 13/10 RMK 60003 SLP230 T01330104 57015 IEM_DS3505
ZGNN,2002-03-06 19:00,ZGNN 061900Z AUTO 19002KT 7SM 13/10 A3018 RMK T01300100 IEM_DS3505
ZGNN,2002-03-06 20:00,ZGNN 062000Z AUTO 23002KT 7SM 13/10 A3018 RMK T01300100 IEM_DS3505
ZGNN,2002-03-06 21:00,ZGNN 062100Z AUTO 00000KT 9SM 13/12 A3018 RMK 70003 SLP224 T01320115 57006 IEM_DS3505
ZGNN,2002-03-06 22:00,ZGNN 062200Z AUTO 00000KT 6SM 13/11 A3018 RMK T01300110 IEM_DS3505
ZGNN,2002-03-06 23:00,ZGNN 062300Z AUTO 18004KT 6SM 13/10 A3021 RMK T01300100 IEM_DS3505
ZGNN,2002-03-07 00:00,ZGNN 070000Z AUTO 36002KT 12SM 14/11 A3021 RMK 60003 SLP236 T01360108 52012 IEM_DS3505
ZGNN,2002-03-07 01:00,ZGNN 070100Z AUTO 00000KT 6SM 14/10 A3024 RMK T01400100 IEM_DS3505
ZGNN,2002-03-07 02:00,ZGNN 070200Z AUTO 00000KT 6SM 14/11 A3024 RMK T01400110 IEM_DS3505
ZGNN,2002-03-07 03:00,ZGNN 070300Z AUTO 32006KT 9SM 15/09 A3024 RMK SLP252 T01500090 52016 IEM_DS3505
ZGNN,2002-03-07 04:00,ZGNN 070400Z AUTO 33008KT 6SM 16/08 A3024 RMK T01600080 IEM_DS3505
ZGNN,2002-03-07 05:00,ZGNN 070500Z AUTO 6SM 17/07 A3024 RMK T01700070 IEM_DS3505
ZGNN,2002-03-07 06:00,ZGNN 070600Z AUTO 32008KT 12SM 17/08 A3021 RMK 60003 SLP234 T01680080 57018 IEM_DS3505
ZGNN,2002-03-07 07:00,ZGNN 070700Z AUTO 7SM 16/09 A3018 RMK T01600090 IEM_DS3505
ZGNN,2002-03-07 08:00,ZGNN 070800Z AUTO 35004KT 7SM 15/11 A3015 RMK T01500110 IEM_DS3505
ZGNN,2002-03-07 09:00,ZGNN 070900Z AUTO 34006KT 9SM 15/10 A3015 RMK SLP216 T01530095 57018 IEM_DS3505
ZGNN,2002-03-07 10:00,ZGNN 071000Z AUTO 6SM 15/08 A3015 RMK T01500080 IEM_DS3505
ZGNN,2002-03-07 11:00,ZGNN 071100Z AUTO 22004KT 7SM 14/10 A3015 RMK T01400100 IEM_DS3505
ZGNN,2002-03-07 12:00,ZGNN 071200Z AUTO 32004KT 7SM 13/10 A3018 RMK 60000 SLP224 T01290098 52008 IEM_DS3505
ZGNN,2002-03-07 13:00,ZGNN 071300Z AUTO 24002KT 6SM 12/09 A3021 RMK T01200090 IEM_DS3505
ZGNN,2002-03-07 14:00,ZGNN 071400Z AUTO 00000KT 6SM 11/08 A3021 RMK T01100080 IEM_DS3505
ZGNN,2002-03-07 15:00,ZGNN 071500Z AUTO 00000KT 6SM 10/09 A3021 RMK SLP242 T01030089 52017 IEM_DS3505
ZGNN,2002-03-07 16:00,ZGNN 071600Z AUTO 00000KT 4SM 09/08 A3021 RMK T00900080 IEM_DS3505
ZGNN,2002-03-07 17:00,ZGNN 071700Z AUTO 00000KT 4SM 09/08 A3021 RMK T00900080 IEM_DS3505
ZGNN,2002-03-07 18:00,ZGNN 071800Z AUTO 00000KT 5SM 08/08 A3018 RMK SLP229 T00800076 57013 IEM_DS3505
ZGNN,2002-03-07 19:00,ZGNN 071900Z AUTO 27002KT 7SM 08/06 A3018 RMK T00800060 IEM_DS3505
ZGNN,2002-03-07 20:00,ZGNN 072000Z AUTO 00000KT 7SM 08/06 A3015 RMK T00800060 IEM_DS3505
ZGNN,2002-03-07 21:00,ZGNN 072100Z AUTO 00000KT 5SM 08/07 RMK 70000 SLP217 T00780074 57012 IEM_DS3505
ZGNN,2002-03-07 22:00,ZGNN 072200Z AUTO 04002KT 5SM 09/08 A3015 RMK T00900080 IEM_DS3505
ZGNN,2002-03-07 23:00,ZGNN 072300Z AUTO 00000KT 5SM 10/08 A3018 RMK T01000080 IEM_DS3505
ZGNN,2002-03-08 00:00,ZGNN 080000Z AUTO 00000KT 4SM 10/10 A3021 RMK 70000 SLP241 T01020096 52023 IEM_DS3505
ZGNN,2002-03-08 01:00,ZGNN 080100Z AUTO 08002KT 6SM 11/09 A3024 RMK T01100090 IEM_DS3505
ZGNN,2002-03-08 02:00,ZGNN 080200Z AUTO 4SM 12/09 A3027 RMK T01200090 IEM_DS3505
ZGNN,2002-03-08 03:00,ZGNN 080300Z AUTO 32006KT 5SM 14/10 A3027 RMK SLP261 T01360097 52020 IEM_DS3505
ZGNN,2002-03-08 04:00,ZGNN 080400Z AUTO 4SM 14/10 A3027 RMK T01400100 IEM_DS3505
ZGNN,2002-03-08 05:00,ZGNN 080500Z AUTO 6SM 15/10 A3024 RMK T01500100 IEM_DS3505
ZGNN,2002-03-08 06:00,ZGNN 080600Z AUTO 00000KT 7SM 17/07 A3018 RMK SLP229 T01700072 57031 IEM_DS3505
ZGNN,2002-03-08 07:00,ZGNN 080700Z AUTO 6SM 17/06 A3015 RMK T01700060 IEM_DS3505
ZGNN,2002-03-08 08:00,ZGNN 080800Z AUTO 34004KT 6SM 17/06 A3015 RMK T01700060 IEM_DS3505
ZGNN,2002-03-08 09:00,ZGNN 080900Z AUTO 34004KT 7SM 17/08 A3015 RMK SLP218 T01670076 57011 IEM_DS3505
ZGNN,2002-03-08 10:00,ZGNN 081000Z AUTO 35006KT 2 1/2SM 15/11 A3015 RMK T01500110 IEM_DS3505
ZGNN,2002-03-08 11:00,ZGNN 081100Z AUTO 33006KT 2 1/2SM 14/11 A3015 RMK T01400110 IEM_DS3505
ZGNN,2002-03-08 12:00,ZGNN 081200Z AUTO 34006KT 5SM 14/11 A3018 RMK SLP227 T01400114 52009 IEM_DS3505
ZGNN,2002-03-08 13:00,ZGNN 081300Z AUTO 5SM 14/09 A3021 RMK T01400090 IEM_DS3505
ZGNN,2002-03-08 14:00,ZGNN 081400Z AUTO 6SM 14/09 A3021 RMK T01400090 IEM_DS3505
ZGNN,2002-03-08 15:00,ZGNN 081500Z AUTO 32004KT 6SM 14/10 A3024 RMK SLP245 T01410101 52019 IEM_DS3505
ZGNN,2002-03-08 16:00,ZGNN 081600Z AUTO 00000KT 4SM 14/10 A3024 RMK T01400100 IEM_DS3505
ZGNN,2002-03-08 17:00,ZGNN 081700Z AUTO 00000KT 4SM 14/10 A3021 RMK T01400100 IEM_DS3505
ZGNN,2002-03-08 18:00,ZGNN 081800Z AUTO 00000KT 6SM 14/11 A3021 RMK SLP231 T01390107 57013 IEM_DS3505
ZGNN,2002-03-08 19:00,ZGNN 081900Z AUTO 21002KT 3SM 13/11 A3018 RMK T01300110 IEM_DS3505
ZGNN,2002-03-08 20:00,ZGNN 082000Z AUTO 00000KT 4SM 13/10 A3015 RMK T01300100 IEM_DS3505
ZGNN,2002-03-08 21:00,ZGNN 082100Z AUTO 00000KT 5SM 14/12 A3015 RMK 70003 SLP216 T01360119 57015 IEM_DS3505
ZGNN,2002-03-08 22:00,ZGNN 082200Z AUTO 35002KT 7SM 14/11 A3015 RMK T01400110 IEM_DS3505
ZGNN,2002-03-08 23:00,ZGNN 082300Z AUTO 36002KT 5SM 14/10 A3018 RMK T01400100 IEM_DS3505
ZGNN,2002-03-09 00:00,ZGNN 090000Z AUTO 00000KT 5SM 14/11 A3018 RMK 60003 SLP230 T01390113 52013 IEM_DS3505
ZGNN,2002-03-09 01:00,ZGNN 090100Z AUTO 05002KT 2 1/2SM 14/10 A3021 RMK T01400100 IEM_DS3505
ZGNN,2002-03-09 02:00,ZGNN 090200Z AUTO 2SM 15/11 A3021 RMK T01500110 IEM_DS3505
ZGNN,2002-03-09 03:00,ZGNN 090300Z AUTO 09002KT 2 1/2SM 14/12 A3021 RMK SLP235 T01450119 52005 IEM_DS3505
ZGNN,2002-03-09 04:00,ZGNN 090400Z AUTO 2SM 15/11 A3021 RMK T01500110 IEM_DS3505
ZGNN,2002-03-09 05:00,ZGNN 090500Z AUTO 2SM 16/11 A3015 RMK T01600110 IEM_DS3505
ZGNN,2002-03-09 06:00,ZGNN 090600Z AUTO 00000KT 4SM 16/12 A3012 RMK 60000 SLP203 T01650125 57031 IEM_DS3505
ZGNN,2002-03-09 07:00,ZGNN 090700Z AUTO 2SM 17/12 A3009 RMK T01700120 IEM_DS3505
ZGNN,2002-03-09 08:00,ZGNN 090800Z AUTO 11004KT 2 1/2SM 17/13 A3006 RMK T01700130 IEM_DS3505
ZGNN,2002-03-09 09:00,ZGNN 090900Z AUTO 09004KT 4SM 17/14 A3006 RMK SLP183 T01700137 57020 IEM_DS3505
ZGNN,2002-03-09 10:00,ZGNN 091000Z AUTO 08004KT 2SM 17/13 A3006 RMK T01700130 IEM_DS3505
ZGNN,2002-03-09 11:00,ZGNN 091100Z AUTO 06004KT 2SM 16/13 A3006 RMK T01600130 IEM_DS3505
ZGNN,2002-03-09 12:00,ZGNN 091200Z AUTO 09004KT 4SM 16/14 A3006 RMK SLP189 T01590138 52006 IEM_DS3505
ZGNN,2002-03-09 13:00,ZGNN 091300Z AUTO 07004KT 1 1/4SM 15/13 A3009 RMK T01500130 IEM_DS3505
ZGNN,2002-03-09 14:00,ZGNN 091400Z AUTO 06004KT 1 1/4SM 15/13 A3009 RMK T01500130 IEM_DS3505
ZGNN,2002-03-09 15:00,ZGNN 091500Z AUTO 09004KT 5SM 16/14 A3009 RMK SLP198 T01570139 52009 IEM_DS3505
ZGNN,2002-03-09 16:00,ZGNN 091600Z AUTO 07004KT 1 1/4SM 15/13 A3009 RMK T01500130 IEM_DS3505
ZGNN,2002-03-09 17:00,ZGNN 091700Z AUTO 06004KT 1 1/2SM 15/13 A3009 RMK T01500130 IEM_DS3505
ZGNN,2002-03-09 18:00,ZGNN 091800Z AUTO 00000KT 5SM 16/14 A3006 RMK SLP190 T01570143 57007 IEM_DS3505
ZGNN,2002-03-09 19:00,ZGNN 091900Z AUTO 07004KT 1SM 15/14 A3006 RMK T01500140 IEM_DS3505
ZGNN,2002-03-09 20:00,ZGNN 092000Z AUTO 05004KT 1SM 15/14 A3003 RMK T01500140 IEM_DS3505
ZGNN,2002-03-09 21:00,ZGNN 092100Z AUTO 00000KT 3SM 16/15 A3003 RMK 70001 SLP177 T01560146 57013 IEM_DS3505
ZGNN,2002-03-09 22:00,ZGNN 092200Z AUTO 05004KT 1SM 15/14 A3003 RMK T01500140 IEM_DS3505
ZGNN,2002-03-09 23:00,ZGNN 092300Z AUTO 04004KT 1SM 15/14 A3006 RMK T01500140 IEM_DS3505
ZGNN,2002-03-10 00:00,ZGNN 100000Z AUTO 00000KT 2SM 16/15 A3009 RMK 60003 SLP192 T01600151 52014 IEM_DS3505
ZGNN,2002-03-10 01:00,ZGNN 100100Z AUTO 1SM 16/15 A3009 RMK T01600150 IEM_DS3505
ZGNN,2002-03-10 02:00,ZGNN 100200Z AUTO 00000KT 1 1/2SM 18/15 A3009 RMK T01800150 IEM_DS3505
ZGNN,2002-03-10 03:00,ZGNN 100300Z AUTO 16004KT 4SM 19/17 A3009 RMK SLP197 T01930172 52006 IEM_DS3505
ZGNN,2002-03-10 04:00,ZGNN 100400Z AUTO 15004KT 7SM 21/17 A3009 RMK T02100170 IEM_DS3505
ZGNN,2002-03-10 05:00,ZGNN 100500Z AUTO 14006KT 7SM 21/18 A3006 RMK T02100180 IEM_DS3505
ZGNN,2002-03-10 06:00,ZGNN 100600Z AUTO 16004KT 11SM 22/18 A3003 RMK 60003 SLP170 T02210183 57026 IEM_DS3505
ZGNN,2002-03-10 08:00,ZGNN 100800Z AUTO 01002KT 4SM RMK IEM_DS3505
ZGNN,2002-03-10 09:00,ZGNN 100900Z AUTO 00000KT 6SM 22/19 A2997 RMK SLP156 T02160194 57014 IEM_DS3505
ZGNN,2002-03-10 10:00,ZGNN 101000Z AUTO 06002KT 2SM 21/19 A2997 RMK T02100190 IEM_DS3505
ZGNN,2002-03-10 11:00,ZGNN 101100Z AUTO 2SM 20/19 A3000 RMK T02000190 IEM_DS3505
ZGNN,2002-03-10 12:00,ZGNN 101200Z AUTO 00000KT 2 1/2SM 20/20 A3000 RMK 60016 SLP165 T02020196 52009 IEM_DS3505
ZGNN,2002-03-10 13:00,ZGNN 101300Z AUTO 05002KT 2SM 20/18 A3003 RMK T02000180 IEM_DS3505
ZGNN,2002-03-10 14:00,ZGNN 101400Z AUTO 03002KT 1 1/4SM 20/18 A3006 RMK T02000180 IEM_DS3505
ZGNN,2002-03-10 15:00,ZGNN 101500Z AUTO 00000KT 4SM 20/19 A3006 RMK SLP183 T01950192 52018 IEM_DS3505
ZGNN,2002-03-10 16:00,ZGNN 101600Z AUTO 00000KT 3SM 19/18 A3006 RMK T01900180 IEM_DS3505
ZGNN,2002-03-10 17:00,ZGNN 101700Z AUTO 1SM 19/18 A3006 RMK T01900180 IEM_DS3505
ZGNN,2002-03-10 18:00,ZGNN 101800Z AUTO 00000KT 4SM 19/19 A3003 RMK 60002 SLP177 T01910189 57005 IEM_DS3505
ZGNN,2002-03-10 19:00,ZGNN 101900Z AUTO 05002KT 2SM 19/18 A3003 RMK T01900180 IEM_DS3505
ZGNN,2002-03-10 20:00,ZGNN 102000Z AUTO 2SM 19/18 A3000 RMK T01900180 IEM_DS3505
ZGNN,2002-03-10 21:00,ZGNN 102100Z AUTO 14002KT 4SM 19/19 RMK 70016 SLP164 T01890186 57013 IEM_DS3505
ZGNN,2002-03-10 23:00,ZGNN 102300Z AUTO 04004KT 1SM 18/17 A3003 RMK T01800170 IEM_DS3505
ZGNN,2002-03-11 00:00,ZGNN 110000Z AUTO 00000KT 2SM 18/18 A3003 RMK 60008 SLP178 T01830180 52013 IEM_DS3505
ZGNN,2002-03-11 01:00,ZGNN 110100Z AUTO 05004KT 1 1/4SM 18/17 A3006 RMK T01800170 IEM_DS3505
ZGNN,2002-03-11 02:00,ZGNN 110200Z AUTO 2SM 20/18 A3006 RMK T02000180 IEM_DS3505
ZGNN,2002-03-11 03:00,ZGNN 110300Z AUTO 11004KT 2 1/2SM 21/19 A3006 RMK SLP187 T02120193 52010 IEM_DS3505
ZGNN,2002-03-11 04:00,ZGNN 110400Z AUTO 7SM 23/19 A3006 RMK T02300190 IEM_DS3505
ZGNN,2002-03-11 05:00,ZGNN 110500Z AUTO 08006KT 7SM 22/19 A3003 RMK T02200190 IEM_DS3505
ZGNN,2002-03-11 06:00,ZGNN 110600Z AUTO 09006KT 6SM 24/20 A2997 RMK SLP157 T02440198 57029 IEM_DS3505
ZGNN,2002-03-11 07:00,ZGNN 110700Z AUTO 08006KT 7SM 23/19 A2997 RMK T02300190 IEM_DS3505
ZGNN,2002-03-11 08:00,ZGNN 110800Z AUTO 05006KT 7SM 23/19 A2994 RMK T02300190 IEM_DS3505
ZGNN,2002-03-11 09:00,ZGNN 110900Z AUTO 09004KT 5SM 21/20 A2994 RMK SLP144 T02140202 57014 IEM_DS3505
ZGNN,2002-03-11 10:00,ZGNN 111000Z AUTO 08006KT 7SM 21/19 A2994 RMK T02100190 IEM_DS3505
ZGNN,2002-03-11 11:00,ZGNN 111100Z AUTO 12006KT 7SM 22/18 A2997 RMK T02200180 IEM_DS3505
ZGNN,2002-03-11 12:00,ZGNN 111200Z AUTO 11002KT 5SM 21/20 A2997 RMK 60016 SLP157 T02100196 52013 IEM_DS3505
ZGNN,2002-03-11 13:00,ZGNN 111300Z AUTO 11004KT 7SM 21/18 A3000 RMK T02100180 IEM_DS3505
ZGNN,2002-03-11 14:00,ZGNN 111400Z AUTO 7SM 21/18 A3003 RMK T02100180 IEM_DS3505
ZGNN,2002-03-11 15:00,ZGNN 111500Z AUTO 00000KT 4SM 20/20 A3003 RMK SLP173 T02010196 52016 IEM_DS3505
ZGNN,2002-03-11 16:00,ZGNN 111600Z AUTO 12004KT 7SM 20/18 A3003 RMK T02000180 IEM_DS3505
ZGNN,2002-03-11 17:00,ZGNN 111700Z AUTO 14004KT 7SM 20/18 A3003 RMK T02000180 IEM_DS3505
ZGNN,2002-03-11 18:00,ZGNN 111800Z AUTO 18004KT 3SM 20/19 A3000 RMK 60001 SLP164 T02030190 57008 IEM_DS3505
ZGNN,2002-03-11 19:00,ZGNN 111900Z AUTO 4SM 20/18 A3000 RMK T02000180 IEM_DS3505
ZGNN,2002-03-11 20:00,ZGNN 112000Z AUTO 3SM 20/18 A2997 RMK T02000180 IEM_DS3505
ZGNN,2002-03-11 21:00,ZGNN 112100Z AUTO 14006KT 4SM 20/19 A2997 RMK 70024 SLP154 T02020186 57011 IEM_DS3505
ZGNN,2002-03-11 22:00,ZGNN 112200Z AUTO 13008KT 4SM 20/18 A2997 RMK T02000180 IEM_DS3505
ZGNN,2002-03-11 23:00,ZGNN 112300Z AUTO 13006KT 3SM 20/18 A3000 RMK T02000180 IEM_DS3505
ZGNN,2002-03-12 00:00,ZGNN 120000Z AUTO 14006KT 2 1/2SM 20/19 A3000 RMK 60000 SLP171 T02010187 52017 IEM_DS3505
ZGNN,2002-03-12 01:00,ZGNN 120100Z AUTO 13006KT 2 1/2SM 20/18 A3003 RMK T02000180 IEM_DS3505
ZGNN,2002-03-12 02:00,ZGNN 120200Z AUTO 15010KT 7SM 21/18 A3003 RMK T02100180 IEM_DS3505
ZGNN,2002-03-12 03:00,ZGNN 120300Z AUTO 18008KT 9SM 21/18 A3003 RMK SLP175 T02140184 52004 IEM_DS3505
ZGNN,2002-03-12 04:00,ZGNN 120400Z AUTO 15010KT 7SM 22/18 A3003 RMK T02200180 IEM_DS3505
ZGNN,2002-03-12 05:00,ZGNN 120500Z AUTO 15010KT 7SM 22/18 A2997 RMK T02200180 IEM_DS3505
ZGNN,2002-03-12 06:00,ZGNN 120600Z AUTO 14010KT 11SM 22/19 A2994 RMK SLP140 T02210186 57034 IEM_DS3505
ZGNN,2002-03-12 07:00,ZGNN 120700Z AUTO 14014KT 7SM 22/18 A2988 RMK T02200180 IEM_DS3505
ZGNN,2002-03-12 08:00,ZGNN 120800Z AUTO 15010KT 7SM 23/18 A2988 RMK T02300180 IEM_DS3505
ZGNN,2002-03-12 09:00,ZGNN 120900Z AUTO 16006KT 9SM 22/18 A2988 RMK SLP120 T02240180 57020 IEM_DS3505
ZGNN,2002-03-12 10:00,ZGNN 121000Z AUTO 15010KT 7SM 22/18 A2988 RMK T02200180 IEM_DS3505
ZGNN,2002-03-12 11:00,ZGNN 121100Z AUTO 15008KT 7SM 22/18 A2988 RMK T02200180 IEM_DS3505
ZGNN,2002-03-12 12:00,ZGNN 121200Z AUTO 18004KT 9SM 21/18 A2988 RMK 60003 SLP126 T02140184 52006 IEM_DS3505
ZGNN,2002-03-12 13:00,ZGNN 121300Z AUTO 7SM 21/18 A2991 RMK T02100180 IEM_DS3505
ZGNN,2002-03-12 14:00,ZGNN 121400Z AUTO 7SM 21/18 A2994 RMK T02100180 IEM_DS3505
ZGNN,2002-03-12 15:00,ZGNN 121500Z AUTO 14004KT 8SM 21/19 A2994 RMK SLP145 T02070186 52019 IEM_DS3505
ZGNN,2002-03-12 16:00,ZGNN 121600Z AUTO 13004KT 7SM 20/18 A2994 RMK T02000180 IEM_DS3505
ZGNN,2002-03-12 17:00,ZGNN 121700Z AUTO 11004KT 7SM 20/18 A2994 RMK T02000180 IEM_DS3505
ZGNN,2002-03-12 18:00,ZGNN 121800Z AUTO 14004KT 7SM 20/19 A2994 RMK SLP141 T02020186 57004 IEM_DS3505
ZGNN,2002-03-12 19:00,ZGNN 121900Z AUTO 7SM 20/18 A2994 RMK T02000180 IEM_DS3505
ZGNN,2002-03-12 20:00,ZGNN 122000Z AUTO 10002KT 7SM 20/18 A2991 RMK T02000180 IEM_DS3505
ZGNN,2002-03-12 21:00,ZGNN 122100Z AUTO 16004KT 7SM 20/19 A2988 RMK 70003 SLP125 T02040188 57016 IEM_DS3505
ZGNN,2002-03-12 22:00,ZGNN 122200Z AUTO 7SM 20/18 A2988 RMK T02000180 IEM_DS3505
ZGNN,2002-03-12 23:00,ZGNN 122300Z AUTO 7SM 20/18 A2991 RMK T02000180 IEM_DS3505
ZGNN,2002-03-13 00:00,ZGNN 130000Z AUTO 14004KT 7SM 20/19 A2994 RMK 70003 SLP139 T02040190 52014 IEM_DS3505
ZGNN,2002-03-13 01:00,ZGNN 130100Z AUTO 14008KT 7SM 20/18 A2994 RMK T02000180 IEM_DS3505
ZGNN,2002-03-13 02:00,ZGNN 130200Z AUTO 14004KT 7SM 21/18 A2997 RMK T02100180 IEM_DS3505
ZGNN,2002-03-13 03:00,ZGNN 130300Z AUTO 18004KT 7SM 22/19 A2994 RMK SLP146 T02150192 52007 IEM_DS3505
ZGNN,2002-03-13 04:00,ZGNN 130400Z AUTO 7SM 22/19 A2994 RMK T02200190 IEM_DS3505
ZGNN,2002-03-13 05:00,ZGNN 130500Z AUTO 12006KT 7SM 23/19 A2988 RMK T02300190 IEM_DS3505
ZGNN,2002-03-13 06:00,ZGNN 130600Z AUTO 14006KT 12SM 23/20 A2985 RMK SLP112 T02330199 57033 IEM_DS3505
ZGNN,2002-03-13 07:00,ZGNN 130700Z AUTO 13006KT 7SM 23/19 A2983 RMK T02300190 IEM_DS3505
ZGNN,2002-03-13 08:00,ZGNN 130800Z AUTO 13008KT 7SM 23/19 A2980 RMK T02300190 IEM_DS3505
ZGNN,2002-03-13 09:00,ZGNN 130900Z AUTO 14006KT 16SM 23/20 A2980 RMK SLP090 T02280199 57022 IEM_DS3505
ZGNN,2002-03-13 10:00,ZGNN 131000Z AUTO 14010KT 7SM 22/19 A2977 RMK T02200190 IEM_DS3505
ZGNN,2002-03-13 11:00,ZGNN 131100Z AUTO 14010KT 7SM 21/19 A2977 RMK T02100190 IEM_DS3505
ZGNN,2002-03-13 12:00,ZGNN 131200Z AUTO 18002KT 12SM 21/19 A2980 RMK SLP096 T02130194 52005 IEM_DS3505
ZGNN,2002-03-13 13:00,ZGNN 131300Z AUTO 14006KT 7SM 21/19 A2983 RMK T02100190 IEM_DS3505
ZGNN,2002-03-13 14:00,ZGNN 131400Z AUTO 14004KT 7SM 21/19 A2983 RMK T02100190 IEM_DS3505
ZGNN,2002-03-13 15:00,ZGNN 131500Z AUTO 18002KT 12SM 21/20 RMK SLP110 T02120197 52014 IEM_DS3505
ZGNN,2002-03-13 16:00,ZGNN 131600Z AUTO 7SM 21/19 A2985 RMK T02100190 IEM_DS3505
ZGNN,2002-03-13 17:00,ZGNN 131700Z AUTO 12004KT 7SM 21/19 A2985 RMK T02100190 IEM_DS3505
ZGNN,2002-03-13 18:00,ZGNN 131800Z AUTO 00000KT 11SM 21/20 A2983 RMK SLP103 T02100198 57006 IEM_DS3505
ZGNN,2002-03-13 19:00,ZGNN 131900Z AUTO 7SM 21/19 A2983 RMK T02100190 IEM_DS3505
ZGNN,2002-03-13 20:00,ZGNN 132000Z AUTO 7SM 21/19 A2983 RMK T02100190 IEM_DS3505
ZGNN,2002-03-13 21:00,ZGNN 132100Z AUTO 00000KT 9SM 21/20 A2983 RMK SLP100 T02090197 57003 IEM_DS3505
ZGNN,2002-03-13 22:00,ZGNN 132200Z AUTO 7SM 21/19 A2983 RMK T02100190 IEM_DS3505
ZGNN,2002-03-13 23:00,ZGNN 132300Z AUTO 14004KT 4SM 21/19 A2985 RMK T02100190 IEM_DS3505
ZGNN,2002-03-14 00:00,ZGNN 140000Z AUTO 00000KT 3SM 21/20 A2985 RMK SLP114 T02120198 52013 IEM_DS3505
ZGNN,2002-03-14 01:00,ZGNN 140100Z AUTO 14006KT 4SM 22/19 A2988 RMK T02200190 IEM_DS3505
ZGNN,2002-03-14 02:00,ZGNN 140200Z AUTO 15008KT 7SM 22/19 A2988 RMK T02200190 IEM_DS3505
ZGNN,2002-03-14 03:00,ZGNN 140300Z AUTO 18004KT 6SM 23/21 A2988 RMK SLP124 T02290206 52011 IEM_DS3505
ZGNN,2002-03-14 04:00,ZGNN 140400Z AUTO 15006KT 7SM 24/20 A2985 RMK T02400200 IEM_DS3505
ZGNN,2002-03-14 05:00,ZGNN 140500Z AUTO 13004KT 7SM 24/20 A2985 RMK T02400200 IEM_DS3505
ZGNN,2002-03-14 06:00,ZGNN 140600Z AUTO 18006KT 11SM 26/21 A2980 RMK SLP092 T02570212 57031 IEM_DS3505
ZGNN,2002-03-14 07:00,ZGNN 140700Z AUTO 7SM 27/20 A2977 RMK T02700200 IEM_DS3505
ZGNN,2002-03-14 08:00,ZGNN 140800Z AUTO 7SM 26/20 A2974 RMK T02600200 IEM_DS3505
ZGNN,2002-03-14 09:00,ZGNN 140900Z AUTO 18004KT 11SM 28/21 A2974 RMK SLP072 T02760211 57020 IEM_DS3505
ZGNN,2002-03-14 10:00,ZGNN 141000Z AUTO 12006KT 7SM 26/20 A2974 RMK T02600200 IEM_DS3505
ZGNN,2002-03-14 11:00,ZGNN 141100Z AUTO 13004KT 7SM 25/20 A2977 RMK T02500200 IEM_DS3505
ZGNN,2002-03-14 12:00,ZGNN 141200Z AUTO 00000KT 9SM 24/21 A2977 RMK SLP090 T02420214 52017 IEM_DS3505
ZGNN,2002-03-14 13:00,ZGNN 141300Z AUTO 00000KT 6SM 23/20 A2980 RMK T02300200 IEM_DS3505
ZGNN,2002-03-14 14:00,ZGNN 141400Z AUTO 06002KT 6SM 22/20 A2983 RMK T02200200 IEM_DS3505
ZGNN,2002-03-14 15:00,ZGNN 141500Z AUTO 00000KT 9SM 21/20 A2983 RMK SLP105 T02110202 52015 IEM_DS3505
ZGNN,2002-03-14 16:00,ZGNN 141600Z AUTO 02002KT 3SM 20/19 A2983 RMK T02000190 IEM_DS3505
ZGNN,2002-03-14 17:00,ZGNN 141700Z AUTO 02002KT 2 1/2SM 21/19 A2983 RMK T02100190 IEM_DS3505
ZGNN,2002-03-14 18:00,ZGNN 141800Z AUTO 00000KT 9SM 21/20 A2983 RMK SLP098 T02100202 57006 IEM_DS3505
ZGNN,2002-03-14 19:00,ZGNN 141900Z AUTO 02002KT 3SM 21/19 A2980 RMK T02100190 IEM_DS3505
ZGNN,2002-03-14 20:00,ZGNN 142000Z AUTO 00000KT 3SM 21/19 A2980 RMK T02100190 IEM_DS3505
ZGNN,2002-03-14 21:00,ZGNN 142100Z AUTO 00000KT 7SM 22/21 A2980 RMK SLP089 T02150206 57009 IEM_DS3505
ZGNN,2002-03-14 22:00,ZGNN 142200Z AUTO 05002KT 3SM 21/19 A2980 RMK T02100190 IEM_DS3505
ZGNN,2002-03-14 23:00,ZGNN 142300Z AUTO 00000KT 2SM 21/20 A2983 RMK T02100200 IEM_DS3505
ZGNN,2002-03-15 00:00,ZGNN 150000Z AUTO 00000KT 2SM 21/21 A2983 RMK SLP108 T02120206 52018 IEM_DS3505
ZGNN,2002-03-15 01:00,ZGNN 150100Z AUTO 2SM 22/20 A2985 RMK T02200200 IEM_DS3505
ZGNN,2002-03-15 02:00,ZGNN 150200Z AUTO 3SM 23/20 A2985 RMK T02300200 IEM_DS3505
ZGNN,2002-03-15 03:00,ZGNN 150300Z AUTO 14002KT 6SM 25/22 A2985 RMK SLP109 T02480215 52001 IEM_DS3505
ZGNN,2002-03-15 04:00,ZGNN 150400Z AUTO 7SM 27/21 A2983 RMK T02700210 IEM_DS3505
ZGNN,2002-03-15 05:00,ZGNN 150500Z AUTO 7SM 28/20 A2980 RMK T02800200 IEM_DS3505
ZGNN,2002-03-15 06:00,ZGNN 150600Z AUTO 16004KT 12SM 29/22 A2977 RMK SLP075 T02860215 57032 IEM_DS3505
ZGNN,2002-03-15 07:00,ZGNN 150700Z AUTO 7SM 30/21 A2971 RMK T03000210 IEM_DS3505
ZGNN,2002-03-15 08:00,ZGNN 150800Z AUTO 7SM 30/20 A2971 RMK T03000200 IEM_DS3505
ZGNN,2002-03-15 09:00,ZGNN 150900Z AUTO 16002KT 9SM 30/21 A2971 RMK SLP059 T03020214 57016 IEM_DS3505
ZGNN,2002-03-15 10:00,ZGNN 151000Z AUTO 09006KT 7SM 29/21 A2971 RMK T02900210 IEM_DS3505
ZGNN,2002-03-15 11:00,ZGNN 151100Z AUTO 09004KT 7SM 28/21 A2974 RMK T02800210 IEM_DS3505
ZGNN,2002-03-15 12:00,ZGNN 151200Z AUTO 00000KT 7SM 27/22 A2974 RMK SLP078 T02660224 52018 IEM_DS3505
ZGNN,2002-03-15 13:00,ZGNN 151300Z AUTO 05008KT 7SM 25/21 A2980 RMK T02500210 IEM_DS3505
ZGNN,2002-03-15 14:00,ZGNN 151400Z AUTO 05014KT 7SM 22/19 A2983 RMK T02200190 IEM_DS3505
ZGNN,2002-03-15 15:00,ZGNN 151500Z AUTO 07004KT 7SM 21/18 A2985 RMK SLP118 T02100176 52039 IEM_DS3505
ZGNN,2002-03-15 18:00,ZGNN 151800Z AUTO 07002KT 7SM 20/15 RMK SLP118 T01990152 52001 IEM_DS3505
ZGNN,2002-03-15 21:00,ZGNN 152100Z AUTO 00000KT 7SM 19/14 A2985 RMK SLP111 T01900142 57007 IEM_DS3505
ZGNN,2002-03-15 22:00,ZGNN 152200Z AUTO 36002KT 7SM 19/13 A2985 RMK T01900130 IEM_DS3505
ZGNN,2002-03-15 23:00,ZGNN 152300Z AUTO 03004KT 7SM 19/13 A2988 RMK T01900130 IEM_DS3505
ZGNN,2002-03-16 00:00,ZGNN 160000Z AUTO 00000KT 16SM 19/14 A2991 RMK SLP130 T01880140 52018 IEM_DS3505
ZGNN,2002-03-16 01:00,ZGNN 160100Z AUTO 05004KT 7SM 19/13 A2994 RMK T01900130 IEM_DS3505
ZGNN,2002-03-16 02:00,ZGNN 160200Z AUTO 05006KT 7SM 19/13 A2994 RMK T01900130 IEM_DS3505
ZGNN,2002-03-16 03:00,ZGNN 160300Z AUTO 09002KT 16SM 19/14 A2994 RMK SLP146 T01940137 52014 IEM_DS3505
ZGNN,2002-03-16 04:00,ZGNN 160400Z AUTO 7SM 21/14 A2994 RMK T02100140 IEM_DS3505
ZGNN,2002-03-16 05:00,ZGNN 160500Z AUTO 7SM 21/14 A2991 RMK T02100140 IEM_DS3505
ZGNN,2002-03-16 06:00,ZGNN 160600Z AUTO 02004KT 14SM 21/14 A2988 RMK SLP120 T02110145 57025 IEM_DS3505
ZGNN,2002-03-16 07:00,ZGNN 160700Z AUTO 05006KT 7SM 21/14 A2985 RMK T02100140 IEM_DS3505
ZGNN,2002-03-16 08:00,ZGNN 160800Z AUTO 06004KT 7SM 21/14 A2983 RMK T02100140 IEM_DS3505
ZGNN,2002-03-16 09:00,ZGNN 160900Z AUTO 09004KT 11SM 21/15 A2983 RMK SLP104 T02130146 57016 IEM_DS3505
ZGNN,2002-03-16 10:00,ZGNN 161000Z AUTO 06006KT 7SM RMK IEM_DS3505
ZGNN,2002-03-16 11:00,ZGNN 161100Z AUTO 06006KT 7SM 20/14 A2985 RMK T02000140 IEM_DS3505
ZGNN,2002-03-16 12:00,ZGNN 161200Z AUTO 00000KT 11SM 20/15 A2988 RMK SLP123 T01980153 52018 IEM_DS3505
ZGNN,2002-03-16 13:00,ZGNN 161300Z AUTO 07006KT 7SM 19/14 A2991 RMK T01900140 IEM_DS3505
ZGNN,2002-03-16 14:00,ZGNN 161400Z AUTO 09004KT 7SM 19/14 A2994 RMK T01900140 IEM_DS3505
ZGNN,2002-03-16 15:00,ZGNN 161500Z AUTO 00000KT 9SM 19/15 A2997 RMK SLP153 T01900146 52030 IEM_DS3505
ZGNN,2002-03-16 16:00,ZGNN 161600Z AUTO 03006KT 7SM 19/14 A3000 RMK T01900140 IEM_DS3505
ZGNN,2002-03-16 17:00,ZGNN 161700Z AUTO 04006KT 7SM 18/14 A3000 RMK T01800140 IEM_DS3505
ZGNN,2002-03-16 18:00,ZGNN 161800Z AUTO 00000KT 9SM 18/15 A3000 RMK SLP158 T01840146 52005 IEM_DS3505
ZGNN,2002-03-16 19:00,ZGNN 161900Z AUTO 01006KT 7SM 19/14 A3000 RMK T01900140 IEM_DS3505
ZGNN,2002-03-16 20:00,ZGNN 162000Z AUTO 36004KT 7SM 18/14 A3000 RMK T01800140 IEM_DS3505
ZGNN,2002-03-16 21:00,ZGNN 162100Z AUTO 34006KT 9SM 18/14 A3000 RMK 70003 SLP165 T01770137 52007 IEM_DS3505
ZGNN,2002-03-16 22:00,ZGNN 162200Z AUTO 35008KT 7SM 17/13 A3003 RMK T01700130 IEM_DS3505
ZGNN,2002-03-16 23:00,ZGNN 162300Z AUTO 35006KT 7SM 17/13 A3006 RMK T01700130 IEM_DS3505
ZGNN,2002-03-17 00:00,ZGNN 170000Z AUTO 34006KT 9SM 18/13 A3009 RMK 60003 SLP196 T01770131 52030 IEM_DS3505
ZGNN,2002-03-17 01:00,ZGNN 170100Z AUTO 35006KT 7SM 18/13 A3012 RMK T01800130 IEM_DS3505
ZGNN,2002-03-17 02:00,ZGNN 170200Z AUTO 35006KT 7SM 18/13 A3015 RMK T01800130 IEM_DS3505
ZGNN,2002-03-17 03:00,ZGNN 170300Z AUTO 36006KT 9SM 18/14 A3015 RMK SLP211 T01840139 52015 IEM_DS3505
ZGNN,2002-03-17 04:00,ZGNN 170400Z AUTO 35008KT 7SM 18/13 A3015 RMK T01800130 IEM_DS3505
ZGNN,2002-03-17 05:00,ZGNN 170500Z AUTO 34008KT 7SM 18/13 A3012 RMK T01800130 IEM_DS3505
ZGNN,2002-03-17 06:00,ZGNN 170600Z AUTO 34008KT 9SM 19/13 A3009 RMK SLP194 T01860134 57017 IEM_DS3505
ZGNN,2002-03-17 07:00,ZGNN 170700Z AUTO 35006KT 7SM 18/13 A3009 RMK T01800130 IEM_DS3505
ZGNN,2002-03-17 08:00,ZGNN 170800Z AUTO 33006KT 7SM 18/13 A3006 RMK T01800130 IEM_DS3505
ZGNN,2002-03-17 09:00,ZGNN 170900Z AUTO 04004KT 11SM 19/13 A3006 RMK SLP183 T01860126 57011 IEM_DS3505
ZGNN,2002-03-17 10:00,ZGNN 171000Z AUTO 33008KT 7SM 18/12 A3012 RMK T01800120 IEM_DS3505
ZGNN,2002-03-17 11:00,ZGNN 171100Z AUTO 36006KT 7SM 17/12 A3012 RMK T01700120 IEM_DS3505
ZGNN,2002-03-17 12:00,ZGNN 171200Z AUTO 32002KT 9SM 17/13 A3012 RMK 60003 SLP207 T01680133 52023 IEM_DS3505
ZGNN,2002-03-17 13:00,ZGNN 171300Z AUTO 33006KT 7SM 17/13 A3015 RMK T01700130 IEM_DS3505
ZGNN,2002-03-17 14:00,ZGNN 171400Z AUTO 7SM 16/13 A3018 RMK T01600130 IEM_DS3505
ZGNN,2002-03-17 15:00,ZGNN 171500Z AUTO 34004KT 9SM 16/14 A3021 RMK SLP232 T01600139 52025 IEM_DS3505
ZGNN,2002-03-17 16:00,ZGNN 171600Z AUTO 31004KT 7SM 16/13 A3021 RMK T01600130 IEM_DS3505
ZGNN,2002-03-17 17:00,ZGNN 171700Z AUTO 33006KT 7SM 16/14 A3021 RMK T01600140 IEM_DS3505
ZGNN,2002-03-17 18:00,ZGNN 171800Z AUTO 34006KT 9SM 16/13 A3021 RMK 60000 SLP234 T01580129 52001 IEM_DS3505
ZGNN,2002-03-17 19:00,ZGNN 171900Z AUTO 00000KT 7SM 15/13 A3021 RMK T01500130 IEM_DS3505
ZGNN,2002-03-17 20:00,ZGNN 172000Z AUTO 7SM 15/13 A3018 RMK T01500130 IEM_DS3505
ZGNN,2002-03-17 21:00,ZGNN 172100Z AUTO 32004KT 8SM 15/13 A3015 RMK 70000 SLP218 T01500132 57015 IEM_DS3505
ZGNN,2002-03-17 22:00,ZGNN 172200Z AUTO 33002KT 7SM 15/12 A3015 RMK T01500120 IEM_DS3505
ZGNN,2002-03-17 23:00,ZGNN 172300Z AUTO 7SM 15/12 A3021 RMK T01500120 IEM_DS3505
ZGNN,2002-03-18 00:00,ZGNN 180000Z AUTO 34004KT 5SM 15/13 A3021 RMK 60003 SLP239 T01520130 52020 IEM_DS3505
ZGNN,2002-03-18 01:00,ZGNN 180100Z AUTO 35004KT 7SM 15/13 A3024 RMK T01500130 IEM_DS3505
ZGNN,2002-03-18 02:00,ZGNN 180200Z AUTO 02004KT 7SM 16/13 A3027 RMK T01600130 IEM_DS3505
ZGNN,2002-03-18 03:00,ZGNN 180300Z AUTO 00000KT 5SM 16/14 A3027 RMK SLP252 T01620135 52013 IEM_DS3505
ZGNN,2002-03-18 04:00,ZGNN 180400Z AUTO 7SM 16/13 A3027 RMK T01600130 IEM_DS3505
ZGNN,2002-03-18 05:00,ZGNN 180500Z AUTO 2 1/2SM 16/14 A3027 RMK T01600140 IEM_DS3505
ZGNN,2002-03-18 06:00,ZGNN 180600Z AUTO 07004KT 7SM 17/14 A3018 RMK 60012 SLP225 T01660140 57027 IEM_DS3505
ZGNN,2002-03-18 07:00,ZGNN 180700Z AUTO 7SM 17/13 A3018 RMK T01700130 IEM_DS3505
ZGNN,2002-03-18 08:00,ZGNN 180800Z AUTO 7SM 18/13 A3015 RMK T01800130 IEM_DS3505
ZGNN,2002-03-18 09:00,ZGNN 180900Z AUTO 14002KT 9SM 18/14 A3015 RMK SLP214 T01800140 57011 IEM_DS3505
ZGNN,2002-03-18 10:00,ZGNN 181000Z AUTO 7SM 18/13 A3015 RMK T01800130 IEM_DS3505
ZGNN,2002-03-18 11:00,ZGNN 181100Z AUTO 09004KT 7SM 17/14 A3012 RMK T01700140 IEM_DS3505
ZGNN,2002-03-18 12:00,ZGNN 181200Z AUTO 00000KT 5SM 17/14 A3015 RMK SLP214 T01710141 54000 IEM_DS3505
ZGNN,2002-03-18 13:00,ZGNN 181300Z AUTO 7SM 17/14 A3015 RMK T01700140 IEM_DS3505
ZGNN,2002-03-18 14:00,ZGNN 181400Z AUTO 4SM 17/14 A3015 RMK T01700140 IEM_DS3505
ZGNN,2002-03-18 15:00,ZGNN 181500Z AUTO 11004KT 5SM 17/15 A3015 RMK SLP220 T01680149 52006 IEM_DS3505
ZGNN,2002-03-18 16:00,ZGNN 181600Z AUTO 02004KT RMK IEM_DS3505
ZGNN,2002-03-18 17:00,ZGNN 181700Z AUTO 36004KT 4SM RMK IEM_DS3505
ZGNN,2002-03-18 18:00,ZGNN 181800Z AUTO 05004KT 1SM RMK IEM_DS3505
ZGNN,2002-03-18 19:00,ZGNN 181900Z AUTO 3/8SM RMK IEM_DS3505
ZGNN,2002-03-18 20:00,ZGNN 182000Z AUTO 11002KT 3/8SM RMK IEM_DS3505
ZGNN,2002-03-18 21:00,ZGNN 182100Z AUTO 16002KT 2SM 15/15 A3012 RMK 70015 SLP201 T01530151 57018 IEM_DS3505
ZGNN,2002-03-18 22:00,ZGNN 182200Z AUTO 16004KT 1 1/4SM 15/14 A3012 RMK T01500140 IEM_DS3505
ZGNN,2002-03-18 23:00,ZGNN 182300Z AUTO 00000KT 1 1/4SM 15/14 A3015 RMK T01500140 IEM_DS3505
ZGNN,2002-03-19 00:00,ZGNN 190000Z AUTO 07004KT 1 1/4SM 16/15 A3015 RMK 60004 SLP216 T01550150 52014 IEM_DS3505
ZGNN,2002-03-19 01:00,ZGNN 190100Z AUTO 07004KT 1 1/4SM 15/14 A3015 RMK T01500140 IEM_DS3505
ZGNN,2002-03-19 02:00,ZGNN 190200Z AUTO 4SM 16/14 A3015 RMK T01600140 IEM_DS3505
ZGNN,2002-03-19 03:00,ZGNN 190300Z AUTO 09006KT 3SM 16/15 A3015 RMK SLP217 T01600148 52001 IEM_DS3505
ZGNN,2002-03-19 04:00,ZGNN 190400Z AUTO 05006KT 2 1/2SM 16/15 A3015 RMK T01600150 IEM_DS3505
ZGNN,2002-03-19 05:00,ZGNN 190500Z AUTO 10004KT 3SM 17/15 A3009 RMK T01700150 IEM_DS3505
ZGNN,2002-03-19 06:00,ZGNN 190600Z AUTO 09004KT 4SM 18/16 A3006 RMK SLP186 T01780165 57030 IEM_DS3505
ZGNN,2002-03-19 07:00,ZGNN 190700Z AUTO 04006KT 4SM 18/16 A3003 RMK T01800160 IEM_DS3505
ZGNN,2002-03-19 08:00,ZGNN 190800Z AUTO 08006KT 4SM 19/17 A3000 RMK T01900170 IEM_DS3505
ZGNN,2002-03-19 09:00,ZGNN 190900Z AUTO 09004KT 4SM 20/18 A3000 RMK SLP160 T01980175 57025 IEM_DS3505
ZGNN,2002-03-19 10:00,ZGNN 191000Z AUTO 10004KT 7SM 20/17 A3000 RMK T02000170 IEM_DS3505
ZGNN,2002-03-19 11:00,ZGNN 191100Z AUTO 11004KT 4SM 19/17 A3000 RMK T01900170 IEM_DS3505
ZGNN,2002-03-19 12:00,ZGNN 191200Z AUTO 00000KT 4SM 19/18 A3000 RMK SLP168 T01930180 52008 IEM_DS3505
ZGNN,2002-03-19 13:00,ZGNN 191300Z AUTO 05002KT 4SM 19/17 A3003 RMK T01900170 IEM_DS3505
ZGNN,2002-03-19 14:00,ZGNN 191400Z AUTO 19002KT 2 1/2SM 18/17 A3003 RMK T01800170 IEM_DS3505
ZGNN,2002-03-19 15:00,ZGNN 191500Z AUTO 00000KT 4SM 19/18 A3003 RMK SLP179 T01880182 52010 IEM_DS3505
ZGNN,2002-03-19 16:00,ZGNN 191600Z AUTO 00000KT 1SM 17/16 A3003 RMK T01700160 IEM_DS3505
ZGNN,2002-03-19 17:00,ZGNN 191700Z AUTO 1SM 17/16 A3003 RMK T01700160 IEM_DS3505
ZGNN,2002-03-19 18:00,ZGNN 191800Z AUTO 00000KT 3SM 18/18 A3000 RMK SLP162 T01850180 57016 IEM_DS3505
ZGNN,2002-03-19 19:00,ZGNN 191900Z AUTO 2SM 19/18 A2997 RMK T01900180 IEM_DS3505
ZGNN,2002-03-19 20:00,ZGNN 192000Z AUTO 2SM 20/18 A2997 RMK T02000180 IEM_DS3505
ZGNN,2002-03-19 21:00,ZGNN 192100Z AUTO 18002KT 4SM 20/19 A2994 RMK 70000 SLP148 T01990188 57013 IEM_DS3505
ZGNN,2002-03-19 22:00,ZGNN 192200Z AUTO 15004KT 2SM 20/18 A2997 RMK T02000180 IEM_DS3505
ZGNN,2002-03-19 23:00,ZGNN 192300Z AUTO 1 1/2SM 19/18 A2997 RMK T01900180 IEM_DS3505
ZGNN,2002-03-20 00:00,ZGNN 200000Z AUTO 22002KT 1 1/4SM 20/19 A3000 RMK SLP163 T01980189 52015 IEM_DS3505
ZGNN,2002-03-20 01:00,ZGNN 200100Z AUTO 22006KT 3/8SM 17/17 A3003 RMK T01700170 IEM_DS3505
ZGNN,2002-03-20 02:00,ZGNN 200200Z AUTO 1SM 18/17 A3003 RMK T01800170 IEM_DS3505
ZGNN,2002-03-20 03:00,ZGNN 200300Z AUTO 29004KT 2 1/2SM 21/19 A3000 RMK SLP168 T02060187 52005 IEM_DS3505
ZGNN,2002-03-20 04:00,ZGNN 200400Z AUTO 20006KT 7SM 25/18 A2997 RMK T02500180 IEM_DS3505
ZGNN,2002-03-20 05:00,ZGNN 200500Z AUTO 15006KT 7SM 25/18 A2994 RMK T02500180 IEM_DS3505
ZGNN,2002-03-20 06:00,ZGNN 200600Z AUTO 16002KT 9SM 26/19 A2988 RMK SLP121 T02550192 57045 IEM_DS3505
ZGNN,2002-03-20 07:00,ZGNN 200700Z AUTO 15008KT 7SM 26/18 A2985 RMK T02600180 IEM_DS3505
ZGNN,2002-03-20 08:00,ZGNN 200800Z AUTO 13006KT 7SM 27/18 A2983 RMK T02700180 IEM_DS3505
ZGNN,2002-03-20 09:00,ZGNN 200900Z AUTO 14008KT 8SM 26/19 A2980 RMK SLP099 T02610189 57022 IEM_DS3505
ZGNN,2002-03-20 10:00,ZGNN 201000Z AUTO 14012KT 7SM 25/18 A2983 RMK T02500180 IEM_DS3505
ZGNN,2002-03-20 11:00,ZGNN 201100Z AUTO 15010KT 7SM 24/18 A2983 RMK T02400180 IEM_DS3505
ZGNN,2002-03-20 12:00,ZGNN 201200Z AUTO 18006KT 6SM 23/19 A2983 RMK SLP107 T02340191 52008 IEM_DS3505
ZGNN,2002-03-20 13:00,ZGNN 201300Z AUTO 7SM 22/18 A2988 RMK T02200180 IEM_DS3505
ZGNN,2002-03-20 14:00,ZGNN 201400Z AUTO 7SM 21/18 A2991 RMK T02100180 IEM_DS3505
ZGNN,2002-03-20 15:00,ZGNN 201500Z AUTO 18002KT 5SM 22/19 A2991 RMK SLP133 T02180191 52025 IEM_DS3505
ZGNN,2002-03-20 16:00,ZGNN 201600Z AUTO 00000KT 7SM 21/18 A2991 RMK T02100180 IEM_DS3505
ZGNN,2002-03-20 17:00,ZGNN 201700Z AUTO 29002KT 7SM 20/18 A2991 RMK T02000180 IEM_DS3505
ZGNN,2002-03-20 18:00,ZGNN 201800Z AUTO 14004KT 4SM 20/19 A2991 RMK SLP128 T02020189 57004 IEM_DS3505
ZGNN,2002-03-20 19:00,ZGNN 201900Z AUTO 04004KT 3SM 18/17 A2988 RMK T01800170 IEM_DS3505
ZGNN,2002-03-20 20:00,ZGNN 202000Z AUTO 02004KT 4SM 18/17 A2988 RMK T01800170 IEM_DS3505
ZGNN,2002-03-20 21:00,ZGNN 202100Z AUTO 00000KT 5SM 18/18 A2988 RMK SLP121 T01820179 57007 IEM_DS3505
ZGNN,2002-03-20 22:00,ZGNN 202200Z AUTO 00000KT 2 1/2SM 18/17 A2988 RMK T01800170 IEM_DS3505
ZGNN,2002-03-20 23:00,ZGNN 202300Z AUTO 00000KT 2 1/2SM 19/18 A2991 RMK T01900180 IEM_DS3505
ZGNN,2002-03-21 00:00,ZGNN 210000Z AUTO 00000KT 1 1/4SM 19/19 A2991 RMK SLP131 T01920189 52009 IEM_DS3505
ZGNN,2002-03-21 01:00,ZGNN 210100Z AUTO 00000KT 2 1/2SM 20/19 A2991 RMK T02000190 IEM_DS3505
ZGNN,2002-03-21 02:00,ZGNN 210200Z AUTO 15006KT 2 1/2SM 22/19 A2991 RMK T02200190 IEM_DS3505
ZGNN,2002-03-21 03:00,ZGNN 210300Z AUTO 20004KT 4SM 23/20 A2991 RMK SLP130 T02270199 54000 IEM_DS3505
ZGNN,2002-03-21 04:00,ZGNN 210400Z AUTO 18008KT 7SM 24/19 A2988 RMK T02400190 IEM_DS3505
ZGNN,2002-03-21 05:00,ZGNN 210500Z AUTO 17006KT 7SM 25/19 A2985 RMK T02500190 IEM_DS3505
ZGNN,2002-03-21 06:00,ZGNN 210600Z AUTO 14006KT 11SM 25/20 A2980 RMK SLP092 T02480198 57038 IEM_DS3505
ZGNN,2002-03-21 07:00,ZGNN 210700Z AUTO 16010KT 7SM 25/19 A2977 RMK T02500190 IEM_DS3505
ZGNN,2002-03-21 08:00,ZGNN 210800Z AUTO 16010KT 7SM 25/19 A2974 RMK T02500190 IEM_DS3505
ZGNN,2002-03-21 09:00,ZGNN 210900Z AUTO 18006KT 16SM 25/20 A2971 RMK SLP066 T02460199 57026 IEM_DS3505
ZGNN,2002-03-21 10:00,ZGNN 211000Z AUTO 15008KT 7SM 24/19 A2971 RMK T02400190 IEM_DS3505
ZGNN,2002-03-21 11:00,ZGNN 211100Z AUTO 15008KT 7SM 23/19 A2971 RMK T02300190 IEM_DS3505
ZGNN,2002-03-21 12:00,ZGNN 211200Z AUTO 18006KT 9SM 23/20 A2974 RMK SLP069 T02310197 52003 IEM_DS3505
ZGNN,2002-03-21 13:00,ZGNN 211300Z AUTO 16008KT 7SM 22/19 A2974 RMK T02200190 IEM_DS3505
ZGNN,2002-03-21 14:00,ZGNN 211400Z AUTO 16006KT 7SM 22/19 A2974 RMK T02200190 IEM_DS3505
ZGNN,2002-03-21 15:00,ZGNN 211500Z AUTO 00000KT 9SM 22/19 A2977 RMK SLP080 T02150193 52011 IEM_DS3505
ZGNN,2002-03-21 16:00,ZGNN 211600Z AUTO 7SM 20/18 A2974 RMK T02000180 IEM_DS3505
ZGNN,2002-03-21 17:00,ZGNN 211700Z AUTO 20002KT 7SM 19/18 A2974 RMK T01900180 IEM_DS3505
ZGNN,2002-03-21 18:00,ZGNN 211800Z AUTO 00000KT 7SM 19/18 A2974 RMK SLP068 T01870182 57012 IEM_DS3505
ZGNN,2002-03-21 19:00,ZGNN 211900Z AUTO 05004KT 1SM 18/17 A2971 RMK T01800170 IEM_DS3505
ZGNN,2002-03-21 20:00,ZGNN 212000Z AUTO 1 1/2SM 18/17 A2968 RMK T01800170 IEM_DS3505
ZGNN,2002-03-21 21:00,ZGNN 212100Z AUTO 00000KT 1 1/4SM 17/17 A2968 RMK SLP056 T01740172 57012 IEM_DS3505
ZGNN,2002-03-21 22:00,ZGNN 212200Z AUTO 1 1/2SM 18/17 A2971 RMK T01800170 IEM_DS3505
ZGNN,2002-03-21 23:00,ZGNN 212300Z AUTO 1 1/4SM 19/18 A2974 RMK T01900180 IEM_DS3505
ZGNN,2002-03-22 00:00,ZGNN 220000Z AUTO 09002KT 1 1/4SM 20/19 A2974 RMK SLP079 T01970192 52023 IEM_DS3505
ZGNN,2002-03-22 01:00,ZGNN 220100Z AUTO 1 1/2SM 20/19 A2977 RMK T02000190 IEM_DS3505
ZGNN,2002-03-22 02:00,ZGNN 220200Z AUTO 00000KT 3SM 21/19 A2980 RMK T02100190 IEM_DS3505
ZGNN,2002-03-22 03:00,ZGNN 220300Z AUTO 27004KT 6SM 24/21 A2980 RMK SLP086 T02390207 52007 IEM_DS3505
ZGNN,2002-03-22 04:00,ZGNN 220400Z AUTO 21006KT 7SM 27/19 A2974 RMK T02700190 IEM_DS3505
ZGNN,2002-03-22 05:00,ZGNN 220500Z AUTO 21006KT 7SM 27/19 A2971 RMK T02700190 IEM_DS3505
ZGNN,2002-03-22 06:00,ZGNN 220600Z AUTO 18006KT 12SM 28/21 A2968 RMK SLP054 T02840210 57031 IEM_DS3505
ZGNN,2002-03-22 07:00,ZGNN 220700Z AUTO 7SM 29/19 A2965 RMK T02900190 IEM_DS3505
ZGNN,2002-03-22 08:00,ZGNN 220800Z AUTO 07006KT 7SM 30/20 A2962 RMK T03000200 IEM_DS3505
ZGNN,2002-03-22 09:00,ZGNN 220900Z AUTO 14004KT 12SM 30/20 A2962 RMK SLP034 T02990205 57019 IEM_DS3505
ZGNN,2002-03-22 10:00,ZGNN 221000Z AUTO 10008KT 7SM 28/21 A2965 RMK T02800210 IEM_DS3505
ZGNN,2002-03-22 11:00,ZGNN 221100Z AUTO 10008KT 7SM 26/21 A2968 RMK T02600210 IEM_DS3505
ZGNN,2002-03-22 12:00,ZGNN 221200Z AUTO 11006KT 9SM 25/22 A2971 RMK SLP065 T02530224 52030 IEM_DS3505
ZGNN,2002-03-22 13:00,ZGNN 221300Z AUTO 09006KT 7SM 24/21 A2974 RMK T02400210 IEM_DS3505
ZGNN,2002-03-22 14:00,ZGNN 221400Z AUTO 09006KT 7SM 24/21 A2977 RMK T02400210 IEM_DS3505
ZGNN,2002-03-22 15:00,ZGNN 221500Z AUTO 04004KT 9SM 21/16 A2980 RMK SLP097 T02110160 52031 IEM_DS3505
ZGNN,2002-03-22 16:00,ZGNN 221600Z AUTO 05010KT 7SM 20/15 A2983 RMK T02000150 IEM_DS3505
ZGNN,2002-03-22 17:00,ZGNN 221700Z AUTO 03014KT 7SM 19/13 A2983 RMK T01900130 IEM_DS3505
ZGNN,2002-03-22 18:00,ZGNN 221800Z AUTO 04004KT 7SM 18/13 RMK SLP106 T01840128 52009 IEM_DS3505
ZGNN,2002-03-22 21:00,ZGNN 222100Z AUTO 04006KT 9SM 17/11 A2983 RMK SLP103 T01670114 57003 IEM_DS3505
ZGNN,2002-03-22 22:00,ZGNN 222200Z AUTO 08008KT 7SM 16/11 A2983 RMK T01600110 IEM_DS3505
ZGNN,2002-03-22 23:00,ZGNN 222300Z AUTO 04008KT 7SM 16/11 A2985 RMK T01600110 IEM_DS3505
ZGNN,2002-03-23 00:00,ZGNN 230000Z AUTO 04004KT 9SM 16/11 A2988 RMK 60003 SLP124 T01580112 52020 IEM_DS3505
ZGNN,2002-03-23 01:00,ZGNN 230100Z AUTO 05004KT 7SM 16/11 A2991 RMK T01600110 IEM_DS3505
ZGNN,2002-03-23 02:00,ZGNN 230200Z AUTO 04004KT 7SM 16/11 A2991 RMK T01600110 IEM_DS3505
ZGNN,2002-03-23 03:00,ZGNN 230300Z AUTO 04004KT 9SM 17/12 A2991 RMK SLP137 T01690120 52012 IEM_DS3505
ZGNN,2002-03-23 04:00,ZGNN 230400Z AUTO 7SM 17/11 A2991 RMK T01700110 IEM_DS3505
ZGNN,2002-03-23 05:00,ZGNN 230500Z AUTO 7SM 17/12 A2985 RMK T01700120 IEM_DS3505
ZGNN,2002-03-23 06:00,ZGNN 230600Z AUTO 00000KT 7SM 17/12 A2983 RMK SLP100 T01720124 57037 IEM_DS3505
ZGNN,2002-03-23 07:00,ZGNN 230700Z AUTO 35004KT 4SM 17/12 A2980 RMK T01700120 IEM_DS3505
ZGNN,2002-03-23 08:00,ZGNN 230800Z AUTO 36004KT 4SM 17/12 A2977 RMK T01700120 IEM_DS3505
ZGNN,2002-03-23 09:00,ZGNN 230900Z AUTO 34004KT 6SM 17/13 A2980 RMK SLP092 T01730127 57009 IEM_DS3505
ZGNN,2002-03-23 10:00,ZGNN 231000Z AUTO 02006KT 3SM 17/12 A2977 RMK T01700120 IEM_DS3505
ZGNN,2002-03-23 11:00,ZGNN 231100Z AUTO 04004KT 3SM 16/12 A2980 RMK T01600120 IEM_DS3505
ZGNN,2002-03-23 12:00,ZGNN 231200Z AUTO 09004KT 6SM 16/13 A2980 RMK 60003 SLP098 T01650131 52006 IEM_DS3505
ZGNN,2002-03-23 13:00,ZGNN 231300Z AUTO 11006KT 2 1/2SM 16/13 A2983 RMK T01600130 IEM_DS3505
ZGNN,2002-03-23 14:00,ZGNN 231400Z AUTO 2 1/2SM 15/13 A2985 RMK T01500130 IEM_DS3505
ZGNN,2002-03-23 15:00,ZGNN 231500Z AUTO 00000KT 6SM 16/13 A2983 RMK SLP107 T01550132 52009 IEM_DS3505
ZGNN,2002-03-23 16:00,ZGNN 231600Z AUTO 2 1/2SM 15/13 A2983 RMK T01500130 IEM_DS3505
ZGNN,2002-03-23 17:00,ZGNN 231700Z AUTO 12004KT 3SM 15/13 A2980 RMK T01500130 IEM_DS3505
ZGNN,2002-03-23 18:00,ZGNN 231800Z AUTO 32006KT 5SM 16/14 A2983 RMK 60003 SLP100 T01580141 57007 IEM_DS3505
ZGNN,2002-03-23 19:00,ZGNN 231900Z AUTO 10006KT 2SM 15/14 A2977 RMK T01500140 IEM_DS3505
ZGNN,2002-03-23 20:00,ZGNN 232000Z AUTO 01006KT 1 1/2SM 15/14 A2980 RMK T01500140 IEM_DS3505
ZGNN,2002-03-23 21:00,ZGNN 232100Z AUTO 36006KT 4SM 16/15 A2980 RMK 70005 SLP094 T01590152 57006 IEM_DS3505
ZGNN,2002-03-23 23:00,ZGNN 232300Z AUTO 1 1/2SM 16/14 A2985 RMK T01600140 IEM_DS3505
ZGNN,2002-03-24 00:00,ZGNN 240000Z AUTO 09004KT 2SM 16/15 A2985 RMK 60004 SLP117 T01610151 52023 IEM_DS3505
ZGNN,2002-03-24 01:00,ZGNN 240100Z AUTO 1 1/2SM 16/15 A2988 RMK T01600150 IEM_DS3505
ZGNN,2002-03-24 02:00,ZGNN 240200Z AUTO 36008KT 2 1/2SM 15/14 A2991 RMK T01500140 IEM_DS3505
ZGNN,2002-03-24 03:00,ZGNN 240300Z AUTO 02002KT 2 1/2SM 15/14 A2994 RMK SLP144 T01480137 52026 IEM_DS3505
ZGNN,2002-03-24 04:00,ZGNN 240400Z AUTO 35004KT 1 1/2SM 15/13 A2994 RMK T01500130 IEM_DS3505
ZGNN,2002-03-24 05:00,ZGNN 240500Z AUTO 35006KT 3SM 15/13 A2991 RMK T01500130 IEM_DS3505
ZGNN,2002-03-24 06:00,ZGNN 240600Z AUTO 36006KT 3SM 15/14 A2988 RMK 60001 SLP127 T01470138 57017 IEM_DS3505
ZGNN,2002-03-24 07:00,ZGNN 240700Z AUTO 36006KT 7SM 15/13 A2985 RMK T01500130 IEM_DS3505
ZGNN,2002-03-24 08:00,ZGNN 240800Z AUTO 01006KT 7SM 16/12 A2985 RMK T01600120 IEM_DS3505
ZGNN,2002-03-24 09:00,ZGNN 240900Z AUTO 00000KT 6SM 16/13 A2985 RMK SLP111 T01650131 57015 IEM_DS3505
ZGNN,2002-03-24 10:00,ZGNN 241000Z AUTO 7SM 16/12 A2985 RMK T01600120 IEM_DS3505
ZGNN,2002-03-24 11:00,ZGNN 241100Z AUTO 02004KT 7SM 16/13 A2985 RMK T01600130 IEM_DS3505
ZGNN,2002-03-24 12:00,ZGNN 241200Z AUTO 04002KT 9SM 16/13 RMK 60003 SLP123 T01580129 52011 IEM_DS3505
ZGNN,2002-03-24 13:00,ZGNN 241300Z AUTO 04006KT 7SM 15/12 A2991 RMK T01500120 IEM_DS3505
ZGNN,2002-03-24 14:00,ZGNN 241400Z AUTO 04006KT 7SM 15/11 A2994 RMK T01500110 IEM_DS3505
ZGNN,2002-03-24 15:00,ZGNN 241500Z AUTO 07002KT 9SM 15/11 A2994 RMK SLP142 T01480111 52019 IEM_DS3505
ZGNN,2002-03-24 16:00,ZGNN 241600Z AUTO 7SM 15/11 A2994 RMK T01500110 IEM_DS3505
ZGNN,2002-03-24 17:00,ZGNN 241700Z AUTO 07002KT 7SM 14/11 A2994 RMK T01400110 IEM_DS3505
ZGNN,2002-03-24 18:00,ZGNN 241800Z AUTO 00000KT 9SM 15/11 A2991 RMK SLP135 T01460113 57007 IEM_DS3505
ZGNN,2002-03-24 19:00,ZGNN 241900Z AUTO 7SM 14/10 A2991 RMK T01400100 IEM_DS3505
ZGNN,2002-03-24 20:00,ZGNN 242000Z AUTO 02004KT 7SM 14/10 A2991 RMK T01400100 IEM_DS3505
ZGNN,2002-03-24 21:00,ZGNN 242100Z AUTO 00000KT 7SM 14/11 A2988 RMK 70002 SLP130 T01410107 57005 IEM_DS3505
ZGNN,2002-03-24 22:00,ZGNN 242200Z AUTO 05002KT 7SM 14/10 A2991 RMK T01400100 IEM_DS3505
ZGNN,2002-03-24 23:00,ZGNN 242300Z AUTO 7SM 14/11 A2991 RMK T01400110 IEM_DS3505
ZGNN,2002-03-25 00:00,ZGNN 250000Z AUTO 00000KT 6SM 14/11 A2994 RMK 70001 SLP148 T01420106 52018 IEM_DS3505
ZGNN,2002-03-25 01:00,ZGNN 250100Z AUTO 7SM 14/10 A2997 RMK T01400100 IEM_DS3505
ZGNN,2002-03-25 02:00,ZGNN 250200Z AUTO 7SM 15/10 A2997 RMK T01500100 IEM_DS3505
ZGNN,2002-03-25 03:00,ZGNN 250300Z AUTO 14004KT 9SM 16/11 RMK SLP150 T01580114 52002 IEM_DS3505
ZGNN,2002-03-25 04:00,ZGNN 250400Z AUTO 7SM 16/11 A2994 RMK T01600110 IEM_DS3505
ZGNN,2002-03-25 05:00,ZGNN 250500Z AUTO 7SM 16/11 A2991 RMK T01600110 IEM_DS3505
ZGNN,2002-03-25 06:00,ZGNN 250600Z AUTO 09004KT 11SM 16/12 A2988 RMK SLP123 T01650120 57027 IEM_DS3505
ZGNN,2002-03-25 07:00,ZGNN 250700Z AUTO 7SM 17/12 A2985 RMK T01700120 IEM_DS3505
ZGNN,2002-03-25 08:00,ZGNN 250800Z AUTO 7SM 17/12 A2983 RMK T01700120 IEM_DS3505
ZGNN,2002-03-25 09:00,ZGNN 250900Z AUTO 04002KT 7SM 18/13 A2980 RMK SLP095 T01790134 57027 IEM_DS3505
ZGNN,2002-03-25 12:00,ZGNN 251200Z AUTO 00000KT 7SM 18/14 RMK SLP100 T01760143 52005 IEM_DS3505
ZGNN,2002-03-25 14:00,ZGNN 251400Z AUTO 05002KT 7SM 17/14 A2983 RMK T01700140 IEM_DS3505
ZGNN,2002-03-25 15:00,ZGNN 251500Z AUTO 00000KT 7SM 18/15 A2985 RMK SLP116 T01800146 52016 IEM_DS3505
ZGNN,2002-03-25 16:00,ZGNN 251600Z AUTO 00000KT 4SM 18/14 A2985 RMK T01800140 IEM_DS3505
ZGNN,2002-03-25 17:00,ZGNN 251700Z AUTO 00000KT 5SM 18/15 A2985 RMK T01800150 IEM_DS3505
ZGNN,2002-03-25 18:00,ZGNN 251800Z AUTO 00000KT 7SM 18/15 A2983 RMK SLP104 T01780151 57012 IEM_DS3505
ZGNN,2002-03-25 19:00,ZGNN 251900Z AUTO 19002KT 3SM 17/15 A2980 RMK T01700150 IEM_DS3505
ZGNN,2002-03-25 20:00,ZGNN 252000Z AUTO 24004KT 3SM 17/15 A2980 RMK T01700150 IEM_DS3505
ZGNN,2002-03-25 21:00,ZGNN 252100Z AUTO 00000KT 7SM 17/16 A2980 RMK SLP088 T01740157 57015 IEM_DS3505
ZGNN,2002-03-25 22:00,ZGNN 252200Z AUTO 00000KT 5SM 17/14 A2980 RMK T01700140 IEM_DS3505
ZGNN,2002-03-25 23:00,ZGNN 252300Z AUTO 00000KT 2 1/2SM 17/14 A2980 RMK T01700140 IEM_DS3505
ZGNN,2002-03-26 00:00,ZGNN 260000Z AUTO 00000KT 4SM 18/16 A2983 RMK SLP108 T01770162 52020 IEM_DS3505
ZGNN,2002-03-26 01:00,ZGNN 260100Z AUTO 00000KT 2 1/2SM 18/15 A2985 RMK T01800150 IEM_DS3505
ZGNN,2002-03-26 02:00,ZGNN 260200Z AUTO 2 1/2SM 19/15 A2985 RMK T01900150 IEM_DS3505
ZGNN,2002-03-26 03:00,ZGNN 260300Z AUTO 22004KT 4SM 21/18 A2985 RMK SLP108 T02140182 52001 IEM_DS3505
ZGNN,2002-03-26 04:00,ZGNN 260400Z AUTO 18006KT 7SM 25/20 A2983 RMK T02500200 IEM_DS3505
ZGNN,2002-03-26 05:00,ZGNN 260500Z AUTO 14008KT 7SM 25/20 A2980 RMK T02500200 IEM_DS3505
ZGNN,2002-03-26 06:00,ZGNN 260600Z AUTO 14008KT 9SM 27/21 A2977 RMK SLP078 T02660212 57029 IEM_DS3505
ZGNN,2002-03-26 09:00,ZGNN 260900Z AUTO 14008KT 11SM 27/21 RMK SLP057 T02720213 57020 IEM_DS3505
ZGNN,2002-03-26 12:00,ZGNN 261200Z AUTO 00000KT 11SM 24/21 RMK SLP072 T02400210 52014 IEM_DS3505
ZGNN,2002-03-26 15:00,ZGNN 261500Z AUTO 00000KT 10SM 22/20 RMK SLP098 T02160204 52026 IEM_DS3505
ZGNN,2002-03-26 18:00,ZGNN 261800Z AUTO 00000KT 4SM 20/19 RMK SLP089 T01960191 57008 IEM_DS3505
ZGNN,2002-03-26 21:00,ZGNN 262100Z AUTO 00000KT 3SM 21/20 RMK SLP087 T02060203 57002 IEM_DS3505
ZGNN,2002-03-27 00:00,ZGNN 270000Z AUTO 07002KT 2 1/2SM 21/21 RMK SLP109 T02140208 52021 IEM_DS3505
ZGNN,2002-03-27 01:00,ZGNN 270100Z AUTO 2 1/2SM 22/20 A2985 RMK T02200200 IEM_DS3505
ZGNN,2002-03-27 02:00,ZGNN 270200Z AUTO 5SM 24/21 A2985 RMK T02400210 IEM_DS3505
ZGNN,2002-03-27 03:00,ZGNN 270300Z AUTO 18002KT 6SM 25/22 A2985 RMK SLP115 T02500222 52006 IEM_DS3505
ZGNN,2002-03-27 04:00,ZGNN 270400Z AUTO 7SM 27/21 A2985 RMK T02700210 IEM_DS3505
ZGNN,2002-03-27 05:00,ZGNN 270500Z AUTO 7SM 28/21 A2983 RMK T02800210 IEM_DS3505
ZGNN,2002-03-27 06:00,ZGNN 270600Z AUTO 18004G16KT 12SM 29/22 A2977 RMK SLP080 T02930218 57034 IEM_DS3505
ZGNN,2002-03-27 07:00,ZGNN 270700Z AUTO 13008KT 7SM 30/21 A2971 RMK T03000210 IEM_DS3505
ZGNN,2002-03-27 08:00,ZGNN 270800Z AUTO 14008KT 7SM 30/22 A2968 RMK T03000220 IEM_DS3505
ZGNN,2002-03-27 09:00,ZGNN 270900Z AUTO 14008KT 14SM 30/22 A2965 RMK SLP048 T03020221 57031 IEM_DS3505
ZGNN,2002-03-27 10:00,ZGNN 271000Z AUTO 13012KT 6SM 29/21 A2968 RMK T02900210 IEM_DS3505
ZGNN,2002-03-27 11:00,ZGNN 271100Z AUTO 14010KT 6SM 27/21 A2968 RMK T02700210 IEM_DS3505
ZGNN,2002-03-27 12:00,ZGNN 271200Z AUTO 18006KT 14SM 26/22 A2971 RMK SLP064 T02570219 52015 IEM_DS3505
ZGNN,2002-03-27 13:00,ZGNN 271300Z AUTO 7SM 24/21 A2974 RMK T02400210 IEM_DS3505
ZGNN,2002-03-27 14:00,ZGNN 271400Z AUTO 6SM 24/20 A2977 RMK T02400200 IEM_DS3505
ZGNN,2002-03-27 15:00,ZGNN 271500Z AUTO 22004KT 12SM 24/21 RMK SLP080 T02430207 52016 IEM_DS3505
ZGNN,2002-03-27 18:00,ZGNN 271800Z AUTO 00000KT 9SM 23/21 RMK SLP082 T02330209 52003 IEM_DS3505
ZGNN,2002-03-27 21:00,ZGNN 272100Z AUTO 00000KT 4SM 21/20 A2977 RMK SLP075 T02080202 57007 IEM_DS3505
ZGNN,2002-03-27 22:00,ZGNN 272200Z AUTO 4SM 20/19 A2977 RMK T02000190 IEM_DS3505
ZGNN,2002-03-27 23:00,ZGNN 272300Z AUTO 35002KT 2 1/2SM 21/20 A2977 RMK T02100200 IEM_DS3505
ZGNN,2002-03-28 00:00,ZGNN 280000Z AUTO 00000KT 3SM 22/22 A2980 RMK SLP093 T02230216 52017 IEM_DS3505
ZGNN,2002-03-28 01:00,ZGNN 280100Z AUTO 00000KT 2 1/2SM 23/21 A2980 RMK T02300210 IEM_DS3505
ZGNN,2002-03-28 02:00,ZGNN 280200Z AUTO 4SM 24/22 A2983 RMK T02400220 IEM_DS3505
ZGNN,2002-03-28 03:00,ZGNN 280300Z AUTO 18004KT 7SM 26/23 A2983 RMK SLP103 T02620229 52010 IEM_DS3505
ZGNN,2002-03-28 04:00,ZGNN 280400Z AUTO 7SM 28/22 A2983 RMK T02800220 IEM_DS3505
ZGNN,2002-03-28 05:00,ZGNN 280500Z AUTO 7SM 29/21 A2980 RMK T02900210 IEM_DS3505
ZGNN,2002-03-28 06:00,ZGNN 280600Z AUTO 22006KT 12SM 31/22 A2974 RMK SLP071 T03060225 57030 IEM_DS3505
ZGNN,2002-03-28 07:00,ZGNN 280700Z AUTO 7SM 32/21 A2971 RMK T03200210 IEM_DS3505
ZGNN,2002-03-28 08:00,ZGNN 280800Z AUTO 17006KT 7SM 32/20 A2968 RMK T03200200 IEM_DS3505
ZGNN,2002-03-28 09:00,ZGNN 280900Z AUTO 07002KT 12SM 32/22 A2968 RMK SLP051 T03190220 57020 IEM_DS3505
ZGNN,2002-03-28 10:00,ZGNN 281000Z AUTO 11006KT 7SM 31/22 A2968 RMK T03100220 IEM_DS3505
ZGNN,2002-03-28 11:00,ZGNN 281100Z AUTO 13010KT 7SM 29/22 A2971 RMK T02900220 IEM_DS3505
ZGNN,2002-03-28 12:00,ZGNN 281200Z AUTO 09002KT 12SM 28/23 A2974 RMK SLP073 T02780229 52021 IEM_DS3505
ZGNN,2002-03-28 13:00,ZGNN 281300Z AUTO 09004KT 7SM 26/22 A2977 RMK T02600220 IEM_DS3505
ZGNN,2002-03-28 14:00,ZGNN 281400Z AUTO 08004KT 7SM 25/22 A2980 RMK T02500220 IEM_DS3505
ZGNN,2002-03-28 15:00,ZGNN 281500Z AUTO 09006KT 12SM 26/22 A2983 RMK SLP098 T02560224 52025 IEM_DS3505
ZGNN,2002-03-28 16:00,ZGNN 281600Z AUTO 06010KT 7SM 24/20 A2983 RMK T02400200 IEM_DS3505
ZGNN,2002-03-28 17:00,ZGNN 281700Z AUTO 03010KT 3SM 23/19 A2985 RMK T02300190 IEM_DS3505
ZGNN,2002-03-28 18:00,ZGNN 281800Z AUTO 02004KT 12SM 23/18 A2985 RMK SLP108 T02260177 52010 IEM_DS3505
ZGNN,2002-03-28 19:00,ZGNN 281900Z AUTO 04006KT 7SM 22/17 A2983 RMK T02200170 IEM_DS3505
ZGNN,2002-03-28 20:00,ZGNN 282000Z AUTO 04004KT 6SM 21/17 A2985 RMK T02100170 IEM_DS3505
ZGNN,2002-03-28 21:00,ZGNN 282100Z AUTO 34002KT 9SM 20/19 A2985 RMK 70001 SLP107 T02050186 57001 IEM_DS3505
ZGNN,2002-03-28 22:00,ZGNN 282200Z AUTO 35006KT 7SM 20/15 A2985 RMK T02000150 IEM_DS3505
ZGNN,2002-03-28 23:00,ZGNN 282300Z AUTO 01006KT 7SM 20/15 A2988 RMK T02000150 IEM_DS3505
ZGNN,2002-03-29 00:00,ZGNN 290000Z AUTO 34008KT 12SM 20/15 A2994 RMK 60000 SLP144 T02050148 52035 IEM_DS3505
ZGNN,2002-03-29 01:00,ZGNN 290100Z AUTO 01006KT 7SM 21/14 A2997 RMK T02100140 IEM_DS3505
ZGNN,2002-03-29 02:00,ZGNN 290200Z AUTO 35006KT 7SM 21/15 A3000 RMK T02100150 IEM_DS3505
ZGNN,2002-03-29 03:00,ZGNN 290300Z AUTO 34006KT 9SM 21/15 RMK SLP162 T02140149 52018 IEM_DS3505
ZGNN,2002-03-29 04:00,ZGNN 290400Z AUTO 35008KT 7SM 22/15 A2997 RMK T02200150 IEM_DS3505
ZGNN,2002-03-29 05:00,ZGNN 290500Z AUTO 34006KT 7SM 24/15 A2994 RMK T02400150 IEM_DS3505
ZGNN,2002-03-29 06:00,ZGNN 290600Z AUTO 09006KT 9SM 24/15 A2991 RMK SLP133 T02380148 57029 IEM_DS3505
ZGNN,2002-03-29 07:00,ZGNN 290700Z AUTO 7SM 25/15 A2988 RMK T02500150 IEM_DS3505
ZGNN,2002-03-29 08:00,ZGNN 290800Z AUTO 6SM 25/15 A2985 RMK T02500150 IEM_DS3505
ZGNN,2002-03-29 09:00,ZGNN 290900Z AUTO 02004KT 9SM 25/15 A2985 RMK SLP108 T02480151 57025 IEM_DS3505
ZGNN,2002-03-29 10:00,ZGNN 291000Z AUTO 02004KT 6SM 24/15 A2985 RMK T02400150 IEM_DS3505
ZGNN,2002-03-29 11:00,ZGNN 291100Z AUTO 05004KT 5SM 23/15 A2985 RMK T02300150 IEM_DS3505
ZGNN,2002-03-29 12:00,ZGNN 291200Z AUTO 00000KT 7SM 23/17 A2988 RMK SLP121 T02320168 52012 IEM_DS3505
ZGNN,2002-03-29 13:00,ZGNN 291300Z AUTO 05002KT 3SM 22/17 A2988 RMK T02200170 IEM_DS3505
ZGNN,2002-03-29 14:00,ZGNN 291400Z AUTO 04002KT 3SM 22/17 A2991 RMK T02200170 IEM_DS3505
ZGNN,2002-03-29 15:00,ZGNN 291500Z AUTO 00000KT 7SM 22/17 A2994 RMK SLP142 T02170167 52021 IEM_DS3505
ZGNN,2002-03-29 16:00,ZGNN 291600Z AUTO 00000KT 3SM 22/16 A2994 RMK T02200160 IEM_DS3505
ZGNN,2002-03-29 17:00,ZGNN 291700Z AUTO 24002KT 3SM 21/17 A2994 RMK T02100170 IEM_DS3505
ZGNN,2002-03-29 18:00,ZGNN 291800Z AUTO 00000KT 7SM 21/17 A2991 RMK SLP134 T02130173 57007 IEM_DS3505
ZGNN,2002-03-29 19:00,ZGNN 291900Z AUTO 00000KT 3SM 21/17 A2991 RMK T02100170 IEM_DS3505
ZGNN,2002-03-29 21:00,ZGNN 292100Z AUTO 00000KT 7SM 21/17 A2988 RMK SLP118 T02070170 57016 IEM_DS3505
ZGNN,2002-03-29 22:00,ZGNN 292200Z AUTO 02004KT 3SM 20/16 A2985 RMK T02000160 IEM_DS3505
ZGNN,2002-03-29 23:00,ZGNN 292300Z AUTO 17002KT 3SM 18/16 A2988 RMK T01800160 IEM_DS3505
ZGNN,2002-03-30 00:00,ZGNN 300000Z AUTO 04002KT 4SM 19/17 A2991 RMK SLP135 T01920166 52016 IEM_DS3505
ZGNN,2002-03-30 01:00,ZGNN 300100Z AUTO 00000KT 3SM 21/17 A2994 RMK T02100170 IEM_DS3505
ZGNN,2002-03-30 02:00,ZGNN 300200Z AUTO 00000KT 6SM 23/16 A2997 RMK T02300160 IEM_DS3505
ZGNN,2002-03-30 03:00,ZGNN 300300Z AUTO 27004KT 6SM 24/16 A3000 RMK SLP159 T02360157 52024 IEM_DS3505
ZGNN,2002-03-30 04:00,ZGNN 300400Z AUTO 7SM 23/16 A3000 RMK T02300160 IEM_DS3505
ZGNN,2002-03-30 05:00,ZGNN 300500Z AUTO 4SM 22/16 A3000 RMK T02200160 IEM_DS3505
ZGNN,2002-03-30 06:00,ZGNN 300600Z AUTO 07002KT 4SM 20/19 A2997 RMK 60008 SLP158 T02050189 57002 IEM_DS3505
ZGNN,2002-03-30 07:00,ZGNN 300700Z AUTO 09004KT 2 1/2SM 21/17 A2994 RMK T02100170 IEM_DS3505
ZGNN,2002-03-30 08:00,ZGNN 300800Z AUTO 2 1/2SM 21/17 A2991 RMK T02100170 IEM_DS3505
ZGNN,2002-03-30 09:00,ZGNN 300900Z AUTO 34004KT 3SM 20/18 A2985 RMK SLP127 T02050183 57030 IEM_DS3505
ZGNN,2002-03-30 10:00,ZGNN 301000Z AUTO 31006KT 1 1/4SM 20/17 A2991 RMK T02000170 IEM_DS3505
ZGNN,2002-03-30 11:00,ZGNN 301100Z AUTO 1 1/4SM 20/17 A2991 RMK T02000170 IEM_DS3505
ZGNN,2002-03-30 12:00,ZGNN 301200Z AUTO 00000KT 4SM 19/18 A2994 RMK 60000 SLP141 T01940184 52013 IEM_DS3505
ZGNN,2002-03-30 13:00,ZGNN 301300Z AUTO 31004KT 1 1/2SM 19/17 A2997 RMK T01900170 IEM_DS3505
ZGNN,2002-03-30 14:00,ZGNN 301400Z AUTO 2 1/2SM 19/17 A3000 RMK T01900170 IEM_DS3505
ZGNN,2002-03-30 15:00,ZGNN 301500Z AUTO 00000KT 4SM 19/17 A2997 RMK SLP153 T01860173 52013 IEM_DS3505
ZGNN,2002-03-30 16:00,ZGNN 301600Z AUTO 2SM 18/16 A2997 RMK T01800160 IEM_DS3505
ZGNN,2002-03-30 17:00,ZGNN 301700Z AUTO 28002KT 2SM 18/17 A2997 RMK T01800170 IEM_DS3505
ZGNN,2002-03-30 18:00,ZGNN 301800Z AUTO 25006KT 2 1/2SM 18/18 A3000 RMK 60003 SLP163 T01840178 52009 IEM_DS3505
ZGNN,2002-03-30 19:00,ZGNN 301900Z AUTO 00000KT 4SM 17/16 A2997 RMK T01700160 IEM_DS3505
ZGNN,2002-03-30 20:00,ZGNN 302000Z AUTO 02004KT 1 1/2SM 17/16 A2994 RMK T01700160 IEM_DS3505
ZGNN,2002-03-30 21:00,ZGNN 302100Z AUTO 27004KT 2SM 17/16 A2997 RMK 70022 SLP156 T01700163 57008 IEM_DS3505
ZGNN,2002-03-30 22:00,ZGNN 302200Z AUTO 00000KT 4SM 17/15 A3000 RMK T01700150 IEM_DS3505
ZGNN,2002-03-30 23:00,ZGNN 302300Z AUTO 25002KT 2SM 17/16 A3000 RMK T01700160 IEM_DS3505
ZGNN,2002-03-31 00:00,ZGNN 310000Z AUTO 18002KT 2 1/2SM 17/17 A3003 RMK 60024 SLP168 T01730170 52012 IEM_DS3505
ZGNN,2002-03-31 01:00,ZGNN 310100Z AUTO 3SM 17/16 A3000 RMK T01700160 IEM_DS3505
ZGNN,2002-03-31 02:00,ZGNN 310200Z AUTO 3SM 17/16 A3000 RMK T01700160 IEM_DS3505
ZGNN,2002-03-31 03:00,ZGNN 310300Z AUTO 00000KT 4SM 19/17 A3003 RMK SLP167 T01900167 57001 IEM_DS3505
ZGNN,2002-03-31 04:00,ZGNN 310400Z AUTO 6SM 21/16 A3000 RMK T02100160 IEM_DS3505
ZGNN,2002-03-31 05:00,ZGNN 310500Z AUTO 6SM 21/16 A2997 RMK T02100160 IEM_DS3505
ZGNN,2002-03-31 06:00,ZGNN 310600Z AUTO 27004KT 7SM 22/18 A2997 RMK 60001 SLP149 T02200179 57017 IEM_DS3505
ZGNN,2002-03-31 07:00,ZGNN 310700Z AUTO 7SM 23/17 A2994 RMK T02300170 IEM_DS3505
ZGNN,2002-03-31 08:00,ZGNN 310800Z AUTO 7SM 23/17 A2991 RMK T02300170 IEM_DS3505
ZGNN,2002-03-31 09:00,ZGNN 310900Z AUTO 00000KT 9SM 24/18 A2991 RMK SLP127 T02380181 57021 IEM_DS3505
ZGNN,2002-03-31 10:00,ZGNN 311000Z AUTO 7SM 23/18 A2988 RMK T02300180 IEM_DS3505
ZGNN,2002-03-31 11:00,ZGNN 311100Z AUTO 08002KT 7SM 23/19 A2988 RMK T02300190 IEM_DS3505
ZGNN,2002-03-31 12:00,ZGNN 311200Z AUTO 00000KT 9SM 22/20 A2991 RMK SLP133 T02220197 52005 IEM_DS3505
ZGNN,2002-03-31 13:00,ZGNN 311300Z AUTO 06004KT 7SM 20/18 A2991 RMK T02000180 IEM_DS3505
ZGNN,2002-03-31 14:00,ZGNN 311400Z AUTO 05002KT 7SM 20/18 A2994 RMK T02000180 IEM_DS3505
ZGNN,2002-03-31 15:00,ZGNN 311500Z AUTO 00000KT 9SM 20/19 A2997 RMK SLP148 T02040191 52015 IEM_DS3505
ZGNN,2002-03-31 16:00,ZGNN 311600Z AUTO 03002KT 2SM 20/18 A2994 RMK T02000180 IEM_DS3505
ZGNN,2002-03-31 17:00,ZGNN 311700Z AUTO 02002KT 1 1/2SM 20/18 A2994 RMK T02000180 IEM_DS3505
ZGNN,2002-03-31 18:00,ZGNN 311800Z AUTO 00000KT 5SM 20/19 A2991 RMK SLP137 T01950190 57010 IEM_DS3505
ZGNN,2002-03-31 19:00,ZGNN 311900Z AUTO 1 1/2SM 19/18 A2991 RMK T01900180 IEM_DS3505
ZGNN,2002-03-31 20:00,ZGNN 312000Z AUTO 00000KT 2SM 20/18 A2991 RMK T02000180 IEM_DS3505
ZGNN,2002-03-31 21:00,ZGNN 312100Z AUTO 00000KT 4SM 20/19 A2991 RMK 70011 SLP130 T02000194 57007 IEM_DS3505
ZGNN,2002-03-31 22:00,ZGNN 312200Z AUTO 1 1/4SM 19/18 A2991 RMK T01900180 IEM_DS3505
ZGNN,2002-03-31 23:00,ZGNN 312300Z AUTO 1 1/4SM 19/18 A2991 RMK T01900180 IEM_DS3505
ZGNN,2002-04-01 00:00,ZGNN 010000Z AUTO 00000KT 2SM 20/19 A2994 RMK 70001 SLP144 T02000194 52014 IEM_DS3505
ZGNN,2002-04-01 01:00,ZGNN 010100Z AUTO 00000KT 1 1/2SM 20/18 A2997 RMK T02000180 IEM_DS3505
ZGNN,2002-04-01 02:00,ZGNN 010200Z AUTO 14004KT 2SM 21/19 A3000 RMK T02100190 IEM_DS3505
ZGNN,2002-04-01 03:00,ZGNN 010300Z AUTO 18004KT 3SM 22/20 A2997 RMK SLP156 T02220200 52012 IEM_DS3505
ZGNN,2002-04-01 04:00,ZGNN 010400Z AUTO 15006KT 7SM 23/20 A2997 RMK T02300200 IEM_DS3505
ZGNN,2002-04-01 05:00,ZGNN 010500Z AUTO 15006KT 7SM 24/20 A2997 RMK T02400200 IEM_DS3505
ZGNN,2002-04-01 06:00,ZGNN 010600Z AUTO 14006KT 10SM 26/21 A2991 RMK SLP134 T02600206 57021 IEM_DS3505
ZGNN,2002-04-01 07:00,ZGNN 010700Z AUTO 14008KT 7SM 26/20 A2988 RMK T02600200 IEM_DS3505
ZGNN,2002-04-01 08:00,ZGNN 010800Z AUTO 13008KT 7SM 26/20 A2985 RMK T02600200 IEM_DS3505
ZGNN,2002-04-01 09:00,ZGNN 010900Z AUTO 14006KT 11SM 26/21 A2985 RMK SLP108 T02640210 57026 IEM_DS3505
ZGNN,2002-04-01 10:00,ZGNN 011000Z AUTO 14008KT 7SM 26/20 A2983 RMK T02600200 IEM_DS3505
ZGNN,2002-04-01 11:00,ZGNN 011100Z AUTO 14008KT 7SM 25/19 A2985 RMK T02500190 IEM_DS3505
ZGNN,2002-04-01 12:00,ZGNN 011200Z AUTO 14006KT 9SM 24/20 A2985 RMK SLP115 T02440203 52007 IEM_DS3505
ZGNN,2002-04-01 13:00,ZGNN 011300Z AUTO 15008KT 6SM 23/20 A2988 RMK T02300200 IEM_DS3505
ZGNN,2002-04-01 14:00,ZGNN 011400Z AUTO 6SM 22/20 A2991 RMK T02200200 IEM_DS3505
ZGNN,2002-04-01 15:00,ZGNN 011500Z AUTO 18004KT 7SM 22/20 A2991 RMK SLP135 T02250204 52020 IEM_DS3505
ZGNN,2002-04-01 16:00,ZGNN 011600Z AUTO 17002KT 7SM 22/20 A2991 RMK T02200200 IEM_DS3505
ZGNN,2002-04-01 17:00,ZGNN 011700Z AUTO 26002KT 7SM 21/20 A2994 RMK T02100200 IEM_DS3505
ZGNN,2002-04-01 18:00,ZGNN 011800Z AUTO 00000KT 6SM 21/20 A2991 RMK SLP136 T02090203 52001 IEM_DS3505
ZGNN,2002-04-01 19:00,ZGNN 011900Z AUTO 7SM 21/19 A2991 RMK T02100190 IEM_DS3505
ZGNN,2002-04-01 20:00,ZGNN 012000Z AUTO 16004KT 7SM 21/19 A2985 RMK T02100190 IEM_DS3505
ZGNN,2002-04-01 21:00,ZGNN 012100Z AUTO 00000KT 6SM 21/20 A2985 RMK SLP106 T02100198 57029 IEM_DS3505
ZGNN,2002-04-01 22:00,ZGNN 012200Z AUTO 36002KT 6SM 20/18 A2985 RMK T02000180 IEM_DS3505
ZGNN,2002-04-01 23:00,ZGNN 012300Z AUTO 03004KT 6SM 20/19 A2985 RMK T02000190 IEM_DS3505
ZGNN,2002-04-02 00:00,ZGNN 020000Z AUTO 00000KT 9SM 21/20 A2988 RMK SLP122 T02120201 52015 IEM_DS3505
ZGNN,2002-04-02 01:00,ZGNN 020100Z AUTO 6SM 22/19 A2991 RMK T02200190 IEM_DS3505
ZGNN,2002-04-02 02:00,ZGNN 020200Z AUTO 6SM 24/19 A2991 RMK T02400190 IEM_DS3505
ZGNN,2002-04-02 03:00,ZGNN 020300Z AUTO 20006KT 16SM 26/20 A2991 RMK SLP135 T02640200 52014 IEM_DS3505
ZGNN,2002-04-02 04:00,ZGNN 020400Z AUTO 21006KT 6SM 28/19 A2991 RMK T02800190 IEM_DS3505
ZGNN,2002-04-02 05:00,ZGNN 020500Z AUTO 21006KT 6SM 29/19 A2988 RMK T02900190 IEM_DS3505
ZGNN,2002-04-02 06:00,ZGNN 020600Z AUTO 22010KT 19SM 30/19 A2983 RMK SLP105 T03010192 57030 IEM_DS3505
ZGNN,2002-04-02 07:00,ZGNN 020700Z AUTO 18008KT 6SM 31/19 A2980 RMK T03100190 IEM_DS3505
ZGNN,2002-04-02 08:00,ZGNN 020800Z AUTO 19006KT 6SM 32/19 A2977 RMK T03200190 IEM_DS3505
ZGNN,2002-04-02 09:00,ZGNN 020900Z AUTO 22008KT 19SM 32/20 A2974 RMK SLP074 T03230198 57030 IEM_DS3505
ZGNN,2002-04-02 10:00,ZGNN 021000Z AUTO 13010KT 6SM 29/21 A2974 RMK T02900210 IEM_DS3505
ZGNN,2002-04-02 11:00,ZGNN 021100Z AUTO 15008KT 6SM 28/21 A2974 RMK T02800210 IEM_DS3505
ZGNN,2002-04-02 12:00,ZGNN 021200Z AUTO 18004KT 19SM 27/22 A2977 RMK SLP084 T02660220 52009 IEM_DS3505
ZGNN,2002-04-02 13:00,ZGNN 021300Z AUTO 17006KT 6SM 25/21 A2980 RMK T02500210 IEM_DS3505
ZGNN,2002-04-02 14:00,ZGNN 021400Z AUTO 16008KT 6SM 24/21 A2980 RMK T02400210 IEM_DS3505
ZGNN,2002-04-02 15:00,ZGNN 021500Z AUTO 18002KT 17SM 23/22 A2983 RMK SLP097 T02340216 52013 IEM_DS3505
ZGNN,2002-04-02 16:00,ZGNN 021600Z AUTO 6SM 22/20 A2980 RMK T02200200 IEM_DS3505
ZGNN,2002-04-02 17:00,ZGNN 021700Z AUTO 29002KT 7SM 22/20 A2980 RMK T02200200 IEM_DS3505
ZGNN,2002-04-02 18:00,ZGNN 021800Z AUTO 00000KT 14SM 22/21 A2980 RMK SLP087 T02180209 57009 IEM_DS3505
ZGNN,2002-04-02 19:00,ZGNN 021900Z AUTO 02004KT 2 1/2SM 21/20 A2977 RMK T02100200 IEM_DS3505
ZGNN,2002-04-02 20:00,ZGNN 022000Z AUTO 1 1/2SM 21/19 A2977 RMK T02100190 IEM_DS3505
ZGNN,2002-04-02 21:00,ZGNN 022100Z AUTO 00000KT 6SM 20/20 A2977 RMK SLP080 T02020200 57007 IEM_DS3505
ZGNN,2002-04-02 22:00,ZGNN 022200Z AUTO 00000KT 1/8SM 20/19 A2977 RMK T02000190 IEM_DS3505
ZGNN,2002-04-02 23:00,ZGNN 022300Z AUTO 00000KT 1/8SM 20/19 A2977 RMK T02000190 IEM_DS3505
ZGNN,2002-04-03 00:00,ZGNN 030000Z AUTO 00000KT 1SM 21/20 A2980 RMK SLP097 T02070205 52016 IEM_DS3505
ZGNN,2002-04-03 01:00,ZGNN 030100Z AUTO 00000KT 2 1/2SM 22/21 A2983 RMK T02200210 IEM_DS3505
ZGNN,2002-04-03 02:00,ZGNN 030200Z AUTO 7SM 25/20 A2985 RMK T02500200 IEM_DS3505
ZGNN,2002-04-03 03:00,ZGNN 030300Z AUTO 20008KT 7SM 27/22 A2983 RMK SLP103 T02680215 52006 IEM_DS3505
ZGNN,2002-04-03 04:00,ZGNN 030400Z AUTO 19006KT 7SM 28/21 A2980 RMK T02800210 IEM_DS3505
ZGNN,2002-04-03 05:00,ZGNN 030500Z AUTO 20008KT 7SM 29/21 A2977 RMK T02900210 IEM_DS3505
ZGNN,2002-04-03 06:00,ZGNN 030600Z AUTO 18006KT 12SM 30/22 A2974 RMK SLP069 T03030222 57033 IEM_DS3505
ZGNN,2002-04-03 07:00,ZGNN 030700Z AUTO 13006KT 7SM 31/21 A2968 RMK T03100210 IEM_DS3505
ZGNN,2002-04-03 08:00,ZGNN 030800Z AUTO 17006KT 7SM 32/21 A2965 RMK T03200210 IEM_DS3505
ZGNN,2002-04-03 09:00,ZGNN 030900Z AUTO 18006KT 16SM 32/22 A2965 RMK SLP038 T03210223 57030 IEM_DS3505
ZGNN,2002-04-03 10:00,ZGNN 031000Z AUTO 13012KT 6SM 30/22 A2965 RMK T03000220 IEM_DS3505
ZGNN,2002-04-03 11:00,ZGNN 031100Z AUTO 13008KT 6SM 27/22 A2965 RMK T02700220 IEM_DS3505
ZGNN,2002-04-03 12:00,ZGNN 031200Z AUTO 16004KT 12SM 26/22 A2968 RMK SLP056 T02620225 52016 IEM_DS3505
ZGNN,2002-04-03 13:00,ZGNN 031300Z AUTO 13006KT 6SM 25/22 A2971 RMK T02500220 IEM_DS3505
ZGNN,2002-04-03 14:00,ZGNN 031400Z AUTO 6SM 24/22 A2971 RMK T02400220 IEM_DS3505
ZGNN,2002-04-03 15:00,ZGNN 031500Z AUTO 22004KT 11SM 24/22 A2974 RMK SLP067 T02420221 52012 IEM_DS3505
ZGNN,2002-04-03 16:00,ZGNN 031600Z AUTO 12004KT 6SM 23/21 A2971 RMK T02300210 IEM_DS3505
ZGNN,2002-04-03 17:00,ZGNN 031700Z AUTO 00000KT 7SM 23/21 A2974 RMK T02300210 IEM_DS3505
ZGNN,2002-04-03 18:00,ZGNN 031800Z AUTO 22002KT 10SM 23/22 A2971 RMK SLP055 T02290219 57011 IEM_DS3505
ZGNN,2002-04-03 19:00,ZGNN 031900Z AUTO 21004KT 3SM 22/20 A2968 RMK T02200200 IEM_DS3505
ZGNN,2002-04-03 20:00,ZGNN 032000Z AUTO 32002KT 4SM 22/21 A2968 RMK T02200210 IEM_DS3505
ZGNN,2002-04-03 21:00,ZGNN 032100Z AUTO 00000KT 6SM 22/21 A2965 RMK SLP044 T02180213 57011 IEM_DS3505
ZGNN,2002-04-03 22:00,ZGNN 032200Z AUTO 05002KT 2SM 21/20 A2968 RMK T02100200 IEM_DS3505
ZGNN,2002-04-03 23:00,ZGNN 032300Z AUTO 06004KT 1 1/4SM 21/20 A2971 RMK T02100200 IEM_DS3505
ZGNN,2002-04-04 00:00,ZGNN 040000Z AUTO 09002KT 4SM 23/22 A2971 RMK SLP064 T02300217 52019 IEM_DS3505
ZGNN,2002-04-04 01:00,ZGNN 040100Z AUTO 6SM 24/21 A2974 RMK T02400210 IEM_DS3505
ZGNN,2002-04-04 02:00,ZGNN 040200Z AUTO 6SM 26/21 A2974 RMK T02600210 IEM_DS3505
ZGNN,2002-04-04 03:00,ZGNN 040300Z AUTO 14006KT 12SM 27/22 A2974 RMK SLP067 T02730222 52003 IEM_DS3505
ZGNN,2002-04-04 04:00,ZGNN 040400Z AUTO 6SM 28/21 A2971 RMK T02800210 IEM_DS3505
ZGNN,2002-04-04 05:00,ZGNN 040500Z AUTO 18008KT 6SM 30/21 A2968 RMK T03000210 IEM_DS3505
ZGNN,2002-04-04 06:00,ZGNN 040600Z AUTO 14006KT 16SM 31/21 A2965 RMK SLP035 T03110214 57031 IEM_DS3505
ZGNN,2002-04-04 07:00,ZGNN 040700Z AUTO 14008KT 6SM 31/22 A2962 RMK T03100220 IEM_DS3505
ZGNN,2002-04-04 08:00,ZGNN 040800Z AUTO 12010KT 6SM 31/22 A2956 RMK T03100220 IEM_DS3505
ZGNN,2002-04-04 09:00,ZGNN 040900Z AUTO 14008KT 16SM 31/23 A2956 RMK SLP012 T03090230 57023 IEM_DS3505
ZGNN,2002-04-04 10:00,ZGNN 041000Z AUTO 12010KT 6SM 29/21 A2956 RMK T02900210 IEM_DS3505
ZGNN,2002-04-04 11:00,ZGNN 041100Z AUTO 11004KT 6SM 27/22 A2959 RMK T02700220 IEM_DS3505
ZGNN,2002-04-04 12:00,ZGNN 041200Z AUTO 14006KT 11SM 26/22 A2962 RMK SLP033 T02650223 52020 IEM_DS3505
ZGNN,2002-04-04 13:00,ZGNN 041300Z AUTO 14006KT 6SM 25/21 A2965 RMK T02500210 IEM_DS3505
ZGNN,2002-04-04 14:00,ZGNN 041400Z AUTO 14006KT 6SM 24/21 A2965 RMK T02400210 IEM_DS3505
ZGNN,2002-04-04 15:00,ZGNN 041500Z AUTO 16002KT 9SM 24/22 A2968 RMK SLP052 T02430216 52019 IEM_DS3505
ZGNN,2002-04-04 17:00,ZGNN 041700Z AUTO 12004KT 7SM 23/21 A2968 RMK T02300210 IEM_DS3505
ZGNN,2002-04-04 18:00,ZGNN 041800Z AUTO 14004KT 9SM 23/21 A2965 RMK SLP043 T02320214 57008 IEM_DS3505
ZGNN,2002-04-04 19:00,ZGNN 041900Z AUTO 00000KT 7SM 23/20 A2965 RMK T02300200 IEM_DS3505
ZGNN,2002-04-04 20:00,ZGNN 042000Z AUTO 7SM 22/20 A2965 RMK T02200200 IEM_DS3505
ZGNN,2002-04-04 21:00,ZGNN 042100Z AUTO 00000KT 8SM 22/21 A2965 RMK SLP043 T02170209 54000 IEM_DS3505
ZGNN,2002-04-04 22:00,ZGNN 042200Z AUTO 00000KT 6SM 22/20 A2968 RMK T02200200 IEM_DS3505
ZGNN,2002-04-04 23:00,ZGNN 042300Z AUTO 00000KT 6SM 21/19 A2968 RMK T02100190 IEM_DS3505
ZGNN,2002-04-05 00:00,ZGNN 050000Z AUTO 00000KT 8SM 22/21 A2971 RMK SLP063 T02160208 52018 IEM_DS3505
ZGNN,2002-04-05 01:00,ZGNN 050100Z AUTO 00000KT 6SM 24/21 A2974 RMK T02400210 IEM_DS3505
ZGNN,2002-04-05 02:00,ZGNN 050200Z AUTO 6SM 26/21 A2977 RMK T02600210 IEM_DS3505
ZGNN,2002-04-05 03:00,ZGNN 050300Z AUTO 14004KT 11SM 28/22 A2974 RMK SLP072 T02780218 52010 IEM_DS3505
ZGNN,2002-04-05 04:00,ZGNN 050400Z AUTO 7SM 29/21 A2971 RMK T02900210 IEM_DS3505
ZGNN,2002-04-05 05:00,ZGNN 050500Z AUTO 16006KT 7SM 30/21 A2968 RMK T03000210 IEM_DS3505
ZGNN,2002-04-05 06:00,ZGNN 050600Z AUTO 09004KT 15SM 32/22 A2965 RMK SLP038 T03180219 57033 IEM_DS3505
ZGNN,2002-04-05 07:00,ZGNN 050700Z AUTO 19008KT 7SM 33/21 A2959 RMK T03300210 IEM_DS3505
ZGNN,2002-04-05 08:00,ZGNN 050800Z AUTO 18008KT 7SM 33/20 A2956 RMK T03300200 IEM_DS3505
ZGNN,2002-04-05 09:00,ZGNN 050900Z AUTO 18008KT 15SM 33/22 A2956 RMK SLP009 T03300224 57028 IEM_DS3505
ZGNN,2002-04-05 10:00,ZGNN 051000Z AUTO 14012KT 6SM 31/22 A2956 RMK T03100220 IEM_DS3505
ZGNN,2002-04-05 11:00,ZGNN 051100Z AUTO 15010KT 6SM 28/22 A2959 RMK T02800220 IEM_DS3505
ZGNN,2002-04-05 12:00,ZGNN 051200Z AUTO 18006KT 16SM 27/22 A2962 RMK SLP033 T02710223 52022 IEM_DS3505
ZGNN,2002-04-05 13:00,ZGNN 051300Z AUTO 17010KT 6SM 25/21 A2965 RMK T02500210 IEM_DS3505
ZGNN,2002-04-05 14:00,ZGNN 051400Z AUTO 05004KT 6SM 25/21 A2971 RMK T02500210 IEM_DS3505
ZGNN,2002-04-05 15:00,ZGNN 051500Z AUTO 00000KT 12SM 24/22 A2974 RMK SLP072 T02440220 52039 IEM_DS3505
ZGNN,2002-04-05 16:00,ZGNN 051600Z AUTO 06004KT 7SM 23/21 A2974 RMK T02300210 IEM_DS3505
ZGNN,2002-04-05 17:00,ZGNN 051700Z AUTO 5SM 23/21 A2971 RMK T02300210 IEM_DS3505
ZGNN,2002-04-05 18:00,ZGNN 051800Z AUTO 00000KT 12SM 23/22 A2968 RMK SLP058 T02320217 57013 IEM_DS3505
ZGNN,2002-04-05 19:00,ZGNN 051900Z AUTO 04004KT 3SM 22/21 A2968 RMK T02200210 IEM_DS3505
ZGNN,2002-04-05 20:00,ZGNN 052000Z AUTO 00000KT 1 1/2SM 22/20 A2968 RMK T02200200 IEM_DS3505
ZGNN,2002-04-05 21:00,ZGNN 052100Z AUTO 00000KT 11SM 22/21 A2968 RMK SLP053 T02200214 57005 IEM_DS3505
ZGNN,2002-04-05 22:00,ZGNN 052200Z AUTO 35002KT 3SM 22/20 A2971 RMK T02200200 IEM_DS3505
ZGNN,2002-04-05 23:00,ZGNN 052300Z AUTO 00000KT 2SM 21/20 A2971 RMK T02100200 IEM_DS3505
ZGNN,2002-04-06 00:00,ZGNN 060000Z AUTO 00000KT 3SM 22/21 A2974 RMK SLP073 T02160211 52018 IEM_DS3505
ZGNN,2002-04-06 01:00,ZGNN 060100Z AUTO 00000KT 2 1/2SM 24/21 A2977 RMK T02400210 IEM_DS3505
ZGNN,2002-04-06 02:00,ZGNN 060200Z AUTO 6SM 26/22 A2977 RMK T02600220 IEM_DS3505
ZGNN,2002-04-06 03:00,ZGNN 060300Z AUTO 20004KT 12SM 28/22 A2977 RMK SLP086 T02800225 52014 IEM_DS3505
ZGNN,2002-04-06 04:00,ZGNN 060400Z AUTO 6SM 30/21 A2977 RMK T03000210 IEM_DS3505
ZGNN,2002-04-06 05:00,ZGNN 060500Z AUTO 6SM 32/21 A2974 RMK T03200210 IEM_DS3505
ZGNN,2002-04-06 06:00,ZGNN 060600Z AUTO 20004KT 12SM 33/21 A2971 RMK SLP056 T03300213 57029 IEM_DS3505
ZGNN,2002-04-06 07:00,ZGNN 060700Z AUTO 12008KT 6SM 33/21 A2968 RMK T03300210 IEM_DS3505
ZGNN,2002-04-06 08:00,ZGNN 060800Z AUTO 12012KT 6SM 32/22 A2965 RMK T03200220 IEM_DS3505
ZGNN,2002-04-06 09:00,ZGNN 060900Z AUTO 14006KT 12SM 33/23 A2965 RMK SLP041 T03280229 57015 IEM_DS3505
ZGNN,2002-04-06 10:00,ZGNN 061000Z AUTO 13012KT 6SM 30/21 A2965 RMK T03000210 IEM_DS3505
ZGNN,2002-04-06 11:00,ZGNN 061100Z AUTO 13008KT 6SM 29/22 A2965 RMK T02900220 IEM_DS3505
ZGNN,2002-04-06 12:00,ZGNN 061200Z AUTO 14006KT 12SM 28/23 A2971 RMK SLP059 T02780227 52017 IEM_DS3505
ZGNN,2002-04-06 13:00,ZGNN 061300Z AUTO 13008KT 6SM 26/21 A2971 RMK T02600210 IEM_DS3505
ZGNN,2002-04-06 14:00,ZGNN 061400Z AUTO 13006KT 6SM 25/21 A2974 RMK T02500210 IEM_DS3505
ZGNN,2002-04-06 15:00,ZGNN 061500Z AUTO 00000KT 11SM 25/22 A2974 RMK SLP073 T02490219 52014 IEM_DS3505
ZGNN,2002-04-06 16:00,ZGNN 061600Z AUTO 7SM 24/21 A2974 RMK T02400210 IEM_DS3505
ZGNN,2002-04-06 17:00,ZGNN 061700Z AUTO 7SM 23/21 A2974 RMK T02300210 IEM_DS3505
ZGNN,2002-04-06 18:00,ZGNN 061800Z AUTO 00000KT 9SM 23/21 A2974 RMK SLP066 T02270213 57006 IEM_DS3505
ZGNN,2002-04-06 19:00,ZGNN 061900Z AUTO 00000KT 7SM 23/20 A2971 RMK T02300200 IEM_DS3505
ZGNN,2002-04-06 20:00,ZGNN 062000Z AUTO 33002KT 4SM 22/20 A2971 RMK T02200200 IEM_DS3505
ZGNN,2002-04-06 21:00,ZGNN 062100Z AUTO 00000KT 9SM 22/21 A2971 RMK SLP064 T02150207 57002 IEM_DS3505
ZGNN,2002-04-06 22:00,ZGNN 062200Z AUTO 33002KT 6SM 22/20 A2974 RMK T02200200 IEM_DS3505
ZGNN,2002-04-06 23:00,ZGNN 062300Z AUTO 00000KT 4SM 21/19 A2977 RMK T02100190 IEM_DS3505
ZGNN,2002-04-07 00:00,ZGNN 070000Z AUTO 00000KT 6SM 21/21 A2980 RMK SLP089 T02140206 52023 IEM_DS3505
ZGNN,2002-04-07 01:00,ZGNN 070100Z AUTO 5SM 24/21 A2980 RMK T02400210 IEM_DS3505
ZGNN,2002-04-07 02:00,ZGNN 070200Z AUTO 6SM 26/20 A2983 RMK T02600200 IEM_DS3505
ZGNN,2002-04-07 03:00,ZGNN 070300Z AUTO 18004KT 16SM 28/20 A2980 RMK SLP094 T02840198 52006 IEM_DS3505
ZGNN,2002-04-07 04:00,ZGNN 070400Z AUTO 6SM 30/18 A2980 RMK T03000180 IEM_DS3505
ZGNN,2002-04-07 05:00,ZGNN 070500Z AUTO 6SM 31/18 A2977 RMK T03100180 IEM_DS3505
ZGNN,2002-04-07 06:00,ZGNN 070600Z AUTO 09002KT 19SM 32/19 A2971 RMK SLP059 T03250193 57034 IEM_DS3505
ZGNN,2002-04-07 07:00,ZGNN 070700Z AUTO 15006KT 6SM 33/18 A2968 RMK T03300180 IEM_DS3505
ZGNN,2002-04-07 08:00,ZGNN 070800Z AUTO 14008KT 6SM 33/21 A2965 RMK T03300210 IEM_DS3505
ZGNN,2002-04-07 09:00,ZGNN 070900Z AUTO 14008KT 19SM 32/21 A2965 RMK SLP038 T03220214 57021 IEM_DS3505
ZGNN,2002-04-07 10:00,ZGNN 071000Z AUTO 13012KT 6SM 30/21 A2965 RMK T03000210 IEM_DS3505
ZGNN,2002-04-07 11:00,ZGNN 071100Z AUTO 14012KT 6SM 28/21 A2965 RMK T02800210 IEM_DS3505
ZGNN,2002-04-07 12:00,ZGNN 071200Z AUTO 18004KT 16SM 27/22 A2971 RMK SLP059 T02700217 52020 IEM_DS3505
ZGNN,2002-04-07 13:00,ZGNN 071300Z AUTO 13006KT 6SM 25/21 A2971 RMK T02500210 IEM_DS3505
ZGNN,2002-04-07 14:00,ZGNN 071400Z AUTO 14004KT 6SM 25/21 A2974 RMK T02500210 IEM_DS3505
ZGNN,2002-04-07 15:00,ZGNN 071500Z AUTO 09002KT 12SM 25/22 A2977 RMK SLP080 T02520219 52021 IEM_DS3505
ZGNN,2002-04-07 16:00,ZGNN 071600Z AUTO 6SM 24/21 A2977 RMK T02400210 IEM_DS3505
ZGNN,2002-04-07 17:00,ZGNN 071700Z AUTO 00000KT 6SM 23/21 A2977 RMK T02300210 IEM_DS3505
ZGNN,2002-04-07 18:00,ZGNN 071800Z AUTO 00000KT 11SM 22/21 A2977 RMK SLP080 T02240212 52001 IEM_DS3505
ZGNN,2002-04-07 19:00,ZGNN 071900Z AUTO 03002KT 5SM 22/20 A2977 RMK T02200200 IEM_DS3505
ZGNN,2002-04-07 20:00,ZGNN 072000Z AUTO 04002KT 3SM 21/20 A2977 RMK T02100200 IEM_DS3505
ZGNN,2002-04-07 21:00,ZGNN 072100Z AUTO 00000KT 11SM 22/21 A2980 RMK SLP088 T02170206 52007 IEM_DS3505
ZGNN,2002-04-07 22:00,ZGNN 072200Z AUTO 05002KT 3SM 21/20 A2980 RMK T02100200 IEM_DS3505
ZGNN,2002-04-07 23:00,ZGNN 072300Z AUTO 32002KT 2SM 21/20 A2983 RMK T02100200 IEM_DS3505
ZGNN,2002-04-08 00:00,ZGNN 080000Z AUTO 04002KT 5SM 22/21 A2983 RMK SLP106 T02230212 52017 IEM_DS3505
ZGNN,2002-04-08 01:00,ZGNN 080100Z AUTO 04004KT 2 1/2SM 23/21 A2985 RMK T02300210 IEM_DS3505
ZGNN,2002-04-08 02:00,ZGNN 080200Z AUTO 7SM 25/21 A2985 RMK T02500210 IEM_DS3505
ZGNN,2002-04-08 03:00,ZGNN 080300Z AUTO 14002KT 7SM 27/22 A2985 RMK SLP107 T02680224 52002 IEM_DS3505
ZGNN,2002-04-08 04:00,ZGNN 080400Z AUTO 10004KT 7SM 28/21 A2983 RMK T02800210 IEM_DS3505
ZGNN,2002-04-08 05:00,ZGNN 080500Z AUTO 7SM 30/21 A2980 RMK T03000210 IEM_DS3505
ZGNN,2002-04-08 06:00,ZGNN 080600Z AUTO 18004KT 11SM 30/22 A2977 RMK SLP077 T02990215 57030 IEM_DS3505
ZGNN,2002-04-08 07:00,ZGNN 080700Z AUTO 7SM 30/20 A2974 RMK T03000200 IEM_DS3505
ZGNN,2002-04-08 08:00,ZGNN 080800Z AUTO 7SM 30/21 A2971 RMK T03000210 IEM_DS3505
ZGNN,2002-04-08 09:00,ZGNN 080900Z AUTO 11006KT 9SM 30/22 A2971 RMK SLP061 T03000218 57016 IEM_DS3505
ZGNN,2002-04-08 10:00,ZGNN 081000Z AUTO 13008KT 7SM 28/21 A2971 RMK T02800210 IEM_DS3505
ZGNN,2002-04-08 11:00,ZGNN 081100Z AUTO 14008KT 7SM 28/21 A2974 RMK T02800210 IEM_DS3505
ZGNN,2002-04-08 12:00,ZGNN 081200Z AUTO 16004KT 9SM 27/22 A2977 RMK SLP083 T02730223 52021 IEM_DS3505
ZGNN,2002-04-08 13:00,ZGNN 081300Z AUTO 14004KT 7SM 26/22 A2980 RMK T02600220 IEM_DS3505
ZGNN,2002-04-08 14:00,ZGNN 081400Z AUTO 11004KT 7SM 25/21 A2983 RMK T02500210 IEM_DS3505
ZGNN,2002-04-08 15:00,ZGNN 081500Z AUTO 09002KT 7SM 26/22 RMK SLP103 T02600215 52021 IEM_DS3505
ZGNN,2002-04-08 17:00,ZGNN 081700Z AUTO 07008KT 3SM 24/20 A2985 RMK T02400200 IEM_DS3505
ZGNN,2002-04-08 18:00,ZGNN 081800Z AUTO 09004KT 7SM 24/20 A2985 RMK SLP105 T02350195 52002 IEM_DS3505
ZGNN,2002-04-08 19:00,ZGNN 081900Z AUTO 06008KT 3SM 23/18 A2983 RMK T02300180 IEM_DS3505
ZGNN,2002-04-08 20:00,ZGNN 082000Z AUTO 07006KT 4SM 21/17 A2983 RMK T02100170 IEM_DS3505
ZGNN,2002-04-08 21:00,ZGNN 082100Z AUTO 09006KT 6SM 21/17 A2983 RMK SLP097 T02120166 57008 IEM_DS3505
ZGNN,2002-04-08 22:00,ZGNN 082200Z AUTO 06006KT 7SM 20/16 A2985 RMK T02000160 IEM_DS3505
ZGNN,2002-04-08 23:00,ZGNN 082300Z AUTO 08006KT 7SM 20/16 A2985 RMK T02000160 IEM_DS3505
ZGNN,2002-04-09 00:00,ZGNN 090000Z AUTO 02002KT 4SM 20/16 A2988 RMK SLP121 T02030162 52022 IEM_DS3505
ZGNN,2002-04-09 01:00,ZGNN 090100Z AUTO 05004KT 4SM 20/15 A2991 RMK T02000150 IEM_DS3505
ZGNN,2002-04-09 03:00,ZGNN 090300Z AUTO 04004KT 6SM 20/16 A2991 RMK SLP135 T02030160 52014 IEM_DS3505
ZGNN,2002-04-09 04:00,ZGNN 090400Z AUTO 05008KT 3SM 19/16 A2991 RMK T01900160 IEM_DS3505
ZGNN,2002-04-09 05:00,ZGNN 090500Z AUTO 06008KT 2SM 18/16 A2991 RMK T01800160 IEM_DS3505
ZGNN,2002-04-09 06:00,ZGNN 090600Z AUTO 04004KT 5SM 18/15 A2988 RMK 60003 SLP117 T01840154 57019 IEM_DS3505
ZGNN,2002-04-09 07:00,ZGNN 090700Z AUTO 03006KT 3SM 18/15 A2985 RMK T01800150 IEM_DS3505
ZGNN,2002-04-09 08:00,ZGNN 090800Z AUTO 05010KT 3SM 17/14 A2983 RMK T01700140 IEM_DS3505
ZGNN,2002-04-09 09:00,ZGNN 090900Z AUTO 04004KT 6SM 17/14 A2983 RMK SLP104 T01710140 57014 IEM_DS3505
ZGNN,2002-04-09 10:00,ZGNN 091000Z AUTO 05008KT 3SM 16/13 A2985 RMK T01600130 IEM_DS3505
ZGNN,2002-04-09 11:00,ZGNN 091100Z AUTO 05008KT 2SM 15/13 A2985 RMK T01500130 IEM_DS3505
ZGNN,2002-04-09 12:00,ZGNN 091200Z AUTO 04002KT 4SM 15/14 A2988 RMK 60001 SLP124 T01510140 52019 IEM_DS3505
ZGNN,2002-04-09 13:00,ZGNN 091300Z AUTO 05006KT 1 1/4SM 14/13 A2991 RMK T01400130 IEM_DS3505
ZGNN,2002-04-09 14:00,ZGNN 091400Z AUTO 05006KT 2SM 14/13 A2991 RMK T01400130 IEM_DS3505
ZGNN,2002-04-09 16:00,ZGNN 091600Z AUTO 03004KT 2SM 14/13 A2994 RMK T01400130 IEM_DS3505
ZGNN,2002-04-09 17:00,ZGNN 091700Z AUTO 03004KT 1SM 14/13 A2994 RMK T01400130 IEM_DS3505
ZGNN,2002-04-09 18:00,ZGNN 091800Z AUTO 36002KT 5SM 15/14 A2994 RMK 60002 SLP142 T01480141 57001 IEM_DS3505
ZGNN,2002-04-09 19:00,ZGNN 091900Z AUTO 36006KT 7SM 14/13 A2991 RMK T01400130 IEM_DS3505
ZGNN,2002-04-09 20:00,ZGNN 092000Z AUTO 3SM 14/13 A2991 RMK T01400130 IEM_DS3505
ZGNN,2002-04-09 21:00,ZGNN 092100Z AUTO 34006KT 4SM 14/13 A2988 RMK 70003 SLP131 T01450134 57012 IEM_DS3505
ZGNN,2002-04-09 22:00,ZGNN 092200Z AUTO 34004KT 3SM 14/13 A2991 RMK T01400130 IEM_DS3505
ZGNN,2002-04-09 23:00,ZGNN 092300Z AUTO 01004KT 5SM 14/13 A2994 RMK T01400130 IEM_DS3505
ZGNN,2002-04-10 00:00,ZGNN 100000Z AUTO 36006KT 5SM 14/13 A2997 RMK 60000 SLP157 T01450132 52025 IEM_DS3505
ZGNN,2002-04-10 01:00,ZGNN 100100Z AUTO 34006KT 7SM 14/13 A3000 RMK T01400130 IEM_DS3505
ZGNN,2002-04-10 02:00,ZGNN 100200Z AUTO 36008KT 7SM 15/13 A3003 RMK T01500130 IEM_DS3505
ZGNN,2002-04-10 03:00,ZGNN 100300Z AUTO 34004KT 5SM 15/13 A3003 RMK SLP175 T01480134 52018 IEM_DS3505
ZGNN,2002-04-10 04:00,ZGNN 100400Z AUTO 35006KT 7SM 15/12 A3003 RMK T01500120 IEM_DS3505
ZGNN,2002-04-10 05:00,ZGNN 100500Z AUTO 36010KT 7SM 15/12 A3003 RMK T01500120 IEM_DS3505
ZGNN,2002-04-10 06:00,ZGNN 100600Z AUTO 34008KT 11SM 16/13 A3000 RMK 60003 SLP165 T01570128 57010 IEM_DS3505
ZGNN,2002-04-10 07:00,ZGNN 100700Z AUTO 36008KT 7SM 16/12 A3000 RMK T01600120 IEM_DS3505
ZGNN,2002-04-10 08:00,ZGNN 100800Z AUTO 02006KT 7SM 16/12 A2997 RMK T01600120 IEM_DS3505
ZGNN,2002-04-10 09:00,ZGNN 100900Z AUTO 14008KT 11SM 15/12 A2997 RMK SLP159 T01540123 57020 IEM_DS3505
ZGNN,2002-04-10 10:00,ZGNN 101000Z AUTO 35010KT 7SM 16/11 A3000 RMK T01600110 IEM_DS3505
ZGNN,2002-04-10 11:00,ZGNN 101100Z AUTO 36010KT 7SM 15/11 A3003 RMK T01500110 IEM_DS3505
ZGNN,2002-04-10 12:00,ZGNN 101200Z AUTO 36006KT 19SM 15/10 A3006 RMK 60003 SLP185 T01490104 52026 IEM_DS3505
ZGNN,2002-04-10 13:00,ZGNN 101300Z AUTO 02004KT 7SM 15/10 A3006 RMK T01500100 IEM_DS3505
ZGNN,2002-04-10 14:00,ZGNN 101400Z AUTO 34008KT 7SM 15/09 A3009 RMK T01500090 IEM_DS3505
ZGNN,2002-04-10 15:00,ZGNN 101500Z AUTO 36004KT 16SM 15/10 A3009 RMK SLP196 T01490095 52011 IEM_DS3505
ZGNN,2002-04-10 18:00,ZGNN 101800Z AUTO 34006KT 14SM 15/09 RMK SLP200 T01500090 52004 IEM_DS3505
ZGNN,2002-04-10 21:00,ZGNN 102100Z AUTO 34006KT 12SM 15/08 A3009 RMK 70000 SLP196 T01460083 57004 IEM_DS3505
ZGNN,2002-04-10 22:00,ZGNN 102200Z AUTO 34006KT 6SM 15/08 A3012 RMK T01500080 IEM_DS3505
ZGNN,2002-04-10 23:00,ZGNN 102300Z AUTO 34004KT 7SM 14/09 A3012 RMK T01400090 IEM_DS3505
ZGNN,2002-04-11 00:00,ZGNN 110000Z AUTO 32006KT 12SM 14/10 A3018 RMK 60002 SLP223 T01370100 52026 IEM_DS3505
ZGNN,2002-04-11 01:00,ZGNN 110100Z AUTO 34008KT 6SM 14/09 A3018 RMK T01400090 IEM_DS3505
ZGNN,2002-04-11 02:00,ZGNN 110200Z AUTO 33008KT 6SM 15/08 A3021 RMK T01500080 IEM_DS3505
ZGNN,2002-04-11 03:00,ZGNN 110300Z AUTO 34008KT 16SM 16/08 A3018 RMK SLP227 T01650078 52005 IEM_DS3505
ZGNN,2002-04-11 04:00,ZGNN 110400Z AUTO 33008KT 6SM 17/08 A3018 RMK T01700080 IEM_DS3505
ZGNN,2002-04-11 05:00,ZGNN 110500Z AUTO 34008KT 6SM 18/08 A3015 RMK T01800080 IEM_DS3505
ZGNN,2002-04-11 09:00,ZGNN 110900Z AUTO 34004KT 17SM 17/08 RMK SLP186 T01720078 57019 IEM_DS3505
ZGNN,2002-04-11 10:00,ZGNN 111000Z AUTO 30002KT 6SM 17/09 A3006 RMK T01700090 IEM_DS3505
ZGNN,2002-04-11 11:00,ZGNN 111100Z AUTO 21002KT 6SM 16/10 A3006 RMK T01600100 IEM_DS3505
ZGNN,2002-04-11 12:00,ZGNN 111200Z AUTO 00000KT 12SM 14/10 A3009 RMK 60003 SLP202 T01430103 52014 IEM_DS3505
ZGNN,2002-04-11 13:00,ZGNN 111300Z AUTO 32002KT 6SM 14/10 A3012 RMK T01400100 IEM_DS3505
ZGNN,2002-04-11 14:00,ZGNN 111400Z AUTO 20002KT 6SM 12/10 A3015 RMK T01200100 IEM_DS3505
ZGNN,2002-04-11 15:00,ZGNN 111500Z AUTO 00000KT 9SM 12/10 A3015 RMK SLP217 T01190100 52015 IEM_DS3505
ZGNN,2002-04-11 16:00,ZGNN 111600Z AUTO 20002KT 6SM 12/10 A3015 RMK T01200100 IEM_DS3505
ZGNN,2002-04-11 17:00,ZGNN 111700Z AUTO 6SM 11/09 A3012 RMK T01100090 IEM_DS3505
ZGNN,2002-04-11 18:00,ZGNN 111800Z AUTO 00000KT 7SM 10/10 A3009 RMK SLP200 T01030097 57017 IEM_DS3505
ZGNN,2002-04-11 19:00,ZGNN 111900Z AUTO 19002KT 6SM 10/09 A3009 RMK T01000090 IEM_DS3505
ZGNN,2002-04-11 20:00,ZGNN 112000Z AUTO 27002KT 5SM 11/10 A3009 RMK T01100100 IEM_DS3505
ZGNN,2002-04-11 21:00,ZGNN 112100Z AUTO 00000KT 7SM 10/10 A3009 RMK 70002 SLP196 T01010095 57004 IEM_DS3505
ZGNN,2002-04-11 22:00,ZGNN 112200Z AUTO 00000KT 6SM 11/09 A3012 RMK T01100090 IEM_DS3505
ZGNN,2002-04-11 23:00,ZGNN 112300Z AUTO 23002KT 6SM 10/09 A3012 RMK T01000090 IEM_DS3505
ZGNN,2002-04-12 00:00,ZGNN 120000Z AUTO 00000KT 7SM 12/11 A3015 RMK SLP215 T01180108 52019 IEM_DS3505
ZGNN,2002-04-12 01:00,ZGNN 120100Z AUTO 6SM 15/12 A3015 RMK T01500120 IEM_DS3505
ZGNN,2002-04-12 02:00,ZGNN 120200Z AUTO 6SM 19/12 A3018 RMK T01900120 IEM_DS3505
ZGNN,2002-04-12 03:00,ZGNN 120300Z AUTO 14004KT 16SM 22/09 A3015 RMK SLP218 T02200094 52005 IEM_DS3505
ZGNN,2002-04-12 04:00,ZGNN 120400Z AUTO 6SM 23/09 A3015 RMK T02300090 IEM_DS3505
ZGNN,2002-04-12 05:00,ZGNN 120500Z AUTO 04006KT 6SM 24/07 A3012 RMK T02400070 IEM_DS3505
ZGNN,2002-04-12 06:00,ZGNN 120600Z AUTO 07004KT 19SM 25/08 A3009 RMK SLP189 T02510080 57029 IEM_DS3505
ZGNN,2002-04-12 07:00,ZGNN 120700Z AUTO 6SM 25/07 A3003 RMK T02500070 IEM_DS3505
ZGNN,2002-04-12 08:00,ZGNN 120800Z AUTO 6SM 26/06 A3000 RMK T02600060 IEM_DS3505
ZGNN,2002-04-12 09:00,ZGNN 120900Z AUTO 11004KT 16SM 26/08 A3000 RMK SLP165 T02600081 57023 IEM_DS3505
ZGNN,2002-04-12 10:00,ZGNN 121000Z AUTO 6SM 25/06 A3000 RMK T02500060 IEM_DS3505
ZGNN,2002-04-12 11:00,ZGNN 121100Z AUTO 05002KT 6SM 24/08 A3003 RMK T02400080 IEM_DS3505
ZGNN,2002-04-12 12:00,ZGNN 121200Z AUTO 00000KT 16SM 21/11 A3003 RMK SLP178 T02080113 52012 IEM_DS3505
ZGNN,2002-04-12 13:00,ZGNN 121300Z AUTO 06004KT 6SM 18/11 A3003 RMK T01800110 IEM_DS3505
ZGNN,2002-04-12 14:00,ZGNN 121400Z AUTO 32002KT 6SM 19/10 A3006 RMK T01900100 IEM_DS3505
ZGNN,2002-04-12 15:00,ZGNN 121500Z AUTO 00000KT 16SM 17/12 A3006 RMK SLP190 T01680117 52013 IEM_DS3505
ZGNN,2002-04-12 16:00,ZGNN 121600Z AUTO 00000KT 6SM 17/10 A3006 RMK T01700100 IEM_DS3505
ZGNN,2002-04-12 17:00,ZGNN 121700Z AUTO 6SM 15/12 A3006 RMK T01500120 IEM_DS3505
ZGNN,2002-04-12 18:00,ZGNN 121800Z AUTO 00000KT 12SM 14/11 A3003 RMK SLP176 T01430111 57013 IEM_DS3505
ZGNN,2002-04-12 19:00,ZGNN 121900Z AUTO 00000KT 6SM 15/11 A3000 RMK T01500110 IEM_DS3505
ZGNN,2002-04-12 20:00,ZGNN 122000Z AUTO 13002KT 4SM 14/12 A3000 RMK T01400120 IEM_DS3505
ZGNN,2002-04-12 21:00,ZGNN 122100Z AUTO 00000KT 11SM 14/12 A3000 RMK SLP161 T01420116 57015 IEM_DS3505
ZGNN,2002-04-12 22:00,ZGNN 122200Z AUTO 00000KT 4SM 14/12 A3000 RMK T01400120 IEM_DS3505
ZGNN,2002-04-12 23:00,ZGNN 122300Z AUTO 27002KT 5SM 14/12 A3000 RMK T01400120 IEM_DS3505
ZGNN,2002-04-13 00:00,ZGNN 130000Z AUTO 00000KT 9SM 15/13 A3003 RMK SLP176 T01500130 52014 IEM_DS3505
ZGNN,2002-04-13 01:00,ZGNN 130100Z AUTO 00000KT 5SM 18/13 A3006 RMK T01800130 IEM_DS3505
ZGNN,2002-04-13 02:00,ZGNN 130200Z AUTO 6SM 21/12 A3006 RMK T02100120 IEM_DS3505
ZGNN,2002-04-13 03:00,ZGNN 130300Z AUTO 20004KT 9SM 24/13 A3003 RMK SLP174 T02420127 57001 IEM_DS3505
ZGNN,2002-04-13 04:00,ZGNN 130400Z AUTO 6SM 25/11 A3000 RMK T02500110 IEM_DS3505
ZGNN,2002-04-13 05:00,ZGNN 130500Z AUTO 17006KT 6SM 27/11 A2997 RMK T02700110 IEM_DS3505
ZGNN,2002-04-13 06:00,ZGNN 130600Z AUTO 20006KT 16SM 27/13 A2991 RMK SLP137 T02720126 57036 IEM_DS3505
ZGNN,2002-04-13 07:00,ZGNN 130700Z AUTO 6SM 29/11 A2988 RMK T02900110 IEM_DS3505
ZGNN,2002-04-13 08:00,ZGNN 130800Z AUTO 6SM 29/12 A2985 RMK T02900120 IEM_DS3505
ZGNN,2002-04-13 09:00,ZGNN 130900Z AUTO 18006KT 12SM 29/14 A2985 RMK SLP111 T02870136 57026 IEM_DS3505
ZGNN,2002-04-13 10:00,ZGNN 131000Z AUTO 14012KT 6SM 26/16 A2983 RMK T02600160 IEM_DS3505
ZGNN,2002-04-13 12:00,ZGNN 131200Z AUTO 18006KT 9SM 24/14 A2988 RMK SLP120 T02350145 52008 IEM_DS3505
ZGNN,2002-04-13 13:00,ZGNN 131300Z AUTO 6SM 22/13 A2988 RMK T02200130 IEM_DS3505
ZGNN,2002-04-13 14:00,ZGNN 131400Z AUTO 6SM 21/14 A2988 RMK T02100140 IEM_DS3505
ZGNN,2002-04-13 15:00,ZGNN 131500Z AUTO 00000KT 9SM 21/15 A2991 RMK SLP130 T02090150 52012 IEM_DS3505
ZGNN,2002-04-13 16:00,ZGNN 131600Z AUTO 13002KT 7SM 20/14 A2988 RMK T02000140 IEM_DS3505
ZGNN,2002-04-13 17:00,ZGNN 131700Z AUTO 00000KT 7SM 19/14 A2988 RMK T01900140 IEM_DS3505
ZGNN,2002-04-13 18:00,ZGNN 131800Z AUTO 00000KT 9SM 19/15 A2985 RMK SLP111 T01940150 57019 IEM_DS3505
ZGNN,2002-04-13 19:00,ZGNN 131900Z AUTO 4SM 19/15 A2983 RMK T01900150 IEM_DS3505
ZGNN,2002-04-13 20:00,ZGNN 132000Z AUTO 4SM 18/15 A2983 RMK T01800150 IEM_DS3505
ZGNN,2002-04-13 21:00,ZGNN 132100Z AUTO 36004KT 9SM 18/16 A2980 RMK SLP100 T01780161 57011 IEM_DS3505
ZGNN,2002-04-13 22:00,ZGNN 132200Z AUTO 35004KT 5SM 18/15 A2983 RMK T01800150 IEM_DS3505
ZGNN,2002-04-13 23:00,ZGNN 132300Z AUTO 01002KT 6SM 18/16 A2983 RMK T01800160 IEM_DS3505
ZGNN,2002-04-14 00:00,ZGNN 140000Z AUTO 00000KT 7SM 19/17 A2983 RMK SLP107 T01940168 52006 IEM_DS3505
ZGNN,2002-04-14 01:00,ZGNN 140100Z AUTO 6SM 22/17 A2985 RMK T02200170 IEM_DS3505
ZGNN,2002-04-14 02:00,ZGNN 140200Z AUTO 6SM 24/17 A2985 RMK T02400170 IEM_DS3505
ZGNN,2002-04-14 03:00,ZGNN 140300Z AUTO 20006KT 11SM 25/16 A2985 RMK SLP112 T02540156 52006 IEM_DS3505
ZGNN,2002-04-14 04:00,ZGNN 140400Z AUTO 6SM 27/16 A2983 RMK T02700160 IEM_DS3505
ZGNN,2002-04-14 05:00,ZGNN 140500Z AUTO 7SM 29/16 A2980 RMK T02900160 IEM_DS3505
ZGNN,2002-04-14 06:00,ZGNN 140600Z AUTO 09008KT 14SM 30/18 A2974 RMK SLP072 T03020184 57038 IEM_DS3505
ZGNN,2002-04-14 07:00,ZGNN 140700Z AUTO 18010KT 6SM 31/17 A2971 RMK T03100170 IEM_DS3505
ZGNN,2002-04-14 08:00,ZGNN 140800Z AUTO 21010KT 7SM 31/18 A2968 RMK T03100180 IEM_DS3505
ZGNN,2002-04-14 09:00,ZGNN 140900Z AUTO 14008KT 14SM 30/19 A2968 RMK SLP047 T03020193 57025 IEM_DS3505
ZGNN,2002-04-14 10:00,ZGNN 141000Z AUTO 15012KT 6SM 29/19 A2968 RMK T02900190 IEM_DS3505
ZGNN,2002-04-14 11:00,ZGNN 141100Z AUTO 15010KT 6SM 27/19 A2971 RMK T02700190 IEM_DS3505
ZGNN,2002-04-14 12:00,ZGNN 141200Z AUTO 18006KT 12SM 26/20 A2971 RMK SLP067 T02620198 52019 IEM_DS3505
ZGNN,2002-04-14 13:00,ZGNN 141300Z AUTO 17008KT 6SM 25/19 A2974 RMK T02500190 IEM_DS3505
ZGNN,2002-04-14 14:00,ZGNN 141400Z AUTO 16010KT 6SM 24/20 A2977 RMK T02400200 IEM_DS3505
ZGNN,2002-04-14 15:00,ZGNN 141500Z AUTO 18006KT 11SM 24/21 A2977 RMK SLP084 T02410206 52017 IEM_DS3505
ZGNN,2002-04-14 17:00,ZGNN 141700Z AUTO 16008KT 7SM 23/20 A2977 RMK T02300200 IEM_DS3505
ZGNN,2002-04-14 18:00,ZGNN 141800Z AUTO 18002KT 9SM 23/21 RMK SLP083 T02320208 54000 IEM_DS3505
ZGNN,2002-04-14 19:00,ZGNN 141900Z AUTO 17006KT 7SM 22/20 A2977 RMK T02200200 IEM_DS3505
ZGNN,2002-04-14 20:00,ZGNN 142000Z AUTO 26004KT 5SM 22/20 A2977 RMK T02200200 IEM_DS3505
ZGNN,2002-04-14 21:00,ZGNN 142100Z AUTO 32004KT 9SM 22/21 A2977 RMK SLP080 T02200206 57003 IEM_DS3505
ZGNN,2002-04-14 22:00,ZGNN 142200Z AUTO 35002KT 6SM 22/20 A2977 RMK T02200200 IEM_DS3505
ZGNN,2002-04-14 23:00,ZGNN 142300Z AUTO 6SM 22/20 A2980 RMK T02200200 IEM_DS3505
ZGNN,2002-04-15 00:00,ZGNN 150000Z AUTO 00000KT 7SM 22/21 A2980 RMK SLP090 T02240206 52009 IEM_DS3505
ZGNN,2002-04-15 01:00,ZGNN 150100Z AUTO 00000KT 6SM 23/20 A2983 RMK T02300200 IEM_DS3505
ZGNN,2002-04-15 02:00,ZGNN 150200Z AUTO 6SM 24/20 A2983 RMK T02400200 IEM_DS3505
ZGNN,2002-04-15 03:00,ZGNN 150300Z AUTO 00000KT 8SM 25/21 A2985 RMK SLP113 T02490213 52023 IEM_DS3505
ZGNN,2002-04-15 04:00,ZGNN 150400Z AUTO 13002KT 7SM 26/21 A2983 RMK T02600210 IEM_DS3505
ZGNN,2002-04-15 05:00,ZGNN 150500Z AUTO 15006KT 7SM 26/20 A2980 RMK T02600200 IEM_DS3505
ZGNN,2002-04-15 06:00,ZGNN 150600Z AUTO 18006KT 9SM 27/22 A2974 RMK SLP074 T02680215 57038 IEM_DS3505
ZGNN,2002-04-15 07:00,ZGNN 150700Z AUTO 14006KT 6SM 27/21 A2971 RMK T02700210 IEM_DS3505
ZGNN,2002-04-15 08:00,ZGNN 150800Z AUTO 14008KT 6SM 27/21 A2971 RMK T02700210 IEM_DS3505
ZGNN,2002-04-15 09:00,ZGNN 150900Z AUTO 14006KT 12SM 27/22 A2968 RMK SLP054 T02740215 57020 IEM_DS3505
ZGNN,2002-04-15 10:00,ZGNN 151000Z AUTO 14010KT 6SM 26/21 A2971 RMK T02600210 IEM_DS3505
ZGNN,2002-04-15 11:00,ZGNN 151100Z AUTO 14010KT 6SM 25/21 A2971 RMK T02500210 IEM_DS3505
ZGNN,2002-04-15 12:00,ZGNN 151200Z AUTO 14006KT 12SM 25/22 A2971 RMK SLP067 T02490215 52012 IEM_DS3505
ZGNN,2002-04-15 13:00,ZGNN 151300Z AUTO 14006KT 6SM 24/21 A2974 RMK T02400210 IEM_DS3505
ZGNN,2002-04-15 14:00,ZGNN 151400Z AUTO 15008KT 6SM 24/20 A2974 RMK T02400200 IEM_DS3505
ZGNN,2002-04-15 15:00,ZGNN 151500Z AUTO 16004KT 11SM 24/21 A2977 RMK SLP082 T02360209 52015 IEM_DS3505
ZGNN,2002-04-15 16:00,ZGNN 151600Z AUTO 19004KT 7SM 22/20 A2977 RMK T02200200 IEM_DS3505
ZGNN,2002-04-15 17:00,ZGNN 151700Z AUTO 00000KT 7SM 21/19 A2977 RMK T02100190 IEM_DS3505
ZGNN,2002-04-15 19:00,ZGNN 151900Z AUTO 36002KT 5SM 20/19 A2977 RMK T02000190 IEM_DS3505
ZGNN,2002-04-15 20:00,ZGNN 152000Z AUTO 01004KT 4SM 21/19 A2977 RMK T02100190 IEM_DS3505
ZGNN,2002-04-15 21:00,ZGNN 152100Z AUTO 00000KT 7SM 21/20 A2977 RMK SLP081 T02120203 57002 IEM_DS3505
ZGNN,2002-04-15 22:00,ZGNN 152200Z AUTO 01004KT 4SM 21/20 A2977 RMK T02100200 IEM_DS3505
ZGNN,2002-04-15 23:00,ZGNN 152300Z AUTO 35004KT 6SM 21/20 A2977 RMK T02100200 IEM_DS3505
ZGNN,2002-04-16 00:00,ZGNN 160000Z AUTO 00000KT 6SM 22/21 A2980 RMK SLP092 T02180212 52011 IEM_DS3505
ZGNN,2002-04-16 02:00,ZGNN 160200Z AUTO 6SM 24/21 A2983 RMK T02400210 IEM_DS3505
ZGNN,2002-04-16 03:00,ZGNN 160300Z AUTO 18006KT 9SM 27/22 A2983 RMK SLP100 T02710221 52008 IEM_DS3505
ZGNN,2002-04-16 04:00,ZGNN 160400Z AUTO 17008KT 7SM 29/21 A2980 RMK T02900210 IEM_DS3505
ZGNN,2002-04-16 05:00,ZGNN 160500Z AUTO 13006KT 7SM 30/22 A2977 RMK T03000220 IEM_DS3505
ZGNN,2002-04-16 06:00,ZGNN 160600Z AUTO 18006KT 19SM 31/22 A2974 RMK SLP069 T03110219 57030 IEM_DS3505
ZGNN,2002-04-16 07:00,ZGNN 160700Z AUTO 12012KT 7SM 32/22 A2971 RMK T03200220 IEM_DS3505
ZGNN,2002-04-16 08:00,ZGNN 160800Z AUTO 12010KT 7SM 32/21 A2971 RMK T03200210 IEM_DS3505
ZGNN,2002-04-16 09:00,ZGNN 160900Z AUTO 14006KT 16SM 32/22 A2971 RMK SLP058 T03150222 57010 IEM_DS3505
ZGNN,2002-04-16 10:00,ZGNN 161000Z AUTO 13012KT 6SM 30/21 A2971 RMK T03000210 IEM_DS3505
ZGNN,2002-04-16 11:00,ZGNN 161100Z AUTO 13012KT 6SM 28/21 A2971 RMK T02800210 IEM_DS3505
ZGNN,2002-04-16 12:00,ZGNN 161200Z AUTO 14004KT 17SM 27/22 A2974 RMK SLP075 T02690219 52015 IEM_DS3505
ZGNN,2002-04-16 13:00,ZGNN 161300Z AUTO 13006KT 6SM 25/21 A2977 RMK T02500210 IEM_DS3505
ZGNN,2002-04-16 14:00,ZGNN 161400Z AUTO 14006KT 6SM 25/21 A2980 RMK T02500210 IEM_DS3505
ZGNN,2002-04-16 15:00,ZGNN 161500Z AUTO 14004KT 16SM 25/22 A2983 RMK SLP100 T02470219 52026 IEM_DS3505
ZGNN,2002-04-16 16:00,ZGNN 161600Z AUTO 12004KT 6SM 24/21 A2983 RMK T02400210 IEM_DS3505
ZGNN,2002-04-16 17:00,ZGNN 161700Z AUTO 11004KT 6SM 24/21 A2983 RMK T02400210 IEM_DS3505
ZGNN,2002-04-16 18:00,ZGNN 161800Z AUTO 00000KT 14SM 24/21 RMK SLP096 T02420214 57003 IEM_DS3505
ZGNN,2002-04-16 19:00,ZGNN 161900Z AUTO 08002KT 7SM 23/20 A2980 RMK T02300200 IEM_DS3505
ZGNN,2002-04-16 20:00,ZGNN 162000Z AUTO 01004KT 5SM 22/20 A2980 RMK T02200200 IEM_DS3505
ZGNN,2002-04-16 21:00,ZGNN 162100Z AUTO 00000KT 12SM 23/22 A2980 RMK SLP094 T02280215 57003 IEM_DS3505
ZGNN,2002-04-16 22:00,ZGNN 162200Z AUTO 30002KT 6SM 22/20 A2983 RMK T02200200 IEM_DS3505
ZGNN,2002-04-16 23:00,ZGNN 162300Z AUTO 00000KT 6SM 22/20 A2985 RMK T02200200 IEM_DS3505
ZGNN,2002-04-17 00:00,ZGNN 170000Z AUTO 00000KT 7SM 24/22 A2988 RMK SLP119 T02380220 52024 IEM_DS3505
ZGNN,2002-04-17 01:00,ZGNN 170100Z AUTO 6SM 26/22 A2988 RMK T02600220 IEM_DS3505
ZGNN,2002-04-17 02:00,ZGNN 170200Z AUTO 13008KT 7SM 29/21 A2988 RMK T02900210 IEM_DS3505
ZGNN,2002-04-17 03:00,ZGNN 170300Z AUTO 18006KT 16SM 30/21 A2988 RMK SLP117 T02970210 57001 IEM_DS3505
ZGNN,2002-04-17 04:00,ZGNN 170400Z AUTO 17006KT 7SM 30/21 A2985 RMK T03000210 IEM_DS3505
ZGNN,2002-04-17 05:00,ZGNN 170500Z AUTO 14006KT 7SM 31/21 A2983 RMK T03100210 IEM_DS3505
ZGNN,2002-04-17 06:00,ZGNN 170600Z AUTO 14006KT 19SM 31/22 A2980 RMK SLP087 T03130218 57029 IEM_DS3505
ZGNN,2002-04-17 07:00,ZGNN 170700Z AUTO 11008KT 7SM 32/21 A2977 RMK T03200210 IEM_DS3505
ZGNN,2002-04-17 08:00,ZGNN 170800Z AUTO 11008KT 7SM 33/21 A2971 RMK T03300210 IEM_DS3505
ZGNN,2002-04-17 09:00,ZGNN 170900Z AUTO 14008KT 19SM 32/22 A2971 RMK SLP066 T03230217 57021 IEM_DS3505
ZGNN,2002-04-17 10:00,ZGNN 171000Z AUTO 12008KT 7SM 30/20 A2974 RMK T03000200 IEM_DS3505
ZGNN,2002-04-17 11:00,ZGNN 171100Z AUTO 12008KT 7SM 28/21 A2974 RMK T02800210 IEM_DS3505
ZGNN,2002-04-17 12:00,ZGNN 171200Z AUTO 02010KT 19SM 22/19 A2985 RMK 60008 SLP112 T02180188 52043 IEM_DS3505
ZGNN,2002-04-17 13:00,ZGNN 171300Z AUTO 34010KT 7SM 20/17 A2988 RMK T02000170 IEM_DS3505
ZGNN,2002-04-17 14:00,ZGNN 171400Z AUTO 36012KT 7SM 19/16 A2991 RMK T01900160 IEM_DS3505
ZGNN,2002-04-17 15:00,ZGNN 171500Z AUTO 32004KT 19SM 18/17 A2994 RMK SLP146 T01850170 52034 IEM_DS3505
ZGNN,2002-04-17 16:00,ZGNN 171600Z AUTO 35006KT 7SM 18/16 A2994 RMK T01800160 IEM_DS3505
ZGNN,2002-04-17 17:00,ZGNN 171700Z AUTO 7SM 18/16 A2997 RMK T01800160 IEM_DS3505
ZGNN,2002-04-17 18:00,ZGNN 171800Z AUTO 03006KT 7SM 17/15 A2994 RMK T01700150 IEM_DS3505
ZGNN,2002-04-17 19:00,ZGNN 171900Z AUTO 32008KT 7SM 17/15 A2997 RMK T01700150 IEM_DS3505
ZGNN,2002-04-17 20:00,ZGNN 172000Z AUTO 35008KT 7SM 16/14 A2997 RMK T01600140 IEM_DS3505
ZGNN,2002-04-17 21:00,ZGNN 172100Z AUTO 34006KT 16SM 17/15 A2997 RMK 70030 SLP150 T01670150 52015 IEM_DS3505
ZGNN,2002-04-17 22:00,ZGNN 172200Z AUTO 36006KT 7SM 17/14 A3000 RMK T01700140 IEM_DS3505
ZGNN,2002-04-17 23:00,ZGNN 172300Z AUTO 7SM 17/14 A3000 RMK T01700140 IEM_DS3505
ZGNN,2002-04-18 00:00,ZGNN 180000Z AUTO 36006KT 17SM 17/14 A3003 RMK 60012 SLP169 T01690143 52017 IEM_DS3505
ZGNN,2002-04-18 01:00,ZGNN 180100Z AUTO 36008KT 7SM 17/14 A3003 RMK T01700140 IEM_DS3505
ZGNN,2002-04-18 02:00,ZGNN 180200Z AUTO 35006KT 7SM 18/14 A3006 RMK T01800140 IEM_DS3505
ZGNN,2002-04-18 03:00,ZGNN 180300Z AUTO 36008KT 19SM 18/14 A3006 RMK SLP186 T01820140 52016 IEM_DS3505
ZGNN,2002-04-18 04:00,ZGNN 180400Z AUTO 35008KT 7SM 19/13 A3006 RMK T01900130 IEM_DS3505
ZGNN,2002-04-18 05:00,ZGNN 180500Z AUTO 35006KT 7SM 19/14 A3003 RMK T01900140 IEM_DS3505
ZGNN,2002-04-18 06:00,ZGNN 180600Z AUTO 04004KT 17SM 20/14 A3000 RMK SLP160 T01990145 57026 IEM_DS3505
ZGNN,2002-04-18 07:00,ZGNN 180700Z AUTO 04006KT 7SM 20/14 A2997 RMK T02000140 IEM_DS3505
ZGNN,2002-04-18 08:00,ZGNN 180800Z AUTO 05006KT 7SM 20/15 A2994 RMK T02000150 IEM_DS3505
ZGNN,2002-04-18 09:00,ZGNN 180900Z AUTO 02002KT 7SM 20/15 A2994 RMK SLP138 T02030149 57021 IEM_DS3505
ZGNN,2002-04-18 10:00,ZGNN 181000Z AUTO 05004KT 7SM 20/14 A2994 RMK T02000140 IEM_DS3505
ZGNN,2002-04-18 11:00,ZGNN 181100Z AUTO 08006KT 7SM 19/14 A2994 RMK T01900140 IEM_DS3505
ZGNN,2002-04-18 12:00,ZGNN 181200Z AUTO 11004KT 12SM 19/15 A2997 RMK SLP152 T01870146 52013 IEM_DS3505
ZGNN,2002-04-18 13:00,ZGNN 181300Z AUTO 7SM 18/14 A3000 RMK T01800140 IEM_DS3505
ZGNN,2002-04-18 14:00,ZGNN 181400Z AUTO 07004KT 7SM 18/14 A3000 RMK T01800140 IEM_DS3505
ZGNN,2002-04-18 15:00,ZGNN 181500Z AUTO 00000KT 12SM 18/15 A3000 RMK SLP167 T01800148 52015 IEM_DS3505
ZGNN,2002-04-18 16:00,ZGNN 181600Z AUTO 03004KT 7SM 18/14 A3000 RMK T01800140 IEM_DS3505
ZGNN,2002-04-18 17:00,ZGNN 181700Z AUTO 05004KT 7SM 18/14 A3000 RMK T01800140 IEM_DS3505
ZGNN,2002-04-18 18:00,ZGNN 181800Z AUTO 00000KT 9SM 18/15 RMK SLP157 T01770146 57010 IEM_DS3505
ZGNN,2002-04-18 19:00,ZGNN 181900Z AUTO 6SM 17/15 A2997 RMK T01700150 IEM_DS3505
ZGNN,2002-04-18 20:00,ZGNN 182000Z AUTO 07004KT 4SM 17/15 A2994 RMK T01700150 IEM_DS3505
ZGNN,2002-04-18 21:00,ZGNN 182100Z AUTO 09002KT 7SM 17/15 A2994 RMK 70000 SLP147 T01690150 57010 IEM_DS3505
ZGNN,2002-04-18 22:00,ZGNN 182200Z AUTO 07002KT 4SM 16/15 A2997 RMK T01600150 IEM_DS3505
ZGNN,2002-04-18 23:00,ZGNN 182300Z AUTO 00000KT 2 1/2SM 17/15 A2997 RMK T01700150 IEM_DS3505
ZGNN,2002-04-19 00:00,ZGNN 190000Z AUTO 09002KT 3SM 17/16 A3000 RMK 60000 SLP166 T01720157 52019 IEM_DS3505
ZGNN,2002-04-19 01:00,ZGNN 190100Z AUTO 4SM 17/15 A3003 RMK T01700150 IEM_DS3505
ZGNN,2002-04-19 02:00,ZGNN 190200Z AUTO 03004KT 2SM 17/15 A3006 RMK T01700150 IEM_DS3505
ZGNN,2002-04-19 03:00,ZGNN 190300Z AUTO 11004KT 4SM 18/17 A3003 RMK SLP171 T01790167 52005 IEM_DS3505
ZGNN,2002-04-19 04:00,ZGNN 190400Z AUTO 2 1/2SM 18/16 A3000 RMK T01800160 IEM_DS3505
ZGNN,2002-04-19 05:00,ZGNN 190500Z AUTO 3SM 18/16 A3000 RMK T01800160 IEM_DS3505
ZGNN,2002-04-19 06:00,ZGNN 190600Z AUTO 09002KT 6SM 20/18 A2994 RMK 60008 SLP141 T02040183 57029 IEM_DS3505
ZGNN,2002-04-19 07:00,ZGNN 190700Z AUTO 7SM 23/19 A2991 RMK T02300190 IEM_DS3505
ZGNN,2002-04-19 08:00,ZGNN 190800Z AUTO 14008KT 7SM 24/21 A2985 RMK T02400210 IEM_DS3505
ZGNN,2002-04-19 09:00,ZGNN 190900Z AUTO 09004KT 7SM 24/22 A2985 RMK SLP110 T02390215 57030 IEM_DS3505
ZGNN,2002-04-19 10:00,ZGNN 191000Z AUTO 15008KT 7SM 24/21 A2983 RMK T02400210 IEM_DS3505
ZGNN,2002-04-19 11:00,ZGNN 191100Z AUTO 13006KT 7SM 24/21 A2985 RMK T02400210 IEM_DS3505
ZGNN,2002-04-19 12:00,ZGNN 191200Z AUTO 00000KT 7SM 23/22 A2985 RMK SLP115 T02300215 52005 IEM_DS3505
ZGNN,2002-04-19 13:00,ZGNN 191300Z AUTO 7SM 23/21 A2988 RMK T02300210 IEM_DS3505
ZGNN,2002-04-19 14:00,ZGNN 191400Z AUTO 09002KT 7SM 23/21 A2988 RMK T02300210 IEM_DS3505
ZGNN,2002-04-19 15:00,ZGNN 191500Z AUTO 00000KT 5SM 23/22 A2988 RMK SLP128 T02270218 52013 IEM_DS3505
ZGNN,2002-04-19 16:00,ZGNN 191600Z AUTO 2 1/2SM 23/21 A2988 RMK T02300210 IEM_DS3505
ZGNN,2002-04-19 17:00,ZGNN 191700Z AUTO 1SM 23/21 A2988 RMK T02300210 IEM_DS3505
ZGNN,2002-04-19 18:00,ZGNN 191800Z AUTO 14002KT 5SM 23/22 A2988 RMK SLP121 T02320220 57007 IEM_DS3505
ZGNN,2002-04-19 19:00,ZGNN 191900Z AUTO 04002KT 4SM 23/21 A2985 RMK T02300210 IEM_DS3505
ZGNN,2002-04-19 20:00,ZGNN 192000Z AUTO 00000KT 4SM 23/21 A2985 RMK T02300210 IEM_DS3505
ZGNN,2002-04-19 21:00,ZGNN 192100Z AUTO 00000KT 5SM 23/22 A2985 RMK 70006 SLP115 T02270220 57005 IEM_DS3505
ZGNN,2002-04-19 22:00,ZGNN 192200Z AUTO 26002KT 4SM 22/20 A2988 RMK T02200200 IEM_DS3505
ZGNN,2002-04-19 23:00,ZGNN 192300Z AUTO 00000KT 4SM 21/20 A2988 RMK T02100200 IEM_DS3505
ZGNN,2002-04-20 00:00,ZGNN 200000Z AUTO 00000KT 6SM 23/22 A2991 RMK 70006 SLP129 T02260219 52014 IEM_DS3505
ZGNN,2002-04-20 01:00,ZGNN 200100Z AUTO 00000KT 6SM 24/21 A2991 RMK T02400210 IEM_DS3505
ZGNN,2002-04-20 02:00,ZGNN 200200Z AUTO 6SM 25/21 A2991 RMK T02500210 IEM_DS3505
ZGNN,2002-04-20 03:00,ZGNN 200300Z AUTO 20004KT 12SM 27/22 A2991 RMK SLP126 T02670218 57002 IEM_DS3505
ZGNN,2002-04-20 04:00,ZGNN 200400Z AUTO 14004KT 7SM 28/20 A2988 RMK T02800200 IEM_DS3505
ZGNN,2002-04-20 05:00,ZGNN 200500Z AUTO 7SM 28/20 A2985 RMK T02800200 IEM_DS3505
ZGNN,2002-04-20 06:00,ZGNN 200600Z AUTO 18004KT 19SM 28/21 A2983 RMK SLP096 T02800213 57029 IEM_DS3505
ZGNN,2002-04-20 07:00,ZGNN 200700Z AUTO 15008KT 7SM 28/21 A2980 RMK T02800210 IEM_DS3505
ZGNN,2002-04-20 08:00,ZGNN 200800Z AUTO 14006KT 7SM 27/21 A2977 RMK T02700210 IEM_DS3505
ZGNN,2002-04-20 09:00,ZGNN 200900Z AUTO 22004KT 19SM 26/23 A2977 RMK SLP079 T02650226 57018 IEM_DS3505
ZGNN,2002-04-20 10:00,ZGNN 201000Z AUTO 13010KT 7SM 26/21 A2974 RMK T02600210 IEM_DS3505
ZGNN,2002-04-20 11:00,ZGNN 201100Z AUTO 14006KT 7SM 26/22 A2977 RMK T02600220 IEM_DS3505
ZGNN,2002-04-20 12:00,ZGNN 201200Z AUTO 14008KT 16SM 26/22 A2977 RMK SLP086 T02560221 52007 IEM_DS3505
ZGNN,2002-04-20 13:00,ZGNN 201300Z AUTO 15006KT 7SM 25/21 A2980 RMK T02500210 IEM_DS3505
ZGNN,2002-04-20 14:00,ZGNN 201400Z AUTO 13004KT 7SM 24/21 A2983 RMK T02400210 IEM_DS3505
ZGNN,2002-04-20 15:00,ZGNN 201500Z AUTO 00000KT 12SM 25/22 A2983 RMK SLP104 T02470225 52019 IEM_DS3505
ZGNN,2002-04-20 18:00,ZGNN 201800Z AUTO 00000KT 12SM 24/22 A2980 RMK SLP086 T02430221 57018 IEM_DS3505
ZGNN,2002-04-20 21:00,ZGNN 202100Z AUTO 00000KT 9SM 23/22 A2977 RMK SLP084 T02340218 57002 IEM_DS3505
ZGNN,2002-04-20 22:00,ZGNN 202200Z AUTO 00000KT 6SM 23/21 A2980 RMK T02300210 IEM_DS3505
ZGNN,2002-04-20 23:00,ZGNN 202300Z AUTO 00000KT 6SM 22/21 A2980 RMK T02200210 IEM_DS3505
ZGNN,2002-04-21 00:00,ZGNN 210000Z AUTO 00000KT 7SM 23/22 A2983 RMK SLP097 T02340219 52012 IEM_DS3505
ZGNN,2002-04-21 01:00,ZGNN 210100Z AUTO 7SM 25/21 A2985 RMK T02500210 IEM_DS3505
ZGNN,2002-04-21 02:00,ZGNN 210200Z AUTO 12006KT 7SM 26/21 A2983 RMK T02600210 IEM_DS3505
ZGNN,2002-04-21 03:00,ZGNN 210300Z AUTO 18004KT 12SM 27/22 A2983 RMK SLP101 T02740216 52005 IEM_DS3505
ZGNN,2002-04-21 04:00,ZGNN 210400Z AUTO 14010KT 7SM 29/20 A2980 RMK T02900200 IEM_DS3505
ZGNN,2002-04-21 05:00,ZGNN 210500Z AUTO 15008KT 7SM 29/20 A2977 RMK T02900200 IEM_DS3505
ZGNN,2002-04-21 06:00,ZGNN 210600Z AUTO 14008KT 19SM 30/22 A2974 RMK SLP071 T02950221 57029 IEM_DS3505
ZGNN,2002-04-21 07:00,ZGNN 210700Z AUTO 18010KT 7SM 29/21 A2971 RMK T02900210 IEM_DS3505
ZGNN,2002-04-21 08:00,ZGNN 210800Z AUTO 16008KT 7SM 29/22 A2968 RMK T02900220 IEM_DS3505
ZGNN,2002-04-21 09:00,ZGNN 210900Z AUTO 18008KT 16SM 30/22 A2968 RMK SLP050 T02970220 57021 IEM_DS3505
ZGNN,2002-04-21 10:00,ZGNN 211000Z AUTO 15008KT 7SM 29/21 A2968 RMK T02900210 IEM_DS3505
ZGNN,2002-04-21 11:00,ZGNN 211100Z AUTO 14010KT 7SM 28/21 A2968 RMK T02800210 IEM_DS3505
ZGNN,2002-04-21 12:00,ZGNN 211200Z AUTO 14002KT 14SM 28/22 A2971 RMK SLP061 T02760220 52010 IEM_DS3505
ZGNN,2002-04-21 13:00,ZGNN 211300Z AUTO 7SM 26/21 A2974 RMK T02600210 IEM_DS3505
ZGNN,2002-04-21 14:00,ZGNN 211400Z AUTO 7SM 26/21 A2977 RMK T02600210 IEM_DS3505
ZGNN,2002-04-21 15:00,ZGNN 211500Z AUTO 20002KT 11SM 25/22 A2977 RMK SLP084 T02510223 52023 IEM_DS3505
ZGNN,2002-04-21 17:00,ZGNN 211700Z AUTO 7SM 23/21 A2977 RMK T02300210 IEM_DS3505
ZGNN,2002-04-21 18:00,ZGNN 211800Z AUTO 00000KT 9SM 24/22 A2977 RMK SLP078 T02360220 57006 IEM_DS3505
ZGNN,2002-04-21 19:00,ZGNN 211900Z AUTO 34002KT 5SM 22/21 A2974 RMK T02200210 IEM_DS3505
ZGNN,2002-04-21 20:00,ZGNN 212000Z AUTO 35002KT 4SM 22/21 A2974 RMK T02200210 IEM_DS3505
ZGNN,2002-04-21 21:00,ZGNN 212100Z AUTO 00000KT 7SM 22/21 RMK SLP073 T02210213 57005 IEM_DS3505
ZGNN,2002-04-21 22:00,ZGNN 212200Z AUTO 36002KT 7SM 22/20 A2977 RMK T02200200 IEM_DS3505
ZGNN,2002-04-21 23:00,ZGNN 212300Z AUTO 04002KT 7SM 22/20 A2977 RMK T02200200 IEM_DS3505
ZGNN,2002-04-22 00:00,ZGNN 220000Z AUTO 00000KT 9SM 23/22 A2980 RMK SLP094 T02340221 52021 IEM_DS3505
ZGNN,2002-04-22 01:00,ZGNN 220100Z AUTO 6SM 26/21 RMK T02600210 IEM_DS3505
ZGNN,2002-04-22 02:00,ZGNN 220200Z AUTO 7SM 28/22 A2983 RMK T02800220 IEM_DS3505
ZGNN,2002-04-22 03:00,ZGNN 220300Z AUTO 20006KT 16SM 29/22 A2980 RMK SLP093 T02920222 57001 IEM_DS3505
ZGNN,2002-04-22 04:00,ZGNN 220400Z AUTO 18008KT 7SM 31/21 A2977 RMK T03100210 IEM_DS3505
ZGNN,2002-04-22 05:00,ZGNN 220500Z AUTO 19008KT 7SM 32/21 A2977 RMK T03200210 IEM_DS3505
ZGNN,2002-04-22 06:00,ZGNN 220600Z AUTO 18006KT 19SM 32/22 A2971 RMK SLP062 T03160217 57030 IEM_DS3505
ZGNN,2002-04-22 07:00,ZGNN 220700Z AUTO 14008KT 7SM 32/21 A2968 RMK T03200210 IEM_DS3505
ZGNN,2002-04-22 08:00,ZGNN 220800Z AUTO 17006KT 7SM 32/21 A2968 RMK T03200210 IEM_DS3505
ZGNN,2002-04-22 09:00,ZGNN 220900Z AUTO 18006KT 19SM 32/22 A2965 RMK SLP045 T03200218 57017 IEM_DS3505
ZGNN,2002-04-22 10:00,ZGNN 221000Z AUTO 22010KT 7SM 31/21 A2968 RMK T03100210 IEM_DS3505
ZGNN,2002-04-22 11:00,ZGNN 221100Z AUTO 16008KT 7SM 30/21 A2968 RMK T03000210 IEM_DS3505
ZGNN,2002-04-22 12:00,ZGNN 221200Z AUTO 18006KT 19SM 29/21 A2971 RMK SLP063 T02910208 52017 IEM_DS3505
ZGNN,2002-04-22 13:00,ZGNN 221300Z AUTO 15008KT 6SM 27/20 A2974 RMK T02700200 IEM_DS3505
ZGNN,2002-04-22 14:00,ZGNN 221400Z AUTO 17006KT 6SM 27/20 A2977 RMK T02700200 IEM_DS3505
ZGNN,2002-04-22 15:00,ZGNN 221500Z AUTO 00000KT 19SM 26/22 RMK SLP089 T02570217 52027 IEM_DS3505
ZGNN,2002-04-22 18:00,ZGNN 221800Z AUTO 00000KT 19SM 25/21 RMK SLP088 T02510214 57001 IEM_DS3505
ZGNN,2002-04-22 21:00,ZGNN 222100Z AUTO 07002KT 16SM 23/22 A2980 RMK SLP090 T02340216 52002 IEM_DS3505
ZGNN,2002-04-22 22:00,ZGNN 222200Z AUTO 01002KT 6SM 23/20 A2980 RMK T02300200 IEM_DS3505
ZGNN,2002-04-22 23:00,ZGNN 222300Z AUTO 30002KT 6SM 23/21 A2985 RMK T02300210 IEM_DS3505
ZGNN,2002-04-23 00:00,ZGNN 230000Z AUTO 00000KT 9SM 24/23 A2988 RMK SLP116 T02440232 52025 IEM_DS3505
ZGNN,2002-04-23 01:00,ZGNN 230100Z AUTO 6SM 26/22 A2988 RMK T02600220 IEM_DS3505
ZGNN,2002-04-23 03:00,ZGNN 230300Z AUTO 20006KT 19SM 30/21 A2991 RMK SLP128 T02960208 52012 IEM_DS3505
ZGNN,2002-04-23 04:00,ZGNN 230400Z AUTO 7SM 31/20 A2988 RMK T03100200 IEM_DS3505
ZGNN,2002-04-23 05:00,ZGNN 230500Z AUTO 21006KT 7SM 32/20 A2985 RMK T03200200 IEM_DS3505
ZGNN,2002-04-23 06:00,ZGNN 230600Z AUTO 20006KT 19SM 31/21 A2983 RMK SLP101 T03140208 57026 IEM_DS3505
ZGNN,2002-04-23 07:00,ZGNN 230700Z AUTO 15006KT 7SM 32/21 A2980 RMK T03200210 IEM_DS3505
ZGNN,2002-04-23 08:00,ZGNN 230800Z AUTO 12010KT 7SM 31/21 A2980 RMK T03100210 IEM_DS3505
ZGNN,2002-04-23 09:00,ZGNN 230900Z AUTO 18006KT 19SM 30/23 A2977 RMK SLP085 T03020227 57017 IEM_DS3505
ZGNN,2002-04-23 10:00,ZGNN 231000Z AUTO 15006KT 7SM 29/22 A2980 RMK T02900220 IEM_DS3505
ZGNN,2002-04-23 11:00,ZGNN 231100Z AUTO 13008KT 6SM 28/22 A2980 RMK T02800220 IEM_DS3505
ZGNN,2002-04-23 12:00,ZGNN 231200Z AUTO 16002KT 17SM 28/23 A2980 RMK SLP087 T02780232 52002 IEM_DS3505
ZGNN,2002-04-23 13:00,ZGNN 231300Z AUTO 14006KT 6SM 26/22 A2980 RMK T02600220 IEM_DS3505
ZGNN,2002-04-23 14:00,ZGNN 231400Z AUTO 13004KT 6SM 26/22 A2983 RMK T02600220 IEM_DS3505
ZGNN,2002-04-23 15:00,ZGNN 231500Z AUTO 00000KT 17SM 26/23 RMK SLP101 T02560227 52015 IEM_DS3505
ZGNN,2002-04-23 18:00,ZGNN 231800Z AUTO 16002KT 16SM 24/22 RMK SLP101 T02400219 54000 IEM_DS3505
ZGNN,2002-04-23 21:00,ZGNN 232100Z AUTO 00000KT 16SM 23/22 A2983 RMK SLP097 T02270215 57005 IEM_DS3505
ZGNN,2002-04-23 22:00,ZGNN 232200Z AUTO 00000KT 6SM 22/21 A2983 RMK T02200210 IEM_DS3505
ZGNN,2002-04-23 23:00,ZGNN 232300Z AUTO 00000KT 6SM 22/21 A2983 RMK T02200210 IEM_DS3505
ZGNN,2002-04-24 00:00,ZGNN 240000Z AUTO 00000KT 12SM 24/22 A2985 RMK SLP113 T02440223 52016 IEM_DS3505
ZGNN,2002-04-24 01:00,ZGNN 240100Z AUTO 00000KT 7SM 25/22 A2988 RMK T02500220 IEM_DS3505
ZGNN,2002-04-24 02:00,ZGNN 240200Z AUTO 7SM 26/21 A2988 RMK T02600210 IEM_DS3505
ZGNN,2002-04-24 03:00,ZGNN 240300Z AUTO 18008KT 15SM 29/22 A2988 RMK SLP120 T02860222 52007 IEM_DS3505
ZGNN,2002-04-24 04:00,ZGNN 240400Z AUTO 7SM 30/21 A2988 RMK T03000210 IEM_DS3505
ZGNN,2002-04-24 05:00,ZGNN 240500Z AUTO 16006KT 7SM 31/21 A2985 RMK T03100210 IEM_DS3505
ZGNN,2002-04-24 06:00,ZGNN 240600Z AUTO 18006KT 19SM 32/21 A2983 RMK SLP094 T03180212 57025 IEM_DS3505
ZGNN,2002-04-24 08:00,ZGNN 240800Z AUTO 14006KT 7SM 33/21 A2977 RMK T03300210 IEM_DS3505
ZGNN,2002-04-24 09:00,ZGNN 240900Z AUTO 14008KT 19SM 32/23 A2974 RMK SLP069 T03180226 57025 IEM_DS3505
ZGNN,2002-04-24 10:00,ZGNN 241000Z AUTO 15010KT 7SM 31/22 A2974 RMK T03100220 IEM_DS3505
ZGNN,2002-04-24 11:00,ZGNN 241100Z AUTO 15008KT 6SM 30/22 A2974 RMK T03000220 IEM_DS3505
ZGNN,2002-04-24 12:00,ZGNN 241200Z AUTO 14004KT 19SM 29/24 A2977 RMK SLP079 T02880235 52009 IEM_DS3505
ZGNN,2002-04-24 13:00,ZGNN 241300Z AUTO 14006KT 6SM 27/22 A2977 RMK T02700220 IEM_DS3505
ZGNN,2002-04-24 14:00,ZGNN 241400Z AUTO 6SM 26/23 A2983 RMK T02600230 IEM_DS3505
ZGNN,2002-04-24 15:00,ZGNN 241500Z AUTO 00000KT 16SM 26/24 A2985 RMK SLP111 T02620235 52032 IEM_DS3505
ZGNN,2002-04-24 18:00,ZGNN 241800Z AUTO 16004KT 12SM 25/24 RMK SLP114 T02540235 52004 IEM_DS3505
ZGNN,2002-04-24 21:00,ZGNN 242100Z AUTO 14006KT 12SM 25/23 A2980 RMK SLP084 T02540231 57030 IEM_DS3505
ZGNN,2002-04-24 22:00,ZGNN 242200Z AUTO 14004KT 7SM 25/22 A2983 RMK T02500220 IEM_DS3505
ZGNN,2002-04-24 23:00,ZGNN 242300Z AUTO 09004KT 7SM 25/22 A2985 RMK T02500220 IEM_DS3505
ZGNN,2002-04-25 00:00,ZGNN 250000Z AUTO 14006KT 9SM 26/23 RMK SLP124 T02600234 52039 IEM_DS3505
ZGNN,2002-04-25 01:00,ZGNN 250100Z AUTO 13006KT 7SM 26/23 A2991 RMK T02600230 IEM_DS3505
ZGNN,2002-04-25 02:00,ZGNN 250200Z AUTO 17006KT 7SM 27/23 A2991 RMK T02700230 IEM_DS3505
ZGNN,2002-04-25 03:00,ZGNN 250300Z AUTO 07004KT 6SM 23/22 A2988 RMK SLP127 T02290222 52002 IEM_DS3505
ZGNN,2002-04-25 04:00,ZGNN 250400Z AUTO 10014KT 7SM 27/22 A2988 RMK T02700220 IEM_DS3505
ZGNN,2002-04-25 05:00,ZGNN 250500Z AUTO 12014KT 7SM 28/22 A2988 RMK T02800220 IEM_DS3505
ZGNN,2002-04-25 06:00,ZGNN 250600Z AUTO 09008KT 16SM 27/22 A2985 RMK 60051 SLP107 T02660225 57019 IEM_DS3505
ZGNN,2002-04-25 07:00,ZGNN 250700Z AUTO 11012KT 7SM 28/22 A2980 RMK T02800220 IEM_DS3505
ZGNN,2002-04-25 08:00,ZGNN 250800Z AUTO 11012KT 7SM 27/22 A2977 RMK T02700220 IEM_DS3505
ZGNN,2002-04-25 09:00,ZGNN 250900Z AUTO 14006KT 16SM 28/22 A2977 RMK SLP080 T02760223 57027 IEM_DS3505
ZGNN,2002-04-25 10:00,ZGNN 251000Z AUTO 13012KT 7SM 27/20 A2977 RMK T02700200 IEM_DS3505
ZGNN,2002-04-25 11:00,ZGNN 251100Z AUTO 7SM 26/22 A2980 RMK T02600220 IEM_DS3505
ZGNN,2002-04-25 12:00,ZGNN 251200Z AUTO 09006KT 12SM 24/22 A2980 RMK 60001 SLP094 T02380223 52013 IEM_DS3505
ZGNN,2002-04-25 13:00,ZGNN 251300Z AUTO 05006KT 7SM 22/21 A2983 RMK T02200210 IEM_DS3505
ZGNN,2002-04-25 14:00,ZGNN 251400Z AUTO 04008KT 6SM 22/20 A2985 RMK T02200200 IEM_DS3505
ZGNN,2002-04-25 15:00,ZGNN 251500Z AUTO 09006KT 11SM 22/20 RMK SLP117 T02220204 52022 IEM_DS3505
ZGNN,2002-04-25 16:00,ZGNN 251600Z AUTO 07008KT 2SM 21/19 A2988 RMK T02100190 IEM_DS3505
ZGNN,2002-04-25 17:00,ZGNN 251700Z AUTO 04004KT 2SM 21/20 A2985 RMK T02100200 IEM_DS3505
ZGNN,2002-04-25 18:00,ZGNN 251800Z AUTO 09002KT 9SM 22/20 A2985 RMK SLP108 T02200205 57008 IEM_DS3505
ZGNN,2002-04-25 19:00,ZGNN 251900Z AUTO 04006KT 2SM 22/20 A2983 RMK T02200200 IEM_DS3505
ZGNN,2002-04-25 20:00,ZGNN 252000Z AUTO 06006KT 2SM 21/20 A2983 RMK T02100200 IEM_DS3505
ZGNN,2002-04-25 21:00,ZGNN 252100Z AUTO 14002KT 9SM 21/20 A2983 RMK 70053 SLP105 T02120201 57003 IEM_DS3505
ZGNN,2002-04-25 22:00,ZGNN 252200Z AUTO 04006KT 1 1/2SM 21/19 A2985 RMK T02100190 IEM_DS3505
ZGNN,2002-04-25 23:00,ZGNN 252300Z AUTO 03006KT 1 1/4SM 21/20 A2988 RMK T02100200 IEM_DS3505
ZGNN,2002-04-26 00:00,ZGNN 260000Z AUTO 09002KT 4SM 21/20 A2988 RMK 60003 SLP126 T02140205 52020 IEM_DS3505
ZGNN,2002-04-26 01:00,ZGNN 260100Z AUTO 04006KT 1 1/2SM 22/20 A2991 RMK T02200200 IEM_DS3505
ZGNN,2002-04-26 02:00,ZGNN 260200Z AUTO 2SM 24/21 A2991 RMK T02400210 IEM_DS3505
ZGNN,2002-04-26 03:00,ZGNN 260300Z AUTO 00000KT 5SM 27/23 A2988 RMK SLP125 T02660231 54000 IEM_DS3505
ZGNN,2002-04-26 04:00,ZGNN 260400Z AUTO 16012KT 7SM 28/21 A2988 RMK T02800210 IEM_DS3505
ZGNN,2002-04-26 05:00,ZGNN 260500Z AUTO 14012KT 7SM 29/22 A2985 RMK T02900220 IEM_DS3505
ZGNN,2002-04-26 06:00,ZGNN 260600Z AUTO 18008KT 19SM 28/22 A2983 RMK 60003 SLP098 T02840220 57027 IEM_DS3505
ZGNN,2002-04-26 07:00,ZGNN 260700Z AUTO 15012KT 7SM 29/22 A2980 RMK T02900220 IEM_DS3505
ZGNN,2002-04-26 08:00,ZGNN 260800Z AUTO 15012KT 7SM 28/22 A2977 RMK T02800220 IEM_DS3505
ZGNN,2002-04-26 09:00,ZGNN 260900Z AUTO 18006KT 19SM 29/22 A2974 RMK SLP069 T02890219 57028 IEM_DS3505
ZGNN,2002-04-26 10:00,ZGNN 261000Z AUTO 13008KT 7SM 27/22 A2974 RMK T02700220 IEM_DS3505
ZGNN,2002-04-26 11:00,ZGNN 261100Z AUTO 13012KT 7SM 27/21 A2974 RMK T02700210 IEM_DS3505
ZGNN,2002-04-26 12:00,ZGNN 261200Z AUTO 14006KT 19SM 26/22 A2977 RMK 60001 SLP081 T02630225 52011 IEM_DS3505
ZGNN,2002-04-26 13:00,ZGNN 261300Z AUTO 13008KT 6SM 25/22 A2980 RMK T02500220 IEM_DS3505
ZGNN,2002-04-26 14:00,ZGNN 261400Z AUTO 7SM 25/22 A2983 RMK T02500220 IEM_DS3505
ZGNN,2002-04-26 15:00,ZGNN 261500Z AUTO 18006KT 16SM 26/23 A2983 RMK SLP104 T02590228 52024 IEM_DS3505
ZGNN,2002-04-26 16:00,ZGNN 261600Z AUTO 13006KT 7SM 25/22 A2983 RMK T02500220 IEM_DS3505
ZGNN,2002-04-26 17:00,ZGNN 261700Z AUTO 13006KT 7SM 25/22 A2983 RMK T02500220 IEM_DS3505
ZGNN,2002-04-26 18:00,ZGNN 261800Z AUTO 14004KT 14SM 25/23 RMK SLP097 T02530231 57007 IEM_DS3505
ZGNN,2002-04-26 21:00,ZGNN 262100Z AUTO 00000KT 12SM 25/23 A2980 RMK 70001 SLP092 T02470232 57005 IEM_DS3505
ZGNN,2002-04-26 22:00,ZGNN 262200Z AUTO 11004KT 7SM 24/22 A2983 RMK T02400220 IEM_DS3505
ZGNN,2002-04-26 23:00,ZGNN 262300Z AUTO 10002KT 7SM 24/22 A2983 RMK T02400220 IEM_DS3505
ZGNN,2002-04-27 00:00,ZGNN 270000Z AUTO 14004KT 16SM 25/23 A2985 RMK 60003 SLP110 T02490232 52017 IEM_DS3505
ZGNN,2002-04-27 01:00,ZGNN 270100Z AUTO 15008KT 7SM 26/21 A2988 RMK T02600210 IEM_DS3505
ZGNN,2002-04-27 02:00,ZGNN 270200Z AUTO 15006KT 7SM 27/21 A2988 RMK T02700210 IEM_DS3505
ZGNN,2002-04-27 03:00,ZGNN 270300Z AUTO 18006KT 19SM 27/22 A2988 RMK SLP116 T02740224 52007 IEM_DS3505
ZGNN,2002-04-27 04:00,ZGNN 270400Z AUTO 13012KT 7SM 29/22 A2985 RMK T02900220 IEM_DS3505
ZGNN,2002-04-27 05:00,ZGNN 270500Z AUTO 13016KT 7SM 29/22 A2983 RMK T02900220 IEM_DS3505
ZGNN,2002-04-27 06:00,ZGNN 270600Z AUTO 14008KT 19SM 29/22 A2980 RMK SLP088 T02940223 57027 IEM_DS3505
ZGNN,2002-04-27 07:00,ZGNN 270700Z AUTO 14016KT 7SM 30/22 A2977 RMK T03000220 IEM_DS3505
ZGNN,2002-04-27 08:00,ZGNN 270800Z AUTO 14017KT 7SM 29/22 A2974 RMK T02900220 IEM_DS3505
ZGNN,2002-04-27 09:00,ZGNN 270900Z AUTO 14014KT 19SM 29/22 A2974 RMK SLP066 T02870221 57022 IEM_DS3505
ZGNN,2002-04-27 10:00,ZGNN 271000Z AUTO 14012KT 7SM 28/22 A2974 RMK T02800220 IEM_DS3505
ZGNN,2002-04-27 11:00,ZGNN 271100Z AUTO 14010KT 6SM 27/22 A2974 RMK T02700220 IEM_DS3505
ZGNN,2002-04-27 12:00,ZGNN 271200Z AUTO 14008KT 16SM 27/22 A2977 RMK SLP080 T02690222 52013 IEM_DS3505
ZGNN,2002-04-27 13:00,ZGNN 271300Z AUTO 13010KT 6SM 26/22 A2977 RMK T02600220 IEM_DS3505
ZGNN,2002-04-27 14:00,ZGNN 271400Z AUTO 14008KT 7SM 25/22 A2980 RMK T02500220 IEM_DS3505
ZGNN,2002-04-27 15:00,ZGNN 271500Z AUTO 18006KT 16SM 26/23 RMK SLP096 T02550226 52016 IEM_DS3505
ZGNN,2002-04-27 18:00,ZGNN 271800Z AUTO 00000KT 16SM 25/23 RMK SLP092 T02520227 57003 IEM_DS3505
ZGNN,2002-04-27 21:00,ZGNN 272100Z AUTO 14006KT 7SM 24/23 A2980 RMK 70003 SLP088 T02450229 57005 IEM_DS3505
ZGNN,2002-04-27 22:00,ZGNN 272200Z AUTO 6SM 24/22 A2980 RMK T02400220 IEM_DS3505
ZGNN,2002-04-27 23:00,ZGNN 272300Z AUTO 00000KT 7SM 24/22 A2983 RMK T02400220 IEM_DS3505
ZGNN,2002-04-28 00:00,ZGNN 280000Z AUTO 14002KT 7SM 25/23 A2985 RMK SLP105 T02540234 52017 IEM_DS3505
ZGNN,2002-04-28 01:00,ZGNN 280100Z AUTO 13010KT 7SM 27/22 A2985 RMK T02700220 IEM_DS3505
ZGNN,2002-04-28 02:00,ZGNN 280200Z AUTO 14014KT 7SM 27/22 A2985 RMK T02700220 IEM_DS3505
ZGNN,2002-04-28 03:00,ZGNN 280300Z AUTO 18010KT 19SM 28/23 A2983 RMK SLP103 T02830228 57002 IEM_DS3505
ZGNN,2002-04-28 04:00,ZGNN 280400Z AUTO 15012KT 7SM 31/22 A2983 RMK T03100220 IEM_DS3505
ZGNN,2002-04-28 05:00,ZGNN 280500Z AUTO 15012KT 7SM 30/22 A2980 RMK T03000220 IEM_DS3505
ZGNN,2002-04-28 06:00,ZGNN 280600Z AUTO 18006KT 19SM 30/23 A2977 RMK 60003 SLP084 T02960230 57018 IEM_DS3505
ZGNN,2002-04-28 07:00,ZGNN 280700Z AUTO 15012KT 7SM 31/22 A2977 RMK T03100220 IEM_DS3505
ZGNN,2002-04-28 08:00,ZGNN 280800Z AUTO 13014KT 7SM 30/23 A2974 RMK T03000230 IEM_DS3505
ZGNN,2002-04-28 09:00,ZGNN 280900Z AUTO 18010KT 19SM 30/23 A2971 RMK SLP061 T02980227 57023 IEM_DS3505
ZGNN,2002-04-28 10:00,ZGNN 281000Z AUTO 15014KT 7SM 28/22 A2971 RMK T02800220 IEM_DS3505
ZGNN,2002-04-28 11:00,ZGNN 281100Z AUTO 15010KT 7SM 28/22 A2974 RMK T02800220 IEM_DS3505
ZGNN,2002-04-28 12:00,ZGNN 281200Z AUTO 18008KT 19SM 27/22 A2974 RMK SLP074 T02740223 52012 IEM_DS3505
ZGNN,2002-04-28 13:00,ZGNN 281300Z AUTO 16008KT 6SM 26/21 A2977 RMK T02600210 IEM_DS3505
ZGNN,2002-04-28 14:00,ZGNN 281400Z AUTO 16008KT 6SM 26/21 A2980 RMK T02600210 IEM_DS3505
ZGNN,2002-04-28 15:00,ZGNN 281500Z AUTO 18006KT 19SM 26/22 A2980 RMK SLP091 T02620219 52018 IEM_DS3505
ZGNN,2002-04-28 18:00,ZGNN 281800Z AUTO 16002KT 12SM 26/22 RMK SLP086 T02560225 57005 IEM_DS3505
ZGNN,2002-04-28 21:00,ZGNN 282100Z AUTO 22004KT 12SM 25/23 RMK 70003 SLP087 T02520229 52001 IEM_DS3505
ZGNN,2002-04-28 22:00,ZGNN 282200Z AUTO 14008KT 7SM 25/22 A2977 RMK T02500220 IEM_DS3505
ZGNN,2002-04-28 23:00,ZGNN 282300Z AUTO 12008KT 7SM 25/22 A2980 RMK T02500220 IEM_DS3505
ZGNN,2002-04-29 00:00,ZGNN 290000Z AUTO 14008KT 16SM 26/23 A2980 RMK 70003 SLP096 T02560230 52008 IEM_DS3505
ZGNN,2002-04-29 01:00,ZGNN 290100Z AUTO 13010KT 7SM 26/22 A2983 RMK T02600220 IEM_DS3505
ZGNN,2002-04-29 02:00,ZGNN 290200Z AUTO 12008KT 7SM 27/22 A2983 RMK T02700220 IEM_DS3505
ZGNN,2002-04-29 03:00,ZGNN 290300Z AUTO 14006KT 19SM 28/23 A2983 RMK SLP103 T02800231 52007 IEM_DS3505
ZGNN,2002-04-29 04:00,ZGNN 290400Z AUTO 12008KT 7SM 30/23 A2983 RMK T03000230 IEM_DS3505
ZGNN,2002-04-29 05:00,ZGNN 290500Z AUTO 13010KT 7SM 30/22 A2980 RMK T03000220 IEM_DS3505
ZGNN,2002-04-29 06:00,ZGNN 290600Z AUTO 18010KT 19SM 31/23 A2977 RMK SLP075 T03080227 57027 IEM_DS3505
ZGNN,2002-04-29 07:00,ZGNN 290700Z AUTO 14014KT 7SM 31/22 A2971 RMK T03100220 IEM_DS3505
ZGNN,2002-04-29 08:00,ZGNN 290800Z AUTO 14012KT 7SM RMK IEM_DS3505
ZGNN,2002-04-29 09:00,ZGNN 290900Z AUTO 18006KT 19SM 28/23 A2971 RMK SLP057 T02840229 57018 IEM_DS3505
ZGNN,2002-04-29 10:00,ZGNN 291000Z AUTO 14006KT 7SM 28/23 A2971 RMK T02800230 IEM_DS3505
ZGNN,2002-04-29 11:00,ZGNN 291100Z AUTO 14006KT 7SM 28/22 A2971 RMK T02800220 IEM_DS3505
ZGNN,2002-04-29 12:00,ZGNN 291200Z AUTO 14006KT 19SM 28/23 A2974 RMK 60003 SLP066 T02760230 52009 IEM_DS3505
ZGNN,2002-04-29 13:00,ZGNN 291300Z AUTO 15010KT 6SM 27/22 A2974 RMK T02700220 IEM_DS3505
ZGNN,2002-04-29 14:00,ZGNN 291400Z AUTO 15006KT 6SM 26/22 A2977 RMK T02600220 IEM_DS3505
ZGNN,2002-04-29 15:00,ZGNN 291500Z AUTO 22002KT 19SM 26/22 A2980 RMK SLP088 T02590225 52021 IEM_DS3505
ZGNN,2002-04-29 18:00,ZGNN 291800Z AUTO 20002KT 16SM 25/23 RMK 60003 SLP087 T02480231 54000 IEM_DS3505
ZGNN,2002-04-29 21:00,ZGNN 292100Z AUTO 22002KT 9SM 24/23 A2977 RMK 70003 SLP079 T02450230 57009 IEM_DS3505
ZGNN,2002-04-29 22:00,ZGNN 292200Z AUTO 28002KT 7SM 23/22 A2977 RMK T02300220 IEM_DS3505
ZGNN,2002-04-29 23:00,ZGNN 292300Z AUTO 00000KT 7SM 24/22 A2980 RMK T02400220 IEM_DS3505
ZGNN,2002-04-30 00:00,ZGNN 300000Z AUTO 20002KT 7SM 25/24 A2983 RMK 70003 SLP100 T02530236 52021 IEM_DS3505
ZGNN,2002-04-30 01:00,ZGNN 300100Z AUTO 16006KT 7SM 27/23 A2983 RMK T02700230 IEM_DS3505
ZGNN,2002-04-30 02:00,ZGNN 300200Z AUTO 14008KT 7SM 28/22 A2983 RMK T02800220 IEM_DS3505
ZGNN,2002-04-30 03:00,ZGNN 300300Z AUTO 18006KT 19SM 29/23 A2983 RMK SLP100 T02930228 52001 IEM_DS3505
ZGNN,2002-04-30 04:00,ZGNN 300400Z AUTO 13010KT 7SM 30/22 A2980 RMK T03000220 IEM_DS3505
ZGNN,2002-04-30 05:00,ZGNN 300500Z AUTO 15010KT 7SM 30/22 A2977 RMK T03000220 IEM_DS3505
ZGNN,2002-04-30 06:00,ZGNN 300600Z AUTO 14006KT 19SM 31/22 A2974 RMK SLP069 T03110224 57031 IEM_DS3505
ZGNN,2002-04-30 07:00,ZGNN 300700Z AUTO 15010KT 7SM 32/22 A2971 RMK T03200220 IEM_DS3505
ZGNN,2002-04-30 08:00,ZGNN 300800Z AUTO 15010KT 7SM 32/22 A2968 RMK T03200220 IEM_DS3505
ZGNN,2002-04-30 09:00,ZGNN 300900Z AUTO 14008KT 19SM 31/23 A2968 RMK SLP046 T03090229 57023 IEM_DS3505
ZGNN,2002-04-30 10:00,ZGNN 301000Z AUTO 14012KT 7SM 30/22 A2965 RMK T03000220 IEM_DS3505
ZGNN,2002-04-30 11:00,ZGNN 301100Z AUTO 13008KT 7SM 29/21 A2965 RMK T02900210 IEM_DS3505
ZGNN,2002-04-30 12:00,ZGNN 301200Z AUTO 14006KT 19SM 28/22 A2968 RMK SLP048 T02820221 52002 IEM_DS3505
ZGNN,2002-04-30 13:00,ZGNN 301300Z AUTO 15004KT 6SM 27/22 A2971 RMK T02700220 IEM_DS3505
ZGNN,2002-04-30 14:00,ZGNN 301400Z AUTO 14006KT 6SM 26/22 A2974 RMK T02600220 IEM_DS3505
ZGNN,2002-04-30 15:00,ZGNN 301500Z AUTO 00000KT 17SM 26/23 A2974 RMK SLP072 T02620230 52024 IEM_DS3505
ZGNN,2002-04-30 16:00,ZGNN 301600Z AUTO 13002KT 6SM 25/22 A2974 RMK T02500220 IEM_DS3505
ZGNN,2002-04-30 17:00,ZGNN 301700Z AUTO 00000KT 6SM 25/22 A2974 RMK T02500220 IEM_DS3505
ZGNN,2002-04-30 18:00,ZGNN 301800Z AUTO 14002KT 17SM 25/23 A2971 RMK SLP063 T02510226 57009 IEM_DS3505
ZGNN,2002-04-30 19:00,ZGNN 301900Z AUTO 00000KT 6SM 24/22 A2971 RMK T02400220 IEM_DS3505
ZGNN,2002-04-30 20:00,ZGNN 302000Z AUTO 28002KT 6SM 23/21 A2971 RMK T02300210 IEM_DS3505
ZGNN,2002-04-30 21:00,ZGNN 302100Z AUTO 00000KT 14SM 24/23 A2974 RMK SLP069 T02360227 52006 IEM_DS3505
ZGNN,2002-04-30 22:00,ZGNN 302200Z AUTO 36002KT 7SM 23/22 A2977 RMK T02300220 IEM_DS3505
ZGNN,2002-04-30 23:00,ZGNN 302300Z AUTO 00000KT 7SM 24/22 A2977 RMK T02400220 IEM_DS3505
ZGNN,2002-05-01 00:00,ZGNN 010000Z AUTO 00000KT 11SM 25/24 A2980 RMK SLP088 T02480235 52018 IEM_DS3505
ZGNN,2002-05-01 01:00,ZGNN 010100Z AUTO 7SM 26/22 A2980 RMK T02600220 IEM_DS3505
ZGNN,2002-05-01 02:00,ZGNN 010200Z AUTO 15008KT 6SM 27/23 A2980 RMK T02700230 IEM_DS3505
ZGNN,2002-05-01 03:00,ZGNN 010300Z AUTO 16008KT 19SM 28/24 A2977 RMK SLP078 T02770235 57009 IEM_DS3505
ZGNN,2002-05-01 04:00,ZGNN 010400Z AUTO 17008KT 7SM 28/23 A2977 RMK T02800230 IEM_DS3505
ZGNN,2002-05-01 05:00,ZGNN 010500Z AUTO 16006KT 7SM 29/23 A2974 RMK T02900230 IEM_DS3505
ZGNN,2002-05-01 06:00,ZGNN 010600Z AUTO 16008KT 19SM 31/24 A2971 RMK 60003 SLP064 T03080237 57014 IEM_DS3505
ZGNN,2002-05-01 07:00,ZGNN 010700Z AUTO 21008KT 7SM 32/18 A2968 RMK T03200180 IEM_DS3505
ZGNN,2002-05-01 08:00,ZGNN 010800Z AUTO 14010KT 7SM 30/22 A2968 RMK T03000220 IEM_DS3505
ZGNN,2002-05-01 09:00,ZGNN 010900Z AUTO 14008KT 19SM 29/22 A2965 RMK SLP045 T02900223 57019 IEM_DS3505
ZGNN,2002-05-01 10:00,ZGNN 011000Z AUTO 13010KT 7SM 28/21 A2968 RMK T02800210 IEM_DS3505
ZGNN,2002-05-01 11:00,ZGNN 011100Z AUTO 15006KT 7SM 27/21 A2968 RMK T02700210 IEM_DS3505
ZGNN,2002-05-01 12:00,ZGNN 011200Z AUTO 18004KT 19SM 27/23 A2968 RMK SLP055 T02680229 52009 IEM_DS3505
ZGNN,2002-05-01 13:00,ZGNN 011300Z AUTO 15006KT 6SM 26/22 A2971 RMK T02600220 IEM_DS3505
ZGNN,2002-05-01 14:00,ZGNN 011400Z AUTO 15008KT 6SM 26/22 A2974 RMK T02600220 IEM_DS3505
ZGNN,2002-05-01 15:00,ZGNN 011500Z AUTO 27002KT 17SM 26/24 A2977 RMK SLP082 T02560236 52027 IEM_DS3505
ZGNN,2002-05-01 16:00,ZGNN 011600Z AUTO 6SM 25/22 A2977 RMK T02500220 IEM_DS3505
ZGNN,2002-05-01 17:00,ZGNN 011700Z AUTO 6SM 25/22 A2980 RMK T02500220 IEM_DS3505
ZGNN,2002-05-01 18:00,ZGNN 011800Z AUTO 00000KT 16SM 25/24 A2977 RMK SLP079 T02480235 57002 IEM_DS3505
ZGNN,2002-05-01 19:00,ZGNN 011900Z AUTO 00000KT 7SM 24/22 A2977 RMK T02400220 IEM_DS3505
ZGNN,2002-05-01 20:00,ZGNN 012000Z AUTO 06002KT 7SM 24/22 A2977 RMK T02400220 IEM_DS3505
ZGNN,2002-05-01 21:00,ZGNN 012100Z AUTO 00000KT 14SM 24/23 A2977 RMK 70003 SLP084 T02430231 52004 IEM_DS3505
ZGNN,2002-05-01 22:00,ZGNN 012200Z AUTO 6SM 24/22 A2980 RMK T02400220 IEM_DS3505
ZGNN,2002-05-01 23:00,ZGNN 012300Z AUTO 04002KT 6SM 24/22 A2983 RMK T02400220 IEM_DS3505
ZGNN,2002-05-02 00:00,ZGNN 020000Z AUTO 14004KT 12SM 26/24 A2983 RMK 70003 SLP107 T02560239 52023 IEM_DS3505
ZGNN,2002-05-02 01:00,ZGNN 020100Z AUTO 7SM 27/23 A2985 RMK T02700230 IEM_DS3505
ZGNN,2002-05-02 02:00,ZGNN 020200Z AUTO 7SM 28/23 A2985 RMK T02800230 IEM_DS3505
ZGNN,2002-05-02 03:00,ZGNN 020300Z AUTO 16006KT 16SM 28/24 A2985 RMK SLP110 T02840241 52003 IEM_DS3505
ZGNN,2002-05-02 04:00,ZGNN 020400Z AUTO 7SM 29/22 A2985 RMK T02900220 IEM_DS3505
ZGNN,2002-05-02 05:00,ZGNN 020500Z AUTO 7SM 30/22 A2983 RMK T03000220 IEM_DS3505
ZGNN,2002-05-02 06:00,ZGNN 020600Z AUTO 22006KT 19SM 31/22 A2980 RMK SLP088 T03120225 57021 IEM_DS3505
ZGNN,2002-05-02 07:00,ZGNN 020700Z AUTO 10006KT 7SM 32/22 A2977 RMK T03200220 IEM_DS3505
ZGNN,2002-05-02 08:00,ZGNN 020800Z AUTO 12010KT 7SM 31/24 A2977 RMK T03100240 IEM_DS3505
ZGNN,2002-05-02 09:00,ZGNN 020900Z AUTO 14008KT 19SM 30/25 A2974 RMK SLP072 T03010252 57016 IEM_DS3505
ZGNN,2002-05-02 10:00,ZGNN 021000Z AUTO 12012KT 7SM 30/23 A2974 RMK T03000230 IEM_DS3505
ZGNN,2002-05-02 11:00,ZGNN 021100Z AUTO 13010KT 7SM 29/23 A2977 RMK T02900230 IEM_DS3505
ZGNN,2002-05-02 12:00,ZGNN 021200Z AUTO 14004KT 17SM 28/24 A2977 RMK 60008 SLP084 T02820239 52011 IEM_DS3505
ZGNN,2002-05-02 13:00,ZGNN 021300Z AUTO 12006KT 6SM 27/23 A2980 RMK T02700230 IEM_DS3505
ZGNN,2002-05-02 14:00,ZGNN 021400Z AUTO 13004KT 6SM 26/22 A2983 RMK T02600220 IEM_DS3505
ZGNN,2002-05-02 15:00,ZGNN 021500Z AUTO 14002KT 16SM 26/24 A2983 RMK SLP101 T02620236 52017 IEM_DS3505
ZGNN,2002-05-02 16:00,ZGNN 021600Z AUTO 6SM 25/23 A2983 RMK T02500230 IEM_DS3505
ZGNN,2002-05-02 17:00,ZGNN 021700Z AUTO 15006KT 7SM 26/23 A2985 RMK T02600230 IEM_DS3505
ZGNN,2002-05-02 18:00,ZGNN 021800Z AUTO 00000KT 12SM 26/24 A2985 RMK SLP109 T02590240 52009 IEM_DS3505
ZGNN,2002-05-02 19:00,ZGNN 021900Z AUTO 7SM 26/23 A2985 RMK T02600230 IEM_DS3505
ZGNN,2002-05-02 20:00,ZGNN 022000Z AUTO 7SM 26/23 A2985 RMK T02600230 IEM_DS3505
ZGNN,2002-05-02 21:00,ZGNN 022100Z AUTO 00000KT 11SM 25/24 A2985 RMK 70007 SLP110 T02540240 54000 IEM_DS3505
ZGNN,2002-05-02 22:00,ZGNN 022200Z AUTO 00000KT 7SM 25/23 A2985 RMK T02500230 IEM_DS3505
ZGNN,2002-05-02 23:00,ZGNN 022300Z AUTO 7SM 25/23 A2988 RMK T02500230 IEM_DS3505
ZGNN,2002-05-03 00:00,ZGNN 030000Z AUTO 14002KT 11SM 26/24 A2991 RMK 70007 SLP125 T02620239 52015 IEM_DS3505
ZGNN,2002-05-03 01:00,ZGNN 030100Z AUTO 14006KT 7SM 27/22 A2991 RMK T02700220 IEM_DS3505
ZGNN,2002-05-03 02:00,ZGNN 030200Z AUTO 7SM 28/22 A2991 RMK T02800220 IEM_DS3505
ZGNN,2002-05-03 03:00,ZGNN 030300Z AUTO 18006KT 19SM 30/22 A2991 RMK SLP127 T03020224 52002 IEM_DS3505
ZGNN,2002-05-03 04:00,ZGNN 030400Z AUTO 15006KT 7SM 31/21 A2988 RMK T03100210 IEM_DS3505
ZGNN,2002-05-03 05:00,ZGNN 030500Z AUTO 14006KT 7SM 31/21 A2988 RMK T03100210 IEM_DS3505
ZGNN,2002-05-03 06:00,ZGNN 030600Z AUTO 22004KT 16SM 31/22 A2983 RMK 60003 SLP103 T03140218 57023 IEM_DS3505
ZGNN,2002-05-03 07:00,ZGNN 030700Z AUTO 7SM 30/22 A2983 RMK T03000220 IEM_DS3505
ZGNN,2002-05-03 08:00,ZGNN 030800Z AUTO 7SM 29/23 A2980 RMK T02900230 IEM_DS3505
ZGNN,2002-05-03 09:00,ZGNN 030900Z AUTO 14006KT 19SM 30/21 A2980 RMK SLP084 T02980206 57019 IEM_DS3505
ZGNN,2002-05-03 10:00,ZGNN 031000Z AUTO 15006KT 6SM 29/21 A2977 RMK T02900210 IEM_DS3505
ZGNN,2002-05-03 11:00,ZGNN 031100Z AUTO 14008KT 6SM 28/21 A2977 RMK T02800210 IEM_DS3505
ZGNN,2002-05-03 12:00,ZGNN 031200Z AUTO 16006KT 17SM 27/21 A2980 RMK 60002 SLP088 T02740213 52003 IEM_DS3505
ZGNN,2002-05-03 13:00,ZGNN 031300Z AUTO 16004KT 6SM 25/20 A2983 RMK T02500200 IEM_DS3505
ZGNN,2002-05-03 14:00,ZGNN 031400Z AUTO 15002KT 6SM 24/21 A2985 RMK T02400210 IEM_DS3505
ZGNN,2002-05-03 15:00,ZGNN 031500Z AUTO 00000KT 16SM 25/21 A2985 RMK SLP110 T02470213 52022 IEM_DS3505
ZGNN,2002-05-03 18:00,ZGNN 031800Z AUTO 00000KT 14SM 23/21 RMK SLP113 T02300209 52003 IEM_DS3505
ZGNN,2002-05-03 20:00,ZGNN 032000Z AUTO 7SM 22/20 A2985 RMK T02200200 IEM_DS3505
ZGNN,2002-05-03 21:00,ZGNN 032100Z AUTO 00000KT 11SM 22/21 A2985 RMK 70002 SLP110 T02190211 57003 IEM_DS3505
ZGNN,2002-05-03 22:00,ZGNN 032200Z AUTO 00000KT 7SM 22/21 A2985 RMK T02200210 IEM_DS3505
ZGNN,2002-05-03 23:00,ZGNN 032300Z AUTO 05004KT 6SM 22/21 A2985 RMK T02200210 IEM_DS3505
ZGNN,2002-05-04 00:00,ZGNN 040000Z AUTO 00000KT 7SM 25/23 A2985 RMK 70002 SLP116 T02510229 52006 IEM_DS3505
ZGNN,2002-05-04 01:00,ZGNN 040100Z AUTO 13006KT 7SM 26/23 A2988 RMK T02600230 IEM_DS3505
ZGNN,2002-05-04 02:00,ZGNN 040200Z AUTO 14010KT 7SM 28/22 A2988 RMK T02800220 IEM_DS3505
ZGNN,2002-05-04 03:00,ZGNN 040300Z AUTO 18006KT 16SM 30/23 A2988 RMK SLP120 T02950229 52004 IEM_DS3505
ZGNN,2002-05-04 04:00,ZGNN 040400Z AUTO 14010KT 7SM 30/21 A2985 RMK T03000210 IEM_DS3505
ZGNN,2002-05-04 05:00,ZGNN 040500Z AUTO 16008KT 7SM 31/21 A2983 RMK T03100210 IEM_DS3505
ZGNN,2002-05-04 06:00,ZGNN 040600Z AUTO 14006KT 19SM 31/22 A2977 RMK SLP085 T03070225 57035 IEM_DS3505
ZGNN,2002-05-04 07:00,ZGNN 040700Z AUTO 28012KT 7SM 26/23 A2980 RMK T02600230 IEM_DS3505
ZGNN,2002-05-04 08:00,ZGNN 040800Z AUTO 20012KT 7SM 24/22 A2980 RMK T02400220 IEM_DS3505
ZGNN,2002-05-04 09:00,ZGNN 040900Z AUTO 00000KT 16SM 26/24 A2974 RMK SLP073 T02560242 57013 IEM_DS3505
ZGNN,2002-05-04 10:00,ZGNN 041000Z AUTO 6SM 27/24 A2974 RMK T02700240 IEM_DS3505
ZGNN,2002-05-04 11:00,ZGNN 041100Z AUTO 14010KT 6SM 27/21 A2977 RMK T02700210 IEM_DS3505
ZGNN,2002-05-04 12:00,ZGNN 041200Z AUTO 14004KT 16SM 27/21 A2980 RMK 60024 SLP087 T02680208 52015 IEM_DS3505
ZGNN,2002-05-04 13:00,ZGNN 041300Z AUTO 13004KT 6SM 26/21 A2980 RMK T02600210 IEM_DS3505
ZGNN,2002-05-04 14:00,ZGNN 041400Z AUTO 00000KT 6SM 25/21 A2983 RMK T02500210 IEM_DS3505
ZGNN,2002-05-04 15:00,ZGNN 041500Z AUTO 00000KT 16SM 25/22 A2983 RMK SLP100 T02470222 52013 IEM_DS3505
ZGNN,2002-05-04 16:00,ZGNN 041600Z AUTO 11002KT 6SM 24/21 A2983 RMK T02400210 IEM_DS3505
ZGNN,2002-05-04 17:00,ZGNN 041700Z AUTO 6SM 24/21 A2983 RMK T02400210 IEM_DS3505
ZGNN,2002-05-04 18:00,ZGNN 041800Z AUTO 09002KT 14SM 24/22 A2980 RMK SLP093 T02370222 57007 IEM_DS3505
ZGNN,2002-05-04 19:00,ZGNN 041900Z AUTO 02004KT 6SM 23/21 A2980 RMK T02300210 IEM_DS3505
ZGNN,2002-05-04 20:00,ZGNN 042000Z AUTO 03002KT 7SM 23/21 A2980 RMK T02300210 IEM_DS3505
ZGNN,2002-05-04 21:00,ZGNN 042100Z AUTO 09002KT 11SM 24/23 A2980 RMK 70025 SLP095 T02400228 52001 IEM_DS3505
ZGNN,2002-05-04 22:00,ZGNN 042200Z AUTO 7SM 23/22 A2983 RMK T02300220 IEM_DS3505
ZGNN,2002-05-04 23:00,ZGNN 042300Z AUTO 06002KT 7SM 24/22 A2983 RMK T02400220 IEM_DS3505
ZGNN,2002-05-05 00:00,ZGNN 050000Z AUTO 00000KT 4SM 24/23 A2985 RMK 70025 SLP106 T02440231 52012 IEM_DS3505
ZGNN,2002-05-05 01:00,ZGNN 050100Z AUTO 7SM 26/23 A2985 RMK T02600230 IEM_DS3505
ZGNN,2002-05-05 02:00,ZGNN 050200Z AUTO 13010KT 7SM 27/23 A2983 RMK T02700230 IEM_DS3505
ZGNN,2002-05-05 03:00,ZGNN 050300Z AUTO 14008KT 19SM 28/23 A2983 RMK SLP102 T02820227 57004 IEM_DS3505
ZGNN,2002-05-05 04:00,ZGNN 050400Z AUTO 7SM 29/22 A2980 RMK T02900220 IEM_DS3505
ZGNN,2002-05-05 05:00,ZGNN 050500Z AUTO 16012KT 7SM 30/22 A2980 RMK T03000220 IEM_DS3505
ZGNN,2002-05-05 06:00,ZGNN 050600Z AUTO 16008KT 19SM 30/22 A2977 RMK 60003 SLP076 T03010218 57025 IEM_DS3505
ZGNN,2002-05-05 07:00,ZGNN 050700Z AUTO 16012KT 7SM 31/20 A2974 RMK T03100200 IEM_DS3505
ZGNN,2002-05-05 08:00,ZGNN 050800Z AUTO 14014KT 7SM 30/21 A2971 RMK T03000210 IEM_DS3505
ZGNN,2002-05-05 09:00,ZGNN 050900Z AUTO 14008KT 19SM 30/21 A2968 RMK SLP055 T02980209 57021 IEM_DS3505
ZGNN,2002-05-05 10:00,ZGNN 051000Z AUTO 15014KT 7SM 29/20 A2968 RMK T02900200 IEM_DS3505
ZGNN,2002-05-05 11:00,ZGNN 051100Z AUTO 15008KT 7SM 28/21 A2968 RMK T02800210 IEM_DS3505
ZGNN,2002-05-05 12:00,ZGNN 051200Z AUTO 18002KT 19SM 28/22 A2971 RMK 60003 SLP061 T02760223 52005 IEM_DS3505
ZGNN,2002-05-05 13:00,ZGNN 051300Z AUTO 15008KT 6SM 27/22 A2971 RMK T02700220 IEM_DS3505
ZGNN,2002-05-05 14:00,ZGNN 051400Z AUTO 16006KT 7SM 26/22 A2974 RMK T02600220 IEM_DS3505
ZGNN,2002-05-05 15:00,ZGNN 051500Z AUTO 14002KT 19SM 26/23 A2977 RMK SLP078 T02600232 52018 IEM_DS3505
ZGNN,2002-05-05 16:00,ZGNN 051600Z AUTO 12004KT 6SM 24/22 A2977 RMK T02400220 IEM_DS3505
ZGNN,2002-05-05 17:00,ZGNN 051700Z AUTO 10004KT 6SM 25/22 A2977 RMK T02500220 IEM_DS3505
ZGNN,2002-05-05 18:00,ZGNN 051800Z AUTO 14002KT 12SM 25/24 A2977 RMK SLP080 T02500236 52002 IEM_DS3505
ZGNN,2002-05-05 19:00,ZGNN 051900Z AUTO 00000KT 6SM 24/22 A2977 RMK T02400220 IEM_DS3505
ZGNN,2002-05-05 20:00,ZGNN 052000Z AUTO 7SM 24/22 A2977 RMK T02400220 IEM_DS3505
ZGNN,2002-05-05 21:00,ZGNN 052100Z AUTO 00000KT 9SM 23/23 A2977 RMK 70003 SLP082 T02330227 52001 IEM_DS3505
ZGNN,2002-05-05 22:00,ZGNN 052200Z AUTO 31002KT 7SM 23/22 A2980 RMK T02300220 IEM_DS3505
ZGNN,2002-05-05 23:00,ZGNN 052300Z AUTO 00000KT 4SM 23/22 A2980 RMK T02300220 IEM_DS3505
ZGNN,2002-05-06 00:00,ZGNN 060000Z AUTO 00000KT 3SM 25/24 A2983 RMK 70003 SLP102 T02460236 52020 IEM_DS3505
ZGNN,2002-05-06 01:00,ZGNN 060100Z AUTO 7SM 27/23 A2983 RMK T02700230 IEM_DS3505
ZGNN,2002-05-06 02:00,ZGNN 060200Z AUTO 7SM 28/22 A2985 RMK T02800220 IEM_DS3505
ZGNN,2002-05-06 03:00,ZGNN 060300Z AUTO 22006KT 19SM 30/22 A2983 RMK SLP098 T02980216 57003 IEM_DS3505
ZGNN,2002-05-06 04:00,ZGNN 060400Z AUTO 7SM 32/20 A2983 RMK T03200200 IEM_DS3505
ZGNN,2002-05-06 05:00,ZGNN 060500Z AUTO 7SM 32/19 A2980 RMK T03200190 IEM_DS3505
ZGNN,2002-05-06 06:00,ZGNN 060600Z AUTO 27006KT 19SM 33/20 A2977 RMK SLP073 T03300204 57024 IEM_DS3505
ZGNN,2002-05-06 07:00,ZGNN 060700Z AUTO 12006KT 7SM 32/20 A2974 RMK T03200200 IEM_DS3505
ZGNN,2002-05-06 08:00,ZGNN 060800Z AUTO 12006KT 7SM 33/20 A2971 RMK T03300200 IEM_DS3505
ZGNN,2002-05-06 09:00,ZGNN 060900Z AUTO 18004KT 19SM 33/21 A2968 RMK SLP047 T03310213 57026 IEM_DS3505
ZGNN,2002-05-06 10:00,ZGNN 061000Z AUTO 14006KT 7SM 30/22 A2968 RMK T03000220 IEM_DS3505
ZGNN,2002-05-06 11:00,ZGNN 061100Z AUTO 14006KT 7SM 29/23 A2971 RMK T02900230 IEM_DS3505
ZGNN,2002-05-06 12:00,ZGNN 061200Z AUTO 00000KT 16SM 28/24 A2971 RMK 60008 SLP065 T02840241 52017 IEM_DS3505
ZGNN,2002-05-06 13:00,ZGNN 061300Z AUTO 13004KT 6SM 28/21 A2974 RMK T02800210 IEM_DS3505
ZGNN,2002-05-06 14:00,ZGNN 061400Z AUTO 14004KT 6SM 27/22 A2974 RMK T02700220 IEM_DS3505
ZGNN,2002-05-06 15:00,ZGNN 061500Z AUTO 00000KT 16SM 26/23 A2977 RMK SLP077 T02630234 52012 IEM_DS3505
ZGNN,2002-05-06 16:00,ZGNN 061600Z AUTO 13004KT 6SM 26/22 A2977 RMK T02600220 IEM_DS3505
ZGNN,2002-05-06 17:00,ZGNN 061700Z AUTO 6SM 25/22 A2977 RMK T02500220 IEM_DS3505
ZGNN,2002-05-06 18:00,ZGNN 061800Z AUTO 00000KT 12SM 25/23 A2977 RMK SLP082 T02460231 52005 IEM_DS3505
ZGNN,2002-05-06 19:00,ZGNN 061900Z AUTO 7SM 25/22 A2977 RMK T02500220 IEM_DS3505
ZGNN,2002-05-06 20:00,ZGNN 062000Z AUTO 05002KT 7SM 24/22 A2977 RMK T02400220 IEM_DS3505
ZGNN,2002-05-06 21:00,ZGNN 062100Z AUTO 00000KT 9SM 24/24 A2977 RMK 70009 SLP081 T02450235 57001 IEM_DS3505
ZGNN,2002-05-06 22:00,ZGNN 062200Z AUTO 00000KT 7SM 24/23 A2977 RMK T02400230 IEM_DS3505
ZGNN,2002-05-06 23:00,ZGNN 062300Z AUTO 00000KT 7SM 24/23 A2980 RMK T02400230 IEM_DS3505
ZGNN,2002-05-07 00:00,ZGNN 070000Z AUTO 00000KT 6SM 26/24 A2983 RMK 70009 SLP096 T02590237 52014 IEM_DS3505
ZGNN,2002-05-07 01:00,ZGNN 070100Z AUTO 16006KT 6SM 28/22 A2983 RMK T02800220 IEM_DS3505
ZGNN,2002-05-07 02:00,ZGNN 070200Z AUTO 19004KT 6SM 29/21 A2983 RMK T02900210 IEM_DS3505
ZGNN,2002-05-07 03:00,ZGNN 070300Z AUTO 27004KT 19SM 30/22 A2983 RMK SLP097 T02960220 52002 IEM_DS3505
ZGNN,2002-05-07 04:00,ZGNN 070400Z AUTO 7SM 31/19 A2980 RMK T03100190 IEM_DS3505
ZGNN,2002-05-07 05:00,ZGNN 070500Z AUTO 24006KT 7SM 31/19 A2977 RMK T03100190 IEM_DS3505
ZGNN,2002-05-07 06:00,ZGNN 070600Z AUTO 22006KT 19SM 33/21 A2974 RMK SLP074 T03270210 57023 IEM_DS3505
ZGNN,2002-05-07 07:00,ZGNN 070700Z AUTO 7SM 33/20 A2971 RMK T03300200 IEM_DS3505
ZGNN,2002-05-07 08:00,ZGNN 070800Z AUTO 14010KT 7SM 31/21 A2968 RMK T03100210 IEM_DS3505
ZGNN,2002-05-07 09:00,ZGNN 070900Z AUTO 22006KT 19SM 30/24 A2968 RMK SLP050 T03000236 57024 IEM_DS3505
ZGNN,2002-05-07 10:00,ZGNN 071000Z AUTO 14008KT 6SM 30/22 A2968 RMK T03000220 IEM_DS3505
ZGNN,2002-05-07 11:00,ZGNN 071100Z AUTO 16006KT 6SM 28/22 A2968 RMK T02800220 IEM_DS3505
ZGNN,2002-05-07 12:00,ZGNN 071200Z AUTO 00000KT 17SM 28/22 A2971 RMK 60001 SLP057 T02800222 52007 IEM_DS3505
ZGNN,2002-05-07 13:00,ZGNN 071300Z AUTO 6SM 27/21 A2974 RMK T02700210 IEM_DS3505
ZGNN,2002-05-07 14:00,ZGNN 071400Z AUTO 13004KT 6SM 26/22 A2977 RMK T02600220 IEM_DS3505
ZGNN,2002-05-07 15:00,ZGNN 071500Z AUTO 14002KT 16SM 26/22 A2977 RMK SLP082 T02650224 52025 IEM_DS3505
ZGNN,2002-05-07 16:00,ZGNN 071600Z AUTO 00000KT 6SM 25/22 A2977 RMK T02500220 IEM_DS3505
ZGNN,2002-05-07 17:00,ZGNN 071700Z AUTO 00000KT 6SM 25/22 A2977 RMK T02500220 IEM_DS3505
ZGNN,2002-05-07 18:00,ZGNN 071800Z AUTO 07002KT 14SM 26/23 A2977 RMK SLP073 T02590228 57008 IEM_DS3505
ZGNN,2002-05-07 21:00,ZGNN 072100Z AUTO 00000KT 9SM 24/23 A2974 RMK 70001 SLP075 T02430228 52001 IEM_DS3505
ZGNN,2002-05-07 22:00,ZGNN 072200Z AUTO 36002KT 6SM 24/22 A2977 RMK T02400220 IEM_DS3505
ZGNN,2002-05-07 23:00,ZGNN 072300Z AUTO 33002KT 7SM 24/22 A2980 RMK T02400220 IEM_DS3505
ZGNN,2002-05-08 00:00,ZGNN 080000Z AUTO 14002KT 6SM 26/24 A2983 RMK 70001 SLP096 T02550238 52020 IEM_DS3505
ZGNN,2002-05-08 01:00,ZGNN 080100Z AUTO 08002KT 7SM 26/23 A2983 RMK T02600230 IEM_DS3505
ZGNN,2002-05-08 02:00,ZGNN 080200Z AUTO 7SM 27/23 A2983 RMK T02700230 IEM_DS3505
ZGNN,2002-05-08 03:00,ZGNN 080300Z AUTO 14010KT 9SM 28/24 A2983 RMK SLP101 T02790240 52005 IEM_DS3505
ZGNN,2002-05-08 04:00,ZGNN 080400Z AUTO 14010KT 7SM 27/23 A2983 RMK T02700230 IEM_DS3505
ZGNN,2002-05-08 05:00,ZGNN 080500Z AUTO 15010KT 7SM 27/23 A2980 RMK T02700230 IEM_DS3505
ZGNN,2002-05-08 06:00,ZGNN 080600Z AUTO 14008KT 15SM 28/24 A2980 RMK 60002 SLP091 T02820239 57010 IEM_DS3505
ZGNN,2002-05-08 07:00,ZGNN 080700Z AUTO 16008KT 7SM 27/22 A2980 RMK T02700220 IEM_DS3505
ZGNN,2002-05-08 08:00,ZGNN 080800Z AUTO 14006KT 7SM 27/22 A2977 RMK T02700220 IEM_DS3505
ZGNN,2002-05-08 09:00,ZGNN 080900Z AUTO 14006KT 19SM 27/21 A2974 RMK SLP073 T02730212 57018 IEM_DS3505
ZGNN,2002-05-08 10:00,ZGNN 081000Z AUTO 14008KT 7SM 27/21 A2974 RMK T02700210 IEM_DS3505
ZGNN,2002-05-08 11:00,ZGNN 081100Z AUTO 12004KT 6SM 26/20 A2974 RMK T02600200 IEM_DS3505
ZGNN,2002-05-08 12:00,ZGNN 081200Z AUTO 14004KT 16SM 25/20 A2977 RMK SLP084 T02540201 52011 IEM_DS3505
ZGNN,2002-05-08 13:00,ZGNN 081300Z AUTO 10004KT 6SM 23/20 A2980 RMK T02300200 IEM_DS3505
ZGNN,2002-05-08 14:00,ZGNN 081400Z AUTO 6SM 23/20 A2983 RMK T02300200 IEM_DS3505
ZGNN,2002-05-08 15:00,ZGNN 081500Z AUTO 14004KT 12SM 24/22 RMK SLP102 T02350219 52018 IEM_DS3505
ZGNN,2002-05-08 16:00,ZGNN 081600Z AUTO 01002KT 6SM 23/21 A2983 RMK T02300210 IEM_DS3505
ZGNN,2002-05-08 17:00,ZGNN 081700Z AUTO 01004KT 4SM 23/21 A2983 RMK T02300210 IEM_DS3505
ZGNN,2002-05-08 18:00,ZGNN 081800Z AUTO 00000KT 9SM 24/23 A2980 RMK SLP092 T02380226 57010 IEM_DS3505
ZGNN,2002-05-08 20:00,ZGNN 082000Z AUTO 35002KT 3SM 23/22 A2980 RMK T02300220 IEM_DS3505
ZGNN,2002-05-08 21:00,ZGNN 082100Z AUTO 00000KT 9SM 24/23 A2980 RMK 70002 SLP090 T02350228 57002 IEM_DS3505
ZGNN,2002-05-08 22:00,ZGNN 082200Z AUTO 03004KT 3SM 23/22 A2980 RMK T02300220 IEM_DS3505
ZGNN,2002-05-08 23:00,ZGNN 082300Z AUTO 2 1/2SM 23/22 A2983 RMK T02300220 IEM_DS3505
ZGNN,2002-05-09 00:00,ZGNN 090000Z AUTO 04002KT 3SM 25/23 A2983 RMK 70002 SLP102 T02480233 52011 IEM_DS3505
ZGNN,2002-05-09 01:00,ZGNN 090100Z AUTO 7SM 26/23 A2985 RMK T02600230 IEM_DS3505
ZGNN,2002-05-09 02:00,ZGNN 090200Z AUTO 7SM 28/23 A2985 RMK T02800230 IEM_DS3505
ZGNN,2002-05-09 03:00,ZGNN 090300Z AUTO 18004KT 9SM 29/24 A2983 RMK SLP100 T02880240 57001 IEM_DS3505
ZGNN,2002-05-09 04:00,ZGNN 090400Z AUTO 7SM 29/23 A2983 RMK T02900230 IEM_DS3505
ZGNN,2002-05-09 05:00,ZGNN 090500Z AUTO 19012G21KT 7SM 25/22 A2983 RMK T02500220 IEM_DS3505
ZGNN,2002-05-09 06:00,ZGNN 090600Z AUTO 18006KT 19SM 26/23 A2977 RMK 60003 SLP083 T02620227 57017 IEM_DS3505
ZGNN,2002-05-09 07:00,ZGNN 090700Z AUTO 12006KT 7SM 27/23 A2974 RMK T02700230 IEM_DS3505
ZGNN,2002-05-09 08:00,ZGNN 090800Z AUTO 7SM 25/24 A2974 RMK T02500240 IEM_DS3505
ZGNN,2002-05-09 09:00,ZGNN 090900Z AUTO 34006KT 17SM 24/22 A2974 RMK SLP073 T02400225 57011 IEM_DS3505
ZGNN,2002-05-09 10:00,ZGNN 091000Z AUTO 36006KT 4SM RMK IEM_DS3505
ZGNN,2002-05-09 11:00,ZGNN 091100Z AUTO 35006KT 7SM 22/21 A2977 RMK T02200210 IEM_DS3505
ZGNN,2002-05-09 12:00,ZGNN 091200Z AUTO 34004KT 19SM 22/21 A2983 RMK 60102 SLP098 T02220214 52025 IEM_DS3505
ZGNN,2002-05-09 13:00,ZGNN 091300Z AUTO 02004KT 7SM 22/21 A2985 RMK T02200210 IEM_DS3505
ZGNN,2002-05-09 14:00,ZGNN 091400Z AUTO 06004KT 7SM 22/21 A2985 RMK T02200210 IEM_DS3505
ZGNN,2002-05-09 15:00,ZGNN 091500Z AUTO 00000KT 19SM 22/20 A2988 RMK SLP119 T02170202 52021 IEM_DS3505
ZGNN,2002-05-09 16:00,ZGNN 091600Z AUTO 02002KT 7SM 21/19 A2988 RMK T02100190 IEM_DS3505
ZGNN,2002-05-09 17:00,ZGNN 091700Z AUTO 04004KT 7SM 21/19 A2985 RMK T02100190 IEM_DS3505
ZGNN,2002-05-09 18:00,ZGNN 091800Z AUTO 02002KT 17SM 21/20 A2985 RMK 60003 SLP109 T02090201 57011 IEM_DS3505
ZGNN,2002-05-09 19:00,ZGNN 091900Z AUTO 05006KT 7SM 21/19 A2985 RMK T02100190 IEM_DS3505
ZGNN,2002-05-09 20:00,ZGNN 092000Z AUTO 03002KT 4SM 21/19 A2983 RMK T02100190 IEM_DS3505
ZGNN,2002-05-09 21:00,ZGNN 092100Z AUTO 00000KT 12SM 21/21 A2985 RMK 70106 SLP109 T02120206 54000 IEM_DS3505
ZGNN,2002-05-09 22:00,ZGNN 092200Z AUTO 18002KT 4SM 21/20 A2985 RMK T02100200 IEM_DS3505
ZGNN,2002-05-09 23:00,ZGNN 092300Z AUTO 7SM 21/19 A2985 RMK T02100190 IEM_DS3505
ZGNN,2002-05-10 00:00,ZGNN 100000Z AUTO 07002KT 4SM 21/20 A2988 RMK 60000 SLP125 T02140195 52015 IEM_DS3505
ZGNN,2002-05-10 01:00,ZGNN 100100Z AUTO 7SM 21/19 A2988 RMK T02100190 IEM_DS3505
ZGNN,2002-05-10 03:00,ZGNN 100300Z AUTO 34006KT 7SM 23/20 A2991 RMK SLP131 T02280200 52007 IEM_DS3505
ZGNN,2002-05-10 04:00,ZGNN 100400Z AUTO 36004KT 7SM 23/19 A2991 RMK T02300190 IEM_DS3505
ZGNN,2002-05-10 05:00,ZGNN 100500Z AUTO 33006KT 7SM 22/19 A2991 RMK T02200190 IEM_DS3505
ZGNN,2002-05-10 06:00,ZGNN 100600Z AUTO 36004KT 9SM 22/20 A2988 RMK 60003 SLP116 T02240199 57016 IEM_DS3505
ZGNN,2002-05-10 07:00,ZGNN 100700Z AUTO 1 1/2SM 22/20 A2985 RMK T02200200 IEM_DS3505
ZGNN,2002-05-10 08:00,ZGNN 100800Z AUTO 33004KT 7SM 21/19 A2985 RMK T02100190 IEM_DS3505
ZGNN,2002-05-10 09:00,ZGNN 100900Z AUTO 04002KT 9SM 22/20 RMK SLP101 T02200205 57014 IEM_DS3505
ZGNN,2002-05-10 10:00,ZGNN 101000Z AUTO 33006KT 7SM 22/19 A2983 RMK T02200190 IEM_DS3505
ZGNN,2002-05-10 11:00,ZGNN 101100Z AUTO 35004KT 7SM 22/19 A2983 RMK T02200190 IEM_DS3505
ZGNN,2002-05-10 12:00,ZGNN 101200Z AUTO 02004KT 19SM 21/20 A2985 RMK 60039 SLP109 T02130196 52007 IEM_DS3505
ZGNN,2002-05-10 13:00,ZGNN 101300Z AUTO 03004KT 7SM 21/19 A2985 RMK T02100190 IEM_DS3505
ZGNN,2002-05-10 14:00,ZGNN 101400Z AUTO 7SM 21/18 A2988 RMK T02100180 IEM_DS3505
ZGNN,2002-05-10 15:00,ZGNN 101500Z AUTO 00000KT 17SM 21/19 A2991 RMK SLP130 T02110194 52021 IEM_DS3505
ZGNN,2002-05-10 18:00,ZGNN 101800Z AUTO 00000KT 16SM 21/19 RMK SLP127 T02060189 57003 IEM_DS3505
ZGNN,2002-05-10 21:00,ZGNN 102100Z AUTO 27002KT 12SM 19/18 A2985 RMK 70038 SLP117 T01920182 57010 IEM_DS3505
ZGNN,2002-05-10 22:00,ZGNN 102200Z AUTO 32006KT 7SM 19/17 A2985 RMK T01900170 IEM_DS3505
ZGNN,2002-05-10 23:00,ZGNN 102300Z AUTO 32006KT 7SM 20/17 A2988 RMK T02000170 IEM_DS3505
ZGNN,2002-05-11 00:00,ZGNN 110000Z AUTO 34004KT 16SM 21/18 A2991 RMK 70037 SLP129 T02090185 52012 IEM_DS3505
ZGNN,2002-05-11 01:00,ZGNN 110100Z AUTO 01004KT 6SM 22/18 A2991 RMK T02200180 IEM_DS3505
ZGNN,2002-05-11 02:00,ZGNN 110200Z AUTO 6SM 23/18 A2991 RMK T02300180 IEM_DS3505
ZGNN,2002-05-11 03:00,ZGNN 110300Z AUTO 18002KT 19SM 25/20 A2991 RMK SLP131 T02470196 52003 IEM_DS3505
ZGNN,2002-05-11 04:00,ZGNN 110400Z AUTO 00000KT 7SM 26/19 A2988 RMK T02600190 IEM_DS3505
ZGNN,2002-05-11 05:00,ZGNN 110500Z AUTO 7SM 27/18 A2988 RMK T02700180 IEM_DS3505
ZGNN,2002-05-11 06:00,ZGNN 110600Z AUTO 16004KT 19SM 27/19 A2985 RMK SLP113 T02720193 57017 IEM_DS3505
ZGNN,2002-05-11 07:00,ZGNN 110700Z AUTO 7SM 27/18 A2985 RMK T02700180 IEM_DS3505
ZGNN,2002-05-11 08:00,ZGNN 110800Z AUTO 7SM 28/18 A2980 RMK T02800180 IEM_DS3505
ZGNN,2002-05-11 09:00,ZGNN 110900Z AUTO 00000KT 17SM 28/19 A2980 RMK SLP092 T02840189 57021 IEM_DS3505
ZGNN,2002-05-11 10:00,ZGNN 111000Z AUTO 7SM 28/18 A2980 RMK T02800180 IEM_DS3505
ZGNN,2002-05-11 11:00,ZGNN 111100Z AUTO 03004KT 6SM 27/19 A2980 RMK T02700190 IEM_DS3505
ZGNN,2002-05-11 12:00,ZGNN 111200Z AUTO 00000KT 14SM 25/21 A2983 RMK SLP105 T02540211 52012 IEM_DS3505
ZGNN,2002-05-11 13:00,ZGNN 111300Z AUTO 06004KT 6SM 24/20 A2985 RMK T02400200 IEM_DS3505
ZGNN,2002-05-11 14:00,ZGNN 111400Z AUTO 06004KT 6SM 24/20 A2988 RMK T02400200 IEM_DS3505
ZGNN,2002-05-11 15:00,ZGNN 111500Z AUTO 00000KT 12SM 24/20 A2988 RMK SLP123 T02400205 52019 IEM_DS3505
ZGNN,2002-05-11 16:00,ZGNN 111600Z AUTO 04004KT 3SM 23/20 A2988 RMK T02300200 IEM_DS3505
ZGNN,2002-05-11 17:00,ZGNN 111700Z AUTO 06004KT 3SM 23/20 A2988 RMK T02300200 IEM_DS3505
ZGNN,2002-05-11 18:00,ZGNN 111800Z AUTO 00000KT 9SM 23/21 A2988 RMK SLP120 T02280211 57003 IEM_DS3505
ZGNN,2002-05-11 19:00,ZGNN 111900Z AUTO 00000KT 2 1/2SM 23/20 A2985 RMK T02300200 IEM_DS3505
ZGNN,2002-05-11 20:00,ZGNN 112000Z AUTO 01002KT 2 1/2SM 23/20 A2985 RMK T02300200 IEM_DS3505
ZGNN,2002-05-11 21:00,ZGNN 112100Z AUTO 00000KT 11SM 23/21 A2985 RMK SLP109 T02300210 57010 IEM_DS3505
ZGNN,2002-05-11 22:00,ZGNN 112200Z AUTO 02002KT 4SM 23/20 A2985 RMK T02300200 IEM_DS3505
ZGNN,2002-05-11 23:00,ZGNN 112300Z AUTO 03004KT 2 1/2SM 23/20 A2985 RMK T02300200 IEM_DS3505
ZGNN,2002-05-12 00:00,ZGNN 120000Z AUTO 00000KT 4SM 23/21 A2988 RMK SLP122 T02330209 52012 IEM_DS3505
ZGNN,2002-05-12 01:00,ZGNN 120100Z AUTO 07004KT 2 1/2SM 24/20 A2991 RMK T02400200 IEM_DS3505
ZGNN,2002-05-12 02:00,ZGNN 120200Z AUTO 3SM 26/21 A2991 RMK T02600210 IEM_DS3505
ZGNN,2002-05-12 03:00,ZGNN 120300Z AUTO 14004KT 9SM 28/22 A2988 RMK SLP124 T02760220 52002 IEM_DS3505
ZGNN,2002-05-12 04:00,ZGNN 120400Z AUTO 11006KT 5SM 29/22 A2988 RMK T02900220 IEM_DS3505
ZGNN,2002-05-12 05:00,ZGNN 120500Z AUTO 11006KT 7SM 30/22 A2985 RMK T03000220 IEM_DS3505
ZGNN,2002-05-12 06:00,ZGNN 120600Z AUTO 16006KT 16SM 31/23 A2980 RMK 60003 SLP091 T03100226 57032 IEM_DS3505
ZGNN,2002-05-12 07:00,ZGNN 120700Z AUTO 15008KT 7SM 30/22 A2980 RMK T03000220 IEM_DS3505
ZGNN,2002-05-12 08:00,ZGNN 120800Z AUTO 16008KT 7SM 29/23 A2977 RMK T02900230 IEM_DS3505
ZGNN,2002-05-12 09:00,ZGNN 120900Z AUTO 16006KT 16SM 30/24 A2974 RMK SLP070 T02990236 57021 IEM_DS3505
ZGNN,2002-05-12 10:00,ZGNN 121000Z AUTO 14006KT 7SM 30/23 A2974 RMK T03000230 IEM_DS3505
ZGNN,2002-05-12 11:00,ZGNN 121100Z AUTO 13006KT 6SM 29/23 A2977 RMK T02900230 IEM_DS3505
ZGNN,2002-05-12 12:00,ZGNN 121200Z AUTO 14004KT 12SM 28/24 A2977 RMK SLP087 T02800237 52017 IEM_DS3505
ZGNN,2002-05-12 13:00,ZGNN 121300Z AUTO 14006KT 6SM 27/23 A2980 RMK T02700230 IEM_DS3505
ZGNN,2002-05-12 14:00,ZGNN 121400Z AUTO 15006KT 6SM 27/23 A2980 RMK T02700230 IEM_DS3505
ZGNN,2002-05-12 15:00,ZGNN 121500Z AUTO 00000KT 12SM 26/24 RMK SLP099 T02650239 52012 IEM_DS3505
ZGNN,2002-05-12 19:00,ZGNN 121900Z AUTO 13004KT 5SM 26/23 A2977 RMK T02600230 IEM_DS3505
ZGNN,2002-05-12 20:00,ZGNN 122000Z AUTO 11004KT 2 1/2SM 25/24 A2977 RMK T02500240 IEM_DS3505
ZGNN,2002-05-12 21:00,ZGNN 122100Z AUTO 09002KT 7SM 25/24 A2977 RMK 70003 SLP075 T02520245 57011 IEM_DS3505
ZGNN,2002-05-12 22:00,ZGNN 122200Z AUTO 14006KT 3SM 25/23 A2974 RMK T02500230 IEM_DS3505
ZGNN,2002-05-12 23:00,ZGNN 122300Z AUTO 18004KT 4SM 25/24 A2977 RMK T02500240 IEM_DS3505
ZGNN,2002-05-13 00:00,ZGNN 130000Z AUTO 14002KT 5SM 26/25 A2977 RMK 60004 SLP082 T02610250 52007 IEM_DS3505
ZGNN,2002-05-13 01:00,ZGNN 130100Z AUTO 15006KT 7SM 27/24 A2980 RMK T02700240 IEM_DS3505
ZGNN,2002-05-13 02:00,ZGNN 130200Z AUTO 17010KT 7SM 28/24 A2980 RMK T02800240 IEM_DS3505
ZGNN,2002-05-13 03:00,ZGNN 130300Z AUTO 18006KT 19SM 29/24 A2980 RMK SLP089 T02860239 52007 IEM_DS3505
ZGNN,2002-05-13 04:00,ZGNN 130400Z AUTO 18008KT 6SM 26/24 A2980 RMK T02600240 IEM_DS3505
ZGNN,2002-05-13 06:00,ZGNN 130600Z AUTO 18002KT 5SM 26/25 A2977 RMK 60008 SLP078 T02600250 57012 IEM_DS3505
ZGNN,2002-05-13 07:00,ZGNN 130700Z AUTO 17008KT 7SM 27/24 A2974 RMK T02700240 IEM_DS3505
ZGNN,2002-05-13 08:00,ZGNN 130800Z AUTO 19010KT 7SM 27/24 A2971 RMK T02700240 IEM_DS3505
ZGNN,2002-05-13 09:00,ZGNN 130900Z AUTO 18006KT 19SM 27/25 RMK SLP060 T02660249 57018 IEM_DS3505
ZGNN,2002-05-13 10:00,ZGNN 131000Z AUTO 17006KT 7SM 26/23 A2971 RMK T02600230 IEM_DS3505
ZGNN,2002-05-13 11:00,ZGNN 131100Z AUTO 7SM 26/24 A2971 RMK T02600240 IEM_DS3505
ZGNN,2002-05-13 12:00,ZGNN 131200Z AUTO 16004KT 16SM 26/25 A2971 RMK 60001 SLP064 T02600247 52004 IEM_DS3505
ZGNN,2002-05-13 13:00,ZGNN 131300Z AUTO 13004KT 7SM 26/23 A2974 RMK T02600230 IEM_DS3505
ZGNN,2002-05-13 14:00,ZGNN 131400Z AUTO 09002KT 7SM 25/24 A2974 RMK T02500240 IEM_DS3505
ZGNN,2002-05-13 15:00,ZGNN 131500Z AUTO 00000KT 16SM 26/24 RMK SLP077 T02600244 52014 IEM_DS3505
ZGNN,2002-05-13 18:00,ZGNN 131800Z AUTO 00000KT 12SM 26/25 A2974 RMK SLP071 T02570246 57007 IEM_DS3505
ZGNN,2002-05-13 19:00,ZGNN 131900Z AUTO 00000KT 5SM 25/23 A2971 RMK T02500230 IEM_DS3505
ZGNN,2002-05-13 21:00,ZGNN 132100Z AUTO 32023KT 5SM 25/24 A2974 RMK 70019 SLP071 T02500241 54000 IEM_DS3505
ZGNN,2002-05-13 22:00,ZGNN 132200Z AUTO 34017G29KT 3SM 20/18 A2974 RMK T02000180 IEM_DS3505
ZGNN,2002-05-13 23:00,ZGNN 132300Z AUTO 02008KT 3SM 20/18 A2977 RMK T02000180 IEM_DS3505
ZGNN,2002-05-14 03:00,ZGNN 140300Z AUTO 27004KT 7SM 21/20 A2985 RMK SLP115 T02060200 52022 IEM_DS3505
ZGNN,2002-05-14 04:00,ZGNN 140400Z AUTO 00000KT 7SM 20/19 A2983 RMK T02000190 IEM_DS3505
ZGNN,2002-05-14 05:00,ZGNN 140500Z AUTO 7SM 21/19 A2980 RMK T02100190 IEM_DS3505
ZGNN,2002-05-14 06:00,ZGNN 140600Z AUTO 29006KT 16SM 21/20 A2980 RMK 60071 SLP094 T02100199 57020 IEM_DS3505
ZGNN,2002-05-14 07:00,ZGNN 140700Z AUTO 7SM 21/19 A2980 RMK T02100190 IEM_DS3505
ZGNN,2002-05-14 08:00,ZGNN 140800Z AUTO 7SM 22/19 A2980 RMK T02200190 IEM_DS3505
ZGNN,2002-05-14 09:00,ZGNN 140900Z AUTO 00000KT 7SM 23/19 A2977 RMK T02300190 IEM_DS3505
ZGNN,2002-05-14 10:00,ZGNN 141000Z AUTO 7SM 23/18 A2974 RMK T02300180 IEM_DS3505
ZGNN,2002-05-14 11:00,ZGNN 141100Z AUTO 26004KT 7SM 23/19 A2977 RMK T02300190 IEM_DS3505
ZGNN,2002-05-14 12:00,ZGNN 141200Z AUTO 00000KT 19SM 22/20 A2980 RMK 60003 SLP088 T02200198 52001 IEM_DS3505
ZGNN,2002-05-14 13:00,ZGNN 141300Z AUTO 00000KT 6SM 21/19 A2980 RMK T02100190 IEM_DS3505
ZGNN,2002-05-14 14:00,ZGNN 141400Z AUTO 6SM 20/19 A2983 RMK T02000190 IEM_DS3505
ZGNN,2002-05-14 15:00,ZGNN 141500Z AUTO 00000KT 16SM 20/19 A2983 RMK SLP103 T01950192 52014 IEM_DS3505
ZGNN,2002-05-14 16:00,ZGNN 141600Z AUTO 00000KT 6SM 20/19 A2983 RMK T02000190 IEM_DS3505
ZGNN,2002-05-14 17:00,ZGNN 141700Z AUTO 00000KT 4SM A2983 RMK IEM_DS3505
ZGNN,2002-05-14 18:00,ZGNN 141800Z AUTO 00000KT 14SM 19/18 A2980 RMK SLP099 T01880185 57004 IEM_DS3505
ZGNN,2002-05-14 19:00,ZGNN 141900Z AUTO 22002KT 1SM 19/18 A2983 RMK T01900180 IEM_DS3505
ZGNN,2002-05-14 20:00,ZGNN 142000Z AUTO 19002KT 1/8SM 19/18 A2980 RMK T01900180 IEM_DS3505
ZGNN,2002-05-14 21:00,ZGNN 142100Z AUTO 00000KT 6SM 19/18 A2980 RMK 70158 SLP096 T01880185 57003 IEM_DS3505
ZGNN,2002-05-14 22:00,ZGNN 142200Z AUTO 00000KT 1/8SM 19/18 A2980 RMK T01900180 IEM_DS3505
ZGNN,2002-05-14 23:00,ZGNN 142300Z AUTO 00000KT 1/8SM 19/18 A2983 RMK T01900180 IEM_DS3505
ZGNN,2002-05-15 00:00,ZGNN 150000Z AUTO 00000KT 3/8SM 19/19 A2983 RMK 70072 SLP106 T01920190 52010 IEM_DS3505
ZGNN,2002-05-15 01:00,ZGNN 150100Z AUTO 1SM 21/20 A2985 RMK T02100200 IEM_DS3505
ZGNN,2002-05-15 02:00,ZGNN 150200Z AUTO 7SM 24/21 A2985 RMK T02400210 IEM_DS3505
ZGNN,2002-05-15 03:00,ZGNN 150300Z AUTO 34004KT 6SM 25/21 A2985 RMK SLP111 T02460210 52006 IEM_DS3505
ZGNN,2002-05-15 04:00,ZGNN 150400Z AUTO 7SM 26/21 A2985 RMK T02600210 IEM_DS3505
ZGNN,2002-05-15 05:00,ZGNN 150500Z AUTO 7SM 27/20 A2983 RMK T02700200 IEM_DS3505
ZGNN,2002-05-15 06:00,ZGNN 150600Z AUTO 34004KT 9SM 27/21 A2980 RMK SLP094 T02740207 57017 IEM_DS3505
ZGNN,2002-05-15 07:00,ZGNN 150700Z AUTO 7SM 28/20 A2980 RMK T02800200 IEM_DS3505
ZGNN,2002-05-15 08:00,ZGNN 150800Z AUTO 36006KT 6SM 28/20 A2977 RMK T02800200 IEM_DS3505
ZGNN,2002-05-15 09:00,ZGNN 150900Z AUTO 34004KT 9SM 27/21 A2974 RMK SLP074 T02710207 57019 IEM_DS3505
ZGNN,2002-05-15 10:00,ZGNN 151000Z AUTO 6SM 27/20 A2974 RMK T02700200 IEM_DS3505
ZGNN,2002-05-15 11:00,ZGNN 151100Z AUTO 32002KT 6SM 26/21 A2974 RMK T02600210 IEM_DS3505
ZGNN,2002-05-15 12:00,ZGNN 151200Z AUTO 00000KT 12SM 24/22 A2974 RMK SLP078 T02430221 52003 IEM_DS3505
ZGNN,2002-05-15 13:00,ZGNN 151300Z AUTO 00000KT 6SM 24/21 A2977 RMK T02400210 IEM_DS3505
ZGNN,2002-05-15 14:00,ZGNN 151400Z AUTO 03004KT 5SM 23/21 A2980 RMK T02300210 IEM_DS3505
ZGNN,2002-05-15 15:00,ZGNN 151500Z AUTO 00000KT 9SM 23/21 A2980 RMK SLP094 T02280213 52017 IEM_DS3505
ZGNN,2002-05-15 16:00,ZGNN 151600Z AUTO 00000KT 3SM 23/20 A2983 RMK T02300200 IEM_DS3505
ZGNN,2002-05-15 17:00,ZGNN 151700Z AUTO 2SM 22/20 A2980 RMK T02200200 IEM_DS3505
ZGNN,2002-05-15 18:00,ZGNN 151800Z AUTO 00000KT 7SM 22/21 A2980 RMK SLP089 T02180209 57005 IEM_DS3505
ZGNN,2002-05-15 19:00,ZGNN 151900Z AUTO 07002KT 1 1/2SM 21/20 A2977 RMK T02100200 IEM_DS3505
ZGNN,2002-05-15 20:00,ZGNN 152000Z AUTO 03002KT 2SM 21/20 A2977 RMK T02100200 IEM_DS3505
ZGNN,2002-05-15 21:00,ZGNN 152100Z AUTO 00000KT 4SM 21/21 A2977 RMK SLP082 T02130210 57007 IEM_DS3505
ZGNN,2002-05-15 22:00,ZGNN 152200Z AUTO 05002KT 1 1/4SM 21/20 A2977 RMK T02100200 IEM_DS3505
ZGNN,2002-05-15 23:00,ZGNN 152300Z AUTO 1 1/4SM 21/20 A2977 RMK T02100200 IEM_DS3505
ZGNN,2002-05-16 00:00,ZGNN 160000Z AUTO 00000KT 2 1/2SM 22/22 A2980 RMK SLP091 T02200215 52009 IEM_DS3505
ZGNN,2002-05-16 01:00,ZGNN 160100Z AUTO 1 1/4SM 23/21 A2983 RMK T02300210 IEM_DS3505
ZGNN,2002-05-16 02:00,ZGNN 160200Z AUTO 00000KT 1 1/2SM 24/21 A2983 RMK T02400210 IEM_DS3505
ZGNN,2002-05-16 03:00,ZGNN 160300Z AUTO 18004KT 4SM 26/22 A2983 RMK SLP095 T02610218 52004 IEM_DS3505
ZGNN,2002-05-16 04:00,ZGNN 160400Z AUTO 7SM 28/21 A2980 RMK T02800210 IEM_DS3505
ZGNN,2002-05-16 05:00,ZGNN 160500Z AUTO 7SM 28/21 A2977 RMK T02800210 IEM_DS3505
ZGNN,2002-05-16 06:00,ZGNN 160600Z AUTO 18004KT 8SM 29/22 A2974 RMK SLP070 T02890220 57024 IEM_DS3505
ZGNN,2002-05-16 07:00,ZGNN 160700Z AUTO 7SM 29/21 A2971 RMK T02900210 IEM_DS3505
ZGNN,2002-05-16 08:00,ZGNN 160800Z AUTO 15006KT 7SM 29/21 A2971 RMK T02900210 IEM_DS3505
ZGNN,2002-05-16 09:00,ZGNN 160900Z AUTO 18004KT 9SM 28/22 A2968 RMK SLP053 T02820219 57017 IEM_DS3505
ZGNN,2002-05-16 10:00,ZGNN 161000Z AUTO 16004KT 7SM 27/22 A2968 RMK T02700220 IEM_DS3505
ZGNN,2002-05-16 11:00,ZGNN 161100Z AUTO 17002KT 7SM 26/21 A2971 RMK T02600210 IEM_DS3505
ZGNN,2002-05-16 12:00,ZGNN 161200Z AUTO 00000KT 9SM 26/22 A2974 RMK 60003 SLP067 T02600225 52013 IEM_DS3505
ZGNN,2002-05-16 13:00,ZGNN 161300Z AUTO 18004KT 7SM 25/22 A2974 RMK T02500220 IEM_DS3505
ZGNN,2002-05-16 14:00,ZGNN 161400Z AUTO 17004KT 7SM 25/22 A2974 RMK T02500220 IEM_DS3505
ZGNN,2002-05-16 15:00,ZGNN 161500Z AUTO 00000KT 9SM 25/23 A2977 RMK SLP082 T02460228 52016 IEM_DS3505
ZGNN,2002-05-16 16:00,ZGNN 161600Z AUTO 00000KT 4SM 24/22 A2977 RMK T02400220 IEM_DS3505
ZGNN,2002-05-16 17:00,ZGNN 161700Z AUTO 36006KT 3SM 24/22 A2977 RMK T02400220 IEM_DS3505
ZGNN,2002-05-16 18:00,ZGNN 161800Z AUTO 14004KT 7SM 24/23 A2977 RMK 60003 SLP076 T02380231 57006 IEM_DS3505
ZGNN,2002-05-16 19:00,ZGNN 161900Z AUTO 15008KT 4SM 24/21 A2974 RMK T02400210 IEM_DS3505
ZGNN,2002-05-16 20:00,ZGNN 162000Z AUTO 34004KT 5SM 23/21 A2974 RMK T02300210 IEM_DS3505
ZGNN,2002-05-16 21:00,ZGNN 162100Z AUTO 00000KT 9SM 23/22 A2974 RMK 70003 SLP074 T02300220 57002 IEM_DS3505
ZGNN,2002-05-16 22:00,ZGNN 162200Z AUTO 7SM 22/21 A2977 RMK T02200210 IEM_DS3505
ZGNN,2002-05-16 23:00,ZGNN 162300Z AUTO 7SM 23/21 A2977 RMK T02300210 IEM_DS3505
ZGNN,2002-05-17 00:00,ZGNN 170000Z AUTO 00000KT 7SM 24/22 A2977 RMK 70003 SLP079 T02370221 52005 IEM_DS3505
ZGNN,2002-05-17 01:00,ZGNN 170100Z AUTO 04002KT 6SM 24/22 A2977 RMK T02400220 IEM_DS3505
ZGNN,2002-05-17 02:00,ZGNN 170200Z AUTO 7SM 27/22 A2980 RMK T02700220 IEM_DS3505
ZGNN,2002-05-17 03:00,ZGNN 170300Z AUTO 18004KT 14SM 27/22 A2977 RMK SLP083 T02660219 52004 IEM_DS3505
ZGNN,2002-05-17 04:00,ZGNN 170400Z AUTO 7SM 26/21 A2974 RMK T02600210 IEM_DS3505
ZGNN,2002-05-17 05:00,ZGNN 170500Z AUTO 7SM 27/21 A2974 RMK T02700210 IEM_DS3505
ZGNN,2002-05-17 06:00,ZGNN 170600Z AUTO 20004KT 19SM 28/22 A2971 RMK SLP065 T02820219 57018 IEM_DS3505
ZGNN,2002-05-17 07:00,ZGNN 170700Z AUTO 7SM 28/21 A2968 RMK T02800210 IEM_DS3505
ZGNN,2002-05-17 08:00,ZGNN 170800Z AUTO 17006KT 7SM 29/22 A2968 RMK T02900220 IEM_DS3505
ZGNN,2002-05-17 09:00,ZGNN 170900Z AUTO 20004KT 19SM 29/22 A2965 RMK SLP044 T02880224 57020 IEM_DS3505
ZGNN,2002-05-17 10:00,ZGNN 171000Z AUTO 14006KT 7SM 28/21 A2965 RMK T02800210 IEM_DS3505
ZGNN,2002-05-17 11:00,ZGNN 171100Z AUTO 15006KT 7SM 27/21 A2968 RMK T02700210 IEM_DS3505
ZGNN,2002-05-17 12:00,ZGNN 171200Z AUTO 18002KT 19SM 26/23 A2968 RMK SLP056 T02640226 52011 IEM_DS3505
ZGNN,2002-05-17 13:00,ZGNN 171300Z AUTO 6SM 25/22 A2971 RMK T02500220 IEM_DS3505
ZGNN,2002-05-17 14:00,ZGNN 171400Z AUTO 6SM 24/22 A2974 RMK T02400220 IEM_DS3505
ZGNN,2002-05-17 15:00,ZGNN 171500Z AUTO 00000KT 16SM 25/22 A2974 RMK SLP075 T02480225 52019 IEM_DS3505
ZGNN,2002-05-17 17:00,ZGNN 171700Z AUTO 04002KT 7SM 23/22 A2977 RMK T02300220 IEM_DS3505
ZGNN,2002-05-17 18:00,ZGNN 171800Z AUTO 00000KT 12SM 24/23 RMK SLP070 T02380226 57005 IEM_DS3505
ZGNN,2002-05-17 19:00,ZGNN 171900Z AUTO 05004KT 3SM 23/21 A2971 RMK T02300210 IEM_DS3505
ZGNN,2002-05-17 20:00,ZGNN 172000Z AUTO 04006KT 2SM 23/22 A2971 RMK T02300220 IEM_DS3505
ZGNN,2002-05-17 21:00,ZGNN 172100Z AUTO 00000KT 11SM 23/23 A2971 RMK SLP062 T02320226 57008 IEM_DS3505
ZGNN,2002-05-17 22:00,ZGNN 172200Z AUTO 04004KT 2SM 23/22 A2971 RMK T02300220 IEM_DS3505
ZGNN,2002-05-17 23:00,ZGNN 172300Z AUTO 05004KT 2SM 23/22 A2971 RMK T02300220 IEM_DS3505
ZGNN,2002-05-18 00:00,ZGNN 180000Z AUTO 09004KT 3SM 25/23 A2974 RMK SLP072 T02460233 52010 IEM_DS3505
ZGNN,2002-05-18 01:00,ZGNN 180100Z AUTO 08006KT 7SM 25/22 A2974 RMK T02500220 IEM_DS3505
ZGNN,2002-05-18 02:00,ZGNN 180200Z AUTO 10006KT 7SM 26/22 A2974 RMK T02600220 IEM_DS3505
ZGNN,2002-05-18 03:00,ZGNN 180300Z AUTO 07004KT 9SM 27/24 A2974 RMK SLP069 T02680236 57003 IEM_DS3505
ZGNN,2002-05-18 05:00,ZGNN 180500Z AUTO 7SM 29/23 A2968 RMK T02900230 IEM_DS3505
ZGNN,2002-05-18 06:00,ZGNN 180600Z AUTO 09006KT 19SM 30/24 A2965 RMK 60003 SLP040 T03000237 57028 IEM_DS3505
ZGNN,2002-05-18 07:00,ZGNN 180700Z AUTO 11006KT 7SM 30/23 A2962 RMK T03000230 IEM_DS3505
ZGNN,2002-05-18 08:00,ZGNN 180800Z AUTO 10006KT 7SM 31/23 A2959 RMK T03100230 IEM_DS3505
ZGNN,2002-05-18 09:00,ZGNN 180900Z AUTO 14004KT 7SM 29/24 A2959 RMK SLP022 T02940237 57018 IEM_DS3505
ZGNN,2002-05-18 10:00,ZGNN 181000Z AUTO 17006KT 7SM 28/24 A2959 RMK T02800240 IEM_DS3505
ZGNN,2002-05-18 11:00,ZGNN 181100Z AUTO 17006KT 7SM 27/23 A2962 RMK T02700230 IEM_DS3505
ZGNN,2002-05-18 12:00,ZGNN 181200Z AUTO 20002KT 9SM 26/24 A2962 RMK 60028 T02590239 IEM_DS3505
ZGNN,2002-05-18 13:00,ZGNN 181300Z AUTO 7SM 25/23 A2965 RMK T02500230 IEM_DS3505
ZGNN,2002-05-18 14:00,ZGNN 181400Z AUTO 7SM 25/24 A2968 RMK T02500240 IEM_DS3505
ZGNN,2002-05-18 15:00,ZGNN 181500Z AUTO 14002KT 6SM 25/25 A2968 RMK SLP051 T02530249 52018 IEM_DS3505
ZGNN,2002-05-18 16:00,ZGNN 181600Z AUTO 16002KT 7SM 25/24 A2968 RMK T02500240 IEM_DS3505
ZGNN,2002-05-18 17:00,ZGNN 181700Z AUTO 11002KT 7SM 25/23 A2965 RMK T02500230 IEM_DS3505
ZGNN,2002-05-18 18:00,ZGNN 181800Z AUTO 14002KT 12SM 25/25 A2965 RMK 60028 SLP036 T02500246 57015 IEM_DS3505
ZGNN,2002-05-18 20:00,ZGNN 182000Z AUTO 12002KT 7SM 24/23 A2962 RMK T02400230 IEM_DS3505
ZGNN,2002-05-18 21:00,ZGNN 182100Z AUTO 00000KT 9SM 24/24 A2959 RMK 70057 SLP026 T02440238 57010 IEM_DS3505
ZGNN,2002-05-18 22:00,ZGNN 182200Z AUTO 06002KT 7SM 24/23 A2962 RMK T02400230 IEM_DS3505
ZGNN,2002-05-18 23:00,ZGNN 182300Z AUTO 00000KT 7SM 24/23 A2962 RMK T02400230 IEM_DS3505
ZGNN,2002-05-19 00:00,ZGNN 190000Z AUTO 00000KT 3SM 25/24 A2965 RMK 70057 SLP037 T02540243 52011 IEM_DS3505
ZGNN,2002-05-19 01:00,ZGNN 190100Z AUTO 7SM 26/23 A2965 RMK T02600230 IEM_DS3505
ZGNN,2002-05-19 02:00,ZGNN 190200Z AUTO 7SM 27/24 A2965 RMK T02700240 IEM_DS3505
ZGNN,2002-05-19 03:00,ZGNN 190300Z AUTO 00000KT 19SM 29/25 A2965 RMK SLP037 T02870249 54000 IEM_DS3505
ZGNN,2002-05-19 04:00,ZGNN 190400Z AUTO 7SM 29/23 A2962 RMK T02900230 IEM_DS3505
ZGNN,2002-05-19 05:00,ZGNN 190500Z AUTO 7SM 30/23 A2962 RMK T03000230 IEM_DS3505
ZGNN,2002-05-19 06:00,ZGNN 190600Z AUTO 18004KT 19SM 31/25 A2959 RMK 60003 SLP015 T03070247 57021 IEM_DS3505
ZGNN,2002-05-19 07:00,ZGNN 190700Z AUTO 7SM 32/23 A2956 RMK T03200230 IEM_DS3505
ZGNN,2002-05-19 08:00,ZGNN 190800Z AUTO 15006KT 7SM 31/24 A2953 RMK T03100240 IEM_DS3505
ZGNN,2002-05-19 09:00,ZGNN 190900Z AUTO 18008KT 19SM 31/26 A2953 RMK SLP998 T03060255 57017 IEM_DS3505
ZGNN,2002-05-19 10:00,ZGNN 191000Z AUTO 14008KT 7SM 30/25 A2953 RMK T03000250 IEM_DS3505
ZGNN,2002-05-19 11:00,ZGNN 191100Z AUTO 14008KT 6SM 29/25 A2953 RMK T02900250 IEM_DS3505
ZGNN,2002-05-19 12:00,ZGNN 191200Z AUTO 14006KT 19SM 28/25 A2953 RMK 60002 SLP004 T02830252 52006 IEM_DS3505
ZGNN,2002-05-19 13:00,ZGNN 191300Z AUTO 13008KT 6SM 27/24 A2956 RMK T02700240 IEM_DS3505
ZGNN,2002-05-19 14:00,ZGNN 191400Z AUTO 6SM 27/24 A2959 RMK T02700240 IEM_DS3505
ZGNN,2002-05-19 15:00,ZGNN 191500Z AUTO 00000KT 12SM 27/24 A2959 RMK SLP022 T02730245 52018 IEM_DS3505
ZGNN,2002-05-19 16:00,ZGNN 191600Z AUTO 7SM 27/23 A2959 RMK T02700230 IEM_DS3505
ZGNN,2002-05-19 17:00,ZGNN 191700Z AUTO 14006KT 7SM 26/24 A2959 RMK T02600240 IEM_DS3505
ZGNN,2002-05-19 18:00,ZGNN 191800Z AUTO 14006KT 9SM 26/25 A2956 RMK 60002 SLP008 T02610247 57014 IEM_DS3505
ZGNN,2002-05-19 19:00,ZGNN 191900Z AUTO 14004KT 7SM 26/24 A2953 RMK T02600240 IEM_DS3505
ZGNN,2002-05-19 20:00,ZGNN 192000Z AUTO 14004KT 7SM 26/24 A2953 RMK T02600240 IEM_DS3505
ZGNN,2002-05-19 21:00,ZGNN 192100Z AUTO 00000KT 6SM 26/25 A2953 RMK 70005 SLP000 T02590248 57008 IEM_DS3505
ZGNN,2002-05-19 22:00,ZGNN 192200Z AUTO 14004KT 7SM 26/24 A2953 RMK T02600240 IEM_DS3505
ZGNN,2002-05-19 23:00,ZGNN 192300Z AUTO 6SM 26/24 A2953 RMK T02600240 IEM_DS3505
ZGNN,2002-05-20 00:00,ZGNN 200000Z AUTO 18006KT 16SM 27/25 A2956 RMK 60002 SLP009 T02670253 52009 IEM_DS3505
ZGNN,2002-05-20 01:00,ZGNN 200100Z AUTO 15004KT 7SM 27/24 A2956 RMK T02700240 IEM_DS3505
ZGNN,2002-05-20 02:00,ZGNN 200200Z AUTO 14006KT 7SM 29/25 A2956 RMK T02900250 IEM_DS3505
ZGNN,2002-05-20 03:00,ZGNN 200300Z AUTO 18008KT 19SM 30/25 A2953 RMK SLP006 T02980249 57003 IEM_DS3505
ZGNN,2002-05-20 04:00,ZGNN 200400Z AUTO 16006KT 7SM 31/24 A2953 RMK T03100240 IEM_DS3505
ZGNN,2002-05-20 05:00,ZGNN 200500Z AUTO 15006KT 7SM 31/24 A2950 RMK T03100240 IEM_DS3505
ZGNN,2002-05-20 06:00,ZGNN 200600Z AUTO 18006KT 19SM 31/25 A2947 RMK 60003 SLP976 T03140251 57029 IEM_DS3505
ZGNN,2002-05-20 07:00,ZGNN 200700Z AUTO 15008KT 7SM 33/25 A2944 RMK T03300250 IEM_DS3505
ZGNN,2002-05-20 08:00,ZGNN 200800Z AUTO 14008KT 7SM 32/25 A2941 RMK T03200250 IEM_DS3505
ZGNN,2002-05-20 09:00,ZGNN 200900Z AUTO 14008KT 19SM 31/25 A2938 RMK SLP957 T03120246 57019 IEM_DS3505
ZGNN,2002-05-20 10:00,ZGNN 201000Z AUTO 14010KT 7SM 31/24 A2941 RMK T03100240 IEM_DS3505
ZGNN,2002-05-20 11:00,ZGNN 201100Z AUTO 14010KT 7SM 30/24 A2944 RMK T03000240 IEM_DS3505
ZGNN,2002-05-20 12:00,ZGNN 201200Z AUTO 16004KT 19SM 29/25 A2944 RMK 60002 SLP976 T02920247 52018 IEM_DS3505
ZGNN,2002-05-20 13:00,ZGNN 201300Z AUTO 15008KT 7SM 28/24 A2947 RMK T02800240 IEM_DS3505
ZGNN,2002-05-20 14:00,ZGNN 201400Z AUTO 14006KT 6SM 27/24 A2950 RMK T02700240 IEM_DS3505
ZGNN,2002-05-20 15:00,ZGNN 201500Z AUTO 14002KT 16SM 27/25 A2950 RMK SLP994 T02740247 52019 IEM_DS3505
ZGNN,2002-05-20 18:00,ZGNN 201800Z AUTO 00000KT 12SM 27/25 RMK SLP988 T02670247 57006 IEM_DS3505
ZGNN,2002-05-20 21:00,ZGNN 202100Z AUTO 00000KT 9SM 26/25 A2947 RMK 70003 SLP981 T02580247 57007 IEM_DS3505
ZGNN,2002-05-20 22:00,ZGNN 202200Z AUTO 6SM 26/24 A2947 RMK T02600240 IEM_DS3505
ZGNN,2002-05-20 23:00,ZGNN 202300Z AUTO 00000KT 6SM 26/24 A2950 RMK T02600240 IEM_DS3505
ZGNN,2002-05-21 00:00,ZGNN 210000Z AUTO 18004KT 9SM 27/26 A2953 RMK 70002 SLP999 T02720255 52017 IEM_DS3505
ZGNN,2002-05-21 01:00,ZGNN 210100Z AUTO 7SM 28/25 A2953 RMK T02800250 IEM_DS3505
ZGNN,2002-05-21 02:00,ZGNN 210200Z AUTO 20002KT 7SM 30/25 A2956 RMK T03000250 IEM_DS3505
ZGNN,2002-05-21 03:00,ZGNN 210300Z AUTO 00000KT 19SM 31/26 A2956 RMK SLP007 T03100257 52009 IEM_DS3505
ZGNN,2002-05-21 04:00,ZGNN 210400Z AUTO 7SM 33/25 A2953 RMK T03300250 IEM_DS3505
ZGNN,2002-05-21 05:00,ZGNN 210500Z AUTO 7SM 33/24 A2953 RMK T03300240 IEM_DS3505
ZGNN,2002-05-21 06:00,ZGNN 210600Z AUTO 18006KT 19SM 34/25 A2950 RMK SLP992 T03420250 57015 IEM_DS3505
ZGNN,2002-05-21 07:00,ZGNN 210700Z AUTO 7SM 35/23 A2947 RMK T03500230 IEM_DS3505
ZGNN,2002-05-21 08:00,ZGNN 210800Z AUTO 7SM 35/23 A2947 RMK T03500230 IEM_DS3505
ZGNN,2002-05-21 09:00,ZGNN 210900Z AUTO 18004KT 16SM 34/26 A2944 RMK SLP978 T03430264 57014 IEM_DS3505
ZGNN,2002-05-21 10:00,ZGNN 211000Z AUTO 34010G19KT 1SM 26/24 A2950 RMK T02600240 IEM_DS3505
ZGNN,2002-05-21 11:00,ZGNN 211100Z AUTO 05008KT 7SM 24/23 A2953 RMK T02400230 IEM_DS3505
ZGNN,2002-05-21 12:00,ZGNN 211200Z AUTO 04004KT 7SM 25/24 A2956 RMK 60201 SLP012 T02500240 52032 IEM_DS3505
ZGNN,2002-05-21 13:00,ZGNN 211300Z AUTO 04004KT 7SM 25/23 A2962 RMK T02500230 IEM_DS3505
ZGNN,2002-05-21 14:00,ZGNN 211400Z AUTO 06008KT 7SM 25/23 A2965 RMK T02500230 IEM_DS3505
ZGNN,2002-05-21 15:00,ZGNN 211500Z AUTO 14002KT 9SM 24/23 A2968 RMK SLP049 T02410228 52037 IEM_DS3505
ZGNN,2002-05-21 18:00,ZGNN 211800Z AUTO 00000KT 7SM 24/21 RMK 60003 SLP046 T02380214 57002 IEM_DS3505
ZGNN,2002-05-21 19:00,ZGNN 211900Z AUTO 13002KT 7SM 24/21 A2965 RMK T02400210 IEM_DS3505
ZGNN,2002-05-21 21:00,ZGNN 212100Z AUTO 00000KT 9SM 23/21 A2968 RMK 70200 SLP049 T02310211 52003 IEM_DS3505
ZGNN,2002-05-21 22:00,ZGNN 212200Z AUTO 04004KT 7SM 23/20 A2968 RMK T02300200 IEM_DS3505
ZGNN,2002-05-21 23:00,ZGNN 212300Z AUTO 7SM 23/19 A2971 RMK T02300190 IEM_DS3505
ZGNN,2002-05-22 00:00,ZGNN 220000Z AUTO 00000KT 16SM 24/20 A2971 RMK 60003 SLP069 T02360196 52017 IEM_DS3505
ZGNN,2002-05-22 01:00,ZGNN 220100Z AUTO 7SM 24/19 A2974 RMK T02400190 IEM_DS3505
ZGNN,2002-05-22 02:00,ZGNN 220200Z AUTO 7SM 26/19 A2977 RMK T02600190 IEM_DS3505
ZGNN,2002-05-22 03:00,ZGNN 220300Z AUTO 18002KT 11SM 27/21 A2974 RMK SLP076 T02660212 52008 IEM_DS3505
ZGNN,2002-05-22 04:00,ZGNN 220400Z AUTO 7SM 27/20 A2977 RMK T02700200 IEM_DS3505
ZGNN,2002-05-22 05:00,ZGNN 220500Z AUTO 7SM 28/20 A2974 RMK T02800200 IEM_DS3505
ZGNN,2002-05-22 06:00,ZGNN 220600Z AUTO 07004KT 19SM 29/22 A2971 RMK SLP062 T02940221 57013 IEM_DS3505
ZGNN,2002-05-22 07:00,ZGNN 220700Z AUTO 7SM 30/21 A2968 RMK T03000210 IEM_DS3505
ZGNN,2002-05-22 08:00,ZGNN 220800Z AUTO 10004KT 7SM 30/20 A2968 RMK T03000200 IEM_DS3505
ZGNN,2002-05-22 09:00,ZGNN 220900Z AUTO 14002KT 16SM 29/22 A2968 RMK SLP050 T02940218 57012 IEM_DS3505
ZGNN,2002-05-22 10:00,ZGNN 221000Z AUTO 09004KT 7SM 29/21 A2968 RMK T02900210 IEM_DS3505
ZGNN,2002-05-22 11:00,ZGNN 221100Z AUTO 08006KT 7SM 28/22 A2968 RMK T02800220 IEM_DS3505
ZGNN,2002-05-22 12:00,ZGNN 221200Z AUTO 07004KT 15SM 27/22 A2971 RMK SLP064 T02700218 52013 IEM_DS3505
ZGNN,2002-05-22 13:00,ZGNN 221300Z AUTO 05004KT 6SM 26/22 A2974 RMK T02600220 IEM_DS3505
ZGNN,2002-05-22 14:00,ZGNN 221400Z AUTO 07004KT 7SM 25/21 A2977 RMK T02500210 IEM_DS3505
ZGNN,2002-05-22 15:00,ZGNN 221500Z AUTO 09002KT 14SM 25/22 A2980 RMK SLP089 T02500217 52025 IEM_DS3505
ZGNN,2002-05-22 16:00,ZGNN 221600Z AUTO 05004KT 3SM 24/21 A2980 RMK T02400210 IEM_DS3505
ZGNN,2002-05-22 17:00,ZGNN 221700Z AUTO 03006KT 5SM 25/20 A2980 RMK T02500200 IEM_DS3505
ZGNN,2002-05-22 18:00,ZGNN 221800Z AUTO 02002KT 11SM 25/20 A2980 RMK SLP089 T02460204 54000 IEM_DS3505
ZGNN,2002-05-22 20:00,ZGNN 222000Z AUTO 05004KT 6SM 24/19 A2980 RMK T02400190 IEM_DS3505
ZGNN,2002-05-22 21:00,ZGNN 222100Z AUTO 07006KT 9SM 24/19 A2977 RMK SLP083 T02380188 57006 IEM_DS3505
ZGNN,2002-05-22 22:00,ZGNN 222200Z AUTO 06006KT 6SM 23/18 A2980 RMK T02300180 IEM_DS3505
ZGNN,2002-05-22 23:00,ZGNN 222300Z AUTO 04006KT 6SM 23/18 A2983 RMK T02300180 IEM_DS3505
ZGNN,2002-05-23 00:00,ZGNN 230000Z AUTO 04002KT 7SM 24/18 A2983 RMK SLP106 T02440185 52023 IEM_DS3505
ZGNN,2002-05-23 01:00,ZGNN 230100Z AUTO 05010KT 6SM 25/18 A2985 RMK T02500180 IEM_DS3505
ZGNN,2002-05-23 02:00,ZGNN 230200Z AUTO 06006KT 6SM 26/18 A2985 RMK T02600180 IEM_DS3505
ZGNN,2002-05-23 03:00,ZGNN 230300Z AUTO 14002KT 9SM 26/19 A2985 RMK SLP114 T02650186 52007 IEM_DS3505
ZGNN,2002-05-23 04:00,ZGNN 230400Z AUTO 03006KT 7SM 28/19 A2985 RMK T02800190 IEM_DS3505
ZGNN,2002-05-23 05:00,ZGNN 230500Z AUTO 7SM 29/19 A2983 RMK T02900190 IEM_DS3505
ZGNN,2002-05-23 06:00,ZGNN 230600Z AUTO 36004KT 9SM 29/20 A2980 RMK SLP093 T02940201 57020 IEM_DS3505
ZGNN,2002-05-23 07:00,ZGNN 230700Z AUTO 7SM 30/19 A2977 RMK T03000190 IEM_DS3505
ZGNN,2002-05-23 08:00,ZGNN 230800Z AUTO 01006KT 7SM 30/19 A2977 RMK T03000190 IEM_DS3505
ZGNN,2002-05-23 09:00,ZGNN 230900Z AUTO 36004KT 9SM 30/21 A2974 RMK SLP073 T02980209 57019 IEM_DS3505
ZGNN,2002-05-23 10:00,ZGNN 231000Z AUTO 01006KT 7SM 29/20 A2977 RMK T02900200 IEM_DS3505
ZGNN,2002-05-23 11:00,ZGNN 231100Z AUTO 34004KT 7SM 28/21 A2980 RMK T02800210 IEM_DS3505
ZGNN,2002-05-23 12:00,ZGNN 231200Z AUTO 00000KT 7SM 28/21 A2983 RMK SLP099 T02760209 52025 IEM_DS3505
ZGNN,2002-05-23 13:00,ZGNN 231300Z AUTO 05004KT 7SM 26/20 A2985 RMK T02600200 IEM_DS3505
ZGNN,2002-05-23 14:00,ZGNN 231400Z AUTO 05004KT 7SM 26/20 A2985 RMK T02600200 IEM_DS3505
ZGNN,2002-05-23 15:00,ZGNN 231500Z AUTO 00000KT 7SM 26/21 A2988 RMK SLP125 T02600212 52026 IEM_DS3505
ZGNN,2002-05-23 16:00,ZGNN 231600Z AUTO 05006KT 2 1/2SM 25/20 A2988 RMK T02500200 IEM_DS3505
ZGNN,2002-05-23 17:00,ZGNN 231700Z AUTO 04006KT 2 1/2SM 25/20 A2988 RMK T02500200 IEM_DS3505
ZGNN,2002-05-23 18:00,ZGNN 231800Z AUTO 00000KT 7SM 25/21 A2988 RMK SLP117 T02510212 57008 IEM_DS3505
ZGNN,2002-05-23 19:00,ZGNN 231900Z AUTO 35004KT 2 1/2SM 25/20 A2985 RMK T02500200 IEM_DS3505
ZGNN,2002-05-23 20:00,ZGNN 232000Z AUTO 35004KT 2 1/2SM 25/20 A2985 RMK T02500200 IEM_DS3505
ZGNN,2002-05-23 21:00,ZGNN 232100Z AUTO 00000KT 6SM 24/21 A2985 RMK SLP113 T02410213 57004 IEM_DS3505
ZGNN,2002-05-23 22:00,ZGNN 232200Z AUTO 02004KT 5SM 24/20 A2985 RMK T02400200 IEM_DS3505
ZGNN,2002-05-23 23:00,ZGNN 232300Z AUTO 04002KT 4SM 24/21 A2988 RMK T02400210 IEM_DS3505
ZGNN,2002-05-24 00:00,ZGNN 240000Z AUTO 00000KT 5SM 24/19 A2991 RMK SLP133 T02440193 52019 IEM_DS3505
ZGNN,2002-05-24 02:00,ZGNN 240200Z AUTO 04006KT 7SM 25/18 A2994 RMK T02500180 IEM_DS3505
ZGNN,2002-05-24 03:00,ZGNN 240300Z AUTO 00000KT 5SM 25/20 A2994 RMK SLP141 T02500195 52008 IEM_DS3505
ZGNN,2002-05-24 04:00,ZGNN 240400Z AUTO 35006KT 26/18 A2994 RMK T02600180 IEM_DS3505
ZGNN,2002-05-24 05:00,ZGNN 240500Z AUTO 30006KT 3SM 23/20 A2991 RMK T02300200 IEM_DS3505
ZGNN,2002-05-24 06:00,ZGNN 240600Z AUTO 32010KT 4SM 24/19 A2991 RMK 60003 SLP127 T02450194 57014 IEM_DS3505
ZGNN,2002-05-24 07:00,ZGNN 240700Z AUTO 32012KT 4SM 24/19 A2988 RMK T02400190 IEM_DS3505
ZGNN,2002-05-24 08:00,ZGNN 240800Z AUTO 32014KT 4SM 23/18 A2988 RMK T02300180 IEM_DS3505
ZGNN,2002-05-24 09:00,ZGNN 240900Z AUTO 32010KT 4SM 22/19 A2985 RMK SLP114 T02220191 57014 IEM_DS3505
ZGNN,2002-05-24 10:00,ZGNN 241000Z AUTO 33008KT 24/18 A2985 RMK T02400180 IEM_DS3505
ZGNN,2002-05-24 11:00,ZGNN 241100Z AUTO 33006KT 24/18 A2985 RMK T02400180 IEM_DS3505
ZGNN,2002-05-24 12:00,ZGNN 241200Z AUTO 00000KT 4SM 24/19 A2985 RMK 60003 SLP117 T02350192 52004 IEM_DS3505
ZGNN,2002-05-24 13:00,ZGNN 241300Z AUTO 3SM 24/18 A2988 RMK T02400180 IEM_DS3505
ZGNN,2002-05-24 14:00,ZGNN 241400Z AUTO 3SM 23/18 A2991 RMK T02300180 IEM_DS3505
ZGNN,2002-05-24 15:00,ZGNN 241500Z AUTO 32012KT 6SM 23/20 A2994 RMK SLP139 T02310200 52021 IEM_DS3505
ZGNN,2002-05-24 16:00,ZGNN 241600Z AUTO 32008KT 2 1/2SM 23/18 A2994 RMK T02300180 IEM_DS3505
ZGNN,2002-05-24 17:00,ZGNN 241700Z AUTO 32010KT 2SM 23/18 A2991 RMK T02300180 IEM_DS3505
ZGNN,2002-05-24 18:00,ZGNN 241800Z AUTO 32010KT 7SM 23/18 A2991 RMK SLP127 T02280184 57012 IEM_DS3505
ZGNN,2002-05-24 19:00,ZGNN 241900Z AUTO 33008KT 2SM 22/18 A2988 RMK T02200180 IEM_DS3505
ZGNN,2002-05-24 20:00,ZGNN 242000Z AUTO 34008KT 2 1/2SM 22/17 A2988 RMK T02200170 IEM_DS3505
ZGNN,2002-05-24 21:00,ZGNN 242100Z AUTO 34006KT 7SM 22/19 A2988 RMK 70003 SLP126 T02200187 57001 IEM_DS3505
ZGNN,2002-05-24 22:00,ZGNN 242200Z AUTO 32012KT 3SM 22/17 A2991 RMK T02200170 IEM_DS3505
ZGNN,2002-05-24 23:00,ZGNN 242300Z AUTO 33006KT 3SM 22/17 A2991 RMK T02200170 IEM_DS3505
ZGNN,2002-05-25 00:00,ZGNN 250000Z AUTO 32008KT 4SM 22/18 A2994 RMK 70003 SLP142 T02210185 52016 IEM_DS3505
ZGNN,2002-05-25 01:00,ZGNN 250100Z AUTO 4SM 22/17 A2994 RMK T02200170 IEM_DS3505
ZGNN,2002-05-25 02:00,ZGNN 250200Z AUTO 33008KT 4SM 23/18 A2997 RMK T02300180 IEM_DS3505
ZGNN,2002-05-25 03:00,ZGNN 250300Z AUTO 34006KT 6SM 24/18 A2994 RMK SLP140 T02350183 57002 IEM_DS3505
ZGNN,2002-05-25 04:00,ZGNN 250400Z AUTO 5SM 25/18 A2994 RMK T02500180 IEM_DS3505
ZGNN,2002-05-25 05:00,ZGNN 250500Z AUTO 5SM 27/18 A2991 RMK T02700180 IEM_DS3505
ZGNN,2002-05-25 06:00,ZGNN 250600Z AUTO 02006KT 7SM 28/18 A2988 RMK SLP121 T02780185 57018 IEM_DS3505
ZGNN,2002-05-25 07:00,ZGNN 250700Z AUTO 35008KT 5SM 28/18 A2985 RMK T02800180 IEM_DS3505
ZGNN,2002-05-25 08:00,ZGNN 250800Z AUTO 5SM 29/18 A2985 RMK T02900180 IEM_DS3505
ZGNN,2002-05-25 09:00,ZGNN 250900Z AUTO 04006KT 7SM 29/19 A2983 RMK SLP099 T02890188 57021 IEM_DS3505
ZGNN,2002-05-25 10:00,ZGNN 251000Z AUTO 36006KT 5SM 28/18 A2983 RMK T02800180 IEM_DS3505
ZGNN,2002-05-25 11:00,ZGNN 251100Z AUTO 35004KT 5SM 28/19 A2983 RMK T02800190 IEM_DS3505
ZGNN,2002-05-25 12:00,ZGNN 251200Z AUTO 00000KT 7SM 27/21 A2985 RMK SLP114 T02670209 52014 IEM_DS3505
ZGNN,2002-05-25 13:00,ZGNN 251300Z AUTO 34004KT 26/20 A2988 RMK T02600200 IEM_DS3505
ZGNN,2002-05-25 14:00,ZGNN 251400Z AUTO 00000KT 2 1/2SM 26/20 A2988 RMK T02600200 IEM_DS3505
ZGNN,2002-05-25 15:00,ZGNN 251500Z AUTO 00000KT 7SM 25/21 A2988 RMK SLP126 T02510209 52012 IEM_DS3505
ZGNN,2002-05-25 16:00,ZGNN 251600Z AUTO 03004KT 2 1/2SM 24/20 A2991 RMK T02400200 IEM_DS3505
ZGNN,2002-05-25 17:00,ZGNN 251700Z AUTO 03002KT 2 1/2SM 24/20 A2988 RMK T02400200 IEM_DS3505
ZGNN,2002-05-25 18:00,ZGNN 251800Z AUTO 00000KT 5SM 23/21 A2985 RMK SLP115 T02270210 57011 IEM_DS3505
ZGNN,2002-05-25 19:00,ZGNN 251900Z AUTO 29002KT 2 1/2SM 23/20 A2985 RMK T02300200 IEM_DS3505
ZGNN,2002-05-25 20:00,ZGNN 252000Z AUTO 00000KT 2 1/2SM 22/20 A2985 RMK T02200200 IEM_DS3505
ZGNN,2002-05-25 21:00,ZGNN 252100Z AUTO 00000KT 2 1/2SM 21/20 A2985 RMK SLP106 T02120203 57009 IEM_DS3505
ZGNN,2002-05-25 22:00,ZGNN 252200Z AUTO 00000KT 1 1/4SM 21/20 A2985 RMK T02100200 IEM_DS3505
ZGNN,2002-05-25 23:00,ZGNN 252300Z AUTO 00000KT 1 1/4SM 22/20 A2985 RMK T02200200 IEM_DS3505
ZGNN,2002-05-26 00:00,ZGNN 260000Z AUTO 00000KT 2 1/2SM 23/22 A2988 RMK SLP122 T02310216 52016 IEM_DS3505
ZGNN,2002-05-26 01:00,ZGNN 260100Z AUTO 3SM 26/18 A2988 RMK T02600180 IEM_DS3505
ZGNN,2002-05-26 02:00,ZGNN 260200Z AUTO 28/19 A2991 RMK T02800190 IEM_DS3505
ZGNN,2002-05-26 03:00,ZGNN 260300Z AUTO 04004KT 6SM 29/19 A2988 RMK SLP122 T02900187 52001 IEM_DS3505
ZGNN,2002-05-26 04:00,ZGNN 260400Z AUTO 04006KT 30/18 A2988 RMK T03000180 IEM_DS3505
ZGNN,2002-05-26 05:00,ZGNN 260500Z AUTO 02006KT 7SM 30/17 A2985 RMK T03000170 IEM_DS3505
ZGNN,2002-05-26 06:00,ZGNN 260600Z AUTO 02006KT 7SM 31/18 A2983 RMK SLP098 T03080175 57024 IEM_DS3505
ZGNN,2002-05-26 07:00,ZGNN 260700Z AUTO 7SM 31/18 A2980 RMK T03100180 IEM_DS3505
ZGNN,2002-05-26 08:00,ZGNN 260800Z AUTO 7SM 31/17 A2980 RMK T03100170 IEM_DS3505
ZGNN,2002-05-26 09:00,ZGNN 260900Z AUTO 36002KT 7SM 31/18 A2977 RMK SLP080 T03100183 57018 IEM_DS3505
ZGNN,2002-05-26 10:00,ZGNN 261000Z AUTO 02006KT 7SM 30/17 A2977 RMK T03000170 IEM_DS3505
ZGNN,2002-05-26 11:00,ZGNN 261100Z AUTO 03004KT 6SM 29/18 A2977 RMK T02900180 IEM_DS3505
ZGNN,2002-05-26 12:00,ZGNN 261200Z AUTO 00000KT 7SM 27/21 A2980 RMK SLP089 T02730209 52009 IEM_DS3505
ZGNN,2002-05-26 13:00,ZGNN 261300Z AUTO 01002KT 3SM 27/21 A2980 RMK T02700210 IEM_DS3505
ZGNN,2002-05-26 14:00,ZGNN 261400Z AUTO 00000KT 2 1/2SM 25/21 A2983 RMK T02500210 IEM_DS3505
ZGNN,2002-05-26 15:00,ZGNN 261500Z AUTO 00000KT 7SM 24/21 A2985 RMK SLP106 T02430212 52017 IEM_DS3505
ZGNN,2002-05-26 16:00,ZGNN 261600Z AUTO 00000KT 2SM 24/21 A2985 RMK T02400210 IEM_DS3505
ZGNN,2002-05-26 17:00,ZGNN 261700Z AUTO 00000KT 1 1/2SM 24/21 A2983 RMK T02400210 IEM_DS3505
ZGNN,2002-05-26 18:00,ZGNN 261800Z AUTO 00000KT 7SM 23/22 A2983 RMK SLP102 T02290216 57004 IEM_DS3505
ZGNN,2002-05-26 19:00,ZGNN 261900Z AUTO 1 1/2SM 23/21 A2983 RMK T02300210 IEM_DS3505
ZGNN,2002-05-26 20:00,ZGNN 262000Z AUTO 02002KT 1 1/2SM 22/20 RMK T02200200 IEM_DS3505
ZGNN,2002-05-26 21:00,ZGNN 262100Z AUTO 00000KT 5SM 22/21 A2980 RMK SLP091 T02250211 57011 IEM_DS3505
ZGNN,2002-05-26 22:00,ZGNN 262200Z AUTO 11002KT 1 1/4SM 22/20 A2980 RMK T02200200 IEM_DS3505
ZGNN,2002-05-26 23:00,ZGNN 262300Z AUTO 00000KT 1 1/2SM 22/20 A2983 RMK T02200200 IEM_DS3505
ZGNN,2002-05-27 00:00,ZGNN 270000Z AUTO 00000KT 4SM 24/22 A2983 RMK SLP103 T02360217 52011 IEM_DS3505
ZGNN,2002-05-27 01:00,ZGNN 270100Z AUTO 2SM 26/21 A2983 RMK T02600210 IEM_DS3505
ZGNN,2002-05-27 02:00,ZGNN 270200Z AUTO 3SM 27/21 A2985 RMK T02700210 IEM_DS3505
ZGNN,2002-05-27 03:00,ZGNN 270300Z AUTO 25004KT 6SM 29/23 A2985 RMK SLP107 T02860226 52005 IEM_DS3505
ZGNN,2002-05-27 04:00,ZGNN 270400Z AUTO 6SM 29/21 A2983 RMK T02900210 IEM_DS3505
ZGNN,2002-05-27 05:00,ZGNN 270500Z AUTO 7SM 31/19 A2980 RMK T03100190 IEM_DS3505
ZGNN,2002-05-27 06:00,ZGNN 270600Z AUTO 14002KT 7SM 30/22 A2980 RMK SLP089 T03000215 57018 IEM_DS3505
ZGNN,2002-05-27 07:00,ZGNN 270700Z AUTO 09006KT 5SM 27/22 A2977 RMK T02700220 IEM_DS3505
ZGNN,2002-05-27 08:00,ZGNN 270800Z AUTO 14006KT 7SM 29/21 A2974 RMK T02900210 IEM_DS3505
ZGNN,2002-05-27 09:00,ZGNN 270900Z AUTO 18004KT 9SM 29/22 A2974 RMK SLP068 T02940216 57021 IEM_DS3505
ZGNN,2002-05-27 10:00,ZGNN 271000Z AUTO 12004KT 6SM 29/21 A2971 RMK T02900210 IEM_DS3505
ZGNN,2002-05-27 11:00,ZGNN 271100Z AUTO 08004KT 6SM 28/22 A2974 RMK T02800220 IEM_DS3505
ZGNN,2002-05-27 12:00,ZGNN 271200Z AUTO 09004KT 7SM 28/22 A2974 RMK SLP073 T02760219 52005 IEM_DS3505
ZGNN,2002-05-27 13:00,ZGNN 271300Z AUTO 08004KT 4SM 25/23 A2977 RMK T02500230 IEM_DS3505
ZGNN,2002-05-27 14:00,ZGNN 271400Z AUTO 09002KT 4SM 25/23 A2980 RMK T02500230 IEM_DS3505
ZGNN,2002-05-27 15:00,ZGNN 271500Z AUTO 00000KT 7SM 25/23 RMK SLP096 T02510229 52023 IEM_DS3505
ZGNN,2002-05-27 16:00,ZGNN 271600Z AUTO 00000KT 2SM 25/22 A2983 RMK T02500220 IEM_DS3505
ZGNN,2002-05-27 17:00,ZGNN 271700Z AUTO 00000KT 2SM 25/22 A2980 RMK T02500220 IEM_DS3505
ZGNN,2002-05-27 18:00,ZGNN 271800Z AUTO 00000KT 5SM 24/23 A2980 RMK SLP086 T02370228 57010 IEM_DS3505
ZGNN,2002-05-27 19:00,ZGNN 271900Z AUTO 08002KT 1SM 23/22 A2977 RMK T02300220 IEM_DS3505
ZGNN,2002-05-27 20:00,ZGNN 272000Z AUTO 03002KT 1SM 23/22 A2977 RMK T02300220 IEM_DS3505
ZGNN,2002-05-27 21:00,ZGNN 272100Z AUTO 00000KT 5SM 23/22 A2977 RMK SLP086 T02310221 54000 IEM_DS3505
ZGNN,2002-05-27 22:00,ZGNN 272200Z AUTO 02004KT 1 1/4SM 23/21 A2980 RMK T02300210 IEM_DS3505
ZGNN,2002-05-27 23:00,ZGNN 272300Z AUTO 02004KT 1 1/4SM 23/21 A2980 RMK T02300210 IEM_DS3505
ZGNN,2002-05-28 00:00,ZGNN 280000Z AUTO 14002KT 4SM 25/23 A2983 RMK SLP099 T02460228 52013 IEM_DS3505
ZGNN,2002-05-28 01:00,ZGNN 280100Z AUTO 14004KT 2 1/2SM 27/23 A2983 RMK T02700230 IEM_DS3505
ZGNN,2002-05-28 02:00,ZGNN 280200Z AUTO 14008KT 29/22 A2983 RMK T02900220 IEM_DS3505
ZGNN,2002-05-28 03:00,ZGNN 280300Z AUTO 18006KT 9SM 29/22 A2980 RMK SLP096 T02920225 57003 IEM_DS3505
ZGNN,2002-05-28 04:00,ZGNN 280400Z AUTO 19006KT 7SM 30/22 A2980 RMK T03000220 IEM_DS3505
ZGNN,2002-05-28 05:00,ZGNN 280500Z AUTO 19006KT 7SM 31/21 A2977 RMK T03100210 IEM_DS3505
ZGNN,2002-05-28 06:00,ZGNN 280600Z AUTO 18004KT 12SM 31/21 A2977 RMK SLP074 T03120214 57021 IEM_DS3505
ZGNN,2002-05-28 07:00,ZGNN 280700Z AUTO 15006KT 7SM 31/20 A2974 RMK T03100200 IEM_DS3505
ZGNN,2002-05-28 08:00,ZGNN 280800Z AUTO 14006KT 7SM 31/21 A2971 RMK T03100210 IEM_DS3505
ZGNN,2002-05-28 09:00,ZGNN 280900Z AUTO 11008KT 12SM 31/21 A2968 RMK SLP053 T03130212 57021 IEM_DS3505
ZGNN,2002-05-28 10:00,ZGNN 281000Z AUTO 11008KT 7SM 30/22 A2968 RMK T03000220 IEM_DS3505
ZGNN,2002-05-28 11:00,ZGNN 281100Z AUTO 12008KT 6SM 29/22 A2968 RMK T02900220 IEM_DS3505
ZGNN,2002-05-28 12:00,ZGNN 281200Z AUTO 14004KT 9SM 29/23 A2971 RMK SLP061 T02860231 52008 IEM_DS3505
ZGNN,2002-05-28 13:00,ZGNN 281300Z AUTO 13004KT 6SM 27/22 A2974 RMK T02700220 IEM_DS3505
ZGNN,2002-05-28 14:00,ZGNN 281400Z AUTO 6SM 27/22 A2977 RMK T02700220 IEM_DS3505
ZGNN,2002-05-28 15:00,ZGNN 281500Z AUTO 14004KT 9SM 27/23 A2977 RMK SLP085 T02660231 52024 IEM_DS3505
ZGNN,2002-05-28 16:00,ZGNN 281600Z AUTO 12004KT 4SM 25/22 A2980 RMK T02500220 IEM_DS3505
ZGNN,2002-05-28 17:00,ZGNN 281700Z AUTO 00000KT 4SM 25/22 A2977 RMK T02500220 IEM_DS3505
ZGNN,2002-05-28 18:00,ZGNN 281800Z AUTO 00000KT 7SM 25/22 A2977 RMK SLP078 T02500225 57007 IEM_DS3505
ZGNN,2002-05-28 19:00,ZGNN 281900Z AUTO 34002KT 4SM 24/22 A2974 RMK T02400220 IEM_DS3505
ZGNN,2002-05-28 20:00,ZGNN 282000Z AUTO 4SM 24/21 A2974 RMK T02400210 IEM_DS3505
ZGNN,2002-05-28 21:00,ZGNN 282100Z AUTO 00000KT 5SM 23/22 A2974 RMK SLP073 T02340222 57005 IEM_DS3505
ZGNN,2002-05-28 22:00,ZGNN 282200Z AUTO 02004KT 6SM 23/21 A2977 RMK T02300210 IEM_DS3505
ZGNN,2002-05-28 23:00,ZGNN 282300Z AUTO 02002KT 4SM 24/22 A2977 RMK T02400220 IEM_DS3505
ZGNN,2002-05-29 00:00,ZGNN 290000Z AUTO 00000KT 5SM 26/24 A2977 RMK SLP082 T02580235 52009 IEM_DS3505
ZGNN,2002-05-29 01:00,ZGNN 290100Z AUTO 6SM 27/23 A2977 RMK T02700230 IEM_DS3505
ZGNN,2002-05-29 02:00,ZGNN 290200Z AUTO 6SM 29/22 A2977 RMK T02900220 IEM_DS3505
ZGNN,2002-05-29 03:00,ZGNN 290300Z AUTO 04002KT 12SM 30/22 A2977 RMK SLP083 T03040224 52001 IEM_DS3505
ZGNN,2002-05-29 04:00,ZGNN 290400Z AUTO 7SM 31/21 A2977 RMK T03100210 IEM_DS3505
ZGNN,2002-05-29 05:00,ZGNN 290500Z AUTO 7SM 32/22 A2974 RMK T03200220 IEM_DS3505
ZGNN,2002-05-29 06:00,ZGNN 290600Z AUTO 14004KT 19SM 32/23 A2971 RMK SLP060 T03200228 57022 IEM_DS3505
ZGNN,2002-05-29 07:00,ZGNN 290700Z AUTO 7SM 32/22 A2968 RMK T03200220 IEM_DS3505
ZGNN,2002-05-29 08:00,ZGNN 290800Z AUTO 13006KT 7SM 33/22 A2965 RMK T03300220 IEM_DS3505
ZGNN,2002-05-29 09:00,ZGNN 290900Z AUTO 18004KT 19SM 32/23 A2965 RMK SLP038 T03240228 57022 IEM_DS3505
ZGNN,2002-05-29 10:00,ZGNN 291000Z AUTO 13006KT 7SM 31/23 A2965 RMK T03100230 IEM_DS3505
ZGNN,2002-05-29 11:00,ZGNN 291100Z AUTO 15008KT 6SM 30/23 A2965 RMK T03000230 IEM_DS3505
ZGNN,2002-05-29 12:00,ZGNN 291200Z AUTO 18006KT 15SM 29/23 A2968 RMK SLP049 T02870234 52010 IEM_DS3505
ZGNN,2002-05-29 15:00,ZGNN 291500Z AUTO 20004KT 12SM 27/24 RMK SLP064 T02680242 52016 IEM_DS3505
ZGNN,2002-05-29 16:00,ZGNN 291600Z AUTO 16006KT 5SM 26/23 A2971 RMK T02600230 IEM_DS3505
ZGNN,2002-05-29 18:00,ZGNN 291800Z AUTO 00000KT 11SM 26/24 A2971 RMK SLP054 T02570244 57010 IEM_DS3505
ZGNN,2002-05-29 19:00,ZGNN 291900Z AUTO 00000KT 6SM 25/23 A2968 RMK T02500230 IEM_DS3505
ZGNN,2002-05-29 20:00,ZGNN 292000Z AUTO 00000KT 3SM 25/23 A2968 RMK T02500230 IEM_DS3505
ZGNN,2002-05-29 21:00,ZGNN 292100Z AUTO 00000KT 9SM 24/24 A2968 RMK SLP051 T02440238 57003 IEM_DS3505
ZGNN,2002-05-29 22:00,ZGNN 292200Z AUTO 03004KT 5SM 24/23 A2968 RMK T02400230 IEM_DS3505
ZGNN,2002-05-29 23:00,ZGNN 292300Z AUTO 01002KT 4SM 25/23 A2971 RMK T02500230 IEM_DS3505
ZGNN,2002-05-30 00:00,ZGNN 300000Z AUTO 09002KT 4SM 26/25 A2971 RMK SLP063 T02600250 52011 IEM_DS3505
ZGNN,2002-05-30 01:00,ZGNN 300100Z AUTO 7SM 26/24 A2974 RMK T02600240 IEM_DS3505
ZGNN,2002-05-30 02:00,ZGNN 300200Z AUTO 7SM 27/24 A2974 RMK T02700240 IEM_DS3505
ZGNN,2002-05-30 03:00,ZGNN 300300Z AUTO 14002KT 4SM 27/25 A2974 RMK SLP070 T02660250 52007 IEM_DS3505
ZGNN,2002-05-30 04:00,ZGNN 300400Z AUTO 35010KT 4SM 24/22 A2974 RMK T02400220 IEM_DS3505
ZGNN,2002-05-30 05:00,ZGNN 300500Z AUTO 01006KT 4SM 24/22 A2974 RMK T02400220 IEM_DS3505
ZGNN,2002-05-30 06:00,ZGNN 300600Z AUTO 34006KT 5SM 24/23 A2971 RMK 60075 SLP056 T02380229 57015 IEM_DS3505
ZGNN,2002-05-30 07:00,ZGNN 300700Z AUTO 36008KT 7SM RMK IEM_DS3505
ZGNN,2002-05-30 08:00,ZGNN 300800Z AUTO 35006KT 7SM 25/22 A2968 RMK T02500220 IEM_DS3505
ZGNN,2002-05-30 09:00,ZGNN 300900Z AUTO 14004KT 9SM 25/23 A2968 RMK SLP053 T02480228 57003 IEM_DS3505
ZGNN,2002-05-30 10:00,ZGNN 301000Z AUTO 09006KT 7SM 24/22 A2971 RMK T02400220 IEM_DS3505
ZGNN,2002-05-30 12:00,ZGNN 301200Z AUTO 34004KT 9SM 24/23 A2971 RMK 60003 SLP067 T02390229 52014 IEM_DS3505
ZGNN,2002-05-30 13:00,ZGNN 301300Z AUTO 35004KT 7SM 24/22 A2974 RMK T02400220 IEM_DS3505
ZGNN,2002-05-30 14:00,ZGNN 301400Z AUTO 5SM 23/22 A2974 RMK T02300220 IEM_DS3505
ZGNN,2002-05-30 15:00,ZGNN 301500Z AUTO 00000KT 9SM 23/23 A2977 RMK SLP081 T02330226 52014 IEM_DS3505
ZGNN,2002-05-30 16:00,ZGNN 301600Z AUTO 00000KT 4SM 23/22 A2977 RMK T02300220 IEM_DS3505
ZGNN,2002-05-30 17:00,ZGNN 301700Z AUTO 29002KT 1SM 23/22 A2974 RMK T02300220 IEM_DS3505
ZGNN,2002-05-30 18:00,ZGNN 301800Z AUTO 00000KT 7SM 22/22 A2974 RMK SLP066 T02250222 57016 IEM_DS3505
ZGNN,2002-05-30 19:00,ZGNN 301900Z AUTO 28002KT 2SM 23/21 A2971 RMK T02300210 IEM_DS3505
ZGNN,2002-05-30 20:00,ZGNN 302000Z AUTO 2SM 22/21 A2971 RMK T02200210 IEM_DS3505
ZGNN,2002-05-30 21:00,ZGNN 302100Z AUTO 00000KT 6SM 22/21 A2971 RMK T02200210 IEM_DS3505
ZGNN,2002-05-30 22:00,ZGNN 302200Z AUTO 06002KT 2SM 22/21 A2971 RMK T02200210 IEM_DS3505
ZGNN,2002-05-30 23:00,ZGNN 302300Z AUTO 14002KT 1 1/4SM 23/21 A2971 RMK T02300210 IEM_DS3505
ZGNN,2002-05-31 00:00,ZGNN 310000Z AUTO 00000KT 2 1/2SM 24/23 A2974 RMK 70078 SLP069 T02360227 52009 IEM_DS3505
ZGNN,2002-05-31 01:00,ZGNN 310100Z AUTO 2 1/2SM 25/22 A2974 RMK T02500220 IEM_DS3505
ZGNN,2002-05-31 02:00,ZGNN 310200Z AUTO 7SM 28/22 A2974 RMK T02800220 IEM_DS3505
ZGNN,2002-05-31 03:00,ZGNN 310300Z AUTO 00000KT 6SM 28/24 A2974 RMK SLP066 T02850239 57002 IEM_DS3505
ZGNN,2002-05-31 04:00,ZGNN 310400Z AUTO 7SM 28/22 A2971 RMK T02800220 IEM_DS3505
ZGNN,2002-05-31 05:00,ZGNN 310500Z AUTO 7SM 30/22 A2971 RMK T03000220 IEM_DS3505
ZGNN,2002-05-31 06:00,ZGNN 310600Z AUTO 14004KT 6SM 30/22 A2968 RMK SLP054 T02960225 57012 IEM_DS3505
ZGNN,2002-05-31 07:00,ZGNN 310700Z AUTO 05006KT 7SM 30/21 A2965 RMK T03000210 IEM_DS3505
ZGNN,2002-05-31 08:00,ZGNN 310800Z AUTO 7SM 31/21 A2965 RMK T03100210 IEM_DS3505
ZGNN,2002-05-31 09:00,ZGNN 310900Z AUTO 07002KT 9SM 31/22 A2962 RMK SLP030 T03120219 57023 IEM_DS3505
ZGNN,2002-05-31 10:00,ZGNN 311000Z AUTO 09006KT 7SM 30/22 A2962 RMK T03000220 IEM_DS3505
ZGNN,2002-05-31 11:00,ZGNN 311100Z AUTO 10004KT 6SM 29/22 A2962 RMK T02900220 IEM_DS3505
ZGNN,2002-05-31 12:00,ZGNN 311200Z AUTO 00000KT 8SM 29/24 A2965 RMK SLP042 T02860242 52012 IEM_DS3505
ZGNN,2002-05-31 13:00,ZGNN 311300Z AUTO 12002KT 6SM 27/24 A2965 RMK T02700240 IEM_DS3505
ZGNN,2002-05-31 14:00,ZGNN 311400Z AUTO 00000KT 6SM 27/23 A2968 RMK T02700230 IEM_DS3505
ZGNN,2002-05-31 15:00,ZGNN 311500Z AUTO 00000KT 7SM 25/24 A2968 RMK SLP052 T02510235 52010 IEM_DS3505
ZGNN,2002-05-31 16:00,ZGNN 311600Z AUTO 00000KT 2 1/2SM 25/23 A2968 RMK T02500230 IEM_DS3505
ZGNN,2002-05-31 17:00,ZGNN 311700Z AUTO 30002KT 2 1/2SM 25/23 A2965 RMK T02500230 IEM_DS3505
ZGNN,2002-05-31 18:00,ZGNN 311800Z AUTO 00000KT 7SM 24/24 A2965 RMK SLP040 T02450238 57012 IEM_DS3505
ZGNN,2002-05-31 19:00,ZGNN 311900Z AUTO 03002KT 1SM 24/23 A2965 RMK T02400230 IEM_DS3505
ZGNN,2002-05-31 20:00,ZGNN 312000Z AUTO 04002KT 1/2SM 24/22 A2962 RMK T02400220 IEM_DS3505
ZGNN,2002-05-31 21:00,ZGNN 312100Z AUTO 00000KT 5SM 24/23 A2962 RMK SLP035 T02390233 57005 IEM_DS3505
ZGNN,2002-05-31 22:00,ZGNN 312200Z AUTO 03002KT 1 1/4SM 24/23 A2965 RMK T02400230 IEM_DS3505
ZGNN,2002-05-31 23:00,ZGNN 312300Z AUTO 05002KT 1/8SM 24/23 A2965 RMK T02400230 IEM_DS3505
ZGNN,2002-06-01 00:00,ZGNN 010000Z AUTO 09002KT 3/8SM 25/24 A2965 RMK SLP046 T02480244 52011 IEM_DS3505
ZGNN,2002-06-01 01:00,ZGNN 010100Z AUTO 00000KT 2 1/2SM 25/24 A2965 RMK T02500240 IEM_DS3505
ZGNN,2002-06-01 02:00,ZGNN 010200Z AUTO 7SM 28/24 A2965 RMK T02800240 IEM_DS3505
ZGNN,2002-06-01 03:00,ZGNN 010300Z AUTO 14002KT 9SM 30/24 A2965 RMK SLP036 T02960245 57010 IEM_DS3505
ZGNN,2002-06-01 04:00,ZGNN 010400Z AUTO 7SM 31/23 A2962 RMK T03100230 IEM_DS3505
ZGNN,2002-06-01 05:00,ZGNN 010500Z AUTO 7SM 32/24 A2959 RMK T03200240 IEM_DS3505
ZGNN,2002-06-01 06:00,ZGNN 010600Z AUTO 14004KT 16SM 33/25 A2956 RMK SLP010 T03270246 57025 IEM_DS3505
ZGNN,2002-06-01 07:00,ZGNN 010700Z AUTO 10006KT 7SM 33/23 A2956 RMK T03300230 IEM_DS3505
ZGNN,2002-06-01 08:00,ZGNN 010800Z AUTO 10006KT 7SM 33/23 A2953 RMK T03300230 IEM_DS3505
ZGNN,2002-06-01 09:00,ZGNN 010900Z AUTO 14004KT 14SM 33/24 A2950 RMK SLP989 T03320245 57020 IEM_DS3505
ZGNN,2002-06-01 10:00,ZGNN 011000Z AUTO 10004KT 7SM 33/23 A2950 RMK T03300230 IEM_DS3505
ZGNN,2002-06-01 11:00,ZGNN 011100Z AUTO 14006KT 7SM 31/25 A2950 RMK T03100250 IEM_DS3505
ZGNN,2002-06-01 12:00,ZGNN 011200Z AUTO 18006KT 12SM 30/26 A2953 RMK SLP006 T02990256 52016 IEM_DS3505
ZGNN,2002-06-01 13:00,ZGNN 011300Z AUTO 13004KT 7SM 28/24 A2956 RMK T02800240 IEM_DS3505
ZGNN,2002-06-01 14:00,ZGNN 011400Z AUTO 12004KT 7SM 27/24 A2959 RMK T02700240 IEM_DS3505
ZGNN,2002-06-01 15:00,ZGNN 011500Z AUTO 09004KT 12SM 28/25 A2959 RMK SLP026 T02750251 52020 IEM_DS3505
ZGNN,2002-06-01 16:00,ZGNN 011600Z AUTO 09008KT 6SM 27/24 A2962 RMK T02700240 IEM_DS3505
ZGNN,2002-06-01 17:00,ZGNN 011700Z AUTO 08008KT 6SM 27/23 A2959 RMK T02700230 IEM_DS3505
ZGNN,2002-06-01 18:00,ZGNN 011800Z AUTO 14002KT 9SM 26/23 RMK SLP016 T02620230 57009 IEM_DS3505
ZGNN,2002-06-01 21:00,ZGNN 012100Z AUTO 00000KT 9SM 25/24 A2959 RMK 70002 SLP017 T02540238 52001 IEM_DS3505
ZGNN,2002-06-01 22:00,ZGNN 012200Z AUTO 08004KT 7SM 25/23 A2959 RMK T02500230 IEM_DS3505
ZGNN,2002-06-01 23:00,ZGNN 012300Z AUTO 05008KT 7SM 25/23 A2956 RMK T02500230 IEM_DS3505
ZGNN,2002-06-02 00:00,ZGNN 020000Z AUTO 00000KT 7SM 24/24 A2965 RMK 60004 SLP039 T02450236 52020 IEM_DS3505
ZGNN,2002-06-02 01:00,ZGNN 020100Z AUTO 03008KT 1 1/4SM 24/23 A2965 RMK T02400230 IEM_DS3505
ZGNN,2002-06-02 02:00,ZGNN 020200Z AUTO 36006KT 3SM 24/23 A2965 RMK T02400230 IEM_DS3505
ZGNN,2002-06-02 03:00,ZGNN 020300Z AUTO 00000KT 6SM 24/24 A2965 RMK SLP033 T02430239 57006 IEM_DS3505
ZGNN,2002-06-02 04:00,ZGNN 020400Z AUTO 07006KT 7SM 25/23 A2962 RMK T02500230 IEM_DS3505
ZGNN,2002-06-02 05:00,ZGNN 020500Z AUTO 07006KT 7SM 25/23 A2962 RMK T02500230 IEM_DS3505
ZGNN,2002-06-02 06:00,ZGNN 020600Z AUTO 00000KT 7SM 26/24 A2962 RMK 60189 SLP030 T02550242 57003 IEM_DS3505
ZGNN,2002-06-02 07:00,ZGNN 020700Z AUTO 33006KT 4SM 25/23 A2962 RMK T02500230 IEM_DS3505
ZGNN,2002-06-02 08:00,ZGNN 020800Z AUTO 35004KT 4SM 25/23 A2962 RMK T02500230 IEM_DS3505
ZGNN,2002-06-02 09:00,ZGNN 020900Z AUTO 34008KT 5SM 25/24 A2959 RMK SLP024 T02470237 57007 IEM_DS3505
ZGNN,2002-06-02 10:00,ZGNN 021000Z AUTO 35008KT 7SM 24/22 A2959 RMK T02400220 IEM_DS3505
ZGNN,2002-06-02 11:00,ZGNN 021100Z AUTO 02006KT 7SM 25/22 A2962 RMK T02500220 IEM_DS3505
ZGNN,2002-06-02 12:00,ZGNN 021200Z AUTO 00000KT 19SM 24/23 A2962 RMK 60004 SLP036 T02440226 52012 IEM_DS3505
ZGNN,2002-06-02 13:00,ZGNN 021300Z AUTO 29002KT 7SM 24/22 A2965 RMK T02400220 IEM_DS3505
ZGNN,2002-06-02 14:00,ZGNN 021400Z AUTO 33002KT 7SM 24/22 A2965 RMK T02400220 IEM_DS3505
ZGNN,2002-06-02 15:00,ZGNN 021500Z AUTO 00000KT 6SM 24/23 RMK SLP052 T02380229 52016 IEM_DS3505
ZGNN,2002-06-02 16:00,ZGNN 021600Z AUTO 34004KT 7SM 24/22 A2968 RMK T02400220 IEM_DS3505
ZGNN,2002-06-02 17:00,ZGNN 021700Z AUTO 36004KT 3SM 24/22 A2965 RMK T02400220 IEM_DS3505
ZGNN,2002-06-02 18:00,ZGNN 021800Z AUTO 02004KT 4SM 23/22 A2965 RMK T02300220 IEM_DS3505
ZGNN,2002-06-02 19:00,ZGNN 021900Z AUTO 1 1/2SM 23/22 A2965 RMK T02300220 IEM_DS3505
ZGNN,2002-06-02 21:00,ZGNN 022100Z AUTO 34006KT 7SM 23/22 A2962 RMK 70224 SLP034 T02330221 57007 IEM_DS3505
ZGNN,2002-06-02 22:00,ZGNN 022200Z AUTO 35006KT 7SM 23/21 A2962 RMK T02300210 IEM_DS3505
ZGNN,2002-06-02 23:00,ZGNN 022300Z AUTO 34006KT 3SM 23/22 A2965 RMK T02300220 IEM_DS3505
ZGNN,2002-06-03 00:00,ZGNN 030000Z AUTO 32002KT 5SM 24/23 A2968 RMK 60028 SLP050 T02390229 52016 IEM_DS3505
ZGNN,2002-06-03 01:00,ZGNN 030100Z AUTO 36006KT 5SM 25/22 A2968 RMK T02500220 IEM_DS3505
ZGNN,2002-06-03 02:00,ZGNN 030200Z AUTO 36006KT 5SM 26/23 A2971 RMK T02600230 IEM_DS3505
ZGNN,2002-06-03 03:00,ZGNN 030300Z AUTO 34006KT 9SM 26/23 A2968 RMK SLP051 T02590231 52001 IEM_DS3505
ZGNN,2002-06-03 04:00,ZGNN 030400Z AUTO 1 1/2SM 25/23 A2968 RMK T02500230 IEM_DS3505
ZGNN,2002-06-03 05:00,ZGNN 030500Z AUTO 4SM 27/23 A2968 RMK T02700230 IEM_DS3505
ZGNN,2002-06-03 06:00,ZGNN 030600Z AUTO 34006KT 12SM 28/24 A2965 RMK 60003 SLP040 T02750241 57011 IEM_DS3505
ZGNN,2002-06-03 07:00,ZGNN 030700Z AUTO 04008KT 7SM 29/23 A2962 RMK T02900230 IEM_DS3505
ZGNN,2002-06-03 08:00,ZGNN 030800Z AUTO 20006KT 7SM 25/23 A2962 RMK T02500230 IEM_DS3505
ZGNN,2002-06-03 09:00,ZGNN 030900Z AUTO 22008KT 9SM 25/24 A2962 RMK SLP027 T02530239 57013 IEM_DS3505
ZGNN,2002-06-03 10:00,ZGNN 031000Z AUTO 22004KT 7SM 25/23 A2962 RMK T02500230 IEM_DS3505
ZGNN,2002-06-03 11:00,ZGNN 031100Z AUTO 24004KT 7SM 25/23 A2962 RMK T02500230 IEM_DS3505
ZGNN,2002-06-03 12:00,ZGNN 031200Z AUTO 00000KT 7SM 25/24 A2965 RMK SLP037 T02520241 52010 IEM_DS3505
ZGNN,2002-06-03 13:00,ZGNN 031300Z AUTO 03002KT 5SM 24/23 A2965 RMK T02400230 IEM_DS3505
ZGNN,2002-06-03 14:00,ZGNN 031400Z AUTO 03002KT 5SM 24/23 A2968 RMK T02400230 IEM_DS3505
ZGNN,2002-06-03 15:00,ZGNN 031500Z AUTO 00000KT 7SM 24/23 A2971 RMK SLP059 T02420232 52022 IEM_DS3505
ZGNN,2002-06-03 16:00,ZGNN 031600Z AUTO 1SM 24/23 A2968 RMK T02400230 IEM_DS3505
ZGNN,2002-06-03 17:00,ZGNN 031700Z AUTO 1 1/2SM 23/22 A2968 RMK T02300220 IEM_DS3505
ZGNN,2002-06-03 18:00,ZGNN 031800Z AUTO 00000KT 7SM 24/24 A2968 RMK SLP048 T02390235 57011 IEM_DS3505
ZGNN,2002-06-03 19:00,ZGNN 031900Z AUTO 00000KT 1 1/4SM 24/23 A2965 RMK T02400230 IEM_DS3505
ZGNN,2002-06-03 20:00,ZGNN 032000Z AUTO 00000KT 1 1/2SM 24/23 A2965 RMK T02400230 IEM_DS3505
ZGNN,2002-06-03 21:00,ZGNN 032100Z AUTO 00000KT 5SM 24/24 A2965 RMK 70001 SLP045 T02420238 57003 IEM_DS3505
ZGNN,2002-06-03 22:00,ZGNN 032200Z AUTO 06004KT 1SM 24/23 A2968 RMK T02400230 IEM_DS3505
ZGNN,2002-06-03 23:00,ZGNN 032300Z AUTO 01006KT 2 1/2SM 24/22 A2968 RMK T02400220 IEM_DS3505
ZGNN,2002-06-04 00:00,ZGNN 040000Z AUTO 00000KT 6SM 24/23 A2971 RMK 60012 SLP056 T02390230 52011 IEM_DS3505
ZGNN,2002-06-04 01:00,ZGNN 040100Z AUTO 33004KT 7SM 25/23 A2971 RMK T02500230 IEM_DS3505
ZGNN,2002-06-04 02:00,ZGNN 040200Z AUTO 7SM 26/23 A2971 RMK T02600230 IEM_DS3505
ZGNN,2002-06-04 03:00,ZGNN 040300Z AUTO 32006KT 12SM 27/25 A2971 RMK SLP063 T02730246 52007 IEM_DS3505
ZGNN,2002-06-04 04:00,ZGNN 040400Z AUTO 7SM 29/23 A2971 RMK T02900230 IEM_DS3505
ZGNN,2002-06-04 05:00,ZGNN 040500Z AUTO 7SM 29/24 A2968 RMK T02900240 IEM_DS3505
ZGNN,2002-06-04 06:00,ZGNN 040600Z AUTO 29002KT 12SM 31/25 A2968 RMK 60004 SLP045 T03080249 57017 IEM_DS3505
ZGNN,2002-06-04 07:00,ZGNN 040700Z AUTO 7SM 32/23 A2965 RMK T03200230 IEM_DS3505
ZGNN,2002-06-04 08:00,ZGNN 040800Z AUTO 05017KT 1 1/4SM 27/22 A2962 RMK T02700220 IEM_DS3505
ZGNN,2002-06-04 09:00,ZGNN 040900Z AUTO 00000KT 9SM 28/25 A2962 RMK SLP031 T02820248 57014 IEM_DS3505
ZGNN,2002-06-04 10:00,ZGNN 041000Z AUTO 7SM 29/23 A2962 RMK T02900230 IEM_DS3505
ZGNN,2002-06-04 11:00,ZGNN 041100Z AUTO 00000KT 7SM 29/23 A2962 RMK T02900230 IEM_DS3505
ZGNN,2002-06-04 12:00,ZGNN 041200Z AUTO 00000KT 6SM 28/25 A2962 RMK 60024 SLP035 T02800250 52004 IEM_DS3505
ZGNN,2002-06-04 13:00,ZGNN 041300Z AUTO 00000KT 6SM 27/24 A2965 RMK T02700240 IEM_DS3505
ZGNN,2002-06-04 14:00,ZGNN 041400Z AUTO 34002KT 5SM 26/24 A2968 RMK T02600240 IEM_DS3505
ZGNN,2002-06-04 15:00,ZGNN 041500Z AUTO 00000KT 6SM 25/24 A2968 RMK SLP054 T02540244 52019 IEM_DS3505
ZGNN,2002-06-04 16:00,ZGNN 041600Z AUTO 00000KT 1SM 25/23 A2968 RMK T02500230 IEM_DS3505
ZGNN,2002-06-04 17:00,ZGNN 041700Z AUTO 00000KT 1SM 25/23 A2968 RMK T02500230 IEM_DS3505
ZGNN,2002-06-04 18:00,ZGNN 041800Z AUTO 00000KT 5SM 24/24 A2968 RMK SLP050 T02430239 57004 IEM_DS3505
ZGNN,2002-06-04 19:00,ZGNN 041900Z AUTO 02002KT 1SM 24/23 A2965 RMK T02400230 IEM_DS3505
ZGNN,2002-06-04 20:00,ZGNN 042000Z AUTO 06002KT 1SM 24/23 A2965 RMK T02400230 IEM_DS3505
ZGNN,2002-06-04 21:00,ZGNN 042100Z AUTO 00000KT 5SM 24/24 A2965 RMK 70040 SLP044 T02400237 57006 IEM_DS3505
ZGNN,2002-06-04 22:00,ZGNN 042200Z AUTO 00000KT 1SM 24/22 A2968 RMK T02400220 IEM_DS3505
ZGNN,2002-06-04 23:00,ZGNN 042300Z AUTO 00000KT 1 1/4SM 24/23 A2971 RMK T02400230 IEM_DS3505
ZGNN,2002-06-05 00:00,ZGNN 050000Z AUTO 00000KT 5SM 26/25 A2971 RMK 70028 SLP063 T02600252 52019 IEM_DS3505
ZGNN,2002-06-05 01:00,ZGNN 050100Z AUTO 3SM 28/24 A2974 RMK T02800240 IEM_DS3505
ZGNN,2002-06-05 02:00,ZGNN 050200Z AUTO 4SM 30/25 A2974 RMK T03000250 IEM_DS3505
ZGNN,2002-06-05 03:00,ZGNN 050300Z AUTO 27002KT 5SM 30/25 A2971 RMK SLP064 T03000249 52001 IEM_DS3505
ZGNN,2002-06-05 04:00,ZGNN 050400Z AUTO 00000KT 7SM 31/23 A2971 RMK T03100230 IEM_DS3505
ZGNN,2002-06-05 05:00,ZGNN 050500Z AUTO 10004KT 7SM 32/23 A2968 RMK T03200230 IEM_DS3505
ZGNN,2002-06-05 06:00,ZGNN 050600Z AUTO 11004KT 6SM 33/22 A2965 RMK SLP038 T03260222 57025 IEM_DS3505
ZGNN,2002-06-05 07:00,ZGNN 050700Z AUTO 7SM 33/22 A2962 RMK T03300220 IEM_DS3505
ZGNN,2002-06-05 08:00,ZGNN 050800Z AUTO 06006KT 7SM 33/23 A2959 RMK T03300230 IEM_DS3505
ZGNN,2002-06-05 09:00,ZGNN 050900Z AUTO 09004KT 6SM 33/23 A2959 RMK SLP019 T03300227 57019 IEM_DS3505
ZGNN,2002-06-05 10:00,ZGNN 051000Z AUTO 08008KT 6SM 32/22 A2959 RMK T03200220 IEM_DS3505
ZGNN,2002-06-05 11:00,ZGNN 051100Z AUTO 07004KT 6SM 30/23 A2959 RMK T03000230 IEM_DS3505
ZGNN,2002-06-05 12:00,ZGNN 051200Z AUTO 00000KT 7SM 29/25 A2962 RMK SLP025 T02900251 52006 IEM_DS3505
ZGNN,2002-06-05 13:00,ZGNN 051300Z AUTO 00000KT 6SM 29/22 A2962 RMK T02900220 IEM_DS3505
ZGNN,2002-06-05 14:00,ZGNN 051400Z AUTO 34002KT 6SM 27/23 A2965 RMK T02700230 IEM_DS3505
ZGNN,2002-06-05 15:00,ZGNN 051500Z AUTO 00000KT 6SM 26/24 A2968 RMK SLP048 T02590243 52022 IEM_DS3505
ZGNN,2002-06-05 16:00,ZGNN 051600Z AUTO 00000KT 1 1/2SM 26/23 A2968 RMK T02600230 IEM_DS3505
ZGNN,2002-06-05 17:00,ZGNN 051700Z AUTO 31002KT 3SM 26/23 A2965 RMK T02600230 IEM_DS3505
ZGNN,2002-06-05 18:00,ZGNN 051800Z AUTO 00000KT 6SM 26/24 A2965 RMK SLP036 T02550245 57011 IEM_DS3505
ZGNN,2002-06-05 19:00,ZGNN 051900Z AUTO 3SM 26/24 A2965 RMK T02600240 IEM_DS3505
ZGNN,2002-06-05 20:00,ZGNN 052000Z AUTO 20002KT 2 1/2SM 25/24 A2965 RMK T02500240 IEM_DS3505
ZGNN,2002-06-05 21:00,ZGNN 052100Z AUTO 32002KT 6SM 25/25 A2965 RMK SLP036 T02520246 54000 IEM_DS3505
ZGNN,2002-06-05 22:00,ZGNN 052200Z AUTO 00000KT 3SM 25/23 A2965 RMK T02500230 IEM_DS3505
ZGNN,2002-06-05 23:00,ZGNN 052300Z AUTO 00000KT 5SM 25/24 A2968 RMK T02500240 IEM_DS3505
ZGNN,2002-06-06 00:00,ZGNN 060000Z AUTO 27002KT 5SM 26/25 A2968 RMK SLP049 T02620246 52012 IEM_DS3505
ZGNN,2002-06-06 01:00,ZGNN 060100Z AUTO 4SM 28/24 A2971 RMK T02800240 IEM_DS3505
ZGNN,2002-06-06 02:00,ZGNN 060200Z AUTO 6SM 29/24 A2971 RMK T02900240 IEM_DS3505
ZGNN,2002-06-06 03:00,ZGNN 060300Z AUTO 18004KT 7SM 30/24 A2971 RMK SLP054 T02990245 52005 IEM_DS3505
ZGNN,2002-06-06 04:00,ZGNN 060400Z AUTO 7SM 31/23 A2968 RMK T03100230 IEM_DS3505
ZGNN,2002-06-06 05:00,ZGNN 060500Z AUTO 7SM 31/23 A2968 RMK T03100230 IEM_DS3505
ZGNN,2002-06-06 06:00,ZGNN 060600Z AUTO 09004KT 16SM 32/25 A2965 RMK SLP035 T03220251 57018 IEM_DS3505
ZGNN,2002-06-06 07:00,ZGNN 060700Z AUTO 11006KT 7SM 32/23 A2962 RMK T03200230 IEM_DS3505
ZGNN,2002-06-06 08:00,ZGNN 060800Z AUTO 12006KT 7SM 32/23 A2959 RMK T03200230 IEM_DS3505
ZGNN,2002-06-06 09:00,ZGNN 060900Z AUTO 14006KT 12SM 31/24 A2956 RMK SLP011 T03090241 57024 IEM_DS3505
ZGNN,2002-06-06 10:00,ZGNN 061000Z AUTO 12006KT 6SM 30/23 A2956 RMK T03000230 IEM_DS3505
ZGNN,2002-06-06 11:00,ZGNN 061100Z AUTO 11004KT 6SM 29/23 A2959 RMK T02900230 IEM_DS3505
ZGNN,2002-06-06 12:00,ZGNN 061200Z AUTO 00000KT 12SM 29/24 A2962 RMK SLP025 T02920245 52014 IEM_DS3505
ZGNN,2002-06-06 13:00,ZGNN 061300Z AUTO 14004KT 6SM 28/24 A2965 RMK T02800240 IEM_DS3505
ZGNN,2002-06-06 14:00,ZGNN 061400Z AUTO 6SM 27/24 A2968 RMK T02700240 IEM_DS3505
ZGNN,2002-06-06 15:00,ZGNN 061500Z AUTO 00000KT 11SM 27/25 A2965 RMK SLP042 T02740250 52017 IEM_DS3505
ZGNN,2002-06-06 16:00,ZGNN 061600Z AUTO 11004KT 4SM 26/24 A2965 RMK T02600240 IEM_DS3505
ZGNN,2002-06-06 17:00,ZGNN 061700Z AUTO 5SM 26/24 A2965 RMK T02600240 IEM_DS3505
ZGNN,2002-06-06 18:00,ZGNN 061800Z AUTO 00000KT 9SM 26/25 A2965 RMK SLP032 T02630246 57010 IEM_DS3505
ZGNN,2002-06-06 19:00,ZGNN 061900Z AUTO 4SM 26/24 A2965 RMK T02600240 IEM_DS3505
ZGNN,2002-06-06 20:00,ZGNN 062000Z AUTO 00000KT 3SM 25/24 A2962 RMK T02500240 IEM_DS3505
ZGNN,2002-06-06 21:00,ZGNN 062100Z AUTO 02002KT 7SM 25/24 A2962 RMK SLP026 T02500243 57006 IEM_DS3505
ZGNN,2002-06-06 22:00,ZGNN 062200Z AUTO 00000KT 4SM 25/24 A2962 RMK T02500240 IEM_DS3505
ZGNN,2002-06-06 23:00,ZGNN 062300Z AUTO 02004KT 2 1/2SM 25/24 A2965 RMK T02500240 IEM_DS3505
ZGNN,2002-06-07 00:00,ZGNN 070000Z AUTO 09004KT 5SM 27/25 A2965 RMK SLP041 T02730252 52015 IEM_DS3505
ZGNN,2002-06-07 01:00,ZGNN 070100Z AUTO 7SM 28/24 A2968 RMK T02800240 IEM_DS3505
ZGNN,2002-06-07 02:00,ZGNN 070200Z AUTO 15006KT 7SM 29/24 A2968 RMK T02900240 IEM_DS3505
ZGNN,2002-06-07 03:00,ZGNN 070300Z AUTO 00000KT 19SM 30/26 A2968 RMK SLP047 T02990257 52006 IEM_DS3505
ZGNN,2002-06-07 04:00,ZGNN 070400Z AUTO 15008KT 7SM 30/24 A2965 RMK T03000240 IEM_DS3505
ZGNN,2002-06-07 05:00,ZGNN 070500Z AUTO 14006KT 7SM 32/24 A2962 RMK T03200240 IEM_DS3505
ZGNN,2002-06-07 06:00,ZGNN 070600Z AUTO 09006KT 19SM 33/25 A2959 RMK 60000 SLP024 T03270250 57022 IEM_DS3505
ZGNN,2002-06-07 07:00,ZGNN 070700Z AUTO 14010KT 7SM 31/24 A2959 RMK T03100240 IEM_DS3505
ZGNN,2002-06-07 08:00,ZGNN 070800Z AUTO 16006KT 7SM 28/24 A2956 RMK T02800240 IEM_DS3505
ZGNN,2002-06-07 09:00,ZGNN 070900Z AUTO 20002KT 19SM 28/25 A2956 RMK SLP009 T02790251 57017 IEM_DS3505
ZGNN,2002-06-07 10:00,ZGNN 071000Z AUTO 15006KT 7SM 28/24 A2956 RMK T02800240 IEM_DS3505
ZGNN,2002-06-07 11:00,ZGNN 071100Z AUTO 15006KT 7SM 28/24 A2956 RMK T02800240 IEM_DS3505
ZGNN,2002-06-07 12:00,ZGNN 071200Z AUTO 00000KT 19SM 28/24 A2959 RMK 60000 SLP011 T02790245 52003 IEM_DS3505
ZGNN,2002-06-07 13:00,ZGNN 071300Z AUTO 12004KT 7SM 27/24 A2959 RMK T02700240 IEM_DS3505
ZGNN,2002-06-07 14:00,ZGNN 071400Z AUTO 10004KT 7SM 26/24 A2962 RMK T02600240 IEM_DS3505
ZGNN,2002-06-07 15:00,ZGNN 071500Z AUTO 14004KT 17SM 27/25 A2965 RMK SLP038 T02690251 52027 IEM_DS3505
ZGNN,2002-06-07 16:00,ZGNN 071600Z AUTO 1SM 26/24 A2965 RMK T02600240 IEM_DS3505
ZGNN,2002-06-07 17:00,ZGNN 071700Z AUTO 06002KT 1SM 26/24 A2962 RMK T02600240 IEM_DS3505
ZGNN,2002-06-07 18:00,ZGNN 071800Z AUTO 11002KT 16SM 27/25 RMK SLP027 T02670253 57010 IEM_DS3505
ZGNN,2002-06-07 19:00,ZGNN 071900Z AUTO 06002KT 4SM 26/24 A2962 RMK T02600240 IEM_DS3505
ZGNN,2002-06-07 20:00,ZGNN 072000Z AUTO 4SM 26/24 A2959 RMK T02600240 IEM_DS3505
ZGNN,2002-06-07 21:00,ZGNN 072100Z AUTO 11002KT 9SM 26/25 A2962 RMK 70001 SLP027 T02650247 57002 IEM_DS3505
ZGNN,2002-06-07 22:00,ZGNN 072200Z AUTO 14006KT 7SM 26/23 A2962 RMK T02600230 IEM_DS3505
ZGNN,2002-06-07 23:00,ZGNN 072300Z AUTO 7SM 26/24 A2962 RMK T02600240 IEM_DS3505
ZGNN,2002-06-08 00:00,ZGNN 080000Z AUTO 14002KT 12SM 26/24 A2965 RMK 70001 SLP035 T02630239 52008 IEM_DS3505
ZGNN,2002-06-08 01:00,ZGNN 080100Z AUTO 13008KT 7SM 27/23 A2965 RMK T02700230 IEM_DS3505
ZGNN,2002-06-08 02:00,ZGNN 080200Z AUTO 13006KT 7SM 29/23 A2965 RMK T02900230 IEM_DS3505
ZGNN,2002-06-08 03:00,ZGNN 080300Z AUTO 18008KT 19SM 30/24 A2965 RMK SLP038 T02980244 52004 IEM_DS3505
ZGNN,2002-06-08 04:00,ZGNN 080400Z AUTO 13008KT 7SM 29/23 A2965 RMK T02900230 IEM_DS3505
ZGNN,2002-06-08 05:00,ZGNN 080500Z AUTO 13008KT 7SM 30/24 A2962 RMK T03000240 IEM_DS3505
ZGNN,2002-06-08 06:00,ZGNN 080600Z AUTO 18002KT 19SM 30/25 A2959 RMK SLP021 T03050246 57017 IEM_DS3505
ZGNN,2002-06-08 07:00,ZGNN 080700Z AUTO 13008KT 7SM 30/24 A2956 RMK T03000240 IEM_DS3505
ZGNN,2002-06-08 08:00,ZGNN 080800Z AUTO 14006KT 7SM 31/24 A2953 RMK T03100240 IEM_DS3505
ZGNN,2002-06-08 09:00,ZGNN 080900Z AUTO 18006KT 19SM 30/25 A2953 RMK SLP999 T03050246 57022 IEM_DS3505
ZGNN,2002-06-08 10:00,ZGNN 081000Z AUTO 13008KT 7SM 29/24 A2953 RMK T02900240 IEM_DS3505
ZGNN,2002-06-08 11:00,ZGNN 081100Z AUTO 12008KT 7SM 28/24 A2956 RMK T02800240 IEM_DS3505
ZGNN,2002-06-08 12:00,ZGNN 081200Z AUTO 14006KT 16SM 28/24 A2959 RMK SLP022 T02800243 52022 IEM_DS3505
ZGNN,2002-06-08 13:00,ZGNN 081300Z AUTO 14006KT 7SM 27/23 A2962 RMK T02700230 IEM_DS3505
ZGNN,2002-06-08 14:00,ZGNN 081400Z AUTO 6SM 26/23 A2965 RMK T02600230 IEM_DS3505
ZGNN,2002-06-08 15:00,ZGNN 081500Z AUTO 14004KT 16SM 27/24 A2965 RMK SLP037 T02660242 52016 IEM_DS3505
ZGNN,2002-06-08 18:00,ZGNN 081800Z AUTO 11002KT 14SM 26/24 RMK SLP033 T02620243 57004 IEM_DS3505
ZGNN,2002-06-08 20:00,ZGNN 082000Z AUTO 12004KT 5SM 26/24 A2962 RMK T02600240 IEM_DS3505
ZGNN,2002-06-08 21:00,ZGNN 082100Z AUTO 14002KT 12SM 26/24 A2962 RMK SLP023 T02600244 57010 IEM_DS3505
ZGNN,2002-06-08 22:00,ZGNN 082200Z AUTO 10004KT 7SM 25/23 A2962 RMK T02500230 IEM_DS3505
ZGNN,2002-06-08 23:00,ZGNN 082300Z AUTO 7SM 25/23 A2965 RMK T02500230 IEM_DS3505
ZGNN,2002-06-09 00:00,ZGNN 090000Z AUTO 14004KT 4SM 25/24 A2965 RMK 60000 SLP042 T02530244 52018 IEM_DS3505
ZGNN,2002-06-09 01:00,ZGNN 090100Z AUTO 08006KT 7SM 26/24 A2965 RMK T02600240 IEM_DS3505
ZGNN,2002-06-09 02:00,ZGNN 090200Z AUTO 12006KT 7SM 27/24 A2965 RMK T02700240 IEM_DS3505
ZGNN,2002-06-09 03:00,ZGNN 090300Z AUTO 14006KT 16SM 28/25 A2965 RMK SLP043 T02820248 52001 IEM_DS3505
ZGNN,2002-06-09 04:00,ZGNN 090400Z AUTO 14008KT 7SM 28/23 A2965 RMK T02800230 IEM_DS3505
ZGNN,2002-06-09 05:00,ZGNN 090500Z AUTO 16008KT 7SM 28/23 A2962 RMK T02800230 IEM_DS3505
ZGNN,2002-06-09 06:00,ZGNN 090600Z AUTO 16006KT 19SM 28/24 A2962 RMK 60003 SLP025 T02780241 57018 IEM_DS3505
ZGNN,2002-06-09 07:00,ZGNN 090700Z AUTO 12008KT 7SM RMK IEM_DS3505
ZGNN,2002-06-09 08:00,ZGNN 090800Z AUTO 12004KT 7SM 27/24 A2956 RMK T02700240 IEM_DS3505
ZGNN,2002-06-09 09:00,ZGNN 090900Z AUTO 16004KT 19SM 28/25 A2956 RMK SLP008 T02760248 57017 IEM_DS3505
ZGNN,2002-06-09 10:00,ZGNN 091000Z AUTO 11006KT 7SM 27/24 A2953 RMK T02700240 IEM_DS3505
ZGNN,2002-06-09 11:00,ZGNN 091100Z AUTO 13006KT 6SM 27/23 A2956 RMK T02700230 IEM_DS3505
ZGNN,2002-06-09 12:00,ZGNN 091200Z AUTO 11002KT 19SM 27/24 A2959 RMK 60003 SLP021 T02680242 52013 IEM_DS3505
ZGNN,2002-06-09 13:00,ZGNN 091300Z AUTO 10006KT 7SM 26/23 A2962 RMK T02600230 IEM_DS3505
ZGNN,2002-06-09 14:00,ZGNN 091400Z AUTO 7SM 25/23 A2965 RMK T02500230 IEM_DS3505
ZGNN,2002-06-09 15:00,ZGNN 091500Z AUTO 14002KT 12SM 25/23 A2965 RMK SLP037 T02530234 52016 IEM_DS3505
ZGNN,2002-06-09 16:00,ZGNN 091600Z AUTO 7SM 25/23 A2965 RMK T02500230 IEM_DS3505
ZGNN,2002-06-09 17:00,ZGNN 091700Z AUTO 7SM 25/23 A2965 RMK T02500230 IEM_DS3505
ZGNN,2002-06-09 18:00,ZGNN 091800Z AUTO 00000KT 9SM 25/24 A2965 RMK SLP037 T02520239 54000 IEM_DS3505
ZGNN,2002-06-09 19:00,ZGNN 091900Z AUTO 7SM 25/23 A2962 RMK T02500230 IEM_DS3505
ZGNN,2002-06-09 20:00,ZGNN 092000Z AUTO 07004KT 4SM 25/23 A2962 RMK T02500230 IEM_DS3505
ZGNN,2002-06-09 21:00,ZGNN 092100Z AUTO 09002KT 7SM 25/24 A2959 RMK 70001 SLP024 T02520241 57013 IEM_DS3505
ZGNN,2002-06-09 22:00,ZGNN 092200Z AUTO 7SM 25/23 A2962 RMK T02500230 IEM_DS3505
ZGNN,2002-06-09 23:00,ZGNN 092300Z AUTO 7SM 25/23 A2962 RMK T02500230 IEM_DS3505
ZGNN,2002-06-10 00:00,ZGNN 100000Z AUTO 00000KT 7SM 26/24 A2962 RMK 60002 SLP034 T02560245 52010 IEM_DS3505
ZGNN,2002-06-10 01:00,ZGNN 100100Z AUTO 11004KT 7SM 26/24 A2965 RMK T02600240 IEM_DS3505
ZGNN,2002-06-10 02:00,ZGNN 100200Z AUTO 11006KT 7SM 27/24 A2965 RMK T02700240 IEM_DS3505
ZGNN,2002-06-10 03:00,ZGNN 100300Z AUTO 14004KT 19SM 28/25 A2965 RMK SLP037 T02810246 52003 IEM_DS3505
ZGNN,2002-06-10 04:00,ZGNN 100400Z AUTO 09006KT 7SM 28/25 A2965 RMK T02800250 IEM_DS3505
ZGNN,2002-06-10 05:00,ZGNN 100500Z AUTO 09006KT 7SM 29/25 A2962 RMK T02900250 IEM_DS3505
ZGNN,2002-06-10 06:00,ZGNN 100600Z AUTO 14004KT 19SM 30/26 A2959 RMK 60003 SLP021 T03040255 57015 IEM_DS3505
ZGNN,2002-06-10 07:00,ZGNN 100700Z AUTO 35006KT 7SM 26/24 A2959 RMK T02600240 IEM_DS3505
ZGNN,2002-06-10 08:00,ZGNN 100800Z AUTO 22008KT 4SM 24/22 A2962 RMK T02400220 IEM_DS3505
ZGNN,2002-06-10 09:00,ZGNN 100900Z AUTO 18002KT 4SM 23/22 A2965 RMK SLP021 T02280222 57002 IEM_DS3505
ZGNN,2002-06-10 10:00,ZGNN 101000Z AUTO 21004KT 7SM 23/21 A2959 RMK T02300210 IEM_DS3505
ZGNN,2002-06-10 11:00,ZGNN 101100Z AUTO 04004KT 7SM 23/22 A2959 RMK T02300220 IEM_DS3505
ZGNN,2002-06-10 12:00,ZGNN 101200Z AUTO 29002KT 5SM 23/23 A2962 RMK 60063 SLP036 T02330229 52015 IEM_DS3505
ZGNN,2002-06-10 13:00,ZGNN 101300Z AUTO 02004KT 7SM 23/22 A2965 RMK T02300220 IEM_DS3505
ZGNN,2002-06-10 14:00,ZGNN 101400Z AUTO 00000KT 7SM 23/22 A2965 RMK T02300220 IEM_DS3505
ZGNN,2002-06-10 15:00,ZGNN 101500Z AUTO 00000KT 7SM 24/23 A2968 RMK SLP052 T02370233 52016 IEM_DS3505
ZGNN,2002-06-10 16:00,ZGNN 101600Z AUTO 05002KT 4SM 23/22 A2968 RMK T02300220 IEM_DS3505
ZGNN,2002-06-10 17:00,ZGNN 101700Z AUTO 03002KT 4SM 23/22 A2968 RMK T02300220 IEM_DS3505
ZGNN,2002-06-10 18:00,ZGNN 101800Z AUTO 00000KT 12SM 24/23 A2968 RMK 60003 SLP045 T02360232 57006 IEM_DS3505
ZGNN,2002-06-10 19:00,ZGNN 101900Z AUTO 02004KT 4SM 24/22 A2968 RMK T02400220 IEM_DS3505
ZGNN,2002-06-10 20:00,ZGNN 102000Z AUTO 03004KT 3SM 24/22 A2968 RMK T02400220 IEM_DS3505
ZGNN,2002-06-10 21:00,ZGNN 102100Z AUTO 00000KT 4SM 24/23 A2968 RMK 70069 SLP046 T02390233 57001 IEM_DS3505
ZGNN,2002-06-10 22:00,ZGNN 102200Z AUTO 02002KT 2 1/2SM 24/22 A2968 RMK T02400220 IEM_DS3505
ZGNN,2002-06-10 23:00,ZGNN 102300Z AUTO 31002KT 2 1/2SM 24/23 A2971 RMK T02400230 IEM_DS3505
ZGNN,2002-06-11 00:00,ZGNN 110000Z AUTO 34004KT 2SM 24/24 A2971 RMK 60000 SLP057 T02420238 52011 IEM_DS3505
ZGNN,2002-06-11 01:00,ZGNN 110100Z AUTO 3SM 25/23 A2971 RMK T02500230 IEM_DS3505
ZGNN,2002-06-11 02:00,ZGNN 110200Z AUTO 36006KT 3SM 25/23 A2974 RMK T02500230 IEM_DS3505
ZGNN,2002-06-11 03:00,ZGNN 110300Z AUTO 34006KT 11SM 26/24 A2974 RMK SLP059 T02620238 52003 IEM_DS3505
ZGNN,2002-06-11 04:00,ZGNN 110400Z AUTO 01010KT 7SM 28/23 A2971 RMK T02800230 IEM_DS3505
ZGNN,2002-06-11 05:00,ZGNN 110500Z AUTO 01008KT 7SM 29/24 A2971 RMK T02900240 IEM_DS3505
ZGNN,2002-06-11 06:00,ZGNN 110600Z AUTO 09004KT 12SM 28/24 A2968 RMK 60000 SLP045 T02840241 57013 IEM_DS3505
ZGNN,2002-06-11 07:00,ZGNN 110700Z AUTO 08008KT 7SM 28/24 RMK T02800240 IEM_DS3505
ZGNN,2002-06-11 08:00,ZGNN 110800Z AUTO 08006KT 7SM 28/24 A2965 RMK T02800240 IEM_DS3505
ZGNN,2002-06-11 09:00,ZGNN 110900Z AUTO 07002KT 12SM 28/25 A2962 RMK SLP030 T02820250 57015 IEM_DS3505
ZGNN,2002-06-11 10:00,ZGNN 111000Z AUTO 08004KT 7SM 27/24 A2962 RMK T02700240 IEM_DS3505
ZGNN,2002-06-11 11:00,ZGNN 111100Z AUTO 07006KT 7SM 27/24 A2962 RMK T02700240 IEM_DS3505
ZGNN,2002-06-11 12:00,ZGNN 111200Z AUTO 09004KT 12SM 26/24 A2965 RMK 60003 SLP044 T02650244 52013 IEM_DS3505
ZGNN,2002-06-11 13:00,ZGNN 111300Z AUTO 7SM 26/24 A2965 RMK T02600240 IEM_DS3505
ZGNN,2002-06-11 14:00,ZGNN 111400Z AUTO 7SM 26/24 A2968 RMK T02600240 IEM_DS3505
ZGNN,2002-06-11 15:00,ZGNN 111500Z AUTO 0SM A2968 RMK 70011 IEM_DS3505
ZGNN,2002-06-11 16:00,ZGNN 111600Z AUTO 04004KT 7SM 25/23 A2968 RMK T02500230 IEM_DS3505
ZGNN,2002-06-11 17:00,ZGNN 111700Z AUTO 05002KT 2 1/2SM 25/23 A2968 RMK T02500230 IEM_DS3505
ZGNN,2002-06-11 18:00,ZGNN 111800Z AUTO 14002KT 11SM 25/25 A2968 RMK SLP045 T02530246 57009 IEM_DS3505
ZGNN,2002-06-11 19:00,ZGNN 111900Z AUTO 05004KT 2 1/2SM 25/23 A2968 RMK T02500230 IEM_DS3505
ZGNN,2002-06-11 20:00,ZGNN 112000Z AUTO 4SM 25/24 A2968 RMK T02500240 IEM_DS3505
ZGNN,2002-06-11 21:00,ZGNN 112100Z AUTO 00000KT 7SM 25/25 A2968 RMK 70001 SLP043 T02540248 57002 IEM_DS3505
ZGNN,2002-06-11 22:00,ZGNN 112200Z AUTO 04002KT 4SM 25/24 A2968 RMK T02500240 IEM_DS3505
ZGNN,2002-06-11 23:00,ZGNN 112300Z AUTO 02002KT 4SM 25/24 A2968 RMK T02500240 IEM_DS3505
ZGNN,2002-06-12 00:00,ZGNN 120000Z AUTO 09004KT 5SM 26/25 A2971 RMK 70000 SLP052 T02640253 52009 IEM_DS3505
ZGNN,2002-06-12 01:00,ZGNN 120100Z AUTO 11008G17KT 7SM 26/24 A2971 RMK T02600240 IEM_DS3505
ZGNN,2002-06-12 02:00,ZGNN 120200Z AUTO 11006KT 7SM 26/24 A2971 RMK T02600240 IEM_DS3505
ZGNN,2002-06-12 03:00,ZGNN 120300Z AUTO 18006KT 6SM 26/24 A2974 RMK SLP061 T02560245 52008 IEM_DS3505
ZGNN,2002-06-12 04:00,ZGNN 120400Z AUTO 16006KT 7SM 25/23 A2971 RMK T02500230 IEM_DS3505
ZGNN,2002-06-12 05:00,ZGNN 120500Z AUTO 14006KT 7SM 24/23 A2971 RMK T02400230 IEM_DS3505
ZGNN,2002-06-12 06:00,ZGNN 120600Z AUTO 14004KT 4SM 24/24 A2971 RMK 60055 SLP056 T02450238 57005 IEM_DS3505
ZGNN,2002-06-12 09:00,ZGNN 120900Z AUTO 14002KT 5SM 24/24 A2965 RMK SLP045 T02450238 57011 IEM_DS3505
ZGNN,2002-06-12 11:00,ZGNN 121100Z AUTO 07004KT 7SM 24/23 A2965 RMK T02400230 IEM_DS3505
ZGNN,2002-06-12 12:00,ZGNN 121200Z AUTO 04002KT 7SM 24/24 RMK 60016 SLP048 T02450238 52003 IEM_DS3505
ZGNN,2002-06-12 13:00,ZGNN 121300Z AUTO 05002KT 7SM 24/23 A2968 RMK T02400230 IEM_DS3505
ZGNN,2002-06-12 14:00,ZGNN 121400Z AUTO 05002KT 7SM 24/23 A2971 RMK T02400230 IEM_DS3505
ZGNN,2002-06-12 15:00,ZGNN 121500Z AUTO 00000KT 7SM 25/24 A2971 RMK SLP063 T02460242 52015 IEM_DS3505
ZGNN,2002-06-12 16:00,ZGNN 121600Z AUTO 08002KT 7SM 24/23 A2971 RMK T02400230 IEM_DS3505
ZGNN,2002-06-12 17:00,ZGNN 121700Z AUTO 07002KT 7SM 25/23 A2971 RMK T02500230 IEM_DS3505
ZGNN,2002-06-12 18:00,ZGNN 121800Z AUTO 09002KT 7SM 25/24 A2971 RMK SLP052 T02500244 57011 IEM_DS3505
ZGNN,2002-06-12 19:00,ZGNN 121900Z AUTO 5SM 25/23 A2968 RMK T02500230 IEM_DS3505
ZGNN,2002-06-12 20:00,ZGNN 122000Z AUTO 4SM 25/23 A2968 RMK T02500230 IEM_DS3505
ZGNN,2002-06-12 21:00,ZGNN 122100Z AUTO 09004KT 7SM 25/24 A2965 RMK 70071 SLP044 T02510245 57008 IEM_DS3505
ZGNN,2002-06-12 22:00,ZGNN 122200Z AUTO 08004KT 7SM 25/24 A2968 RMK T02500240 IEM_DS3505
ZGNN,2002-06-12 23:00,ZGNN 122300Z AUTO 10004KT 4SM 25/24 A2968 RMK T02500240 IEM_DS3505
ZGNN,2002-06-13 00:00,ZGNN 130000Z AUTO 11002KT 4SM 26/25 A2968 RMK 60000 SLP051 T02560247 52007 IEM_DS3505
ZGNN,2002-06-13 01:00,ZGNN 130100Z AUTO 12006KT 7SM 26/24 A2971 RMK T02600240 IEM_DS3505
ZGNN,2002-06-13 02:00,ZGNN 130200Z AUTO 13008KT 7SM 26/23 A2971 RMK T02600230 IEM_DS3505
ZGNN,2002-06-13 03:00,ZGNN 130300Z AUTO 14002KT 5SM 25/24 A2971 RMK SLP057 T02530243 52006 IEM_DS3505
ZGNN,2002-06-13 04:00,ZGNN 130400Z AUTO 7SM 24/23 A2971 RMK T02400230 IEM_DS3505
ZGNN,2002-06-13 05:00,ZGNN 130500Z AUTO 12002KT 7SM 25/23 A2968 RMK T02500230 IEM_DS3505
ZGNN,2002-06-13 06:00,ZGNN 130600Z AUTO 00000KT 5SM 25/24 A2968 RMK 60043 SLP044 T02500244 57013 IEM_DS3505
ZGNN,2002-06-13 07:00,ZGNN 130700Z AUTO 12004KT 7SM 25/23 A2965 RMK T02500230 IEM_DS3505
ZGNN,2002-06-13 08:00,ZGNN 130800Z AUTO 7SM 26/24 A2962 RMK T02600240 IEM_DS3505
ZGNN,2002-06-13 09:00,ZGNN 130900Z AUTO 14004KT 9SM 27/25 A2962 RMK SLP031 T02680253 57012 IEM_DS3505
ZGNN,2002-06-13 10:00,ZGNN 131000Z AUTO 10004KT 7SM 27/25 A2962 RMK T02700250 IEM_DS3505
ZGNN,2002-06-13 11:00,ZGNN 131100Z AUTO 00000KT 7SM 27/25 A2962 RMK T02700250 IEM_DS3505
ZGNN,2002-06-13 12:00,ZGNN 131200Z AUTO 00000KT 7SM 27/26 RMK 60002 SLP034 T02690258 52003 IEM_DS3505
ZGNN,2002-06-13 13:00,ZGNN 131300Z AUTO 12004KT 7SM 26/24 A2965 RMK T02600240 IEM_DS3505
ZGNN,2002-06-13 14:00,ZGNN 131400Z AUTO 7SM 26/24 A2968 RMK T02600240 IEM_DS3505
ZGNN,2002-06-13 15:00,ZGNN 131500Z AUTO 00000KT 9SM 26/25 A2968 RMK SLP047 T02570247 52012 IEM_DS3505
ZGNN,2002-06-13 16:00,ZGNN 131600Z AUTO 6SM 26/23 A2968 RMK T02600230 IEM_DS3505
ZGNN,2002-06-13 18:00,ZGNN 131800Z AUTO 00000KT 9SM 25/24 RMK SLP043 T02480245 57004 IEM_DS3505
ZGNN,2002-06-13 20:00,ZGNN 132000Z AUTO 01004KT 3SM 24/23 A2965 RMK T02400230 IEM_DS3505
ZGNN,2002-06-13 21:00,ZGNN 132100Z AUTO 00000KT 9SM 25/24 A2965 RMK 70043 SLP033 T02460243 57009 IEM_DS3505
ZGNN,2002-06-13 22:00,ZGNN 132200Z AUTO 36004KT 7SM 24/23 A2965 RMK T02400230 IEM_DS3505
ZGNN,2002-06-13 23:00,ZGNN 132300Z AUTO 01004KT 7SM 25/24 A2968 RMK T02500240 IEM_DS3505
ZGNN,2002-06-14 04:00,ZGNN 140400Z AUTO 16008KT 7SM 30/24 A2968 RMK T03000240 IEM_DS3505
ZGNN,2002-06-14 05:00,ZGNN 140500Z AUTO 15010KT 7SM 30/24 A2965 RMK T03000240 IEM_DS3505
ZGNN,2002-06-14 06:00,ZGNN 140600Z AUTO 18008KT 19SM 30/25 A2962 RMK 60003 SLP032 T03040249 57017 IEM_DS3505
ZGNN,2002-06-14 07:00,ZGNN 140700Z AUTO 15010KT 7SM 31/24 A2959 RMK T03100240 IEM_DS3505
ZGNN,2002-06-14 08:00,ZGNN 140800Z AUTO 15010KT 7SM 30/24 A2959 RMK T03000240 IEM_DS3505
ZGNN,2002-06-14 09:00,ZGNN 140900Z AUTO 14006KT 19SM 30/25 A2959 RMK SLP015 T02970252 57017 IEM_DS3505
ZGNN,2002-06-14 10:00,ZGNN 141000Z AUTO 14010KT 7SM 29/24 A2959 RMK T02900240 IEM_DS3505
ZGNN,2002-06-14 11:00,ZGNN 141100Z AUTO 15008KT 7SM 28/24 A2962 RMK T02800240 IEM_DS3505
ZGNN,2002-06-14 12:00,ZGNN 141200Z AUTO 18004KT 16SM 28/25 A2962 RMK 60003 SLP028 T02800250 52012 IEM_DS3505
ZGNN,2002-06-14 13:00,ZGNN 141300Z AUTO 13004KT 6SM 27/24 A2962 RMK T02700240 IEM_DS3505
ZGNN,2002-06-14 14:00,ZGNN 141400Z AUTO 14004KT 6SM 27/24 A2965 RMK T02700240 IEM_DS3505
ZGNN,2002-06-14 15:00,ZGNN 141500Z AUTO 00000KT 14SM 27/25 A2965 RMK SLP042 T02660246 52014 IEM_DS3505
ZGNN,2002-06-14 17:00,ZGNN 141700Z AUTO 11002KT 7SM 26/24 A2965 RMK T02600240 IEM_DS3505
ZGNN,2002-06-14 18:00,ZGNN 141800Z AUTO 00000KT 12SM 26/25 RMK SLP034 T02600246 57007 IEM_DS3505
ZGNN,2002-06-14 21:00,ZGNN 142100Z AUTO 00000KT 9SM 26/25 A2965 RMK 70003 SLP035 T02550248 54000 IEM_DS3505
ZGNN,2002-06-14 22:00,ZGNN 142200Z AUTO 30002KT 7SM 25/23 A2965 RMK T02500230 IEM_DS3505
ZGNN,2002-06-14 23:00,ZGNN 142300Z AUTO 7SM 25/24 A2965 RMK T02500240 IEM_DS3505
ZGNN,2002-06-15 00:00,ZGNN 150000Z AUTO 00000KT 7SM 26/25 A2968 RMK 60003 SLP042 T02610250 52007 IEM_DS3505
ZGNN,2002-06-15 01:00,ZGNN 150100Z AUTO 7SM 26/24 A2968 RMK T02600240 IEM_DS3505
ZGNN,2002-06-15 02:00,ZGNN 150200Z AUTO 7SM 28/24 A2968 RMK T02800240 IEM_DS3505
ZGNN,2002-06-15 03:00,ZGNN 150300Z AUTO 22004KT 16SM 29/26 A2965 RMK SLP039 T02940259 57002 IEM_DS3505
ZGNN,2002-06-15 04:00,ZGNN 150400Z AUTO 20004KT 7SM 30/25 A2965 RMK T03000250 IEM_DS3505
ZGNN,2002-06-15 05:00,ZGNN 150500Z AUTO 7SM 31/25 A2962 RMK T03100250 IEM_DS3505
ZGNN,2002-06-15 06:00,ZGNN 150600Z AUTO 18004KT 16SM 29/25 A2962 RMK 60003 SLP024 T02880249 57015 IEM_DS3505
ZGNN,2002-06-15 07:00,ZGNN 150700Z AUTO 7SM 26/24 A2962 RMK T02600240 IEM_DS3505
ZGNN,2002-06-15 08:00,ZGNN 150800Z AUTO 7SM 26/24 A2959 RMK T02600240 IEM_DS3505
ZGNN,2002-06-15 09:00,ZGNN 150900Z AUTO 00000KT 16SM 26/25 A2959 RMK SLP019 T02620254 57006 IEM_DS3505
ZGNN,2002-06-15 10:00,ZGNN 151000Z AUTO 05004KT 7SM 26/24 A2959 RMK T02600240 IEM_DS3505
ZGNN,2002-06-15 11:00,ZGNN 151100Z AUTO 04004KT 7SM 26/24 A2962 RMK T02600240 IEM_DS3505
ZGNN,2002-06-15 12:00,ZGNN 151200Z AUTO 07002KT 6SM 26/25 A2962 RMK 60024 SLP029 T02590251 52010 IEM_DS3505
ZGNN,2002-06-15 13:00,ZGNN 151300Z AUTO 02004KT 7SM 25/24 A2962 RMK T02500240 IEM_DS3505
ZGNN,2002-06-15 14:00,ZGNN 151400Z AUTO 02002KT 7SM 25/24 A2962 RMK T02500240 IEM_DS3505
ZGNN,2002-06-15 15:00,ZGNN 151500Z AUTO 00000KT 5SM 26/26 A2965 RMK SLP037 T02610255 52009 IEM_DS3505
ZGNN,2002-06-15 16:00,ZGNN 151600Z AUTO 14004KT 6SM 26/25 A2965 RMK T02600250 IEM_DS3505
ZGNN,2002-06-15 20:00,ZGNN 152000Z AUTO 12002KT 7SM 25/24 A2962 RMK T02500240 IEM_DS3505
ZGNN,2002-06-15 21:00,ZGNN 152100Z AUTO 00000KT 5SM 26/25 A2965 RMK 70024 SLP036 T02560250 52002 IEM_DS3505
ZGNN,2002-06-15 22:00,ZGNN 152200Z AUTO 05002KT 7SM 25/24 A2965 RMK T02500240 IEM_DS3505
ZGNN,2002-06-15 23:00,ZGNN 152300Z AUTO 04002KT 7SM 25/24 A2965 RMK T02500240 IEM_DS3505
ZGNN,2002-06-16 00:00,ZGNN 160000Z AUTO 00000KT 7SM 26/25 RMK 70024 SLP048 T02620252 52012 IEM_DS3505
ZGNN,2002-06-16 01:00,ZGNN 160100Z AUTO 00000KT 7SM 27/25 A2968 RMK T02700250 IEM_DS3505
ZGNN,2002-06-16 02:00,ZGNN 160200Z AUTO 29012KT 7SM 26/23 A2971 RMK T02600230 IEM_DS3505
ZGNN,2002-06-16 03:00,ZGNN 160300Z AUTO 27004KT 12SM 24/22 A2971 RMK SLP063 T02370221 52014 IEM_DS3505
ZGNN,2002-06-16 04:00,ZGNN 160400Z AUTO 7SM 24/22 A2971 RMK T02400220 IEM_DS3505
ZGNN,2002-06-16 05:00,ZGNN 160500Z AUTO 26006KT 7SM 24/21 A2971 RMK T02400210 IEM_DS3505
ZGNN,2002-06-16 06:00,ZGNN 160600Z AUTO 27002KT 12SM 24/23 A2968 RMK 60043 SLP049 T02440226 57014 IEM_DS3505
ZGNN,2002-06-16 07:00,ZGNN 160700Z AUTO 20002KT 7SM 25/22 A2968 RMK T02500220 IEM_DS3505
ZGNN,2002-06-16 08:00,ZGNN 160800Z AUTO 00000KT 7SM 25/23 A2968 RMK T02500230 IEM_DS3505
ZGNN,2002-06-16 09:00,ZGNN 160900Z AUTO 00000KT 9SM 26/24 A2965 RMK SLP042 T02570235 57007 IEM_DS3505
ZGNN,2002-06-16 10:00,ZGNN 161000Z AUTO 7SM 25/23 A2965 RMK T02500230 IEM_DS3505
ZGNN,2002-06-16 11:00,ZGNN 161100Z AUTO 08002KT 7SM 25/23 A2968 RMK T02500230 IEM_DS3505
ZGNN,2002-06-16 12:00,ZGNN 161200Z AUTO 00000KT 7SM 25/24 A2968 RMK 60000 SLP054 T02510242 52012 IEM_DS3505
ZGNN,2002-06-16 13:00,ZGNN 161300Z AUTO 05002KT 7SM 25/23 A2971 RMK T02500230 IEM_DS3505
ZGNN,2002-06-16 14:00,ZGNN 161400Z AUTO 03002KT 6SM 24/23 A2971 RMK T02400230 IEM_DS3505
ZGNN,2002-06-16 15:00,ZGNN 161500Z AUTO 00000KT 9SM 24/24 A2971 RMK SLP062 T02450239 52007 IEM_DS3505
ZGNN,2002-06-16 16:00,ZGNN 161600Z AUTO 02004KT 4SM 25/23 A2971 RMK T02500230 IEM_DS3505
ZGNN,2002-06-16 17:00,ZGNN 161700Z AUTO 01004KT 7SM 25/22 A2971 RMK T02500220 IEM_DS3505
ZGNN,2002-06-16 18:00,ZGNN 161800Z AUTO 00000KT 6SM 25/24 A2968 RMK 60000 SLP051 T02460240 57010 IEM_DS3505
ZGNN,2002-06-16 19:00,ZGNN 161900Z AUTO 02002KT 2SM 24/23 A2968 RMK T02400230 IEM_DS3505
ZGNN,2002-06-16 20:00,ZGNN 162000Z AUTO 1 1/4SM 24/23 A2965 RMK T02400230 IEM_DS3505
ZGNN,2002-06-16 21:00,ZGNN 162100Z AUTO 00000KT 5SM 24/24 A2965 RMK 70044 SLP044 T02440240 57007 IEM_DS3505
ZGNN,2002-06-16 22:00,ZGNN 162200Z AUTO 03002KT 4SM 24/23 A2968 RMK T02400230 IEM_DS3505
ZGNN,2002-06-16 23:00,ZGNN 162300Z AUTO 00000KT 4SM 24/23 A2968 RMK T02400230 IEM_DS3505
ZGNN,2002-06-17 00:00,ZGNN 170000Z AUTO 00000KT 4SM 25/24 A2971 RMK 60003 SLP057 T02490242 52013 IEM_DS3505
ZGNN,2002-06-17 01:00,ZGNN 170100Z AUTO 5SM 25/23 A2971 RMK T02500230 IEM_DS3505
ZGNN,2002-06-17 02:00,ZGNN 170200Z AUTO 7SM 27/24 A2971 RMK T02700240 IEM_DS3505
ZGNN,2002-06-17 03:00,ZGNN 170300Z AUTO 22004KT 9SM 28/25 A2971 RMK SLP056 T02790251 54000 IEM_DS3505
ZGNN,2002-06-17 04:00,ZGNN 170400Z AUTO 7SM 28/24 A2971 RMK T02800240 IEM_DS3505
ZGNN,2002-06-17 05:00,ZGNN 170500Z AUTO 7SM 30/25 A2965 RMK T03000250 IEM_DS3505
ZGNN,2002-06-17 06:00,ZGNN 170600Z AUTO 20004KT 19SM 30/25 A2962 RMK 60000 SLP032 T03030254 57024 IEM_DS3505
ZGNN,2002-06-17 07:00,ZGNN 170700Z AUTO 10006KT 7SM 31/25 A2962 RMK T03100250 IEM_DS3505
ZGNN,2002-06-17 08:00,ZGNN 170800Z AUTO 7SM 30/26 A2959 RMK T03000260 IEM_DS3505
ZGNN,2002-06-17 09:00,ZGNN 170900Z AUTO 09004KT 11SM 28/25 A2956 RMK SLP015 T02830254 57017 IEM_DS3505
ZGNN,2002-06-17 10:00,ZGNN 171000Z AUTO 7SM 28/25 A2959 RMK T02800250 IEM_DS3505
ZGNN,2002-06-17 11:00,ZGNN 171100Z AUTO 09004KT 7SM 28/26 A2959 RMK T02800260 IEM_DS3505
ZGNN,2002-06-17 12:00,ZGNN 171200Z AUTO 14002KT 16SM 28/26 A2959 RMK 60063 SLP024 T02770262 52009 IEM_DS3505
ZGNN,2002-06-17 13:00,ZGNN 171300Z AUTO 7SM 27/25 A2962 RMK T02700250 IEM_DS3505
ZGNN,2002-06-17 14:00,ZGNN 171400Z AUTO 7SM 27/25 A2962 RMK T02700250 IEM_DS3505
ZGNN,2002-06-17 15:00,ZGNN 171500Z AUTO 00000KT 16SM 28/26 A2965 RMK SLP039 T02750258 52015 IEM_DS3505
ZGNN,2002-06-17 18:00,ZGNN 171800Z AUTO 14004KT 12SM 27/26 RMK SLP034 T02710256 57004 IEM_DS3505
ZGNN,2002-06-17 21:00,ZGNN 172100Z AUTO 14002KT 12SM 27/25 A2962 RMK 70063 SLP024 T02670253 57010 IEM_DS3505
ZGNN,2002-06-17 22:00,ZGNN 172200Z AUTO 14006KT 7SM 27/24 A2962 RMK T02700240 IEM_DS3505
ZGNN,2002-06-17 23:00,ZGNN 172300Z AUTO 15006KT 7SM 27/24 A2962 RMK T02700240 IEM_DS3505
ZGNN,2002-06-18 00:00,ZGNN 180000Z AUTO 22002KT 16SM 28/25 A2962 RMK 70063 SLP024 T02830251 54000 IEM_DS3505
ZGNN,2002-06-18 01:00,ZGNN 180100Z AUTO 00000KT 7SM 29/24 A2962 RMK T02900240 IEM_DS3505
ZGNN,2002-06-18 02:00,ZGNN 180200Z AUTO 18006KT 7SM 30/23 A2965 RMK T03000230 IEM_DS3505
ZGNN,2002-06-18 03:00,ZGNN 180300Z AUTO 14006KT 19SM 30/25 A2965 RMK SLP041 T02970252 52017 IEM_DS3505
ZGNN,2002-06-18 04:00,ZGNN 180400Z AUTO 14008KT 6SM 29/24 A2965 RMK T02900240 IEM_DS3505
ZGNN,2002-06-18 05:00,ZGNN 180500Z AUTO 16006KT 6SM 31/24 A2962 RMK T03100240 IEM_DS3505
ZGNN,2002-06-18 06:00,ZGNN 180600Z AUTO 18008KT 19SM 31/24 A2959 RMK SLP024 T03130243 57017 IEM_DS3505
ZGNN,2002-06-18 07:00,ZGNN 180700Z AUTO 13006KT 7SM 30/24 A2959 RMK T03000240 IEM_DS3505
ZGNN,2002-06-18 08:00,ZGNN 180800Z AUTO 13008KT 7SM 30/25 A2956 RMK T03000250 IEM_DS3505
ZGNN,2002-06-18 09:00,ZGNN 180900Z AUTO 14008KT 19SM 31/26 A2956 RMK SLP009 T03090256 57015 IEM_DS3505
ZGNN,2002-06-18 10:00,ZGNN 181000Z AUTO 14010KT 6SM 30/25 A2956 RMK T03000250 IEM_DS3505
ZGNN,2002-06-18 12:00,ZGNN 181200Z AUTO 14008KT 19SM 29/25 RMK SLP017 T02860252 52008 IEM_DS3505
ZGNN,2002-06-18 13:00,ZGNN 181300Z AUTO 14008KT 6SM 28/24 A2959 RMK T02800240 IEM_DS3505
ZGNN,2002-06-18 15:00,ZGNN 181500Z AUTO 22004KT 16SM 28/25 RMK SLP034 T02760254 52017 IEM_DS3505
ZGNN,2002-06-19 00:00,ZGNN 190000Z AUTO 18006KT 16SM 28/25 A2962 RMK SLP032 T02790251 52001 IEM_DS3505
ZGNN,2002-06-19 01:00,ZGNN 190100Z AUTO 16008KT 7SM 29/25 A2965 RMK T02900250 IEM_DS3505
ZGNN,2002-06-19 02:00,ZGNN 190200Z AUTO 17008KT 7SM 29/24 A2965 RMK T02900240 IEM_DS3505
ZGNN,2002-06-19 03:00,ZGNN 190300Z AUTO 20006KT 19SM 30/26 A2962 RMK SLP030 T03030259 57002 IEM_DS3505
ZGNN,2002-06-19 04:00,ZGNN 190400Z AUTO 16010KT 7SM 31/25 A2962 RMK T03100250 IEM_DS3505
ZGNN,2002-06-19 05:00,ZGNN 190500Z AUTO 16008KT 7SM 32/25 A2959 RMK T03200250 IEM_DS3505
ZGNN,2002-06-19 06:00,ZGNN 190600Z AUTO 18010KT 19SM 30/25 A2959 RMK SLP017 T03030253 57013 IEM_DS3505
ZGNN,2002-06-19 07:00,ZGNN 190700Z AUTO 15012KT 7SM 31/24 A2956 RMK T03100240 IEM_DS3505
ZGNN,2002-06-19 08:00,ZGNN 190800Z AUTO 16010KT 7SM 30/24 A2956 RMK T03000240 IEM_DS3505
ZGNN,2002-06-19 09:00,ZGNN 190900Z AUTO 14010KT 19SM 30/26 A2953 RMK SLP004 T03050258 57013 IEM_DS3505
ZGNN,2002-06-19 10:00,ZGNN 191000Z AUTO 7SM 29/25 A2956 RMK T02900250 IEM_DS3505
ZGNN,2002-06-19 11:00,ZGNN 191100Z AUTO 15006KT 7SM 29/25 A2953 RMK T02900250 IEM_DS3505
ZGNN,2002-06-19 12:00,ZGNN 191200Z AUTO 16002KT 19SM 29/26 A2956 RMK 60003 SLP009 T02860258 52005 IEM_DS3505
ZGNN,2002-06-19 14:00,ZGNN 191400Z AUTO 15006KT 7SM 28/25 A2959 RMK T02800250 IEM_DS3505
ZGNN,2002-06-19 15:00,ZGNN 191500Z AUTO 20002KT 19SM 28/26 RMK SLP022 T02780256 52013 IEM_DS3505
ZGNN,2002-06-20 01:00,ZGNN 200100Z AUTO 14006KT 7SM 29/25 A2962 RMK T02900250 IEM_DS3505
ZGNN,2002-06-20 02:00,ZGNN 200200Z AUTO 16006KT 7SM 31/24 A2962 RMK T03100240 IEM_DS3505
ZGNN,2002-06-20 03:00,ZGNN 200300Z AUTO 18006KT 19SM 32/26 A2962 RMK SLP023 T03150257 52002 IEM_DS3505
ZGNN,2002-06-20 06:00,ZGNN 200600Z AUTO 14006KT 19SM 30/26 RMK SLP013 T03040257 57011 IEM_DS3505
ZGNN,2002-06-20 07:00,ZGNN 200700Z AUTO 14010KT 7SM 31/24 A2956 RMK T03100240 IEM_DS3505
ZGNN,2002-06-20 08:00,ZGNN 200800Z AUTO 14010KT 7SM 31/25 A2956 RMK T03100250 IEM_DS3505
ZGNN,2002-06-20 09:00,ZGNN 200900Z AUTO 14006KT 19SM 31/26 A2953 RMK SLP997 T03110256 57015 IEM_DS3505
ZGNN,2002-06-20 10:00,ZGNN 201000Z AUTO 14010KT 7SM 30/25 A2953 RMK T03000250 IEM_DS3505
ZGNN,2002-06-20 11:00,ZGNN 201100Z AUTO 14008KT 7SM 30/25 A2953 RMK T03000250 IEM_DS3505
ZGNN,2002-06-20 12:00,ZGNN 201200Z AUTO 14004KT 17SM 30/26 A2953 RMK SLP999 T02950262 52002 IEM_DS3505
ZGNN,2002-06-20 13:00,ZGNN 201300Z AUTO 14008KT 7SM 28/25 A2956 RMK T02800250 IEM_DS3505
ZGNN,2002-06-20 14:00,ZGNN 201400Z AUTO 14008KT 7SM 28/25 A2959 RMK T02800250 IEM_DS3505
ZGNN,2002-06-20 15:00,ZGNN 201500Z AUTO 18006KT 16SM 28/26 A2959 RMK SLP017 T02820257 52018 IEM_DS3505
ZGNN,2002-06-20 18:00,ZGNN 201800Z AUTO 00000KT 16SM 27/25 RMK SLP015 T02740254 57003 IEM_DS3505
ZGNN,2002-06-20 21:00,ZGNN 202100Z AUTO 14002KT 12SM 27/25 A2959 RMK SLP012 T02730253 57002 IEM_DS3505
ZGNN,2002-06-20 22:00,ZGNN 202200Z AUTO 12004KT 7SM 26/25 A2959 RMK T02600250 IEM_DS3505
ZGNN,2002-06-20 23:00,ZGNN 202300Z AUTO 11004KT 7SM 27/25 A2959 RMK T02700250 IEM_DS3505
ZGNN,2002-06-21 00:00,ZGNN 210000Z AUTO 12006KT 7SM 28/25 A2962 RMK T02800250 IEM_DS3505
ZGNN,2002-06-21 01:00,ZGNN 210100Z AUTO 15008KT 7SM 29/24 A2962 RMK T02900240 IEM_DS3505
ZGNN,2002-06-21 02:00,ZGNN 210200Z AUTO 14008KT 7SM 29/25 A2962 RMK T02900250 IEM_DS3505
ZGNN,2002-06-21 03:00,ZGNN 210300Z AUTO 14012KT 7SM 31/23 A2962 RMK T03100230 IEM_DS3505
ZGNN,2002-06-21 04:00,ZGNN 210400Z AUTO 15010KT 7SM 28/23 A2962 RMK T02800230 IEM_DS3505
ZGNN,2002-06-21 05:00,ZGNN 210500Z AUTO 15006KT 6SM 28/23 A2959 RMK T02800230 IEM_DS3505
ZGNN,2002-06-21 06:00,ZGNN 210600Z AUTO 18008KT 19SM 28/24 A2959 RMK SLP020 T02830236 57009 IEM_DS3505
ZGNN,2002-06-21 09:00,ZGNN 210900Z AUTO 22006KT 19SM 31/25 RMK SLP004 T03100254 57015 IEM_DS3505
ZGNN,2002-06-21 13:00,ZGNN 211300Z AUTO 13006KT 6SM 28/25 A2959 RMK T02800250 IEM_DS3505
ZGNN,2002-06-21 14:00,ZGNN 211400Z AUTO 6SM 28/25 A2962 RMK T02800250 IEM_DS3505
ZGNN,2002-06-21 15:00,ZGNN 211500Z AUTO 14006KT 16SM 28/25 A2965 RMK SLP039 T02810253 52025 IEM_DS3505
ZGNN,2002-06-21 18:00,ZGNN 211800Z AUTO 14004KT 12SM 27/26 RMK SLP035 T02720255 57004 IEM_DS3505
ZGNN,2002-06-21 19:00,ZGNN 211900Z AUTO 11004KT 4SM 26/25 A2965 RMK T02600250 IEM_DS3505
ZGNN,2002-06-21 20:00,ZGNN 212000Z AUTO 11004KT 4SM 27/25 A2965 RMK T02700250 IEM_DS3505
ZGNN,2002-06-21 21:00,ZGNN 212100Z AUTO 09004KT 11SM 27/26 A2965 RMK SLP038 T02740259 52003 IEM_DS3505
ZGNN,2002-06-21 22:00,ZGNN 212200Z AUTO 12006KT 7SM 27/24 A2968 RMK T02700240 IEM_DS3505
ZGNN,2002-06-21 23:00,ZGNN 212300Z AUTO 7SM 26/24 A2968 RMK T02600240 IEM_DS3505
ZGNN,2002-06-22 00:00,ZGNN 220000Z AUTO 09006KT 12SM 27/25 A2968 RMK SLP046 T02740253 52008 IEM_DS3505
ZGNN,2002-06-22 01:00,ZGNN 220100Z AUTO 12006KT 7SM 27/24 A2971 RMK T02700240 IEM_DS3505
ZGNN,2002-06-22 02:00,ZGNN 220200Z AUTO 12006KT 7SM 29/24 A2968 RMK T02900240 IEM_DS3505
ZGNN,2002-06-22 03:00,ZGNN 220300Z AUTO 14006KT 19SM 31/25 A2971 RMK SLP053 T03090247 52007 IEM_DS3505
ZGNN,2002-06-22 04:00,ZGNN 220400Z AUTO 15008KT 7SM 31/25 A2968 RMK T03100250 IEM_DS3505
ZGNN,2002-06-22 05:00,ZGNN 220500Z AUTO 15006KT 7SM 31/24 A2968 RMK T03100240 IEM_DS3505
ZGNN,2002-06-22 06:00,ZGNN 220600Z AUTO 25006KT 19SM 33/26 A2965 RMK SLP040 T03280256 57012 IEM_DS3505
ZGNN,2002-06-22 07:00,ZGNN 220700Z AUTO 7SM 33/25 A2965 RMK T03300250 IEM_DS3505
ZGNN,2002-06-22 08:00,ZGNN 220800Z AUTO 13008KT 7SM 33/25 A2962 RMK T03300250 IEM_DS3505
ZGNN,2002-06-22 09:00,ZGNN 220900Z AUTO 09006KT 19SM 34/25 A2962 RMK SLP022 T03350253 57018 IEM_DS3505
ZGNN,2002-06-22 10:00,ZGNN 221000Z AUTO 14008KT 7SM 32/25 A2959 RMK T03200250 IEM_DS3505
ZGNN,2002-06-22 11:00,ZGNN 221100Z AUTO 15008KT 7SM 31/25 A2962 RMK T03100250 IEM_DS3505
ZGNN,2002-06-22 12:00,ZGNN 221200Z AUTO 18004KT 19SM 31/25 A2965 RMK SLP042 T03070254 52019 IEM_DS3505
ZGNN,2002-06-22 13:00,ZGNN 221300Z AUTO 12006KT 6SM 29/25 A2968 RMK T02900250 IEM_DS3505
ZGNN,2002-06-22 14:00,ZGNN 221400Z AUTO 6SM 29/25 A2971 RMK T02900250 IEM_DS3505
ZGNN,2002-06-22 15:00,ZGNN 221500Z AUTO 18002KT 17SM 28/26 A2974 RMK SLP064 T02850263 52022 IEM_DS3505
ZGNN,2002-06-22 18:00,ZGNN 221800Z AUTO 18002KT 16SM 28/26 A2971 RMK SLP061 T02780257 57003 IEM_DS3505
ZGNN,2002-06-22 19:00,ZGNN 221900Z AUTO 12004KT 5SM 27/25 A2971 RMK T02700250 IEM_DS3505
ZGNN,2002-06-22 20:00,ZGNN 222000Z AUTO 11004KT 6SM 27/25 A2971 RMK T02700250 IEM_DS3505
ZGNN,2002-06-22 21:00,ZGNN 222100Z AUTO 00000KT 12SM 27/25 A2971 RMK SLP059 T02720254 57002 IEM_DS3505
ZGNN,2002-06-22 22:00,ZGNN 222200Z AUTO 10004KT 7SM 26/24 A2971 RMK T02600240 IEM_DS3505
ZGNN,2002-06-22 23:00,ZGNN 222300Z AUTO 12004KT 7SM 27/24 A2974 RMK T02700240 IEM_DS3505
ZGNN,2002-06-23 00:00,ZGNN 230000Z AUTO 11004KT 16SM 28/25 A2977 RMK SLP075 T02760249 52016 IEM_DS3505
ZGNN,2002-06-23 01:00,ZGNN 230100Z AUTO 7SM 28/25 A2977 RMK T02800250 IEM_DS3505
ZGNN,2002-06-23 02:00,ZGNN 230200Z AUTO 11006KT 7SM 29/24 A2977 RMK T02900240 IEM_DS3505
ZGNN,2002-06-23 03:00,ZGNN 230300Z AUTO 18004KT 19SM 30/25 A2977 RMK SLP078 T03050252 52003 IEM_DS3505
ZGNN,2002-06-23 04:00,ZGNN 230400Z AUTO 7SM 32/25 A2977 RMK T03200250 IEM_DS3505
ZGNN,2002-06-23 05:00,ZGNN 230500Z AUTO 7SM 33/24 A2974 RMK T03300240 IEM_DS3505
ZGNN,2002-06-23 06:00,ZGNN 230600Z AUTO 11008KT 19SM 34/24 A2971 RMK SLP059 T03370235 57018 IEM_DS3505
ZGNN,2002-06-23 07:00,ZGNN 230700Z AUTO 11006KT 7SM 33/23 A2968 RMK T03300230 IEM_DS3505
ZGNN,2002-06-23 08:00,ZGNN 230800Z AUTO 12006KT 7SM 33/24 A2968 RMK T03300240 IEM_DS3505
ZGNN,2002-06-23 09:00,ZGNN 230900Z AUTO 00000KT 19SM 35/23 A2965 RMK SLP040 T03470234 57019 IEM_DS3505
ZGNN,2002-06-23 10:00,ZGNN 231000Z AUTO 7SM 34/23 A2965 RMK T03400230 IEM_DS3505
ZGNN,2002-06-23 11:00,ZGNN 231100Z AUTO 14012KT 7SM 32/25 A2968 RMK T03200250 IEM_DS3505
ZGNN,2002-06-23 12:00,ZGNN 231200Z AUTO 14004KT 16SM 30/26 A2968 RMK SLP052 T03050259 52011 IEM_DS3505
ZGNN,2002-06-23 13:00,ZGNN 231300Z AUTO 13004KT 7SM 30/25 A2971 RMK T03000250 IEM_DS3505
ZGNN,2002-06-23 14:00,ZGNN 231400Z AUTO 14006KT 7SM 29/24 A2971 RMK T02900240 IEM_DS3505
ZGNN,2002-06-23 15:00,ZGNN 231500Z AUTO 20004KT 14SM 28/24 A2974 RMK SLP066 T02820244 52014 IEM_DS3505
ZGNN,2002-06-23 18:00,ZGNN 231800Z AUTO 00000KT 14SM 27/25 RMK 60003 SLP061 T02740254 57005 IEM_DS3505
ZGNN,2002-06-23 19:00,ZGNN 231900Z AUTO 4SM 26/25 A2971 RMK T02600250 IEM_DS3505
ZGNN,2002-06-23 20:00,ZGNN 232000Z AUTO 11010KT 2SM 25/24 A2971 RMK T02500240 IEM_DS3505
ZGNN,2002-06-23 21:00,ZGNN 232100Z AUTO 09004KT 5SM 26/25 RMK 70116 SLP064 T02550252 52003 IEM_DS3505
ZGNN,2002-06-23 22:00,ZGNN 232200Z AUTO 07004KT 7SM 25/24 A2971 RMK T02500240 IEM_DS3505
ZGNN,2002-06-23 23:00,ZGNN 232300Z AUTO 7SM 26/24 A2974 RMK T02600240 IEM_DS3505
ZGNN,2002-06-24 00:00,ZGNN 240000Z AUTO 14002KT 5SM 26/25 A2977 RMK 60126 SLP075 T02630252 52010 IEM_DS3505
ZGNN,2002-06-24 01:00,ZGNN 240100Z AUTO 7SM 27/24 A2977 RMK T02700240 IEM_DS3505
ZGNN,2002-06-24 02:00,ZGNN 240200Z AUTO 7SM 27/24 A2980 RMK T02700240 IEM_DS3505
ZGNN,2002-06-24 03:00,ZGNN 240300Z AUTO 09004KT 12SM 27/26 A2980 RMK SLP084 T02740256 52009 IEM_DS3505
ZGNN,2002-06-24 04:00,ZGNN 240400Z AUTO 08006KT 7SM 29/25 A2977 RMK T02900250 IEM_DS3505
ZGNN,2002-06-24 05:00,ZGNN 240500Z AUTO 7SM 30/25 A2974 RMK T03000250 IEM_DS3505
ZGNN,2002-06-24 06:00,ZGNN 240600Z AUTO 09004KT 19SM 31/25 A2974 RMK 60003 SLP063 T03120253 57020 IEM_DS3505
ZGNN,2002-06-24 07:00,ZGNN 240700Z AUTO 7SM 32/24 A2971 RMK T03200240 IEM_DS3505
ZGNN,2002-06-24 08:00,ZGNN 240800Z AUTO 18008G17KT 7SM 31/25 A2968 RMK T03100250 IEM_DS3505
ZGNN,2002-06-24 09:00,ZGNN 240900Z AUTO 20002KT 19SM 30/27 A2965 RMK SLP039 T03050268 57024 IEM_DS3505
ZGNN,2002-06-24 10:00,ZGNN 241000Z AUTO 12006KT 7SM 32/24 A2965 RMK T03200240 IEM_DS3505
ZGNN,2002-06-24 11:00,ZGNN 241100Z AUTO 14008KT 7SM 30/25 A2965 RMK T03000250 IEM_DS3505
ZGNN,2002-06-24 12:00,ZGNN 241200Z AUTO 09004KT 19SM 30/25 A2968 RMK 60008 SLP048 T02950252 52008 IEM_DS3505
ZGNN,2002-06-24 13:00,ZGNN 241300Z AUTO 13004KT 6SM 28/25 A2971 RMK T02800250 IEM_DS3505
ZGNN,2002-06-24 14:00,ZGNN 241400Z AUTO 11004KT 6SM 27/25 A2974 RMK T02700250 IEM_DS3505
ZGNN,2002-06-24 15:00,ZGNN 241500Z AUTO 09004KT 19SM 28/25 A2974 RMK SLP072 T02750254 52024 IEM_DS3505
ZGNN,2002-06-24 16:00,ZGNN 241600Z AUTO 6SM 26/24 A2977 RMK T02600240 IEM_DS3505
ZGNN,2002-06-24 17:00,ZGNN 241700Z AUTO 12004KT 7SM 26/24 A2974 RMK T02600240 IEM_DS3505
ZGNN,2002-06-24 18:00,ZGNN 241800Z AUTO 00000KT 12SM 27/25 A2974 RMK SLP066 T02660253 57005 IEM_DS3505
ZGNN,2002-06-24 19:00,ZGNN 241900Z AUTO 13004KT 6SM 26/24 A2971 RMK T02600240 IEM_DS3505
ZGNN,2002-06-24 21:00,ZGNN 242100Z AUTO 00000KT 12SM 26/26 A2974 RMK 70016 SLP069 T02640256 52002 IEM_DS3505
ZGNN,2002-06-24 22:00,ZGNN 242200Z AUTO 7SM 25/24 A2974 RMK T02500240 IEM_DS3505
ZGNN,2002-06-24 23:00,ZGNN 242300Z AUTO 10006KT 7SM 26/24 A2974 RMK T02600240 IEM_DS3505
ZGNN,2002-06-25 00:00,ZGNN 250000Z AUTO 00000KT 12SM 26/25 A2977 RMK 60008 SLP081 T02620246 52012 IEM_DS3505
ZGNN,2002-06-25 01:00,ZGNN 250100Z AUTO 7SM 26/24 A2980 RMK T02600240 IEM_DS3505
ZGNN,2002-06-25 02:00,ZGNN 250200Z AUTO 7SM 27/25 A2980 RMK T02700250 IEM_DS3505
ZGNN,2002-06-25 03:00,ZGNN 250300Z AUTO 00000KT 12SM 27/26 A2980 RMK SLP086 T02700256 52005 IEM_DS3505
ZGNN,2002-06-25 04:00,ZGNN 250400Z AUTO 09004KT 7SM 27/24 A2977 RMK T02700240 IEM_DS3505
ZGNN,2002-06-25 05:00,ZGNN 250500Z AUTO 7SM 28/25 A2977 RMK T02800250 IEM_DS3505
ZGNN,2002-06-25 06:00,ZGNN 250600Z AUTO 09004KT 19SM 29/25 A2977 RMK 60016 SLP073 T02870250 57013 IEM_DS3505
ZGNN,2002-06-25 07:00,ZGNN 250700Z AUTO 7SM 30/24 A2974 RMK T03000240 IEM_DS3505
ZGNN,2002-06-25 08:00,ZGNN 250800Z AUTO 7SM 30/24 A2971 RMK T03000240 IEM_DS3505
ZGNN,2002-06-25 09:00,ZGNN 250900Z AUTO 11006KT 19SM 31/25 A2971 RMK SLP054 T03060251 57018 IEM_DS3505
ZGNN,2002-06-25 10:00,ZGNN 251000Z AUTO 09004KT 7SM 30/25 A2968 RMK T03000250 IEM_DS3505
ZGNN,2002-06-25 11:00,ZGNN 251100Z AUTO 12004KT 7SM 29/25 A2971 RMK T02900250 IEM_DS3505
ZGNN,2002-06-25 12:00,ZGNN 251200Z AUTO 00000KT 16SM 29/26 A2974 RMK SLP068 T02870259 52013 IEM_DS3505
ZGNN,2002-06-25 13:00,ZGNN 251300Z AUTO 12006KT 6SM 27/25 A2977 RMK T02700250 IEM_DS3505
ZGNN,2002-06-25 14:00,ZGNN 251400Z AUTO 6SM 27/24 A2977 RMK T02700240 IEM_DS3505
ZGNN,2002-06-25 15:00,ZGNN 251500Z AUTO 18002KT 16SM 27/25 A2977 RMK SLP083 T02680253 52014 IEM_DS3505
ZGNN,2002-06-25 18:00,ZGNN 251800Z AUTO 00000KT 16SM 25/25 RMK SLP079 T02540248 57003 IEM_DS3505
ZGNN,2002-06-25 19:00,ZGNN 251900Z AUTO 11004KT 5SM 25/24 A2977 RMK T02500240 IEM_DS3505
ZGNN,2002-06-25 21:00,ZGNN 252100Z AUTO 00000KT 9SM 25/25 A2977 RMK 70024 SLP076 T02530247 57003 IEM_DS3505
ZGNN,2002-06-25 22:00,ZGNN 252200Z AUTO 02002KT 7SM 25/24 A2977 RMK T02500240 IEM_DS3505
ZGNN,2002-06-25 23:00,ZGNN 252300Z AUTO 01004KT 7SM 25/24 A2977 RMK T02500240 IEM_DS3505
ZGNN,2002-06-26 00:00,ZGNN 260000Z AUTO 00000KT 6SM 26/25 A2980 RMK 70017 SLP086 T02630252 52010 IEM_DS3505
ZGNN,2002-06-26 01:00,ZGNN 260100Z AUTO 07004KT 7SM 26/24 A2980 RMK T02600240 IEM_DS3505
ZGNN,2002-06-26 02:00,ZGNN 260200Z AUTO 7SM 26/24 A2980 RMK T02600240 IEM_DS3505
ZGNN,2002-06-26 03:00,ZGNN 260300Z AUTO 00000KT 7SM 27/25 A2980 RMK SLP087 T02680253 54000 IEM_DS3505
ZGNN,2002-06-26 04:00,ZGNN 260400Z AUTO 7SM 30/24 A2980 RMK T03000240 IEM_DS3505
ZGNN,2002-06-26 05:00,ZGNN 260500Z AUTO 7SM 31/24 A2977 RMK T03100240 IEM_DS3505
ZGNN,2002-06-26 06:00,ZGNN 260600Z AUTO 18004KT 19SM 32/26 A2974 RMK 60003 SLP071 T03160258 57015 IEM_DS3505
ZGNN,2002-06-26 07:00,ZGNN 260700Z AUTO 7SM 32/24 A2974 RMK T03200240 IEM_DS3505
ZGNN,2002-06-26 08:00,ZGNN 260800Z AUTO 13006KT 7SM 32/24 A2971 RMK T03200240 IEM_DS3505
ZGNN,2002-06-26 09:00,ZGNN 260900Z AUTO 22006KT 19SM 30/26 A2968 RMK SLP053 T03020256 57018 IEM_DS3505
ZGNN,2002-06-26 10:00,ZGNN 261000Z AUTO 14006KT 7SM 31/25 A2968 RMK T03100250 IEM_DS3505
ZGNN,2002-06-26 11:00,ZGNN 261100Z AUTO 14008KT 7SM 30/24 A2968 RMK T03000240 IEM_DS3505
ZGNN,2002-06-26 12:00,ZGNN 261200Z AUTO 20004KT 19SM 29/25 A2971 RMK SLP065 T02910253 52012 IEM_DS3505
ZGNN,2002-06-26 13:00,ZGNN 261300Z AUTO 15006KT 6SM 28/24 A2974 RMK T02800240 IEM_DS3505
ZGNN,2002-06-26 14:00,ZGNN 261400Z AUTO 14006KT 6SM 28/25 A2977 RMK T02800250 IEM_DS3505
ZGNN,2002-06-26 15:00,ZGNN 261500Z AUTO 16002KT 17SM 28/26 A2977 RMK SLP077 T02790257 52012 IEM_DS3505
ZGNN,2002-06-26 16:00,ZGNN 261600Z AUTO 12004KT 6SM 27/25 A2980 RMK T02700250 IEM_DS3505
ZGNN,2002-06-26 18:00,ZGNN 261800Z AUTO 14004KT 16SM 27/26 A2977 RMK SLP080 T02730259 52004 IEM_DS3505
ZGNN,2002-06-26 19:00,ZGNN 261900Z AUTO 12004KT 5SM 27/25 A2977 RMK T02700250 IEM_DS3505
ZGNN,2002-06-26 20:00,ZGNN 262000Z AUTO 12004KT 4SM 26/25 A2974 RMK T02600250 IEM_DS3505
ZGNN,2002-06-26 21:00,ZGNN 262100Z AUTO 09004KT 7SM 27/26 A2974 RMK 70003 SLP072 T02670257 57009 IEM_DS3505
ZGNN,2002-06-26 22:00,ZGNN 262200Z AUTO 00000KT 7SM 26/24 A2977 RMK T02600240 IEM_DS3505
ZGNN,2002-06-26 23:00,ZGNN 262300Z AUTO 06004KT 7SM 26/24 A2977 RMK T02600240 IEM_DS3505
ZGNN,2002-06-27 00:00,ZGNN 270000Z AUTO 14004KT 9SM 28/26 A2980 RMK 70003 SLP086 T02760255 52014 IEM_DS3505
ZGNN,2002-06-27 01:00,ZGNN 270100Z AUTO 7SM 30/25 A2977 RMK T03000250 IEM_DS3505
ZGNN,2002-06-27 02:00,ZGNN 270200Z AUTO 7SM 31/23 A2980 RMK T03100230 IEM_DS3505
ZGNN,2002-06-27 03:00,ZGNN 270300Z AUTO 18004KT 19SM 31/25 A2980 RMK SLP084 T03130250 57001 IEM_DS3505
ZGNN,2002-06-27 04:00,ZGNN 270400Z AUTO 17006KT 7SM 33/24 A2977 RMK T03300240 IEM_DS3505
ZGNN,2002-06-27 05:00,ZGNN 270500Z AUTO 15006KT 7SM 33/23 A2974 RMK T03300230 IEM_DS3505
ZGNN,2002-06-27 06:00,ZGNN 270600Z AUTO 18006KT 19SM 33/24 A2974 RMK SLP063 T03280245 57021 IEM_DS3505
ZGNN,2002-06-27 07:00,ZGNN 270700Z AUTO 13012KT 7SM 31/25 A2974 RMK T03100250 IEM_DS3505
ZGNN,2002-06-27 08:00,ZGNN 270800Z AUTO 7SM 30/25 A2971 RMK T03000250 IEM_DS3505
ZGNN,2002-06-27 09:00,ZGNN 270900Z AUTO 22004KT 19SM 32/26 A2968 RMK SLP052 T03200261 57011 IEM_DS3505
ZGNN,2002-06-27 10:00,ZGNN 271000Z AUTO 14006KT 7SM 31/25 A2968 RMK T03100250 IEM_DS3505
ZGNN,2002-06-27 11:00,ZGNN 271100Z AUTO 15008KT 7SM 31/25 A2968 RMK T03100250 IEM_DS3505
ZGNN,2002-06-27 12:00,ZGNN 271200Z AUTO 14006KT 19SM 30/25 A2971 RMK 60001 SLP056 T02990251 52004 IEM_DS3505
ZGNN,2002-06-27 13:00,ZGNN 271300Z AUTO 15008KT 6SM 29/25 A2971 RMK T02900250 IEM_DS3505
ZGNN,2002-06-27 14:00,ZGNN 271400Z AUTO 15006KT 6SM 28/24 A2974 RMK T02800240 IEM_DS3505
ZGNN,2002-06-27 15:00,ZGNN 271500Z AUTO 00000KT 17SM 28/26 A2977 RMK SLP078 T02770255 52022 IEM_DS3505
ZGNN,2002-06-27 16:00,ZGNN 271600Z AUTO 6SM 27/24 A2980 RMK T02700240 IEM_DS3505
ZGNN,2002-06-27 17:00,ZGNN 271700Z AUTO 6SM 27/25 A2977 RMK T02700250 IEM_DS3505
ZGNN,2002-06-27 18:00,ZGNN 271800Z AUTO 00000KT 16SM 27/26 A2977 RMK SLP079 T02710256 52001 IEM_DS3505
ZGNN,2002-06-27 19:00,ZGNN 271900Z AUTO 00000KT 7SM 26/25 A2977 RMK T02600250 IEM_DS3505
ZGNN,2002-06-27 20:00,ZGNN 272000Z AUTO 00000KT 7SM 26/25 A2977 RMK T02600250 IEM_DS3505
ZGNN,2002-06-27 21:00,ZGNN 272100Z AUTO 00000KT 12SM 27/26 A2974 RMK 70001 SLP065 T02670256 57014 IEM_DS3505
ZGNN,2002-06-27 22:00,ZGNN 272200Z AUTO 00000KT 7SM 26/24 A2974 RMK T02600240 IEM_DS3505
ZGNN,2002-06-27 23:00,ZGNN 272300Z AUTO 00000KT 7SM 27/25 A2977 RMK T02700250 IEM_DS3505
ZGNN,2002-06-28 00:00,ZGNN 280000Z AUTO 00000KT 11SM 28/26 A2977 RMK 70001 SLP079 T02800259 52013 IEM_DS3505
ZGNN,2002-06-28 01:00,ZGNN 280100Z AUTO 7SM 29/24 A2980 RMK T02900240 IEM_DS3505
ZGNN,2002-06-28 02:00,ZGNN 280200Z AUTO 7SM 30/24 A2980 RMK T03000240 IEM_DS3505
ZGNN,2002-06-28 03:00,ZGNN 280300Z AUTO 18004KT 19SM 31/26 A2980 RMK SLP081 T03110255 52003 IEM_DS3505
ZGNN,2002-06-28 04:00,ZGNN 280400Z AUTO 21010KT 7SM 33/22 A2977 RMK T03300220 IEM_DS3505
ZGNN,2002-06-28 05:00,ZGNN 280500Z AUTO 24010KT 7SM 32/23 A2977 RMK T03200230 IEM_DS3505
ZGNN,2002-06-28 06:00,ZGNN 280600Z AUTO 22010KT 19SM 32/23 A2974 RMK SLP071 T03220232 57010 IEM_DS3505
ZGNN,2002-06-28 07:00,ZGNN 280700Z AUTO 21008KT 7SM 33/22 A2971 RMK T03300220 IEM_DS3505
ZGNN,2002-06-28 08:00,ZGNN 280800Z AUTO 21010KT 7SM 32/23 A2971 RMK T03200230 IEM_DS3505
ZGNN,2002-06-28 09:00,ZGNN 280900Z AUTO 18002KT 19SM 32/24 A2968 RMK SLP048 T03210237 57023 IEM_DS3505
ZGNN,2002-06-28 10:00,ZGNN 281000Z AUTO 14006KT 7SM 32/23 A2968 RMK T03200230 IEM_DS3505
ZGNN,2002-06-28 11:00,ZGNN 281100Z AUTO 14006KT 7SM 30/25 A2968 RMK T03000250 IEM_DS3505
ZGNN,2002-06-28 12:00,ZGNN 281200Z AUTO 14006KT 19SM 29/26 A2971 RMK SLP055 T02940258 52007 IEM_DS3505
ZGNN,2002-06-28 13:00,ZGNN 281300Z AUTO 6SM 28/25 A2971 RMK T02800250 IEM_DS3505
ZGNN,2002-06-28 14:00,ZGNN 281400Z AUTO 6SM 28/25 A2974 RMK T02800250 IEM_DS3505
ZGNN,2002-06-28 15:00,ZGNN 281500Z AUTO 14006KT 19SM 28/26 A2974 RMK SLP071 T02820260 52016 IEM_DS3505
ZGNN,2002-06-28 16:00,ZGNN 281600Z AUTO 4SM 27/25 A2977 RMK T02700250 IEM_DS3505
ZGNN,2002-06-28 17:00,ZGNN 281700Z AUTO 5SM 27/25 A2974 RMK T02700250 IEM_DS3505
ZGNN,2002-06-28 18:00,ZGNN 281800Z AUTO 00000KT 17SM 27/26 A2974 RMK SLP065 T02710257 57006 IEM_DS3505
ZGNN,2002-06-28 19:00,ZGNN 281900Z AUTO 11002KT 4SM 26/25 A2974 RMK T02600250 IEM_DS3505
ZGNN,2002-06-28 20:00,ZGNN 282000Z AUTO 00000KT 5SM 26/25 A2971 RMK T02600250 IEM_DS3505
ZGNN,2002-06-28 21:00,ZGNN 282100Z AUTO 00000KT 16SM 26/25 A2971 RMK SLP062 T02580251 57003 IEM_DS3505
ZGNN,2002-06-28 22:00,ZGNN 282200Z AUTO 06004KT 7SM 25/24 A2971 RMK T02500240 IEM_DS3505
ZGNN,2002-06-28 23:00,ZGNN 282300Z AUTO 05002KT 7SM 26/25 A2971 RMK T02600250 IEM_DS3505
ZGNN,2002-06-29 00:00,ZGNN 290000Z AUTO 16004KT 7SM 28/26 A2974 RMK SLP068 T02770260 52005 IEM_DS3505
ZGNN,2002-06-29 01:00,ZGNN 290100Z AUTO 14006KT 7SM 29/25 A2974 RMK T02900250 IEM_DS3505
ZGNN,2002-06-29 02:00,ZGNN 290200Z AUTO 15006KT 7SM 30/24 A2974 RMK T03000240 IEM_DS3505
ZGNN,2002-06-29 03:00,ZGNN 290300Z AUTO 16006KT 19SM 30/25 A2971 RMK SLP061 T03050246 57006 IEM_DS3505
ZGNN,2002-06-29 04:00,ZGNN 290400Z AUTO 13006KT 7SM 32/24 A2971 RMK T03200240 IEM_DS3505
ZGNN,2002-06-29 05:00,ZGNN 290500Z AUTO 14006KT 7SM 31/24 A2968 RMK T03100240 IEM_DS3505
ZGNN,2002-06-29 06:00,ZGNN 290600Z AUTO 14006KT 19SM 32/26 A2965 RMK SLP039 T03170257 57022 IEM_DS3505
ZGNN,2002-06-29 09:00,ZGNN 290900Z AUTO 00000KT 19SM 30/26 A2962 RMK SLP027 T03000255 57012 IEM_DS3505
ZGNN,2002-06-29 10:00,ZGNN 291000Z AUTO 7SM 29/25 A2959 RMK T02900250 IEM_DS3505
ZGNN,2002-06-29 11:00,ZGNN 291100Z AUTO 13004KT 7SM 28/25 A2959 RMK T02800250 IEM_DS3505
ZGNN,2002-06-29 12:00,ZGNN 291200Z AUTO 00000KT 19SM 29/26 A2962 RMK 60000 SLP032 T02860258 52005 IEM_DS3505
ZGNN,2002-06-29 13:00,ZGNN 291300Z AUTO 7SM 28/25 A2965 RMK T02800250 IEM_DS3505
ZGNN,2002-06-29 14:00,ZGNN 291400Z AUTO 7SM 27/25 A2968 RMK T02700250 IEM_DS3505
ZGNN,2002-06-29 15:00,ZGNN 291500Z AUTO 14002KT 16SM 28/26 A2968 RMK SLP050 T02770260 52018 IEM_DS3505
ZGNN,2002-06-29 16:00,ZGNN 291600Z AUTO 10002KT 4SM 27/25 A2968 RMK T02700250 IEM_DS3505
ZGNN,2002-06-29 17:00,ZGNN 291700Z AUTO 11002KT 4SM 26/25 A2965 RMK T02600250 IEM_DS3505
ZGNN,2002-06-29 18:00,ZGNN 291800Z AUTO 00000KT 12SM 27/26 A2965 RMK 60003 SLP034 T02670259 57016 IEM_DS3505
ZGNN,2002-06-29 19:00,ZGNN 291900Z AUTO 12004KT 4SM 26/24 A2962 RMK T02600240 IEM_DS3505
ZGNN,2002-06-29 20:00,ZGNN 292000Z AUTO 4SM 26/24 A2962 RMK T02600240 IEM_DS3505
ZGNN,2002-06-29 21:00,ZGNN 292100Z AUTO 00000KT 11SM 26/25 A2959 RMK 70000 SLP021 T02650251 57013 IEM_DS3505
ZGNN,2002-06-29 22:00,ZGNN 292200Z AUTO 7SM 26/24 A2959 RMK T02600240 IEM_DS3505
ZGNN,2002-06-29 23:00,ZGNN 292300Z AUTO 7SM 26/24 A2962 RMK T02600240 IEM_DS3505
ZGNN,2002-06-30 00:00,ZGNN 300000Z AUTO 20002KT 5SM 27/26 A2965 RMK 70000 SLP036 T02740259 52015 IEM_DS3505
ZGNN,2002-06-30 01:00,ZGNN 300100Z AUTO 15006KT 7SM 28/25 A2965 RMK T02800250 IEM_DS3505
ZGNN,2002-06-30 02:00,ZGNN 300200Z AUTO 7SM 28/25 A2965 RMK T02800250 IEM_DS3505
ZGNN,2002-06-30 03:00,ZGNN 300300Z AUTO 16004KT 15SM 29/25 A2962 RMK SLP034 T02930252 57002 IEM_DS3505
ZGNN,2002-06-30 04:00,ZGNN 300400Z AUTO 7SM 30/24 A2962 RMK T03000240 IEM_DS3505
ZGNN,2002-06-30 05:00,ZGNN 300500Z AUTO 7SM 30/24 A2962 RMK T03000240 IEM_DS3505
ZGNN,2002-06-30 06:00,ZGNN 300600Z AUTO 14002KT 19SM 31/25 A2959 RMK SLP018 T03130246 57016 IEM_DS3505
ZGNN,2002-06-30 07:00,ZGNN 300700Z AUTO 14006KT 7SM 31/24 A2956 RMK T03100240 IEM_DS3505
ZGNN,2002-06-30 08:00,ZGNN 300800Z AUTO 7SM 32/24 A2953 RMK T03200240 IEM_DS3505
ZGNN,2002-06-30 09:00,ZGNN 300900Z AUTO 36006KT 17SM 30/26 A2953 RMK SLP001 T03020258 57017 IEM_DS3505
ZGNN,2002-06-30 10:00,ZGNN 301000Z AUTO 18006KT 6SM 24/23 A2956 RMK T02400230 IEM_DS3505
ZGNN,2002-06-30 11:00,ZGNN 301100Z AUTO 13002KT 7SM 25/24 A2959 RMK T02500240 IEM_DS3505
ZGNN,2002-06-30 12:00,ZGNN 301200Z AUTO 00000KT 9SM 25/25 A2959 RMK 60051 SLP023 T02540248 52021 IEM_DS3505
ZGNN,2002-06-30 13:00,ZGNN 301300Z AUTO 7SM 25/24 A2962 RMK T02500240 IEM_DS3505
ZGNN,2002-06-30 14:00,ZGNN 301400Z AUTO 06002KT 7SM 25/24 A2962 RMK T02500240 IEM_DS3505
ZGNN,2002-06-30 15:00,ZGNN 301500Z AUTO 00000KT 6SM 26/25 A2962 RMK SLP030 T02560250 52007 IEM_DS3505
ZGNN,2002-06-30 16:00,ZGNN 301600Z AUTO 04002KT 7SM 25/24 A2962 RMK T02500240 IEM_DS3505
ZGNN,2002-06-30 18:00,ZGNN 301800Z AUTO 00000KT 6SM 26/25 A2959 RMK 60020 SLP016 T02560250 57013 IEM_DS3505
ZGNN,2002-06-30 19:00,ZGNN 301900Z AUTO 26004KT 4SM 25/24 A2956 RMK T02500240 IEM_DS3505
ZGNN,2002-06-30 20:00,ZGNN 302000Z AUTO 26002KT 4SM 25/24 A2956 RMK T02500240 IEM_DS3505
ZGNN,2002-06-30 21:00,ZGNN 302100Z AUTO 27004KT 7SM 26/25 A2956 RMK 70081 SLP010 T02550248 57006 IEM_DS3505
ZGNN,2002-06-30 22:00,ZGNN 302200Z AUTO 7SM 25/24 A2956 RMK T02500240 IEM_DS3505
ZGNN,2002-06-30 23:00,ZGNN 302300Z AUTO 22002KT 7SM 25/24 A2959 RMK T02500240 IEM_DS3505
ZGNN,2002-07-01 00:00,ZGNN 010000Z AUTO 00000KT 11SM 26/25 A2959 RMK 60012 SLP021 T02630249 52010 IEM_DS3505
ZGNN,2002-07-01 01:00,ZGNN 010100Z AUTO 7SM 27/23 A2959 RMK T02700230 IEM_DS3505
ZGNN,2002-07-01 02:00,ZGNN 010200Z AUTO 7SM 27/23 A2962 RMK T02700230 IEM_DS3505
ZGNN,2002-07-01 03:00,ZGNN 010300Z AUTO 32006KT 16SM 28/24 A2962 RMK SLP025 T02800243 52004 IEM_DS3505
ZGNN,2002-07-01 04:00,ZGNN 010400Z AUTO 00000KT 7SM 30/23 A2959 RMK T03000230 IEM_DS3505
ZGNN,2002-07-01 05:00,ZGNN 010500Z AUTO 7SM 29/23 A2959 RMK T02900230 IEM_DS3505
ZGNN,2002-07-01 06:00,ZGNN 010600Z AUTO 32004KT 16SM 30/24 A2959 RMK SLP017 T03030245 57007 IEM_DS3505
ZGNN,2002-07-01 07:00,ZGNN 010700Z AUTO 7SM 30/24 A2956 RMK T03000240 IEM_DS3505
ZGNN,2002-07-01 08:00,ZGNN 010800Z AUTO 25006KT 7SM 29/24 A2956 RMK T02900240 IEM_DS3505
ZGNN,2002-07-01 09:00,ZGNN 010900Z AUTO 34006KT 19SM 30/24 A2953 RMK SLP006 T03020240 57011 IEM_DS3505
ZGNN,2002-07-01 10:00,ZGNN 011000Z AUTO 05010KT 7SM 28/24 A2956 RMK T02800240 IEM_DS3505
ZGNN,2002-07-01 11:00,ZGNN 011100Z AUTO 7SM 27/23 A2959 RMK T02700230 IEM_DS3505
ZGNN,2002-07-01 12:00,ZGNN 011200Z AUTO 14004KT 11SM 26/24 A2959 RMK 60002 SLP024 T02630242 52017 IEM_DS3505
ZGNN,2002-07-01 13:00,ZGNN 011300Z AUTO 00000KT 7SM 26/23 A2962 RMK T02600230 IEM_DS3505
ZGNN,2002-07-01 14:00,ZGNN 011400Z AUTO 00000KT 7SM 26/24 A2962 RMK T02600240 IEM_DS3505
ZGNN,2002-07-01 15:00,ZGNN 011500Z AUTO 00000KT 9SM 26/25 A2965 RMK SLP041 T02610248 52017 IEM_DS3505
ZGNN,2002-07-01 16:00,ZGNN 011600Z AUTO 04002KT 5SM 26/24 A2965 RMK T02600240 IEM_DS3505
ZGNN,2002-07-01 17:00,ZGNN 011700Z AUTO 02004KT 4SM 26/24 A2962 RMK T02600240 IEM_DS3505
ZGNN,2002-07-01 18:00,ZGNN 011800Z AUTO 00000KT 9SM 26/24 A2962 RMK SLP024 T02580245 57016 IEM_DS3505
ZGNN,2002-07-01 19:00,ZGNN 011900Z AUTO 05004KT 2 1/2SM 25/24 A2962 RMK T02500240 IEM_DS3505
ZGNN,2002-07-01 20:00,ZGNN 012000Z AUTO 00000KT 3SM 25/24 A2962 RMK T02500240 IEM_DS3505
ZGNN,2002-07-01 21:00,ZGNN 012100Z AUTO 00000KT 5SM 26/25 A2962 RMK 70002 SLP031 T02570248 52007 IEM_DS3505
ZGNN,2002-07-01 22:00,ZGNN 012200Z AUTO 36004KT 2 1/2SM 26/24 A2962 RMK T02600240 IEM_DS3505
ZGNN,2002-07-01 23:00,ZGNN 012300Z AUTO 04002KT 2SM 25/24 A2965 RMK T02500240 IEM_DS3505
ZGNN,2002-07-02 00:00,ZGNN 020000Z AUTO 16002KT 4SM 26/25 A2965 RMK 70002 SLP040 T02640248 52008 IEM_DS3505
ZGNN,2002-07-02 01:00,ZGNN 020100Z AUTO 7SM 28/24 A2965 RMK T02800240 IEM_DS3505
ZGNN,2002-07-02 02:00,ZGNN 020200Z AUTO 01006KT 7SM 29/23 A2965 RMK T02900230 IEM_DS3505
ZGNN,2002-07-02 03:00,ZGNN 020300Z AUTO 04008KT 7SM 30/24 A2965 RMK SLP043 T02950238 52003 IEM_DS3505
ZGNN,2002-07-02 04:00,ZGNN 020400Z AUTO 36006KT 7SM 31/22 A2965 RMK T03100220 IEM_DS3505
ZGNN,2002-07-02 05:00,ZGNN 020500Z AUTO 03008KT 7SM 32/23 A2965 RMK T03200230 IEM_DS3505
ZGNN,2002-07-02 06:00,ZGNN 020600Z AUTO 02006KT 12SM 32/24 A2962 RMK SLP029 T03170241 57013 IEM_DS3505
ZGNN,2002-07-02 07:00,ZGNN 020700Z AUTO 05008KT 7SM 33/23 A2962 RMK T03300230 IEM_DS3505
ZGNN,2002-07-02 08:00,ZGNN 020800Z AUTO 05008KT 7SM 33/22 A2959 RMK T03300220 IEM_DS3505
ZGNN,2002-07-02 09:00,ZGNN 020900Z AUTO 36004KT 16SM 33/23 A2959 RMK SLP017 T03290231 57011 IEM_DS3505
ZGNN,2002-07-02 10:00,ZGNN 021000Z AUTO 10006KT 7SM 31/23 A2959 RMK T03100230 IEM_DS3505
ZGNN,2002-07-02 11:00,ZGNN 021100Z AUTO 10008KT 7SM 30/24 A2962 RMK T03000240 IEM_DS3505
ZGNN,2002-07-02 12:00,ZGNN 021200Z AUTO 14006KT 11SM 28/25 A2962 RMK SLP034 T02850251 52015 IEM_DS3505
ZGNN,2002-07-02 13:00,ZGNN 021300Z AUTO 11002KT 7SM 27/24 A2965 RMK T02700240 IEM_DS3505
ZGNN,2002-07-02 14:00,ZGNN 021400Z AUTO 08006KT 7SM 26/24 A2968 RMK T02600240 IEM_DS3505
ZGNN,2002-07-02 15:00,ZGNN 021500Z AUTO 09006KT 9SM 26/24 A2968 RMK SLP052 T02640241 52018 IEM_DS3505
ZGNN,2002-07-02 16:00,ZGNN 021600Z AUTO 06004KT 6SM 26/23 A2968 RMK T02600230 IEM_DS3505
ZGNN,2002-07-02 18:00,ZGNN 021800Z AUTO 00000KT 9SM 26/25 A2965 RMK 60003 SLP042 T02590246 57009 IEM_DS3505
ZGNN,2002-07-02 19:00,ZGNN 021900Z AUTO 02004KT 4SM 25/23 A2965 RMK T02500230 IEM_DS3505
ZGNN,2002-07-02 20:00,ZGNN 022000Z AUTO 4SM 26/23 A2965 RMK T02600230 IEM_DS3505
ZGNN,2002-07-02 21:00,ZGNN 022100Z AUTO 00000KT 6SM 26/24 A2962 RMK 70003 SLP033 T02560245 57009 IEM_DS3505
ZGNN,2002-07-02 22:00,ZGNN 022200Z AUTO 02004KT 4SM 25/24 A2965 RMK T02500240 IEM_DS3505
ZGNN,2002-07-02 23:00,ZGNN 022300Z AUTO 02008KT 3SM 25/23 A2965 RMK T02500230 IEM_DS3505
ZGNN,2002-07-03 00:00,ZGNN 030000Z AUTO 02004KT 4SM 25/24 A2965 RMK 60004 SLP045 T02520245 52011 IEM_DS3505
ZGNN,2002-07-03 01:00,ZGNN 030100Z AUTO 03008KT 7SM 25/23 A2968 RMK T02500230 IEM_DS3505
ZGNN,2002-07-03 02:00,ZGNN 030200Z AUTO 03010KT 7SM 27/23 A2968 RMK T02700230 IEM_DS3505
ZGNN,2002-07-03 03:00,ZGNN 030300Z AUTO 04004KT 12SM 27/24 A2968 RMK SLP051 T02720242 52006 IEM_DS3505
ZGNN,2002-07-03 04:00,ZGNN 030400Z AUTO 01006KT 7SM 29/23 A2968 RMK T02900230 IEM_DS3505
ZGNN,2002-07-03 05:00,ZGNN 030500Z AUTO 06008KT 7SM 29/23 A2965 RMK T02900230 IEM_DS3505
ZGNN,2002-07-03 06:00,ZGNN 030600Z AUTO 34006KT 16SM 30/24 A2962 RMK 60000 SLP031 T02950244 57019 IEM_DS3505
ZGNN,2002-07-03 07:00,ZGNN 030700Z AUTO 01010KT 7SM 31/22 A2962 RMK T03100220 IEM_DS3505
ZGNN,2002-07-03 08:00,ZGNN 030800Z AUTO 36008KT 7SM 31/22 A2959 RMK T03100220 IEM_DS3505
ZGNN,2002-07-03 09:00,ZGNN 030900Z AUTO 34006KT 19SM 30/24 A2956 RMK SLP012 T02990242 57019 IEM_DS3505
ZGNN,2002-07-03 10:00,ZGNN 031000Z AUTO 33006KT 7SM 30/23 A2956 RMK T03000230 IEM_DS3505
ZGNN,2002-07-03 11:00,ZGNN 031100Z AUTO 02004KT 7SM 29/23 A2956 RMK T02900230 IEM_DS3505
ZGNN,2002-07-03 12:00,ZGNN 031200Z AUTO 00000KT 12SM 28/25 A2959 RMK SLP021 T02760251 52008 IEM_DS3505
ZGNN,2002-07-03 13:00,ZGNN 031300Z AUTO 05002KT 7SM 27/24 A2959 RMK T02700240 IEM_DS3505
ZGNN,2002-07-03 14:00,ZGNN 031400Z AUTO 7SM 27/24 A2962 RMK T02700240 IEM_DS3505
ZGNN,2002-07-03 15:00,ZGNN 031500Z AUTO 07002KT 12SM 27/26 A2965 RMK SLP037 T02740256 52016 IEM_DS3505
ZGNN,2002-07-03 16:00,ZGNN 031600Z AUTO 05002KT 2 1/2SM 27/25 A2965 RMK T02700250 IEM_DS3505
ZGNN,2002-07-03 17:00,ZGNN 031700Z AUTO 06002KT 4SM 26/25 A2965 RMK T02600250 IEM_DS3505
ZGNN,2002-07-03 18:00,ZGNN 031800Z AUTO 00000KT 9SM 27/25 A2962 RMK 60003 SLP029 T02670254 57007 IEM_DS3505
ZGNN,2002-07-03 19:00,ZGNN 031900Z AUTO 12008KT 2SM 25/23 A2959 RMK T02500230 IEM_DS3505
ZGNN,2002-07-03 20:00,ZGNN 032000Z AUTO 00000KT 7SM 25/24 A2959 RMK T02500240 IEM_DS3505
ZGNN,2002-07-03 21:00,ZGNN 032100Z AUTO 00000KT 7SM 26/25 A2959 RMK 70014 SLP022 T02560249 57007 IEM_DS3505
ZGNN,2002-07-03 22:00,ZGNN 032200Z AUTO 02002KT 7SM 25/24 A2959 RMK T02500240 IEM_DS3505
ZGNN,2002-07-03 23:00,ZGNN 032300Z AUTO 03004KT 3SM 26/24 A2962 RMK T02600240 IEM_DS3505
ZGNN,2002-07-04 00:00,ZGNN 040000Z AUTO 07002KT 4SM 27/26 A2962 RMK 60008 SLP031 T02710257 52008 IEM_DS3505
ZGNN,2002-07-04 01:00,ZGNN 040100Z AUTO 7SM 27/24 A2962 RMK T02700240 IEM_DS3505
ZGNN,2002-07-04 02:00,ZGNN 040200Z AUTO 7SM 29/24 A2962 RMK T02900240 IEM_DS3505
ZGNN,2002-07-04 03:00,ZGNN 040300Z AUTO 22002KT 12SM 30/25 A2962 RMK SLP033 T02950250 52003 IEM_DS3505
ZGNN,2002-07-04 04:00,ZGNN 040400Z AUTO 7SM 30/24 A2962 RMK T03000240 IEM_DS3505
ZGNN,2002-07-04 05:00,ZGNN 040500Z AUTO 7SM 31/25 A2959 RMK T03100250 IEM_DS3505
ZGNN,2002-07-04 06:00,ZGNN 040600Z AUTO 29006KT 16SM 32/26 A2956 RMK SLP010 T03240259 57022 IEM_DS3505
ZGNN,2002-07-04 07:00,ZGNN 040700Z AUTO 7SM 33/24 A2953 RMK T03300240 IEM_DS3505
ZGNN,2002-07-04 08:00,ZGNN 040800Z AUTO 08006KT 7SM 32/24 A2953 RMK T03200240 IEM_DS3505
ZGNN,2002-07-04 09:00,ZGNN 040900Z AUTO 04004KT 16SM 29/26 A2950 RMK SLP994 T02890263 57017 IEM_DS3505
ZGNN,2002-07-04 10:00,ZGNN 041000Z AUTO 06002KT 7SM 31/25 A2950 RMK T03100250 IEM_DS3505
ZGNN,2002-07-04 11:00,ZGNN 041100Z AUTO 05004KT RMK IEM_DS3505
ZGNN,2002-07-04 12:00,ZGNN 041200Z AUTO 00000KT 7SM 29/26 A2953 RMK 60024 SLP002 T02880257 52008 IEM_DS3505
ZGNN,2002-07-04 13:00,ZGNN 041300Z AUTO 00000KT 6SM 28/25 A2956 RMK T02800250 IEM_DS3505
ZGNN,2002-07-04 14:00,ZGNN 041400Z AUTO 00000KT 6SM 28/25 A2956 RMK T02800250 IEM_DS3505
ZGNN,2002-07-04 15:00,ZGNN 041500Z AUTO 00000KT 3SM 27/25 A2959 RMK T02700250 IEM_DS3505
ZGNN,2002-07-04 18:00,ZGNN 041800Z AUTO 02004KT 5SM 26/26 A2956 RMK SLP009 T02630255 57006 IEM_DS3505
ZGNN,2002-07-04 19:00,ZGNN 041900Z AUTO 2SM 26/24 A2953 RMK T02600240 IEM_DS3505
ZGNN,2002-07-04 20:00,ZGNN 042000Z AUTO 00000KT 2 1/2SM 26/24 A2953 RMK T02600240 IEM_DS3505
ZGNN,2002-07-04 21:00,ZGNN 042100Z AUTO 00000KT 6SM 26/25 A2953 RMK 70023 SLP004 T02560252 57006 IEM_DS3505
ZGNN,2002-07-04 22:00,ZGNN 042200Z AUTO 00000KT 5SM 26/24 A2953 RMK T02600240 IEM_DS3505
ZGNN,2002-07-04 23:00,ZGNN 042300Z AUTO 00000KT 1SM 26/24 A2956 RMK T02600240 IEM_DS3505
ZGNN,2002-07-05 00:00,ZGNN 050000Z AUTO 02004KT 3/8SM 26/26 A2959 RMK 70023 SLP016 T02620258 52012 IEM_DS3505
ZGNN,2002-07-05 01:00,ZGNN 050100Z AUTO 1 1/4SM 27/25 A2959 RMK T02700250 IEM_DS3505
ZGNN,2002-07-05 02:00,ZGNN 050200Z AUTO 1 1/4SM 27/25 A2962 RMK T02700250 IEM_DS3505
ZGNN,2002-07-05 03:00,ZGNN 050300Z AUTO 14006KT 3SM 30/27 A2962 RMK SLP023 T03030269 52007 IEM_DS3505
ZGNN,2002-07-05 04:00,ZGNN 050400Z AUTO 7SM 33/25 A2959 RMK T03300250 IEM_DS3505
ZGNN,2002-07-05 05:00,ZGNN 050500Z AUTO 7SM 33/24 A2956 RMK T03300240 IEM_DS3505
ZGNN,2002-07-05 06:00,ZGNN 050600Z AUTO 00000KT 16SM 34/26 A2953 RMK SLP000 T03380255 57022 IEM_DS3505
ZGNN,2002-07-05 07:00,ZGNN 050700Z AUTO 09006KT 7SM 33/26 A2953 RMK T03300260 IEM_DS3505
ZGNN,2002-07-05 08:00,ZGNN 050800Z AUTO 02010KT 7SM 31/25 A2950 RMK T03100250 IEM_DS3505
ZGNN,2002-07-05 09:00,ZGNN 050900Z AUTO 09002KT 9SM 30/26 A2950 RMK SLP986 T03040263 57015 IEM_DS3505
ZGNN,2002-07-05 10:00,ZGNN 051000Z AUTO 04006KT 7SM 31/24 A2950 RMK T03100240 IEM_DS3505
ZGNN,2002-07-05 11:00,ZGNN 051100Z AUTO 02006KT 7SM 31/25 A2950 RMK T03100250 IEM_DS3505
ZGNN,2002-07-05 12:00,ZGNN 051200Z AUTO 00000KT 12SM 29/26 A2953 RMK 60000 SLP999 T02920260 52013 IEM_DS3505
ZGNN,2002-07-05 13:00,ZGNN 051300Z AUTO 02004KT 6SM 29/25 A2956 RMK T02900250 IEM_DS3505
ZGNN,2002-07-05 14:00,ZGNN 051400Z AUTO 4SM 28/25 A2956 RMK T02800250 IEM_DS3505
ZGNN,2002-07-05 15:00,ZGNN 051500Z AUTO 00000KT 9SM 28/27 A2959 RMK SLP019 T02760266 52020 IEM_DS3505
ZGNN,2002-07-05 16:00,ZGNN 051600Z AUTO 33002KT 2SM 28/25 A2959 RMK T02800250 IEM_DS3505
ZGNN,2002-07-05 17:00,ZGNN 051700Z AUTO 05002KT 1 1/2SM 27/25 A2956 RMK T02700250 IEM_DS3505
ZGNN,2002-07-05 18:00,ZGNN 051800Z AUTO 00000KT 7SM 27/26 A2953 RMK SLP003 T02700260 57015 IEM_DS3505
ZGNN,2002-07-05 19:00,ZGNN 051900Z AUTO 2SM 27/25 A2953 RMK T02700250 IEM_DS3505
ZGNN,2002-07-05 20:00,ZGNN 052000Z AUTO 34002KT 2 1/2SM 27/24 A2953 RMK T02700240 IEM_DS3505
ZGNN,2002-07-05 21:00,ZGNN 052100Z AUTO 22002KT 5SM 27/25 A2953 RMK 70003 SLP998 T02660246 57006 IEM_DS3505
ZGNN,2002-07-05 22:00,ZGNN 052200Z AUTO 35004KT 4SM 26/25 A2953 RMK T02600250 IEM_DS3505
ZGNN,2002-07-05 23:00,ZGNN 052300Z AUTO 02004KT 3SM 26/24 A2953 RMK T02600240 IEM_DS3505
ZGNN,2002-07-06 00:00,ZGNN 060000Z AUTO 00000KT 3SM 28/26 A2956 RMK 60004 SLP014 T02770263 52016 IEM_DS3505
ZGNN,2002-07-06 01:00,ZGNN 060100Z AUTO 2SM 28/25 A2959 RMK T02800250 IEM_DS3505
ZGNN,2002-07-06 02:00,ZGNN 060200Z AUTO 10006KT 7SM 29/25 A2959 RMK T02900250 IEM_DS3505
ZGNN,2002-07-06 03:00,ZGNN 060300Z AUTO 09004KT 9SM 29/25 A2959 RMK SLP020 T02920253 52006 IEM_DS3505
ZGNN,2002-07-06 04:00,ZGNN 060400Z AUTO 11004KT 7SM 29/24 A2959 RMK T02900240 IEM_DS3505
ZGNN,2002-07-06 05:00,ZGNN 060500Z AUTO 7SM 29/25 A2956 RMK T02900250 IEM_DS3505
ZGNN,2002-07-06 06:00,ZGNN 060600Z AUTO 00000KT 9SM 30/26 A2953 RMK SLP999 T02950256 57021 IEM_DS3505
ZGNN,2002-07-06 07:00,ZGNN 060700Z AUTO 7SM 31/24 A2950 RMK T03100240 IEM_DS3505
ZGNN,2002-07-06 08:00,ZGNN 060800Z AUTO 7SM 30/25 A2950 RMK T03000250 IEM_DS3505
ZGNN,2002-07-06 09:00,ZGNN 060900Z AUTO 02002KT 7SM 30/26 A2947 RMK SLP984 T02950262 57015 IEM_DS3505
ZGNN,2002-07-06 10:00,ZGNN 061000Z AUTO 7SM 30/25 A2947 RMK T03000250 IEM_DS3505
ZGNN,2002-07-06 11:00,ZGNN 061100Z AUTO 4SM 29/24 A2947 RMK T02900240 IEM_DS3505
ZGNN,2002-07-06 12:00,ZGNN 061200Z AUTO 00000KT 7SM 28/26 A2950 RMK SLP992 T02820255 52008 IEM_DS3505
ZGNN,2002-07-06 13:00,ZGNN 061300Z AUTO 00000KT 2 1/2SM 27/25 A2953 RMK T02700250 IEM_DS3505
ZGNN,2002-07-06 14:00,ZGNN 061400Z AUTO 03004KT 2SM 27/25 A2956 RMK T02700250 IEM_DS3505
ZGNN,2002-07-06 15:00,ZGNN 061500Z AUTO 05004KT 1SM 26/25 A2956 RMK T02600250 IEM_DS3505
ZGNN,2002-07-06 16:00,ZGNN 061600Z AUTO 03002KT 1SM 26/25 A2959 RMK T02600250 IEM_DS3505
ZGNN,2002-07-06 17:00,ZGNN 061700Z AUTO 05004KT 1SM 26/25 A2956 RMK T02600250 IEM_DS3505
ZGNN,2002-07-06 18:00,ZGNN 061800Z AUTO 00000KT 7SM 26/25 A2953 RMK SLP001 T02590252 57010 IEM_DS3505
ZGNN,2002-07-06 19:00,ZGNN 061900Z AUTO 01004KT 2 1/2SM 26/24 A2953 RMK T02600240 IEM_DS3505
ZGNN,2002-07-06 20:00,ZGNN 062000Z AUTO 00000KT 2SM 25/24 A2950 RMK T02500240 IEM_DS3505
ZGNN,2002-07-06 21:00,ZGNN 062100Z AUTO 32002KT 5SM 25/25 A2950 RMK 70001 SLP993 T02530249 57008 IEM_DS3505
ZGNN,2002-07-06 22:00,ZGNN 062200Z AUTO 00000KT 1 1/4SM 25/24 A2950 RMK T02500240 IEM_DS3505
ZGNN,2002-07-06 23:00,ZGNN 062300Z AUTO 07002KT 1SM 25/24 A2953 RMK T02500240 IEM_DS3505
ZGNN,2002-07-07 00:00,ZGNN 070000Z AUTO 00000KT 4SM 27/25 A2953 RMK SLP005 T02690254 52012 IEM_DS3505
ZGNN,2002-07-07 01:00,ZGNN 070100Z AUTO 34004KT 3SM 28/24 A2956 RMK T02800240 IEM_DS3505
ZGNN,2002-07-07 02:00,ZGNN 070200Z AUTO 3SM 28/25 A2956 RMK T02800250 IEM_DS3505
ZGNN,2002-07-07 03:00,ZGNN 070300Z AUTO 04004KT 6SM 30/25 A2956 RMK SLP010 T03010248 52005 IEM_DS3505
ZGNN,2002-07-07 04:00,ZGNN 070400Z AUTO 06006KT 5SM 31/24 A2956 RMK T03100240 IEM_DS3505
ZGNN,2002-07-07 05:00,ZGNN 070500Z AUTO 07006KT 7SM 31/24 A2953 RMK T03100240 IEM_DS3505
ZGNN,2002-07-07 06:00,ZGNN 070600Z AUTO 09002KT 9SM 32/25 A2950 RMK SLP986 T03210250 57023 IEM_DS3505
ZGNN,2002-07-07 07:00,ZGNN 070700Z AUTO 7SM 33/24 A2947 RMK T03300240 IEM_DS3505
ZGNN,2002-07-07 08:00,ZGNN 070800Z AUTO 7SM 33/24 A2944 RMK T03300240 IEM_DS3505
ZGNN,2002-07-07 09:00,ZGNN 070900Z AUTO 36004KT 9SM 33/26 A2944 RMK SLP965 T03270260 57021 IEM_DS3505
ZGNN,2002-07-07 10:00,ZGNN 071000Z AUTO 02006KT 7SM 33/23 A2941 RMK T03300230 IEM_DS3505
ZGNN,2002-07-07 11:00,ZGNN 071100Z AUTO 03004KT 7SM 32/23 A2944 RMK T03200230 IEM_DS3505
ZGNN,2002-07-07 12:00,ZGNN 071200Z AUTO 02004KT 7SM 29/25 A2947 RMK 60003 SLP984 T02910246 52018 IEM_DS3505
ZGNN,2002-07-07 13:00,ZGNN 071300Z AUTO 04004KT 4SM 28/24 A2950 RMK T02800240 IEM_DS3505
ZGNN,2002-07-07 14:00,ZGNN 071400Z AUTO 03004KT 4SM 28/25 A2953 RMK T02800250 IEM_DS3505
ZGNN,2002-07-07 15:00,ZGNN 071500Z AUTO 00000KT 7SM 28/25 A2953 RMK SLP001 T02820254 52018 IEM_DS3505
ZGNN,2002-07-07 16:00,ZGNN 071600Z AUTO 01004KT 3SM 28/24 A2953 RMK T02800240 IEM_DS3505
ZGNN,2002-07-07 17:00,ZGNN 071700Z AUTO 32002KT 2 1/2SM 28/24 A2953 RMK T02800240 IEM_DS3505
ZGNN,2002-07-07 18:00,ZGNN 071800Z AUTO 27002KT 7SM 27/25 A2953 RMK SLP997 T02720254 57004 IEM_DS3505
ZGNN,2002-07-07 19:00,ZGNN 071900Z AUTO 3SM 27/24 A2950 RMK T02700240 IEM_DS3505
ZGNN,2002-07-07 20:00,ZGNN 072000Z AUTO 00000KT 2 1/2SM 27/24 A2950 RMK T02700240 IEM_DS3505
ZGNN,2002-07-07 21:00,ZGNN 072100Z AUTO 34004KT 7SM 26/25 A2950 RMK 70003 SLP987 T02630252 57010 IEM_DS3505
ZGNN,2002-07-07 22:00,ZGNN 072200Z AUTO 00000KT 2 1/2SM 26/24 A2950 RMK T02600240 IEM_DS3505
ZGNN,2002-07-07 23:00,ZGNN 072300Z AUTO 20004KT 2 1/2SM 26/24 A2953 RMK T02600240 IEM_DS3505
ZGNN,2002-07-08 00:00,ZGNN 080000Z AUTO 25004KT 7SM 27/26 A2956 RMK 70003 SLP006 T02710257 52018 IEM_DS3505
ZGNN,2002-07-08 01:00,ZGNN 080100Z AUTO 00000KT 7SM 29/24 A2956 RMK T02900240 IEM_DS3505
ZGNN,2002-07-08 02:00,ZGNN 080200Z AUTO 7SM 30/23 A2956 RMK T03000230 IEM_DS3505
ZGNN,2002-07-08 03:00,ZGNN 080300Z AUTO 00000KT 9SM 31/24 A2956 RMK SLP013 T03080243 52008 IEM_DS3505
ZGNN,2002-07-08 04:00,ZGNN 080400Z AUTO 7SM 31/22 A2956 RMK T03100220 IEM_DS3505
ZGNN,2002-07-08 05:00,ZGNN 080500Z AUTO 7SM 31/22 A2953 RMK T03100220 IEM_DS3505
ZGNN,2002-07-08 06:00,ZGNN 080600Z AUTO 32004KT 12SM 33/24 A2953 RMK 60003 SLP995 T03260245 57018 IEM_DS3505
ZGNN,2002-07-08 07:00,ZGNN 080700Z AUTO 02008KT 7SM 34/23 A2950 RMK T03400230 IEM_DS3505
ZGNN,2002-07-08 08:00,ZGNN 080800Z AUTO 01008KT 7SM 33/22 A2947 RMK T03300220 IEM_DS3505
ZGNN,2002-07-08 09:00,ZGNN 080900Z AUTO 02006KT 12SM 33/23 A2944 RMK SLP974 T03340232 57021 IEM_DS3505
ZGNN,2002-07-08 10:00,ZGNN 081000Z AUTO 33006KT 6SM 34/22 A2947 RMK T03400220 IEM_DS3505
ZGNN,2002-07-08 11:00,ZGNN 081100Z AUTO 6SM 33/22 A2947 RMK T03300220 IEM_DS3505
ZGNN,2002-07-08 12:00,ZGNN 081200Z AUTO 04002KT 11SM 30/25 A2950 RMK SLP990 T03040249 52016 IEM_DS3505
ZGNN,2002-07-08 13:00,ZGNN 081300Z AUTO 36002KT 7SM 30/24 A2953 RMK T03000240 IEM_DS3505
ZGNN,2002-07-08 14:00,ZGNN 081400Z AUTO 36002KT 7SM 29/24 A2953 RMK T02900240 IEM_DS3505
ZGNN,2002-07-08 15:00,ZGNN 081500Z AUTO 00000KT 9SM 28/26 A2956 RMK SLP003 T02770255 52013 IEM_DS3505
ZGNN,2002-07-08 16:00,ZGNN 081600Z AUTO 28002KT 2 1/2SM 27/24 A2956 RMK T02700240 IEM_DS3505
ZGNN,2002-07-08 17:00,ZGNN 081700Z AUTO 26004KT 2 1/2SM 26/24 A2956 RMK T02600240 IEM_DS3505
ZGNN,2002-07-08 18:00,ZGNN 081800Z AUTO 02002KT 8SM 26/24 A2953 RMK SLP002 T02610245 57001 IEM_DS3505
ZGNN,2002-07-08 19:00,ZGNN 081900Z AUTO 2 1/2SM 27/23 A2953 RMK T02700230 IEM_DS3505
ZGNN,2002-07-08 20:00,ZGNN 082000Z AUTO 00000KT 2SM 26/24 A2950 RMK T02600240 IEM_DS3505
ZGNN,2002-07-08 21:00,ZGNN 082100Z AUTO 00000KT 7SM 26/25 A2950 RMK 70003 SLP991 T02580247 57011 IEM_DS3505
ZGNN,2002-07-08 22:00,ZGNN 082200Z AUTO 00000KT 6SM 26/23 A2953 RMK T02600230 IEM_DS3505
ZGNN,2002-07-08 23:00,ZGNN 082300Z AUTO 4SM 25/24 A2953 RMK T02500240 IEM_DS3505
ZGNN,2002-07-09 00:00,ZGNN 090000Z AUTO 00000KT 7SM 26/25 A2956 RMK 70003 SLP008 T02620246 52016 IEM_DS3505
ZGNN,2002-07-09 01:00,ZGNN 090100Z AUTO 4SM 28/24 A2956 RMK T02800240 IEM_DS3505
ZGNN,2002-07-09 02:00,ZGNN 090200Z AUTO 6SM 30/23 A2956 RMK T03000230 IEM_DS3505
ZGNN,2002-07-09 03:00,ZGNN 090300Z AUTO 34004KT 8SM 32/24 A2956 RMK SLP004 T03150235 57003 IEM_DS3505
ZGNN,2002-07-09 04:00,ZGNN 090400Z AUTO 01006KT 7SM 33/22 A2953 RMK T03300220 IEM_DS3505
ZGNN,2002-07-09 05:00,ZGNN 090500Z AUTO 33006KT 7SM 32/22 A2953 RMK T03200220 IEM_DS3505
ZGNN,2002-07-09 06:00,ZGNN 090600Z AUTO 34002KT 9SM 33/22 A2950 RMK SLP993 T03290216 57011 IEM_DS3505
ZGNN,2002-07-09 07:00,ZGNN 090700Z AUTO 7SM 34/21 A2950 RMK T03400210 IEM_DS3505
ZGNN,2002-07-09 08:00,ZGNN 090800Z AUTO 7SM 35/20 A2947 RMK T03500200 IEM_DS3505
ZGNN,2002-07-09 09:00,ZGNN 090900Z AUTO 34006KT 9SM 34/22 A2947 RMK SLP977 T03390224 57016 IEM_DS3505
ZGNN,2002-07-09 10:00,ZGNN 091000Z AUTO 34006KT 6SM 34/20 A2947 RMK T03400200 IEM_DS3505
ZGNN,2002-07-09 11:00,ZGNN 091100Z AUTO 6SM 33/21 A2947 RMK T03300210 IEM_DS3505
ZGNN,2002-07-09 12:00,ZGNN 091200Z AUTO 00000KT 7SM 30/25 A2950 RMK SLP991 T03050248 52013 IEM_DS3505
ZGNN,2002-07-09 13:00,ZGNN 091300Z AUTO 04004KT 6SM 29/24 A2953 RMK T02900240 IEM_DS3505
ZGNN,2002-07-09 14:00,ZGNN 091400Z AUTO 00000KT 4SM 28/24 A2953 RMK T02800240 IEM_DS3505
ZGNN,2002-07-09 15:00,ZGNN 091500Z AUTO 00000KT 7SM 26/24 A2956 RMK SLP006 T02640238 52016 IEM_DS3505
ZGNN,2002-07-09 16:00,ZGNN 091600Z AUTO 1SM A2956 RMK IEM_DS3505
ZGNN,2002-07-09 17:00,ZGNN 091700Z AUTO 00000KT 2SM 26/23 A2953 RMK T02600230 IEM_DS3505
ZGNN,2002-07-09 18:00,ZGNN 091800Z AUTO 00000KT 7SM 25/23 A2950 RMK SLP992 T02510232 57014 IEM_DS3505
ZGNN,2002-07-09 19:00,ZGNN 091900Z AUTO 00000KT 1 1/2SM 25/23 A2950 RMK T02500230 IEM_DS3505
ZGNN,2002-07-09 20:00,ZGNN 092000Z AUTO 01002KT 1 1/2SM 24/22 A2950 RMK T02400220 IEM_DS3505
ZGNN,2002-07-09 21:00,ZGNN 092100Z AUTO 00000KT 7SM 24/22 A2950 RMK SLP986 T02410225 57006 IEM_DS3505
ZGNN,2002-07-09 22:00,ZGNN 092200Z AUTO 24002KT 2SM 24/22 A2950 RMK T02400220 IEM_DS3505
ZGNN,2002-07-09 23:00,ZGNN 092300Z AUTO 00000KT 2SM 24/22 A2953 RMK T02400220 IEM_DS3505
ZGNN,2002-07-10 00:00,ZGNN 100000Z AUTO 00000KT 3SM 26/24 A2953 RMK SLP001 T02560237 52014 IEM_DS3505
ZGNN,2002-07-10 01:00,ZGNN 100100Z AUTO 2SM 28/24 A2956 RMK T02800240 IEM_DS3505
ZGNN,2002-07-10 02:00,ZGNN 100200Z AUTO 2 1/2SM 30/23 A2956 RMK T03000230 IEM_DS3505
ZGNN,2002-07-10 03:00,ZGNN 100300Z AUTO 00000KT 6SM 32/24 A2956 RMK SLP008 T03150237 52007 IEM_DS3505
ZGNN,2002-07-10 04:00,ZGNN 100400Z AUTO 5SM 33/21 A2953 RMK T03300210 IEM_DS3505
ZGNN,2002-07-10 05:00,ZGNN 100500Z AUTO 7SM 34/20 A2953 RMK T03400200 IEM_DS3505
ZGNN,2002-07-10 06:00,ZGNN 100600Z AUTO 20004KT 7SM 34/22 A2950 RMK SLP990 T03440224 57017 IEM_DS3505
ZGNN,2002-07-10 07:00,ZGNN 100700Z AUTO 7SM 36/21 A2947 RMK T03600210 IEM_DS3505
ZGNN,2002-07-10 09:00,ZGNN 100900Z AUTO 34002KT 7SM 35/21 A2944 RMK SLP966 T03510212 57024 IEM_DS3505
ZGNN,2002-07-10 10:00,ZGNN 101000Z AUTO 02006KT 7SM 35/18 A2941 RMK T03500180 IEM_DS3505
ZGNN,2002-07-10 11:00,ZGNN 101100Z AUTO 05004KT 6SM 33/21 A2944 RMK T03300210 IEM_DS3505
ZGNN,2002-07-10 12:00,ZGNN 101200Z AUTO 14004KT 6SM 32/24 A2947 RMK SLP980 T03200240 52014 IEM_DS3505
ZGNN,2002-07-10 13:00,ZGNN 101300Z AUTO 06002KT 6SM 29/24 A2950 RMK T02900240 IEM_DS3505
ZGNN,2002-07-10 14:00,ZGNN 101400Z AUTO 07002KT 5SM 28/24 A2950 RMK T02800240 IEM_DS3505
ZGNN,2002-07-10 15:00,ZGNN 101500Z AUTO 00000KT 6SM 27/25 A2953 RMK SLP001 T02720251 52021 IEM_DS3505
ZGNN,2002-07-10 16:00,ZGNN 101600Z AUTO 12002KT 2 1/2SM 27/23 A2953 RMK T02700230 IEM_DS3505
ZGNN,2002-07-10 17:00,ZGNN 101700Z AUTO 00000KT 2 1/2SM 27/23 A2953 RMK T02700230 IEM_DS3505
ZGNN,2002-07-10 18:00,ZGNN 101800Z AUTO 00000KT 5SM 25/24 A2953 RMK SLP997 T02530240 57004 IEM_DS3505
ZGNN,2002-07-10 19:00,ZGNN 101900Z AUTO 00000KT 1 1/2SM 25/23 A2950 RMK T02500230 IEM_DS3505
ZGNN,2002-07-10 20:00,ZGNN 102000Z AUTO 00000KT 2SM 25/22 A2950 RMK T02500220 IEM_DS3505
ZGNN,2002-07-10 21:00,ZGNN 102100Z AUTO 00000KT 5SM 24/23 A2953 RMK SLP996 T02440232 57001 IEM_DS3505
ZGNN,2002-07-10 22:00,ZGNN 102200Z AUTO 02002KT 2SM 24/22 A2953 RMK T02400220 IEM_DS3505
ZGNN,2002-07-10 23:00,ZGNN 102300Z AUTO 1 1/4SM 25/23 A2953 RMK T02500230 IEM_DS3505
ZGNN,2002-07-11 00:00,ZGNN 110000Z AUTO 00000KT 3SM 26/24 A2956 RMK SLP006 T02590245 52010 IEM_DS3505
ZGNN,2002-07-11 01:00,ZGNN 110100Z AUTO 00000KT 2SM 28/24 A2956 RMK T02800240 IEM_DS3505
ZGNN,2002-07-11 02:00,ZGNN 110200Z AUTO 00000KT 5SM 30/23 A2956 RMK T03000230 IEM_DS3505
ZGNN,2002-07-11 03:00,ZGNN 110300Z AUTO 22004KT 6SM 32/24 A2956 RMK SLP007 T03170242 52001 IEM_DS3505
ZGNN,2002-07-11 04:00,ZGNN 110400Z AUTO 7SM 34/22 A2953 RMK T03400220 IEM_DS3505
ZGNN,2002-07-11 05:00,ZGNN 110500Z AUTO 7SM 34/22 A2953 RMK T03400220 IEM_DS3505
ZGNN,2002-07-11 06:00,ZGNN 110600Z AUTO 00000KT 7SM 35/22 A2950 RMK SLP993 T03480220 57014 IEM_DS3505
ZGNN,2002-07-11 07:00,ZGNN 110700Z AUTO 7SM 36/20 A2950 RMK T03600200 IEM_DS3505
ZGNN,2002-07-11 08:00,ZGNN 110800Z AUTO 7SM 35/20 A2947 RMK T03500200 IEM_DS3505
ZGNN,2002-07-11 09:00,ZGNN 110900Z AUTO 14006KT 7SM 35/22 A2947 RMK SLP975 T03530219 57018 IEM_DS3505
ZGNN,2002-07-11 10:00,ZGNN 111000Z AUTO 14006KT 6SM 34/21 A2947 RMK T03400210 IEM_DS3505
ZGNN,2002-07-11 11:00,ZGNN 111100Z AUTO 15004KT 6SM 33/22 A2947 RMK T03300220 IEM_DS3505
ZGNN,2002-07-11 12:00,ZGNN 111200Z AUTO 16006KT 9SM 31/25 A2950 RMK SLP990 T03130249 52015 IEM_DS3505
ZGNN,2002-07-11 13:00,ZGNN 111300Z AUTO 17004KT 6SM 30/24 A2953 RMK T03000240 IEM_DS3505
ZGNN,2002-07-11 14:00,ZGNN 111400Z AUTO 13004KT 6SM 29/24 A2953 RMK T02900240 IEM_DS3505
ZGNN,2002-07-11 15:00,ZGNN 111500Z AUTO 0SM A2956 RMK 70021 IEM_DS3505
ZGNN,2002-07-11 16:00,ZGNN 111600Z AUTO 24002KT 3SM 28/25 A2956 RMK T02800250 IEM_DS3505
ZGNN,2002-07-11 17:00,ZGNN 111700Z AUTO 23002KT 3SM 28/24 A2956 RMK T02800240 IEM_DS3505
ZGNN,2002-07-11 18:00,ZGNN 111800Z AUTO 00000KT 7SM 28/25 A2956 RMK SLP003 T02780254 57007 IEM_DS3505
ZGNN,2002-07-11 19:00,ZGNN 111900Z AUTO 00000KT 2 1/2SM 26/25 A2953 RMK T02600250 IEM_DS3505
ZGNN,2002-07-11 20:00,ZGNN 112000Z AUTO 23002KT 3SM 27/24 A2953 RMK T02700240 IEM_DS3505
ZGNN,2002-07-11 21:00,ZGNN 112100Z AUTO 00000KT 6SM 27/26 A2953 RMK SLP999 T02700255 57004 IEM_DS3505
ZGNN,2002-07-11 22:00,ZGNN 112200Z AUTO 00000KT 6SM 27/24 A2953 RMK T02700240 IEM_DS3505
ZGNN,2002-07-11 23:00,ZGNN 112300Z AUTO 00000KT 6SM 27/24 A2956 RMK T02700240 IEM_DS3505
ZGNN,2002-07-12 00:00,ZGNN 120000Z AUTO 22004KT 5SM 28/25 A2956 RMK SLP012 T02800253 52012 IEM_DS3505
ZGNN,2002-07-12 01:00,ZGNN 120100Z AUTO 6SM 30/24 A2956 RMK T03000240 IEM_DS3505
ZGNN,2002-07-12 02:00,ZGNN 120200Z AUTO 6SM 31/23 A2959 RMK T03100230 IEM_DS3505
ZGNN,2002-07-12 03:00,ZGNN 120300Z AUTO 00000KT 9SM 31/25 A2959 RMK SLP013 T03120248 52001 IEM_DS3505
ZGNN,2002-07-12 04:00,ZGNN 120400Z AUTO 7SM 33/23 A2956 RMK T03300230 IEM_DS3505
ZGNN,2002-07-12 05:00,ZGNN 120500Z AUTO 7SM 34/22 A2953 RMK T03400220 IEM_DS3505
ZGNN,2002-07-12 06:00,ZGNN 120600Z AUTO 18002KT 9SM 34/23 A2953 RMK SLP995 T03440230 57017 IEM_DS3505
ZGNN,2002-07-12 07:00,ZGNN 120700Z AUTO 7SM 35/21 A2950 RMK T03500210 IEM_DS3505
ZGNN,2002-07-12 08:00,ZGNN 120800Z AUTO 7SM 35/21 A2947 RMK T03500210 IEM_DS3505
ZGNN,2002-07-12 09:00,ZGNN 120900Z AUTO 16006KT 12SM 36/24 A2947 RMK SLP977 T03570241 57018 IEM_DS3505
ZGNN,2002-07-12 10:00,ZGNN 121000Z AUTO 15010KT 6SM 32/25 A2947 RMK T03200250 IEM_DS3505
ZGNN,2002-07-12 11:00,ZGNN 121100Z AUTO 16008KT 6SM 32/22 A2950 RMK T03200220 IEM_DS3505
ZGNN,2002-07-12 12:00,ZGNN 121200Z AUTO 14004KT 19SM 30/25 A2950 RMK SLP991 T03040246 52013 IEM_DS3505
ZGNN,2002-07-12 13:00,ZGNN 121300Z AUTO 6SM 29/24 A2953 RMK T02900240 IEM_DS3505
ZGNN,2002-07-12 14:00,ZGNN 121400Z AUTO 14004KT 6SM 28/25 A2953 RMK T02800250 IEM_DS3505
ZGNN,2002-07-12 15:00,ZGNN 121500Z AUTO 18004KT 12SM 29/26 A2956 RMK SLP012 T02870259 52021 IEM_DS3505
ZGNN,2002-07-12 18:00,ZGNN 121800Z AUTO 00000KT 12SM 27/26 A2956 RMK SLP005 T02740257 57007 IEM_DS3505
ZGNN,2002-07-12 20:00,ZGNN 122000Z AUTO 02004KT 3SM 26/25 A2953 RMK T02600250 IEM_DS3505
ZGNN,2002-07-12 21:00,ZGNN 122100Z AUTO 00000KT 7SM 26/25 A2953 RMK SLP998 T02610251 57006 IEM_DS3505
ZGNN,2002-07-12 22:00,ZGNN 122200Z AUTO 00000KT 6SM 26/24 A2953 RMK T02600240 IEM_DS3505
ZGNN,2002-07-12 23:00,ZGNN 122300Z AUTO 00000KT 6SM 26/24 A2953 RMK T02600240 IEM_DS3505
ZGNN,2002-07-13 00:00,ZGNN 130000Z AUTO 09004KT 6SM 28/26 A2953 RMK SLP004 T02810260 52005 IEM_DS3505
ZGNN,2002-07-13 01:00,ZGNN 130100Z AUTO 7SM 29/25 A2956 RMK T02900250 IEM_DS3505
ZGNN,2002-07-13 02:00,ZGNN 130200Z AUTO 7SM 31/25 A2953 RMK T03100250 IEM_DS3505
ZGNN,2002-07-13 03:00,ZGNN 130300Z AUTO 36004KT 19SM 32/25 A2953 RMK SLP000 T03180253 57004 IEM_DS3505
ZGNN,2002-07-13 04:00,ZGNN 130400Z AUTO 7SM 32/24 A2953 RMK T03200240 IEM_DS3505
ZGNN,2002-07-13 05:00,ZGNN 130500Z AUTO 7SM 33/23 A2950 RMK T03300230 IEM_DS3505
ZGNN,2002-07-13 06:00,ZGNN 130600Z AUTO 22004KT 19SM 34/25 A2950 RMK 60008 SLP982 T03380254 57017 IEM_DS3505
ZGNN,2002-07-13 07:00,ZGNN 130700Z AUTO 7SM 35/23 A2947 RMK T03500230 IEM_DS3505
ZGNN,2002-07-13 08:00,ZGNN 130800Z AUTO 03016KT 7SM 33/25 A2944 RMK T03300250 IEM_DS3505
ZGNN,2002-07-13 09:00,ZGNN 130900Z AUTO 04004KT 19SM 32/26 A2944 RMK SLP968 T03210255 57015 IEM_DS3505
ZGNN,2002-07-13 10:00,ZGNN 131000Z AUTO 07006G16KT 7SM 34/25 A2944 RMK T03400250 IEM_DS3505
ZGNN,2002-07-13 11:00,ZGNN 131100Z AUTO 14008KT 7SM 32/26 A2947 RMK T03200260 IEM_DS3505
ZGNN,2002-07-13 12:00,ZGNN 131200Z AUTO 14006KT 12SM 31/27 A2947 RMK SLP985 T03090269 52017 IEM_DS3505
ZGNN,2002-07-13 13:00,ZGNN 131300Z AUTO 15006KT 7SM 29/26 A2953 RMK T02900260 IEM_DS3505
ZGNN,2002-07-13 14:00,ZGNN 131400Z AUTO 7SM 29/26 A2956 RMK T02900260 IEM_DS3505
ZGNN,2002-07-13 15:00,ZGNN 131500Z AUTO 22004KT 9SM 29/27 A2956 RMK SLP008 T02920269 52023 IEM_DS3505
ZGNN,2002-07-13 18:00,ZGNN 131800Z AUTO 29004KT 9SM 28/25 RMK 60003 SLP005 T02770249 57003 IEM_DS3505
ZGNN,2002-07-13 21:00,ZGNN 132100Z AUTO 00000KT 7SM 26/25 A2953 RMK 70006 SLP993 T02630249 57012 IEM_DS3505
ZGNN,2002-07-13 22:00,ZGNN 132200Z AUTO 22006KT 7SM 25/24 A2953 RMK T02500240 IEM_DS3505
ZGNN,2002-07-13 23:00,ZGNN 132300Z AUTO 22004KT 7SM 26/ A2953 RMK IEM_DS3505
ZGNN,2002-07-14 00:00,ZGNN 140000Z AUTO 22004KT 9SM 27/25 A2953 RMK 70006 SLP003 T02660250 52009 IEM_DS3505
ZGNN,2002-07-14 01:00,ZGNN 140100Z AUTO 7SM 29/25 A2956 RMK T02900250 IEM_DS3505
ZGNN,2002-07-14 02:00,ZGNN 140200Z AUTO 7SM 30/25 A2956 RMK T03000250 IEM_DS3505
ZGNN,2002-07-14 03:00,ZGNN 140300Z AUTO 14004KT 9SM 31/26 A2956 RMK SLP006 T03070260 52004 IEM_DS3505
ZGNN,2002-07-14 04:00,ZGNN 140400Z AUTO 7SM 31/25 A2953 RMK T03100250 IEM_DS3505
ZGNN,2002-07-14 05:00,ZGNN 140500Z AUTO 14008KT 7SM 30/25 A2953 RMK T03000250 IEM_DS3505
ZGNN,2002-07-14 06:00,ZGNN 140600Z AUTO 20004KT 7SM 30/26 RMK 60003 SLP994 T03010265 57012 IEM_DS3505
ZGNN,2002-07-14 07:00,ZGNN 140700Z AUTO 24006KT 7SM 30/25 A2950 RMK T03000250 IEM_DS3505
ZGNN,2002-07-14 08:00,ZGNN 140800Z AUTO 22006KT 6SM 31/25 A2947 RMK T03100250 IEM_DS3505
ZGNN,2002-07-14 09:00,ZGNN 140900Z AUTO 29004KT 9SM 32/26 A2947 RMK SLP976 T03150261 57018 IEM_DS3505
ZGNN,2002-07-14 10:00,ZGNN 141000Z AUTO 27004KT 6SM 32/25 A2947 RMK T03200250 IEM_DS3505
ZGNN,2002-07-14 11:00,ZGNN 141100Z AUTO 31004KT 6SM 31/25 A2947 RMK T03100250 IEM_DS3505
ZGNN,2002-07-14 12:00,ZGNN 141200Z AUTO 02002KT 9SM 30/27 A2950 RMK SLP986 T02950266 52009 IEM_DS3505
ZGNN,2002-07-14 13:00,ZGNN 141300Z AUTO 00000KT 6SM 28/25 A2950 RMK T02800250 IEM_DS3505
ZGNN,2002-07-14 14:00,ZGNN 141400Z AUTO 23004KT 6SM 28/26 A2953 RMK T02800260 IEM_DS3505
ZGNN,2002-07-14 15:00,ZGNN 141500Z AUTO 07004KT 7SM 28/27 A2956 RMK SLP014 T02780268 52029 IEM_DS3505
ZGNN,2002-07-14 16:00,ZGNN 141600Z AUTO 28002KT 3SM 27/25 A2956 RMK T02700250 IEM_DS3505
ZGNN,2002-07-14 17:00,ZGNN 141700Z AUTO 23004KT 3SM 26/25 A2959 RMK T02600250 IEM_DS3505
ZGNN,2002-07-14 18:00,ZGNN 141800Z AUTO 32010KT 4SM 26/26 A2959 RMK 60157 SLP010 T02610255 57005 IEM_DS3505
ZGNN,2002-07-14 19:00,ZGNN 141900Z AUTO 4SM 26/24 A2953 RMK T02600240 IEM_DS3505
ZGNN,2002-07-14 20:00,ZGNN 142000Z AUTO 12002KT 3SM 25/24 A2953 RMK T02500240 IEM_DS3505
ZGNN,2002-07-14 21:00,ZGNN 142100Z AUTO 02004KT 12SM 25/24 A2953 RMK 70188 SLP995 T02490245 57015 IEM_DS3505
ZGNN,2002-07-14 22:00,ZGNN 142200Z AUTO 04002KT 7SM 25/24 A2953 RMK T02500240 IEM_DS3505
ZGNN,2002-07-14 23:00,ZGNN 142300Z AUTO 00000KT 2 1/2SM 26/24 A2956 RMK T02600240 IEM_DS3505
ZGNN,2002-07-15 00:00,ZGNN 150000Z AUTO 00000KT 3SM 26/25 A2956 RMK 60031 SLP010 T02640253 52015 IEM_DS3505
ZGNN,2002-07-15 01:00,ZGNN 150100Z AUTO 5SM 28/25 A2959 RMK T02800250 IEM_DS3505
ZGNN,2002-07-15 03:00,ZGNN 150300Z AUTO 14002KT 11SM 30/26 RMK SLP014 T02990259 52004 IEM_DS3505
ZGNN,2002-07-15 04:00,ZGNN 150400Z AUTO 7SM 31/24 A2959 RMK T03100240 IEM_DS3505
ZGNN,2002-07-15 05:00,ZGNN 150500Z AUTO 7SM 33/25 A2956 RMK T03300250 IEM_DS3505
ZGNN,2002-07-15 06:00,ZGNN 150600Z AUTO 09004KT 15SM 34/26 RMK SLP999 T03350258 57014 IEM_DS3505
ZGNN,2002-07-15 07:00,ZGNN 150700Z AUTO 06006KT 7SM 34/24 A2950 RMK T03400240 IEM_DS3505
ZGNN,2002-07-15 08:00,ZGNN 150800Z AUTO 07006KT 7SM 35/23 A2950 RMK T03500230 IEM_DS3505
ZGNN,2002-07-15 09:00,ZGNN 150900Z AUTO 09004KT 15SM 35/25 A2947 RMK SLP982 T03490252 57017 IEM_DS3505
ZGNN,2002-07-15 11:00,ZGNN 151100Z AUTO 1SM RMK IEM_DS3505
ZGNN,2002-07-15 12:00,ZGNN 151200Z AUTO 04002KT 14SM 32/27 A2950 RMK SLP993 T03170268 52011 IEM_DS3505
ZGNN,2002-07-15 13:00,ZGNN 151300Z AUTO 16006KT 7SM 30/25 A2956 RMK T03000250 IEM_DS3505
ZGNN,2002-07-15 14:00,ZGNN 151400Z AUTO 7SM 30/25 A2956 RMK T03000250 IEM_DS3505
ZGNN,2002-07-15 15:00,ZGNN 151500Z AUTO 14002KT 12SM 30/26 A2959 RMK SLP022 T02960263 52029 IEM_DS3505
ZGNN,2002-07-15 16:00,ZGNN 151600Z AUTO 16002KT 5SM 29/25 A2959 RMK T02900250 IEM_DS3505
ZGNN,2002-07-15 17:00,ZGNN 151700Z AUTO 4SM 28/25 A2959 RMK T02800250 IEM_DS3505
ZGNN,2002-07-15 18:00,ZGNN 151800Z AUTO 34004KT 12SM 28/27 A2956 RMK 60003 SLP012 T02840269 57010 IEM_DS3505
ZGNN,2002-07-15 19:00,ZGNN 151900Z AUTO 20006KT 1SM 25/24 A2956 RMK T02500240 IEM_DS3505
ZGNN,2002-07-15 20:00,ZGNN 152000Z AUTO 11004KT 4SM 26/24 A2956 RMK T02600240 IEM_DS3505
ZGNN,2002-07-15 21:00,ZGNN 152100Z AUTO 00000KT 9SM 26/25 A2956 RMK 70057 SLP013 T02590248 52001 IEM_DS3505
ZGNN,2002-07-15 22:00,ZGNN 152200Z AUTO 31002KT 4SM 26/24 A2959 RMK T02600240 IEM_DS3505
ZGNN,2002-07-15 23:00,ZGNN 152300Z AUTO 03004KT 3SM 26/25 A2959 RMK T02600250 IEM_DS3505
ZGNN,2002-07-16 00:00,ZGNN 160000Z AUTO 00000KT 3SM 27/26 A2959 RMK 60059 SLP022 T02700260 52008 IEM_DS3505
ZGNN,2002-07-16 01:00,ZGNN 160100Z AUTO 4SM 28/25 A2959 RMK T02800250 IEM_DS3505
ZGNN,2002-07-16 02:00,ZGNN 160200Z AUTO 7SM 30/25 A2959 RMK T03000250 IEM_DS3505
ZGNN,2002-07-16 03:00,ZGNN 160300Z AUTO 27002KT 10SM 31/27 A2959 RMK SLP023 T03070266 52002 IEM_DS3505
ZGNN,2002-07-16 04:00,ZGNN 160400Z AUTO 7SM 32/25 A2959 RMK T03200250 IEM_DS3505
ZGNN,2002-07-16 05:00,ZGNN 160500Z AUTO 7SM 32/25 A2956 RMK T03200250 IEM_DS3505
ZGNN,2002-07-16 06:00,ZGNN 160600Z AUTO 00000KT 6SM 32/25 A2956 RMK SLP007 T03220253 57016 IEM_DS3505
ZGNN,2002-07-16 07:00,ZGNN 160700Z AUTO 20016KT 7SM 29/24 A2956 RMK T02900240 IEM_DS3505
ZGNN,2002-07-16 08:00,ZGNN 160800Z AUTO 26012KT 7SM 27/23 A2959 RMK T02700230 IEM_DS3505
ZGNN,2002-07-16 09:00,ZGNN 160900Z AUTO 25004KT 12SM 26/25 A2956 RMK SLP008 T02570246 57001 IEM_DS3505
ZGNN,2002-07-16 10:00,ZGNN 161000Z AUTO 20008KT 7SM 27/24 A2956 RMK T02700240 IEM_DS3505
ZGNN,2002-07-16 11:00,ZGNN 161100Z AUTO 17006KT 7SM 26/23 A2956 RMK T02600230 IEM_DS3505
ZGNN,2002-07-16 12:00,ZGNN 161200Z AUTO 00000KT 12SM 26/24 A2959 RMK 60205 SLP018 T02650245 52010 IEM_DS3505
ZGNN,2002-07-16 13:00,ZGNN 161300Z AUTO 13006KT 7SM 26/24 A2959 RMK T02600240 IEM_DS3505
ZGNN,2002-07-16 14:00,ZGNN 161400Z AUTO 22002KT 7SM 26/24 A2962 RMK T02600240 IEM_DS3505
ZGNN,2002-07-16 15:00,ZGNN 161500Z AUTO 27004KT 11SM 26/25 A2962 RMK SLP031 T02580252 52014 IEM_DS3505
ZGNN,2002-07-16 16:00,ZGNN 161600Z AUTO 00000KT 4SM 26/24 A2965 RMK T02600240 IEM_DS3505
ZGNN,2002-07-16 17:00,ZGNN 161700Z AUTO 00000KT 3SM 26/24 A2962 RMK T02600240 IEM_DS3505
ZGNN,2002-07-16 18:00,ZGNN 161800Z AUTO 00000KT 11SM 26/25 A2962 RMK 60001 SLP022 T02610254 57009 IEM_DS3505
ZGNN,2002-07-16 19:00,ZGNN 161900Z AUTO 3SM 26/25 A2959 RMK T02600250 IEM_DS3505
ZGNN,2002-07-16 21:00,ZGNN 162100Z AUTO 14002KT 7SM 26/26 A2962 RMK 70207 SLP026 T02610255 52003 IEM_DS3505
ZGNN,2002-07-16 22:00,ZGNN 162200Z AUTO 00000KT 5SM 26/25 A2959 RMK T02600250 IEM_DS3505
ZGNN,2002-07-16 23:00,ZGNN 162300Z AUTO 00000KT 4SM 26/24 A2962 RMK T02600240 IEM_DS3505
ZGNN,2002-07-17 00:00,ZGNN 170000Z AUTO 00000KT 2SM 26/26 A2962 RMK 60002 SLP033 T02640258 52007 IEM_DS3505
ZGNN,2002-07-17 01:00,ZGNN 170100Z AUTO 2SM 26/25 A2965 RMK T02600250 IEM_DS3505
ZGNN,2002-07-17 02:00,ZGNN 170200Z AUTO 14004KT 4SM 26/25 A2965 RMK T02600250 IEM_DS3505
ZGNN,2002-07-17 03:00,ZGNN 170300Z AUTO 22004KT 3SM 26/26 A2965 RMK SLP036 T02630256 52003 IEM_DS3505
ZGNN,2002-07-17 04:00,ZGNN 170400Z AUTO 18006KT 7SM 26/24 A2962 RMK T02600240 IEM_DS3505
ZGNN,2002-07-17 05:00,ZGNN 170500Z AUTO 18008KT 7SM 26/24 A2962 RMK T02600240 IEM_DS3505
ZGNN,2002-07-17 06:00,ZGNN 170600Z AUTO 18002KT 19SM 26/24 A2962 RMK 60016 SLP022 T02570243 57014 IEM_DS3505
ZGNN,2002-07-17 07:00,ZGNN 170700Z AUTO 21004KT 7SM 27/24 A2959 RMK T02700240 IEM_DS3505
ZGNN,2002-07-17 08:00,ZGNN 170800Z AUTO 7SM 27/24 A2956 RMK T02700240 IEM_DS3505
ZGNN,2002-07-17 09:00,ZGNN 170900Z AUTO 14004KT 11SM 27/26 A2956 RMK SLP009 T02700255 57013 IEM_DS3505
ZGNN,2002-07-17 10:00,ZGNN 171000Z AUTO 11004KT 7SM 27/25 A2956 RMK T02700250 IEM_DS3505
ZGNN,2002-07-17 11:00,ZGNN 171100Z AUTO 7SM 27/25 A2956 RMK T02700250 IEM_DS3505
ZGNN,2002-07-17 12:00,ZGNN 171200Z AUTO 00000KT 4SM 27/26 A2959 RMK 60004 SLP018 T02660259 52009 IEM_DS3505
ZGNN,2002-07-17 13:00,ZGNN 171300Z AUTO 07002KT 7SM 26/25 A2959 RMK T02600250 IEM_DS3505
ZGNN,2002-07-17 14:00,ZGNN 171400Z AUTO 05002KT 7SM 26/25 A2959 RMK T02600250 IEM_DS3505
ZGNN,2002-07-17 15:00,ZGNN 171500Z AUTO 00000KT 5SM 26/26 A2962 RMK SLP025 T02640258 52007 IEM_DS3505
ZGNN,2002-07-17 16:00,ZGNN 171600Z AUTO 04002KT 4SM 26/25 A2959 RMK T02600250 IEM_DS3505
ZGNN,2002-07-17 17:00,ZGNN 171700Z AUTO 02004KT 4SM 26/25 A2959 RMK T02600250 IEM_DS3505
ZGNN,2002-07-17 18:00,ZGNN 171800Z AUTO 00000KT 5SM 26/26 A2956 RMK 60000 SLP014 T02610257 57011 IEM_DS3505
ZGNN,2002-07-17 19:00,ZGNN 171900Z AUTO 04002KT 1 1/2SM 26/24 A2956 RMK T02600240 IEM_DS3505
ZGNN,2002-07-17 20:00,ZGNN 172000Z AUTO 36002KT 2SM 26/25 A2953 RMK T02600250 IEM_DS3505
ZGNN,2002-07-17 21:00,ZGNN 172100Z AUTO 00000KT 7SM 26/25 A2953 RMK 70021 SLP003 T02550252 57011 IEM_DS3505
ZGNN,2002-07-17 22:00,ZGNN 172200Z AUTO 35002KT 1 1/4SM 26/24 A2956 RMK T02600240 IEM_DS3505
ZGNN,2002-07-17 23:00,ZGNN 172300Z AUTO 00000KT 1 1/4SM 26/25 A2956 RMK T02600250 IEM_DS3505
ZGNN,2002-07-18 00:00,ZGNN 180000Z AUTO 00000KT 3SM 27/26 A2956 RMK 70020 SLP015 T02690261 52012 IEM_DS3505
ZGNN,2002-07-18 01:00,ZGNN 180100Z AUTO 00000KT 7SM 28/25 A2959 RMK T02800250 IEM_DS3505
ZGNN,2002-07-18 02:00,ZGNN 180200Z AUTO 7SM 29/25 A2959 RMK T02900250 IEM_DS3505
ZGNN,2002-07-18 03:00,ZGNN 180300Z AUTO 14002KT 12SM 30/27 A2959 RMK SLP020 T03040266 52006 IEM_DS3505
ZGNN,2002-07-18 04:00,ZGNN 180400Z AUTO 7SM 31/24 A2959 RMK T03100240 IEM_DS3505
ZGNN,2002-07-18 05:00,ZGNN 180500Z AUTO 7SM 32/24 A2956 RMK T03200240 IEM_DS3505
ZGNN,2002-07-18 06:00,ZGNN 180600Z AUTO 00000KT 19SM 32/25 A2956 RMK SLP011 T03150254 57009 IEM_DS3505
ZGNN,2002-07-18 07:00,ZGNN 180700Z AUTO 00000KT 7SM 32/24 A2956 RMK T03200240 IEM_DS3505
ZGNN,2002-07-18 08:00,ZGNN 180800Z AUTO 7SM 32/25 A2953 RMK T03200250 IEM_DS3505
ZGNN,2002-07-18 09:00,ZGNN 180900Z AUTO 00000KT 19SM 31/26 A2953 RMK SLP999 T03090259 57012 IEM_DS3505
ZGNN,2002-07-18 10:00,ZGNN 181000Z AUTO 7SM 31/25 A2953 RMK T03100250 IEM_DS3505
ZGNN,2002-07-18 11:00,ZGNN 181100Z AUTO 36004KT 7SM 30/24 A2953 RMK T03000240 IEM_DS3505
ZGNN,2002-07-18 12:00,ZGNN 181200Z AUTO 29004KT 12SM 28/26 A2956 RMK SLP013 T02840263 52014 IEM_DS3505
ZGNN,2002-07-18 13:00,ZGNN 181300Z AUTO 6SM 28/25 A2959 RMK T02800250 IEM_DS3505
ZGNN,2002-07-18 14:00,ZGNN 181400Z AUTO 34002KT 6SM 28/25 A2959 RMK T02800250 IEM_DS3505
ZGNN,2002-07-18 15:00,ZGNN 181500Z AUTO 00000KT 9SM 28/26 A2962 RMK SLP029 T02750264 52016 IEM_DS3505
ZGNN,2002-07-18 16:00,ZGNN 181600Z AUTO 34002KT 6SM 27/25 A2962 RMK T02700250 IEM_DS3505
ZGNN,2002-07-18 17:00,ZGNN 181700Z AUTO 7SM 27/25 A2959 RMK T02700250 IEM_DS3505
ZGNN,2002-07-18 18:00,ZGNN 181800Z AUTO 00000KT 9SM 27/25 RMK SLP018 T02700253 57011 IEM_DS3505
ZGNN,2002-07-18 19:00,ZGNN 181900Z AUTO 16002KT 5SM 26/24 A2956 RMK T02600240 IEM_DS3505
ZGNN,2002-07-18 20:00,ZGNN 182000Z AUTO 00000KT 7SM 26/25 A2956 RMK T02600250 IEM_DS3505
ZGNN,2002-07-18 21:00,ZGNN 182100Z AUTO 00000KT 7SM 26/26 A2956 RMK SLP014 T02650257 57004 IEM_DS3505
ZGNN,2002-07-18 22:00,ZGNN 182200Z AUTO 00000KT 7SM 27/25 A2959 RMK T02700250 IEM_DS3505
ZGNN,2002-07-18 23:00,ZGNN 182300Z AUTO 01002KT 4SM 27/25 A2959 RMK T02700250 IEM_DS3505
ZGNN,2002-07-19 00:00,ZGNN 190000Z AUTO 00000KT 3SM 28/26 A2959 RMK SLP023 T02780264 52009 IEM_DS3505
ZGNN,2002-07-19 01:00,ZGNN 190100Z AUTO 2 1/2SM 28/26 A2962 RMK T02800260 IEM_DS3505
ZGNN,2002-07-19 02:00,ZGNN 190200Z AUTO 3SM 29/26 A2962 RMK T02900260 IEM_DS3505
ZGNN,2002-07-19 03:00,ZGNN 190300Z AUTO 00000KT 6SM 30/27 A2962 RMK SLP033 T02980271 52010 IEM_DS3505
ZGNN,2002-07-19 04:00,ZGNN 190400Z AUTO 7SM 30/26 A2962 RMK T03000260 IEM_DS3505
ZGNN,2002-07-19 06:00,ZGNN 190600Z AUTO 07004KT 6SM 26/24 A2962 RMK 60000 SLP027 T02620245 57007 IEM_DS3505
ZGNN,2002-07-19 07:00,ZGNN 190700Z AUTO 7SM 26/23 A2959 RMK T02600230 IEM_DS3505
ZGNN,2002-07-19 08:00,ZGNN 190800Z AUTO 07004KT 7SM 26/23 A2962 RMK T02600230 IEM_DS3505
ZGNN,2002-07-19 09:00,ZGNN 190900Z AUTO 09002KT 3SM 25/24 A2959 RMK T02500240 IEM_DS3505
ZGNN,2002-07-19 10:00,ZGNN 191000Z AUTO 06004KT 7SM 25/23 A2956 RMK T02500230 IEM_DS3505
ZGNN,2002-07-19 11:00,ZGNN 191100Z AUTO 00000KT 7SM 25/24 A2959 RMK T02500240 IEM_DS3505
ZGNN,2002-07-19 12:00,ZGNN 191200Z AUTO 00000KT 7SM 26/25 A2962 RMK 60002 SLP037 T02580248 52017 IEM_DS3505
ZGNN,2002-07-19 13:00,ZGNN 191300Z AUTO 01004KT 7SM 25/24 A2965 RMK T02500240 IEM_DS3505
ZGNN,2002-07-19 14:00,ZGNN 191400Z AUTO 04004KT 7SM 25/24 A2965 RMK T02500240 IEM_DS3505
ZGNN,2002-07-19 15:00,ZGNN 191500Z AUTO 00000KT 7SM 26/25 A2968 RMK SLP047 T02550248 52010 IEM_DS3505
ZGNN,2002-07-19 16:00,ZGNN 191600Z AUTO 04004KT 3SM 25/24 A2968 RMK T02500240 IEM_DS3505
ZGNN,2002-07-19 17:00,ZGNN 191700Z AUTO 01004KT 3SM 25/24 A2965 RMK T02500240 IEM_DS3505
ZGNN,2002-07-19 18:00,ZGNN 191800Z AUTO 00000KT 7SM 26/25 A2962 RMK 60003 SLP035 T02580251 57012 IEM_DS3505
ZGNN,2002-07-19 19:00,ZGNN 191900Z AUTO 02004KT 1 1/4SM 25/24 A2962 RMK T02500240 IEM_DS3505
ZGNN,2002-07-19 20:00,ZGNN 192000Z AUTO 03004KT 1 1/4SM 25/24 A2959 RMK T02500240 IEM_DS3505
ZGNN,2002-07-19 21:00,ZGNN 192100Z AUTO 00000KT 4SM 26/25 A2959 RMK 70002 SLP020 T02590253 57015 IEM_DS3505
ZGNN,2002-07-19 22:00,ZGNN 192200Z AUTO 36002KT 1SM 26/25 A2959 RMK T02600250 IEM_DS3505
ZGNN,2002-07-19 23:00,ZGNN 192300Z AUTO 06004KT 1SM 26/25 A2962 RMK T02600250 IEM_DS3505
ZGNN,2002-07-20 00:00,ZGNN 200000Z AUTO 14002KT 4SM 26/25 A2962 RMK 60003 SLP033 T02600249 52013 IEM_DS3505
ZGNN,2002-07-20 01:00,ZGNN 200100Z AUTO 10004KT 7SM 25/24 A2965 RMK T02500240 IEM_DS3505
ZGNN,2002-07-20 02:00,ZGNN 200200Z AUTO 10004KT 7SM 26/24 A2965 RMK T02600240 IEM_DS3505
ZGNN,2002-07-20 03:00,ZGNN 200300Z AUTO 09004KT 5SM 26/25 A2965 RMK SLP044 T02600253 52010 IEM_DS3505
ZGNN,2002-07-20 04:00,ZGNN 200400Z AUTO 05004KT 7SM 26/24 A2965 RMK T02600240 IEM_DS3505
ZGNN,2002-07-20 05:00,ZGNN 200500Z AUTO 05004KT 7SM 26/25 A2965 RMK T02600250 IEM_DS3505
ZGNN,2002-07-20 06:00,ZGNN 200600Z AUTO 07004KT 6SM 28/27 A2962 RMK 60016 SLP028 T02770266 57015 IEM_DS3505
ZGNN,2002-07-20 07:00,ZGNN 200700Z AUTO 09006KT 7SM 29/26 A2959 RMK T02900260 IEM_DS3505
ZGNN,2002-07-20 08:00,ZGNN 200800Z AUTO 11008KT 7SM 30/25 A2956 RMK T03000250 IEM_DS3505
ZGNN,2002-07-20 09:00,ZGNN 200900Z AUTO 14006KT 16SM 29/26 A2956 RMK SLP013 T02920262 57014 IEM_DS3505
ZGNN,2002-07-20 10:00,ZGNN 201000Z AUTO 12008KT 7SM 28/25 A2956 RMK T02800250 IEM_DS3505
ZGNN,2002-07-20 11:00,ZGNN 201100Z AUTO 12006KT 7SM 28/25 A2956 RMK T02800250 IEM_DS3505
ZGNN,2002-07-20 12:00,ZGNN 201200Z AUTO 09002KT 1SM 25/25 A2962 RMK 60087 SLP030 T02540248 52016 IEM_DS3505
ZGNN,2002-07-20 13:00,ZGNN 201300Z AUTO 20002KT 7SM 25/24 A2965 RMK T02500240 IEM_DS3505
ZGNN,2002-07-20 15:00,ZGNN 201500Z AUTO 14002KT 6SM 25/25 A2968 RMK SLP048 T02540248 52017 IEM_DS3505
ZGNN,2002-07-20 16:00,ZGNN 201600Z AUTO 00000KT 7SM 25/24 A2968 RMK T02500240 IEM_DS3505
ZGNN,2002-07-20 17:00,ZGNN 201700Z AUTO 08002KT 7SM 25/24 A2965 RMK T02500240 IEM_DS3505
ZGNN,2002-07-20 18:00,ZGNN 201800Z AUTO 00000KT 9SM 25/25 RMK 60024 SLP037 T02530247 57010 IEM_DS3505
ZGNN,2002-07-20 21:00,ZGNN 202100Z AUTO 00000KT 9SM 25/24 A2962 RMK 70122 SLP030 T02510241 57007 IEM_DS3505
ZGNN,2002-07-20 22:00,ZGNN 202200Z AUTO 03002KT 7SM 24/23 A2962 RMK T02400230 IEM_DS3505
ZGNN,2002-07-20 23:00,ZGNN 202300Z AUTO 07002KT 7SM 24/23 A2962 RMK T02400230 IEM_DS3505
ZGNN,2002-07-21 00:00,ZGNN 210000Z AUTO 04002KT 12SM 25/24 A2965 RMK 70122 SLP041 T02520241 52010 IEM_DS3505
ZGNN,2002-07-21 01:00,ZGNN 210100Z AUTO 7SM 26/24 A2965 RMK T02600240 IEM_DS3505
ZGNN,2002-07-21 02:00,ZGNN 210200Z AUTO 7SM 27/24 A2965 RMK T02700240 IEM_DS3505
ZGNN,2002-07-21 03:00,ZGNN 210300Z AUTO 27002KT 16SM 29/25 A2965 RMK SLP037 T02920251 57003 IEM_DS3505
ZGNN,2002-07-21 04:00,ZGNN 210400Z AUTO 7SM 30/24 A2962 RMK T03000240 IEM_DS3505
ZGNN,2002-07-21 05:00,ZGNN 210500Z AUTO 7SM 29/25 A2962 RMK T02900250 IEM_DS3505
ZGNN,2002-07-21 06:00,ZGNN 210600Z AUTO 22019KT 6SM 29/25 A2962 RMK 60001 SLP033 T02920254 57004 IEM_DS3505
ZGNN,2002-07-21 08:00,ZGNN 210800Z AUTO 27002KT 7SM 28/24 A2959 RMK T02800240 IEM_DS3505
ZGNN,2002-07-21 09:00,ZGNN 210900Z AUTO 16004KT 19SM 29/26 A2956 RMK SLP013 T02910256 57019 IEM_DS3505
ZGNN,2002-07-21 10:00,ZGNN 211000Z AUTO 14006KT 7SM 29/23 A2956 RMK T02900230 IEM_DS3505
ZGNN,2002-07-21 11:00,ZGNN 211100Z AUTO 14006KT 7SM 28/23 A2959 RMK T02800230 IEM_DS3505
ZGNN,2002-07-21 12:00,ZGNN 211200Z AUTO 09002KT 19SM 28/24 A2959 RMK 60122 SLP027 T02800237 52013 IEM_DS3505
ZGNN,2002-07-21 13:00,ZGNN 211300Z AUTO 14006KT 6SM 27/22 A2962 RMK T02700220 IEM_DS3505
ZGNN,2002-07-21 14:00,ZGNN 211400Z AUTO 13004KT 6SM 26/23 A2965 RMK T02600230 IEM_DS3505
ZGNN,2002-07-21 15:00,ZGNN 211500Z AUTO 09002KT 12SM 26/24 RMK SLP041 T02640240 52014 IEM_DS3505
ZGNN,2002-07-21 18:00,ZGNN 211800Z AUTO 36002KT 12SM 26/24 RMK 60003 SLP034 T02560245 57007 IEM_DS3505
ZGNN,2002-07-21 20:00,ZGNN 212000Z AUTO 00000KT 7SM 25/23 A2962 RMK T02500230 IEM_DS3505
ZGNN,2002-07-21 21:00,ZGNN 212100Z AUTO 00000KT 9SM 25/24 A2959 RMK 70121 SLP022 T02480239 57012 IEM_DS3505
ZGNN,2002-07-21 22:00,ZGNN 212200Z AUTO 04002KT 7SM 24/23 A2962 RMK T02400230 IEM_DS3505
ZGNN,2002-07-21 23:00,ZGNN 212300Z AUTO 04002KT 7SM 25/23 A2962 RMK T02500230 IEM_DS3505
ZGNN,2002-07-22 00:00,ZGNN 220000Z AUTO 00000KT 9SM 26/24 A2962 RMK 70121 SLP035 T02560245 52013 IEM_DS3505
ZGNN,2002-07-22 01:00,ZGNN 220100Z AUTO 7SM 26/24 A2965 RMK T02600240 IEM_DS3505
ZGNN,2002-07-22 02:00,ZGNN 220200Z AUTO 7SM 28/23 A2965 RMK T02800230 IEM_DS3505
ZGNN,2002-07-22 03:00,ZGNN 220300Z AUTO 22002KT 19SM 28/25 A2965 RMK SLP035 T02840249 54000 IEM_DS3505
ZGNN,2002-07-22 04:00,ZGNN 220400Z AUTO 7SM 29/23 A2962 RMK T02900230 IEM_DS3505
ZGNN,2002-07-22 05:00,ZGNN 220500Z AUTO 7SM 29/22 A2959 RMK T02900220 IEM_DS3505
ZGNN,2002-07-22 06:00,ZGNN 220600Z AUTO 00000KT 19SM 30/24 A2959 RMK SLP019 T03030241 57015 IEM_DS3505
ZGNN,2002-07-22 07:00,ZGNN 220700Z AUTO 11006KT 7SM 29/24 A2956 RMK T02900240 IEM_DS3505
ZGNN,2002-07-22 08:00,ZGNN 220800Z AUTO 11004KT 7SM 30/23 A2956 RMK T03000230 IEM_DS3505
ZGNN,2002-07-22 09:00,ZGNN 220900Z AUTO 07004KT 19SM 29/24 A2956 RMK SLP009 T02920244 57010 IEM_DS3505
ZGNN,2002-07-22 10:00,ZGNN 221000Z AUTO 7SM 28/25 A2956 RMK T02800250 IEM_DS3505
ZGNN,2002-07-22 11:00,ZGNN 221100Z AUTO 34004KT 7SM 28/25 A2956 RMK T02800250 IEM_DS3505
ZGNN,2002-07-22 12:00,ZGNN 221200Z AUTO 00000KT 19SM 28/26 A2959 RMK SLP020 T02790257 52010 IEM_DS3505
ZGNN,2002-07-22 13:00,ZGNN 221300Z AUTO 06004KT 7SM 27/25 A2962 RMK T02700250 IEM_DS3505
ZGNN,2002-07-22 14:00,ZGNN 221400Z AUTO 11004KT 6SM 27/24 A2965 RMK T02700240 IEM_DS3505
ZGNN,2002-07-22 15:00,ZGNN 221500Z AUTO 00000KT 16SM 27/24 A2965 RMK SLP039 T02690243 52019 IEM_DS3505
ZGNN,2002-07-22 18:00,ZGNN 221800Z AUTO 00000KT 14SM 26/25 RMK SLP027 T02590246 57011 IEM_DS3505
ZGNN,2002-07-22 19:00,ZGNN 221900Z AUTO 04002KT 4SM 25/24 A2959 RMK T02500240 IEM_DS3505
ZGNN,2002-07-22 20:00,ZGNN 222000Z AUTO 03004KT 7SM 25/23 A2959 RMK T02500230 IEM_DS3505
ZGNN,2002-07-22 21:00,ZGNN 222100Z AUTO 00000KT 12SM 25/24 A2959 RMK SLP024 T02520245 57004 IEM_DS3505
ZGNN,2002-07-22 22:00,ZGNN 222200Z AUTO 04004KT 7SM 25/23 A2959 RMK T02500230 IEM_DS3505
ZGNN,2002-07-22 23:00,ZGNN 222300Z AUTO 05002KT 7SM 25/23 A2959 RMK T02500230 IEM_DS3505
ZGNN,2002-07-23 00:00,ZGNN 230000Z AUTO 11002KT 5SM 26/24 A2962 RMK SLP028 T02580245 52004 IEM_DS3505
ZGNN,2002-07-23 01:00,ZGNN 230100Z AUTO 7SM 26/24 A2962 RMK T02600240 IEM_DS3505
ZGNN,2002-07-23 02:00,ZGNN 230200Z AUTO 7SM 28/24 A2962 RMK T02800240 IEM_DS3505
ZGNN,2002-07-23 03:00,ZGNN 230300Z AUTO 00000KT 15SM 29/26 A2962 RMK SLP025 T02910255 57002 IEM_DS3505
ZGNN,2002-07-23 04:00,ZGNN 230400Z AUTO 7SM 30/24 A2959 RMK T03000240 IEM_DS3505
ZGNN,2002-07-23 05:00,ZGNN 230500Z AUTO 7SM 30/24 A2959 RMK T03000240 IEM_DS3505
ZGNN,2002-07-23 06:00,ZGNN 230600Z AUTO 14002KT 19SM 31/25 A2956 RMK SLP010 T03090247 57015 IEM_DS3505
ZGNN,2002-07-23 07:00,ZGNN 230700Z AUTO 7SM 32/24 A2956 RMK T03200240 IEM_DS3505
ZGNN,2002-07-23 08:00,ZGNN 230800Z AUTO 11006KT 7SM 31/26 A2953 RMK T03100260 IEM_DS3505
ZGNN,2002-07-23 09:00,ZGNN 230900Z AUTO 18004KT 19SM 31/26 A2953 RMK SLP996 T03110258 57014 IEM_DS3505
ZGNN,2002-07-23 10:00,ZGNN 231000Z AUTO 13008KT 7SM 31/25 A2953 RMK T03100250 IEM_DS3505
ZGNN,2002-07-23 11:00,ZGNN 231100Z AUTO 13006KT 7SM 30/25 A2953 RMK T03000250 IEM_DS3505
ZGNN,2002-07-23 12:00,ZGNN 231200Z AUTO 18006KT 17SM 29/25 A2956 RMK SLP013 T02910252 52017 IEM_DS3505
ZGNN,2002-07-23 13:00,ZGNN 231300Z AUTO 13004KT 7SM 28/25 A2956 RMK T02800250 IEM_DS3505
ZGNN,2002-07-23 14:00,ZGNN 231400Z AUTO 12006KT 7SM 27/25 A2959 RMK T02700250 IEM_DS3505
ZGNN,2002-07-23 15:00,ZGNN 231500Z AUTO 14004KT 14SM 28/26 RMK SLP023 T02800256 52010 IEM_DS3505
ZGNN,2002-07-23 18:00,ZGNN 231800Z AUTO 00000KT 11SM 27/26 A2959 RMK 60000 SLP017 T02710257 57006 IEM_DS3505
ZGNN,2002-07-23 20:00,ZGNN 232000Z AUTO 04004KT 4SM 26/24 A2956 RMK T02600240 IEM_DS3505
ZGNN,2002-07-23 21:00,ZGNN 232100Z AUTO 04002KT 9SM 26/26 A2956 RMK 70000 SLP010 T02650255 57007 IEM_DS3505
ZGNN,2002-07-23 22:00,ZGNN 232200Z AUTO 04004KT 7SM 26/24 A2956 RMK T02600240 IEM_DS3505
ZGNN,2002-07-23 23:00,ZGNN 232300Z AUTO 04004KT 7SM 26/24 A2959 RMK T02600240 IEM_DS3505
ZGNN,2002-07-24 00:00,ZGNN 240000Z AUTO 07002KT 5SM 26/26 A2959 RMK 60003 SLP022 T02640256 52012 IEM_DS3505
ZGNN,2002-07-24 01:00,ZGNN 240100Z AUTO 03004KT 7SM 27/25 A2962 RMK T02700250 IEM_DS3505
ZGNN,2002-07-24 02:00,ZGNN 240200Z AUTO 7SM 28/25 A2962 RMK T02800250 IEM_DS3505
ZGNN,2002-07-24 03:00,ZGNN 240300Z AUTO 16002KT 12SM 30/26 RMK SLP026 T02960260 52004 IEM_DS3505
ZGNN,2002-07-24 04:00,ZGNN 240400Z AUTO 7SM 30/25 A2959 RMK T03000250 IEM_DS3505
ZGNN,2002-07-24 05:00,ZGNN 240500Z AUTO 7SM 31/25 A2959 RMK T03100250 IEM_DS3505
ZGNN,2002-07-24 06:00,ZGNN 240600Z AUTO 18008KT 19SM 31/26 A2956 RMK 60003 SLP014 T03080261 57012 IEM_DS3505
ZGNN,2002-07-24 07:00,ZGNN 240700Z AUTO 13006KT 7SM 30/26 A2956 RMK T03000260 IEM_DS3505
ZGNN,2002-07-24 08:00,ZGNN 240800Z AUTO 13004KT 7SM 29/26 A2953 RMK T02900260 IEM_DS3505
ZGNN,2002-07-24 09:00,ZGNN 240900Z AUTO 27006KT 19SM 28/26 A2953 RMK SLP003 T02750263 57011 IEM_DS3505
ZGNN,2002-07-24 10:00,ZGNN 241000Z AUTO 07004KT 7SM 27/25 A2956 RMK T02700250 IEM_DS3505
ZGNN,2002-07-24 11:00,ZGNN 241100Z AUTO 04004KT 7SM 27/25 A2956 RMK T02700250 IEM_DS3505
ZGNN,2002-07-24 12:00,ZGNN 241200Z AUTO 34016KT 16SM 27/26 A2959 RMK 60039 SLP018 T02690259 52014 IEM_DS3505
ZGNN,2002-07-24 13:00,ZGNN 241300Z AUTO 31006KT 1SM 26/25 A2962 RMK T02600250 IEM_DS3505
ZGNN,2002-07-24 14:00,ZGNN 241400Z AUTO 04004KT 7SM 25/24 A2962 RMK T02500240 IEM_DS3505
ZGNN,2002-07-24 15:00,ZGNN 241500Z AUTO 00000KT 6SM 25/25 A2965 RMK SLP037 T02510247 52019 IEM_DS3505
ZGNN,2002-07-24 16:00,ZGNN 241600Z AUTO 26002KT 7SM 25/24 A2962 RMK T02500240 IEM_DS3505
ZGNN,2002-07-24 17:00,ZGNN 241700Z AUTO 00000KT 7SM 25/23 A2962 RMK T02500230 IEM_DS3505
ZGNN,2002-07-24 18:00,ZGNN 241800Z AUTO 00000KT 9SM 25/25 A2962 RMK 60150 SLP021 T02480247 57015 IEM_DS3505
ZGNN,2002-07-24 19:00,ZGNN 241900Z AUTO 00000KT 7SM 25/23 A2959 RMK T02500230 IEM_DS3505
ZGNN,2002-07-24 20:00,ZGNN 242000Z AUTO 22002KT 5SM 25/24 A2956 RMK T02500240 IEM_DS3505
ZGNN,2002-07-24 21:00,ZGNN 242100Z AUTO 00000KT 7SM 25/25 A2956 RMK 70194 SLP009 T02530249 57013 IEM_DS3505
ZGNN,2002-07-24 22:00,ZGNN 242200Z AUTO 7SM 25/24 A2956 RMK T02500240 IEM_DS3505
ZGNN,2002-07-24 23:00,ZGNN 242300Z AUTO 23002KT 5SM 25/24 A2959 RMK T02500240 IEM_DS3505
ZGNN,2002-07-25 00:00,ZGNN 250000Z AUTO 22002KT 5SM 26/25 A2959 RMK 60003 SLP018 T02550249 52009 IEM_DS3505
ZGNN,2002-07-25 01:00,ZGNN 250100Z AUTO 24006KT 7SM 26/24 A2959 RMK T02600240 IEM_DS3505
ZGNN,2002-07-25 02:00,ZGNN 250200Z AUTO 23006KT 7SM 27/24 A2959 RMK T02700240 IEM_DS3505
ZGNN,2002-07-25 03:00,ZGNN 250300Z AUTO 22004KT 19SM 28/26 A2959 RMK T02790255 IEM_DS3505
ZGNN,2002-07-25 04:00,ZGNN 250400Z AUTO 24008KT 7SM 29/25 A2959 RMK T02900250 IEM_DS3505
ZGNN,2002-07-25 05:00,ZGNN 250500Z AUTO 22006KT 7SM 30/25 A2956 RMK T03000250 IEM_DS3505
ZGNN,2002-07-25 06:00,ZGNN 250600Z AUTO 25004KT 19SM 30/25 A2953 RMK SLP002 T03030253 57016 IEM_DS3505
ZGNN,2002-07-25 07:00,ZGNN 250700Z AUTO 19006KT 7SM 31/25 A2950 RMK T03100250 IEM_DS3505
ZGNN,2002-07-25 08:00,ZGNN 250800Z AUTO 22004KT 7SM 30/24 A2950 RMK T03000240 IEM_DS3505
ZGNN,2002-07-25 09:00,ZGNN 250900Z AUTO 32004KT 16SM 27/26 A2950 RMK SLP986 T02690259 57017 IEM_DS3505
ZGNN,2002-07-25 10:00,ZGNN 251000Z AUTO 7SM 27/24 A2950 RMK T02700240 IEM_DS3505
ZGNN,2002-07-25 11:00,ZGNN 251100Z AUTO 7SM 27/25 A2950 RMK T02700250 IEM_DS3505
ZGNN,2002-07-25 12:00,ZGNN 251200Z AUTO 00000KT 7SM 27/26 A2953 RMK 60067 SLP997 T02660258 52011 IEM_DS3505
ZGNN,2002-07-25 13:00,ZGNN 251300Z AUTO 18002KT 6SM 26/24 A2956 RMK T02600240 IEM_DS3505
ZGNN,2002-07-25 14:00,ZGNN 251400Z AUTO 00000KT 6SM 26/24 A2956 RMK T02600240 IEM_DS3505
ZGNN,2002-07-25 15:00,ZGNN 251500Z AUTO 00000KT 5SM 25/24 A2956 RMK SLP012 T02460240 52015 IEM_DS3505
ZGNN,2002-07-25 16:00,ZGNN 251600Z AUTO 26006KT 4SM RMK IEM_DS3505
ZGNN,2002-07-25 17:00,ZGNN 251700Z AUTO 25004KT 3SM 26/24 A2956 RMK T02600240 IEM_DS3505
ZGNN,2002-07-25 18:00,ZGNN 251800Z AUTO 00000KT 5SM 25/24 A2953 RMK 60035 SLP001 T02480245 57010 IEM_DS3505
ZGNN,2002-07-25 19:00,ZGNN 251900Z AUTO 11002KT 2SM 25/24 A2953 RMK T02500240 IEM_DS3505
ZGNN,2002-07-25 20:00,ZGNN 252000Z AUTO 36002KT 2SM 25/24 A2953 RMK T02500240 IEM_DS3505
ZGNN,2002-07-25 21:00,ZGNN 252100Z AUTO 32004KT 4SM 25/24 A2953 RMK 70104 SLP000 T02520243 57002 IEM_DS3505
ZGNN,2002-07-25 22:00,ZGNN 252200Z AUTO 23002KT 4SM 25/24 A2953 RMK T02500240 IEM_DS3505
ZGNN,2002-07-25 23:00,ZGNN 252300Z AUTO 27004KT 5SM 25/24 A2956 RMK T02500240 IEM_DS3505
ZGNN,2002-07-26 00:00,ZGNN 260000Z AUTO 25002KT 8SM 26/25 A2956 RMK 60008 SLP011 T02550248 52011 IEM_DS3505
ZGNN,2002-07-26 01:00,ZGNN 260100Z AUTO 6SM 26/24 A2956 RMK T02600240 IEM_DS3505
ZGNN,2002-07-26 02:00,ZGNN 260200Z AUTO 7SM 29/23 A2956 RMK T02900230 IEM_DS3505
ZGNN,2002-07-26 03:00,ZGNN 260300Z AUTO 36006KT 9SM 30/24 A2956 RMK SLP012 T02960244 52002 IEM_DS3505
ZGNN,2002-07-26 04:00,ZGNN 260400Z AUTO 7SM 30/24 A2956 RMK T03000240 IEM_DS3505
ZGNN,2002-07-26 05:00,ZGNN 260500Z AUTO 7SM 31/23 A2956 RMK T03100230 IEM_DS3505
ZGNN,2002-07-26 06:00,ZGNN 260600Z AUTO 32004KT 11SM 31/24 A2956 RMK SLP006 T03120240 57006 IEM_DS3505
ZGNN,2002-07-26 07:00,ZGNN 260700Z AUTO 7SM 32/23 A2953 RMK T03200230 IEM_DS3505
ZGNN,2002-07-26 08:00,ZGNN 260800Z AUTO 7SM 32/21 A2953 RMK T03200210 IEM_DS3505
ZGNN,2002-07-26 09:00,ZGNN 260900Z AUTO 02004KT 9SM 32/25 A2953 RMK SLP996 T03200247 57010 IEM_DS3505
ZGNN,2002-07-26 10:00,ZGNN 261000Z AUTO 7SM 30/24 A2953 RMK T03000240 IEM_DS3505
ZGNN,2002-07-26 11:00,ZGNN 261100Z AUTO 12004KT 6SM 29/25 A2953 RMK T02900250 IEM_DS3505
ZGNN,2002-07-26 12:00,ZGNN 261200Z AUTO 00000KT 9SM 29/25 A2953 RMK SLP007 T02900254 52011 IEM_DS3505
ZGNN,2002-07-26 13:00,ZGNN 261300Z AUTO 04002KT 6SM 29/23 A2956 RMK T02900230 IEM_DS3505
ZGNN,2002-07-26 14:00,ZGNN 261400Z AUTO 27004KT 6SM 28/25 A2959 RMK T02800250 IEM_DS3505
ZGNN,2002-07-26 15:00,ZGNN 261500Z AUTO 00000KT 9SM 27/26 A2959 RMK SLP022 T02720255 52015 IEM_DS3505
ZGNN,2002-07-26 16:00,ZGNN 261600Z AUTO 17002KT 2 1/2SM 27/25 A2962 RMK T02700250 IEM_DS3505
ZGNN,2002-07-26 17:00,ZGNN 261700Z AUTO 00000KT 2SM 26/25 A2962 RMK T02600250 IEM_DS3505
ZGNN,2002-07-26 18:00,ZGNN 261800Z AUTO 00000KT 7SM 27/25 A2962 RMK SLP025 T02660250 52003 IEM_DS3505
ZGNN,2002-07-26 19:00,ZGNN 261900Z AUTO 23004KT 2 1/2SM 26/24 A2959 RMK T02600240 IEM_DS3505
ZGNN,2002-07-26 20:00,ZGNN 262000Z AUTO 23004KT 2 1/2SM 26/24 A2959 RMK T02600240 IEM_DS3505
ZGNN,2002-07-26 21:00,ZGNN 262100Z AUTO 22004KT 7SM 26/25 A2959 RMK 70007 SLP023 T02580247 57002 IEM_DS3505
ZGNN,2002-07-26 22:00,ZGNN 262200Z AUTO 22004KT 4SM 25/23 A2962 RMK T02500230 IEM_DS3505
ZGNN,2002-07-26 23:00,ZGNN 262300Z AUTO 00000KT 2SM 25/23 A2962 RMK T02500230 IEM_DS3505
ZGNN,2002-07-27 00:00,ZGNN 270000Z AUTO 32010KT 3SM 25/24 A2965 RMK 60003 SLP041 T02490235 52017 IEM_DS3505
ZGNN,2002-07-27 06:00,ZGNN 270600Z AUTO 16002KT 12SM 30/24 A2965 RMK 60020 SLP035 T03030245 57015 IEM_DS3505
ZGNN,2002-07-27 08:00,ZGNN 270800Z AUTO 7SM 32/23 A2962 RMK T03200230 IEM_DS3505
ZGNN,2002-07-27 09:00,ZGNN 270900Z AUTO 32002KT 12SM 29/24 A2962 RMK SLP025 T02900243 57010 IEM_DS3505
ZGNN,2002-07-27 10:00,ZGNN 271000Z AUTO 6SM 30/24 A2962 RMK T03000240 IEM_DS3505
ZGNN,2002-07-27 11:00,ZGNN 271100Z AUTO 14002KT 6SM 29/24 A2962 RMK T02900240 IEM_DS3505
ZGNN,2002-07-27 12:00,ZGNN 271200Z AUTO 00000KT 9SM 29/26 A2965 RMK 60003 SLP039 T02870259 52013 IEM_DS3505
ZGNN,2002-07-27 13:00,ZGNN 271300Z AUTO 00000KT 4SM 28/25 A2968 RMK T02800250 IEM_DS3505
ZGNN,2002-07-27 14:00,ZGNN 271400Z AUTO 33002KT 4SM 27/25 A2968 RMK T02700250 IEM_DS3505
ZGNN,2002-07-27 15:00,ZGNN 271500Z AUTO 00000KT 9SM 26/25 A2971 RMK SLP063 T02630249 52023 IEM_DS3505
ZGNN,2002-07-27 16:00,ZGNN 271600Z AUTO 02004KT 5SM 27/23 A2971 RMK T02700230 IEM_DS3505
ZGNN,2002-07-27 17:00,ZGNN 271700Z AUTO 06002KT 4SM 26/23 A2968 RMK T02600230 IEM_DS3505
ZGNN,2002-07-27 18:00,ZGNN 271800Z AUTO 00000KT 9SM 26/24 A2968 RMK SLP051 T02640237 57010 IEM_DS3505
ZGNN,2002-07-27 19:00,ZGNN 271900Z AUTO 05002KT 3SM 25/23 A2968 RMK T02500230 IEM_DS3505
ZGNN,2002-07-27 20:00,ZGNN 272000Z AUTO 00000KT 3SM 25/23 A2968 RMK T02500230 IEM_DS3505
ZGNN,2002-07-27 21:00,ZGNN 272100Z AUTO 00000KT 7SM 25/24 A2968 RMK 70020 SLP048 T02520241 57004 IEM_DS3505
ZGNN,2002-07-27 22:00,ZGNN 272200Z AUTO 00000KT 7SM 26/23 A2968 RMK T02600230 IEM_DS3505
ZGNN,2002-07-27 23:00,ZGNN 272300Z AUTO 00000KT 7SM 26/23 A2971 RMK T02600230 IEM_DS3505
ZGNN,2002-07-28 00:00,ZGNN 280000Z AUTO 09002KT 6SM 26/24 RMK 70020 SLP062 T02640240 52014 IEM_DS3505
ZGNN,2002-07-28 01:00,ZGNN 280100Z AUTO 04006KT 7SM 27/23 A2974 RMK T02700230 IEM_DS3505
ZGNN,2002-07-28 02:00,ZGNN 280200Z AUTO 04008KT 7SM 27/22 A2974 RMK T02700220 IEM_DS3505
ZGNN,2002-07-28 03:00,ZGNN 280300Z AUTO 04004KT 9SM 26/23 A2974 RMK SLP071 T02650227 52008 IEM_DS3505
ZGNN,2002-07-28 04:00,ZGNN 280400Z AUTO 34004KT 7SM 26/22 A2974 RMK T02600220 IEM_DS3505
ZGNN,2002-07-28 05:00,ZGNN 280500Z AUTO 01010KT 7SM 27/22 A2974 RMK T02700220 IEM_DS3505
ZGNN,2002-07-28 06:00,ZGNN 280600Z AUTO 34006KT 12SM 27/23 A2971 RMK 60003 SLP062 T02680233 57008 IEM_DS3505
ZGNN,2002-07-28 07:00,ZGNN 280700Z AUTO 35006KT 7SM 27/22 A2971 RMK T02700220 IEM_DS3505
ZGNN,2002-07-28 08:00,ZGNN 280800Z AUTO 34006KT 7SM 26/23 A2968 RMK T02600230 IEM_DS3505
ZGNN,2002-07-28 09:00,ZGNN 280900Z AUTO 36008KT 6SM 27/24 A2968 RMK SLP048 T02660240 57015 IEM_DS3505
ZGNN,2002-07-28 10:00,ZGNN 281000Z AUTO 36008KT 7SM 27/23 A2968 RMK T02700230 IEM_DS3505
ZGNN,2002-07-28 11:00,ZGNN 281100Z AUTO 35004KT 7SM 26/23 A2968 RMK T02600230 IEM_DS3505
ZGNN,2002-07-28 12:00,ZGNN 281200Z AUTO 00000KT 6SM 27/24 A2971 RMK SLP057 T02660242 52010 IEM_DS3505
ZGNN,2002-07-28 13:00,ZGNN 281300Z AUTO 35002KT 7SM 26/23 A2971 RMK T02600230 IEM_DS3505
ZGNN,2002-07-28 14:00,ZGNN 281400Z AUTO 36004KT 7SM 26/23 A2971 RMK T02600230 IEM_DS3505
ZGNN,2002-07-28 15:00,ZGNN 281500Z AUTO 00000KT 5SM 26/24 A2974 RMK SLP066 T02590240 52008 IEM_DS3505
ZGNN,2002-07-28 16:00,ZGNN 281600Z AUTO 33002KT 3SM 25/23 A2974 RMK T02500230 IEM_DS3505
ZGNN,2002-07-28 17:00,ZGNN 281700Z AUTO 4SM 25/23 A2971 RMK T02500230 IEM_DS3505
ZGNN,2002-07-28 18:00,ZGNN 281800Z AUTO 00000KT 5SM 25/24 A2971 RMK SLP059 T02520236 57007 IEM_DS3505
ZGNN,2002-07-28 19:00,ZGNN 281900Z AUTO 33002KT 3SM 25/22 A2968 RMK T02500220 IEM_DS3505
ZGNN,2002-07-28 20:00,ZGNN 282000Z AUTO 4SM 25/22 A2968 RMK T02500220 IEM_DS3505
ZGNN,2002-07-28 21:00,ZGNN 282100Z AUTO 34004KT 5SM 25/24 A2968 RMK 70003 SLP049 T02490235 57010 IEM_DS3505
ZGNN,2002-07-28 22:00,ZGNN 282200Z AUTO 36006KT 7SM 25/22 A2968 RMK T02500220 IEM_DS3505
ZGNN,2002-07-28 23:00,ZGNN 282300Z AUTO 35006KT 5SM 25/22 A2968 RMK T02500220 IEM_DS3505
ZGNN,2002-07-29 00:00,ZGNN 290000Z AUTO 34004KT 6SM 26/24 A2971 RMK 70003 SLP055 T02620238 52007 IEM_DS3505
ZGNN,2002-07-29 01:00,ZGNN 290100Z AUTO 01006KT 4SM 28/23 A2971 RMK T02800230 IEM_DS3505
ZGNN,2002-07-29 02:00,ZGNN 290200Z AUTO 04012KT 7SM 28/23 A2971 RMK T02800230 IEM_DS3505
ZGNN,2002-07-29 03:00,ZGNN 290300Z AUTO 18004KT 9SM 30/24 A2971 RMK SLP053 T03010240 57002 IEM_DS3505
ZGNN,2002-07-29 04:00,ZGNN 290400Z AUTO 05012KT 7SM 31/23 A2968 RMK T03100230 IEM_DS3505
ZGNN,2002-07-29 05:00,ZGNN 290500Z AUTO 05010KT 7SM 31/23 A2965 RMK T03100230 IEM_DS3505
ZGNN,2002-07-29 06:00,ZGNN 290600Z AUTO 04006KT 11SM 32/24 A2965 RMK SLP034 T03150243 57018 IEM_DS3505
ZGNN,2002-07-29 07:00,ZGNN 290700Z AUTO 03008KT 7SM 33/24 A2962 RMK T03300240 IEM_DS3505
ZGNN,2002-07-29 08:00,ZGNN 290800Z AUTO 03010KT 7SM 32/23 A2959 RMK T03200230 IEM_DS3505
ZGNN,2002-07-29 09:00,ZGNN 290900Z AUTO 34002KT 9SM 31/24 A2959 RMK SLP016 T03110243 57018 IEM_DS3505
ZGNN,2002-07-29 10:00,ZGNN 291000Z AUTO 04010KT 6SM 30/23 A2956 RMK T03000230 IEM_DS3505
ZGNN,2002-07-29 11:00,ZGNN 291100Z AUTO 03012KT 6SM 29/22 A2959 RMK T02900220 IEM_DS3505
ZGNN,2002-07-29 12:00,ZGNN 291200Z AUTO 02002KT 12SM 28/24 A2959 RMK 60003 SLP017 T02820236 52001 IEM_DS3505
ZGNN,2002-07-29 13:00,ZGNN 291300Z AUTO 03006KT 6SM 27/23 A2959 RMK T02700230 IEM_DS3505
ZGNN,2002-07-29 14:00,ZGNN 291400Z AUTO 02010KT 6SM 28/23 A2962 RMK T02800230 IEM_DS3505
ZGNN,2002-07-29 15:00,ZGNN 291500Z AUTO 0SM A2962 RMK 70012 IEM_DS3505
ZGNN,2002-07-29 16:00,ZGNN 291600Z AUTO 05004KT 3SM 26/23 A2962 RMK T02600230 IEM_DS3505
ZGNN,2002-07-29 17:00,ZGNN 291700Z AUTO 03004KT 3SM 26/23 A2962 RMK T02600230 IEM_DS3505
ZGNN,2002-07-29 18:00,ZGNN 291800Z AUTO 09004KT 12SM 27/24 A2962 RMK SLP024 T02730237 57005 IEM_DS3505
ZGNN,2002-07-29 19:00,ZGNN 291900Z AUTO 06008KT 5SM 26/23 A2959 RMK T02600230 IEM_DS3505
ZGNN,2002-07-29 21:00,ZGNN 292100Z AUTO 02004KT 3SM 25/23 A2959 RMK T02500230 IEM_DS3505
ZGNN,2002-07-29 22:00,ZGNN 292200Z AUTO 04008KT 4SM 25/23 A2959 RMK T02500230 IEM_DS3505
ZGNN,2002-07-30 00:00,ZGNN 300000Z AUTO 09004KT 12SM 26/24 A2959 RMK 60004 SLP023 T02610238 52005 IEM_DS3505
ZGNN,2002-07-30 01:00,ZGNN 300100Z AUTO 06014KT 1 1/2SM 25/23 A2962 RMK T02500230 IEM_DS3505
ZGNN,2002-07-30 02:00,ZGNN 300200Z AUTO 04012KT 1 1/4SM 24/23 A2962 RMK T02400230 IEM_DS3505
ZGNN,2002-07-30 03:00,ZGNN 300300Z AUTO 04004KT 5SM 25/24 A2962 RMK SLP030 T02500243 52007 IEM_DS3505
ZGNN,2002-07-30 04:00,ZGNN 300400Z AUTO 05012KT 7SM 26/23 A2962 RMK T02600230 IEM_DS3505
ZGNN,2002-07-30 05:00,ZGNN 300500Z AUTO 04014KT 7SM 27/24 A2959 RMK T02700240 IEM_DS3505
ZGNN,2002-07-30 06:00,ZGNN 300600Z AUTO 14008KT 6SM 27/25 A2959 RMK 60051 SLP023 T02690246 57007 IEM_DS3505
ZGNN,2002-07-30 07:00,ZGNN 300700Z AUTO 08010KT 7SM 26/23 A2956 RMK T02600230 IEM_DS3505
ZGNN,2002-07-30 08:00,ZGNN 300800Z AUTO 07012KT 7SM 27/23 A2953 RMK T02700230 IEM_DS3505
ZGNN,2002-07-30 09:00,ZGNN 300900Z AUTO 04006KT 16SM 27/25 A2953 RMK SLP005 T02670247 57018 IEM_DS3505
ZGNN,2002-07-30 10:00,ZGNN 301000Z AUTO 07012KT 7SM 26/24 A2953 RMK T02600240 IEM_DS3505
ZGNN,2002-07-30 11:00,ZGNN 301100Z AUTO 08008KT 7SM 25/23 A2956 RMK T02500230 IEM_DS3505
ZGNN,2002-07-30 12:00,ZGNN 301200Z AUTO 09006KT 12SM 25/25 A2956 RMK 60087 SLP012 T02530246 52007 IEM_DS3505
ZGNN,2002-07-30 13:00,ZGNN 301300Z AUTO 07008KT 7SM 25/23 A2959 RMK T02500230 IEM_DS3505
ZGNN,2002-07-30 14:00,ZGNN 301400Z AUTO 08008KT 7SM 25/23 A2959 RMK T02500230 IEM_DS3505
ZGNN,2002-07-30 15:00,ZGNN 301500Z AUTO 09006KT 6SM 25/24 A2962 RMK SLP031 T02530243 52018 IEM_DS3505
ZGNN,2002-07-30 16:00,ZGNN 301600Z AUTO 08008KT 4SM 25/23 A2962 RMK T02500230 IEM_DS3505
ZGNN,2002-07-30 17:00,ZGNN 301700Z AUTO 08008KT 2 1/2SM 25/23 A2962 RMK T02500230 IEM_DS3505
ZGNN,2002-07-30 18:00,ZGNN 301800Z AUTO 14006KT 9SM 25/24 A2959 RMK 60008 SLP024 T02510244 57006 IEM_DS3505
ZGNN,2002-07-30 19:00,ZGNN 301900Z AUTO 09010KT 4SM 25/23 A2959 RMK T02500230 IEM_DS3505
ZGNN,2002-07-30 20:00,ZGNN 302000Z AUTO 7SM 25/24 A2959 RMK T02500240 IEM_DS3505
ZGNN,2002-07-30 21:00,ZGNN 302100Z AUTO 14004KT 2SM 24/24 A2959 RMK 70183 SLP023 T02430236 57001 IEM_DS3505
ZGNN,2002-07-30 22:00,ZGNN 302200Z AUTO 11006KT 7SM 24/22 A2959 RMK T02400220 IEM_DS3505
ZGNN,2002-07-30 23:00,ZGNN 302300Z AUTO 11006KT 7SM 24/22 A2962 RMK T02400220 IEM_DS3505
ZGNN,2002-07-31 00:00,ZGNN 310000Z AUTO 09004KT 3SM 24/24 A2965 RMK 60098 SLP039 T02410238 52015 IEM_DS3505
ZGNN,2002-07-31 01:00,ZGNN 310100Z AUTO 10006KT 7SM 24/22 A2965 RMK T02400220 IEM_DS3505
ZGNN,2002-07-31 02:00,ZGNN 310200Z AUTO 09006KT 5SM 24/23 A2968 RMK T02400230 IEM_DS3505
ZGNN,2002-07-31 03:00,ZGNN 310300Z AUTO 07004KT 3SM 25/24 A2968 RMK SLP049 T02490245 52010 IEM_DS3505
ZGNN,2002-07-31 04:00,ZGNN 310400Z AUTO 08004KT 7SM 26/24 A2968 RMK T02600240 IEM_DS3505
ZGNN,2002-07-31 05:00,ZGNN 310500Z AUTO 09004KT 7SM 27/25 A2965 RMK T02700250 IEM_DS3505
ZGNN,2002-07-31 06:00,ZGNN 310600Z AUTO 14008KT 16SM 28/25 A2965 RMK 60012 SLP037 T02820253 57011 IEM_DS3505
ZGNN,2002-07-31 07:00,ZGNN 310700Z AUTO 7SM 29/24 A2962 RMK T02900240 IEM_DS3505
ZGNN,2002-07-31 08:00,ZGNN 310800Z AUTO 12006KT 7SM 29/24 A2962 RMK T02900240 IEM_DS3505
ZGNN,2002-07-31 09:00,ZGNN 310900Z AUTO 18006KT 19SM 30/25 A2962 RMK SLP035 T02960250 57002 IEM_DS3505
ZGNN,2002-07-31 10:00,ZGNN 311000Z AUTO 16006KT 7SM 29/24 A2962 RMK T02900240 IEM_DS3505
ZGNN,2002-07-31 11:00,ZGNN 311100Z AUTO 12004KT 7SM 28/24 A2962 RMK T02800240 IEM_DS3505
ZGNN,2002-07-31 12:00,ZGNN 311200Z AUTO 00000KT 17SM 27/25 A2965 RMK 60000 SLP040 T02740251 52005 IEM_DS3505
ZGNN,2002-07-31 13:00,ZGNN 311300Z AUTO 05004KT 6SM 26/24 A2965 RMK T02600240 IEM_DS3505
ZGNN,2002-07-31 14:00,ZGNN 311400Z AUTO 04004KT 6SM 26/24 A2971 RMK T02600240 IEM_DS3505
ZGNN,2002-07-31 15:00,ZGNN 311500Z AUTO 00000KT 16SM 26/25 A2971 RMK SLP062 T02590251 52021 IEM_DS3505
ZGNN,2002-07-31 16:00,ZGNN 311600Z AUTO 05002KT 2SM 25/24 A2974 RMK T02500240 IEM_DS3505
ZGNN,2002-07-31 17:00,ZGNN 311700Z AUTO 3SM 25/24 A2971 RMK T02500240 IEM_DS3505
ZGNN,2002-07-31 18:00,ZGNN 311800Z AUTO 00000KT 9SM 25/25 A2971 RMK SLP054 T02510250 57007 IEM_DS3505
ZGNN,2002-07-31 19:00,ZGNN 311900Z AUTO 04002KT 4SM 25/24 A2968 RMK T02500240 IEM_DS3505
ZGNN,2002-07-31 20:00,ZGNN 312000Z AUTO 06004KT 5SM 25/24 A2968 RMK T02500240 IEM_DS3505
ZGNN,2002-07-31 21:00,ZGNN 312100Z AUTO 00000KT 7SM 25/25 A2968 RMK 70072 SLP055 T02510247 52001 IEM_DS3505
ZGNN,2002-07-31 22:00,ZGNN 312200Z AUTO 35002KT 7SM 25/24 A2971 RMK T02500240 IEM_DS3505
ZGNN,2002-07-31 23:00,ZGNN 312300Z AUTO 02004KT 4SM 25/24 A2971 RMK T02500240 IEM_DS3505
ZGNN,2002-08-01 00:00,ZGNN 010000Z AUTO 00000KT 5SM 27/25 A2971 RMK 70013 SLP059 T02660250 52004 IEM_DS3505
ZGNN,2002-08-01 01:00,ZGNN 010100Z AUTO 7SM 26/24 A2971 RMK T02600240 IEM_DS3505
ZGNN,2002-08-01 02:00,ZGNN 010200Z AUTO 7SM 28/25 A2974 RMK T02800250 IEM_DS3505
ZGNN,2002-08-01 03:00,ZGNN 010300Z AUTO 22004KT 15SM 30/25 A2974 RMK SLP068 T02950253 52009 IEM_DS3505
ZGNN,2002-08-01 04:00,ZGNN 010400Z AUTO 7SM 30/24 A2974 RMK T03000240 IEM_DS3505
ZGNN,2002-08-01 05:00,ZGNN 010500Z AUTO 7SM 31/24 A2971 RMK T03100240 IEM_DS3505
ZGNN,2002-08-01 06:00,ZGNN 010600Z AUTO 14004KT 19SM 32/25 A2971 RMK 60003 SLP052 T03170247 57015 IEM_DS3505
ZGNN,2002-08-01 07:00,ZGNN 010700Z AUTO 7SM 32/24 A2965 RMK T03200240 IEM_DS3505
ZGNN,2002-08-01 08:00,ZGNN 010800Z AUTO 11004KT 7SM 32/25 A2962 RMK T03200250 IEM_DS3505
ZGNN,2002-08-01 09:00,ZGNN 010900Z AUTO 36002KT 19SM 32/26 A2962 RMK SLP025 T03250256 57027 IEM_DS3505
ZGNN,2002-08-01 10:00,ZGNN 011000Z AUTO 04004KT 7SM 32/24 A2962 RMK T03200240 IEM_DS3505
ZGNN,2002-08-01 11:00,ZGNN 011100Z AUTO 35004KT 7SM 31/24 A2962 RMK T03100240 IEM_DS3505
ZGNN,2002-08-01 12:00,ZGNN 011200Z AUTO 32004KT 12SM 29/27 A2965 RMK SLP044 T02900267 52018 IEM_DS3505
ZGNN,2002-08-01 13:00,ZGNN 011300Z AUTO 20004KT 7SM 28/25 A2968 RMK T02800250 IEM_DS3505
ZGNN,2002-08-01 14:00,ZGNN 011400Z AUTO 23004KT 7SM 27/25 A2971 RMK T02700250 IEM_DS3505
ZGNN,2002-08-01 15:00,ZGNN 011500Z AUTO 07002KT 12SM 27/26 A2971 RMK SLP058 T02710257 52014 IEM_DS3505
ZGNN,2002-08-01 16:00,ZGNN 011600Z AUTO 00000KT 3SM 26/25 A2971 RMK T02600250 IEM_DS3505
ZGNN,2002-08-01 17:00,ZGNN 011700Z AUTO 23002KT 4SM 26/25 A2971 RMK T02600250 IEM_DS3505
ZGNN,2002-08-01 18:00,ZGNN 011800Z AUTO 00000KT 9SM 26/25 A2971 RMK SLP053 T02580251 57004 IEM_DS3505
ZGNN,2002-08-01 19:00,ZGNN 011900Z AUTO 00000KT 2 1/2SM 26/24 A2968 RMK T02600240 IEM_DS3505
ZGNN,2002-08-01 20:00,ZGNN 012000Z AUTO 2 1/2SM 25/24 A2968 RMK T02500240 IEM_DS3505
ZGNN,2002-08-01 21:00,ZGNN 012100Z AUTO 00000KT 7SM 25/25 A2968 RMK 70003 SLP042 T02500247 57011 IEM_DS3505
ZGNN,2002-08-01 22:00,ZGNN 012200Z AUTO 00000KT 3SM 25/24 A2968 RMK T02500240 IEM_DS3505
ZGNN,2002-08-01 23:00,ZGNN 012300Z AUTO 00000KT 1 1/4SM 25/24 A2971 RMK T02500240 IEM_DS3505
ZGNN,2002-08-02 00:00,ZGNN 020000Z AUTO 00000KT 3/8SM 26/26 A2971 RMK 70003 SLP063 T02590255 52020 IEM_DS3505
ZGNN,2002-08-02 01:00,ZGNN 020100Z AUTO 5SM 28/25 A2974 RMK T02800250 IEM_DS3505
ZGNN,2002-08-02 02:00,ZGNN 020200Z AUTO 7SM 30/26 A2974 RMK T03000260 IEM_DS3505
ZGNN,2002-08-02 03:00,ZGNN 020300Z AUTO 27004KT 7SM 31/26 A2974 RMK SLP061 T03090265 57001 IEM_DS3505
ZGNN,2002-08-02 04:00,ZGNN 020400Z AUTO 22006KT 7SM 32/26 A2971 RMK T03200260 IEM_DS3505
ZGNN,2002-08-02 05:00,ZGNN 020500Z AUTO 7SM 31/24 A2968 RMK T03100240 IEM_DS3505
ZGNN,2002-08-02 06:00,ZGNN 020600Z AUTO 25006KT 9SM 33/26 RMK SLP037 T03320256 57024 IEM_DS3505
ZGNN,2002-08-02 07:00,ZGNN 020700Z AUTO 7SM 34/24 A2962 RMK T03400240 IEM_DS3505
ZGNN,2002-08-02 08:00,ZGNN 020800Z AUTO 7SM 34/23 A2959 RMK T03400230 IEM_DS3505
ZGNN,2002-08-02 09:00,ZGNN 020900Z AUTO 29004KT 9SM 35/25 A2956 RMK SLP011 T03470247 57025 IEM_DS3505
ZGNN,2002-08-02 10:00,ZGNN 021000Z AUTO 00000KT 7SM 34/24 A2956 RMK T03400240 IEM_DS3505
ZGNN,2002-08-02 11:00,ZGNN 021100Z AUTO 08004KT 6SM 32/25 A2956 RMK T03200250 IEM_DS3505
ZGNN,2002-08-02 12:00,ZGNN 021200Z AUTO 00000KT 9SM 30/26 A2959 RMK SLP026 T03000263 52014 IEM_DS3505
ZGNN,2002-08-02 14:00,ZGNN 021400Z AUTO 00000KT 6SM 28/25 A2962 RMK T02800250 IEM_DS3505
ZGNN,2002-08-02 15:00,ZGNN 021500Z AUTO 00000KT 7SM 28/27 A2965 RMK SLP034 T02780267 52008 IEM_DS3505
ZGNN,2002-08-02 16:00,ZGNN 021600Z AUTO 00000KT 3SM 28/26 A2965 RMK T02800260 IEM_DS3505
ZGNN,2002-08-02 17:00,ZGNN 021700Z AUTO 00000KT 3SM 27/25 A2962 RMK T02700250 IEM_DS3505
ZGNN,2002-08-02 18:00,ZGNN 021800Z AUTO 00000KT 7SM 27/26 A2962 RMK SLP022 T02690258 57011 IEM_DS3505
ZGNN,2002-08-02 19:00,ZGNN 021900Z AUTO 00000KT 3SM 27/25 A2962 RMK T02700250 IEM_DS3505
ZGNN,2002-08-02 20:00,ZGNN 022000Z AUTO 25002KT 3SM 27/25 A2959 RMK T02700250 IEM_DS3505
ZGNN,2002-08-02 21:00,ZGNN 022100Z AUTO 00000KT 7SM 26/26 A2959 RMK SLP017 T02620255 57005 IEM_DS3505
ZGNN,2002-08-02 22:00,ZGNN 022200Z AUTO 26006KT 7SM 27/24 A2959 RMK T02700240 IEM_DS3505
ZGNN,2002-08-03 00:00,ZGNN 030000Z AUTO 27004KT 10SM 28/25 A2959 RMK SLP025 T02760248 52007 IEM_DS3505
ZGNN,2002-08-03 01:00,ZGNN 030100Z AUTO 6SM 29/24 A2962 RMK T02900240 IEM_DS3505
ZGNN,2002-08-03 02:00,ZGNN 030200Z AUTO 6SM 31/25 A2965 RMK T03100250 IEM_DS3505
ZGNN,2002-08-03 03:00,ZGNN 030300Z AUTO 34004KT 16SM 32/26 A2962 RMK SLP029 T03170255 52005 IEM_DS3505
ZGNN,2002-08-03 04:00,ZGNN 030400Z AUTO 35006KT 7SM 33/25 A2962 RMK T03300250 IEM_DS3505
ZGNN,2002-08-03 05:00,ZGNN 030500Z AUTO 7SM 33/25 A2959 RMK T03300250 IEM_DS3505
ZGNN,2002-08-03 06:00,ZGNN 030600Z AUTO 00000KT 14SM 34/25 A2953 RMK SLP000 T03400254 57029 IEM_DS3505
ZGNN,2002-08-03 07:00,ZGNN 030700Z AUTO 7SM 35/24 A2950 RMK T03500240 IEM_DS3505
ZGNN,2002-08-03 08:00,ZGNN 030800Z AUTO 7SM 35/24 A2950 RMK T03500240 IEM_DS3505
ZGNN,2002-08-03 09:00,ZGNN 030900Z AUTO 00000KT 12SM 34/26 A2950 RMK SLP985 T03380264 57015 IEM_DS3505
ZGNN,2002-08-03 10:00,ZGNN 031000Z AUTO 21006KT 7SM 32/23 A2950 RMK T03200230 IEM_DS3505
ZGNN,2002-08-03 11:00,ZGNN 031100Z AUTO 21008KT 7SM 30/24 A2950 RMK T03000240 IEM_DS3505
ZGNN,2002-08-03 12:00,ZGNN 031200Z AUTO 00000KT 19SM 30/26 A2950 RMK 60003 SLP993 T02970255 52008 IEM_DS3505
ZGNN,2002-08-03 13:00,ZGNN 031300Z AUTO 16004KT 7SM 28/25 A2953 RMK T02800250 IEM_DS3505
ZGNN,2002-08-03 14:00,ZGNN 031400Z AUTO 24002KT 7SM 28/24 A2956 RMK T02800240 IEM_DS3505
ZGNN,2002-08-03 15:00,ZGNN 031500Z AUTO 14002KT 12SM 28/26 A2956 RMK SLP011 T02780261 52018 IEM_DS3505
ZGNN,2002-08-03 16:00,ZGNN 031600Z AUTO 20004KT 7SM 27/25 A2956 RMK T02700250 IEM_DS3505
ZGNN,2002-08-03 17:00,ZGNN 031700Z AUTO 22004KT 7SM 27/25 A2956 RMK T02700250 IEM_DS3505
ZGNN,2002-08-03 18:00,ZGNN 031800Z AUTO 00000KT 12SM 27/25 A2953 RMK 60002 SLP999 T02700252 57012 IEM_DS3505
ZGNN,2002-08-03 20:00,ZGNN 032000Z AUTO 32002KT 4SM 25/23 A2950 RMK T02500230 IEM_DS3505
ZGNN,2002-08-03 21:00,ZGNN 032100Z AUTO 22004KT 7SM 25/25 A2950 RMK 70026 SLP991 T02520246 57008 IEM_DS3505
ZGNN,2002-08-03 22:00,ZGNN 032200Z AUTO 25004KT 5SM 25/24 A2950 RMK T02500240 IEM_DS3505
ZGNN,2002-08-03 23:00,ZGNN 032300Z AUTO 00000KT 7SM 25/24 A2953 RMK T02500240 IEM_DS3505
ZGNN,2002-08-04 00:00,ZGNN 040000Z AUTO 32004KT 6SM 26/25 A2953 RMK 60024 SLP003 T02580248 52011 IEM_DS3505
ZGNN,2002-08-04 01:00,ZGNN 040100Z AUTO 7SM 27/24 A2956 RMK T02700240 IEM_DS3505
ZGNN,2002-08-04 02:00,ZGNN 040200Z AUTO 7SM 28/24 A2956 RMK T02800240 IEM_DS3505
ZGNN,2002-08-04 03:00,ZGNN 040300Z AUTO 27006KT 16SM 30/25 A2956 RMK SLP004 T02950252 52001 IEM_DS3505
ZGNN,2002-08-04 05:00,ZGNN 040500Z AUTO 33006KT 7SM 30/24 A2950 RMK T03000240 IEM_DS3505
ZGNN,2002-08-04 06:00,ZGNN 040600Z AUTO 32008KT 19SM 30/26 A2950 RMK 60016 SLP984 T03050262 57019 IEM_DS3505
ZGNN,2002-08-04 07:00,ZGNN 040700Z AUTO 7SM 31/24 A2947 RMK T03100240 IEM_DS3505
ZGNN,2002-08-04 08:00,ZGNN 040800Z AUTO 24006KT 7SM 30/25 A2944 RMK T03000250 IEM_DS3505
ZGNN,2002-08-04 09:00,ZGNN 040900Z AUTO 27004KT 16SM 30/26 A2941 RMK SLP961 T03050264 57023 IEM_DS3505
ZGNN,2002-08-04 10:00,ZGNN 041000Z AUTO 23006KT 7SM 31/26 A2941 RMK T03100260 IEM_DS3505
ZGNN,2002-08-04 11:00,ZGNN 041100Z AUTO 24008KT 6SM 30/26 A2944 RMK T03000260 IEM_DS3505
ZGNN,2002-08-04 12:00,ZGNN 041200Z AUTO 04006G23KT 6SM 26/25 RMK 60016 SLP993 T02560253 52030 IEM_DS3505
ZGNN,2002-08-04 13:00,ZGNN 041300Z AUTO 7SM 24/22 A2953 RMK T02400220 IEM_DS3505
ZGNN,2002-08-04 14:00,ZGNN 041400Z AUTO 24006KT 7SM 24/23 A2953 RMK T02400230 IEM_DS3505
ZGNN,2002-08-04 15:00,ZGNN 041500Z AUTO 25004KT 6SM 24/23 A2953 RMK SLP999 T02370234 52007 IEM_DS3505
ZGNN,2002-08-04 16:00,ZGNN 041600Z AUTO 25006KT 7SM 24/22 A2953 RMK T02400220 IEM_DS3505
ZGNN,2002-08-04 17:00,ZGNN 041700Z AUTO 23006KT 7SM 24/22 A2950 RMK T02400220 IEM_DS3505
ZGNN,2002-08-04 18:00,ZGNN 041800Z AUTO 29006KT 6SM 24/24 A2947 RMK 60067 SLP984 T02390235 57015 IEM_DS3505
ZGNN,2002-08-04 19:00,ZGNN 041900Z AUTO 19002KT 7SM 24/23 A2947 RMK T02400230 IEM_DS3505
ZGNN,2002-08-04 21:00,ZGNN 042100Z AUTO 22004KT 7SM 24/24 A2944 RMK 70098 SLP975 T02410240 57009 IEM_DS3505
ZGNN,2002-08-04 22:00,ZGNN 042200Z AUTO 22004KT 7SM 24/22 A2947 RMK T02400220 IEM_DS3505
ZGNN,2002-08-04 23:00,ZGNN 042300Z AUTO 24004KT 6SM 24/23 A2947 RMK T02400230 IEM_DS3505
ZGNN,2002-08-05 00:00,ZGNN 050000Z AUTO 27004KT 9SM 25/24 A2947 RMK 70097 SLP986 T02470243 52010 IEM_DS3505
ZGNN,2002-08-05 01:00,ZGNN 050100Z AUTO 23006KT 7SM 27/24 A2950 RMK T02700240 IEM_DS3505
ZGNN,2002-08-05 03:00,ZGNN 050300Z AUTO 29006KT 16SM 30/26 A2950 RMK SLP990 T03000263 52005 IEM_DS3505
ZGNN,2002-08-05 04:00,ZGNN 050400Z AUTO 6SM 31/25 A2947 RMK T03100250 IEM_DS3505
ZGNN,2002-08-05 05:00,ZGNN 050500Z AUTO 7SM 33/25 A2947 RMK T03300250 IEM_DS3505
ZGNN,2002-08-05 06:00,ZGNN 050600Z AUTO 7SM 34/25 A2944 RMK T03400250 IEM_DS3505
ZGNN,2002-08-05 07:00,ZGNN 050700Z AUTO 7SM 34/24 A2941 RMK T03400240 IEM_DS3505
ZGNN,2002-08-05 08:00,ZGNN 050800Z AUTO 7SM 33/24 A2938 RMK T03300240 IEM_DS3505
ZGNN,2002-08-05 09:00,ZGNN 050900Z AUTO 27004KT 16SM 34/26 A2938 RMK SLP951 T03430255 57023 IEM_DS3505
ZGNN,2002-08-05 10:00,ZGNN 051000Z AUTO 6SM 33/25 A2938 RMK T03300250 IEM_DS3505
ZGNN,2002-08-05 11:00,ZGNN 051100Z AUTO 14004KT 6SM 32/26 A2941 RMK T03200260 IEM_DS3505
ZGNN,2002-08-05 12:00,ZGNN 051200Z AUTO 20004KT 14SM 31/28 A2944 RMK SLP968 T03130281 52017 IEM_DS3505
ZGNN,2002-08-05 13:00,ZGNN 051300Z AUTO 25002KT 6SM 30/27 A2947 RMK T03000270 IEM_DS3505
ZGNN,2002-08-05 14:00,ZGNN 051400Z AUTO 00000KT 6SM 29/26 A2947 RMK T02900260 IEM_DS3505
ZGNN,2002-08-05 15:00,ZGNN 051500Z AUTO 00000KT 12SM 29/28 A2950 RMK SLP991 T02910275 52023 IEM_DS3505
ZGNN,2002-08-05 16:00,ZGNN 051600Z AUTO 18002KT 5SM 28/26 A2950 RMK T02800260 IEM_DS3505
ZGNN,2002-08-05 17:00,ZGNN 051700Z AUTO 00000KT 3SM 27/26 A2950 RMK T02700260 IEM_DS3505
ZGNN,2002-08-05 18:00,ZGNN 051800Z AUTO 00000KT 10SM 28/27 A2947 RMK SLP983 T02750267 57008 IEM_DS3505
ZGNN,2002-08-05 19:00,ZGNN 051900Z AUTO 16002KT 3SM 27/26 A2947 RMK T02700260 IEM_DS3505
ZGNN,2002-08-05 20:00,ZGNN 052000Z AUTO 00000KT 2 1/2SM 27/25 A2947 RMK T02700250 IEM_DS3505
ZGNN,2002-08-05 21:00,ZGNN 052100Z AUTO 00000KT 7SM 27/26 A2947 RMK SLP977 T02670261 57005 IEM_DS3505
ZGNN,2002-08-05 22:00,ZGNN 052200Z AUTO 00000KT 2 1/2SM 26/25 A2947 RMK T02600250 IEM_DS3505
ZGNN,2002-08-05 23:00,ZGNN 052300Z AUTO 00000KT 1SM 26/25 A2947 RMK T02600250 IEM_DS3505
ZGNN,2002-08-06 00:00,ZGNN 060000Z AUTO 18002KT 4SM 27/26 A2950 RMK SLP987 T02740262 52009 IEM_DS3505
ZGNN,2002-08-06 01:00,ZGNN 060100Z AUTO 22002KT 4SM 28/26 A2950 RMK T02800260 IEM_DS3505
ZGNN,2002-08-06 02:00,ZGNN 060200Z AUTO 6SM 30/26 A2953 RMK T03000260 IEM_DS3505
ZGNN,2002-08-06 03:00,ZGNN 060300Z AUTO 22006KT 5SM 31/28 A2953 RMK SLP999 T03110276 52012 IEM_DS3505
ZGNN,2002-08-06 04:00,ZGNN 060400Z AUTO 7SM 32/26 A2950 RMK T03200260 IEM_DS3505
ZGNN,2002-08-06 05:00,ZGNN 060500Z AUTO 7SM 33/26 A2950 RMK T03300260 IEM_DS3505
ZGNN,2002-08-06 06:00,ZGNN 060600Z AUTO 18004KT 7SM 33/27 A2947 RMK SLP983 T03320271 57016 IEM_DS3505
ZGNN,2002-08-06 07:00,ZGNN 060700Z AUTO 7SM 33/27 A2947 RMK T03300270 IEM_DS3505
ZGNN,2002-08-06 08:00,ZGNN 060800Z AUTO 12008KT 7SM 32/27 A2944 RMK T03200270 IEM_DS3505
ZGNN,2002-08-06 09:00,ZGNN 060900Z AUTO 14004KT 11SM 31/27 A2944 RMK SLP973 T03070269 57010 IEM_DS3505
ZGNN,2002-08-06 10:00,ZGNN 061000Z AUTO 12006KT 7SM 30/26 A2947 RMK T03000260 IEM_DS3505
ZGNN,2002-08-06 11:00,ZGNN 061100Z AUTO 7SM 30/26 A2950 RMK T03000260 IEM_DS3505
ZGNN,2002-08-06 12:00,ZGNN 061200Z AUTO 14002KT 11SM 29/27 A2953 RMK SLP995 T02940268 52021 IEM_DS3505
ZGNN,2002-08-06 13:00,ZGNN 061300Z AUTO 12004KT 7SM 28/25 A2953 RMK T02800250 IEM_DS3505
ZGNN,2002-08-06 14:00,ZGNN 061400Z AUTO 08002KT 7SM 27/25 A2956 RMK T02700250 IEM_DS3505
ZGNN,2002-08-06 15:00,ZGNN 061500Z AUTO 04002KT 9SM 28/26 RMK SLP024 T02770263 52029 IEM_DS3505
ZGNN,2002-08-06 18:00,ZGNN 061800Z AUTO 07002KT 7SM 27/26 A2959 RMK SLP020 T02720262 57003 IEM_DS3505
ZGNN,2002-08-06 19:00,ZGNN 061900Z AUTO 09002KT 7SM 27/25 A2959 RMK T02700250 IEM_DS3505
ZGNN,2002-08-06 20:00,ZGNN 062000Z AUTO 03004KT 7SM 26/25 A2956 RMK T02600250 IEM_DS3505
ZGNN,2002-08-06 21:00,ZGNN 062100Z AUTO 00000KT 6SM 27/26 RMK SLP010 T02670256 57011 IEM_DS3505
ZGNN,2002-08-06 22:00,ZGNN 062200Z AUTO 03004KT 4SM 26/25 A2956 RMK T02600250 IEM_DS3505
ZGNN,2002-08-06 23:00,ZGNN 062300Z AUTO 07002KT 4SM 26/25 A2959 RMK T02600250 IEM_DS3505
ZGNN,2002-08-07 00:00,ZGNN 070000Z AUTO 36002KT 4SM 27/25 A2962 RMK SLP026 T02670250 52016 IEM_DS3505
ZGNN,2002-08-07 01:00,ZGNN 070100Z AUTO 05004KT 7SM 27/25 A2962 RMK T02700250 IEM_DS3505
ZGNN,2002-08-07 02:00,ZGNN 070200Z AUTO 7SM 29/25 A2962 RMK T02900250 IEM_DS3505
ZGNN,2002-08-07 03:00,ZGNN 070300Z AUTO 00000KT 6SM 30/26 A2962 RMK SLP032 T02990263 52006 IEM_DS3505
ZGNN,2002-08-07 04:00,ZGNN 070400Z AUTO 7SM 31/26 A2962 RMK T03100260 IEM_DS3505
ZGNN,2002-08-07 05:00,ZGNN 070500Z AUTO 7SM 31/26 A2959 RMK T03100260 IEM_DS3505
ZGNN,2002-08-07 06:00,ZGNN 070600Z AUTO 09004KT 16SM 28/23 A2959 RMK SLP023 T02770232 57009 IEM_DS3505
ZGNN,2002-08-07 07:00,ZGNN 070700Z AUTO 7SM 27/23 A2956 RMK T02700230 IEM_DS3505
ZGNN,2002-08-07 08:00,ZGNN 070800Z AUTO 08002KT 7SM 27/24 A2956 RMK T02700240 IEM_DS3505
ZGNN,2002-08-07 09:00,ZGNN 070900Z AUTO 09004KT 9SM 27/24 A2956 RMK SLP016 T02690243 57008 IEM_DS3505
ZGNN,2002-08-07 11:00,ZGNN 071100Z AUTO 7SM 26/24 A2959 RMK T02600240 IEM_DS3505
ZGNN,2002-08-07 12:00,ZGNN 071200Z AUTO 00000KT 5SM 26/25 A2962 RMK 60000 SLP025 T02600247 52009 IEM_DS3505
ZGNN,2002-08-07 13:00,ZGNN 071300Z AUTO 7SM 25/24 A2962 RMK T02500240 IEM_DS3505
ZGNN,2002-08-07 14:00,ZGNN 071400Z AUTO 23002KT 7SM 26/24 A2965 RMK T02600240 IEM_DS3505
ZGNN,2002-08-07 15:00,ZGNN 071500Z AUTO 00000KT 6SM 26/25 A2965 RMK SLP044 T02550248 52019 IEM_DS3505
ZGNN,2002-08-07 16:00,ZGNN 071600Z AUTO 06002KT 3SM 25/24 A2965 RMK T02500240 IEM_DS3505
ZGNN,2002-08-07 17:00,ZGNN 071700Z AUTO 35004KT 3SM 25/24 A2965 RMK T02500240 IEM_DS3505
ZGNN,2002-08-07 18:00,ZGNN 071800Z AUTO 00000KT 6SM 25/24 A2962 RMK 60000 SLP035 T02530243 57009 IEM_DS3505
ZGNN,2002-08-07 19:00,ZGNN 071900Z AUTO 06002KT 2 1/2SM 25/23 A2962 RMK T02500230 IEM_DS3505
ZGNN,2002-08-07 20:00,ZGNN 072000Z AUTO 00000KT 2SM 25/23 A2962 RMK T02500230 IEM_DS3505
ZGNN,2002-08-07 21:00,ZGNN 072100Z AUTO 18002KT 6SM 25/25 A2962 RMK 70001 SLP029 T02510247 57006 IEM_DS3505
ZGNN,2002-08-07 22:00,ZGNN 072200Z AUTO 00000KT 4SM 25/24 A2962 RMK T02500240 IEM_DS3505
ZGNN,2002-08-07 23:00,ZGNN 072300Z AUTO 20002KT 1 1/4SM 25/24 A2965 RMK T02500240 IEM_DS3505
ZGNN,2002-08-08 00:00,ZGNN 080000Z AUTO 00000KT 3SM 26/25 A2965 RMK 70001 SLP041 T02570248 52012 IEM_DS3505
ZGNN,2002-08-08 01:00,ZGNN 080100Z AUTO 3SM 27/24 A2965 RMK T02700240 IEM_DS3505
ZGNN,2002-08-08 02:00,ZGNN 080200Z AUTO 4SM 28/24 A2968 RMK T02800240 IEM_DS3505
ZGNN,2002-08-08 03:00,ZGNN 080300Z AUTO 14004KT 5SM 29/25 A2965 RMK SLP044 T02890250 52003 IEM_DS3505
ZGNN,2002-08-08 04:00,ZGNN 080400Z AUTO 7SM 29/25 A2965 RMK T02900250 IEM_DS3505
ZGNN,2002-08-08 05:00,ZGNN 080500Z AUTO 14002KT 7SM 28/25 A2965 RMK T02800250 IEM_DS3505
ZGNN,2002-08-08 06:00,ZGNN 080600Z AUTO 22004KT 5SM 30/25 A2959 RMK SLP022 T03030254 57021 IEM_DS3505
ZGNN,2002-08-08 07:00,ZGNN 080700Z AUTO 7SM 31/25 A2959 RMK T03100250 IEM_DS3505
ZGNN,2002-08-08 08:00,ZGNN 080800Z AUTO 7SM 31/24 A2956 RMK T03100240 IEM_DS3505
ZGNN,2002-08-08 09:00,ZGNN 080900Z AUTO 09004KT 4SM 28/25 A2956 RMK SLP010 T02810254 57013 IEM_DS3505
ZGNN,2002-08-08 10:00,ZGNN 081000Z AUTO 05004KT 7SM 28/24 A2956 RMK T02800240 IEM_DS3505
ZGNN,2002-08-08 11:00,ZGNN 081100Z AUTO 13008KT 7SM 28/24 A2959 RMK T02800240 IEM_DS3505
ZGNN,2002-08-08 12:00,ZGNN 081200Z AUTO 16002KT 12SM 27/25 A2959 RMK 60003 SLP023 T02740249 52013 IEM_DS3505
ZGNN,2002-08-08 13:00,ZGNN 081300Z AUTO 06004KT 7SM 26/24 A2962 RMK T02600240 IEM_DS3505
ZGNN,2002-08-08 14:00,ZGNN 081400Z AUTO 03002KT 7SM 26/25 A2965 RMK T02600250 IEM_DS3505
ZGNN,2002-08-08 15:00,ZGNN 081500Z AUTO 22002KT 11SM 27/26 A2965 RMK SLP040 T02700257 52018 IEM_DS3505
ZGNN,2002-08-08 16:00,ZGNN 081600Z AUTO 7SM 26/24 A2965 RMK T02600240 IEM_DS3505
ZGNN,2002-08-08 17:00,ZGNN 081700Z AUTO 00000KT 6SM 26/24 A2962 RMK T02600240 IEM_DS3505
ZGNN,2002-08-08 18:00,ZGNN 081800Z AUTO 00000KT 7SM 26/25 A2962 RMK 60002 SLP030 T02570248 57010 IEM_DS3505
ZGNN,2002-08-08 19:00,ZGNN 081900Z AUTO 12002KT 4SM 25/24 A2962 RMK T02500240 IEM_DS3505
ZGNN,2002-08-08 20:00,ZGNN 082000Z AUTO 00000KT 7SM 25/24 A2962 RMK T02500240 IEM_DS3505
ZGNN,2002-08-08 21:00,ZGNN 082100Z AUTO 00000KT 6SM 26/25 A2962 RMK 70002 SLP026 T02570248 57005 IEM_DS3505
ZGNN,2002-08-08 22:00,ZGNN 082200Z AUTO 00000KT 7SM 25/24 A2962 RMK T02500240 IEM_DS3505
ZGNN,2002-08-08 23:00,ZGNN 082300Z AUTO 06004KT 4SM 25/24 A2962 RMK T02500240 IEM_DS3505
ZGNN,2002-08-09 00:00,ZGNN 090000Z AUTO 00000KT 4SM 26/25 A2965 RMK 70002 SLP039 T02590248 52013 IEM_DS3505
ZGNN,2002-08-09 01:00,ZGNN 090100Z AUTO 10002KT 7SM 26/24 A2965 RMK T02600240 IEM_DS3505
ZGNN,2002-08-09 02:00,ZGNN 090200Z AUTO 06004KT 7SM 27/25 A2965 RMK T02700250 IEM_DS3505
ZGNN,2002-08-09 03:00,ZGNN 090300Z AUTO 09002KT 7SM 27/25 A2965 RMK SLP045 T02720254 52006 IEM_DS3505
ZGNN,2002-08-09 04:00,ZGNN 090400Z AUTO 07008KT 7SM 28/24 A2965 RMK T02800240 IEM_DS3505
ZGNN,2002-08-09 05:00,ZGNN 090500Z AUTO 06008KT 7SM 27/25 A2965 RMK T02700250 IEM_DS3505
ZGNN,2002-08-09 06:00,ZGNN 090600Z AUTO 09008KT 9SM 28/24 A2962 RMK 60003 SLP030 T02800243 57015 IEM_DS3505
ZGNN,2002-08-09 07:00,ZGNN 090700Z AUTO 08008KT 7SM 28/24 A2962 RMK T02800240 IEM_DS3505
ZGNN,2002-08-09 08:00,ZGNN 090800Z AUTO 08006KT 7SM 27/24 A2962 RMK T02700240 IEM_DS3505
ZGNN,2002-08-09 09:00,ZGNN 090900Z AUTO 09006KT 9SM 28/24 A2959 RMK SLP020 T02810243 57010 IEM_DS3505
ZGNN,2002-08-09 10:00,ZGNN 091000Z AUTO 10006KT 7SM 27/24 A2962 RMK T02700240 IEM_DS3505
ZGNN,2002-08-09 11:00,ZGNN 091100Z AUTO 09004KT 7SM 27/24 A2962 RMK T02700240 IEM_DS3505
ZGNN,2002-08-09 12:00,ZGNN 091200Z AUTO 04002KT 9SM 26/24 A2965 RMK SLP038 T02650241 52018 IEM_DS3505
ZGNN,2002-08-09 13:00,ZGNN 091300Z AUTO 07002KT 7SM 25/23 A2968 RMK T02500230 IEM_DS3505
ZGNN,2002-08-09 14:00,ZGNN 091400Z AUTO 06004KT 7SM 26/23 A2968 RMK T02600230 IEM_DS3505
ZGNN,2002-08-09 15:00,ZGNN 091500Z AUTO 00000KT 9SM 26/25 A2971 RMK SLP054 T02590246 52016 IEM_DS3505
ZGNN,2002-08-09 16:00,ZGNN 091600Z AUTO 00000KT 5SM 26/24 A2971 RMK T02600240 IEM_DS3505
ZGNN,2002-08-09 17:00,ZGNN 091700Z AUTO 06002KT 3SM 25/24 A2971 RMK T02500240 IEM_DS3505
ZGNN,2002-08-09 18:00,ZGNN 091800Z AUTO 00000KT 7SM 26/24 A2968 RMK SLP046 T02550245 57008 IEM_DS3505
ZGNN,2002-08-09 19:00,ZGNN 091900Z AUTO 05002KT 1 1/2SM 25/24 A2968 RMK T02500240 IEM_DS3505
ZGNN,2002-08-09 20:00,ZGNN 092000Z AUTO 04002KT 1SM 25/24 A2965 RMK T02500240 IEM_DS3505
ZGNN,2002-08-09 21:00,ZGNN 092100Z AUTO 04002KT 5SM 25/24 A2965 RMK 70003 SLP043 T02520241 57003 IEM_DS3505
ZGNN,2002-08-09 22:00,ZGNN 092200Z AUTO 08006KT 2 1/2SM 25/23 A2965 RMK T02500230 IEM_DS3505
ZGNN,2002-08-09 23:00,ZGNN 092300Z AUTO 06004KT 2 1/2SM 25/23 A2968 RMK T02500230 IEM_DS3505
ZGNN,2002-08-10 00:00,ZGNN 100000Z AUTO 04004KT 4SM 25/23 A2968 RMK 60003 SLP051 T02540234 52007 IEM_DS3505
ZGNN,2002-08-10 01:00,ZGNN 100100Z AUTO 06008KT 4SM 26/23 A2971 RMK T02600230 IEM_DS3505
ZGNN,2002-08-10 02:00,ZGNN 100200Z AUTO 07008KT 5SM 27/23 A2971 RMK T02700230 IEM_DS3505
ZGNN,2002-08-10 03:00,ZGNN 100300Z AUTO 09004KT 5SM 27/24 A2971 RMK SLP055 T02730240 52005 IEM_DS3505
ZGNN,2002-08-10 04:00,ZGNN 100400Z AUTO 07006KT 4SM 27/23 A2971 RMK T02700230 IEM_DS3505
ZGNN,2002-08-10 05:00,ZGNN 100500Z AUTO 02006KT 1 1/2SM 25/24 A2968 RMK T02500240 IEM_DS3505
ZGNN,2002-08-10 06:00,ZGNN 100600Z AUTO 09002KT 3SM 26/25 A2968 RMK 60079 SLP049 T02630252 57007 IEM_DS3505
ZGNN,2002-08-10 06:06,ZGNN 100606Z AUTO 07006KT 1SM 26/24 A2968 RMK T02600240 IEM_DS3505
ZGNN,2002-08-10 07:00,ZGNN 100700Z AUTO 07010KT 4SM 27/24 A2965 RMK T02700240 IEM_DS3505
ZGNN,2002-08-10 08:00,ZGNN 100800Z AUTO 06010KT 4SM 26/24 A2965 RMK T02600240 IEM_DS3505
ZGNN,2002-08-10 09:00,ZGNN 100900Z AUTO 09006KT 3SM 26/25 A2965 RMK SLP041 T02630249 57007 IEM_DS3505
ZGNN,2002-08-10 10:00,ZGNN 101000Z AUTO 07008KT 2 1/2SM 26/23 A2965 RMK T02600230 IEM_DS3505
ZGNN,2002-08-10 11:00,ZGNN 101100Z AUTO 07004KT 2SM 25/23 A2968 RMK T02500230 IEM_DS3505
ZGNN,2002-08-10 12:00,ZGNN 101200Z AUTO 04004KT 4SM 25/25 RMK 60028 SLP059 T02500246 52017 IEM_DS3505
ZGNN,2002-08-10 13:00,ZGNN 101300Z AUTO 07006KT 2 1/2SM 25/23 A2974 RMK T02500230 IEM_DS3505
ZGNN,2002-08-10 14:00,ZGNN 101400Z AUTO 06006KT 2SM 25/23 A2974 RMK T02500230 IEM_DS3505
ZGNN,2002-08-10 15:00,ZGNN 101500Z AUTO 07002KT 4SM 25/24 A2974 RMK SLP073 T02500241 52014 IEM_DS3505
ZGNN,2002-08-10 16:00,ZGNN 101600Z AUTO 07008KT 1 1/2SM 25/23 A2974 RMK T02500230 IEM_DS3505
ZGNN,2002-08-10 17:00,ZGNN 101700Z AUTO 08008KT 1 1/2SM 25/23 A2974 RMK T02500230 IEM_DS3505
ZGNN,2002-08-10 18:00,ZGNN 101800Z AUTO 09004KT 5SM 25/24 A2974 RMK 60008 SLP068 T02480242 57005 IEM_DS3505
ZGNN,2002-08-10 19:00,ZGNN 101900Z AUTO 08006KT 2SM 25/23 A2971 RMK T02500230 IEM_DS3505
ZGNN,2002-08-10 20:00,ZGNN 102000Z AUTO 08006KT 2 1/2SM 25/23 A2971 RMK T02500230 IEM_DS3505
ZGNN,2002-08-10 21:00,ZGNN 102100Z AUTO 09006KT 5SM 25/24 A2971 RMK 70116 SLP063 T02510241 57005 IEM_DS3505
ZGNN,2002-08-10 22:00,ZGNN 102200Z AUTO 08006KT 2SM 24/23 A2974 RMK T02400230 IEM_DS3505
ZGNN,2002-08-10 23:00,ZGNN 102300Z AUTO 09004KT 2 1/2SM 25/23 A2974 RMK T02500230 IEM_DS3505
ZGNN,2002-08-11 00:00,ZGNN 110000Z AUTO 07004KT 2 1/2SM 25/24 RMK 60016 SLP075 T02470243 52012 IEM_DS3505
ZGNN,2002-08-11 03:00,ZGNN 110300Z AUTO 09008KT 2SM 26/25 A2980 RMK SLP087 T02590246 52012 IEM_DS3505
ZGNN,2002-08-11 04:00,ZGNN 110400Z AUTO 13006KT 7SM 25/24 A2980 RMK T02500240 IEM_DS3505
ZGNN,2002-08-11 05:00,ZGNN 110500Z AUTO 14004KT 7SM 25/23 A2977 RMK T02500230 IEM_DS3505
ZGNN,2002-08-11 06:00,ZGNN 110600Z AUTO 09002KT 19SM 26/25 A2977 RMK 60016 SLP078 T02600247 57009 IEM_DS3505
ZGNN,2002-08-11 07:00,ZGNN 110700Z AUTO 7SM 26/23 A2977 RMK T02600230 IEM_DS3505
ZGNN,2002-08-11 08:00,ZGNN 110800Z AUTO 7SM 27/24 A2974 RMK T02700240 IEM_DS3505
ZGNN,2002-08-11 09:00,ZGNN 110900Z AUTO 07002KT 19SM 26/24 A2974 RMK SLP071 T02600241 57007 IEM_DS3505
ZGNN,2002-08-11 10:00,ZGNN 111000Z AUTO 06006KT 7SM 26/23 A2974 RMK T02600230 IEM_DS3505
ZGNN,2002-08-11 11:00,ZGNN 111100Z AUTO 08004KT 7SM 25/23 A2974 RMK T02500230 IEM_DS3505
ZGNN,2002-08-11 12:00,ZGNN 111200Z AUTO 16002KT 12SM 26/24 A2977 RMK 60003 SLP083 T02550242 52012 IEM_DS3505
ZGNN,2002-08-11 13:00,ZGNN 111300Z AUTO 10004KT 4SM 25/23 A2980 RMK T02500230 IEM_DS3505
ZGNN,2002-08-11 14:00,ZGNN 111400Z AUTO 06004KT 4SM 25/23 A2983 RMK T02500230 IEM_DS3505
ZGNN,2002-08-11 15:00,ZGNN 111500Z AUTO 08004KT 4SM 25/23 A2983 RMK T02500230 IEM_DS3505
ZGNN,2002-08-11 16:00,ZGNN 111600Z AUTO 07004KT 4SM 25/23 A2983 RMK T02500230 IEM_DS3505
ZGNN,2002-08-11 17:00,ZGNN 111700Z AUTO 3SM 25/23 A2983 RMK T02500230 IEM_DS3505
ZGNN,2002-08-11 18:00,ZGNN 111800Z AUTO 04002KT 9SM 25/24 A2980 RMK 60003 SLP094 T02500238 57007 IEM_DS3505
ZGNN,2002-08-11 19:00,ZGNN 111900Z AUTO 06004KT 2 1/2SM 24/23 A2980 RMK T02400230 IEM_DS3505
ZGNN,2002-08-11 20:00,ZGNN 112000Z AUTO 07004KT 2 1/2SM 24/23 A2980 RMK T02400230 IEM_DS3505
ZGNN,2002-08-11 21:00,ZGNN 112100Z AUTO 04002KT 7SM 25/24 A2977 RMK 70031 SLP077 T02480242 57017 IEM_DS3505
ZGNN,2002-08-11 22:00,ZGNN 112200Z AUTO 05002KT 1 1/2SM 24/23 A2977 RMK T02400230 IEM_DS3505
ZGNN,2002-08-11 23:00,ZGNN 112300Z AUTO 05002KT 2SM 25/23 A2977 RMK T02500230 IEM_DS3505
ZGNN,2002-08-12 00:00,ZGNN 120000Z AUTO 09004KT 2SM 25/24 A2980 RMK 60001 SLP093 T02540245 52016 IEM_DS3505
ZGNN,2002-08-12 01:00,ZGNN 120100Z AUTO 5SM 26/24 A2980 RMK T02600240 IEM_DS3505
ZGNN,2002-08-12 02:00,ZGNN 120200Z AUTO 10006KT 7SM 27/24 A2983 RMK T02700240 IEM_DS3505
ZGNN,2002-08-12 03:00,ZGNN 120300Z AUTO 11002KT 9SM 28/25 A2983 RMK SLP096 T02770249 52003 IEM_DS3505
ZGNN,2002-08-12 04:00,ZGNN 120400Z AUTO 13006KT 7SM 28/24 A2980 RMK T02800240 IEM_DS3505
ZGNN,2002-08-12 05:00,ZGNN 120500Z AUTO 13008KT 7SM 28/24 A2980 RMK T02800240 IEM_DS3505
ZGNN,2002-08-12 06:00,ZGNN 120600Z AUTO 14004KT 12SM 30/25 A2977 RMK 60000 SLP079 T02980253 57016 IEM_DS3505
ZGNN,2002-08-12 07:00,ZGNN 120700Z AUTO 08008G17KT 1 1/2SM 26/24 A2977 RMK T02600240 IEM_DS3505
ZGNN,2002-08-12 08:00,ZGNN 120800Z AUTO 21006KT 7SM 26/24 A2977 RMK T02600240 IEM_DS3505
ZGNN,2002-08-12 09:00,ZGNN 120900Z AUTO 00000KT 19SM 26/25 A2974 RMK SLP068 T02640248 57012 IEM_DS3505
ZGNN,2002-08-12 10:00,ZGNN 121000Z AUTO 6SM 27/24 A2974 RMK T02700240 IEM_DS3505
ZGNN,2002-08-12 11:00,ZGNN 121100Z AUTO 07002KT 6SM 27/24 A2977 RMK T02700240 IEM_DS3505
ZGNN,2002-08-12 12:00,ZGNN 121200Z AUTO 00000KT 12SM 26/25 A2980 RMK 60012 SLP087 T02640254 52019 IEM_DS3505
ZGNN,2002-08-12 13:00,ZGNN 121300Z AUTO 00000KT 6SM 26/24 A2980 RMK T02600240 IEM_DS3505
ZGNN,2002-08-12 14:00,ZGNN 121400Z AUTO 05004KT 6SM 26/24 A2980 RMK T02600240 IEM_DS3505
ZGNN,2002-08-12 15:00,ZGNN 121500Z AUTO 11006KT 12SM 26/25 A2983 RMK SLP103 T02610253 52016 IEM_DS3505
ZGNN,2002-08-12 16:00,ZGNN 121600Z AUTO 07006KT 7SM 25/23 A2983 RMK T02500230 IEM_DS3505
ZGNN,2002-08-12 17:00,ZGNN 121700Z AUTO 04002KT 7SM 25/23 A2980 RMK T02500230 IEM_DS3505
ZGNN,2002-08-12 18:00,ZGNN 121800Z AUTO 00000KT 9SM 25/24 A2980 RMK 60003 SLP086 T02500244 57016 IEM_DS3505
ZGNN,2002-08-12 19:00,ZGNN 121900Z AUTO 03004KT 7SM 25/23 A2977 RMK T02500230 IEM_DS3505
ZGNN,2002-08-12 20:00,ZGNN 122000Z AUTO 7SM 25/23 A2977 RMK T02500230 IEM_DS3505
ZGNN,2002-08-12 21:00,ZGNN 122100Z AUTO 00000KT 6SM 24/24 A2977 RMK 70013 SLP083 T02450242 57004 IEM_DS3505
ZGNN,2002-08-12 22:00,ZGNN 122200Z AUTO 03004KT 2 1/2SM 24/23 A2977 RMK T02400230 IEM_DS3505
ZGNN,2002-08-13 00:00,ZGNN 130000Z AUTO 00000KT 5SM 26/25 A2980 RMK 70013 SLP087 T02620246 52004 IEM_DS3505
ZGNN,2002-08-13 01:00,ZGNN 130100Z AUTO 7SM 26/24 A2980 RMK T02600240 IEM_DS3505
ZGNN,2002-08-13 02:00,ZGNN 130200Z AUTO 7SM 27/24 A2983 RMK T02700240 IEM_DS3505
ZGNN,2002-08-13 03:00,ZGNN 130300Z AUTO 14006KT 16SM 29/24 A2980 RMK SLP092 T02880244 52006 IEM_DS3505
ZGNN,2002-08-13 04:00,ZGNN 130400Z AUTO 7SM 30/24 A2980 RMK T03000240 IEM_DS3505
ZGNN,2002-08-13 05:00,ZGNN 130500Z AUTO 7SM 30/24 A2977 RMK T03000240 IEM_DS3505
ZGNN,2002-08-13 06:00,ZGNN 130600Z AUTO 22002KT 19SM 30/26 A2974 RMK 60003 SLP066 T02950259 57026 IEM_DS3505
ZGNN,2002-08-13 07:00,ZGNN 130700Z AUTO 08010KT 7SM 26/23 A2971 RMK T02600230 IEM_DS3505
ZGNN,2002-08-13 08:00,ZGNN 130800Z AUTO 06006KT 7SM 30/24 A2971 RMK T03000240 IEM_DS3505
ZGNN,2002-08-13 09:00,ZGNN 130900Z AUTO 00000KT 16SM 27/24 A2971 RMK SLP062 T02720245 57005 IEM_DS3505
ZGNN,2002-08-13 10:00,ZGNN 131000Z AUTO 7SM 27/24 A2971 RMK T02700240 IEM_DS3505
ZGNN,2002-08-13 11:00,ZGNN 131100Z AUTO 7SM 27/24 A2971 RMK T02700240 IEM_DS3505
ZGNN,2002-08-13 12:00,ZGNN 131200Z AUTO 00000KT 12SM 26/25 A2974 RMK 60016 SLP068 T02640247 52006 IEM_DS3505
ZGNN,2002-08-13 13:00,ZGNN 131300Z AUTO 06004KT 7SM 25/24 A2974 RMK T02500240 IEM_DS3505
ZGNN,2002-08-13 14:00,ZGNN 131400Z AUTO 03004KT 7SM 25/24 A2977 RMK T02500240 IEM_DS3505
ZGNN,2002-08-13 15:00,ZGNN 131500Z AUTO 00000KT 12SM 25/25 A2977 RMK SLP082 T02500246 52014 IEM_DS3505
ZGNN,2002-08-13 16:00,ZGNN 131600Z AUTO 29002KT 7SM 25/23 A2980 RMK T02500230 IEM_DS3505
ZGNN,2002-08-13 17:00,ZGNN 131700Z AUTO 00000KT 7SM 25/23 A2977 RMK T02500230 IEM_DS3505
ZGNN,2002-08-13 18:00,ZGNN 131800Z AUTO 00000KT 9SM 25/24 A2977 RMK SLP076 T02460240 57005 IEM_DS3505
ZGNN,2002-08-13 19:00,ZGNN 131900Z AUTO 05002KT 3SM 24/23 A2974 RMK T02400230 IEM_DS3505
ZGNN,2002-08-13 20:00,ZGNN 132000Z AUTO 04002KT 2 1/2SM 24/23 A2974 RMK T02400230 IEM_DS3505
ZGNN,2002-08-13 21:00,ZGNN 132100Z AUTO 00000KT 6SM 24/24 A2974 RMK 70017 SLP072 T02430239 57005 IEM_DS3505
ZGNN,2002-08-13 22:00,ZGNN 132200Z AUTO 01002KT 7SM 24/23 A2974 RMK T02400230 IEM_DS3505
ZGNN,2002-08-13 23:00,ZGNN 132300Z AUTO 00000KT 4SM 25/23 A2974 RMK T02500230 IEM_DS3505
ZGNN,2002-08-14 00:00,ZGNN 140000Z AUTO 00000KT 6SM 25/25 A2977 RMK 70017 SLP081 T02520246 52009 IEM_DS3505
ZGNN,2002-08-14 01:00,ZGNN 140100Z AUTO 4SM 26/24 A2977 RMK T02600240 IEM_DS3505
ZGNN,2002-08-14 02:00,ZGNN 140200Z AUTO 7SM 28/24 A2977 RMK T02800240 IEM_DS3505
ZGNN,2002-08-14 03:00,ZGNN 140300Z AUTO 22002KT 11SM 28/25 A2977 RMK SLP076 T02840246 57005 IEM_DS3505
ZGNN,2002-08-14 04:00,ZGNN 140400Z AUTO 7SM 31/23 A2974 RMK T03100230 IEM_DS3505
ZGNN,2002-08-14 05:00,ZGNN 140500Z AUTO 7SM 31/22 A2971 RMK T03100220 IEM_DS3505
ZGNN,2002-08-14 06:00,ZGNN 140600Z AUTO 18002KT 16SM 32/24 A2968 RMK SLP050 T03170241 57024 IEM_DS3505
ZGNN,2002-08-14 07:00,ZGNN 140700Z AUTO 7SM 32/22 A2968 RMK T03200220 IEM_DS3505
ZGNN,2002-08-14 08:00,ZGNN 140800Z AUTO 7SM 32/23 A2965 RMK T03200230 IEM_DS3505
ZGNN,2002-08-14 09:00,ZGNN 140900Z AUTO 09004KT 19SM 32/22 A2965 RMK SLP034 T03250218 57016 IEM_DS3505
ZGNN,2002-08-14 10:00,ZGNN 141000Z AUTO 7SM 32/22 A2962 RMK T03200220 IEM_DS3505
ZGNN,2002-08-14 11:00,ZGNN 141100Z AUTO 14004KT 6SM 31/23 A2965 RMK T03100230 IEM_DS3505
ZGNN,2002-08-14 12:00,ZGNN 141200Z AUTO 22002KT 19SM 30/24 A2965 RMK SLP044 T02960244 52009 IEM_DS3505
ZGNN,2002-08-14 13:00,ZGNN 141300Z AUTO 17004KT 6SM 28/24 A2968 RMK T02800240 IEM_DS3505
ZGNN,2002-08-14 14:00,ZGNN 141400Z AUTO 6SM 27/23 A2971 RMK T02700230 IEM_DS3505
ZGNN,2002-08-14 15:00,ZGNN 141500Z AUTO 00000KT 16SM 27/25 A2971 RMK SLP059 T02660250 52015 IEM_DS3505
ZGNN,2002-08-14 17:00,ZGNN 141700Z AUTO 00000KT 6SM 26/23 A2971 RMK T02600230 IEM_DS3505
ZGNN,2002-08-14 18:00,ZGNN 141800Z AUTO 00000KT 11SM 25/24 A2968 RMK SLP048 T02470237 57010 IEM_DS3505
ZGNN,2002-08-14 19:00,ZGNN 141900Z AUTO 00000KT 4SM 25/23 A2968 RMK T02500230 IEM_DS3505
ZGNN,2002-08-14 20:00,ZGNN 142000Z AUTO 03002KT 3SM 24/23 A2968 RMK T02400230 IEM_DS3505
ZGNN,2002-08-14 21:00,ZGNN 142100Z AUTO 00000KT 9SM 24/23 A2968 RMK SLP046 T02380232 57002 IEM_DS3505
ZGNN,2002-08-14 22:00,ZGNN 142200Z AUTO 00000KT 6SM 24/23 A2968 RMK T02400230 IEM_DS3505
ZGNN,2002-08-14 23:00,ZGNN 142300Z AUTO 00000KT 6SM 24/22 A2968 RMK T02400220 IEM_DS3505
ZGNN,2002-08-15 00:00,ZGNN 150000Z AUTO 34002KT 9SM 26/24 A2968 RMK SLP053 T02570240 52006 IEM_DS3505
ZGNN,2002-08-15 01:00,ZGNN 150100Z AUTO 00000KT 6SM 28/24 A2968 RMK T02800240 IEM_DS3505
ZGNN,2002-08-15 03:00,ZGNN 150300Z AUTO 27002KT 16SM 30/24 A2968 RMK SLP052 T03000245 54000 IEM_DS3505
ZGNN,2002-08-15 04:00,ZGNN 150400Z AUTO 7SM 31/23 A2968 RMK T03100230 IEM_DS3505
ZGNN,2002-08-15 05:00,ZGNN 150500Z AUTO 25006KT 7SM 31/22 A2965 RMK T03100220 IEM_DS3505
ZGNN,2002-08-15 06:00,ZGNN 150600Z AUTO 27004KT 19SM 32/24 A2965 RMK SLP035 T03190238 57017 IEM_DS3505
ZGNN,2002-08-15 07:00,ZGNN 150700Z AUTO 7SM 32/22 A2962 RMK T03200220 IEM_DS3505
ZGNN,2002-08-15 08:00,ZGNN 150800Z AUTO 7SM 33/22 A2959 RMK T03300220 IEM_DS3505
ZGNN,2002-08-15 09:00,ZGNN 150900Z AUTO 14006KT 17SM 33/23 A2956 RMK SLP010 T03310228 57025 IEM_DS3505
ZGNN,2002-08-15 10:00,ZGNN 151000Z AUTO 13006KT 7SM 32/21 A2956 RMK T03200210 IEM_DS3505
ZGNN,2002-08-15 11:00,ZGNN 151100Z AUTO 16004KT 6SM 31/22 A2956 RMK T03100220 IEM_DS3505
ZGNN,2002-08-15 12:00,ZGNN 151200Z AUTO 00000KT 16SM 29/26 A2959 RMK SLP020 T02900255 52010 IEM_DS3505
ZGNN,2002-08-15 13:00,ZGNN 151300Z AUTO 6SM 28/23 A2962 RMK T02800230 IEM_DS3505
ZGNN,2002-08-15 14:00,ZGNN 151400Z AUTO 00000KT 6SM 28/25 A2962 RMK T02800250 IEM_DS3505
ZGNN,2002-08-15 15:00,ZGNN 151500Z AUTO 00000KT 12SM 26/24 A2965 RMK SLP036 T02590245 52016 IEM_DS3505
ZGNN,2002-08-15 16:00,ZGNN 151600Z AUTO 26002KT 4SM 26/24 A2965 RMK T02600240 IEM_DS3505
ZGNN,2002-08-15 17:00,ZGNN 151700Z AUTO 27002KT 4SM 26/24 A2962 RMK T02600240 IEM_DS3505
ZGNN,2002-08-15 18:00,ZGNN 151800Z AUTO 00000KT 9SM 26/25 A2962 RMK SLP025 T02550248 57011 IEM_DS3505
ZGNN,2002-08-15 19:00,ZGNN 151900Z AUTO 00000KT 3SM 26/24 A2959 RMK T02600240 IEM_DS3505
ZGNN,2002-08-15 20:00,ZGNN 152000Z AUTO 28002KT 4SM 25/23 A2959 RMK T02500230 IEM_DS3505
ZGNN,2002-08-15 21:00,ZGNN 152100Z AUTO 00000KT 9SM 25/24 A2959 RMK SLP022 T02490236 57003 IEM_DS3505
ZGNN,2002-08-15 22:00,ZGNN 152200Z AUTO 6SM 25/23 A2962 RMK T02500230 IEM_DS3505
ZGNN,2002-08-15 23:00,ZGNN 152300Z AUTO 05002KT 7SM 24/23 A2962 RMK T02400230 IEM_DS3505
ZGNN,2002-08-16 00:00,ZGNN 160000Z AUTO 00000KT 4SM 26/24 A2965 RMK SLP035 T02650245 52013 IEM_DS3505
ZGNN,2002-08-16 01:00,ZGNN 160100Z AUTO 6SM 28/24 A2965 RMK T02800240 IEM_DS3505
ZGNN,2002-08-16 02:00,ZGNN 160200Z AUTO 7SM 30/24 A2965 RMK T03000240 IEM_DS3505
ZGNN,2002-08-16 03:00,ZGNN 160300Z AUTO 22004KT 16SM 30/24 A2965 RMK SLP038 T03040240 52003 IEM_DS3505
ZGNN,2002-08-16 04:00,ZGNN 160400Z AUTO 7SM 31/23 A2965 RMK T03100230 IEM_DS3505
ZGNN,2002-08-16 05:00,ZGNN 160500Z AUTO 7SM 32/24 A2962 RMK T03200240 IEM_DS3505
ZGNN,2002-08-16 06:00,ZGNN 160600Z AUTO 18004KT 19SM 33/25 A2959 RMK SLP018 T03270246 57020 IEM_DS3505
ZGNN,2002-08-16 07:00,ZGNN 160700Z AUTO 7SM 33/23 A2956 RMK T03300230 IEM_DS3505
ZGNN,2002-08-16 08:00,ZGNN 160800Z AUTO 09004KT 7SM 32/23 A2956 RMK T03200230 IEM_DS3505
ZGNN,2002-08-16 09:00,ZGNN 160900Z AUTO 27004KT 16SM 29/25 A2956 RMK SLP005 T02930254 57013 IEM_DS3505
ZGNN,2002-08-16 10:00,ZGNN 161000Z AUTO 7SM 28/24 A2956 RMK T02800240 IEM_DS3505
ZGNN,2002-08-16 11:00,ZGNN 161100Z AUTO 09006KT 2SM 24/22 A2959 RMK T02400220 IEM_DS3505
ZGNN,2002-08-16 12:00,ZGNN 161200Z AUTO 14002KT 4SM 26/25 A2959 RMK 60008 SLP024 T02600252 52018 IEM_DS3505
ZGNN,2002-08-16 13:00,ZGNN 161300Z AUTO 04002KT 2SM 25/24 A2962 RMK T02500240 IEM_DS3505
ZGNN,2002-08-16 14:00,ZGNN 161400Z AUTO 03004KT 2SM 26/24 A2962 RMK T02600240 IEM_DS3505
ZGNN,2002-08-16 15:00,ZGNN 161500Z AUTO 00000KT 5SM 26/25 A2965 RMK SLP036 T02600246 52013 IEM_DS3505
ZGNN,2002-08-16 16:00,ZGNN 161600Z AUTO 36004KT 2 1/2SM 25/24 A2965 RMK T02500240 IEM_DS3505
ZGNN,2002-08-16 17:00,ZGNN 161700Z AUTO 00000KT 2SM 25/24 A2962 RMK T02500240 IEM_DS3505
ZGNN,2002-08-16 18:00,ZGNN 161800Z AUTO 32004KT 4SM 25/24 A2962 RMK 60003 SLP030 T02520245 57006 IEM_DS3505
ZGNN,2002-08-16 19:00,ZGNN 161900Z AUTO 36002KT 2 1/2SM 25/23 A2962 RMK T02500230 IEM_DS3505
ZGNN,2002-08-16 20:00,ZGNN 162000Z AUTO 00000KT 2SM 25/23 A2962 RMK T02500230 IEM_DS3505
ZGNN,2002-08-16 21:00,ZGNN 162100Z AUTO 34004KT 4SM 25/24 A2962 RMK 70007 SLP026 T02490242 57005 IEM_DS3505
ZGNN,2002-08-16 22:00,ZGNN 162200Z AUTO 03004KT 2 1/2SM 25/23 A2962 RMK T02500230 IEM_DS3505
ZGNN,2002-08-16 23:00,ZGNN 162300Z AUTO 35004KT 3SM 25/23 A2962 RMK T02500230 IEM_DS3505
ZGNN,2002-08-17 00:00,ZGNN 170000Z AUTO 00000KT 5SM 25/24 A2965 RMK 70007 SLP043 T02530240 52016 IEM_DS3505
ZGNN,2002-08-17 02:00,ZGNN 170200Z AUTO 01006KT 4SM 27/23 A2968 RMK T02700230 IEM_DS3505
ZGNN,2002-08-17 03:00,ZGNN 170300Z AUTO 04004KT 6SM 28/24 A2968 RMK SLP050 T02790238 52008 IEM_DS3505
ZGNN,2002-08-17 04:00,ZGNN 170400Z AUTO 35006KT 7SM 27/23 A2968 RMK T02700230 IEM_DS3505
ZGNN,2002-08-17 05:00,ZGNN 170500Z AUTO 35006KT 7SM 28/23 A2965 RMK T02800230 IEM_DS3505
ZGNN,2002-08-17 06:00,ZGNN 170600Z AUTO 04002KT 6SM 28/24 A2965 RMK 60003 SLP039 T02810237 57011 IEM_DS3505
ZGNN,2002-08-17 07:00,ZGNN 170700Z AUTO 05004KT 7SM 26/23 A2965 RMK T02600230 IEM_DS3505
ZGNN,2002-08-17 08:00,ZGNN 170800Z AUTO 34004KT 7SM 27/23 A2962 RMK T02700230 IEM_DS3505
ZGNN,2002-08-17 09:00,ZGNN 170900Z AUTO 34008KT 7SM 28/23 A2962 RMK SLP030 T02790230 57009 IEM_DS3505
ZGNN,2002-08-17 10:00,ZGNN 171000Z AUTO 34008KT 7SM 27/22 A2962 RMK T02700220 IEM_DS3505
ZGNN,2002-08-17 11:00,ZGNN 171100Z AUTO 34008KT 7SM 26/22 A2962 RMK T02600220 IEM_DS3505
ZGNN,2002-08-17 12:00,ZGNN 171200Z AUTO 32002KT 7SM 26/23 A2965 RMK T02590231 IEM_DS3505
ZGNN,2002-08-17 13:00,ZGNN 171300Z AUTO 35004KT 6SM 26/22 A2968 RMK T02600220 IEM_DS3505
ZGNN,2002-08-17 14:00,ZGNN 171400Z AUTO 35004KT 6SM 25/22 A2971 RMK T02500220 IEM_DS3505
ZGNN,2002-08-17 15:00,ZGNN 171500Z AUTO 34006KT 7SM 25/22 A2971 RMK SLP059 T02490221 52015 IEM_DS3505
ZGNN,2002-08-17 18:00,ZGNN 171800Z AUTO 34004KT 7SM 25/22 RMK SLP050 T02460225 57009 IEM_DS3505
ZGNN,2002-08-17 19:00,ZGNN 171900Z AUTO 35004KT 7SM 25/21 A2968 RMK T02500210 IEM_DS3505
ZGNN,2002-08-17 21:00,ZGNN 172100Z AUTO 34008KT 6SM 24/22 A2965 RMK 70002 SLP044 T02390223 57006 IEM_DS3505
ZGNN,2002-08-17 22:00,ZGNN 172200Z AUTO 34006KT 6SM 24/21 A2965 RMK T02400210 IEM_DS3505
ZGNN,2002-08-17 23:00,ZGNN 172300Z AUTO 35006KT 7SM 24/21 A2968 RMK T02400210 IEM_DS3505
ZGNN,2002-08-18 00:00,ZGNN 180000Z AUTO 34006KT 12SM 25/22 A2968 RMK 70002 SLP055 T02500222 52010 IEM_DS3505
ZGNN,2002-08-18 01:00,ZGNN 180100Z AUTO 34008KT 6SM 27/21 A2971 RMK T02700210 IEM_DS3505
ZGNN,2002-08-18 02:00,ZGNN 180200Z AUTO 36008KT 7SM 27/21 A2971 RMK T02700210 IEM_DS3505
ZGNN,2002-08-18 03:00,ZGNN 180300Z AUTO 36010KT 19SM 28/22 A2971 RMK SLP056 T02790222 52002 IEM_DS3505
ZGNN,2002-08-18 04:00,ZGNN 180400Z AUTO 35010KT 7SM 29/21 A2971 RMK T02900210 IEM_DS3505
ZGNN,2002-08-18 05:00,ZGNN 180500Z AUTO 34008KT 7SM 28/22 A2968 RMK T02800220 IEM_DS3505
ZGNN,2002-08-18 06:00,ZGNN 180600Z AUTO 34012G21KT 16SM 28/22 A2968 RMK SLP047 T02840220 57009 IEM_DS3505
ZGNN,2002-08-18 07:00,ZGNN 180700Z AUTO 34012KT 7SM 28/21 A2968 RMK T02800210 IEM_DS3505
ZGNN,2002-08-18 08:00,ZGNN 180800Z AUTO 34010G19KT 7SM 28/21 A2965 RMK T02800210 IEM_DS3505
ZGNN,2002-08-18 09:00,ZGNN 180900Z AUTO 36012G21KT 19SM 27/21 A2965 RMK SLP043 T02730211 57005 IEM_DS3505
ZGNN,2002-08-18 10:00,ZGNN 181000Z AUTO 35014G23KT 7SM 27/20 A2965 RMK T02700200 IEM_DS3505
ZGNN,2002-08-18 11:00,ZGNN 181100Z AUTO 35012KT 7SM 25/19 A2968 RMK T02500190 IEM_DS3505
ZGNN,2002-08-18 12:00,ZGNN 181200Z AUTO 36008KT 16SM 25/19 A2968 RMK 60003 SLP050 T02520192 52007 IEM_DS3505
ZGNN,2002-08-18 13:00,ZGNN 181300Z AUTO 34006KT 6SM 24/19 A2971 RMK T02400190 IEM_DS3505
ZGNN,2002-08-18 14:00,ZGNN 181400Z AUTO 34006KT 6SM 24/19 A2971 RMK T02400190 IEM_DS3505
ZGNN,2002-08-18 15:00,ZGNN 181500Z AUTO 00000KT 16SM 23/20 A2974 RMK SLP066 T02340199 52016 IEM_DS3505
ZGNN,2002-08-18 18:00,ZGNN 181800Z AUTO 34006KT 6SM 22/20 RMK 60020 SLP049 T02160199 57017 IEM_DS3505
ZGNN,2002-08-18 21:00,ZGNN 182100Z AUTO 34006KT 2 1/2SM 21/20 RMK 70029 SLP038 T02100202 57011 IEM_DS3505
ZGNN,2002-08-19 00:00,ZGNN 190000Z AUTO 34008KT 3SM 21/20 RMK 60024 SLP045 T02120201 52006 IEM_DS3505
ZGNN,2002-08-19 03:00,ZGNN 190300Z AUTO 32008KT 2SM 22/21 A2968 RMK SLP053 T02180209 52008 IEM_DS3505
ZGNN,2002-08-19 04:00,ZGNN 190400Z AUTO 34010KT 7SM 22/20 A2968 RMK T02200200 IEM_DS3505
ZGNN,2002-08-19 05:00,ZGNN 190500Z AUTO 33012KT 7SM 23/20 A2965 RMK T02300200 IEM_DS3505
ZGNN,2002-08-19 06:00,ZGNN 190600Z AUTO 34008KT 9SM 23/21 RMK 60020 SLP036 T02270209 57017 IEM_DS3505
ZGNN,2002-08-19 07:00,ZGNN 190700Z AUTO 34008KT 7SM 23/20 A2962 RMK T02300200 IEM_DS3505
ZGNN,2002-08-19 08:00,ZGNN 190800Z AUTO 33008KT 7SM 23/20 A2959 RMK T02300200 IEM_DS3505
ZGNN,2002-08-19 09:00,ZGNN 190900Z AUTO 34010KT 9SM 22/21 A2959 RMK SLP022 T02240207 57014 IEM_DS3505
ZGNN,2002-08-19 10:00,ZGNN 191000Z AUTO 34008KT 7SM 22/20 A2959 RMK T02200200 IEM_DS3505
ZGNN,2002-08-19 11:00,ZGNN 191100Z AUTO 34008KT 7SM 22/20 A2956 RMK T02200200 IEM_DS3505
ZGNN,2002-08-19 12:00,ZGNN 191200Z AUTO 34008KT 9SM 22/20 A2956 RMK 60004 SLP017 T02180204 57005 IEM_DS3505
ZGNN,2002-08-19 13:00,ZGNN 191300Z AUTO 33012G21KT 7SM 21/19 A2956 RMK T02100190 IEM_DS3505
ZGNN,2002-08-19 14:00,ZGNN 191400Z AUTO 32008KT 7SM 21/19 A2956 RMK T02100190 IEM_DS3505
ZGNN,2002-08-19 15:00,ZGNN 191500Z AUTO 34012KT 5SM 21/20 A2956 RMK SLP012 T02140203 57005 IEM_DS3505
ZGNN,2002-08-19 16:00,ZGNN 191600Z AUTO 31012KT 4SM 21/20 A2953 RMK T02100200 IEM_DS3505
ZGNN,2002-08-19 17:00,ZGNN 191700Z AUTO 30010KT 4SM 21/19 A2950 RMK T02100190 IEM_DS3505
ZGNN,2002-08-19 18:00,ZGNN 191800Z AUTO 32012KT 5SM 22/20 A2950 RMK 60063 SLP990 T02150203 57022 IEM_DS3505
ZGNN,2002-08-19 19:00,ZGNN 191900Z AUTO 27008KT 6SM 22/20 A2950 RMK SLP993 T02160204 57012 IEM_DS3505
ZGNN,2002-08-19 20:00,ZGNN 192000Z AUTO 27006KT 6SM 22/20 A2950 RMK SLP997 T02160202 52003 IEM_DS3505
ZGNN,2002-08-19 21:00,ZGNN 192100Z AUTO 22006KT 9SM 22/20 A2953 RMK 70102 SLP999 T02160205 52009 IEM_DS3505
ZGNN,2002-08-19 22:00,ZGNN 192200Z AUTO 00000KT 12SM 22/21 A2956 RMK SLP013 T02180206 52020 IEM_DS3505
ZGNN,2002-08-19 23:00,ZGNN 192300Z AUTO 00000KT 19SM 22/21 A2959 RMK SLP022 T02180213 52025 IEM_DS3505
ZGNN,2002-08-20 00:00,ZGNN 200000Z AUTO 11002KT 19SM 23/21 A2962 RMK 60002 SLP032 T02280211 52033 IEM_DS3505
ZGNN,2002-08-20 01:00,ZGNN 200100Z AUTO 11002KT 19SM 24/22 A2965 RMK SLP043 T02400215 52030 IEM_DS3505
ZGNN,2002-08-20 02:00,ZGNN 200200Z AUTO 10004KT 7SM 26/21 A2968 RMK T02600210 IEM_DS3505
ZGNN,2002-08-20 03:00,ZGNN 200300Z AUTO 18002KT 19SM 27/21 A2968 RMK SLP053 T02720213 52022 IEM_DS3505
ZGNN,2002-08-20 04:00,ZGNN 200400Z AUTO 7SM 29/20 A2968 RMK T02900200 IEM_DS3505
ZGNN,2002-08-20 05:00,ZGNN 200500Z AUTO 7SM 30/20 A2968 RMK T03000200 IEM_DS3505
ZGNN,2002-08-20 06:00,ZGNN 200600Z AUTO 20002KT 19SM 30/21 RMK SLP046 T02950207 57007 IEM_DS3505
ZGNN,2002-08-20 07:00,ZGNN 200700Z AUTO 11006KT 7SM 29/21 A2968 RMK T02900210 IEM_DS3505
ZGNN,2002-08-20 08:00,ZGNN 200800Z AUTO 09006KT 7SM 29/21 A2968 RMK T02900210 IEM_DS3505
ZGNN,2002-08-20 09:00,ZGNN 200900Z AUTO 09002KT 19SM 30/22 A2968 RMK SLP050 T02950225 52004 IEM_DS3505
ZGNN,2002-08-20 10:00,ZGNN 201000Z AUTO 12008KT 7SM 28/21 A2971 RMK T02800210 IEM_DS3505
ZGNN,2002-08-20 11:00,ZGNN 201100Z AUTO 12006KT 6SM 27/22 A2971 RMK T02700220 IEM_DS3505
ZGNN,2002-08-20 12:00,ZGNN 201200Z AUTO 09002KT 16SM 27/23 A2974 RMK SLP071 T02690234 52021 IEM_DS3505
ZGNN,2002-08-20 13:00,ZGNN 201300Z AUTO 10002KT 6SM 25/22 A2977 RMK T02500220 IEM_DS3505
ZGNN,2002-08-20 14:00,ZGNN 201400Z AUTO 10004KT 6SM 25/22 A2980 RMK T02500220 IEM_DS3505
ZGNN,2002-08-20 15:00,ZGNN 201500Z AUTO 11002KT 16SM 25/23 RMK SLP094 T02480233 52023 IEM_DS3505
ZGNN,2002-08-20 17:00,ZGNN 201700Z AUTO 02004KT 5SM 24/22 A2980 RMK T02400220 IEM_DS3505
ZGNN,2002-08-20 18:00,ZGNN 201800Z AUTO 00000KT 12SM 24/23 A2980 RMK SLP094 T02410231 54000 IEM_DS3505
ZGNN,2002-08-20 20:00,ZGNN 202000Z AUTO 01004KT 4SM 24/22 A2980 RMK T02400220 IEM_DS3505
ZGNN,2002-08-20 21:00,ZGNN 202100Z AUTO 00000KT 9SM 24/23 A2983 RMK SLP095 T02430233 52001 IEM_DS3505
ZGNN,2002-08-20 22:00,ZGNN 202200Z AUTO 04004KT 6SM 24/22 A2983 RMK T02400220 IEM_DS3505
ZGNN,2002-08-20 23:00,ZGNN 202300Z AUTO 04004KT 2 1/2SM 24/22 A2983 RMK T02400220 IEM_DS3505
ZGNN,2002-08-21 00:00,ZGNN 210000Z AUTO 04002KT 5SM 26/24 A2985 RMK SLP109 T02580236 52014 IEM_DS3505
ZGNN,2002-08-21 01:00,ZGNN 210100Z AUTO 05006KT 7SM 27/23 A2985 RMK T02700230 IEM_DS3505
ZGNN,2002-08-21 02:00,ZGNN 210200Z AUTO 07006KT 7SM 28/23 A2988 RMK T02800230 IEM_DS3505
ZGNN,2002-08-21 03:00,ZGNN 210300Z AUTO 09006KT 16SM 29/23 A2988 RMK SLP119 T02910234 52010 IEM_DS3505
ZGNN,2002-08-21 04:00,ZGNN 210400Z AUTO 08006KT 7SM 29/23 A2988 RMK T02900230 IEM_DS3505
ZGNN,2002-08-21 05:00,ZGNN 210500Z AUTO 7SM 30/22 A2985 RMK T03000220 IEM_DS3505
ZGNN,2002-08-21 06:00,ZGNN 210600Z AUTO 07002KT 19SM 31/23 A2983 RMK SLP104 T03070232 57015 IEM_DS3505
ZGNN,2002-08-21 07:00,ZGNN 210700Z AUTO 04006KT 7SM 31/23 A2983 RMK T03100230 IEM_DS3505
ZGNN,2002-08-21 08:00,ZGNN 210800Z AUTO 04006KT 7SM 31/23 A2980 RMK T03100230 IEM_DS3505
ZGNN,2002-08-21 09:00,ZGNN 210900Z AUTO 02004KT 16SM 31/24 A2980 RMK SLP089 T03070239 57014 IEM_DS3505
ZGNN,2002-08-21 10:00,ZGNN 211000Z AUTO 35006KT 7SM RMK IEM_DS3505
ZGNN,2002-08-21 11:00,ZGNN 211100Z AUTO 7SM 25/24 A2983 RMK T02500240 IEM_DS3505
ZGNN,2002-08-21 13:00,ZGNN 211300Z AUTO 17002KT 7SM 25/24 A2985 RMK T02500240 IEM_DS3505
ZGNN,2002-08-21 14:00,ZGNN 211400Z AUTO 21004KT 7SM 25/23 A2988 RMK T02500230 IEM_DS3505
ZGNN,2002-08-21 15:00,ZGNN 211500Z AUTO 18002KT 6SM 25/25 A2988 RMK SLP117 T02510247 52014 IEM_DS3505
ZGNN,2002-08-21 16:00,ZGNN 211600Z AUTO 7SM 25/24 A2988 RMK T02500240 IEM_DS3505
ZGNN,2002-08-21 17:00,ZGNN 211700Z AUTO 00000KT 4SM 25/23 A2988 RMK T02500230 IEM_DS3505
ZGNN,2002-08-21 18:00,ZGNN 211800Z AUTO 00000KT 5SM 25/25 A2985 RMK 60008 SLP110 T02500246 57006 IEM_DS3505
ZGNN,2002-08-21 19:00,ZGNN 211900Z AUTO 00000KT 4SM 25/24 A2985 RMK T02500240 IEM_DS3505
ZGNN,2002-08-21 20:00,ZGNN 212000Z AUTO 01002KT 3SM 25/24 A2985 RMK T02500240 IEM_DS3505
ZGNN,2002-08-21 21:00,ZGNN 212100Z AUTO 00000KT 6SM 25/24 A2985 RMK 70023 SLP112 T02490245 52001 IEM_DS3505
ZGNN,2002-08-21 22:00,ZGNN 212200Z AUTO 4SM 24/23 A2985 RMK T02400230 IEM_DS3505
ZGNN,2002-08-21 23:00,ZGNN 212300Z AUTO 00000KT 3SM 24/23 A2988 RMK T02400230 IEM_DS3505
ZGNN,2002-08-22 00:00,ZGNN 220000Z AUTO 00000KT 2 1/2SM 26/25 A2991 RMK 70023 SLP125 T02600246 52012 IEM_DS3505
ZGNN,2002-08-22 01:00,ZGNN 220100Z AUTO 7SM 27/24 A2991 RMK T02700240 IEM_DS3505
ZGNN,2002-08-22 02:00,ZGNN 220200Z AUTO 7SM 29/23 A2991 RMK T02900230 IEM_DS3505
ZGNN,2002-08-22 03:00,ZGNN 220300Z AUTO 09002KT 16SM 30/24 A2991 RMK SLP130 T02960245 52006 IEM_DS3505
ZGNN,2002-08-22 04:00,ZGNN 220400Z AUTO 7SM 31/24 A2991 RMK T03100240 IEM_DS3505
ZGNN,2002-08-22 05:00,ZGNN 220500Z AUTO 7SM 31/23 A2988 RMK T03100230 IEM_DS3505
ZGNN,2002-08-22 06:00,ZGNN 220600Z AUTO 22002KT 16SM 32/24 A2985 RMK SLP109 T03200239 57020 IEM_DS3505
ZGNN,2002-08-22 07:00,ZGNN 220700Z AUTO 7SM 32/23 A2983 RMK T03200230 IEM_DS3505
ZGNN,2002-08-22 08:00,ZGNN 220800Z AUTO 7SM 33/23 A2980 RMK T03300230 IEM_DS3505
ZGNN,2002-08-22 09:00,ZGNN 220900Z AUTO 09006KT 16SM 30/25 A2980 RMK SLP089 T03000254 57020 IEM_DS3505
ZGNN,2002-08-22 10:00,ZGNN 221000Z AUTO 7SM 28/24 A2980 RMK T02800240 IEM_DS3505
ZGNN,2002-08-22 11:00,ZGNN 221100Z AUTO 7SM 28/24 A2983 RMK T02800240 IEM_DS3505
ZGNN,2002-08-22 12:00,ZGNN 221200Z AUTO 00000KT 14SM 27/25 A2983 RMK 60003 SLP103 T02680250 52013 IEM_DS3505
ZGNN,2002-08-22 13:00,ZGNN 221300Z AUTO 00000KT 6SM 26/24 A2985 RMK T02600240 IEM_DS3505
ZGNN,2002-08-22 14:00,ZGNN 221400Z AUTO 00000KT 6SM 26/23 A2985 RMK T02600230 IEM_DS3505
ZGNN,2002-08-22 15:00,ZGNN 221500Z AUTO 00000KT 12SM 26/25 A2988 RMK SLP115 T02560246 52012 IEM_DS3505
ZGNN,2002-08-22 16:00,ZGNN 221600Z AUTO 30002KT 6SM 25/23 A2988 RMK T02500230 IEM_DS3505
ZGNN,2002-08-22 17:00,ZGNN 221700Z AUTO 10002KT 6SM 25/24 A2985 RMK T02500240 IEM_DS3505
ZGNN,2002-08-22 18:00,ZGNN 221800Z AUTO 00000KT 10SM 24/24 A2985 RMK SLP108 T02440238 57006 IEM_DS3505
ZGNN,2002-08-22 19:00,ZGNN 221900Z AUTO 27002KT 5SM 24/23 A2985 RMK T02400230 IEM_DS3505
ZGNN,2002-08-22 20:00,ZGNN 222000Z AUTO 27002KT 5SM 24/23 A2985 RMK T02400230 IEM_DS3505
ZGNN,2002-08-22 21:00,ZGNN 222100Z AUTO 00000KT 4SM 24/24 A2985 RMK 70003 SLP108 T02410237 57001 IEM_DS3505
ZGNN,2002-08-22 22:00,ZGNN 222200Z AUTO 02002KT 7SM 24/23 A2985 RMK T02400230 IEM_DS3505
ZGNN,2002-08-22 23:00,ZGNN 222300Z AUTO 11002KT 3SM 24/23 A2988 RMK T02400230 IEM_DS3505
ZGNN,2002-08-23 00:00,ZGNN 230000Z AUTO 00000KT 3SM 26/25 A2991 RMK 70003 SLP126 T02550248 52017 IEM_DS3505
ZGNN,2002-08-23 01:00,ZGNN 230100Z AUTO 4SM 27/24 A2991 RMK T02700240 IEM_DS3505
ZGNN,2002-08-23 02:00,ZGNN 230200Z AUTO 7SM 28/24 A2991 RMK T02800240 IEM_DS3505
ZGNN,2002-08-23 03:00,ZGNN 230300Z AUTO 29002KT 12SM 30/26 A2991 RMK SLP127 T03050258 52002 IEM_DS3505
ZGNN,2002-08-23 04:00,ZGNN 230400Z AUTO 7SM 32/22 A2988 RMK T03200220 IEM_DS3505
ZGNN,2002-08-23 05:00,ZGNN 230500Z AUTO 7SM 32/22 A2985 RMK T03200220 IEM_DS3505
ZGNN,2002-08-23 06:00,ZGNN 230600Z AUTO 02002KT 19SM 33/22 A2985 RMK SLP103 T03300223 57023 IEM_DS3505
ZGNN,2002-08-23 08:00,ZGNN 230800Z AUTO 7SM 34/23 A2980 RMK T03400230 IEM_DS3505
ZGNN,2002-08-23 09:00,ZGNN 230900Z AUTO 16006KT 19SM 34/23 RMK SLP085 T03350231 57018 IEM_DS3505
ZGNN,2002-08-23 10:00,ZGNN 231000Z AUTO 14004KT 7SM 32/23 A2977 RMK T03200230 IEM_DS3505
ZGNN,2002-08-23 11:00,ZGNN 231100Z AUTO 15004KT 6SM 31/24 A2980 RMK T03100240 IEM_DS3505
ZGNN,2002-08-23 12:00,ZGNN 231200Z AUTO 18002KT 16SM 30/24 A2980 RMK SLP089 T02960241 52004 IEM_DS3505
ZGNN,2002-08-23 13:00,ZGNN 231300Z AUTO 17004KT 6SM 28/24 A2983 RMK T02800240 IEM_DS3505
ZGNN,2002-08-23 14:00,ZGNN 231400Z AUTO 19002KT 6SM 27/24 A2983 RMK T02700240 IEM_DS3505
ZGNN,2002-08-23 15:00,ZGNN 231500Z AUTO 00000KT 14SM 26/24 RMK SLP105 T02650245 52016 IEM_DS3505
ZGNN,2002-08-23 16:00,ZGNN 231600Z AUTO 00000KT 5SM 25/24 A2985 RMK T02500240 IEM_DS3505
ZGNN,2002-08-23 17:00,ZGNN 231700Z AUTO 34002KT 5SM 25/23 A2985 RMK T02500230 IEM_DS3505
ZGNN,2002-08-23 18:00,ZGNN 231800Z AUTO 09004KT 11SM 25/24 A2985 RMK SLP105 T02470238 54000 IEM_DS3505
ZGNN,2002-08-23 19:00,ZGNN 231900Z AUTO 29004KT 4SM 24/23 A2985 RMK T02400230 IEM_DS3505
ZGNN,2002-08-23 20:00,ZGNN 232000Z AUTO 06002KT 3SM 24/22 A2985 RMK T02400220 IEM_DS3505
ZGNN,2002-08-23 21:00,ZGNN 232100Z AUTO 00000KT 6SM 23/23 A2985 RMK SLP106 T02340228 52001 IEM_DS3505
ZGNN,2002-08-23 22:00,ZGNN 232200Z AUTO 00000KT 2SM 23/22 A2985 RMK T02300220 IEM_DS3505
ZGNN,2002-08-23 23:00,ZGNN 232300Z AUTO 25002KT 2SM 23/22 A2985 RMK T02300220 IEM_DS3505
ZGNN,2002-08-24 00:00,ZGNN 240000Z AUTO 00000KT 5SM 26/24 A2988 RMK SLP115 T02550236 52008 IEM_DS3505
ZGNN,2002-08-24 01:00,ZGNN 240100Z AUTO 6SM 26/23 A2988 RMK T02600230 IEM_DS3505
ZGNN,2002-08-24 02:00,ZGNN 240200Z AUTO 6SM 29/24 A2988 RMK T02900240 IEM_DS3505
ZGNN,2002-08-24 03:00,ZGNN 240300Z AUTO 22006KT 16SM 30/22 A2988 RMK SLP121 T03010224 52007 IEM_DS3505
ZGNN,2002-08-24 04:00,ZGNN 240400Z AUTO 7SM 31/22 A2988 RMK T03100220 IEM_DS3505
ZGNN,2002-08-24 05:00,ZGNN 240500Z AUTO 7SM 32/20 A2985 RMK T03200200 IEM_DS3505
ZGNN,2002-08-24 06:00,ZGNN 240600Z AUTO 18006KT 19SM 32/22 A2983 RMK SLP100 T03230215 57021 IEM_DS3505
ZGNN,2002-08-24 07:00,ZGNN 240700Z AUTO 21006KT 7SM 33/21 A2980 RMK T03300210 IEM_DS3505
ZGNN,2002-08-24 08:00,ZGNN 240800Z AUTO 7SM 33/21 A2977 RMK T03300210 IEM_DS3505
ZGNN,2002-08-24 09:00,ZGNN 240900Z AUTO 18006KT 19SM 33/22 A2977 RMK SLP079 T03310218 57021 IEM_DS3505
ZGNN,2002-08-24 10:00,ZGNN 241000Z AUTO 7SM 33/20 A2977 RMK T03300200 IEM_DS3505
ZGNN,2002-08-24 11:00,ZGNN 241100Z AUTO 16002KT 7SM 32/22 A2974 RMK T03200220 IEM_DS3505
ZGNN,2002-08-24 12:00,ZGNN 241200Z AUTO 14004KT 16SM 30/24 A2974 RMK SLP074 T03000242 57005 IEM_DS3505
ZGNN,2002-08-24 13:00,ZGNN 241300Z AUTO 6SM 28/23 A2977 RMK T02800230 IEM_DS3505
ZGNN,2002-08-24 14:00,ZGNN 241400Z AUTO 00000KT 6SM 27/23 A2980 RMK T02700230 IEM_DS3505
ZGNN,2002-08-24 15:00,ZGNN 241500Z AUTO 00000KT 12SM 27/24 A2980 RMK SLP090 T02740244 52016 IEM_DS3505
ZGNN,2002-08-24 16:00,ZGNN 241600Z AUTO 12002KT 5SM 26/24 A2980 RMK T02600240 IEM_DS3505
ZGNN,2002-08-24 17:00,ZGNN 241700Z AUTO 09002KT 5SM 26/24 A2980 RMK T02600240 IEM_DS3505
ZGNN,2002-08-24 18:00,ZGNN 241800Z AUTO 00000KT 10SM 25/24 A2980 RMK SLP084 T02520245 57006 IEM_DS3505
ZGNN,2002-08-24 19:00,ZGNN 241900Z AUTO 00000KT 7SM 25/24 A2980 RMK T02500240 IEM_DS3505
ZGNN,2002-08-24 20:00,ZGNN 242000Z AUTO 00000KT 5SM 25/24 A2977 RMK T02500240 IEM_DS3505
ZGNN,2002-08-24 21:00,ZGNN 242100Z AUTO 00000KT 7SM 25/24 A2980 RMK SLP084 T02470243 54000 IEM_DS3505
ZGNN,2002-08-24 22:00,ZGNN 242200Z AUTO 00000KT 4SM 25/24 A2980 RMK T02500240 IEM_DS3505
ZGNN,2002-08-24 23:00,ZGNN 242300Z AUTO 4SM 25/24 A2980 RMK T02500240 IEM_DS3505
ZGNN,2002-08-25 00:00,ZGNN 250000Z AUTO 00000KT 5SM 26/25 A2983 RMK SLP094 T02570248 52010 IEM_DS3505
ZGNN,2002-08-25 01:00,ZGNN 250100Z AUTO 7SM 27/24 A2983 RMK T02700240 IEM_DS3505
ZGNN,2002-08-25 02:00,ZGNN 250200Z AUTO 7SM 29/23 A2983 RMK T02900230 IEM_DS3505
ZGNN,2002-08-25 03:00,ZGNN 250300Z AUTO 22006KT 16SM 30/24 A2980 RMK SLP092 T03030244 57002 IEM_DS3505
ZGNN,2002-08-25 04:00,ZGNN 250400Z AUTO 7SM 31/23 A2980 RMK T03100230 IEM_DS3505
ZGNN,2002-08-25 05:00,ZGNN 250500Z AUTO 7SM 32/23 A2977 RMK T03200230 IEM_DS3505
ZGNN,2002-08-25 06:00,ZGNN 250600Z AUTO 22004KT 19SM 32/24 A2974 RMK SLP071 T03240244 57020 IEM_DS3505
ZGNN,2002-08-25 07:00,ZGNN 250700Z AUTO 7SM 33/23 A2971 RMK T03300230 IEM_DS3505
ZGNN,2002-08-25 08:00,ZGNN 250800Z AUTO 11006KT 7SM 33/24 A2971 RMK T03300240 IEM_DS3505
ZGNN,2002-08-25 09:00,ZGNN 250900Z AUTO 18006KT 19SM 33/24 A2968 RMK SLP050 T03310239 57021 IEM_DS3505
ZGNN,2002-08-25 10:00,ZGNN 251000Z AUTO 15008KT 7SM 32/24 A2968 RMK T03200240 IEM_DS3505
ZGNN,2002-08-25 12:00,ZGNN 251200Z AUTO 16006KT 19SM 30/25 RMK SLP053 T02960250 52002 IEM_DS3505
ZGNN,2002-08-25 13:00,ZGNN 251300Z AUTO 6SM 28/24 A2971 RMK T02800240 IEM_DS3505
ZGNN,2002-08-25 14:00,ZGNN 251400Z AUTO 6SM 27/24 A2974 RMK T02700240 IEM_DS3505
ZGNN,2002-08-25 15:00,ZGNN 251500Z AUTO 00000KT 16SM 27/25 A2974 RMK SLP075 T02740250 52022 IEM_DS3505
ZGNN,2002-08-25 16:00,ZGNN 251600Z AUTO 6SM 26/24 A2977 RMK T02600240 IEM_DS3505
ZGNN,2002-08-25 18:00,ZGNN 251800Z AUTO 00000KT 12SM 26/25 RMK SLP074 T02620249 54000 IEM_DS3505
ZGNN,2002-08-25 21:00,ZGNN 252100Z AUTO 00000KT 6SM 26/25 A2974 RMK SLP072 T02590251 57002 IEM_DS3505
ZGNN,2002-08-25 22:00,ZGNN 252200Z AUTO 04002KT 6SM 25/24 A2977 RMK T02500240 IEM_DS3505
ZGNN,2002-08-25 23:00,ZGNN 252300Z AUTO 10002KT 6SM 26/24 A2977 RMK T02600240 IEM_DS3505
ZGNN,2002-08-26 00:00,ZGNN 260000Z AUTO 22004KT 5SM 27/25 A2977 RMK SLP084 T02670253 52011 IEM_DS3505
ZGNN,2002-08-26 01:00,ZGNN 260100Z AUTO 7SM 29/24 A2980 RMK T02900240 IEM_DS3505
ZGNN,2002-08-26 02:00,ZGNN 260200Z AUTO 7SM 30/24 A2980 RMK T03000240 IEM_DS3505
ZGNN,2002-08-26 03:00,ZGNN 260300Z AUTO 25004KT 19SM 31/25 A2980 RMK SLP086 T03120246 52003 IEM_DS3505
ZGNN,2002-08-26 04:00,ZGNN 260400Z AUTO 20006KT 7SM 33/23 A2977 RMK T03300230 IEM_DS3505
ZGNN,2002-08-26 05:00,ZGNN 260500Z AUTO 7SM 34/23 A2974 RMK T03400230 IEM_DS3505
ZGNN,2002-08-26 06:00,ZGNN 260600Z AUTO 22004KT 19SM 34/26 A2971 RMK SLP060 T03390256 57026 IEM_DS3505
ZGNN,2002-08-26 07:00,ZGNN 260700Z AUTO 7SM 35/23 A2968 RMK T03500230 IEM_DS3505
ZGNN,2002-08-26 08:00,ZGNN 260800Z AUTO 7SM 35/22 A2965 RMK T03500220 IEM_DS3505
ZGNN,2002-08-26 09:00,ZGNN 260900Z AUTO 32004KT 19SM 34/25 A2965 RMK SLP040 T03380247 57020 IEM_DS3505
ZGNN,2002-08-26 10:00,ZGNN 261000Z AUTO 34008KT 7SM 31/24 A2968 RMK T03100240 IEM_DS3505
ZGNN,2002-08-26 11:00,ZGNN 261100Z AUTO 7SM 30/25 A2968 RMK T03000250 IEM_DS3505
ZGNN,2002-08-26 12:00,ZGNN 261200Z AUTO 00000KT 16SM 29/25 A2968 RMK 60001 SLP047 T02920254 52006 IEM_DS3505
ZGNN,2002-08-26 13:00,ZGNN 261300Z AUTO 32002KT 7SM 28/25 A2971 RMK T02800250 IEM_DS3505
ZGNN,2002-08-26 14:00,ZGNN 261400Z AUTO 24002KT 7SM 28/25 A2974 RMK T02800250 IEM_DS3505
ZGNN,2002-08-26 15:00,ZGNN 261500Z AUTO 00000KT 12SM 27/25 A2974 RMK SLP069 T02720254 52023 IEM_DS3505
ZGNN,2002-08-26 17:00,ZGNN 261700Z AUTO 07002KT 2 1/2SM 27/25 A2971 RMK T02700250 IEM_DS3505
ZGNN,2002-08-26 18:00,ZGNN 261800Z AUTO 27002KT 9SM 27/26 A2974 RMK SLP064 T02660256 57005 IEM_DS3505
ZGNN,2002-08-26 19:00,ZGNN 261900Z AUTO 00000KT 4SM 27/25 A2971 RMK T02700250 IEM_DS3505
ZGNN,2002-08-26 20:00,ZGNN 262000Z AUTO 00000KT 4SM 27/25 A2971 RMK T02700250 IEM_DS3505
ZGNN,2002-08-26 21:00,ZGNN 262100Z AUTO 27004KT 6SM 26/24 A2971 RMK 70002 SLP062 T02650244 57002 IEM_DS3505
ZGNN,2002-08-26 22:00,ZGNN 262200Z AUTO 7SM 25/23 A2974 RMK T02500230 IEM_DS3505
ZGNN,2002-08-26 23:00,ZGNN 262300Z AUTO 00000KT 7SM 25/23 A2974 RMK T02500230 IEM_DS3505
ZGNN,2002-08-27 00:00,ZGNN 270000Z AUTO 00000KT 9SM 26/25 A2977 RMK 60002 SLP075 T02550248 52012 IEM_DS3505
ZGNN,2002-08-27 01:00,ZGNN 270100Z AUTO 7SM 27/24 A2977 RMK T02700240 IEM_DS3505
ZGNN,2002-08-27 02:00,ZGNN 270200Z AUTO 00000KT 7SM 28/25 A2977 RMK T02800250 IEM_DS3505
ZGNN,2002-08-27 03:00,ZGNN 270300Z AUTO 27002KT 9SM 30/25 A2977 RMK SLP082 T02970254 52007 IEM_DS3505
ZGNN,2002-08-27 04:00,ZGNN 270400Z AUTO 7SM 32/25 A2977 RMK T03200250 IEM_DS3505
ZGNN,2002-08-27 05:00,ZGNN 270500Z AUTO 36006KT 7SM 30/23 A2974 RMK T03000230 IEM_DS3505
ZGNN,2002-08-27 06:00,ZGNN 270600Z AUTO 14002KT 16SM 29/25 A2971 RMK 60002 SLP057 T02910252 57025 IEM_DS3505
ZGNN,2002-08-27 07:00,ZGNN 270700Z AUTO 7SM 32/25 A2971 RMK T03200250 IEM_DS3505
ZGNN,2002-08-27 08:00,ZGNN 270800Z AUTO 21014KT 1 1/4SM 23/22 A2977 RMK T02300220 IEM_DS3505
ZGNN,2002-08-27 09:00,ZGNN 270900Z AUTO 02004KT 19SM 22/21 A2971 RMK SLP056 T02210213 57002 IEM_DS3505
ZGNN,2002-08-27 10:00,ZGNN 271000Z AUTO 7SM 24/22 A2971 RMK T02400220 IEM_DS3505
ZGNN,2002-08-27 11:00,ZGNN 271100Z AUTO 00000KT 7SM 23/21 A2974 RMK T02300210 IEM_DS3505
ZGNN,2002-08-27 12:00,ZGNN 271200Z AUTO 00000KT 19SM 23/22 A2974 RMK 60039 SLP071 T02300223 52014 IEM_DS3505
ZGNN,2002-08-27 13:00,ZGNN 271300Z AUTO 08002KT 7SM 23/22 A2977 RMK T02300220 IEM_DS3505
ZGNN,2002-08-27 14:00,ZGNN 271400Z AUTO 7SM 22/21 A2980 RMK T02200210 IEM_DS3505
ZGNN,2002-08-27 15:00,ZGNN 271500Z AUTO 00000KT 19SM 22/22 A2980 RMK SLP085 T02240218 52015 IEM_DS3505
ZGNN,2002-08-27 16:00,ZGNN 271600Z AUTO 00000KT 5SM 22/21 A2980 RMK T02200210 IEM_DS3505
ZGNN,2002-08-27 17:00,ZGNN 271700Z AUTO 36004KT 4SM 23/21 A2980 RMK T02300210 IEM_DS3505
ZGNN,2002-08-27 18:00,ZGNN 271800Z AUTO 00000KT 12SM 23/22 A2980 RMK 60003 SLP085 T02270220 54000 IEM_DS3505
ZGNN,2002-08-27 21:00,ZGNN 272100Z AUTO 00000KT 9SM 23/22 A2977 RMK 70041 SLP084 T02290225 57003 IEM_DS3505
ZGNN,2002-08-27 22:00,ZGNN 272200Z AUTO 25002KT 7SM 23/22 A2980 RMK T02300220 IEM_DS3505
ZGNN,2002-08-27 23:00,ZGNN 272300Z AUTO 4SM 23/22 A2980 RMK T02300220 IEM_DS3505
ZGNN,2002-08-28 00:00,ZGNN 280000Z AUTO 00000KT 4SM 24/23 A2980 RMK 70041 SLP093 T02350229 52010 IEM_DS3505
ZGNN,2002-08-28 01:00,ZGNN 280100Z AUTO 3SM 25/22 A2983 RMK T02500220 IEM_DS3505
ZGNN,2002-08-28 02:00,ZGNN 280200Z AUTO 4SM 27/23 A2983 RMK T02700230 IEM_DS3505
ZGNN,2002-08-28 03:00,ZGNN 280300Z AUTO 18004KT 6SM 28/23 A2983 RMK SLP102 T02770234 52009 IEM_DS3505
ZGNN,2002-08-28 04:00,ZGNN 280400Z AUTO 7SM 29/23 A2983 RMK T02900230 IEM_DS3505
ZGNN,2002-08-28 05:00,ZGNN 280500Z AUTO 7SM 30/24 A2980 RMK T03000240 IEM_DS3505
ZGNN,2002-08-28 06:00,ZGNN 280600Z AUTO 14004KT 9SM 30/24 A2977 RMK SLP080 T03040239 57021 IEM_DS3505
ZGNN,2002-08-28 07:00,ZGNN 280700Z AUTO 24008KT 7SM 27/22 A2974 RMK T02700220 IEM_DS3505
ZGNN,2002-08-28 08:00,ZGNN 280800Z AUTO 25006KT 7SM 25/23 A2977 RMK T02500230 IEM_DS3505
ZGNN,2002-08-28 09:00,ZGNN 280900Z AUTO 18006KT 9SM 26/24 A2977 RMK SLP084 T02550244 52003 IEM_DS3505
ZGNN,2002-08-28 10:00,ZGNN 281000Z AUTO 05014KT 7SM 24/21 A2980 RMK T02400210 IEM_DS3505
ZGNN,2002-08-28 11:00,ZGNN 281100Z AUTO 5SM 23/21 A2980 RMK T02300210 IEM_DS3505
ZGNN,2002-08-28 12:00,ZGNN 281200Z AUTO 00000KT 12SM 23/23 A2980 RMK 60047 SLP089 T02320226 52005 IEM_DS3505
ZGNN,2002-08-28 13:00,ZGNN 281300Z AUTO 4SM 23/22 A2980 RMK T02300220 IEM_DS3505
ZGNN,2002-08-28 14:00,ZGNN 281400Z AUTO 4SM 23/22 A2983 RMK T02300220 IEM_DS3505
ZGNN,2002-08-28 15:00,ZGNN 281500Z AUTO 00000KT 11SM 23/23 A2983 RMK SLP099 T02330227 52011 IEM_DS3505
ZGNN,2002-08-28 16:00,ZGNN 281600Z AUTO 05004KT 4SM 23/22 A2983 RMK T02300220 IEM_DS3505
ZGNN,2002-08-28 17:00,ZGNN 281700Z AUTO 36002KT 4SM 23/21 A2983 RMK T02300210 IEM_DS3505
ZGNN,2002-08-28 18:00,ZGNN 281800Z AUTO 00000KT 11SM 22/22 A2980 RMK 60000 SLP093 T02230220 57006 IEM_DS3505
ZGNN,2002-08-28 19:00,ZGNN 281900Z AUTO 22004KT 3SM 22/21 A2980 RMK T02200210 IEM_DS3505
ZGNN,2002-08-28 20:00,ZGNN 282000Z AUTO 23002KT 2 1/2SM 23/22 A2980 RMK T02300220 IEM_DS3505
ZGNN,2002-08-28 21:00,ZGNN 282100Z AUTO 32004KT 7SM 23/23 A2980 RMK 70046 SLP093 T02290228 57001 IEM_DS3505
ZGNN,2002-08-28 22:00,ZGNN 282200Z AUTO 00000KT 4SM 23/22 A2980 RMK T02300220 IEM_DS3505
ZGNN,2002-08-28 23:00,ZGNN 282300Z AUTO 00000KT 5SM 23/22 A2983 RMK T02300220 IEM_DS3505
ZGNN,2002-08-29 00:00,ZGNN 290000Z AUTO 00000KT 4SM 24/23 A2985 RMK 70046 SLP107 T02350231 52013 IEM_DS3505
ZGNN,2002-08-29 01:00,ZGNN 290100Z AUTO 4SM 24/22 A2985 RMK T02400220 IEM_DS3505
ZGNN,2002-08-29 02:00,ZGNN 290200Z AUTO 5SM 25/23 A2985 RMK T02500230 IEM_DS3505
ZGNN,2002-08-29 03:00,ZGNN 290300Z AUTO 22004KT 7SM 26/24 A2988 RMK SLP115 T02560236 52009 IEM_DS3505
ZGNN,2002-08-29 04:00,ZGNN 290400Z AUTO 7SM 27/23 A2985 RMK T02700230 IEM_DS3505
ZGNN,2002-08-29 05:00,ZGNN 290500Z AUTO 7SM 28/23 A2983 RMK T02800230 IEM_DS3505
ZGNN,2002-08-29 06:00,ZGNN 290600Z AUTO 27002KT 12SM 28/24 A2980 RMK SLP093 T02830236 57021 IEM_DS3505
ZGNN,2002-08-29 07:00,ZGNN 290700Z AUTO 7SM 30/21 A2977 RMK T03000210 IEM_DS3505
ZGNN,2002-08-29 08:00,ZGNN 290800Z AUTO 7SM 31/22 A2977 RMK T03100220 IEM_DS3505
ZGNN,2002-08-29 09:00,ZGNN 290900Z AUTO 04002KT 11SM 30/24 A2974 RMK SLP072 T03030238 57021 IEM_DS3505
ZGNN,2002-08-29 10:00,ZGNN 291000Z AUTO 08002KT 7SM 29/23 A2974 RMK T02900230 IEM_DS3505
ZGNN,2002-08-29 11:00,ZGNN 291100Z AUTO 11002KT 6SM 29/24 A2974 RMK T02900240 IEM_DS3505
ZGNN,2002-08-29 12:00,ZGNN 291200Z AUTO 00000KT 7SM 27/25 A2974 RMK SLP073 T02690252 52001 IEM_DS3505
ZGNN,2002-08-29 13:00,ZGNN 291300Z AUTO 6SM 26/23 A2977 RMK T02600230 IEM_DS3505
ZGNN,2002-08-29 14:00,ZGNN 291400Z AUTO 00000KT 6SM 25/23 A2977 RMK T02500230 IEM_DS3505
ZGNN,2002-08-29 15:00,ZGNN 291500Z AUTO 00000KT 6SM 25/24 A2980 RMK SLP088 T02500243 52015 IEM_DS3505
ZGNN,2002-08-29 16:00,ZGNN 291600Z AUTO 00000KT 3SM 25/23 A2980 RMK T02500230 IEM_DS3505
ZGNN,2002-08-29 18:00,ZGNN 291800Z AUTO 00000KT 5SM 24/24 A2980 RMK SLP087 T02430237 57001 IEM_DS3505
ZGNN,2002-08-29 19:00,ZGNN 291900Z AUTO 00000KT 1 1/2SM 24/23 A2977 RMK T02400230 IEM_DS3505
ZGNN,2002-08-29 20:00,ZGNN 292000Z AUTO 18002KT 1 1/2SM 25/23 A2977 RMK T02500230 IEM_DS3505
ZGNN,2002-08-29 21:00,ZGNN 292100Z AUTO 00000KT 4SM 25/24 A2977 RMK SLP078 T02460242 57008 IEM_DS3505
ZGNN,2002-08-29 22:00,ZGNN 292200Z AUTO 27002KT 2SM 25/24 A2977 RMK T02500240 IEM_DS3505
ZGNN,2002-08-29 23:00,ZGNN 292300Z AUTO 00000KT 2 1/2SM 25/24 A2977 RMK T02500240 IEM_DS3505
ZGNN,2002-08-30 00:00,ZGNN 300000Z AUTO 00000KT 5SM 25/24 A2980 RMK SLP091 T02520245 52012 IEM_DS3505
ZGNN,2002-08-30 01:00,ZGNN 300100Z AUTO 00000KT 4SM 27/23 A2980 RMK T02700230 IEM_DS3505
ZGNN,2002-08-30 02:00,ZGNN 300200Z AUTO 6SM 28/24 A2983 RMK T02800240 IEM_DS3505
ZGNN,2002-08-30 03:00,ZGNN 300300Z AUTO 32006KT 7SM 30/25 A2980 RMK SLP092 T03010251 52002 IEM_DS3505
ZGNN,2002-08-30 04:00,ZGNN 300400Z AUTO 7SM 31/23 A2980 RMK T03100230 IEM_DS3505
ZGNN,2002-08-30 05:00,ZGNN 300500Z AUTO 7SM 33/23 A2977 RMK T03300230 IEM_DS3505
ZGNN,2002-08-30 06:00,ZGNN 300600Z AUTO 22004KT 9SM 33/24 A2974 RMK SLP070 T03290242 57022 IEM_DS3505
ZGNN,2002-08-30 07:00,ZGNN 300700Z AUTO 7SM 34/22 A2971 RMK T03400220 IEM_DS3505
ZGNN,2002-08-30 08:00,ZGNN 300800Z AUTO 7SM 33/22 A2968 RMK T03300220 IEM_DS3505
ZGNN,2002-08-30 09:00,ZGNN 300900Z AUTO 22004KT 7SM 34/25 RMK SLP050 T03380246 57019 IEM_DS3505
ZGNN,2002-08-30 10:00,ZGNN 301000Z AUTO 6SM 33/22 A2968 RMK T03300220 IEM_DS3505
ZGNN,2002-08-30 11:00,ZGNN 301100Z AUTO 00000KT 6SM 31/22 A2968 RMK T03100220 IEM_DS3505
ZGNN,2002-08-30 12:00,ZGNN 301200Z AUTO 00000KT 6SM 28/26 A2968 RMK SLP056 T02840256 52005 IEM_DS3505
ZGNN,2002-08-30 13:00,ZGNN 301300Z AUTO 28/22 A2971 RMK T02800220 IEM_DS3505
ZGNN,2002-08-30 14:00,ZGNN 301400Z AUTO 00000KT 4SM 26/23 A2974 RMK T02600230 IEM_DS3505
ZGNN,2002-08-30 15:00,ZGNN 301500Z AUTO 00000KT 6SM 25/23 A2974 RMK SLP070 T02480233 52014 IEM_DS3505
ZGNN,2002-08-30 16:00,ZGNN 301600Z AUTO 2SM 25/23 A2974 RMK T02500230 IEM_DS3505
ZGNN,2002-08-30 17:00,ZGNN 301700Z AUTO 29004KT 2SM 25/23 A2974 RMK T02500230 IEM_DS3505
ZGNN,2002-08-30 18:00,ZGNN 301800Z AUTO 34002KT 5SM 24/23 A2974 RMK SLP062 T02410229 57007 IEM_DS3505
ZGNN,2002-08-30 19:00,ZGNN 301900Z AUTO 00000KT 1 1/2SM 24/22 A2971 RMK T02400220 IEM_DS3505
ZGNN,2002-08-30 20:00,ZGNN 302000Z AUTO 00000KT 3SM 24/22 A2971 RMK T02400220 IEM_DS3505
ZGNN,2002-08-30 21:00,ZGNN 302100Z AUTO 00000KT 5SM 23/22 A2971 RMK SLP064 T02340222 52002 IEM_DS3505
ZGNN,2002-08-30 22:00,ZGNN 302200Z AUTO 00000KT 2 1/2SM 23/22 A2974 RMK T02300220 IEM_DS3505
ZGNN,2002-08-30 23:00,ZGNN 302300Z AUTO 24002KT 2 1/2SM 23/22 A2974 RMK T02300220 IEM_DS3505
ZGNN,2002-08-31 00:00,ZGNN 310000Z AUTO 32002KT 12SM 24/22 RMK SLP078 T02430225 52012 IEM_DS3505
ZGNN,2002-08-31 01:00,ZGNN 310100Z AUTO 6SM 27/21 A2977 RMK T02700210 IEM_DS3505
ZGNN,2002-08-31 02:00,ZGNN 310200Z AUTO 6SM 29/23 A2980 RMK T02900230 IEM_DS3505
ZGNN,2002-08-31 03:00,ZGNN 310300Z AUTO 36004KT 14SM 30/23 A2980 RMK SLP086 T03040226 52009 IEM_DS3505
ZGNN,2002-08-31 04:00,ZGNN 310400Z AUTO 6SM 31/21 A2977 RMK T03100210 IEM_DS3505
ZGNN,2002-08-31 05:00,ZGNN 310500Z AUTO 6SM 33/22 A2977 RMK T03300220 IEM_DS3505
ZGNN,2002-08-31 06:00,ZGNN 310600Z AUTO 16002KT 14SM 33/22 A2974 RMK SLP065 T03300223 57021 IEM_DS3505
ZGNN,2002-08-31 07:00,ZGNN 310700Z AUTO 7SM 34/21 A2971 RMK T03400210 IEM_DS3505
ZGNN,2002-08-31 08:00,ZGNN 310800Z AUTO 6SM 34/22 A2968 RMK T03400220 IEM_DS3505
ZGNN,2002-08-31 09:00,ZGNN 310900Z AUTO 07006KT 9SM 33/22 A2968 RMK SLP046 T03320223 57018 IEM_DS3505
ZGNN,2002-08-31 10:00,ZGNN 311000Z AUTO 07004KT 6SM 32/22 A2968 RMK T03200220 IEM_DS3505
ZGNN,2002-08-31 11:00,ZGNN 311100Z AUTO 06002KT 30/24 A2968 RMK T03000240 IEM_DS3505
ZGNN,2002-08-31 12:00,ZGNN 311200Z AUTO 00000KT 9SM 28/24 RMK SLP057 T02850242 52010 IEM_DS3505
ZGNN,2002-08-31 13:00,ZGNN 311300Z AUTO 03002KT 4SM 27/24 A2971 RMK T02700240 IEM_DS3505
ZGNN,2002-08-31 14:00,ZGNN 311400Z AUTO 02002KT 4SM 27/23 A2974 RMK T02700230 IEM_DS3505
ZGNN,2002-08-31 15:00,ZGNN 311500Z AUTO 00000KT 7SM 26/24 A2977 RMK SLP074 T02570241 52017 IEM_DS3505
ZGNN,2002-08-31 16:00,ZGNN 311600Z AUTO 01002KT 1 1/2SM 27/23 A2977 RMK T02700230 IEM_DS3505
ZGNN,2002-08-31 17:00,ZGNN 311700Z AUTO 00000KT 1 1/4SM 25/23 A2974 RMK T02500230 IEM_DS3505
ZGNN,2002-08-31 18:00,ZGNN 311800Z AUTO 00000KT 6SM 24/23 A2974 RMK SLP069 T02430230 57005 IEM_DS3505
ZGNN,2002-08-31 19:00,ZGNN 311900Z AUTO 00000KT 1 1/2SM 24/22 A2974 RMK T02400220 IEM_DS3505
ZGNN,2002-08-31 20:00,ZGNN 312000Z AUTO 00000KT 1 1/4SM 24/22 A2974 RMK T02400220 IEM_DS3505
ZGNN,2002-08-31 21:00,ZGNN 312100Z AUTO 00000KT 6SM 23/22 A2974 RMK SLP075 T02340222 52006 IEM_DS3505
ZGNN,2002-08-31 22:00,ZGNN 312200Z AUTO 00000KT 3SM 24/23 A2977 RMK T02400230 IEM_DS3505
ZGNN,2002-08-31 23:00,ZGNN 312300Z AUTO 32002KT 2SM 23/22 A2980 RMK T02300220 IEM_DS3505
ZGNN,2002-09-01 00:00,ZGNN 010000Z AUTO 00000KT 2SM 24/24 A2980 RMK SLP093 T02440237 52017 IEM_DS3505
ZGNN,2002-09-01 01:00,ZGNN 010100Z AUTO 1 1/4SM 26/24 A2983 RMK T02600240 IEM_DS3505
ZGNN,2002-09-01 02:00,ZGNN 010200Z AUTO 1 1/4SM 29/23 A2983 RMK T02900230 IEM_DS3505
ZGNN,2002-09-01 03:00,ZGNN 010300Z AUTO 00000KT 4SM 31/25 A2983 RMK SLP100 T03090250 52008 IEM_DS3505
ZGNN,2002-09-01 04:00,ZGNN 010400Z AUTO 2 1/2SM 32/23 A2983 RMK T03200230 IEM_DS3505
ZGNN,2002-09-01 06:00,ZGNN 010600Z AUTO 34002KT 6SM 33/22 A2977 RMK SLP081 T03310216 57019 IEM_DS3505
ZGNN,2002-09-01 07:00,ZGNN 010700Z AUTO 7SM 33/19 A2977 RMK T03300190 IEM_DS3505
ZGNN,2002-09-01 08:00,ZGNN 010800Z AUTO 7SM 33/20 A2974 RMK T03300200 IEM_DS3505
ZGNN,2002-09-01 09:00,ZGNN 010900Z AUTO 00000KT 6SM 33/20 A2974 RMK SLP067 T03320202 57014 IEM_DS3505
ZGNN,2002-09-01 10:00,ZGNN 011000Z AUTO 11004KT 6SM 32/21 A2974 RMK T03200210 IEM_DS3505
ZGNN,2002-09-01 11:00,ZGNN 011100Z AUTO 11002KT 6SM 30/22 A2974 RMK T03000220 IEM_DS3505
ZGNN,2002-09-01 12:00,ZGNN 011200Z AUTO 00000KT 6SM 28/24 A2977 RMK SLP078 T02750242 52010 IEM_DS3505
ZGNN,2002-09-01 13:00,ZGNN 011300Z AUTO 29002KT 6SM 27/22 A2977 RMK T02700220 IEM_DS3505
ZGNN,2002-09-01 14:00,ZGNN 011400Z AUTO 00000KT 6SM 25/23 A2980 RMK T02500230 IEM_DS3505
ZGNN,2002-09-01 15:00,ZGNN 011500Z AUTO 00000KT 6SM 25/23 A2983 RMK SLP096 T02480231 52019 IEM_DS3505
ZGNN,2002-09-01 16:00,ZGNN 011600Z AUTO 00000KT 4SM 25/22 A2983 RMK T02500220 IEM_DS3505
ZGNN,2002-09-01 17:00,ZGNN 011700Z AUTO 00000KT 2SM 25/22 A2980 RMK T02500220 IEM_DS3505
ZGNN,2002-09-01 18:00,ZGNN 011800Z AUTO 00000KT 5SM 24/23 A2980 RMK SLP089 T02410234 57007 IEM_DS3505
ZGNN,2002-09-01 19:00,ZGNN 011900Z AUTO 00000KT 2SM 24/23 A2980 RMK T02400230 IEM_DS3505
ZGNN,2002-09-01 20:00,ZGNN 012000Z AUTO 00000KT 1 1/2SM 24/23 A2980 RMK T02400230 IEM_DS3505
ZGNN,2002-09-01 21:00,ZGNN 012100Z AUTO 00000KT 4SM 24/23 A2983 RMK SLP097 T02360232 52008 IEM_DS3505
ZGNN,2002-09-01 22:00,ZGNN 012200Z AUTO 00000KT 2 1/2SM 24/23 A2983 RMK T02400230 IEM_DS3505
ZGNN,2002-09-01 23:00,ZGNN 012300Z AUTO 00000KT 1 1/4SM 24/23 A2983 RMK T02400230 IEM_DS3505
ZGNN,2002-09-02 00:00,ZGNN 020000Z AUTO 00000KT 2 1/2SM 25/24 A2985 RMK SLP109 T02510241 52011 IEM_DS3505
ZGNN,2002-09-02 01:00,ZGNN 020100Z AUTO 00000KT 1 1/4SM 26/24 A2988 RMK T02600240 IEM_DS3505
ZGNN,2002-09-02 02:00,ZGNN 020200Z AUTO 00000KT 3SM 29/24 A2988 RMK T02900240 IEM_DS3505
ZGNN,2002-09-02 03:00,ZGNN 020300Z AUTO 14004KT 6SM 30/24 A2985 RMK SLP112 T02970240 52003 IEM_DS3505
ZGNN,2002-09-02 04:00,ZGNN 020400Z AUTO 7SM 31/23 A2985 RMK T03100230 IEM_DS3505
ZGNN,2002-09-02 05:00,ZGNN 020500Z AUTO 30006KT 7SM 30/24 A2983 RMK T03000240 IEM_DS3505
ZGNN,2002-09-02 06:00,ZGNN 020600Z AUTO 34004KT 11SM 31/22 A2980 RMK SLP087 T03090220 57024 IEM_DS3505
ZGNN,2002-09-02 07:00,ZGNN 020700Z AUTO 7SM 33/21 A2977 RMK T03300210 IEM_DS3505
ZGNN,2002-09-02 08:00,ZGNN 020800Z AUTO 7SM 33/21 A2974 RMK T03300210 IEM_DS3505
ZGNN,2002-09-02 09:00,ZGNN 020900Z AUTO 27002KT 11SM 33/22 A2974 RMK SLP068 T03330217 57019 IEM_DS3505
ZGNN,2002-09-02 10:00,ZGNN 021000Z AUTO 00000KT 6SM 32/21 A2974 RMK T03200210 IEM_DS3505
ZGNN,2002-09-02 11:00,ZGNN 021100Z AUTO 11002KT 6SM 30/23 A2974 RMK T03000230 IEM_DS3505
ZGNN,2002-09-02 12:00,ZGNN 021200Z AUTO 14002KT 7SM 28/24 A2977 RMK 60000 SLP081 T02820245 52012 IEM_DS3505
ZGNN,2002-09-02 13:00,ZGNN 021300Z AUTO 7SM 28/23 A2980 RMK T02800230 IEM_DS3505
ZGNN,2002-09-02 14:00,ZGNN 021400Z AUTO 00000KT 6SM 27/23 A2980 RMK T02700230 IEM_DS3505
ZGNN,2002-09-02 15:00,ZGNN 021500Z AUTO 00000KT 7SM 26/24 A2983 RMK SLP096 T02630244 52016 IEM_DS3505
ZGNN,2002-09-02 16:00,ZGNN 021600Z AUTO 08002KT 4SM 26/23 A2983 RMK T02600230 IEM_DS3505
ZGNN,2002-09-02 17:00,ZGNN 021700Z AUTO 00000KT 4SM 27/23 A2983 RMK T02700230 IEM_DS3505
ZGNN,2002-09-02 18:00,ZGNN 021800Z AUTO 00000KT 6SM 26/24 A2983 RMK SLP094 T02610245 57002 IEM_DS3505
ZGNN,2002-09-02 19:00,ZGNN 021900Z AUTO 03004KT 2SM 25/24 A2983 RMK T02500240 IEM_DS3505
ZGNN,2002-09-02 20:00,ZGNN 022000Z AUTO 03004KT 2SM 25/23 A2983 RMK T02500230 IEM_DS3505
ZGNN,2002-09-02 21:00,ZGNN 022100Z AUTO 00000KT 5SM 25/24 A2983 RMK 70000 SLP097 T02490242 52003 IEM_DS3505
ZGNN,2002-09-02 22:00,ZGNN 022200Z AUTO 05004KT 3SM 25/23 A2983 RMK T02500230 IEM_DS3505
ZGNN,2002-09-02 23:00,ZGNN 022300Z AUTO 05002KT 1 1/2SM 25/23 A2985 RMK T02500230 IEM_DS3505
ZGNN,2002-09-03 00:00,ZGNN 030000Z AUTO 09002KT 2 1/2SM 26/25 A2985 RMK 70000 SLP114 T02600247 52016 IEM_DS3505
ZGNN,2002-09-03 01:00,ZGNN 030100Z AUTO 07004KT 7SM 27/24 A2988 RMK T02700240 IEM_DS3505
ZGNN,2002-09-03 02:00,ZGNN 030200Z AUTO 7SM 29/24 A2988 RMK T02900240 IEM_DS3505
ZGNN,2002-09-03 03:00,ZGNN 030300Z AUTO 07004KT 9SM 30/25 A2988 RMK SLP119 T03030253 52006 IEM_DS3505
ZGNN,2002-09-03 04:00,ZGNN 030400Z AUTO 7SM 32/22 A2985 RMK T03200220 IEM_DS3505
ZGNN,2002-09-03 05:00,ZGNN 030500Z AUTO 7SM 32/21 A2983 RMK T03200210 IEM_DS3505
ZGNN,2002-09-03 06:00,ZGNN 030600Z AUTO 00000KT 19SM 33/22 A2980 RMK SLP089 T03310225 57029 IEM_DS3505
ZGNN,2002-09-03 07:00,ZGNN 030700Z AUTO 12006KT 7SM 33/21 A2977 RMK T03300210 IEM_DS3505
ZGNN,2002-09-03 08:00,ZGNN 030800Z AUTO 11006KT 6SM 33/21 A2974 RMK T03300210 IEM_DS3505
ZGNN,2002-09-03 09:00,ZGNN 030900Z AUTO 04004KT 11SM 30/26 A2974 RMK SLP064 T03050256 57026 IEM_DS3505
ZGNN,2002-09-03 10:00,ZGNN 031000Z AUTO 7SM 30/24 A2974 RMK T03000240 IEM_DS3505
ZGNN,2002-09-03 11:00,ZGNN 031100Z AUTO 05004KT 6SM 29/24 A2974 RMK T02900240 IEM_DS3505
ZGNN,2002-09-03 12:00,ZGNN 031200Z AUTO 00000KT 9SM 28/25 A2974 RMK 60012 SLP075 T02760252 52011 IEM_DS3505
ZGNN,2002-09-03 13:00,ZGNN 031300Z AUTO 04006KT 6SM 26/24 A2977 RMK T02600240 IEM_DS3505
ZGNN,2002-09-03 14:00,ZGNN 031400Z AUTO 04006KT 5SM 26/23 A2983 RMK T02600230 IEM_DS3505
ZGNN,2002-09-03 15:00,ZGNN 031500Z AUTO 00000KT 9SM 26/24 RMK SLP099 T02580236 52024 IEM_DS3505
ZGNN,2002-09-03 16:00,ZGNN 031600Z AUTO 2SM 25/23 A2983 RMK T02500230 IEM_DS3505
ZGNN,2002-09-03 17:00,ZGNN 031700Z AUTO 05004KT 2 1/2SM 25/22 A2983 RMK T02500220 IEM_DS3505
ZGNN,2002-09-03 18:00,ZGNN 031800Z AUTO 00000KT 7SM 25/23 A2983 RMK SLP093 T02500231 57006 IEM_DS3505
ZGNN,2002-09-03 19:00,ZGNN 031900Z AUTO 00000KT 2SM 25/22 A2980 RMK T02500220 IEM_DS3505
ZGNN,2002-09-03 20:00,ZGNN 032000Z AUTO 2SM 24/22 A2980 RMK T02400220 IEM_DS3505
ZGNN,2002-09-03 21:00,ZGNN 032100Z AUTO 00000KT 6SM 24/22 A2980 RMK 70010 SLP094 T02370224 54000 IEM_DS3505
ZGNN,2002-09-03 22:00,ZGNN 032200Z AUTO 05002KT 1 1/2SM 23/22 A2983 RMK T02300220 IEM_DS3505
ZGNN,2002-09-03 23:00,ZGNN 032300Z AUTO 1 1/2SM 24/21 A2983 RMK T02400210 IEM_DS3505
ZGNN,2002-09-04 00:00,ZGNN 040000Z AUTO 00000KT 4SM 24/23 A2985 RMK 70010 SLP113 T02390229 52018 IEM_DS3505
ZGNN,2002-09-04 01:00,ZGNN 040100Z AUTO 05004KT 3SM 26/21 A2988 RMK T02600210 IEM_DS3505
ZGNN,2002-09-04 02:00,ZGNN 040200Z AUTO 5SM 27/21 A2988 RMK T02700210 IEM_DS3505
ZGNN,2002-09-04 03:00,ZGNN 040300Z AUTO 07006KT 9SM 29/21 A2988 RMK SLP115 T02920214 52003 IEM_DS3505
ZGNN,2002-09-04 04:00,ZGNN 040400Z AUTO 7SM 31/21 A2985 RMK T03100210 IEM_DS3505
ZGNN,2002-09-04 05:00,ZGNN 040500Z AUTO 7SM 31/21 A2985 RMK T03100210 IEM_DS3505
ZGNN,2002-09-04 06:00,ZGNN 040600Z AUTO 07006KT 9SM 32/21 A2980 RMK SLP089 T03180214 57025 IEM_DS3505
ZGNN,2002-09-04 07:00,ZGNN 040700Z AUTO 07006KT 7SM 32/20 A2977 RMK T03200200 IEM_DS3505
ZGNN,2002-09-04 08:00,ZGNN 040800Z AUTO 7SM 32/21 A2974 RMK T03200210 IEM_DS3505
ZGNN,2002-09-04 09:00,ZGNN 040900Z AUTO 09004KT 9SM 33/22 A2974 RMK SLP067 T03260219 57022 IEM_DS3505
ZGNN,2002-09-04 10:00,ZGNN 041000Z AUTO 6SM 31/21 A2974 RMK T03100210 IEM_DS3505
ZGNN,2002-09-04 11:00,ZGNN 041100Z AUTO 07004KT 6SM 29/22 A2974 RMK T02900220 IEM_DS3505
ZGNN,2002-09-04 12:00,ZGNN 041200Z AUTO 00000KT 7SM 28/24 A2974 RMK SLP077 T02750239 52009 IEM_DS3505
ZGNN,2002-09-04 13:00,ZGNN 041300Z AUTO 00000KT 6SM 27/24 A2977 RMK T02700240 IEM_DS3505
ZGNN,2002-09-04 14:00,ZGNN 041400Z AUTO 00000KT 6SM 26/23 A2980 RMK T02600230 IEM_DS3505
ZGNN,2002-09-04 15:00,ZGNN 041500Z AUTO 00000KT 6SM 25/23 A2983 RMK SLP096 T02480232 52019 IEM_DS3505
ZGNN,2002-09-04 16:00,ZGNN 041600Z AUTO 19002KT 1 1/2SM 25/23 A2983 RMK T02500230 IEM_DS3505
ZGNN,2002-09-04 18:00,ZGNN 041800Z AUTO 00000KT 6SM 24/23 A2980 RMK SLP090 T02370230 57005 IEM_DS3505
ZGNN,2002-09-04 19:00,ZGNN 041900Z AUTO 00000KT 1 1/2SM 24/22 A2980 RMK T02400220 IEM_DS3505
ZGNN,2002-09-04 20:00,ZGNN 042000Z AUTO 00000KT 1 1/4SM 23/22 A2977 RMK T02300220 IEM_DS3505
ZGNN,2002-09-04 21:00,ZGNN 042100Z AUTO 00000KT 5SM 23/22 A2980 RMK SLP085 T02330224 57005 IEM_DS3505
ZGNN,2002-09-04 22:00,ZGNN 042200Z AUTO 00000KT 2 1/2SM 24/22 A2980 RMK T02400220 IEM_DS3505
ZGNN,2002-09-04 23:00,ZGNN 042300Z AUTO 1 1/4SM 24/22 A2983 RMK T02400220 IEM_DS3505
ZGNN,2002-09-05 00:00,ZGNN 050000Z AUTO 00000KT 2SM 24/24 A2983 RMK SLP103 T02440237 52017 IEM_DS3505
ZGNN,2002-09-05 01:00,ZGNN 050100Z AUTO 00000KT 1 1/2SM 27/23 A2985 RMK T02700230 IEM_DS3505
ZGNN,2002-09-05 02:00,ZGNN 050200Z AUTO 1 1/2SM 29/23 A2985 RMK T02900230 IEM_DS3505
ZGNN,2002-09-05 03:00,ZGNN 050300Z AUTO 34002KT 6SM 30/24 A2985 RMK SLP109 T03020235 52006 IEM_DS3505
ZGNN,2002-09-05 04:00,ZGNN 050400Z AUTO 3SM 31/22 A2983 RMK T03100220 IEM_DS3505
ZGNN,2002-09-05 05:00,ZGNN 050500Z AUTO 35004KT 5SM 32/22 A2980 RMK T03200220 IEM_DS3505
ZGNN,2002-09-05 06:00,ZGNN 050600Z AUTO 32004KT 6SM 32/22 A2977 RMK SLP080 T03250219 57028 IEM_DS3505
ZGNN,2002-09-05 07:00,ZGNN 050700Z AUTO 35010KT 7SM 32/22 A2974 RMK T03200220 IEM_DS3505
ZGNN,2002-09-05 08:00,ZGNN 050800Z AUTO 34006KT 7SM 33/21 A2971 RMK T03300210 IEM_DS3505
ZGNN,2002-09-05 09:00,ZGNN 050900Z AUTO 02004KT 9SM 32/24 RMK SLP061 T03200238 57019 IEM_DS3505
ZGNN,2002-09-05 10:00,ZGNN 051000Z AUTO 05004KT 6SM 31/21 A2971 RMK T03100210 IEM_DS3505
ZGNN,2002-09-05 11:00,ZGNN 051100Z AUTO 00000KT 6SM 30/23 A2974 RMK T03000230 IEM_DS3505
ZGNN,2002-09-05 12:00,ZGNN 051200Z AUTO 00000KT 9SM 28/24 A2974 RMK SLP074 T02750241 52012 IEM_DS3505
ZGNN,2002-09-05 13:00,ZGNN 051300Z AUTO 00000KT 3SM 27/23 A2977 RMK T02700230 IEM_DS3505
ZGNN,2002-09-05 14:00,ZGNN 051400Z AUTO 3SM 26/23 A2980 RMK T02600230 IEM_DS3505
ZGNN,2002-09-05 17:00,ZGNN 051700Z AUTO 00000KT 2SM 25/22 A2980 RMK T02500220 IEM_DS3505
ZGNN,2002-09-05 18:00,ZGNN 051800Z AUTO 00000KT 7SM 24/23 A2980 RMK SLP085 T02440232 57009 IEM_DS3505
ZGNN,2002-09-05 19:00,ZGNN 051900Z AUTO 00000KT 2SM 24/23 A2977 RMK T02400230 IEM_DS3505
ZGNN,2002-09-05 21:00,ZGNN 052100Z AUTO 00000KT 6SM 24/23 RMK SLP082 T02370230 57003 IEM_DS3505
ZGNN,2002-09-05 22:00,ZGNN 052200Z AUTO 25002KT 1 1/2SM 24/22 A2980 RMK T02400220 IEM_DS3505
ZGNN,2002-09-05 23:00,ZGNN 052300Z AUTO 00000KT 1 1/2SM 24/22 A2980 RMK T02400220 IEM_DS3505
ZGNN,2002-09-06 00:00,ZGNN 060000Z AUTO 00000KT 2 1/2SM 24/24 A2983 RMK SLP100 T02430236 52017 IEM_DS3505
ZGNN,2002-09-06 01:00,ZGNN 060100Z AUTO 00000KT 2 1/2SM 27/23 A2983 RMK T02700230 IEM_DS3505
ZGNN,2002-09-06 02:00,ZGNN 060200Z AUTO 29/22 A2983 RMK T02900220 IEM_DS3505
ZGNN,2002-09-06 03:00,ZGNN 060300Z AUTO 09004KT 6SM 30/22 A2983 RMK SLP100 T03020224 52001 IEM_DS3505
ZGNN,2002-09-06 04:00,ZGNN 060400Z AUTO 5SM 32/22 A2980 RMK T03200220 IEM_DS3505
ZGNN,2002-09-06 05:00,ZGNN 060500Z AUTO 5SM 32/22 A2977 RMK T03200220 IEM_DS3505
ZGNN,2002-09-06 06:00,ZGNN 060600Z AUTO 02002KT 6SM 32/22 A2974 RMK SLP069 T03190224 57031 IEM_DS3505
ZGNN,2002-09-06 07:00,ZGNN 060700Z AUTO 33/21 A2971 RMK T03300210 IEM_DS3505
ZGNN,2002-09-06 08:00,ZGNN 060800Z AUTO 01006KT 5SM 33/21 A2968 RMK T03300210 IEM_DS3505
ZGNN,2002-09-06 10:00,ZGNN 061000Z AUTO 08006KT 7SM 30/22 A2968 RMK T03000220 IEM_DS3505
ZGNN,2002-09-06 11:00,ZGNN 061100Z AUTO 00000KT 29/23 A2968 RMK T02900230 IEM_DS3505
ZGNN,2002-09-06 12:00,ZGNN 061200Z AUTO 00000KT 6SM 28/24 A2971 RMK SLP061 T02770238 52009 IEM_DS3505
ZGNN,2002-09-06 13:00,ZGNN 061300Z AUTO 00000KT 3SM 27/24 A2974 RMK T02700240 IEM_DS3505
ZGNN,2002-09-06 14:00,ZGNN 061400Z AUTO 01002KT 3SM 26/23 A2974 RMK T02600230 IEM_DS3505
ZGNN,2002-09-06 15:00,ZGNN 061500Z AUTO 00000KT 5SM 25/24 A2974 RMK SLP074 T02540238 52014 IEM_DS3505
ZGNN,2002-09-06 16:00,ZGNN 061600Z AUTO 00000KT 1 1/2SM 26/23 A2974 RMK T02600230 IEM_DS3505
ZGNN,2002-09-06 17:00,ZGNN 061700Z AUTO 00000KT 1 1/4SM 25/23 A2974 RMK T02500230 IEM_DS3505
ZGNN,2002-09-06 18:00,ZGNN 061800Z AUTO 00000KT 5SM 24/23 A2974 RMK SLP069 T02410232 57005 IEM_DS3505
ZGNN,2002-09-06 19:00,ZGNN 061900Z AUTO 00000KT 1 1/4SM 24/23 A2974 RMK T02400230 IEM_DS3505
ZGNN,2002-09-06 20:00,ZGNN 062000Z AUTO 00000KT 1SM 24/23 A2974 RMK T02400230 IEM_DS3505
ZGNN,2002-09-06 21:00,ZGNN 062100Z AUTO 00000KT 5SM 24/23 A2974 RMK SLP071 T02350231 52002 IEM_DS3505
ZGNN,2002-09-06 22:00,ZGNN 062200Z AUTO 05004KT 1 1/4SM 23/22 A2977 RMK T02300220 IEM_DS3505
ZGNN,2002-09-06 23:00,ZGNN 062300Z AUTO 00000KT 1 1/4SM 24/22 A2977 RMK T02400220 IEM_DS3505
ZGNN,2002-09-07 00:00,ZGNN 070000Z AUTO 00000KT 3SM 24/24 A2977 RMK SLP085 T02440238 52013 IEM_DS3505
ZGNN,2002-09-07 01:00,ZGNN 070100Z AUTO 35004KT 1 1/4SM 27/22 A2977 RMK T02700220 IEM_DS3505
ZGNN,2002-09-07 02:00,ZGNN 070200Z AUTO 35006KT 3SM 28/22 A2980 RMK T02800220 IEM_DS3505
ZGNN,2002-09-07 03:00,ZGNN 070300Z AUTO 02006KT 4SM 29/23 A2980 RMK SLP083 T02910226 57001 IEM_DS3505
ZGNN,2002-09-07 04:00,ZGNN 070400Z AUTO 2 1/2SM 30/22 A2977 RMK T03000220 IEM_DS3505
ZGNN,2002-09-07 05:00,ZGNN 070500Z AUTO 2 1/2SM 30/21 A2977 RMK T03000210 IEM_DS3505
ZGNN,2002-09-07 06:00,ZGNN 070600Z AUTO 32004KT 4SM 31/23 A2974 RMK SLP065 T03130227 57018 IEM_DS3505
ZGNN,2002-09-07 07:00,ZGNN 070700Z AUTO 3SM 31/20 A2971 RMK T03100200 IEM_DS3505
ZGNN,2002-09-07 08:00,ZGNN 070800Z AUTO 33006KT 32/21 A2968 RMK T03200210 IEM_DS3505
ZGNN,2002-09-07 09:00,ZGNN 070900Z AUTO 04002KT 5SM 32/22 A2968 RMK SLP047 T03190224 57018 IEM_DS3505
ZGNN,2002-09-07 10:00,ZGNN 071000Z AUTO 03008KT 3SM 31/21 A2968 RMK T03100210 IEM_DS3505
ZGNN,2002-09-07 11:00,ZGNN 071100Z AUTO 05004KT 2 1/2SM 28/22 A2968 RMK T02800220 IEM_DS3505
ZGNN,2002-09-07 12:00,ZGNN 071200Z AUTO 00000KT 7SM 27/24 A2968 RMK SLP056 T02730240 52008 IEM_DS3505
ZGNN,2002-09-07 13:00,ZGNN 071300Z AUTO 36002KT 2SM 27/22 A2971 RMK T02700220 IEM_DS3505
ZGNN,2002-09-07 14:00,ZGNN 071400Z AUTO 02002KT 2SM 25/22 A2974 RMK T02500220 IEM_DS3505
ZGNN,2002-09-07 15:00,ZGNN 071500Z AUTO 00000KT 7SM 24/23 A2977 RMK SLP074 T02450226 52019 IEM_DS3505
ZGNN,2002-09-07 16:00,ZGNN 071600Z AUTO 2SM 25/21 A2977 RMK T02500210 IEM_DS3505
ZGNN,2002-09-07 17:00,ZGNN 071700Z AUTO 2SM 24/21 A2977 RMK T02400210 IEM_DS3505
ZGNN,2002-09-07 18:00,ZGNN 071800Z AUTO 00000KT 6SM 24/21 A2974 RMK SLP072 T02350211 57002 IEM_DS3505
ZGNN,2002-09-07 19:00,ZGNN 071900Z AUTO 02004KT 2SM 23/20 A2974 RMK T02300200 IEM_DS3505
ZGNN,2002-09-07 20:00,ZGNN 072000Z AUTO 2SM 24/20 A2974 RMK T02400200 IEM_DS3505
ZGNN,2002-09-07 21:00,ZGNN 072100Z AUTO 00000KT 5SM 22/21 A2974 RMK SLP069 T02200209 57003 IEM_DS3505
ZGNN,2002-09-07 22:00,ZGNN 072200Z AUTO 00000KT 2 1/2SM 22/20 A2974 RMK T02200200 IEM_DS3505
ZGNN,2002-09-07 23:00,ZGNN 072300Z AUTO 00000KT 2 1/2SM 22/21 A2977 RMK T02200210 IEM_DS3505
ZGNN,2002-09-08 00:00,ZGNN 080000Z AUTO 00000KT 2SM 22/22 A2977 RMK SLP086 T02240215 52015 IEM_DS3505
ZGNN,2002-09-08 01:00,ZGNN 080100Z AUTO 35004KT 3SM 26/19 A2980 RMK T02600190 IEM_DS3505
ZGNN,2002-09-08 02:00,ZGNN 080200Z AUTO 01006KT 3SM 27/19 A2980 RMK T02700190 IEM_DS3505
ZGNN,2002-09-08 03:00,ZGNN 080300Z AUTO 07006KT 4SM 28/20 A2980 RMK SLP092 T02810201 52007 IEM_DS3505
ZGNN,2002-09-08 04:00,ZGNN 080400Z AUTO 33006KT 5SM 29/18 A2980 RMK T02900180 IEM_DS3505
ZGNN,2002-09-08 05:00,ZGNN 080500Z AUTO 5SM 30/18 A2977 RMK T03000180 IEM_DS3505
ZGNN,2002-09-08 06:00,ZGNN 080600Z AUTO 36006KT 7SM 30/18 A2974 RMK SLP070 T03010185 57021 IEM_DS3505
ZGNN,2002-09-08 07:00,ZGNN 080700Z AUTO 01008KT 7SM 31/17 A2974 RMK T03100170 IEM_DS3505
ZGNN,2002-09-08 08:00,ZGNN 080800Z AUTO 34008KT 7SM 31/17 A2971 RMK T03100170 IEM_DS3505
ZGNN,2002-09-08 09:00,ZGNN 080900Z AUTO 34006KT 7SM 31/18 A2971 RMK SLP061 T03060176 57010 IEM_DS3505
ZGNN,2002-09-08 10:00,ZGNN 081000Z AUTO 35006KT 7SM 30/17 A2971 RMK T03000170 IEM_DS3505
ZGNN,2002-09-08 11:00,ZGNN 081100Z AUTO 08002KT 6SM 27/18 A2971 RMK T02700180 IEM_DS3505
ZGNN,2002-09-08 12:00,ZGNN 081200Z AUTO 00000KT 9SM 25/21 A2974 RMK SLP067 T02520210 52005 IEM_DS3505
ZGNN,2002-09-08 13:00,ZGNN 081300Z AUTO 00000KT 5SM 25/20 A2974 RMK T02500200 IEM_DS3505
ZGNN,2002-09-08 14:00,ZGNN 081400Z AUTO 00000KT 5SM 23/21 A2977 RMK T02300210 IEM_DS3505
ZGNN,2002-09-08 15:00,ZGNN 081500Z AUTO 00000KT 7SM 22/20 A2980 RMK SLP089 T02180203 52022 IEM_DS3505
ZGNN,2002-09-08 16:00,ZGNN 081600Z AUTO 00000KT 3SM 22/19 A2980 RMK T02200190 IEM_DS3505
ZGNN,2002-09-08 17:00,ZGNN 081700Z AUTO 00000KT 3SM 22/19 A2980 RMK T02200190 IEM_DS3505
ZGNN,2002-09-08 18:00,ZGNN 081800Z AUTO 00000KT 7SM 22/20 A2977 RMK SLP084 T02150200 57004 IEM_DS3505
ZGNN,2002-09-08 19:00,ZGNN 081900Z AUTO 00000KT 2 1/2SM 22/20 A2977 RMK T02200200 IEM_DS3505
ZGNN,2002-09-08 20:00,ZGNN 082000Z AUTO 31002KT 3SM 22/18 A2977 RMK T02200180 IEM_DS3505
ZGNN,2002-09-08 21:00,ZGNN 082100Z AUTO 00000KT 6SM 22/20 A2977 RMK SLP078 T02180200 57006 IEM_DS3505
ZGNN,2002-09-08 22:00,ZGNN 082200Z AUTO 7SM 22/20 A2977 RMK T02200200 IEM_DS3505
ZGNN,2002-09-08 23:00,ZGNN 082300Z AUTO 00000KT 6SM 22/20 A2977 RMK T02200200 IEM_DS3505
ZGNN,2002-09-09 00:00,ZGNN 090000Z AUTO 00000KT 6SM 23/20 A2980 RMK SLP086 T02310205 52007 IEM_DS3505
ZGNN,2002-09-09 01:00,ZGNN 090100Z AUTO 6SM 25/20 A2980 RMK T02500200 IEM_DS3505
ZGNN,2002-09-09 02:00,ZGNN 090200Z AUTO 6SM 27/19 A2983 RMK T02700190 IEM_DS3505
ZGNN,2002-09-09 03:00,ZGNN 090300Z AUTO 22002KT 11SM 29/20 A2980 RMK SLP092 T02880197 52007 IEM_DS3505
ZGNN,2002-09-09 04:00,ZGNN 090400Z AUTO 6SM 31/17 A2980 RMK T03100170 IEM_DS3505
ZGNN,2002-09-09 05:00,ZGNN 090500Z AUTO 7SM 32/17 A2977 RMK T03200170 IEM_DS3505
ZGNN,2002-09-09 06:00,ZGNN 090600Z AUTO 22004KT 16SM 32/19 A2974 RMK SLP069 T03190193 57022 IEM_DS3505
ZGNN,2002-09-09 07:00,ZGNN 090700Z AUTO 7SM 33/17 A2971 RMK T03300170 IEM_DS3505
ZGNN,2002-09-09 08:00,ZGNN 090800Z AUTO 33006KT 7SM 33/16 A2968 RMK T03300160 IEM_DS3505
ZGNN,2002-09-09 09:00,ZGNN 090900Z AUTO 34004KT 16SM 33/20 A2968 RMK SLP050 T03310197 57019 IEM_DS3505
ZGNN,2002-09-09 10:00,ZGNN 091000Z AUTO 6SM 32/19 A2968 RMK T03200190 IEM_DS3505
ZGNN,2002-09-09 11:00,ZGNN 091100Z AUTO 11002KT 6SM 30/20 A2968 RMK T03000200 IEM_DS3505
ZGNN,2002-09-09 12:00,ZGNN 091200Z AUTO 04002KT 9SM 28/22 A2971 RMK SLP062 T02790222 52011 IEM_DS3505
ZGNN,2002-09-09 13:00,ZGNN 091300Z AUTO 05002KT 5SM 27/20 A2974 RMK T02700200 IEM_DS3505
ZGNN,2002-09-09 14:00,ZGNN 091400Z AUTO 04002KT 4SM 26/21 A2977 RMK T02600210 IEM_DS3505
ZGNN,2002-09-09 15:00,ZGNN 091500Z AUTO 00000KT 7SM 24/22 A2977 RMK SLP081 T02450220 52019 IEM_DS3505
ZGNN,2002-09-09 16:00,ZGNN 091600Z AUTO 02004KT 3SM 26/20 A2977 RMK T02600200 IEM_DS3505
ZGNN,2002-09-09 17:00,ZGNN 091700Z AUTO 00000KT 3SM 25/21 A2977 RMK T02500210 IEM_DS3505
ZGNN,2002-09-09 18:00,ZGNN 091800Z AUTO 00000KT 5SM 23/22 A2977 RMK SLP078 T02310216 57002 IEM_DS3505
ZGNN,2002-09-09 19:00,ZGNN 091900Z AUTO 00000KT 3SM 24/21 A2977 RMK T02400210 IEM_DS3505
ZGNN,2002-09-09 20:00,ZGNN 092000Z AUTO 21004KT 2SM 23/21 A2977 RMK T02300210 IEM_DS3505
ZGNN,2002-09-09 21:00,ZGNN 092100Z AUTO 00000KT 5SM 23/22 A2977 RMK SLP076 T02290217 57002 IEM_DS3505
ZGNN,2002-09-09 22:00,ZGNN 092200Z AUTO 00000KT 4SM 24/21 A2977 RMK T02400210 IEM_DS3505
ZGNN,2002-09-09 23:00,ZGNN 092300Z AUTO 3SM 23/21 A2977 RMK T02300210 IEM_DS3505
ZGNN,2002-09-10 00:00,ZGNN 100000Z AUTO 00000KT 7SM 25/23 A2977 RMK SLP081 T02490227 52004 IEM_DS3505
ZGNN,2002-09-10 01:00,ZGNN 100100Z AUTO 3SM 27/21 A2980 RMK T02700210 IEM_DS3505
ZGNN,2002-09-10 02:00,ZGNN 100200Z AUTO 5SM 29/20 A2980 RMK T02900200 IEM_DS3505
ZGNN,2002-09-10 03:00,ZGNN 100300Z AUTO 09006KT 12SM 31/21 A2980 RMK SLP085 T03090212 52005 IEM_DS3505
ZGNN,2002-09-10 04:00,ZGNN 100400Z AUTO 6SM 32/20 A2977 RMK T03200200 IEM_DS3505
ZGNN,2002-09-10 05:00,ZGNN 100500Z AUTO 7SM 31/20 A2977 RMK T03100200 IEM_DS3505
ZGNN,2002-09-10 06:00,ZGNN 100600Z AUTO 14004KT 12SM 32/20 A2971 RMK T03200200 IEM_DS3505
ZGNN,2002-09-10 07:00,ZGNN 100700Z AUTO 7SM 33/19 A2971 RMK T03300190 IEM_DS3505
ZGNN,2002-09-10 08:00,ZGNN 100800Z AUTO 7SM 34/19 A2968 RMK T03400190 IEM_DS3505
ZGNN,2002-09-10 09:00,ZGNN 100900Z AUTO 00000KT 10SM 33/22 A2968 RMK SLP047 T03300215 57015 IEM_DS3505
ZGNN,2002-09-10 10:00,ZGNN 101000Z AUTO 06004KT 6SM 32/20 A2968 RMK T03200200 IEM_DS3505
ZGNN,2002-09-10 11:00,ZGNN 101100Z AUTO 07004KT 7SM 29/22 A2968 RMK T02900220 IEM_DS3505
ZGNN,2002-09-10 12:00,ZGNN 101200Z AUTO 00000KT 11SM 28/24 A2971 RMK SLP057 T02820235 52010 IEM_DS3505
ZGNN,2002-09-10 13:00,ZGNN 101300Z AUTO 02004KT 6SM 28/22 A2971 RMK T02800220 IEM_DS3505
ZGNN,2002-09-10 14:00,ZGNN 101400Z AUTO 34002KT 6SM 27/21 A2974 RMK T02700210 IEM_DS3505
ZGNN,2002-09-10 15:00,ZGNN 101500Z AUTO 25002KT 9SM 26/24 A2974 RMK SLP071 T02580236 52014 IEM_DS3505
ZGNN,2002-09-10 16:00,ZGNN 101600Z AUTO 00000KT 4SM 26/23 A2974 RMK T02600230 IEM_DS3505
ZGNN,2002-09-10 17:00,ZGNN 101700Z AUTO 00000KT 3SM 25/23 A2974 RMK T02500230 IEM_DS3505
ZGNN,2002-09-10 18:00,ZGNN 101800Z AUTO 00000KT 9SM 24/23 A2974 RMK SLP071 T02380226 54000 IEM_DS3505
ZGNN,2002-09-10 19:00,ZGNN 101900Z AUTO 2 1/2SM 24/22 A2974 RMK T02400220 IEM_DS3505
ZGNN,2002-09-10 20:00,ZGNN 102000Z AUTO 00000KT 3SM 24/22 A2974 RMK T02400220 IEM_DS3505
ZGNN,2002-09-10 21:00,ZGNN 102100Z AUTO 00000KT 7SM 24/22 A2974 RMK SLP066 T02430222 57004 IEM_DS3505
ZGNN,2002-09-10 22:00,ZGNN 102200Z AUTO 00000KT 3SM 24/21 A2974 RMK T02400210 IEM_DS3505
ZGNN,2002-09-10 23:00,ZGNN 102300Z AUTO 6SM 24/21 A2974 RMK T02400210 IEM_DS3505
ZGNN,2002-09-11 00:00,ZGNN 110000Z AUTO 32004KT 9SM 26/22 A2977 RMK SLP077 T02580217 52010 IEM_DS3505
ZGNN,2002-09-11 01:00,ZGNN 110100Z AUTO 6SM 26/21 A2977 RMK T02600210 IEM_DS3505
ZGNN,2002-09-11 02:00,ZGNN 110200Z AUTO 6SM 28/21 A2977 RMK T02800210 IEM_DS3505
ZGNN,2002-09-11 03:00,ZGNN 110300Z AUTO 34008KT 9SM 29/22 A2977 RMK SLP077 T02940221 54000 IEM_DS3505
ZGNN,2002-09-11 04:00,ZGNN 110400Z AUTO 34006KT 6SM 32/21 A2974 RMK T03200210 IEM_DS3505
ZGNN,2002-09-11 05:00,ZGNN 110500Z AUTO 34006KT 6SM 33/20 A2971 RMK T03300200 IEM_DS3505
ZGNN,2002-09-11 06:00,ZGNN 110600Z AUTO 29008KT 9SM 33/22 A2971 RMK SLP053 T03310221 57023 IEM_DS3505
ZGNN,2002-09-11 07:00,ZGNN 110700Z AUTO 34006KT 7SM 32/21 A2968 RMK T03200210 IEM_DS3505
ZGNN,2002-09-11 08:00,ZGNN 110800Z AUTO 33002KT 7SM 32/21 A2965 RMK T03200210 IEM_DS3505
ZGNN,2002-09-11 09:00,ZGNN 110900Z AUTO 00000KT 12SM 32/25 A2965 RMK SLP033 T03150246 57020 IEM_DS3505
ZGNN,2002-09-11 10:00,ZGNN 111000Z AUTO 7SM 32/21 A2962 RMK T03200210 IEM_DS3505
ZGNN,2002-09-11 11:00,ZGNN 111100Z AUTO 33002KT 7SM 31/23 A2965 RMK T03100230 IEM_DS3505
ZGNN,2002-09-11 12:00,ZGNN 111200Z AUTO 34004KT 7SM 29/24 A2965 RMK SLP045 T02900242 52011 IEM_DS3505
ZGNN,2002-09-11 13:00,ZGNN 111300Z AUTO 4SM 29/24 A2968 RMK T02900240 IEM_DS3505
ZGNN,2002-09-11 14:00,ZGNN 111400Z AUTO 35004KT 30/22 A2971 RMK T03000220 IEM_DS3505
ZGNN,2002-09-11 15:00,ZGNN 111500Z AUTO 04008KT 6SM 27/24 A2971 RMK SLP070 T02740243 52025 IEM_DS3505
ZGNN,2002-09-11 16:00,ZGNN 111600Z AUTO 25006KT 3SM 24/23 A2971 RMK T02400230 IEM_DS3505
ZGNN,2002-09-11 17:00,ZGNN 111700Z AUTO 24004KT 4SM 24/23 A2971 RMK T02400230 IEM_DS3505
ZGNN,2002-09-11 18:00,ZGNN 111800Z AUTO 00000KT 6SM 25/24 A2971 RMK 60063 SLP055 T02480235 57014 IEM_DS3505
ZGNN,2002-09-11 19:00,ZGNN 111900Z AUTO 34002KT 3SM 25/23 A2971 RMK T02500230 IEM_DS3505
ZGNN,2002-09-11 20:00,ZGNN 112000Z AUTO 10002KT 3SM 25/23 A2968 RMK T02500230 IEM_DS3505
ZGNN,2002-09-11 21:00,ZGNN 112100Z AUTO 29004KT 6SM 26/24 A2968 RMK 70062 SLP048 T02550238 57007 IEM_DS3505
ZGNN,2002-09-11 22:00,ZGNN 112200Z AUTO 00000KT 7SM 25/24 A2968 RMK SLP052 T02490237 54000 IEM_DS3505
ZGNN,2002-09-11 23:00,ZGNN 112300Z AUTO 34004KT 8SM 25/23 A2968 RMK SLP053 T02490233 54000 IEM_DS3505
ZGNN,2002-09-12 00:00,ZGNN 120000Z AUTO 34008KT 7SM 25/24 A2971 RMK 60002 70064 SLP054 T02540238 52005 IEM_DS3505
ZGNN,2002-09-12 01:00,ZGNN 120100Z AUTO 34008KT 7SM 26/24 A2971 RMK SLP057 T02630242 52004 IEM_DS3505
ZGNN,2002-09-12 02:00,ZGNN 120200Z AUTO 34004KT 7SM 28/24 A2971 RMK SLP058 T02760243 52006 IEM_DS3505
ZGNN,2002-09-12 03:00,ZGNN 120300Z AUTO 34006KT 9SM 29/24 A2971 RMK SLP060 T02860240 52006 IEM_DS3505
ZGNN,2002-09-12 04:00,ZGNN 120400Z AUTO 04017G27KT 3SM RMK IEM_DS3505
ZGNN,2002-09-12 05:00,ZGNN 120500Z AUTO 34010KT 7SM 26/23 A2971 RMK SLP057 T02560228 57003 IEM_DS3505
ZGNN,2002-09-12 06:00,ZGNN 120600Z AUTO 36008KT 12SM 26/23 A2968 RMK 60008 SLP049 T02600229 57012 IEM_DS3505
ZGNN,2002-09-12 07:00,ZGNN 120700Z AUTO 32008KT 14SM 27/23 A2965 RMK SLP042 T02660233 57025 IEM_DS3505
ZGNN,2002-09-12 08:00,ZGNN 120800Z AUTO 34008KT 14SM 27/24 A2965 RMK SLP036 T02680235 57020 IEM_DS3505
ZGNN,2002-09-12 09:00,ZGNN 120900Z AUTO 34006KT 12SM 26/23 A2962 RMK SLP033 T02640234 57015 IEM_DS3505
ZGNN,2002-09-12 10:00,ZGNN 121000Z AUTO 36006KT 14SM 27/23 A2965 RMK SLP037 T02660230 57004 IEM_DS3505
ZGNN,2002-09-12 11:00,ZGNN 121100Z AUTO 34004KT 5SM 25/24 A2965 RMK SLP043 T02540237 52006 IEM_DS3505
ZGNN,2002-09-12 12:00,ZGNN 121200Z AUTO 34004KT 5SM 25/24 A2968 RMK 60001 SLP048 T02510237 52014 IEM_DS3505
ZGNN,2002-09-12 13:00,ZGNN 121300Z AUTO 34006KT 4SM 25/23 A2968 RMK SLP056 T02530231 52018 IEM_DS3505
ZGNN,2002-09-12 14:00,ZGNN 121400Z AUTO 36004KT 4SM 24/23 A2971 RMK SLP064 T02430233 52021 IEM_DS3505
ZGNN,2002-09-12 15:00,ZGNN 121500Z AUTO 34006KT 4SM 24/23 A2971 RMK SLP065 T02410231 52017 IEM_DS3505
ZGNN,2002-09-12 16:00,ZGNN 121600Z AUTO 34006KT 4SM 24/23 A2971 RMK SLP063 T02410231 52007 IEM_DS3505
ZGNN,2002-09-12 17:00,ZGNN 121700Z AUTO 34004KT 2 1/2SM 24/23 A2971 RMK SLP059 T02380232 57005 IEM_DS3505
ZGNN,2002-09-12 18:00,ZGNN 121800Z AUTO 34006KT 2 1/2SM 24/23 A2968 RMK 60039 SLP053 T02380231 57012 IEM_DS3505
ZGNN,2002-09-12 19:00,ZGNN 121900Z AUTO 34004KT 2 1/2SM 24/23 A2968 RMK SLP047 T02390232 57016 IEM_DS3505
ZGNN,2002-09-12 20:00,ZGNN 122000Z AUTO 32008KT 2 1/2SM 24/23 A2968 RMK SLP044 T02380234 57015 IEM_DS3505
ZGNN,2002-09-12 21:00,ZGNN 122100Z AUTO 34006KT 2SM 24/23 A2965 RMK 70069 SLP044 T02380234 57009 IEM_DS3505
ZGNN,2002-09-12 22:00,ZGNN 122200Z AUTO 34006KT 2SM 24/23 A2968 RMK SLP047 T02380234 54000 IEM_DS3505
ZGNN,2002-09-12 23:00,ZGNN 122300Z AUTO 34006KT 2SM 24/23 A2968 RMK SLP053 T02380234 52009 IEM_DS3505
ZGNN,2002-09-13 00:00,ZGNN 130000Z AUTO 34008KT 2SM 24/23 A2971 RMK 60024 70072 SLP059 T02380234 52015 IEM_DS3505
ZGNN,2002-09-13 01:00,ZGNN 130100Z AUTO 34008KT 2SM 24/24 A2971 RMK SLP064 T02420235 52017 IEM_DS3505
ZGNN,2002-09-13 02:00,ZGNN 130200Z AUTO 34006KT 2SM 24/24 A2974 RMK SLP069 T02420236 52015 IEM_DS3505
ZGNN,2002-09-13 03:00,ZGNN 130300Z AUTO 34006KT 2SM 24/24 A2974 RMK SLP069 T02420235 52009 IEM_DS3505
ZGNN,2002-09-13 04:00,ZGNN 130400Z AUTO 34006KT 2SM 24/24 A2971 RMK SLP065 T02410235 54000 IEM_DS3505
ZGNN,2002-09-13 05:00,ZGNN 130500Z AUTO 34008KT 2 1/2SM 24/24 A2971 RMK SLP060 T02450236 57009 IEM_DS3505
ZGNN,2002-09-13 06:00,ZGNN 130600Z AUTO 36006KT 2SM 24/24 A2968 RMK 60071 SLP052 T02420236 57016 IEM_DS3505
ZGNN,2002-09-13 07:00,ZGNN 130700Z AUTO 36006KT 2SM 24/24 A2968 RMK SLP046 T02430239 57018 IEM_DS3505
ZGNN,2002-09-13 08:00,ZGNN 130800Z AUTO 34004KT 2SM 24/24 A2965 RMK SLP044 T02450238 57015 IEM_DS3505
ZGNN,2002-09-13 09:00,ZGNN 130900Z AUTO 34006KT 2SM 24/24 A2965 RMK SLP043 T02440235 57009 IEM_DS3505
ZGNN,2002-09-13 10:00,ZGNN 131000Z AUTO 33006KT 4SM 24/23 A2965 RMK T02400230 IEM_DS3505
ZGNN,2002-09-13 11:00,ZGNN 131100Z AUTO 34008KT 7SM 24/22 A2968 RMK T02400220 IEM_DS3505
ZGNN,2002-09-13 12:00,ZGNN 131200Z AUTO 34010KT 4SM 24/24 A2968 RMK 60028 SLP055 T02440235 52012 IEM_DS3505
ZGNN,2002-09-13 13:00,ZGNN 131300Z AUTO 35008KT 5SM 24/22 A2971 RMK T02400220 IEM_DS3505
ZGNN,2002-09-13 14:00,ZGNN 131400Z AUTO 33006KT 7SM 24/22 A2974 RMK T02400220 IEM_DS3505
ZGNN,2002-09-13 15:00,ZGNN 131500Z AUTO 34006KT 6SM 24/23 A2974 RMK SLP069 T02410234 52013 IEM_DS3505
ZGNN,2002-09-13 16:00,ZGNN 131600Z AUTO 34004KT 4SM 24/22 A2974 RMK T02400220 IEM_DS3505
ZGNN,2002-09-13 17:00,ZGNN 131700Z AUTO 33006KT 4SM 24/22 A2971 RMK T02400220 IEM_DS3505
ZGNN,2002-09-13 18:00,ZGNN 131800Z AUTO 04006KT 5SM 24/23 A2971 RMK 60008 SLP060 T02400233 57009 IEM_DS3505
ZGNN,2002-09-13 19:00,ZGNN 131900Z AUTO 35008KT 3SM 24/22 A2968 RMK T02400220 IEM_DS3505
ZGNN,2002-09-13 20:00,ZGNN 132000Z AUTO 35006KT 1 1/2SM 24/22 A2968 RMK T02400220 IEM_DS3505
ZGNN,2002-09-13 21:00,ZGNN 132100Z AUTO 36008KT 4SM 24/23 A2968 RMK 70160 SLP050 T02390232 57009 IEM_DS3505
ZGNN,2002-09-13 22:00,ZGNN 132200Z AUTO 35006KT 5SM 24/22 A2968 RMK T02400220 IEM_DS3505
ZGNN,2002-09-13 23:00,ZGNN 132300Z AUTO 34006KT 5SM 24/22 A2971 RMK T02400220 IEM_DS3505
ZGNN,2002-09-14 00:00,ZGNN 140000Z AUTO 34006KT 2 1/2SM 24/23 A2971 RMK 60055 70165 SLP066 T02420233 52015 IEM_DS3505
ZGNN,2002-09-14 01:00,ZGNN 140100Z AUTO 34008KT 3SM 24/22 A2974 RMK T02400220 IEM_DS3505
ZGNN,2002-09-14 02:00,ZGNN 140200Z AUTO 35008KT 4SM 24/23 A2977 RMK T02400230 IEM_DS3505
ZGNN,2002-09-14 03:00,ZGNN 140300Z AUTO 34008KT 3SM 25/23 A2977 RMK SLP078 T02460234 52012 IEM_DS3505
ZGNN,2002-09-14 04:00,ZGNN 140400Z AUTO 34006KT 5SM 25/24 A2974 RMK 60020 SLP059 T02520235 57018 IEM_DS3505
ZGNN,2002-09-14 05:00,ZGNN 140500Z AUTO 33008KT 7SM 24/23 A2974 RMK T02400230 IEM_DS3505
ZGNN,2002-09-14 06:00,ZGNN 140600Z AUTO 34006KT 5SM 25/24 A2971 RMK 60020 SLP059 T02520235 57018 IEM_DS3505
ZGNN,2002-09-14 07:00,ZGNN 140700Z AUTO 33010KT 7SM 25/22 A2968 RMK T02500220 IEM_DS3505
ZGNN,2002-09-14 08:00,ZGNN 140800Z AUTO 34006KT 7SM 26/23 A2968 RMK T02600230 IEM_DS3505
ZGNN,2002-09-14 09:00,ZGNN 140900Z AUTO 34006KT 7SM 27/24 A2968 RMK SLP047 T02690236 57012 IEM_DS3505
ZGNN,2002-09-14 10:00,ZGNN 141000Z AUTO 35004KT 7SM 26/23 A2968 RMK T02600230 IEM_DS3505
ZGNN,2002-09-14 11:00,ZGNN 141100Z AUTO 35002KT 7SM 26/23 A2968 RMK T02600230 IEM_DS3505
ZGNN,2002-09-14 12:00,ZGNN 141200Z AUTO 36002KT 7SM 26/23 A2971 RMK SLP061 T02600232 52014 IEM_DS3505
ZGNN,2002-09-14 13:00,ZGNN 141300Z AUTO 00000KT 7SM 25/22 A2974 RMK T02500220 IEM_DS3505
ZGNN,2002-09-14 14:00,ZGNN 141400Z AUTO 00000KT 7SM 25/22 A2977 RMK T02500220 IEM_DS3505
ZGNN,2002-09-14 15:00,ZGNN 141500Z AUTO 00000KT 7SM 24/23 A2977 RMK SLP082 T02440234 52020 IEM_DS3505
ZGNN,2002-09-14 16:00,ZGNN 141600Z AUTO 35004KT 7SM 25/22 A2977 RMK T02500220 IEM_DS3505
ZGNN,2002-09-14 17:00,ZGNN 141700Z AUTO 36004KT 7SM 24/22 A2977 RMK T02400220 IEM_DS3505
ZGNN,2002-09-14 18:00,ZGNN 141800Z AUTO 02004KT 6SM 24/22 A2977 RMK SLP078 T02400224 57004 IEM_DS3505
ZGNN,2002-09-14 19:00,ZGNN 141900Z AUTO 01002KT 7SM 23/22 A2977 RMK T02300220 IEM_DS3505
ZGNN,2002-09-14 20:00,ZGNN 142000Z AUTO 01004KT 7SM 24/21 A2974 RMK T02400210 IEM_DS3505
ZGNN,2002-09-14 21:00,ZGNN 142100Z AUTO 00000KT 6SM 23/21 A2974 RMK 70028 SLP072 T02320211 57005 IEM_DS3505
ZGNN,2002-09-14 22:00,ZGNN 142200Z AUTO 11002KT 7SM 22/21 A2974 RMK T02200210 IEM_DS3505
ZGNN,2002-09-14 23:00,ZGNN 142300Z AUTO 00000KT 7SM 22/20 A2977 RMK T02200200 IEM_DS3505
ZGNN,2002-09-15 00:00,ZGNN 150000Z AUTO 02006KT 12SM 23/19 A2980 RMK 70019 SLP093 T02330194 52020 IEM_DS3505
ZGNN,2002-09-15 01:00,ZGNN 150100Z AUTO 36006KT 7SM 24/19 A2983 RMK T02400190 IEM_DS3505
ZGNN,2002-09-15 02:00,ZGNN 150200Z AUTO 36008KT 7SM 25/19 A2983 RMK T02500190 IEM_DS3505
ZGNN,2002-09-15 03:00,ZGNN 150300Z AUTO 02006KT 16SM 25/19 A2983 RMK SLP104 T02500190 52011 IEM_DS3505
ZGNN,2002-09-15 05:00,ZGNN 150500Z AUTO 36006KT 7SM 25/19 A2983 RMK T02500190 IEM_DS3505
ZGNN,2002-09-15 06:00,ZGNN 150600Z AUTO 09002KT 12SM 24/21 A2980 RMK SLP091 T02370211 57013 IEM_DS3505
ZGNN,2002-09-15 07:00,ZGNN 150700Z AUTO 7SM 24/19 A2977 RMK T02400190 IEM_DS3505
ZGNN,2002-09-15 08:00,ZGNN 150800Z AUTO 34004KT 7SM 25/19 A2977 RMK T02500190 IEM_DS3505
ZGNN,2002-09-15 09:00,ZGNN 150900Z AUTO 36004KT 12SM 25/20 A2977 RMK SLP079 T02500205 57012 IEM_DS3505
ZGNN,2002-09-15 10:00,ZGNN 151000Z AUTO 34004KT 7SM RMK IEM_DS3505
ZGNN,2002-09-15 11:00,ZGNN 151100Z AUTO 34004KT 7SM 24/18 A2980 RMK T02400180 IEM_DS3505
ZGNN,2002-09-15 12:00,ZGNN 151200Z AUTO 34006KT 12SM 23/18 A2980 RMK SLP090 T02310184 52011 IEM_DS3505
ZGNN,2002-09-15 13:00,ZGNN 151300Z AUTO 32006KT 7SM 23/18 A2983 RMK T02300180 IEM_DS3505
ZGNN,2002-09-15 14:00,ZGNN 151400Z AUTO 33004KT 7SM 23/18 A2983 RMK T02300180 IEM_DS3505
ZGNN,2002-09-15 15:00,ZGNN 151500Z AUTO 34004KT 11SM 23/18 RMK SLP108 T02310182 52018 IEM_DS3505
ZGNN,2002-09-15 17:00,ZGNN 151700Z AUTO 34004KT 6SM 23/18 A2983 RMK T02300180 IEM_DS3505
ZGNN,2002-09-15 18:00,ZGNN 151800Z AUTO 32004KT 9SM 22/18 A2983 RMK SLP097 T02160184 57012 IEM_DS3505
ZGNN,2002-09-15 20:00,ZGNN 152000Z AUTO 35004KT 6SM 22/17 A2980 RMK T02200170 IEM_DS3505
ZGNN,2002-09-15 21:00,ZGNN 152100Z AUTO 34004KT 12SM 22/18 A2980 RMK 70000 SLP092 T02170175 57004 IEM_DS3505
ZGNN,2002-09-15 22:00,ZGNN 152200Z AUTO 34004KT 7SM 21/17 A2983 RMK T02100170 IEM_DS3505
ZGNN,2002-09-15 23:00,ZGNN 152300Z AUTO 35006KT 7SM 22/16 A2983 RMK T02200160 IEM_DS3505
ZGNN,2002-09-16 00:00,ZGNN 160000Z AUTO 34006KT 12SM 22/17 A2983 RMK 70000 SLP106 T02240171 52013 IEM_DS3505
ZGNN,2002-09-16 01:00,ZGNN 160100Z AUTO 34006KT 7SM 23/16 A2985 RMK T02300160 IEM_DS3505
ZGNN,2002-09-16 02:00,ZGNN 160200Z AUTO 34010KT 7SM 24/16 A2985 RMK T02400160 IEM_DS3505
ZGNN,2002-09-16 03:00,ZGNN 160300Z AUTO 04006KT 12SM 24/17 A2985 RMK SLP114 T02390167 52008 IEM_DS3505
ZGNN,2002-09-16 04:00,ZGNN 160400Z AUTO 35006KT 7SM 24/16 A2985 RMK T02400160 IEM_DS3505
ZGNN,2002-09-16 05:00,ZGNN 160500Z AUTO 7SM 24/16 A2983 RMK T02400160 IEM_DS3505
ZGNN,2002-09-16 06:00,ZGNN 160600Z AUTO 07002KT 16SM 24/18 A2983 RMK SLP095 T02370182 57019 IEM_DS3505
ZGNN,2002-09-16 07:00,ZGNN 160700Z AUTO 7SM 24/17 A2980 RMK T02400170 IEM_DS3505
ZGNN,2002-09-16 09:00,ZGNN 160900Z AUTO 00000KT 9SM 24/19 A2977 RMK SLP083 T02430192 57011 IEM_DS3505
ZGNN,2002-09-16 10:00,ZGNN 161000Z AUTO 05004KT 7SM 24/18 A2977 RMK T02400180 IEM_DS3505
ZGNN,2002-09-16 11:00,ZGNN 161100Z AUTO 04002KT 7SM 23/19 A2977 RMK T02300190 IEM_DS3505
ZGNN,2002-09-16 12:00,ZGNN 161200Z AUTO 00000KT 9SM 23/20 A2980 RMK SLP089 T02310204 52005 IEM_DS3505
ZGNN,2002-09-16 13:00,ZGNN 161300Z AUTO 05002KT 7SM 23/18 A2980 RMK T02300180 IEM_DS3505
ZGNN,2002-09-16 14:00,ZGNN 161400Z AUTO 03010KT 7SM 25/16 A2983 RMK T02500160 IEM_DS3505
ZGNN,2002-09-16 15:00,ZGNN 161500Z AUTO 00000KT 9SM 23/19 A2983 RMK SLP104 T02290190 52015 IEM_DS3505
ZGNN,2002-09-16 17:00,ZGNN 161700Z AUTO 00000KT 6SM 22/19 A2983 RMK T02200190 IEM_DS3505
ZGNN,2002-09-16 18:00,ZGNN 161800Z AUTO 00000KT 7SM 22/20 A2980 RMK SLP094 T02210204 57010 IEM_DS3505
ZGNN,2002-09-16 19:00,ZGNN 161900Z AUTO 00000KT 7SM 22/19 A2980 RMK T02200190 IEM_DS3505
ZGNN,2002-09-16 20:00,ZGNN 162000Z AUTO 6SM 22/20 A2980 RMK T02200200 IEM_DS3505
ZGNN,2002-09-16 21:00,ZGNN 162100Z AUTO 34004KT 7SM 22/18 A2980 RMK 70000 SLP089 T02230182 57004 IEM_DS3505
ZGNN,2002-09-16 22:00,ZGNN 162200Z AUTO 06002KT 7SM 21/19 A2980 RMK T02100190 IEM_DS3505
ZGNN,2002-09-16 23:00,ZGNN 162300Z AUTO 00000KT 7SM 21/19 A2983 RMK T02100190 IEM_DS3505
ZGNN,2002-09-17 00:00,ZGNN 170000Z AUTO 00000KT 7SM 22/21 A2985 RMK 70000 SLP108 T02200206 52018 IEM_DS3505
ZGNN,2002-09-17 01:00,ZGNN 170100Z AUTO 06002KT 7SM 23/19 A2985 RMK T02300190 IEM_DS3505
ZGNN,2002-09-17 02:00,ZGNN 170200Z AUTO 09006KT 1 1/4SM 20/18 A2988 RMK T02000180 IEM_DS3505
ZGNN,2002-09-17 03:00,ZGNN 170300Z AUTO 34004KT 11SM 22/18 A2988 RMK SLP116 T02230175 52008 IEM_DS3505
ZGNN,2002-09-17 04:00,ZGNN 170400Z AUTO 7SM 22/18 A2985 RMK T02200180 IEM_DS3505
ZGNN,2002-09-17 05:00,ZGNN 170500Z AUTO 7SM 24/17 A2985 RMK T02400170 IEM_DS3505
ZGNN,2002-09-17 06:00,ZGNN 170600Z AUTO 09002KT 6SM 21/19 A2983 RMK 60016 SLP104 T02110194 57012 IEM_DS3505
ZGNN,2002-09-17 07:00,ZGNN 170700Z AUTO 03008KT 2 1/2SM 20/19 A2983 RMK T02000190 IEM_DS3505
ZGNN,2002-09-17 08:00,ZGNN 170800Z AUTO 01006KT 4SM 20/18 A2983 RMK T02000180 IEM_DS3505
ZGNN,2002-09-17 09:00,ZGNN 170900Z AUTO 34004KT 7SM 21/19 A2983 RMK SLP099 T02100190 57005 IEM_DS3505
ZGNN,2002-09-17 10:00,ZGNN 171000Z AUTO 36004KT 5SM 21/18 A2983 RMK T02100180 IEM_DS3505
ZGNN,2002-09-17 11:00,ZGNN 171100Z AUTO 36006KT 5SM 21/19 A2985 RMK T02100190 IEM_DS3505
ZGNN,2002-09-17 12:00,ZGNN 171200Z AUTO 32004KT 6SM 20/19 A2985 RMK 60002 SLP116 T02020193 52016 IEM_DS3505
ZGNN,2002-09-17 13:00,ZGNN 171300Z AUTO 01004KT 4SM 20/19 A2988 RMK T02000190 IEM_DS3505
ZGNN,2002-09-17 14:00,ZGNN 171400Z AUTO 01004KT 4SM 20/19 A2991 RMK T02000190 IEM_DS3505
ZGNN,2002-09-17 15:00,ZGNN 171500Z AUTO 00000KT 6SM 21/20 A2991 RMK SLP132 T02060197 52016 IEM_DS3505
ZGNN,2002-09-17 16:00,ZGNN 171600Z AUTO 36002KT 7SM 20/19 A2991 RMK T02000190 IEM_DS3505
ZGNN,2002-09-17 17:00,ZGNN 171700Z AUTO 34002KT 7SM 21/19 A2991 RMK T02100190 IEM_DS3505
ZGNN,2002-09-17 18:00,ZGNN 171800Z AUTO 34004KT 6SM 21/20 A2991 RMK 60002 SLP126 T02080199 57006 IEM_DS3505
ZGNN,2002-09-17 19:00,ZGNN 171900Z AUTO 5SM 21/19 A2988 RMK T02100190 IEM_DS3505
ZGNN,2002-09-17 20:00,ZGNN 172000Z AUTO 35004KT 4SM 21/19 A2988 RMK T02100190 IEM_DS3505
ZGNN,2002-09-17 21:00,ZGNN 172100Z AUTO 32004KT 9SM 21/20 A2988 RMK 70017 SLP117 T02100199 57009 IEM_DS3505
ZGNN,2002-09-17 22:00,ZGNN 172200Z AUTO 36004KT 4SM 21/19 A2988 RMK T02100190 IEM_DS3505
ZGNN,2002-09-17 23:00,ZGNN 172300Z AUTO 36004KT 1 1/2SM 20/19 A2991 RMK T02000190 IEM_DS3505
ZGNN,2002-09-18 00:00,ZGNN 180000Z AUTO 36004KT 4SM 21/20 A2991 RMK 60043 70059 SLP135 T02080200 52018 IEM_DS3505
ZGNN,2002-09-18 02:00,ZGNN 180200Z AUTO 01006KT 5SM 21/19 A2997 RMK T02100190 IEM_DS3505
ZGNN,2002-09-18 03:00,ZGNN 180300Z AUTO 36004KT 6SM 21/19 A2997 RMK T02100190 IEM_DS3505
ZGNN,2002-09-18 04:00,ZGNN 180400Z AUTO 35006KT 5SM 22/20 A2997 RMK T02200200 IEM_DS3505
ZGNN,2002-09-18 05:00,ZGNN 180500Z AUTO 36004KT 5SM 22/20 A2994 RMK T02200200 IEM_DS3505
ZGNN,2002-09-18 06:00,ZGNN 180600Z AUTO 32004KT 6SM 23/21 A2994 RMK 60004 SLP136 T02300209 57017 IEM_DS3505
ZGNN,2002-09-18 07:00,ZGNN 180700Z AUTO 34006KT 7SM 22/20 A2991 RMK T02200200 IEM_DS3505
ZGNN,2002-09-18 08:00,ZGNN 180800Z AUTO 35006KT 7SM 23/21 A2991 RMK T02300210 IEM_DS3505
ZGNN,2002-09-18 09:00,ZGNN 180900Z AUTO 02004KT 8SM 24/22 A2991 RMK SLP128 T02370215 57007 IEM_DS3505
ZGNN,2002-09-18 10:00,ZGNN 181000Z AUTO 01006KT 7SM 23/21 A2991 RMK T02300210 IEM_DS3505
ZGNN,2002-09-18 11:00,ZGNN 181100Z AUTO 36006KT 7SM 23/21 A2991 RMK T02300210 IEM_DS3505
ZGNN,2002-09-18 12:00,ZGNN 181200Z AUTO 34006KT 9SM 23/21 A2994 RMK SLP144 T02330207 52015 IEM_DS3505
ZGNN,2002-09-18 13:00,ZGNN 181300Z AUTO 35006KT 7SM 23/20 A2997 RMK T02300200 IEM_DS3505
ZGNN,2002-09-18 14:00,ZGNN 181400Z AUTO 36006KT 6SM 23/20 A3000 RMK T02300200 IEM_DS3505
ZGNN,2002-09-18 15:00,ZGNN 181500Z AUTO 34004KT 9SM 23/21 RMK SLP157 T02260208 52013 IEM_DS3505
ZGNN,2002-09-18 18:00,ZGNN 181800Z AUTO 34004KT 7SM 22/21 RMK SLP145 T02180206 57012 IEM_DS3505
ZGNN,2002-09-18 20:00,ZGNN 182000Z AUTO 7SM 21/19 A2994 RMK T02100190 IEM_DS3505
ZGNN,2002-09-18 21:00,ZGNN 182100Z AUTO 36004KT 7SM 21/20 A2994 RMK 70048 SLP137 T02130202 57007 IEM_DS3505
ZGNN,2002-09-18 22:00,ZGNN 182200Z AUTO 7SM 22/19 A2994 RMK T02200190 IEM_DS3505
ZGNN,2002-09-18 23:00,ZGNN 182300Z AUTO 7SM 21/19 A2997 RMK T02100190 IEM_DS3505
ZGNN,2002-09-19 00:00,ZGNN 190000Z AUTO 34006KT 6SM 22/21 A3000 RMK 70006 SLP158 T02200206 52020 IEM_DS3505
ZGNN,2002-09-19 01:00,ZGNN 190100Z AUTO 7SM 23/20 A3000 RMK T02300200 IEM_DS3505
ZGNN,2002-09-19 02:00,ZGNN 190200Z AUTO 36006KT 7SM 26/21 A3000 RMK T02600210 IEM_DS3505
ZGNN,2002-09-19 03:00,ZGNN 190300Z AUTO 04004KT 15SM 27/22 A3000 RMK SLP159 T02670215 52002 IEM_DS3505
ZGNN,2002-09-19 04:00,ZGNN 190400Z AUTO 01006KT 7SM 28/21 A2997 RMK T02800210 IEM_DS3505
ZGNN,2002-09-19 05:00,ZGNN 190500Z AUTO 04006KT 7SM 28/20 A2997 RMK T02800200 IEM_DS3505
ZGNN,2002-09-19 06:00,ZGNN 190600Z AUTO 02004KT 17SM 29/22 A2994 RMK SLP134 T02920225 57024 IEM_DS3505
ZGNN,2002-09-19 07:00,ZGNN 190700Z AUTO 02006KT 7SM 29/21 A2991 RMK T02900210 IEM_DS3505
ZGNN,2002-09-19 08:00,ZGNN 190800Z AUTO 33006KT 7SM 30/21 A2988 RMK T03000210 IEM_DS3505
ZGNN,2002-09-19 09:00,ZGNN 190900Z AUTO 07006KT 17SM 30/23 RMK SLP121 T03050233 57013 IEM_DS3505
ZGNN,2002-09-19 10:00,ZGNN 191000Z AUTO 10004KT 7SM 28/22 A2988 RMK T02800220 IEM_DS3505
ZGNN,2002-09-19 11:00,ZGNN 191100Z AUTO 03004KT 6SM 27/22 A2991 RMK T02700220 IEM_DS3505
ZGNN,2002-09-19 12:00,ZGNN 191200Z AUTO 00000KT 16SM 26/24 A2991 RMK SLP132 T02620235 52010 IEM_DS3505
ZGNN,2002-09-19 13:00,ZGNN 191300Z AUTO 00000KT 6SM 25/23 A2994 RMK T02500230 IEM_DS3505
ZGNN,2002-09-19 14:00,ZGNN 191400Z AUTO 05002KT 6SM 24/22 A2994 RMK T02400220 IEM_DS3505
ZGNN,2002-09-19 15:00,ZGNN 191500Z AUTO 00000KT 14SM 24/23 A2997 RMK SLP147 T02360226 52016 IEM_DS3505
ZGNN,2002-09-19 16:00,ZGNN 191600Z AUTO 00000KT 3SM 24/23 A2997 RMK T02400230 IEM_DS3505
ZGNN,2002-09-19 17:00,ZGNN 191700Z AUTO 2SM 24/23 A2994 RMK T02400230 IEM_DS3505
ZGNN,2002-09-19 18:00,ZGNN 191800Z AUTO 00000KT 9SM 24/23 A2991 RMK SLP130 T02380231 57016 IEM_DS3505
ZGNN,2002-09-19 19:00,ZGNN 191900Z AUTO 01002KT 3SM 24/22 A2988 RMK T02400220 IEM_DS3505
ZGNN,2002-09-19 20:00,ZGNN 192000Z AUTO 00000KT 2SM 23/22 A2988 RMK T02300220 IEM_DS3505
ZGNN,2002-09-19 21:00,ZGNN 192100Z AUTO 00000KT 7SM 23/22 A2991 RMK SLP127 T02330224 57003 IEM_DS3505
ZGNN,2002-09-19 22:00,ZGNN 192200Z AUTO 11002KT 2 1/2SM 23/22 A2991 RMK T02300220 IEM_DS3505
ZGNN,2002-09-19 23:00,ZGNN 192300Z AUTO 00000KT 2 1/2SM 23/22 A2994 RMK T02300220 IEM_DS3505
ZGNN,2002-09-20 00:00,ZGNN 200000Z AUTO 00000KT 4SM 24/24 A2997 RMK SLP145 T02410235 52017 IEM_DS3505
ZGNN,2002-09-20 01:00,ZGNN 200100Z AUTO 4SM 26/22 A2997 RMK T02600220 IEM_DS3505
ZGNN,2002-09-20 02:00,ZGNN 200200Z AUTO 36008KT 6SM 28/22 A2997 RMK T02800220 IEM_DS3505
ZGNN,2002-09-20 03:00,ZGNN 200300Z AUTO 20002G16KT 7SM 30/23 A2997 RMK SLP149 T02980232 52004 IEM_DS3505
ZGNN,2002-09-20 04:00,ZGNN 200400Z AUTO 04012KT 7SM 30/21 A2994 RMK T03000210 IEM_DS3505
ZGNN,2002-09-20 05:00,ZGNN 200500Z AUTO 06008KT 7SM 30/22 A2994 RMK T03000220 IEM_DS3505
ZGNN,2002-09-20 06:00,ZGNN 200600Z AUTO 34004KT 11SM 31/23 A2991 RMK SLP125 T03120233 57023 IEM_DS3505
ZGNN,2002-09-20 07:00,ZGNN 200700Z AUTO 7SM 30/23 A2988 RMK T03000230 IEM_DS3505
ZGNN,2002-09-20 08:00,ZGNN 200800Z AUTO 02008KT 7SM 31/22 A2985 RMK T03100220 IEM_DS3505
ZGNN,2002-09-20 09:00,ZGNN 200900Z AUTO 09004KT 11SM 31/23 A2985 RMK SLP110 T03140234 57015 IEM_DS3505
ZGNN,2002-09-20 10:00,ZGNN 201000Z AUTO 05006KT 7SM 30/23 A2985 RMK T03000230 IEM_DS3505
ZGNN,2002-09-20 11:00,ZGNN 201100Z AUTO 07004KT 7SM 28/24 A2985 RMK T02800240 IEM_DS3505
ZGNN,2002-09-20 12:00,ZGNN 201200Z AUTO 00000KT 9SM 27/24 A2988 RMK SLP122 T02670244 52011 IEM_DS3505
ZGNN,2002-09-20 13:00,ZGNN 201300Z AUTO 6SM 26/23 A2991 RMK T02600230 IEM_DS3505
ZGNN,2002-09-20 14:00,ZGNN 201400Z AUTO 6SM 26/23 A2991 RMK T02600230 IEM_DS3505
ZGNN,2002-09-20 15:00,ZGNN 201500Z AUTO 00000KT 9SM 25/24 A2991 RMK SLP130 T02500240 52009 IEM_DS3505
ZGNN,2002-09-20 16:00,ZGNN 201600Z AUTO 2 1/2SM 25/23 A2991 RMK T02500230 IEM_DS3505
ZGNN,2002-09-20 17:00,ZGNN 201700Z AUTO 00000KT 1 1/2SM 24/23 A2991 RMK T02400230 IEM_DS3505
ZGNN,2002-09-20 18:00,ZGNN 201800Z AUTO 00000KT 7SM 24/23 A2988 RMK SLP122 T02390233 57008 IEM_DS3505
ZGNN,2002-09-20 19:00,ZGNN 201900Z AUTO 2 1/2SM 24/22 A2988 RMK T02400220 IEM_DS3505
ZGNN,2002-09-20 20:00,ZGNN 202000Z AUTO 00000KT 1 1/2SM 24/23 A2988 RMK T02400230 IEM_DS3505
ZGNN,2002-09-20 21:00,ZGNN 202100Z AUTO 00000KT 5SM 24/23 A2988 RMK SLP116 T02380232 57006 IEM_DS3505
ZGNN,2002-09-20 22:00,ZGNN 202200Z AUTO 14002KT 2 1/2SM 24/23 A2988 RMK T02400230 IEM_DS3505
ZGNN,2002-09-20 23:00,ZGNN 202300Z AUTO 00000KT 1 1/2SM 24/23 A2988 RMK T02400230 IEM_DS3505
ZGNN,2002-09-21 00:00,ZGNN 210000Z AUTO 18002KT 2SM 25/24 A2994 RMK SLP137 T02480241 52020 IEM_DS3505
ZGNN,2002-09-21 01:00,ZGNN 210100Z AUTO 00000KT 2 1/2SM 26/23 A2994 RMK T02600230 IEM_DS3505
ZGNN,2002-09-21 02:00,ZGNN 210200Z AUTO 2 1/2SM 28/23 A2997 RMK T02800230 IEM_DS3505
ZGNN,2002-09-21 03:00,ZGNN 210300Z AUTO 16004KT 4SM 28/24 A2997 RMK SLP149 T02760242 52012 IEM_DS3505
ZGNN,2002-09-21 04:00,ZGNN 210400Z AUTO 4SM 28/23 A2994 RMK T02800230 IEM_DS3505
ZGNN,2002-09-21 05:00,ZGNN 210500Z AUTO 15004KT 4SM 28/23 A2991 RMK T02800230 IEM_DS3505
ZGNN,2002-09-21 06:00,ZGNN 210600Z AUTO 07002KT 9SM 30/24 A2988 RMK SLP121 T03000239 57027 IEM_DS3505
ZGNN,2002-09-21 07:00,ZGNN 210700Z AUTO 7SM 30/23 A2985 RMK T03000230 IEM_DS3505
ZGNN,2002-09-21 08:00,ZGNN 210800Z AUTO 7SM 32/22 A2983 RMK T03200220 IEM_DS3505
ZGNN,2002-09-21 09:00,ZGNN 210900Z AUTO 36004KT 9SM 31/25 A2983 RMK SLP101 T03120246 57020 IEM_DS3505
ZGNN,2002-09-21 10:00,ZGNN 211000Z AUTO 01004KT 5SM 30/23 A2983 RMK T03000230 IEM_DS3505
ZGNN,2002-09-21 11:00,ZGNN 211100Z AUTO 34002KT 4SM 28/24 A2985 RMK T02800240 IEM_DS3505
ZGNN,2002-09-21 12:00,ZGNN 211200Z AUTO 00000KT 7SM 27/24 A2985 RMK SLP117 T02660245 52015 IEM_DS3505
ZGNN,2002-09-21 13:00,ZGNN 211300Z AUTO 00000KT 4SM 26/24 A2988 RMK T02600240 IEM_DS3505
ZGNN,2002-09-21 14:00,ZGNN 211400Z AUTO 16002KT 3SM 26/24 A2991 RMK T02600240 IEM_DS3505
ZGNN,2002-09-21 15:00,ZGNN 211500Z AUTO 00000KT 7SM 25/23 A2991 RMK SLP128 T02500227 52012 IEM_DS3505
ZGNN,2002-09-21 16:00,ZGNN 211600Z AUTO 12002KT 1 1/2SM 25/23 A2991 RMK T02500230 IEM_DS3505
ZGNN,2002-09-21 17:00,ZGNN 211700Z AUTO 19002KT 1 1/2SM 24/23 A2991 RMK T02400230 IEM_DS3505
ZGNN,2002-09-21 18:00,ZGNN 211800Z AUTO 00000KT 6SM 25/23 A2988 RMK SLP123 T02520226 57005 IEM_DS3505
ZGNN,2002-09-21 19:00,ZGNN 211900Z AUTO 15002KT 2SM 24/22 A2988 RMK T02400220 IEM_DS3505
ZGNN,2002-09-21 20:00,ZGNN 212000Z AUTO 00000KT 3SM 24/22 A2988 RMK T02400220 IEM_DS3505
ZGNN,2002-09-21 21:00,ZGNN 212100Z AUTO 00000KT 6SM 25/23 A2988 RMK SLP124 T02490232 52001 IEM_DS3505
ZGNN,2002-09-21 22:00,ZGNN 212200Z AUTO 35006KT 4SM 25/22 A2991 RMK T02500220 IEM_DS3505
ZGNN,2002-09-21 23:00,ZGNN 212300Z AUTO 34008KT 5SM 24/21 A2991 RMK T02400210 IEM_DS3505
ZGNN,2002-09-22 00:00,ZGNN 220000Z AUTO 34012KT 9SM 24/22 A2994 RMK SLP144 T02450223 52019 IEM_DS3505
ZGNN,2002-09-22 01:00,ZGNN 220100Z AUTO 33012KT 7SM 25/20 A2997 RMK T02500200 IEM_DS3505
ZGNN,2002-09-22 02:00,ZGNN 220200Z AUTO 34014KT 7SM 26/19 A3000 RMK T02600190 IEM_DS3505
ZGNN,2002-09-22 03:00,ZGNN 220300Z AUTO 34014G23KT 12SM 26/19 A3000 RMK SLP151 T02550194 52007 IEM_DS3505
ZGNN,2002-09-22 04:00,ZGNN 220400Z AUTO 34014KT 7SM 26/19 A3000 RMK T02600190 IEM_DS3505
ZGNN,2002-09-22 05:00,ZGNN 220500Z AUTO 33014G27KT 7SM 24/19 A3000 RMK T02400190 IEM_DS3505
ZGNN,2002-09-22 06:00,ZGNN 220600Z AUTO 32014KT 14SM 23/19 A2997 RMK SLP153 T02310189 52001 IEM_DS3505
ZGNN,2002-09-22 07:00,ZGNN 220700Z AUTO 33016G25KT 7SM 23/18 A2997 RMK T02300180 IEM_DS3505
ZGNN,2002-09-22 08:00,ZGNN 220800Z AUTO 33014KT 7SM 23/18 A2997 RMK T02300180 IEM_DS3505
ZGNN,2002-09-22 09:00,ZGNN 220900Z AUTO 32010KT 15SM 22/19 A2997 RMK SLP148 T02230187 57005 IEM_DS3505
ZGNN,2002-09-22 10:00,ZGNN 221000Z AUTO 33010KT 7SM 22/18 A2997 RMK T02200180 IEM_DS3505
ZGNN,2002-09-22 11:00,ZGNN 221100Z AUTO 32010KT 7SM 22/18 A3000 RMK T02200180 IEM_DS3505
ZGNN,2002-09-22 12:00,ZGNN 221200Z AUTO 32006KT 11SM 22/19 A3000 RMK SLP166 T02160186 52017 IEM_DS3505
ZGNN,2002-09-22 13:00,ZGNN 221300Z AUTO 33008KT 7SM 21/17 A3003 RMK T02100170 IEM_DS3505
ZGNN,2002-09-22 14:00,ZGNN 221400Z AUTO 33006KT 7SM 21/17 A3006 RMK T02100170 IEM_DS3505
ZGNN,2002-09-22 15:00,ZGNN 221500Z AUTO 34004KT 11SM 22/18 RMK SLP174 T02160184 52009 IEM_DS3505
ZGNN,2002-09-22 18:00,ZGNN 221800Z AUTO 34008KT 11SM 22/18 RMK SLP165 T02150177 57010 IEM_DS3505
ZGNN,2002-09-22 21:00,ZGNN 222100Z AUTO 32008KT 9SM 21/18 A3000 RMK SLP156 T02100176 57009 IEM_DS3505
ZGNN,2002-09-22 22:00,ZGNN 222200Z AUTO 33006KT 6SM 21/16 A3000 RMK T02100160 IEM_DS3505
ZGNN,2002-09-22 23:00,ZGNN 222300Z AUTO 32006KT 6SM 21/16 A3000 RMK T02100160 IEM_DS3505
ZGNN,2002-09-23 00:00,ZGNN 230000Z AUTO 32006KT 12SM 21/17 A3003 RMK SLP171 T02120173 52015 IEM_DS3505
ZGNN,2002-09-23 01:00,ZGNN 230100Z AUTO 34008KT 6SM 23/16 A3006 RMK T02300160 IEM_DS3505
ZGNN,2002-09-23 02:00,ZGNN 230200Z AUTO 35008KT 7SM 24/16 A3006 RMK T02400160 IEM_DS3505
ZGNN,2002-09-23 03:00,ZGNN 230300Z AUTO 09006KT 16SM 24/17 A3006 RMK SLP176 T02420168 52005 IEM_DS3505
ZGNN,2002-09-23 04:00,ZGNN 230400Z AUTO 04008KT 7SM 25/16 A3003 RMK T02500160 IEM_DS3505
ZGNN,2002-09-23 05:00,ZGNN 230500Z AUTO 02006KT 7SM 26/17 A3000 RMK T02600170 IEM_DS3505
ZGNN,2002-09-23 06:00,ZGNN 230600Z AUTO 02004KT 16SM 26/18 A2997 RMK SLP149 T02600184 57026 IEM_DS3505
ZGNN,2002-09-23 07:00,ZGNN 230700Z AUTO 34006KT 7SM 25/17 A2994 RMK T02500170 IEM_DS3505
ZGNN,2002-09-23 08:00,ZGNN 230800Z AUTO 33006KT 7SM 26/17 A2994 RMK T02600170 IEM_DS3505
ZGNN,2002-09-23 09:00,ZGNN 230900Z AUTO 32004KT 14SM 26/18 A2991 RMK SLP135 T02600184 57014 IEM_DS3505
ZGNN,2002-09-23 10:00,ZGNN 231000Z AUTO 36008KT 6SM 25/17 A2991 RMK T02500170 IEM_DS3505
ZGNN,2002-09-23 11:00,ZGNN 231100Z AUTO 34002KT 7SM 24/18 A2994 RMK T02400180 IEM_DS3505
ZGNN,2002-09-23 12:00,ZGNN 231200Z AUTO 00000KT 12SM 23/19 A2997 RMK SLP151 T02310192 52015 IEM_DS3505
ZGNN,2002-09-23 13:00,ZGNN 231300Z AUTO 04006KT 6SM 23/17 A3000 RMK T02300170 IEM_DS3505
ZGNN,2002-09-23 14:00,ZGNN 231400Z AUTO 04006KT 6SM 22/17 A3000 RMK T02200170 IEM_DS3505
ZGNN,2002-09-23 15:00,ZGNN 231500Z AUTO 00000KT 11SM 22/19 A3000 RMK SLP158 T02210188 52008 IEM_DS3505
ZGNN,2002-09-23 16:00,ZGNN 231600Z AUTO 6SM 22/18 A3000 RMK T02200180 IEM_DS3505
ZGNN,2002-09-23 17:00,ZGNN 231700Z AUTO 7SM 22/17 A2997 RMK T02200170 IEM_DS3505
ZGNN,2002-09-23 18:00,ZGNN 231800Z AUTO 00000KT 9SM 21/19 A2997 RMK SLP146 T02130189 57012 IEM_DS3505
ZGNN,2002-09-23 19:00,ZGNN 231900Z AUTO 35002KT 6SM 21/17 A2994 RMK T02100170 IEM_DS3505
ZGNN,2002-09-23 20:00,ZGNN 232000Z AUTO 00000KT 4SM 20/18 A2994 RMK T02000180 IEM_DS3505
ZGNN,2002-09-23 21:00,ZGNN 232100Z AUTO 00000KT 4SM 20/19 A2994 RMK SLP144 T01960188 57002 IEM_DS3505
ZGNN,2002-09-23 22:00,ZGNN 232200Z AUTO 29002KT 3SM 19/17 A2994 RMK T01900170 IEM_DS3505
ZGNN,2002-09-23 23:00,ZGNN 232300Z AUTO 00000KT 4SM 19/17 A2997 RMK T01900170 IEM_DS3505
ZGNN,2002-09-24 00:00,ZGNN 240000Z AUTO 00000KT 5SM 20/19 A2997 RMK SLP154 T02020194 52009 IEM_DS3505
ZGNN,2002-09-24 01:00,ZGNN 240100Z AUTO 33006KT 7SM 23/18 A3000 RMK T02300180 IEM_DS3505
ZGNN,2002-09-24 02:00,ZGNN 240200Z AUTO 01008KT 7SM 24/17 A3000 RMK T02400170 IEM_DS3505
ZGNN,2002-09-24 03:00,ZGNN 240300Z AUTO 02002KT 7SM 25/18 A3000 RMK SLP160 T02510180 52007 IEM_DS3505
ZGNN,2002-09-24 04:00,ZGNN 240400Z AUTO 36006KT 7SM 26/17 A3000 RMK T02600170 IEM_DS3505
ZGNN,2002-09-24 05:00,ZGNN 240500Z AUTO 33006KT 7SM 27/18 A2994 RMK T02700180 IEM_DS3505
ZGNN,2002-09-24 06:00,ZGNN 240600Z AUTO 36006KT 9SM 28/19 A2991 RMK SLP130 T02810191 57029 IEM_DS3505
ZGNN,2002-09-24 07:00,ZGNN 240700Z AUTO 36006KT 7SM 29/18 A2991 RMK T02900180 IEM_DS3505
ZGNN,2002-09-24 08:00,ZGNN 240800Z AUTO 35008KT 7SM 29/17 A2988 RMK T02900170 IEM_DS3505
ZGNN,2002-09-24 09:00,ZGNN 240900Z AUTO 32004KT 12SM 29/19 A2988 RMK SLP125 T02860193 57005 IEM_DS3505
ZGNN,2002-09-24 10:00,ZGNN 241000Z AUTO 36006KT 7SM 28/18 A2988 RMK T02800180 IEM_DS3505
ZGNN,2002-09-24 11:00,ZGNN 241100Z AUTO 6SM 26/19 A2991 RMK T02600190 IEM_DS3505
ZGNN,2002-09-24 12:00,ZGNN 241200Z AUTO 34004KT 11SM 24/20 A2991 RMK SLP135 T02370195 52008 IEM_DS3505
ZGNN,2002-09-24 13:00,ZGNN 241300Z AUTO 6SM 23/19 A2994 RMK T02300190 IEM_DS3505
ZGNN,2002-09-24 14:00,ZGNN 241400Z AUTO 28002KT 6SM 22/19 A2997 RMK T02200190 IEM_DS3505
ZGNN,2002-09-24 15:00,ZGNN 241500Z AUTO 00000KT 9SM 21/20 A2997 RMK SLP149 T02120198 52015 IEM_DS3505
ZGNN,2002-09-24 16:00,ZGNN 241600Z AUTO 00000KT 3SM 21/19 A2997 RMK T02100190 IEM_DS3505
ZGNN,2002-09-24 17:00,ZGNN 241700Z AUTO 00000KT 5SM 21/18 A2994 RMK T02100180 IEM_DS3505
ZGNN,2002-09-24 18:00,ZGNN 241800Z AUTO 00000KT 8SM 21/20 A2994 RMK SLP140 T02080197 57009 IEM_DS3505
ZGNN,2002-09-24 19:00,ZGNN 241900Z AUTO 30002KT 5SM 22/18 A2994 RMK T02200180 IEM_DS3505
ZGNN,2002-09-24 20:00,ZGNN 242000Z AUTO 02004KT 3SM 21/19 A2991 RMK T02100190 IEM_DS3505
ZGNN,2002-09-24 21:00,ZGNN 242100Z AUTO 32004KT 6SM 21/19 A2991 RMK SLP132 T02110191 57007 IEM_DS3505
ZGNN,2002-09-24 22:00,ZGNN 242200Z AUTO 36004KT 6SM 22/17 A2994 RMK T02200170 IEM_DS3505
ZGNN,2002-09-24 23:00,ZGNN 242300Z AUTO 00000KT 7SM 21/18 A2994 RMK T02100180 IEM_DS3505
ZGNN,2002-09-25 00:00,ZGNN 250000Z AUTO 27002KT 7SM 22/20 A2997 RMK SLP150 T02190196 52017 IEM_DS3505
ZGNN,2002-09-25 01:00,ZGNN 250100Z AUTO 6SM 23/17 A2997 RMK T02300170 IEM_DS3505
ZGNN,2002-09-25 02:00,ZGNN 250200Z AUTO 35006KT 6SM 25/17 A2997 RMK T02500170 IEM_DS3505
ZGNN,2002-09-25 03:00,ZGNN 250300Z AUTO 07006KT 9SM 26/18 A3000 RMK SLP155 T02550180 52005 IEM_DS3505
ZGNN,2002-09-25 04:00,ZGNN 250400Z AUTO 6SM 26/17 A2997 RMK T02600170 IEM_DS3505
ZGNN,2002-09-25 05:00,ZGNN 250500Z AUTO 6SM 28/18 A2994 RMK T02800180 IEM_DS3505
ZGNN,2002-09-25 06:00,ZGNN 250600Z AUTO 18004KT 9SM 28/18 A2991 RMK SLP124 T02810184 57030 IEM_DS3505
ZGNN,2002-09-25 07:00,ZGNN 250700Z AUTO 03006KT 6SM 29/18 A2988 RMK T02900180 IEM_DS3505
ZGNN,2002-09-25 08:00,ZGNN 250800Z AUTO 35006KT 6SM 29/18 A2985 RMK T02900180 IEM_DS3505
ZGNN,2002-09-25 09:00,ZGNN 250900Z AUTO 04002KT 11SM 29/21 A2985 RMK SLP109 T02870210 57015 IEM_DS3505
ZGNN,2002-09-25 10:00,ZGNN 251000Z AUTO 04004KT 6SM 27/19 A2985 RMK T02700190 IEM_DS3505
ZGNN,2002-09-25 11:00,ZGNN 251100Z AUTO 08002KT 6SM 26/20 A2988 RMK T02600200 IEM_DS3505
ZGNN,2002-09-25 12:00,ZGNN 251200Z AUTO 00000KT 16SM 25/21 A2988 RMK SLP125 T02480212 52015 IEM_DS3505
ZGNN,2002-09-25 13:00,ZGNN 251300Z AUTO 35002KT 6SM 25/19 A2988 RMK T02500190 IEM_DS3505
ZGNN,2002-09-25 14:00,ZGNN 251400Z AUTO 09002KT 6SM 24/20 A2991 RMK T02400200 IEM_DS3505
ZGNN,2002-09-25 15:00,ZGNN 251500Z AUTO 36004KT 9SM 25/21 A2991 RMK SLP132 T02500213 52008 IEM_DS3505
ZGNN,2002-09-25 16:00,ZGNN 251600Z AUTO 36004KT 3SM 25/20 A2991 RMK T02500200 IEM_DS3505
ZGNN,2002-09-25 17:00,ZGNN 251700Z AUTO 01004KT 5SM 25/20 A2988 RMK T02500200 IEM_DS3505
ZGNN,2002-09-25 18:00,ZGNN 251800Z AUTO 32002KT 12SM 25/20 A2988 RMK SLP117 T02490202 57014 IEM_DS3505
ZGNN,2002-09-25 19:00,ZGNN 251900Z AUTO 36004KT 25/19 A2985 RMK T02500190 IEM_DS3505
ZGNN,2002-09-25 20:00,ZGNN 252000Z AUTO 35006KT 25/19 A2985 RMK T02500190 IEM_DS3505
ZGNN,2002-09-25 21:00,ZGNN 252100Z AUTO 34004KT 9SM 24/21 A2985 RMK 70000 SLP105 T02420207 57012 IEM_DS3505
ZGNN,2002-09-25 22:00,ZGNN 252200Z AUTO 36006KT 7SM 24/19 A2985 RMK T02400190 IEM_DS3505
ZGNN,2002-09-25 23:00,ZGNN 252300Z AUTO 35004KT 7SM 24/19 A2988 RMK T02400190 IEM_DS3505
ZGNN,2002-09-26 00:00,ZGNN 260000Z AUTO 04002KT 7SM 25/21 A2988 RMK 70000 SLP121 T02500208 52015 IEM_DS3505
ZGNN,2002-09-26 01:00,ZGNN 260100Z AUTO 05010KT 26/20 A2991 RMK T02600200 IEM_DS3505
ZGNN,2002-09-26 02:00,ZGNN 260200Z AUTO 04010KT 7SM 26/20 A2988 RMK T02600200 IEM_DS3505
ZGNN,2002-09-26 03:00,ZGNN 260300Z AUTO 09004KT 9SM 28/22 A2988 RMK SLP119 T02770220 57001 IEM_DS3505
ZGNN,2002-09-26 04:00,ZGNN 260400Z AUTO 02012KT 7SM 28/21 A2985 RMK T02800210 IEM_DS3505
ZGNN,2002-09-26 05:00,ZGNN 260500Z AUTO 04012KT 7SM 29/21 A2983 RMK T02900210 IEM_DS3505
ZGNN,2002-09-26 06:00,ZGNN 260600Z AUTO 09006KT 12SM 29/23 A2980 RMK SLP090 T02870229 57029 IEM_DS3505
ZGNN,2002-09-26 07:00,ZGNN 260700Z AUTO 06012KT 7SM 28/21 A2980 RMK T02800210 IEM_DS3505
ZGNN,2002-09-26 08:00,ZGNN 260800Z AUTO 05012KT 7SM 29/22 A2977 RMK T02900220 IEM_DS3505
ZGNN,2002-09-26 09:00,ZGNN 260900Z AUTO 04008KT 12SM 29/23 A2977 RMK SLP083 T02910232 57007 IEM_DS3505
ZGNN,2002-09-26 10:00,ZGNN 261000Z AUTO 05012KT 7SM 27/21 A2977 RMK T02700210 IEM_DS3505
ZGNN,2002-09-26 11:00,ZGNN 261100Z AUTO 05006KT 7SM 26/22 A2980 RMK T02600220 IEM_DS3505
ZGNN,2002-09-26 12:00,ZGNN 261200Z AUTO 04004KT 12SM 26/22 A2983 RMK SLP095 T02650222 52012 IEM_DS3505
ZGNN,2002-09-26 13:00,ZGNN 261300Z AUTO 05008KT 6SM 25/21 A2983 RMK T02500210 IEM_DS3505
ZGNN,2002-09-26 14:00,ZGNN 261400Z AUTO 05008KT 6SM 25/21 A2985 RMK T02500210 IEM_DS3505
ZGNN,2002-09-26 15:00,ZGNN 261500Z AUTO 04008KT 4SM 25/21 A2985 RMK T02500210 IEM_DS3505
ZGNN,2002-09-26 16:00,ZGNN 261600Z AUTO 04010KT 4SM 25/21 A2983 RMK T02500210 IEM_DS3505
ZGNN,2002-09-26 17:00,ZGNN 261700Z AUTO 04008KT 5SM 25/21 A2983 RMK T02500210 IEM_DS3505
ZGNN,2002-09-26 18:00,ZGNN 261800Z AUTO 00000KT 9SM 25/22 A2980 RMK SLP092 T02520219 57012 IEM_DS3505
ZGNN,2002-09-26 19:00,ZGNN 261900Z AUTO 03010KT 2SM 23/22 A2980 RMK T02300220 IEM_DS3505
ZGNN,2002-09-26 20:00,ZGNN 262000Z AUTO 02008KT 3SM 23/22 A2980 RMK T02300220 IEM_DS3505
ZGNN,2002-09-26 21:00,ZGNN 262100Z AUTO 02006KT 9SM 24/22 A2980 RMK 70001 SLP090 T02400222 57002 IEM_DS3505
ZGNN,2002-09-26 22:00,ZGNN 262200Z AUTO 03008KT 4SM 23/22 A2980 RMK T02300220 IEM_DS3505
ZGNN,2002-09-26 23:00,ZGNN 262300Z AUTO 02012KT 5SM 23/21 A2983 RMK T02300210 IEM_DS3505
ZGNN,2002-09-27 00:00,ZGNN 270000Z AUTO 02008KT 5SM 24/22 A2983 RMK 60008 70007 SLP104 T02400224 52013 IEM_DS3505
ZGNN,2002-09-27 01:00,ZGNN 270100Z AUTO 36010KT 7SM 24/22 A2985 RMK T02400220 IEM_DS3505
ZGNN,2002-09-27 02:00,ZGNN 270200Z AUTO 36012KT 3SM 24/22 A2985 RMK T02400220 IEM_DS3505
ZGNN,2002-09-27 03:00,ZGNN 270300Z AUTO 02010KT 6SM 25/23 A2985 RMK SLP108 T02540234 52004 IEM_DS3505
ZGNN,2002-09-27 04:00,ZGNN 270400Z AUTO 01014KT 7SM 26/22 A2983 RMK T02600220 IEM_DS3505
ZGNN,2002-09-27 05:00,ZGNN 270500Z AUTO 01016KT 7SM 27/22 A2980 RMK T02700220 IEM_DS3505
ZGNN,2002-09-27 06:00,ZGNN 270600Z AUTO 04008KT 9SM 27/22 A2977 RMK 60012 SLP082 T02680224 57025 IEM_DS3505
ZGNN,2002-09-27 07:00,ZGNN 270700Z AUTO 01012KT 7SM 26/22 A2977 RMK T02600220 IEM_DS3505
ZGNN,2002-09-27 08:00,ZGNN 270800Z AUTO 35008KT 5SM 25/22 A2977 RMK T02500220 IEM_DS3505
ZGNN,2002-09-27 09:00,ZGNN 270900Z AUTO 02008KT 7SM 25/23 A2977 RMK SLP084 T02490230 52001 IEM_DS3505
ZGNN,2002-09-27 10:00,ZGNN 271000Z AUTO 02010KT 2SM 24/22 A2980 RMK T02400220 IEM_DS3505
ZGNN,2002-09-27 11:00,ZGNN 271100Z AUTO 36010KT 5SM 24/22 A2980 RMK T02400220 IEM_DS3505
ZGNN,2002-09-27 12:00,ZGNN 271200Z AUTO 36010KT 4SM 23/22 A2983 RMK 60028 SLP105 T02320222 52021 IEM_DS3505
ZGNN,2002-09-27 13:00,ZGNN 271300Z AUTO 35008KT 4SM 22/20 A2985 RMK T02200200 IEM_DS3505
ZGNN,2002-09-27 14:00,ZGNN 271400Z AUTO 36008KT 3SM 22/20 A2988 RMK T02200200 IEM_DS3505
ZGNN,2002-09-27 15:00,ZGNN 271500Z AUTO 36008KT 9SM 22/20 A2988 RMK SLP124 T02180204 52018 IEM_DS3505
ZGNN,2002-09-27 16:00,ZGNN 271600Z AUTO 35008KT 7SM 21/19 A2988 RMK T02100190 IEM_DS3505
ZGNN,2002-09-27 17:00,ZGNN 271700Z AUTO 35008KT 7SM 22/19 A2988 RMK T02200190 IEM_DS3505
ZGNN,2002-09-27 18:00,ZGNN 271800Z AUTO 34010KT 7SM 22/19 RMK 60008 SLP116 T02190191 57007 IEM_DS3505
ZGNN,2002-09-27 19:00,ZGNN 271900Z AUTO 36010KT 7SM 21/18 A2988 RMK T02100180 IEM_DS3505
ZGNN,2002-09-27 21:00,ZGNN 272100Z AUTO 00000KT 6SM 22/19 A2988 RMK 70056 SLP120 T02190186 52003 IEM_DS3505
ZGNN,2002-09-27 22:00,ZGNN 272200Z AUTO 35008KT 7SM 22/18 A2988 RMK T02200180 IEM_DS3505
ZGNN,2002-09-27 23:00,ZGNN 272300Z AUTO 35006KT 7SM 22/18 A2991 RMK T02200180 IEM_DS3505
ZGNN,2002-09-28 00:00,ZGNN 280000Z AUTO 34006KT 9SM 22/18 RMK 60001 70049 SLP137 T02210178 52017 IEM_DS3505
ZGNN,2002-09-28 02:00,ZGNN 280200Z AUTO 35006KT 7SM 23/18 A2997 RMK T02300180 IEM_DS3505
ZGNN,2002-09-28 03:00,ZGNN 280300Z AUTO 36004KT 9SM 22/19 A2997 RMK SLP152 T02190188 52014 IEM_DS3505
ZGNN,2002-09-28 04:00,ZGNN 280400Z AUTO 32006KT 7SM 22/18 A2994 RMK T02200180 IEM_DS3505
ZGNN,2002-09-28 06:00,ZGNN 280600Z AUTO 34006KT 16SM 24/19 A2991 RMK SLP131 T02360191 57020 IEM_DS3505
ZGNN,2002-09-28 07:00,ZGNN 280700Z AUTO 33008KT 7SM 24/19 A2991 RMK T02400190 IEM_DS3505
ZGNN,2002-09-28 08:00,ZGNN 280800Z AUTO 35006KT 7SM 24/18 A2988 RMK T02400180 IEM_DS3505
ZGNN,2002-09-28 09:00,ZGNN 280900Z AUTO 03006KT 7SM 24/18 A2988 RMK T02400180 IEM_DS3505
ZGNN,2002-09-28 12:00,ZGNN 281200Z AUTO 00000KT 9SM 22/20 A2991 RMK SLP131 T02250204 52009 IEM_DS3505
ZGNN,2002-09-28 13:00,ZGNN 281300Z AUTO 7SM 22/19 A2994 RMK T02200190 IEM_DS3505
ZGNN,2002-09-28 14:00,ZGNN 281400Z AUTO 7SM 22/19 A2994 RMK T02200190 IEM_DS3505
ZGNN,2002-09-28 15:00,ZGNN 281500Z AUTO 09002KT 9SM 22/20 A2997 RMK SLP150 T02190199 52018 IEM_DS3505
ZGNN,2002-09-28 16:00,ZGNN 281600Z AUTO 27002KT 5SM 22/19 A2997 RMK T02200190 IEM_DS3505
ZGNN,2002-09-28 17:00,ZGNN 281700Z AUTO 28002KT 6SM 21/20 A2997 RMK T02100200 IEM_DS3505
ZGNN,2002-09-28 18:00,ZGNN 281800Z AUTO 00000KT 7SM 22/20 A2994 RMK SLP141 T02160202 57008 IEM_DS3505
ZGNN,2002-09-28 19:00,ZGNN 281900Z AUTO 23002KT 5SM 21/20 A2991 RMK T02100200 IEM_DS3505
ZGNN,2002-09-28 20:00,ZGNN 282000Z AUTO 00000KT 4SM 21/20 A2991 RMK T02100200 IEM_DS3505
ZGNN,2002-09-28 21:00,ZGNN 282100Z AUTO 00000KT 7SM 22/20 A2991 RMK 70000 SLP134 T02160204 57007 IEM_DS3505
ZGNN,2002-09-28 22:00,ZGNN 282200Z AUTO 11002KT 4SM 21/20 A2994 RMK T02100200 IEM_DS3505
ZGNN,2002-09-28 23:00,ZGNN 282300Z AUTO 00000KT 5SM 21/20 A2994 RMK T02100200 IEM_DS3505
ZGNN,2002-09-29 00:00,ZGNN 290000Z AUTO 00000KT 6SM 22/21 A2994 RMK 70000 SLP146 T02180207 52011 IEM_DS3505
ZGNN,2002-09-29 01:00,ZGNN 290100Z AUTO 7SM 22/20 A2997 RMK T02200200 IEM_DS3505
ZGNN,2002-09-29 02:00,ZGNN 290200Z AUTO 7SM 24/19 A2997 RMK T02400190 IEM_DS3505
ZGNN,2002-09-29 03:00,ZGNN 290300Z AUTO 07002KT 19SM 25/20 A2997 RMK SLP149 T02520199 52004 IEM_DS3505
ZGNN,2002-09-29 04:00,ZGNN 290400Z AUTO 7SM 26/19 A2994 RMK T02600190 IEM_DS3505
ZGNN,2002-09-29 05:00,ZGNN 290500Z AUTO 7SM 26/19 A2994 RMK T02600190 IEM_DS3505
ZGNN,2002-09-29 06:00,ZGNN 290600Z AUTO 09006KT 19SM 27/21 A2991 RMK SLP129 T02660209 57020 IEM_DS3505
ZGNN,2002-09-29 07:00,ZGNN 290700Z AUTO 7SM 26/20 A2988 RMK T02600200 IEM_DS3505
ZGNN,2002-09-29 08:00,ZGNN 290800Z AUTO 7SM 26/19 A2988 RMK T02600190 IEM_DS3505
ZGNN,2002-09-29 09:00,ZGNN 290900Z AUTO 04004KT 12SM 28/21 A2988 RMK SLP122 T02750211 57006 IEM_DS3505
ZGNN,2002-09-29 10:00,ZGNN 291000Z AUTO 07008KT 7SM 25/20 A2988 RMK T02500200 IEM_DS3505
ZGNN,2002-09-29 11:00,ZGNN 291100Z AUTO 08004KT 6SM 24/20 A2991 RMK T02400200 IEM_DS3505
ZGNN,2002-09-29 12:00,ZGNN 291200Z AUTO 00000KT 12SM 24/20 A2991 RMK SLP137 T02350203 52014 IEM_DS3505
ZGNN,2002-09-29 13:00,ZGNN 291300Z AUTO 07004KT 6SM 23/20 A2994 RMK T02300200 IEM_DS3505
ZGNN,2002-09-29 14:00,ZGNN 291400Z AUTO 10002KT 6SM 23/20 A2997 RMK T02300200 IEM_DS3505
ZGNN,2002-09-29 15:00,ZGNN 291500Z AUTO 00000KT 12SM 23/21 A2997 RMK SLP146 T02270206 52009 IEM_DS3505
ZGNN,2002-09-29 16:00,ZGNN 291600Z AUTO 00000KT 6SM 22/20 A2997 RMK T02200200 IEM_DS3505
ZGNN,2002-09-29 17:00,ZGNN 291700Z AUTO 5SM 22/20 A2994 RMK T02200200 IEM_DS3505
ZGNN,2002-09-29 18:00,ZGNN 291800Z AUTO 00000KT 7SM 22/21 A2994 RMK SLP143 T02150207 57003 IEM_DS3505
ZGNN,2002-09-29 19:00,ZGNN 291900Z AUTO 4SM 21/19 A2994 RMK T02100190 IEM_DS3505
ZGNN,2002-09-29 20:00,ZGNN 292000Z AUTO 00000KT 3SM 21/19 A2991 RMK T02100190 IEM_DS3505
ZGNN,2002-09-29 21:00,ZGNN 292100Z AUTO 00000KT 7SM 21/21 A2991 RMK SLP131 T02120206 57011 IEM_DS3505
ZGNN,2002-09-29 22:00,ZGNN 292200Z AUTO 22002KT 2 1/2SM 21/20 A2991 RMK T02100200 IEM_DS3505
ZGNN,2002-09-29 23:00,ZGNN 292300Z AUTO 00000KT 1 1/2SM 21/20 A2991 RMK T02100200 IEM_DS3505
ZGNN,2002-09-30 00:00,ZGNN 300000Z AUTO 00000KT 4SM 22/21 A2994 RMK SLP145 T02170208 52012 IEM_DS3505
ZGNN,2002-09-30 01:00,ZGNN 300100Z AUTO 5SM 23/20 A2997 RMK T02300200 IEM_DS3505
ZGNN,2002-09-30 02:00,ZGNN 300200Z AUTO 7SM 25/20 A2997 RMK T02500200 IEM_DS3505
ZGNN,2002-09-30 03:00,ZGNN 300300Z AUTO 36006KT 9SM 26/20 A2997 RMK SLP148 T02650195 52004 IEM_DS3505
ZGNN,2002-09-30 04:00,ZGNN 300400Z AUTO 7SM 28/19 A2994 RMK T02800190 IEM_DS3505
ZGNN,2002-09-30 05:00,ZGNN 300500Z AUTO 7SM 27/19 A2991 RMK T02700190 IEM_DS3505
ZGNN,2002-09-30 06:00,ZGNN 300600Z AUTO 04004KT 12SM 29/19 A2988 RMK SLP123 T02880194 57024 IEM_DS3505
ZGNN,2002-09-30 07:00,ZGNN 300700Z AUTO 7SM 29/18 A2988 RMK T02900180 IEM_DS3505
ZGNN,2002-09-30 08:00,ZGNN 300800Z AUTO 09006KT 7SM 28/20 A2985 RMK T02800200 IEM_DS3505
ZGNN,2002-09-30 09:00,ZGNN 300900Z AUTO 09002KT 12SM 29/20 A2985 RMK SLP114 T02880203 57009 IEM_DS3505
ZGNN,2002-09-30 10:00,ZGNN 301000Z AUTO 10004KT 6SM 27/20 A2988 RMK T02700200 IEM_DS3505
ZGNN,2002-09-30 11:00,ZGNN 301100Z AUTO 09002KT 6SM 25/21 A2988 RMK T02500210 IEM_DS3505
ZGNN,2002-09-30 12:00,ZGNN 301200Z AUTO 09002KT 12SM 25/22 A2991 RMK SLP129 T02470219 52014 IEM_DS3505
ZGNN,2002-09-30 13:00,ZGNN 301300Z AUTO 03004KT 6SM 24/21 A2994 RMK T02400210 IEM_DS3505
ZGNN,2002-09-30 14:00,ZGNN 301400Z AUTO 06002KT 6SM 23/20 A2994 RMK T02300200 IEM_DS3505
ZGNN,2002-09-30 15:00,ZGNN 301500Z AUTO 00000KT 11SM 23/21 A2994 RMK SLP142 T02290212 52014 IEM_DS3505
ZGNN,2002-09-30 16:00,ZGNN 301600Z AUTO 6SM 22/20 A2994 RMK T02200200 IEM_DS3505
ZGNN,2002-09-30 17:00,ZGNN 301700Z AUTO 07002KT 6SM 22/20 A2994 RMK T02200200 IEM_DS3505
ZGNN,2002-09-30 18:00,ZGNN 301800Z AUTO 00000KT 9SM 22/21 A2994 RMK SLP137 T02240212 57005 IEM_DS3505
ZGNN,2002-09-30 19:00,ZGNN 301900Z AUTO 04002KT 6SM 22/20 A2994 RMK T02200200 IEM_DS3505
ZGNN,2002-09-30 20:00,ZGNN 302000Z AUTO 00000KT 6SM 22/20 A2991 RMK T02200200 IEM_DS3505
ZGNN,2002-09-30 21:00,ZGNN 302100Z AUTO 00000KT 7SM 22/21 A2991 RMK SLP135 T02190207 57002 IEM_DS3505
ZGNN,2002-09-30 22:00,ZGNN 302200Z AUTO 00000KT 6SM 22/20 A2994 RMK T02200200 IEM_DS3505
ZGNN,2002-09-30 23:00,ZGNN 302300Z AUTO 00000KT 6SM 21/20 A2994 RMK T02100200 IEM_DS3505
ZGNN,2002-10-01 00:00,ZGNN 010000Z AUTO 00000KT 4SM 22/21 A2997 RMK SLP151 T02170212 52015 IEM_DS3505
ZGNN,2002-10-01 01:00,ZGNN 010100Z AUTO 6SM 23/20 A2997 RMK T02300200 IEM_DS3505
ZGNN,2002-10-01 02:00,ZGNN 010200Z AUTO 6SM 26/21 A3000 RMK T02600210 IEM_DS3505
ZGNN,2002-10-01 03:00,ZGNN 010300Z AUTO 27004KT 6SM 26/22 A3000 RMK SLP157 T02640224 52006 IEM_DS3505
ZGNN,2002-10-01 04:00,ZGNN 010400Z AUTO 7SM 28/21 A2997 RMK T02800210 IEM_DS3505
ZGNN,2002-10-01 05:00,ZGNN 010500Z AUTO 7SM 28/20 A2994 RMK T02800200 IEM_DS3505
ZGNN,2002-10-01 06:00,ZGNN 010600Z AUTO 34006KT 8SM 29/22 A2991 RMK SLP127 T02910216 57029 IEM_DS3505
ZGNN,2002-10-01 07:00,ZGNN 010700Z AUTO 7SM 30/20 A2988 RMK T03000200 IEM_DS3505
ZGNN,2002-10-01 08:00,ZGNN 010800Z AUTO 33006KT 7SM 29/20 A2988 RMK T02900200 IEM_DS3505
ZGNN,2002-10-01 09:00,ZGNN 010900Z AUTO 32004KT 9SM 29/21 A2985 RMK SLP115 T02890210 57012 IEM_DS3505
ZGNN,2002-10-01 10:00,ZGNN 011000Z AUTO 33004KT 6SM 28/20 A2988 RMK T02800200 IEM_DS3505
ZGNN,2002-10-01 11:00,ZGNN 011100Z AUTO 34002KT 6SM 26/20 A2988 RMK T02600200 IEM_DS3505
ZGNN,2002-10-01 12:00,ZGNN 011200Z AUTO 00000KT 9SM 25/22 A2991 RMK SLP130 T02520216 52014 IEM_DS3505
ZGNN,2002-10-01 13:00,ZGNN 011300Z AUTO 5SM 25/20 A2994 RMK T02500200 IEM_DS3505
ZGNN,2002-10-01 14:00,ZGNN 011400Z AUTO 5SM 25/18 A2994 RMK T02500180 IEM_DS3505
ZGNN,2002-10-01 15:00,ZGNN 011500Z AUTO 18002KT 9SM 24/20 A2994 RMK SLP139 T02360201 52010 IEM_DS3505
ZGNN,2002-10-01 16:00,ZGNN 011600Z AUTO 12002KT 5SM 23/20 A2994 RMK T02300200 IEM_DS3505
ZGNN,2002-10-01 17:00,ZGNN 011700Z AUTO 5SM 24/19 A2994 RMK T02400190 IEM_DS3505
ZGNN,2002-10-01 18:00,ZGNN 011800Z AUTO 32004KT 9SM 24/19 A2994 RMK SLP133 T02400194 57005 IEM_DS3505
ZGNN,2002-10-01 19:00,ZGNN 011900Z AUTO 14002KT 3SM 22/20 A2991 RMK T02200200 IEM_DS3505
ZGNN,2002-10-01 20:00,ZGNN 012000Z AUTO 4SM 23/19 A2991 RMK T02300190 IEM_DS3505
ZGNN,2002-10-01 21:00,ZGNN 012100Z AUTO 00000KT 7SM 23/20 A2991 RMK SLP130 T02270195 57004 IEM_DS3505
ZGNN,2002-10-01 22:00,ZGNN 012200Z AUTO 4SM 22/19 A2991 RMK T02200190 IEM_DS3505
ZGNN,2002-10-01 23:00,ZGNN 012300Z AUTO 4SM 22/19 A2994 RMK T02200190 IEM_DS3505
ZGNN,2002-10-02 00:00,ZGNN 020000Z AUTO 34004KT 5SM 24/19 A2997 RMK SLP148 T02370192 52017 IEM_DS3505
ZGNN,2002-10-02 01:00,ZGNN 020100Z AUTO 25/18 A2997 RMK T02500180 IEM_DS3505
ZGNN,2002-10-02 02:00,ZGNN 020200Z AUTO 26/19 A2997 RMK T02600190 IEM_DS3505
ZGNN,2002-10-02 03:00,ZGNN 020300Z AUTO 27/19 A2997 RMK T02700190 IEM_DS3505
ZGNN,2002-10-02 04:00,ZGNN 020400Z AUTO 6SM 28/21 A2997 RMK T02800210 IEM_DS3505
ZGNN,2002-10-02 05:00,ZGNN 020500Z AUTO 7SM 29/20 A2991 RMK T02900200 IEM_DS3505
ZGNN,2002-10-02 06:00,ZGNN 020600Z AUTO 02002KT 7SM 30/20 A2988 RMK SLP119 T03010195 57031 IEM_DS3505
ZGNN,2002-10-02 07:00,ZGNN 020700Z AUTO 7SM 30/18 A2985 RMK T03000180 IEM_DS3505
ZGNN,2002-10-02 09:00,ZGNN 020900Z AUTO 14004KT 7SM 31/19 A2985 RMK SLP107 T03090191 57012 IEM_DS3505
ZGNN,2002-10-02 10:00,ZGNN 021000Z AUTO 10004KT 7SM 29/18 A2985 RMK T02900180 IEM_DS3505
ZGNN,2002-10-02 11:00,ZGNN 021100Z AUTO 08004KT 6SM 27/20 A2985 RMK T02700200 IEM_DS3505
ZGNN,2002-10-02 12:00,ZGNN 021200Z AUTO 00000KT 7SM 25/22 A2988 RMK SLP119 T02520218 52011 IEM_DS3505
ZGNN,2002-10-02 13:00,ZGNN 021300Z AUTO 00000KT 6SM 25/21 A2988 RMK T02500210 IEM_DS3505
ZGNN,2002-10-02 14:00,ZGNN 021400Z AUTO 00000KT 6SM 23/21 A2991 RMK T02300210 IEM_DS3505
ZGNN,2002-10-02 15:00,ZGNN 021500Z AUTO 00000KT 7SM 22/20 A2991 RMK SLP128 T02210203 52009 IEM_DS3505
ZGNN,2002-10-02 16:00,ZGNN 021600Z AUTO 26002KT 6SM 22/19 A2991 RMK T02200190 IEM_DS3505
ZGNN,2002-10-02 17:00,ZGNN 021700Z AUTO 00000KT 5SM 22/19 A2991 RMK T02200190 IEM_DS3505
ZGNN,2002-10-02 18:00,ZGNN 021800Z AUTO 00000KT 6SM 21/20 A2988 RMK SLP123 T02090198 57005 IEM_DS3505
ZGNN,2002-10-02 19:00,ZGNN 021900Z AUTO 34002KT 3SM 21/19 A2988 RMK T02100190 IEM_DS3505
ZGNN,2002-10-02 20:00,ZGNN 022000Z AUTO 34002KT 3SM 21/19 A2988 RMK T02100190 IEM_DS3505
ZGNN,2002-10-02 21:00,ZGNN 022100Z AUTO 00000KT 6SM 20/19 A2991 RMK SLP126 T02020194 52003 IEM_DS3505
ZGNN,2002-10-02 22:00,ZGNN 022200Z AUTO 05004KT 6SM 20/19 A2991 RMK T02000190 IEM_DS3505
ZGNN,2002-10-02 23:00,ZGNN 022300Z AUTO 05002KT 4SM 20/19 A2991 RMK T02000190 IEM_DS3505
ZGNN,2002-10-03 00:00,ZGNN 030000Z AUTO 00000KT 5SM 21/21 A2994 RMK SLP142 T02140209 52015 IEM_DS3505
ZGNN,2002-10-03 01:00,ZGNN 030100Z AUTO 2 1/2SM 24/21 A2997 RMK T02400210 IEM_DS3505
ZGNN,2002-10-03 02:00,ZGNN 030200Z AUTO 04004KT 4SM 25/21 A2997 RMK T02500210 IEM_DS3505
ZGNN,2002-10-03 03:00,ZGNN 030300Z AUTO 34002KT 5SM 25/23 A2997 RMK SLP154 T02530231 52012 IEM_DS3505
ZGNN,2002-10-03 04:00,ZGNN 030400Z AUTO 7SM 29/22 A2997 RMK T02900220 IEM_DS3505
ZGNN,2002-10-03 05:00,ZGNN 030500Z AUTO 7SM 29/21 A2994 RMK T02900210 IEM_DS3505
ZGNN,2002-10-03 06:00,ZGNN 030600Z AUTO 02004KT 9SM 28/24 A2991 RMK SLP128 T02810237 57025 IEM_DS3505
ZGNN,2002-10-03 07:00,ZGNN 030700Z AUTO 7SM 29/21 A2988 RMK T02900210 IEM_DS3505
ZGNN,2002-10-03 08:00,ZGNN 030800Z AUTO 7SM 29/21 A2985 RMK T02900210 IEM_DS3505
ZGNN,2002-10-03 09:00,ZGNN 030900Z AUTO 09004KT 9SM 29/23 A2985 RMK SLP114 T02870234 57014 IEM_DS3505
ZGNN,2002-10-03 10:00,ZGNN 031000Z AUTO 28/22 A2988 RMK T02800220 IEM_DS3505
ZGNN,2002-10-03 12:00,ZGNN 031200Z AUTO 04002KT 6SM 26/23 A2991 RMK SLP131 T02590231 52016 IEM_DS3505
ZGNN,2002-10-03 13:00,ZGNN 031300Z AUTO 06002KT 3SM 24/22 A2994 RMK T02400220 IEM_DS3505
ZGNN,2002-10-03 14:00,ZGNN 031400Z AUTO 06002KT 2 1/2SM 24/22 A2997 RMK T02400220 IEM_DS3505
ZGNN,2002-10-03 15:00,ZGNN 031500Z AUTO 35002KT 2 1/2SM 24/22 A2997 RMK T02400220 IEM_DS3505
ZGNN,2002-10-03 16:00,ZGNN 031600Z AUTO 05002KT 2SM 23/22 A2997 RMK T02300220 IEM_DS3505
ZGNN,2002-10-03 17:00,ZGNN 031700Z AUTO 00000KT 2SM 24/22 A2997 RMK T02400220 IEM_DS3505
ZGNN,2002-10-03 18:00,ZGNN 031800Z AUTO 00000KT 6SM 23/23 A2994 RMK SLP140 T02340227 57008 IEM_DS3505
ZGNN,2002-10-03 19:00,ZGNN 031900Z AUTO 34002KT 1 1/2SM 23/22 A2994 RMK T02300220 IEM_DS3505
ZGNN,2002-10-03 20:00,ZGNN 032000Z AUTO 34002KT 2 1/2SM 24/22 A2994 RMK T02400220 IEM_DS3505
ZGNN,2002-10-03 21:00,ZGNN 032100Z AUTO 00000KT 6SM 24/23 A2994 RMK SLP134 T02380231 57006 IEM_DS3505
ZGNN,2002-10-03 22:00,ZGNN 032200Z AUTO 02002KT 1SM 23/22 A2994 RMK T02300220 IEM_DS3505
ZGNN,2002-10-03 23:00,ZGNN 032300Z AUTO 04002KT 1SM 23/22 A2997 RMK T02300220 IEM_DS3505
ZGNN,2002-10-04 00:00,ZGNN 040000Z AUTO 00000KT 4SM 24/23 A2997 RMK SLP153 T02380232 52018 IEM_DS3505
ZGNN,2002-10-04 01:00,ZGNN 040100Z AUTO 05002KT 1 1/4SM 25/23 A3000 RMK T02500230 IEM_DS3505
ZGNN,2002-10-04 02:00,ZGNN 040200Z AUTO 3SM 26/23 A3000 RMK T02600230 IEM_DS3505
ZGNN,2002-10-04 03:00,ZGNN 040300Z AUTO 16006KT 5SM 29/24 A3000 RMK SLP155 T02880239 52003 IEM_DS3505
ZGNN,2002-10-04 04:00,ZGNN 040400Z AUTO 7SM 28/22 A2997 RMK T02800220 IEM_DS3505
ZGNN,2002-10-04 05:00,ZGNN 040500Z AUTO 7SM 29/22 A2994 RMK T02900220 IEM_DS3505
ZGNN,2002-10-04 06:00,ZGNN 040600Z AUTO 14004KT 7SM 30/23 A2988 RMK SLP124 T02960231 57030 IEM_DS3505
ZGNN,2002-10-04 07:00,ZGNN 040700Z AUTO 17004KT 7SM 29/22 A2985 RMK T02900220 IEM_DS3505
ZGNN,2002-10-04 08:00,ZGNN 040800Z AUTO 7SM 26/23 A2985 RMK T02600230 IEM_DS3505
ZGNN,2002-10-04 09:00,ZGNN 040900Z AUTO 00000KT 9SM 28/24 A2985 RMK SLP109 T02810237 57015 IEM_DS3505
ZGNN,2002-10-04 10:00,ZGNN 041000Z AUTO 12004KT 7SM 27/23 A2985 RMK T02700230 IEM_DS3505
ZGNN,2002-10-04 11:00,ZGNN 041100Z AUTO 09002KT 7SM 26/22 A2985 RMK T02600220 IEM_DS3505
ZGNN,2002-10-04 12:00,ZGNN 041200Z AUTO 07002KT 9SM 25/23 A2988 RMK 60000 SLP120 T02510231 52010 IEM_DS3505
ZGNN,2002-10-04 13:00,ZGNN 041300Z AUTO 06002KT 6SM 24/22 A2991 RMK T02400220 IEM_DS3505
ZGNN,2002-10-04 14:00,ZGNN 041400Z AUTO 05004KT 6SM 23/22 A2994 RMK T02300220 IEM_DS3505
ZGNN,2002-10-04 15:00,ZGNN 041500Z AUTO 00000KT 8SM 24/22 A2994 RMK SLP139 T02350225 52019 IEM_DS3505
ZGNN,2002-10-04 16:00,ZGNN 041600Z AUTO 04004KT 2SM 23/22 A2994 RMK T02300220 IEM_DS3505
ZGNN,2002-10-04 17:00,ZGNN 041700Z AUTO 03004KT 4SM 23/21 A2991 RMK T02300210 IEM_DS3505
ZGNN,2002-10-04 18:00,ZGNN 041800Z AUTO 00000KT 7SM 23/22 A2991 RMK SLP125 T02340222 57013 IEM_DS3505
ZGNN,2002-10-04 19:00,ZGNN 041900Z AUTO 06002KT 2SM 23/21 A2991 RMK T02300210 IEM_DS3505
ZGNN,2002-10-04 20:00,ZGNN 042000Z AUTO 04002KT 1 1/4SM 23/21 A2988 RMK T02300210 IEM_DS3505
ZGNN,2002-10-04 21:00,ZGNN 042100Z AUTO 00000KT 7SM 23/22 A2988 RMK 70001 SLP122 T02300223 57004 IEM_DS3505
ZGNN,2002-10-04 22:00,ZGNN 042200Z AUTO 06002KT 2 1/2SM 23/21 A2991 RMK T02300210 IEM_DS3505
ZGNN,2002-10-04 23:00,ZGNN 042300Z AUTO 05004KT 2SM 23/21 A2991 RMK T02300210 IEM_DS3505
ZGNN,2002-10-05 00:00,ZGNN 050000Z AUTO 02002KT 4SM 23/23 A2994 RMK 70001 SLP142 T02330226 52019 IEM_DS3505
ZGNN,2002-10-05 01:00,ZGNN 050100Z AUTO 2 1/2SM 24/22 A2994 RMK T02400220 IEM_DS3505
ZGNN,2002-10-05 02:00,ZGNN 050200Z AUTO 2 1/2SM 25/22 A2997 RMK T02500220 IEM_DS3505
ZGNN,2002-10-05 03:00,ZGNN 050300Z AUTO 14006KT 7SM 27/24 A2994 RMK SLP140 T02690240 57001 IEM_DS3505
ZGNN,2002-10-05 04:00,ZGNN 050400Z AUTO 7SM 28/22 A2991 RMK T02800220 IEM_DS3505
ZGNN,2002-10-05 05:00,ZGNN 050500Z AUTO 7SM 28/22 A2988 RMK T02800220 IEM_DS3505
ZGNN,2002-10-05 06:00,ZGNN 050600Z AUTO 22004KT 12SM 30/23 A2985 RMK SLP111 T02980229 57028 IEM_DS3505
ZGNN,2002-10-05 07:00,ZGNN 050700Z AUTO 16006KT 7SM 30/21 A2983 RMK T03000210 IEM_DS3505
ZGNN,2002-10-05 08:00,ZGNN 050800Z AUTO 18006KT 7SM 29/21 A2983 RMK T02900210 IEM_DS3505
ZGNN,2002-10-05 09:00,ZGNN 050900Z AUTO 14004KT 17SM 30/23 A2983 RMK SLP098 T02960228 57013 IEM_DS3505
ZGNN,2002-10-05 10:00,ZGNN 051000Z AUTO 13002KT 7SM 29/21 A2983 RMK T02900210 IEM_DS3505
ZGNN,2002-10-05 11:00,ZGNN 051100Z AUTO 13006KT 7SM 27/22 A2985 RMK T02700220 IEM_DS3505
ZGNN,2002-10-05 12:00,ZGNN 051200Z AUTO 09004KT 16SM 28/23 A2988 RMK SLP118 T02760228 52019 IEM_DS3505
ZGNN,2002-10-05 13:00,ZGNN 051300Z AUTO 7SM 26/23 A2988 RMK T02600230 IEM_DS3505
ZGNN,2002-10-05 14:00,ZGNN 051400Z AUTO 33019G29KT 1SM 22/21 A2994 RMK T02200210 IEM_DS3505
ZGNN,2002-10-05 15:00,ZGNN 051500Z AUTO 34010KT 7SM 22/21 A2994 RMK T02200210 IEM_DS3505
ZGNN,2002-10-05 16:00,ZGNN 051600Z AUTO 34006KT 7SM 22/20 A2997 RMK T02200200 IEM_DS3505
ZGNN,2002-10-05 17:00,ZGNN 051700Z AUTO 7SM 22/20 A2997 RMK T02200200 IEM_DS3505
ZGNN,2002-10-05 18:00,ZGNN 051800Z AUTO 36010KT 5SM 23/21 A2997 RMK 60110 SLP147 T02260208 54000 IEM_DS3505
ZGNN,2002-10-05 21:00,ZGNN 052100Z AUTO 34006KT 12SM 22/18 A2997 RMK 70110 SLP149 T02190176 52002 IEM_DS3505
ZGNN,2002-10-05 22:00,ZGNN 052200Z AUTO 35010KT 6SM 21/16 A3000 RMK T02100160 IEM_DS3505
ZGNN,2002-10-05 23:00,ZGNN 052300Z AUTO 34008KT 6SM 21/16 A3003 RMK T02100160 IEM_DS3505
ZGNN,2002-10-06 00:00,ZGNN 060000Z AUTO 32008KT 19SM 21/17 A3006 RMK 70110 SLP180 T02120166 52030 IEM_DS3505
ZGNN,2002-10-06 01:00,ZGNN 060100Z AUTO 34010KT 6SM 22/16 A3009 RMK T02200160 IEM_DS3505
ZGNN,2002-10-06 02:00,ZGNN 060200Z AUTO 35010KT 6SM 23/15 A3009 RMK T02300150 IEM_DS3505
ZGNN,2002-10-06 03:00,ZGNN 060300Z AUTO 34012KT 19SM 25/16 A3009 RMK SLP191 T02480158 52010 IEM_DS3505
ZGNN,2002-10-06 04:00,ZGNN 060400Z AUTO 36010KT 7SM 26/15 A3006 RMK T02600150 IEM_DS3505
ZGNN,2002-10-06 05:00,ZGNN 060500Z AUTO 36010KT 7SM 26/15 A3006 RMK T02600150 IEM_DS3505
ZGNN,2002-10-06 06:00,ZGNN 060600Z AUTO 02008KT 19SM 28/16 A3000 RMK SLP161 T02760162 57029 IEM_DS3505
ZGNN,2002-10-06 07:00,ZGNN 060700Z AUTO 01008KT 6SM 28/12 A3000 RMK T02800120 IEM_DS3505
ZGNN,2002-10-06 08:00,ZGNN 060800Z AUTO 02008KT 6SM 27/13 A2997 RMK T02700130 IEM_DS3505
ZGNN,2002-10-06 09:00,ZGNN 060900Z AUTO 02002KT 19SM 28/14 A2997 RMK SLP147 T02780143 57013 IEM_DS3505
ZGNN,2002-10-06 10:00,ZGNN 061000Z AUTO 07004KT 6SM 25/14 A2997 RMK T02500140 IEM_DS3505
ZGNN,2002-10-06 12:00,ZGNN 061200Z AUTO 00000KT 12SM 20/16 A3000 RMK SLP165 T02000158 52015 IEM_DS3505
ZGNN,2002-10-06 13:00,ZGNN 061300Z AUTO 6SM 20/15 A3003 RMK T02000150 IEM_DS3505
ZGNN,2002-10-06 14:00,ZGNN 061400Z AUTO 04002KT 6SM 19/14 A3003 RMK T01900140 IEM_DS3505
ZGNN,2002-10-06 15:00,ZGNN 061500Z AUTO 00000KT 9SM 17/15 A3003 RMK SLP178 T01700149 52013 IEM_DS3505
ZGNN,2002-10-06 16:00,ZGNN 061600Z AUTO 6SM 18/14 A3003 RMK T01800140 IEM_DS3505
ZGNN,2002-10-06 17:00,ZGNN 061700Z AUTO 20002KT 6SM 17/15 A3006 RMK T01700150 IEM_DS3505
ZGNN,2002-10-06 18:00,ZGNN 061800Z AUTO 00000KT 9SM 16/14 A3003 RMK SLP175 T01550141 57002 IEM_DS3505
ZGNN,2002-10-06 19:00,ZGNN 061900Z AUTO 19002KT 7SM 17/15 A3003 RMK T01700150 IEM_DS3505
ZGNN,2002-10-06 20:00,ZGNN 062000Z AUTO 00000KT 6SM 16/15 A3003 RMK T01600150 IEM_DS3505
ZGNN,2002-10-06 21:00,ZGNN 062100Z AUTO 00000KT 9SM 15/13 A3003 RMK SLP169 T01500132 57006 IEM_DS3505
ZGNN,2002-10-06 22:00,ZGNN 062200Z AUTO 19002KT 6SM 15/14 A3003 RMK T01500140 IEM_DS3505
ZGNN,2002-10-06 23:00,ZGNN 062300Z AUTO 20002KT 6SM 15/14 A3006 RMK T01500140 IEM_DS3505
ZGNN,2002-10-07 00:00,ZGNN 070000Z AUTO 00000KT 16SM 17/16 A3009 RMK SLP190 T01720160 52019 IEM_DS3505
ZGNN,2002-10-07 01:00,ZGNN 070100Z AUTO 6SM 20/16 A3009 RMK T02000160 IEM_DS3505
ZGNN,2002-10-07 02:00,ZGNN 070200Z AUTO 6SM 24/14 A3012 RMK T02400140 IEM_DS3505
ZGNN,2002-10-07 03:00,ZGNN 070300Z AUTO 34006KT 16SM 26/16 A3009 RMK SLP195 T02550159 52006 IEM_DS3505
ZGNN,2002-10-07 04:00,ZGNN 070400Z AUTO 36008KT 6SM 27/10 A3009 RMK T02700100 IEM_DS3505
ZGNN,2002-10-07 05:00,ZGNN 070500Z AUTO 02010KT 6SM 28/11 A3006 RMK T02800110 IEM_DS3505
ZGNN,2002-10-07 06:00,ZGNN 070600Z AUTO 32006KT 19SM 28/12 A3003 RMK SLP166 T02840116 57028 IEM_DS3505
ZGNN,2002-10-07 07:00,ZGNN 070700Z AUTO 01010KT 6SM 29/09 A3000 RMK T02900090 IEM_DS3505
ZGNN,2002-10-07 08:00,ZGNN 070800Z AUTO 35008KT 6SM 29/10 A3000 RMK T02900100 IEM_DS3505
ZGNN,2002-10-07 09:00,ZGNN 070900Z AUTO 04002KT 16SM 28/12 A3000 RMK SLP162 T02810116 57004 IEM_DS3505
ZGNN,2002-10-07 10:00,ZGNN 071000Z AUTO 08004KT 6SM 26/13 A3000 RMK T02600130 IEM_DS3505
ZGNN,2002-10-07 11:00,ZGNN 071100Z AUTO 6SM 24/14 A3000 RMK T02400140 IEM_DS3505
ZGNN,2002-10-07 13:00,ZGNN 071300Z AUTO 00000KT 6SM 20/15 A3006 RMK T02000150 IEM_DS3505
ZGNN,2002-10-07 14:00,ZGNN 071400Z AUTO 00000KT 6SM 18/15 A3006 RMK T01800150 IEM_DS3505
ZGNN,2002-10-07 15:00,ZGNN 071500Z AUTO 00000KT 9SM 16/15 A3009 RMK SLP192 T01630147 52015 IEM_DS3505
ZGNN,2002-10-07 16:00,ZGNN 071600Z AUTO 30002KT 6SM 17/14 A3009 RMK T01700140 IEM_DS3505
ZGNN,2002-10-07 17:00,ZGNN 071700Z AUTO 00000KT 6SM 17/14 A3009 RMK T01700140 IEM_DS3505
ZGNN,2002-10-07 18:00,ZGNN 071800Z AUTO 00000KT 7SM 15/14 A3009 RMK SLP193 T01480141 52001 IEM_DS3505
ZGNN,2002-10-07 19:00,ZGNN 071900Z AUTO 28002KT 6SM 16/14 A3009 RMK T01600140 IEM_DS3505
ZGNN,2002-10-07 20:00,ZGNN 072000Z AUTO 00000KT 3SM 15/14 A3006 RMK T01500140 IEM_DS3505
ZGNN,2002-10-07 21:00,ZGNN 072100Z AUTO 00000KT 7SM 14/13 A3009 RMK SLP191 T01370132 57002 IEM_DS3505
ZGNN,2002-10-07 22:00,ZGNN 072200Z AUTO 00000KT 6SM 15/13 A3009 RMK T01500130 IEM_DS3505
ZGNN,2002-10-07 23:00,ZGNN 072300Z AUTO 00000KT 6SM 15/13 A3012 RMK T01500130 IEM_DS3505
ZGNN,2002-10-08 00:00,ZGNN 080000Z AUTO 00000KT 6SM 15/15 A3015 RMK SLP213 T01510146 52020 IEM_DS3505
ZGNN,2002-10-08 01:00,ZGNN 080100Z AUTO 00000KT 6SM 20/17 A3015 RMK T02000170 IEM_DS3505
ZGNN,2002-10-08 02:00,ZGNN 080200Z AUTO 6SM 23/15 A3018 RMK T02300150 IEM_DS3505
ZGNN,2002-10-08 03:00,ZGNN 080300Z AUTO 04004KT 12SM 26/14 A3015 RMK SLP214 T02580137 52003 IEM_DS3505
ZGNN,2002-10-08 04:00,ZGNN 080400Z AUTO 04008KT 6SM 27/09 A3015 RMK T02700090 IEM_DS3505
ZGNN,2002-10-08 05:00,ZGNN 080500Z AUTO 6SM 28/11 A3009 RMK T02800110 IEM_DS3505
ZGNN,2002-10-08 06:00,ZGNN 080600Z AUTO 04004KT 12SM 29/12 A3006 RMK SLP183 T02870120 57030 IEM_DS3505
ZGNN,2002-10-08 07:00,ZGNN 080700Z AUTO 6SM 29/09 A3003 RMK T02900090 IEM_DS3505
ZGNN,2002-10-08 08:00,ZGNN 080800Z AUTO 6SM 30/09 A3003 RMK T03000090 IEM_DS3505
ZGNN,2002-10-08 09:00,ZGNN 080900Z AUTO 29002KT 12SM 29/12 A3003 RMK SLP171 T02920123 57012 IEM_DS3505
ZGNN,2002-10-08 10:00,ZGNN 081000Z AUTO 28002KT 6SM 28/12 A3003 RMK T02800120 IEM_DS3505
ZGNN,2002-10-08 11:00,ZGNN 081100Z AUTO 27002KT 6SM 23/16 A3003 RMK T02300160 IEM_DS3505
ZGNN,2002-10-08 12:00,ZGNN 081200Z AUTO 00000KT 12SM 19/17 A3006 RMK SLP182 T01940169 52008 IEM_DS3505
ZGNN,2002-10-08 13:00,ZGNN 081300Z AUTO 00000KT 6SM 19/16 A3006 RMK T01900160 IEM_DS3505
ZGNN,2002-10-08 14:00,ZGNN 081400Z AUTO 00000KT 6SM 18/15 A3009 RMK T01800150 IEM_DS3505
ZGNN,2002-10-08 15:00,ZGNN 081500Z AUTO 00000KT 11SM 16/15 A3009 RMK SLP191 T01600150 52011 IEM_DS3505
ZGNN,2002-10-08 16:00,ZGNN 081600Z AUTO 3SM 17/15 A3009 RMK T01700150 IEM_DS3505
ZGNN,2002-10-08 17:00,ZGNN 081700Z AUTO 3SM 16/15 A3009 RMK T01600150 IEM_DS3505
ZGNN,2002-10-08 18:00,ZGNN 081800Z AUTO 34002KT 9SM 15/14 A3006 RMK SLP182 T01470136 57008 IEM_DS3505
ZGNN,2002-10-08 19:00,ZGNN 081900Z AUTO 00000KT 2 1/2SM 15/14 A3006 RMK T01500140 IEM_DS3505
ZGNN,2002-10-08 20:00,ZGNN 082000Z AUTO 2 1/2SM 15/14 A3006 RMK T01500140 IEM_DS3505
ZGNN,2002-10-08 21:00,ZGNN 082100Z AUTO 34002KT 7SM 14/13 A3006 RMK SLP187 T01400129 52004 IEM_DS3505
ZGNN,2002-10-08 22:00,ZGNN 082200Z AUTO 00000KT 6SM 14/13 A3009 RMK T01400130 IEM_DS3505
ZGNN,2002-10-08 23:00,ZGNN 082300Z AUTO 00000KT 6SM 14/13 A3012 RMK T01400130 IEM_DS3505
ZGNN,2002-10-09 00:00,ZGNN 090000Z AUTO 00000KT 6SM 15/14 A3012 RMK SLP208 T01460141 52019 IEM_DS3505
ZGNN,2002-10-09 01:00,ZGNN 090100Z AUTO 4SM 19/15 A3015 RMK T01900150 IEM_DS3505
ZGNN,2002-10-09 02:00,ZGNN 090200Z AUTO 00000KT 6SM 23/15 A3015 RMK T02300150 IEM_DS3505
ZGNN,2002-10-09 03:00,ZGNN 090300Z AUTO 09002KT 9SM 26/14 A3015 RMK SLP210 T02580141 52004 IEM_DS3505
ZGNN,2002-10-09 04:00,ZGNN 090400Z AUTO 6SM 27/09 A3012 RMK T02700090 IEM_DS3505
ZGNN,2002-10-09 05:00,ZGNN 090500Z AUTO 6SM 27/11 A3009 RMK T02700110 IEM_DS3505
ZGNN,2002-10-09 06:00,ZGNN 090600Z AUTO 14004KT 12SM 28/12 A3006 RMK SLP178 T02770119 57032 IEM_DS3505
ZGNN,2002-10-09 07:00,ZGNN 090700Z AUTO 07006KT 6SM 28/09 A3003 RMK T02800090 IEM_DS3505
ZGNN,2002-10-09 08:00,ZGNN 090800Z AUTO 6SM 28/10 A3000 RMK T02800100 IEM_DS3505
ZGNN,2002-10-09 09:00,ZGNN 090900Z AUTO 00000KT 11SM 28/12 A3000 RMK SLP166 T02810123 57012 IEM_DS3505
ZGNN,2002-10-09 10:00,ZGNN 091000Z AUTO 06002KT 6SM 26/12 A3000 RMK T02600120 IEM_DS3505
ZGNN,2002-10-09 11:00,ZGNN 091100Z AUTO 6SM 23/16 A3003 RMK T02300160 IEM_DS3505
ZGNN,2002-10-09 12:00,ZGNN 091200Z AUTO 00000KT 9SM 18/15 A3003 RMK SLP178 T01840152 52010 IEM_DS3505
ZGNN,2002-10-09 13:00,ZGNN 091300Z AUTO 00000KT 6SM 19/14 A3006 RMK T01900140 IEM_DS3505
ZGNN,2002-10-09 14:00,ZGNN 091400Z AUTO 00000KT 5SM 17/14 A3006 RMK T01700140 IEM_DS3505
ZGNN,2002-10-09 15:00,ZGNN 091500Z AUTO 07002KT 7SM 15/13 A3009 RMK SLP190 T01500134 52014 IEM_DS3505
ZGNN,2002-10-09 16:00,ZGNN 091600Z AUTO 00000KT 4SM 16/13 A3006 RMK T01600130 IEM_DS3505
ZGNN,2002-10-09 17:00,ZGNN 091700Z AUTO 00000KT 4SM 15/13 A3006 RMK T01500130 IEM_DS3505
ZGNN,2002-10-09 18:00,ZGNN 091800Z AUTO 00000KT 7SM 13/12 A3006 RMK SLP178 T01310124 57012 IEM_DS3505
ZGNN,2002-10-09 19:00,ZGNN 091900Z AUTO 25002KT 5SM 15/13 A3006 RMK T01500130 IEM_DS3505
ZGNN,2002-10-09 20:00,ZGNN 092000Z AUTO 00000KT 4SM 14/12 A3006 RMK T01400120 IEM_DS3505
ZGNN,2002-10-09 21:00,ZGNN 092100Z AUTO 00000KT 6SM 13/12 A3006 RMK SLP183 T01270121 52005 IEM_DS3505
ZGNN,2002-10-09 22:00,ZGNN 092200Z AUTO 00000KT 6SM 14/12 A3006 RMK T01400120 IEM_DS3505
ZGNN,2002-10-09 23:00,ZGNN 092300Z AUTO 00000KT 4SM 13/12 A3009 RMK T01300120 IEM_DS3505
ZGNN,2002-10-10 00:00,ZGNN 100000Z AUTO 00000KT 5SM 14/13 A3012 RMK SLP202 T01350130 52016 IEM_DS3505
ZGNN,2002-10-10 01:00,ZGNN 100100Z AUTO 2 1/2SM 18/15 A3012 RMK T01800150 IEM_DS3505
ZGNN,2002-10-10 02:00,ZGNN 100200Z AUTO 4SM 21/16 A3015 RMK T02100160 IEM_DS3505
ZGNN,2002-10-10 03:00,ZGNN 100300Z AUTO 14002KT 7SM 25/14 A3012 RMK SLP204 T02510140 52004 IEM_DS3505
ZGNN,2002-10-10 04:00,ZGNN 100400Z AUTO 6SM 26/11 A3012 RMK T02600110 IEM_DS3505
ZGNN,2002-10-10 05:00,ZGNN 100500Z AUTO 09006KT 6SM 28/10 A3006 RMK T02800100 IEM_DS3505
ZGNN,2002-10-10 06:00,ZGNN 100600Z AUTO 09006KT 11SM 28/11 A3003 RMK SLP172 T02800107 57031 IEM_DS3505
ZGNN,2002-10-10 07:00,ZGNN 100700Z AUTO 6SM 28/09 A3000 RMK T02800090 IEM_DS3505
ZGNN,2002-10-10 08:00,ZGNN 100800Z AUTO 6SM 28/10 A2997 RMK T02800100 IEM_DS3505
ZGNN,2002-10-10 09:00,ZGNN 100900Z AUTO 00000KT 10SM 28/15 A2997 RMK SLP153 T02850150 57019 IEM_DS3505
ZGNN,2002-10-10 10:00,ZGNN 101000Z AUTO 08002KT 6SM 26/13 A2997 RMK T02600130 IEM_DS3505
ZGNN,2002-10-10 11:00,ZGNN 101100Z AUTO 31002KT 6SM 23/16 A2997 RMK T02300160 IEM_DS3505
ZGNN,2002-10-10 12:00,ZGNN 101200Z AUTO 00000KT 11SM 19/16 A3000 RMK SLP165 T01900160 52010 IEM_DS3505
ZGNN,2002-10-10 13:00,ZGNN 101300Z AUTO 00000KT 6SM 18/15 A3000 RMK T01800150 IEM_DS3505
ZGNN,2002-10-10 14:00,ZGNN 101400Z AUTO 00000KT 5SM 17/15 A3003 RMK T01700150 IEM_DS3505
ZGNN,2002-10-10 15:00,ZGNN 101500Z AUTO 00000KT 9SM 16/14 A3003 RMK SLP171 T01550143 52008 IEM_DS3505
ZGNN,2002-10-10 16:00,ZGNN 101600Z AUTO 00000KT 2 1/2SM 16/15 A3003 RMK T01600150 IEM_DS3505
ZGNN,2002-10-10 17:00,ZGNN 101700Z AUTO 00000KT 3SM 16/14 A3000 RMK T01600140 IEM_DS3505
ZGNN,2002-10-10 18:00,ZGNN 101800Z AUTO 00000KT 9SM 14/13 A3000 RMK SLP158 T01430134 57012 IEM_DS3505
ZGNN,2002-10-10 19:00,ZGNN 101900Z AUTO 00000KT 2 1/2SM 15/14 A2997 RMK T01500140 IEM_DS3505
ZGNN,2002-10-10 20:00,ZGNN 102000Z AUTO 00000KT 3SM 15/14 A2997 RMK T01500140 IEM_DS3505
ZGNN,2002-10-10 21:00,ZGNN 102100Z AUTO 00000KT 5SM 13/13 A2997 RMK SLP156 T01340129 57002 IEM_DS3505
ZGNN,2002-10-10 22:00,ZGNN 102200Z AUTO 00000KT 2 1/2SM 14/13 A3000 RMK T01400130 IEM_DS3505
ZGNN,2002-10-10 23:00,ZGNN 102300Z AUTO 00000KT 2 1/2SM 14/13 A3000 RMK T01400130 IEM_DS3505
ZGNN,2002-10-11 00:00,ZGNN 110000Z AUTO 00000KT 5SM 14/14 A3003 RMK SLP170 T01430138 52011 IEM_DS3505
ZGNN,2002-10-11 01:00,ZGNN 110100Z AUTO 2 1/2SM 18/15 A3003 RMK T01800150 IEM_DS3505
ZGNN,2002-10-11 03:00,ZGNN 110300Z AUTO 18004KT 6SM 24/17 A3000 RMK SLP165 T02410174 57003 IEM_DS3505
ZGNN,2002-10-11 04:00,ZGNN 110400Z AUTO 17004KT 6SM 26/15 A2997 RMK T02600150 IEM_DS3505
ZGNN,2002-10-11 05:00,ZGNN 110500Z AUTO 07006KT 6SM 27/13 A2994 RMK T02700130 IEM_DS3505
ZGNN,2002-10-11 06:00,ZGNN 110600Z AUTO 27002KT 11SM 28/14 A2991 RMK SLP131 T02790136 57033 IEM_DS3505
ZGNN,2002-10-11 07:00,ZGNN 110700Z AUTO 6SM 28/11 A2988 RMK T02800110 IEM_DS3505
ZGNN,2002-10-11 08:00,ZGNN 110800Z AUTO 6SM 28/12 A2985 RMK T02800120 IEM_DS3505
ZGNN,2002-10-11 09:00,ZGNN 110900Z AUTO 20002KT 9SM 28/13 A2985 RMK SLP112 T02750133 57019 IEM_DS3505
ZGNN,2002-10-11 10:00,ZGNN 111000Z AUTO 13002KT 6SM 25/15 A2985 RMK T02500150 IEM_DS3505
ZGNN,2002-10-11 11:00,ZGNN 111100Z AUTO 6SM 23/16 A2985 RMK T02300160 IEM_DS3505
ZGNN,2002-10-11 12:00,ZGNN 111200Z AUTO 00000KT 8SM 19/16 RMK SLP121 T01930165 52007 IEM_DS3505
ZGNN,2002-10-11 15:00,ZGNN 111500Z AUTO 00000KT 7SM 16/14 RMK SLP128 T01630142 52009 IEM_DS3505
ZGNN,2002-10-11 18:00,ZGNN 111800Z AUTO 00000KT 6SM 14/13 RMK SLP125 T01430134 57003 IEM_DS3505
ZGNN,2002-10-11 21:00,ZGNN 112100Z AUTO 00000KT 5SM 14/13 RMK SLP126 T01350131 52001 IEM_DS3505
ZGNN,2002-10-12 00:00,ZGNN 120000Z AUTO 00000KT 4SM 14/14 A2997 RMK SLP149 T01430139 52021 IEM_DS3505
ZGNN,2002-10-12 01:00,ZGNN 120100Z AUTO 00000KT 2 1/2SM 19/16 A2997 RMK T01900160 IEM_DS3505
ZGNN,2002-10-12 02:00,ZGNN 120200Z AUTO 3SM 22/17 A2997 RMK T02200170 IEM_DS3505
ZGNN,2002-10-12 03:00,ZGNN 120300Z AUTO 34004KT 7SM 26/16 A2997 RMK SLP153 T02590157 52006 IEM_DS3505
ZGNN,2002-10-12 04:00,ZGNN 120400Z AUTO 6SM 27/13 A2994 RMK T02700130 IEM_DS3505
ZGNN,2002-10-12 05:00,ZGNN 120500Z AUTO 6SM 28/14 A2991 RMK T02800140 IEM_DS3505
ZGNN,2002-10-12 06:00,ZGNN 120600Z AUTO 27004KT 10SM 29/15 A2988 RMK SLP123 T02890147 57030 IEM_DS3505
ZGNN,2002-10-12 07:00,ZGNN 120700Z AUTO 6SM 30/11 A2985 RMK T03000110 IEM_DS3505
ZGNN,2002-10-12 08:00,ZGNN 120800Z AUTO 6SM 30/11 A2985 RMK T03000110 IEM_DS3505
ZGNN,2002-10-12 09:00,ZGNN 120900Z AUTO 00000KT 11SM 30/14 A2985 RMK SLP113 T03030144 57009 IEM_DS3505
ZGNN,2002-10-12 10:00,ZGNN 121000Z AUTO 6SM 28/14 A2988 RMK T02800140 IEM_DS3505
ZGNN,2002-10-12 11:00,ZGNN 121100Z AUTO 00000KT 6SM 24/17 A2988 RMK T02400170 IEM_DS3505
ZGNN,2002-10-12 12:00,ZGNN 121200Z AUTO 00000KT 11SM 21/18 RMK SLP130 T02140184 52014 IEM_DS3505
ZGNN,2002-10-12 13:00,ZGNN 121300Z AUTO 6SM 20/17 A2991 RMK T02000170 IEM_DS3505
ZGNN,2002-10-12 14:00,ZGNN 121400Z AUTO 6SM 20/17 A2994 RMK T02000170 IEM_DS3505
ZGNN,2002-10-12 15:00,ZGNN 121500Z AUTO 36004KT 10SM 18/17 A2994 RMK SLP141 T01850167 52013 IEM_DS3505
ZGNN,2002-10-12 16:00,ZGNN 121600Z AUTO 24002KT 4SM 18/16 A2994 RMK T01800160 IEM_DS3505
ZGNN,2002-10-12 17:00,ZGNN 121700Z AUTO 20002KT 4SM 18/17 A2991 RMK T01800170 IEM_DS3505
ZGNN,2002-10-12 18:00,ZGNN 121800Z AUTO 00000KT 9SM 18/17 A2991 RMK SLP127 T01770169 57013 IEM_DS3505
ZGNN,2002-10-12 19:00,ZGNN 121900Z AUTO 19002KT 2 1/2SM 18/17 A2988 RMK T01800170 IEM_DS3505
ZGNN,2002-10-12 20:00,ZGNN 122000Z AUTO 2 1/2SM 18/16 A2988 RMK T01800160 IEM_DS3505
ZGNN,2002-10-12 21:00,ZGNN 122100Z AUTO 32004KT 7SM 20/15 A2991 RMK SLP128 T02050153 52002 IEM_DS3505
ZGNN,2002-10-12 22:00,ZGNN 122200Z AUTO 17002KT 6SM 17/15 A2991 RMK T01700150 IEM_DS3505
ZGNN,2002-10-12 23:00,ZGNN 122300Z AUTO 00000KT 6SM 17/15 A2994 RMK T01700150 IEM_DS3505
ZGNN,2002-10-13 00:00,ZGNN 130000Z AUTO 00000KT 6SM 20/16 A2997 RMK SLP146 T01990165 52016 IEM_DS3505
ZGNN,2002-10-13 01:00,ZGNN 130100Z AUTO 6SM 22/17 A3000 RMK T02200170 IEM_DS3505
ZGNN,2002-10-13 02:00,ZGNN 130200Z AUTO 6SM 25/15 A3000 RMK T02500150 IEM_DS3505
ZGNN,2002-10-13 03:00,ZGNN 130300Z AUTO 34006KT 9SM 27/18 A3000 RMK SLP154 T02690178 52008 IEM_DS3505
ZGNN,2002-10-13 04:00,ZGNN 130400Z AUTO 35006KT 6SM 29/14 A2997 RMK T02900140 IEM_DS3505
ZGNN,2002-10-13 05:00,ZGNN 130500Z AUTO 6SM 30/15 A2994 RMK T03000150 IEM_DS3505
ZGNN,2002-10-13 06:00,ZGNN 130600Z AUTO 36006KT 9SM 31/17 A2991 RMK SLP128 T03110173 57024 IEM_DS3505
ZGNN,2002-10-13 07:00,ZGNN 130700Z AUTO 6SM 32/15 A2988 RMK T03200150 IEM_DS3505
ZGNN,2002-10-13 08:00,ZGNN 130800Z AUTO 6SM 31/14 A2988 RMK T03100140 IEM_DS3505
ZGNN,2002-10-13 09:00,ZGNN 130900Z AUTO 04004KT 9SM 31/17 A2988 RMK SLP116 T03100169 57012 IEM_DS3505
ZGNN,2002-10-13 10:00,ZGNN 131000Z AUTO 09002KT 6SM 29/17 A2988 RMK T02900170 IEM_DS3505
ZGNN,2002-10-13 11:00,ZGNN 131100Z AUTO 00000KT 6SM 26/19 A2991 RMK T02600190 IEM_DS3505
ZGNN,2002-10-13 12:00,ZGNN 131200Z AUTO 00000KT 9SM 23/19 A2991 RMK SLP138 T02290193 52020 IEM_DS3505
ZGNN,2002-10-13 13:00,ZGNN 131300Z AUTO 00000KT 5SM 22/20 A2994 RMK T02200200 IEM_DS3505
ZGNN,2002-10-13 14:00,ZGNN 131400Z AUTO 00000KT 4SM 21/18 A2994 RMK T02100180 IEM_DS3505
ZGNN,2002-10-13 15:00,ZGNN 131500Z AUTO 00000KT 7SM 21/19 A2994 RMK SLP145 T02060189 52008 IEM_DS3505
ZGNN,2002-10-13 16:00,ZGNN 131600Z AUTO 28002KT 2 1/2SM 21/18 A2994 RMK T02100180 IEM_DS3505
ZGNN,2002-10-13 17:00,ZGNN 131700Z AUTO 12002KT 2SM 20/18 A2994 RMK T02000180 IEM_DS3505
ZGNN,2002-10-13 18:00,ZGNN 131800Z AUTO 00000KT 7SM 19/18 A2994 RMK SLP136 T01920181 57008 IEM_DS3505
ZGNN,2002-10-13 19:00,ZGNN 131900Z AUTO 3SM 20/18 A2991 RMK T02000180 IEM_DS3505
ZGNN,2002-10-13 20:00,ZGNN 132000Z AUTO 17002KT 2SM 19/18 A2991 RMK T01900180 IEM_DS3505
ZGNN,2002-10-13 21:00,ZGNN 132100Z AUTO 00000KT 7SM 18/18 A2994 RMK SLP139 T01850177 52003 IEM_DS3505
ZGNN,2002-10-13 22:00,ZGNN 132200Z AUTO 5SM 19/18 A2994 RMK T01900180 IEM_DS3505
ZGNN,2002-10-13 23:00,ZGNN 132300Z AUTO 00000KT 3SM 19/17 A2994 RMK T01900170 IEM_DS3505
ZGNN,2002-10-14 00:00,ZGNN 140000Z AUTO 00000KT 7SM 19/18 A2997 RMK SLP148 T01930185 52007 IEM_DS3505
ZGNN,2002-10-14 01:00,ZGNN 140100Z AUTO 00000KT 2 1/2SM 23/19 A3000 RMK T02300190 IEM_DS3505
ZGNN,2002-10-14 02:00,ZGNN 140200Z AUTO 26/17 A3000 RMK T02600170 IEM_DS3505
ZGNN,2002-10-14 03:00,ZGNN 140300Z AUTO 34004KT 11SM 29/17 A3000 RMK SLP156 T02860167 52009 IEM_DS3505
ZGNN,2002-10-14 04:00,ZGNN 140400Z AUTO 6SM 30/17 A2997 RMK T03000170 IEM_DS3505
ZGNN,2002-10-14 05:00,ZGNN 140500Z AUTO 6SM 30/17 A2994 RMK T03000170 IEM_DS3505
ZGNN,2002-10-14 06:00,ZGNN 140600Z AUTO 34002KT 9SM 31/18 A2991 RMK SLP128 T03090183 57027 IEM_DS3505
ZGNN,2002-10-14 07:00,ZGNN 140700Z AUTO 6SM 31/17 A2988 RMK T03100170 IEM_DS3505
ZGNN,2002-10-14 08:00,ZGNN 140800Z AUTO 6SM 31/18 A2988 RMK T03100180 IEM_DS3505
ZGNN,2002-10-14 09:00,ZGNN 140900Z AUTO 09004KT 6SM 31/18 A2988 RMK T03100180 IEM_DS3505
ZGNN,2002-10-14 10:00,ZGNN 141000Z AUTO 08004KT 6SM 29/19 A2988 RMK T02900190 IEM_DS3505
ZGNN,2002-10-14 11:00,ZGNN 141100Z AUTO 06002KT 6SM 27/19 A2991 RMK T02700190 IEM_DS3505
ZGNN,2002-10-14 12:00,ZGNN 141200Z AUTO 00000KT 9SM 24/21 A2991 RMK SLP139 T02430211 52019 IEM_DS3505
ZGNN,2002-10-14 14:00,ZGNN 141400Z AUTO 36002KT 6SM 24/20 A2997 RMK T02400200 IEM_DS3505
ZGNN,2002-10-14 15:00,ZGNN 141500Z AUTO 00000KT 9SM 22/21 A2997 RMK SLP151 T02230209 52014 IEM_DS3505
ZGNN,2002-10-14 16:00,ZGNN 141600Z AUTO 00000KT 2 1/2SM 23/20 A2997 RMK T02300200 IEM_DS3505
ZGNN,2002-10-14 17:00,ZGNN 141700Z AUTO 2 1/2SM 22/20 A2997 RMK T02200200 IEM_DS3505
ZGNN,2002-10-14 18:00,ZGNN 141800Z AUTO 00000KT 9SM 22/20 A2997 RMK SLP149 T02160205 57002 IEM_DS3505
ZGNN,2002-10-14 19:00,ZGNN 141900Z AUTO 28002KT 2 1/2SM 23/20 A2997 RMK T02300200 IEM_DS3505
ZGNN,2002-10-14 20:00,ZGNN 142000Z AUTO 30002KT 2SM 22/20 A2994 RMK T02200200 IEM_DS3505
ZGNN,2002-10-14 21:00,ZGNN 142100Z AUTO 00000KT 7SM 22/21 A2997 RMK SLP146 T02180209 57003 IEM_DS3505
ZGNN,2002-10-14 22:00,ZGNN 142200Z AUTO 00000KT 2SM 21/20 A2997 RMK T02100200 IEM_DS3505
ZGNN,2002-10-14 23:00,ZGNN 142300Z AUTO 00000KT 2SM 21/20 A2997 RMK T02100200 IEM_DS3505
ZGNN,2002-10-15 00:00,ZGNN 150000Z AUTO 00000KT 4SM 22/21 A3000 RMK SLP165 T02200214 52017 IEM_DS3505
ZGNN,2002-10-15 01:00,ZGNN 150100Z AUTO 1 1/2SM 25/22 A3003 RMK T02500220 IEM_DS3505
ZGNN,2002-10-15 02:00,ZGNN 150200Z AUTO 6SM 27/22 A3003 RMK T02700220 IEM_DS3505
ZGNN,2002-10-15 03:00,ZGNN 150300Z AUTO 20004KT 12SM 29/21 A3003 RMK SLP165 T02910211 52002 IEM_DS3505
ZGNN,2002-10-15 04:00,ZGNN 150400Z AUTO 6SM 30/19 A3000 RMK T03000190 IEM_DS3505
ZGNN,2002-10-15 05:00,ZGNN 150500Z AUTO 6SM 31/19 A2997 RMK T03100190 IEM_DS3505
ZGNN,2002-10-15 06:00,ZGNN 150600Z AUTO 18004KT 12SM 31/21 A2994 RMK SLP138 T03140207 57027 IEM_DS3505
ZGNN,2002-10-15 07:00,ZGNN 150700Z AUTO 7SM 31/20 A2991 RMK T03100200 IEM_DS3505
ZGNN,2002-10-15 08:00,ZGNN 150800Z AUTO 10006KT 7SM 31/20 A2991 RMK T03100200 IEM_DS3505
ZGNN,2002-10-15 09:00,ZGNN 150900Z AUTO 12004KT 6SM 30/20 A2991 RMK T03000200 IEM_DS3505
ZGNN,2002-10-15 10:00,ZGNN 151000Z AUTO 10002KT 6SM 29/21 A2991 RMK T02900210 IEM_DS3505
ZGNN,2002-10-15 11:00,ZGNN 151100Z AUTO 13004KT 6SM 27/22 A2991 RMK T02700220 IEM_DS3505
ZGNN,2002-10-15 12:00,ZGNN 151200Z AUTO 00000KT 7SM 27/23 A2994 RMK SLP143 T02690234 52016 IEM_DS3505
ZGNN,2002-10-15 13:00,ZGNN 151300Z AUTO 25002KT 6SM 26/22 A2997 RMK T02600220 IEM_DS3505
ZGNN,2002-10-15 14:00,ZGNN 151400Z AUTO 6SM 25/22 A3000 RMK T02500220 IEM_DS3505
ZGNN,2002-10-15 15:00,ZGNN 151500Z AUTO 00000KT 7SM 24/22 A3000 RMK SLP160 T02390224 52018 IEM_DS3505
ZGNN,2002-10-15 16:00,ZGNN 151600Z AUTO 24002KT 2 1/2SM 23/21 A3000 RMK T02300210 IEM_DS3505
ZGNN,2002-10-15 17:00,ZGNN 151700Z AUTO 00000KT 2 1/2SM 23/21 A3000 RMK T02300210 IEM_DS3505
ZGNN,2002-10-15 18:00,ZGNN 151800Z AUTO 00000KT 5SM 22/21 A2997 RMK SLP148 T02160208 57012 IEM_DS3505
ZGNN,2002-10-15 19:00,ZGNN 151900Z AUTO 34002KT 2 1/2SM 22/20 A2994 RMK T02200200 IEM_DS3505
ZGNN,2002-10-15 20:00,ZGNN 152000Z AUTO 00000KT 2SM 21/20 A2994 RMK T02100200 IEM_DS3505
ZGNN,2002-10-15 21:00,ZGNN 152100Z AUTO 00000KT 6SM 20/20 A2994 RMK SLP139 T02030195 57009 IEM_DS3505
ZGNN,2002-10-15 22:00,ZGNN 152200Z AUTO 36002KT 4SM 20/19 A2994 RMK T02000190 IEM_DS3505
ZGNN,2002-10-15 23:00,ZGNN 152300Z AUTO 00000KT 6SM 20/19 A2997 RMK T02000190 IEM_DS3505
ZGNN,2002-10-16 00:00,ZGNN 160000Z AUTO 00000KT 7SM 21/20 A2997 RMK SLP153 T02060200 52013 IEM_DS3505
ZGNN,2002-10-16 01:00,ZGNN 160100Z AUTO 13004KT 6SM 25/21 A3000 RMK T02500210 IEM_DS3505
ZGNN,2002-10-16 02:00,ZGNN 160200Z AUTO 15006KT 6SM 27/21 A3000 RMK T02700210 IEM_DS3505
ZGNN,2002-10-16 03:00,ZGNN 160300Z AUTO 16008KT 7SM 26/21 A3000 RMK T02600210 IEM_DS3505
ZGNN,2002-10-16 04:00,ZGNN 160400Z AUTO 17006KT 7SM 28/22 A2997 RMK T02800220 IEM_DS3505
ZGNN,2002-10-16 05:00,ZGNN 160500Z AUTO 14006KT 7SM 28/22 A2994 RMK T02800220 IEM_DS3505
ZGNN,2002-10-16 06:00,ZGNN 160600Z AUTO 7SM 28/22 A2988 RMK T02800220 IEM_DS3505
ZGNN,2002-10-16 07:00,ZGNN 160700Z AUTO 7SM 29/22 A2985 RMK T02900220 IEM_DS3505
ZGNN,2002-10-16 09:00,ZGNN 160900Z AUTO 14008KT 14SM 29/22 A2983 RMK SLP102 T02910224 57020 IEM_DS3505
ZGNN,2002-10-16 10:00,ZGNN 161000Z AUTO 13006KT 7SM 28/23 A2983 RMK T02800230 IEM_DS3505
ZGNN,2002-10-16 11:00,ZGNN 161100Z AUTO 11002KT 7SM 26/23 A2985 RMK T02600230 IEM_DS3505
ZGNN,2002-10-16 12:00,ZGNN 161200Z AUTO 14004KT 16SM 26/23 A2985 RMK SLP111 T02600231 52008 IEM_DS3505
ZGNN,2002-10-16 13:00,ZGNN 161300Z AUTO 7SM 25/23 A2988 RMK T02500230 IEM_DS3505
ZGNN,2002-10-16 14:00,ZGNN 161400Z AUTO 12004KT 7SM 24/23 A2988 RMK T02400230 IEM_DS3505
ZGNN,2002-10-16 15:00,ZGNN 161500Z AUTO 09002KT 11SM 25/23 A2988 RMK SLP116 T02520233 52007 IEM_DS3505
ZGNN,2002-10-16 16:00,ZGNN 161600Z AUTO 4SM 25/23 A2985 RMK T02500230 IEM_DS3505
ZGNN,2002-10-16 17:00,ZGNN 161700Z AUTO 4SM 24/23 A2985 RMK T02400230 IEM_DS3505
ZGNN,2002-10-16 18:00,ZGNN 161800Z AUTO 00000KT 9SM 25/23 A2983 RMK SLP103 T02490233 57013 IEM_DS3505
ZGNN,2002-10-16 19:00,ZGNN 161900Z AUTO 00000KT 6SM 24/23 A2983 RMK T02400230 IEM_DS3505
ZGNN,2002-10-16 20:00,ZGNN 162000Z AUTO 13002KT 4SM 24/23 A2980 RMK T02400230 IEM_DS3505
ZGNN,2002-10-16 21:00,ZGNN 162100Z AUTO 00000KT 9SM 25/24 A2980 RMK SLP092 T02500237 57011 IEM_DS3505
ZGNN,2002-10-16 22:00,ZGNN 162200Z AUTO 31002KT 7SM 24/23 A2983 RMK T02400230 IEM_DS3505
ZGNN,2002-10-16 23:00,ZGNN 162300Z AUTO 33002KT 7SM 24/23 A2985 RMK T02400230 IEM_DS3505
ZGNN,2002-10-17 00:00,ZGNN 170000Z AUTO 27002KT 9SM 25/24 A2985 RMK SLP110 T02500243 52017 IEM_DS3505
ZGNN,2002-10-17 01:00,ZGNN 170100Z AUTO 7SM 26/24 A2985 RMK T02600240 IEM_DS3505
ZGNN,2002-10-17 02:00,ZGNN 170200Z AUTO 7SM 27/23 A2985 RMK T02700230 IEM_DS3505
ZGNN,2002-10-17 03:00,ZGNN 170300Z AUTO 20002KT 19SM 29/23 A2985 RMK SLP109 T02880230 54000 IEM_DS3505
ZGNN,2002-10-17 06:00,ZGNN 170600Z AUTO 20006KT 19SM 32/23 A2977 RMK SLP074 T03170228 57034 IEM_DS3505
ZGNN,2002-10-17 07:00,ZGNN 170700Z AUTO 22006KT 7SM 32/21 A2974 RMK T03200210 IEM_DS3505
ZGNN,2002-10-17 08:00,ZGNN 170800Z AUTO 21004KT 7SM 31/22 A2971 RMK T03100220 IEM_DS3505
ZGNN,2002-10-17 09:00,ZGNN 170900Z AUTO 18006KT 19SM 32/23 A2971 RMK SLP064 T03160232 57010 IEM_DS3505
ZGNN,2002-10-17 10:00,ZGNN 171000Z AUTO 14008KT 7SM 29/24 A2974 RMK T02900240 IEM_DS3505
ZGNN,2002-10-17 11:00,ZGNN 171100Z AUTO 7SM 27/23 A2974 RMK T02700230 IEM_DS3505
ZGNN,2002-10-17 12:00,ZGNN 171200Z AUTO 14006KT 16SM 27/24 A2974 RMK SLP075 T02730237 52010 IEM_DS3505
ZGNN,2002-10-17 13:00,ZGNN 171300Z AUTO 6SM 26/23 A2977 RMK T02600230 IEM_DS3505
ZGNN,2002-10-17 14:00,ZGNN 171400Z AUTO 08002KT 6SM 25/23 A2977 RMK T02500230 IEM_DS3505
ZGNN,2002-10-17 15:00,ZGNN 171500Z AUTO 00000KT 12SM 25/24 A2980 RMK SLP083 T02530236 52009 IEM_DS3505
ZGNN,2002-10-17 16:00,ZGNN 171600Z AUTO 00000KT 6SM 24/23 A2980 RMK T02400230 IEM_DS3505
ZGNN,2002-10-17 17:00,ZGNN 171700Z AUTO 00000KT 6SM 24/23 A2977 RMK T02400230 IEM_DS3505
ZGNN,2002-10-17 18:00,ZGNN 171800Z AUTO 00000KT 11SM 24/23 A2977 RMK SLP079 T02370228 57004 IEM_DS3505
ZGNN,2002-10-17 19:00,ZGNN 171900Z AUTO 03004KT 4SM 23/22 A2977 RMK T02300220 IEM_DS3505
ZGNN,2002-10-17 20:00,ZGNN 172000Z AUTO 03002KT 2 1/2SM 23/22 A2977 RMK T02300220 IEM_DS3505
ZGNN,2002-10-17 21:00,ZGNN 172100Z AUTO 09002KT 9SM 24/23 A2977 RMK SLP081 T02370230 52002 IEM_DS3505
ZGNN,2002-10-17 22:00,ZGNN 172200Z AUTO 00000KT 1 1/4SM 23/23 A2980 RMK T02300230 IEM_DS3505
ZGNN,2002-10-17 23:00,ZGNN 172300Z AUTO 20002KT 2 1/2SM 23/23 A2980 RMK T02300230 IEM_DS3505
ZGNN,2002-10-18 00:00,ZGNN 180000Z AUTO 00000KT 4SM 24/23 A2983 RMK SLP103 T02380232 52021 IEM_DS3505
ZGNN,2002-10-18 01:00,ZGNN 180100Z AUTO 00000KT 5SM 24/23 A2985 RMK T02400230 IEM_DS3505
ZGNN,2002-10-18 02:00,ZGNN 180200Z AUTO 7SM 27/23 A2985 RMK T02700230 IEM_DS3505
ZGNN,2002-10-18 03:00,ZGNN 180300Z AUTO 18006KT 14SM 28/23 A2985 RMK SLP111 T02830229 52008 IEM_DS3505
ZGNN,2002-10-18 04:00,ZGNN 180400Z AUTO 6SM 29/22 A2983 RMK T02900220 IEM_DS3505
ZGNN,2002-10-18 05:00,ZGNN 180500Z AUTO 6SM 30/22 A2980 RMK T03000220 IEM_DS3505
ZGNN,2002-10-18 06:00,ZGNN 180600Z AUTO 18004KT 19SM 31/23 RMK SLP077 T03070229 57033 IEM_DS3505
ZGNN,2002-10-18 07:00,ZGNN 180700Z AUTO 7SM 31/23 A2974 RMK T03100230 IEM_DS3505
ZGNN,2002-10-18 08:00,ZGNN 180800Z AUTO 7SM 32/22 A2971 RMK T03200220 IEM_DS3505
ZGNN,2002-10-18 09:00,ZGNN 180900Z AUTO 18004KT 19SM 31/23 A2974 RMK SLP066 T03070233 57011 IEM_DS3505
ZGNN,2002-10-18 10:00,ZGNN 181000Z AUTO 22008KT 7SM 27/25 A2974 RMK T02700250 IEM_DS3505
ZGNN,2002-10-18 11:00,ZGNN 181100Z AUTO 6SM 26/25 A2974 RMK T02600250 IEM_DS3505
ZGNN,2002-10-18 12:00,ZGNN 181200Z AUTO 16002KT 12SM 27/24 A2977 RMK 60004 SLP076 T02670244 52009 IEM_DS3505
ZGNN,2002-10-18 13:00,ZGNN 181300Z AUTO 14004KT 6SM 25/24 A2980 RMK T02500240 IEM_DS3505
ZGNN,2002-10-18 14:00,ZGNN 181400Z AUTO 7SM 25/24 A2980 RMK T02500240 IEM_DS3505
ZGNN,2002-10-18 15:00,ZGNN 181500Z AUTO 00000KT 11SM 25/24 A2980 RMK SLP091 T02510241 52015 IEM_DS3505
ZGNN,2002-10-18 16:00,ZGNN 181600Z AUTO 6SM 24/24 A2980 RMK T02400240 IEM_DS3505
ZGNN,2002-10-18 17:00,ZGNN 181700Z AUTO 04004KT 6SM 23/23 A2980 RMK T02300230 IEM_DS3505
ZGNN,2002-10-18 18:00,ZGNN 181800Z AUTO 00000KT 9SM 25/24 A2980 RMK SLP085 T02460237 57005 IEM_DS3505
ZGNN,2002-10-18 19:00,ZGNN 181900Z AUTO 04002KT 3SM 24/24 A2980 RMK T02400240 IEM_DS3505
ZGNN,2002-10-18 20:00,ZGNN 182000Z AUTO 2 1/2SM 24/24 A2977 RMK T02400240 IEM_DS3505
ZGNN,2002-10-18 21:00,ZGNN 182100Z AUTO 14004KT 7SM 24/24 A2977 RMK 70004 SLP079 T02450238 57006 IEM_DS3505
ZGNN,2002-10-18 22:00,ZGNN 182200Z AUTO 00000KT 7SM 24/23 A2980 RMK T02400230 IEM_DS3505
ZGNN,2002-10-18 23:00,ZGNN 182300Z AUTO 00000KT 7SM 24/23 A2983 RMK T02400230 IEM_DS3505
ZGNN,2002-10-19 00:00,ZGNN 190000Z AUTO 18002KT 5SM 25/24 A2983 RMK 70004 SLP100 T02510238 52020 IEM_DS3505
ZGNN,2002-10-19 01:00,ZGNN 190100Z AUTO 7SM 25/23 A2983 RMK T02500230 IEM_DS3505
ZGNN,2002-10-19 02:00,ZGNN 190200Z AUTO 7SM 27/23 A2985 RMK T02700230 IEM_DS3505
ZGNN,2002-10-19 03:00,ZGNN 190300Z AUTO 14006KT 12SM 29/24 A2983 RMK SLP101 T02860236 52001 IEM_DS3505
ZGNN,2002-10-19 04:00,ZGNN 190400Z AUTO 15006KT 7SM 31/23 A2980 RMK T03100230 IEM_DS3505
ZGNN,2002-10-19 05:00,ZGNN 190500Z AUTO 15006KT 7SM 32/23 A2977 RMK T03200230 IEM_DS3505
ZGNN,2002-10-19 06:00,ZGNN 190600Z AUTO 18004KT 19SM 32/23 A2974 RMK 60000 SLP070 T03180232 57030 IEM_DS3505
ZGNN,2002-10-19 07:00,ZGNN 190700Z AUTO 16006KT 7SM 31/23 A2971 RMK T03100230 IEM_DS3505
ZGNN,2002-10-19 08:00,ZGNN 190800Z AUTO 7SM 28/26 A2971 RMK T02800260 IEM_DS3505
ZGNN,2002-10-19 09:00,ZGNN 190900Z AUTO 14004KT 17SM 31/24 A2971 RMK SLP059 T03110245 57011 IEM_DS3505
ZGNN,2002-10-19 10:00,ZGNN 191000Z AUTO 14008KT 7SM 29/24 A2974 RMK T02900240 IEM_DS3505
ZGNN,2002-10-19 11:00,ZGNN 191100Z AUTO 14006KT 6SM 27/23 A2974 RMK T02700230 IEM_DS3505
ZGNN,2002-10-19 12:00,ZGNN 191200Z AUTO 27002KT 17SM 27/24 A2977 RMK SLP077 T02720238 52017 IEM_DS3505
ZGNN,2002-10-19 13:00,ZGNN 191300Z AUTO 14006KT 6SM 26/23 A2977 RMK T02600230 IEM_DS3505
ZGNN,2002-10-19 14:00,ZGNN 191400Z AUTO 00000KT 6SM 25/24 A2980 RMK T02500240 IEM_DS3505
ZGNN,2002-10-19 15:00,ZGNN 191500Z AUTO 29002KT 16SM 26/24 A2977 RMK SLP085 T02570240 52009 IEM_DS3505
ZGNN,2002-10-19 16:00,ZGNN 191600Z AUTO 00000KT 6SM 24/23 A2980 RMK T02400230 IEM_DS3505
ZGNN,2002-10-19 17:00,ZGNN 191700Z AUTO 00000KT 5SM 24/23 A2980 RMK T02400230 IEM_DS3505
ZGNN,2002-10-19 18:00,ZGNN 191800Z AUTO 00000KT 12SM 24/23 A2980 RMK SLP084 T02370233 57001 IEM_DS3505
ZGNN,2002-10-19 19:00,ZGNN 191900Z AUTO 01002KT 3SM 23/23 A2977 RMK T02300230 IEM_DS3505
ZGNN,2002-10-19 20:00,ZGNN 192000Z AUTO 33002KT 3SM 23/23 A2977 RMK T02300230 IEM_DS3505
ZGNN,2002-10-19 21:00,ZGNN 192100Z AUTO 00000KT 7SM 23/22 A2977 RMK 70000 SLP078 T02310224 57006 IEM_DS3505
ZGNN,2002-10-19 22:00,ZGNN 192200Z AUTO 00000KT 6SM 23/22 A2980 RMK T02300220 IEM_DS3505
ZGNN,2002-10-19 23:00,ZGNN 192300Z AUTO 00000KT 6SM 23/22 A2983 RMK T02300220 IEM_DS3505
ZGNN,2002-10-20 00:00,ZGNN 200000Z AUTO 00000KT 7SM 24/22 A2985 RMK 70000 SLP105 T02350225 52025 IEM_DS3505
ZGNN,2002-10-20 01:00,ZGNN 200100Z AUTO 7SM 26/23 A2985 RMK T02600230 IEM_DS3505
ZGNN,2002-10-20 02:00,ZGNN 200200Z AUTO 7SM 28/24 A2988 RMK T02800240 IEM_DS3505
ZGNN,2002-10-20 03:00,ZGNN 200300Z AUTO 22004KT 12SM 29/23 A2988 RMK SLP114 T02910232 52010 IEM_DS3505
ZGNN,2002-10-20 04:00,ZGNN 200400Z AUTO 7SM 30/23 A2985 RMK T03000230 IEM_DS3505
ZGNN,2002-10-20 05:00,ZGNN 200500Z AUTO 7SM 30/23 A2983 RMK T03000230 IEM_DS3505
ZGNN,2002-10-20 06:00,ZGNN 200600Z AUTO 18004KT 19SM 31/24 A2980 RMK SLP090 T03110237 57023 IEM_DS3505
ZGNN,2002-10-20 07:00,ZGNN 200700Z AUTO 7SM 32/23 A2977 RMK T03200230 IEM_DS3505
ZGNN,2002-10-20 08:00,ZGNN 200800Z AUTO 7SM 33/23 A2977 RMK T03300230 IEM_DS3505
ZGNN,2002-10-20 09:00,ZGNN 200900Z AUTO 16004KT 19SM 32/23 A2974 RMK SLP076 T03230233 57014 IEM_DS3505
ZGNN,2002-10-20 10:00,ZGNN 201000Z AUTO 14006KT 7SM 31/24 A2977 RMK T03100240 IEM_DS3505
ZGNN,2002-10-20 11:00,ZGNN 201100Z AUTO 13006KT 7SM 29/25 A2980 RMK T02900250 IEM_DS3505
ZGNN,2002-10-20 12:00,ZGNN 201200Z AUTO 09006KT 7SM 23/22 RMK 60079 SLP114 T02300224 52035 IEM_DS3505
ZGNN,2002-10-20 13:00,ZGNN 201300Z AUTO 05008KT 7SM 21/20 A2988 RMK T02100200 IEM_DS3505
ZGNN,2002-10-20 14:00,ZGNN 201400Z AUTO 07008KT 7SM 21/19 A2991 RMK T02100190 IEM_DS3505
ZGNN,2002-10-20 15:00,ZGNN 201500Z AUTO 00000KT 9SM 21/19 A2994 RMK SLP142 T02110194 52029 IEM_DS3505
ZGNN,2002-10-20 16:00,ZGNN 201600Z AUTO 7SM 21/19 A2994 RMK T02100190 IEM_DS3505
ZGNN,2002-10-20 17:00,ZGNN 201700Z AUTO 00000KT 7SM 20/19 A2994 RMK T02000190 IEM_DS3505
ZGNN,2002-10-20 18:00,ZGNN 201800Z AUTO 00000KT 7SM 20/18 A2991 RMK 60004 SLP132 T02010185 57010 IEM_DS3505
ZGNN,2002-10-20 20:00,ZGNN 202000Z AUTO 35004KT 4SM 19/17 A2994 RMK T01900170 IEM_DS3505
ZGNN,2002-10-20 21:00,ZGNN 202100Z AUTO 00000KT 10SM 19/18 A2994 RMK 70085 SLP142 T01920176 52010 IEM_DS3505
ZGNN,2002-10-20 22:00,ZGNN 202200Z AUTO 7SM 19/18 A2997 RMK T01900180 IEM_DS3505
ZGNN,2002-10-20 23:00,ZGNN 202300Z AUTO 05006KT 7SM 19/17 A2997 RMK T01900170 IEM_DS3505
ZGNN,2002-10-21 00:00,ZGNN 210000Z AUTO 00000KT 7SM 19/17 A3000 RMK 60002 70085 SLP157 T01910171 52013 IEM_DS3505
ZGNN,2002-10-21 01:00,ZGNN 210100Z AUTO 07006KT 7SM 19/16 A2997 RMK T01900160 IEM_DS3505
ZGNN,2002-10-21 02:00,ZGNN 210200Z AUTO 7SM 19/16 A3003 RMK T01900160 IEM_DS3505
ZGNN,2002-10-21 03:00,ZGNN 210300Z AUTO 04002KT 9SM 19/15 A3003 RMK SLP173 T01930151 52015 IEM_DS3505
ZGNN,2002-10-21 04:00,ZGNN 210400Z AUTO 06004KT 7SM 19/16 A3000 RMK T01900160 IEM_DS3505
ZGNN,2002-10-21 05:00,ZGNN 210500Z AUTO 7SM 19/15 A3000 RMK T01900150 IEM_DS3505
ZGNN,2002-10-21 06:00,ZGNN 210600Z AUTO 32004KT 12SM 20/16 A2997 RMK SLP155 T02010156 57018 IEM_DS3505
ZGNN,2002-10-21 07:00,ZGNN 210700Z AUTO 7SM 20/16 A2994 RMK T02000160 IEM_DS3505
ZGNN,2002-10-21 08:00,ZGNN 210800Z AUTO 36006KT 7SM 21/16 A2994 RMK T02100160 IEM_DS3505
ZGNN,2002-10-21 09:00,ZGNN 210900Z AUTO 04002KT 12SM 21/16 A2994 RMK SLP141 T02070163 57014 IEM_DS3505
ZGNN,2002-10-21 10:00,ZGNN 211000Z AUTO 06006KT 7SM 20/16 A2991 RMK T02000160 IEM_DS3505
ZGNN,2002-10-21 11:00,ZGNN 211100Z AUTO 06004KT 7SM 19/16 A2994 RMK T01900160 IEM_DS3505
ZGNN,2002-10-21 12:00,ZGNN 211200Z AUTO 09004KT 11SM 19/15 A2997 RMK SLP158 T01900149 52017 IEM_DS3505
ZGNN,2002-10-21 13:00,ZGNN 211300Z AUTO 07004KT 7SM 18/15 A3000 RMK T01800150 IEM_DS3505
ZGNN,2002-10-21 14:00,ZGNN 211400Z AUTO 06006KT 7SM 18/15 A3000 RMK T01800150 IEM_DS3505
ZGNN,2002-10-21 15:00,ZGNN 211500Z AUTO 09002KT 9SM 18/15 A3000 RMK SLP161 T01830151 52002 IEM_DS3505
ZGNN,2002-10-21 16:00,ZGNN 211600Z AUTO 05004KT 4SM 18/15 A3000 RMK T01800150 IEM_DS3505
ZGNN,2002-10-21 17:00,ZGNN 211700Z AUTO 05004KT 4SM 18/15 A3000 RMK T01800150 IEM_DS3505
ZGNN,2002-10-21 18:00,ZGNN 211800Z AUTO 00000KT 9SM 18/15 A2997 RMK SLP154 T01790154 57006 IEM_DS3505
ZGNN,2002-10-21 19:00,ZGNN 211900Z AUTO 05006KT 3SM 18/15 A2997 RMK T01800150 IEM_DS3505
ZGNN,2002-10-21 20:00,ZGNN 212000Z AUTO 05006KT 4SM 17/15 A2997 RMK T01700150 IEM_DS3505
ZGNN,2002-10-21 21:00,ZGNN 212100Z AUTO 00000KT 7SM 18/16 A2997 RMK 70000 SLP153 T01770155 57001 IEM_DS3505
ZGNN,2002-10-21 22:00,ZGNN 212200Z AUTO 05004KT 7SM 17/15 A2997 RMK T01700150 IEM_DS3505
ZGNN,2002-10-21 23:00,ZGNN 212300Z AUTO 05002KT 7SM 17/15 A3000 RMK T01700150 IEM_DS3505
ZGNN,2002-10-22 00:00,ZGNN 220000Z AUTO 07002KT 6SM 18/15 A3000 RMK 70000 SLP166 T01770150 52012 IEM_DS3505
ZGNN,2002-10-22 01:00,ZGNN 220100Z AUTO 04006KT 7SM 18/15 A3000 RMK T01800150 IEM_DS3505
ZGNN,2002-10-22 02:00,ZGNN 220200Z AUTO 34002KT 1 1/4SM 17/16 A3003 RMK T01700160 IEM_DS3505
ZGNN,2002-10-22 03:00,ZGNN 220300Z AUTO 00000KT 2SM 18/16 A3003 RMK SLP175 T01760164 52009 IEM_DS3505
ZGNN,2002-10-22 04:00,ZGNN 220400Z AUTO 36006KT 2 1/2SM 18/17 A3003 RMK T01800170 IEM_DS3505
ZGNN,2002-10-22 05:00,ZGNN 220500Z AUTO 32006KT 4SM 18/17 A3000 RMK T01800170 IEM_DS3505
ZGNN,2002-10-22 06:00,ZGNN 220600Z AUTO 02004KT 5SM 18/16 A2997 RMK 60002 SLP155 T01800162 57020 IEM_DS3505
ZGNN,2002-10-22 07:00,ZGNN 220700Z AUTO 35004KT 4SM 17/16 A2997 RMK T01700160 IEM_DS3505
ZGNN,2002-10-22 09:00,ZGNN 220900Z AUTO 04002KT 5SM 18/17 RMK SLP149 T01780166 57006 IEM_DS3505
ZGNN,2002-10-22 10:00,ZGNN 221000Z AUTO 4SM 17/16 A2997 RMK T01700160 IEM_DS3505
ZGNN,2002-10-22 11:00,ZGNN 221100Z AUTO 06004KT 2SM 16/16 A2997 RMK T01600160 IEM_DS3505
ZGNN,2002-10-22 12:00,ZGNN 221200Z AUTO 09002KT 7SM 17/15 A3000 RMK SLP164 T01700151 52015 IEM_DS3505
ZGNN,2002-10-22 13:00,ZGNN 221300Z AUTO 04004KT 7SM 17/15 A3003 RMK T01700150 IEM_DS3505
ZGNN,2002-10-22 14:00,ZGNN 221400Z AUTO 04004KT 7SM 17/15 A3003 RMK T01700150 IEM_DS3505
ZGNN,2002-10-22 15:00,ZGNN 221500Z AUTO 00000KT 6SM 17/16 A3006 RMK SLP184 T01670155 52019 IEM_DS3505
ZGNN,2002-10-22 16:00,ZGNN 221600Z AUTO 02002KT 1 1/2SM 16/16 A3006 RMK T01600160 IEM_DS3505
ZGNN,2002-10-22 17:00,ZGNN 221700Z AUTO 00000KT 2 1/2SM 16/16 A3006 RMK T01600160 IEM_DS3505
ZGNN,2002-10-22 18:00,ZGNN 221800Z AUTO 32004KT 6SM 17/16 RMK 60001 SLP185 T01670159 52001 IEM_DS3505
ZGNN,2002-10-22 20:00,ZGNN 222000Z AUTO 35004KT 3SM 16/15 A3003 RMK T01600150 IEM_DS3505
ZGNN,2002-10-22 21:00,ZGNN 222100Z AUTO 34002KT 6SM 17/15 A3003 RMK 70004 SLP179 T01660154 57006 IEM_DS3505
ZGNN,2002-10-22 22:00,ZGNN 222200Z AUTO 35004KT 7SM 17/15 A3006 RMK T01700150 IEM_DS3505
ZGNN,2002-10-22 23:00,ZGNN 222300Z AUTO 7SM 17/15 A3009 RMK T01700150 IEM_DS3505
ZGNN,2002-10-23 00:00,ZGNN 230000Z AUTO 36004KT 16SM 17/14 A3009 RMK 60001 70004 SLP196 T01690141 52017 IEM_DS3505
ZGNN,2002-10-23 01:00,ZGNN 230100Z AUTO 01008KT 7SM 18/14 A3012 RMK T01800140 IEM_DS3505
ZGNN,2002-10-23 02:00,ZGNN 230200Z AUTO 36010KT 7SM 18/14 A3012 RMK T01800140 IEM_DS3505
ZGNN,2002-10-23 03:00,ZGNN 230300Z AUTO 34006KT 19SM 19/15 A3012 RMK SLP207 T01890146 52011 IEM_DS3505
ZGNN,2002-10-23 04:00,ZGNN 230400Z AUTO 34008KT 7SM 19/14 A3012 RMK T01900140 IEM_DS3505
ZGNN,2002-10-23 05:00,ZGNN 230500Z AUTO 34010KT 7SM 19/14 A3009 RMK T01900140 IEM_DS3505
ZGNN,2002-10-23 06:00,ZGNN 230600Z AUTO 32010KT 19SM 20/14 A3006 RMK SLP183 T01960137 57023 IEM_DS3505
ZGNN,2002-10-23 07:00,ZGNN 230700Z AUTO 35006KT 7SM 20/14 A3003 RMK T02000140 IEM_DS3505
ZGNN,2002-10-23 08:00,ZGNN 230800Z AUTO 35008KT 7SM 20/13 A3003 RMK T02000130 IEM_DS3505
ZGNN,2002-10-23 09:00,ZGNN 230900Z AUTO 34006KT 19SM 20/14 A3003 RMK SLP170 T02020136 57013 IEM_DS3505
ZGNN,2002-10-23 10:00,ZGNN 231000Z AUTO 33006KT 6SM 19/13 A3003 RMK T01900130 IEM_DS3505
ZGNN,2002-10-23 11:00,ZGNN 231100Z AUTO 34004KT 7SM 19/13 A3003 RMK T01900130 IEM_DS3505
ZGNN,2002-10-23 12:00,ZGNN 231200Z AUTO 36002KT 12SM 19/14 A3006 RMK SLP182 T01860141 52012 IEM_DS3505
ZGNN,2002-10-23 13:00,ZGNN 231300Z AUTO 04004KT 7SM 18/15 A3006 RMK T01800150 IEM_DS3505
ZGNN,2002-10-23 14:00,ZGNN 231400Z AUTO 6SM 18/16 A3009 RMK T01800160 IEM_DS3505
ZGNN,2002-10-23 15:00,ZGNN 231500Z AUTO 00000KT 12SM 18/15 A3009 RMK SLP190 T01810154 52008 IEM_DS3505
ZGNN,2002-10-23 17:00,ZGNN 231700Z AUTO 31002KT 7SM 18/15 A3009 RMK T01800150 IEM_DS3505
ZGNN,2002-10-23 18:00,ZGNN 231800Z AUTO 00000KT 12SM 18/16 RMK 60000 SLP187 T01760156 57003 IEM_DS3505
ZGNN,2002-10-23 19:00,ZGNN 231900Z AUTO 00000KT 7SM 18/16 A3006 RMK T01800160 IEM_DS3505
ZGNN,2002-10-23 20:00,ZGNN 232000Z AUTO 6SM 17/15 A3006 RMK T01700150 IEM_DS3505
ZGNN,2002-10-23 21:00,ZGNN 232100Z AUTO 00000KT 12SM 18/16 A3006 RMK 70000 SLP183 T01750156 57004 IEM_DS3505
ZGNN,2002-10-23 22:00,ZGNN 232200Z AUTO 07004KT 7SM 17/13 A3006 RMK T01700130 IEM_DS3505
ZGNN,2002-10-23 23:00,ZGNN 232300Z AUTO 07004KT 6SM 17/12 A3009 RMK T01700120 IEM_DS3505
ZGNN,2002-10-24 00:00,ZGNN 240000Z AUTO 09002KT 16SM 17/13 A3012 RMK 70000 SLP200 T01710126 52016 IEM_DS3505
ZGNN,2002-10-24 01:00,ZGNN 240100Z AUTO 6SM 17/12 A3012 RMK T01700120 IEM_DS3505
ZGNN,2002-10-24 02:00,ZGNN 240200Z AUTO 04004KT 6SM 18/12 A3012 RMK T01800120 IEM_DS3505
ZGNN,2002-10-24 03:00,ZGNN 240300Z AUTO 04002KT 16SM 20/12 A3012 RMK SLP201 T01970124 52002 IEM_DS3505
ZGNN,2002-10-24 04:00,ZGNN 240400Z AUTO 6SM 20/13 A3009 RMK T02000130 IEM_DS3505
ZGNN,2002-10-24 05:00,ZGNN 240500Z AUTO 6SM 21/13 A3006 RMK T02100130 IEM_DS3505
ZGNN,2002-10-24 06:00,ZGNN 240600Z AUTO 00000KT 16SM 22/13 A3000 RMK SLP165 T02210133 57035 IEM_DS3505
ZGNN,2002-10-24 07:00,ZGNN 240700Z AUTO 6SM 23/13 A3000 RMK T02300130 IEM_DS3505
ZGNN,2002-10-24 08:00,ZGNN 240800Z AUTO 6SM 23/12 A2997 RMK T02300120 IEM_DS3505
ZGNN,2002-10-24 09:00,ZGNN 240900Z AUTO 09004KT 17SM 24/14 A2997 RMK SLP151 T02360138 57014 IEM_DS3505
ZGNN,2002-10-24 10:00,ZGNN 241000Z AUTO 00000KT 6SM 23/13 A2997 RMK T02300130 IEM_DS3505
ZGNN,2002-10-24 11:00,ZGNN 241100Z AUTO 09002KT 6SM 21/16 A2997 RMK T02100160 IEM_DS3505
ZGNN,2002-10-24 12:00,ZGNN 241200Z AUTO 00000KT 19SM 18/16 A2997 RMK SLP160 T01820159 52008 IEM_DS3505
ZGNN,2002-10-24 13:00,ZGNN 241300Z AUTO 02002KT 6SM 17/16 A3000 RMK T01700160 IEM_DS3505
ZGNN,2002-10-24 14:00,ZGNN 241400Z AUTO 04002KT 6SM 17/15 A3000 RMK T01700150 IEM_DS3505
ZGNN,2002-10-24 15:00,ZGNN 241500Z AUTO 00000KT 19SM 16/15 A3003 RMK SLP172 T01610152 52012 IEM_DS3505
ZGNN,2002-10-24 16:00,ZGNN 241600Z AUTO 00000KT 3SM 17/15 A3003 RMK T01700150 IEM_DS3505
ZGNN,2002-10-24 17:00,ZGNN 241700Z AUTO 36004KT 3SM 17/15 A3003 RMK T01700150 IEM_DS3505
ZGNN,2002-10-24 18:00,ZGNN 241800Z AUTO 00000KT 12SM 17/16 A3003 RMK SLP175 T01690161 52004 IEM_DS3505
ZGNN,2002-10-24 19:00,ZGNN 241900Z AUTO 02004KT 4SM 19/15 A3003 RMK T01900150 IEM_DS3505
ZGNN,2002-10-24 20:00,ZGNN 242000Z AUTO 01004KT 3SM 18/16 A3003 RMK T01800160 IEM_DS3505
ZGNN,2002-10-24 21:00,ZGNN 242100Z AUTO 00000KT 12SM 18/17 A3003 RMK SLP176 T01850174 52001 IEM_DS3505
ZGNN,2002-10-24 22:00,ZGNN 242200Z AUTO 05002KT 7SM 19/16 A3006 RMK T01900160 IEM_DS3505
ZGNN,2002-10-24 23:00,ZGNN 242300Z AUTO 05002KT 7SM 19/16 A3006 RMK T01900160 IEM_DS3505
ZGNN,2002-10-25 00:00,ZGNN 250000Z AUTO 00000KT 9SM 19/17 A3009 RMK SLP192 T01920171 52015 IEM_DS3505
ZGNN,2002-10-25 02:00,ZGNN 250200Z AUTO 04006KT 7SM 21/16 A3012 RMK T02100160 IEM_DS3505
ZGNN,2002-10-25 03:00,ZGNN 250300Z AUTO 04004KT 7SM 22/17 A3009 RMK SLP196 T02250168 52004 IEM_DS3505
ZGNN,2002-10-25 04:00,ZGNN 250400Z AUTO 7SM 24/17 A3006 RMK T02400170 IEM_DS3505
ZGNN,2002-10-25 05:00,ZGNN 250500Z AUTO 7SM 26/17 A3003 RMK T02600170 IEM_DS3505
ZGNN,2002-10-25 06:00,ZGNN 250600Z AUTO 36004KT 7SM 26/17 A3003 RMK SLP167 T02630173 57027 IEM_DS3505
ZGNN,2002-10-25 07:00,ZGNN 250700Z AUTO 7SM 26/17 A3000 RMK T02600170 IEM_DS3505
ZGNN,2002-10-25 08:00,ZGNN 250800Z AUTO 7SM 26/17 A3000 RMK T02600170 IEM_DS3505
ZGNN,2002-10-25 09:00,ZGNN 250900Z AUTO 00000KT 12SM 26/19 A3000 RMK SLP161 T02610188 57006 IEM_DS3505
ZGNN,2002-10-25 10:00,ZGNN 251000Z AUTO 07002KT 7SM 25/19 A3000 RMK T02500190 IEM_DS3505
ZGNN,2002-10-25 11:00,ZGNN 251100Z AUTO 04002KT 7SM 24/19 A3003 RMK T02400190 IEM_DS3505
ZGNN,2002-10-25 12:00,ZGNN 251200Z AUTO 00000KT 11SM 24/20 A3006 RMK SLP182 T02390199 52020 IEM_DS3505
ZGNN,2002-10-25 13:00,ZGNN 251300Z AUTO 04006KT 7SM 23/19 A3009 RMK T02300190 IEM_DS3505
ZGNN,2002-10-25 14:00,ZGNN 251400Z AUTO 03004KT 7SM 23/18 A3009 RMK T02300180 IEM_DS3505
ZGNN,2002-10-25 15:00,ZGNN 251500Z AUTO 00000KT 11SM 23/18 A3009 RMK SLP192 T02270178 52011 IEM_DS3505
ZGNN,2002-10-25 16:00,ZGNN 251600Z AUTO 33002KT 6SM 22/19 A3009 RMK T02200190 IEM_DS3505
ZGNN,2002-10-25 17:00,ZGNN 251700Z AUTO 32002KT 3SM 22/18 A3009 RMK T02200180 IEM_DS3505
ZGNN,2002-10-25 18:00,ZGNN 251800Z AUTO 35004KT 4SM 22/17 A3006 RMK T02200170 IEM_DS3505
ZGNN,2002-10-25 19:00,ZGNN 251900Z AUTO 03002KT 4SM 21/18 A3006 RMK T02100180 IEM_DS3505
ZGNN,2002-10-25 21:00,ZGNN 252100Z AUTO 00000KT 9SM 21/19 A3006 RMK SLP179 T02080194 57001 IEM_DS3505
ZGNN,2002-10-25 22:00,ZGNN 252200Z AUTO 03002KT 4SM 21/19 A3006 RMK T02100190 IEM_DS3505
ZGNN,2002-10-25 23:00,ZGNN 252300Z AUTO 01004KT 3SM 21/18 A3009 RMK T02100180 IEM_DS3505
ZGNN,2002-10-26 00:00,ZGNN 260000Z AUTO 00000KT 9SM 21/19 A3009 RMK SLP192 T02130186 52013 IEM_DS3505
ZGNN,2002-10-26 17:00,ZGNN 261700Z AUTO 06002KT 3SM 18/16 A3006 RMK T01800160 IEM_DS3505
ZGNN,2002-10-26 18:00,ZGNN 261800Z AUTO 00000KT 9SM 19/16 A3006 RMK SLP180 T01860161 57010 IEM_DS3505
ZGNN,2002-10-26 19:00,ZGNN 261900Z AUTO 00000KT 3SM 18/16 A3006 RMK T01800160 IEM_DS3505
ZGNN,2002-10-26 20:00,ZGNN 262000Z AUTO 3SM 18/16 A3003 RMK T01800160 IEM_DS3505
ZGNN,2002-10-26 21:00,ZGNN 262100Z AUTO 00000KT 7SM 18/16 A3003 RMK SLP170 T01830163 57010 IEM_DS3505
ZGNN,2002-10-26 22:00,ZGNN 262200Z AUTO 12002KT 5SM 18/16 A3003 RMK T01800160 IEM_DS3505
ZGNN,2002-10-26 23:00,ZGNN 262300Z AUTO 5SM 18/16 A3003 RMK T01800160 IEM_DS3505
ZGNN,2002-10-27 00:00,ZGNN 270000Z AUTO 00000KT 9SM 18/17 A3006 RMK SLP181 T01830166 52010 IEM_DS3505
ZGNN,2002-10-27 01:00,ZGNN 270100Z AUTO 5SM 19/16 A3006 RMK T01900160 IEM_DS3505
ZGNN,2002-10-27 02:00,ZGNN 270200Z AUTO 5SM 19/16 A3006 RMK T01900160 IEM_DS3505
ZGNN,2002-10-27 03:00,ZGNN 270300Z AUTO 11002KT 7SM 20/16 A3006 RMK SLP183 T01980165 52002 IEM_DS3505
ZGNN,2002-10-27 04:00,ZGNN 270400Z AUTO 7SM 20/16 A3003 RMK T02000160 IEM_DS3505
ZGNN,2002-10-27 06:00,ZGNN 270600Z AUTO 34002KT 7SM 22/16 A2997 RMK SLP149 T02160158 57033 IEM_DS3505
ZGNN,2002-10-27 07:00,ZGNN 270700Z AUTO 7SM 22/16 A2994 RMK T02200160 IEM_DS3505
ZGNN,2002-10-27 08:00,ZGNN 270800Z AUTO 7SM 22/16 A2994 RMK T02200160 IEM_DS3505
ZGNN,2002-10-27 09:00,ZGNN 270900Z AUTO 00000KT 8SM 22/16 A2994 RMK SLP140 T02150164 57009 IEM_DS3505
ZGNN,2002-10-27 10:00,ZGNN 271000Z AUTO 05004KT 7SM 21/16 A2994 RMK T02100160 IEM_DS3505
ZGNN,2002-10-27 11:00,ZGNN 271100Z AUTO 02004KT 7SM 21/17 A2994 RMK T02100170 IEM_DS3505
ZGNN,2002-10-27 12:00,ZGNN 271200Z AUTO 09002KT 7SM 21/18 A2994 RMK SLP145 T02070175 52005 IEM_DS3505
ZGNN,2002-10-27 13:00,ZGNN 271300Z AUTO 04004KT 7SM 20/17 A2997 RMK T02000170 IEM_DS3505
ZGNN,2002-10-27 14:00,ZGNN 271400Z AUTO 06004KT 7SM 20/17 A2997 RMK T02000170 IEM_DS3505
ZGNN,2002-10-27 15:00,ZGNN 271500Z AUTO 00000KT 6SM 20/17 A2997 RMK SLP152 T01960173 52007 IEM_DS3505
ZGNN,2002-10-27 16:00,ZGNN 271600Z AUTO 00000KT 3SM 20/17 A2997 RMK T02000170 IEM_DS3505
ZGNN,2002-10-27 18:00,ZGNN 271800Z AUTO 00000KT 6SM 19/18 RMK SLP142 T01910175 57010 IEM_DS3505
ZGNN,2002-10-27 21:00,ZGNN 272100Z AUTO 00000KT 6SM 19/17 RMK 70000 SLP129 T01890174 57012 IEM_DS3505
ZGNN,2002-10-28 00:00,ZGNN 280000Z AUTO 00000KT 3SM 19/18 A2994 RMK 70000 SLP140 T01930175 52010 IEM_DS3505
ZGNN,2002-10-28 01:00,ZGNN 280100Z AUTO 05004KT 1 1/2SM 19/17 A2994 RMK T01900170 IEM_DS3505
ZGNN,2002-10-28 02:00,ZGNN 280200Z AUTO 05004KT 1 1/2SM 19/18 A2997 RMK T01900180 IEM_DS3505
ZGNN,2002-10-28 03:00,ZGNN 280300Z AUTO 09002KT 4SM 20/19 A2994 RMK SLP144 T02000186 52004 IEM_DS3505
ZGNN,2002-10-28 04:00,ZGNN 280400Z AUTO 02004KT 7SM 20/18 A2994 RMK T02000180 IEM_DS3505
ZGNN,2002-10-28 05:00,ZGNN 280500Z AUTO 05002KT 1SM 20/19 A2988 RMK T02000190 IEM_DS3505
ZGNN,2002-10-28 06:00,ZGNN 280600Z AUTO 00000KT 2 1/2SM 21/19 A2988 RMK SLP120 T02130194 57023 IEM_DS3505
ZGNN,2002-10-28 07:00,ZGNN 280700Z AUTO 1SM 21/19 A2985 RMK T02100190 IEM_DS3505
ZGNN,2002-10-28 08:00,ZGNN 280800Z AUTO 1 1/4SM 22/20 A2983 RMK T02200200 IEM_DS3505
ZGNN,2002-10-28 09:00,ZGNN 280900Z AUTO 00000KT 4SM 22/20 A2983 RMK SLP107 T02230203 57013 IEM_DS3505
ZGNN,2002-10-28 10:00,ZGNN 281000Z AUTO 1 1/2SM 22/20 A2985 RMK T02200200 IEM_DS3505
ZGNN,2002-10-28 11:00,ZGNN 281100Z AUTO 04004KT 1 1/2SM 21/20 A2985 RMK T02100200 IEM_DS3505
ZGNN,2002-10-28 12:00,ZGNN 281200Z AUTO 09004KT 3SM 22/20 A2985 RMK SLP117 T02210204 52010 IEM_DS3505
ZGNN,2002-10-28 13:00,ZGNN 281300Z AUTO 04004KT 1 1/4SM 21/20 A2988 RMK T02100200 IEM_DS3505
ZGNN,2002-10-28 14:00,ZGNN 281400Z AUTO 02004KT 1 1/4SM 22/21 A2988 RMK T02200210 IEM_DS3505
ZGNN,2002-10-28 15:00,ZGNN 281500Z AUTO 07002KT 4SM 22/21 A2988 RMK SLP124 T02170206 52007 IEM_DS3505
ZGNN,2002-10-28 16:00,ZGNN 281600Z AUTO 04004KT 1SM 21/20 A2988 RMK T02100200 IEM_DS3505
ZGNN,2002-10-28 17:00,ZGNN 281700Z AUTO 03004KT 1SM 21/21 A2988 RMK T02100210 IEM_DS3505
ZGNN,2002-10-28 18:00,ZGNN 281800Z AUTO 00000KT 3SM 22/21 A2985 RMK SLP113 T02170209 57011 IEM_DS3505
ZGNN,2002-10-28 19:00,ZGNN 281900Z AUTO 02002KT 1SM 21/21 A2985 RMK T02100210 IEM_DS3505
ZGNN,2002-10-28 20:00,ZGNN 282000Z AUTO 03002KT 1SM 22/21 A2985 RMK T02200210 IEM_DS3505
ZGNN,2002-10-28 21:00,ZGNN 282100Z AUTO 00000KT 3SM 22/21 A2983 RMK 70001 SLP107 T02170212 57005 IEM_DS3505
ZGNN,2002-10-28 22:00,ZGNN 282200Z AUTO 03004KT 1SM 21/21 A2983 RMK T02100210 IEM_DS3505
ZGNN,2002-10-28 23:00,ZGNN 282300Z AUTO 02004KT 1SM 21/21 A2985 RMK T02100210 IEM_DS3505
ZGNN,2002-10-29 00:00,ZGNN 290000Z AUTO 00000KT 1 1/4SM 22/22 A2988 RMK 70001 SLP118 T02230219 52011 IEM_DS3505
ZGNN,2002-10-29 01:00,ZGNN 290100Z AUTO 04004KT 1SM 23/22 A2988 RMK T02300220 IEM_DS3505
ZGNN,2002-10-29 02:00,ZGNN 290200Z AUTO 05004KT 1 1/4SM 23/23 A2991 RMK T02300230 IEM_DS3505
ZGNN,2002-10-29 03:00,ZGNN 290300Z AUTO 14004KT 3SM 25/24 A2988 RMK SLP125 T02470237 52007 IEM_DS3505
ZGNN,2002-10-29 04:00,ZGNN 290400Z AUTO 14006KT 7SM 25/23 A2988 RMK T02500230 IEM_DS3505
ZGNN,2002-10-29 05:00,ZGNN 290500Z AUTO 13002KT 7SM 25/23 A2985 RMK T02500230 IEM_DS3505
ZGNN,2002-10-29 06:00,ZGNN 290600Z AUTO 07004KT 2 1/2SM 25/24 A2983 RMK 60004 SLP104 T02460239 57021 IEM_DS3505
ZGNN,2002-10-29 07:00,ZGNN 290700Z AUTO 04010KT 4SM 24/22 A2983 RMK T02400220 IEM_DS3505
ZGNN,2002-10-29 08:00,ZGNN 290800Z AUTO 35010KT 1SM 20/20 A2983 RMK T02000200 IEM_DS3505
ZGNN,2002-10-29 09:00,ZGNN 290900Z AUTO 09002KT 12SM 20/19 A2985 RMK SLP110 T01960190 52005 IEM_DS3505
ZGNN,2002-10-29 10:00,ZGNN 291000Z AUTO 01008KT 4SM 19/18 A2985 RMK T01900180 IEM_DS3505
ZGNN,2002-10-29 11:00,ZGNN 291100Z AUTO 35004KT 4SM 19/18 A2988 RMK T01900180 IEM_DS3505
ZGNN,2002-10-29 12:00,ZGNN 291200Z AUTO 02002KT 5SM 18/17 A2991 RMK 60102 SLP136 T01770172 52025 IEM_DS3505
ZGNN,2002-10-29 13:00,ZGNN 291300Z AUTO 02006KT 5SM 18/17 A2994 RMK T01800170 IEM_DS3505
ZGNN,2002-10-29 14:00,ZGNN 291400Z AUTO 00000KT 4SM 18/17 A2997 RMK T01800170 IEM_DS3505
ZGNN,2002-10-29 15:00,ZGNN 291500Z AUTO 09002KT 4SM 18/17 A2997 RMK SLP154 T01770172 52019 IEM_DS3505
ZGNN,2002-10-29 16:00,ZGNN 291600Z AUTO 06004KT 4SM 17/17 A2997 RMK T01700170 IEM_DS3505
ZGNN,2002-10-29 17:00,ZGNN 291700Z AUTO 05002KT 2 1/2SM 17/17 A2997 RMK T01700170 IEM_DS3505
ZGNN,2002-10-29 18:00,ZGNN 291800Z AUTO 32002KT 3SM 17/17 A2997 RMK 60012 SLP149 T01740171 57005 IEM_DS3505
ZGNN,2002-10-29 19:00,ZGNN 291900Z AUTO 35004KT 4SM 17/17 A2994 RMK T01700170 IEM_DS3505
ZGNN,2002-10-29 20:00,ZGNN 292000Z AUTO 34004KT 4SM 17/17 A2997 RMK T01700170 IEM_DS3505
ZGNN,2002-10-29 21:00,ZGNN 292100Z AUTO 34004KT 3SM 17/16 A2994 RMK 70120 SLP149 T01730165 57002 IEM_DS3505
ZGNN,2002-10-29 22:00,ZGNN 292200Z AUTO 34004KT 4SM 17/16 A2997 RMK T01700160 IEM_DS3505
ZGNN,2002-10-29 23:00,ZGNN 292300Z AUTO 35004KT 5SM 17/16 A2997 RMK T01700160 IEM_DS3505
ZGNN,2002-10-30 00:00,ZGNN 300000Z AUTO 00000KT 3SM 17/17 A3000 RMK 60002 70120 SLP168 T01710166 52019 IEM_DS3505
ZGNN,2002-10-30 01:00,ZGNN 300100Z AUTO 2SM 16/16 A3003 RMK T01600160 IEM_DS3505
ZGNN,2002-10-30 02:00,ZGNN 300200Z AUTO 09004KT 2 1/2SM 16/16 A3006 RMK T01600160 IEM_DS3505
ZGNN,2002-10-30 03:00,ZGNN 300300Z AUTO 00000KT 3SM 16/16 A3006 RMK SLP183 T01650160 52014 IEM_DS3505
ZGNN,2002-10-30 04:00,ZGNN 300400Z AUTO 05004KT 2SM 16/16 A3003 RMK T01600160 IEM_DS3505
ZGNN,2002-10-30 05:00,ZGNN 300500Z AUTO 00000KT 1 1/2SM 17/16 A3000 RMK T01700160 IEM_DS3505
ZGNN,2002-10-30 06:00,ZGNN 300600Z AUTO 36002KT 3SM 18/17 A3000 RMK 60043 SLP159 T01790171 57023 IEM_DS3505
ZGNN,2002-10-30 07:00,ZGNN 300700Z AUTO 4SM 18/17 A2997 RMK T01800170 IEM_DS3505
ZGNN,2002-10-30 08:00,ZGNN 300800Z AUTO 02004KT 4SM 18/17 A2997 RMK T01800170 IEM_DS3505
ZGNN,2002-10-30 09:00,ZGNN 300900Z AUTO 00000KT 9SM 18/18 A2997 RMK SLP153 T01830175 57006 IEM_DS3505
ZGNN,2002-10-30 10:00,ZGNN 301000Z AUTO 4SM 18/17 A3000 RMK T01800170 IEM_DS3505
ZGNN,2002-10-30 11:00,ZGNN 301100Z AUTO 3SM 18/17 A3000 RMK T01800170 IEM_DS3505
ZGNN,2002-10-30 12:00,ZGNN 301200Z AUTO 00000KT 4SM 18/18 A3000 RMK 60004 SLP167 T01820176 52014 IEM_DS3505
ZGNN,2002-10-30 13:00,ZGNN 301300Z AUTO 04002KT 2SM 17/17 A3003 RMK T01700170 IEM_DS3505
ZGNN,2002-10-30 14:00,ZGNN 301400Z AUTO 09002KT 2 1/2SM 17/17 A3003 RMK T01700170 IEM_DS3505
ZGNN,2002-10-30 15:00,ZGNN 301500Z AUTO 14002KT 6SM 18/17 A3003 RMK SLP178 T01750170 52010 IEM_DS3505
ZGNN,2002-10-30 16:00,ZGNN 301600Z AUTO 00000KT 2 1/2SM 17/17 A3003 RMK T01700170 IEM_DS3505
ZGNN,2002-10-30 17:00,ZGNN 301700Z AUTO 00000KT 3SM 17/17 A3003 RMK T01700170 IEM_DS3505
ZGNN,2002-10-30 18:00,ZGNN 301800Z AUTO 00000KT 6SM 18/17 A3003 RMK 60008 SLP168 T01770172 57009 IEM_DS3505
ZGNN,2002-10-30 19:00,ZGNN 301900Z AUTO 02002KT 4SM 18/17 A3003 RMK T01800170 IEM_DS3505
ZGNN,2002-10-30 20:00,ZGNN 302000Z AUTO 34002KT 7SM 18/17 A3000 RMK T01800170 IEM_DS3505
ZGNN,2002-10-30 21:00,ZGNN 302100Z AUTO 00000KT 5SM 18/17 A3000 RMK 70056 SLP168 T01760171 54000 IEM_DS3505
ZGNN,2002-10-30 22:00,ZGNN 302200Z AUTO 05002KT 4SM 18/17 A3003 RMK T01800170 IEM_DS3505
ZGNN,2002-10-30 23:00,ZGNN 302300Z AUTO 00000KT 1 1/4SM 18/17 A3003 RMK T01800170 IEM_DS3505
ZGNN,2002-10-31 00:00,ZGNN 310000Z AUTO 00000KT 3SM 18/17 A3006 RMK 70056 SLP181 T01800173 52013 IEM_DS3505
ZGNN,2002-10-31 01:00,ZGNN 310100Z AUTO 35004KT 7SM 18/17 A3006 RMK T01800170 IEM_DS3505
ZGNN,2002-10-31 02:00,ZGNN 310200Z AUTO 4SM 18/17 A3009 RMK T01800170 IEM_DS3505
ZGNN,2002-10-31 03:00,ZGNN 310300Z AUTO 07004KT 12SM 21/18 A3009 RMK SLP188 T02080176 52007 IEM_DS3505
ZGNN,2002-10-31 04:00,ZGNN 310400Z AUTO 7SM 21/17 A3006 RMK T02100170 IEM_DS3505
ZGNN,2002-10-31 05:00,ZGNN 310500Z AUTO 7SM 21/17 A3003 RMK T02100170 IEM_DS3505
ZGNN,2002-10-31 06:00,ZGNN 310600Z AUTO 36006KT 12SM 22/17 A3000 RMK SLP165 T02190172 57022 IEM_DS3505
ZGNN,2002-10-31 07:00,ZGNN 310700Z AUTO 7SM 22/17 A3000 RMK T02200170 IEM_DS3505
ZGNN,2002-10-31 08:00,ZGNN 310800Z AUTO 02006KT 7SM 22/17 A2997 RMK T02200170 IEM_DS3505
ZGNN,2002-10-31 09:00,ZGNN 310900Z AUTO 00000KT 12SM 22/18 A2997 RMK SLP157 T02210176 57008 IEM_DS3505
ZGNN,2002-10-31 10:00,ZGNN 311000Z AUTO 08002KT 4SM 21/18 A3000 RMK T02100180 IEM_DS3505
ZGNN,2002-10-31 11:00,ZGNN 311100Z AUTO 02002KT 4SM 21/18 A3000 RMK T02100180 IEM_DS3505
ZGNN,2002-10-31 12:00,ZGNN 311200Z AUTO 07002KT 12SM 21/18 A3003 RMK SLP172 T02090185 52015 IEM_DS3505
ZGNN,2002-10-31 13:00,ZGNN 311300Z AUTO 03004KT 3SM 21/17 A3006 RMK T02100170 IEM_DS3505
ZGNN,2002-10-31 14:00,ZGNN 311400Z AUTO 03002KT 3SM 20/17 A3006 RMK T02000170 IEM_DS3505
ZGNN,2002-10-31 15:00,ZGNN 311500Z AUTO 02004KT 12SM 20/17 A3006 RMK SLP183 T02050171 52011 IEM_DS3505
ZGNN,2002-10-31 16:00,ZGNN 311600Z AUTO 3SM 20/18 A3006 RMK T02000180 IEM_DS3505
ZGNN,2002-10-31 17:00,ZGNN 311700Z AUTO 00000KT 3SM 20/18 A3006 RMK T02000180 IEM_DS3505
ZGNN,2002-10-31 18:00,ZGNN 311800Z AUTO 36002KT 11SM 20/18 A3006 RMK SLP182 T01990180 57001 IEM_DS3505
ZGNN,2002-10-31 19:00,ZGNN 311900Z AUTO 34004KT 3SM 20/18 A3006 RMK T02000180 IEM_DS3505
ZGNN,2002-10-31 20:00,ZGNN 312000Z AUTO 00000KT 3SM 20/18 A3006 RMK T02000180 IEM_DS3505
ZGNN,2002-10-31 21:00,ZGNN 312100Z AUTO 00000KT 9SM 20/18 A3006 RMK 70000 SLP184 T01970183 52002 IEM_DS3505
ZGNN,2002-10-31 22:00,ZGNN 312200Z AUTO 00000KT 3SM 19/18 A3006 RMK T01900180 IEM_DS3505
ZGNN,2002-10-31 23:00,ZGNN 312300Z AUTO 01002KT 7SM 19/18 A3009 RMK T01900180 IEM_DS3505
ZGNN,2002-11-01 00:00,ZGNN 010000Z AUTO 00000KT 7SM 19/18 A3012 RMK 70000 SLP200 T01930185 52015 IEM_DS3505
ZGNN,2002-11-01 01:00,ZGNN 010100Z AUTO 7SM 20/17 A3015 RMK T02000170 IEM_DS3505
ZGNN,2002-11-01 02:00,ZGNN 010200Z AUTO 03006KT 7SM 21/17 A3015 RMK T02100170 IEM_DS3505
ZGNN,2002-11-01 03:00,ZGNN 010300Z AUTO 14004KT 7SM 22/18 A3015 RMK SLP211 T02210178 52012 IEM_DS3505
ZGNN,2002-11-01 04:00,ZGNN 010400Z AUTO 3SM 22/16 A3012 RMK T02200160 IEM_DS3505
ZGNN,2002-11-01 05:00,ZGNN 010500Z AUTO 34004KT 6SM 23/17 A3009 RMK T02300170 IEM_DS3505
ZGNN,2002-11-01 06:00,ZGNN 010600Z AUTO 34004KT 9SM 24/17 A3006 RMK SLP181 T02380172 57029 IEM_DS3505
ZGNN,2002-11-01 07:00,ZGNN 010700Z AUTO 32008KT 7SM 23/17 A3006 RMK T02300170 IEM_DS3505
ZGNN,2002-11-01 08:00,ZGNN 010800Z AUTO 35006KT 7SM 23/17 A3003 RMK T02300170 IEM_DS3505
ZGNN,2002-11-01 09:00,ZGNN 010900Z AUTO 09002KT 9SM 22/18 A3006 RMK SLP181 T02250175 57001 IEM_DS3505
ZGNN,2002-11-01 10:00,ZGNN 011000Z AUTO 05008KT 7SM 21/16 A3006 RMK T02100160 IEM_DS3505
ZGNN,2002-11-01 11:00,ZGNN 011100Z AUTO 04006KT 7SM 21/15 A3009 RMK T02100150 IEM_DS3505
ZGNN,2002-11-01 12:00,ZGNN 011200Z AUTO 04004KT 9SM 20/16 A3012 RMK SLP204 T02050157 52022 IEM_DS3505
ZGNN,2002-11-01 13:00,ZGNN 011300Z AUTO 04006KT 7SM 20/15 A3015 RMK T02000150 IEM_DS3505
ZGNN,2002-11-01 14:00,ZGNN 011400Z AUTO 03006KT 7SM 20/15 A3018 RMK T02000150 IEM_DS3505
ZGNN,2002-11-01 15:00,ZGNN 011500Z AUTO 00000KT 9SM 18/15 A3018 RMK SLP225 T01820151 52021 IEM_DS3505
ZGNN,2002-11-01 16:00,ZGNN 011600Z AUTO 04004KT 4SM 19/15 A3021 RMK T01900150 IEM_DS3505
ZGNN,2002-11-01 17:00,ZGNN 011700Z AUTO 04004KT 3SM 18/16 A3018 RMK T01800160 IEM_DS3505
ZGNN,2002-11-01 18:00,ZGNN 011800Z AUTO 02002KT 9SM 18/15 A3018 RMK SLP225 T01840154 52001 IEM_DS3505
ZGNN,2002-11-01 19:00,ZGNN 011900Z AUTO 06004KT 3SM 18/15 A3018 RMK T01800150 IEM_DS3505
ZGNN,2002-11-01 20:00,ZGNN 012000Z AUTO 34002KT 3SM 18/15 A3018 RMK T01800150 IEM_DS3505
ZGNN,2002-11-01 21:00,ZGNN 012100Z AUTO 36004KT 9SM 17/14 A3018 RMK SLP226 T01740137 54000 IEM_DS3505
ZGNN,2002-11-01 22:00,ZGNN 012200Z AUTO 34006KT 7SM 17/14 A3021 RMK T01700140 IEM_DS3505
ZGNN,2002-11-01 23:00,ZGNN 012300Z AUTO 02006KT 7SM 17/13 A3021 RMK T01700130 IEM_DS3505
ZGNN,2002-11-02 00:00,ZGNN 020000Z AUTO 36006KT 9SM 18/13 A3024 RMK SLP246 T01770131 52019 IEM_DS3505
ZGNN,2002-11-02 01:00,ZGNN 020100Z AUTO 36006KT 7SM 18/12 A3027 RMK T01800120 IEM_DS3505
ZGNN,2002-11-02 02:00,ZGNN 020200Z AUTO 01006KT 7SM 19/12 A3027 RMK T01900120 IEM_DS3505
ZGNN,2002-11-02 03:00,ZGNN 020300Z AUTO 36008KT 19SM 20/13 A3027 RMK SLP252 T02050126 52006 IEM_DS3505
ZGNN,2002-11-02 04:00,ZGNN 020400Z AUTO 36008KT 7SM 20/13 A3024 RMK T02000130 IEM_DS3505
ZGNN,2002-11-02 05:00,ZGNN 020500Z AUTO 35008KT 7SM 21/13 A3021 RMK T02100130 IEM_DS3505
ZGNN,2002-11-02 06:00,ZGNN 020600Z AUTO 34008KT 19SM 20/13 A3018 RMK SLP225 T02040131 57026 IEM_DS3505
ZGNN,2002-11-02 07:00,ZGNN 020700Z AUTO 34006KT 7SM 20/13 A3018 RMK T02000130 IEM_DS3505
ZGNN,2002-11-02 08:00,ZGNN 020800Z AUTO 34006KT 7SM 21/12 A3015 RMK T02100120 IEM_DS3505
ZGNN,2002-11-02 09:00,ZGNN 020900Z AUTO 36006KT 19SM 20/13 A3015 RMK SLP215 T02050134 57010 IEM_DS3505
ZGNN,2002-11-02 10:00,ZGNN 021000Z AUTO 32006KT 7SM 19/13 A3015 RMK T01900130 IEM_DS3505
ZGNN,2002-11-02 11:00,ZGNN 021100Z AUTO 34004KT 7SM 19/13 A3018 RMK T01900130 IEM_DS3505
ZGNN,2002-11-02 12:00,ZGNN 021200Z AUTO 36004KT 17SM 19/14 A3021 RMK SLP234 T01860141 52018 IEM_DS3505
ZGNN,2002-11-02 13:00,ZGNN 021300Z AUTO 33002KT 7SM 18/13 A3024 RMK T01800130 IEM_DS3505
ZGNN,2002-11-02 14:00,ZGNN 021400Z AUTO 32004KT 7SM 16/13 A3024 RMK T01600130 IEM_DS3505
ZGNN,2002-11-02 15:00,ZGNN 021500Z AUTO 36002KT 16SM 16/13 A3024 RMK SLP243 T01630127 52009 IEM_DS3505
ZGNN,2002-11-02 16:00,ZGNN 021600Z AUTO 13002KT 3SM 15/14 A3024 RMK T01500140 IEM_DS3505
ZGNN,2002-11-02 17:00,ZGNN 021700Z AUTO 00000KT 3SM 14/14 A3024 RMK T01400140 IEM_DS3505
ZGNN,2002-11-02 18:00,ZGNN 021800Z AUTO 00000KT 11SM 14/13 A3024 RMK SLP239 T01380129 57005 IEM_DS3505
ZGNN,2002-11-02 19:00,ZGNN 021900Z AUTO 34002KT 3SM 14/13 A3021 RMK T01400130 IEM_DS3505
ZGNN,2002-11-02 20:00,ZGNN 022000Z AUTO 00000KT 4SM 15/13 A3024 RMK T01500130 IEM_DS3505
ZGNN,2002-11-02 21:00,ZGNN 022100Z AUTO 36004KT 9SM 15/12 A3024 RMK SLP243 T01470121 52005 IEM_DS3505
ZGNN,2002-11-02 22:00,ZGNN 022200Z AUTO 4SM 14/12 A3024 RMK T01400120 IEM_DS3505
ZGNN,2002-11-02 23:00,ZGNN 022300Z AUTO 11004KT 5SM 13/12 A3027 RMK T01300120 IEM_DS3505
ZGNN,2002-11-03 00:00,ZGNN 030000Z AUTO 34002KT 9SM 14/12 A3030 RMK SLP266 T01410125 52022 IEM_DS3505
ZGNN,2002-11-03 01:00,ZGNN 030100Z AUTO 36006KT 6SM 17/12 A3033 RMK T01700120 IEM_DS3505
ZGNN,2002-11-03 02:00,ZGNN 030200Z AUTO 36006KT 6SM 19/12 A3036 RMK T01900120 IEM_DS3505
ZGNN,2002-11-03 03:00,ZGNN 030300Z AUTO 34010KT 7SM 20/10 A3033 RMK SLP277 T02020100 52011 IEM_DS3505
ZGNN,2002-11-03 04:00,ZGNN 030400Z AUTO 34008KT 6SM 21/11 A3033 RMK T02100110 IEM_DS3505
ZGNN,2002-11-03 05:00,ZGNN 030500Z AUTO 34010KT 6SM 21/11 A3030 RMK T02100110 IEM_DS3505
ZGNN,2002-11-03 06:00,ZGNN 030600Z AUTO 36008KT 7SM 21/11 A3027 RMK SLP255 T02090109 57022 IEM_DS3505
ZGNN,2002-11-03 07:00,ZGNN 030700Z AUTO 33010KT 6SM 20/10 A3024 RMK T02000100 IEM_DS3505
ZGNN,2002-11-03 08:00,ZGNN 030800Z AUTO 6SM 20/10 A3024 RMK T02000100 IEM_DS3505
ZGNN,2002-11-03 09:00,ZGNN 030900Z AUTO 36002KT 7SM 21/11 A3024 RMK SLP245 T02070107 57009 IEM_DS3505
ZGNN,2002-11-03 10:00,ZGNN 031000Z AUTO 31002KT 6SM 20/11 A3024 RMK T02000110 IEM_DS3505
ZGNN,2002-11-03 11:00,ZGNN 031100Z AUTO 35004KT 6SM 19/10 A3027 RMK T01900100 IEM_DS3505
ZGNN,2002-11-03 12:00,ZGNN 031200Z AUTO 34006KT 7SM 19/09 A3030 RMK SLP263 T01880094 52017 IEM_DS3505
ZGNN,2002-11-03 13:00,ZGNN 031300Z AUTO 35004KT 6SM 19/08 A3030 RMK T01900080 IEM_DS3505
ZGNN,2002-11-03 14:00,ZGNN 031400Z AUTO 33004KT 6SM 17/09 A3033 RMK T01700090 IEM_DS3505
ZGNN,2002-11-03 15:00,ZGNN 031500Z AUTO 34008KT 7SM 17/09 A3033 RMK SLP271 T01740094 52009 IEM_DS3505
ZGNN,2002-11-03 16:00,ZGNN 031600Z AUTO 6SM 17/09 A3033 RMK T01700090 IEM_DS3505
ZGNN,2002-11-03 17:00,ZGNN 031700Z AUTO 00000KT 6SM 16/09 A3030 RMK T01600090 IEM_DS3505
ZGNN,2002-11-03 18:00,ZGNN 031800Z AUTO 36006KT 7SM 16/09 A3027 RMK SLP256 T01610089 57015 IEM_DS3505
ZGNN,2002-11-03 19:00,ZGNN 031900Z AUTO 17002KT 6SM 13/11 A3027 RMK T01300110 IEM_DS3505
ZGNN,2002-11-03 20:00,ZGNN 032000Z AUTO 6SM 12/11 A3027 RMK T01200110 IEM_DS3505
ZGNN,2002-11-03 21:00,ZGNN 032100Z AUTO 00000KT 6SM 12/10 A3027 RMK SLP250 T01190104 57007 IEM_DS3505
ZGNN,2002-11-03 22:00,ZGNN 032200Z AUTO 21002KT 6SM 12/10 A3027 RMK T01200100 IEM_DS3505
ZGNN,2002-11-03 23:00,ZGNN 032300Z AUTO 00000KT 6SM 11/11 A3027 RMK T01100110 IEM_DS3505
ZGNN,2002-11-04 00:00,ZGNN 040000Z 00000MPS CAVOK 13/12 Q1026 NOSIG
ZGNN,2002-11-04 01:00,ZGNN 040100Z AUTO 19002KT 6SM 15/13 A3030 RMK T01500130 IEM_DS3505
ZGNN,2002-11-04 02:00,ZGNN 040200Z AUTO 01006KT 6SM 20/09 A3033 RMK T02000090 IEM_DS3505
ZGNN,2002-11-04 03:00,ZGNN 040300Z AUTO 34006KT 6SM 20/10 A3030 RMK SLP268 T01980095 52005 IEM_DS3505
ZGNN,2002-11-04 04:00,ZGNN 040400Z AUTO 34006KT 6SM 22/07 A3027 RMK T02200070 IEM_DS3505
ZGNN,2002-11-04 05:00,ZGNN 040500Z AUTO 04008KT 6SM 22/07 A3024 RMK T02200070 IEM_DS3505
ZGNN,2002-11-04 06:00,ZGNN 040600Z AUTO 02006KT 7SM 23/06 A3021 RMK SLP232 T02330056 57035 IEM_DS3505
ZGNN,2002-11-04 07:00,ZGNN 040700Z AUTO 04010KT 6SM 24/01 A3018 RMK T02400010 IEM_DS3505
ZGNN,2002-11-04 08:00,ZGNN 040800Z AUTO 02008KT 6SM 24/05 A3015 RMK T02400050 IEM_DS3505
ZGNN,2002-11-04 09:00,ZGNN 040900Z AUTO 36006KT 7SM 23/06 A3015 RMK SLP216 T02280056 57017 IEM_DS3505
ZGNN,2002-11-04 10:00,ZGNN 041000Z AUTO 34002KT 6SM 21/07 A3018 RMK T02100070 IEM_DS3505
ZGNN,2002-11-04 11:00,ZGNN 041100Z AUTO 6SM 18/10 A3018 RMK T01800100 IEM_DS3505
ZGNN,2002-11-04 12:00,ZGNN 041200Z AUTO 00000KT 9SM 15/13 A3021 RMK SLP238 T01530132 52020 IEM_DS3505
ZGNN,2002-11-04 13:00,ZGNN 041300Z AUTO 00000KT 6SM 16/14 A3024 RMK T01600140 IEM_DS3505
ZGNN,2002-11-04 14:00,ZGNN 041400Z AUTO 35002KT 6SM 15/12 A3024 RMK T01500120 IEM_DS3505
ZGNN,2002-11-04 15:00,ZGNN 041500Z AUTO 00000KT 7SM 12/11 A3024 RMK SLP241 T01230106 52004 IEM_DS3505
ZGNN,2002-11-04 16:00,ZGNN 041600Z AUTO 00000KT 6SM 13/12 A3024 RMK T01300120 IEM_DS3505
ZGNN,2002-11-04 17:00,ZGNN 041700Z AUTO 00000KT 6SM 13/10 A3021 RMK T01300100 IEM_DS3505
ZGNN,2002-11-04 18:00,ZGNN 041800Z AUTO 00000KT 7SM 11/11 A3021 RMK SLP230 T01140106 57010 IEM_DS3505
ZGNN,2002-11-04 19:00,ZGNN 041900Z AUTO 20002KT 3SM 13/13 A3018 RMK T01300130 IEM_DS3505
ZGNN,2002-11-04 20:00,ZGNN 042000Z AUTO 25002KT 3SM 14/13 A3018 RMK T01400130 IEM_DS3505
ZGNN,2002-11-04 21:00,ZGNN 042100Z AUTO 00000KT 6SM 13/12 A3018 RMK SLP221 T01300117 57009 IEM_DS3505
ZGNN,2002-11-04 22:00,ZGNN 042200Z AUTO 00000KT 6SM 13/11 A3018 RMK T01300110 IEM_DS3505
ZGNN,2002-11-04 23:00,ZGNN 042300Z AUTO 33002KT 6SM 13/11 A3018 RMK T01300110 IEM_DS3505
ZGNN,2002-11-05 00:00,ZGNN 050000Z AUTO 00000KT 4SM 12/11 A3021 RMK SLP234 T01210110 52011 IEM_DS3505
ZGNN,2002-11-05 01:00,ZGNN 050100Z AUTO 6SM 16/12 A3021 RMK T01600120 IEM_DS3505
ZGNN,2002-11-05 02:00,ZGNN 050200Z AUTO 00000KT 6SM 19/12 A3021 RMK T01900120 IEM_DS3505
ZGNN,2002-11-05 03:00,ZGNN 050300Z AUTO 09004KT 7SM 22/10 A3021 RMK SLP230 T02180101 57003 IEM_DS3505
ZGNN,2002-11-05 04:00,ZGNN 050400Z AUTO 6SM 23/05 A3018 RMK T02300050 IEM_DS3505
ZGNN,2002-11-05 05:00,ZGNN 050500Z AUTO 07006KT 6SM 23/04 A3015 RMK T02300040 IEM_DS3505
ZGNN,2002-11-05 06:00,ZGNN 050600Z AUTO 02004KT 9SM 24/08 A3009 RMK SLP196 T02400076 57033 IEM_DS3505
ZGNN,2002-11-05 07:00,ZGNN 050700Z AUTO 6SM 24/04 A3009 RMK T02400040 IEM_DS3505
ZGNN,2002-11-05 08:00,ZGNN 050800Z AUTO 6SM 24/03 A3006 RMK T02400030 IEM_DS3505
ZGNN,2002-11-05 09:00,ZGNN 050900Z AUTO 09002KT 9SM 24/07 A3006 RMK SLP178 T02400071 57017 IEM_DS3505
ZGNN,2002-11-05 10:00,ZGNN 051000Z AUTO 13002KT 6SM 21/09 A3006 RMK T02100090 IEM_DS3505
ZGNN,2002-11-05 11:00,ZGNN 051100Z AUTO 18/11 A3006 RMK T01800110 IEM_DS3505
ZGNN,2002-11-05 12:00,ZGNN 051200Z AUTO 00000KT 7SM 16/12 A3009 RMK SLP198 T01570124 52017 IEM_DS3505
ZGNN,2002-11-05 13:00,ZGNN 051300Z AUTO 34002KT 6SM 16/11 A3012 RMK T01600110 IEM_DS3505
ZGNN,2002-11-05 14:00,ZGNN 051400Z AUTO 00000KT 6SM 14/13 A3012 RMK T01400130 IEM_DS3505
ZGNN,2002-11-05 15:00,ZGNN 051500Z AUTO 00000KT 6SM 13/11 A3012 RMK SLP204 T01270110 52008 IEM_DS3505
ZGNN,2002-11-05 16:00,ZGNN 051600Z AUTO 00000KT 5SM 13/12 A3012 RMK T01300120 IEM_DS3505
ZGNN,2002-11-05 17:00,ZGNN 051700Z AUTO 00000KT 4SM 12/10 A3012 RMK T01200100 IEM_DS3505
ZGNN,2002-11-05 18:00,ZGNN 051800Z AUTO 00000KT 6SM 11/10 A3009 RMK SLP198 T01120096 57006 IEM_DS3505
ZGNN,2002-11-05 19:00,ZGNN 051900Z AUTO 00000KT 4SM 12/10 A3009 RMK T01200100 IEM_DS3505
ZGNN,2002-11-05 20:00,ZGNN 052000Z AUTO 09002KT 4SM 11/10 A3009 RMK T01100100 IEM_DS3505
ZGNN,2002-11-05 21:00,ZGNN 052100Z AUTO 00000KT 6SM 10/09 A3009 RMK SLP194 T01000090 57004 IEM_DS3505
ZGNN,2002-11-05 22:00,ZGNN 052200Z AUTO 00000KT 6SM 11/10 A3009 RMK T01100100 IEM_DS3505
ZGNN,2002-11-05 23:00,ZGNN 052300Z AUTO 00000KT 6SM 10/09 A3012 RMK T01000090 IEM_DS3505
ZGNN,2002-11-06 00:00,ZGNN 060000Z AUTO 00000KT 7SM 11/10 A3015 RMK SLP211 T01060098 52015 IEM_DS3505
ZGNN,2002-11-06 01:00,ZGNN 060100Z AUTO 00000KT 6SM 15/11 A3015 RMK T01500110 IEM_DS3505
ZGNN,2002-11-06 02:00,ZGNN 060200Z AUTO 6SM 19/10 A3018 RMK T01900100 IEM_DS3505
ZGNN,2002-11-06 03:00,ZGNN 060300Z AUTO 32004KT 9SM 22/11 A3018 RMK SLP218 T02180112 52009 IEM_DS3505
ZGNN,2002-11-06 04:00,ZGNN 060400Z AUTO 6SM 23/10 A3015 RMK T02300100 IEM_DS3505
ZGNN,2002-11-06 05:00,ZGNN 060500Z AUTO 6SM 24/09 A3009 RMK T02400090 IEM_DS3505
ZGNN,2002-11-06 06:00,ZGNN 060600Z AUTO 07004KT 11SM 25/12 A3006 RMK SLP182 T02510119 57035 IEM_DS3505
ZGNN,2002-11-06 07:00,ZGNN 060700Z AUTO 6SM 25/09 A3003 RMK T02500090 IEM_DS3505
ZGNN,2002-11-06 08:00,ZGNN 060800Z AUTO 6SM 25/09 A3003 RMK T02500090 IEM_DS3505
ZGNN,2002-11-06 09:00,ZGNN 060900Z AUTO 00000KT 12SM 25/11 A3003 RMK SLP170 T02500111 57012 IEM_DS3505
ZGNN,2002-11-06 10:00,ZGNN 061000Z AUTO 6SM 22/12 A3003 RMK T02200120 IEM_DS3505
ZGNN,2002-11-06 11:00,ZGNN 061100Z AUTO 01002KT 6SM 20/14 A3006 RMK T02000140 IEM_DS3505
ZGNN,2002-11-06 12:00,ZGNN 061200Z AUTO 00000KT 12SM 16/13 A3006 RMK SLP190 T01650131 52017 IEM_DS3505
ZGNN,2002-11-06 13:00,ZGNN 061300Z AUTO 34002KT 6SM 16/13 A3009 RMK T01600130 IEM_DS3505
ZGNN,2002-11-06 14:00,ZGNN 061400Z AUTO 6SM 15/13 A3009 RMK T01500130 IEM_DS3505
ZGNN,2002-11-06 15:00,ZGNN 061500Z AUTO 00000KT 9SM 14/12 A3012 RMK SLP200 T01380121 52012 IEM_DS3505
ZGNN,2002-11-06 16:00,ZGNN 061600Z AUTO 00000KT 6SM 14/13 A3012 RMK T01400130 IEM_DS3505
ZGNN,2002-11-06 17:00,ZGNN 061700Z AUTO 00000KT 2 1/2SM 14/13 A3012 RMK T01400130 IEM_DS3505
ZGNN,2002-11-06 18:00,ZGNN 061800Z AUTO 00000KT 9SM 12/11 A3012 RMK SLP198 T01230112 57001 IEM_DS3505
ZGNN,2002-11-06 19:00,ZGNN 061900Z AUTO 00000KT 1 1/2SM 13/12 A3009 RMK T01300120 IEM_DS3505
ZGNN,2002-11-06 20:00,ZGNN 062000Z AUTO 19004KT 2SM 12/12 A3009 RMK T01200120 IEM_DS3505
ZGNN,2002-11-06 21:00,ZGNN 062100Z AUTO 22002KT 5SM 12/11 A3009 RMK SLP196 T01180110 57002 IEM_DS3505
ZGNN,2002-11-06 22:00,ZGNN 062200Z AUTO 00000KT 2SM 12/12 A3012 RMK T01200120 IEM_DS3505
ZGNN,2002-11-06 23:00,ZGNN 062300Z AUTO 00000KT 2SM 12/12 A3012 RMK T01200120 IEM_DS3505
ZGNN,2002-11-07 00:00,ZGNN 070000Z AUTO 00000KT 4SM 12/12 A3015 RMK SLP218 T01190115 52019 IEM_DS3505
ZGNN,2002-11-07 01:00,ZGNN 070100Z AUTO 00000KT 5SM 16/14 A3018 RMK T01600140 IEM_DS3505
ZGNN,2002-11-07 02:00,ZGNN 070200Z AUTO 6SM 20/14 A3018 RMK T02000140 IEM_DS3505
ZGNN,2002-11-07 03:00,ZGNN 070300Z AUTO 32004KT 12SM 22/11 A3018 RMK SLP223 T02250108 52007 IEM_DS3505
ZGNN,2002-11-07 04:00,ZGNN 070400Z AUTO 03006KT 6SM 25/08 A3015 RMK T02500080 IEM_DS3505
ZGNN,2002-11-07 05:00,ZGNN 070500Z AUTO 6SM 26/06 A3012 RMK T02600060 IEM_DS3505
ZGNN,2002-11-07 06:00,ZGNN 070600Z AUTO 04002KT 19SM 26/10 A3009 RMK SLP189 T02620097 57033 IEM_DS3505
ZGNN,2002-11-07 07:00,ZGNN 070700Z AUTO 35006KT 6SM 27/06 A3006 RMK T02700060 IEM_DS3505
ZGNN,2002-11-07 08:00,ZGNN 070800Z AUTO 34006KT 6SM 27/07 A3003 RMK T02700070 IEM_DS3505
ZGNN,2002-11-07 09:00,ZGNN 070900Z AUTO 36002KT 19SM 26/11 A3003 RMK SLP176 T02650109 57013 IEM_DS3505
ZGNN,2002-11-07 10:00,ZGNN 071000Z AUTO 00000KT 6SM 24/14 A3003 RMK T02400140 IEM_DS3505
ZGNN,2002-11-07 11:00,ZGNN 071100Z AUTO 6SM 20/14 A3006 RMK T02000140 IEM_DS3505
ZGNN,2002-11-07 12:00,ZGNN 071200Z AUTO 00000KT 16SM 17/14 A3009 RMK SLP194 T01710138 52016 IEM_DS3505
ZGNN,2002-11-07 13:00,ZGNN 071300Z AUTO 00000KT 4SM 16/14 A3009 RMK T01600140 IEM_DS3505
ZGNN,2002-11-07 14:00,ZGNN 071400Z AUTO 00000KT 4SM 16/14 A3012 RMK T01600140 IEM_DS3505
ZGNN,2002-11-07 15:00,ZGNN 071500Z AUTO 00000KT 12SM 14/12 A3012 RMK SLP204 T01390124 52011 IEM_DS3505
ZGNN,2002-11-07 16:00,ZGNN 071600Z AUTO 25004KT 4SM 14/13 A3012 RMK T01400130 IEM_DS3505
ZGNN,2002-11-07 17:00,ZGNN 071700Z AUTO 34002KT 4SM 14/12 A3009 RMK T01400120 IEM_DS3505
ZGNN,2002-11-07 18:00,ZGNN 071800Z AUTO 00000KT 7SM 12/12 A3009 RMK SLP198 T01240118 57005 IEM_DS3505
ZGNN,2002-11-07 19:00,ZGNN 071900Z AUTO 1 1/4SM 13/13 A3009 RMK T01300130 IEM_DS3505
ZGNN,2002-11-07 20:00,ZGNN 072000Z AUTO 00000KT 2 1/2SM 13/12 A3009 RMK T01300120 IEM_DS3505
ZGNN,2002-11-07 21:00,ZGNN 072100Z AUTO 00000KT 7SM 12/11 A3009 RMK SLP196 T01160110 57002 IEM_DS3505
ZGNN,2002-11-07 22:00,ZGNN 072200Z AUTO 23002KT 2 1/2SM 12/12 A3009 RMK T01200120 IEM_DS3505
ZGNN,2002-11-07 23:00,ZGNN 072300Z AUTO 00000KT 5SM 12/11 A3012 RMK T01200110 IEM_DS3505
ZGNN,2002-11-08 00:00,ZGNN 080000Z AUTO 00000KT 5SM 12/12 A3015 RMK SLP218 T01200118 52019 IEM_DS3505
ZGNN,2002-11-08 01:00,ZGNN 080100Z AUTO 2 1/2SM 16/14 A3018 RMK T01600140 IEM_DS3505
ZGNN,2002-11-08 02:00,ZGNN 080200Z AUTO 6SM 20/15 A3018 RMK T02000150 IEM_DS3505
ZGNN,2002-11-08 03:00,ZGNN 080300Z AUTO 02004KT 12SM 24/14 A3018 RMK SLP220 T02390137 52005 IEM_DS3505
ZGNN,2002-11-08 04:00,ZGNN 080400Z AUTO 6SM 26/10 A3015 RMK T02600100 IEM_DS3505
ZGNN,2002-11-08 05:00,ZGNN 080500Z AUTO 6SM 27/10 A3012 RMK T02700100 IEM_DS3505
ZGNN,2002-11-08 06:00,ZGNN 080600Z AUTO 34002KT 16SM 27/12 A3009 RMK SLP189 T02710122 57031 IEM_DS3505
ZGNN,2002-11-08 07:00,ZGNN 080700Z AUTO 6SM 28/09 A3006 RMK T02800090 IEM_DS3505
ZGNN,2002-11-08 08:00,ZGNN 080800Z AUTO 03006KT 6SM 28/09 A3003 RMK T02800090 IEM_DS3505
ZGNN,2002-11-08 09:00,ZGNN 080900Z AUTO 36002KT 12SM 27/14 A3003 RMK SLP176 T02730138 57013 IEM_DS3505
ZGNN,2002-11-08 10:00,ZGNN 081000Z AUTO 34002KT 6SM 25/15 A3006 RMK T02500150 IEM_DS3505
ZGNN,2002-11-08 11:00,ZGNN 081100Z AUTO 00000KT 6SM 22/15 A3006 RMK T02200150 IEM_DS3505
ZGNN,2002-11-08 12:00,ZGNN 081200Z AUTO 00000KT 11SM 18/15 A3009 RMK SLP197 T01780151 52019 IEM_DS3505
ZGNN,2002-11-08 13:00,ZGNN 081300Z AUTO 00000KT 6SM 17/15 A3012 RMK T01700150 IEM_DS3505
ZGNN,2002-11-08 14:00,ZGNN 081400Z AUTO 00000KT 6SM 16/13 A3012 RMK T01600130 IEM_DS3505
ZGNN,2002-11-08 15:00,ZGNN 081500Z AUTO 00000KT 9SM 14/13 A3012 RMK SLP207 T01430129 52012 IEM_DS3505
ZGNN,2002-11-08 16:00,ZGNN 081600Z AUTO 00000KT 3SM 14/13 A3012 RMK T01400130 IEM_DS3505
ZGNN,2002-11-08 17:00,ZGNN 081700Z AUTO 00000KT 3SM 14/12 A3012 RMK T01400120 IEM_DS3505
ZGNN,2002-11-08 18:00,ZGNN 081800Z AUTO 00000KT 7SM 13/12 A3012 RMK SLP202 T01270120 57005 IEM_DS3505
ZGNN,2002-11-08 19:00,ZGNN 081900Z AUTO 00000KT 2 1/2SM 14/13 A3012 RMK T01400130 IEM_DS3505
ZGNN,2002-11-08 20:00,ZGNN 082000Z AUTO 00000KT 2 1/2SM 13/13 A3012 RMK T01300130 IEM_DS3505
ZGNN,2002-11-08 21:00,ZGNN 082100Z AUTO 00000KT 6SM 12/11 A3012 RMK SLP203 T01150107 52001 IEM_DS3505
ZGNN,2002-11-08 23:00,ZGNN 082300Z AUTO 00000KT 4SM 12/12 A3015 RMK T01200120 IEM_DS3505
ZGNN,2002-11-09 00:00,ZGNN 090000Z AUTO 00000KT 5SM 11/11 A3015 RMK SLP221 T01120108 52015 IEM_DS3505
ZGNN,2002-11-09 01:00,ZGNN 090100Z AUTO 2 1/2SM 16/15 A3018 RMK T01600150 IEM_DS3505
ZGNN,2002-11-09 02:00,ZGNN 090200Z AUTO 00000KT 2 1/2SM 20/15 RMK T02000150 IEM_DS3505
ZGNN,2002-11-09 03:00,ZGNN 090300Z AUTO 14004KT 7SM 23/14 A3018 RMK SLP217 T02300138 57002 IEM_DS3505
ZGNN,2002-11-09 04:00,ZGNN 090400Z AUTO 08008KT 6SM 24/10 A3012 RMK T02400100 IEM_DS3505
ZGNN,2002-11-09 05:00,ZGNN 090500Z AUTO 6SM 26/11 A3009 RMK T02600110 IEM_DS3505
ZGNN,2002-11-09 06:00,ZGNN 090600Z AUTO 14004KT 14SM 26/11 A3006 RMK SLP179 T02630111 57037 IEM_DS3505
ZGNN,2002-11-09 07:00,ZGNN 090700Z AUTO 6SM 27/09 A3003 RMK T02700090 IEM_DS3505
ZGNN,2002-11-09 08:00,ZGNN 090800Z AUTO 6SM 27/09 A3000 RMK T02700090 IEM_DS3505
ZGNN,2002-11-09 09:00,ZGNN 090900Z AUTO 18004KT 16SM 27/12 A3000 RMK SLP163 T02670123 57016 IEM_DS3505
ZGNN,2002-11-09 10:00,ZGNN 091000Z AUTO 15004KT 6SM 24/12 A3000 RMK T02400120 IEM_DS3505
ZGNN,2002-11-09 11:00,ZGNN 091100Z AUTO 15004KT 6SM 22/12 A3000 RMK T02200120 IEM_DS3505
ZGNN,2002-11-09 12:00,ZGNN 091200Z AUTO 00000KT 10SM 18/15 A3000 RMK SLP171 T01790150 52006 IEM_DS3505
ZGNN,2002-11-09 13:00,ZGNN 091300Z AUTO 6SM 17/14 A3003 RMK T01700140 IEM_DS3505
ZGNN,2002-11-09 14:00,ZGNN 091400Z AUTO 00000KT 6SM 17/14 A3003 RMK T01700140 IEM_DS3505
ZGNN,2002-11-09 15:00,ZGNN 091500Z AUTO 00000KT 8SM 16/14 A3006 RMK SLP182 T01620145 52013 IEM_DS3505
ZGNN,2002-11-09 16:00,ZGNN 091600Z AUTO 31002KT 4SM 17/14 A3006 RMK T01700140 IEM_DS3505
ZGNN,2002-11-09 17:00,ZGNN 091700Z AUTO 33002KT 3SM 16/14 A3003 RMK T01600140 IEM_DS3505
ZGNN,2002-11-09 18:00,ZGNN 091800Z AUTO 00000KT 7SM 15/14 A3003 RMK SLP174 T01530143 57007 IEM_DS3505
ZGNN,2002-11-09 19:00,ZGNN 091900Z AUTO 34002KT 2SM 16/15 A3003 RMK T01600150 IEM_DS3505
ZGNN,2002-11-09 20:00,ZGNN 092000Z AUTO 01002KT 2SM 17/16 A3003 RMK T01700160 IEM_DS3505
ZGNN,2002-11-09 21:00,ZGNN 092100Z AUTO 00000KT 7SM 17/16 A3000 RMK SLP165 T01670162 57008 IEM_DS3505
ZGNN,2002-11-09 22:00,ZGNN 092200Z AUTO 31002KT 4SM 16/16 A3000 RMK T01600160 IEM_DS3505
ZGNN,2002-11-09 23:00,ZGNN 092300Z AUTO 00000KT 1 1/4SM 16/15 A3003 RMK T01600150 IEM_DS3505
ZGNN,2002-11-10 00:00,ZGNN 100000Z AUTO 00000KT 4SM 19/18 A3006 RMK SLP182 T01870182 52015 IEM_DS3505
ZGNN,2002-11-10 01:00,ZGNN 100100Z AUTO 1 1/4SM 20/18 A3006 RMK T02000180 IEM_DS3505
ZGNN,2002-11-10 02:00,ZGNN 100200Z AUTO 2 1/2SM 21/20 A3009 RMK T02100200 IEM_DS3505
ZGNN,2002-11-10 03:00,ZGNN 100300Z AUTO 11002KT 5SM 23/19 A3006 RMK SLP185 T02300193 52003 IEM_DS3505
ZGNN,2002-11-10 04:00,ZGNN 100400Z AUTO 14006KT 7SM 24/19 A3003 RMK T02400190 IEM_DS3505
ZGNN,2002-11-10 05:00,ZGNN 100500Z AUTO 7SM 26/18 A3000 RMK T02600180 IEM_DS3505
ZGNN,2002-11-10 06:00,ZGNN 100600Z AUTO 22004KT 6SM 26/19 A2997 RMK SLP151 T02590186 57033 IEM_DS3505
ZGNN,2002-11-10 07:00,ZGNN 100700Z AUTO 14006KT 7SM 26/18 A2994 RMK T02600180 IEM_DS3505
ZGNN,2002-11-10 08:00,ZGNN 100800Z AUTO 15008KT 7SM 26/19 A2994 RMK T02600190 IEM_DS3505
ZGNN,2002-11-10 09:00,ZGNN 100900Z AUTO 18004KT 8SM 26/19 A2994 RMK SLP141 T02590193 57009 IEM_DS3505
ZGNN,2002-11-10 10:00,ZGNN 101000Z AUTO 14004KT 7SM 24/19 A2994 RMK T02400190 IEM_DS3505
ZGNN,2002-11-10 11:00,ZGNN 101100Z AUTO 5SM 23/19 A2994 RMK T02300190 IEM_DS3505
ZGNN,2002-11-10 12:00,ZGNN 101200Z AUTO 22004KT 9SM 22/20 A2994 RMK SLP147 T02250199 52005 IEM_DS3505
ZGNN,2002-11-10 14:00,ZGNN 101400Z AUTO 17004KT 3SM 21/20 A3000 RMK T02100200 IEM_DS3505
ZGNN,2002-11-10 15:00,ZGNN 101500Z AUTO 2 1/2SM 21/20 A3000 RMK T02100200 IEM_DS3505
ZGNN,2002-11-10 16:00,ZGNN 101600Z AUTO 2SM 21/20 A3000 RMK T02100200 IEM_DS3505
ZGNN,2002-11-10 17:00,ZGNN 101700Z AUTO 2 1/2SM 22/20 A3000 RMK T02200200 IEM_DS3505
ZGNN,2002-11-10 18:00,ZGNN 101800Z AUTO 14002KT 7SM 22/20 A3000 RMK SLP158 T02210203 57004 IEM_DS3505
ZGNN,2002-11-10 19:00,ZGNN 101900Z AUTO 2 1/2SM 22/20 A3000 RMK T02200200 IEM_DS3505
ZGNN,2002-11-10 20:00,ZGNN 102000Z AUTO 2SM 22/20 A3000 RMK T02200200 IEM_DS3505
ZGNN,2002-11-10 21:00,ZGNN 102100Z AUTO 14002KT 7SM 22/20 A3000 RMK SLP157 T02210203 57001 IEM_DS3505
ZGNN,2002-11-10 22:00,ZGNN 102200Z AUTO 04002KT 2SM 21/20 A3000 RMK T02100200 IEM_DS3505
ZGNN,2002-11-10 23:00,ZGNN 102300Z AUTO 05002KT 2SM 21/20 A3000 RMK T02100200 IEM_DS3505
ZGNN,2002-11-11 00:00,ZGNN 110000Z AUTO 00000KT 2SM 21/21 A3003 RMK 60004 70004 SLP169 T02130208 52011 IEM_DS3505
ZGNN,2002-11-11 01:00,ZGNN 110100Z AUTO 35004KT 1SM 21/20 A3003 RMK T02100200 IEM_DS3505
ZGNN,2002-11-11 02:00,ZGNN 110200Z AUTO 2 1/2SM 22/21 A3006 RMK T02200210 IEM_DS3505
ZGNN,2002-11-11 03:00,ZGNN 110300Z AUTO 00000KT 2SM 23/21 A3006 RMK SLP176 T02280211 52007 IEM_DS3505
ZGNN,2002-11-11 04:00,ZGNN 110400Z AUTO 4SM 23/21 A3003 RMK T02300210 IEM_DS3505
ZGNN,2002-11-11 05:00,ZGNN 110500Z AUTO 5SM 25/21 A3000 RMK T02500210 IEM_DS3505
ZGNN,2002-11-11 06:00,ZGNN 110600Z AUTO 14004KT 7SM 26/22 A2997 RMK 60008 SLP145 T02630217 57030 IEM_DS3505
ZGNN,2002-11-11 07:00,ZGNN 110700Z AUTO 7SM 27/20 A2994 RMK T02700200 IEM_DS3505
ZGNN,2002-11-11 08:00,ZGNN 110800Z AUTO 14004KT 7SM 27/20 A2994 RMK T02700200 IEM_DS3505
ZGNN,2002-11-11 09:00,ZGNN 110900Z AUTO 16002KT 11SM 27/21 A2994 RMK SLP137 T02730207 57007 IEM_DS3505
ZGNN,2002-11-11 10:00,ZGNN 111000Z AUTO 15006KT 6SM 25/20 A2994 RMK T02500200 IEM_DS3505
ZGNN,2002-11-11 11:00,ZGNN 111100Z AUTO 15002KT 6SM 24/21 A2994 RMK T02400210 IEM_DS3505
ZGNN,2002-11-11 12:00,ZGNN 111200Z AUTO 00000KT 9SM 24/21 A2997 RMK SLP152 T02350209 52013 IEM_DS3505
ZGNN,2002-11-11 13:00,ZGNN 111300Z AUTO 02002KT 6SM 22/20 A2997 RMK T02200200 IEM_DS3505
ZGNN,2002-11-11 14:00,ZGNN 111400Z AUTO 6SM 22/21 A3000 RMK T02200210 IEM_DS3505
ZGNN,2002-11-11 15:00,ZGNN 111500Z AUTO 00000KT 9SM 20/20 A3000 RMK SLP164 T02020196 52012 IEM_DS3505
ZGNN,2002-11-11 16:00,ZGNN 111600Z AUTO 00000KT 2 1/2SM 21/20 A3000 RMK T02100200 IEM_DS3505
ZGNN,2002-11-11 17:00,ZGNN 111700Z AUTO 2 1/2SM 20/20 A3000 RMK T02000200 IEM_DS3505
ZGNN,2002-11-11 18:00,ZGNN 111800Z AUTO 00000KT 9SM 20/20 RMK SLP161 T02050202 57002 IEM_DS3505
ZGNN,2002-11-11 19:00,ZGNN 111900Z AUTO 36002KT 2 1/2SM 21/21 A3000 RMK T02100210 IEM_DS3505
ZGNN,2002-11-11 20:00,ZGNN 112000Z AUTO 00000KT 2 1/2SM 21/21 A3000 RMK T02100210 IEM_DS3505
ZGNN,2002-11-11 21:00,ZGNN 112100Z AUTO 00000KT 7SM 22/21 A3000 RMK 70012 SLP155 T02190211 57006 IEM_DS3505
ZGNN,2002-11-11 22:00,ZGNN 112200Z AUTO 03004KT 2 1/2SM 21/21 A3000 RMK T02100210 IEM_DS3505
ZGNN,2002-11-11 23:00,ZGNN 112300Z AUTO 05002KT 1 1/4SM 21/21 A3000 RMK T02100210 IEM_DS3505
ZGNN,2002-11-12 00:00,ZGNN 120000Z AUTO 00000KT 2 1/2SM 22/21 A3003 RMK 70008 SLP169 T02180213 52013 IEM_DS3505
ZGNN,2002-11-12 01:00,ZGNN 120100Z AUTO 04004KT 1 1/2SM 23/22 A3003 RMK T02300220 IEM_DS3505
ZGNN,2002-11-12 02:00,ZGNN 120200Z AUTO 2SM 24/22 A3006 RMK T02400220 IEM_DS3505
ZGNN,2002-11-12 03:00,ZGNN 120300Z AUTO 20002KT 5SM 26/22 A3006 RMK SLP176 T02600220 52007 IEM_DS3505
ZGNN,2002-11-12 04:00,ZGNN 120400Z AUTO 13006KT 7SM 27/22 A3003 RMK T02700220 IEM_DS3505
ZGNN,2002-11-12 05:00,ZGNN 120500Z AUTO 7SM 28/21 A2997 RMK T02800210 IEM_DS3505
ZGNN,2002-11-12 06:00,ZGNN 120600Z AUTO 14004KT 19SM 28/22 A2994 RMK SLP140 T02850219 57035 IEM_DS3505
ZGNN,2002-11-12 07:00,ZGNN 120700Z AUTO 16006KT 7SM 28/21 A2991 RMK T02800210 IEM_DS3505
ZGNN,2002-11-12 08:00,ZGNN 120800Z AUTO 15008KT 7SM 28/21 A2991 RMK T02800210 IEM_DS3505
ZGNN,2002-11-12 09:00,ZGNN 120900Z AUTO 18002KT 19SM 27/22 A2988 RMK SLP123 T02700217 57016 IEM_DS3505
ZGNN,2002-11-12 10:00,ZGNN 121000Z AUTO 16004KT 6SM 26/21 A2988 RMK T02600210 IEM_DS3505
ZGNN,2002-11-12 11:00,ZGNN 121100Z AUTO 17004KT 6SM 25/22 A2991 RMK T02500220 IEM_DS3505
ZGNN,2002-11-12 12:00,ZGNN 121200Z AUTO 00000KT 11SM 24/22 A2991 RMK SLP138 T02440222 52014 IEM_DS3505
ZGNN,2002-11-12 13:00,ZGNN 121300Z AUTO 11002KT 6SM 23/22 A2994 RMK T02300220 IEM_DS3505
ZGNN,2002-11-12 14:00,ZGNN 121400Z AUTO 12004KT 6SM 23/22 A2994 RMK T02300220 IEM_DS3505
ZGNN,2002-11-12 15:00,ZGNN 121500Z AUTO 00000KT 11SM 24/22 A2994 RMK SLP143 T02380222 52006 IEM_DS3505
ZGNN,2002-11-12 16:00,ZGNN 121600Z AUTO 22002KT 5SM 23/22 A2994 RMK T02300220 IEM_DS3505
ZGNN,2002-11-12 17:00,ZGNN 121700Z AUTO 13002KT 4SM 23/21 A2994 RMK T02300210 IEM_DS3505
ZGNN,2002-11-12 18:00,ZGNN 121800Z AUTO 00000KT 11SM 24/22 A2991 RMK SLP131 T02360220 57012 IEM_DS3505
ZGNN,2002-11-12 19:00,ZGNN 121900Z AUTO 09002KT 4SM 22/21 A2991 RMK T02200210 IEM_DS3505
ZGNN,2002-11-12 20:00,ZGNN 122000Z AUTO 3SM 22/22 A2988 RMK T02200220 IEM_DS3505
ZGNN,2002-11-12 21:00,ZGNN 122100Z AUTO 11002KT 9SM 23/22 A2988 RMK SLP125 T02310221 57006 IEM_DS3505
ZGNN,2002-11-12 22:00,ZGNN 122200Z AUTO 00000KT 6SM 22/22 A2988 RMK T02200220 IEM_DS3505
ZGNN,2002-11-12 23:00,ZGNN 122300Z AUTO 00000KT 4SM 22/21 A2991 RMK T02200210 IEM_DS3505
ZGNN,2002-11-13 00:00,ZGNN 130000Z AUTO 00000KT 4SM 23/22 A2991 RMK SLP137 T02300224 52011 IEM_DS3505
ZGNN,2002-11-13 01:00,ZGNN 130100Z AUTO 3SM 24/22 A2994 RMK T02400220 IEM_DS3505
ZGNN,2002-11-13 02:00,ZGNN 130200Z AUTO 7SM 25/23 A2994 RMK T02500230 IEM_DS3505
ZGNN,2002-11-13 03:00,ZGNN 130300Z AUTO 18006KT 7SM 26/23 A2994 RMK SLP132 T02590233 57004 IEM_DS3505
ZGNN,2002-11-13 04:00,ZGNN 130400Z AUTO 20006KT 7SM 27/22 A2988 RMK T02700220 IEM_DS3505
ZGNN,2002-11-13 05:00,ZGNN 130500Z AUTO 7SM 28/22 A2983 RMK T02800220 IEM_DS3505
ZGNN,2002-11-13 06:00,ZGNN 130600Z AUTO 18006KT 11SM 29/23 A2980 RMK SLP087 T02890228 57044 IEM_DS3505
ZGNN,2002-11-13 07:00,ZGNN 130700Z AUTO 7SM 27/23 A2977 RMK T02700230 IEM_DS3505
ZGNN,2002-11-13 08:00,ZGNN 130800Z AUTO 15004KT 7SM 28/24 A2977 RMK T02800240 IEM_DS3505
ZGNN,2002-11-13 09:00,ZGNN 130900Z AUTO 00000KT 7SM 26/24 A2977 RMK SLP077 T02640237 57010 IEM_DS3505
ZGNN,2002-11-13 10:00,ZGNN 131000Z AUTO 15004KT 7SM 26/23 A2977 RMK T02600230 IEM_DS3505
ZGNN,2002-11-13 11:00,ZGNN 131100Z AUTO 13002KT 7SM 25/23 A2977 RMK T02500230 IEM_DS3505
ZGNN,2002-11-13 12:00,ZGNN 131200Z AUTO 18002KT 11SM 25/23 A2980 RMK 60002 SLP092 T02520226 52014 IEM_DS3505
ZGNN,2002-11-13 13:00,ZGNN 131300Z AUTO 15004KT 7SM 24/22 A2980 RMK T02400220 IEM_DS3505
ZGNN,2002-11-13 14:00,ZGNN 131400Z AUTO 00000KT 7SM 23/22 A2980 RMK T02300220 IEM_DS3505
ZGNN,2002-11-13 15:00,ZGNN 131500Z AUTO 00000KT 9SM 23/22 A2980 RMK SLP094 T02300221 52002 IEM_DS3505
ZGNN,2002-11-13 16:00,ZGNN 131600Z AUTO 00000KT 2SM 21/21 A2980 RMK T02100210 IEM_DS3505
ZGNN,2002-11-13 17:00,ZGNN 131700Z AUTO 00000KT 1 1/4SM 21/21 A2980 RMK T02100210 IEM_DS3505
ZGNN,2002-11-13 18:00,ZGNN 131800Z AUTO 00000KT 9SM 22/21 A2977 RMK SLP085 T02150210 57008 IEM_DS3505
ZGNN,2002-11-13 19:00,ZGNN 131900Z AUTO 00000KT 2 1/2SM 21/21 A2977 RMK T02100210 IEM_DS3505
ZGNN,2002-11-13 20:00,ZGNN 132000Z AUTO 00000KT 2SM 21/21 A2977 RMK T02100210 IEM_DS3505
ZGNN,2002-11-13 21:00,ZGNN 132100Z AUTO 00000KT 5SM 21/21 A2977 RMK 70002 SLP077 T02110209 57009 IEM_DS3505
ZGNN,2002-11-13 22:00,ZGNN 132200Z AUTO 00000KT 5SM 21/21 A2977 RMK T02100210 IEM_DS3505
ZGNN,2002-11-13 23:00,ZGNN 132300Z AUTO 00000KT 4SM 22/21 A2977 RMK T02200210 IEM_DS3505
ZGNN,2002-11-14 00:00,ZGNN 140000Z AUTO 00000KT 1 1/4SM 22/22 A2980 RMK 70002 SLP093 T02180215 52016 IEM_DS3505
ZGNN,2002-11-14 01:00,ZGNN 140100Z AUTO 4SM 23/22 A2983 RMK T02300220 IEM_DS3505
ZGNN,2002-11-14 02:00,ZGNN 140200Z AUTO 7SM 25/22 A2983 RMK T02500220 IEM_DS3505
ZGNN,2002-11-14 03:00,ZGNN 140300Z AUTO 22002KT 19SM 27/22 A2980 RMK SLP095 T02690225 52002 IEM_DS3505
ZGNN,2002-11-14 04:00,ZGNN 140400Z AUTO 7SM 27/21 A2977 RMK T02700210 IEM_DS3505
ZGNN,2002-11-14 05:00,ZGNN 140500Z AUTO 7SM 28/22 A2974 RMK T02800220 IEM_DS3505
ZGNN,2002-11-14 06:00,ZGNN 140600Z AUTO 18004KT 19SM 28/22 A2971 RMK SLP059 T02850216 57035 IEM_DS3505
ZGNN,2002-11-14 07:00,ZGNN 140700Z AUTO 15004KT 7SM 29/21 A2968 RMK T02900210 IEM_DS3505
ZGNN,2002-11-14 08:00,ZGNN 140800Z AUTO 7SM 29/22 A2965 RMK T02900220 IEM_DS3505
ZGNN,2002-11-14 09:00,ZGNN 140900Z AUTO 16008KT 19SM 28/22 A2968 RMK SLP048 T02850225 57011 IEM_DS3505
ZGNN,2002-11-14 10:00,ZGNN 141000Z AUTO 14008KT 6SM 27/22 A2968 RMK T02700220 IEM_DS3505
ZGNN,2002-11-14 11:00,ZGNN 141100Z AUTO 15006KT 7SM 26/22 A2971 RMK T02600220 IEM_DS3505
ZGNN,2002-11-14 12:00,ZGNN 141200Z AUTO 00000KT 16SM 25/23 A2974 RMK SLP070 T02500230 52021 IEM_DS3505
ZGNN,2002-11-14 13:00,ZGNN 141300Z AUTO 6SM 24/22 A2974 RMK T02400220 IEM_DS3505
ZGNN,2002-11-14 14:00,ZGNN 141400Z AUTO 6SM 23/22 A2974 RMK T02300220 IEM_DS3505
ZGNN,2002-11-14 15:00,ZGNN 141500Z AUTO 00000KT 12SM 23/22 A2974 RMK SLP073 T02320222 52004 IEM_DS3505
ZGNN,2002-11-14 16:00,ZGNN 141600Z AUTO 05002KT 3SM 22/22 A2974 RMK T02200220 IEM_DS3505
ZGNN,2002-11-14 17:00,ZGNN 141700Z AUTO 03002KT 3SM 22/21 A2974 RMK T02200210 IEM_DS3505
ZGNN,2002-11-14 18:00,ZGNN 141800Z AUTO 00000KT 9SM 22/22 A2974 RMK SLP069 T02220218 57004 IEM_DS3505
ZGNN,2002-11-14 19:00,ZGNN 141900Z AUTO 34004KT 2 1/2SM 22/21 A2974 RMK T02200210 IEM_DS3505
ZGNN,2002-11-14 20:00,ZGNN 142000Z AUTO 00000KT 3SM 21/21 A2974 RMK T02100210 IEM_DS3505
ZGNN,2002-11-14 21:00,ZGNN 142100Z AUTO 00000KT 9SM 21/20 A2974 RMK SLP072 T02090204 52003 IEM_DS3505
ZGNN,2002-11-14 22:00,ZGNN 142200Z AUTO 00000KT 3SM 22/21 A2977 RMK T02200210 IEM_DS3505
ZGNN,2002-11-14 23:00,ZGNN 142300Z AUTO 00000KT 5SM 22/22 A2980 RMK T02200220 IEM_DS3505
ZGNN,2002-11-15 00:00,ZGNN 150000Z AUTO 00000KT 5SM 23/22 A2980 RMK SLP095 T02270223 52022 IEM_DS3505
ZGNN,2002-11-15 01:00,ZGNN 150100Z AUTO 00000KT 7SM 23/22 A2983 RMK T02300220 IEM_DS3505
ZGNN,2002-11-15 02:00,ZGNN 150200Z AUTO 00000KT 7SM 24/23 A2985 RMK T02400230 IEM_DS3505
ZGNN,2002-11-15 03:00,ZGNN 150300Z AUTO 34002KT 9SM 25/23 A2985 RMK SLP111 T02490230 52016 IEM_DS3505
ZGNN,2002-11-15 04:00,ZGNN 150400Z AUTO 7SM 26/23 A2985 RMK T02600230 IEM_DS3505
ZGNN,2002-11-15 05:00,ZGNN 150500Z AUTO 04006KT 7SM 26/23 A2983 RMK T02600230 IEM_DS3505
ZGNN,2002-11-15 06:00,ZGNN 150600Z AUTO 34008KT 5SM 19/18 A2985 RMK SLP115 T01940183 52002 IEM_DS3505
ZGNN,2002-11-15 07:00,ZGNN 150700Z AUTO 01012KT 7SM 19/17 A2985 RMK T01900170 IEM_DS3505
ZGNN,2002-11-15 08:00,ZGNN 150800Z AUTO 05008KT RMK IEM_DS3505
ZGNN,2002-11-15 09:00,ZGNN 150900Z AUTO 07004KT 7SM 18/16 A2988 RMK SLP129 T01760163 52013 IEM_DS3505
ZGNN,2002-11-15 10:00,ZGNN 151000Z AUTO 06004KT 7SM 17/16 A2991 RMK T01700160 IEM_DS3505
ZGNN,2002-11-15 11:00,ZGNN 151100Z AUTO 06002KT 7SM 17/16 A2994 RMK T01700160 IEM_DS3505
ZGNN,2002-11-15 12:00,ZGNN 151200Z AUTO 09004KT 9SM 18/15 A2997 RMK 60003 SLP155 T01760149 52026 IEM_DS3505
ZGNN,2002-11-15 13:00,ZGNN 151300Z AUTO 09004KT 7SM 17/15 A3000 RMK T01700150 IEM_DS3505
ZGNN,2002-11-15 14:00,ZGNN 151400Z AUTO 33002KT 6SM 17/15 A3003 RMK T01700150 IEM_DS3505
ZGNN,2002-11-15 15:00,ZGNN 151500Z AUTO 00000KT 9SM 17/16 A3003 RMK SLP176 T01670155 52021 IEM_DS3505
ZGNN,2002-11-15 16:00,ZGNN 151600Z AUTO 00000KT 6SM 17/15 A3003 RMK T01700150 IEM_DS3505
ZGNN,2002-11-15 17:00,ZGNN 151700Z AUTO 00000KT 4SM 16/15 A3003 RMK T01600150 IEM_DS3505
ZGNN,2002-11-15 18:00,ZGNN 151800Z AUTO 34002KT 8SM 16/15 A3003 RMK SLP175 T01610149 57002 IEM_DS3505
ZGNN,2002-11-15 19:00,ZGNN 151900Z AUTO 36004KT 4SM 16/13 A3003 RMK T01600130 IEM_DS3505
ZGNN,2002-11-15 20:00,ZGNN 152000Z AUTO 08002KT 5SM 16/13 A3003 RMK T01600130 IEM_DS3505
ZGNN,2002-11-15 21:00,ZGNN 152100Z AUTO 36004KT 7SM 16/12 A3003 RMK 70004 SLP177 T01580124 52001 IEM_DS3505
ZGNN,2002-11-15 22:00,ZGNN 152200Z AUTO 36004KT 6SM 16/12 A3003 RMK T01600120 IEM_DS3505
ZGNN,2002-11-15 23:00,ZGNN 152300Z AUTO 00000KT 6SM 15/12 A3009 RMK T01500120 IEM_DS3505
ZGNN,2002-11-16 00:00,ZGNN 160000Z AUTO 36008KT 16SM 16/11 A3009 RMK 70004 SLP196 T01610107 52019 IEM_DS3505
ZGNN,2002-11-16 01:00,ZGNN 160100Z AUTO 01006KT 6SM 17/11 A3012 RMK T01700110 IEM_DS3505
ZGNN,2002-11-16 02:00,ZGNN 160200Z AUTO 6SM 19/10 A3015 RMK T01900100 IEM_DS3505
ZGNN,2002-11-16 03:00,ZGNN 160300Z AUTO 36008KT 19SM 19/10 A3015 RMK SLP208 T01930100 52012 IEM_DS3505
ZGNN,2002-11-16 04:00,ZGNN 160400Z AUTO 36008KT 6SM 21/09 A3012 RMK T02100090 IEM_DS3505
ZGNN,2002-11-16 05:00,ZGNN 160500Z AUTO 35006KT 6SM 21/10 A3009 RMK T02100100 IEM_DS3505
ZGNN,2002-11-16 06:00,ZGNN 160600Z AUTO 36008KT 19SM 21/11 A3006 RMK SLP179 T02140107 57028 IEM_DS3505
ZGNN,2002-11-16 07:00,ZGNN 160700Z AUTO 34006KT 6SM 22/10 A3003 RMK T02200100 IEM_DS3505
ZGNN,2002-11-16 08:00,ZGNN 160800Z AUTO 02008KT 6SM 22/10 A3000 RMK T02200100 IEM_DS3505
ZGNN,2002-11-16 09:00,ZGNN 160900Z AUTO 04004KT 19SM 22/13 A3003 RMK SLP172 T02190127 57007 IEM_DS3505
ZGNN,2002-11-16 10:00,ZGNN 161000Z AUTO 06004KT 6SM 20/12 A3003 RMK T02000120 IEM_DS3505
ZGNN,2002-11-16 11:00,ZGNN 161100Z AUTO 04004KT 6SM 18/13 A3006 RMK T01800130 IEM_DS3505
ZGNN,2002-11-16 12:00,ZGNN 161200Z AUTO 04002KT 6SM 17/14 A3009 RMK T01700140 IEM_DS3505
ZGNN,2002-11-16 13:00,ZGNN 161300Z AUTO 04002KT 6SM 17/13 A3012 RMK T01700130 IEM_DS3505
ZGNN,2002-11-16 14:00,ZGNN 161400Z AUTO 00000KT 6SM 16/13 A3015 RMK T01600130 IEM_DS3505
ZGNN,2002-11-16 15:00,ZGNN 161500Z AUTO 00000KT 16SM 15/12 A3015 RMK SLP210 T01490124 52014 IEM_DS3505
ZGNN,2002-11-16 16:00,ZGNN 161600Z AUTO 4SM 16/13 A3015 RMK T01600130 IEM_DS3505
ZGNN,2002-11-16 17:00,ZGNN 161700Z AUTO 23004KT 4SM 15/14 A3015 RMK T01500140 IEM_DS3505
ZGNN,2002-11-16 18:00,ZGNN 161800Z AUTO 00000KT 12SM 14/13 A3012 RMK SLP204 T01430132 57006 IEM_DS3505
ZGNN,2002-11-16 19:00,ZGNN 161900Z AUTO 4SM 15/13 A3012 RMK T01500130 IEM_DS3505
ZGNN,2002-11-16 20:00,ZGNN 162000Z AUTO 28002KT 4SM 14/13 A3012 RMK T01400130 IEM_DS3505
ZGNN,2002-11-16 21:00,ZGNN 162100Z AUTO 00000KT 11SM 13/12 A3012 RMK SLP203 T01330124 57001 IEM_DS3505
ZGNN,2002-11-16 22:00,ZGNN 162200Z AUTO 6SM 13/12 A3012 RMK T01300120 IEM_DS3505
ZGNN,2002-11-16 23:00,ZGNN 162300Z AUTO 6SM 14/12 A3015 RMK T01400120 IEM_DS3505
ZGNN,2002-11-17 00:00,ZGNN 170000Z AUTO 00000KT 12SM 14/13 A3018 RMK SLP222 T01390130 52018 IEM_DS3505
ZGNN,2002-11-17 01:00,ZGNN 170100Z AUTO 6SM 16/13 A3018 RMK T01600130 IEM_DS3505
ZGNN,2002-11-17 02:00,ZGNN 170200Z AUTO 6SM 17/12 A3021 RMK T01700120 IEM_DS3505
ZGNN,2002-11-17 03:00,ZGNN 170300Z AUTO 00000KT 15SM 19/12 A3021 RMK SLP226 T01870125 52004 IEM_DS3505
ZGNN,2002-11-17 04:00,ZGNN 170400Z AUTO 6SM 19/12 A3018 RMK T01900120 IEM_DS3505
ZGNN,2002-11-17 05:00,ZGNN 170500Z AUTO 00000KT 6SM 20/13 A3015 RMK T02000130 IEM_DS3505
ZGNN,2002-11-17 06:00,ZGNN 170600Z AUTO 07004KT 16SM 21/11 A3012 RMK SLP199 T02130106 57026 IEM_DS3505
ZGNN,2002-11-17 07:00,ZGNN 170700Z AUTO 06006KT 6SM 22/09 A3009 RMK T02200090 IEM_DS3505
ZGNN,2002-11-17 08:00,ZGNN 170800Z AUTO 6SM 21/10 A3006 RMK T02100100 IEM_DS3505
ZGNN,2002-11-17 09:00,ZGNN 170900Z AUTO 00000KT 16SM 21/14 A3006 RMK SLP186 T02090143 57013 IEM_DS3505
ZGNN,2002-11-17 10:00,ZGNN 171000Z AUTO 12002KT 6SM 19/12 A3009 RMK T01900120 IEM_DS3505
ZGNN,2002-11-17 11:00,ZGNN 171100Z AUTO 6SM 19/14 A3009 RMK T01900140 IEM_DS3505
ZGNN,2002-11-17 12:00,ZGNN 171200Z AUTO 00000KT 14SM 17/15 A3012 RMK SLP202 T01730153 52015 IEM_DS3505
ZGNN,2002-11-17 13:00,ZGNN 171300Z AUTO 31002KT 6SM 17/15 A3012 RMK T01700150 IEM_DS3505
ZGNN,2002-11-17 14:00,ZGNN 171400Z AUTO 6SM 17/15 A3015 RMK T01700150 IEM_DS3505
ZGNN,2002-11-17 15:00,ZGNN 171500Z AUTO 36002KT 11SM 17/14 A3015 RMK SLP214 T01660145 52013 IEM_DS3505
ZGNN,2002-11-17 16:00,ZGNN 171600Z AUTO 00000KT 3SM 16/15 A3015 RMK T01600150 IEM_DS3505
ZGNN,2002-11-17 17:00,ZGNN 171700Z AUTO 3SM 16/15 A3015 RMK T01600150 IEM_DS3505
ZGNN,2002-11-17 18:00,ZGNN 171800Z AUTO 00000KT 9SM 16/15 A3015 RMK SLP209 T01620152 57004 IEM_DS3505
ZGNN,2002-11-17 19:00,ZGNN 171900Z AUTO 00000KT 3SM 16/15 A3015 RMK T01600150 IEM_DS3505
ZGNN,2002-11-17 20:00,ZGNN 172000Z AUTO 35002KT 2 1/2SM 16/15 A3012 RMK T01600150 IEM_DS3505
ZGNN,2002-11-17 21:00,ZGNN 172100Z AUTO 00000KT 7SM 15/14 A3012 RMK 70003 SLP200 T01520140 57010 IEM_DS3505
ZGNN,2002-11-17 22:00,ZGNN 172200Z AUTO 00000KT 6SM 15/14 A3012 RMK T01500140 IEM_DS3505
ZGNN,2002-11-17 23:00,ZGNN 172300Z AUTO 04002KT 6SM 15/15 A3015 RMK T01500150 IEM_DS3505
ZGNN,2002-11-18 00:00,ZGNN 180000Z AUTO 00000KT 7SM 16/14 A3015 RMK 60002 70003 SLP217 T01590138 52016 IEM_DS3505
ZGNN,2002-11-18 01:00,ZGNN 180100Z AUTO 6SM 16/13 A3018 RMK T01600130 IEM_DS3505
ZGNN,2002-11-18 05:00,ZGNN 180500Z AUTO 6SM 20/14 A3012 RMK T02000140 IEM_DS3505
ZGNN,2002-11-18 06:00,ZGNN 180600Z AUTO 09004KT 6SM 20/14 A3009 RMK SLP188 T02050140 57033 IEM_DS3505
ZGNN,2002-11-18 07:00,ZGNN 180700Z AUTO 7SM 20/14 A3006 RMK T02000140 IEM_DS3505
ZGNN,2002-11-18 08:00,ZGNN 180800Z AUTO 7SM 20/15 A3006 RMK T02000150 IEM_DS3505
ZGNN,2002-11-18 09:00,ZGNN 180900Z AUTO 00000KT 5SM 19/16 A3003 RMK SLP180 T01940164 57009 IEM_DS3505
ZGNN,2002-11-18 10:00,ZGNN 181000Z AUTO 7SM 19/16 A3003 RMK T01900160 IEM_DS3505
ZGNN,2002-11-18 11:00,ZGNN 181100Z AUTO 21002KT 7SM 18/17 A3006 RMK T01800170 IEM_DS3505
ZGNN,2002-11-18 12:00,ZGNN 181200Z AUTO 00000KT 5SM 18/17 A3009 RMK 60002 SLP191 T01790167 52011 IEM_DS3505
ZGNN,2002-11-18 13:00,ZGNN 181300Z AUTO 7SM 18/17 A3012 RMK T01800170 IEM_DS3505
ZGNN,2002-11-18 14:00,ZGNN 181400Z AUTO 00000KT 5SM 18/17 A3012 RMK T01800170 IEM_DS3505
ZGNN,2002-11-18 15:00,ZGNN 181500Z AUTO 32004KT 4SM 18/17 RMK SLP204 T01750170 52013 IEM_DS3505
ZGNN,2002-11-18 16:00,ZGNN 181600Z AUTO 4SM 18/17 A3012 RMK T01800170 IEM_DS3505
ZGNN,2002-11-18 17:00,ZGNN 181700Z AUTO 00000KT 1 1/2SM 17/17 A3009 RMK T01700170 IEM_DS3505
ZGNN,2002-11-18 18:00,ZGNN 181800Z AUTO 00000KT 3SM 17/16 A3009 RMK 60004 SLP188 T01730165 57015 IEM_DS3505
ZGNN,2002-11-18 20:00,ZGNN 182000Z AUTO 05004KT 2SM 17/17 A3006 RMK T01700170 IEM_DS3505
ZGNN,2002-11-18 21:00,ZGNN 182100Z AUTO 00000KT 3SM 17/17 A3006 RMK 70006 SLP182 T01730168 57006 IEM_DS3505
ZGNN,2002-11-18 22:00,ZGNN 182200Z AUTO 05002KT 4SM 17/17 A3006 RMK T01700170 IEM_DS3505
ZGNN,2002-11-18 23:00,ZGNN 182300Z AUTO 04002KT 1 1/4SM 17/17 A3009 RMK T01700170 IEM_DS3505
ZGNN,2002-11-19 00:00,ZGNN 190000Z AUTO 00000KT 4SM 17/16 A3009 RMK 60008 70015 SLP199 T01690161 52016 IEM_DS3505
ZGNN,2002-11-19 01:00,ZGNN 190100Z AUTO 06006KT 2SM 16/15 A3012 RMK T01600150 IEM_DS3505
ZGNN,2002-11-19 02:00,ZGNN 190200Z AUTO 06004KT 2SM 16/16 A3015 RMK T01600160 IEM_DS3505
ZGNN,2002-11-19 03:00,ZGNN 190300Z AUTO 06008KT 4SM 16/15 A3012 RMK T01600150 IEM_DS3505
ZGNN,2002-11-19 06:00,ZGNN 190600Z AUTO 07004KT 4SM 17/16 A3003 RMK 60012 SLP175 T01680161 57029 IEM_DS3505
ZGNN,2002-11-19 07:00,ZGNN 190700Z AUTO 07006KT 4SM 17/16 A3000 RMK T01700160 IEM_DS3505
ZGNN,2002-11-19 08:00,ZGNN 190800Z AUTO 08004KT 4SM 17/16 A3000 RMK T01700160 IEM_DS3505
ZGNN,2002-11-19 09:00,ZGNN 190900Z AUTO 02002KT 4SM 17/16 A3003 RMK SLP170 T01710159 57005 IEM_DS3505
ZGNN,2002-11-19 10:00,ZGNN 191000Z AUTO 07004KT 4SM 17/15 A3003 RMK T01700150 IEM_DS3505
ZGNN,2002-11-19 11:00,ZGNN 191100Z AUTO 07006KT 4SM 16/15 A3006 RMK T01600150 IEM_DS3505
ZGNN,2002-11-19 12:00,ZGNN 191200Z AUTO 09004KT 9SM 16/16 A3006 RMK SLP187 T01650157 52017 IEM_DS3505
ZGNN,2002-11-19 13:00,ZGNN 191300Z AUTO 07006KT 4SM 16/15 A3006 RMK T01600150 IEM_DS3505
ZGNN,2002-11-19 14:00,ZGNN 191400Z AUTO 07006KT 4SM 16/15 A3009 RMK T01600150 IEM_DS3505
ZGNN,2002-11-19 15:00,ZGNN 191500Z AUTO 00000KT 9SM 17/16 RMK SLP194 T01670157 52007 IEM_DS3505
ZGNN,2002-11-19 16:00,ZGNN 191600Z AUTO 08004KT 4SM 16/15 A3009 RMK T01600150 IEM_DS3505
ZGNN,2002-11-19 17:00,ZGNN 191700Z AUTO 07004KT 4SM 16/15 A3009 RMK T01600150 IEM_DS3505
ZGNN,2002-11-19 18:00,ZGNN 191800Z AUTO 00000KT 5SM 16/16 A3006 RMK 60012 SLP190 T01630158 57004 IEM_DS3505
ZGNN,2002-11-19 19:00,ZGNN 191900Z AUTO 3SM 16/15 A3006 RMK T01600150 IEM_DS3505
ZGNN,2002-11-19 20:00,ZGNN 192000Z AUTO 3SM 16/15 A3006 RMK T01600150 IEM_DS3505
ZGNN,2002-11-19 21:00,ZGNN 192100Z AUTO 00000KT 6SM 16/16 A3006 RMK 70064 SLP182 T01610159 57008 IEM_DS3505
ZGNN,2002-11-19 22:00,ZGNN 192200Z AUTO 2SM 16/16 A3006 RMK T01600160 IEM_DS3505
ZGNN,2002-11-19 23:00,ZGNN 192300Z AUTO 00000KT 2SM 16/16 A3009 RMK T01600160 IEM_DS3505
ZGNN,2002-11-20 00:00,ZGNN 200000Z AUTO 00000KT 1 1/2SM 17/16 A3009 RMK 60035 70056 SLP197 T01660163 52015 IEM_DS3505
ZGNN,2002-11-20 01:00,ZGNN 200100Z AUTO 06002KT 1 1/4SM 17/16 A3012 RMK T01700160 IEM_DS3505
ZGNN,2002-11-20 02:00,ZGNN 200200Z AUTO 1 1/2SM 17/16 A3012 RMK T01700160 IEM_DS3505
ZGNN,2002-11-20 03:00,ZGNN 200300Z AUTO 09004KT 6SM 18/17 A3012 RMK SLP207 T01840166 52010 IEM_DS3505
ZGNN,2002-11-20 04:00,ZGNN 200400Z AUTO 08006KT 7SM 18/16 A3012 RMK T01800160 IEM_DS3505
ZGNN,2002-11-20 05:00,ZGNN 200500Z AUTO 06004KT 7SM 18/16 A3009 RMK T01800160 IEM_DS3505
ZGNN,2002-11-20 06:00,ZGNN 200600Z AUTO 00000KT 9SM 19/17 A3009 RMK SLP189 T01890168 57018 IEM_DS3505
ZGNN,2002-11-20 07:00,ZGNN 200700Z AUTO 05006KT 7SM 19/17 A3006 RMK T01900170 IEM_DS3505
ZGNN,2002-11-20 08:00,ZGNN 200800Z AUTO 04004KT 5SM 19/17 A3006 RMK T01900170 IEM_DS3505
ZGNN,2002-11-20 09:00,ZGNN 200900Z AUTO 00000KT 4SM 19/17 A3006 RMK SLP185 T01890171 57004 IEM_DS3505
ZGNN,2002-11-20 10:00,ZGNN 201000Z AUTO 05006KT 1 1/2SM 18/17 A3009 RMK T01800170 IEM_DS3505
ZGNN,2002-11-20 11:00,ZGNN 201100Z AUTO 03004KT 2 1/2SM 18/17 A3009 RMK T01800170 IEM_DS3505
ZGNN,2002-11-20 12:00,ZGNN 201200Z AUTO 00000KT 4SM 18/17 A3012 RMK 60000 SLP206 T01840166 52021 IEM_DS3505
ZGNN,2002-11-20 13:00,ZGNN 201300Z AUTO 05004KT 2 1/2SM 18/16 A3015 RMK T01800160 IEM_DS3505
ZGNN,2002-11-20 14:00,ZGNN 201400Z AUTO 05006KT 3SM 18/16 A3015 RMK T01800160 IEM_DS3505
ZGNN,2002-11-20 15:00,ZGNN 201500Z AUTO 07006KT 4SM 18/15 A3015 RMK SLP220 T01760154 52014 IEM_DS3505
ZGNN,2002-11-20 16:00,ZGNN 201600Z AUTO 05006KT 5SM 17/15 A3018 RMK T01700150 IEM_DS3505
ZGNN,2002-11-20 17:00,ZGNN 201700Z AUTO 06008KT 3SM 15/14 A3018 RMK T01500140 IEM_DS3505
ZGNN,2002-11-20 18:00,ZGNN 201800Z AUTO 05004KT 4SM 15/14 A3015 RMK T01500140 IEM_DS3505
ZGNN,2002-11-20 19:00,ZGNN 201900Z AUTO 04008KT 4SM 15/13 A3015 RMK T01500130 IEM_DS3505
ZGNN,2002-11-20 20:00,ZGNN 202000Z AUTO 01004KT 4SM 15/14 A3015 RMK T01500140 IEM_DS3505
ZGNN,2002-11-20 21:00,ZGNN 202100Z AUTO 00000KT 12SM 15/13 A3015 RMK 70001 SLP220 T01530126 52003 IEM_DS3505
ZGNN,2002-11-20 22:00,ZGNN 202200Z AUTO 08004KT 7SM 14/13 A3018 RMK T01400130 IEM_DS3505
ZGNN,2002-11-20 23:00,ZGNN 202300Z AUTO 02004KT 2 1/2SM 14/13 A3021 RMK T01400130 IEM_DS3505
ZGNN,2002-11-21 00:00,ZGNN 210000Z AUTO 34006KT 4SM 13/12 A3024 RMK 60016 70015 SLP243 T01340123 52022 IEM_DS3505
ZGNN,2002-11-21 01:00,ZGNN 210100Z AUTO 35006KT 4SM 13/12 A3024 RMK T01300120 IEM_DS3505
ZGNN,2002-11-21 02:00,ZGNN 210200Z AUTO 36008KT 4SM 13/12 A3027 RMK T01300120 IEM_DS3505
ZGNN,2002-11-21 03:00,ZGNN 210300Z AUTO 02006KT 5SM 14/12 A3027 RMK SLP252 T01360121 52008 IEM_DS3505
ZGNN,2002-11-21 04:00,ZGNN 210400Z AUTO 03008KT 5SM 14/12 A3024 RMK T01400120 IEM_DS3505
ZGNN,2002-11-21 05:00,ZGNN 210500Z AUTO 3SM 14/13 A3021 RMK T01400130 IEM_DS3505
ZGNN,2002-11-21 06:00,ZGNN 210600Z AUTO 34006KT 12SM 16/13 A3018 RMK 60008 SLP220 T01590129 57031 IEM_DS3505
ZGNN,2002-11-21 07:00,ZGNN 210700Z AUTO 36006KT 7SM 16/13 A3015 RMK T01600130 IEM_DS3505
ZGNN,2002-11-21 08:00,ZGNN 210800Z AUTO 35006KT 7SM 17/12 A3015 RMK T01700120 IEM_DS3505
ZGNN,2002-11-21 09:00,ZGNN 210900Z AUTO 36002KT 19SM 17/12 A3015 RMK SLP210 T01670118 57010 IEM_DS3505
ZGNN,2002-11-21 10:00,ZGNN 211000Z AUTO 02004KT 7SM 16/12 A3015 RMK T01600120 IEM_DS3505
ZGNN,2002-11-21 11:00,ZGNN 211100Z AUTO 06002KT 7SM 16/13 A3015 RMK T01600130 IEM_DS3505
ZGNN,2002-11-21 12:00,ZGNN 211200Z AUTO 04002KT 14SM 15/13 A3018 RMK SLP226 T01540129 52015 IEM_DS3505
ZGNN,2002-11-21 13:00,ZGNN 211300Z AUTO 09002KT 7SM 15/12 A3021 RMK T01500120 IEM_DS3505
ZGNN,2002-11-21 14:00,ZGNN 211400Z AUTO 00000KT 7SM 15/13 A3018 RMK T01500130 IEM_DS3505
ZGNN,2002-11-21 15:00,ZGNN 211500Z AUTO 00000KT 11SM 15/13 RMK SLP229 T01500134 52003 IEM_DS3505
ZGNN,2002-11-21 16:00,ZGNN 211600Z AUTO 34002KT 4SM 14/13 A3018 RMK T01400130 IEM_DS3505
ZGNN,2002-11-21 17:00,ZGNN 211700Z AUTO 4SM 14/12 A3018 RMK T01400120 IEM_DS3505
ZGNN,2002-11-21 18:00,ZGNN 211800Z AUTO 00000KT 6SM 14/13 A3018 RMK 60008 SLP222 T01390132 57007 IEM_DS3505
ZGNN,2002-11-21 19:00,ZGNN 211900Z AUTO 06002KT 4SM 14/13 A3015 RMK T01400130 IEM_DS3505
ZGNN,2002-11-21 20:00,ZGNN 212000Z AUTO 13002KT 3SM 13/12 A3015 RMK T01300120 IEM_DS3505
ZGNN,2002-11-21 21:00,ZGNN 212100Z AUTO 00000KT 3SM 13/13 A3015 RMK 70035 SLP211 T01320128 57010 IEM_DS3505
ZGNN,2002-11-21 22:00,ZGNN 212200Z AUTO 15002KT 2 1/2SM 13/13 A3015 RMK T01300130 IEM_DS3505
ZGNN,2002-11-21 23:00,ZGNN 212300Z AUTO 14002KT 2 1/2SM 13/12 A3015 RMK T01300120 IEM_DS3505
ZGNN,2002-11-22 00:00,ZGNN 220000Z AUTO 14002KT 2 1/2SM 13/12 A3018 RMK 60004 70022 SLP222 T01290116 52010 IEM_DS3505
ZGNN,2002-11-22 01:00,ZGNN 220100Z AUTO 7SM 13/12 A3018 RMK T01300120 IEM_DS3505
ZGNN,2002-11-22 02:00,ZGNN 220200Z AUTO 00000KT 7SM 14/13 A3018 RMK T01400130 IEM_DS3505
ZGNN,2002-11-22 03:00,ZGNN 220300Z AUTO 4SM 15/12 A3015 RMK T01500120 IEM_DS3505
ZGNN,2002-11-22 04:00,ZGNN 220400Z AUTO 5SM 16/13 A3015 RMK T01600130 IEM_DS3505
ZGNN,2002-11-22 05:00,ZGNN 220500Z AUTO 7SM 17/12 A3009 RMK T01700120 IEM_DS3505
ZGNN,2002-11-22 06:00,ZGNN 220600Z AUTO 25002KT 11SM 18/12 A3006 RMK SLP181 T01830118 57037 IEM_DS3505
ZGNN,2002-11-22 07:00,ZGNN 220700Z AUTO 00000KT 7SM 19/11 A3003 RMK T01900110 IEM_DS3505
ZGNN,2002-11-22 08:00,ZGNN 220800Z AUTO 7SM 18/12 A3000 RMK T01800120 IEM_DS3505
ZGNN,2002-11-22 09:00,ZGNN 220900Z AUTO 00000KT 16SM 18/13 A3000 RMK SLP166 T01850127 57015 IEM_DS3505
ZGNN,2002-11-22 10:00,ZGNN 221000Z AUTO 13002KT 6SM 18/13 A3000 RMK T01800130 IEM_DS3505
ZGNN,2002-11-22 11:00,ZGNN 221100Z AUTO 11002KT 6SM 17/13 A3003 RMK T01700130 IEM_DS3505
ZGNN,2002-11-22 12:00,ZGNN 221200Z AUTO 00000KT 9SM 15/14 A3003 RMK SLP180 T01520140 52013 IEM_DS3505
ZGNN,2002-11-22 13:00,ZGNN 221300Z AUTO 00000KT 4SM 15/13 A3003 RMK T01500130 IEM_DS3505
ZGNN,2002-11-22 14:00,ZGNN 221400Z AUTO 00000KT 4SM 14/13 A3006 RMK T01400130 IEM_DS3505
ZGNN,2002-11-22 15:00,ZGNN 221500Z AUTO 00000KT 7SM 14/13 A3006 RMK SLP187 T01400131 52007 IEM_DS3505
ZGNN,2002-11-22 16:00,ZGNN 221600Z AUTO 34002KT 4SM 15/14 A3006 RMK T01500140 IEM_DS3505
ZGNN,2002-11-22 17:00,ZGNN 221700Z AUTO 00000KT 2 1/2SM 16/14 A3006 RMK T01600140 IEM_DS3505
ZGNN,2002-11-22 18:00,ZGNN 221800Z AUTO 00000KT 7SM 16/15 A3003 RMK SLP178 T01590150 57008 IEM_DS3505
ZGNN,2002-11-22 19:00,ZGNN 221900Z AUTO 05002KT 2SM 16/15 A3003 RMK T01600150 IEM_DS3505
ZGNN,2002-11-22 20:00,ZGNN 222000Z AUTO 05002KT 2 1/2SM 16/14 A3003 RMK T01600140 IEM_DS3505
ZGNN,2002-11-22 21:00,ZGNN 222100Z AUTO 00000KT 6SM 16/15 A3003 RMK 70002 SLP171 T01610154 57007 IEM_DS3505
ZGNN,2002-11-22 22:00,ZGNN 222200Z AUTO 05002KT 2 1/2SM 16/14 A3003 RMK T01600140 IEM_DS3505
ZGNN,2002-11-22 23:00,ZGNN 222300Z AUTO 00000KT 2SM 16/15 A3003 RMK T01600150 IEM_DS3505
ZGNN,2002-11-23 00:00,ZGNN 230000Z AUTO 09002KT 4SM 16/14 A3006 RMK SLP181 T01630135 52010 IEM_DS3505
ZGNN,2002-11-23 01:00,ZGNN 230100Z AUTO 07004KT 4SM 16/14 A3006 RMK T01600140 IEM_DS3505
ZGNN,2002-11-23 02:00,ZGNN 230200Z AUTO 05004KT 4SM 16/15 A3009 RMK T01600150 IEM_DS3505
ZGNN,2002-11-23 03:00,ZGNN 230300Z AUTO 09002KT 9SM 18/15 A3009 RMK SLP192 T01790154 52010 IEM_DS3505
ZGNN,2002-11-23 04:00,ZGNN 230400Z AUTO 08004KT 7SM 18/14 A3006 RMK T01800140 IEM_DS3505
ZGNN,2002-11-23 05:00,ZGNN 230500Z AUTO 7SM 19/14 A3003 RMK T01900140 IEM_DS3505
ZGNN,2002-11-23 06:00,ZGNN 230600Z AUTO 04002KT 9SM 19/15 A3000 RMK SLP159 T01940152 57031 IEM_DS3505
ZGNN,2002-11-23 07:00,ZGNN 230700Z AUTO 5SM 19/15 A2997 RMK T01900150 IEM_DS3505
ZGNN,2002-11-23 08:00,ZGNN 230800Z AUTO 07004KT 4SM 19/15 A2994 RMK T01900150 IEM_DS3505
ZGNN,2002-11-23 09:00,ZGNN 230900Z AUTO 02002KT 9SM 19/15 A2994 RMK SLP147 T01930154 57012 IEM_DS3505
ZGNN,2002-11-23 10:00,ZGNN 231000Z AUTO 4SM 19/15 A2997 RMK T01900150 IEM_DS3505
ZGNN,2002-11-23 11:00,ZGNN 231100Z AUTO 07004KT 4SM 18/16 A2997 RMK T01800160 IEM_DS3505
ZGNN,2002-11-23 12:00,ZGNN 231200Z AUTO 00000KT 11SM 18/15 A3000 RMK SLP164 T01780154 52016 IEM_DS3505
ZGNN,2002-11-23 13:00,ZGNN 231300Z AUTO 06004KT 4SM 17/15 A3003 RMK T01700150 IEM_DS3505
ZGNN,2002-11-23 14:00,ZGNN 231400Z AUTO 06004KT 4SM 17/15 A3003 RMK T01700150 IEM_DS3505
ZGNN,2002-11-23 15:00,ZGNN 231500Z AUTO 00000KT 10SM 17/15 A3006 RMK SLP181 T01690148 52017 IEM_DS3505
ZGNN,2002-11-23 16:00,ZGNN 231600Z AUTO 05004KT 1 1/2SM 17/15 A3006 RMK T01700150 IEM_DS3505
ZGNN,2002-11-23 17:00,ZGNN 231700Z AUTO 04002KT 1 1/2SM 17/15 A3006 RMK T01700150 IEM_DS3505
ZGNN,2002-11-23 18:00,ZGNN 231800Z AUTO 00000KT 8SM 16/15 A3006 RMK SLP185 T01650150 52005 IEM_DS3505
ZGNN,2002-11-23 19:00,ZGNN 231900Z AUTO 02004KT 1SM 16/15 A3006 RMK T01600150 IEM_DS3505
ZGNN,2002-11-23 20:00,ZGNN 232000Z AUTO 03004KT 1SM 15/15 A3006 RMK T01500150 IEM_DS3505
ZGNN,2002-11-23 21:00,ZGNN 232100Z AUTO 00000KT 6SM 16/15 A3006 RMK 70000 SLP190 T01550150 52004 IEM_DS3505
ZGNN,2002-11-23 22:00,ZGNN 232200Z AUTO 03002KT 1SM 15/15 A3009 RMK T01500150 IEM_DS3505
ZGNN,2002-11-23 23:00,ZGNN 232300Z AUTO 05006KT 1 1/4SM 15/15 A3012 RMK T01500150 IEM_DS3505
ZGNN,2002-11-24 00:00,ZGNN 240000Z AUTO 00000KT 4SM 15/14 A3015 RMK 60012 70010 SLP217 T01470140 52026 IEM_DS3505
ZGNN,2002-11-24 03:00,ZGNN 240300Z AUTO 34006KT 7SM 16/14 A3018 RMK SLP226 T01580140 52009 IEM_DS3505
ZGNN,2002-11-24 04:00,ZGNN 240400Z AUTO 34006KT 5SM 16/14 A3018 RMK T01600140 IEM_DS3505
ZGNN,2002-11-24 05:00,ZGNN 240500Z AUTO 34006KT 6SM 16/13 A3015 RMK T01600130 IEM_DS3505
ZGNN,2002-11-24 06:00,ZGNN 240600Z AUTO 34008KT 11SM 17/12 A3012 RMK SLP206 T01680119 57019 IEM_DS3505
ZGNN,2002-11-24 07:00,ZGNN 240700Z AUTO 36008KT 7SM 16/13 A3012 RMK T01600130 IEM_DS3505
ZGNN,2002-11-24 08:00,ZGNN 240800Z AUTO 36008KT 7SM 16/13 A3012 RMK T01600130 IEM_DS3505
ZGNN,2002-11-24 09:00,ZGNN 240900Z AUTO 34004KT 12SM 16/12 A3012 RMK SLP206 T01610117 57001 IEM_DS3505
ZGNN,2002-11-24 10:00,ZGNN 241000Z AUTO 35004KT 7SM 16/12 A3015 RMK T01600120 IEM_DS3505
ZGNN,2002-11-24 11:00,ZGNN 241100Z AUTO 35004KT 7SM 16/12 A3015 RMK T01600120 IEM_DS3505
ZGNN,2002-11-24 12:00,ZGNN 241200Z AUTO 34004KT 11SM 15/12 A3018 RMK SLP226 T01540121 52019 IEM_DS3505
ZGNN,2002-11-24 13:00,ZGNN 241300Z AUTO 35002KT 7SM 15/12 A3018 RMK T01500120 IEM_DS3505
ZGNN,2002-11-24 14:00,ZGNN 241400Z AUTO 7SM 14/12 A3018 RMK T01400120 IEM_DS3505
ZGNN,2002-11-24 15:00,ZGNN 241500Z AUTO 00000KT 9SM 13/12 A3021 RMK SLP238 T01340123 52012 IEM_DS3505
ZGNN,2002-11-24 16:00,ZGNN 241600Z AUTO 08002KT 4SM 14/13 A3021 RMK T01400130 IEM_DS3505
ZGNN,2002-11-24 17:00,ZGNN 241700Z AUTO 05002KT 6SM 14/13 A3021 RMK T01400130 IEM_DS3505
ZGNN,2002-11-24 18:00,ZGNN 241800Z AUTO 00000KT 7SM 14/13 A3021 RMK SLP239 T01390134 52001 IEM_DS3505
ZGNN,2002-11-24 19:00,ZGNN 241900Z AUTO 3SM 14/13 A3021 RMK T01400130 IEM_DS3505
ZGNN,2002-11-24 20:00,ZGNN 242000Z AUTO 02002KT 7SM 14/12 A3021 RMK T01400120 IEM_DS3505
ZGNN,2002-11-24 21:00,ZGNN 242100Z AUTO 00000KT 7SM 13/12 A3021 RMK 70011 SLP228 T01330122 57011 IEM_DS3505
ZGNN,2002-11-24 22:00,ZGNN 242200Z AUTO 03004KT 5SM 13/11 A3021 RMK T01300110 IEM_DS3505
ZGNN,2002-11-24 23:00,ZGNN 242300Z AUTO 04002KT 6SM 13/12 A3021 RMK T01300120 IEM_DS3505
ZGNN,2002-11-25 00:00,ZGNN 250000Z AUTO 00000KT 5SM 13/12 A3021 RMK 70001 SLP240 T01290122 52012 IEM_DS3505
ZGNN,2002-11-25 01:00,ZGNN 250100Z AUTO 4SM 14/11 A3024 RMK T01400110 IEM_DS3505
ZGNN,2002-11-25 02:00,ZGNN 250200Z AUTO 05004KT 4SM 15/10 A3024 RMK T01500100 IEM_DS3505
ZGNN,2002-11-25 03:00,ZGNN 250300Z AUTO 04006KT 6SM 16/08 A3024 RMK SLP247 T01620079 52007 IEM_DS3505
ZGNN,2002-11-25 04:00,ZGNN 250400Z AUTO 04008KT 6SM 17/07 A3021 RMK T01700070 IEM_DS3505
ZGNN,2002-11-25 05:00,ZGNN 250500Z AUTO 6SM 18/08 A3018 RMK T01800080 IEM_DS3505
ZGNN,2002-11-25 06:00,ZGNN 250600Z AUTO 32006KT 9SM 18/09 A3015 RMK SLP209 T01780088 57037 IEM_DS3505
ZGNN,2002-11-25 07:00,ZGNN 250700Z AUTO 35006KT 6SM 18/07 A3012 RMK T01800070 IEM_DS3505
ZGNN,2002-11-25 08:00,ZGNN 250800Z AUTO 34006KT 7SM 18/08 A3012 RMK T01800080 IEM_DS3505
ZGNN,2002-11-25 09:00,ZGNN 250900Z AUTO 36002KT 9SM 18/10 A3012 RMK SLP206 T01780099 57003 IEM_DS3505
ZGNN,2002-11-25 10:00,ZGNN 251000Z AUTO 05004KT 6SM 17/09 A3012 RMK T01700090 IEM_DS3505
ZGNN,2002-11-25 11:00,ZGNN 251100Z AUTO 00000KT 16/10 A3015 RMK T01600100 IEM_DS3505
ZGNN,2002-11-25 12:00,ZGNN 251200Z AUTO 00000KT 9SM 16/11 A3018 RMK SLP228 T01570111 52021 IEM_DS3505
ZGNN,2002-11-25 13:00,ZGNN 251300Z AUTO 04002KT 4SM 15/11 A3021 RMK T01500110 IEM_DS3505
ZGNN,2002-11-25 14:00,ZGNN 251400Z AUTO 07002KT 4SM 15/10 A3021 RMK T01500100 IEM_DS3505
ZGNN,2002-11-25 15:00,ZGNN 251500Z AUTO 00000KT 9SM 15/10 A3024 RMK SLP245 T01520101 52018 IEM_DS3505
ZGNN,2002-11-25 16:00,ZGNN 251600Z AUTO 04004KT 15/09 A3024 RMK T01500090 IEM_DS3505
ZGNN,2002-11-25 17:00,ZGNN 251700Z AUTO 02004KT 3SM 15/09 A3024 RMK T01500090 IEM_DS3505
ZGNN,2002-11-25 18:00,ZGNN 251800Z AUTO 34002KT 9SM 15/09 A3021 RMK SLP241 T01500087 57004 IEM_DS3505
ZGNN,2002-11-25 19:00,ZGNN 251900Z AUTO 35004KT 3SM 15/09 A3024 RMK T01500090 IEM_DS3505
ZGNN,2002-11-25 20:00,ZGNN 252000Z AUTO 36004KT 3SM 15/09 A3024 RMK T01500090 IEM_DS3505
ZGNN,2002-11-25 21:00,ZGNN 252100Z AUTO 34004KT 7SM 15/10 A3021 RMK 70000 SLP241 T01460104 54000 IEM_DS3505
ZGNN,2002-11-25 22:00,ZGNN 252200Z AUTO 34004KT 4SM 14/09 A3024 RMK T01400090 IEM_DS3505
ZGNN,2002-11-25 23:00,ZGNN 252300Z AUTO 33004KT 4SM 14/09 A3024 RMK T01400090 IEM_DS3505
ZGNN,2002-11-26 00:00,ZGNN 260000Z AUTO 34006KT 6SM 14/10 A3027 RMK 70000 SLP261 T01380095 52019 IEM_DS3505
ZGNN,2002-11-26 01:00,ZGNN 260100Z AUTO 34006KT 7SM 14/08 A3030 RMK T01400080 IEM_DS3505
ZGNN,2002-11-26 02:00,ZGNN 260200Z AUTO 34006KT 7SM 15/08 A3033 RMK T01500080 IEM_DS3505
ZGNN,2002-11-26 03:00,ZGNN 260300Z AUTO 34010KT 7SM 14/08 A3033 RMK SLP279 T01400080 52017 IEM_DS3505
ZGNN,2002-11-26 04:00,ZGNN 260400Z AUTO 33012KT 7SM 13/09 A3030 RMK T01300090 IEM_DS3505
ZGNN,2002-11-26 05:00,ZGNN 260500Z AUTO 36008KT 1 1/4SM 12/11 A3027 RMK T01200110 IEM_DS3505
ZGNN,2002-11-26 06:00,ZGNN 260600Z AUTO 29004KT 4SM 12/11 A3024 RMK SLP250 T01170109 57029 IEM_DS3505
ZGNN,2002-11-26 07:00,ZGNN 260700Z AUTO 34004KT 1 1/4SM 12/10 A3024 RMK T01200100 IEM_DS3505
ZGNN,2002-11-26 08:00,ZGNN 260800Z AUTO 1 1/4SM 12/11 A3021 RMK T01200110 IEM_DS3505
ZGNN,2002-11-26 09:00,ZGNN 260900Z AUTO 36004KT 4SM 12/10 A3021 RMK SLP239 T01190104 57011 IEM_DS3505
ZGNN,2002-11-26 10:00,ZGNN 261000Z AUTO 34004KT 2 1/2SM 12/11 A3024 RMK T01200110 IEM_DS3505
ZGNN,2002-11-26 11:00,ZGNN 261100Z AUTO 4SM 12/11 A3024 RMK T01200110 IEM_DS3505
ZGNN,2002-11-26 12:00,ZGNN 261200Z AUTO 32006KT 4SM 12/11 A3024 RMK 60004 SLP252 T01200109 52013 IEM_DS3505
ZGNN,2002-11-26 13:00,ZGNN 261300Z AUTO 34004KT 2 1/2SM 12/11 A3027 RMK T01200110 IEM_DS3505
ZGNN,2002-11-26 14:00,ZGNN 261400Z AUTO 2 1/2SM 12/11 A3027 RMK T01200110 IEM_DS3505
ZGNN,2002-11-26 15:00,ZGNN 261500Z AUTO 32006KT 3SM 12/11 A3027 RMK SLP257 T01180108 52005 IEM_DS3505
ZGNN,2002-11-26 16:00,ZGNN 261600Z AUTO 29004KT 3SM 11/10 A3027 RMK T01100100 IEM_DS3505
ZGNN,2002-11-26 17:00,ZGNN 261700Z AUTO 33004KT 3SM 11/10 A3027 RMK T01100100 IEM_DS3505
ZGNN,2002-11-26 18:00,ZGNN 261800Z AUTO 32004KT 3SM 11/11 RMK 60012 SLP249 T01130109 57009 IEM_DS3505
ZGNN,2002-11-26 19:00,ZGNN 261900Z AUTO 2SM 11/10 A3024 RMK T01100100 IEM_DS3505
ZGNN,2002-11-26 21:00,ZGNN 262100Z AUTO 05002KT 2SM 11/11 A3021 RMK T01100110 IEM_DS3505
ZGNN,2002-11-26 22:00,ZGNN 262200Z AUTO 2SM 11/11 A3021 RMK T01100110 IEM_DS3505
ZGNN,2002-11-26 23:00,ZGNN 262300Z AUTO 34002KT 2SM 11/11 A3024 RMK T01100110 IEM_DS3505
ZGNN,2002-11-27 00:00,ZGNN 270000Z AUTO 00000KT 2 1/2SM 12/11 A3024 RMK 60008 70022 SLP249 T01150111 52010 IEM_DS3505
ZGNN,2002-11-27 01:00,ZGNN 270100Z AUTO 04006KT 1 1/4SM 11/11 A3027 RMK T01100110 IEM_DS3505
ZGNN,2002-11-27 02:00,ZGNN 270200Z AUTO 03004KT 1 1/4SM 12/11 A3030 RMK T01200110 IEM_DS3505
ZGNN,2002-11-27 03:00,ZGNN 270300Z AUTO 00000KT 3SM 12/11 A3027 RMK SLP255 T01210113 52006 IEM_DS3505
ZGNN,2002-11-27 04:00,ZGNN 270400Z AUTO 04004KT 1 1/2SM 12/11 A3024 RMK T01200110 IEM_DS3505
ZGNN,2002-11-27 05:00,ZGNN 270500Z AUTO 1 1/2SM 12/11 A3021 RMK T01200110 IEM_DS3505
ZGNN,2002-11-27 06:00,ZGNN 270600Z AUTO 00000KT 2 1/2SM 13/12 A3015 RMK 60020 SLP218 T01310120 57036 IEM_DS3505
ZGNN,2002-11-27 07:00,ZGNN 270700Z AUTO 2 1/2SM 13/12 A3012 RMK T01300120 IEM_DS3505
ZGNN,2002-11-27 08:00,ZGNN 270800Z AUTO 00000KT 2SM 13/12 A3012 RMK T01300120 IEM_DS3505
ZGNN,2002-11-27 09:00,ZGNN 270900Z AUTO 34002KT 2 1/2SM 13/12 A3015 RMK SLP211 T01290125 57007 IEM_DS3505
ZGNN,2002-11-27 10:00,ZGNN 271000Z AUTO 36004KT 1 1/2SM 13/12 A3015 RMK T01300120 IEM_DS3505
ZGNN,2002-11-27 11:00,ZGNN 271100Z AUTO 06002KT 2SM 12/12 A3015 RMK T01200120 IEM_DS3505
ZGNN,2002-11-27 12:00,ZGNN 271200Z AUTO 00000KT 4SM 13/12 A3018 RMK 60012 SLP227 T01300124 52016 IEM_DS3505
ZGNN,2002-11-27 13:00,ZGNN 271300Z AUTO 00000KT 1 1/4SM 13/12 A3018 RMK T01300120 IEM_DS3505
ZGNN,2002-11-27 14:00,ZGNN 271400Z AUTO 04002KT 1 1/4SM 12/12 A3018 RMK T01200120 IEM_DS3505
ZGNN,2002-11-27 15:00,ZGNN 271500Z AUTO 14004KT 2 1/2SM 12/12 A3018 RMK SLP229 T01250121 52002 IEM_DS3505
ZGNN,2002-11-27 17:00,ZGNN 271700Z AUTO 10004KT 1 1/4SM 12/12 A3015 RMK T01200120 IEM_DS3505
ZGNN,2002-11-27 18:00,ZGNN 271800Z AUTO 00000KT 2 1/2SM 12/12 A3012 RMK 60063 SLP210 T01240122 57018 IEM_DS3505
ZGNN,2002-11-27 19:00,ZGNN 271900Z AUTO 03002KT 1 1/2SM 12/12 A3012 RMK T01200120 IEM_DS3505
ZGNN,2002-11-27 20:00,ZGNN 272000Z AUTO 03002KT 2SM 12/12 A3012 RMK T01200120 IEM_DS3505
ZGNN,2002-11-27 21:00,ZGNN 272100Z AUTO 14002KT 2 1/2SM 12/12 A3012 RMK 70120 SLP198 T01250121 57012 IEM_DS3505
ZGNN,2002-11-27 22:00,ZGNN 272200Z AUTO 32004KT 4SM 13/12 A3012 RMK T01300120 IEM_DS3505
ZGNN,2002-11-27 23:00,ZGNN 272300Z AUTO 4SM 13/12 A3015 RMK T01300120 IEM_DS3505
ZGNN,2002-11-28 00:00,ZGNN 280000Z AUTO 00000KT 2SM 13/12 A3015 RMK 60031 70122 SLP215 T01290125 52017 IEM_DS3505
ZGNN,2002-11-28 01:00,ZGNN 280100Z AUTO 07002KT 1 1/2SM 13/12 A3018 RMK T01300120 IEM_DS3505
ZGNN,2002-11-28 02:00,ZGNN 280200Z AUTO 00000KT 2SM 13/13 A3018 RMK T01300130 IEM_DS3505
ZGNN,2002-11-28 03:00,ZGNN 280300Z AUTO 00000KT 2 1/2SM 14/13 A3018 RMK SLP225 T01400131 52010 IEM_DS3505
ZGNN,2002-11-28 04:00,ZGNN 280400Z AUTO 09002KT 2 1/2SM 14/13 A3015 RMK T01400130 IEM_DS3505
ZGNN,2002-11-28 05:00,ZGNN 280500Z AUTO 4SM 14/13 A3012 RMK T01400130 IEM_DS3505
ZGNN,2002-11-28 06:00,ZGNN 280600Z AUTO 14002KT 5SM 15/13 A3009 RMK 60002 SLP194 T01470133 57031 IEM_DS3505
ZGNN,2002-11-28 07:00,ZGNN 280700Z AUTO 7SM 15/13 A3006 RMK T01500130 IEM_DS3505
ZGNN,2002-11-28 08:00,ZGNN 280800Z AUTO 7SM 15/13 A3006 RMK T01500130 IEM_DS3505
ZGNN,2002-11-28 09:00,ZGNN 280900Z AUTO 14002KT 4SM 15/14 A3006 RMK SLP183 T01540136 57010 IEM_DS3505
ZGNN,2002-11-28 10:00,ZGNN 281000Z AUTO 08002KT 4SM 15/13 A3006 RMK T01500130 IEM_DS3505
ZGNN,2002-11-28 11:00,ZGNN 281100Z AUTO 08002KT 4SM 15/13 A3006 RMK T01500130 IEM_DS3505
ZGNN,2002-11-28 12:00,ZGNN 281200Z AUTO 09002KT 3SM 15/14 A3009 RMK SLP197 T01480137 52013 IEM_DS3505
ZGNN,2002-11-28 13:00,ZGNN 281300Z AUTO 08002KT 4SM 14/13 A3012 RMK T01400130 IEM_DS3505
ZGNN,2002-11-28 14:00,ZGNN 281400Z AUTO 06002KT 4SM 14/13 A3012 RMK T01400130 IEM_DS3505
ZGNN,2002-11-28 15:00,ZGNN 281500Z AUTO 00000KT 3SM 15/13 A3012 RMK SLP205 T01460133 52008 IEM_DS3505
ZGNN,2002-11-28 16:00,ZGNN 281600Z AUTO 05002KT 2 1/2SM 14/13 A3012 RMK T01400130 IEM_DS3505
ZGNN,2002-11-28 17:00,ZGNN 281700Z AUTO 2SM 14/13 A3009 RMK T01400130 IEM_DS3505
ZGNN,2002-11-28 18:00,ZGNN 281800Z AUTO 00000KT 4SM 14/14 A3009 RMK SLP194 T01440137 57010 IEM_DS3505
ZGNN,2002-11-28 19:00,ZGNN 281900Z AUTO 2SM 14/14 A3006 RMK T01400140 IEM_DS3505
ZGNN,2002-11-28 20:00,ZGNN 282000Z AUTO 35002KT 2 1/2SM 14/13 A3006 RMK T01400130 IEM_DS3505
ZGNN,2002-11-28 21:00,ZGNN 282100Z AUTO 00000KT 4SM 14/14 A3006 RMK 70006 SLP190 T01450136 57004 IEM_DS3505
ZGNN,2002-11-28 22:00,ZGNN 282200Z AUTO 4SM 14/14 A3009 RMK T01400140 IEM_DS3505
ZGNN,2002-11-28 23:00,ZGNN 282300Z AUTO 08002KT 2 1/2SM 14/14 A3009 RMK T01400140 IEM_DS3505
ZGNN,2002-11-29 00:00,ZGNN 290000Z AUTO 00000KT 2 1/2SM 15/14 A3012 RMK 70002 SLP200 T01460141 52010 IEM_DS3505
ZGNN,2002-11-29 01:00,ZGNN 290100Z AUTO 1 1/4SM 15/14 A3012 RMK T01500140 IEM_DS3505
ZGNN,2002-11-29 02:00,ZGNN 290200Z AUTO 04004KT 1 1/2SM 15/14 A3015 RMK T01500140 IEM_DS3505
ZGNN,2002-11-29 03:00,ZGNN 290300Z AUTO 00000KT 3SM 16/15 A3015 RMK SLP212 T01610149 52012 IEM_DS3505
ZGNN,2002-11-29 04:00,ZGNN 290400Z AUTO 2SM 16/15 A3012 RMK T01600150 IEM_DS3505
ZGNN,2002-11-29 05:00,ZGNN 290500Z AUTO 2 1/2SM 16/15 A3009 RMK T01600150 IEM_DS3505
ZGNN,2002-11-29 06:00,ZGNN 290600Z AUTO 00000KT 1SM 17/15 A3006 RMK SLP185 T01660154 57027 IEM_DS3505
ZGNN,2002-11-29 07:00,ZGNN 290700Z AUTO 35004KT 1 1/4SM 16/15 A3003 RMK T01600150 IEM_DS3505
ZGNN,2002-11-29 08:00,ZGNN 290800Z AUTO 02004KT 1 1/2SM 17/15 A3003 RMK T01700150 IEM_DS3505
ZGNN,2002-11-29 09:00,ZGNN 290900Z AUTO 00000KT 2 1/2SM 17/16 RMK SLP177 T01720159 57007 IEM_DS3505
ZGNN,2002-11-29 10:00,ZGNN 291000Z AUTO 1 1/4SM 17/16 A3003 RMK T01700160 IEM_DS3505
ZGNN,2002-11-29 11:00,ZGNN 291100Z AUTO 36002KT 1 1/4SM 17/16 A3006 RMK T01700160 IEM_DS3505
ZGNN,2002-11-29 12:00,ZGNN 291200Z AUTO 34002KT 2 1/2SM 17/16 A3009 RMK SLP195 T01670162 52017 IEM_DS3505
ZGNN,2002-11-29 13:00,ZGNN 291300Z AUTO 00000KT 1 1/4SM 16/16 A3012 RMK T01600160 IEM_DS3505
ZGNN,2002-11-29 14:00,ZGNN 291400Z AUTO 00000KT 1 1/4SM 16/16 A3012 RMK T01600160 IEM_DS3505
ZGNN,2002-11-29 15:00,ZGNN 291500Z AUTO 00000KT 2 1/2SM 17/16 A3012 RMK SLP211 T01670164 52016 IEM_DS3505
ZGNN,2002-11-29 16:00,ZGNN 291600Z AUTO 00000KT 1SM 16/16 A3012 RMK T01600160 IEM_DS3505
ZGNN,2002-11-29 17:00,ZGNN 291700Z AUTO 02002KT 1SM 16/16 A3012 RMK T01600160 IEM_DS3505
ZGNN,2002-11-29 18:00,ZGNN 291800Z AUTO 00000KT 2 1/2SM 17/16 A3009 RMK SLP199 T01660163 57011 IEM_DS3505
ZGNN,2002-11-29 19:00,ZGNN 291900Z AUTO 34002KT 1 1/2SM 16/16 A3009 RMK T01600160 IEM_DS3505
ZGNN,2002-11-29 20:00,ZGNN 292000Z AUTO 00000KT 1 1/2SM 16/16 A3009 RMK T01600160 IEM_DS3505
ZGNN,2002-11-29 21:00,ZGNN 292100Z AUTO 00000KT 2 1/2SM 17/16 A3009 RMK 70000 SLP192 T01670164 57007 IEM_DS3505
ZGNN,2002-11-29 22:00,ZGNN 292200Z AUTO 5SM 17/16 A3009 RMK T01700160 IEM_DS3505
ZGNN,2002-11-29 23:00,ZGNN 292300Z AUTO 36004KT 5SM 17/16 A3009 RMK T01700160 IEM_DS3505
ZGNN,2002-11-30 00:00,ZGNN 300000Z AUTO 34004KT 4SM 17/16 A3012 RMK 70000 SLP205 T01690161 52013 IEM_DS3505
ZGNN,2002-11-30 01:00,ZGNN 300100Z AUTO 7SM 17/16 A3012 RMK T01700160 IEM_DS3505
ZGNN,2002-11-30 02:00,ZGNN 300200Z AUTO 7SM 18/16 A3015 RMK T01800160 IEM_DS3505
ZGNN,2002-11-30 03:00,ZGNN 300300Z AUTO 34004KT 9SM 19/16 A3012 RMK SLP209 T01860161 52004 IEM_DS3505
ZGNN,2002-11-30 04:00,ZGNN 300400Z AUTO 7SM 20/16 A3012 RMK T02000160 IEM_DS3505
ZGNN,2002-11-30 05:00,ZGNN 300500Z AUTO 34006KT 7SM 20/16 A3009 RMK T02000160 IEM_DS3505
ZGNN,2002-11-30 06:00,ZGNN 300600Z AUTO 34004KT 12SM 20/16 A3003 RMK SLP175 T02010160 57033 IEM_DS3505
ZGNN,2002-11-30 07:00,ZGNN 300700Z AUTO 7SM 20/16 A3000 RMK T02000160 IEM_DS3505
ZGNN,2002-11-30 08:00,ZGNN 300800Z AUTO 08002KT 7SM 20/16 A3000 RMK T02000160 IEM_DS3505
ZGNN,2002-11-30 09:00,ZGNN 300900Z AUTO 00000KT 16SM 20/18 A3000 RMK SLP167 T01960177 57008 IEM_DS3505
ZGNN,2002-11-30 10:00,ZGNN 301000Z AUTO 7SM 19/16 A3003 RMK T01900160 IEM_DS3505
ZGNN,2002-11-30 11:00,ZGNN 301100Z AUTO 36004KT 7SM 19/17 A3003 RMK T01900170 IEM_DS3505
ZGNN,2002-11-30 12:00,ZGNN 301200Z AUTO 00000KT 11SM 18/17 A3006 RMK SLP179 T01840169 52012 IEM_DS3505
ZGNN,2002-11-30 13:00,ZGNN 301300Z AUTO 7SM 18/17 A3006 RMK T01800170 IEM_DS3505
ZGNN,2002-11-30 14:00,ZGNN 301400Z AUTO 04002KT 5SM 18/16 A3006 RMK T01800160 IEM_DS3505
ZGNN,2002-11-30 15:00,ZGNN 301500Z AUTO 00000KT 9SM 18/17 A3006 RMK SLP180 T01780168 52001 IEM_DS3505
ZGNN,2002-11-30 16:00,ZGNN 301600Z AUTO 10002KT 2 1/2SM 17/17 A3003 RMK T01700170 IEM_DS3505
ZGNN,2002-11-30 17:00,ZGNN 301700Z AUTO 35002KT 2 1/2SM 17/16 A3003 RMK T01700160 IEM_DS3505
ZGNN,2002-11-30 18:00,ZGNN 301800Z AUTO 34004KT 9SM 18/16 A3003 RMK SLP167 T01750165 57013 IEM_DS3505
ZGNN,2002-11-30 19:00,ZGNN 301900Z AUTO 35002KT 3SM 17/16 A3000 RMK T01700160 IEM_DS3505
ZGNN,2002-11-30 20:00,ZGNN 302000Z AUTO 35004KT 3SM 17/16 A3000 RMK T01700160 IEM_DS3505
ZGNN,2002-11-30 21:00,ZGNN 302100Z AUTO 00000KT 7SM 17/16 A3000 RMK 70000 SLP162 T01710163 57005 IEM_DS3505
ZGNN,2002-11-30 22:00,ZGNN 302200Z AUTO 06002KT 3SM 17/16 A3000 RMK T01700160 IEM_DS3505
ZGNN,2002-11-30 23:00,ZGNN 302300Z AUTO 07004KT 3SM 16/15 A3000 RMK T01600150 IEM_DS3505
ZGNN,2002-12-01 00:00,ZGNN 010000Z AUTO 00000KT 5SM 16/15 A3000 RMK 70000 SLP168 T01610149 52005 IEM_DS3505
ZGNN,2002-12-01 01:00,ZGNN 010100Z AUTO 07002KT 2 1/2SM 16/15 A3003 RMK T01600150 IEM_DS3505
ZGNN,2002-12-01 02:00,ZGNN 010200Z AUTO 2 1/2SM 17/15 A3006 RMK T01700150 IEM_DS3505
ZGNN,2002-12-01 03:00,ZGNN 010300Z AUTO 11002KT 5SM 17/16 A3003 RMK SLP171 T01720155 52004 IEM_DS3505
ZGNN,2002-12-01 04:00,ZGNN 010400Z AUTO 3SM 17/16 A3000 RMK T01700160 IEM_DS3505
ZGNN,2002-12-01 05:00,ZGNN 010500Z AUTO 3SM 18/16 A2997 RMK T01800160 IEM_DS3505
ZGNN,2002-12-01 06:00,ZGNN 010600Z AUTO 14004KT 4SM 18/16 A2994 RMK SLP139 T01780161 57032 IEM_DS3505
ZGNN,2002-12-01 07:00,ZGNN 010700Z AUTO 2 1/2SM 17/16 A2991 RMK T01700160 IEM_DS3505
ZGNN,2002-12-01 08:00,ZGNN 010800Z AUTO 2SM 18/16 A2988 RMK T01800160 IEM_DS3505
ZGNN,2002-12-01 09:00,ZGNN 010900Z AUTO 09006KT 2 1/2SM 18/17 A2988 RMK SLP128 T01750167 57011 IEM_DS3505
ZGNN,2002-12-01 10:00,ZGNN 011000Z AUTO 07004KT 1 1/4SM 17/17 A2991 RMK T01700170 IEM_DS3505
ZGNN,2002-12-01 11:00,ZGNN 011100Z AUTO 04002KT 1SM 17/17 A2991 RMK T01700170 IEM_DS3505
ZGNN,2002-12-01 12:00,ZGNN 011200Z AUTO 07002KT 2SM 17/17 A2991 RMK SLP139 T01720170 52011 IEM_DS3505
ZGNN,2002-12-01 13:00,ZGNN 011300Z AUTO 04004KT 1SM 17/17 A2994 RMK T01700170 IEM_DS3505
ZGNN,2002-12-01 14:00,ZGNN 011400Z AUTO 05004KT 1SM 17/17 A2994 RMK T01700170 IEM_DS3505
ZGNN,2002-12-01 15:00,ZGNN 011500Z AUTO 00000KT 2 1/2SM 18/17 A2994 RMK SLP149 T01750173 52010 IEM_DS3505
ZGNN,2002-12-01 16:00,ZGNN 011600Z AUTO 03004KT 1/2SM 17/17 A2997 RMK T01700170 IEM_DS3505
ZGNN,2002-12-01 17:00,ZGNN 011700Z AUTO 03004KT 3/8SM 17/17 A2994 RMK T01700170 IEM_DS3505
ZGNN,2002-12-01 18:00,ZGNN 011800Z AUTO 00000KT 1 1/4SM 18/17 A2994 RMK SLP142 T01750173 57007 IEM_DS3505
ZGNN,2002-12-01 19:00,ZGNN 011900Z AUTO 03002KT 1/8SM 17/17 A2994 RMK T01700170 IEM_DS3505
ZGNN,2002-12-01 20:00,ZGNN 012000Z AUTO 04004KT 1/8SM 17/17 A2991 RMK T01700170 IEM_DS3505
ZGNN,2002-12-01 21:00,ZGNN 012100Z AUTO 00000KT 1 1/4SM 18/17 A2991 RMK 70000 SLP138 T01750173 57004 IEM_DS3505
ZGNN,2002-12-01 22:00,ZGNN 012200Z AUTO 02004KT 3/8SM 17/17 A2994 RMK T01700170 IEM_DS3505
ZGNN,2002-12-01 23:00,ZGNN 012300Z AUTO 02004KT 3/8SM 17/17 A2997 RMK T01700170 IEM_DS3505
ZGNN,2002-12-02 00:00,ZGNN 020000Z AUTO 00000KT 1/4SM 18/18 A2997 RMK 70000 SLP155 T01770177 52017 IEM_DS3505
ZGNN,2002-12-02 01:00,ZGNN 020100Z AUTO 1SM 18/18 A3000 RMK T01800180 IEM_DS3505
ZGNN,2002-12-02 02:00,ZGNN 020200Z AUTO 06004KT 1SM 18/18 A3000 RMK T01800180 IEM_DS3505
ZGNN,2002-12-02 03:00,ZGNN 020300Z AUTO 00000KT 1SM 19/19 A3000 RMK SLP165 T01920186 52010 IEM_DS3505
ZGNN,2002-12-02 04:00,ZGNN 020400Z AUTO 1 1/4SM 20/19 A2997 RMK T02000190 IEM_DS3505
ZGNN,2002-12-02 05:00,ZGNN 020500Z AUTO 2 1/2SM 21/19 A2997 RMK T02100190 IEM_DS3505
ZGNN,2002-12-02 06:00,ZGNN 020600Z AUTO 36002KT 4SM 24/21 A2991 RMK SLP133 T02370207 57030 IEM_DS3505
ZGNN,2002-12-02 07:00,ZGNN 020700Z AUTO 7SM 25/21 A2988 RMK T02500210 IEM_DS3505
ZGNN,2002-12-02 08:00,ZGNN 020800Z AUTO 7SM 25/21 A2988 RMK T02500210 IEM_DS3505
ZGNN,2002-12-02 09:00,ZGNN 020900Z AUTO 02004KT 7SM 24/22 A2988 RMK SLP121 T02430215 57012 IEM_DS3505
ZGNN,2002-12-02 10:00,ZGNN 021000Z AUTO 36004KT 7SM 24/21 A2988 RMK T02400210 IEM_DS3505
ZGNN,2002-12-02 11:00,ZGNN 021100Z AUTO 4SM 23/21 A2991 RMK T02300210 IEM_DS3505
ZGNN,2002-12-02 12:00,ZGNN 021200Z AUTO 00000KT 5SM 22/21 A2994 RMK SLP142 T02160208 52020 IEM_DS3505
ZGNN,2002-12-02 13:00,ZGNN 021300Z AUTO 1 1/4SM 20/20 A2994 RMK T02000200 IEM_DS3505
ZGNN,2002-12-02 14:00,ZGNN 021400Z AUTO 00000KT 1SM 20/19 A2994 RMK T02000190 IEM_DS3505
ZGNN,2002-12-02 15:00,ZGNN 021500Z AUTO 00000KT 5SM 19/19 A2994 RMK SLP147 T01920190 52005 IEM_DS3505
ZGNN,2002-12-02 16:00,ZGNN 021600Z AUTO 36002KT 1SM 19/19 A2997 RMK T01900190 IEM_DS3505
ZGNN,2002-12-02 17:00,ZGNN 021700Z AUTO 35002KT 1/2SM 20/19 A2997 RMK T02000190 IEM_DS3505
ZGNN,2002-12-02 18:00,ZGNN 021800Z AUTO 14002KT 4SM 19/19 A2997 RMK SLP149 T01890189 52003 IEM_DS3505
ZGNN,2002-12-02 19:00,ZGNN 021900Z AUTO 00000KT 1/8SM 19/19 A2997 RMK T01900190 IEM_DS3505
ZGNN,2002-12-02 20:00,ZGNN 022000Z AUTO 00000KT 1/8SM 20/19 A2994 RMK T02000190 IEM_DS3505
ZGNN,2002-12-02 21:00,ZGNN 022100Z AUTO 00000KT 3/8SM 20/20 A2997 RMK SLP147 T01990199 57002 IEM_DS3505
ZGNN,2002-12-02 22:00,ZGNN 022200Z AUTO 00000KT 1/8SM 20/20 A2997 RMK T02000200 IEM_DS3505
ZGNN,2002-12-02 23:00,ZGNN 022300Z AUTO 00000KT 1/8SM 20/20 A3000 RMK T02000200 IEM_DS3505
ZGNN,2002-12-03 00:00,ZGNN 030000Z AUTO 00000KT 1/8SM 20/20 A3003 RMK SLP166 T02020202 52018 IEM_DS3505
ZGNN,2002-12-03 01:00,ZGNN 030100Z AUTO 1/8SM 20/20 A3003 RMK T02000200 IEM_DS3505
ZGNN,2002-12-03 02:00,ZGNN 030200Z AUTO 1 1/4SM 21/21 A3006 RMK T02100210 IEM_DS3505
ZGNN,2002-12-03 03:00,ZGNN 030300Z AUTO 07002KT 2SM 22/21 A3006 RMK SLP177 T02220211 52011 IEM_DS3505
ZGNN,2002-12-03 04:00,ZGNN 030400Z AUTO 7SM 25/22 A3003 RMK T02500220 IEM_DS3505
ZGNN,2002-12-03 05:00,ZGNN 030500Z AUTO 7SM 27/21 A3000 RMK T02700210 IEM_DS3505
ZGNN,2002-12-03 06:00,ZGNN 030600Z AUTO 07004KT 9SM 26/23 A2997 RMK SLP147 T02600229 57029 IEM_DS3505
ZGNN,2002-12-03 07:00,ZGNN 030700Z AUTO 7SM 26/21 A2994 RMK T02600210 IEM_DS3505
ZGNN,2002-12-03 08:00,ZGNN 030800Z AUTO 7SM 27/21 A2991 RMK T02700210 IEM_DS3505
ZGNN,2002-12-03 09:00,ZGNN 030900Z AUTO 09004KT 11SM 26/22 A2991 RMK SLP132 T02580216 57014 IEM_DS3505
ZGNN,2002-12-03 10:00,ZGNN 031000Z AUTO 07006KT 5SM 24/21 A2994 RMK T02400210 IEM_DS3505
ZGNN,2002-12-03 11:00,ZGNN 031100Z AUTO 07006KT 4SM 22/21 A2994 RMK T02200210 IEM_DS3505
ZGNN,2002-12-03 12:00,ZGNN 031200Z AUTO 09004KT 10SM 22/19 A2997 RMK SLP154 T02170194 52021 IEM_DS3505
ZGNN,2002-12-03 13:00,ZGNN 031300Z AUTO 07006KT 4SM 21/19 A2997 RMK T02100190 IEM_DS3505
ZGNN,2002-12-03 14:00,ZGNN 031400Z AUTO 07008KT 4SM 20/18 A3000 RMK T02000180 IEM_DS3505
ZGNN,2002-12-03 15:00,ZGNN 031500Z AUTO 09002KT 9SM 20/18 A3000 RMK SLP162 T02030184 52008 IEM_DS3505
ZGNN,2002-12-03 16:00,ZGNN 031600Z AUTO 06006KT 4SM 20/18 A3000 RMK T02000180 IEM_DS3505
ZGNN,2002-12-03 17:00,ZGNN 031700Z AUTO 05004KT 2 1/2SM 20/18 A3000 RMK T02000180 IEM_DS3505
ZGNN,2002-12-03 18:00,ZGNN 031800Z AUTO 09004KT 7SM 20/18 A2997 RMK SLP153 T02000182 57008 IEM_DS3505
ZGNN,2002-12-03 19:00,ZGNN 031900Z AUTO 04004KT 2 1/2SM 19/18 A2997 RMK T01900180 IEM_DS3505
ZGNN,2002-12-03 20:00,ZGNN 032000Z AUTO 05004KT 2SM 19/18 A2997 RMK T01900180 IEM_DS3505
ZGNN,2002-12-03 21:00,ZGNN 032100Z AUTO 00000KT 9SM 20/19 A2994 RMK SLP145 T01980189 57008 IEM_DS3505
ZGNN,2002-12-03 22:00,ZGNN 032200Z AUTO 02004KT 1 1/2SM 19/19 A2997 RMK T01900190 IEM_DS3505
ZGNN,2002-12-03 23:00,ZGNN 032300Z AUTO 03002KT 1SM 19/19 A2997 RMK T01900190 IEM_DS3505
ZGNN,2002-12-04 00:00,ZGNN 040000Z AUTO 00000KT 2SM 20/20 A3000 RMK SLP161 T02030195 52014 IEM_DS3505
ZGNN,2002-12-04 01:00,ZGNN 040100Z AUTO 12004KT 2SM 21/20 A3000 RMK T02100200 IEM_DS3505
ZGNN,2002-12-04 02:00,ZGNN 040200Z AUTO 15006KT 7SM 23/21 A3003 RMK T02300210 IEM_DS3505
ZGNN,2002-12-04 03:00,ZGNN 040300Z AUTO 14008KT 9SM 25/22 A3000 RMK SLP164 T02530216 52004 IEM_DS3505
ZGNN,2002-12-04 04:00,ZGNN 040400Z AUTO 14008KT 7SM 25/21 A3000 RMK T02500210 IEM_DS3505
ZGNN,2002-12-04 05:00,ZGNN 040500Z AUTO 13008KT 7SM 25/21 A2994 RMK T02500210 IEM_DS3505
ZGNN,2002-12-04 06:00,ZGNN 040600Z AUTO 18010KT 16SM 27/21 A2991 RMK SLP127 T02710210 57036 IEM_DS3505
ZGNN,2002-12-04 07:00,ZGNN 040700Z AUTO 16010KT 7SM 28/21 A2985 RMK T02800210 IEM_DS3505
ZGNN,2002-12-04 08:00,ZGNN 040800Z AUTO 15010KT 7SM 27/21 A2985 RMK T02700210 IEM_DS3505
ZGNN,2002-12-04 09:00,ZGNN 040900Z AUTO 14006KT 16SM 26/21 A2985 RMK SLP110 T02650210 57017 IEM_DS3505
ZGNN,2002-12-04 10:00,ZGNN 041000Z AUTO 14012KT 6SM 25/21 A2985 RMK T02500210 IEM_DS3505
ZGNN,2002-12-04 11:00,ZGNN 041100Z AUTO 15010KT 6SM 24/21 A2988 RMK T02400210 IEM_DS3505
ZGNN,2002-12-04 12:00,ZGNN 041200Z AUTO 27004KT 14SM 23/21 A2991 RMK SLP130 T02290211 52019 IEM_DS3505
ZGNN,2002-12-04 13:00,ZGNN 041300Z AUTO 00000KT 6SM 22/20 A2991 RMK T02200200 IEM_DS3505
ZGNN,2002-12-04 14:00,ZGNN 041400Z AUTO 00000KT 6SM 21/20 A2991 RMK T02100200 IEM_DS3505
ZGNN,2002-12-04 15:00,ZGNN 041500Z AUTO 00000KT 12SM 21/20 A2991 RMK SLP137 T02130204 52008 IEM_DS3505
ZGNN,2002-12-04 16:00,ZGNN 041600Z AUTO 6SM 20/19 A2994 RMK T02000190 IEM_DS3505
ZGNN,2002-12-04 17:00,ZGNN 041700Z AUTO 27002KT 6SM 19/19 A2994 RMK T01900190 IEM_DS3505
ZGNN,2002-12-04 18:00,ZGNN 041800Z AUTO 00000KT 11SM 20/20 A2991 RMK SLP135 T02000195 57002 IEM_DS3505
ZGNN,2002-12-04 19:00,ZGNN 041900Z AUTO 01002KT 1/4SM 18/18 A2991 RMK T01800180 IEM_DS3505
ZGNN,2002-12-04 20:00,ZGNN 042000Z AUTO 00000KT 1 1/2SM 20/19 A2991 RMK T02000190 IEM_DS3505
ZGNN,2002-12-04 21:00,ZGNN 042100Z AUTO 00000KT 9SM 20/20 A2988 RMK SLP125 T02050200 57010 IEM_DS3505
ZGNN,2002-12-04 22:00,ZGNN 042200Z AUTO 13002KT 4SM 20/20 A2991 RMK T02000200 IEM_DS3505
ZGNN,2002-12-04 23:00,ZGNN 042300Z AUTO 13002KT 7SM 21/20 A2991 RMK T02100200 IEM_DS3505
ZGNN,2002-12-05 00:00,ZGNN 050000Z AUTO 00000KT 4SM 22/21 A2994 RMK SLP142 T02150207 52016 IEM_DS3505
ZGNN,2002-12-05 01:00,ZGNN 050100Z AUTO 7SM 23/21 A2994 RMK T02300210 IEM_DS3505
ZGNN,2002-12-05 02:00,ZGNN 050200Z AUTO 16006KT 7SM 24/21 A2997 RMK T02400210 IEM_DS3505
ZGNN,2002-12-05 03:00,ZGNN 050300Z AUTO 18004KT 12SM 26/22 A2997 RMK SLP148 T02610218 52007 IEM_DS3505
ZGNN,2002-12-05 04:00,ZGNN 050400Z AUTO 17008KT 7SM 27/21 A2994 RMK T02700210 IEM_DS3505
ZGNN,2002-12-05 05:00,ZGNN 050500Z AUTO 19006KT 7SM 27/21 A2991 RMK T02700210 IEM_DS3505
ZGNN,2002-12-05 06:00,ZGNN 050600Z AUTO 18006KT 19SM 28/21 RMK SLP114 T02850207 57033 IEM_DS3505
ZGNN,2002-12-05 07:00,ZGNN 050700Z AUTO 15008KT 7SM 28/21 A2985 RMK T02800210 IEM_DS3505
ZGNN,2002-12-05 08:00,ZGNN 050800Z AUTO 14010KT 7SM 28/21 A2983 RMK T02800210 IEM_DS3505
ZGNN,2002-12-05 09:00,ZGNN 050900Z AUTO 14006KT 19SM 28/21 A2983 RMK SLP102 T02750214 57012 IEM_DS3505
ZGNN,2002-12-05 10:00,ZGNN 051000Z AUTO 14008KT 7SM 26/21 A2983 RMK T02600210 IEM_DS3505
ZGNN,2002-12-05 11:00,ZGNN 051100Z AUTO 14008KT 6SM 24/21 A2985 RMK T02400210 IEM_DS3505
ZGNN,2002-12-05 12:00,ZGNN 051200Z AUTO 18006KT 19SM 24/22 A2988 RMK SLP120 T02390215 52017 IEM_DS3505
ZGNN,2002-12-05 13:00,ZGNN 051300Z AUTO 15006KT 6SM 23/21 A2988 RMK T02300210 IEM_DS3505
ZGNN,2002-12-05 14:00,ZGNN 051400Z AUTO 6SM 23/21 A2991 RMK T02300210 IEM_DS3505
ZGNN,2002-12-05 16:00,ZGNN 051600Z AUTO 00000KT 4SM 21/20 A2991 RMK T02100200 IEM_DS3505
ZGNN,2002-12-05 17:00,ZGNN 051700Z AUTO 00000KT 5SM 20/20 A2991 RMK T02000200 IEM_DS3505
ZGNN,2002-12-05 18:00,ZGNN 051800Z AUTO 00000KT 12SM 20/20 A2991 RMK SLP131 T02020199 57002 IEM_DS3505
ZGNN,2002-12-05 19:00,ZGNN 051900Z AUTO 01002KT 3SM 20/20 A2991 RMK T02000200 IEM_DS3505
ZGNN,2002-12-05 20:00,ZGNN 052000Z AUTO 04002KT 3SM 20/20 A2988 RMK T02000200 IEM_DS3505
ZGNN,2002-12-05 21:00,ZGNN 052100Z AUTO 00000KT 9SM 21/21 A2991 RMK SLP124 T02120206 57007 IEM_DS3505
ZGNN,2002-12-05 22:00,ZGNN 052200Z AUTO 00000KT 6SM 20/20 A2988 RMK T02000200 IEM_DS3505
ZGNN,2002-12-05 23:00,ZGNN 052300Z AUTO 6SM 21/20 A2991 RMK T02100200 IEM_DS3505
ZGNN,2002-12-06 00:00,ZGNN 060000Z AUTO 00000KT 4SM 21/20 A2994 RMK SLP139 T02070205 52013 IEM_DS3505
ZGNN,2002-12-06 01:00,ZGNN 060100Z AUTO 7SM 23/22 A2994 RMK T02300220 IEM_DS3505
ZGNN,2002-12-06 02:00,ZGNN 060200Z AUTO 17008KT 7SM 25/22 A2997 RMK T02500220 IEM_DS3505
ZGNN,2002-12-06 03:00,ZGNN 060300Z AUTO 18006KT 19SM 26/23 A2994 RMK SLP145 T02630226 52007 IEM_DS3505
ZGNN,2002-12-06 04:00,ZGNN 060400Z AUTO 18008KT 7SM 27/21 A2994 RMK T02700210 IEM_DS3505
ZGNN,2002-12-06 05:00,ZGNN 060500Z AUTO 16006KT 7SM 28/21 A2988 RMK T02800210 IEM_DS3505
ZGNN,2002-12-06 06:00,ZGNN 060600Z AUTO 18006KT 19SM 29/22 A2985 RMK SLP111 T02910219 57033 IEM_DS3505
ZGNN,2002-12-06 07:00,ZGNN 060700Z AUTO 14008KT 7SM 29/22 A2983 RMK T02900220 IEM_DS3505
ZGNN,2002-12-06 08:00,ZGNN 060800Z AUTO 15008KT 7SM 28/22 A2980 RMK T02800220 IEM_DS3505
ZGNN,2002-12-06 09:00,ZGNN 060900Z AUTO 18006KT 19SM 28/23 A2980 RMK SLP097 T02850229 57014 IEM_DS3505
ZGNN,2002-12-06 10:00,ZGNN 061000Z AUTO 14008KT 7SM 26/22 A2983 RMK T02600220 IEM_DS3505
ZGNN,2002-12-06 11:00,ZGNN 061100Z AUTO 15006KT 7SM 25/22 A2985 RMK T02500220 IEM_DS3505
ZGNN,2002-12-06 12:00,ZGNN 061200Z AUTO 14002KT 19SM 24/22 A2985 RMK SLP116 T02430218 52018 IEM_DS3505
ZGNN,2002-12-06 13:00,ZGNN 061300Z AUTO 16006KT 7SM 23/21 A2988 RMK T02300210 IEM_DS3505
ZGNN,2002-12-06 14:00,ZGNN 061400Z AUTO 17004KT 7SM 23/21 A2991 RMK T02300210 IEM_DS3505
ZGNN,2002-12-06 15:00,ZGNN 061500Z AUTO 18002KT 12SM 23/22 A2991 RMK SLP127 T02270215 52012 IEM_DS3505
ZGNN,2002-12-06 16:00,ZGNN 061600Z AUTO 00000KT 5SM 21/20 A2991 RMK T02100200 IEM_DS3505
ZGNN,2002-12-06 17:00,ZGNN 061700Z AUTO 36002KT 3SM 21/20 A2991 RMK T02100200 IEM_DS3505
ZGNN,2002-12-06 18:00,ZGNN 061800Z AUTO 00000KT 9SM 20/20 A2991 RMK SLP125 T02050203 57002 IEM_DS3505
ZGNN,2002-12-06 19:00,ZGNN 061900Z AUTO 01002KT 3SM 21/20 A2988 RMK T02100200 IEM_DS3505
ZGNN,2002-12-06 20:00,ZGNN 062000Z AUTO 02002KT 3SM 21/21 A2988 RMK T02100210 IEM_DS3505
ZGNN,2002-12-06 21:00,ZGNN 062100Z AUTO 00000KT 9SM 22/21 A2988 RMK SLP124 T02210213 57001 IEM_DS3505
ZGNN,2002-12-06 22:00,ZGNN 062200Z AUTO 00000KT 7SM 21/21 A2988 RMK T02100210 IEM_DS3505
ZGNN,2002-12-06 23:00,ZGNN 062300Z AUTO 7SM 21/21 A2991 RMK T02100210 IEM_DS3505
ZGNN,2002-12-07 00:00,ZGNN 070000Z AUTO 00000KT 4SM 22/22 A2991 RMK SLP138 T02230219 52013 IEM_DS3505
ZGNN,2002-12-07 01:00,ZGNN 070100Z AUTO 03002KT 7SM 23/22 A2994 RMK T02300220 IEM_DS3505
ZGNN,2002-12-07 02:00,ZGNN 070200Z AUTO 12004KT 7SM 24/22 A2997 RMK T02400220 IEM_DS3505
ZGNN,2002-12-07 03:00,ZGNN 070300Z AUTO 18004KT 7SM 25/23 A2997 RMK SLP152 T02530228 52014 IEM_DS3505
ZGNN,2002-12-07 04:00,ZGNN 070400Z AUTO 7SM 27/22 A2997 RMK T02700220 IEM_DS3505
ZGNN,2002-12-07 05:00,ZGNN 070500Z AUTO 7SM 28/23 A2991 RMK T02800230 IEM_DS3505
ZGNN,2002-12-07 06:00,ZGNN 070600Z AUTO 09002KT 16SM 29/23 A2988 RMK SLP117 T02880226 57034 IEM_DS3505
ZGNN,2002-12-07 07:00,ZGNN 070700Z AUTO 7SM 29/22 A2985 RMK T02900220 IEM_DS3505
ZGNN,2002-12-07 08:00,ZGNN 070800Z AUTO 11006KT 7SM 28/22 A2985 RMK T02800220 IEM_DS3505
ZGNN,2002-12-07 09:00,ZGNN 070900Z AUTO 09006KT 16SM 28/22 A2985 RMK SLP113 T02810224 57004 IEM_DS3505
ZGNN,2002-12-07 10:00,ZGNN 071000Z AUTO 08012KT 7SM 22/18 A2991 RMK T02200180 IEM_DS3505
ZGNN,2002-12-07 11:00,ZGNN 071100Z AUTO 06012KT 4SM 19/15 A2994 RMK T01900150 IEM_DS3505
ZGNN,2002-12-07 12:00,ZGNN 071200Z AUTO 04006KT 12SM 18/14 A3000 RMK SLP165 T01760143 52049 IEM_DS3505
ZGNN,2002-12-07 13:00,ZGNN 071300Z AUTO 05012KT 4SM 16/13 A3003 RMK T01600130 IEM_DS3505
ZGNN,2002-12-07 14:00,ZGNN 071400Z AUTO 05012KT 7SM 15/12 A3009 RMK T01500120 IEM_DS3505
ZGNN,2002-12-07 15:00,ZGNN 071500Z AUTO 07004KT 9SM 14/10 A3012 RMK SLP205 T01360099 52039 IEM_DS3505
ZGNN,2002-12-07 16:00,ZGNN 071600Z AUTO 05010KT 4SM 12/11 A3012 RMK T01200110 IEM_DS3505
ZGNN,2002-12-07 17:00,ZGNN 071700Z AUTO 05008KT 1SM 11/11 A3015 RMK T01100110 IEM_DS3505
ZGNN,2002-12-07 18:00,ZGNN 071800Z AUTO 05008KT 1 1/4SM 11/11 A3018 RMK T01100110 IEM_DS3505
ZGNN,2002-12-07 19:00,ZGNN 071900Z AUTO 04006KT 2SM 12/11 A3018 RMK T01200110 IEM_DS3505
ZGNN,2002-12-07 20:00,ZGNN 072000Z AUTO 01010KT 4SM 11/09 A3018 RMK T01100090 IEM_DS3505
ZGNN,2002-12-07 21:00,ZGNN 072100Z AUTO 36010KT 5SM 11/08 A3021 RMK 70001 SLP238 T01110080 52018 IEM_DS3505
ZGNN,2002-12-07 22:00,ZGNN 072200Z AUTO 35010KT 7SM 11/07 A3024 RMK T01100070 IEM_DS3505
ZGNN,2002-12-07 23:00,ZGNN 072300Z AUTO 36016KT 7SM 11/07 A3027 RMK T01100070 IEM_DS3505
ZGNN,2002-12-08 00:00,ZGNN 080000Z AUTO 34012G21KT 11SM 11/06 A3033 RMK 70001 SLP275 T01090057 52033 IEM_DS3505
ZGNN,2002-12-08 01:00,ZGNN 080100Z AUTO 36012KT 7SM 11/06 A3036 RMK T01100060 IEM_DS3505
ZGNN,2002-12-08 02:00,ZGNN 080200Z AUTO 01010KT 7SM 11/05 A3039 RMK T01100050 IEM_DS3505
ZGNN,2002-12-08 03:00,ZGNN 080300Z AUTO 36010KT 19SM 11/04 A3039 RMK SLP302 T01140045 52026 IEM_DS3505
ZGNN,2002-12-08 04:00,ZGNN 080400Z AUTO 36014KT 7SM 12/05 A3039 RMK T01200050 IEM_DS3505
ZGNN,2002-12-08 05:00,ZGNN 080500Z AUTO 36014KT 7SM 13/05 A3036 RMK T01300050 IEM_DS3505
ZGNN,2002-12-08 06:00,ZGNN 080600Z AUTO 34012KT 19SM 13/04 A3033 RMK SLP274 T01270038 57028 IEM_DS3505
ZGNN,2002-12-08 07:00,ZGNN 080700Z AUTO 01016KT 7SM 13/04 A3030 RMK T01300040 IEM_DS3505
ZGNN,2002-12-08 08:00,ZGNN 080800Z AUTO 01014KT 7SM 13/04 A3030 RMK T01300040 IEM_DS3505
ZGNN,2002-12-08 09:00,ZGNN 080900Z AUTO 36008KT 19SM 13/04 A3030 RMK SLP268 T01300042 57006 IEM_DS3505
ZGNN,2002-12-08 10:00,ZGNN 081000Z AUTO 36012KT 6SM 13/04 A3030 RMK T01300040 IEM_DS3505
ZGNN,2002-12-08 11:00,ZGNN 081100Z AUTO 36010KT 6SM 12/03 A3033 RMK T01200030 IEM_DS3505
ZGNN,2002-12-08 12:00,ZGNN 081200Z AUTO 36006KT 17SM 12/04 A3036 RMK SLP287 T01160043 52019 IEM_DS3505
ZGNN,2002-12-08 13:00,ZGNN 081300Z AUTO 36012KT 6SM 12/03 A3039 RMK T01200030 IEM_DS3505
ZGNN,2002-12-08 14:00,ZGNN 081400Z AUTO 01008KT 6SM 11/04 A3039 RMK T01100040 IEM_DS3505
ZGNN,2002-12-08 15:00,ZGNN 081500Z AUTO 02004KT 16SM 11/05 A3042 RMK SLP305 T01090050 52017 IEM_DS3505
ZGNN,2002-12-08 18:00,ZGNN 081800Z AUTO 02004KT 16SM 11/02 RMK SLP304 T01070019 54000 IEM_DS3505
ZGNN,2002-12-08 21:00,ZGNN 082100Z AUTO 34008KT 16SM 10/02 A3039 RMK 70000 SLP303 T00970021 57002 IEM_DS3505
ZGNN,2002-12-08 22:00,ZGNN 082200Z AUTO 36004KT 6SM 10/03 A3039 RMK T01000030 IEM_DS3505
ZGNN,2002-12-08 23:00,ZGNN 082300Z AUTO 03004KT 6SM 09/03 A3042 RMK T00900030 IEM_DS3505
ZGNN,2002-12-09 00:00,ZGNN 090000Z AUTO 00000KT 16SM 10/03 A3042 RMK SLP315 T00950027 52012 IEM_DS3505
ZGNN,2002-12-09 01:00,ZGNN 090100Z AUTO 6SM 10/02 A3045 RMK T01000020 IEM_DS3505
ZGNN,2002-12-09 02:00,ZGNN 090200Z AUTO 35008KT 6SM 11/01 A3045 RMK T01100010 IEM_DS3505
ZGNN,2002-12-09 03:00,ZGNN 090300Z AUTO 34008KT 16SM 12/01 A3045 RMK SLP315 T01160007 54000 IEM_DS3505
ZGNN,2002-12-09 04:00,ZGNN 090400Z AUTO 01008KT 6SM 12/01 A3042 RMK T01200010 IEM_DS3505
ZGNN,2002-12-09 05:00,ZGNN 090500Z AUTO 35006KT 6SM 13/01 A3036 RMK T01300010 IEM_DS3505
ZGNN,2002-12-09 06:00,ZGNN 090600Z AUTO 34008KT 17SM 14/02 A3033 RMK SLP276 T01350023 57038 IEM_DS3505
ZGNN,2002-12-09 07:00,ZGNN 090700Z AUTO 34006KT 6SM 14/M01 A3030 RMK T01401010 IEM_DS3505
ZGNN,2002-12-09 08:00,ZGNN 090800Z AUTO 35006KT 6SM 14/01 A3027 RMK T01400010 IEM_DS3505
ZGNN,2002-12-09 09:00,ZGNN 090900Z AUTO 02004KT 19SM 14/02 A3027 RMK SLP258 T01390017 57018 IEM_DS3505
ZGNN,2002-12-09 10:00,ZGNN 091000Z AUTO 03006KT 6SM 14/02 A3027 RMK T01400020 IEM_DS3505
ZGNN,2002-12-09 11:00,ZGNN 091100Z AUTO 6SM 13/02 A3027 RMK T01300020 IEM_DS3505
ZGNN,2002-12-09 12:00,ZGNN 091200Z AUTO 04002KT 17SM 12/04 A3030 RMK SLP264 T01230041 52006 IEM_DS3505
ZGNN,2002-12-09 13:00,ZGNN 091300Z AUTO 06004KT 6SM 11/03 A3030 RMK T01100030 IEM_DS3505
ZGNN,2002-12-09 14:00,ZGNN 091400Z AUTO 05002KT 6SM 12/04 A3030 RMK T01200040 IEM_DS3505
ZGNN,2002-12-09 15:00,ZGNN 091500Z AUTO 00000KT 16SM 12/05 A3030 RMK SLP271 T01180051 52007 IEM_DS3505
ZGNN,2002-12-09 16:00,ZGNN 091600Z AUTO 7SM 11/04 A3030 RMK T01100040 IEM_DS3505
ZGNN,2002-12-09 17:00,ZGNN 091700Z AUTO 12002KT 7SM 11/05 A3030 RMK T01100050 IEM_DS3505
ZGNN,2002-12-09 18:00,ZGNN 091800Z AUTO 00000KT 12SM 12/06 A3027 RMK SLP258 T01150057 57012 IEM_DS3505
ZGNN,2002-12-09 19:00,ZGNN 091900Z AUTO 02002KT 5SM 11/05 A3027 RMK T01100050 IEM_DS3505
ZGNN,2002-12-09 20:00,ZGNN 092000Z AUTO 02004KT 6SM 11/04 A3024 RMK T01100040 IEM_DS3505
ZGNN,2002-12-09 21:00,ZGNN 092100Z AUTO 00000KT 11SM 11/05 A3024 RMK SLP246 T01140051 57012 IEM_DS3505
ZGNN,2002-12-09 22:00,ZGNN 092200Z AUTO 06004KT 6SM 11/04 A3024 RMK T01100040 IEM_DS3505
ZGNN,2002-12-09 23:00,ZGNN 092300Z AUTO 05002KT 6SM 11/05 A3024 RMK T01100050 IEM_DS3505
ZGNN,2002-12-10 00:00,ZGNN 100000Z AUTO 00000KT 6SM 12/05 A3027 RMK SLP261 T01150049 52014 IEM_DS3505
ZGNN,2002-12-10 01:00,ZGNN 100100Z AUTO 05004KT 6SM 12/04 A3030 RMK T01200040 IEM_DS3505
ZGNN,2002-12-10 02:00,ZGNN 100200Z AUTO 6SM 12/04 A3033 RMK T01200040 IEM_DS3505
ZGNN,2002-12-10 03:00,ZGNN 100300Z AUTO 00000KT 7SM 13/05 A3030 RMK SLP271 T01290054 52010 IEM_DS3505
ZGNN,2002-12-10 04:00,ZGNN 100400Z AUTO 06006KT 6SM 13/03 A3030 RMK T01300030 IEM_DS3505
ZGNN,2002-12-10 05:00,ZGNN 100500Z AUTO 05006KT 7SM 14/03 A3024 RMK T01400030 IEM_DS3505
ZGNN,2002-12-10 06:00,ZGNN 100600Z AUTO 07002KT 7SM 13/05 RMK SLP240 T01310054 57030 IEM_DS3505
ZGNN,2002-12-10 07:00,ZGNN 100700Z AUTO 04006KT 7SM 14/04 A3021 RMK T01400040 IEM_DS3505
ZGNN,2002-12-10 08:00,ZGNN 100800Z AUTO 06006KT 7SM 13/03 A3018 RMK T01300030 IEM_DS3505
ZGNN,2002-12-10 09:00,ZGNN 100900Z AUTO 00000KT 7SM 13/05 A3018 RMK SLP232 T01330054 57008 IEM_DS3505
ZGNN,2002-12-10 10:00,ZGNN 101000Z AUTO 06002KT 7SM 13/05 A3021 RMK T01300050 IEM_DS3505
ZGNN,2002-12-10 11:00,ZGNN 101100Z AUTO 3SM 11/09 A3021 RMK T01100090 IEM_DS3505
ZGNN,2002-12-10 12:00,ZGNN 101200Z AUTO 36004KT 7SM 10/08 A3024 RMK 60002 SLP242 T01040081 52009 IEM_DS3505
ZGNN,2002-12-10 13:00,ZGNN 101300Z AUTO 3SM 10/08 A3024 RMK T01000080 IEM_DS3505
ZGNN,2002-12-10 14:00,ZGNN 101400Z AUTO 36004KT 3SM 10/08 A3024 RMK T01000080 IEM_DS3505
ZGNN,2002-12-10 15:00,ZGNN 101500Z AUTO 04002KT 7SM 10/09 A3024 RMK SLP250 T01040088 52008 IEM_DS3505
ZGNN,2002-12-10 16:00,ZGNN 101600Z AUTO 03002KT 2 1/2SM 10/08 A3027 RMK T01000080 IEM_DS3505
ZGNN,2002-12-10 17:00,ZGNN 101700Z AUTO 2SM 10/08 A3024 RMK T01000080 IEM_DS3505
ZGNN,2002-12-10 18:00,ZGNN 101800Z AUTO 00000KT 6SM 10/09 A3024 RMK 60004 SLP249 T00960086 57001 IEM_DS3505
ZGNN,2002-12-10 19:00,ZGNN 101900Z AUTO 34004KT 1SM 09/09 A3024 RMK T00900090 IEM_DS3505
ZGNN,2002-12-10 20:00,ZGNN 102000Z AUTO 33004KT 1SM 09/09 A3024 RMK T00900090 IEM_DS3505
ZGNN,2002-12-10 21:00,ZGNN 102100Z AUTO 2 1/2SM 09/09 A3024 RMK T00900090 IEM_DS3505
ZGNN,2002-12-10 22:00,ZGNN 102200Z AUTO 34004KT 2 1/2SM 09/09 A3024 RMK T00900090 IEM_DS3505
ZGNN,2002-12-10 23:00,ZGNN 102300Z AUTO 2 1/2SM 09/09 A3027 RMK T00900090 IEM_DS3505
ZGNN,2002-12-11 00:00,ZGNN 110000Z AUTO 34004KT 2 1/2SM 10/09 A3030 RMK 60035 70043 SLP267 T00990091 52015 IEM_DS3505
ZGNN,2002-12-11 01:00,ZGNN 110100Z AUTO 31004KT 2 1/2SM 10/09 A3033 RMK T01000090 IEM_DS3505
ZGNN,2002-12-11 02:00,ZGNN 110200Z AUTO 32004KT 2 1/2SM 10/09 A3033 RMK T01000090 IEM_DS3505
ZGNN,2002-12-11 03:00,ZGNN 110300Z AUTO 32004KT 2 1/2SM 11/10 A3033 RMK SLP277 T01080098 52010 IEM_DS3505
ZGNN,2002-12-11 04:00,ZGNN 110400Z AUTO 31004KT 4SM 11/10 A3030 RMK T01100100 IEM_DS3505
ZGNN,2002-12-11 05:00,ZGNN 110500Z AUTO 7SM 12/10 A3027 RMK T01200100 IEM_DS3505
ZGNN,2002-12-11 06:00,ZGNN 110600Z AUTO 36004KT 7SM 13/09 A3024 RMK 60012 SLP247 T01290094 57029 IEM_DS3505
ZGNN,2002-12-11 07:00,ZGNN 110700Z AUTO 35006KT 5SM 14/10 A3024 RMK T01400100 IEM_DS3505
ZGNN,2002-12-11 08:00,ZGNN 110800Z AUTO 7SM 14/09 A3021 RMK T01400090 IEM_DS3505
ZGNN,2002-12-11 09:00,ZGNN 110900Z AUTO 02002KT 9SM 14/09 A3024 RMK SLP245 T01400091 57002 IEM_DS3505
ZGNN,2002-12-11 10:00,ZGNN 111000Z AUTO 06004KT 5SM 12/09 A3024 RMK T01200090 IEM_DS3505
ZGNN,2002-12-11 11:00,ZGNN 111100Z AUTO 03002KT 4SM 11/10 A3027 RMK T01100100 IEM_DS3505
ZGNN,2002-12-11 12:00,ZGNN 111200Z AUTO 00000KT 9SM 10/09 A3027 RMK SLP266 T00970089 52020 IEM_DS3505
ZGNN,2002-12-11 13:00,ZGNN 111300Z AUTO 00000KT 2SM 10/09 A3030 RMK T01000090 IEM_DS3505
ZGNN,2002-12-11 14:00,ZGNN 111400Z AUTO 29004KT 2 1/2SM 09/09 A3033 RMK T00900090 IEM_DS3505
ZGNN,2002-12-11 15:00,ZGNN 111500Z AUTO 00000KT 9SM 08/07 A3033 RMK SLP280 T00760074 52014 IEM_DS3505
ZGNN,2002-12-11 16:00,ZGNN 111600Z AUTO 04002KT 2SM 08/08 A3033 RMK T00800080 IEM_DS3505
ZGNN,2002-12-11 17:00,ZGNN 111700Z AUTO 00000KT 1 1/2SM 08/07 A3033 RMK T00800070 IEM_DS3505
ZGNN,2002-12-11 18:00,ZGNN 111800Z AUTO 00000KT 1SM 07/07 A3033 RMK T00700070 IEM_DS3505
ZGNN,2002-12-11 19:00,ZGNN 111900Z AUTO 00000KT 1 1/2SM 07/07 A3030 RMK T00700070 IEM_DS3505
ZGNN,2002-12-11 20:00,ZGNN 112000Z AUTO 17002KT 1/8SM 06/06 A3030 RMK T00600060 IEM_DS3505
ZGNN,2002-12-11 21:00,ZGNN 112100Z AUTO 00000KT 2SM 05/05 A3030 RMK 70037 SLP270 T00530053 57005 IEM_DS3505
ZGNN,2002-12-11 22:00,ZGNN 112200Z AUTO 00000KT 1/8SM 06/05 A3033 RMK T00600050 IEM_DS3505
ZGNN,2002-12-11 23:00,ZGNN 112300Z AUTO 1/8SM 06/06 A3033 RMK T00600060 IEM_DS3505
ZGNN,2002-12-12 00:00,ZGNN 120000Z AUTO 00000KT 1/8SM 05/05 A3036 RMK 70013 SLP295 T00530053 52023 IEM_DS3505
ZGNN,2002-12-12 01:00,ZGNN 120100Z AUTO 1/8SM 06/06 A3039 RMK T00600060 IEM_DS3505
ZGNN,2002-12-12 02:00,ZGNN 120200Z AUTO 1/8SM 08/08 A3042 RMK T00800080 IEM_DS3505
ZGNN,2002-12-12 03:00,ZGNN 120300Z AUTO 00000KT 1 1/4SM 11/10 A3039 RMK SLP305 T01100098 52011 IEM_DS3505
ZGNN,2002-12-12 04:00,ZGNN 120400Z AUTO 5SM 12/12 A3039 RMK T01200120 IEM_DS3505
ZGNN,2002-12-12 05:00,ZGNN 120500Z AUTO 36006KT 6SM 16/07 A3033 RMK T01600070 IEM_DS3505
ZGNN,2002-12-12 06:00,ZGNN 120600Z AUTO 32004KT 11SM 17/09 A3030 RMK SLP268 T01740092 57035 IEM_DS3505
ZGNN,2002-12-12 07:00,ZGNN 120700Z AUTO 6SM 18/07 A3030 RMK T01800070 IEM_DS3505
ZGNN,2002-12-12 08:00,ZGNN 120800Z AUTO 03006KT 6SM 19/07 A3027 RMK T01900070 IEM_DS3505
ZGNN,2002-12-12 09:00,ZGNN 120900Z AUTO 02004KT 9SM 18/09 A3027 RMK SLP261 T01840093 57007 IEM_DS3505
ZGNN,2002-12-12 10:00,ZGNN 121000Z AUTO 34002KT 6SM 16/09 A3030 RMK T01600090 IEM_DS3505
ZGNN,2002-12-12 11:00,ZGNN 121100Z AUTO 35002KT 6SM 13/10 A3030 RMK T01300100 IEM_DS3505
ZGNN,2002-12-12 12:00,ZGNN 121200Z AUTO 00000KT 9SM 11/10 A3033 RMK SLP280 T01070095 52017 IEM_DS3505
ZGNN,2002-12-12 13:00,ZGNN 121300Z AUTO 34002KT 6SM 11/09 A3036 RMK T01100090 IEM_DS3505
ZGNN,2002-12-12 14:00,ZGNN 121400Z AUTO 00000KT 5SM 10/09 A3036 RMK T01000090 IEM_DS3505
ZGNN,2002-12-12 15:00,ZGNN 121500Z AUTO 00000KT 7SM 08/07 A3036 RMK SLP293 T00750071 52013 IEM_DS3505
ZGNN,2002-12-12 16:00,ZGNN 121600Z AUTO 00000KT 5SM 08/08 A3036 RMK T00800080 IEM_DS3505
ZGNN,2002-12-12 17:00,ZGNN 121700Z AUTO 00000KT 5SM 07/07 A3036 RMK T00700070 IEM_DS3505
ZGNN,2002-12-12 18:00,ZGNN 121800Z AUTO 00000KT 6SM 06/06 A3036 RMK SLP286 T00640060 57005 IEM_DS3505
ZGNN,2002-12-12 19:00,ZGNN 121900Z AUTO 00000KT 1SM 07/07 A3033 RMK T00700070 IEM_DS3505
ZGNN,2002-12-12 20:00,ZGNN 122000Z AUTO 00000KT 1/8SM 06/06 A3033 RMK T00600060 IEM_DS3505
ZGNN,2002-12-12 21:00,ZGNN 122100Z AUTO 00000KT 7SM 06/05 A3033 RMK SLP278 T00550053 57008 IEM_DS3505
ZGNN,2002-12-12 22:00,ZGNN 122200Z AUTO 23002KT 2 1/2SM 06/06 A3033 RMK T00600060 IEM_DS3505
ZGNN,2002-12-12 23:00,ZGNN 122300Z AUTO 01002KT 2 1/2SM 06/06 A3036 RMK T00600060 IEM_DS3505
ZGNN,2002-12-13 00:00,ZGNN 130000Z AUTO 00000KT 1SM 06/06 A3039 RMK SLP298 T00630063 52018 IEM_DS3505
ZGNN,2002-12-13 01:00,ZGNN 130100Z AUTO 1 1/4SM 09/09 A3039 RMK T00900090 IEM_DS3505
ZGNN,2002-12-13 02:00,ZGNN 130200Z AUTO 2 1/2SM 12/10 A3042 RMK T01200100 IEM_DS3505
ZGNN,2002-12-13 03:00,ZGNN 130300Z AUTO 04004KT 4SM 15/09 A3039 RMK SLP300 T01530086 52003 IEM_DS3505
ZGNN,2002-12-13 04:00,ZGNN 130400Z AUTO 05008KT 6SM 17/08 A3039 RMK T01700080 IEM_DS3505
ZGNN,2002-12-13 05:00,ZGNN 130500Z AUTO 6SM 17/08 A3033 RMK T01700080 IEM_DS3505
ZGNN,2002-12-13 06:00,ZGNN 130600Z AUTO 09006KT 10SM 18/07 A3030 RMK SLP261 T01850070 57037 IEM_DS3505
ZGNN,2002-12-13 07:00,ZGNN 130700Z AUTO 07006KT 6SM 19/07 A3027 RMK T01900070 IEM_DS3505
ZGNN,2002-12-13 08:00,ZGNN 130800Z AUTO 09006KT 6SM 19/07 A3024 RMK T01900070 IEM_DS3505
ZGNN,2002-12-13 09:00,ZGNN 130900Z AUTO 09002KT 12SM 19/09 A3024 RMK SLP248 T01910093 57013 IEM_DS3505
ZGNN,2002-12-13 10:00,ZGNN 131000Z AUTO 09002KT 6SM 17/10 A3024 RMK T01700100 IEM_DS3505
ZGNN,2002-12-13 11:00,ZGNN 131100Z AUTO 08004KT 7SM 15/09 A3027 RMK T01500090 IEM_DS3505
ZGNN,2002-12-13 12:00,ZGNN 131200Z AUTO 00000KT 12SM 14/10 A3030 RMK SLP268 T01390101 52018 IEM_DS3505
ZGNN,2002-12-13 13:00,ZGNN 131300Z AUTO 02002KT 7SM 14/11 A3030 RMK T01400110 IEM_DS3505
ZGNN,2002-12-13 14:00,ZGNN 131400Z AUTO 7SM 14/11 A3033 RMK T01400110 IEM_DS3505
ZGNN,2002-12-13 15:00,ZGNN 131500Z AUTO 09002KT 11SM 15/09 A3033 RMK SLP272 T01500089 52007 IEM_DS3505
ZGNN,2002-12-13 16:00,ZGNN 131600Z AUTO 06004KT 7SM 13/10 A3030 RMK T01300100 IEM_DS3505
ZGNN,2002-12-13 21:00,ZGNN 132100Z AUTO 00000KT 7SM 14/10 A3027 RMK SLP248 T01430105 57014 IEM_DS3505
ZGNN,2002-12-13 22:00,ZGNN 132200Z AUTO 04002KT 7SM 13/10 A3027 RMK T01300100 IEM_DS3505
ZGNN,2002-12-13 23:00,ZGNN 132300Z AUTO 02004KT 7SM 13/11 A3027 RMK T01300110 IEM_DS3505
ZGNN,2002-12-14 00:00,ZGNN 140000Z AUTO 00000KT 3SM 14/11 A3027 RMK 60001 70001 SLP261 T01360112 52011 IEM_DS3505
ZGNN,2002-12-14 01:00,ZGNN 140100Z AUTO 05004KT 7SM 14/11 A3030 RMK T01400110 IEM_DS3505
ZGNN,2002-12-14 02:00,ZGNN 140200Z AUTO 7SM 14/11 A3030 RMK T01400110 IEM_DS3505
ZGNN,2002-12-14 03:00,ZGNN 140300Z AUTO 00000KT 4SM 14/11 A3030 RMK SLP270 T01410109 52010 IEM_DS3505
ZGNN,2002-12-14 04:00,ZGNN 140400Z AUTO 7SM 14/10 A3030 RMK T01400100 IEM_DS3505
ZGNN,2002-12-14 05:00,ZGNN 140500Z AUTO 09004KT 5SM 14/10 A3024 RMK T01400100 IEM_DS3505
ZGNN,2002-12-14 06:00,ZGNN 140600Z AUTO 04002KT 4SM 14/11 A3021 RMK SLP236 T01440112 57034 IEM_DS3505
ZGNN,2002-12-14 07:00,ZGNN 140700Z AUTO 2 1/2SM 14/11 A3018 RMK T01400110 IEM_DS3505
ZGNN,2002-12-14 08:00,ZGNN 140800Z AUTO 07004KT 2 1/2SM 14/12 A3018 RMK T01400120 IEM_DS3505
ZGNN,2002-12-14 09:00,ZGNN 140900Z AUTO 07004KT 3SM 14/12 A3018 RMK SLP221 T01390117 57015 IEM_DS3505
ZGNN,2002-12-14 10:00,ZGNN 141000Z AUTO 06004KT 2SM 14/12 A3018 RMK T01400120 IEM_DS3505
ZGNN,2002-12-14 11:00,ZGNN 141100Z AUTO 06004KT 2SM 13/12 A3018 RMK T01300120 IEM_DS3505
ZGNN,2002-12-14 12:00,ZGNN 141200Z AUTO 00000KT 3SM 14/12 A3018 RMK SLP229 T01350122 52008 IEM_DS3505
ZGNN,2002-12-14 13:00,ZGNN 141300Z AUTO 05002KT 1 1/2SM 13/12 A3021 RMK T01300120 IEM_DS3505
ZGNN,2002-12-14 14:00,ZGNN 141400Z AUTO 08004KT 2SM 13/12 A3021 RMK T01300120 IEM_DS3505
ZGNN,2002-12-14 15:00,ZGNN 141500Z AUTO 00000KT 5SM 14/12 A3024 RMK SLP241 T01360119 52012 IEM_DS3505
ZGNN,2002-12-14 16:00,ZGNN 141600Z AUTO 07004KT 2SM 13/12 A3021 RMK T01300120 IEM_DS3505
ZGNN,2002-12-14 17:00,ZGNN 141700Z AUTO 07004KT 2SM 13/12 A3021 RMK T01300120 IEM_DS3505
ZGNN,2002-12-14 18:00,ZGNN 141800Z AUTO 00000KT 7SM 14/12 A3021 RMK SLP228 T01370118 57013 IEM_DS3505
ZGNN,2002-12-14 19:00,ZGNN 141900Z AUTO 09004KT 1 1/2SM 13/12 A3018 RMK T01300120 IEM_DS3505
ZGNN,2002-12-14 20:00,ZGNN 142000Z AUTO 03004KT 1 1/2SM 13/12 A3018 RMK T01300120 IEM_DS3505
ZGNN,2002-12-14 21:00,ZGNN 142100Z AUTO 00000KT 7SM 14/12 A3018 RMK 70002 SLP223 T01380121 57005 IEM_DS3505
ZGNN,2002-12-14 22:00,ZGNN 142200Z AUTO 05004KT 2SM 14/12 A3018 RMK T01400120 IEM_DS3505
ZGNN,2002-12-14 23:00,ZGNN 142300Z AUTO 08002KT 2SM 14/12 A3018 RMK T01400120 IEM_DS3505
ZGNN,2002-12-15 00:00,ZGNN 150000Z AUTO 00000KT 3SM 14/13 A3021 RMK 70000 SLP233 T01390128 52010 IEM_DS3505
ZGNN,2002-12-15 01:00,ZGNN 150100Z AUTO 1 1/2SM 14/12 A3021 RMK T01400120 IEM_DS3505
ZGNN,2002-12-15 02:00,ZGNN 150200Z AUTO 06004KT 2SM 15/12 A3024 RMK T01500120 IEM_DS3505
ZGNN,2002-12-15 03:00,ZGNN 150300Z AUTO 00000KT 3SM 15/13 RMK SLP246 T01530133 52013 IEM_DS3505
ZGNN,2002-12-15 04:00,ZGNN 150400Z AUTO 07004KT 1 1/2SM 15/13 A3021 RMK T01500130 IEM_DS3505
ZGNN,2002-12-15 05:00,ZGNN 150500Z AUTO 07004KT 1SM 15/14 A3018 RMK T01500140 IEM_DS3505
ZGNN,2002-12-15 06:00,ZGNN 150600Z AUTO 14004KT 1 1/4SM 16/15 A3015 RMK 60003 SLP209 T01590150 57036 IEM_DS3505
ZGNN,2002-12-15 07:00,ZGNN 150700Z AUTO 05004KT 1SM 16/15 A3012 RMK T01600150 IEM_DS3505
ZGNN,2002-12-15 08:00,ZGNN 150800Z AUTO 06004KT 1 1/4SM 17/15 A3009 RMK T01700150 IEM_DS3505
ZGNN,2002-12-15 09:00,ZGNN 150900Z AUTO 07002KT 2SM 17/16 A3012 RMK SLP201 T01680156 57008 IEM_DS3505
ZGNN,2002-12-15 10:00,ZGNN 151000Z AUTO 05006KT 1 1/4SM 16/15 A3012 RMK T01600150 IEM_DS3505
ZGNN,2002-12-15 11:00,ZGNN 151100Z AUTO 05004KT 1 1/4SM 16/15 A3012 RMK T01600150 IEM_DS3505
ZGNN,2002-12-15 12:00,ZGNN 151200Z AUTO 04004KT 1 1/4SM 16/15 A3015 RMK T01600150 IEM_DS3505
ZGNN,2002-12-15 13:00,ZGNN 151300Z AUTO 05004KT 1SM 16/15 A3015 RMK T01600150 IEM_DS3505
ZGNN,2002-12-15 14:00,ZGNN 151400Z AUTO 04004KT 1SM 16/15 A3015 RMK T01600150 IEM_DS3505
ZGNN,2002-12-15 15:00,ZGNN 151500Z AUTO 00000KT 2 1/2SM 16/15 A3015 RMK SLP219 T01590150 52006 IEM_DS3505
ZGNN,2002-12-15 16:00,ZGNN 151600Z AUTO 04004KT 1 1/4SM 15/15 A3015 RMK T01500150 IEM_DS3505
ZGNN,2002-12-15 17:00,ZGNN 151700Z AUTO 04002KT 1SM 15/15 A3015 RMK T01500150 IEM_DS3505
ZGNN,2002-12-15 18:00,ZGNN 151800Z AUTO 00000KT 2 1/2SM 16/15 A3015 RMK SLP212 T01600153 57007 IEM_DS3505
ZGNN,2002-12-15 19:00,ZGNN 151900Z AUTO 04004KT 1SM 16/15 A3012 RMK T01600150 IEM_DS3505
ZGNN,2002-12-15 20:00,ZGNN 152000Z AUTO 03002KT 1SM 16/15 A3012 RMK T01600150 IEM_DS3505
ZGNN,2002-12-15 21:00,ZGNN 152100Z AUTO 00000KT 2 1/2SM 16/15 A3015 RMK 70003 SLP208 T01640154 57003 IEM_DS3505
ZGNN,2002-12-15 22:00,ZGNN 152200Z AUTO 07004KT 1SM 16/15 A3015 RMK T01600150 IEM_DS3505
ZGNN,2002-12-15 23:00,ZGNN 152300Z AUTO 36002KT 1SM 16/15 A3015 RMK T01600150 IEM_DS3505
ZGNN,2002-12-16 00:00,ZGNN 160000Z AUTO 00000KT 2SM 16/16 A3018 RMK 60002 70005 SLP220 T01620159 52011 IEM_DS3505
ZGNN,2002-12-16 01:00,ZGNN 160100Z AUTO 02002KT 1SM 16/15 A3018 RMK T01600150 IEM_DS3505
ZGNN,2002-12-16 02:00,ZGNN 160200Z AUTO 1SM 17/15 A3021 RMK T01700150 IEM_DS3505
ZGNN,2002-12-16 03:00,ZGNN 160300Z AUTO 00000KT 3SM 19/16 A3021 RMK SLP229 T01860164 52010 IEM_DS3505
ZGNN,2002-12-16 04:00,ZGNN 160400Z AUTO 00000KT 1 1/2SM 19/17 A3015 RMK T01900170 IEM_DS3505
ZGNN,2002-12-16 05:00,ZGNN 160500Z AUTO 2SM 21/18 A3012 RMK T02100180 IEM_DS3505
ZGNN,2002-12-16 06:00,ZGNN 160600Z AUTO 22004KT 7SM 22/19 A3009 RMK SLP192 T02190188 57036 IEM_DS3505
ZGNN,2002-12-16 07:00,ZGNN 160700Z AUTO 15010KT 7SM 22/18 A3006 RMK T02200180 IEM_DS3505
ZGNN,2002-12-16 08:00,ZGNN 160800Z AUTO 17008KT 7SM 24/18 A3003 RMK T02400180 IEM_DS3505
ZGNN,2002-12-16 09:00,ZGNN 160900Z AUTO 14006KT 12SM 23/18 A3003 RMK SLP174 T02340180 57017 IEM_DS3505
ZGNN,2002-12-16 10:00,ZGNN 161000Z AUTO 15004KT 7SM 22/18 A3003 RMK T02200180 IEM_DS3505
ZGNN,2002-12-16 11:00,ZGNN 161100Z AUTO 13004KT 7SM 20/18 A3006 RMK T02000180 IEM_DS3505
ZGNN,2002-12-16 12:00,ZGNN 161200Z AUTO 18002KT 10SM 21/19 A3009 RMK SLP190 T02080187 52015 IEM_DS3505
ZGNN,2002-12-16 13:00,ZGNN 161300Z AUTO 00000KT 7SM 20/18 A3009 RMK T02000180 IEM_DS3505
ZGNN,2002-12-16 14:00,ZGNN 161400Z AUTO 08002KT 5SM 18/17 A3009 RMK T01800170 IEM_DS3505
ZGNN,2002-12-16 15:00,ZGNN 161500Z AUTO 00000KT 9SM 18/17 A3009 RMK SLP198 T01750170 52007 IEM_DS3505
ZGNN,2002-12-16 16:00,ZGNN 161600Z AUTO 2 1/2SM 18/17 A3009 RMK T01800170 IEM_DS3505
ZGNN,2002-12-16 17:00,ZGNN 161700Z AUTO 00000KT 2SM 17/16 A3009 RMK T01700160 IEM_DS3505
ZGNN,2002-12-16 18:00,ZGNN 161800Z AUTO 07002KT 7SM 18/18 A3009 RMK SLP191 T01780175 57006 IEM_DS3505
ZGNN,2002-12-16 19:00,ZGNN 161900Z AUTO 06002KT 1 1/4SM 18/18 A3006 RMK T01800180 IEM_DS3505
ZGNN,2002-12-16 20:00,ZGNN 162000Z AUTO 1 1/2SM 18/18 A3006 RMK T01800180 IEM_DS3505
ZGNN,2002-12-16 21:00,ZGNN 162100Z AUTO 00000KT 6SM 18/18 A3003 RMK 70003 SLP179 T01820175 57011 IEM_DS3505
ZGNN,2002-12-16 22:00,ZGNN 162200Z AUTO 12004KT 4SM 18/17 A3003 RMK T01800170 IEM_DS3505
ZGNN,2002-12-16 23:00,ZGNN 162300Z AUTO 4SM 17/16 A3006 RMK T01700160 IEM_DS3505
ZGNN,2002-12-17 00:00,ZGNN 170000Z AUTO 00000KT 6SM 18/17 A3006 RMK 70001 SLP191 T01790174 52011 IEM_DS3505
ZGNN,2002-12-17 01:00,ZGNN 170100Z AUTO 00000KT 3SM 19/17 A3009 RMK T01900170 IEM_DS3505
ZGNN,2002-12-17 02:00,ZGNN 170200Z AUTO 16002KT 2 1/2SM 19/18 A3009 RMK T01900180 IEM_DS3505
ZGNN,2002-12-17 03:00,ZGNN 170300Z AUTO 00000KT 2 1/2SM 20/19 A3009 RMK SLP192 T02020188 52001 IEM_DS3505
ZGNN,2002-12-17 04:00,ZGNN 170400Z AUTO 14004KT 3SM 21/19 A3006 RMK T02100190 IEM_DS3505
ZGNN,2002-12-17 05:00,ZGNN 170500Z AUTO 5SM 21/19 A3003 RMK T02100190 IEM_DS3505
ZGNN,2002-12-17 06:00,ZGNN 170600Z AUTO 18004KT 4SM 22/19 A3000 RMK T02220194 IEM_DS3505
ZGNN,2002-12-17 07:00,ZGNN 170700Z AUTO 16008KT 7SM 23/19 A2997 RMK T02300190 IEM_DS3505
ZGNN,2002-12-17 08:00,ZGNN 170800Z AUTO 15008KT 7SM 23/19 A2994 RMK T02300190 IEM_DS3505
ZGNN,2002-12-17 09:00,ZGNN 170900Z AUTO 14006KT 6SM 23/19 A2994 RMK SLP143 T02310192 57015 IEM_DS3505
ZGNN,2002-12-17 10:00,ZGNN 171000Z AUTO 17008KT 7SM 22/19 A2994 RMK T02200190 IEM_DS3505
ZGNN,2002-12-17 11:00,ZGNN 171100Z AUTO 16006KT 7SM 21/19 A2997 RMK T02100190 IEM_DS3505
ZGNN,2002-12-17 12:00,ZGNN 171200Z AUTO 00000KT 7SM 21/20 A3000 RMK SLP160 T02110197 52016 IEM_DS3505
ZGNN,2002-12-17 13:00,ZGNN 171300Z AUTO 00000KT 6SM 19/18 A3000 RMK T01900180 IEM_DS3505
ZGNN,2002-12-17 14:00,ZGNN 171400Z AUTO 13004KT 7SM 20/19 A3003 RMK T02000190 IEM_DS3505
ZGNN,2002-12-17 15:00,ZGNN 171500Z AUTO 00000KT 5SM 19/18 A3000 RMK SLP163 T01880182 52003 IEM_DS3505
ZGNN,2002-12-17 17:00,ZGNN 171700Z AUTO 19002KT 2 1/2SM 20/19 A3000 RMK T02000190 IEM_DS3505
ZGNN,2002-12-17 18:00,ZGNN 171800Z AUTO 00000KT 4SM 20/19 A2997 RMK SLP154 T02010193 57008 IEM_DS3505
ZGNN,2002-12-17 19:00,ZGNN 171900Z AUTO 2 1/2SM 20/19 A2994 RMK T02000190 IEM_DS3505
ZGNN,2002-12-17 20:00,ZGNN 172000Z AUTO 2 1/2SM 20/19 A2994 RMK T02000190 IEM_DS3505
ZGNN,2002-12-17 21:00,ZGNN 172100Z AUTO 00000KT 4SM 20/19 A2994 RMK 70000 SLP140 T02020193 57014 IEM_DS3505
ZGNN,2002-12-17 22:00,ZGNN 172200Z AUTO 00000KT 3SM 19/19 A2994 RMK T01900190 IEM_DS3505
ZGNN,2002-12-17 23:00,ZGNN 172300Z AUTO 14004KT 4SM 20/19 A2994 RMK T02000190 IEM_DS3505
ZGNN,2002-12-18 00:00,ZGNN 180000Z AUTO 20002KT 2 1/2SM 20/19 A2997 RMK 70000 SLP150 T02050194 52010 IEM_DS3505
ZGNN,2002-12-18 01:00,ZGNN 180100Z AUTO 16006KT 6SM 21/20 A2997 RMK T02100200 IEM_DS3505
ZGNN,2002-12-18 02:00,ZGNN 180200Z AUTO 15010KT 7SM 22/20 A2997 RMK T02200200 IEM_DS3505
ZGNN,2002-12-18 03:00,ZGNN 180300Z AUTO 18006KT 9SM 23/20 A2997 RMK SLP155 T02260201 52004 IEM_DS3505
ZGNN,2002-12-18 04:00,ZGNN 180400Z AUTO 12006KT 7SM 23/20 A2994 RMK T02300200 IEM_DS3505
ZGNN,2002-12-18 05:00,ZGNN 180500Z AUTO 14006KT 7SM 25/20 A2988 RMK T02500200 IEM_DS3505
ZGNN,2002-12-18 06:00,ZGNN 180600Z AUTO 14006KT 16SM 25/20 A2985 RMK SLP115 T02490202 57038 IEM_DS3505
ZGNN,2002-12-18 07:00,ZGNN 180700Z AUTO 12008KT 7SM 25/20 A2983 RMK T02500200 IEM_DS3505
ZGNN,2002-12-18 08:00,ZGNN 180800Z AUTO 13008KT 7SM 25/20 A2983 RMK T02500200 IEM_DS3505
ZGNN,2002-12-18 09:00,ZGNN 180900Z AUTO 14006KT 16SM 26/20 A2980 RMK SLP097 T02570204 57018 IEM_DS3505
ZGNN,2002-12-18 10:00,ZGNN 181000Z AUTO 13006KT 7SM 24/20 A2983 RMK T02400200 IEM_DS3505
ZGNN,2002-12-18 11:00,ZGNN 181100Z AUTO 6SM 22/20 A2985 RMK T02200200 IEM_DS3505
ZGNN,2002-12-18 12:00,ZGNN 181200Z AUTO 11002KT 12SM 22/20 A2985 RMK SLP117 T02200200 52019 IEM_DS3505
ZGNN,2002-12-18 13:00,ZGNN 181300Z AUTO 17002KT 6SM 20/19 A2988 RMK T02000190 IEM_DS3505
ZGNN,2002-12-18 14:00,ZGNN 181400Z AUTO 6SM 19/19 A2988 RMK T01900190 IEM_DS3505
ZGNN,2002-12-18 15:00,ZGNN 181500Z AUTO 02004KT 4SM 18/18 A2988 RMK T01800180 IEM_DS3505
ZGNN,2002-12-18 16:00,ZGNN 181600Z AUTO 04004KT 2 1/2SM 17/17 A2988 RMK T01700170 IEM_DS3505
ZGNN,2002-12-18 17:00,ZGNN 181700Z AUTO 02004KT 2SM 18/18 A2991 RMK T01800180 IEM_DS3505
ZGNN,2002-12-18 18:00,ZGNN 181800Z AUTO 00000KT 7SM 19/18 A2991 RMK SLP130 T01860184 52005 IEM_DS3505
ZGNN,2002-12-18 19:00,ZGNN 181900Z AUTO 03006KT 1/8SM 19/18 A2991 RMK T01900180 IEM_DS3505
ZGNN,2002-12-18 20:00,ZGNN 182000Z AUTO 04004KT 1/8SM 19/19 A2988 RMK T01900190 IEM_DS3505
ZGNN,2002-12-18 21:00,ZGNN 182100Z AUTO 11006KT 2 1/2SM 20/19 A2988 RMK SLP125 T01950190 57004 IEM_DS3505
ZGNN,2002-12-18 22:00,ZGNN 182200Z AUTO 00000KT 1 1/2SM 19/19 A2991 RMK T01900190 IEM_DS3505
ZGNN,2002-12-18 23:00,ZGNN 182300Z AUTO 08004KT 1 1/2SM 18/18 A2991 RMK T01800180 IEM_DS3505
ZGNN,2002-12-19 00:00,ZGNN 190000Z AUTO 07006KT 3SM 18/17 A2994 RMK SLP143 T01780166 52016 IEM_DS3505
ZGNN,2002-12-19 01:00,ZGNN 190100Z AUTO 05008KT 3SM 16/16 A2997 RMK T01600160 IEM_DS3505
ZGNN,2002-12-19 02:00,ZGNN 190200Z AUTO 06008KT 7SM 16/15 A3000 RMK T01600150 IEM_DS3505
ZGNN,2002-12-19 03:00,ZGNN 190300Z AUTO 02002KT 6SM 17/15 A3000 RMK SLP162 T01680151 52018 IEM_DS3505
ZGNN,2002-12-19 04:00,ZGNN 190400Z AUTO 06010KT 3SM 16/15 A2997 RMK T01600150 IEM_DS3505
ZGNN,2002-12-19 05:00,ZGNN 190500Z AUTO 04010KT 3SM 17/14 A2994 RMK T01700140 IEM_DS3505
ZGNN,2002-12-19 06:00,ZGNN 190600Z AUTO 07002KT 6SM 16/14 A2991 RMK SLP137 T01630142 57025 IEM_DS3505
ZGNN,2002-12-19 07:00,ZGNN 190700Z AUTO 07008KT 2 1/2SM 16/14 A2991 RMK T01600140 IEM_DS3505
ZGNN,2002-12-19 08:00,ZGNN 190800Z AUTO 06008KT 7SM 16/14 A2988 RMK T01600140 IEM_DS3505
ZGNN,2002-12-19 09:00,ZGNN 190900Z AUTO 09002KT 9SM 16/13 A2988 RMK SLP127 T01640130 57010 IEM_DS3505
ZGNN,2002-12-19 10:00,ZGNN 191000Z AUTO 08006KT 7SM 15/13 A2988 RMK T01500130 IEM_DS3505
ZGNN,2002-12-19 11:00,ZGNN 191100Z AUTO 07006KT 7SM 15/12 A2991 RMK T01500120 IEM_DS3505
ZGNN,2002-12-19 12:00,ZGNN 191200Z AUTO 00000KT 9SM 15/12 A2991 RMK 60000 SLP138 T01480121 52010 IEM_DS3505
ZGNN,2002-12-19 13:00,ZGNN 191300Z AUTO 07006KT 7SM 14/12 A2994 RMK T01400120 IEM_DS3505
ZGNN,2002-12-19 14:00,ZGNN 191400Z AUTO 03006KT 7SM 14/12 A2994 RMK T01400120 IEM_DS3505
ZGNN,2002-12-19 15:00,ZGNN 191500Z AUTO 36004KT 8SM 14/12 A2994 RMK SLP145 T01410115 52007 IEM_DS3505
ZGNN,2002-12-19 16:00,ZGNN 191600Z AUTO 03006KT 7SM 14/11 A2994 RMK T01400110 IEM_DS3505
ZGNN,2002-12-19 17:00,ZGNN 191700Z AUTO 02006KT 3SM 13/12 A2994 RMK T01300120 IEM_DS3505
ZGNN,2002-12-19 18:00,ZGNN 191800Z AUTO 11004KT 6SM 13/13 RMK SLP144 T01310126 57001 IEM_DS3505
ZGNN,2002-12-19 19:00,ZGNN 191900Z AUTO 36004KT 2 1/2SM 13/13 A2991 RMK T01300130 IEM_DS3505
ZGNN,2002-12-19 20:00,ZGNN 192000Z AUTO 02006KT 2 1/2SM 12/12 A2994 RMK T01200120 IEM_DS3505
ZGNN,2002-12-19 21:00,ZGNN 192100Z AUTO 07002KT 6SM 13/12 A2994 RMK 70022 SLP141 T01260119 57004 IEM_DS3505
ZGNN,2002-12-19 22:00,ZGNN 192200Z AUTO 05008KT 3SM 12/11 A2991 RMK T01200110 IEM_DS3505
ZGNN,2002-12-19 23:00,ZGNN 192300Z AUTO 05006KT 2 1/2SM 11/11 A2994 RMK T01100110 IEM_DS3505
ZGNN,2002-12-20 00:00,ZGNN 200000Z AUTO 02004KT 5SM 12/11 A2994 RMK 60024 70022 SLP150 T01180110 52009 IEM_DS3505
ZGNN,2002-12-20 01:00,ZGNN 200100Z AUTO 04006KT 7SM A2997 RMK IEM_DS3505
ZGNN,2002-12-20 02:00,ZGNN 200200Z AUTO 08006KT 7SM 12/10 A2997 RMK T01200100 IEM_DS3505
ZGNN,2002-12-20 03:00,ZGNN 200300Z AUTO 00000KT 3SM 13/11 A3000 RMK SLP165 T01290110 52015 IEM_DS3505
ZGNN,2002-12-20 04:00,ZGNN 200400Z AUTO 2 1/2SM 13/12 A2997 RMK T01300120 IEM_DS3505
ZGNN,2002-12-20 05:00,ZGNN 200500Z AUTO 3SM 14/12 A2994 RMK T01400120 IEM_DS3505
ZGNN,2002-12-20 06:00,ZGNN 200600Z AUTO 02006KT 4SM 14/12 A2991 RMK SLP133 T01450115 57032 IEM_DS3505
ZGNN,2002-12-20 07:00,ZGNN 200700Z AUTO 01006KT 4SM 14/12 A2988 RMK T01400120 IEM_DS3505
ZGNN,2002-12-20 08:00,ZGNN 200800Z AUTO 03006KT 4SM 14/12 A2988 RMK T01400120 IEM_DS3505
ZGNN,2002-12-20 09:00,ZGNN 200900Z AUTO 04002KT 4SM 15/12 A2988 RMK SLP121 T01470121 57012 IEM_DS3505
ZGNN,2002-12-20 10:00,ZGNN 201000Z AUTO 06006KT 7SM 14/12 A2988 RMK T01400120 IEM_DS3505
ZGNN,2002-12-20 11:00,ZGNN 201100Z AUTO 04006KT 7SM 13/11 A2991 RMK T01300110 IEM_DS3505
ZGNN,2002-12-20 12:00,ZGNN 201200Z AUTO 07002KT 5SM 13/11 A2991 RMK 60000 SLP142 T01330110 52020 IEM_DS3505
ZGNN,2002-12-20 13:00,ZGNN 201300Z AUTO 05004KT 7SM 13/11 A2994 RMK T01300110 IEM_DS3505
ZGNN,2002-12-20 14:00,ZGNN 201400Z AUTO 07004KT 7SM 13/11 A2997 RMK T01300110 IEM_DS3505
ZGNN,2002-12-20 15:00,ZGNN 201500Z AUTO 02002KT 5SM 13/11 A2997 RMK SLP159 T01280107 52017 IEM_DS3505
ZGNN,2002-12-20 16:00,ZGNN 201600Z AUTO 05008KT 7SM 12/10 A2997 RMK T01200100 IEM_DS3505
ZGNN,2002-12-20 17:00,ZGNN 201700Z AUTO 2 1/2SM 12/11 A2997 RMK T01200110 IEM_DS3505
ZGNN,2002-12-20 18:00,ZGNN 201800Z AUTO 00000KT 4SM 12/11 A2997 RMK SLP155 T01170111 57003 IEM_DS3505
ZGNN,2002-12-20 19:00,ZGNN 201900Z AUTO 06004KT 1SM 12/11 A2994 RMK T01200110 IEM_DS3505
ZGNN,2002-12-20 20:00,ZGNN 202000Z AUTO 05004KT 1 1/2SM 12/11 A2994 RMK T01200110 IEM_DS3505
ZGNN,2002-12-20 21:00,ZGNN 202100Z AUTO 09002KT 3SM 12/11 A2994 RMK 70001 SLP148 T01160110 57007 IEM_DS3505
ZGNN,2002-12-20 22:00,ZGNN 202200Z AUTO 05006KT 1 1/4SM 11/11 A2997 RMK T01100110 IEM_DS3505
ZGNN,2002-12-20 23:00,ZGNN 202300Z AUTO 04006KT 2 1/2SM 11/11 A2997 RMK T01100110 IEM_DS3505
ZGNN,2002-12-21 00:00,ZGNN 210000Z AUTO 02002KT 3SM 12/10 A3000 RMK 70000 SLP167 T01170105 52018 IEM_DS3505
ZGNN,2002-12-21 01:00,ZGNN 210100Z AUTO 04006KT 3SM 12/11 A3003 RMK T01200110 IEM_DS3505
ZGNN,2002-12-21 02:00,ZGNN 210200Z AUTO 04004KT 1SM 11/11 A3006 RMK T01100110 IEM_DS3505
ZGNN,2002-12-21 03:00,ZGNN 210300Z AUTO 04002KT 2 1/2SM 12/11 A3006 RMK SLP185 T01190113 52018 IEM_DS3505
ZGNN,2002-12-21 04:00,ZGNN 210400Z AUTO 05004KT 1 1/2SM 12/11 A3003 RMK T01200110 IEM_DS3505
ZGNN,2002-12-21 05:00,ZGNN 210500Z AUTO 1 1/2SM 12/12 A3003 RMK T01200120 IEM_DS3505
ZGNN,2002-12-21 06:00,ZGNN 210600Z AUTO 04004KT 2 1/2SM 12/12 A3000 RMK SLP164 T01230116 57021 IEM_DS3505
ZGNN,2002-12-21 07:00,ZGNN 210700Z AUTO 03006KT 1 1/2SM 12/11 A2997 RMK T01200110 IEM_DS3505
ZGNN,2002-12-21 08:00,ZGNN 210800Z AUTO 36006KT 3SM 13/11 A3000 RMK T01300110 IEM_DS3505
ZGNN,2002-12-21 09:00,ZGNN 210900Z AUTO 07002KT 4SM 13/11 A3000 RMK SLP165 T01280111 52001 IEM_DS3505
ZGNN,2002-12-21 10:00,ZGNN 211000Z AUTO 06006KT 2 1/2SM 12/11 A3000 RMK T01200110 IEM_DS3505
ZGNN,2002-12-21 11:00,ZGNN 211100Z AUTO 06004KT 2 1/2SM 12/11 A3003 RMK T01200110 IEM_DS3505
ZGNN,2002-12-21 12:00,ZGNN 211200Z AUTO 07002KT 4SM 12/10 A3006 RMK SLP186 T01210102 52020 IEM_DS3505
ZGNN,2002-12-21 13:00,ZGNN 211300Z AUTO 06004KT 3SM 12/10 A3006 RMK T01200100 IEM_DS3505
ZGNN,2002-12-21 14:00,ZGNN 211400Z AUTO 04004KT 3SM 12/10 A3009 RMK T01200100 IEM_DS3505
ZGNN,2002-12-21 15:00,ZGNN 211500Z AUTO 00000KT 6SM 12/10 A3009 RMK SLP198 T01200101 52012 IEM_DS3505
ZGNN,2002-12-21 16:00,ZGNN 211600Z AUTO 05004KT 3SM 12/10 A3009 RMK T01200100 IEM_DS3505
ZGNN,2002-12-21 17:00,ZGNN 211700Z AUTO 04004KT 3SM 11/10 A3009 RMK T01100100 IEM_DS3505
ZGNN,2002-12-21 18:00,ZGNN 211800Z AUTO 00000KT 6SM 12/10 A3009 RMK SLP199 T01150103 52001 IEM_DS3505
ZGNN,2002-12-21 19:00,ZGNN 211900Z AUTO 36004KT 2 1/2SM 11/10 A3009 RMK T01100100 IEM_DS3505
ZGNN,2002-12-21 20:00,ZGNN 212000Z AUTO 02006KT 3SM 11/10 A3006 RMK T01100100 IEM_DS3505
ZGNN,2002-12-21 21:00,ZGNN 212100Z AUTO 07002KT 6SM 12/09 A3006 RMK 70000 SLP189 T01150091 57009 IEM_DS3505
ZGNN,2002-12-21 22:00,ZGNN 212200Z AUTO 01004KT 7SM 11/09 A3006 RMK T01100090 IEM_DS3505
ZGNN,2002-12-21 23:00,ZGNN 212300Z AUTO 35002KT 7SM 12/09 A3009 RMK T01200090 IEM_DS3505
ZGNN,2002-12-22 00:00,ZGNN 220000Z AUTO 00000KT 6SM 12/10 A3012 RMK 70000 SLP203 T01170097 52013 IEM_DS3505
ZGNN,2002-12-22 01:00,ZGNN 220100Z AUTO 7SM 12/10 A3015 RMK T01200100 IEM_DS3505
ZGNN,2002-12-22 02:00,ZGNN 220200Z AUTO 35004KT 7SM 13/10 A3015 RMK T01300100 IEM_DS3505
ZGNN,2002-12-22 03:00,ZGNN 220300Z AUTO 02004KT 12SM 13/10 A3015 RMK SLP216 T01330098 52013 IEM_DS3505
ZGNN,2002-12-22 04:00,ZGNN 220400Z AUTO 34004KT 7SM 14/10 A3012 RMK T01400100 IEM_DS3505
ZGNN,2002-12-22 05:00,ZGNN 220500Z AUTO 33006KT 7SM 14/10 A3009 RMK T01400100 IEM_DS3505
ZGNN,2002-12-22 06:00,ZGNN 220600Z AUTO 02006KT 12SM 15/11 A3006 RMK SLP184 T01490106 57031 IEM_DS3505
ZGNN,2002-12-22 07:00,ZGNN 220700Z AUTO 7SM 15/10 A3003 RMK T01500100 IEM_DS3505
ZGNN,2002-12-22 08:00,ZGNN 220800Z AUTO 7SM 15/11 A3003 RMK T01500110 IEM_DS3505
ZGNN,2002-12-22 09:00,ZGNN 220900Z AUTO 36004KT 9SM 15/10 A3003 RMK SLP183 T01520105 57001 IEM_DS3505
ZGNN,2002-12-22 10:00,ZGNN 221000Z AUTO 36006KT 5SM 15/11 A3003 RMK T01500110 IEM_DS3505
ZGNN,2002-12-22 11:00,ZGNN 221100Z AUTO 4SM 14/11 A3009 RMK T01400110 IEM_DS3505
ZGNN,2002-12-22 12:00,ZGNN 221200Z AUTO 00000KT 9SM 14/12 A3009 RMK SLP197 T01430121 52014 IEM_DS3505
ZGNN,2002-12-22 13:00,ZGNN 221300Z AUTO 06004KT 4SM 14/11 A3012 RMK T01400110 IEM_DS3505
ZGNN,2002-12-22 14:00,ZGNN 221400Z AUTO 06004KT 4SM 14/11 A3012 RMK T01400110 IEM_DS3505
ZGNN,2002-12-22 15:00,ZGNN 221500Z AUTO 00000KT 9SM 13/11 A3012 RMK SLP210 T01330110 52013 IEM_DS3505
ZGNN,2002-12-22 16:00,ZGNN 221600Z AUTO 04006KT 3SM 11/10 A3012 RMK T01100100 IEM_DS3505
ZGNN,2002-12-22 17:00,ZGNN 221700Z AUTO 00000KT 3SM 12/10 A3012 RMK T01200100 IEM_DS3505
ZGNN,2002-12-22 18:00,ZGNN 221800Z AUTO 00000KT 7SM 12/11 A3012 RMK SLP206 T01190108 57004 IEM_DS3505
ZGNN,2002-12-22 19:00,ZGNN 221900Z AUTO 01004KT 3SM 12/10 A3012 RMK T01200100 IEM_DS3505
ZGNN,2002-12-22 20:00,ZGNN 222000Z AUTO 12002KT 3SM 12/11 A3012 RMK T01200110 IEM_DS3505
ZGNN,2002-12-22 21:00,ZGNN 222100Z AUTO 00000KT 7SM 13/10 A3012 RMK SLP206 T01260105 54000 IEM_DS3505
ZGNN,2002-12-22 22:00,ZGNN 222200Z AUTO 2 1/2SM 12/11 A3012 RMK T01200110 IEM_DS3505
ZGNN,2002-12-22 23:00,ZGNN 222300Z AUTO 2 1/2SM 12/11 A3015 RMK T01200110 IEM_DS3505
ZGNN,2002-12-23 00:00,ZGNN 230000Z AUTO 36002KT 9SM 12/10 A3018 RMK SLP225 T01240101 52019 IEM_DS3505
ZGNN,2002-12-23 01:00,ZGNN 230100Z AUTO 03004KT 7SM 13/10 A3018 RMK T01300100 IEM_DS3505
ZGNN,2002-12-23 02:00,ZGNN 230200Z AUTO 4SM 13/11 A3021 RMK T01300110 IEM_DS3505
ZGNN,2002-12-23 03:00,ZGNN 230300Z AUTO 02002KT 7SM 14/10 A3021 RMK SLP235 T01430105 52010 IEM_DS3505
ZGNN,2002-12-23 04:00,ZGNN 230400Z AUTO 35004KT 4SM 15/11 A3018 RMK T01500110 IEM_DS3505
ZGNN,2002-12-23 05:00,ZGNN 230500Z AUTO 4SM 16/11 A3015 RMK T01600110 IEM_DS3505
ZGNN,2002-12-23 06:00,ZGNN 230600Z AUTO 36006KT 7SM 16/11 A3012 RMK SLP199 T01590109 57036 IEM_DS3505
ZGNN,2002-12-23 07:00,ZGNN 230700Z AUTO 3SM 16/11 A3009 RMK T01600110 IEM_DS3505
ZGNN,2002-12-23 08:00,ZGNN 230800Z AUTO 17/11 A3006 RMK T01700110 IEM_DS3505
ZGNN,2002-12-23 09:00,ZGNN 230900Z AUTO 02004KT 4SM 17/11 A3006 RMK SLP189 T01670114 57009 IEM_DS3505
ZGNN,2002-12-23 10:00,ZGNN 231000Z AUTO 2 1/2SM 16/12 A3009 RMK T01600120 IEM_DS3505
ZGNN,2002-12-23 11:00,ZGNN 231100Z AUTO 31002KT 2 1/2SM 16/12 A3009 RMK T01600120 IEM_DS3505
ZGNN,2002-12-23 12:00,ZGNN 231200Z AUTO 00000KT 7SM 15/12 A3009 RMK SLP201 T01460124 52011 IEM_DS3505
ZGNN,2002-12-23 13:00,ZGNN 231300Z AUTO 03004KT 3SM 14/12 A3012 RMK T01400120 IEM_DS3505
ZGNN,2002-12-23 14:00,ZGNN 231400Z AUTO 03004KT 3SM 14/12 A3012 RMK T01400120 IEM_DS3505
ZGNN,2002-12-23 15:00,ZGNN 231500Z AUTO 00000KT 7SM 14/11 A3012 RMK SLP211 T01430111 52010 IEM_DS3505
ZGNN,2002-12-23 16:00,ZGNN 231600Z AUTO 04004KT 4SM 14/11 A3012 RMK T01400110 IEM_DS3505
ZGNN,2002-12-23 17:00,ZGNN 231700Z AUTO 03006KT 4SM 14/11 A3012 RMK T01400110 IEM_DS3505
ZGNN,2002-12-23 18:00,ZGNN 231800Z AUTO 00000KT 6SM 14/11 A3012 RMK SLP206 T01370113 57004 IEM_DS3505
ZGNN,2002-12-23 19:00,ZGNN 231900Z AUTO 06004KT 5SM 13/11 A3012 RMK T01300110 IEM_DS3505
ZGNN,2002-12-23 20:00,ZGNN 232000Z AUTO 06004KT 4SM 13/11 A3012 RMK T01300110 IEM_DS3505
ZGNN,2002-12-23 21:00,ZGNN 232100Z AUTO 00000KT 6SM 13/11 A3012 RMK SLP204 T01310108 57002 IEM_DS3505
ZGNN,2002-12-23 22:00,ZGNN 232200Z AUTO 05002KT 7SM 13/10 A3012 RMK T01300100 IEM_DS3505
ZGNN,2002-12-23 23:00,ZGNN 232300Z AUTO 04004KT 7SM 13/10 A3015 RMK T01300100 IEM_DS3505
ZGNN,2002-12-24 00:00,ZGNN 240000Z AUTO 00000KT 7SM 13/10 A3018 RMK SLP222 T01280101 52017 IEM_DS3505
ZGNN,2002-12-24 01:00,ZGNN 240100Z AUTO 03006KT 7SM 13/10 A3018 RMK T01300100 IEM_DS3505
ZGNN,2002-12-24 02:00,ZGNN 240200Z AUTO 05006KT 7SM 14/10 A3021 RMK T01400100 IEM_DS3505
ZGNN,2002-12-24 03:00,ZGNN 240300Z AUTO 07004KT 9SM 15/10 A3018 RMK SLP230 T01470101 52008 IEM_DS3505
ZGNN,2002-12-24 04:00,ZGNN 240400Z AUTO 6SM 16/10 A3015 RMK T01600100 IEM_DS3505
ZGNN,2002-12-24 05:00,ZGNN 240500Z AUTO 6SM 16/10 A3012 RMK T01600100 IEM_DS3505
ZGNN,2002-12-24 06:00,ZGNN 240600Z AUTO 25002KT 9SM 19/12 A3006 RMK SLP186 T01870115 57042 IEM_DS3505
ZGNN,2002-12-24 07:00,ZGNN 240700Z AUTO 6SM 18/12 A3003 RMK T01800120 IEM_DS3505
ZGNN,2002-12-24 08:00,ZGNN 240800Z AUTO 6SM 19/12 A3003 RMK T01900120 IEM_DS3505
ZGNN,2002-12-24 09:00,ZGNN 240900Z AUTO 04002KT 9SM 19/13 A3003 RMK SLP172 T01880126 57014 IEM_DS3505
ZGNN,2002-12-24 10:00,ZGNN 241000Z AUTO 7SM 18/13 A3003 RMK T01800130 IEM_DS3505
ZGNN,2002-12-24 11:00,ZGNN 241100Z AUTO 04004KT 7SM 16/13 A3003 RMK T01600130 IEM_DS3505
ZGNN,2002-12-24 12:00,ZGNN 241200Z AUTO 00000KT 8SM 16/13 A3006 RMK SLP186 T01550130 52013 IEM_DS3505
ZGNN,2002-12-24 13:00,ZGNN 241300Z AUTO 05004KT 5SM 15/12 A3006 RMK T01500120 IEM_DS3505
ZGNN,2002-12-24 14:00,ZGNN 241400Z AUTO 02004KT 5SM 15/12 A3009 RMK T01500120 IEM_DS3505
ZGNN,2002-12-24 15:00,ZGNN 241500Z AUTO 00000KT 7SM 15/13 A3009 RMK SLP194 T01460126 52008 IEM_DS3505
ZGNN,2002-12-24 16:00,ZGNN 241600Z AUTO 06004KT 3SM 15/13 A3009 RMK T01500130 IEM_DS3505
ZGNN,2002-12-24 17:00,ZGNN 241700Z AUTO 07006KT 4SM 15/12 A3009 RMK T01500120 IEM_DS3505
ZGNN,2002-12-24 18:00,ZGNN 241800Z AUTO 07002KT 7SM 16/12 A3009 RMK SLP190 T01550120 57003 IEM_DS3505
ZGNN,2002-12-24 19:00,ZGNN 241900Z AUTO 05004KT 4SM 15/12 A3006 RMK T01500120 IEM_DS3505
ZGNN,2002-12-24 20:00,ZGNN 242000Z AUTO 07004KT 5SM 15/12 A3006 RMK T01500120 IEM_DS3505
ZGNN,2002-12-24 21:00,ZGNN 242100Z AUTO 09004KT 7SM 16/12 A3009 RMK SLP192 T01570119 52002 IEM_DS3505
ZGNN,2002-12-24 22:00,ZGNN 242200Z AUTO 06006KT 7SM 15/12 A3009 RMK T01500120 IEM_DS3505
ZGNN,2002-12-24 23:00,ZGNN 242300Z AUTO 06004KT 7SM 15/12 A3009 RMK T01500120 IEM_DS3505
ZGNN,2002-12-25 00:00,ZGNN 250000Z AUTO 11002KT 6SM 15/12 A3012 RMK SLP209 T01530120 52016 IEM_DS3505
ZGNN,2002-12-25 01:00,ZGNN 250100Z AUTO 07006KT 7SM 15/11 A3018 RMK T01500110 IEM_DS3505
ZGNN,2002-12-25 02:00,ZGNN 250200Z AUTO 07004KT 7SM 15/11 A3018 RMK T01500110 IEM_DS3505
ZGNN,2002-12-25 03:00,ZGNN 250300Z AUTO 02002KT 4SM 15/11 A3021 RMK SLP232 T01500111 52022 IEM_DS3505
ZGNN,2002-12-25 04:00,ZGNN 250400Z AUTO 06006KT 5SM 15/11 A3018 RMK T01500110 IEM_DS3505
ZGNN,2002-12-25 05:00,ZGNN 250500Z AUTO 05012KT 4SM 15/10 A3015 RMK T01500100 IEM_DS3505
ZGNN,2002-12-25 06:00,ZGNN 250600Z AUTO 09004KT 5SM 14/10 A3012 RMK SLP203 T01410101 57028 IEM_DS3505
ZGNN,2002-12-25 08:00,ZGNN 250800Z AUTO 04010KT 5SM 13/09 A3012 RMK T01300090 IEM_DS3505
ZGNN,2002-12-25 09:00,ZGNN 250900Z AUTO 04004KT 5SM 12/09 A3015 RMK SLP217 T01230089 52013 IEM_DS3505
ZGNN,2002-12-25 10:00,ZGNN 251000Z AUTO 05010KT 6SM 12/08 A3015 RMK T01200080 IEM_DS3505
ZGNN,2002-12-25 11:00,ZGNN 251100Z AUTO 06008KT 5SM 11/08 A3018 RMK T01100080 IEM_DS3505
ZGNN,2002-12-25 12:00,ZGNN 251200Z AUTO 00000KT 7SM 10/07 A3021 RMK SLP236 T01050071 52018 IEM_DS3505
ZGNN,2002-12-25 13:00,ZGNN 251300Z AUTO 05012KT 7SM RMK IEM_DS3505
ZGNN,2002-12-25 14:00,ZGNN 251400Z AUTO 05012KT 7SM 09/06 A3021 RMK T00900060 IEM_DS3505
ZGNN,2002-12-25 15:00,ZGNN 251500Z AUTO 09006KT 7SM 09/06 A3024 RMK SLP239 T00930058 52003 IEM_DS3505
ZGNN,2002-12-25 17:00,ZGNN 251700Z AUTO 04008KT 7SM 08/06 A3024 RMK T00800060 IEM_DS3505
ZGNN,2002-12-25 18:00,ZGNN 251800Z AUTO 02008KT 6SM 08/06 A3024 RMK SLP247 T00820065 52007 IEM_DS3505
ZGNN,2002-12-25 21:00,ZGNN 252100Z AUTO 34008KT 7SM 07/04 A3027 RMK 70001 SLP256 T00670044 52008 IEM_DS3505
ZGNN,2002-12-25 22:00,ZGNN 252200Z AUTO 01008KT 7SM 06/04 A3027 RMK T00600040 IEM_DS3505
ZGNN,2002-12-25 23:00,ZGNN 252300Z AUTO 04008KT 7SM 06/03 A3027 RMK T00600030 IEM_DS3505
ZGNN,2002-12-26 00:00,ZGNN 260000Z AUTO 04004KT 5SM 06/04 A3030 RMK 60004 70004 SLP269 T00550038 52012 IEM_DS3505
ZGNN,2002-12-26 01:00,ZGNN 260100Z AUTO 01008KT 7SM 05/04 A3030 RMK T00500040 IEM_DS3505
ZGNN,2002-12-26 02:00,ZGNN 260200Z AUTO 00000KT 4SM 05/04 A3036 RMK T00500040 IEM_DS3505
ZGNN,2002-12-26 03:00,ZGNN 260300Z AUTO 36010KT 7SM 06/04 A3033 RMK SLP285 T00570043 52016 IEM_DS3505
ZGNN,2002-12-26 04:00,ZGNN 260400Z AUTO 35010KT 7SM 05/04 A3033 RMK T00500040 IEM_DS3505
ZGNN,2002-12-26 05:00,ZGNN 260500Z AUTO 34008KT 5SM 05/04 A3030 RMK T00500040 IEM_DS3505
ZGNN,2002-12-26 06:00,ZGNN 260600Z AUTO 34006KT 6SM 05/04 A3027 RMK 60071 SLP256 T00510037 57029 IEM_DS3505
ZGNN,2002-12-26 07:00,ZGNN 260700Z AUTO 34010KT 5SM 05/03 A3027 RMK T00500030 IEM_DS3505
ZGNN,2002-12-26 08:00,ZGNN 260800Z AUTO 32010KT 5SM 05/04 A3027 RMK T00500040 IEM_DS3505
ZGNN,2002-12-26 09:00,ZGNN 260900Z AUTO 34006KT 6SM 04/03 A3027 RMK SLP266 T00450033 52009 IEM_DS3505
ZGNN,2002-12-26 11:00,ZGNN 261100Z AUTO 35008KT 4SM 04/03 A3030 RMK T00400030 IEM_DS3505
ZGNN,2002-12-26 12:00,ZGNN 261200Z AUTO 29004KT 5SM 04/03 A3033 RMK 60051 SLP288 T00410034 52021 IEM_DS3505
ZGNN,2002-12-26 13:00,ZGNN 261300Z AUTO 34006KT 5SM 04/03 A3036 RMK T00400030 IEM_DS3505
ZGNN,2002-12-26 15:00,ZGNN 261500Z AUTO 34006KT 5SM 04/03 A3036 RMK SLP294 T00390029 52006 IEM_DS3505
ZGNN,2002-12-26 16:00,ZGNN 261600Z AUTO 34008KT 7SM 04/02 A3036 RMK T00400020 IEM_DS3505
ZGNN,2002-12-26 17:00,ZGNN 261700Z AUTO 35006KT 7SM 04/02 A3033 RMK T00400020 IEM_DS3505
ZGNN,2002-12-26 18:00,ZGNN 261800Z AUTO 34006KT 6SM 04/03 RMK 60024 SLP289 T00360026 57005 IEM_DS3505
ZGNN,2002-12-26 21:00,ZGNN 262100Z AUTO 34008KT 7SM 03/02 A3033 RMK 70147 SLP279 T00330018 57010 IEM_DS3505
ZGNN,2002-12-26 22:00,ZGNN 262200Z AUTO 33008KT 7SM 03/02 A3033 RMK T00300020 IEM_DS3505
ZGNN,2002-12-26 23:00,ZGNN 262300Z AUTO 34008KT 7SM 03/01 A3033 RMK T00300010 IEM_DS3505
ZGNN,2002-12-27 00:00,ZGNN 270000Z AUTO 34006KT 9SM 03/02 A3036 RMK 70144 SLP289 T00320016 52009 IEM_DS3505
ZGNN,2002-12-27 01:00,ZGNN 270100Z AUTO 35008KT 7SM 04/02 A3036 RMK T00400020 IEM_DS3505
ZGNN,2002-12-27 02:00,ZGNN 270200Z AUTO 34006KT 7SM 04/02 A3039 RMK T00400020 IEM_DS3505
ZGNN,2002-12-27 03:00,ZGNN 270300Z AUTO 34006KT 9SM 05/01 A3039 RMK SLP294 T00490010 52006 IEM_DS3505
ZGNN,2002-12-27 05:00,ZGNN 270500Z AUTO 34006KT 7SM 05/01 A3030 RMK T00500010 IEM_DS3505
ZGNN,2002-12-27 06:00,ZGNN 270600Z AUTO 02006KT 11SM 06/01 A3027 RMK SLP259 T00580012 57035 IEM_DS3505
ZGNN,2002-12-27 07:00,ZGNN 270700Z AUTO 01008KT 7SM 06/01 A3024 RMK T00600010 IEM_DS3505
ZGNN,2002-12-27 08:00,ZGNN 270800Z AUTO 7SM 06/02 A3021 RMK T00600020 IEM_DS3505
ZGNN,2002-12-27 09:00,ZGNN 270900Z AUTO 02006KT 11SM 06/01 A3024 RMK SLP248 T00640008 57010 IEM_DS3505
ZGNN,2002-12-27 10:00,ZGNN 271000Z AUTO 01006KT 7SM 06/01 A3024 RMK T00600010 IEM_DS3505
ZGNN,2002-12-27 11:00,ZGNN 271100Z AUTO 05006KT 7SM 06/02 A3024 RMK T00600020 IEM_DS3505
ZGNN,2002-12-27 12:00,ZGNN 271200Z AUTO 00000KT 11SM 05/02 A3027 RMK SLP260 T00530018 52011 IEM_DS3505
ZGNN,2002-12-27 13:00,ZGNN 271300Z AUTO 05006KT 7SM 05/02 A3027 RMK T00500020 IEM_DS3505
ZGNN,2002-12-27 14:00,ZGNN 271400Z AUTO 05004KT 7SM 05/02 A3030 RMK T00500020 IEM_DS3505
ZGNN,2002-12-27 15:00,ZGNN 271500Z AUTO 00000KT 9SM 05/02 A3030 RMK SLP271 T00510018 52011 IEM_DS3505
ZGNN,2002-12-27 16:00,ZGNN 271600Z AUTO 06002KT 7SM 05/02 A3030 RMK T00500020 IEM_DS3505
ZGNN,2002-12-27 17:00,ZGNN 271700Z AUTO 6SM 05/02 A3027 RMK T00500020 IEM_DS3505
ZGNN,2002-12-27 18:00,ZGNN 271800Z AUTO 34002KT 8SM 05/02 A3027 RMK SLP260 T00540016 57010 IEM_DS3505
ZGNN,2002-12-27 19:00,ZGNN 271900Z AUTO 34006KT 5SM 05/02 A3027 RMK T00500020 IEM_DS3505
ZGNN,2002-12-27 20:00,ZGNN 272000Z AUTO 33004KT 6SM 05/02 A3024 RMK T00500020 IEM_DS3505
ZGNN,2002-12-27 21:00,ZGNN 272100Z AUTO 34004KT 7SM 05/02 A3024 RMK 70000 SLP250 T00540019 57010 IEM_DS3505
ZGNN,2002-12-27 22:00,ZGNN 272200Z AUTO 32004KT 7SM 05/02 A3024 RMK T00500020 IEM_DS3505
ZGNN,2002-12-27 23:00,ZGNN 272300Z AUTO 34004KT 7SM 05/01 A3024 RMK T00500010 IEM_DS3505
ZGNN,2002-12-28 00:00,ZGNN 280000Z AUTO 02004KT 7SM 05/01 A3027 RMK 70000 SLP263 T00520011 52013 IEM_DS3505
ZGNN,2002-12-28 02:00,ZGNN 280200Z AUTO 7SM 06/01 A3030 RMK T00600010 IEM_DS3505
ZGNN,2002-12-28 03:00,ZGNN 280300Z AUTO 34004KT 9SM 06/02 A3030 RMK SLP272 T00630018 52009 IEM_DS3505
ZGNN,2002-12-28 04:00,ZGNN 280400Z AUTO 36006KT 7SM 07/02 A3027 RMK T00700020 IEM_DS3505
ZGNN,2002-12-28 05:00,ZGNN 280500Z AUTO 02006KT 7SM 07/02 A3024 RMK T00700020 IEM_DS3505
ZGNN,2002-12-28 06:00,ZGNN 280600Z AUTO 32006KT 8SM 08/03 A3018 RMK SLP232 T00790029 57039 IEM_DS3505
ZGNN,2002-12-28 07:00,ZGNN 280700Z AUTO 34006KT 7SM 08/03 A3018 RMK T00800030 IEM_DS3505
ZGNN,2002-12-28 08:00,ZGNN 280800Z AUTO 36006KT 7SM 08/03 A3015 RMK T00800030 IEM_DS3505
ZGNN,2002-12-28 09:00,ZGNN 280900Z AUTO 34006KT 8SM 08/03 A3015 RMK SLP224 T00760028 57008 IEM_DS3505
ZGNN,2002-12-28 10:00,ZGNN 281000Z AUTO 01006KT 7SM 07/03 A3018 RMK T00700030 IEM_DS3505
ZGNN,2002-12-28 11:00,ZGNN 281100Z AUTO 35006KT 4SM 07/04 A3021 RMK T00700040 IEM_DS3505
ZGNN,2002-12-28 12:00,ZGNN 281200Z AUTO 04002KT 6SM 06/04 A3021 RMK SLP246 T00610042 52021 IEM_DS3505
ZGNN,2002-12-28 13:00,ZGNN 281300Z AUTO 05006KT 2 1/2SM 05/04 A3024 RMK T00500040 IEM_DS3505
ZGNN,2002-12-28 14:00,ZGNN 281400Z AUTO 04004KT 2SM 05/04 A3027 RMK T00500040 IEM_DS3505
ZGNN,2002-12-28 15:00,ZGNN 281500Z AUTO 02002KT 5SM 05/05 A3027 RMK SLP262 T00530046 52016 IEM_DS3505
ZGNN,2002-12-28 16:00,ZGNN 281600Z AUTO 05004KT 1 1/4SM 05/05 A3027 RMK T00500050 IEM_DS3505
ZGNN,2002-12-28 17:00,ZGNN 281700Z AUTO 05006KT 1 1/2SM 05/04 A3027 RMK T00500040 IEM_DS3505
ZGNN,2002-12-28 18:00,ZGNN 281800Z AUTO 00000KT 4SM 05/05 A3027 RMK 60002 SLP260 T00540047 57002 IEM_DS3505
ZGNN,2002-12-28 19:00,ZGNN 281900Z AUTO 36004KT 2SM 05/05 A3024 RMK T00500050 IEM_DS3505
ZGNN,2002-12-28 20:00,ZGNN 282000Z AUTO 34004KT 3SM 05/05 A3024 RMK T00500050 IEM_DS3505
ZGNN,2002-12-28 21:00,ZGNN 282100Z AUTO 34006KT 4SM 06/05 A3024 RMK 70002 SLP254 T00550046 57006 IEM_DS3505
ZGNN,2002-12-28 22:00,ZGNN 282200Z AUTO 34004KT 7SM 05/05 A3024 RMK T00500050 IEM_DS3505
ZGNN,2002-12-28 23:00,ZGNN 282300Z AUTO 34004KT 7SM 05/04 A3027 RMK T00500040 IEM_DS3505
ZGNN,2002-12-29 00:00,ZGNN 290000Z AUTO 00000KT 4SM 06/05 A3030 RMK 70002 SLP271 T00570048 52017 IEM_DS3505
ZGNN,2002-12-29 01:00,ZGNN 290100Z AUTO 34004KT 7SM 06/04 A3033 RMK T00600040 IEM_DS3505
ZGNN,2002-12-29 02:00,ZGNN 290200Z AUTO 34006KT 7SM 06/05 A3033 RMK T00600050 IEM_DS3505
ZGNN,2002-12-29 03:00,ZGNN 290300Z AUTO 34004KT 5SM 06/05 A3033 RMK SLP282 T00650047 52011 IEM_DS3505
ZGNN,2002-12-29 04:00,ZGNN 290400Z AUTO 35004KT 5SM 07/05 A3030 RMK T00700050 IEM_DS3505
ZGNN,2002-12-29 05:00,ZGNN 290500Z AUTO 35006KT 5SM 07/05 A3027 RMK T00700050 IEM_DS3505
ZGNN,2002-12-29 06:00,ZGNN 290600Z AUTO 34006KT 7SM 08/05 RMK SLP245 T00770047 57036 IEM_DS3505
ZGNN,2002-12-29 07:00,ZGNN 290700Z AUTO 34006KT 5SM 08/05 A3021 RMK T00800050 IEM_DS3505
ZGNN,2002-12-29 08:00,ZGNN 290800Z AUTO 34006KT 7SM 09/05 A3018 RMK T00900050 IEM_DS3505
ZGNN,2002-12-29 09:00,ZGNN 290900Z AUTO 34004KT 7SM 09/05 A3018 RMK SLP234 T00900052 57011 IEM_DS3505
ZGNN,2002-12-29 10:00,ZGNN 291000Z AUTO 34002KT 7SM 09/05 A3018 RMK T00900050 IEM_DS3505
ZGNN,2002-12-29 11:00,ZGNN 291100Z AUTO 7SM 08/05 A3021 RMK T00800050 IEM_DS3505
ZGNN,2002-12-29 12:00,ZGNN 291200Z AUTO 00000KT 7SM 08/06 A3021 RMK SLP242 T00850061 52008 IEM_DS3505
ZGNN,2002-12-29 13:00,ZGNN 291300Z AUTO 03004KT 4SM 08/05 A3024 RMK T00800050 IEM_DS3505
ZGNN,2002-12-29 14:00,ZGNN 291400Z AUTO 4SM 08/06 A3024 RMK T00800060 IEM_DS3505
ZGNN,2002-12-29 15:00,ZGNN 291500Z AUTO 34002KT 7SM 08/06 A3024 RMK SLP254 T00800060 52012 IEM_DS3505
ZGNN,2002-12-29 16:00,ZGNN 291600Z AUTO 01002KT 3SM 08/06 A3027 RMK T00800060 IEM_DS3505
ZGNN,2002-12-29 17:00,ZGNN 291700Z AUTO 3SM 08/06 A3027 RMK T00800060 IEM_DS3505
ZGNN,2002-12-29 18:00,ZGNN 291800Z AUTO 00000KT 7SM 08/06 A3024 RMK SLP249 T00770059 57005 IEM_DS3505
ZGNN,2002-12-29 19:00,ZGNN 291900Z AUTO 4SM 08/06 A3024 RMK T00800060 IEM_DS3505
ZGNN,2002-12-29 20:00,ZGNN 292000Z AUTO 36006KT 4SM 08/05 A3021 RMK T00800050 IEM_DS3505
ZGNN,2002-12-29 21:00,ZGNN 292100Z AUTO 34004KT 6SM 07/06 A3021 RMK 70000 SLP235 T00720061 57013 IEM_DS3505
ZGNN,2002-12-29 22:00,ZGNN 292200Z AUTO 34004KT 2 1/2SM 07/06 A3021 RMK T00700060 IEM_DS3505
ZGNN,2002-12-29 23:00,ZGNN 292300Z AUTO 35004KT 3SM 07/06 A3024 RMK T00700060 IEM_DS3505
ZGNN,2002-12-30 00:00,ZGNN 300000Z AUTO 34002KT 4SM 07/06 A3024 RMK 70000 SLP256 T00690060 52020 IEM_DS3505
ZGNN,2002-12-30 01:00,ZGNN 300100Z AUTO 34004KT 2 1/2SM 07/06 A3027 RMK T00700060 IEM_DS3505
ZGNN,2002-12-30 02:00,ZGNN 300200Z AUTO 35004KT 3SM 07/06 A3030 RMK T00700060 IEM_DS3505
ZGNN,2002-12-30 03:00,ZGNN 300300Z AUTO 32006KT 2 1/2SM 08/07 A3030 RMK SLP265 T00750066 52009 IEM_DS3505
ZGNN,2002-12-30 04:00,ZGNN 300400Z AUTO 7SM 08/06 A3027 RMK T00800060 IEM_DS3505
ZGNN,2002-12-30 06:00,ZGNN 300600Z AUTO 02004KT 9SM 09/06 A3018 RMK SLP227 T00910065 57037 IEM_DS3505
ZGNN,2002-12-30 07:00,ZGNN 300700Z AUTO 7SM 09/06 A3015 RMK T00900060 IEM_DS3505
ZGNN,2002-12-30 08:00,ZGNN 300800Z AUTO 7SM 09/06 A3015 RMK T00900060 IEM_DS3505
ZGNN,2002-12-30 09:00,ZGNN 300900Z AUTO 04002KT 7SM 10/07 A3015 RMK SLP216 T00970072 57011 IEM_DS3505
ZGNN,2002-12-30 10:00,ZGNN 301000Z AUTO 06002KT 7SM 09/07 A3015 RMK T00900070 IEM_DS3505
ZGNN,2002-12-30 11:00,ZGNN 301100Z AUTO 05002KT 5SM 09/07 A3018 RMK T00900070 IEM_DS3505
ZGNN,2002-12-30 12:00,ZGNN 301200Z AUTO 00000KT 2SM 09/08 A3018 RMK SLP232 T00890076 52016 IEM_DS3505
ZGNN,2002-12-30 13:00,ZGNN 301300Z AUTO 06002KT 4SM 09/07 A3021 RMK T00900070 IEM_DS3505
ZGNN,2002-12-30 14:00,ZGNN 301400Z AUTO 4SM 09/07 A3021 RMK T00900070 IEM_DS3505
ZGNN,2002-12-30 15:00,ZGNN 301500Z AUTO 29002KT 2SM 09/08 A3021 RMK SLP242 T00910085 52010 IEM_DS3505
ZGNN,2002-12-30 16:00,ZGNN 301600Z AUTO 22002KT 2SM 09/08 A3024 RMK T00900080 IEM_DS3505
ZGNN,2002-12-30 17:00,ZGNN 301700Z AUTO 23002KT 1 1/4SM 09/08 A3024 RMK T00900080 IEM_DS3505
ZGNN,2002-12-30 18:00,ZGNN 301800Z AUTO 00000KT 2SM 09/08 A3021 RMK SLP242 T00910085 54000 IEM_DS3505
ZGNN,2002-12-30 19:00,ZGNN 301900Z AUTO 23002KT 2SM 09/08 A3021 RMK T00900080 IEM_DS3505
ZGNN,2002-12-30 20:00,ZGNN 302000Z AUTO 00000KT 2SM 09/08 A3018 RMK T00900080 IEM_DS3505
ZGNN,2002-12-30 21:00,ZGNN 302100Z AUTO 00000KT 2 1/2SM 09/08 A3018 RMK 70000 SLP232 T00900084 57010 IEM_DS3505
ZGNN,2002-12-30 22:00,ZGNN 302200Z AUTO 00000KT 2 1/2SM 09/08 A3018 RMK T00900080 IEM_DS3505
ZGNN,2002-12-30 23:00,ZGNN 302300Z AUTO 2 1/2SM 09/08 A3021 RMK T00900080 IEM_DS3505
