station,valid,metar
ZGNN,1995-01-01 00:00,ZGNN 010000Z AUTO 07002KT 4SM 11/09 A3027 RMK 60000 70012 SLP250 T01090091 52016 IEM_DS3505
ZGNN,1995-01-01 01:00,ZGNN 010100Z AUTO 07004KT 1 1/2SM 10/10 A3030 RMK SLP255 T01000100 IEM_DS3505
ZGNN,1995-01-01 02:00,ZGNN 010200Z AUTO 06004KT 2SM 10/09 A3033 RMK SLP265 T01000090 IEM_DS3505
ZGNN,1995-01-01 03:00,ZGNN 010300Z AUTO 07004KT 4SM 10/09 A3036 RMK SLP269 T01030093 52018 IEM_DS3505
ZGNN,1995-01-01 04:00,ZGNN 010400Z AUTO 06004KT 2SM 10/09 A3033 RMK SLP265 T01000090 IEM_DS3505
ZGNN,1995-01-01 06:00,ZGNN 010600Z AUTO 09004KT 5SM 10/09 A3027 RMK 60016 SLP249 T01020092 57020 IEM_DS3505
ZGNN,1995-01-01 07:00,ZGNN 010700Z AUTO 04006KT 2 1/2SM 10/09 A3027 RMK SLP245 T01000090 IEM_DS3505
ZGNN,1995-01-01 09:00,ZGNN 010900Z AUTO 04004KT 4SM 10/09 A3024 RMK SLP238 T00970091 57011 IEM_DS3505
ZGNN,1995-01-01 10:00,ZGNN 011000Z AUTO 06004KT 1 1/2SM 09/09 A3027 RMK SLP245 T00900090 IEM_DS3505
ZGNN,1995-01-01 11:00,ZGNN 011100Z AUTO 07004KT 1 1/2SM 09/09 A3027 RMK SLP245 T00900090 IEM_DS3505
ZGNN,1995-01-01 12:00,ZGNN 011200Z AUTO 07002KT 6SM 09/08 A3030 RMK 60008 SLP255 T00890076 52017 IEM_DS3505
ZGNN,1995-01-01 13:00,ZGNN 011300Z AUTO 05006KT 1 1/2SM 09/09 A3030 RMK SLP255 T00900090 IEM_DS3505
ZGNN,1995-01-01 14:00,ZGNN 011400Z AUTO 06004KT 1 1/2SM 09/08 A3033 RMK SLP265 T00900080 IEM_DS3505
ZGNN,1995-01-01 15:00,ZGNN 011500Z AUTO 04002KT 5SM 09/08 A3032 RMK SLP262 T00870081 52007 IEM_DS3505
ZGNN,1995-01-01 18:00,ZGNN 011800Z AUTO 00000KT 4SM 09/08 A3030 RMK 60012 SLP255 T00870081 57007 IEM_DS3505
ZGNN,1995-01-01 21:00,ZGNN 012100Z AUTO 02002KT 4SM 09/08 A3024 RMK SLP242 T00860082 57013 IEM_DS3505
ZGNN,1995-01-01 22:00,ZGNN 012200Z AUTO 03006KT 4SM 08/08 A3027 RMK SLP245 T00800080 IEM_DS3505
ZGNN,1995-01-01 23:00,ZGNN 012300Z AUTO 36006KT 2SM 08/08 A3027 RMK SLP245 T00800080 IEM_DS3505
ZGNN,1995-01-02 00:00,ZGNN 020000Z AUTO 07004KT 3SM 08/08 A3027 RMK 60016 70047 SLP251 T00790075 52009 IEM_DS3505
ZGNN,1995-01-02 01:00,ZGNN 020100Z AUTO 00000KT 1 1/2SM 08/08 A3030 RMK SLP255 T00800080 IEM_DS3505
ZGNN,1995-01-02 02:00,ZGNN 020200Z AUTO 06004KT 1 1/2SM 08/08 A3030 RMK SLP255 T00800080 IEM_DS3505
ZGNN,1995-01-02 03:00,ZGNN 020300Z AUTO 07002KT 4SM 08/08 A3030 RMK SLP260 T00820076 52009 IEM_DS3505
ZGNN,1995-01-02 06:00,ZGNN 020600Z AUTO 07002KT 4SM 08/08 A3021 RMK 60016 SLP227 T00840078 57033 IEM_DS3505
ZGNN,1995-01-02 07:00,ZGNN 020700Z AUTO 00000KT 3SM 09/08 A3018 RMK SLP215 T00900080 IEM_DS3505
ZGNN,1995-01-02 08:00,ZGNN 020800Z AUTO 01006KT 4SM 09/08 A3018 RMK SLP215 T00900080 IEM_DS3505
ZGNN,1995-01-02 09:00,ZGNN 020900Z AUTO 04002KT 4SM 08/08 A3018 RMK SLP213 T00840078 57014 IEM_DS3505
ZGNN,1995-01-02 10:00,ZGNN 021000Z AUTO 00000KT 4SM 09/08 A3018 RMK SLP215 T00900080 IEM_DS3505
ZGNN,1995-01-02 11:00,ZGNN 021100Z AUTO 01006KT 4SM 09/08 A3018 RMK SLP215 T00900080 IEM_DS3505
ZGNN,1995-01-02 12:00,ZGNN 021200Z AUTO 02002KT 6SM 08/08 A3021 RMK 60016 SLP227 T00850081 52014 IEM_DS3505
ZGNN,1995-01-02 13:00,ZGNN 021300Z AUTO 35006KT 08/07 A3021 RMK SLP225 T00800070 IEM_DS3505
ZGNN,1995-01-02 14:00,ZGNN 021400Z AUTO 02004KT 6SM 08/07 A3021 RMK SLP225 T00800070 IEM_DS3505
ZGNN,1995-01-02 15:00,ZGNN 021500Z AUTO 04002KT 6SM 08/07 A3024 RMK SLP234 T00840071 52007 IEM_DS3505
ZGNN,1995-01-02 18:00,ZGNN 021800Z AUTO 29002KT 9SM 08/07 A3022 RMK 60004 SLP227 T00820073 57007 IEM_DS3505
ZGNN,1995-01-02 21:00,ZGNN 022100Z AUTO 34004KT 7SM 08/07 A3022 RMK SLP227 T00790068 54000 IEM_DS3505
ZGNN,1995-01-03 00:00,ZGNN 030000Z AUTO 34004KT 5SM 08/06 A3024 RMK 60004 70035 SLP237 T00780065 52010 IEM_DS3505
ZGNN,1995-01-03 01:00,ZGNN 030100Z AUTO 34008KT 7SM 08/05 A3027 RMK SLP245 T00800050 IEM_DS3505
ZGNN,1995-01-03 03:00,ZGNN 030300Z AUTO 34002KT 7SM 08/06 A3032 RMK SLP261 T00810059 52024 IEM_DS3505
ZGNN,1995-01-03 06:00,ZGNN 030600Z AUTO 32002KT 6SM 08/06 A3024 RMK 60000 SLP234 T00820065 57027 IEM_DS3505
ZGNN,1995-01-03 07:00,ZGNN 030700Z AUTO 34004KT 7SM 08/06 A3021 RMK SLP225 T00800060 IEM_DS3505
ZGNN,1995-01-03 08:00,ZGNN 030800Z AUTO 35006KT 7SM 08/06 A3021 RMK SLP225 T00800060 IEM_DS3505
ZGNN,1995-01-03 09:00,ZGNN 030900Z AUTO 02006KT 7SM 09/06 A3021 RMK SLP225 T00870063 57009 IEM_DS3505
ZGNN,1995-01-03 11:00,ZGNN 031100Z AUTO 36004KT 7SM 08/06 A3024 RMK SLP235 T00800060 IEM_DS3505
ZGNN,1995-01-03 12:00,ZGNN 031200Z AUTO 00000KT 11SM 09/06 A3024 RMK 60004 SLP237 T00890061 52012 IEM_DS3505
ZGNN,1995-01-03 13:00,ZGNN 031300Z AUTO 33004KT 7SM 09/05 A3027 RMK SLP245 T00900050 IEM_DS3505
ZGNN,1995-01-03 15:00,ZGNN 031500Z AUTO 04004KT 11SM 09/06 A3028 RMK SLP248 T00910058 52011 IEM_DS3505
ZGNN,1995-01-03 18:00,ZGNN 031800Z AUTO 00000KT 9SM 09/06 A3029 RMK SLP250 T00920059 52002 IEM_DS3505
ZGNN,1995-01-03 21:00,ZGNN 032100Z AUTO 00000KT 9SM 09/05 A3027 RMK SLP250 T00890049 54000 IEM_DS3505
ZGNN,1995-01-03 22:00,ZGNN 032200Z AUTO 35006KT 7SM 09/03 A3030 RMK SLP255 T00900030 IEM_DS3505
ZGNN,1995-01-03 23:00,ZGNN 032300Z AUTO 35006KT 7SM 09/03 A3033 RMK SLP265 T00900030 IEM_DS3505
ZGNN,1995-01-04 00:00,ZGNN 040000Z AUTO 34004KT 11SM 09/04 A3033 RMK 70004 SLP269 T00910043 52019 IEM_DS3505
ZGNN,1995-01-04 01:00,ZGNN 040100Z AUTO 35008KT 7SM 09/03 A3036 RMK SLP275 T00900030 IEM_DS3505
ZGNN,1995-01-04 02:00,ZGNN 040200Z AUTO 35012KT 7SM 10/02 A3039 RMK SLP285 T01000020 IEM_DS3505
ZGNN,1995-01-04 03:00,ZGNN 040300Z AUTO 04010KT 12SM 11/04 A3039 RMK SLP289 T01110036 52020 IEM_DS3505
ZGNN,1995-01-04 06:00,ZGNN 040600Z AUTO 34004KT 19SM 13/03 A3033 RMK SLP261 T01330032 57027 IEM_DS3505
ZGNN,1995-01-04 07:00,ZGNN 040700Z AUTO 36010KT 7SM 14/03 A3030 RMK SLP253 T01400030 IEM_DS3505
ZGNN,1995-01-04 08:00,ZGNN 040800Z AUTO 36010KT 7SM 14/02 A3027 RMK SLP243 T01400020 IEM_DS3505
ZGNN,1995-01-04 09:00,ZGNN 040900Z AUTO 32006KT 19SM 14/04 A3030 RMK SLP250 T01450035 57011 IEM_DS3505
ZGNN,1995-01-04 10:00,ZGNN 041000Z AUTO 03004KT 7SM 13/02 A3033 RMK SLP264 T01300020 IEM_DS3505
ZGNN,1995-01-04 11:00,ZGNN 041100Z AUTO 00000KT 7SM 11/04 A3033 RMK SLP264 T01100040 IEM_DS3505
ZGNN,1995-01-04 12:00,ZGNN 041200Z AUTO 04002KT 14SM 11/05 A3036 RMK SLP276 T01090049 52025 IEM_DS3505
ZGNN,1995-01-04 13:00,ZGNN 041300Z AUTO 35004KT 7SM 08/05 A3039 RMK SLP286 T00800050 IEM_DS3505
ZGNN,1995-01-04 15:00,ZGNN 041500Z AUTO 00000KT 10SM 08/06 A3041 RMK SLP292 T00790064 52016 IEM_DS3505
ZGNN,1995-01-04 18:00,ZGNN 041800Z AUTO 00000KT 7SM 07/06 A3042 RMK SLP297 T00690058 52005 IEM_DS3505
ZGNN,1995-01-04 21:00,ZGNN 042100Z AUTO 00000KT 6SM 05/05 A3042 RMK SLP295 T00530051 57002 IEM_DS3505
ZGNN,1995-01-04 22:00,ZGNN 042200Z AUTO 00000KT 7SM 04/03 A3042 RMK SLP297 T00400030 IEM_DS3505
ZGNN,1995-01-04 23:00,ZGNN 042300Z AUTO 00000KT 7SM 04/03 A3045 RMK SLP307 T00400030 IEM_DS3505
ZGNN,1995-01-05 00:00,ZGNN 050000Z AUTO 00000KT 5SM 05/04 A3045 RMK SLP311 T00490044 52015 IEM_DS3505
ZGNN,1995-01-05 01:00,ZGNN 050100Z AUTO 18004KT 7SM 06/04 A3047 RMK SLP314 T00600040 IEM_DS3505
ZGNN,1995-01-05 02:00,ZGNN 050200Z AUTO 35006KT 7SM 12/03 A3047 RMK SLP312 T01200030 IEM_DS3505
ZGNN,1995-01-05 03:00,ZGNN 050300Z AUTO 02002KT 7SM 12/03 A3047 RMK SLP315 T01250026 52005 IEM_DS3505
ZGNN,1995-01-05 05:00,ZGNN 050500Z AUTO 02002KT 7SM 15/M03 A3042 RMK SLP293 T01501030 IEM_DS3505
ZGNN,1995-01-05 06:00,ZGNN 050600Z AUTO 04006KT 16SM 16/M01 A3037 RMK SLP279 T01621007 57035 IEM_DS3505
ZGNN,1995-01-05 07:00,ZGNN 050700Z AUTO 02006KT 7SM 16/M02 A3036 RMK SLP273 T01601020 IEM_DS3505
ZGNN,1995-01-05 08:00,ZGNN 050800Z AUTO 33006KT 7SM 16/M05 A3033 RMK SLP263 T01601050 IEM_DS3505
ZGNN,1995-01-05 09:00,ZGNN 050900Z AUTO 36004KT 19SM 17/M01 A3033 RMK SLP261 T01681011 57018 IEM_DS3505
ZGNN,1995-01-05 10:00,ZGNN 051000Z AUTO 03002KT 7SM 15/02 A3033 RMK SLP263 T01500020 IEM_DS3505
ZGNN,1995-01-05 11:00,ZGNN 051100Z AUTO 12/05 A3036 RMK SLP274 T01200050 IEM_DS3505
ZGNN,1995-01-05 12:00,ZGNN 051200Z AUTO 00000KT 16SM 11/05 A3036 RMK SLP278 T01090049 52015 IEM_DS3505
ZGNN,1995-01-05 13:00,ZGNN 051300Z AUTO 00000KT 7SM 08/06 A3039 RMK SLP286 T00800060 IEM_DS3505
ZGNN,1995-01-05 14:00,ZGNN 051400Z AUTO 00000KT 7SM 07/05 A3039 RMK SLP286 T00700050 IEM_DS3505
ZGNN,1995-01-05 15:00,ZGNN 051500Z AUTO 00000KT 12SM 08/06 A3040 RMK SLP291 T00830061 52014 IEM_DS3505
ZGNN,1995-01-05 18:00,ZGNN 051800Z AUTO 07002KT 12SM 07/05 A3040 RMK SLP290 T00660052 57001 IEM_DS3505
ZGNN,1995-01-05 21:00,ZGNN 052100Z AUTO 00000KT 9SM 06/06 A3039 RMK SLP280 T00600055 57010 IEM_DS3505
ZGNN,1995-01-05 22:00,ZGNN 052200Z AUTO 00000KT 7SM 04/04 A3039 RMK SLP287 T00400040 IEM_DS3505
ZGNN,1995-01-05 23:00,ZGNN 052300Z AUTO 00000KT 7SM 04/04 A3039 RMK SLP287 T00400040 IEM_DS3505
ZGNN,1995-01-06 00:00,ZGNN 060000Z AUTO 00000KT 3SM 06/05 A3039 RMK SLP292 T00600051 52011 IEM_DS3505
ZGNN,1995-01-06 01:00,ZGNN 060100Z AUTO 00000KT 7SM 08/05 A3042 RMK SLP296 T00800050 IEM_DS3505
ZGNN,1995-01-06 02:00,ZGNN 060200Z AUTO 18004KT 6SM 10/06 A3045 RMK SLP305 T01000060 IEM_DS3505
ZGNN,1995-01-06 03:00,ZGNN 060300Z AUTO 14002KT 2 1/2SM 13/08 A3042 RMK SLP296 T01290078 52005 IEM_DS3505
ZGNN,1995-01-06 04:00,ZGNN 060400Z AUTO 17002KT 7SM 16/02 A3039 RMK SLP283 T01600020 IEM_DS3505
ZGNN,1995-01-06 06:00,ZGNN 060600Z AUTO 09004KT 7SM 17/02 A3030 RMK SLP251 T01690019 57044 IEM_DS3505
ZGNN,1995-01-06 07:00,ZGNN 060700Z AUTO 15004KT 7SM 18/M01 A3027 RMK SLP242 T01801010 IEM_DS3505
ZGNN,1995-01-06 08:00,ZGNN 060800Z AUTO 00000KT 7SM 19/01 A3024 RMK SLP232 T01900010 IEM_DS3505
ZGNN,1995-01-06 09:00,ZGNN 060900Z AUTO 00000KT 12SM 18/05 A3024 RMK SLP231 T01780049 57020 IEM_DS3505
ZGNN,1995-01-06 10:00,ZGNN 061000Z AUTO 00000KT 7SM 17/04 A3024 RMK SLP232 T01700040 IEM_DS3505
ZGNN,1995-01-06 11:00,ZGNN 061100Z AUTO 36004KT 7SM 12/07 A3024 RMK SLP234 T01200070 IEM_DS3505
ZGNN,1995-01-06 12:00,ZGNN 061200Z AUTO 00000KT 12SM 12/08 A3027 RMK SLP243 T01150082 52011 IEM_DS3505
ZGNN,1995-01-06 13:00,ZGNN 061300Z AUTO 00000KT 7SM 09/06 A3027 RMK SLP245 T00900060 IEM_DS3505
ZGNN,1995-01-06 15:00,ZGNN 061500Z AUTO 00000KT 12SM 09/07 A3029 RMK SLP250 T00930067 52008 IEM_DS3505
ZGNN,1995-01-06 18:00,ZGNN 061800Z AUTO 00000KT 12SM 08/05 A3027 RMK SLP245 T00840053 57005 IEM_DS3505
ZGNN,1995-01-06 21:00,ZGNN 062100Z AUTO 00000KT 9SM 07/06 A3025 RMK SLP238 T00710055 57007 IEM_DS3505
ZGNN,1995-01-06 22:00,ZGNN 062200Z AUTO 00000KT 7SM 05/04 A3024 RMK SLP236 T00500040 IEM_DS3505
ZGNN,1995-01-06 23:00,ZGNN 062300Z AUTO 00000KT 7SM 06/03 A3027 RMK SLP246 T00600030 IEM_DS3505
ZGNN,1995-01-07 00:00,ZGNN 070000Z AUTO 00000KT 7SM 06/05 A3030 RMK SLP255 T00620048 52016 IEM_DS3505
ZGNN,1995-01-07 01:00,ZGNN 070100Z AUTO 00000KT 7SM 09/04 A3030 RMK SLP255 T00900040 IEM_DS3505
ZGNN,1995-01-07 02:00,ZGNN 070200Z AUTO 00000KT 7SM 12/05 A3033 RMK SLP264 T01200050 IEM_DS3505
ZGNN,1995-01-07 03:00,ZGNN 070300Z AUTO 00000KT 7SM 15/06 A3033 RMK SLP260 T01460065 52006 IEM_DS3505
ZGNN,1995-01-07 06:00,ZGNN 070600Z AUTO 20004KT 12SM 20/08 A3018 RMK SLP212 T01970084 57047 IEM_DS3505
ZGNN,1995-01-07 07:00,ZGNN 070700Z AUTO 14006KT 7SM 20/07 A3015 RMK SLP201 T02000070 IEM_DS3505
ZGNN,1995-01-07 08:00,ZGNN 070800Z AUTO 14010KT 7SM 20/07 A3012 RMK SLP191 T02000070 IEM_DS3505
ZGNN,1995-01-07 09:00,ZGNN 070900Z AUTO 07002KT 12SM 20/08 A3012 RMK SLP190 T02000076 57022 IEM_DS3505
ZGNN,1995-01-07 10:00,ZGNN 071000Z AUTO 14008KT 7SM 18/09 A3012 RMK SLP192 T01800090 IEM_DS3505
ZGNN,1995-01-07 11:00,ZGNN 071100Z AUTO 15006KT 7SM 15/08 A3015 RMK SLP203 T01500080 IEM_DS3505
ZGNN,1995-01-07 12:00,ZGNN 071200Z AUTO 00000KT 12SM 16/05 A3015 RMK SLP208 T01570049 52017 IEM_DS3505
ZGNN,1995-01-07 13:00,ZGNN 071300Z AUTO 00000KT 7SM 13/08 A3018 RMK SLP213 T01300080 IEM_DS3505
ZGNN,1995-01-07 14:00,ZGNN 071400Z AUTO 00000KT 7SM 12/08 A3018 RMK SLP214 T01200080 IEM_DS3505
ZGNN,1995-01-07 15:00,ZGNN 071500Z AUTO 00000KT 12SM 12/07 A3016 RMK SLP207 T01210074 54000 IEM_DS3505
ZGNN,1995-01-07 18:00,ZGNN 071800Z AUTO 04004KT 9SM 10/08 A3015 RMK SLP204 T00990078 57003 IEM_DS3505
ZGNN,1995-01-07 21:00,ZGNN 072100Z AUTO 00000KT 9SM 09/07 A3015 RMK SLP208 T00870072 52004 IEM_DS3505
ZGNN,1995-01-07 22:00,ZGNN 072200Z AUTO 02004KT 7SM 08/07 A3018 RMK SLP215 T00800070 IEM_DS3505
ZGNN,1995-01-07 23:00,ZGNN 072300Z AUTO 00000KT 2 1/2SM 08/07 A3021 RMK SLP225 T00800070 IEM_DS3505
ZGNN,1995-01-08 00:00,ZGNN 080000Z AUTO 04002KT 7SM 09/07 A3024 RMK SLP230 T00900066 52021 IEM_DS3505
ZGNN,1995-01-08 01:00,ZGNN 080100Z AUTO 02004KT 2 1/2SM 10/09 A3027 RMK SLP245 T01000090 IEM_DS3505
ZGNN,1995-01-08 02:00,ZGNN 080200Z AUTO 02004KT 3SM 12/10 A3027 RMK SLP244 T01200100 IEM_DS3505
ZGNN,1995-01-08 03:00,ZGNN 080300Z AUTO 14002KT 10SM 16/11 A3027 RMK SLP244 T01610111 52015 IEM_DS3505
ZGNN,1995-01-08 05:00,ZGNN 080500Z AUTO 00000KT 7SM 18/11 A3021 RMK SLP222 T01800110 IEM_DS3505
ZGNN,1995-01-08 06:00,ZGNN 080600Z AUTO 27002KT 16SM 20/12 A3018 RMK SLP212 T02020122 57032 IEM_DS3505
ZGNN,1995-01-08 07:00,ZGNN 080700Z AUTO 00000KT 7SM 19/10 A3015 RMK SLP201 T01900100 IEM_DS3505
ZGNN,1995-01-08 08:00,ZGNN 080800Z AUTO 00000KT 7SM 19/11 A3015 RMK SLP201 T01900110 IEM_DS3505
ZGNN,1995-01-08 09:00,ZGNN 080900Z AUTO 00000KT 12SM 20/11 A3015 RMK SLP198 T01960106 57014 IEM_DS3505
ZGNN,1995-01-08 10:00,ZGNN 081000Z AUTO 00000KT 7SM 18/11 A3015 RMK SLP202 T01800110 IEM_DS3505
ZGNN,1995-01-08 11:00,ZGNN 081100Z AUTO 34006KT 7SM 16/11 A3018 RMK SLP212 T01600110 IEM_DS3505
ZGNN,1995-01-08 12:00,ZGNN 081200Z AUTO 00000KT 12SM 16/12 A3018 RMK SLP215 T01550122 52016 IEM_DS3505
ZGNN,1995-01-08 14:00,ZGNN 081400Z AUTO 36006KT 7SM 14/12 A3021 RMK SLP223 T01400120 IEM_DS3505
ZGNN,1995-01-08 15:00,ZGNN 081500Z AUTO 00000KT 12SM 13/12 A3020 RMK SLP218 T01310116 52004 IEM_DS3505
ZGNN,1995-01-08 18:00,ZGNN 081800Z AUTO 00000KT 7SM 12/12 A3017 RMK SLP208 T01240116 57009 IEM_DS3505
ZGNN,1995-01-08 21:00,ZGNN 082100Z AUTO 00000KT 6SM 13/12 A3012 RMK SLP196 T01280119 52012 IEM_DS3505
ZGNN,1995-01-08 22:00,ZGNN 082200Z AUTO 00000KT 7SM 12/11 A3015 RMK SLP204 T01200110 IEM_DS3505
ZGNN,1995-01-08 23:00,ZGNN 082300Z AUTO 00000KT 6SM 12/11 A3015 RMK SLP204 T01200110 IEM_DS3505
ZGNN,1995-01-09 00:00,ZGNN 090000Z AUTO 00000KT 3SM 14/12 A3018 RMK SLP207 T01350122 52010 IEM_DS3505
ZGNN,1995-01-09 01:00,ZGNN 090100Z AUTO 31006KT 1 1/2SM 13/12 A3018 RMK SLP213 T01300120 IEM_DS3505
ZGNN,1995-01-09 02:00,ZGNN 090200Z AUTO 00000KT 3SM 15/12 A3018 RMK SLP213 T01500120 IEM_DS3505
ZGNN,1995-01-09 03:00,ZGNN 090300Z AUTO 02002KT 4SM 16/12 A3018 RMK SLP212 T01610121 52005 IEM_DS3505
ZGNN,1995-01-09 06:00,ZGNN 090600Z AUTO 22002KT 7SM 20/11 A3006 RMK SLP169 T01970114 57042 IEM_DS3505
ZGNN,1995-01-09 07:00,ZGNN 090700Z AUTO 16006KT 6SM 21/11 A3003 RMK SLP160 T02100110 IEM_DS3505
ZGNN,1995-01-09 08:00,ZGNN 090800Z AUTO 00000KT 6SM 21/11 A3000 RMK SLP149 T02100110 IEM_DS3505
ZGNN,1995-01-09 09:00,ZGNN 090900Z AUTO 00000KT 11SM 20/13 A3000 RMK SLP148 T02030132 57021 IEM_DS3505
ZGNN,1995-01-09 10:00,ZGNN 091000Z AUTO 16006KT 6SM 20/12 A3000 RMK SLP150 T02000120 IEM_DS3505
ZGNN,1995-01-09 11:00,ZGNN 091100Z AUTO 00000KT 6SM 19/12 A3000 RMK SLP150 T01900120 IEM_DS3505
ZGNN,1995-01-09 12:00,ZGNN 091200Z AUTO 20002KT 9SM 18/13 A3003 RMK SLP159 T01830130 52011 IEM_DS3505
ZGNN,1995-01-09 13:00,ZGNN 091300Z AUTO 00000KT 6SM 18/12 A3003 RMK SLP160 T01800120 IEM_DS3505
ZGNN,1995-01-09 14:00,ZGNN 091400Z AUTO 00000KT 6SM 17/13 A3003 RMK SLP161 T01700130 IEM_DS3505
ZGNN,1995-01-09 15:00,ZGNN 091500Z AUTO 22004KT 9SM 18/12 A3003 RMK SLP159 T01830118 54000 IEM_DS3505
ZGNN,1995-01-09 18:00,ZGNN 091800Z AUTO 00000KT 9SM 17/12 A3000 RMK SLP149 T01730125 57009 IEM_DS3505
ZGNN,1995-01-09 21:00,ZGNN 092100Z AUTO 00000KT 9SM 16/14 A2995 RMK SLP135 T01630137 57014 IEM_DS3505
ZGNN,1995-01-09 23:00,ZGNN 092300Z AUTO 00000KT 7SM 16/13 A2997 RMK SLP141 T01600130 IEM_DS3505
ZGNN,1995-01-10 00:00,ZGNN 100000Z AUTO 00000KT 14SM 17/12 A3000 RMK SLP145 T01670124 52010 IEM_DS3505
ZGNN,1995-01-10 01:00,ZGNN 100100Z AUTO 00000KT 7SM 16/13 A3000 RMK SLP151 T01600130 IEM_DS3505
ZGNN,1995-01-10 02:00,ZGNN 100200Z AUTO 00000KT 7SM 17/13 A3003 RMK SLP161 T01700130 IEM_DS3505
ZGNN,1995-01-10 03:00,ZGNN 100300Z AUTO 14002KT 16SM 18/14 A3003 RMK SLP157 T01780143 52012 IEM_DS3505
ZGNN,1995-01-10 04:00,ZGNN 100400Z AUTO 15008KT 7SM 20/14 A3000 RMK SLP150 T02000140 IEM_DS3505
ZGNN,1995-01-10 06:00,ZGNN 100600Z AUTO 09002KT 16SM 21/15 A2994 RMK SLP127 T02130153 57030 IEM_DS3505
ZGNN,1995-01-10 07:00,ZGNN 100700Z AUTO 12006KT 7SM 22/14 A2991 RMK SLP119 T02200140 IEM_DS3505
ZGNN,1995-01-10 09:00,ZGNN 100900Z AUTO 09002KT 16SM 21/16 A2988 RMK SLP117 T02110163 57010 IEM_DS3505
ZGNN,1995-01-10 10:00,ZGNN 101000Z AUTO 16008KT 7SM 20/16 A2991 RMK SLP119 T02000160 IEM_DS3505
ZGNN,1995-01-10 11:00,ZGNN 101100Z AUTO 13008KT 7SM 20/16 A2991 RMK SLP119 T02000160 IEM_DS3505
ZGNN,1995-01-10 12:00,ZGNN 101200Z AUTO 18004KT 12SM 20/17 A2994 RMK SLP133 T01970166 52016 IEM_DS3505
ZGNN,1995-01-10 13:00,ZGNN 101300Z AUTO 00000KT 7SM 19/17 A2997 RMK SLP140 T01900170 IEM_DS3505
ZGNN,1995-01-10 14:00,ZGNN 101400Z AUTO 12006KT 7SM 19/17 A2997 RMK SLP140 T01900170 IEM_DS3505
ZGNN,1995-01-10 15:00,ZGNN 101500Z AUTO 07002KT 11SM 19/16 A2999 RMK SLP148 T01910158 52015 IEM_DS3505
ZGNN,1995-01-10 18:00,ZGNN 101800Z AUTO 07002KT 9SM 19/16 A3002 RMK SLP144 T01880160 57004 IEM_DS3505
ZGNN,1995-01-10 21:00,ZGNN 102100Z AUTO 07002KT 7SM 18/16 A2994 RMK SLP137 T01800162 57007 IEM_DS3505
ZGNN,1995-01-10 22:00,ZGNN 102200Z AUTO 00000KT 4SM 18/16 A2997 RMK SLP140 T01800160 IEM_DS3505
ZGNN,1995-01-10 23:00,ZGNN 102300Z AUTO 04004KT 3SM 18/16 A3000 RMK SLP150 T01800160 IEM_DS3505
ZGNN,1995-01-11 00:00,ZGNN 110000Z AUTO 00000KT 6SM 18/16 A3003 RMK SLP159 T01790164 52022 IEM_DS3505
ZGNN,1995-01-11 01:00,ZGNN 110100Z AUTO 06004KT 2 1/2SM 18/17 A3006 RMK SLP171 T01800170 IEM_DS3505
ZGNN,1995-01-11 02:00,ZGNN 110200Z AUTO 09004KT 2 1/2SM 19/17 A3006 RMK SLP170 T01900170 IEM_DS3505
ZGNN,1995-01-11 03:00,ZGNN 110300Z AUTO 07008KT 7SM 15/11 A3009 RMK SLP190 T01470113 52030 IEM_DS3505
ZGNN,1995-01-11 04:00,ZGNN 110400Z AUTO 09008KT 2 1/2SM 16/14 A3009 RMK SLP181 T01600140 IEM_DS3505
ZGNN,1995-01-11 05:00,ZGNN 110500Z AUTO 06008KT 6SM 15/13 A3009 RMK SLP182 T01500130 IEM_DS3505
ZGNN,1995-01-11 06:00,ZGNN 110600Z AUTO 09004KT 9SM 13/10 A3007 RMK SLP176 T01300097 57014 IEM_DS3505
ZGNN,1995-01-11 07:00,ZGNN 110700Z AUTO 05008KT 7SM 13/10 A3006 RMK SLP172 T01300100 IEM_DS3505
ZGNN,1995-01-11 08:00,ZGNN 110800Z AUTO 04008KT 7SM 12/10 A3006 RMK SLP172 T01200100 IEM_DS3505
ZGNN,1995-01-11 09:00,ZGNN 110900Z AUTO 09006KT 9SM 12/08 A3006 RMK SLP180 T01190085 52003 IEM_DS3505
ZGNN,1995-01-11 10:00,ZGNN 111000Z AUTO 06006KT 7SM 11/09 A3009 RMK SLP183 T01100090 IEM_DS3505
ZGNN,1995-01-11 11:00,ZGNN 111100Z AUTO 06008KT 7SM 10/09 A3009 RMK SLP183 T01000090 IEM_DS3505
ZGNN,1995-01-11 12:00,ZGNN 111200Z AUTO 09004KT 11SM 11/08 A3015 RMK SLP200 T01130076 52020 IEM_DS3505
ZGNN,1995-01-11 13:00,ZGNN 111300Z AUTO 03008KT 7SM 10/08 A3015 RMK SLP204 T01000080 IEM_DS3505
ZGNN,1995-01-11 14:00,ZGNN 111400Z AUTO 08004KT 7SM 10/07 A3018 RMK SLP214 T01000070 IEM_DS3505
ZGNN,1995-01-11 15:00,ZGNN 111500Z AUTO 07002KT 11SM 11/07 A3019 RMK SLP216 T01100070 52015 IEM_DS3505
ZGNN,1995-01-11 18:00,ZGNN 111800Z AUTO 09004KT 11SM 11/06 A3020 RMK SLP220 T01060061 52004 IEM_DS3505
ZGNN,1995-01-11 21:00,ZGNN 112100Z AUTO 07002KT 9SM 10/06 A3018 RMK SLP221 T01000056 52001 IEM_DS3505
ZGNN,1995-01-11 22:00,ZGNN 112200Z AUTO 01006KT 7SM 10/05 A3021 RMK SLP224 T01000050 IEM_DS3505
ZGNN,1995-01-11 23:00,ZGNN 112300Z AUTO 06004KT 7SM 10/06 A3024 RMK SLP235 T01000060 IEM_DS3505
ZGNN,1995-01-12 00:00,ZGNN 120000Z AUTO 09002KT 12SM 10/05 A3024 RMK SLP239 T00980049 52018 IEM_DS3505
ZGNN,1995-01-12 01:00,ZGNN 120100Z AUTO 07004KT 7SM 10/05 A3030 RMK SLP255 T01000050 IEM_DS3505
ZGNN,1995-01-12 02:00,ZGNN 120200Z AUTO 08004KT 7SM 10/05 A3033 RMK SLP265 T01000050 IEM_DS3505
ZGNN,1995-01-12 03:00,ZGNN 120300Z AUTO 00000KT 12SM 11/06 A3033 RMK SLP261 T01060056 52021 IEM_DS3505
ZGNN,1995-01-12 04:00,ZGNN 120400Z AUTO 36006KT 7SM 11/05 A3030 RMK SLP254 T01100050 IEM_DS3505
ZGNN,1995-01-12 06:00,ZGNN 120600Z AUTO 02004KT 12SM 12/06 A3024 RMK SLP236 T01160060 57024 IEM_DS3505
ZGNN,1995-01-12 07:00,ZGNN 120700Z AUTO 01008KT 7SM 12/05 A3021 RMK SLP224 T01200050 IEM_DS3505
ZGNN,1995-01-12 08:00,ZGNN 120800Z AUTO 36010KT 7SM 12/05 A3021 RMK SLP224 T01200050 IEM_DS3505
ZGNN,1995-01-12 09:00,ZGNN 120900Z AUTO 09002KT 12SM 12/06 A3021 RMK SLP220 T01180058 57016 IEM_DS3505
ZGNN,1995-01-12 10:00,ZGNN 121000Z AUTO 01006KT 7SM 12/05 A3021 RMK SLP224 T01200050 IEM_DS3505
ZGNN,1995-01-12 11:00,ZGNN 121100Z AUTO 09002KT 7SM 11/06 A3021 RMK SLP224 T01100060 IEM_DS3505
ZGNN,1995-01-12 12:00,ZGNN 121200Z AUTO 07004KT 11SM 11/05 A3024 RMK SLP229 T01120051 52009 IEM_DS3505
ZGNN,1995-01-12 14:00,ZGNN 121400Z AUTO 06002KT 7SM 11/05 A3024 RMK SLP234 T01100050 IEM_DS3505
ZGNN,1995-01-12 15:00,ZGNN 121500Z AUTO 07004KT 11SM 11/05 A3024 RMK SLP234 T01110049 52005 IEM_DS3505
ZGNN,1995-01-12 18:00,ZGNN 121800Z AUTO 00000KT 10SM 11/06 A3023 RMK SLP229 T01090055 57005 IEM_DS3505
ZGNN,1995-01-12 21:00,ZGNN 122100Z AUTO 07002KT 9SM 11/05 A3021 RMK SLP219 T01070050 57010 IEM_DS3505
ZGNN,1995-01-12 22:00,ZGNN 122200Z AUTO 00000KT 7SM 10/05 A3021 RMK SLP224 T01000050 IEM_DS3505
ZGNN,1995-01-12 23:00,ZGNN 122300Z AUTO 00000KT 7SM 10/05 A3021 RMK SLP224 T01000050 IEM_DS3505
ZGNN,1995-01-13 00:00,ZGNN 130000Z AUTO 00000KT 9SM 10/06 A3024 RMK SLP238 T01050055 52019 IEM_DS3505
ZGNN,1995-01-13 01:00,ZGNN 130100Z AUTO 00000KT 7SM 10/04 A3027 RMK SLP245 T01000040 IEM_DS3505
ZGNN,1995-01-13 02:00,ZGNN 130200Z AUTO 00000KT 7SM 11/04 A3030 RMK SLP254 T01100040 IEM_DS3505
ZGNN,1995-01-13 03:00,ZGNN 130300Z AUTO 09002KT 12SM 12/05 A3030 RMK SLP257 T01150049 52019 IEM_DS3505
ZGNN,1995-01-13 06:00,ZGNN 130600Z AUTO 07002KT 11SM 12/06 A3024 RMK SLP229 T01210059 57028 IEM_DS3505
ZGNN,1995-01-13 07:00,ZGNN 130700Z AUTO 01008KT 7SM 12/05 A3021 RMK SLP224 T01200050 IEM_DS3505
ZGNN,1995-01-13 09:00,ZGNN 130900Z AUTO 09006KT 10SM 12/05 A3018 RMK SLP219 T01160051 57010 IEM_DS3505
ZGNN,1995-01-13 10:00,ZGNN 131000Z AUTO 06006KT 6SM 11/05 A3021 RMK SLP224 T01100050 IEM_DS3505
ZGNN,1995-01-13 11:00,ZGNN 131100Z AUTO 06004KT 6SM 11/06 A3021 RMK SLP224 T01100060 IEM_DS3505
ZGNN,1995-01-13 12:00,ZGNN 131200Z AUTO 09004KT 10SM 11/05 A3024 RMK SLP229 T01080053 52010 IEM_DS3505
ZGNN,1995-01-13 13:00,ZGNN 131300Z AUTO 08006KT 7SM 10/05 A3027 RMK SLP245 T01000050 IEM_DS3505
ZGNN,1995-01-13 14:00,ZGNN 131400Z AUTO 00000KT 7SM 10/06 A3027 RMK SLP245 T01000060 IEM_DS3505
ZGNN,1995-01-13 15:00,ZGNN 131500Z AUTO 07004KT 10SM 10/05 A3026 RMK SLP239 T01050050 52010 IEM_DS3505
ZGNN,1995-01-13 18:00,ZGNN 131800Z AUTO 07002KT 9SM 10/06 A3024 RMK SLP235 T01030057 57004 IEM_DS3505
ZGNN,1995-01-13 21:00,ZGNN 132100Z AUTO 00000KT 9SM 10/06 A3024 RMK SLP233 T01010065 57002 IEM_DS3505
ZGNN,1995-01-13 22:00,ZGNN 132200Z AUTO 00000KT 7SM 09/06 A3024 RMK SLP235 T00900060 IEM_DS3505
ZGNN,1995-01-14 00:00,ZGNN 140000Z AUTO 07004KT 7SM 10/06 A3027 RMK SLP247 T00970062 52013 IEM_DS3505
ZGNN,1995-01-14 01:00,ZGNN 140100Z AUTO 04004KT 2 1/2SM 09/06 A3030 RMK SLP255 T00900060 IEM_DS3505
ZGNN,1995-01-14 03:00,ZGNN 140300Z AUTO 04002KT 9SM 10/07 A3033 RMK SLP264 T00950074 52017 IEM_DS3505
ZGNN,1995-01-14 06:00,ZGNN 140600Z AUTO 09002KT 5SM 09/08 A3024 RMK SLP237 T00940082 57027 IEM_DS3505
ZGNN,1995-01-14 07:00,ZGNN 140700Z AUTO 09004KT 1 1/4SM 09/08 A3021 RMK SLP225 T00900080 IEM_DS3505
ZGNN,1995-01-14 08:00,ZGNN 140800Z AUTO 07004KT 1 1/4SM 09/08 A3021 RMK SLP225 T00900080 IEM_DS3505
ZGNN,1995-01-14 09:00,ZGNN 140900Z AUTO 09004KT 5SM 09/08 A3021 RMK SLP224 T00940077 57013 IEM_DS3505
ZGNN,1995-01-14 10:00,ZGNN 141000Z AUTO 00000KT 1 1/4SM 09/08 A3021 RMK SLP225 T00900080 IEM_DS3505
ZGNN,1995-01-14 12:00,ZGNN 141200Z AUTO 04002KT 5SM 09/07 A3024 RMK SLP238 T00920073 52014 IEM_DS3505
ZGNN,1995-01-14 13:00,ZGNN 141300Z AUTO 00000KT 1SM 09/08 A3027 RMK SLP245 T00900080 IEM_DS3505
ZGNN,1995-01-14 14:00,ZGNN 141400Z AUTO 03004KT 1SM 09/08 A3027 RMK SLP245 T00900080 IEM_DS3505
ZGNN,1995-01-14 15:00,ZGNN 141500Z AUTO 04004KT 5SM 09/08 A3025 RMK SLP237 T00920075 57001 IEM_DS3505
ZGNN,1995-01-14 18:00,ZGNN 141800Z AUTO 07002KT 4SM 09/08 A3025 RMK 60002 SLP237 T00880084 54000 IEM_DS3505
ZGNN,1995-01-14 21:00,ZGNN 142100Z AUTO 00000KT 2SM 09/09 A3024 RMK SLP232 T00900088 57005 IEM_DS3505
ZGNN,1995-01-14 22:00,ZGNN 142200Z AUTO 00000KT 1SM 09/09 A3024 RMK SLP235 T00900090 IEM_DS3505
ZGNN,1995-01-14 23:00,ZGNN 142300Z AUTO 07004KT 1SM 09/09 A3027 RMK SLP245 T00900090 IEM_DS3505
ZGNN,1995-01-15 00:00,ZGNN 150000Z AUTO 09004KT 1 1/4SM 09/08 A3030 RMK 60004 70008 SLP254 T00890083 52022 IEM_DS3505
ZGNN,1995-01-15 02:00,ZGNN 150200Z AUTO 00000KT 1 1/4SM 09/09 A3036 RMK SLP275 T00900090 IEM_DS3505
ZGNN,1995-01-15 03:00,ZGNN 150300Z AUTO 09004KT 1SM 09/09 A3037 RMK SLP280 T00920088 52026 IEM_DS3505
ZGNN,1995-01-15 06:00,ZGNN 150600Z AUTO 00000KT 1 1/4SM 10/09 A3030 RMK 60008 SLP256 T00960092 57024 IEM_DS3505
ZGNN,1995-01-15 09:00,ZGNN 150900Z AUTO 07004KT 2SM 09/09 A3027 RMK SLP247 T00940088 57009 IEM_DS3505
ZGNN,1995-01-15 10:00,ZGNN 151000Z AUTO 08006KT 1 1/4SM 09/09 A3030 RMK SLP255 T00900090 IEM_DS3505
ZGNN,1995-01-15 12:00,ZGNN 151200Z AUTO 07002KT 2 1/2SM 09/08 A3032 RMK 60002 SLP261 T00910085 52014 IEM_DS3505
ZGNN,1995-01-15 15:00,ZGNN 151500Z AUTO 00000KT 5SM 09/08 A3035 RMK SLP271 T00940082 52010 IEM_DS3505
ZGNN,1995-01-15 17:00,ZGNN 151700Z AUTO 00000KT 6SM 10/09 A3034 RMK SLP268 T00980088 57003 IEM_DS3505
ZGNN,1995-01-15 21:00,ZGNN 152100Z AUTO 00000KT 6SM 10/09 A3030 RMK SLP261 T00970089 57007 IEM_DS3505
ZGNN,1995-01-15 22:00,ZGNN 152200Z AUTO 00000KT 1 1/4SM 09/09 A3033 RMK SLP265 T00900090 IEM_DS3505
ZGNN,1995-01-15 23:00,ZGNN 152300Z AUTO 00000KT 2SM 09/09 A3033 RMK SLP265 T00900090 IEM_DS3505
ZGNN,1995-01-16 00:00,ZGNN 160000Z AUTO 00000KT 5SM 10/09 A3036 RMK 70008 SLP272 T00960086 52011 IEM_DS3505
ZGNN,1995-01-16 01:00,ZGNN 160100Z AUTO 00000KT 1 1/2SM 10/09 A3036 RMK SLP275 T01000090 IEM_DS3505
ZGNN,1995-01-16 02:00,ZGNN 160200Z AUTO 00000KT 2 1/2SM 10/09 A3039 RMK SLP285 T01000090 IEM_DS3505
ZGNN,1995-01-16 03:00,ZGNN 160300Z AUTO 00000KT 7SM 11/09 A3039 RMK SLP282 T01090091 52010 IEM_DS3505
ZGNN,1995-01-16 06:00,ZGNN 160600Z AUTO 02002KT 9SM 12/08 A3030 RMK SLP250 T01210085 57031 IEM_DS3505
ZGNN,1995-01-16 07:00,ZGNN 160700Z AUTO 01004KT 7SM 12/09 A3027 RMK SLP244 T01200090 IEM_DS3505
ZGNN,1995-01-16 08:00,ZGNN 160800Z AUTO 36002KT 7SM 12/09 A3024 RMK SLP234 T01200090 IEM_DS3505
ZGNN,1995-01-16 09:00,ZGNN 160900Z AUTO 02002KT 9SM 12/08 A3024 RMK SLP236 T01250085 57014 IEM_DS3505
ZGNN,1995-01-16 10:00,ZGNN 161000Z AUTO 00000KT 5SM 12/10 A3024 RMK SLP234 T01200100 IEM_DS3505
ZGNN,1995-01-16 11:00,ZGNN 161100Z AUTO 00000KT 5SM 12/09 A3027 RMK SLP244 T01200090 IEM_DS3505
ZGNN,1995-01-16 12:00,ZGNN 161200Z AUTO 00000KT 9SM 12/09 A3027 RMK SLP243 T01220094 52007 IEM_DS3505
ZGNN,1995-01-16 13:00,ZGNN 161300Z AUTO 00000KT 3SM 12/10 A3030 RMK SLP254 T01200100 IEM_DS3505
ZGNN,1995-01-16 14:00,ZGNN 161400Z AUTO 00000KT 2 1/2SM 12/10 A3030 RMK SLP254 T01200100 IEM_DS3505
ZGNN,1995-01-16 15:00,ZGNN 161500Z AUTO 00000KT 9SM 12/09 A3029 RMK SLP252 T01150087 52009 IEM_DS3505
ZGNN,1995-01-16 18:00,ZGNN 161800Z AUTO 00000KT 11SM 11/08 A3027 RMK SLP243 T01130085 57029 IEM_DS3505
ZGNN,1995-01-16 21:00,ZGNN 162100Z AUTO 00000KT 9SM 11/09 A3024 RMK SLP234 T01120086 57009 IEM_DS3505
ZGNN,1995-01-16 23:00,ZGNN 162300Z AUTO 04002KT 2 1/2SM 11/09 A3027 RMK SLP244 T01100090 IEM_DS3505
ZGNN,1995-01-17 00:00,ZGNN 170000Z AUTO 00000KT 7SM 11/09 A3030 RMK SLP251 T01130089 52017 IEM_DS3505
ZGNN,1995-01-17 01:00,ZGNN 170100Z AUTO 00000KT 2 1/2SM 11/09 A3033 RMK SLP264 T01100090 IEM_DS3505
ZGNN,1995-01-17 02:00,ZGNN 170200Z AUTO 00000KT 2 1/2SM 11/09 A3033 RMK SLP264 T01100090 IEM_DS3505
ZGNN,1995-01-17 03:00,ZGNN 170300Z AUTO 00000KT 7SM 12/10 A3036 RMK SLP270 T01230095 52019 IEM_DS3505
ZGNN,1995-01-17 06:00,ZGNN 170600Z AUTO 00000KT 7SM 15/10 A3024 RMK SLP235 T01470101 57035 IEM_DS3505
ZGNN,1995-01-17 07:00,ZGNN 170700Z AUTO 00000KT 3SM 17/11 A3021 RMK SLP222 T01700110 IEM_DS3505
ZGNN,1995-01-17 08:00,ZGNN 170800Z AUTO 00000KT 3SM 17/11 A3018 RMK SLP212 T01700110 IEM_DS3505
ZGNN,1995-01-17 09:00,ZGNN 170900Z AUTO 36002KT 11SM 17/11 A3018 RMK SLP215 T01710112 57019 IEM_DS3505
ZGNN,1995-01-17 10:00,ZGNN 171000Z AUTO 36008KT 2 1/2SM 16/12 A3021 RMK SLP223 T01600120 IEM_DS3505
ZGNN,1995-01-17 11:00,ZGNN 171100Z AUTO 33004KT 2 1/2SM 15/12 A3021 RMK SLP223 T01500120 IEM_DS3505
ZGNN,1995-01-17 12:00,ZGNN 171200Z AUTO 34002KT 8SM 15/12 A3021 RMK SLP216 T01530124 52001 IEM_DS3505
ZGNN,1995-01-17 13:00,ZGNN 171300Z AUTO 00000KT 2 1/2SM 14/12 A3021 RMK SLP223 T01400120 IEM_DS3505
ZGNN,1995-01-17 14:00,ZGNN 171400Z AUTO 00000KT 2 1/2SM 14/12 A3021 RMK SLP223 T01400120 IEM_DS3505
ZGNN,1995-01-17 15:00,ZGNN 171500Z AUTO 00000KT 7SM 14/12 A3021 RMK SLP224 T01430121 52008 IEM_DS3505
ZGNN,1995-01-17 18:00,ZGNN 171800Z AUTO 00000KT 6SM 14/12 A3017 RMK SLP211 T01390124 57013 IEM_DS3505
ZGNN,1995-01-17 21:00,ZGNN 172100Z AUTO 00000KT 2SM 14/13 A3015 RMK SLP198 T01370126 57013 IEM_DS3505
ZGNN,1995-01-17 22:00,ZGNN 172200Z AUTO 00000KT 1 1/2SM 13/12 A3015 RMK SLP203 T01300120 IEM_DS3505
ZGNN,1995-01-17 23:00,ZGNN 172300Z AUTO 07002KT 1 1/4SM 14/12 A3015 RMK SLP203 T01400120 IEM_DS3505
ZGNN,1995-01-18 00:00,ZGNN 180000Z AUTO 00000KT 2 1/2SM 14/12 A3015 RMK SLP207 T01390122 52009 IEM_DS3505
ZGNN,1995-01-18 01:00,ZGNN 180100Z AUTO 35004KT 2SM 14/12 A3018 RMK SLP213 T01400120 IEM_DS3505
ZGNN,1995-01-18 02:00,ZGNN 180200Z AUTO 00000KT 2SM 15/13 A3021 RMK SLP223 T01500130 IEM_DS3505
ZGNN,1995-01-18 03:00,ZGNN 180300Z AUTO 07002KT 4SM 16/13 A3021 RMK SLP221 T01620132 52014 IEM_DS3505
ZGNN,1995-01-18 04:00,ZGNN 180400Z AUTO 17008KT 4SM 18/14 A3018 RMK SLP212 T01800140 IEM_DS3505
ZGNN,1995-01-18 06:00,ZGNN 180600Z AUTO 00000KT 7SM 20/15 A3011 RMK SLP187 T01970146 57033 IEM_DS3505
ZGNN,1995-01-18 08:00,ZGNN 180800Z AUTO 15010KT 7SM 21/15 A3006 RMK SLP170 T02100150 IEM_DS3505
ZGNN,1995-01-18 09:00,ZGNN 180900Z AUTO 22004KT 12SM 22/15 A3006 RMK SLP173 T02150148 57014 IEM_DS3505
ZGNN,1995-01-18 10:00,ZGNN 181000Z AUTO 15006KT 7SM 20/14 A3006 RMK SLP170 T02000140 IEM_DS3505
ZGNN,1995-01-18 11:00,ZGNN 181100Z AUTO 16004KT 7SM 19/15 A3009 RMK SLP180 T01900150 IEM_DS3505
ZGNN,1995-01-18 12:00,ZGNN 181200Z AUTO 00000KT 12SM 19/15 A3009 RMK SLP184 T01930154 52011 IEM_DS3505
ZGNN,1995-01-18 13:00,ZGNN 181300Z AUTO 16006KT 7SM 19/15 A3012 RMK SLP191 T01900150 IEM_DS3505
ZGNN,1995-01-18 14:00,ZGNN 181400Z AUTO 00000KT 7SM 18/16 A3012 RMK SLP192 T01800160 IEM_DS3505
ZGNN,1995-01-18 15:00,ZGNN 181500Z AUTO 00000KT 12SM 18/16 A3011 RMK SLP187 T01800158 52003 IEM_DS3505
ZGNN,1995-01-18 18:00,ZGNN 181800Z AUTO 00000KT 10SM 18/16 A3011 RMK SLP187 T01750162 54000 IEM_DS3505
ZGNN,1995-01-18 21:00,ZGNN 182100Z AUTO 00000KT 9SM 18/16 A3012 RMK SLP188 T01770164 52002 IEM_DS3505
ZGNN,1995-01-18 22:00,ZGNN 182200Z AUTO 15003KT 17/16 A3012 RMK SLP192 T01700160 IEM_DS3505
ZGNN,1995-01-18 23:00,ZGNN 182300Z AUTO 15004KT 1 1/4SM 17/16 A3012 RMK SLP192 T01700160 IEM_DS3505
ZGNN,1995-01-19 00:00,ZGNN 190000Z AUTO 09002KT 3SM 17/16 A3015 RMK SLP201 T01730160 52012 IEM_DS3505
ZGNN,1995-01-19 01:00,ZGNN 190100Z AUTO 15004KT 1 1/4SM 17/16 A3015 RMK SLP202 T01700160 IEM_DS3505
ZGNN,1995-01-19 02:00,ZGNN 190200Z AUTO 15004KT 1 1/2SM 18/16 A3018 RMK SLP212 T01800160 IEM_DS3505
ZGNN,1995-01-19 03:00,ZGNN 190300Z AUTO 00000KT 4SM 18/16 A3018 RMK SLP212 T01830163 52011 IEM_DS3505
ZGNN,1995-01-19 06:00,ZGNN 190600Z AUTO 04004KT 7SM 20/17 A3009 RMK SLP182 T01970169 57029 IEM_DS3505
ZGNN,1995-01-19 07:00,ZGNN 190700Z AUTO 14008KT 7SM 22/17 A3006 RMK SLP169 T02200170 IEM_DS3505
ZGNN,1995-01-19 08:00,ZGNN 190800Z AUTO 12004KT 7SM 22/16 A3003 RMK SLP159 T02200160 IEM_DS3505
ZGNN,1995-01-19 09:00,ZGNN 190900Z AUTO 07006KT 9SM 18/14 A3003 RMK SLP170 T01790143 57013 IEM_DS3505
ZGNN,1995-01-19 10:00,ZGNN 191000Z AUTO 05010KT 2SM 19/15 A3006 RMK SLP170 T01900150 IEM_DS3505
ZGNN,1995-01-19 11:00,ZGNN 191100Z AUTO 08008KT 2SM 17/14 A3006 RMK SLP171 T01700140 IEM_DS3505
ZGNN,1995-01-19 12:00,ZGNN 191200Z AUTO 11006KT 12SM 14/12 A3009 RMK SLP181 T01400118 52011 IEM_DS3505
ZGNN,1995-01-19 13:00,ZGNN 191300Z AUTO 08006KT 2 1/2SM 14/12 A3009 RMK SLP182 T01400120 IEM_DS3505
ZGNN,1995-01-19 14:00,ZGNN 191400Z AUTO 09006KT 2 1/2SM 14/11 A3009 RMK SLP182 T01400110 IEM_DS3505
ZGNN,1995-01-19 15:00,ZGNN 191500Z AUTO 07006KT 12SM 14/11 A3010 RMK SLP186 T01370111 52005 IEM_DS3505
ZGNN,1995-01-19 18:00,ZGNN 191800Z AUTO 09004KT 12SM 13/11 A3009 RMK SLP182 T01330108 57004 IEM_DS3505
ZGNN,1995-01-19 21:00,ZGNN 192100Z AUTO 09004KT 11SM 13/10 A3006 RMK SLP176 T01280103 57006 IEM_DS3505
ZGNN,1995-01-19 22:00,ZGNN 192200Z AUTO 09004KT 2 1/2SM 12/10 A3006 RMK SLP172 T01200100 IEM_DS3505
ZGNN,1995-01-19 23:00,ZGNN 192300Z AUTO 07006KT 2 1/2SM 12/10 A3006 RMK SLP172 T01200100 IEM_DS3505
ZGNN,1995-01-20 00:00,ZGNN 200000Z AUTO 11004KT 9SM 12/10 A3009 RMK SLP182 T01240101 52005 IEM_DS3505
ZGNN,1995-01-20 01:00,ZGNN 200100Z AUTO 04004KT 2 1/2SM 12/10 A3012 RMK SLP194 T01200100 IEM_DS3505
ZGNN,1995-01-20 02:00,ZGNN 200200Z AUTO 08004KT 2 1/2SM 13/10 A3012 RMK SLP193 T01300100 IEM_DS3505
ZGNN,1995-01-20 03:00,ZGNN 200300Z AUTO 11002KT 9SM 14/11 A3009 RMK SLP188 T01370107 52006 IEM_DS3505
ZGNN,1995-01-20 04:00,ZGNN 200400Z AUTO 07004KT 2 1/2SM 16/12 A3006 RMK SLP171 T01600120 IEM_DS3505
ZGNN,1995-01-20 06:00,ZGNN 200600Z AUTO 00000KT 9SM 17/12 A3000 RMK SLP152 T01710124 57035 IEM_DS3505
ZGNN,1995-01-20 09:00,ZGNN 200900Z AUTO 11002KT 12SM 22/16 A2991 RMK SLP126 T02160158 57025 IEM_DS3505
ZGNN,1995-01-20 10:00,ZGNN 201000Z AUTO 15006KT 7SM 22/16 A2994 RMK SLP129 T02200160 IEM_DS3505
ZGNN,1995-01-20 11:00,ZGNN 201100Z AUTO 16008KT 7SM 21/16 A2994 RMK SLP129 T02100160 IEM_DS3505
ZGNN,1995-01-20 12:00,ZGNN 201200Z AUTO 14002KT 12SM 20/16 A2994 RMK SLP135 T01990157 52008 IEM_DS3505
ZGNN,1995-01-20 13:00,ZGNN 201300Z AUTO 00000KT 7SM 20/16 A2997 RMK SLP140 T02000160 IEM_DS3505
ZGNN,1995-01-20 14:00,ZGNN 201400Z AUTO 16008KT 7SM 19/16 A2997 RMK SLP140 T01900160 IEM_DS3505
ZGNN,1995-01-20 18:00,ZGNN 201800Z AUTO 00000KT 11SM 19/17 A2996 RMK SLP137 T01890173 57004 IEM_DS3505
ZGNN,1995-01-20 21:00,ZGNN 202100Z AUTO 00000KT 11SM 19/18 A2993 RMK SLP128 T01860175 57009 IEM_DS3505
ZGNN,1995-01-20 22:00,ZGNN 202200Z AUTO 00000KT 3SM 18/17 A2994 RMK SLP130 T01800170 IEM_DS3505
ZGNN,1995-01-20 23:00,ZGNN 202300Z AUTO 00000KT 2 1/2SM 18/17 A2994 RMK SLP130 T01800170 IEM_DS3505
ZGNN,1995-01-21 00:00,ZGNN 210000Z AUTO 20002KT 9SM 18/18 A2997 RMK SLP138 T01840176 52010 IEM_DS3505
ZGNN,1995-01-21 01:00,ZGNN 210100Z AUTO 00000KT 7SM 19/18 A2997 RMK SLP140 T01900180 IEM_DS3505
ZGNN,1995-01-21 02:00,ZGNN 210200Z AUTO 15010KT 7SM 20/18 A3000 RMK SLP150 T02000180 IEM_DS3505
ZGNN,1995-01-21 03:00,ZGNN 210300Z AUTO 20004KT 12SM 23/19 A3000 RMK SLP149 T02290187 52011 IEM_DS3505
ZGNN,1995-01-21 04:00,ZGNN 210400Z AUTO 16010KT 7SM 22/18 A2997 RMK SLP139 T02200180 IEM_DS3505
ZGNN,1995-01-21 05:00,ZGNN 210500Z AUTO 15006KT 7SM 22/18 A2991 RMK SLP119 T02200180 IEM_DS3505
ZGNN,1995-01-21 06:00,ZGNN 210600Z AUTO 20002KT 12SM 23/18 A2988 RMK SLP109 T02270185 57039 IEM_DS3505
ZGNN,1995-01-21 07:00,ZGNN 210700Z AUTO 00000KT 7SM 23/18 A2985 RMK SLP098 T02300180 IEM_DS3505
ZGNN,1995-01-21 08:00,ZGNN 210800Z AUTO 15010KT 7SM 24/18 A2983 RMK SLP091 T02400180 IEM_DS3505
ZGNN,1995-01-21 09:00,ZGNN 210900Z AUTO 27004KT 14SM 23/18 A2983 RMK SLP096 T02340177 57013 IEM_DS3505
ZGNN,1995-01-21 10:00,ZGNN 211000Z AUTO 15012KT 7SM 22/18 A2985 RMK SLP099 T02200180 IEM_DS3505
ZGNN,1995-01-21 11:00,ZGNN 211100Z AUTO 14012KT 7SM 21/18 A2985 RMK SLP099 T02100180 IEM_DS3505
ZGNN,1995-01-21 12:00,ZGNN 211200Z AUTO 22004KT 14SM 21/18 A2985 RMK SLP104 T02120180 52008 IEM_DS3505
ZGNN,1995-01-21 13:00,ZGNN 211300Z AUTO 15006KT 7SM 20/18 A2988 RMK SLP109 T02000180 IEM_DS3505
ZGNN,1995-01-21 14:00,ZGNN 211400Z AUTO 00000KT 7SM 19/17 A2988 RMK SLP110 T01900170 IEM_DS3505
ZGNN,1995-01-21 15:00,ZGNN 211500Z AUTO 00000KT 14SM 20/18 A2990 RMK SLP117 T01990176 52013 IEM_DS3505
ZGNN,1995-01-21 18:00,ZGNN 211800Z AUTO 20002KT 12SM 19/17 A2990 RMK SLP116 T01870174 57001 IEM_DS3505
ZGNN,1995-01-21 21:00,ZGNN 212100Z AUTO 00000KT 11SM 19/17 A2988 RMK SLP116 T01870174 54000 IEM_DS3505
ZGNN,1995-01-21 22:00,ZGNN 212200Z AUTO 15004KT 7SM 19/17 A2991 RMK SLP120 T01900170 IEM_DS3505
ZGNN,1995-01-21 23:00,ZGNN 212300Z AUTO 15004KT 7SM 19/18 A2991 RMK SLP120 T01900180 IEM_DS3505
ZGNN,1995-01-22 00:00,ZGNN 220000Z AUTO 00000KT 5SM 18/17 A2994 RMK SLP127 T01820171 52010 IEM_DS3505
ZGNN,1995-01-22 01:00,ZGNN 220100Z AUTO 16008KT 4SM 19/18 A2994 RMK SLP130 T01900180 IEM_DS3505
ZGNN,1995-01-22 02:00,ZGNN 220200Z AUTO 18010KT 7SM 21/18 A2997 RMK SLP139 T02100180 IEM_DS3505
ZGNN,1995-01-22 03:00,ZGNN 220300Z AUTO 25002KT 11SM 22/18 A2997 RMK SLP134 T02220184 52008 IEM_DS3505
ZGNN,1995-01-22 06:00,ZGNN 220600Z AUTO 20004KT 12SM 25/19 A2988 RMK SLP105 T02510186 57029 IEM_DS3505
ZGNN,1995-01-22 07:00,ZGNN 220700Z AUTO 17008KT 7SM 24/18 A2985 RMK SLP098 T02400180 IEM_DS3505
ZGNN,1995-01-22 08:00,ZGNN 220800Z AUTO 15006KT 7SM 24/18 A2985 RMK SLP098 T02400180 IEM_DS3505
ZGNN,1995-01-22 09:00,ZGNN 220900Z AUTO 00000KT 12SM 25/19 A2985 RMK SLP102 T02530188 57003 IEM_DS3505
ZGNN,1995-01-22 10:00,ZGNN 221000Z AUTO 14010KT 7SM 22/18 A2988 RMK SLP109 T02200180 IEM_DS3505
ZGNN,1995-01-22 11:00,ZGNN 221100Z AUTO 15008KT 7SM 21/18 A2991 RMK SLP119 T02100180 IEM_DS3505
ZGNN,1995-01-22 12:00,ZGNN 221200Z AUTO 20004KT 11SM 22/18 A2991 RMK SLP121 T02190181 52018 IEM_DS3505
ZGNN,1995-01-22 13:00,ZGNN 221300Z AUTO 15006KT 7SM 20/18 A2994 RMK SLP130 T02000180 IEM_DS3505
ZGNN,1995-01-22 14:00,ZGNN 221400Z AUTO 00000KT 7SM 19/18 A2997 RMK SLP140 T01900180 IEM_DS3505
ZGNN,1995-01-22 15:00,ZGNN 221500Z AUTO 07008KT 11SM 19/15 A2999 RMK SLP146 T01920153 52025 IEM_DS3505
ZGNN,1995-01-22 18:00,ZGNN 221800Z AUTO 09006KT 9SM 14/12 A3002 RMK SLP157 T01420116 52011 IEM_DS3505
ZGNN,1995-01-22 21:00,ZGNN 222100Z AUTO 04006KT 7SM 12/09 A3006 RMK SLP180 T01150093 52022 IEM_DS3505
ZGNN,1995-01-22 22:00,ZGNN 222200Z AUTO 05010KT 3SM 10/10 A3009 RMK SLP183 T01000100 IEM_DS3505
ZGNN,1995-01-22 23:00,ZGNN 222300Z AUTO 02008KT 4SM 10/10 A3015 RMK SLP204 T01000100 IEM_DS3505
ZGNN,1995-01-23 00:00,ZGNN 230000Z AUTO 07004KT 7SM 11/08 A3018 RMK 60004 70004 SLP218 T01090076 52038 IEM_DS3505
ZGNN,1995-01-23 01:00,ZGNN 230100Z AUTO 36008KT 7SM 10/09 A3021 RMK SLP224 T01000090 IEM_DS3505
ZGNN,1995-01-23 02:00,ZGNN 230200Z AUTO 36012KT 7SM 10/07 A3027 RMK SLP245 T01000070 IEM_DS3505
ZGNN,1995-01-23 03:00,ZGNN 230300Z AUTO 04004KT 9SM 11/08 A3027 RMK SLP244 T01140079 52025 IEM_DS3505
ZGNN,1995-01-23 04:00,ZGNN 230400Z AUTO 35008KT 11/07 A3024 RMK SLP234 T01100070 IEM_DS3505
ZGNN,1995-01-23 05:00,ZGNN 230500Z AUTO 02004KT 11/06 A3021 RMK SLP224 T01100060 IEM_DS3505
ZGNN,1995-01-23 06:00,ZGNN 230600Z AUTO 02004KT 12SM 13/07 A3021 RMK 60004 SLP218 T01260068 57026 IEM_DS3505
ZGNN,1995-01-23 07:00,ZGNN 230700Z AUTO 34008KT 7SM 11/05 A3018 RMK SLP214 T01100050 IEM_DS3505
ZGNN,1995-01-23 08:00,ZGNN 230800Z AUTO 36008KT 7SM 11/05 A3018 RMK SLP214 T01100050 IEM_DS3505
ZGNN,1995-01-23 09:00,ZGNN 230900Z AUTO 04006KT 14SM 12/06 A3018 RMK SLP210 T01240060 57009 IEM_DS3505
ZGNN,1995-01-23 10:00,ZGNN 231000Z AUTO 01008KT 7SM 11/05 A3018 RMK SLP214 T01100050 IEM_DS3505
ZGNN,1995-01-23 11:00,ZGNN 231100Z AUTO 04002KT 7SM 11/06 A3021 RMK SLP224 T01100060 IEM_DS3505
ZGNN,1995-01-23 12:00,ZGNN 231200Z AUTO 07004KT 14SM 12/05 A3024 RMK SLP231 T01180053 52021 IEM_DS3505
ZGNN,1995-01-23 13:00,ZGNN 231300Z AUTO 02006KT 7SM 11/06 A3024 RMK SLP234 T01100060 IEM_DS3505
ZGNN,1995-01-23 14:00,ZGNN 231400Z AUTO 00000KT 7SM 11/07 A3027 RMK SLP244 T01100070 IEM_DS3505
ZGNN,1995-01-23 15:00,ZGNN 231500Z AUTO 04002KT 14SM 12/05 A3026 RMK SLP242 T01150049 52011 IEM_DS3505
ZGNN,1995-01-23 18:00,ZGNN 231800Z AUTO 04002KT 14SM 10/05 A3026 RMK SLP239 T01050047 57003 IEM_DS3505
ZGNN,1995-01-23 21:00,ZGNN 232100Z AUTO 04004KT 9SM 09/06 A3026 RMK SLP240 T00910058 52001 IEM_DS3505
ZGNN,1995-01-23 23:00,ZGNN 232300Z AUTO 35006KT 4SM 08/06 A3030 RMK SLP255 T00800060 IEM_DS3505
ZGNN,1995-01-24 00:00,ZGNN 240000Z AUTO 04004KT 6SM 08/06 A3033 RMK 60008 70012 SLP261 T00800065 52020 IEM_DS3505
ZGNN,1995-01-24 01:00,ZGNN 240100Z AUTO 35006KT 3SM 08/06 A3033 RMK SLP265 T00800060 IEM_DS3505
ZGNN,1995-01-24 02:00,ZGNN 240200Z AUTO 36004KT 3SM 08/06 A3036 RMK SLP276 T00800060 IEM_DS3505
ZGNN,1995-01-24 03:00,ZGNN 240300Z AUTO 07004KT 7SM 09/06 A3037 RMK SLP280 T00890058 52019 IEM_DS3505
ZGNN,1995-01-24 04:00,ZGNN 240400Z AUTO 36004KT 4SM 09/06 A3033 RMK SLP265 T00900060 IEM_DS3505
ZGNN,1995-01-24 06:00,ZGNN 240600Z AUTO 36002KT 9SM 10/06 A3027 RMK 60000 SLP246 T00980056 57034 IEM_DS3505
ZGNN,1995-01-24 07:00,ZGNN 240700Z AUTO 35004KT 4SM 09/05 A3024 RMK SLP235 T00900050 IEM_DS3505
ZGNN,1995-01-24 09:00,ZGNN 240900Z AUTO 09006KT 7SM 10/05 A3024 RMK SLP235 T00950053 57011 IEM_DS3505
ZGNN,1995-01-24 10:00,ZGNN 241000Z AUTO 10004KT 1SM 08/07 A3024 RMK SLP235 T00800070 IEM_DS3505
ZGNN,1995-01-24 11:00,ZGNN 241100Z AUTO 08002KT 1SM 08/07 A3024 RMK SLP235 T00800070 IEM_DS3505
ZGNN,1995-01-24 12:00,ZGNN 241200Z AUTO 00000KT 7SM 08/06 A3027 RMK SLP245 T00820062 52010 IEM_DS3505
ZGNN,1995-01-24 13:00,ZGNN 241300Z AUTO 08002KT 1SM 07/07 A3027 RMK SLP246 T00700070 IEM_DS3505
ZGNN,1995-01-24 15:00,ZGNN 241500Z AUTO 07002KT 5SM 08/07 A3029 RMK SLP253 T00800071 52008 IEM_DS3505
ZGNN,1995-01-24 18:00,ZGNN 241800Z AUTO 32002KT 6SM 08/07 A3029 RMK 60004 SLP252 T00820071 57001 IEM_DS3505
ZGNN,1995-01-24 21:00,ZGNN 242100Z AUTO 00000KT 4SM 08/07 A3024 RMK SLP235 T00780074 57017 IEM_DS3505
ZGNN,1995-01-24 22:00,ZGNN 242200Z AUTO 02004KT 1 1/4SM 08/07 A3024 RMK SLP235 T00800070 IEM_DS3505
ZGNN,1995-01-24 23:00,ZGNN 242300Z AUTO 07004KT 1 1/4SM 08/07 A3024 RMK SLP235 T00800070 IEM_DS3505
ZGNN,1995-01-25 00:00,ZGNN 250000Z AUTO 04002KT 4SM 08/08 A3027 RMK 60008 70016 SLP246 T00770075 52011 IEM_DS3505
ZGNN,1995-01-25 01:00,ZGNN 250100Z AUTO 05004KT 1 1/2SM 08/07 A3030 RMK SLP255 T00800070 IEM_DS3505
ZGNN,1995-01-25 02:00,ZGNN 250200Z AUTO 00000KT 1 1/4SM 08/08 A3033 RMK SLP265 T00800080 IEM_DS3505
ZGNN,1995-01-25 03:00,ZGNN 250300Z AUTO 00000KT 5SM 08/08 A3033 RMK SLP256 T00850079 52010 IEM_DS3505
ZGNN,1995-01-25 06:00,ZGNN 250600Z AUTO 02002KT 5SM 09/08 A3021 RMK 60002 SLP229 T00870079 57027 IEM_DS3505
ZGNN,1995-01-25 07:00,ZGNN 250700Z AUTO 01006KT 3SM 09/08 A3018 RMK SLP215 T00900080 IEM_DS3505
ZGNN,1995-01-25 08:00,ZGNN 250800Z AUTO 00000KT 1 1/4SM 09/08 A3021 RMK SLP225 T00900080 IEM_DS3505
ZGNN,1995-01-25 09:00,ZGNN 250900Z AUTO 00000KT 4SM 09/08 A3018 RMK SLP219 T00890081 57010 IEM_DS3505
ZGNN,1995-01-25 10:00,ZGNN 251000Z AUTO 00000KT 1 1/4SM 09/08 A3018 RMK SLP215 T00900080 IEM_DS3505
ZGNN,1995-01-25 11:00,ZGNN 251100Z AUTO 03004KT 1 1/4SM 09/08 A3021 RMK SLP225 T00900080 IEM_DS3505
ZGNN,1995-01-25 12:00,ZGNN 251200Z AUTO 00000KT 4SM 08/08 A3024 RMK 60004 SLP230 T00850081 52011 IEM_DS3505
ZGNN,1995-01-25 13:00,ZGNN 251300Z AUTO 36004KT 1 1/2SM 09/08 A3024 RMK SLP235 T00900080 IEM_DS3505
ZGNN,1995-01-25 14:00,ZGNN 251400Z AUTO 00000KT 1 1/2SM 09/08 A3024 RMK SLP235 T00900080 IEM_DS3505
ZGNN,1995-01-25 15:00,ZGNN 251500Z AUTO 07002KT 4SM 08/08 A3025 RMK SLP239 T00840080 52009 IEM_DS3505
ZGNN,1995-01-25 18:00,ZGNN 251800Z AUTO 04002KT 3SM 09/08 A3023 RMK 60004 SLP232 T00890083 57007 IEM_DS3505
ZGNN,1995-01-25 21:00,ZGNN 252100Z AUTO 04004KT 2 1/2SM 09/08 A3021 RMK SLP226 T00880084 57006 IEM_DS3505
ZGNN,1995-01-25 22:00,ZGNN 252200Z AUTO 34004KT 1 1/4SM 08/08 A3024 RMK SLP235 T00800080 IEM_DS3505
ZGNN,1995-01-25 23:00,ZGNN 252300Z AUTO 34006KT 1 1/4SM 08/08 A3027 RMK SLP245 T00800080 IEM_DS3505
ZGNN,1995-01-26 00:00,ZGNN 260000Z AUTO 02004KT 1 1/4SM 09/09 A3027 RMK 60008 70020 SLP250 T00900086 52024 IEM_DS3505
ZGNN,1995-01-26 01:00,ZGNN 260100Z AUTO 34004KT 1 1/2SM 09/08 A3027 RMK SLP245 T00900080 IEM_DS3505
ZGNN,1995-01-26 02:00,ZGNN 260200Z AUTO 02004KT 2 1/2SM 09/08 A3033 RMK SLP265 T00900080 IEM_DS3505
ZGNN,1995-01-26 03:00,ZGNN 260300Z AUTO 32004KT 1 1/4SM 10/09 A3033 RMK SLP269 T00950087 52019 IEM_DS3505
ZGNN,1995-01-26 04:00,ZGNN 260400Z AUTO 33006KT 6SM 09/08 A3033 RMK SLP265 T00900080 IEM_DS3505
ZGNN,1995-01-26 06:00,ZGNN 260600Z AUTO 36004KT 9SM 10/08 A3027 RMK 60004 SLP245 T00990078 57024 IEM_DS3505
ZGNN,1995-01-26 07:00,ZGNN 260700Z AUTO 01008KT 4SM 09/08 A3024 RMK SLP235 T00900080 IEM_DS3505
ZGNN,1995-01-26 09:00,ZGNN 260900Z AUTO 34004KT 12SM 10/07 A3024 RMK SLP235 T01000070 57010 IEM_DS3505
ZGNN,1995-01-26 12:00,ZGNN 261200Z AUTO 00000KT 9SM 09/07 A3027 RMK 60004 SLP244 T00870070 52009 IEM_DS3505
ZGNN,1995-01-26 13:00,ZGNN 261300Z AUTO 06006KT 7SM 08/07 A3027 RMK SLP245 T00800070 IEM_DS3505
ZGNN,1995-01-26 14:00,ZGNN 261400Z AUTO 07004KT 7SM 08/07 A3030 RMK SLP255 T00800070 IEM_DS3505
ZGNN,1995-01-26 15:00,ZGNN 261500Z AUTO 00000KT 9SM 09/07 A3029 RMK SLP252 T00870068 52008 IEM_DS3505
ZGNN,1995-01-26 18:00,ZGNN 261800Z AUTO 00000KT 7SM 08/08 A3029 RMK 60008 SLP251 T00830077 57001 IEM_DS3505
ZGNN,1995-01-26 21:00,ZGNN 262100Z AUTO 32004KT 7SM 08/06 A3024 RMK SLP242 T00800065 57009 IEM_DS3505
ZGNN,1995-01-26 23:00,ZGNN 262300Z AUTO 34008KT 7SM 07/06 A3027 RMK SLP246 T00700060 IEM_DS3505
ZGNN,1995-01-27 00:00,ZGNN 270000Z AUTO 29004KT 3SM 08/07 A3030 RMK 60008 70024 SLP254 T00790068 52012 IEM_DS3505
ZGNN,1995-01-27 01:00,ZGNN 270100Z AUTO 00000KT 3SM 07/06 A3030 RMK SLP256 T00700060 IEM_DS3505
ZGNN,1995-01-27 02:00,ZGNN 270200Z AUTO 34006KT 3SM 08/07 A3033 RMK SLP265 T00800070 IEM_DS3505
ZGNN,1995-01-27 03:00,ZGNN 270300Z AUTO 32004KT 4SM 08/07 A3036 RMK SLP270 T00800071 52016 IEM_DS3505
ZGNN,1995-01-27 04:00,ZGNN 270400Z AUTO 33004KT 2 1/2SM 08/07 A3033 RMK SLP265 T00800070 IEM_DS3505
ZGNN,1995-01-27 06:00,ZGNN 270600Z AUTO 32002KT 8SM 10/08 A3027 RMK 60028 SLP245 T00950076 57025 IEM_DS3505
ZGNN,1995-01-27 07:00,ZGNN 270700Z AUTO 03006KT 4SM 10/07 A3024 RMK SLP235 T01000070 IEM_DS3505
ZGNN,1995-01-27 08:00,ZGNN 270800Z AUTO 36006KT 4SM 10/07 A3024 RMK SLP235 T01000070 IEM_DS3505
ZGNN,1995-01-27 09:00,ZGNN 270900Z AUTO 07002KT 9SM 10/08 A3024 RMK SLP235 T01050080 57010 IEM_DS3505
ZGNN,1995-01-27 10:00,ZGNN 271000Z AUTO 00000KT 4SM 10/06 A3027 RMK SLP245 T01000060 IEM_DS3505
ZGNN,1995-01-27 11:00,ZGNN 271100Z AUTO 03004KT 3SM 10/07 A3027 RMK SLP245 T01000070 IEM_DS3505
ZGNN,1995-01-27 12:00,ZGNN 271200Z AUTO 04002KT 9SM 10/06 A3030 RMK SLP255 T00970065 52020 IEM_DS3505
ZGNN,1995-01-27 13:00,ZGNN 271300Z AUTO 05004KT 3SM 10/07 A3033 RMK SLP265 T01000070 IEM_DS3505
ZGNN,1995-01-27 14:00,ZGNN 271400Z AUTO 00000KT 3SM 09/07 A3033 RMK SLP265 T00900070 IEM_DS3505
ZGNN,1995-01-27 15:00,ZGNN 271500Z AUTO 00000KT 9SM 10/07 A3035 RMK SLP272 T00990069 52017 IEM_DS3505
ZGNN,1995-01-27 18:00,ZGNN 271800Z AUTO 32002KT 9SM 10/07 A3036 RMK SLP274 T01000068 52002 IEM_DS3505
ZGNN,1995-01-27 21:00,ZGNN 272100Z AUTO 34004KT 9SM 10/06 A3034 RMK SLP267 T00970060 57007 IEM_DS3505
ZGNN,1995-01-27 22:00,ZGNN 272200Z AUTO 35006KT 7SM RMK IEM_DS3505
ZGNN,1995-01-27 23:00,ZGNN 272300Z AUTO 35010KT 7SM RMK IEM_DS3505
ZGNN,1995-01-28 00:00,ZGNN 280000Z AUTO 02004KT 9SM 09/04 A3039 RMK 70028 SLP286 T00880045 52019 IEM_DS3505
ZGNN,1995-01-28 01:00,ZGNN 280100Z AUTO 02004KT 7SM 09/04 A3042 RMK SLP295 T00900040 IEM_DS3505
ZGNN,1995-01-28 02:00,ZGNN 280200Z AUTO 36010KT 7SM 10/05 A3042 RMK SLP295 T01000050 IEM_DS3505
ZGNN,1995-01-28 03:00,ZGNN 280300Z AUTO 02002KT 14SM 11/04 A3042 RMK SLP293 T01080038 52007 IEM_DS3505
ZGNN,1995-01-28 06:00,ZGNN 280600Z AUTO 00000KT 12SM 13/04 A3033 RMK SLP260 T01300045 57032 IEM_DS3505
ZGNN,1995-01-28 07:00,ZGNN 280700Z AUTO 03006KT 7SM 13/05 A3030 RMK SLP254 T01300050 IEM_DS3505
ZGNN,1995-01-28 08:00,ZGNN 280800Z AUTO 36006KT 6SM 14/05 A3027 RMK SLP243 T01400050 IEM_DS3505
ZGNN,1995-01-28 09:00,ZGNN 280900Z AUTO 07004KT 14SM 14/05 A3027 RMK SLP241 T01370049 57019 IEM_DS3505
ZGNN,1995-01-28 10:00,ZGNN 281000Z AUTO 09006KT 7SM 13/05 A3027 RMK SLP244 T01300050 IEM_DS3505
ZGNN,1995-01-28 11:00,ZGNN 281100Z AUTO 13006KT 7SM 11/06 A3030 RMK SLP254 T01100060 IEM_DS3505
ZGNN,1995-01-28 12:00,ZGNN 281200Z AUTO 09006KT 12SM 11/04 A3030 RMK SLP261 T01130044 52019 IEM_DS3505
ZGNN,1995-01-28 13:00,ZGNN 281300Z AUTO 09014KT 7SM 10/04 A3030 RMK SLP255 T01000040 IEM_DS3505
ZGNN,1995-01-28 14:00,ZGNN 281400Z AUTO 10006KT 7SM 10/04 A3033 RMK SLP265 T01000040 IEM_DS3505
ZGNN,1995-01-28 15:00,ZGNN 281500Z AUTO 07006KT 12SM 10/04 A3036 RMK SLP275 T00980044 52014 IEM_DS3505
ZGNN,1995-01-28 18:00,ZGNN 281800Z AUTO 07004KT 12SM 09/03 A3033 RMK SLP266 T00930030 57009 IEM_DS3505
ZGNN,1995-01-28 21:00,ZGNN 282100Z AUTO 09004KT 9SM 09/02 A3030 RMK SLP253 T00890025 57012 IEM_DS3505
ZGNN,1995-01-28 22:00,ZGNN 282200Z AUTO 00000KT 5SM 08/04 A3030 RMK SLP255 T00800040 IEM_DS3505
ZGNN,1995-01-28 23:00,ZGNN 282300Z AUTO 06006KT 5SM 08/03 A3033 RMK SLP265 T00800030 IEM_DS3505
ZGNN,1995-01-29 00:00,ZGNN 290000Z AUTO 09006KT 11SM 09/02 A3033 RMK SLP268 T00860024 52014 IEM_DS3505
ZGNN,1995-01-29 01:00,ZGNN 290100Z AUTO 06004KT 7SM 09/03 A3036 RMK SLP275 T00900030 IEM_DS3505
ZGNN,1995-01-29 02:00,ZGNN 290200Z AUTO 07004KT 7SM A3039 RMK IEM_DS3505
ZGNN,1995-01-29 03:00,ZGNN 290300Z AUTO 11004KT 11SM 10/03 A3039 RMK SLP286 T01040030 52018 IEM_DS3505
ZGNN,1995-01-29 05:00,ZGNN 290500Z AUTO 35004KT 7SM 11/03 A3033 RMK SLP264 T01100030 IEM_DS3505
ZGNN,1995-01-29 06:00,ZGNN 290600Z AUTO 36002KT 14SM 12/04 A3030 RMK SLP252 T01170036 57034 IEM_DS3505
ZGNN,1995-01-29 07:00,ZGNN 290700Z AUTO 04004KT 7SM 12/03 A3027 RMK SLP244 T01200030 IEM_DS3505
ZGNN,1995-01-29 08:00,ZGNN 290800Z AUTO 03002KT 7SM 12/04 A3027 RMK SLP244 T01200040 IEM_DS3505
ZGNN,1995-01-29 09:00,ZGNN 290900Z AUTO 09002KT 16SM 11/04 A3027 RMK SLP244 T01120035 57008 IEM_DS3505
ZGNN,1995-01-29 10:00,ZGNN 291000Z AUTO 06004KT 7SM 11/05 A3027 RMK SLP244 T01100050 IEM_DS3505
ZGNN,1995-01-29 11:00,ZGNN 291100Z AUTO 04006KT 7SM 11/04 A3027 RMK SLP244 T01100040 IEM_DS3505
ZGNN,1995-01-29 12:00,ZGNN 291200Z AUTO 04004KT 16SM 10/03 A3030 RMK SLP256 T01010032 52012 IEM_DS3505
ZGNN,1995-01-29 13:00,ZGNN 291300Z AUTO 04004KT 7SM 10/03 A3033 RMK SLP265 T01000030 IEM_DS3505
ZGNN,1995-01-29 15:00,ZGNN 291500Z AUTO 04002KT 14SM 10/04 A3035 RMK SLP271 T00980039 52015 IEM_DS3505
ZGNN,1995-01-29 18:00,ZGNN 291800Z AUTO 00000KT 12SM 10/05 A3035 RMK SLP272 T00950053 52001 IEM_DS3505
ZGNN,1995-01-29 21:00,ZGNN 292100Z AUTO 00000KT 12SM 09/05 A3032 RMK SLP262 T00920052 57010 IEM_DS3505
ZGNN,1995-01-30 00:00,ZGNN 300000Z AUTO 00000KT 12SM 09/06 A3038 RMK SLP281 T00940057 52019 IEM_DS3505
ZGNN,1995-01-30 02:00,ZGNN 300200Z AUTO 00000KT 7SM 09/04 A3042 RMK SLP295 T00900040 IEM_DS3505
ZGNN,1995-01-30 03:00,ZGNN 300300Z AUTO 00000KT 16SM 10/05 A3042 RMK SLP296 T01010050 52015 IEM_DS3505
ZGNN,1995-01-30 04:00,ZGNN 300400Z AUTO 06002KT 5SM 10/05 A3042 RMK SLP295 T01000050 IEM_DS3505
ZGNN,1995-01-30 05:00,ZGNN 300500Z AUTO 10002KT 5SM 10/05 A3039 RMK SLP285 T01000050 IEM_DS3505
ZGNN,1995-01-30 06:00,ZGNN 300600Z AUTO 04002KT 12SM 11/05 A3036 RMK SLP272 T01060053 57024 IEM_DS3505
ZGNN,1995-01-30 07:00,ZGNN 300700Z AUTO 36004KT 7SM 10/04 A3033 RMK SLP265 T01000040 IEM_DS3505
ZGNN,1995-01-30 08:00,ZGNN 300800Z AUTO 34004KT 4SM 10/04 A3033 RMK SLP265 T01000040 IEM_DS3505
ZGNN,1995-01-30 09:00,ZGNN 300900Z AUTO 07002KT 11SM 10/06 A3033 RMK SLP265 T01000059 57007 IEM_DS3505
ZGNN,1995-01-30 10:00,ZGNN 301000Z AUTO 06004KT 2 1/2SM 09/06 A3033 RMK SLP265 T00900060 IEM_DS3505
ZGNN,1995-01-30 11:00,ZGNN 301100Z AUTO 06004KT 2 1/2SM 09/06 A3036 RMK SLP275 T00900060 IEM_DS3505
ZGNN,1995-01-30 12:00,ZGNN 301200Z AUTO 00000KT 12SM 10/06 A3036 RMK 60000 SLP281 T00960061 52016 IEM_DS3505
ZGNN,1995-01-30 13:00,ZGNN 301300Z AUTO 00000KT 2 1/2SM 09/06 A3039 RMK SLP285 T00900060 IEM_DS3505
ZGNN,1995-01-30 15:00,ZGNN 301500Z AUTO 04002KT 12SM 10/06 A3042 RMK SLP295 T00970055 52014 IEM_DS3505
ZGNN,1995-01-30 18:00,ZGNN 301800Z AUTO 00000KT 12SM 10/06 A3043 RMK SLP299 T00970060 52004 IEM_DS3505
ZGNN,1995-01-30 21:00,ZGNN 302100Z AUTO 00000KT 12SM 10/05 A3042 RMK SLP296 T00950050 57003 IEM_DS3505
ZGNN,1995-01-31 00:00,ZGNN 310000Z AUTO 02002KT 11SM 10/05 A3047 RMK SLP311 T00950048 52015 IEM_DS3505
ZGNN,1995-01-31 01:00,ZGNN 310100Z AUTO 33006KT 5SM 09/03 A3050 RMK SLP323 T00900030 IEM_DS3505
ZGNN,1995-01-31 02:00,ZGNN 310200Z AUTO 36006KT 5SM 10/02 A3050 RMK SLP322 T01000020 IEM_DS3505
ZGNN,1995-01-31 03:00,ZGNN 310300Z AUTO 02002KT 11SM 10/03 A3050 RMK SLP328 T01030028 52017 IEM_DS3505
ZGNN,1995-01-31 06:00,ZGNN 310600Z AUTO 00000KT 6SM 10/03 A3045 RMK 60000 SLP299 T01050034 57029 IEM_DS3505
ZGNN,1995-01-31 07:00,ZGNN 310700Z AUTO 00000KT 5SM 10/03 A3042 RMK SLP295 T01000030 IEM_DS3505
ZGNN,1995-01-31 08:00,ZGNN 310800Z AUTO 00000KT 7SM 10/03 A3042 RMK SLP295 T01000030 IEM_DS3505
ZGNN,1995-01-31 09:00,ZGNN 310900Z AUTO 00000KT 6SM 11/05 A3042 RMK SLP289 T01080046 57010 IEM_DS3505
ZGNN,1995-01-31 11:00,ZGNN 311100Z AUTO 27004KT 4SM 09/06 A3042 RMK SLP295 T00900060 IEM_DS3505
ZGNN,1995-01-31 12:00,ZGNN 311200Z AUTO 00000KT 6SM 10/06 A3042 RMK 60000 SLP302 T00980059 52013 IEM_DS3505
ZGNN,1995-01-31 13:00,ZGNN 311300Z AUTO 00000KT 4SM 08/06 A3045 RMK SLP306 T00800060 IEM_DS3505
ZGNN,1995-01-31 15:00,ZGNN 311500Z AUTO 25004KT 7SM 09/07 A3047 RMK SLP311 T00930067 52009 IEM_DS3505
ZGNN,1995-01-31 18:00,ZGNN 311800Z AUTO 00000KT 7SM 09/06 A3048 RMK 60004 SLP317 T00890065 52006 IEM_DS3505
ZGNN,1995-01-31 21:00,ZGNN 312100Z AUTO 00000KT 7SM 09/07 A3045 RMK SLP307 T00890072 57010 IEM_DS3505
ZGNN,1995-01-31 22:00,ZGNN 312200Z AUTO 00000KT 3SM 08/07 A3047 RMK SLP313 T00800070 IEM_DS3505
ZGNN,1995-01-31 23:00,ZGNN 312300Z AUTO 00000KT 2 1/2SM 08/07 A3050 RMK SLP323 T00800070 IEM_DS3505
ZGNN,1995-02-01 00:00,ZGNN 010000Z AUTO 00000KT 5SM 09/08 A3050 RMK 70004 SLP325 T00910076 52017 IEM_DS3505
ZGNN,1995-02-01 01:00,ZGNN 010100Z AUTO 21004KT 1 1/4SM 08/07 A3053 RMK SLP335 T00800070 IEM_DS3505
ZGNN,1995-02-01 02:00,ZGNN 010200Z AUTO 00000KT 2SM 09/07 A3053 RMK SLP335 T00900070 IEM_DS3505
ZGNN,1995-02-01 03:00,ZGNN 010300Z AUTO 02004KT 8SM 11/03 A3053 RMK SLP334 T01130027 52010 IEM_DS3505
ZGNN,1995-02-01 04:00,ZGNN 010400Z AUTO 02008KT 4SM 12/01 A3053 RMK SLP334 T01200010 IEM_DS3505
ZGNN,1995-02-01 06:00,ZGNN 010600Z AUTO 36004KT 9SM 14/01 A3045 RMK SLP304 T01420011 57030 IEM_DS3505
ZGNN,1995-02-01 07:00,ZGNN 010700Z AUTO 06008KT 6SM 14/01 A3042 RMK SLP296 T01400010 IEM_DS3505
ZGNN,1995-02-01 08:00,ZGNN 010800Z AUTO 00000KT 14/00 A3042 RMK SLP296 T01400000 IEM_DS3505
ZGNN,1995-02-01 09:00,ZGNN 010900Z AUTO 09004KT 9SM 14/01 A3042 RMK SLP294 T01420011 57010 IEM_DS3505
ZGNN,1995-02-01 10:00,ZGNN 011000Z AUTO 00000KT 13/04 A3042 RMK SLP296 T01300040 IEM_DS3505
ZGNN,1995-02-01 11:00,ZGNN 011100Z AUTO 00000KT 13/04 A3042 RMK SLP296 T01300040 IEM_DS3505
ZGNN,1995-02-01 12:00,ZGNN 011200Z AUTO 00000KT 7SM 12/04 A3045 RMK SLP302 T01230041 52008 IEM_DS3505
ZGNN,1995-02-01 15:00,ZGNN 011500Z AUTO 00000KT 7SM 11/07 A3047 RMK SLP314 T01140067 52012 IEM_DS3505
ZGNN,1995-02-01 18:00,ZGNN 011800Z AUTO 00000KT 6SM 11/05 A3046 RMK 60000 SLP309 T01070052 57004 IEM_DS3505
ZGNN,1995-02-01 21:00,ZGNN 012100Z AUTO 00000KT 6SM 10/04 A3045 RMK SLP300 T01050036 57009 IEM_DS3505
ZGNN,1995-02-01 22:00,ZGNN 012200Z AUTO 00000KT 7SM 10/03 A3045 RMK SLP307 T01000030 IEM_DS3505
ZGNN,1995-02-02 00:00,ZGNN 020000Z AUTO 00000KT 7SM 10/03 A3045 RMK SLP307 T01030031 52006 IEM_DS3505
ZGNN,1995-02-02 01:00,ZGNN 020100Z AUTO 00000KT 7SM 10/03 A3047 RMK SLP313 T01000030 IEM_DS3505
ZGNN,1995-02-02 02:00,ZGNN 020200Z AUTO 00000KT 7SM 11/03 A3050 RMK SLP323 T01100030 IEM_DS3505
ZGNN,1995-02-02 03:00,ZGNN 020300Z AUTO 09002KT 10SM 12/03 A3047 RMK SLP318 T01190032 52011 IEM_DS3505
ZGNN,1995-02-02 04:00,ZGNN 020400Z AUTO 07006KT 7SM 12/M01 A3045 RMK SLP307 T01201010 IEM_DS3505
ZGNN,1995-02-02 06:00,ZGNN 020600Z AUTO 04002KT 11SM 14/M00 A3038 RMK SLP281 T01351003 57036 IEM_DS3505
ZGNN,1995-02-02 07:00,ZGNN 020700Z AUTO 07004KT 7SM 13/M01 A3039 RMK SLP285 T01301010 IEM_DS3505
ZGNN,1995-02-02 08:00,ZGNN 020800Z AUTO 03004KT 7SM 13/M01 A3033 RMK SLP265 T01301010 IEM_DS3505
ZGNN,1995-02-02 09:00,ZGNN 020900Z AUTO 09002KT 12SM 14/02 A3033 RMK SLP262 T01370020 57019 IEM_DS3505
ZGNN,1995-02-02 10:00,ZGNN 021000Z AUTO 00000KT 7SM 13/01 A3033 RMK SLP265 T01300010 IEM_DS3505
ZGNN,1995-02-02 11:00,ZGNN 021100Z AUTO 12002KT 7SM 12/03 A3033 RMK SLP265 T01200030 IEM_DS3505
ZGNN,1995-02-02 12:00,ZGNN 021200Z AUTO 00000KT 11SM 12/03 A3033 RMK SLP265 T01210033 52003 IEM_DS3505
ZGNN,1995-02-02 15:00,ZGNN 021500Z AUTO 00000KT 10SM 11/04 A3035 RMK SLP271 T01140045 52006 IEM_DS3505
ZGNN,1995-02-02 18:00,ZGNN 021800Z AUTO 00000KT 10SM 11/04 A3032 RMK SLP262 T01090044 57009 IEM_DS3505
ZGNN,1995-02-02 21:00,ZGNN 022100Z AUTO 07002KT 9SM 11/05 A3033 RMK SLP265 T01080051 52003 IEM_DS3505
ZGNN,1995-02-02 22:00,ZGNN 022200Z AUTO 04004KT 5SM 10/04 A3033 RMK SLP266 T01000040 IEM_DS3505
ZGNN,1995-02-02 23:00,ZGNN 022300Z AUTO 03004KT 5SM 10/04 A3036 RMK SLP276 T01000040 IEM_DS3505
ZGNN,1995-02-03 00:00,ZGNN 030000Z AUTO 04004KT 9SM 11/05 A3039 RMK SLP283 T01070052 52017 IEM_DS3505
ZGNN,1995-02-03 01:00,ZGNN 030100Z AUTO 04004KT 6SM 10/05 A3042 RMK SLP297 T01000050 IEM_DS3505
ZGNN,1995-02-03 02:00,ZGNN 030200Z AUTO 03010KT 7SM 10/05 A3045 RMK SLP307 T01000050 IEM_DS3505
ZGNN,1995-02-03 03:00,ZGNN 030300Z AUTO 04004KT 7SM 10/07 A3047 RMK SLP310 T00970072 52027 IEM_DS3505
ZGNN,1995-02-03 04:00,ZGNN 030400Z AUTO 05004KT 2 1/2SM RMK IEM_DS3505
ZGNN,1995-02-03 06:00,ZGNN 030600Z AUTO 02004KT 2 1/2SM 10/07 A3039 RMK SLP285 T01000070 57025 IEM_DS3505
ZGNN,1995-02-03 07:00,ZGNN 030700Z AUTO 36008KT 2SM 09/08 A3039 RMK SLP286 T00900080 IEM_DS3505
ZGNN,1995-02-03 08:00,ZGNN 030800Z AUTO 36006KT 2 1/2SM 09/08 A3036 RMK SLP276 T00900080 IEM_DS3505
ZGNN,1995-02-03 09:00,ZGNN 030900Z AUTO 36002KT 4SM 11/07 A3036 RMK SLP278 T01080070 57007 IEM_DS3505
ZGNN,1995-02-03 11:00,ZGNN 031100Z AUTO 36002KT 2 1/2SM 10/08 A3039 RMK SLP286 T01000080 IEM_DS3505
ZGNN,1995-02-03 12:00,ZGNN 031200Z AUTO 00000KT 7SM 10/07 A3042 RMK SLP295 T01050074 52017 IEM_DS3505
ZGNN,1995-02-03 15:00,ZGNN 031500Z AUTO 00000KT 7SM 10/06 A3045 RMK SLP307 T01020063 52012 IEM_DS3505
ZGNN,1995-02-03 18:00,ZGNN 031800Z AUTO 00000KT 7SM 10/08 A3045 RMK SLP305 T01010078 57002 IEM_DS3505
ZGNN,1995-02-03 21:00,ZGNN 032100Z AUTO 04004KT 7SM 10/05 A3045 RMK SLP306 T01040051 52001 IEM_DS3505
ZGNN,1995-02-04 00:00,ZGNN 040000Z AUTO 00000KT 7SM 10/05 A3050 RMK SLP323 T01010052 52017 IEM_DS3505
ZGNN,1995-02-04 01:00,ZGNN 040100Z AUTO 00000KT 2 1/2SM 10/07 A3050 RMK SLP323 T01000070 IEM_DS3505
ZGNN,1995-02-04 02:00,ZGNN 040200Z AUTO 09006KT 3SM 10/06 A3053 RMK SLP334 T01000060 IEM_DS3505
ZGNN,1995-02-04 03:00,ZGNN 040300Z AUTO 07006KT 9SM 12/02 A3053 RMK SLP339 T01150015 52016 IEM_DS3505
ZGNN,1995-02-04 04:00,ZGNN 040400Z AUTO 03004KT 4SM 11/03 A3050 RMK SLP323 T01100030 IEM_DS3505
ZGNN,1995-02-04 06:00,ZGNN 040600Z AUTO 11004KT 11SM 13/02 A3045 RMK SLP306 T01270017 57033 IEM_DS3505
ZGNN,1995-02-04 07:00,ZGNN 040700Z AUTO 35004KT 4SM 12/02 A3042 RMK SLP296 T01200020 IEM_DS3505
ZGNN,1995-02-04 08:00,ZGNN 040800Z AUTO 04006KT 4SM 13/02 A3039 RMK SLP285 T01300020 IEM_DS3505
ZGNN,1995-02-04 09:00,ZGNN 040900Z AUTO 07004KT 12SM 13/03 A3039 RMK SLP285 T01330032 57020 IEM_DS3505
ZGNN,1995-02-04 10:00,ZGNN 041000Z AUTO 04004KT 4SM 12/03 A3039 RMK SLP285 T01200030 IEM_DS3505
ZGNN,1995-02-04 11:00,ZGNN 041100Z AUTO 08004KT 4SM 12/04 A3042 RMK SLP296 T01200040 IEM_DS3505
ZGNN,1995-02-04 12:00,ZGNN 041200Z AUTO 04004KT 12SM 12/02 A3042 RMK SLP294 T01180022 52008 IEM_DS3505
ZGNN,1995-02-04 13:00,ZGNN 041300Z AUTO 00000KT 4SM 10/07 A3045 RMK SLP307 T01000070 IEM_DS3505
ZGNN,1995-02-04 14:00,ZGNN 041400Z AUTO 00000KT 4SM 10/06 A3045 RMK SLP307 T01000060 IEM_DS3505
ZGNN,1995-02-04 15:00,ZGNN 041500Z AUTO 00000KT 11SM 10/03 A3046 RMK SLP311 T01020027 52017 IEM_DS3505
ZGNN,1995-02-04 18:00,ZGNN 041800Z AUTO 04002KT 9SM 10/04 A3045 RMK SLP306 T00970040 57005 IEM_DS3505
ZGNN,1995-02-04 21:00,ZGNN 042100Z AUTO 00000KT 9SM 10/02 A3045 RMK SLP303 T01040024 57003 IEM_DS3505
ZGNN,1995-02-04 22:00,ZGNN 042200Z AUTO 00000KT 3SM 09/04 A3045 RMK SLP308 T00900040 IEM_DS3505
ZGNN,1995-02-05 00:00,ZGNN 050000Z AUTO 00000KT 9SM 10/03 A3048 RMK SLP317 T00980027 52014 IEM_DS3505
ZGNN,1995-02-05 01:00,ZGNN 050100Z AUTO 00000KT 6SM 10/04 A3050 RMK SLP323 T01000040 IEM_DS3505
ZGNN,1995-02-05 02:00,ZGNN 050200Z AUTO 06006KT 6SM 11/00 A3050 RMK SLP323 T01100000 IEM_DS3505
ZGNN,1995-02-05 03:00,ZGNN 050300Z AUTO 02004KT 9SM 13/M00 A3050 RMK SLP328 T01261001 52011 IEM_DS3505
ZGNN,1995-02-05 04:00,ZGNN 050400Z AUTO 06006KT 6SM 13/M03 A3047 RMK SLP312 T01301030 IEM_DS3505
ZGNN,1995-02-05 06:00,ZGNN 050600Z AUTO 09004KT 12SM 15/M01 A3039 RMK SLP284 T01541007 57043 IEM_DS3505
ZGNN,1995-02-05 07:00,ZGNN 050700Z AUTO 07006KT 6SM 15/M02 A3036 RMK SLP274 T01501020 IEM_DS3505
ZGNN,1995-02-05 08:00,ZGNN 050800Z AUTO 07006KT 6SM 15/M02 A3033 RMK SLP264 T01501020 IEM_DS3505
ZGNN,1995-02-05 09:00,ZGNN 050900Z AUTO 00000KT 14SM 16/01 A3033 RMK SLP263 T01620014 57021 IEM_DS3505
ZGNN,1995-02-05 10:00,ZGNN 051000Z AUTO 08004KT 6SM 15/00 A3033 RMK SLP264 T01500000 IEM_DS3505
ZGNN,1995-02-05 11:00,ZGNN 051100Z AUTO 00000KT 6SM 13/03 A3036 RMK SLP275 T01300030 IEM_DS3505
ZGNN,1995-02-05 12:00,ZGNN 051200Z AUTO 00000KT 12SM 12/03 A3036 RMK SLP273 T01210030 52009 IEM_DS3505
ZGNN,1995-02-05 13:00,ZGNN 051300Z AUTO 34004KT 6SM 09/04 A3039 RMK SLP286 T00900040 IEM_DS3505
ZGNN,1995-02-05 15:00,ZGNN 051500Z AUTO 00000KT 12SM 10/03 A3040 RMK SLP290 T00970029 52017 IEM_DS3505
ZGNN,1995-02-05 18:00,ZGNN 051800Z AUTO 00000KT 12SM 09/05 A3037 RMK SLP280 T00910051 57009 IEM_DS3505
ZGNN,1995-02-05 21:00,ZGNN 052100Z AUTO 00000KT 11SM 10/05 A3036 RMK SLP270 T00980054 57010 IEM_DS3505
ZGNN,1995-02-05 22:00,ZGNN 052200Z AUTO 00000KT 5SM 09/06 A3036 RMK SLP276 T00900060 IEM_DS3505
ZGNN,1995-02-05 23:00,ZGNN 052300Z AUTO 00000KT 4SM 09/07 A3039 RMK SLP286 T00900070 IEM_DS3505
ZGNN,1995-02-06 00:00,ZGNN 060000Z AUTO 00000KT 5SM 10/07 A3042 RMK SLP286 T01020072 52015 IEM_DS3505
ZGNN,1995-02-06 01:00,ZGNN 060100Z AUTO 00000KT 3SM 10/05 A3042 RMK SLP297 T01000050 IEM_DS3505
ZGNN,1995-02-06 02:00,ZGNN 060200Z AUTO 00000KT 4SM 11/05 A3045 RMK SLP307 T01100050 IEM_DS3505
ZGNN,1995-02-06 03:00,ZGNN 060300Z AUTO 00000KT 7SM 13/04 A3045 RMK SLP301 T01290038 52015 IEM_DS3505
ZGNN,1995-02-06 06:00,ZGNN 060600Z AUTO 22004KT 12SM 18/02 A3033 RMK SLP260 T01750016 57040 IEM_DS3505
ZGNN,1995-02-06 07:00,ZGNN 060700Z AUTO 15004KT 6SM 18/01 A3027 RMK SLP243 T01800010 IEM_DS3505
ZGNN,1995-02-06 08:00,ZGNN 060800Z AUTO 00000KT 6SM 19/01 A3024 RMK SLP233 T01900010 IEM_DS3505
ZGNN,1995-02-06 09:00,ZGNN 060900Z AUTO 11002KT 12SM 18/02 A3024 RMK SLP233 T01830020 57026 IEM_DS3505
ZGNN,1995-02-06 10:00,ZGNN 061000Z AUTO 13004KT 7SM 18/03 A3024 RMK SLP233 T01800030 IEM_DS3505
ZGNN,1995-02-06 11:00,ZGNN 061100Z AUTO 00000KT 7SM 16/04 A3024 RMK SLP234 T01600040 IEM_DS3505
ZGNN,1995-02-06 12:00,ZGNN 061200Z AUTO 00000KT 12SM 14/06 A3027 RMK SLP241 T01420058 52007 IEM_DS3505
ZGNN,1995-02-06 13:00,ZGNN 061300Z AUTO 00000KT 5SM 12/06 A3027 RMK SLP245 T01200060 IEM_DS3505
ZGNN,1995-02-06 14:00,ZGNN 061400Z AUTO 02004KT 5SM 12/06 A3030 RMK SLP255 T01200060 IEM_DS3505
ZGNN,1995-02-06 15:00,ZGNN 061500Z AUTO 00000KT 12SM 13/05 A3029 RMK SLP252 T01270049 52011 IEM_DS3505
ZGNN,1995-02-06 18:00,ZGNN 061800Z AUTO 00000KT 11SM 11/04 A3026 RMK SLP241 T01140043 57010 IEM_DS3505
ZGNN,1995-02-06 21:00,ZGNN 062100Z AUTO 00000KT 10SM 11/06 A3022 RMK SLP229 T01120061 57012 IEM_DS3505
ZGNN,1995-02-07 00:00,ZGNN 070000Z AUTO 00000KT 9SM 11/05 A3027 RMK SLP244 T01100051 52014 IEM_DS3505
ZGNN,1995-02-07 01:00,ZGNN 070100Z AUTO 00000KT 7SM 11/05 A3030 RMK SLP255 T01100050 IEM_DS3505
ZGNN,1995-02-07 02:00,ZGNN 070200Z AUTO 00000KT 7SM 12/05 A3030 RMK SLP255 T01200050 IEM_DS3505
ZGNN,1995-02-07 03:00,ZGNN 070300Z AUTO 20002KT 11SM 15/06 A3030 RMK SLP255 T01470062 52011 IEM_DS3505
ZGNN,1995-02-07 04:00,ZGNN 070400Z AUTO 17008KT 7SM 16/07 A3027 RMK SLP244 T01600070 IEM_DS3505
ZGNN,1995-02-07 05:00,ZGNN 070500Z AUTO 12008KT 7SM 17/07 A3021 RMK SLP223 T01700070 IEM_DS3505
ZGNN,1995-02-07 06:00,ZGNN 070600Z AUTO 22004KT 14SM 17/08 A3018 RMK SLP209 T01700075 57045 IEM_DS3505
ZGNN,1995-02-07 07:00,ZGNN 070700Z AUTO 15008KT 7SM 16/06 A3015 RMK SLP203 T01600060 IEM_DS3505
ZGNN,1995-02-07 08:00,ZGNN 070800Z AUTO 15008KT 7SM 16/07 A3012 RMK SLP193 T01600070 IEM_DS3505
ZGNN,1995-02-07 09:00,ZGNN 070900Z AUTO 20004KT 16SM 16/06 A3010 RMK SLP186 T01640062 57023 IEM_DS3505
ZGNN,1995-02-07 10:00,ZGNN 071000Z AUTO 15006KT 7SM 16/07 A3009 RMK SLP183 T01600070 IEM_DS3505
ZGNN,1995-02-07 11:00,ZGNN 071100Z AUTO 19004KT 7SM 15/07 A3009 RMK SLP184 T01500070 IEM_DS3505
ZGNN,1995-02-07 12:00,ZGNN 071200Z AUTO 00000KT 12SM 15/09 A3009 RMK SLP187 T01510088 52001 IEM_DS3505
ZGNN,1995-02-07 15:00,ZGNN 071500Z AUTO 00000KT 12SM 15/09 A3011 RMK SLP191 T01470088 52004 IEM_DS3505
ZGNN,1995-02-07 18:00,ZGNN 071800Z AUTO 00000KT 7SM 14/11 A3009 RMK 60012 SLP185 T01350106 57006 IEM_DS3505
ZGNN,1995-02-07 21:00,ZGNN 072100Z AUTO 00000KT 7SM 12/11 A3003 RMK SLP166 T01240109 57019 IEM_DS3505
ZGNN,1995-02-07 22:00,ZGNN 072200Z AUTO 01004KT 4SM 12/11 A3003 RMK SLP164 T01200110 IEM_DS3505
ZGNN,1995-02-07 23:00,ZGNN 072300Z AUTO 00000KT 2 1/2SM 12/11 A3006 RMK SLP174 T01200110 IEM_DS3505
ZGNN,1995-02-08 00:00,ZGNN 080000Z AUTO 09004KT 7SM 12/11 A3009 RMK 60008 70020 SLP181 T01230108 52015 IEM_DS3505
ZGNN,1995-02-08 01:00,ZGNN 080100Z AUTO 00000KT 1SM 13/12 A3009 RMK SLP184 T01300120 IEM_DS3505
ZGNN,1995-02-08 02:00,ZGNN 080200Z AUTO 34004KT 1SM 13/12 A3012 RMK SLP194 T01300120 IEM_DS3505
ZGNN,1995-02-08 03:00,ZGNN 080300Z AUTO 00000KT 5SM 13/12 A3014 RMK SLP199 T01290122 52018 IEM_DS3505
ZGNN,1995-02-08 06:00,ZGNN 080600Z AUTO 09002KT 4SM 15/13 A3003 RMK SLP167 T01470133 57032 IEM_DS3505
ZGNN,1995-02-08 07:00,ZGNN 080700Z AUTO 05006KT 1 1/2SM 15/14 A3000 RMK SLP152 T01500140 IEM_DS3505
ZGNN,1995-02-08 08:00,ZGNN 080800Z AUTO 08004KT 1 1/2SM 15/14 A3000 RMK SLP152 T01500140 IEM_DS3505
ZGNN,1995-02-08 09:00,ZGNN 080900Z AUTO 00000KT 4SM 15/14 A3001 RMK SLP157 T01510135 57010 IEM_DS3505
ZGNN,1995-02-08 10:00,ZGNN 081000Z AUTO 00000KT 1 1/4SM 15/14 A3003 RMK SLP163 T01500140 IEM_DS3505
ZGNN,1995-02-08 11:00,ZGNN 081100Z AUTO 07008KT 1 1/4SM RMK IEM_DS3505
ZGNN,1995-02-08 12:00,ZGNN 081200Z AUTO 00000KT 7SM 14/13 A3006 RMK SLP169 T01430130 52012 IEM_DS3505
ZGNN,1995-02-08 13:00,ZGNN 081300Z AUTO 09004KT 2SM 14/13 A3009 RMK SLP184 T01400130 IEM_DS3505
ZGNN,1995-02-08 15:00,ZGNN 081500Z AUTO 00000KT 7SM 14/13 A3010 RMK SLP187 T01400129 52018 IEM_DS3505
ZGNN,1995-02-08 18:00,ZGNN 081800Z AUTO 07004KT 6SM 14/13 A3009 RMK SLP185 T01410128 57002 IEM_DS3505
ZGNN,1995-02-08 21:00,ZGNN 082100Z AUTO 00000KT 6SM 14/13 A3009 RMK SLP181 T01380129 57004 IEM_DS3505
ZGNN,1995-02-08 22:00,ZGNN 082200Z AUTO 08006KT 1 1/4SM 13/12 A3009 RMK SLP184 T01300120 IEM_DS3505
ZGNN,1995-02-08 23:00,ZGNN 082300Z AUTO 08004KT 1 1/4SM 13/12 A3012 RMK SLP194 T01300120 IEM_DS3505
ZGNN,1995-02-09 00:00,ZGNN 090000Z AUTO 09002KT 2 1/2SM 14/13 A3015 RMK SLP204 T01380129 52023 IEM_DS3505
ZGNN,1995-02-09 01:00,ZGNN 090100Z AUTO 00000KT 1 1/4SM 14/12 A3018 RMK SLP214 T01400120 IEM_DS3505
ZGNN,1995-02-09 02:00,ZGNN 090200Z AUTO 00000KT 1 1/4SM 13/13 A3021 RMK SLP225 T01300130 IEM_DS3505
ZGNN,1995-02-09 03:00,ZGNN 090300Z AUTO 00000KT 4SM 14/13 A3021 RMK SLP222 T01450132 52018 IEM_DS3505
ZGNN,1995-02-09 06:00,ZGNN 090600Z AUTO 00000KT 4SM 16/14 A3011 RMK SLP191 T01550137 57031 IEM_DS3505
ZGNN,1995-02-09 07:00,ZGNN 090700Z AUTO 07004KT 2SM 16/14 A3009 RMK SLP183 T01600140 IEM_DS3505
ZGNN,1995-02-09 08:00,ZGNN 090800Z AUTO 07006KT 2 1/2SM 16/ A3006 RMK SLP173 IEM_DS3505
ZGNN,1995-02-09 09:00,ZGNN 090900Z AUTO 00000KT 6SM 17/14 A3006 RMK SLP176 T01680142 57014 IEM_DS3505
ZGNN,1995-02-09 10:00,ZGNN 091000Z AUTO 06004KT 2 1/2SM 16/14 A3009 RMK SLP183 T01600140 IEM_DS3505
ZGNN,1995-02-09 11:00,ZGNN 091100Z AUTO 00000KT 2 1/2SM 16/14 A3009 RMK SLP183 T01600140 IEM_DS3505
ZGNN,1995-02-09 12:00,ZGNN 091200Z AUTO 00000KT 2SM 16/14 A3012 RMK SLP188 T01570145 52011 IEM_DS3505
ZGNN,1995-02-09 15:00,ZGNN 091500Z AUTO 00000KT 1 1/2SM 16/15 A3014 RMK SLP201 T01550146 52013 IEM_DS3505
ZGNN,1995-02-09 18:00,ZGNN 091800Z AUTO 00000KT 2 1/2SM 15/14 A3014 RMK SLP202 T01520145 52001 IEM_DS3505
ZGNN,1995-02-09 21:00,ZGNN 092100Z AUTO 00000KT 2SM 15/14 A3011 RMK SLP189 T01480143 57012 IEM_DS3505
ZGNN,1995-02-09 23:00,ZGNN 092300Z AUTO 00000KT 1 1/4SM 15/14 A3012 RMK SLP194 T01500140 IEM_DS3505
ZGNN,1995-02-10 00:00,ZGNN 100000Z AUTO 00000KT 2 1/2SM 15/14 A3015 RMK SLP205 T01520141 52015 IEM_DS3505
ZGNN,1995-02-10 01:00,ZGNN 100100Z AUTO 00000KT 2SM 16/14 A3018 RMK SLP213 T01600140 IEM_DS3505
ZGNN,1995-02-10 02:00,ZGNN 100200Z AUTO 15004KT 2 1/2SM 17/15 A3018 RMK SLP213 T01700150 IEM_DS3505
ZGNN,1995-02-10 03:00,ZGNN 100300Z AUTO 07002KT 8SM 20/15 A3019 RMK SLP215 T01990154 52011 IEM_DS3505
ZGNN,1995-02-10 06:00,ZGNN 100600Z AUTO 22004KT 11SM 21/14 A3009 RMK SLP183 T02140144 57032 IEM_DS3505
ZGNN,1995-02-10 09:00,ZGNN 100900Z AUTO 20004KT 11SM 22/14 A3006 RMK SLP172 T02160143 57011 IEM_DS3505
ZGNN,1995-02-10 10:00,ZGNN 101000Z AUTO 18012KT 7SM 20/13 A3009 RMK SLP182 T02000130 IEM_DS3505
ZGNN,1995-02-10 11:00,ZGNN 101100Z AUTO 18006KT 7SM 19/14 A3009 RMK SLP182 T01900140 IEM_DS3505
ZGNN,1995-02-10 12:00,ZGNN 101200Z AUTO 00000KT 10SM 18/15 A3009 RMK SLP182 T01840152 52010 IEM_DS3505
ZGNN,1995-02-10 14:00,ZGNN 101400Z AUTO 00000KT 6SM 15/14 A3012 RMK SLP194 T01500140 IEM_DS3505
ZGNN,1995-02-10 18:00,ZGNN 101800Z AUTO 00000KT 4SM 15/14 A3010 RMK SLP185 T01460141 52001 IEM_DS3505
ZGNN,1995-02-10 21:00,ZGNN 102100Z AUTO 20004KT 7SM 17/14 A3005 RMK SLP169 T01670144 57015 IEM_DS3505
ZGNN,1995-02-10 23:00,ZGNN 102300Z AUTO 15012KT 7SM 17/15 A3009 RMK SLP183 T01700150 IEM_DS3505
ZGNN,1995-02-11 00:00,ZGNN 110000Z AUTO 07002KT 7SM 16/15 A3009 RMK SLP184 T01630146 52014 IEM_DS3505
ZGNN,1995-02-11 01:00,ZGNN 110100Z AUTO 20002KT 5SM 17/15 A3012 RMK SLP193 T01700150 IEM_DS3505
ZGNN,1995-02-11 02:00,ZGNN 110200Z AUTO 14012KT 5SM 18/15 A3012 RMK SLP193 T01800150 IEM_DS3505
ZGNN,1995-02-11 03:00,ZGNN 110300Z AUTO 22006KT 7SM 17/16 A3015 RMK SLP201 T01710156 52017 IEM_DS3505
ZGNN,1995-02-11 04:00,ZGNN 110400Z AUTO 15010KT 7SM 19/15 A3012 RMK SLP192 T01900150 IEM_DS3505
ZGNN,1995-02-11 06:00,ZGNN 110600Z AUTO 22004KT 9SM 20/16 A3003 RMK 60000 SLP167 T01950158 57034 IEM_DS3505
ZGNN,1995-02-11 07:00,ZGNN 110700Z AUTO 12012KT 7SM 20/15 A3003 RMK SLP162 T02000150 IEM_DS3505
ZGNN,1995-02-11 08:00,ZGNN 110800Z AUTO 13012KT 7SM 20/15 A3000 RMK SLP151 T02000150 IEM_DS3505
ZGNN,1995-02-11 09:00,ZGNN 110900Z AUTO 20002KT 11SM 20/16 A3000 RMK SLP155 T01990157 57011 IEM_DS3505
ZGNN,1995-02-11 11:00,ZGNN 111100Z AUTO 15008KT 7SM 18/15 A3003 RMK SLP162 T01800150 IEM_DS3505
ZGNN,1995-02-11 12:00,ZGNN 111200Z AUTO 07002KT 9SM 19/16 A3003 RMK SLP164 T01870160 52008 IEM_DS3505
ZGNN,1995-02-11 13:00,ZGNN 111300Z AUTO 17002KT 7SM 18/16 A3006 RMK SLP173 T01800160 IEM_DS3505
ZGNN,1995-02-11 14:00,ZGNN 111400Z AUTO 00000KT 7SM 17/16 A3006 RMK SLP173 T01700160 IEM_DS3505
ZGNN,1995-02-11 15:00,ZGNN 111500Z AUTO 09002KT 9SM 18/16 A3006 RMK SLP173 T01810163 52009 IEM_DS3505
ZGNN,1995-02-11 18:00,ZGNN 111800Z AUTO 22004KT 9SM 18/16 A3005 RMK SLP167 T01760157 57005 IEM_DS3505
ZGNN,1995-02-11 21:00,ZGNN 112100Z AUTO 09004KT 7SM 17/16 A3000 RMK SLP157 T01720157 57010 IEM_DS3505
ZGNN,1995-02-11 22:00,ZGNN 112200Z AUTO 17008KT 4SM 17/16 A3003 RMK SLP163 T01700160 IEM_DS3505
ZGNN,1995-02-11 23:00,ZGNN 112300Z AUTO 14008KT 3SM 16/16 A3003 RMK SLP163 T01600160 IEM_DS3505
ZGNN,1995-02-12 00:00,ZGNN 120000Z AUTO 16002KT 7SM 17/16 A3006 RMK 70001 SLP171 T01670157 52013 IEM_DS3505
ZGNN,1995-02-12 01:00,ZGNN 120100Z AUTO 15004KT 2 1/2SM 17/16 A3006 RMK SLP173 T01700160 IEM_DS3505
ZGNN,1995-02-12 02:00,ZGNN 120200Z AUTO 14008KT 4SM 17/16 A3006 RMK SLP173 T01700160 IEM_DS3505
ZGNN,1995-02-12 03:00,ZGNN 120300Z AUTO 22004KT 7SM 17/16 A3006 RMK SLP171 T01730160 54000 IEM_DS3505
ZGNN,1995-02-12 04:00,ZGNN 120400Z AUTO 15008KT 7SM 18/16 A3003 RMK SLP162 T01800160 IEM_DS3505
ZGNN,1995-02-12 06:00,ZGNN 120600Z AUTO 22002KT 5SM 18/16 A2997 RMK SLP143 T01760163 57027 IEM_DS3505
ZGNN,1995-02-12 07:00,ZGNN 120700Z AUTO 14008KT 3SM 19/16 A2994 RMK SLP131 T01900160 IEM_DS3505
ZGNN,1995-02-12 08:00,ZGNN 120800Z AUTO 15010KT 2 1/2SM 19/17 A2991 RMK SLP121 T01900170 IEM_DS3505
ZGNN,1995-02-12 09:00,ZGNN 120900Z AUTO 25004KT 5SM 19/17 A2991 RMK SLP124 T01880170 57019 IEM_DS3505
ZGNN,1995-02-12 10:00,ZGNN 121000Z AUTO 13004KT 3SM 19/17 A2991 RMK SLP121 T01900170 IEM_DS3505
ZGNN,1995-02-12 11:00,ZGNN 121100Z AUTO 15006KT 3SM 19/17 A2994 RMK SLP131 T01900170 IEM_DS3505
ZGNN,1995-02-12 12:00,ZGNN 121200Z AUTO 14002KT 5SM 19/17 A2994 RMK SLP129 T01900172 52005 IEM_DS3505
ZGNN,1995-02-12 13:00,ZGNN 121300Z AUTO 14004KT 3SM 18/17 A2994 RMK SLP131 T01800170 IEM_DS3505
ZGNN,1995-02-12 14:00,ZGNN 121400Z AUTO 00000KT 3SM 18/17 A2997 RMK SLP141 T01800170 IEM_DS3505
ZGNN,1995-02-12 15:00,ZGNN 121500Z AUTO 09002KT 6SM 18/17 A2997 RMK SLP140 T01850172 52011 IEM_DS3505
ZGNN,1995-02-12 18:00,ZGNN 121800Z AUTO 00000KT 6SM 18/17 A2996 RMK SLP138 T01850170 57002 IEM_DS3505
ZGNN,1995-02-12 21:00,ZGNN 122100Z AUTO 00000KT 6SM 18/17 A2991 RMK SLP124 T01800168 57014 IEM_DS3505
ZGNN,1995-02-12 22:00,ZGNN 122200Z AUTO 00000KT 2 1/2SM 17/16 A2994 RMK SLP131 T01700160 IEM_DS3505
ZGNN,1995-02-12 23:00,ZGNN 122300Z AUTO 00000KT 2SM 17/16 A2994 RMK SLP131 T01700160 IEM_DS3505
ZGNN,1995-02-13 00:00,ZGNN 130000Z AUTO 00000KT 5SM 18/17 A2997 RMK SLP139 T01790169 52015 IEM_DS3505
ZGNN,1995-02-13 01:00,ZGNN 130100Z AUTO 00000KT 1 1/4SM 18/17 A3000 RMK SLP151 T01800170 IEM_DS3505
ZGNN,1995-02-13 02:00,ZGNN 130200Z AUTO 14004KT 1 1/2SM 19/17 A3000 RMK SLP151 T01900170 IEM_DS3505
ZGNN,1995-02-13 03:00,ZGNN 130300Z AUTO 09002KT 6SM 19/18 A3003 RMK SLP156 T01930177 52017 IEM_DS3505
ZGNN,1995-02-13 06:00,ZGNN 130600Z AUTO 04002KT 4SM 20/18 A2994 RMK SLP134 T01970183 57022 IEM_DS3505
ZGNN,1995-02-13 07:00,ZGNN 130700Z AUTO 07006KT 4SM 21/18 A2991 RMK SLP120 T02100180 IEM_DS3505
ZGNN,1995-02-13 08:00,ZGNN 130800Z AUTO 02008KT 4SM 21/18 A2991 RMK SLP120 T02100180 IEM_DS3505
ZGNN,1995-02-13 09:00,ZGNN 130900Z AUTO 07006KT 9SM 16/14 A2991 RMK SLP128 T01650144 57006 IEM_DS3505
ZGNN,1995-02-13 10:00,ZGNN 131000Z AUTO 06004KT 7SM 18/16 A2994 RMK SLP131 T01800160 IEM_DS3505
ZGNN,1995-02-13 11:00,ZGNN 131100Z AUTO 03010KT 7SM 16/14 A2994 RMK SLP132 T01600140 IEM_DS3505
ZGNN,1995-02-13 12:00,ZGNN 131200Z AUTO 09006KT 7SM 14/13 A2997 RMK 60004 SLP145 T01440130 52016 IEM_DS3505
ZGNN,1995-02-13 13:00,ZGNN 131300Z AUTO 06008KT 7SM 14/13 A2997 RMK SLP142 T01400130 IEM_DS3505
ZGNN,1995-02-13 14:00,ZGNN 131400Z AUTO 35010KT 7SM 14/13 A3006 RMK SLP174 T01400130 IEM_DS3505
ZGNN,1995-02-13 15:00,ZGNN 131500Z AUTO 04004KT 5SM 14/13 A3006 RMK SLP170 T01400133 52025 IEM_DS3505
ZGNN,1995-02-13 16:00,ZGNN 131600Z AUTO 35004KT 7SM 13/12 A3006 RMK SLP174 T01300120 IEM_DS3505
ZGNN,1995-02-13 18:00,ZGNN 131800Z AUTO 27004KT 9SM 14/12 A3008 RMK 60071 SLP180 T01370124 52010 IEM_DS3505
ZGNN,1995-02-13 21:00,ZGNN 132100Z AUTO 00000KT 9SM 13/11 A3006 RMK SLP175 T01270112 57006 IEM_DS3505
ZGNN,1995-02-13 23:00,ZGNN 132300Z AUTO 00000KT 7SM 13/12 A3006 RMK SLP174 T01300120 IEM_DS3505
ZGNN,1995-02-14 00:00,ZGNN 140000Z AUTO 00000KT 9SM 13/12 A3009 RMK 60020 70094 SLP185 T01320121 52010 IEM_DS3505
ZGNN,1995-02-14 01:00,ZGNN 140100Z AUTO 00000KT 7SM 13/12 A3012 RMK SLP194 T01300120 IEM_DS3505
ZGNN,1995-02-14 02:00,ZGNN 140200Z AUTO 00000KT 7SM 13/12 A3012 RMK SLP194 T01300120 IEM_DS3505
ZGNN,1995-02-14 03:00,ZGNN 140300Z AUTO 00000KT 9SM 13/11 A3012 RMK SLP196 T01290112 52011 IEM_DS3505
ZGNN,1995-02-14 04:00,ZGNN 140400Z AUTO 35006KT 7SM 14/12 A3012 RMK SLP194 T01400120 IEM_DS3505
ZGNN,1995-02-14 06:00,ZGNN 140600Z AUTO 00000KT 7SM 13/12 A3003 RMK 60004 SLP169 T01330116 57027 IEM_DS3505
ZGNN,1995-02-14 07:00,ZGNN 140700Z AUTO 01004KT 7SM 14/11 A3000 RMK SLP153 T01400110 IEM_DS3505
ZGNN,1995-02-14 08:00,ZGNN 140800Z AUTO 00000KT 7SM 14/11 A3000 RMK SLP153 T01400110 IEM_DS3505
ZGNN,1995-02-14 09:00,ZGNN 140900Z AUTO 09004KT 8SM 13/11 A2997 RMK SLP149 T01330108 57020 IEM_DS3505
ZGNN,1995-02-14 10:00,ZGNN 141000Z AUTO 03004KT 6SM 13/11 A3000 RMK SLP153 T01300110 IEM_DS3505
ZGNN,1995-02-14 11:00,ZGNN 141100Z AUTO 06006KT 4SM 13/12 A3000 RMK SLP153 T01300120 IEM_DS3505
ZGNN,1995-02-14 12:00,ZGNN 141200Z AUTO 00000KT 9SM 13/11 A3003 RMK SLP163 T01320107 52014 IEM_DS3505
ZGNN,1995-02-14 13:00,ZGNN 141300Z AUTO 00000KT 4SM 12/11 A3006 RMK SLP174 T01200110 IEM_DS3505
ZGNN,1995-02-14 15:00,ZGNN 141500Z AUTO 04004KT 9SM 12/11 A3007 RMK SLP178 T01220107 52015 IEM_DS3505
ZGNN,1995-02-14 18:00,ZGNN 141800Z AUTO 04002KT 9SM 12/11 A3005 RMK 60008 SLP170 T01210110 57008 IEM_DS3505
ZGNN,1995-02-14 21:00,ZGNN 142100Z AUTO 00000KT 9SM 12/11 A3003 RMK SLP162 T01230112 57008 IEM_DS3505
ZGNN,1995-02-14 22:00,ZGNN 142200Z AUTO 00000KT 12/11 A3003 RMK SLP164 T01200110 IEM_DS3505
ZGNN,1995-02-14 23:00,ZGNN 142300Z AUTO 00000KT 4SM 12/11 A3006 RMK SLP174 T01200110 IEM_DS3505
ZGNN,1995-02-15 00:00,ZGNN 150000Z AUTO 00000KT 7SM 12/11 A3009 RMK 70012 SLP177 T01250112 52015 IEM_DS3505
ZGNN,1995-02-15 01:00,ZGNN 150100Z AUTO 11004KT 2 1/2SM 12/11 A3009 RMK SLP184 T01200110 IEM_DS3505
ZGNN,1995-02-15 02:00,ZGNN 150200Z AUTO 12004KT 3SM 12/11 A3009 RMK SLP184 T01200110 IEM_DS3505
ZGNN,1995-02-15 03:00,ZGNN 150300Z AUTO 00000KT 9SM 13/11 A3009 RMK SLP186 T01320107 52009 IEM_DS3505
ZGNN,1995-02-15 04:00,ZGNN 150400Z AUTO 00000KT 3SM 13/11 A3009 RMK SLP184 T01300110 IEM_DS3505
ZGNN,1995-02-15 06:00,ZGNN 150600Z AUTO 27002KT 4SM 14/11 A3003 RMK 60001 SLP162 T01360114 57024 IEM_DS3505
ZGNN,1995-02-15 07:00,ZGNN 150700Z AUTO 28002KT 4SM 14/11 A3000 RMK SLP153 T01400110 IEM_DS3505
ZGNN,1995-02-15 08:00,ZGNN 150800Z AUTO 00000KT 4SM 14/11 A2997 RMK SLP142 T01400110 IEM_DS3505
ZGNN,1995-02-15 09:00,ZGNN 150900Z AUTO 00000KT 6SM 14/12 A2997 RMK SLP141 T01410123 57021 IEM_DS3505
ZGNN,1995-02-15 10:00,ZGNN 151000Z AUTO 00000KT 4SM 14/12 A2997 RMK SLP142 T01400120 IEM_DS3505
ZGNN,1995-02-15 11:00,ZGNN 151100Z AUTO 00000KT 4SM 14/12 A2997 RMK SLP142 T01400120 IEM_DS3505
ZGNN,1995-02-15 12:00,ZGNN 151200Z AUTO 00000KT 10SM 14/13 A2997 RMK 60000 SLP145 T01420126 52004 IEM_DS3505
ZGNN,1995-02-15 13:00,ZGNN 151300Z AUTO 00000KT 4SM 14/12 A3000 RMK SLP153 T01400120 IEM_DS3505
ZGNN,1995-02-15 15:00,ZGNN 151500Z AUTO 07002KT 9SM 14/12 A3003 RMK SLP162 T01400125 52017 IEM_DS3505
ZGNN,1995-02-15 18:00,ZGNN 151800Z AUTO 00000KT 4SM 14/13 A3001 RMK SLP158 T01370130 57004 IEM_DS3505
ZGNN,1995-02-15 21:00,ZGNN 152100Z AUTO 00000KT 9SM 14/13 A2998 RMK SLP147 T01370130 IEM_DS3505
ZGNN,1995-02-15 22:00,ZGNN 152200Z AUTO 00000KT 1 1/4SM 13/13 A3000 RMK SLP153 T01300130 IEM_DS3505
ZGNN,1995-02-15 23:00,ZGNN 152300Z AUTO 36004KT 2 1/2SM 14/13 A3000 RMK SLP153 T01400130 IEM_DS3505
ZGNN,1995-02-16 00:00,ZGNN 160000Z AUTO 00000KT 2SM 14/13 A3003 RMK 70002 SLP169 T01400133 52022 IEM_DS3505
ZGNN,1995-02-16 01:00,ZGNN 160100Z AUTO 00000KT 1SM 14/13 A3006 RMK SLP174 T01400130 IEM_DS3505
ZGNN,1995-02-16 02:00,ZGNN 160200Z AUTO 04004KT 1 1/4SM 14/13 A3009 RMK SLP184 T01400130 IEM_DS3505
ZGNN,1995-02-16 03:00,ZGNN 160300Z AUTO 00000KT 1SM 14/14 A3012 RMK SLP189 T01420138 52020 IEM_DS3505
ZGNN,1995-02-16 06:00,ZGNN 160600Z AUTO 11002KT 6SM 15/14 A3003 RMK 60000 SLP167 T01530141 57022 IEM_DS3505
ZGNN,1995-02-16 07:00,ZGNN 160700Z AUTO 06006KT 2 1/2SM 15/14 A3003 RMK SLP163 T01500140 IEM_DS3505
ZGNN,1995-02-16 08:00,ZGNN 160800Z AUTO 08004KT 4SM 15/14 A3000 RMK SLP152 T01500140 IEM_DS3505
ZGNN,1995-02-16 09:00,ZGNN 160900Z AUTO 09004KT 7SM 15/13 A3000 RMK SLP157 T01510129 57010 IEM_DS3505
ZGNN,1995-02-16 10:00,ZGNN 161000Z AUTO 07006KT 4SM 15/14 A3000 RMK SLP152 T01500140 IEM_DS3505
ZGNN,1995-02-16 11:00,ZGNN 161100Z AUTO 09004KT 5SM 14/13 A3003 RMK SLP164 T01400130 IEM_DS3505
ZGNN,1995-02-16 12:00,ZGNN 161200Z AUTO 09004KT 7SM 14/12 A3003 RMK SLP166 T01430119 52009 IEM_DS3505
ZGNN,1995-02-16 13:00,ZGNN 161300Z AUTO 09004KT 5SM 14/13 A3006 RMK SLP174 T01400130 IEM_DS3505
ZGNN,1995-02-16 14:00,ZGNN 161400Z AUTO 09004KT 4SM 13/13 A3006 RMK SLP174 T01300130 IEM_DS3505
ZGNN,1995-02-16 15:00,ZGNN 161500Z AUTO 07002KT 9SM 14/12 A3005 RMK SLP171 T01390119 52005 IEM_DS3505
ZGNN,1995-02-16 18:00,ZGNN 161800Z AUTO 00000KT 9SM 13/12 A3001 RMK SLP157 T01340119 57014 IEM_DS3505
ZGNN,1995-02-16 21:00,ZGNN 162100Z AUTO 14002KT 7SM 13/12 A2997 RMK SLP143 T01280124 57014 IEM_DS3505
ZGNN,1995-02-16 22:00,ZGNN 162200Z AUTO 00000KT 3SM 13/12 A2997 RMK SLP143 T01300120 IEM_DS3505
ZGNN,1995-02-16 23:00,ZGNN 162300Z AUTO 05004KT 2SM 13/12 A2997 RMK SLP143 T01300120 IEM_DS3505
ZGNN,1995-02-17 00:00,ZGNN 170000Z AUTO 07002KT 9SM 13/12 A3000 RMK 60004 70004 SLP154 T01280124 52011 IEM_DS3505
ZGNN,1995-02-17 01:00,ZGNN 170100Z AUTO 07006KT 3SM 13/12 A3000 RMK SLP153 T01300120 IEM_DS3505
ZGNN,1995-02-17 02:00,ZGNN 170200Z AUTO 07006KT 1 1/2SM 13/13 A3000 RMK SLP153 T01300130 IEM_DS3505
ZGNN,1995-02-17 03:00,ZGNN 170300Z AUTO 14002KT 9SM 13/13 A3000 RMK SLP152 T01340129 57002 IEM_DS3505
ZGNN,1995-02-17 04:00,ZGNN 170400Z AUTO 10004KT 1 1/4SM 13/13 A3000 RMK SLP153 T01300130 IEM_DS3505
ZGNN,1995-02-17 06:00,ZGNN 170600Z AUTO 14002KT 2 1/2SM 14/14 A2991 RMK 60002 SLP127 T01390137 57025 IEM_DS3505
ZGNN,1995-02-17 07:00,ZGNN 170700Z AUTO 06006KT 3SM 14/14 A2988 RMK SLP112 T01400140 IEM_DS3505
ZGNN,1995-02-17 08:00,ZGNN 170800Z AUTO 06006KT 4SM 14/14 A2985 RMK SLP102 T01400140 IEM_DS3505
ZGNN,1995-02-17 09:00,ZGNN 170900Z AUTO 14002KT 4SM 14/14 A2985 RMK SLP107 T01450140 57019 IEM_DS3505
ZGNN,1995-02-17 10:00,ZGNN 171000Z AUTO 07006KT 2 1/2SM 14/14 A2985 RMK SLP102 T01400140 IEM_DS3505
ZGNN,1995-02-17 11:00,ZGNN 171100Z AUTO 08004KT 2 1/2SM 14/14 A2985 RMK SLP102 T01400140 IEM_DS3505
ZGNN,1995-02-17 12:00,ZGNN 171200Z AUTO 00000KT 4SM 14/14 A2988 RMK 60000 SLP112 T01420138 52005 IEM_DS3505
ZGNN,1995-02-17 13:00,ZGNN 171300Z AUTO 00000KT 2 1/2SM 14/14 A2988 RMK SLP112 T01400140 IEM_DS3505
ZGNN,1995-02-17 15:00,ZGNN 171500Z AUTO 07004KT 3SM 14/14 A2990 RMK SLP120 T01420138 52008 IEM_DS3505
ZGNN,1995-02-17 18:00,ZGNN 171800Z AUTO 00000KT 2SM 14/14 A2989 RMK 60000 SLP114 T01450145 57006 IEM_DS3505
ZGNN,1995-02-17 21:00,ZGNN 172100Z AUTO 34002KT 1/8SM 15/14 A2987 RMK SLP110 T01470145 57004 IEM_DS3505
ZGNN,1995-02-17 22:00,ZGNN 172200Z AUTO 00000KT 3/8SM 15/14 A2988 RMK SLP112 T01500140 IEM_DS3505
ZGNN,1995-02-17 23:00,ZGNN 172300Z AUTO 00000KT 3/8SM 15/15 A2988 RMK SLP112 T01500150 IEM_DS3505
ZGNN,1995-02-18 00:00,ZGNN 180000Z AUTO 00000KT 1/8SM 15/15 A2991 RMK 60000 70004 SLP119 T01500150 52009 IEM_DS3505
ZGNN,1995-02-18 01:00,ZGNN 180100Z AUTO 00000KT 3/8SM 15/15 A2991 RMK SLP122 T01500150 IEM_DS3505
ZGNN,1995-02-18 02:00,ZGNN 180200Z AUTO 00000KT 3/8SM 16/16 A2991 RMK SLP122 T01600160 IEM_DS3505
ZGNN,1995-02-18 03:00,ZGNN 180300Z AUTO 00000KT 5SM 18/17 A2994 RMK SLP128 T01760171 52009 IEM_DS3505
ZGNN,1995-02-18 04:00,ZGNN 180400Z AUTO 07006KT 1 1/4SM 18/18 A2991 RMK SLP121 T01800180 IEM_DS3505
ZGNN,1995-02-18 06:00,ZGNN 180600Z AUTO 09006KT 7SM 17/16 A2987 RMK 60000 SLP108 T01730160 57020 IEM_DS3505
ZGNN,1995-02-18 07:00,ZGNN 180700Z AUTO 07008KT 1 1/2SM 19/18 A2983 RMK SLP094 T01900180 IEM_DS3505
ZGNN,1995-02-18 08:00,ZGNN 180800Z AUTO 06010KT 2SM 18/17 A2983 RMK SLP094 T01800170 IEM_DS3505
ZGNN,1995-02-18 09:00,ZGNN 180900Z AUTO 11004KT 10SM 17/15 A2983 RMK SLP097 T01690147 57011 IEM_DS3505
ZGNN,1995-02-18 10:00,ZGNN 181000Z AUTO 06006KT 4SM 17/16 A2983 RMK SLP094 T01700160 IEM_DS3505
ZGNN,1995-02-18 11:00,ZGNN 181100Z AUTO 06006KT 5SM 17/15 A2985 RMK SLP101 T01700150 IEM_DS3505
ZGNN,1995-02-18 12:00,ZGNN 181200Z AUTO 07004KT 9SM 16/14 A2985 RMK SLP111 T01600141 52014 IEM_DS3505
ZGNN,1995-02-18 14:00,ZGNN 181400Z AUTO 08008KT 5SM 15/14 A2991 RMK SLP122 T01500140 IEM_DS3505
ZGNN,1995-02-18 15:00,ZGNN 181500Z AUTO 07002KT 9SM 15/13 A2991 RMK SLP126 T01530133 52015 IEM_DS3505
ZGNN,1995-02-18 18:00,ZGNN 181800Z AUTO 07004KT 7SM 14/13 A2995 RMK SLP135 T01400133 52009 IEM_DS3505
ZGNN,1995-02-18 21:00,ZGNN 182100Z AUTO 04002KT 8SM 13/13 A2994 RMK SLP136 T01330128 52001 IEM_DS3505
ZGNN,1995-02-18 22:00,ZGNN 182200Z AUTO 05004KT 3SM 13/13 A2994 RMK SLP133 T01300130 IEM_DS3505
ZGNN,1995-02-18 23:00,ZGNN 182300Z AUTO 07004KT 4SM 13/13 A2997 RMK SLP143 T01300130 IEM_DS3505
ZGNN,1995-02-19 00:00,ZGNN 190000Z AUTO 09004KT 9SM 14/12 A3000 RMK 60000 70001 SLP149 T01350116 52013 IEM_DS3505
ZGNN,1995-02-19 01:00,ZGNN 190100Z AUTO 00000KT 5SM 14/12 A3000 RMK SLP153 T01400120 IEM_DS3505
ZGNN,1995-02-19 02:00,ZGNN 190200Z AUTO 05004KT 7SM 14/13 A3000 RMK SLP153 T01400130 IEM_DS3505
ZGNN,1995-02-19 03:00,ZGNN 190300Z AUTO 04002KT 9SM 14/12 A3000 RMK SLP163 T01450125 52014 IEM_DS3505
ZGNN,1995-02-19 04:00,ZGNN 190400Z AUTO 06006KT 7SM 15/13 A3000 RMK SLP152 T01500130 IEM_DS3505
ZGNN,1995-02-19 05:00,ZGNN 190500Z AUTO 35006KT 7SM 15/13 A3000 RMK SLP152 T01500130 IEM_DS3505
ZGNN,1995-02-19 06:00,ZGNN 190600Z AUTO 04002KT 9SM 16/14 A2997 RMK SLP144 T01570136 57019 IEM_DS3505
ZGNN,1995-02-19 07:00,ZGNN 190700Z AUTO 05006KT 4SM 16/13 A2994 RMK SLP132 T01600130 IEM_DS3505
ZGNN,1995-02-19 08:00,ZGNN 190800Z AUTO 09008KT 4SM 17/14 A2994 RMK SLP131 T01700140 IEM_DS3505
ZGNN,1995-02-19 09:00,ZGNN 190900Z AUTO 07004KT 9SM 16/13 A2994 RMK SLP131 T01620128 57013 IEM_DS3505
ZGNN,1995-02-19 10:00,ZGNN 191000Z AUTO 08008KT 7SM 16/14 A2994 RMK SLP132 T01600140 IEM_DS3505
ZGNN,1995-02-19 12:00,ZGNN 191200Z AUTO 11002KT 9SM 15/13 A2994 RMK SLP139 T01510126 52008 IEM_DS3505
ZGNN,1995-02-19 13:00,ZGNN 191300Z AUTO 06008KT 7SM 14/13 A3000 RMK SLP153 T01400130 IEM_DS3505
ZGNN,1995-02-19 14:00,ZGNN 191400Z AUTO 04004KT 7SM 14/12 A3000 RMK SLP153 T01400120 IEM_DS3505
ZGNN,1995-02-19 15:00,ZGNN 191500Z AUTO 00000KT 11SM 14/12 A3003 RMK SLP161 T01450121 52021 IEM_DS3505
ZGNN,1995-02-19 18:00,ZGNN 191800Z AUTO 04002KT 11SM 14/12 A3003 RMK SLP163 T01400118 52003 IEM_DS3505
ZGNN,1995-02-19 21:00,ZGNN 192100Z AUTO 09002KT 7SM 13/12 A3003 RMK SLP165 T01290122 52001 IEM_DS3505
ZGNN,1995-02-19 22:00,ZGNN 192200Z AUTO 06004KT 1 1/4SM 13/13 A3003 RMK SLP164 T01300130 IEM_DS3505
ZGNN,1995-02-19 23:00,ZGNN 192300Z AUTO 07002KT 1SM 13/13 A3006 RMK SLP174 T01300130 IEM_DS3505
ZGNN,1995-02-20 00:00,ZGNN 200000Z AUTO 07002KT 6SM 13/12 A3009 RMK SLP183 T01260119 52018 IEM_DS3505
ZGNN,1995-02-20 03:00,ZGNN 200300Z AUTO 07004KT 7SM 13/11 A3012 RMK SLP199 T01310114 52016 IEM_DS3505
ZGNN,1995-02-20 04:00,ZGNN 200400Z AUTO 05006KT 2SM 13/12 A3012 RMK SLP194 T01300120 IEM_DS3505
ZGNN,1995-02-20 05:00,ZGNN 200500Z AUTO 04004KT 1 1/2SM RMK IEM_DS3505
ZGNN,1995-02-20 06:00,ZGNN 200600Z AUTO 04004KT 8SM 14/11 A3006 RMK SLP175 T01370113 57024 IEM_DS3505
ZGNN,1995-02-20 07:00,ZGNN 200700Z AUTO 06006KT 1 1/4SM 13/13 A3003 RMK SLP164 T01300130 IEM_DS3505
ZGNN,1995-02-20 08:00,ZGNN 200800Z AUTO 06006KT 1 1/2SM 13/13 A3003 RMK SLP164 T01300130 IEM_DS3505
ZGNN,1995-02-20 09:00,ZGNN 200900Z AUTO 09002KT 7SM 14/11 A3003 RMK SLP159 T01370111 57016 IEM_DS3505
ZGNN,1995-02-20 11:00,ZGNN 201100Z AUTO 07004KT 2 1/2SM 12/11 A3003 RMK SLP164 T01200110 IEM_DS3505
ZGNN,1995-02-20 12:00,ZGNN 201200Z AUTO 07004KT 7SM 13/10 A3003 RMK SLP167 T01280101 52008 IEM_DS3505
ZGNN,1995-02-20 13:00,ZGNN 201300Z AUTO 02004KT 3SM 12/11 A3006 RMK SLP174 T01200110 IEM_DS3505
ZGNN,1995-02-20 14:00,ZGNN 201400Z AUTO 05004KT 2 1/2SM 12/11 A3006 RMK SLP174 T01200110 IEM_DS3505
ZGNN,1995-02-20 15:00,ZGNN 201500Z AUTO 00000KT 6SM 12/11 A3007 RMK SLP177 T01190111 52010 IEM_DS3505
ZGNN,1995-02-20 18:00,ZGNN 201800Z AUTO 09002KT 6SM 12/10 A3005 RMK SLP171 T01170103 57006 IEM_DS3505
ZGNN,1995-02-20 21:00,ZGNN 202100Z AUTO 09004KT 3SM 11/11 A3003 RMK SLP166 T01110107 57005 IEM_DS3505
ZGNN,1995-02-20 22:00,ZGNN 202200Z AUTO 06006KT 1 1/4SM 11/11 A3003 RMK SLP165 T01100110 IEM_DS3505
ZGNN,1995-02-20 23:00,ZGNN 202300Z AUTO 00000KT 1 1/4SM 11/11 A3006 RMK SLP175 T01100110 IEM_DS3505
ZGNN,1995-02-21 00:00,ZGNN 210000Z AUTO 07004KT 4SM 11/11 A3006 RMK 60002 70002 SLP180 T01100106 52013 IEM_DS3505
ZGNN,1995-02-21 01:00,ZGNN 210100Z AUTO 08006KT 2 1/2SM 11/10 A3006 RMK SLP175 T01100100 IEM_DS3505
ZGNN,1995-02-21 02:00,ZGNN 210200Z AUTO 03008KT 2 1/2SM 11/10 A3009 RMK SLP185 T01100100 IEM_DS3505
ZGNN,1995-02-21 03:00,ZGNN 210300Z AUTO 04004KT 3SM 11/10 A3009 RMK SLP190 T01100104 52010 IEM_DS3505
ZGNN,1995-02-21 06:00,ZGNN 210600Z AUTO 07004KT 3SM 11/10 A3003 RMK 60002 SLP172 T01070103 57018 IEM_DS3505
ZGNN,1995-02-21 07:00,ZGNN 210700Z AUTO 01002KT 2SM 11/10 A3003 RMK SLP165 T01100100 IEM_DS3505
ZGNN,1995-02-21 08:00,ZGNN 210800Z AUTO 36006KT 2 1/2SM 11/10 A3000 RMK SLP154 T01100100 IEM_DS3505
ZGNN,1995-02-21 09:00,ZGNN 210900Z AUTO 07004KT 5SM 11/10 A3000 RMK SLP162 T01070097 57010 IEM_DS3505
ZGNN,1995-02-21 10:00,ZGNN 211000Z AUTO 06006KT 1 1/2SM 11/10 A3003 RMK SLP165 T01100100 IEM_DS3505
ZGNN,1995-02-21 11:00,ZGNN 211100Z AUTO 06006KT 1 1/2SM 10/10 A3003 RMK SLP165 T01000100 IEM_DS3505
ZGNN,1995-02-21 12:00,ZGNN 211200Z AUTO 07002KT 5SM 10/09 A3006 RMK 60004 SLP180 T01030093 52018 IEM_DS3505
ZGNN,1995-02-21 13:00,ZGNN 211300Z AUTO 00000KT 1 1/4SM 10/10 A3009 RMK SLP185 T01000100 IEM_DS3505
ZGNN,1995-02-21 14:00,ZGNN 211400Z AUTO 08004KT 1 1/4SM 10/10 A3012 RMK SLP195 T01000100 IEM_DS3505
ZGNN,1995-02-21 15:00,ZGNN 211500Z AUTO 00000KT 5SM 10/10 A3012 RMK SLP198 T01030095 52018 IEM_DS3505
ZGNN,1995-02-21 18:00,ZGNN 211800Z AUTO 11002KT 4SM 10/10 A3013 RMK 60000 SLP197 T01010095 57001 IEM_DS3505
ZGNN,1995-02-21 21:00,ZGNN 212100Z AUTO 04002KT 4SM 10/09 A3011 RMK SLP190 T00970093 57007 IEM_DS3505
ZGNN,1995-02-21 22:00,ZGNN 212200Z AUTO 33004KT 3SM 10/09 A3012 RMK SLP195 T01000090 IEM_DS3505
ZGNN,1995-02-22 00:00,ZGNN 220000Z AUTO 07002KT 7SM 10/08 A3015 RMK 60000 70008 SLP209 T00990085 52019 IEM_DS3505
ZGNN,1995-02-22 01:00,ZGNN 220100Z AUTO 34008KT 7SM 10/08 A3018 RMK SLP215 T01000080 IEM_DS3505
ZGNN,1995-02-22 02:00,ZGNN 220200Z AUTO 34006KT 7SM 10/08 A3018 RMK SLP215 T01000080 IEM_DS3505
ZGNN,1995-02-22 03:00,ZGNN 220300Z AUTO 04004KT 6SM 10/09 A3018 RMK SLP218 T01000088 52009 IEM_DS3505
ZGNN,1995-02-22 04:00,ZGNN 220400Z AUTO 35004KT 7SM 11/08 A3018 RMK SLP215 T01100080 IEM_DS3505
ZGNN,1995-02-22 06:00,ZGNN 220600Z AUTO 34004KT 19SM 12/08 A3012 RMK 60000 SLP192 T01170078 57026 IEM_DS3505
ZGNN,1995-02-22 07:00,ZGNN 220700Z AUTO 02004KT 7SM 11/08 A3009 RMK SLP185 T01100080 IEM_DS3505
ZGNN,1995-02-22 08:00,ZGNN 220800Z AUTO 02004KT 7SM 11/08 A3009 RMK SLP185 T01100080 IEM_DS3505
ZGNN,1995-02-22 09:00,ZGNN 220900Z AUTO 09006KT 16SM 10/07 A3009 RMK SLP188 T01040070 57004 IEM_DS3505
ZGNN,1995-02-22 10:00,ZGNN 221000Z AUTO 07008KT 5SM 09/08 A3012 RMK SLP196 T00900080 IEM_DS3505
ZGNN,1995-02-22 11:00,ZGNN 221100Z AUTO 07008KT 4SM 09/08 A3012 RMK SLP196 T00900080 IEM_DS3505
ZGNN,1995-02-22 12:00,ZGNN 221200Z AUTO 04004KT 14SM 10/07 A3012 RMK SLP195 T00950072 52007 IEM_DS3505
ZGNN,1995-02-22 14:00,ZGNN 221400Z AUTO 06006KT 7SM 09/07 A3015 RMK SLP206 T00900070 IEM_DS3505
ZGNN,1995-02-22 15:00,ZGNN 221500Z AUTO 04002KT 12SM 09/07 A3016 RMK SLP209 T00940073 52014 IEM_DS3505
ZGNN,1995-02-22 18:00,ZGNN 221800Z AUTO 00000KT 11SM 10/08 A3014 RMK SLP201 T00960075 57008 IEM_DS3505
ZGNN,1995-02-22 21:00,ZGNN 222100Z AUTO 36002KT 9SM 09/08 A3015 RMK SLP202 T00900082 52001 IEM_DS3505
ZGNN,1995-02-22 22:00,ZGNN 222200Z AUTO 02002KT 4SM 08/08 A3015 RMK SLP206 T00800080 IEM_DS3505
ZGNN,1995-02-22 23:00,ZGNN 222300Z AUTO 36002KT 4SM 09/08 A3015 RMK SLP206 T00900080 IEM_DS3505
ZGNN,1995-02-23 00:00,ZGNN 230000Z AUTO 36002KT 6SM 09/08 A3018 RMK 60000 70001 SLP222 T00890083 52019 IEM_DS3505
ZGNN,1995-02-23 01:00,ZGNN 230100Z AUTO 33004KT 3SM 09/08 A3021 RMK SLP226 T00900080 IEM_DS3505
ZGNN,1995-02-23 02:00,ZGNN 230200Z AUTO 33002KT 4SM 09/08 A3024 RMK SLP236 T00900080 IEM_DS3505
ZGNN,1995-02-23 03:00,ZGNN 230300Z AUTO 04002KT 7SM 10/08 A3024 RMK SLP240 T00970083 52018 IEM_DS3505
ZGNN,1995-02-23 04:00,ZGNN 230400Z AUTO 35004KT 4SM 09/08 A3024 RMK SLP236 T00900080 IEM_DS3505
ZGNN,1995-02-23 06:00,ZGNN 230600Z AUTO 09004KT 9SM 11/08 A3018 RMK 60000 SLP216 T01090080 57023 IEM_DS3505
ZGNN,1995-02-23 07:00,ZGNN 230700Z AUTO 35004KT 7SM 10/08 A3015 RMK SLP205 T01000080 IEM_DS3505
ZGNN,1995-02-23 08:00,ZGNN 230800Z AUTO 02006KT 7SM 10/08 A3015 RMK SLP205 T01000080 IEM_DS3505
ZGNN,1995-02-23 09:00,ZGNN 230900Z AUTO 07004KT 11SM 10/08 A3015 RMK SLP201 T01050080 57015 IEM_DS3505
ZGNN,1995-02-23 10:00,ZGNN 231000Z AUTO 08004KT 2SM 10/09 A3015 RMK SLP205 T01000090 IEM_DS3505
ZGNN,1995-02-23 11:00,ZGNN 231100Z AUTO 06004KT 2 1/2SM 09/09 A3015 RMK SLP206 T00900090 IEM_DS3505
ZGNN,1995-02-23 12:00,ZGNN 231200Z AUTO 09002KT 9SM 10/08 A3015 RMK SLP209 T01010078 52007 IEM_DS3505
ZGNN,1995-02-23 13:00,ZGNN 231300Z AUTO 05002KT 4SM 09/08 A3018 RMK SLP216 T00900080 IEM_DS3505
ZGNN,1995-02-23 14:00,ZGNN 231400Z AUTO 04002KT 4SM 09/08 A3018 RMK SLP216 T00900080 IEM_DS3505
ZGNN,1995-02-23 15:00,ZGNN 231500Z AUTO 00000KT 9SM 10/08 A3020 RMK SLP222 T00990078 52013 IEM_DS3505
ZGNN,1995-02-23 18:00,ZGNN 231800Z AUTO 00000KT 8SM 10/07 A3016 RMK SLP208 T00950074 57013 IEM_DS3505
ZGNN,1995-02-23 21:00,ZGNN 232100Z AUTO 00000KT 5SM 09/08 A3012 RMK SLP200 T00930083 57008 IEM_DS3505
ZGNN,1995-02-23 22:00,ZGNN 232200Z AUTO 00000KT 1 1/4SM 09/08 A3015 RMK SLP206 T00900080 IEM_DS3505
ZGNN,1995-02-23 23:00,ZGNN 232300Z AUTO 00000KT 1SM 09/08 A3015 RMK SLP206 T00900080 IEM_DS3505
ZGNN,1995-02-24 00:00,ZGNN 240000Z AUTO 00000KT 6SM 10/08 A3018 RMK 70001 SLP210 T00950076 52010 IEM_DS3505
ZGNN,1995-02-24 01:00,ZGNN 240100Z AUTO 00000KT 1 1/4SM 09/08 A3018 RMK SLP216 T00900080 IEM_DS3505
ZGNN,1995-02-24 03:00,ZGNN 240300Z AUTO 14002KT 7SM 10/08 A3021 RMK SLP219 T01000084 52009 IEM_DS3505
ZGNN,1995-02-24 06:00,ZGNN 240600Z AUTO 14002KT 6SM 10/09 A3009 RMK 60000 SLP188 T01010089 57031 IEM_DS3505
ZGNN,1995-02-24 07:00,ZGNN 240700Z AUTO 09004KT 1 1/4SM 10/09 A3006 RMK SLP175 T01000090 IEM_DS3505
ZGNN,1995-02-24 08:00,ZGNN 240800Z AUTO 00000KT 1 1/2SM 10/09 A3006 RMK SLP175 T01000090 IEM_DS3505
ZGNN,1995-02-24 09:00,ZGNN 240900Z AUTO 07004KT 7SM 10/09 A3003 RMK SLP171 T01020088 57017 IEM_DS3505
ZGNN,1995-02-24 10:00,ZGNN 241000Z AUTO 00000KT 1 1/2SM 10/09 A3006 RMK SLP175 T01000090 IEM_DS3505
ZGNN,1995-02-24 11:00,ZGNN 241100Z AUTO 05004KT 1 1/4SM 10/09 A3006 RMK SLP175 T01000090 IEM_DS3505
ZGNN,1995-02-24 12:00,ZGNN 241200Z AUTO 07004KT 6SM 10/08 A3006 RMK 60000 SLP180 T00950085 52009 IEM_DS3505
ZGNN,1995-02-24 13:00,ZGNN 241300Z AUTO 02004KT 1 1/4SM 09/09 A3009 RMK SLP185 T00900090 IEM_DS3505
ZGNN,1995-02-24 15:00,ZGNN 241500Z AUTO 07002KT 6SM 10/08 A3011 RMK SLP191 T00950085 52011 IEM_DS3505
ZGNN,1995-02-24 18:00,ZGNN 241800Z AUTO 00000KT 2SM 09/09 A3014 RMK 60002 SLP201 T00940092 52010 IEM_DS3505
ZGNN,1995-02-24 21:00,ZGNN 242100Z AUTO 00000KT 4SM 10/09 A3015 RMK SLP206 T00970093 52005 IEM_DS3505
ZGNN,1995-02-24 22:00,ZGNN 242200Z AUTO 00000KT 4SM 09/09 A3018 RMK SLP216 T00900090 IEM_DS3505
ZGNN,1995-02-24 23:00,ZGNN 242300Z AUTO 35004KT 4SM 09/09 A3018 RMK SLP216 T00900090 IEM_DS3505
ZGNN,1995-02-25 00:00,ZGNN 250000Z AUTO 34002KT 4SM 10/09 A3021 RMK 60008 70012 SLP227 T00990093 52020 IEM_DS3505
ZGNN,1995-02-25 01:00,ZGNN 250100Z AUTO 33004KT 7SM 10/09 A3021 RMK SLP225 T01000090 IEM_DS3505
ZGNN,1995-02-25 02:00,ZGNN 250200Z AUTO 33004KT 7SM 10/09 A3024 RMK SLP236 T01000090 IEM_DS3505
ZGNN,1995-02-25 03:00,ZGNN 250300Z AUTO 32002KT 6SM 11/09 A3024 RMK SLP232 T01140086 52006 IEM_DS3505
ZGNN,1995-02-25 04:00,ZGNN 250400Z AUTO 34006KT 7SM 12/08 A3021 RMK SLP225 T01200080 IEM_DS3505
ZGNN,1995-02-25 05:00,ZGNN 250500Z AUTO 35010KT 7SM 12/08 A3018 RMK SLP215 T01200080 IEM_DS3505
ZGNN,1995-02-25 06:00,ZGNN 250600Z AUTO 36004KT 9SM 13/07 A3015 RMK SLP202 T01300070 57030 IEM_DS3505
ZGNN,1995-02-25 07:00,ZGNN 250700Z AUTO 33008KT 7SM 13/07 A3012 RMK SLP194 T01300070 IEM_DS3505
ZGNN,1995-02-25 08:00,ZGNN 250800Z AUTO 33008KT 7SM 13/07 A3009 RMK SLP184 T01300070 IEM_DS3505
ZGNN,1995-02-25 09:00,ZGNN 250900Z AUTO 02004KT 11SM 13/06 A3009 RMK SLP185 T01330064 57017 IEM_DS3505
ZGNN,1995-02-25 10:00,ZGNN 251000Z AUTO 05002KT 7SM 13/07 A3009 RMK SLP184 T01300070 IEM_DS3505
ZGNN,1995-02-25 11:00,ZGNN 251100Z AUTO 00000KT 7SM 12/08 A3012 RMK SLP195 T01200080 IEM_DS3505
ZGNN,1995-02-25 12:00,ZGNN 251200Z AUTO 00000KT 9SM 12/08 A3012 RMK SLP197 T01220079 52012 IEM_DS3505
ZGNN,1995-02-25 13:00,ZGNN 251300Z AUTO 00000KT 7SM 12/08 A3015 RMK SLP205 T01200080 IEM_DS3505
ZGNN,1995-02-25 15:00,ZGNN 251500Z AUTO 00000KT 9SM 12/08 A3017 RMK SLP210 T01170078 52013 IEM_DS3505
ZGNN,1995-02-25 18:00,ZGNN 251800Z AUTO 00000KT 9SM 11/09 A3016 RMK SLP209 T01140088 57001 IEM_DS3505
ZGNN,1995-02-25 21:00,ZGNN 252100Z AUTO 00000KT 9SM 11/09 A3012 RMK SLP200 T01140090 57009 IEM_DS3505
ZGNN,1995-02-25 22:00,ZGNN 252200Z AUTO 00000KT 7SM 11/09 A3015 RMK SLP205 T01100090 IEM_DS3505
ZGNN,1995-02-25 23:00,ZGNN 252300Z AUTO 00000KT 5SM 10/09 A3015 RMK SLP205 T01000090 IEM_DS3505
ZGNN,1995-02-26 00:00,ZGNN 260000Z AUTO 00000KT 6SM 11/08 A3018 RMK SLP209 T01120077 52009 IEM_DS3505
ZGNN,1995-02-26 01:00,ZGNN 260100Z AUTO 00000KT 6SM 11/08 A3018 RMK SLP215 T01100080 IEM_DS3505
ZGNN,1995-02-26 02:00,ZGNN 260200Z AUTO 00000KT 7SM 12/07 A3018 RMK SLP215 T01200070 IEM_DS3505
ZGNN,1995-02-26 03:00,ZGNN 260300Z AUTO 04002KT 9SM 13/06 A3018 RMK SLP211 T01300055 52002 IEM_DS3505
ZGNN,1995-02-26 06:00,ZGNN 260600Z AUTO 00000KT 11SM 15/06 A3009 RMK SLP179 T01480056 57031 IEM_DS3505
ZGNN,1995-02-26 07:00,ZGNN 260700Z AUTO 15004KT 6SM 15/06 A3003 RMK SLP163 T01500060 IEM_DS3505
ZGNN,1995-02-26 08:00,ZGNN 260800Z AUTO 00000KT 6SM 15/06 A3003 RMK SLP163 T01500060 IEM_DS3505
ZGNN,1995-02-26 09:00,ZGNN 260900Z AUTO 07002KT 12SM 15/06 A3000 RMK SLP153 T01500059 57026 IEM_DS3505
ZGNN,1995-02-26 10:00,ZGNN 261000Z AUTO 00000KT 6SM 15/06 A3000 RMK SLP152 T01500060 IEM_DS3505
ZGNN,1995-02-26 11:00,ZGNN 261100Z AUTO 00000KT 6SM 14/07 A3003 RMK SLP164 T01400070 IEM_DS3505
ZGNN,1995-02-26 12:00,ZGNN 261200Z AUTO 00000KT 11SM 14/08 A3003 RMK SLP167 T01390081 52014 IEM_DS3505
ZGNN,1995-02-26 13:00,ZGNN 261300Z AUTO 12004KT 6SM 13/08 A3006 RMK SLP174 T01300080 IEM_DS3505
ZGNN,1995-02-26 15:00,ZGNN 261500Z AUTO 00000KT 9SM 13/08 A3009 RMK SLP184 T01310085 52017 IEM_DS3505
ZGNN,1995-02-26 18:00,ZGNN 261800Z AUTO 00000KT 9SM 13/10 A3008 RMK SLP179 T01260095 57005 IEM_DS3505
ZGNN,1995-02-26 21:00,ZGNN 262100Z AUTO 00000KT 9SM 12/10 A3006 RMK SLP171 T01230096 57008 IEM_DS3505
ZGNN,1995-02-26 22:00,ZGNN 262200Z AUTO 00000KT 6SM 12/09 A3006 RMK SLP174 T01200090 IEM_DS3505
ZGNN,1995-02-26 23:00,ZGNN 262300Z AUTO 00000KT 6SM 12/09 A3009 RMK SLP184 T01200090 IEM_DS3505
ZGNN,1995-02-27 00:00,ZGNN 270000Z AUTO 00000KT 5SM 12/09 A3012 RMK SLP196 T01230093 52025 IEM_DS3505
ZGNN,1995-02-27 01:00,ZGNN 270100Z AUTO 00000KT 4SM 12/09 A3015 RMK SLP205 T01200090 IEM_DS3505
ZGNN,1995-02-27 03:00,ZGNN 270300Z AUTO 00000KT 6SM 14/10 A3018 RMK SLP208 T01430099 52012 IEM_DS3505
ZGNN,1995-02-27 04:00,ZGNN 270400Z AUTO 34004KT 4SM 15/09 A3015 RMK SLP204 T01500090 IEM_DS3505
ZGNN,1995-02-27 06:00,ZGNN 270600Z AUTO 00000KT 6SM 17/10 A3006 RMK SLP174 T01720103 57034 IEM_DS3505
ZGNN,1995-02-27 07:00,ZGNN 270700Z AUTO 03006KT 5SM 17/08 A3003 RMK SLP163 T01700080 IEM_DS3505
ZGNN,1995-02-27 08:00,ZGNN 270800Z AUTO 09006KT 4SM 18/09 A3000 RMK SLP151 T01800090 IEM_DS3505
ZGNN,1995-02-27 09:00,ZGNN 270900Z AUTO 25004KT 7SM 19/10 A3000 RMK SLP155 T01860103 57018 IEM_DS3505
ZGNN,1995-02-27 11:00,ZGNN 271100Z AUTO 21006KT 3SM 17/11 A3003 RMK SLP163 T01700110 IEM_DS3505
ZGNN,1995-02-27 12:00,ZGNN 271200Z AUTO 00000KT 7SM 16/12 A3004 RMK SLP167 T01630125 52011 IEM_DS3505
ZGNN,1995-02-27 13:00,ZGNN 271300Z AUTO 00000KT 3SM 16/13 A3006 RMK SLP173 T01600130 IEM_DS3505
ZGNN,1995-02-27 14:00,ZGNN 271400Z AUTO 00000KT 3SM RMK IEM_DS3505
ZGNN,1995-02-27 15:00,ZGNN 271500Z AUTO 00000KT 7SM 14/12 A3007 RMK SLP178 T01450123 52011 IEM_DS3505
ZGNN,1995-02-27 18:00,ZGNN 271800Z AUTO 00000KT 7SM 12/11 A3008 RMK SLP180 T01240113 52002 IEM_DS3505
ZGNN,1995-02-27 21:00,ZGNN 272100Z AUTO 00000KT 6SM 11/10 A3002 RMK SLP160 T01120102 57019 IEM_DS3505
ZGNN,1995-02-27 23:00,ZGNN 272300Z AUTO 35004KT 2 1/2SM 11/10 A3003 RMK SLP165 T01100100 IEM_DS3505
ZGNN,1995-02-28 00:00,ZGNN 280000Z AUTO 00000KT 3SM 11/10 A3006 RMK SLP174 T01130099 52013 IEM_DS3505
ZGNN,1995-02-28 01:00,ZGNN 280100Z AUTO 00000KT 1 1/4SM 13/11 A3009 RMK SLP184 T01300110 IEM_DS3505
ZGNN,1995-02-28 02:00,ZGNN 280200Z AUTO 00000KT 1 1/4SM 14/12 A3012 RMK SLP194 T01400120 IEM_DS3505
ZGNN,1995-02-28 03:00,ZGNN 280300Z AUTO 00000KT 6SM 15/11 A3012 RMK SLP191 T01470107 52017 IEM_DS3505
ZGNN,1995-02-28 04:00,ZGNN 280400Z AUTO 10004KT 2 1/2SM 16/11 A3009 RMK SLP183 T01600110 IEM_DS3505
ZGNN,1995-02-28 06:00,ZGNN 280600Z AUTO 00000KT 9SM 17/10 A3003 RMK SLP159 T01730102 57031 IEM_DS3505
ZGNN,1995-02-28 07:00,ZGNN 280700Z AUTO 17002KT 3SM 18/10 A2997 RMK SLP141 T01800100 IEM_DS3505
ZGNN,1995-02-28 08:00,ZGNN 280800Z AUTO 15006KT 7SM 18/10 A2997 RMK SLP141 T01800100 IEM_DS3505
ZGNN,1995-02-28 09:00,ZGNN 280900Z AUTO 00000KT 9SM 18/11 A2994 RMK SLP135 T01770113 57024 IEM_DS3505
ZGNN,1995-02-28 10:00,ZGNN 281000Z AUTO 16012KT 7SM 17/10 A2991 RMK SLP121 T01700100 IEM_DS3505
ZGNN,1995-02-28 11:00,ZGNN 281100Z AUTO 14004KT 5SM 16/10 A2994 RMK SLP132 T01600100 IEM_DS3505
ZGNN,1995-02-28 12:00,ZGNN 281200Z AUTO 00000KT 9SM 16/12 A2994 RMK SLP136 T01650118 54000 IEM_DS3505
ZGNN,1995-02-28 14:00,ZGNN 281400Z AUTO 00000KT 5SM 15/12 A2997 RMK SLP142 T01500120 IEM_DS3505
ZGNN,1995-02-28 15:00,ZGNN 281500Z AUTO 00000KT 9SM 16/12 A3000 RMK SLP153 T01580122 52018 IEM_DS3505
ZGNN,1995-02-28 18:00,ZGNN 281800Z AUTO 00000KT 5SM 14/13 A2998 RMK 60001 SLP146 T01380131 57007 IEM_DS3505
ZGNN,1995-02-28 21:00,ZGNN 282100Z AUTO 09002KT 5SM 14/13 A2994 RMK SLP135 T01360132 57011 IEM_DS3505
ZGNN,1995-03-01 00:00,ZGNN 010000Z AUTO 09002KT 4SM 13/13 A2998 RMK 60004 70008 SLP146 T01330129 52011 IEM_DS3505
ZGNN,1995-03-01 03:00,ZGNN 010300Z AUTO 07004KT 4SM 14/13 A3000 RMK SLP154 T01380133 52008 IEM_DS3505
ZGNN,1995-03-01 06:00,ZGNN 010600Z AUTO 00000KT 4SM 15/14 A2991 RMK 60002 SLP123 T01470138 57031 IEM_DS3505
ZGNN,1995-03-01 09:00,ZGNN 010900Z AUTO 00000KT 4SM 15/14 A2985 RMK SLP100 T01540144 57023 IEM_DS3505
ZGNN,1995-03-01 10:00,ZGNN 011000Z AUTO 10004KT 2SM 15/14 A2983 RMK SLP095 T01500140 IEM_DS3505
ZGNN,1995-03-01 12:00,ZGNN 011200Z AUTO 00000KT 3SM 15/14 A2985 RMK SLP107 T01490142 52007 IEM_DS3505
ZGNN,1995-03-01 13:00,ZGNN 011300Z AUTO 06004KT 1SM 15/14 A2988 RMK SLP112 T01500140 IEM_DS3505
ZGNN,1995-03-01 14:00,ZGNN 011400Z AUTO 08002KT 1 1/2SM 15/14 A2991 RMK SLP122 T01500140 IEM_DS3505
ZGNN,1995-03-01 18:00,ZGNN 011800Z AUTO 00000KT 1 1/4SM 15/15 A2992 RMK 60000 SLP125 T01500147 54000 IEM_DS3505
ZGNN,1995-03-01 21:00,ZGNN 012100Z AUTO 00000KT 2 1/2SM 15/14 A2989 RMK SLP116 T01480143 57009 IEM_DS3505
ZGNN,1995-03-01 22:00,ZGNN 012200Z AUTO 07004KT 3/8SM 14/14 A2988 RMK SLP112 T01400140 IEM_DS3505
ZGNN,1995-03-02 00:00,ZGNN 020000Z AUTO 00000KT 1 1/4SM 15/15 A2994 RMK 60000 70004 SLP134 T01490147 52018 IEM_DS3505
ZGNN,1995-03-02 01:00,ZGNN 020100Z AUTO 03004KT 1SM 15/14 A2997 RMK SLP142 T01500140 IEM_DS3505
ZGNN,1995-03-02 02:00,ZGNN 020200Z AUTO 00000KT 1 1/4SM 15/15 A2997 RMK SLP142 T01500150 IEM_DS3505
ZGNN,1995-03-02 03:00,ZGNN 020300Z AUTO 00000KT 3SM 16/15 A3000 RMK SLP151 T01590150 52017 IEM_DS3505
ZGNN,1995-03-02 04:00,ZGNN 020400Z AUTO 07004KT 1 1/2SM 16/15 A2997 RMK SLP142 T01600150 IEM_DS3505
ZGNN,1995-03-02 06:00,ZGNN 020600Z AUTO 00000KT 3SM 17/16 A2994 RMK 60002 SLP132 T01710159 57019 IEM_DS3505
ZGNN,1995-03-02 07:00,ZGNN 020700Z AUTO 36004KT 3SM 17/16 A2991 RMK SLP121 T01700160 IEM_DS3505
ZGNN,1995-03-02 08:00,ZGNN 020800Z AUTO 00000KT 4SM 18/16 A2991 RMK SLP121 T01800160 IEM_DS3505
ZGNN,1995-03-02 09:00,ZGNN 020900Z AUTO 00000KT 5SM 18/16 A2991 RMK SLP126 T01850165 57006 IEM_DS3505
ZGNN,1995-03-02 10:00,ZGNN 021000Z AUTO 00000KT 3SM 18/16 A2994 RMK SLP131 T01800160 IEM_DS3505
ZGNN,1995-03-02 11:00,ZGNN 021100Z AUTO 00000KT 2 1/2SM 18/16 A2997 RMK SLP141 T01800160 IEM_DS3505
ZGNN,1995-03-02 12:00,ZGNN 021200Z AUTO 00000KT 9SM 16/15 A2997 RMK SLP148 T01650151 52022 IEM_DS3505
ZGNN,1995-03-02 14:00,ZGNN 021400Z AUTO 00000KT 1 1/2SM 15/14 A3003 RMK SLP163 T01500140 IEM_DS3505
ZGNN,1995-03-02 15:00,ZGNN 021500Z AUTO 00000KT 7SM 14/14 A3003 RMK SLP166 T01440140 52018 IEM_DS3505
ZGNN,1995-03-02 18:00,ZGNN 021800Z AUTO 00000KT 1/8SM 14/14 A3005 RMK SLP169 T01430143 52003 IEM_DS3505
ZGNN,1995-03-02 21:00,ZGNN 022100Z AUTO 00000KT 1/8SM 14/14 A3006 RMK SLP169 T01350135 54000 IEM_DS3505
ZGNN,1995-03-02 22:00,ZGNN 022200Z AUTO 02004KT 2SM 11/10 A3006 RMK SLP175 T01100100 IEM_DS3505
ZGNN,1995-03-02 23:00,ZGNN 022300Z AUTO 00000KT 1/8SM 10/10 A3009 RMK SLP185 T01000100 IEM_DS3505
ZGNN,1995-03-03 00:00,ZGNN 030000Z AUTO 00000KT 1/8SM 13/12 A3012 RMK 70002 SLP194 T01270125 52024 IEM_DS3505
ZGNN,1995-03-03 03:00,ZGNN 030300Z AUTO 09006KT 11SM 18/09 A3018 RMK SLP213 T01750091 52019 IEM_DS3505
ZGNN,1995-03-03 06:00,ZGNN 030600Z AUTO 07004KT 12SM 20/09 A3007 RMK SLP176 T02050090 57036 IEM_DS3505
ZGNN,1995-03-03 09:00,ZGNN 030900Z AUTO 04006KT 16SM 22/08 A3003 RMK SLP162 T02150080 57014 IEM_DS3505
ZGNN,1995-03-03 12:00,ZGNN 031200Z AUTO 07002KT 16SM 17/10 A3009 RMK SLP184 T01740096 52021 IEM_DS3505
ZGNN,1995-03-03 14:00,ZGNN 031400Z AUTO 00000KT 7SM 15/10 A3015 RMK SLP204 T01500100 IEM_DS3505
ZGNN,1995-03-03 15:00,ZGNN 031500Z AUTO 00000KT 12SM 16/11 A3018 RMK SLP213 T01610113 52030 IEM_DS3505
ZGNN,1995-03-03 18:00,ZGNN 031800Z AUTO 00000KT 12SM 14/12 A3019 RMK SLP217 T01400122 52004 IEM_DS3505
ZGNN,1995-03-03 21:00,ZGNN 032100Z AUTO 00000KT 10SM 15/05 A3019 RMK SLP216 T01530054 57001 IEM_DS3505
ZGNN,1995-03-04 00:00,ZGNN 040000Z AUTO 00000KT 9SM 14/08 A3027 RMK SLP236 T01450079 52019 IEM_DS3505
ZGNN,1995-03-04 01:00,ZGNN 040100Z AUTO 00000KT 6SM 15/08 A3027 RMK SLP244 T01500080 IEM_DS3505
ZGNN,1995-03-04 02:00,ZGNN 040200Z AUTO 00000KT 6SM 16/06 A3030 RMK SLP254 T01600060 IEM_DS3505
ZGNN,1995-03-04 03:00,ZGNN 040300Z AUTO 04004KT 9SM 17/05 A3030 RMK SLP248 T01710047 52012 IEM_DS3505
ZGNN,1995-03-04 06:00,ZGNN 040600Z AUTO 04008KT 16SM 20/03 A3021 RMK SLP222 T02000027 57025 IEM_DS3505
ZGNN,1995-03-04 08:00,ZGNN 040800Z AUTO 05008KT 6SM 20/01 A3015 RMK SLP202 T02000010 IEM_DS3505
ZGNN,1995-03-04 09:00,ZGNN 040900Z AUTO 07004KT 16SM 20/03 A3012 RMK SLP194 T02010029 57028 IEM_DS3505
ZGNN,1995-03-04 10:00,ZGNN 041000Z AUTO 09006KT 6SM 19/01 A3012 RMK SLP192 T01900010 IEM_DS3505
ZGNN,1995-03-04 12:00,ZGNN 041200Z AUTO 00000KT 12SM 16/07 A3015 RMK SLP200 T01650068 52005 IEM_DS3505
ZGNN,1995-03-04 13:00,ZGNN 041300Z AUTO 34004KT 6SM 12/08 A3018 RMK SLP215 T01200080 IEM_DS3505
ZGNN,1995-03-04 14:00,ZGNN 041400Z AUTO 00000KT 6SM 13/09 A3018 RMK SLP214 T01300090 IEM_DS3505
ZGNN,1995-03-04 15:00,ZGNN 041500Z AUTO 04002KT 11SM 15/09 A3019 RMK SLP216 T01470086 52016 IEM_DS3505
ZGNN,1995-03-04 18:00,ZGNN 041800Z AUTO 00000KT 9SM A3016 RMK SLP205 57010 IEM_DS3505
ZGNN,1995-03-04 21:00,ZGNN 042100Z AUTO 04002KT 9SM 12/08 A3012 RMK SLP194 T01200081 57011 IEM_DS3505
ZGNN,1995-03-04 22:00,ZGNN 042200Z AUTO 00000KT 7SM 11/09 A3015 RMK SLP205 T01100090 IEM_DS3505
ZGNN,1995-03-04 23:00,ZGNN 042300Z AUTO 00000KT 7SM 12/08 A3015 RMK SLP205 T01200080 IEM_DS3505
ZGNN,1995-03-05 00:00,ZGNN 050000Z AUTO 00000KT 12SM 13/08 A3015 RMK SLP210 T01290076 52015 IEM_DS3505
ZGNN,1995-03-05 01:00,ZGNN 050100Z AUTO 05004KT 6SM 14/05 A3018 RMK SLP214 T01400050 IEM_DS3505
ZGNN,1995-03-05 02:00,ZGNN 050200Z AUTO 06004KT 6SM 15/06 A3021 RMK SLP224 T01500060 IEM_DS3505
ZGNN,1995-03-05 03:00,ZGNN 050300Z AUTO 07004KT 12SM 16/07 A3018 RMK SLP215 T01580074 52005 IEM_DS3505
ZGNN,1995-03-05 06:00,ZGNN 050600Z AUTO 11002KT 12SM 19/08 A3009 RMK SLP179 T01940083 57035 IEM_DS3505
ZGNN,1995-03-05 07:00,ZGNN 050700Z AUTO 15010KT 7SM 21/04 A3003 RMK SLP162 T02100040 IEM_DS3505
ZGNN,1995-03-05 08:00,ZGNN 050800Z AUTO 14014KT 6SM 21/06 A3000 RMK SLP150 T02100060 IEM_DS3505
ZGNN,1995-03-05 09:00,ZGNN 050900Z AUTO 20004KT 16SM 20/07 A3000 RMK SLP151 T02030068 57028 IEM_DS3505
ZGNN,1995-03-05 10:00,ZGNN 051000Z AUTO 15012KT 6SM 20/03 A3000 RMK SLP151 T02000030 IEM_DS3505
ZGNN,1995-03-05 12:00,ZGNN 051200Z AUTO 00000KT 12SM 18/07 A3003 RMK SLP163 T01850068 52012 IEM_DS3505
ZGNN,1995-03-05 13:00,ZGNN 051300Z AUTO 18004KT 6SM 17/04 A3006 RMK SLP173 T01700040 IEM_DS3505
ZGNN,1995-03-05 15:00,ZGNN 051500Z AUTO 00000KT 11SM 17/07 A3009 RMK SLP184 T01740073 52021 IEM_DS3505
ZGNN,1995-03-05 18:00,ZGNN 051800Z AUTO 07002KT 9SM 16/10 A3009 RMK SLP184 T01600099 54000 IEM_DS3505
ZGNN,1995-03-05 21:00,ZGNN 052100Z AUTO 07002KT 9SM 16/12 A3006 RMK SLP173 T01580119 57012 IEM_DS3505
ZGNN,1995-03-05 22:00,ZGNN 052200Z AUTO 00000KT 7SM 15/12 A3006 RMK SLP173 T01500120 IEM_DS3505
ZGNN,1995-03-06 00:00,ZGNN 060000Z AUTO 00000KT 7SM 16/12 A3011 RMK SLP189 T01580116 52017 IEM_DS3505
ZGNN,1995-03-06 02:00,ZGNN 060200Z AUTO 15008KT 5SM 16/12 A3015 RMK SLP203 T01600120 IEM_DS3505
ZGNN,1995-03-06 03:00,ZGNN 060300Z AUTO 00000KT 7SM 16/11 A3015 RMK SLP197 T01620110 52008 IEM_DS3505
ZGNN,1995-03-06 06:00,ZGNN 060600Z AUTO 07004KT 1SM 14/13 A3006 RMK 60002 SLP177 T01380131 57021 IEM_DS3505
ZGNN,1995-03-06 07:00,ZGNN 060700Z AUTO 00000KT 1SM 14/13 A3003 RMK SLP164 T01400130 IEM_DS3505
ZGNN,1995-03-06 08:00,ZGNN 060800Z AUTO 00000KT 1SM 14/13 A3000 RMK SLP153 T01400130 IEM_DS3505
ZGNN,1995-03-06 09:00,ZGNN 060900Z AUTO 07004KT 1SM 14/13 A3000 RMK SLP156 T01360131 57020 IEM_DS3505
ZGNN,1995-03-06 10:00,ZGNN 061000Z AUTO 07004KT 1SM 14/14 A3000 RMK SLP153 T01400140 IEM_DS3505
ZGNN,1995-03-06 12:00,ZGNN 061200Z AUTO 04002KT 6SM 14/13 A3000 RMK 60008 SLP154 T01390130 57002 IEM_DS3505
ZGNN,1995-03-06 13:00,ZGNN 061300Z AUTO 00000KT 1 1/4SM 14/13 A3000 RMK SLP153 T01400130 IEM_DS3505
ZGNN,1995-03-06 14:00,ZGNN 061400Z AUTO 02004KT 2SM 14/13 A3003 RMK SLP164 T01400130 IEM_DS3505
ZGNN,1995-03-06 15:00,ZGNN 061500Z AUTO 07002KT 6SM 14/13 A3004 RMK SLP166 T01420127 52012 IEM_DS3505
ZGNN,1995-03-06 18:00,ZGNN 061800Z AUTO 00000KT 3SM 14/13 A3001 RMK 60000 SLP157 T01380131 57010 IEM_DS3505
ZGNN,1995-03-06 21:00,ZGNN 062100Z AUTO 07002KT 2 1/2SM 14/13 A2998 RMK SLP148 T01360132 57009 IEM_DS3505
ZGNN,1995-03-06 23:00,ZGNN 062300Z AUTO 08002KT 1SM 13/13 A3000 RMK SLP153 T01300130 IEM_DS3505
ZGNN,1995-03-07 00:00,ZGNN 070000Z AUTO 07002KT 2SM 14/13 A3003 RMK 60008 70016 SLP168 T01370133 52020 IEM_DS3505
ZGNN,1995-03-07 01:00,ZGNN 070100Z AUTO 08006KT 1SM 14/13 A3006 RMK SLP174 T01400130 IEM_DS3505
ZGNN,1995-03-07 03:00,ZGNN 070300Z AUTO 09002KT 2 1/2SM 14/14 A3007 RMK SLP178 T01410136 52010 IEM_DS3505
ZGNN,1995-03-07 06:00,ZGNN 070600Z AUTO 07004KT 2SM 15/14 A2997 RMK 60004 SLP148 T01460139 57030 IEM_DS3505
ZGNN,1995-03-07 07:00,ZGNN 070700Z AUTO 04006KT 1SM 15/14 A2997 RMK SLP142 T01500140 IEM_DS3505
ZGNN,1995-03-07 08:00,ZGNN 070800Z AUTO 05004KT 1SM 15/14 A2994 RMK SLP132 T01500140 IEM_DS3505
ZGNN,1995-03-07 09:00,ZGNN 070900Z AUTO 07002KT 2SM 15/14 A2994 RMK SLP129 T01500145 57018 IEM_DS3505
ZGNN,1995-03-07 10:00,ZGNN 071000Z AUTO 05004KT 1SM 15/14 A2994 RMK SLP132 T01500140 IEM_DS3505
ZGNN,1995-03-07 11:00,ZGNN 071100Z AUTO 08008KT 1SM 14/14 A2994 RMK SLP132 T01400140 IEM_DS3505
ZGNN,1995-03-07 12:00,ZGNN 071200Z AUTO 00000KT 2 1/2SM 15/14 A2997 RMK 60000 SLP136 T01480143 52007 IEM_DS3505
ZGNN,1995-03-07 13:00,ZGNN 071300Z AUTO 09006KT 1SM 14/14 A2997 RMK SLP142 T01400140 IEM_DS3505
ZGNN,1995-03-07 15:00,ZGNN 071500Z AUTO 00000KT 2 1/2SM 15/14 A2999 RMK SLP149 T01470140 52013 IEM_DS3505
ZGNN,1995-03-07 18:00,ZGNN 071800Z AUTO 00000KT 2 1/2SM 14/14 A2998 RMK 60000 SLP145 T01450143 57004 IEM_DS3505
ZGNN,1995-03-07 21:00,ZGNN 072100Z AUTO 11002KT 4SM 15/14 A2991 RMK SLP127 T01460142 57018 IEM_DS3505
ZGNN,1995-03-07 22:00,ZGNN 072200Z AUTO 07004KT 1SM 14/14 A2991 RMK SLP122 T01400140 IEM_DS3505
ZGNN,1995-03-07 23:00,ZGNN 072300Z AUTO 00000KT 1/2SM 14/14 A2994 RMK SLP132 T01400140 IEM_DS3505
ZGNN,1995-03-08 00:00,ZGNN 080000Z AUTO 00000KT 1 1/4SM 15/14 A2994 RMK 60000 70008 SLP138 T01480145 52011 IEM_DS3505
ZGNN,1995-03-08 01:00,ZGNN 080100Z AUTO 07004KT 1/2SM 15/14 A2997 RMK SLP142 T01500140 IEM_DS3505
ZGNN,1995-03-08 02:00,ZGNN 080200Z AUTO 07004KT 1/2SM 15/15 A2997 RMK SLP142 T01500150 IEM_DS3505
ZGNN,1995-03-08 03:00,ZGNN 080300Z AUTO 00000KT 1 1/2SM 16/15 A2997 RMK SLP142 T01590152 52004 IEM_DS3505
ZGNN,1995-03-08 06:00,ZGNN 080600Z AUTO 25002KT 6SM 19/17 A2985 RMK 60000 SLP108 T01870172 57033 IEM_DS3505
ZGNN,1995-03-08 08:00,ZGNN 080800Z AUTO 15017KT 7SM 22/18 A2980 RMK SLP083 T02200180 IEM_DS3505
ZGNN,1995-03-08 09:00,ZGNN 080900Z AUTO 00000KT 9SM 21/19 A2980 RMK SLP078 T02130193 57030 IEM_DS3505
ZGNN,1995-03-08 10:00,ZGNN 081000Z AUTO 15014KT 7SM 21/18 A2980 RMK SLP083 T02100180 IEM_DS3505
ZGNN,1995-03-08 12:00,ZGNN 081200Z AUTO 22002KT 11SM 21/19 A2983 RMK SLP089 T02080188 52011 IEM_DS3505
ZGNN,1995-03-08 13:00,ZGNN 081300Z AUTO 15006KT 7SM 20/18 A2985 RMK SLP100 T02000180 IEM_DS3505
ZGNN,1995-03-08 15:00,ZGNN 081500Z AUTO 27002KT 10SM 20/18 A2987 RMK SLP107 T01950182 52018 IEM_DS3505
ZGNN,1995-03-08 18:00,ZGNN 081800Z AUTO 00000KT 9SM 18/18 A2984 RMK SLP098 T01820177 57009 IEM_DS3505
ZGNN,1995-03-08 21:00,ZGNN 082100Z AUTO 00000KT 9SM 19/18 A2985 RMK SLP098 T01890181 52001 IEM_DS3505
ZGNN,1995-03-08 22:00,ZGNN 082200Z AUTO 00000KT 1SM 18/18 A2985 RMK SLP101 T01800180 IEM_DS3505
ZGNN,1995-03-08 23:00,ZGNN 082300Z AUTO 00000KT 1SM 18/18 A2988 RMK SLP111 T01800180 IEM_DS3505
ZGNN,1995-03-09 00:00,ZGNN 090000Z AUTO 04002KT 4SM 19/18 A2991 RMK SLP116 T01890184 52017 IEM_DS3505
ZGNN,1995-03-09 01:00,ZGNN 090100Z AUTO 00000KT 1 1/4SM 19/19 A2994 RMK SLP131 T01900190 IEM_DS3505
ZGNN,1995-03-09 02:00,ZGNN 090200Z AUTO 00000KT 2 1/2SM 20/19 A2997 RMK SLP141 T02000190 IEM_DS3505
ZGNN,1995-03-09 03:00,ZGNN 090300Z AUTO 11002KT 7SM 22/20 A2997 RMK SLP132 T02210199 52017 IEM_DS3505
ZGNN,1995-03-09 04:00,ZGNN 090400Z AUTO 11006KT 7SM 25/20 A2994 RMK SLP129 T02500200 IEM_DS3505
ZGNN,1995-03-09 06:00,ZGNN 090600Z AUTO 09002KT 9SM 26/20 A2988 RMK SLP109 T02610205 57023 IEM_DS3505
ZGNN,1995-03-09 08:00,ZGNN 090800Z AUTO 34006KT 7SM 25/20 A2985 RMK SLP099 T02500200 IEM_DS3505
ZGNN,1995-03-09 09:00,ZGNN 090900Z AUTO 04010KT 11SM 24/18 A2985 RMK SLP106 T02410183 57003 IEM_DS3505
ZGNN,1995-03-09 11:00,ZGNN 091100Z AUTO 06010KT 7SM 21/16 A2991 RMK SLP120 T02100160 IEM_DS3505
ZGNN,1995-03-09 12:00,ZGNN 091200Z AUTO 09006KT 12SM 20/15 A2991 RMK SLP128 T01990152 52021 IEM_DS3505
ZGNN,1995-03-09 13:00,ZGNN 091300Z AUTO 04006KT 7SM 19/15 A2997 RMK SLP141 T01900150 IEM_DS3505
ZGNN,1995-03-09 15:00,ZGNN 091500Z AUTO 07004KT 12SM 19/14 A3001 RMK SLP155 T01930143 52027 IEM_DS3505
ZGNN,1995-03-09 18:00,ZGNN 091800Z AUTO 00000KT 12SM 18/13 A3003 RMK SLP161 T01790127 52007 IEM_DS3505
ZGNN,1995-03-09 21:00,ZGNN 092100Z AUTO 07004KT 11SM 17/12 A3000 RMK SLP155 T01690116 57007 IEM_DS3505
ZGNN,1995-03-09 23:00,ZGNN 092300Z AUTO 09004KT 7SM 16/12 A3006 RMK SLP173 T01600120 IEM_DS3505
ZGNN,1995-03-10 00:00,ZGNN 100000Z AUTO 07004KT 9SM 16/11 A3005 RMK SLP170 T01600112 52014 IEM_DS3505
ZGNN,1995-03-10 03:00,ZGNN 100300Z AUTO 00000KT 9SM 17/11 A3008 RMK SLP180 T01740114 52010 IEM_DS3505
ZGNN,1995-03-10 06:00,ZGNN 100600Z AUTO 09002KT 16SM 19/12 A2999 RMK SLP149 T01910117 57030 IEM_DS3505
ZGNN,1995-03-10 07:00,ZGNN 100700Z AUTO 13006KT 7SM 20/11 A2994 RMK SLP131 T02000110 IEM_DS3505
ZGNN,1995-03-10 09:00,ZGNN 100900Z AUTO 09002KT 16SM 19/12 A2991 RMK SLP122 T01910119 57027 IEM_DS3505
ZGNN,1995-03-10 10:00,ZGNN 101000Z AUTO 09006KT 7SM 19/11 A2991 RMK SLP121 T01900110 IEM_DS3505
ZGNN,1995-03-10 12:00,ZGNN 101200Z AUTO 14002KT 12SM 18/13 A2994 RMK SLP127 T01780126 52004 IEM_DS3505
ZGNN,1995-03-10 13:00,ZGNN 101300Z AUTO 12008KT 7SM 18/13 A2994 RMK SLP131 T01800130 IEM_DS3505
ZGNN,1995-03-10 15:00,ZGNN 101500Z AUTO 09002KT 12SM 17/13 A2995 RMK SLP135 T01740130 52009 IEM_DS3505
ZGNN,1995-03-10 18:00,ZGNN 101800Z AUTO 00000KT 9SM 17/13 A2993 RMK SLP128 T01670130 57007 IEM_DS3505
ZGNN,1995-03-10 21:00,ZGNN 102100Z AUTO 00000KT 9SM 17/14 A2989 RMK SLP115 T01710136 57013 IEM_DS3505
ZGNN,1995-03-10 23:00,ZGNN 102300Z AUTO 02002KT 5SM 17/15 A2994 RMK SLP131 T01700150 IEM_DS3505
ZGNN,1995-03-11 00:00,ZGNN 110000Z AUTO 00000KT 1 1/4SM 16/16 A2997 RMK 60000 SLP141 T01650160 52025 IEM_DS3505
ZGNN,1995-03-11 03:00,ZGNN 110300Z AUTO 07004KT 2SM 16/16 A3005 RMK SLP170 T01640157 52029 IEM_DS3505
ZGNN,1995-03-11 06:00,ZGNN 110600Z AUTO 04004KT 2 1/2SM 16/15 A3001 RMK 60016 SLP157 T01600153 57013 IEM_DS3505
ZGNN,1995-03-11 09:00,ZGNN 110900Z AUTO 00000KT 7SM 17/15 A2998 RMK SLP144 T01730149 57013 IEM_DS3505
ZGNN,1995-03-11 12:00,ZGNN 111200Z AUTO 00000KT 9SM 17/15 A3003 RMK 60000 SLP161 T01730153 52017 IEM_DS3505
ZGNN,1995-03-11 15:00,ZGNN 111500Z AUTO 00000KT 9SM 16/14 A3006 RMK SLP174 T01650137 52013 IEM_DS3505
ZGNN,1995-03-11 18:00,ZGNN 111800Z AUTO 02002KT 8SM 16/13 A3003 RMK SLP164 T01630133 57010 IEM_DS3505
ZGNN,1995-03-11 21:00,ZGNN 112100Z AUTO 02002KT 7SM 16/11 A3000 RMK SLP151 T01590111 57013 IEM_DS3505
ZGNN,1995-03-11 23:00,ZGNN 112300Z AUTO 07002KT 7SM 15/12 A3000 RMK SLP152 T01500120 IEM_DS3505
ZGNN,1995-03-12 00:00,ZGNN 120000Z AUTO 07002KT 9SM 16/11 A3003 RMK 70016 SLP162 T01550112 52011 IEM_DS3505
ZGNN,1995-03-12 03:00,ZGNN 120300Z AUTO 09004KT 11SM 17/09 A3005 RMK SLP170 T01660086 52008 IEM_DS3505
ZGNN,1995-03-12 06:00,ZGNN 120600Z AUTO 09004KT 11SM 17/10 A2997 RMK SLP144 T01720098 57026 IEM_DS3505
ZGNN,1995-03-12 09:00,ZGNN 120900Z AUTO 09004KT 11SM 16/10 A2992 RMK SLP126 T01590100 57018 IEM_DS3505
ZGNN,1995-03-12 12:00,ZGNN 121200Z AUTO 04004KT 9SM 14/11 A2997 RMK SLP142 T01350109 52016 IEM_DS3505
ZGNN,1995-03-12 13:00,ZGNN 121300Z AUTO 06004KT 1 1/2SM 13/12 A3000 RMK SLP153 T01300120 IEM_DS3505
ZGNN,1995-03-12 14:00,ZGNN 121400Z AUTO 03004KT 1 1/2SM 12/12 A3003 RMK SLP164 T01200120 IEM_DS3505
ZGNN,1995-03-12 15:00,ZGNN 121500Z AUTO 04002KT 9SM 12/12 A3003 RMK SLP165 T01230117 52022 IEM_DS3505
ZGNN,1995-03-12 18:00,ZGNN 121800Z AUTO 07002KT 5SM 12/12 A3002 RMK 60008 SLP158 T01230117 57006 IEM_DS3505
ZGNN,1995-03-12 21:00,ZGNN 122100Z AUTO 00000KT 4SM 12/12 A2997 RMK SLP148 T01240120 57011 IEM_DS3505
ZGNN,1995-03-12 22:00,ZGNN 122200Z AUTO 07004KT 1 1/4SM 12/12 A3000 RMK SLP153 T01200120 IEM_DS3505
ZGNN,1995-03-12 23:00,ZGNN 122300Z AUTO 08004KT 1 1/4SM 12/12 A3003 RMK SLP164 T01200120 IEM_DS3505
ZGNN,1995-03-13 00:00,ZGNN 130000Z AUTO 00000KT 4SM 13/12 A3006 RMK 60008 70016 SLP176 T01270123 52028 IEM_DS3505
ZGNN,1995-03-13 02:00,ZGNN 130200Z AUTO 08004KT 1 1/4SM 13/12 A3012 RMK SLP194 T01300120 IEM_DS3505
ZGNN,1995-03-13 03:00,ZGNN 130300Z AUTO 04002KT 5SM 13/12 A3009 RMK SLP190 T01300121 52014 IEM_DS3505
ZGNN,1995-03-13 06:00,ZGNN 130600Z AUTO 07002KT 4SM 14/13 A3006 RMK 60002 SLP169 T01350130 57021 IEM_DS3505
ZGNN,1995-03-13 07:00,ZGNN 130700Z AUTO 02004KT 1 1/2SM 13/13 A3003 RMK SLP164 T01300130 IEM_DS3505
ZGNN,1995-03-13 08:00,ZGNN 130800Z AUTO 00000KT 1 1/4SM 14/13 A3000 RMK SLP153 T01400130 IEM_DS3505
ZGNN,1995-03-13 09:00,ZGNN 130900Z AUTO 09002KT 5SM 14/13 A3000 RMK SLP152 T01350130 57017 IEM_DS3505
ZGNN,1995-03-13 10:00,ZGNN 131000Z AUTO 09004KT 2 1/2SM 13/13 A3000 RMK SLP153 T01300130 IEM_DS3505
ZGNN,1995-03-13 12:00,ZGNN 131200Z AUTO 07004KT 5SM 13/12 A3003 RMK 60002 SLP163 T01310122 52011 IEM_DS3505
ZGNN,1995-03-13 13:00,ZGNN 131300Z AUTO 05004KT 1 1/2SM 13/12 A3006 RMK SLP174 T01300120 IEM_DS3505
ZGNN,1995-03-13 14:00,ZGNN 131400Z AUTO 03004KT 1 1/2SM 13/12 A3009 RMK SLP184 T01300120 IEM_DS3505
ZGNN,1995-03-13 15:00,ZGNN 131500Z AUTO 00000KT 4SM 13/12 A3010 RMK SLP188 T01280124 52025 IEM_DS3505
ZGNN,1995-03-13 18:00,ZGNN 131800Z AUTO 00000KT 5SM 13/12 A3008 RMK 60008 SLP180 T01280124 57008 IEM_DS3505
ZGNN,1995-03-13 21:00,ZGNN 132100Z AUTO 00000KT 3SM 13/13 A3005 RMK SLP170 T01310129 57010 IEM_DS3505
ZGNN,1995-03-13 23:00,ZGNN 132300Z AUTO 00000KT 1 1/4SM 13/12 A3009 RMK SLP184 T01300120 IEM_DS3505
ZGNN,1995-03-14 00:00,ZGNN 140000Z AUTO 07002KT 2 1/2SM 13/12 A3009 RMK 60008 70020 SLP186 T01290125 52016 IEM_DS3505
ZGNN,1995-03-14 01:00,ZGNN 140100Z AUTO 00000KT 1SM 13/12 A3012 RMK SLP194 T01300120 IEM_DS3505
ZGNN,1995-03-14 02:00,ZGNN 140200Z AUTO 00000KT 1 1/4SM 13/13 A3015 RMK SLP204 T01300130 IEM_DS3505
ZGNN,1995-03-14 03:00,ZGNN 140300Z AUTO 00000KT 2SM 13/13 A3015 RMK SLP199 T01340130 52013 IEM_DS3505
ZGNN,1995-03-14 04:00,ZGNN 140400Z AUTO 03004KT 2SM 14/13 A3012 RMK SLP194 T01400130 IEM_DS3505
ZGNN,1995-03-14 06:00,ZGNN 140600Z AUTO 00000KT 3SM 14/14 A3006 RMK 60004 SLP174 T01430138 57025 IEM_DS3505
ZGNN,1995-03-14 07:00,ZGNN 140700Z AUTO 08006KT 2SM 14/13 RMK T01400130 IEM_DS3505
ZGNN,1995-03-14 08:00,ZGNN 140800Z AUTO 00000KT 2 1/2SM 14/14 A3000 RMK SLP153 T01400140 IEM_DS3505
ZGNN,1995-03-14 09:00,ZGNN 140900Z AUTO 00000KT 2 1/2SM 14/14 A2997 RMK SLP148 T01440139 57026 IEM_DS3505
ZGNN,1995-03-14 10:00,ZGNN 141000Z AUTO 12004KT 2SM 14/14 A2997 RMK SLP142 T01400140 IEM_DS3505
ZGNN,1995-03-14 11:00,ZGNN 141100Z AUTO 05004KT 1 1/4SM 14/14 A2997 RMK SLP142 T01400140 IEM_DS3505
ZGNN,1995-03-14 12:00,ZGNN 141200Z AUTO 09002KT 1 1/2SM 14/14 A3000 RMK 60004 SLP151 T01430138 52003 IEM_DS3505
ZGNN,1995-03-14 13:00,ZGNN 141300Z AUTO 00000KT 1 1/4SM 14/14 A3000 RMK SLP153 T01400140 IEM_DS3505
ZGNN,1995-03-14 15:00,ZGNN 141500Z AUTO 00000KT 1 1/4SM 14/14 A3004 RMK SLP168 T01430139 52017 IEM_DS3505
ZGNN,1995-03-14 18:00,ZGNN 141800Z AUTO 00000KT 2 1/2SM 14/14 A3000 RMK 60002 SLP154 T01430141 57014 IEM_DS3505
ZGNN,1995-03-14 21:00,ZGNN 142100Z AUTO 00000KT 1 1/2SM 15/14 A2997 RMK SLP144 T01470145 57009 IEM_DS3505
ZGNN,1995-03-14 22:00,ZGNN 142200Z AUTO 00000KT 1SM 14/14 A2997 RMK SLP142 T01400140 IEM_DS3505
ZGNN,1995-03-14 23:00,ZGNN 142300Z AUTO 00000KT 3/8SM 15/14 A3000 RMK SLP152 T01500140 IEM_DS3505
ZGNN,1995-03-15 00:00,ZGNN 150000Z AUTO 00000KT 1SM 15/15 A3003 RMK 60000 70012 SLP161 T01510149 52017 IEM_DS3505
ZGNN,1995-03-15 01:00,ZGNN 150100Z AUTO 00000KT 1/2SM 15/15 A3006 RMK SLP173 T01500150 IEM_DS3505
ZGNN,1995-03-15 02:00,ZGNN 150200Z AUTO 00000KT 3/8SM 16/16 A3006 RMK SLP173 T01600160 IEM_DS3505
ZGNN,1995-03-15 03:00,ZGNN 150300Z AUTO 00000KT 1SM 17/16 A3003 RMK SLP164 T01670164 52003 IEM_DS3505
ZGNN,1995-03-15 06:00,ZGNN 150600Z AUTO 00000KT 2 1/2SM 20/18 A2994 RMK 60000 SLP134 T01950182 57030 IEM_DS3505
ZGNN,1995-03-15 07:00,ZGNN 150700Z AUTO 00000KT 2 1/2SM 21/19 A2991 RMK SLP120 T02100190 IEM_DS3505
ZGNN,1995-03-15 08:00,ZGNN 150800Z AUTO 12004KT 5SM 22/20 A2988 RMK SLP110 T02200200 IEM_DS3505
ZGNN,1995-03-15 09:00,ZGNN 150900Z AUTO 04002KT 4SM 21/19 A2985 RMK SLP104 T02130194 57029 IEM_DS3505
ZGNN,1995-03-15 10:00,ZGNN 151000Z AUTO 11004KT 7SM 22/21 A2985 RMK SLP100 T02200210 IEM_DS3505
ZGNN,1995-03-15 12:00,ZGNN 151200Z AUTO 00000KT 3SM 20/19 A2985 RMK SLP108 T01970189 52004 IEM_DS3505
ZGNN,1995-03-15 13:00,ZGNN 151300Z AUTO 00000KT 3SM 20/20 A2988 RMK SLP110 T02000200 IEM_DS3505
ZGNN,1995-03-15 14:00,ZGNN 151400Z AUTO 00000KT 2 1/2SM 20/20 A2991 RMK SLP120 T02000200 IEM_DS3505
ZGNN,1995-03-15 18:00,ZGNN 151800Z AUTO 00000KT 6SM 19/19 A2989 RMK SLP116 T01940189 57006 IEM_DS3505
ZGNN,1995-03-15 21:00,ZGNN 152100Z AUTO 00000KT 6SM 19/19 A2985 RMK SLP104 T01920189 57011 IEM_DS3505
ZGNN,1995-03-16 00:00,ZGNN 160000Z AUTO 00000KT 7SM 20/19 A2988 RMK SLP115 T01970192 52010 IEM_DS3505
ZGNN,1995-03-16 01:00,ZGNN 160100Z AUTO 00000KT 1 1/2SM 20/20 A2991 RMK SLP120 T02000200 IEM_DS3505
ZGNN,1995-03-16 02:00,ZGNN 160200Z AUTO 17004KT 2 1/2SM 21/20 A2991 RMK SLP120 T02100200 IEM_DS3505
ZGNN,1995-03-16 03:00,ZGNN 160300Z AUTO 00000KT 9SM 22/20 A2988 RMK SLP117 T02220205 52003 IEM_DS3505
ZGNN,1995-03-16 06:00,ZGNN 160600Z AUTO 00000KT 9SM 26/22 A2980 RMK SLP081 T02550215 57035 IEM_DS3505
ZGNN,1995-03-16 07:00,ZGNN 160700Z AUTO 17006KT 7SM 27/21 A2977 RMK SLP071 T02700210 IEM_DS3505
ZGNN,1995-03-16 09:00,ZGNN 160900Z AUTO 09004KT 12SM 26/22 A2971 RMK SLP053 T02590218 57028 IEM_DS3505
ZGNN,1995-03-16 10:00,ZGNN 161000Z AUTO 14010KT 7SM 26/20 A2974 RMK SLP061 T02600200 IEM_DS3505
ZGNN,1995-03-16 12:00,ZGNN 161200Z AUTO 00000KT 14SM 23/20 A2978 RMK SLP075 T02340202 52021 IEM_DS3505
ZGNN,1995-03-16 13:00,ZGNN 161300Z AUTO 00000KT 7SM 22/20 A2983 RMK SLP093 T02200200 IEM_DS3505
ZGNN,1995-03-16 15:00,ZGNN 161500Z AUTO 00000KT 16SM 22/20 A2989 RMK SLP115 T02160202 52040 IEM_DS3505
ZGNN,1995-03-16 18:00,ZGNN 161800Z AUTO 36002KT 9SM 20/20 A2990 RMK SLP116 T02020197 52001 IEM_DS3505
ZGNN,1995-03-16 21:00,ZGNN 162100Z AUTO 00000KT 7SM 19/19 A2988 RMK SLP109 T01910188 57007 IEM_DS3505
ZGNN,1995-03-16 22:00,ZGNN 162200Z AUTO 01004KT 3SM 19/19 A2991 RMK SLP121 T01900190 IEM_DS3505
ZGNN,1995-03-16 23:00,ZGNN 162300Z AUTO 02002KT 3SM 20/20 A2994 RMK SLP131 T02000200 IEM_DS3505
ZGNN,1995-03-17 00:00,ZGNN 170000Z AUTO 00000KT 7SM 20/20 A2997 RMK SLP144 T02030197 52035 IEM_DS3505
ZGNN,1995-03-17 01:00,ZGNN 170100Z AUTO 05010KT 7SM 21/20 A3003 RMK SLP162 T02100200 IEM_DS3505
ZGNN,1995-03-17 03:00,ZGNN 170300Z AUTO 04008KT 12SM 18/13 A3012 RMK SLP192 T01830130 52047 IEM_DS3505
ZGNN,1995-03-17 06:00,ZGNN 170600Z AUTO 04004KT 14SM 18/12 A3012 RMK SLP197 T01750115 52004 IEM_DS3505
ZGNN,1995-03-17 07:00,ZGNN 170700Z AUTO 34008KT 7SM 16/10 A3012 RMK SLP193 T01600100 IEM_DS3505
ZGNN,1995-03-17 08:00,ZGNN 170800Z AUTO 35010KT 7SM 15/09 A3012 RMK SLP194 T01500090 IEM_DS3505
ZGNN,1995-03-17 09:00,ZGNN 170900Z AUTO 07006KT 16SM 16/09 A3012 RMK SLP194 T01590091 57003 IEM_DS3505
ZGNN,1995-03-17 10:00,ZGNN 171000Z AUTO 03006KT 7SM 15/08 A3015 RMK SLP204 T01500080 IEM_DS3505
ZGNN,1995-03-17 12:00,ZGNN 171200Z AUTO 04006KT 17SM 14/07 A3021 RMK SLP224 T01420073 52030 IEM_DS3505
ZGNN,1995-03-17 13:00,ZGNN 171300Z AUTO 04006KT 7SM 14/08 A3024 RMK SLP234 T01400080 IEM_DS3505
ZGNN,1995-03-17 14:00,ZGNN 171400Z AUTO 03006KT 7SM 14/07 A3030 RMK SLP254 T01400070 IEM_DS3505
ZGNN,1995-03-17 15:00,ZGNN 171500Z AUTO 07004KT 16SM 14/07 A3031 RMK SLP258 T01370071 52033 IEM_DS3505
ZGNN,1995-03-17 18:00,ZGNN 171800Z AUTO 04004KT 12SM 13/07 A3032 RMK SLP261 T01270069 52003 IEM_DS3505
ZGNN,1995-03-17 21:00,ZGNN 172100Z AUTO 04004KT 12SM 12/06 A3032 RMK SLP263 T01190057 52001 IEM_DS3505
ZGNN,1995-03-17 22:00,ZGNN 172200Z AUTO 36008KT 7SM 11/04 A3036 RMK SLP276 T01100040 IEM_DS3505
ZGNN,1995-03-17 23:00,ZGNN 172300Z AUTO 01010KT 7SM 11/04 A3039 RMK SLP286 T01100040 IEM_DS3505
ZGNN,1995-03-18 00:00,ZGNN 180000Z AUTO 32004KT 12SM 12/06 A3042 RMK SLP294 T01160055 52031 IEM_DS3505
ZGNN,1995-03-18 01:00,ZGNN 180100Z AUTO 36006KT 7SM 11/03 A3045 RMK SLP307 T01100030 IEM_DS3505
ZGNN,1995-03-18 02:00,ZGNN 180200Z AUTO 35008KT 7SM 11/03 A3045 RMK SLP307 T01100030 IEM_DS3505
ZGNN,1995-03-18 03:00,ZGNN 180300Z AUTO 34004KT 12SM 12/05 A3045 RMK SLP303 T01190046 52009 IEM_DS3505
ZGNN,1995-03-18 06:00,ZGNN 180600Z AUTO 32006KT 12SM 13/04 A3036 RMK SLP276 T01280042 57027 IEM_DS3505
ZGNN,1995-03-18 07:00,ZGNN 180700Z AUTO 36010KT 7SM 12/02 A3033 RMK SLP265 T01200020 IEM_DS3505
ZGNN,1995-03-18 08:00,ZGNN 180800Z AUTO 03006KT 7SM 12/02 A3030 RMK SLP255 T01200020 IEM_DS3505
ZGNN,1995-03-18 09:00,ZGNN 180900Z AUTO 32006KT 11SM 12/04 A3030 RMK SLP256 T01250035 57020 IEM_DS3505
ZGNN,1995-03-18 10:00,ZGNN 181000Z AUTO 35008KT 7SM 10/04 A3033 RMK SLP266 T01000040 IEM_DS3505
ZGNN,1995-03-18 12:00,ZGNN 181200Z AUTO 09002KT 9SM 11/08 A3033 RMK 60012 SLP258 T01070078 52002 IEM_DS3505
ZGNN,1995-03-18 13:00,ZGNN 181300Z AUTO 00000KT 7SM 10/05 A3033 RMK SLP266 T01000050 IEM_DS3505
ZGNN,1995-03-18 14:00,ZGNN 181400Z AUTO 00000KT 7SM 10/05 A3036 RMK SLP276 T01000050 IEM_DS3505
ZGNN,1995-03-18 15:00,ZGNN 181500Z AUTO 00000KT 16SM 10/08 A3037 RMK SLP279 T01030076 52020 IEM_DS3505
ZGNN,1995-03-18 18:00,ZGNN 181800Z AUTO 00000KT 12SM 11/08 A3033 RMK 60004 SLP266 T01090078 57012 IEM_DS3505
ZGNN,1995-03-18 21:00,ZGNN 182100Z AUTO 04002KT 12SM 11/07 A3030 RMK SLP257 T01090073 57009 IEM_DS3505
ZGNN,1995-03-18 22:00,ZGNN 182200Z AUTO 00000KT 7SM 10/06 A3033 RMK SLP266 T01000060 IEM_DS3505
ZGNN,1995-03-18 23:00,ZGNN 182300Z AUTO 00000KT 7SM 10/06 A3033 RMK SLP266 T01000060 IEM_DS3505
ZGNN,1995-03-19 00:00,ZGNN 190000Z AUTO 00000KT 9SM 12/08 A3033 RMK 70016 SLP265 T01180085 52007 IEM_DS3505
ZGNN,1995-03-19 01:00,ZGNN 190100Z AUTO 00000KT 7SM 11/07 A3036 RMK SLP276 T01100070 IEM_DS3505
ZGNN,1995-03-19 02:00,ZGNN 190200Z AUTO 00000KT 7SM 12/08 A3039 RMK SLP285 T01200080 IEM_DS3505
ZGNN,1995-03-19 03:00,ZGNN 190300Z AUTO 22002KT 9SM 11/10 A3036 RMK SLP274 T01130097 52009 IEM_DS3505
ZGNN,1995-03-19 06:00,ZGNN 190600Z AUTO 00000KT 9SM 13/08 A3024 RMK SLP234 T01270085 57039 IEM_DS3505
ZGNN,1995-03-19 07:00,ZGNN 190700Z AUTO 25004KT 7SM 14/08 A3021 RMK SLP224 T01400080 IEM_DS3505
ZGNN,1995-03-19 08:00,ZGNN 190800Z AUTO 00000KT 7SM 14/07 A3018 RMK SLP214 T01400070 IEM_DS3505
ZGNN,1995-03-19 09:00,ZGNN 190900Z AUTO 00000KT 11SM 14/09 A3015 RMK SLP208 T01350090 57026 IEM_DS3505
ZGNN,1995-03-19 10:00,ZGNN 191000Z AUTO 00000KT 7SM 14/07 A3015 RMK SLP204 T01400070 IEM_DS3505
ZGNN,1995-03-19 12:00,ZGNN 191200Z AUTO 00000KT 12SM 13/09 A3018 RMK SLP215 T01310089 52007 IEM_DS3505
ZGNN,1995-03-19 13:00,ZGNN 191300Z AUTO 00000KT 7SM 12/08 A3021 RMK SLP225 T01200080 IEM_DS3505
ZGNN,1995-03-19 14:00,ZGNN 191400Z AUTO 00000KT 7SM 12/08 A3021 RMK SLP225 T01200080 IEM_DS3505
ZGNN,1995-03-19 15:00,ZGNN 191500Z AUTO 07002KT 12SM 13/10 A3023 RMK SLP231 T01290098 52016 IEM_DS3505
ZGNN,1995-03-19 18:00,ZGNN 191800Z AUTO 07004KT 9SM 12/10 A3022 RMK SLP229 T01220099 57002 IEM_DS3505
ZGNN,1995-03-19 21:00,ZGNN 192100Z AUTO 00000KT 6SM 11/11 A3018 RMK SLP214 T01100106 57015 IEM_DS3505
ZGNN,1995-03-19 22:00,ZGNN 192200Z AUTO 00000KT 1 1/4SM 10/10 A3018 RMK SLP215 T01000100 IEM_DS3505
ZGNN,1995-03-19 23:00,ZGNN 192300Z AUTO 00000KT 1 1/4SM 11/11 A3018 RMK SLP215 T01100110 IEM_DS3505
ZGNN,1995-03-20 00:00,ZGNN 200000Z AUTO 09002KT 6SM 11/11 A3018 RMK 60001 70001 SLP217 T01140106 52003 IEM_DS3505
ZGNN,1995-03-20 01:00,ZGNN 200100Z AUTO 00000KT 1 1/4SM 11/11 A3021 RMK SLP225 T01100110 IEM_DS3505
ZGNN,1995-03-20 02:00,ZGNN 200200Z AUTO 34006KT 1 1/4SM 12/11 A3021 RMK SLP225 T01200110 IEM_DS3505
ZGNN,1995-03-20 03:00,ZGNN 200300Z AUTO 00000KT 5SM 12/11 A3020 RMK SLP220 T01230114 52003 IEM_DS3505
ZGNN,1995-03-20 06:00,ZGNN 200600Z AUTO 00000KT 5SM 14/12 A3009 RMK 60000 SLP184 T01360121 57035 IEM_DS3505
ZGNN,1995-03-20 07:00,ZGNN 200700Z AUTO 00000KT 4SM 14/12 A3006 RMK SLP174 T01400120 IEM_DS3505
ZGNN,1995-03-20 08:00,ZGNN 200800Z AUTO 00000KT 3SM 14/12 A3003 RMK SLP164 T01400120 IEM_DS3505
ZGNN,1995-03-20 09:00,ZGNN 200900Z AUTO 00000KT 7SM 14/12 A3003 RMK SLP162 T01400125 57022 IEM_DS3505
ZGNN,1995-03-20 10:00,ZGNN 201000Z AUTO 08004KT 2SM 14/12 A3003 RMK SLP164 T01400120 IEM_DS3505
ZGNN,1995-03-20 12:00,ZGNN 201200Z AUTO 00000KT 2 1/2SM 14/13 A3006 RMK SLP172 T01350131 52010 IEM_DS3505
ZGNN,1995-03-20 13:00,ZGNN 201300Z AUTO 00000KT 3SM 13/13 A3006 RMK SLP174 T01300130 IEM_DS3505
ZGNN,1995-03-20 14:00,ZGNN 201400Z AUTO 00000KT 3SM 13/13 A3006 RMK SLP174 T01300130 IEM_DS3505
ZGNN,1995-03-20 15:00,ZGNN 201500Z AUTO 07004KT 5SM 13/13 A3009 RMK SLP184 T01320128 52012 IEM_DS3505
ZGNN,1995-03-20 18:00,ZGNN 201800Z AUTO 00000KT 3SM 13/13 A3010 RMK 60004 SLP186 T01330131 52002 IEM_DS3505
ZGNN,1995-03-20 21:00,ZGNN 202100Z AUTO 00000KT 3SM 13/13 A3007 RMK SLP177 T01330129 57009 IEM_DS3505
ZGNN,1995-03-21 00:00,ZGNN 210000Z AUTO 00000KT 3SM 14/13 A3012 RMK 60004 70008 SLP198 T01350133 52021 IEM_DS3505
ZGNN,1995-03-21 02:00,ZGNN 210200Z AUTO 00000KT 3SM 15/14 A3018 RMK SLP214 T01500140 IEM_DS3505
ZGNN,1995-03-21 03:00,ZGNN 210300Z AUTO 00000KT 4SM 15/14 A3015 RMK SLP207 T01490140 52009 IEM_DS3505
ZGNN,1995-03-21 06:00,ZGNN 210600Z AUTO 00000KT 6SM 17/14 A3006 RMK 60000 SLP172 T01710145 57034 IEM_DS3505
ZGNN,1995-03-21 07:00,ZGNN 210700Z AUTO 04002KT 7SM 19/15 A3003 RMK SLP162 T01900150 IEM_DS3505
ZGNN,1995-03-21 08:00,ZGNN 210800Z AUTO 00000KT 7SM 19/15 A3000 RMK SLP151 T01900150 IEM_DS3505
ZGNN,1995-03-21 09:00,ZGNN 210900Z AUTO 00000KT 9SM 18/15 A2997 RMK SLP143 T01830149 57029 IEM_DS3505
ZGNN,1995-03-21 10:00,ZGNN 211000Z AUTO 14004KT 7SM 19/15 A2997 RMK SLP141 T01900150 IEM_DS3505
ZGNN,1995-03-21 12:00,ZGNN 211200Z AUTO 00000KT 9SM 17/16 A3000 RMK SLP147 T01730156 52004 IEM_DS3505
ZGNN,1995-03-21 13:00,ZGNN 211300Z AUTO 00000KT 5SM 17/15 A3000 RMK SLP152 T01700150 IEM_DS3505
ZGNN,1995-03-21 15:00,ZGNN 211500Z AUTO 00000KT 9SM 17/16 A3002 RMK SLP159 T01690155 52012 IEM_DS3505
ZGNN,1995-03-21 18:00,ZGNN 211800Z AUTO 00000KT 7SM 16/15 A2999 RMK SLP150 T01650153 57009 IEM_DS3505
ZGNN,1995-03-21 21:00,ZGNN 212100Z AUTO 00000KT 6SM 16/16 A2995 RMK SLP136 T01580155 57014 IEM_DS3505
ZGNN,1995-03-21 23:00,ZGNN 212300Z AUTO 08002KT 3/8SM 16/15 A2997 RMK SLP142 T01600150 IEM_DS3505
ZGNN,1995-03-22 00:00,ZGNN 220000Z AUTO 00000KT 1/2SM 16/16 A2997 RMK 60004 70004 SLP143 T01600157 52007 IEM_DS3505
ZGNN,1995-03-22 01:00,ZGNN 220100Z AUTO 09002KT 1SM 16/16 A3000 RMK SLP152 T01600160 IEM_DS3505
ZGNN,1995-03-22 02:00,ZGNN 220200Z AUTO 00000KT 1/2SM 16/16 A3000 RMK SLP152 T01600160 IEM_DS3505
ZGNN,1995-03-22 03:00,ZGNN 220300Z AUTO 00000KT 1SM 16/16 A3000 RMK SLP152 T01600160 IEM_DS3505
ZGNN,1995-03-22 06:00,ZGNN 220600Z AUTO 00000KT 4SM 18/17 A2988 RMK 60000 SLP109 T01810171 57038 IEM_DS3505
ZGNN,1995-03-22 07:00,ZGNN 220700Z AUTO 16004KT 4SM 20/18 A2983 RMK SLP093 T02000180 IEM_DS3505
ZGNN,1995-03-22 09:00,ZGNN 220900Z AUTO 00000KT 4SM 19/11 A2980 RMK SLP085 T01870110 57024 IEM_DS3505
ZGNN,1995-03-22 10:00,ZGNN 221000Z AUTO 12004KT 4SM 20/19 A2980 RMK SLP083 T02000190 IEM_DS3505
ZGNN,1995-03-22 12:00,ZGNN 221200Z AUTO 07002KT 4SM 19/18 A2982 RMK SLP090 T01870184 IEM_DS3505
ZGNN,1995-03-22 13:00,ZGNN 221300Z AUTO 06002KT 3SM 19/19 A2983 RMK SLP094 T01900190 IEM_DS3505
ZGNN,1995-03-22 14:00,ZGNN 221400Z AUTO 00000KT 3SM 19/19 A2985 RMK SLP101 T01900190 IEM_DS3505
ZGNN,1995-03-22 15:00,ZGNN 221500Z AUTO 00000KT 4SM 18/18 A2987 RMK SLP107 T01840181 52017 IEM_DS3505
ZGNN,1995-03-22 18:00,ZGNN 221800Z AUTO 00000KT 3SM 18/18 A2986 RMK SLP104 T01850180 57003 IEM_DS3505
ZGNN,1995-03-22 21:00,ZGNN 222100Z AUTO 00000KT 5SM 18/18 A2983 RMK SLP095 T01840179 57009 IEM_DS3505
ZGNN,1995-03-22 22:00,ZGNN 222200Z AUTO 00000KT 4SM 19/18 A2985 RMK SLP101 T01900180 IEM_DS3505
ZGNN,1995-03-22 23:00,ZGNN 222300Z AUTO 04006KT 1SM 19/18 A2985 RMK SLP101 T01900180 IEM_DS3505
ZGNN,1995-03-23 00:00,ZGNN 230000Z AUTO 00000KT 2 1/2SM 19/18 A2988 RMK 60002 70002 SLP107 T01860184 52012 IEM_DS3505
ZGNN,1995-03-23 01:00,ZGNN 230100Z AUTO 00000KT 1SM 19/19 A2988 RMK SLP111 T01900190 IEM_DS3505
ZGNN,1995-03-23 02:00,ZGNN 230200Z AUTO 00000KT 1SM 19/19 A2991 RMK SLP121 T01900190 IEM_DS3505
ZGNN,1995-03-23 03:00,ZGNN 230300Z AUTO 00000KT 5SM 20/20 A2991 RMK SLP120 T02050199 52013 IEM_DS3505
ZGNN,1995-03-23 07:00,ZGNN 230700Z AUTO 12004KT 7SM 22/20 A2980 RMK SLP083 T02200200 IEM_DS3505
ZGNN,1995-03-23 08:00,ZGNN 230800Z AUTO 15006KT 7SM 22/20 A2980 RMK SLP083 T02200200 IEM_DS3505
ZGNN,1995-03-23 09:00,ZGNN 230900Z AUTO 09002KT 9SM 22/21 A2977 RMK SLP073 T02150206 57020 IEM_DS3505
ZGNN,1995-03-23 10:00,ZGNN 231000Z AUTO 13004KT 6SM 22/20 A2977 RMK SLP073 T02200200 IEM_DS3505
ZGNN,1995-03-23 11:00,ZGNN 231100Z AUTO 12004KT 4SM 21/20 A2980 RMK SLP083 T02100200 IEM_DS3505
ZGNN,1995-03-23 12:00,ZGNN 231200Z AUTO 00000KT 6SM 21/20 A2983 RMK SLP091 T02090203 52018 IEM_DS3505
ZGNN,1995-03-23 13:00,ZGNN 231300Z AUTO 06004KT 4SM 21/20 A2985 RMK SLP100 T02100200 IEM_DS3505
ZGNN,1995-03-23 15:00,ZGNN 231500Z AUTO 07002KT 8SM 21/20 A2986 RMK SLP102 T02110202 52011 IEM_DS3505
ZGNN,1995-03-23 18:00,ZGNN 231800Z AUTO 00000KT 9SM 20/20 A2983 RMK SLP093 T02040199 57009 IEM_DS3505
ZGNN,1995-03-23 21:00,ZGNN 232100Z AUTO 00000KT 7SM 20/20 A2980 RMK SLP084 T02050200 57009 IEM_DS3505
ZGNN,1995-03-23 22:00,ZGNN 232200Z AUTO 15006KT 3SM 21/20 A2983 RMK SLP093 T02100200 IEM_DS3505
ZGNN,1995-03-23 23:00,ZGNN 232300Z AUTO 16006KT 2 1/2SM 21/21 A2983 RMK SLP093 T02100210 IEM_DS3505
ZGNN,1995-03-24 00:00,ZGNN 240000Z AUTO 00000KT 6SM 21/21 A2985 RMK 70002 SLP097 T02140206 52013 IEM_DS3505
ZGNN,1995-03-24 01:00,ZGNN 240100Z AUTO 14004KT 3SM 22/21 A2985 RMK SLP100 T02200210 IEM_DS3505
ZGNN,1995-03-24 02:00,ZGNN 240200Z AUTO 17008KT 7SM 24/21 A2985 RMK SLP099 T02400210 IEM_DS3505
ZGNN,1995-03-24 03:00,ZGNN 240300Z AUTO 07002KT 11SM 24/22 A2985 RMK SLP099 T02420217 52002 IEM_DS3505
ZGNN,1995-03-24 06:00,ZGNN 240600Z AUTO 07002KT 11SM 27/22 A2977 RMK SLP072 T02730223 57026 IEM_DS3505
ZGNN,1995-03-24 08:00,ZGNN 240800Z AUTO 13014KT 7SM 27/21 A2971 RMK SLP051 T02700210 IEM_DS3505
ZGNN,1995-03-24 09:00,ZGNN 240900Z AUTO 22002KT 12SM 27/21 A2971 RMK SLP052 T02690214 57020 IEM_DS3505
ZGNN,1995-03-24 11:00,ZGNN 241100Z AUTO 15010KT 7SM 25/20 A2974 RMK SLP062 T02500200 IEM_DS3505
ZGNN,1995-03-24 12:00,ZGNN 241200Z AUTO 00000KT 12SM 25/21 A2977 RMK SLP078 T02480214 52026 IEM_DS3505
ZGNN,1995-03-24 13:00,ZGNN 241300Z AUTO 15006KT 7SM 24/20 A2983 RMK SLP092 T02400200 IEM_DS3505
ZGNN,1995-03-24 15:00,ZGNN 241500Z AUTO 00000KT 11SM 23/21 A2987 RMK SLP106 T02330212 52028 IEM_DS3505
ZGNN,1995-03-24 18:00,ZGNN 241800Z AUTO 00000KT 9SM 23/22 A2988 RMK SLP110 T02260217 52004 IEM_DS3505
ZGNN,1995-03-24 21:00,ZGNN 242100Z AUTO 04006KT 9SM 18/16 A2995 RMK SLP135 T01760164 52024 IEM_DS3505
ZGNN,1995-03-24 22:00,ZGNN 242200Z AUTO 01012KT 7SM 16/15 A3003 RMK SLP163 T01600150 IEM_DS3505
ZGNN,1995-03-24 23:00,ZGNN 242300Z AUTO 01016KT 7SM 15/14 A3009 RMK SLP184 T01500140 IEM_DS3505
ZGNN,1995-03-25 00:00,ZGNN 250000Z AUTO 36004KT 16SM 16/13 A3018 RMK 60020 70020 SLP212 T01590127 52076 IEM_DS3505
ZGNN,1995-03-25 01:00,ZGNN 250100Z AUTO 35016KT 7SM 16/10 A3021 RMK SLP224 T01600100 IEM_DS3505
ZGNN,1995-03-25 03:00,ZGNN 250300Z AUTO 04010KT 16SM 18/08 A3025 RMK SLP236 T01810082 52024 IEM_DS3505
ZGNN,1995-03-25 06:00,ZGNN 250600Z AUTO 04008KT 19SM 19/09 A3018 RMK SLP213 T01930086 57023 IEM_DS3505
ZGNN,1995-03-25 07:00,ZGNN 250700Z AUTO 02016KT 7SM 19/08 A3018 RMK SLP213 T01900080 IEM_DS3505
ZGNN,1995-03-25 08:00,ZGNN 250800Z AUTO 36006KT 7SM 19/08 A3015 RMK SLP202 T01900080 IEM_DS3505
ZGNN,1995-03-25 09:00,ZGNN 250900Z AUTO 04008KT 19SM 20/07 A3015 RMK SLP202 T01990069 57012 IEM_DS3505
ZGNN,1995-03-25 10:00,ZGNN 251000Z AUTO 36008KT 6SM 19/07 A3015 RMK SLP202 T01900070 IEM_DS3505
ZGNN,1995-03-25 11:00,ZGNN 251100Z AUTO 36008KT 6SM 18/06 A3018 RMK SLP213 T01800060 IEM_DS3505
ZGNN,1995-03-25 12:00,ZGNN 251200Z AUTO 07002KT 12SM 18/08 A3018 RMK SLP218 T01810077 52016 IEM_DS3505
ZGNN,1995-03-25 13:00,ZGNN 251300Z AUTO 36008KT 6SM 17/07 A3021 RMK SLP223 T01700070 IEM_DS3505
ZGNN,1995-03-25 14:00,ZGNN 251400Z AUTO 36006KT 6SM 17/07 A3024 RMK SLP233 T01700070 IEM_DS3505
ZGNN,1995-03-25 15:00,ZGNN 251500Z AUTO 04002KT 12SM 16/07 A3027 RMK SLP238 T01650070 52020 IEM_DS3505
ZGNN,1995-03-25 18:00,ZGNN 251800Z AUTO 34004KT 11SM 15/07 A3020 RMK SLP221 T01530072 57017 IEM_DS3505
ZGNN,1995-03-25 21:00,ZGNN 252100Z AUTO 07004KT 11SM 14/09 A3018 RMK SLP207 T01390088 57014 IEM_DS3505
ZGNN,1995-03-25 22:00,ZGNN 252200Z AUTO 00000KT 6SM 13/10 A3018 RMK SLP214 T01300100 IEM_DS3505
ZGNN,1995-03-25 23:00,ZGNN 252300Z AUTO 00000KT 6SM 13/10 A3018 RMK SLP214 T01300100 IEM_DS3505
ZGNN,1995-03-26 00:00,ZGNN 260000Z AUTO 00000KT 12SM 14/08 A3019 RMK SLP218 T01390085 52010 IEM_DS3505
ZGNN,1995-03-26 01:00,ZGNN 260100Z AUTO 00000KT 7SM 15/09 A3021 RMK SLP224 T01500090 IEM_DS3505
ZGNN,1995-03-26 02:00,ZGNN 260200Z AUTO 00000KT 7SM 17/08 A3021 RMK SLP223 T01700080 IEM_DS3505
ZGNN,1995-03-26 03:00,ZGNN 260300Z AUTO 09006KT 16SM A3018 RMK SLP214 57002 IEM_DS3505
ZGNN,1995-03-26 06:00,ZGNN 260600Z AUTO 22006KT 19SM 20/06 A3004 RMK SLP167 T02010059 57048 IEM_DS3505
ZGNN,1995-03-26 08:00,ZGNN 260800Z AUTO 16006KT 7SM 21/05 A2994 RMK SLP130 T02100050 IEM_DS3505
ZGNN,1995-03-26 09:00,ZGNN 260900Z AUTO 11002KT 19SM 21/09 A2994 RMK SLP128 T02090087 57038 IEM_DS3505
ZGNN,1995-03-26 12:00,ZGNN 261200Z AUTO 00000KT 19SM 19/08 A2994 RMK SLP133 T01870083 52004 IEM_DS3505
ZGNN,1995-03-26 15:00,ZGNN 261500Z AUTO 00000KT 17SM 16/07 A3000 RMK SLP151 T01610068 52018 IEM_DS3505
ZGNN,1995-03-26 18:00,ZGNN 261800Z AUTO 07004KT 16SM 16/08 A2998 RMK SLP144 T01580083 57006 IEM_DS3505
ZGNN,1995-03-26 21:00,ZGNN 262100Z AUTO 04004KT 14SM 15/10 A2994 RMK SLP130 T01500101 57014 IEM_DS3505
ZGNN,1995-03-26 22:00,ZGNN 262200Z AUTO 00000KT 6SM 15/11 A2994 RMK SLP132 T01500110 IEM_DS3505
ZGNN,1995-03-26 23:00,ZGNN 262300Z AUTO 09004KT 6SM 15/12 A2994 RMK SLP132 T01500120 IEM_DS3505
ZGNN,1995-03-27 00:00,ZGNN 270000Z AUTO 09004KT 11SM 15/11 A2996 RMK SLP140 T01530110 52009 IEM_DS3505
ZGNN,1995-03-27 01:00,ZGNN 270100Z AUTO 13006KT 6SM 16/12 A2997 RMK SLP142 T01600120 IEM_DS3505
ZGNN,1995-03-27 03:00,ZGNN 270300Z AUTO 14004KT 12SM 17/13 A2997 RMK SLP141 T01740128 52001 IEM_DS3505
ZGNN,1995-03-27 06:00,ZGNN 270600Z AUTO 16004KT 12SM 20/14 A2985 RMK SLP109 T01990143 57031 IEM_DS3505
ZGNN,1995-03-27 07:00,ZGNN 270700Z AUTO 15010KT 7SM 21/14 A2983 RMK SLP093 T02100140 IEM_DS3505
ZGNN,1995-03-27 08:00,ZGNN 270800Z AUTO 12012KT 7SM 21/15 A2980 RMK SLP083 T02100150 IEM_DS3505
ZGNN,1995-03-27 09:00,ZGNN 270900Z AUTO 16002KT 12SM 19/15 A2980 RMK SLP088 T01940152 57021 IEM_DS3505
ZGNN,1995-03-27 10:00,ZGNN 271000Z AUTO 12012KT 7SM 19/16 A2980 RMK SLP083 T01900160 IEM_DS3505
ZGNN,1995-03-27 11:00,ZGNN 271100Z AUTO 13010KT 7SM 19/16 A2980 RMK SLP083 T01900160 IEM_DS3505
ZGNN,1995-03-27 12:00,ZGNN 271200Z AUTO 07004KT 12SM 18/16 A2983 RMK SLP096 T01780158 52008 IEM_DS3505
ZGNN,1995-03-27 14:00,ZGNN 271400Z AUTO 15010KT 7SM 18/16 A2985 RMK SLP101 T01800160 IEM_DS3505
ZGNN,1995-03-27 15:00,ZGNN 271500Z AUTO 00000KT 11SM 17/16 A2988 RMK SLP110 T01740164 52014 IEM_DS3505
ZGNN,1995-03-27 18:00,ZGNN 271800Z AUTO 00000KT 9SM 18/17 A2985 RMK SLP102 T01750167 57008 IEM_DS3505
ZGNN,1995-03-27 21:00,ZGNN 272100Z AUTO 07002KT 5SM 16/16 A2982 RMK SLP092 T01650157 57010 IEM_DS3505
ZGNN,1995-03-27 22:00,ZGNN 272200Z AUTO 13006KT 7SM 17/16 A2980 RMK SLP084 T01700160 IEM_DS3505
ZGNN,1995-03-27 23:00,ZGNN 272300Z AUTO 14008KT 7SM 17/17 A2983 RMK SLP094 T01700170 IEM_DS3505
ZGNN,1995-03-28 00:00,ZGNN 280000Z AUTO 07004KT 4SM 16/15 A2985 RMK 60000 70001 SLP102 T01560149 52010 IEM_DS3505
ZGNN,1995-03-28 01:00,ZGNN 280100Z AUTO 14006KT 7SM 18/17 A2985 RMK SLP101 T01800170 IEM_DS3505
ZGNN,1995-03-28 03:00,ZGNN 280300Z AUTO 09002KT 3SM 17/16 A2988 RMK SLP111 T01660156 52009 IEM_DS3505
ZGNN,1995-03-28 06:00,ZGNN 280600Z AUTO 07002KT 5SM 18/17 A2980 RMK SLP084 T01810168 57027 IEM_DS3505
ZGNN,1995-03-28 07:00,ZGNN 280700Z AUTO 16010KT 7SM 22/19 A2977 RMK SLP073 T02200190 IEM_DS3505
ZGNN,1995-03-28 08:00,ZGNN 280800Z AUTO 14010KT 7SM 25/18 A2974 RMK SLP062 T02500180 IEM_DS3505
ZGNN,1995-03-28 09:00,ZGNN 280900Z AUTO 07002KT 5SM 20/18 A2971 RMK SLP062 T01990183 57022 IEM_DS3505
ZGNN,1995-03-28 10:00,ZGNN 281000Z AUTO 13010KT 7SM 23/20 A2971 RMK SLP052 T02300200 IEM_DS3505
ZGNN,1995-03-28 11:00,ZGNN 281100Z AUTO 15010KT 7SM 22/20 A2974 RMK SLP062 T02200200 IEM_DS3505
ZGNN,1995-03-28 12:00,ZGNN 281200Z AUTO 09002KT 4SM 20/19 A2977 RMK SLP069 T02020193 52007 IEM_DS3505
ZGNN,1995-03-28 15:00,ZGNN 281500Z AUTO 04002KT 6SM 20/19 A2983 RMK SLP093 T02000192 52024 IEM_DS3505
ZGNN,1995-03-28 18:00,ZGNN 281800Z AUTO 00000KT 2 1/2SM 20/19 A2982 RMK 60035 SLP092 T01950192 57001 IEM_DS3505
ZGNN,1995-03-28 21:00,ZGNN 282100Z AUTO 22002KT 9SM 20/19 A2975 RMK SLP067 T01960194 57024 IEM_DS3505
ZGNN,1995-03-28 22:00,ZGNN 282200Z AUTO 17006KT 7SM 19/19 A2977 RMK SLP073 T01900190 IEM_DS3505
ZGNN,1995-03-28 23:00,ZGNN 282300Z AUTO 35004KT 7SM 19/19 A2977 RMK SLP073 T01900190 IEM_DS3505
ZGNN,1995-03-29 00:00,ZGNN 290000Z AUTO 34002KT 11SM 20/19 A2980 RMK 60016 70051 SLP083 T01970189 52016 IEM_DS3505
ZGNN,1995-03-29 01:00,ZGNN 290100Z AUTO 12004KT 7SM 20/19 A2983 RMK SLP093 T02000190 IEM_DS3505
ZGNN,1995-03-29 02:00,ZGNN 290200Z AUTO 18004KT 7SM 20/19 A2983 RMK SLP093 T02000190 IEM_DS3505
ZGNN,1995-03-29 03:00,ZGNN 290300Z AUTO 09002KT 12SM 22/20 A2982 RMK SLP091 T02190199 52008 IEM_DS3505
ZGNN,1995-03-29 06:00,ZGNN 290600Z AUTO 00000KT 16SM 25/21 A2974 RMK 60002 SLP064 T02500214 57026 IEM_DS3505
ZGNN,1995-03-29 08:00,ZGNN 290800Z AUTO 16008KT 7SM 26/22 A2971 RMK SLP051 T02600220 IEM_DS3505
ZGNN,1995-03-29 09:00,ZGNN 290900Z AUTO 25004KT 16SM 26/21 A2968 RMK SLP041 T02550212 57023 IEM_DS3505
ZGNN,1995-03-29 12:00,ZGNN 291200Z AUTO 22002KT 12SM 23/20 A2972 RMK SLP057 T02310204 52015 IEM_DS3505
ZGNN,1995-03-29 15:00,ZGNN 291500Z AUTO 22004KT 12SM 22/20 A2977 RMK SLP073 T02190201 52016 IEM_DS3505
ZGNN,1995-03-29 18:00,ZGNN 291800Z AUTO 00000KT 12SM 21/20 A2976 RMK SLP069 T02140200 57003 IEM_DS3505
ZGNN,1995-03-29 21:00,ZGNN 292100Z AUTO 00000KT 12SM 21/20 A2974 RMK SLP065 T02090201 57004 IEM_DS3505
ZGNN,1995-03-29 22:00,ZGNN 292200Z AUTO 00000KT 7SM 21/20 A2974 RMK SLP063 T02100200 IEM_DS3505
ZGNN,1995-03-30 00:00,ZGNN 300000Z AUTO 02002KT 9SM 21/20 A2977 RMK 70002 SLP078 T02110203 52012 IEM_DS3505
ZGNN,1995-03-30 01:00,ZGNN 300100Z AUTO 00000KT 6SM 22/21 A2980 RMK SLP083 T02200210 IEM_DS3505
ZGNN,1995-03-30 02:00,ZGNN 300200Z AUTO 00000KT 7SM 22/21 A2980 RMK SLP083 T02200210 IEM_DS3505
ZGNN,1995-03-30 03:00,ZGNN 300300Z AUTO 04004KT 12SM 23/21 A2980 RMK SLP085 T02340211 52008 IEM_DS3505
ZGNN,1995-03-30 06:00,ZGNN 300600Z AUTO 09004KT 12SM 24/20 A2977 RMK SLP073 T02360198 57012 IEM_DS3505
ZGNN,1995-03-30 07:00,ZGNN 300700Z AUTO 06008KT 7SM 24/21 A2974 RMK SLP062 T02400210 IEM_DS3505
ZGNN,1995-03-30 08:00,ZGNN 300800Z AUTO 08008KT 7SM 24/21 A2974 RMK SLP062 T02400210 IEM_DS3505
ZGNN,1995-03-30 09:00,ZGNN 300900Z AUTO 07004KT 12SM 22/18 A2974 RMK SLP065 T02200175 57009 IEM_DS3505
ZGNN,1995-03-30 10:00,ZGNN 301000Z AUTO 09008KT 7SM 22/21 A2974 RMK SLP062 T02200210 IEM_DS3505
ZGNN,1995-03-30 12:00,ZGNN 301200Z AUTO 14002KT 12SM 20/17 A2980 RMK SLP080 T02000166 52015 IEM_DS3505
ZGNN,1995-03-30 13:00,ZGNN 301300Z AUTO 06004KT 7SM 19/17 A2980 RMK SLP083 T01900170 IEM_DS3505
ZGNN,1995-03-30 14:00,ZGNN 301400Z AUTO 00000KT 7SM 20/16 A2983 RMK SLP093 T02000160 IEM_DS3505
ZGNN,1995-03-30 15:00,ZGNN 301500Z AUTO 09004KT 12SM 20/15 A2985 RMK SLP103 T01960149 52023 IEM_DS3505
ZGNN,1995-03-30 17:00,ZGNN 301700Z AUTO 05006KT 7SM 18/16 A2988 RMK SLP111 T01800160 IEM_DS3505
ZGNN,1995-03-30 18:00,ZGNN 301800Z AUTO 07004KT 12SM 19/15 A2986 RMK SLP105 T01890148 52002 IEM_DS3505
ZGNN,1995-03-30 21:00,ZGNN 302100Z AUTO 04002KT 12SM 18/14 A2985 RMK SLP100 T01810145 57005 IEM_DS3505
ZGNN,1995-03-30 22:00,ZGNN 302200Z AUTO 02004KT 7SM 18/14 A2988 RMK SLP111 T01800140 IEM_DS3505
ZGNN,1995-03-30 23:00,ZGNN 302300Z AUTO 00000KT 7SM 18/15 A2988 RMK SLP111 T01800150 IEM_DS3505
ZGNN,1995-03-31 00:00,ZGNN 310000Z AUTO 09004KT 14SM 18/14 A2988 RMK 60000 70001 SLP117 T01770144 52016 IEM_DS3505
ZGNN,1995-03-31 01:00,ZGNN 310100Z AUTO 02002KT 7SM 18/15 A2994 RMK SLP131 T01800150 IEM_DS3505
ZGNN,1995-03-31 02:00,ZGNN 310200Z AUTO 08004KT 7SM 19/15 A2994 RMK SLP131 T01900150 IEM_DS3505
ZGNN,1995-03-31 03:00,ZGNN 310300Z AUTO 00000KT 12SM 19/15 A2994 RMK SLP132 T01900146 52015 IEM_DS3505
ZGNN,1995-03-31 06:00,ZGNN 310600Z AUTO 00000KT 12SM 21/16 A2988 RMK SLP114 T02070155 57018 IEM_DS3505
ZGNN,1995-03-31 07:00,ZGNN 310700Z AUTO 01004KT 4SM 20/15 A2988 RMK SLP110 T02000150 IEM_DS3505
ZGNN,1995-03-31 08:00,ZGNN 310800Z AUTO 36004KT 5SM 20/15 A2985 RMK SLP100 T02000150 IEM_DS3505
ZGNN,1995-03-31 09:00,ZGNN 310900Z AUTO 11004KT 12SM 20/15 A2985 RMK SLP100 T01960147 57014 IEM_DS3505
ZGNN,1995-03-31 10:00,ZGNN 311000Z AUTO 06008KT 7SM 20/15 A2985 RMK SLP100 T02000150 IEM_DS3505
ZGNN,1995-03-31 12:00,ZGNN 311200Z AUTO 07004KT 12SM 18/14 A2988 RMK SLP116 T01810143 52016 IEM_DS3505
ZGNN,1995-03-31 13:00,ZGNN 311300Z AUTO 06008KT 7SM 18/15 A2991 RMK SLP121 T01800150 IEM_DS3505
ZGNN,1995-03-31 15:00,ZGNN 311500Z AUTO 09004KT 12SM 17/14 A2998 RMK SLP144 T01730142 52028 IEM_DS3505
ZGNN,1995-03-31 18:00,ZGNN 311800Z AUTO 07002KT 11SM 17/14 A2996 RMK SLP138 T01690141 57006 IEM_DS3505
ZGNN,1995-03-31 21:00,ZGNN 312100Z AUTO 00000KT 11SM 17/14 A2992 RMK SLP124 T01670143 57014 IEM_DS3505
ZGNN,1995-03-31 22:00,ZGNN 312200Z AUTO 00000KT 5SM 16/15 A2991 RMK SLP122 T01600150 IEM_DS3505
ZGNN,1995-03-31 23:00,ZGNN 312300Z AUTO 34006KT 5SM 16/14 A2994 RMK SLP132 T01600140 IEM_DS3505
ZGNN,1995-04-01 00:00,ZGNN 010000Z AUTO 02004KT 9SM 16/14 A2994 RMK SLP139 T01630140 52014 IEM_DS3505
ZGNN,1995-04-01 01:00,ZGNN 010100Z AUTO 01006KT 6SM 16/14 A2997 RMK SLP141 T01600140 IEM_DS3505
ZGNN,1995-04-01 03:00,ZGNN 010300Z AUTO 11002KT 11SM 17/14 A2997 RMK SLP146 T01670143 52007 IEM_DS3505
ZGNN,1995-04-01 06:00,ZGNN 010600Z AUTO 04004KT 12SM 17/14 A2991 RMK SLP123 T01700144 57022 IEM_DS3505
ZGNN,1995-04-01 07:00,ZGNN 010700Z AUTO 06006KT 3SM 17/14 A2988 RMK SLP110 T01700140 IEM_DS3505
ZGNN,1995-04-01 08:00,ZGNN 010800Z AUTO 00000KT 2 1/2SM 17/15 A2988 RMK SLP110 T01700150 IEM_DS3505
ZGNN,1995-04-01 09:00,ZGNN 010900Z AUTO 07004KT 7SM 16/15 A2985 RMK SLP110 T01620150 57014 IEM_DS3505
ZGNN,1995-04-01 10:00,ZGNN 011000Z AUTO 07004KT 2SM 16/15 A2985 RMK SLP101 T01600150 IEM_DS3505
ZGNN,1995-04-01 11:00,ZGNN 011100Z AUTO 04006KT 1 1/2SM 15/15 A2988 RMK SLP111 T01500150 IEM_DS3505
ZGNN,1995-04-01 12:00,ZGNN 011200Z AUTO 11002KT 9SM 16/14 A2988 RMK SLP116 T01600139 52006 IEM_DS3505
ZGNN,1995-04-01 13:00,ZGNN 011300Z AUTO 07004KT 1 1/4SM 15/15 A2991 RMK SLP121 T01500150 IEM_DS3505
ZGNN,1995-04-01 15:00,ZGNN 011500Z AUTO 07004KT 11SM 16/14 A2996 RMK SLP139 T01600141 52023 IEM_DS3505
ZGNN,1995-04-01 18:00,ZGNN 011800Z AUTO 00000KT 5SM 15/14 A2996 RMK 60002 SLP139 T01490144 54000 IEM_DS3505
ZGNN,1995-04-01 21:00,ZGNN 012100Z AUTO 02002KT 4SM 15/15 A2997 RMK 70004 SLP142 T01530148 52003 IEM_DS3505
ZGNN,1995-04-01 22:00,ZGNN 012200Z AUTO 01004KT 3SM 15/15 A2997 RMK SLP141 T01500150 IEM_DS3505
ZGNN,1995-04-01 23:00,ZGNN 012300Z AUTO 35002KT 3SM 15/15 A3000 RMK SLP151 T01500150 IEM_DS3505
ZGNN,1995-04-02 00:00,ZGNN 020000Z AUTO 00000KT 5SM 16/15 A3003 RMK 60004 70008 SLP164 T01560146 52022 IEM_DS3505
ZGNN,1995-04-02 01:00,ZGNN 020100Z AUTO 01004KT 3SM 15/15 A3006 RMK SLP171 T01500150 IEM_DS3505
ZGNN,1995-04-02 02:00,ZGNN 020200Z AUTO 01006KT 4SM 15/14 A3009 RMK SLP182 T01500140 IEM_DS3505
ZGNN,1995-04-02 03:00,ZGNN 020300Z AUTO 32002KT 6SM 16/15 A3009 RMK SLP182 T01620148 52018 IEM_DS3505
ZGNN,1995-04-02 06:00,ZGNN 020600Z AUTO 04004KT 9SM 17/14 A3006 RMK 60000 SLP172 T01670143 57010 IEM_DS3505
ZGNN,1995-04-02 07:00,ZGNN 020700Z AUTO 02004KT 7SM 17/14 A3003 RMK SLP161 T01700140 IEM_DS3505
ZGNN,1995-04-02 08:00,ZGNN 020800Z AUTO 01006KT 7SM 17/14 A3003 RMK SLP161 T01700140 IEM_DS3505
ZGNN,1995-04-02 09:00,ZGNN 020900Z AUTO 00000KT 12SM 17/14 A3000 RMK SLP157 T01730145 57015 IEM_DS3505
ZGNN,1995-04-02 10:00,ZGNN 021000Z AUTO 06004KT 6SM 17/15 A3003 RMK SLP161 T01700150 IEM_DS3505
ZGNN,1995-04-02 11:00,ZGNN 021100Z AUTO 00000KT 6SM 16/15 A3003 RMK SLP161 T01600150 IEM_DS3505
ZGNN,1995-04-02 12:00,ZGNN 021200Z AUTO 00000KT 9SM 17/14 A3006 RMK SLP166 T01700144 52009 IEM_DS3505
ZGNN,1995-04-02 13:00,ZGNN 021300Z AUTO 00000KT 6SM 16/15 A3009 RMK SLP181 T01600150 IEM_DS3505
ZGNN,1995-04-02 15:00,ZGNN 021500Z AUTO 00000KT 9SM 17/14 A3011 RMK SLP189 T01670143 52023 IEM_DS3505
ZGNN,1995-04-02 18:00,ZGNN 021800Z AUTO 00000KT 8SM 17/15 A3012 RMK 60000 SLP192 T01670146 52003 IEM_DS3505
ZGNN,1995-04-02 21:00,ZGNN 022100Z AUTO 00000KT 7SM 16/14 A3009 RMK 70002 SLP183 T01630142 57009 IEM_DS3505
ZGNN,1995-04-02 22:00,ZGNN 022200Z AUTO 00000KT 6SM 16/14 A3012 RMK SLP192 T01600140 IEM_DS3505
ZGNN,1995-04-02 23:00,ZGNN 022300Z AUTO 00000KT 5SM 16/14 A3012 RMK SLP192 T01600140 IEM_DS3505
ZGNN,1995-04-03 00:00,ZGNN 030000Z AUTO 00000KT 9SM 16/13 A3015 RMK 60000 70002 SLP206 T01610134 52023 IEM_DS3505
ZGNN,1995-04-03 01:00,ZGNN 030100Z AUTO 06004KT 6SM 16/13 A3018 RMK SLP212 T01600130 IEM_DS3505
ZGNN,1995-04-03 02:00,ZGNN 030200Z AUTO 09004KT 6SM 16/12 A3021 RMK SLP223 T01600120 IEM_DS3505
ZGNN,1995-04-03 03:00,ZGNN 030300Z AUTO 04004KT 9SM 17/12 A3021 RMK SLP222 T01700121 52016 IEM_DS3505
ZGNN,1995-04-03 06:00,ZGNN 030600Z AUTO 09004KT 9SM 17/12 A3012 RMK SLP189 T01680121 57033 IEM_DS3505
ZGNN,1995-04-03 07:00,ZGNN 030700Z AUTO 08006KT 4SM 16/12 A3009 RMK SLP181 T01600120 IEM_DS3505
ZGNN,1995-04-03 08:00,ZGNN 030800Z AUTO 08004KT 4SM 16/13 A3006 RMK SLP171 T01600130 IEM_DS3505
ZGNN,1995-04-03 09:00,ZGNN 030900Z AUTO 04004KT 9SM 16/12 A3003 RMK SLP166 T01630125 57023 IEM_DS3505
ZGNN,1995-04-03 10:00,ZGNN 031000Z AUTO 00000KT 3SM 15/13 A3006 RMK SLP171 T01500130 IEM_DS3505
ZGNN,1995-04-03 11:00,ZGNN 031100Z AUTO 07004KT 1 1/2SM 15/13 A3006 RMK SLP171 T01500130 IEM_DS3505
ZGNN,1995-04-03 12:00,ZGNN 031200Z AUTO 09002KT 7SM 15/14 A3006 RMK SLP171 T01480143 52005 IEM_DS3505
ZGNN,1995-04-03 13:00,ZGNN 031300Z AUTO 09004KT 1 1/4SM 14/14 A3006 RMK SLP172 T01400140 IEM_DS3505
ZGNN,1995-04-03 14:00,ZGNN 031400Z AUTO 05006KT 1 1/4SM 14/14 A3009 RMK SLP182 T01400140 IEM_DS3505
ZGNN,1995-04-03 15:00,ZGNN 031500Z AUTO 09002KT 7SM 14/14 A3008 RMK SLP180 T01440139 52009 IEM_DS3505
ZGNN,1995-04-03 18:00,ZGNN 031800Z AUTO 04002KT 5SM 14/14 A3004 RMK 60001 SLP164 T01450140 57016 IEM_DS3505
ZGNN,1995-04-03 21:00,ZGNN 032100Z AUTO 04004KT 5SM 14/14 A3001 RMK 70002 SLP153 T01440140 57011 IEM_DS3505
ZGNN,1995-04-03 22:00,ZGNN 032200Z AUTO 08002KT 2 1/2SM 14/14 A3000 RMK SLP152 T01400140 IEM_DS3505
ZGNN,1995-04-03 23:00,ZGNN 032300Z AUTO 00000KT 1 1/2SM 15/14 A3003 RMK SLP161 T01500140 IEM_DS3505
ZGNN,1995-04-04 00:00,ZGNN 040000Z AUTO 00000KT 4SM 15/14 A3003 RMK 60002 70004 SLP164 T01470142 52011 IEM_DS3505
ZGNN,1995-04-04 01:00,ZGNN 040100Z AUTO 08004KT 1 1/2SM 15/14 A3006 RMK SLP171 T01500140 IEM_DS3505
ZGNN,1995-04-04 02:00,ZGNN 040200Z AUTO 11006KT 6SM 15/14 A3006 RMK SLP171 T01500140 IEM_DS3505
ZGNN,1995-04-04 03:00,ZGNN 040300Z AUTO 00000KT 6SM 16/15 A3006 RMK SLP175 T01570147 52011 IEM_DS3505
ZGNN,1995-04-04 06:00,ZGNN 040600Z AUTO 07004KT 6SM 16/15 A3000 RMK 60004 SLP147 T01580151 57028 IEM_DS3505
ZGNN,1995-04-04 07:00,ZGNN 040700Z AUTO 10004KT 3SM 16/15 A2997 RMK SLP141 T01600150 IEM_DS3505
ZGNN,1995-04-04 08:00,ZGNN 040800Z AUTO 08006KT 7SM 16/15 A2994 RMK SLP131 T01600150 IEM_DS3505
ZGNN,1995-04-04 09:00,ZGNN 040900Z AUTO 07004KT 9SM 16/15 A2991 RMK SLP124 T01610154 57023 IEM_DS3505
ZGNN,1995-04-04 10:00,ZGNN 041000Z AUTO 08006KT 3SM 16/15 A2991 RMK SLP121 T01600150 IEM_DS3505
ZGNN,1995-04-04 11:00,ZGNN 041100Z AUTO 10004KT 6SM 16/15 A2991 RMK SLP121 T01600150 IEM_DS3505
ZGNN,1995-04-04 12:00,ZGNN 041200Z AUTO 14002KT 7SM 16/15 A2994 RMK 60000 SLP132 T01550148 52008 IEM_DS3505
ZGNN,1995-04-04 15:00,ZGNN 041500Z AUTO 09002KT 4SM RMK SLP145 52013 IEM_DS3505
ZGNN,1995-04-04 18:00,ZGNN 041800Z AUTO 00000KT 4SM 15/15 A2995 RMK 60002 SLP135 T01530150 57010 IEM_DS3505
ZGNN,1995-04-04 21:00,ZGNN 042100Z AUTO 00000KT 3SM 16/15 A2995 RMK 70012 SLP133 T01550152 57002 IEM_DS3505
ZGNN,1995-04-04 22:00,ZGNN 042200Z AUTO 00000KT 2 1/2SM 15/15 A2997 RMK SLP141 T01500150 IEM_DS3505
ZGNN,1995-04-05 00:00,ZGNN 050000Z AUTO 00000KT 4SM 16/16 A3000 RMK 60008 70012 SLP157 T01580155 52024 IEM_DS3505
ZGNN,1995-04-05 01:00,ZGNN 050100Z AUTO 00000KT 1 1/4SM 16/16 A3003 RMK SLP161 T01600160 IEM_DS3505
ZGNN,1995-04-05 02:00,ZGNN 050200Z AUTO 06004KT 2SM 16/16 A3006 RMK SLP171 T01600160 IEM_DS3505
ZGNN,1995-04-05 03:00,ZGNN 050300Z AUTO 07002KT 4SM 16/16 A3006 RMK SLP168 T01630156 52011 IEM_DS3505
ZGNN,1995-04-05 06:00,ZGNN 050600Z AUTO 00000KT 5SM 17/16 A3000 RMK 60004 SLP151 T01730165 57017 IEM_DS3505
ZGNN,1995-04-05 07:00,ZGNN 050700Z AUTO 06002KT 1 1/2SM 17/17 A2997 RMK SLP141 T01700170 IEM_DS3505
ZGNN,1995-04-05 08:00,ZGNN 050800Z AUTO 08006KT 1 1/2SM 17/17 A2997 RMK SLP141 T01700170 IEM_DS3505
ZGNN,1995-04-05 09:00,ZGNN 050900Z AUTO 00000KT 6SM 17/16 A2994 RMK SLP135 T01700165 57016 IEM_DS3505
ZGNN,1995-04-05 10:00,ZGNN 051000Z AUTO 09004KT 1 1/2SM 17/17 A2994 RMK SLP130 T01700170 IEM_DS3505
ZGNN,1995-04-05 11:00,ZGNN 051100Z AUTO 09002KT 1 1/4SM 17/16 A2994 RMK SLP130 T01700160 IEM_DS3505
ZGNN,1995-04-05 12:00,ZGNN 051200Z AUTO 00000KT 5SM 16/16 A2997 RMK 60004 SLP143 T01640159 52008 IEM_DS3505
ZGNN,1995-04-05 14:00,ZGNN 051400Z AUTO 00000KT 2SM 16/16 A3003 RMK SLP161 T01600160 IEM_DS3505
ZGNN,1995-04-05 15:00,ZGNN 051500Z AUTO 00000KT 4SM 16/16 A3003 RMK SLP161 T01640159 52018 IEM_DS3505
ZGNN,1995-04-05 16:00,ZGNN 051600Z AUTO 00000KT 1 1/4SM 16/16 A3003 RMK SLP161 T01600160 IEM_DS3505
ZGNN,1995-04-05 18:00,ZGNN 051800Z AUTO 00000KT 3SM 16/16 A3001 RMK 60002 SLP155 T01640159 57006 IEM_DS3505
ZGNN,1995-04-05 21:00,ZGNN 052100Z AUTO 00000KT 3SM 17/16 A3000 RMK 70012 SLP155 T01660163 54000 IEM_DS3505
ZGNN,1995-04-05 22:00,ZGNN 052200Z AUTO 04002KT 2 1/2SM 16/16 A3003 RMK SLP161 T01600160 IEM_DS3505
ZGNN,1995-04-05 23:00,ZGNN 052300Z AUTO 00000KT 1 1/2SM 16/16 A3003 RMK SLP161 T01600160 IEM_DS3505
ZGNN,1995-04-06 00:00,ZGNN 060000Z AUTO 00000KT 4SM 16/16 A3006 RMK 60004 70012 SLP172 T01650162 52017 IEM_DS3505
ZGNN,1995-04-06 01:00,ZGNN 060100Z AUTO 00000KT 1 1/2SM 17/16 A3009 RMK SLP181 T01700160 IEM_DS3505
ZGNN,1995-04-06 02:00,ZGNN 060200Z AUTO 35004KT 1 1/2SM 17/17 A3012 RMK SLP192 T01700170 IEM_DS3505
ZGNN,1995-04-06 03:00,ZGNN 060300Z AUTO 00000KT 5SM 18/17 A3012 RMK SLP186 T01760169 52014 IEM_DS3505
ZGNN,1995-04-06 06:00,ZGNN 060600Z AUTO 00000KT 9SM 19/16 A3003 RMK 60004 SLP159 T01890164 57027 IEM_DS3505
ZGNN,1995-04-06 07:00,ZGNN 060700Z AUTO 00000KT 7SM 19/16 A3003 RMK SLP160 T01900160 IEM_DS3505
ZGNN,1995-04-06 08:00,ZGNN 060800Z AUTO 35004KT 7SM 19/16 A3000 RMK SLP150 T01900160 IEM_DS3505
ZGNN,1995-04-06 09:00,ZGNN 060900Z AUTO 00000KT 9SM 19/16 A2997 RMK SLP144 T01930163 57014 IEM_DS3505
ZGNN,1995-04-06 10:00,ZGNN 061000Z AUTO 00000KT 7SM 19/17 A2997 RMK SLP140 T01900170 IEM_DS3505
ZGNN,1995-04-06 11:00,ZGNN 061100Z AUTO 00000KT 7SM 18/16 A3000 RMK SLP150 T01800160 IEM_DS3505
ZGNN,1995-04-06 12:00,ZGNN 061200Z AUTO 00000KT 5SM 18/17 A3003 RMK 60004 SLP155 T01840169 52010 IEM_DS3505
ZGNN,1995-04-06 13:00,ZGNN 061300Z AUTO 00000KT 7SM 18/17 A3000 RMK SLP150 T01800170 IEM_DS3505
ZGNN,1995-04-06 14:00,ZGNN 061400Z AUTO 00000KT 7SM 18/16 A3000 RMK SLP150 T01800160 IEM_DS3505
ZGNN,1995-04-06 15:00,ZGNN 061500Z AUTO 00000KT 6SM 18/17 A3000 RMK SLP150 T01770167 57004 IEM_DS3505
ZGNN,1995-04-06 18:00,ZGNN 061800Z AUTO 00000KT 2SM 17/16 A2997 RMK SLP141 T01720164 57009 IEM_DS3505
ZGNN,1995-04-06 21:00,ZGNN 062100Z AUTO 00000KT 2SM 17/16 A2994 RMK 70012 SLP129 T01690162 57012 IEM_DS3505
ZGNN,1995-04-06 22:00,ZGNN 062200Z AUTO 00000KT 2 1/2SM 16/16 A2994 RMK SLP131 T01600160 IEM_DS3505
ZGNN,1995-04-06 23:00,ZGNN 062300Z AUTO 00000KT 1 1/2SM 17/16 A2997 RMK SLP141 T01700160 IEM_DS3505
ZGNN,1995-04-07 00:00,ZGNN 070000Z AUTO 00000KT 4SM 18/17 A2997 RMK 70008 SLP140 T01760166 52011 IEM_DS3505
ZGNN,1995-04-07 01:00,ZGNN 070100Z AUTO 00000KT 2SM 18/17 A2997 RMK SLP140 T01800170 IEM_DS3505
ZGNN,1995-04-07 02:00,ZGNN 070200Z AUTO 00000KT 2 1/2SM 19/17 A3000 RMK SLP150 T01900170 IEM_DS3505
ZGNN,1995-04-07 03:00,ZGNN 070300Z AUTO 00000KT 7SM 20/17 A2997 RMK SLP140 T01970169 54000 IEM_DS3505
ZGNN,1995-04-07 06:00,ZGNN 070600Z AUTO 09002KT 9SM 22/16 A2988 RMK SLP113 T02170165 57027 IEM_DS3505
ZGNN,1995-04-07 07:00,ZGNN 070700Z AUTO 11004KT 7SM 23/17 A2985 RMK SLP098 T02300170 IEM_DS3505
ZGNN,1995-04-07 08:00,ZGNN 070800Z AUTO 04006KT 7SM 22/17 A2983 RMK SLP092 T02200170 IEM_DS3505
ZGNN,1995-04-07 09:00,ZGNN 070900Z AUTO 09004KT 9SM 22/17 A2983 RMK SLP089 T02150173 57024 IEM_DS3505
ZGNN,1995-04-07 10:00,ZGNN 071000Z AUTO 07006KT 7SM 21/18 A2983 RMK SLP092 T02100180 IEM_DS3505
ZGNN,1995-04-07 11:00,ZGNN 071100Z AUTO 09004KT 7SM 21/18 A2983 RMK SLP092 T02100180 IEM_DS3505
ZGNN,1995-04-07 12:00,ZGNN 071200Z AUTO 07002KT 9SM 20/18 A2983 RMK SLP094 T02010182 52005 IEM_DS3505
ZGNN,1995-04-07 13:00,ZGNN 071300Z AUTO 00000KT 7SM 20/19 A2985 RMK SLP099 T02000190 IEM_DS3505
ZGNN,1995-04-07 15:00,ZGNN 071500Z AUTO 00000KT 9SM 20/19 A2987 RMK SLP107 T02030192 52014 IEM_DS3505
ZGNN,1995-04-07 18:00,ZGNN 071800Z AUTO 07002KT 4SM 19/19 A2983 RMK 60000 SLP092 T01940191 57015 IEM_DS3505
ZGNN,1995-04-07 21:00,ZGNN 072100Z AUTO 00000KT 2 1/2SM 19/19 A2983 RMK 70000 SLP091 T01940191 57001 IEM_DS3505
ZGNN,1995-04-07 22:00,ZGNN 072200Z AUTO 11004KT 3SM 20/19 A2983 RMK SLP092 T02000190 IEM_DS3505
ZGNN,1995-04-07 23:00,ZGNN 072300Z AUTO 12004KT 4SM 20/19 A2983 RMK SLP092 T02000190 IEM_DS3505
ZGNN,1995-04-08 00:00,ZGNN 080000Z AUTO 00000KT 2SM 20/20 A2985 RMK SLP103 T01980196 52012 IEM_DS3505
ZGNN,1995-04-08 01:00,ZGNN 080100Z AUTO 15006KT 6SM 20/19 A2988 RMK SLP109 T02000190 IEM_DS3505
ZGNN,1995-04-08 02:00,ZGNN 080200Z AUTO 14006KT 7SM 21/20 A2988 RMK SLP109 T02100200 IEM_DS3505
ZGNN,1995-04-08 03:00,ZGNN 080300Z AUTO 18002KT 6SM 21/20 A2988 RMK SLP111 T02080202 52008 IEM_DS3505
ZGNN,1995-04-08 06:00,ZGNN 080600Z AUTO 25006KT 5SM 21/20 A2985 RMK 60012 SLP098 T02060200 57013 IEM_DS3505
ZGNN,1995-04-08 07:00,ZGNN 080700Z AUTO 15004KT 7SM 22/20 A2977 RMK SLP071 T02200200 IEM_DS3505
ZGNN,1995-04-08 08:00,ZGNN 080800Z AUTO 18004KT 7SM 23/20 A2977 RMK SLP071 T02300200 IEM_DS3505
ZGNN,1995-04-08 09:00,ZGNN 080900Z AUTO 00000KT 11SM 24/21 A2977 RMK SLP065 T02350209 57033 IEM_DS3505
ZGNN,1995-04-08 10:00,ZGNN 081000Z AUTO 14008KT 7SM 23/21 A2977 RMK SLP071 T02300210 IEM_DS3505
ZGNN,1995-04-08 12:00,ZGNN 081200Z AUTO 00000KT 9SM 22/21 A2983 RMK 60012 SLP089 T02220211 52024 IEM_DS3505
ZGNN,1995-04-08 13:00,ZGNN 081300Z AUTO 00000KT 7SM 21/20 A2985 RMK SLP099 T02100200 IEM_DS3505
ZGNN,1995-04-08 15:00,ZGNN 081500Z AUTO 09002KT 9SM 21/20 A2987 RMK SLP106 T02060203 52017 IEM_DS3505
ZGNN,1995-04-08 18:00,ZGNN 081800Z AUTO 00000KT 6SM 20/20 A2988 RMK SLP110 T02020200 52004 IEM_DS3505
ZGNN,1995-04-08 21:00,ZGNN 082100Z AUTO 00000KT 7SM 20/20 A2988 RMK 70024 SLP110 T02040202 54000 IEM_DS3505
ZGNN,1995-04-08 22:00,ZGNN 082200Z AUTO 04004KT 3/8SM 20/20 A2991 RMK SLP119 T02000200 IEM_DS3505
ZGNN,1995-04-08 23:00,ZGNN 082300Z AUTO 00000KT 3/8SM 20/20 A2994 RMK SLP130 T02000200 IEM_DS3505
ZGNN,1995-04-09 00:00,ZGNN 090000Z AUTO 00000KT 6SM 21/21 A2997 RMK 70024 SLP135 T02090206 52025 IEM_DS3505
ZGNN,1995-04-09 01:00,ZGNN 090100Z AUTO 00000KT 1/2SM 21/21 A3000 RMK SLP149 T02100210 IEM_DS3505
ZGNN,1995-04-09 02:00,ZGNN 090200Z AUTO 00000KT 1SM 21/21 A3000 RMK SLP149 T02100210 IEM_DS3505
ZGNN,1995-04-09 03:00,ZGNN 090300Z AUTO 00000KT 7SM 23/21 A3000 RMK SLP148 T02280214 52013 IEM_DS3505
ZGNN,1995-04-09 06:00,ZGNN 090600Z AUTO 00000KT 9SM 27/22 A2994 RMK SLP120 T02710215 57027 IEM_DS3505
ZGNN,1995-04-09 07:00,ZGNN 090700Z AUTO 00000KT 7SM 27/21 A2991 RMK SLP117 T02700210 IEM_DS3505
ZGNN,1995-04-09 08:00,ZGNN 090800Z AUTO 36004KT 7SM 27/21 A2991 RMK SLP117 T02700210 IEM_DS3505
ZGNN,1995-04-09 09:00,ZGNN 090900Z AUTO 00000KT 12SM 27/22 A2991 RMK SLP111 T02730217 57009 IEM_DS3505
ZGNN,1995-04-09 10:00,ZGNN 091000Z AUTO 00000KT 7SM 26/22 A2991 RMK SLP118 T02600220 IEM_DS3505
ZGNN,1995-04-09 12:00,ZGNN 091200Z AUTO 00000KT 12SM 25/22 A2995 RMK SLP132 T02460224 52020 IEM_DS3505
ZGNN,1995-04-09 15:00,ZGNN 091500Z AUTO 00000KT 12SM 23/22 A2999 RMK SLP146 T02300220 52014 IEM_DS3505
ZGNN,1995-04-09 18:00,ZGNN 091800Z AUTO 20002KT 12SM 23/22 A2998 RMK SLP140 T02280218 57005 IEM_DS3505
ZGNN,1995-04-09 21:00,ZGNN 092100Z AUTO 00000KT 12SM 22/20 A2996 RMK SLP136 T02190205 57004 IEM_DS3505
ZGNN,1995-04-10 00:00,ZGNN 100000Z AUTO 00000KT 10SM 22/21 A3003 RMK SLP158 T02230211 52021 IEM_DS3505
ZGNN,1995-04-10 01:00,ZGNN 100100Z AUTO 20004KT 3SM 22/21 A3003 RMK SLP159 T02200210 IEM_DS3505
ZGNN,1995-04-10 03:00,ZGNN 100300Z AUTO 25002KT 14SM 26/22 A3003 RMK SLP158 T02620224 54000 IEM_DS3505
ZGNN,1995-04-10 04:00,ZGNN 100400Z AUTO 13008KT 7SM 28/20 A3000 RMK SLP147 T02800200 IEM_DS3505
ZGNN,1995-04-10 06:00,ZGNN 100600Z AUTO 22004KT 16SM 29/22 A2994 RMK SLP123 T02920220 57034 IEM_DS3505
ZGNN,1995-04-10 07:00,ZGNN 100700Z AUTO 12008KT 7SM 30/20 A2991 RMK SLP117 T03000200 IEM_DS3505
ZGNN,1995-04-10 09:00,ZGNN 100900Z AUTO 18004KT 16SM 29/22 A2985 RMK SLP104 T02930215 57019 IEM_DS3505
ZGNN,1995-04-10 10:00,ZGNN 101000Z AUTO 14008KT 7SM 29/21 A2988 RMK SLP107 T02900210 IEM_DS3505
ZGNN,1995-04-10 12:00,ZGNN 101200Z AUTO 11002KT 16SM 26/21 A2991 RMK SLP117 T02650213 52013 IEM_DS3505
ZGNN,1995-04-10 13:00,ZGNN 101300Z AUTO 09004KT 6SM 25/21 A2991 RMK SLP118 T02500210 IEM_DS3505
ZGNN,1995-04-10 14:00,ZGNN 101400Z AUTO 06004KT 7SM 24/22 A2994 RMK SLP128 T02400220 IEM_DS3505
ZGNN,1995-04-10 15:00,ZGNN 101500Z AUTO 00000KT 16SM 25/21 A2997 RMK SLP135 T02460213 52018 IEM_DS3505
ZGNN,1995-04-10 18:00,ZGNN 101800Z AUTO 00000KT 16SM 23/21 A2995 RMK SLP130 T02290208 57005 IEM_DS3505
ZGNN,1995-04-10 21:00,ZGNN 102100Z AUTO 00000KT 16SM 22/21 A2993 RMK SLP126 T02190210 57004 IEM_DS3505
ZGNN,1995-04-10 22:00,ZGNN 102200Z AUTO 00000KT 7SM 21/21 A2994 RMK SLP129 T02100210 IEM_DS3505
ZGNN,1995-04-10 23:00,ZGNN 102300Z AUTO 00000KT 2 1/2SM 21/21 A3000 RMK SLP149 T02100210 IEM_DS3505
ZGNN,1995-04-11 00:00,ZGNN 110000Z AUTO 00000KT 11SM 22/21 A3000 RMK SLP149 T02250208 52023 IEM_DS3505
ZGNN,1995-04-11 01:00,ZGNN 110100Z AUTO 18004KT 7SM 22/21 A3003 RMK SLP159 T02200210 IEM_DS3505
ZGNN,1995-04-11 03:00,ZGNN 110300Z AUTO 00000KT 16SM 25/21 A3003 RMK SLP160 T02470214 52010 IEM_DS3505
ZGNN,1995-04-11 06:00,ZGNN 110600Z AUTO 02004KT 16SM 27/22 A2994 RMK SLP134 T02680218 57025 IEM_DS3505
ZGNN,1995-04-11 07:00,ZGNN 110700Z AUTO 12006KT 7SM 28/20 A2994 RMK SLP127 T02800200 IEM_DS3505
ZGNN,1995-04-11 08:00,ZGNN 110800Z AUTO 15006KT 7SM 27/20 A2991 RMK SLP117 T02700200 IEM_DS3505
ZGNN,1995-04-11 09:00,ZGNN 110900Z AUTO 16002KT 16SM 26/21 A2988 RMK SLP111 T02640210 57023 IEM_DS3505
ZGNN,1995-04-11 10:00,ZGNN 111000Z AUTO 16006KT 7SM 26/21 A2991 RMK SLP118 T02600210 IEM_DS3505
ZGNN,1995-04-11 11:00,ZGNN 111100Z AUTO 16006KT 7SM 25/21 A2991 RMK SLP118 T02500210 IEM_DS3505
ZGNN,1995-04-11 12:00,ZGNN 111200Z AUTO 00000KT 16SM 25/21 A2994 RMK SLP132 T02510212 52020 IEM_DS3505
ZGNN,1995-04-11 15:00,ZGNN 111500Z AUTO 00000KT 12SM 24/22 A2998 RMK SLP142 T02440222 52011 IEM_DS3505
ZGNN,1995-04-11 18:00,ZGNN 111800Z AUTO 00000KT 11SM 23/21 A2997 RMK 60000 SLP137 T02270213 57005 IEM_DS3505
ZGNN,1995-04-11 21:00,ZGNN 112100Z AUTO 09004KT 12SM 22/22 A2992 RMK 70002 SLP121 T02230215 57016 IEM_DS3505
ZGNN,1995-04-11 23:00,ZGNN 112300Z AUTO 15004KT 2 1/2SM 22/21 A2994 RMK SLP129 T02200210 IEM_DS3505
ZGNN,1995-04-12 00:00,ZGNN 120000Z AUTO 00000KT 11SM 23/21 A2995 RMK 60001 70002 SLP134 T02280214 52012 IEM_DS3505
ZGNN,1995-04-12 01:00,ZGNN 120100Z AUTO 14006KT 2 1/2SM 23/21 A2997 RMK SLP139 T02300210 IEM_DS3505
ZGNN,1995-04-12 02:00,ZGNN 120200Z AUTO 14006KT 3SM 23/22 A2997 RMK SLP139 T02300220 IEM_DS3505
ZGNN,1995-04-12 03:00,ZGNN 120300Z AUTO 25002KT 12SM 24/22 A2997 RMK SLP139 T02350216 52005 IEM_DS3505
ZGNN,1995-04-12 06:00,ZGNN 120600Z AUTO 00000KT 16SM 23/22 A2988 RMK 60012 SLP107 T02280221 57032 IEM_DS3505
ZGNN,1995-04-12 08:00,ZGNN 120800Z AUTO 15010KT 7SM 25/22 A2980 RMK SLP081 T02500220 IEM_DS3505
ZGNN,1995-04-12 09:00,ZGNN 120900Z AUTO 22004KT 16SM 24/22 A2977 RMK SLP069 T02450220 57037 IEM_DS3505
ZGNN,1995-04-12 12:00,ZGNN 121200Z AUTO 34002KT 16SM 25/22 A2977 RMK 60000 SLP075 T02460215 52006 IEM_DS3505
ZGNN,1995-04-12 15:00,ZGNN 121500Z AUTO 22006KT 14SM 24/22 A2983 RMK SLP090 T02430215 52015 IEM_DS3505
ZGNN,1995-04-12 18:00,ZGNN 121800Z AUTO 25002KT 12SM 24/22 A2979 RMK SLP077 T02350216 57013 IEM_DS3505
ZGNN,1995-04-12 21:00,ZGNN 122100Z AUTO 00000KT 12SM 23/22 A2974 RMK 70012 SLP068 T02300218 57009 IEM_DS3505
ZGNN,1995-04-12 22:00,ZGNN 122200Z AUTO 15006KT 7SM 22/21 A2977 RMK SLP071 T02200210 IEM_DS3505
ZGNN,1995-04-12 23:00,ZGNN 122300Z AUTO 15010KT 7SM 23/21 A2977 RMK SLP071 T02300210 IEM_DS3505
ZGNN,1995-04-13 00:00,ZGNN 130000Z AUTO 22004KT 11SM 23/22 A2980 RMK 70012 SLP074 T02340216 52006 IEM_DS3505
ZGNN,1995-04-13 01:00,ZGNN 130100Z AUTO 18012KT 7SM 24/22 A2983 RMK SLP091 T02400220 IEM_DS3505
ZGNN,1995-04-13 03:00,ZGNN 130300Z AUTO 18006KT 12SM 26/22 A2980 RMK SLP079 T02610217 52005 IEM_DS3505
ZGNN,1995-04-13 04:00,ZGNN 130400Z AUTO 18008KT 7SM 28/22 A2977 RMK SLP070 T02800220 IEM_DS3505
ZGNN,1995-04-13 06:00,ZGNN 130600Z AUTO 27008KT 14SM 28/22 A2971 RMK SLP047 T02800223 57031 IEM_DS3505
ZGNN,1995-04-13 07:00,ZGNN 130700Z AUTO 20008KT 7SM 29/21 A2968 RMK SLP039 T02900210 IEM_DS3505
ZGNN,1995-04-13 08:00,ZGNN 130800Z AUTO 15004KT 7SM 29/22 A2965 RMK SLP029 T02900220 IEM_DS3505
ZGNN,1995-04-13 09:00,ZGNN 130900Z AUTO 27004KT 12SM 28/23 A2965 RMK SLP027 T02850229 57020 IEM_DS3505
ZGNN,1995-04-13 10:00,ZGNN 131000Z AUTO 15008KT 7SM 28/22 A2965 RMK SLP029 T02800220 IEM_DS3505
ZGNN,1995-04-13 12:00,ZGNN 131200Z AUTO 22006KT 12SM 26/22 A2968 RMK SLP033 T02600220 52006 IEM_DS3505
ZGNN,1995-04-13 13:00,ZGNN 131300Z AUTO 16004KT 6SM 24/22 A2968 RMK SLP041 T02400220 IEM_DS3505
ZGNN,1995-04-13 14:00,ZGNN 131400Z AUTO 00000KT 6SM 24/22 A2974 RMK SLP061 T02400220 IEM_DS3505
ZGNN,1995-04-13 15:00,ZGNN 131500Z AUTO 00000KT 11SM 25/22 A2975 RMK SLP064 T02470222 52030 IEM_DS3505
ZGNN,1995-04-13 18:00,ZGNN 131800Z AUTO 00000KT 12SM 24/22 A2972 RMK SLP053 T02370224 57010 IEM_DS3505
ZGNN,1995-04-13 21:00,ZGNN 132100Z AUTO 02002KT 10SM 24/22 A2972 RMK SLP053 T02370224 54000 IEM_DS3505
ZGNN,1995-04-13 22:00,ZGNN 132200Z AUTO 00000KT 5SM 22/22 A2974 RMK SLP061 T02200220 IEM_DS3505
ZGNN,1995-04-14 00:00,ZGNN 140000Z AUTO 07002KT 12SM 24/22 A2977 RMK SLP076 T02390224 52022 IEM_DS3505
ZGNN,1995-04-14 01:00,ZGNN 140100Z AUTO 00000KT 7SM 25/23 A2980 RMK SLP081 T02500230 IEM_DS3505
ZGNN,1995-04-14 02:00,ZGNN 140200Z AUTO 20004KT 6SM 27/23 A2980 RMK SLP080 T02700230 IEM_DS3505
ZGNN,1995-04-14 03:00,ZGNN 140300Z AUTO 04004KT 16SM 28/24 A2980 RMK SLP076 T02840235 52001 IEM_DS3505
ZGNN,1995-04-14 06:00,ZGNN 140600Z AUTO 18004KT 19SM 31/24 A2971 RMK SLP053 T03120241 57023 IEM_DS3505
ZGNN,1995-04-14 07:00,ZGNN 140700Z AUTO 00000KT 7SM 32/24 A2968 RMK SLP038 T03200240 IEM_DS3505
ZGNN,1995-04-14 08:00,ZGNN 140800Z AUTO 15004KT 7SM 32/24 A2968 RMK SLP038 T03200240 IEM_DS3505
ZGNN,1995-04-14 09:00,ZGNN 140900Z AUTO 04004KT 19SM 31/25 A2965 RMK SLP036 T03140250 57017 IEM_DS3505
ZGNN,1995-04-14 10:00,ZGNN 141000Z AUTO 14010KT 7SM 30/24 A2965 RMK SLP029 T03000240 IEM_DS3505
ZGNN,1995-04-14 11:00,ZGNN 141100Z AUTO 14008KT 7SM 28/24 A2965 RMK SLP029 T02800240 IEM_DS3505
ZGNN,1995-04-14 12:00,ZGNN 141200Z AUTO 07004KT 19SM 28/24 A2968 RMK SLP045 T02750238 52009 IEM_DS3505
ZGNN,1995-04-14 13:00,ZGNN 141300Z AUTO 14006KT 7SM 26/23 A2971 RMK SLP050 T02600230 IEM_DS3505
ZGNN,1995-04-14 15:00,ZGNN 141500Z AUTO 07004KT 16SM 25/23 A2976 RMK SLP069 T02540232 52024 IEM_DS3505
ZGNN,1995-04-14 18:00,ZGNN 141800Z AUTO 04004KT 16SM 24/23 A2974 RMK SLP059 T02390227 57010 IEM_DS3505
ZGNN,1995-04-14 21:00,ZGNN 142100Z AUTO 07004KT 12SM 24/22 A2973 RMK SLP056 T02350223 57003 IEM_DS3505
ZGNN,1995-04-14 22:00,ZGNN 142200Z AUTO 00000KT 2 1/2SM 22/21 A2974 RMK SLP061 T02200210 IEM_DS3505
ZGNN,1995-04-14 23:00,ZGNN 142300Z AUTO 00000KT 2SM 22/22 A2977 RMK SLP071 T02200220 IEM_DS3505
ZGNN,1995-04-15 00:00,ZGNN 150000Z AUTO 07004KT 7SM 24/22 A2980 RMK SLP077 T02370224 52020 IEM_DS3505
ZGNN,1995-04-15 02:00,ZGNN 150200Z AUTO 18004KT 7SM 27/24 A2983 RMK SLP090 T02700240 IEM_DS3505
ZGNN,1995-04-15 03:00,ZGNN 150300Z AUTO 22002KT 9SM 29/24 A2980 RMK SLP080 T02910240 52004 IEM_DS3505
ZGNN,1995-04-15 06:00,ZGNN 150600Z AUTO 18004KT 16SM 32/25 A2974 RMK SLP053 T03230246 57027 IEM_DS3505
ZGNN,1995-04-15 07:00,ZGNN 150700Z AUTO 18006KT 7SM 34/24 A2968 RMK SLP038 T03400240 IEM_DS3505
ZGNN,1995-04-15 08:00,ZGNN 150800Z AUTO 11004KT 7SM 35/23 A2965 RMK SLP028 T03500230 IEM_DS3505
ZGNN,1995-04-15 09:00,ZGNN 150900Z AUTO 16004KT 19SM 34/24 A2965 RMK SLP025 T03390245 57027 IEM_DS3505
ZGNN,1995-04-15 12:00,ZGNN 151200Z AUTO 18004KT 17SM 28/24 A2970 RMK SLP046 T02790236 52020 IEM_DS3505
ZGNN,1995-04-15 13:00,ZGNN 151300Z AUTO 14006KT 7SM 26/24 A2971 RMK SLP050 T02600240 IEM_DS3505
ZGNN,1995-04-15 14:00,ZGNN 151400Z AUTO 13008KT 7SM 25/23 A2974 RMK SLP061 T02500230 IEM_DS3505
ZGNN,1995-04-15 15:00,ZGNN 151500Z AUTO 09004KT 16SM 26/23 A2976 RMK SLP068 T02590233 52022 IEM_DS3505
ZGNN,1995-04-15 18:00,ZGNN 151800Z AUTO 04004KT 12SM 24/23 A2976 RMK SLP067 T02450229 57001 IEM_DS3505
ZGNN,1995-04-15 21:00,ZGNN 152100Z AUTO 07004KT 12SM 24/22 A2975 RMK SLP064 T02380225 57003 IEM_DS3505
ZGNN,1995-04-15 22:00,ZGNN 152200Z AUTO 02002KT 2 1/2SM 22/22 A2977 RMK SLP071 T02200220 IEM_DS3505
ZGNN,1995-04-15 23:00,ZGNN 152300Z AUTO 36002KT 2 1/2SM 22/22 A2980 RMK SLP082 T02200220 IEM_DS3505
ZGNN,1995-04-16 00:00,ZGNN 160000Z AUTO 04002KT 12SM 24/22 A2983 RMK SLP087 T02380223 52022 IEM_DS3505
ZGNN,1995-04-16 01:00,ZGNN 160100Z AUTO 22002KT 19SM A2983 RMK SLP066 57030 IEM_DS3505
ZGNN,1995-04-16 03:00,ZGNN 160300Z AUTO 20002KT 19SM 28/22 A2985 RMK SLP096 T02840224 52010 IEM_DS3505
ZGNN,1995-04-16 06:00,ZGNN 160600Z AUTO 22002KT 19SM 32/23 A2976 RMK SLP066 T03250231 57030 IEM_DS3505
ZGNN,1995-04-16 07:00,ZGNN 160700Z AUTO 15012KT 7SM 34/22 A2974 RMK SLP058 T03400220 IEM_DS3505
ZGNN,1995-04-16 08:00,ZGNN 160800Z AUTO 16014KT 7SM 34/21 A2971 RMK SLP048 T03400210 IEM_DS3505
ZGNN,1995-04-16 09:00,ZGNN 160900Z AUTO 18002KT 19SM 33/21 A2971 RMK SLP046 T03290208 57020 IEM_DS3505
ZGNN,1995-04-16 10:00,ZGNN 161000Z AUTO 15010KT 7SM 31/21 A2971 RMK SLP049 T03100210 IEM_DS3505
ZGNN,1995-04-16 11:00,ZGNN 161100Z AUTO 15008KT 6SM 29/21 A2971 RMK SLP049 T02900210 IEM_DS3505
ZGNN,1995-04-16 12:00,ZGNN 161200Z AUTO 25004KT 19SM 28/22 A2974 RMK SLP061 T02830217 52015 IEM_DS3505
ZGNN,1995-04-16 15:00,ZGNN 161500Z AUTO 25004KT 16SM 27/20 A2981 RMK SLP084 T02690198 52023 IEM_DS3505
ZGNN,1995-04-16 18:00,ZGNN 161800Z AUTO 20002KT 12SM 25/21 A2979 RMK SLP078 T02510207 57006 IEM_DS3505
ZGNN,1995-04-16 21:00,ZGNN 162100Z AUTO 02002KT 12SM 24/21 A2979 RMK SLP076 T02410208 57002 IEM_DS3505
ZGNN,1995-04-16 23:00,ZGNN 162300Z AUTO 36004KT 6SM 22/20 A2983 RMK SLP092 T02200200 IEM_DS3505
ZGNN,1995-04-17 00:00,ZGNN 170000Z AUTO 04002KT 11SM 25/22 A2985 RMK SLP099 T02460218 52022 IEM_DS3505
ZGNN,1995-04-17 01:00,ZGNN 170100Z AUTO 07004KT 7SM 25/21 A2988 RMK SLP108 T02500210 IEM_DS3505
ZGNN,1995-04-17 02:00,ZGNN 170200Z AUTO 00000KT 7SM 27/22 A2988 RMK SLP107 T02700220 IEM_DS3505
ZGNN,1995-04-17 03:00,ZGNN 170300Z AUTO 09004KT 12SM 28/22 A2988 RMK SLP102 T02810216 52004 IEM_DS3505
ZGNN,1995-04-17 06:00,ZGNN 170600Z AUTO 11004KT 19SM 32/20 A2980 RMK SLP073 T03190201 57029 IEM_DS3505
ZGNN,1995-04-17 07:00,ZGNN 170700Z AUTO 16008KT 7SM 34/19 A2974 RMK SLP058 T03400190 IEM_DS3505
ZGNN,1995-04-17 08:00,ZGNN 170800Z AUTO 15012KT 7SM 33/19 A2974 RMK SLP058 T03300190 IEM_DS3505
ZGNN,1995-04-17 09:00,ZGNN 170900Z AUTO 18006KT 19SM 32/22 A2971 RMK SLP054 T03210218 57019 IEM_DS3505
ZGNN,1995-04-17 12:00,ZGNN 171200Z AUTO 22004KT 19SM 28/20 A2977 RMK SLP071 T02830205 52017 IEM_DS3505
ZGNN,1995-04-17 13:00,ZGNN 171300Z AUTO 17006KT 7SM 26/19 A2980 RMK SLP080 T02600190 IEM_DS3505
ZGNN,1995-04-17 14:00,ZGNN 171400Z AUTO 00000KT 6SM 25/19 A2985 RMK SLP098 T02500190 IEM_DS3505
ZGNN,1995-04-17 15:00,ZGNN 171500Z AUTO 20004KT 17SM 27/19 A2985 RMK SLP096 T02660194 52025 IEM_DS3505
ZGNN,1995-04-17 18:00,ZGNN 171800Z AUTO 07004KT 16SM 25/20 A2984 RMK SLP094 T02510196 57002 IEM_DS3505
ZGNN,1995-04-17 21:00,ZGNN 172100Z AUTO 00000KT 14SM 23/20 A2983 RMK SLP091 T02340205 57003 IEM_DS3505
ZGNN,1995-04-17 22:00,ZGNN 172200Z AUTO 00000KT 6SM 22/20 A2985 RMK SLP099 T02200200 IEM_DS3505
ZGNN,1995-04-17 23:00,ZGNN 172300Z AUTO 00000KT 6SM 22/20 A2988 RMK SLP109 T02200200 IEM_DS3505
ZGNN,1995-04-18 00:00,ZGNN 180000Z AUTO 00000KT 16SM 24/21 A2988 RMK SLP115 T02380214 52023 IEM_DS3505
ZGNN,1995-04-18 03:00,ZGNN 180300Z AUTO 20002KT 16SM 26/22 A2991 RMK SLP115 T02630219 54000 IEM_DS3505
ZGNN,1995-04-18 04:00,ZGNN 180400Z AUTO 00000KT 7SM 29/22 A2988 RMK SLP107 T02900220 IEM_DS3505
ZGNN,1995-04-18 06:00,ZGNN 180600Z AUTO 00000KT 16SM 30/22 A2982 RMK SLP088 T02970221 57026 IEM_DS3505
ZGNN,1995-04-18 09:00,ZGNN 180900Z AUTO 04002KT 16SM 30/23 A2977 RMK SLP073 T02980232 57015 IEM_DS3505
ZGNN,1995-04-18 12:00,ZGNN 181200Z AUTO 00000KT 16SM 28/22 A2983 RMK SLP089 T02790222 52015 IEM_DS3505
ZGNN,1995-04-18 13:00,ZGNN 181300Z AUTO 15004KT 7SM 27/22 A2985 RMK SLP097 T02700220 IEM_DS3505
ZGNN,1995-04-18 15:00,ZGNN 181500Z AUTO 04002KT 14SM 26/22 A2989 RMK SLP110 T02610220 52021 IEM_DS3505
ZGNN,1995-04-18 18:00,ZGNN 181800Z AUTO 04002KT 12SM 25/21 A2989 RMK SLP110 T02540210 52001 IEM_DS3505
ZGNN,1995-04-18 21:00,ZGNN 182100Z AUTO 07004KT 12SM 25/22 A2988 RMK SLP107 T02510223 57003 IEM_DS3505
ZGNN,1995-04-18 22:00,ZGNN 182200Z AUTO 36004KT 7SM 24/22 A2991 RMK SLP118 T02400220 IEM_DS3505
ZGNN,1995-04-18 23:00,ZGNN 182300Z AUTO 00000KT 7SM 24/22 A2991 RMK SLP118 T02400220 IEM_DS3505
ZGNN,1995-04-19 00:00,ZGNN 190000Z AUTO 07004KT 11SM 23/19 A2994 RMK SLP131 T02330191 52023 IEM_DS3505
ZGNN,1995-04-19 01:00,ZGNN 190100Z AUTO 06008KT 4SM 24/21 A2997 RMK SLP138 T02400210 IEM_DS3505
ZGNN,1995-04-19 02:00,ZGNN 190200Z AUTO 05008KT 5SM 24/21 A2997 RMK SLP138 T02400210 IEM_DS3505
ZGNN,1995-04-19 03:00,ZGNN 190300Z AUTO 07004KT 12SM 23/19 A2997 RMK SLP143 T02340194 52012 IEM_DS3505
ZGNN,1995-04-19 06:00,ZGNN 190600Z AUTO 09004KT 19SM 25/20 A2992 RMK 60002 SLP122 T02480204 57021 IEM_DS3505
ZGNN,1995-04-19 07:00,ZGNN 190700Z AUTO 06010KT 7SM 24/19 A2988 RMK SLP108 T02400190 IEM_DS3505
ZGNN,1995-04-19 08:00,ZGNN 190800Z AUTO 07010KT 7SM 24/19 A2985 RMK SLP098 T02400190 IEM_DS3505
ZGNN,1995-04-19 09:00,ZGNN 190900Z AUTO 04002KT 12SM 23/19 A2985 RMK SLP102 T02280192 57020 IEM_DS3505
ZGNN,1995-04-19 11:00,ZGNN 191100Z AUTO 08008KT 7SM 22/18 A2985 RMK SLP099 T02200180 IEM_DS3505
ZGNN,1995-04-19 12:00,ZGNN 191200Z AUTO 14002KT 11SM 22/18 A2988 RMK SLP106 T02210183 52003 IEM_DS3505
ZGNN,1995-04-19 13:00,ZGNN 191300Z AUTO 08008KT 7SM 21/18 A2988 RMK SLP109 T02100180 IEM_DS3505
ZGNN,1995-04-19 14:00,ZGNN 191400Z AUTO 09006KT 7SM 21/18 A2988 RMK SLP109 T02100180 IEM_DS3505
ZGNN,1995-04-19 15:00,ZGNN 191500Z AUTO 00000KT 11SM 22/18 A2991 RMK SLP122 T02170182 52016 IEM_DS3505
ZGNN,1995-04-19 18:00,ZGNN 191800Z AUTO 07004KT 12SM 21/18 A2988 RMK SLP109 T02140184 57013 IEM_DS3505
ZGNN,1995-04-19 21:00,ZGNN 192100Z AUTO 09004KT 12SM 21/19 A2983 RMK 70004 SLP093 T02110191 57016 IEM_DS3505
ZGNN,1995-04-19 22:00,ZGNN 192200Z AUTO 09006KT 7SM 21/19 A2985 RMK SLP099 T02100190 IEM_DS3505
ZGNN,1995-04-19 23:00,ZGNN 192300Z AUTO 00000KT 7SM 21/19 A2985 RMK SLP099 T02100190 IEM_DS3505
ZGNN,1995-04-20 00:00,ZGNN 200000Z AUTO 11004KT 4SM 21/20 A2988 RMK 60004 70008 SLP106 T02130204 52013 IEM_DS3505
ZGNN,1995-04-20 01:00,ZGNN 200100Z AUTO 00000KT 3SM 21/20 A2988 RMK SLP109 T02100200 IEM_DS3505
ZGNN,1995-04-20 03:00,ZGNN 200300Z AUTO 25004KT 9SM 24/22 A2988 RMK SLP110 T02390223 52004 IEM_DS3505
ZGNN,1995-04-20 04:00,ZGNN 200400Z AUTO 16008KT 7SM 26/23 A2985 RMK SLP098 T02600230 IEM_DS3505
ZGNN,1995-04-20 06:00,ZGNN 200600Z AUTO 25004KT 14SM 27/23 A2977 RMK 60008 SLP076 T02730234 57033 IEM_DS3505
ZGNN,1995-04-20 07:00,ZGNN 200700Z AUTO 17016KT 7SM 31/22 A2974 RMK SLP059 T03100220 IEM_DS3505
ZGNN,1995-04-20 09:00,ZGNN 200900Z AUTO 18006KT 16SM 29/22 A2971 RMK SLP052 T02870218 57024 IEM_DS3505
ZGNN,1995-04-20 10:00,ZGNN 201000Z AUTO 18019KT 7SM 29/18 A2971 RMK SLP049 T02900180 IEM_DS3505
ZGNN,1995-04-20 12:00,ZGNN 201200Z AUTO 22006KT 15SM 26/22 A2973 RMK SLP057 T02620216 52005 IEM_DS3505
ZGNN,1995-04-20 13:00,ZGNN 201300Z AUTO 15008KT 6SM 24/22 A2974 RMK SLP061 T02400220 IEM_DS3505
ZGNN,1995-04-20 14:00,ZGNN 201400Z AUTO 14008KT 6SM 24/22 A2977 RMK SLP071 T02400220 IEM_DS3505
ZGNN,1995-04-20 15:00,ZGNN 201500Z AUTO 22002KT 15SM 25/22 A2978 RMK SLP073 T02470219 52016 IEM_DS3505
ZGNN,1995-04-20 18:00,ZGNN 201800Z AUTO 22002KT 15SM 24/22 A2976 RMK SLP067 T02430222 57005 IEM_DS3505
ZGNN,1995-04-20 21:00,ZGNN 202100Z AUTO 22004KT 12SM 24/22 A2974 RMK 70012 SLP058 T02450224 57009 IEM_DS3505
ZGNN,1995-04-20 23:00,ZGNN 202300Z AUTO 13008KT 7SM 23/22 A2977 RMK SLP071 T02300220 IEM_DS3505
ZGNN,1995-04-21 00:00,ZGNN 210000Z AUTO 27002KT 9SM 25/23 A2980 RMK 70008 SLP079 T02490232 52020 IEM_DS3505
ZGNN,1995-04-21 03:00,ZGNN 210300Z AUTO 27002KT 12SM 25/23 A2980 RMK SLP081 T02480232 52002 IEM_DS3505
ZGNN,1995-04-21 06:00,ZGNN 210600Z AUTO 00000KT 12SM 26/23 A2972 RMK SLP054 T02650233 57026 IEM_DS3505
ZGNN,1995-04-21 09:00,ZGNN 210900Z AUTO 32004KT 12SM 28/23 A2966 RMK SLP034 T02750232 57020 IEM_DS3505
ZGNN,1995-04-21 11:00,ZGNN 211100Z AUTO 15010KT 7SM 27/22 A2968 RMK SLP040 T02700220 IEM_DS3505
ZGNN,1995-04-21 12:00,ZGNN 211200Z AUTO 29004KT 12SM 27/22 A2971 RMK SLP045 T02690219 52011 IEM_DS3505
ZGNN,1995-04-21 13:00,ZGNN 211300Z AUTO 15006KT 7SM 26/22 A2974 RMK SLP060 T02600220 IEM_DS3505
ZGNN,1995-04-21 15:00,ZGNN 211500Z AUTO 27002KT 12SM 25/22 A2976 RMK SLP067 T02490222 52021 IEM_DS3505
ZGNN,1995-04-21 18:00,ZGNN 211800Z AUTO 00000KT 9SM 24/22 A2974 RMK SLP060 T02360223 57007 IEM_DS3505
ZGNN,1995-04-21 21:00,ZGNN 212100Z AUTO 00000KT 9SM 24/22 A2973 RMK SLP057 T02350223 57002 IEM_DS3505
ZGNN,1995-04-21 22:00,ZGNN 212200Z AUTO 02004KT 6SM 22/21 A2974 RMK SLP061 T02200210 IEM_DS3505
ZGNN,1995-04-21 23:00,ZGNN 212300Z AUTO 36002KT 6SM 22/21 A2977 RMK SLP071 T02200210 IEM_DS3505
ZGNN,1995-04-22 00:00,ZGNN 220000Z AUTO 11004KT 10SM 24/22 A2980 RMK SLP076 T02370224 52018 IEM_DS3505
ZGNN,1995-04-22 01:00,ZGNN 220100Z AUTO 12002KT 6SM 26/22 A2980 RMK SLP080 T02600220 IEM_DS3505
ZGNN,1995-04-22 03:00,ZGNN 220300Z AUTO 00000KT 16SM 29/22 A2980 RMK SLP075 T02870216 54000 IEM_DS3505
ZGNN,1995-04-22 06:00,ZGNN 220600Z AUTO 22004KT 19SM 32/22 A2972 RMK SLP054 T03250216 57021 IEM_DS3505
ZGNN,1995-04-22 08:00,ZGNN 220800Z AUTO 14010KT 7SM 33/19 A2968 RMK SLP038 T03300190 IEM_DS3505
ZGNN,1995-04-22 09:00,ZGNN 220900Z AUTO 29004KT 19SM 32/24 A2965 RMK SLP030 T03230236 57024 IEM_DS3505
ZGNN,1995-04-22 10:00,ZGNN 221000Z AUTO 14010KT 6SM 30/23 A2965 RMK SLP029 T03000230 IEM_DS3505
ZGNN,1995-04-22 12:00,ZGNN 221200Z AUTO 27004KT 19SM 28/23 A2970 RMK SLP046 T02830231 52016 IEM_DS3505
ZGNN,1995-04-22 15:00,ZGNN 221500Z AUTO 00000KT 16SM 26/22 A2976 RMK SLP065 T02650224 52019 IEM_DS3505
ZGNN,1995-04-22 18:00,ZGNN 221800Z AUTO 32002KT 12SM 25/22 A2976 RMK SLP066 T02470216 52001 IEM_DS3505
ZGNN,1995-04-22 21:00,ZGNN 222100Z AUTO 00000KT 12SM 24/21 A2977 RMK SLP070 T02370211 52004 IEM_DS3505
ZGNN,1995-04-22 22:00,ZGNN 222200Z AUTO 00000KT 7SM 23/22 A2980 RMK SLP081 T02300220 IEM_DS3505
ZGNN,1995-04-22 23:00,ZGNN 222300Z AUTO 00000KT 7SM 23/22 A2980 RMK SLP081 T02300220 IEM_DS3505
ZGNN,1995-04-23 00:00,ZGNN 230000Z AUTO 04002KT 14SM 24/21 A2983 RMK SLP091 T02430213 52021 IEM_DS3505
ZGNN,1995-04-23 03:00,ZGNN 230300Z AUTO 16002KT 17SM 29/20 A2984 RMK SLP095 T02930205 52004 IEM_DS3505
ZGNN,1995-04-23 06:00,ZGNN 230600Z AUTO 27002KT 19SM 32/21 A2976 RMK SLP068 T03160208 57027 IEM_DS3505
ZGNN,1995-04-23 07:00,ZGNN 230700Z AUTO 15012KT 7SM 33/20 A2974 RMK SLP058 T03300200 IEM_DS3505
ZGNN,1995-04-23 08:00,ZGNN 230800Z AUTO 13008KT 7SM 33/20 A2971 RMK SLP048 T03300200 IEM_DS3505
ZGNN,1995-04-23 09:00,ZGNN 230900Z AUTO 02002KT 19SM 32/22 A2968 RMK SLP047 T03190220 57021 IEM_DS3505
ZGNN,1995-04-23 10:00,ZGNN 231000Z AUTO 15012KT 6SM 31/21 A2971 RMK SLP049 T03100210 IEM_DS3505
ZGNN,1995-04-23 11:00,ZGNN 231100Z AUTO 13006KT 6SM 30/21 A2971 RMK SLP049 T03000210 IEM_DS3505
ZGNN,1995-04-23 12:00,ZGNN 231200Z AUTO 32002KT 19SM 30/19 A2974 RMK SLP058 T02950186 52011 IEM_DS3505
ZGNN,1995-04-23 13:00,ZGNN 231300Z AUTO 17012KT 6SM 28/18 A2977 RMK SLP070 T02800180 IEM_DS3505
ZGNN,1995-04-23 15:00,ZGNN 231500Z AUTO 00000KT 17SM 27/22 A2981 RMK SLP083 T02730220 52025 IEM_DS3505
ZGNN,1995-04-23 18:00,ZGNN 231800Z AUTO 00000KT 16SM 26/23 A2979 RMK SLP078 T02630228 57005 IEM_DS3505
ZGNN,1995-04-23 21:00,ZGNN 232100Z AUTO 00000KT 12SM 25/23 A2980 RMK SLP076 T02520226 57002 IEM_DS3505
ZGNN,1995-04-23 22:00,ZGNN 232200Z AUTO 00000KT 7SM 24/23 A2983 RMK SLP091 T02400230 IEM_DS3505
ZGNN,1995-04-23 23:00,ZGNN 232300Z AUTO 00000KT 7SM 24/23 A2985 RMK SLP098 T02400230 IEM_DS3505
ZGNN,1995-04-24 00:00,ZGNN 240000Z AUTO 07002KT 12SM 25/23 A2988 RMK SLP106 T02510228 52030 IEM_DS3505
ZGNN,1995-04-24 02:00,ZGNN 240200Z AUTO 13008KT 7SM 27/23 A2991 RMK SLP117 T02700230 IEM_DS3505
ZGNN,1995-04-24 03:00,ZGNN 240300Z AUTO 18004KT 14SM 29/24 A2988 RMK SLP110 T02880235 52004 IEM_DS3505
ZGNN,1995-04-24 06:00,ZGNN 240600Z AUTO 09002KT 16SM 31/22 A2981 RMK SLP085 T03070221 57025 IEM_DS3505
ZGNN,1995-04-24 08:00,ZGNN 240800Z AUTO 15008KT 7SM 32/20 A2977 RMK SLP069 T03200200 IEM_DS3505
ZGNN,1995-04-24 09:00,ZGNN 240900Z AUTO 09008KT 16SM 28/22 A2976 RMK SLP068 T02840223 57017 IEM_DS3505
ZGNN,1995-04-24 10:00,ZGNN 241000Z AUTO 12014KT 6SM 30/21 A2977 RMK SLP069 T03000210 IEM_DS3505
ZGNN,1995-04-24 12:00,ZGNN 241200Z AUTO 07010KT 7SM 26/22 A2980 RMK SLP080 T02600220 IEM_DS3505
ZGNN,1995-04-24 13:00,ZGNN 241300Z AUTO 07006KT 7SM 25/21 A2985 RMK SLP098 T02500210 IEM_DS3505
ZGNN,1995-04-24 14:00,ZGNN 241400Z AUTO 07006KT 7SM 24/20 A2991 RMK SLP118 T02400200 IEM_DS3505
ZGNN,1995-04-24 15:00,ZGNN 241500Z AUTO 07004KT 9SM 23/20 A2990 RMK SLP115 T02300198 52026 IEM_DS3505
ZGNN,1995-04-24 18:00,ZGNN 241800Z AUTO 04004KT 9SM 21/18 A2990 RMK SLP114 T02140182 57001 IEM_DS3505
ZGNN,1995-04-24 21:00,ZGNN 242100Z AUTO 04004KT 9SM 20/17 A2991 RMK SLP120 T02030174 52006 IEM_DS3505
ZGNN,1995-04-25 00:00,ZGNN 250000Z AUTO 04004KT 9SM 19/17 A2999 RMK SLP147 T01890166 52026 IEM_DS3505
ZGNN,1995-04-25 03:00,ZGNN 250300Z AUTO 04002KT 8SM 20/17 A3001 RMK SLP155 T01970173 52008 IEM_DS3505
ZGNN,1995-04-25 06:00,ZGNN 250600Z AUTO 02006KT 16SM 20/17 A2998 RMK SLP144 T02050166 57011 IEM_DS3505
ZGNN,1995-04-25 07:00,ZGNN 250700Z AUTO 01008KT 7SM RMK IEM_DS3505
ZGNN,1995-04-25 09:00,ZGNN 250900Z AUTO 07004KT 16SM 20/17 A2995 RMK SLP132 T02000167 57013 IEM_DS3505
ZGNN,1995-04-25 11:00,ZGNN 251100Z AUTO 07006KT 4SM 20/17 A2994 RMK SLP130 T02000170 IEM_DS3505
ZGNN,1995-04-25 12:00,ZGNN 251200Z AUTO 04004KT 12SM 20/16 A2998 RMK SLP143 T01980156 52011 IEM_DS3505
ZGNN,1995-04-25 15:00,ZGNN 251500Z AUTO 32008KT 12SM 20/16 A3005 RMK SLP167 T02030160 52024 IEM_DS3505
ZGNN,1995-04-25 18:00,ZGNN 251800Z AUTO 04004KT 12SM 19/16 A2997 RMK SLP141 T01910163 57026 IEM_DS3505
ZGNN,1995-04-25 21:00,ZGNN 252100Z AUTO 34004KT 12SM 19/16 A2997 RMK SLP142 T01900155 52001 IEM_DS3505
ZGNN,1995-04-25 22:00,ZGNN 252200Z AUTO 00000KT 6SM 18/16 A2997 RMK SLP140 T01800160 IEM_DS3505
ZGNN,1995-04-25 23:00,ZGNN 252300Z AUTO 00000KT 5SM 18/16 A2997 RMK SLP140 T01800160 IEM_DS3505
ZGNN,1995-04-26 00:00,ZGNN 260000Z AUTO 00000KT 12SM 19/16 A3000 RMK SLP151 T01920159 52009 IEM_DS3505
ZGNN,1995-04-26 01:00,ZGNN 260100Z AUTO 00000KT 3SM 19/17 A3003 RMK SLP160 T01900170 IEM_DS3505
ZGNN,1995-04-26 02:00,ZGNN 260200Z AUTO 09008KT 5SM 21/16 A3000 RMK SLP149 T02100160 IEM_DS3505
ZGNN,1995-04-26 03:00,ZGNN 260300Z AUTO 14002KT 12SM 21/16 A3000 RMK SLP149 T02090161 57002 IEM_DS3505
ZGNN,1995-04-26 04:00,ZGNN 260400Z AUTO 08004KT 7SM 21/16 A3000 RMK SLP149 T02100160 IEM_DS3505
ZGNN,1995-04-26 06:00,ZGNN 260600Z AUTO 00000KT 12SM 22/17 A2994 RMK SLP129 T02220172 57019 IEM_DS3505
ZGNN,1995-04-26 07:00,ZGNN 260700Z AUTO 10004KT 7SM 23/17 A2991 RMK SLP119 T02300170 IEM_DS3505
ZGNN,1995-04-26 08:00,ZGNN 260800Z AUTO 09006KT 7SM 22/18 A2991 RMK SLP119 T02200180 IEM_DS3505
ZGNN,1995-04-26 09:00,ZGNN 260900Z AUTO 09004KT 11SM 21/18 A2988 RMK SLP106 T02120183 57023 IEM_DS3505
ZGNN,1995-04-26 12:00,ZGNN 261200Z AUTO 04006KT 12SM 22/19 A2988 RMK SLP109 T02170192 52003 IEM_DS3505
ZGNN,1995-04-26 13:00,ZGNN 261300Z AUTO 01004KT 7SM 21/19 A2991 RMK SLP119 T02100190 IEM_DS3505
ZGNN,1995-04-26 15:00,ZGNN 261500Z AUTO 09002KT 12SM 22/20 A2995 RMK SLP132 T02150195 52023 IEM_DS3505
ZGNN,1995-04-26 18:00,ZGNN 261800Z AUTO 07004KT 10SM 22/20 A2993 RMK SLP125 T02160199 57007 IEM_DS3505
ZGNN,1995-04-26 21:00,ZGNN 262100Z AUTO 11004KT 9SM 22/20 A2992 RMK SLP122 T02170202 57003 IEM_DS3505
ZGNN,1995-04-26 23:00,ZGNN 262300Z AUTO 07004KT 1 1/2SM 22/20 A2997 RMK SLP139 T02200200 IEM_DS3505
ZGNN,1995-04-27 00:00,ZGNN 270000Z AUTO 11002KT 9SM 23/20 A2999 RMK SLP147 T02270202 52025 IEM_DS3505
ZGNN,1995-04-27 01:00,ZGNN 270100Z AUTO 08006KT 6SM 25/22 A3003 RMK SLP158 T02500220 IEM_DS3505
ZGNN,1995-04-27 02:00,ZGNN 270200Z AUTO 12010KT 7SM 26/22 A3003 RMK SLP158 T02600220 IEM_DS3505
ZGNN,1995-04-27 03:00,ZGNN 270300Z AUTO 29004KT 16SM 27/22 A3003 RMK SLP152 T02710219 52005 IEM_DS3505
ZGNN,1995-04-27 04:00,ZGNN 270400Z AUTO 16012KT 7SM 29/21 A3000 RMK SLP147 T02900210 IEM_DS3505
ZGNN,1995-04-27 06:00,ZGNN 270600Z AUTO 32006KT 16SM 29/21 A2994 RMK SLP129 T02880211 57022 IEM_DS3505
ZGNN,1995-04-27 07:00,ZGNN 270700Z AUTO 15016KT 7SM 28/20 A2994 RMK SLP127 T02800200 IEM_DS3505
ZGNN,1995-04-27 08:00,ZGNN 270800Z AUTO 15010KT 7SM 28/21 A2991 RMK SLP117 T02800210 IEM_DS3505
ZGNN,1995-04-27 09:00,ZGNN 270900Z AUTO 00000KT 16SM 28/22 A2991 RMK SLP114 T02750221 57015 IEM_DS3505
ZGNN,1995-04-27 10:00,ZGNN 271000Z AUTO 15010KT 7SM 27/21 A2991 RMK SLP117 T02700210 IEM_DS3505
ZGNN,1995-04-27 11:00,ZGNN 271100Z AUTO 19006KT 7SM 27/21 A2991 RMK SLP117 T02700210 IEM_DS3505
ZGNN,1995-04-27 12:00,ZGNN 271200Z AUTO 25002KT 12SM 27/20 A2991 RMK SLP123 T02710198 52009 IEM_DS3505
ZGNN,1995-04-27 13:00,ZGNN 271300Z AUTO 20008KT 7SM 26/20 A2994 RMK SLP128 T02600200 IEM_DS3505
ZGNN,1995-04-27 15:00,ZGNN 271500Z AUTO 00000KT 12SM 26/21 A2997 RMK SLP139 T02630212 52016 IEM_DS3505
ZGNN,1995-04-27 18:00,ZGNN 271800Z AUTO 00000KT 12SM 24/21 A2994 RMK SLP127 T02390210 57012 IEM_DS3505
ZGNN,1995-04-27 21:00,ZGNN 272100Z AUTO 00000KT 12SM 23/22 A2991 RMK SLP119 T02330215 57008 IEM_DS3505
ZGNN,1995-04-27 23:00,ZGNN 272300Z AUTO 18004KT 7SM 23/22 A2994 RMK SLP129 T02300220 IEM_DS3505
ZGNN,1995-04-28 00:00,ZGNN 280000Z AUTO 00000KT 9SM 24/22 A2994 RMK SLP131 T02410222 52012 IEM_DS3505
ZGNN,1995-04-28 02:00,ZGNN 280200Z AUTO 17010KT 7SM 27/22 A2997 RMK SLP138 T02700220 IEM_DS3505
ZGNN,1995-04-28 03:00,ZGNN 280300Z AUTO 20002KT 12SM 27/22 A2997 RMK SLP136 T02690222 52005 IEM_DS3505
ZGNN,1995-04-28 06:00,ZGNN 280600Z AUTO 22004KT 14SM 30/23 A2988 RMK SLP103 T03030229 57032 IEM_DS3505
ZGNN,1995-04-28 07:00,ZGNN 280700Z AUTO 15016KT 7SM 30/21 A2985 RMK SLP096 T03000210 IEM_DS3505
ZGNN,1995-04-28 08:00,ZGNN 280800Z AUTO 15016KT 7SM 30/21 A2983 RMK SLP089 T03000210 IEM_DS3505
ZGNN,1995-04-28 09:00,ZGNN 280900Z AUTO 25006KT 16SM 30/22 A2980 RMK SLP079 T03010216 57024 IEM_DS3505
ZGNN,1995-04-28 12:00,ZGNN 281200Z AUTO 09002KT 16SM 28/21 A2983 RMK SLP093 T02770210 52013 IEM_DS3505
ZGNN,1995-04-28 13:00,ZGNN 281300Z AUTO 16004KT 7SM 25/20 A2985 RMK SLP098 T02500200 IEM_DS3505
ZGNN,1995-04-28 15:00,ZGNN 281500Z AUTO 00000KT 16SM 25/21 A2988 RMK SLP109 T02540214 52016 IEM_DS3505
ZGNN,1995-04-28 18:00,ZGNN 281800Z AUTO 22002KT 16SM 24/22 A2985 RMK SLP098 T02430215 57010 IEM_DS3505
ZGNN,1995-04-28 21:00,ZGNN 282100Z AUTO 00000KT 12SM 24/22 A2984 RMK SLP093 T02370219 57005 IEM_DS3505
ZGNN,1995-04-28 22:00,ZGNN 282200Z AUTO 35004KT 6SM 22/21 A2985 RMK SLP099 T02200210 IEM_DS3505
ZGNN,1995-04-28 23:00,ZGNN 282300Z AUTO 01004KT 6SM 22/22 A2988 RMK SLP109 T02200220 IEM_DS3505
ZGNN,1995-04-29 00:00,ZGNN 290000Z AUTO 04002KT 12SM 24/22 A2991 RMK SLP117 T02410223 52023 IEM_DS3505
ZGNN,1995-04-29 01:00,ZGNN 290100Z AUTO 11004KT 7SM 24/22 A2991 RMK SLP118 T02400220 IEM_DS3505
ZGNN,1995-04-29 02:00,ZGNN 290200Z AUTO 17008KT 6SM 26/22 A2991 RMK SLP118 T02600220 IEM_DS3505
ZGNN,1995-04-29 03:00,ZGNN 290300Z AUTO 22002KT 16SM 28/22 A2991 RMK SLP120 T02770218 52003 IEM_DS3505
ZGNN,1995-04-29 06:00,ZGNN 290600Z AUTO 22006KT 17SM 29/22 A2983 RMK SLP091 T02930217 57028 IEM_DS3505
ZGNN,1995-04-29 07:00,ZGNN 290700Z AUTO 24006KT 7SM 30/21 A2980 RMK SLP079 T03000210 IEM_DS3505
ZGNN,1995-04-29 08:00,ZGNN 290800Z AUTO 18006KT 7SM 30/21 A2980 RMK SLP079 T03000210 IEM_DS3505
ZGNN,1995-04-29 09:00,ZGNN 290900Z AUTO 27002KT 19SM 30/23 A2977 RMK SLP069 T02980227 57022 IEM_DS3505
ZGNN,1995-04-29 12:00,ZGNN 291200Z AUTO 00000KT 19SM 28/23 A2980 RMK SLP078 T02780226 52009 IEM_DS3505
ZGNN,1995-04-29 13:00,ZGNN 291300Z AUTO 13006KT 7SM 26/22 A2980 RMK SLP080 T02600220 IEM_DS3505
ZGNN,1995-04-29 15:00,ZGNN 291500Z AUTO 00000KT 16SM 26/23 A2983 RMK SLP092 T02590227 52014 IEM_DS3505
ZGNN,1995-04-29 18:00,ZGNN 291800Z AUTO 16002KT 12SM 25/22 A2980 RMK SLP081 T02480224 57011 IEM_DS3505
ZGNN,1995-04-29 21:00,ZGNN 292100Z AUTO 00000KT 12SM 24/22 A2980 RMK SLP079 T02430222 57002 IEM_DS3505
ZGNN,1995-04-29 22:00,ZGNN 292200Z AUTO 33012KT 7SM 24/20 A2985 RMK SLP098 T02400200 IEM_DS3505
ZGNN,1995-04-29 23:00,ZGNN 292300Z AUTO 34010KT 7SM 21/20 A2985 RMK SLP099 T02100200 IEM_DS3505
ZGNN,1995-04-30 00:00,ZGNN 300000Z AUTO 22002KT 4SM 21/20 A2985 RMK 60075 70075 SLP110 T02090201 52030 IEM_DS3505
ZGNN,1995-04-30 01:00,ZGNN 300100Z AUTO 24004KT 7SM 21/20 A2988 RMK SLP109 T02100200 IEM_DS3505
ZGNN,1995-04-30 03:00,ZGNN 300300Z AUTO 34004KT 11SM 24/21 A2988 RMK SLP107 T02410208 57003 IEM_DS3505
ZGNN,1995-04-30 04:00,ZGNN 300400Z AUTO 32006KT 7SM 25/20 A2988 RMK SLP108 T02500200 IEM_DS3505
ZGNN,1995-04-30 06:00,ZGNN 300600Z AUTO 01004KT 7SM 27/21 A2983 RMK SLP090 T02700210 IEM_DS3505
ZGNN,1995-04-30 07:00,ZGNN 300700Z AUTO 01004KT 7SM 27/21 A2980 RMK SLP080 T02700210 IEM_DS3505
ZGNN,1995-04-30 08:00,ZGNN 300800Z AUTO 06004KT 7SM 29/21 A2980 RMK SLP080 T02900210 IEM_DS3505
ZGNN,1995-04-30 09:00,ZGNN 300900Z AUTO 00000KT 16SM 28/21 A2977 RMK SLP072 T02820212 57017 IEM_DS3505
ZGNN,1995-04-30 12:00,ZGNN 301200Z AUTO 09002KT 16SM 26/22 A2979 RMK SLP077 T02610220 52004 IEM_DS3505
ZGNN,1995-04-30 13:00,ZGNN 301300Z AUTO 00000KT 7SM 26/22 A2983 RMK SLP091 T02600220 IEM_DS3505
ZGNN,1995-04-30 15:00,ZGNN 301500Z AUTO 00000KT 14SM 25/22 A2984 RMK SLP094 T02470217 52017 IEM_DS3505
ZGNN,1995-04-30 18:00,ZGNN 301800Z AUTO 04002KT 12SM 24/21 A2981 RMK SLP084 T02410214 57010 IEM_DS3505
ZGNN,1995-04-30 21:00,ZGNN 302100Z AUTO 11002KT 11SM 24/21 A2983 RMK 70079 SLP087 T02370211 52003 IEM_DS3505
ZGNN,1995-04-30 22:00,ZGNN 302200Z AUTO 00000KT 4SM 23/22 A2983 RMK SLP091 T02300220 IEM_DS3505
ZGNN,1995-04-30 23:00,ZGNN 302300Z AUTO 00000KT 2 1/2SM 23/22 A2985 RMK SLP098 T02300220 IEM_DS3505
ZGNN,1995-05-01 00:00,ZGNN 010000Z AUTO 14002KT 9SM 24/22 A2987 RMK 70004 SLP102 T02420217 52015 IEM_DS3505
ZGNN,1995-05-01 01:00,ZGNN 010100Z AUTO 00000KT 6SM 27/23 A2988 RMK SLP106 T02700230 IEM_DS3505
ZGNN,1995-05-01 02:00,ZGNN 010200Z AUTO 15006KT 7SM 29/23 A2988 RMK SLP106 T02900230 IEM_DS3505
ZGNN,1995-05-01 03:00,ZGNN 010300Z AUTO 18002KT 16SM 29/24 A2987 RMK SLP101 T02880236 54000 IEM_DS3505
ZGNN,1995-05-01 06:00,ZGNN 010600Z AUTO 14002KT 19SM 32/22 A2980 RMK SLP080 T03220225 57021 IEM_DS3505
ZGNN,1995-05-01 07:00,ZGNN 010700Z AUTO 16014KT 7SM 32/21 A2977 RMK SLP068 T03200210 IEM_DS3505
ZGNN,1995-05-01 08:00,ZGNN 010800Z AUTO 15014KT 7SM 32/21 A2974 RMK SLP058 T03200210 IEM_DS3505
ZGNN,1995-05-01 09:00,ZGNN 010900Z AUTO 20002KT 19SM 32/22 A2974 RMK SLP059 T03150222 57021 IEM_DS3505
ZGNN,1995-05-01 10:00,ZGNN 011000Z AUTO 17008KT 7SM 30/22 A2974 RMK SLP058 T03000220 IEM_DS3505
ZGNN,1995-05-01 12:00,ZGNN 011200Z AUTO 22004KT 19SM 29/20 A2980 RMK SLP072 T02880199 52013 IEM_DS3505
ZGNN,1995-05-01 13:00,ZGNN 011300Z AUTO 19004KT 7SM 26/19 A2983 RMK SLP090 T02600190 IEM_DS3505
ZGNN,1995-05-01 14:00,ZGNN 011400Z AUTO 00000KT 7SM 26/20 A2985 RMK SLP097 T02600200 IEM_DS3505
ZGNN,1995-05-01 15:00,ZGNN 011500Z AUTO 20004KT 16SM 27/19 A2986 RMK SLP098 T02710191 52026 IEM_DS3505
ZGNN,1995-05-01 18:00,ZGNN 011800Z AUTO 22002KT 16SM 26/21 A2984 RMK SLP093 T02600209 57005 IEM_DS3505
ZGNN,1995-05-01 21:00,ZGNN 012100Z AUTO 00000KT 16SM 25/21 A2983 RMK SLP090 T02500211 57003 IEM_DS3505
ZGNN,1995-05-01 23:00,ZGNN 012300Z AUTO 27004KT 6SM 22/20 A2985 RMK SLP098 T02200200 IEM_DS3505
ZGNN,1995-05-02 00:00,ZGNN 020000Z AUTO 25004KT 12SM 25/21 A2988 RMK SLP107 T02510206 52017 IEM_DS3505
ZGNN,1995-05-02 01:00,ZGNN 020100Z AUTO 00000KT 7SM 26/20 A2991 RMK SLP117 T02600200 IEM_DS3505
ZGNN,1995-05-02 02:00,ZGNN 020200Z AUTO 16006KT 7SM 28/19 A2991 RMK SLP116 T02800190 IEM_DS3505
ZGNN,1995-05-02 03:00,ZGNN 020300Z AUTO 22006KT 16SM 30/20 A2991 RMK SLP113 T02980199 52006 IEM_DS3505
ZGNN,1995-05-02 06:00,ZGNN 020600Z AUTO 27004KT 19SM 32/21 A2983 RMK SLP088 T03240206 57025 IEM_DS3505
ZGNN,1995-05-02 07:00,ZGNN 020700Z AUTO 15010KT 7SM 31/21 A2980 RMK SLP078 T03100210 IEM_DS3505
ZGNN,1995-05-02 08:00,ZGNN 020800Z AUTO 20008KT 7SM 32/21 A2980 RMK SLP078 T03200210 IEM_DS3505
ZGNN,1995-05-02 09:00,ZGNN 020900Z AUTO 02002KT 19SM 30/23 A2980 RMK SLP074 T03050227 57014 IEM_DS3505
ZGNN,1995-05-02 10:00,ZGNN 021000Z AUTO 06004KT 7SM 28/23 A2980 RMK SLP079 T02800230 IEM_DS3505
ZGNN,1995-05-02 12:00,ZGNN 021200Z AUTO 00000KT 12SM 28/23 A2983 RMK 60000 SLP087 T02780233 52013 IEM_DS3505
ZGNN,1995-05-02 13:00,ZGNN 021300Z AUTO 00000KT 7SM 26/24 A2985 RMK SLP097 T02600240 IEM_DS3505
ZGNN,1995-05-02 15:00,ZGNN 021500Z AUTO 09002KT 12SM 27/23 A2990 RMK SLP112 T02710227 52025 IEM_DS3505
ZGNN,1995-05-02 18:00,ZGNN 021800Z AUTO 04002KT 12SM 25/23 A2987 RMK SLP103 T02510226 57009 IEM_DS3505
ZGNN,1995-05-02 21:00,ZGNN 022100Z AUTO 00000KT 11SM 25/23 A2985 RMK 70000 SLP102 T02470226 57001 IEM_DS3505
ZGNN,1995-05-02 22:00,ZGNN 022200Z AUTO 00000KT 7SM 23/22 A2988 RMK SLP108 T02300220 IEM_DS3505
ZGNN,1995-05-02 23:00,ZGNN 022300Z AUTO 00000KT 6SM 23/22 A2988 RMK SLP108 T02300220 IEM_DS3505
ZGNN,1995-05-03 00:00,ZGNN 030000Z AUTO 14002KT 12SM 25/23 A2991 RMK SLP113 T02530231 52010 IEM_DS3505
ZGNN,1995-05-03 01:00,ZGNN 030100Z AUTO 00000KT 6SM 26/23 A2991 RMK SLP117 T02600230 IEM_DS3505
ZGNN,1995-05-03 02:00,ZGNN 030200Z AUTO 00000KT 7SM 26/23 A2994 RMK SLP127 T02600230 IEM_DS3505
ZGNN,1995-05-03 03:00,ZGNN 030300Z AUTO 11002KT 12SM 26/23 A2991 RMK SLP122 T02650233 52009 IEM_DS3505
ZGNN,1995-05-03 04:00,ZGNN 030400Z AUTO 32006KT 7SM 28/23 A2991 RMK SLP116 T02800230 IEM_DS3505
ZGNN,1995-05-03 06:00,ZGNN 030600Z AUTO 02004KT 14SM 28/22 A2985 RMK SLP099 T02830225 57022 IEM_DS3505
ZGNN,1995-05-03 07:00,ZGNN 030700Z AUTO 36008KT 7SM 28/23 A2983 RMK SLP089 T02800230 IEM_DS3505
ZGNN,1995-05-03 08:00,ZGNN 030800Z AUTO 34006KT 7SM 28/23 A2980 RMK SLP079 T02800230 IEM_DS3505
ZGNN,1995-05-03 09:00,ZGNN 030900Z AUTO 04004KT 16SM 29/23 A2977 RMK SLP070 T02910227 57029 IEM_DS3505
ZGNN,1995-05-03 10:00,ZGNN 031000Z AUTO 01006KT 6SM 29/22 A2977 RMK SLP068 T02900220 IEM_DS3505
ZGNN,1995-05-03 12:00,ZGNN 031200Z AUTO 09006KT 16SM 26/22 A2980 RMK SLP084 T02630217 52013 IEM_DS3505
ZGNN,1995-05-03 13:00,ZGNN 031300Z AUTO 07010KT 6SM 26/22 A2983 RMK SLP090 T02600220 IEM_DS3505
ZGNN,1995-05-03 15:00,ZGNN 031500Z AUTO 07002KT 12SM 25/21 A2990 RMK SLP112 T02500214 52028 IEM_DS3505
ZGNN,1995-05-03 18:00,ZGNN 031800Z AUTO 00000KT 12SM 24/21 A2983 RMK SLP089 T02430210 57022 IEM_DS3505
ZGNN,1995-05-03 21:00,ZGNN 032100Z AUTO 09002KT 11SM 24/21 A2982 RMK SLP086 T02390209 57003 IEM_DS3505
ZGNN,1995-05-03 22:00,ZGNN 032200Z AUTO 03004KT 5SM 23/21 A2983 RMK SLP090 T02300210 IEM_DS3505
ZGNN,1995-05-03 23:00,ZGNN 032300Z AUTO 36010KT 7SM 23/20 A2988 RMK SLP108 T02300200 IEM_DS3505
ZGNN,1995-05-04 00:00,ZGNN 040000Z AUTO 04002KT 4SM 20/20 A2994 RMK 60079 70079 SLP128 T02050200 52040 IEM_DS3505
ZGNN,1995-05-04 01:00,ZGNN 040100Z AUTO 36006KT 3SM 20/19 A2997 RMK SLP139 T02000190 IEM_DS3505
ZGNN,1995-05-04 03:00,ZGNN 040300Z AUTO 32004KT 11SM 21/20 A2997 RMK SLP141 T02120198 52013 IEM_DS3505
ZGNN,1995-05-04 04:00,ZGNN 040400Z AUTO 36008KT 7SM 21/19 A3000 RMK SLP148 T02100190 IEM_DS3505
ZGNN,1995-05-04 06:00,ZGNN 040600Z AUTO 04008KT 19SM 22/19 A2997 RMK 60071 SLP136 T02250191 57005 IEM_DS3505
ZGNN,1995-05-04 08:00,ZGNN 040800Z AUTO 01006KT 7SM 23/19 A2994 RMK SLP128 T02300190 IEM_DS3505
ZGNN,1995-05-04 09:00,ZGNN 040900Z AUTO 04004KT 19SM 23/18 A2994 RMK SLP126 T02320178 57010 IEM_DS3505
ZGNN,1995-05-04 12:00,ZGNN 041200Z AUTO 04002KT 19SM 23/18 A2997 RMK SLP133 T02260183 52007 IEM_DS3505
ZGNN,1995-05-04 13:00,ZGNN 041300Z AUTO 01004KT 7SM 22/17 A2997 RMK SLP138 T02200170 IEM_DS3505
ZGNN,1995-05-04 14:00,ZGNN 041400Z AUTO 02006KT 7SM 22/17 A3000 RMK SLP148 T02200170 IEM_DS3505
ZGNN,1995-05-04 15:00,ZGNN 041500Z AUTO 00000KT 16SM 22/18 A3001 RMK SLP152 T02200175 52019 IEM_DS3505
ZGNN,1995-05-04 18:00,ZGNN 041800Z AUTO 34002KT 16SM 22/16 A3000 RMK SLP147 T02170156 57005 IEM_DS3505
ZGNN,1995-05-04 21:00,ZGNN 042100Z AUTO 00000KT 14SM 20/16 A2997 RMK 70154 SLP136 T02010163 57011 IEM_DS3505
ZGNN,1995-05-04 22:00,ZGNN 042200Z AUTO 00000KT 7SM 20/18 A2997 RMK SLP139 T02000180 IEM_DS3505
ZGNN,1995-05-04 23:00,ZGNN 042300Z AUTO 00000KT 7SM 20/18 A2997 RMK SLP139 T02000180 IEM_DS3505
ZGNN,1995-05-05 00:00,ZGNN 050000Z AUTO 36004KT 12SM 21/15 A3000 RMK 70071 SLP149 T02090152 52013 IEM_DS3505
ZGNN,1995-05-05 01:00,ZGNN 050100Z AUTO 34004KT 7SM 21/15 A3003 RMK SLP159 T02100150 IEM_DS3505
ZGNN,1995-05-05 02:00,ZGNN 050200Z AUTO 35004KT 6SM 23/14 A3003 RMK SLP158 T02300140 IEM_DS3505
ZGNN,1995-05-05 03:00,ZGNN 050300Z AUTO 32002KT 12SM 24/15 A3003 RMK SLP155 T02350152 52006 IEM_DS3505
ZGNN,1995-05-05 06:00,ZGNN 050600Z AUTO 02004KT 16SM 26/16 A2997 RMK SLP133 T02640157 57021 IEM_DS3505
ZGNN,1995-05-05 08:00,ZGNN 050800Z AUTO 02004KT 7SM 26/15 A2991 RMK SLP117 T02600150 IEM_DS3505
ZGNN,1995-05-05 09:00,ZGNN 050900Z AUTO 00000KT 16SM 26/16 A2991 RMK SLP117 T02650162 57017 IEM_DS3505
ZGNN,1995-05-05 12:00,ZGNN 051200Z AUTO 04002KT 16SM 25/18 A2994 RMK SLP126 T02490183 52009 IEM_DS3505
ZGNN,1995-05-05 13:00,ZGNN 051300Z AUTO 00000KT 6SM 23/20 A2994 RMK SLP128 T02300200 IEM_DS3505
ZGNN,1995-05-05 15:00,ZGNN 051500Z AUTO 00000KT 16SM 23/18 A2998 RMK SLP140 T02310182 52014 IEM_DS3505
ZGNN,1995-05-05 18:00,ZGNN 051800Z AUTO 07002KT 12SM 22/19 A2993 RMK SLP123 T02210190 57016 IEM_DS3505
ZGNN,1995-05-05 21:00,ZGNN 052100Z AUTO 04002KT 12SM 21/19 A2994 RMK SLP127 T02090189 52003 IEM_DS3505
ZGNN,1995-05-05 22:00,ZGNN 052200Z AUTO 36002KT 7SM 19/18 A2994 RMK SLP129 T01900180 IEM_DS3505
ZGNN,1995-05-05 23:00,ZGNN 052300Z AUTO 36004KT 6SM 20/19 A2997 RMK SLP139 T02000190 IEM_DS3505
ZGNN,1995-05-06 00:00,ZGNN 060000Z AUTO 04004KT 12SM 21/18 A2997 RMK SLP142 T02130184 52015 IEM_DS3505
ZGNN,1995-05-06 01:00,ZGNN 060100Z AUTO 00000KT 6SM 23/19 A3000 RMK SLP148 T02300190 IEM_DS3505
ZGNN,1995-05-06 02:00,ZGNN 060200Z AUTO 11004KT 6SM 25/20 A3000 RMK SLP147 T02500200 IEM_DS3505
ZGNN,1995-05-06 03:00,ZGNN 060300Z AUTO 02004KT 16SM 26/20 A3000 RMK SLP146 T02610195 52005 IEM_DS3505
ZGNN,1995-05-06 06:00,ZGNN 060600Z AUTO 32002KT 16SM 27/18 A2994 RMK SLP131 T02680181 57015 IEM_DS3505
ZGNN,1995-05-06 07:00,ZGNN 060700Z AUTO 04004KT 6SM 27/18 A2994 RMK SLP127 T02700180 IEM_DS3505
ZGNN,1995-05-06 08:00,ZGNN 060800Z AUTO 02004KT 7SM 28/18 A2991 RMK SLP116 T02800180 IEM_DS3505
ZGNN,1995-05-06 09:00,ZGNN 060900Z AUTO 04004KT 16SM 27/18 A2991 RMK SLP118 T02730185 57013 IEM_DS3505
ZGNN,1995-05-06 10:00,ZGNN 061000Z AUTO 04004KT 7SM 26/18 A2991 RMK SLP117 T02600180 IEM_DS3505
ZGNN,1995-05-06 11:00,ZGNN 061100Z AUTO 06008KT 7SM 26/17 A2994 RMK SLP127 T02600170 IEM_DS3505
ZGNN,1995-05-06 12:00,ZGNN 061200Z AUTO 04002KT 16SM 25/19 A2994 RMK SLP130 T02500186 52011 IEM_DS3505
ZGNN,1995-05-06 13:00,ZGNN 061300Z AUTO 00000KT 7SM 24/19 A2997 RMK SLP137 T02400190 IEM_DS3505
ZGNN,1995-05-06 15:00,ZGNN 061500Z AUTO 04002KT 12SM 24/18 A2999 RMK SLP142 T02410178 52013 IEM_DS3505
ZGNN,1995-05-06 18:00,ZGNN 061800Z AUTO 36004KT 12SM 23/19 A2996 RMK SLP133 T02310194 57009 IEM_DS3505
ZGNN,1995-05-06 21:00,ZGNN 062100Z AUTO 02002KT 12SM 23/18 A2994 RMK SLP131 T02260175 57002 IEM_DS3505
ZGNN,1995-05-06 22:00,ZGNN 062200Z AUTO 35008KT 7SM 22/17 A2997 RMK SLP138 T02200170 IEM_DS3505
ZGNN,1995-05-06 23:00,ZGNN 062300Z AUTO 34006KT 7SM 22/17 A3000 RMK SLP148 T02200170 IEM_DS3505
ZGNN,1995-05-07 00:00,ZGNN 070000Z AUTO 36004KT 8SM 22/18 A3000 RMK 60000 70001 SLP153 T02180176 52021 IEM_DS3505
ZGNN,1995-05-07 01:00,ZGNN 070100Z AUTO 00000KT 5SM 21/19 A3003 RMK SLP159 T02100190 IEM_DS3505
ZGNN,1995-05-07 02:00,ZGNN 070200Z AUTO 27004KT 7SM 21/18 A3003 RMK SLP159 T02100180 IEM_DS3505
ZGNN,1995-05-07 03:00,ZGNN 070300Z AUTO 36002KT 7SM 23/19 A3003 RMK SLP159 T02270188 52006 IEM_DS3505
ZGNN,1995-05-07 04:00,ZGNN 070400Z AUTO 32004KT 7SM 22/19 A3003 RMK SLP158 T02200190 IEM_DS3505
ZGNN,1995-05-07 06:00,ZGNN 070600Z AUTO 00000KT 12SM 24/18 A2997 RMK 60000 SLP141 T02450184 57018 IEM_DS3505
ZGNN,1995-05-07 07:00,ZGNN 070700Z AUTO 00000KT 7SM 24/19 A2997 RMK SLP137 T02400190 IEM_DS3505
ZGNN,1995-05-07 08:00,ZGNN 070800Z AUTO 00000KT 7SM 24/19 A2994 RMK SLP127 T02400190 IEM_DS3505
ZGNN,1995-05-07 09:00,ZGNN 070900Z AUTO 36002KT 12SM 24/19 A2994 RMK SLP129 T02440188 57012 IEM_DS3505
ZGNN,1995-05-07 10:00,ZGNN 071000Z AUTO 00000KT 6SM 24/19 A2994 RMK SLP127 T02400190 IEM_DS3505
ZGNN,1995-05-07 11:00,ZGNN 071100Z AUTO 00000KT 6SM 24/19 A2994 RMK SLP127 T02400190 IEM_DS3505
ZGNN,1995-05-07 12:00,ZGNN 071200Z AUTO 00000KT 12SM 23/19 A2994 RMK SLP132 T02340194 52003 IEM_DS3505
ZGNN,1995-05-07 13:00,ZGNN 071300Z AUTO 00000KT 6SM 22/20 A2997 RMK SLP138 T02200200 IEM_DS3505
ZGNN,1995-05-07 15:00,ZGNN 071500Z AUTO 04004KT 12SM 22/20 A2998 RMK SLP142 T02180204 52010 IEM_DS3505
ZGNN,1995-05-07 18:00,ZGNN 071800Z AUTO 00000KT 9SM 21/20 A2995 RMK SLP130 T02070196 57012 IEM_DS3505
ZGNN,1995-05-07 21:00,ZGNN 072100Z AUTO 00000KT 7SM 20/20 A2994 RMK 70002 SLP124 T02040196 57006 IEM_DS3505
ZGNN,1995-05-07 23:00,ZGNN 072300Z AUTO 00000KT 1 1/4SM 20/19 A2994 RMK SLP129 T02000190 IEM_DS3505
ZGNN,1995-05-08 00:00,ZGNN 080000Z AUTO 00000KT 1/8SM 20/20 A2994 RMK 70001 SLP129 T01990196 52005 IEM_DS3505
ZGNN,1995-05-08 01:00,ZGNN 080100Z AUTO 00000KT 3SM 23/21 A2994 RMK SLP128 T02300210 IEM_DS3505
ZGNN,1995-05-08 02:00,ZGNN 080200Z AUTO 00000KT 6SM 24/20 A2997 RMK SLP137 T02400200 IEM_DS3505
ZGNN,1995-05-08 03:00,ZGNN 080300Z AUTO 11006KT 11SM 26/19 A2994 RMK SLP128 T02600191 54000 IEM_DS3505
ZGNN,1995-05-08 04:00,ZGNN 080400Z AUTO 00000KT 7SM 27/19 A2994 RMK SLP127 T02700190 IEM_DS3505
ZGNN,1995-05-08 06:00,ZGNN 080600Z AUTO 00000KT 7SM 28/18 A2988 RMK SLP106 T02800180 IEM_DS3505
ZGNN,1995-05-08 07:00,ZGNN 080700Z AUTO 00000KT 7SM 29/17 A2985 RMK SLP096 T02900170 IEM_DS3505
ZGNN,1995-05-08 08:00,ZGNN 080800Z AUTO 00000KT 7SM 28/17 A2983 RMK SLP089 T02800170 IEM_DS3505
ZGNN,1995-05-08 09:00,ZGNN 080900Z AUTO 00000KT 16SM 29/18 A2980 RMK SLP079 T02870180 57029 IEM_DS3505
ZGNN,1995-05-08 12:00,ZGNN 081200Z AUTO 00000KT 16SM 25/18 A2980 RMK SLP081 T02540179 52002 IEM_DS3505
ZGNN,1995-05-08 15:00,ZGNN 081500Z AUTO 00000KT 14SM 24/18 A2985 RMK SLP097 T02440179 52016 IEM_DS3505
ZGNN,1995-05-08 18:00,ZGNN 081800Z AUTO 00000KT 12SM 23/20 A2983 RMK SLP091 T02310200 57006 IEM_DS3505
ZGNN,1995-05-08 21:00,ZGNN 082100Z AUTO 00000KT 12SM 23/21 A2980 RMK SLP083 T02260208 57008 IEM_DS3505
ZGNN,1995-05-08 22:00,ZGNN 082200Z AUTO 00000KT 2 1/2SM 22/20 A2983 RMK SLP091 T02200200 IEM_DS3505
ZGNN,1995-05-09 00:00,ZGNN 090000Z AUTO 09002KT 5SM 24/22 A2984 RMK SLP093 T02350217 52010 IEM_DS3505
ZGNN,1995-05-09 01:00,ZGNN 090100Z AUTO 14006KT 3SM 25/22 A2985 RMK SLP097 T02500220 IEM_DS3505
ZGNN,1995-05-09 02:00,ZGNN 090200Z AUTO 16008KT 6SM 26/22 A2985 RMK SLP097 T02600220 IEM_DS3505
ZGNN,1995-05-09 03:00,ZGNN 090300Z AUTO 04002KT 7SM 27/22 A2985 RMK SLP094 T02720225 52001 IEM_DS3505
ZGNN,1995-05-09 04:00,ZGNN 090400Z AUTO 00000KT 7SM 28/22 A2983 RMK SLP089 T02800220 IEM_DS3505
ZGNN,1995-05-09 06:00,ZGNN 090600Z AUTO 22002KT 9SM 29/22 A2977 RMK SLP072 T02920220 57021 IEM_DS3505
ZGNN,1995-05-09 07:00,ZGNN 090700Z AUTO 13004KT 7SM 29/21 A2977 RMK SLP068 T02900210 IEM_DS3505
ZGNN,1995-05-09 08:00,ZGNN 090800Z AUTO 00000KT 7SM 30/21 A2974 RMK SLP058 T03000210 IEM_DS3505
ZGNN,1995-05-09 09:00,ZGNN 090900Z AUTO 25002KT 12SM 30/23 A2971 RMK SLP052 T03010227 57020 IEM_DS3505
ZGNN,1995-05-09 10:00,ZGNN 091000Z AUTO 09004KT 7SM 29/21 A2971 RMK SLP048 T02900210 IEM_DS3505
ZGNN,1995-05-09 12:00,ZGNN 091200Z AUTO 00000KT 16SM 28/23 A2974 RMK SLP060 T02770229 52008 IEM_DS3505
ZGNN,1995-05-09 13:00,ZGNN 091300Z AUTO 00000KT 6SM 26/22 A2977 RMK SLP069 T02600220 IEM_DS3505
ZGNN,1995-05-09 15:00,ZGNN 091500Z AUTO 00000KT 16SM 26/23 A2983 RMK SLP090 T02630228 52030 IEM_DS3505
ZGNN,1995-05-09 18:00,ZGNN 091800Z AUTO 00000KT 12SM 25/22 A2984 RMK SLP093 T02510225 52003 IEM_DS3505
ZGNN,1995-05-09 21:00,ZGNN 092100Z AUTO 18002KT 12SM 24/22 A2985 RMK SLP093 T02430225 54000 IEM_DS3505
ZGNN,1995-05-09 22:00,ZGNN 092200Z AUTO 00000KT 7SM 24/22 A2985 RMK SLP097 T02400220 IEM_DS3505
ZGNN,1995-05-09 23:00,ZGNN 092300Z AUTO 06004KT 7SM 24/22 A2988 RMK SLP107 T02400220 IEM_DS3505
ZGNN,1995-05-10 00:00,ZGNN 100000Z AUTO 04002KT 16SM 24/22 A2991 RMK SLP115 T02450221 52021 IEM_DS3505
ZGNN,1995-05-10 01:00,ZGNN 100100Z AUTO 12006KT 7SM 26/23 A2991 RMK SLP117 T02600230 IEM_DS3505
ZGNN,1995-05-10 02:00,ZGNN 100200Z AUTO 14004KT 7SM 27/22 A2994 RMK SLP127 T02700220 IEM_DS3505
ZGNN,1995-05-10 03:00,ZGNN 100300Z AUTO 14002KT 16SM 28/22 A2991 RMK SLP116 T02810219 52002 IEM_DS3505
ZGNN,1995-05-10 04:00,ZGNN 100400Z AUTO 17004KT 7SM 29/22 A2988 RMK SLP106 T02900220 IEM_DS3505
ZGNN,1995-05-10 06:00,ZGNN 100600Z AUTO 20002KT 19SM 31/22 A2985 RMK SLP094 T03120220 57022 IEM_DS3505
ZGNN,1995-05-10 07:00,ZGNN 100700Z AUTO 08004KT 7SM 31/20 A2983 RMK SLP088 T03100200 IEM_DS3505
ZGNN,1995-05-10 08:00,ZGNN 100800Z AUTO 05006KT 7SM 31/19 A2980 RMK SLP078 T03100190 IEM_DS3505
ZGNN,1995-05-10 09:00,ZGNN 100900Z AUTO 04006KT 19SM 29/22 A2980 RMK SLP078 T02910219 57016 IEM_DS3505
ZGNN,1995-05-10 10:00,ZGNN 101000Z AUTO 05006KT 6SM 29/21 A2980 RMK SLP079 T02900210 IEM_DS3505
ZGNN,1995-05-10 12:00,ZGNN 101200Z AUTO 07002KT 16SM 27/22 A2983 RMK SLP086 T02730222 52007 IEM_DS3505
ZGNN,1995-05-10 13:00,ZGNN 101300Z AUTO 00000KT 6SM 26/21 A2985 RMK SLP097 T02600210 IEM_DS3505
ZGNN,1995-05-10 15:00,ZGNN 101500Z AUTO 22004KT 16SM 26/22 A2988 RMK SLP107 T02630215 52022 IEM_DS3505
ZGNN,1995-05-10 18:00,ZGNN 101800Z AUTO 00000KT 14SM 25/22 A2986 RMK SLP100 T02510220 57007 IEM_DS3505
ZGNN,1995-05-10 21:00,ZGNN 102100Z AUTO 00000KT 12SM 24/22 A2988 RMK SLP101 T02430222 52001 IEM_DS3505
ZGNN,1995-05-10 22:00,ZGNN 102200Z AUTO 00000KT 7SM 23/22 A2988 RMK SLP108 T02300220 IEM_DS3505
ZGNN,1995-05-11 00:00,ZGNN 110000Z AUTO 04002KT 7SM 24/22 A2991 RMK SLP117 T02410223 52015 IEM_DS3505
ZGNN,1995-05-11 01:00,ZGNN 110100Z AUTO 11004KT 7SM 24/22 A2991 RMK SLP117 T02400220 IEM_DS3505
ZGNN,1995-05-11 02:00,ZGNN 110200Z AUTO 15006KT 7SM 25/22 A2994 RMK SLP127 T02500220 IEM_DS3505
ZGNN,1995-05-11 03:00,ZGNN 110300Z AUTO 11002KT 11SM 27/23 A2991 RMK SLP118 T02710227 52001 IEM_DS3505
ZGNN,1995-05-11 06:00,ZGNN 110600Z AUTO 16002KT 14SM 29/21 A2985 RMK SLP095 T02940206 57022 IEM_DS3505
ZGNN,1995-05-11 07:00,ZGNN 110700Z AUTO 14006KT 6SM 29/19 A2983 RMK SLP089 T02900190 IEM_DS3505
ZGNN,1995-05-11 08:00,ZGNN 110800Z AUTO 14006KT 6SM 29/19 A2980 RMK SLP079 T02900190 IEM_DS3505
ZGNN,1995-05-11 09:00,ZGNN 110900Z AUTO 09002KT 16SM 30/20 A2980 RMK SLP072 T02970204 57023 IEM_DS3505
ZGNN,1995-05-11 10:00,ZGNN 111000Z AUTO 09006KT 6SM 28/20 A2977 RMK SLP069 T02800200 IEM_DS3505
ZGNN,1995-05-11 12:00,ZGNN 111200Z AUTO 07002KT 16SM 28/20 A2980 RMK SLP076 T02760195 52004 IEM_DS3505
ZGNN,1995-05-11 13:00,ZGNN 111300Z AUTO 15006KT 6SM 26/20 A2983 RMK SLP090 T02600200 IEM_DS3505
ZGNN,1995-05-11 14:00,ZGNN 111400Z AUTO 15006KT 6SM 25/20 A2983 RMK SLP090 T02500200 IEM_DS3505
ZGNN,1995-05-11 15:00,ZGNN 111500Z AUTO 18002KT 14SM 26/20 A2984 RMK SLP094 T02610205 52018 IEM_DS3505
ZGNN,1995-05-11 18:00,ZGNN 111800Z AUTO 00000KT 14SM 25/22 A2984 RMK SLP093 T02520223 57001 IEM_DS3505
ZGNN,1995-05-11 21:00,ZGNN 112100Z AUTO 00000KT 14SM 24/22 A2983 RMK SLP088 T02400219 57005 IEM_DS3505
ZGNN,1995-05-11 22:00,ZGNN 112200Z AUTO 10002KT 7SM 24/22 A2983 RMK SLP090 T02400220 IEM_DS3505
ZGNN,1995-05-11 23:00,ZGNN 112300Z AUTO 10006KT 7SM 23/20 A2985 RMK SLP097 T02300200 IEM_DS3505
ZGNN,1995-05-12 00:00,ZGNN 120000Z AUTO 00000KT 9SM 24/22 A2985 RMK 60008 70008 SLP099 T02370221 52010 IEM_DS3505
ZGNN,1995-05-12 01:00,ZGNN 120100Z AUTO 13006KT 7SM 26/21 A2988 RMK SLP107 T02600210 IEM_DS3505
ZGNN,1995-05-12 02:00,ZGNN 120200Z AUTO 13006KT 7SM 26/22 A2988 RMK SLP107 T02600220 IEM_DS3505
ZGNN,1995-05-12 03:00,ZGNN 120300Z AUTO 27004KT 16SM 28/23 A2988 RMK SLP099 T02800228 52001 IEM_DS3505
ZGNN,1995-05-12 04:00,ZGNN 120400Z AUTO 15008KT 7SM 30/21 A2985 RMK SLP095 T03000210 IEM_DS3505
ZGNN,1995-05-12 06:00,ZGNN 120600Z AUTO 34002KT 19SM 31/22 A2980 RMK SLP077 T03100223 57022 IEM_DS3505
ZGNN,1995-05-12 07:00,ZGNN 120700Z AUTO 16010KT 7SM 31/21 A2977 RMK SLP068 T03100210 IEM_DS3505
ZGNN,1995-05-12 08:00,ZGNN 120800Z AUTO 16014KT 7SM 31/21 A2977 RMK SLP068 T03100210 IEM_DS3505
ZGNN,1995-05-12 09:00,ZGNN 120900Z AUTO 27004KT 19SM 28/21 A2977 RMK SLP067 T02770213 57010 IEM_DS3505
ZGNN,1995-05-12 10:00,ZGNN 121000Z AUTO 16010KT 6SM 28/20 A2977 RMK SLP069 T02800200 IEM_DS3505
ZGNN,1995-05-12 12:00,ZGNN 121200Z AUTO 22004KT 19SM 26/20 A2979 RMK SLP078 T02590203 52010 IEM_DS3505
ZGNN,1995-05-12 13:00,ZGNN 121300Z AUTO 17004KT 7SM 24/21 A2983 RMK SLP090 T02400210 IEM_DS3505
ZGNN,1995-05-12 15:00,ZGNN 121500Z AUTO 22002KT 19SM 24/21 A2985 RMK SLP097 T02450212 52019 IEM_DS3505
ZGNN,1995-05-12 18:00,ZGNN 121800Z AUTO 00000KT 16SM 24/22 A2985 RMK SLP094 T02350217 57002 IEM_DS3505
ZGNN,1995-05-12 21:00,ZGNN 122100Z AUTO 14004KT 16SM 22/21 A2982 RMK 70008 SLP085 T02240213 57010 IEM_DS3505
ZGNN,1995-05-12 23:00,ZGNN 122300Z AUTO 00000KT 7SM 21/21 A2983 RMK SLP091 T02100210 IEM_DS3505
ZGNN,1995-05-13 00:00,ZGNN 130000Z AUTO 00000KT 9SM 24/22 A2985 RMK SLP095 T02410220 52010 IEM_DS3505
ZGNN,1995-05-13 02:00,ZGNN 130200Z AUTO 00000KT 7SM 27/20 A2985 RMK SLP096 T02700200 IEM_DS3505
ZGNN,1995-05-13 03:00,ZGNN 130300Z AUTO 18004KT 17SM 28/21 A2983 RMK SLP090 T02840211 57004 IEM_DS3505
ZGNN,1995-05-13 04:00,ZGNN 130400Z AUTO 00000KT 7SM 29/19 A2983 RMK SLP089 T02900190 IEM_DS3505
ZGNN,1995-05-13 06:00,ZGNN 130600Z AUTO 20002KT 19SM 30/20 A2977 RMK SLP068 T03030201 57022 IEM_DS3505
ZGNN,1995-05-13 07:00,ZGNN 130700Z AUTO 18008KT 7SM 32/20 A2974 RMK SLP058 T03200200 IEM_DS3505
ZGNN,1995-05-13 08:00,ZGNN 130800Z AUTO 12006KT 7SM 32/19 A2971 RMK SLP048 T03200190 IEM_DS3505
ZGNN,1995-05-13 09:00,ZGNN 130900Z AUTO 07004KT 19SM 32/21 A2968 RMK SLP046 T03150207 57022 IEM_DS3505
ZGNN,1995-05-13 10:00,ZGNN 131000Z AUTO 11006KT 7SM 31/19 A2968 RMK SLP038 T03100190 IEM_DS3505
ZGNN,1995-05-13 12:00,ZGNN 131200Z AUTO 07004KT 19SM 29/21 A2971 RMK SLP048 T02890212 52002 IEM_DS3505
ZGNN,1995-05-13 13:00,ZGNN 131300Z AUTO 18006KT 7SM 27/22 A2974 RMK SLP059 T02700220 IEM_DS3505
ZGNN,1995-05-13 15:00,ZGNN 131500Z AUTO 22002KT 17SM 26/22 A2979 RMK SLP074 T02640223 52026 IEM_DS3505
ZGNN,1995-05-13 18:00,ZGNN 131800Z AUTO 07004KT 16SM 24/22 A2978 RMK SLP073 T02430222 57001 IEM_DS3505
ZGNN,1995-05-13 21:00,ZGNN 132100Z AUTO 07002KT 16SM 23/22 A2977 RMK SLP071 T02340215 57002 IEM_DS3505
ZGNN,1995-05-13 22:00,ZGNN 132200Z AUTO 00000KT 7SM 22/21 A2977 RMK SLP070 T02200210 IEM_DS3505
ZGNN,1995-05-13 23:00,ZGNN 132300Z AUTO 36004KT 7SM 23/21 A2980 RMK SLP080 T02300210 IEM_DS3505
ZGNN,1995-05-14 00:00,ZGNN 140000Z AUTO 04002KT 16SM 25/21 A2980 RMK SLP078 T02470211 52007 IEM_DS3505
ZGNN,1995-05-14 01:00,ZGNN 140100Z AUTO 00000KT 7SM 27/21 A2983 RMK SLP089 T02700210 IEM_DS3505
ZGNN,1995-05-14 02:00,ZGNN 140200Z AUTO 09004KT 7SM 29/20 A2980 RMK SLP079 T02900200 IEM_DS3505
ZGNN,1995-05-14 03:00,ZGNN 140300Z AUTO 14002KT 19SM 29/21 A2980 RMK SLP080 T02930212 52002 IEM_DS3505
ZGNN,1995-05-14 04:00,ZGNN 140400Z AUTO 04004KT 7SM 31/19 A2980 RMK SLP078 T03100190 IEM_DS3505
ZGNN,1995-05-14 06:00,ZGNN 140600Z AUTO 00000KT 19SM 32/20 A2974 RMK SLP059 T03170204 57021 IEM_DS3505
ZGNN,1995-05-14 07:00,ZGNN 140700Z AUTO 04006KT 7SM 32/20 A2971 RMK SLP048 T03200200 IEM_DS3505
ZGNN,1995-05-14 08:00,ZGNN 140800Z AUTO 08008KT 7SM 32/19 A2968 RMK SLP037 T03200190 IEM_DS3505
ZGNN,1995-05-14 09:00,ZGNN 140900Z AUTO 09004KT 19SM 32/21 A2965 RMK SLP033 T03210209 57026 IEM_DS3505
ZGNN,1995-05-14 10:00,ZGNN 141000Z AUTO 14006KT 7SM 31/20 A2968 RMK SLP038 T03100200 IEM_DS3505
ZGNN,1995-05-14 11:00,ZGNN 141100Z AUTO 16008KT 7SM 29/22 A2971 RMK SLP048 T02900220 IEM_DS3505
ZGNN,1995-05-14 12:00,ZGNN 141200Z AUTO 27002KT 16SM 30/22 A2971 RMK SLP052 T02990223 IEM_DS3505
ZGNN,1995-05-14 13:00,ZGNN 141300Z AUTO 33016KT 7SM 23/21 A2977 RMK SLP070 T02300210 IEM_DS3505
ZGNN,1995-05-14 15:00,ZGNN 141500Z AUTO 32004KT 14SM 22/20 A2984 RMK SLP094 T02190202 52041 IEM_DS3505
ZGNN,1995-05-14 18:00,ZGNN 141800Z AUTO 32006KT 14SM 21/19 A2985 RMK 60024 SLP095 T02110192 52002 IEM_DS3505
ZGNN,1995-05-14 21:00,ZGNN 142100Z AUTO 36004KT 12SM 21/18 A2983 RMK 70024 SLP090 T02090182 57005 IEM_DS3505
ZGNN,1995-05-14 22:00,ZGNN 142200Z AUTO 35004KT 7SM 20/18 A2983 RMK SLP091 T02000180 IEM_DS3505
ZGNN,1995-05-14 23:00,ZGNN 142300Z AUTO 35008KT 7SM 20/18 A2985 RMK SLP098 T02000180 IEM_DS3505
ZGNN,1995-05-15 00:00,ZGNN 150000Z AUTO 36004KT 7SM 20/17 A2988 RMK 70024 SLP102 T02030174 52011 IEM_DS3505
ZGNN,1995-05-15 01:00,ZGNN 150100Z AUTO 34006KT 7SM 20/18 A2988 RMK SLP108 T02000180 IEM_DS3505
ZGNN,1995-05-15 02:00,ZGNN 150200Z AUTO 35012KT 7SM 20/17 A2991 RMK SLP118 T02000170 IEM_DS3505
ZGNN,1995-05-15 03:00,ZGNN 150300Z AUTO 32006KT 9SM 20/17 A2991 RMK SLP119 T01980174 52016 IEM_DS3505
ZGNN,1995-05-15 06:00,ZGNN 150600Z AUTO 36006KT 19SM 20/17 A2988 RMK SLP105 T02030169 57014 IEM_DS3505
ZGNN,1995-05-15 09:00,ZGNN 150900Z AUTO 29006KT 16SM 21/16 A2984 RMK SLP093 T02070161 57012 IEM_DS3505
ZGNN,1995-05-15 12:00,ZGNN 151200Z AUTO 32004KT 14SM 20/16 A2989 RMK SLP112 T01990156 52019 IEM_DS3505
ZGNN,1995-05-15 15:00,ZGNN 151500Z AUTO 04004KT 13SM 19/16 A2992 RMK SLP123 T01930160 52010 IEM_DS3505
ZGNN,1995-05-15 18:00,ZGNN 151800Z AUTO 36002KT 12SM 19/16 A2990 RMK SLP115 T01920160 57008 IEM_DS3505
ZGNN,1995-05-15 21:00,ZGNN 152100Z AUTO 00000KT 12SM 19/15 A2987 RMK SLP104 T01910152 57010 IEM_DS3505
ZGNN,1995-05-16 00:00,ZGNN 160000Z AUTO 36004KT 10SM 18/16 A2990 RMK 60002 70002 SLP117 T01850162 52012 IEM_DS3505
ZGNN,1995-05-16 03:00,ZGNN 160300Z AUTO 07004KT 16SM 21/16 A2990 RMK SLP116 T02130164 54000 IEM_DS3505
ZGNN,1995-05-16 06:00,ZGNN 160600Z AUTO 07002KT 17SM 24/17 A2985 RMK 60000 SLP096 T02400168 57020 IEM_DS3505
ZGNN,1995-05-16 09:00,ZGNN 160900Z AUTO 09004KT 16SM 26/18 A2979 RMK SLP075 T02580178 57020 IEM_DS3505
ZGNN,1995-05-16 12:00,ZGNN 161200Z AUTO 07004KT 17SM 24/18 A2980 RMK SLP080 T02380183 52004 IEM_DS3505
ZGNN,1995-05-16 15:00,ZGNN 161500Z AUTO 07004KT 16SM 22/18 A2984 RMK SLP095 T02240183 52015 IEM_DS3505
ZGNN,1995-05-16 18:00,ZGNN 161800Z AUTO 07004KT 12SM 22/18 A2983 RMK SLP090 T02170179 57004 IEM_DS3505
ZGNN,1995-05-16 21:00,ZGNN 162100Z AUTO 11002KT 10SM 21/18 A2981 RMK 70002 SLP084 T02100180 57006 IEM_DS3505
ZGNN,1995-05-17 00:00,ZGNN 170000Z AUTO 14002KT 9SM 21/19 A2984 RMK SLP094 T02080188 52009 IEM_DS3505
ZGNN,1995-05-17 06:00,ZGNN 170600Z AUTO 00000KT 12SM 27/21 A2976 RMK SLP068 T02680208 57025 IEM_DS3505
ZGNN,1995-05-17 09:00,ZGNN 170900Z AUTO 09004KT 11SM 27/22 A2970 RMK SLP046 T02700220 57022 IEM_DS3505
ZGNN,1995-05-17 12:00,ZGNN 171200Z AUTO 07004KT 12SM 26/22 A2970 RMK SLP047 T02560222 52001 IEM_DS3505
ZGNN,1995-05-17 15:00,ZGNN 171500Z AUTO 07002KT 12SM 25/22 A2976 RMK SLP066 T02510215 52019 IEM_DS3505
ZGNN,1995-05-17 18:00,ZGNN 171800Z AUTO 00000KT 12SM 24/22 A2973 RMK SLP056 T02440219 57001 IEM_DS3505
ZGNN,1995-05-17 21:00,ZGNN 172100Z AUTO 00000KT 12SM 24/22 A2971 RMK SLP047 T02430225 57009 IEM_DS3505
ZGNN,1995-05-17 22:00,ZGNN 172200Z AUTO 00000KT 7SM 23/22 A2971 RMK SLP050 T02300220 IEM_DS3505
ZGNN,1995-05-17 23:00,ZGNN 172300Z AUTO 00000KT 7SM 24/23 A2971 RMK SLP050 T02400230 IEM_DS3505
ZGNN,1995-05-18 00:00,ZGNN 180000Z AUTO 00000KT 11SM 25/24 A2971 RMK SLP053 T02490235 IEM_DS3505
ZGNN,1995-05-18 01:00,ZGNN 180100Z AUTO 15006KT 7SM 27/24 A2971 RMK SLP049 T02700240 IEM_DS3505
ZGNN,1995-05-18 02:00,ZGNN 180200Z AUTO 14006KT 7SM 28/24 A2971 RMK SLP049 T02800240 IEM_DS3505
ZGNN,1995-05-18 03:00,ZGNN 180300Z AUTO 00000KT 14SM 28/25 A2971 RMK SLP047 T02840249 57006 IEM_DS3505
ZGNN,1995-05-18 04:00,ZGNN 180400Z AUTO 13012KT 7SM 31/25 A2968 RMK SLP038 T03100250 IEM_DS3505
ZGNN,1995-05-18 06:00,ZGNN 180600Z AUTO 20002KT 16SM 32/25 A2964 RMK SLP023 T03170251 57023 IEM_DS3505
ZGNN,1995-05-18 07:00,ZGNN 180700Z AUTO 13014KT 7SM 33/25 A2962 RMK SLP016 T03300250 IEM_DS3505
ZGNN,1995-05-18 08:00,ZGNN 180800Z AUTO 12012KT 7SM 32/25 A2959 RMK SLP006 T03200250 IEM_DS3505
ZGNN,1995-05-18 09:00,ZGNN 180900Z AUTO 14004KT 19SM 32/26 A2959 RMK SLP007 T03240255 57016 IEM_DS3505
ZGNN,1995-05-18 12:00,ZGNN 181200Z AUTO 32006KT 19SM 29/24 A2963 RMK SLP021 T02890241 52013 IEM_DS3505
ZGNN,1995-05-18 13:00,ZGNN 181300Z AUTO 16004KT 6SM 27/24 A2962 RMK SLP018 T02700240 IEM_DS3505
ZGNN,1995-05-18 14:00,ZGNN 181400Z AUTO 15002KT 7SM 26/24 A2965 RMK SLP028 T02600240 IEM_DS3505
ZGNN,1995-05-18 15:00,ZGNN 181500Z AUTO 07002KT 16SM 27/24 A2967 RMK SLP035 T02690240 52014 IEM_DS3505
ZGNN,1995-05-18 18:00,ZGNN 181800Z AUTO 04002KT 14SM 26/24 A2968 RMK SLP036 T02570235 52002 IEM_DS3505
ZGNN,1995-05-18 21:00,ZGNN 182100Z AUTO 07004KT 12SM 26/24 A2965 RMK SLP033 T02610235 57003 IEM_DS3505
ZGNN,1995-05-18 22:00,ZGNN 182200Z AUTO 00000KT 7SM 24/23 A2968 RMK SLP040 T02400230 IEM_DS3505
ZGNN,1995-05-18 23:00,ZGNN 182300Z AUTO 00000KT 7SM 26/24 A2968 RMK SLP039 T02600240 IEM_DS3505
ZGNN,1995-05-19 00:00,ZGNN 190000Z AUTO 16002KT 19SM 27/24 A2968 RMK SLP045 T02720244 52011 IEM_DS3505
ZGNN,1995-05-19 01:00,ZGNN 190100Z AUTO 15008KT 6SM 30/25 A2971 RMK SLP048 T03000250 IEM_DS3505
ZGNN,1995-05-19 02:00,ZGNN 190200Z AUTO 12010KT 7SM 30/24 A2971 RMK SLP048 T03000240 IEM_DS3505
ZGNN,1995-05-19 03:00,ZGNN 190300Z AUTO 22002KT 19SM 31/25 A2971 RMK SLP046 T03100251 52002 IEM_DS3505
ZGNN,1995-05-19 06:00,ZGNN 190600Z AUTO 22006KT 19SM 34/24 A2962 RMK SLP019 T03390244 57027 IEM_DS3505
ZGNN,1995-05-19 08:00,ZGNN 190800Z AUTO 14019KT 7SM 34/24 A2959 RMK SLP006 T03400240 IEM_DS3505
ZGNN,1995-05-19 09:00,ZGNN 190900Z AUTO 14004KT 19SM 33/25 A2956 RMK SLP006 T03330249 57013 IEM_DS3505
ZGNN,1995-05-19 10:00,ZGNN 191000Z AUTO 15017KT 7SM 32/24 A2959 RMK SLP006 T03200240 IEM_DS3505
ZGNN,1995-05-19 11:00,ZGNN 191100Z AUTO 13012KT 6SM 30/24 A2962 RMK SLP017 T03000240 IEM_DS3505
ZGNN,1995-05-19 12:00,ZGNN 191200Z AUTO 04004KT 19SM 30/24 A2965 RMK SLP023 T02990236 52017 IEM_DS3505
ZGNN,1995-05-19 13:00,ZGNN 191300Z AUTO 15006KT 7SM A2985 RMK IEM_DS3505
ZGNN,1995-05-19 15:00,ZGNN 191500Z AUTO 07002KT 17SM 28/24 A2968 RMK SLP040 T02760237 52017 IEM_DS3505
ZGNN,1995-05-19 18:00,ZGNN 191800Z AUTO 04002KT 16SM 26/24 A2968 RMK SLP037 T02650235 57003 IEM_DS3505
ZGNN,1995-05-19 21:00,ZGNN 192100Z AUTO 07004KT 16SM 25/23 A2966 RMK SLP033 T02510232 57004 IEM_DS3505
ZGNN,1995-05-19 22:00,ZGNN 192200Z AUTO 00000KT 6SM 24/23 A2965 RMK SLP029 T02400230 IEM_DS3505
ZGNN,1995-05-19 23:00,ZGNN 192300Z AUTO 00000KT 6SM 25/23 A2968 RMK SLP039 T02500230 IEM_DS3505
ZGNN,1995-05-20 00:00,ZGNN 200000Z AUTO 00000KT 14SM 27/24 A2968 RMK SLP044 T02660243 52010 IEM_DS3505
ZGNN,1995-05-20 01:00,ZGNN 200100Z AUTO 00000KT 14SM 27/24 A2971 RMK SLP044 T02660243 52010 IEM_DS3505
ZGNN,1995-05-20 02:00,ZGNN 200200Z AUTO 14006KT 6SM 31/25 A2971 RMK SLP048 T03100250 IEM_DS3505
ZGNN,1995-05-20 03:00,ZGNN 200300Z AUTO 27004KT 19SM 31/25 A2971 RMK SLP042 T03130253 57001 IEM_DS3505
ZGNN,1995-05-20 04:00,ZGNN 200400Z AUTO 15012KT 7SM 33/25 A2968 RMK SLP037 T03300250 IEM_DS3505
ZGNN,1995-05-20 06:00,ZGNN 200600Z AUTO 32004KT 19SM 35/26 A2962 RMK SLP020 T03460255 57022 IEM_DS3505
ZGNN,1995-05-20 07:00,ZGNN 200700Z AUTO 14012KT 7SM 35/25 A2959 RMK SLP005 T03500250 IEM_DS3505
ZGNN,1995-05-20 08:00,ZGNN 200800Z AUTO 13014KT 7SM 35/24 A2959 RMK SLP005 T03500240 IEM_DS3505
ZGNN,1995-05-20 09:00,ZGNN 200900Z AUTO 36002KT 19SM 34/26 A2958 RMK SLP004 T03440260 57016 IEM_DS3505
ZGNN,1995-05-20 10:00,ZGNN 201000Z AUTO 13008KT 7SM 32/25 A2959 RMK SLP006 T03200250 IEM_DS3505
ZGNN,1995-05-20 11:00,ZGNN 201100Z AUTO 13012KT 7SM 31/25 A2959 RMK SLP006 T03100250 IEM_DS3505
ZGNN,1995-05-20 12:00,ZGNN 201200Z AUTO 18004KT 19SM 31/25 A2962 RMK SLP020 T03070248 52016 IEM_DS3505
ZGNN,1995-05-20 13:00,ZGNN 201300Z AUTO 10006KT 7SM 29/24 A2962 RMK SLP017 T02900240 IEM_DS3505
ZGNN,1995-05-20 15:00,ZGNN 201500Z AUTO 09004KT 19SM 28/24 A2968 RMK SLP038 T02830243 52018 IEM_DS3505
ZGNN,1995-05-20 18:00,ZGNN 201800Z AUTO 07004KT 16SM 26/24 A2965 RMK SLP028 T02650239 57010 IEM_DS3505
ZGNN,1995-05-20 21:00,ZGNN 202100Z AUTO 04004KT 14SM 26/24 A2962 RMK SLP027 T02570240 57001 IEM_DS3505
ZGNN,1995-05-20 22:00,ZGNN 202200Z AUTO 02004KT 7SM 25/24 A2965 RMK SLP028 T02500240 IEM_DS3505
ZGNN,1995-05-20 23:00,ZGNN 202300Z AUTO 04004KT 7SM 25/24 A2968 RMK SLP039 T02500240 IEM_DS3505
ZGNN,1995-05-21 00:00,ZGNN 210000Z AUTO 04004KT 12SM 26/24 A2971 RMK SLP049 T02630243 52021 IEM_DS3505
ZGNN,1995-05-21 01:00,ZGNN 210100Z AUTO 04006KT 7SM 27/25 A2974 RMK SLP059 T02700250 IEM_DS3505
ZGNN,1995-05-21 02:00,ZGNN 210200Z AUTO 02008KT 7SM 28/25 A2977 RMK SLP069 T02800250 IEM_DS3505
ZGNN,1995-05-21 03:00,ZGNN 210300Z AUTO 09004KT 9SM 24/23 A2977 RMK SLP076 T02450230 52027 IEM_DS3505
ZGNN,1995-05-21 06:00,ZGNN 210600Z AUTO 04006KT 16SM 24/20 A2982 RMK 60012 SLP086 T02350195 52009 IEM_DS3505
ZGNN,1995-05-21 07:00,ZGNN 210700Z AUTO 03012KT 7SM 24/17 A2980 RMK SLP080 T02400170 IEM_DS3505
ZGNN,1995-05-21 08:00,ZGNN 210800Z AUTO 02010KT 7SM 24/17 A2977 RMK SLP070 T02400170 IEM_DS3505
ZGNN,1995-05-21 09:00,ZGNN 210900Z AUTO 04006KT 16SM 25/18 A2977 RMK SLP075 T02490180 57011 IEM_DS3505
ZGNN,1995-05-21 10:00,ZGNN 211000Z AUTO 02008KT 7SM 25/17 A2977 RMK SLP070 T02500170 IEM_DS3505
ZGNN,1995-05-21 11:00,ZGNN 211100Z AUTO 03006KT 7SM 24/17 A2980 RMK SLP080 T02400170 IEM_DS3505
ZGNN,1995-05-21 12:00,ZGNN 211200Z AUTO 07002KT 19SM 24/18 A2980 RMK SLP081 T02390175 52006 IEM_DS3505
ZGNN,1995-05-21 13:00,ZGNN 211300Z AUTO 10006KT 7SM 29/24 RMK T02900240 IEM_DS3505
ZGNN,1995-05-21 14:00,ZGNN 211400Z AUTO 00000KT 7SM 22/19 A2985 RMK SLP098 T02200190 IEM_DS3505
ZGNN,1995-05-21 15:00,ZGNN 211500Z AUTO 04004KT 19SM 22/17 A2986 RMK SLP101 T02240174 52020 IEM_DS3505
ZGNN,1995-05-21 18:00,ZGNN 211800Z AUTO 04002KT 16SM 21/16 A2983 RMK SLP090 T02110164 57012 IEM_DS3505
ZGNN,1995-05-21 21:00,ZGNN 212100Z AUTO 00000KT 14SM 20/16 A2983 RMK 70012 SLP086 T02030165 57003 IEM_DS3505
ZGNN,1995-05-21 22:00,ZGNN 212200Z AUTO 00000KT 7SM 19/18 A2983 RMK SLP092 T01900180 IEM_DS3505
ZGNN,1995-05-21 23:00,ZGNN 212300Z AUTO 00000KT 7SM 19/18 A2985 RMK SLP099 T01900180 IEM_DS3505
ZGNN,1995-05-22 00:00,ZGNN 220000Z AUTO 14002KT 12SM 22/16 A2986 RMK 70012 SLP101 T02150164 52014 IEM_DS3505
ZGNN,1995-05-22 01:00,ZGNN 220100Z AUTO 00000KT 6SM 22/17 A2985 RMK SLP098 T02200170 IEM_DS3505
ZGNN,1995-05-22 02:00,ZGNN 220200Z AUTO 00000KT 6SM 24/15 A2985 RMK SLP097 T02400150 IEM_DS3505
ZGNN,1995-05-22 03:00,ZGNN 220300Z AUTO 09004KT 14SM 25/15 A2985 RMK SLP098 T02500153 57002 IEM_DS3505
ZGNN,1995-05-22 06:00,ZGNN 220600Z AUTO 07004KT 17SM 28/17 A2977 RMK SLP072 T02800166 57026 IEM_DS3505
ZGNN,1995-05-22 07:00,ZGNN 220700Z AUTO 01004KT 6SM 29/16 A2974 RMK SLP058 T02900160 IEM_DS3505
ZGNN,1995-05-22 08:00,ZGNN 220800Z AUTO 09006KT 6SM 29/16 A2974 RMK SLP058 T02900160 IEM_DS3505
ZGNN,1995-05-22 09:00,ZGNN 220900Z AUTO 25002KT 16SM 30/17 A2971 RMK SLP049 T02950168 57023 IEM_DS3505
ZGNN,1995-05-22 10:00,ZGNN 221000Z AUTO 08006KT 7SM 30/17 A2971 RMK SLP048 T03000170 IEM_DS3505
ZGNN,1995-05-22 11:00,ZGNN 221100Z AUTO 09004KT 7SM 28/17 A2971 RMK SLP049 T02800170 IEM_DS3505
ZGNN,1995-05-22 12:00,ZGNN 221200Z AUTO 07004KT 16SM 27/18 A2971 RMK SLP053 T02710179 52004 IEM_DS3505
ZGNN,1995-05-22 13:00,ZGNN 221300Z AUTO 09004KT 7SM 26/17 A2974 RMK SLP059 T02600170 IEM_DS3505
ZGNN,1995-05-22 14:00,ZGNN 221400Z AUTO 09002KT 7SM 25/17 A2974 RMK SLP060 T02500170 IEM_DS3505
ZGNN,1995-05-22 15:00,ZGNN 221500Z AUTO 04002KT 16SM 24/18 A2976 RMK SLP066 T02440178 52013 IEM_DS3505
ZGNN,1995-05-22 18:00,ZGNN 221800Z AUTO 07002KT 12SM 24/19 A2977 RMK SLP069 T02350190 52004 IEM_DS3505
ZGNN,1995-05-22 21:00,ZGNN 222100Z AUTO 04002KT 12SM 23/20 A2977 RMK SLP069 T02290197 54000 IEM_DS3505
ZGNN,1995-05-22 23:00,ZGNN 222300Z AUTO 00000KT 6SM 22/21 A2980 RMK SLP081 T02200210 IEM_DS3505
ZGNN,1995-05-23 00:00,ZGNN 230000Z AUTO 14002KT 19SM 25/21 A2980 RMK SLP080 T02490213 52011 IEM_DS3505
ZGNN,1995-05-23 01:00,ZGNN 230100Z AUTO 17006KT 6SM 26/21 A2983 RMK SLP090 T02600210 IEM_DS3505
ZGNN,1995-05-23 03:00,ZGNN 230300Z AUTO 11002KT 19SM 28/23 A2980 RMK SLP084 T02750228 52003 IEM_DS3505
ZGNN,1995-05-23 06:00,ZGNN 230600Z AUTO 07002KT 19SM 28/24 A2974 RMK SLP064 T02830239 57019 IEM_DS3505
ZGNN,1995-05-23 07:00,ZGNN 230700Z AUTO 14008KT 7SM 31/23 A2971 RMK SLP048 T03100230 IEM_DS3505
ZGNN,1995-05-23 08:00,ZGNN 230800Z AUTO 15008KT 7SM 31/23 A2968 RMK SLP038 T03100230 IEM_DS3505
ZGNN,1995-05-23 09:00,ZGNN 230900Z AUTO 09004KT 19SM 29/24 A2968 RMK SLP038 T02930245 57026 IEM_DS3505
ZGNN,1995-05-23 10:00,ZGNN 231000Z AUTO 15012KT 7SM 31/23 A2965 RMK SLP027 T03100230 IEM_DS3505
ZGNN,1995-05-23 11:00,ZGNN 231100Z AUTO 13008KT 7SM 30/23 A2965 RMK SLP027 T03000230 IEM_DS3505
ZGNN,1995-05-23 12:00,ZGNN 231200Z AUTO 20002KT 16SM 29/23 A2968 RMK SLP040 T02860234 52002 IEM_DS3505
ZGNN,1995-05-23 13:00,ZGNN 231300Z AUTO 00000KT 7SM 27/23 A2971 RMK SLP049 T02700230 IEM_DS3505
ZGNN,1995-05-23 15:00,ZGNN 231500Z AUTO 32002KT 16SM 27/23 A2976 RMK SLP064 T02670232 52024 IEM_DS3505
ZGNN,1995-05-23 18:00,ZGNN 231800Z AUTO 11002KT 16SM 26/24 A2975 RMK SLP063 T02650236 57001 IEM_DS3505
ZGNN,1995-05-23 21:00,ZGNN 232100Z AUTO 00000KT 16SM 27/25 A2974 RMK SLP061 T02670247 57002 IEM_DS3505
ZGNN,1995-05-23 22:00,ZGNN 232200Z AUTO 15006KT 7SM 27/24 A2977 RMK SLP069 T02700240 IEM_DS3505
ZGNN,1995-05-24 00:00,ZGNN 240000Z AUTO 00000KT 7SM 27/25 A2979 RMK 70000 SLP076 T02690252 52015 IEM_DS3505
ZGNN,1995-05-24 02:00,ZGNN 240200Z AUTO 16010KT 7SM 30/25 A2980 RMK SLP078 T03000250 IEM_DS3505
ZGNN,1995-05-24 03:00,ZGNN 240300Z AUTO 29004KT 9SM 30/26 A2977 RMK SLP072 T03040255 57004 IEM_DS3505
ZGNN,1995-05-24 04:00,ZGNN 240400Z AUTO 15012KT 7SM 33/24 A2974 RMK SLP057 T03300240 IEM_DS3505
ZGNN,1995-05-24 06:00,ZGNN 240600Z AUTO 20002KT 14SM 33/25 A2971 RMK SLP046 T03330249 57025 IEM_DS3505
ZGNN,1995-05-24 07:00,ZGNN 240700Z AUTO 14012KT 7SM 31/26 A2968 RMK SLP038 T03100260 IEM_DS3505
ZGNN,1995-05-24 09:00,ZGNN 240900Z AUTO 27004KT 19SM 33/26 A2962 RMK SLP020 T03330255 57023 IEM_DS3505
ZGNN,1995-05-24 10:00,ZGNN 241000Z AUTO 16010KT 6SM 32/25 A2962 RMK SLP016 T03200250 IEM_DS3505
ZGNN,1995-05-24 12:00,ZGNN 241200Z AUTO 09004KT 19SM 30/25 A2968 RMK SLP039 T03010251 52016 IEM_DS3505
ZGNN,1995-05-24 13:00,ZGNN 241300Z AUTO 15006KT 7SM 28/25 A2971 RMK SLP049 T02800250 IEM_DS3505
ZGNN,1995-05-24 14:00,ZGNN 241400Z AUTO 14006KT 7SM 27/25 A2971 RMK SLP049 T02700250 IEM_DS3505
ZGNN,1995-05-24 15:00,ZGNN 241500Z AUTO 00000KT 16SM 28/25 A2974 RMK SLP057 T02800249 52018 IEM_DS3505
ZGNN,1995-05-24 18:00,ZGNN 241800Z AUTO 11002KT 16SM 28/25 A2974 RMK SLP058 T02750250 52001 IEM_DS3505
ZGNN,1995-05-24 21:00,ZGNN 242100Z AUTO 14002KT 16SM 27/25 A2974 RMK 70000 SLP059 T02740251 52001 IEM_DS3505
ZGNN,1995-05-24 23:00,ZGNN 242300Z AUTO 14008KT 6SM 27/25 A2977 RMK SLP069 T02700250 IEM_DS3505
ZGNN,1995-05-25 00:00,ZGNN 250000Z AUTO 22002KT 16SM 28/25 A2977 RMK SLP073 T02790252 52013 IEM_DS3505
ZGNN,1995-05-25 01:00,ZGNN 250100Z AUTO 13012KT 7SM 29/24 A2977 RMK SLP068 T02900240 IEM_DS3505
ZGNN,1995-05-25 02:00,ZGNN 250200Z AUTO 15012KT 7SM 30/25 A2977 RMK SLP068 T03000250 IEM_DS3505
ZGNN,1995-05-25 03:00,ZGNN 250300Z AUTO 29004KT 19SM 30/25 A2977 RMK SLP069 T03010250 57004 IEM_DS3505
ZGNN,1995-05-25 04:00,ZGNN 250400Z AUTO 12014KT 7SM 32/25 A2974 RMK SLP058 T03200250 IEM_DS3505
ZGNN,1995-05-25 06:00,ZGNN 250600Z AUTO 22006KT 19SM 34/25 A2968 RMK SLP042 T03380250 57026 IEM_DS3505
ZGNN,1995-05-25 07:00,ZGNN 250700Z AUTO 19008KT 7SM 32/26 A2968 RMK SLP037 T03200260 IEM_DS3505
ZGNN,1995-05-25 08:00,ZGNN 250800Z AUTO 15010KT 7SM 30/24 A2965 RMK SLP027 T03000240 IEM_DS3505
ZGNN,1995-05-25 09:00,ZGNN 250900Z AUTO 22008KT 19SM 34/25 A2962 RMK SLP016 T03410251 57026 IEM_DS3505
ZGNN,1995-05-25 10:00,ZGNN 251000Z AUTO 15002KT 7SM 30/25 A2962 RMK SLP017 T03000250 IEM_DS3505
ZGNN,1995-05-25 11:00,ZGNN 251100Z AUTO 10004KT 6SM 30/26 A2965 RMK SLP027 T03000260 IEM_DS3505
ZGNN,1995-05-25 12:00,ZGNN 251200Z AUTO 14002KT 19SM 30/25 A2968 RMK SLP036 T03050247 52020 IEM_DS3505
ZGNN,1995-05-25 13:00,ZGNN 251300Z AUTO 13006KT 6SM 28/25 A2971 RMK SLP049 T02800250 IEM_DS3505
ZGNN,1995-05-25 14:00,ZGNN 251400Z AUTO 15006KT 6SM 27/25 A2971 RMK SLP049 T02700250 IEM_DS3505
ZGNN,1995-05-25 15:00,ZGNN 251500Z AUTO 07002KT 16SM 28/25 A2973 RMK SLP056 T02840249 52020 IEM_DS3505
ZGNN,1995-05-25 18:00,ZGNN 251800Z AUTO 09004KT 12SM 28/25 A2971 RMK SLP048 T02770250 57008 IEM_DS3505
ZGNN,1995-05-25 21:00,ZGNN 252100Z AUTO 09004KT 12SM 28/25 A2971 RMK SLP055 T02760249 52007 IEM_DS3505
ZGNN,1995-05-25 22:00,ZGNN 252200Z AUTO 12004KT 7SM 26/25 A2974 RMK SLP059 T02600250 IEM_DS3505
ZGNN,1995-05-25 23:00,ZGNN 252300Z AUTO 03004KT 7SM 26/25 A2977 RMK SLP069 T02600250 IEM_DS3505
ZGNN,1995-05-26 00:00,ZGNN 260000Z AUTO 04004KT 19SM 24/23 A2977 RMK 60020 70020 SLP073 T02450229 52017 IEM_DS3505
ZGNN,1995-05-26 01:00,ZGNN 260100Z AUTO 34006KT 7SM 25/23 A2980 RMK SLP080 T02500230 IEM_DS3505
ZGNN,1995-05-26 02:00,ZGNN 260200Z AUTO 33012KT 1 1/4SM 22/21 A2983 RMK SLP091 T02200210 IEM_DS3505
ZGNN,1995-05-26 03:00,ZGNN 260300Z AUTO 34006KT 6SM 23/23 A2983 RMK SLP082 T02340227 52008 IEM_DS3505
ZGNN,1995-05-26 04:00,ZGNN 260400Z AUTO 00000KT 7SM 23/22 A2983 RMK SLP090 T02300220 IEM_DS3505
ZGNN,1995-05-26 06:00,ZGNN 260600Z AUTO 32002KT 5SM 25/23 A2980 RMK 60051 SLP073 T02460230 57008 IEM_DS3505
ZGNN,1995-05-26 08:00,ZGNN 260800Z AUTO 00000KT 7SM 26/23 A2974 RMK SLP059 T02600230 IEM_DS3505
ZGNN,1995-05-26 09:00,ZGNN 260900Z AUTO 00000KT 9SM 26/23 A2974 RMK SLP061 T02560234 57012 IEM_DS3505
ZGNN,1995-05-26 10:00,ZGNN 261000Z AUTO 07006KT 7SM 26/23 RMK T02600230 IEM_DS3505
ZGNN,1995-05-26 11:00,ZGNN 261100Z AUTO 10004KT 6SM 26/23 A2977 RMK SLP069 T02600230 IEM_DS3505
ZGNN,1995-05-26 12:00,ZGNN 261200Z AUTO 14004KT 16SM 25/23 A2977 RMK SLP072 T02540232 52010 IEM_DS3505
ZGNN,1995-05-26 13:00,ZGNN 261300Z AUTO 00000KT 6SM 24/23 A2980 RMK SLP080 T02400230 IEM_DS3505
ZGNN,1995-05-26 15:00,ZGNN 261500Z AUTO 00000KT 14SM 24/23 A2985 RMK SLP095 T02450227 52023 IEM_DS3505
ZGNN,1995-05-26 18:00,ZGNN 261800Z AUTO 00000KT 12SM 24/23 A2982 RMK SLP087 T02410228 57008 IEM_DS3505
ZGNN,1995-05-26 21:00,ZGNN 262100Z AUTO 11004KT 12SM 24/23 A2980 RMK 70071 SLP080 T02370228 57007 IEM_DS3505
ZGNN,1995-05-26 22:00,ZGNN 262200Z AUTO 00000KT 2 1/2SM 23/23 A2983 RMK SLP090 T02300230 IEM_DS3505
ZGNN,1995-05-26 23:00,ZGNN 262300Z AUTO 00000KT 2SM 23/23 A2983 RMK SLP090 T02300230 IEM_DS3505
ZGNN,1995-05-27 00:00,ZGNN 270000Z AUTO 00000KT 12SM 24/23 A2985 RMK 60000 70051 SLP096 T02440228 52016 IEM_DS3505
ZGNN,1995-05-27 01:00,ZGNN 270100Z AUTO 10006KT 4SM 25/23 A2985 RMK SLP097 T02500230 IEM_DS3505
ZGNN,1995-05-27 02:00,ZGNN 270200Z AUTO 00000KT 6SM 26/24 A2988 RMK SLP107 T02600240 IEM_DS3505
ZGNN,1995-05-27 03:00,ZGNN 270300Z AUTO 09004KT 16SM 28/24 A2985 RMK SLP098 T02770243 52002 IEM_DS3505
ZGNN,1995-05-27 06:00,ZGNN 270600Z AUTO 14002KT 19SM 31/26 A2980 RMK SLP076 T03120256 57021 IEM_DS3505
ZGNN,1995-05-27 07:00,ZGNN 270700Z AUTO 00000KT 7SM 31/24 A2977 RMK SLP068 T03100240 IEM_DS3505
ZGNN,1995-05-27 08:00,ZGNN 270800Z AUTO 00000KT 7SM 31/24 A2974 RMK SLP058 T03100240 IEM_DS3505
ZGNN,1995-05-27 09:00,ZGNN 270900Z AUTO 34004KT 19SM 30/26 A2971 RMK SLP054 T02950262 57022 IEM_DS3505
ZGNN,1995-05-27 10:00,ZGNN 271000Z AUTO 06006KT 7SM 31/25 A2971 RMK SLP048 T03100250 IEM_DS3505
ZGNN,1995-05-27 12:00,ZGNN 271200Z AUTO 11002KT 9SM 27/25 A2977 RMK 60016 SLP064 T02670247 52013 IEM_DS3505
ZGNN,1995-05-27 13:00,ZGNN 271300Z AUTO 00000KT 7SM 28/25 A2980 RMK SLP079 T02800250 IEM_DS3505
ZGNN,1995-05-27 14:00,ZGNN 271400Z AUTO 00000KT 7SM 27/25 A2980 RMK SLP079 T02700250 IEM_DS3505
ZGNN,1995-05-27 15:00,ZGNN 271500Z AUTO 00000KT 16SM 27/26 A2982 RMK SLP084 T02700257 52017 IEM_DS3505
ZGNN,1995-05-27 18:00,ZGNN 271800Z AUTO 00000KT 14SM 26/25 A2981 RMK 60016 SLP083 T02630250 57001 IEM_DS3505
ZGNN,1995-05-27 21:00,ZGNN 272100Z AUTO 00000KT 12SM 26/25 A2980 RMK 70031 SLP085 T02580248 52002 IEM_DS3505
ZGNN,1995-05-27 23:00,ZGNN 272300Z AUTO 03004KT 3SM 25/24 A2985 RMK SLP097 T02500240 IEM_DS3505
ZGNN,1995-05-28 00:00,ZGNN 280000Z AUTO 00000KT 12SM 27/26 A2988 RMK 70031 SLP100 T02740256 52015 IEM_DS3505
ZGNN,1995-05-28 01:00,ZGNN 280100Z AUTO 13006KT 7SM 28/25 A2988 RMK SLP106 T02800250 IEM_DS3505
ZGNN,1995-05-28 02:00,ZGNN 280200Z AUTO 16008KT 7SM 30/25 A2985 RMK SLP095 T03000250 IEM_DS3505
ZGNN,1995-05-28 03:00,ZGNN 280300Z AUTO 09002KT 16SM 31/26 A2985 RMK SLP097 T03090255 57003 IEM_DS3505
ZGNN,1995-05-28 04:00,ZGNN 280400Z AUTO 27008KT 7SM 27/24 A2985 RMK SLP096 T02700240 IEM_DS3505
ZGNN,1995-05-28 06:00,ZGNN 280600Z AUTO 27002KT 9SM 28/26 A2980 RMK 60012 SLP081 T02790257 57016 IEM_DS3505
ZGNN,1995-05-28 07:00,ZGNN 280700Z AUTO 16012KT 7SM 31/24 A2980 RMK SLP078 T03100240 IEM_DS3505
ZGNN,1995-05-28 08:00,ZGNN 280800Z AUTO 00000KT 7SM 28/26 A2977 RMK SLP069 T02800260 IEM_DS3505
ZGNN,1995-05-28 09:00,ZGNN 280900Z AUTO 07004KT 19SM 29/24 A2974 RMK SLP057 T02890241 57024 IEM_DS3505
ZGNN,1995-05-28 10:00,ZGNN 281000Z AUTO 15006KT 7SM 31/25 A2974 RMK SLP058 T03100250 IEM_DS3505
ZGNN,1995-05-28 11:00,ZGNN 281100Z AUTO 11006KT 7SM 30/25 A2977 RMK SLP068 T03000250 IEM_DS3505
ZGNN,1995-05-28 12:00,ZGNN 281200Z AUTO 07002KT 19SM 28/25 A2977 RMK 60016 SLP068 T02760254 52011 IEM_DS3505
ZGNN,1995-05-28 13:00,ZGNN 281300Z AUTO 18006KT 7SM RMK IEM_DS3505
ZGNN,1995-05-28 15:00,ZGNN 281500Z AUTO 00000KT 16SM 27/24 A2982 RMK SLP086 T02710239 52018 IEM_DS3505
ZGNN,1995-05-28 18:00,ZGNN 281800Z AUTO 00000KT 16SM 26/24 A2981 RMK SLP081 T02610245 57005 IEM_DS3505
ZGNN,1995-05-28 21:00,ZGNN 282100Z AUTO 04004KT 14SM 26/24 A2983 RMK 70028 SLP084 T02570244 52003 IEM_DS3505
ZGNN,1995-05-28 22:00,ZGNN 282200Z AUTO 00000KT 7SM 24/24 A2983 RMK SLP090 T02400240 IEM_DS3505
ZGNN,1995-05-28 23:00,ZGNN 282300Z AUTO 00000KT 7SM 25/24 A2985 RMK SLP097 T02500240 IEM_DS3505
ZGNN,1995-05-29 00:00,ZGNN 290000Z AUTO 07004KT 16SM 26/25 A2986 RMK 70028 SLP100 T02630246 52016 IEM_DS3505
ZGNN,1995-05-29 01:00,ZGNN 290100Z AUTO 00000KT 7SM 28/25 A2985 RMK SLP096 T02800250 IEM_DS3505
ZGNN,1995-05-29 02:00,ZGNN 290200Z AUTO 00000KT 7SM 29/24 A2985 RMK SLP096 T02900240 IEM_DS3505
ZGNN,1995-05-29 03:00,ZGNN 290300Z AUTO 09004KT 19SM 30/25 A2985 RMK SLP095 T02970246 57005 IEM_DS3505
ZGNN,1995-05-29 04:00,ZGNN 290400Z AUTO 20006KT 7SM 31/23 A2985 RMK SLP095 T03100230 IEM_DS3505
ZGNN,1995-05-29 06:00,ZGNN 290600Z AUTO 29004KT 19SM 32/23 A2980 RMK SLP074 T03250234 57021 IEM_DS3505
ZGNN,1995-05-29 07:00,ZGNN 290700Z AUTO 00000KT 7SM 33/22 A2977 RMK SLP067 T03300220 IEM_DS3505
ZGNN,1995-05-29 08:00,ZGNN 290800Z AUTO 07002KT 7SM 33/23 A2974 RMK SLP057 T03300230 IEM_DS3505
ZGNN,1995-05-29 09:00,ZGNN 290900Z AUTO 07002KT 19SM 33/24 A2971 RMK SLP043 T03280239 57030 IEM_DS3505
ZGNN,1995-05-29 10:00,ZGNN 291000Z AUTO 06004KT 7SM 33/24 A2971 RMK SLP047 T03300240 IEM_DS3505
ZGNN,1995-05-29 12:00,ZGNN 291200Z AUTO 00000KT 9SM 29/24 A2974 RMK 60004 SLP061 T02930245 52017 IEM_DS3505
ZGNN,1995-05-29 13:00,ZGNN 291300Z AUTO 19004KT 7SM 29/24 A2977 RMK SLP068 T02900240 IEM_DS3505
ZGNN,1995-05-29 14:00,ZGNN 291400Z AUTO 15006KT 7SM 29/24 A2977 RMK SLP068 T02900240 IEM_DS3505
ZGNN,1995-05-29 15:00,ZGNN 291500Z AUTO 27002KT 16SM 28/24 A2979 RMK SLP077 T02840240 52016 IEM_DS3505
ZGNN,1995-05-29 18:00,ZGNN 291800Z AUTO 00000KT 16SM 27/25 A2980 RMK 60002 SLP077 T02700246 52001 IEM_DS3505
ZGNN,1995-05-29 21:00,ZGNN 292100Z AUTO 00000KT 16SM 26/25 A2977 RMK 70008 SLP069 T02630247 57008 IEM_DS3505
ZGNN,1995-05-29 23:00,ZGNN 292300Z AUTO 00000KT 6SM 25/24 A2980 RMK SLP080 T02500240 IEM_DS3505
ZGNN,1995-05-30 00:00,ZGNN 300000Z AUTO 04004KT 12SM 27/25 A2983 RMK 70008 SLP082 T02690246 52012 IEM_DS3505
ZGNN,1995-05-30 01:00,ZGNN 300100Z AUTO 11004KT 7SM 29/24 A2983 RMK SLP089 T02900240 IEM_DS3505
ZGNN,1995-05-30 02:00,ZGNN 300200Z AUTO 21004KT 7SM 30/24 A2983 RMK SLP088 T03000240 IEM_DS3505
ZGNN,1995-05-30 03:00,ZGNN 300300Z AUTO 18004KT 19SM 30/24 A2980 RMK SLP082 T03050243 54000 IEM_DS3505
ZGNN,1995-05-30 06:00,ZGNN 300600Z AUTO 07004KT 19SM 34/23 A2977 RMK SLP063 T03350231 57018 IEM_DS3505
ZGNN,1995-05-30 07:00,ZGNN 300700Z AUTO 00000KT 7SM 34/23 A2971 RMK SLP047 T03400230 IEM_DS3505
ZGNN,1995-05-30 08:00,ZGNN 300800Z AUTO 18010KT 7SM 33/24 A2971 RMK SLP047 T03300240 IEM_DS3505
ZGNN,1995-05-30 09:00,ZGNN 300900Z AUTO 22004KT 19SM 34/23 A2968 RMK SLP037 T03430234 57026 IEM_DS3505
ZGNN,1995-05-30 10:00,ZGNN 301000Z AUTO 12010KT 7SM 33/23 A2968 RMK SLP037 T03300230 IEM_DS3505
ZGNN,1995-05-30 12:00,ZGNN 301200Z AUTO 18004KT 16SM 31/24 A2971 RMK SLP046 T03120237 52009 IEM_DS3505
ZGNN,1995-05-30 13:00,ZGNN 301300Z AUTO 13006KT 7SM 28/24 A2974 RMK SLP059 T02800240 IEM_DS3505
ZGNN,1995-05-30 15:00,ZGNN 301500Z AUTO 32002KT 16SM 28/24 A2978 RMK SLP073 T02840244 52027 IEM_DS3505
ZGNN,1995-05-30 18:00,ZGNN 301800Z AUTO 00000KT 12SM 27/25 A2978 RMK SLP070 T02700249 57003 IEM_DS3505
ZGNN,1995-05-30 21:00,ZGNN 302100Z AUTO 19SM 26/25 A2974 RMK SLP064 T02640251 57006 IEM_DS3505
ZGNN,1995-05-30 23:00,ZGNN 302300Z AUTO 00000KT 7SM 26/25 A2980 RMK SLP079 T02600250 IEM_DS3505
ZGNN,1995-05-31 00:00,ZGNN 310000Z AUTO 00000KT 12SM 28/25 A2980 RMK SLP081 T02760252 52016 IEM_DS3505
ZGNN,1995-05-31 01:00,ZGNN 310100Z AUTO 16008KT 7SM 28/24 A2980 RMK SLP079 T02800240 IEM_DS3505
ZGNN,1995-05-31 02:00,ZGNN 310200Z AUTO 14008KT 7SM 30/25 A2980 RMK SLP078 T03000250 IEM_DS3505
ZGNN,1995-05-31 03:00,ZGNN 310300Z AUTO 07004KT 19SM 31/24 A2980 RMK SLP079 T03130245 57001 IEM_DS3505
ZGNN,1995-05-31 04:00,ZGNN 310400Z AUTO 15008KT 7SM 32/24 A2980 RMK SLP078 T03200240 IEM_DS3505
ZGNN,1995-05-31 06:00,ZGNN 310600Z AUTO 04004KT 19SM 33/24 A2977 RMK SLP064 T03340239 57015 IEM_DS3505
ZGNN,1995-05-31 07:00,ZGNN 310700Z AUTO 15012KT 7SM 33/23 A2974 RMK SLP057 T03300230 IEM_DS3505
ZGNN,1995-05-31 08:00,ZGNN 310800Z AUTO 13010KT 7SM 33/24 A2971 RMK SLP047 T03300240 IEM_DS3505
ZGNN,1995-05-31 09:00,ZGNN 310900Z AUTO 00000KT 19SM 34/24 A2968 RMK SLP038 T03420245 57026 IEM_DS3505
ZGNN,1995-05-31 10:00,ZGNN 311000Z AUTO 12006KT 7SM 33/24 A2965 RMK SLP026 T03300240 IEM_DS3505
ZGNN,1995-05-31 12:00,ZGNN 311200Z AUTO 09002KT 19SM 32/25 A2971 RMK SLP049 T03170247 52011 IEM_DS3505
ZGNN,1995-05-31 13:00,ZGNN 311300Z AUTO 17004KT 6SM 29/24 A2974 RMK SLP058 T02900240 IEM_DS3505
ZGNN,1995-05-31 14:00,ZGNN 311400Z AUTO 14008KT 7SM 29/23 A2977 RMK SLP068 T02900230 IEM_DS3505
ZGNN,1995-05-31 15:00,ZGNN 311500Z AUTO 22002KT 19SM 30/24 A2977 RMK SLP071 T03030237 52022 IEM_DS3505
ZGNN,1995-05-31 16:00,ZGNN 311600Z AUTO 15008KT 7SM 28/23 A2980 RMK SLP079 T02800230 IEM_DS3505
ZGNN,1995-05-31 18:00,ZGNN 311800Z AUTO 20002KT 17SM 28/24 A2977 RMK SLP067 T02800241 57004 IEM_DS3505
ZGNN,1995-05-31 21:00,ZGNN 312100Z AUTO 36004KT 16SM 27/24 A2977 RMK SLP066 T02700243 57001 IEM_DS3505
ZGNN,1995-06-01 00:00,ZGNN 010000Z AUTO 04004KT 12SM 28/25 A2979 RMK SLP075 T02770246 52009 IEM_DS3505
ZGNN,1995-06-01 03:00,ZGNN 010300Z AUTO 09006KT 16SM 30/24 A2980 RMK SLP078 T03040243 52003 IEM_DS3505
ZGNN,1995-06-01 04:00,ZGNN 010400Z AUTO 12006KT 7SM 31/23 A2980 RMK SLP079 T03100230 IEM_DS3505
ZGNN,1995-06-01 06:00,ZGNN 010600Z AUTO 22002KT 19SM 32/24 A2974 RMK SLP060 T03160241 57018 IEM_DS3505
ZGNN,1995-06-01 07:00,ZGNN 010700Z AUTO 07004KT 7SM 31/24 A2971 RMK SLP049 T03100240 IEM_DS3505
ZGNN,1995-06-01 08:00,ZGNN 010800Z AUTO 08014KT 7SM 31/24 A2971 RMK SLP049 T03100240 IEM_DS3505
ZGNN,1995-06-01 09:00,ZGNN 010900Z AUTO 34010KT 19SM 31/24 A2971 RMK SLP046 T03130245 57014 IEM_DS3505
ZGNN,1995-06-01 10:00,ZGNN 011000Z AUTO 08012KT 7SM 30/23 A2971 RMK SLP049 T03000230 IEM_DS3505
ZGNN,1995-06-01 11:00,ZGNN 011100Z AUTO 07008KT 7SM 29/24 A2971 RMK SLP049 T02900240 IEM_DS3505
ZGNN,1995-06-01 12:00,ZGNN 011200Z AUTO 09002KT 19SM 29/24 A2971 RMK SLP051 T02930236 52004 IEM_DS3505
ZGNN,1995-06-01 13:00,ZGNN 011300Z AUTO 05006KT 6SM 28/24 A2974 RMK SLP060 T02800240 IEM_DS3505
ZGNN,1995-06-01 14:00,ZGNN 011400Z AUTO 07006KT 6SM 27/24 A2974 RMK SLP060 T02700240 IEM_DS3505
ZGNN,1995-06-01 15:00,ZGNN 011500Z AUTO 14002KT 19SM 27/24 A2976 RMK SLP065 T02740235 52014 IEM_DS3505
ZGNN,1995-06-01 18:00,ZGNN 011800Z AUTO 34004KT 16SM 27/24 A2973 RMK SLP056 T02670237 57008 IEM_DS3505
ZGNN,1995-06-01 21:00,ZGNN 012100Z AUTO 04004KT 12SM 26/24 A2971 RMK SLP052 T02650235 57004 IEM_DS3505
ZGNN,1995-06-01 22:00,ZGNN 012200Z AUTO 03004KT 7SM 25/24 A2971 RMK SLP050 T02500240 IEM_DS3505
ZGNN,1995-06-01 23:00,ZGNN 012300Z AUTO 03004KT 7SM 25/24 A2974 RMK SLP061 T02500240 IEM_DS3505
ZGNN,1995-06-02 00:00,ZGNN 020000Z AUTO 04004KT 16SM 27/24 A2974 RMK SLP062 T02690237 52009 IEM_DS3505
ZGNN,1995-06-02 01:00,ZGNN 020100Z AUTO 07004KT 7SM 27/24 A2977 RMK SLP070 T02700240 IEM_DS3505
ZGNN,1995-06-02 02:00,ZGNN 020200Z AUTO 07012KT 7SM 28/24 A2977 RMK SLP070 T02800240 IEM_DS3505
ZGNN,1995-06-02 03:00,ZGNN 020300Z AUTO 07006KT 1 1/4SM 27/25 A2977 RMK SLP069 T02660249 52007 IEM_DS3505
ZGNN,1995-06-02 04:00,ZGNN 020400Z AUTO 06006KT 7SM 27/25 A2974 RMK SLP060 T02700250 IEM_DS3505
ZGNN,1995-06-02 06:00,ZGNN 020600Z AUTO 09002KT 12SM 27/25 A2970 RMK 60031 SLP047 T02740253 57022 IEM_DS3505
ZGNN,1995-06-02 07:00,ZGNN 020700Z AUTO 08006KT 7SM 27/25 A2965 RMK SLP030 T02700250 IEM_DS3505
ZGNN,1995-06-02 09:00,ZGNN 020900Z AUTO 07008KT 16SM 28/26 A2963 RMK SLP023 T02780258 57024 IEM_DS3505
ZGNN,1995-06-02 10:00,ZGNN 021000Z AUTO 14012KT 3SM 26/25 A2962 RMK SLP020 T02600250 IEM_DS3505
ZGNN,1995-06-02 12:00,ZGNN 021200Z AUTO 00000KT 9SM 26/25 A2965 RMK 60012 SLP032 T02640251 52009 IEM_DS3505
ZGNN,1995-06-02 13:00,ZGNN 021300Z AUTO 15006KT 7SM 26/25 A2968 RMK SLP040 T02600250 IEM_DS3505
ZGNN,1995-06-02 15:00,ZGNN 021500Z AUTO 34002KT 12SM 27/25 A2973 RMK SLP057 T02680251 52025 IEM_DS3505
ZGNN,1995-06-02 18:00,ZGNN 021800Z AUTO 25004KT 12SM 27/25 A2972 RMK SLP052 T02670249 57005 IEM_DS3505
ZGNN,1995-06-02 21:00,ZGNN 022100Z AUTO 00000KT 12SM 26/25 A2970 RMK 70043 SLP046 T02630249 57006 IEM_DS3505
ZGNN,1995-06-02 22:00,ZGNN 022200Z AUTO 16002KT 7SM 25/24 A2971 RMK SLP050 T02500240 IEM_DS3505
ZGNN,1995-06-02 23:00,ZGNN 022300Z AUTO 00000KT 7SM 25/24 A2974 RMK SLP061 T02500240 IEM_DS3505
ZGNN,1995-06-03 00:00,ZGNN 030000Z AUTO 16002KT 12SM 26/24 A2974 RMK 70043 SLP059 T02620240 52013 IEM_DS3505
ZGNN,1995-06-03 01:00,ZGNN 030100Z AUTO 00000KT 7SM 26/24 A2974 RMK SLP060 T02600240 IEM_DS3505
ZGNN,1995-06-03 02:00,ZGNN 030200Z AUTO 13006KT 7SM 27/24 A2977 RMK SLP070 T02700240 IEM_DS3505
ZGNN,1995-06-03 03:00,ZGNN 030300Z AUTO 34002KT 16SM 28/25 A2974 RMK SLP060 T02810250 52001 IEM_DS3505
ZGNN,1995-06-03 06:00,ZGNN 030600Z AUTO 00000KT 19SM 31/25 A2971 RMK SLP042 T03100253 57017 IEM_DS3505
ZGNN,1995-06-03 07:00,ZGNN 030700Z AUTO 00000KT 7SM 31/24 A2968 RMK SLP039 T03100240 IEM_DS3505
ZGNN,1995-06-03 08:00,ZGNN 030800Z AUTO 00000KT 7SM 32/24 A2965 RMK SLP028 T03200240 IEM_DS3505
ZGNN,1995-06-03 09:00,ZGNN 030900Z AUTO 00000KT 19SM 31/25 A2962 RMK SLP025 T03120250 57017 IEM_DS3505
ZGNN,1995-06-03 10:00,ZGNN 031000Z AUTO 14010KT 7SM 30/25 A2962 RMK SLP019 T03000250 IEM_DS3505
ZGNN,1995-06-03 12:00,ZGNN 031200Z AUTO 22004KT 19SM 29/25 A2965 RMK SLP029 T02890247 52003 IEM_DS3505
ZGNN,1995-06-03 13:00,ZGNN 031300Z AUTO 14002KT 7SM 27/25 A2965 RMK SLP030 T02700250 IEM_DS3505
ZGNN,1995-06-03 14:00,ZGNN 031400Z AUTO 00000KT 7SM 27/25 A2968 RMK SLP040 T02700250 IEM_DS3505
ZGNN,1995-06-03 15:00,ZGNN 031500Z AUTO 04002KT 19SM 27/25 A2971 RMK SLP049 T02740253 52020 IEM_DS3505
ZGNN,1995-06-03 18:00,ZGNN 031800Z AUTO 09004KT 16SM 27/25 A2969 RMK SLP041 T02690254 57007 IEM_DS3505
ZGNN,1995-06-03 21:00,ZGNN 032100Z AUTO 07002KT 16SM 27/25 A2968 RMK SLP036 T02670253 57005 IEM_DS3505
ZGNN,1995-06-03 22:00,ZGNN 032200Z AUTO 00000KT 6SM 26/25 A2968 RMK SLP040 T02600250 IEM_DS3505
ZGNN,1995-06-03 23:00,ZGNN 032300Z AUTO 00000KT 6SM 25/25 A2971 RMK SLP050 T02500250 IEM_DS3505
ZGNN,1995-06-04 00:00,ZGNN 040000Z AUTO 11002KT 14SM 28/26 A2971 RMK SLP047 T02760255 52010 IEM_DS3505
ZGNN,1995-06-04 01:00,ZGNN 040100Z AUTO 18004KT 7SM 29/25 A2971 RMK SLP049 T02900250 IEM_DS3505
ZGNN,1995-06-04 02:00,ZGNN 040200Z AUTO 18006KT 7SM 30/23 A2971 RMK SLP049 T03000230 IEM_DS3505
ZGNN,1995-06-04 03:00,ZGNN 040300Z AUTO 00000KT 16SM 31/25 A2971 RMK SLP046 T03140247 54000 IEM_DS3505
ZGNN,1995-06-04 06:00,ZGNN 040600Z AUTO 07002KT 17SM 31/26 A2967 RMK 60008 SLP034 T03070260 57012 IEM_DS3505
ZGNN,1995-06-04 09:00,ZGNN 040900Z AUTO 34004KT 19SM 29/26 A2965 RMK SLP028 T02870262 57007 IEM_DS3505
ZGNN,1995-06-04 12:00,ZGNN 041200Z AUTO 09002KT 19SM 27/26 A2965 RMK 60118 SLP028 T02710257 54000 IEM_DS3505
ZGNN,1995-06-04 13:00,ZGNN 041300Z AUTO 00000KT 7SM 27/26 A2965 RMK SLP030 T02700260 IEM_DS3505
ZGNN,1995-06-04 15:00,ZGNN 041500Z AUTO 09002KT 16SM 27/26 A2970 RMK SLP045 T02690255 52018 IEM_DS3505
ZGNN,1995-06-04 18:00,ZGNN 041800Z AUTO 11002KT 12SM 27/26 A2968 RMK SLP038 T02660256 57007 IEM_DS3505
ZGNN,1995-06-04 21:00,ZGNN 042100Z AUTO 09004KT 12SM 26/25 A2967 RMK 70122 SLP035 T02640254 57004 IEM_DS3505
ZGNN,1995-06-04 23:00,ZGNN 042300Z AUTO 00000KT 2 1/2SM 26/26 A2968 RMK SLP040 T02600260 IEM_DS3505
ZGNN,1995-06-05 00:00,ZGNN 050000Z AUTO 07004KT 12SM 27/26 A2970 RMK 70122 SLP048 T02680258 52013 IEM_DS3505
ZGNN,1995-06-05 02:00,ZGNN 050200Z AUTO 11004KT 7SM 28/26 A2971 RMK SLP050 T02800260 IEM_DS3505
ZGNN,1995-06-05 03:00,ZGNN 050300Z AUTO 09004KT 12SM 29/26 A2972 RMK SLP052 T02880262 52004 IEM_DS3505
ZGNN,1995-06-05 04:00,ZGNN 050400Z AUTO 13008KT 7SM 29/25 A2971 RMK SLP049 T02900250 IEM_DS3505
ZGNN,1995-06-05 06:00,ZGNN 050600Z AUTO 09002KT 16SM 31/26 A2967 RMK SLP030 T03110255 57015 IEM_DS3505
ZGNN,1995-06-05 09:00,ZGNN 050900Z AUTO 00000KT 19SM 31/25 A2963 RMK SLP022 T03090247 57014 IEM_DS3505
ZGNN,1995-06-05 12:00,ZGNN 051200Z AUTO 11002KT 16SM 28/25 A2968 RMK SLP034 T02830246 52011 IEM_DS3505
ZGNN,1995-06-05 13:00,ZGNN 051300Z AUTO 15004KT 7SM 27/24 A2968 RMK SLP040 T02700240 IEM_DS3505
ZGNN,1995-06-05 14:00,ZGNN 051400Z AUTO 13006KT 7SM 27/24 A2971 RMK SLP050 T02700240 IEM_DS3505
ZGNN,1995-06-05 15:00,ZGNN 051500Z AUTO 00000KT 16SM 27/24 A2971 RMK SLP050 T02740244 52016 IEM_DS3505
ZGNN,1995-06-05 18:00,ZGNN 051800Z AUTO 04002KT 14SM 27/25 A2970 RMK SLP044 T02680251 57005 IEM_DS3505
ZGNN,1995-06-05 21:00,ZGNN 052100Z AUTO 00000KT 12SM 27/25 A2967 RMK SLP036 T02660249 57008 IEM_DS3505
ZGNN,1995-06-05 23:00,ZGNN 052300Z AUTO 12004KT 7SM 26/24 A2971 RMK SLP050 T02600240 IEM_DS3505
ZGNN,1995-06-06 00:00,ZGNN 060000Z AUTO 00000KT 9SM 27/25 A2974 RMK SLP054 T02690251 52017 IEM_DS3505
ZGNN,1995-06-06 03:00,ZGNN 060300Z AUTO 27002KT 17SM 31/25 A2970 RMK SLP045 T03060254 57008 IEM_DS3505
ZGNN,1995-06-06 06:00,ZGNN 060600Z AUTO 22006KT 19SM 31/26 A2965 RMK SLP029 T03140256 57016 IEM_DS3505
ZGNN,1995-06-06 09:00,ZGNN 060900Z AUTO 32002KT 19SM 30/25 A2959 RMK SLP010 T02990248 57019 IEM_DS3505
ZGNN,1995-06-06 10:00,ZGNN 061000Z AUTO 15008KT 7SM 29/24 A2959 RMK SLP008 T02900240 IEM_DS3505
ZGNN,1995-06-06 12:00,ZGNN 061200Z AUTO 00000KT 19SM 29/25 A2962 RMK SLP023 T02860248 52012 IEM_DS3505
ZGNN,1995-06-06 15:00,ZGNN 061500Z AUTO 09004KT 16SM 28/25 A2967 RMK SLP037 T02760254 52015 IEM_DS3505
ZGNN,1995-06-06 18:00,ZGNN 061800Z AUTO 07004KT 16SM 27/25 A2965 RMK SLP028 T02700253 57009 IEM_DS3505
ZGNN,1995-06-06 21:00,ZGNN 062100Z AUTO 09004KT 16SM 27/26 A2961 RMK SLP015 T02710256 57013 IEM_DS3505
ZGNN,1995-06-06 23:00,ZGNN 062300Z AUTO 00000KT 6SM 27/25 A2962 RMK SLP020 T02700250 IEM_DS3505
ZGNN,1995-06-07 00:00,ZGNN 070000Z AUTO 16002KT 16SM 28/26 A2962 RMK SLP024 T02780257 52009 IEM_DS3505
ZGNN,1995-06-07 02:00,ZGNN 070200Z AUTO 15010KT 7SM 29/25 A2965 RMK SLP029 T02900250 IEM_DS3505
ZGNN,1995-06-07 03:00,ZGNN 070300Z AUTO 22002KT 16SM 29/26 A2963 RMK SLP022 T02910258 57002 IEM_DS3505
ZGNN,1995-06-07 06:00,ZGNN 070600Z AUTO 00000KT 11SM 28/26 A2959 RMK 60004 SLP007 T02820257 57015 IEM_DS3505
ZGNN,1995-06-07 09:00,ZGNN 070900Z AUTO 00000KT 9SM 28/26 A2955 RMK SLP995 T02800263 57012 IEM_DS3505
ZGNN,1995-06-07 12:00,ZGNN 071200Z AUTO 16004KT 9SM 28/26 A2957 RMK 60004 SLP003 T02750264 52008 IEM_DS3505
ZGNN,1995-06-07 15:00,ZGNN 071500Z AUTO 29004KT 9SM 26/25 A2963 RMK SLP022 T02630246 52018 IEM_DS3505
ZGNN,1995-06-07 18:00,ZGNN 071800Z AUTO 27004KT 12SM 26/24 A2959 RMK 60047 SLP011 T02580242 57011 IEM_DS3505
ZGNN,1995-06-07 19:00,ZGNN 071900Z AUTO 00000KT 7SM 25/25 A2959 RMK SLP009 T02500250 IEM_DS3505
ZGNN,1995-06-07 20:00,ZGNN 072000Z AUTO 00000KT 7SM 25/24 A2959 RMK SLP009 T02500240 IEM_DS3505
ZGNN,1995-06-07 21:00,ZGNN 072100Z AUTO 32004KT 12SM 25/24 A2956 RMK 70055 SLP004 T02540235 57007 IEM_DS3505
ZGNN,1995-06-08 00:00,ZGNN 080000Z AUTO 32002KT 19SM 25/21 A2962 RMK 60000 70055 SLP020 T02500214 52016 IEM_DS3505
ZGNN,1995-06-08 01:00,ZGNN 080100Z AUTO 35006KT 7SM 25/22 A2965 RMK SLP030 T02500220 IEM_DS3505
ZGNN,1995-06-08 03:00,ZGNN 080300Z AUTO 32004KT 19SM 25/22 A2965 RMK SLP029 T02470217 52009 IEM_DS3505
ZGNN,1995-06-08 06:00,ZGNN 080600Z AUTO 25004KT 16SM 26/22 A2961 RMK SLP017 T02600223 57012 IEM_DS3505
ZGNN,1995-06-08 07:00,ZGNN 080700Z AUTO 34006KT 7SM 26/22 A2962 RMK SLP020 T02600220 IEM_DS3505
ZGNN,1995-06-08 08:00,ZGNN 080800Z AUTO 34006KT 7SM 27/22 A2959 RMK SLP009 T02700220 IEM_DS3505
ZGNN,1995-06-08 09:00,ZGNN 080900Z AUTO 00000KT 19SM 26/23 A2959 RMK SLP008 T02600226 57009 IEM_DS3505
ZGNN,1995-06-08 10:00,ZGNN 081000Z AUTO 00000KT 7SM 26/22 A2959 RMK SLP009 T02600220 IEM_DS3505
ZGNN,1995-06-08 12:00,ZGNN 081200Z AUTO 00000KT 16SM 25/23 A2962 RMK SLP020 T02520227 52012 IEM_DS3505
ZGNN,1995-06-08 13:00,ZGNN 081300Z AUTO 00000KT 7SM 25/23 A2962 RMK SLP020 T02500230 IEM_DS3505
ZGNN,1995-06-08 15:00,ZGNN 081500Z AUTO 07002KT 16SM 25/22 A2965 RMK SLP030 T02530222 52010 IEM_DS3505
ZGNN,1995-06-08 18:00,ZGNN 081800Z AUTO 00000KT 12SM 24/23 A2964 RMK SLP026 T02450227 57004 IEM_DS3505
ZGNN,1995-06-08 21:00,ZGNN 082100Z AUTO 16004KT 17SM 25/23 A2962 RMK SLP024 T02480233 57002 IEM_DS3505
ZGNN,1995-06-08 22:00,ZGNN 082200Z AUTO 00000KT 7SM 23/23 A2965 RMK SLP031 T02300230 IEM_DS3505
ZGNN,1995-06-08 23:00,ZGNN 082300Z AUTO 00000KT 7SM 24/23 A2965 RMK SLP031 T02400230 IEM_DS3505
ZGNN,1995-06-09 00:00,ZGNN 090000Z AUTO 00000KT 16SM 26/23 A2965 RMK SLP035 T02590234 52011 IEM_DS3505
ZGNN,1995-06-09 01:00,ZGNN 090100Z AUTO 00000KT 6SM 27/23 A2968 RMK SLP040 T02700230 IEM_DS3505
ZGNN,1995-06-09 02:00,ZGNN 090200Z AUTO 24004KT 7SM 29/22 A2968 RMK SLP039 T02900220 IEM_DS3505
ZGNN,1995-06-09 03:00,ZGNN 090300Z AUTO 00000KT 16SM 30/22 A2968 RMK SLP038 T02990217 52003 IEM_DS3505
ZGNN,1995-06-09 04:00,ZGNN 090400Z AUTO 30006KT 7SM 30/22 A2965 RMK SLP029 T03000220 IEM_DS3505
ZGNN,1995-06-09 06:00,ZGNN 090600Z AUTO 27004KT 19SM 31/23 A2962 RMK SLP016 T03140228 57021 IEM_DS3505
ZGNN,1995-06-09 07:00,ZGNN 090700Z AUTO 00000KT 7SM 32/21 A2959 RMK SLP007 T03200210 IEM_DS3505
ZGNN,1995-06-09 08:00,ZGNN 090800Z AUTO 35006KT 7SM 32/20 A2956 RMK SLP997 T03200200 IEM_DS3505
ZGNN,1995-06-09 09:00,ZGNN 090900Z AUTO 04002KT 19SM 33/21 A2956 RMK SLP997 T03280213 57019 IEM_DS3505
ZGNN,1995-06-09 10:00,ZGNN 091000Z AUTO 01004KT 7SM 32/21 A2956 RMK SLP997 T03200210 IEM_DS3505
ZGNN,1995-06-09 11:00,ZGNN 091100Z AUTO 00000KT 7SM 31/22 A2959 RMK SLP007 T03100220 IEM_DS3505
ZGNN,1995-06-09 12:00,ZGNN 091200Z AUTO 07002KT 19SM 30/23 A2959 RMK SLP016 T02950230 52019 IEM_DS3505
ZGNN,1995-06-09 13:00,ZGNN 091300Z AUTO 07004KT 7SM 28/24 A2962 RMK SLP019 T02800240 IEM_DS3505
ZGNN,1995-06-09 15:00,ZGNN 091500Z AUTO 04002KT 16SM 27/23 A2966 RMK SLP034 T02730229 52018 IEM_DS3505
ZGNN,1995-06-09 18:00,ZGNN 091800Z AUTO 00000KT 16SM 26/24 A2965 RMK SLP027 T02600237 57007 IEM_DS3505
ZGNN,1995-06-09 21:00,ZGNN 092100Z AUTO 04002KT 12SM 25/23 A2965 RMK SLP028 T02480226 52001 IEM_DS3505
ZGNN,1995-06-09 22:00,ZGNN 092200Z AUTO 00000KT 6SM 24/24 A2965 RMK SLP031 T02400240 IEM_DS3505
ZGNN,1995-06-09 23:00,ZGNN 092300Z AUTO 36006KT 6SM 24/24 A2965 RMK SLP031 T02400240 IEM_DS3505
ZGNN,1995-06-10 00:00,ZGNN 100000Z AUTO 00000KT 12SM 26/24 A2968 RMK SLP039 T02620235 52010 IEM_DS3505
ZGNN,1995-06-10 01:00,ZGNN 100100Z AUTO 05006KT 7SM 28/23 A2968 RMK SLP040 T02800230 IEM_DS3505
ZGNN,1995-06-10 02:00,ZGNN 100200Z AUTO 03006KT 7SM 30/23 A2971 RMK SLP049 T03000230 IEM_DS3505
ZGNN,1995-06-10 03:00,ZGNN 100300Z AUTO 04004KT 16SM 32/24 A2971 RMK SLP043 T03150240 52005 IEM_DS3505
ZGNN,1995-06-10 04:00,ZGNN 100400Z AUTO 07004KT 7SM 32/23 A2968 RMK SLP038 T03200230 IEM_DS3505
ZGNN,1995-06-10 06:00,ZGNN 100600Z AUTO 09004KT 19SM 33/23 A2965 RMK SLP027 T03270233 57016 IEM_DS3505
ZGNN,1995-06-10 07:00,ZGNN 100700Z AUTO 01006KT 7SM 33/21 A2962 RMK SLP018 T03300210 IEM_DS3505
ZGNN,1995-06-10 08:00,ZGNN 100800Z AUTO 09004KT 7SM 33/22 A2959 RMK SLP007 T03300220 IEM_DS3505
ZGNN,1995-06-10 09:00,ZGNN 100900Z AUTO 11004KT 19SM 33/23 A2959 RMK SLP007 T03280229 57020 IEM_DS3505
ZGNN,1995-06-10 10:00,ZGNN 101000Z AUTO 07004KT 6SM 32/23 A2959 RMK SLP007 T03200230 IEM_DS3505
ZGNN,1995-06-10 12:00,ZGNN 101200Z AUTO 07002KT 16SM 30/22 A2965 RMK SLP033 T03050217 52021 IEM_DS3505
ZGNN,1995-06-10 13:00,ZGNN 101300Z AUTO 00000KT 6SM 29/25 A2968 RMK SLP039 T02900250 IEM_DS3505
ZGNN,1995-06-10 14:00,ZGNN 101400Z AUTO 00000KT 6SM 27/24 A2971 RMK SLP050 T02700240 IEM_DS3505
ZGNN,1995-06-10 15:00,ZGNN 101500Z AUTO 07004KT 14SM 28/23 A2970 RMK SLP047 T02790233 52019 IEM_DS3505
ZGNN,1995-06-10 18:00,ZGNN 101800Z AUTO 00000KT 16SM 26/24 A2969 RMK SLP041 T02620243 57006 IEM_DS3505
ZGNN,1995-06-10 21:00,ZGNN 102100Z AUTO 00000KT 12SM 26/23 A2967 RMK SLP037 T02550232 57004 IEM_DS3505
ZGNN,1995-06-10 22:00,ZGNN 102200Z AUTO 03002KT 4SM 25/24 A2968 RMK SLP040 T02500240 IEM_DS3505
ZGNN,1995-06-10 23:00,ZGNN 102300Z AUTO 03004KT 3SM 26/25 A2971 RMK SLP050 T02600250 IEM_DS3505
ZGNN,1995-06-11 00:00,ZGNN 110000Z AUTO 04002KT 16SM 26/23 A2971 RMK SLP053 T02590234 52015 IEM_DS3505
ZGNN,1995-06-11 01:00,ZGNN 110100Z AUTO 15004KT 7SM 28/25 A2974 RMK SLP060 T02800250 IEM_DS3505
ZGNN,1995-06-11 02:00,ZGNN 110200Z AUTO 10004KT 7SM 28/25 A2974 RMK SLP060 T02800250 IEM_DS3505
ZGNN,1995-06-11 03:00,ZGNN 110300Z AUTO 22004KT 16SM 31/25 A2974 RMK SLP055 T03080254 52003 IEM_DS3505
ZGNN,1995-06-11 06:00,ZGNN 110600Z AUTO 02004KT 19SM 32/24 A2968 RMK SLP039 T03180240 57016 IEM_DS3505
ZGNN,1995-06-11 07:00,ZGNN 110700Z AUTO 33006KT 7SM 28/24 A2968 RMK SLP040 T02800240 IEM_DS3505
ZGNN,1995-06-11 09:00,ZGNN 110900Z AUTO 25002KT 16SM 29/25 A2965 RMK SLP025 T02910252 57015 IEM_DS3505
ZGNN,1995-06-11 10:00,ZGNN 111000Z AUTO 00000KT 7SM 25/24 A2965 RMK SLP030 T02500240 IEM_DS3505
ZGNN,1995-06-11 11:00,ZGNN 111100Z AUTO 25004KT 7SM 27/24 A2968 RMK SLP040 T02700240 IEM_DS3505
ZGNN,1995-06-11 12:00,ZGNN 111200Z AUTO 00000KT 16SM 29/25 A2968 RMK SLP039 T02900249 52014 IEM_DS3505
ZGNN,1995-06-11 13:00,ZGNN 111300Z AUTO 00000KT 7SM 27/24 A2971 RMK SLP050 T02700240 IEM_DS3505
ZGNN,1995-06-11 15:00,ZGNN 111500Z AUTO 18002KT 14SM 28/25 A2975 RMK SLP062 T02750248 52024 IEM_DS3505
ZGNN,1995-06-11 18:00,ZGNN 111800Z AUTO 00000KT 12SM 26/24 A2974 RMK SLP060 T02650245 57002 IEM_DS3505
ZGNN,1995-06-11 21:00,ZGNN 112100Z AUTO 18002KT 12SM 26/24 A2974 RMK SLP056 T02600240 57005 IEM_DS3505
ZGNN,1995-06-11 22:00,ZGNN 112200Z AUTO 00000KT 7SM 25/23 A2974 RMK SLP061 T02500230 IEM_DS3505
ZGNN,1995-06-11 23:00,ZGNN 112300Z AUTO 00000KT 4SM 25/24 A2977 RMK SLP071 T02500240 IEM_DS3505
ZGNN,1995-06-12 00:00,ZGNN 120000Z AUTO 04004KT 10SM 26/24 A2980 RMK SLP073 T02610238 52017 IEM_DS3505
ZGNN,1995-06-12 02:00,ZGNN 120200Z AUTO 00000KT 7SM 27/23 A2980 RMK SLP080 T02700230 IEM_DS3505
ZGNN,1995-06-12 03:00,ZGNN 120300Z AUTO 09004KT 19SM 30/23 A2980 RMK SLP078 T02980233 52005 IEM_DS3505
ZGNN,1995-06-12 06:00,ZGNN 120600Z AUTO 22004KT 19SM 32/24 A2977 RMK SLP059 T03200236 57018 IEM_DS3505
ZGNN,1995-06-12 07:00,ZGNN 120700Z AUTO 05006KT 7SM 31/23 A2974 RMK SLP059 T03100230 IEM_DS3505
ZGNN,1995-06-12 08:00,ZGNN 120800Z AUTO 07006KT 7SM 31/23 A2971 RMK SLP049 T03100230 IEM_DS3505
ZGNN,1995-06-12 09:00,ZGNN 120900Z AUTO 04004KT 16SM 32/23 A2968 RMK SLP037 T03230230 57022 IEM_DS3505
ZGNN,1995-06-12 10:00,ZGNN 121000Z AUTO 08006KT 7SM 31/22 A2971 RMK SLP049 T03100220 IEM_DS3505
ZGNN,1995-06-12 12:00,ZGNN 121200Z AUTO 18002KT 16SM 29/23 A2974 RMK SLP057 T02860233 52019 IEM_DS3505
ZGNN,1995-06-12 13:00,ZGNN 121300Z AUTO 22004KT 7SM 26/24 A2977 RMK SLP070 T02600240 IEM_DS3505
ZGNN,1995-06-12 14:00,ZGNN 121400Z AUTO 00000KT 7SM 26/24 A2977 RMK SLP070 T02600240 IEM_DS3505
ZGNN,1995-06-12 15:00,ZGNN 121500Z AUTO 22004KT 14SM 27/24 A2978 RMK SLP074 T02710242 52017 IEM_DS3505
ZGNN,1995-06-12 18:00,ZGNN 121800Z AUTO 04002KT 12SM 26/24 A2978 RMK 60000 SLP072 T02640245 57002 IEM_DS3505
ZGNN,1995-06-12 21:00,ZGNN 122100Z AUTO 04002KT 12SM 26/24 A2976 RMK 70000 SLP067 T02570240 57005 IEM_DS3505
ZGNN,1995-06-12 23:00,ZGNN 122300Z AUTO 05004KT 4SM 25/24 A2977 RMK SLP071 T02500240 IEM_DS3505
ZGNN,1995-06-13 00:00,ZGNN 130000Z AUTO 04002KT 11SM 26/24 A2977 RMK SLP071 T02620238 52004 IEM_DS3505
ZGNN,1995-06-13 01:00,ZGNN 130100Z AUTO 06004KT 7SM 27/23 A2980 RMK SLP080 T02700230 IEM_DS3505
ZGNN,1995-06-13 02:00,ZGNN 130200Z AUTO 03004KT 4SM 25/24 A2980 RMK SLP081 T02500240 IEM_DS3505
ZGNN,1995-06-13 03:00,ZGNN 130300Z AUTO 11004KT 14SM 28/24 A2980 RMK SLP073 T02850239 52002 IEM_DS3505
ZGNN,1995-06-13 04:00,ZGNN 130400Z AUTO 05008KT 7SM 28/24 A2977 RMK SLP070 T02800240 IEM_DS3505
ZGNN,1995-06-13 06:00,ZGNN 130600Z AUTO 14004KT 16SM 31/24 A2971 RMK SLP048 T03110239 57024 IEM_DS3505
ZGNN,1995-06-13 07:00,ZGNN 130700Z AUTO 07008KT 7SM 30/24 A2971 RMK SLP049 T03000240 IEM_DS3505
ZGNN,1995-06-13 08:00,ZGNN 130800Z AUTO 15010KT 7SM 30/24 A2968 RMK SLP039 T03000240 IEM_DS3505
ZGNN,1995-06-13 09:00,ZGNN 130900Z AUTO 18004KT 14SM 29/25 A2968 RMK SLP034 T02940247 57015 IEM_DS3505
ZGNN,1995-06-13 10:00,ZGNN 131000Z AUTO 00000KT 7SM 29/24 A2968 RMK SLP039 T02900240 IEM_DS3505
ZGNN,1995-06-13 11:00,ZGNN 131100Z AUTO 15004KT 7SM 28/24 A2968 RMK SLP040 T02800240 IEM_DS3505
ZGNN,1995-06-13 12:00,ZGNN 131200Z AUTO 22004KT 16SM 28/24 A2971 RMK SLP045 T02850244 52011 IEM_DS3505
ZGNN,1995-06-13 13:00,ZGNN 131300Z AUTO 00000KT 7SM 27/24 A2971 RMK SLP050 T02700240 IEM_DS3505
ZGNN,1995-06-13 15:00,ZGNN 131500Z AUTO 04004KT 16SM 27/25 A2975 RMK SLP062 T02670247 52017 IEM_DS3505
ZGNN,1995-06-13 18:00,ZGNN 131800Z AUTO 07002KT 14SM 26/24 A2971 RMK SLP051 T02600243 57011 IEM_DS3505
ZGNN,1995-06-13 21:00,ZGNN 132100Z AUTO 11002KT 16SM 26/24 A2968 RMK SLP042 T02580244 57009 IEM_DS3505
ZGNN,1995-06-13 22:00,ZGNN 132200Z AUTO 00000KT 7SM 25/24 A2971 RMK SLP050 T02500240 IEM_DS3505
ZGNN,1995-06-14 00:00,ZGNN 140000Z AUTO 00000KT 16SM 27/25 A2971 RMK SLP050 T02710251 52008 IEM_DS3505
ZGNN,1995-06-14 01:00,ZGNN 140100Z AUTO 11004KT 7SM 28/24 A2971 RMK SLP050 T02800240 IEM_DS3505
ZGNN,1995-06-14 02:00,ZGNN 140200Z AUTO 16002KT 7SM 29/25 A2974 RMK SLP059 T02900250 IEM_DS3505
ZGNN,1995-06-14 03:00,ZGNN 140300Z AUTO 22006KT 16SM 30/26 A2968 RMK SLP042 T03010256 57007 IEM_DS3505
ZGNN,1995-06-14 06:00,ZGNN 140600Z AUTO 22004KT 16SM 32/25 A2965 RMK SLP028 T03200249 57014 IEM_DS3505
ZGNN,1995-06-14 07:00,ZGNN 140700Z AUTO 15006KT 7SM 30/27 A2965 RMK SLP029 T03000270 IEM_DS3505
ZGNN,1995-06-14 08:00,ZGNN 140800Z AUTO 07006KT 7SM RMK IEM_DS3505
ZGNN,1995-06-14 09:00,ZGNN 140900Z AUTO 00000KT 16SM 28/26 A2959 RMK SLP013 T02840263 57016 IEM_DS3505
ZGNN,1995-06-14 10:00,ZGNN 141000Z AUTO 13004KT 7SM 29/27 A2959 RMK SLP008 T02900270 IEM_DS3505
ZGNN,1995-06-14 11:00,ZGNN 141100Z AUTO 16006KT 7SM 29/26 A2959 RMK SLP008 T02900260 IEM_DS3505
ZGNN,1995-06-14 12:00,ZGNN 141200Z AUTO 18002KT 16SM 29/26 A2961 RMK 60031 SLP016 T02900261 52004 IEM_DS3505
ZGNN,1995-06-14 13:00,ZGNN 141300Z AUTO 14008KT 6SM 28/25 A2962 RMK SLP019 T02800250 IEM_DS3505
ZGNN,1995-06-14 15:00,ZGNN 141500Z AUTO 00000KT 16SM 28/26 A2965 RMK SLP030 T02770257 52014 IEM_DS3505
ZGNN,1995-06-14 18:00,ZGNN 141800Z AUTO 09004KT 16SM 27/26 A2965 RMK SLP027 T02700255 57003 IEM_DS3505
ZGNN,1995-06-14 21:00,ZGNN 142100Z AUTO 00000KT 16SM 27/25 A2962 RMK 70031 SLP024 T02690252 57004 IEM_DS3505
ZGNN,1995-06-14 23:00,ZGNN 142300Z AUTO 00000KT 7SM 26/25 A2965 RMK SLP030 T02600250 IEM_DS3505
ZGNN,1995-06-15 00:00,ZGNN 150000Z AUTO 04004KT 11SM 27/26 A2965 RMK 70031 SLP035 T02700257 52011 IEM_DS3505
ZGNN,1995-06-15 02:00,ZGNN 150200Z AUTO 12004KT 7SM 28/26 A2968 RMK SLP040 T02800260 IEM_DS3505
ZGNN,1995-06-15 03:00,ZGNN 150300Z AUTO 27002KT 12SM 30/26 A2968 RMK SLP038 T02950259 52004 IEM_DS3505
ZGNN,1995-06-15 06:00,ZGNN 150600Z AUTO 00000KT 14SM 32/26 A2962 RMK SLP022 T03200259 57016 IEM_DS3505
ZGNN,1995-06-15 07:00,ZGNN 150700Z AUTO 04008KT 7SM 31/26 A2962 RMK SLP019 T03100260 IEM_DS3505
ZGNN,1995-06-15 08:00,ZGNN 150800Z AUTO 36008KT 7SM 29/26 A2959 RMK SLP008 T02900260 IEM_DS3505
ZGNN,1995-06-15 09:00,ZGNN 150900Z AUTO 36006KT 14SM 31/26 A2959 RMK SLP009 T03120265 57013 IEM_DS3505
ZGNN,1995-06-15 11:00,ZGNN 151100Z AUTO 35006KT 7SM 29/26 A2962 RMK SLP019 T02900260 IEM_DS3505
ZGNN,1995-06-15 12:00,ZGNN 151200Z AUTO 04006KT 12SM 27/24 A2965 RMK 60000 SLP028 T02700241 52018 IEM_DS3505
ZGNN,1995-06-15 13:00,ZGNN 151300Z AUTO 03004KT 7SM 27/25 A2965 RMK SLP030 T02700250 IEM_DS3505
ZGNN,1995-06-15 14:00,ZGNN 151400Z AUTO 05004KT 7SM 27/26 RMK T02700260 IEM_DS3505
ZGNN,1995-06-15 15:00,ZGNN 151500Z AUTO 07002KT 12SM 26/24 A2970 RMK SLP046 T02580239 52018 IEM_DS3505
ZGNN,1995-06-15 18:00,ZGNN 151800Z AUTO 27002KT 12SM 25/24 A2966 RMK 60000 SLP033 T02490237 57012 IEM_DS3505
ZGNN,1995-06-15 21:00,ZGNN 152100Z AUTO 04002KT 12SM 24/24 A2962 RMK 70028 SLP019 T02440237 57014 IEM_DS3505
ZGNN,1995-06-15 22:00,ZGNN 152200Z AUTO 36006KT 2 1/2SM 25/24 A2962 RMK SLP020 T02500240 IEM_DS3505
ZGNN,1995-06-15 23:00,ZGNN 152300Z AUTO 04004KT 1 1/4SM 25/24 A2962 RMK SLP020 T02500240 IEM_DS3505
ZGNN,1995-06-16 00:00,ZGNN 160000Z AUTO 04002KT 7SM 25/24 A2962 RMK 60028 70028 SLP023 T02490240 52003 IEM_DS3505
ZGNN,1995-06-16 01:00,ZGNN 160100Z AUTO 36006KT 1 1/4SM 25/24 A2965 RMK SLP030 T02500240 IEM_DS3505
ZGNN,1995-06-16 02:00,ZGNN 160200Z AUTO 32004KT 1 1/2SM 26/24 A2962 RMK SLP020 T02600240 IEM_DS3505
ZGNN,1995-06-16 03:00,ZGNN 160300Z AUTO 00000KT 11SM 27/25 A2962 RMK SLP017 T02690249 57006 IEM_DS3505
ZGNN,1995-06-16 04:00,ZGNN 160400Z AUTO 02002KT 3SM 29/26 A2959 RMK SLP008 T02900260 IEM_DS3505
ZGNN,1995-06-16 06:00,ZGNN 160600Z AUTO 32002KT 11SM 32/27 A2956 RMK 60000 SLP000 T03150266 57016 IEM_DS3505
ZGNN,1995-06-16 08:00,ZGNN 160800Z AUTO 36008KT 7SM 32/27 A2950 RMK SLP977 T03200270 IEM_DS3505
ZGNN,1995-06-16 09:00,ZGNN 160900Z AUTO 14004KT 16SM 32/27 A2950 RMK SLP983 T03150269 57017 IEM_DS3505
ZGNN,1995-06-16 12:00,ZGNN 161200Z AUTO 07004KT 12SM 29/27 A2953 RMK 60012 SLP993 T02880273 52009 IEM_DS3505
ZGNN,1995-06-16 13:00,ZGNN 161300Z AUTO 12006KT 7SM 29/26 A2953 RMK SLP988 T02900260 IEM_DS3505
ZGNN,1995-06-16 14:00,ZGNN 161400Z AUTO 10006KT 7SM 28/26 A2956 RMK SLP998 T02800260 IEM_DS3505
ZGNN,1995-06-16 15:00,ZGNN 161500Z AUTO 04004KT 12SM 28/26 A2960 RMK SLP012 T02750258 52019 IEM_DS3505
ZGNN,1995-06-16 18:00,ZGNN 161800Z AUTO 14002KT 12SM 26/24 A2958 RMK SLP004 T02620245 57007 IEM_DS3505
ZGNN,1995-06-16 21:00,ZGNN 162100Z AUTO 00000KT 12SM 24/23 A2963 RMK 70232 SLP023 T02400230 52018 IEM_DS3505
ZGNN,1995-06-16 22:00,ZGNN 162200Z AUTO 34006KT 7SM 24/23 A2962 RMK SLP020 T02400230 IEM_DS3505
ZGNN,1995-06-16 23:00,ZGNN 162300Z AUTO 35008KT 7SM 23/22 A2965 RMK SLP031 T02300220 IEM_DS3505
ZGNN,1995-06-17 00:00,ZGNN 170000Z AUTO 04004KT 12SM 24/22 A2967 RMK 60228 70240 SLP036 T02350220 52013 IEM_DS3505
ZGNN,1995-06-17 01:00,ZGNN 170100Z AUTO 36006KT 7SM 24/22 A2971 RMK SLP051 T02400220 IEM_DS3505
ZGNN,1995-06-17 02:00,ZGNN 170200Z AUTO 33004KT 7SM 24/22 A2971 RMK SLP051 T02400220 IEM_DS3505
ZGNN,1995-06-17 03:00,ZGNN 170300Z AUTO 29002KT 12SM 25/22 A2974 RMK SLP051 T02460222 52015 IEM_DS3505
ZGNN,1995-06-17 04:00,ZGNN 170400Z AUTO 34004KT 7SM 25/22 A2971 RMK SLP050 T02500220 IEM_DS3505
ZGNN,1995-06-17 06:00,ZGNN 170600Z AUTO 04006KT 19SM 27/22 A2968 RMK SLP036 T02690222 57015 IEM_DS3505
ZGNN,1995-06-17 09:00,ZGNN 170900Z AUTO 00000KT 19SM 29/22 A2965 RMK SLP030 T02860217 57006 IEM_DS3505
ZGNN,1995-06-17 11:00,ZGNN 171100Z AUTO 00000KT 7SM 27/23 A2965 RMK SLP030 T02700230 IEM_DS3505
ZGNN,1995-06-17 12:00,ZGNN 171200Z AUTO 14002KT 19SM 27/24 A2968 RMK SLP041 T02690237 52011 IEM_DS3505
ZGNN,1995-06-17 13:00,ZGNN 171300Z AUTO 00000KT 7SM 26/24 A2971 RMK SLP050 T02600240 IEM_DS3505
ZGNN,1995-06-17 14:00,ZGNN 171400Z AUTO 00000KT 7SM 26/24 A2974 RMK SLP060 T02600240 IEM_DS3505
ZGNN,1995-06-17 15:00,ZGNN 171500Z AUTO 00000KT 19SM 26/23 A2973 RMK SLP058 T02560230 52016 IEM_DS3505
ZGNN,1995-06-17 18:00,ZGNN 171800Z AUTO 00000KT 19SM 25/22 A2972 RMK SLP054 T02470220 57003 IEM_DS3505
ZGNN,1995-06-17 21:00,ZGNN 172100Z AUTO 16002KT 12SM 24/23 A2971 RMK 70008 SLP053 T02430230 57001 IEM_DS3505
ZGNN,1995-06-17 22:00,ZGNN 172200Z AUTO 00000KT 4SM 24/23 A2974 RMK SLP061 T02400230 IEM_DS3505
ZGNN,1995-06-17 23:00,ZGNN 172300Z AUTO 00000KT 4SM 24/23 RMK T02400230 IEM_DS3505
ZGNN,1995-06-18 00:00,ZGNN 180000Z AUTO 00000KT 12SM 25/23 A2977 RMK SLP067 T02510228 52014 IEM_DS3505
ZGNN,1995-06-18 01:00,ZGNN 180100Z AUTO 00000KT 4SM 25/23 A2977 RMK SLP071 T02500230 IEM_DS3505
ZGNN,1995-06-18 02:00,ZGNN 180200Z AUTO 00000KT 7SM 26/23 A2980 RMK SLP080 T02600230 IEM_DS3505
ZGNN,1995-06-18 03:00,ZGNN 180300Z AUTO 22004KT 12SM 27/23 A2980 RMK SLP081 T02660230 52014 IEM_DS3505
ZGNN,1995-06-18 06:00,ZGNN 180600Z AUTO 22002KT 16SM 29/24 A2972 RMK SLP054 T02930237 57027 IEM_DS3505
ZGNN,1995-06-18 07:00,ZGNN 180700Z AUTO 00000KT 7SM 29/24 A2971 RMK SLP049 T02900240 IEM_DS3505
ZGNN,1995-06-18 08:00,ZGNN 180800Z AUTO 11006KT 7SM 30/24 A2971 RMK SLP049 T03000240 IEM_DS3505
ZGNN,1995-06-18 09:00,ZGNN 180900Z AUTO 00000KT 16SM 30/24 A2971 RMK SLP046 T03020243 57008 IEM_DS3505
ZGNN,1995-06-18 10:00,ZGNN 181000Z AUTO 16006KT 7SM 29/24 A2971 RMK SLP049 T02900240 IEM_DS3505
ZGNN,1995-06-18 11:00,ZGNN 181100Z AUTO 15002KT 7SM 29/25 A2971 RMK SLP049 T02900250 IEM_DS3505
ZGNN,1995-06-18 12:00,ZGNN 181200Z AUTO 00000KT 12SM 29/25 A2971 RMK SLP048 T02910250 52002 IEM_DS3505
ZGNN,1995-06-18 13:00,ZGNN 181300Z AUTO 00000KT 7SM 27/25 A2974 RMK SLP060 T02700250 IEM_DS3505
ZGNN,1995-06-18 15:00,ZGNN 181500Z AUTO 00000KT 12SM 28/26 A2976 RMK SLP065 T02760255 52017 IEM_DS3505
ZGNN,1995-06-18 18:00,ZGNN 181800Z AUTO 20002KT 12SM 26/25 A2973 RMK SLP058 T02650248 57007 IEM_DS3505
ZGNN,1995-06-18 21:00,ZGNN 182100Z AUTO 00000KT 12SM 26/25 A2975 RMK SLP064 T02620249 52006 IEM_DS3505
ZGNN,1995-06-18 22:00,ZGNN 182200Z AUTO 00000KT 6SM 27/25 A2977 RMK SLP070 T02700250 IEM_DS3505
ZGNN,1995-06-18 23:00,ZGNN 182300Z AUTO 00000KT 7SM 26/25 A2980 RMK SLP080 T02600250 IEM_DS3505
ZGNN,1995-06-19 00:00,ZGNN 190000Z AUTO 00000KT 11SM 27/25 A2980 RMK SLP075 T02670253 52011 IEM_DS3505
ZGNN,1995-06-19 01:00,ZGNN 190100Z AUTO 16006KT 7SM 29/25 A2980 RMK SLP080 T02900250 IEM_DS3505
ZGNN,1995-06-19 02:00,ZGNN 190200Z AUTO 15006KT 7SM 31/25 A2980 RMK SLP079 T03100250 IEM_DS3505
ZGNN,1995-06-19 03:00,ZGNN 190300Z AUTO 16002KT 12SM 32/26 A2980 RMK SLP071 T03150255 57003 IEM_DS3505
ZGNN,1995-06-19 06:00,ZGNN 190600Z AUTO 18002KT 19SM 34/26 A2974 RMK SLP051 T03370257 57020 IEM_DS3505
ZGNN,1995-06-19 07:00,ZGNN 190700Z AUTO 23008KT 7SM 33/23 A2971 RMK SLP048 T03300230 IEM_DS3505
ZGNN,1995-06-19 08:00,ZGNN 190800Z AUTO 21014KT 7SM 34/24 A2971 RMK SLP048 T03400240 IEM_DS3505
ZGNN,1995-06-19 09:00,ZGNN 190900Z AUTO 27004KT 19SM 32/25 A2968 RMK SLP039 T03250253 57012 IEM_DS3505
ZGNN,1995-06-19 10:00,ZGNN 191000Z AUTO 15008KT 7SM 33/25 A2968 RMK SLP038 T03300250 IEM_DS3505
ZGNN,1995-06-19 11:00,ZGNN 191100Z AUTO 16010KT 7SM 31/25 A2968 RMK SLP039 T03100250 IEM_DS3505
ZGNN,1995-06-19 12:00,ZGNN 191200Z AUTO 27004KT 19SM 30/25 A2971 RMK 60012 SLP048 T03050252 52009 IEM_DS3505
ZGNN,1995-06-19 13:00,ZGNN 191300Z AUTO 16008KT 6SM 29/25 A2974 RMK SLP059 T02900250 IEM_DS3505
ZGNN,1995-06-19 14:00,ZGNN 191400Z AUTO 17006KT 6SM 28/25 A2977 RMK SLP070 T02800250 IEM_DS3505
ZGNN,1995-06-19 15:00,ZGNN 191500Z AUTO 22004KT 16SM 29/25 A2976 RMK SLP066 T02860252 52018 IEM_DS3505
ZGNN,1995-06-19 18:00,ZGNN 191800Z AUTO 00000KT 16SM 28/26 A2975 RMK SLP063 T02750255 57003 IEM_DS3505
ZGNN,1995-06-19 21:00,ZGNN 192100Z AUTO 00000KT 16SM 27/26 A2976 RMK 70012 SLP066 T02710256 52003 IEM_DS3505
ZGNN,1995-06-19 23:00,ZGNN 192300Z AUTO 00000KT 6SM 26/25 A2977 RMK SLP070 T02600250 IEM_DS3505
ZGNN,1995-06-20 00:00,ZGNN 200000Z AUTO 00000KT 16SM 29/26 A2977 RMK 70012 SLP073 T02870259 52007 IEM_DS3505
ZGNN,1995-06-20 01:00,ZGNN 200100Z AUTO 18008KT 7SM 30/25 A2980 RMK SLP079 T03000250 IEM_DS3505
ZGNN,1995-06-20 02:00,ZGNN 200200Z AUTO 17006KT 7SM 32/24 A2980 RMK SLP079 T03200240 IEM_DS3505
ZGNN,1995-06-20 03:00,ZGNN 200300Z AUTO 18004KT 19SM 32/26 A2977 RMK SLP072 T03230256 57001 IEM_DS3505
ZGNN,1995-06-20 04:00,ZGNN 200400Z AUTO 16012KT 7SM 34/25 A2977 RMK SLP068 T03400250 IEM_DS3505
ZGNN,1995-06-20 06:00,ZGNN 200600Z AUTO 34006KT 19SM 34/25 A2971 RMK SLP051 T03370254 57021 IEM_DS3505
ZGNN,1995-06-20 07:00,ZGNN 200700Z AUTO 16014KT 7SM 34/26 A2971 RMK SLP048 T03400260 IEM_DS3505
ZGNN,1995-06-20 08:00,ZGNN 200800Z AUTO 16014KT 7SM 32/26 A2968 RMK SLP038 T03200260 IEM_DS3505
ZGNN,1995-06-20 09:00,ZGNN 200900Z AUTO 34006KT 19SM 34/26 A2965 RMK SLP033 T03390256 57018 IEM_DS3505
ZGNN,1995-06-20 10:00,ZGNN 201000Z AUTO 16016KT 6SM 32/26 A2965 RMK SLP028 T03200260 IEM_DS3505
ZGNN,1995-06-20 12:00,ZGNN 201200Z AUTO 22006KT 19SM 30/25 A2971 RMK SLP042 T03040252 57009 IEM_DS3505
ZGNN,1995-06-20 13:00,ZGNN 201300Z AUTO 17006KT 7SM 28/25 A2971 RMK SLP050 T02800250 IEM_DS3505
ZGNN,1995-06-20 15:00,ZGNN 201500Z AUTO 22004KT 19SM 28/25 A2974 RMK SLP059 T02850253 52017 IEM_DS3505
ZGNN,1995-06-20 18:00,ZGNN 201800Z AUTO 22002KT 15SM 27/24 A2972 RMK SLP052 T02730245 57007 IEM_DS3505
ZGNN,1995-06-20 21:00,ZGNN 202100Z AUTO 11004KT 16SM 27/25 A2971 RMK SLP049 T02670246 57003 IEM_DS3505
ZGNN,1995-06-20 22:00,ZGNN 202200Z AUTO 02004KT 7SM 25/24 A2971 RMK SLP050 T02500240 IEM_DS3505
ZGNN,1995-06-20 23:00,ZGNN 202300Z AUTO 00000KT 7SM 26/24 A2974 RMK SLP060 T02600240 IEM_DS3505
ZGNN,1995-06-21 00:00,ZGNN 210000Z AUTO 22002KT 12SM 28/25 A2974 RMK SLP053 T02820254 52004 IEM_DS3505
ZGNN,1995-06-21 01:00,ZGNN 210100Z AUTO 18010KT 6SM 30/25 A2974 RMK SLP059 T03000250 IEM_DS3505
ZGNN,1995-06-21 02:00,ZGNN 210200Z AUTO 20004KT 6SM 32/25 A2974 RMK SLP059 T03200250 IEM_DS3505
ZGNN,1995-06-21 03:00,ZGNN 210300Z AUTO 20002KT 19SM 32/25 A2971 RMK SLP049 T03220254 57004 IEM_DS3505
ZGNN,1995-06-21 06:00,ZGNN 210600Z AUTO 09002KT 19SM 33/26 A2965 RMK SLP029 T03340263 57020 IEM_DS3505
ZGNN,1995-06-21 07:00,ZGNN 210700Z AUTO 16014KT 7SM 33/27 A2962 RMK SLP018 T03300270 IEM_DS3505
ZGNN,1995-06-21 08:00,ZGNN 210800Z AUTO 13012KT 7SM 34/26 A2962 RMK SLP018 T03400260 IEM_DS3505
ZGNN,1995-06-21 09:00,ZGNN 210900Z AUTO 09004KT 19SM 33/26 A2959 RMK SLP010 T03320263 57019 IEM_DS3505
ZGNN,1995-06-21 10:00,ZGNN 211000Z AUTO 15016KT 7SM 32/26 A2959 RMK SLP007 T03200260 IEM_DS3505
ZGNN,1995-06-21 11:00,ZGNN 211100Z AUTO 15012KT 7SM 31/26 A2962 RMK SLP019 T03100260 IEM_DS3505
ZGNN,1995-06-21 12:00,ZGNN 211200Z AUTO 20006KT 17SM 31/26 A2965 RMK SLP021 T03070256 52011 IEM_DS3505
ZGNN,1995-06-21 13:00,ZGNN 211300Z AUTO 16006KT 6SM 29/25 A2965 RMK SLP029 T02900250 IEM_DS3505
ZGNN,1995-06-21 14:00,ZGNN 211400Z AUTO 16004KT 6SM 28/25 A2968 RMK SLP040 T02800250 IEM_DS3505
ZGNN,1995-06-21 15:00,ZGNN 211500Z AUTO 22004KT 16SM 29/25 A2967 RMK SLP037 T02910253 52016 IEM_DS3505
ZGNN,1995-06-21 18:00,ZGNN 211800Z AUTO 27002KT 16SM 28/25 A2964 RMK SLP024 T02840252 57013 IEM_DS3505
ZGNN,1995-06-21 21:00,ZGNN 212100Z AUTO 14004KT 14SM 27/25 A2965 RMK SLP028 T02710251 52004 IEM_DS3505
ZGNN,1995-06-21 22:00,ZGNN 212200Z AUTO 00000KT 6SM 26/25 A2965 RMK SLP030 T02600250 IEM_DS3505
ZGNN,1995-06-21 23:00,ZGNN 212300Z AUTO 00000KT 6SM 26/25 A2968 RMK SLP040 T02600250 IEM_DS3505
ZGNN,1995-06-22 00:00,ZGNN 220000Z AUTO 27004KT 16SM 29/26 A2968 RMK SLP040 T02910255 52012 IEM_DS3505
ZGNN,1995-06-22 01:00,ZGNN 220100Z AUTO 18004KT 6SM 30/24 A2968 RMK SLP039 T03000240 IEM_DS3505
ZGNN,1995-06-22 02:00,ZGNN 220200Z AUTO 16004KT 7SM 32/24 A2968 RMK SLP038 T03200240 IEM_DS3505
ZGNN,1995-06-22 03:00,ZGNN 220300Z AUTO 22004KT 19SM 33/26 A2968 RMK SLP034 T03270261 57006 IEM_DS3505
ZGNN,1995-06-22 04:00,ZGNN 220400Z AUTO 20006KT 7SM 35/24 A2965 RMK SLP028 T03500240 IEM_DS3505
ZGNN,1995-06-22 05:00,ZGNN 220500Z AUTO 18010KT 7SM 36/23 A2965 RMK SLP027 T03600230 IEM_DS3505
ZGNN,1995-06-22 06:00,ZGNN 220600Z AUTO 25004KT 19SM 35/27 A2962 RMK SLP017 T03520268 57016 IEM_DS3505
ZGNN,1995-06-22 07:00,ZGNN 220700Z AUTO 14012KT 7SM 36/26 A2959 RMK SLP006 T03600260 IEM_DS3505
ZGNN,1995-06-22 08:00,ZGNN 220800Z AUTO 13014KT 7SM 35/26 A2959 RMK SLP006 T03500260 IEM_DS3505
ZGNN,1995-06-22 09:00,ZGNN 220900Z AUTO 16004KT 19SM 34/27 A2956 RMK SLP003 T03400268 57015 IEM_DS3505
ZGNN,1995-06-22 10:00,ZGNN 221000Z AUTO 15012KT 7SM 33/27 A2956 RMK SLP997 T03300270 IEM_DS3505
ZGNN,1995-06-22 11:00,ZGNN 221100Z AUTO 14012KT 7SM 32/26 A2956 RMK SLP997 T03200260 IEM_DS3505
ZGNN,1995-06-22 12:00,ZGNN 221200Z AUTO 22004KT 19SM 31/26 A2959 RMK SLP010 T03100260 52007 IEM_DS3505
ZGNN,1995-06-22 13:00,ZGNN 221300Z AUTO 15008KT 7SM 29/26 A2962 RMK SLP019 T02900260 IEM_DS3505
ZGNN,1995-06-22 14:00,ZGNN 221400Z AUTO 17004KT 7SM 29/26 A2965 RMK SLP029 T02900260 IEM_DS3505
ZGNN,1995-06-22 15:00,ZGNN 221500Z AUTO 27002KT 17SM 29/26 A2967 RMK SLP034 T02910259 52024 IEM_DS3505
ZGNN,1995-06-22 18:00,ZGNN 221800Z AUTO 14002KT 16SM 28/26 A2963 RMK SLP022 T02840257 57011 IEM_DS3505
ZGNN,1995-06-22 21:00,ZGNN 222100Z AUTO 14002KT 16SM 27/25 A2962 RMK SLP022 T02740253 57001 IEM_DS3505
ZGNN,1995-06-22 22:00,ZGNN 222200Z AUTO 00000KT 6SM 26/25 A2965 RMK SLP030 T02600250 IEM_DS3505
ZGNN,1995-06-22 23:00,ZGNN 222300Z AUTO 00000KT 6SM 27/25 A2965 RMK SLP030 T02700250 IEM_DS3505
ZGNN,1995-06-23 00:00,ZGNN 230000Z AUTO 22002KT 16SM 29/26 A2968 RMK SLP032 T02930264 52010 IEM_DS3505
ZGNN,1995-06-23 01:00,ZGNN 230100Z AUTO 17008KT 6SM 31/26 A2968 RMK SLP039 T03100260 IEM_DS3505
ZGNN,1995-06-23 02:00,ZGNN 230200Z AUTO 17008KT 7SM 32/26 A2968 RMK SLP038 T03200260 IEM_DS3505
ZGNN,1995-06-23 03:00,ZGNN 230300Z AUTO 25004KT 19SM 33/26 A2965 RMK SLP028 T03310258 57004 IEM_DS3505
ZGNN,1995-06-23 06:00,ZGNN 230600Z AUTO 25002KT 19SM 35/26 A2959 RMK SLP005 T03470259 57022 IEM_DS3505
ZGNN,1995-06-23 07:00,ZGNN 230700Z AUTO 15012KT 7SM 35/25 A2956 RMK SLP996 T03500250 IEM_DS3505
ZGNN,1995-06-23 08:00,ZGNN 230800Z AUTO 15017KT 7SM 35/26 A2956 RMK SLP996 T03500260 IEM_DS3505
ZGNN,1995-06-23 09:00,ZGNN 230900Z AUTO 20004KT 19SM 35/26 A2953 RMK SLP991 T03460261 57014 IEM_DS3505
ZGNN,1995-06-23 10:00,ZGNN 231000Z AUTO 15012KT 7SM 33/26 A2953 RMK SLP987 T03300260 IEM_DS3505
ZGNN,1995-06-23 11:00,ZGNN 231100Z AUTO 14012KT 6SM 32/25 A2956 RMK SLP997 T03200250 IEM_DS3505
ZGNN,1995-06-23 12:00,ZGNN 231200Z AUTO 32004KT 17SM 32/26 A2959 RMK SLP005 T03160255 52013 IEM_DS3505
ZGNN,1995-06-23 13:00,ZGNN 231300Z AUTO 15008KT 6SM 29/26 A2959 RMK SLP008 T02900260 IEM_DS3505
ZGNN,1995-06-23 15:00,ZGNN 231500Z AUTO 32002KT 16SM 29/25 A2965 RMK SLP027 T02910249 52022 IEM_DS3505
ZGNN,1995-06-23 18:00,ZGNN 231800Z AUTO 16004KT 16SM 28/26 A2963 RMK SLP022 T02840257 57004 IEM_DS3505
ZGNN,1995-06-23 21:00,ZGNN 232100Z AUTO 16002KT 11SM 28/26 A2964 RMK SLP026 T02750255 52003 IEM_DS3505
ZGNN,1995-06-23 22:00,ZGNN 232200Z AUTO 00000KT 6SM 26/25 A2965 RMK SLP030 T02600250 IEM_DS3505
ZGNN,1995-06-23 23:00,ZGNN 232300Z AUTO 00000KT 6SM 26/24 A2968 RMK SLP040 T02600240 IEM_DS3505
ZGNN,1995-06-24 00:00,ZGNN 240000Z AUTO 16004KT 16SM 30/26 A2968 RMK SLP043 T02970261 52017 IEM_DS3505
ZGNN,1995-06-24 01:00,ZGNN 240100Z AUTO 20004KT 6SM 31/26 A2968 RMK SLP039 T03100260 IEM_DS3505
ZGNN,1995-06-24 02:00,ZGNN 240200Z AUTO 14010KT 7SM 32/25 A2968 RMK SLP038 T03200250 IEM_DS3505
ZGNN,1995-06-24 03:00,ZGNN 240300Z AUTO 25002KT 19SM 33/26 A2968 RMK SLP037 T03290259 57006 IEM_DS3505
ZGNN,1995-06-24 04:00,ZGNN 240400Z AUTO 15010KT 7SM 34/25 A2965 RMK SLP028 T03400250 IEM_DS3505
ZGNN,1995-06-24 06:00,ZGNN 240600Z AUTO 34004KT 19SM 34/25 A2962 RMK SLP018 T03440246 57018 IEM_DS3505
ZGNN,1995-06-24 07:00,ZGNN 240700Z AUTO 15016KT 7SM 35/25 A2962 RMK SLP017 T03500250 IEM_DS3505
ZGNN,1995-06-24 08:00,ZGNN 240800Z AUTO 14016KT 7SM 34/25 A2959 RMK SLP007 T03400250 IEM_DS3505
ZGNN,1995-06-24 09:00,ZGNN 240900Z AUTO 29004KT 19SM 34/25 A2956 RMK SLP003 T03430254 57015 IEM_DS3505
ZGNN,1995-06-24 12:00,ZGNN 241200Z AUTO 20002KT 19SM 31/26 A2962 RMK SLP019 T03070260 52015 IEM_DS3505
ZGNN,1995-06-24 13:00,ZGNN 241300Z AUTO 15008KT 6SM 29/25 A2962 RMK SLP019 T02900250 IEM_DS3505
ZGNN,1995-06-24 15:00,ZGNN 241500Z AUTO 25002KT 19SM 29/26 A2966 RMK SLP033 T02910260 52014 IEM_DS3505
ZGNN,1995-06-24 18:00,ZGNN 241800Z AUTO 11004KT 19SM 28/26 A2965 RMK SLP029 T02800259 57004 IEM_DS3505
ZGNN,1995-06-24 21:00,ZGNN 242100Z AUTO 00000KT 19SM 28/26 A2965 RMK SLP033 T02800255 52004 IEM_DS3505
ZGNN,1995-06-24 22:00,ZGNN 242200Z AUTO 00000KT 6SM 26/25 A2968 RMK SLP040 T02600250 IEM_DS3505
ZGNN,1995-06-24 23:00,ZGNN 242300Z AUTO 00000KT 6SM 26/25 A2968 RMK SLP040 T02600250 IEM_DS3505
ZGNN,1995-06-25 00:00,ZGNN 250000Z AUTO 22002KT 16SM 28/25 A2971 RMK SLP044 T02850254 52011 IEM_DS3505
ZGNN,1995-06-25 01:00,ZGNN 250100Z AUTO 15010KT 6SM 31/25 A2971 RMK SLP049 T03100250 IEM_DS3505
ZGNN,1995-06-25 02:00,ZGNN 250200Z AUTO 18012KT 7SM 32/24 A2971 RMK SLP049 T03200240 IEM_DS3505
ZGNN,1995-06-25 03:00,ZGNN 250300Z AUTO 20006KT 19SM 32/24 A2968 RMK SLP042 T03200239 57002 IEM_DS3505
ZGNN,1995-06-25 04:00,ZGNN 250400Z AUTO 17008KT 7SM 33/23 A2968 RMK SLP038 T03300230 IEM_DS3505
ZGNN,1995-06-25 06:00,ZGNN 250600Z AUTO 22004KT 19SM 34/24 A2962 RMK SLP023 T03440243 57019 IEM_DS3505
ZGNN,1995-06-25 07:00,ZGNN 250700Z AUTO 15010KT 7SM 35/24 A2959 RMK SLP006 T03500240 IEM_DS3505
ZGNN,1995-06-25 09:00,ZGNN 250900Z AUTO 25004KT 19SM 34/25 A2959 RMK SLP005 T03440246 57017 IEM_DS3505
ZGNN,1995-06-25 10:00,ZGNN 251000Z AUTO 15014KT 7SM 32/23 A2956 RMK SLP997 T03200230 IEM_DS3505
ZGNN,1995-06-25 12:00,ZGNN 251200Z AUTO 25006KT 16SM 31/24 A2962 RMK SLP020 T03060244 52014 IEM_DS3505
ZGNN,1995-06-25 13:00,ZGNN 251300Z AUTO 16010KT 7SM 29/24 A2965 RMK SLP029 T02900240 IEM_DS3505
ZGNN,1995-06-25 14:00,ZGNN 251400Z AUTO 16006KT 7SM 28/24 A2965 RMK SLP029 T02800240 IEM_DS3505
ZGNN,1995-06-25 15:00,ZGNN 251500Z AUTO 22002KT 16SM 29/24 A2968 RMK SLP039 T02870240 52019 IEM_DS3505
ZGNN,1995-06-25 18:00,ZGNN 251800Z AUTO 00000KT 16SM 27/24 A2968 RMK SLP038 T02730245 57001 IEM_DS3505
ZGNN,1995-06-25 21:00,ZGNN 252100Z AUTO 04004KT 12SM 27/24 A2962 RMK SLP024 T02670244 57014 IEM_DS3505
ZGNN,1995-06-25 22:00,ZGNN 252200Z AUTO 00000KT 7SM 27/25 A2965 RMK SLP030 T02700250 IEM_DS3505
ZGNN,1995-06-25 23:00,ZGNN 252300Z AUTO 00000KT 7SM 26/25 A2968 RMK SLP040 T02600250 IEM_DS3505
ZGNN,1995-06-26 00:00,ZGNN 260000Z AUTO 07004KT 12SM 28/25 A2968 RMK SLP040 T02830254 52016 IEM_DS3505
ZGNN,1995-06-26 01:00,ZGNN 260100Z AUTO 23004KT 7SM 29/26 A2968 RMK SLP039 T02900260 IEM_DS3505
ZGNN,1995-06-26 02:00,ZGNN 260200Z AUTO 00000KT 7SM 32/24 A2968 RMK SLP038 T03200240 IEM_DS3505
ZGNN,1995-06-26 03:00,ZGNN 260300Z AUTO 09002KT 16SM 32/25 A2968 RMK SLP035 T03180252 57005 IEM_DS3505
ZGNN,1995-06-26 06:00,ZGNN 260600Z AUTO 27004KT 13SM 33/25 A2965 RMK SLP024 T03270252 57011 IEM_DS3505
ZGNN,1995-06-26 07:00,ZGNN 260700Z AUTO 14004KT 7SM 32/26 A2962 RMK SLP018 T03200260 IEM_DS3505
ZGNN,1995-06-26 08:00,ZGNN 260800Z AUTO 09008KT 7SM 28/26 A2959 RMK SLP008 T02800260 IEM_DS3505
ZGNN,1995-06-26 09:00,ZGNN 260900Z AUTO 16006KT 1SM 28/25 A2961 RMK SLP015 T02810250 57010 IEM_DS3505
ZGNN,1995-06-26 10:00,ZGNN 261000Z AUTO 27004KT 7SM 25/24 A2962 RMK SLP020 T02500240 IEM_DS3505
ZGNN,1995-06-26 12:00,ZGNN 261200Z AUTO 25004KT 19SM 26/24 A2962 RMK 60091 SLP024 T02590245 52009 IEM_DS3505
ZGNN,1995-06-26 13:00,ZGNN 261300Z AUTO 00000KT 7SM 24/24 A2965 RMK SLP031 T02400240 IEM_DS3505
ZGNN,1995-06-26 14:00,ZGNN 261400Z AUTO 00000KT 7SM 24/24 A2968 RMK SLP041 T02400240 IEM_DS3505
ZGNN,1995-06-26 15:00,ZGNN 261500Z AUTO 00000KT 19SM 26/24 A2968 RMK SLP041 T02590239 52018 IEM_DS3505
ZGNN,1995-06-26 18:00,ZGNN 261800Z AUTO 20002KT 16SM 26/24 A2965 RMK 60000 SLP029 T02570241 57012 IEM_DS3505
ZGNN,1995-06-26 21:00,ZGNN 262100Z AUTO 25002KT 16SM 26/24 A2964 RMK 70094 SLP025 T02550245 57005 IEM_DS3505
ZGNN,1995-06-27 00:00,ZGNN 270000Z AUTO 32002KT 9SM 26/25 A2968 RMK 60012 70102 SLP034 T02610248 52009 IEM_DS3505
ZGNN,1995-06-27 01:00,ZGNN 270100Z AUTO 00000KT 4SM 25/24 A2968 RMK SLP040 T02500240 IEM_DS3505
ZGNN,1995-06-27 02:00,ZGNN 270200Z AUTO 00000KT 7SM 26/25 A2968 RMK SLP040 T02600250 IEM_DS3505
ZGNN,1995-06-27 03:00,ZGNN 270300Z AUTO 34004KT 12SM 27/24 A2968 RMK SLP040 T02740244 52006 IEM_DS3505
ZGNN,1995-06-27 06:00,ZGNN 270600Z AUTO 20004KT 16SM 30/25 A2965 RMK 60000 SLP030 T02950250 57010 IEM_DS3505
ZGNN,1995-06-27 07:00,ZGNN 270700Z AUTO 13004KT 7SM 29/25 A2962 RMK SLP019 T02900250 IEM_DS3505
ZGNN,1995-06-27 08:00,ZGNN 270800Z AUTO 12004KT 7SM 29/25 A2962 RMK SLP019 T02900250 IEM_DS3505
ZGNN,1995-06-27 09:00,ZGNN 270900Z AUTO 34006KT 16SM 28/25 A2962 RMK SLP021 T02750247 57009 IEM_DS3505
ZGNN,1995-06-27 10:00,ZGNN 271000Z AUTO 36006KT 7SM 25/24 A2962 RMK SLP020 T02500240 IEM_DS3505
ZGNN,1995-06-27 11:00,ZGNN 271100Z AUTO 36008KT 7SM 25/24 A2962 RMK SLP020 T02500240 IEM_DS3505
ZGNN,1995-06-27 12:00,ZGNN 271200Z AUTO 04002KT 9SM 25/25 A2962 RMK 60295 SLP025 T02530246 52004 IEM_DS3505
ZGNN,1995-06-27 13:00,ZGNN 271300Z AUTO 00000KT 7SM 25/24 A2965 RMK SLP030 T02500240 IEM_DS3505
ZGNN,1995-06-27 15:00,ZGNN 271500Z AUTO 07002KT 14SM 25/24 A2969 RMK SLP042 T02520245 52017 IEM_DS3505
ZGNN,1995-06-27 18:00,ZGNN 271800Z AUTO 00000KT 12SM 25/24 A2966 RMK 60001 SLP032 T02510241 57010 IEM_DS3505
ZGNN,1995-06-27 21:00,ZGNN 272100Z AUTO 04002KT 9SM 25/24 A2965 RMK 70319 SLP026 T02490240 57006 IEM_DS3505
ZGNN,1995-06-27 22:00,ZGNN 272200Z AUTO 05004KT 1SM 25/24 A2965 RMK SLP030 T02500240 IEM_DS3505
ZGNN,1995-06-27 23:00,ZGNN 272300Z AUTO 00000KT 1 1/4SM 25/24 A2965 RMK SLP030 T02500240 IEM_DS3505
ZGNN,1995-06-28 00:00,ZGNN 280000Z AUTO 00000KT 11SM 25/24 A2965 RMK 60016 70315 SLP032 T02500238 52006 IEM_DS3505
ZGNN,1995-06-28 01:00,ZGNN 280100Z AUTO 00000KT 2 1/2SM 26/24 A2965 RMK SLP030 T02600240 IEM_DS3505
ZGNN,1995-06-28 02:00,ZGNN 280200Z AUTO 15004KT 7SM 26/24 A2968 RMK SLP040 T02600240 IEM_DS3505
ZGNN,1995-06-28 03:00,ZGNN 280300Z AUTO 14002KT 12SM 28/24 A2971 RMK SLP045 T02750242 52013 IEM_DS3505
ZGNN,1995-06-28 04:00,ZGNN 280400Z AUTO 12004KT 7SM 27/24 A2971 RMK SLP050 T02700240 IEM_DS3505
ZGNN,1995-06-28 06:00,ZGNN 280600Z AUTO 02004KT 5SM 26/25 A2965 RMK 60008 SLP036 T02630247 57009 IEM_DS3505
ZGNN,1995-06-28 07:00,ZGNN 280700Z AUTO 08006KT 7SM 28/25 A2965 RMK SLP029 T02800250 IEM_DS3505
ZGNN,1995-06-28 08:00,ZGNN 280800Z AUTO 06004KT 7SM 27/24 A2962 RMK SLP020 T02700240 IEM_DS3505
ZGNN,1995-06-28 09:00,ZGNN 280900Z AUTO 04004KT 12SM 28/24 A2962 RMK SLP015 T02820236 57021 IEM_DS3505
ZGNN,1995-06-28 10:00,ZGNN 281000Z AUTO 07004KT 7SM 28/24 A2962 RMK SLP019 T02800240 IEM_DS3505
ZGNN,1995-06-28 11:00,ZGNN 281100Z AUTO 06004KT 6SM 28/24 A2962 RMK SLP019 T02800240 IEM_DS3505
ZGNN,1995-06-28 12:00,ZGNN 281200Z AUTO 09002KT 16SM 27/24 A2965 RMK SLP029 T02710242 52014 IEM_DS3505
ZGNN,1995-06-28 13:00,ZGNN 281300Z AUTO 00000KT 6SM 27/24 A2968 RMK SLP040 T02700240 IEM_DS3505
ZGNN,1995-06-28 15:00,ZGNN 281500Z AUTO 07002KT 16SM 26/24 A2972 RMK SLP052 T02590245 52023 IEM_DS3505
ZGNN,1995-06-28 18:00,ZGNN 281800Z AUTO 07004KT 12SM 26/24 A2970 RMK SLP046 T02550245 57006 IEM_DS3505
ZGNN,1995-06-28 20:00,ZGNN 282000Z AUTO 00000KT 4SM 25/25 A2968 RMK SLP040 T02500250 IEM_DS3505
ZGNN,1995-06-28 21:00,ZGNN 282100Z AUTO 04002KT 12SM 25/24 A2968 RMK 70008 SLP042 T02540244 57004 IEM_DS3505
ZGNN,1995-06-28 22:00,ZGNN 282200Z AUTO 06002KT 2 1/2SM 25/25 A2968 RMK SLP040 T02500250 IEM_DS3505
ZGNN,1995-06-28 23:00,ZGNN 282300Z AUTO 07002KT 2SM 26/25 A2971 RMK SLP050 T02600250 IEM_DS3505
ZGNN,1995-06-29 00:00,ZGNN 290000Z AUTO 00000KT 9SM 26/25 A2971 RMK 70008 SLP050 T02570247 52008 IEM_DS3505
ZGNN,1995-06-29 01:00,ZGNN 290100Z AUTO 06002KT 1SM 26/25 A2971 RMK SLP050 T02600250 IEM_DS3505
ZGNN,1995-06-29 02:00,ZGNN 290200Z AUTO 06004KT 3SM 26/25 A2971 RMK SLP050 T02600250 IEM_DS3505
ZGNN,1995-06-29 03:00,ZGNN 290300Z AUTO 07002KT 12SM 26/26 A2973 RMK SLP055 T02580255 52005 IEM_DS3505
ZGNN,1995-06-29 06:00,ZGNN 290600Z AUTO 20004KT 19SM 27/26 A2970 RMK 60091 SLP045 T02670256 57010 IEM_DS3505
ZGNN,1995-06-29 07:00,ZGNN 290700Z AUTO 14006KT 7SM 28/25 A2965 RMK SLP029 T02800250 IEM_DS3505
ZGNN,1995-06-29 08:00,ZGNN 290800Z AUTO 15008KT 7SM 29/25 A2965 RMK SLP029 T02900250 IEM_DS3505
ZGNN,1995-06-29 09:00,ZGNN 290900Z AUTO 22004KT 19SM 30/26 A2962 RMK SLP026 T02950256 57019 IEM_DS3505
ZGNN,1995-06-29 11:00,ZGNN 291100Z AUTO 13008KT 7SM 29/25 A2962 RMK SLP019 T02900250 IEM_DS3505
ZGNN,1995-06-29 12:00,ZGNN 291200Z AUTO 09002KT 19SM 28/25 A2968 RMK SLP036 T02840253 52010 IEM_DS3505
ZGNN,1995-06-29 14:00,ZGNN 291400Z AUTO 12004KT 7SM 27/25 A2971 RMK SLP050 T02700250 IEM_DS3505
ZGNN,1995-06-29 15:00,ZGNN 291500Z AUTO 07002KT 16SM 27/25 A2971 RMK SLP051 T02690254 52015 IEM_DS3505
ZGNN,1995-06-29 16:00,ZGNN 291600Z AUTO 00000KT 7SM 26/25 A2971 RMK SLP050 T02600250 IEM_DS3505
ZGNN,1995-06-29 17:00,ZGNN 291700Z AUTO 00000KT 7SM 26/25 A2971 RMK SLP050 T02600250 IEM_DS3505
ZGNN,1995-06-29 18:00,ZGNN 291800Z AUTO 00000KT 12SM 26/26 A2971 RMK SLP048 T02630255 57003 IEM_DS3505
ZGNN,1995-06-29 21:00,ZGNN 292100Z AUTO 00000KT 12SM 26/26 A2968 RMK 70098 SLP042 T02630255 57006 IEM_DS3505
ZGNN,1995-06-29 22:00,ZGNN 292200Z AUTO 00000KT 7SM 26/25 A2968 RMK SLP040 T02600250 IEM_DS3505
ZGNN,1995-06-29 23:00,ZGNN 292300Z AUTO 00000KT 7SM 25/24 A2971 RMK SLP050 T02500240 IEM_DS3505
ZGNN,1995-06-30 00:00,ZGNN 300000Z AUTO 00000KT 16SM 27/25 A2971 RMK 60020 70110 SLP046 T02660249 52004 IEM_DS3505
ZGNN,1995-06-30 03:00,ZGNN 300300Z AUTO 00000KT 16SM 29/26 A2969 RMK SLP042 T02890260 57004 IEM_DS3505
ZGNN,1995-06-30 06:00,ZGNN 300600Z AUTO 20002KT 19SM 32/25 A2965 RMK 60001 SLP024 T03180249 57017 IEM_DS3505
ZGNN,1995-06-30 08:00,ZGNN 300800Z AUTO 36004KT 7SM 29/26 A2962 RMK SLP019 T02900260 IEM_DS3505
ZGNN,1995-06-30 09:00,ZGNN 300900Z AUTO 25004KT 19SM 32/26 A2960 RMK SLP010 T03190258 57014 IEM_DS3505
ZGNN,1995-06-30 12:00,ZGNN 301200Z AUTO 18002KT 19SM 30/26 A2962 RMK SLP019 T02950259 52009 IEM_DS3505
ZGNN,1995-06-30 13:00,ZGNN 301300Z AUTO 10004KT 7SM 28/25 A2965 RMK SLP029 T02800250 IEM_DS3505
ZGNN,1995-06-30 15:00,ZGNN 301500Z AUTO 22004KT 19SM 28/26 A2967 RMK SLP034 T02810256 52015 IEM_DS3505
ZGNN,1995-06-30 18:00,ZGNN 301800Z AUTO 04002KT 16SM 27/25 A2964 RMK SLP024 T02720252 57010 IEM_DS3505
ZGNN,1995-06-30 21:00,ZGNN 302100Z AUTO 07002KT 12SM 27/25 A2963 RMK 70012 SLP023 T02670247 57001 IEM_DS3505
ZGNN,1995-07-01 00:00,ZGNN 010000Z AUTO 07004KT 19SM 28/25 A2965 RMK 70001 SLP030 T02770249 52007 IEM_DS3505
ZGNN,1995-07-01 02:00,ZGNN 010200Z AUTO 11006KT 7SM 27/25 A2965 RMK SLP027 T02700250 IEM_DS3505
ZGNN,1995-07-01 03:00,ZGNN 010300Z AUTO 25002KT 19SM 29/26 A2965 RMK SLP027 T02890258 57003 IEM_DS3505
ZGNN,1995-07-01 06:00,ZGNN 010600Z AUTO 11004KT 19SM 32/26 A2959 RMK 60004 SLP007 T03170265 57020 IEM_DS3505
ZGNN,1995-07-01 09:00,ZGNN 010900Z AUTO 20002KT 19SM 32/26 A2955 RMK SLP991 T03190261 57016 IEM_DS3505
ZGNN,1995-07-01 12:00,ZGNN 011200Z AUTO 00000KT 19SM 30/26 A2956 RMK SLP995 T02980255 52004 IEM_DS3505
ZGNN,1995-07-01 15:00,ZGNN 011500Z AUTO 07002KT 19SM 28/26 A2961 RMK SLP013 T02800256 52018 IEM_DS3505
ZGNN,1995-07-01 18:00,ZGNN 011800Z AUTO 22002KT 16SM 27/26 A2961 RMK SLP013 T02720255 54000 IEM_DS3505
ZGNN,1995-07-01 21:00,ZGNN 012100Z AUTO 00000KT 16SM 27/26 A2959 RMK 70004 SLP005 T02700255 57008 IEM_DS3505
ZGNN,1995-07-01 23:00,ZGNN 012300Z AUTO 12004KT 7SM 26/25 A2959 RMK SLP007 T02600250 IEM_DS3505
ZGNN,1995-07-02 00:00,ZGNN 020000Z AUTO 00000KT 14SM 27/26 A2962 RMK 70004 SLP016 T02700256 52011 IEM_DS3505
ZGNN,1995-07-02 03:00,ZGNN 020300Z AUTO 11004KT 17SM 30/26 A2962 RMK SLP016 T03040261 54000 IEM_DS3505
ZGNN,1995-07-02 06:00,ZGNN 020600Z AUTO 29004KT 19SM 32/24 A2960 RMK SLP009 T03170244 57007 IEM_DS3505
ZGNN,1995-07-02 09:00,ZGNN 020900Z AUTO 04006KT 19SM 30/25 A2956 RMK SLP995 T03040249 57014 IEM_DS3505
ZGNN,1995-07-02 12:00,ZGNN 021200Z AUTO 29004KT 19SM 29/25 A2961 RMK SLP014 T02880247 52019 IEM_DS3505
ZGNN,1995-07-02 15:00,ZGNN 021500Z AUTO 29002KT 19SM 28/24 A2969 RMK SLP040 T02810241 52026 IEM_DS3505
ZGNN,1995-07-02 18:00,ZGNN 021800Z AUTO 22004KT 16SM 28/24 A2968 RMK SLP037 T02760243 57003 IEM_DS3505
ZGNN,1995-07-02 21:00,ZGNN 022100Z AUTO 04004KT 16SM 27/25 A2967 RMK SLP035 T02660246 57002 IEM_DS3505
ZGNN,1995-07-03 00:00,ZGNN 030000Z AUTO 07002KT 16SM 26/25 A2972 RMK SLP052 T02630246 52016 IEM_DS3505
ZGNN,1995-07-03 03:00,ZGNN 030300Z AUTO 00000KT 16SM 27/24 A2975 RMK SLP060 T02690243 52008 IEM_DS3505
ZGNN,1995-07-03 06:00,ZGNN 030600Z AUTO 00000KT 16SM 29/24 A2972 RMK SLP052 T02870240 57008 IEM_DS3505
ZGNN,1995-07-03 09:00,ZGNN 030900Z AUTO 07004KT 16SM 28/24 A2968 RMK SLP036 T02850239 57016 IEM_DS3505
ZGNN,1995-07-03 12:00,ZGNN 031200Z AUTO 16002KT 14SM 28/24 A2970 RMK SLP044 T02760245 52008 IEM_DS3505
ZGNN,1995-07-03 15:00,ZGNN 031500Z AUTO 07004KT 12SM 27/24 A2975 RMK SLP061 T02660239 52017 IEM_DS3505
ZGNN,1995-07-03 18:00,ZGNN 031800Z AUTO 00000KT 12SM 26/24 A2972 RMK SLP052 T02610238 57009 IEM_DS3505
ZGNN,1995-07-03 21:00,ZGNN 032100Z AUTO 00000KT 16SM 26/24 A2971 RMK SLP047 T02580241 57005 IEM_DS3505
ZGNN,1995-07-03 23:00,ZGNN 032300Z AUTO 00000KT 4SM 25/24 A2971 RMK SLP047 T02500240 IEM_DS3505
ZGNN,1995-07-04 00:00,ZGNN 040000Z AUTO 09002KT 11SM 26/24 A2974 RMK SLP058 T02610236 52011 IEM_DS3505
ZGNN,1995-07-04 06:00,ZGNN 040600Z AUTO 36002KT 16SM 30/24 A2971 RMK SLP044 T02950244 57019 IEM_DS3505
ZGNN,1995-07-04 07:00,ZGNN 040700Z AUTO 06004KT 7SM 30/24 A2968 RMK SLP036 T03000240 IEM_DS3505
ZGNN,1995-07-04 08:00,ZGNN 040800Z AUTO 05002KT 7SM 29/24 A2968 RMK SLP036 T02900240 IEM_DS3505
ZGNN,1995-07-04 09:00,ZGNN 040900Z AUTO 20004KT 12SM 28/26 A2968 RMK SLP033 T02810256 57011 IEM_DS3505
ZGNN,1995-07-04 10:00,ZGNN 041000Z AUTO 00000KT 3SM 25/24 A2968 RMK SLP037 T02500240 IEM_DS3505
ZGNN,1995-07-04 11:00,ZGNN 041100Z AUTO 00000KT 4SM 25/25 A2968 RMK SLP037 T02500250 IEM_DS3505
ZGNN,1995-07-04 12:00,ZGNN 041200Z AUTO 22004KT 9SM 27/25 A2971 RMK 60016 SLP050 T02660252 52017 IEM_DS3505
ZGNN,1995-07-04 13:00,ZGNN 041300Z AUTO 00000KT 4SM 25/25 A2974 RMK SLP058 T02500250 IEM_DS3505
ZGNN,1995-07-04 15:00,ZGNN 041500Z AUTO 00000KT 9SM 26/25 A2977 RMK SLP066 T02640251 52016 IEM_DS3505
ZGNN,1995-07-04 18:00,ZGNN 041800Z AUTO 16002KT 16SM 26/25 A2973 RMK 60016 SLP053 T02640251 57013 IEM_DS3505
ZGNN,1995-07-04 21:00,ZGNN 042100Z AUTO 09002KT 12SM 26/25 A2971 RMK 70031 SLP054 T02590249 52001 IEM_DS3505
ZGNN,1995-07-04 22:00,ZGNN 042200Z AUTO 00000KT 7SM 25/25 A2971 RMK SLP047 T02500250 IEM_DS3505
ZGNN,1995-07-04 23:00,ZGNN 042300Z AUTO 09004KT 7SM 25/24 A2974 RMK SLP058 T02500240 IEM_DS3505
ZGNN,1995-07-05 00:00,ZGNN 050000Z AUTO 09004KT 16SM 26/25 A2974 RMK 70031 SLP060 T02610247 52006 IEM_DS3505
ZGNN,1995-07-05 01:00,ZGNN 050100Z AUTO 09004KT 7SM 27/25 A2974 RMK SLP057 T02700250 IEM_DS3505
ZGNN,1995-07-05 02:00,ZGNN 050200Z AUTO 10004KT 7SM 29/24 A2977 RMK SLP067 T02900240 IEM_DS3505
ZGNN,1995-07-05 03:00,ZGNN 050300Z AUTO 22004KT 19SM 29/25 A2977 RMK SLP062 T02940247 52002 IEM_DS3505
ZGNN,1995-07-05 04:00,ZGNN 050400Z AUTO 14012KT 7SM 30/25 A2974 RMK SLP056 T03000250 IEM_DS3505
ZGNN,1995-07-05 06:00,ZGNN 050600Z AUTO 29002KT 19SM 31/25 A2972 RMK SLP052 T03080248 57010 IEM_DS3505
ZGNN,1995-07-05 07:00,ZGNN 050700Z AUTO 15008KT 7SM 30/25 A2968 RMK SLP036 T03000250 IEM_DS3505
ZGNN,1995-07-05 08:00,ZGNN 050800Z AUTO 16008KT 7SM 31/23 A2968 RMK SLP036 T03100230 IEM_DS3505
ZGNN,1995-07-05 09:00,ZGNN 050900Z AUTO 25004KT 19SM 32/24 A2965 RMK SLP030 T03200244 57021 IEM_DS3505
ZGNN,1995-07-05 10:00,ZGNN 051000Z AUTO 18004KT 7SM 28/24 A2968 RMK SLP037 T02800240 IEM_DS3505
ZGNN,1995-07-05 11:00,ZGNN 051100Z AUTO 00000KT 7SM 28/24 A2968 RMK SLP037 T02800240 IEM_DS3505
ZGNN,1995-07-05 12:00,ZGNN 051200Z AUTO 00000KT 14SM 28/25 A2971 RMK SLP046 T02850247 52015 IEM_DS3505
ZGNN,1995-07-05 13:00,ZGNN 051300Z AUTO 21002KT 7SM 28/24 A2974 RMK SLP057 T02800240 IEM_DS3505
ZGNN,1995-07-05 14:00,ZGNN 051400Z AUTO 00000KT 7SM 27/25 A2974 RMK SLP057 T02700250 IEM_DS3505
ZGNN,1995-07-05 15:00,ZGNN 051500Z AUTO 00000KT 12SM 27/25 A2976 RMK SLP063 T02740247 52017 IEM_DS3505
ZGNN,1995-07-05 18:00,ZGNN 051800Z AUTO 09002KT 12SM 26/25 A2975 RMK SLP062 T02630246 57001 IEM_DS3505
ZGNN,1995-07-05 21:00,ZGNN 052100Z AUTO 09004KT 11SM 26/25 A2974 RMK SLP055 T02620252 57006 IEM_DS3505
ZGNN,1995-07-05 22:00,ZGNN 052200Z AUTO 00000KT 7SM 25/25 A2974 RMK SLP058 T02500250 IEM_DS3505
ZGNN,1995-07-05 23:00,ZGNN 052300Z AUTO 00000KT 7SM 26/25 A2974 RMK SLP057 T02600250 IEM_DS3505
ZGNN,1995-07-06 00:00,ZGNN 060000Z AUTO 22004KT 12SM 28/25 A2977 RMK SLP068 T02750251 52012 IEM_DS3505
ZGNN,1995-07-06 01:00,ZGNN 060100Z AUTO 14008KT 7SM 28/25 A2977 RMK SLP068 T02800250 IEM_DS3505
ZGNN,1995-07-06 02:00,ZGNN 060200Z AUTO 14010KT 7SM 29/25 A2977 RMK SLP067 T02900250 IEM_DS3505
ZGNN,1995-07-06 03:00,ZGNN 060300Z AUTO 14004KT 16SM 30/25 A2977 RMK SLP064 T03000246 57004 IEM_DS3505
ZGNN,1995-07-06 06:00,ZGNN 060600Z AUTO 20004KT 7SM 28/25 A2971 RMK 60024 SLP048 T02750250 57016 IEM_DS3505
ZGNN,1995-07-06 07:00,ZGNN 060700Z AUTO 12010KT 7SM 30/25 A2968 RMK SLP036 T03000250 IEM_DS3505
ZGNN,1995-07-06 08:00,ZGNN 060800Z AUTO 00000KT 7SM 26/24 A2965 RMK SLP027 T02600240 IEM_DS3505
ZGNN,1995-07-06 09:00,ZGNN 060900Z AUTO 16004KT 19SM 31/26 A2965 RMK SLP030 T03070255 57017 IEM_DS3505
ZGNN,1995-07-06 10:00,ZGNN 061000Z AUTO 16008KT 7SM 29/25 A2965 RMK SLP026 T02900250 IEM_DS3505
ZGNN,1995-07-06 11:00,ZGNN 061100Z AUTO 17006KT 7SM 29/24 A2965 RMK SLP026 T02900240 IEM_DS3505
ZGNN,1995-07-06 12:00,ZGNN 061200Z AUTO 00000KT 19SM 29/25 A2968 RMK 60004 SLP038 T02930248 52008 IEM_DS3505
ZGNN,1995-07-06 13:00,ZGNN 061300Z AUTO 16004KT 7SM 27/25 A2971 RMK SLP047 T02700250 IEM_DS3505
ZGNN,1995-07-06 14:00,ZGNN 061400Z AUTO 15006KT 6SM 27/25 A2974 RMK SLP057 T02700250 IEM_DS3505
ZGNN,1995-07-06 15:00,ZGNN 061500Z AUTO 36002KT 14SM 28/26 A2977 RMK SLP070 T02800256 52031 IEM_DS3505
ZGNN,1995-07-06 16:00,ZGNN 061600Z AUTO 16006KT 6SM 27/25 A2977 RMK SLP068 T02700250 IEM_DS3505
ZGNN,1995-07-06 18:00,ZGNN 061800Z AUTO 00000KT 12SM 27/26 A2974 RMK SLP060 T02740256 57010 IEM_DS3505
ZGNN,1995-07-06 21:00,ZGNN 062100Z AUTO 02002KT 19SM 27/25 A2971 RMK 70028 SLP051 T02690252 57008 IEM_DS3505
ZGNN,1995-07-06 22:00,ZGNN 062200Z AUTO 00000KT 7SM 26/25 A2971 RMK SLP047 T02600250 IEM_DS3505
ZGNN,1995-07-06 23:00,ZGNN 062300Z AUTO 15006KT 7SM 26/25 A2974 RMK SLP057 T02600250 IEM_DS3505
ZGNN,1995-07-07 00:00,ZGNN 070000Z AUTO 09004KT 16SM 27/25 A2977 RMK 70028 SLP062 T02690254 52010 IEM_DS3505
ZGNN,1995-07-07 01:00,ZGNN 070100Z AUTO 13010KT 7SM 29/24 A2977 RMK SLP067 T02900240 IEM_DS3505
ZGNN,1995-07-07 02:00,ZGNN 070200Z AUTO 13008KT 7SM 29/25 A2977 RMK SLP067 T02900250 IEM_DS3505
ZGNN,1995-07-07 03:00,ZGNN 070300Z AUTO 20002KT 19SM 30/26 A2974 RMK SLP059 T02980258 57002 IEM_DS3505
ZGNN,1995-07-07 04:00,ZGNN 070400Z AUTO 14008KT 7SM 31/25 A2974 RMK SLP056 T03100250 IEM_DS3505
ZGNN,1995-07-07 05:00,ZGNN 070500Z AUTO 12012KT 7SM 32/25 A2974 RMK SLP056 T03200250 IEM_DS3505
ZGNN,1995-07-07 06:00,ZGNN 070600Z AUTO 34002KT 19SM 32/24 A2971 RMK SLP047 T03200244 57012 IEM_DS3505
ZGNN,1995-07-07 08:00,ZGNN 070800Z AUTO 00000KT 7SM 27/25 A2971 RMK SLP047 T02700250 IEM_DS3505
ZGNN,1995-07-07 09:00,ZGNN 070900Z AUTO 14002KT 19SM 29/25 A2968 RMK SLP042 T02900254 57006 IEM_DS3505
ZGNN,1995-07-07 10:00,ZGNN 071000Z AUTO 16010KT 7SM 28/24 A2968 RMK SLP037 T02800240 IEM_DS3505
ZGNN,1995-07-07 12:00,ZGNN 071200Z AUTO 00000KT 16SM 28/25 A2971 RMK 60020 SLP052 T02810250 52010 IEM_DS3505
ZGNN,1995-07-07 13:00,ZGNN 071300Z AUTO 15006KT 6SM 26/25 A2974 RMK SLP057 T02600250 IEM_DS3505
ZGNN,1995-07-07 15:00,ZGNN 071500Z AUTO 09002KT 16SM 27/26 A2979 RMK SLP075 T02740256 52023 IEM_DS3505
ZGNN,1995-07-07 18:00,ZGNN 071800Z AUTO 09002KT 16SM 27/25 A2977 RMK SLP067 T02690254 57007 IEM_DS3505
ZGNN,1995-07-07 21:00,ZGNN 072100Z AUTO 07002KT 12SM 26/24 A2975 RMK 70020 SLP061 T02550236 57007 IEM_DS3505
ZGNN,1995-07-07 23:00,ZGNN 072300Z AUTO 14004KT 7SM 24/23 A2977 RMK SLP069 T02400230 IEM_DS3505
ZGNN,1995-07-08 00:00,ZGNN 080000Z AUTO 00000KT 12SM 26/24 A2980 RMK 70020 SLP076 T02630237 52015 IEM_DS3505
ZGNN,1995-07-08 01:00,ZGNN 080100Z AUTO 12006KT 7SM 28/24 A2980 RMK SLP078 T02800240 IEM_DS3505
ZGNN,1995-07-08 02:00,ZGNN 080200Z AUTO 13010KT 7SM 29/24 A2980 RMK SLP078 T02900240 IEM_DS3505
ZGNN,1995-07-08 03:00,ZGNN 080300Z AUTO 29002KT 19SM 31/25 A2980 RMK SLP074 T03070248 57002 IEM_DS3505
ZGNN,1995-07-08 04:00,ZGNN 080400Z AUTO 16008KT 7SM 31/24 A2977 RMK SLP067 T03100240 IEM_DS3505
ZGNN,1995-07-08 06:00,ZGNN 080600Z AUTO 25002KT 19SM 30/24 A2974 RMK 60000 SLP061 T02980244 57013 IEM_DS3505
ZGNN,1995-07-08 07:00,ZGNN 080700Z AUTO 13010KT 7SM 33/23 A2971 RMK SLP045 T03300230 IEM_DS3505
ZGNN,1995-07-08 08:00,ZGNN 080800Z AUTO 00000KT 7SM 31/23 A2971 RMK SLP046 T03100230 IEM_DS3505
ZGNN,1995-07-08 09:00,ZGNN 080900Z AUTO 25006KT 11SM 26/24 A2971 RMK SLP049 T02610238 57012 IEM_DS3505
ZGNN,1995-07-08 10:00,ZGNN 081000Z AUTO 36006KT 7SM 28/25 A2971 RMK SLP047 T02800250 IEM_DS3505
ZGNN,1995-07-08 12:00,ZGNN 081200Z AUTO 00000KT 19SM 28/26 A2974 RMK 60008 SLP055 T02840255 52006 IEM_DS3505
ZGNN,1995-07-08 13:00,ZGNN 081300Z AUTO 00000KT 6SM 26/24 A2974 RMK SLP057 T02600240 IEM_DS3505
ZGNN,1995-07-08 15:00,ZGNN 081500Z AUTO 00000KT 19SM 27/25 A2979 RMK SLP074 T02730252 52019 IEM_DS3505
ZGNN,1995-07-08 18:00,ZGNN 081800Z AUTO 16004KT 19SM 26/25 A2977 RMK SLP066 T02630252 57008 IEM_DS3505
ZGNN,1995-07-08 21:00,ZGNN 082100Z AUTO 00000KT 19SM 26/24 A2977 RMK 70008 SLP065 T02590245 57001 IEM_DS3505
ZGNN,1995-07-08 22:00,ZGNN 082200Z AUTO 00000KT 7SM 24/24 A2977 RMK SLP069 T02400240 IEM_DS3505
ZGNN,1995-07-09 00:00,ZGNN 090000Z AUTO 00000KT 19SM 26/25 A2977 RMK 70008 SLP072 T02650251 52007 IEM_DS3505
ZGNN,1995-07-09 01:00,ZGNN 090100Z AUTO 00000KT 7SM 28/24 A2980 RMK SLP078 T02800240 IEM_DS3505
ZGNN,1995-07-09 02:00,ZGNN 090200Z AUTO 00000KT 7SM 30/23 A2980 RMK SLP077 T03000230 IEM_DS3505
ZGNN,1995-07-09 03:00,ZGNN 090300Z AUTO 18002KT 19SM 30/25 A2980 RMK SLP076 T03020249 52004 IEM_DS3505
ZGNN,1995-07-09 04:00,ZGNN 090400Z AUTO 15004KT 7SM 31/24 A2977 RMK SLP067 T03100240 IEM_DS3505
ZGNN,1995-07-09 06:00,ZGNN 090600Z AUTO 22002KT 19SM 32/24 A2974 RMK SLP052 T03240236 57023 IEM_DS3505
ZGNN,1995-07-09 07:00,ZGNN 090700Z AUTO 23016KT 4SM 27/24 A2974 RMK SLP057 T02700240 IEM_DS3505
ZGNN,1995-07-09 08:00,ZGNN 090800Z AUTO 02006KT 7SM 25/23 A2971 RMK SLP047 T02500230 IEM_DS3505
ZGNN,1995-07-09 09:00,ZGNN 090900Z AUTO 32004KT 19SM 27/24 A2968 RMK SLP037 T02710241 57016 IEM_DS3505
ZGNN,1995-07-09 10:00,ZGNN 091000Z AUTO 00000KT 7SM 27/25 A2968 RMK SLP037 T02700250 IEM_DS3505
ZGNN,1995-07-09 11:00,ZGNN 091100Z AUTO 00000KT 7SM 28/25 A2968 RMK SLP037 T02800250 IEM_DS3505
ZGNN,1995-07-09 12:00,ZGNN 091200Z AUTO 00000KT 19SM 28/25 A2968 RMK 60035 SLP043 T02780250 52006 IEM_DS3505
ZGNN,1995-07-09 13:00,ZGNN 091300Z AUTO 00000KT 7SM 26/25 A2971 RMK SLP047 T02600250 IEM_DS3505
ZGNN,1995-07-09 15:00,ZGNN 091500Z AUTO 00000KT 16SM 27/25 A2976 RMK SLP063 T02730250 52020 IEM_DS3505
ZGNN,1995-07-09 18:00,ZGNN 091800Z AUTO 00000KT 12SM 26/25 A2974 RMK SLP057 T02600249 57005 IEM_DS3505
ZGNN,1995-07-09 21:00,ZGNN 092100Z AUTO 00000KT 12SM 25/24 A2971 RMK 70031 SLP051 T02510245 57007 IEM_DS3505
ZGNN,1995-07-09 22:00,ZGNN 092200Z AUTO 00000KT 7SM 24/23 A2971 RMK SLP048 T02400230 IEM_DS3505
ZGNN,1995-07-09 23:00,ZGNN 092300Z AUTO 00000KT 7SM 24/23 A2974 RMK SLP058 T02400230 IEM_DS3505
ZGNN,1995-07-10 00:00,ZGNN 100000Z AUTO 07002KT 19SM 26/25 A2974 RMK 70031 SLP058 T02640247 52007 IEM_DS3505
ZGNN,1995-07-10 01:00,ZGNN 100100Z AUTO 00000KT 7SM 28/24 A2974 RMK SLP057 T02800240 IEM_DS3505
ZGNN,1995-07-10 02:00,ZGNN 100200Z AUTO 16004KT 7SM 29/23 A2974 RMK SLP056 T02900230 IEM_DS3505
ZGNN,1995-07-10 03:00,ZGNN 100300Z AUTO 16004KT 19SM 30/24 A2972 RMK SLP051 T03010243 57006 IEM_DS3505
ZGNN,1995-07-10 06:00,ZGNN 100600Z AUTO 22004KT 19SM 33/24 A2965 RMK SLP029 T03260241 57022 IEM_DS3505
ZGNN,1995-07-10 07:00,ZGNN 100700Z AUTO 15002KT 7SM 33/24 A2962 RMK SLP015 T03300240 IEM_DS3505
ZGNN,1995-07-10 08:00,ZGNN 100800Z AUTO 22006KT 7SM 34/24 A2959 RMK SLP005 T03400240 IEM_DS3505
ZGNN,1995-07-10 09:00,ZGNN 100900Z AUTO 11002KT 19SM 33/25 A2959 RMK SLP009 T03290254 57020 IEM_DS3505
ZGNN,1995-07-10 10:00,ZGNN 101000Z AUTO 16010KT 7SM 32/25 A2959 RMK SLP005 T03200250 IEM_DS3505
ZGNN,1995-07-10 12:00,ZGNN 101200Z AUTO 32002KT 16SM 30/25 A2962 RMK SLP016 T03040254 52007 IEM_DS3505
ZGNN,1995-07-10 13:00,ZGNN 101300Z AUTO 16010KT 7SM 28/25 A2965 RMK SLP026 T02800250 IEM_DS3505
ZGNN,1995-07-10 14:00,ZGNN 101400Z AUTO 15004KT 7SM 27/25 A2965 RMK SLP027 T02700250 IEM_DS3505
ZGNN,1995-07-10 15:00,ZGNN 101500Z AUTO 22002KT 16SM 28/25 A2969 RMK SLP038 T02830251 52022 IEM_DS3505
ZGNN,1995-07-10 18:00,ZGNN 101800Z AUTO 07002KT 16SM 27/25 A2966 RMK SLP031 T02730253 57007 IEM_DS3505
ZGNN,1995-07-10 21:00,ZGNN 102100Z AUTO 00000KT 16SM 27/25 A2964 RMK SLP023 T02710251 57008 IEM_DS3505
ZGNN,1995-07-10 23:00,ZGNN 102300Z AUTO 00000KT 6SM 26/25 A2962 RMK SLP017 T02600250 IEM_DS3505
ZGNN,1995-07-11 00:00,ZGNN 110000Z AUTO 25004KT 14SM 28/26 A2965 RMK SLP025 T02800256 52002 IEM_DS3505
ZGNN,1995-07-11 01:00,ZGNN 110100Z AUTO 18004KT 6SM 29/24 A2965 RMK SLP026 T02900240 IEM_DS3505
ZGNN,1995-07-11 02:00,ZGNN 110200Z AUTO 17006KT 6SM 31/26 A2965 RMK SLP026 T03100260 IEM_DS3505
ZGNN,1995-07-11 03:00,ZGNN 110300Z AUTO 14004KT 19SM 32/24 A2962 RMK SLP022 T03210239 57003 IEM_DS3505
ZGNN,1995-07-11 04:00,ZGNN 110400Z AUTO 00000KT 7SM 33/24 A2962 RMK SLP015 T03300240 IEM_DS3505
ZGNN,1995-07-11 06:00,ZGNN 110600Z AUTO 09002KT 19SM 34/25 A2959 RMK SLP008 T03420246 57014 IEM_DS3505
ZGNN,1995-07-11 07:00,ZGNN 110700Z AUTO 08004KT 7SM 34/25 A2956 RMK SLP995 T03400250 IEM_DS3505
ZGNN,1995-07-11 08:00,ZGNN 110800Z AUTO 09008KT 7SM 31/26 A2956 RMK SLP995 T03100260 IEM_DS3505
ZGNN,1995-07-11 09:00,ZGNN 110900Z AUTO 04004KT 19SM 30/26 A2956 RMK SLP996 T03000255 57012 IEM_DS3505
ZGNN,1995-07-11 10:00,ZGNN 111000Z AUTO 00000KT 7SM 28/26 A2956 RMK SLP996 T02800260 IEM_DS3505
ZGNN,1995-07-11 12:00,ZGNN 111200Z AUTO 07004KT 19SM 28/26 A2959 RMK 60004 SLP008 T02830264 52012 IEM_DS3505
ZGNN,1995-07-11 13:00,ZGNN 111300Z AUTO 16004KT 7SM 28/26 A2959 RMK SLP006 T02800260 IEM_DS3505
ZGNN,1995-07-11 15:00,ZGNN 111500Z AUTO 00000KT 19SM 29/26 A2963 RMK SLP020 T02870259 52012 IEM_DS3505
ZGNN,1995-07-11 18:00,ZGNN 111800Z AUTO 09002KT 16SM 28/26 A2963 RMK SLP018 T02830261 57002 IEM_DS3505
ZGNN,1995-07-11 21:00,ZGNN 112100Z AUTO 07002KT 12SM 28/26 A2962 RMK 70004 SLP019 T02830261 52001 IEM_DS3505
ZGNN,1995-07-11 23:00,ZGNN 112300Z AUTO 16012KT 6SM 28/25 A2962 RMK SLP016 T02800250 IEM_DS3505
ZGNN,1995-07-12 00:00,ZGNN 120000Z AUTO 20002KT 9SM 28/26 A2965 RMK 70004 SLP030 T02850259 52011 IEM_DS3505
ZGNN,1995-07-12 01:00,ZGNN 120100Z AUTO 13008KT 6SM 29/26 A2965 RMK SLP026 T02900260 IEM_DS3505
ZGNN,1995-07-12 02:00,ZGNN 120200Z AUTO 16008KT 7SM 31/25 A2965 RMK SLP026 T03100250 IEM_DS3505
ZGNN,1995-07-12 03:00,ZGNN 120300Z AUTO 25004KT 17SM 33/27 A2965 RMK SLP032 T03270267 52002 IEM_DS3505
ZGNN,1995-07-12 06:00,ZGNN 120600Z AUTO 16006KT 19SM 31/26 A2965 RMK SLP028 T03110264 57004 IEM_DS3505
ZGNN,1995-07-12 07:00,ZGNN 120700Z AUTO 13008KT 7SM 30/26 A2962 RMK SLP016 T03000260 IEM_DS3505
ZGNN,1995-07-12 08:00,ZGNN 120800Z AUTO 15010KT 7SM 30/27 A2962 RMK SLP016 T03000270 IEM_DS3505
ZGNN,1995-07-12 09:00,ZGNN 120900Z AUTO 09002KT 19SM 30/27 A2959 RMK SLP009 T03050267 57019 IEM_DS3505
ZGNN,1995-07-12 11:00,ZGNN 121100Z AUTO 13010KT 7SM 30/26 A2959 RMK SLP006 T03000260 IEM_DS3505
ZGNN,1995-07-12 12:00,ZGNN 121200Z AUTO 11004KT 19SM 30/26 A2962 RMK SLP018 T02970261 52009 IEM_DS3505
ZGNN,1995-07-12 13:00,ZGNN 121300Z AUTO 13004KT 7SM 28/26 A2965 RMK SLP026 T02800260 IEM_DS3505
ZGNN,1995-07-12 15:00,ZGNN 121500Z AUTO 32002KT 19SM 29/26 A2971 RMK SLP045 T02870259 52027 IEM_DS3505
ZGNN,1995-07-12 18:00,ZGNN 121800Z AUTO 04002KT 16SM 28/26 A2970 RMK SLP042 T02800259 57003 IEM_DS3505
ZGNN,1995-07-12 21:00,ZGNN 122100Z AUTO 14002KT 12SM 28/25 A2968 RMK SLP038 T02760254 57004 IEM_DS3505
ZGNN,1995-07-12 22:00,ZGNN 122200Z AUTO 12006KT 7SM 28/26 A2968 RMK SLP037 T02800260 IEM_DS3505
ZGNN,1995-07-13 00:00,ZGNN 130000Z AUTO 29002KT 12SM 28/26 A2971 RMK SLP044 T02770255 52006 IEM_DS3505
ZGNN,1995-07-13 01:00,ZGNN 130100Z AUTO 14006KT 7SM 28/26 A2968 RMK SLP037 T02800260 IEM_DS3505
ZGNN,1995-07-13 02:00,ZGNN 130200Z AUTO 17010KT 7SM 28/25 A2971 RMK SLP047 T02800250 IEM_DS3505
ZGNN,1995-07-13 03:00,ZGNN 130300Z AUTO 20004KT 16SM 30/23 A2974 RMK SLP054 T02950229 52010 IEM_DS3505
ZGNN,1995-07-13 04:00,ZGNN 130400Z AUTO 15008KT 7SM 29/25 A2971 RMK SLP046 T02900250 IEM_DS3505
ZGNN,1995-07-13 06:00,ZGNN 130600Z AUTO 00000KT 19SM 29/24 A2971 RMK SLP048 T02930242 57006 IEM_DS3505
ZGNN,1995-07-13 08:00,ZGNN 130800Z AUTO 13012KT 7SM 30/26 A2965 RMK SLP026 T03000260 IEM_DS3505
ZGNN,1995-07-13 09:00,ZGNN 130900Z AUTO 00000KT 19SM 30/25 A2965 RMK SLP032 T02950252 57016 IEM_DS3505
ZGNN,1995-07-13 10:00,ZGNN 131000Z AUTO 14012KT 7SM 29/26 A2965 RMK SLP026 T02900260 IEM_DS3505
ZGNN,1995-07-13 12:00,ZGNN 131200Z AUTO 09002KT 19SM 28/25 A2968 RMK SLP038 T02780251 52005 IEM_DS3505
ZGNN,1995-07-13 13:00,ZGNN 131300Z AUTO 12006KT 7SM 27/26 A2971 RMK SLP047 T02700260 IEM_DS3505
ZGNN,1995-07-13 14:00,ZGNN 131400Z AUTO 12006KT 7SM 28/26 A2974 RMK SLP057 T02800260 IEM_DS3505
ZGNN,1995-07-13 15:00,ZGNN 131500Z AUTO 07002KT 19SM 27/25 A2974 RMK SLP062 T02720248 52024 IEM_DS3505
ZGNN,1995-07-13 16:00,ZGNN 131600Z AUTO 12006KT 7SM 27/26 A2977 RMK SLP068 T02700260 IEM_DS3505
ZGNN,1995-07-13 18:00,ZGNN 131800Z AUTO 07004KT 16SM 27/25 A2975 RMK SLP062 T02690251 54000 IEM_DS3505
ZGNN,1995-07-13 21:00,ZGNN 132100Z AUTO 07004KT 16SM 26/25 A2971 RMK SLP053 T02610248 57009 IEM_DS3505
ZGNN,1995-07-13 22:00,ZGNN 132200Z AUTO 06004KT 7SM 25/24 A2971 RMK SLP047 T02500240 IEM_DS3505
ZGNN,1995-07-14 00:00,ZGNN 140000Z AUTO 04002KT 19SM 28/25 A2974 RMK SLP060 T02750251 52007 IEM_DS3505
ZGNN,1995-07-14 01:00,ZGNN 140100Z AUTO 15004KT 7SM 28/25 A2974 RMK SLP057 T02800250 IEM_DS3505
ZGNN,1995-07-14 02:00,ZGNN 140200Z AUTO 16006KT 7SM 29/25 A2974 RMK SLP056 T02900250 IEM_DS3505
ZGNN,1995-07-14 03:00,ZGNN 140300Z AUTO 18006KT 19SM 30/26 A2974 RMK SLP061 T03040257 52001 IEM_DS3505
ZGNN,1995-07-14 06:00,ZGNN 140600Z AUTO 25004KT 19SM 34/26 A2968 RMK SLP036 T03350256 57024 IEM_DS3505
ZGNN,1995-07-14 07:00,ZGNN 140700Z AUTO 03004KT 7SM 28/23 A2965 RMK SLP026 T02800230 IEM_DS3505
ZGNN,1995-07-14 08:00,ZGNN 140800Z AUTO 13010KT 7SM 30/25 A2965 RMK SLP026 T03000250 IEM_DS3505
ZGNN,1995-07-14 09:00,ZGNN 140900Z AUTO 07004KT 19SM 29/24 A2962 RMK SLP027 T02890242 57010 IEM_DS3505
ZGNN,1995-07-14 10:00,ZGNN 141000Z AUTO 12006KT 7SM 29/24 A2962 RMK SLP016 T02900240 IEM_DS3505
ZGNN,1995-07-14 11:00,ZGNN 141100Z AUTO 07004KT 16SM 27/25 A2966 RMK SLP032 T02740250 52005 IEM_DS3505
ZGNN,1995-07-14 12:00,ZGNN 141200Z AUTO 07004KT 16SM 27/25 A2965 RMK SLP032 T02740250 52005 IEM_DS3505
ZGNN,1995-07-14 13:00,ZGNN 141300Z AUTO 15008KT 7SM 27/25 A2965 RMK SLP027 T02700250 IEM_DS3505
ZGNN,1995-07-14 15:00,ZGNN 141500Z AUTO 11002KT 14SM 27/25 A2972 RMK SLP050 T02730250 52019 IEM_DS3505
ZGNN,1995-07-14 18:00,ZGNN 141800Z AUTO 11004KT 14SM 27/25 A2970 RMK SLP042 T02690246 57008 IEM_DS3505
ZGNN,1995-07-14 21:00,ZGNN 142100Z AUTO 00000KT 12SM 26/24 A2967 RMK SLP035 T02630240 57008 IEM_DS3505
ZGNN,1995-07-14 22:00,ZGNN 142200Z AUTO 13008KT 7SM 25/23 A2968 RMK SLP037 T02500230 IEM_DS3505
ZGNN,1995-07-14 23:00,ZGNN 142300Z AUTO 15006KT 7SM 25/23 A2968 RMK SLP037 T02500230 IEM_DS3505
ZGNN,1995-07-15 00:00,ZGNN 150000Z AUTO 07006KT 9SM 26/24 A2968 RMK SLP036 T02630237 52001 IEM_DS3505
ZGNN,1995-07-15 01:00,ZGNN 150100Z AUTO 13008KT 7SM 27/23 A2968 RMK SLP037 T02700230 IEM_DS3505
ZGNN,1995-07-15 02:00,ZGNN 150200Z AUTO 14008KT 7SM 27/23 A2968 RMK SLP037 T02700230 IEM_DS3505
ZGNN,1995-07-15 03:00,ZGNN 150300Z AUTO 11004KT 19SM 30/24 A2969 RMK SLP041 T03010240 52006 IEM_DS3505
ZGNN,1995-07-15 06:00,ZGNN 150600Z AUTO 22004KT 19SM 32/24 A2964 RMK SLP024 T03210236 57017 IEM_DS3505
ZGNN,1995-07-15 09:00,ZGNN 150900Z AUTO 20002KT 16SM 27/25 A2962 RMK SLP020 T02690246 57005 IEM_DS3505
ZGNN,1995-07-15 12:00,ZGNN 151200Z AUTO 02002KT 16SM 27/24 A2965 RMK 60008 SLP030 T02740243 52010 IEM_DS3505
ZGNN,1995-07-15 13:00,ZGNN 151300Z AUTO 16008KT 7SM 26/24 A2965 RMK SLP027 T02600240 IEM_DS3505
ZGNN,1995-07-15 15:00,ZGNN 151500Z AUTO 04002KT 16SM 27/24 A2969 RMK SLP041 T02670243 52012 IEM_DS3505
ZGNN,1995-07-15 18:00,ZGNN 151800Z AUTO 22004KT 16SM 26/24 A2968 RMK SLP036 T02600238 57005 IEM_DS3505
ZGNN,1995-07-15 21:00,ZGNN 152100Z AUTO 07002KT 12SM 25/24 A2968 RMK 70012 SLP041 T02470237 52004 IEM_DS3505
ZGNN,1995-07-15 22:00,ZGNN 152200Z AUTO 17004KT 7SM 24/23 A2968 RMK SLP038 T02400230 IEM_DS3505
ZGNN,1995-07-15 23:00,ZGNN 152300Z AUTO 00000KT 7SM 24/23 A2968 RMK SLP038 T02400230 IEM_DS3505
ZGNN,1995-07-16 00:00,ZGNN 160000Z AUTO 00000KT 16SM 25/24 A2971 RMK 60012 70012 SLP049 T02530243 52008 IEM_DS3505
ZGNN,1995-07-16 01:00,ZGNN 160100Z AUTO 14004KT 7SM 24/24 A2971 RMK SLP048 T02400240 IEM_DS3505
ZGNN,1995-07-16 02:00,ZGNN 160200Z AUTO 13004KT 7SM 24/24 A2974 RMK SLP058 T02400240 IEM_DS3505
ZGNN,1995-07-16 03:00,ZGNN 160300Z AUTO 09002KT 12SM 26/25 A2974 RMK SLP058 T02590248 52009 IEM_DS3505
ZGNN,1995-07-16 06:00,ZGNN 160600Z AUTO 27002KT 19SM 28/24 A2971 RMK 60012 SLP048 T02790245 57010 IEM_DS3505
ZGNN,1995-07-16 07:00,ZGNN 160700Z AUTO 18004KT 7SM 28/25 A2968 RMK SLP037 T02800250 IEM_DS3505
ZGNN,1995-07-16 08:00,ZGNN 160800Z AUTO 14006KT 7SM 29/25 A2968 RMK SLP036 T02900250 IEM_DS3505
ZGNN,1995-07-16 09:00,ZGNN 160900Z AUTO 22006KT 19SM 30/25 A2968 RMK SLP036 T03050249 57012 IEM_DS3505
ZGNN,1995-07-16 10:00,ZGNN 161000Z AUTO 16008KT 7SM 30/24 A2968 RMK SLP036 T03000240 IEM_DS3505
ZGNN,1995-07-16 11:00,ZGNN 161100Z AUTO 21004KT 7SM 29/24 A2968 RMK SLP036 T02900240 IEM_DS3505
ZGNN,1995-07-16 12:00,ZGNN 161200Z AUTO 18002KT 19SM 29/25 A2968 RMK SLP044 T02930246 52008 IEM_DS3505
ZGNN,1995-07-16 13:00,ZGNN 161300Z AUTO 00000KT 6SM 27/25 A2971 RMK SLP047 T02700250 IEM_DS3505
ZGNN,1995-07-16 15:00,ZGNN 161500Z AUTO 00000KT 17SM 27/25 A2975 RMK SLP061 T02670247 52017 IEM_DS3505
ZGNN,1995-07-16 18:00,ZGNN 161800Z AUTO 07002KT 16SM 26/25 A2975 RMK 60004 SLP062 T02650252 52001 IEM_DS3505
ZGNN,1995-07-16 21:00,ZGNN 162100Z AUTO 11002KT 12SM 26/25 A2977 RMK 70035 SLP064 T02600252 52002 IEM_DS3505
ZGNN,1995-07-16 22:00,ZGNN 162200Z AUTO 12004KT 7SM 25/25 A2977 RMK SLP069 T02500250 IEM_DS3505
ZGNN,1995-07-16 23:00,ZGNN 162300Z AUTO 09004KT 7SM 26/25 A2977 RMK SLP068 T02600250 IEM_DS3505
ZGNN,1995-07-17 00:00,ZGNN 170000Z AUTO 04002KT 12SM 26/25 A2980 RMK 60079 70094 SLP075 T02600252 52011 IEM_DS3505
ZGNN,1995-07-17 01:00,ZGNN 170100Z AUTO 09004KT 7SM 26/24 A2980 RMK SLP078 T02600240 IEM_DS3505
ZGNN,1995-07-17 02:00,ZGNN 170200Z AUTO 00000KT 6SM 26/24 A2983 RMK SLP088 T02600240 IEM_DS3505
ZGNN,1995-07-17 03:00,ZGNN 170300Z AUTO 07006KT 12SM 25/24 A2985 RMK SLP091 T02530244 52015 IEM_DS3505
ZGNN,1995-07-17 06:00,ZGNN 170600Z AUTO 00000KT 19SM 30/25 A2980 RMK 60039 SLP074 T02990250 57016 IEM_DS3505
ZGNN,1995-07-17 07:00,ZGNN 170700Z AUTO 20004KT 7SM 31/24 A2977 RMK SLP067 T03100240 IEM_DS3505
ZGNN,1995-07-17 09:00,ZGNN 170900Z AUTO 25004KT 19SM 32/24 A2974 RMK SLP057 T03210239 57016 IEM_DS3505
ZGNN,1995-07-17 10:00,ZGNN 171000Z AUTO 17006KT 7SM 31/23 A2974 RMK SLP056 T03100230 IEM_DS3505
ZGNN,1995-07-17 12:00,ZGNN 171200Z AUTO 00000KT 17SM 29/26 A2977 RMK SLP065 T02930263 52007 IEM_DS3505
ZGNN,1995-07-17 13:00,ZGNN 171300Z AUTO 00000KT 6SM 28/25 A2980 RMK SLP078 T02800250 IEM_DS3505
ZGNN,1995-07-17 15:00,ZGNN 171500Z AUTO 00000KT 16SM 28/26 A2983 RMK SLP088 T02790258 52023 IEM_DS3505
ZGNN,1995-07-17 18:00,ZGNN 171800Z AUTO 00000KT 12SM 27/25 A2982 RMK SLP086 T02720252 57002 IEM_DS3505
ZGNN,1995-07-17 21:00,ZGNN 172100Z AUTO 14002KT 16SM 26/24 A2983 RMK 70098 SLP089 T02610245 52003 IEM_DS3505
ZGNN,1995-07-17 23:00,ZGNN 172300Z AUTO 06002KT 7SM 26/24 A2985 RMK SLP095 T02600240 IEM_DS3505
ZGNN,1995-07-18 00:00,ZGNN 180000Z AUTO 07004KT 16SM 27/25 A2987 RMK 70039 SLP100 T02700246 52011 IEM_DS3505
ZGNN,1995-07-18 01:00,ZGNN 180100Z AUTO 13006KT 7SM 28/24 A2985 RMK SLP094 T02800240 IEM_DS3505
ZGNN,1995-07-18 06:00,ZGNN 180600Z AUTO 11004KT 19SM 32/25 A2982 RMK SLP083 T03250246 57013 IEM_DS3505
ZGNN,1995-07-18 09:00,ZGNN 180900Z AUTO 20002KT 19SM 33/25 A2977 RMK SLP064 T03330251 57019 IEM_DS3505
ZGNN,1995-07-18 10:00,ZGNN 181000Z AUTO 15008KT 7SM 33/23 A2977 RMK SLP066 T03300230 IEM_DS3505
ZGNN,1995-07-18 12:00,ZGNN 181200Z AUTO 11002KT 19SM 31/25 A2976 RMK SLP064 T03090253 57001 IEM_DS3505
ZGNN,1995-07-18 13:00,ZGNN 181300Z AUTO 00000KT 6SM 28/24 A2977 RMK SLP068 T02800240 IEM_DS3505
ZGNN,1995-07-18 15:00,ZGNN 181500Z AUTO 22002KT 17SM 29/25 A2981 RMK SLP080 T02860248 52016 IEM_DS3505
ZGNN,1995-07-18 18:00,ZGNN 181800Z AUTO 22002KT 16SM 28/24 A2980 RMK SLP075 T02780242 57004 IEM_DS3505
ZGNN,1995-07-18 21:00,ZGNN 182100Z AUTO 02004KT 16SM 26/25 A2980 RMK SLP074 T02640248 57001 IEM_DS3505
ZGNN,1995-07-18 23:00,ZGNN 182300Z AUTO 00000KT 7SM 26/24 A2983 RMK SLP088 T02600240 IEM_DS3505
ZGNN,1995-07-19 00:00,ZGNN 190000Z AUTO 09004KT 14SM 28/ A2983 RMK SLP089 52014 IEM_DS3505
ZGNN,1995-07-19 01:00,ZGNN 190100Z AUTO 11006KT 7SM 28/24 A2985 RMK SLP094 T02800240 IEM_DS3505
ZGNN,1995-07-19 03:00,ZGNN 190300Z AUTO 22004KT 17SM 30/24 A2983 RMK SLP091 T02990236 52002 IEM_DS3505
ZGNN,1995-07-19 06:00,ZGNN 190600Z AUTO 07004KT 19SM 33/24 A2977 RMK SLP068 T03300239 57022 IEM_DS3505
ZGNN,1995-07-19 07:00,ZGNN 190700Z AUTO 13008KT 7SM A2980 RMK SLP079 IEM_DS3505
ZGNN,1995-07-19 08:00,ZGNN 190800Z AUTO 32004KT 7SM 28/25 A2977 RMK SLP068 T02800250 IEM_DS3505
ZGNN,1995-07-19 09:00,ZGNN 190900Z AUTO 22004KT 19SM 31/25 A2976 RMK SLP062 T03060251 57007 IEM_DS3505
ZGNN,1995-07-19 10:00,ZGNN 191000Z AUTO 12006KT 7SM 30/25 A2974 RMK SLP056 T03000250 IEM_DS3505
ZGNN,1995-07-19 11:00,ZGNN 191100Z AUTO 16006KT 7SM 28/26 A2974 RMK SLP057 T02800260 IEM_DS3505
ZGNN,1995-07-19 12:00,ZGNN 191200Z AUTO 00000KT 16SM 28/25 A2977 RMK 60000 SLP060 T02840252 57002 IEM_DS3505
ZGNN,1995-07-19 13:00,ZGNN 191300Z AUTO 18004KT 7SM 27/25 A2977 RMK SLP068 T02700250 IEM_DS3505
ZGNN,1995-07-19 15:00,ZGNN 191500Z AUTO 00000KT 17SM 28/25 A2981 RMK SLP080 T02820247 52020 IEM_DS3505
ZGNN,1995-07-19 18:00,ZGNN 191800Z AUTO 20002KT 16SM 28/25 A2980 RMK SLP078 T02750250 57001 IEM_DS3505
ZGNN,1995-07-19 21:00,ZGNN 192100Z AUTO 34004KT 16SM 26/25 A2980 RMK 70001 SLP070 T02630250 57009 IEM_DS3505
ZGNN,1995-07-19 22:00,ZGNN 192200Z AUTO 00000KT 7SM 25/24 A2980 RMK SLP079 T02500240 IEM_DS3505
ZGNN,1995-07-19 23:00,ZGNN 192300Z AUTO 00000KT 7SM 25/25 A2980 RMK SLP079 T02500250 IEM_DS3505
ZGNN,1995-07-20 00:00,ZGNN 200000Z AUTO 00000KT 14SM 28/26 A2983 RMK 60000 70001 SLP081 T02770256 52011 IEM_DS3505
ZGNN,1995-07-20 01:00,ZGNN 200100Z AUTO 15004KT 7SM 27/25 A2983 RMK SLP088 T02700250 IEM_DS3505
ZGNN,1995-07-20 02:00,ZGNN 200200Z AUTO 24004KT 7SM 28/25 A2983 RMK SLP088 T02800250 IEM_DS3505
ZGNN,1995-07-20 03:00,ZGNN 200300Z AUTO 22004KT 19SM 30/24 A2981 RMK SLP080 T03030237 57001 IEM_DS3505
ZGNN,1995-07-20 06:00,ZGNN 200600Z AUTO 25006KT 19SM 32/23 A2977 RMK SLP069 T03230228 57010 IEM_DS3505
ZGNN,1995-07-20 07:00,ZGNN 200700Z AUTO 26008KT 7SM 33/23 A2974 RMK SLP055 T03300230 IEM_DS3505
ZGNN,1995-07-20 08:00,ZGNN 200800Z AUTO 22006KT 7SM 34/23 A2971 RMK SLP045 T03400230 IEM_DS3505
ZGNN,1995-07-20 09:00,ZGNN 200900Z AUTO 25004KT 19SM 33/23 A2971 RMK SLP044 T03300230 57025 IEM_DS3505
ZGNN,1995-07-20 10:00,ZGNN 201000Z AUTO 14008KT 7SM 33/24 A2971 RMK SLP045 T03300240 IEM_DS3505
ZGNN,1995-07-20 11:00,ZGNN 201100Z AUTO 14010KT 7SM 30/25 A2971 RMK SLP046 T03000250 IEM_DS3505
ZGNN,1995-07-20 12:00,ZGNN 201200Z AUTO 27004KT 19SM 31/25 A2971 RMK SLP048 T03060251 52004 IEM_DS3505
ZGNN,1995-07-20 13:00,ZGNN 201300Z AUTO 16004KT 7SM 28/24 A2974 RMK SLP057 T02800240 IEM_DS3505
ZGNN,1995-07-20 14:00,ZGNN 201400Z AUTO 18004KT 7SM 28/25 A2977 RMK SLP068 T02800250 IEM_DS3505
ZGNN,1995-07-20 15:00,ZGNN 201500Z AUTO 00000KT 19SM 28/25 A2976 RMK SLP063 T02830249 52015 IEM_DS3505
ZGNN,1995-07-20 18:00,ZGNN 201800Z AUTO 00000KT 19SM 27/25 A2975 RMK SLP059 T02720252 57004 IEM_DS3505
ZGNN,1995-07-20 21:00,ZGNN 202100Z AUTO 00000KT 16SM 26/25 A2974 RMK SLP055 T02650251 57004 IEM_DS3505
ZGNN,1995-07-20 22:00,ZGNN 202200Z AUTO 00000KT 7SM 26/25 A2974 RMK SLP057 T02600250 IEM_DS3505
ZGNN,1995-07-20 23:00,ZGNN 202300Z AUTO 00000KT 7SM 26/25 A2977 RMK SLP068 T02600250 IEM_DS3505
ZGNN,1995-07-21 00:00,ZGNN 210000Z AUTO 00000KT 17SM 28/25 A2977 RMK SLP065 T02820250 52010 IEM_DS3505
ZGNN,1995-07-21 01:00,ZGNN 210100Z AUTO 13004KT 7SM 28/25 A2977 RMK SLP068 T02800250 IEM_DS3505
ZGNN,1995-07-21 02:00,ZGNN 210200Z AUTO 17006KT 7SM 30/24 A2977 RMK SLP067 T03000240 IEM_DS3505
ZGNN,1995-07-21 03:00,ZGNN 210300Z AUTO 22008KT 19SM 31/22 A2975 RMK SLP060 T03130225 57005 IEM_DS3505
ZGNN,1995-07-21 06:00,ZGNN 210600Z AUTO 20002KT 19SM 33/24 A2969 RMK SLP039 T03320235 57021 IEM_DS3505
ZGNN,1995-07-21 09:00,ZGNN 210900Z AUTO 22002KT 19SM 35/23 A2962 RMK SLP014 T03470234 57025 IEM_DS3505
ZGNN,1995-07-21 12:00,ZGNN 211200Z AUTO 20002KT 19SM 31/26 A2963 RMK SLP020 T03130262 52006 IEM_DS3505
ZGNN,1995-07-21 13:00,ZGNN 211300Z AUTO 15006KT 7SM 29/26 A2965 RMK SLP026 T02900260 IEM_DS3505
ZGNN,1995-07-21 15:00,ZGNN 211500Z AUTO 22004KT 19SM 29/26 A2970 RMK SLP044 T02890261 52024 IEM_DS3505
ZGNN,1995-07-21 18:00,ZGNN 211800Z AUTO 00000KT 19SM 28/26 A2969 RMK SLP038 T02790257 57006 IEM_DS3505
ZGNN,1995-07-21 21:00,ZGNN 212100Z AUTO 04002KT 19SM 28/26 A2968 RMK SLP036 T02780258 57002 IEM_DS3505
ZGNN,1995-07-21 22:00,ZGNN 212200Z AUTO 00000KT 7SM 26/25 A2968 RMK SLP037 T02600250 IEM_DS3505
ZGNN,1995-07-22 00:00,ZGNN 220000Z AUTO 00000KT 9SM 28/26 A2970 RMK SLP044 T02850260 52008 IEM_DS3505
ZGNN,1995-07-22 01:00,ZGNN 220100Z AUTO 00000KT 7SM 29/26 A2971 RMK SLP046 T02900260 IEM_DS3505
ZGNN,1995-07-22 02:00,ZGNN 220200Z AUTO 17004KT 7SM 31/26 A2971 RMK SLP046 T03100260 IEM_DS3505
ZGNN,1995-07-22 03:00,ZGNN 220300Z AUTO 16002KT 12SM 31/25 A2971 RMK SLP049 T03120249 52005 IEM_DS3505
ZGNN,1995-07-22 06:00,ZGNN 220600Z AUTO 36002KT 17SM 34/25 A2965 RMK SLP031 T03430248 57018 IEM_DS3505
ZGNN,1995-07-22 07:00,ZGNN 220700Z AUTO 10004KT 7SM 35/25 A2962 RMK SLP014 T03500250 IEM_DS3505
ZGNN,1995-07-22 08:00,ZGNN 220800Z AUTO 11006KT 7SM 34/25 A2962 RMK SLP015 T03400250 IEM_DS3505
ZGNN,1995-07-22 09:00,ZGNN 220900Z AUTO 22006KT 19SM 36/25 A2962 RMK SLP012 T03560249 57018 IEM_DS3505
ZGNN,1995-07-22 10:00,ZGNN 221000Z AUTO 13008KT 7SM 33/26 A2959 RMK SLP005 T03300260 IEM_DS3505
ZGNN,1995-07-22 12:00,ZGNN 221200Z AUTO 20002KT 19SM 32/26 A2962 RMK SLP019 T03170265 52006 IEM_DS3505
ZGNN,1995-07-22 13:00,ZGNN 221300Z AUTO 14008KT 7SM 29/26 A2965 RMK SLP026 T02900260 IEM_DS3505
ZGNN,1995-07-22 15:00,ZGNN 221500Z AUTO 20002KT 16SM 29/26 A2970 RMK SLP044 T02930263 52025 IEM_DS3505
ZGNN,1995-07-22 18:00,ZGNN 221800Z AUTO 09002KT 16SM 28/26 A2970 RMK SLP043 T02840263 57001 IEM_DS3505
ZGNN,1995-07-22 21:00,ZGNN 222100Z AUTO 00000KT 14SM 28/26 A2968 RMK SLP041 T02770262 57002 IEM_DS3505
ZGNN,1995-07-22 22:00,ZGNN 222200Z AUTO 01004KT 7SM 26/25 A2968 RMK SLP037 T02600250 IEM_DS3505
ZGNN,1995-07-22 23:00,ZGNN 222300Z AUTO 00000KT 4SM 26/25 A2971 RMK SLP047 T02600250 IEM_DS3505
ZGNN,1995-07-23 00:00,ZGNN 230000Z AUTO 07002KT 16SM 29/26 A2974 RMK SLP055 T02870263 52014 IEM_DS3505
ZGNN,1995-07-23 01:00,ZGNN 230100Z AUTO 00000KT 7SM 30/26 A2974 RMK SLP056 T03000260 IEM_DS3505
ZGNN,1995-07-23 02:00,ZGNN 230200Z AUTO 13004KT 7SM 31/25 A2974 RMK SLP056 T03100250 IEM_DS3505
ZGNN,1995-07-23 03:00,ZGNN 230300Z AUTO 20002KT 19SM 33/26 A2974 RMK SLP056 T03260255 52001 IEM_DS3505
ZGNN,1995-07-23 04:00,ZGNN 230400Z AUTO 14008KT 7SM 33/24 A2974 RMK SLP055 T03300240 IEM_DS3505
ZGNN,1995-07-23 06:00,ZGNN 230600Z AUTO 16006KT 7SM 35/26 A2968 RMK SLP035 T03500260 IEM_DS3505
ZGNN,1995-07-23 07:00,ZGNN 230700Z AUTO 08006KT 7SM 34/25 A2965 RMK SLP025 T03400250 IEM_DS3505
ZGNN,1995-07-23 08:00,ZGNN 230800Z AUTO 27006KT 7SM 31/24 A2965 RMK SLP026 T03100240 IEM_DS3505
ZGNN,1995-07-23 09:00,ZGNN 230900Z AUTO 00000KT 19SM 31/25 A2962 RMK SLP020 T03100247 57019 IEM_DS3505
ZGNN,1995-07-23 10:00,ZGNN 231000Z AUTO 15008KT 7SM 33/26 A2962 RMK SLP015 T03300260 IEM_DS3505
ZGNN,1995-07-23 12:00,ZGNN 231200Z AUTO 07002KT 19SM 30/26 A2964 RMK 60008 SLP022 T03020255 52002 IEM_DS3505
ZGNN,1995-07-23 13:00,ZGNN 231300Z AUTO 15006KT 6SM 29/26 A2968 RMK SLP036 T02900260 IEM_DS3505
ZGNN,1995-07-23 15:00,ZGNN 231500Z AUTO 00000KT 19SM 29/26 A2973 RMK SLP053 T02940259 52031 IEM_DS3505
ZGNN,1995-07-23 18:00,ZGNN 231800Z AUTO 00000KT 16SM 28/26 A2974 RMK SLP055 T02830264 52002 IEM_DS3505
ZGNN,1995-07-23 21:00,ZGNN 232100Z AUTO 07004KT 12SM 28/26 A2971 RMK 70008 SLP051 T02800265 57004 IEM_DS3505
ZGNN,1995-07-23 22:00,ZGNN 232200Z AUTO 00000KT 7SM 27/26 A2974 RMK SLP057 T02700260 IEM_DS3505
ZGNN,1995-07-23 23:00,ZGNN 232300Z AUTO 00000KT 6SM 27/26 A2974 RMK SLP057 T02700260 IEM_DS3505
ZGNN,1995-07-24 00:00,ZGNN 240000Z AUTO 04002KT 12SM 28/26 A2977 RMK 70008 SLP063 T02790265 52012 IEM_DS3505
ZGNN,1995-07-24 01:00,ZGNN 240100Z AUTO 15004KT 7SM 30/26 A2977 RMK SLP067 T03000260 IEM_DS3505
ZGNN,1995-07-24 02:00,ZGNN 240200Z AUTO 10004KT 7SM 32/25 A2977 RMK SLP067 T03200250 IEM_DS3505
ZGNN,1995-07-24 03:00,ZGNN 240300Z AUTO 18004KT 16SM 32/26 A2977 RMK SLP063 T03250263 54000 IEM_DS3505
ZGNN,1995-07-24 04:00,ZGNN 240400Z AUTO 22004KT 7SM 34/24 A2977 RMK SLP066 T03400240 IEM_DS3505
ZGNN,1995-07-24 06:00,ZGNN 240600Z AUTO 32002KT 19SM 35/24 A2971 RMK SLP044 T03510237 57019 IEM_DS3505
ZGNN,1995-07-24 07:00,ZGNN 240700Z AUTO 16010KT 7SM 35/24 A2968 RMK SLP035 T03500240 IEM_DS3505
ZGNN,1995-07-24 08:00,ZGNN 240800Z AUTO 14010KT 7SM 34/24 A2965 RMK SLP025 T03400240 IEM_DS3505
ZGNN,1995-07-24 09:00,ZGNN 240900Z AUTO 20002KT 19SM 34/25 A2965 RMK SLP022 T03400254 57022 IEM_DS3505
ZGNN,1995-07-24 10:00,ZGNN 241000Z AUTO 35008KT 7SM 29/23 A2965 RMK SLP026 T02900230 IEM_DS3505
ZGNN,1995-07-24 11:00,ZGNN 241100Z AUTO 02004KT 7SM 28/23 A2965 RMK SLP026 T02800230 IEM_DS3505
ZGNN,1995-07-24 12:00,ZGNN 241200Z AUTO 00000KT 19SM 30/25 A2965 RMK SLP030 T02980253 52008 IEM_DS3505
ZGNN,1995-07-24 13:00,ZGNN 241300Z AUTO 00000KT 6SM 27/25 A2971 RMK SLP047 T02700250 IEM_DS3505
ZGNN,1995-07-24 14:00,ZGNN 241400Z AUTO 11002KT 6SM 28/26 A2974 RMK SLP057 T02800260 IEM_DS3505
ZGNN,1995-07-24 15:00,ZGNN 241500Z AUTO 00000KT 16SM 29/25 A2975 RMK SLP059 T02940252 52029 IEM_DS3505
ZGNN,1995-07-24 18:00,ZGNN 241800Z AUTO 22002KT 16SM 28/26 A2973 RMK SLP052 T02820264 57007 IEM_DS3505
ZGNN,1995-07-24 21:00,ZGNN 242100Z AUTO 00000KT 12SM 28/26 A2971 RMK SLP048 T02780261 57004 IEM_DS3505
ZGNN,1995-07-24 23:00,ZGNN 242300Z AUTO 00000KT 4SM 26/25 A2971 RMK SLP047 T02600250 IEM_DS3505
ZGNN,1995-07-25 00:00,ZGNN 250000Z AUTO 07002KT 19SM 28/26 A2974 RMK SLP056 T02820257 52008 IEM_DS3505
ZGNN,1995-07-25 01:00,ZGNN 250100Z AUTO 13006KT 7SM 30/26 A2974 RMK SLP056 T03000260 IEM_DS3505
ZGNN,1995-07-25 02:00,ZGNN 250200Z AUTO 17006KT 7SM 31/24 A2974 RMK SLP056 T03100240 IEM_DS3505
ZGNN,1995-07-25 03:00,ZGNN 250300Z AUTO 25004KT 19SM 32/24 A2974 RMK SLP054 T03170242 57002 IEM_DS3505
ZGNN,1995-07-25 06:00,ZGNN 250600Z AUTO 00000KT 19SM 30/25 A2968 RMK 60004 SLP036 T03030247 57018 IEM_DS3505
ZGNN,1995-07-25 07:00,ZGNN 250700Z AUTO 30006KT 7SM 28/22 A2965 RMK SLP026 T02800220 IEM_DS3505
ZGNN,1995-07-25 08:00,ZGNN 250800Z AUTO 04004KT 7SM 31/23 A2962 RMK SLP016 T03100230 IEM_DS3505
ZGNN,1995-07-25 09:00,ZGNN 250900Z AUTO 00000KT 19SM 28/24 A2962 RMK SLP019 T02770243 57017 IEM_DS3505
ZGNN,1995-07-25 10:00,ZGNN 251000Z AUTO 05002KT 7SM 29/25 A2962 RMK SLP016 T02900250 IEM_DS3505
ZGNN,1995-07-25 11:00,ZGNN 251100Z AUTO 03004KT 6SM 29/25 A2962 RMK SLP016 T02900250 IEM_DS3505
ZGNN,1995-07-25 12:00,ZGNN 251200Z AUTO 02002KT 19SM 29/26 A2965 RMK 60028 SLP033 T02910256 52014 IEM_DS3505
ZGNN,1995-07-25 13:00,ZGNN 251300Z AUTO 16004KT 7SM 29/25 A2971 RMK SLP046 T02900250 IEM_DS3505
ZGNN,1995-07-25 15:00,ZGNN 251500Z AUTO 20002KT 17SM 29/26 A2975 RMK SLP059 T02870258 52026 IEM_DS3505
ZGNN,1995-07-25 18:00,ZGNN 251800Z AUTO 00000KT 16SM 28/26 A2973 RMK SLP053 T02770259 57006 IEM_DS3505
ZGNN,1995-07-25 21:00,ZGNN 252100Z AUTO 07002KT 14SM 27/26 A2971 RMK 70031 SLP050 T02740259 57004 IEM_DS3505
ZGNN,1995-07-25 22:00,ZGNN 252200Z AUTO 36004KT 6SM 26/25 A2971 RMK SLP047 T02600250 IEM_DS3505
ZGNN,1995-07-25 23:00,ZGNN 252300Z AUTO 01002KT 4SM 26/25 A2974 RMK SLP057 T02600250 IEM_DS3505
ZGNN,1995-07-26 00:00,ZGNN 260000Z AUTO 04004KT 12SM 28/26 A2977 RMK 70031 SLP062 T02780258 52012 IEM_DS3505
ZGNN,1995-07-26 03:00,ZGNN 260300Z AUTO 09004KT 19SM 32/26 A2977 RMK SLP069 T03150261 52008 IEM_DS3505
ZGNN,1995-07-26 06:00,ZGNN 260600Z AUTO 20004KT 19SM 33/23 A2974 RMK 60002 SLP051 T03260230 57018 IEM_DS3505
ZGNN,1995-07-26 07:00,ZGNN 260700Z AUTO 24004KT 7SM 29/25 A2974 RMK SLP056 T02900250 IEM_DS3505
ZGNN,1995-07-26 08:00,ZGNN 260800Z AUTO 00000KT 7SM 29/24 A2971 RMK SLP046 T02900240 IEM_DS3505
ZGNN,1995-07-26 09:00,ZGNN 260900Z AUTO 16002KT 19SM 29/25 A2968 RMK SLP042 T02880246 57010 IEM_DS3505
ZGNN,1995-07-26 10:00,ZGNN 261000Z AUTO 00000KT 7SM 30/25 A2968 RMK SLP036 T03000250 IEM_DS3505
ZGNN,1995-07-26 11:00,ZGNN 261100Z AUTO 12006KT 6SM 29/25 A2968 RMK SLP036 T02900250 IEM_DS3505
ZGNN,1995-07-26 12:00,ZGNN 261200Z AUTO 07004KT 19SM 28/26 A2971 RMK SLP053 T02770255 52011 IEM_DS3505
ZGNN,1995-07-26 13:00,ZGNN 261300Z AUTO 17004KT 7SM 27/24 A2974 RMK SLP057 T02700240 IEM_DS3505
ZGNN,1995-07-26 15:00,ZGNN 261500Z AUTO 00000KT 19SM 27/24 A2978 RMK SLP072 T02720242 52020 IEM_DS3505
ZGNN,1995-07-26 18:00,ZGNN 261800Z AUTO 07002KT 19SM 27/25 A2977 RMK SLP063 T02670249 57009 IEM_DS3505
ZGNN,1995-07-26 19:00,ZGNN 261900Z AUTO 00000KT 7SM 26/25 A2974 RMK SLP057 T02600250 IEM_DS3505
ZGNN,1995-07-26 20:00,ZGNN 262000Z AUTO 00000KT 7SM 26/25 A2974 RMK SLP057 T02600250 IEM_DS3505
ZGNN,1995-07-26 21:00,ZGNN 262100Z AUTO 07002KT 19SM 26/25 A2974 RMK 70002 SLP059 T02620246 57005 IEM_DS3505
ZGNN,1995-07-26 22:00,ZGNN 262200Z AUTO 00000KT 6SM 25/24 A2974 RMK SLP058 T02500240 IEM_DS3505
ZGNN,1995-07-27 00:00,ZGNN 270000Z AUTO 00000KT 19SM 27/25 A2977 RMK 70002 SLP066 T02690246 52007 IEM_DS3505
ZGNN,1995-07-27 01:00,ZGNN 270100Z AUTO 34004KT 7SM 28/25 A2977 RMK SLP068 T02800250 IEM_DS3505
ZGNN,1995-07-27 02:00,ZGNN 270200Z AUTO 35004KT 7SM 30/24 A2977 RMK SLP067 T03000240 IEM_DS3505
ZGNN,1995-07-27 03:00,ZGNN 270300Z AUTO 07002KT 19SM 30/26 A2977 RMK SLP067 T03010255 52001 IEM_DS3505
ZGNN,1995-07-27 04:00,ZGNN 270400Z AUTO 11004KT 19SM 31/25 A2974 RMK SLP044 T03100250 51018 IEM_DS3505
ZGNN,1995-07-27 05:00,ZGNN 270500Z AUTO 00000KT 7SM 33/25 A2974 RMK T03300250 IEM_DS3505
ZGNN,1995-07-27 06:00,ZGNN 270600Z AUTO 11004KT 19SM 33/25 A2971 RMK SLP044 T03270246 57022 IEM_DS3505
ZGNN,1995-07-27 07:00,ZGNN 270700Z AUTO 07006KT 7SM 33/24 A2968 RMK SLP035 T03300240 IEM_DS3505
ZGNN,1995-07-27 09:00,ZGNN 270900Z AUTO 36004KT 19SM 34/24 A2962 RMK SLP019 T03430242 57025 IEM_DS3505
ZGNN,1995-07-27 12:00,ZGNN 271200Z AUTO 20002KT 19SM 32/25 A2965 RMK SLP026 T03160253 52007 IEM_DS3505
ZGNN,1995-07-27 14:00,ZGNN 271400Z AUTO 15004KT 7SM 28/25 A2971 RMK SLP047 T02800250 IEM_DS3505
ZGNN,1995-07-27 15:00,ZGNN 271500Z AUTO 07006KT 12SM 26/22 A2976 RMK SLP063 T02600223 52036 IEM_DS3505
ZGNN,1995-07-27 18:00,ZGNN 271800Z AUTO 02002KT 12SM 25/23 A2970 RMK 60012 SLP044 T02460231 57018 IEM_DS3505
ZGNN,1995-07-27 21:00,ZGNN 272100Z AUTO 00000KT 12SM 25/24 A2968 RMK 70012 SLP032 T02540240 57012 IEM_DS3505
ZGNN,1995-07-27 22:00,ZGNN 272200Z AUTO 36004KT 7SM 24/23 A2965 RMK SLP028 T02400230 IEM_DS3505
ZGNN,1995-07-27 23:00,ZGNN 272300Z AUTO 32004KT 4SM 24/23 A2968 RMK SLP038 T02400230 IEM_DS3505
ZGNN,1995-07-28 00:00,ZGNN 280000Z AUTO 34004KT 2 1/2SM 25/24 A2968 RMK 60039 70051 SLP035 T02480241 52003 IEM_DS3505
ZGNN,1995-07-28 01:00,ZGNN 280100Z AUTO 22006KT 1 1/4SM 24/24 A2968 RMK SLP038 T02400240 IEM_DS3505
ZGNN,1995-07-28 03:00,ZGNN 280300Z AUTO 07004KT 11SM 25/24 A2968 RMK SLP045 T02480241 52009 IEM_DS3505
ZGNN,1995-07-28 06:00,ZGNN 280600Z AUTO 07008KT 12SM 26/25 A2967 RMK 60063 SLP035 T02650247 57010 IEM_DS3505
ZGNN,1995-07-28 09:00,ZGNN 280900Z AUTO 07004KT 26/25 A2962 RMK SLP026 T02570246 57009 IEM_DS3505
ZGNN,1995-07-28 10:00,ZGNN 281000Z AUTO 05006KT 7SM 25/24 A2965 RMK SLP027 T02500240 IEM_DS3505
ZGNN,1995-07-28 12:00,ZGNN 281200Z AUTO 04002KT 7SM 26/25 A2965 RMK 60016 SLP033 T02570248 52007 IEM_DS3505
ZGNN,1995-07-28 13:00,ZGNN 281300Z AUTO 00000KT 4SM 25/24 A2968 RMK SLP037 T02500240 IEM_DS3505
ZGNN,1995-07-28 15:00,ZGNN 281500Z AUTO 09004KT 12SM 26/24 A2972 RMK SLP050 T02580241 52017 IEM_DS3505
ZGNN,1995-07-28 18:00,ZGNN 281800Z AUTO 07002KT 12SM 25/24 A2969 RMK SLP041 T02500237 57009 IEM_DS3505
ZGNN,1995-07-28 21:00,ZGNN 282100Z AUTO 02004KT 12SM 25/23 A2967 RMK 70118 SLP035 T02470234 57006 IEM_DS3505
ZGNN,1995-07-28 22:00,ZGNN 282200Z AUTO 04004KT 7SM 24/23 A2965 RMK SLP028 T02400230 IEM_DS3505
ZGNN,1995-07-28 23:00,ZGNN 282300Z AUTO 04004KT 7SM 24/23 A2968 RMK SLP038 T02400230 IEM_DS3505
ZGNN,1995-07-29 00:00,ZGNN 290000Z AUTO 07002KT 12SM 25/24 A2968 RMK 70079 SLP041 T02530236 52006 IEM_DS3505
ZGNN,1995-07-29 01:00,ZGNN 290100Z AUTO 05004KT 7SM 25/23 A2968 RMK SLP037 T02500230 IEM_DS3505
ZGNN,1995-07-29 02:00,ZGNN 290200Z AUTO 05004KT 7SM 25/24 A2968 RMK SLP037 T02500240 IEM_DS3505
ZGNN,1995-07-29 03:00,ZGNN 290300Z AUTO 07002KT 12SM 27/24 A2968 RMK SLP042 T02740241 52001 IEM_DS3505
ZGNN,1995-07-29 06:00,ZGNN 290600Z AUTO 00000KT 12SM 27/25 A2968 RMK 60008 SLP036 T02730249 57006 IEM_DS3505
ZGNN,1995-07-29 07:00,ZGNN 290700Z AUTO 07002KT 7SM 27/24 A2965 RMK SLP027 T02700240 IEM_DS3505
ZGNN,1995-07-29 08:00,ZGNN 290800Z AUTO 03006KT 7SM 27/24 A2962 RMK SLP017 T02700240 IEM_DS3505
ZGNN,1995-07-29 09:00,ZGNN 290900Z AUTO 36002KT 9SM 27/25 A2962 RMK SLP012 T02710251 57024 IEM_DS3505
ZGNN,1995-07-29 10:00,ZGNN 291000Z AUTO 34004KT 2 1/2SM 26/25 A2962 RMK SLP017 T02600250 IEM_DS3505
ZGNN,1995-07-29 11:00,ZGNN 291100Z AUTO 00000KT 3SM 26/25 A2962 RMK SLP017 T02600250 IEM_DS3505
ZGNN,1995-07-29 12:00,ZGNN 291200Z AUTO 25004KT 12SM 27/25 A2962 RMK 60012 SLP024 T02690252 52012 IEM_DS3505
ZGNN,1995-07-29 13:00,ZGNN 291300Z AUTO 00000KT 2 1/2SM 26/24 A2965 RMK SLP027 T02600240 IEM_DS3505
ZGNN,1995-07-29 14:00,ZGNN 291400Z AUTO 00000KT 2 1/2SM 25/25 A2968 RMK SLP037 T02500250 IEM_DS3505
ZGNN,1995-07-29 15:00,ZGNN 291500Z AUTO 25004KT 9SM 26/25 A2969 RMK SLP040 T02620252 52016 IEM_DS3505
ZGNN,1995-07-29 18:00,ZGNN 291800Z AUTO 25004KT 10SM 26/25 A2967 RMK SLP033 T02590248 57007 IEM_DS3505
ZGNN,1995-07-29 21:00,ZGNN 292100Z AUTO 27002KT 10SM 25/24 A2962 RMK 70020 SLP020 T02510239 57013 IEM_DS3505
ZGNN,1995-07-29 22:00,ZGNN 292200Z AUTO 00000KT 6SM 24/23 A2962 RMK SLP017 T02400230 IEM_DS3505
ZGNN,1995-07-29 23:00,ZGNN 292300Z AUTO 00000KT 6SM 25/24 A2962 RMK SLP017 T02500240 IEM_DS3505
ZGNN,1995-07-30 00:00,ZGNN 300000Z AUTO 00000KT 9SM 26/24 A2965 RMK 70020 SLP027 T02560245 52007 IEM_DS3505
ZGNN,1995-07-30 01:00,ZGNN 300100Z AUTO 31006KT 6SM 27/24 A2965 RMK SLP027 T02700240 IEM_DS3505
ZGNN,1995-07-30 02:00,ZGNN 300200Z AUTO 33006KT 6SM 28/24 A2965 RMK SLP026 T02800240 IEM_DS3505
ZGNN,1995-07-30 03:00,ZGNN 300300Z AUTO 34006KT 14SM 30/26 A2965 RMK SLP026 T03000255 54000 IEM_DS3505
ZGNN,1995-07-30 04:00,ZGNN 300400Z AUTO 33004KT 6SM 31/25 A2962 RMK SLP016 T03100250 IEM_DS3505
ZGNN,1995-07-30 06:00,ZGNN 300600Z AUTO 22006KT 16SM 33/26 A2962 RMK SLP009 T03310258 57017 IEM_DS3505
ZGNN,1995-07-30 07:00,ZGNN 300700Z AUTO 25004KT 7SM 34/25 A2959 RMK SLP005 T03400250 IEM_DS3505
ZGNN,1995-07-30 08:00,ZGNN 300800Z AUTO 34004KT 7SM 35/24 A2956 RMK SLP994 T03500240 IEM_DS3505
ZGNN,1995-07-30 09:00,ZGNN 300900Z AUTO 32004KT 16SM 36/25 A2953 RMK SLP987 T03550254 57022 IEM_DS3505
ZGNN,1995-07-30 10:00,ZGNN 301000Z AUTO 32004KT 7SM 34/24 A2953 RMK SLP984 T03400240 IEM_DS3505
ZGNN,1995-07-30 11:00,ZGNN 301100Z AUTO 00000KT 7SM 33/25 A2953 RMK SLP985 T03300250 IEM_DS3505
ZGNN,1995-07-30 12:00,ZGNN 301200Z AUTO 00000KT 16SM 33/26 A2953 RMK SLP986 T03260258 57001 IEM_DS3505
ZGNN,1995-07-30 13:00,ZGNN 301300Z AUTO 00000KT 7SM 29/26 A2956 RMK SLP996 T02900260 IEM_DS3505
ZGNN,1995-07-30 14:00,ZGNN 301400Z AUTO 00000KT 7SM 29/26 A2959 RMK SLP006 T02900260 IEM_DS3505
ZGNN,1995-07-30 15:00,ZGNN 301500Z AUTO 00000KT 14SM 30/26 A2958 RMK SLP004 T03030262 52018 IEM_DS3505
ZGNN,1995-07-30 18:00,ZGNN 301800Z AUTO 00000KT 14SM 28/26 A2958 RMK SLP002 T02830261 57002 IEM_DS3505
ZGNN,1995-07-30 21:00,ZGNN 302100Z AUTO 00000KT 12SM 28/27 A2959 RMK SLP003 T02750267 52002 IEM_DS3505
ZGNN,1995-07-30 22:00,ZGNN 302200Z AUTO 00000KT 5SM 26/25 A2959 RMK SLP007 T02600250 IEM_DS3505
ZGNN,1995-07-30 23:00,ZGNN 302300Z AUTO 00000KT 7SM 26/25 A2959 RMK SLP007 T02600250 IEM_DS3505
ZGNN,1995-07-31 00:00,ZGNN 310000Z AUTO 00000KT 4SM 29/26 A2962 RMK SLP015 T02890258 52011 IEM_DS3505
ZGNN,1995-07-31 01:00,ZGNN 310100Z AUTO 22006KT 6SM 29/25 A2962 RMK SLP016 T02900250 IEM_DS3505
ZGNN,1995-07-31 02:00,ZGNN 310200Z AUTO 22004KT 6SM 31/26 A2965 RMK SLP026 T03100260 IEM_DS3505
ZGNN,1995-07-31 03:00,ZGNN 310300Z AUTO 16002KT 9SM 33/26 A2965 RMK SLP022 T03270265 52008 IEM_DS3505
ZGNN,1995-07-31 04:00,ZGNN 310400Z AUTO 24004KT 7SM 34/26 A2962 RMK SLP015 T03400260 IEM_DS3505
ZGNN,1995-07-31 06:00,ZGNN 310600Z AUTO 29004KT 19SM 36/24 A2959 RMK SLP004 T03590241 57018 IEM_DS3505
ZGNN,1995-07-31 07:00,ZGNN 310700Z AUTO 00000KT 7SM 35/26 A2956 RMK SLP994 T03500260 IEM_DS3505
ZGNN,1995-07-31 08:00,ZGNN 310800Z AUTO 00000KT 7SM 35/26 A2956 RMK SLP994 T03500260 IEM_DS3505
ZGNN,1995-07-31 09:00,ZGNN 310900Z AUTO 16004KT 19SM 37/24 A2956 RMK SLP993 T03700240 57011 IEM_DS3505
ZGNN,1995-07-31 10:00,ZGNN 311000Z AUTO 13008KT 7SM 35/25 A2953 RMK SLP984 T03500250 IEM_DS3505
ZGNN,1995-07-31 12:00,ZGNN 311200Z AUTO 22006KT 19SM 31/24 A2962 RMK SLP015 T03110240 52021 IEM_DS3505
ZGNN,1995-07-31 13:00,ZGNN 311300Z AUTO 00000KT 7SM 28/23 A2965 RMK SLP026 T02800230 IEM_DS3505
ZGNN,1995-07-31 14:00,ZGNN 311400Z AUTO 18004KT 7SM 28/25 A2968 RMK SLP037 T02800250 IEM_DS3505
ZGNN,1995-07-31 15:00,ZGNN 311500Z AUTO 00000KT 19SM 29/26 A2968 RMK SLP037 T02910258 52022 IEM_DS3505
ZGNN,1995-07-31 18:00,ZGNN 311800Z AUTO 07002KT 16SM 28/26 A2969 RMK SLP039 T02790258 52002 IEM_DS3505
ZGNN,1995-07-31 21:00,ZGNN 312100Z AUTO 00000KT 16SM 27/26 A2969 RMK SLP039 T02720258 52001 IEM_DS3505
ZGNN,1995-07-31 23:00,ZGNN 312300Z AUTO 00000KT 6SM 26/25 A2971 RMK SLP047 T02600250 IEM_DS3505
ZGNN,1995-08-01 00:00,ZGNN 010000Z AUTO 04004KT 12SM 28/26 A2971 RMK SLP045 T02760259 52005 IEM_DS3505
ZGNN,1995-08-01 01:00,ZGNN 010100Z AUTO 14004KT 6SM 28/25 A2974 RMK SLP059 T02800250 IEM_DS3505
ZGNN,1995-08-01 02:00,ZGNN 010200Z AUTO 24004KT 6SM 30/25 A2974 RMK SLP058 T03000250 IEM_DS3505
ZGNN,1995-08-01 03:00,ZGNN 010300Z AUTO 14002KT 16SM 31/25 A2974 RMK SLP054 T03090247 52009 IEM_DS3505
ZGNN,1995-08-01 06:00,ZGNN 010600Z AUTO 22002KT 19SM 29/25 A2968 RMK 60024 SLP040 T02890254 57014 IEM_DS3505
ZGNN,1995-08-01 09:00,ZGNN 010900Z AUTO 16004KT 19SM 31/25 A2965 RMK SLP029 T03120246 57011 IEM_DS3505
ZGNN,1995-08-01 10:00,ZGNN 011000Z AUTO 15008KT 7SM 30/24 A2965 RMK SLP027 T03000240 IEM_DS3505
ZGNN,1995-08-01 11:00,ZGNN 011100Z AUTO 14012KT 7SM 29/24 A2965 RMK SLP027 T02900240 IEM_DS3505
ZGNN,1995-08-01 12:00,ZGNN 011200Z AUTO 25002KT 19SM 29/25 A2968 RMK SLP037 T02870247 52007 IEM_DS3505
ZGNN,1995-08-01 13:00,ZGNN 011300Z AUTO 15004KT 6SM 26/24 A2971 RMK SLP049 T02600240 IEM_DS3505
ZGNN,1995-08-01 15:00,ZGNN 011500Z AUTO 11002KT 16SM 27/25 A2974 RMK SLP057 T02690246 52021 IEM_DS3505
ZGNN,1995-08-01 18:00,ZGNN 011800Z AUTO 00000KT 16SM 27/25 A2971 RMK SLP050 T02660246 57008 IEM_DS3505
ZGNN,1995-08-01 21:00,ZGNN 012100Z AUTO 09002KT 12SM 26/25 A2968 RMK 70024 SLP040 T02610248 57009 IEM_DS3505
ZGNN,1995-08-01 22:00,ZGNN 012200Z AUTO 00000KT 5SM 25/24 A2968 RMK SLP039 T02500240 IEM_DS3505
ZGNN,1995-08-01 23:00,ZGNN 012300Z AUTO 00000KT 2 1/2SM 25/25 A2971 RMK SLP049 T02500250 IEM_DS3505
ZGNN,1995-08-02 00:00,ZGNN 020000Z AUTO 00000KT 12SM 27/25 A2971 RMK 70024 SLP050 T02660253 52009 IEM_DS3505
ZGNN,1995-08-02 01:00,ZGNN 020100Z AUTO 14004KT 7SM 27/25 A2971 RMK SLP049 T02700250 IEM_DS3505
ZGNN,1995-08-02 02:00,ZGNN 020200Z AUTO 00000KT 7SM 30/25 A2968 RMK SLP038 T03000250 IEM_DS3505
ZGNN,1995-08-02 03:00,ZGNN 020300Z AUTO 14002KT 16SM 30/25 A2968 RMK SLP038 T03010251 57011 IEM_DS3505
ZGNN,1995-08-02 06:00,ZGNN 020600Z AUTO 22004KT 19SM 32/25 A2962 RMK SLP020 T03150251 57018 IEM_DS3505
ZGNN,1995-08-02 07:00,ZGNN 020700Z AUTO 18008KT 7SM 31/24 A2959 RMK SLP006 T03100240 IEM_DS3505
ZGNN,1995-08-02 08:00,ZGNN 020800Z AUTO 13004KT 7SM 30/25 A2959 RMK SLP007 T03000250 IEM_DS3505
ZGNN,1995-08-02 09:00,ZGNN 020900Z AUTO 00000KT 19SM 30/26 A2959 RMK SLP009 T03050261 57011 IEM_DS3505
ZGNN,1995-08-02 10:00,ZGNN 021000Z AUTO 15006KT 7SM 29/26 A2956 RMK SLP997 T02900260 IEM_DS3505
ZGNN,1995-08-02 12:00,ZGNN 021200Z AUTO 00000KT 19SM 29/26 A2959 RMK SLP011 T02870255 52002 IEM_DS3505
ZGNN,1995-08-02 13:00,ZGNN 021300Z AUTO 12002KT 6SM 27/26 A2962 RMK SLP018 T02700260 IEM_DS3505
ZGNN,1995-08-02 14:00,ZGNN 021400Z AUTO 12002KT 6SM 27/25 A2962 RMK SLP018 T02700250 IEM_DS3505
ZGNN,1995-08-02 15:00,ZGNN 021500Z AUTO 00000KT 16SM 28/25 A2965 RMK SLP025 T02780254 52014 IEM_DS3505
ZGNN,1995-08-02 18:00,ZGNN 021800Z AUTO 07002KT 16SM 28/26 A2962 RMK SLP019 T02750260 57006 IEM_DS3505
ZGNN,1995-08-02 21:00,ZGNN 022100Z AUTO 00000KT 16SM 27/26 A2959 RMK SLP011 T02720261 57008 IEM_DS3505
ZGNN,1995-08-02 22:00,ZGNN 022200Z AUTO 00000KT 7SM 26/25 A2959 RMK SLP008 T02600250 IEM_DS3505
ZGNN,1995-08-02 23:00,ZGNN 022300Z AUTO 00000KT 7SM 27/25 A2959 RMK SLP008 T02700250 IEM_DS3505
ZGNN,1995-08-03 00:00,ZGNN 030000Z AUTO 07002KT 12SM 27/26 A2962 RMK SLP014 T02740260 52003 IEM_DS3505
ZGNN,1995-08-03 01:00,ZGNN 030100Z AUTO 00000KT 7SM 28/26 A2959 RMK SLP007 T02800260 IEM_DS3505
ZGNN,1995-08-03 02:00,ZGNN 030200Z AUTO 00000KT 7SM 29/26 A2962 RMK SLP017 T02900260 IEM_DS3505
ZGNN,1995-08-03 03:00,ZGNN 030300Z AUTO 22002KT 14SM 31/25 A2962 RMK SLP012 T03100250 57002 IEM_DS3505
ZGNN,1995-08-03 04:00,ZGNN 030400Z AUTO 02004KT 7SM 29/26 A2959 RMK SLP007 T02900260 IEM_DS3505
ZGNN,1995-08-03 06:00,ZGNN 030600Z AUTO 09002KT 6SM 26/25 A2959 RMK 60039 SLP011 T02640247 57002 IEM_DS3505
ZGNN,1995-08-03 07:00,ZGNN 030700Z AUTO 07010KT 7SM 26/25 A2959 RMK SLP008 T02600250 IEM_DS3505
ZGNN,1995-08-03 08:00,ZGNN 030800Z AUTO 14002KT 5SM 25/25 A2956 RMK SLP998 T02500250 IEM_DS3505
ZGNN,1995-08-03 09:00,ZGNN 030900Z AUTO 07004KT 7SM 27/26 A2953 RMK SLP997 T02670256 57014 IEM_DS3505
ZGNN,1995-08-03 10:00,ZGNN 031000Z AUTO 00000KT 7SM 26/26 A2956 RMK SLP998 T02600260 IEM_DS3505
ZGNN,1995-08-03 12:00,ZGNN 031200Z AUTO 04004KT 9SM 26/25 A2956 RMK 60008 SLP005 T02630253 52008 IEM_DS3505
ZGNN,1995-08-03 13:00,ZGNN 031300Z AUTO 06006KT 7SM 26/26 A2956 RMK SLP998 T02600260 IEM_DS3505
ZGNN,1995-08-03 14:00,ZGNN 031400Z AUTO 00000KT 7SM 26/25 A2962 RMK SLP018 T02600250 IEM_DS3505
ZGNN,1995-08-03 15:00,ZGNN 031500Z AUTO 04002KT 9SM 26/25 A2964 RMK SLP025 T02640253 52021 IEM_DS3505
ZGNN,1995-08-03 17:00,ZGNN 031700Z AUTO 00000KT 9SM 26/25 A2961 RMK SLP015 T02590250 57011 IEM_DS3505
ZGNN,1995-08-03 18:00,ZGNN 031800Z AUTO 00000KT 9SM 26/25 A2961 RMK SLP015 T02590253 57011 IEM_DS3505
ZGNN,1995-08-03 21:00,ZGNN 032100Z AUTO 02002KT 9SM 26/25 A2959 RMK 70047 SLP016 T02600252 52001 IEM_DS3505
ZGNN,1995-08-03 22:00,ZGNN 032200Z AUTO 00000KT 4SM 25/24 A2962 RMK SLP018 T02500240 IEM_DS3505
ZGNN,1995-08-03 23:00,ZGNN 032300Z AUTO 00000KT 4SM 26/25 A2962 RMK SLP018 T02600250 IEM_DS3505
ZGNN,1995-08-04 00:00,ZGNN 040000Z AUTO 11004KT 16SM 26/25 A2962 RMK 70047 SLP016 T02640251 54000 IEM_DS3505
ZGNN,1995-08-04 01:00,ZGNN 040100Z AUTO 00303KT 26/25 A2965 RMK SLP028 T02600250 IEM_DS3505
ZGNN,1995-08-04 02:00,ZGNN 040200Z AUTO 05001KT 27/25 A2968 RMK SLP039 T02700250 IEM_DS3505
ZGNN,1995-08-04 03:00,ZGNN 040300Z AUTO 07004KT 16SM 28/25 A2968 RMK SLP034 T02820251 52018 IEM_DS3505
ZGNN,1995-08-04 06:00,ZGNN 040600Z AUTO 20002KT 19SM 28/26 A2962 RMK 60051 SLP021 T02830258 57013 IEM_DS3505
ZGNN,1995-08-04 07:00,ZGNN 040700Z AUTO 31004KT 7SM 28/26 A2959 RMK SLP007 T02800260 IEM_DS3505
ZGNN,1995-08-04 08:00,ZGNN 040800Z AUTO 13002KT 7SM 30/24 A2956 RMK SLP997 T03000240 IEM_DS3505
ZGNN,1995-08-04 09:00,ZGNN 040900Z AUTO 07004KT 12SM 26/24 A2956 RMK SLP011 T02570243 57010 IEM_DS3505
ZGNN,1995-08-04 11:00,ZGNN 041100Z AUTO 00000KT 7SM 26/24 A2962 RMK SLP018 T02600240 IEM_DS3505
ZGNN,1995-08-04 12:00,ZGNN 041200Z AUTO 11002KT 7SM 25/24 A2962 RMK 60055 SLP026 T02470240 52015 IEM_DS3505
ZGNN,1995-08-04 13:00,ZGNN 041300Z AUTO 24004KT 4SM 25/25 A2965 RMK SLP028 T02500250 IEM_DS3505
ZGNN,1995-08-04 14:00,ZGNN 041400Z AUTO 17006KT 3SM 25/24 A2968 RMK SLP039 T02500240 IEM_DS3505
ZGNN,1995-08-04 15:00,ZGNN 041500Z AUTO 22002KT 7SM 25/24 A2971 RMK SLP051 T02460239 52025 IEM_DS3505
ZGNN,1995-08-04 18:00,ZGNN 041800Z AUTO 22002KT 7SM 25/24 A2970 RMK 60055 SLP045 T02490239 57006 IEM_DS3505
ZGNN,1995-08-04 21:00,ZGNN 042100Z AUTO 09004KT 6SM 25/24 A2968 RMK 70169 SLP040 T02490239 57005 IEM_DS3505
ZGNN,1995-08-04 22:00,ZGNN 042200Z AUTO 13008KT 2 1/2SM 24/24 A2971 RMK SLP050 T02400240 IEM_DS3505
ZGNN,1995-08-04 23:00,ZGNN 042300Z AUTO 11008KT 3SM 24/24 A2971 RMK SLP050 T02400240 IEM_DS3505
ZGNN,1995-08-05 00:00,ZGNN 050000Z AUTO 29004KT 6SM 25/23 A2974 RMK 60031 70193 SLP057 T02460233 52016 IEM_DS3505
ZGNN,1995-08-05 01:00,ZGNN 050100Z AUTO 13006KT 7SM 24/24 A2974 RMK SLP060 T02400240 IEM_DS3505
ZGNN,1995-08-05 02:00,ZGNN 050200Z AUTO 14006KT 7SM 24/24 A2977 RMK SLP070 T02400240 IEM_DS3505
ZGNN,1995-08-05 03:00,ZGNN 050300Z AUTO 25004KT 9SM 26/24 A2977 RMK SLP071 T02570243 52014 IEM_DS3505
ZGNN,1995-08-05 06:00,ZGNN 050600Z AUTO 09002KT 9SM 26/25 A2975 RMK 60031 SLP061 T02650254 57009 IEM_DS3505
ZGNN,1995-08-05 08:00,ZGNN 050800Z AUTO 10004KT 7SM 25/24 A2974 RMK SLP060 T02500240 IEM_DS3505
ZGNN,1995-08-05 09:00,ZGNN 050900Z AUTO 00000KT 16SM 26/24 A2971 RMK SLP053 T02590240 57008 IEM_DS3505
ZGNN,1995-08-05 10:00,ZGNN 051000Z AUTO 00000KT 7SM 25/24 A2974 RMK SLP060 T02500240 IEM_DS3505
ZGNN,1995-08-05 12:00,ZGNN 051200Z AUTO 07004KT 9SM 25/24 A2974 RMK 60102 SLP061 T02490239 52007 IEM_DS3505
ZGNN,1995-08-05 13:00,ZGNN 051300Z AUTO 08004KT 7SM 24/24 A2977 RMK SLP070 T02400240 IEM_DS3505
ZGNN,1995-08-05 15:00,ZGNN 051500Z AUTO 09004KT 12SM 25/24 A2981 RMK SLP083 T02460239 52022 IEM_DS3505
ZGNN,1995-08-05 18:00,ZGNN 051800Z AUTO 00000KT 9SM 25/24 A2978 RMK 60004 SLP074 T02470241 57009 IEM_DS3505
ZGNN,1995-08-05 21:00,ZGNN 052100Z AUTO 36006KT 3SM 24/24 A2973 RMK 70878 SLP056 T02420239 57014 IEM_DS3505
ZGNN,1995-08-05 23:00,ZGNN 052300Z AUTO 09004KT 7SM 25/24 A2974 RMK SLP060 T02500240 IEM_DS3505
ZGNN,1995-08-06 00:00,ZGNN 060000Z AUTO 04004KT 9SM 26/25 A2977 RMK 60004 70142 SLP066 T02560246 52003 IEM_DS3505
ZGNN,1995-08-06 01:00,ZGNN 060100Z AUTO 12004KT 7SM 26/25 A2980 RMK SLP079 T02600250 IEM_DS3505
ZGNN,1995-08-06 03:00,ZGNN 060300Z AUTO 00000KT 7SM 26/25 A2980 RMK SLP078 T02620248 52012 IEM_DS3505
ZGNN,1995-08-06 06:00,ZGNN 060600Z AUTO 20006KT 16SM 27/24 A2977 RMK 60008 SLP069 T02740240 57008 IEM_DS3505
ZGNN,1995-08-06 07:00,ZGNN 060700Z AUTO 11006KT 7SM 26/24 A2977 RMK SLP069 T02600240 IEM_DS3505
ZGNN,1995-08-06 08:00,ZGNN 060800Z AUTO 16006KT 7SM 26/24 A2974 RMK SLP059 T02600240 IEM_DS3505
ZGNN,1995-08-06 09:00,ZGNN 060900Z AUTO 22002KT 17SM 28/24 A2974 RMK SLP054 T02760243 57015 IEM_DS3505
ZGNN,1995-08-06 12:00,ZGNN 061200Z AUTO 00000KT 19SM 27/24 A2977 RMK SLP065 T02670244 52011 IEM_DS3505
ZGNN,1995-08-06 15:00,ZGNN 061500Z AUTO 04002KT 16SM 26/24 A2980 RMK SLP080 T02610245 52015 IEM_DS3505
ZGNN,1995-08-06 18:00,ZGNN 061800Z AUTO 20004KT 9SM 25/24 A2976 RMK 60102 SLP067 T02480238 57013 IEM_DS3505
ZGNN,1995-08-06 21:00,ZGNN 062100Z AUTO 00000KT 11SM 24/23 A2974 RMK 70114 SLP064 T02430234 57003 IEM_DS3505
ZGNN,1995-08-06 22:00,ZGNN 062200Z AUTO 11004KT 7SM 24/23 A2974 RMK SLP060 T02400230 IEM_DS3505
ZGNN,1995-08-06 23:00,ZGNN 062300Z AUTO 11004KT 7SM 24/24 A2977 RMK SLP070 T02400240 IEM_DS3505
ZGNN,1995-08-07 00:00,ZGNN 070000Z AUTO 07002KT 12SM 24/24 A2980 RMK 60004 70114 SLP074 T02440235 52009 IEM_DS3505
ZGNN,1995-08-07 01:00,ZGNN 070100Z AUTO 14004KT 7SM 25/24 A2980 RMK SLP080 T02500240 IEM_DS3505
ZGNN,1995-08-07 02:00,ZGNN 070200Z AUTO 13008KT 7SM 25/24 A2983 RMK SLP090 T02500240 IEM_DS3505
ZGNN,1995-08-07 03:00,ZGNN 070300Z AUTO 00000KT 16SM 26/25 A2980 RMK SLP079 T02620248 52006 IEM_DS3505
ZGNN,1995-08-07 06:00,ZGNN 070600Z AUTO 25004KT 19SM 30/24 A2974 RMK 60004 SLP060 T02970245 57019 IEM_DS3505
ZGNN,1995-08-07 07:00,ZGNN 070700Z AUTO 15014KT 7SM 29/24 A2974 RMK SLP058 T02900240 IEM_DS3505
ZGNN,1995-08-07 09:00,ZGNN 070900Z AUTO 18002KT 17SM 29/24 A2971 RMK SLP053 T02860236 57007 IEM_DS3505
ZGNN,1995-08-07 10:00,ZGNN 071000Z AUTO 15012KT 7SM 27/23 A2971 RMK SLP049 T02700230 IEM_DS3505
ZGNN,1995-08-07 11:00,ZGNN 071100Z AUTO 14010KT 7SM 26/23 A2971 RMK SLP049 T02600230 IEM_DS3505
ZGNN,1995-08-07 12:00,ZGNN 071200Z AUTO 00000KT 16SM 26/23 A2974 RMK SLP064 T02630231 52010 IEM_DS3505
ZGNN,1995-08-07 13:00,ZGNN 071300Z AUTO 14008KT 6SM 25/23 A2977 RMK SLP070 T02500230 IEM_DS3505
ZGNN,1995-08-07 14:00,ZGNN 071400Z AUTO 14008KT 7SM 25/24 A2980 RMK SLP080 T02500240 IEM_DS3505
ZGNN,1995-08-07 15:00,ZGNN 071500Z AUTO 00000KT 16SM 26/24 A2983 RMK SLP084 T02600241 52021 IEM_DS3505
ZGNN,1995-08-07 16:00,ZGNN 071600Z AUTO 14006KT 6SM 25/23 A2983 RMK SLP090 T02500230 IEM_DS3505
ZGNN,1995-08-07 18:00,ZGNN 071800Z AUTO 11002KT 16SM 26/24 A2979 RMK SLP074 T02550235 57010 IEM_DS3505
ZGNN,1995-08-07 21:00,ZGNN 072100Z AUTO 09002KT 16SM 25/24 A2976 RMK 70004 SLP068 T02530240 57006 IEM_DS3505
ZGNN,1995-08-07 22:00,ZGNN 072200Z AUTO 00000KT 7SM 24/24 A2977 RMK SLP070 T02400240 IEM_DS3505
ZGNN,1995-08-07 23:00,ZGNN 072300Z AUTO 00000KT 7SM 25/24 A2980 RMK SLP080 T02500240 IEM_DS3505
ZGNN,1995-08-08 00:00,ZGNN 080000Z AUTO 00000KT 12SM 26/24 A2980 RMK 70004 SLP081 T02570243 52013 IEM_DS3505
ZGNN,1995-08-08 01:00,ZGNN 080100Z AUTO 15006KT 7SM 26/25 A2983 RMK SLP090 T02600250 IEM_DS3505
ZGNN,1995-08-08 02:00,ZGNN 080200Z AUTO 12008KT 7SM 28/25 A2983 RMK SLP089 T02800250 IEM_DS3505
ZGNN,1995-08-08 03:00,ZGNN 080300Z AUTO 00000KT 19SM 27/24 A2984 RMK SLP091 T02730240 52010 IEM_DS3505
ZGNN,1995-08-08 06:00,ZGNN 080600Z AUTO 20006KT 19SM 29/24 A2983 RMK 60004 SLP082 T02860239 57009 IEM_DS3505
ZGNN,1995-08-08 07:00,ZGNN 080700Z AUTO 17012KT 7SM 28/24 A2980 RMK SLP079 T02800240 IEM_DS3505
ZGNN,1995-08-08 09:00,ZGNN 080900Z AUTO 34002KT 19SM 28/24 A2977 RMK SLP067 T02800240 57015 IEM_DS3505
ZGNN,1995-08-08 11:00,ZGNN 081100Z AUTO 22002KT 16SM 26/24 A2980 RMK SLP079 T02610235 52012 IEM_DS3505
ZGNN,1995-08-08 12:00,ZGNN 081200Z AUTO 22002KT 16SM 26/24 A2980 RMK SLP079 T02610235 52012 IEM_DS3505
ZGNN,1995-08-08 13:00,ZGNN 081300Z AUTO 15002KT 7SM 24/23 A2983 RMK SLP090 T02400230 IEM_DS3505
ZGNN,1995-08-08 14:00,ZGNN 081400Z AUTO 00000KT 7SM 24/23 A2983 RMK SLP090 T02400230 IEM_DS3505
ZGNN,1995-08-08 15:00,ZGNN 081500Z AUTO 16002KT 12SM 25/24 A2985 RMK SLP097 T02520236 52017 IEM_DS3505
ZGNN,1995-08-08 18:00,ZGNN 081800Z AUTO 11002KT 16SM 25/23 A2985 RMK 60002 SLP094 T02470232 57002 IEM_DS3505
ZGNN,1995-08-08 21:00,ZGNN 082100Z AUTO 11002KT 16SM 25/23 A2983 RMK 70008 SLP090 T02470229 57004 IEM_DS3505
ZGNN,1995-08-09 00:00,ZGNN 090000Z AUTO 11002KT 12SM 25/24 A2985 RMK 60000 70008 SLP098 T02510238 52007 IEM_DS3505
ZGNN,1995-08-09 01:00,ZGNN 090100Z AUTO 13002KT 7SM 25/24 A2988 RMK SLP107 T02500240 IEM_DS3505
ZGNN,1995-08-09 03:00,ZGNN 090300Z AUTO 25004KT 16SM 28/25 A2989 RMK SLP108 T02750250 52010 IEM_DS3505
ZGNN,1995-08-09 06:00,ZGNN 090600Z AUTO 00000KT 17SM 30/25 A2985 RMK SLP091 T02990254 57016 IEM_DS3505
ZGNN,1995-08-09 07:00,ZGNN 090700Z AUTO 34004KT 7SM 27/25 A2983 RMK SLP089 T02700250 IEM_DS3505
ZGNN,1995-08-09 09:00,ZGNN 090900Z AUTO 07004KT 19SM 27/25 A2981 RMK SLP082 T02690249 57010 IEM_DS3505
ZGNN,1995-08-09 12:00,ZGNN 091200Z AUTO 07004KT 16SM 26/25 A2982 RMK 60004 SLP087 T02650254 52005 IEM_DS3505
ZGNN,1995-08-09 15:00,ZGNN 091500Z AUTO 07002KT 12SM 26/25 A2988 RMK SLP106 T02580251 52019 IEM_DS3505
ZGNN,1995-08-09 18:00,ZGNN 091800Z AUTO 00000KT 16SM 26/25 A2987 RMK SLP101 T02560249 57004 IEM_DS3505
ZGNN,1995-08-09 21:00,ZGNN 092100Z AUTO 00000KT 12SM 26/25 A2988 RMK 70004 SLP105 T02570246 52003 IEM_DS3505
ZGNN,1995-08-09 22:00,ZGNN 092200Z AUTO 00000KT 3SM 24/24 A2988 RMK SLP107 T02400240 IEM_DS3505
ZGNN,1995-08-09 23:00,ZGNN 092300Z AUTO 00000KT 1 1/4SM 24/24 A2988 RMK SLP107 T02400240 IEM_DS3505
ZGNN,1995-08-10 00:00,ZGNN 100000Z AUTO 00000KT 11SM 27/25 A2988 RMK 70004 SLP108 T02670249 52003 IEM_DS3505
ZGNN,1995-08-10 01:00,ZGNN 100100Z AUTO 00000KT 7SM 26/24 A2991 RMK SLP117 T02600240 IEM_DS3505
ZGNN,1995-08-10 02:00,ZGNN 100200Z AUTO 00000KT 7SM 29/25 A2991 RMK SLP116 T02900250 IEM_DS3505
ZGNN,1995-08-10 03:00,ZGNN 100300Z AUTO 22004KT 16SM 30/23 A2991 RMK SLP113 T03020228 52006 IEM_DS3505
ZGNN,1995-08-10 06:00,ZGNN 100600Z AUTO 22002KT 19SM 33/23 A2985 RMK SLP094 T03270226 57019 IEM_DS3505
ZGNN,1995-08-10 07:00,ZGNN 100700Z AUTO 00000KT 7SM 33/23 A2983 RMK SLP088 T03300230 IEM_DS3505
ZGNN,1995-08-10 08:00,ZGNN 100800Z AUTO 00000KT 7SM 33/23 A2980 RMK SLP077 T03300230 IEM_DS3505
ZGNN,1995-08-10 09:00,ZGNN 100900Z AUTO 00000KT 19SM 34/23 A2980 RMK SLP071 T03390234 57022 IEM_DS3505
ZGNN,1995-08-10 10:00,ZGNN 101000Z AUTO 15006KT 7SM 33/24 A2977 RMK SLP067 T03300240 IEM_DS3505
ZGNN,1995-08-10 12:00,ZGNN 101200Z AUTO 34002KT 19SM 31/26 A2977 RMK SLP071 T03100256 57001 IEM_DS3505
ZGNN,1995-08-10 13:00,ZGNN 101300Z AUTO 00000KT 7SM 28/26 A2980 RMK SLP079 T02800260 IEM_DS3505
ZGNN,1995-08-10 14:00,ZGNN 101400Z AUTO 00000KT 7SM 28/25 A2983 RMK SLP089 T02800250 IEM_DS3505
ZGNN,1995-08-10 15:00,ZGNN 101500Z AUTO 25002KT 19SM 28/25 A2985 RMK SLP097 T02830246 52026 IEM_DS3505
ZGNN,1995-08-10 18:00,ZGNN 101800Z AUTO 18004KT 16SM 27/25 A2983 RMK SLP089 T02670249 57008 IEM_DS3505
ZGNN,1995-08-10 21:00,ZGNN 102100Z AUTO 18004KT 16SM 26/24 A2983 RMK SLP088 T02590245 54000 IEM_DS3505
ZGNN,1995-08-10 22:00,ZGNN 102200Z AUTO 00000KT 7SM 25/24 A2983 RMK SLP090 T02500240 IEM_DS3505
ZGNN,1995-08-11 00:00,ZGNN 110000Z AUTO 18004KT 16SM 26/25 A2985 RMK SLP094 T02600246 52005 IEM_DS3505
ZGNN,1995-08-11 01:00,ZGNN 110100Z AUTO 00000KT 7SM 28/25 A2985 RMK SLP096 T02800250 IEM_DS3505
ZGNN,1995-08-11 02:00,ZGNN 110200Z AUTO 00000KT 7SM 29/25 A2985 RMK SLP096 T02900250 IEM_DS3505
ZGNN,1995-08-11 03:00,ZGNN 110300Z AUTO 36002KT 17SM 30/24 A2983 RMK SLP090 T03030245 57004 IEM_DS3505
ZGNN,1995-08-11 04:00,ZGNN 110400Z AUTO 24008KT 7SM 31/24 A2983 RMK SLP088 T03100240 IEM_DS3505
ZGNN,1995-08-11 06:00,ZGNN 110600Z AUTO 16004KT 19SM 33/24 A2980 RMK SLP073 T03290245 57016 IEM_DS3505
ZGNN,1995-08-11 07:00,ZGNN 110700Z AUTO 27006KT 7SM 33/23 A2977 RMK SLP067 T03300230 IEM_DS3505
ZGNN,1995-08-11 08:00,ZGNN 110800Z AUTO 24004KT 7SM 34/23 A2971 RMK SLP047 T03400230 IEM_DS3505
ZGNN,1995-08-11 09:00,ZGNN 110900Z AUTO 00000KT 19SM 34/24 A2971 RMK SLP044 T03370241 57029 IEM_DS3505
ZGNN,1995-08-11 10:00,ZGNN 111000Z AUTO 15006KT 7SM 33/24 A2971 RMK SLP047 T03300240 IEM_DS3505
ZGNN,1995-08-11 12:00,ZGNN 111200Z AUTO 00000KT 19SM 31/26 A2971 RMK SLP049 T03130255 52005 IEM_DS3505
ZGNN,1995-08-11 13:00,ZGNN 111300Z AUTO 15004KT 6SM 28/26 A2974 RMK SLP059 T02800260 IEM_DS3505
ZGNN,1995-08-11 14:00,ZGNN 111400Z AUTO 16004KT 7SM 28/25 A2977 RMK SLP069 T02800250 IEM_DS3505
ZGNN,1995-08-11 15:00,ZGNN 111500Z AUTO 18004KT 16SM 29/26 A2977 RMK SLP071 T02870256 52022 IEM_DS3505
ZGNN,1995-08-11 16:00,ZGNN 111600Z AUTO 00000KT 7SM 27/25 A2980 RMK SLP079 T02700250 IEM_DS3505
ZGNN,1995-08-11 18:00,ZGNN 111800Z AUTO 00000KT 16SM 27/25 A2976 RMK SLP063 T02730253 57008 IEM_DS3505
ZGNN,1995-08-11 21:00,ZGNN 112100Z AUTO 20002KT 12SM 27/25 A2971 RMK SLP049 T02690249 57014 IEM_DS3505
ZGNN,1995-08-11 22:00,ZGNN 112200Z AUTO 09004KT 7SM 26/25 A2971 RMK SLP049 T02600250 IEM_DS3505
ZGNN,1995-08-11 23:00,ZGNN 112300Z AUTO 10004KT 4SM 25/25 A2974 RMK SLP060 T02500250 IEM_DS3505
ZGNN,1995-08-12 00:00,ZGNN 120000Z AUTO 07002KT 12SM 27/26 A2974 RMK SLP060 T02720255 52011 IEM_DS3505
ZGNN,1995-08-12 01:00,ZGNN 120100Z AUTO 00000KT 7SM 29/26 A2974 RMK SLP058 T02900260 IEM_DS3505
ZGNN,1995-08-12 03:00,ZGNN 120300Z AUTO 00000KT 16SM 31/26 A2973 RMK SLP054 T03070255 57006 IEM_DS3505
ZGNN,1995-08-12 06:00,ZGNN 120600Z AUTO 25004KT 19SM 30/25 A2968 RMK 60024 SLP037 T03010248 57017 IEM_DS3505
ZGNN,1995-08-12 07:00,ZGNN 120700Z AUTO 00000KT 7SM 32/25 A2965 RMK SLP026 T03200250 IEM_DS3505
ZGNN,1995-08-12 08:00,ZGNN 120800Z AUTO 14004KT 7SM 33/25 A2962 RMK SLP016 T03300250 IEM_DS3505
ZGNN,1995-08-12 09:00,ZGNN 120900Z AUTO 22002KT 19SM 32/25 A2962 RMK SLP018 T03170248 57019 IEM_DS3505
ZGNN,1995-08-12 10:00,ZGNN 121000Z AUTO 25010KT 7SM 28/24 A2962 RMK SLP017 T02800240 IEM_DS3505
ZGNN,1995-08-12 11:00,ZGNN 121100Z AUTO 00000KT 7SM 27/24 A2965 RMK SLP028 T02700240 IEM_DS3505
ZGNN,1995-08-12 12:00,ZGNN 121200Z AUTO 04004KT 16SM 28/26 A2965 RMK 60001 SLP025 T02840257 52006 IEM_DS3505
ZGNN,1995-08-12 13:00,ZGNN 121300Z AUTO 17004KT 7SM 27/23 A2968 RMK SLP039 T02700230 IEM_DS3505
ZGNN,1995-08-12 15:00,ZGNN 121500Z AUTO 07002KT 16SM 27/25 A2968 RMK SLP039 T02670250 52015 IEM_DS3505
ZGNN,1995-08-12 18:00,ZGNN 121800Z AUTO 04002KT 16SM 26/24 A2968 RMK SLP039 T02600237 57001 IEM_DS3505
ZGNN,1995-08-12 21:00,ZGNN 122100Z AUTO 00000KT 14SM 26/25 A2965 RMK 70028 SLP030 T02570246 57008 IEM_DS3505
ZGNN,1995-08-12 22:00,ZGNN 122200Z AUTO 00000KT 5SM 24/24 A2965 RMK SLP029 T02400240 IEM_DS3505
ZGNN,1995-08-12 23:00,ZGNN 122300Z AUTO 00000KT 6SM 25/24 A2965 RMK SLP028 T02500240 IEM_DS3505
ZGNN,1995-08-13 00:00,ZGNN 130000Z AUTO 00000KT 7SM 26/25 A2968 RMK 70028 SLP041 T02650251 52010 IEM_DS3505
ZGNN,1995-08-13 01:00,ZGNN 130100Z AUTO 00000KT 7SM 27/24 A2971 RMK SLP049 T02700240 IEM_DS3505
ZGNN,1995-08-13 03:00,ZGNN 130300Z AUTO 25004KT 19SM 31/25 A2971 RMK SLP046 T03070248 52006 IEM_DS3505
ZGNN,1995-08-13 04:00,ZGNN 130400Z AUTO 26006KT 7SM 31/24 A2968 RMK SLP038 T03100240 IEM_DS3505
ZGNN,1995-08-13 06:00,ZGNN 130600Z AUTO 11006KT 10SM 30/25 A2965 RMK SLP038 T03030250 57009 IEM_DS3505
ZGNN,1995-08-13 07:00,ZGNN 130700Z AUTO 04006KT 7SM 25/24 A2965 RMK SLP028 T02500240 IEM_DS3505
ZGNN,1995-08-13 08:00,ZGNN 130800Z AUTO 07008KT 7SM 25/24 A2965 RMK SLP028 T02500240 IEM_DS3505
ZGNN,1995-08-13 09:00,ZGNN 130900Z AUTO 07004KT 11SM 25/24 A2965 RMK SLP028 T02530243 57010 IEM_DS3505
ZGNN,1995-08-13 10:00,ZGNN 131000Z AUTO 00000KT 7SM 26/24 A2965 RMK SLP028 T02600240 IEM_DS3505
ZGNN,1995-08-13 11:00,ZGNN 131100Z AUTO 06006KT 7SM 26/24 A2965 RMK SLP028 T02600240 IEM_DS3505
ZGNN,1995-08-13 12:00,ZGNN 131200Z AUTO 11002KT 16SM 26/25 A2969 RMK 60063 SLP043 T02560246 52015 IEM_DS3505
ZGNN,1995-08-13 13:00,ZGNN 131300Z AUTO 00000KT 7SM 26/24 A2968 RMK SLP039 T02600240 IEM_DS3505
ZGNN,1995-08-13 14:00,ZGNN 131400Z AUTO 08002KT 7SM 26/25 A2971 RMK SLP049 T02600250 IEM_DS3505
ZGNN,1995-08-13 15:00,ZGNN 131500Z AUTO 07004KT 16SM 26/25 A2974 RMK SLP055 T02570247 52012 IEM_DS3505
ZGNN,1995-08-13 18:00,ZGNN 131800Z AUTO 07004KT 12SM 26/25 A2972 RMK 60000 SLP052 T02570246 57003 IEM_DS3505
ZGNN,1995-08-13 21:00,ZGNN 132100Z AUTO 07002KT 12SM 25/24 A2971 RMK 70063 SLP048 T02530244 57004 IEM_DS3505
ZGNN,1995-08-13 22:00,ZGNN 132200Z AUTO 14006KT 7SM 25/24 A2971 RMK SLP049 T02500240 IEM_DS3505
ZGNN,1995-08-13 23:00,ZGNN 132300Z AUTO 12006KT 7SM 25/24 A2971 RMK SLP049 T02500240 IEM_DS3505
ZGNN,1995-08-14 00:00,ZGNN 140000Z AUTO 07004KT 16SM 26/24 A2974 RMK 60000 70063 SLP059 T02560240 52011 IEM_DS3505
ZGNN,1995-08-14 01:00,ZGNN 140100Z AUTO 06004KT 7SM 26/24 A2974 RMK SLP059 T02600240 IEM_DS3505
ZGNN,1995-08-14 02:00,ZGNN 140200Z AUTO 12008KT 7SM 26/24 A2977 RMK SLP069 T02600240 IEM_DS3505
ZGNN,1995-08-14 03:00,ZGNN 140300Z AUTO 07004KT 16SM 27/25 A2977 RMK SLP066 T02710248 52007 IEM_DS3505
ZGNN,1995-08-14 04:00,ZGNN 140400Z AUTO 12010KT 7SM 28/24 A2977 RMK SLP069 T02800240 IEM_DS3505
ZGNN,1995-08-14 06:00,ZGNN 140600Z AUTO 29004KT 19SM 29/24 A2971 RMK SLP052 T02900243 57014 IEM_DS3505
ZGNN,1995-08-14 07:00,ZGNN 140700Z AUTO 15010KT 7SM 28/24 A2971 RMK SLP049 T02800240 IEM_DS3505
ZGNN,1995-08-14 08:00,ZGNN 140800Z AUTO 18008KT 7SM 27/25 A2974 RMK SLP059 T02700250 IEM_DS3505
ZGNN,1995-08-14 09:00,ZGNN 140900Z AUTO 00000KT 17SM 28/24 A2971 RMK SLP052 T02760242 54000 IEM_DS3505
ZGNN,1995-08-14 10:00,ZGNN 141000Z AUTO 00000KT 7SM 27/24 A2971 RMK SLP049 T02700240 IEM_DS3505
ZGNN,1995-08-14 11:00,ZGNN 141100Z AUTO 34002KT 16SM 27/24 A2974 RMK SLP062 T02670244 52010 IEM_DS3505
ZGNN,1995-08-14 12:00,ZGNN 141200Z AUTO 34002KT 16SM 27/24 A2977 RMK SLP062 T02670244 52010 IEM_DS3505
ZGNN,1995-08-14 13:00,ZGNN 141300Z AUTO 10004KT 7SM 26/24 A2977 RMK SLP069 T02600240 IEM_DS3505
ZGNN,1995-08-14 14:00,ZGNN 141400Z AUTO 08004KT 7SM 26/24 A2980 RMK SLP079 T02600240 IEM_DS3505
ZGNN,1995-08-14 15:00,ZGNN 141500Z AUTO 07004KT 16SM 26/24 A2982 RMK SLP085 T02570241 52023 IEM_DS3505
ZGNN,1995-08-14 18:00,ZGNN 141800Z AUTO 07002KT 16SM 26/24 A2981 RMK SLP083 T02560242 57002 IEM_DS3505
ZGNN,1995-08-14 21:00,ZGNN 142100Z AUTO 07002KT 11SM 25/24 A2979 RMK 70319 SLP077 T02530243 57006 IEM_DS3505
ZGNN,1995-08-14 23:00,ZGNN 142300Z AUTO 00000KT 7SM 25/24 A2983 RMK SLP090 T02500240 IEM_DS3505
ZGNN,1995-08-15 00:00,ZGNN 150000Z AUTO 07004KT 11SM 26/24 A2983 RMK 60001 70001 SLP088 T02580245 52011 IEM_DS3505
ZGNN,1995-08-15 01:00,ZGNN 150100Z AUTO 12006KT 7SM 27/25 A2985 RMK SLP096 T02700250 IEM_DS3505
ZGNN,1995-08-15 03:00,ZGNN 150300Z AUTO 16002KT 16SM 30/25 A2985 RMK SLP092 T02970252 52004 IEM_DS3505
ZGNN,1995-08-15 06:00,ZGNN 150600Z AUTO 16002KT 19SM 26/23 A2983 RMK 60016 SLP089 T02590234 57004 IEM_DS3505
ZGNN,1995-08-15 09:00,ZGNN 150900Z AUTO 00000KT 16SM 25/24 A2980 RMK SLP081 T02490240 57008 IEM_DS3505
ZGNN,1995-08-15 10:00,ZGNN 151000Z AUTO 13006KT 7SM 25/24 A2980 RMK SLP080 T02500240 IEM_DS3505
ZGNN,1995-08-15 12:00,ZGNN 151200Z AUTO 11002KT 16SM 25/24 A2983 RMK 60016 SLP085 T02530242 52004 IEM_DS3505
ZGNN,1995-08-15 13:00,ZGNN 151300Z AUTO 11002KT 7SM 25/24 A2985 RMK SLP097 T02500240 IEM_DS3505
ZGNN,1995-08-15 15:00,ZGNN 151500Z AUTO 00000KT 14SM 25/25 A2987 RMK SLP104 T02540247 52020 IEM_DS3505
ZGNN,1995-08-15 18:00,ZGNN 151800Z AUTO 11002KT 12SM 26/25 A2986 RMK 60002 SLP099 T02580249 57006 IEM_DS3505
ZGNN,1995-08-15 21:00,ZGNN 152100Z AUTO 11002KT 12SM 26/25 A2985 RMK 70031 SLP096 T02550248 57003 IEM_DS3505
ZGNN,1995-08-15 22:00,ZGNN 152200Z AUTO 14004KT 7SM 26/24 A2985 RMK SLP097 T02600240 IEM_DS3505
ZGNN,1995-08-15 23:00,ZGNN 152300Z AUTO 00000KT 7SM 26/24 A2985 RMK SLP097 T02600240 IEM_DS3505
ZGNN,1995-08-16 00:00,ZGNN 160000Z AUTO 09002KT 16SM 26/25 A2988 RMK 70031 SLP106 T02630246 52010 IEM_DS3505
ZGNN,1995-08-16 02:00,ZGNN 160200Z AUTO 14008KT 7SM 24/23 A2991 RMK SLP117 T02400230 IEM_DS3505
ZGNN,1995-08-16 03:00,ZGNN 160300Z AUTO 29002KT 19SM 28/24 A2994 RMK SLP121 T02770237 52015 IEM_DS3505
ZGNN,1995-08-16 04:00,ZGNN 160400Z AUTO 15008KT 7SM 24/23 A2994 RMK SLP127 T02400230 IEM_DS3505
ZGNN,1995-08-16 06:00,ZGNN 160600Z AUTO 20006KT 19SM 28/24 A2991 RMK 60000 SLP109 T02760236 57012 IEM_DS3505
ZGNN,1995-08-16 07:00,ZGNN 160700Z AUTO 15008KT 7SM 26/24 A2988 RMK SLP107 T02600240 IEM_DS3505
ZGNN,1995-08-16 08:00,ZGNN 160800Z AUTO 16004KT 7SM 26/24 A2988 RMK SLP107 T02600240 IEM_DS3505
ZGNN,1995-08-16 09:00,ZGNN 160900Z AUTO 22002KT 19SM 27/24 A2985 RMK SLP097 T02720237 57012 IEM_DS3505
ZGNN,1995-08-16 10:00,ZGNN 161000Z AUTO 12008KT 7SM 27/24 A2985 RMK SLP096 T02700240 IEM_DS3505
ZGNN,1995-08-16 12:00,ZGNN 161200Z AUTO 00000KT 17SM 26/23 A2985 RMK SLP099 T02630233 52002 IEM_DS3505
ZGNN,1995-08-16 15:00,ZGNN 161500Z AUTO 00000KT 16SM 26/24 A2990 RMK SLP114 T02600238 52015 IEM_DS3505
ZGNN,1995-08-16 18:00,ZGNN 161800Z AUTO 07002KT 12SM 26/24 A2988 RMK SLP107 T02560245 57007 IEM_DS3505
ZGNN,1995-08-16 21:00,ZGNN 162100Z AUTO 04002KT 11SM 25/24 A2988 RMK 70000 SLP103 T02520242 57004 IEM_DS3505
ZGNN,1995-08-16 23:00,ZGNN 162300Z AUTO 00000KT 7SM 25/24 A2988 RMK SLP107 T02500240 IEM_DS3505
ZGNN,1995-08-17 00:00,ZGNN 170000Z AUTO 04002KT 12SM 26/24 A2989 RMK SLP110 T02570243 52007 IEM_DS3505
ZGNN,1995-08-17 01:00,ZGNN 170100Z AUTO 00000KT 7SM 26/25 A2991 RMK SLP117 T02600250 IEM_DS3505
ZGNN,1995-08-17 02:00,ZGNN 170200Z AUTO 13006KT 7SM 27/24 A2991 RMK SLP116 T02700240 IEM_DS3505
ZGNN,1995-08-17 03:00,ZGNN 170300Z AUTO 14002KT 14SM 29/26 A2991 RMK SLP114 T02900261 52005 IEM_DS3505
ZGNN,1995-08-17 04:00,ZGNN 170400Z AUTO 14008KT 7SM 29/23 A2991 RMK SLP116 T02900230 IEM_DS3505
ZGNN,1995-08-17 06:00,ZGNN 170600Z AUTO 00000KT 19SM 29/24 A2988 RMK SLP103 T02880238 57011 IEM_DS3505
ZGNN,1995-08-17 07:00,ZGNN 170700Z AUTO 13008KT 7SM 30/24 A2985 RMK SLP095 T03000240 IEM_DS3505
ZGNN,1995-08-17 08:00,ZGNN 170800Z AUTO 14006KT 7SM 30/24 A2983 RMK SLP088 T03000240 IEM_DS3505
ZGNN,1995-08-17 09:00,ZGNN 170900Z AUTO 09004KT 19SM 30/25 A2980 RMK SLP080 T03050252 57023 IEM_DS3505
ZGNN,1995-08-17 10:00,ZGNN 171000Z AUTO 15006KT 7SM 29/23 A2983 RMK SLP089 T02900230 IEM_DS3505
ZGNN,1995-08-17 11:00,ZGNN 171100Z AUTO 27006KT 7SM 23/22 A2985 RMK SLP097 T02300220 IEM_DS3505
ZGNN,1995-08-17 12:00,ZGNN 171200Z AUTO 29004KT 19SM 27/22 A2985 RMK SLP100 T02690225 52019 IEM_DS3505
ZGNN,1995-08-17 13:00,ZGNN 171300Z AUTO 00000KT 7SM 24/23 A2988 RMK SLP107 T02400230 IEM_DS3505
ZGNN,1995-08-17 14:00,ZGNN 171400Z AUTO 00000KT 7SM 24/23 A2988 RMK SLP107 T02400230 IEM_DS3505
ZGNN,1995-08-17 15:00,ZGNN 171500Z AUTO 04004KT 12SM 25/23 A2989 RMK SLP111 T02540228 52012 IEM_DS3505
ZGNN,1995-08-17 18:00,ZGNN 171800Z AUTO 07002KT 12SM 25/24 A2985 RMK 60000 SLP095 T02510241 57016 IEM_DS3505
ZGNN,1995-08-17 21:00,ZGNN 172100Z AUTO 00000KT 12SM 25/24 A2983 RMK 70001 SLP092 T02510238 57003 IEM_DS3505
ZGNN,1995-08-17 22:00,ZGNN 172200Z AUTO 00000KT 4SM 24/23 A2983 RMK SLP090 T02400230 IEM_DS3505
ZGNN,1995-08-17 23:00,ZGNN 172300Z AUTO 00000KT 4SM 24/24 A2985 RMK SLP097 T02400240 IEM_DS3505
ZGNN,1995-08-18 00:00,ZGNN 180000Z AUTO 09004KT 7SM 26/24 A2985 RMK 70001 SLP100 T02560242 52007 IEM_DS3505
ZGNN,1995-08-18 01:00,ZGNN 180100Z AUTO 13004KT 5SM 26/24 A2988 RMK SLP107 T02600240 IEM_DS3505
ZGNN,1995-08-18 02:00,ZGNN 180200Z AUTO 15010KT 7SM 29/25 A2988 RMK SLP106 T02900250 IEM_DS3505
ZGNN,1995-08-18 03:00,ZGNN 180300Z AUTO 22004KT 16SM 29/25 A2988 RMK SLP105 T02930252 52006 IEM_DS3505
ZGNN,1995-08-18 04:00,ZGNN 180400Z AUTO 14016KT 7SM 30/25 A2985 RMK SLP095 T03000250 IEM_DS3505
ZGNN,1995-08-18 06:00,ZGNN 180600Z AUTO 22002KT 19SM 31/24 A2980 RMK SLP078 T03130239 57027 IEM_DS3505
ZGNN,1995-08-18 07:00,ZGNN 180700Z AUTO 16008KT 7SM 30/23 A2977 RMK SLP068 T03000230 IEM_DS3505
ZGNN,1995-08-18 08:00,ZGNN 180800Z AUTO 14008KT 7SM 31/23 A2977 RMK SLP068 T03100230 IEM_DS3505
ZGNN,1995-08-18 09:00,ZGNN 180900Z AUTO 11004KT 19SM 32/23 A2977 RMK SLP057 T03190232 57021 IEM_DS3505
ZGNN,1995-08-18 10:00,ZGNN 181000Z AUTO 23006KT 7SM 27/25 A2974 RMK SLP059 T02700250 IEM_DS3505
ZGNN,1995-08-18 11:00,ZGNN 181100Z AUTO 23002KT 7SM 28/24 A2977 RMK SLP069 T02800240 IEM_DS3505
ZGNN,1995-08-18 12:00,ZGNN 181200Z AUTO 25002KT 16SM 28/25 A2977 RMK SLP069 T02840250 52012 IEM_DS3505
ZGNN,1995-08-18 13:00,ZGNN 181300Z AUTO 00000KT 7SM RMK IEM_DS3505
ZGNN,1995-08-18 15:00,ZGNN 181500Z AUTO 00000KT 14SM 28/25 A2982 RMK SLP086 T02760248 52017 IEM_DS3505
ZGNN,1995-08-18 18:00,ZGNN 181800Z AUTO 00000KT 12SM 26/25 A2981 RMK SLP081 T02630252 57005 IEM_DS3505
ZGNN,1995-08-18 21:00,ZGNN 182100Z AUTO 04002KT 11SM 26/25 A2980 RMK SLP078 T02590248 57003 IEM_DS3505
ZGNN,1995-08-18 22:00,ZGNN 182200Z AUTO 00000KT 5SM 24/24 A2980 RMK SLP080 T02400240 IEM_DS3505
ZGNN,1995-08-18 23:00,ZGNN 182300Z AUTO 02004KT 5SM 24/24 A2983 RMK SLP090 T02400240 IEM_DS3505
ZGNN,1995-08-19 00:00,ZGNN 190000Z AUTO 04004KT 12SM 27/25 A2983 RMK SLP086 T02720248 52008 IEM_DS3505
ZGNN,1995-08-19 01:00,ZGNN 190100Z AUTO 15006KT 7SM 27/25 A2983 RMK SLP089 T02700250 IEM_DS3505
ZGNN,1995-08-19 02:00,ZGNN 190200Z AUTO 15008KT 7SM 29/25 A2983 RMK SLP089 T02900250 IEM_DS3505
ZGNN,1995-08-19 03:00,ZGNN 190300Z AUTO 00000KT 19SM 30/25 A2983 RMK SLP084 T03050247 57002 IEM_DS3505
ZGNN,1995-08-19 04:00,ZGNN 190400Z AUTO 15008KT 7SM 32/24 A2980 RMK SLP078 T03200240 IEM_DS3505
ZGNN,1995-08-19 06:00,ZGNN 190600Z AUTO 20004KT 19SM 32/24 A2977 RMK SLP065 T03210242 57018 IEM_DS3505
ZGNN,1995-08-19 07:00,ZGNN 190700Z AUTO 12004KT 7SM 32/24 A2974 RMK SLP058 T03200240 IEM_DS3505
ZGNN,1995-08-19 08:00,ZGNN 190800Z AUTO 12006KT 7SM 32/24 A2971 RMK SLP048 T03200240 IEM_DS3505
ZGNN,1995-08-19 09:00,ZGNN 190900Z AUTO 00000KT 19SM 33/23 A2971 RMK SLP049 T03330232 57016 IEM_DS3505
ZGNN,1995-08-19 10:00,ZGNN 191000Z AUTO 23004KT 7SM 31/24 A2971 RMK SLP048 T03100240 IEM_DS3505
ZGNN,1995-08-19 11:00,ZGNN 191100Z AUTO 10004KT 7SM 30/24 A2974 RMK SLP058 T03000240 IEM_DS3505
ZGNN,1995-08-19 12:00,ZGNN 191200Z AUTO 07004KT 19SM 31/24 A2974 RMK SLP056 T03060244 52007 IEM_DS3505
ZGNN,1995-08-19 15:00,ZGNN 191500Z AUTO 00000KT 16SM 29/25 A2978 RMK SLP071 T02860246 52015 IEM_DS3505
ZGNN,1995-08-19 18:00,ZGNN 191800Z AUTO 00000KT 16SM 28/24 A2977 RMK SLP069 T02760243 57002 IEM_DS3505
ZGNN,1995-08-19 21:00,ZGNN 192100Z AUTO 00000KT 12SM 27/25 A2977 RMK SLP067 T02690252 57002 IEM_DS3505
ZGNN,1995-08-19 22:00,ZGNN 192200Z AUTO 00000KT 7SM 26/24 A2977 RMK SLP069 T02600240 IEM_DS3505
ZGNN,1995-08-19 23:00,ZGNN 192300Z AUTO 03002KT 7SM 26/24 A2980 RMK SLP079 T02600240 IEM_DS3505
ZGNN,1995-08-20 00:00,ZGNN 200000Z AUTO 00000KT 10SM 27/25 A2980 RMK SLP076 T02710254 52008 IEM_DS3505
ZGNN,1995-08-20 01:00,ZGNN 200100Z AUTO 35002KT 6SM 29/25 A2980 RMK SLP079 T02900250 IEM_DS3505
ZGNN,1995-08-20 02:00,ZGNN 200200Z AUTO 06006KT 7SM 29/24 A2980 RMK SLP079 T02900240 IEM_DS3505
ZGNN,1995-08-20 03:00,ZGNN 200300Z AUTO 07004KT 12SM 30/24 A2983 RMK SLP082 T02970242 52006 IEM_DS3505
ZGNN,1995-08-20 04:00,ZGNN 200400Z AUTO 02008KT 7SM 30/24 A2980 RMK SLP078 T03000240 IEM_DS3505
ZGNN,1995-08-20 06:00,ZGNN 200600Z AUTO 04004KT 16SM 31/23 A2971 RMK SLP051 T03080234 57030 IEM_DS3505
ZGNN,1995-08-20 07:00,ZGNN 200700Z AUTO 03006KT 7SM 29/23 A2971 RMK SLP048 T02900230 IEM_DS3505
ZGNN,1995-08-20 08:00,ZGNN 200800Z AUTO 01002KT 7SM 28/24 A2968 RMK SLP039 T02800240 IEM_DS3505
ZGNN,1995-08-20 09:00,ZGNN 200900Z AUTO 34006KT 12SM 28/24 A2968 RMK SLP033 T02790239 57019 IEM_DS3505
ZGNN,1995-08-20 10:00,ZGNN 201000Z AUTO 27004KT 1 1/4SM 25/24 A2968 RMK SLP039 T02500240 IEM_DS3505
ZGNN,1995-08-20 11:00,ZGNN 201100Z AUTO 23006KT 1 1/2SM 25/24 A2971 RMK SLP049 T02500240 IEM_DS3505
ZGNN,1995-08-20 12:00,ZGNN 201200Z AUTO 22006KT 12SM 26/25 A2974 RMK 60031 SLP051 T02550248 52018 IEM_DS3505
ZGNN,1995-08-20 15:00,ZGNN 201500Z AUTO 25002KT 12SM 25/24 A2979 RMK SLP077 T02510244 52026 IEM_DS3505
ZGNN,1995-08-20 18:00,ZGNN 201800Z AUTO 07004KT 11SM 26/25 A2979 RMK 60008 SLP076 T02550246 57001 IEM_DS3505
ZGNN,1995-08-20 21:00,ZGNN 202100Z AUTO 07004KT 11SM 26/25 A2977 RMK 70043 SLP070 T02590248 57006 IEM_DS3505
ZGNN,1995-08-20 22:00,ZGNN 202200Z AUTO 00000KT 5SM 25/24 A2977 RMK SLP070 T02500240 IEM_DS3505
ZGNN,1995-08-20 23:00,ZGNN 202300Z AUTO 10004KT 7SM 25/24 A2980 RMK SLP080 T02500240 IEM_DS3505
ZGNN,1995-08-21 00:00,ZGNN 210000Z AUTO 07004KT 12SM 26/24 A2983 RMK 60000 70043 SLP085 T02580242 52014 IEM_DS3505
ZGNN,1995-08-21 02:00,ZGNN 210200Z AUTO 10004KT 7SM 26/24 A2983 RMK SLP090 T02600240 IEM_DS3505
ZGNN,1995-08-21 03:00,ZGNN 210300Z AUTO 14004KT 16SM 28/25 A2983 RMK SLP093 T02770246 52009 IEM_DS3505
ZGNN,1995-08-21 04:00,ZGNN 210400Z AUTO 14004KT 7SM 29/24 A2983 RMK SLP089 T02900240 IEM_DS3505
ZGNN,1995-08-21 06:00,ZGNN 210600Z AUTO 00000KT 19SM 30/24 A2980 RMK SLP078 T03040243 57015 IEM_DS3505
ZGNN,1995-08-21 07:00,ZGNN 210700Z AUTO 26002KT 7SM 31/25 A2980 RMK SLP078 T03100250 IEM_DS3505
ZGNN,1995-08-21 08:00,ZGNN 210800Z AUTO 04004KT 7SM 30/24 A2977 RMK SLP068 T03000240 IEM_DS3505
ZGNN,1995-08-21 09:00,ZGNN 210900Z AUTO 00000KT 19SM 30/24 A2974 RMK SLP055 T03030242 57023 IEM_DS3505
ZGNN,1995-08-21 10:00,ZGNN 211000Z AUTO 00000KT 7SM 29/25 A2974 RMK SLP058 T02900250 IEM_DS3505
ZGNN,1995-08-21 11:00,ZGNN 211100Z AUTO 00000KT 7SM 29/25 A2974 RMK SLP058 T02900250 IEM_DS3505
ZGNN,1995-08-21 12:00,ZGNN 211200Z AUTO 00000KT 12SM 29/26 A2974 RMK SLP062 T02870258 52007 IEM_DS3505
ZGNN,1995-08-21 13:00,ZGNN 211300Z AUTO 00000KT 7SM 27/25 A2977 RMK SLP069 T02700250 IEM_DS3505
ZGNN,1995-08-21 14:00,ZGNN 211400Z AUTO 00000KT 7SM 27/26 A2980 RMK SLP079 T02700260 IEM_DS3505
ZGNN,1995-08-21 15:00,ZGNN 211500Z AUTO 32004KT 11SM 28/26 A2982 RMK SLP084 T02770255 52022 IEM_DS3505
ZGNN,1995-08-21 18:00,ZGNN 211800Z AUTO 00000KT 11SM 27/25 A2980 RMK SLP078 T02700253 57006 IEM_DS3505
ZGNN,1995-08-21 21:00,ZGNN 212100Z AUTO 00000KT 9SM 26/25 A2976 RMK SLP066 T02640253 57012 IEM_DS3505
ZGNN,1995-08-21 22:00,ZGNN 212200Z AUTO 00000KT 6SM 25/25 A2977 RMK SLP070 T02500250 IEM_DS3505
ZGNN,1995-08-21 23:00,ZGNN 212300Z AUTO 00000KT 7SM 25/24 A2980 RMK SLP080 T02500240 IEM_DS3505
ZGNN,1995-08-22 00:00,ZGNN 220000Z AUTO 00000KT 11SM 27/25 A2980 RMK SLP078 T02660252 52012 IEM_DS3505
ZGNN,1995-08-22 03:00,ZGNN 220300Z AUTO 00000KT 12SM 30/25 A2982 RMK SLP083 T03040246 52005 IEM_DS3505
ZGNN,1995-08-22 06:00,ZGNN 220600Z AUTO 25006KT 19SM 32/24 A2977 RMK SLP067 T03170244 57015 IEM_DS3505
ZGNN,1995-08-22 08:00,ZGNN 220800Z AUTO 07004KT 7SM 32/25 A2971 RMK SLP048 T03200250 IEM_DS3505
ZGNN,1995-08-22 09:00,ZGNN 220900Z AUTO 00000KT 11SM 27/25 A2971 RMK SLP078 T02660252 52012 IEM_DS3505
ZGNN,1995-08-22 10:00,ZGNN 221000Z AUTO 00000KT 7SM 29/25 A2968 RMK SLP038 T02900250 IEM_DS3505
ZGNN,1995-08-22 12:00,ZGNN 221200Z AUTO 00000KT 16SM 30/25 A2971 RMK SLP051 T03000254 52011 IEM_DS3505
ZGNN,1995-08-22 13:00,ZGNN 221300Z AUTO 00000KT 7SM 27/26 A2974 RMK SLP059 T02700260 IEM_DS3505
ZGNN,1995-08-22 15:00,ZGNN 221500Z AUTO 00000KT 16SM 28/25 A2975 RMK SLP063 T02830254 52013 IEM_DS3505
ZGNN,1995-08-22 18:00,ZGNN 221800Z AUTO 00000KT 12SM 27/26 A2975 RMK SLP060 T02700257 57003 IEM_DS3505
ZGNN,1995-08-22 21:00,ZGNN 222100Z AUTO 00000KT 12SM 26/25 A2974 RMK SLP055 T02610251 57005 IEM_DS3505
ZGNN,1995-08-22 22:00,ZGNN 222200Z AUTO 00000KT 2 1/2SM 25/25 A2974 RMK SLP060 T02500250 IEM_DS3505
ZGNN,1995-08-22 23:00,ZGNN 222300Z AUTO 00000KT 3/8SM 25/25 A2974 RMK SLP060 T02500250 IEM_DS3505
ZGNN,1995-08-23 00:00,ZGNN 230000Z AUTO 00000KT 11SM 27/25 A2977 RMK SLP064 T02710250 52008 IEM_DS3505
ZGNN,1995-08-23 01:00,ZGNN 230100Z AUTO 23004KT 1 1/4SM 26/25 A2980 RMK SLP079 T02600250 IEM_DS3505
ZGNN,1995-08-23 02:00,ZGNN 230200Z AUTO 21004KT 5SM 28/24 A2980 RMK SLP079 T02800240 IEM_DS3505
ZGNN,1995-08-23 03:00,ZGNN 230300Z AUTO 00000KT 16SM 31/24 A2977 RMK SLP070 T03080243 52007 IEM_DS3505
ZGNN,1995-08-23 04:00,ZGNN 230400Z AUTO 16004KT 7SM 32/25 A2977 RMK SLP068 T03200250 IEM_DS3505
ZGNN,1995-08-23 06:00,ZGNN 230600Z AUTO 00000KT 16SM 34/23 A2971 RMK SLP043 T03350234 57027 IEM_DS3505
ZGNN,1995-08-23 07:00,ZGNN 230700Z AUTO 17006KT 7SM 34/23 A2968 RMK SLP037 T03400230 IEM_DS3505
ZGNN,1995-08-23 08:00,ZGNN 230800Z AUTO 24004KT 7SM 34/23 A2965 RMK SLP026 T03400230 IEM_DS3505
ZGNN,1995-08-23 09:00,ZGNN 230900Z AUTO 07004KT 19SM 34/24 A2965 RMK SLP029 T03370244 57014 IEM_DS3505
ZGNN,1995-08-23 10:00,ZGNN 231000Z AUTO 00000KT 7SM 33/23 A2965 RMK SLP026 T03300230 IEM_DS3505
ZGNN,1995-08-23 12:00,ZGNN 231200Z AUTO 00000KT 19SM 31/26 A2971 RMK 60008 SLP043 T03070264 52014 IEM_DS3505
ZGNN,1995-08-23 13:00,ZGNN 231300Z AUTO 00000KT 7SM 29/26 A2974 RMK SLP058 T02900260 IEM_DS3505
ZGNN,1995-08-23 14:00,ZGNN 231400Z AUTO 00000KT 7SM 28/26 A2974 RMK SLP059 T02800260 IEM_DS3505
ZGNN,1995-08-23 15:00,ZGNN 231500Z AUTO 09002KT 16SM 30/27 A2975 RMK SLP062 T02980266 52019 IEM_DS3505
ZGNN,1995-08-23 16:00,ZGNN 231600Z AUTO 00000KT 7SM 28/27 A2974 RMK SLP059 T02800270 IEM_DS3505
ZGNN,1995-08-23 18:00,ZGNN 231800Z AUTO 00000KT 16SM 28/24 A2975 RMK SLP060 T02810235 57002 IEM_DS3505
ZGNN,1995-08-23 21:00,ZGNN 232100Z AUTO 02002KT 16SM 27/24 A2974 RMK 70008 SLP056 T02700235 57004 IEM_DS3505
ZGNN,1995-08-23 22:00,ZGNN 232200Z AUTO 00000KT 5SM 26/25 A2974 RMK SLP059 T02600250 IEM_DS3505
ZGNN,1995-08-23 23:00,ZGNN 232300Z AUTO 00000KT 7SM 26/24 A2977 RMK SLP069 T02600240 IEM_DS3505
ZGNN,1995-08-24 00:00,ZGNN 240000Z AUTO 00000KT 19SM 27/24 A2977 RMK 70008 SLP072 T02730240 52015 IEM_DS3505
ZGNN,1995-08-24 01:00,ZGNN 240100Z AUTO 00000KT 6SM 29/24 A2980 RMK SLP079 T02900240 IEM_DS3505
ZGNN,1995-08-24 02:00,ZGNN 240200Z AUTO 33006KT 6SM 30/24 A2980 RMK SLP078 T03000240 IEM_DS3505
ZGNN,1995-08-24 03:00,ZGNN 240300Z AUTO 22002KT 16SM 31/25 A2983 RMK SLP080 T03130248 52009 IEM_DS3505
ZGNN,1995-08-24 06:00,ZGNN 240600Z AUTO 22002KT 19SM 31/25 A2974 RMK 60001 SLP058 T03090253 57022 IEM_DS3505
ZGNN,1995-08-24 07:00,ZGNN 240700Z AUTO 31006KT 7SM 34/23 A2971 RMK SLP047 T03400230 IEM_DS3505
ZGNN,1995-08-24 08:00,ZGNN 240800Z AUTO 11004KT 7SM 33/24 A2971 RMK SLP047 T03300240 IEM_DS3505
ZGNN,1995-08-24 09:00,ZGNN 240900Z AUTO 00000KT 17SM 28/24 A2973 RMK SLP054 T02750236 57005 IEM_DS3505
ZGNN,1995-08-24 10:00,ZGNN 241000Z AUTO 00000KT 7SM 28/26 A2974 RMK SLP059 T02800260 IEM_DS3505
ZGNN,1995-08-24 12:00,ZGNN 241200Z AUTO 00000KT 16SM 27/23 A2977 RMK 60000 SLP061 T02680232 52007 IEM_DS3505
ZGNN,1995-08-24 13:00,ZGNN 241300Z AUTO 34002KT 6SM 27/24 A2977 RMK SLP069 T02700240 IEM_DS3505
ZGNN,1995-08-24 14:00,ZGNN 241400Z AUTO 00000KT 6SM 26/24 A2977 RMK SLP069 T02600240 IEM_DS3505
ZGNN,1995-08-24 15:00,ZGNN 241500Z AUTO 00000KT 16SM 27/24 A2978 RMK SLP071 T02680236 52010 IEM_DS3505
ZGNN,1995-08-24 18:00,ZGNN 241800Z AUTO 25002KT 12SM 26/24 A2977 RMK SLP068 T02610238 57003 IEM_DS3505
ZGNN,1995-08-24 21:00,ZGNN 242100Z AUTO 00000KT 12SM 26/24 A2974 RMK 70002 SLP062 T02590237 57006 IEM_DS3505
ZGNN,1995-08-24 22:00,ZGNN 242200Z AUTO 35006KT 7SM 25/24 A2977 RMK SLP070 T02500240 IEM_DS3505
ZGNN,1995-08-24 23:00,ZGNN 242300Z AUTO 34004KT 7SM 26/24 A2977 RMK SLP069 T02600240 IEM_DS3505
ZGNN,1995-08-25 00:00,ZGNN 250000Z AUTO 29004KT 10SM 27/24 A2977 RMK 70002 SLP072 T02660239 52010 IEM_DS3505
ZGNN,1995-08-25 01:00,ZGNN 250100Z AUTO 01004KT 6SM 28/24 A2980 RMK SLP079 T02800240 IEM_DS3505
ZGNN,1995-08-25 02:00,ZGNN 250200Z AUTO 02002KT 7SM 29/23 A2980 RMK SLP079 T02900230 IEM_DS3505
ZGNN,1995-08-25 03:00,ZGNN 250300Z AUTO 02006KT 11SM 31/23 A2981 RMK SLP080 T03090231 52008 IEM_DS3505
ZGNN,1995-08-25 04:00,ZGNN 250400Z AUTO 02004KT 7SM 32/23 A2980 RMK SLP078 T03200230 IEM_DS3505
ZGNN,1995-08-25 06:00,ZGNN 250600Z AUTO 02006KT 14SM 33/23 A2974 RMK SLP057 T03310228 57022 IEM_DS3505
ZGNN,1995-08-25 07:00,ZGNN 250700Z AUTO 02008KT 7SM 33/23 A2971 RMK SLP047 T03300230 IEM_DS3505
ZGNN,1995-08-25 08:00,ZGNN 250800Z AUTO 01008KT 7SM 33/22 A2968 RMK SLP037 T03300220 IEM_DS3505
ZGNN,1995-08-25 09:00,ZGNN 250900Z AUTO 00000KT 16SM 34/22 A2968 RMK SLP035 T03350223 57022 IEM_DS3505
ZGNN,1995-08-25 10:00,ZGNN 251000Z AUTO 36004KT 7SM 32/23 A2968 RMK SLP037 T03200230 IEM_DS3505
ZGNN,1995-08-25 12:00,ZGNN 251200Z AUTO 00000KT 16SM 30/21 A2970 RMK SLP043 T03030210 52008 IEM_DS3505
ZGNN,1995-08-25 13:00,ZGNN 251300Z AUTO 00000KT 7SM 28/21 A2971 RMK SLP049 T02800210 IEM_DS3505
ZGNN,1995-08-25 15:00,ZGNN 251500Z AUTO 00000KT 14SM 27/23 A2974 RMK SLP060 T02710226 52017 IEM_DS3505
ZGNN,1995-08-25 18:00,ZGNN 251800Z AUTO 00000KT 12SM 26/23 A2974 RMK SLP057 T02610232 57003 IEM_DS3505
ZGNN,1995-08-25 21:00,ZGNN 252100Z AUTO 00000KT 12SM 25/24 A2971 RMK SLP048 T02510235 57009 IEM_DS3505
ZGNN,1995-08-25 22:00,ZGNN 252200Z AUTO 00000KT 7SM 23/22 A2971 RMK SLP050 T02300220 IEM_DS3505
ZGNN,1995-08-25 23:00,ZGNN 252300Z AUTO 00000KT 7SM 23/22 A2971 RMK SLP050 T02300220 IEM_DS3505
ZGNN,1995-08-26 00:00,ZGNN 260000Z AUTO 00000KT 7SM 26/24 A2974 RMK SLP056 T02600237 52007 IEM_DS3505
ZGNN,1995-08-26 01:00,ZGNN 260100Z AUTO 36006KT 4SM 28/23 A2974 RMK SLP059 T02800230 IEM_DS3505
ZGNN,1995-08-26 02:00,ZGNN 260200Z AUTO 02006KT 7SM 29/22 A2977 RMK SLP068 T02900220 IEM_DS3505
ZGNN,1995-08-26 03:00,ZGNN 260300Z AUTO 00000KT 12SM 31/21 A2974 RMK SLP060 T03090212 52005 IEM_DS3505
ZGNN,1995-08-26 04:00,ZGNN 260400Z AUTO 04008KT 4SM 32/20 A2974 RMK SLP058 T03200200 IEM_DS3505
ZGNN,1995-08-26 06:00,ZGNN 260600Z AUTO 07002KT 14SM 33/21 A2971 RMK SLP044 T03310207 57016 IEM_DS3505
ZGNN,1995-08-26 07:00,ZGNN 260700Z AUTO 04008KT 6SM 33/20 A2968 RMK SLP037 T03300200 IEM_DS3505
ZGNN,1995-08-26 08:00,ZGNN 260800Z AUTO 06004KT 6SM 32/21 A2965 RMK SLP026 T03200210 IEM_DS3505
ZGNN,1995-08-26 09:00,ZGNN 260900Z AUTO 07002KT 16SM 33/22 A2965 RMK SLP029 T03290215 57015 IEM_DS3505
ZGNN,1995-08-26 10:00,ZGNN 261000Z AUTO 05006KT 7SM 31/23 A2965 RMK SLP027 T03100230 IEM_DS3505
ZGNN,1995-08-26 12:00,ZGNN 261200Z AUTO 04004KT 19SM 30/23 A2968 RMK SLP038 T03000226 52008 IEM_DS3505
ZGNN,1995-08-26 13:00,ZGNN 261300Z AUTO 35004KT 7SM 28/23 A2971 RMK SLP049 T02800230 IEM_DS3505
ZGNN,1995-08-26 15:00,ZGNN 261500Z AUTO 00000KT 19SM 28/23 A2974 RMK SLP058 T02800228 52021 IEM_DS3505
ZGNN,1995-08-26 18:00,ZGNN 261800Z AUTO 00000KT 16SM 27/24 A2972 RMK SLP050 T02730239 57008 IEM_DS3505
ZGNN,1995-08-26 21:00,ZGNN 262100Z AUTO 00000KT 11SM 28/23 A2968 RMK SLP043 T02760228 57007 IEM_DS3505
ZGNN,1995-08-27 00:00,ZGNN 270000Z AUTO 00000KT 8SM 28/22 A2971 RMK SLP049 T02770221 52006 IEM_DS3505
ZGNN,1995-08-27 01:00,ZGNN 270100Z AUTO 03002KT 6SM 27/22 A2974 RMK SLP059 T02700220 IEM_DS3505
ZGNN,1995-08-27 02:00,ZGNN 270200Z AUTO 36004KT 6SM 27/21 A2977 RMK SLP069 T02700210 IEM_DS3505
ZGNN,1995-08-27 03:00,ZGNN 270300Z AUTO 00000KT 11SM 29/22 A2977 RMK SLP064 T02940223 52014 IEM_DS3505
ZGNN,1995-08-27 04:00,ZGNN 270400Z AUTO 35008KT 7SM 29/23 A2974 RMK SLP058 T02900230 IEM_DS3505
ZGNN,1995-08-27 06:00,ZGNN 270600Z AUTO 00000KT 14SM 32/23 A2968 RMK SLP041 T03250231 57022 IEM_DS3505
ZGNN,1995-08-27 07:00,ZGNN 270700Z AUTO 03010KT 7SM 31/23 A2968 RMK SLP038 T03100230 IEM_DS3505
ZGNN,1995-08-27 08:00,ZGNN 270800Z AUTO 33006KT 7SM 31/23 A2965 RMK SLP027 T03100230 IEM_DS3505
ZGNN,1995-08-27 09:00,ZGNN 270900Z AUTO 04006KT 16SM 32/22 A2962 RMK SLP020 T03180224 57021 IEM_DS3505
ZGNN,1995-08-27 10:00,ZGNN 271000Z AUTO 01008KT 7SM 30/23 A2962 RMK SLP017 T03000230 IEM_DS3505
ZGNN,1995-08-27 12:00,ZGNN 271200Z AUTO 04002KT 16SM 30/24 A2965 RMK SLP028 T03040237 52008 IEM_DS3505
ZGNN,1995-08-27 15:00,ZGNN 271500Z AUTO 07006KT 16SM 29/23 A2971 RMK SLP047 T02940232 52019 IEM_DS3505
ZGNN,1995-08-27 18:00,ZGNN 271800Z AUTO 04002KT 16SM 27/23 A2968 RMK SLP039 T02700234 57008 IEM_DS3505
ZGNN,1995-08-27 21:00,ZGNN 272100Z AUTO 04004KT 16SM 27/22 A2968 RMK SLP037 T02690225 57002 IEM_DS3505
ZGNN,1995-08-27 22:00,ZGNN 272200Z AUTO 02004KT 7SM 26/22 A2968 RMK SLP039 T02600220 IEM_DS3505
ZGNN,1995-08-27 23:00,ZGNN 272300Z AUTO 01010KT 7SM 26/23 A2968 RMK SLP039 T02600230 IEM_DS3505
ZGNN,1995-08-28 00:00,ZGNN 280000Z AUTO 00000KT 19SM 26/24 A2971 RMK 60000 SLP047 T02640235 52009 IEM_DS3505
ZGNN,1995-08-28 01:00,ZGNN 280100Z AUTO 34006KT 7SM 26/23 A2971 RMK SLP049 T02600230 IEM_DS3505
ZGNN,1995-08-28 02:00,ZGNN 280200Z AUTO 02006KT 7SM 27/23 A2971 RMK SLP049 T02700230 IEM_DS3505
ZGNN,1995-08-28 03:00,ZGNN 280300Z AUTO 07006KT 19SM 28/23 A2974 RMK SLP056 T02810230 52009 IEM_DS3505
ZGNN,1995-08-28 06:00,ZGNN 280600Z AUTO 07004KT 19SM 30/23 A2968 RMK SLP038 T02990233 57017 IEM_DS3505
ZGNN,1995-08-28 07:00,ZGNN 280700Z AUTO 02010KT 7SM 29/23 A2965 RMK SLP027 T02900230 IEM_DS3505
ZGNN,1995-08-28 09:00,ZGNN 280900Z AUTO 07006KT 19SM 30/24 A2962 RMK SLP021 T02990236 57017 IEM_DS3505
ZGNN,1995-08-28 12:00,ZGNN 281200Z AUTO 07004KT 16SM 27/24 A2965 RMK 60000 SLP029 T02740240 52007 IEM_DS3505
ZGNN,1995-08-28 13:00,ZGNN 281300Z AUTO 02004KT 7SM 26/24 A2968 RMK SLP039 T02600240 IEM_DS3505
ZGNN,1995-08-28 14:00,ZGNN 281400Z AUTO 03006KT 7SM 26/23 A2968 RMK SLP039 T02600230 IEM_DS3505
ZGNN,1995-08-28 15:00,ZGNN 281500Z AUTO 07002KT 16SM 27/23 A2968 RMK SLP043 T02740234 52014 IEM_DS3505
ZGNN,1995-08-28 18:00,ZGNN 281800Z AUTO 07004KT 12SM 27/23 A2969 RMK SLP040 T02720233 57002 IEM_DS3505
ZGNN,1995-08-28 21:00,ZGNN 282100Z AUTO 07004KT 12SM 26/24 A2968 RMK 70001 SLP037 T02570235 57004 IEM_DS3505
ZGNN,1995-08-28 22:00,ZGNN 282200Z AUTO 06008KT 7SM 25/23 A2968 RMK SLP039 T02500230 IEM_DS3505
ZGNN,1995-08-28 23:00,ZGNN 282300Z AUTO 05008KT 7SM 26/23 A2968 RMK SLP039 T02600230 IEM_DS3505
ZGNN,1995-08-29 00:00,ZGNN 290000Z AUTO 07002KT 14SM 26/24 A2968 RMK 70001 SLP045 T02640235 52008 IEM_DS3505
ZGNN,1995-08-29 01:00,ZGNN 290100Z AUTO 04010KT 7SM 26/23 A2971 RMK SLP049 T02600230 IEM_DS3505
ZGNN,1995-08-29 02:00,ZGNN 290200Z AUTO 04010KT 7SM 27/23 A2971 RMK SLP049 T02700230 IEM_DS3505
ZGNN,1995-08-29 03:00,ZGNN 290300Z AUTO 07006KT 19SM 29/24 A2971 RMK SLP047 T02940235 52002 IEM_DS3505
ZGNN,1995-08-29 04:00,ZGNN 290400Z AUTO 06012KT 7SM 28/23 A2971 RMK SLP049 T02800230 IEM_DS3505
ZGNN,1995-08-29 06:00,ZGNN 290600Z AUTO 07002KT 19SM 31/23 A2962 RMK SLP030 T03100233 57016 IEM_DS3505
ZGNN,1995-08-29 08:00,ZGNN 290800Z AUTO 07004KT 4SM 26/25 A2968 RMK SLP039 T02600250 IEM_DS3505
ZGNN,1995-08-29 09:00,ZGNN 290900Z AUTO 11006KT 17SM 25/24 A2968 RMK SLP039 T02510237 52008 IEM_DS3505
ZGNN,1995-08-29 10:00,ZGNN 291000Z AUTO 35004KT 7SM 24/23 A2968 RMK SLP040 T02400230 IEM_DS3505
ZGNN,1995-08-29 12:00,ZGNN 291200Z AUTO 07004KT 12SM 25/24 A2971 RMK 60079 SLP045 T02510242 52006 IEM_DS3505
ZGNN,1995-08-29 13:00,ZGNN 291300Z AUTO 04006KT 7SM 25/24 A2971 RMK SLP049 T02500240 IEM_DS3505
ZGNN,1995-08-29 14:00,ZGNN 291400Z AUTO 06004KT 7SM 25/24 A2971 RMK SLP049 T02500240 IEM_DS3505
ZGNN,1995-08-29 15:00,ZGNN 291500Z AUTO 00000KT 12SM 25/24 A2972 RMK SLP053 T02530243 52008 IEM_DS3505
ZGNN,1995-08-29 18:00,ZGNN 291800Z AUTO 00000KT 12SM 25/24 A2971 RMK 60012 SLP048 T02510242 57005 IEM_DS3505
ZGNN,1995-08-29 21:00,ZGNN 292100Z AUTO 00000KT 12SM 26/24 A2971 RMK 70091 SLP043 T02550242 57005 IEM_DS3505
ZGNN,1995-08-29 22:00,ZGNN 292200Z AUTO 05004KT 7SM 25/24 A2968 RMK SLP039 T02500240 IEM_DS3505
ZGNN,1995-08-29 23:00,ZGNN 292300Z AUTO 07004KT 7SM 25/24 A2971 RMK SLP049 T02500240 IEM_DS3505
ZGNN,1995-08-30 00:00,ZGNN 300000Z AUTO 07002KT 12SM 26/24 A2974 RMK 70091 SLP056 T02610244 52013 IEM_DS3505
ZGNN,1995-08-30 01:00,ZGNN 300100Z AUTO 07002KT 12SM 26/24 A2974 RMK 70091 SLP056 T02600240 52013 IEM_DS3505
ZGNN,1995-08-30 02:00,ZGNN 300200Z AUTO 08006KT 7SM 27/24 A2974 RMK SLP059 T02700240 IEM_DS3505
ZGNN,1995-08-30 03:00,ZGNN 300300Z AUTO 00000KT 19SM 30/25 A2974 RMK SLP058 T02970246 52002 IEM_DS3505
ZGNN,1995-08-30 04:00,ZGNN 300400Z AUTO 08008KT 7SM 28/24 A2971 RMK SLP049 T02800240 IEM_DS3505
ZGNN,1995-08-30 06:00,ZGNN 300600Z AUTO 07002KT 19SM 30/25 A2971 RMK 60000 SLP038 T03020249 57020 IEM_DS3505
ZGNN,1995-08-30 07:00,ZGNN 300700Z AUTO 04008KT 7SM 29/26 A2965 RMK SLP027 T02900260 IEM_DS3505
ZGNN,1995-08-30 09:00,ZGNN 300900Z AUTO 00000KT 19SM 30/26 A2963 RMK SLP022 T03050255 57015 IEM_DS3505
ZGNN,1995-08-30 12:00,ZGNN 301200Z AUTO 09002KT 12SM 27/25 A2967 RMK 60004 SLP035 T02670247 52012 IEM_DS3505
ZGNN,1995-08-30 13:00,ZGNN 301300Z AUTO 00000KT 7SM 26/24 A2968 RMK SLP039 T02600240 IEM_DS3505
ZGNN,1995-08-30 15:00,ZGNN 301500Z AUTO 00000KT 12SM 26/25 A2970 RMK SLP045 T02630249 52010 IEM_DS3505
ZGNN,1995-08-30 18:00,ZGNN 301800Z AUTO 00000KT 11SM 26/25 A2968 RMK SLP040 T02610250 57005 IEM_DS3505
ZGNN,1995-08-30 21:00,ZGNN 302100Z AUTO 00000KT 5SM 26/25 A2965 RMK 70004 SLP031 T02570248 57008 IEM_DS3505
ZGNN,1995-08-30 22:00,ZGNN 302200Z AUTO 36004KT 7SM 25/24 A2968 RMK SLP039 T02500240 IEM_DS3505
ZGNN,1995-08-30 23:00,ZGNN 302300Z AUTO 00000KT 4SM 25/24 A2968 RMK SLP039 T02500240 IEM_DS3505
ZGNN,1995-08-31 00:00,ZGNN 310000Z AUTO 00000KT 7SM 26/25 A2971 RMK 70004 SLP044 T02620246 52012 IEM_DS3505
ZGNN,1995-08-31 01:00,ZGNN 310100Z AUTO 35006KT 7SM 27/25 A2971 RMK SLP049 T02700250 IEM_DS3505
ZGNN,1995-08-31 02:00,ZGNN 310200Z AUTO 01004KT 7SM 29/25 A2971 RMK SLP048 T02900250 IEM_DS3505
ZGNN,1995-08-31 03:00,ZGNN 310300Z AUTO 36004KT 16SM 30/25 A2971 RMK SLP041 T03040254 57002 IEM_DS3505
ZGNN,1995-08-31 04:00,ZGNN 310400Z AUTO 00000KT 7SM 30/24 A2968 RMK SLP038 T03000240 IEM_DS3505
ZGNN,1995-08-31 06:00,ZGNN 310600Z AUTO 00000KT 16SM 32/26 A2962 RMK SLP020 T03250256 57021 IEM_DS3505
ZGNN,1995-08-31 07:00,ZGNN 310700Z AUTO 10004KT 7SM 33/24 A2962 RMK SLP016 T03300240 IEM_DS3505
ZGNN,1995-08-31 08:00,ZGNN 310800Z AUTO 00000KT 7SM 33/24 A2959 RMK SLP006 T03300240 IEM_DS3505
ZGNN,1995-08-31 09:00,ZGNN 310900Z AUTO 00000KT 16SM 33/26 A2956 RMK SLP999 T03320257 57021 IEM_DS3505
ZGNN,1995-08-31 12:00,ZGNN 311200Z AUTO 00000KT 16SM 31/25 A2956 RMK SLP001 T03120254 52002 IEM_DS3505
ZGNN,1995-08-31 13:00,ZGNN 311300Z AUTO 00000KT 6SM 29/25 A2959 RMK SLP007 T02900250 IEM_DS3505
ZGNN,1995-08-31 14:00,ZGNN 311400Z AUTO 26002KT 6SM 28/25 A2959 RMK SLP007 T02800250 IEM_DS3505
ZGNN,1995-08-31 15:00,ZGNN 311500Z AUTO 22002KT 12SM 30/26 A2959 RMK SLP008 T03000258 52007 IEM_DS3505
ZGNN,1995-08-31 18:00,ZGNN 311800Z AUTO 29002KT 12SM 29/25 A2957 RMK SLP999 T02900252 57008 IEM_DS3505
ZGNN,1995-08-31 21:00,ZGNN 312100Z AUTO 04006KT 12SM 28/25 A2953 RMK SLP999 T02830249 54000 IEM_DS3505
ZGNN,1995-08-31 22:00,ZGNN 312200Z AUTO 04004KT 7SM 27/25 A2959 RMK SLP008 T02700250 IEM_DS3505
ZGNN,1995-08-31 23:00,ZGNN 312300Z AUTO 00000KT 5SM 26/25 A2959 RMK SLP008 T02600250 IEM_DS3505
ZGNN,1995-09-01 00:00,ZGNN 010000Z AUTO 27004KT 9SM 26/25 A2962 RMK 60043 70043 SLP013 T02640253 52013 IEM_DS3505
ZGNN,1995-09-01 01:00,ZGNN 010100Z AUTO 00000KT 1 1/4SM 26/25 A2965 RMK SLP027 T02600250 IEM_DS3505
ZGNN,1995-09-01 03:00,ZGNN 010300Z AUTO 20004KT 9SM 26/25 A2968 RMK SLP037 T02570248 52023 IEM_DS3505
ZGNN,1995-09-01 04:00,ZGNN 010400Z AUTO 17008KT 5SM 26/25 A2968 RMK SLP037 T02600250 IEM_DS3505
ZGNN,1995-09-01 06:00,ZGNN 010600Z AUTO 18004KT 11SM 26/25 A2968 RMK 60075 SLP035 T02600249 57002 IEM_DS3505
ZGNN,1995-09-01 07:00,ZGNN 010700Z AUTO 14004KT 7SM 27/25 A2965 RMK SLP027 T02700250 IEM_DS3505
ZGNN,1995-09-01 08:00,ZGNN 010800Z AUTO 15006KT 7SM 27/25 A2965 RMK SLP027 T02700250 IEM_DS3505
ZGNN,1995-09-01 09:00,ZGNN 010900Z AUTO 09002KT 16SM 28/26 A2965 RMK SLP027 T02790261 57007 IEM_DS3505
ZGNN,1995-09-01 10:00,ZGNN 011000Z AUTO 12006KT 7SM 28/26 A2965 RMK SLP026 T02800260 IEM_DS3505
ZGNN,1995-09-01 12:00,ZGNN 011200Z AUTO 09004KT 14SM 27/25 A2971 RMK 60000 SLP046 T02730253 52018 IEM_DS3505
ZGNN,1995-09-01 13:00,ZGNN 011300Z AUTO 09004KT 7SM 27/25 A2974 RMK SLP057 T02700250 IEM_DS3505
ZGNN,1995-09-01 14:00,ZGNN 011400Z AUTO 09004KT 7SM 26/25 A2974 RMK SLP057 T02600250 IEM_DS3505
ZGNN,1995-09-01 15:00,ZGNN 011500Z AUTO 14002KT 12SM 27/26 A2978 RMK SLP072 T02710257 52026 IEM_DS3505
ZGNN,1995-09-01 18:00,ZGNN 011800Z AUTO 25002KT 16SM 26/25 A2977 RMK 60004 SLP067 T02590248 57005 IEM_DS3505
ZGNN,1995-09-01 21:00,ZGNN 012100Z AUTO 14006KT 12SM 25/25 A2976 RMK 70134 SLP066 T02530246 57001 IEM_DS3505
ZGNN,1995-09-01 22:00,ZGNN 012200Z AUTO 07002KT 7SM 25/24 A2977 RMK SLP069 T02500240 IEM_DS3505
ZGNN,1995-09-02 00:00,ZGNN 020000Z AUTO 04002KT 16SM 29/24 A2981 RMK 60012 70091 SLP081 T02900241 52015 IEM_DS3505
ZGNN,1995-09-02 01:00,ZGNN 020100Z AUTO 03004KT 7SM 24/24 RMK T02400240 IEM_DS3505
ZGNN,1995-09-02 02:00,ZGNN 020200Z AUTO 04004KT 3SM 25/25 A2985 RMK SLP095 T02500250 IEM_DS3505
ZGNN,1995-09-02 03:00,ZGNN 020300Z AUTO 00000KT 12SM 25/24 A2985 RMK SLP099 T02490242 52017 IEM_DS3505
ZGNN,1995-09-02 04:00,ZGNN 020400Z AUTO 15004KT 7SM 25/24 A2985 RMK SLP095 T02500240 IEM_DS3505
ZGNN,1995-09-02 06:00,ZGNN 020600Z AUTO 07002KT 19SM 28/26 A2985 RMK 60071 SLP089 T02750260 57009 IEM_DS3505
ZGNN,1995-09-02 07:00,ZGNN 020700Z AUTO 18008KT 7SM 26/24 A2983 RMK SLP088 T02600240 IEM_DS3505
ZGNN,1995-09-02 09:00,ZGNN 020900Z AUTO 00000KT 19SM 28/25 A2980 RMK SLP078 T02840252 57011 IEM_DS3505
ZGNN,1995-09-02 10:00,ZGNN 021000Z AUTO 00000KT 7SM 26/25 A2980 RMK SLP078 T02600250 IEM_DS3505
ZGNN,1995-09-02 12:00,ZGNN 021200Z AUTO 00000KT 16SM 27/25 A2985 RMK 60024 SLP094 T02670251 52015 IEM_DS3505
ZGNN,1995-09-02 13:00,ZGNN 021300Z AUTO 08004KT 7SM 26/25 A2988 RMK SLP106 T02600250 IEM_DS3505
ZGNN,1995-09-02 15:00,ZGNN 021500Z AUTO 14004KT 16SM 26/25 A2988 RMK SLP106 T02570250 52012 IEM_DS3505
ZGNN,1995-09-02 18:00,ZGNN 021800Z AUTO 00000KT 14SM 26/25 A2985 RMK 60000 SLP096 T02550248 57009 IEM_DS3505
ZGNN,1995-09-02 21:00,ZGNN 022100Z AUTO 00000KT 14SM 25/25 A2985 RMK 70094 SLP093 T02530246 57003 IEM_DS3505
ZGNN,1995-09-02 22:00,ZGNN 022200Z AUTO 00000KT 7SM 25/24 A2985 RMK SLP095 T02500240 IEM_DS3505
ZGNN,1995-09-02 23:00,ZGNN 022300Z AUTO 00000KT 7SM 25/24 A2985 RMK SLP095 T02500240 IEM_DS3505
ZGNN,1995-09-03 00:00,ZGNN 030000Z AUTO 14002KT 12SM 26/25 A2985 RMK 70094 SLP102 T02600247 52008 IEM_DS3505
ZGNN,1995-09-03 01:00,ZGNN 030100Z AUTO 11008KT 7SM 27/24 A2988 RMK SLP105 T02700240 IEM_DS3505
ZGNN,1995-09-03 02:00,ZGNN 030200Z AUTO 08010KT 7SM 27/24 A2988 RMK SLP105 T02700240 IEM_DS3505
ZGNN,1995-09-03 03:00,ZGNN 030300Z AUTO 14002KT 16SM 30/24 A2988 RMK SLP106 T02950244 52005 IEM_DS3505
ZGNN,1995-09-03 04:00,ZGNN 030400Z AUTO 15008KT 7SM 30/24 A2985 RMK SLP093 T03000240 IEM_DS3505
ZGNN,1995-09-03 06:00,ZGNN 030600Z AUTO 00000KT 19SM 32/25 A2983 RMK SLP083 T03220251 57023 IEM_DS3505
ZGNN,1995-09-03 07:00,ZGNN 030700Z AUTO 15012KT 7SM 30/26 A2980 RMK SLP077 T03000260 IEM_DS3505
ZGNN,1995-09-03 08:00,ZGNN 030800Z AUTO 11008KT 7SM 30/24 A2980 RMK SLP077 T03000240 IEM_DS3505
ZGNN,1995-09-03 09:00,ZGNN 030900Z AUTO 00000KT 19SM 28/25 A2980 RMK SLP072 T02790251 57011 IEM_DS3505
ZGNN,1995-09-03 10:00,ZGNN 031000Z AUTO 15008KT 7SM 30/24 A2980 RMK SLP077 T03000240 IEM_DS3505
ZGNN,1995-09-03 11:00,ZGNN 031100Z AUTO 00000KT 7SM 27/24 A2980 RMK SLP078 T02700240 IEM_DS3505
ZGNN,1995-09-03 12:00,ZGNN 031200Z AUTO 00000KT 19SM 28/24 A2980 RMK 60008 SLP081 T02770244 52009 IEM_DS3505
ZGNN,1995-09-03 13:00,ZGNN 031300Z AUTO 02004KT 7SM 26/25 A2983 RMK SLP088 T02600250 IEM_DS3505
ZGNN,1995-09-03 15:00,ZGNN 031500Z AUTO 00000KT 12SM 27/25 A2984 RMK SLP091 T02680248 52010 IEM_DS3505
ZGNN,1995-09-03 18:00,ZGNN 031800Z AUTO 00000KT 12SM 26/25 A2981 RMK SLP081 T02610251 57010 IEM_DS3505
ZGNN,1995-09-03 21:00,ZGNN 032100Z AUTO 00000KT 12SM 26/25 A2980 RMK 70008 SLP078 T02570250 57003 IEM_DS3505
ZGNN,1995-09-03 22:00,ZGNN 032200Z AUTO 00000KT 1SM 24/24 A2980 RMK SLP079 T02400240 IEM_DS3505
ZGNN,1995-09-03 23:00,ZGNN 032300Z AUTO 00000KT 1/8SM 24/24 A2983 RMK SLP089 T02400240 IEM_DS3505
ZGNN,1995-09-04 00:00,ZGNN 040000Z AUTO 00000KT 1 1/4SM 26/25 A2983 RMK 70008 SLP089 T02560249 52011 IEM_DS3505
ZGNN,1995-09-04 01:00,ZGNN 040100Z AUTO 00000KT 1 1/4SM 25/25 A2985 RMK SLP095 T02500250 IEM_DS3505
ZGNN,1995-09-04 02:00,ZGNN 040200Z AUTO 24004KT 5SM 27/25 A2985 RMK SLP094 T02700250 IEM_DS3505
ZGNN,1995-09-04 03:00,ZGNN 040300Z AUTO 00000KT 9SM 29/25 A2985 RMK SLP095 T02930248 52006 IEM_DS3505
ZGNN,1995-09-04 04:00,ZGNN 040400Z AUTO 25004KT 7SM 29/25 A2985 RMK SLP094 T02900250 IEM_DS3505
ZGNN,1995-09-04 06:00,ZGNN 040600Z AUTO 22002KT 16SM 32/24 A2980 RMK SLP071 T03170241 57024 IEM_DS3505
ZGNN,1995-09-04 07:00,ZGNN 040700Z AUTO 13004KT 7SM 31/24 A2977 RMK SLP067 T03100240 IEM_DS3505
ZGNN,1995-09-04 08:00,ZGNN 040800Z AUTO 27006KT 7SM 31/24 A2974 RMK SLP056 T03100240 IEM_DS3505
ZGNN,1995-09-04 09:00,ZGNN 040900Z AUTO 00000KT 16SM 32/23 A2971 RMK SLP049 T03200234 57021 IEM_DS3505
ZGNN,1995-09-04 10:00,ZGNN 041000Z AUTO 00000KT 7SM 32/24 A2971 RMK SLP045 T03200240 IEM_DS3505
ZGNN,1995-09-04 11:00,ZGNN 041100Z AUTO 00000KT 6SM 30/25 A2971 RMK SLP046 T03000250 IEM_DS3505
ZGNN,1995-09-04 12:00,ZGNN 041200Z AUTO 00000KT 16SM 30/26 A2971 RMK SLP048 T02970255 57002 IEM_DS3505
ZGNN,1995-09-04 13:00,ZGNN 041300Z AUTO 00000KT 6SM 27/25 A2974 RMK SLP057 T02700250 IEM_DS3505
ZGNN,1995-09-04 15:00,ZGNN 041500Z AUTO 00000KT 14SM 28/25 A2976 RMK SLP064 T02810253 52016 IEM_DS3505
ZGNN,1995-09-04 18:00,ZGNN 041800Z AUTO 00000KT 12SM 27/25 A2974 RMK SLP057 T02730252 57006 IEM_DS3505
ZGNN,1995-09-04 21:00,ZGNN 042100Z AUTO 00000KT 11SM 26/25 A2972 RMK SLP051 T02590253 57006 IEM_DS3505
ZGNN,1995-09-05 00:00,ZGNN 050000Z AUTO 00000KT 7SM 27/25 A2977 RMK SLP070 T02670254 52018 IEM_DS3505
ZGNN,1995-09-05 01:00,ZGNN 050100Z AUTO 00000KT 7SM 29/25 A2980 RMK SLP078 T02900250 IEM_DS3505
ZGNN,1995-09-05 02:00,ZGNN 050200Z AUTO 14004KT 7SM 30/25 A2980 RMK SLP077 T03000250 IEM_DS3505
ZGNN,1995-09-05 03:00,ZGNN 050300Z AUTO 00000KT 7SM 31/26 A2980 RMK SLP067 T03060256 57002 IEM_DS3505
ZGNN,1995-09-05 04:00,ZGNN 050400Z AUTO 00000KT 7SM 32/25 A2977 RMK SLP067 T03200250 IEM_DS3505
ZGNN,1995-09-05 05:00,ZGNN 050500Z AUTO 19006KT 7SM 32/23 A2974 RMK SLP056 T03200230 IEM_DS3505
ZGNN,1995-09-05 06:00,ZGNN 050600Z AUTO 00000KT 16SM 33/25 A2971 RMK SLP045 T03300247 57022 IEM_DS3505
ZGNN,1995-09-05 07:00,ZGNN 050700Z AUTO 00000KT 7SM 33/22 A2968 RMK SLP035 T03300220 IEM_DS3505
ZGNN,1995-09-05 08:00,ZGNN 050800Z AUTO 21002KT 7SM 34/23 A2968 RMK SLP035 T03400230 IEM_DS3505
ZGNN,1995-09-05 09:00,ZGNN 050900Z AUTO 00000KT 19SM 34/25 A2965 RMK SLP028 T03440251 57017 IEM_DS3505
ZGNN,1995-09-05 10:00,ZGNN 051000Z AUTO 15002KT 6SM 33/23 A2965 RMK SLP025 T03300230 IEM_DS3505
ZGNN,1995-09-05 11:00,ZGNN 051100Z AUTO 14002KT 6SM 31/25 A2965 RMK SLP026 T03100250 IEM_DS3505
ZGNN,1995-09-05 12:00,ZGNN 051200Z AUTO 00000KT 19SM 31/25 A2968 RMK SLP034 T03130247 52006 IEM_DS3505
ZGNN,1995-09-05 13:00,ZGNN 051300Z AUTO 00000KT 6SM 28/26 A2968 RMK SLP037 T02800260 IEM_DS3505
ZGNN,1995-09-05 15:00,ZGNN 051500Z AUTO 00000KT 17SM 29/25 A2971 RMK SLP045 T02910249 52011 IEM_DS3505
ZGNN,1995-09-05 18:00,ZGNN 051800Z AUTO 00000KT 16SM 27/25 A2970 RMK SLP042 T02730250 57003 IEM_DS3505
ZGNN,1995-09-05 21:00,ZGNN 052100Z AUTO 00000KT 9SM 26/25 A2968 RMK SLP040 T02620251 57002 IEM_DS3505
ZGNN,1995-09-05 22:00,ZGNN 052200Z AUTO 00000KT 7SM 25/24 A2968 RMK SLP037 T02500240 IEM_DS3505
ZGNN,1995-09-05 23:00,ZGNN 052300Z AUTO 00000KT 7SM 24/24 A2971 RMK SLP048 T02400240 IEM_DS3505
ZGNN,1995-09-06 00:00,ZGNN 060000Z AUTO 00000KT 7SM 26/25 A2971 RMK SLP047 T02650248 52007 IEM_DS3505
ZGNN,1995-09-06 01:00,ZGNN 060100Z AUTO 21004KT 7SM 28/25 A2974 RMK SLP057 T02800250 IEM_DS3505
ZGNN,1995-09-06 03:00,ZGNN 060300Z AUTO 00000KT 8SM 32/25 A2971 RMK SLP048 T03150254 52001 IEM_DS3505
ZGNN,1995-09-06 04:00,ZGNN 060400Z AUTO 15004KT 7SM 33/24 A2971 RMK SLP045 T03300240 IEM_DS3505
ZGNN,1995-09-06 05:00,ZGNN 060500Z AUTO 00000KT 7SM 33/24 A2968 RMK SLP035 T03300240 IEM_DS3505
ZGNN,1995-09-06 06:00,ZGNN 060600Z AUTO 25002KT 11SM 34/24 A2965 RMK SLP024 T03420241 57024 IEM_DS3505
ZGNN,1995-09-06 07:00,ZGNN 060700Z AUTO 00000KT 7SM 34/24 A2962 RMK SLP015 T03400240 IEM_DS3505
ZGNN,1995-09-06 08:00,ZGNN 060800Z AUTO 05006KT 7SM 35/24 A2959 RMK SLP004 T03500240 IEM_DS3505
ZGNN,1995-09-06 09:00,ZGNN 060900Z AUTO 00000KT 19SM 35/24 A2959 RMK SLP008 T03470235 57016 IEM_DS3505
ZGNN,1995-09-06 10:00,ZGNN 061000Z AUTO 11004KT 6SM 33/24 A2959 RMK SLP005 T03300240 IEM_DS3505
ZGNN,1995-09-06 11:00,ZGNN 061100Z AUTO 06004KT 6SM 31/26 A2962 RMK SLP016 T03100260 IEM_DS3505
ZGNN,1995-09-06 12:00,ZGNN 061200Z AUTO 00000KT 19SM 32/25 A2965 RMK SLP024 T03170248 52016 IEM_DS3505
ZGNN,1995-09-06 13:00,ZGNN 061300Z AUTO 02004KT 6SM 28/25 A2965 RMK SLP026 T02800250 IEM_DS3505
ZGNN,1995-09-06 14:00,ZGNN 061400Z AUTO 36002KT 6SM 28/25 A2968 RMK SLP037 T02800250 IEM_DS3505
ZGNN,1995-09-06 15:00,ZGNN 061500Z AUTO 00000KT 16SM 29/26 A2968 RMK SLP040 T02930258 52016 IEM_DS3505
ZGNN,1995-09-06 21:00,ZGNN 062100Z AUTO 00000KT 16SM 27/24 A2965 RMK SLP032 T02730243 52002 IEM_DS3505
ZGNN,1995-09-06 22:00,ZGNN 062200Z AUTO 01004KT 7SM 26/23 A2968 RMK SLP037 T02600230 IEM_DS3505
ZGNN,1995-09-06 23:00,ZGNN 062300Z AUTO 00000KT 7SM 26/24 A2968 RMK SLP037 T02600240 IEM_DS3505
ZGNN,1995-09-07 00:00,ZGNN 070000Z AUTO 00000KT 16SM 28/24 A2971 RMK SLP043 T02780245 52011 IEM_DS3505
ZGNN,1995-09-07 01:00,ZGNN 070100Z AUTO 01004KT 7SM 28/24 A2971 RMK SLP047 T02800240 IEM_DS3505
ZGNN,1995-09-07 03:00,ZGNN 070300Z AUTO 07002KT 19SM 32/23 A2974 RMK SLP051 T03150230 52008 IEM_DS3505
ZGNN,1995-09-07 04:00,ZGNN 070400Z AUTO 06010KT 7SM 31/23 A2971 RMK SLP046 T03100230 IEM_DS3505
ZGNN,1995-09-07 06:00,ZGNN 070600Z AUTO 07004KT 7SM 26/25 A2968 RMK 60008 SLP040 T02650247 57012 IEM_DS3505
ZGNN,1995-09-07 07:00,ZGNN 070700Z AUTO 01008KT 5SM 25/24 A2965 RMK SLP027 T02500240 IEM_DS3505
ZGNN,1995-09-07 08:00,ZGNN 070800Z AUTO 34008KT 4SM 25/24 A2965 RMK SLP027 T02500240 IEM_DS3505
ZGNN,1995-09-07 09:00,ZGNN 070900Z AUTO 32006KT 6SM 25/24 A2962 RMK SLP011 T02470237 57029 IEM_DS3505
ZGNN,1995-09-07 10:00,ZGNN 071000Z AUTO 32010KT 4SM 24/24 A2959 RMK SLP007 T02400240 IEM_DS3505
ZGNN,1995-09-07 11:00,ZGNN 071100Z AUTO 33012KT 7SM 24/23 A2959 RMK SLP007 T02400230 IEM_DS3505
ZGNN,1995-09-07 12:00,ZGNN 071200Z AUTO 29008KT 6SM 25/24 A2962 RMK 60335 SLP012 T02470241 52001 IEM_DS3505
ZGNN,1995-09-07 13:00,ZGNN 071300Z AUTO 25008KT 7SM 25/23 A2965 RMK SLP027 T02500230 IEM_DS3505
ZGNN,1995-09-07 14:00,ZGNN 071400Z AUTO 28006KT 7SM 25/24 A2968 RMK SLP037 T02500240 IEM_DS3505
ZGNN,1995-09-07 15:00,ZGNN 071500Z AUTO 20004KT 7SM 25/24 A2972 RMK SLP052 T02490240 52040 IEM_DS3505
ZGNN,1995-09-07 18:00,ZGNN 071800Z AUTO 14002KT 11SM 25/24 A2978 RMK 60079 SLP071 T02490239 52019 IEM_DS3505
ZGNN,1995-09-07 21:00,ZGNN 072100Z AUTO 07004KT 9SM 25/24 A2977 RMK 70421 SLP072 T02490243 54000 IEM_DS3505
ZGNN,1995-09-07 22:00,ZGNN 072200Z AUTO 00000KT 7SM 25/24 A2980 RMK SLP079 T02500240 IEM_DS3505
ZGNN,1995-09-08 00:00,ZGNN 080000Z AUTO 00000KT 11SM 25/24 A2988 RMK 60008 70429 SLP102 T02510241 52030 IEM_DS3505
ZGNN,1995-09-08 01:00,ZGNN 080100Z AUTO 14004KT 7SM 25/24 A2988 RMK SLP106 T02500240 IEM_DS3505
ZGNN,1995-09-08 03:00,ZGNN 080300Z AUTO 00000KT 12SM 26/25 A2991 RMK SLP120 T02650249 52018 IEM_DS3505
ZGNN,1995-09-08 04:00,ZGNN 080400Z AUTO 19010KT 7SM 28/25 A2991 RMK SLP115 T02800250 IEM_DS3505
ZGNN,1995-09-08 06:00,ZGNN 080600Z AUTO 00000KT 16SM 29/26 A2988 RMK 60043 SLP108 T02910257 57011 IEM_DS3505
ZGNN,1995-09-08 07:00,ZGNN 080700Z AUTO 12008KT 7SM 30/25 A2985 RMK SLP093 T03000250 IEM_DS3505
ZGNN,1995-09-08 08:00,ZGNN 080800Z AUTO 15004KT 7SM 30/25 A2985 RMK SLP093 T03000250 IEM_DS3505
ZGNN,1995-09-08 09:00,ZGNN 080900Z AUTO 00000KT 16SM 29/26 A2985 RMK SLP092 T02890255 57016 IEM_DS3505
ZGNN,1995-09-08 10:00,ZGNN 081000Z AUTO 08004KT 7SM 29/25 A2985 RMK SLP094 T02900250 IEM_DS3505
ZGNN,1995-09-08 11:00,ZGNN 081100Z AUTO 36004KT 7SM 28/25 A2988 RMK SLP105 T02800250 IEM_DS3505
ZGNN,1995-09-08 12:00,ZGNN 081200Z AUTO 00000KT 16SM 28/26 A2988 RMK SLP109 T02760258 52016 IEM_DS3505
ZGNN,1995-09-08 15:00,ZGNN 081500Z AUTO 04004KT 16SM 27/26 A2995 RMK SLP128 T02690256 52019 IEM_DS3505
ZGNN,1995-09-08 18:00,ZGNN 081800Z AUTO 07002KT 16SM 26/25 A2994 RMK SLP125 T02620254 57002 IEM_DS3505
ZGNN,1995-09-08 21:00,ZGNN 082100Z AUTO 04002KT 12SM 25/25 A2993 RMK 70047 SLP123 T02530249 57003 IEM_DS3505
ZGNN,1995-09-08 22:00,ZGNN 082200Z AUTO 00000KT 7SM 25/25 A2994 RMK SLP126 T02500250 IEM_DS3505
ZGNN,1995-09-08 23:00,ZGNN 082300Z AUTO 00000KT 7SM 25/24 A2994 RMK SLP126 T02500240 IEM_DS3505
ZGNN,1995-09-09 00:00,ZGNN 090000Z AUTO 00000KT 5SM 25/25 A2994 RMK 70043 SLP126 T02530249 52003 IEM_DS3505
ZGNN,1995-09-09 01:00,ZGNN 090100Z AUTO 11006KT 7SM 28/25 A2994 RMK SLP125 T02800250 IEM_DS3505
ZGNN,1995-09-09 02:00,ZGNN 090200Z AUTO 13006KT 7SM 29/24 A2994 RMK SLP125 T02900240 IEM_DS3505
ZGNN,1995-09-09 03:00,ZGNN 090300Z AUTO 22002KT 16SM 30/25 A2994 RMK SLP129 T02970252 52004 IEM_DS3505
ZGNN,1995-09-09 04:00,ZGNN 090400Z AUTO 13004KT 7SM 31/23 A2994 RMK SLP124 T03100230 IEM_DS3505
ZGNN,1995-09-09 05:00,ZGNN 090500Z AUTO 16002KT 7SM 31/23 A2994 RMK SLP124 T03100230 IEM_DS3505
ZGNN,1995-09-09 06:00,ZGNN 090600Z AUTO 00000KT 19SM 31/24 A2990 RMK SLP112 T03130236 57017 IEM_DS3505
ZGNN,1995-09-09 08:00,ZGNN 090800Z AUTO 09006KT 7SM 33/23 A2985 RMK SLP093 T03300230 IEM_DS3505
ZGNN,1995-09-09 09:00,ZGNN 090900Z AUTO 18002KT 19SM 33/25 A2985 RMK SLP094 T03310247 57018 IEM_DS3505
ZGNN,1995-09-09 10:00,ZGNN 091000Z AUTO 06004KT 7SM 32/24 A2983 RMK SLP087 T03200240 IEM_DS3505
ZGNN,1995-09-09 11:00,ZGNN 091100Z AUTO 00000KT 7SM 30/24 A2983 RMK SLP087 T03000240 IEM_DS3505
ZGNN,1995-09-09 12:00,ZGNN 091200Z AUTO 16SM 28/26 A2985 RMK SLP090 T02800260 57004 IEM_DS3505
ZGNN,1995-09-09 13:00,ZGNN 091300Z AUTO 00000KT 6SM 27/25 A2988 RMK SLP105 T02700250 IEM_DS3505
ZGNN,1995-09-09 14:00,ZGNN 091400Z AUTO 26006KT 6SM 27/25 A2988 RMK SLP105 T02700250 IEM_DS3505
ZGNN,1995-09-09 15:00,ZGNN 091500Z AUTO 00000KT 16SM 28/26 A2989 RMK SLP107 T02780258 52017 IEM_DS3505
ZGNN,1995-09-09 18:00,ZGNN 091800Z AUTO 04002KT 16SM 26/25 A2988 RMK SLP104 T02650249 57003 IEM_DS3505
ZGNN,1995-09-09 21:00,ZGNN 092100Z AUTO 32004KT 12SM 25/24 A2988 RMK SLP101 T02500243 57004 IEM_DS3505
ZGNN,1995-09-09 22:00,ZGNN 092200Z AUTO 00000KT 5SM 24/24 A2988 RMK SLP106 T02400240 IEM_DS3505
ZGNN,1995-09-09 23:00,ZGNN 092300Z AUTO 00000KT 1/2SM 24/24 A2988 RMK SLP106 T02400240 IEM_DS3505
ZGNN,1995-09-10 00:00,ZGNN 100000Z AUTO 00000KT 26/24 A2988 RMK SLP110 T02610244 52007 IEM_DS3505
ZGNN,1995-09-10 01:00,ZGNN 100100Z AUTO 00000KT 1 1/4SM 26/25 A2991 RMK SLP116 T02600250 IEM_DS3505
ZGNN,1995-09-10 02:00,ZGNN 100200Z AUTO 19004KT 6SM 28/25 A2991 RMK SLP115 T02800250 IEM_DS3505
ZGNN,1995-09-10 03:00,ZGNN 100300Z AUTO 00000KT 12SM 31/26 A2991 RMK SLP110 T03130256 54000 IEM_DS3505
ZGNN,1995-09-10 04:00,ZGNN 100400Z AUTO 15006KT 7SM 32/24 A2988 RMK SLP104 T03200240 IEM_DS3505
ZGNN,1995-09-10 05:00,ZGNN 100500Z AUTO 15006KT 7SM 33/24 A2985 RMK SLP093 T03300240 IEM_DS3505
ZGNN,1995-09-10 06:00,ZGNN 100600Z AUTO 00000KT 19SM 34/24 A2983 RMK SLP085 T03360245 57024 IEM_DS3505
ZGNN,1995-09-10 07:00,ZGNN 100700Z AUTO 00000KT 7SM 34/24 A2980 RMK SLP076 T03400240 IEM_DS3505
ZGNN,1995-09-10 08:00,ZGNN 100800Z AUTO 00000KT 7SM 34/24 A2977 RMK SLP066 T03400240 IEM_DS3505
ZGNN,1995-09-10 09:00,ZGNN 100900Z AUTO 00000KT 19SM 34/24 A2977 RMK SLP067 T03430240 57018 IEM_DS3505
ZGNN,1995-09-10 10:00,ZGNN 101000Z AUTO 00000KT 6SM 33/24 A2977 RMK SLP066 T03300240 IEM_DS3505
ZGNN,1995-09-10 11:00,ZGNN 101100Z AUTO 08004KT 7SM 31/26 A2980 RMK SLP077 T03100260 IEM_DS3505
ZGNN,1995-09-10 12:00,ZGNN 101200Z AUTO 25006KT 12SM 30/25 A2985 RMK SLP090 T03050249 52022 IEM_DS3505
ZGNN,1995-09-10 15:00,ZGNN 101500Z AUTO 00000KT 9SM 27/25 A2990 RMK SLP112 T02710248 52022 IEM_DS3505
ZGNN,1995-09-10 18:00,ZGNN 101800Z AUTO 00000KT 12SM 26/24 A2990 RMK 60008 SLP111 T02610238 57001 IEM_DS3505
ZGNN,1995-09-10 21:00,ZGNN 102100Z AUTO 09004KT 16SM 30/ A2991 RMK 70008 SLP111 54000 IEM_DS3505
ZGNN,1995-09-10 22:00,ZGNN 102200Z AUTO 00000KT 6SM 25/23 A2991 RMK SLP116 T02500230 IEM_DS3505
ZGNN,1995-09-10 23:00,ZGNN 102300Z AUTO 00000KT 7SM 25/23 A2994 RMK SLP126 T02500230 IEM_DS3505
ZGNN,1995-09-11 00:00,ZGNN 110000Z AUTO 00000KT 16SM 26/24 A2994 RMK 70008 SLP131 T02590237 52020 IEM_DS3505
ZGNN,1995-09-11 01:00,ZGNN 110100Z AUTO 07006KT 7SM 27/24 A2997 RMK SLP136 T02700240 IEM_DS3505
ZGNN,1995-09-11 02:00,ZGNN 110200Z AUTO 08006KT 6SM 28/24 A2997 RMK SLP135 T02800240 IEM_DS3505
ZGNN,1995-09-11 03:00,ZGNN 110300Z AUTO 09004KT 19SM 30/24 A2997 RMK SLP135 T02990239 52004 IEM_DS3505
ZGNN,1995-09-11 04:00,ZGNN 110400Z AUTO 03002KT 7SM 30/25 A2997 RMK SLP135 T03000250 IEM_DS3505
ZGNN,1995-09-11 05:00,ZGNN 110500Z AUTO 00000KT 7SM 31/24 A2994 RMK SLP124 T03100240 IEM_DS3505
ZGNN,1995-09-11 06:00,ZGNN 110600Z AUTO 00000KT 19SM 32/24 A2991 RMK SLP115 T03220243 57020 IEM_DS3505
ZGNN,1995-09-11 07:00,ZGNN 110700Z AUTO 05004KT 7SM 32/24 A2988 RMK SLP104 T03200240 IEM_DS3505
ZGNN,1995-09-11 08:00,ZGNN 110800Z AUTO 08008KT 7SM 32/23 A2988 RMK SLP104 T03200230 IEM_DS3505
ZGNN,1995-09-11 09:00,ZGNN 110900Z AUTO 07006KT 19SM 31/25 A2985 RMK SLP098 T03140249 57017 IEM_DS3505
ZGNN,1995-09-11 10:00,ZGNN 111000Z AUTO 07006KT 6SM 31/24 A2988 RMK SLP104 T03100240 IEM_DS3505
ZGNN,1995-09-11 11:00,ZGNN 111100Z AUTO 00000KT 6SM 29/24 A2988 RMK SLP105 T02900240 IEM_DS3505
ZGNN,1995-09-11 12:00,ZGNN 111200Z AUTO 07002KT 14SM 29/25 A2991 RMK SLP113 T02890254 52015 IEM_DS3505
ZGNN,1995-09-11 13:00,ZGNN 111300Z AUTO 24006KT 7SM 24/22 A2994 RMK SLP126 T02400220 IEM_DS3505
ZGNN,1995-09-11 14:00,ZGNN 111400Z AUTO 10002KT 4SM 24/23 A3000 RMK SLP147 T02400230 IEM_DS3505
ZGNN,1995-09-11 15:00,ZGNN 111500Z AUTO 00000KT 16SM 26/25 A2996 RMK SLP134 T02630249 52021 IEM_DS3505
ZGNN,1995-09-11 18:00,ZGNN 111800Z AUTO 00000KT 16SM 26/24 A2996 RMK 60004 SLP131 T02570243 57003 IEM_DS3505
ZGNN,1995-09-11 21:00,ZGNN 112100Z AUTO 04004KT 16SM 26/24 A2994 RMK 70004 SLP125 T02590236 57006 IEM_DS3505
ZGNN,1995-09-11 22:00,ZGNN 112200Z AUTO 05004KT 3SM 25/24 A2994 RMK SLP126 T02500240 IEM_DS3505
ZGNN,1995-09-11 23:00,ZGNN 112300Z AUTO 00000KT 4SM 25/23 A2997 RMK SLP136 T02500230 IEM_DS3505
ZGNN,1995-09-12 00:00,ZGNN 120000Z AUTO 07004KT 12SM 26/23 A3000 RMK 70004 SLP147 T02590228 52021 IEM_DS3505
ZGNN,1995-09-12 01:00,ZGNN 120100Z AUTO 04006KT 6SM 27/23 A3003 RMK SLP156 T02700230 IEM_DS3505
ZGNN,1995-09-12 03:00,ZGNN 120300Z AUTO 07004KT 16SM 28/23 A3003 RMK SLP155 T02850228 52008 IEM_DS3505
ZGNN,1995-09-12 05:00,ZGNN 120500Z AUTO 03004KT 7SM 29/24 A3000 RMK SLP145 T02900240 IEM_DS3505
ZGNN,1995-09-12 06:00,ZGNN 120600Z AUTO 00000KT 16SM 31/23 A2997 RMK SLP133 T03070232 57021 IEM_DS3505
ZGNN,1995-09-12 07:00,ZGNN 120700Z AUTO 06006KT 7SM 31/24 A2994 RMK SLP124 T03100240 IEM_DS3505
ZGNN,1995-09-12 08:00,ZGNN 120800Z AUTO 04008KT 7SM 30/24 A2991 RMK SLP115 T03000240 IEM_DS3505
ZGNN,1995-09-12 09:00,ZGNN 120900Z AUTO 07004KT 12SM 30/24 A2991 RMK SLP116 T03050240 57017 IEM_DS3505
ZGNN,1995-09-12 10:00,ZGNN 121000Z AUTO 15016KT 7SM 27/23 A2997 RMK SLP136 T02700230 IEM_DS3505
ZGNN,1995-09-12 11:00,ZGNN 121100Z AUTO 18004KT 7SM 24/22 A2994 RMK SLP126 T02400220 IEM_DS3505
ZGNN,1995-09-12 12:00,ZGNN 121200Z AUTO 25004KT 12SM 26/23 A2994 RMK 60002 SLP127 T02600226 52010 IEM_DS3505
ZGNN,1995-09-12 13:00,ZGNN 121300Z AUTO 00000KT 7SM 24/23 A2997 RMK SLP136 T02400230 IEM_DS3505
ZGNN,1995-09-12 15:00,ZGNN 121500Z AUTO 29002KT 12SM 26/23 A2999 RMK SLP143 T02580232 52016 IEM_DS3505
ZGNN,1995-09-12 18:00,ZGNN 121800Z AUTO 34002KT 11SM 25/24 A2996 RMK SLP131 T02530237 57011 IEM_DS3505
ZGNN,1995-09-12 21:00,ZGNN 122100Z AUTO 34002KT 9SM 25/24 A2994 RMK 70002 SLP127 T02520238 57004 IEM_DS3505
ZGNN,1995-09-12 22:00,ZGNN 122200Z AUTO 00000KT 5SM 24/23 A2994 RMK SLP126 T02400230 IEM_DS3505
ZGNN,1995-09-12 23:00,ZGNN 122300Z AUTO 00000KT 3SM 24/24 A2997 RMK SLP136 T02400240 IEM_DS3505
ZGNN,1995-09-13 00:00,ZGNN 130000Z AUTO 00000KT 7SM 26/24 A2997 RMK 70002 SLP136 T02580241 52008 IEM_DS3505
ZGNN,1995-09-13 01:00,ZGNN 130100Z AUTO 00000KT 4SM 26/24 A3000 RMK SLP146 T02600240 IEM_DS3505
ZGNN,1995-09-13 02:00,ZGNN 130200Z AUTO 00000KT 5SM 28/24 A3000 RMK SLP145 T02800240 IEM_DS3505
ZGNN,1995-09-13 03:00,ZGNN 130300Z AUTO 00000KT 7SM 30/24 A3000 RMK SLP141 T02980241 52006 IEM_DS3505
ZGNN,1995-09-13 06:00,ZGNN 130600Z AUTO 11002KT 12SM 32/24 A2991 RMK SLP110 T03240237 57031 IEM_DS3505
ZGNN,1995-09-13 07:00,ZGNN 130700Z AUTO 00000KT 7SM 32/24 A2988 RMK SLP104 T03200240 IEM_DS3505
ZGNN,1995-09-13 08:00,ZGNN 130800Z AUTO 00000KT 7SM 32/23 A2985 RMK SLP093 T03200230 IEM_DS3505
ZGNN,1995-09-13 09:00,ZGNN 130900Z AUTO 36002KT 16SM 32/25 A2983 RMK SLP089 T03190246 57021 IEM_DS3505
ZGNN,1995-09-13 10:00,ZGNN 131000Z AUTO 00000KT 7SM 31/24 A2983 RMK SLP087 T03100240 IEM_DS3505
ZGNN,1995-09-13 11:00,ZGNN 131100Z AUTO 00000KT 6SM 30/25 A2983 RMK SLP087 T03000250 IEM_DS3505
ZGNN,1995-09-13 12:00,ZGNN 131200Z AUTO 00000KT 12SM 30/25 A2985 RMK SLP094 T02970254 52005 IEM_DS3505
ZGNN,1995-09-13 13:00,ZGNN 131300Z AUTO 01004KT 6SM 27/25 A2988 RMK SLP105 T02700250 IEM_DS3505
ZGNN,1995-09-13 15:00,ZGNN 131500Z AUTO 04002KT 12SM 28/25 A2990 RMK SLP111 T02780248 52017 IEM_DS3505
ZGNN,1995-09-13 18:00,ZGNN 131800Z AUTO 00000KT 9SM 27/25 A2987 RMK SLP102 T02670250 57009 IEM_DS3505
ZGNN,1995-09-13 21:00,ZGNN 132100Z AUTO 00000KT 9SM 26/25 A2985 RMK SLP100 T02590248 57002 IEM_DS3505
ZGNN,1995-09-13 22:00,ZGNN 132200Z AUTO 00000KT 1 1/4SM 24/24 A2985 RMK SLP095 T02400240 IEM_DS3505
ZGNN,1995-09-13 23:00,ZGNN 132300Z AUTO 00000KT 1 1/4SM 24/24 A2988 RMK SLP106 T02400240 IEM_DS3505
ZGNN,1995-09-14 00:00,ZGNN 140000Z AUTO 00000KT 7SM 27/25 A2988 RMK SLP108 T02670250 52008 IEM_DS3505
ZGNN,1995-09-14 01:00,ZGNN 140100Z AUTO 00000KT 1 1/4SM 26/25 A2991 RMK SLP116 T02600250 IEM_DS3505
ZGNN,1995-09-14 02:00,ZGNN 140200Z AUTO 00000KT 2SM 29/25 A2991 RMK SLP115 T02900250 IEM_DS3505
ZGNN,1995-09-14 03:00,ZGNN 140300Z AUTO 14002KT 7SM 32/25 A2991 RMK SLP111 T03150254 52003 IEM_DS3505
ZGNN,1995-09-14 04:00,ZGNN 140400Z AUTO 02006KT 4SM 32/24 A2988 RMK SLP104 T03200240 IEM_DS3505
ZGNN,1995-09-14 05:00,ZGNN 140500Z AUTO 00000KT 4SM 32/25 A2985 RMK SLP093 T03200250 IEM_DS3505
ZGNN,1995-09-14 06:00,ZGNN 140600Z AUTO 07004KT 12SM 32/24 A2983 RMK SLP090 T03220243 57021 IEM_DS3505
ZGNN,1995-09-14 07:00,ZGNN 140700Z AUTO 33006KT 7SM 26/24 A2980 RMK SLP078 T02600240 IEM_DS3505
ZGNN,1995-09-14 08:00,ZGNN 140800Z AUTO 35004KT 7SM 30/25 A2980 RMK SLP077 T03000250 IEM_DS3505
ZGNN,1995-09-14 09:00,ZGNN 140900Z AUTO 11002KT 16SM 32/25 A2980 RMK SLP072 T03230247 57018 IEM_DS3505
ZGNN,1995-09-14 10:00,ZGNN 141000Z AUTO 00000KT 6SM 30/25 A2980 RMK SLP077 T03000250 IEM_DS3505
ZGNN,1995-09-14 11:00,ZGNN 141100Z AUTO 21006KT 6SM 29/26 A2980 RMK SLP078 T02900260 IEM_DS3505
ZGNN,1995-09-14 12:00,ZGNN 141200Z AUTO 00000KT 12SM 30/25 A2980 RMK SLP077 T03020253 52005 IEM_DS3505
ZGNN,1995-09-14 13:00,ZGNN 141300Z AUTO 00000KT 6SM 27/25 A2983 RMK SLP088 T02700250 IEM_DS3505
ZGNN,1995-09-14 14:00,ZGNN 141400Z AUTO 00000KT 6SM 27/25 A2983 RMK SLP088 T02700250 IEM_DS3505
ZGNN,1995-09-14 15:00,ZGNN 141500Z AUTO 00000KT 12SM 30/25 RMK T03020253 IEM_DS3505
ZGNN,1995-09-14 18:00,ZGNN 141800Z AUTO 00000KT 11SM 27/26 A2982 RMK SLP082 T02740259 57002 IEM_DS3505
ZGNN,1995-09-14 21:00,ZGNN 142100Z AUTO 00000KT 11SM 26/25 A2983 RMK SLP085 T02650254 52002 IEM_DS3505
ZGNN,1995-09-14 22:00,ZGNN 142200Z AUTO 00000KT 1/8SM 25/24 A2983 RMK SLP089 T02500240 IEM_DS3505
ZGNN,1995-09-14 23:00,ZGNN 142300Z AUTO 00000KT 3/8SM 25/24 A2985 RMK SLP095 T02500240 IEM_DS3505
ZGNN,1995-09-15 00:00,ZGNN 150000Z AUTO 07002KT 4SM 27/25 A2987 RMK SLP102 T02710251 52017 IEM_DS3505
ZGNN,1995-09-15 01:00,ZGNN 150100Z AUTO 17004KT 1SM 27/25 A2988 RMK SLP105 T02700250 IEM_DS3505
ZGNN,1995-09-15 02:00,ZGNN 150200Z AUTO 07004KT 2 1/2SM 29/25 A2988 RMK SLP105 T02900250 IEM_DS3505
ZGNN,1995-09-15 03:00,ZGNN 150300Z AUTO 09004KT 16SM 31/23 A2988 RMK SLP107 T03110230 52005 IEM_DS3505
ZGNN,1995-09-15 04:00,ZGNN 150400Z AUTO 03004KT 7SM 31/24 A2988 RMK SLP104 T03100240 IEM_DS3505
ZGNN,1995-09-15 05:00,ZGNN 150500Z AUTO 07006KT 7SM 32/24 A2985 RMK SLP093 T03200240 IEM_DS3505
ZGNN,1995-09-15 06:00,ZGNN 150600Z AUTO 07002KT 16SM 33/23 A2983 RMK SLP084 T03300230 57022 IEM_DS3505
ZGNN,1995-09-15 07:00,ZGNN 150700Z AUTO 05006KT 7SM 32/23 A2980 RMK SLP077 T03200230 IEM_DS3505
ZGNN,1995-09-15 08:00,ZGNN 150800Z AUTO 09008KT 7SM 33/24 A2980 RMK SLP076 T03300240 IEM_DS3505
ZGNN,1995-09-15 09:00,ZGNN 150900Z AUTO 02006KT 14SM 32/23 A2980 RMK SLP071 T03230233 57013 IEM_DS3505
ZGNN,1995-09-15 10:00,ZGNN 151000Z AUTO 07004KT 6SM 31/23 A2980 RMK SLP077 T03100230 IEM_DS3505
ZGNN,1995-09-15 11:00,ZGNN 151100Z AUTO 00000KT 6SM 30/25 A2980 RMK SLP077 T03000250 IEM_DS3505
ZGNN,1995-09-15 12:00,ZGNN 151200Z AUTO 07002KT 9SM 30/24 A2980 RMK SLP078 T02980243 52006 IEM_DS3505
ZGNN,1995-09-15 13:00,ZGNN 151300Z AUTO 00000KT 5SM 27/25 A2983 RMK SLP088 T02700250 IEM_DS3505
ZGNN,1995-09-15 14:00,ZGNN 151400Z AUTO 36002KT 5SM 27/25 A2983 RMK SLP088 T02700250 IEM_DS3505
ZGNN,1995-09-15 15:00,ZGNN 151500Z AUTO 00000KT 9SM 28/25 A2985 RMK SLP093 T02810246 52015 IEM_DS3505
ZGNN,1995-09-15 18:00,ZGNN 151800Z AUTO 00000KT 9SM 28/25 A2985 RMK SLP092 T02750254 54000 IEM_DS3505
ZGNN,1995-09-15 21:00,ZGNN 152100Z AUTO 00000KT 9SM 26/24 A2984 RMK SLP092 T02630237 57001 IEM_DS3505
ZGNN,1995-09-15 22:00,ZGNN 152200Z AUTO 00000KT 1SM 25/25 A2985 RMK SLP095 T02500250 IEM_DS3505
ZGNN,1995-09-15 23:00,ZGNN 152300Z AUTO 02004KT 1 1/4SM 25/23 A2988 RMK SLP106 T02500230 IEM_DS3505
ZGNN,1995-09-16 00:00,ZGNN 160000Z AUTO 09004KT 12SM 27/22 A2988 RMK SLP108 T02690225 52016 IEM_DS3505
ZGNN,1995-09-16 01:00,ZGNN 160100Z AUTO 05004KT 4SM 28/22 A2991 RMK SLP115 T02800220 IEM_DS3505
ZGNN,1995-09-16 02:00,ZGNN 160200Z AUTO 05006KT 6SM 29/22 A2994 RMK SLP125 T02900220 IEM_DS3505
ZGNN,1995-09-16 03:00,ZGNN 160300Z AUTO 07004KT 14SM 31/22 A2993 RMK SLP120 T03070216 52012 IEM_DS3505
ZGNN,1995-09-16 04:00,ZGNN 160400Z AUTO 02006KT 7SM 31/22 A2994 RMK SLP124 T03100220 IEM_DS3505
ZGNN,1995-09-16 05:00,ZGNN 160500Z AUTO 02006KT 7SM 31/22 A2991 RMK SLP114 T03100220 IEM_DS3505
ZGNN,1995-09-16 06:00,ZGNN 160600Z AUTO 02004KT 14SM 32/22 A2988 RMK SLP101 T03190220 57019 IEM_DS3505
ZGNN,1995-09-16 07:00,ZGNN 160700Z AUTO 06008KT 7SM 31/22 A2985 RMK SLP093 T03100220 IEM_DS3505
ZGNN,1995-09-16 08:00,ZGNN 160800Z AUTO 04006KT 7SM 31/22 A2983 RMK SLP087 T03100220 IEM_DS3505
ZGNN,1995-09-16 09:00,ZGNN 160900Z AUTO 09004KT 14SM 32/22 A2983 RMK SLP089 T03170224 57012 IEM_DS3505
ZGNN,1995-09-16 10:00,ZGNN 161000Z AUTO 07004KT 7SM 30/23 A2983 RMK SLP087 T03000230 IEM_DS3505
ZGNN,1995-09-16 11:00,ZGNN 161100Z AUTO 02004KT 7SM 28/23 A2985 RMK SLP094 T02800230 IEM_DS3505
ZGNN,1995-09-16 12:00,ZGNN 161200Z AUTO 04004KT 10SM 29/23 A2988 RMK SLP103 T02900226 52014 IEM_DS3505
ZGNN,1995-09-16 13:00,ZGNN 161300Z AUTO 04004KT 7SM 27/23 A2991 RMK SLP115 T02700230 IEM_DS3505
ZGNN,1995-09-16 15:00,ZGNN 161500Z AUTO 00000KT 9SM 28/22 A2993 RMK SLP122 T02770224 52019 IEM_DS3505
ZGNN,1995-09-16 18:00,ZGNN 161800Z AUTO 04004KT 9SM 27/22 A2992 RMK SLP119 T02730220 57003 IEM_DS3505
ZGNN,1995-09-16 21:00,ZGNN 162100Z AUTO 02006KT 9SM 26/21 A2991 RMK SLP121 T02630206 52002 IEM_DS3505
ZGNN,1995-09-16 22:00,ZGNN 162200Z AUTO 03002KT 5SM 25/22 A2994 RMK SLP126 T02500220 IEM_DS3505
ZGNN,1995-09-16 23:00,ZGNN 162300Z AUTO 07002KT 5SM 24/22 A2994 RMK SLP126 T02400220 IEM_DS3505
ZGNN,1995-09-17 00:00,ZGNN 170000Z AUTO 07004KT 9SM 26/20 A2997 RMK SLP134 T02550200 52012 IEM_DS3505
ZGNN,1995-09-17 01:00,ZGNN 170100Z AUTO 05004KT 7SM 26/20 A2997 RMK SLP136 T02600200 IEM_DS3505
ZGNN,1995-09-17 02:00,ZGNN 170200Z AUTO 06004KT 7SM 27/20 A3000 RMK SLP146 T02700200 IEM_DS3505
ZGNN,1995-09-17 03:00,ZGNN 170300Z AUTO 02006KT 12SM 29/20 A2997 RMK SLP137 T02900201 52004 IEM_DS3505
ZGNN,1995-09-17 05:00,ZGNN 170500Z AUTO 07004KT 7SM 30/20 A2994 RMK SLP125 T03000200 IEM_DS3505
ZGNN,1995-09-17 06:00,ZGNN 170600Z AUTO 07004KT 12SM 30/20 A2991 RMK SLP113 T03030201 57024 IEM_DS3505
ZGNN,1995-09-17 07:00,ZGNN 170700Z AUTO 03004KT 7SM 29/21 A2988 RMK SLP105 T02900210 IEM_DS3505
ZGNN,1995-09-17 08:00,ZGNN 170800Z AUTO 04004KT 7SM 29/21 A2988 RMK SLP105 T02900210 IEM_DS3505
ZGNN,1995-09-17 09:00,ZGNN 170900Z AUTO 02002KT 12SM 29/21 A2988 RMK SLP101 T02940209 57012 IEM_DS3505
ZGNN,1995-09-17 10:00,ZGNN 171000Z AUTO 00000KT 7SM 28/22 A2988 RMK SLP105 T02800220 IEM_DS3505
ZGNN,1995-09-17 11:00,ZGNN 171100Z AUTO 36004KT 7SM 27/21 A2988 RMK SLP105 T02700210 IEM_DS3505
ZGNN,1995-09-17 12:00,ZGNN 171200Z AUTO 04004KT 12SM 28/21 A2991 RMK SLP113 T02800212 52011 IEM_DS3505
ZGNN,1995-09-17 13:00,ZGNN 171300Z AUTO 00000KT 7SM 26/22 A2994 RMK SLP126 T02600220 IEM_DS3505
ZGNN,1995-09-17 15:00,ZGNN 171500Z AUTO 02002KT 11SM 27/21 A2995 RMK SLP127 T02730207 52015 IEM_DS3505
ZGNN,1995-09-17 18:00,ZGNN 171800Z AUTO 00000KT 11SM 26/20 A2993 RMK SLP121 T02580205 57006 IEM_DS3505
ZGNN,1995-09-17 21:00,ZGNN 172100Z AUTO 00000KT 9SM 24/21 A2991 RMK SLP116 T02440206 57006 IEM_DS3505
ZGNN,1995-09-17 22:00,ZGNN 172200Z AUTO 36006KT 7SM 23/20 A2991 RMK SLP117 T02300200 IEM_DS3505
ZGNN,1995-09-17 23:00,ZGNN 172300Z AUTO 35004KT 7SM 22/20 A2991 RMK SLP117 T02200200 IEM_DS3505
ZGNN,1995-09-18 00:00,ZGNN 180000Z AUTO 02004KT 9SM 25/19 A2994 RMK SLP124 T02480191 52008 IEM_DS3505
ZGNN,1995-09-18 01:00,ZGNN 180100Z AUTO 36006KT 6SM 25/20 A2997 RMK SLP136 T02500200 IEM_DS3505
ZGNN,1995-09-18 02:00,ZGNN 180200Z AUTO 36004KT 6SM 26/19 A2997 RMK SLP136 T02600190 IEM_DS3505
ZGNN,1995-09-18 03:00,ZGNN 180300Z AUTO 07004KT 12SM 29/19 A2997 RMK SLP128 T02920186 52005 IEM_DS3505
ZGNN,1995-09-18 04:00,ZGNN 180400Z AUTO 09008KT 6SM 29/19 A2994 RMK SLP125 T02900190 IEM_DS3505
ZGNN,1995-09-18 05:00,ZGNN 180500Z AUTO 02006KT 7SM 30/19 A2991 RMK SLP115 T03000190 IEM_DS3505
ZGNN,1995-09-18 06:00,ZGNN 180600Z AUTO 04006KT 19SM 31/18 A2988 RMK SLP103 T03070181 57025 IEM_DS3505
ZGNN,1995-09-18 07:00,ZGNN 180700Z AUTO 06006KT 7SM 30/19 A2985 RMK SLP093 T03000190 IEM_DS3505
ZGNN,1995-09-18 08:00,ZGNN 180800Z AUTO 04006KT 7SM 29/20 A2983 RMK SLP088 T02900200 IEM_DS3505
ZGNN,1995-09-18 09:00,ZGNN 180900Z AUTO 07004KT 19SM 30/18 A2983 RMK SLP086 T03030179 57017 IEM_DS3505
ZGNN,1995-09-18 10:00,ZGNN 181000Z AUTO 00000KT 6SM 28/21 A2983 RMK SLP088 T02800210 IEM_DS3505
ZGNN,1995-09-18 11:00,ZGNN 181100Z AUTO 03004KT 6SM 27/22 A2983 RMK SLP088 T02700220 IEM_DS3505
ZGNN,1995-09-18 12:00,ZGNN 181200Z AUTO 04002KT 19SM 27/20 A2985 RMK SLP097 T02740203 52010 IEM_DS3505
ZGNN,1995-09-18 14:00,ZGNN 181400Z AUTO 35004KT 7SM 24/21 A2991 RMK SLP116 T02400210 IEM_DS3505
ZGNN,1995-09-18 15:00,ZGNN 181500Z AUTO 00000KT 16SM 26/21 A2991 RMK SLP115 T02580212 57019 IEM_DS3505
ZGNN,1995-09-18 18:00,ZGNN 181800Z AUTO 00000KT 12SM 24/21 A2989 RMK SLP108 T02430207 57007 IEM_DS3505
ZGNN,1995-09-18 21:00,ZGNN 182100Z AUTO 00000KT 11SM 24/22 A2986 RMK SLP100 T02360215 57008 IEM_DS3505
ZGNN,1995-09-18 22:00,ZGNN 182200Z AUTO 02002KT 4SM 23/22 A2988 RMK SLP107 T02300220 IEM_DS3505
ZGNN,1995-09-19 00:00,ZGNN 190000Z AUTO 00000KT 7SM 24/20 A2991 RMK SLP117 T02450196 52016 IEM_DS3505
ZGNN,1995-09-19 01:00,ZGNN 190100Z AUTO 04002KT 2 1/2SM 25/20 A2994 RMK SLP126 T02500200 IEM_DS3505
ZGNN,1995-09-19 02:00,ZGNN 190200Z AUTO 02006KT 6SM 25/18 A2994 RMK SLP126 T02500180 IEM_DS3505
ZGNN,1995-09-19 03:00,ZGNN 190300Z AUTO 02004KT 9SM 29/18 A2994 RMK SLP126 T02860180 52009 IEM_DS3505
ZGNN,1995-09-19 04:00,ZGNN 190400Z AUTO 35006KT 6SM 28/19 A2994 RMK SLP125 T02800190 IEM_DS3505
ZGNN,1995-09-19 05:00,ZGNN 190500Z AUTO 03008KT 6SM 28/18 A2991 RMK SLP115 T02800180 IEM_DS3505
ZGNN,1995-09-19 06:00,ZGNN 190600Z AUTO 07006KT 12SM 29/17 A2988 RMK SLP108 T02870169 57018 IEM_DS3505
ZGNN,1995-09-19 08:00,ZGNN 190800Z AUTO 02006KT 7SM 28/17 A2985 RMK SLP094 T02800170 IEM_DS3505
ZGNN,1995-09-19 09:00,ZGNN 190900Z AUTO 04006KT 12SM 28/16 A2985 RMK SLP096 T02830165 57012 IEM_DS3505
ZGNN,1995-09-19 10:00,ZGNN 191000Z AUTO 33006KT 6SM 27/18 A2985 RMK SLP094 T02700180 IEM_DS3505
ZGNN,1995-09-19 11:00,ZGNN 191100Z AUTO 35008KT 6SM 26/17 A2988 RMK SLP106 T02600170 IEM_DS3505
ZGNN,1995-09-19 12:00,ZGNN 191200Z AUTO 34006KT 12SM 26/18 A2988 RMK SLP114 T02640181 52018 IEM_DS3505
ZGNN,1995-09-19 13:00,ZGNN 191300Z AUTO 01004KT 6SM 24/19 A2991 RMK SLP116 T02400190 IEM_DS3505
ZGNN,1995-09-19 15:00,ZGNN 191500Z AUTO 02008KT 12SM 25/17 A2994 RMK SLP127 T02490174 52013 IEM_DS3505
ZGNN,1995-09-19 18:00,ZGNN 191800Z AUTO 36004KT 9SM 23/19 A2994 RMK SLP124 T02330186 57003 IEM_DS3505
ZGNN,1995-09-19 21:00,ZGNN 192100Z AUTO 02004KT 7SM 23/18 A2989 RMK SLP109 T02320175 57015 IEM_DS3505
ZGNN,1995-09-19 22:00,ZGNN 192200Z AUTO 33006KT 7SM 22/21 A2991 RMK SLP117 T02200210 IEM_DS3505
ZGNN,1995-09-19 23:00,ZGNN 192300Z AUTO 35006KT 7SM 22/21 A2991 RMK SLP117 T02200210 IEM_DS3505
ZGNN,1995-09-20 00:00,ZGNN 200000Z AUTO 02004KT 9SM 24/17 A2994 RMK SLP123 T02370173 52014 IEM_DS3505
ZGNN,1995-09-20 01:00,ZGNN 200100Z AUTO 03004KT 6SM 22/18 A2997 RMK SLP137 T02200180 IEM_DS3505
ZGNN,1995-09-20 02:00,ZGNN 200200Z AUTO 01010KT 6SM 25/19 A2997 RMK SLP136 T02500190 IEM_DS3505
ZGNN,1995-09-20 03:00,ZGNN 200300Z AUTO 07006KT 12SM 28/17 A2997 RMK SLP130 T02750169 52007 IEM_DS3505
ZGNN,1995-09-20 05:00,ZGNN 200500Z AUTO 35010KT 7SM 28/16 A2991 RMK SLP115 T02800160 IEM_DS3505
ZGNN,1995-09-20 06:00,ZGNN 200600Z AUTO 04008KT 16SM 30/15 A2988 RMK SLP102 T03000152 57027 IEM_DS3505
ZGNN,1995-09-20 07:00,ZGNN 200700Z AUTO 34010KT 6SM 29/15 A2985 RMK SLP094 T02900150 IEM_DS3505
ZGNN,1995-09-20 08:00,ZGNN 200800Z AUTO 34006KT 6SM 29/17 A2983 RMK SLP088 T02900170 IEM_DS3505
ZGNN,1995-09-20 09:00,ZGNN 200900Z AUTO 36004KT 16SM 30/16 A2985 RMK SLP092 T02990163 57010 IEM_DS3505
ZGNN,1995-09-20 10:00,ZGNN 201000Z AUTO 34006KT 6SM 28/16 A2985 RMK SLP094 T02800160 IEM_DS3505
ZGNN,1995-09-20 11:00,ZGNN 201100Z AUTO 33004KT 6SM 27/17 A2988 RMK SLP105 T02700170 IEM_DS3505
ZGNN,1995-09-20 12:00,ZGNN 201200Z AUTO 04002KT 16SM 28/17 A2988 RMK SLP108 T02750169 52015 IEM_DS3505
ZGNN,1995-09-20 13:00,ZGNN 201300Z AUTO 33006KT 7SM 25/19 A2991 RMK SLP116 T02500190 IEM_DS3505
ZGNN,1995-09-20 15:00,ZGNN 201500Z AUTO 34004KT 14SM 26/17 A2994 RMK SLP124 T02650171 52016 IEM_DS3505
ZGNN,1995-09-20 18:00,ZGNN 201800Z AUTO 34004KT 12SM 26/17 A2992 RMK SLP117 T02550172 57006 IEM_DS3505
ZGNN,1995-09-20 21:00,ZGNN 202100Z AUTO 04002KT 11SM 25/17 A2991 RMK SLP110 T02480170 57007 IEM_DS3505
ZGNN,1995-09-20 22:00,ZGNN 202200Z AUTO 33006KT 6SM 24/18 A2991 RMK SLP116 T02400180 IEM_DS3505
ZGNN,1995-09-20 23:00,ZGNN 202300Z AUTO 33006KT 6SM 24/17 A2994 RMK SLP126 T02400170 IEM_DS3505
ZGNN,1995-09-21 00:00,ZGNN 210000Z AUTO 36004KT 9SM 25/17 A2994 RMK SLP127 T02490169 52016 IEM_DS3505
ZGNN,1995-09-21 01:00,ZGNN 210100Z AUTO 36004KT 6SM 24/19 A2997 RMK SLP136 T02400190 IEM_DS3505
ZGNN,1995-09-21 02:00,ZGNN 210200Z AUTO 36004KT 6SM 26/18 A3000 RMK SLP146 T02600180 IEM_DS3505
ZGNN,1995-09-21 03:00,ZGNN 210300Z AUTO 34004KT 14SM 28/16 A2997 RMK SLP134 T02800163 52007 IEM_DS3505
ZGNN,1995-09-21 04:00,ZGNN 210400Z AUTO 33008KT 6SM 28/16 A2997 RMK SLP135 T02800160 IEM_DS3505
ZGNN,1995-09-21 05:00,ZGNN 210500Z AUTO 04004KT 7SM 29/16 A2994 RMK SLP125 T02900160 IEM_DS3505
ZGNN,1995-09-21 06:00,ZGNN 210600Z AUTO 02002KT 16SM 30/15 A2991 RMK SLP112 T03030147 57021 IEM_DS3505
ZGNN,1995-09-21 07:00,ZGNN 210700Z AUTO 04004KT 7SM 30/14 A2988 RMK SLP105 T03000140 IEM_DS3505
ZGNN,1995-09-21 08:00,ZGNN 210800Z AUTO 01006KT 6SM 30/14 A2985 RMK SLP093 T03000140 IEM_DS3505
ZGNN,1995-09-21 09:00,ZGNN 210900Z AUTO 29006KT 19SM 30/14 A2985 RMK SLP094 T03050137 57018 IEM_DS3505
ZGNN,1995-09-21 10:00,ZGNN 211000Z AUTO 35004KT 7SM 29/16 A2985 RMK SLP094 T02900160 IEM_DS3505
ZGNN,1995-09-21 11:00,ZGNN 211100Z AUTO 00000KT 7SM 27/15 A2985 RMK SLP094 T02700150 IEM_DS3505
ZGNN,1995-09-21 12:00,ZGNN 211200Z AUTO 04002KT 12SM 27/18 A2988 RMK SLP106 T02690175 52011 IEM_DS3505
ZGNN,1995-09-21 13:00,ZGNN 211300Z AUTO 00000KT 6SM 24/19 A2988 RMK SLP106 T02400190 IEM_DS3505
ZGNN,1995-09-21 14:00,ZGNN 211400Z AUTO 00000KT 6SM 24/19 A2991 RMK SLP116 T02400190 IEM_DS3505
ZGNN,1995-09-21 15:00,ZGNN 211500Z AUTO 00000KT 11SM 24/18 A2992 RMK SLP120 T02440183 52014 IEM_DS3505
ZGNN,1995-09-21 18:00,ZGNN 211800Z AUTO 00000KT 11SM 22/19 A2989 RMK SLP110 T02210190 57010 IEM_DS3505
ZGNN,1995-09-21 21:00,ZGNN 212100Z AUTO 00000KT 7SM 19/12 A2988 RMK SLP123 T01880122 52003 IEM_DS3505
ZGNN,1995-09-21 22:00,ZGNN 212200Z AUTO 03004KT 5SM 20/19 A2991 RMK SLP117 T02000190 IEM_DS3505
ZGNN,1995-09-21 23:00,ZGNN 212300Z AUTO 19004KT 6SM 19/18 A2991 RMK SLP118 T01900180 IEM_DS3505
ZGNN,1995-09-22 00:00,ZGNN 220000Z AUTO 00000KT 7SM 21/19 A2994 RMK SLP123 T02130188 52013 IEM_DS3505
ZGNN,1995-09-22 01:00,ZGNN 220100Z AUTO 34004KT 6SM 25/15 A2994 RMK SLP126 T02500150 IEM_DS3505
ZGNN,1995-09-22 02:00,ZGNN 220200Z AUTO 36006KT 6SM 26/16 A2997 RMK SLP136 T02600160 IEM_DS3505
ZGNN,1995-09-22 03:00,ZGNN 220300Z AUTO 00000KT 12SM 28/16 A2994 RMK SLP128 T02850156 52005 IEM_DS3505
ZGNN,1995-09-22 04:00,ZGNN 220400Z AUTO 06006KT 6SM 29/15 A2994 RMK SLP125 T02900150 IEM_DS3505
ZGNN,1995-09-22 05:00,ZGNN 220500Z AUTO 31006KT 6SM 30/15 A2991 RMK SLP115 T03000150 IEM_DS3505
ZGNN,1995-09-22 06:00,ZGNN 220600Z AUTO 14004KT 19SM 31/14 A2987 RMK SLP101 T03140144 57026 IEM_DS3505
ZGNN,1995-09-22 07:00,ZGNN 220700Z AUTO 02006KT 7SM 31/14 A2985 RMK SLP093 T03100140 IEM_DS3505
ZGNN,1995-09-22 09:00,ZGNN 220900Z AUTO 09002KT 19SM 31/14 A2984 RMK SLP089 T03100144 57013 IEM_DS3505
ZGNN,1995-09-22 11:00,ZGNN 221100Z AUTO 00000KT 6SM 27/17 A2985 RMK SLP094 T02700170 IEM_DS3505
ZGNN,1995-09-22 12:00,ZGNN 221200Z AUTO 00000KT 16SM 27/18 A2988 RMK SLP101 T02660184 52012 IEM_DS3505
ZGNN,1995-09-22 13:00,ZGNN 221300Z AUTO 00000KT 7SM 22/19 A2991 RMK SLP117 T02200190 IEM_DS3505
ZGNN,1995-09-22 14:00,ZGNN 221400Z AUTO 00000KT 7SM 21/19 A2991 RMK SLP117 T02100190 IEM_DS3505
ZGNN,1995-09-22 15:00,ZGNN 221500Z AUTO 00000KT 16SM 24/20 A2991 RMK SLP115 T02430200 52014 IEM_DS3505
ZGNN,1995-09-22 18:00,ZGNN 221800Z AUTO 00000KT 12SM 22/19 A2988 RMK SLP105 T02250194 57009 IEM_DS3505
ZGNN,1995-09-22 21:00,ZGNN 222100Z AUTO 00000KT 9SM 21/19 A2987 RMK SLP102 T02130186 57004 IEM_DS3505
ZGNN,1995-09-22 22:00,ZGNN 222200Z AUTO 00000KT 4SM 19/17 A2988 RMK SLP108 T01900170 IEM_DS3505
ZGNN,1995-09-22 23:00,ZGNN 222300Z AUTO 00000KT 5SM 19/17 A2991 RMK SLP118 T01900170 IEM_DS3505
ZGNN,1995-09-23 00:00,ZGNN 230000Z AUTO 00000KT 7SM 21/19 A2992 RMK SLP120 T02130188 52018 IEM_DS3505
ZGNN,1995-09-23 01:00,ZGNN 230100Z AUTO 00000KT 5SM 24/19 A2994 RMK SLP126 T02400190 IEM_DS3505
ZGNN,1995-09-23 02:00,ZGNN 230200Z AUTO 00000KT 7SM 26/20 A2994 RMK SLP126 T02600200 IEM_DS3505
ZGNN,1995-09-23 03:00,ZGNN 230300Z AUTO 07002KT 4SM 28/20 A2994 RMK SLP131 T02830205 52011 IEM_DS3505
ZGNN,1995-09-23 04:00,ZGNN 230400Z AUTO 35004KT 6SM 30/19 A2994 RMK SLP125 T03000190 IEM_DS3505
ZGNN,1995-09-23 05:00,ZGNN 230500Z AUTO 00000KT 6SM 31/18 A2991 RMK SLP114 T03100180 IEM_DS3505
ZGNN,1995-09-23 06:00,ZGNN 230600Z AUTO 04004KT 12SM 32/17 A2988 RMK SLP101 T03180168 57029 IEM_DS3505
ZGNN,1995-09-23 07:00,ZGNN 230700Z AUTO 07004KT 7SM 31/16 A2985 RMK SLP093 T03100160 IEM_DS3505
ZGNN,1995-09-23 08:00,ZGNN 230800Z AUTO 04004KT 7SM 31/17 A2983 RMK SLP087 T03100170 IEM_DS3505
ZGNN,1995-09-23 09:00,ZGNN 230900Z AUTO 07006KT 14SM 32/15 A2983 RMK SLP089 T03180151 57012 IEM_DS3505
ZGNN,1995-09-23 10:00,ZGNN 231000Z AUTO 00000KT 6SM 29/19 A2985 RMK SLP094 T02900190 IEM_DS3505
ZGNN,1995-09-23 12:00,ZGNN 231200Z AUTO 00000KT 12SM 28/19 A2988 RMK SLP110 T02750189 52020 IEM_DS3505
ZGNN,1995-09-23 13:00,ZGNN 231300Z AUTO 36004KT 6SM 23/20 A2991 RMK SLP117 T02300200 IEM_DS3505
ZGNN,1995-09-23 15:00,ZGNN 231500Z AUTO 00000KT 11SM 25/19 A2994 RMK SLP127 T02490194 52017 IEM_DS3505
ZGNN,1995-09-23 18:00,ZGNN 231800Z AUTO 04002KT 11SM 23/20 A2994 RMK SLP124 T02290197 57002 IEM_DS3505
ZGNN,1995-09-23 21:00,ZGNN 232100Z AUTO 04002KT 8SM 22/19 A2991 RMK SLP119 T02210190 57006 IEM_DS3505
ZGNN,1995-09-23 22:00,ZGNN 232200Z AUTO 00000KT 3SM 20/19 A2994 RMK SLP128 T02000190 IEM_DS3505
ZGNN,1995-09-23 23:00,ZGNN 232300Z AUTO 00000KT 4SM 20/19 A2994 RMK SLP128 T02000190 IEM_DS3505
ZGNN,1995-09-24 00:00,ZGNN 240000Z AUTO 00000KT 7SM 22/18 A2997 RMK SLP132 T02190179 52013 IEM_DS3505
ZGNN,1995-09-24 01:00,ZGNN 240100Z AUTO 00000KT 4SM 24/18 A2997 RMK SLP136 T02400180 IEM_DS3505
ZGNN,1995-09-24 02:00,ZGNN 240200Z AUTO 00000KT 4SM 27/19 A2997 RMK SLP136 T02700190 IEM_DS3505
ZGNN,1995-09-24 03:00,ZGNN 240300Z AUTO 00000KT 11SM 28/18 A2997 RMK SLP138 T02840183 52006 IEM_DS3505
ZGNN,1995-09-24 04:00,ZGNN 240400Z AUTO 15006KT 7SM 31/15 A2997 RMK SLP134 T03100150 IEM_DS3505
ZGNN,1995-09-24 05:00,ZGNN 240500Z AUTO 12004KT 7SM 32/16 A2994 RMK SLP124 T03200160 IEM_DS3505
ZGNN,1995-09-24 06:00,ZGNN 240600Z AUTO 14004KT 10SM 32/16 A2991 RMK SLP114 T03250161 57023 IEM_DS3505
ZGNN,1995-09-24 07:00,ZGNN 240700Z AUTO 11004KT 7SM 32/15 A2988 RMK SLP104 T03200150 IEM_DS3505
ZGNN,1995-09-24 08:00,ZGNN 240800Z AUTO 08002KT 7SM 32/15 A2988 RMK SLP104 T03200150 IEM_DS3505
ZGNN,1995-09-24 09:00,ZGNN 240900Z AUTO 07004KT 11SM 32/16 A2983 RMK SLP102 T03210160 57012 IEM_DS3505
ZGNN,1995-09-24 10:00,ZGNN 241000Z AUTO 12004KT 6SM 29/18 A2988 RMK SLP105 T02900180 IEM_DS3505
ZGNN,1995-09-24 11:00,ZGNN 241100Z AUTO 00000KT 6SM 28/19 A2991 RMK SLP115 T02800190 IEM_DS3505
ZGNN,1995-09-24 12:00,ZGNN 241200Z AUTO 04002KT 11SM 28/19 A2991 RMK SLP118 T02770191 52015 IEM_DS3505
ZGNN,1995-09-24 13:00,ZGNN 241300Z AUTO 00000KT 7SM 24/20 A2994 RMK SLP126 T02400200 IEM_DS3505
ZGNN,1995-09-24 15:00,ZGNN 241500Z AUTO 07002KT 11SM 26/20 A2996 RMK SLP134 T02550197 52016 IEM_DS3505
ZGNN,1995-09-24 18:00,ZGNN 241800Z AUTO 04002KT 9SM 24/20 A2996 RMK SLP131 T02350200 57002 IEM_DS3505
ZGNN,1995-09-24 21:00,ZGNN 242100Z AUTO 04002KT 9SM 23/18 A2997 RMK SLP133 T02280182 52001 IEM_DS3505
ZGNN,1995-09-24 23:00,ZGNN 242300Z AUTO 00000KT 2 1/2SM 21/20 A2997 RMK SLP137 T02100200 IEM_DS3505
ZGNN,1995-09-25 00:00,ZGNN 250000Z AUTO 04004KT 7SM 23/18 A3000 RMK SLP149 T02320181 52016 IEM_DS3505
ZGNN,1995-09-25 02:00,ZGNN 250200Z AUTO 00000KT 6SM 27/20 A3003 RMK SLP156 T02700200 IEM_DS3505
ZGNN,1995-09-25 03:00,ZGNN 250300Z AUTO 27002KT 9SM 29/20 A3003 RMK SLP156 T02900205 52007 IEM_DS3505
ZGNN,1995-09-25 05:00,ZGNN 250500Z AUTO 05002KT 6SM 32/17 A3000 RMK SLP144 T03200170 IEM_DS3505
ZGNN,1995-09-25 06:00,ZGNN 250600Z AUTO 02006KT 11SM 30/20 A2997 RMK SLP135 T02980202 57021 IEM_DS3505
ZGNN,1995-09-25 07:00,ZGNN 250700Z AUTO 35010KT 7SM 27/19 A2994 RMK SLP126 T02700190 IEM_DS3505
ZGNN,1995-09-25 08:00,ZGNN 250800Z AUTO 35008KT 7SM 27/21 A2994 RMK SLP126 T02700210 IEM_DS3505
ZGNN,1995-09-25 09:00,ZGNN 250900Z AUTO 07006KT 16SM 28/20 A2994 RMK SLP125 T02770205 57010 IEM_DS3505
ZGNN,1995-09-25 10:00,ZGNN 251000Z AUTO 01006KT 6SM 27/20 A2994 RMK SLP126 T02700200 IEM_DS3505
ZGNN,1995-09-25 11:00,ZGNN 251100Z AUTO 36004KT 5SM 26/20 A2994 RMK SLP126 T02600200 IEM_DS3505
ZGNN,1995-09-25 12:00,ZGNN 251200Z AUTO 00000KT 12SM 26/21 A2997 RMK SLP133 T02640210 52008 IEM_DS3505
ZGNN,1995-09-25 13:00,ZGNN 251300Z AUTO 00000KT 4SM 24/20 A3000 RMK SLP147 T02400200 IEM_DS3505
ZGNN,1995-09-25 14:00,ZGNN 251400Z AUTO 00000KT 4SM 24/20 A3000 RMK SLP147 T02400200 IEM_DS3505
ZGNN,1995-09-25 15:00,ZGNN 251500Z AUTO 00000KT 12SM 25/21 A3000 RMK SLP145 T02530211 52012 IEM_DS3505
ZGNN,1995-09-25 18:00,ZGNN 251800Z AUTO 04002KT 10SM 24/21 A2998 RMK SLP138 T02370208 57007 IEM_DS3505
ZGNN,1995-09-25 21:00,ZGNN 252100Z AUTO 00000KT 9SM 23/20 A2997 RMK SLP138 T02290203 54000 IEM_DS3505
ZGNN,1995-09-26 00:00,ZGNN 260000Z AUTO 00000KT 9SM 23/20 A3002 RMK SLP152 T02320203 52014 IEM_DS3505
ZGNN,1995-09-26 01:00,ZGNN 260100Z AUTO 00000KT 2 1/2SM 23/20 A3003 RMK SLP157 T02300200 IEM_DS3505
ZGNN,1995-09-26 02:00,ZGNN 260200Z AUTO 00000KT 2 1/2SM RMK IEM_DS3505
ZGNN,1995-09-26 03:00,ZGNN 260300Z AUTO 34002KT 11SM 28/22 A3003 RMK SLP154 T02750219 52002 IEM_DS3505
ZGNN,1995-09-26 04:00,ZGNN 260400Z AUTO 09004KT 7SM 30/21 A3000 RMK SLP145 T03000210 IEM_DS3505
ZGNN,1995-09-26 05:00,ZGNN 260500Z AUTO 13002KT 7SM 30/21 A2997 RMK SLP135 T03000210 IEM_DS3505
ZGNN,1995-09-26 06:00,ZGNN 260600Z AUTO 11004KT 12SM 31/22 A2995 RMK SLP128 T03120217 57025 IEM_DS3505
ZGNN,1995-09-26 07:00,ZGNN 260700Z AUTO 12004KT 7SM 31/21 A2994 RMK SLP124 T03100210 IEM_DS3505
ZGNN,1995-09-26 08:00,ZGNN 260800Z AUTO 13006KT 7SM RMK IEM_DS3505
ZGNN,1995-09-26 09:00,ZGNN 260900Z AUTO 00000KT 12SM 31/22 A2992 RMK SLP117 T03070218 57012 IEM_DS3505
ZGNN,1995-09-26 12:00,ZGNN 261200Z AUTO 00000KT 12SM 28/22 A2994 RMK SLP128 T02850222 52011 IEM_DS3505
ZGNN,1995-09-26 14:00,ZGNN 261400Z AUTO 15004KT 6SM 25/21 A3000 RMK SLP146 T02500210 IEM_DS3505
ZGNN,1995-09-26 15:00,ZGNN 261500Z AUTO 09002KT 12SM 26/22 A3000 RMK SLP145 T02610223 52017 IEM_DS3505
ZGNN,1995-09-26 18:00,ZGNN 261800Z AUTO 09002KT 11SM 25/22 A2999 RMK SLP143 T02490225 57001 IEM_DS3505
ZGNN,1995-09-26 21:00,ZGNN 262100Z AUTO 00000KT 11SM 24/22 A2997 RMK SLP131 T02420221 57012 IEM_DS3505
ZGNN,1995-09-26 22:00,ZGNN 262200Z AUTO 00000KT 2 1/2SM 22/22 A2997 RMK SLP137 T02200220 IEM_DS3505
ZGNN,1995-09-26 23:00,ZGNN 262300Z AUTO 00000KT 2SM 22/22 A2997 RMK SLP137 T02200220 IEM_DS3505
ZGNN,1995-09-27 00:00,ZGNN 270000Z AUTO 09002KT 4SM 24/22 A2997 RMK SLP142 T02430225 52010 IEM_DS3505
ZGNN,1995-09-27 01:00,ZGNN 270100Z AUTO 17004KT 3SM 26/23 A3000 RMK SLP146 T02600230 IEM_DS3505
ZGNN,1995-09-27 02:00,ZGNN 270200Z AUTO 16006KT 7SM 28/23 A3000 RMK SLP145 T02800230 IEM_DS3505
ZGNN,1995-09-27 03:00,ZGNN 270300Z AUTO 27002KT 7SM 30/22 A3000 RMK SLP142 T02990217 52001 IEM_DS3505
ZGNN,1995-09-27 04:00,ZGNN 270400Z AUTO 16006KT 7SM 32/21 A2997 RMK SLP134 T03200210 IEM_DS3505
ZGNN,1995-09-27 05:00,ZGNN 270500Z AUTO 13008KT 7SM 32/20 A2994 RMK SLP124 T03200200 IEM_DS3505
ZGNN,1995-09-27 06:00,ZGNN 270600Z AUTO 09004KT 19SM 32/29 A2991 RMK SLP115 T03240289 57027 IEM_DS3505
ZGNN,1995-09-27 08:00,ZGNN 270800Z AUTO 12008KT 7SM 33/19 A2988 RMK SLP104 T03300190 IEM_DS3505
ZGNN,1995-09-27 09:00,ZGNN 270900Z AUTO 00000KT 19SM 33/20 A2988 RMK SLP103 T03260195 57012 IEM_DS3505
ZGNN,1995-09-27 10:00,ZGNN 271000Z AUTO 15006KT 7SM 31/19 A2988 RMK SLP104 T03100190 IEM_DS3505
ZGNN,1995-09-27 11:00,ZGNN 271100Z AUTO 16006KT 7SM 28/21 A2991 RMK SLP115 T02800210 IEM_DS3505
ZGNN,1995-09-27 12:00,ZGNN 271200Z AUTO 20002KT 16SM 29/22 A2991 RMK SLP116 T02900216 52012 IEM_DS3505
ZGNN,1995-09-27 13:00,ZGNN 271300Z AUTO 00000KT 7SM 26/20 A2994 RMK SLP126 T02600200 IEM_DS3505
ZGNN,1995-09-27 14:00,ZGNN 271400Z AUTO 00000KT 7SM 26/20 A2997 RMK SLP136 T02600200 IEM_DS3505
ZGNN,1995-09-27 15:00,ZGNN 271500Z AUTO 00000KT 12SM 27/22 A2997 RMK SLP131 T02670217 52016 IEM_DS3505
ZGNN,1995-09-27 18:00,ZGNN 271800Z AUTO 18002KT 12SM 25/22 A2996 RMK SLP130 T02540220 57001 IEM_DS3505
ZGNN,1995-09-27 21:00,ZGNN 272100Z AUTO 00000KT 12SM 25/22 A2994 RMK SLP120 T02470225 57010 IEM_DS3505
ZGNN,1995-09-27 22:00,ZGNN 272200Z AUTO 00000KT 2 1/2SM 22/21 A2994 RMK SLP127 T02200210 IEM_DS3505
ZGNN,1995-09-27 23:00,ZGNN 272300Z AUTO 36004KT 1 1/4SM 23/22 A2994 RMK SLP127 T02300220 IEM_DS3505
ZGNN,1995-09-28 00:00,ZGNN 280000Z AUTO 00000KT 9SM 24/22 A2994 RMK SLP133 T02410223 52012 IEM_DS3505
ZGNN,1995-09-28 01:00,ZGNN 280100Z AUTO 15004KT 4SM 26/24 A2997 RMK SLP136 T02600240 IEM_DS3505
ZGNN,1995-09-28 02:00,ZGNN 280200Z AUTO 13008KT 7SM 28/23 A2997 RMK SLP135 T02800230 IEM_DS3505
ZGNN,1995-09-28 03:00,ZGNN 280300Z AUTO 25004KT 12SM 29/23 A2997 RMK SLP135 T02940229 52003 IEM_DS3505
ZGNN,1995-09-28 04:00,ZGNN 280400Z AUTO 15006KT 7SM 31/22 A2997 RMK SLP134 T03100220 IEM_DS3505
ZGNN,1995-09-28 05:00,ZGNN 280500Z AUTO 17004KT 7SM 32/21 A2991 RMK SLP114 T03200210 IEM_DS3505
ZGNN,1995-09-28 06:00,ZGNN 280600Z AUTO 09002KT 16SM 31/23 A2988 RMK SLP108 T03080229 57027 IEM_DS3505
ZGNN,1995-09-28 07:00,ZGNN 280700Z AUTO 16004KT 7SM 34/19 A2985 RMK SLP092 T03400190 IEM_DS3505
ZGNN,1995-09-28 08:00,ZGNN 280800Z AUTO 07008KT 7SM 31/22 A2985 RMK SLP093 T03100220 IEM_DS3505
ZGNN,1995-09-28 09:00,ZGNN 280900Z AUTO 09006KT 16SM 30/24 A2985 RMK SLP093 T03050235 57015 IEM_DS3505
ZGNN,1995-09-28 10:00,ZGNN 281000Z AUTO 09006KT 7SM 29/23 A2985 RMK SLP094 T02900230 IEM_DS3505
ZGNN,1995-09-28 11:00,ZGNN 281100Z AUTO 10006KT 7SM 25/23 A2988 RMK SLP106 T02500230 IEM_DS3505
ZGNN,1995-09-28 12:00,ZGNN 281200Z AUTO 00000KT 12SM 27/23 A2988 RMK SLP111 T02730231 52017 IEM_DS3505
ZGNN,1995-09-28 14:00,ZGNN 281400Z AUTO 00000KT 7SM 25/23 A2994 RMK SLP126 T02500230 IEM_DS3505
ZGNN,1995-09-28 15:00,ZGNN 281500Z AUTO 09002KT 12SM 26/23 A2993 RMK SLP123 T02630234 52013 IEM_DS3505
ZGNN,1995-09-28 18:00,ZGNN 281800Z AUTO 00000KT 12SM 26/23 A2993 RMK SLP120 T02580229 57003 IEM_DS3505
ZGNN,1995-09-28 21:00,ZGNN 282100Z AUTO 00000KT 11SM 25/24 A2988 RMK SLP108 T02520235 57012 IEM_DS3505
ZGNN,1995-09-28 22:00,ZGNN 282200Z AUTO 00000KT 7SM 24/23 A2991 RMK SLP116 T02400230 IEM_DS3505
ZGNN,1995-09-28 23:00,ZGNN 282300Z AUTO 00000KT 4SM 24/23 A2991 RMK SLP116 T02400230 IEM_DS3505
ZGNN,1995-09-29 00:00,ZGNN 290000Z AUTO 00000KT 7SM 26/24 A2991 RMK SLP117 T02550235 52008 IEM_DS3505
ZGNN,1995-09-29 01:00,ZGNN 290100Z AUTO 09004KT 4SM 26/24 A2994 RMK SLP126 T02600240 IEM_DS3505
ZGNN,1995-09-29 02:00,ZGNN 290200Z AUTO 09004KT 7SM 27/24 A2994 RMK SLP126 T02700240 IEM_DS3505
ZGNN,1995-09-29 03:00,ZGNN 290300Z AUTO 22004KT 9SM 27/24 A2994 RMK SLP128 T02730244 52011 IEM_DS3505
ZGNN,1995-09-29 04:00,ZGNN 290400Z AUTO 13012KT 7SM 28/23 A2994 RMK SLP125 T02800230 IEM_DS3505
ZGNN,1995-09-29 05:00,ZGNN 290500Z AUTO 12008KT 7SM 29/24 A2988 RMK SLP105 T02900240 IEM_DS3505
ZGNN,1995-09-29 06:00,ZGNN 290600Z AUTO 00000KT 9SM 28/24 A2985 RMK 60004 SLP101 T02780236 57026 IEM_DS3505
ZGNN,1995-09-29 07:00,ZGNN 290700Z AUTO 17014KT 7SM 30/24 A2985 RMK SLP093 T03000240 IEM_DS3505
ZGNN,1995-09-29 08:00,ZGNN 290800Z AUTO 13008KT 7SM 28/23 A2983 RMK SLP088 T02800230 IEM_DS3505
ZGNN,1995-09-29 09:00,ZGNN 290900Z AUTO 00000KT 9SM 26/24 A2983 RMK SLP095 T02580238 57007 IEM_DS3505
ZGNN,1995-09-29 10:00,ZGNN 291000Z AUTO 06004KT 7SM 26/24 A2983 RMK SLP088 T02600240 IEM_DS3505
ZGNN,1995-09-29 11:00,ZGNN 291100Z AUTO 02006KT 7SM 26/24 A2983 RMK SLP088 T02600240 IEM_DS3505
ZGNN,1995-09-29 12:00,ZGNN 291200Z AUTO 04004KT 9SM 25/24 A2985 RMK 60000 SLP102 T02520239 52007 IEM_DS3505
ZGNN,1995-09-29 13:00,ZGNN 291300Z AUTO 00000KT 7SM 25/24 A2991 RMK SLP116 T02500240 IEM_DS3505
ZGNN,1995-09-29 15:00,ZGNN 291500Z AUTO 09004KT 9SM 24/23 A2992 RMK SLP120 T02420227 52018 IEM_DS3505
ZGNN,1995-09-29 18:00,ZGNN 291800Z AUTO 07004KT 10SM 24/22 A2988 RMK SLP106 T02390223 57014 IEM_DS3505
ZGNN,1995-09-29 21:00,ZGNN 292100Z AUTO 07004KT 11SM 24/22 A2986 RMK 70008 SLP100 T02390221 57006 IEM_DS3505
ZGNN,1995-09-29 22:00,ZGNN 292200Z AUTO 06004KT 7SM 24/23 A2988 RMK SLP106 T02400230 IEM_DS3505
ZGNN,1995-09-29 23:00,ZGNN 292300Z AUTO 08004KT 7SM 24/22 A2988 RMK SLP106 T02400220 IEM_DS3505
ZGNN,1995-09-30 00:00,ZGNN 300000Z AUTO 04004KT 7SM 24/22 A2988 RMK 70008 SLP116 T02360223 52016 IEM_DS3505
ZGNN,1995-09-30 02:00,ZGNN 300200Z AUTO 03002KT 4SM 24/23 A2994 RMK SLP126 T02400230 IEM_DS3505
ZGNN,1995-09-30 03:00,ZGNN 300300Z AUTO 04004KT 12SM 26/23 A2994 RMK SLP129 T02640226 52013 IEM_DS3505
ZGNN,1995-09-30 04:00,ZGNN 300400Z AUTO 00000KT 4SM 25/24 A2994 RMK SLP126 T02500240 IEM_DS3505
ZGNN,1995-09-30 05:00,ZGNN 300500Z AUTO 05004KT 4SM 26/24 A2991 RMK SLP116 T02600240 IEM_DS3505
ZGNN,1995-09-30 06:00,ZGNN 300600Z AUTO 18002KT 14SM 28/23 A2988 RMK 60000 SLP110 T02810229 57019 IEM_DS3505
ZGNN,1995-09-30 07:00,ZGNN 300700Z AUTO 00000KT 7SM 28/24 A2988 RMK SLP105 T02800240 IEM_DS3505
ZGNN,1995-09-30 08:00,ZGNN 300800Z AUTO 00000KT 7SM 29/23 A2985 RMK SLP094 T02900230 IEM_DS3505
ZGNN,1995-09-30 09:00,ZGNN 300900Z AUTO 00000KT 16SM 28/23 A2985 RMK SLP100 T02850230 57010 IEM_DS3505
ZGNN,1995-09-30 10:00,ZGNN 301000Z AUTO 06006KT 7SM 28/24 A2985 RMK SLP094 T02800240 IEM_DS3505
ZGNN,1995-09-30 11:00,ZGNN 301100Z AUTO 04004KT 7SM 27/24 A2985 RMK SLP094 T02700240 IEM_DS3505
ZGNN,1995-09-30 12:00,ZGNN 301200Z AUTO 07006KT 12SM 25/22 A2988 RMK SLP114 T02510220 52014 IEM_DS3505
ZGNN,1995-09-30 13:00,ZGNN 301300Z AUTO 08008KT 7SM 25/23 A2991 RMK SLP116 T02500230 IEM_DS3505
ZGNN,1995-09-30 14:00,ZGNN 301400Z AUTO 04004KT 7SM 25/22 A2994 RMK SLP126 T02500220 IEM_DS3505
ZGNN,1995-09-30 15:00,ZGNN 301500Z AUTO 07004KT 12SM 24/22 A2994 RMK SLP124 T02440219 52010 IEM_DS3505
ZGNN,1995-09-30 16:00,ZGNN 301600Z AUTO 07004KT 7SM 25/23 A2994 RMK SLP126 T02500230 IEM_DS3505
ZGNN,1995-09-30 18:00,ZGNN 301800Z AUTO 00000KT 12SM 24/22 A2992 RMK SLP120 T02430219 57004 IEM_DS3505
ZGNN,1995-09-30 21:00,ZGNN 302100Z AUTO 00000KT 9SM 23/22 A2991 RMK 70008 SLP115 T02340225 57005 IEM_DS3505
ZGNN,1995-09-30 22:00,ZGNN 302200Z AUTO 00000KT 5SM 23/22 A2991 RMK SLP117 T02300220 IEM_DS3505
ZGNN,1995-09-30 23:00,ZGNN 302300Z AUTO 03004KT 2 1/2SM 23/22 A2994 RMK SLP127 T02300220 IEM_DS3505
ZGNN,1995-10-01 00:00,ZGNN 010000Z AUTO 00000KT 11SM 24/22 A2997 RMK 60012 70012 SLP133 T02400225 52018 IEM_DS3505
ZGNN,1995-10-01 01:00,ZGNN 010100Z AUTO 00000KT 2 1/2SM 24/22 A2997 RMK SLP137 T02400220 IEM_DS3505
ZGNN,1995-10-01 02:00,ZGNN 010200Z AUTO 06004KT 2 1/2SM 25/22 A2997 RMK SLP137 T02500220 IEM_DS3505
ZGNN,1995-10-01 03:00,ZGNN 010300Z AUTO 07002KT 11SM 26/23 A2997 RMK SLP139 T02620231 52006 IEM_DS3505
ZGNN,1995-10-01 04:00,ZGNN 010400Z AUTO 06006KT 7SM 27/23 A2997 RMK SLP137 T02700230 IEM_DS3505
ZGNN,1995-10-01 05:00,ZGNN 010500Z AUTO 07004KT 7SM 27/23 A2994 RMK SLP127 T02700230 IEM_DS3505
ZGNN,1995-10-01 06:00,ZGNN 010600Z AUTO 00000KT 11SM 29/23 A2991 RMK SLP118 T02870229 57021 IEM_DS3505
ZGNN,1995-10-01 07:00,ZGNN 010700Z AUTO 00000KT 7SM 29/23 A2988 RMK SLP106 T02900230 IEM_DS3505
ZGNN,1995-10-01 08:00,ZGNN 010800Z AUTO 01006KT 7SM 29/23 A2985 RMK SLP096 T02900230 IEM_DS3505
ZGNN,1995-10-01 09:00,ZGNN 010900Z AUTO 07002KT 12SM 30/23 A2985 RMK SLP101 T02960234 57017 IEM_DS3505
ZGNN,1995-10-01 10:00,ZGNN 011000Z AUTO 03004KT 7SM 29/23 A2985 RMK SLP096 T02900230 IEM_DS3505
ZGNN,1995-10-01 11:00,ZGNN 011100Z AUTO 01002KT 7SM 27/24 A2988 RMK SLP106 T02700240 IEM_DS3505
ZGNN,1995-10-01 12:00,ZGNN 011200Z AUTO 00000KT 12SM 28/24 A2988 RMK SLP109 T02750236 52008 IEM_DS3505
ZGNN,1995-10-01 13:00,ZGNN 011300Z AUTO 36004KT 4SM 25/24 A2991 RMK SLP117 T02500240 IEM_DS3505
ZGNN,1995-10-01 15:00,ZGNN 011500Z AUTO 00000KT 9SM 26/24 A2993 RMK SLP125 T02620240 52016 IEM_DS3505
ZGNN,1995-10-01 16:00,ZGNN 011600Z AUTO 07004KT 7SM 25/23 A2994 RMK SLP127 T02500230 IEM_DS3505
ZGNN,1995-10-01 18:00,ZGNN 011800Z AUTO 00000KT 9SM 25/24 A2989 RMK SLP110 T02510241 57014 IEM_DS3505
ZGNN,1995-10-01 21:00,ZGNN 012100Z AUTO 00000KT 9SM 25/24 A2988 RMK 70004 SLP109 T02460237 57001 IEM_DS3505
ZGNN,1995-10-01 22:00,ZGNN 012200Z AUTO 00000KT 1 1/2SM 23/23 A2991 RMK SLP118 T02300230 IEM_DS3505
ZGNN,1995-10-01 23:00,ZGNN 012300Z AUTO 00000KT 1SM 23/22 A2991 RMK SLP118 T02300220 IEM_DS3505
ZGNN,1995-10-02 00:00,ZGNN 020000Z AUTO 00000KT 4SM 25/24 A2994 RMK SLP123 T02530236 52013 IEM_DS3505
ZGNN,1995-10-02 01:00,ZGNN 020100Z AUTO 04002KT 3SM 28/24 A2994 RMK SLP126 T02800240 IEM_DS3505
ZGNN,1995-10-02 02:00,ZGNN 020200Z AUTO 34006KT 7SM 28/23 A2994 RMK SLP126 T02800230 IEM_DS3505
ZGNN,1995-10-02 03:00,ZGNN 020300Z AUTO 09004KT 12SM 31/23 A2994 RMK SLP124 T03060230 52002 IEM_DS3505
ZGNN,1995-10-02 04:00,ZGNN 020400Z AUTO 02004KT 7SM 31/23 A2991 RMK SLP115 T03100230 IEM_DS3505
ZGNN,1995-10-02 05:00,ZGNN 020500Z AUTO 02006KT 7SM 32/23 A2988 RMK SLP105 T03200230 IEM_DS3505
ZGNN,1995-10-02 06:00,ZGNN 020600Z AUTO 06006KT 7SM 32/22 A2985 RMK SLP095 T03200220 IEM_DS3505
ZGNN,1995-10-02 07:00,ZGNN 020700Z AUTO 00000KT 7SM 33/21 A2983 RMK SLP088 T03300210 IEM_DS3505
ZGNN,1995-10-02 08:00,ZGNN 020800Z AUTO 02006KT 7SM 33/21 A2980 RMK SLP077 T03300210 IEM_DS3505
ZGNN,1995-10-02 09:00,ZGNN 020900Z AUTO 04006KT 19SM 33/21 A2980 RMK SLP074 T03290208 57017 IEM_DS3505
ZGNN,1995-10-02 10:00,ZGNN 021000Z AUTO 36004KT 7SM 31/22 A2977 RMK SLP068 T03100220 IEM_DS3505
ZGNN,1995-10-02 11:00,ZGNN 021100Z AUTO 36004KT 7SM 29/23 A2980 RMK SLP079 T02900230 IEM_DS3505
ZGNN,1995-10-02 12:00,ZGNN 021200Z AUTO 00000KT 16SM 30/23 A2983 RMK SLP085 T02950227 52011 IEM_DS3505
ZGNN,1995-10-02 13:00,ZGNN 021300Z AUTO 36004KT 7SM 26/23 A2985 RMK SLP097 T02600230 IEM_DS3505
ZGNN,1995-10-02 14:00,ZGNN 021400Z AUTO 05006KT 7SM 27/23 A2988 RMK SLP106 T02700230 IEM_DS3505
ZGNN,1995-10-02 15:00,ZGNN 021500Z AUTO 04004KT 16SM 28/22 A2986 RMK SLP099 T02750222 52014 IEM_DS3505
ZGNN,1995-10-02 18:00,ZGNN 021800Z AUTO 00000KT 16SM 26/24 A2981 RMK SLP081 T02650235 57017 IEM_DS3505
ZGNN,1995-10-02 21:00,ZGNN 022100Z AUTO 02002KT 16SM 26/22 A2976 RMK SLP066 T02650215 57015 IEM_DS3505
ZGNN,1995-10-02 22:00,ZGNN 022200Z AUTO 32006KT 7SM 25/22 A2977 RMK SLP070 T02500220 IEM_DS3505
ZGNN,1995-10-02 23:00,ZGNN 022300Z AUTO 32008KT 7SM 26/22 A2977 RMK SLP069 T02600220 IEM_DS3505
ZGNN,1995-10-03 00:00,ZGNN 030000Z AUTO 34002KT 12SM 27/22 A2980 RMK SLP074 T02690224 52007 IEM_DS3505
ZGNN,1995-10-03 01:00,ZGNN 030100Z AUTO 32006KT 7SM 26/22 A2980 RMK SLP079 T02600220 IEM_DS3505
ZGNN,1995-10-03 02:00,ZGNN 030200Z AUTO 33010KT 7SM 27/22 A2980 RMK SLP079 T02700220 IEM_DS3505
ZGNN,1995-10-03 03:00,ZGNN 030300Z AUTO 00000KT 6SM 28/23 A2977 RMK SLP071 T02790230 57003 IEM_DS3505
ZGNN,1995-10-03 04:00,ZGNN 030400Z AUTO 34016KT 7SM 28/21 A2974 RMK SLP059 T02800210 IEM_DS3505
ZGNN,1995-10-03 05:00,ZGNN 030500Z AUTO 34016KT 7SM 28/21 A2971 RMK SLP049 T02800210 IEM_DS3505
ZGNN,1995-10-03 06:00,ZGNN 030600Z AUTO 02010KT 14SM 27/22 A2968 RMK 60004 SLP040 T02740223 57031 IEM_DS3505
ZGNN,1995-10-03 07:00,ZGNN 030700Z AUTO 34014KT 7SM 27/22 A2965 RMK SLP028 T02700220 IEM_DS3505
ZGNN,1995-10-03 08:00,ZGNN 030800Z AUTO 36006KT 7SM 26/22 A2965 RMK SLP028 T02600220 IEM_DS3505
ZGNN,1995-10-03 09:00,ZGNN 030900Z AUTO 34006KT 16SM 28/21 A2965 RMK SLP028 T02750214 57012 IEM_DS3505
ZGNN,1995-10-03 10:00,ZGNN 031000Z AUTO 35008KT 7SM 27/21 A2965 RMK SLP028 T02700210 IEM_DS3505
ZGNN,1995-10-03 11:00,ZGNN 031100Z AUTO 34008KT 7SM 26/22 A2968 RMK SLP039 T02600220 IEM_DS3505
ZGNN,1995-10-03 12:00,ZGNN 031200Z AUTO 29004KT 9SM 25/23 A2971 RMK 60002 SLP048 T02480232 52020 IEM_DS3505
ZGNN,1995-10-03 13:00,ZGNN 031300Z AUTO 36012KT 7SM 26/20 A2974 RMK SLP059 T02600200 IEM_DS3505
ZGNN,1995-10-03 14:00,ZGNN 031400Z AUTO 34014KT 7SM 26/19 A2974 RMK SLP059 T02600190 IEM_DS3505
ZGNN,1995-10-03 15:00,ZGNN 031500Z AUTO 34008KT 9SM 25/19 A2976 RMK SLP066 T02480193 52018 IEM_DS3505
ZGNN,1995-10-03 18:00,ZGNN 031800Z AUTO 29004KT 5SM 22/20 A2977 RMK 60008 SLP071 T02150198 52004 IEM_DS3505
ZGNN,1995-10-03 21:00,ZGNN 032100Z AUTO 29004KT 9SM 22/20 A2980 RMK 70020 SLP079 T02150196 52008 IEM_DS3505
ZGNN,1995-10-03 22:00,ZGNN 032200Z AUTO 31004KT 7SM 21/19 A2983 RMK SLP091 T02100190 IEM_DS3505
ZGNN,1995-10-03 23:00,ZGNN 032300Z AUTO 32004KT 7SM 21/19 A2985 RMK SLP098 T02100190 IEM_DS3505
ZGNN,1995-10-04 00:00,ZGNN 040000Z AUTO 27002KT 16SM 21/19 A2988 RMK 60008 70020 SLP111 T02130191 52031 IEM_DS3505
ZGNN,1995-10-04 01:00,ZGNN 040100Z AUTO 33006KT 7SM 22/18 A2991 RMK SLP118 T02200180 IEM_DS3505
ZGNN,1995-10-04 02:00,ZGNN 040200Z AUTO 31012KT 7SM 24/19 A2994 RMK SLP127 T02400190 IEM_DS3505
ZGNN,1995-10-04 03:00,ZGNN 040300Z AUTO 36006KT 19SM 23/18 A2994 RMK SLP124 T02270179 52014 IEM_DS3505
ZGNN,1995-10-04 04:00,ZGNN 040400Z AUTO 35004KT 7SM 23/19 A2994 RMK SLP128 T02300190 IEM_DS3505
ZGNN,1995-10-04 05:00,ZGNN 040500Z AUTO 34010KT 7SM 23/18 A2991 RMK SLP118 T02300180 IEM_DS3505
ZGNN,1995-10-04 06:00,ZGNN 040600Z AUTO 36006KT 19SM 24/17 A2988 RMK SLP110 T02370173 57015 IEM_DS3505
ZGNN,1995-10-04 07:00,ZGNN 040700Z AUTO 35008KT 7SM 24/17 A2988 RMK SLP107 T02400170 IEM_DS3505
ZGNN,1995-10-04 08:00,ZGNN 040800Z AUTO 35006KT 7SM 24/17 A2988 RMK SLP107 T02400170 IEM_DS3505
ZGNN,1995-10-04 09:00,ZGNN 040900Z AUTO 04004KT 19SM 24/17 A2988 RMK SLP109 T02430173 57001 IEM_DS3505
ZGNN,1995-10-04 10:00,ZGNN 041000Z AUTO 35004KT 7SM 23/17 A2983 RMK SLP090 T02300170 IEM_DS3505
ZGNN,1995-10-04 11:00,ZGNN 041100Z AUTO 00000KT 7SM 23/18 A2991 RMK SLP118 T02300180 IEM_DS3505
ZGNN,1995-10-04 12:00,ZGNN 041200Z AUTO 09002KT 19SM 22/18 A2991 RMK SLP124 T02190176 52015 IEM_DS3505
ZGNN,1995-10-04 13:00,ZGNN 041300Z AUTO 10006KT 7SM 21/18 A2994 RMK SLP128 T02100180 IEM_DS3505
ZGNN,1995-10-04 15:00,ZGNN 041500Z AUTO 04004KT 19SM 20/17 A3000 RMK SLP148 T02040166 52024 IEM_DS3505
ZGNN,1995-10-04 18:00,ZGNN 041800Z AUTO 00000KT 16SM 20/17 A2998 RMK SLP142 T02000169 57006 IEM_DS3505
ZGNN,1995-10-04 21:00,ZGNN 042100Z AUTO 07004KT 16SM 20/17 A3000 RMK 70001 SLP145 T02000169 52003 IEM_DS3505
ZGNN,1995-10-04 22:00,ZGNN 042200Z AUTO 01006KT 7SM 21/18 A3000 RMK SLP148 T02100180 IEM_DS3505
ZGNN,1995-10-04 23:00,ZGNN 042300Z AUTO 01006KT 7SM 19/15 A3003 RMK SLP159 T01900150 IEM_DS3505
ZGNN,1995-10-05 00:00,ZGNN 050000Z AUTO 04002KT 17SM 20/17 A3006 RMK SLP166 T02000167 52020 IEM_DS3505
ZGNN,1995-10-05 01:00,ZGNN 050100Z AUTO 35008KT 7SM 21/15 A3006 RMK SLP169 T02100150 IEM_DS3505
ZGNN,1995-10-05 02:00,ZGNN 050200Z AUTO 36006KT 7SM 22/14 A3006 RMK SLP168 T02200140 IEM_DS3505
ZGNN,1995-10-05 03:00,ZGNN 050300Z AUTO 04008KT 19SM 23/14 A3006 RMK SLP170 T02320137 52005 IEM_DS3505
ZGNN,1995-10-05 04:00,ZGNN 050400Z AUTO 01012KT 7SM 23/15 A3003 RMK SLP158 T02300150 IEM_DS3505
ZGNN,1995-10-05 05:00,ZGNN 050500Z AUTO 35008KT 7SM 24/14 A3003 RMK SLP158 T02400140 IEM_DS3505
ZGNN,1995-10-05 06:00,ZGNN 050600Z AUTO 34006KT 19SM 25/16 A3000 RMK SLP150 T02470155 57020 IEM_DS3505
ZGNN,1995-10-05 07:00,ZGNN 050700Z AUTO 01008KT 7SM 24/14 A3000 RMK SLP148 T02400140 IEM_DS3505
ZGNN,1995-10-05 08:00,ZGNN 050800Z AUTO 33008KT 7SM 24/14 A2997 RMK SLP137 T02400140 IEM_DS3505
ZGNN,1995-10-05 09:00,ZGNN 050900Z AUTO 34004KT 19SM 24/15 A2997 RMK SLP144 T02430150 57006 IEM_DS3505
ZGNN,1995-10-05 10:00,ZGNN 051000Z AUTO 34010KT 7SM 23/14 A3000 RMK SLP148 T02300140 IEM_DS3505
ZGNN,1995-10-05 11:00,ZGNN 051100Z AUTO 05004KT 7SM 22/15 A3000 RMK SLP148 T02200150 IEM_DS3505
ZGNN,1995-10-05 12:00,ZGNN 051200Z AUTO 07008KT 19SM 22/14 A3003 RMK SLP162 T02210143 52017 IEM_DS3505
ZGNN,1995-10-05 13:00,ZGNN 051300Z AUTO 03006KT 7SM 21/15 A3006 RMK SLP169 T02100150 IEM_DS3505
ZGNN,1995-10-05 15:00,ZGNN 051500Z AUTO 04004KT 19SM 21/15 A3007 RMK SLP174 T02110149 52013 IEM_DS3505
ZGNN,1995-10-05 18:00,ZGNN 051800Z AUTO 34002KT 17SM 21/14 A3008 RMK SLP174 T02080145 54000 IEM_DS3505
ZGNN,1995-10-05 21:00,ZGNN 052100Z AUTO 34004KT 16SM 20/14 A3007 RMK SLP172 T02020140 57002 IEM_DS3505
ZGNN,1995-10-05 22:00,ZGNN 052200Z AUTO 34008KT 7SM 19/13 A3009 RMK SLP179 T01900130 IEM_DS3505
ZGNN,1995-10-05 23:00,ZGNN 052300Z AUTO 35006KT 7SM 19/13 A3009 RMK SLP179 T01900130 IEM_DS3505
ZGNN,1995-10-06 00:00,ZGNN 060000Z AUTO 02004KT 12SM 20/14 A3012 RMK SLP186 T02000142 52013 IEM_DS3505
ZGNN,1995-10-06 01:00,ZGNN 060100Z AUTO 35004KT 6SM 20/14 A3012 RMK SLP189 T02000140 IEM_DS3505
ZGNN,1995-10-06 02:00,ZGNN 060200Z AUTO 34006KT 6SM 21/14 A3015 RMK SLP199 T02100140 IEM_DS3505
ZGNN,1995-10-06 03:00,ZGNN 060300Z AUTO 04006KT 14SM 22/14 A3012 RMK SLP189 T02240143 52003 IEM_DS3505
ZGNN,1995-10-06 04:00,ZGNN 060400Z AUTO 35010KT 6SM 23/14 A3012 RMK SLP188 T02300140 IEM_DS3505
ZGNN,1995-10-06 06:00,ZGNN 060600Z AUTO 36006KT 19SM 25/16 A3006 RMK SLP168 T02500161 57020 IEM_DS3505
ZGNN,1995-10-06 07:00,ZGNN 060700Z AUTO 02006KT 7SM 24/15 A3006 RMK SLP168 T02400150 IEM_DS3505
ZGNN,1995-10-06 09:00,ZGNN 060900Z AUTO 09004KT 19SM 25/17 A3006 RMK SLP162 T02460167 57006 IEM_DS3505
ZGNN,1995-10-06 10:00,ZGNN 061000Z AUTO 34006KT 7SM 24/16 A3006 RMK SLP168 T02400160 IEM_DS3505
ZGNN,1995-10-06 11:00,ZGNN 061100Z AUTO 06004KT 7SM 22/18 A3006 RMK SLP168 T02200180 IEM_DS3505
ZGNN,1995-10-06 12:00,ZGNN 061200Z AUTO 07002KT 12SM 23/17 A3009 RMK SLP180 T02300170 52017 IEM_DS3505
ZGNN,1995-10-06 13:00,ZGNN 061300Z AUTO 00000KT 7SM 22/17 A3012 RMK SLP188 T02200170 IEM_DS3505
ZGNN,1995-10-06 14:00,ZGNN 061400Z AUTO 00000KT 7SM 22/17 A3015 RMK SLP199 T02200170 IEM_DS3505
ZGNN,1995-10-06 15:00,ZGNN 061500Z AUTO 00000KT 12SM 23/18 A3015 RMK SLP193 T02270176 52014 IEM_DS3505
ZGNN,1995-10-06 16:00,ZGNN 061600Z AUTO 00000KT 7SM 22/18 A3015 RMK SLP199 T02200180 IEM_DS3505
ZGNN,1995-10-06 18:00,ZGNN 061800Z AUTO 00000KT 9SM 22/18 A3011 RMK SLP185 T02250177 57008 IEM_DS3505
ZGNN,1995-10-06 21:00,ZGNN 062100Z AUTO 02002KT 9SM 22/17 A3009 RMK SLP178 T02190167 57007 IEM_DS3505
ZGNN,1995-10-06 22:00,ZGNN 062200Z AUTO 00000KT 7SM 21/18 A3009 RMK SLP179 T02100180 IEM_DS3505
ZGNN,1995-10-06 23:00,ZGNN 062300Z AUTO 00000KT 7SM 21/18 A3012 RMK SLP189 T02100180 IEM_DS3505
ZGNN,1995-10-07 00:00,ZGNN 070000Z AUTO 00000KT 11SM 22/16 A3012 RMK SLP189 T02160165 52011 IEM_DS3505
ZGNN,1995-10-07 01:00,ZGNN 070100Z AUTO 00000KT 6SM 22/17 A3015 RMK SLP199 T02200170 IEM_DS3505
ZGNN,1995-10-07 02:00,ZGNN 070200Z AUTO 00000KT 23/17 A3015 RMK SLP198 T02300170 IEM_DS3505
ZGNN,1995-10-07 03:00,ZGNN 070300Z AUTO 04006KT 11SM 24/16 A3015 RMK SLP197 T02380161 52008 IEM_DS3505
ZGNN,1995-10-07 04:00,ZGNN 070400Z AUTO 34004KT 7SM 23/16 A3015 RMK SLP198 T02300160 IEM_DS3505
ZGNN,1995-10-07 05:00,ZGNN 070500Z AUTO 00000KT 7SM 24/17 A3012 RMK SLP188 T02400170 IEM_DS3505
ZGNN,1995-10-07 06:00,ZGNN 070600Z AUTO 07004KT 12SM 24/17 A3012 RMK SLP180 T02410170 57017 IEM_DS3505
ZGNN,1995-10-07 07:00,ZGNN 070700Z AUTO 00000KT 2 1/2SM 22/19 A3009 RMK SLP178 T02200190 IEM_DS3505
ZGNN,1995-10-07 08:00,ZGNN 070800Z AUTO 00000KT 4SM 22/19 A3009 RMK SLP178 T02200190 IEM_DS3505
ZGNN,1995-10-07 09:00,ZGNN 070900Z AUTO 07004KT 12SM 24/17 A3006 RMK SLP167 T02410174 57013 IEM_DS3505
ZGNN,1995-10-07 10:00,ZGNN 071000Z AUTO 00000KT 4SM 22/20 A3006 RMK SLP168 T02200200 IEM_DS3505
ZGNN,1995-10-07 11:00,ZGNN 071100Z AUTO 35002KT 3SM 21/19 A3009 RMK SLP179 T02100190 IEM_DS3505
ZGNN,1995-10-07 12:00,ZGNN 071200Z AUTO 00000KT 12SM 23/18 A3012 RMK SLP183 T02290175 52016 IEM_DS3505
ZGNN,1995-10-07 13:00,ZGNN 071300Z AUTO 00000KT 3SM 21/19 A3012 RMK SLP189 T02100190 IEM_DS3505
ZGNN,1995-10-07 14:00,ZGNN 071400Z AUTO 00000KT 5SM 21/19 A3015 RMK SLP199 T02100190 IEM_DS3505
ZGNN,1995-10-07 15:00,ZGNN 071500Z AUTO 00000KT 12SM 22/19 A3014 RMK SLP196 T02220194 52013 IEM_DS3505
ZGNN,1995-10-07 18:00,ZGNN 071800Z AUTO 00000KT 12SM 22/19 A3012 RMK SLP188 T02180188 57008 IEM_DS3505
ZGNN,1995-10-07 21:00,ZGNN 072100Z AUTO 00000KT 12SM 22/18 A3009 RMK SLP174 T02150180 57014 IEM_DS3505
ZGNN,1995-10-07 22:00,ZGNN 072200Z AUTO 02002KT 5SM 21/19 A3009 RMK SLP179 T02100190 IEM_DS3505
ZGNN,1995-10-07 23:00,ZGNN 072300Z AUTO 01002KT 4SM 21/19 A3009 RMK SLP179 T02100190 IEM_DS3505
ZGNN,1995-10-08 00:00,ZGNN 080000Z AUTO 04004KT 7SM 21/17 A3012 RMK SLP187 T02100169 52012 IEM_DS3505
ZGNN,1995-10-08 01:00,ZGNN 080100Z AUTO 05004KT 6SM 23/17 A3012 RMK SLP188 T02300170 IEM_DS3505
ZGNN,1995-10-08 02:00,ZGNN 080200Z AUTO 03004KT 6SM 24/17 A3015 RMK SLP198 T02400170 IEM_DS3505
ZGNN,1995-10-08 03:00,ZGNN 080300Z AUTO 11004KT 11SM 26/17 A3015 RMK SLP192 T02550172 52006 IEM_DS3505
ZGNN,1995-10-08 04:00,ZGNN 080400Z AUTO 07004KT 7SM 27/17 A3012 RMK SLP187 T02700170 IEM_DS3505
ZGNN,1995-10-08 05:00,ZGNN 080500Z AUTO 05006KT 7SM 28/18 A3009 RMK SLP177 T02800180 IEM_DS3505
ZGNN,1995-10-08 06:00,ZGNN 080600Z AUTO 04004KT 16SM 28/18 A3006 RMK SLP168 T02790177 57024 IEM_DS3505
ZGNN,1995-10-08 07:00,ZGNN 080700Z AUTO 05008KT 7SM 28/18 A3003 RMK SLP157 T02800180 IEM_DS3505
ZGNN,1995-10-08 08:00,ZGNN 080800Z AUTO 02008KT 7SM 28/18 A3003 RMK SLP157 T02800180 IEM_DS3505
ZGNN,1995-10-08 09:00,ZGNN 080900Z AUTO 07006KT 16SM 28/18 A3003 RMK SLP154 T02750178 57014 IEM_DS3505
ZGNN,1995-10-08 10:00,ZGNN 081000Z AUTO 06006KT 7SM 26/18 A3003 RMK SLP157 T02600180 IEM_DS3505
ZGNN,1995-10-08 11:00,ZGNN 081100Z AUTO 02002KT 7SM 25/18 A3006 RMK SLP167 T02500180 IEM_DS3505
ZGNN,1995-10-08 12:00,ZGNN 081200Z AUTO 07004KT 16SM 25/18 A3009 RMK SLP175 T02480182 52021 IEM_DS3505
ZGNN,1995-10-08 13:00,ZGNN 081300Z AUTO 02004KT 6SM 23/18 A3012 RMK SLP188 T02300180 IEM_DS3505
ZGNN,1995-10-08 15:00,ZGNN 081500Z AUTO 04002KT 16SM 24/18 A3011 RMK SLP186 T02430176 52011 IEM_DS3505
ZGNN,1995-10-08 18:00,ZGNN 081800Z AUTO 07006KT 16SM 24/18 A3008 RMK SLP173 T02390175 57012 IEM_DS3505
ZGNN,1995-10-08 21:00,ZGNN 082100Z AUTO 07002KT 12SM 22/17 A3006 RMK SLP166 T02190170 57008 IEM_DS3505
ZGNN,1995-10-08 22:00,ZGNN 082200Z AUTO 35004KT 5SM 19/18 A3006 RMK SLP169 T01900180 IEM_DS3505
ZGNN,1995-10-08 23:00,ZGNN 082300Z AUTO 36004KT 6SM 19/18 A3009 RMK SLP179 T01900180 IEM_DS3505
ZGNN,1995-10-09 00:00,ZGNN 090000Z AUTO 00000KT 9SM 22/18 A3009 RMK SLP183 T02240176 52017 IEM_DS3505
ZGNN,1995-10-09 01:00,ZGNN 090100Z AUTO 03004KT 6SM 23/17 A3012 RMK SLP188 T02300170 IEM_DS3505
ZGNN,1995-10-09 02:00,ZGNN 090200Z AUTO 02006KT 6SM 25/17 A3012 RMK SLP188 T02500170 IEM_DS3505
ZGNN,1995-10-09 03:00,ZGNN 090300Z AUTO 04004KT 12SM 26/16 A3012 RMK SLP185 T02640157 52002 IEM_DS3505
ZGNN,1995-10-09 04:00,ZGNN 090400Z AUTO 36010KT 7SM 27/16 A3009 RMK SLP177 T02700160 IEM_DS3505
ZGNN,1995-10-09 05:00,ZGNN 090500Z AUTO 04004KT 16SM 29/17 RMK SLP135 T02890169 57021 IEM_DS3505
ZGNN,1995-10-09 06:00,ZGNN 090600Z AUTO 07006KT 16SM 28/17 A3003 RMK SLP156 T02850168 57028 IEM_DS3505
ZGNN,1995-10-09 07:00,ZGNN 090700Z AUTO 02008KT 7SM 28/17 A3000 RMK SLP146 T02800170 IEM_DS3505
ZGNN,1995-10-09 08:00,ZGNN 090800Z AUTO 02008KT 6SM 29/17 A2997 RMK SLP136 T02900170 IEM_DS3505
ZGNN,1995-10-09 09:00,ZGNN 090900Z AUTO 04004KT 16SM 29/17 A2997 RMK SLP135 T02890169 57021 IEM_DS3505
ZGNN,1995-10-09 10:00,ZGNN 091000Z AUTO 35004KT 6SM 27/17 A2997 RMK SLP137 T02700170 IEM_DS3505
ZGNN,1995-10-09 11:00,ZGNN 091100Z AUTO 05004KT 6SM 25/19 A2997 RMK SLP137 T02500190 IEM_DS3505
ZGNN,1995-10-09 12:00,ZGNN 091200Z AUTO 04004KT 12SM 25/18 A3000 RMK SLP149 T02530181 52013 IEM_DS3505
ZGNN,1995-10-09 13:00,ZGNN 091300Z AUTO 36004KT 7SM 22/19 A3003 RMK SLP158 T02200190 IEM_DS3505
ZGNN,1995-10-09 14:00,ZGNN 091400Z AUTO 36004KT 7SM 22/19 A3003 RMK SLP158 T02200190 IEM_DS3505
ZGNN,1995-10-09 15:00,ZGNN 091500Z AUTO 07004KT 12SM 24/18 A3004 RMK SLP160 T02360179 52012 IEM_DS3505
ZGNN,1995-10-09 18:00,ZGNN 091800Z AUTO 04002KT 12SM 22/17 A3002 RMK SLP154 T02230171 57006 IEM_DS3505
ZGNN,1995-10-09 21:00,ZGNN 092100Z AUTO 00000KT 12SM 21/17 A3002 RMK SLP154 T02140170 54000 IEM_DS3505
ZGNN,1995-10-09 22:00,ZGNN 092200Z AUTO 00000KT 5SM 18/17 A3003 RMK SLP159 T01800170 IEM_DS3505
ZGNN,1995-10-09 23:00,ZGNN 092300Z AUTO 35004KT 6SM 19/17 A3006 RMK SLP169 T01900170 IEM_DS3505
ZGNN,1995-10-10 00:00,ZGNN 100000Z AUTO 00000KT 7SM 21/17 A3006 RMK SLP169 T02130169 52014 IEM_DS3505
ZGNN,1995-10-10 01:00,ZGNN 100100Z AUTO 03004KT 7SM 22/18 A3009 RMK SLP178 T02200180 IEM_DS3505
ZGNN,1995-10-10 02:00,ZGNN 100200Z AUTO 04006KT 7SM 25/16 A3009 RMK SLP178 T02500160 IEM_DS3505
ZGNN,1995-10-10 03:00,ZGNN 100300Z AUTO 09004KT 12SM 26/16 A3009 RMK SLP176 T02610165 52007 IEM_DS3505
ZGNN,1995-10-10 04:00,ZGNN 100400Z AUTO 36008KT 7SM 27/16 A3006 RMK SLP167 T02700160 IEM_DS3505
ZGNN,1995-10-10 06:00,ZGNN 100600Z AUTO 07004KT 16SM 29/17 A2997 RMK SLP137 T02890173 57038 IEM_DS3505
ZGNN,1995-10-10 07:00,ZGNN 100700Z AUTO 02004KT 7SM 29/17 A2994 RMK SLP126 T02900170 IEM_DS3505
ZGNN,1995-10-10 08:00,ZGNN 100800Z AUTO 36008KT 7SM 29/17 A2994 RMK SLP126 T02900170 IEM_DS3505
ZGNN,1995-10-10 09:00,ZGNN 100900Z AUTO 04004KT 16SM 29/18 A2993 RMK SLP122 T02930182 57015 IEM_DS3505
ZGNN,1995-10-10 10:00,ZGNN 101000Z AUTO 01006KT 7SM 28/17 A2994 RMK SLP126 T02800170 IEM_DS3505
ZGNN,1995-10-10 11:00,ZGNN 101100Z AUTO 04006KT 7SM 26/17 A2994 RMK SLP127 T02600170 IEM_DS3505
ZGNN,1995-10-10 12:00,ZGNN 101200Z AUTO 07004KT 16SM 25/18 A2997 RMK SLP136 T02540180 52013 IEM_DS3505
ZGNN,1995-10-10 13:00,ZGNN 101300Z AUTO 02004KT 7SM 23/18 A3000 RMK SLP148 T02300180 IEM_DS3505
ZGNN,1995-10-10 15:00,ZGNN 101500Z AUTO 07004KT 16SM 24/17 A3000 RMK SLP148 T02390172 52013 IEM_DS3505
ZGNN,1995-10-10 18:00,ZGNN 101800Z AUTO 00000KT 12SM 22/18 A2999 RMK SLP145 T02250182 57003 IEM_DS3505
ZGNN,1995-10-10 21:00,ZGNN 102100Z AUTO 00000KT 12SM 22/18 A2997 RMK SLP140 T02170184 57005 IEM_DS3505
ZGNN,1995-10-10 22:00,ZGNN 102200Z AUTO 00000KT 4SM 21/17 A3000 RMK SLP148 T02100170 IEM_DS3505
ZGNN,1995-10-10 23:00,ZGNN 102300Z AUTO 00000KT 5SM 20/17 A3000 RMK SLP149 T02000170 IEM_DS3505
ZGNN,1995-10-11 00:00,ZGNN 110000Z AUTO 00000KT 12SM 22/18 A3003 RMK SLP155 T02240181 52014 IEM_DS3505
ZGNN,1995-10-11 01:00,ZGNN 110100Z AUTO 07006KT 11SM 30/18 A3003 RMK SLP156 T02970177 IEM_DS3505
ZGNN,1995-10-11 02:00,ZGNN 110200Z AUTO 35006KT 6SM 25/17 A3006 RMK SLP167 T02500170 IEM_DS3505
ZGNN,1995-10-11 03:00,ZGNN 110300Z AUTO 02006KT 16SM 26/17 A3003 RMK SLP160 T02650173 52006 IEM_DS3505
ZGNN,1995-10-11 04:00,ZGNN 110400Z AUTO 36008KT 6SM 27/18 A3003 RMK SLP157 T02700180 IEM_DS3505
ZGNN,1995-10-11 05:00,ZGNN 110500Z AUTO 36008KT 6SM 29/18 A3000 RMK SLP146 T02900180 IEM_DS3505
ZGNN,1995-10-11 06:00,ZGNN 110600Z AUTO 07006KT 11SM 30/18 A2994 RMK SLP131 T02970177 57029 IEM_DS3505
ZGNN,1995-10-11 07:00,ZGNN 110700Z AUTO 05006KT 7SM 29/19 A2994 RMK SLP126 T02900190 IEM_DS3505
ZGNN,1995-10-11 08:00,ZGNN 110800Z AUTO 04006KT 7SM 29/18 A2994 RMK SLP126 T02900180 IEM_DS3505
ZGNN,1995-10-11 09:00,ZGNN 110900Z AUTO 07004KT 14SM 28/18 A2991 RMK SLP120 T02840182 57011 IEM_DS3505
ZGNN,1995-10-11 11:00,ZGNN 111100Z AUTO 03004KT 6SM 26/19 A2994 RMK SLP127 T02600190 IEM_DS3505
ZGNN,1995-10-11 12:00,ZGNN 111200Z AUTO 04002KT 12SM 27/19 A2995 RMK SLP129 T02670192 52009 IEM_DS3505
ZGNN,1995-10-11 15:00,ZGNN 111500Z AUTO 00000KT 12SM 26/20 A2998 RMK SLP139 T02570202 52010 IEM_DS3505
ZGNN,1995-10-11 18:00,ZGNN 111800Z AUTO 00000KT 12SM 25/21 A2995 RMK SLP130 T02520207 57008 IEM_DS3505
ZGNN,1995-10-11 21:00,ZGNN 112100Z AUTO 00000KT 12SM 25/22 A2992 RMK SLP120 T02490216 57011 IEM_DS3505
ZGNN,1995-10-12 00:00,ZGNN 120000Z AUTO 00000KT 7SM 23/21 A2996 RMK 60000 70001 SLP133 T02310211 52013 IEM_DS3505
ZGNN,1995-10-12 02:00,ZGNN 120200Z AUTO 03004KT 2 1/2SM 23/21 A2997 RMK SLP138 T02300210 IEM_DS3505
ZGNN,1995-10-12 03:00,ZGNN 120300Z AUTO 07008KT 11SM 25/21 A3000 RMK SLP144 T02510210 52011 IEM_DS3505
ZGNN,1995-10-12 05:00,ZGNN 120500Z AUTO 03006KT 2 1/2SM 23/22 A2994 RMK SLP128 T02300220 IEM_DS3505
ZGNN,1995-10-12 06:00,ZGNN 120600Z AUTO 09006KT 9SM 25/22 A2991 RMK 60002 SLP120 T02490219 57024 IEM_DS3505
ZGNN,1995-10-12 07:00,ZGNN 120700Z AUTO 03008KT 3SM 24/22 A2991 RMK SLP117 T02400220 IEM_DS3505
ZGNN,1995-10-12 08:00,ZGNN 120800Z AUTO 03006KT 4SM 24/22 A2988 RMK SLP107 T02400220 IEM_DS3505
ZGNN,1995-10-12 09:00,ZGNN 120900Z AUTO 07006KT 12SM 25/22 A2988 RMK SLP109 T02510215 57011 IEM_DS3505
ZGNN,1995-10-12 10:00,ZGNN 121000Z AUTO 06004KT 4SM 24/22 A2988 RMK SLP107 T02400220 IEM_DS3505
ZGNN,1995-10-12 11:00,ZGNN 121100Z AUTO 00000KT 4SM 24/22 A2988 RMK SLP107 T02400220 IEM_DS3505
ZGNN,1995-10-12 12:00,ZGNN 121200Z AUTO 07004KT 12SM 24/22 A2991 RMK SLP118 T02410217 52009 IEM_DS3505
ZGNN,1995-10-12 13:00,ZGNN 121300Z AUTO 00000KT 2 1/2SM 23/22 A2994 RMK SLP128 T02300220 IEM_DS3505
ZGNN,1995-10-12 14:00,ZGNN 121400Z AUTO 02004KT 2 1/2SM 23/22 A2994 RMK SLP128 T02300220 IEM_DS3505
ZGNN,1995-10-12 15:00,ZGNN 121500Z AUTO 04004KT 9SM 23/22 A2993 RMK SLP126 T02310219 52008 IEM_DS3505
ZGNN,1995-10-12 18:00,ZGNN 121800Z AUTO 04002KT 4SM 23/22 A2989 RMK 60008 SLP110 T02290220 57016 IEM_DS3505
ZGNN,1995-10-12 21:00,ZGNN 122100Z AUTO 04004KT 4SM 23/22 A2983 RMK 70039 SLP095 T02260222 57015 IEM_DS3505
ZGNN,1995-10-12 22:00,ZGNN 122200Z AUTO 03008KT 4SM 22/22 A2983 RMK SLP091 T02200220 IEM_DS3505
ZGNN,1995-10-12 23:00,ZGNN 122300Z AUTO 36010KT 2 1/2SM 22/22 A2985 RMK SLP098 T02200220 IEM_DS3505
ZGNN,1995-10-13 00:00,ZGNN 130000Z AUTO 02002KT 6SM 23/22 A2985 RMK 60083 70091 SLP100 T02290223 52005 IEM_DS3505
ZGNN,1995-10-13 01:00,ZGNN 130100Z AUTO 03010KT 3SM 23/22 A2985 RMK SLP097 T02300220 IEM_DS3505
ZGNN,1995-10-13 02:00,ZGNN 130200Z AUTO 03010KT 2 1/2SM 23/22 A2988 RMK SLP108 T02300220 IEM_DS3505
ZGNN,1995-10-13 03:00,ZGNN 130300Z AUTO 07004KT 4SM 23/22 A2985 RMK SLP107 T02300224 52006 IEM_DS3505
ZGNN,1995-10-13 04:00,ZGNN 130400Z AUTO 02008KT 7SM 24/22 A2983 RMK SLP090 T02400220 IEM_DS3505
ZGNN,1995-10-13 05:00,ZGNN 130500Z AUTO 03010KT 4SM 23/22 A2980 RMK SLP080 T02300220 IEM_DS3505
ZGNN,1995-10-13 06:00,ZGNN 130600Z AUTO 02006KT 6SM 23/22 A2977 RMK 60126 SLP075 T02300223 57031 IEM_DS3505
ZGNN,1995-10-13 07:00,ZGNN 130700Z AUTO 01010KT 7SM 23/22 A2974 RMK SLP060 T02300220 IEM_DS3505
ZGNN,1995-10-13 09:00,ZGNN 130900Z AUTO 34004KT 6SM 23/22 A2971 RMK SLP057 T02310222 57018 IEM_DS3505
ZGNN,1995-10-13 10:00,ZGNN 131000Z AUTO 34014KT 2 1/2SM 23/22 A2974 RMK SLP060 T02300220 IEM_DS3505
ZGNN,1995-10-13 11:00,ZGNN 131100Z AUTO 34012KT 2 1/2SM 23/22 A2974 RMK SLP060 T02300220 IEM_DS3505
ZGNN,1995-10-13 12:00,ZGNN 131200Z AUTO 34002KT 6SM 23/22 A2974 RMK 60130 SLP064 T02330221 52007 IEM_DS3505
ZGNN,1995-10-13 13:00,ZGNN 131300Z AUTO 34008KT 7SM 24/22 A2977 RMK SLP070 T02400220 IEM_DS3505
ZGNN,1995-10-13 18:00,ZGNN 131800Z AUTO 00000KT 12SM 24/22 A2979 RMK 60000 SLP078 T02370216 52005 IEM_DS3505
ZGNN,1995-10-13 21:00,ZGNN 132100Z AUTO 00000KT 12SM 23/21 A2979 RMK 70307 SLP076 T02320212 57002 IEM_DS3505
ZGNN,1995-10-13 22:00,ZGNN 132200Z AUTO 00000KT 7SM 23/21 A2983 RMK SLP090 T02300210 IEM_DS3505
ZGNN,1995-10-14 00:00,ZGNN 140000Z AUTO 00000KT 12SM 24/22 A2985 RMK 70256 SLP101 T02360220 52025 IEM_DS3505
ZGNN,1995-10-14 01:00,ZGNN 140100Z AUTO 29004KT 7SM 26/21 A2988 RMK SLP107 T02600210 IEM_DS3505
ZGNN,1995-10-14 02:00,ZGNN 140200Z AUTO 29006KT 7SM 27/21 A2988 RMK SLP106 T02700210 IEM_DS3505
ZGNN,1995-10-14 03:00,ZGNN 140300Z AUTO 34004KT 16SM 27/22 A2988 RMK SLP110 T02730217 52009 IEM_DS3505
ZGNN,1995-10-14 04:00,ZGNN 140400Z AUTO 35004KT 7SM 28/22 A2985 RMK SLP096 T02800220 IEM_DS3505
ZGNN,1995-10-14 05:00,ZGNN 140500Z AUTO 02006KT 7SM 29/22 A2983 RMK SLP089 T02900220 IEM_DS3505
ZGNN,1995-10-14 06:00,ZGNN 140600Z AUTO 27004KT 19SM 31/22 A2980 RMK SLP079 T03070223 57030 IEM_DS3505
ZGNN,1995-10-14 07:00,ZGNN 140700Z AUTO 10004KT 7SM 31/22 A2980 RMK SLP078 T03100220 IEM_DS3505
ZGNN,1995-10-14 08:00,ZGNN 140800Z AUTO 07004KT 7SM 31/22 A2980 RMK SLP078 T03100220 IEM_DS3505
ZGNN,1995-10-14 09:00,ZGNN 140900Z AUTO 07002KT 19SM 30/23 A2980 RMK SLP072 T03030230 57007 IEM_DS3505
ZGNN,1995-10-14 10:00,ZGNN 141000Z AUTO 00000KT 7SM 29/23 A2980 RMK SLP079 T02900230 IEM_DS3505
ZGNN,1995-10-14 11:00,ZGNN 141100Z AUTO 00000KT 7SM 27/25 A2980 RMK SLP079 T02700250 IEM_DS3505
ZGNN,1995-10-14 12:00,ZGNN 141200Z AUTO 00000KT 17SM 27/24 A2983 RMK SLP089 T02700238 52016 IEM_DS3505
ZGNN,1995-10-14 13:00,ZGNN 141300Z AUTO 00000KT 7SM 25/23 A2985 RMK SLP097 T02500230 IEM_DS3505
ZGNN,1995-10-14 15:00,ZGNN 141500Z AUTO 00000KT 16SM 26/24 A2988 RMK SLP106 T02550238 52017 IEM_DS3505
ZGNN,1995-10-14 18:00,ZGNN 141800Z AUTO 00000KT 12SM 24/23 A2984 RMK SLP093 T02430228 57012 IEM_DS3505
ZGNN,1995-10-14 21:00,ZGNN 142100Z AUTO 00000KT 11SM 24/23 A2985 RMK SLP102 T02370228 52009 IEM_DS3505
ZGNN,1995-10-14 22:00,ZGNN 142200Z AUTO 00000KT 5SM 23/23 A2988 RMK SLP108 T02300230 IEM_DS3505
ZGNN,1995-10-14 23:00,ZGNN 142300Z AUTO 00000KT 5SM 23/23 A2991 RMK SLP118 T02300230 IEM_DS3505
ZGNN,1995-10-15 00:00,ZGNN 150000Z AUTO 00000KT 7SM 24/22 A2993 RMK SLP123 T02380225 52020 IEM_DS3505
ZGNN,1995-10-15 01:00,ZGNN 150100Z AUTO 00000KT 3SM 25/23 A2994 RMK SLP127 T02500230 IEM_DS3505
ZGNN,1995-10-15 02:00,ZGNN 150200Z AUTO 00000KT 7SM 25/23 A2997 RMK SLP137 T02500230 IEM_DS3505
ZGNN,1995-10-15 03:00,ZGNN 150300Z AUTO 02002KT 12SM 28/22 A2997 RMK SLP134 T02790217 52011 IEM_DS3505
ZGNN,1995-10-15 04:00,ZGNN 150400Z AUTO 03008KT 7SM 29/21 A2994 RMK SLP126 T02900210 IEM_DS3505
ZGNN,1995-10-15 05:00,ZGNN 150500Z AUTO 35006KT 7SM 28/21 A2991 RMK SLP116 T02800210 IEM_DS3505
ZGNN,1995-10-15 06:00,ZGNN 150600Z AUTO 04002KT 16SM 30/21 A2988 RMK SLP110 T02960213 57023 IEM_DS3505
ZGNN,1995-10-15 07:00,ZGNN 150700Z AUTO 34004KT 7SM 30/22 A2985 RMK SLP095 T03000220 IEM_DS3505
ZGNN,1995-10-15 08:00,ZGNN 150800Z AUTO 06006KT 7SM 30/22 A2985 RMK SLP095 T03000220 IEM_DS3505
ZGNN,1995-10-15 09:00,ZGNN 150900Z AUTO 07006KT 16SM 30/21 A2985 RMK SLP097 T02980214 57013 IEM_DS3505
ZGNN,1995-10-15 10:00,ZGNN 151000Z AUTO 07004KT 7SM 28/22 A2985 RMK SLP096 T02800220 IEM_DS3505
ZGNN,1995-10-15 11:00,ZGNN 151100Z AUTO 00000KT 7SM 26/23 A2988 RMK SLP107 T02600230 IEM_DS3505
ZGNN,1995-10-15 12:00,ZGNN 151200Z AUTO 04002KT 19SM 26/22 A2988 RMK SLP111 T02620216 52013 IEM_DS3505
ZGNN,1995-10-15 13:00,ZGNN 151300Z AUTO 00000KT 7SM 24/22 A2991 RMK SLP117 T02400220 IEM_DS3505
ZGNN,1995-10-15 15:00,ZGNN 151500Z AUTO 07002KT 17SM 24/22 A2995 RMK SLP129 T02450215 52018 IEM_DS3505
ZGNN,1995-10-15 18:00,ZGNN 151800Z AUTO 00000KT 16SM 24/21 A2993 RMK SLP122 T02360213 57007 IEM_DS3505
ZGNN,1995-10-15 21:00,ZGNN 152100Z AUTO 00000KT 12SM 23/22 A2994 RMK SLP124 T02290219 52002 IEM_DS3505
ZGNN,1995-10-15 22:00,ZGNN 152200Z AUTO 00000KT 7SM 22/21 A2994 RMK SLP128 T02200210 IEM_DS3505
ZGNN,1995-10-15 23:00,ZGNN 152300Z AUTO 00000KT 7SM 22/21 A2997 RMK SLP138 T02200210 IEM_DS3505
ZGNN,1995-10-16 00:00,ZGNN 160000Z AUTO 00000KT 9SM 24/22 A2997 RMK SLP138 T02370218 52014 IEM_DS3505
ZGNN,1995-10-16 01:00,ZGNN 160100Z AUTO 00000KT 7SM 25/22 A3000 RMK SLP147 T02500220 IEM_DS3505
ZGNN,1995-10-16 02:00,ZGNN 160200Z AUTO 05008KT 7SM 26/21 A3000 RMK SLP147 T02600210 IEM_DS3505
ZGNN,1995-10-16 03:00,ZGNN 160300Z AUTO 04004KT 12SM 27/21 A3000 RMK SLP148 T02730214 52010 IEM_DS3505
ZGNN,1995-10-16 04:00,ZGNN 160400Z AUTO 05008KT 7SM 27/21 A3000 RMK SLP147 T02700210 IEM_DS3505
ZGNN,1995-10-16 05:00,ZGNN 160500Z AUTO 08012KT 7SM 28/22 A2997 RMK SLP136 T02800220 IEM_DS3505
ZGNN,1995-10-16 06:00,ZGNN 160600Z AUTO 09004KT 17SM 28/22 A2995 RMK SLP130 T02800215 57018 IEM_DS3505
ZGNN,1995-10-16 07:00,ZGNN 160700Z AUTO 09006KT 7SM 28/21 A2994 RMK SLP126 T02800210 IEM_DS3505
ZGNN,1995-10-16 08:00,ZGNN 160800Z AUTO 07008KT 7SM 28/22 A2994 RMK SLP126 T02800220 IEM_DS3505
ZGNN,1995-10-16 09:00,ZGNN 160900Z AUTO 09004KT 16SM 27/21 A2994 RMK SLP125 T02700213 57005 IEM_DS3505
ZGNN,1995-10-16 11:00,ZGNN 161100Z AUTO 06004KT 6SM 25/22 A2994 RMK SLP127 T02500220 IEM_DS3505
ZGNN,1995-10-16 12:00,ZGNN 161200Z AUTO 07004KT 16SM 25/21 A2997 RMK SLP134 T02460211 52009 IEM_DS3505
ZGNN,1995-10-16 13:00,ZGNN 161300Z AUTO 09004KT 7SM 23/21 A3000 RMK SLP148 T02300210 IEM_DS3505
ZGNN,1995-10-16 15:00,ZGNN 161500Z AUTO 11002KT 16SM 23/21 A3000 RMK SLP149 T02320206 52015 IEM_DS3505
ZGNN,1995-10-16 18:00,ZGNN 161800Z AUTO 00000KT 12SM 23/21 A2999 RMK SLP145 T02270206 57004 IEM_DS3505
ZGNN,1995-10-16 21:00,ZGNN 162100Z AUTO 00000KT 12SM 23/21 A2998 RMK SLP140 T02290208 57005 IEM_DS3505
ZGNN,1995-10-16 22:00,ZGNN 162200Z AUTO 00000KT 4SM 22/21 A3000 RMK SLP148 T02200210 IEM_DS3505
ZGNN,1995-10-16 23:00,ZGNN 162300Z AUTO 00000KT 4SM 22/21 A3003 RMK SLP158 T02200210 IEM_DS3505
ZGNN,1995-10-17 00:00,ZGNN 170000Z AUTO 00000KT 12SM 23/21 A3003 RMK SLP158 T02300206 52017 IEM_DS3505
ZGNN,1995-10-17 01:00,ZGNN 170100Z AUTO 00000KT 2 1/2SM 23/21 A3006 RMK SLP168 T02300210 IEM_DS3505
ZGNN,1995-10-17 02:00,ZGNN 170200Z AUTO 09004KT 3SM 24/21 A3006 RMK SLP168 T02400210 IEM_DS3505
ZGNN,1995-10-17 03:00,ZGNN 170300Z AUTO 09002KT 12SM 25/21 A3006 RMK SLP170 T02530211 52012 IEM_DS3505
ZGNN,1995-10-17 04:00,ZGNN 170400Z AUTO 09006KT 7SM 25/21 A3006 RMK SLP167 T02500210 IEM_DS3505
ZGNN,1995-10-17 05:00,ZGNN 170500Z AUTO 08006KT 7SM 26/21 A3003 RMK SLP157 T02600210 IEM_DS3505
ZGNN,1995-10-17 06:00,ZGNN 170600Z AUTO 25004KT 11SM 27/22 A2999 RMK 60000 SLP145 T02710218 57024 IEM_DS3505
ZGNN,1995-10-17 08:00,ZGNN 170800Z AUTO 11006KT 7SM 26/21 A2997 RMK SLP137 T02600210 IEM_DS3505
ZGNN,1995-10-17 09:00,ZGNN 170900Z AUTO 00000KT 11SM 27/22 A2997 RMK SLP136 T02690216 57009 IEM_DS3505
ZGNN,1995-10-17 10:00,ZGNN 171000Z AUTO 00000KT 7SM 26/21 A2997 RMK SLP137 T02600210 IEM_DS3505
ZGNN,1995-10-17 11:00,ZGNN 171100Z AUTO 00000KT 7SM 25/22 A2997 RMK SLP137 T02500220 IEM_DS3505
ZGNN,1995-10-17 12:00,ZGNN 171200Z AUTO 00000KT 12SM 26/22 A3000 RMK SLP146 T02550219 52009 IEM_DS3505
ZGNN,1995-10-17 15:00,ZGNN 171500Z AUTO 07002KT 12SM 24/22 A3001 RMK SLP150 T02420220 52005 IEM_DS3505
ZGNN,1995-10-17 18:00,ZGNN 171800Z AUTO 00000KT 11SM 24/22 A2999 RMK SLP145 T02370221 57005 IEM_DS3505
ZGNN,1995-10-17 21:00,ZGNN 172100Z AUTO 00000KT 11SM 24/22 A2997 RMK SLP143 T02350223 57002 IEM_DS3505
ZGNN,1995-10-17 22:00,ZGNN 172200Z AUTO 00000KT 7SM 23/22 A3000 RMK SLP147 T02300220 IEM_DS3505
ZGNN,1995-10-17 23:00,ZGNN 172300Z AUTO 00000KT 3SM 23/22 A3003 RMK SLP157 T02300220 IEM_DS3505
ZGNN,1995-10-18 00:00,ZGNN 180000Z AUTO 00000KT 5SM 24/22 A3005 RMK SLP163 T02360223 52019 IEM_DS3505
ZGNN,1995-10-18 03:00,ZGNN 180300Z AUTO 07004KT 7SM 27/22 A3006 RMK SLP165 T02660217 52003 IEM_DS3505
ZGNN,1995-10-18 04:00,ZGNN 180400Z AUTO 12008KT 6SM 28/21 A3003 RMK SLP155 T02800210 IEM_DS3505
ZGNN,1995-10-18 05:00,ZGNN 180500Z AUTO 17008KT 7SM 29/20 A3000 RMK SLP145 T02900200 IEM_DS3505
ZGNN,1995-10-18 06:00,ZGNN 180600Z AUTO 25004KT 16SM 29/21 A2997 RMK SLP135 T02910211 57030 IEM_DS3505
ZGNN,1995-10-18 07:00,ZGNN 180700Z AUTO 14006KT 7SM 29/21 A2994 RMK SLP125 T02900210 IEM_DS3505
ZGNN,1995-10-18 08:00,ZGNN 180800Z AUTO 10006KT 7SM 30/21 A2991 RMK SLP115 T03000210 IEM_DS3505
ZGNN,1995-10-18 09:00,ZGNN 180900Z AUTO 11002KT 16SM 30/22 A2994 RMK SLP120 T02970221 57015 IEM_DS3505
ZGNN,1995-10-18 10:00,ZGNN 181000Z AUTO 13004KT 6SM 27/22 A2991 RMK SLP115 T02700220 IEM_DS3505
ZGNN,1995-10-18 11:00,ZGNN 181100Z AUTO 18006KT 6SM 26/22 A2994 RMK SLP126 T02600220 IEM_DS3505
ZGNN,1995-10-18 12:00,ZGNN 181200Z AUTO 00000KT 16SM 27/22 A2994 RMK SLP128 T02710218 52008 IEM_DS3505
ZGNN,1995-10-18 13:00,ZGNN 181300Z AUTO 16004KT 6SM 25/22 A2997 RMK SLP136 T02500220 IEM_DS3505
ZGNN,1995-10-18 15:00,ZGNN 181500Z AUTO 07002KT 12SM 25/22 A2997 RMK SLP137 T02510221 52009 IEM_DS3505
ZGNN,1995-10-18 18:00,ZGNN 181800Z AUTO 00000KT 12SM 24/22 A2996 RMK SLP133 T02370224 57004 IEM_DS3505
ZGNN,1995-10-18 21:00,ZGNN 182100Z AUTO 04004KT 9SM 23/22 A2994 RMK SLP130 T02310219 57003 IEM_DS3505
ZGNN,1995-10-18 22:00,ZGNN 182200Z AUTO 00000KT 4SM 22/21 A2997 RMK SLP137 T02200210 IEM_DS3505
ZGNN,1995-10-18 23:00,ZGNN 182300Z AUTO 00000KT 1 1/2SM 22/21 A3000 RMK SLP147 T02200210 IEM_DS3505
ZGNN,1995-10-19 00:00,ZGNN 190000Z AUTO 00000KT 7SM 23/ A3002 RMK SLP151 52021 IEM_DS3505
ZGNN,1995-10-19 03:00,ZGNN 190300Z AUTO 20004KT 12SM 28/22 A3002 RMK SLP152 T02810222 52001 IEM_DS3505
ZGNN,1995-10-19 05:00,ZGNN 190500Z AUTO 15006KT 7SM 30/20 A2994 RMK SLP125 T03000200 IEM_DS3505
ZGNN,1995-10-19 06:00,ZGNN 190600Z AUTO 11002KT 16SM 30/20 A2991 RMK SLP118 T03050205 57033 IEM_DS3505
ZGNN,1995-10-19 09:00,ZGNN 190900Z AUTO 20006KT 16SM 30/20 A2989 RMK SLP107 T03010197 57012 IEM_DS3505
ZGNN,1995-10-19 12:00,ZGNN 191200Z AUTO 27002KT 16SM 27/21 A2990 RMK SLP113 T02670213 52006 IEM_DS3505
ZGNN,1995-10-19 15:00,ZGNN 191500Z AUTO 00000KT 12SM 25/21 A2993 RMK SLP123 T02470213 52010 IEM_DS3505
ZGNN,1995-10-19 18:00,ZGNN 191800Z AUTO 07002KT 12SM 23/21 A2992 RMK SLP119 T02320212 57004 IEM_DS3505
ZGNN,1995-10-19 21:00,ZGNN 192100Z AUTO 00000KT 12SM 22/21 A2988 RMK SLP113 T02250211 57006 IEM_DS3505
ZGNN,1995-10-19 22:00,ZGNN 192200Z AUTO 00000KT 4SM 21/20 A2991 RMK SLP117 T02100200 IEM_DS3505
ZGNN,1995-10-20 00:00,ZGNN 200000Z AUTO 07002KT 2 1/2SM 23/22 A2997 RMK SLP135 T02310218 52022 IEM_DS3505
ZGNN,1995-10-20 03:00,ZGNN 200300Z AUTO 22004KT 5SM 26/23 A2998 RMK SLP139 T02630231 52004 IEM_DS3505
ZGNN,1995-10-20 06:00,ZGNN 200600Z AUTO 00000KT 12SM 29/23 A2990 RMK SLP111 T02900228 57028 IEM_DS3505
ZGNN,1995-10-20 09:00,ZGNN 200900Z AUTO 22002KT 12SM 29/22 A2985 RMK SLP094 T02910224 57017 IEM_DS3505
ZGNN,1995-10-20 12:00,ZGNN 201200Z AUTO 00000KT 12SM 26/22 A2990 RMK SLP113 T02650224 52019 IEM_DS3505
ZGNN,1995-10-20 15:00,ZGNN 201500Z AUTO 11002KT 12SM 25/22 A2993 RMK SLP123 T02490222 52010 IEM_DS3505
ZGNN,1995-10-20 18:00,ZGNN 201800Z AUTO 11004KT 12SM 24/21 A2993 RMK SLP121 T02360212 57002 IEM_DS3505
ZGNN,1995-10-20 21:00,ZGNN 202100Z AUTO 00000KT 9SM 22/21 A2991 RMK SLP118 T02250207 57003 IEM_DS3505
ZGNN,1995-10-21 00:00,ZGNN 210000Z AUTO 11002KT 5SM 23/21 A2998 RMK SLP138 T02290214 52020 IEM_DS3505
ZGNN,1995-10-21 03:00,ZGNN 210300Z AUTO 11002KT 7SM 28/23 A2999 RMK SLP144 T02760226 52006 IEM_DS3505
ZGNN,1995-10-21 06:00,ZGNN 210600Z AUTO 25002KT 12SM 31/22 A2991 RMK SLP115 T03090217 57028 IEM_DS3505
ZGNN,1995-10-21 09:00,ZGNN 210900Z AUTO 20002KT 16SM 30/21 A2989 RMK SLP108 T03000211 57008 IEM_DS3505
ZGNN,1995-10-21 12:00,ZGNN 211200Z AUTO 00000KT 16SM 28/22 A2992 RMK SLP120 T02780221 52012 IEM_DS3505
ZGNN,1995-10-21 15:00,ZGNN 211500Z AUTO 07004KT 12SM 25/ A2998 RMK SLP139 52019 IEM_DS3505
ZGNN,1995-10-21 18:00,ZGNN 211800Z AUTO 07002KT 11SM 24/23 A2996 RMK SLP134 T02410229 57005 IEM_DS3505
ZGNN,1995-10-21 21:00,ZGNN 212100Z AUTO 07002KT 8SM 24/22 A2997 RMK SLP135 T02360224 52001 IEM_DS3505
ZGNN,1995-10-22 00:00,ZGNN 220000Z AUTO 00000KT 5SM 24/23 A3002 RMK SLP153 T02390227 52018 IEM_DS3505
ZGNN,1995-10-22 02:00,ZGNN 220200Z AUTO 12006KT 4SM 26/23 A3006 RMK SLP166 T02600230 IEM_DS3505
ZGNN,1995-10-22 03:00,ZGNN 220300Z AUTO 00000KT 7SM 27/23 A3006 RMK SLP164 T02680229 52011 IEM_DS3505
ZGNN,1995-10-22 04:00,ZGNN 220400Z AUTO 13004KT 4SM 28/22 A3003 RMK SLP155 T02800220 IEM_DS3505
ZGNN,1995-10-22 05:00,ZGNN 220500Z AUTO 12006KT 5SM 29/21 A3000 RMK SLP145 T02900210 IEM_DS3505
ZGNN,1995-10-22 06:00,ZGNN 220600Z AUTO 07004KT 11SM 26/22 A3000 RMK 60000 SLP145 T02550223 57019 IEM_DS3505
ZGNN,1995-10-22 07:00,ZGNN 220700Z AUTO 07008KT 3SM 27/23 A2997 RMK SLP136 T02700230 IEM_DS3505
ZGNN,1995-10-22 08:00,ZGNN 220800Z AUTO 06008KT 3SM 27/23 A2994 RMK SLP126 T02700230 IEM_DS3505
ZGNN,1995-10-22 09:00,ZGNN 220900Z AUTO 07002KT 12SM 26/22 A2994 RMK SLP131 T02620221 57014 IEM_DS3505
ZGNN,1995-10-22 10:00,ZGNN 221000Z AUTO 07006KT 4SM 25/22 A2997 RMK SLP136 T02500220 IEM_DS3505
ZGNN,1995-10-22 11:00,ZGNN 221100Z AUTO 08004KT 4SM 24/22 A2997 RMK SLP136 T02400220 IEM_DS3505
ZGNN,1995-10-22 12:00,ZGNN 221200Z AUTO 07004KT 12SM 24/22 A3000 RMK SLP147 T02450218 52015 IEM_DS3505
ZGNN,1995-10-22 13:00,ZGNN 221300Z AUTO 08004KT 3SM 23/22 A3003 RMK SLP157 T02300220 IEM_DS3505
ZGNN,1995-10-22 15:00,ZGNN 221500Z AUTO 00000KT 12SM 23/21 A3004 RMK SLP159 T02330213 52013 IEM_DS3505
ZGNN,1995-10-22 18:00,ZGNN 221800Z AUTO 07002KT 12SM 23/21 A3002 RMK SLP154 T02300209 57006 IEM_DS3505
ZGNN,1995-10-22 21:00,ZGNN 222100Z AUTO 11002KT 12SM 22/22 A3000 RMK SLP152 T02240215 57002 IEM_DS3505
ZGNN,1995-10-22 22:00,ZGNN 222200Z AUTO 04002KT 2SM 22/21 A3003 RMK SLP157 T02200210 IEM_DS3505
ZGNN,1995-10-22 23:00,ZGNN 222300Z AUTO 00000KT 1 1/4SM 22/22 A3003 RMK SLP157 T02200220 IEM_DS3505
ZGNN,1995-10-23 00:00,ZGNN 230000Z AUTO 09002KT 7SM 22/22 A3006 RMK 60020 70020 SLP169 T02230217 52017 IEM_DS3505
ZGNN,1995-10-23 01:00,ZGNN 230100Z AUTO 09004KT 1 1/4SM 22/21 A3009 RMK SLP177 T02200210 IEM_DS3505
ZGNN,1995-10-23 02:00,ZGNN 230200Z AUTO 08004KT 1 1/4SM 23/22 A3012 RMK SLP187 T02300220 IEM_DS3505
ZGNN,1995-10-23 03:00,ZGNN 230300Z AUTO 07002KT 6SM 22/22 A3009 RMK SLP182 T02250216 52013 IEM_DS3505
ZGNN,1995-10-23 04:00,ZGNN 230400Z AUTO 09004KT 1 1/4SM 23/22 A3009 RMK SLP177 T02300220 IEM_DS3505
ZGNN,1995-10-23 05:00,ZGNN 230500Z AUTO 07006KT 2 1/2SM 24/22 A3006 RMK SLP167 T02400220 IEM_DS3505
ZGNN,1995-10-23 06:00,ZGNN 230600Z AUTO 02004KT 9SM 25/22 A3003 RMK 60000 SLP157 T02490222 57025 IEM_DS3505
ZGNN,1995-10-23 07:00,ZGNN 230700Z AUTO 09008KT 4SM 27/23 A3000 RMK SLP146 T02700230 IEM_DS3505
ZGNN,1995-10-23 08:00,ZGNN 230800Z AUTO 36004KT 4SM 27/23 A2997 RMK SLP136 T02700230 IEM_DS3505
ZGNN,1995-10-23 09:00,ZGNN 230900Z AUTO 04004KT 11SM 27/22 A3000 RMK SLP141 T02670221 57015 IEM_DS3505
ZGNN,1995-10-23 10:00,ZGNN 231000Z AUTO 03004KT 3SM 25/23 A3000 RMK SLP146 T02500230 IEM_DS3505
ZGNN,1995-10-23 11:00,ZGNN 231100Z AUTO 00000KT 3SM 25/23 A3000 RMK SLP146 T02500230 IEM_DS3505
ZGNN,1995-10-23 12:00,ZGNN 231200Z AUTO 00000KT 9SM 25/23 A3003 RMK SLP157 T02490231 52015 IEM_DS3505
ZGNN,1995-10-23 13:00,ZGNN 231300Z AUTO 35004KT 3SM 23/22 A3006 RMK SLP167 T02300220 IEM_DS3505
ZGNN,1995-10-23 14:00,ZGNN 231400Z AUTO 03002KT 3SM 23/22 A3006 RMK SLP167 T02300220 IEM_DS3505
ZGNN,1995-10-23 15:00,ZGNN 231500Z AUTO 00000KT 9SM 24/23 A3008 RMK SLP175 T02390226 52018 IEM_DS3505
ZGNN,1995-10-23 18:00,ZGNN 231800Z AUTO 00000KT 2 1/2SM 23/23 A3008 RMK SLP175 T02330226 54000 IEM_DS3505
ZGNN,1995-10-23 21:00,ZGNN 232100Z AUTO 04004KT 5SM 24/20 A3009 RMK SLP177 T02350201 52002 IEM_DS3505
ZGNN,1995-10-23 22:00,ZGNN 232200Z AUTO 35008KT 7SM 22/19 A3012 RMK SLP187 T02200190 IEM_DS3505
ZGNN,1995-10-23 23:00,ZGNN 232300Z AUTO 36010KT 7SM 23/19 A3012 RMK SLP187 T02300190 IEM_DS3505
ZGNN,1995-10-24 00:00,ZGNN 240000Z AUTO 04006KT 12SM 23/18 A3018 RMK 70001 SLP205 T02270177 52028 IEM_DS3505
ZGNN,1995-10-24 01:00,ZGNN 240100Z AUTO 35008KT 7SM 22/17 A3021 RMK SLP218 T02200170 IEM_DS3505
ZGNN,1995-10-24 02:00,ZGNN 240200Z AUTO 35012KT 7SM 22/17 A3021 RMK SLP218 T02200170 IEM_DS3505
ZGNN,1995-10-24 03:00,ZGNN 240300Z AUTO 04004KT 19SM 23/15 A3021 RMK SLP217 T02270154 52012 IEM_DS3505
ZGNN,1995-10-24 04:00,ZGNN 240400Z AUTO 35008KT 7SM 23/16 A3018 RMK SLP207 T02300160 IEM_DS3505
ZGNN,1995-10-24 05:00,ZGNN 240500Z AUTO 34008KT 7SM 23/16 A3018 RMK SLP207 T02300160 IEM_DS3505
ZGNN,1995-10-24 06:00,ZGNN 240600Z AUTO 02008KT 19SM 23/15 A3015 RMK SLP199 T02290147 57018 IEM_DS3505
ZGNN,1995-10-24 07:00,ZGNN 240700Z AUTO 36012KT 7SM 23/15 A3012 RMK SLP187 T02300150 IEM_DS3505
ZGNN,1995-10-24 08:00,ZGNN 240800Z AUTO 36010KT 7SM 22/15 A3012 RMK SLP187 T02200150 IEM_DS3505
ZGNN,1995-10-24 09:00,ZGNN 240900Z AUTO 34006KT 16SM 22/15 A3012 RMK SLP191 T02240152 57008 IEM_DS3505
ZGNN,1995-10-24 10:00,ZGNN 241000Z AUTO 36006KT 7SM 21/15 A3015 RMK SLP198 T02100150 IEM_DS3505
ZGNN,1995-10-24 11:00,ZGNN 241100Z AUTO 35008KT 7SM 21/18 A3015 RMK SLP198 T02100180 IEM_DS3505
ZGNN,1995-10-24 12:00,ZGNN 241200Z AUTO 02002KT 16SM 21/16 A3018 RMK SLP205 T02140156 52013 IEM_DS3505
ZGNN,1995-10-24 13:00,ZGNN 241300Z AUTO 35004KT 7SM 19/15 A3018 RMK SLP209 T01900150 IEM_DS3505
ZGNN,1995-10-24 15:00,ZGNN 241500Z AUTO 02004KT 16SM 20/15 A3020 RMK SLP214 T02000151 52009 IEM_DS3505
ZGNN,1995-10-24 18:00,ZGNN 241800Z AUTO 36004KT 16SM 19/14 A3019 RMK SLP211 T01930139 57003 IEM_DS3505
ZGNN,1995-10-24 21:00,ZGNN 242100Z AUTO 02002KT 16SM 18/13 A3018 RMK SLP206 T01810132 57005 IEM_DS3505
ZGNN,1995-10-24 22:00,ZGNN 242200Z AUTO 00000KT 7SM 16/13 A3018 RMK SLP209 T01600130 IEM_DS3505
ZGNN,1995-10-24 23:00,ZGNN 242300Z AUTO 36004KT 6SM 16/13 A3021 RMK SLP220 T01600130 IEM_DS3505
ZGNN,1995-10-25 00:00,ZGNN 250000Z AUTO 02002KT 9SM 18/12 A3024 RMK SLP227 T01820125 52020 IEM_DS3505
ZGNN,1995-10-25 01:00,ZGNN 250100Z AUTO 34008KT 6SM 19/12 A3024 RMK SLP229 T01900120 IEM_DS3505
ZGNN,1995-10-25 02:00,ZGNN 250200Z AUTO 34010KT 6SM 20/11 A3024 RMK SLP228 T02000110 IEM_DS3505
ZGNN,1995-10-25 03:00,ZGNN 250300Z AUTO 02004KT 9SM 23/12 A3024 RMK SLP223 T02270122 57003 IEM_DS3505
ZGNN,1995-10-25 04:00,ZGNN 250400Z AUTO 35012KT 7SM 23/11 A3018 RMK SLP207 T02300110 IEM_DS3505
ZGNN,1995-10-25 05:00,ZGNN 250500Z AUTO 01008KT 7SM 24/11 A3015 RMK SLP197 T02400110 IEM_DS3505
ZGNN,1995-10-25 06:00,ZGNN 250600Z AUTO 07004KT 9SM 25/13 A3012 RMK SLP183 T02520131 57039 IEM_DS3505
ZGNN,1995-10-25 07:00,ZGNN 250700Z AUTO 01008KT 7SM 25/12 A3009 RMK SLP177 T02500120 IEM_DS3505
ZGNN,1995-10-25 08:00,ZGNN 250800Z AUTO 35006KT 7SM 25/12 A3006 RMK SLP166 T02500120 IEM_DS3505
ZGNN,1995-10-25 09:00,ZGNN 250900Z AUTO 07006KT 12SM 26/14 A3006 RMK SLP165 T02550135 57018 IEM_DS3505
ZGNN,1995-10-25 10:00,ZGNN 251000Z AUTO 01004KT 6SM 24/14 A3006 RMK SLP167 T02400140 IEM_DS3505
ZGNN,1995-10-25 11:00,ZGNN 251100Z AUTO 00000KT 6SM 21/16 A3009 RMK SLP178 T02100160 IEM_DS3505
ZGNN,1995-10-25 12:00,ZGNN 251200Z AUTO 07002KT 12SM 22/15 A3009 RMK SLP182 T02190150 52016 IEM_DS3505
ZGNN,1995-10-25 13:00,ZGNN 251300Z AUTO 00000KT 6SM 19/16 A3012 RMK SLP188 T01900160 IEM_DS3505
ZGNN,1995-10-25 15:00,ZGNN 251500Z AUTO 00000KT 9SM 20/16 A3012 RMK SLP188 T02050158 52006 IEM_DS3505
ZGNN,1995-10-25 18:00,ZGNN 251800Z AUTO 00000KT 9SM 20/18 A3010 RMK SLP180 T02040175 57007 IEM_DS3505
ZGNN,1995-10-25 21:00,ZGNN 252100Z AUTO 02002KT 9SM 20/16 A3009 RMK SLP174 T02020159 57006 IEM_DS3505
ZGNN,1995-10-25 22:00,ZGNN 252200Z AUTO 00000KT 7SM 19/15 A3009 RMK SLP178 T01900150 IEM_DS3505
ZGNN,1995-10-25 23:00,ZGNN 252300Z AUTO 36004KT 7SM 19/15 A3012 RMK SLP188 T01900150 IEM_DS3505
ZGNN,1995-10-26 00:00,ZGNN 260000Z AUTO 00000KT 9SM 20/15 A3015 RMK SLP195 T02010147 52020 IEM_DS3505
ZGNN,1995-10-26 01:00,ZGNN 260100Z AUTO 34008KT 6SM 21/15 A3015 RMK SLP198 T02100150 IEM_DS3505
ZGNN,1995-10-26 02:00,ZGNN 260200Z AUTO 02004KT 6SM 22/14 A3015 RMK SLP198 T02200140 IEM_DS3505
ZGNN,1995-10-26 03:00,ZGNN 260300Z AUTO 04002KT 12SM 24/14 A3015 RMK SLP196 T02380142 52001 IEM_DS3505
ZGNN,1995-10-26 04:00,ZGNN 260400Z AUTO 35006KT 6SM 25/13 A3012 RMK SLP187 T02500130 IEM_DS3505
ZGNN,1995-10-26 05:00,ZGNN 260500Z AUTO 07006KT 6SM 26/15 A3006 RMK SLP166 T02600150 IEM_DS3505
ZGNN,1995-10-26 06:00,ZGNN 260600Z AUTO 04004KT 16SM 27/15 A3003 RMK SLP160 T02680154 57035 IEM_DS3505
ZGNN,1995-10-26 07:00,ZGNN 260700Z AUTO 35010KT 6SM 27/15 A3000 RMK SLP146 T02700150 IEM_DS3505
ZGNN,1995-10-26 08:00,ZGNN 260800Z AUTO 35008KT 6SM 26/15 A3000 RMK SLP146 T02600150 IEM_DS3505
ZGNN,1995-10-26 09:00,ZGNN 260900Z AUTO 02004KT 6SM 26/15 A3000 RMK SLP146 T02600150 IEM_DS3505
ZGNN,1995-10-26 10:00,ZGNN 261000Z AUTO 00000KT 6SM 25/18 A3000 RMK SLP146 T02500180 IEM_DS3505
ZGNN,1995-10-26 11:00,ZGNN 261100Z AUTO 00000KT 6SM 23/17 A3003 RMK SLP157 T02300170 IEM_DS3505
ZGNN,1995-10-26 12:00,ZGNN 261200Z AUTO 07002KT 12SM 24/16 A3006 RMK SLP162 T02350158 52017 IEM_DS3505
ZGNN,1995-10-26 13:00,ZGNN 261300Z AUTO 36004KT 6SM 20/17 A3006 RMK SLP168 T02000170 IEM_DS3505
ZGNN,1995-10-26 14:00,ZGNN 261400Z AUTO 36004KT 6SM 19/17 A3006 RMK SLP168 T01900170 IEM_DS3505
ZGNN,1995-10-26 15:00,ZGNN 261500Z AUTO 04002KT 12SM 22/17 A3007 RMK SLP172 T02220167 52010 IEM_DS3505
ZGNN,1995-10-26 18:00,ZGNN 261800Z AUTO 00000KT 9SM 20/17 A3007 RMK SLP169 T02040170 57003 IEM_DS3505
ZGNN,1995-10-26 21:00,ZGNN 262100Z AUTO 00000KT 5SM 21/17 A3007 RMK SLP170 T02090170 52001 IEM_DS3505
ZGNN,1995-10-26 22:00,ZGNN 262200Z AUTO 00000KT 5SM 20/15 A3006 RMK SLP168 T02000150 IEM_DS3505
ZGNN,1995-10-26 23:00,ZGNN 262300Z AUTO 00000KT 6SM 20/15 A3009 RMK SLP178 T02000150 IEM_DS3505
ZGNN,1995-10-27 00:00,ZGNN 270000Z AUTO 11004KT 6SM 21/18 A3012 RMK SLP188 T02130176 52018 IEM_DS3505
ZGNN,1995-10-27 01:00,ZGNN 270100Z AUTO 03004KT 6SM 21/15 A3015 RMK SLP198 T02100150 IEM_DS3505
ZGNN,1995-10-27 02:00,ZGNN 270200Z AUTO 35006KT 6SM 23/15 A3015 RMK SLP197 T02300150 IEM_DS3505
ZGNN,1995-10-27 03:00,ZGNN 270300Z AUTO 02004KT 12SM 25/16 A3014 RMK SLP195 T02490161 52007 IEM_DS3505
ZGNN,1995-10-27 04:00,ZGNN 270400Z AUTO 32006KT 6SM 25/16 A3012 RMK SLP187 T02500160 IEM_DS3505
ZGNN,1995-10-27 05:00,ZGNN 270500Z AUTO 04004KT 6SM 26/17 A3009 RMK SLP176 T02600170 IEM_DS3505
ZGNN,1995-10-27 06:00,ZGNN 270600Z AUTO 11004KT 16SM 27/16 A3006 RMK SLP160 T02710156 57035 IEM_DS3505
ZGNN,1995-10-27 07:00,ZGNN 270700Z AUTO 36006KT 6SM 26/15 A3000 RMK SLP146 T02600150 IEM_DS3505
ZGNN,1995-10-27 08:00,ZGNN 270800Z AUTO 36002KT 6SM 26/16 A3000 RMK SLP146 T02600160 IEM_DS3505
ZGNN,1995-10-27 09:00,ZGNN 270900Z AUTO 09004KT 16SM 27/16 A3000 RMK SLP143 T02690161 57017 IEM_DS3505
ZGNN,1995-10-27 10:00,ZGNN 271000Z AUTO 00000KT 6SM 25/17 A3000 RMK SLP146 T02500170 IEM_DS3505
ZGNN,1995-10-27 11:00,ZGNN 271100Z AUTO 00000KT 6SM 24/19 A3000 RMK SLP147 T02400190 IEM_DS3505
ZGNN,1995-10-27 12:00,ZGNN 271200Z AUTO 04002KT 12SM 25/16 A3003 RMK SLP156 T02480162 52013 IEM_DS3505
ZGNN,1995-10-27 13:00,ZGNN 271300Z AUTO 00000KT 6SM 22/20 A3006 RMK SLP167 T02200200 IEM_DS3505
ZGNN,1995-10-27 15:00,ZGNN 271500Z AUTO 00000KT 11SM 23/17 A3006 RMK SLP167 T02330170 52011 IEM_DS3505
ZGNN,1995-10-27 18:00,ZGNN 271800Z AUTO 00000KT 11SM 21/17 A3004 RMK SLP159 T02080174 57008 IEM_DS3505
ZGNN,1995-10-27 21:00,ZGNN 272100Z AUTO 00000KT 9SM 21/19 A3001 RMK SLP151 T02100186 57008 IEM_DS3505
ZGNN,1995-10-27 22:00,ZGNN 272200Z AUTO 00000KT 4SM 19/17 A3003 RMK SLP158 T01900170 IEM_DS3505
ZGNN,1995-10-27 23:00,ZGNN 272300Z AUTO 00000KT 3SM 18/17 A3003 RMK SLP158 T01800170 IEM_DS3505
ZGNN,1995-10-28 00:00,ZGNN 280000Z AUTO 00000KT 5SM 21/18 A3006 RMK SLP164 T02080177 52013 IEM_DS3505
ZGNN,1995-10-28 01:00,ZGNN 280100Z AUTO 00000KT 3SM 22/18 A3006 RMK SLP167 T02200180 IEM_DS3505
ZGNN,1995-10-28 02:00,ZGNN 280200Z AUTO 05006KT 7SM 25/16 A3009 RMK SLP177 T02500160 IEM_DS3505
ZGNN,1995-10-28 03:00,ZGNN 280300Z AUTO 04004KT 9SM 26/15 A3006 RMK SLP165 T02580153 52001 IEM_DS3505
ZGNN,1995-10-28 04:00,ZGNN 280400Z AUTO 05006KT 7SM 28/17 A3003 RMK SLP155 T02800170 IEM_DS3505
ZGNN,1995-10-28 05:00,ZGNN 280500Z AUTO 08004KT 7SM 28/17 A3000 RMK SLP145 T02800170 IEM_DS3505
ZGNN,1995-10-28 06:00,ZGNN 280600Z AUTO 25004KT 12SM 29/16 A2994 RMK SLP131 T02860163 57033 IEM_DS3505
ZGNN,1995-10-28 07:00,ZGNN 280700Z AUTO 00000KT 7SM 29/18 A2994 RMK SLP125 T02900180 IEM_DS3505
ZGNN,1995-10-28 08:00,ZGNN 280800Z AUTO 02002KT 7SM 29/17 A2991 RMK SLP115 T02900170 IEM_DS3505
ZGNN,1995-10-28 09:00,ZGNN 280900Z AUTO 04002KT 12SM 29/17 A2991 RMK SLP117 T02900170 57014 IEM_DS3505
ZGNN,1995-10-28 10:00,ZGNN 281000Z AUTO 00000KT 7SM 26/19 A2991 RMK SLP116 T02600190 IEM_DS3505
ZGNN,1995-10-28 11:00,ZGNN 281100Z AUTO 00000KT 7SM 24/20 A2994 RMK SLP126 T02400200 IEM_DS3505
ZGNN,1995-10-28 12:00,ZGNN 281200Z AUTO 00000KT 12SM 25/19 A2997 RMK SLP136 T02520190 52018 IEM_DS3505
ZGNN,1995-10-28 13:00,ZGNN 281300Z AUTO 36004KT 7SM 22/19 A3000 RMK SLP147 T02200190 IEM_DS3505
ZGNN,1995-10-28 14:00,ZGNN 281400Z AUTO 01004KT 7SM 21/19 A3000 RMK SLP147 T02100190 IEM_DS3505
ZGNN,1995-10-28 15:00,ZGNN 281500Z AUTO 00000KT 11SM 23/20 A3000 RMK SLP145 T02320196 52010 IEM_DS3505
ZGNN,1995-10-28 18:00,ZGNN 281800Z AUTO 00000KT 11SM 21/19 A2999 RMK SLP142 T02120192 57003 IEM_DS3505
ZGNN,1995-10-28 21:00,ZGNN 282100Z AUTO 00000KT 9SM 21/19 A2997 RMK SLP142 T02090190 54000 IEM_DS3505
ZGNN,1995-10-28 22:00,ZGNN 282200Z AUTO 00000KT 4SM 19/18 A3000 RMK SLP148 T01900180 IEM_DS3505
ZGNN,1995-10-28 23:00,ZGNN 282300Z AUTO 00000KT 2SM 19/18 A3000 RMK SLP148 T01900180 IEM_DS3505
ZGNN,1995-10-29 00:00,ZGNN 290000Z AUTO 00000KT 7SM 21/19 A3003 RMK SLP152 T02090192 52009 IEM_DS3505
ZGNN,1995-10-29 01:00,ZGNN 290100Z AUTO 00000KT 1SM 22/20 A3003 RMK SLP157 T02200200 IEM_DS3505
ZGNN,1995-10-29 02:00,ZGNN 290200Z AUTO 00000KT 2SM 26/19 A3006 RMK SLP166 T02600190 IEM_DS3505
ZGNN,1995-10-29 03:00,ZGNN 290300Z AUTO 02002KT 9SM 27/18 A3003 RMK SLP159 T02660178 52008 IEM_DS3505
ZGNN,1995-10-29 04:00,ZGNN 290400Z AUTO 00000KT 5SM 28/18 A3000 RMK SLP145 T02800180 IEM_DS3505
ZGNN,1995-10-29 05:00,ZGNN 290500Z AUTO 06008KT 5SM 29/16 A2997 RMK SLP135 T02900160 IEM_DS3505
ZGNN,1995-10-29 06:00,ZGNN 290600Z AUTO 04006KT 16SM 30/16 A2993 RMK SLP123 T03020164 57036 IEM_DS3505
ZGNN,1995-10-29 07:00,ZGNN 290700Z AUTO 02006KT 7SM 30/17 A2991 RMK SLP115 T03000170 IEM_DS3505
ZGNN,1995-10-29 08:00,ZGNN 290800Z AUTO 00000KT 7SM 30/17 A2991 RMK SLP115 T03000170 IEM_DS3505
ZGNN,1995-10-29 09:00,ZGNN 290900Z AUTO 07004KT 16SM 30/16 A2988 RMK SLP110 T02990165 57013 IEM_DS3505
ZGNN,1995-10-29 10:00,ZGNN 291000Z AUTO 00000KT 7SM 27/19 A2991 RMK SLP115 T02700190 IEM_DS3505
ZGNN,1995-10-29 11:00,ZGNN 291100Z AUTO 36004KT 7SM 24/20 A2991 RMK SLP116 T02400200 IEM_DS3505
ZGNN,1995-10-29 12:00,ZGNN 291200Z AUTO 00000KT 12SM 25/18 A2994 RMK SLP122 T02490178 52011 IEM_DS3505
ZGNN,1995-10-29 15:00,ZGNN 291500Z AUTO 04002KT 11SM 23/19 A2994 RMK SLP128 T02260188 52007 IEM_DS3505
ZGNN,1995-10-29 18:00,ZGNN 291800Z AUTO 00000KT 10SM 21/18 A2993 RMK SLP122 T02090182 57006 IEM_DS3505
ZGNN,1995-10-29 21:00,ZGNN 292100Z AUTO 00000KT 7SM 20/18 A2994 RMK SLP127 T02030181 52005 IEM_DS3505
ZGNN,1995-10-29 22:00,ZGNN 292200Z AUTO 00000KT 3SM 18/17 A2994 RMK SLP128 T01800170 IEM_DS3505
ZGNN,1995-10-29 23:00,ZGNN 292300Z AUTO 00000KT 2 1/2SM 18/17 A2997 RMK SLP138 T01800170 IEM_DS3505
ZGNN,1995-10-30 00:00,ZGNN 300000Z AUTO 00000KT 4SM 20/18 A2997 RMK SLP141 T02040183 52013 IEM_DS3505
ZGNN,1995-10-30 01:00,ZGNN 300100Z AUTO 00000KT 2 1/2SM 22/19 A3000 RMK SLP147 T02200190 IEM_DS3505
ZGNN,1995-10-30 02:00,ZGNN 300200Z AUTO 00000KT 3SM 25/19 A3000 RMK SLP146 T02500190 IEM_DS3505
ZGNN,1995-10-30 03:00,ZGNN 300300Z AUTO 02002KT 7SM 26/18 A3000 RMK SLP141 T02630176 52001 IEM_DS3505
ZGNN,1995-10-30 04:00,ZGNN 300400Z AUTO 11006KT 7SM 28/15 A2994 RMK SLP125 T02800150 IEM_DS3505
ZGNN,1995-10-30 05:00,ZGNN 300500Z AUTO 08006KT 7SM 29/15 A2991 RMK SLP115 T02900150 IEM_DS3505
ZGNN,1995-10-30 06:00,ZGNN 300600Z AUTO 14004KT 12SM 30/17 A2988 RMK SLP106 T03020170 57035 IEM_DS3505
ZGNN,1995-10-30 07:00,ZGNN 300700Z AUTO 15008KT 7SM 30/16 A2985 RMK SLP093 T03000160 IEM_DS3505
ZGNN,1995-10-30 08:00,ZGNN 300800Z AUTO 15004KT 7SM 30/16 A2985 RMK SLP093 T03000160 IEM_DS3505
ZGNN,1995-10-30 09:00,ZGNN 300900Z AUTO 00000KT 14SM 30/16 A2985 RMK SLP096 T03040163 57010 IEM_DS3505
ZGNN,1995-10-30 10:00,ZGNN 301000Z AUTO 06004KT 7SM 28/19 A2985 RMK SLP094 T02800190 IEM_DS3505
ZGNN,1995-10-30 11:00,ZGNN 301100Z AUTO 36004KT 7SM 25/20 A2988 RMK SLP106 T02500200 IEM_DS3505
ZGNN,1995-10-30 12:00,ZGNN 301200Z AUTO 04002KT 12SM 25/19 A2991 RMK SLP116 T02540191 52019 IEM_DS3505
ZGNN,1995-10-30 13:00,ZGNN 301300Z AUTO 36004KT 7SM 22/19 A2994 RMK SLP127 T02200190 IEM_DS3505
ZGNN,1995-10-30 15:00,ZGNN 301500Z AUTO 07004KT 12SM 24/19 A2996 RMK SLP132 T02430187 52017 IEM_DS3505
ZGNN,1995-10-30 18:00,ZGNN 301800Z AUTO 00000KT 11SM 24/19 A2996 RMK SLP132 T02370194 54000 IEM_DS3505
ZGNN,1995-10-30 21:00,ZGNN 302100Z AUTO 00000KT 11SM 23/19 A2997 RMK SLP137 T02340187 52005 IEM_DS3505
ZGNN,1995-10-30 22:00,ZGNN 302200Z AUTO 36004KT 4SM 22/19 A2997 RMK SLP137 T02200190 IEM_DS3505
ZGNN,1995-10-30 23:00,ZGNN 302300Z AUTO 36004KT 2 1/2SM 22/19 A3000 RMK SLP147 T02200190 IEM_DS3505
ZGNN,1995-10-31 00:00,ZGNN 310000Z AUTO 00000KT 5SM 23/17 A3003 RMK SLP155 T02290167 52017 IEM_DS3505
ZGNN,1995-10-31 01:00,ZGNN 310100Z AUTO 06006KT 2 1/2SM 24/18 A3006 RMK SLP167 T02400180 IEM_DS3505
ZGNN,1995-10-31 02:00,ZGNN 310200Z AUTO 07006KT 3SM 25/16 A3006 RMK SLP166 T02500160 IEM_DS3505
ZGNN,1995-10-31 03:00,ZGNN 310300Z AUTO 07006KT 7SM 26/14 A3006 RMK SLP165 T02620142 52011 IEM_DS3505
ZGNN,1995-10-31 04:00,ZGNN 310400Z AUTO 06006KT 5SM 27/15 A3003 RMK SLP156 T02700150 IEM_DS3505
ZGNN,1995-10-31 05:00,ZGNN 310500Z AUTO 05006KT 5SM 27/16 A3003 RMK SLP156 T02700160 IEM_DS3505
ZGNN,1995-10-31 06:00,ZGNN 310600Z AUTO 07006KT 11SM 28/16 A2995 RMK SLP129 T02820158 57036 IEM_DS3505
ZGNN,1995-10-31 07:00,ZGNN 310700Z AUTO 07010KT 5SM 28/16 A2994 RMK SLP125 T02800160 IEM_DS3505
ZGNN,1995-10-31 10:00,ZGNN 311000Z AUTO 07004KT 5SM 25/17 A2994 RMK SLP126 T02500170 IEM_DS3505
ZGNN,1995-10-31 11:00,ZGNN 311100Z AUTO 00000KT 4SM 23/17 A2997 RMK SLP137 T02300170 IEM_DS3505
ZGNN,1995-10-31 12:00,ZGNN 311200Z AUTO 07006KT 11SM 24/14 A3000 RMK SLP147 T02390139 52022 IEM_DS3505
ZGNN,1995-10-31 13:00,ZGNN 311300Z AUTO 00000KT 4SM 22/15 A3003 RMK SLP157 T02200150 IEM_DS3505
ZGNN,1995-10-31 15:00,ZGNN 311500Z AUTO 07006KT 11SM 24/14 A3000 RMK SLP147 T02390139 52022 IEM_DS3505
ZGNN,1995-10-31 18:00,ZGNN 311800Z AUTO 04002KT 12SM 21/13 A3007 RMK SLP169 T02110131 52006 IEM_DS3505
ZGNN,1995-10-31 21:00,ZGNN 312100Z AUTO 04004KT 9SM 20/12 A3006 RMK SLP164 T02000116 57005 IEM_DS3505
ZGNN,1995-10-31 22:00,ZGNN 312200Z AUTO 24004KT 7SM 18/13 A3006 RMK SLP168 T01800130 IEM_DS3505
ZGNN,1995-10-31 23:00,ZGNN 312300Z AUTO 00000KT 7SM 18/14 A3006 RMK SLP168 T01800140 IEM_DS3505
ZGNN,1995-11-01 00:00,ZGNN 010000Z AUTO 02004KT 7SM 19/12 A3009 RMK SLP179 T01890115 52014 IEM_DS3505
ZGNN,1995-11-01 01:00,ZGNN 010100Z AUTO 00000KT 6SM 20/12 A3009 RMK SLP178 T02000120 IEM_DS3505
ZGNN,1995-11-01 02:00,ZGNN 010200Z AUTO 01008KT 6SM 22/08 A3012 RMK SLP187 T02200080 IEM_DS3505
ZGNN,1995-11-01 03:00,ZGNN 010300Z AUTO 00000KT 11SM 23/08 A3009 RMK SLP180 T02320079 52002 IEM_DS3505
ZGNN,1995-11-01 04:00,ZGNN 010400Z AUTO 35006KT 6SM 24/10 A3006 RMK SLP167 T02400100 IEM_DS3505
ZGNN,1995-11-01 05:00,ZGNN 010500Z AUTO 35006KT 6SM 25/09 A3003 RMK SLP156 T02500090 IEM_DS3505
ZGNN,1995-11-01 06:00,ZGNN 010600Z AUTO 04008KT 12SM 26/10 A3000 RMK SLP149 T02590102 57031 IEM_DS3505
ZGNN,1995-11-01 07:00,ZGNN 010700Z AUTO 03008KT 6SM 26/10 A2997 RMK SLP136 T02600100 IEM_DS3505
ZGNN,1995-11-01 08:00,ZGNN 010800Z AUTO 08010KT 6SM 26/10 A2997 RMK SLP136 T02600100 IEM_DS3505
ZGNN,1995-11-01 09:00,ZGNN 010900Z AUTO 07006KT 12SM 26/11 A2997 RMK SLP141 T02580106 57008 IEM_DS3505
ZGNN,1995-11-01 10:00,ZGNN 011000Z AUTO 07006KT 6SM 23/11 A3000 RMK SLP147 T02300110 IEM_DS3505
ZGNN,1995-11-01 11:00,ZGNN 011100Z AUTO 05004KT 6SM 21/13 A3003 RMK SLP158 T02100130 IEM_DS3505
ZGNN,1995-11-01 12:00,ZGNN 011200Z AUTO 04004KT 12SM 22/12 A3006 RMK SLP167 T02230119 52025 IEM_DS3505
ZGNN,1995-11-01 13:00,ZGNN 011300Z AUTO 35004KT 6SM 20/12 A3009 RMK SLP178 T02000120 IEM_DS3505
ZGNN,1995-11-01 15:00,ZGNN 011500Z AUTO 00000KT 11SM 20/13 A3010 RMK SLP181 T02010131 52014 IEM_DS3505
ZGNN,1995-11-01 18:00,ZGNN 011800Z AUTO 00000KT 9SM 19/14 A3011 RMK SLP183 T01890144 52003 IEM_DS3505
ZGNN,1995-11-01 21:00,ZGNN 012100Z AUTO 00000KT 7SM 20/12 A3009 RMK SLP178 T01960115 57005 IEM_DS3505
ZGNN,1995-11-01 22:00,ZGNN 012200Z AUTO 04004KT 6SM 18/14 A3012 RMK SLP189 T01800140 IEM_DS3505
ZGNN,1995-11-01 23:00,ZGNN 012300Z AUTO 03004KT 6SM 19/10 A3012 RMK SLP188 T01900100 IEM_DS3505
ZGNN,1995-11-02 00:00,ZGNN 020000Z AUTO 11002KT 7SM 20/10 A3015 RMK SLP199 T01960097 52020 IEM_DS3505
ZGNN,1995-11-02 01:00,ZGNN 020100Z AUTO 02006KT 6SM 21/09 A3018 RMK SLP208 T02100090 IEM_DS3505
ZGNN,1995-11-02 02:00,ZGNN 020200Z AUTO 03004KT 6SM 21/09 A3018 RMK SLP208 T02100090 IEM_DS3505
ZGNN,1995-11-02 03:00,ZGNN 020300Z AUTO 04004KT 11SM 22/07 A3018 RMK SLP205 T02220072 52006 IEM_DS3505
ZGNN,1995-11-02 04:00,ZGNN 020400Z AUTO 04004KT 6SM 23/07 A3015 RMK SLP197 T02300070 IEM_DS3505
ZGNN,1995-11-02 05:00,ZGNN 020500Z AUTO 06006KT 6SM 24/07 A3012 RMK SLP187 T02400070 IEM_DS3505
ZGNN,1995-11-02 06:00,ZGNN 020600Z AUTO 09006KT 12SM 25/08 A3009 RMK SLP173 T02510079 57031 IEM_DS3505
ZGNN,1995-11-02 07:00,ZGNN 020700Z AUTO 08008KT 6SM 24/06 A3006 RMK SLP167 T02400060 IEM_DS3505
ZGNN,1995-11-02 08:00,ZGNN 020800Z AUTO 03006KT 6SM 24/06 A3003 RMK SLP157 T02400060 IEM_DS3505
ZGNN,1995-11-02 09:00,ZGNN 020900Z AUTO 09004KT 14SM 24/08 A3003 RMK SLP160 T02410080 57013 IEM_DS3505
ZGNN,1995-11-02 10:00,ZGNN 021000Z AUTO 06004KT 6SM 22/10 A3006 RMK SLP167 T02200100 IEM_DS3505
ZGNN,1995-11-02 11:00,ZGNN 021100Z AUTO 06004KT 6SM 20/11 A3009 RMK SLP178 T02000110 IEM_DS3505
ZGNN,1995-11-02 12:00,ZGNN 021200Z AUTO 00000KT 14SM 22/10 A3010 RMK SLP181 T02190102 52020 IEM_DS3505
ZGNN,1995-11-02 13:00,ZGNN 021300Z AUTO 36004KT 6SM 19/11 A3012 RMK SLP188 T01900110 IEM_DS3505
ZGNN,1995-11-02 14:00,ZGNN 021400Z AUTO 00000KT 6SM 19/12 A3012 RMK SLP188 T01900120 IEM_DS3505
ZGNN,1995-11-02 15:00,ZGNN 021500Z AUTO 00000KT 12SM 22/11 A3012 RMK SLP187 T02150106 52006 IEM_DS3505
ZGNN,1995-11-02 18:00,ZGNN 021800Z AUTO 00000KT 12SM 20/14 A3010 RMK SLP180 T02040139 57006 IEM_DS3505
ZGNN,1995-11-02 21:00,ZGNN 022100Z AUTO 00000KT 6SM 19/13 A3009 RMK SLP178 T01900130 IEM_DS3505
ZGNN,1995-11-02 22:00,ZGNN 022200Z AUTO 00000KT 6SM 19/14 A3012 RMK SLP188 T01900140 IEM_DS3505
ZGNN,1995-11-02 23:00,ZGNN 022300Z AUTO 02004KT 6SM 19/12 A3012 RMK SLP188 T01900120 IEM_DS3505
ZGNN,1995-11-03 00:00,ZGNN 030000Z AUTO 04002KT 11SM 20/10 A3015 RMK SLP192 T01980100 52013 IEM_DS3505
ZGNN,1995-11-03 01:00,ZGNN 030100Z AUTO 04006KT 6SM 21/09 A3015 RMK SLP198 T02100090 IEM_DS3505
ZGNN,1995-11-03 02:00,ZGNN 030200Z AUTO 09004KT 6SM 22/08 A3018 RMK SLP208 T02200080 IEM_DS3505
ZGNN,1995-11-03 03:00,ZGNN 030300Z AUTO 00000KT 12SM 23/09 A3015 RMK SLP202 T02290087 52010 IEM_DS3505
ZGNN,1995-11-03 04:00,ZGNN 030400Z AUTO 08006KT 6SM 24/06 A3012 RMK SLP187 T02400060 IEM_DS3505
ZGNN,1995-11-03 05:00,ZGNN 030500Z AUTO 09008KT 6SM 26/07 A3009 RMK SLP176 T02600070 IEM_DS3505
ZGNN,1995-11-03 06:00,ZGNN 030600Z AUTO 00000KT 17SM 25/09 A3006 RMK SLP166 T02510090 57035 IEM_DS3505
ZGNN,1995-11-03 07:00,ZGNN 030700Z AUTO 34006KT 6SM 25/07 A3003 RMK SLP156 T02500070 IEM_DS3505
ZGNN,1995-11-03 08:00,ZGNN 030800Z AUTO 35004KT 6SM 25/09 A3003 RMK SLP156 T02500090 IEM_DS3505
ZGNN,1995-11-03 09:00,ZGNN 030900Z AUTO 00000KT 12SM 25/10 A3003 RMK SLP161 T02530105 57005 IEM_DS3505
ZGNN,1995-11-03 10:00,ZGNN 031000Z AUTO 00000KT 6SM 24/09 A3006 RMK SLP167 T02400090 IEM_DS3505
ZGNN,1995-11-03 11:00,ZGNN 031100Z AUTO 06004KT 6SM 22/12 A3006 RMK SLP167 T02200120 IEM_DS3505
ZGNN,1995-11-03 12:00,ZGNN 031200Z AUTO 04004KT 16SM 23/09 A3009 RMK SLP179 T02300090 52017 IEM_DS3505
ZGNN,1995-11-03 13:00,ZGNN 031300Z AUTO 05002KT 6SM 22/13 A3012 RMK SLP187 T02200130 IEM_DS3505
ZGNN,1995-11-03 15:00,ZGNN 031500Z AUTO 00000KT 16SM 22/12 A3012 RMK SLP188 T02150117 52010 IEM_DS3505
ZGNN,1995-11-03 18:00,ZGNN 031800Z AUTO 00000KT 11SM 21/12 A3009 RMK SLP178 T02080125 57010 IEM_DS3505
ZGNN,1995-11-03 21:00,ZGNN 032100Z AUTO 02004KT 9SM 20/10 A3009 RMK SLP173 T02020096 57005 IEM_DS3505
ZGNN,1995-11-03 22:00,ZGNN 032200Z AUTO 01006KT 7SM 19/08 A3009 RMK SLP178 T01900080 IEM_DS3505
ZGNN,1995-11-03 23:00,ZGNN 032300Z AUTO 00000KT 7SM 19/08 A3012 RMK SLP188 T01900080 IEM_DS3505
ZGNN,1995-11-04 00:00,ZGNN 040000Z AUTO 02004KT 11SM 20/08 A3015 RMK SLP201 T02000083 52027 IEM_DS3505
ZGNN,1995-11-04 01:00,ZGNN 040100Z AUTO 36004KT 7SM 20/08 A3018 RMK SLP208 T02000080 IEM_DS3505
ZGNN,1995-11-04 02:00,ZGNN 040200Z AUTO 36004KT 7SM 20/09 A3021 RMK SLP218 T02000090 IEM_DS3505
ZGNN,1995-11-04 03:00,ZGNN 040300Z AUTO 02004KT 12SM 21/09 A3021 RMK SLP211 T02140086 52010 IEM_DS3505
ZGNN,1995-11-04 04:00,ZGNN 040400Z AUTO 01008KT 6SM 22/06 A3015 RMK SLP198 T02200060 IEM_DS3505
ZGNN,1995-11-04 05:00,ZGNN 040500Z AUTO 35006KT 6SM 22/07 A3012 RMK SLP187 T02200070 IEM_DS3505
ZGNN,1995-11-04 06:00,ZGNN 040600Z AUTO 32002KT 14SM 23/08 A3006 RMK SLP168 T02310080 57042 IEM_DS3505
ZGNN,1995-11-04 07:00,ZGNN 040700Z AUTO 04004KT 6SM 23/08 A3003 RMK SLP157 T02300080 IEM_DS3505
ZGNN,1995-11-04 08:00,ZGNN 040800Z AUTO 01006KT 6SM 24/09 A3000 RMK SLP147 T02400090 IEM_DS3505
ZGNN,1995-11-04 09:00,ZGNN 040900Z AUTO 07004KT 16SM 25/ A3000 RMK SLP151 57017 IEM_DS3505
ZGNN,1995-11-04 10:00,ZGNN 041000Z AUTO 06004KT 6SM 23/14 A3003 RMK SLP157 T02300140 IEM_DS3505
ZGNN,1995-11-04 11:00,ZGNN 041100Z AUTO 00000KT 6SM 21/13 A3003 RMK SLP158 T02100130 IEM_DS3505
ZGNN,1995-11-04 12:00,ZGNN 041200Z AUTO 07002KT 12SM 22/12 A3006 RMK SLP172 T02150124 52020 IEM_DS3505
ZGNN,1995-11-04 13:00,ZGNN 041300Z AUTO 00000KT 6SM 18/15 A3009 RMK SLP179 T01800150 IEM_DS3505
ZGNN,1995-11-04 15:00,ZGNN 041500Z AUTO 00000KT 12SM 20/14 A3010 RMK SLP182 T02000136 52010 IEM_DS3505
ZGNN,1995-11-04 18:00,ZGNN 041800Z AUTO 00000KT 9SM 18/15 A3007 RMK SLP172 T01800149 57010 IEM_DS3505
ZGNN,1995-11-04 21:00,ZGNN 042100Z AUTO 02002KT 9SM 18/14 A3006 RMK SLP169 T01780143 57003 IEM_DS3505
ZGNN,1995-11-04 22:00,ZGNN 042200Z AUTO 32006KT 7SM 15/13 A3006 RMK SLP169 T01500130 IEM_DS3505
ZGNN,1995-11-04 23:00,ZGNN 042300Z AUTO 35004KT 6SM 17/12 A3006 RMK SLP169 T01700120 IEM_DS3505
ZGNN,1995-11-05 00:00,ZGNN 050000Z AUTO 00000KT 9SM 18/12 A3009 RMK SLP182 T01830116 52013 IEM_DS3505
ZGNN,1995-11-05 01:00,ZGNN 050100Z AUTO 36004KT 6SM 20/11 A3012 RMK SLP188 T02000110 IEM_DS3505
ZGNN,1995-11-05 02:00,ZGNN 050200Z AUTO 02008KT 6SM 22/09 A3015 RMK SLP198 T02200090 IEM_DS3505
ZGNN,1995-11-05 03:00,ZGNN 050300Z AUTO 29004KT 16SM 23/10 A3012 RMK SLP190 T02330098 52008 IEM_DS3505
ZGNN,1995-11-05 04:00,ZGNN 050400Z AUTO 36010KT 6SM 25/09 A3009 RMK SLP177 T02500090 IEM_DS3505
ZGNN,1995-11-05 05:00,ZGNN 050500Z AUTO 01012KT 6SM 25/10 A3006 RMK SLP166 T02500100 IEM_DS3505
ZGNN,1995-11-05 06:00,ZGNN 050600Z AUTO 07006KT 19SM 26/08 A3003 RMK SLP152 T02640082 57037 IEM_DS3505
ZGNN,1995-11-05 07:00,ZGNN 050700Z AUTO 36010KT 6SM 26/08 A3000 RMK SLP146 T02600080 IEM_DS3505
ZGNN,1995-11-05 08:00,ZGNN 050800Z AUTO 36010KT 6SM 26/09 A2997 RMK SLP136 T02600090 IEM_DS3505
ZGNN,1995-11-05 09:00,ZGNN 050900Z AUTO 09004KT 19SM 26/11 A2997 RMK SLP136 T02620109 57016 IEM_DS3505
ZGNN,1995-11-05 10:00,ZGNN 051000Z AUTO 00000KT 6SM 24/12 A2997 RMK SLP136 T02400120 IEM_DS3505
ZGNN,1995-11-05 11:00,ZGNN 051100Z AUTO 35004KT 6SM 21/12 A3000 RMK SLP147 T02100120 IEM_DS3505
ZGNN,1995-11-05 12:00,ZGNN 051200Z AUTO 00000KT 16SM 22/12 A3003 RMK SLP156 T02210123 52019 IEM_DS3505
ZGNN,1995-11-05 13:00,ZGNN 051300Z AUTO 36004KT 6SM 18/14 A3003 RMK SLP158 T01800140 IEM_DS3505
ZGNN,1995-11-05 15:00,ZGNN 051500Z AUTO 00000KT 12SM 19/14 A3005 RMK SLP166 T01940139 52010 IEM_DS3505
ZGNN,1995-11-05 18:00,ZGNN 051800Z AUTO 00000KT 12SM 20/15 A3003 RMK SLP157 T02040150 57008 IEM_DS3505
ZGNN,1995-11-05 21:00,ZGNN 052100Z AUTO 00000KT 12SM 20/16 A3000 RMK SLP151 T02050160 57006 IEM_DS3505
ZGNN,1995-11-05 22:00,ZGNN 052200Z AUTO 00000KT 7SM 19/16 A3003 RMK SLP158 T01900160 IEM_DS3505
ZGNN,1995-11-06 00:00,ZGNN 060000Z AUTO 00000KT 9SM 20/11 A3006 RMK SLP160 T02000110 52009 IEM_DS3505
ZGNN,1995-11-06 01:00,ZGNN 060100Z AUTO 33004KT 7SM 20/11 A3006 RMK SLP168 T02000110 IEM_DS3505
ZGNN,1995-11-06 02:00,ZGNN 060200Z AUTO 36006KT 7SM 21/12 A3009 RMK SLP178 T02100120 IEM_DS3505
ZGNN,1995-11-06 03:00,ZGNN 060300Z AUTO 04002KT 11SM 24/12 A3006 RMK SLP168 T02370115 52008 IEM_DS3505
ZGNN,1995-11-06 04:00,ZGNN 060400Z AUTO 36006KT 7SM 23/10 A3003 RMK SLP157 T02300100 IEM_DS3505
ZGNN,1995-11-06 05:00,ZGNN 060500Z AUTO 32004KT 7SM 25/11 A3000 RMK SLP146 T02500110 IEM_DS3505
ZGNN,1995-11-06 06:00,ZGNN 060600Z AUTO 09002KT 12SM 25/13 A2997 RMK SLP141 T02520127 57027 IEM_DS3505
ZGNN,1995-11-06 07:00,ZGNN 060700Z AUTO 04004KT 7SM 24/11 A2997 RMK SLP136 T02400110 IEM_DS3505
ZGNN,1995-11-06 08:00,ZGNN 060800Z AUTO 09006KT 7SM 22/15 A2997 RMK SLP137 T02200150 IEM_DS3505
ZGNN,1995-11-06 09:00,ZGNN 060900Z AUTO 00000KT 12SM 22/13 A2997 RMK SLP137 T02250128 57004 IEM_DS3505
ZGNN,1995-11-06 10:00,ZGNN 061000Z AUTO 00000KT 5SM 19/17 A2997 RMK SLP138 T01900170 IEM_DS3505
ZGNN,1995-11-06 11:00,ZGNN 061100Z AUTO 20004KT 2 1/2SM 18/16 A3000 RMK SLP148 T01800160 IEM_DS3505
ZGNN,1995-11-06 12:00,ZGNN 061200Z AUTO 20004KT 6SM 18/15 A3000 RMK 60004 SLP151 T01840152 52013 IEM_DS3505
ZGNN,1995-11-06 13:00,ZGNN 061300Z AUTO 00000KT 4SM 17/16 A3003 RMK SLP159 T01700160 IEM_DS3505
ZGNN,1995-11-06 15:00,ZGNN 061500Z AUTO 25004KT 4SM 18/16 A3001 RMK SLP152 T01850165 52002 IEM_DS3505
ZGNN,1995-11-06 18:00,ZGNN 061800Z AUTO 00000KT 7SM 19/16 A3001 RMK 60008 SLP151 T01880165 57001 IEM_DS3505
ZGNN,1995-11-06 21:00,ZGNN 062100Z AUTO 32002KT 6SM 19/17 A3003 RMK SLP154 T01910168 52002 IEM_DS3505
ZGNN,1995-11-06 22:00,ZGNN 062200Z AUTO 00000KT 2 1/2SM 16/16 A3006 RMK SLP169 T01600160 IEM_DS3505
ZGNN,1995-11-06 23:00,ZGNN 062300Z AUTO 33004KT 2 1/2SM 16/16 A3006 RMK SLP169 T01600160 IEM_DS3505
ZGNN,1995-11-07 00:00,ZGNN 070000Z AUTO 34004KT 6SM 18/16 A3012 RMK 60008 70020 SLP184 T01790159 52029 IEM_DS3505
ZGNN,1995-11-07 01:00,ZGNN 070100Z AUTO 35004KT 5SM 17/16 A3012 RMK SLP189 T01700160 IEM_DS3505
ZGNN,1995-11-07 02:00,ZGNN 070200Z AUTO 35010KT 7SM 18/16 A3015 RMK SLP199 T01800160 IEM_DS3505
ZGNN,1995-11-07 03:00,ZGNN 070300Z AUTO 34006KT 7SM 20/16 A3015 RMK SLP204 T01950165 52020 IEM_DS3505
ZGNN,1995-11-07 04:00,ZGNN 070400Z AUTO 32012KT 7SM 18/16 A3015 RMK SLP199 T01800160 IEM_DS3505
ZGNN,1995-11-07 05:00,ZGNN 070500Z AUTO 35010KT 7SM 18/16 A3015 RMK SLP199 T01800160 IEM_DS3505
ZGNN,1995-11-07 06:00,ZGNN 070600Z AUTO 34004KT 7SM 20/14 A3015 RMK SLP190 T02010141 57013 IEM_DS3505
ZGNN,1995-11-07 07:00,ZGNN 070700Z AUTO 01006KT 7SM 18/16 A3012 RMK SLP189 T01800160 IEM_DS3505
ZGNN,1995-11-07 08:00,ZGNN 070800Z AUTO 07006KT 7SM 18/16 A3015 RMK SLP199 T01800160 IEM_DS3505
ZGNN,1995-11-07 09:00,ZGNN 070900Z AUTO 07004KT 7SM 19/14 A3016 RMK SLP203 T01890142 52012 IEM_DS3505
ZGNN,1995-11-07 10:00,ZGNN 071000Z AUTO 02004KT 7SM 17/14 A3018 RMK SLP209 T01700140 IEM_DS3505
ZGNN,1995-11-07 11:00,ZGNN 071100Z AUTO 36004KT 7SM 17/15 A3021 RMK SLP219 T01700150 IEM_DS3505
ZGNN,1995-11-07 12:00,ZGNN 071200Z AUTO 00000KT 6SM 19/14 A3024 RMK 60002 SLP221 T01870140 52018 IEM_DS3505
ZGNN,1995-11-07 13:00,ZGNN 071300Z AUTO 00000KT 7SM 18/15 A3024 RMK SLP229 T01800150 IEM_DS3505
ZGNN,1995-11-07 14:00,ZGNN 071400Z AUTO 35004KT 7SM 18/14 A3024 RMK SLP229 T01800140 IEM_DS3505
ZGNN,1995-11-07 15:00,ZGNN 071500Z AUTO 04006KT 9SM 20/12 A3025 RMK SLP233 T01970116 52012 IEM_DS3505
ZGNN,1995-11-07 16:00,ZGNN 071600Z AUTO 01004KT 7SM 18/13 A3024 RMK SLP229 T01800130 IEM_DS3505
ZGNN,1995-11-07 18:00,ZGNN 071800Z AUTO 04004KT 9SM 20/11 A3023 RMK SLP224 T01980111 57008 IEM_DS3505
ZGNN,1995-11-07 21:00,ZGNN 072100Z AUTO 02002KT 7SM 19/10 A3021 RMK SLP221 T01890104 57004 IEM_DS3505
ZGNN,1995-11-07 22:00,ZGNN 072200Z AUTO 36004KT 7SM 17/12 A3021 RMK SLP219 T01700120 IEM_DS3505
ZGNN,1995-11-07 23:00,ZGNN 072300Z AUTO 00000KT 7SM 17/13 A3024 RMK SLP229 T01700130 IEM_DS3505
ZGNN,1995-11-08 00:00,ZGNN 080000Z AUTO 04004KT 9SM 18/10 A3027 RMK 70002 SLP236 T01810105 52015 IEM_DS3505
ZGNN,1995-11-08 03:00,ZGNN 080300Z AUTO 20002KT 12SM 18/12 A3030 RMK SLP248 T01830116 52012 IEM_DS3505
ZGNN,1995-11-08 06:00,ZGNN 080600Z AUTO 34002KT 8SM 19/12 A3021 RMK 60001 SLP218 T01930121 57030 IEM_DS3505
ZGNN,1995-11-08 07:00,ZGNN 080700Z AUTO 36004KT 7SM 18/12 A3018 RMK SLP209 T01800120 IEM_DS3505
ZGNN,1995-11-08 08:00,ZGNN 080800Z AUTO 00000KT 7SM 18/12 A3018 RMK SLP209 T01800120 IEM_DS3505
ZGNN,1995-11-08 09:00,ZGNN 080900Z AUTO 00000KT 8SM 19/12 A3017 RMK SLP205 T01890119 57013 IEM_DS3505
ZGNN,1995-11-08 10:00,ZGNN 081000Z AUTO 00000KT 7SM 18/13 A3018 RMK SLP209 T01800130 IEM_DS3505
ZGNN,1995-11-08 11:00,ZGNN 081100Z AUTO 00000KT 7SM 18/14 A3018 RMK SLP209 T01800140 IEM_DS3505
ZGNN,1995-11-08 12:00,ZGNN 081200Z AUTO 00000KT 7SM 19/12 A3018 RMK SLP207 T01870125 52002 IEM_DS3505
ZGNN,1995-11-08 13:00,ZGNN 081300Z AUTO 00000KT 7SM 17/15 A3018 RMK SLP209 T01700150 IEM_DS3505
ZGNN,1995-11-08 14:00,ZGNN 081400Z AUTO 24004KT 7SM 17/15 A3018 RMK SLP209 T01700150 IEM_DS3505
ZGNN,1995-11-08 15:00,ZGNN 081500Z AUTO 00000KT 7SM 18/13 A3019 RMK SLP211 T01850134 52004 IEM_DS3505
ZGNN,1995-11-08 18:00,ZGNN 081800Z AUTO 29002KT 7SM 18/13 A3017 RMK SLP206 T01820133 57005 IEM_DS3505
ZGNN,1995-11-08 21:00,ZGNN 082100Z AUTO 00000KT 7SM 18/14 A3018 RMK SLP209 T01810143 52003 IEM_DS3505
ZGNN,1995-11-08 22:00,ZGNN 082200Z AUTO 00000KT 5SM 17/15 A3021 RMK SLP219 T01700150 IEM_DS3505
ZGNN,1995-11-08 23:00,ZGNN 082300Z AUTO 00000KT 3SM 17/16 A3021 RMK SLP219 T01700160 IEM_DS3505
ZGNN,1995-11-09 00:00,ZGNN 090000Z AUTO 00000KT 7SM 18/14 A3024 RMK 70001 SLP224 T01810137 52015 IEM_DS3505
ZGNN,1995-11-09 01:00,ZGNN 090100Z AUTO 00000KT 3SM 17/15 A3024 RMK SLP229 T01700150 IEM_DS3505
ZGNN,1995-11-09 02:00,ZGNN 090200Z AUTO 00000KT 7SM 19/13 A3027 RMK SLP240 T01900130 IEM_DS3505
ZGNN,1995-11-09 03:00,ZGNN 090300Z AUTO 00000KT 7SM 20/12 A3024 RMK SLP229 T01980123 52005 IEM_DS3505
ZGNN,1995-11-09 04:00,ZGNN 090400Z AUTO 00000KT 7SM 20/13 A3024 RMK SLP228 T02000130 IEM_DS3505
ZGNN,1995-11-09 05:00,ZGNN 090500Z AUTO 00000KT 7SM 20/13 A3021 RMK SLP218 T02000130 IEM_DS3505
ZGNN,1995-11-09 06:00,ZGNN 090600Z AUTO 32002KT 7SM 20/13 A3017 RMK SLP207 T02030133 57022 IEM_DS3505
ZGNN,1995-11-09 07:00,ZGNN 090700Z AUTO 32004KT 7SM 19/14 A3018 RMK SLP209 T01900140 IEM_DS3505
ZGNN,1995-11-09 08:00,ZGNN 090800Z AUTO 00000KT 7SM 19/14 A3015 RMK SLP198 T01900140 IEM_DS3505
ZGNN,1995-11-09 09:00,ZGNN 090900Z AUTO 25004KT 9SM 21/14 A3015 RMK SLP192 T02060141 57014 IEM_DS3505
ZGNN,1995-11-09 10:00,ZGNN 091000Z AUTO 00000KT 7SM 19/14 A3015 RMK SLP198 T01900140 IEM_DS3505
ZGNN,1995-11-09 11:00,ZGNN 091100Z AUTO 27002KT 7SM 19/14 A3015 RMK SLP198 T01900140 IEM_DS3505
ZGNN,1995-11-09 12:00,ZGNN 091200Z AUTO 27002KT 9SM 20/14 A3015 RMK SLP202 T01990144 52009 IEM_DS3505
ZGNN,1995-11-09 13:00,ZGNN 091300Z AUTO 00000KT 7SM 18/15 A3018 RMK SLP209 T01800150 IEM_DS3505
ZGNN,1995-11-09 15:00,ZGNN 091500Z AUTO 25002KT 8SM 20/14 A3019 RMK SLP213 T01980141 52012 IEM_DS3505
ZGNN,1995-11-09 18:00,ZGNN 091800Z AUTO 25002KT 8SM 20/15 A3019 RMK SLP212 T01950151 57001 IEM_DS3505
ZGNN,1995-11-09 21:00,ZGNN 092100Z AUTO 00000KT 9SM 19/15 A3018 RMK SLP205 T01930151 57007 IEM_DS3505
ZGNN,1995-11-09 22:00,ZGNN 092200Z AUTO 24004KT 5SM 18/16 A3018 RMK SLP209 T01800160 IEM_DS3505
ZGNN,1995-11-09 23:00,ZGNN 092300Z AUTO 24004KT 5SM 18/16 A3021 RMK SLP219 T01800160 IEM_DS3505
ZGNN,1995-11-10 00:00,ZGNN 100000Z AUTO 25004KT 9SM 19/15 A3021 RMK SLP218 T01940150 52013 IEM_DS3505
ZGNN,1995-11-10 01:00,ZGNN 100100Z AUTO 00000KT 5SM 19/16 A3024 RMK SLP229 T01900160 IEM_DS3505
ZGNN,1995-11-10 03:00,ZGNN 100300Z AUTO 27002KT 11SM 23/16 A3021 RMK SLP214 T02280161 57004 IEM_DS3505
ZGNN,1995-11-10 04:00,ZGNN 100400Z AUTO 32004KT 6SM 24/15 A3018 RMK SLP207 T02400150 IEM_DS3505
ZGNN,1995-11-10 05:00,ZGNN 100500Z AUTO 33004KT 6SM 25/14 A3015 RMK SLP197 T02500140 IEM_DS3505
ZGNN,1995-11-10 06:00,ZGNN 100600Z AUTO 16002KT 10SM 27/15 A3009 RMK SLP181 T02680154 57032 IEM_DS3505
ZGNN,1995-11-10 07:00,ZGNN 100700Z AUTO 36004KT 7SM 27/15 A3009 RMK SLP176 T02700150 IEM_DS3505
ZGNN,1995-11-10 08:00,ZGNN 100800Z AUTO 36006KT 7SM 27/15 A3006 RMK SLP166 T02700150 IEM_DS3505
ZGNN,1995-11-10 09:00,ZGNN 100900Z AUTO 07006KT 12SM 27/13 A3006 RMK SLP166 T02670132 57015 IEM_DS3505
ZGNN,1995-11-10 10:00,ZGNN 101000Z AUTO 00000KT 7SM 24/17 A3006 RMK SLP167 T02400170 IEM_DS3505
ZGNN,1995-11-10 11:00,ZGNN 101100Z AUTO 00000KT 7SM 22/18 A3009 RMK SLP177 T02200180 IEM_DS3505
ZGNN,1995-11-10 12:00,ZGNN 101200Z AUTO 00000KT 12SM 21/16 A3009 RMK SLP180 T02120155 52013 IEM_DS3505
ZGNN,1995-11-10 13:00,ZGNN 101300Z AUTO 00000KT 7SM 18/16 A3012 RMK SLP189 T01800160 IEM_DS3505
ZGNN,1995-11-10 15:00,ZGNN 101500Z AUTO 00000KT 9SM 20/16 A3013 RMK SLP192 T01950156 52012 IEM_DS3505
ZGNN,1995-11-10 18:00,ZGNN 101800Z AUTO 02002KT 6SM 18/16 A3010 RMK SLP181 T01810161 57010 IEM_DS3505
ZGNN,1995-11-10 21:00,ZGNN 102100Z AUTO 00000KT 6SM 17/15 A3006 RMK SLP169 T01680147 57012 IEM_DS3505
ZGNN,1995-11-10 22:00,ZGNN 102200Z AUTO 00000KT 4SM 14/14 A3006 RMK SLP170 T01400140 IEM_DS3505
ZGNN,1995-11-10 23:00,ZGNN 102300Z AUTO 00000KT 2 1/2SM 14/14 A3009 RMK SLP180 T01400140 IEM_DS3505
ZGNN,1995-11-11 00:00,ZGNN 110000Z AUTO 00000KT 5SM 17/15 A3009 RMK SLP177 T01660152 52007 IEM_DS3505
ZGNN,1995-11-11 02:00,ZGNN 110200Z AUTO 00000KT 6SM 21/16 A3009 RMK SLP178 T02100160 IEM_DS3505
ZGNN,1995-11-11 03:00,ZGNN 110300Z AUTO 11004KT 7SM 23/12 A3009 RMK SLP174 T02290116 57003 IEM_DS3505
ZGNN,1995-11-11 04:00,ZGNN 110400Z AUTO 14006KT 6SM 24/12 A3006 RMK SLP167 T02400120 IEM_DS3505
ZGNN,1995-11-11 05:00,ZGNN 110500Z AUTO 12002KT 6SM 25/13 A3000 RMK SLP146 T02500130 IEM_DS3505
ZGNN,1995-11-11 06:00,ZGNN 110600Z AUTO 14002KT 11SM 26/13 A2997 RMK SLP138 T02570131 57035 IEM_DS3505
ZGNN,1995-11-11 07:00,ZGNN 110700Z AUTO 09004KT 6SM 26/15 A2994 RMK SLP126 T02600150 IEM_DS3505
ZGNN,1995-11-11 08:00,ZGNN 110800Z AUTO 14008KT 6SM 26/16 A2991 RMK SLP116 T02600160 IEM_DS3505
ZGNN,1995-11-11 09:00,ZGNN 110900Z AUTO 14004KT 8SM 25/16 A2991 RMK SLP129 T02500155 57012 IEM_DS3505
ZGNN,1995-11-11 10:00,ZGNN 111000Z AUTO 00000KT 6SM 24/12 A2994 RMK SLP126 T02400120 IEM_DS3505
ZGNN,1995-11-11 11:00,ZGNN 111100Z AUTO 00000KT 6SM 22/11 A2997 RMK SLP137 T02200110 IEM_DS3505
ZGNN,1995-11-11 12:00,ZGNN 111200Z AUTO 00000KT 11SM 23/14 A2997 RMK SLP140 T02320139 52018 IEM_DS3505
ZGNN,1995-11-11 13:00,ZGNN 111300Z AUTO 00000KT 7SM 20/14 A3000 RMK SLP148 T02000140 IEM_DS3505
ZGNN,1995-11-11 14:00,ZGNN 111400Z AUTO 00000KT 7SM 19/15 A3000 RMK SLP148 T01900150 IEM_DS3505
ZGNN,1995-11-11 15:00,ZGNN 111500Z AUTO 00000KT 11SM 21/14 A3001 RMK SLP150 T02110145 52011 IEM_DS3505
ZGNN,1995-11-11 18:00,ZGNN 111800Z AUTO 00000KT 12SM 21/14 A3001 RMK SLP151 T02080145 52001 IEM_DS3505
ZGNN,1995-11-11 21:00,ZGNN 112100Z AUTO 00000KT 10SM 20/16 A3000 RMK SLP146 T02000160 57005 IEM_DS3505
ZGNN,1995-11-11 22:00,ZGNN 112200Z AUTO 00000KT 7SM 20/18 A3000 RMK SLP148 T02000180 IEM_DS3505
ZGNN,1995-11-12 00:00,ZGNN 120000Z AUTO 07002KT 7SM 20/17 A3003 RMK SLP157 T02010172 52011 IEM_DS3505
ZGNN,1995-11-12 01:00,ZGNN 120100Z AUTO 12006KT 6SM 21/19 A3003 RMK SLP158 T02100190 IEM_DS3505
ZGNN,1995-11-12 02:00,ZGNN 120200Z AUTO 12006KT 7SM 22/19 A3003 RMK SLP157 T02200190 IEM_DS3505
ZGNN,1995-11-12 03:00,ZGNN 120300Z AUTO 00000KT 9SM 22/18 A3003 RMK SLP159 T02170182 52002 IEM_DS3505
ZGNN,1995-11-12 04:00,ZGNN 120400Z AUTO 17010KT 6SM 23/19 A3000 RMK SLP147 T02300190 IEM_DS3505
ZGNN,1995-11-12 06:00,ZGNN 120600Z AUTO 00000KT 11SM 23/20 A2997 RMK SLP134 T02290197 57025 IEM_DS3505
ZGNN,1995-11-12 07:00,ZGNN 120700Z AUTO 15010KT 6SM 23/19 A2994 RMK SLP127 T02300190 IEM_DS3505
ZGNN,1995-11-12 08:00,ZGNN 120800Z AUTO 13010KT 7SM 23/19 A2994 RMK SLP127 T02300190 IEM_DS3505
ZGNN,1995-11-12 09:00,ZGNN 120900Z AUTO 00000KT 9SM 22/20 A2994 RMK SLP129 T02240195 57005 IEM_DS3505
ZGNN,1995-11-12 10:00,ZGNN 121000Z AUTO 00000KT 6SM 22/19 A2997 RMK SLP137 T02200190 IEM_DS3505
ZGNN,1995-11-12 11:00,ZGNN 121100Z AUTO 00000KT 3SM 21/20 A2997 RMK SLP137 T02100200 IEM_DS3505
ZGNN,1995-11-12 12:00,ZGNN 121200Z AUTO 00000KT 9SM 21/18 A3000 RMK SLP149 T02100176 52019 IEM_DS3505
ZGNN,1995-11-12 13:00,ZGNN 121300Z AUTO 11004KT 4SM 21/20 A3000 RMK SLP147 T02100200 IEM_DS3505
ZGNN,1995-11-12 15:00,ZGNN 121500Z AUTO 09002KT 9SM 20/18 A3002 RMK SLP155 T01990180 52006 IEM_DS3505
ZGNN,1995-11-12 18:00,ZGNN 121800Z AUTO 07002KT 9SM 20/17 A3002 RMK SLP154 T01970167 54000 IEM_DS3505
ZGNN,1995-11-12 21:00,ZGNN 122100Z AUTO 04004KT 9SM 19/18 A3000 RMK SLP149 T01920181 57006 IEM_DS3505
ZGNN,1995-11-12 22:00,ZGNN 122200Z AUTO 00000KT 2 1/2SM 20/20 A3000 RMK SLP148 T02000200 IEM_DS3505
ZGNN,1995-11-13 00:00,ZGNN 130000Z AUTO 07002KT 4SM 20/18 A3003 RMK SLP165 T01950185 52016 IEM_DS3505
ZGNN,1995-11-13 01:00,ZGNN 130100Z AUTO 00000KT 1 1/4SM 21/21 A3006 RMK SLP168 T02100210 IEM_DS3505
ZGNN,1995-11-13 02:00,ZGNN 130200Z AUTO 07004KT 1 1/2SM 22/21 A3009 RMK SLP177 T02200210 IEM_DS3505
ZGNN,1995-11-13 03:00,ZGNN 130300Z AUTO 02002KT 5SM 21/19 A3009 RMK SLP178 T02090190 52013 IEM_DS3505
ZGNN,1995-11-13 04:00,ZGNN 130400Z AUTO 06004KT 1 1/2SM 22/21 A3006 RMK SLP167 T02200210 IEM_DS3505
ZGNN,1995-11-13 05:00,ZGNN 130500Z AUTO 02004KT 1 1/4SM 21/21 A3006 RMK SLP168 T02100210 IEM_DS3505
ZGNN,1995-11-13 06:00,ZGNN 130600Z AUTO 02006KT 4SM 20/18 A3003 RMK 60004 SLP165 T01980179 57013 IEM_DS3505
ZGNN,1995-11-13 07:00,ZGNN 130700Z AUTO 35014KT 4SM 18/17 A3003 RMK SLP158 T01800170 IEM_DS3505
ZGNN,1995-11-13 08:00,ZGNN 130800Z AUTO 01010KT 7SM 17/16 A3006 RMK SLP169 T01700160 IEM_DS3505
ZGNN,1995-11-13 09:00,ZGNN 130900Z AUTO 02006KT 4SM 18/16 A3009 RMK SLP183 T01770160 52017 IEM_DS3505
ZGNN,1995-11-13 10:00,ZGNN 131000Z AUTO 36008KT 7SM 17/15 A3012 RMK SLP189 T01700150 IEM_DS3505
ZGNN,1995-11-13 11:00,ZGNN 131100Z AUTO 35008KT 7SM 17/15 A3015 RMK SLP199 T01700150 IEM_DS3505
ZGNN,1995-11-13 12:00,ZGNN 131200Z AUTO 34006KT 16SM 18/15 A3018 RMK 60004 SLP211 T01760154 52028 IEM_DS3505
ZGNN,1995-11-13 13:00,ZGNN 131300Z AUTO 35006KT 7SM 17/15 A3021 RMK SLP219 T01700150 IEM_DS3505
ZGNN,1995-11-13 14:00,ZGNN 131400Z AUTO 32006KT 7SM 17/14 A3021 RMK SLP219 T01700140 IEM_DS3505
ZGNN,1995-11-13 15:00,ZGNN 131500Z AUTO 02004KT 16SM 18/14 A3022 RMK SLP222 T01770142 52011 IEM_DS3505
ZGNN,1995-11-13 18:00,ZGNN 131800Z AUTO 36004KT 16SM 18/14 A3021 RMK SLP218 T01750136 57004 IEM_DS3505
ZGNN,1995-11-13 21:00,ZGNN 132100Z AUTO 27004KT 16/14 A3022 RMK SLP225 T01570138 52007 IEM_DS3505
ZGNN,1995-11-14 00:00,ZGNN 140000Z AUTO 02004KT 9SM 15/14 A3027 RMK 60020 70028 SLP239 T01530144 52013 IEM_DS3505
ZGNN,1995-11-14 03:00,ZGNN 140300Z AUTO 36004KT 9SM 16/14 A3030 RMK SLP246 T01590141 52007 IEM_DS3505
ZGNN,1995-11-14 04:00,ZGNN 140400Z AUTO 34008KT 7SM 15/13 A3027 RMK SLP241 T01500130 IEM_DS3505
ZGNN,1995-11-14 05:00,ZGNN 140500Z AUTO 33008KT 7SM 15/13 A3027 RMK SLP241 T01500130 IEM_DS3505
ZGNN,1995-11-14 06:00,ZGNN 140600Z AUTO 34004KT 9SM 16/14 A3024 RMK 60012 SLP225 T01590138 57020 IEM_DS3505
ZGNN,1995-11-14 07:00,ZGNN 140700Z AUTO 34008KT 7SM 15/13 A3021 RMK SLP220 T01500130 IEM_DS3505
ZGNN,1995-11-14 08:00,ZGNN 140800Z AUTO 36006KT 7SM 15/14 A3018 RMK SLP210 T01500140 IEM_DS3505
ZGNN,1995-11-14 09:00,ZGNN 140900Z AUTO 09002KT 16SM 16/12 A3021 RMK SLP218 T01570124 57008 IEM_DS3505
ZGNN,1995-11-14 10:00,ZGNN 141000Z AUTO 03004KT 7SM 15/13 A3021 RMK SLP220 T01500130 IEM_DS3505
ZGNN,1995-11-14 11:00,ZGNN 141100Z AUTO 00000KT 7SM 15/14 A3021 RMK SLP220 T01500140 IEM_DS3505
ZGNN,1995-11-14 12:00,ZGNN 141200Z AUTO 00000KT 12SM 16/14 A3024 RMK 60004 SLP228 T01590140 52010 IEM_DS3505
ZGNN,1995-11-14 13:00,ZGNN 141300Z AUTO 00000KT 7SM 15/15 A3024 RMK SLP230 T01500150 IEM_DS3505
ZGNN,1995-11-14 18:00,ZGNN 141800Z AUTO 04002KT 9SM 15/10 A3023 RMK SLP228 T01530097 57006 IEM_DS3505
ZGNN,1995-11-14 21:00,ZGNN 142100Z AUTO 00000KT 12SM 14/10 A3021 RMK SLP221 T01360105 57007 IEM_DS3505
ZGNN,1995-11-14 23:00,ZGNN 142300Z AUTO 35004KT 6SM 12/11 A3024 RMK SLP231 T01200110 IEM_DS3505
ZGNN,1995-11-15 00:00,ZGNN 150000Z AUTO 00000KT 7SM 13/11 A3027 RMK 70016 SLP238 T01290108 52017 IEM_DS3505
ZGNN,1995-11-15 01:00,ZGNN 150100Z AUTO 36006KT 7SM 15/11 A3027 RMK SLP241 T01500110 IEM_DS3505
ZGNN,1995-11-15 03:00,ZGNN 150300Z AUTO 02004KT 9SM 18/08 A3027 RMK SLP237 T01820081 54000 IEM_DS3505
ZGNN,1995-11-15 04:00,ZGNN 150400Z AUTO 36008KT 7SM 19/09 A3024 RMK SLP229 T01900090 IEM_DS3505
ZGNN,1995-11-15 05:00,ZGNN 150500Z AUTO 03010KT 7SM 20/09 A3018 RMK SLP208 T02000090 IEM_DS3505
ZGNN,1995-11-15 06:00,ZGNN 150600Z AUTO 00000KT 19SM 20/09 A3015 RMK SLP198 T02050093 57039 IEM_DS3505
ZGNN,1995-11-15 07:00,ZGNN 150700Z AUTO 00000KT 7SM 21/09 A3012 RMK SLP188 T02100090 IEM_DS3505
ZGNN,1995-11-15 08:00,ZGNN 150800Z AUTO 00000KT 7SM 21/09 A3012 RMK SLP188 T02100090 IEM_DS3505
ZGNN,1995-11-15 09:00,ZGNN 150900Z AUTO 00000KT 19SM 21/09 A3009 RMK SLP183 T02110094 57015 IEM_DS3505
ZGNN,1995-11-15 11:00,ZGNN 151100Z AUTO 35006KT 7SM 15/12 A3012 RMK SLP190 T01500120 IEM_DS3505
ZGNN,1995-11-15 12:00,ZGNN 151200Z AUTO 09002KT 19SM 17/11 A3015 RMK SLP198 T01660106 52014 IEM_DS3505
ZGNN,1995-11-15 13:00,ZGNN 151300Z AUTO 00000KT 7SM 13/11 A3015 RMK SLP200 T01300110 IEM_DS3505
ZGNN,1995-11-15 15:00,ZGNN 151500Z AUTO 00000KT 19SM 14/10 A3017 RMK SLP206 T01410105 52009 IEM_DS3505
ZGNN,1995-11-15 18:00,ZGNN 151800Z AUTO 00000KT 14SM 13/10 A3016 RMK SLP202 T01290104 57004 IEM_DS3505
ZGNN,1995-11-15 21:00,ZGNN 152100Z AUTO 00000KT 12SM 11/10 A3015 RMK SLP201 T01140102 57001 IEM_DS3505
ZGNN,1995-11-15 22:00,ZGNN 152200Z AUTO 00000KT 7SM 09/09 A3015 RMK SLP202 T00900090 IEM_DS3505
ZGNN,1995-11-15 23:00,ZGNN 152300Z AUTO 00000KT 1SM 09/09 A3018 RMK SLP212 T00900090 IEM_DS3505
ZGNN,1995-11-16 00:00,ZGNN 160000Z AUTO 00000KT 4SM 12/11 A3021 RMK SLP216 T01160110 52014 IEM_DS3505
ZGNN,1995-11-16 01:00,ZGNN 160100Z AUTO 00000KT 1 1/2SM 13/12 A3021 RMK SLP220 T01300120 IEM_DS3505
ZGNN,1995-11-16 02:00,ZGNN 160200Z AUTO 00000KT 6SM 17/12 A3024 RMK SLP229 T01700120 IEM_DS3505
ZGNN,1995-11-16 03:00,ZGNN 160300Z AUTO 00000KT 7SM 19/12 A3021 RMK SLP219 T01890117 52004 IEM_DS3505
ZGNN,1995-11-16 05:00,ZGNN 160500Z AUTO 02006KT 7SM 22/11 A3015 RMK SLP198 T02200110 IEM_DS3505
ZGNN,1995-11-16 06:00,ZGNN 160600Z AUTO 27004KT 12SM 22/10 A3012 RMK SLP186 T02210098 57033 IEM_DS3505
ZGNN,1995-11-16 07:00,ZGNN 160700Z AUTO 09006KT 7SM 22/11 A3006 RMK SLP167 T02200110 IEM_DS3505
ZGNN,1995-11-16 08:00,ZGNN 160800Z AUTO 00000KT 7SM 22/10 A3006 RMK SLP167 T02200100 IEM_DS3505
ZGNN,1995-11-16 09:00,ZGNN 160900Z AUTO 00000KT 16SM 23/12 A3006 RMK SLP170 T02280121 57016 IEM_DS3505
ZGNN,1995-11-16 10:00,ZGNN 161000Z AUTO 00000KT 7SM 20/12 A3006 RMK SLP168 T02000120 IEM_DS3505
ZGNN,1995-11-16 11:00,ZGNN 161100Z AUTO 36006KT 7SM 16/14 A3009 RMK SLP179 T01600140 IEM_DS3505
ZGNN,1995-11-16 12:00,ZGNN 161200Z AUTO 00000KT 16SM 18/13 A3012 RMK SLP194 T01750133 52023 IEM_DS3505
ZGNN,1995-11-16 13:00,ZGNN 161300Z AUTO 02004KT 7SM 14/12 A3015 RMK SLP200 T01400120 IEM_DS3505
ZGNN,1995-11-16 15:00,ZGNN 161500Z AUTO 04002KT 16SM 16/13 A3016 RMK SLP204 T01570132 52011 IEM_DS3505
ZGNN,1995-11-16 18:00,ZGNN 161800Z AUTO 04002KT 12SM 14/12 A3014 RMK SLP196 T01400120 57008 IEM_DS3505
ZGNN,1995-11-16 21:00,ZGNN 162100Z AUTO 00000KT 12SM 13/11 A3013 RMK SLP193 T01290114 57003 IEM_DS3505
ZGNN,1995-11-16 22:00,ZGNN 162200Z AUTO 00000KT 2 1/2SM 11/11 A3015 RMK SLP201 T01100110 IEM_DS3505
ZGNN,1995-11-16 23:00,ZGNN 162300Z AUTO 36004KT 2 1/2SM 11/10 A3015 RMK SLP201 T01100100 IEM_DS3505
ZGNN,1995-11-17 00:00,ZGNN 170000Z AUTO 00000KT 7SM 13/11 A3018 RMK SLP212 T01290112 52018 IEM_DS3505
ZGNN,1995-11-17 01:00,ZGNN 170100Z AUTO 07004KT 3SM 16/12 A3021 RMK SLP220 T01600120 IEM_DS3505
ZGNN,1995-11-17 02:00,ZGNN 170200Z AUTO 08006KT 7SM 18/12 A3021 RMK SLP219 T01800120 IEM_DS3505
ZGNN,1995-11-17 03:00,ZGNN 170300Z AUTO 00000KT 11SM 20/12 A3021 RMK SLP218 T02010123 52007 IEM_DS3505
ZGNN,1995-11-17 04:00,ZGNN 170400Z AUTO 08004KT 7SM 21/11 A3018 RMK SLP208 T02100110 IEM_DS3505
ZGNN,1995-11-17 05:00,ZGNN 170500Z AUTO 13004KT 7SM 23/12 A3012 RMK SLP187 T02300120 IEM_DS3505
ZGNN,1995-11-17 06:00,ZGNN 170600Z AUTO 04002KT 19SM 24/12 A3009 RMK SLP185 T02350115 57032 IEM_DS3505
ZGNN,1995-11-17 07:00,ZGNN 170700Z AUTO 00000KT 6SM 23/12 A3006 RMK SLP167 T02300120 IEM_DS3505
ZGNN,1995-11-17 08:00,ZGNN 170800Z AUTO 13008KT 6SM 24/12 A3006 RMK SLP167 T02400120 IEM_DS3505
ZGNN,1995-11-17 09:00,ZGNN 170900Z AUTO 00000KT 19SM 24/13 A3006 RMK SLP170 T02380130 57015 IEM_DS3505
ZGNN,1995-11-17 10:00,ZGNN 171000Z AUTO 13002KT 6SM 22/13 A3006 RMK SLP167 T02200130 IEM_DS3505
ZGNN,1995-11-17 11:00,ZGNN 171100Z AUTO 35004KT 6SM 18/15 A3009 RMK SLP179 T01800150 IEM_DS3505
ZGNN,1995-11-17 12:00,ZGNN 171200Z AUTO 04002KT 19SM 19/13 A3009 RMK SLP185 T01930134 52014 IEM_DS3505
ZGNN,1995-11-17 13:00,ZGNN 171300Z AUTO 36004KT 6SM 16/14 A3012 RMK SLP189 T01600140 IEM_DS3505
ZGNN,1995-11-17 14:00,ZGNN 171400Z AUTO 01004KT 7SM 15/14 A3015 RMK SLP200 T01500140 IEM_DS3505
ZGNN,1995-11-17 15:00,ZGNN 171500Z AUTO 09002KT 16SM 17/13 A3015 RMK SLP199 T01740130 52014 IEM_DS3505
ZGNN,1995-11-17 18:00,ZGNN 171800Z AUTO 00000KT 12SM 17/13 A3015 RMK SLP197 T01670131 57001 IEM_DS3505
ZGNN,1995-11-17 21:00,ZGNN 172100Z AUTO 00000KT 11SM 17/14 A3015 RMK SLP197 T01660138 54000 IEM_DS3505
ZGNN,1995-11-17 22:00,ZGNN 172200Z AUTO 00000KT 7SM 17/13 A3015 RMK SLP199 T01700130 IEM_DS3505
ZGNN,1995-11-17 23:00,ZGNN 172300Z AUTO 00000KT 7SM 17/14 A3018 RMK SLP209 T01700140 IEM_DS3505
ZGNN,1995-11-18 00:00,ZGNN 180000Z AUTO 00000KT 9SM 17/14 A3018 RMK SLP215 T01700142 52017 IEM_DS3505
ZGNN,1995-11-18 01:00,ZGNN 180100Z AUTO 06004KT 7SM 18/13 A3021 RMK SLP219 T01800130 IEM_DS3505
ZGNN,1995-11-18 03:00,ZGNN 180300Z AUTO 07004KT 12SM 22/13 A3021 RMK SLP215 T02210127 52001 IEM_DS3505
ZGNN,1995-11-18 05:00,ZGNN 180500Z AUTO 00000KT 6SM 24/13 A3012 RMK SLP187 T02400130 IEM_DS3505
ZGNN,1995-11-18 06:00,ZGNN 180600Z AUTO 20002KT 19SM 25/13 A3010 RMK SLP180 T02470126 57035 IEM_DS3505
ZGNN,1995-11-18 07:00,ZGNN 180700Z AUTO 13004KT 6SM 25/13 A3006 RMK SLP166 T02500130 IEM_DS3505
ZGNN,1995-11-18 08:00,ZGNN 180800Z AUTO 10004KT 6SM 24/13 A3006 RMK SLP167 T02400130 IEM_DS3505
ZGNN,1995-11-18 09:00,ZGNN 180900Z AUTO 18002KT 17SM 24/14 A3006 RMK SLP166 T02440137 57014 IEM_DS3505
ZGNN,1995-11-18 10:00,ZGNN 181000Z AUTO 00000KT 6SM 22/14 A3006 RMK SLP167 T02200140 IEM_DS3505
ZGNN,1995-11-18 11:00,ZGNN 181100Z AUTO 00000KT 6SM 20/16 A3009 RMK SLP178 T02000160 IEM_DS3505
ZGNN,1995-11-18 12:00,ZGNN 181200Z AUTO 00000KT 16SM 20/17 A3009 RMK SLP182 T01990166 52015 IEM_DS3505
ZGNN,1995-11-18 13:00,ZGNN 181300Z AUTO 00000KT 6SM 17/16 A3012 RMK SLP189 T01700160 IEM_DS3505
ZGNN,1995-11-18 15:00,ZGNN 181500Z AUTO 00000KT 12SM 19/15 A3014 RMK SLP195 T01930152 52014 IEM_DS3505
ZGNN,1995-11-18 18:00,ZGNN 181800Z AUTO 00000KT 12SM 19/16 A3014 RMK SLP195 T01920160 54000 IEM_DS3505
ZGNN,1995-11-18 21:00,ZGNN 182100Z AUTO 00000KT 9SM 18/16 A3012 RMK SLP189 T01850158 57006 IEM_DS3505
ZGNN,1995-11-18 22:00,ZGNN 182200Z AUTO 00000KT 6SM 18/17 A3015 RMK SLP199 T01800170 IEM_DS3505
ZGNN,1995-11-18 23:00,ZGNN 182300Z AUTO 00000KT 3SM 18/16 A3015 RMK SLP199 T01800160 IEM_DS3505
ZGNN,1995-11-19 00:00,ZGNN 190000Z AUTO 00000KT 12SM 19/17 A3018 RMK SLP205 T01880167 52016 IEM_DS3505
ZGNN,1995-11-19 02:00,ZGNN 190200Z AUTO 02004KT 4SM 22/15 A3021 RMK SLP218 T02200150 IEM_DS3505
ZGNN,1995-11-19 03:00,ZGNN 190300Z AUTO 09002KT 7SM 23/16 A3018 RMK SLP208 T02290156 52003 IEM_DS3505
ZGNN,1995-11-19 06:00,ZGNN 190600Z AUTO 07008KT 12SM 25/14 A3008 RMK SLP175 T02490138 57032 IEM_DS3505
ZGNN,1995-11-19 07:00,ZGNN 190700Z AUTO 04010KT 6SM 25/13 A3006 RMK SLP166 T02500130 IEM_DS3505
ZGNN,1995-11-19 08:00,ZGNN 190800Z AUTO 04006KT 6SM 24/13 A3006 RMK SLP167 T02400130 IEM_DS3505
ZGNN,1995-11-19 09:00,ZGNN 190900Z AUTO 07006KT 12SM 24/13 A3006 RMK SLP172 T02360129 57004 IEM_DS3505
ZGNN,1995-11-19 10:00,ZGNN 191000Z AUTO 06006KT 6SM 22/13 A3006 RMK SLP167 T02200130 IEM_DS3505
ZGNN,1995-11-19 11:00,ZGNN 191100Z AUTO 04006KT 6SM 21/13 A3009 RMK SLP178 T02100130 IEM_DS3505
ZGNN,1995-11-19 12:00,ZGNN 191200Z AUTO 07004KT 12SM 22/11 A3012 RMK SLP188 T02170109 52016 IEM_DS3505
ZGNN,1995-11-19 13:00,ZGNN 191300Z AUTO 06004KT 6SM 21/12 A3015 RMK SLP198 T02100120 IEM_DS3505
ZGNN,1995-11-19 15:00,ZGNN 191500Z AUTO 07004KT 11SM 20/11 A3016 RMK SLP203 T02050111 52015 IEM_DS3505
ZGNN,1995-11-19 18:00,ZGNN 191800Z AUTO 07002KT 11SM 19/11 A3016 RMK SLP202 T01880111 57001 IEM_DS3505
ZGNN,1995-11-19 21:00,ZGNN 192100Z AUTO 09004KT 11SM 18/09 A3018 RMK SLP203 T01790091 52001 IEM_DS3505
ZGNN,1995-11-19 22:00,ZGNN 192200Z AUTO 06004KT 4SM 17/09 A3015 RMK SLP199 T01700090 IEM_DS3505
ZGNN,1995-11-19 23:00,ZGNN 192300Z AUTO 08004KT 4SM 17/09 A3018 RMK SLP209 T01700090 IEM_DS3505
ZGNN,1995-11-20 00:00,ZGNN 200000Z AUTO 07004KT 9SM 17/09 A3021 RMK SLP216 T01690090 52012 IEM_DS3505
ZGNN,1995-11-20 01:00,ZGNN 200100Z AUTO 06006KT 3SM 16/09 A3021 RMK SLP220 T01600090 IEM_DS3505
ZGNN,1995-11-20 02:00,ZGNN 200200Z AUTO 03006KT 6SM 16/09 A3024 RMK SLP230 T01600090 IEM_DS3505
ZGNN,1995-11-20 03:00,ZGNN 200300Z AUTO 04004KT 7SM 17/09 A3024 RMK SLP232 T01670090 52016 IEM_DS3505
ZGNN,1995-11-20 04:00,ZGNN 200400Z AUTO 04004KT 4SM 16/09 A3024 RMK SLP230 T01600090 IEM_DS3505
ZGNN,1995-11-20 05:00,ZGNN 200500Z AUTO 05004KT 4SM 17/10 A3021 RMK SLP219 T01700100 IEM_DS3505
ZGNN,1995-11-20 06:00,ZGNN 200600Z AUTO 04006KT 7SM 17/08 A3018 RMK SLP209 T01690083 57023 IEM_DS3505
ZGNN,1995-11-20 07:00,ZGNN 200700Z AUTO 02008KT 4SM 18/09 A3015 RMK SLP199 T01800090 IEM_DS3505
ZGNN,1995-11-20 08:00,ZGNN 200800Z AUTO 01008KT 4SM 17/09 A3015 RMK SLP199 T01700090 IEM_DS3505
ZGNN,1995-11-20 09:00,ZGNN 200900Z AUTO 36006KT 7SM 17/09 A3015 RMK SLP204 T01680086 57005 IEM_DS3505
ZGNN,1995-11-20 10:00,ZGNN 201000Z AUTO 02004KT 4SM 16/08 A3018 RMK SLP209 T01600080 IEM_DS3505
ZGNN,1995-11-20 11:00,ZGNN 201100Z AUTO 35006KT 4SM 16/08 A3021 RMK SLP220 T01600080 IEM_DS3505
ZGNN,1995-11-20 12:00,ZGNN 201200Z AUTO 02006KT 7SM 16/08 A3024 RMK SLP228 T01550082 52023 IEM_DS3505
ZGNN,1995-11-20 13:00,ZGNN 201300Z AUTO 01004KT 4SM 15/08 A3024 RMK SLP230 T01500080 IEM_DS3505
ZGNN,1995-11-20 14:00,ZGNN 201400Z AUTO 02004KT 4SM 15/09 A3027 RMK SLP241 T01500090 IEM_DS3505
ZGNN,1995-11-20 15:00,ZGNN 201500Z AUTO 34004KT 7SM 15/07 A3027 RMK SLP241 T01500073 52013 IEM_DS3505
ZGNN,1995-11-20 18:00,ZGNN 201800Z AUTO 04004KT 9SM 14/08 A3024 RMK SLP232 T01440084 57009 IEM_DS3505
ZGNN,1995-11-20 21:00,ZGNN 202100Z AUTO 02006KT 9SM 14/08 A3024 RMK SLP229 T01390085 57003 IEM_DS3505
ZGNN,1995-11-20 22:00,ZGNN 202200Z AUTO 36006KT 4SM 13/09 A3024 RMK SLP231 T01300090 IEM_DS3505
ZGNN,1995-11-20 23:00,ZGNN 202300Z AUTO 36006KT 7SM 13/09 A3024 RMK SLP231 T01300090 IEM_DS3505
ZGNN,1995-11-21 00:00,ZGNN 210000Z AUTO 04004KT 9SM 13/10 A3027 RMK SLP244 T01320097 52015 IEM_DS3505
ZGNN,1995-11-21 01:00,ZGNN 210100Z AUTO 01004KT 6SM 12/10 A3030 RMK SLP252 T01200100 IEM_DS3505
ZGNN,1995-11-21 02:00,ZGNN 210200Z AUTO 35004KT 6SM 12/11 A3030 RMK SLP252 T01200110 IEM_DS3505
ZGNN,1995-11-21 03:00,ZGNN 210300Z AUTO 07004KT 9SM 13/10 A3030 RMK SLP248 T01280099 52004 IEM_DS3505
ZGNN,1995-11-21 04:00,ZGNN 210400Z AUTO 36004KT 4SM 12/11 A3027 RMK SLP242 T01200110 IEM_DS3505
ZGNN,1995-11-21 05:00,ZGNN 210500Z AUTO 01004KT 4SM 13/10 A3024 RMK SLP231 T01300100 IEM_DS3505
ZGNN,1995-11-21 06:00,ZGNN 210600Z AUTO 00000KT 9SM 14/09 A3020 RMK SLP217 T01390092 57031 IEM_DS3505
ZGNN,1995-11-21 07:00,ZGNN 210700Z AUTO 02004KT 5SM 13/10 A3015 RMK SLP200 T01300100 IEM_DS3505
ZGNN,1995-11-21 08:00,ZGNN 210800Z AUTO 00000KT 7SM 13/10 A3015 RMK SLP200 T01300100 IEM_DS3505
ZGNN,1995-11-21 09:00,ZGNN 210900Z AUTO 04004KT 9SM 14/09 A3015 RMK SLP202 T01410092 57015 IEM_DS3505
ZGNN,1995-11-21 10:00,ZGNN 211000Z AUTO 00000KT 7SM 13/10 A3018 RMK SLP210 T01300100 IEM_DS3505
ZGNN,1995-11-21 11:00,ZGNN 211100Z AUTO 01004KT 7SM 13/10 A3018 RMK SLP210 T01300100 IEM_DS3505
ZGNN,1995-11-21 12:00,ZGNN 211200Z AUTO 07004KT 9SM 13/09 A3021 RMK SLP219 T01330094 52017 IEM_DS3505
ZGNN,1995-11-21 13:00,ZGNN 211300Z AUTO 00000KT 7SM 13/11 A3021 RMK SLP220 T01300110 IEM_DS3505
ZGNN,1995-11-21 14:00,ZGNN 211400Z AUTO 00000KT 7SM 13/11 A3021 RMK SLP220 T01300110 IEM_DS3505
ZGNN,1995-11-21 15:00,ZGNN 211500Z AUTO 07004KT 9SM 13/10 A3024 RMK SLP225 T01290098 52005 IEM_DS3505
ZGNN,1995-11-21 18:00,ZGNN 211800Z AUTO 04002KT 9SM 13/10 A3021 RMK SLP221 T01340099 57003 IEM_DS3505
ZGNN,1995-11-21 21:00,ZGNN 212100Z AUTO 04002KT 7SM 12/11 A3021 RMK SLP223 T01200112 52001 IEM_DS3505
ZGNN,1995-11-21 22:00,ZGNN 212200Z AUTO 02004KT 3SM 12/11 A3021 RMK SLP221 T01200110 IEM_DS3505
ZGNN,1995-11-21 23:00,ZGNN 212300Z AUTO 35004KT 3SM 12/11 A3024 RMK SLP231 T01200110 IEM_DS3505
ZGNN,1995-11-22 00:00,ZGNN 220000Z AUTO 04002KT 9SM 12/11 A3027 RMK 60001 70001 SLP242 T01190107 52019 IEM_DS3505
ZGNN,1995-11-22 01:00,ZGNN 220100Z AUTO 00000KT 2 1/2SM 12/11 A3027 RMK SLP242 T01200110 IEM_DS3505
ZGNN,1995-11-22 02:00,ZGNN 220200Z AUTO 36004KT 2 1/2SM 12/11 A3030 RMK SLP252 T01200110 IEM_DS3505
ZGNN,1995-11-22 03:00,ZGNN 220300Z AUTO 00000KT 12SM 13/11 A3030 RMK SLP247 T01320111 52005 IEM_DS3505
ZGNN,1995-11-22 04:00,ZGNN 220400Z AUTO 01004KT 5SM 13/11 A3027 RMK SLP242 T01300110 IEM_DS3505
ZGNN,1995-11-22 05:00,ZGNN 220500Z AUTO 35008KT 5SM 13/11 A3024 RMK SLP231 T01300110 IEM_DS3505
ZGNN,1995-11-22 06:00,ZGNN 220600Z AUTO 34004KT 12SM 14/12 A3020 RMK SLP217 T01390115 57029 IEM_DS3505
ZGNN,1995-11-22 07:00,ZGNN 220700Z AUTO 35006KT 7SM 13/11 A3018 RMK SLP210 T01300110 IEM_DS3505
ZGNN,1995-11-22 08:00,ZGNN 220800Z AUTO 01006KT 7SM 14/11 A3018 RMK SLP210 T01400110 IEM_DS3505
ZGNN,1995-11-22 09:00,ZGNN 220900Z AUTO 04002KT 11SM 14/11 A3018 RMK SLP209 T01440112 57008 IEM_DS3505
ZGNN,1995-11-22 10:00,ZGNN 221000Z AUTO 36004KT 7SM 14/11 A3018 RMK SLP210 T01400110 IEM_DS3505
ZGNN,1995-11-22 11:00,ZGNN 221100Z AUTO 00000KT 7SM 14/12 A3021 RMK SLP220 T01400120 IEM_DS3505
ZGNN,1995-11-22 12:00,ZGNN 221200Z AUTO 02004KT 11SM 15/11 A3024 RMK SLP232 T01470109 52022 IEM_DS3505
ZGNN,1995-11-22 13:00,ZGNN 221300Z AUTO 00000KT 7SM 14/12 A3024 RMK SLP230 T01400120 IEM_DS3505
ZGNN,1995-11-22 15:00,ZGNN 221500Z AUTO 00000KT 11SM 15/11 A3028 RMK SLP243 T01470111 52012 IEM_DS3505
ZGNN,1995-11-22 18:00,ZGNN 221800Z AUTO 00000KT 11SM 15/11 A3027 RMK SLP240 T01490110 57003 IEM_DS3505
ZGNN,1995-11-22 21:00,ZGNN 222100Z AUTO 00000KT 9SM 15/12 A3027 RMK SLP239 T01500115 57001 IEM_DS3505
ZGNN,1995-11-22 22:00,ZGNN 222200Z AUTO 36002KT 7SM 15/10 A3027 RMK SLP241 T01500100 IEM_DS3505
ZGNN,1995-11-22 23:00,ZGNN 222300Z AUTO 35006KT 7SM 15/11 A3030 RMK SLP251 T01500110 IEM_DS3505
ZGNN,1995-11-23 00:00,ZGNN 230000Z AUTO 00000KT 9SM 16/10 A3033 RMK SLP259 T01550100 52020 IEM_DS3505
ZGNN,1995-11-23 01:00,ZGNN 230100Z AUTO 36006KT 7SM 16/10 A3036 RMK SLP271 T01600100 IEM_DS3505
ZGNN,1995-11-23 02:00,ZGNN 230200Z AUTO 35006KT 7SM 16/09 A3036 RMK SLP271 T01600090 IEM_DS3505
ZGNN,1995-11-23 03:00,ZGNN 230300Z AUTO 34004KT 9SM 18/10 A3036 RMK SLP271 T01770095 52012 IEM_DS3505
ZGNN,1995-11-23 04:00,ZGNN 230400Z AUTO 33008KT 7SM 18/09 A3036 RMK SLP270 T01800090 IEM_DS3505
ZGNN,1995-11-23 05:00,ZGNN 230500Z AUTO 33012KT 6SM 19/09 A3033 RMK SLP260 T01900090 IEM_DS3505
ZGNN,1995-11-23 06:00,ZGNN 230600Z AUTO 02008KT 12SM 21/09 A3030 RMK SLP244 T02100094 57026 IEM_DS3505
ZGNN,1995-11-23 07:00,ZGNN 230700Z AUTO 36010KT 6SM 19/08 A3027 RMK SLP240 T01900080 IEM_DS3505
ZGNN,1995-11-23 08:00,ZGNN 230800Z AUTO 36006KT 6SM 20/07 A3027 RMK SLP240 T02000070 IEM_DS3505
ZGNN,1995-11-23 09:00,ZGNN 230900Z AUTO 04006KT 12SM 20/07 A3030 RMK SLP245 T01970071 52001 IEM_DS3505
ZGNN,1995-11-23 10:00,ZGNN 231000Z AUTO 35006KT 6SM 18/06 A3033 RMK SLP260 T01800060 IEM_DS3505
ZGNN,1995-11-23 11:00,ZGNN 231100Z AUTO 36006KT 6SM 17/07 A3036 RMK SLP271 T01700070 IEM_DS3505
ZGNN,1995-11-23 12:00,ZGNN 231200Z AUTO 02004KT 11SM 17/06 A3036 RMK SLP274 T01710060 52028 IEM_DS3505
ZGNN,1995-11-23 13:00,ZGNN 231300Z AUTO 35004KT 6SM 15/08 A3039 RMK SLP281 T01500080 IEM_DS3505
ZGNN,1995-11-23 14:00,ZGNN 231400Z AUTO 34006KT 6SM 14/07 A3042 RMK SLP292 T01400070 IEM_DS3505
ZGNN,1995-11-23 15:00,ZGNN 231500Z AUTO 00000KT 10SM 14/08 A3041 RMK SLP290 T01450083 52016 IEM_DS3505
ZGNN,1995-11-23 18:00,ZGNN 231800Z AUTO 02002KT 9SM 13/08 A3040 RMK SLP283 T01310080 57007 IEM_DS3505
ZGNN,1995-11-23 21:00,ZGNN 232100Z AUTO 09002KT 9SM 11/09 A3036 RMK SLP272 T01140086 57011 IEM_DS3505
ZGNN,1995-11-23 22:00,ZGNN 232200Z AUTO 00000KT 7SM 08/07 A3036 RMK SLP274 T00800070 IEM_DS3505
ZGNN,1995-11-23 23:00,ZGNN 232300Z AUTO 00000KT 7SM 08/07 A3039 RMK SLP284 T00800070 IEM_DS3505
ZGNN,1995-11-24 00:00,ZGNN 240000Z AUTO 00000KT 6SM 10/08 A3039 RMK SLP280 T01050076 52007 IEM_DS3505
ZGNN,1995-11-24 01:00,ZGNN 240100Z AUTO 00000KT 7SM 13/09 A3039 RMK SLP282 T01300090 IEM_DS3505
ZGNN,1995-11-24 02:00,ZGNN 240200Z AUTO 03006KT 7SM 16/08 A3039 RMK SLP281 T01600080 IEM_DS3505
ZGNN,1995-11-24 03:00,ZGNN 240300Z AUTO 00000KT 9SM 16/06 A3036 RMK SLP273 T01650055 57006 IEM_DS3505
ZGNN,1995-11-24 04:00,ZGNN 240400Z AUTO 03002KT 7SM 18/05 A3033 RMK SLP260 T01800050 IEM_DS3505
ZGNN,1995-11-24 05:00,ZGNN 240500Z AUTO 07004KT 7SM 19/05 A3027 RMK SLP240 T01900050 IEM_DS3505
ZGNN,1995-11-24 06:00,ZGNN 240600Z AUTO 09004KT 12SM 20/04 A3024 RMK SLP229 T01990041 57044 IEM_DS3505
ZGNN,1995-11-24 07:00,ZGNN 240700Z AUTO 36002KT 7SM 20/05 A3021 RMK SLP218 T02000050 IEM_DS3505
ZGNN,1995-11-24 08:00,ZGNN 240800Z AUTO 00000KT 7SM 20/04 A3018 RMK SLP208 T02000040 IEM_DS3505
ZGNN,1995-11-24 09:00,ZGNN 240900Z AUTO 00000KT 12SM 20/04 A3015 RMK SLP202 T01970044 57027 IEM_DS3505
ZGNN,1995-11-24 10:00,ZGNN 241000Z AUTO 00000KT 7SM 17/09 A3015 RMK SLP199 T01700090 IEM_DS3505
ZGNN,1995-11-24 12:00,ZGNN 241200Z AUTO 00000KT 11SM 15/08 A3018 RMK SLP210 T01530075 52008 IEM_DS3505
ZGNN,1995-11-24 13:00,ZGNN 241300Z AUTO 00000KT 7SM 11/09 A3018 RMK SLP211 T01100090 IEM_DS3505
ZGNN,1995-11-24 15:00,ZGNN 241500Z AUTO 00000KT 11SM 13/07 A3018 RMK SLP211 T01310071 52001 IEM_DS3505
ZGNN,1995-11-24 18:00,ZGNN 241800Z AUTO 00000KT 9SM 11/08 A3015 RMK SLP201 T01120081 57010 IEM_DS3505
ZGNN,1995-11-24 21:00,ZGNN 242100Z AUTO 00000KT 9SM 10/07 A3012 RMK SLP190 T01010074 57011 IEM_DS3505
ZGNN,1995-11-24 22:00,ZGNN 242200Z AUTO 00000KT 4SM 08/06 A3012 RMK SLP192 T00800060 IEM_DS3505
ZGNN,1995-11-24 23:00,ZGNN 242300Z AUTO 00000KT 7SM 07/06 A3012 RMK SLP192 T00700060 IEM_DS3505
ZGNN,1995-11-25 00:00,ZGNN 250000Z AUTO 00000KT 9SM 10/07 A3012 RMK SLP198 T00980068 52008 IEM_DS3505
ZGNN,1995-11-25 01:00,ZGNN 250100Z AUTO 00000KT 7SM 12/08 A3015 RMK SLP201 T01200080 IEM_DS3505
ZGNN,1995-11-25 02:00,ZGNN 250200Z AUTO 00000KT 7SM 16/08 A3015 RMK SLP199 T01600080 IEM_DS3505
ZGNN,1995-11-25 03:00,ZGNN 250300Z AUTO 04004KT 12SM 17/08 A3015 RMK SLP201 T01730079 52003 IEM_DS3505
ZGNN,1995-11-25 04:00,ZGNN 250400Z AUTO 16006KT 7SM 19/05 A3012 RMK SLP188 T01900050 IEM_DS3505
ZGNN,1995-11-25 05:00,ZGNN 250500Z AUTO 16008KT 7SM 21/05 A3006 RMK SLP168 T02100050 IEM_DS3505
ZGNN,1995-11-25 06:00,ZGNN 250600Z AUTO 22002KT 12SM 21/06 A3003 RMK SLP160 T02090055 57040 IEM_DS3505
ZGNN,1995-11-25 07:00,ZGNN 250700Z AUTO 17006KT 7SM 23/07 A3000 RMK SLP147 T02300070 IEM_DS3505
ZGNN,1995-11-25 08:00,ZGNN 250800Z AUTO 14006KT 7SM 22/06 A2997 RMK SLP137 T02200060 IEM_DS3505
ZGNN,1995-11-25 09:00,ZGNN 250900Z AUTO 00000KT 12SM 21/07 A2998 RMK SLP141 T02110066 57019 IEM_DS3505
ZGNN,1995-11-25 10:00,ZGNN 251000Z AUTO 14004KT 6SM 18/08 A2997 RMK SLP138 T01800080 IEM_DS3505
ZGNN,1995-11-25 11:00,ZGNN 251100Z AUTO 00000KT 7SM 14/11 A3000 RMK SLP150 T01400110 IEM_DS3505
ZGNN,1995-11-25 12:00,ZGNN 251200Z AUTO 25002KT 12SM 18/08 A3003 RMK SLP159 T01800076 57017 IEM_DS3505
ZGNN,1995-11-25 13:00,ZGNN 251300Z AUTO 00000KT 7SM 13/10 A3006 RMK SLP170 T01300100 IEM_DS3505
ZGNN,1995-11-25 15:00,ZGNN 251500Z AUTO 00000KT 11SM 15/10 A3008 RMK SLP177 T01480100 52019 IEM_DS3505
ZGNN,1995-11-25 18:00,ZGNN 251800Z AUTO 00000KT 9SM 13/10 A3007 RMK SLP171 T01260095 57006 IEM_DS3505
ZGNN,1995-11-25 21:00,ZGNN 252100Z AUTO 00000KT 9SM 12/08 A3003 RMK SLP164 T01180084 57007 IEM_DS3505
ZGNN,1995-11-25 22:00,ZGNN 252200Z AUTO 00000KT 5SM 10/09 A3003 RMK SLP161 T01000090 IEM_DS3505
ZGNN,1995-11-25 23:00,ZGNN 252300Z AUTO 36006KT 7SM 10/09 A3009 RMK SLP181 T01000090 IEM_DS3505
ZGNN,1995-11-26 00:00,ZGNN 260000Z AUTO 00000KT 6SM 12/09 A3009 RMK SLP186 T01180088 52021 IEM_DS3505
ZGNN,1995-11-26 01:00,ZGNN 260100Z AUTO 00000KT 6SM 14/10 A3012 RMK SLP190 T01400100 IEM_DS3505
ZGNN,1995-11-26 02:00,ZGNN 260200Z AUTO 00000KT 6SM 18/10 A3012 RMK SLP189 T01800100 IEM_DS3505
ZGNN,1995-11-26 03:00,ZGNN 260300Z AUTO 00000KT 7SM 19/11 A3013 RMK SLP193 T01930111 52008 IEM_DS3505
ZGNN,1995-11-26 04:00,ZGNN 260400Z AUTO 00000KT 6SM 21/09 A3009 RMK SLP178 T02100090 IEM_DS3505
ZGNN,1995-11-26 05:00,ZGNN 260500Z AUTO 03004KT 6SM 22/09 A3006 RMK SLP167 T02200090 IEM_DS3505
ZGNN,1995-11-26 06:00,ZGNN 260600Z AUTO 20002KT 12SM 22/11 A3000 RMK SLP156 T02230108 57037 IEM_DS3505
ZGNN,1995-11-26 08:00,ZGNN 260800Z AUTO 13006KT 6SM 23/11 A2997 RMK SLP137 T02300110 IEM_DS3505
ZGNN,1995-11-26 09:00,ZGNN 260900Z AUTO 00000KT 12SM 22/11 A2997 RMK SLP147 T02210114 57009 IEM_DS3505
ZGNN,1995-11-26 11:00,ZGNN 261100Z AUTO 36004KT 6SM 18/13 A3003 RMK SLP158 T01800130 IEM_DS3505
ZGNN,1995-11-26 12:00,ZGNN 261200Z AUTO 04002KT 12SM 18/13 A3006 RMK SLP169 T01830130 52022 IEM_DS3505
ZGNN,1995-11-26 13:00,ZGNN 261300Z AUTO 36004KT 6SM 16/13 A3006 RMK SLP169 T01600130 IEM_DS3505
ZGNN,1995-11-26 15:00,ZGNN 261500Z AUTO 00000KT 12SM 18/13 A3011 RMK SLP187 T01750127 52018 IEM_DS3505
ZGNN,1995-11-26 18:00,ZGNN 261800Z AUTO 00000KT 10SM 17/13 A3008 RMK SLP175 T01700127 57011 IEM_DS3505
ZGNN,1995-11-26 21:00,ZGNN 262100Z AUTO 00000KT 9SM 17/13 A3006 RMK SLP169 T01670128 57006 IEM_DS3505
ZGNN,1995-11-26 22:00,ZGNN 262200Z AUTO 00000KT 7SM 16/13 A3006 RMK SLP169 T01600130 IEM_DS3505
ZGNN,1995-11-26 23:00,ZGNN 262300Z AUTO 00000KT 4SM 16/13 A3009 RMK SLP179 T01600130 IEM_DS3505
ZGNN,1995-11-27 00:00,ZGNN 270000Z AUTO 00000KT 4SM 17/13 A3009 RMK SLP183 T01710132 52013 IEM_DS3505
ZGNN,1995-11-27 01:00,ZGNN 270100Z AUTO 00000KT 2 1/2SM 18/14 A3009 RMK SLP179 T01800140 IEM_DS3505
ZGNN,1995-11-27 02:00,ZGNN 270200Z AUTO 06006KT 6SM 20/11 A3012 RMK SLP188 T02000110 IEM_DS3505
ZGNN,1995-11-27 03:00,ZGNN 270300Z AUTO 00000KT 6SM 20/12 A3012 RMK SLP188 T02050120 52006 IEM_DS3505
ZGNN,1995-11-27 04:00,ZGNN 270400Z AUTO 00000KT 5SM 21/11 A3009 RMK SLP178 T02100110 IEM_DS3505
ZGNN,1995-11-27 05:00,ZGNN 270500Z AUTO 09004KT 6SM 22/09 A3006 RMK SLP167 T02200090 IEM_DS3505
ZGNN,1995-11-27 06:00,ZGNN 270600Z AUTO 00000KT 8SM 23/12 A3000 RMK SLP149 T02280115 57039 IEM_DS3505
ZGNN,1995-11-27 07:00,ZGNN 270700Z AUTO 07002KT 6SM 22/11 A2997 RMK SLP137 T02200110 IEM_DS3505
ZGNN,1995-11-27 08:00,ZGNN 270800Z AUTO 00000KT 6SM 22/11 A2997 RMK SLP137 T02200110 IEM_DS3505
ZGNN,1995-11-27 09:00,ZGNN 270900Z AUTO 00000KT 9SM 23/11 A2997 RMK SLP143 T02260107 57006 IEM_DS3505
ZGNN,1995-11-27 10:00,ZGNN 271000Z AUTO 00000KT 6SM 21/12 A3000 RMK SLP147 T02100120 IEM_DS3505
ZGNN,1995-11-27 11:00,ZGNN 271100Z AUTO 08004KT 6SM 20/13 A3000 RMK SLP148 T02000130 IEM_DS3505
ZGNN,1995-11-27 12:00,ZGNN 271200Z AUTO 07002KT 9SM 20/12 A3003 RMK SLP163 T01990119 52020 IEM_DS3505
ZGNN,1995-11-27 13:00,ZGNN 271300Z AUTO 00000KT 6SM 19/15 A3006 RMK SLP168 T01900150 IEM_DS3505
ZGNN,1995-11-27 15:00,ZGNN 271500Z AUTO 07002KT 9SM 19/12 A3005 RMK SLP165 T01920118 52002 IEM_DS3505
ZGNN,1995-11-27 18:00,ZGNN 271800Z AUTO 00000KT 9SM 18/12 A3004 RMK SLP160 T01840117 57005 IEM_DS3505
ZGNN,1995-11-27 21:00,ZGNN 272100Z AUTO 00000KT 9SM 18/11 A3003 RMK SLP157 T01770113 IEM_DS3505
ZGNN,1995-11-27 22:00,ZGNN 272200Z AUTO 00000KT 6SM 16/13 A3003 RMK SLP159 T01600130 IEM_DS3505
ZGNN,1995-11-27 23:00,ZGNN 272300Z AUTO 00000KT 3SM 16/13 A3006 RMK SLP169 T01600130 IEM_DS3505
ZGNN,1995-11-28 00:00,ZGNN 280000Z AUTO 00000KT 5SM 17/12 A3009 RMK SLP178 T01730121 52021 IEM_DS3505
ZGNN,1995-11-28 01:00,ZGNN 280100Z AUTO 00000KT 4SM 17/13 A3009 RMK SLP179 T01700130 IEM_DS3505
ZGNN,1995-11-28 02:00,ZGNN 280200Z AUTO 06004KT 4SM 18/11 A3012 RMK SLP189 T01800110 IEM_DS3505
ZGNN,1995-11-28 03:00,ZGNN 280300Z AUTO 00000KT 7SM 20/12 A3012 RMK SLP185 T01970118 52007 IEM_DS3505
ZGNN,1995-11-28 04:00,ZGNN 280400Z AUTO 04004KT 5SM 21/11 A3009 RMK SLP178 T02100110 IEM_DS3505
ZGNN,1995-11-28 05:00,ZGNN 280500Z AUTO 09004KT 6SM 22/12 A3006 RMK SLP167 T02200120 IEM_DS3505
ZGNN,1995-11-28 06:00,ZGNN 280600Z AUTO 16002KT 12SM 22/12 A3003 RMK SLP158 T02200124 57027 IEM_DS3505
ZGNN,1995-11-28 07:00,ZGNN 280700Z AUTO 00000KT 6SM 23/13 A3000 RMK SLP147 T02300130 IEM_DS3505
ZGNN,1995-11-28 08:00,ZGNN 280800Z AUTO 13006KT 6SM 23/12 A3000 RMK SLP147 T02300120 IEM_DS3505
ZGNN,1995-11-28 09:00,ZGNN 280900Z AUTO 00000KT 12SM 23/13 A3000 RMK SLP151 T02260131 57007 IEM_DS3505
ZGNN,1995-11-28 10:00,ZGNN 281000Z AUTO 00000KT 6SM 21/13 A3000 RMK SLP147 T02100130 IEM_DS3505
ZGNN,1995-11-28 11:00,ZGNN 281100Z AUTO 00000KT 5SM 19/14 A3003 RMK SLP158 T01900140 IEM_DS3505
ZGNN,1995-11-28 12:00,ZGNN 281200Z AUTO 00000KT 9SM 20/14 A3006 RMK SLP165 T01980143 52014 IEM_DS3505
ZGNN,1995-11-28 13:00,ZGNN 281300Z AUTO 01004KT 5SM 18/14 A3006 RMK SLP168 T01800140 IEM_DS3505
ZGNN,1995-11-28 18:00,ZGNN 281800Z AUTO 00000KT 9SM 17/14 A3006 RMK SLP169 T01740139 57003 IEM_DS3505
ZGNN,1995-11-28 21:00,ZGNN 282100Z AUTO 00000KT 7SM 17/14 A3006 RMK SLP168 T01730142 57001 IEM_DS3505
ZGNN,1995-11-28 23:00,ZGNN 282300Z AUTO 00000KT 3SM 17/13 A3009 RMK SLP179 T01700130 IEM_DS3505
ZGNN,1995-11-29 00:00,ZGNN 290000Z AUTO 00000KT 6SM 17/14 A3009 RMK SLP181 T01710140 52012 IEM_DS3505
ZGNN,1995-11-29 01:00,ZGNN 290100Z AUTO 08004KT 2 1/2SM 18/13 A3012 RMK SLP189 T01800130 IEM_DS3505
ZGNN,1995-11-29 02:00,ZGNN 290200Z AUTO 10004KT 3SM 19/13 A3012 RMK SLP188 T01900130 IEM_DS3505
ZGNN,1995-11-29 03:00,ZGNN 290300Z AUTO 00000KT 7SM 20/14 A3012 RMK SLP192 T02030139 52012 IEM_DS3505
ZGNN,1995-11-29 04:00,ZGNN 290400Z AUTO 10006KT 4SM 22/13 A3012 RMK SLP187 T02200130 IEM_DS3505
ZGNN,1995-11-29 05:00,ZGNN 290500Z AUTO 09006KT 4SM 23/13 A3006 RMK SLP167 T02300130 IEM_DS3505
ZGNN,1995-11-29 06:00,ZGNN 290600Z AUTO 07002KT 19SM 24/13 A3000 RMK SLP156 T02430134 57036 IEM_DS3505
ZGNN,1995-11-29 07:00,ZGNN 290700Z AUTO 00000KT 5SM 25/14 A3000 RMK SLP146 T02500140 IEM_DS3505
ZGNN,1995-11-29 08:00,ZGNN 290800Z AUTO 09002KT 5SM 25/13 A2997 RMK SLP136 T02500130 IEM_DS3505
ZGNN,1995-11-29 09:00,ZGNN 290900Z AUTO 11002KT 16SM 25/14 A2997 RMK SLP142 T02530145 57013 IEM_DS3505
ZGNN,1995-11-29 10:00,ZGNN 291000Z AUTO 07004KT 4SM 22/15 A3000 RMK SLP147 T02200150 IEM_DS3505
ZGNN,1995-11-29 11:00,ZGNN 291100Z AUTO 00000KT 4SM 21/14 A3003 RMK SLP158 T02100140 IEM_DS3505
ZGNN,1995-11-29 12:00,ZGNN 291200Z AUTO 04002KT 12SM 21/15 A3004 RMK SLP161 T02140146 52018 IEM_DS3505
ZGNN,1995-11-29 15:00,ZGNN 291500Z AUTO 11002KT 11SM 19/14 A3010 RMK SLP180 T01940137 52019 IEM_DS3505
ZGNN,1995-11-29 18:00,ZGNN 291800Z AUTO 00000KT 11SM 18/14 A3008 RMK SLP176 T01830138 57004 IEM_DS3505
ZGNN,1995-11-29 21:00,ZGNN 292100Z AUTO 00000KT 9SM 18/14 A3006 RMK SLP169 T01820137 57006 IEM_DS3505
ZGNN,1995-11-29 22:00,ZGNN 292200Z AUTO 00000KT 3SM 17/14 A3009 RMK SLP179 T01700140 IEM_DS3505
ZGNN,1995-11-29 23:00,ZGNN 292300Z AUTO 00000KT 3SM 17/15 A3009 RMK SLP179 T01700150 IEM_DS3505
ZGNN,1995-11-30 00:00,ZGNN 300000Z AUTO 00000KT 9SM 18/14 A3012 RMK SLP188 T01840135 52018 IEM_DS3505
ZGNN,1995-11-30 02:00,ZGNN 300200Z AUTO 09006KT 3SM 21/13 A3015 RMK SLP198 T02100130 IEM_DS3505
ZGNN,1995-11-30 03:00,ZGNN 300300Z AUTO 14002KT 9SM 22/14 A3015 RMK SLP195 T02250138 52007 IEM_DS3505
ZGNN,1995-11-30 04:00,ZGNN 300400Z AUTO 13004KT 4SM 24/14 A3012 RMK SLP187 T02400140 IEM_DS3505
ZGNN,1995-11-30 05:00,ZGNN 300500Z AUTO 00000KT 4SM 25/14 A3009 RMK SLP177 T02500140 IEM_DS3505
ZGNN,1995-11-30 06:00,ZGNN 300600Z AUTO 07004KT 9SM 26/14 A3006 RMK SLP163 T02560143 57031 IEM_DS3505
ZGNN,1995-11-30 07:00,ZGNN 300700Z AUTO 00000KT 4SM 26/13 A3000 RMK SLP146 T02600130 IEM_DS3505
ZGNN,1995-11-30 08:00,ZGNN 300800Z AUTO 12004KT 4SM 25/15 A3000 RMK SLP146 T02500150 IEM_DS3505
ZGNN,1995-11-30 09:00,ZGNN 300900Z AUTO 00000KT 9SM 25/15 A3000 RMK SLP149 T02500153 57014 IEM_DS3505
ZGNN,1995-11-30 10:00,ZGNN 301000Z AUTO 00000KT 2 1/2SM 23/16 A3003 RMK SLP157 T02300160 IEM_DS3505
ZGNN,1995-11-30 11:00,ZGNN 301100Z AUTO 00000KT 2 1/2SM 22/15 A3003 RMK SLP157 T02200150 IEM_DS3505
ZGNN,1995-11-30 12:00,ZGNN 301200Z AUTO 07002KT 7SM 22/14 A3006 RMK SLP168 T02240135 52018 IEM_DS3505
ZGNN,1995-11-30 13:00,ZGNN 301300Z AUTO 00000KT 2 1/2SM 21/14 A3009 RMK SLP178 T02100140 IEM_DS3505
ZGNN,1995-11-30 14:00,ZGNN 301400Z AUTO 00000KT 2 1/2SM 20/16 A3009 RMK SLP178 T02000160 IEM_DS3505
ZGNN,1995-11-30 15:00,ZGNN 301500Z AUTO 07002KT 9SM 22/13 A3010 RMK SLP180 T02170130 52013 IEM_DS3505
ZGNN,1995-11-30 16:00,ZGNN 301600Z AUTO 00000KT 2 1/2SM 20/14 A3009 RMK SLP178 T02000140 IEM_DS3505
ZGNN,1995-11-30 17:00,ZGNN 301700Z AUTO 00000KT 2 1/2SM 20/14 A3009 RMK SLP178 T02000140 IEM_DS3505
ZGNN,1995-11-30 18:00,ZGNN 301800Z AUTO 00000KT 9SM 21/13 A3009 RMK SLP178 T02070134 57002 IEM_DS3505
ZGNN,1995-11-30 21:00,ZGNN 302100Z AUTO 07004KT 9SM 20/12 A3006 RMK SLP172 T01970118 57006 IEM_DS3505
ZGNN,1995-11-30 22:00,ZGNN 302200Z AUTO 00000KT 2 1/2SM 19/13 A3009 RMK SLP178 T01900130 IEM_DS3505
ZGNN,1995-11-30 23:00,ZGNN 302300Z AUTO 03004KT 2 1/2SM 19/13 A3012 RMK SLP188 T01900130 IEM_DS3505
ZGNN,1995-12-01 00:00,ZGNN 010000Z AUTO 07004KT 9SM 19/12 A3012 RMK SLP194 T01860121 52021 IEM_DS3505
ZGNN,1995-12-01 01:00,ZGNN 010100Z AUTO 00000KT 2 1/2SM 18/13 A3015 RMK T01800130 IEM_DS3505
ZGNN,1995-12-01 02:00,ZGNN 010200Z AUTO 03006KT 2 1/2SM 19/12 A3018 RMK T01900120 IEM_DS3505
ZGNN,1995-12-01 03:00,ZGNN 010300Z AUTO 07002KT 9SM 20/13 A3015 RMK SLP204 T02020128 52010 IEM_DS3505
ZGNN,1995-12-01 04:00,ZGNN 010400Z AUTO 08006KT 2 1/2SM 22/12 A3015 RMK T02200120 IEM_DS3505
ZGNN,1995-12-01 05:00,ZGNN 010500Z AUTO 08008KT 2 1/2SM 22/12 A3009 RMK T02200120 IEM_DS3505
ZGNN,1995-12-01 06:00,ZGNN 010600Z AUTO 04002KT 9SM 23/13 A3006 RMK SLP169 T02320128 57034 IEM_DS3505
ZGNN,1995-12-01 07:00,ZGNN 010700Z AUTO 07006KT 2 1/2SM 23/13 A3006 RMK T02300130 IEM_DS3505
ZGNN,1995-12-01 08:00,ZGNN 010800Z AUTO 01004KT 2 1/2SM 23/13 A3003 RMK T02300130 IEM_DS3505
ZGNN,1995-12-01 09:00,ZGNN 010900Z AUTO 00000KT 9SM 23/14 A3003 RMK SLP165 T02260137 57005 IEM_DS3505
ZGNN,1995-12-01 10:00,ZGNN 011000Z AUTO 06004KT 2SM 20/14 A3006 RMK T02000140 IEM_DS3505
ZGNN,1995-12-01 11:00,ZGNN 011100Z AUTO 07004KT 2SM 19/14 A3006 RMK T01900140 IEM_DS3505
ZGNN,1995-12-01 12:00,ZGNN 011200Z AUTO 04004KT 8SM 19/12 A3009 RMK SLP179 T01910119 52014 IEM_DS3505
ZGNN,1995-12-01 15:00,ZGNN 011500Z AUTO 07002KT 7SM 18/12 RMK SLP192 T01810120 52013 IEM_DS3505
ZGNN,1995-12-01 18:00,ZGNN 011800Z AUTO 07002KT 7SM 18/11 RMK SLP195 T01760114 52003 IEM_DS3505
ZGNN,1995-12-01 21:00,ZGNN 012100Z AUTO 04002KT 7SM 17/12 A3015 RMK SLP196 T01680117 52001 IEM_DS3505
ZGNN,1995-12-01 22:00,ZGNN 012200Z AUTO 00000KT 2 1/2SM 16/13 A3015 RMK T01600130 IEM_DS3505
ZGNN,1995-12-02 00:00,ZGNN 020000Z AUTO 07002KT 7SM 16/12 A3018 RMK SLP212 T01620116 52015 IEM_DS3505
ZGNN,1995-12-02 01:00,ZGNN 020100Z AUTO 00000KT 1 1/2SM 16/12 A3021 RMK T01600120 IEM_DS3505
ZGNN,1995-12-02 02:00,ZGNN 020200Z AUTO 09004KT 2SM 18/11 A3021 RMK T01800110 IEM_DS3505
ZGNN,1995-12-02 03:00,ZGNN 020300Z AUTO 07002KT 7SM 19/12 A3021 RMK SLP218 T01920120 52006 IEM_DS3505
ZGNN,1995-12-02 04:00,ZGNN 020400Z AUTO 05004KT 2SM 19/12 A3018 RMK T01900120 IEM_DS3505
ZGNN,1995-12-02 05:00,ZGNN 020500Z AUTO 08004KT 2 1/2SM 20/13 A3015 RMK T02000130 IEM_DS3505
ZGNN,1995-12-02 06:00,ZGNN 020600Z AUTO 00000KT 7SM 22/12 A3009 RMK SLP180 T02180125 57037 IEM_DS3505
ZGNN,1995-12-02 07:00,ZGNN 020700Z AUTO 06006KT 2 1/2SM 22/14 A3009 RMK T02200140 IEM_DS3505
ZGNN,1995-12-02 08:00,ZGNN 020800Z AUTO 09008KT 2 1/2SM 22/13 A3006 RMK T02200130 IEM_DS3505
ZGNN,1995-12-02 09:00,ZGNN 020900Z AUTO 00000KT 7SM 22/13 A3006 RMK SLP173 T02190133 57007 IEM_DS3505
ZGNN,1995-12-02 10:00,ZGNN 021000Z AUTO 07004KT 2 1/2SM 19/13 A3009 RMK T01900130 IEM_DS3505
ZGNN,1995-12-02 12:00,ZGNN 021200Z AUTO 07006KT 7SM 19/12 A3012 RMK SLP189 T01880120 52015 IEM_DS3505
ZGNN,1995-12-02 13:00,ZGNN 021300Z AUTO 00000KT 2 1/2SM 17/13 A3015 RMK T01700130 IEM_DS3505
ZGNN,1995-12-02 15:00,ZGNN 021500Z AUTO 04002KT 7SM 17/11 RMK SLP205 T01680113 52016 IEM_DS3505
ZGNN,1995-12-02 18:00,ZGNN 021800Z AUTO 09004KT 7SM 16/11 RMK SLP209 T01610107 52004 IEM_DS3505
ZGNN,1995-12-02 21:00,ZGNN 022100Z AUTO 04004KT 7SM 16/11 A3018 RMK SLP209 T01570110 54000 IEM_DS3505
ZGNN,1995-12-02 22:00,ZGNN 022200Z AUTO 00000KT 2 1/2SM 15/12 A3018 RMK T01500120 IEM_DS3505
ZGNN,1995-12-02 23:00,ZGNN 022300Z AUTO 06006KT 2 1/2SM 15/11 A3021 RMK T01500110 IEM_DS3505
ZGNN,1995-12-03 00:00,ZGNN 030000Z AUTO 02004KT 7SM 16/10 A3021 RMK SLP223 T01560105 52014 IEM_DS3505
ZGNN,1995-12-03 01:00,ZGNN 030100Z AUTO 05004KT 3SM 15/11 A3024 RMK T01500110 IEM_DS3505
ZGNN,1995-12-03 02:00,ZGNN 030200Z AUTO 07002KT 3SM 15/10 A3024 RMK T01500100 IEM_DS3505
ZGNN,1995-12-03 03:00,ZGNN 030300Z AUTO 09002KT 9SM 16/10 A3024 RMK SLP236 T01580103 52012 IEM_DS3505
ZGNN,1995-12-03 04:00,ZGNN 030400Z AUTO 36004KT 4SM 16/10 A3024 RMK T01600100 IEM_DS3505
ZGNN,1995-12-03 05:00,ZGNN 030500Z AUTO 01004KT 4SM 16/11 A3021 RMK T01600110 IEM_DS3505
ZGNN,1995-12-03 06:00,ZGNN 030600Z AUTO 02004KT 11SM 16/10 A3012 RMK SLP206 T01600103 57029 IEM_DS3505
ZGNN,1995-12-03 07:00,ZGNN 030700Z AUTO 33004KT 7SM 15/10 A3015 RMK T01500100 IEM_DS3505
ZGNN,1995-12-03 08:00,ZGNN 030800Z AUTO 00000KT 7SM 15/10 A3015 RMK T01500100 IEM_DS3505
ZGNN,1995-12-03 09:00,ZGNN 030900Z AUTO 07004KT 11SM 16/10 A3015 RMK SLP199 T01590104 57007 IEM_DS3505
ZGNN,1995-12-03 10:00,ZGNN 031000Z AUTO 36006KT 7SM 15/11 A3018 RMK T01500110 IEM_DS3505
ZGNN,1995-12-03 11:00,ZGNN 031100Z AUTO 02004KT 7SM 15/10 A3018 RMK T01500100 IEM_DS3505
ZGNN,1995-12-03 12:00,ZGNN 031200Z AUTO 07002KT 11SM 15/10 A3018 RMK SLP215 T01490101 52015 IEM_DS3505
ZGNN,1995-12-03 13:00,ZGNN 031300Z AUTO 06004KT 7SM 14/10 A3021 RMK T01400100 IEM_DS3505
ZGNN,1995-12-03 15:00,ZGNN 031500Z AUTO 07002KT 9SM 15/10 RMK SLP226 T01460096 52011 IEM_DS3505
ZGNN,1995-12-03 18:00,ZGNN 031800Z AUTO 04002KT 9SM 14/09 RMK SLP222 T01430088 57004 IEM_DS3505
ZGNN,1995-12-03 21:00,ZGNN 032100Z AUTO 04004KT 9SM 14/09 A3018 RMK SLP218 T01350090 57004 IEM_DS3505
ZGNN,1995-12-03 22:00,ZGNN 032200Z AUTO 00000KT 7SM 13/10 A3018 RMK T01300100 IEM_DS3505
ZGNN,1995-12-03 23:00,ZGNN 032300Z AUTO 06002KT 7SM 13/10 A3021 RMK T01300100 IEM_DS3505
ZGNN,1995-12-04 00:00,ZGNN 040000Z AUTO 07004KT 9SM 14/08 A3024 RMK SLP229 T01350081 52011 IEM_DS3505
ZGNN,1995-12-04 01:00,ZGNN 040100Z AUTO 03008KT 7SM 14/08 A3027 RMK T01400080 IEM_DS3505
ZGNN,1995-12-04 02:00,ZGNN 040200Z AUTO 36006KT 7SM 15/08 A3027 RMK T01500080 IEM_DS3505
ZGNN,1995-12-04 03:00,ZGNN 040300Z AUTO 07004KT 11SM 15/08 A3027 RMK SLP241 T01510081 52012 IEM_DS3505
ZGNN,1995-12-04 04:00,ZGNN 040400Z AUTO 35006KT 7SM 15/08 A3027 RMK T01500080 IEM_DS3505
ZGNN,1995-12-04 05:00,ZGNN 040500Z AUTO 34006KT 7SM 16/08 A3024 RMK T01600080 IEM_DS3505
ZGNN,1995-12-04 06:00,ZGNN 040600Z AUTO 02006KT 11SM 16/08 A3021 RMK SLP219 T01600081 57022 IEM_DS3505
ZGNN,1995-12-04 07:00,ZGNN 040700Z AUTO 35006KT 7SM 15/07 A3018 RMK T01500070 IEM_DS3505
ZGNN,1995-12-04 08:00,ZGNN 040800Z AUTO 33008KT 7SM 15/07 A3018 RMK T01500070 IEM_DS3505
ZGNN,1995-12-04 09:00,ZGNN 040900Z AUTO 02004KT 11SM 15/08 A3018 RMK SLP215 T01490081 57004 IEM_DS3505
ZGNN,1995-12-04 10:00,ZGNN 041000Z AUTO 35006KT 7SM 14/07 A3021 RMK T01400070 IEM_DS3505
ZGNN,1995-12-04 11:00,ZGNN 041100Z AUTO 33004KT 7SM 14/08 A3021 RMK T01400080 IEM_DS3505
ZGNN,1995-12-04 12:00,ZGNN 041200Z AUTO 34004KT 11SM 14/08 A3024 RMK SLP230 T01410085 52015 IEM_DS3505
ZGNN,1995-12-04 13:00,ZGNN 041300Z AUTO 36004KT 7SM 13/08 A3027 RMK T01300080 IEM_DS3505
ZGNN,1995-12-04 14:00,ZGNN 041400Z AUTO 35004KT 7SM 13/09 A3027 RMK T01300090 IEM_DS3505
ZGNN,1995-12-04 15:00,ZGNN 041500Z AUTO 00000KT 9SM 14/09 RMK SLP241 T01370090 52011 IEM_DS3505
ZGNN,1995-12-04 18:00,ZGNN 041800Z AUTO 34002KT 9SM 14/09 RMK SLP241 T01380093 54000 IEM_DS3505
ZGNN,1995-12-04 21:00,ZGNN 042100Z AUTO 36002KT 7SM 14/08 A3027 RMK SLP237 T01350083 57004 IEM_DS3505
ZGNN,1995-12-04 22:00,ZGNN 042200Z AUTO 36004KT 7SM 13/08 A3027 RMK T01300080 IEM_DS3505
ZGNN,1995-12-04 23:00,ZGNN 042300Z AUTO 36004KT 7SM 13/08 A3030 RMK T01300080 IEM_DS3505
ZGNN,1995-12-05 00:00,ZGNN 050000Z AUTO 00000KT 7SM 14/09 RMK SLP254 T01360091 52016 IEM_DS3505
ZGNN,1995-12-05 01:00,ZGNN 050100Z AUTO 00000KT 5SM 13/09 A3033 RMK T01300090 IEM_DS3505
ZGNN,1995-12-05 03:00,ZGNN 050300Z AUTO 07004KT 7SM 15/08 A3033 RMK SLP263 T01470076 52009 IEM_DS3505
ZGNN,1995-12-05 04:00,ZGNN 050400Z AUTO 33008KT 4SM 16/07 A3033 RMK T01600070 IEM_DS3505
ZGNN,1995-12-05 05:00,ZGNN 050500Z AUTO 36006KT 4SM 16/06 A3030 RMK T01600060 IEM_DS3505
ZGNN,1995-12-05 06:00,ZGNN 050600Z AUTO 00000KT 7SM 17/07 A3024 RMK SLP232 T01690068 57030 IEM_DS3505
ZGNN,1995-12-05 07:00,ZGNN 050700Z AUTO 35006KT 7SM 17/07 A3021 RMK T01700070 IEM_DS3505
ZGNN,1995-12-05 08:00,ZGNN 050800Z AUTO 33004KT 6SM 17/06 A3021 RMK T01700060 IEM_DS3505
ZGNN,1995-12-05 09:00,ZGNN 050900Z AUTO 04004KT 9SM 17/07 A3021 RMK SLP225 T01690066 57007 IEM_DS3505
ZGNN,1995-12-05 10:00,ZGNN 051000Z AUTO 36004KT 6SM 16/07 A3024 RMK T01600070 IEM_DS3505
ZGNN,1995-12-05 11:00,ZGNN 051100Z AUTO 35004KT 6SM 15/06 A3024 RMK T01500060 IEM_DS3505
ZGNN,1995-12-05 12:00,ZGNN 051200Z AUTO 04004KT 9SM 15/08 A3030 RMK SLP246 T01540083 52021 IEM_DS3505
ZGNN,1995-12-05 13:00,ZGNN 051300Z AUTO 35002KT 5SM 14/07 A3030 RMK T01400070 IEM_DS3505
ZGNN,1995-12-05 15:00,ZGNN 051500Z AUTO 02002KT 9SM 15/07 A3033 RMK SLP260 T01490069 52014 IEM_DS3505
ZGNN,1995-12-05 18:00,ZGNN 051800Z AUTO 07002KT 9SM 13/06 RMK SLP261 T01340063 52001 IEM_DS3505
ZGNN,1995-12-05 21:00,ZGNN 052100Z AUTO 02002KT 9SM 14/07 A3033 RMK SLP258 T01350066 57003 IEM_DS3505
ZGNN,1995-12-05 22:00,ZGNN 052200Z AUTO 35006KT 7SM 13/04 A3033 RMK T01300040 IEM_DS3505
ZGNN,1995-12-05 23:00,ZGNN 052300Z AUTO 35006KT 7SM 12/05 A3036 RMK T01200050 IEM_DS3505
ZGNN,1995-12-06 00:00,ZGNN 060000Z AUTO 34004KT 7SM 14/05 RMK SLP280 T01350051 52021 IEM_DS3505
ZGNN,1995-12-06 01:00,ZGNN 060100Z AUTO 34008KT 7SM 13/05 A3042 RMK T01300050 IEM_DS3505
ZGNN,1995-12-06 02:00,ZGNN 060200Z AUTO 34006KT 6SM 14/05 A3042 RMK T01400050 IEM_DS3505
ZGNN,1995-12-06 03:00,ZGNN 060300Z AUTO 02002KT 8SM 16/05 A3042 RMK SLP287 T01550046 52008 IEM_DS3505
ZGNN,1995-12-06 05:00,ZGNN 060500Z AUTO 03008KT 7SM 17/04 A3036 RMK T01700040 IEM_DS3505
ZGNN,1995-12-06 06:00,ZGNN 060600Z AUTO 04004KT 12SM 17/04 A3030 RMK SLP253 T01730035 57034 IEM_DS3505
ZGNN,1995-12-06 07:00,ZGNN 060700Z AUTO 01006KT 7SM 18/03 A3027 RMK T01800030 IEM_DS3505
ZGNN,1995-12-06 08:00,ZGNN 060800Z AUTO 36006KT 7SM 18/03 A3024 RMK T01800030 IEM_DS3505
ZGNN,1995-12-06 09:00,ZGNN 060900Z AUTO 07004KT 12SM 18/04 A3024 RMK SLP234 T01790036 57019 IEM_DS3505
ZGNN,1995-12-06 10:00,ZGNN 061000Z AUTO 00000KT 7SM 16/04 A3027 RMK T01600040 IEM_DS3505
ZGNN,1995-12-06 11:00,ZGNN 061100Z AUTO 36004KT 7SM 13/05 A3027 RMK T01300050 IEM_DS3505
ZGNN,1995-12-06 12:00,ZGNN 061200Z AUTO 04002KT 9SM 14/05 A3030 RMK SLP252 T01450046 52018 IEM_DS3505
ZGNN,1995-12-06 13:00,ZGNN 061300Z AUTO 36004KT 7SM 10/06 A3033 RMK T01000060 IEM_DS3505
ZGNN,1995-12-06 15:00,ZGNN 061500Z AUTO 00000KT 9SM 12/06 RMK SLP266 T01150057 52013 IEM_DS3505
ZGNN,1995-12-06 18:00,ZGNN 061800Z AUTO 00000KT 9SM 10/07 RMK SLP267 T01010069 52001 IEM_DS3505
ZGNN,1995-12-06 21:00,ZGNN 062100Z AUTO 00000KT 9SM 09/07 A3033 RMK SLP265 T00920071 57002 IEM_DS3505
ZGNN,1995-12-06 22:00,ZGNN 062200Z AUTO 00000KT 5SM 07/06 A3036 RMK T00700060 IEM_DS3505
ZGNN,1995-12-06 23:00,ZGNN 062300Z AUTO 00000KT 2SM 06/05 A3036 RMK T00600050 IEM_DS3505
ZGNN,1995-12-07 00:00,ZGNN 070000Z AUTO 04002KT 3SM 08/07 A3039 RMK SLP283 T00810066 52017 IEM_DS3505
ZGNN,1995-12-07 01:00,ZGNN 070100Z AUTO 00000KT 2 1/2SM 09/05 A3042 RMK T00900050 IEM_DS3505
ZGNN,1995-12-07 02:00,ZGNN 070200Z AUTO 09004KT 7SM 14/03 A3042 RMK T01400030 IEM_DS3505
ZGNN,1995-12-07 03:00,ZGNN 070300Z AUTO 36002KT 9SM 15/M03 A3042 RMK SLP293 T01501026 52011 IEM_DS3505
ZGNN,1995-12-07 04:00,ZGNN 070400Z AUTO 04010KT 7SM 16/M03 A3039 RMK T01601030 IEM_DS3505
ZGNN,1995-12-07 06:00,ZGNN 070600Z AUTO 04004KT 12SM 18/M02 A3030 RMK SLP252 T01811025 57040 IEM_DS3505
ZGNN,1995-12-07 07:00,ZGNN 070700Z AUTO 34006KT 7SM 18/M03 A3027 RMK T01801030 IEM_DS3505
ZGNN,1995-12-07 08:00,ZGNN 070800Z AUTO 36004KT 7SM 18/M03 A3024 RMK T01801030 IEM_DS3505
ZGNN,1995-12-07 09:00,ZGNN 070900Z AUTO 09002KT 12SM 18/M00 A3024 RMK SLP234 T01851001 57018 IEM_DS3505
ZGNN,1995-12-07 10:00,ZGNN 071000Z AUTO 02004KT 7SM 16/02 A3027 RMK T01600020 IEM_DS3505
ZGNN,1995-12-07 12:00,ZGNN 071200Z AUTO 00000KT 12SM 13/04 A3033 RMK SLP261 T01340036 52025 IEM_DS3505
ZGNN,1995-12-07 13:00,ZGNN 071300Z AUTO 01004KT 7SM 09/05 A3036 RMK T00900050 IEM_DS3505
ZGNN,1995-12-07 15:00,ZGNN 071500Z AUTO 04002KT 12SM 11/05 RMK SLP272 T01110052 52012 IEM_DS3505
ZGNN,1995-12-07 18:00,ZGNN 071800Z AUTO 00000KT 9SM 09/06 RMK SLP261 T00880059 57011 IEM_DS3505
ZGNN,1995-12-07 21:00,ZGNN 072100Z AUTO 04002KT 7SM 08/06 A3030 RMK SLP254 T00770055 57007 IEM_DS3505
ZGNN,1995-12-07 22:00,ZGNN 072200Z AUTO 00000KT 6SM 05/04 A3030 RMK T00500040 IEM_DS3505
ZGNN,1995-12-07 23:00,ZGNN 072300Z AUTO 35006KT 6SM 06/03 A3033 RMK T00600030 IEM_DS3505
ZGNN,1995-12-08 00:00,ZGNN 080000Z AUTO 04002KT 4SM 08/06 A3036 RMK SLP281 T00820060 52026 IEM_DS3505
ZGNN,1995-12-08 01:00,ZGNN 080100Z AUTO 00000KT 7SM 11/04 A3039 RMK T01100040 IEM_DS3505
ZGNN,1995-12-08 02:00,ZGNN 080200Z AUTO 07004KT 7SM 14/03 A3042 RMK T01400030 IEM_DS3505
ZGNN,1995-12-08 03:00,ZGNN 080300Z AUTO 09004KT 8SM 16/00 A3039 RMK SLP283 T01550002 52003 IEM_DS3505
ZGNN,1995-12-08 04:00,ZGNN 080400Z AUTO 06008KT 6SM 17/M01 A3036 RMK T01701010 IEM_DS3505
ZGNN,1995-12-08 05:00,ZGNN 080500Z AUTO 06008KT 7SM 18/M01 A3033 RMK T01801010 IEM_DS3505
ZGNN,1995-12-08 06:00,ZGNN 080600Z AUTO 00000KT 11SM 19/01 A3027 RMK SLP244 T01940012 57038 IEM_DS3505
ZGNN,1995-12-08 07:00,ZGNN 080700Z AUTO 00000KT 7SM 19/M02 A3024 RMK T01901020 IEM_DS3505
ZGNN,1995-12-08 08:00,ZGNN 080800Z AUTO 00000KT 7SM 19/00 A3024 RMK T01900000 IEM_DS3505
ZGNN,1995-12-08 09:00,ZGNN 080900Z AUTO 04002KT 12SM 19/02 A3021 RMK SLP225 T01890021 57019 IEM_DS3505
ZGNN,1995-12-08 10:00,ZGNN 081000Z AUTO 00000KT 7SM 16/05 A3024 RMK T01600050 IEM_DS3505
ZGNN,1995-12-08 11:00,ZGNN 081100Z AUTO 02006KT 7SM 12/05 A3024 RMK T01200050 IEM_DS3505
ZGNN,1995-12-08 12:00,ZGNN 081200Z AUTO 00000KT 12SM 14/02 A3027 RMK SLP243 T01450020 52017 IEM_DS3505
ZGNN,1995-12-08 13:00,ZGNN 081300Z AUTO 00000KT 7SM 10/06 A3027 RMK T01000060 IEM_DS3505
ZGNN,1995-12-08 15:00,ZGNN 081500Z AUTO 00000KT 12SM 12/02 RMK SLP249 T01220019 52006 IEM_DS3505
ZGNN,1995-12-08 18:00,ZGNN 081800Z AUTO 00000KT 9SM 10/05 RMK SLP240 T00950053 57008 IEM_DS3505
ZGNN,1995-12-08 21:00,ZGNN 082100Z AUTO 00000KT 9SM 08/05 A3024 RMK SLP234 T00770052 57007 IEM_DS3505
ZGNN,1995-12-08 23:00,ZGNN 082300Z AUTO 27004KT 1 1/2SM 05/04 A3027 RMK T00500040 IEM_DS3505
ZGNN,1995-12-09 00:00,ZGNN 090000Z AUTO 00000KT 4SM 07/05 A3027 RMK SLP246 T00730050 52012 IEM_DS3505
ZGNN,1995-12-09 01:00,ZGNN 090100Z AUTO 00000KT 1 1/4SM 09/06 A3030 RMK T00900060 IEM_DS3505
ZGNN,1995-12-09 02:00,ZGNN 090200Z AUTO 17004KT 3SM 13/04 A3030 RMK T01300040 IEM_DS3505
ZGNN,1995-12-09 03:00,ZGNN 090300Z AUTO 00000KT 9SM 15/04 A3030 RMK SLP249 T01540036 52003 IEM_DS3505
ZGNN,1995-12-09 04:00,ZGNN 090400Z AUTO 11008KT 7SM 18/01 A3027 RMK T01800010 IEM_DS3505
ZGNN,1995-12-09 05:00,ZGNN 090500Z AUTO 05004KT 7SM 19/02 A3021 RMK T01900020 IEM_DS3505
ZGNN,1995-12-09 06:00,ZGNN 090600Z AUTO 09002KT 12SM 20/02 A3018 RMK SLP210 T02000017 57038 IEM_DS3505
ZGNN,1995-12-09 07:00,ZGNN 090700Z AUTO 12002KT 7SM 21/01 A3015 RMK T02100010 IEM_DS3505
ZGNN,1995-12-09 08:00,ZGNN 090800Z AUTO 00000KT 7SM 21/01 A3012 RMK T02100010 IEM_DS3505
ZGNN,1995-12-09 09:00,ZGNN 090900Z AUTO 00000KT 12SM 21/02 A3012 RMK SLP190 T02060025 57020 IEM_DS3505
ZGNN,1995-12-09 10:00,ZGNN 091000Z AUTO 00000KT 7SM 17/07 A3012 RMK T01700070 IEM_DS3505
ZGNN,1995-12-09 11:00,ZGNN 091100Z AUTO 36004KT 7SM 13/07 A3012 RMK T01300070 IEM_DS3505
ZGNN,1995-12-09 12:00,ZGNN 091200Z AUTO 00000KT 12SM 13/06 A3012 RMK SLP197 T01330059 52006 IEM_DS3505
ZGNN,1995-12-09 13:00,ZGNN 091300Z AUTO 36002KT 7SM 10/06 A3015 RMK T01000060 IEM_DS3505
ZGNN,1995-12-09 14:00,ZGNN 091400Z AUTO 36004KT 7SM 09/06 A3018 RMK T00900060 IEM_DS3505
ZGNN,1995-12-09 15:00,ZGNN 091500Z AUTO 29002KT 9SM 13/06 RMK SLP214 T01310062 52018 IEM_DS3505
ZGNN,1995-12-09 18:00,ZGNN 091800Z AUTO 04002KT 9SM 11/04 RMK SLP205 T01120040 57009 IEM_DS3505
ZGNN,1995-12-09 21:00,ZGNN 092100Z AUTO 00000KT 9SM 09/05 A3012 RMK SLP194 T00930048 IEM_DS3505
ZGNN,1995-12-09 22:00,ZGNN 092200Z AUTO 00000KT 4SM 06/05 A3012 RMK T00600050 IEM_DS3505
ZGNN,1995-12-09 23:00,ZGNN 092300Z AUTO 01002KT 5SM 07/06 A3015 RMK T00700060 IEM_DS3505
ZGNN,1995-12-10 00:00,ZGNN 100000Z AUTO 00000KT 5SM 10/06 A3018 RMK SLP217 T00970055 52022 IEM_DS3505
ZGNN,1995-12-10 01:00,ZGNN 100100Z AUTO 00000KT 4SM 11/07 A3021 RMK T01100070 IEM_DS3505
ZGNN,1995-12-10 02:00,ZGNN 100200Z AUTO 10002KT 4SM 14/08 A3024 RMK T01400080 IEM_DS3505
ZGNN,1995-12-10 03:00,ZGNN 100300Z AUTO 07002KT 10SM 16/06 A3024 RMK SLP225 T01650065 52009 IEM_DS3505
ZGNN,1995-12-10 04:00,ZGNN 100400Z AUTO 00000KT 7SM 19/09 A3021 RMK T01900090 IEM_DS3505
ZGNN,1995-12-10 05:00,ZGNN 100500Z AUTO 14008KT 7SM 21/06 A3015 RMK T02100060 IEM_DS3505
ZGNN,1995-12-10 06:00,ZGNN 100600Z AUTO 07004KT 9SM 22/06 A3012 RMK T02150058 57034 IEM_DS3505
ZGNN,1995-12-10 07:00,ZGNN 100700Z AUTO 20008KT 7SM 22/07 A3009 RMK T02200070 IEM_DS3505
ZGNN,1995-12-10 08:00,ZGNN 100800Z AUTO 16006KT 7SM 22/08 A3006 RMK T02200080 IEM_DS3505
ZGNN,1995-12-10 09:00,ZGNN 100900Z AUTO 00000KT 12SM 22/10 A3006 RMK SLP172 T02220095 57018 IEM_DS3505
ZGNN,1995-12-10 10:00,ZGNN 101000Z AUTO 15004KT 7SM 18/10 A3006 RMK T01800100 IEM_DS3505
ZGNN,1995-12-10 11:00,ZGNN 101100Z AUTO 00000KT 7SM 16/11 A3009 RMK T01600110 IEM_DS3505
ZGNN,1995-12-10 12:00,ZGNN 101200Z AUTO 00000KT 11SM 16/11 A3012 RMK SLP188 T01610109 52015 IEM_DS3505
ZGNN,1995-12-10 15:00,ZGNN 101500Z AUTO 04002KT 11SM 15/08 RMK SLP203 T01460080 52015 IEM_DS3505
ZGNN,1995-12-10 18:00,ZGNN 101800Z AUTO 04002KT 9SM 13/08 RMK SLP201 T01260082 57001 IEM_DS3505
ZGNN,1995-12-10 21:00,ZGNN 102100Z AUTO 00000KT 7SM 14/09 A3012 RMK SLP198 T01360093 57003 IEM_DS3505
ZGNN,1995-12-10 22:00,ZGNN 102200Z AUTO 00000KT 7SM 13/12 A3015 RMK T01300120 IEM_DS3505
ZGNN,1995-12-10 23:00,ZGNN 102300Z AUTO 00000KT 5SM 13/12 A3018 RMK T01300120 IEM_DS3505
ZGNN,1995-12-11 00:00,ZGNN 110000Z AUTO 00000KT 7SM 14/10 A3018 RMK SLP213 T01450105 52014 IEM_DS3505
ZGNN,1995-12-11 01:00,ZGNN 110100Z AUTO 00000KT 2SM 15/12 RMK T01500120 IEM_DS3505
ZGNN,1995-12-11 02:00,ZGNN 110200Z AUTO 10006KT 2 1/2SM 16/12 RMK T01600120 IEM_DS3505
ZGNN,1995-12-11 03:00,ZGNN 110300Z AUTO 00000KT 9SM 18/11 RMK SLP224 T01790107 52011 IEM_DS3505
ZGNN,1995-12-11 04:00,ZGNN 110400Z AUTO 00000KT 6SM 20/11 A3018 RMK T02000110 IEM_DS3505
ZGNN,1995-12-11 05:00,ZGNN 110500Z AUTO 12006KT 6SM 21/12 A3015 RMK T02100120 IEM_DS3505
ZGNN,1995-12-11 06:00,ZGNN 110600Z AUTO 16002KT 12SM 22/11 A3012 RMK SLP192 T02160114 57031 IEM_DS3505
ZGNN,1995-12-11 07:00,ZGNN 110700Z AUTO 12004KT 6SM 22/12 A3009 RMK T02200120 IEM_DS3505
ZGNN,1995-12-11 08:00,ZGNN 110800Z AUTO 12004KT 6SM 21/12 A3009 RMK T02100120 IEM_DS3505
ZGNN,1995-12-11 09:00,ZGNN 110900Z AUTO 11002KT 12SM 21/12 A3009 RMK SLP180 T02110123 57012 IEM_DS3505
ZGNN,1995-12-11 10:00,ZGNN 111000Z AUTO 00000KT 6SM 20/12 A3009 RMK T02000120 IEM_DS3505
ZGNN,1995-12-11 11:00,ZGNN 111100Z AUTO 00000KT 5SM 19/13 A3009 RMK T01900130 IEM_DS3505
ZGNN,1995-12-11 12:00,ZGNN 111200Z AUTO 00000KT 9SM 19/13 A3012 RMK SLP190 T01880132 52010 IEM_DS3505
ZGNN,1995-12-11 13:00,ZGNN 111300Z AUTO 00000KT 4SM 18/14 A3015 RMK T01800140 IEM_DS3505
ZGNN,1995-12-11 15:00,ZGNN 111500Z AUTO 00000KT 9SM 18/13 RMK SLP201 T01800130 52011 IEM_DS3505
ZGNN,1995-12-11 18:00,ZGNN 111800Z AUTO 00000KT 9SM 17/13 RMK SLP195 T01700131 57005 IEM_DS3505
ZGNN,1995-12-11 21:00,ZGNN 112100Z AUTO 00000KT 9SM 17/13 A3012 RMK SLP193 T01680129 57002 IEM_DS3505
ZGNN,1995-12-11 22:00,ZGNN 112200Z AUTO 00000KT 4SM 15/12 A3012 RMK T01500120 IEM_DS3505
ZGNN,1995-12-11 23:00,ZGNN 112300Z AUTO 00000KT 3SM 14/12 A3015 RMK T01400120 IEM_DS3505
ZGNN,1995-12-12 00:00,ZGNN 120000Z AUTO 00000KT 7SM 16/13 A3018 RMK SLP210 T01580133 52016 IEM_DS3505
ZGNN,1995-12-12 01:00,ZGNN 120100Z AUTO 00000KT 2 1/2SM 16/13 A3018 RMK T01600130 IEM_DS3505
ZGNN,1995-12-12 02:00,ZGNN 120200Z AUTO 06006KT 3SM 19/12 A3018 RMK T01900120 IEM_DS3505
ZGNN,1995-12-12 03:00,ZGNN 120300Z AUTO 00000KT 7SM 21/13 A3018 RMK SLP209 T02090126 54000 IEM_DS3505
ZGNN,1995-12-12 06:00,ZGNN 120600Z AUTO 00000KT 11SM 24/10 RMK SLP176 T02390104 57033 IEM_DS3505
ZGNN,1995-12-12 07:00,ZGNN 120700Z AUTO 00000KT 7SM 25/10 A3006 RMK T02500100 IEM_DS3505
ZGNN,1995-12-12 08:00,ZGNN 120800Z AUTO 12006KT 7SM 24/10 A3003 RMK T02400100 IEM_DS3505
ZGNN,1995-12-12 09:00,ZGNN 120900Z AUTO 00000KT 11SM 23/11 A3003 RMK SLP160 T02330112 57016 IEM_DS3505
ZGNN,1995-12-12 10:00,ZGNN 121000Z AUTO 09004KT 6SM 21/12 A3003 RMK T02100120 IEM_DS3505
ZGNN,1995-12-12 11:00,ZGNN 121100Z AUTO 02004KT 6SM 18/12 A3006 RMK T01800120 IEM_DS3505
ZGNN,1995-12-12 12:00,ZGNN 121200Z AUTO 04002KT 9SM 18/12 A3006 RMK SLP168 T01790115 52007 IEM_DS3505
ZGNN,1995-12-12 13:00,ZGNN 121300Z AUTO 00000KT 7SM 14/12 A3009 RMK T01400120 IEM_DS3505
ZGNN,1995-12-12 15:00,ZGNN 121500Z AUTO 00000KT 9SM 16/11 RMK SLP177 T01630109 52010 IEM_DS3505
ZGNN,1995-12-12 18:00,ZGNN 121800Z AUTO 00000KT 9SM 15/11 RMK SLP175 T01460106 57002 IEM_DS3505
ZGNN,1995-12-12 21:00,ZGNN 122100Z AUTO 00000KT 9SM 14/10 A3006 RMK SLP172 T01450101 57003 IEM_DS3505
ZGNN,1995-12-12 22:00,ZGNN 122200Z AUTO 00000KT 2SM 13/12 A3006 RMK T01300120 IEM_DS3505
ZGNN,1995-12-12 23:00,ZGNN 122300Z AUTO 00000KT 2SM 13/12 A3009 RMK T01300120 IEM_DS3505
ZGNN,1995-12-13 00:00,ZGNN 130000Z AUTO 00000KT 9SM 15/10 A3012 RMK SLP191 T01470103 52018 IEM_DS3505
ZGNN,1995-12-13 01:00,ZGNN 130100Z AUTO 08004KT 2 1/2SM 16/12 A3015 RMK T01600120 IEM_DS3505
ZGNN,1995-12-13 02:00,ZGNN 130200Z AUTO 15004KT 4SM 18/12 A3015 RMK T01800120 IEM_DS3505
ZGNN,1995-12-13 03:00,ZGNN 130300Z AUTO 00000KT 12SM 21/12 A3015 RMK SLP200 T02060116 52009 IEM_DS3505
ZGNN,1995-12-13 04:00,ZGNN 130400Z AUTO 14006KT 7SM 23/11 A3012 RMK T02300110 IEM_DS3505
ZGNN,1995-12-13 05:00,ZGNN 130500Z AUTO 16008KT 7SM 23/11 A3009 RMK T02300110 IEM_DS3505
ZGNN,1995-12-13 06:00,ZGNN 130600Z AUTO 20002KT 12SM 24/12 A3003 RMK SLP159 T02380115 57040 IEM_DS3505
ZGNN,1995-12-13 07:00,ZGNN 130700Z AUTO 12006KT 7SM 24/11 A3000 RMK T02400110 IEM_DS3505
ZGNN,1995-12-13 08:00,ZGNN 130800Z AUTO 16010KT 7SM 24/11 A2997 RMK T02400110 IEM_DS3505
ZGNN,1995-12-13 09:00,ZGNN 130900Z AUTO 20004KT 12SM 24/10 A2998 RMK SLP139 T02370104 57020 IEM_DS3505
ZGNN,1995-12-13 10:00,ZGNN 131000Z AUTO 16004KT 6SM 20/11 A3000 RMK T02000110 IEM_DS3505
ZGNN,1995-12-13 11:00,ZGNN 131100Z AUTO 00000KT 6SM 18/12 A3000 RMK T01800120 IEM_DS3505
ZGNN,1995-12-13 12:00,ZGNN 131200Z AUTO 22002KT 12SM 20/13 A3003 RMK SLP158 T02000126 52018 IEM_DS3505
ZGNN,1995-12-13 13:00,ZGNN 131300Z AUTO 00000KT 7SM 15/11 A3003 RMK T01500110 IEM_DS3505
ZGNN,1995-12-13 15:00,ZGNN 131500Z AUTO 00000KT 11SM 18/13 RMK SLP163 T01800134 52006 IEM_DS3505
ZGNN,1995-12-13 18:00,ZGNN 131800Z AUTO 00000KT 10SM 17/14 RMK SLP153 T01670143 57010 IEM_DS3505
ZGNN,1995-12-13 21:00,ZGNN 132100Z AUTO 00000KT 7SM 15/14 A3000 RMK SLP147 T01470136 57006 IEM_DS3505
ZGNN,1995-12-13 22:00,ZGNN 132200Z AUTO 36004KT 1 1/2SM 13/13 A3000 RMK T01300130 IEM_DS3505
ZGNN,1995-12-13 23:00,ZGNN 132300Z AUTO 01004KT 2SM 14/13 A3003 RMK T01400130 IEM_DS3505
ZGNN,1995-12-14 00:00,ZGNN 140000Z AUTO 00000KT 7SM 16/14 A3006 RMK SLP174 T01550145 52026 IEM_DS3505
ZGNN,1995-12-14 01:00,ZGNN 140100Z AUTO 03002KT 1 1/2SM 16/15 A3009 RMK T01600150 IEM_DS3505
ZGNN,1995-12-14 02:00,ZGNN 140200Z AUTO 00000KT 2SM 18/16 A3012 RMK T01800160 IEM_DS3505
ZGNN,1995-12-14 03:00,ZGNN 140300Z AUTO 00000KT 9SM 21/16 A3012 RMK SLP186 T02140165 52013 IEM_DS3505
ZGNN,1995-12-14 04:00,ZGNN 140400Z AUTO 19006KT 7SM 24/16 A3009 RMK T02400160 IEM_DS3505
ZGNN,1995-12-14 05:00,ZGNN 140500Z AUTO 17004KT 7SM 25/16 A3006 RMK T02500160 IEM_DS3505
ZGNN,1995-12-14 06:00,ZGNN 140600Z AUTO 00000KT 16SM 24/16 A3000 RMK SLP151 T02420155 57035 IEM_DS3505
ZGNN,1995-12-14 07:00,ZGNN 140700Z AUTO 12006KT 7SM 25/15 A2997 RMK T02500150 IEM_DS3505
ZGNN,1995-12-14 08:00,ZGNN 140800Z AUTO 17004KT 7SM 25/15 A2997 RMK T02500150 IEM_DS3505
ZGNN,1995-12-14 09:00,ZGNN 140900Z AUTO 00000KT 16SM 25/16 A2997 RMK SLP139 T02460160 57012 IEM_DS3505
ZGNN,1995-12-14 10:00,ZGNN 141000Z AUTO 00000KT 7SM 22/17 A2997 RMK T02200170 IEM_DS3505
ZGNN,1995-12-14 11:00,ZGNN 141100Z AUTO 00000KT 7SM 20/17 A3000 RMK T02000170 IEM_DS3505
ZGNN,1995-12-14 12:00,ZGNN 141200Z AUTO 00000KT 12SM 20/16 A3000 RMK SLP153 T02040163 52014 IEM_DS3505
ZGNN,1995-12-14 13:00,ZGNN 141300Z AUTO 00000KT 7SM 18/16 A3003 RMK T01800160 IEM_DS3505
ZGNN,1995-12-14 15:00,ZGNN 141500Z AUTO 00000KT 12SM 19/16 RMK SLP166 T01880163 52013 IEM_DS3505
ZGNN,1995-12-14 18:00,ZGNN 141800Z AUTO 00000KT 11SM 19/17 RMK SLP169 T01910168 52004 IEM_DS3505
ZGNN,1995-12-14 21:00,ZGNN 142100Z AUTO 00000KT 9SM 19/17 A3009 RMK SLP175 T01920171 52006 IEM_DS3505
ZGNN,1995-12-14 22:00,ZGNN 142200Z AUTO 00000KT 3SM 19/18 A3009 RMK T01900180 IEM_DS3505
ZGNN,1995-12-14 23:00,ZGNN 142300Z AUTO 00000KT 2SM 19/18 A3009 RMK T01900180 IEM_DS3505
ZGNN,1995-12-15 00:00,ZGNN 150000Z AUTO 00000KT 5SM 19/17 A3012 RMK SLP188 T01930170 52012 IEM_DS3505
ZGNN,1995-12-15 01:00,ZGNN 150100Z AUTO 00000KT 1SM 19/18 A3015 RMK T01900180 IEM_DS3505
ZGNN,1995-12-15 02:00,ZGNN 150200Z AUTO 07006KT 1SM 20/18 A3015 RMK T02000180 IEM_DS3505
ZGNN,1995-12-15 03:00,ZGNN 150300Z AUTO 00000KT 5SM 21/17 A3015 RMK SLP199 T02110169 52011 IEM_DS3505
ZGNN,1995-12-15 04:00,ZGNN 150400Z AUTO 00000KT 1 1/2SM 21/18 A3012 RMK T02100180 IEM_DS3505
ZGNN,1995-12-15 05:00,ZGNN 150500Z AUTO 00000KT 1 1/4SM 20/19 A3009 RMK T02000190 IEM_DS3505
ZGNN,1995-12-15 06:00,ZGNN 150600Z AUTO 00000KT 4SM 21/18 A3006 RMK SLP168 T02110176 57031 IEM_DS3505
ZGNN,1995-12-15 07:00,ZGNN 150700Z AUTO 00000KT 1SM 20/19 A3003 RMK T02000190 IEM_DS3505
ZGNN,1995-12-15 08:00,ZGNN 150800Z AUTO 25004KT 1SM 20/19 A3003 RMK T02000190 IEM_DS3505
ZGNN,1995-12-15 09:00,ZGNN 150900Z AUTO 00000KT 3SM 20/19 A3003 RMK SLP155 T02030187 57013 IEM_DS3505
ZGNN,1995-12-15 10:00,ZGNN 151000Z AUTO 18004KT 1SM 20/19 A3003 RMK T02000190 IEM_DS3505
ZGNN,1995-12-15 11:00,ZGNN 151100Z AUTO 00000KT 1SM 20/19 A3003 RMK T02000190 IEM_DS3505
ZGNN,1995-12-15 12:00,ZGNN 151200Z AUTO 00000KT 3SM 20/19 A3003 RMK 60001 SLP170 T01970191 52015 IEM_DS3505
ZGNN,1995-12-15 13:00,ZGNN 151300Z AUTO 00000KT 1SM 20/19 A3006 RMK T02000190 IEM_DS3505
ZGNN,1995-12-15 15:00,ZGNN 151500Z AUTO 00000KT 4SM 20/19 RMK SLP175 T01970192 52005 IEM_DS3505
ZGNN,1995-12-15 18:00,ZGNN 151800Z AUTO 00000KT 6SM 20/19 RMK 60002 SLP169 T02020189 57006 IEM_DS3505
ZGNN,1995-12-15 21:00,ZGNN 152100Z AUTO 20002KT 6SM 20/19 A3006 RMK SLP165 T01970187 57004 IEM_DS3505
ZGNN,1995-12-15 22:00,ZGNN 152200Z AUTO 14004KT 7SM 19/18 A3006 RMK T01900180 IEM_DS3505
ZGNN,1995-12-15 23:00,ZGNN 152300Z AUTO 00000KT 7SM 19/18 A3006 RMK T01900180 IEM_DS3505
ZGNN,1995-12-16 00:00,ZGNN 160000Z AUTO 00000KT 9SM 20/18 A3009 RMK 70004 SLP180 T01970184 52015 IEM_DS3505
ZGNN,1995-12-16 01:00,ZGNN 160100Z AUTO 00000KT 7SM 20/19 A3012 RMK T02000190 IEM_DS3505
ZGNN,1995-12-16 02:00,ZGNN 160200Z AUTO 18008KT 7SM 20/19 A3012 RMK T02000190 IEM_DS3505
ZGNN,1995-12-16 03:00,ZGNN 160300Z AUTO 00000KT 9SM 20/19 A3012 RMK SLP190 T02040190 52010 IEM_DS3505
ZGNN,1995-12-16 04:00,ZGNN 160400Z AUTO 17006KT 7SM 22/19 A3009 RMK T02200190 IEM_DS3505
ZGNN,1995-12-16 05:00,ZGNN 160500Z AUTO 18010KT 7SM 23/20 A3006 RMK T02300200 IEM_DS3505
ZGNN,1995-12-16 06:00,ZGNN 160600Z AUTO 00000KT 11SM 22/20 A3003 RMK SLP156 T02210196 57034 IEM_DS3505
ZGNN,1995-12-16 07:00,ZGNN 160700Z AUTO 10008KT 7SM 24/20 A3000 RMK T02400200 IEM_DS3505
ZGNN,1995-12-16 08:00,ZGNN 160800Z AUTO 14008KT 7SM 23/20 A3000 RMK T02300200 IEM_DS3505
ZGNN,1995-12-16 09:00,ZGNN 160900Z AUTO 00000KT 11SM 22/20 A3000 RMK SLP148 T02160196 57008 IEM_DS3505
ZGNN,1995-12-16 10:00,ZGNN 161000Z AUTO 12008KT 7SM 21/19 A3000 RMK T02100190 IEM_DS3505
ZGNN,1995-12-16 11:00,ZGNN 161100Z AUTO 13006KT 7SM 21/19 A3003 RMK T02100190 IEM_DS3505
ZGNN,1995-12-16 12:00,ZGNN 161200Z AUTO 00000KT 9SM 20/20 A3006 RMK SLP167 T02050199 52019 IEM_DS3505
ZGNN,1995-12-16 13:00,ZGNN 161300Z AUTO 13006KT 7SM 21/20 A3006 RMK T02100200 IEM_DS3505
ZGNN,1995-12-16 14:00,ZGNN 161400Z AUTO 08006KT 7SM 21/20 A3009 RMK T02100200 IEM_DS3505
ZGNN,1995-12-16 15:00,ZGNN 161500Z AUTO 07006KT 7SM 19/18 RMK SLP182 T01930177 52015 IEM_DS3505
ZGNN,1995-12-16 18:00,ZGNN 161800Z AUTO 07004KT 7SM 16/13 RMK SLP184 T01610134 52002 IEM_DS3505
ZGNN,1995-12-16 21:00,ZGNN 162100Z AUTO 07006KT 7SM 14/11 A3012 RMK SLP190 T01390111 52005 IEM_DS3505
ZGNN,1995-12-16 22:00,ZGNN 162200Z AUTO 07006KT 2 1/2SM 14/13 A3012 RMK T01400130 IEM_DS3505
ZGNN,1995-12-16 23:00,ZGNN 162300Z AUTO 06006KT 2 1/2SM 13/12 A3015 RMK T01300120 IEM_DS3505
ZGNN,1995-12-17 00:00,ZGNN 170000Z AUTO 07004KT 7SM 13/10 A3021 RMK SLP217 T01310098 52027 IEM_DS3505
ZGNN,1995-12-17 01:00,ZGNN 170100Z AUTO 06010KT 3SM 12/11 A3024 RMK T01200110 IEM_DS3505
ZGNN,1995-12-17 02:00,ZGNN 170200Z AUTO 05008KT 7SM 13/11 A3027 RMK T01300110 IEM_DS3505
ZGNN,1995-12-17 03:00,ZGNN 170300Z AUTO 07004KT 7SM 13/09 A3027 RMK SLP245 T01310087 52027 IEM_DS3505
ZGNN,1995-12-17 04:00,ZGNN 170400Z AUTO 05006KT 7SM 13/10 A3027 RMK T01300100 IEM_DS3505
ZGNN,1995-12-17 05:00,ZGNN 170500Z AUTO 05004KT 7SM 13/11 A3024 RMK T01300110 IEM_DS3505
ZGNN,1995-12-17 06:00,ZGNN 170600Z AUTO 09004KT 12SM 14/08 RMK SLP221 T01370083 57024 IEM_DS3505
ZGNN,1995-12-17 07:00,ZGNN 170700Z AUTO 07006KT 7SM 14/11 A3018 RMK T01400110 IEM_DS3505
ZGNN,1995-12-17 08:00,ZGNN 170800Z AUTO 06008KT 7SM 14/10 A3018 RMK T01400100 IEM_DS3505
ZGNN,1995-12-17 09:00,ZGNN 170900Z AUTO 07006KT 12SM 13/08 A3018 RMK SLP212 T01330081 57009 IEM_DS3505
ZGNN,1995-12-17 10:00,ZGNN 171000Z AUTO 03006KT 7SM 13/10 A3018 RMK T01300100 IEM_DS3505
ZGNN,1995-12-17 11:00,ZGNN 171100Z AUTO 04008KT 7SM 12/11 A3021 RMK T01200110 IEM_DS3505
ZGNN,1995-12-17 12:00,ZGNN 171200Z AUTO 07004KT 12SM 12/07 A3024 RMK SLP232 T01250074 52019 IEM_DS3505
ZGNN,1995-12-17 13:00,ZGNN 171300Z AUTO 07004KT 7SM 12/09 A3027 RMK T01200090 IEM_DS3505
ZGNN,1995-12-17 15:00,ZGNN 171500Z AUTO 07004KT 11SM 12/07 RMK SLP254 T01170069 52022 IEM_DS3505
ZGNN,1995-12-17 18:00,ZGNN 171800Z AUTO 04004KT 11SM 11/08 RMK SLP258 T01130076 52004 IEM_DS3505
ZGNN,1995-12-17 21:00,ZGNN 172100Z AUTO 04004KT 7SM 10/08 A3030 RMK SLP261 T00970085 52003 IEM_DS3505
ZGNN,1995-12-17 22:00,ZGNN 172200Z AUTO 02008KT 7SM 09/08 A3030 RMK T00900080 IEM_DS3505
ZGNN,1995-12-18 00:00,ZGNN 180000Z AUTO 32004KT 7SM 10/08 A3036 RMK 60008 70008 SLP268 T00970078 52006 IEM_DS3505
ZGNN,1995-12-18 01:00,ZGNN 180100Z AUTO 02008KT 7SM 10/08 A3036 RMK T01000080 IEM_DS3505
ZGNN,1995-12-18 02:00,ZGNN 180200Z AUTO 01004KT 7SM 11/08 A3039 RMK T01100080 IEM_DS3505
ZGNN,1995-12-18 03:00,ZGNN 180300Z AUTO 04006KT 9SM 11/08 A3036 RMK SLP276 T01100081 52008 IEM_DS3505
ZGNN,1995-12-18 04:00,ZGNN 180400Z AUTO 02006KT 7SM 12/08 A3033 RMK T01200080 IEM_DS3505
ZGNN,1995-12-18 05:00,ZGNN 180500Z AUTO 02004KT 7SM 12/09 A3030 RMK T01200090 IEM_DS3505
ZGNN,1995-12-18 06:00,ZGNN 180600Z AUTO 34004KT 12SM 13/08 A3027 RMK SLP244 T01290078 57031 IEM_DS3505
ZGNN,1995-12-18 07:00,ZGNN 180700Z AUTO 01008KT 7SM 13/09 A3024 RMK T01300090 IEM_DS3505
ZGNN,1995-12-18 08:00,ZGNN 180800Z AUTO 02008KT 7SM 13/09 A3024 RMK T01300090 IEM_DS3505
ZGNN,1995-12-18 09:00,ZGNN 180900Z AUTO 04004KT 9SM 13/07 A3024 RMK SLP232 T01300068 57012 IEM_DS3505
ZGNN,1995-12-18 10:00,ZGNN 181000Z AUTO 00000KT 7SM 12/09 A3024 RMK T01200090 IEM_DS3505
ZGNN,1995-12-18 11:00,ZGNN 181100Z AUTO 07004KT 7SM 12/08 A3027 RMK T01200080 IEM_DS3505
ZGNN,1995-12-18 12:00,ZGNN 181200Z AUTO 07004KT 12SM 12/06 A3027 RMK SLP246 T01200055 52014 IEM_DS3505
ZGNN,1995-12-18 13:00,ZGNN 181300Z AUTO 06006KT 7SM 12/08 A3030 RMK T01200080 IEM_DS3505
ZGNN,1995-12-18 14:00,ZGNN 181400Z AUTO 06004KT 7SM 12/08 A3030 RMK T01200080 IEM_DS3505
ZGNN,1995-12-18 15:00,ZGNN 181500Z AUTO 04002KT 12SM 12/06 RMK SLP258 T01200055 52012 IEM_DS3505
ZGNN,1995-12-18 18:00,ZGNN 181800Z AUTO 02002KT 9SM 12/06 RMK SLP258 T01210064 54000 IEM_DS3505
ZGNN,1995-12-18 21:00,ZGNN 182100Z AUTO 09002KT 9SM 12/06 A3030 RMK SLP252 T01170059 57006 IEM_DS3505
ZGNN,1995-12-18 22:00,ZGNN 182200Z AUTO 06004KT 7SM 11/09 A3030 RMK T01100090 IEM_DS3505
ZGNN,1995-12-18 23:00,ZGNN 182300Z AUTO 00000KT 7SM 11/09 A3033 RMK T01100090 IEM_DS3505
ZGNN,1995-12-19 00:00,ZGNN 190000Z AUTO 07002KT 9SM 11/05 A3036 RMK SLP268 T01100051 52016 IEM_DS3505
ZGNN,1995-12-19 01:00,ZGNN 190100Z AUTO 07004KT 7SM 11/08 A3039 RMK T01100080 IEM_DS3505
ZGNN,1995-12-19 03:00,ZGNN 190300Z AUTO 02004KT 11SM 13/06 A3039 RMK SLP279 T01270056 52011 IEM_DS3505
ZGNN,1995-12-19 04:00,ZGNN 190400Z AUTO 00000KT 7SM 13/08 A3036 RMK T01300080 IEM_DS3505
ZGNN,1995-12-19 05:00,ZGNN 190500Z AUTO 00000KT 7SM 13/08 A3033 RMK T01300080 IEM_DS3505
ZGNN,1995-12-19 06:00,ZGNN 190600Z AUTO 09006KT 8SM 16/10 A3027 RMK SLP221 T01550099 57035 IEM_DS3505
ZGNN,1995-12-19 07:00,ZGNN 190700Z AUTO 04006KT 7SM 13/09 A3027 RMK T01300090 IEM_DS3505
ZGNN,1995-12-19 08:00,ZGNN 190800Z AUTO 02008KT 7SM 13/09 A3024 RMK T01300090 IEM_DS3505
ZGNN,1995-12-19 09:00,ZGNN 190900Z AUTO 36004KT 12SM 14/06 RMK SLP232 T01390062 57015 IEM_DS3505
ZGNN,1995-12-19 10:00,ZGNN 191000Z AUTO 00000KT 7SM 13/09 A3024 RMK T01300090 IEM_DS3505
ZGNN,1995-12-19 11:00,ZGNN 191100Z AUTO 06004KT 7SM 13/09 A3027 RMK T01300090 IEM_DS3505
ZGNN,1995-12-19 12:00,ZGNN 191200Z AUTO 07004KT 11SM 13/06 A3030 RMK SLP247 T01290059 52015 IEM_DS3505
ZGNN,1995-12-19 13:00,ZGNN 191300Z AUTO 07004KT 7SM 12/08 A3030 RMK T01200080 IEM_DS3505
ZGNN,1995-12-19 14:00,ZGNN 191400Z AUTO 07004KT 7SM 12/08 A3030 RMK T01200080 IEM_DS3505
ZGNN,1995-12-19 15:00,ZGNN 191500Z AUTO 14002KT 11SM 12/06 A3033 RMK SLP260 T01250061 52013 IEM_DS3505
ZGNN,1995-12-19 18:00,ZGNN 191800Z AUTO 04006KT 11SM 12/07 RMK SLP267 T01220068 52007 IEM_DS3505
ZGNN,1995-12-19 21:00,ZGNN 192100Z AUTO 00000KT 11SM 12/07 A3033 RMK SLP263 T01170073 57004 IEM_DS3505
ZGNN,1995-12-19 22:00,ZGNN 192200Z AUTO 00000KT 7SM 11/09 A3033 RMK T01100090 IEM_DS3505
ZGNN,1995-12-19 23:00,ZGNN 192300Z AUTO 35004KT 7SM 11/08 A3036 RMK T01100080 IEM_DS3505
ZGNN,1995-12-20 00:00,ZGNN 200000Z AUTO 34002KT 7SM 12/07 A3036 RMK SLP277 T01170073 52014 IEM_DS3505
ZGNN,1995-12-20 01:00,ZGNN 200100Z AUTO 35006KT 7SM 11/09 A3039 RMK T01100090 IEM_DS3505
ZGNN,1995-12-20 02:00,ZGNN 200200Z AUTO 35008KT 7SM 11/09 A3042 RMK T01100090 IEM_DS3505
ZGNN,1995-12-20 03:00,ZGNN 200300Z AUTO 04002KT 9SM 12/08 A3042 RMK SLP292 T01230078 52015 IEM_DS3505
ZGNN,1995-12-20 04:00,ZGNN 200400Z AUTO 36006KT 7SM 12/09 A3039 RMK T01200090 IEM_DS3505
ZGNN,1995-12-20 05:00,ZGNN 200500Z AUTO 34006KT 7SM 12/09 A3036 RMK T01200090 IEM_DS3505
ZGNN,1995-12-20 06:00,ZGNN 200600Z AUTO 07004KT 10SM 13/08 A3033 RMK SLP261 T01270078 57031 IEM_DS3505
ZGNN,1995-12-20 07:00,ZGNN 200700Z AUTO 05004KT 7SM 13/10 A3030 RMK T01300100 IEM_DS3505
ZGNN,1995-12-20 08:00,ZGNN 200800Z AUTO 08006KT 7SM 13/10 A3030 RMK T01300100 IEM_DS3505
ZGNN,1995-12-20 09:00,ZGNN 200900Z AUTO 07002KT 11SM 13/08 A3027 RMK SLP247 T01320079 57014 IEM_DS3505
ZGNN,1995-12-20 10:00,ZGNN 201000Z AUTO 05004KT 4SM 13/10 A3030 RMK T01300100 IEM_DS3505
ZGNN,1995-12-20 11:00,ZGNN 201100Z AUTO 06004KT 4SM 12/10 A3030 RMK T01200100 IEM_DS3505
ZGNN,1995-12-20 12:00,ZGNN 201200Z AUTO 00000KT 12SM 13/07 A3033 RMK SLP260 T01260072 52013 IEM_DS3505
ZGNN,1995-12-20 13:00,ZGNN 201300Z AUTO 00000KT 7SM 12/09 A3033 RMK T01200090 IEM_DS3505
ZGNN,1995-12-20 15:00,ZGNN 201500Z AUTO 04002KT 12SM 12/06 RMK SLP272 T01240058 52012 IEM_DS3505
ZGNN,1995-12-20 18:00,ZGNN 201800Z AUTO 00000KT 12SM 12/07 RMK SLP266 T01210071 57006 IEM_DS3505
ZGNN,1995-12-20 21:00,ZGNN 202100Z AUTO 00000KT 11SM 12/07 A3030 RMK SLP256 T01200068 57010 IEM_DS3505
ZGNN,1995-12-20 22:00,ZGNN 202200Z AUTO 00000KT 7SM 11/10 A3033 RMK T01100100 IEM_DS3505
ZGNN,1995-12-20 23:00,ZGNN 202300Z AUTO 00000KT 5SM 11/09 A3033 RMK T01100090 IEM_DS3505
ZGNN,1995-12-21 00:00,ZGNN 210000Z AUTO 00000KT 9SM 12/07 A3036 RMK SLP268 T01200068 52012 IEM_DS3505
ZGNN,1995-12-21 01:00,ZGNN 210100Z AUTO 00000KT 7SM 12/08 A3036 RMK T01200080 IEM_DS3505
ZGNN,1995-12-21 02:00,ZGNN 210200Z AUTO 00000KT 7SM 13/08 A3039 RMK T01300080 IEM_DS3505
ZGNN,1995-12-21 03:00,ZGNN 210300Z AUTO 20002KT 9SM 13/07 A3039 RMK SLP286 T01330066 52018 IEM_DS3505
ZGNN,1995-12-21 04:00,ZGNN 210400Z AUTO 00000KT 7SM 13/08 A3039 RMK T01300080 IEM_DS3505
ZGNN,1995-12-21 05:00,ZGNN 210500Z AUTO 00000KT 7SM 14/08 A3033 RMK T01400080 IEM_DS3505
ZGNN,1995-12-21 06:00,ZGNN 210600Z AUTO 07002KT 9SM 15/07 A3030 RMK SLP252 T01460070 57034 IEM_DS3505
ZGNN,1995-12-21 07:00,ZGNN 210700Z AUTO 36006KT 7SM 15/07 A3027 RMK T01500070 IEM_DS3505
ZGNN,1995-12-21 08:00,ZGNN 210800Z AUTO 36004KT 7SM 14/06 A3027 RMK T01400060 IEM_DS3505
ZGNN,1995-12-21 09:00,ZGNN 210900Z AUTO 02002KT 9SM 15/07 A3024 RMK SLP236 T01520071 57015 IEM_DS3505
ZGNN,1995-12-21 10:00,ZGNN 211000Z AUTO 00000KT 7SM 14/07 A3024 RMK T01400070 IEM_DS3505
ZGNN,1995-12-21 11:00,ZGNN 211100Z AUTO 00000KT 7SM 13/08 A3027 RMK T01300080 IEM_DS3505
ZGNN,1995-12-21 12:00,ZGNN 211200Z AUTO 07002KT 9SM 14/07 A3030 RMK SLP249 T01370071 52012 IEM_DS3505
ZGNN,1995-12-21 13:00,ZGNN 211300Z AUTO 00000KT 5SM 13/09 A3030 RMK T01300090 IEM_DS3505
ZGNN,1995-12-21 15:00,ZGNN 211500Z AUTO 00000KT 9SM 13/07 RMK SLP263 T01310071 52014 IEM_DS3505
ZGNN,1995-12-21 18:00,ZGNN 211800Z AUTO 00000KT 9SM 12/07 RMK SLP254 T01240072 57009 IEM_DS3505
ZGNN,1995-12-21 21:00,ZGNN 212100Z AUTO 00000KT 9SM 11/09 A3030 RMK SLP252 T01080086 57002 IEM_DS3505
ZGNN,1995-12-22 00:00,ZGNN 220000Z AUTO 00000KT 7SM 12/08 A3033 RMK SLP264 T01210078 52012 IEM_DS3505
ZGNN,1995-12-22 01:00,ZGNN 220100Z AUTO 00000KT 4SM 12/08 A3036 RMK SLP272 T01200080 IEM_DS3505
ZGNN,1995-12-22 02:00,ZGNN 220200Z AUTO 00000KT 7SM 13/07 A3039 RMK SLP282 T01300070 IEM_DS3505
ZGNN,1995-12-22 03:00,ZGNN 220300Z AUTO 02004KT 11SM 15/07 A3036 RMK SLP276 T01480073 52012 IEM_DS3505
ZGNN,1995-12-22 04:00,ZGNN 220400Z AUTO 34004KT 7SM 16/06 A3036 RMK SLP271 T01600060 IEM_DS3505
ZGNN,1995-12-22 06:00,ZGNN 220600Z AUTO 07002KT 12SM 18/09 A3027 RMK SLP241 T01850092 57034 IEM_DS3505
ZGNN,1995-12-22 07:00,ZGNN 220700Z AUTO 35004KT 7SM 18/07 A3024 RMK SLP229 T01800070 IEM_DS3505
ZGNN,1995-12-22 09:00,ZGNN 220900Z AUTO 36004KT 12SM 18/09 A3022 RMK SLP224 T01840086 57017 IEM_DS3505
ZGNN,1995-12-22 10:00,ZGNN 221000Z AUTO 33004KT 7SM 17/08 A3021 RMK SLP219 T01700080 IEM_DS3505
ZGNN,1995-12-22 11:00,ZGNN 221100Z AUTO 00000KT 7SM 16/09 A3024 RMK SLP230 T01600090 IEM_DS3505
ZGNN,1995-12-22 12:00,ZGNN 221200Z AUTO 04002KT 11SM 16/09 A3026 RMK SLP238 T01600086 52014 IEM_DS3505
ZGNN,1995-12-22 13:00,ZGNN 221300Z AUTO 36004KT 7SM 14/10 A3027 RMK SLP241 T01400100 IEM_DS3505
ZGNN,1995-12-22 15:00,ZGNN 221500Z AUTO 00000KT 11SM 14/08 A3029 RMK SLP246 T01400082 52008 IEM_DS3505
ZGNN,1995-12-22 18:00,ZGNN 221800Z AUTO 00000KT 10SM 13/08 A3028 RMK SLP243 T01290085 57003 IEM_DS3505
ZGNN,1995-12-22 21:00,ZGNN 222100Z AUTO 00000KT 9SM 13/09 A3027 RMK SLP235 T01300093 57008 IEM_DS3505
ZGNN,1995-12-22 22:00,ZGNN 222200Z AUTO 00000KT 3SM 11/09 A3027 RMK SLP242 T01100090 IEM_DS3505
ZGNN,1995-12-22 23:00,ZGNN 222300Z AUTO 00000KT 4SM 11/10 A3027 RMK SLP242 T01100100 IEM_DS3505
ZGNN,1995-12-23 00:00,ZGNN 230000Z AUTO 00000KT 9SM 13/10 A3030 RMK SLP248 T01340099 52013 IEM_DS3505
ZGNN,1995-12-23 01:00,ZGNN 230100Z AUTO 17004KT 4SM 13/09 A3033 RMK SLP262 T01300090 IEM_DS3505
ZGNN,1995-12-23 02:00,ZGNN 230200Z AUTO 34006KT 5SM 16/08 A3033 RMK SLP261 T01600080 IEM_DS3505
ZGNN,1995-12-23 03:00,ZGNN 230300Z AUTO 00000KT 11SM 17/08 A3033 RMK SLP258 T01680077 52010 IEM_DS3505
ZGNN,1995-12-23 04:00,ZGNN 230400Z AUTO 27004KT 6SM 18/07 A3030 RMK SLP250 T01800070 IEM_DS3505
ZGNN,1995-12-23 05:00,ZGNN 230500Z AUTO 34004KT 6SM 18/07 A3027 RMK SLP240 T01800070 IEM_DS3505
ZGNN,1995-12-23 06:00,ZGNN 230600Z AUTO 00000KT 12SM 20/08 A3022 RMK SLP223 T02020084 57034 IEM_DS3505
ZGNN,1995-12-23 07:00,ZGNN 230700Z AUTO 31004KT 7SM 21/08 A3018 RMK SLP208 T02100080 IEM_DS3505
ZGNN,1995-12-23 09:00,ZGNN 230900Z AUTO 02004KT 12SM 21/08 A3018 RMK SLP211 T02070083 57012 IEM_DS3505
ZGNN,1995-12-23 10:00,ZGNN 231000Z AUTO 01002KT 6SM 19/09 A3021 RMK SLP219 T01900090 IEM_DS3505
ZGNN,1995-12-23 11:00,ZGNN 231100Z AUTO 36004KT 6SM 16/10 A3021 RMK SLP220 T01600100 IEM_DS3505
ZGNN,1995-12-23 12:00,ZGNN 231200Z AUTO 34004KT 12SM 18/07 A3027 RMK SLP236 T01770069 52024 IEM_DS3505
ZGNN,1995-12-23 13:00,ZGNN 231300Z AUTO 34004KT 6SM 15/08 A3027 RMK SLP241 T01500080 IEM_DS3505
ZGNN,1995-12-23 15:00,ZGNN 231500Z AUTO 00000KT 12SM 16/08 A3031 RMK SLP253 T01550082 52017 IEM_DS3505
ZGNN,1995-12-23 18:00,ZGNN 231800Z AUTO 00000KT 11SM 14/09 A3030 RMK SLP251 T01350087 57002 IEM_DS3505
ZGNN,1995-12-23 21:00,ZGNN 232100Z AUTO 09002KT 10SM 12/10 A3030 RMK SLP251 T01240097 54000 IEM_DS3505
ZGNN,1995-12-23 22:00,ZGNN 232200Z AUTO 00000KT 6SM 09/08 A3030 RMK SLP253 T00900080 IEM_DS3505
ZGNN,1995-12-23 23:00,ZGNN 232300Z AUTO 00000KT 5SM 09/09 A3033 RMK SLP263 T00900090 IEM_DS3505
ZGNN,1995-12-24 00:00,ZGNN 240000Z AUTO 00000KT 7SM 12/10 A3036 RMK SLP266 T01250104 52015 IEM_DS3505
ZGNN,1995-12-24 01:00,ZGNN 240100Z AUTO 00000KT 3SM 12/09 A3036 RMK SLP272 T01200090 IEM_DS3505
ZGNN,1995-12-24 02:00,ZGNN 240200Z AUTO 01006KT 6SM 15/05 A3039 RMK SLP281 T01500050 IEM_DS3505
ZGNN,1995-12-24 03:00,ZGNN 240300Z AUTO 02004KT 9SM 16/06 A3039 RMK SLP276 T01640059 52010 IEM_DS3505
ZGNN,1995-12-24 04:00,ZGNN 240400Z AUTO 33006KT 6SM 18/05 A3036 RMK SLP270 T01800050 IEM_DS3505
ZGNN,1995-12-24 05:00,ZGNN 240500Z AUTO 34008KT 7SM 19/05 A3030 RMK SLP250 T01900050 IEM_DS3505
ZGNN,1995-12-24 06:00,ZGNN 240600Z AUTO 00000KT 19SM 21/05 A3027 RMK SLP242 T02060052 57033 IEM_DS3505
ZGNN,1995-12-24 07:00,ZGNN 240700Z AUTO 33010KT 7SM 20/06 A3027 RMK SLP240 T02000060 IEM_DS3505
ZGNN,1995-12-24 08:00,ZGNN 240800Z AUTO 02004KT 7SM 21/06 A3024 RMK SLP228 T02100060 IEM_DS3505
ZGNN,1995-12-24 09:00,ZGNN 240900Z AUTO 00000KT 19SM 20/06 A3024 RMK SLP232 T02050059 57011 IEM_DS3505
ZGNN,1995-12-24 10:00,ZGNN 241000Z AUTO 07006KT 7SM 18/08 A3027 RMK SLP240 T01800080 IEM_DS3505
ZGNN,1995-12-24 11:00,ZGNN 241100Z AUTO 01004KT 7SM 16/07 A3030 RMK SLP251 T01600070 IEM_DS3505
ZGNN,1995-12-24 12:00,ZGNN 241200Z AUTO 00000KT 12SM 16/08 A3033 RMK SLP260 T01560085 52027 IEM_DS3505
ZGNN,1995-12-24 13:00,ZGNN 241300Z AUTO 00000KT 7SM 15/09 A3033 RMK SLP261 T01500090 IEM_DS3505
ZGNN,1995-12-24 15:00,ZGNN 241500Z AUTO 07002KT 12SM 16/09 A3036 RMK SLP270 T01590091 52011 IEM_DS3505
ZGNN,1995-12-24 18:00,ZGNN 241800Z AUTO 00000KT 11SM 13/10 A3035 RMK SLP268 T01310098 57002 IEM_DS3505
ZGNN,1995-12-24 21:00,ZGNN 242100Z AUTO 00000KT 9SM 12/09 A3033 RMK SLP261 T01180092 57007 IEM_DS3505
ZGNN,1995-12-24 22:00,ZGNN 242200Z AUTO 00000KT 7SM 08/07 A3036 RMK SLP274 T00800070 IEM_DS3505
ZGNN,1995-12-24 23:00,ZGNN 242300Z AUTO 00000KT 4SM 08/07 A3036 RMK SLP274 T00800070 IEM_DS3505
ZGNN,1995-12-25 00:00,ZGNN 250000Z AUTO 00000KT 7SM 10/08 A3042 RMK SLP289 T01010078 52027 IEM_DS3505
ZGNN,1995-12-25 01:00,ZGNN 250100Z AUTO 00000KT 4SM 10/07 A3042 RMK SLP293 T01000070 IEM_DS3505
ZGNN,1995-12-25 02:00,ZGNN 250200Z AUTO 00000KT 4SM 13/06 A3045 RMK SLP302 T01300060 IEM_DS3505
ZGNN,1995-12-25 03:00,ZGNN 250300Z AUTO 02002KT 7SM 16/05 A3045 RMK SLP299 T01550046 52011 IEM_DS3505
ZGNN,1995-12-25 04:00,ZGNN 250400Z AUTO 01006KT 6SM 17/04 A3042 RMK SLP291 T01700040 IEM_DS3505
ZGNN,1995-12-25 05:00,ZGNN 250500Z AUTO 34008KT 6SM 18/04 A3039 RMK SLP280 T01800040 IEM_DS3505
ZGNN,1995-12-25 06:00,ZGNN 250600Z AUTO 00000KT 7SM 19/04 A3033 RMK SLP262 T01940041 57037 IEM_DS3505
ZGNN,1995-12-25 07:00,ZGNN 250700Z AUTO 00000KT 6SM 20/05 A3030 RMK SLP250 T02000050 IEM_DS3505
ZGNN,1995-12-25 08:00,ZGNN 250800Z AUTO 06010KT 6SM 20/04 A3030 RMK SLP250 T02000040 IEM_DS3505
ZGNN,1995-12-25 09:00,ZGNN 250900Z AUTO 07004KT 7SM 20/05 A3030 RMK SLP249 T01950052 57013 IEM_DS3505
ZGNN,1995-12-25 10:00,ZGNN 251000Z AUTO 05004KT 6SM 17/06 A3030 RMK SLP251 T01700060 IEM_DS3505
ZGNN,1995-12-25 11:00,ZGNN 251100Z AUTO 36006KT 6SM 15/06 A3033 RMK SLP261 T01500060 IEM_DS3505
ZGNN,1995-12-25 12:00,ZGNN 251200Z AUTO 07002KT 7SM 16/04 A3036 RMK SLP271 T01550040 52021 IEM_DS3505
ZGNN,1995-12-25 13:00,ZGNN 251300Z AUTO 00000KT 5SM 12/07 A3039 RMK SLP282 T01200070 IEM_DS3505
ZGNN,1995-12-25 15:00,ZGNN 251500Z AUTO 07004KT 9SM 14/03 A3041 RMK SLP290 T01430029 52019 IEM_DS3505
ZGNN,1995-12-25 18:00,ZGNN 251800Z AUTO 07002KT 7SM 14/14 A3040 RMK SLP284 T01410141 57005 IEM_DS3505
ZGNN,1995-12-25 21:00,ZGNN 252100Z AUTO 07002KT 7SM 13/03 A3039 RMK SLP282 T01330032 57002 IEM_DS3505
ZGNN,1995-12-25 22:00,ZGNN 252200Z AUTO 00000KT 6SM 12/05 A3042 RMK SLP292 T01200050 IEM_DS3505
ZGNN,1995-12-25 23:00,ZGNN 252300Z AUTO 03004KT 5SM 12/03 A3045 RMK SLP303 T01200030 IEM_DS3505
ZGNN,1995-12-26 00:00,ZGNN 260000Z AUTO 07004KT 9SM 13/00 A3047 RMK SLP306 T01260003 52023 IEM_DS3505
ZGNN,1995-12-26 01:00,ZGNN 260100Z AUTO 06004KT 6SM 12/01 A3047 RMK SLP310 T01200010 IEM_DS3505
ZGNN,1995-12-26 02:00,ZGNN 260200Z AUTO 06006KT 6SM 13/01 A3050 RMK SLP319 T01300010 IEM_DS3505
ZGNN,1995-12-26 03:00,ZGNN 260300Z AUTO 09002KT 9SM 14/01 A3050 RMK SLP319 T01370006 52013 IEM_DS3505
ZGNN,1995-12-26 04:00,ZGNN 260400Z AUTO 04008KT 6SM 15/00 A3045 RMK SLP302 T01500000 IEM_DS3505
ZGNN,1995-12-26 05:00,ZGNN 260500Z AUTO 04006KT 6SM 16/01 A3042 RMK SLP291 T01600010 IEM_DS3505
ZGNN,1995-12-26 06:00,ZGNN 260600Z AUTO 09004KT 11SM 18/03 A3036 RMK SLP276 T01750026 57042 IEM_DS3505
ZGNN,1995-12-26 07:00,ZGNN 260700Z AUTO 34006KT 7SM 17/01 A3033 RMK SLP261 T01700010 IEM_DS3505
ZGNN,1995-12-26 08:00,ZGNN 260800Z AUTO 35006KT 7SM 17/02 A3030 RMK SLP251 T01700020 IEM_DS3505
ZGNN,1995-12-26 09:00,ZGNN 260900Z AUTO 09002KT 11SM 18/02 A3030 RMK SLP256 T01750023 57020 IEM_DS3505
ZGNN,1995-12-26 10:00,ZGNN 261000Z AUTO 04004KT 7SM 16/03 A3033 RMK SLP261 T01600030 IEM_DS3505
ZGNN,1995-12-26 11:00,ZGNN 261100Z AUTO 00000KT 7SM 14/01 A3033 RMK SLP262 T01400010 IEM_DS3505
ZGNN,1995-12-26 12:00,ZGNN 261200Z AUTO 07002KT 9SM 14/04 A3036 RMK SLP273 T01370038 52016 IEM_DS3505
ZGNN,1995-12-26 13:00,ZGNN 261300Z AUTO 35004KT 7SM 10/03 A3039 RMK SLP283 T01000030 IEM_DS3505
ZGNN,1995-12-26 15:00,ZGNN 261500Z AUTO 04002KT 9SM 12/03 A3041 RMK SLP289 T01170033 52016 IEM_DS3505
ZGNN,1995-12-26 18:00,ZGNN 261800Z AUTO 00000KT 9SM 10/04 A3039 RMK SLP282 T00950040 57007 IEM_DS3505
ZGNN,1995-12-26 21:00,ZGNN 262100Z AUTO 07002KT 9SM 10/02 A3039 RMK SLP282 T00990017 54000 IEM_DS3505
ZGNN,1995-12-26 22:00,ZGNN 262200Z AUTO 00000KT 5SM 08/04 A3039 RMK SLP284 T00800040 IEM_DS3505
ZGNN,1995-12-26 23:00,ZGNN 262300Z AUTO 00000KT 4SM 09/05 A3042 RMK SLP293 T00900050 IEM_DS3505
ZGNN,1995-12-27 00:00,ZGNN 270000Z AUTO 04002KT 9SM 11/01 A3045 RMK SLP301 T01140011 52019 IEM_DS3505
ZGNN,1995-12-27 01:00,ZGNN 270100Z AUTO 00000KT 4SM 10/05 A3047 RMK SLP310 T01000050 IEM_DS3505
ZGNN,1995-12-27 02:00,ZGNN 270200Z AUTO 07004KT 6SM 12/M01 A3050 RMK SLP320 T01201010 IEM_DS3505
ZGNN,1995-12-27 03:00,ZGNN 270300Z AUTO 04002KT 9SM 13/02 A3050 RMK SLP318 T01340024 52016 IEM_DS3505
ZGNN,1995-12-27 04:00,ZGNN 270400Z AUTO 36004KT 7SM 15/M01 A3047 RMK SLP309 T01501010 IEM_DS3505
ZGNN,1995-12-27 05:00,ZGNN 270500Z AUTO 32006KT 6SM 16/M01 A3042 RMK SLP291 T01601010 IEM_DS3505
ZGNN,1995-12-27 06:00,ZGNN 270600Z AUTO 02006KT 9SM 17/02 A3039 RMK SLP281 T01690022 57036 IEM_DS3505
ZGNN,1995-12-27 07:00,ZGNN 270700Z AUTO 00000KT 5SM 17/00 A3036 RMK SLP271 T01700000 IEM_DS3505
ZGNN,1995-12-27 08:00,ZGNN 270800Z AUTO 35004KT 7SM 17/01 A3036 RMK SLP271 T01700010 IEM_DS3505
ZGNN,1995-12-27 09:00,ZGNN 270900Z AUTO 34004KT 11SM 18/ A3036 RMK SLP267 57014 IEM_DS3505
ZGNN,1995-12-27 10:00,ZGNN 271000Z AUTO 00000KT 7SM 16/03 A3036 RMK SLP271 T01600030 IEM_DS3505
ZGNN,1995-12-27 11:00,ZGNN 271100Z AUTO 04004KT 7SM 12/07 A3039 RMK SLP282 T01200070 IEM_DS3505
ZGNN,1995-12-27 12:00,ZGNN 271200Z AUTO 00000KT 11SM 14/03 A3042 RMK SLP291 T01350029 52024 IEM_DS3505
ZGNN,1995-12-27 13:00,ZGNN 271300Z AUTO 36004KT 7SM 09/05 A3045 RMK SLP303 T00900050 IEM_DS3505
ZGNN,1995-12-27 15:00,ZGNN 271500Z AUTO 00000KT 9SM 12/03 A3047 RMK SLP309 T01190027 52018 IEM_DS3505
ZGNN,1995-12-27 18:00,ZGNN 271800Z AUTO 00000KT 9SM 09/04 A3046 RMK SLP306 T00890041 57003 IEM_DS3505
ZGNN,1995-12-27 21:00,ZGNN 272100Z AUTO 00000KT 7SM 08/05 A3045 RMK SLP308 T00800053 52002 IEM_DS3505
ZGNN,1995-12-27 22:00,ZGNN 272200Z AUTO 00000KT 5SM 06/03 A3047 RMK SLP312 T00600030 IEM_DS3505
ZGNN,1995-12-27 23:00,ZGNN 272300Z AUTO 00000KT 5SM 05/03 A3047 RMK SLP312 T00500030 IEM_DS3505
ZGNN,1995-12-28 00:00,ZGNN 280000Z AUTO 00000KT 5SM 07/05 A3047 RMK SLP317 T00730048 52008 IEM_DS3505
ZGNN,1995-12-28 01:00,ZGNN 280100Z AUTO 00000KT 5SM 10/03 A3050 RMK SLP320 T01000030 IEM_DS3505
ZGNN,1995-12-28 02:00,ZGNN 280200Z AUTO 36004KT 7SM 12/00 A3053 RMK SLP330 T01200000 IEM_DS3505
ZGNN,1995-12-28 03:00,ZGNN 280300Z AUTO 29004KT 7SM 14/02 A3050 RMK SLP319 T01390025 52003 IEM_DS3505
ZGNN,1995-12-28 04:00,ZGNN 280400Z AUTO 01008KT 7SM 15/M01 A3047 RMK SLP309 T01501010 IEM_DS3505
ZGNN,1995-12-28 05:00,ZGNN 280500Z AUTO 03006KT 7SM 15/00 A3042 RMK SLP291 T01500000 IEM_DS3505
ZGNN,1995-12-28 06:00,ZGNN 280600Z AUTO 00000KT 11SM 17/03 A3038 RMK SLP278 T01690029 57041 IEM_DS3505
ZGNN,1995-12-28 07:00,ZGNN 280700Z AUTO 04010KT 7SM 17/00 A3033 RMK SLP261 T01700000 IEM_DS3505
ZGNN,1995-12-28 08:00,ZGNN 280800Z AUTO 36004KT 7SM 17/00 A3033 RMK SLP261 T01700000 IEM_DS3505
ZGNN,1995-12-28 09:00,ZGNN 280900Z AUTO 07006KT 11SM 17/03 A3033 RMK SLP261 T01740031 57017 IEM_DS3505
ZGNN,1995-12-28 10:00,ZGNN 281000Z AUTO 00000KT 7SM 16/03 A3033 RMK SLP261 T01600030 IEM_DS3505
ZGNN,1995-12-28 11:00,ZGNN 281100Z AUTO 00000KT 7SM 13/04 A3036 RMK SLP272 T01300040 IEM_DS3505
ZGNN,1995-12-28 12:00,ZGNN 281200Z AUTO 07002KT 9SM 13/04 A3039 RMK SLP281 T01310040 52019 IEM_DS3505
ZGNN,1995-12-28 13:00,ZGNN 281300Z AUTO 00000KT 7SM 10/05 A3039 RMK SLP283 T01000050 IEM_DS3505
ZGNN,1995-12-28 15:00,ZGNN 281500Z AUTO 00000KT 9SM 10/05 A3041 RMK SLP289 T01010050 52009 IEM_DS3505
ZGNN,1995-12-28 18:00,ZGNN 281800Z AUTO 00000KT 7SM 08/06 A3039 RMK SLP283 T00800058 57006 IEM_DS3505
ZGNN,1995-12-28 21:00,ZGNN 282100Z AUTO 00000KT 7SM 07/05 A3036 RMK SLP275 T00700049 57008 IEM_DS3505
ZGNN,1995-12-28 23:00,ZGNN 282300Z AUTO 00000KT 3SM 04/03 A3036 RMK SLP275 T00400030 IEM_DS3505
ZGNN,1995-12-29 00:00,ZGNN 290000Z AUTO 00000KT 4SM 06/05 A3039 RMK SLP281 T00630049 52005 IEM_DS3505
ZGNN,1995-12-29 01:00,ZGNN 290100Z AUTO 00000KT 1 1/2SM 08/05 A3039 RMK SLP284 T00800050 IEM_DS3505
ZGNN,1995-12-29 02:00,ZGNN 290200Z AUTO 00000KT 2 1/2SM 11/06 A3042 RMK SLP293 T01100060 IEM_DS3505
ZGNN,1995-12-29 03:00,ZGNN 290300Z AUTO 00000KT 7SM 15/03 A3042 RMK SLP287 T01510034 52007 IEM_DS3505
ZGNN,1995-12-29 04:00,ZGNN 290400Z AUTO 35006KT 7SM 16/M01 A3036 RMK SLP271 T01601010 IEM_DS3505
ZGNN,1995-12-29 05:00,ZGNN 290500Z AUTO 35006KT 7SM 17/M03 A3033 RMK SLP261 T01701030 IEM_DS3505
ZGNN,1995-12-29 06:00,ZGNN 290600Z AUTO 04002KT 11SM 19/01 A3027 RMK SLP245 T01930010 57042 IEM_DS3505
ZGNN,1995-12-29 07:00,ZGNN 290700Z AUTO 06004KT 7SM 19/M03 A3024 RMK SLP229 T01901030 IEM_DS3505
ZGNN,1995-12-29 09:00,ZGNN 290900Z AUTO 07002KT 11SM 20/01 A3021 RMK SLP224 T01970007 57020 IEM_DS3505
ZGNN,1995-12-29 10:00,ZGNN 291000Z AUTO 00000KT 7SM 17/M01 A3024 RMK SLP229 T01701010 IEM_DS3505
ZGNN,1995-12-29 11:00,ZGNN 291100Z AUTO 36004KT 7SM 12/02 A3024 RMK SLP231 T01200020 IEM_DS3505
ZGNN,1995-12-29 12:00,ZGNN 291200Z AUTO 00000KT 11SM 12/03 A3027 RMK SLP238 T01180029 52012 IEM_DS3505
ZGNN,1995-12-29 13:00,ZGNN 291300Z AUTO 00000KT 7SM 08/03 A3027 RMK SLP243 T00800030 IEM_DS3505
ZGNN,1995-12-29 15:00,ZGNN 291500Z AUTO 00000KT 9SM 10/04 A3028 RMK SLP246 T00960036 52009 IEM_DS3505
ZGNN,1995-12-29 18:00,ZGNN 291800Z AUTO 00000KT 9SM 07/05 A3028 RMK SLP246 T00710048 54000 IEM_DS3505
ZGNN,1995-12-29 21:00,ZGNN 292100Z AUTO 00000KT 9SM 06/04 A3024 RMK SLP236 T00620041 57010 IEM_DS3505
ZGNN,1995-12-29 22:00,ZGNN 292200Z AUTO 00000KT 5SM 02/01 A3024 RMK SLP234 T00200010 IEM_DS3505
ZGNN,1995-12-29 23:00,ZGNN 292300Z AUTO 00000KT 2 1/2SM 02/01 A3027 RMK SLP245 T00200010 IEM_DS3505
ZGNN,1995-12-30 00:00,ZGNN 300000Z AUTO 00000KT 4SM 05/04 A3030 RMK SLP252 T00530036 52015 IEM_DS3505
ZGNN,1995-12-30 01:00,ZGNN 300100Z AUTO 00000KT 4SM 06/03 A3033 RMK SLP264 T00600030 IEM_DS3505
ZGNN,1995-12-30 02:00,ZGNN 300200Z AUTO 00000KT 5SM 10/04 A3033 RMK SLP263 T01000040 IEM_DS3505
ZGNN,1995-12-30 03:00,ZGNN 300300Z AUTO 00000KT 7SM 14/02 A3033 RMK SLP259 T01390023 52008 IEM_DS3505
ZGNN,1995-12-30 04:00,ZGNN 300400Z AUTO 26004KT 7SM 18/M04 A3030 RMK SLP250 T01801040 IEM_DS3505
ZGNN,1995-12-30 05:00,ZGNN 300500Z AUTO 00000KT 7SM 19/M03 A3024 RMK SLP229 T01901030 IEM_DS3505
ZGNN,1995-12-30 06:00,ZGNN 300600Z AUTO 00000KT 10SM 20/02 A3021 RMK SLP220 T02000023 57038 IEM_DS3505
ZGNN,1995-12-30 07:00,ZGNN 300700Z AUTO 03006KT 7SM 20/M04 A3018 RMK SLP208 T02001040 IEM_DS3505
ZGNN,1995-12-30 08:00,ZGNN 300800Z AUTO 33006KT 7SM 20/M03 A3015 RMK SLP198 T02001030 IEM_DS3505
ZGNN,1995-12-30 09:00,ZGNN 300900Z AUTO 00000KT 11SM 20/06 A3015 RMK SLP200 T02030056 57020 IEM_DS3505
ZGNN,1995-12-30 10:00,ZGNN 301000Z AUTO 00000KT 7SM 18/01 A3015 RMK SLP199 T01800010 IEM_DS3505
ZGNN,1995-12-30 11:00,ZGNN 301100Z AUTO 35004KT 7SM 12/03 A3018 RMK SLP211 T01200030 IEM_DS3505
ZGNN,1995-12-30 12:00,ZGNN 301200Z AUTO 00000KT 11SM 12/04 A3021 RMK SLP217 T01190044 52015 IEM_DS3505
ZGNN,1995-12-30 13:00,ZGNN 301300Z AUTO 00000KT 7SM 09/04 A3021 RMK SLP222 T00900040 IEM_DS3505
ZGNN,1995-12-30 15:00,ZGNN 301500Z AUTO 04002KT 9SM 10/04 A3025 RMK SLP236 T01000044 52020 IEM_DS3505
ZGNN,1995-12-30 18:00,ZGNN 301800Z AUTO 00000KT 9SM 08/03 A3024 RMK SLP232 T00760028 57003 IEM_DS3505
ZGNN,1995-12-30 21:00,ZGNN 302100Z AUTO 00000KT 7SM 05/03 A3024 RMK SLP227 T00530029 57006 IEM_DS3505
ZGNN,1995-12-30 22:00,ZGNN 302200Z AUTO 00000KT 7SM 02/01 A3024 RMK SLP234 T00200010 IEM_DS3505
ZGNN,1995-12-30 23:00,ZGNN 302300Z AUTO 00000KT 7SM 02/01 A3027 RMK SLP245 T00200010 IEM_DS3505
