station,valid,metar
ZGNN,2000-01-01 00:00,ZGNN 010000Z AUTO 00000KT 3SM 12/11 A3009 RMK SLP190 T01200112 52020 IEM_DS3505
ZGNN,2000-01-01 02:00,ZGNN 010200Z AUTO 00000KT 1 1/4SM 16/15 A3015 RMK T01600150 IEM_DS3505
ZGNN,2000-01-01 03:00,ZGNN 010300Z AUTO 18004KT 4SM 17/15 A3012 RMK SLP203 T01670150 52013 IEM_DS3505
ZGNN,2000-01-01 04:00,ZGNN 010400Z AUTO 09002KT 3SM 18/15 A3012 RMK T01800150 IEM_DS3505
ZGNN,2000-01-01 06:00,ZGNN 010600Z AUTO 09002KT 7SM 22/16 RMK 60003 SLP161 T02160156 57041 IEM_DS3505
ZGNN,2000-01-01 08:00,ZGNN 010800Z AUTO 00000KT 6SM 24/14 A2997 RMK T02400140 IEM_DS3505
ZGNN,2000-01-01 09:00,ZGNN 010900Z AUTO 16004KT 9SM 24/15 A2997 RMK SLP146 T02370147 57014 IEM_DS3505
ZGNN,2000-01-01 10:00,ZGNN 011000Z AUTO 14004KT 6SM 22/15 A2997 RMK T02200150 IEM_DS3505
ZGNN,2000-01-01 11:00,ZGNN 011100Z AUTO 36004KT 6SM 19/15 A3000 RMK T01900150 IEM_DS3505
ZGNN,2000-01-01 12:00,ZGNN 011200Z AUTO 00000KT 7SM 17/14 A3003 RMK SLP171 T01690143 52023 IEM_DS3505
ZGNN,2000-01-01 15:00,ZGNN 011500Z AUTO 00000KT 7SM 14/13 RMK SLP190 T01400129 52019 IEM_DS3505
ZGNN,2000-01-01 18:00,ZGNN 011800Z AUTO 00000KT 6SM 12/12 RMK SLP189 T01250116 54000 IEM_DS3505
ZGNN,2000-01-01 21:00,ZGNN 012100Z AUTO 00000KT 5SM 12/12 RMK 70003 SLP178 T01220118 57010 IEM_DS3505
ZGNN,2000-01-01 22:00,ZGNN 012200Z AUTO 00000KT 2 1/2SM 12/12 A3009 RMK T01200120 IEM_DS3505
ZGNN,2000-01-01 23:00,ZGNN 012300Z AUTO 00000KT 2 1/2SM 11/11 A3009 RMK T01100110 IEM_DS3505
ZGNN,2000-01-02 00:00,ZGNN 020000Z AUTO 00000KT 1 1/4SM 11/11 A3012 RMK SLP203 T01140110 52022 IEM_DS3505
ZGNN,2000-01-02 01:00,ZGNN 020100Z AUTO 00000KT 1SM 13/13 A3015 RMK T01300130 IEM_DS3505
ZGNN,2000-01-02 02:00,ZGNN 020200Z AUTO 00000KT 1 1/2SM 17/14 A3018 RMK T01700140 IEM_DS3505
ZGNN,2000-01-02 03:00,ZGNN 020300Z AUTO 00000KT 5SM 20/16 A3018 RMK SLP214 T02030155 52013 IEM_DS3505
ZGNN,2000-01-02 04:00,ZGNN 020400Z AUTO 00000KT 6SM 23/15 A3015 RMK T02300150 IEM_DS3505
ZGNN,2000-01-02 05:00,ZGNN 020500Z AUTO 05004KT 6SM 24/14 A3009 RMK T02400140 IEM_DS3505
ZGNN,2000-01-02 06:00,ZGNN 020600Z AUTO 09004KT 7SM 24/13 A3006 RMK SLP174 T02450131 57039 IEM_DS3505
ZGNN,2000-01-02 07:00,ZGNN 020700Z AUTO 34004KT 7SM 25/13 A3003 RMK T02500130 IEM_DS3505
ZGNN,2000-01-02 08:00,ZGNN 020800Z AUTO 00000KT 6SM 25/12 A3000 RMK T02500120 IEM_DS3505
ZGNN,2000-01-02 09:00,ZGNN 020900Z AUTO 34004KT 7SM 25/13 A3000 RMK SLP157 T02460126 57017 IEM_DS3505
ZGNN,2000-01-02 10:00,ZGNN 021000Z AUTO 00000KT 6SM 23/14 A3000 RMK T02300140 IEM_DS3505
ZGNN,2000-01-02 11:00,ZGNN 021100Z AUTO 00000KT 7SM 17/14 A3000 RMK SLP162 T01720137 54000 IEM_DS3505
ZGNN,2000-01-02 12:00,ZGNN 021200Z AUTO 00000KT 7SM 17/14 A3000 RMK SLP162 T01720137 52003 IEM_DS3505
ZGNN,2000-01-02 13:00,ZGNN 021300Z AUTO 00000KT 6SM 18/14 A3003 RMK T01800140 IEM_DS3505
ZGNN,2000-01-02 15:00,ZGNN 021500Z AUTO 00000KT 7SM 14/12 RMK SLP171 T01390124 52010 IEM_DS3505
ZGNN,2000-01-02 18:00,ZGNN 021800Z AUTO 00000KT 7SM 13/12 RMK SLP159 T01260117 57011 IEM_DS3505
ZGNN,2000-01-02 21:00,ZGNN 022100Z AUTO 00000KT 7SM 12/11 RMK SLP158 T01150111 57001 IEM_DS3505
ZGNN,2000-01-02 22:00,ZGNN 022200Z AUTO 00000KT 1SM 12/12 A3000 RMK T01200120 IEM_DS3505
ZGNN,2000-01-02 23:00,ZGNN 022300Z AUTO 00000KT 1SM 12/11 A3003 RMK T01200110 IEM_DS3505
ZGNN,2000-01-03 00:00,ZGNN 030000Z AUTO 00000KT 1 1/4SM 11/10 A3003 RMK SLP173 T01070103 52013 IEM_DS3505
ZGNN,2000-01-03 01:00,ZGNN 030100Z AUTO 00000KT 1SM 14/13 A3006 RMK T01400130 IEM_DS3505
ZGNN,2000-01-03 02:00,ZGNN 030200Z AUTO 00000KT 2SM 17/14 A3009 RMK T01700140 IEM_DS3505
ZGNN,2000-01-03 03:00,ZGNN 030300Z AUTO 00000KT 5SM 20/14 A3006 RMK SLP181 T01990135 52009 IEM_DS3505
ZGNN,2000-01-03 04:00,ZGNN 030400Z AUTO 18006KT 6SM 24/10 A3003 RMK T02400100 IEM_DS3505
ZGNN,2000-01-03 05:00,ZGNN 030500Z AUTO 17008KT 6SM 25/09 A3000 RMK T02500090 IEM_DS3505
ZGNN,2000-01-03 06:00,ZGNN 030600Z AUTO 16010KT 12SM 26/10 A2997 RMK SLP143 T02560096 57036 IEM_DS3505
ZGNN,2000-01-03 07:00,ZGNN 030700Z AUTO 17012KT 6SM 26/09 A2994 RMK T02600090 IEM_DS3505
ZGNN,2000-01-03 08:00,ZGNN 030800Z AUTO 16014KT 6SM 26/09 A2991 RMK T02600090 IEM_DS3505
ZGNN,2000-01-03 09:00,ZGNN 030900Z AUTO 16008KT 12SM 25/10 A2991 RMK SLP125 T02460098 57018 IEM_DS3505
ZGNN,2000-01-03 10:00,ZGNN 031000Z AUTO 14010KT 6SM 22/10 A2991 RMK T02200100 IEM_DS3505
ZGNN,2000-01-03 11:00,ZGNN 031100Z AUTO 15008KT 6SM 20/10 A2991 RMK T02000100 IEM_DS3505
ZGNN,2000-01-03 12:00,ZGNN 031200Z AUTO 18008KT 11SM 20/14 A2994 RMK SLP139 T02040139 52012 IEM_DS3505
ZGNN,2000-01-03 13:00,ZGNN 031300Z AUTO 17008KT 6SM 19/16 A2997 RMK T01900160 IEM_DS3505
ZGNN,2000-01-03 15:00,ZGNN 031500Z AUTO 22002KT 10SM 18/15 RMK SLP151 T01770152 52014 IEM_DS3505
ZGNN,2000-01-03 18:00,ZGNN 031800Z AUTO 00000KT 9SM 18/16 RMK SLP142 T01780160 57008 IEM_DS3505
ZGNN,2000-01-03 21:00,ZGNN 032100Z AUTO 14002KT 9SM 18/16 RMK SLP134 T01780165 57008 IEM_DS3505
ZGNN,2000-01-03 22:00,ZGNN 032200Z AUTO 00000KT 3SM 18/17 A2994 RMK T01800170 IEM_DS3505
ZGNN,2000-01-03 23:00,ZGNN 032300Z AUTO 00000KT 3SM 17/17 A2994 RMK T01700170 IEM_DS3505
ZGNN,2000-01-04 00:00,ZGNN 040000Z AUTO 00000KT 5SM 18/17 A2997 RMK SLP141 T01800167 52006 IEM_DS3505
ZGNN,2000-01-04 01:00,ZGNN 040100Z AUTO 14006KT 4SM 18/17 A2997 RMK T01800170 IEM_DS3505
ZGNN,2000-01-04 02:00,ZGNN 040200Z AUTO 15006KT 4SM 19/17 A3000 RMK T01900170 IEM_DS3505
ZGNN,2000-01-04 03:00,ZGNN 040300Z AUTO 18006KT 5SM 19/17 A3000 RMK SLP155 T01920172 52013 IEM_DS3505
ZGNN,2000-01-04 04:00,ZGNN 040400Z AUTO 14012KT 6SM 21/17 A2997 RMK T02100170 IEM_DS3505
ZGNN,2000-01-04 05:00,ZGNN 040500Z AUTO 17006KT 7SM 23/17 A2994 RMK T02300170 IEM_DS3505
ZGNN,2000-01-04 06:00,ZGNN 040600Z AUTO 16004KT 6SM 22/17 A2991 RMK SLP123 T02160171 57031 IEM_DS3505
ZGNN,2000-01-04 07:00,ZGNN 040700Z AUTO 14006KT 7SM 23/17 A2988 RMK T02300170 IEM_DS3505
ZGNN,2000-01-04 08:00,ZGNN 040800Z AUTO 14008KT 7SM 24/17 A2985 RMK T02400170 IEM_DS3505
ZGNN,2000-01-04 09:00,ZGNN 040900Z AUTO 14006KT 7SM 23/17 A2985 RMK T02300170 IEM_DS3505
ZGNN,2000-01-04 10:00,ZGNN 041000Z AUTO 16012KT 7SM 22/17 A2985 RMK T02200170 IEM_DS3505
ZGNN,2000-01-04 11:00,ZGNN 041100Z AUTO 15014KT 7SM 21/17 A2985 RMK T02100170 IEM_DS3505
ZGNN,2000-01-04 12:00,ZGNN 041200Z AUTO 16008KT 7SM 20/17 A2988 RMK SLP124 T02040168 52020 IEM_DS3505
ZGNN,2000-01-04 13:00,ZGNN 041300Z AUTO 14006KT 7SM 19/17 A2991 RMK T01900170 IEM_DS3505
ZGNN,2000-01-04 15:00,ZGNN 041500Z AUTO 00000KT 7SM 18/17 RMK SLP138 T01810166 52014 IEM_DS3505
ZGNN,2000-01-04 18:00,ZGNN 041800Z AUTO 14006KT 7SM 18/17 RMK SLP142 T01830170 52004 IEM_DS3505
ZGNN,2000-01-04 21:00,ZGNN 042100Z AUTO 00000KT 7SM 19/17 RMK SLP125 T01870174 57016 IEM_DS3505
ZGNN,2000-01-04 22:00,ZGNN 042200Z AUTO 15004KT 4SM 18/18 A2991 RMK T01800180 IEM_DS3505
ZGNN,2000-01-04 23:00,ZGNN 042300Z AUTO 16004KT 4SM 18/17 A2991 RMK T01800170 IEM_DS3505
ZGNN,2000-01-05 00:00,ZGNN 050000Z AUTO 18004KT 3SM 19/18 A2994 RMK SLP134 T01890178 52008 IEM_DS3505
ZGNN,2000-01-05 01:00,ZGNN 050100Z AUTO 13004KT 5SM 20/18 A2994 RMK T02000180 IEM_DS3505
ZGNN,2000-01-05 02:00,ZGNN 050200Z AUTO 14006KT 6SM 21/18 A2997 RMK T02100180 IEM_DS3505
ZGNN,2000-01-05 03:00,ZGNN 050300Z AUTO 18004KT 7SM 22/18 RMK SLP144 T02170179 52010 IEM_DS3505
ZGNN,2000-01-05 04:00,ZGNN 050400Z AUTO 16008KT 7SM 25/18 A2994 RMK T02500180 IEM_DS3505
ZGNN,2000-01-05 05:00,ZGNN 050500Z AUTO 15008KT 7SM 24/17 A2988 RMK T02400170 IEM_DS3505
ZGNN,2000-01-05 06:00,ZGNN 050600Z AUTO 16006KT 12SM 25/17 A2985 RMK SLP105 T02480172 57037 IEM_DS3505
ZGNN,2000-01-05 07:00,ZGNN 050700Z AUTO 14008KT 7SM 27/17 A2983 RMK T02700170 IEM_DS3505
ZGNN,2000-01-05 08:00,ZGNN 050800Z AUTO 14010KT 7SM 26/18 A2980 RMK T02600180 IEM_DS3505
ZGNN,2000-01-05 09:00,ZGNN 050900Z AUTO 14004KT 12SM 25/18 A2980 RMK SLP088 T02480182 57017 IEM_DS3505
ZGNN,2000-01-05 10:00,ZGNN 051000Z AUTO 13008KT 6SM 23/18 A2980 RMK T02300180 IEM_DS3505
ZGNN,2000-01-05 11:00,ZGNN 051100Z AUTO 15008KT 6SM 21/18 A2983 RMK T02100180 IEM_DS3505
ZGNN,2000-01-05 12:00,ZGNN 051200Z AUTO 22004KT 12SM 20/18 A2985 RMK SLP107 T02040177 52018 IEM_DS3505
ZGNN,2000-01-05 13:00,ZGNN 051300Z AUTO 16004KT 6SM 19/18 A2988 RMK T01900180 IEM_DS3505
ZGNN,2000-01-05 14:00,ZGNN 051400Z AUTO 17002KT 6SM 18/17 A2988 RMK T01800170 IEM_DS3505
ZGNN,2000-01-05 15:00,ZGNN 051500Z AUTO 00000KT 11SM 18/16 RMK SLP122 T01770165 52014 IEM_DS3505
ZGNN,2000-01-05 21:00,ZGNN 052100Z AUTO 00000KT 7SM 18/17 RMK SLP119 T01750172 57002 IEM_DS3505
ZGNN,2000-01-05 22:00,ZGNN 052200Z AUTO 14002KT 4SM 18/18 A2988 RMK T01800180 IEM_DS3505
ZGNN,2000-01-06 01:00,ZGNN 060100Z AUTO 13002KT 4SM 19/18 A2997 RMK T01900180 IEM_DS3505
ZGNN,2000-01-06 02:00,ZGNN 060200Z AUTO 15006KT 5SM 20/18 A2997 RMK T02000180 IEM_DS3505
ZGNN,2000-01-06 03:00,ZGNN 060300Z AUTO 14006KT 6SM 21/18 A3000 RMK SLP153 T02080181 52017 IEM_DS3505
ZGNN,2000-01-06 04:00,ZGNN 060400Z AUTO 15004KT 7SM 23/18 A2997 RMK T02300180 IEM_DS3505
ZGNN,2000-01-06 05:00,ZGNN 060500Z AUTO 15008KT 7SM 24/18 A2994 RMK T02400180 IEM_DS3505
ZGNN,2000-01-06 06:00,ZGNN 060600Z AUTO 11002KT 9SM 25/17 A2988 RMK SLP120 T02490173 57032 IEM_DS3505
ZGNN,2000-01-06 07:00,ZGNN 060700Z AUTO 15004KT 7SM 26/17 A2988 RMK T02600170 IEM_DS3505
ZGNN,2000-01-06 08:00,ZGNN 060800Z AUTO 10006KT 7SM 27/16 A2985 RMK T02700160 IEM_DS3505
ZGNN,2000-01-06 09:00,ZGNN 060900Z AUTO 11002KT 11SM 25/17 A2985 RMK SLP111 T02520169 57009 IEM_DS3505
ZGNN,2000-01-06 10:00,ZGNN 061000Z AUTO 07004KT 7SM 24/17 A2988 RMK T02400170 IEM_DS3505
ZGNN,2000-01-06 11:00,ZGNN 061100Z AUTO 11004KT 6SM 22/17 A2988 RMK T02200170 IEM_DS3505
ZGNN,2000-01-06 12:00,ZGNN 061200Z AUTO 00000KT 11SM 20/17 A2991 RMK SLP132 T01950167 52020 IEM_DS3505
ZGNN,2000-01-06 13:00,ZGNN 061300Z AUTO 00000KT 6SM 19/18 A2994 RMK T01900180 IEM_DS3505
ZGNN,2000-01-06 14:00,ZGNN 061400Z AUTO 00000KT 6SM 18/17 A2997 RMK T01800170 IEM_DS3505
ZGNN,2000-01-06 15:00,ZGNN 061500Z AUTO 00000KT 9SM 18/17 A3000 RMK SLP154 T01780168 52022 IEM_DS3505
ZGNN,2000-01-06 21:00,ZGNN 062100Z AUTO 09004KT 9SM 16/10 RMK SLP163 T01590105 57001 IEM_DS3505
ZGNN,2000-01-06 22:00,ZGNN 062200Z AUTO 04004KT 7SM 16/11 A3003 RMK T01600110 IEM_DS3505
ZGNN,2000-01-06 23:00,ZGNN 062300Z AUTO 04004KT 7SM 15/10 A3006 RMK T01500100 IEM_DS3505
ZGNN,2000-01-07 00:00,ZGNN 070000Z AUTO 00000KT 5SM 15/10 A3006 RMK SLP178 T01480100 52013 IEM_DS3505
ZGNN,2000-01-07 01:00,ZGNN 070100Z AUTO 09008KT 7SM 15/09 A3006 RMK T01500090 IEM_DS3505
ZGNN,2000-01-07 02:00,ZGNN 070200Z AUTO 12004KT 7SM 15/09 A3009 RMK T01500090 IEM_DS3505
ZGNN,2000-01-07 03:00,ZGNN 070300Z AUTO 04004KT 6SM 16/10 A3009 RMK SLP192 T01600097 52014 IEM_DS3505
ZGNN,2000-01-07 04:00,ZGNN 070400Z AUTO 06004KT 17/10 A3009 RMK T01700100 IEM_DS3505
ZGNN,2000-01-07 05:00,ZGNN 070500Z AUTO 04006KT 5SM 18/10 A3003 RMK T01800100 IEM_DS3505
ZGNN,2000-01-07 06:00,ZGNN 070600Z AUTO 14006KT 7SM 18/10 A3000 RMK SLP157 T01800100 57034 IEM_DS3505
ZGNN,2000-01-07 07:00,ZGNN 070700Z AUTO 05010KT 5SM 19/10 A2997 RMK T01900100 IEM_DS3505
ZGNN,2000-01-07 08:00,ZGNN 070800Z AUTO 08008KT 5SM 19/10 A2997 RMK T01900100 IEM_DS3505
ZGNN,2000-01-07 09:00,ZGNN 070900Z AUTO 14006KT 9SM 18/10 A2994 RMK SLP142 T01820100 57015 IEM_DS3505
ZGNN,2000-01-07 10:00,ZGNN 071000Z AUTO 07008KT 17/10 A2997 RMK T01700100 IEM_DS3505
ZGNN,2000-01-07 12:00,ZGNN 071200Z AUTO 16002KT 9SM 17/10 RMK SLP154 T01660100 52011 IEM_DS3505
ZGNN,2000-01-07 13:00,ZGNN 071300Z AUTO 08006KT 4SM 16/11 A3000 RMK T01600110 IEM_DS3505
ZGNN,2000-01-07 14:00,ZGNN 071400Z AUTO 07006KT 4SM 16/11 A3000 RMK T01600110 IEM_DS3505
ZGNN,2000-01-07 15:00,ZGNN 071500Z AUTO 14004KT 9SM 16/10 RMK SLP162 T01640102 52008 IEM_DS3505
ZGNN,2000-01-07 18:00,ZGNN 071800Z AUTO 07002KT 7SM 16/12 RMK 60003 SLP155 T01620118 57006 IEM_DS3505
ZGNN,2000-01-07 21:00,ZGNN 072100Z AUTO 09002KT 7SM 16/15 RMK 70000 SLP136 T01560146 57019 IEM_DS3505
ZGNN,2000-01-07 22:00,ZGNN 072200Z AUTO 15010KT 1 1/4SM 17/17 A2991 RMK T01700170 IEM_DS3505
ZGNN,2000-01-07 23:00,ZGNN 072300Z AUTO 17008KT 1 1/4SM 17/17 A2991 RMK T01700170 IEM_DS3505
ZGNN,2000-01-08 00:00,ZGNN 080000Z AUTO 18002KT 2SM 18/17 A2994 RMK 60000 SLP139 T01760171 52003 IEM_DS3505
ZGNN,2000-01-08 01:00,ZGNN 080100Z AUTO 00000KT 1 1/4SM 18/17 A2997 RMK T01800170 IEM_DS3505
ZGNN,2000-01-08 02:00,ZGNN 080200Z AUTO 14008KT 7SM 19/18 A2997 RMK T01900180 IEM_DS3505
ZGNN,2000-01-08 03:00,ZGNN 080300Z AUTO 16006KT 7SM 19/18 A2997 RMK SLP149 T01910176 52010 IEM_DS3505
ZGNN,2000-01-08 04:00,ZGNN 080400Z AUTO 15012KT 7SM 20/17 A2997 RMK T02000170 IEM_DS3505
ZGNN,2000-01-08 05:00,ZGNN 080500Z AUTO 15012KT 7SM 20/17 A2991 RMK T02000170 IEM_DS3505
ZGNN,2000-01-08 06:00,ZGNN 080600Z AUTO 18008KT 9SM 20/18 A2988 RMK 60000 SLP113 T02040177 57035 IEM_DS3505
ZGNN,2000-01-08 07:00,ZGNN 080700Z AUTO 14014KT 7SM 21/18 A2985 RMK T02100180 IEM_DS3505
ZGNN,2000-01-08 08:00,ZGNN 080800Z AUTO 14014KT 7SM 21/18 A2983 RMK T02100180 IEM_DS3505
ZGNN,2000-01-08 09:00,ZGNN 080900Z AUTO 16008KT 9SM 21/18 A2983 RMK SLP102 T02080178 57011 IEM_DS3505
ZGNN,2000-01-08 10:00,ZGNN 081000Z AUTO 16008KT 7SM 20/18 A2985 RMK T02000180 IEM_DS3505
ZGNN,2000-01-08 11:00,ZGNN 081100Z AUTO 15010KT 7SM 20/18 A2985 RMK T02000180 IEM_DS3505
ZGNN,2000-01-08 12:00,ZGNN 081200Z AUTO 18006KT 12SM 20/18 A2988 RMK SLP117 T01990180 52015 IEM_DS3505
ZGNN,2000-01-08 13:00,ZGNN 081300Z AUTO 17004KT 7SM 20/18 A2991 RMK T02000180 IEM_DS3505
ZGNN,2000-01-08 14:00,ZGNN 081400Z AUTO 15008KT 7SM 20/18 A2991 RMK T02000180 IEM_DS3505
ZGNN,2000-01-08 15:00,ZGNN 081500Z AUTO 16004KT 12SM 20/18 A2994 RMK SLP136 T01990180 52019 IEM_DS3505
ZGNN,2000-01-08 16:00,ZGNN 081600Z AUTO 15006KT 7SM 20/18 A2994 RMK T02000180 IEM_DS3505
ZGNN,2000-01-08 18:00,ZGNN 081800Z AUTO 16004KT 12SM 20/18 RMK SLP135 T01960180 57001 IEM_DS3505
ZGNN,2000-01-08 21:00,ZGNN 082100Z AUTO 00000KT 9SM 19/18 RMK 70001 SLP124 T01920178 57010 IEM_DS3505
ZGNN,2000-01-08 22:00,ZGNN 082200Z AUTO 00000KT 5SM 19/18 A2991 RMK T01900180 IEM_DS3505
ZGNN,2000-01-08 23:00,ZGNN 082300Z AUTO 00000KT 5SM 19/18 A2994 RMK T01900180 IEM_DS3505
ZGNN,2000-01-09 00:00,ZGNN 090000Z AUTO 14002KT 4SM 19/18 A2997 RMK SLP137 T01920179 52012 IEM_DS3505
ZGNN,2000-01-09 01:00,ZGNN 090100Z AUTO 12006KT 4SM 19/18 A2997 RMK T01900180 IEM_DS3505
ZGNN,2000-01-09 02:00,ZGNN 090200Z AUTO 16006KT 5SM 20/19 A3000 RMK T02000190 IEM_DS3505
ZGNN,2000-01-09 03:00,ZGNN 090300Z AUTO 16006KT 5SM 21/18 A3000 RMK SLP159 T02090182 52022 IEM_DS3505
ZGNN,2000-01-09 04:00,ZGNN 090400Z AUTO 15010KT 7SM 23/18 A3000 RMK T02300180 IEM_DS3505
ZGNN,2000-01-09 05:00,ZGNN 090500Z AUTO 12008KT 7SM 24/18 A2994 RMK T02400180 IEM_DS3505
ZGNN,2000-01-09 07:00,ZGNN 090700Z AUTO 12008KT 7SM 25/18 A2985 RMK T02500180 IEM_DS3505
ZGNN,2000-01-09 08:00,ZGNN 090800Z AUTO 13008KT 7SM 26/18 A2983 RMK T02600180 IEM_DS3505
ZGNN,2000-01-09 09:00,ZGNN 090900Z AUTO 14008KT 16SM 25/18 A2983 RMK SLP102 T02520176 57017 IEM_DS3505
ZGNN,2000-01-09 10:00,ZGNN 091000Z AUTO 15006KT 7SM 23/18 A2985 RMK T02300180 IEM_DS3505
ZGNN,2000-01-09 11:00,ZGNN 091100Z AUTO 11008KT 7SM 21/18 A2988 RMK T02100180 IEM_DS3505
ZGNN,2000-01-09 12:00,ZGNN 091200Z AUTO 14002KT 12SM 21/18 A2991 RMK SLP123 T02120177 52020 IEM_DS3505
ZGNN,2000-01-09 13:00,ZGNN 091300Z AUTO 13008KT 7SM 20/18 A2994 RMK T02000180 IEM_DS3505
ZGNN,2000-01-09 15:00,ZGNN 091500Z AUTO 00000KT 11SM 20/18 RMK SLP136 T01980179 52013 IEM_DS3505
ZGNN,2000-01-09 18:00,ZGNN 091800Z AUTO 22004KT 11SM 20/18 RMK SLP138 T02010180 52002 IEM_DS3505
ZGNN,2000-01-09 21:00,ZGNN 092100Z AUTO 00000KT 9SM 20/19 RMK SLP124 T01960186 57013 IEM_DS3505
ZGNN,2000-01-09 22:00,ZGNN 092200Z AUTO 10004KT 7SM 20/19 A2991 RMK T02000190 IEM_DS3505
ZGNN,2000-01-09 23:00,ZGNN 092300Z AUTO 11004KT 7SM 20/19 A2991 RMK T02000190 IEM_DS3505
ZGNN,2000-01-10 00:00,ZGNN 100000Z AUTO 14004KT 4SM 20/19 A2994 RMK SLP138 T01950187 52012 IEM_DS3505
ZGNN,2000-01-10 01:00,ZGNN 100100Z AUTO 14004KT 7SM 20/19 A2997 RMK T02000190 IEM_DS3505
ZGNN,2000-01-10 02:00,ZGNN 100200Z AUTO 13008KT 7SM 21/19 A3000 RMK T02100190 IEM_DS3505
ZGNN,2000-01-10 03:00,ZGNN 100300Z AUTO 14006KT 5SM 21/19 A2997 RMK SLP151 T02060190 52013 IEM_DS3505
ZGNN,2000-01-10 04:00,ZGNN 100400Z AUTO 15012KT 7SM 22/19 A2997 RMK T02200190 IEM_DS3505
ZGNN,2000-01-10 05:00,ZGNN 100500Z AUTO 15012KT 7SM 23/19 A2991 RMK T02300190 IEM_DS3505
ZGNN,2000-01-10 06:00,ZGNN 100600Z AUTO 16008KT 11SM 23/19 A2988 RMK 60003 SLP120 T02260187 57030 IEM_DS3505
ZGNN,2000-01-10 07:00,ZGNN 100700Z AUTO 14014KT 7SM 23/18 A2988 RMK T02300180 IEM_DS3505
ZGNN,2000-01-10 08:00,ZGNN 100800Z AUTO 15014KT 7SM 22/18 A2988 RMK T02200180 IEM_DS3505
ZGNN,2000-01-10 09:00,ZGNN 100900Z AUTO 11004KT 12SM 22/18 A2988 RMK SLP113 T02220184 57007 IEM_DS3505
ZGNN,2000-01-10 10:00,ZGNN 101000Z AUTO 15006KT 7SM 21/18 A2988 RMK T02100180 IEM_DS3505
ZGNN,2000-01-10 11:00,ZGNN 101100Z AUTO 15008KT 7SM 20/18 A2988 RMK T02000180 IEM_DS3505
ZGNN,2000-01-10 12:00,ZGNN 101200Z AUTO 27004KT 12SM 20/18 A2988 RMK SLP118 T02040180 52005 IEM_DS3505
ZGNN,2000-01-10 13:00,ZGNN 101300Z AUTO 16006KT 7SM 19/18 A2991 RMK T01900180 IEM_DS3505
ZGNN,2000-01-10 15:00,ZGNN 101500Z AUTO 27002KT 11SM 19/18 RMK SLP131 T01940180 52012 IEM_DS3505
ZGNN,2000-01-10 18:00,ZGNN 101800Z AUTO 09004KT 9SM 19/18 RMK SLP132 T01900182 52002 IEM_DS3505
ZGNN,2000-01-10 21:00,ZGNN 102100Z AUTO 00000KT 7SM 19/19 RMK 70003 SLP129 T01940186 57003 IEM_DS3505
ZGNN,2000-01-10 22:00,ZGNN 102200Z AUTO 11004KT 7SM 19/19 A2991 RMK T01900190 IEM_DS3505
ZGNN,2000-01-10 23:00,ZGNN 102300Z AUTO 14004KT 7SM 19/18 A2994 RMK T01900180 IEM_DS3505
ZGNN,2000-01-11 00:00,ZGNN 110000Z AUTO 14004KT 5SM 20/18 A2994 RMK SLP140 T01960185 52010 IEM_DS3505
ZGNN,2000-01-11 01:00,ZGNN 110100Z AUTO 18010KT 4SM 21/19 A2997 RMK T02100190 IEM_DS3505
ZGNN,2000-01-11 02:00,ZGNN 110200Z AUTO 18014KT 7SM 23/19 A2997 RMK T02300190 IEM_DS3505
ZGNN,2000-01-11 03:00,ZGNN 110300Z AUTO 18010KT 11SM 24/19 A2997 RMK SLP144 T02440193 52005 IEM_DS3505
ZGNN,2000-01-11 04:00,ZGNN 110400Z AUTO 16017KT 7SM 26/19 A2994 RMK T02600190 IEM_DS3505
ZGNN,2000-01-11 05:00,ZGNN 110500Z AUTO 18017KT 7SM 27/19 A2988 RMK T02700190 IEM_DS3505
ZGNN,2000-01-11 06:00,ZGNN 110600Z AUTO 16008KT 19SM 26/19 A2985 RMK SLP103 T02600189 57040 IEM_DS3505
ZGNN,2000-01-11 07:00,ZGNN 110700Z AUTO 13014KT 7SM 27/19 A2983 RMK T02700190 IEM_DS3505
ZGNN,2000-01-11 08:00,ZGNN 110800Z AUTO 15016KT 7SM 26/19 A2980 RMK T02600190 IEM_DS3505
ZGNN,2000-01-11 09:00,ZGNN 110900Z AUTO 18006KT 19SM 24/19 A2980 RMK SLP085 T02400187 57018 IEM_DS3505
ZGNN,2000-01-11 10:00,ZGNN 111000Z AUTO 15010KT 7SM 23/19 A2980 RMK T02300190 IEM_DS3505
ZGNN,2000-01-11 11:00,ZGNN 111100Z AUTO 17010KT 7SM 21/19 A2983 RMK T02100190 IEM_DS3505
ZGNN,2000-01-11 12:00,ZGNN 111200Z AUTO 25002KT 16SM 21/19 A2985 RMK SLP103 T02140191 52017 IEM_DS3505
ZGNN,2000-01-11 13:00,ZGNN 111300Z AUTO 14006KT 7SM 21/19 A2985 RMK T02100190 IEM_DS3505
ZGNN,2000-01-11 15:00,ZGNN 111500Z AUTO 22004KT 12SM 21/19 RMK SLP115 T02070188 52013 IEM_DS3505
ZGNN,2000-01-11 18:00,ZGNN 111800Z AUTO 00000KT 12SM 21/19 RMK SLP118 T02060190 52003 IEM_DS3505
ZGNN,2000-01-11 21:00,ZGNN 112100Z AUTO 00000KT 11SM 20/19 RMK SLP118 T02000191 54000 IEM_DS3505
ZGNN,2000-01-11 22:00,ZGNN 112200Z AUTO 18004KT 7SM 20/19 A2988 RMK T02000190 IEM_DS3505
ZGNN,2000-01-11 23:00,ZGNN 112300Z AUTO 18004KT 7SM 20/19 A2991 RMK T02000190 IEM_DS3505
ZGNN,2000-01-12 00:00,ZGNN 120000Z AUTO 20004KT 5SM 20/19 A2994 RMK SLP131 T02010187 52012 IEM_DS3505
ZGNN,2000-01-12 01:00,ZGNN 120100Z AUTO 12004KT 7SM 21/19 A2994 RMK T02100190 IEM_DS3505
ZGNN,2000-01-12 02:00,ZGNN 120200Z AUTO 15008KT 7SM 22/20 A2997 RMK T02200200 IEM_DS3505
ZGNN,2000-01-12 03:00,ZGNN 120300Z AUTO 22006KT 12SM 22/20 A2997 RMK SLP146 T02210196 52015 IEM_DS3505
ZGNN,2000-01-12 04:00,ZGNN 120400Z AUTO 14006KT 7SM 24/19 A2997 RMK T02400190 IEM_DS3505
ZGNN,2000-01-12 05:00,ZGNN 120500Z AUTO 04010KT 7SM 23/19 A2991 RMK T02300190 IEM_DS3505
ZGNN,2000-01-12 06:00,ZGNN 120600Z AUTO 09004KT 12SM 22/17 A2988 RMK SLP121 T02190171 57025 IEM_DS3505
ZGNN,2000-01-12 07:00,ZGNN 120700Z AUTO 08010KT 7SM 21/16 A2988 RMK T02100160 IEM_DS3505
ZGNN,2000-01-12 08:00,ZGNN 120800Z AUTO 07012KT 7SM 20/15 A2988 RMK T02000150 IEM_DS3505
ZGNN,2000-01-12 09:00,ZGNN 120900Z AUTO 04006KT 16SM 18/14 A2988 RMK SLP119 T01780136 57003 IEM_DS3505
ZGNN,2000-01-12 10:00,ZGNN 121000Z AUTO 06008KT 7SM 16/10 A2991 RMK T01600100 IEM_DS3505
ZGNN,2000-01-12 11:00,ZGNN 121100Z AUTO 09010KT 7SM 15/12 A2991 RMK T01500120 IEM_DS3505
ZGNN,2000-01-12 12:00,ZGNN 121200Z AUTO 09004KT 11SM 15/11 A2994 RMK SLP138 T01480113 52018 IEM_DS3505
ZGNN,2000-01-12 13:00,ZGNN 121300Z AUTO 09008KT 7SM 13/11 A2994 RMK T01300110 IEM_DS3505
ZGNN,2000-01-12 15:00,ZGNN 121500Z AUTO 07002KT 9SM 14/10 RMK SLP151 T01370103 52013 IEM_DS3505
ZGNN,2000-01-12 18:00,ZGNN 121800Z AUTO 14002KT 7SM 12/10 RMK 60003 SLP150 T01240105 57001 IEM_DS3505
ZGNN,2000-01-12 21:00,ZGNN 122100Z AUTO 07004KT 7SM 11/10 RMK 70003 SLP148 T01120096 57004 IEM_DS3505
ZGNN,2000-01-12 22:00,ZGNN 122200Z AUTO 04006KT 5SM 11/09 A2997 RMK T01100090 IEM_DS3505
ZGNN,2000-01-12 23:00,ZGNN 122300Z AUTO 04006KT 4SM 11/09 A2997 RMK T01100090 IEM_DS3505
ZGNN,2000-01-13 00:00,ZGNN 130000Z AUTO 09002KT 5SM 11/09 A3000 RMK 60003 SLP155 T01060094 52006 IEM_DS3505
ZGNN,2000-01-13 01:00,ZGNN 130100Z AUTO 05006KT 4SM 11/10 A3000 RMK T01100100 IEM_DS3505
ZGNN,2000-01-13 02:00,ZGNN 130200Z AUTO 07006KT 2SM 11/10 A3003 RMK T01100100 IEM_DS3505
ZGNN,2000-01-13 03:00,ZGNN 130300Z AUTO 04002KT 6SM 12/09 A3003 RMK SLP170 T01150093 52015 IEM_DS3505
ZGNN,2000-01-13 04:00,ZGNN 130400Z AUTO 03006KT 1 1/2SM 12/10 A3000 RMK T01200100 IEM_DS3505
ZGNN,2000-01-13 05:00,ZGNN 130500Z AUTO 04006KT 1 1/4SM 12/10 A2997 RMK T01200100 IEM_DS3505
ZGNN,2000-01-13 06:00,ZGNN 130600Z AUTO 34004KT 4SM 12/10 A2994 RMK 60003 SLP138 T01230098 57032 IEM_DS3505
ZGNN,2000-01-13 07:00,ZGNN 130700Z AUTO 03006KT 1 1/4SM 13/10 A2991 RMK T01300100 IEM_DS3505
ZGNN,2000-01-13 08:00,ZGNN 130800Z AUTO 09006KT 1 1/4SM 13/10 A2988 RMK T01300100 IEM_DS3505
ZGNN,2000-01-13 09:00,ZGNN 130900Z AUTO 07004KT 5SM 13/10 A2988 RMK SLP127 T01320101 57011 IEM_DS3505
ZGNN,2000-01-13 10:00,ZGNN 131000Z AUTO 04006KT 1 1/4SM 13/10 A2991 RMK T01300100 IEM_DS3505
ZGNN,2000-01-13 11:00,ZGNN 131100Z AUTO 04006KT 1 1/2SM 13/10 A2991 RMK T01300100 IEM_DS3505
ZGNN,2000-01-13 12:00,ZGNN 131200Z AUTO 11002KT 6SM 13/10 A2994 RMK SLP138 T01260095 52011 IEM_DS3505
ZGNN,2000-01-13 13:00,ZGNN 131300Z AUTO 07006KT 1 1/2SM 12/10 A2994 RMK T01200100 IEM_DS3505
ZGNN,2000-01-13 15:00,ZGNN 131500Z AUTO 00000KT 6SM 11/10 RMK SLP151 T01120096 52013 IEM_DS3505
ZGNN,2000-01-13 18:00,ZGNN 131800Z AUTO 09002KT 6SM 11/09 RMK 60003 SLP145 T01120088 57006 IEM_DS3505
ZGNN,2000-01-13 21:00,ZGNN 132100Z AUTO 00000KT 6SM 11/09 RMK 70003 SLP135 T01070089 57010 IEM_DS3505
ZGNN,2000-01-13 22:00,ZGNN 132200Z AUTO 07006KT 7SM 11/09 A2991 RMK T01100090 IEM_DS3505
ZGNN,2000-01-13 23:00,ZGNN 132300Z AUTO 08004KT 7SM 11/09 A2994 RMK T01100090 IEM_DS3505
ZGNN,2000-01-14 00:00,ZGNN 140000Z AUTO 09004KT 2SM 10/10 A2994 RMK 60003 SLP148 T01040096 52013 IEM_DS3505
ZGNN,2000-01-14 01:00,ZGNN 140100Z AUTO 08008KT 1 1/4SM 10/10 A2997 RMK T01000100 IEM_DS3505
ZGNN,2000-01-14 02:00,ZGNN 140200Z AUTO 08006KT 1SM 11/10 A3000 RMK T01100100 IEM_DS3505
ZGNN,2000-01-14 03:00,ZGNN 140300Z AUTO 14002KT 3SM 11/10 A2997 RMK SLP159 T01080100 52010 IEM_DS3505
ZGNN,2000-01-14 04:00,ZGNN 140400Z AUTO 11006KT 1SM 11/10 A2997 RMK T01100100 IEM_DS3505
ZGNN,2000-01-14 05:00,ZGNN 140500Z AUTO 04004KT 1SM 12/11 A2994 RMK T01200110 IEM_DS3505
ZGNN,2000-01-14 06:00,ZGNN 140600Z AUTO 04002KT 4SM 12/10 A2988 RMK 60003 SLP126 T01200105 57032 IEM_DS3505
ZGNN,2000-01-14 07:00,ZGNN 140700Z AUTO 07006KT 1 1/4SM 13/11 A2985 RMK T01300110 IEM_DS3505
ZGNN,2000-01-14 08:00,ZGNN 140800Z AUTO 08006KT 1 1/4SM 13/11 A2983 RMK T01300110 IEM_DS3505
ZGNN,2000-01-14 09:00,ZGNN 140900Z AUTO 14004KT 4SM 12/11 A2983 RMK SLP106 T01240113 57020 IEM_DS3505
ZGNN,2000-01-14 10:00,ZGNN 141000Z AUTO 07006KT 1SM 12/11 A2983 RMK T01200110 IEM_DS3505
ZGNN,2000-01-14 11:00,ZGNN 141100Z AUTO 05004KT 1SM 12/11 A2983 RMK T01200110 IEM_DS3505
ZGNN,2000-01-14 12:00,ZGNN 141200Z AUTO 09002KT 3SM 12/11 A2985 RMK SLP109 T01200112 52003 IEM_DS3505
ZGNN,2000-01-14 13:00,ZGNN 141300Z AUTO 03006KT 1SM 12/11 A2985 RMK T01200110 IEM_DS3505
ZGNN,2000-01-14 15:00,ZGNN 141500Z AUTO 00000KT 3SM 12/12 RMK SLP123 T01230116 52014 IEM_DS3505
ZGNN,2000-01-14 18:00,ZGNN 141800Z AUTO 11004KT 4SM 12/11 RMK 60003 SLP124 T01220114 52001 IEM_DS3505
ZGNN,2000-01-14 21:00,ZGNN 142100Z AUTO 09004KT 3SM 12/12 RMK 70003 SLP118 T01200116 57005 IEM_DS3505
ZGNN,2000-01-14 22:00,ZGNN 142200Z AUTO 07004KT 1/4SM 12/12 A2988 RMK T01200120 IEM_DS3505
ZGNN,2000-01-14 23:00,ZGNN 142300Z AUTO 06004KT 1/4SM 12/12 A2988 RMK T01200120 IEM_DS3505
ZGNN,2000-01-15 00:00,ZGNN 150000Z AUTO 09004KT 1 1/4SM 12/12 A2991 RMK 60003 SLP134 T01200116 52015 IEM_DS3505
ZGNN,2000-01-15 01:00,ZGNN 150100Z AUTO 05006KT 1/2SM 12/12 A2994 RMK T01200120 IEM_DS3505
ZGNN,2000-01-15 02:00,ZGNN 150200Z AUTO 12002KT 1/2SM 13/13 A2994 RMK T01300130 IEM_DS3505
ZGNN,2000-01-15 03:00,ZGNN 150300Z AUTO 07004KT 1SM 13/13 A2994 RMK SLP142 T01330128 52009 IEM_DS3505
ZGNN,2000-01-15 04:00,ZGNN 150400Z AUTO 05006KT 1 1/4SM 15/15 A2994 RMK T01500150 IEM_DS3505
ZGNN,2000-01-15 05:00,ZGNN 150500Z AUTO 05006KT 1 1/2SM 16/14 A2988 RMK T01600140 IEM_DS3505
ZGNN,2000-01-15 06:00,ZGNN 150600Z AUTO 14002KT 2 1/2SM 17/14 A2985 RMK 60003 SLP110 T01660145 57031 IEM_DS3505
ZGNN,2000-01-15 07:00,ZGNN 150700Z AUTO 06006KT 2 1/2SM 18/15 A2983 RMK T01800150 IEM_DS3505
ZGNN,2000-01-15 08:00,ZGNN 150800Z AUTO 04006KT 3SM 19/15 A2983 RMK T01900150 IEM_DS3505
ZGNN,2000-01-15 09:00,ZGNN 150900Z AUTO 09004KT 7SM 19/16 A2980 RMK SLP094 T01900155 57015 IEM_DS3505
ZGNN,2000-01-15 10:00,ZGNN 151000Z AUTO 06006KT 3SM 18/14 A2983 RMK T01800140 IEM_DS3505
ZGNN,2000-01-15 11:00,ZGNN 151100Z AUTO 04006KT 3SM 16/14 A2985 RMK T01600140 IEM_DS3505
ZGNN,2000-01-15 12:00,ZGNN 151200Z AUTO 09006KT 7SM 15/13 A2988 RMK SLP118 T01480130 52022 IEM_DS3505
ZGNN,2000-01-15 13:00,ZGNN 151300Z AUTO 06006KT 2 1/2SM 14/13 A2991 RMK T01400130 IEM_DS3505
ZGNN,2000-01-15 14:00,ZGNN 151400Z AUTO 05006KT 2 1/2SM 14/13 A2991 RMK T01400130 IEM_DS3505
ZGNN,2000-01-15 15:00,ZGNN 151500Z AUTO 09006KT 7SM 14/13 A2994 RMK SLP138 T01440126 52020 IEM_DS3505
ZGNN,2000-01-15 16:00,ZGNN 151600Z AUTO 05006KT 2 1/2SM 14/12 A2997 RMK T01400120 IEM_DS3505
ZGNN,2000-01-15 18:00,ZGNN 151800Z AUTO 11004KT 6SM 13/11 RMK 60003 SLP153 T01310114 52015 IEM_DS3505
ZGNN,2000-01-15 21:00,ZGNN 152100Z AUTO 04004KT 6SM 13/11 RMK 70003 SLP153 T01280111 52001 IEM_DS3505
ZGNN,2000-01-15 22:00,ZGNN 152200Z AUTO 06004KT 7SM 13/11 A3000 RMK T01300110 IEM_DS3505
ZGNN,2000-01-15 23:00,ZGNN 152300Z AUTO 05006KT 7SM 12/11 A3003 RMK T01200110 IEM_DS3505
ZGNN,2000-01-16 00:00,ZGNN 160000Z AUTO 07004KT 4SM 12/10 A3006 RMK 60003 SLP181 T01160104 52026 IEM_DS3505
ZGNN,2000-01-16 01:00,ZGNN 160100Z AUTO 05006KT 1 1/2SM 11/11 A3009 RMK T01100110 IEM_DS3505
ZGNN,2000-01-16 02:00,ZGNN 160200Z AUTO 03006KT 1 1/2SM 11/11 A3012 RMK T01100110 IEM_DS3505
ZGNN,2000-01-16 03:00,ZGNN 160300Z AUTO 00000KT 4SM 11/10 A3012 RMK SLP204 T01100096 52023 IEM_DS3505
ZGNN,2000-01-16 04:00,ZGNN 160400Z AUTO 09006KT 2 1/2SM 12/10 A3012 RMK T01200100 IEM_DS3505
ZGNN,2000-01-16 05:00,ZGNN 160500Z AUTO 06006KT 2 1/2SM 12/10 A3009 RMK T01200100 IEM_DS3505
ZGNN,2000-01-16 06:00,ZGNN 160600Z AUTO 07002KT 4SM 12/10 A3006 RMK 60003 SLP174 T01150095 57030 IEM_DS3505
ZGNN,2000-01-16 07:00,ZGNN 160700Z AUTO 06006KT 1 1/2SM 12/10 A3003 RMK T01200100 IEM_DS3505
ZGNN,2000-01-16 08:00,ZGNN 160800Z AUTO 06006KT 1 1/2SM 12/10 A3000 RMK T01200100 IEM_DS3505
ZGNN,2000-01-16 09:00,ZGNN 160900Z AUTO 04004KT 5SM 11/09 A3000 RMK SLP160 T01140092 57014 IEM_DS3505
ZGNN,2000-01-16 10:00,ZGNN 161000Z AUTO 05006KT 2 1/2SM 11/09 A3003 RMK T01100090 IEM_DS3505
ZGNN,2000-01-16 11:00,ZGNN 161100Z AUTO 08006KT 2 1/2SM 11/09 A3003 RMK T01100090 IEM_DS3505
ZGNN,2000-01-16 12:00,ZGNN 161200Z AUTO 34004KT 5SM 10/08 A3006 RMK SLP183 T00960079 52022 IEM_DS3505
ZGNN,2000-01-16 13:00,ZGNN 161300Z AUTO 04006KT 1 1/2SM 09/08 A3009 RMK T00900080 IEM_DS3505
ZGNN,2000-01-16 14:00,ZGNN 161400Z AUTO 06006KT 1 1/4SM 09/08 A3012 RMK T00900080 IEM_DS3505
ZGNN,2000-01-16 15:00,ZGNN 161500Z AUTO 04004KT 5SM 08/07 A3012 RMK SLP207 T00850074 52023 IEM_DS3505
ZGNN,2000-01-16 16:00,ZGNN 161600Z AUTO 06006KT 1 1/4SM 08/08 A3012 RMK T00800080 IEM_DS3505
ZGNN,2000-01-16 17:00,ZGNN 161700Z AUTO 05004KT 1 1/4SM 08/08 A3015 RMK T00800080 IEM_DS3505
ZGNN,2000-01-16 18:00,ZGNN 161800Z AUTO 04002KT 5SM 08/08 RMK 60000 SLP212 T00800076 52005 IEM_DS3505
ZGNN,2000-01-16 21:00,ZGNN 162100Z AUTO 36008KT 4SM 08/07 RMK 70002 SLP209 T00790068 57003 IEM_DS3505
ZGNN,2000-01-16 22:00,ZGNN 162200Z AUTO 35006KT 3SM 08/07 A3015 RMK T00800070 IEM_DS3505
ZGNN,2000-01-16 23:00,ZGNN 162300Z AUTO 35006KT 3SM 08/07 A3018 RMK T00800070 IEM_DS3505
ZGNN,2000-01-17 00:00,ZGNN 170000Z AUTO 34004KT 5SM 08/06 A3021 RMK 60001 SLP231 T00780065 52021 IEM_DS3505
ZGNN,2000-01-17 01:00,ZGNN 170100Z AUTO 36004KT 7SM 08/06 A3024 RMK T00800060 IEM_DS3505
ZGNN,2000-01-17 02:00,ZGNN 170200Z AUTO 04004KT 7SM 08/06 A3027 RMK T00800060 IEM_DS3505
ZGNN,2000-01-17 03:00,ZGNN 170300Z AUTO 36006KT 7SM 09/06 A3027 RMK SLP252 T00890061 52021 IEM_DS3505
ZGNN,2000-01-17 04:00,ZGNN 170400Z AUTO 33006KT 7SM 09/05 A3024 RMK T00900050 IEM_DS3505
ZGNN,2000-01-17 05:00,ZGNN 170500Z AUTO 36008KT 7SM 09/05 A3024 RMK T00900050 IEM_DS3505
ZGNN,2000-01-17 06:00,ZGNN 170600Z AUTO 34008KT 7SM 10/05 A3018 RMK SLP226 T00950048 57026 IEM_DS3505
ZGNN,2000-01-17 07:00,ZGNN 170700Z AUTO 03006KT 7SM 10/05 A3015 RMK T01000050 IEM_DS3505
ZGNN,2000-01-17 08:00,ZGNN 170800Z AUTO 02010KT 7SM 10/04 A3015 RMK T01000040 IEM_DS3505
ZGNN,2000-01-17 09:00,ZGNN 170900Z AUTO 36008KT 7SM 09/05 A3015 RMK SLP215 T00940050 57011 IEM_DS3505
ZGNN,2000-01-17 10:00,ZGNN 171000Z AUTO 01006KT 7SM 09/05 A3015 RMK T00900050 IEM_DS3505
ZGNN,2000-01-17 11:00,ZGNN 171100Z AUTO 05006KT 7SM 09/04 A3018 RMK T00900040 IEM_DS3505
ZGNN,2000-01-17 12:00,ZGNN 171200Z AUTO 00000KT 7SM 08/04 A3018 RMK SLP225 T00830042 52010 IEM_DS3505
ZGNN,2000-01-17 13:00,ZGNN 171300Z AUTO 00000KT 7SM 08/04 A3021 RMK T00800040 IEM_DS3505
ZGNN,2000-01-17 15:00,ZGNN 171500Z AUTO 00000KT 7SM 08/04 RMK SLP248 T00810039 52023 IEM_DS3505
ZGNN,2000-01-17 18:00,ZGNN 171800Z AUTO 04004KT 7SM 08/04 RMK SLP252 T00820035 52004 IEM_DS3505
ZGNN,2000-01-17 21:00,ZGNN 172100Z AUTO 34008KT 7SM 08/03 RMK 70003 SLP249 T00770032 57003 IEM_DS3505
ZGNN,2000-01-17 22:00,ZGNN 172200Z AUTO 35006KT 7SM 07/03 A3027 RMK T00700030 IEM_DS3505
ZGNN,2000-01-17 23:00,ZGNN 172300Z AUTO 35004KT 7SM 07/04 A3030 RMK T00700040 IEM_DS3505
ZGNN,2000-01-18 00:00,ZGNN 180000Z AUTO 34004KT 6SM 08/03 A3030 RMK SLP270 T00750030 52020 IEM_DS3505
ZGNN,2000-01-18 01:00,ZGNN 180100Z AUTO 33008KT 7SM 08/03 A3033 RMK T00800030 IEM_DS3505
ZGNN,2000-01-18 02:00,ZGNN 180200Z AUTO 33008KT 7SM 09/03 A3036 RMK T00900030 IEM_DS3505
ZGNN,2000-01-18 03:00,ZGNN 180300Z AUTO 36008KT 12SM 09/03 A3036 RMK SLP285 T00910030 52015 IEM_DS3505
ZGNN,2000-01-18 04:00,ZGNN 180400Z AUTO 34010KT 7SM 10/03 A3033 RMK T01000030 IEM_DS3505
ZGNN,2000-01-18 05:00,ZGNN 180500Z AUTO 35008KT 7SM 11/02 A3030 RMK T01100020 IEM_DS3505
ZGNN,2000-01-18 06:00,ZGNN 180600Z AUTO 32008KT 12SM 11/03 A3027 RMK SLP248 T01090028 57036 IEM_DS3505
ZGNN,2000-01-18 07:00,ZGNN 180700Z AUTO 35006KT 7SM 12/02 A3021 RMK T01200020 IEM_DS3505
ZGNN,2000-01-18 08:00,ZGNN 180800Z AUTO 30004KT 7SM 12/03 A3021 RMK T01200030 IEM_DS3505
ZGNN,2000-01-18 09:00,ZGNN 180900Z AUTO 02006KT 12SM 13/03 A3021 RMK SLP230 T01330030 57017 IEM_DS3505
ZGNN,2000-01-18 10:00,ZGNN 181000Z AUTO 03006KT 7SM 13/03 A3021 RMK T01300030 IEM_DS3505
ZGNN,2000-01-18 11:00,ZGNN 181100Z AUTO 03008KT 7SM 12/04 A3024 RMK T01200040 IEM_DS3505
ZGNN,2000-01-18 12:00,ZGNN 181200Z AUTO 02004KT 9SM 12/04 A3027 RMK SLP250 T01160043 52019 IEM_DS3505
ZGNN,2000-01-18 15:00,ZGNN 181500Z AUTO 07002KT 9SM 11/04 RMK SLP268 T01080041 52018 IEM_DS3505
ZGNN,2000-01-18 18:00,ZGNN 181800Z AUTO 00000KT 9SM 10/05 RMK SLP265 T01000051 57003 IEM_DS3505
ZGNN,2000-01-18 21:00,ZGNN 182100Z AUTO 00000KT 9SM 10/05 RMK SLP254 T00970050 57010 IEM_DS3505
ZGNN,2000-01-18 22:00,ZGNN 182200Z AUTO 00000KT 7SM 10/06 A3030 RMK T01000060 IEM_DS3505
ZGNN,2000-01-18 23:00,ZGNN 182300Z AUTO 00000KT 7SM 10/06 A3030 RMK T01000060 IEM_DS3505
ZGNN,2000-01-19 00:00,ZGNN 190000Z AUTO 00000KT 9SM 09/06 A3033 RMK SLP272 T00940059 52017 IEM_DS3505
ZGNN,2000-01-19 01:00,ZGNN 190100Z AUTO 00000KT 7SM 10/05 A3036 RMK T01000050 IEM_DS3505
ZGNN,2000-01-19 02:00,ZGNN 190200Z AUTO 03004KT 7SM 11/03 A3039 RMK T01100030 IEM_DS3505
ZGNN,2000-01-19 03:00,ZGNN 190300Z AUTO 36004KT 9SM 10/01 A3039 RMK SLP292 T01050014 52020 IEM_DS3505
ZGNN,2000-01-19 04:00,ZGNN 190400Z AUTO 02006KT 6SM 13/00 A3033 RMK T01300000 IEM_DS3505
ZGNN,2000-01-19 05:00,ZGNN 190500Z AUTO 36010KT 7SM 12/M02 A3030 RMK T01201020 IEM_DS3505
ZGNN,2000-01-19 06:00,ZGNN 190600Z AUTO 02010KT 12SM 12/01 A3027 RMK SLP248 T01230006 57043 IEM_DS3505
ZGNN,2000-01-19 08:00,ZGNN 190800Z AUTO 02006KT 6SM 14/02 A3021 RMK T01400020 IEM_DS3505
ZGNN,2000-01-19 09:00,ZGNN 190900Z AUTO 16002KT 16SM 14/02 A3021 RMK SLP232 T01360019 57015 IEM_DS3505
ZGNN,2000-01-19 10:00,ZGNN 191000Z AUTO 08006KT 6SM 13/02 A3021 RMK T01300020 IEM_DS3505
ZGNN,2000-01-19 11:00,ZGNN 191100Z AUTO 08004KT 6SM 10/02 A3021 RMK T01000020 IEM_DS3505
ZGNN,2000-01-19 12:00,ZGNN 191200Z AUTO 11002KT 12SM 10/02 A3024 RMK SLP244 T00950018 52010 IEM_DS3505
ZGNN,2000-01-19 13:00,ZGNN 191300Z AUTO 00000KT 6SM 09/02 A3027 RMK T00900020 IEM_DS3505
ZGNN,2000-01-19 15:00,ZGNN 191500Z AUTO 00000KT 12SM 09/02 RMK SLP265 T00920020 52021 IEM_DS3505
ZGNN,2000-01-19 18:00,ZGNN 191800Z AUTO 00000KT 12SM 07/04 RMK SLP262 T00690039 57003 IEM_DS3505
ZGNN,2000-01-19 21:00,ZGNN 192100Z AUTO 00000KT 12SM 06/03 RMK SLP253 T00620033 57009 IEM_DS3505
ZGNN,2000-01-19 22:00,ZGNN 192200Z AUTO 00000KT 5SM 07/04 A3027 RMK T00700040 IEM_DS3505
ZGNN,2000-01-19 23:00,ZGNN 192300Z AUTO 05004KT 5SM 07/04 A3027 RMK T00700040 IEM_DS3505
ZGNN,2000-01-20 00:00,ZGNN 200000Z AUTO 22002KT 7SM 08/03 A3030 RMK SLP264 T00760034 52010 IEM_DS3505
ZGNN,2000-01-20 01:00,ZGNN 200100Z AUTO 07006KT 6SM 09/02 A3027 RMK T00900020 IEM_DS3505
ZGNN,2000-01-20 02:00,ZGNN 200200Z AUTO 06010KT 6SM 12/00 A3033 RMK T01200000 IEM_DS3505
ZGNN,2000-01-20 03:00,ZGNN 200300Z AUTO 09006KT 7SM 12/M00 A3033 RMK SLP273 T01211001 52010 IEM_DS3505
ZGNN,2000-01-20 04:00,ZGNN 200400Z AUTO 08008KT 6SM 13/00 A3030 RMK T01300000 IEM_DS3505
ZGNN,2000-01-20 05:00,ZGNN 200500Z AUTO 03004KT 6SM 14/00 A3027 RMK T01400000 IEM_DS3505
ZGNN,2000-01-20 06:00,ZGNN 200600Z AUTO 09004KT 9SM 16/02 A3021 RMK SLP232 T01550017 57040 IEM_DS3505
ZGNN,2000-01-20 07:00,ZGNN 200700Z AUTO 08002KT 6SM 16/01 A3018 RMK T01600010 IEM_DS3505
ZGNN,2000-01-20 08:00,ZGNN 200800Z AUTO 06004KT 6SM 16/02 A3018 RMK T01600020 IEM_DS3505
ZGNN,2000-01-20 09:00,ZGNN 200900Z AUTO 04002KT 7SM 15/03 A3018 RMK SLP223 T01500028 57009 IEM_DS3505
ZGNN,2000-01-20 10:00,ZGNN 201000Z AUTO 08004KT 6SM 15/02 A3018 RMK T01500020 IEM_DS3505
ZGNN,2000-01-20 11:00,ZGNN 201100Z AUTO 06002KT 6SM 14/04 A3021 RMK T01400040 IEM_DS3505
ZGNN,2000-01-20 12:00,ZGNN 201200Z AUTO 00000KT 7SM 14/06 A3021 RMK SLP236 T01380063 52013 IEM_DS3505
ZGNN,2000-01-20 13:00,ZGNN 201300Z AUTO 11004KT 6SM 14/04 A3024 RMK T01400040 IEM_DS3505
ZGNN,2000-01-20 14:00,ZGNN 201400Z AUTO 11004KT 6SM 14/05 A3027 RMK T01400050 IEM_DS3505
ZGNN,2000-01-20 15:00,ZGNN 201500Z AUTO 00000KT 7SM 14/07 A3027 RMK SLP250 T01360073 52015 IEM_DS3505
ZGNN,2000-01-20 18:00,ZGNN 201800Z AUTO 00000KT 7SM 13/07 RMK SLP244 T01270071 57005 IEM_DS3505
ZGNN,2000-01-20 21:00,ZGNN 202100Z AUTO 09002KT 7SM 12/06 RMK SLP238 T01210062 57006 IEM_DS3505
ZGNN,2000-01-20 22:00,ZGNN 202200Z AUTO 35002KT 5SM 12/06 A3024 RMK T01200060 IEM_DS3505
ZGNN,2000-01-20 23:00,ZGNN 202300Z AUTO 04002KT 5SM 12/06 A3027 RMK T01200060 IEM_DS3505
ZGNN,2000-01-21 00:00,ZGNN 210000Z AUTO 00000KT 6SM 12/07 A3027 RMK SLP250 T01210069 52011 IEM_DS3505
ZGNN,2000-01-21 01:00,ZGNN 210100Z AUTO 06002KT 5SM 13/06 A3030 RMK T01300060 IEM_DS3505
ZGNN,2000-01-21 02:00,ZGNN 210200Z AUTO 04002KT 5SM 14/05 A3030 RMK T01400050 IEM_DS3505
ZGNN,2000-01-21 03:00,ZGNN 210300Z AUTO 04002KT 6SM 14/06 A3030 RMK SLP261 T01450064 52011 IEM_DS3505
ZGNN,2000-01-21 04:00,ZGNN 210400Z AUTO 11004KT 5SM 16/06 A3027 RMK T01600060 IEM_DS3505
ZGNN,2000-01-21 05:00,ZGNN 210500Z AUTO 18006KT 5SM 17/07 A3024 RMK T01700070 IEM_DS3505
ZGNN,2000-01-21 06:00,ZGNN 210600Z AUTO 22004KT 7SM 17/08 A3021 RMK SLP225 T01660079 57035 IEM_DS3505
ZGNN,2000-01-21 07:00,ZGNN 210700Z AUTO 15006KT 5SM 17/09 A3018 RMK T01700090 IEM_DS3505
ZGNN,2000-01-21 08:00,ZGNN 210800Z AUTO 23004KT 5SM 17/10 A3018 RMK T01700100 IEM_DS3505
ZGNN,2000-01-21 09:00,ZGNN 210900Z AUTO 22004KT 7SM 17/10 A3018 RMK SLP213 T01690099 57012 IEM_DS3505
ZGNN,2000-01-21 10:00,ZGNN 211000Z AUTO 13004KT 17/11 A3018 RMK T01700110 IEM_DS3505
ZGNN,2000-01-21 11:00,ZGNN 211100Z AUTO 00000KT 17/11 A3018 RMK T01700110 IEM_DS3505
ZGNN,2000-01-21 12:00,ZGNN 211200Z AUTO 09002KT 7SM 17/12 A3018 RMK SLP224 T01670120 52011 IEM_DS3505
ZGNN,2000-01-21 13:00,ZGNN 211300Z AUTO 00000KT 2 1/2SM 16/13 A3021 RMK T01600130 IEM_DS3505
ZGNN,2000-01-21 14:00,ZGNN 211400Z AUTO 00000KT 2 1/2SM 16/13 A3021 RMK T01600130 IEM_DS3505
ZGNN,2000-01-21 15:00,ZGNN 211500Z AUTO 00000KT 7SM 16/14 RMK SLP232 T01650135 52009 IEM_DS3505
ZGNN,2000-01-21 18:00,ZGNN 211800Z AUTO 16004KT 7SM 16/14 RMK SLP227 T01630138 57005 IEM_DS3505
ZGNN,2000-01-21 21:00,ZGNN 212100Z AUTO 25004KT 6SM 15/14 RMK 70003 SLP217 T01520143 57010 IEM_DS3505
ZGNN,2000-01-21 22:00,ZGNN 212200Z AUTO 15012KT 2SM 15/14 A3018 RMK T01500140 IEM_DS3505
ZGNN,2000-01-21 23:00,ZGNN 212300Z AUTO 14004KT 2SM 15/14 A3018 RMK T01500140 IEM_DS3505
ZGNN,2000-01-22 00:00,ZGNN 220000Z AUTO 20002KT 4SM 15/14 A3021 RMK 60004 SLP223 T01500143 52006 IEM_DS3505
ZGNN,2000-01-22 01:00,ZGNN 220100Z AUTO 15004KT 1 1/4SM 15/15 A3021 RMK T01500150 IEM_DS3505
ZGNN,2000-01-22 02:00,ZGNN 220200Z AUTO 17006KT 2SM 16/15 A3021 RMK T01600150 IEM_DS3505
ZGNN,2000-01-22 03:00,ZGNN 220300Z AUTO 00000KT 3SM 16/15 A3021 RMK SLP232 T01640147 52009 IEM_DS3505
ZGNN,2000-01-22 04:00,ZGNN 220400Z AUTO 13008KT 4SM 18/15 A3021 RMK T01800150 IEM_DS3505
ZGNN,2000-01-22 05:00,ZGNN 220500Z AUTO 15008KT 7SM 20/15 A3015 RMK T02000150 IEM_DS3505
ZGNN,2000-01-22 06:00,ZGNN 220600Z AUTO 18008KT 7SM 20/15 A3012 RMK SLP193 T02000153 57037 IEM_DS3505
ZGNN,2000-01-22 07:00,ZGNN 220700Z AUTO 14006KT 7SM 21/15 A3009 RMK T02100150 IEM_DS3505
ZGNN,2000-01-22 08:00,ZGNN 220800Z AUTO 12008KT 7SM 20/15 A3006 RMK T02000150 IEM_DS3505
ZGNN,2000-01-22 09:00,ZGNN 220900Z AUTO 14004KT 7SM 20/15 A3006 RMK SLP174 T02010154 57019 IEM_DS3505
ZGNN,2000-01-22 10:00,ZGNN 221000Z AUTO 12008KT 7SM 20/15 A3006 RMK T02000150 IEM_DS3505
ZGNN,2000-01-22 11:00,ZGNN 221100Z AUTO 10004KT 7SM 19/15 A3006 RMK T01900150 IEM_DS3505
ZGNN,2000-01-22 12:00,ZGNN 221200Z AUTO 00000KT 7SM 18/15 A3009 RMK SLP186 T01760152 52011 IEM_DS3505
ZGNN,2000-01-22 13:00,ZGNN 221300Z AUTO 06004KT 7SM 18/16 A3009 RMK T01800160 IEM_DS3505
ZGNN,2000-01-22 14:00,ZGNN 221400Z AUTO 00000KT 7SM 17/15 A3009 RMK T01700150 IEM_DS3505
ZGNN,2000-01-22 15:00,ZGNN 221500Z AUTO 00000KT 7SM 15/14 RMK SLP192 T01520141 52005 IEM_DS3505
ZGNN,2000-01-22 18:00,ZGNN 221800Z AUTO 00000KT 7SM 17/15 RMK SLP186 T01660154 57004 IEM_DS3505
ZGNN,2000-01-22 21:00,ZGNN 222100Z AUTO 00000KT 5SM 17/16 RMK 70004 SLP172 T01660161 57014 IEM_DS3505
ZGNN,2000-01-22 22:00,ZGNN 222200Z AUTO 00000KT 1 1/4SM 17/16 A3006 RMK T01700160 IEM_DS3505
ZGNN,2000-01-22 23:00,ZGNN 222300Z AUTO 00000KT 1 1/4SM 17/16 A3006 RMK T01700160 IEM_DS3505
ZGNN,2000-01-23 00:00,ZGNN 230000Z AUTO 00000KT 2SM 17/16 A3009 RMK 60003 SLP186 T01710164 52013 IEM_DS3505
ZGNN,2000-01-23 01:00,ZGNN 230100Z AUTO 21004KT 4SM 17/17 A3009 RMK T01700170 IEM_DS3505
ZGNN,2000-01-23 02:00,ZGNN 230200Z AUTO 00000KT 4SM 18/17 A3012 RMK T01800170 IEM_DS3505
ZGNN,2000-01-23 03:00,ZGNN 230300Z AUTO 11004KT 5SM 18/17 RMK SLP198 T01830168 52012 IEM_DS3505
ZGNN,2000-01-23 04:00,ZGNN 230400Z AUTO 21004KT 7SM 21/17 A3009 RMK T02100170 IEM_DS3505
ZGNN,2000-01-23 05:00,ZGNN 230500Z AUTO 10006KT 7SM 23/17 A3006 RMK T02300170 IEM_DS3505
ZGNN,2000-01-23 06:00,ZGNN 230600Z AUTO 00000KT 16SM 22/16 A3000 RMK SLP160 T02250165 57036 IEM_DS3505
ZGNN,2000-01-23 07:00,ZGNN 230700Z AUTO 12006KT 7SM 24/16 A2997 RMK T02400160 IEM_DS3505
ZGNN,2000-01-23 08:00,ZGNN 230800Z AUTO 14004KT 7SM 24/16 A2997 RMK T02400160 IEM_DS3505
ZGNN,2000-01-23 09:00,ZGNN 230900Z AUTO 11004KT 16SM 24/16 A2997 RMK SLP145 T02380164 57015 IEM_DS3505
ZGNN,2000-01-23 10:00,ZGNN 231000Z AUTO 00000KT 7SM 23/16 A2997 RMK T02300160 IEM_DS3505
ZGNN,2000-01-23 12:00,ZGNN 231200Z AUTO 11002KT 12SM 21/17 A3000 RMK SLP161 T02140172 52016 IEM_DS3505
ZGNN,2000-01-23 13:00,ZGNN 231300Z AUTO 00000KT 7SM 20/17 A3003 RMK T02000170 IEM_DS3505
ZGNN,2000-01-23 14:00,ZGNN 231400Z AUTO 00000KT 7SM 20/17 A3003 RMK T02000170 IEM_DS3505
ZGNN,2000-01-23 15:00,ZGNN 231500Z AUTO 00000KT 12SM 20/18 RMK SLP175 T02000176 52013 IEM_DS3505
ZGNN,2000-01-23 18:00,ZGNN 231800Z AUTO 07004KT 11SM 18/17 RMK SLP170 T01840173 57004 IEM_DS3505
ZGNN,2000-01-23 21:00,ZGNN 232100Z AUTO 00000KT 9SM 18/18 A3003 RMK SLP167 T01840178 57003 IEM_DS3505
ZGNN,2000-01-23 22:00,ZGNN 232200Z AUTO 00000KT 2SM 18/17 A3006 RMK T01800170 IEM_DS3505
ZGNN,2000-01-23 23:00,ZGNN 232300Z AUTO 00000KT 2SM 18/17 A3006 RMK T01800170 IEM_DS3505
ZGNN,2000-01-24 00:00,ZGNN 240000Z AUTO 00000KT 4SM 18/17 A3009 RMK SLP188 T01790174 52020 IEM_DS3505
ZGNN,2000-01-24 01:00,ZGNN 240100Z AUTO 00000KT 1SM 19/18 A3012 RMK T01900180 IEM_DS3505
ZGNN,2000-01-24 02:00,ZGNN 240200Z AUTO 08004KT 1 1/4SM 19/18 A3015 RMK T01900180 IEM_DS3505
ZGNN,2000-01-24 03:00,ZGNN 240300Z AUTO 14002KT 3SM 20/18 A3015 RMK SLP208 T02010180 52020 IEM_DS3505
ZGNN,2000-01-24 04:00,ZGNN 240400Z AUTO 08008KT 2SM 22/18 A3015 RMK T02200180 IEM_DS3505
ZGNN,2000-01-24 05:00,ZGNN 240500Z AUTO 06006KT 2 1/2SM 21/17 A3012 RMK T02100170 IEM_DS3505
ZGNN,2000-01-24 06:00,ZGNN 240600Z AUTO 14006KT 5SM 22/17 A3009 RMK 60000 SLP187 T02170170 57020 IEM_DS3505
ZGNN,2000-01-24 07:00,ZGNN 240700Z AUTO 08010KT 5SM 23/16 A3006 RMK T02300160 IEM_DS3505
ZGNN,2000-01-24 08:00,ZGNN 240800Z AUTO 09012KT 5SM 22/16 A3006 RMK T02200160 IEM_DS3505
ZGNN,2000-01-24 09:00,ZGNN 240900Z AUTO 04006KT 5SM 20/15 A3009 RMK SLP187 T02040154 57001 IEM_DS3505
ZGNN,2000-01-24 10:00,ZGNN 241000Z AUTO 05010KT 5SM 17/12 A3012 RMK T01700120 IEM_DS3505
ZGNN,2000-01-24 11:00,ZGNN 241100Z AUTO 03010KT 5SM 14/11 A3015 RMK T01400110 IEM_DS3505
ZGNN,2000-01-24 12:00,ZGNN 241200Z AUTO 09004KT 7SM 13/09 A3021 RMK SLP225 T01280088 52036 IEM_DS3505
ZGNN,2000-01-24 13:00,ZGNN 241300Z AUTO 03006KT 4SM 13/09 A3024 RMK T01300090 IEM_DS3505
ZGNN,2000-01-24 14:00,ZGNN 241400Z AUTO 04006KT 4SM 12/09 A3027 RMK T01200090 IEM_DS3505
ZGNN,2000-01-24 15:00,ZGNN 241500Z AUTO 09004KT 7SM 12/08 A3027 RMK SLP252 T01190085 52027 IEM_DS3505
ZGNN,2000-01-24 16:00,ZGNN 241600Z AUTO 06004KT 4SM 12/09 A3030 RMK T01200090 IEM_DS3505
ZGNN,2000-01-24 17:00,ZGNN 241700Z AUTO 34008KT 4SM 12/09 A3030 RMK T01200090 IEM_DS3505
ZGNN,2000-01-24 18:00,ZGNN 241800Z AUTO 36008KT 11SM 12/06 RMK SLP260 T01200063 52008 IEM_DS3505
ZGNN,2000-01-24 21:00,ZGNN 242100Z AUTO 36008KT 11SM 11/04 RMK 70000 SLP266 T01080038 52005 IEM_DS3505
ZGNN,2000-01-24 22:00,ZGNN 242200Z AUTO 35010KT 7SM 11/04 A3033 RMK T01100040 IEM_DS3505
ZGNN,2000-01-24 23:00,ZGNN 242300Z AUTO 36006KT 7SM 10/04 A3036 RMK T01000040 IEM_DS3505
ZGNN,2000-01-25 00:00,ZGNN 250000Z AUTO 36006KT 9SM 10/03 RMK 70000 SLP287 T01010029 52019 IEM_DS3505
ZGNN,2000-01-25 03:00,ZGNN 250300Z AUTO 36008KT 11SM 11/03 A3042 RMK SLP301 T01140026 52014 IEM_DS3505
ZGNN,2000-01-25 04:00,ZGNN 250400Z AUTO 01006KT 6SM 13/04 A3039 RMK T01300040 IEM_DS3505
ZGNN,2000-01-25 05:00,ZGNN 250500Z AUTO 03008KT 6SM 14/04 A3036 RMK T01400040 IEM_DS3505
ZGNN,2000-01-25 06:00,ZGNN 250600Z AUTO 32010KT 12SM 14/03 A3033 RMK SLP270 T01380028 57030 IEM_DS3505
ZGNN,2000-01-25 07:00,ZGNN 250700Z AUTO 02006KT 6SM 15/04 A3030 RMK T01500040 IEM_DS3505
ZGNN,2000-01-25 08:00,ZGNN 250800Z AUTO 36006KT 6SM 14/03 A3030 RMK T01400030 IEM_DS3505
ZGNN,2000-01-25 09:00,ZGNN 250900Z AUTO 34010KT 12SM 14/03 RMK SLP261 T01410032 57009 IEM_DS3505
ZGNN,2000-01-25 10:00,ZGNN 251000Z AUTO 35006KT 6SM 13/03 A3033 RMK T01300030 IEM_DS3505
ZGNN,2000-01-25 11:00,ZGNN 251100Z AUTO 01006KT 6SM 12/03 A3036 RMK T01200030 IEM_DS3505
ZGNN,2000-01-25 12:00,ZGNN 251200Z AUTO 12SM 12/02 A3039 RMK SLP287 T01170019 52024 IEM_DS3505
ZGNN,2000-01-25 13:00,ZGNN 251300Z AUTO 06004KT 6SM 11/03 A3039 RMK T01100030 IEM_DS3505
ZGNN,2000-01-25 14:00,ZGNN 251400Z AUTO 04008KT 6SM 11/02 A3042 RMK T01100020 IEM_DS3505
ZGNN,2000-01-25 15:00,ZGNN 251500Z AUTO 04002KT 12SM 10/02 A3042 RMK SLP301 T01000019 52014 IEM_DS3505
ZGNN,2000-01-25 18:00,ZGNN 251800Z AUTO 07002KT 11SM 09/02 RMK SLP304 T00910022 52003 IEM_DS3505
ZGNN,2000-01-25 21:00,ZGNN 252100Z AUTO 36006KT 10SM 09/01 RMK SLP302 T00920008 57001 IEM_DS3505
ZGNN,2000-01-25 23:00,ZGNN 252300Z AUTO 03008KT 7SM 09/01 A3047 RMK T00900010 IEM_DS3505
ZGNN,2000-01-26 00:00,ZGNN 260000Z AUTO 36006KT 6SM 08/00 A3047 RMK SLP324 T00810002 52020 IEM_DS3505
ZGNN,2000-01-26 01:00,ZGNN 260100Z AUTO 01008KT 7SM 08/01 A3050 RMK T00800010 IEM_DS3505
ZGNN,2000-01-26 02:00,ZGNN 260200Z AUTO 35008KT 7SM 09/01 A3053 RMK T00900010 IEM_DS3505
ZGNN,2000-01-26 03:00,ZGNN 260300Z AUTO 34010KT 9SM 08/00 A3053 RMK SLP341 T00850001 52017 IEM_DS3505
ZGNN,2000-01-26 04:00,ZGNN 260400Z AUTO 35010KT 7SM 09/02 A3050 RMK T00900020 IEM_DS3505
ZGNN,2000-01-26 05:00,ZGNN 260500Z AUTO 02008KT 7SM 10/02 A3047 RMK T01000020 IEM_DS3505
ZGNN,2000-01-26 06:00,ZGNN 260600Z AUTO 36008KT 11SM 10/00 A3045 RMK SLP311 T01000000 57030 IEM_DS3505
ZGNN,2000-01-26 07:00,ZGNN 260700Z AUTO 03004KT 7SM 11/00 A3042 RMK T01100000 IEM_DS3505
ZGNN,2000-01-26 08:00,ZGNN 260800Z AUTO 36010KT 7SM 10/01 A3042 RMK T01000010 IEM_DS3505
ZGNN,2000-01-26 09:00,ZGNN 260900Z AUTO 34010KT 12SM 10/M01 A3042 RMK SLP301 T01041007 57009 IEM_DS3505
ZGNN,2000-01-26 10:00,ZGNN 261000Z AUTO 02006KT 6SM 10/00 A3045 RMK T01000000 IEM_DS3505
ZGNN,2000-01-26 11:00,ZGNN 261100Z AUTO 02008KT 6SM 09/00 A3045 RMK T00900000 IEM_DS3505
ZGNN,2000-01-26 12:00,ZGNN 261200Z AUTO 36006KT 12SM 09/M00 A3045 RMK SLP313 T00871005 52011 IEM_DS3505
ZGNN,2000-01-26 13:00,ZGNN 261300Z AUTO 03006KT 7SM 08/00 A3047 RMK T00800000 IEM_DS3505
ZGNN,2000-01-26 15:00,ZGNN 261500Z AUTO 09004KT 11SM 08/01 RMK SLP330 T00770006 52016 IEM_DS3505
ZGNN,2000-01-26 18:00,ZGNN 261800Z AUTO 11002KT 11SM 07/M00 RMK SLP326 T00721003 57003 IEM_DS3505
ZGNN,2000-01-26 21:00,ZGNN 262100Z AUTO 34002KT 9SM 07/M00 RMK SLP318 T00671004 57008 IEM_DS3505
ZGNN,2000-01-26 22:00,ZGNN 262200Z AUTO 03006KT 7SM 07/00 A3047 RMK T00700000 IEM_DS3505
ZGNN,2000-01-26 23:00,ZGNN 262300Z AUTO 05004KT 7SM 06/M01 A3050 RMK T00601010 IEM_DS3505
ZGNN,2000-01-27 00:00,ZGNN 270000Z AUTO 04002KT 7SM 06/M01 A3050 RMK SLP333 T00601006 52014 IEM_DS3505
ZGNN,2000-01-27 01:00,ZGNN 270100Z AUTO 03004KT 6SM 07/00 A3053 RMK T00700000 IEM_DS3505
ZGNN,2000-01-27 02:00,ZGNN 270200Z AUTO 03008KT 6SM 08/M02 A3053 RMK T00801020 IEM_DS3505
ZGNN,2000-01-27 03:00,ZGNN 270300Z AUTO 36008KT 7SM 08/M03 A3053 RMK SLP346 T00761033 52013 IEM_DS3505
ZGNN,2000-01-27 04:00,ZGNN 270400Z AUTO 05008KT 6SM 09/M02 A3050 RMK T00901020 IEM_DS3505
ZGNN,2000-01-27 05:00,ZGNN 270500Z AUTO 02010KT 6SM 09/M02 A3047 RMK T00901020 IEM_DS3505
ZGNN,2000-01-27 06:00,ZGNN 270600Z AUTO 36008KT 7SM 09/M02 A3042 RMK SLP305 T00901025 57040 IEM_DS3505
ZGNN,2000-01-27 07:00,ZGNN 270700Z AUTO 34008KT 6SM 10/M02 A3039 RMK T01001020 IEM_DS3505
ZGNN,2000-01-27 08:00,ZGNN 270800Z AUTO 34006KT 6SM 10/M02 A3036 RMK T01001020 IEM_DS3505
ZGNN,2000-01-27 09:00,ZGNN 270900Z AUTO 36004KT 7SM 11/M04 A3036 RMK SLP280 T01071036 57025 IEM_DS3505
ZGNN,2000-01-27 10:00,ZGNN 271000Z AUTO 00000KT 6SM 10/M01 A3036 RMK T01001010 IEM_DS3505
ZGNN,2000-01-27 11:00,ZGNN 271100Z AUTO 00000KT 6SM 09/00 A3036 RMK T00900000 IEM_DS3505
ZGNN,2000-01-27 12:00,ZGNN 271200Z AUTO 00000KT 7SM 07/02 A3036 RMK SLP288 T00680021 52007 IEM_DS3505
ZGNN,2000-01-27 13:00,ZGNN 271300Z AUTO 00000KT 6SM 06/02 A3039 RMK T00600020 IEM_DS3505
ZGNN,2000-01-27 15:00,ZGNN 271500Z AUTO 00000KT 7SM 05/02 RMK SLP297 T00520019 52009 IEM_DS3505
ZGNN,2000-01-27 18:00,ZGNN 271800Z AUTO 00000KT 7SM 08/00 RMK SLP291 T00820001 57005 IEM_DS3505
ZGNN,2000-01-27 19:00,ZGNN 271900Z AUTO 06004KT 7SM 06/04 A3036 RMK T00600040 IEM_DS3505
ZGNN,2000-01-27 20:00,ZGNN 272000Z AUTO 06004KT 7SM 06/03 A3036 RMK T00600030 IEM_DS3505
ZGNN,2000-01-27 21:00,ZGNN 272100Z AUTO 00000KT 9SM 08/M00 A3036 RMK SLP278 T00821002 57012 IEM_DS3505
ZGNN,2000-01-27 22:00,ZGNN 272200Z AUTO 06004KT 7SM 06/02 A3036 RMK T00600020 IEM_DS3505
ZGNN,2000-01-27 23:00,ZGNN 272300Z AUTO 05006KT 7SM 06/02 A3039 RMK T00600020 IEM_DS3505
ZGNN,2000-01-28 00:00,ZGNN 280000Z AUTO 04002KT 7SM 08/M01 A3039 RMK SLP298 T00791007 52018 IEM_DS3505
ZGNN,2000-01-28 01:00,ZGNN 280100Z AUTO 05004KT 7SM 09/00 A3042 RMK T00900000 IEM_DS3505
ZGNN,2000-01-28 02:00,ZGNN 280200Z AUTO 07008KT 7SM 09/00 A3042 RMK T00900000 IEM_DS3505
ZGNN,2000-01-28 03:00,ZGNN 280300Z AUTO 34004KT 9SM 10/M02 A3045 RMK SLP311 T00981016 52013 IEM_DS3505
ZGNN,2000-01-28 04:00,ZGNN 280400Z AUTO 05006KT 7SM 11/M01 A3042 RMK T01101010 IEM_DS3505
ZGNN,2000-01-28 05:00,ZGNN 280500Z AUTO 06006KT 7SM 11/00 A3036 RMK T01100000 IEM_DS3505
ZGNN,2000-01-28 06:00,ZGNN 280600Z AUTO 34002KT 9SM 11/M01 A3033 RMK SLP268 T01141012 57041 IEM_DS3505
ZGNN,2000-01-28 07:00,ZGNN 280700Z AUTO 00000KT 7SM 12/01 A3030 RMK T01200010 IEM_DS3505
ZGNN,2000-01-28 08:00,ZGNN 280800Z AUTO 00000KT 7SM 12/01 A3027 RMK T01200010 IEM_DS3505
ZGNN,2000-01-28 09:00,ZGNN 280900Z AUTO 02002KT 7SM 12/M01 A3027 RMK SLP252 T01181013 57016 IEM_DS3505
ZGNN,2000-01-28 10:00,ZGNN 281000Z AUTO 00000KT 7SM 12/02 A3027 RMK T01200020 IEM_DS3505
ZGNN,2000-01-28 11:00,ZGNN 281100Z AUTO 04004KT 11/03 A3027 RMK T01100030 IEM_DS3505
ZGNN,2000-01-28 12:00,ZGNN 281200Z AUTO 00000KT 7SM 10/03 A3030 RMK SLP262 T01000031 52010 IEM_DS3505
ZGNN,2000-01-28 15:00,ZGNN 281500Z AUTO 00000KT 7SM 10/01 RMK SLP274 T00980010 52012 IEM_DS3505
ZGNN,2000-01-28 18:00,ZGNN 281800Z AUTO 00000KT 7SM 09/00 RMK SLP273 T00930003 57005 IEM_DS3505
ZGNN,2000-01-28 21:00,ZGNN 282100Z AUTO 00000KT 7SM 09/01 RMK SLP281 T00910010 52008 IEM_DS3505
ZGNN,2000-01-28 22:00,ZGNN 282200Z AUTO 00000KT 7SM 09/02 A3039 RMK T00900020 IEM_DS3505
ZGNN,2000-01-28 23:00,ZGNN 282300Z AUTO 03004KT 7SM 09/02 A3039 RMK T00900020 IEM_DS3505
ZGNN,2000-01-29 00:00,ZGNN 290000Z AUTO 00000KT 7SM 09/02 A3042 RMK SLP309 T00880015 52027 IEM_DS3505
ZGNN,2000-01-29 01:00,ZGNN 290100Z AUTO 36008KT 7SM 09/01 A3045 RMK T00900010 IEM_DS3505
ZGNN,2000-01-29 02:00,ZGNN 290200Z AUTO 34006KT 7SM 09/01 A3047 RMK T00900010 IEM_DS3505
ZGNN,2000-01-29 03:00,ZGNN 290300Z AUTO 34006KT 5SM 09/00 A3047 RMK SLP326 T00940001 52017 IEM_DS3505
ZGNN,2000-01-29 04:00,ZGNN 290400Z AUTO 33004KT 7SM 09/03 A3047 RMK T00900030 IEM_DS3505
ZGNN,2000-01-29 05:00,ZGNN 290500Z AUTO 32006KT 7SM 09/02 A3045 RMK T00900020 IEM_DS3505
ZGNN,2000-01-29 06:00,ZGNN 290600Z AUTO 34010KT 5SM 10/01 A3042 RMK SLP305 T00960014 57021 IEM_DS3505
ZGNN,2000-01-29 07:00,ZGNN 290700Z AUTO 34008KT 7SM 10/03 A3039 RMK T01000030 IEM_DS3505
ZGNN,2000-01-29 08:00,ZGNN 290800Z AUTO 34008KT 7SM 11/03 A3039 RMK T01100030 IEM_DS3505
ZGNN,2000-01-29 09:00,ZGNN 290900Z AUTO 36008KT 5SM 11/02 A3039 RMK SLP294 T01070020 57010 IEM_DS3505
ZGNN,2000-01-29 10:00,ZGNN 291000Z AUTO 35006KT 7SM 10/03 A3042 RMK T01000030 IEM_DS3505
ZGNN,2000-01-29 11:00,ZGNN 291100Z AUTO 32008KT 7SM 10/03 A3045 RMK T01000030 IEM_DS3505
ZGNN,2000-01-29 12:00,ZGNN 291200Z AUTO 34006KT 6SM 10/03 A3045 RMK SLP315 T00980028 52020 IEM_DS3505
ZGNN,2000-01-29 13:00,ZGNN 291300Z AUTO 01008KT 7SM 10/03 A3047 RMK T01000030 IEM_DS3505
ZGNN,2000-01-29 14:00,ZGNN 291400Z AUTO 34004KT 7SM 10/03 A3050 RMK T01000030 IEM_DS3505
ZGNN,2000-01-29 15:00,ZGNN 291500Z AUTO 34006KT 6SM 10/03 RMK SLP330 T00950027 52015 IEM_DS3505
ZGNN,2000-01-29 18:00,ZGNN 291800Z AUTO 34002KT 6SM 09/03 RMK SLP328 T00920026 57002 IEM_DS3505
ZGNN,2000-01-29 21:00,ZGNN 292100Z AUTO 00000KT 6SM 09/03 RMK SLP315 T00890033 57013 IEM_DS3505
ZGNN,2000-01-29 22:00,ZGNN 292200Z AUTO 00000KT 7SM 09/04 A3047 RMK T00900040 IEM_DS3505
ZGNN,2000-01-29 23:00,ZGNN 292300Z AUTO 02004KT 7SM 09/04 A3047 RMK T00900040 IEM_DS3505
ZGNN,2000-01-30 00:00,ZGNN 300000Z AUTO 00000KT 6SM 08/02 A3050 RMK SLP330 T00840015 52015 IEM_DS3505
ZGNN,2000-01-30 01:00,ZGNN 300100Z AUTO 34006KT 7SM 09/01 A3050 RMK T00900010 IEM_DS3505
ZGNN,2000-01-30 02:00,ZGNN 300200Z AUTO 35008KT 7SM 10/00 A3053 RMK T01000000 IEM_DS3505
ZGNN,2000-01-30 03:00,ZGNN 300300Z AUTO 34008KT 9SM 10/M00 A3053 RMK SLP339 T01001003 52009 IEM_DS3505
ZGNN,2000-01-30 04:00,ZGNN 300400Z AUTO 04006KT 7SM 11/01 A3050 RMK T01100010 IEM_DS3505
ZGNN,2000-01-30 05:00,ZGNN 300500Z AUTO 03010KT 7SM 12/01 A3047 RMK T01200010 IEM_DS3505
ZGNN,2000-01-30 06:00,ZGNN 300600Z AUTO 36006KT 9SM 12/M00 A3045 RMK SLP313 T01171004 57025 IEM_DS3505
ZGNN,2000-01-30 07:00,ZGNN 300700Z AUTO 33006KT 6SM 12/01 A3042 RMK T01200010 IEM_DS3505
ZGNN,2000-01-30 08:00,ZGNN 300800Z AUTO 02008KT 6SM 12/01 A3042 RMK T01200010 IEM_DS3505
ZGNN,2000-01-30 09:00,ZGNN 300900Z AUTO 36004KT 12SM 12/M00 A3042 RMK SLP301 T01191004 57012 IEM_DS3505
ZGNN,2000-01-30 10:00,ZGNN 301000Z AUTO 35008KT 7SM 11/00 A3042 RMK T01100000 IEM_DS3505
ZGNN,2000-01-30 11:00,ZGNN 301100Z AUTO 33006KT 7SM 11/01 A3045 RMK T01100010 IEM_DS3505
ZGNN,2000-01-30 12:00,ZGNN 301200Z AUTO 36006KT 12SM 11/00 A3047 RMK SLP318 T01070001 52016 IEM_DS3505
ZGNN,2000-01-30 13:00,ZGNN 301300Z AUTO 35004KT 7SM 11/02 A3047 RMK T01100020 IEM_DS3505
ZGNN,2000-01-30 14:00,ZGNN 301400Z AUTO 34006KT 7SM 11/00 A3050 RMK T01100000 IEM_DS3505
ZGNN,2000-01-30 15:00,ZGNN 301500Z AUTO 34004KT 12SM 10/M01 A3050 RMK SLP333 T01031009 52015 IEM_DS3505
ZGNN,2000-01-30 16:00,ZGNN 301600Z AUTO 34004KT 7SM 10/00 A3050 RMK T01000000 IEM_DS3505
ZGNN,2000-01-30 18:00,ZGNN 301800Z AUTO 36006KT 12SM 09/M02 RMK SLP321 T00911017 57011 IEM_DS3505
ZGNN,2000-01-30 21:00,ZGNN 302100Z AUTO 34008KT 12SM 09/M01 RMK SLP319 T00861010 57002 IEM_DS3505
ZGNN,2000-01-30 22:00,ZGNN 302200Z AUTO 34006KT 7SM 08/01 A3047 RMK T00800010 IEM_DS3505
ZGNN,2000-01-30 23:00,ZGNN 302300Z AUTO 33006KT 7SM 08/01 A3047 RMK T00800010 IEM_DS3505
ZGNN,2000-01-31 00:00,ZGNN 310000Z AUTO 34008KT 12SM 08/01 A3050 RMK SLP333 T00760008 52013 IEM_DS3505
ZGNN,2000-01-31 01:00,ZGNN 310100Z AUTO 35010KT 7SM 08/00 A3050 RMK T00800000 IEM_DS3505
ZGNN,2000-01-31 02:00,ZGNN 310200Z AUTO 35008KT 7SM 08/00 A3053 RMK T00800000 IEM_DS3505
ZGNN,2000-01-31 03:00,ZGNN 310300Z AUTO 34010KT 9SM 08/M00 A3056 RMK SLP351 T00791004 52017 IEM_DS3505
ZGNN,2000-01-31 04:00,ZGNN 310400Z AUTO 35012KT 7SM 07/01 A3053 RMK T00700010 IEM_DS3505
ZGNN,2000-01-31 05:00,ZGNN 310500Z AUTO 33008KT 7SM 07/02 A3053 RMK T00700020 IEM_DS3505
ZGNN,2000-01-31 06:00,ZGNN 310600Z AUTO 34016KT 7SM 06/01 A3050 RMK SLP329 T00650012 57022 IEM_DS3505
ZGNN,2000-01-31 07:00,ZGNN 310700Z AUTO 33010KT 5SM 06/02 A3047 RMK T00600020 IEM_DS3505
ZGNN,2000-01-31 08:00,ZGNN 310800Z AUTO 35010KT 6SM 05/02 A3047 RMK T00500020 IEM_DS3505
ZGNN,2000-01-31 09:00,ZGNN 310900Z AUTO 32010KT 6SM 05/03 A3047 RMK SLP322 T00510026 57007 IEM_DS3505
ZGNN,2000-01-31 10:00,ZGNN 311000Z AUTO 34008KT 6SM 05/02 A3047 RMK T00500020 IEM_DS3505
ZGNN,2000-01-31 11:00,ZGNN 311100Z AUTO 34010KT 6SM 05/02 A3047 RMK T00500020 IEM_DS3505
ZGNN,2000-01-31 12:00,ZGNN 311200Z AUTO 34006KT 7SM 05/02 A3050 RMK 60003 SLP331 T00510015 52008 IEM_DS3505
ZGNN,2000-01-31 13:00,ZGNN 311300Z AUTO 33004KT 6SM 05/02 A3050 RMK T00500020 IEM_DS3505
ZGNN,2000-01-31 14:00,ZGNN 311400Z AUTO 36004KT 5SM 05/02 A3050 RMK T00500020 IEM_DS3505
ZGNN,2000-01-31 15:00,ZGNN 311500Z AUTO 34006KT 7SM 05/01 A3050 RMK SLP336 T00520014 52005 IEM_DS3505
ZGNN,2000-01-31 16:00,ZGNN 311600Z AUTO 33006KT 5SM 05/02 A3050 RMK T00500020 IEM_DS3505
ZGNN,2000-01-31 17:00,ZGNN 311700Z AUTO 33006KT 5SM 05/02 A3050 RMK T00500020 IEM_DS3505
ZGNN,2000-01-31 18:00,ZGNN 311800Z AUTO 04004KT 7SM 05/00 RMK SLP332 T00520005 57004 IEM_DS3505
ZGNN,2000-01-31 21:00,ZGNN 312100Z AUTO 34006KT 7SM 05/00 RMK 70003 SLP322 T00490002 57010 IEM_DS3505
ZGNN,2000-01-31 22:00,ZGNN 312200Z AUTO 34006KT 5SM 05/03 A3047 RMK T00500030 IEM_DS3505
ZGNN,2000-01-31 23:00,ZGNN 312300Z AUTO 36004KT 6SM 05/02 A3047 RMK T00500020 IEM_DS3505
ZGNN,2000-02-01 00:00,ZGNN 010000Z AUTO 36004KT 9SM 05/00 A3047 RMK 70003 SLP325 T00500003 52003 IEM_DS3505
ZGNN,2000-02-01 01:00,ZGNN 010100Z AUTO 03006KT 7SM 05/00 A3047 RMK T00500000 IEM_DS3505
ZGNN,2000-02-01 02:00,ZGNN 010200Z AUTO 03006KT 6SM 06/00 A3050 RMK T00600000 IEM_DS3505
ZGNN,2000-02-01 03:00,ZGNN 010300Z AUTO 36002KT 9SM 07/M01 A3050 RMK SLP329 T00701006 52004 IEM_DS3505
ZGNN,2000-02-01 04:00,ZGNN 010400Z AUTO 06004KT 6SM 09/M01 A3045 RMK T00901010 IEM_DS3505
ZGNN,2000-02-01 05:00,ZGNN 010500Z AUTO 35006KT 6SM 11/00 A3042 RMK T01100000 IEM_DS3505
ZGNN,2000-02-01 06:00,ZGNN 010600Z AUTO 32008KT 11SM 12/M00 A3036 RMK SLP285 T01151004 57042 IEM_DS3505
ZGNN,2000-02-01 07:00,ZGNN 010700Z AUTO 35008KT 6SM 13/00 A3033 RMK T01300000 IEM_DS3505
ZGNN,2000-02-01 08:00,ZGNN 010800Z AUTO 28004KT 6SM 13/01 A3033 RMK T01300010 IEM_DS3505
ZGNN,2000-02-01 09:00,ZGNN 010900Z AUTO 34008KT 12SM 13/01 A3030 RMK SLP259 T01320010 57025 IEM_DS3505
ZGNN,2000-02-01 10:00,ZGNN 011000Z AUTO 02008KT 6SM 12/02 A3030 RMK T01200020 IEM_DS3505
ZGNN,2000-02-01 11:00,ZGNN 011100Z AUTO 01004KT 6SM 10/02 A3030 RMK T01000020 IEM_DS3505
ZGNN,2000-02-01 12:00,ZGNN 011200Z AUTO 00000KT 11SM 09/02 A3033 RMK SLP267 T00880015 52006 IEM_DS3505
ZGNN,2000-02-01 13:00,ZGNN 011300Z AUTO 06004KT 6SM 07/02 A3033 RMK T00700020 IEM_DS3505
ZGNN,2000-02-01 14:00,ZGNN 011400Z AUTO 00000KT 6SM 06/02 A3033 RMK T00600020 IEM_DS3505
ZGNN,2000-02-01 15:00,ZGNN 011500Z AUTO 00000KT 10SM 05/01 A3033 RMK SLP276 T00520014 52009 IEM_DS3505
ZGNN,2000-02-01 16:00,ZGNN 011600Z AUTO 35004KT 6SM 05/01 A3033 RMK T00500010 IEM_DS3505
ZGNN,2000-02-01 17:00,ZGNN 011700Z AUTO 35006KT 6SM 05/02 A3033 RMK T00500020 IEM_DS3505
ZGNN,2000-02-01 18:00,ZGNN 011800Z AUTO 00000KT 10SM 03/01 RMK SLP272 T00310010 57003 IEM_DS3505
ZGNN,2000-02-01 21:00,ZGNN 012100Z AUTO 00000KT 7SM 02/01 RMK SLP262 T00190008 57010 IEM_DS3505
ZGNN,2000-02-01 22:00,ZGNN 012200Z AUTO 00000KT 4SM 02/01 A3033 RMK T00200010 IEM_DS3505
ZGNN,2000-02-01 23:00,ZGNN 012300Z AUTO 00000KT 3SM 02/00 A3033 RMK T00200000 IEM_DS3505
ZGNN,2000-02-02 00:00,ZGNN 020000Z AUTO 00000KT 4SM 01/00 A3036 RMK SLP280 T00090003 52016 IEM_DS3505
ZGNN,2000-02-02 01:00,ZGNN 020100Z AUTO 00000KT 1 1/2SM 04/02 A3036 RMK T00400020 IEM_DS3505
ZGNN,2000-02-02 02:00,ZGNN 020200Z AUTO 00000KT 2 1/2SM 07/02 A3039 RMK T00700020 IEM_DS3505
ZGNN,2000-02-02 03:00,ZGNN 020300Z AUTO 00000KT 5SM 09/02 A3039 RMK SLP289 T00940017 52010 IEM_DS3505
ZGNN,2000-02-02 04:00,ZGNN 020400Z AUTO 05004KT 5SM 12/02 A3033 RMK T01200020 IEM_DS3505
ZGNN,2000-02-02 05:00,ZGNN 020500Z AUTO 10006KT 6SM 14/02 A3030 RMK T01400020 IEM_DS3505
ZGNN,2000-02-02 06:00,ZGNN 020600Z AUTO 16004KT 6SM 15/03 A3024 RMK SLP238 T01540034 57049 IEM_DS3505
ZGNN,2000-02-02 07:00,ZGNN 020700Z AUTO 16004KT 6SM 17/04 A3018 RMK T01700040 IEM_DS3505
ZGNN,2000-02-02 08:00,ZGNN 020800Z AUTO 24004KT 6SM 18/05 A3015 RMK T01800050 IEM_DS3505
ZGNN,2000-02-02 09:00,ZGNN 020900Z AUTO 18004KT 7SM 18/05 A3012 RMK SLP205 T01790051 57032 IEM_DS3505
ZGNN,2000-02-02 10:00,ZGNN 021000Z AUTO 07006KT 6SM 17/05 A3012 RMK T01700050 IEM_DS3505
ZGNN,2000-02-02 11:00,ZGNN 021100Z AUTO 04004KT 6SM 14/06 A3015 RMK T01400060 IEM_DS3505
ZGNN,2000-02-02 12:00,ZGNN 021200Z AUTO 07002KT 5SM 12/06 A3015 RMK SLP214 T01200061 52007 IEM_DS3505
ZGNN,2000-02-02 13:00,ZGNN 021300Z AUTO 00000KT 6SM 11/05 A3018 RMK T01100050 IEM_DS3505
ZGNN,2000-02-02 14:00,ZGNN 021400Z AUTO 06004KT 6SM 10/05 A3018 RMK T01000050 IEM_DS3505
ZGNN,2000-02-02 15:00,ZGNN 021500Z AUTO 09002KT 7SM 10/05 RMK SLP232 T00990048 52020 IEM_DS3505
ZGNN,2000-02-02 18:00,ZGNN 021800Z AUTO 00000KT 7SM 06/04 RMK SLP228 T00610040 57004 IEM_DS3505
ZGNN,2000-02-02 21:00,ZGNN 022100Z AUTO 00000KT 6SM 05/03 RMK SLP225 T00470032 57002 IEM_DS3505
ZGNN,2000-02-02 22:00,ZGNN 022200Z AUTO 01004KT 6SM 05/04 A3021 RMK T00500040 IEM_DS3505
ZGNN,2000-02-02 23:00,ZGNN 022300Z AUTO 01004KT 6SM 05/04 A3021 RMK T00500040 IEM_DS3505
ZGNN,2000-02-03 00:00,ZGNN 030000Z AUTO 00000KT 3SM 04/03 A3024 RMK SLP246 T00390032 52018 IEM_DS3505
ZGNN,2000-02-03 01:00,ZGNN 030100Z AUTO 00000KT 3SM 08/05 A3027 RMK T00800050 IEM_DS3505
ZGNN,2000-02-03 02:00,ZGNN 030200Z AUTO 06004KT 5SM 10/04 A3027 RMK T01000040 IEM_DS3505
ZGNN,2000-02-03 03:00,ZGNN 030300Z AUTO 04006KT 5SM 12/04 A3027 RMK SLP252 T01240037 52008 IEM_DS3505
ZGNN,2000-02-03 04:00,ZGNN 030400Z AUTO 03006KT 5SM 16/05 A3024 RMK T01600050 IEM_DS3505
ZGNN,2000-02-03 05:00,ZGNN 030500Z AUTO 04006KT 6SM 17/06 A3021 RMK T01700060 IEM_DS3505
ZGNN,2000-02-03 06:00,ZGNN 030600Z AUTO 18006KT 7SM 18/07 A3015 RMK SLP204 T01780066 57047 IEM_DS3505
ZGNN,2000-02-03 07:00,ZGNN 030700Z AUTO 24006KT 6SM 20/07 A3009 RMK T02000070 IEM_DS3505
ZGNN,2000-02-03 08:00,ZGNN 030800Z AUTO 14006KT 6SM 21/07 A3006 RMK T02100070 IEM_DS3505
ZGNN,2000-02-03 09:00,ZGNN 030900Z AUTO 22004KT 10SM 21/08 A3003 RMK SLP174 T02070084 57029 IEM_DS3505
ZGNN,2000-02-03 10:00,ZGNN 031000Z AUTO 09004KT 6SM 20/08 A3003 RMK T02000080 IEM_DS3505
ZGNN,2000-02-03 11:00,ZGNN 031100Z AUTO 07002KT 6SM 17/09 A3006 RMK T01700090 IEM_DS3505
ZGNN,2000-02-03 12:00,ZGNN 031200Z AUTO 07002KT 7SM 16/08 A3006 RMK SLP187 T01560081 52011 IEM_DS3505
ZGNN,2000-02-03 13:00,ZGNN 031300Z AUTO 34004KT 6SM 13/08 A3009 RMK T01300080 IEM_DS3505
ZGNN,2000-02-03 15:00,ZGNN 031500Z AUTO 04004KT 7SM 13/08 RMK SLP188 T01330075 52003 IEM_DS3505
ZGNN,2000-02-03 18:00,ZGNN 031800Z AUTO 04002KT 7SM 12/07 RMK SLP195 T01190074 52004 IEM_DS3505
ZGNN,2000-02-03 21:00,ZGNN 032100Z AUTO 00000KT 7SM 11/08 RMK SLP185 T01120081 57009 IEM_DS3505
ZGNN,2000-02-03 22:00,ZGNN 032200Z AUTO 00000KT 6SM 11/08 A3009 RMK T01100080 IEM_DS3505
ZGNN,2000-02-03 23:00,ZGNN 032300Z AUTO 00000KT 5SM 10/08 A3012 RMK T01000080 IEM_DS3505
ZGNN,2000-02-04 00:00,ZGNN 040000Z AUTO 11002KT 4SM 13/11 A3012 RMK SLP198 T01340113 52012 IEM_DS3505
ZGNN,2000-02-04 01:00,ZGNN 040100Z AUTO 00000KT 4SM 14/12 A3015 RMK T01400120 IEM_DS3505
ZGNN,2000-02-04 02:00,ZGNN 040200Z AUTO 06004KT 4SM 14/11 A3015 RMK T01400110 IEM_DS3505
ZGNN,2000-02-04 03:00,ZGNN 040300Z AUTO 09002KT 4SM 14/09 A3015 RMK SLP215 T01440094 52016 IEM_DS3505
ZGNN,2000-02-04 04:00,ZGNN 040400Z AUTO 08006KT 3SM 15/08 A3015 RMK T01500080 IEM_DS3505
ZGNN,2000-02-04 05:00,ZGNN 040500Z AUTO 08004KT 3SM 15/09 A3012 RMK T01500090 IEM_DS3505
ZGNN,2000-02-04 06:00,ZGNN 040600Z AUTO 11002KT 4SM 16/09 A3009 RMK SLP187 T01550093 57028 IEM_DS3505
ZGNN,2000-02-04 07:00,ZGNN 040700Z AUTO 07006KT 3SM 15/09 A3006 RMK T01500090 IEM_DS3505
ZGNN,2000-02-04 08:00,ZGNN 040800Z AUTO 05006KT 3SM 14/10 A3006 RMK T01400100 IEM_DS3505
ZGNN,2000-02-04 09:00,ZGNN 040900Z AUTO 34002KT 4SM 14/10 A3006 RMK SLP176 T01380095 57011 IEM_DS3505
ZGNN,2000-02-04 10:00,ZGNN 041000Z AUTO 05004KT 3SM 13/09 A3006 RMK T01300090 IEM_DS3505
ZGNN,2000-02-04 11:00,ZGNN 041100Z AUTO 06004KT 2 1/2SM 13/08 A3009 RMK T01300080 IEM_DS3505
ZGNN,2000-02-04 12:00,ZGNN 041200Z AUTO 04004KT 7SM 12/08 A3009 RMK SLP194 T01230081 52018 IEM_DS3505
ZGNN,2000-02-04 15:00,ZGNN 041500Z AUTO 09002KT 7SM 11/07 RMK SLP216 T01090074 52021 IEM_DS3505
ZGNN,2000-02-04 18:00,ZGNN 041800Z AUTO 34006KT 6SM 11/07 RMK SLP222 T01070071 52007 IEM_DS3505
ZGNN,2000-02-04 21:00,ZGNN 042100Z AUTO 04004KT 6SM 09/07 RMK 70003 SLP225 T00890074 52002 IEM_DS3505
ZGNN,2000-02-04 22:00,ZGNN 042200Z AUTO 36004KT 3SM 09/07 A3021 RMK T00900070 IEM_DS3505
ZGNN,2000-02-04 23:00,ZGNN 042300Z AUTO 35004KT 3SM 08/07 A3024 RMK T00800070 IEM_DS3505
ZGNN,2000-02-05 00:00,ZGNN 050000Z AUTO 36006KT 5SM 08/07 A3027 RMK 60004 SLP249 T00820069 52023 IEM_DS3505
ZGNN,2000-02-05 01:00,ZGNN 050100Z AUTO 34002KT 7SM 08/06 A3027 RMK T00800060 IEM_DS3505
ZGNN,2000-02-05 02:00,ZGNN 050200Z AUTO 01006KT 7SM 09/07 A3030 RMK T00900070 IEM_DS3505
ZGNN,2000-02-05 03:00,ZGNN 050300Z AUTO 02006KT 19SM 09/06 A3030 RMK SLP264 T00900062 52014 IEM_DS3505
ZGNN,2000-02-05 04:00,ZGNN 050400Z AUTO 03010KT 7SM 10/05 A3027 RMK T01000050 IEM_DS3505
ZGNN,2000-02-05 05:00,ZGNN 050500Z AUTO 35006KT 7SM 10/05 A3024 RMK T01000050 IEM_DS3505
ZGNN,2000-02-05 06:00,ZGNN 050600Z AUTO 02008KT 19SM 10/06 A3021 RMK 60003 SLP235 T01050057 57028 IEM_DS3505
ZGNN,2000-02-05 07:00,ZGNN 050700Z AUTO 03006KT 7SM 12/05 A3018 RMK T01200050 IEM_DS3505
ZGNN,2000-02-05 08:00,ZGNN 050800Z AUTO 02008KT 7SM 12/05 A3018 RMK T01200050 IEM_DS3505
ZGNN,2000-02-05 09:00,ZGNN 050900Z AUTO 11004KT 19SM 12/06 A3015 RMK SLP215 T01160061 57020 IEM_DS3505
ZGNN,2000-02-05 10:00,ZGNN 051000Z AUTO 04006KT 7SM 12/06 A3018 RMK T01200060 IEM_DS3505
ZGNN,2000-02-05 11:00,ZGNN 051100Z AUTO 06004KT 7SM 11/07 A3018 RMK T01100070 IEM_DS3505
ZGNN,2000-02-05 12:00,ZGNN 051200Z AUTO 00000KT 12SM 10/06 A3018 RMK 60003 SLP227 T01010065 52011 IEM_DS3505
ZGNN,2000-02-05 13:00,ZGNN 051300Z AUTO 09004KT 7SM 10/06 A3021 RMK T01000060 IEM_DS3505
ZGNN,2000-02-05 14:00,ZGNN 051400Z AUTO 08004KT 7SM 10/06 A3021 RMK T01000060 IEM_DS3505
ZGNN,2000-02-05 15:00,ZGNN 051500Z AUTO 00000KT 12SM 10/06 A3021 RMK SLP232 T00990060 52005 IEM_DS3505
ZGNN,2000-02-05 18:00,ZGNN 051800Z AUTO 34004KT 11SM 10/05 RMK SLP228 T01020051 57003 IEM_DS3505
ZGNN,2000-02-05 20:00,ZGNN 052000Z AUTO 34008KT 7SM 10/04 A3018 RMK T01000040 IEM_DS3505
ZGNN,2000-02-05 21:00,ZGNN 052100Z AUTO 34006KT 12SM 10/04 A3018 RMK 70004 SLP217 T01010035 57011 IEM_DS3505
ZGNN,2000-02-05 22:00,ZGNN 052200Z AUTO 34004KT 7SM 10/04 A3018 RMK T01000040 IEM_DS3505
ZGNN,2000-02-05 23:00,ZGNN 052300Z AUTO 36006KT 7SM 10/04 A3018 RMK T01000040 IEM_DS3505
ZGNN,2000-02-06 00:00,ZGNN 060000Z AUTO 32006KT 19SM 10/04 A3021 RMK 70003 SLP231 T01020036 52014 IEM_DS3505
ZGNN,2000-02-06 01:00,ZGNN 060100Z AUTO 34006KT 7SM 11/03 A3021 RMK T01100030 IEM_DS3505
ZGNN,2000-02-06 02:00,ZGNN 060200Z AUTO 34008KT 7SM 11/03 A3024 RMK T01100030 IEM_DS3505
ZGNN,2000-02-06 03:00,ZGNN 060300Z AUTO 34006KT 12SM 11/03 A3024 RMK SLP238 T01140032 52007 IEM_DS3505
ZGNN,2000-02-06 04:00,ZGNN 060400Z AUTO 03006KT 7SM 13/03 A3021 RMK T01300030 IEM_DS3505
ZGNN,2000-02-06 05:00,ZGNN 060500Z AUTO 34006KT 7SM 13/03 A3015 RMK T01300030 IEM_DS3505
ZGNN,2000-02-06 06:00,ZGNN 060600Z AUTO 27006KT 12SM 15/03 A3012 RMK SLP194 T01460031 57042 IEM_DS3505
ZGNN,2000-02-06 07:00,ZGNN 060700Z AUTO 00000KT 7SM 15/04 A3006 RMK T01500040 IEM_DS3505
ZGNN,2000-02-06 08:00,ZGNN 060800Z AUTO 33004KT 7SM 16/05 A3003 RMK T01600050 IEM_DS3505
ZGNN,2000-02-06 09:00,ZGNN 060900Z AUTO 36004KT 12SM 15/04 A3003 RMK SLP173 T01500040 57021 IEM_DS3505
ZGNN,2000-02-06 10:00,ZGNN 061000Z AUTO 35004KT 7SM 15/04 A3003 RMK T01500040 IEM_DS3505
ZGNN,2000-02-06 11:00,ZGNN 061100Z AUTO 00000KT 7SM 14/05 A3003 RMK T01400050 IEM_DS3505
ZGNN,2000-02-06 12:00,ZGNN 061200Z AUTO 00000KT 12SM 14/07 A3006 RMK SLP180 T01380066 52007 IEM_DS3505
ZGNN,2000-02-06 13:00,ZGNN 061300Z AUTO 00000KT 7SM 13/08 A3006 RMK T01300080 IEM_DS3505
ZGNN,2000-02-06 14:00,ZGNN 061400Z AUTO 00000KT 7SM 13/08 A3009 RMK T01300080 IEM_DS3505
ZGNN,2000-02-06 15:00,ZGNN 061500Z AUTO 00000KT 12SM 13/08 A3009 RMK SLP193 T01300075 52012 IEM_DS3505
ZGNN,2000-02-06 18:00,ZGNN 061800Z AUTO 00000KT 12SM 12/09 RMK SLP198 T01220088 52006 IEM_DS3505
ZGNN,2000-02-06 21:00,ZGNN 062100Z AUTO 00000KT 11SM 12/09 RMK SLP193 T01230089 57005 IEM_DS3505
ZGNN,2000-02-06 22:00,ZGNN 062200Z AUTO 00000KT 7SM 13/08 A3009 RMK T01300080 IEM_DS3505
ZGNN,2000-02-06 23:00,ZGNN 062300Z AUTO 00000KT 7SM 13/08 A3012 RMK T01300080 IEM_DS3505
ZGNN,2000-02-07 00:00,ZGNN 070000Z AUTO 00000KT 7SM 12/09 A3015 RMK SLP213 T01230087 52020 IEM_DS3505
ZGNN,2000-02-07 01:00,ZGNN 070100Z AUTO 36008KT 7SM 13/06 A3018 RMK T01300060 IEM_DS3505
ZGNN,2000-02-07 02:00,ZGNN 070200Z AUTO 01004KT 7SM 14/07 A3021 RMK T01400070 IEM_DS3505
ZGNN,2000-02-07 03:00,ZGNN 070300Z AUTO 04004KT 12SM 14/07 A3021 RMK SLP229 T01440066 52016 IEM_DS3505
ZGNN,2000-02-07 04:00,ZGNN 070400Z AUTO 35006KT 7SM 15/07 A3018 RMK T01500070 IEM_DS3505
ZGNN,2000-02-07 05:00,ZGNN 070500Z AUTO 35008KT 7SM 16/07 A3015 RMK T01600070 IEM_DS3505
ZGNN,2000-02-07 06:00,ZGNN 070600Z AUTO 34012KT 12SM 16/06 A3012 RMK SLP202 T01630055 57027 IEM_DS3505
ZGNN,2000-02-07 07:00,ZGNN 070700Z AUTO 31006KT 7SM 17/06 A3012 RMK T01700060 IEM_DS3505
ZGNN,2000-02-07 08:00,ZGNN 070800Z AUTO 34008KT 7SM 17/06 A3009 RMK T01700060 IEM_DS3505
ZGNN,2000-02-07 09:00,ZGNN 070900Z AUTO 32008KT 12SM 17/05 A3009 RMK SLP190 T01680046 57011 IEM_DS3505
ZGNN,2000-02-07 10:00,ZGNN 071000Z AUTO 34004KT 6SM 16/06 A3009 RMK T01600060 IEM_DS3505
ZGNN,2000-02-07 11:00,ZGNN 071100Z AUTO 01004KT 6SM 15/05 A3012 RMK T01500050 IEM_DS3505
ZGNN,2000-02-07 12:00,ZGNN 071200Z AUTO 36006KT 12SM 13/05 A3012 RMK SLP201 T01330052 52010 IEM_DS3505
ZGNN,2000-02-07 13:00,ZGNN 071300Z AUTO 36006KT 6SM 11/06 A3015 RMK T01100060 IEM_DS3505
ZGNN,2000-02-07 14:00,ZGNN 071400Z AUTO 35004KT 6SM 12/06 A3015 RMK T01200060 IEM_DS3505
ZGNN,2000-02-07 15:00,ZGNN 071500Z AUTO 00000KT 10SM 12/05 A3018 RMK SLP217 T01210049 52016 IEM_DS3505
ZGNN,2000-02-07 21:00,ZGNN 072100Z AUTO 00000KT 9SM 11/07 RMK SLP195 T01080073 57010 IEM_DS3505
ZGNN,2000-02-07 22:00,ZGNN 072200Z AUTO 07004KT 7SM 11/04 A3012 RMK T01100040 IEM_DS3505
ZGNN,2000-02-07 23:00,ZGNN 072300Z AUTO 07004KT 7SM 11/04 A3012 RMK T01100040 IEM_DS3505
ZGNN,2000-02-08 00:00,ZGNN 080000Z AUTO 00000KT 7SM 11/03 A3015 RMK SLP208 T01130034 52012 IEM_DS3505
ZGNN,2000-02-08 01:00,ZGNN 080100Z AUTO 06004KT 7SM 12/02 A3018 RMK T01200020 IEM_DS3505
ZGNN,2000-02-08 02:00,ZGNN 080200Z AUTO 06006KT 7SM 13/01 A3021 RMK T01300010 IEM_DS3505
ZGNN,2000-02-08 03:00,ZGNN 080300Z AUTO 09004KT 7SM 13/02 A3021 RMK SLP227 T01340019 52019 IEM_DS3505
ZGNN,2000-02-08 04:00,ZGNN 080400Z AUTO 06006KT 7SM 14/02 A3018 RMK T01400020 IEM_DS3505
ZGNN,2000-02-08 06:00,ZGNN 080600Z AUTO 09002KT 9SM 15/01 A3012 RMK SLP199 T01540006 57027 IEM_DS3505
ZGNN,2000-02-08 07:00,ZGNN 080700Z AUTO 35004KT 7SM 16/02 A3009 RMK T01600020 IEM_DS3505
ZGNN,2000-02-08 08:00,ZGNN 080800Z AUTO 02004KT 7SM 15/02 A3006 RMK T01500020 IEM_DS3505
ZGNN,2000-02-08 09:00,ZGNN 080900Z AUTO 09004KT 11SM 15/02 A3006 RMK SLP178 T01480016 57021 IEM_DS3505
ZGNN,2000-02-08 10:00,ZGNN 081000Z AUTO 04006KT 7SM 14/03 A3006 RMK T01400030 IEM_DS3505
ZGNN,2000-02-08 11:00,ZGNN 081100Z AUTO 03008KT 7SM 13/02 A3009 RMK T01300020 IEM_DS3505
ZGNN,2000-02-08 12:00,ZGNN 081200Z AUTO 14002KT 12SM 12/01 A3009 RMK SLP195 T01210013 52016 IEM_DS3505
ZGNN,2000-02-08 13:00,ZGNN 081300Z AUTO 05004KT 6SM 12/01 A3012 RMK T01200010 IEM_DS3505
ZGNN,2000-02-08 15:00,ZGNN 081500Z AUTO 09002KT 12SM 11/M01 RMK SLP209 T01091012 52014 IEM_DS3505
ZGNN,2000-02-08 18:00,ZGNN 081800Z AUTO 00000KT 12SM 10/02 RMK SLP208 T01020019 54000 IEM_DS3505
ZGNN,2000-02-08 21:00,ZGNN 082100Z AUTO 00000KT 9SM 10/02 RMK SLP196 T01000019 57012 IEM_DS3505
ZGNN,2000-02-08 22:00,ZGNN 082200Z AUTO 04004KT 7SM 10/02 A3012 RMK T01000020 IEM_DS3505
ZGNN,2000-02-08 23:00,ZGNN 082300Z AUTO 00000KT 7SM 10/03 A3012 RMK T01000030 IEM_DS3505
ZGNN,2000-02-09 00:00,ZGNN 090000Z AUTO 00000KT 6SM 10/02 A3015 RMK SLP204 T01000025 52007 IEM_DS3505
ZGNN,2000-02-09 01:00,ZGNN 090100Z AUTO 00000KT 7SM 10/03 A3015 RMK T01000030 IEM_DS3505
ZGNN,2000-02-09 02:00,ZGNN 090200Z AUTO 00000KT 7SM 11/02 A3015 RMK T01100020 IEM_DS3505
ZGNN,2000-02-09 03:00,ZGNN 090300Z AUTO 04002KT 7SM 11/02 A3015 RMK SLP217 T01110020 52012 IEM_DS3505
ZGNN,2000-02-09 04:00,ZGNN 090400Z AUTO 07006KT 7SM 13/02 A3012 RMK T01300020 IEM_DS3505
ZGNN,2000-02-09 05:00,ZGNN 090500Z AUTO 36006KT 7SM 13/03 A3009 RMK T01300030 IEM_DS3505
ZGNN,2000-02-09 06:00,ZGNN 090600Z AUTO 02004KT 7SM 13/02 RMK SLP182 T01300023 57034 IEM_DS3505
ZGNN,2000-02-09 07:00,ZGNN 090700Z AUTO 05006KT 7SM 13/03 A3003 RMK T01300030 IEM_DS3505
ZGNN,2000-02-09 08:00,ZGNN 090800Z AUTO 03004KT 7SM 13/03 A3003 RMK T01300030 IEM_DS3505
ZGNN,2000-02-09 09:00,ZGNN 090900Z AUTO 09002KT 6SM 13/03 A3000 RMK SLP164 T01260032 57018 IEM_DS3505
ZGNN,2000-02-09 10:00,ZGNN 091000Z AUTO 05002KT 12/04 A3003 RMK T01200040 IEM_DS3505
ZGNN,2000-02-09 11:00,ZGNN 091100Z AUTO 02002KT 12/05 A3003 RMK T01200050 IEM_DS3505
ZGNN,2000-02-09 12:00,ZGNN 091200Z AUTO 00000KT 6SM 12/06 A3003 RMK SLP177 T01160056 52013 IEM_DS3505
ZGNN,2000-02-09 13:00,ZGNN 091300Z AUTO 09002KT 3SM 12/06 A3006 RMK T01200060 IEM_DS3505
ZGNN,2000-02-09 14:00,ZGNN 091400Z AUTO 00000KT 3SM 12/06 A3006 RMK T01200060 IEM_DS3505
ZGNN,2000-02-09 15:00,ZGNN 091500Z AUTO 00000KT 6SM 12/06 RMK SLP184 T01150064 52007 IEM_DS3505
ZGNN,2000-02-09 18:00,ZGNN 091800Z AUTO 00000KT 6SM 12/07 RMK 60003 SLP179 T01160068 57004 IEM_DS3505
ZGNN,2000-02-09 21:00,ZGNN 092100Z AUTO 09002KT 6SM 11/07 RMK 70003 SLP166 T01060070 57013 IEM_DS3505
ZGNN,2000-02-09 22:00,ZGNN 092200Z AUTO 02002KT 1 1/2SM 09/08 A3003 RMK T00900080 IEM_DS3505
ZGNN,2000-02-09 23:00,ZGNN 092300Z AUTO 04004KT 1SM 09/09 A3003 RMK T00900090 IEM_DS3505
ZGNN,2000-02-10 00:00,ZGNN 100000Z AUTO 00000KT 1 1/4SM 09/09 A3006 RMK 60004 SLP178 T00940088 52011 IEM_DS3505
ZGNN,2000-02-10 02:00,ZGNN 100200Z AUTO 35002KT 1SM 10/09 A3009 RMK T01000090 IEM_DS3505
ZGNN,2000-02-10 03:00,ZGNN 100300Z AUTO 00000KT 2 1/2SM 10/10 A3009 RMK SLP190 T01040096 52012 IEM_DS3505
ZGNN,2000-02-10 04:00,ZGNN 100400Z AUTO 03004KT 1 1/4SM 11/10 A3006 RMK T01100100 IEM_DS3505
ZGNN,2000-02-10 05:00,ZGNN 100500Z AUTO 05004KT 1SM 10/10 A3003 RMK T01000100 IEM_DS3505
ZGNN,2000-02-10 06:00,ZGNN 100600Z AUTO 09002KT 3SM 11/10 A3000 RMK 60004 SLP162 T01080096 57028 IEM_DS3505
ZGNN,2000-02-10 07:00,ZGNN 100700Z AUTO 00000KT 1 1/4SM 11/10 A2997 RMK T01100100 IEM_DS3505
ZGNN,2000-02-10 08:00,ZGNN 100800Z AUTO 06004KT 1 1/4SM 11/10 A2994 RMK T01100100 IEM_DS3505
ZGNN,2000-02-10 09:00,ZGNN 100900Z AUTO 00000KT 3SM 11/10 A2994 RMK SLP147 T01110101 57015 IEM_DS3505
ZGNN,2000-02-10 10:00,ZGNN 101000Z AUTO 00000KT 1 1/4SM 11/10 A2997 RMK T01100100 IEM_DS3505
ZGNN,2000-02-10 11:00,ZGNN 101100Z AUTO 33004KT 1 1/4SM 11/10 A2997 RMK T01100100 IEM_DS3505
ZGNN,2000-02-10 12:00,ZGNN 101200Z AUTO 32002KT 2 1/2SM 11/10 A3000 RMK 60003 SLP156 T01090103 52009 IEM_DS3505
ZGNN,2000-02-10 13:00,ZGNN 101300Z AUTO 00000KT 1SM 11/11 A3000 RMK T01100110 IEM_DS3505
ZGNN,2000-02-10 14:00,ZGNN 101400Z AUTO 00000KT 1SM 11/11 A3003 RMK T01100110 IEM_DS3505
ZGNN,2000-02-10 15:00,ZGNN 101500Z AUTO 00000KT 2 1/2SM 11/11 RMK SLP172 T01110107 52016 IEM_DS3505
ZGNN,2000-02-10 18:00,ZGNN 101800Z AUTO 36002KT 2SM 11/11 RMK 60003 SLP170 T01110107 57002 IEM_DS3505
ZGNN,2000-02-10 20:00,ZGNN 102000Z AUTO 32004KT 2SM 11/11 RMK 70011 SLP163 T01120108 57007 IEM_DS3505
ZGNN,2000-02-10 21:00,ZGNN 102100Z AUTO 32004KT 2SM 11/11 RMK 70011 SLP163 T01120108 57007 IEM_DS3505
ZGNN,2000-02-10 22:00,ZGNN 102200Z AUTO 00000KT 1 1/2SM 11/11 A3000 RMK T01100110 IEM_DS3505
ZGNN,2000-02-10 23:00,ZGNN 102300Z AUTO 00000KT 1 1/2SM 11/11 A3003 RMK T01100110 IEM_DS3505
ZGNN,2000-02-11 00:00,ZGNN 110000Z AUTO 00000KT 2 1/2SM 11/11 A3003 RMK 60000 SLP174 T01120108 52011 IEM_DS3505
ZGNN,2000-02-11 01:00,ZGNN 110100Z AUTO 03004KT 1 1/2SM 12/11 A3006 RMK T01200110 IEM_DS3505
ZGNN,2000-02-11 02:00,ZGNN 110200Z AUTO 03004KT 1 1/4SM 12/11 A3006 RMK T01200110 IEM_DS3505
ZGNN,2000-02-11 03:00,ZGNN 110300Z AUTO 32006KT 2SM 12/11 A3006 RMK SLP182 T01200111 52008 IEM_DS3505
ZGNN,2000-02-11 04:00,ZGNN 110400Z AUTO 04004KT 1 1/4SM 12/11 A3006 RMK T01200110 IEM_DS3505
ZGNN,2000-02-11 05:00,ZGNN 110500Z AUTO 34004KT 2SM 12/11 A3003 RMK T01200110 IEM_DS3505
ZGNN,2000-02-11 06:00,ZGNN 110600Z AUTO 36006KT 3SM 12/11 A3000 RMK 60000 SLP158 T01220114 57023 IEM_DS3505
ZGNN,2000-02-11 07:00,ZGNN 110700Z AUTO 00000KT 2 1/2SM 13/12 A2997 RMK T01300120 IEM_DS3505
ZGNN,2000-02-11 08:00,ZGNN 110800Z AUTO 00000KT 2 1/2SM 13/12 A2997 RMK T01300120 IEM_DS3505
ZGNN,2000-02-11 09:00,ZGNN 110900Z AUTO 36004KT 4SM 13/12 A2994 RMK SLP145 T01290116 57013 IEM_DS3505
ZGNN,2000-02-11 10:00,ZGNN 111000Z AUTO 00000KT 2 1/2SM 13/12 A2994 RMK T01300120 IEM_DS3505
ZGNN,2000-02-11 11:00,ZGNN 111100Z AUTO 03004KT 2 1/2SM 13/12 A2997 RMK T01300120 IEM_DS3505
ZGNN,2000-02-11 12:00,ZGNN 111200Z AUTO 00000KT 3SM 13/12 A3000 RMK 60003 SLP158 T01280119 52013 IEM_DS3505
ZGNN,2000-02-11 13:00,ZGNN 111300Z AUTO 00000KT 1 1/4SM 13/12 A3000 RMK T01300120 IEM_DS3505
ZGNN,2000-02-11 14:00,ZGNN 111400Z AUTO 00000KT 1SM 12/12 A3000 RMK T01200120 IEM_DS3505
ZGNN,2000-02-11 15:00,ZGNN 111500Z AUTO 32004KT 2 1/2SM 13/12 A3003 RMK SLP168 T01260122 52010 IEM_DS3505
ZGNN,2000-02-11 16:00,ZGNN 111600Z AUTO 00000KT 1SM 12/12 A3003 RMK T01200120 IEM_DS3505
ZGNN,2000-02-11 18:00,ZGNN 111800Z AUTO 00000KT 2SM 13/12 RMK 60003 SLP161 T01260122 57007 IEM_DS3505
ZGNN,2000-02-11 21:00,ZGNN 112100Z AUTO 00000KT 1 1/4SM 12/12 RMK 70001 SLP147 T01250121 57014 IEM_DS3505
ZGNN,2000-02-11 22:00,ZGNN 112200Z AUTO 00000KT 1/4SM 13/12 A2997 RMK T01300120 IEM_DS3505
ZGNN,2000-02-11 23:00,ZGNN 112300Z AUTO 00000KT 1/4SM 13/12 A2997 RMK T01300120 IEM_DS3505
ZGNN,2000-02-12 00:00,ZGNN 120000Z AUTO 00000KT 1/4SM 13/12 A3000 RMK 60000 SLP158 T01260124 52011 IEM_DS3505
ZGNN,2000-02-12 01:00,ZGNN 120100Z AUTO 00000KT 1SM 13/13 A3000 RMK T01300130 IEM_DS3505
ZGNN,2000-02-12 02:00,ZGNN 120200Z AUTO 00000KT 1SM 13/13 A3000 RMK T01300130 IEM_DS3505
ZGNN,2000-02-12 03:00,ZGNN 120300Z AUTO 14004KT 2SM 14/13 A3003 RMK SLP166 T01360129 52008 IEM_DS3505
ZGNN,2000-02-12 05:00,ZGNN 120500Z AUTO 02004KT 1SM 15/14 A2997 RMK T01500140 IEM_DS3505
ZGNN,2000-02-12 06:00,ZGNN 120600Z AUTO 11002KT 3SM 15/14 A2991 RMK 60003 SLP132 T01540140 57033 IEM_DS3505
ZGNN,2000-02-12 07:00,ZGNN 120700Z AUTO 03004KT 1 1/4SM 17/15 A2988 RMK T01700150 IEM_DS3505
ZGNN,2000-02-12 08:00,ZGNN 120800Z AUTO 01004KT 1 1/4SM 19/16 A2985 RMK T01900160 IEM_DS3505
ZGNN,2000-02-12 09:00,ZGNN 120900Z AUTO 14006KT 7SM 21/17 A2983 RMK SLP103 T02100170 57027 IEM_DS3505
ZGNN,2000-02-12 10:00,ZGNN 121000Z AUTO 12008KT 7SM 20/17 A2983 RMK T02000170 IEM_DS3505
ZGNN,2000-02-12 11:00,ZGNN 121100Z AUTO 16008KT 7SM 19/17 A2983 RMK T01900170 IEM_DS3505
ZGNN,2000-02-12 12:00,ZGNN 121200Z AUTO 14002KT 7SM 19/17 A2985 RMK SLP108 T01890168 52005 IEM_DS3505
ZGNN,2000-02-12 13:00,ZGNN 121300Z AUTO 00000KT 7SM 17/16 A2985 RMK T01700160 IEM_DS3505
ZGNN,2000-02-12 14:00,ZGNN 121400Z AUTO 00000KT 7SM 17/16 A2988 RMK T01700160 IEM_DS3505
ZGNN,2000-02-12 15:00,ZGNN 121500Z AUTO 00000KT 7SM 16/16 A2988 RMK SLP121 T01620155 52012 IEM_DS3505
ZGNN,2000-02-12 18:00,ZGNN 121800Z AUTO 00000KT 5SM 16/15 RMK SLP117 T01550153 57004 IEM_DS3505
ZGNN,2000-02-12 21:00,ZGNN 122100Z AUTO 00000KT 5SM 16/16 RMK 70000 SLP111 T01600157 57004 IEM_DS3505
ZGNN,2000-02-12 22:00,ZGNN 122200Z AUTO 00000KT 3SM 16/16 A2985 RMK T01600160 IEM_DS3505
ZGNN,2000-02-12 23:00,ZGNN 122300Z AUTO 00000KT 3SM 16/16 A2988 RMK T01600160 IEM_DS3505
ZGNN,2000-02-13 00:00,ZGNN 130000Z AUTO 00000KT 2 1/2SM 16/16 A2988 RMK 70003 SLP124 T01580155 52012 IEM_DS3505
ZGNN,2000-02-13 01:00,ZGNN 130100Z AUTO 00000KT 1 1/4SM 17/17 A2991 RMK T01700170 IEM_DS3505
ZGNN,2000-02-13 02:00,ZGNN 130200Z AUTO 15006KT 7SM 19/17 A2994 RMK T01900170 IEM_DS3505
ZGNN,2000-02-13 03:00,ZGNN 130300Z AUTO 18008KT 4SM 20/17 A2991 RMK SLP129 T01950172 52005 IEM_DS3505
ZGNN,2000-02-13 04:00,ZGNN 130400Z AUTO 15010KT 7SM 22/17 A2988 RMK T02200170 IEM_DS3505
ZGNN,2000-02-13 05:00,ZGNN 130500Z AUTO 13008KT 7SM 22/17 A2988 RMK T02200170 IEM_DS3505
ZGNN,2000-02-13 06:00,ZGNN 130600Z AUTO 14004KT 9SM 22/17 A2985 RMK SLP105 T02220169 57023 IEM_DS3505
ZGNN,2000-02-13 07:00,ZGNN 130700Z AUTO 11010KT 7SM 24/17 A2980 RMK T02400170 IEM_DS3505
ZGNN,2000-02-13 08:00,ZGNN 130800Z AUTO 14008KT 7SM 23/17 A2980 RMK T02300170 IEM_DS3505
ZGNN,2000-02-13 09:00,ZGNN 130900Z AUTO 18004KT 11SM 22/17 A2980 RMK SLP089 T02250170 57015 IEM_DS3505
ZGNN,2000-02-13 10:00,ZGNN 131000Z AUTO 14008KT 7SM 22/17 A2983 RMK T02200170 IEM_DS3505
ZGNN,2000-02-13 11:00,ZGNN 131100Z AUTO 13006KT 7SM 21/17 A2983 RMK T02100170 IEM_DS3505
ZGNN,2000-02-13 12:00,ZGNN 131200Z AUTO 09004KT 9SM 20/17 A2985 RMK SLP109 T02030172 52019 IEM_DS3505
ZGNN,2000-02-13 13:00,ZGNN 131300Z AUTO 13006KT 7SM 20/17 A2988 RMK T02000170 IEM_DS3505
ZGNN,2000-02-13 14:00,ZGNN 131400Z AUTO 13004KT 7SM 19/17 A2991 RMK T01900170 IEM_DS3505
ZGNN,2000-02-13 15:00,ZGNN 131500Z AUTO 00000KT 9SM 19/17 A2991 RMK SLP130 T01860170 52021 IEM_DS3505
ZGNN,2000-02-13 18:00,ZGNN 131800Z AUTO 00000KT 17/16 RMK SLP130 T01720165 54000 IEM_DS3505
ZGNN,2000-02-13 21:00,ZGNN 132100Z AUTO 00000KT 8SM 16/16 RMK SLP128 T01600155 57002 IEM_DS3505
ZGNN,2000-02-13 22:00,ZGNN 132200Z AUTO 00000KT 7SM 17/16 A2994 RMK T01700160 IEM_DS3505
ZGNN,2000-02-13 23:00,ZGNN 132300Z AUTO 00000KT 7SM 17/16 A2997 RMK T01700160 IEM_DS3505
ZGNN,2000-02-14 00:00,ZGNN 140000Z AUTO 00000KT 2 1/2SM 18/17 A3000 RMK SLP152 T01780170 52024 IEM_DS3505
ZGNN,2000-02-14 01:00,ZGNN 140100Z AUTO 04004KT 1 1/4SM 18/17 A3000 RMK T01800170 IEM_DS3505
ZGNN,2000-02-14 02:00,ZGNN 140200Z AUTO 07006KT 1 1/4SM 17/16 A3006 RMK T01700160 IEM_DS3505
ZGNN,2000-02-14 03:00,ZGNN 140300Z AUTO 02004KT 5SM 17/15 A3006 RMK SLP183 T01680149 52029 IEM_DS3505
ZGNN,2000-02-14 04:00,ZGNN 140400Z AUTO 05004KT 7SM 16/14 A3006 RMK T01600140 IEM_DS3505
ZGNN,2000-02-14 05:00,ZGNN 140500Z AUTO 04006KT 7SM 16/14 A3006 RMK T01600140 IEM_DS3505
ZGNN,2000-02-14 06:00,ZGNN 140600Z AUTO 04004KT 4SM 16/14 A3003 RMK 60003 SLP170 T01610140 57013 IEM_DS3505
ZGNN,2000-02-14 07:00,ZGNN 140700Z AUTO 34006KT 2 1/2SM 15/14 A3003 RMK T01500140 IEM_DS3505
ZGNN,2000-02-14 08:00,ZGNN 140800Z AUTO 34004KT 3SM 15/14 A3003 RMK T01500140 IEM_DS3505
ZGNN,2000-02-14 09:00,ZGNN 140900Z AUTO 36006KT 2 1/2SM 14/14 A3003 RMK T01400140 IEM_DS3505
ZGNN,2000-02-14 10:00,ZGNN 141000Z AUTO 02006KT 3SM 14/14 A3003 RMK T01400140 IEM_DS3505
ZGNN,2000-02-14 11:00,ZGNN 141100Z AUTO 03004KT 3SM 14/13 A3006 RMK T01400130 IEM_DS3505
ZGNN,2000-02-14 12:00,ZGNN 141200Z AUTO 00000KT 3SM 14/13 A3006 RMK 60003 SLP183 T01390126 52012 IEM_DS3505
ZGNN,2000-02-14 13:00,ZGNN 141300Z AUTO 00000KT 3SM 14/13 A3009 RMK T01400130 IEM_DS3505
ZGNN,2000-02-14 15:00,ZGNN 141500Z AUTO 04002KT 6SM 14/12 RMK SLP199 T01380118 52015 IEM_DS3505
ZGNN,2000-02-14 18:00,ZGNN 141800Z AUTO 00000KT 7SM 13/11 RMK 60003 SLP198 T01320113 57001 IEM_DS3505
ZGNN,2000-02-14 21:00,ZGNN 142100Z AUTO 00000KT 9SM 13/10 RMK 70003 SLP199 T01290102 54000 IEM_DS3505
ZGNN,2000-02-14 22:00,ZGNN 142200Z AUTO 00000KT 7SM 13/11 A3012 RMK T01300110 IEM_DS3505
ZGNN,2000-02-14 23:00,ZGNN 142300Z AUTO 00000KT 7SM 13/11 A3015 RMK T01300110 IEM_DS3505
ZGNN,2000-02-15 00:00,ZGNN 150000Z AUTO 00000KT 9SM 13/11 A3018 RMK 70003 SLP219 T01270108 52020 IEM_DS3505
ZGNN,2000-02-15 01:00,ZGNN 150100Z AUTO 03002KT 7SM 13/10 A3021 RMK T01300100 IEM_DS3505
ZGNN,2000-02-15 02:00,ZGNN 150200Z AUTO 34004KT 7SM 13/09 A3021 RMK T01300090 IEM_DS3505
ZGNN,2000-02-15 03:00,ZGNN 150300Z AUTO 34006KT 7SM 14/08 A3021 RMK SLP235 T01380084 52016 IEM_DS3505
ZGNN,2000-02-15 04:00,ZGNN 150400Z AUTO 36004KT 7SM 14/08 A3021 RMK T01400080 IEM_DS3505
ZGNN,2000-02-15 05:00,ZGNN 150500Z AUTO 02006KT 7SM 14/09 A3018 RMK T01400090 IEM_DS3505
ZGNN,2000-02-15 06:00,ZGNN 150600Z AUTO 00000KT 7SM 14/07 A3015 RMK SLP208 T01440073 57027 IEM_DS3505
ZGNN,2000-02-15 07:00,ZGNN 150700Z AUTO 35004KT 7SM 15/08 A3012 RMK T01500080 IEM_DS3505
ZGNN,2000-02-15 08:00,ZGNN 150800Z AUTO 02006KT 14/08 A3009 RMK T01400080 IEM_DS3505
ZGNN,2000-02-15 09:00,ZGNN 150900Z AUTO 36004KT 7SM 14/08 A3009 RMK SLP189 T01430079 57019 IEM_DS3505
ZGNN,2000-02-15 10:00,ZGNN 151000Z AUTO 06004KT 4SM 14/09 A3009 RMK T01400090 IEM_DS3505
ZGNN,2000-02-15 11:00,ZGNN 151100Z AUTO 07004KT 13/07 A3012 RMK T01300070 IEM_DS3505
ZGNN,2000-02-15 12:00,ZGNN 151200Z AUTO 09004KT 6SM 13/07 A3015 RMK 60003 SLP206 T01290067 52017 IEM_DS3505
ZGNN,2000-02-15 13:00,ZGNN 151300Z AUTO 07006KT 4SM 12/08 A3015 RMK T01200080 IEM_DS3505
ZGNN,2000-02-15 15:00,ZGNN 151500Z AUTO 18004KT 6SM 12/07 RMK SLP210 T01200070 52004 IEM_DS3505
ZGNN,2000-02-15 18:00,ZGNN 151800Z AUTO 00000KT 4SM 11/08 RMK 60003 SLP200 T01060081 57010 IEM_DS3505
ZGNN,2000-02-15 21:00,ZGNN 152100Z AUTO 00000KT 2 1/2SM 10/09 RMK 70002 SLP193 T01000092 57008 IEM_DS3505
ZGNN,2000-02-15 22:00,ZGNN 152200Z AUTO 00000KT 1 1/4SM 10/10 A3009 RMK T01000100 IEM_DS3505
ZGNN,2000-02-15 23:00,ZGNN 152300Z AUTO 03004KT 1SM 10/10 A3009 RMK T01000100 IEM_DS3505
ZGNN,2000-02-16 00:00,ZGNN 160000Z AUTO 32004KT 1 1/4SM 10/10 A3012 RMK 60004 SLP201 T00990095 52008 IEM_DS3505
ZGNN,2000-02-16 01:00,ZGNN 160100Z AUTO 03004KT 1SM 10/10 A3015 RMK T01000100 IEM_DS3505
ZGNN,2000-02-16 02:00,ZGNN 160200Z AUTO 04004KT 1 1/4SM 10/10 A3015 RMK T01000100 IEM_DS3505
ZGNN,2000-02-16 03:00,ZGNN 160300Z AUTO 00000KT 1 1/4SM 10/09 A3015 RMK SLP217 T01000094 52015 IEM_DS3505
ZGNN,2000-02-16 04:00,ZGNN 160400Z AUTO 34004KT 1 1/4SM 10/10 A3015 RMK T01000100 IEM_DS3505
ZGNN,2000-02-16 05:00,ZGNN 160500Z AUTO 33008KT 1 1/2SM 10/10 A3012 RMK T01000100 IEM_DS3505
ZGNN,2000-02-16 06:00,ZGNN 160600Z AUTO 34004KT 1 1/4SM 10/09 A3012 RMK 60004 SLP197 T01010093 57020 IEM_DS3505
ZGNN,2000-02-16 07:00,ZGNN 160700Z AUTO 01006KT 2 1/2SM 10/10 A3009 RMK T01000100 IEM_DS3505
ZGNN,2000-02-16 08:00,ZGNN 160800Z AUTO 36006KT 1 1/4SM 10/10 A3009 RMK T01000100 IEM_DS3505
ZGNN,2000-02-16 09:00,ZGNN 160900Z AUTO 34002KT 2 1/2SM 10/09 A3009 RMK SLP188 T00980092 57009 IEM_DS3505
ZGNN,2000-02-16 12:00,ZGNN 161200Z AUTO 07002KT 2 1/2SM 10/09 RMK 60002 SLP200 T00960092 52012 IEM_DS3505
ZGNN,2000-02-16 13:00,ZGNN 161300Z AUTO 06004KT 2SM 10/09 A3012 RMK T01000090 IEM_DS3505
ZGNN,2000-02-16 15:00,ZGNN 161500Z AUTO 00000KT 2 1/2SM 09/09 RMK SLP210 T00940090 52010 IEM_DS3505
ZGNN,2000-02-16 18:00,ZGNN 161800Z AUTO 00000KT 2 1/2SM 09/09 RMK 60000 SLP203 T00940092 57007 IEM_DS3505
ZGNN,2000-02-16 21:00,ZGNN 162100Z AUTO 00000KT 2SM 10/09 RMK 70013 SLP189 T00960094 57014 IEM_DS3505
ZGNN,2000-02-16 22:00,ZGNN 162200Z AUTO 00000KT 1 1/2SM 10/10 A3009 RMK T01000100 IEM_DS3505
ZGNN,2000-02-16 23:00,ZGNN 162300Z AUTO 00000KT 1 1/2SM 10/10 A3009 RMK T01000100 IEM_DS3505
ZGNN,2000-02-17 00:00,ZGNN 170000Z AUTO 00000KT 1 1/4SM 10/10 A3012 RMK 60003 SLP200 T01010097 52011 IEM_DS3505
ZGNN,2000-02-17 01:00,ZGNN 170100Z AUTO 03004KT 1SM 10/10 A3012 RMK T01000100 IEM_DS3505
ZGNN,2000-02-17 02:00,ZGNN 170200Z AUTO 00000KT 1SM 10/10 A3015 RMK T01000100 IEM_DS3505
ZGNN,2000-02-17 03:00,ZGNN 170300Z AUTO 00000KT 2 1/2SM 11/10 A3015 RMK SLP208 T01080100 52008 IEM_DS3505
ZGNN,2000-02-17 04:00,ZGNN 170400Z AUTO 00000KT 1 1/4SM 11/11 A3012 RMK T01100110 IEM_DS3505
ZGNN,2000-02-17 05:00,ZGNN 170500Z AUTO 00000KT 1 1/4SM 11/11 A3009 RMK T01100110 IEM_DS3505
ZGNN,2000-02-17 06:00,ZGNN 170600Z AUTO 07002KT 2 1/2SM 11/10 A3003 RMK 60002 SLP175 T01110103 57032 IEM_DS3505
ZGNN,2000-02-17 07:00,ZGNN 170700Z AUTO 00000KT 1 1/4SM 11/11 A3000 RMK T01100110 IEM_DS3505
ZGNN,2000-02-17 08:00,ZGNN 170800Z AUTO 00000KT 1 1/4SM 11/11 A2997 RMK T01100110 IEM_DS3505
ZGNN,2000-02-17 09:00,ZGNN 170900Z AUTO 00000KT 2 1/2SM 11/11 A2997 RMK SLP153 T01130107 57022 IEM_DS3505
ZGNN,2000-02-17 10:00,ZGNN 171000Z AUTO 09004KT 1SM 11/11 A2997 RMK T01100110 IEM_DS3505
ZGNN,2000-02-17 11:00,ZGNN 171100Z AUTO 00000KT 1SM 11/11 A2997 RMK T01100110 IEM_DS3505
ZGNN,2000-02-17 12:00,ZGNN 171200Z AUTO 11004KT 2 1/2SM 11/11 A2997 RMK 60003 SLP154 T01120108 52001 IEM_DS3505
ZGNN,2000-02-17 13:00,ZGNN 171300Z AUTO 13004KT 1SM 11/11 A3000 RMK T01100110 IEM_DS3505
ZGNN,2000-02-17 14:00,ZGNN 171400Z AUTO 08006KT 1SM 11/11 A3000 RMK T01100110 IEM_DS3505
ZGNN,2000-02-17 15:00,ZGNN 171500Z AUTO 00000KT 2SM 11/11 RMK SLP162 T01120108 52008 IEM_DS3505
ZGNN,2000-02-17 18:00,ZGNN 171800Z AUTO 09002KT 2SM 12/11 RMK 60004 SLP156 T01160114 57005 IEM_DS3505
ZGNN,2000-02-17 22:00,ZGNN 172200Z AUTO 00000KT 1SM 12/12 A2994 RMK T01200120 IEM_DS3505
ZGNN,2000-02-17 23:00,ZGNN 172300Z AUTO 00000KT 1SM 12/12 A2994 RMK T01200120 IEM_DS3505
ZGNN,2000-02-18 00:00,ZGNN 180000Z AUTO 00000KT 2SM 12/12 A2997 RMK 60002 SLP150 T01240122 52006 IEM_DS3505
ZGNN,2000-02-18 01:00,ZGNN 180100Z AUTO 07004KT 1SM 13/13 A2997 RMK T01300130 IEM_DS3505
ZGNN,2000-02-18 02:00,ZGNN 180200Z AUTO 00000KT 1SM 13/13 A3000 RMK T01300130 IEM_DS3505
ZGNN,2000-02-18 03:00,ZGNN 180300Z AUTO 22002KT 2SM 14/14 A3000 RMK SLP164 T01370135 52014 IEM_DS3505
ZGNN,2000-02-18 04:00,ZGNN 180400Z AUTO 00000KT 1SM 15/15 A3000 RMK T01500150 IEM_DS3505
ZGNN,2000-02-18 05:00,ZGNN 180500Z AUTO 17004KT 1SM 15/15 A2994 RMK T01500150 IEM_DS3505
ZGNN,2000-02-18 06:00,ZGNN 180600Z AUTO 18004KT 2SM 16/15 A2991 RMK 60000 SLP128 T01610152 57035 IEM_DS3505
ZGNN,2000-02-18 07:00,ZGNN 180700Z AUTO 00000KT 1 1/4SM 17/16 A2988 RMK T01700160 IEM_DS3505
ZGNN,2000-02-18 08:00,ZGNN 180800Z AUTO 00000KT 1 1/2SM 18/17 A2985 RMK T01800170 IEM_DS3505
ZGNN,2000-02-18 09:00,ZGNN 180900Z AUTO 18004KT 4SM 18/18 A2985 RMK SLP107 T01840176 57020 IEM_DS3505
ZGNN,2000-02-18 10:00,ZGNN 181000Z AUTO 16004KT 2 1/2SM 19/18 A2985 RMK T01900180 IEM_DS3505
ZGNN,2000-02-18 11:00,ZGNN 181100Z AUTO 15006KT 2 1/2SM 19/18 A2985 RMK T01900180 IEM_DS3505
ZGNN,2000-02-18 12:00,ZGNN 181200Z AUTO 20004KT 6SM 18/18 A2985 RMK SLP112 T01850179 52005 IEM_DS3505
ZGNN,2000-02-18 13:00,ZGNN 181300Z AUTO 19006KT 2 1/2SM 19/18 A2985 RMK T01900180 IEM_DS3505
ZGNN,2000-02-18 14:00,ZGNN 181400Z AUTO 16006KT 2 1/2SM 19/18 A2985 RMK T01900180 IEM_DS3505
ZGNN,2000-02-18 15:00,ZGNN 181500Z AUTO 25002KT 6SM 19/18 RMK SLP114 T01870179 52003 IEM_DS3505
ZGNN,2000-02-18 18:00,ZGNN 181800Z AUTO 16004KT 6SM 18/18 RMK 60003 SLP107 T01850179 57007 IEM_DS3505
ZGNN,2000-02-18 21:00,ZGNN 182100Z AUTO 00000KT 3SM 18/18 RMK 70002 SLP096 T01800177 57010 IEM_DS3505
ZGNN,2000-02-18 22:00,ZGNN 182200Z AUTO 28004KT 1/4SM 18/18 A2983 RMK T01800180 IEM_DS3505
ZGNN,2000-02-18 23:00,ZGNN 182300Z AUTO 00000KT 1/8SM 18/18 A2983 RMK T01800180 IEM_DS3505
ZGNN,2000-02-19 00:00,ZGNN 190000Z AUTO 00000KT 1/4SM 18/17 A2983 RMK 60002 SLP102 T01760174 52006 IEM_DS3505
ZGNN,2000-02-19 01:00,ZGNN 190100Z AUTO 00000KT 1/8SM 18/18 A2985 RMK T01800180 IEM_DS3505
ZGNN,2000-02-19 02:00,ZGNN 190200Z AUTO 00000KT 3/8SM 18/18 A2988 RMK T01800180 IEM_DS3505
ZGNN,2000-02-19 03:00,ZGNN 190300Z AUTO 20002KT 3SM 19/19 A2991 RMK SLP122 T01910186 52020 IEM_DS3505
ZGNN,2000-02-19 04:00,ZGNN 190400Z AUTO 00000KT 1 1/4SM 19/19 A2988 RMK T01900190 IEM_DS3505
ZGNN,2000-02-19 05:00,ZGNN 190500Z AUTO 00000KT 1SM 19/19 A2985 RMK T01900190 IEM_DS3505
ZGNN,2000-02-19 06:00,ZGNN 190600Z AUTO 00000KT 3SM 20/19 A2980 RMK 60003 SLP085 T01970191 57036 IEM_DS3505
ZGNN,2000-02-19 07:00,ZGNN 190700Z AUTO 00000KT 3SM 20/19 A2977 RMK T02000190 IEM_DS3505
ZGNN,2000-02-19 08:00,ZGNN 190800Z AUTO 06004KT 7SM 22/20 A2974 RMK T02200200 IEM_DS3505
ZGNN,2000-02-19 09:00,ZGNN 190900Z AUTO 09002KT 16SM 23/20 A2971 RMK SLP062 T02320198 57022 IEM_DS3505
ZGNN,2000-02-19 10:00,ZGNN 191000Z AUTO 07006KT 5SM 23/20 A2974 RMK T02300200 IEM_DS3505
ZGNN,2000-02-19 11:00,ZGNN 191100Z AUTO 07002KT 3SM 21/20 A2974 RMK T02100200 IEM_DS3505
ZGNN,2000-02-19 12:00,ZGNN 191200Z AUTO 00000KT 14SM 20/19 A2974 RMK SLP071 T02030194 52008 IEM_DS3505
ZGNN,2000-02-19 13:00,ZGNN 191300Z AUTO 00000KT 1SM 19/18 A2977 RMK T01900180 IEM_DS3505
ZGNN,2000-02-19 14:00,ZGNN 191400Z AUTO 00000KT 1SM 19/19 A2977 RMK T01900190 IEM_DS3505
ZGNN,2000-02-19 15:00,ZGNN 191500Z AUTO 00000KT 6SM 19/19 A2977 RMK SLP072 T01890186 52001 IEM_DS3505
ZGNN,2000-02-19 16:00,ZGNN 191600Z AUTO 00000KT 1SM 19/19 A2977 RMK T01900190 IEM_DS3505
ZGNN,2000-02-19 18:00,ZGNN 191800Z AUTO 11002KT 6SM 20/20 RMK SLP078 T01990196 52006 IEM_DS3505
ZGNN,2000-02-19 21:00,ZGNN 192100Z AUTO 07002KT 6SM 20/19 RMK 70002 SLP078 T01970192 52001 IEM_DS3505
ZGNN,2000-02-19 22:00,ZGNN 192200Z AUTO 03006KT 2 1/2SM 18/18 A2980 RMK T01800180 IEM_DS3505
ZGNN,2000-02-19 23:00,ZGNN 192300Z AUTO 05006KT 3SM 17/16 A2983 RMK T01700160 IEM_DS3505
ZGNN,2000-02-20 00:00,ZGNN 200000Z AUTO 04004KT 7SM 17/15 A2985 RMK 70003 SLP109 T01660152 52029 IEM_DS3505
ZGNN,2000-02-20 01:00,ZGNN 200100Z AUTO 04008KT 7SM 16/14 A2988 RMK T01600140 IEM_DS3505
ZGNN,2000-02-20 02:00,ZGNN 200200Z AUTO 05008KT 7SM 16/14 A2991 RMK T01600140 IEM_DS3505
ZGNN,2000-02-20 03:00,ZGNN 200300Z AUTO 04004KT 7SM 15/13 A2994 RMK SLP143 T01470127 52033 IEM_DS3505
ZGNN,2000-02-20 04:00,ZGNN 200400Z AUTO 05008KT 7SM 15/13 A2994 RMK T01500130 IEM_DS3505
ZGNN,2000-02-20 05:00,ZGNN 200500Z AUTO 05010KT 7SM 14/12 A2994 RMK T01400120 IEM_DS3505
ZGNN,2000-02-20 06:00,ZGNN 200600Z AUTO 09004KT 4SM 13/12 A2991 RMK 60003 SLP130 T01290118 57013 IEM_DS3505
ZGNN,2000-02-20 07:00,ZGNN 200700Z AUTO 07004KT 4SM 13/12 A2988 RMK T01300120 IEM_DS3505
ZGNN,2000-02-20 08:00,ZGNN 200800Z AUTO 06010KT 7SM 13/11 A2988 RMK T01300110 IEM_DS3505
ZGNN,2000-02-20 09:00,ZGNN 200900Z AUTO 36002KT 9SM 13/10 A2988 RMK SLP118 T01300099 57012 IEM_DS3505
ZGNN,2000-02-20 10:00,ZGNN 201000Z AUTO 05006KT 7SM 13/10 A2988 RMK T01300100 IEM_DS3505
ZGNN,2000-02-20 11:00,ZGNN 201100Z AUTO 05006KT 7SM 13/10 A2988 RMK T01300100 IEM_DS3505
ZGNN,2000-02-20 12:00,ZGNN 201200Z AUTO 09004KT 7SM 12/09 A2991 RMK 60003 SLP128 T01220086 52009 IEM_DS3505
ZGNN,2000-02-20 13:00,ZGNN 201300Z AUTO 06006KT 7SM 12/09 A2994 RMK T01200090 IEM_DS3505
ZGNN,2000-02-20 14:00,ZGNN 201400Z AUTO 06006KT 7SM 12/09 A2994 RMK T01200090 IEM_DS3505
ZGNN,2000-02-20 15:00,ZGNN 201500Z AUTO 11002KT 8SM 12/08 A2997 RMK SLP148 T01160079 52019 IEM_DS3505
ZGNN,2000-02-20 16:00,ZGNN 201600Z AUTO 04004KT 7SM 11/09 A3000 RMK T01100090 IEM_DS3505
ZGNN,2000-02-20 18:00,ZGNN 201800Z AUTO 00000KT 6SM 10/09 RMK 60003 SLP158 T01010091 52009 IEM_DS3505
ZGNN,2000-02-20 21:00,ZGNN 202100Z AUTO 00000KT 4SM 10/09 RMK 70001 SLP156 T00950091 57002 IEM_DS3505
ZGNN,2000-02-20 22:00,ZGNN 202200Z AUTO 08004KT 1 1/4SM 09/09 A3000 RMK T00900090 IEM_DS3505
ZGNN,2000-02-20 23:00,ZGNN 202300Z AUTO 00000KT 1 1/4SM 09/09 A3000 RMK T00900090 IEM_DS3505
ZGNN,2000-02-21 00:00,ZGNN 210000Z AUTO 07002KT 2SM 09/09 A3003 RMK 60002 SLP170 T00920088 52013 IEM_DS3505
ZGNN,2000-02-21 01:00,ZGNN 210100Z AUTO 06004KT 1SM 09/09 A3003 RMK T00900090 IEM_DS3505
ZGNN,2000-02-21 02:00,ZGNN 210200Z AUTO 06004KT 1 1/4SM 10/10 A3006 RMK T01000100 IEM_DS3505
ZGNN,2000-02-21 03:00,ZGNN 210300Z AUTO 09002KT 2 1/2SM 10/09 A3006 RMK SLP181 T00960092 52011 IEM_DS3505
ZGNN,2000-02-21 04:00,ZGNN 210400Z AUTO 06004KT 1SM 10/10 A3006 RMK T01000100 IEM_DS3505
ZGNN,2000-02-21 05:00,ZGNN 210500Z AUTO 09004KT 1 1/4SM 10/10 A3000 RMK T01000100 IEM_DS3505
ZGNN,2000-02-21 06:00,ZGNN 210600Z AUTO 16002KT 2 1/2SM 10/10 RMK 60000 SLP154 T01040096 57027 IEM_DS3505
ZGNN,2000-02-21 07:00,ZGNN 210700Z AUTO 03004KT 1 1/4SM 10/10 A2994 RMK T01000100 IEM_DS3505
ZGNN,2000-02-21 08:00,ZGNN 210800Z AUTO 06006KT 1 1/4SM 11/10 A2994 RMK T01100100 IEM_DS3505
ZGNN,2000-02-21 09:00,ZGNN 210900Z AUTO 04004KT 3SM 11/10 A2991 RMK SLP133 T01060098 57021 IEM_DS3505
ZGNN,2000-02-21 11:00,ZGNN 211100Z AUTO 06004KT 2SM 10/10 A2991 RMK T01000100 IEM_DS3505
ZGNN,2000-02-21 12:00,ZGNN 211200Z AUTO 09002KT 2 1/2SM 10/09 RMK 60003 SLP136 T01030093 52003 IEM_DS3505
ZGNN,2000-02-21 15:00,ZGNN 211500Z AUTO 00000KT 2 1/2SM 10/09 RMK SLP156 T00980094 52020 IEM_DS3505
ZGNN,2000-02-21 18:00,ZGNN 211800Z AUTO 00000KT 2 1/2SM 10/10 RMK 60001 SLP159 T01010099 52003 IEM_DS3505
ZGNN,2000-02-21 21:00,ZGNN 212100Z AUTO 00000KT 2SM 10/10 RMK 70005 SLP149 T01020100 57010 IEM_DS3505
ZGNN,2000-02-21 22:00,ZGNN 212200Z AUTO 00000KT 1 1/4SM 10/10 A2997 RMK T01000100 IEM_DS3505
ZGNN,2000-02-21 23:00,ZGNN 212300Z AUTO 07006KT 1SM 10/10 A2997 RMK T01000100 IEM_DS3505
ZGNN,2000-02-22 00:00,ZGNN 220000Z AUTO 00000KT 1 1/4SM 10/10 A3000 RMK 60002 SLP159 T01000096 52010 IEM_DS3505
ZGNN,2000-02-22 01:00,ZGNN 220100Z AUTO 06004KT 1SM 10/10 A3000 RMK T01000100 IEM_DS3505
ZGNN,2000-02-22 02:00,ZGNN 220200Z AUTO 07006KT 1 1/4SM 10/10 A3003 RMK T01000100 IEM_DS3505
ZGNN,2000-02-22 03:00,ZGNN 220300Z AUTO 14002KT 4SM 11/10 A3003 RMK SLP173 T01080100 52014 IEM_DS3505
ZGNN,2000-02-22 04:00,ZGNN 220400Z AUTO 06004KT 1 1/4SM 11/11 A3003 RMK T01100110 IEM_DS3505
ZGNN,2000-02-22 05:00,ZGNN 220500Z AUTO 00000KT 1 1/2SM 11/11 A3000 RMK T01100110 IEM_DS3505
ZGNN,2000-02-22 06:00,ZGNN 220600Z AUTO 09002KT 4SM 12/10 A2994 RMK 60000 SLP147 T01160104 57026 IEM_DS3505
ZGNN,2000-02-22 07:00,ZGNN 220700Z AUTO 34004KT 4SM 12/11 A2991 RMK T01200110 IEM_DS3505
ZGNN,2000-02-22 08:00,ZGNN 220800Z AUTO 00000KT 1 1/4SM 12/11 A2988 RMK T01200110 IEM_DS3505
ZGNN,2000-02-22 09:00,ZGNN 220900Z AUTO 09004KT 2 1/2SM 12/11 A2988 RMK SLP118 T01180107 57028 IEM_DS3505
ZGNN,2000-02-22 10:00,ZGNN 221000Z AUTO 03004KT 1SM 12/11 A2985 RMK T01200110 IEM_DS3505
ZGNN,2000-02-22 11:00,ZGNN 221100Z AUTO 03004KT 1 1/4SM 12/11 A2988 RMK T01200110 IEM_DS3505
ZGNN,2000-02-22 12:00,ZGNN 221200Z AUTO 00000KT 4SM 12/10 A2988 RMK 60003 SLP124 T01170105 52006 IEM_DS3505
ZGNN,2000-02-22 13:00,ZGNN 221300Z AUTO 08004KT 1 1/4SM 11/11 A2991 RMK T01100110 IEM_DS3505
ZGNN,2000-02-22 15:00,ZGNN 221500Z AUTO 00000KT 3SM 10/10 RMK SLP150 T01050101 52025 IEM_DS3505
ZGNN,2000-02-22 18:00,ZGNN 221800Z AUTO 00000KT 2 1/2SM 10/10 RMK 60002 SLP152 T01010097 52002 IEM_DS3505
ZGNN,2000-02-22 21:00,ZGNN 222100Z AUTO 00000KT 2 1/2SM 10/10 RMK 70005 SLP152 T01000098 54000 IEM_DS3505
ZGNN,2000-02-22 22:00,ZGNN 222200Z AUTO 01006KT 2SM 10/10 A2997 RMK T01000100 IEM_DS3505
ZGNN,2000-02-22 23:00,ZGNN 222300Z AUTO 35006KT 4SM 10/10 A3000 RMK T01000100 IEM_DS3505
ZGNN,2000-02-23 00:00,ZGNN 230000Z AUTO 34004KT 4SM 10/10 A3003 RMK 60003 SLP175 T01020098 52023 IEM_DS3505
ZGNN,2000-02-23 01:00,ZGNN 230100Z AUTO 35006KT 1 1/2SM 10/10 A3006 RMK T01000100 IEM_DS3505
ZGNN,2000-02-23 02:00,ZGNN 230200Z AUTO 35006KT 7SM 11/10 A3009 RMK T01100100 IEM_DS3505
ZGNN,2000-02-23 03:00,ZGNN 230300Z AUTO 36006KT 5SM 11/10 A3009 RMK SLP198 T01120096 52023 IEM_DS3505
ZGNN,2000-02-23 04:00,ZGNN 230400Z AUTO 01008KT 7SM 12/10 A3009 RMK T01200100 IEM_DS3505
ZGNN,2000-02-23 05:00,ZGNN 230500Z AUTO 35006KT 7SM 13/10 A3006 RMK T01300100 IEM_DS3505
ZGNN,2000-02-23 06:00,ZGNN 230600Z AUTO 36006KT 19SM 14/10 A3003 RMK 60000 SLP170 T01350098 57027 IEM_DS3505
ZGNN,2000-02-23 07:00,ZGNN 230700Z AUTO 07004KT 7SM 15/11 A3000 RMK T01500110 IEM_DS3505
ZGNN,2000-02-23 09:00,ZGNN 230900Z AUTO 00000KT 19SM 14/10 A2997 RMK SLP148 T01450105 57022 IEM_DS3505
ZGNN,2000-02-23 10:00,ZGNN 231000Z AUTO 07004KT 7SM 15/11 A2997 RMK T01500110 IEM_DS3505
ZGNN,2000-02-23 11:00,ZGNN 231100Z AUTO 00000KT 7SM 14/11 A2997 RMK T01400110 IEM_DS3505
ZGNN,2000-02-23 12:00,ZGNN 231200Z AUTO 00000KT 17SM 14/11 A3000 RMK SLP162 T01370113 52014 IEM_DS3505
ZGNN,2000-02-23 13:00,ZGNN 231300Z AUTO 05004KT 7SM 13/11 A3003 RMK T01300110 IEM_DS3505
ZGNN,2000-02-23 15:00,ZGNN 231500Z AUTO 00000KT 17SM 13/10 RMK SLP186 T01280101 52023 IEM_DS3505
ZGNN,2000-02-23 18:00,ZGNN 231800Z AUTO 00000KT 12SM 11/10 RMK 60003 SLP190 T01140100 52005 IEM_DS3505
ZGNN,2000-02-23 21:00,ZGNN 232100Z AUTO 04006KT 6SM 10/09 RMK 70002 SLP194 T00990091 52003 IEM_DS3505
ZGNN,2000-02-23 22:00,ZGNN 232200Z AUTO 03004KT 1 1/2SM 10/09 A3009 RMK T01000090 IEM_DS3505
ZGNN,2000-02-23 23:00,ZGNN 232300Z AUTO 00000KT 1 1/2SM 10/09 A3015 RMK T01000090 IEM_DS3505
ZGNN,2000-02-24 00:00,ZGNN 240000Z AUTO 09002KT 2SM 09/09 A3015 RMK 60002 SLP215 T00940088 52021 IEM_DS3505
ZGNN,2000-02-24 01:00,ZGNN 240100Z AUTO 00000KT 1 1/2SM 10/09 A3018 RMK T01000090 IEM_DS3505
ZGNN,2000-02-24 02:00,ZGNN 240200Z AUTO 09004KT 1 1/2SM 10/10 A3018 RMK T01000100 IEM_DS3505
ZGNN,2000-02-24 03:00,ZGNN 240300Z AUTO 34004KT 4SM 10/08 A3021 RMK SLP229 T00980084 52013 IEM_DS3505
ZGNN,2000-02-24 04:00,ZGNN 240400Z AUTO 08004KT 7SM 10/09 A3018 RMK T01000090 IEM_DS3505
ZGNN,2000-02-24 05:00,ZGNN 240500Z AUTO 00000KT 7SM 11/10 A3015 RMK T01100100 IEM_DS3505
ZGNN,2000-02-24 06:00,ZGNN 240600Z AUTO 00000KT 7SM 12/09 A3012 RMK 60001 SLP204 T01180090 57024 IEM_DS3505
ZGNN,2000-02-24 07:00,ZGNN 240700Z AUTO 34004KT 7SM 12/08 A3009 RMK T01200080 IEM_DS3505
ZGNN,2000-02-24 08:00,ZGNN 240800Z AUTO 35002KT 7SM 12/09 A3009 RMK T01200090 IEM_DS3505
ZGNN,2000-02-24 09:00,ZGNN 240900Z AUTO 07002KT 6SM 12/08 A3009 RMK SLP187 T01210083 57017 IEM_DS3505
ZGNN,2000-02-24 10:00,ZGNN 241000Z AUTO 06006KT 4SM 12/09 A3006 RMK T01200090 IEM_DS3505
ZGNN,2000-02-24 11:00,ZGNN 241100Z AUTO 06006KT 4SM 11/08 A3006 RMK T01100080 IEM_DS3505
ZGNN,2000-02-24 12:00,ZGNN 241200Z AUTO 09004KT 6SM 11/08 A3006 RMK SLP184 T01100079 57003 IEM_DS3505
ZGNN,2000-02-24 13:00,ZGNN 241300Z AUTO 06002KT 4SM 11/08 A3009 RMK T01100080 IEM_DS3505
ZGNN,2000-02-24 15:00,ZGNN 241500Z AUTO 00000KT 5SM 10/08 RMK SLP213 T01000079 52028 IEM_DS3505
ZGNN,2000-02-24 18:00,ZGNN 241800Z AUTO 36004KT 4SM 09/08 RMK 60003 SLP219 T00920082 52006 IEM_DS3505
ZGNN,2000-02-24 21:00,ZGNN 242100Z AUTO 00000KT 4SM 09/08 RMK 70004 SLP219 T00920084 54000 IEM_DS3505
ZGNN,2000-02-24 22:00,ZGNN 242200Z AUTO 00000KT 2 1/2SM 09/09 A3018 RMK T00900090 IEM_DS3505
ZGNN,2000-02-24 23:00,ZGNN 242300Z AUTO 34008KT 2 1/2SM 09/09 A3021 RMK T00900090 IEM_DS3505
ZGNN,2000-02-25 00:00,ZGNN 250000Z AUTO 34008KT 4SM 09/07 A3024 RMK 60001 SLP248 T00920071 52029 IEM_DS3505
ZGNN,2000-02-25 01:00,ZGNN 250100Z AUTO 34008KT 4SM 10/07 A3027 RMK T01000070 IEM_DS3505
ZGNN,2000-02-25 02:00,ZGNN 250200Z AUTO 36006KT 7SM 10/07 A3027 RMK T01000070 IEM_DS3505
ZGNN,2000-02-25 03:00,ZGNN 250300Z AUTO 34008KT 6SM 10/06 A3030 RMK SLP258 T01050062 52009 IEM_DS3505
ZGNN,2000-02-25 05:00,ZGNN 250500Z AUTO 01006KT 7SM 13/07 A3027 RMK T01300070 IEM_DS3505
ZGNN,2000-02-25 06:00,ZGNN 250600Z AUTO 34010KT 9SM 13/06 A3021 RMK SLP237 T01270059 57020 IEM_DS3505
ZGNN,2000-02-25 07:00,ZGNN 250700Z AUTO 03008KT 7SM 13/06 A3021 RMK T01300060 IEM_DS3505
ZGNN,2000-02-25 08:00,ZGNN 250800Z AUTO 03008KT 7SM 13/06 A3018 RMK T01300060 IEM_DS3505
ZGNN,2000-02-25 09:00,ZGNN 250900Z AUTO 02008KT 11SM 13/05 A3018 RMK SLP220 T01330052 57016 IEM_DS3505
ZGNN,2000-02-25 10:00,ZGNN 251000Z AUTO 35004KT 7SM 13/06 A3018 RMK T01300060 IEM_DS3505
ZGNN,2000-02-25 11:00,ZGNN 251100Z AUTO 03008KT 7SM 13/05 A3021 RMK T01300050 IEM_DS3505
ZGNN,2000-02-25 12:00,ZGNN 251200Z AUTO 34004KT 11SM 12/05 A3021 RMK SLP236 T01220051 52015 IEM_DS3505
ZGNN,2000-02-25 13:00,ZGNN 251300Z AUTO 34004KT 7SM 12/06 A3024 RMK T01200060 IEM_DS3505
ZGNN,2000-02-25 14:00,ZGNN 251400Z AUTO 34004KT 7SM 11/06 A3024 RMK T01100060 IEM_DS3505
ZGNN,2000-02-25 15:00,ZGNN 251500Z AUTO 00000KT 11SM 11/07 RMK SLP247 T01090067 52011 IEM_DS3505
ZGNN,2000-02-25 18:00,ZGNN 251800Z AUTO 00000KT 11SM 10/07 RMK SLP251 T01010069 52004 IEM_DS3505
ZGNN,2000-02-25 19:00,ZGNN 251900Z AUTO 00000KT 7SM 10/07 A3027 RMK T01000070 IEM_DS3505
ZGNN,2000-02-25 20:00,ZGNN 252000Z AUTO 00000KT 7SM 11/07 A3027 RMK T01100070 IEM_DS3505
ZGNN,2000-02-25 21:00,ZGNN 252100Z AUTO 36006KT 11SM 11/05 A3027 RMK 70000 SLP250 T01060049 57001 IEM_DS3505
ZGNN,2000-02-25 22:00,ZGNN 252200Z AUTO 01004KT 7SM 10/06 A3027 RMK T01000060 IEM_DS3505
ZGNN,2000-02-25 23:00,ZGNN 252300Z AUTO 36008KT 7SM 10/06 A3030 RMK T01000060 IEM_DS3505
ZGNN,2000-02-26 00:00,ZGNN 260000Z AUTO 36008KT 11SM 11/02 RMK SLP262 T01090019 52012 IEM_DS3505
ZGNN,2000-02-26 01:00,ZGNN 260100Z AUTO 02006KT 7SM 11/03 A3033 RMK T01100030 IEM_DS3505
ZGNN,2000-02-26 02:00,ZGNN 260200Z AUTO 03004KT 7SM 11/03 A3036 RMK T01100030 IEM_DS3505
ZGNN,2000-02-26 03:00,ZGNN 260300Z AUTO 36008KT 11SM 11/01 A3036 RMK SLP280 T01120008 52018 IEM_DS3505
ZGNN,2000-02-26 04:00,ZGNN 260400Z AUTO 02004KT 7SM 11/03 A3033 RMK T01100030 IEM_DS3505
ZGNN,2000-02-26 05:00,ZGNN 260500Z AUTO 33008KT 7SM 11/02 A3030 RMK T01100020 IEM_DS3505
ZGNN,2000-02-26 06:00,ZGNN 260600Z AUTO 36008KT 12SM 12/01 A3027 RMK 60003 SLP250 T01170013 57030 IEM_DS3505
ZGNN,2000-02-26 07:00,ZGNN 260700Z AUTO 03010KT 7SM 12/02 A3024 RMK T01200020 IEM_DS3505
ZGNN,2000-02-26 08:00,ZGNN 260800Z AUTO 36006KT 7SM 12/02 A3021 RMK T01200020 IEM_DS3505
ZGNN,2000-02-26 09:00,ZGNN 260900Z AUTO 36004KT 12SM 12/02 A3021 RMK SLP225 T01180020 57025 IEM_DS3505
ZGNN,2000-02-26 10:00,ZGNN 261000Z AUTO 00000KT 7SM 11/04 A3021 RMK T01100040 IEM_DS3505
ZGNN,2000-02-26 11:00,ZGNN 261100Z AUTO 32004KT 7SM 10/08 A3021 RMK T01000080 IEM_DS3505
ZGNN,2000-02-26 12:00,ZGNN 261200Z AUTO 04002KT 7SM 10/06 A3024 RMK 60001 SLP241 T00970063 52016 IEM_DS3505
ZGNN,2000-02-26 13:00,ZGNN 261300Z AUTO 00000KT 7SM 09/08 A3027 RMK T00900080 IEM_DS3505
ZGNN,2000-02-26 15:00,ZGNN 261500Z AUTO 00000KT 7SM 09/06 RMK SLP256 T00870065 52014 IEM_DS3505
ZGNN,2000-02-26 18:00,ZGNN 261800Z AUTO 32004KT 7SM 08/06 RMK 60003 SLP252 T00760056 57004 IEM_DS3505
ZGNN,2000-02-26 21:00,ZGNN 262100Z AUTO 00000KT 7SM 08/05 RMK 70004 SLP225 T00790047 57026 IEM_DS3505
ZGNN,2000-02-26 22:00,ZGNN 262200Z AUTO 00000KT 5SM 08/06 A3021 RMK T00800060 IEM_DS3505
ZGNN,2000-02-26 23:00,ZGNN 262300Z AUTO 03004KT 5SM 08/06 A3021 RMK T00800060 IEM_DS3505
ZGNN,2000-02-27 00:00,ZGNN 270000Z AUTO 00000KT 4SM 08/06 A3024 RMK 60003 SLP240 T00820062 52014 IEM_DS3505
ZGNN,2000-02-27 01:00,ZGNN 270100Z AUTO 32008KT 4SM 08/06 A3024 RMK T00800060 IEM_DS3505
ZGNN,2000-02-27 02:00,ZGNN 270200Z AUTO 35006KT 5SM 08/06 A3030 RMK T00800060 IEM_DS3505
ZGNN,2000-02-27 03:00,ZGNN 270300Z AUTO 34004KT 4SM 08/07 A3030 RMK SLP261 T00790066 52020 IEM_DS3505
ZGNN,2000-02-27 04:00,ZGNN 270400Z AUTO 35006KT 3SM 08/07 A3027 RMK T00800070 IEM_DS3505
ZGNN,2000-02-27 05:00,ZGNN 270500Z AUTO 35004KT 3SM 08/07 A3024 RMK T00800070 IEM_DS3505
ZGNN,2000-02-27 06:00,ZGNN 270600Z AUTO 36006KT 2 1/2SM 08/06 A3021 RMK 60012 SLP237 T00780063 57024 IEM_DS3505
ZGNN,2000-02-27 07:00,ZGNN 270700Z AUTO 03004KT 2 1/2SM 08/07 A3021 RMK T00800070 IEM_DS3505
ZGNN,2000-02-27 08:00,ZGNN 270800Z AUTO 36004KT 2 1/2SM 08/07 A3018 RMK T00800070 IEM_DS3505
ZGNN,2000-02-27 09:00,ZGNN 270900Z AUTO 04004KT 4SM 08/07 A3018 RMK SLP220 T00750066 57016 IEM_DS3505
ZGNN,2000-02-27 10:00,ZGNN 271000Z AUTO 31004KT 2 1/2SM 08/07 A3018 RMK T00800070 IEM_DS3505
ZGNN,2000-02-27 11:00,ZGNN 271100Z AUTO 00000KT 2 1/2SM 08/07 A3018 RMK T00800070 IEM_DS3505
ZGNN,2000-02-27 12:00,ZGNN 271200Z AUTO 00000KT 3SM 08/07 A3021 RMK 60031 SLP232 T00750069 52012 IEM_DS3505
ZGNN,2000-02-27 13:00,ZGNN 271300Z AUTO 04004KT 2 1/2SM 07/07 A3021 RMK T00700070 IEM_DS3505
ZGNN,2000-02-27 15:00,ZGNN 271500Z AUTO 00000KT 3SM 07/06 RMK SLP242 T00720065 52009 IEM_DS3505
ZGNN,2000-02-27 18:00,ZGNN 271800Z AUTO 00000KT 3SM 07/07 RMK 60028 SLP231 T00730066 57011 IEM_DS3505
ZGNN,2000-02-27 21:00,ZGNN 272100Z AUTO 34002KT 3SM 08/07 RMK 70086 SLP223 T00750066 57008 IEM_DS3505
ZGNN,2000-02-27 22:00,ZGNN 272200Z AUTO 00000KT 2 1/2SM 08/07 A3021 RMK T00800070 IEM_DS3505
ZGNN,2000-02-27 23:00,ZGNN 272300Z AUTO 00000KT 4SM 08/07 A3021 RMK T00800070 IEM_DS3505
ZGNN,2000-02-28 00:00,ZGNN 280000Z AUTO 00000KT 2 1/2SM 08/07 A3024 RMK 60028 SLP243 T00750069 52020 IEM_DS3505
ZGNN,2000-02-28 01:00,ZGNN 280100Z AUTO 00000KT 4SM 08/08 A3027 RMK T00800080 IEM_DS3505
ZGNN,2000-02-28 02:00,ZGNN 280200Z AUTO 00000KT 5SM 08/08 A3027 RMK T00800080 IEM_DS3505
ZGNN,2000-02-28 03:00,ZGNN 280300Z AUTO 36004KT 6SM 09/07 A3027 RMK SLP258 T00880071 52015 IEM_DS3505
ZGNN,2000-02-28 04:00,ZGNN 280400Z AUTO 02006KT 7SM 09/07 A3027 RMK T00900070 IEM_DS3505
ZGNN,2000-02-28 05:00,ZGNN 280500Z AUTO 36004KT 7SM 10/08 A3024 RMK T01000080 IEM_DS3505
ZGNN,2000-02-28 06:00,ZGNN 280600Z AUTO 34004KT 16SM 11/07 A3021 RMK 60000 SLP237 T01090069 57020 IEM_DS3505
ZGNN,2000-02-28 07:00,ZGNN 280700Z AUTO 02004KT 7SM 12/08 A3018 RMK T01200080 IEM_DS3505
ZGNN,2000-02-28 08:00,ZGNN 280800Z AUTO 34004KT 7SM 12/07 A3018 RMK T01200070 IEM_DS3505
ZGNN,2000-02-28 09:00,ZGNN 280900Z AUTO 36004KT 19SM 12/07 A3018 RMK SLP219 T01220073 57017 IEM_DS3505
ZGNN,2000-02-28 10:00,ZGNN 281000Z AUTO 00000KT 7SM 12/08 A3018 RMK T01200080 IEM_DS3505
ZGNN,2000-02-28 11:00,ZGNN 281100Z AUTO 00000KT 7SM 12/08 A3018 RMK T01200080 IEM_DS3505
ZGNN,2000-02-28 12:00,ZGNN 281200Z AUTO 00000KT 12SM 11/09 A3021 RMK SLP237 T01140092 52017 IEM_DS3505
ZGNN,2000-02-28 13:00,ZGNN 281300Z AUTO 00000KT 7SM 11/10 A3024 RMK T01100100 IEM_DS3505
ZGNN,2000-02-28 15:00,ZGNN 281500Z AUTO 00000KT 9SM 11/09 RMK SLP258 T01080088 52021 IEM_DS3505
ZGNN,2000-02-28 18:00,ZGNN 281800Z AUTO 00000KT 9SM 11/08 RMK 60003 SLP261 T01060077 52004 IEM_DS3505
ZGNN,2000-02-28 21:00,ZGNN 282100Z AUTO 00000KT 7SM 09/08 RMK 70014 SLP254 T00910081 57007 IEM_DS3505
ZGNN,2000-02-28 22:00,ZGNN 282200Z AUTO 00000KT 2 1/2SM 09/09 A3027 RMK T00900090 IEM_DS3505
ZGNN,2000-02-28 23:00,ZGNN 282300Z AUTO 00000KT 2 1/2SM 09/08 A3027 RMK T00900080 IEM_DS3505
ZGNN,2000-02-29 00:00,ZGNN 290000Z AUTO 00000KT 7SM 09/08 A3030 RMK 60002 SLP267 T00900082 52012 IEM_DS3505
ZGNN,2000-02-29 01:00,ZGNN 290100Z AUTO 10004KT 7SM 10/08 A3030 RMK T01000080 IEM_DS3505
ZGNN,2000-02-29 02:00,ZGNN 290200Z AUTO 00000KT 7SM 10/08 A3033 RMK T01000080 IEM_DS3505
ZGNN,2000-02-29 03:00,ZGNN 290300Z AUTO 34006KT 12SM 11/07 A3033 RMK SLP272 T01060066 52005 IEM_DS3505
ZGNN,2000-02-29 04:00,ZGNN 290400Z AUTO 01004KT 7SM 11/07 A3033 RMK T01100070 IEM_DS3505
ZGNN,2000-02-29 05:00,ZGNN 290500Z AUTO 35006KT 7SM 12/06 A3030 RMK T01200060 IEM_DS3505
ZGNN,2000-02-29 06:00,ZGNN 290600Z AUTO 36006KT 19SM 11/05 A3027 RMK 60000 SLP251 T01140053 57020 IEM_DS3505
ZGNN,2000-02-29 07:00,ZGNN 290700Z AUTO 35006KT 7SM 10/08 A3024 RMK T01000080 IEM_DS3505
ZGNN,2000-02-29 08:00,ZGNN 290800Z AUTO 03006KT 7SM 10/08 A3021 RMK T01000080 IEM_DS3505
ZGNN,2000-02-29 09:00,ZGNN 290900Z AUTO 34006KT 5SM 10/08 A3024 RMK SLP243 T00980077 57009 IEM_DS3505
ZGNN,2000-02-29 10:00,ZGNN 291000Z AUTO 34004KT 6SM 09/08 A3024 RMK T00900080 IEM_DS3505
ZGNN,2000-02-29 11:00,ZGNN 291100Z AUTO 04004KT 4SM 09/08 A3024 RMK T00900080 IEM_DS3505
ZGNN,2000-02-29 12:00,ZGNN 291200Z AUTO 00000KT 11SM 08/08 A3027 RMK 60024 SLP253 T00840076 52010 IEM_DS3505
ZGNN,2000-02-29 13:00,ZGNN 291300Z AUTO 03002KT 4SM 08/08 A3027 RMK T00800080 IEM_DS3505
ZGNN,2000-02-29 15:00,ZGNN 291500Z AUTO 04002KT 6SM 08/08 RMK SLP266 T00820078 52013 IEM_DS3505
ZGNN,2000-02-29 18:00,ZGNN 291800Z AUTO 02004KT 9SM 08/07 RMK 60039 SLP252 T00820073 57014 IEM_DS3505
ZGNN,2000-02-29 21:00,ZGNN 292100Z AUTO 00000KT 7SM 08/07 RMK 70063 SLP238 T00820073 57014 IEM_DS3505
ZGNN,2000-02-29 22:00,ZGNN 292200Z AUTO 33004KT 7SM 08/08 A3024 RMK T00800080 IEM_DS3505
ZGNN,2000-02-29 23:00,ZGNN 292300Z AUTO 01004KT 7SM 08/08 A3024 RMK T00800080 IEM_DS3505
ZGNN,2000-03-01 00:00,ZGNN 010000Z AUTO 29006KT 6SM 08/07 A3027 RMK 60003 SLP260 T00840071 52021 IEM_DS3505
ZGNN,2000-03-01 01:00,ZGNN 010100Z AUTO 36004KT 3SM 09/08 A3030 RMK T00900080 IEM_DS3505
ZGNN,2000-03-01 02:00,ZGNN 010200Z AUTO 35006KT 4SM 09/08 A3030 RMK T00900080 IEM_DS3505
ZGNN,2000-03-01 03:00,ZGNN 010300Z AUTO 36004KT 4SM 09/07 A3030 RMK SLP269 T00860073 52009 IEM_DS3505
ZGNN,2000-03-01 04:00,ZGNN 010400Z AUTO 03002KT 2 1/2SM 09/08 A3030 RMK T00900080 IEM_DS3505
ZGNN,2000-03-01 05:00,ZGNN 010500Z AUTO 01004KT 4SM 09/08 A3027 RMK T00900080 IEM_DS3505
ZGNN,2000-03-01 06:00,ZGNN 010600Z AUTO 36004KT 11SM 09/07 A3024 RMK 60020 SLP242 T00930074 57026 IEM_DS3505
ZGNN,2000-03-01 07:00,ZGNN 010700Z AUTO 00000KT 7SM 09/08 A3021 RMK T00900080 IEM_DS3505
ZGNN,2000-03-01 08:00,ZGNN 010800Z AUTO 00000KT 2 1/2SM 09/09 A3018 RMK T00900090 IEM_DS3505
ZGNN,2000-03-01 09:00,ZGNN 010900Z AUTO 02002KT 5SM 09/08 A3018 RMK SLP223 T00910081 57019 IEM_DS3505
ZGNN,2000-03-01 10:00,ZGNN 011000Z AUTO 00000KT 5SM 09/09 A3018 RMK T00900090 IEM_DS3505
ZGNN,2000-03-01 11:00,ZGNN 011100Z AUTO 00000KT 4SM 09/09 A3018 RMK T00900090 IEM_DS3505
ZGNN,2000-03-01 12:00,ZGNN 011200Z AUTO 00000KT 9SM 09/08 A3021 RMK 60008 SLP229 T00910083 52006 IEM_DS3505
ZGNN,2000-03-01 13:00,ZGNN 011300Z AUTO 00000KT 2SM 09/09 A3021 RMK T00900090 IEM_DS3505
ZGNN,2000-03-01 14:00,ZGNN 011400Z AUTO 00000KT 2SM 09/09 A3024 RMK T00900090 IEM_DS3505
ZGNN,2000-03-01 15:00,ZGNN 011500Z AUTO 00000KT 9SM 09/08 RMK SLP239 T00920084 52010 IEM_DS3505
ZGNN,2000-03-01 18:00,ZGNN 011800Z AUTO 00000KT 6SM 09/08 RMK 60002 SLP227 T00910085 57012 IEM_DS3505
ZGNN,2000-03-01 21:00,ZGNN 012100Z AUTO 00000KT 6SM 09/08 RMK 70030 SLP211 T00900084 57015 IEM_DS3505
ZGNN,2000-03-01 23:00,ZGNN 012300Z AUTO 00000KT 1 1/4SM 09/09 A3015 RMK T00900090 IEM_DS3505
ZGNN,2000-03-02 00:00,ZGNN 020000Z AUTO 00000KT 3SM 09/09 A3018 RMK 60001 SLP224 T00920088 52012 IEM_DS3505
ZGNN,2000-03-02 01:00,ZGNN 020100Z AUTO 00000KT 1 1/4SM 10/09 A3018 RMK T01000090 IEM_DS3505
ZGNN,2000-03-02 02:00,ZGNN 020200Z AUTO 00000KT 1 1/2SM 10/10 A3021 RMK T01000100 IEM_DS3505
ZGNN,2000-03-02 03:00,ZGNN 020300Z AUTO 32004KT 2SM 10/09 A3021 RMK SLP234 T01000094 52010 IEM_DS3505
ZGNN,2000-03-02 04:00,ZGNN 020400Z AUTO 00000KT 1 1/4SM 10/10 A3021 RMK T01000100 IEM_DS3505
ZGNN,2000-03-02 05:00,ZGNN 020500Z AUTO 00000KT 2SM 11/10 A3018 RMK T01100100 IEM_DS3505
ZGNN,2000-03-02 06:00,ZGNN 020600Z AUTO 34004KT 4SM 11/10 A3015 RMK 60002 SLP208 T01090095 57025 IEM_DS3505
ZGNN,2000-03-02 07:00,ZGNN 020700Z AUTO 00000KT 7SM 12/10 A3009 RMK T01200100 IEM_DS3505
ZGNN,2000-03-02 08:00,ZGNN 020800Z AUTO 00000KT 7SM 11/09 A3009 RMK T01100090 IEM_DS3505
ZGNN,2000-03-02 09:00,ZGNN 020900Z AUTO 32002KT 2SM 11/10 A3006 RMK SLP186 T01080100 57022 IEM_DS3505
ZGNN,2000-03-02 10:00,ZGNN 021000Z AUTO 00000KT 1 1/4SM 11/11 A3006 RMK T01100110 IEM_DS3505
ZGNN,2000-03-02 11:00,ZGNN 021100Z AUTO 00000KT 1 1/4SM 11/11 A3009 RMK T01100110 IEM_DS3505
ZGNN,2000-03-02 12:00,ZGNN 021200Z AUTO 02002KT 3SM 11/10 A3009 RMK 60003 SLP192 T01100102 52006 IEM_DS3505
ZGNN,2000-03-02 13:00,ZGNN 021300Z AUTO 00000KT 2 1/2SM 11/11 A3012 RMK T01100110 IEM_DS3505
ZGNN,2000-03-02 15:00,ZGNN 021500Z AUTO 00000KT 2 1/2SM 11/10 RMK SLP203 T01090105 52011 IEM_DS3505
ZGNN,2000-03-02 18:00,ZGNN 021800Z AUTO 00000KT 2SM 11/11 RMK 60000 SLP197 T01100108 57005 IEM_DS3505
ZGNN,2000-03-02 21:00,ZGNN 022100Z AUTO 00000KT 1 1/4SM 11/11 RMK 70004 SLP184 T01110109 57013 IEM_DS3505
ZGNN,2000-03-02 22:00,ZGNN 022200Z AUTO 00000KT 1SM 11/11 A3009 RMK T01100110 IEM_DS3505
ZGNN,2000-03-02 23:00,ZGNN 022300Z AUTO 00000KT 3/8SM 11/11 A3006 RMK T01100110 IEM_DS3505
ZGNN,2000-03-03 00:00,ZGNN 030000Z AUTO 00000KT 1/4SM 11/11 A3009 RMK 60000 SLP195 T01130111 52011 IEM_DS3505
ZGNN,2000-03-03 01:00,ZGNN 030100Z AUTO 35004KT 1/2SM 12/12 A3012 RMK T01200120 IEM_DS3505
ZGNN,2000-03-03 02:00,ZGNN 030200Z AUTO 00000KT 1SM 12/12 A3012 RMK T01200120 IEM_DS3505
ZGNN,2000-03-03 03:00,ZGNN 030300Z AUTO 00000KT 2 1/2SM 13/12 A3012 RMK SLP200 T01270120 52005 IEM_DS3505
ZGNN,2000-03-03 04:00,ZGNN 030400Z AUTO 00000KT 1 1/4SM 13/13 A3009 RMK T01300130 IEM_DS3505
ZGNN,2000-03-03 05:00,ZGNN 030500Z AUTO 00000KT 1 1/4SM 14/13 A3009 RMK T01400130 IEM_DS3505
ZGNN,2000-03-03 06:00,ZGNN 030600Z AUTO 20002KT 2 1/2SM 14/13 A3003 RMK 60001 SLP172 T01410132 57027 IEM_DS3505
ZGNN,2000-03-03 08:00,ZGNN 030800Z AUTO 00000KT 1 1/2SM 15/14 A2997 RMK T01500140 IEM_DS3505
ZGNN,2000-03-03 09:00,ZGNN 030900Z AUTO 34004KT 2 1/2SM 14/13 A2997 RMK SLP151 T01440133 57021 IEM_DS3505
ZGNN,2000-03-03 10:00,ZGNN 031000Z AUTO 04004KT 1 1/4SM 14/14 A2997 RMK T01400140 IEM_DS3505
ZGNN,2000-03-03 11:00,ZGNN 031100Z AUTO 06004KT 1SM 14/14 A2997 RMK T01400140 IEM_DS3505
ZGNN,2000-03-03 12:00,ZGNN 031200Z AUTO 00000KT 4SM 14/14 A3000 RMK 60003 SLP154 T01430136 52003 IEM_DS3505
ZGNN,2000-03-03 13:00,ZGNN 031300Z AUTO 00000KT 1SM 14/14 A3000 RMK T01400140 IEM_DS3505
ZGNN,2000-03-03 15:00,ZGNN 031500Z AUTO 32004KT 4SM 14/14 RMK SLP167 T01440137 52014 IEM_DS3505
ZGNN,2000-03-03 18:00,ZGNN 031800Z AUTO 00000KT 4SM 14/14 RMK SLP157 T01440140 57010 IEM_DS3505
ZGNN,2000-03-03 21:00,ZGNN 032100Z AUTO 00000KT 2SM 14/14 RMK 70002 SLP145 T01440140 57012 IEM_DS3505
ZGNN,2000-03-03 22:00,ZGNN 032200Z AUTO 00000KT 1/4SM RMK IEM_DS3505
ZGNN,2000-03-03 23:00,ZGNN 032300Z AUTO 21006KT 1/2SM 14/14 A2997 RMK T01400140 IEM_DS3505
ZGNN,2000-03-04 00:00,ZGNN 040000Z AUTO 00000KT 1/4SM 14/14 A3000 RMK 60003 SLP158 T01440144 52013 IEM_DS3505
ZGNN,2000-03-04 01:00,ZGNN 040100Z AUTO 00000KT 1SM 15/15 A3000 RMK T01500150 IEM_DS3505
ZGNN,2000-03-04 02:00,ZGNN 040200Z AUTO 00000KT 1 1/4SM 16/16 A3003 RMK T01600160 IEM_DS3505
ZGNN,2000-03-04 03:00,ZGNN 040300Z AUTO 14004KT 4SM 17/16 A3003 RMK SLP168 T01660156 52011 IEM_DS3505
ZGNN,2000-03-04 04:00,ZGNN 040400Z AUTO 32004KT 1 1/2SM 19/17 A3000 RMK T01900170 IEM_DS3505
ZGNN,2000-03-04 05:00,ZGNN 040500Z AUTO 00000KT 4SM 19/16 A2997 RMK T01900160 IEM_DS3505
ZGNN,2000-03-04 06:00,ZGNN 040600Z AUTO 07002KT 4SM 20/17 A2994 RMK SLP134 T01960170 57033 IEM_DS3505
ZGNN,2000-03-04 07:00,ZGNN 040700Z AUTO 06004KT 4SM 20/17 A2991 RMK T02000170 IEM_DS3505
ZGNN,2000-03-04 08:00,ZGNN 040800Z AUTO 10008KT 3SM 20/17 A2988 RMK T02000170 IEM_DS3505
ZGNN,2000-03-04 09:00,ZGNN 040900Z AUTO 16004KT 4SM 20/17 A2985 RMK SLP111 T01970173 57023 IEM_DS3505
ZGNN,2000-03-04 10:00,ZGNN 041000Z AUTO 11004KT 7SM 20/17 A2988 RMK T02000170 IEM_DS3505
ZGNN,2000-03-04 11:00,ZGNN 041100Z AUTO 10004KT 7SM 19/17 A2988 RMK T01900170 IEM_DS3505
ZGNN,2000-03-04 12:00,ZGNN 041200Z AUTO 11002KT 4SM 18/18 RMK 60003 SLP122 T01820177 52011 IEM_DS3505
ZGNN,2000-03-04 13:00,ZGNN 041300Z AUTO 06006KT 1SM 18/18 A2991 RMK T01800180 IEM_DS3505
ZGNN,2000-03-04 15:00,ZGNN 041500Z AUTO 09002KT 4SM 18/18 RMK SLP138 T01770175 52016 IEM_DS3505
ZGNN,2000-03-04 18:00,ZGNN 041800Z AUTO 00000KT 4SM 18/18 RMK 60003 SLP136 T01770175 57001 IEM_DS3505
ZGNN,2000-03-04 21:00,ZGNN 042100Z AUTO 00000KT 4SM 18/17 RMK 70003 SLP122 T01750173 57014 IEM_DS3505
ZGNN,2000-03-04 22:00,ZGNN 042200Z AUTO 00000KT 1/4SM 17/17 A2991 RMK T01700170 IEM_DS3505
ZGNN,2000-03-05 00:00,ZGNN 050000Z AUTO 00000KT 1/8SM 17/17 A2994 RMK 60003 SLP140 T01720172 52017 IEM_DS3505
ZGNN,2000-03-05 01:00,ZGNN 050100Z AUTO 07006KT 1/4SM 17/17 A2997 RMK T01700170 IEM_DS3505
ZGNN,2000-03-05 02:00,ZGNN 050200Z AUTO 10006KT 1/4SM 17/17 A3000 RMK T01700170 IEM_DS3505
ZGNN,2000-03-05 03:00,ZGNN 050300Z AUTO 00000KT 1/4SM 17/17 A3000 RMK SLP153 T01710169 52013 IEM_DS3505
ZGNN,2000-03-05 04:00,ZGNN 050400Z AUTO 07004KT 1 1/2SM 17/17 A2997 RMK T01700170 IEM_DS3505
ZGNN,2000-03-05 05:00,ZGNN 050500Z AUTO 07002KT 1 1/2SM 18/17 A2994 RMK T01800170 IEM_DS3505
ZGNN,2000-03-05 06:00,ZGNN 050600Z AUTO 09002KT 1 1/2SM 18/17 A2991 RMK 60003 SLP126 T01810170 57027 IEM_DS3505
ZGNN,2000-03-05 07:00,ZGNN 050700Z AUTO 07002KT 2SM 19/17 A2988 RMK T01900170 IEM_DS3505
ZGNN,2000-03-05 08:00,ZGNN 050800Z AUTO 04004KT 3SM 19/17 A2985 RMK T01900170 IEM_DS3505
ZGNN,2000-03-05 09:00,ZGNN 050900Z AUTO 00000KT 2 1/2SM 19/17 A2985 RMK SLP104 T01930172 57021 IEM_DS3505
ZGNN,2000-03-05 10:00,ZGNN 051000Z AUTO 02004KT 3SM 19/17 A2985 RMK T01900170 IEM_DS3505
ZGNN,2000-03-05 11:00,ZGNN 051100Z AUTO 05002KT 4SM 19/17 A2985 RMK T01900170 IEM_DS3505
ZGNN,2000-03-05 12:00,ZGNN 051200Z AUTO 00000KT 6SM 18/17 A2985 RMK 60003 SLP115 T01850172 52011 IEM_DS3505
ZGNN,2000-03-05 13:00,ZGNN 051300Z AUTO 03006KT 4SM 18/16 A2991 RMK T01800160 IEM_DS3505
ZGNN,2000-03-05 14:00,ZGNN 051400Z AUTO 04006KT 4SM 18/16 A2991 RMK T01800160 IEM_DS3505
ZGNN,2000-03-05 15:00,ZGNN 051500Z AUTO 00000KT 7SM 17/16 RMK SLP136 T01730156 52020 IEM_DS3505
ZGNN,2000-03-05 18:00,ZGNN 051800Z AUTO 00000KT 7SM 17/15 RMK SLP130 T01660152 57006 IEM_DS3505
ZGNN,2000-03-05 21:00,ZGNN 052100Z AUTO 00000KT 7SM 16/15 RMK 70003 SLP125 T01570147 57005 IEM_DS3505
ZGNN,2000-03-05 22:00,ZGNN 052200Z AUTO 00000KT 2 1/2SM 15/15 A2991 RMK T01500150 IEM_DS3505
ZGNN,2000-03-05 23:00,ZGNN 052300Z AUTO 00000KT 2SM 15/14 A2994 RMK T01500140 IEM_DS3505
ZGNN,2000-03-06 00:00,ZGNN 060000Z AUTO 00000KT 4SM 15/14 A2994 RMK 70003 SLP140 T01490144 52015 IEM_DS3505
ZGNN,2000-03-06 01:00,ZGNN 060100Z AUTO 05002KT 6SM 17/15 A2997 RMK T01700150 IEM_DS3505
ZGNN,2000-03-06 02:00,ZGNN 060200Z AUTO 04004KT 6SM 18/14 A3000 RMK T01800140 IEM_DS3505
ZGNN,2000-03-06 03:00,ZGNN 060300Z AUTO 04004KT 6SM 20/14 A3000 RMK SLP157 T01950144 52017 IEM_DS3505
ZGNN,2000-03-06 04:00,ZGNN 060400Z AUTO 05006KT 6SM 21/15 A2997 RMK T02100150 IEM_DS3505
ZGNN,2000-03-06 05:00,ZGNN 060500Z AUTO 09006KT 6SM 24/16 A2994 RMK T02400160 IEM_DS3505
ZGNN,2000-03-06 06:00,ZGNN 060600Z AUTO 20004KT 7SM 23/16 A2991 RMK SLP129 T02290162 57027 IEM_DS3505
ZGNN,2000-03-06 07:00,ZGNN 060700Z AUTO 00000KT 6SM 24/17 A2985 RMK T02400170 IEM_DS3505
ZGNN,2000-03-06 08:00,ZGNN 060800Z AUTO 21004KT 6SM 25/16 A2985 RMK T02500160 IEM_DS3505
ZGNN,2000-03-06 09:00,ZGNN 060900Z AUTO 16002KT 9SM 25/17 A2983 RMK SLP099 T02490173 57029 IEM_DS3505
ZGNN,2000-03-06 10:00,ZGNN 061000Z AUTO 09004KT 6SM 24/17 A2983 RMK T02400170 IEM_DS3505
ZGNN,2000-03-06 11:00,ZGNN 061100Z AUTO 07004KT 6SM 22/18 A2985 RMK T02200180 IEM_DS3505
ZGNN,2000-03-06 12:00,ZGNN 061200Z AUTO 00000KT 9SM 21/18 A2988 RMK SLP115 T02070177 52015 IEM_DS3505
ZGNN,2000-03-06 13:00,ZGNN 061300Z AUTO 03004KT 6SM 20/18 A2991 RMK T02000180 IEM_DS3505
ZGNN,2000-03-06 14:00,ZGNN 061400Z AUTO 03004KT 6SM 19/17 A2991 RMK T01900170 IEM_DS3505
ZGNN,2000-03-06 15:00,ZGNN 061500Z AUTO 00000KT 9SM 18/16 RMK SLP137 T01840159 52022 IEM_DS3505
ZGNN,2000-03-06 18:00,ZGNN 061800Z AUTO 09002KT 9SM 17/14 RMK SLP146 T01690143 52009 IEM_DS3505
ZGNN,2000-03-06 21:00,ZGNN 062100Z AUTO 14004KT 9SM 16/14 RMK SLP135 T01640136 57010 IEM_DS3505
ZGNN,2000-03-06 22:00,ZGNN 062200Z AUTO 06006KT 7SM 17/14 A2994 RMK T01700140 IEM_DS3505
ZGNN,2000-03-06 23:00,ZGNN 062300Z AUTO 07004KT 7SM 17/14 A2997 RMK T01700140 IEM_DS3505
ZGNN,2000-03-07 00:00,ZGNN 070000Z AUTO 07004KT 2 1/2SM 17/14 A3000 RMK 60003 SLP152 T01670135 52015 IEM_DS3505
ZGNN,2000-03-07 01:00,ZGNN 070100Z AUTO 05004KT 2 1/2SM 16/15 A3000 RMK T01600150 IEM_DS3505
ZGNN,2000-03-07 02:00,ZGNN 070200Z AUTO 09006KT 2SM 17/16 A3003 RMK T01700160 IEM_DS3505
ZGNN,2000-03-07 03:00,ZGNN 070300Z AUTO 09004KT 6SM 17/15 A3003 RMK SLP168 T01730147 52016 IEM_DS3505
ZGNN,2000-03-07 04:00,ZGNN 070400Z AUTO 03004KT 2SM 19/16 A3000 RMK T01900160 IEM_DS3505
ZGNN,2000-03-07 05:00,ZGNN 070500Z AUTO 10008KT 4SM 21/17 A2997 RMK T02100170 IEM_DS3505
ZGNN,2000-03-07 06:00,ZGNN 070600Z AUTO 36004KT 7SM 21/17 A2994 RMK 60003 SLP140 T02140172 57027 IEM_DS3505
ZGNN,2000-03-07 07:00,ZGNN 070700Z AUTO 12008KT 7SM 23/17 A2991 RMK T02300170 IEM_DS3505
ZGNN,2000-03-07 08:00,ZGNN 070800Z AUTO 14006KT 7SM 24/18 A2988 RMK T02400180 IEM_DS3505
ZGNN,2000-03-07 09:00,ZGNN 070900Z AUTO 18004KT 16SM 23/18 A2988 RMK SLP115 T02320178 57024 IEM_DS3505
ZGNN,2000-03-07 10:00,ZGNN 071000Z AUTO 15010KT 7SM 22/18 A2988 RMK T02200180 IEM_DS3505
ZGNN,2000-03-07 11:00,ZGNN 071100Z AUTO 13004KT 7SM 21/19 A2991 RMK T02100190 IEM_DS3505
ZGNN,2000-03-07 12:00,ZGNN 071200Z AUTO 00000KT 12SM 19/16 A2991 RMK SLP130 T01940161 52013 IEM_DS3505
ZGNN,2000-03-07 13:00,ZGNN 071300Z AUTO 07006KT 7SM 20/16 A2994 RMK T02000160 IEM_DS3505
ZGNN,2000-03-07 15:00,ZGNN 071500Z AUTO 00000KT 9SM 17/14 RMK SLP156 T01720144 52026 IEM_DS3505
ZGNN,2000-03-07 18:00,ZGNN 071800Z AUTO 09004KT 9SM 16/14 RMK SLP159 T01610135 52003 IEM_DS3505
ZGNN,2000-03-07 21:00,ZGNN 072100Z AUTO 00000KT 7SM 15/14 RMK 70003 SLP153 T01530139 57005 IEM_DS3505
ZGNN,2000-03-07 22:00,ZGNN 072200Z AUTO 04004KT 5SM 15/14 A3000 RMK T01500140 IEM_DS3505
ZGNN,2000-03-07 23:00,ZGNN 072300Z AUTO 05004KT 1 1/2SM 15/14 A3003 RMK T01500140 IEM_DS3505
ZGNN,2000-03-08 00:00,ZGNN 080000Z AUTO 00000KT 3SM 15/14 A3006 RMK 60000 SLP175 T01480141 52020 IEM_DS3505
ZGNN,2000-03-08 01:00,ZGNN 080100Z AUTO 05004KT 1SM 15/14 A3006 RMK T01500140 IEM_DS3505
ZGNN,2000-03-08 02:00,ZGNN 080200Z AUTO 06004KT 1 1/2SM 15/14 A3006 RMK T01500140 IEM_DS3505
ZGNN,2000-03-08 03:00,ZGNN 080300Z AUTO 04004KT 5SM 15/14 A3006 RMK SLP184 T01540140 52009 IEM_DS3505
ZGNN,2000-03-08 04:00,ZGNN 080400Z AUTO 06006KT 1 1/2SM 15/14 A3006 RMK T01500140 IEM_DS3505
ZGNN,2000-03-08 05:00,ZGNN 080500Z AUTO 05006KT 1 1/4SM 15/15 A3003 RMK T01500150 IEM_DS3505
ZGNN,2000-03-08 06:00,ZGNN 080600Z AUTO 11004KT 4SM 16/14 A3000 RMK 60001 SLP157 T01580141 57027 IEM_DS3505
ZGNN,2000-03-08 07:00,ZGNN 080700Z AUTO 06006KT 3SM 16/14 A2997 RMK T01600140 IEM_DS3505
ZGNN,2000-03-08 08:00,ZGNN 080800Z AUTO 05006KT 7SM 16/14 A2994 RMK T01600140 IEM_DS3505
ZGNN,2000-03-08 09:00,ZGNN 080900Z AUTO 09006KT 4SM 16/14 A2994 RMK SLP140 T01620137 57017 IEM_DS3505
ZGNN,2000-03-08 10:00,ZGNN 081000Z AUTO 07006KT 7SM 16/ RMK IEM_DS3505
ZGNN,2000-03-08 11:00,ZGNN 081100Z AUTO 06006KT 7SM 15/13 A2997 RMK T01500130 IEM_DS3505
ZGNN,2000-03-08 12:00,ZGNN 081200Z AUTO 14002KT 4SM 15/13 A2997 RMK 60003 SLP149 T01500134 52009 IEM_DS3505
ZGNN,2000-03-08 13:00,ZGNN 081300Z AUTO 10006KT 7SM 15/13 A2997 RMK T01500130 IEM_DS3505
ZGNN,2000-03-08 14:00,ZGNN 081400Z AUTO 07006KT 7SM 14/13 A3000 RMK T01400130 IEM_DS3505
ZGNN,2000-03-08 15:00,ZGNN 081500Z AUTO 07004KT 6SM 14/12 RMK SLP167 T01430123 52017 IEM_DS3505
ZGNN,2000-03-08 18:00,ZGNN 081800Z AUTO 00000KT 5SM 13/13 RMK 60003 SLP169 T01340127 52002 IEM_DS3505
ZGNN,2000-03-08 21:00,ZGNN 082100Z AUTO 00000KT 4SM 13/12 RMK 70004 SLP165 T01290125 57004 IEM_DS3505
ZGNN,2000-03-08 22:00,ZGNN 082200Z AUTO 03006KT 2 1/2SM 12/12 A3003 RMK T01200120 IEM_DS3505
ZGNN,2000-03-08 23:00,ZGNN 082300Z AUTO 00000KT 1 1/4SM 13/13 A3003 RMK T01300130 IEM_DS3505
ZGNN,2000-03-09 00:00,ZGNN 090000Z AUTO 34004KT 1 1/4SM 13/13 A3006 RMK 60004 SLP181 T01300126 52016 IEM_DS3505
ZGNN,2000-03-09 01:00,ZGNN 090100Z AUTO 01004KT 1 1/4SM 13/13 A3009 RMK T01300130 IEM_DS3505
ZGNN,2000-03-09 02:00,ZGNN 090200Z AUTO 04006KT 2SM 13/13 A3009 RMK T01300130 IEM_DS3505
ZGNN,2000-03-09 03:00,ZGNN 090300Z AUTO 00000KT 3SM 14/13 A3009 RMK SLP197 T01360131 52015 IEM_DS3505
ZGNN,2000-03-09 04:00,ZGNN 090400Z AUTO 09006KT 2SM 14/13 A3009 RMK T01400130 IEM_DS3505
ZGNN,2000-03-09 05:00,ZGNN 090500Z AUTO 07004KT 2SM 14/14 A3006 RMK T01400140 IEM_DS3505
ZGNN,2000-03-09 06:00,ZGNN 090600Z AUTO 34004KT 2 1/2SM 14/13 A3003 RMK 60002 SLP175 T01370132 57022 IEM_DS3505
ZGNN,2000-03-09 07:00,ZGNN 090700Z AUTO 06006KT 1SM 13/13 A3003 RMK T01300130 IEM_DS3505
ZGNN,2000-03-09 08:00,ZGNN 090800Z AUTO 05004KT 1SM 13/13 A3000 RMK T01300130 IEM_DS3505
ZGNN,2000-03-09 09:00,ZGNN 090900Z AUTO 09004KT 2 1/2SM 13/13 A3000 RMK SLP160 T01320128 57015 IEM_DS3505
ZGNN,2000-03-09 10:00,ZGNN 091000Z AUTO 06008KT 1SM 13/13 A3000 RMK T01300130 IEM_DS3505
ZGNN,2000-03-09 11:00,ZGNN 091100Z AUTO 00000KT 1SM 12/12 A3000 RMK T01200120 IEM_DS3505
ZGNN,2000-03-09 12:00,ZGNN 091200Z AUTO 00000KT 2SM 12/12 A3003 RMK 60004 SLP169 T01230119 52009 IEM_DS3505
ZGNN,2000-03-09 13:00,ZGNN 091300Z AUTO 06004KT 1SM 12/12 A3003 RMK T01200120 IEM_DS3505
ZGNN,2000-03-09 15:00,ZGNN 091500Z AUTO 00000KT 2SM 12/12 RMK SLP183 T01220118 52014 IEM_DS3505
ZGNN,2000-03-09 18:00,ZGNN 091800Z AUTO 00000KT 2 1/2SM 12/12 RMK 60016 SLP169 T01200116 57014 IEM_DS3505
ZGNN,2000-03-09 21:00,ZGNN 092100Z AUTO 02002KT 2 1/2SM 12/12 RMK 70025 SLP155 T01170115 57014 IEM_DS3505
ZGNN,2000-03-09 22:00,ZGNN 092200Z AUTO 01004KT 3SM 12/12 A3000 RMK T01200120 IEM_DS3505
ZGNN,2000-03-09 23:00,ZGNN 092300Z AUTO 07004KT 3SM 12/12 A3000 RMK T01200120 IEM_DS3505
ZGNN,2000-03-10 00:00,ZGNN 100000Z AUTO 11004KT 2 1/2SM 12/11 A3000 RMK 60004 SLP166 T01200114 52011 IEM_DS3505
ZGNN,2000-03-10 01:00,ZGNN 100100Z AUTO 00000KT 2SM 12/12 A3003 RMK T01200120 IEM_DS3505
ZGNN,2000-03-10 02:00,ZGNN 100200Z AUTO 35010KT 1 1/4SM 13/12 A3003 RMK T01300120 IEM_DS3505
ZGNN,2000-03-10 03:00,ZGNN 100300Z AUTO 34004KT 2 1/2SM 12/12 A3006 RMK SLP180 T01240118 52014 IEM_DS3505
ZGNN,2000-03-10 04:00,ZGNN 100400Z AUTO 34008KT 3SM 12/12 A3006 RMK T01200120 IEM_DS3505
ZGNN,2000-03-10 05:00,ZGNN 100500Z AUTO 36002KT 4SM 12/12 A3003 RMK T01200120 IEM_DS3505
ZGNN,2000-03-10 06:00,ZGNN 100600Z AUTO 04002KT 4SM 12/12 A3000 RMK 60008 SLP164 T01230117 57016 IEM_DS3505
ZGNN,2000-03-10 07:00,ZGNN 100700Z AUTO 06002KT 4SM 12/12 A2997 RMK T01200120 IEM_DS3505
ZGNN,2000-03-10 08:00,ZGNN 100800Z AUTO 01004KT 3SM 12/12 A2994 RMK T01200120 IEM_DS3505
ZGNN,2000-03-10 09:00,ZGNN 100900Z AUTO 36002KT 2SM 12/12 A2994 RMK SLP144 T01220116 57020 IEM_DS3505
ZGNN,2000-03-10 10:00,ZGNN 101000Z AUTO 05004KT 1 1/4SM 12/12 A2994 RMK T01200120 IEM_DS3505
ZGNN,2000-03-10 11:00,ZGNN 101100Z AUTO 04002KT 4SM 12/12 A2994 RMK T01200120 IEM_DS3505
ZGNN,2000-03-10 12:00,ZGNN 101200Z AUTO 04004KT 4SM 12/11 A2997 RMK 60012 SLP146 T01190113 52002 IEM_DS3505
ZGNN,2000-03-10 13:00,ZGNN 101300Z AUTO 06002KT 4SM 12/12 A2997 RMK T01200120 IEM_DS3505
ZGNN,2000-03-10 14:00,ZGNN 101400Z AUTO 09002KT 2 1/2SM 12/12 A2997 RMK T01200120 IEM_DS3505
ZGNN,2000-03-10 15:00,ZGNN 101500Z AUTO 36004KT 2SM 12/12 RMK SLP154 T01200116 52008 IEM_DS3505
ZGNN,2000-03-10 18:00,ZGNN 101800Z AUTO 04002KT 2SM 12/12 RMK 60000 SLP142 T01170115 57012 IEM_DS3505
ZGNN,2000-03-10 21:00,ZGNN 102100Z AUTO 34002KT 2 1/2SM 12/11 RMK 70024 SLP143 T01180110 52001 IEM_DS3505
ZGNN,2000-03-10 22:00,ZGNN 102200Z AUTO 34008KT 7SM 12/11 A2997 RMK T01200110 IEM_DS3505
ZGNN,2000-03-10 23:00,ZGNN 102300Z AUTO 03004KT 7SM 11/10 A2997 RMK T01100100 IEM_DS3505
ZGNN,2000-03-11 00:00,ZGNN 110000Z AUTO 00000KT 19SM 12/10 A3000 RMK 60002 SLP167 T01150097 52024 IEM_DS3505
ZGNN,2000-03-11 01:00,ZGNN 110100Z AUTO 36004KT 7SM 12/11 A3003 RMK T01200110 IEM_DS3505
ZGNN,2000-03-11 02:00,ZGNN 110200Z AUTO 35004KT 7SM 12/10 A3006 RMK T01200100 IEM_DS3505
ZGNN,2000-03-11 03:00,ZGNN 110300Z AUTO 34006KT 19SM 13/10 A3003 RMK SLP176 T01280103 52009 IEM_DS3505
ZGNN,2000-03-11 04:00,ZGNN 110400Z AUTO 35010KT 7SM 14/11 A3003 RMK T01400110 IEM_DS3505
ZGNN,2000-03-11 05:00,ZGNN 110500Z AUTO 33008KT 7SM 14/11 A2997 RMK T01400110 IEM_DS3505
ZGNN,2000-03-11 06:00,ZGNN 110600Z AUTO 34004KT 19SM 15/10 A2994 RMK SLP142 T01470104 57033 IEM_DS3505
ZGNN,2000-03-11 07:00,ZGNN 110700Z AUTO 33006KT 7SM 16/11 A2991 RMK T01600110 IEM_DS3505
ZGNN,2000-03-11 08:00,ZGNN 110800Z AUTO 35006KT 7SM 15/11 A2991 RMK T01500110 IEM_DS3505
ZGNN,2000-03-11 09:00,ZGNN 110900Z AUTO 02004KT 19SM 15/10 A2988 RMK SLP124 T01510104 57018 IEM_DS3505
ZGNN,2000-03-11 10:00,ZGNN 111000Z AUTO 02004KT 7SM 15/11 A2991 RMK T01500110 IEM_DS3505
ZGNN,2000-03-11 11:00,ZGNN 111100Z AUTO 03004KT 7SM 15/12 A2991 RMK T01500120 IEM_DS3505
ZGNN,2000-03-11 12:00,ZGNN 111200Z AUTO 04004KT 19SM 14/12 A2994 RMK 60003 SLP137 T01440116 52013 IEM_DS3505
ZGNN,2000-03-11 13:00,ZGNN 111300Z AUTO 02004KT 7SM 14/12 A2994 RMK T01400120 IEM_DS3505
ZGNN,2000-03-11 14:00,ZGNN 111400Z AUTO 36004KT 7SM 14/12 A2994 RMK T01400120 IEM_DS3505
ZGNN,2000-03-11 15:00,ZGNN 111500Z AUTO 02002KT 17SM 14/12 RMK SLP142 T01390115 52005 IEM_DS3505
ZGNN,2000-03-11 18:00,ZGNN 111800Z AUTO 00000KT 16SM 13/11 RMK SLP133 T01340108 57009 IEM_DS3505
ZGNN,2000-03-11 21:00,ZGNN 112100Z AUTO 34004KT 12SM 13/10 RMK 70000 SLP132 T01300105 57001 IEM_DS3505
ZGNN,2000-03-11 22:00,ZGNN 112200Z AUTO 36004KT 7SM 13/12 A2994 RMK T01300120 IEM_DS3505
ZGNN,2000-03-11 23:00,ZGNN 112300Z AUTO 33004KT 7SM 13/12 A2994 RMK T01300120 IEM_DS3505
ZGNN,2000-03-12 00:00,ZGNN 120000Z AUTO 36004KT 12SM 13/10 A2997 RMK 60003 SLP146 T01290098 52014 IEM_DS3505
ZGNN,2000-03-12 01:00,ZGNN 120100Z AUTO 34004KT 7SM 13/11 A3000 RMK T01300110 IEM_DS3505
ZGNN,2000-03-12 02:00,ZGNN 120200Z AUTO 33004KT 7SM 13/10 A3000 RMK T01300100 IEM_DS3505
ZGNN,2000-03-12 03:00,ZGNN 120300Z AUTO 32006KT 14SM 13/10 A3000 RMK SLP156 T01320097 52010 IEM_DS3505
ZGNN,2000-03-12 04:00,ZGNN 120400Z AUTO 32004KT 7SM 14/10 A2997 RMK T01400100 IEM_DS3505
ZGNN,2000-03-12 05:00,ZGNN 120500Z AUTO 33006KT 7SM 14/10 A2994 RMK T01400100 IEM_DS3505
ZGNN,2000-03-12 06:00,ZGNN 120600Z AUTO 36006KT 16SM 14/10 A2991 RMK SLP128 T01430105 57028 IEM_DS3505
ZGNN,2000-03-12 07:00,ZGNN 120700Z AUTO 30004KT 7SM 15/10 A2988 RMK T01500100 IEM_DS3505
ZGNN,2000-03-12 08:00,ZGNN 120800Z AUTO 00000KT 7SM 15/11 A2985 RMK T01500110 IEM_DS3505
ZGNN,2000-03-12 09:00,ZGNN 120900Z AUTO 36002KT 16SM 15/11 A2985 RMK SLP111 T01530108 57016 IEM_DS3505
ZGNN,2000-03-12 10:00,ZGNN 121000Z AUTO 10004KT 4SM 15/11 A2985 RMK T01500110 IEM_DS3505
ZGNN,2000-03-12 11:00,ZGNN 121100Z AUTO 00000KT 4SM 15/12 A2988 RMK T01500120 IEM_DS3505
ZGNN,2000-03-12 12:00,ZGNN 121200Z AUTO 09002KT 5SM 15/12 A2988 RMK SLP125 T01470116 52013 IEM_DS3505
ZGNN,2000-03-12 13:00,ZGNN 121300Z AUTO 14004KT 2 1/2SM 14/13 A2991 RMK T01400130 IEM_DS3505
ZGNN,2000-03-12 14:00,ZGNN 121400Z AUTO 14004KT 2 1/2SM 14/13 A2994 RMK T01400130 IEM_DS3505
ZGNN,2000-03-12 15:00,ZGNN 121500Z AUTO 00000KT 5SM 14/11 RMK SLP140 T01350111 52015 IEM_DS3505
ZGNN,2000-03-12 18:00,ZGNN 121800Z AUTO 00000KT 5SM 13/11 RMK SLP138 T01340110 57002 IEM_DS3505
ZGNN,2000-03-12 21:00,ZGNN 122100Z AUTO 00000KT 5SM 13/12 RMK SLP137 T01340117 57001 IEM_DS3505
ZGNN,2000-03-12 22:00,ZGNN 122200Z AUTO 00000KT 5SM 13/12 A2994 RMK T01300120 IEM_DS3505
ZGNN,2000-03-12 23:00,ZGNN 122300Z AUTO 00000KT 5SM 13/12 A2997 RMK T01300120 IEM_DS3505
ZGNN,2000-03-13 00:00,ZGNN 130000Z AUTO 00000KT 2 1/2SM 13/12 A3000 RMK SLP161 T01340121 52024 IEM_DS3505
ZGNN,2000-03-13 01:00,ZGNN 130100Z AUTO 00000KT 4SM 14/12 A3003 RMK T01400120 IEM_DS3505
ZGNN,2000-03-13 02:00,ZGNN 130200Z AUTO 00000KT 4SM 15/12 A3003 RMK T01500120 IEM_DS3505
ZGNN,2000-03-13 03:00,ZGNN 130300Z AUTO 16004KT 4SM 16/11 A3003 RMK SLP170 T01560112 52009 IEM_DS3505
ZGNN,2000-03-13 04:00,ZGNN 130400Z AUTO 7SM RMK IEM_DS3505
ZGNN,2000-03-13 05:00,ZGNN 130500Z AUTO 00000KT 7SM 17/12 A2997 RMK T01700120 IEM_DS3505
ZGNN,2000-03-13 06:00,ZGNN 130600Z AUTO 29002KT 6SM 18/12 A2994 RMK SLP138 T01760122 57031 IEM_DS3505
ZGNN,2000-03-13 07:00,ZGNN 130700Z AUTO 00000KT 7SM 19/13 A2991 RMK T01900130 IEM_DS3505
ZGNN,2000-03-13 08:00,ZGNN 130800Z AUTO 08006KT 7SM 19/13 A2988 RMK T01900130 IEM_DS3505
ZGNN,2000-03-13 09:00,ZGNN 130900Z AUTO 02002KT 7SM 19/14 A2985 RMK SLP111 T01920137 57026 IEM_DS3505
ZGNN,2000-03-13 10:00,ZGNN 131000Z AUTO 06006KT 7SM 18/14 A2988 RMK T01800140 IEM_DS3505
ZGNN,2000-03-13 11:00,ZGNN 131100Z AUTO 09006KT 7SM 18/14 A2988 RMK T01800140 IEM_DS3505
ZGNN,2000-03-13 12:00,ZGNN 131200Z AUTO 14006KT 9SM 17/14 A2991 RMK SLP132 T01710138 52020 IEM_DS3505
ZGNN,2000-03-13 13:00,ZGNN 131300Z AUTO 07006KT 7SM 17/14 A2994 RMK T01700140 IEM_DS3505
ZGNN,2000-03-13 14:00,ZGNN 131400Z AUTO 09006KT 7SM 17/14 A2997 RMK T01700140 IEM_DS3505
ZGNN,2000-03-13 15:00,ZGNN 131500Z AUTO 11002KT 9SM 16/14 RMK SLP148 T01650137 52016 IEM_DS3505
ZGNN,2000-03-13 18:00,ZGNN 131800Z AUTO 09004KT 7SM 15/15 RMK 60003 SLP142 T01530146 57006 IEM_DS3505
ZGNN,2000-03-13 21:00,ZGNN 132100Z AUTO 00000KT 7SM 15/14 RMK 70003 SLP132 T01530144 57009 IEM_DS3505
ZGNN,2000-03-13 22:00,ZGNN 132200Z AUTO 06006KT 2 1/2SM 15/15 A2994 RMK T01500150 IEM_DS3505
ZGNN,2000-03-13 23:00,ZGNN 132300Z AUTO 06006KT 1 1/4SM 15/15 A2997 RMK T01500150 IEM_DS3505
ZGNN,2000-03-14 00:00,ZGNN 140000Z AUTO 09002KT 4SM 15/15 A3000 RMK 60003 SLP153 T01540147 52020 IEM_DS3505
ZGNN,2000-03-14 01:00,ZGNN 140100Z AUTO 10004KT 1 1/4SM 16/15 A3000 RMK T01600150 IEM_DS3505
ZGNN,2000-03-14 02:00,ZGNN 140200Z AUTO 09006KT 1 1/2SM 16/16 A3000 RMK T01600160 IEM_DS3505
ZGNN,2000-03-14 03:00,ZGNN 140300Z AUTO 16004KT 4SM 17/16 A3000 RMK SLP159 T01670155 52006 IEM_DS3505
ZGNN,2000-03-14 04:00,ZGNN 140400Z AUTO 00000KT 3SM 18/16 A2997 RMK T01800160 IEM_DS3505
ZGNN,2000-03-14 05:00,ZGNN 140500Z AUTO 00000KT 3SM 19/17 A2994 RMK T01900170 IEM_DS3505
ZGNN,2000-03-14 06:00,ZGNN 140600Z AUTO 11004KT 5SM 18/17 A2991 RMK 60003 SLP124 T01850167 57034 IEM_DS3505
ZGNN,2000-03-14 07:00,ZGNN 140700Z AUTO 04004KT 4SM 20/17 A2985 RMK T02000170 IEM_DS3505
ZGNN,2000-03-14 08:00,ZGNN 140800Z AUTO 06004KT 4SM 19/17 A2983 RMK T01900170 IEM_DS3505
ZGNN,2000-03-14 09:00,ZGNN 140900Z AUTO 11002KT 4SM 18/17 A2983 RMK SLP103 T01840173 57021 IEM_DS3505
ZGNN,2000-03-14 10:00,ZGNN 141000Z AUTO 07006KT 1SM 18/17 A2985 RMK T01800170 IEM_DS3505
ZGNN,2000-03-14 11:00,ZGNN 141100Z AUTO 07004KT 1/2SM 17/17 A2985 RMK T01700170 IEM_DS3505
ZGNN,2000-03-14 12:00,ZGNN 141200Z AUTO 00000KT 3SM 17/17 A2985 RMK 60000 SLP115 T01740171 52012 IEM_DS3505
ZGNN,2000-03-14 13:00,ZGNN 141300Z AUTO 00000KT 1/2SM 17/17 A2988 RMK T01700170 IEM_DS3505
ZGNN,2000-03-14 15:00,ZGNN 141500Z AUTO 00000KT 3SM 17/17 RMK SLP130 T01740172 52015 IEM_DS3505
ZGNN,2000-03-14 18:00,ZGNN 141800Z AUTO 00000KT 2 1/2SM 18/18 RMK 60000 SLP116 T01790177 57013 IEM_DS3505
ZGNN,2000-03-14 21:00,ZGNN 142100Z AUTO 00000KT 3SM 20/20 RMK 70001 SLP107 T01980196 57009 IEM_DS3505
ZGNN,2000-03-14 22:00,ZGNN 142200Z AUTO 00000KT 3/8SM 19/19 A2985 RMK T01900190 IEM_DS3505
ZGNN,2000-03-14 23:00,ZGNN 142300Z AUTO 00000KT 3/8SM 19/19 A2988 RMK T01900190 IEM_DS3505
ZGNN,2000-03-15 00:00,ZGNN 150000Z AUTO 00000KT 3/8SM 20/19 A2988 RMK 60003 SLP115 T01960194 52008 IEM_DS3505
ZGNN,2000-03-15 01:00,ZGNN 150100Z AUTO 00000KT 1/2SM 20/20 A2991 RMK T02000200 IEM_DS3505
ZGNN,2000-03-15 02:00,ZGNN 150200Z AUTO 00000KT 1SM 21/20 A2991 RMK T02100200 IEM_DS3505
ZGNN,2000-03-15 03:00,ZGNN 150300Z AUTO 00000KT 5SM 21/21 A2991 RMK T02100210 IEM_DS3505
ZGNN,2000-03-15 04:00,ZGNN 150400Z AUTO 24002KT 3SM 22/21 A2988 RMK T02200210 IEM_DS3505
ZGNN,2000-03-15 05:00,ZGNN 150500Z AUTO 00000KT 7SM 25/20 A2985 RMK T02500200 IEM_DS3505
ZGNN,2000-03-15 06:00,ZGNN 150600Z AUTO 14004KT 16SM 25/21 A2983 RMK SLP098 T02480209 57030 IEM_DS3505
ZGNN,2000-03-15 07:00,ZGNN 150700Z AUTO 13004KT 7SM 26/20 A2980 RMK T02600200 IEM_DS3505
ZGNN,2000-03-15 08:00,ZGNN 150800Z AUTO 12006KT 7SM 26/21 A2977 RMK T02600210 IEM_DS3505
ZGNN,2000-03-15 09:00,ZGNN 150900Z AUTO 09006KT 16SM 26/21 A2977 RMK SLP073 T02580213 57024 IEM_DS3505
ZGNN,2000-03-15 10:00,ZGNN 151000Z AUTO 09008KT 6SM 26/21 A2977 RMK T02600210 IEM_DS3505
ZGNN,2000-03-15 11:00,ZGNN 151100Z AUTO 04002KT 7SM 24/21 A2977 RMK T02400210 IEM_DS3505
ZGNN,2000-03-15 12:00,ZGNN 151200Z AUTO 04002KT 17SM 24/21 A2980 RMK SLP087 T02360214 52013 IEM_DS3505
ZGNN,2000-03-15 13:00,ZGNN 151300Z AUTO 05002KT 7SM 23/21 A2983 RMK T02300210 IEM_DS3505
ZGNN,2000-03-15 14:00,ZGNN 151400Z AUTO 00000KT 7SM 22/21 A2985 RMK T02200210 IEM_DS3505
ZGNN,2000-03-15 15:00,ZGNN 151500Z AUTO 00000KT 17SM 22/21 A2985 RMK SLP107 T02190208 52020 IEM_DS3505
ZGNN,2000-03-15 18:00,ZGNN 151800Z AUTO 04002KT 14SM 22/21 RMK SLP103 T02160208 57004 IEM_DS3505
ZGNN,2000-03-15 21:00,ZGNN 152100Z AUTO 09002KT 12SM 18/15 RMK 70001 SLP105 T01780151 52002 IEM_DS3505
ZGNN,2000-03-15 22:00,ZGNN 152200Z AUTO 05008KT 7SM 17/14 A2985 RMK T01700140 IEM_DS3505
ZGNN,2000-03-15 23:00,ZGNN 152300Z AUTO 03006KT 7SM 17/14 A2988 RMK T01700140 IEM_DS3505
ZGNN,2000-03-16 00:00,ZGNN 160000Z AUTO 36002KT 12SM 17/14 A2991 RMK 60000 SLP129 T01690136 52023 IEM_DS3505
ZGNN,2000-03-16 01:00,ZGNN 160100Z AUTO 04004KT 7SM 17/14 A2994 RMK T01700140 IEM_DS3505
ZGNN,2000-03-16 02:00,ZGNN 160200Z AUTO 05002KT 7SM 18/13 A2997 RMK T01800130 IEM_DS3505
ZGNN,2000-03-16 03:00,ZGNN 160300Z AUTO 04002KT 9SM 18/13 RMK SLP151 T01780128 52021 IEM_DS3505
ZGNN,2000-03-16 04:00,ZGNN 160400Z AUTO 06006KT 7SM 18/11 A2997 RMK T01800110 IEM_DS3505
ZGNN,2000-03-16 05:00,ZGNN 160500Z AUTO 03004KT 7SM 18/13 A2994 RMK T01800130 IEM_DS3505
ZGNN,2000-03-16 06:00,ZGNN 160600Z AUTO 09006KT 7SM 18/13 A2991 RMK 60003 SLP131 T01840127 57020 IEM_DS3505
ZGNN,2000-03-16 07:00,ZGNN 160700Z AUTO 03006KT 7SM 18/13 A2988 RMK T01800130 IEM_DS3505
ZGNN,2000-03-16 08:00,ZGNN 160800Z AUTO 03004KT 7SM 18/13 A2988 RMK T01800130 IEM_DS3505
ZGNN,2000-03-16 09:00,ZGNN 160900Z AUTO 00000KT 6SM 17/12 A2988 RMK SLP119 T01720122 57013 IEM_DS3505
ZGNN,2000-03-16 10:00,ZGNN 161000Z AUTO 05004KT 7SM 17/12 A2988 RMK T01700120 IEM_DS3505
ZGNN,2000-03-16 11:00,ZGNN 161100Z AUTO 07004KT 7SM 16/12 A2991 RMK T01600120 IEM_DS3505
ZGNN,2000-03-16 12:00,ZGNN 161200Z AUTO 09002KT 6SM 16/12 A2991 RMK SLP133 T01600116 52014 IEM_DS3505
ZGNN,2000-03-16 13:00,ZGNN 161300Z AUTO 03008KT 7SM 16/11 A2994 RMK T01600110 IEM_DS3505
ZGNN,2000-03-16 15:00,ZGNN 161500Z AUTO 00000KT 6SM 15/12 RMK SLP150 T01520119 52016 IEM_DS3505
ZGNN,2000-03-16 18:00,ZGNN 161800Z AUTO 00000KT 6SM 15/12 RMK SLP144 T01470116 57006 IEM_DS3505
ZGNN,2000-03-16 21:00,ZGNN 162100Z AUTO 07002KT 6SM 14/12 RMK 70003 SLP132 T01440116 57012 IEM_DS3505
ZGNN,2000-03-16 22:00,ZGNN 162200Z AUTO 04008KT 7SM 14/13 A2991 RMK T01400130 IEM_DS3505
ZGNN,2000-03-16 23:00,ZGNN 162300Z AUTO 00000KT 4SM 14/12 A2994 RMK T01400120 IEM_DS3505
ZGNN,2000-03-17 00:00,ZGNN 170000Z AUTO 00000KT 5SM 14/12 A2994 RMK 70003 SLP144 T01390115 52012 IEM_DS3505
ZGNN,2000-03-17 01:00,ZGNN 170100Z AUTO 04004KT 2 1/2SM 14/12 A2997 RMK T01400120 IEM_DS3505
ZGNN,2000-03-17 02:00,ZGNN 170200Z AUTO 00000KT 1 1/4SM RMK IEM_DS3505
ZGNN,2000-03-17 03:00,ZGNN 170300Z AUTO 14004KT 4SM 14/12 A2997 RMK SLP150 T01360123 52005 IEM_DS3505
ZGNN,2000-03-17 04:00,ZGNN 170400Z AUTO 08004KT 1 1/4SM 14/13 A2994 RMK T01400130 IEM_DS3505
ZGNN,2000-03-17 05:00,ZGNN 170500Z AUTO 05008KT 2 1/2SM 15/13 A2991 RMK T01500130 IEM_DS3505
ZGNN,2000-03-17 06:00,ZGNN 170600Z AUTO 34002KT 4SM 15/13 A2988 RMK 60003 SLP122 T01480130 57027 IEM_DS3505
ZGNN,2000-03-17 07:00,ZGNN 170700Z AUTO 05006KT 1SM 14/14 A2985 RMK T01400140 IEM_DS3505
ZGNN,2000-03-17 09:00,ZGNN 170900Z AUTO 14004KT 3SM 14/14 A2983 RMK SLP100 T01450136 57022 IEM_DS3505
ZGNN,2000-03-17 10:00,ZGNN 171000Z AUTO 06006KT 1 1/4SM 14/14 A2983 RMK T01400140 IEM_DS3505
ZGNN,2000-03-17 11:00,ZGNN 171100Z AUTO 06004KT 1 1/4SM 14/13 A2983 RMK T01400130 IEM_DS3505
ZGNN,2000-03-17 12:00,ZGNN 171200Z AUTO 00000KT 2 1/2SM 14/13 A2985 RMK 60001 SLP108 T01410134 52008 IEM_DS3505
ZGNN,2000-03-17 13:00,ZGNN 171300Z AUTO 00000KT 1 1/4SM 14/13 A2985 RMK T01400130 IEM_DS3505
ZGNN,2000-03-17 14:00,ZGNN 171400Z AUTO 07006KT 2 1/2SM 13/13 A2985 RMK T01300130 IEM_DS3505
ZGNN,2000-03-17 15:00,ZGNN 171500Z AUTO 00000KT 2 1/2SM 14/13 RMK SLP121 T01370133 52012 IEM_DS3505
ZGNN,2000-03-17 21:00,ZGNN 172100Z AUTO 07002KT 2 1/2SM 14/14 RMK 70003 SLP114 T01400136 57001 IEM_DS3505
ZGNN,2000-03-17 22:00,ZGNN 172200Z AUTO 00000KT 1SM 14/14 A2988 RMK T01400140 IEM_DS3505
ZGNN,2000-03-17 23:00,ZGNN 172300Z AUTO 04004KT 1SM 14/14 A2988 RMK T01400140 IEM_DS3505
ZGNN,2000-03-18 00:00,ZGNN 180000Z AUTO 00000KT 2SM 14/14 A2991 RMK 60002 SLP130 T01420140 52015 IEM_DS3505
ZGNN,2000-03-18 01:00,ZGNN 180100Z AUTO 01004KT 1SM 15/15 A2994 RMK T01500150 IEM_DS3505
ZGNN,2000-03-18 02:00,ZGNN 180200Z AUTO 00000KT 1SM 15/15 A2994 RMK T01500150 IEM_DS3505
ZGNN,2000-03-18 03:00,ZGNN 180300Z AUTO 34004KT 2SM 15/15 A2994 RMK SLP146 T01520149 52016 IEM_DS3505
ZGNN,2000-03-18 04:00,ZGNN 180400Z AUTO 03006KT 1SM 15/15 A2994 RMK T01500150 IEM_DS3505
ZGNN,2000-03-18 05:00,ZGNN 180500Z AUTO 01004KT 1SM 16/15 A2991 RMK T01600150 IEM_DS3505
ZGNN,2000-03-18 06:00,ZGNN 180600Z AUTO 02002KT 3SM 16/15 A2988 RMK 60000 SLP123 T01600153 57022 IEM_DS3505
ZGNN,2000-03-18 08:00,ZGNN 180800Z AUTO 01004KT 1SM 16/15 A2985 RMK T01600150 IEM_DS3505
ZGNN,2000-03-18 09:00,ZGNN 180900Z AUTO 02002KT 2 1/2SM 16/15 A2985 RMK SLP107 T01560151 57016 IEM_DS3505
ZGNN,2000-03-18 10:00,ZGNN 181000Z AUTO 00000KT 1SM 15/15 A2985 RMK T01500150 IEM_DS3505
ZGNN,2000-03-18 11:00,ZGNN 181100Z AUTO 00000KT 1SM 15/15 A2985 RMK T01500150 IEM_DS3505
ZGNN,2000-03-18 12:00,ZGNN 181200Z AUTO 00000KT 2 1/2SM 15/15 A2988 RMK 60000 SLP116 T01530150 52009 IEM_DS3505
ZGNN,2000-03-18 13:00,ZGNN 181300Z AUTO 02004KT 1SM 15/15 A2991 RMK T01500150 IEM_DS3505
ZGNN,2000-03-18 14:00,ZGNN 181400Z AUTO 00000KT 1SM 15/15 A2994 RMK T01500150 IEM_DS3505
ZGNN,2000-03-18 15:00,ZGNN 181500Z AUTO 00000KT 3SM 15/15 RMK SLP139 T01520149 52023 IEM_DS3505
ZGNN,2000-03-18 18:00,ZGNN 181800Z AUTO 00000KT 1 1/4SM 15/15 RMK 60000 SLP138 T01500147 57001 IEM_DS3505
ZGNN,2000-03-18 21:00,ZGNN 182100Z AUTO 04004KT 2 1/2SM 15/15 RMK 70003 SLP133 T01500148 57005 IEM_DS3505
ZGNN,2000-03-18 22:00,ZGNN 182200Z AUTO 00000KT 1 1/4SM 15/15 A2994 RMK T01500150 IEM_DS3505
ZGNN,2000-03-18 23:00,ZGNN 182300Z AUTO 00000KT 1 1/4SM 15/15 A2994 RMK T01500150 IEM_DS3505
ZGNN,2000-03-19 00:00,ZGNN 190000Z AUTO 00000KT 2 1/2SM 15/15 A2997 RMK 60003 SLP147 T01510149 52014 IEM_DS3505
ZGNN,2000-03-19 01:00,ZGNN 190100Z AUTO 00000KT 1 1/4SM 15/15 A3000 RMK T01500150 IEM_DS3505
ZGNN,2000-03-19 02:00,ZGNN 190200Z AUTO 00000KT 1 1/2SM 15/15 A3000 RMK T01500150 IEM_DS3505
ZGNN,2000-03-19 03:00,ZGNN 190300Z AUTO 00000KT 3SM 16/15 A3000 RMK SLP161 T01580151 52014 IEM_DS3505
ZGNN,2000-03-19 04:00,ZGNN 190400Z AUTO 35002KT 2 1/2SM 16/16 A3000 RMK T01600160 IEM_DS3505
ZGNN,2000-03-19 05:00,ZGNN 190500Z AUTO 00000KT 4SM 16/15 A2997 RMK T01600150 IEM_DS3505
ZGNN,2000-03-19 06:00,ZGNN 190600Z AUTO 32006KT 3SM 16/15 A2994 RMK 60000 SLP135 T01650153 57026 IEM_DS3505
ZGNN,2000-03-19 07:00,ZGNN 190700Z AUTO 35002KT 6SM 17/16 A2988 RMK T01700160 IEM_DS3505
ZGNN,2000-03-19 08:00,ZGNN 190800Z AUTO 32004KT 6SM 17/16 A2988 RMK T01700160 IEM_DS3505
ZGNN,2000-03-19 09:00,ZGNN 190900Z AUTO 00000KT 3SM 17/16 A2988 RMK SLP117 T01660156 57018 IEM_DS3505
ZGNN,2000-03-19 10:00,ZGNN 191000Z AUTO 00000KT 3SM 17/16 A2988 RMK T01700160 IEM_DS3505
ZGNN,2000-03-19 11:00,ZGNN 191100Z AUTO 00000KT 1 1/2SM 16/16 A2988 RMK T01600160 IEM_DS3505
ZGNN,2000-03-19 12:00,ZGNN 191200Z AUTO 11002KT 1 1/4SM 16/16 RMK 60003 SLP120 T01640157 52003 IEM_DS3505
ZGNN,2000-03-19 13:00,ZGNN 191300Z AUTO 00000KT 1 1/4SM 16/16 A2991 RMK T01600160 IEM_DS3505
ZGNN,2000-03-19 14:00,ZGNN 191400Z AUTO 00000KT 1 1/4SM 16/16 A2994 RMK T01600160 IEM_DS3505
ZGNN,2000-03-19 15:00,ZGNN 191500Z AUTO 00000KT 1 1/2SM 16/16 RMK SLP139 T01650158 52019 IEM_DS3505
ZGNN,2000-03-19 18:00,ZGNN 191800Z AUTO 00000KT 1SM 16/16 RMK 60003 SLP132 T01610159 57006 IEM_DS3505
ZGNN,2000-03-19 21:00,ZGNN 192100Z AUTO 00000KT 1SM 16/16 RMK 70004 SLP121 T01610159 57011 IEM_DS3505
ZGNN,2000-03-19 22:00,ZGNN 192200Z AUTO 00000KT 1/4SM 16/16 A2988 RMK T01600160 IEM_DS3505
ZGNN,2000-03-19 23:00,ZGNN 192300Z AUTO 00000KT 1/4SM 16/16 A2991 RMK T01600160 IEM_DS3505
ZGNN,2000-03-20 00:00,ZGNN 200000Z AUTO 00000KT 1/4SM 16/16 A2991 RMK 60000 SLP131 T01640162 52010 IEM_DS3505
ZGNN,2000-03-20 01:00,ZGNN 200100Z AUTO 00000KT 3/8SM 17/17 A2994 RMK T01700170 IEM_DS3505
ZGNN,2000-03-20 02:00,ZGNN 200200Z AUTO 00000KT 1/2SM 18/18 A2994 RMK T01800180 IEM_DS3505
ZGNN,2000-03-20 03:00,ZGNN 200300Z AUTO 00000KT 3/8SM 18/18 A2994 RMK SLP140 T01780176 52009 IEM_DS3505
ZGNN,2000-03-20 04:00,ZGNN 200400Z AUTO 12006KT 1SM 20/20 A2994 RMK T02000200 IEM_DS3505
ZGNN,2000-03-20 05:00,ZGNN 200500Z AUTO 11012KT 1 1/2SM 20/19 A2991 RMK T02000190 IEM_DS3505
ZGNN,2000-03-20 06:00,ZGNN 200600Z AUTO 16004KT 1 1/4SM 21/20 A2988 RMK 60000 SLP114 T02120203 57025 IEM_DS3505
ZGNN,2000-03-20 07:00,ZGNN 200700Z AUTO 15014KT 7SM 23/21 A2983 RMK T02300210 IEM_DS3505
ZGNN,2000-03-20 08:00,ZGNN 200800Z AUTO 14016KT 7SM 24/21 A2983 RMK T02400210 IEM_DS3505
ZGNN,2000-03-20 09:00,ZGNN 200900Z AUTO 14008KT 12SM 23/20 A2980 RMK SLP092 T02300203 57021 IEM_DS3505
ZGNN,2000-03-20 10:00,ZGNN 201000Z AUTO 13010KT 7SM 24/20 A2980 RMK T02400200 IEM_DS3505
ZGNN,2000-03-20 11:00,ZGNN 201100Z AUTO 15010KT 7SM 22/20 A2983 RMK T02200200 IEM_DS3505
ZGNN,2000-03-20 12:00,ZGNN 201200Z AUTO 27002KT 11SM 22/20 A2983 RMK SLP100 T02180201 52007 IEM_DS3505
ZGNN,2000-03-20 14:00,ZGNN 201400Z AUTO 17006KT 6SM 21/20 A2988 RMK T02100200 IEM_DS3505
ZGNN,2000-03-20 15:00,ZGNN 201500Z AUTO 18002KT 11SM 21/20 A2988 RMK SLP122 T02090200 52022 IEM_DS3505
ZGNN,2000-03-20 18:00,ZGNN 201800Z AUTO 14006KT 9SM 21/20 RMK SLP123 T02140200 52002 IEM_DS3505
ZGNN,2000-03-20 21:00,ZGNN 202100Z AUTO 00000KT 7SM 21/20 RMK 70001 SLP115 T02090200 57007 IEM_DS3505
ZGNN,2000-03-20 22:00,ZGNN 202200Z AUTO 00000KT 4SM 21/20 A2988 RMK T02100200 IEM_DS3505
ZGNN,2000-03-20 23:00,ZGNN 202300Z AUTO 13006KT 2 1/2SM 21/20 A2991 RMK T02100200 IEM_DS3505
ZGNN,2000-03-21 00:00,ZGNN 210000Z AUTO 22004KT 1 1/2SM 21/20 A2994 RMK 70000 SLP133 T02070199 52017 IEM_DS3505
ZGNN,2000-03-21 01:00,ZGNN 210100Z AUTO 15004KT 4SM 21/20 A2994 RMK T02100200 IEM_DS3505
ZGNN,2000-03-21 02:00,ZGNN 210200Z AUTO 13006KT 7SM 22/20 A2997 RMK T02200200 IEM_DS3505
ZGNN,2000-03-21 03:00,ZGNN 210300Z AUTO 16008KT 7SM 23/21 A2994 RMK SLP141 T02320208 52008 IEM_DS3505
ZGNN,2000-03-21 05:00,ZGNN 210500Z AUTO 14010KT 7SM 25/20 A2991 RMK T02500200 IEM_DS3505
ZGNN,2000-03-21 06:00,ZGNN 210600Z AUTO 18006KT 16SM 25/21 A2988 RMK SLP116 T02500209 57024 IEM_DS3505
ZGNN,2000-03-21 07:00,ZGNN 210700Z AUTO 12014KT 7SM 26/21 A2985 RMK T02600210 IEM_DS3505
ZGNN,2000-03-21 08:00,ZGNN 210800Z AUTO 12016KT 7SM 26/21 A2983 RMK T02600210 IEM_DS3505
ZGNN,2000-03-21 09:00,ZGNN 210900Z AUTO 14006KT 16SM 25/21 A2983 RMK SLP093 T02490208 57023 IEM_DS3505
ZGNN,2000-03-21 10:00,ZGNN 211000Z AUTO 12017KT 7SM 24/21 A2983 RMK T02400210 IEM_DS3505
ZGNN,2000-03-21 11:00,ZGNN 211100Z AUTO 15014KT 7SM 23/20 A2985 RMK T02300200 IEM_DS3505
ZGNN,2000-03-21 12:00,ZGNN 211200Z AUTO 16008KT 12SM 23/20 A2985 RMK SLP108 T02280204 52015 IEM_DS3505
ZGNN,2000-03-21 13:00,ZGNN 211300Z AUTO 15004KT 7SM 21/19 A2988 RMK T02100190 IEM_DS3505
ZGNN,2000-03-21 15:00,ZGNN 211500Z AUTO 00000KT 12SM 22/20 RMK SLP127 T02190202 52019 IEM_DS3505
ZGNN,2000-03-21 18:00,ZGNN 211800Z AUTO 14004KT 12SM 22/21 RMK SLP124 T02180206 57003 IEM_DS3505
ZGNN,2000-03-21 21:00,ZGNN 212100Z AUTO 18002KT 12SM 22/21 RMK SLP116 T02180206 57008 IEM_DS3505
ZGNN,2000-03-21 22:00,ZGNN 212200Z AUTO 14006KT 4SM 21/21 A2991 RMK T02100210 IEM_DS3505
ZGNN,2000-03-21 23:00,ZGNN 212300Z AUTO 14006KT 5SM 21/21 A2991 RMK T02100210 IEM_DS3505
ZGNN,2000-03-22 00:00,ZGNN 220000Z AUTO 16004KT 5SM 22/20 A2994 RMK SLP137 T02170203 52020 IEM_DS3505
ZGNN,2000-03-22 01:00,ZGNN 220100Z AUTO 13004KT 5SM 22/20 A2997 RMK T02200200 IEM_DS3505
ZGNN,2000-03-22 02:00,ZGNN 220200Z AUTO 14010KT 7SM 23/20 A2997 RMK T02300200 IEM_DS3505
ZGNN,2000-03-22 03:00,ZGNN 220300Z AUTO 18006KT 9SM 23/20 A2997 RMK SLP150 T02340204 52013 IEM_DS3505
ZGNN,2000-03-22 04:00,ZGNN 220400Z AUTO 12010KT 7SM 26/20 A2997 RMK T02600200 IEM_DS3505
ZGNN,2000-03-22 05:00,ZGNN 220500Z AUTO 15008KT 7SM 27/20 A2994 RMK T02700200 IEM_DS3505
ZGNN,2000-03-22 06:00,ZGNN 220600Z AUTO 18006KT 12SM 26/20 A2988 RMK SLP120 T02630203 57028 IEM_DS3505
ZGNN,2000-03-22 07:00,ZGNN 220700Z AUTO 12012KT 7SM 28/20 A2985 RMK T02800200 IEM_DS3505
ZGNN,2000-03-22 08:00,ZGNN 220800Z AUTO 12012KT 7SM 29/20 A2985 RMK T02900200 IEM_DS3505
ZGNN,2000-03-22 09:00,ZGNN 220900Z AUTO 16006KT 12SM 27/20 A2983 RMK SLP098 T02740203 57022 IEM_DS3505
ZGNN,2000-03-22 10:00,ZGNN 221000Z AUTO 12010KT 7SM 25/20 A2983 RMK T02500200 IEM_DS3505
ZGNN,2000-03-22 11:00,ZGNN 221100Z AUTO 13010KT 7SM 24/20 A2985 RMK T02400200 IEM_DS3505
ZGNN,2000-03-22 12:00,ZGNN 221200Z AUTO 18004KT 9SM 24/20 A2985 RMK SLP111 T02380205 52012 IEM_DS3505
ZGNN,2000-03-22 13:00,ZGNN 221300Z AUTO 15008KT 7SM 23/20 A2988 RMK T02300200 IEM_DS3505
ZGNN,2000-03-22 14:00,ZGNN 221400Z AUTO 07004KT 7SM 23/20 A2991 RMK T02300200 IEM_DS3505
ZGNN,2000-03-22 15:00,ZGNN 221500Z AUTO 18004KT 9SM 23/20 RMK SLP134 T02300199 52023 IEM_DS3505
ZGNN,2000-03-22 18:00,ZGNN 221800Z AUTO 07002KT 9SM 22/20 RMK SLP138 T02180200 52004 IEM_DS3505
ZGNN,2000-03-22 21:00,ZGNN 222100Z AUTO 29002KT 9SM 21/20 RMK SLP137 T02080196 57001 IEM_DS3505
ZGNN,2000-03-22 22:00,ZGNN 222200Z AUTO 00000KT 7SM 21/20 A2997 RMK T02100200 IEM_DS3505
ZGNN,2000-03-22 23:00,ZGNN 222300Z AUTO 00000KT 7SM 21/20 A3000 RMK T02100200 IEM_DS3505
ZGNN,2000-03-23 00:00,ZGNN 230000Z AUTO 00000KT 6SM 21/20 A3000 RMK SLP160 T02140202 52022 IEM_DS3505
ZGNN,2000-03-23 01:00,ZGNN 230100Z AUTO 00000KT 3SM 22/20 A3003 RMK T02200200 IEM_DS3505
ZGNN,2000-03-23 02:00,ZGNN 230200Z AUTO 16006KT 4SM 23/21 A3003 RMK T02300210 IEM_DS3505
ZGNN,2000-03-23 03:00,ZGNN 230300Z AUTO 16004KT 7SM 23/21 A3006 RMK SLP175 T02340207 52015 IEM_DS3505
ZGNN,2000-03-23 04:00,ZGNN 230400Z AUTO 10006KT 6SM 24/21 A3006 RMK T02400210 IEM_DS3505
ZGNN,2000-03-23 05:00,ZGNN 230500Z AUTO 06006KT 6SM 24/21 A3003 RMK T02400210 IEM_DS3505
ZGNN,2000-03-23 06:00,ZGNN 230600Z AUTO 07006KT 7SM 22/18 A3000 RMK SLP162 T02160183 57013 IEM_DS3505
ZGNN,2000-03-23 07:00,ZGNN 230700Z AUTO 04008KT 7SM 21/17 A3003 RMK T02100170 IEM_DS3505
ZGNN,2000-03-23 08:00,ZGNN 230800Z AUTO 05010KT 7SM 20/15 A3003 RMK T02000150 IEM_DS3505
ZGNN,2000-03-23 09:00,ZGNN 230900Z AUTO 04004KT 19SM 19/15 A3003 RMK SLP170 T01940154 52007 IEM_DS3505
ZGNN,2000-03-23 10:00,ZGNN 231000Z AUTO 05008KT 7SM 19/14 A3006 RMK T01900140 IEM_DS3505
ZGNN,2000-03-23 11:00,ZGNN 231100Z AUTO 06006KT 7SM 18/14 A3006 RMK T01800140 IEM_DS3505
ZGNN,2000-03-23 12:00,ZGNN 231200Z AUTO 34002KT 16SM 18/14 A3009 RMK SLP194 T01770139 52023 IEM_DS3505
ZGNN,2000-03-23 13:00,ZGNN 231300Z AUTO 04002KT 7SM 17/13 A3015 RMK T01700130 IEM_DS3505
ZGNN,2000-03-23 14:00,ZGNN 231400Z AUTO 04004KT 7SM 17/13 A3015 RMK T01700130 IEM_DS3505
ZGNN,2000-03-23 15:00,ZGNN 231500Z AUTO 09002KT 12SM 17/12 A3018 RMK SLP219 T01700121 52025 IEM_DS3505
ZGNN,2000-03-23 16:00,ZGNN 231600Z AUTO 03006KT 7SM 17/12 A3018 RMK T01700120 IEM_DS3505
ZGNN,2000-03-23 17:00,ZGNN 231700Z AUTO 06002KT 7SM 16/11 A3018 RMK T01600110 IEM_DS3505
ZGNN,2000-03-23 18:00,ZGNN 231800Z AUTO 00000KT 12SM 16/11 A3018 RMK SLP215 T01610111 57004 IEM_DS3505
ZGNN,2000-03-23 19:00,ZGNN 231900Z AUTO 05002KT 7SM 16/12 A3015 RMK T01600120 IEM_DS3505
ZGNN,2000-03-23 21:00,ZGNN 232100Z AUTO 09004KT 12SM 15/11 RMK SLP209 T01540111 57007 IEM_DS3505
ZGNN,2000-03-23 22:00,ZGNN 232200Z AUTO 05002KT 7SM 15/11 A3018 RMK T01500110 IEM_DS3505
ZGNN,2000-03-23 23:00,ZGNN 232300Z AUTO 04004KT 7SM 15/11 A3018 RMK T01500110 IEM_DS3505
ZGNN,2000-03-24 00:00,ZGNN 240000Z AUTO 00000KT 16SM 15/11 A3021 RMK SLP228 T01520111 52018 IEM_DS3505
ZGNN,2000-03-24 01:00,ZGNN 240100Z AUTO 35004KT 7SM 16/11 A3024 RMK T01600110 IEM_DS3505
ZGNN,2000-03-24 02:00,ZGNN 240200Z AUTO 34006KT 7SM 17/10 A3024 RMK T01700100 IEM_DS3505
ZGNN,2000-03-24 03:00,ZGNN 240300Z AUTO 34006KT 12SM 17/08 A3024 RMK SLP237 T01670085 52009 IEM_DS3505
ZGNN,2000-03-24 04:00,ZGNN 240400Z AUTO 02006KT 7SM 18/10 A3021 RMK T01800100 IEM_DS3505
ZGNN,2000-03-24 05:00,ZGNN 240500Z AUTO 36006KT 7SM 18/10 A3018 RMK T01800100 IEM_DS3505
ZGNN,2000-03-24 06:00,ZGNN 240600Z AUTO 36006KT 12SM 18/09 A3015 RMK SLP205 T01780088 57031 IEM_DS3505
ZGNN,2000-03-24 07:00,ZGNN 240700Z AUTO 03006KT 7SM 19/10 A3012 RMK T01900100 IEM_DS3505
ZGNN,2000-03-24 08:00,ZGNN 240800Z AUTO 02004KT 7SM 19/10 A3009 RMK T01900100 IEM_DS3505
ZGNN,2000-03-24 09:00,ZGNN 240900Z AUTO 36004KT 12SM 18/10 A3006 RMK SLP180 T01820100 57025 IEM_DS3505
ZGNN,2000-03-24 10:00,ZGNN 241000Z AUTO 03004KT 7SM 18/10 A3006 RMK T01800100 IEM_DS3505
ZGNN,2000-03-24 11:00,ZGNN 241100Z AUTO 06004KT 7SM RMK IEM_DS3505
ZGNN,2000-03-24 12:00,ZGNN 241200Z AUTO 09002KT 9SM 17/11 A3009 RMK SLP185 T01730106 52005 IEM_DS3505
ZGNN,2000-03-24 13:00,ZGNN 241300Z AUTO 08006KT 7SM 17/10 A3009 RMK T01700100 IEM_DS3505
ZGNN,2000-03-24 15:00,ZGNN 241500Z AUTO 00000KT 9SM 17/10 RMK SLP206 T01670101 52021 IEM_DS3505
ZGNN,2000-03-24 18:00,ZGNN 241800Z AUTO 00000KT 9SM 16/11 RMK SLP203 T01610111 57003 IEM_DS3505
ZGNN,2000-03-24 21:00,ZGNN 242100Z AUTO 04004KT 7SM 15/11 RMK 70003 SLP204 T01490112 52001 IEM_DS3505
ZGNN,2000-03-24 22:00,ZGNN 242200Z AUTO 02006KT 7SM 15/14 A3015 RMK T01500140 IEM_DS3505
ZGNN,2000-03-24 23:00,ZGNN 242300Z AUTO 03006KT 1 1/2SM 14/13 A3018 RMK T01400130 IEM_DS3505
ZGNN,2000-03-25 00:00,ZGNN 250000Z AUTO 00000KT 2SM 14/13 A3021 RMK 60000 SLP229 T01400129 52024 IEM_DS3505
ZGNN,2000-03-25 01:00,ZGNN 250100Z AUTO 01006KT 1 1/4SM 14/14 A3024 RMK T01400140 IEM_DS3505
ZGNN,2000-03-25 02:00,ZGNN 250200Z AUTO 35006KT 1 1/4SM 15/13 A3024 RMK T01500130 IEM_DS3505
ZGNN,2000-03-25 03:00,ZGNN 250300Z AUTO 36004KT 2SM 15/13 A3024 RMK SLP243 T01470133 52014 IEM_DS3505
ZGNN,2000-03-25 04:00,ZGNN 250400Z AUTO 33008KT 2SM 15/13 A3024 RMK T01500130 IEM_DS3505
ZGNN,2000-03-25 05:00,ZGNN 250500Z AUTO 33012KT 2 1/2SM 15/13 A3021 RMK T01500130 IEM_DS3505
ZGNN,2000-03-25 06:00,ZGNN 250600Z AUTO 34004KT 2SM 14/13 A3021 RMK 60000 SLP227 T01440131 57016 IEM_DS3505
ZGNN,2000-03-25 07:00,ZGNN 250700Z AUTO 35006KT 2 1/2SM 14/13 A3018 RMK T01400130 IEM_DS3505
ZGNN,2000-03-25 08:00,ZGNN 250800Z AUTO 35006KT 1 1/4SM 14/13 A3018 RMK T01400130 IEM_DS3505
ZGNN,2000-03-25 09:00,ZGNN 250900Z AUTO 02006KT 2 1/2SM 14/14 A3015 RMK SLP215 T01420135 57013 IEM_DS3505
ZGNN,2000-03-25 10:00,ZGNN 251000Z AUTO 00000KT 1 1/2SM 14/14 A3018 RMK T01400140 IEM_DS3505
ZGNN,2000-03-25 11:00,ZGNN 251100Z AUTO 33004KT 2 1/2SM 14/13 A3018 RMK T01400130 IEM_DS3505
ZGNN,2000-03-25 12:00,ZGNN 251200Z AUTO 34004KT 5SM 14/13 A3021 RMK 60000 SLP229 T01430132 52014 IEM_DS3505
ZGNN,2000-03-25 13:00,ZGNN 251300Z AUTO 00000KT 2 1/2SM 14/13 A3021 RMK T01400130 IEM_DS3505
ZGNN,2000-03-25 14:00,ZGNN 251400Z AUTO 00000KT 4SM 14/13 A3024 RMK T01400130 IEM_DS3505
ZGNN,2000-03-25 15:00,ZGNN 251500Z AUTO 00000KT 6SM 15/13 RMK SLP242 T01460133 52013 IEM_DS3505
ZGNN,2000-03-25 18:00,ZGNN 251800Z AUTO 32004KT 7SM 15/13 RMK SLP240 T01500126 57002 IEM_DS3505
ZGNN,2000-03-25 21:00,ZGNN 252100Z AUTO 00000KT 12SM 15/13 RMK 70002 SLP237 T01490133 57003 IEM_DS3505
ZGNN,2000-03-25 22:00,ZGNN 252200Z AUTO 00000KT 5SM 15/14 A3024 RMK T01500140 IEM_DS3505
ZGNN,2000-03-25 23:00,ZGNN 252300Z AUTO 00000KT 7SM 15/14 A3024 RMK T01500140 IEM_DS3505
ZGNN,2000-03-26 00:00,ZGNN 260000Z AUTO 34004KT 12SM 16/13 A3024 RMK 70001 SLP245 T01550128 52008 IEM_DS3505
ZGNN,2000-03-26 01:00,ZGNN 260100Z AUTO 35004KT 7SM 17/12 A3027 RMK T01700120 IEM_DS3505
ZGNN,2000-03-26 02:00,ZGNN 260200Z AUTO 32004KT 7SM 18/12 A3027 RMK T01800120 IEM_DS3505
ZGNN,2000-03-26 03:00,ZGNN 260300Z AUTO 07002KT 9SM 17/13 A3027 RMK SLP252 T01690128 52007 IEM_DS3505
ZGNN,2000-03-26 04:00,ZGNN 260400Z AUTO 35004KT 7SM 20/11 A3027 RMK T02000110 IEM_DS3505
ZGNN,2000-03-26 05:00,ZGNN 260500Z AUTO 00000KT 7SM 21/11 A3021 RMK T02100110 IEM_DS3505
ZGNN,2000-03-26 06:00,ZGNN 260600Z AUTO 04004KT 11SM 22/09 A3018 RMK SLP217 T02180094 57033 IEM_DS3505
ZGNN,2000-03-26 07:00,ZGNN 260700Z AUTO 04006KT 6SM 23/09 A3015 RMK T02300090 IEM_DS3505
ZGNN,2000-03-26 08:00,ZGNN 260800Z AUTO 33004KT 6SM 23/09 A3012 RMK T02300090 IEM_DS3505
ZGNN,2000-03-26 09:00,ZGNN 260900Z AUTO 00000KT 11SM 23/10 A3009 RMK SLP192 T02310100 57024 IEM_DS3505
ZGNN,2000-03-26 10:00,ZGNN 261000Z AUTO 00000KT 6SM 23/09 A3009 RMK T02300090 IEM_DS3505
ZGNN,2000-03-26 11:00,ZGNN 261100Z AUTO 00000KT 6SM 20/12 A3009 RMK T02000120 IEM_DS3505
ZGNN,2000-03-26 12:00,ZGNN 261200Z AUTO 00000KT 10SM 18/13 A3012 RMK SLP195 T01800127 52002 IEM_DS3505
ZGNN,2000-03-26 13:00,ZGNN 261300Z AUTO 00000KT 6SM 16/13 A3012 RMK T01600130 IEM_DS3505
ZGNN,2000-03-26 15:00,ZGNN 261500Z AUTO 00000KT 9SM 16/13 RMK SLP208 T01550128 52012 IEM_DS3505
ZGNN,2000-03-26 18:00,ZGNN 261800Z AUTO 36002KT 9SM 14/12 RMK SLP193 T01390117 57014 IEM_DS3505
ZGNN,2000-03-26 21:00,ZGNN 262100Z AUTO 00000KT 7SM 13/12 RMK SLP178 T01260115 57014 IEM_DS3505
ZGNN,2000-03-26 22:00,ZGNN 262200Z AUTO 00000KT 6SM 13/12 A3006 RMK T01300120 IEM_DS3505
ZGNN,2000-03-26 23:00,ZGNN 262300Z AUTO 00000KT 6SM 13/12 A3009 RMK T01300120 IEM_DS3505
ZGNN,2000-03-27 00:00,ZGNN 270000Z AUTO 00000KT 5SM 13/10 A3009 RMK SLP193 T01330104 52013 IEM_DS3505
ZGNN,2000-03-27 01:00,ZGNN 270100Z AUTO 00000KT 3SM 17/14 A3012 RMK T01700140 IEM_DS3505
ZGNN,2000-03-27 02:00,ZGNN 270200Z AUTO 00000KT 4SM 19/14 A3012 RMK T01900140 IEM_DS3505
ZGNN,2000-03-27 03:00,ZGNN 270300Z AUTO 00000KT 6SM 22/14 A3012 RMK SLP195 T02160137 52004 IEM_DS3505
ZGNN,2000-03-27 04:00,ZGNN 270400Z AUTO 14004KT 6SM 24/11 A3009 RMK T02400110 IEM_DS3505
ZGNN,2000-03-27 05:00,ZGNN 270500Z AUTO 10004KT 6SM 26/10 A3003 RMK T02600100 IEM_DS3505
ZGNN,2000-03-27 06:00,ZGNN 270600Z AUTO 32004KT 9SM 26/09 A3000 RMK SLP154 T02580089 57040 IEM_DS3505
ZGNN,2000-03-27 07:00,ZGNN 270700Z AUTO 00000KT 6SM 27/09 A2997 RMK T02700090 IEM_DS3505
ZGNN,2000-03-27 08:00,ZGNN 270800Z AUTO 18004KT 6SM 28/09 A2994 RMK T02800090 IEM_DS3505
ZGNN,2000-03-27 09:00,ZGNN 270900Z AUTO 27002KT 9SM 27/10 A2994 RMK SLP132 T02730102 57022 IEM_DS3505
ZGNN,2000-03-27 10:00,ZGNN 271000Z AUTO 02002KT 6SM 27/12 A2994 RMK T02700120 IEM_DS3505
ZGNN,2000-03-27 11:00,ZGNN 271100Z AUTO 35004KT 6SM 24/14 A2994 RMK T02400140 IEM_DS3505
ZGNN,2000-03-27 12:00,ZGNN 271200Z AUTO 00000KT 9SM 23/14 A2997 RMK SLP147 T02280140 52014 IEM_DS3505
ZGNN,2000-03-27 13:00,ZGNN 271300Z AUTO 00000KT 6SM 20/16 A3000 RMK T02000160 IEM_DS3505
ZGNN,2000-03-27 14:00,ZGNN 271400Z AUTO 34002KT 6SM 20/15 A3003 RMK T02000150 IEM_DS3505
ZGNN,2000-03-27 15:00,ZGNN 271500Z AUTO 00000KT 8SM 19/15 RMK SLP171 T01920148 52025 IEM_DS3505
ZGNN,2000-03-27 18:00,ZGNN 271800Z AUTO 00000KT 7SM 18/14 RMK SLP164 T01750144 57006 IEM_DS3505
ZGNN,2000-03-27 21:00,ZGNN 272100Z AUTO 00000KT 7SM 16/14 RMK SLP155 T01560137 57009 IEM_DS3505
ZGNN,2000-03-27 22:00,ZGNN 272200Z AUTO 36004KT 4SM 16/14 A3000 RMK T01600140 IEM_DS3505
ZGNN,2000-03-27 23:00,ZGNN 272300Z AUTO 00000KT 3SM 16/14 A3003 RMK T01600140 IEM_DS3505
ZGNN,2000-03-28 00:00,ZGNN 280000Z AUTO 00000KT 5SM 16/15 A3003 RMK SLP169 T01650150 52013 IEM_DS3505
ZGNN,2000-03-28 01:00,ZGNN 280100Z AUTO 00000KT 2 1/2SM 18/15 A3006 RMK T01800150 IEM_DS3505
ZGNN,2000-03-28 02:00,ZGNN 280200Z AUTO 00000KT 2 1/2SM 21/15 A3006 RMK T02100150 IEM_DS3505
ZGNN,2000-03-28 03:00,ZGNN 280300Z AUTO 25002KT 5SM 22/16 A3003 RMK SLP171 T02170158 52002 IEM_DS3505
ZGNN,2000-03-28 04:00,ZGNN 280400Z AUTO 00000KT 26/16 A3003 RMK T02600160 IEM_DS3505
ZGNN,2000-03-28 05:00,ZGNN 280500Z AUTO 34004KT 6SM 27/14 A3000 RMK T02700140 IEM_DS3505
ZGNN,2000-03-28 06:00,ZGNN 280600Z AUTO 00000KT 6SM 27/14 A2997 RMK SLP143 T02740142 57027 IEM_DS3505
ZGNN,2000-03-28 07:00,ZGNN 280700Z AUTO 30004KT 6SM 29/14 A2994 RMK T02900140 IEM_DS3505
ZGNN,2000-03-28 08:00,ZGNN 280800Z AUTO 33006KT 6SM 29/15 A2991 RMK T02900150 IEM_DS3505
ZGNN,2000-03-28 09:00,ZGNN 280900Z AUTO 32004KT 8SM 28/13 A2994 RMK SLP131 T02810132 57012 IEM_DS3505
ZGNN,2000-03-28 10:00,ZGNN 281000Z AUTO 00000KT 6SM 28/14 A2994 RMK T02800140 IEM_DS3505
ZGNN,2000-03-28 11:00,ZGNN 281100Z AUTO 29004KT 6SM 26/16 A2997 RMK T02600160 IEM_DS3505
ZGNN,2000-03-28 12:00,ZGNN 281200Z AUTO 00000KT 8SM 22/17 A2997 RMK SLP149 T02220170 52017 IEM_DS3505
ZGNN,2000-03-28 13:00,ZGNN 281300Z AUTO 00000KT 6SM 20/17 A3000 RMK T02000170 IEM_DS3505
ZGNN,2000-03-28 14:00,ZGNN 281400Z AUTO 00000KT 6SM 19/16 A3003 RMK T01900160 IEM_DS3505
ZGNN,2000-03-28 15:00,ZGNN 281500Z AUTO 00000KT 8SM 19/16 RMK SLP162 T01890159 52013 IEM_DS3505
ZGNN,2000-03-28 18:00,ZGNN 281800Z AUTO 00000KT 7SM 18/16 RMK SLP161 T01750156 54000 IEM_DS3505
ZGNN,2000-03-28 21:00,ZGNN 282100Z AUTO 00000KT 5SM 16/15 RMK SLP161 T01590149 54000 IEM_DS3505
ZGNN,2000-03-28 22:00,ZGNN 282200Z AUTO 00000KT 2SM 15/14 A3003 RMK T01500140 IEM_DS3505
ZGNN,2000-03-28 23:00,ZGNN 282300Z AUTO 00000KT 2SM 15/14 A3006 RMK T01500140 IEM_DS3505
ZGNN,2000-03-29 00:00,ZGNN 290000Z AUTO 00000KT 2 1/2SM 16/15 A3006 RMK SLP179 T01590150 52016 IEM_DS3505
ZGNN,2000-03-29 01:00,ZGNN 290100Z AUTO 00000KT 2SM 20/17 A3009 RMK T02000170 IEM_DS3505
ZGNN,2000-03-29 02:00,ZGNN 290200Z AUTO 00000KT 2 1/2SM 23/16 A3009 RMK T02300160 IEM_DS3505
ZGNN,2000-03-29 03:00,ZGNN 290300Z AUTO 11004KT 4SM 26/18 A3009 RMK SLP184 T02620177 52007 IEM_DS3505
ZGNN,2000-03-29 04:00,ZGNN 290400Z AUTO 00000KT 6SM 30/16 A3006 RMK T03000160 IEM_DS3505
ZGNN,2000-03-29 05:00,ZGNN 290500Z AUTO 08004KT 6SM 31/13 A3003 RMK T03100130 IEM_DS3505
ZGNN,2000-03-29 06:00,ZGNN 290600Z AUTO 16008KT 10SM 31/11 A3000 RMK SLP150 T03110106 57033 IEM_DS3505
ZGNN,2000-03-29 07:00,ZGNN 290700Z AUTO 15008KT 6SM 33/06 A2997 RMK T03300060 IEM_DS3505
ZGNN,2000-03-29 08:00,ZGNN 290800Z AUTO 12016KT 6SM 33/07 A2994 RMK T03300070 IEM_DS3505
ZGNN,2000-03-29 09:00,ZGNN 290900Z AUTO 14008KT 14SM 32/09 A2994 RMK SLP133 T03180089 57017 IEM_DS3505
ZGNN,2000-03-29 10:00,ZGNN 291000Z AUTO 17012KT 6SM 30/03 A2994 RMK T03000030 IEM_DS3505
ZGNN,2000-03-29 11:00,ZGNN 291100Z AUTO 16008KT 6SM 27/08 A2994 RMK T02700080 IEM_DS3505
ZGNN,2000-03-29 12:00,ZGNN 291200Z AUTO 00000KT 12SM 26/10 A2994 RMK SLP139 T02570105 52005 IEM_DS3505
ZGNN,2000-03-29 13:00,ZGNN 291300Z AUTO 18006KT 6SM 23/10 A2997 RMK T02300100 IEM_DS3505
ZGNN,2000-03-29 14:00,ZGNN 291400Z AUTO 00000KT 6SM 23/10 A3000 RMK T02300100 IEM_DS3505
ZGNN,2000-03-29 15:00,ZGNN 291500Z AUTO 00000KT 12SM 21/13 RMK SLP159 T02060127 52021 IEM_DS3505
ZGNN,2000-03-29 18:00,ZGNN 291800Z AUTO 00000KT 12SM 21/10 RMK SLP151 T02060099 57007 IEM_DS3505
ZGNN,2000-03-29 21:00,ZGNN 292100Z AUTO 18004KT 9SM 20/17 RMK SLP142 T02040172 57009 IEM_DS3505
ZGNN,2000-03-29 22:00,ZGNN 292200Z AUTO 14006KT 2 1/2SM 20/18 A2997 RMK T02000180 IEM_DS3505
ZGNN,2000-03-29 23:00,ZGNN 292300Z AUTO 14006KT 2SM 20/18 A3000 RMK T02000180 IEM_DS3505
ZGNN,2000-03-30 00:00,ZGNN 300000Z AUTO 20002KT 2 1/2SM 21/18 A3000 RMK SLP150 T02120180 52007 IEM_DS3505
ZGNN,2000-03-30 01:00,ZGNN 300100Z AUTO 14010KT 2 1/2SM 22/18 A3003 RMK T02200180 IEM_DS3505
ZGNN,2000-03-30 02:00,ZGNN 300200Z AUTO 14016KT 7SM 24/18 A3000 RMK T02400180 IEM_DS3505
ZGNN,2000-03-30 03:00,ZGNN 300300Z AUTO 16010KT 6SM 25/18 A3000 RMK SLP155 T02460175 52004 IEM_DS3505
ZGNN,2000-03-30 04:00,ZGNN 300400Z AUTO 15016KT 7SM 27/17 A2997 RMK T02700170 IEM_DS3505
ZGNN,2000-03-30 05:00,ZGNN 300500Z AUTO 12019KT 7SM 28/16 A2991 RMK T02800160 IEM_DS3505
ZGNN,2000-03-30 06:00,ZGNN 300600Z AUTO 18008KT 6SM 28/16 A2988 RMK SLP116 T02750155 57037 IEM_DS3505
ZGNN,2000-03-30 07:00,ZGNN 300700Z AUTO 15019KT 7SM 29/16 A2985 RMK T02900160 IEM_DS3505
ZGNN,2000-03-30 08:00,ZGNN 300800Z AUTO 14017KT 6SM 29/15 A2983 RMK T02900150 IEM_DS3505
ZGNN,2000-03-30 09:00,ZGNN 300900Z AUTO 20006KT 9SM 28/16 RMK SLP091 T02750156 57025 IEM_DS3505
ZGNN,2000-03-30 10:00,ZGNN 301000Z AUTO 15014KT 6SM 26/16 A2980 RMK T02600160 IEM_DS3505
ZGNN,2000-03-30 11:00,ZGNN 301100Z AUTO 13010KT 6SM 24/17 A2980 RMK T02400170 IEM_DS3505
ZGNN,2000-03-30 12:00,ZGNN 301200Z AUTO 16004KT 12SM 24/16 A2983 RMK SLP097 T02410165 52005 IEM_DS3505
ZGNN,2000-03-30 13:00,ZGNN 301300Z AUTO 15006KT 6SM 23/17 A2983 RMK T02300170 IEM_DS3505
ZGNN,2000-03-30 15:00,ZGNN 301500Z AUTO 00000KT 12SM 21/18 RMK SLP104 T02140177 52007 IEM_DS3505
ZGNN,2000-03-30 18:00,ZGNN 301800Z AUTO 25002KT 12SM 20/17 RMK SLP095 T02000169 57008 IEM_DS3505
ZGNN,2000-03-30 21:00,ZGNN 302100Z AUTO 00000KT 12SM 20/18 RMK SLP081 T02020181 57014 IEM_DS3505
ZGNN,2000-03-30 23:00,ZGNN 302300Z AUTO 00000KT 7SM 19/18 A2983 RMK T01900180 IEM_DS3505
ZGNN,2000-03-31 00:00,ZGNN 310000Z AUTO 00000KT 5SM 20/18 A2983 RMK SLP094 T02030181 52012 IEM_DS3505
ZGNN,2000-03-31 01:00,ZGNN 310100Z AUTO 00000KT 7SM 21/18 A2983 RMK T02100180 IEM_DS3505
ZGNN,2000-03-31 02:00,ZGNN 310200Z AUTO 00000KT 7SM 21/19 A2983 RMK T02100190 IEM_DS3505
ZGNN,2000-03-31 03:00,ZGNN 310300Z AUTO 00000KT 6SM 21/19 A2983 RMK SLP091 T02080192 57003 IEM_DS3505
ZGNN,2000-03-31 05:00,ZGNN 310500Z AUTO 14006KT 7SM 23/20 A2977 RMK T02300200 IEM_DS3505
ZGNN,2000-03-31 06:00,ZGNN 310600Z AUTO 22002KT 7SM 23/19 A2974 RMK 60003 SLP071 T02310191 57020 IEM_DS3505
ZGNN,2000-03-31 07:00,ZGNN 310700Z AUTO 00000KT 7SM 24/19 A2971 RMK T02400190 IEM_DS3505
ZGNN,2000-03-31 08:00,ZGNN 310800Z AUTO 35004KT 7SM 23/19 A2971 RMK T02300190 IEM_DS3505
ZGNN,2000-03-31 09:00,ZGNN 310900Z AUTO 07002KT 9SM 24/20 A2968 RMK SLP044 T02350200 57026 IEM_DS3505
ZGNN,2000-03-31 10:00,ZGNN 311000Z AUTO 00000KT 7SM 23/20 A2968 RMK T02300200 IEM_DS3505
ZGNN,2000-03-31 11:00,ZGNN 311100Z AUTO 00000KT 7SM 23/20 A2968 RMK T02300200 IEM_DS3505
ZGNN,2000-03-31 12:00,ZGNN 311200Z AUTO 09002KT 9SM 22/20 A2971 RMK SLP053 T02200195 52008 IEM_DS3505
ZGNN,2000-03-31 13:00,ZGNN 311300Z AUTO 36004KT 5SM 21/19 A2971 RMK T02100190 IEM_DS3505
ZGNN,2000-03-31 14:00,ZGNN 311400Z AUTO 36002KT 4SM 20/19 A2974 RMK T02000190 IEM_DS3505
ZGNN,2000-03-31 15:00,ZGNN 311500Z AUTO 00000KT 9SM 19/18 A2977 RMK SLP073 T01940184 52019 IEM_DS3505
ZGNN,2000-03-31 18:00,ZGNN 311800Z AUTO 00000KT 7SM 18/17 RMK SLP067 T01790174 57005 IEM_DS3505
ZGNN,2000-03-31 21:00,ZGNN 312100Z AUTO 00000KT 3SM 20/19 RMK 70003 SLP063 T01950192 57004 IEM_DS3505
ZGNN,2000-03-31 22:00,ZGNN 312200Z AUTO 00000KT 1/8SM 19/19 A2974 RMK T01900190 IEM_DS3505
ZGNN,2000-03-31 23:00,ZGNN 312300Z AUTO 00000KT 1/8SM 19/19 A2974 RMK T01900190 IEM_DS3505
ZGNN,2000-04-01 00:00,ZGNN 010000Z AUTO 00000KT 3/8SM 20/19 A2977 RMK 70003 SLP075 T01960193 52012 IEM_DS3505
ZGNN,2000-04-01 01:00,ZGNN 010100Z AUTO 00000KT 1/2SM 20/20 A2977 RMK T02000200 IEM_DS3505
ZGNN,2000-04-01 02:00,ZGNN 010200Z AUTO 02002KT 1 1/4SM 23/20 A2977 RMK T02300200 IEM_DS3505
ZGNN,2000-04-01 03:00,ZGNN 010300Z AUTO 16004KT 7SM 25/21 A2977 RMK SLP073 T02530206 57002 IEM_DS3505
ZGNN,2000-04-01 04:00,ZGNN 010400Z AUTO 21004KT 7SM 27/20 A2977 RMK T02700200 IEM_DS3505
ZGNN,2000-04-01 05:00,ZGNN 010500Z AUTO 02004KT 7SM 29/21 A2971 RMK T02900210 IEM_DS3505
ZGNN,2000-04-01 06:00,ZGNN 010600Z AUTO 20002KT 12SM 29/20 A2968 RMK SLP041 T02900203 57031 IEM_DS3505
ZGNN,2000-04-01 07:00,ZGNN 010700Z AUTO 14006KT 7SM 31/21 A2962 RMK T03100210 IEM_DS3505
ZGNN,2000-04-01 08:00,ZGNN 010800Z AUTO 15006KT 7SM 31/20 A2959 RMK T03100200 IEM_DS3505
ZGNN,2000-04-01 09:00,ZGNN 010900Z AUTO 11006KT 16SM 30/20 A2959 RMK SLP012 T03030200 57027 IEM_DS3505
ZGNN,2000-04-01 10:00,ZGNN 011000Z AUTO 12012KT 7SM 30/21 A2959 RMK T03000210 IEM_DS3505
ZGNN,2000-04-01 11:00,ZGNN 011100Z AUTO 13006KT 7SM 28/22 A2962 RMK T02800220 IEM_DS3505
ZGNN,2000-04-01 12:00,ZGNN 011200Z AUTO 14002KT 14SM 27/22 A2965 RMK SLP037 T02710221 52023 IEM_DS3505
ZGNN,2000-04-01 13:00,ZGNN 011300Z AUTO 12008KT 6SM 25/22 A2968 RMK T02500220 IEM_DS3505
ZGNN,2000-04-01 14:00,ZGNN 011400Z AUTO 06006KT 6SM 24/21 A2971 RMK T02400210 IEM_DS3505
ZGNN,2000-04-01 15:00,ZGNN 011500Z AUTO 09002KT 12SM 24/22 RMK SLP064 T02410220 52028 IEM_DS3505
ZGNN,2000-04-01 18:00,ZGNN 011800Z AUTO 00000KT 12SM 23/21 RMK SLP059 T02290212 57005 IEM_DS3505
ZGNN,2000-04-01 21:00,ZGNN 012100Z AUTO 00000KT 12SM 22/21 RMK SLP045 T02240209 57013 IEM_DS3505
ZGNN,2000-04-01 22:00,ZGNN 012200Z AUTO 06004KT 7SM 22/21 A2971 RMK T02200210 IEM_DS3505
ZGNN,2000-04-01 23:00,ZGNN 012300Z AUTO 00000KT 4SM 22/21 A2971 RMK T02200210 IEM_DS3505
ZGNN,2000-04-02 00:00,ZGNN 020000Z AUTO 00000KT 7SM 22/21 A2974 RMK SLP066 T02240210 52020 IEM_DS3505
ZGNN,2000-04-02 01:00,ZGNN 020100Z AUTO 04004KT 4SM 23/21 A2977 RMK T02300210 IEM_DS3505
ZGNN,2000-04-02 02:00,ZGNN 020200Z AUTO 05004KT 7SM 25/22 A2977 RMK T02500220 IEM_DS3505
ZGNN,2000-04-02 03:00,ZGNN 020300Z AUTO 18004KT 7SM 26/22 A2977 RMK SLP070 T02630220 52004 IEM_DS3505
ZGNN,2000-04-02 04:00,ZGNN 020400Z AUTO 11010KT 7SM 28/22 A2974 RMK T02800220 IEM_DS3505
ZGNN,2000-04-02 05:00,ZGNN 020500Z AUTO 01004KT 7SM 29/23 A2971 RMK T02900230 IEM_DS3505
ZGNN,2000-04-02 06:00,ZGNN 020600Z AUTO 32004KT 7SM 29/23 A2968 RMK SLP043 T02930230 57026 IEM_DS3505
ZGNN,2000-04-02 07:00,ZGNN 020700Z AUTO 33004KT 7SM 31/23 A2965 RMK T03100230 IEM_DS3505
ZGNN,2000-04-02 08:00,ZGNN 020800Z AUTO 06008KT 7SM 31/23 A2962 RMK T03100230 IEM_DS3505
ZGNN,2000-04-02 09:00,ZGNN 020900Z AUTO 04002KT 7SM 31/23 A2962 RMK SLP026 T03100233 57017 IEM_DS3505
ZGNN,2000-04-02 10:00,ZGNN 021000Z AUTO 04004KT 7SM 30/22 A2962 RMK T03000220 IEM_DS3505
ZGNN,2000-04-02 11:00,ZGNN 021100Z AUTO 36010KT 7SM 26/21 A2968 RMK T02600210 IEM_DS3505
ZGNN,2000-04-02 12:00,ZGNN 021200Z AUTO 36010KT 7SM 24/20 A2974 RMK 60003 SLP062 T02350195 52034 IEM_DS3505
ZGNN,2000-04-02 13:00,ZGNN 021300Z AUTO 35010KT 7SM 21/20 A2977 RMK T02100200 IEM_DS3505
ZGNN,2000-04-02 14:00,ZGNN 021400Z AUTO 33006KT 7SM 21/19 A2983 RMK T02100190 IEM_DS3505
ZGNN,2000-04-02 15:00,ZGNN 021500Z AUTO 00000KT 7SM 22/20 A2983 RMK SLP100 T02150203 52038 IEM_DS3505
ZGNN,2000-04-02 18:00,ZGNN 021800Z AUTO 32004KT 6SM 20/20 RMK 60028 SLP098 T02050200 57002 IEM_DS3505
ZGNN,2000-04-02 21:00,ZGNN 022100Z AUTO 02004KT 9SM 20/19 RMK 70029 SLP091 T02020189 57006 IEM_DS3505
ZGNN,2000-04-02 22:00,ZGNN 022200Z AUTO 34006KT 7SM 20/18 A2985 RMK T02000180 IEM_DS3505
ZGNN,2000-04-02 23:00,ZGNN 022300Z AUTO 00000KT 7SM 21/18 A2985 RMK T02100180 IEM_DS3505
ZGNN,2000-04-03 00:00,ZGNN 030000Z AUTO 04002KT 9SM 20/18 A2988 RMK 70029 SLP115 T02050183 52022 IEM_DS3505
ZGNN,2000-04-03 01:00,ZGNN 030100Z AUTO 36004KT 7SM 21/18 A2991 RMK T02100180 IEM_DS3505
ZGNN,2000-04-03 02:00,ZGNN 030200Z AUTO 34008KT 7SM 22/18 A2994 RMK T02200180 IEM_DS3505
ZGNN,2000-04-03 03:00,ZGNN 030300Z AUTO 34008KT 12SM 22/15 A2994 RMK SLP138 T02190154 52022 IEM_DS3505
ZGNN,2000-04-03 04:00,ZGNN 030400Z AUTO 36006KT 7SM 22/16 A2994 RMK T02200160 IEM_DS3505
ZGNN,2000-04-03 05:00,ZGNN 030500Z AUTO 01006KT 7SM 23/16 A2991 RMK T02300160 IEM_DS3505
ZGNN,2000-04-03 06:00,ZGNN 030600Z AUTO 36006KT 16SM 22/16 A2988 RMK SLP119 T02190156 57019 IEM_DS3505
ZGNN,2000-04-03 07:00,ZGNN 030700Z AUTO 04006KT 7SM 23/16 A2985 RMK T02300160 IEM_DS3505
ZGNN,2000-04-03 08:00,ZGNN 030800Z AUTO 34008KT 7SM 24/17 A2983 RMK T02400170 IEM_DS3505
ZGNN,2000-04-03 09:00,ZGNN 030900Z AUTO 04002KT 16SM 23/17 A2983 RMK SLP097 T02290171 57021 IEM_DS3505
ZGNN,2000-04-03 10:00,ZGNN 031000Z AUTO 06008KT 7SM 22/17 A2983 RMK T02200170 IEM_DS3505
ZGNN,2000-04-03 11:00,ZGNN 031100Z AUTO 04006KT 7SM 22/16 A2985 RMK T02200160 IEM_DS3505
ZGNN,2000-04-03 12:00,ZGNN 031200Z AUTO 04002KT 11SM 21/16 A2988 RMK SLP109 T02080162 52011 IEM_DS3505
ZGNN,2000-04-03 13:00,ZGNN 031300Z AUTO 03006KT 7SM 21/16 A2988 RMK T02100160 IEM_DS3505
ZGNN,2000-04-03 15:00,ZGNN 031500Z AUTO 00000KT 11SM 20/16 RMK SLP131 T01980162 52022 IEM_DS3505
ZGNN,2000-04-03 18:00,ZGNN 031800Z AUTO 00000KT 11SM 19/16 RMK SLP131 T01920162 54000 IEM_DS3505
ZGNN,2000-04-03 21:00,ZGNN 032100Z AUTO 00000KT 9SM 19/16 RMK SLP126 T01860163 57005 IEM_DS3505
ZGNN,2000-04-03 22:00,ZGNN 032200Z AUTO 00000KT 7SM 19/15 A2991 RMK T01900150 IEM_DS3505
ZGNN,2000-04-03 23:00,ZGNN 032300Z AUTO 00000KT 7SM 19/15 A2991 RMK T01900150 IEM_DS3505
ZGNN,2000-04-04 00:00,ZGNN 040000Z AUTO 00000KT 9SM 18/14 A2994 RMK SLP140 T01830144 52013 IEM_DS3505
ZGNN,2000-04-04 01:00,ZGNN 040100Z AUTO 04004KT 7SM 20/13 A2997 RMK T02000130 IEM_DS3505
ZGNN,2000-04-04 02:00,ZGNN 040200Z AUTO 00000KT 7SM 20/14 A2997 RMK T02000140 IEM_DS3505
ZGNN,2000-04-04 03:00,ZGNN 040300Z AUTO 32004KT 7SM 22/14 RMK SLP144 T02170135 52005 IEM_DS3505
ZGNN,2000-04-04 04:00,ZGNN 040400Z AUTO 00000KT 7SM 23/15 A2994 RMK T02300150 IEM_DS3505
ZGNN,2000-04-04 05:00,ZGNN 040500Z AUTO 16006KT 6SM 23/15 A2988 RMK T02300150 IEM_DS3505
ZGNN,2000-04-04 06:00,ZGNN 040600Z AUTO 00000KT 9SM 24/15 A2985 RMK SLP111 T02390150 57033 IEM_DS3505
ZGNN,2000-04-04 07:00,ZGNN 040700Z AUTO 24004KT 6SM 24/15 A2983 RMK T02400150 IEM_DS3505
ZGNN,2000-04-04 08:00,ZGNN 040800Z AUTO 15004KT 6SM 24/15 A2980 RMK T02400150 IEM_DS3505
ZGNN,2000-04-04 09:00,ZGNN 040900Z AUTO 16002KT 9SM 24/16 A2980 RMK SLP084 T02420155 57026 IEM_DS3505
ZGNN,2000-04-04 10:00,ZGNN 041000Z AUTO 12004KT 6SM 23/16 A2980 RMK T02300160 IEM_DS3505
ZGNN,2000-04-04 11:00,ZGNN 041100Z AUTO 00000KT 6SM 23/16 A2980 RMK T02300160 IEM_DS3505
ZGNN,2000-04-04 12:00,ZGNN 041200Z AUTO 00000KT 9SM 23/16 A2983 RMK SLP096 T02280159 52011 IEM_DS3505
ZGNN,2000-04-04 15:00,ZGNN 041500Z AUTO 00000KT 9SM 22/16 RMK SLP116 T02150159 52020 IEM_DS3505
ZGNN,2000-04-04 18:00,ZGNN 041800Z AUTO 27002KT 9SM 21/15 RMK SLP122 T02110147 52007 IEM_DS3505
ZGNN,2000-04-04 21:00,ZGNN 042100Z AUTO 00000KT 7SM 20/16 RMK SLP127 T02050155 52005 IEM_DS3505
ZGNN,2000-04-04 22:00,ZGNN 042200Z AUTO 35006KT 7SM 21/14 A2994 RMK T02100140 IEM_DS3505
ZGNN,2000-04-04 23:00,ZGNN 042300Z AUTO 33004KT 7SM 20/14 A2994 RMK T02000140 IEM_DS3505
ZGNN,2000-04-05 00:00,ZGNN 050000Z AUTO 36006KT 9SM 21/13 A2997 RMK 60003 SLP147 T02060129 52019 IEM_DS3505
ZGNN,2000-04-05 02:00,ZGNN 050200Z AUTO 34008KT 7SM 21/14 A3003 RMK T02100140 IEM_DS3505
ZGNN,2000-04-05 03:00,ZGNN 050300Z AUTO 02008KT 9SM 22/14 A3003 RMK SLP160 T02170135 52013 IEM_DS3505
ZGNN,2000-04-05 04:00,ZGNN 050400Z AUTO 34012KT 7SM 22/14 A3000 RMK T02200140 IEM_DS3505
ZGNN,2000-04-05 05:00,ZGNN 050500Z AUTO 36008KT 7SM 23/14 A3000 RMK T02300140 IEM_DS3505
ZGNN,2000-04-05 06:00,ZGNN 050600Z AUTO 04006KT 10SM 23/14 A2994 RMK SLP138 T02290137 57022 IEM_DS3505
ZGNN,2000-04-05 07:00,ZGNN 050700Z AUTO 01004KT 7SM 24/14 A2991 RMK T02400140 IEM_DS3505
ZGNN,2000-04-05 08:00,ZGNN 050800Z AUTO 01008KT 7SM 24/14 A2991 RMK T02400140 IEM_DS3505
ZGNN,2000-04-05 09:00,ZGNN 050900Z AUTO 07004KT 11SM 24/15 A2988 RMK SLP118 T02390146 57019 IEM_DS3505
ZGNN,2000-04-05 10:00,ZGNN 051000Z AUTO 05012KT 6SM 23/14 A2988 RMK T02300140 IEM_DS3505
ZGNN,2000-04-05 11:00,ZGNN 051100Z AUTO 05006KT 6SM 22/14 A2991 RMK T02200140 IEM_DS3505
ZGNN,2000-04-05 12:00,ZGNN 051200Z AUTO 09002KT 9SM 22/14 A2994 RMK SLP138 T02160143 52019 IEM_DS3505
ZGNN,2000-04-05 13:00,ZGNN 051300Z AUTO 06006KT 6SM 21/15 A2997 RMK T02100150 IEM_DS3505
ZGNN,2000-04-05 14:00,ZGNN 051400Z AUTO 06004KT 6SM 21/15 A3000 RMK T02100150 IEM_DS3505
ZGNN,2000-04-05 15:00,ZGNN 051500Z AUTO 00000KT 9SM 20/16 RMK SLP159 T02050157 52021 IEM_DS3505
ZGNN,2000-04-05 18:00,ZGNN 051800Z AUTO 00000KT 9SM 20/16 RMK SLP150 T01970157 57009 IEM_DS3505
ZGNN,2000-04-05 21:00,ZGNN 052100Z AUTO 09004KT 9SM 19/16 RMK 70003 SLP140 T01910159 57010 IEM_DS3505
ZGNN,2000-04-05 22:00,ZGNN 052200Z AUTO 07004KT 7SM 19/16 A2997 RMK T01900160 IEM_DS3505
ZGNN,2000-04-05 23:00,ZGNN 052300Z AUTO 00000KT 5SM 19/16 A3000 RMK T01900160 IEM_DS3505
ZGNN,2000-04-06 00:00,ZGNN 060000Z AUTO 00000KT 5SM 19/16 A3000 RMK SLP155 T01900164 52014 IEM_DS3505
ZGNN,2000-04-06 01:00,ZGNN 060100Z AUTO 12006KT 7SM 20/16 A3003 RMK T02000160 IEM_DS3505
ZGNN,2000-04-06 02:00,ZGNN 060200Z AUTO 07010KT 7SM 19/15 A3003 RMK T01900150 IEM_DS3505
ZGNN,2000-04-06 03:00,ZGNN 060300Z AUTO 09004KT 4SM 18/16 A3003 RMK SLP173 T01820162 52017 IEM_DS3505
ZGNN,2000-04-06 04:00,ZGNN 060400Z AUTO 02004KT 1SM 17/17 A3003 RMK T01700170 IEM_DS3505
ZGNN,2000-04-06 05:00,ZGNN 060500Z AUTO 09008KT 1 1/4SM 17/17 A3000 RMK T01700170 IEM_DS3505
ZGNN,2000-04-06 06:00,ZGNN 060600Z AUTO 09002KT 3SM 18/17 A2997 RMK 60002 SLP147 T01780168 57025 IEM_DS3505
ZGNN,2000-04-06 07:00,ZGNN 060700Z AUTO 07008KT 1SM 17/17 A2994 RMK T01700170 IEM_DS3505
ZGNN,2000-04-06 08:00,ZGNN 060800Z AUTO 06006KT 1 1/4SM 17/17 A2994 RMK T01700170 IEM_DS3505
ZGNN,2000-04-06 09:00,ZGNN 060900Z AUTO 09004KT 3SM 18/17 A2991 RMK SLP133 T01750168 57014 IEM_DS3505
ZGNN,2000-04-06 10:00,ZGNN 061000Z AUTO 03006KT 1 1/4SM A2994 RMK IEM_DS3505
ZGNN,2000-04-06 11:00,ZGNN 061100Z AUTO 07004KT 1 1/4SM 17/17 A2994 RMK T01700170 IEM_DS3505
ZGNN,2000-04-06 12:00,ZGNN 061200Z AUTO 09004KT 4SM 17/17 A2997 RMK 60003 SLP147 T01730166 52013 IEM_DS3505
ZGNN,2000-04-06 13:00,ZGNN 061300Z AUTO 07006KT 2 1/2SM 17/17 A2997 RMK T01700170 IEM_DS3505
ZGNN,2000-04-06 14:00,ZGNN 061400Z AUTO 07006KT 2 1/2SM 17/17 A3000 RMK T01700170 IEM_DS3505
ZGNN,2000-04-06 15:00,ZGNN 061500Z AUTO 11002KT 6SM 17/16 RMK SLP163 T01710164 52016 IEM_DS3505
ZGNN,2000-04-06 17:00,ZGNN 061700Z AUTO 04004KT 1 1/4SM 17/16 A3003 RMK T01700160 IEM_DS3505
ZGNN,2000-04-06 18:00,ZGNN 061800Z AUTO 36002KT 2SM 17/17 A3000 RMK 60001 SLP162 T01710168 57001 IEM_DS3505
ZGNN,2000-04-06 21:00,ZGNN 062100Z AUTO 00000KT 2 1/2SM 17/17 RMK 70007 SLP156 T01710166 57006 IEM_DS3505
ZGNN,2000-04-06 22:00,ZGNN 062200Z AUTO 00000KT 1 1/2SM 17/17 A3000 RMK T01700170 IEM_DS3505
ZGNN,2000-04-06 23:00,ZGNN 062300Z AUTO 03004KT 1 1/4SM 17/17 A3003 RMK T01700170 IEM_DS3505
ZGNN,2000-04-07 00:00,ZGNN 070000Z AUTO 00000KT 2 1/2SM 17/17 A3003 RMK 60001 SLP172 T01730168 52015 IEM_DS3505
ZGNN,2000-04-07 01:00,ZGNN 070100Z AUTO 00000KT 1 1/4SM 18/17 A3006 RMK T01800170 IEM_DS3505
ZGNN,2000-04-07 02:00,ZGNN 070200Z AUTO 06004KT 1SM 18/17 A3009 RMK T01800170 IEM_DS3505
ZGNN,2000-04-07 03:00,ZGNN 070300Z AUTO 14004KT 2SM 18/17 A3006 RMK SLP181 T01810171 52009 IEM_DS3505
ZGNN,2000-04-07 04:00,ZGNN 070400Z AUTO 00000KT 5SM 18/17 A3006 RMK T01800170 IEM_DS3505
ZGNN,2000-04-07 05:00,ZGNN 070500Z AUTO 00000KT 5SM 19/17 A3003 RMK T01900170 IEM_DS3505
ZGNN,2000-04-07 06:00,ZGNN 070600Z AUTO 00000KT 4SM 19/18 A3000 RMK 60003 SLP161 T01890176 57019 IEM_DS3505
ZGNN,2000-04-07 07:00,ZGNN 070700Z AUTO 00000KT 1 1/4SM 18/18 A2997 RMK T01800180 IEM_DS3505
ZGNN,2000-04-07 08:00,ZGNN 070800Z AUTO 00000KT 1 1/4SM 19/18 A2997 RMK T01900180 IEM_DS3505
ZGNN,2000-04-07 09:00,ZGNN 070900Z AUTO 00000KT 2SM 18/18 A2997 RMK SLP145 T01840178 57016 IEM_DS3505
ZGNN,2000-04-07 10:00,ZGNN 071000Z AUTO 06006KT 1SM 18/18 A2997 RMK T01800180 IEM_DS3505
ZGNN,2000-04-07 11:00,ZGNN 071100Z AUTO 03004KT 1SM 18/18 A2997 RMK T01800180 IEM_DS3505
ZGNN,2000-04-07 12:00,ZGNN 071200Z AUTO 09002KT 3SM 18/17 A2997 RMK 60004 SLP152 T01780173 52007 IEM_DS3505
ZGNN,2000-04-07 13:00,ZGNN 071300Z AUTO 00000KT 1SM 18/17 A2997 RMK T01800170 IEM_DS3505
ZGNN,2000-04-07 15:00,ZGNN 071500Z AUTO 00000KT 6SM 18/17 RMK SLP168 T01780171 52016 IEM_DS3505
ZGNN,2000-04-07 18:00,ZGNN 071800Z AUTO 00000KT 6SM 18/17 RMK 60003 SLP164 T01760169 57004 IEM_DS3505
ZGNN,2000-04-07 21:00,ZGNN 072100Z AUTO 00000KT 4SM 18/17 RMK 70004 SLP149 T01760173 57015 IEM_DS3505
ZGNN,2000-04-07 22:00,ZGNN 072200Z AUTO 00000KT 1SM 18/18 A2997 RMK T01800180 IEM_DS3505
ZGNN,2000-04-07 23:00,ZGNN 072300Z AUTO 04004KT 1/2SM 18/18 A2997 RMK T01800180 IEM_DS3505
ZGNN,2000-04-08 00:00,ZGNN 080000Z AUTO 00000KT 2SM 18/17 A2997 RMK 60000 SLP153 T01770174 52004 IEM_DS3505
ZGNN,2000-04-08 01:00,ZGNN 080100Z AUTO 01006KT 1SM 18/18 A3000 RMK T01800180 IEM_DS3505
ZGNN,2000-04-08 02:00,ZGNN 080200Z AUTO 07004KT 1 1/2SM 18/18 A3000 RMK T01800180 IEM_DS3505
ZGNN,2000-04-08 03:00,ZGNN 080300Z AUTO 00000KT 4SM 19/18 A3000 RMK SLP153 T01870176 54000 IEM_DS3505
ZGNN,2000-04-08 04:00,ZGNN 080400Z AUTO 07004KT 1 1/4SM 18/18 A2997 RMK T01800180 IEM_DS3505
ZGNN,2000-04-08 05:00,ZGNN 080500Z AUTO 07004KT 1 1/4SM 19/18 A2994 RMK T01900180 IEM_DS3505
ZGNN,2000-04-08 06:00,ZGNN 080600Z AUTO 00000KT 3SM 19/18 A2991 RMK 60004 SLP129 T01860180 57024 IEM_DS3505
ZGNN,2000-04-08 07:00,ZGNN 080700Z AUTO 00000KT 1 1/4SM 19/18 A2988 RMK T01900180 IEM_DS3505
ZGNN,2000-04-08 08:00,ZGNN 080800Z AUTO 00000KT 1 1/4SM 19/18 A2985 RMK T01900180 IEM_DS3505
ZGNN,2000-04-08 09:00,ZGNN 080900Z AUTO 00000KT 3SM 19/18 A2985 RMK SLP109 T01860181 57019 IEM_DS3505
ZGNN,2000-04-08 10:00,ZGNN 081000Z AUTO 00000KT 1 1/4SM 19/18 A2985 RMK T01900180 IEM_DS3505
ZGNN,2000-04-08 11:00,ZGNN 081100Z AUTO 00000KT 1 1/4SM 19/18 A2985 RMK T01900180 IEM_DS3505
ZGNN,2000-04-08 12:00,ZGNN 081200Z AUTO 00000KT 3SM 19/18 A2988 RMK 60012 SLP114 T01860184 52005 IEM_DS3505
ZGNN,2000-04-08 15:00,ZGNN 081500Z AUTO 14004KT 3SM 19/18 RMK SLP133 T01860183 52019 IEM_DS3505
ZGNN,2000-04-08 18:00,ZGNN 081800Z AUTO 00000KT 3SM 19/18 RMK 60002 SLP126 T01860184 57007 IEM_DS3505
ZGNN,2000-04-08 21:00,ZGNN 082100Z AUTO 00000KT 2 1/2SM 18/18 RMK 70017 SLP114 T01850183 57012 IEM_DS3505
ZGNN,2000-04-08 22:00,ZGNN 082200Z AUTO 00000KT 3/8SM 19/19 A2988 RMK T01900190 IEM_DS3505
ZGNN,2000-04-08 23:00,ZGNN 082300Z AUTO 00000KT 1/4SM 19/19 A2988 RMK T01900190 IEM_DS3505
ZGNN,2000-04-09 00:00,ZGNN 090000Z AUTO 00000KT 1 1/4SM 19/19 A2991 RMK 60000 SLP127 T01900188 52013 IEM_DS3505
ZGNN,2000-04-09 01:00,ZGNN 090100Z AUTO 00000KT 1/2SM 20/20 A2991 RMK T02000200 IEM_DS3505
ZGNN,2000-04-09 02:00,ZGNN 090200Z AUTO 06004KT 1/2SM 20/20 A2991 RMK T02000200 IEM_DS3505
ZGNN,2000-04-09 03:00,ZGNN 090300Z AUTO 00000KT 2 1/2SM 21/20 A2991 RMK SLP125 T02060200 57002 IEM_DS3505
ZGNN,2000-04-09 04:00,ZGNN 090400Z AUTO 06004KT 1 1/2SM 22/21 A2988 RMK T02200210 IEM_DS3505
ZGNN,2000-04-09 05:00,ZGNN 090500Z AUTO 09006KT 4SM 24/21 A2985 RMK T02400210 IEM_DS3505
ZGNN,2000-04-09 06:00,ZGNN 090600Z AUTO 20002KT 6SM 24/22 A2985 RMK 60003 SLP100 T02380222 57024 IEM_DS3505
ZGNN,2000-04-09 07:00,ZGNN 090700Z AUTO 12004KT 2 1/2SM 24/23 A2983 RMK T02400230 IEM_DS3505
ZGNN,2000-04-09 08:00,ZGNN 090800Z AUTO 00000KT 4SM 24/23 A2980 RMK T02400230 IEM_DS3505
ZGNN,2000-04-09 09:00,ZGNN 090900Z AUTO 00000KT 4SM 24/23 A2980 RMK SLP086 T02400230 57013 IEM_DS3505
ZGNN,2000-04-09 10:00,ZGNN 091000Z AUTO 00000KT 7SM 24/23 A2983 RMK T02400230 IEM_DS3505
ZGNN,2000-04-09 11:00,ZGNN 091100Z AUTO 00000KT 7SM 24/22 A2983 RMK T02400220 IEM_DS3505
ZGNN,2000-04-09 12:00,ZGNN 091200Z AUTO 00000KT 5SM 23/23 A2985 RMK 60000 SLP109 T02340228 52022 IEM_DS3505
ZGNN,2000-04-09 13:00,ZGNN 091300Z AUTO 00000KT 7SM 23/22 A2988 RMK T02300220 IEM_DS3505
ZGNN,2000-04-09 14:00,ZGNN 091400Z AUTO 00000KT 7SM 23/22 A2991 RMK T02300220 IEM_DS3505
ZGNN,2000-04-09 15:00,ZGNN 091500Z AUTO 09002KT 6SM 23/22 RMK SLP132 T02300224 52023 IEM_DS3505
ZGNN,2000-04-09 18:00,ZGNN 091800Z AUTO 00000KT 6SM 22/22 RMK SLP128 T02240220 57003 IEM_DS3505
ZGNN,2000-04-09 21:00,ZGNN 092100Z AUTO 00000KT 6SM 23/22 RMK 70001 SLP121 T02260222 57007 IEM_DS3505
ZGNN,2000-04-09 22:00,ZGNN 092200Z AUTO 00000KT 1 1/4SM 22/22 A2991 RMK T02200220 IEM_DS3505
ZGNN,2000-04-09 23:00,ZGNN 092300Z AUTO 06006KT 1SM 22/22 A2994 RMK T02200220 IEM_DS3505
ZGNN,2000-04-10 00:00,ZGNN 100000Z AUTO 09002KT 4SM 21/21 A2997 RMK 60002 SLP145 T02130210 52023 IEM_DS3505
ZGNN,2000-04-10 01:00,ZGNN 100100Z AUTO 02004KT 1 1/4SM 21/21 A3000 RMK T02100210 IEM_DS3505
ZGNN,2000-04-10 03:00,ZGNN 100300Z AUTO 16004KT 5SM 21/20 A3003 RMK SLP164 T02120198 52019 IEM_DS3505
ZGNN,2000-04-10 04:00,ZGNN 100400Z AUTO 03006KT 7SM 21/20 A3003 RMK T02100200 IEM_DS3505
ZGNN,2000-04-10 05:00,ZGNN 100500Z AUTO 03008KT 7SM 21/19 A3000 RMK T02100190 IEM_DS3505
ZGNN,2000-04-10 06:00,ZGNN 100600Z AUTO 36004KT 9SM 21/19 A2997 RMK 60004 SLP149 T02140189 57015 IEM_DS3505
ZGNN,2000-04-10 07:00,ZGNN 100700Z AUTO 33006KT 7SM 21/20 A2997 RMK T02100200 IEM_DS3505
ZGNN,2000-04-10 08:00,ZGNN 100800Z AUTO 05006KT 2SM 21/20 A2994 RMK T02100200 IEM_DS3505
ZGNN,2000-04-10 09:00,ZGNN 100900Z AUTO 02004KT 6SM 20/19 A2994 RMK SLP138 T01980187 57011 IEM_DS3505
ZGNN,2000-04-10 10:00,ZGNN 101000Z AUTO 04008KT 7SM 20/18 A2994 RMK T02000180 IEM_DS3505
ZGNN,2000-04-10 11:00,ZGNN 101100Z AUTO 00000KT 1SM 19/19 A2997 RMK T01900190 IEM_DS3505
ZGNN,2000-04-10 12:00,ZGNN 101200Z AUTO 07002KT 2 1/2SM 19/19 A2997 RMK 60094 SLP147 T01900187 52008 IEM_DS3505
ZGNN,2000-04-10 13:00,ZGNN 101300Z AUTO 29006KT 7SM 19/19 A3000 RMK T01900190 IEM_DS3505
ZGNN,2000-04-10 14:00,ZGNN 101400Z AUTO 00000KT 7SM 19/19 A3003 RMK T01900190 IEM_DS3505
ZGNN,2000-04-10 15:00,ZGNN 101500Z AUTO 22002KT 6SM 19/18 A3003 RMK SLP169 T01880183 52022 IEM_DS3505
ZGNN,2000-04-10 16:00,ZGNN 101600Z AUTO 00000KT 7SM 19/18 A3003 RMK T01900180 IEM_DS3505
ZGNN,2000-04-10 17:00,ZGNN 101700Z AUTO 00000KT 7SM 18/18 A3003 RMK T01800180 IEM_DS3505
ZGNN,2000-04-10 18:00,ZGNN 101800Z AUTO 02002KT 4SM 19/18 RMK 60071 SLP159 T01870182 57010 IEM_DS3505
ZGNN,2000-04-10 21:00,ZGNN 102100Z AUTO 00000KT 4SM 19/18 RMK 70174 SLP155 T01860183 57004 IEM_DS3505
ZGNN,2000-04-10 22:00,ZGNN 102200Z AUTO 00000KT 4SM 18/18 A3000 RMK T01800180 IEM_DS3505
ZGNN,2000-04-10 23:00,ZGNN 102300Z AUTO 05006KT 1 1/4SM 19/18 A3000 RMK T01900180 IEM_DS3505
ZGNN,2000-04-11 00:00,ZGNN 110000Z AUTO 00000KT 2SM 18/18 A3000 RMK 60004 SLP162 T01820177 52006 IEM_DS3505
ZGNN,2000-04-11 01:00,ZGNN 110100Z AUTO 01006KT 1 1/4SM 19/18 A3003 RMK T01900180 IEM_DS3505
ZGNN,2000-04-11 02:00,ZGNN 110200Z AUTO 01004KT 1 1/4SM 19/18 A3003 RMK T01900180 IEM_DS3505
ZGNN,2000-04-11 03:00,ZGNN 110300Z AUTO 07002KT 4SM 19/18 A3006 RMK SLP175 T01880178 52013 IEM_DS3505
ZGNN,2000-04-11 04:00,ZGNN 110400Z AUTO 08008KT 1 1/4SM 19/18 A3003 RMK T01900180 IEM_DS3505
ZGNN,2000-04-11 05:00,ZGNN 110500Z AUTO 06004KT 1 1/4SM 19/18 A3000 RMK T01900180 IEM_DS3505
ZGNN,2000-04-11 06:00,ZGNN 110600Z AUTO 09004KT 4SM 19/18 A2997 RMK 60000 SLP146 T01910178 57028 IEM_DS3505
ZGNN,2000-04-11 07:00,ZGNN 110700Z AUTO 08004KT 2SM 19/18 A2994 RMK T01900180 IEM_DS3505
ZGNN,2000-04-11 08:00,ZGNN 110800Z AUTO 04004KT 1 1/2SM 19/18 A2994 RMK T01900180 IEM_DS3505
ZGNN,2000-04-11 09:00,ZGNN 110900Z AUTO 02002KT 2 1/2SM 19/18 A2994 RMK SLP134 T01930179 57012 IEM_DS3505
ZGNN,2000-04-11 10:00,ZGNN 111000Z AUTO 03006KT 1 1/4SM 19/18 A2991 RMK T01900180 IEM_DS3505
ZGNN,2000-04-11 11:00,ZGNN 111100Z AUTO 00000KT 1SM 19/18 A2994 RMK T01900180 IEM_DS3505
ZGNN,2000-04-11 12:00,ZGNN 111200Z AUTO 00000KT 2 1/2SM 19/18 A2994 RMK 60003 SLP133 T01920181 57001 IEM_DS3505
ZGNN,2000-04-11 13:00,ZGNN 111300Z AUTO 02008KT 1 1/4SM 19/18 A2994 RMK T01900180 IEM_DS3505
ZGNN,2000-04-11 14:00,ZGNN 111400Z AUTO 06006KT 1 1/4SM 19/18 A2994 RMK T01900180 IEM_DS3505
ZGNN,2000-04-11 15:00,ZGNN 111500Z AUTO 11002KT 2 1/2SM 19/18 RMK SLP139 T01880180 52006 IEM_DS3505
ZGNN,2000-04-11 18:00,ZGNN 111800Z AUTO 00000KT 2 1/2SM 18/18 RMK 60003 SLP141 T01850179 52002 IEM_DS3505
ZGNN,2000-04-11 21:00,ZGNN 112100Z AUTO 14002KT 2SM 18/18 RMK 70001 SLP124 T01820179 57017 IEM_DS3505
ZGNN,2000-04-11 22:00,ZGNN 112200Z AUTO 00000KT 1/2SM 18/18 A2991 RMK T01800180 IEM_DS3505
ZGNN,2000-04-11 23:00,ZGNN 112300Z AUTO 00000KT 1/2SM 18/18 A2991 RMK T01800180 IEM_DS3505
ZGNN,2000-04-12 00:00,ZGNN 120000Z AUTO 00000KT 2SM 18/18 A2994 RMK 60003 SLP140 T01830177 52016 IEM_DS3505
ZGNN,2000-04-12 01:00,ZGNN 120100Z AUTO 07004KT 2 1/2SM 19/18 A2994 RMK T01900180 IEM_DS3505
ZGNN,2000-04-12 02:00,ZGNN 120200Z AUTO 00000KT 4SM 20/18 A2997 RMK T02000180 IEM_DS3505
ZGNN,2000-04-12 03:00,ZGNN 120300Z AUTO 02002KT 3SM 20/18 A2994 RMK SLP136 T01990185 57004 IEM_DS3505
ZGNN,2000-04-12 04:00,ZGNN 120400Z AUTO 12008KT 6SM 21/19 A2991 RMK T02100190 IEM_DS3505
ZGNN,2000-04-12 05:00,ZGNN 120500Z AUTO 11004KT 5SM 21/19 A2988 RMK T02100190 IEM_DS3505
ZGNN,2000-04-12 06:00,ZGNN 120600Z AUTO 11004KT 5SM 21/19 A2983 RMK 60003 SLP099 T02100193 57036 IEM_DS3505
ZGNN,2000-04-12 07:00,ZGNN 120700Z AUTO 05006KT 4SM 22/20 A2983 RMK T02200200 IEM_DS3505
ZGNN,2000-04-12 08:00,ZGNN 120800Z AUTO 00000KT 2 1/2SM 22/20 A2980 RMK T02200200 IEM_DS3505
ZGNN,2000-04-12 09:00,ZGNN 120900Z AUTO 00000KT 2 1/2SM 21/20 A2980 RMK SLP083 T02140195 57016 IEM_DS3505
ZGNN,2000-04-12 10:00,ZGNN 121000Z AUTO 06004KT 1 1/2SM 21/20 A2977 RMK T02100200 IEM_DS3505
ZGNN,2000-04-12 11:00,ZGNN 121100Z AUTO 06006KT 1 1/4SM 21/20 A2977 RMK T02100200 IEM_DS3505
ZGNN,2000-04-12 12:00,ZGNN 121200Z AUTO 09002KT 2 1/2SM 21/20 A2980 RMK 60003 SLP088 T02080196 52005 IEM_DS3505
ZGNN,2000-04-12 13:00,ZGNN 121300Z AUTO 06006KT 1 1/4SM 20/19 A2980 RMK T02000190 IEM_DS3505
ZGNN,2000-04-12 14:00,ZGNN 121400Z AUTO 06004KT 1 1/2SM 20/19 A2983 RMK T02000190 IEM_DS3505
ZGNN,2000-04-12 15:00,ZGNN 121500Z AUTO 14002KT 2 1/2SM 20/19 A2983 RMK SLP098 T02020193 52010 IEM_DS3505
ZGNN,2000-04-12 18:00,ZGNN 121800Z AUTO 09002KT 2 1/2SM 20/20 RMK SLP084 T02050199 57014 IEM_DS3505
ZGNN,2000-04-12 21:00,ZGNN 122100Z AUTO 00000KT 2 1/2SM 20/20 RMK 70003 SLP073 T02020196 57010 IEM_DS3505
ZGNN,2000-04-12 22:00,ZGNN 122200Z AUTO 00000KT 1 1/4SM 20/20 A2977 RMK T02000200 IEM_DS3505
ZGNN,2000-04-12 23:00,ZGNN 122300Z AUTO 00000KT 1 1/4SM 20/20 A2977 RMK T02000200 IEM_DS3505
ZGNN,2000-04-13 00:00,ZGNN 130000Z AUTO 00000KT 2SM 21/20 A2980 RMK 60003 SLP083 T02060201 52009 IEM_DS3505
ZGNN,2000-04-13 01:00,ZGNN 130100Z AUTO 00000KT 5SM 22/19 A2980 RMK T02200190 IEM_DS3505
ZGNN,2000-04-13 02:00,ZGNN 130200Z AUTO 15010KT 7SM 24/22 A2980 RMK T02400220 IEM_DS3505
ZGNN,2000-04-13 03:00,ZGNN 130300Z AUTO 18006KT 12SM 25/22 A2977 RMK SLP077 T02490222 57005 IEM_DS3505
ZGNN,2000-04-13 04:00,ZGNN 130400Z AUTO 14012KT 7SM 26/23 A2974 RMK T02600230 IEM_DS3505
ZGNN,2000-04-13 05:00,ZGNN 130500Z AUTO 15010KT 7SM 26/24 A2974 RMK T02600240 IEM_DS3505
ZGNN,2000-04-13 06:00,ZGNN 130600Z AUTO 16008KT 19SM 25/22 A2971 RMK 60003 SLP055 T02520223 57021 IEM_DS3505
ZGNN,2000-04-13 07:00,ZGNN 130700Z AUTO 13012KT 7SM 27/23 A2968 RMK T02700230 IEM_DS3505
ZGNN,2000-04-13 08:00,ZGNN 130800Z AUTO 14010KT 7SM 27/23 A2965 RMK T02700230 IEM_DS3505
ZGNN,2000-04-13 09:00,ZGNN 130900Z AUTO 16006KT 19SM 27/23 A2965 RMK SLP034 T02660230 57021 IEM_DS3505
ZGNN,2000-04-13 10:00,ZGNN 131000Z AUTO 14010KT 7SM 27/23 A2965 RMK T02700230 IEM_DS3505
ZGNN,2000-04-13 11:00,ZGNN 131100Z AUTO 13010KT 7SM 25/23 A2965 RMK T02500230 IEM_DS3505
ZGNN,2000-04-13 12:00,ZGNN 131200Z AUTO 14004KT 19SM 25/22 A2965 RMK 60003 SLP041 T02480223 52007 IEM_DS3505
ZGNN,2000-04-13 13:00,ZGNN 131300Z AUTO 15008KT 7SM 24/22 A2968 RMK T02400220 IEM_DS3505
ZGNN,2000-04-13 14:00,ZGNN 131400Z AUTO 13008KT 7SM 24/22 A2971 RMK T02400220 IEM_DS3505
ZGNN,2000-04-13 15:00,ZGNN 131500Z AUTO 14006KT 19SM 24/22 A2971 RMK SLP056 T02420218 52016 IEM_DS3505
ZGNN,2000-04-13 16:00,ZGNN 131600Z AUTO 14008KT 7SM 23/22 A2971 RMK T02300220 IEM_DS3505
ZGNN,2000-04-13 17:00,ZGNN 131700Z AUTO 00000KT 7SM 23/23 A2971 RMK T02300230 IEM_DS3505
ZGNN,2000-04-13 18:00,ZGNN 131800Z AUTO 07002KT 9SM 23/22 RMK SLP050 T02270218 57006 IEM_DS3505
ZGNN,2000-04-13 21:00,ZGNN 132100Z AUTO 00000KT 7SM 21/21 RMK 70003 SLP048 T02130208 57002 IEM_DS3505
ZGNN,2000-04-13 22:00,ZGNN 132200Z AUTO 35006KT 7SM 21/21 A2971 RMK T02100210 IEM_DS3505
ZGNN,2000-04-13 23:00,ZGNN 132300Z AUTO 34004KT 7SM 22/21 A2974 RMK T02200210 IEM_DS3505
ZGNN,2000-04-14 00:00,ZGNN 140000Z AUTO 00000KT 5SM 22/22 A2977 RMK 70003 SLP074 T02250219 52025 IEM_DS3505
ZGNN,2000-04-14 01:00,ZGNN 140100Z AUTO 14006KT 7SM 25/22 A2977 RMK T02500220 IEM_DS3505
ZGNN,2000-04-14 02:00,ZGNN 140200Z AUTO 21004KT 7SM 26/22 A2977 RMK T02600220 IEM_DS3505
ZGNN,2000-04-14 03:00,ZGNN 140300Z AUTO 04002KT 19SM 27/22 A2977 RMK SLP076 T02690222 52003 IEM_DS3505
ZGNN,2000-04-14 05:00,ZGNN 140500Z AUTO 32006KT 7SM 30/22 A2971 RMK T03000220 IEM_DS3505
ZGNN,2000-04-14 06:00,ZGNN 140600Z AUTO 04004KT 16SM 29/22 A2968 RMK 60003 SLP048 T02930218 57027 IEM_DS3505
ZGNN,2000-04-14 07:00,ZGNN 140700Z AUTO 07004KT 7SM 31/21 A2965 RMK T03100210 IEM_DS3505
ZGNN,2000-04-14 08:00,ZGNN 140800Z AUTO 24004KT 7SM 32/21 A2965 RMK T03200210 IEM_DS3505
ZGNN,2000-04-14 09:00,ZGNN 140900Z AUTO 02004KT 16SM 31/22 A2965 RMK SLP030 T03070215 57018 IEM_DS3505
ZGNN,2000-04-14 10:00,ZGNN 141000Z AUTO 34006KT 7SM 31/21 A2965 RMK T03100210 IEM_DS3505
ZGNN,2000-04-14 11:00,ZGNN 141100Z AUTO 01004KT 7SM 29/23 A2968 RMK T02900230 IEM_DS3505
ZGNN,2000-04-14 13:00,ZGNN 141300Z AUTO 06008KT 7SM 27/20 A2977 RMK T02700200 IEM_DS3505
ZGNN,2000-04-14 14:00,ZGNN 141400Z AUTO 08004KT 7SM 26/19 A2980 RMK T02600190 IEM_DS3505
ZGNN,2000-04-14 15:00,ZGNN 141500Z AUTO 00000KT 12SM 25/20 RMK SLP096 T02530198 52038 IEM_DS3505
ZGNN,2000-04-14 18:00,ZGNN 141800Z AUTO 09004KT 12SM 24/17 RMK SLP105 T02370173 52009 IEM_DS3505
ZGNN,2000-04-14 21:00,ZGNN 142100Z AUTO 09004KT 12SM 21/15 RMK 70003 SLP114 T02140149 52019 IEM_DS3505
ZGNN,2000-04-14 22:00,ZGNN 142200Z AUTO 04008KT 6SM 21/14 A2991 RMK T02100140 IEM_DS3505
ZGNN,2000-04-15 00:00,ZGNN 150000Z AUTO 04004KT 19SM 20/14 A3000 RMK 70003 SLP156 T02040141 52040 IEM_DS3505
ZGNN,2000-04-15 01:00,ZGNN 150100Z AUTO 36004KT 6SM 21/15 A3006 RMK T02100150 IEM_DS3505
ZGNN,2000-04-15 02:00,ZGNN 150200Z AUTO 36008KT 6SM 21/13 A3006 RMK T02100130 IEM_DS3505
ZGNN,2000-04-15 03:00,ZGNN 150300Z AUTO 34010KT 19SM 20/13 A3009 RMK SLP185 T02010129 52028 IEM_DS3505
ZGNN,2000-04-15 04:00,ZGNN 150400Z AUTO 34012KT 6SM 21/13 A3006 RMK T02100130 IEM_DS3505
ZGNN,2000-04-15 05:00,ZGNN 150500Z AUTO 02014KT 6SM 23/12 A3003 RMK T02300120 IEM_DS3505
ZGNN,2000-04-15 06:00,ZGNN 150600Z AUTO 34010KT 19SM 24/10 A3000 RMK SLP158 T02410105 57026 IEM_DS3505
ZGNN,2000-04-15 07:00,ZGNN 150700Z AUTO 36012KT 6SM 26/10 A2997 RMK T02600100 IEM_DS3505
ZGNN,2000-04-15 08:00,ZGNN 150800Z AUTO 35014KT 6SM 26/09 A2997 RMK T02600090 IEM_DS3505
ZGNN,2000-04-15 09:00,ZGNN 150900Z AUTO 04006KT 16SM 26/08 A2994 RMK SLP135 T02590082 57023 IEM_DS3505
ZGNN,2000-04-15 10:00,ZGNN 151000Z AUTO 01008KT 6SM 25/09 A2994 RMK T02500090 IEM_DS3505
ZGNN,2000-04-15 11:00,ZGNN 151100Z AUTO 05006KT 6SM 23/11 A2997 RMK T02300110 IEM_DS3505
ZGNN,2000-04-15 12:00,ZGNN 151200Z AUTO 00000KT 12SM 21/14 A3000 RMK SLP158 T02120142 52021 IEM_DS3505
ZGNN,2000-04-15 13:00,ZGNN 151300Z AUTO 35004KT 6SM 20/15 A3000 RMK T02000150 IEM_DS3505
ZGNN,2000-04-15 14:00,ZGNN 151400Z AUTO 00000KT 6SM 19/15 A3003 RMK T01900150 IEM_DS3505
ZGNN,2000-04-15 15:00,ZGNN 151500Z AUTO 00000KT 12SM 19/15 A3006 RMK SLP179 T01940154 52021 IEM_DS3505
ZGNN,2000-04-15 18:00,ZGNN 151800Z AUTO 00000KT 12SM 20/12 RMK SLP165 T02000120 57013 IEM_DS3505
ZGNN,2000-04-15 21:00,ZGNN 152100Z AUTO 36004KT 12SM 19/10 RMK SLP159 T01860105 57006 IEM_DS3505
ZGNN,2000-04-15 22:00,ZGNN 152200Z AUTO 00000KT 7SM 18/13 A3000 RMK T01800130 IEM_DS3505
ZGNN,2000-04-15 23:00,ZGNN 152300Z AUTO 00000KT 6SM 18/13 A3003 RMK T01800130 IEM_DS3505
ZGNN,2000-04-16 00:00,ZGNN 160000Z AUTO 00000KT 7SM 18/14 A3006 RMK SLP174 T01810138 52014 IEM_DS3505
ZGNN,2000-04-16 01:00,ZGNN 160100Z AUTO 00000KT 6SM 20/13 A3009 RMK T02000130 IEM_DS3505
ZGNN,2000-04-16 02:00,ZGNN 160200Z AUTO 00000KT 6SM 21/11 A3009 RMK T02100110 IEM_DS3505
ZGNN,2000-04-16 03:00,ZGNN 160300Z AUTO 09004KT 16SM 23/09 A3009 RMK SLP184 T02320092 52010 IEM_DS3505
ZGNN,2000-04-16 04:00,ZGNN 160400Z AUTO 07004KT 6SM 25/08 A3006 RMK T02500080 IEM_DS3505
ZGNN,2000-04-16 05:00,ZGNN 160500Z AUTO 06008KT 6SM 26/09 A3003 RMK T02600090 IEM_DS3505
ZGNN,2000-04-16 06:00,ZGNN 160600Z AUTO 02008KT 16SM 26/10 A3000 RMK SLP157 T02630104 57025 IEM_DS3505
ZGNN,2000-04-16 07:00,ZGNN 160700Z AUTO 00000KT 6SM 27/08 A2997 RMK T02700080 IEM_DS3505
ZGNN,2000-04-16 08:00,ZGNN 160800Z AUTO 15006KT 6SM 27/07 A2994 RMK T02700070 IEM_DS3505
ZGNN,2000-04-16 09:00,ZGNN 160900Z AUTO 14006KT 16SM 26/07 A2994 RMK SLP135 T02620071 57022 IEM_DS3505
ZGNN,2000-04-16 10:00,ZGNN 161000Z AUTO 11006KT 7SM 25/09 A2994 RMK T02500090 IEM_DS3505
ZGNN,2000-04-16 11:00,ZGNN 161100Z AUTO 00000KT 7SM 24/12 A2994 RMK T02400120 IEM_DS3505
ZGNN,2000-04-16 12:00,ZGNN 161200Z AUTO 00000KT 12SM 22/14 A2994 RMK SLP136 T02220141 57001 IEM_DS3505
ZGNN,2000-04-16 13:00,ZGNN 161300Z AUTO 36004KT 7SM 20/15 A2994 RMK T02000150 IEM_DS3505
ZGNN,2000-04-16 14:00,ZGNN 161400Z AUTO 02004KT 7SM 20/15 A2997 RMK T02000150 IEM_DS3505
ZGNN,2000-04-16 15:00,ZGNN 161500Z AUTO 00000KT 11SM 20/14 RMK SLP149 T02030140 52014 IEM_DS3505
ZGNN,2000-04-16 18:00,ZGNN 161800Z AUTO 00000KT 9SM 19/14 RMK SLP140 T01860145 57009 IEM_DS3505
ZGNN,2000-04-16 21:00,ZGNN 162100Z AUTO 34002KT 9SM 19/15 RMK SLP135 T01860149 57004 IEM_DS3505
ZGNN,2000-04-16 22:00,ZGNN 162200Z AUTO 00000KT 7SM 18/15 A2994 RMK T01800150 IEM_DS3505
ZGNN,2000-04-16 23:00,ZGNN 162300Z AUTO 00000KT 7SM 18/15 A2997 RMK T01800150 IEM_DS3505
ZGNN,2000-04-17 00:00,ZGNN 170000Z AUTO 00000KT 12SM 20/15 A2997 RMK SLP151 T01980147 52015 IEM_DS3505
ZGNN,2000-04-17 01:00,ZGNN 170100Z AUTO 14004KT 7SM 22/15 A3000 RMK T02200150 IEM_DS3505
ZGNN,2000-04-17 02:00,ZGNN 170200Z AUTO 17012KT 6SM 23/15 A3000 RMK T02300150 IEM_DS3505
ZGNN,2000-04-17 03:00,ZGNN 170300Z AUTO 18008KT 16SM 24/15 A3000 RMK SLP154 T02360154 52003 IEM_DS3505
ZGNN,2000-04-17 04:00,ZGNN 170400Z AUTO 15012KT 6SM 26/14 A3000 RMK T02600140 IEM_DS3505
ZGNN,2000-04-17 05:00,ZGNN 170500Z AUTO 14016KT 6SM 27/13 A2994 RMK T02700130 IEM_DS3505
ZGNN,2000-04-17 06:00,ZGNN 170600Z AUTO 16008KT 19SM 26/13 A2991 RMK SLP130 T02550127 57024 IEM_DS3505
ZGNN,2000-04-17 07:00,ZGNN 170700Z AUTO 13016KT 6SM 27/13 A2988 RMK T02700130 IEM_DS3505
ZGNN,2000-04-17 08:00,ZGNN 170800Z AUTO 15014KT 6SM 27/13 A2988 RMK T02700130 IEM_DS3505
ZGNN,2000-04-17 09:00,ZGNN 170900Z AUTO 14008KT 19SM 27/13 A2985 RMK SLP108 T02720131 57021 IEM_DS3505
ZGNN,2000-04-17 10:00,ZGNN 171000Z AUTO 13019KT 6SM 26/11 A2985 RMK T02600110 IEM_DS3505
ZGNN,2000-04-17 11:00,ZGNN 171100Z AUTO 15017KT 6SM 24/12 A2988 RMK T02400120 IEM_DS3505
ZGNN,2000-04-17 12:00,ZGNN 171200Z AUTO 15014KT 6SM 23/16 A2991 RMK T02300160 IEM_DS3505
ZGNN,2000-04-17 13:00,ZGNN 171300Z AUTO 16010KT 6SM 23/17 A2991 RMK T02300170 IEM_DS3505
ZGNN,2000-04-17 14:00,ZGNN 171400Z AUTO 15012KT 6SM 22/17 A2994 RMK T02200170 IEM_DS3505
ZGNN,2000-04-17 15:00,ZGNN 171500Z AUTO 27002KT 16SM 22/18 A2994 RMK SLP136 T02180178 52014 IEM_DS3505
ZGNN,2000-04-17 18:00,ZGNN 171800Z AUTO 16004KT 16SM 22/19 RMK SLP125 T02230190 57011 IEM_DS3505
ZGNN,2000-04-17 21:00,ZGNN 172100Z AUTO 00000KT 12SM 22/20 RMK SLP119 T02180200 57005 IEM_DS3505
ZGNN,2000-04-17 22:00,ZGNN 172200Z AUTO 00000KT 7SM 22/20 A2991 RMK T02200200 IEM_DS3505
ZGNN,2000-04-17 23:00,ZGNN 172300Z AUTO 00000KT 7SM 22/20 A2991 RMK T02200200 IEM_DS3505
ZGNN,2000-04-18 00:00,ZGNN 180000Z AUTO 00000KT 2 1/2SM 22/20 A2994 RMK SLP134 T02200205 52014 IEM_DS3505
ZGNN,2000-04-18 01:00,ZGNN 180100Z AUTO 11004KT 7SM 23/21 A2994 RMK T02300210 IEM_DS3505
ZGNN,2000-04-18 02:00,ZGNN 180200Z AUTO 15004KT 7SM 24/21 A2997 RMK T02400210 IEM_DS3505
ZGNN,2000-04-18 03:00,ZGNN 180300Z AUTO 14006KT 5SM 24/21 A2997 RMK SLP143 T02400211 52009 IEM_DS3505
ZGNN,2000-04-18 04:00,ZGNN 180400Z AUTO 13004KT 7SM 25/22 A2994 RMK T02500220 IEM_DS3505
ZGNN,2000-04-18 05:00,ZGNN 180500Z AUTO 15008KT 7SM 26/22 A2991 RMK T02600220 IEM_DS3505
ZGNN,2000-04-18 06:00,ZGNN 180600Z AUTO 14008KT 9SM 27/22 A2988 RMK 60003 SLP112 T02720219 57030 IEM_DS3505
ZGNN,2000-04-18 07:00,ZGNN 180700Z AUTO 13016KT 7SM 27/22 A2985 RMK T02700220 IEM_DS3505
ZGNN,2000-04-18 08:00,ZGNN 180800Z AUTO 15019KT 7SM 27/22 A2983 RMK T02700220 IEM_DS3505
ZGNN,2000-04-18 09:00,ZGNN 180900Z AUTO 14010KT 11SM 28/22 A2980 RMK SLP087 T02770220 57025 IEM_DS3505
ZGNN,2000-04-18 10:00,ZGNN 181000Z AUTO 14014KT 7SM 27/21 A2980 RMK T02700210 IEM_DS3505
ZGNN,2000-04-18 11:00,ZGNN 181100Z AUTO 14008KT 6SM 26/22 A2980 RMK T02600220 IEM_DS3505
ZGNN,2000-04-18 12:00,ZGNN 181200Z AUTO 09004KT 9SM 25/22 A2983 RMK SLP094 T02540218 52007 IEM_DS3505
ZGNN,2000-04-18 13:00,ZGNN 181300Z AUTO 11006KT 6SM 24/22 A2985 RMK T02400220 IEM_DS3505
ZGNN,2000-04-18 15:00,ZGNN 181500Z AUTO 00000KT 9SM 24/21 RMK SLP111 T02370213 52017 IEM_DS3505
ZGNN,2000-04-18 18:00,ZGNN 181800Z AUTO 00000KT 9SM 24/22 RMK SLP107 T02370219 57004 IEM_DS3505
ZGNN,2000-04-18 21:00,ZGNN 182100Z AUTO 00000KT 7SM 23/22 RMK 70003 SLP095 T02340218 57011 IEM_DS3505
ZGNN,2000-04-18 22:00,ZGNN 182200Z AUTO 00000KT 7SM 23/22 A2985 RMK T02300220 IEM_DS3505
ZGNN,2000-04-18 23:00,ZGNN 182300Z AUTO 00000KT 7SM 23/22 A2985 RMK T02300220 IEM_DS3505
ZGNN,2000-04-19 00:00,ZGNN 190000Z AUTO 18004KT 6SM 24/22 A2988 RMK 70003 SLP111 T02390220 52015 IEM_DS3505
ZGNN,2000-04-19 01:00,ZGNN 190100Z AUTO 16004KT 7SM 25/23 A2988 RMK T02500230 IEM_DS3505
ZGNN,2000-04-19 02:00,ZGNN 190200Z AUTO 18006KT 7SM 27/22 A2988 RMK T02700220 IEM_DS3505
ZGNN,2000-04-19 03:00,ZGNN 190300Z AUTO 18006KT 9SM 27/22 A2988 RMK SLP110 T02690222 57001 IEM_DS3505
ZGNN,2000-04-19 04:00,ZGNN 190400Z AUTO 17012KT 7SM 29/22 A2985 RMK T02900220 IEM_DS3505
ZGNN,2000-04-19 05:00,ZGNN 190500Z AUTO 14010KT 7SM 29/21 A2983 RMK T02900210 IEM_DS3505
ZGNN,2000-04-19 06:00,ZGNN 190600Z AUTO 18006KT 12SM 29/22 A2977 RMK SLP080 T02870217 52029 IEM_DS3505
ZGNN,2000-04-19 07:00,ZGNN 190700Z AUTO 12006KT 7SM 30/22 A2974 RMK T03000220 IEM_DS3505
ZGNN,2000-04-19 08:00,ZGNN 190800Z AUTO 12012KT 7SM 31/22 A2971 RMK T03100220 IEM_DS3505
ZGNN,2000-04-19 09:00,ZGNN 190900Z AUTO 14006KT 16SM 30/22 A2968 RMK SLP049 T03030223 57030 IEM_DS3505
ZGNN,2000-04-19 10:00,ZGNN 191000Z AUTO 13016KT 7SM 30/22 A2968 RMK T03000220 IEM_DS3505
ZGNN,2000-04-19 11:00,ZGNN 191100Z AUTO 16012KT 7SM 28/22 A2971 RMK T02800220 IEM_DS3505
ZGNN,2000-04-19 12:00,ZGNN 191200Z AUTO 14012KT 6SM 27/22 A2971 RMK T02700220 IEM_DS3505
ZGNN,2000-04-19 13:00,ZGNN 191300Z AUTO 14010KT 6SM 25/22 A2974 RMK T02500220 IEM_DS3505
ZGNN,2000-04-19 14:00,ZGNN 191400Z AUTO 15006KT 6SM 24/22 A2977 RMK T02400220 IEM_DS3505
ZGNN,2000-04-19 15:00,ZGNN 191500Z AUTO 00000KT 14SM 25/22 A2977 RMK SLP075 T02460219 52024 IEM_DS3505
ZGNN,2000-04-19 16:00,ZGNN 191600Z AUTO 13004KT 6SM 23/22 A2980 RMK T02300220 IEM_DS3505
ZGNN,2000-04-19 17:00,ZGNN 191700Z AUTO 00000KT 6SM 23/21 A2980 RMK T02300210 IEM_DS3505
ZGNN,2000-04-19 18:00,ZGNN 191800Z AUTO 00000KT 14SM 23/21 A2980 RMK SLP078 T02290214 52003 IEM_DS3505
ZGNN,2000-04-19 19:00,ZGNN 191900Z AUTO 00000KT 7SM 23/22 A2977 RMK T02300220 IEM_DS3505
ZGNN,2000-04-19 21:00,ZGNN 192100Z AUTO 00000KT 14SM 23/22 RMK SLP071 T02320220 57006 IEM_DS3505
ZGNN,2000-04-19 22:00,ZGNN 192200Z AUTO 35004KT 7SM 22/21 A2977 RMK T02200210 IEM_DS3505
ZGNN,2000-04-19 23:00,ZGNN 192300Z AUTO 00000KT 7SM 22/21 A2977 RMK T02200210 IEM_DS3505
ZGNN,2000-04-20 00:00,ZGNN 200000Z AUTO 14004KT 7SM 24/22 A2980 RMK SLP082 T02440223 52010 IEM_DS3505
ZGNN,2000-04-20 01:00,ZGNN 200100Z AUTO 16008KT 7SM 26/23 A2980 RMK T02600230 IEM_DS3505
ZGNN,2000-04-20 02:00,ZGNN 200200Z AUTO 15006KT 7SM 27/23 A2983 RMK T02700230 IEM_DS3505
ZGNN,2000-04-20 03:00,ZGNN 200300Z AUTO 18006KT 12SM 27/23 A2983 RMK SLP093 T02720231 52011 IEM_DS3505
ZGNN,2000-04-20 04:00,ZGNN 200400Z AUTO 16004KT 7SM 29/23 A2980 RMK T02900230 IEM_DS3505
ZGNN,2000-04-20 05:00,ZGNN 200500Z AUTO 00000KT 7SM 30/23 A2980 RMK T03000230 IEM_DS3505
ZGNN,2000-04-20 06:00,ZGNN 200600Z AUTO 20006KT 16SM 30/23 A2977 RMK SLP070 T02980232 57023 IEM_DS3505
ZGNN,2000-04-20 07:00,ZGNN 200700Z AUTO 09006KT 7SM 31/23 A2974 RMK T03100230 IEM_DS3505
ZGNN,2000-04-20 08:00,ZGNN 200800Z AUTO 09006KT 7SM 31/23 A2971 RMK T03100230 IEM_DS3505
ZGNN,2000-04-20 09:00,ZGNN 200900Z AUTO 14004KT 17SM 32/24 A2968 RMK SLP042 T03160235 57027 IEM_DS3505
ZGNN,2000-04-20 10:00,ZGNN 201000Z AUTO 13010KT 7SM 30/23 A2968 RMK T03000230 IEM_DS3505
ZGNN,2000-04-20 11:00,ZGNN 201100Z AUTO 12006KT 7SM 29/23 A2968 RMK T02900230 IEM_DS3505
ZGNN,2000-04-20 12:00,ZGNN 201200Z AUTO 16004KT 19SM 28/23 A2971 RMK SLP056 T02800234 52014 IEM_DS3505
ZGNN,2000-04-20 13:00,ZGNN 201300Z AUTO 00000KT 7SM 26/23 A2974 RMK T02600230 IEM_DS3505
ZGNN,2000-04-20 15:00,ZGNN 201500Z AUTO 00000KT 17SM 25/23 RMK SLP087 T02540232 52030 IEM_DS3505
ZGNN,2000-04-20 18:00,ZGNN 201800Z AUTO 11002KT 16SM 25/23 RMK SLP089 T02480232 52003 IEM_DS3505
ZGNN,2000-04-20 21:00,ZGNN 202100Z AUTO 04004KT 15SM 24/19 RMK SLP084 T02390191 57005 IEM_DS3505
ZGNN,2000-04-20 22:00,ZGNN 202200Z AUTO 04008KT 7SM 24/19 A2983 RMK T02400190 IEM_DS3505
ZGNN,2000-04-20 23:00,ZGNN 202300Z AUTO 03006KT 7SM 24/19 A2985 RMK T02400190 IEM_DS3505
ZGNN,2000-04-21 01:00,ZGNN 210100Z AUTO 04006KT 7SM 23/19 A2988 RMK T02300190 IEM_DS3505
ZGNN,2000-04-21 02:00,ZGNN 210200Z AUTO 04006KT 7SM 23/19 A2991 RMK T02300190 IEM_DS3505
ZGNN,2000-04-21 03:00,ZGNN 210300Z AUTO 00000KT 16SM 23/18 A2991 RMK SLP124 T02340177 52013 IEM_DS3505
ZGNN,2000-04-21 04:00,ZGNN 210400Z AUTO 06006KT 7SM 25/19 A2991 RMK T02500190 IEM_DS3505
ZGNN,2000-04-21 05:00,ZGNN 210500Z AUTO 05008KT 7SM 25/19 A2988 RMK T02500190 IEM_DS3505
ZGNN,2000-04-21 06:00,ZGNN 210600Z AUTO 04004KT 12SM 26/19 A2985 RMK 60003 SLP107 T02560186 57017 IEM_DS3505
ZGNN,2000-04-21 07:00,ZGNN 210700Z AUTO 02008KT 7SM 27/19 A2983 RMK T02700190 IEM_DS3505
ZGNN,2000-04-21 08:00,ZGNN 210800Z AUTO 03004KT 7SM 27/19 A2980 RMK T02700190 IEM_DS3505
ZGNN,2000-04-21 09:00,ZGNN 210900Z AUTO 04004KT 9SM 27/20 A2980 RMK SLP081 T02680195 57025 IEM_DS3505
ZGNN,2000-04-21 10:00,ZGNN 211000Z AUTO 04004KT 6SM 27/20 A2977 RMK T02700200 IEM_DS3505
ZGNN,2000-04-21 11:00,ZGNN 211100Z AUTO 03004KT 6SM 26/19 A2980 RMK T02600190 IEM_DS3505
ZGNN,2000-04-21 12:00,ZGNN 211200Z AUTO 00000KT 9SM 25/21 A2983 RMK SLP094 T02480206 52012 IEM_DS3505
ZGNN,2000-04-21 13:00,ZGNN 211300Z AUTO 07004KT 6SM 25/20 A2985 RMK T02500200 IEM_DS3505
ZGNN,2000-04-21 14:00,ZGNN 211400Z AUTO 08004KT 6SM 24/19 A2985 RMK T02400190 IEM_DS3505
ZGNN,2000-04-21 15:00,ZGNN 211500Z AUTO 09004KT 9SM 24/19 A2988 RMK SLP113 T02380188 52018 IEM_DS3505
ZGNN,2000-04-21 18:00,ZGNN 211800Z AUTO 00000KT 9SM 23/19 RMK SLP105 T02310189 57007 IEM_DS3505
ZGNN,2000-04-21 21:00,ZGNN 212100Z AUTO 00000KT 9SM 22/18 RMK 70003 SLP090 T02240181 57015 IEM_DS3505
ZGNN,2000-04-21 22:00,ZGNN 212200Z AUTO 00000KT 7SM 22/19 A2983 RMK T02200190 IEM_DS3505
ZGNN,2000-04-21 23:00,ZGNN 212300Z AUTO 34004KT 6SM 22/19 A2983 RMK T02200190 IEM_DS3505
ZGNN,2000-04-22 00:00,ZGNN 220000Z AUTO 00000KT 8SM 23/18 A2985 RMK 60003 SLP105 T02270185 52015 IEM_DS3505
ZGNN,2000-04-22 01:00,ZGNN 220100Z AUTO 08004KT 6SM 24/19 A2988 RMK T02400190 IEM_DS3505
ZGNN,2000-04-22 02:00,ZGNN 220200Z AUTO 12008KT 6SM 25/19 A2988 RMK T02500190 IEM_DS3505
ZGNN,2000-04-22 03:00,ZGNN 220300Z AUTO 32002KT 8SM 27/21 A2985 RMK SLP109 T02660206 52004 IEM_DS3505
ZGNN,2000-04-22 04:00,ZGNN 220400Z AUTO 00000KT 6SM 27/21 A2985 RMK T02700210 IEM_DS3505
ZGNN,2000-04-22 05:00,ZGNN 220500Z AUTO 15006KT 7SM 27/22 A2983 RMK T02700220 IEM_DS3505
ZGNN,2000-04-22 06:00,ZGNN 220600Z AUTO 04002KT 8SM 28/23 A2980 RMK 60000 SLP087 T02840226 57021 IEM_DS3505
ZGNN,2000-04-22 07:00,ZGNN 220700Z AUTO 00000KT 7SM 30/23 A2977 RMK T03000230 IEM_DS3505
ZGNN,2000-04-22 08:00,ZGNN 220800Z AUTO 01008KT 7SM 28/22 A2977 RMK T02800220 IEM_DS3505
ZGNN,2000-04-22 09:00,ZGNN 220900Z AUTO 04006KT 6SM 25/20 A2977 RMK SLP074 T02500198 57014 IEM_DS3505
ZGNN,2000-04-22 11:00,ZGNN 221100Z AUTO 09010KT 7SM 22/19 A2980 RMK T02200190 IEM_DS3505
ZGNN,2000-04-22 13:00,ZGNN 221300Z AUTO 07006KT 7SM 20/18 A2983 RMK T02000180 IEM_DS3505
ZGNN,2000-04-22 14:00,ZGNN 221400Z AUTO 13006KT 7SM 20/18 A2985 RMK T02000180 IEM_DS3505
ZGNN,2000-04-22 15:00,ZGNN 221500Z AUTO 14004KT 7SM 22/18 A2985 RMK SLP109 T02150175 52017 IEM_DS3505
ZGNN,2000-04-22 16:00,ZGNN 221600Z AUTO 05004KT 7SM 19/17 A2985 RMK T01900170 IEM_DS3505
ZGNN,2000-04-22 17:00,ZGNN 221700Z AUTO 00000KT 7SM 19/17 A2985 RMK T01900170 IEM_DS3505
ZGNN,2000-04-22 18:00,ZGNN 221800Z AUTO 00000KT 7SM 21/18 RMK SLP097 T02080178 57012 IEM_DS3505
ZGNN,2000-04-22 21:00,ZGNN 222100Z AUTO 00000KT 7SM 20/17 RMK 70000 SLP087 T02040170 57011 IEM_DS3505
ZGNN,2000-04-22 22:00,ZGNN 222200Z AUTO 00000KT 7SM 20/17 A2983 RMK T02000170 IEM_DS3505
ZGNN,2000-04-22 23:00,ZGNN 222300Z AUTO 00000KT 7SM 20/18 A2983 RMK T02000180 IEM_DS3505
ZGNN,2000-04-23 00:00,ZGNN 230000Z AUTO 07004KT 8SM 21/17 A2983 RMK 70000 SLP099 T02070170 52012 IEM_DS3505
ZGNN,2000-04-23 01:00,ZGNN 230100Z AUTO 00000KT 7SM 21/18 A2985 RMK T02100180 IEM_DS3505
ZGNN,2000-04-23 02:00,ZGNN 230200Z AUTO 02004KT 7SM 22/16 A2985 RMK T02200160 IEM_DS3505
ZGNN,2000-04-23 03:00,ZGNN 230300Z AUTO 32002KT 7SM 23/18 A2985 RMK SLP105 T02260182 52006 IEM_DS3505
ZGNN,2000-04-23 04:00,ZGNN 230400Z AUTO 04004KT 7SM 24/19 A2983 RMK T02400190 IEM_DS3505
ZGNN,2000-04-23 05:00,ZGNN 230500Z AUTO 10004KT 7SM 25/20 A2980 RMK T02500200 IEM_DS3505
ZGNN,2000-04-23 06:00,ZGNN 230600Z AUTO 18006KT 7SM 26/20 A2977 RMK SLP074 T02610202 57030 IEM_DS3505
ZGNN,2000-04-23 07:00,ZGNN 230700Z AUTO 00000KT 7SM 27/21 A2974 RMK T02700210 IEM_DS3505
ZGNN,2000-04-23 08:00,ZGNN 230800Z AUTO 11006KT 7SM 27/21 A2971 RMK T02700210 IEM_DS3505
ZGNN,2000-04-23 09:00,ZGNN 230900Z AUTO 04002KT 7SM 26/21 A2968 RMK SLP053 T02590213 57021 IEM_DS3505
ZGNN,2000-04-23 10:00,ZGNN 231000Z AUTO 02006KT 7SM 25/21 A2971 RMK T02500210 IEM_DS3505
ZGNN,2000-04-23 11:00,ZGNN 231100Z AUTO 04006KT 6SM 25/20 A2971 RMK T02500200 IEM_DS3505
ZGNN,2000-04-23 12:00,ZGNN 231200Z AUTO 02002KT 7SM 24/21 A2971 RMK SLP058 T02360210 52005 IEM_DS3505
ZGNN,2000-04-23 13:00,ZGNN 231300Z AUTO 02010KT 6SM 23/21 A2974 RMK T02300210 IEM_DS3505
ZGNN,2000-04-23 15:00,ZGNN 231500Z AUTO 00000KT 7SM 23/20 RMK SLP081 T02280204 52022 IEM_DS3505
ZGNN,2000-04-23 18:00,ZGNN 231800Z AUTO 00000KT 7SM 22/20 RMK SLP068 T02180203 57012 IEM_DS3505
ZGNN,2000-04-23 21:00,ZGNN 232100Z AUTO 09004KT 6SM 22/20 RMK SLP059 T02150201 57009 IEM_DS3505
ZGNN,2000-04-23 22:00,ZGNN 232200Z AUTO 04004KT 7SM 21/20 A2974 RMK T02100200 IEM_DS3505
ZGNN,2000-04-23 23:00,ZGNN 232300Z AUTO 06006KT 4SM 21/20 A2974 RMK T02100200 IEM_DS3505
ZGNN,2000-04-24 00:00,ZGNN 240000Z AUTO 11004KT 2SM 22/20 A2974 RMK SLP071 T02190205 52012 IEM_DS3505
ZGNN,2000-04-24 01:00,ZGNN 240100Z AUTO 06004KT 3SM 23/21 A2974 RMK T02300210 IEM_DS3505
ZGNN,2000-04-24 02:00,ZGNN 240200Z AUTO 09004KT 3SM 25/22 A2974 RMK T02500220 IEM_DS3505
ZGNN,2000-04-24 03:00,ZGNN 240300Z AUTO 16006KT 6SM 27/23 RMK SLP062 T02680230 57008 IEM_DS3505
ZGNN,2000-04-24 04:00,ZGNN 240400Z AUTO 12012KT 7SM 30/24 A2971 RMK T03000240 IEM_DS3505
ZGNN,2000-04-24 05:00,ZGNN 240500Z AUTO 17008KT 7SM 31/24 A2968 RMK T03100240 IEM_DS3505
ZGNN,2000-04-24 06:00,ZGNN 240600Z AUTO 18006KT 12SM 31/24 A2962 RMK SLP027 T03130241 57034 IEM_DS3505
ZGNN,2000-04-24 07:00,ZGNN 240700Z AUTO 15014KT 7SM 34/22 A2959 RMK T03400220 IEM_DS3505
ZGNN,2000-04-24 08:00,ZGNN 240800Z AUTO 14019KT 7SM 32/24 A2959 RMK T03200240 IEM_DS3505
ZGNN,2000-04-24 09:00,ZGNN 240900Z AUTO 14014KT 19SM 31/23 A2956 RMK SLP005 T03100233 57022 IEM_DS3505
ZGNN,2000-04-24 10:00,ZGNN 241000Z AUTO 15016KT 6SM 30/23 A2956 RMK T03000230 IEM_DS3505
ZGNN,2000-04-24 11:00,ZGNN 241100Z AUTO 15014KT 6SM 28/23 A2956 RMK T02800230 IEM_DS3505
ZGNN,2000-04-24 14:00,ZGNN 241400Z AUTO 15010KT 6SM 25/23 A2962 RMK T02500230 IEM_DS3505
ZGNN,2000-04-24 15:00,ZGNN 241500Z AUTO 18004KT 16SM 26/22 A2965 RMK SLP031 T02560224 52020 IEM_DS3505
ZGNN,2000-04-24 16:00,ZGNN 241600Z AUTO 16004KT 6SM 24/23 A2962 RMK T02400230 IEM_DS3505
ZGNN,2000-04-24 18:00,ZGNN 241800Z AUTO 04004KT 16SM 24/22 RMK SLP023 T02380217 57007 IEM_DS3505
ZGNN,2000-04-24 21:00,ZGNN 242100Z AUTO 00000KT 12SM 23/21 RMK SLP024 T02290211 54000 IEM_DS3505
ZGNN,2000-04-24 22:00,ZGNN 242200Z AUTO 36006KT 6SM 22/21 A2965 RMK T02200210 IEM_DS3505
ZGNN,2000-04-24 23:00,ZGNN 242300Z AUTO 35006KT 6SM 23/21 A2965 RMK T02300210 IEM_DS3505
ZGNN,2000-04-25 00:00,ZGNN 250000Z AUTO 16002KT 5SM 25/23 A2968 RMK SLP042 T02540226 52018 IEM_DS3505
ZGNN,2000-04-25 01:00,ZGNN 250100Z AUTO 19004KT 6SM 27/23 A2968 RMK T02700230 IEM_DS3505
ZGNN,2000-04-25 02:00,ZGNN 250200Z AUTO 15010KT 6SM 30/23 A2968 RMK T03000230 IEM_DS3505
ZGNN,2000-04-25 03:00,ZGNN 250300Z AUTO 22006KT 19SM 31/24 A2968 RMK SLP044 T03060238 52003 IEM_DS3505
ZGNN,2000-04-25 04:00,ZGNN 250400Z AUTO 16006KT 6SM 33/23 A2965 RMK T03300230 IEM_DS3505
ZGNN,2000-04-25 05:00,ZGNN 250500Z AUTO 15012KT 7SM 35/24 A2962 RMK T03500240 IEM_DS3505
ZGNN,2000-04-25 06:00,ZGNN 250600Z AUTO 18006KT 19SM 34/25 A2959 RMK SLP014 T03380246 57030 IEM_DS3505
ZGNN,2000-04-25 07:00,ZGNN 250700Z AUTO 13016KT 6SM 35/24 A2956 RMK T03500240 IEM_DS3505
ZGNN,2000-04-25 08:00,ZGNN 250800Z AUTO 13012KT 6SM 35/24 A2956 RMK T03500240 IEM_DS3505
ZGNN,2000-04-25 09:00,ZGNN 250900Z AUTO 14008KT 19SM 34/25 A2953 RMK SLP997 T03370246 57017 IEM_DS3505
ZGNN,2000-04-25 10:00,ZGNN 251000Z AUTO 14016KT 6SM 32/25 A2953 RMK T03200250 IEM_DS3505
ZGNN,2000-04-25 11:00,ZGNN 251100Z AUTO 12008KT 6SM 30/24 A2956 RMK T03000240 IEM_DS3505
ZGNN,2000-04-25 12:00,ZGNN 251200Z AUTO 18006KT 19SM 29/24 A2959 RMK SLP016 T02940245 52019 IEM_DS3505
ZGNN,2000-04-25 13:00,ZGNN 251300Z AUTO 13010KT 6SM 28/24 A2962 RMK T02800240 IEM_DS3505
ZGNN,2000-04-25 15:00,ZGNN 251500Z AUTO 18004KT 16SM 27/24 RMK SLP027 T02700244 52011 IEM_DS3505
ZGNN,2000-04-25 18:00,ZGNN 251800Z AUTO 00000KT 16SM 26/24 RMK SLP034 T02640241 52008 IEM_DS3505
ZGNN,2000-04-25 21:00,ZGNN 252100Z AUTO 02002KT 12SM 24/23 RMK SLP033 T02440232 57002 IEM_DS3505
ZGNN,2000-04-25 22:00,ZGNN 252200Z AUTO 00000KT 2 1/2SM 24/23 A2968 RMK T02400230 IEM_DS3505
ZGNN,2000-04-25 23:00,ZGNN 252300Z AUTO 00000KT 6SM 24/23 A2971 RMK T02400230 IEM_DS3505
ZGNN,2000-04-26 00:00,ZGNN 260000Z AUTO 00000KT 7SM 25/24 A2974 RMK 60003 SLP066 T02500238 52032 IEM_DS3505
ZGNN,2000-04-26 01:00,ZGNN 260100Z AUTO 00000KT 7SM 27/24 A2977 RMK T02700240 IEM_DS3505
ZGNN,2000-04-26 02:00,ZGNN 260200Z AUTO 34010KT 7SM 28/24 A2980 RMK T02800240 IEM_DS3505
ZGNN,2000-04-26 03:00,ZGNN 260300Z AUTO 04004KT 9SM 28/24 A2980 RMK SLP084 T02840244 52018 IEM_DS3505
ZGNN,2000-04-26 04:00,ZGNN 260400Z AUTO 03008KT 7SM 27/23 A2980 RMK T02700230 IEM_DS3505
ZGNN,2000-04-26 05:00,ZGNN 260500Z AUTO 02012KT 7SM 27/22 A2980 RMK T02700220 IEM_DS3505
ZGNN,2000-04-26 06:00,ZGNN 260600Z AUTO 34012KT 14SM 26/22 A2980 RMK 60003 SLP083 T02550215 57002 IEM_DS3505
ZGNN,2000-04-26 07:00,ZGNN 260700Z AUTO 02012KT 7SM 26/21 A2977 RMK T02600210 IEM_DS3505
ZGNN,2000-04-26 08:00,ZGNN 260800Z AUTO 36008KT 7SM 25/19 A2977 RMK T02500190 IEM_DS3505
ZGNN,2000-04-26 09:00,ZGNN 260900Z AUTO 36008KT 16SM 24/18 A2977 RMK SLP080 T02420183 57004 IEM_DS3505
ZGNN,2000-04-26 10:00,ZGNN 261000Z AUTO 02014KT 7SM 24/18 A2980 RMK T02400180 IEM_DS3505
ZGNN,2000-04-26 11:00,ZGNN 261100Z AUTO 02012KT 7SM 24/18 A2980 RMK T02400180 IEM_DS3505
ZGNN,2000-04-26 12:00,ZGNN 261200Z AUTO 36006KT 16SM 23/18 A2983 RMK 60000 SLP098 T02320180 52018 IEM_DS3505
ZGNN,2000-04-26 13:00,ZGNN 261300Z AUTO 36004KT 7SM 23/18 A2985 RMK T02300180 IEM_DS3505
ZGNN,2000-04-26 14:00,ZGNN 261400Z AUTO 02004KT 7SM 23/18 A2988 RMK T02300180 IEM_DS3505
ZGNN,2000-04-26 15:00,ZGNN 261500Z AUTO 33006KT 7SM 23/18 A2988 RMK T02300180 IEM_DS3505
ZGNN,2000-04-26 18:00,ZGNN 261800Z AUTO 34004KT 12SM 22/17 RMK SLP109 T02180173 57007 IEM_DS3505
ZGNN,2000-04-26 21:00,ZGNN 262100Z AUTO 00000KT 12SM 21/18 RMK 70000 SLP103 T02090185 57007 IEM_DS3505
ZGNN,2000-04-26 22:00,ZGNN 262200Z AUTO 00000KT 7SM 21/18 A2985 RMK T02100180 IEM_DS3505
ZGNN,2000-04-26 23:00,ZGNN 262300Z AUTO 00000KT 6SM 21/18 A2985 RMK T02100180 IEM_DS3505
ZGNN,2000-04-27 00:00,ZGNN 270000Z AUTO 00000KT 9SM 21/19 A2988 RMK 70000 SLP122 T02130186 52019 IEM_DS3505
ZGNN,2000-04-27 01:00,ZGNN 270100Z AUTO 35004KT 7SM 22/17 A2991 RMK T02200170 IEM_DS3505
ZGNN,2000-04-27 02:00,ZGNN 270200Z AUTO 00000KT 7SM 22/17 A2994 RMK T02200170 IEM_DS3505
ZGNN,2000-04-27 03:00,ZGNN 270300Z AUTO 34010KT 9SM 22/18 A2991 RMK SLP119 T02160178 57003 IEM_DS3505
ZGNN,2000-04-27 04:00,ZGNN 270400Z AUTO 31008KT 7SM 20/17 A2991 RMK T02000170 IEM_DS3505
ZGNN,2000-04-27 05:00,ZGNN 270500Z AUTO 35006KT 7SM 21/18 A2991 RMK T02100180 IEM_DS3505
ZGNN,2000-04-27 06:00,ZGNN 270600Z AUTO 32006KT 7SM 21/18 A2988 RMK 60002 SLP115 T02070180 57005 IEM_DS3505
ZGNN,2000-04-27 07:00,ZGNN 270700Z AUTO 35006KT 7SM 20/18 A2985 RMK T02000180 IEM_DS3505
ZGNN,2000-04-27 08:00,ZGNN 270800Z AUTO 33010KT 7SM 20/18 A2983 RMK T02000180 IEM_DS3505
ZGNN,2000-04-27 09:00,ZGNN 270900Z AUTO 34006KT 6SM 20/18 A2980 RMK SLP088 T01980179 57027 IEM_DS3505
ZGNN,2000-04-27 10:00,ZGNN 271000Z AUTO 01004KT 7SM 20/17 A2980 RMK T02000170 IEM_DS3505
ZGNN,2000-04-27 11:00,ZGNN 271100Z AUTO 34004KT 7SM 20/17 A2983 RMK T02000170 IEM_DS3505
ZGNN,2000-04-27 12:00,ZGNN 271200Z AUTO 36002KT 7SM 19/18 A2985 RMK 60004 SLP104 T01940175 52016 IEM_DS3505
ZGNN,2000-04-27 13:00,ZGNN 271300Z AUTO 36004KT 7SM 20/17 A2985 RMK T02000170 IEM_DS3505
ZGNN,2000-04-27 14:00,ZGNN 271400Z AUTO 02004KT 7SM 20/18 A2988 RMK T02000180 IEM_DS3505
ZGNN,2000-04-27 15:00,ZGNN 271500Z AUTO 02002KT 7SM 19/18 RMK SLP113 T01940178 52009 IEM_DS3505
ZGNN,2000-04-27 18:00,ZGNN 271800Z AUTO 00000KT 5SM 19/18 RMK 60001 SLP109 T01880178 57004 IEM_DS3505
ZGNN,2000-04-27 21:00,ZGNN 272100Z AUTO 00000KT 6SM 19/18 RMK 70017 SLP095 T01860176 57014 IEM_DS3505
ZGNN,2000-04-27 22:00,ZGNN 272200Z AUTO 00000KT 2SM 19/18 A2983 RMK T01900180 IEM_DS3505
ZGNN,2000-04-27 23:00,ZGNN 272300Z AUTO 00000KT 1 1/2SM 19/18 A2985 RMK T01900180 IEM_DS3505
ZGNN,2000-04-28 00:00,ZGNN 280000Z AUTO 00000KT 4SM 19/18 A2985 RMK 60020 SLP108 T01900180 52012 IEM_DS3505
ZGNN,2000-04-28 01:00,ZGNN 280100Z AUTO 03004KT 3SM 20/18 A2988 RMK T02000180 IEM_DS3505
ZGNN,2000-04-28 02:00,ZGNN 280200Z AUTO 00000KT 3SM 20/19 A2988 RMK T02000190 IEM_DS3505
ZGNN,2000-04-28 03:00,ZGNN 280300Z AUTO 04004KT 2SM 20/19 A2988 RMK SLP115 T02050189 52008 IEM_DS3505
ZGNN,2000-04-28 04:00,ZGNN 280400Z AUTO 06006KT 2SM 21/19 A2988 RMK T02100190 IEM_DS3505
ZGNN,2000-04-28 05:00,ZGNN 280500Z AUTO 00000KT 2SM 21/19 A2985 RMK T02100190 IEM_DS3505
ZGNN,2000-04-28 06:00,ZGNN 280600Z AUTO 07004KT 2 1/2SM 22/19 A2983 RMK 60003 SLP092 T02160194 57023 IEM_DS3505
ZGNN,2000-04-28 07:00,ZGNN 280700Z AUTO 06006KT 2 1/2SM 23/20 A2980 RMK T02300200 IEM_DS3505
ZGNN,2000-04-28 08:00,ZGNN 280800Z AUTO 12006KT 4SM 23/20 A2977 RMK T02300200 IEM_DS3505
ZGNN,2000-04-28 09:00,ZGNN 280900Z AUTO 14004KT 4SM 22/20 A2974 RMK SLP069 T02250199 57022 IEM_DS3505
ZGNN,2000-04-28 10:00,ZGNN 281000Z AUTO 09006KT 4SM 23/20 A2974 RMK T02300200 IEM_DS3505
ZGNN,2000-04-28 11:00,ZGNN 281100Z AUTO 09006KT 4SM 22/20 A2977 RMK T02200200 IEM_DS3505
ZGNN,2000-04-28 12:00,ZGNN 281200Z AUTO 09006KT 4SM 22/20 A2980 RMK SLP087 T02250204 52017 IEM_DS3505
ZGNN,2000-04-28 13:00,ZGNN 281300Z AUTO 09006KT 4SM 22/20 A2980 RMK T02200200 IEM_DS3505
ZGNN,2000-04-28 15:00,ZGNN 281500Z AUTO 00000KT 3SM 22/21 RMK SLP094 T02180206 52008 IEM_DS3505
ZGNN,2000-04-28 18:00,ZGNN 281800Z AUTO 00000KT 3SM 22/21 RMK SLP086 T02180209 57008 IEM_DS3505
ZGNN,2000-04-28 21:00,ZGNN 282100Z AUTO 02002KT 2SM 22/21 RMK 70010 SLP089 T02180212 52003 IEM_DS3505
ZGNN,2000-04-28 22:00,ZGNN 282200Z AUTO 00000KT 2SM 22/21 A2983 RMK T02200210 IEM_DS3505
ZGNN,2000-04-28 23:00,ZGNN 282300Z AUTO 01004KT 1 1/2SM 22/21 A2985 RMK T02200210 IEM_DS3505
ZGNN,2000-04-29 00:00,ZGNN 290000Z AUTO 00000KT 2SM 22/22 A2985 RMK 60000 SLP108 T02240218 52019 IEM_DS3505
ZGNN,2000-04-29 01:00,ZGNN 290100Z AUTO 06006KT 1 1/4SM 23/22 A2988 RMK T02300220 IEM_DS3505
ZGNN,2000-04-29 02:00,ZGNN 290200Z AUTO 00000KT 2SM 24/23 A2988 RMK T02400230 IEM_DS3505
ZGNN,2000-04-29 03:00,ZGNN 290300Z AUTO 14004KT 3SM 26/24 A2985 RMK SLP107 T02600240 54000 IEM_DS3505
ZGNN,2000-04-29 04:00,ZGNN 290400Z AUTO 15006KT 7SM 28/24 A2985 RMK T02800240 IEM_DS3505
ZGNN,2000-04-29 05:00,ZGNN 290500Z AUTO 17006KT 7SM 30/24 A2983 RMK T03000240 IEM_DS3505
ZGNN,2000-04-29 06:00,ZGNN 290600Z AUTO 18004KT 19SM 30/25 A2980 RMK 60003 SLP082 T02980246 57024 IEM_DS3505
ZGNN,2000-04-29 07:00,ZGNN 290700Z AUTO 12010KT 7SM 31/24 A2977 RMK T03100240 IEM_DS3505
ZGNN,2000-04-29 08:00,ZGNN 290800Z AUTO 12008KT 7SM 31/24 A2974 RMK T03100240 IEM_DS3505
ZGNN,2000-04-29 09:00,ZGNN 290900Z AUTO 14006KT 19SM 31/24 A2974 RMK SLP059 T03130242 57022 IEM_DS3505
ZGNN,2000-04-29 10:00,ZGNN 291000Z AUTO 13010KT 7SM 31/24 A2971 RMK T03100240 IEM_DS3505
ZGNN,2000-04-29 11:00,ZGNN 291100Z AUTO 12006KT 7SM 29/24 A2974 RMK T02900240 IEM_DS3505
ZGNN,2000-04-29 12:00,ZGNN 291200Z AUTO 11004KT 17SM 28/24 A2977 RMK SLP069 T02850244 52009 IEM_DS3505
ZGNN,2000-04-29 13:00,ZGNN 291300Z AUTO 12006KT 6SM 27/24 A2977 RMK T02700240 IEM_DS3505
ZGNN,2000-04-29 14:00,ZGNN 291400Z AUTO 14004KT 6SM 26/24 A2983 RMK T02600240 IEM_DS3505
ZGNN,2000-04-29 15:00,ZGNN 291500Z AUTO 00000KT 16SM 26/24 A2983 RMK SLP092 T02590242 52023 IEM_DS3505
ZGNN,2000-04-29 18:00,ZGNN 291800Z AUTO 00000KT 16SM 25/24 RMK SLP084 T02480238 57007 IEM_DS3505
ZGNN,2000-04-29 21:00,ZGNN 292100Z AUTO 00000KT 6SM 25/24 RMK 70000 SLP088 T02460236 52004 IEM_DS3505
ZGNN,2000-04-29 22:00,ZGNN 292200Z AUTO 15004KT 2 1/2SM 24/23 A2983 RMK T02400230 IEM_DS3505
ZGNN,2000-04-29 23:00,ZGNN 292300Z AUTO 12004KT 4SM 24/23 A2985 RMK T02400230 IEM_DS3505
ZGNN,2000-04-30 00:00,ZGNN 300000Z AUTO 04002KT 4SM 25/24 A2985 RMK 70003 SLP108 T02480235 52019 IEM_DS3505
ZGNN,2000-04-30 01:00,ZGNN 300100Z AUTO 12004KT 6SM 25/24 A2988 RMK T02500240 IEM_DS3505
ZGNN,2000-04-30 02:00,ZGNN 300200Z AUTO 31004KT 7SM 26/23 A2991 RMK T02600230 IEM_DS3505
ZGNN,2000-04-30 03:00,ZGNN 300300Z AUTO 34010KT 17SM 25/22 A2991 RMK SLP124 T02500224 52015 IEM_DS3505
ZGNN,2000-04-30 04:00,ZGNN 300400Z AUTO 35012KT 7SM 26/22 A2991 RMK T02600220 IEM_DS3505
ZGNN,2000-04-30 05:00,ZGNN 300500Z AUTO 36008KT 7SM 27/22 A2988 RMK T02700220 IEM_DS3505
ZGNN,2000-04-30 06:00,ZGNN 300600Z AUTO 36008KT 17SM 26/23 A2985 RMK SLP104 T02620230 57020 IEM_DS3505
ZGNN,2000-04-30 07:00,ZGNN 300700Z AUTO 02012KT 7SM 27/22 A2983 RMK T02700220 IEM_DS3505
ZGNN,2000-04-30 08:00,ZGNN 300800Z AUTO 02012KT 7SM 27/22 A2980 RMK T02700220 IEM_DS3505
ZGNN,2000-04-30 09:00,ZGNN 300900Z AUTO 02004KT 16SM 25/22 A2977 RMK SLP077 T02540219 57026 IEM_DS3505
ZGNN,2000-04-30 10:00,ZGNN 301000Z AUTO 02010KT 7SM 25/21 A2977 RMK T02500210 IEM_DS3505
ZGNN,2000-04-30 11:00,ZGNN 301100Z AUTO 01008KT 7SM 25/21 A2980 RMK T02500210 IEM_DS3505
ZGNN,2000-04-30 12:00,ZGNN 301200Z AUTO 00000KT 19SM 24/22 RMK SLP084 T02420215 52006 IEM_DS3505
ZGNN,2000-04-30 13:00,ZGNN 301300Z AUTO 03004KT 7SM 24/22 A2983 RMK T02400220 IEM_DS3505
ZGNN,2000-04-30 14:00,ZGNN 301400Z AUTO 02008KT 7SM 24/22 A2983 RMK T02400220 IEM_DS3505
ZGNN,2000-04-30 15:00,ZGNN 301500Z AUTO 00000KT 12SM 24/21 A2985 RMK SLP102 T02370207 52018 IEM_DS3505
ZGNN,2000-04-30 18:00,ZGNN 301800Z AUTO 14004KT 12SM 23/20 RMK SLP089 T02260198 57013 IEM_DS3505
ZGNN,2000-04-30 21:00,ZGNN 302100Z AUTO 00000KT 12SM 22/19 A2980 RMK SLP087 T02200192 57002 IEM_DS3505
ZGNN,2000-04-30 23:00,ZGNN 302300Z AUTO 06004KT 7SM 23/19 A2983 RMK T02300190 IEM_DS3505
ZGNN,2000-05-01 00:00,ZGNN 010000Z AUTO 00000KT 7SM 22/19 A2983 RMK SLP096 T02250192 52009 IEM_DS3505
ZGNN,2000-05-01 01:00,ZGNN 010100Z AUTO 05004KT 7SM 23/19 A2985 RMK T02300190 IEM_DS3505
ZGNN,2000-05-01 02:00,ZGNN 010200Z AUTO 00000KT 7SM 24/20 A2985 RMK T02400200 IEM_DS3505
ZGNN,2000-05-01 03:00,ZGNN 010300Z AUTO 14002KT 7SM 25/20 A2985 RMK SLP103 T02520204 52007 IEM_DS3505
ZGNN,2000-05-01 04:00,ZGNN 010400Z AUTO 02006KT 7SM 28/22 A2983 RMK T02800220 IEM_DS3505
ZGNN,2000-05-01 05:00,ZGNN 010500Z AUTO 36004KT 7SM 28/21 A2983 RMK T02800210 IEM_DS3505
ZGNN,2000-05-01 06:00,ZGNN 010600Z AUTO 00000KT 7SM 28/22 A2980 RMK SLP079 T02840220 57023 IEM_DS3505
ZGNN,2000-05-01 07:00,ZGNN 010700Z AUTO 01006KT 7SM 30/22 A2977 RMK T03000220 IEM_DS3505
ZGNN,2000-05-01 08:00,ZGNN 010800Z AUTO 01006KT 7SM 30/23 A2971 RMK T03000230 IEM_DS3505
ZGNN,2000-05-01 09:00,ZGNN 010900Z AUTO 34006KT 7SM 29/22 A2971 RMK SLP055 T02860225 57024 IEM_DS3505
ZGNN,2000-05-01 10:00,ZGNN 011000Z AUTO 01010KT 6SM 28/23 A2971 RMK T02800230 IEM_DS3505
ZGNN,2000-05-01 11:00,ZGNN 011100Z AUTO 03008KT 6SM 27/23 A2971 RMK T02700230 IEM_DS3505
ZGNN,2000-05-01 12:00,ZGNN 011200Z AUTO 09004KT 7SM 27/23 A2974 RMK SLP072 T02660231 52016 IEM_DS3505
ZGNN,2000-05-01 13:00,ZGNN 011300Z AUTO 04006KT 4SM 26/22 A2977 RMK T02600220 IEM_DS3505
ZGNN,2000-05-01 14:00,ZGNN 011400Z AUTO 01008KT 4SM 26/22 A2983 RMK T02600220 IEM_DS3505
ZGNN,2000-05-01 15:00,ZGNN 011500Z AUTO 34004KT 7SM 25/22 A2983 RMK SLP100 T02500220 52028 IEM_DS3505
ZGNN,2000-05-01 16:00,ZGNN 011600Z AUTO 04004KT 4SM 25/21 A2985 RMK T02500210 IEM_DS3505
ZGNN,2000-05-01 17:00,ZGNN 011700Z AUTO 00000KT 4SM 24/21 A2983 RMK T02400210 IEM_DS3505
ZGNN,2000-05-01 18:00,ZGNN 011800Z AUTO 11002KT 7SM 24/21 RMK 60000 SLP093 T02380208 57006 IEM_DS3505
ZGNN,2000-05-01 21:00,ZGNN 012100Z AUTO 00000KT 9SM 23/21 A2980 RMK 70000 SLP083 T02310210 57010 IEM_DS3505
ZGNN,2000-05-01 22:00,ZGNN 012200Z AUTO 35004KT 3SM 23/20 A2983 RMK T02300200 IEM_DS3505
ZGNN,2000-05-01 23:00,ZGNN 012300Z AUTO 34004KT 2SM 23/21 A2985 RMK T02300210 IEM_DS3505
ZGNN,2000-05-02 00:00,ZGNN 020000Z AUTO 34008KT 5SM 22/21 A2991 RMK 60000 SLP121 T02220207 52037 IEM_DS3505
ZGNN,2000-05-02 01:00,ZGNN 020100Z AUTO 33008KT 7SM 21/20 A2991 RMK T02100200 IEM_DS3505
ZGNN,2000-05-02 02:00,ZGNN 020200Z AUTO 36006KT 7SM 21/19 A2997 RMK T02100190 IEM_DS3505
ZGNN,2000-05-02 03:00,ZGNN 020300Z AUTO 34008KT 4SM 21/19 A2997 RMK SLP146 T02060194 52024 IEM_DS3505
ZGNN,2000-05-02 04:00,ZGNN 020400Z AUTO 36006KT 5SM 21/20 A2994 RMK T02100200 IEM_DS3505
ZGNN,2000-05-02 05:00,ZGNN 020500Z AUTO 34008KT 7SM 22/19 A2994 RMK T02200190 IEM_DS3505
ZGNN,2000-05-02 06:00,ZGNN 020600Z AUTO 07004KT 9SM 22/20 A2994 RMK 60016 SLP131 T02250196 57015 IEM_DS3505
ZGNN,2000-05-02 07:00,ZGNN 020700Z AUTO 33006KT 7SM 24/20 A2991 RMK T02400200 IEM_DS3505
ZGNN,2000-05-02 08:00,ZGNN 020800Z AUTO 36006KT 7SM 24/19 A2991 RMK T02400190 IEM_DS3505
ZGNN,2000-05-02 09:00,ZGNN 020900Z AUTO 34006KT 16SM 24/20 A2988 RMK SLP115 T02440195 57016 IEM_DS3505
ZGNN,2000-05-02 10:00,ZGNN 021000Z AUTO 01006KT 7SM 25/20 A2988 RMK T02500200 IEM_DS3505
ZGNN,2000-05-02 11:00,ZGNN 021100Z AUTO 03008KT 7SM 24/20 A2988 RMK T02400200 IEM_DS3505
ZGNN,2000-05-02 12:00,ZGNN 021200Z AUTO 00000KT 11SM 23/20 A2994 RMK SLP130 T02340199 52015 IEM_DS3505
ZGNN,2000-05-02 13:00,ZGNN 021300Z AUTO 02004KT 7SM 22/20 A2994 RMK T02200200 IEM_DS3505
ZGNN,2000-05-02 14:00,ZGNN 021400Z AUTO 34004KT 7SM 22/20 A2997 RMK T02200200 IEM_DS3505
ZGNN,2000-05-02 15:00,ZGNN 021500Z AUTO 34002KT 9SM 20/19 A2997 RMK SLP147 T02050191 52015 IEM_DS3505
ZGNN,2000-05-02 18:00,ZGNN 021800Z AUTO 00000KT 9SM 20/19 RMK SLP138 T01980190 57008 IEM_DS3505
ZGNN,2000-05-02 21:00,ZGNN 022100Z AUTO 00000KT 7SM 19/18 A2994 RMK 70015 SLP135 T01860180 57003 IEM_DS3505
ZGNN,2000-05-02 22:00,ZGNN 022200Z AUTO 18004KT 2 1/2SM 19/18 A2994 RMK T01900180 IEM_DS3505
ZGNN,2000-05-02 23:00,ZGNN 022300Z AUTO 00000KT 4SM 19/18 A2994 RMK T01900180 IEM_DS3505
ZGNN,2000-05-03 00:00,ZGNN 030000Z AUTO 34006KT 12SM 20/19 A2997 RMK 70015 SLP148 T02050194 52013 IEM_DS3505
ZGNN,2000-05-03 01:00,ZGNN 030100Z AUTO 34012KT 6SM 24/19 A3000 RMK T02400190 IEM_DS3505
ZGNN,2000-05-03 02:00,ZGNN 030200Z AUTO 34008KT 6SM 25/18 A3000 RMK T02500180 IEM_DS3505
ZGNN,2000-05-03 03:00,ZGNN 030300Z AUTO 00000KT 13SM 26/19 A2997 RMK SLP147 T02610190 54000 IEM_DS3505
ZGNN,2000-05-03 04:00,ZGNN 030400Z AUTO 34006KT 7SM 28/18 A2997 RMK T02800180 IEM_DS3505
ZGNN,2000-05-03 05:00,ZGNN 030500Z AUTO 00000KT 7SM 29/18 A2994 RMK T02900180 IEM_DS3505
ZGNN,2000-05-03 06:00,ZGNN 030600Z AUTO 32008KT 15SM 29/17 A2991 RMK SLP124 T02880174 57022 IEM_DS3505
ZGNN,2000-05-03 07:00,ZGNN 030700Z AUTO 33010KT 7SM 30/16 A2988 RMK T03000160 IEM_DS3505
ZGNN,2000-05-03 08:00,ZGNN 030800Z AUTO 31006KT 7SM 30/16 A2985 RMK T03000160 IEM_DS3505
ZGNN,2000-05-03 09:00,ZGNN 030900Z AUTO 02004KT 16SM 30/17 A2983 RMK SLP097 T03020169 57027 IEM_DS3505
ZGNN,2000-05-03 10:00,ZGNN 031000Z AUTO 36006KT 6SM 30/15 A2985 RMK T03000150 IEM_DS3505
ZGNN,2000-05-03 11:00,ZGNN 031100Z AUTO 02004KT 6SM 28/18 A2985 RMK T02800180 IEM_DS3505
ZGNN,2000-05-03 12:00,ZGNN 031200Z AUTO 04002KT 12SM 26/18 A2988 RMK SLP119 T02580183 52021 IEM_DS3505
ZGNN,2000-05-03 13:00,ZGNN 031300Z AUTO 35006KT 7SM 25/19 A2991 RMK T02500190 IEM_DS3505
ZGNN,2000-05-03 14:00,ZGNN 031400Z AUTO 00000KT 7SM 24/19 A2994 RMK T02400190 IEM_DS3505
ZGNN,2000-05-03 15:00,ZGNN 031500Z AUTO 00000KT 11SM 22/19 A2994 RMK SLP135 T02250194 52016 IEM_DS3505
ZGNN,2000-05-03 18:00,ZGNN 031800Z AUTO 00000KT 10SM 21/19 RMK SLP124 T02090192 57010 IEM_DS3505
ZGNN,2000-05-03 21:00,ZGNN 032100Z AUTO 00000KT 9SM 20/19 A2988 RMK SLP116 T01960186 57008 IEM_DS3505
ZGNN,2000-05-03 22:00,ZGNN 032200Z AUTO 00000KT 6SM 20/19 A2991 RMK T02000190 IEM_DS3505
ZGNN,2000-05-03 23:00,ZGNN 032300Z AUTO 01006KT 6SM 21/19 A2991 RMK T02100190 IEM_DS3505
ZGNN,2000-05-04 00:00,ZGNN 040000Z AUTO 00000KT 5SM 22/20 A2994 RMK SLP130 T02170195 52013 IEM_DS3505
ZGNN,2000-05-04 01:00,ZGNN 040100Z AUTO 06006KT 4SM 24/20 A2994 RMK T02400200 IEM_DS3505
ZGNN,2000-05-04 02:00,ZGNN 040200Z AUTO 09004KT 6SM 27/20 A2997 RMK T02700200 IEM_DS3505
ZGNN,2000-05-04 03:00,ZGNN 040300Z AUTO 22004KT 6SM 28/19 A2994 RMK SLP137 T02810193 52008 IEM_DS3505
ZGNN,2000-05-04 04:00,ZGNN 040400Z AUTO 13006KT 7SM 30/18 A2994 RMK T03000180 IEM_DS3505
ZGNN,2000-05-04 05:00,ZGNN 040500Z AUTO 33004KT 7SM 31/18 A2991 RMK T03100180 IEM_DS3505
ZGNN,2000-05-04 06:00,ZGNN 040600Z AUTO 04002KT 9SM 31/18 A2988 RMK SLP117 T03100177 57019 IEM_DS3505
ZGNN,2000-05-04 07:00,ZGNN 040700Z AUTO 03006KT 7SM 32/17 A2988 RMK T03200170 IEM_DS3505
ZGNN,2000-05-04 08:00,ZGNN 040800Z AUTO 12004KT 7SM 33/18 A2983 RMK T03300180 IEM_DS3505
ZGNN,2000-05-04 09:00,ZGNN 040900Z AUTO 09002KT 12SM 31/17 A2983 RMK SLP093 T03140173 57024 IEM_DS3505
ZGNN,2000-05-04 10:00,ZGNN 041000Z AUTO 12006KT 6SM 31/17 A2983 RMK T03100170 IEM_DS3505
ZGNN,2000-05-04 11:00,ZGNN 041100Z AUTO 09004KT 6SM 29/18 A2983 RMK T02900180 IEM_DS3505
ZGNN,2000-05-04 12:00,ZGNN 041200Z AUTO 00000KT 10SM 27/19 A2985 RMK SLP104 T02720194 52010 IEM_DS3505
ZGNN,2000-05-04 13:00,ZGNN 041300Z AUTO 35004KT 6SM 26/18 A2988 RMK T02600180 IEM_DS3505
ZGNN,2000-05-04 14:00,ZGNN 041400Z AUTO 35006KT 6SM 26/18 A2991 RMK T02600180 IEM_DS3505
ZGNN,2000-05-04 15:00,ZGNN 041500Z AUTO 00000KT 9SM 24/20 RMK SLP127 T02370205 52023 IEM_DS3505
ZGNN,2000-05-04 18:00,ZGNN 041800Z AUTO 00000KT 9SM 23/20 RMK SLP120 T02270203 57006 IEM_DS3505
ZGNN,2000-05-04 21:00,ZGNN 042100Z AUTO 00000KT 7SM 22/20 A2988 RMK SLP112 T02220205 57008 IEM_DS3505
ZGNN,2000-05-04 22:00,ZGNN 042200Z AUTO 00000KT 6SM 23/21 A2988 RMK T02300210 IEM_DS3505
ZGNN,2000-05-04 23:00,ZGNN 042300Z AUTO 00000KT 6SM 23/21 A2991 RMK T02300210 IEM_DS3505
ZGNN,2000-05-05 00:00,ZGNN 050000Z AUTO 00000KT 5SM 24/22 A2994 RMK SLP130 T02430216 52017 IEM_DS3505
ZGNN,2000-05-05 01:00,ZGNN 050100Z AUTO 12006KT 6SM 27/21 A2994 RMK T02700210 IEM_DS3505
ZGNN,2000-05-05 02:00,ZGNN 050200Z AUTO 11006KT 6SM 29/20 A2994 RMK T02900200 IEM_DS3505
ZGNN,2000-05-05 03:00,ZGNN 050300Z AUTO 22006KT 12SM 30/21 A2994 RMK SLP139 T02970211 52010 IEM_DS3505
ZGNN,2000-05-05 04:00,ZGNN 050400Z AUTO 16004KT 7SM 31/21 A2994 RMK T03100210 IEM_DS3505
ZGNN,2000-05-05 05:00,ZGNN 050500Z AUTO 24004KT 7SM 31/21 A2994 RMK T03100210 IEM_DS3505
ZGNN,2000-05-05 06:00,ZGNN 050600Z AUTO 14002KT 12SM 32/21 A2991 RMK SLP120 T03170206 57019 IEM_DS3505
ZGNN,2000-05-05 07:00,ZGNN 050700Z AUTO 00000KT 7SM 32/19 A2988 RMK T03200190 IEM_DS3505
ZGNN,2000-05-05 08:00,ZGNN 050800Z AUTO 00000KT 6SM 32/17 A2985 RMK T03200170 IEM_DS3505
ZGNN,2000-05-05 09:00,ZGNN 050900Z AUTO 16002KT 19SM 32/19 A2983 RMK SLP096 T03180193 57024 IEM_DS3505
ZGNN,2000-05-05 10:00,ZGNN 051000Z AUTO 07010KT 7SM 31/20 A2985 RMK T03100200 IEM_DS3505
ZGNN,2000-05-05 11:00,ZGNN 051100Z AUTO 09006KT 7SM 30/23 A2985 RMK T03000230 IEM_DS3505
ZGNN,2000-05-05 12:00,ZGNN 051200Z AUTO 00000KT 12SM 29/23 A2988 RMK SLP111 T02900232 52015 IEM_DS3505
ZGNN,2000-05-05 13:00,ZGNN 051300Z AUTO 10008KT 7SM 27/23 A2991 RMK T02700230 IEM_DS3505
ZGNN,2000-05-05 14:00,ZGNN 051400Z AUTO 27004KT 7SM 25/23 A2991 RMK T02500230 IEM_DS3505
ZGNN,2000-05-05 15:00,ZGNN 051500Z AUTO 00000KT 9SM 24/23 A2991 RMK SLP128 T02440229 52017 IEM_DS3505
ZGNN,2000-05-05 18:00,ZGNN 051800Z AUTO 00000KT 9SM 23/22 RMK 60004 SLP129 T02320223 52001 IEM_DS3505
ZGNN,2000-05-05 21:00,ZGNN 052100Z AUTO 07002KT 7SM 24/23 A2991 RMK 70005 SLP122 T02400230 57007 IEM_DS3505
ZGNN,2000-05-05 22:00,ZGNN 052200Z AUTO 00000KT 4SM 24/23 A2991 RMK T02400230 IEM_DS3505
ZGNN,2000-05-05 23:00,ZGNN 052300Z AUTO 00000KT 7SM 25/23 A2994 RMK T02500230 IEM_DS3505
ZGNN,2000-05-06 00:00,ZGNN 060000Z AUTO 09002KT 5SM 25/24 A2994 RMK 70005 SLP134 T02520240 52012 IEM_DS3505
ZGNN,2000-05-06 01:00,ZGNN 060100Z AUTO 11004KT 7SM 27/24 A2997 RMK T02700240 IEM_DS3505
ZGNN,2000-05-06 02:00,ZGNN 060200Z AUTO 11004KT 7SM 28/23 A2997 RMK T02800230 IEM_DS3505
ZGNN,2000-05-06 03:00,ZGNN 060300Z AUTO 22004KT 19SM 29/23 A2997 RMK SLP141 T02880232 52006 IEM_DS3505
ZGNN,2000-05-06 04:00,ZGNN 060400Z AUTO 23006KT 7SM 31/22 A2994 RMK T03100220 IEM_DS3505
ZGNN,2000-05-06 05:00,ZGNN 060500Z AUTO 01004KT 7SM 32/22 A2991 RMK T03200220 IEM_DS3505
ZGNN,2000-05-06 06:00,ZGNN 060600Z AUTO 07004KT 19SM 30/23 A2988 RMK 60020 SLP116 T03000231 57024 IEM_DS3505
ZGNN,2000-05-06 07:00,ZGNN 060700Z AUTO 09017KT 7SM 28/23 A2988 RMK T02800230 IEM_DS3505
ZGNN,2000-05-06 08:00,ZGNN 060800Z AUTO 10006KT 7SM 27/22 A2988 RMK T02700220 IEM_DS3505
ZGNN,2000-05-06 09:00,ZGNN 060900Z AUTO 00000KT 19SM 26/23 A2985 RMK SLP108 T02580232 57009 IEM_DS3505
ZGNN,2000-05-06 10:00,ZGNN 061000Z AUTO 02006KT 7SM 26/24 A2985 RMK T02600240 IEM_DS3505
ZGNN,2000-05-06 11:00,ZGNN 061100Z AUTO 10006KT 7SM 26/23 A2985 RMK T02600230 IEM_DS3505
ZGNN,2000-05-06 12:00,ZGNN 061200Z AUTO 00000KT 16SM 25/24 A2988 RMK 60001 SLP116 T02540238 52008 IEM_DS3505
ZGNN,2000-05-06 13:00,ZGNN 061300Z AUTO 00000KT 7SM 25/24 A2991 RMK T02500240 IEM_DS3505
ZGNN,2000-05-06 14:00,ZGNN 061400Z AUTO 09004KT 7SM 25/23 A2994 RMK T02500230 IEM_DS3505
ZGNN,2000-05-06 15:00,ZGNN 061500Z AUTO 07004KT 12SM 25/23 A2994 RMK SLP138 T02480230 52023 IEM_DS3505
ZGNN,2000-05-06 18:00,ZGNN 061800Z AUTO 00000KT 11SM 24/23 RMK SLP121 T02380228 57017 IEM_DS3505
ZGNN,2000-05-06 21:00,ZGNN 062100Z AUTO 09004KT 9SM 24/23 A2988 RMK 70020 SLP115 T02360227 57007 IEM_DS3505
ZGNN,2000-05-06 22:00,ZGNN 062200Z AUTO 06004KT 2SM 24/23 A2988 RMK T02400230 IEM_DS3505
ZGNN,2000-05-06 23:00,ZGNN 062300Z AUTO 07006KT 1 1/4SM 24/23 A2991 RMK T02400230 IEM_DS3505
ZGNN,2000-05-07 00:00,ZGNN 070000Z AUTO 00000KT 2SM 24/23 A2991 RMK 60003 SLP126 T02410231 52011 IEM_DS3505
ZGNN,2000-05-07 01:00,ZGNN 070100Z AUTO 12004KT 5SM 25/24 RMK T02500240 IEM_DS3505
ZGNN,2000-05-07 02:00,ZGNN 070200Z AUTO 16006KT 7SM 26/23 A2994 RMK T02600230 IEM_DS3505
ZGNN,2000-05-07 03:00,ZGNN 070300Z AUTO 00000KT 16SM 26/24 A2994 RMK SLP129 T02620235 52003 IEM_DS3505
ZGNN,2000-05-07 04:00,ZGNN 070400Z AUTO 15012KT 7SM 29/23 A2991 RMK T02900230 IEM_DS3505
ZGNN,2000-05-07 05:00,ZGNN 070500Z AUTO 15014KT 7SM 29/22 A2991 RMK T02900220 IEM_DS3505
ZGNN,2000-05-07 06:00,ZGNN 070600Z AUTO 18004KT 19SM 28/23 A2988 RMK 60003 SLP108 T02840229 57020 IEM_DS3505
ZGNN,2000-05-07 07:00,ZGNN 070700Z AUTO 15008KT 7SM 25/24 A2985 RMK T02500240 IEM_DS3505
ZGNN,2000-05-07 09:00,ZGNN 070900Z AUTO 09006KT 7SM 26/25 A2980 RMK SLP084 T02570246 57025 IEM_DS3505
ZGNN,2000-05-07 10:00,ZGNN 071000Z AUTO 09008KT 7SM 26/24 A2980 RMK T02600240 IEM_DS3505
ZGNN,2000-05-07 11:00,ZGNN 071100Z AUTO 08008KT 7SM 26/24 A2980 RMK T02600240 IEM_DS3505
ZGNN,2000-05-07 12:00,ZGNN 071200Z AUTO 11004KT 9SM 25/24 A2983 RMK 60039 SLP095 T02540238 52011 IEM_DS3505
ZGNN,2000-05-07 13:00,ZGNN 071300Z AUTO 06004KT 7SM 25/24 A2983 RMK T02500240 IEM_DS3505
ZGNN,2000-05-07 14:00,ZGNN 071400Z AUTO 12006KT 7SM 25/24 A2983 RMK T02500240 IEM_DS3505
ZGNN,2000-05-07 15:00,ZGNN 071500Z AUTO 11004KT 9SM 25/24 A2983 RMK SLP097 T02530239 52003 IEM_DS3505
ZGNN,2000-05-07 16:00,ZGNN 071600Z AUTO 12008KT 7SM 25/24 A2985 RMK T02500240 IEM_DS3505
ZGNN,2000-05-07 18:00,ZGNN 071800Z AUTO 09002KT 9SM 25/24 RMK SLP089 T02520238 57008 IEM_DS3505
ZGNN,2000-05-07 21:00,ZGNN 072100Z AUTO 14004KT 7SM 25/23 RMK 70037 SLP082 T02510232 57007 IEM_DS3505
ZGNN,2000-05-07 22:00,ZGNN 072200Z AUTO 13006KT 7SM 25/23 A2980 RMK T02500230 IEM_DS3505
ZGNN,2000-05-07 23:00,ZGNN 072300Z AUTO 14006KT 7SM 25/23 A2980 RMK T02500230 IEM_DS3505
ZGNN,2000-05-08 00:00,ZGNN 080000Z AUTO 22006KT 8SM 25/23 A2983 RMK 70037 SLP093 T02540228 52011 IEM_DS3505
ZGNN,2000-05-08 01:00,ZGNN 080100Z AUTO 14014KT 7SM 26/23 A2983 RMK T02600230 IEM_DS3505
ZGNN,2000-05-08 02:00,ZGNN 080200Z AUTO 15008KT 7SM 26/23 A2983 RMK T02600230 IEM_DS3505
ZGNN,2000-05-08 03:00,ZGNN 080300Z AUTO 20002KT 6SM 25/24 A2983 RMK SLP099 T02510239 52005 IEM_DS3505
ZGNN,2000-05-08 04:00,ZGNN 080400Z AUTO 14004KT 7SM 25/24 A2983 RMK T02500240 IEM_DS3505
ZGNN,2000-05-08 05:00,ZGNN 080500Z AUTO 17004KT 7SM 25/24 A2980 RMK T02500240 IEM_DS3505
ZGNN,2000-05-08 06:00,ZGNN 080600Z AUTO 18008KT 19SM 27/25 A2977 RMK 60055 SLP074 T02660246 57024 IEM_DS3505
ZGNN,2000-05-08 07:00,ZGNN 080700Z AUTO 14014KT 7SM 29/24 A2974 RMK T02900240 IEM_DS3505
ZGNN,2000-05-08 08:00,ZGNN 080800Z AUTO 13014KT 7SM 29/23 A2971 RMK T02900230 IEM_DS3505
ZGNN,2000-05-08 09:00,ZGNN 080900Z AUTO 18004KT 19SM 29/24 A2968 RMK SLP049 T02920238 57024 IEM_DS3505
ZGNN,2000-05-08 10:00,ZGNN 081000Z AUTO 12012KT 7SM 29/24 A2968 RMK T02900240 IEM_DS3505
ZGNN,2000-05-08 11:00,ZGNN 081100Z AUTO 12017KT 7SM 27/24 A2971 RMK T02700240 IEM_DS3505
ZGNN,2000-05-08 12:00,ZGNN 081200Z AUTO 16006KT 19SM 27/23 A2974 RMK SLP063 T02690234 52013 IEM_DS3505
ZGNN,2000-05-08 13:00,ZGNN 081300Z AUTO 17014KT 7SM 25/23 A2974 RMK T02500230 IEM_DS3505
ZGNN,2000-05-08 14:00,ZGNN 081400Z AUTO 12012KT 7SM 25/23 A2977 RMK T02500230 IEM_DS3505
ZGNN,2000-05-08 15:00,ZGNN 081500Z AUTO 18006KT 19SM 27/24 RMK SLP077 T02660237 52014 IEM_DS3505
ZGNN,2000-05-08 18:00,ZGNN 081800Z AUTO 18004KT 19SM 26/24 RMK SLP060 T02620238 57016 IEM_DS3505
ZGNN,2000-05-08 21:00,ZGNN 082100Z AUTO 16006KT 16SM 26/24 RMK 70054 SLP049 T02600237 57011 IEM_DS3505
ZGNN,2000-05-08 22:00,ZGNN 082200Z AUTO 13006KT 7SM 25/24 A2971 RMK T02500240 IEM_DS3505
ZGNN,2000-05-08 23:00,ZGNN 082300Z AUTO 00000KT 7SM 25/24 A2971 RMK T02500240 IEM_DS3505
ZGNN,2000-05-09 00:00,ZGNN 090000Z AUTO 20004KT 12SM 26/24 A2974 RMK 60004 SLP060 T02620242 52011 IEM_DS3505
ZGNN,2000-05-09 01:00,ZGNN 090100Z AUTO 15012KT 7SM 28/24 A2974 RMK T02800240 IEM_DS3505
ZGNN,2000-05-09 02:00,ZGNN 090200Z AUTO 14012KT 7SM 28/24 A2974 RMK T02800240 IEM_DS3505
ZGNN,2000-05-09 03:00,ZGNN 090300Z AUTO 18006KT 19SM 28/24 A2974 RMK SLP060 T02780244 54000 IEM_DS3505
ZGNN,2000-05-09 04:00,ZGNN 090400Z AUTO 12004KT 7SM 29/24 A2971 RMK T02900240 IEM_DS3505
ZGNN,2000-05-09 05:00,ZGNN 090500Z AUTO 00000KT 7SM 29/24 A2971 RMK T02900240 IEM_DS3505
ZGNN,2000-05-09 06:00,ZGNN 090600Z AUTO 34004KT 12SM 27/26 A2965 RMK 60003 SLP041 T02700255 57019 IEM_DS3505
ZGNN,2000-05-09 07:00,ZGNN 090700Z AUTO 32014KT 7SM 25/24 A2965 RMK T02500240 IEM_DS3505
ZGNN,2000-05-09 08:00,ZGNN 090800Z AUTO 33010KT 7SM 25/23 A2965 RMK T02500230 IEM_DS3505
ZGNN,2000-05-09 09:00,ZGNN 090900Z AUTO 32006KT 19SM 25/22 A2965 RMK SLP038 T02510222 57004 IEM_DS3505
ZGNN,2000-05-09 10:00,ZGNN 091000Z AUTO 00000KT 7SM 26/23 A2965 RMK T02600230 IEM_DS3505
ZGNN,2000-05-09 11:00,ZGNN 091100Z AUTO 00000KT 7SM 26/23 A2965 RMK T02600230 IEM_DS3505
ZGNN,2000-05-09 12:00,ZGNN 091200Z AUTO 00000KT 19SM 25/23 A2968 RMK 60000 SLP049 T02500233 52011 IEM_DS3505
ZGNN,2000-05-09 13:00,ZGNN 091300Z AUTO 00000KT 7SM 25/23 A2971 RMK T02500230 IEM_DS3505
ZGNN,2000-05-09 14:00,ZGNN 091400Z AUTO 35008KT 7SM 24/23 A2977 RMK T02400230 IEM_DS3505
ZGNN,2000-05-09 15:00,ZGNN 091500Z AUTO 34004KT 19SM 24/21 RMK SLP068 T02430208 52019 IEM_DS3505
ZGNN,2000-05-09 18:00,ZGNN 091800Z AUTO 36004KT 16SM 24/20 RMK SLP064 T02410205 57004 IEM_DS3505
ZGNN,2000-05-09 21:00,ZGNN 092100Z AUTO 36006KT 16SM 24/20 RMK 70007 SLP054 T02380203 57010 IEM_DS3505
ZGNN,2000-05-09 23:00,ZGNN 092300Z AUTO 00000KT 7SM 24/21 A2974 RMK T02400210 IEM_DS3505
ZGNN,2000-05-10 00:00,ZGNN 100000Z AUTO 36004KT 19SM 23/20 A2977 RMK 60003 SLP077 T02340200 52022 IEM_DS3505
ZGNN,2000-05-10 01:00,ZGNN 100100Z AUTO 34006KT 7SM 23/20 A2980 RMK T02300200 IEM_DS3505
ZGNN,2000-05-10 02:00,ZGNN 100200Z AUTO 36012KT 7SM 24/20 A2980 RMK T02400200 IEM_DS3505
ZGNN,2000-05-10 03:00,ZGNN 100300Z AUTO 04006KT 19SM 24/19 A2980 RMK SLP088 T02440188 52011 IEM_DS3505
ZGNN,2000-05-10 04:00,ZGNN 100400Z AUTO 01006KT 7SM 25/19 A2980 RMK T02500190 IEM_DS3505
ZGNN,2000-05-10 05:00,ZGNN 100500Z AUTO 03004KT 7SM 25/19 A2980 RMK T02500190 IEM_DS3505
ZGNN,2000-05-10 06:00,ZGNN 100600Z AUTO 00000KT 16SM 24/20 A2977 RMK 60003 SLP077 T02440195 57011 IEM_DS3505
ZGNN,2000-05-10 07:00,ZGNN 100700Z AUTO 10004KT 7SM 25/20 A2974 RMK T02500200 IEM_DS3505
ZGNN,2000-05-10 08:00,ZGNN 100800Z AUTO 07006KT 7SM 26/20 A2974 RMK T02600200 IEM_DS3505
ZGNN,2000-05-10 09:00,ZGNN 100900Z AUTO 00000KT 16SM 25/21 A2974 RMK SLP064 T02480207 57013 IEM_DS3505
ZGNN,2000-05-10 10:00,ZGNN 101000Z AUTO 03002KT 7SM 24/20 A2971 RMK T02400200 IEM_DS3505
ZGNN,2000-05-10 11:00,ZGNN 101100Z AUTO 06004KT 7SM 24/20 A2974 RMK T02400200 IEM_DS3505
ZGNN,2000-05-10 12:00,ZGNN 101200Z AUTO 00000KT 12SM 24/21 A2974 RMK SLP068 T02380209 52004 IEM_DS3505
ZGNN,2000-05-10 13:00,ZGNN 101300Z AUTO 02002KT 7SM 24/20 A2977 RMK T02400200 IEM_DS3505
ZGNN,2000-05-10 15:00,ZGNN 101500Z AUTO 00000KT 12SM 24/21 RMK SLP084 T02380208 52016 IEM_DS3505
ZGNN,2000-05-10 18:00,ZGNN 101800Z AUTO 00000KT 11SM 21/20 RMK SLP070 T02140203 57014 IEM_DS3505
ZGNN,2000-05-10 21:00,ZGNN 102100Z AUTO 00000KT 12SM 21/20 RMK 70003 SLP066 T02110200 57004 IEM_DS3505
ZGNN,2000-05-10 22:00,ZGNN 102200Z AUTO 00000KT 7SM 22/21 A2974 RMK T02200210 IEM_DS3505
ZGNN,2000-05-10 23:00,ZGNN 102300Z AUTO 00000KT 7SM 22/21 A2977 RMK T02200210 IEM_DS3505
ZGNN,2000-05-11 00:00,ZGNN 110000Z AUTO 00000KT 9SM 22/21 A2977 RMK 70003 SLP078 T02200208 52012 IEM_DS3505
ZGNN,2000-05-11 01:00,ZGNN 110100Z AUTO 15004KT 7SM 24/21 A2980 RMK T02400210 IEM_DS3505
ZGNN,2000-05-11 02:00,ZGNN 110200Z AUTO 21006KT 7SM 23/20 A2980 RMK T02300200 IEM_DS3505
ZGNN,2000-05-11 03:00,ZGNN 110300Z AUTO 22006KT 9SM 24/21 A2980 RMK SLP086 T02430208 52008 IEM_DS3505
ZGNN,2000-05-11 04:00,ZGNN 110400Z AUTO 18006KT 7SM 26/21 A2980 RMK T02600210 IEM_DS3505
ZGNN,2000-05-11 05:00,ZGNN 110500Z AUTO 25006KT 7SM 25/20 A2977 RMK T02500200 IEM_DS3505
ZGNN,2000-05-11 06:00,ZGNN 110600Z AUTO 22008KT 11SM 25/22 A2974 RMK SLP068 T02490215 57018 IEM_DS3505
ZGNN,2000-05-11 07:00,ZGNN 110700Z AUTO 23008KT 7SM 24/21 A2974 RMK T02400210 IEM_DS3505
ZGNN,2000-05-11 08:00,ZGNN 110800Z AUTO 22008KT 7SM 23/21 A2971 RMK T02300210 IEM_DS3505
ZGNN,2000-05-11 09:00,ZGNN 110900Z AUTO 22006KT 6SM 23/22 A2971 RMK SLP056 T02260216 57013 IEM_DS3505
ZGNN,2000-05-11 10:00,ZGNN 111000Z AUTO 21008KT 3SM 22/21 A2971 RMK T02200210 IEM_DS3505
ZGNN,2000-05-11 11:00,ZGNN 111100Z AUTO 23006KT 3SM 22/22 A2974 RMK T02200220 IEM_DS3505
ZGNN,2000-05-11 12:00,ZGNN 111200Z AUTO 25004KT 2SM 22/21 A2974 RMK 60004 SLP068 T02200214 52012 IEM_DS3505
ZGNN,2000-05-11 13:00,ZGNN 111300Z AUTO 00000KT 3SM 22/21 A2977 RMK T02200210 IEM_DS3505
ZGNN,2000-05-11 15:00,ZGNN 111500Z AUTO 00000KT 6SM 22/22 RMK SLP085 T02200217 52018 IEM_DS3505
ZGNN,2000-05-11 18:00,ZGNN 111800Z AUTO 32006KT 6SM 22/22 RMK 60000 SLP079 T02180215 57006 IEM_DS3505
ZGNN,2000-05-11 21:00,ZGNN 112100Z AUTO 00000KT 5SM 21/21 RMK 70005 SLP070 T02140211 57010 IEM_DS3505
ZGNN,2000-05-11 22:00,ZGNN 112200Z AUTO 00000KT 1/8SM 22/21 A2977 RMK T02200210 IEM_DS3505
ZGNN,2000-05-11 23:00,ZGNN 112300Z AUTO 00000KT 1SM 22/21 A2977 RMK T02200210 IEM_DS3505
ZGNN,2000-05-12 00:00,ZGNN 120000Z AUTO 00000KT 4SM 23/22 A2977 RMK 70005 SLP080 T02280219 52010 IEM_DS3505
ZGNN,2000-05-12 01:00,ZGNN 120100Z AUTO 00000KT 2SM 24/23 A2980 RMK T02400230 IEM_DS3505
ZGNN,2000-05-12 02:00,ZGNN 120200Z AUTO 00000KT 7SM 26/22 A2980 RMK T02600220 IEM_DS3505
ZGNN,2000-05-12 03:00,ZGNN 120300Z AUTO 00000KT 11SM 26/23 A2980 RMK SLP086 T02640226 52007 IEM_DS3505
ZGNN,2000-05-12 04:00,ZGNN 120400Z AUTO 00000KT 7SM 27/23 A2980 RMK T02700230 IEM_DS3505
ZGNN,2000-05-12 05:00,ZGNN 120500Z AUTO 04006KT 7SM 29/22 A2977 RMK T02900220 IEM_DS3505
ZGNN,2000-05-12 06:00,ZGNN 120600Z AUTO 04004KT 12SM 29/23 A2974 RMK SLP065 T02880226 57020 IEM_DS3505
ZGNN,2000-05-12 07:00,ZGNN 120700Z AUTO 00000KT 7SM 30/22 A2971 RMK T03000220 IEM_DS3505
ZGNN,2000-05-12 08:00,ZGNN 120800Z AUTO 13004KT 7SM 30/22 A2971 RMK T03000220 IEM_DS3505
ZGNN,2000-05-12 09:00,ZGNN 120900Z AUTO 34008KT 12SM 29/22 A2968 RMK SLP048 T02880218 57017 IEM_DS3505
ZGNN,2000-05-12 10:00,ZGNN 121000Z AUTO 02008KT 7SM 28/21 A2971 RMK T02800210 IEM_DS3505
ZGNN,2000-05-12 11:00,ZGNN 121100Z AUTO 31004KT 7SM 24/23 A2971 RMK T02400230 IEM_DS3505
ZGNN,2000-05-12 12:00,ZGNN 121200Z AUTO 00000KT 9SM 25/24 A2971 RMK 60016 SLP061 T02510237 52012 IEM_DS3505
ZGNN,2000-05-12 13:00,ZGNN 121300Z AUTO 35004KT 7SM 25/24 A2974 RMK T02500240 IEM_DS3505
ZGNN,2000-05-12 15:00,ZGNN 121500Z AUTO 00000KT 7SM 24/23 RMK SLP071 T02420233 52011 IEM_DS3505
ZGNN,2000-05-12 18:00,ZGNN 121800Z AUTO 18006KT 7SM 24/23 RMK 60000 SLP068 T02360227 57003 IEM_DS3505
ZGNN,2000-05-12 21:00,ZGNN 122100Z AUTO 00000KT 7SM 23/22 RMK 70015 SLP069 T02310225 52001 IEM_DS3505
ZGNN,2000-05-12 22:00,ZGNN 122200Z AUTO 34004KT 2 1/2SM 23/22 A2977 RMK T02300220 IEM_DS3505
ZGNN,2000-05-12 23:00,ZGNN 122300Z AUTO 01004KT 2 1/2SM 23/22 A2977 RMK T02300220 IEM_DS3505
ZGNN,2000-05-13 00:00,ZGNN 130000Z AUTO 00000KT 7SM 24/23 A2980 RMK 70015 SLP085 T02420233 52015 IEM_DS3505
ZGNN,2000-05-13 01:00,ZGNN 130100Z AUTO 00000KT 4SM 26/23 A2980 RMK T02600230 IEM_DS3505
ZGNN,2000-05-13 02:00,ZGNN 130200Z AUTO 00000KT 6SM 27/23 A2983 RMK T02700230 IEM_DS3505
ZGNN,2000-05-13 03:00,ZGNN 130300Z AUTO 00000KT 9SM 27/23 A2983 RMK SLP093 T02740231 52009 IEM_DS3505
ZGNN,2000-05-13 04:00,ZGNN 130400Z AUTO 00000KT 7SM 29/23 A2980 RMK T02900230 IEM_DS3505
ZGNN,2000-05-13 05:00,ZGNN 130500Z AUTO 01004KT 7SM 29/23 A2977 RMK T02900230 IEM_DS3505
ZGNN,2000-05-13 06:00,ZGNN 130600Z AUTO 00000KT 9SM 30/23 A2977 RMK SLP068 T02960227 57024 IEM_DS3505
ZGNN,2000-05-13 07:00,ZGNN 130700Z AUTO 10004KT 7SM 31/23 A2974 RMK T03100230 IEM_DS3505
ZGNN,2000-05-13 08:00,ZGNN 130800Z AUTO 10006KT 7SM 30/21 A2971 RMK T03000210 IEM_DS3505
ZGNN,2000-05-13 09:00,ZGNN 130900Z AUTO 16004KT 9SM 30/20 A2968 RMK SLP045 T03020195 57023 IEM_DS3505
ZGNN,2000-05-13 10:00,ZGNN 131000Z AUTO 07006KT 6SM 30/18 A2968 RMK T03000180 IEM_DS3505
ZGNN,2000-05-13 11:00,ZGNN 131100Z AUTO 00000KT 6SM 28/21 A2968 RMK T02800210 IEM_DS3505
ZGNN,2000-05-13 12:00,ZGNN 131200Z AUTO 00000KT 9SM 27/22 A2971 RMK SLP056 T02670222 52010 IEM_DS3505
ZGNN,2000-05-13 13:00,ZGNN 131300Z AUTO 00000KT 6SM 26/23 A2974 RMK T02600230 IEM_DS3505
ZGNN,2000-05-13 15:00,ZGNN 131500Z AUTO 00000KT 8SM 25/22 RMK SLP080 T02500220 52024 IEM_DS3505
ZGNN,2000-05-13 18:00,ZGNN 131800Z AUTO 00000KT 7SM RMK IEM_DS3505
ZGNN,2000-05-13 21:00,ZGNN 132100Z AUTO 00000KT 7SM 24/22 RMK 70003 SLP071 T02370222 57003 IEM_DS3505
ZGNN,2000-05-13 22:00,ZGNN 132200Z AUTO 00000KT 4SM 23/23 A2977 RMK T02300230 IEM_DS3505
ZGNN,2000-05-13 23:00,ZGNN 132300Z AUTO 35004KT 7SM 23/23 A2980 RMK T02300230 IEM_DS3505
ZGNN,2000-05-14 00:00,ZGNN 140000Z AUTO 00000KT 7SM 24/23 A2980 RMK 60003 SLP089 T02410228 52017 IEM_DS3505
ZGNN,2000-05-14 01:00,ZGNN 140100Z AUTO 00000KT 7SM 26/23 A2983 RMK T02600230 IEM_DS3505
ZGNN,2000-05-14 02:00,ZGNN 140200Z AUTO 07006KT 6SM 28/22 A2983 RMK T02800220 IEM_DS3505
ZGNN,2000-05-14 03:00,ZGNN 140300Z AUTO 14006KT 12SM 29/21 A2983 RMK SLP094 T02880211 52005 IEM_DS3505
ZGNN,2000-05-14 04:00,ZGNN 140400Z AUTO 06006KT 7SM 31/22 A2983 RMK T03100220 IEM_DS3505
ZGNN,2000-05-14 05:00,ZGNN 140500Z AUTO 10008KT 7SM 31/21 A2980 RMK T03100210 IEM_DS3505
ZGNN,2000-05-14 06:00,ZGNN 140600Z AUTO 36006KT 12SM 32/20 A2977 RMK SLP067 T03160203 57026 IEM_DS3505
ZGNN,2000-05-14 07:00,ZGNN 140700Z AUTO 06010KT 7SM 32/21 A2974 RMK T03200210 IEM_DS3505
ZGNN,2000-05-14 08:00,ZGNN 140800Z AUTO 10006KT 7SM 32/21 A2971 RMK T03200210 IEM_DS3505
ZGNN,2000-05-14 09:00,ZGNN 140900Z AUTO 07006KT 14SM 32/22 A2971 RMK SLP049 T03150217 57018 IEM_DS3505
ZGNN,2000-05-14 10:00,ZGNN 141000Z AUTO 10008KT 7SM 31/21 A2971 RMK T03100210 IEM_DS3505
ZGNN,2000-05-14 11:00,ZGNN 141100Z AUTO 11006KT 6SM 29/21 A2971 RMK T02900210 IEM_DS3505
ZGNN,2000-05-14 12:00,ZGNN 141200Z AUTO 00000KT 12SM 28/22 A2974 RMK SLP060 T02800218 52010 IEM_DS3505
ZGNN,2000-05-14 13:00,ZGNN 141300Z AUTO 00000KT 6SM 27/23 A2974 RMK T02700230 IEM_DS3505
ZGNN,2000-05-14 14:00,ZGNN 141400Z AUTO 17004KT 6SM 26/23 A2980 RMK T02600230 IEM_DS3505
ZGNN,2000-05-14 15:00,ZGNN 141500Z AUTO 00000KT 7SM 26/23 RMK SLP085 T02600229 52026 IEM_DS3505
ZGNN,2000-05-14 18:00,ZGNN 141800Z AUTO 00000KT 7SM 24/22 RMK SLP073 T02410225 57012 IEM_DS3505
ZGNN,2000-05-14 21:00,ZGNN 142100Z AUTO 00000KT 6SM 23/22 RMK SLP071 T02280219 57002 IEM_DS3505
ZGNN,2000-05-14 22:00,ZGNN 142200Z AUTO 00000KT 4SM 23/22 A2977 RMK T02300220 IEM_DS3505
ZGNN,2000-05-14 23:00,ZGNN 142300Z AUTO 00000KT 3SM 23/22 A2980 RMK T02300220 IEM_DS3505
ZGNN,2000-05-15 00:00,ZGNN 150000Z AUTO 00000KT 6SM 25/23 A2980 RMK SLP086 T02480228 52014 IEM_DS3505
ZGNN,2000-05-15 01:00,ZGNN 150100Z AUTO 00000KT 7SM 27/23 A2980 RMK T02700230 IEM_DS3505
ZGNN,2000-05-15 02:00,ZGNN 150200Z AUTO 11004KT 7SM 29/23 A2983 RMK T02900230 IEM_DS3505
ZGNN,2000-05-15 03:00,ZGNN 150300Z AUTO 14004KT 9SM 29/24 A2983 RMK SLP088 T02920235 52003 IEM_DS3505
ZGNN,2000-05-15 04:00,ZGNN 150400Z AUTO 12006KT 7SM 31/22 A2980 RMK T03100220 IEM_DS3505
ZGNN,2000-05-15 05:00,ZGNN 150500Z AUTO 03004KT 7SM 31/23 A2977 RMK T03100230 IEM_DS3505
ZGNN,2000-05-15 06:00,ZGNN 150600Z AUTO 18004KT 12SM 31/22 A2974 RMK SLP061 T03110223 57027 IEM_DS3505
ZGNN,2000-05-15 07:00,ZGNN 150700Z AUTO 22004KT 7SM 32/22 A2971 RMK T03200220 IEM_DS3505
ZGNN,2000-05-15 08:00,ZGNN 150800Z AUTO 18002KT 7SM 32/22 A2968 RMK T03200220 IEM_DS3505
ZGNN,2000-05-15 09:00,ZGNN 150900Z AUTO 18004KT 17SM 32/23 A2968 RMK SLP039 T03170226 57022 IEM_DS3505
ZGNN,2000-05-15 10:00,ZGNN 151000Z AUTO 15006KT 6SM 32/23 A2968 RMK T03200230 IEM_DS3505
ZGNN,2000-05-15 11:00,ZGNN 151100Z AUTO 11006KT 6SM 30/23 A2968 RMK T03000230 IEM_DS3505
ZGNN,2000-05-15 12:00,ZGNN 151200Z AUTO 00000KT 16SM 30/23 RMK SLP049 T02970234 52010 IEM_DS3505
ZGNN,2000-05-15 13:00,ZGNN 151300Z AUTO 15004KT 6SM 28/23 A2974 RMK T02800230 IEM_DS3505
ZGNN,2000-05-15 15:00,ZGNN 151500Z AUTO 20004KT 12SM 27/24 RMK SLP079 T02720242 52030 IEM_DS3505
ZGNN,2000-05-15 18:00,ZGNN 151800Z AUTO 18004KT 12SM 26/24 RMK SLP075 T02590239 57004 IEM_DS3505
ZGNN,2000-05-15 21:00,ZGNN 152100Z AUTO 00000KT 9SM 26/24 RMK SLP068 T02550239 57007 IEM_DS3505
ZGNN,2000-05-15 22:00,ZGNN 152200Z AUTO 00000KT 7SM 25/24 A2977 RMK T02500240 IEM_DS3505
ZGNN,2000-05-15 23:00,ZGNN 152300Z AUTO 09002KT 7SM 25/24 A2977 RMK T02500240 IEM_DS3505
ZGNN,2000-05-16 00:00,ZGNN 160000Z AUTO 11004KT 10SM 26/24 A2980 RMK SLP079 T02610239 52011 IEM_DS3505
ZGNN,2000-05-16 02:00,ZGNN 160200Z AUTO 13006KT 7SM 29/24 A2980 RMK T02900240 IEM_DS3505
ZGNN,2000-05-16 03:00,ZGNN 160300Z AUTO 22006KT 16SM 30/24 A2980 RMK SLP084 T02950235 52005 IEM_DS3505
ZGNN,2000-05-16 04:00,ZGNN 160400Z AUTO 13006KT 7SM 32/23 A2977 RMK T03200230 IEM_DS3505
ZGNN,2000-05-16 05:00,ZGNN 160500Z AUTO 16006KT 7SM 31/23 A2977 RMK T03100230 IEM_DS3505
ZGNN,2000-05-16 06:00,ZGNN 160600Z AUTO 14006KT 19SM 32/23 A2971 RMK SLP053 T03210231 57030 IEM_DS3505
ZGNN,2000-05-16 07:00,ZGNN 160700Z AUTO 14004KT 7SM 33/23 A2968 RMK T03300230 IEM_DS3505
ZGNN,2000-05-16 08:00,ZGNN 160800Z AUTO 12010KT 62SM RMK IEM_DS3505
ZGNN,2000-05-16 09:00,ZGNN 160900Z AUTO 18006KT 19SM 32/23 A2965 RMK SLP032 T03200230 57021 IEM_DS3505
ZGNN,2000-05-16 10:00,ZGNN 161000Z AUTO 15006KT 7SM 31/23 A2965 RMK T03100230 IEM_DS3505
ZGNN,2000-05-16 11:00,ZGNN 161100Z AUTO 14008KT 7SM 30/24 A2968 RMK T03000240 IEM_DS3505
ZGNN,2000-05-16 12:00,ZGNN 161200Z AUTO 22004KT 19SM 29/25 A2971 RMK SLP052 T02880246 52019 IEM_DS3505
ZGNN,2000-05-16 13:00,ZGNN 161300Z AUTO 18006KT 7SM 27/24 A2974 RMK T02700240 IEM_DS3505
ZGNN,2000-05-16 15:00,ZGNN 161500Z AUTO 34008KT 16SM 25/23 RMK SLP081 T02520230 52029 IEM_DS3505
ZGNN,2000-05-16 18:00,ZGNN 161800Z AUTO 34010KT 9SM 23/23 RMK 60035 SLP076 T02320226 57005 IEM_DS3505
ZGNN,2000-05-16 21:00,ZGNN 162100Z AUTO 34006KT 7SM 22/21 RMK 70090 SLP073 T02230214 57003 IEM_DS3505
ZGNN,2000-05-16 22:00,ZGNN 162200Z AUTO 36006KT 7SM 22/21 A2977 RMK T02200210 IEM_DS3505
ZGNN,2000-05-16 23:00,ZGNN 162300Z AUTO 33006KT 7SM 22/21 A2980 RMK T02200210 IEM_DS3505
ZGNN,2000-05-17 00:00,ZGNN 170000Z AUTO 34008KT 6SM 22/21 A2980 RMK 60055 SLP088 T02200209 52014 IEM_DS3505
ZGNN,2000-05-17 01:00,ZGNN 170100Z AUTO 32006KT 7SM 23/20 A2983 RMK T02300200 IEM_DS3505
ZGNN,2000-05-17 02:00,ZGNN 170200Z AUTO 33008KT 7SM 24/20 A2983 RMK T02400200 IEM_DS3505
ZGNN,2000-05-17 03:00,ZGNN 170300Z AUTO 34008KT 16SM 25/21 A2983 RMK SLP093 T02460207 52004 IEM_DS3505
ZGNN,2000-05-17 04:00,ZGNN 170400Z AUTO 33008KT 7SM 25/21 A2980 RMK T02500210 IEM_DS3505
ZGNN,2000-05-17 05:00,ZGNN 170500Z AUTO 34006KT 7SM 26/21 A2980 RMK T02600210 IEM_DS3505
ZGNN,2000-05-17 06:00,ZGNN 170600Z AUTO 32006KT 12SM 25/21 A2977 RMK 60003 SLP079 T02520207 57014 IEM_DS3505
ZGNN,2000-05-17 07:00,ZGNN 170700Z AUTO 35008KT 7SM 26/21 A2977 RMK T02600210 IEM_DS3505
ZGNN,2000-05-17 08:00,ZGNN 170800Z AUTO 34008KT 7SM 25/21 A2974 RMK T02500210 IEM_DS3505
ZGNN,2000-05-17 09:00,ZGNN 170900Z AUTO 34010KT 12SM 24/21 A2974 RMK SLP064 T02440209 57015 IEM_DS3505
ZGNN,2000-05-17 10:00,ZGNN 171000Z AUTO 35012KT 7SM 24/20 A2974 RMK T02400200 IEM_DS3505
ZGNN,2000-05-17 11:00,ZGNN 171100Z AUTO 33012KT 7SM 24/20 A2974 RMK T02400200 IEM_DS3505
ZGNN,2000-05-17 12:00,ZGNN 171200Z AUTO 32008KT 9SM 23/20 A2977 RMK 60003 SLP077 T02300203 52012 IEM_DS3505
ZGNN,2000-05-17 13:00,ZGNN 171300Z AUTO 35004KT 7SM 23/20 A2980 RMK T02300200 IEM_DS3505
ZGNN,2000-05-17 14:00,ZGNN 171400Z AUTO 33006KT 7SM 23/20 A2980 RMK T02300200 IEM_DS3505
ZGNN,2000-05-17 15:00,ZGNN 171500Z AUTO 32010KT 9SM 22/20 RMK SLP094 T02240198 52018 IEM_DS3505
ZGNN,2000-05-17 18:00,ZGNN 171800Z AUTO 32006KT 9SM 22/20 RMK 60003 SLP087 T02150201 57007 IEM_DS3505
ZGNN,2000-05-17 21:00,ZGNN 172100Z AUTO 00000KT 7SM 21/20 RMK 70021 SLP083 T02110203 57005 IEM_DS3505
ZGNN,2000-05-17 22:00,ZGNN 172200Z AUTO 35006KT 4SM 21/20 A2980 RMK T02100200 IEM_DS3505
ZGNN,2000-05-17 23:00,ZGNN 172300Z AUTO 01006KT 5SM 21/20 A2980 RMK T02100200 IEM_DS3505
ZGNN,2000-05-18 00:00,ZGNN 180000Z AUTO 34006KT 6SM 21/20 A2983 RMK 60024 SLP094 T02130202 52011 IEM_DS3505
ZGNN,2000-05-18 01:00,ZGNN 180100Z AUTO 34010KT 4SM 21/20 A2983 RMK T02100200 IEM_DS3505
ZGNN,2000-05-18 02:00,ZGNN 180200Z AUTO 33008KT 1 1/2SM 21/20 A2985 RMK T02100200 IEM_DS3505
ZGNN,2000-05-18 03:00,ZGNN 180300Z AUTO 36008KT 2SM 21/20 A2985 RMK SLP107 T02100201 52013 IEM_DS3505
ZGNN,2000-05-18 04:00,ZGNN 180400Z AUTO 35004KT 2 1/2SM 21/20 A2985 RMK T02100200 IEM_DS3505
ZGNN,2000-05-18 05:00,ZGNN 180500Z AUTO 29006KT 1 1/2SM 21/20 A2985 RMK T02100200 IEM_DS3505
ZGNN,2000-05-18 06:00,ZGNN 180600Z AUTO 36008KT 2 1/2SM 20/19 A2983 RMK 60012 SLP099 T02050194 57009 IEM_DS3505
ZGNN,2000-05-18 07:00,ZGNN 180700Z AUTO 34006KT 4SM 20/20 A2983 RMK T02000200 IEM_DS3505
ZGNN,2000-05-18 08:00,ZGNN 180800Z AUTO 33012KT 1 1/2SM 20/20 A2980 RMK T02000200 IEM_DS3505
ZGNN,2000-05-18 09:00,ZGNN 180900Z AUTO 34010KT 2 1/2SM 20/19 A2980 RMK SLP090 T01980187 57009 IEM_DS3505
ZGNN,2000-05-18 10:00,ZGNN 181000Z AUTO 35012KT 4SM 19/18 A2983 RMK T01900180 IEM_DS3505
ZGNN,2000-05-18 11:00,ZGNN 181100Z AUTO 33014KT 7SM 19/18 A2983 RMK T01900180 IEM_DS3505
ZGNN,2000-05-18 12:00,ZGNN 181200Z AUTO 34006KT 11SM 19/18 A2985 RMK 60016 SLP110 T01880178 52020 IEM_DS3505
ZGNN,2000-05-18 13:00,ZGNN 181300Z AUTO 33010KT 7SM 19/18 A2988 RMK T01900180 IEM_DS3505
ZGNN,2000-05-18 14:00,ZGNN 181400Z AUTO 33006KT 7SM 19/18 A2991 RMK T01900180 IEM_DS3505
ZGNN,2000-05-18 15:00,ZGNN 181500Z AUTO 34010KT 11SM 18/17 A2991 RMK SLP124 T01830173 52013 IEM_DS3505
ZGNN,2000-05-18 18:00,ZGNN 181800Z AUTO 34006KT 12SM 18/17 RMK 60000 SLP118 T01830172 57006 IEM_DS3505
ZGNN,2000-05-18 21:00,ZGNN 182100Z AUTO 00000KT 12SM 18/17 RMK 70028 SLP108 T01840174 57010 IEM_DS3505
ZGNN,2000-05-18 22:00,ZGNN 182200Z AUTO 33004KT 7SM 19/17 A2985 RMK T01900170 IEM_DS3505
ZGNN,2000-05-19 00:00,ZGNN 190000Z AUTO 34006KT 19SM 19/17 A2988 RMK 70028 SLP121 T01940168 52013 IEM_DS3505
ZGNN,2000-05-19 01:00,ZGNN 190100Z AUTO 31006KT 7SM 20/17 A2991 RMK T02000170 IEM_DS3505
ZGNN,2000-05-19 02:00,ZGNN 190200Z AUTO 35006KT 7SM 21/16 A2991 RMK T02100160 IEM_DS3505
ZGNN,2000-05-19 03:00,ZGNN 190300Z AUTO 32010KT 19SM 22/17 A2991 RMK SLP126 T02150171 52005 IEM_DS3505
ZGNN,2000-05-19 04:00,ZGNN 190400Z AUTO 30006KT 7SM 23/16 A2988 RMK T02300160 IEM_DS3505
ZGNN,2000-05-19 05:00,ZGNN 190500Z AUTO 28008KT 6SM 25/16 A2988 RMK T02500160 IEM_DS3505
ZGNN,2000-05-19 06:00,ZGNN 190600Z AUTO 04006KT 19SM 25/17 A2985 RMK 60003 SLP106 T02490166 57018 IEM_DS3505
ZGNN,2000-05-19 07:00,ZGNN 190700Z AUTO 01006KT 7SM 25/16 A2985 RMK T02500160 IEM_DS3505
ZGNN,2000-05-19 08:00,ZGNN 190800Z AUTO 07006KT 7SM 27/17 A2983 RMK T02700170 IEM_DS3505
ZGNN,2000-05-19 09:00,ZGNN 190900Z AUTO 07002KT 19SM 26/15 A2980 RMK SLP089 T02600150 57017 IEM_DS3505
ZGNN,2000-05-19 10:00,ZGNN 191000Z AUTO 03008KT 6SM 26/16 A2980 RMK T02600160 IEM_DS3505
ZGNN,2000-05-19 11:00,ZGNN 191100Z AUTO 07004KT 6SM 25/17 A2980 RMK T02500170 IEM_DS3505
ZGNN,2000-05-19 12:00,ZGNN 191200Z AUTO 00000KT 19SM 23/19 A2983 RMK SLP092 T02330191 52003 IEM_DS3505
ZGNN,2000-05-19 13:00,ZGNN 191300Z AUTO 00000KT 6SM 22/19 A2983 RMK T02200190 IEM_DS3505
ZGNN,2000-05-19 15:00,ZGNN 191500Z AUTO 00000KT 19SM 20/18 RMK SLP107 T02020178 52014 IEM_DS3505
ZGNN,2000-05-19 18:00,ZGNN 191800Z AUTO 00000KT 16SM 19/17 RMK SLP101 T01890173 57005 IEM_DS3505
ZGNN,2000-05-19 21:00,ZGNN 192100Z AUTO 00000KT 12SM 19/18 RMK 70003 SLP094 T01920181 57007 IEM_DS3505
ZGNN,2000-05-19 22:00,ZGNN 192200Z AUTO 00000KT 6SM 19/18 A2983 RMK T01900180 IEM_DS3505
ZGNN,2000-05-19 23:00,ZGNN 192300Z AUTO 00000KT 6SM 19/18 A2983 RMK T01900180 IEM_DS3505
ZGNN,2000-05-20 00:00,ZGNN 200000Z AUTO 00000KT 9SM 20/18 A2985 RMK 70003 SLP105 T02030182 52011 IEM_DS3505
ZGNN,2000-05-20 01:00,ZGNN 200100Z AUTO 18004KT 6SM 23/19 A2988 RMK T02300190 IEM_DS3505
ZGNN,2000-05-20 02:00,ZGNN 200200Z AUTO 15006KT 6SM 25/18 A2985 RMK T02500180 IEM_DS3505
ZGNN,2000-05-20 03:00,ZGNN 200300Z AUTO 25004KT 19SM 26/19 A2985 RMK SLP109 T02620190 52004 IEM_DS3505
ZGNN,2000-05-20 04:00,ZGNN 200400Z AUTO 00000KT 6SM 28/18 A2985 RMK T02800180 IEM_DS3505
ZGNN,2000-05-20 05:00,ZGNN 200500Z AUTO 33004KT 6SM 29/18 A2983 RMK T02900180 IEM_DS3505
ZGNN,2000-05-20 06:00,ZGNN 200600Z AUTO 34004KT 12SM 29/18 A2983 RMK SLP094 T02870176 57014 IEM_DS3505
ZGNN,2000-05-20 07:00,ZGNN 200700Z AUTO 03004KT 6SM 29/17 A2980 RMK T02900170 IEM_DS3505
ZGNN,2000-05-20 08:00,ZGNN 200800Z AUTO 33006KT 7SM 29/18 A2980 RMK T02900180 IEM_DS3505
ZGNN,2000-05-20 09:00,ZGNN 200900Z AUTO 36004KT 12SM 28/19 A2980 RMK SLP079 T02800186 57015 IEM_DS3505
ZGNN,2000-05-20 10:00,ZGNN 201000Z AUTO 36002KT 7SM 28/19 A2980 RMK T02800190 IEM_DS3505
ZGNN,2000-05-20 11:00,ZGNN 201100Z AUTO 04004KT 6SM 27/20 A2980 RMK T02700200 IEM_DS3505
ZGNN,2000-05-20 12:00,ZGNN 201200Z AUTO 00000KT 11SM 25/18 A2983 RMK SLP092 T02500181 52012 IEM_DS3505
ZGNN,2000-05-20 13:00,ZGNN 201300Z AUTO 00000KT 6SM 25/21 A2983 RMK T02500210 IEM_DS3505
ZGNN,2000-05-20 14:00,ZGNN 201400Z AUTO 33002KT 7SM 24/20 A2985 RMK T02400200 IEM_DS3505
ZGNN,2000-05-20 15:00,ZGNN 201500Z AUTO 32006KT 6SM 22/19 RMK SLP107 T02240193 52016 IEM_DS3505
ZGNN,2000-05-20 18:00,ZGNN 201800Z AUTO 00000KT 9SM 22/17 RMK 60002 SLP096 T02190169 57010 IEM_DS3505
ZGNN,2000-05-20 21:00,ZGNN 202100Z AUTO 00000KT 9SM 20/19 RMK 70002 SLP096 T02020186 57001 IEM_DS3505
ZGNN,2000-05-20 22:00,ZGNN 202200Z AUTO 34002KT 6SM 18/17 A2983 RMK T01800170 IEM_DS3505
ZGNN,2000-05-20 23:00,ZGNN 202300Z AUTO 00000KT 6SM 20/19 A2985 RMK T02000190 IEM_DS3505
ZGNN,2000-05-21 00:00,ZGNN 210000Z AUTO 29002KT 12SM 22/17 A2988 RMK 60000 SLP111 T02160169 52014 IEM_DS3505
ZGNN,2000-05-21 01:00,ZGNN 210100Z AUTO 33008KT 6SM 22/17 A2991 RMK T02200170 IEM_DS3505
ZGNN,2000-05-21 02:00,ZGNN 210200Z AUTO 04002KT 6SM 25/17 A2988 RMK T02500170 IEM_DS3505
ZGNN,2000-05-21 03:00,ZGNN 210300Z AUTO 34004KT 12SM 27/18 A2988 RMK SLP113 T02680184 52003 IEM_DS3505
ZGNN,2000-05-21 04:00,ZGNN 210400Z AUTO 00000KT 6SM 28/17 A2988 RMK T02800170 IEM_DS3505
ZGNN,2000-05-21 05:00,ZGNN 210500Z AUTO 13004KT 7SM 29/18 A2985 RMK T02900180 IEM_DS3505
ZGNN,2000-05-21 06:00,ZGNN 210600Z AUTO 22004KT 14SM 28/19 A2985 RMK SLP102 T02820189 57011 IEM_DS3505
ZGNN,2000-05-21 07:00,ZGNN 210700Z AUTO 09008KT 7SM 30/18 A2983 RMK T03000180 IEM_DS3505
ZGNN,2000-05-21 08:00,ZGNN 210800Z AUTO 10006KT 7SM 29/18 A2980 RMK T02900180 IEM_DS3505
ZGNN,2000-05-21 09:00,ZGNN 210900Z AUTO 09004KT 12SM 28/18 A2980 RMK SLP085 T02850185 57017 IEM_DS3505
ZGNN,2000-05-21 10:00,ZGNN 211000Z AUTO 13006KT 7SM 28/19 A2980 RMK T02800190 IEM_DS3505
ZGNN,2000-05-21 11:00,ZGNN 211100Z AUTO 00000KT 7SM 27/21 A2983 RMK T02700210 IEM_DS3505
ZGNN,2000-05-21 12:00,ZGNN 211200Z AUTO 00000KT 9SM 25/21 A2983 RMK SLP094 T02540212 52009 IEM_DS3505
ZGNN,2000-05-21 13:00,ZGNN 211300Z AUTO 00000KT 7SM 25/22 A2985 RMK T02500220 IEM_DS3505
ZGNN,2000-05-21 15:00,ZGNN 211500Z AUTO 00000KT 9SM 23/21 RMK SLP112 T02260208 52018 IEM_DS3505
ZGNN,2000-05-21 18:00,ZGNN 211800Z AUTO 00000KT 9SM 23/20 RMK SLP104 T02270203 57008 IEM_DS3505
ZGNN,2000-05-21 21:00,ZGNN 212100Z AUTO 00000KT 9SM 22/20 RMK 70003 SLP101 T02200198 57003 IEM_DS3505
ZGNN,2000-05-21 22:00,ZGNN 212200Z AUTO 00000KT 7SM 21/20 A2985 RMK T02100200 IEM_DS3505
ZGNN,2000-05-21 23:00,ZGNN 212300Z AUTO 00000KT 7SM 22/20 A2988 RMK T02200200 IEM_DS3505
ZGNN,2000-05-22 00:00,ZGNN 220000Z AUTO 14002KT 8SM 22/20 A2991 RMK 60003 SLP120 T02220204 52018 IEM_DS3505
ZGNN,2000-05-22 01:00,ZGNN 220100Z AUTO 13006KT 7SM 23/21 A2991 RMK T02300210 IEM_DS3505
ZGNN,2000-05-22 02:00,ZGNN 220200Z AUTO 14006KT 7SM 23/21 A2991 RMK T02300210 IEM_DS3505
ZGNN,2000-05-22 03:00,ZGNN 220300Z AUTO 16006KT 6SM 23/20 A2994 RMK SLP129 T02330204 52009 IEM_DS3505
ZGNN,2000-05-22 04:00,ZGNN 220400Z AUTO 16004KT 7SM 24/19 A2991 RMK T02400190 IEM_DS3505
ZGNN,2000-05-22 05:00,ZGNN 220500Z AUTO 15006KT 7SM 24/19 A2991 RMK T02400190 IEM_DS3505
ZGNN,2000-05-22 06:00,ZGNN 220600Z AUTO 18004KT 9SM 24/20 A2988 RMK 60002 SLP116 T02390204 57013 IEM_DS3505
ZGNN,2000-05-22 07:00,ZGNN 220700Z AUTO 06006KT 7SM 26/19 A2988 RMK T02600190 IEM_DS3505
ZGNN,2000-05-22 08:00,ZGNN 220800Z AUTO 08004KT 7SM 26/20 A2985 RMK T02600200 IEM_DS3505
ZGNN,2000-05-22 09:00,ZGNN 220900Z AUTO 14006KT 9SM 25/20 A2985 RMK SLP105 T02510199 57010 IEM_DS3505
ZGNN,2000-05-22 10:00,ZGNN 221000Z AUTO 12008KT 7SM 25/20 A2985 RMK T02500200 IEM_DS3505
ZGNN,2000-05-22 11:00,ZGNN 221100Z AUTO 11006KT 7SM 24/20 A2985 RMK T02400200 IEM_DS3505
ZGNN,2000-05-22 12:00,ZGNN 221200Z AUTO 14004KT 6SM 24/21 A2985 RMK 60003 SLP110 T02350209 52004 IEM_DS3505
ZGNN,2000-05-22 15:00,ZGNN 221500Z AUTO 00000KT 7SM 23/21 RMK SLP121 T02270207 52011 IEM_DS3505
ZGNN,2000-05-22 18:00,ZGNN 221800Z AUTO 00000KT 7SM 22/21 RMK SLP110 T02230208 57011 IEM_DS3505
ZGNN,2000-05-22 21:00,ZGNN 222100Z AUTO 04002KT 6SM 21/20 RMK 70002 SLP101 T02140199 57009 IEM_DS3505
ZGNN,2000-05-22 22:00,ZGNN 222200Z AUTO 07004KT 3SM 21/20 A2985 RMK T02100200 IEM_DS3505
ZGNN,2000-05-23 00:00,ZGNN 230000Z AUTO 00000KT 2 1/2SM 21/20 A2988 RMK 60003 SLP112 T02110203 52011 IEM_DS3505
ZGNN,2000-05-23 01:00,ZGNN 230100Z AUTO 05004KT 1SM 22/21 A2988 RMK T02200210 IEM_DS3505
ZGNN,2000-05-23 02:00,ZGNN 230200Z AUTO 08004KT 1 1/4SM 22/21 A2988 RMK T02200210 IEM_DS3505
ZGNN,2000-05-23 03:00,ZGNN 230300Z AUTO 09006KT 3SM 22/21 A2988 RMK SLP111 T02230211 57001 IEM_DS3505
ZGNN,2000-05-23 04:00,ZGNN 230400Z AUTO 10004KT 1 1/2SM 22/22 A2985 RMK T02200220 IEM_DS3505
ZGNN,2000-05-23 05:00,ZGNN 230500Z AUTO 07004KT 6SM 24/22 A2985 RMK T02400220 IEM_DS3505
ZGNN,2000-05-23 06:00,ZGNN 230600Z AUTO 04002KT 2SM 23/22 A2983 RMK 60012 SLP094 T02320222 57017 IEM_DS3505
ZGNN,2000-05-23 07:00,ZGNN 230700Z AUTO 10004KT 1 1/4SM 23/22 A2980 RMK T02300220 IEM_DS3505
ZGNN,2000-05-23 08:00,ZGNN 230800Z AUTO 10002KT 2 1/2SM 23/22 A2980 RMK T02300220 IEM_DS3505
ZGNN,2000-05-23 09:00,ZGNN 230900Z AUTO 00000KT 2 1/2SM 23/23 A2977 RMK SLP079 T02330229 57015 IEM_DS3505
ZGNN,2000-05-23 10:00,ZGNN 231000Z AUTO 04004KT 1 1/4SM 23/23 A2977 RMK T02300230 IEM_DS3505
ZGNN,2000-05-23 11:00,ZGNN 231100Z AUTO 03004KT 1 1/4SM 23/23 A2980 RMK T02300230 IEM_DS3505
ZGNN,2000-05-23 12:00,ZGNN 231200Z AUTO 00000KT 2 1/2SM 24/23 A2980 RMK 60039 SLP090 T02350231 52011 IEM_DS3505
ZGNN,2000-05-23 13:00,ZGNN 231300Z AUTO 03004KT 1SM 23/23 A2983 RMK T02300230 IEM_DS3505
ZGNN,2000-05-23 15:00,ZGNN 231500Z AUTO 00000KT 3SM 24/23 RMK SLP101 T02350231 52011 IEM_DS3505
ZGNN,2000-05-23 18:00,ZGNN 231800Z AUTO 00000KT 3SM 23/23 RMK 60028 SLP089 T02340231 57011 IEM_DS3505
ZGNN,2000-05-23 21:00,ZGNN 232100Z AUTO 00000KT 6SM 24/23 RMK 70078 SLP075 T02350232 57014 IEM_DS3505
ZGNN,2000-05-23 23:00,ZGNN 232300Z AUTO 00000KT 1SM 24/23 A2977 RMK T02400230 IEM_DS3505
ZGNN,2000-05-24 00:00,ZGNN 240000Z AUTO 11002KT 2 1/2SM 24/24 A2980 RMK 60002 SLP080 T02390235 52005 IEM_DS3505
ZGNN,2000-05-24 01:00,ZGNN 240100Z AUTO 14004KT 7SM 25/24 A2980 RMK T02500240 IEM_DS3505
ZGNN,2000-05-24 02:00,ZGNN 240200Z AUTO 12004KT 7SM 26/24 A2980 RMK T02600240 IEM_DS3505
ZGNN,2000-05-24 03:00,ZGNN 240300Z AUTO 00000KT 12SM 27/24 A2977 RMK SLP076 T02670244 57003 IEM_DS3505
ZGNN,2000-05-24 04:00,ZGNN 240400Z AUTO 13004KT 7SM 29/24 A2974 RMK T02900240 IEM_DS3505
ZGNN,2000-05-24 05:00,ZGNN 240500Z AUTO 14006KT 7SM 30/24 A2974 RMK T03000240 IEM_DS3505
ZGNN,2000-05-24 06:00,ZGNN 240600Z AUTO 14004KT 19SM 29/24 A2971 RMK SLP055 T02940245 57020 IEM_DS3505
ZGNN,2000-05-24 07:00,ZGNN 240700Z AUTO 09008KT 7SM 29/25 A2968 RMK T02900250 IEM_DS3505
ZGNN,2000-05-24 08:00,ZGNN 240800Z AUTO 14012KT 7SM 30/24 A2965 RMK T03000240 IEM_DS3505
ZGNN,2000-05-24 09:00,ZGNN 240900Z AUTO 18004KT 19SM 27/24 A2965 RMK SLP039 T02730237 57017 IEM_DS3505
ZGNN,2000-05-24 10:00,ZGNN 241000Z AUTO 14008KT 6SM 28/24 A2965 RMK T02800240 IEM_DS3505
ZGNN,2000-05-24 11:00,ZGNN 241100Z AUTO 14006KT 6SM 28/24 A2965 RMK T02800240 IEM_DS3505
ZGNN,2000-05-24 12:00,ZGNN 241200Z AUTO 00000KT 19SM 27/24 RMK 60002 SLP035 T02710244 57004 IEM_DS3505
ZGNN,2000-05-24 13:00,ZGNN 241300Z AUTO 12004KT 6SM 26/24 A2968 RMK T02600240 IEM_DS3505
ZGNN,2000-05-24 15:00,ZGNN 241500Z AUTO 22004KT 16SM 25/24 RMK SLP050 T02500236 52015 IEM_DS3505
ZGNN,2000-05-24 18:00,ZGNN 241800Z AUTO 00000KT 12SM 24/23 RMK SLP039 T02370230 57010 IEM_DS3505
ZGNN,2000-05-24 21:00,ZGNN 242100Z AUTO 00000KT 12SM 23/23 RMK 70002 SLP036 T02310227 57004 IEM_DS3505
ZGNN,2000-05-24 22:00,ZGNN 242200Z AUTO 00000KT 7SM 23/23 A2965 RMK T02300230 IEM_DS3505
ZGNN,2000-05-24 23:00,ZGNN 242300Z AUTO 12004KT 7SM 24/23 A2965 RMK T02400230 IEM_DS3505
ZGNN,2000-05-25 00:00,ZGNN 250000Z AUTO 20004KT 7SM 25/24 A2968 RMK 70002 SLP041 T02520238 52006 IEM_DS3505
ZGNN,2000-05-25 01:00,ZGNN 250100Z AUTO 15004KT 7SM 27/24 A2968 RMK T02700240 IEM_DS3505
ZGNN,2000-05-25 02:00,ZGNN 250200Z AUTO 17004KT 7SM 29/24 A2968 RMK T02900240 IEM_DS3505
ZGNN,2000-05-25 03:00,ZGNN 250300Z AUTO 20004KT 19SM 29/24 A2965 RMK SLP036 T02920241 57005 IEM_DS3505
ZGNN,2000-05-25 04:00,ZGNN 250400Z AUTO 12008KT 7SM 31/24 RMK T03100240 IEM_DS3505
ZGNN,2000-05-25 05:00,ZGNN 250500Z AUTO 12008KT 7SM 33/25 A2962 RMK T03300250 IEM_DS3505
ZGNN,2000-05-25 06:00,ZGNN 250600Z AUTO 16004KT 19SM 32/25 A2959 RMK SLP012 T03200249 57023 IEM_DS3505
ZGNN,2000-05-25 07:00,ZGNN 250700Z AUTO 14010KT 7SM 33/25 A2956 RMK T03300250 IEM_DS3505
ZGNN,2000-05-25 08:00,ZGNN 250800Z AUTO 14014KT 7SM 33/25 A2956 RMK T03300250 IEM_DS3505
ZGNN,2000-05-25 09:00,ZGNN 250900Z AUTO 16006KT 19SM 32/26 A2953 RMK SLP994 T03160256 57018 IEM_DS3505
ZGNN,2000-05-25 10:00,ZGNN 251000Z AUTO 15008KT 7SM 31/26 A2953 RMK T03100260 IEM_DS3505
ZGNN,2000-05-25 11:00,ZGNN 251100Z AUTO 15012KT 7SM 30/26 A2956 RMK T03000260 IEM_DS3505
ZGNN,2000-05-25 12:00,ZGNN 251200Z AUTO 14004KT 19SM 28/25 A2959 RMK SLP010 T02850254 52015 IEM_DS3505
ZGNN,2000-05-25 13:00,ZGNN 251300Z AUTO 12008KT 7SM 28/25 A2959 RMK T02800250 IEM_DS3505
ZGNN,2000-05-25 15:00,ZGNN 251500Z AUTO 00000KT 19SM 27/25 RMK SLP023 T02680250 52014 IEM_DS3505
ZGNN,2000-05-25 18:00,ZGNN 251800Z AUTO 00000KT 17SM 25/24 RMK SLP016 T02530244 57007 IEM_DS3505
ZGNN,2000-05-25 21:00,ZGNN 252100Z AUTO 00000KT 16SM 25/24 RMK SLP013 T02470241 57003 IEM_DS3505
ZGNN,2000-05-25 22:00,ZGNN 252200Z AUTO 02004KT 7SM 24/24 A2959 RMK T02400240 IEM_DS3505
ZGNN,2000-05-25 23:00,ZGNN 252300Z AUTO 03004KT 6SM 25/24 A2959 RMK T02500240 IEM_DS3505
ZGNN,2000-05-26 00:00,ZGNN 260000Z AUTO 14004KT 12SM 26/25 A2962 RMK SLP022 T02650247 52009 IEM_DS3505
ZGNN,2000-05-26 01:00,ZGNN 260100Z AUTO 12010KT 7SM 29/25 A2962 RMK T02900250 IEM_DS3505
ZGNN,2000-05-26 02:00,ZGNN 260200Z AUTO 13008KT 7SM 31/25 A2962 RMK T03100250 IEM_DS3505
ZGNN,2000-05-26 03:00,ZGNN 260300Z AUTO 14006KT 19SM 31/25 A2962 RMK SLP027 T03120252 52005 IEM_DS3505
ZGNN,2000-05-26 04:00,ZGNN 260400Z AUTO 12006KT 7SM 33/25 A2962 RMK T03300250 IEM_DS3505
ZGNN,2000-05-26 05:00,ZGNN 260500Z AUTO 14006KT 7SM 34/25 A2959 RMK T03400250 IEM_DS3505
ZGNN,2000-05-26 06:00,ZGNN 260600Z AUTO 18006KT 19SM 33/26 A2956 RMK SLP005 T03310255 57021 IEM_DS3505
ZGNN,2000-05-26 07:00,ZGNN 260700Z AUTO 12010KT 7SM 34/25 A2953 RMK T03400250 IEM_DS3505
ZGNN,2000-05-26 08:00,ZGNN 260800Z AUTO 13010KT 7SM 33/26 A2953 RMK T03300260 IEM_DS3505
ZGNN,2000-05-26 09:00,ZGNN 260900Z AUTO 14008KT 19SM 33/26 A2953 RMK SLP990 T03270258 57015 IEM_DS3505
ZGNN,2000-05-26 10:00,ZGNN 261000Z AUTO 09008KT 7SM 30/26 A2953 RMK T03000260 IEM_DS3505
ZGNN,2000-05-26 11:00,ZGNN 261100Z AUTO 09006KT 7SM 30/26 A2953 RMK T03000260 IEM_DS3505
ZGNN,2000-05-26 12:00,ZGNN 261200Z AUTO 11004KT 12SM 29/25 A2953 RMK SLP001 T02910252 52010 IEM_DS3505
ZGNN,2000-05-26 13:00,ZGNN 261300Z AUTO 12008KT 7SM 28/25 A2959 RMK T02800250 IEM_DS3505
ZGNN,2000-05-26 15:00,ZGNN 261500Z AUTO 18002KT 12SM 28/25 RMK SLP027 T02760254 52026 IEM_DS3505
ZGNN,2000-05-26 18:00,ZGNN 261800Z AUTO 00000KT 12SM 27/25 RMK SLP021 T02660253 57005 IEM_DS3505
ZGNN,2000-05-26 21:00,ZGNN 262100Z AUTO 07002KT 12SM 26/25 RMK SLP022 T02640253 52001 IEM_DS3505
ZGNN,2000-05-26 22:00,ZGNN 262200Z AUTO 03006KT 7SM 26/25 A2965 RMK T02600250 IEM_DS3505
ZGNN,2000-05-26 23:00,ZGNN 262300Z AUTO 02006KT 7SM 26/25 A2965 RMK T02600250 IEM_DS3505
ZGNN,2000-05-27 00:00,ZGNN 270000Z AUTO 34008KT 12SM 26/24 A2968 RMK SLP049 T02600244 52025 IEM_DS3505
ZGNN,2000-05-27 01:00,ZGNN 270100Z AUTO 33008KT 7SM 25/24 A2971 RMK T02500240 IEM_DS3505
ZGNN,2000-05-27 02:00,ZGNN 270200Z AUTO 01008KT 7SM 26/24 A2971 RMK T02600240 IEM_DS3505
ZGNN,2000-05-27 03:00,ZGNN 270300Z AUTO 34004KT 19SM 27/24 A2971 RMK SLP053 T02690245 52004 IEM_DS3505
ZGNN,2000-05-27 04:00,ZGNN 270400Z AUTO 09004KT 7SM 29/25 A2971 RMK T02900250 IEM_DS3505
ZGNN,2000-05-27 06:00,ZGNN 270600Z AUTO 34010KT 12SM 29/25 RMK 60002 SLP042 T02920253 57010 IEM_DS3505
ZGNN,2000-05-27 08:00,ZGNN 270800Z AUTO 33014KT 7SM 29/25 A2962 RMK T02900250 IEM_DS3505
ZGNN,2000-05-27 09:00,ZGNN 270900Z AUTO 32006KT 12SM 29/25 A2962 RMK SLP027 T02900246 57015 IEM_DS3505
ZGNN,2000-05-27 10:00,ZGNN 271000Z AUTO 35006KT 7SM 29/24 A2965 RMK T02900240 IEM_DS3505
ZGNN,2000-05-27 11:00,ZGNN 271100Z AUTO 00000KT 7SM 28/25 A2968 RMK T02800250 IEM_DS3505
ZGNN,2000-05-27 12:00,ZGNN 271200Z AUTO 32004KT 12SM 27/25 A2968 RMK 60000 SLP046 T02700253 52018 IEM_DS3505
ZGNN,2000-05-27 13:00,ZGNN 271300Z AUTO 01004KT 7SM 27/25 A2968 RMK T02700250 IEM_DS3505
ZGNN,2000-05-27 15:00,ZGNN 271500Z AUTO 00000KT 9SM 26/25 RMK SLP063 T02620251 52017 IEM_DS3505
ZGNN,2000-05-27 18:00,ZGNN 271800Z AUTO 00000KT 8SM 25/25 RMK 60020 SLP057 T02540248 57006 IEM_DS3505
ZGNN,2000-05-27 21:00,ZGNN 272100Z AUTO 00000KT 7SM 25/25 RMK 70022 SLP064 T02540247 52007 IEM_DS3505
ZGNN,2000-05-27 22:00,ZGNN 272200Z AUTO 00000KT 2 1/2SM 25/25 A2974 RMK T02500250 IEM_DS3505
ZGNN,2000-05-27 23:00,ZGNN 272300Z AUTO 00000KT 1 1/2SM 26/24 A2977 RMK T02600240 IEM_DS3505
ZGNN,2000-05-28 00:00,ZGNN 280000Z AUTO 11002KT 4SM 26/25 A2977 RMK 60000 SLP075 T02560249 52010 IEM_DS3505
ZGNN,2000-05-28 01:00,ZGNN 280100Z AUTO 00000KT 2 1/2SM 26/25 A2980 RMK T02600250 IEM_DS3505
ZGNN,2000-05-28 02:00,ZGNN 280200Z AUTO 00000KT 7SM 28/25 A2980 RMK T02800250 IEM_DS3505
ZGNN,2000-05-28 03:00,ZGNN 280300Z AUTO 16004KT 12SM 28/25 A2980 RMK SLP079 T02840250 52005 IEM_DS3505
ZGNN,2000-05-28 05:00,ZGNN 280500Z AUTO 15006KT 7SM 31/25 A2974 RMK T03100250 IEM_DS3505
ZGNN,2000-05-28 06:00,ZGNN 280600Z AUTO 00000KT 19SM 30/25 A2971 RMK 60003 SLP056 T03040248 57023 IEM_DS3505
ZGNN,2000-05-28 07:00,ZGNN 280700Z AUTO 20006KT 1 1/4SM 23/23 A2977 RMK T02300230 IEM_DS3505
ZGNN,2000-05-28 08:00,ZGNN 280800Z AUTO 00000KT 7SM 24/24 A2971 RMK T02400240 IEM_DS3505
ZGNN,2000-05-28 09:00,ZGNN 280900Z AUTO 04002KT 16SM 24/24 A2968 RMK SLP049 T02420239 57008 IEM_DS3505
ZGNN,2000-05-28 10:00,ZGNN 281000Z AUTO 02006KT 7SM 25/25 A2971 RMK T02500250 IEM_DS3505
ZGNN,2000-05-28 11:00,ZGNN 281100Z AUTO 03006KT 7SM 25/25 A2971 RMK T02500250 IEM_DS3505
ZGNN,2000-05-28 12:00,ZGNN 281200Z AUTO 00000KT 12SM 25/25 A2974 RMK 60169 SLP060 T02490246 52011 IEM_DS3505
ZGNN,2000-05-28 13:00,ZGNN 281300Z AUTO 02006KT 4SM 25/24 A2974 RMK T02500240 IEM_DS3505
ZGNN,2000-05-28 15:00,ZGNN 281500Z AUTO 00000KT 12SM 25/24 RMK SLP081 T02480244 52021 IEM_DS3505
ZGNN,2000-05-28 18:00,ZGNN 281800Z AUTO 11002KT 12SM 25/25 RMK SLP070 T02500246 57010 IEM_DS3505
ZGNN,2000-05-28 21:00,ZGNN 282100Z AUTO 00000KT 7SM 25/25 A2977 RMK 70167 SLP070 T02510247 57001 IEM_DS3505
ZGNN,2000-05-28 22:00,ZGNN 282200Z AUTO 09004KT 2 1/2SM 25/25 A2977 RMK T02500250 IEM_DS3505
ZGNN,2000-05-28 23:00,ZGNN 282300Z AUTO 07004KT 4SM 25/25 A2980 RMK T02500250 IEM_DS3505
ZGNN,2000-05-29 00:00,ZGNN 290000Z AUTO 00000KT 4SM 26/25 A2980 RMK 70167 SLP084 T02580252 52014 IEM_DS3505
ZGNN,2000-05-29 01:00,ZGNN 290100Z AUTO 14008KT 7SM 27/25 A2980 RMK T02700250 IEM_DS3505
ZGNN,2000-05-29 02:00,ZGNN 290200Z AUTO 12012KT 7SM 29/26 A2980 RMK T02900260 IEM_DS3505
ZGNN,2000-05-29 03:00,ZGNN 290300Z AUTO 18004KT 14SM 29/25 A2980 RMK SLP088 T02920253 52004 IEM_DS3505
ZGNN,2000-05-29 04:00,ZGNN 290400Z AUTO 15004KT 6SM 30/25 A2977 RMK T03000250 IEM_DS3505
ZGNN,2000-05-29 05:00,ZGNN 290500Z AUTO 16008KT 3SM 26/23 A2974 RMK T02600230 IEM_DS3505
ZGNN,2000-05-29 06:00,ZGNN 290600Z AUTO 16004KT 12SM 25/24 A2974 RMK 60004 SLP066 T02540240 57022 IEM_DS3505
ZGNN,2000-05-29 07:00,ZGNN 290700Z AUTO 13004KT 7SM 26/24 A2974 RMK T02600240 IEM_DS3505
ZGNN,2000-05-29 08:00,ZGNN 290800Z AUTO 10004KT 7SM 26/24 A2974 RMK T02600240 IEM_DS3505
ZGNN,2000-05-29 09:00,ZGNN 290900Z AUTO 22002KT 19SM 26/24 A2971 RMK SLP054 T02600241 57012 IEM_DS3505
ZGNN,2000-05-29 10:00,ZGNN 291000Z AUTO 11008KT 7SM 26/24 A2971 RMK T02600240 IEM_DS3505
ZGNN,2000-05-29 11:00,ZGNN 291100Z AUTO 13004KT 7SM 26/25 A2971 RMK T02600250 IEM_DS3505
ZGNN,2000-05-29 12:00,ZGNN 291200Z AUTO 00000KT 17SM 26/24 A2971 RMK 60002 SLP058 T02560245 52004 IEM_DS3505
ZGNN,2000-05-29 13:00,ZGNN 291300Z AUTO 02004KT 7SM 25/24 A2974 RMK T02500240 IEM_DS3505
ZGNN,2000-05-29 15:00,ZGNN 291500Z AUTO 00000KT 16SM 25/25 RMK SLP077 T02530246 52020 IEM_DS3505
ZGNN,2000-05-29 18:00,ZGNN 291800Z AUTO 18004KT 12SM 26/25 RMK SLP073 T02580251 57005 IEM_DS3505
ZGNN,2000-05-29 21:00,ZGNN 292100Z AUTO 00000KT 12SM 26/25 RMK 70007 SLP066 T02550248 57007 IEM_DS3505
ZGNN,2000-05-29 22:00,ZGNN 292200Z AUTO 00000KT 4SM 25/25 A2977 RMK T02500250 IEM_DS3505
ZGNN,2000-05-29 23:00,ZGNN 292300Z AUTO 00000KT 4SM 26/25 A2977 RMK T02600250 IEM_DS3505
ZGNN,2000-05-30 00:00,ZGNN 300000Z AUTO 18006KT 12SM 27/26 A2977 RMK 70007 SLP077 T02740259 52011 IEM_DS3505
ZGNN,2000-05-30 01:00,ZGNN 300100Z AUTO 13010KT 7SM 29/25 A2980 RMK T02900250 IEM_DS3505
ZGNN,2000-05-30 02:00,ZGNN 300200Z AUTO 11004KT 7SM 30/24 A2980 RMK T03000240 IEM_DS3505
ZGNN,2000-05-30 03:00,ZGNN 300300Z AUTO 18006KT 19SM 30/24 A2980 RMK SLP075 T03030242 57001 IEM_DS3505
ZGNN,2000-05-30 04:00,ZGNN 300400Z AUTO 14008KT 7SM 32/25 A2977 RMK T03200250 IEM_DS3505
ZGNN,2000-05-30 05:00,ZGNN 300500Z AUTO 13010KT 7SM 32/24 A2974 RMK T03200240 IEM_DS3505
ZGNN,2000-05-30 06:00,ZGNN 300600Z AUTO 20008KT 19SM 32/25 A2971 RMK SLP050 T03190248 57024 IEM_DS3505
ZGNN,2000-05-30 07:00,ZGNN 300700Z AUTO 15010KT 7SM 32/25 A2968 RMK T03200250 IEM_DS3505
ZGNN,2000-05-30 08:00,ZGNN 300800Z AUTO 14010KT 7SM 32/25 A2968 RMK T03200250 IEM_DS3505
ZGNN,2000-05-30 09:00,ZGNN 300900Z AUTO 16002KT 19SM 29/25 A2965 RMK SLP040 T02920250 57011 IEM_DS3505
ZGNN,2000-05-30 10:00,ZGNN 301000Z AUTO 02006KT 7SM 26/25 A2968 RMK T02600250 IEM_DS3505
ZGNN,2000-05-30 12:00,ZGNN 301200Z AUTO 00000KT 16SM 26/26 A2971 RMK 60031 SLP056 T02650255 52016 IEM_DS3505
ZGNN,2000-05-30 13:00,ZGNN 301300Z AUTO 08002KT 6SM 27/25 A2974 RMK T02700250 IEM_DS3505
ZGNN,2000-05-30 14:00,ZGNN 301400Z AUTO 14004KT 6SM 26/25 A2974 RMK T02600250 IEM_DS3505
ZGNN,2000-05-30 15:00,ZGNN 301500Z AUTO 22004KT 12SM 26/24 A2977 RMK SLP069 T02650245 52013 IEM_DS3505
ZGNN,2000-05-30 18:00,ZGNN 301800Z AUTO 18002KT 12SM 26/24 RMK SLP063 T02630242 57005 IEM_DS3505
ZGNN,2000-05-30 21:00,ZGNN 302100Z AUTO 00000KT 11SM 25/24 A2974 RMK 70032 SLP062 T02540245 57002 IEM_DS3505
ZGNN,2000-05-30 22:00,ZGNN 302200Z AUTO 33002KT 7SM 25/24 A2974 RMK T02500240 IEM_DS3505
ZGNN,2000-05-30 23:00,ZGNN 302300Z AUTO 02002KT 6SM 25/24 A2977 RMK T02500240 IEM_DS3505
ZGNN,2000-05-31 00:00,ZGNN 310000Z AUTO 09004KT 5SM 27/25 A2980 RMK 70032 SLP080 T02670253 52017 IEM_DS3505
ZGNN,2000-05-31 01:00,ZGNN 310100Z AUTO 08006KT 7SM 28/25 A2980 RMK T02800250 IEM_DS3505
ZGNN,2000-05-31 02:00,ZGNN 310200Z AUTO 13006KT 7SM 30/25 A2980 RMK T03000250 IEM_DS3505
ZGNN,2000-05-31 03:00,ZGNN 310300Z AUTO 18004KT 12SM 30/25 A2980 RMK SLP085 T02960250 52006 IEM_DS3505
ZGNN,2000-05-31 04:00,ZGNN 310400Z AUTO 12008KT 7SM 31/24 A2980 RMK T03100240 IEM_DS3505
ZGNN,2000-05-31 05:00,ZGNN 310500Z AUTO 08008KT 7SM 32/24 A2977 RMK T03200240 IEM_DS3505
ZGNN,2000-05-31 06:00,ZGNN 310600Z AUTO 16006KT 19SM 32/24 A2974 RMK SLP057 T03190243 57027 IEM_DS3505
ZGNN,2000-05-31 07:00,ZGNN 310700Z AUTO 12008KT 7SM 33/24 A2971 RMK T03300240 IEM_DS3505
ZGNN,2000-05-31 08:00,ZGNN 310800Z AUTO 11008KT 7SM 33/23 A2965 RMK T03300230 IEM_DS3505
ZGNN,2000-05-31 09:00,ZGNN 310900Z AUTO 18004KT 19SM 33/24 A2965 RMK SLP034 T03260242 57023 IEM_DS3505
ZGNN,2000-05-31 10:00,ZGNN 311000Z AUTO 15012KT 7SM 32/24 A2965 RMK T03200240 IEM_DS3505
ZGNN,2000-05-31 11:00,ZGNN 311100Z AUTO 15010KT 6SM 31/23 A2965 RMK T03100230 IEM_DS3505
ZGNN,2000-05-31 12:00,ZGNN 311200Z AUTO 18004KT 19SM 29/23 A2965 RMK SLP039 T02900229 52005 IEM_DS3505
ZGNN,2000-05-31 13:00,ZGNN 311300Z AUTO 00000KT 7SM 27/21 A2968 RMK T02700210 IEM_DS3505
ZGNN,2000-05-31 15:00,ZGNN 311500Z AUTO 00000KT 19SM 27/22 RMK SLP065 T02660222 52025 IEM_DS3505
ZGNN,2000-05-31 18:00,ZGNN 311800Z AUTO 00000KT 19SM 26/23 RMK SLP061 T02620233 57003 IEM_DS3505
ZGNN,2000-05-31 21:00,ZGNN 312100Z AUTO 09004KT 12SM 26/24 RMK SLP048 T02550242 57013 IEM_DS3505
ZGNN,2000-05-31 23:00,ZGNN 312300Z AUTO 07006KT 7SM 26/25 A2977 RMK T02600250 IEM_DS3505
ZGNN,2000-06-01 00:00,ZGNN 010000Z AUTO 14004KT 12SM 27/25 A2977 RMK SLP075 T02740247 52026 IEM_DS3505
ZGNN,2000-06-01 01:00,ZGNN 010100Z AUTO 08010KT 7SM 29/24 A2977 RMK T02900240 IEM_DS3505
ZGNN,2000-06-01 02:00,ZGNN 010200Z AUTO 14016KT 7SM 29/24 A2980 RMK T02900240 IEM_DS3505
ZGNN,2000-06-01 03:00,ZGNN 010300Z AUTO 18004KT 16SM 26/25 A2980 RMK SLP082 T02640250 52006 IEM_DS3505
ZGNN,2000-06-01 04:00,ZGNN 010400Z AUTO 00000KT 7SM 29/25 A2980 RMK T02900250 IEM_DS3505
ZGNN,2000-06-01 05:00,ZGNN 010500Z AUTO 15006KT 7SM 31/26 A2977 RMK T03100260 IEM_DS3505
ZGNN,2000-06-01 06:00,ZGNN 010600Z AUTO 20004KT 19SM 30/26 A2974 RMK 60008 SLP061 T03050255 57020 IEM_DS3505
ZGNN,2000-06-01 07:00,ZGNN 010700Z AUTO 18010KT 7SM 30/25 A2971 RMK T03000250 IEM_DS3505
ZGNN,2000-06-01 08:00,ZGNN 010800Z AUTO 15008KT 7SM 31/26 A2971 RMK T03100260 IEM_DS3505
ZGNN,2000-06-01 09:00,ZGNN 010900Z AUTO 07010KT 7SM 27/24 A2971 RMK T02700240 IEM_DS3505
ZGNN,2000-06-01 10:00,ZGNN 011000Z AUTO 10004KT 7SM 28/25 A2971 RMK T02800250 IEM_DS3505
ZGNN,2000-06-01 11:00,ZGNN 011100Z AUTO 13008KT 7SM 28/25 A2971 RMK T02800250 IEM_DS3505
ZGNN,2000-06-01 12:00,ZGNN 011200Z AUTO 14002KT 19SM 28/25 A2971 RMK 60008 SLP057 T02760254 52002 IEM_DS3505
ZGNN,2000-06-01 13:00,ZGNN 011300Z AUTO 12004KT 7SM 27/25 A2974 RMK T02700250 IEM_DS3505
ZGNN,2000-06-01 14:00,ZGNN 011400Z AUTO 13006KT 7SM 27/25 A2977 RMK T02700250 IEM_DS3505
ZGNN,2000-06-01 15:00,ZGNN 011500Z AUTO 00000KT 16SM 26/25 RMK SLP080 T02640250 52022 IEM_DS3505
ZGNN,2000-06-01 18:00,ZGNN 011800Z AUTO 09004KT 12SM 26/25 RMK 60003 SLP075 T02620251 57004 IEM_DS3505
ZGNN,2000-06-01 21:00,ZGNN 012100Z AUTO 11002KT 12SM 26/24 A2977 RMK 70014 SLP074 T02600243 57002 IEM_DS3505
ZGNN,2000-06-01 22:00,ZGNN 012200Z AUTO 12004KT 7SM 26/24 A2977 RMK T02600240 IEM_DS3505
ZGNN,2000-06-01 23:00,ZGNN 012300Z AUTO 09004KT 7SM 27/25 A2980 RMK T02700250 IEM_DS3505
ZGNN,2000-06-02 00:00,ZGNN 020000Z AUTO 14004KT 19SM 27/24 A2980 RMK 70014 SLP084 T02740243 52011 IEM_DS3505
ZGNN,2000-06-02 01:00,ZGNN 020100Z AUTO 11008KT 7SM 28/25 A2983 RMK T02800250 IEM_DS3505
ZGNN,2000-06-02 02:00,ZGNN 020200Z AUTO 13012KT 7SM 28/25 A2983 RMK T02800250 IEM_DS3505
ZGNN,2000-06-02 03:00,ZGNN 020300Z AUTO 14008KT 19SM 30/24 A2983 RMK SLP089 T02960245 52005 IEM_DS3505
ZGNN,2000-06-02 04:00,ZGNN 020400Z AUTO 16008KT 7SM 27/26 A2983 RMK T02700260 IEM_DS3505
ZGNN,2000-06-02 05:00,ZGNN 020500Z AUTO 15012KT 7SM 30/27 A2980 RMK T03000270 IEM_DS3505
ZGNN,2000-06-02 06:00,ZGNN 020600Z AUTO 14012KT 7SM 32/25 A2977 RMK T03200250 IEM_DS3505
ZGNN,2000-06-02 07:00,ZGNN 020700Z AUTO 14016KT 7SM 32/23 A2977 RMK T03200230 IEM_DS3505
ZGNN,2000-06-02 08:00,ZGNN 020800Z AUTO 15012KT 7SM 32/23 A2974 RMK T03200230 IEM_DS3505
ZGNN,2000-06-02 09:00,ZGNN 020900Z AUTO 18008KT 19SM 30/23 A2974 RMK SLP062 T03040228 57014 IEM_DS3505
ZGNN,2000-06-02 10:00,ZGNN 021000Z AUTO 15012KT 7SM 30/22 A2974 RMK T03000220 IEM_DS3505
ZGNN,2000-06-02 11:00,ZGNN 021100Z AUTO 14010KT 7SM 29/23 A2974 RMK T02900230 IEM_DS3505
ZGNN,2000-06-02 12:00,ZGNN 021200Z AUTO 14004KT 19SM 28/24 A2977 RMK SLP068 T02830237 52006 IEM_DS3505
ZGNN,2000-06-02 13:00,ZGNN 021300Z AUTO 13008KT 6SM 27/24 A2977 RMK T02700240 IEM_DS3505
ZGNN,2000-06-02 14:00,ZGNN 021400Z AUTO 16006KT 6SM 26/24 A2980 RMK T02600240 IEM_DS3505
ZGNN,2000-06-02 15:00,ZGNN 021500Z AUTO 00000KT 17SM 27/24 RMK SLP094 T02670243 52026 IEM_DS3505
ZGNN,2000-06-02 18:00,ZGNN 021800Z AUTO 14002KT 19SM 27/25 RMK 60002 SLP089 T02660248 57005 IEM_DS3505
ZGNN,2000-06-02 21:00,ZGNN 022100Z AUTO 14004KT 19SM 26/24 RMK 70039 SLP085 T02620243 57004 IEM_DS3505
ZGNN,2000-06-02 22:00,ZGNN 022200Z AUTO 12008KT 7SM 26/24 A2983 RMK T02600240 IEM_DS3505
ZGNN,2000-06-02 23:00,ZGNN 022300Z AUTO 12010KT 7SM 26/24 A2983 RMK T02600240 IEM_DS3505
ZGNN,2000-06-03 00:00,ZGNN 030000Z AUTO 14006KT 19SM 27/24 A2985 RMK 70039 SLP099 T02700241 52014 IEM_DS3505
ZGNN,2000-06-03 01:00,ZGNN 030100Z AUTO 14012KT 7SM 28/25 A2985 RMK T02800250 IEM_DS3505
ZGNN,2000-06-03 02:00,ZGNN 030200Z AUTO 14010KT 7SM 30/24 A2985 RMK T03000240 IEM_DS3505
ZGNN,2000-06-03 03:00,ZGNN 030300Z AUTO 18006KT 19SM 30/24 A2985 RMK SLP101 T02990244 52002 IEM_DS3505
ZGNN,2000-06-03 04:00,ZGNN 030400Z AUTO 15010KT 7SM 32/24 A2983 RMK T03200240 IEM_DS3505
ZGNN,2000-06-03 05:00,ZGNN 030500Z AUTO 21004KT 7SM 27/25 A2983 RMK T02700250 IEM_DS3505
ZGNN,2000-06-03 06:00,ZGNN 030600Z AUTO 11014KT 7SM 29/24 A2980 RMK T02900240 IEM_DS3505
ZGNN,2000-06-03 07:00,ZGNN 030700Z AUTO 00000KT 7SM 30/24 A2980 RMK T03000240 IEM_DS3505
ZGNN,2000-06-03 09:00,ZGNN 030900Z AUTO 18004KT 19SM 32/25 A2974 RMK SLP066 T03200253 57021 IEM_DS3505
ZGNN,2000-06-03 10:00,ZGNN 031000Z AUTO 14012KT 7SM 32/24 A2974 RMK T03200240 IEM_DS3505
ZGNN,2000-06-03 11:00,ZGNN 031100Z AUTO 14010KT 7SM 30/24 A2974 RMK T03000240 IEM_DS3505
ZGNN,2000-06-03 12:00,ZGNN 031200Z AUTO 18004KT 19SM 29/24 A2977 RMK SLP070 T02920239 52003 IEM_DS3505
ZGNN,2000-06-03 13:00,ZGNN 031300Z AUTO 14006KT 6SM 27/24 A2977 RMK T02700240 IEM_DS3505
ZGNN,2000-06-03 14:00,ZGNN 031400Z AUTO 00000KT 6SM 27/24 A2980 RMK T02700240 IEM_DS3505
ZGNN,2000-06-03 15:00,ZGNN 031500Z AUTO 18002KT 17SM 26/24 A2983 RMK SLP089 T02640244 52019 IEM_DS3505
ZGNN,2000-06-03 18:00,ZGNN 031800Z AUTO 00000KT 15SM 25/24 RMK SLP083 T02530240 57006 IEM_DS3505
ZGNN,2000-06-03 21:00,ZGNN 032100Z AUTO 00000KT 12SM 23/23 A2980 RMK 70003 SLP088 T02330226 52005 IEM_DS3505
ZGNN,2000-06-03 22:00,ZGNN 032200Z AUTO 00000KT 6SM 23/22 A2983 RMK T02300220 IEM_DS3505
ZGNN,2000-06-03 23:00,ZGNN 032300Z AUTO 00000KT 7SM 24/23 A2983 RMK T02400230 IEM_DS3505
ZGNN,2000-06-04 00:00,ZGNN 040000Z AUTO 00000KT 11SM 26/23 A2985 RMK 70003 SLP100 T02560234 52011 IEM_DS3505
ZGNN,2000-06-04 01:00,ZGNN 040100Z AUTO 16004KT 6SM 28/23 A2985 RMK T02800230 IEM_DS3505
ZGNN,2000-06-04 02:00,ZGNN 040200Z AUTO 19006KT 7SM 30/24 A2985 RMK T03000240 IEM_DS3505
ZGNN,2000-06-04 03:00,ZGNN 040300Z AUTO 18004KT 19SM 30/24 A2985 RMK SLP100 T02980235 52001 IEM_DS3505
ZGNN,2000-06-04 04:00,ZGNN 040400Z AUTO 23008KT 7SM 31/22 A2985 RMK T03100220 IEM_DS3505
ZGNN,2000-06-04 05:00,ZGNN 040500Z AUTO 24004KT 7SM 33/23 A2983 RMK T03300230 IEM_DS3505
ZGNN,2000-06-04 06:00,ZGNN 040600Z AUTO 18006KT 19SM 32/23 A2980 RMK SLP081 T03220227 57019 IEM_DS3505
ZGNN,2000-06-04 07:00,ZGNN 040700Z AUTO 19006KT 7SM 34/22 A2977 RMK T03400220 IEM_DS3505
ZGNN,2000-06-04 08:00,ZGNN 040800Z AUTO 20006KT 7SM 34/22 A2974 RMK T03400220 IEM_DS3505
ZGNN,2000-06-04 09:00,ZGNN 040900Z AUTO 22004KT 19SM 34/23 A2971 RMK SLP053 T03360231 57027 IEM_DS3505
ZGNN,2000-06-04 10:00,ZGNN 041000Z AUTO 19008KT 7SM 33/22 A2971 RMK T03300220 IEM_DS3505
ZGNN,2000-06-04 11:00,ZGNN 041100Z AUTO 14006KT 7SM 32/24 A2971 RMK T03200240 IEM_DS3505
ZGNN,2000-06-04 12:00,ZGNN 041200Z AUTO 16002KT 19SM 31/25 A2974 RMK SLP060 T03070248 52006 IEM_DS3505
ZGNN,2000-06-04 13:00,ZGNN 041300Z AUTO 14006KT 6SM 29/24 A2974 RMK T02900240 IEM_DS3505
ZGNN,2000-06-04 15:00,ZGNN 041500Z AUTO 00000KT 19SM 28/24 RMK SLP073 T02790243 52014 IEM_DS3505
ZGNN,2000-06-04 18:00,ZGNN 041800Z AUTO 00000KT 16SM 25/24 RMK SLP061 T02510240 57012 IEM_DS3505
ZGNN,2000-06-04 21:00,ZGNN 042100Z AUTO 00000KT 12SM 24/23 A2977 RMK SLP072 T02420233 52011 IEM_DS3505
ZGNN,2000-06-04 22:00,ZGNN 042200Z AUTO 00000KT 6SM 24/23 A2980 RMK T02400230 IEM_DS3505
ZGNN,2000-06-04 23:00,ZGNN 042300Z AUTO 00000KT 6SM 25/24 A2980 RMK T02500240 IEM_DS3505
ZGNN,2000-06-05 00:00,ZGNN 050000Z AUTO 25002KT 11SM 26/24 A2980 RMK SLP086 T02620243 52013 IEM_DS3505
ZGNN,2000-06-05 01:00,ZGNN 050100Z AUTO 19006KT 6SM 29/23 A2983 RMK T02900230 IEM_DS3505
ZGNN,2000-06-05 02:00,ZGNN 050200Z AUTO 19008KT 7SM 29/24 A2980 RMK T02900240 IEM_DS3505
ZGNN,2000-06-05 03:00,ZGNN 050300Z AUTO 20006KT 19SM 30/24 A2980 RMK SLP080 T03000236 57006 IEM_DS3505
ZGNN,2000-06-05 04:00,ZGNN 050400Z AUTO 21008KT 7SM 32/22 A2977 RMK T03200220 IEM_DS3505
ZGNN,2000-06-05 05:00,ZGNN 050500Z AUTO 17004KT 7SM 33/23 A2977 RMK T03300230 IEM_DS3505
ZGNN,2000-06-05 06:00,ZGNN 050600Z AUTO 20006KT 19SM 32/23 A2974 RMK SLP057 T03250232 57022 IEM_DS3505
ZGNN,2000-06-05 07:00,ZGNN 050700Z AUTO 13006KT 7SM 34/23 A2971 RMK T03400230 IEM_DS3505
ZGNN,2000-06-05 08:00,ZGNN 050800Z AUTO 13008KT 7SM 34/23 A2968 RMK T03400230 IEM_DS3505
ZGNN,2000-06-05 09:00,ZGNN 050900Z AUTO 16004KT 19SM 34/24 A2965 RMK SLP035 T03430237 57022 IEM_DS3505
ZGNN,2000-06-05 10:00,ZGNN 051000Z AUTO 14010KT 7SM 33/24 A2965 RMK T03300240 IEM_DS3505
ZGNN,2000-06-05 11:00,ZGNN 051100Z AUTO 12008KT 7SM 31/24 A2965 RMK T03100240 IEM_DS3505
ZGNN,2000-06-05 12:00,ZGNN 051200Z AUTO 14004KT 19SM 30/25 A2968 RMK SLP040 T03020247 52005 IEM_DS3505
ZGNN,2000-06-05 13:00,ZGNN 051300Z AUTO 14008KT 6SM 28/24 A2968 RMK T02800240 IEM_DS3505
ZGNN,2000-06-05 15:00,ZGNN 051500Z AUTO 20002KT 16SM 27/24 RMK SLP059 T02720244 52019 IEM_DS3505
ZGNN,2000-06-05 18:00,ZGNN 051800Z AUTO 25004KT 16SM 26/24 RMK SLP055 T02580244 57004 IEM_DS3505
ZGNN,2000-06-05 21:00,ZGNN 052100Z AUTO 27004KT 11SM 25/24 RMK SLP057 T02460237 52002 IEM_DS3505
ZGNN,2000-06-05 22:00,ZGNN 052200Z AUTO 00000KT 7SM 24/24 A2974 RMK T02400240 IEM_DS3505
ZGNN,2000-06-05 23:00,ZGNN 052300Z AUTO 00000KT 6SM 25/24 A2974 RMK T02500240 IEM_DS3505
ZGNN,2000-06-06 00:00,ZGNN 060000Z AUTO 00000KT 10SM 26/25 RMK SLP070 T02620246 52012 IEM_DS3505
ZGNN,2000-06-06 01:00,ZGNN 060100Z AUTO 17004KT 6SM 29/24 A2977 RMK T02900240 IEM_DS3505
ZGNN,2000-06-06 02:00,ZGNN 060200Z AUTO 21008KT 6SM 31/23 A2977 RMK T03100230 IEM_DS3505
ZGNN,2000-06-06 03:00,ZGNN 060300Z AUTO 16006KT 16SM 30/24 A2977 RMK SLP069 T03050235 54000 IEM_DS3505
ZGNN,2000-06-06 04:00,ZGNN 060400Z AUTO 23008KT 7SM 32/24 A2974 RMK T03200240 IEM_DS3505
ZGNN,2000-06-06 05:00,ZGNN 060500Z AUTO 18012KT 7SM 33/24 A2974 RMK T03300240 IEM_DS3505
ZGNN,2000-06-06 06:00,ZGNN 060600Z AUTO 22008KT 19SM 34/24 A2971 RMK SLP049 T03400245 57020 IEM_DS3505
ZGNN,2000-06-06 07:00,ZGNN 060700Z AUTO 13008KT 7SM 35/24 A2968 RMK T03500240 IEM_DS3505
ZGNN,2000-06-06 08:00,ZGNN 060800Z AUTO 15008KT 7SM 33/25 A2965 RMK T03300250 IEM_DS3505
ZGNN,2000-06-06 09:00,ZGNN 060900Z AUTO 22008KT 19SM 33/25 A2965 RMK SLP029 T03300246 57020 IEM_DS3505
ZGNN,2000-06-06 10:00,ZGNN 061000Z AUTO 13010KT 7SM 32/25 A2965 RMK T03200250 IEM_DS3505
ZGNN,2000-06-06 11:00,ZGNN 061100Z AUTO 12008KT 7SM 31/25 A2965 RMK T03100250 IEM_DS3505
ZGNN,2000-06-06 12:00,ZGNN 061200Z AUTO 16008KT 19SM 30/25 A2968 RMK 60001 SLP035 T02980247 52006 IEM_DS3505
ZGNN,2000-06-06 13:00,ZGNN 061300Z AUTO 13006KT 7SM 28/25 A2971 RMK T02800250 IEM_DS3505
ZGNN,2000-06-06 15:00,ZGNN 061500Z AUTO 18004KT 17SM 28/25 RMK SLP060 T02750248 52025 IEM_DS3505
ZGNN,2000-06-06 18:00,ZGNN 061800Z AUTO 00000KT 14SM 26/25 RMK SLP059 T02580247 57001 IEM_DS3505
ZGNN,2000-06-06 21:00,ZGNN 062100Z AUTO 00000KT 14SM 25/24 A2971 RMK 70001 SLP052 T02460237 57007 IEM_DS3505
ZGNN,2000-06-06 22:00,ZGNN 062200Z AUTO 00000KT 6SM 25/24 A2971 RMK T02500240 IEM_DS3505
ZGNN,2000-06-06 23:00,ZGNN 062300Z AUTO 00000KT 6SM 26/24 A2974 RMK T02600240 IEM_DS3505
ZGNN,2000-06-07 00:00,ZGNN 070000Z AUTO 00000KT 17SM 27/24 A2977 RMK 70001 SLP067 T02720241 52014 IEM_DS3505
ZGNN,2000-06-07 01:00,ZGNN 070100Z AUTO 00000KT 7SM 29/24 A2977 RMK T02900240 IEM_DS3505
ZGNN,2000-06-07 02:00,ZGNN 070200Z AUTO 07006KT 7SM 31/24 A2977 RMK T03100240 IEM_DS3505
ZGNN,2000-06-07 03:00,ZGNN 070300Z AUTO 16004KT 19SM 31/24 A2977 RMK SLP069 T03070236 52003 IEM_DS3505
ZGNN,2000-06-07 04:00,ZGNN 070400Z AUTO 00000KT 7SM 32/23 A2977 RMK T03200230 IEM_DS3505
ZGNN,2000-06-07 05:00,ZGNN 070500Z AUTO 15006KT 7SM 33/24 A2974 RMK T03300240 IEM_DS3505
ZGNN,2000-06-07 06:00,ZGNN 070600Z AUTO 20006KT 19SM 33/24 A2971 RMK SLP052 T03340240 57017 IEM_DS3505
ZGNN,2000-06-07 07:00,ZGNN 070700Z AUTO 15012KT 7SM 35/24 A2968 RMK T03500240 IEM_DS3505
ZGNN,2000-06-07 08:00,ZGNN 070800Z AUTO 15016KT 7SM 35/25 A2965 RMK T03500250 IEM_DS3505
ZGNN,2000-06-07 09:00,ZGNN 070900Z AUTO 18008KT 19SM 34/25 A2965 RMK SLP031 T03390250 57021 IEM_DS3505
ZGNN,2000-06-07 10:00,ZGNN 071000Z AUTO 14017KT 7SM 32/24 A2965 RMK T03200240 IEM_DS3505
ZGNN,2000-06-07 11:00,ZGNN 071100Z AUTO 13017KT 6SM 31/25 A2965 RMK T03100250 IEM_DS3505
ZGNN,2000-06-07 12:00,ZGNN 071200Z AUTO 18008KT 16SM 30/25 A2968 RMK SLP041 T02970246 52010 IEM_DS3505
ZGNN,2000-06-07 13:00,ZGNN 071300Z AUTO 15008KT 6SM 29/25 A2971 RMK T02900250 IEM_DS3505
ZGNN,2000-06-07 15:00,ZGNN 071500Z AUTO 22004KT 16SM 28/24 RMK SLP059 T02750242 52018 IEM_DS3505
ZGNN,2000-06-07 18:00,ZGNN 071800Z AUTO 20002KT 14SM 27/24 RMK SLP055 T02660243 57004 IEM_DS3505
ZGNN,2000-06-07 21:00,ZGNN 072100Z AUTO 25002KT 12SM 27/25 RMK SLP053 T02660248 57002 IEM_DS3505
ZGNN,2000-06-07 22:00,ZGNN 072200Z AUTO 00000KT 7SM 26/24 A2974 RMK T02600240 IEM_DS3505
ZGNN,2000-06-07 23:00,ZGNN 072300Z AUTO 00000KT 7SM 26/25 A2974 RMK T02600250 IEM_DS3505
ZGNN,2000-06-08 00:00,ZGNN 080000Z AUTO 16002KT 14SM 28/25 A2974 RMK SLP063 T02800250 52010 IEM_DS3505
ZGNN,2000-06-08 01:00,ZGNN 080100Z AUTO 12008KT 6SM 30/25 A2974 RMK T03000250 IEM_DS3505
ZGNN,2000-06-08 02:00,ZGNN 080200Z AUTO 14006KT 7SM 31/24 A2974 RMK T03100240 IEM_DS3505
ZGNN,2000-06-08 03:00,ZGNN 080300Z AUTO 18006KT 19SM 31/24 A2974 RMK SLP065 T03110240 52002 IEM_DS3505
ZGNN,2000-06-08 04:00,ZGNN 080400Z AUTO 15016KT 7SM 33/25 A2974 RMK T03300250 IEM_DS3505
ZGNN,2000-06-08 05:00,ZGNN 080500Z AUTO 19008KT 7SM 34/24 A2971 RMK T03400240 IEM_DS3505
ZGNN,2000-06-08 06:00,ZGNN 080600Z AUTO 14006KT 19SM 32/24 A2968 RMK SLP043 T03240244 57022 IEM_DS3505
ZGNN,2000-06-08 08:00,ZGNN 080800Z AUTO 13012KT 7SM 33/25 A2962 RMK T03300250 IEM_DS3505
ZGNN,2000-06-08 09:00,ZGNN 080900Z AUTO 18006KT 19SM 32/25 A2962 RMK SLP021 T03250250 57021 IEM_DS3505
ZGNN,2000-06-08 10:00,ZGNN 081000Z AUTO 13012KT 7SM 31/25 A2962 RMK T03100250 IEM_DS3505
ZGNN,2000-06-08 11:00,ZGNN 081100Z AUTO 14008KT 7SM 30/25 A2962 RMK T03000250 IEM_DS3505
ZGNN,2000-06-08 12:00,ZGNN 081200Z AUTO 11004KT 19SM 30/26 A2965 RMK SLP034 T02970258 52012 IEM_DS3505
ZGNN,2000-06-08 13:00,ZGNN 081300Z AUTO 13004KT 7SM 29/25 A2968 RMK T02900250 IEM_DS3505
ZGNN,2000-06-08 15:00,ZGNN 081500Z AUTO 22004KT 19SM 28/26 RMK SLP051 T02800258 52017 IEM_DS3505
ZGNN,2000-06-08 18:00,ZGNN 081800Z AUTO 00000KT 19SM 27/25 RMK SLP039 T02710251 57012 IEM_DS3505
ZGNN,2000-06-08 21:00,ZGNN 082100Z AUTO 00000KT 16SM 27/25 A2968 RMK SLP039 T02690248 54000 IEM_DS3505
ZGNN,2000-06-08 22:00,ZGNN 082200Z AUTO 00000KT 7SM 27/25 A2968 RMK T02700250 IEM_DS3505
ZGNN,2000-06-08 23:00,ZGNN 082300Z AUTO 02002KT 7SM 27/25 A2968 RMK T02700250 IEM_DS3505
ZGNN,2000-06-09 00:00,ZGNN 090000Z AUTO 00000KT 12SM 27/25 A2971 RMK SLP050 T02720254 52011 IEM_DS3505
ZGNN,2000-06-09 01:00,ZGNN 090100Z AUTO 14006KT 7SM 28/25 A2971 RMK T02800250 IEM_DS3505
ZGNN,2000-06-09 02:00,ZGNN 090200Z AUTO 14006KT 7SM 29/25 A2968 RMK T02900250 IEM_DS3505
ZGNN,2000-06-09 03:00,ZGNN 090300Z AUTO 14006KT 19SM 29/26 A2968 RMK SLP047 T02940256 57003 IEM_DS3505
ZGNN,2000-06-09 04:00,ZGNN 090400Z AUTO 14008KT 7SM 30/25 A2968 RMK T03000250 IEM_DS3505
ZGNN,2000-06-09 05:00,ZGNN 090500Z AUTO 16008KT 7SM 31/26 A2965 RMK T03100260 IEM_DS3505
ZGNN,2000-06-09 06:00,ZGNN 090600Z AUTO 14004KT 19SM 31/26 A2962 RMK SLP024 T03090259 57023 IEM_DS3505
ZGNN,2000-06-09 07:00,ZGNN 090700Z AUTO 15008KT 7SM 31/25 A2962 RMK T03100250 IEM_DS3505
ZGNN,2000-06-09 08:00,ZGNN 090800Z AUTO 13010KT 7SM 32/26 A2959 RMK T03200260 IEM_DS3505
ZGNN,2000-06-09 09:00,ZGNN 090900Z AUTO 14008KT 19SM 31/25 A2959 RMK SLP012 T03070253 57012 IEM_DS3505
ZGNN,2000-06-09 10:00,ZGNN 091000Z AUTO 12010KT 7SM 29/26 A2959 RMK T02900260 IEM_DS3505
ZGNN,2000-06-09 11:00,ZGNN 091100Z AUTO 13006KT 7SM 29/26 A2959 RMK T02900260 IEM_DS3505
ZGNN,2000-06-09 12:00,ZGNN 091200Z AUTO 14004KT 16SM 29/26 A2962 RMK 60004 SLP026 T02860255 52014 IEM_DS3505
ZGNN,2000-06-09 13:00,ZGNN 091300Z AUTO 15008KT 7SM 28/25 A2965 RMK T02800250 IEM_DS3505
ZGNN,2000-06-09 15:00,ZGNN 091500Z AUTO 18006KT 12SM 28/25 RMK SLP036 T02760251 52010 IEM_DS3505
ZGNN,2000-06-09 15:10,ZGNN 091510Z AUTO 15006KT 7SM 27/26 A2965 RMK T02700260 IEM_DS3505
ZGNN,2000-06-09 16:00,ZGNN 091600Z AUTO 16004KT 7SM 27/25 A2965 RMK T02700250 IEM_DS3505
ZGNN,2000-06-09 18:00,ZGNN 091800Z AUTO 14004KT 12SM 27/25 RMK 60003 SLP030 T02700250 57006 IEM_DS3505
ZGNN,2000-06-09 21:00,ZGNN 092100Z AUTO 18002KT 12SM 27/25 RMK 70004 SLP029 T02700252 57001 IEM_DS3505
ZGNN,2000-06-09 22:00,ZGNN 092200Z AUTO 00000KT 6SM 27/25 A2962 RMK T02700250 IEM_DS3505
ZGNN,2000-06-09 23:00,ZGNN 092300Z AUTO 00000KT 6SM 27/25 A2965 RMK T02700250 IEM_DS3505
ZGNN,2000-06-10 00:00,ZGNN 100000Z AUTO 18004KT 16SM 28/25 A2965 RMK 70004 SLP034 T02780253 52005 IEM_DS3505
ZGNN,2000-06-10 01:00,ZGNN 100100Z AUTO 14006KT 6SM 30/25 A2965 RMK T03000250 IEM_DS3505
ZGNN,2000-06-10 02:00,ZGNN 100200Z AUTO 16010KT 6SM 31/25 A2968 RMK T03100250 IEM_DS3505
ZGNN,2000-06-10 03:00,ZGNN 100300Z AUTO 16004KT 19SM 30/26 A2965 RMK SLP036 T03040257 52002 IEM_DS3505
ZGNN,2000-06-10 04:00,ZGNN 100400Z AUTO 15010KT 7SM 33/25 A2965 RMK T03300250 IEM_DS3505
ZGNN,2000-06-10 05:00,ZGNN 100500Z AUTO 14008KT 7SM 33/25 A2962 RMK T03300250 IEM_DS3505
ZGNN,2000-06-10 06:00,ZGNN 100600Z AUTO 16008KT 19SM 32/25 A2962 RMK SLP018 T03220252 57017 IEM_DS3505
ZGNN,2000-06-10 07:00,ZGNN 100700Z AUTO 15010KT 7SM 32/26 A2959 RMK T03200260 IEM_DS3505
ZGNN,2000-06-10 08:00,ZGNN 100800Z AUTO 15008KT 7SM 32/26 A2959 RMK T03200260 IEM_DS3505
ZGNN,2000-06-10 09:00,ZGNN 100900Z AUTO 14004KT 19SM 31/26 A2956 RMK SLP006 T03120257 57012 IEM_DS3505
ZGNN,2000-06-10 10:00,ZGNN 101000Z AUTO 14010KT 7SM 31/25 A2956 RMK T03100250 IEM_DS3505
ZGNN,2000-06-10 12:00,ZGNN 101200Z AUTO 29002KT 17SM 28/26 A2962 RMK 60016 SLP020 T02750265 52013 IEM_DS3505
ZGNN,2000-06-10 13:00,ZGNN 101300Z AUTO 00000KT 7SM 27/26 A2962 RMK T02700260 IEM_DS3505
ZGNN,2000-06-10 15:00,ZGNN 101500Z AUTO 00000KT 16SM 28/26 RMK SLP039 T02750258 52019 IEM_DS3505
ZGNN,2000-06-10 18:00,ZGNN 101800Z AUTO 00000KT 16SM 27/26 RMK 60000 SLP030 T02700259 57009 IEM_DS3505
ZGNN,2000-06-10 21:00,ZGNN 102100Z AUTO 34012KT 12SM 24/22 A2965 RMK 70018 SLP029 T02420218 57001 IEM_DS3505
ZGNN,2000-06-10 22:00,ZGNN 102200Z AUTO 33014KT 7SM 25/22 A2965 RMK T02500220 IEM_DS3505
ZGNN,2000-06-10 23:00,ZGNN 102300Z AUTO 34017KT 7SM 24/21 A2965 RMK T02400210 IEM_DS3505
ZGNN,2000-06-11 00:00,ZGNN 110000Z AUTO 32008KT 12SM 23/22 A2971 RMK 60002 SLP055 T02300217 52024 IEM_DS3505
ZGNN,2000-06-11 01:00,ZGNN 110100Z AUTO 34014KT 7SM 23/22 A2971 RMK T02300220 IEM_DS3505
ZGNN,2000-06-11 02:00,ZGNN 110200Z AUTO 33016KT 7SM 23/22 A2974 RMK T02300220 IEM_DS3505
ZGNN,2000-06-11 03:00,ZGNN 110300Z AUTO 00000KT 16SM 23/21 A2974 RMK SLP067 T02320214 52012 IEM_DS3505
ZGNN,2000-06-11 04:00,ZGNN 110400Z AUTO 33010KT 7SM 24/21 A2974 RMK T02400210 IEM_DS3505
ZGNN,2000-06-11 05:00,ZGNN 110500Z AUTO 01008KT 7SM 24/22 A2974 RMK T02400220 IEM_DS3505
ZGNN,2000-06-11 06:00,ZGNN 110600Z AUTO 04002KT 17SM 24/22 A2971 RMK 60000 SLP057 T02430218 57010 IEM_DS3505
ZGNN,2000-06-11 07:00,ZGNN 110700Z AUTO 34006KT 7SM 24/22 A2971 RMK T02400220 IEM_DS3505
ZGNN,2000-06-11 08:00,ZGNN 110800Z AUTO 33006KT 7SM 24/22 A2968 RMK T02400220 IEM_DS3505
ZGNN,2000-06-11 09:00,ZGNN 110900Z AUTO 32008KT 19SM 24/21 A2971 RMK SLP049 T02400213 57008 IEM_DS3505
ZGNN,2000-06-11 10:00,ZGNN 111000Z AUTO 35008KT 7SM 23/22 A2971 RMK T02300220 IEM_DS3505
ZGNN,2000-06-11 11:00,ZGNN 111100Z AUTO 34006KT 7SM 23/21 A2971 RMK T02300210 IEM_DS3505
ZGNN,2000-06-11 12:00,ZGNN 111200Z AUTO 34004KT 16SM 23/21 A2974 RMK 60001 SLP064 T02270210 52014 IEM_DS3505
ZGNN,2000-06-11 13:00,ZGNN 111300Z AUTO 33004KT 7SM 23/21 A2974 RMK T02300210 IEM_DS3505
ZGNN,2000-06-11 14:00,ZGNN 111400Z AUTO 34004KT 7SM 23/21 A2977 RMK T02300210 IEM_DS3505
ZGNN,2000-06-11 15:00,ZGNN 111500Z AUTO 00000KT 12SM 22/21 A2980 RMK SLP087 T02240213 52022 IEM_DS3505
ZGNN,2000-06-11 16:00,ZGNN 111600Z AUTO 02004KT 7SM 22/21 A2980 RMK T02200210 IEM_DS3505
ZGNN,2000-06-11 18:00,ZGNN 111800Z AUTO 32004KT 12SM 22/21 RMK 60004 SLP071 T02170211 57015 IEM_DS3505
ZGNN,2000-06-11 21:00,ZGNN 112100Z AUTO 00000KT 12SM 21/20 A2974 RMK 70013 SLP063 T02120203 57008 IEM_DS3505
ZGNN,2000-06-11 22:00,ZGNN 112200Z AUTO 00000KT 7SM 21/21 A2974 RMK T02100210 IEM_DS3505
ZGNN,2000-06-11 23:00,ZGNN 112300Z AUTO 00000KT 7SM 21/20 A2977 RMK T02100200 IEM_DS3505
ZGNN,2000-06-12 00:00,ZGNN 120000Z AUTO 00000KT 9SM 21/20 A2977 RMK 60028 SLP081 T02090200 52017 IEM_DS3505
ZGNN,2000-06-12 01:00,ZGNN 120100Z AUTO 00000KT 7SM 22/20 A2980 RMK T02200200 IEM_DS3505
ZGNN,2000-06-12 02:00,ZGNN 120200Z AUTO 19006KT 7SM 23/21 A2980 RMK T02300210 IEM_DS3505
ZGNN,2000-06-12 03:00,ZGNN 120300Z AUTO 22004KT 12SM 23/21 A2980 RMK SLP082 T02280213 52001 IEM_DS3505
ZGNN,2000-06-12 04:00,ZGNN 120400Z AUTO 33004KT 7SM 24/21 A2977 RMK T02400210 IEM_DS3505
ZGNN,2000-06-12 05:00,ZGNN 120500Z AUTO 35008KT 7SM 24/20 A2977 RMK T02400200 IEM_DS3505
ZGNN,2000-06-12 06:00,ZGNN 120600Z AUTO 00000KT 9SM 22/21 A2977 RMK 60016 SLP073 T02210206 57009 IEM_DS3505
ZGNN,2000-06-12 07:00,ZGNN 120700Z AUTO 34004KT 4SM 22/21 A2974 RMK T02200210 IEM_DS3505
ZGNN,2000-06-12 08:00,ZGNN 120800Z AUTO 04004KT 2 1/2SM 22/21 A2974 RMK T02200210 IEM_DS3505
ZGNN,2000-06-12 09:00,ZGNN 120900Z AUTO 00000KT 7SM 23/21 A2974 RMK SLP063 T02270212 57010 IEM_DS3505
ZGNN,2000-06-12 10:00,ZGNN 121000Z AUTO 04004KT 4SM 22/21 A2974 RMK T02200210 IEM_DS3505
ZGNN,2000-06-12 11:00,ZGNN 121100Z AUTO 07006KT 7SM 22/21 A2977 RMK T02200210 IEM_DS3505
ZGNN,2000-06-12 12:00,ZGNN 121200Z AUTO 00000KT 5SM 22/21 RMK 60020 SLP081 T02210207 52018 IEM_DS3505
ZGNN,2000-06-12 14:00,ZGNN 121400Z AUTO 00000KT 7SM 22/20 A2983 RMK T02200200 IEM_DS3505
ZGNN,2000-06-12 15:00,ZGNN 121500Z AUTO 00000KT 7SM 22/18 RMK SLP091 T02160184 52010 IEM_DS3505
ZGNN,2000-06-12 16:00,ZGNN 121600Z AUTO 00000KT 7SM 22/20 A2983 RMK T02200200 IEM_DS3505
ZGNN,2000-06-12 17:00,ZGNN 121700Z AUTO 00000KT 7SM 22/20 A2983 RMK T02200200 IEM_DS3505
ZGNN,2000-06-12 18:00,ZGNN 121800Z AUTO 29002KT 7SM 21/19 RMK SLP084 T02080192 57007 IEM_DS3505
ZGNN,2000-06-12 21:00,ZGNN 122100Z AUTO 34006KT 7SM 21/19 RMK 70053 SLP084 T02120193 54000 IEM_DS3505
ZGNN,2000-06-12 22:00,ZGNN 122200Z AUTO 34004KT 7SM 21/19 A2980 RMK T02100190 IEM_DS3505
ZGNN,2000-06-12 23:00,ZGNN 122300Z AUTO 34006KT 7SM 22/19 A2983 RMK T02200190 IEM_DS3505
ZGNN,2000-06-13 00:00,ZGNN 130000Z AUTO 34006KT 7SM 22/19 A2983 RMK 70034 SLP100 T02170189 52016 IEM_DS3505
ZGNN,2000-06-13 01:00,ZGNN 130100Z AUTO 33008KT 7SM 22/18 A2985 RMK T02200180 IEM_DS3505
ZGNN,2000-06-13 02:00,ZGNN 130200Z AUTO 33006KT 7SM 23/18 A2985 RMK T02300180 IEM_DS3505
ZGNN,2000-06-13 03:00,ZGNN 130300Z AUTO 36006KT 7SM 23/18 A2988 RMK SLP111 T02260184 52011 IEM_DS3505
ZGNN,2000-06-13 04:00,ZGNN 130400Z AUTO 33008KT 7SM 22/18 A2988 RMK T02200180 IEM_DS3505
ZGNN,2000-06-13 05:00,ZGNN 130500Z AUTO 36006KT 7SM 23/18 A2985 RMK T02300180 IEM_DS3505
ZGNN,2000-06-13 06:00,ZGNN 130600Z AUTO 36006KT 9SM 24/18 A2983 RMK 60003 SLP098 T02350180 57013 IEM_DS3505
ZGNN,2000-06-13 07:00,ZGNN 130700Z AUTO 35008KT 7SM 24/19 A2983 RMK T02400190 IEM_DS3505
ZGNN,2000-06-13 08:00,ZGNN 130800Z AUTO 36006KT 6SM 25/18 A2980 RMK T02500180 IEM_DS3505
ZGNN,2000-06-13 09:00,ZGNN 130900Z AUTO 36006KT 9SM 24/18 A2980 RMK SLP087 T02370175 57011 IEM_DS3505
ZGNN,2000-06-13 10:00,ZGNN 131000Z AUTO 34008KT 7SM 24/18 A2980 RMK T02400180 IEM_DS3505
ZGNN,2000-06-13 11:00,ZGNN 131100Z AUTO 35006KT 7SM 23/17 A2983 RMK T02300170 IEM_DS3505
ZGNN,2000-06-13 12:00,ZGNN 131200Z AUTO 34004KT 10SM 23/18 A2983 RMK SLP095 T02260180 52008 IEM_DS3505
ZGNN,2000-06-13 13:00,ZGNN 131300Z AUTO 34006KT 7SM 22/18 A2985 RMK T02200180 IEM_DS3505
ZGNN,2000-06-13 15:00,ZGNN 131500Z AUTO 34002KT 9SM 22/17 RMK SLP104 T02170167 52009 IEM_DS3505
ZGNN,2000-06-13 18:00,ZGNN 131800Z AUTO 34010KT 9SM 22/16 RMK SLP095 T02200156 57009 IEM_DS3505
ZGNN,2000-06-13 21:00,ZGNN 132100Z AUTO 00000KT 8SM 21/18 A2980 RMK 70003 SLP087 T02120177 57008 IEM_DS3505
ZGNN,2000-06-13 22:00,ZGNN 132200Z AUTO 31008KT 7SM 21/18 A2983 RMK T02100180 IEM_DS3505
ZGNN,2000-06-13 23:00,ZGNN 132300Z AUTO 00000KT 7SM 21/18 A2983 RMK T02100180 IEM_DS3505
ZGNN,2000-06-14 00:00,ZGNN 140000Z AUTO 27002KT 9SM 21/18 A2983 RMK 70003 SLP097 T02140179 52010 IEM_DS3505
ZGNN,2000-06-14 01:00,ZGNN 140100Z AUTO 00000KT 7SM 23/18 A2985 RMK T02300180 IEM_DS3505
ZGNN,2000-06-14 02:00,ZGNN 140200Z AUTO 35006KT 7SM 24/18 A2985 RMK T02400180 IEM_DS3505
ZGNN,2000-06-14 03:00,ZGNN 140300Z AUTO 32006KT 12SM 24/18 A2983 RMK SLP098 T02370180 52001 IEM_DS3505
ZGNN,2000-06-14 04:00,ZGNN 140400Z AUTO 34006KT 6SM 26/19 A2983 RMK T02600190 IEM_DS3505
ZGNN,2000-06-14 05:00,ZGNN 140500Z AUTO 33002KT 6SM 27/19 A2980 RMK T02700190 IEM_DS3505
ZGNN,2000-06-14 06:00,ZGNN 140600Z AUTO 34006KT 14SM 27/19 A2980 RMK SLP081 T02700187 57016 IEM_DS3505
ZGNN,2000-06-14 07:00,ZGNN 140700Z AUTO 23004KT 6SM 28/19 A2977 RMK T02800190 IEM_DS3505
ZGNN,2000-06-14 08:00,ZGNN 140800Z AUTO 28004KT 6SM 28/18 A2977 RMK T02800180 IEM_DS3505
ZGNN,2000-06-14 09:00,ZGNN 140900Z AUTO 34004KT 7SM 27/19 A2974 RMK SLP068 T02660194 57013 IEM_DS3505
ZGNN,2000-06-14 10:00,ZGNN 141000Z AUTO 33002KT 6SM 27/19 A2977 RMK T02700190 IEM_DS3505
ZGNN,2000-06-14 12:00,ZGNN 141200Z AUTO 34008KT 9SM 25/17 A2977 RMK SLP074 T02480172 52006 IEM_DS3505
ZGNN,2000-06-14 13:00,ZGNN 141300Z AUTO 18002KT 6SM 24/19 A2977 RMK T02400190 IEM_DS3505
ZGNN,2000-06-14 15:00,ZGNN 141500Z AUTO 32008KT 9SM 23/17 RMK SLP085 T02330171 52011 IEM_DS3505
ZGNN,2000-06-14 18:00,ZGNN 141800Z AUTO 27002KT 8SM 22/18 RMK SLP073 T02240176 57011 IEM_DS3505
ZGNN,2000-06-14 21:00,ZGNN 142100Z AUTO 00000KT 7SM 22/18 RMK SLP064 T02180175 57010 IEM_DS3505
ZGNN,2000-06-14 22:00,ZGNN 142200Z AUTO 00000KT 6SM 21/19 A2974 RMK T02100190 IEM_DS3505
ZGNN,2000-06-14 23:00,ZGNN 142300Z AUTO 00000KT 6SM 22/20 A2977 RMK T02200200 IEM_DS3505
ZGNN,2000-06-15 00:00,ZGNN 150000Z AUTO 00000KT 7SM 23/19 A2977 RMK SLP072 T02260189 52008 IEM_DS3505
ZGNN,2000-06-15 01:00,ZGNN 150100Z AUTO 30004KT 6SM 24/18 A2977 RMK T02400180 IEM_DS3505
ZGNN,2000-06-15 02:00,ZGNN 150200Z AUTO 00000KT 6SM 26/18 A2977 RMK T02600180 IEM_DS3505
ZGNN,2000-06-15 03:00,ZGNN 150300Z AUTO 27006KT 8SM 26/18 A2977 RMK SLP072 T02610183 52001 IEM_DS3505
ZGNN,2000-06-15 04:00,ZGNN 150400Z AUTO 00000KT 6SM 29/19 A2977 RMK T02900190 IEM_DS3505
ZGNN,2000-06-15 05:00,ZGNN 150500Z AUTO 00000KT 6SM 29/18 A2974 RMK T02900180 IEM_DS3505
ZGNN,2000-06-15 06:00,ZGNN 150600Z AUTO 00000KT 8SM 29/19 A2971 RMK SLP050 T02880187 57022 IEM_DS3505
ZGNN,2000-06-15 07:00,ZGNN 150700Z AUTO 00000KT 6SM 30/18 A2968 RMK T03000180 IEM_DS3505
ZGNN,2000-06-15 08:00,ZGNN 150800Z AUTO 00000KT 7SM 30/18 A2965 RMK T03000180 IEM_DS3505
ZGNN,2000-06-15 09:00,ZGNN 150900Z AUTO 32002KT 9SM 29/19 A2965 RMK SLP031 T02920187 57018 IEM_DS3505
ZGNN,2000-06-15 10:00,ZGNN 151000Z AUTO 03006KT 6SM 29/20 A2965 RMK T02900200 IEM_DS3505
ZGNN,2000-06-15 11:00,ZGNN 151100Z AUTO 35004KT 6SM 28/20 A2965 RMK T02800200 IEM_DS3505
ZGNN,2000-06-15 12:00,ZGNN 151200Z AUTO 00000KT 7SM 27/21 A2965 RMK SLP041 T02660209 52009 IEM_DS3505
ZGNN,2000-06-15 13:00,ZGNN 151300Z AUTO 35004KT 7SM 25/22 A2968 RMK T02500220 IEM_DS3505
ZGNN,2000-06-15 15:00,ZGNN 151500Z AUTO 00000KT 7SM 24/21 RMK SLP060 T02370213 52019 IEM_DS3505
ZGNN,2000-06-15 18:00,ZGNN 151800Z AUTO 00000KT 7SM 23/21 RMK SLP055 T02280213 57005 IEM_DS3505
ZGNN,2000-06-15 21:00,ZGNN 152100Z AUTO 00000KT 7SM 23/21 A2971 RMK 70003 SLP055 T02270209 54000 IEM_DS3505
ZGNN,2000-06-15 22:00,ZGNN 152200Z AUTO 34004KT 7SM 23/22 A2971 RMK T02300220 IEM_DS3505
ZGNN,2000-06-15 23:00,ZGNN 152300Z AUTO 00000KT 7SM 23/22 A2974 RMK T02300220 IEM_DS3505
ZGNN,2000-06-16 00:00,ZGNN 160000Z AUTO 00000KT 3SM 24/22 A2974 RMK 60003 SLP063 T02360220 52008 IEM_DS3505
ZGNN,2000-06-16 01:00,ZGNN 160100Z AUTO 00000KT 4SM 26/21 A2974 RMK T02600210 IEM_DS3505
ZGNN,2000-06-16 02:00,ZGNN 160200Z AUTO 12006KT 4SM 27/22 A2974 RMK T02700220 IEM_DS3505
ZGNN,2000-06-16 03:00,ZGNN 160300Z AUTO 14004KT 6SM 29/22 A2974 RMK SLP066 T02860225 52003 IEM_DS3505
ZGNN,2000-06-16 04:00,ZGNN 160400Z AUTO 04004KT 30/21 A2974 RMK T03000210 IEM_DS3505
ZGNN,2000-06-16 05:00,ZGNN 160500Z AUTO 07004KT 7SM 29/21 A2974 RMK T02900210 IEM_DS3505
ZGNN,2000-06-16 06:00,ZGNN 160600Z AUTO 00000KT 6SM 29/20 A2971 RMK 60003 SLP052 T02900202 57014 IEM_DS3505
ZGNN,2000-06-16 07:00,ZGNN 160700Z AUTO 02004KT 5SM 29/21 A2968 RMK T02900210 IEM_DS3505
ZGNN,2000-06-16 08:00,ZGNN 160800Z AUTO 11004KT 5SM 29/21 A2968 RMK T02900210 IEM_DS3505
ZGNN,2000-06-16 09:00,ZGNN 160900Z AUTO 18004KT 5SM 29/23 A2968 RMK SLP041 T02870228 57011 IEM_DS3505
ZGNN,2000-06-16 10:00,ZGNN 161000Z AUTO 13006KT 4SM 28/23 A2968 RMK T02800230 IEM_DS3505
ZGNN,2000-06-16 11:00,ZGNN 161100Z AUTO 15004KT 4SM 27/23 A2968 RMK T02700230 IEM_DS3505
ZGNN,2000-06-16 12:00,ZGNN 161200Z AUTO 00000KT 7SM 27/23 A2971 RMK SLP055 T02680230 52014 IEM_DS3505
ZGNN,2000-06-16 13:00,ZGNN 161300Z AUTO 00000KT 4SM 26/23 A2974 RMK T02600230 IEM_DS3505
ZGNN,2000-06-16 15:00,ZGNN 161500Z AUTO 00000KT 7SM 25/23 RMK SLP072 T02520232 52018 IEM_DS3505
ZGNN,2000-06-16 18:00,ZGNN 161800Z AUTO 00000KT 7SM 23/22 RMK SLP068 T02320220 57005 IEM_DS3505
ZGNN,2000-06-16 21:00,ZGNN 162100Z AUTO 16004KT 7SM 23/22 RMK 70003 SLP061 T02310221 57007 IEM_DS3505
ZGNN,2000-06-16 22:00,ZGNN 162200Z AUTO 00000KT 2SM 24/22 A2974 RMK T02400220 IEM_DS3505
ZGNN,2000-06-16 23:00,ZGNN 162300Z AUTO 00000KT 2SM 24/22 A2974 RMK T02400220 IEM_DS3505
ZGNN,2000-06-17 00:00,ZGNN 170000Z AUTO 20002KT 4SM 24/23 A2977 RMK 70003 SLP074 T02430230 52013 IEM_DS3505
ZGNN,2000-06-17 01:00,ZGNN 170100Z AUTO 00000KT 2SM 25/23 A2980 RMK T02500230 IEM_DS3505
ZGNN,2000-06-17 02:00,ZGNN 170200Z AUTO 00000KT 2SM 26/23 A2980 RMK T02600230 IEM_DS3505
ZGNN,2000-06-17 03:00,ZGNN 170300Z AUTO 27004KT 6SM 27/23 A2980 RMK SLP081 T02660231 52007 IEM_DS3505
ZGNN,2000-06-17 04:00,ZGNN 170400Z AUTO 00000KT 2SM 27/22 A2980 RMK T02700220 IEM_DS3505
ZGNN,2000-06-17 06:00,ZGNN 170600Z AUTO 32006KT 9SM 28/22 A2977 RMK 60003 SLP079 T02760225 57002 IEM_DS3505
ZGNN,2000-06-17 07:00,ZGNN 170700Z AUTO 31004KT 2 1/2SM 28/23 A2977 RMK T02800230 IEM_DS3505
ZGNN,2000-06-17 08:00,ZGNN 170800Z AUTO 29004KT 4SM 28/23 A2974 RMK T02800230 IEM_DS3505
ZGNN,2000-06-17 09:00,ZGNN 170900Z AUTO 32004KT 6SM 27/24 A2974 RMK SLP064 T02690236 57015 IEM_DS3505
ZGNN,2000-06-17 10:00,ZGNN 171000Z AUTO 00000KT 2 1/2SM 27/23 A2974 RMK T02700230 IEM_DS3505
ZGNN,2000-06-17 11:00,ZGNN 171100Z AUTO 32006KT 2 1/2SM 26/22 A2974 RMK T02600220 IEM_DS3505
ZGNN,2000-06-17 12:00,ZGNN 171200Z AUTO 18002KT 3SM 25/22 A2974 RMK SLP063 T02540219 57001 IEM_DS3505
ZGNN,2000-06-17 13:00,ZGNN 171300Z AUTO 00000KT 2 1/2SM 25/22 A2977 RMK T02500220 IEM_DS3505
ZGNN,2000-06-17 15:00,ZGNN 171500Z AUTO 29002KT 4SM 25/22 RMK SLP076 T02460219 52013 IEM_DS3505
ZGNN,2000-06-17 18:00,ZGNN 171800Z AUTO 32002KT 4SM 24/22 RMK SLP068 T02440219 57008 IEM_DS3505
ZGNN,2000-06-17 21:00,ZGNN 172100Z AUTO 00000KT 4SM 24/22 A2974 RMK 70003 SLP065 T02420217 57003 IEM_DS3505
ZGNN,2000-06-17 22:00,ZGNN 172200Z AUTO 00000KT 2SM 24/22 A2974 RMK T02400220 IEM_DS3505
ZGNN,2000-06-17 23:00,ZGNN 172300Z AUTO 00000KT 1 1/2SM 24/22 A2977 RMK T02400220 IEM_DS3505
ZGNN,2000-06-18 00:00,ZGNN 180000Z AUTO 32004KT 5SM 26/22 A2977 RMK SLP080 T02550223 52015 IEM_DS3505
ZGNN,2000-06-18 01:00,ZGNN 180100Z AUTO 00000KT 2SM 27/22 A2980 RMK T02700220 IEM_DS3505
ZGNN,2000-06-18 02:00,ZGNN 180200Z AUTO 34006KT 2 1/2SM 29/23 A2980 RMK T02900230 IEM_DS3505
ZGNN,2000-06-18 03:00,ZGNN 180300Z AUTO 07004KT 5SM 30/23 A2980 RMK SLP077 T03010231 57002 IEM_DS3505
ZGNN,2000-06-18 04:00,ZGNN 180400Z AUTO 26004KT 6SM 31/23 A2977 RMK T03100230 IEM_DS3505
ZGNN,2000-06-18 05:00,ZGNN 180500Z AUTO 16006KT 6SM 33/23 A2977 RMK T03300230 IEM_DS3505
ZGNN,2000-06-18 06:00,ZGNN 180600Z AUTO 32006KT 5SM 32/23 A2974 RMK SLP057 T03220234 57020 IEM_DS3505
ZGNN,2000-06-18 07:00,ZGNN 180700Z AUTO 23010KT 7SM 32/24 A2971 RMK T03200240 IEM_DS3505
ZGNN,2000-06-18 08:00,ZGNN 180800Z AUTO 16006KT 7SM 30/24 A2968 RMK T03000240 IEM_DS3505
ZGNN,2000-06-18 09:00,ZGNN 180900Z AUTO 32006KT 6SM 29/21 A2971 RMK SLP048 T02920209 57009 IEM_DS3505
ZGNN,2000-06-18 10:00,ZGNN 181000Z AUTO 00000KT 7SM 28/24 A2968 RMK T02800240 IEM_DS3505
ZGNN,2000-06-18 11:00,ZGNN 181100Z AUTO 00000KT 7SM 28/24 A2968 RMK T02800240 IEM_DS3505
ZGNN,2000-06-18 12:00,ZGNN 181200Z AUTO 00000KT 5SM 27/24 A2971 RMK 60003 SLP051 T02740240 52003 IEM_DS3505
ZGNN,2000-06-18 13:00,ZGNN 181300Z AUTO 00000KT 4SM 27/24 A2971 RMK T02700240 IEM_DS3505
ZGNN,2000-06-18 15:00,ZGNN 181500Z AUTO 00000KT 5SM 26/25 RMK SLP071 T02640247 52020 IEM_DS3505
ZGNN,2000-06-18 18:00,ZGNN 181800Z AUTO 00000KT 4SM 25/24 RMK SLP061 T02500238 57009 IEM_DS3505
ZGNN,2000-06-18 21:00,ZGNN 182100Z AUTO 00000KT 2 1/2SM 24/23 A2971 RMK 70003 SLP055 T02380231 57007 IEM_DS3505
ZGNN,2000-06-18 22:00,ZGNN 182200Z AUTO 00000KT 1 1/2SM 24/23 A2974 RMK T02400230 IEM_DS3505
ZGNN,2000-06-18 23:00,ZGNN 182300Z AUTO 00000KT 1 1/2SM 23/23 A2974 RMK T02300230 IEM_DS3505
ZGNN,2000-06-19 00:00,ZGNN 190000Z AUTO 00000KT 1 1/2SM 26/24 A2974 RMK T02600240 IEM_DS3505
ZGNN,2000-06-19 01:00,ZGNN 190100Z AUTO 00000KT 2 1/2SM 27/24 A2977 RMK T02700240 IEM_DS3505
ZGNN,2000-06-19 02:00,ZGNN 190200Z AUTO 17006KT 3SM 30/25 A2977 RMK T03000250 IEM_DS3505
ZGNN,2000-06-19 03:00,ZGNN 190300Z AUTO 00000KT 5SM 29/24 A2977 RMK SLP074 T02870245 52010 IEM_DS3505
ZGNN,2000-06-19 04:00,ZGNN 190400Z AUTO 19004KT 32/23 A2977 RMK T03200230 IEM_DS3505
ZGNN,2000-06-19 05:00,ZGNN 190500Z AUTO 11004KT 33/24 A2974 RMK T03300240 IEM_DS3505
ZGNN,2000-06-19 06:00,ZGNN 190600Z AUTO 25006KT 5SM 33/24 A2971 RMK SLP055 T03270239 57018 IEM_DS3505
ZGNN,2000-06-19 07:00,ZGNN 190700Z AUTO 21004KT 7SM 28/24 A2971 RMK T02800240 IEM_DS3505
ZGNN,2000-06-19 08:00,ZGNN 190800Z AUTO 00000KT 6SM 32/23 A2968 RMK T03200230 IEM_DS3505
ZGNN,2000-06-19 09:00,ZGNN 190900Z AUTO 20002KT 5SM 31/23 A2968 RMK SLP040 T03140231 57016 IEM_DS3505
ZGNN,2000-06-19 10:00,ZGNN 191000Z AUTO 19006KT 7SM 31/24 A2968 RMK T03100240 IEM_DS3505
ZGNN,2000-06-19 11:00,ZGNN 191100Z AUTO 00000KT 4SM 30/26 A2971 RMK T03000260 IEM_DS3505
ZGNN,2000-06-19 12:00,ZGNN 191200Z AUTO 04002KT 5SM 29/24 A2971 RMK 60003 SLP052 T02880244 52012 IEM_DS3505
ZGNN,2000-06-19 13:00,ZGNN 191300Z AUTO 07004KT 4SM 28/25 A2971 RMK T02800250 IEM_DS3505
ZGNN,2000-06-19 14:00,ZGNN 191400Z AUTO 06004KT 4SM 27/24 A2974 RMK T02700240 IEM_DS3505
ZGNN,2000-06-19 15:00,ZGNN 191500Z AUTO 00000KT 5SM 26/24 RMK SLP070 T02640240 52018 IEM_DS3505
ZGNN,2000-06-19 18:00,ZGNN 191800Z AUTO 00000KT 4SM 26/24 RMK SLP062 T02570241 57007 IEM_DS3505
ZGNN,2000-06-19 21:00,ZGNN 192100Z AUTO 00000KT 2 1/2SM 25/24 RMK 70003 SLP057 T02520243 57006 IEM_DS3505
ZGNN,2000-06-19 22:00,ZGNN 192200Z AUTO 00000KT 1SM 25/24 A2971 RMK T02500240 IEM_DS3505
ZGNN,2000-06-19 23:00,ZGNN 192300Z AUTO 01002KT 1SM 25/24 A2974 RMK T02500240 IEM_DS3505
ZGNN,2000-06-20 00:00,ZGNN 200000Z AUTO 11004KT 2 1/2SM 26/24 A2977 RMK 70003 SLP070 T02580245 52013 IEM_DS3505
ZGNN,2000-06-20 01:00,ZGNN 200100Z AUTO 00000KT 2 1/2SM 27/25 A2977 RMK T02700250 IEM_DS3505
ZGNN,2000-06-20 02:00,ZGNN 200200Z AUTO 15008KT 4SM 29/24 A2977 RMK T02900240 IEM_DS3505
ZGNN,2000-06-20 03:00,ZGNN 200300Z AUTO 22004KT 5SM 30/24 A2977 RMK SLP070 T02990239 54000 IEM_DS3505
ZGNN,2000-06-20 04:00,ZGNN 200400Z AUTO 16008KT 7SM 32/23 A2974 RMK T03200230 IEM_DS3505
ZGNN,2000-06-20 05:00,ZGNN 200500Z AUTO 13008KT 7SM 32/24 A2974 RMK T03200240 IEM_DS3505
ZGNN,2000-06-20 06:00,ZGNN 200600Z AUTO 16006KT 7SM 31/24 A2971 RMK SLP050 T03110245 57019 IEM_DS3505
ZGNN,2000-06-20 07:00,ZGNN 200700Z AUTO 16016KT 7SM 33/24 A2968 RMK T03300240 IEM_DS3505
ZGNN,2000-06-20 08:00,ZGNN 200800Z AUTO 14014KT 7SM 33/23 A2965 RMK T03300230 IEM_DS3505
ZGNN,2000-06-20 09:00,ZGNN 200900Z AUTO 16006KT 19SM 31/24 A2965 RMK SLP031 T03110236 57019 IEM_DS3505
ZGNN,2000-06-20 10:00,ZGNN 201000Z AUTO 14010KT 7SM 30/24 A2965 RMK T03000240 IEM_DS3505
ZGNN,2000-06-20 11:00,ZGNN 201100Z AUTO 13014KT 7SM 29/23 A2968 RMK T02900230 IEM_DS3505
ZGNN,2000-06-20 12:00,ZGNN 201200Z AUTO 16006KT 19SM 28/24 A2971 RMK SLP050 T02800236 52018 IEM_DS3505
ZGNN,2000-06-20 13:00,ZGNN 201300Z AUTO 16008KT 7SM 27/24 A2971 RMK T02700240 IEM_DS3505
ZGNN,2000-06-20 15:00,ZGNN 201500Z AUTO 00000KT 19SM 26/24 RMK SLP063 T02650242 52013 IEM_DS3505
ZGNN,2000-06-20 18:00,ZGNN 201800Z AUTO 16004KT 16SM 26/24 RMK SLP060 T02640244 57002 IEM_DS3505
ZGNN,2000-06-20 21:00,ZGNN 202100Z AUTO 18002KT 12SM 26/25 A2971 RMK SLP049 T02620246 57011 IEM_DS3505
ZGNN,2000-06-20 22:00,ZGNN 202200Z AUTO 13004KT 7SM 26/24 A2968 RMK T02600240 IEM_DS3505
ZGNN,2000-06-20 23:00,ZGNN 202300Z AUTO 15008KT 7SM 26/24 A2971 RMK T02600240 IEM_DS3505
ZGNN,2000-06-21 00:00,ZGNN 210000Z AUTO 22002KT 19SM 27/24 A2974 RMK SLP061 T02710243 52011 IEM_DS3505
ZGNN,2000-06-21 01:00,ZGNN 210100Z AUTO 15008KT 7SM 29/25 A2974 RMK T02900250 IEM_DS3505
ZGNN,2000-06-21 02:00,ZGNN 210200Z AUTO 17014KT 7SM 29/24 A2974 RMK T02900240 IEM_DS3505
ZGNN,2000-06-21 03:00,ZGNN 210300Z AUTO 22006KT 19SM 29/24 A2974 RMK SLP059 T02860243 57002 IEM_DS3505
ZGNN,2000-06-21 04:00,ZGNN 210400Z AUTO 24010KT 7SM 30/23 A2974 RMK T03000230 IEM_DS3505
ZGNN,2000-06-21 05:00,ZGNN 210500Z AUTO 19006KT 7SM 30/23 A2974 RMK T03000230 IEM_DS3505
ZGNN,2000-06-21 06:00,ZGNN 210600Z AUTO 18006KT 19SM 30/23 A2971 RMK 60003 SLP058 T02980232 57001 IEM_DS3505
ZGNN,2000-06-21 07:00,ZGNN 210700Z AUTO 14006KT 7SM 32/24 A2971 RMK T03200240 IEM_DS3505
ZGNN,2000-06-21 08:00,ZGNN 210800Z AUTO 15010KT 7SM 30/24 A2971 RMK T03000240 IEM_DS3505
ZGNN,2000-06-21 09:00,ZGNN 210900Z AUTO 18006KT 19SM 30/25 A2968 RMK SLP041 T03040248 57016 IEM_DS3505
ZGNN,2000-06-21 10:00,ZGNN 211000Z AUTO 14014KT 7SM 30/25 A2968 RMK T03000250 IEM_DS3505
ZGNN,2000-06-21 11:00,ZGNN 211100Z AUTO 14012KT 7SM 29/25 A2968 RMK T02900250 IEM_DS3505
ZGNN,2000-06-21 12:00,ZGNN 211200Z AUTO 18008KT 19SM 28/24 A2971 RMK SLP054 T02820245 52012 IEM_DS3505
ZGNN,2000-06-21 13:00,ZGNN 211300Z AUTO 15008KT 7SM 28/25 A2974 RMK T02800250 IEM_DS3505
ZGNN,2000-06-21 15:00,ZGNN 211500Z AUTO 18006KT 19SM 27/25 RMK SLP062 T02700247 52008 IEM_DS3505
ZGNN,2000-06-21 18:00,ZGNN 211800Z AUTO 18002KT 15SM 26/24 RMK SLP059 T02640244 57003 IEM_DS3505
ZGNN,2000-06-21 21:00,ZGNN 212100Z AUTO 00000KT 12SM 26/24 A2971 RMK 70003 SLP051 T02630242 57007 IEM_DS3505
ZGNN,2000-06-21 22:00,ZGNN 212200Z AUTO 00000KT 7SM 26/24 A2971 RMK T02600240 IEM_DS3505
ZGNN,2000-06-21 23:00,ZGNN 212300Z AUTO 15008KT 6SM 26/24 A2971 RMK T02600240 IEM_DS3505
ZGNN,2000-06-22 00:00,ZGNN 220000Z AUTO 18004KT 19SM 27/25 A2974 RMK 70003 SLP066 T02720246 52014 IEM_DS3505
ZGNN,2000-06-22 01:00,ZGNN 220100Z AUTO 16008KT 7SM 29/25 A2977 RMK T02900250 IEM_DS3505
ZGNN,2000-06-22 02:00,ZGNN 220200Z AUTO 13006KT 7SM 30/25 A2977 RMK T03000250 IEM_DS3505
ZGNN,2000-06-22 03:00,ZGNN 220300Z AUTO 16006KT 19SM 31/25 A2974 RMK SLP064 T03070247 57001 IEM_DS3505
ZGNN,2000-06-22 04:00,ZGNN 220400Z AUTO 17010KT 7SM 32/25 A2974 RMK T03200250 IEM_DS3505
ZGNN,2000-06-22 05:00,ZGNN 220500Z AUTO 17008KT 7SM 32/25 A2971 RMK T03200250 IEM_DS3505
ZGNN,2000-06-22 06:00,ZGNN 220600Z AUTO 16006KT 19SM 32/25 A2971 RMK SLP047 T03160252 57017 IEM_DS3505
ZGNN,2000-06-22 07:00,ZGNN 220700Z AUTO 15014KT 7SM 32/25 A2968 RMK T03200250 IEM_DS3505
ZGNN,2000-06-22 08:00,ZGNN 220800Z AUTO 15014KT 7SM 32/25 A2965 RMK T03200250 IEM_DS3505
ZGNN,2000-06-22 09:00,ZGNN 220900Z AUTO 18008KT 19SM 31/25 A2965 RMK SLP029 T03140250 57018 IEM_DS3505
ZGNN,2000-06-22 10:00,ZGNN 221000Z AUTO 15014KT 7SM 30/25 A2965 RMK T03000250 IEM_DS3505
ZGNN,2000-06-22 11:00,ZGNN 221100Z AUTO 12012KT 7SM 29/25 A2965 RMK T02900250 IEM_DS3505
ZGNN,2000-06-22 12:00,ZGNN 221200Z AUTO 18006KT 19SM 29/25 A2965 RMK SLP037 T02870246 52008 IEM_DS3505
ZGNN,2000-06-22 13:00,ZGNN 221300Z AUTO 15006KT 7SM 28/24 A2968 RMK T02800240 IEM_DS3505
ZGNN,2000-06-22 14:00,ZGNN 221400Z AUTO 15008KT 7SM 28/24 A2968 RMK T02800240 IEM_DS3505
ZGNN,2000-06-22 15:00,ZGNN 221500Z AUTO 16004KT 19SM 27/24 A2971 RMK SLP053 T02730245 52016 IEM_DS3505
ZGNN,2000-06-22 16:00,ZGNN 221600Z AUTO 13006KT 7SM 27/24 A2971 RMK T02700240 IEM_DS3505
ZGNN,2000-06-22 18:00,ZGNN 221800Z AUTO 22002KT 19SM 27/24 RMK SLP047 T02660237 57006 IEM_DS3505
ZGNN,2000-06-22 21:00,ZGNN 222100Z AUTO 07002KT 19SM 26/24 A2968 RMK SLP038 T02650244 57009 IEM_DS3505
ZGNN,2000-06-22 22:00,ZGNN 222200Z AUTO 00000KT 6SM 26/24 A2968 RMK T02600240 IEM_DS3505
ZGNN,2000-06-22 23:00,ZGNN 222300Z AUTO 13004KT 6SM 26/25 A2968 RMK T02600250 IEM_DS3505
ZGNN,2000-06-23 00:00,ZGNN 230000Z AUTO 18004KT 19SM 28/24 A2971 RMK SLP048 T02780241 52010 IEM_DS3505
ZGNN,2000-06-23 01:00,ZGNN 230100Z AUTO 14012KT 7SM 29/25 A2971 RMK T02900250 IEM_DS3505
ZGNN,2000-06-23 02:00,ZGNN 230200Z AUTO 15012KT 7SM 31/24 A2971 RMK T03100240 IEM_DS3505
ZGNN,2000-06-23 03:00,ZGNN 230300Z AUTO 16010KT 19SM 31/24 A2968 RMK SLP044 T03110236 57004 IEM_DS3505
ZGNN,2000-06-23 04:00,ZGNN 230400Z AUTO 16014KT 7SM 33/24 A2968 RMK T03300240 IEM_DS3505
ZGNN,2000-06-23 05:00,ZGNN 230500Z AUTO 14016KT 7SM 33/24 A2965 RMK T03300240 IEM_DS3505
ZGNN,2000-06-23 06:00,ZGNN 230600Z AUTO 14010KT 19SM 32/24 A2962 RMK SLP026 T03220235 57018 IEM_DS3505
ZGNN,2000-06-23 07:00,ZGNN 230700Z AUTO 15014KT 7SM 31/24 A2962 RMK T03100240 IEM_DS3505
ZGNN,2000-06-23 08:00,ZGNN 230800Z AUTO 13010KT 7SM 30/24 A2959 RMK T03000240 IEM_DS3505
ZGNN,2000-06-23 09:00,ZGNN 230900Z AUTO 14008KT 19SM 30/24 A2959 RMK SLP011 T02960244 57015 IEM_DS3505
ZGNN,2000-06-23 10:00,ZGNN 231000Z AUTO 16017KT 7SM 29/25 A2956 RMK T02900250 IEM_DS3505
ZGNN,2000-06-23 12:00,ZGNN 231200Z AUTO 18004KT 19SM 28/24 A2962 RMK SLP021 T02820244 52010 IEM_DS3505
ZGNN,2000-06-23 13:00,ZGNN 231300Z AUTO 16010KT 7SM 26/24 A2962 RMK T02600240 IEM_DS3505
ZGNN,2000-06-23 15:00,ZGNN 231500Z AUTO 16008KT 19SM 27/24 RMK SLP033 T02740241 52012 IEM_DS3505
ZGNN,2000-06-23 18:00,ZGNN 231800Z AUTO 14004KT 19SM 27/24 RMK SLP021 T02690243 57011 IEM_DS3505
ZGNN,2000-06-23 21:00,ZGNN 232100Z AUTO 18006KT 19SM 27/25 RMK SLP019 T02740247 57003 IEM_DS3505
ZGNN,2000-06-23 22:00,ZGNN 232200Z AUTO 15017KT 7SM 27/23 A2962 RMK T02700230 IEM_DS3505
ZGNN,2000-06-23 23:00,ZGNN 232300Z AUTO 17014KT 7SM 28/23 A2962 RMK T02800230 IEM_DS3505
ZGNN,2000-06-24 00:00,ZGNN 240000Z AUTO 16006KT 19SM 27/25 A2965 RMK SLP028 T02660249 52008 IEM_DS3505
ZGNN,2000-06-24 01:00,ZGNN 240100Z AUTO 15012KT 7SM 27/25 A2965 RMK T02700250 IEM_DS3505
ZGNN,2000-06-24 02:00,ZGNN 240200Z AUTO 14012KT 7SM 28/25 A2965 RMK T02800250 IEM_DS3505
ZGNN,2000-06-24 03:00,ZGNN 240300Z AUTO 20008KT 19SM 29/25 A2965 RMK SLP027 T02880247 54000 IEM_DS3505
ZGNN,2000-06-24 04:00,ZGNN 240400Z AUTO 14016KT 7SM 29/24 A2962 RMK T02900240 IEM_DS3505
ZGNN,2000-06-24 05:00,ZGNN 240500Z AUTO 16019KT 7SM 30/24 A2962 RMK T03000240 IEM_DS3505
ZGNN,2000-06-24 06:00,ZGNN 240600Z AUTO 18006KT 19SM 30/24 A2959 RMK SLP017 T03020243 57010 IEM_DS3505
ZGNN,2000-06-24 07:00,ZGNN 240700Z AUTO 16017KT 7SM 31/24 A2959 RMK T03100240 IEM_DS3505
ZGNN,2000-06-24 08:00,ZGNN 240800Z AUTO 14014KT 7SM 31/24 A2956 RMK T03100240 IEM_DS3505
ZGNN,2000-06-24 09:00,ZGNN 240900Z AUTO 16008KT 19SM 30/24 A2956 RMK SLP006 T03000240 57011 IEM_DS3505
ZGNN,2000-06-24 10:00,ZGNN 241000Z AUTO 14014KT 6SM 29/24 A2956 RMK T02900240 IEM_DS3505
ZGNN,2000-06-24 11:00,ZGNN 241100Z AUTO 14016KT 6SM 28/24 A2956 RMK T02800240 IEM_DS3505
ZGNN,2000-06-24 12:00,ZGNN 241200Z AUTO 16006KT 19SM 28/24 A2959 RMK SLP018 T02820236 52012 IEM_DS3505
ZGNN,2000-06-24 15:00,ZGNN 241500Z AUTO 14006KT 19SM 27/24 RMK SLP035 T02720241 52017 IEM_DS3505
ZGNN,2000-06-24 18:00,ZGNN 241800Z AUTO 16004KT 19SM 27/24 RMK SLP021 T02680242 57014 IEM_DS3505
ZGNN,2000-06-24 21:00,ZGNN 242100Z AUTO 22004KT 19SM 27/24 A2962 RMK SLP022 T02660240 52001 IEM_DS3505
ZGNN,2000-06-24 22:00,ZGNN 242200Z AUTO 16006KT 7SM 26/24 A2962 RMK T02600240 IEM_DS3505
ZGNN,2000-06-24 23:00,ZGNN 242300Z AUTO 00000KT 7SM 26/24 A2965 RMK T02600240 IEM_DS3505
ZGNN,2000-06-25 00:00,ZGNN 250000Z AUTO 18002KT 16SM 27/25 A2965 RMK 60003 SLP036 T02680247 52013 IEM_DS3505
ZGNN,2000-06-25 01:00,ZGNN 250100Z AUTO 13010KT 7SM 27/24 A2968 RMK T02700240 IEM_DS3505
ZGNN,2000-06-25 02:00,ZGNN 250200Z AUTO 13014KT 7SM 28/24 A2968 RMK T02800240 IEM_DS3505
ZGNN,2000-06-25 03:00,ZGNN 250300Z AUTO 18008KT 19SM 28/24 A2971 RMK SLP051 T02780239 52015 IEM_DS3505
ZGNN,2000-06-25 04:00,ZGNN 250400Z AUTO 17016KT 7SM 27/25 A2971 RMK T02700250 IEM_DS3505
ZGNN,2000-06-25 05:00,ZGNN 250500Z AUTO 17014KT 7SM 28/25 A2968 RMK T02800250 IEM_DS3505
ZGNN,2000-06-25 06:00,ZGNN 250600Z AUTO 18008KT 19SM 28/25 A2965 RMK 60003 SLP038 T02810246 57013 IEM_DS3505
ZGNN,2000-06-25 07:00,ZGNN 250700Z AUTO 16012KT 7SM 29/24 A2965 RMK T02900240 IEM_DS3505
ZGNN,2000-06-25 08:00,ZGNN 250800Z AUTO 17014KT 7SM 30/24 A2962 RMK T03000240 IEM_DS3505
ZGNN,2000-06-25 09:00,ZGNN 250900Z AUTO 14006KT 19SM 30/24 A2962 RMK SLP028 T02970242 57009 IEM_DS3505
ZGNN,2000-06-25 10:00,ZGNN 251000Z AUTO 14014KT 7SM 29/24 A2962 RMK T02900240 IEM_DS3505
ZGNN,2000-06-25 11:00,ZGNN 251100Z AUTO 13006KT 7SM 28/24 A2965 RMK T02800240 IEM_DS3505
ZGNN,2000-06-25 12:00,ZGNN 251200Z AUTO 20002KT 12SM 28/24 A2965 RMK SLP040 T02760245 52011 IEM_DS3505
ZGNN,2000-06-25 13:00,ZGNN 251300Z AUTO 16006KT 7SM 27/24 A2968 RMK T02700240 IEM_DS3505
ZGNN,2000-06-25 15:00,ZGNN 251500Z AUTO 14006KT 12SM 27/24 RMK SLP057 T02700244 52017 IEM_DS3505
ZGNN,2000-06-25 18:00,ZGNN 251800Z AUTO 14002KT 12SM 26/24 RMK SLP047 T02630245 57010 IEM_DS3505
ZGNN,2000-06-25 21:00,ZGNN 252100Z AUTO 07002KT 12SM 26/24 A2971 RMK 70003 SLP049 T02560245 52002 IEM_DS3505
ZGNN,2000-06-25 22:00,ZGNN 252200Z AUTO 14006KT 7SM 26/24 A2971 RMK T02600240 IEM_DS3505
ZGNN,2000-06-25 23:00,ZGNN 252300Z AUTO 00000KT 7SM 26/24 A2974 RMK T02600240 IEM_DS3505
ZGNN,2000-06-26 00:00,ZGNN 260000Z AUTO 18004KT 19SM 27/24 A2974 RMK 70003 SLP062 T02700244 52013 IEM_DS3505
ZGNN,2000-06-26 01:00,ZGNN 260100Z AUTO 14008KT 7SM 28/25 A2977 RMK T02800250 IEM_DS3505
ZGNN,2000-06-26 02:00,ZGNN 260200Z AUTO 12008KT 7SM 27/24 A2974 RMK T02700240 IEM_DS3505
ZGNN,2000-06-26 03:00,ZGNN 260300Z AUTO 14008KT 19SM 28/24 A2977 RMK SLP068 T02820244 52006 IEM_DS3505
ZGNN,2000-06-26 04:00,ZGNN 260400Z AUTO 14012KT 7SM 30/25 A2977 RMK T03000250 IEM_DS3505
ZGNN,2000-06-26 05:00,ZGNN 260500Z AUTO 15010KT 7SM 26/25 A2974 RMK T02600250 IEM_DS3505
ZGNN,2000-06-26 06:00,ZGNN 260600Z AUTO 18006KT 19SM 26/24 A2974 RMK 60000 SLP062 T02580244 57007 IEM_DS3505
ZGNN,2000-06-26 07:00,ZGNN 260700Z AUTO 17006KT 7SM 26/24 A2971 RMK T02600240 IEM_DS3505
ZGNN,2000-06-26 08:00,ZGNN 260800Z AUTO 21004KT 7SM 27/24 A2971 RMK T02700240 IEM_DS3505
ZGNN,2000-06-26 09:00,ZGNN 260900Z AUTO 20004KT 19SM 27/25 A2968 RMK SLP044 T02740246 57017 IEM_DS3505
ZGNN,2000-06-26 10:00,ZGNN 261000Z AUTO 13004KT 6SM 28/24 A2968 RMK T02800240 IEM_DS3505
ZGNN,2000-06-26 11:00,ZGNN 261100Z AUTO 14006KT 6SM 28/25 A2971 RMK T02800250 IEM_DS3505
ZGNN,2000-06-26 12:00,ZGNN 261200Z AUTO 00000KT 16SM 28/24 A2974 RMK 60003 SLP061 T02780244 IEM_DS3505
ZGNN,2000-06-26 13:00,ZGNN 261300Z AUTO 14006KT 6SM 27/24 A2974 RMK T02700240 IEM_DS3505
ZGNN,2000-06-26 15:00,ZGNN 261500Z AUTO 11002KT 16SM 26/24 RMK SLP076 T02600237 52015 IEM_DS3505
ZGNN,2000-06-26 18:00,ZGNN 261800Z AUTO 04002KT 16SM 25/24 RMK SLP079 T02530239 52002 IEM_DS3505
ZGNN,2000-06-26 21:00,ZGNN 262100Z AUTO 00000KT 12SM 25/24 RMK 70001 SLP072 T02540243 57007 IEM_DS3505
ZGNN,2000-06-26 22:00,ZGNN 262200Z AUTO 04004KT 7SM 25/24 A2977 RMK T02500240 IEM_DS3505
ZGNN,2000-06-26 23:00,ZGNN 262300Z AUTO 08004KT 2 1/2SM 25/25 A2977 RMK T02500250 IEM_DS3505
ZGNN,2000-06-27 00:00,ZGNN 270000Z AUTO 14004KT 9SM 25/24 A2980 RMK 60002 SLP082 T02530242 52010 IEM_DS3505
ZGNN,2000-06-27 01:00,ZGNN 270100Z AUTO 10010KT 7SM 25/24 A2980 RMK T02500240 IEM_DS3505
ZGNN,2000-06-27 02:00,ZGNN 270200Z AUTO 08010KT 7SM 25/24 A2983 RMK T02500240 IEM_DS3505
ZGNN,2000-06-27 03:00,ZGNN 270300Z AUTO 14006KT 12SM 28/25 A2983 RMK SLP090 T02800246 52008 IEM_DS3505
ZGNN,2000-06-27 04:00,ZGNN 270400Z AUTO 12016KT 7SM 29/24 A2980 RMK T02900240 IEM_DS3505
ZGNN,2000-06-27 05:00,ZGNN 270500Z AUTO 12012KT 7SM 30/24 A2980 RMK T03000240 IEM_DS3505
ZGNN,2000-06-27 06:00,ZGNN 270600Z AUTO 22006KT 19SM 31/24 A2977 RMK 60000 SLP073 T03120244 57016 IEM_DS3505
ZGNN,2000-06-27 07:00,ZGNN 270700Z AUTO 15010KT 7SM 32/24 A2974 RMK T03200240 IEM_DS3505
ZGNN,2000-06-27 08:00,ZGNN 270800Z AUTO 15012KT 7SM 33/23 A2971 RMK T03300230 IEM_DS3505
ZGNN,2000-06-27 09:00,ZGNN 270900Z AUTO 14008KT 19SM 32/23 A2971 RMK SLP054 T03170231 57018 IEM_DS3505
ZGNN,2000-06-27 10:00,ZGNN 271000Z AUTO 14010KT 7SM 32/24 A2971 RMK T03200240 IEM_DS3505
ZGNN,2000-06-27 11:00,ZGNN 271100Z AUTO 12010KT 7SM 30/24 A2971 RMK T03000240 IEM_DS3505
ZGNN,2000-06-27 12:00,ZGNN 271200Z AUTO 18004KT 19SM 29/24 A2974 RMK SLP068 T02920236 52013 IEM_DS3505
ZGNN,2000-06-27 13:00,ZGNN 271300Z AUTO 12006KT 7SM 28/23 A2977 RMK T02800230 IEM_DS3505
ZGNN,2000-06-27 15:00,ZGNN 271500Z AUTO 16002KT 19SM 27/24 RMK SLP086 T02690242 52018 IEM_DS3505
ZGNN,2000-06-27 18:00,ZGNN 271800Z AUTO 00000KT 19SM 26/24 RMK SLP082 T02580241 57004 IEM_DS3505
ZGNN,2000-06-27 21:00,ZGNN 272100Z AUTO 09004KT 17SM 25/24 A2980 RMK 70003 SLP082 T02520238 54000 IEM_DS3505
ZGNN,2000-06-27 22:00,ZGNN 272200Z AUTO 09004KT 7SM 25/24 A2980 RMK T02500240 IEM_DS3505
ZGNN,2000-06-27 23:00,ZGNN 272300Z AUTO 00000KT 7SM 25/24 A2983 RMK T02500240 IEM_DS3505
ZGNN,2000-06-28 00:00,ZGNN 280000Z AUTO 00000KT 12SM 25/23 A2983 RMK 70000 SLP099 T02540234 52016 IEM_DS3505
ZGNN,2000-06-28 01:00,ZGNN 280100Z AUTO 00000KT 7SM 26/23 A2985 RMK T02600230 IEM_DS3505
ZGNN,2000-06-28 02:00,ZGNN 280200Z AUTO 08006KT 7SM 28/23 A2985 RMK T02800230 IEM_DS3505
ZGNN,2000-06-28 03:00,ZGNN 280300Z AUTO 22004KT 19SM 30/24 A2983 RMK SLP097 T02960244 57001 IEM_DS3505
ZGNN,2000-06-28 04:00,ZGNN 280400Z AUTO 12004KT 7SM 30/24 A2983 RMK T03000240 IEM_DS3505
ZGNN,2000-06-28 05:00,ZGNN 280500Z AUTO 12010KT 7SM 33/23 A2980 RMK T03300230 IEM_DS3505
ZGNN,2000-06-28 06:00,ZGNN 280600Z AUTO 14008KT 19SM 32/23 A2977 RMK SLP079 T03160232 57018 IEM_DS3505
ZGNN,2000-06-28 07:00,ZGNN 280700Z AUTO 11008KT 7SM 33/23 A2977 RMK T03300230 IEM_DS3505
ZGNN,2000-06-28 08:00,ZGNN 280800Z AUTO 14008KT 7SM 32/23 A2974 RMK T03200230 IEM_DS3505
ZGNN,2000-06-28 09:00,ZGNN 280900Z AUTO 18008KT 19SM 32/23 A2974 RMK SLP057 T03240233 57021 IEM_DS3505
ZGNN,2000-06-28 10:00,ZGNN 281000Z AUTO 16006KT 7SM 32/23 A2971 RMK T03200230 IEM_DS3505
ZGNN,2000-06-28 11:00,ZGNN 281100Z AUTO 16010KT 7SM 31/23 A2971 RMK T03100230 IEM_DS3505
ZGNN,2000-06-28 12:00,ZGNN 281200Z AUTO 14004KT 19SM 30/24 A2974 RMK 60003 SLP061 T02960242 52003 IEM_DS3505
ZGNN,2000-06-28 13:00,ZGNN 281300Z AUTO 13008KT 6SM 28/23 A2974 RMK T02800230 IEM_DS3505
ZGNN,2000-06-28 15:00,ZGNN 281500Z AUTO 25004KT 17SM 26/24 RMK SLP080 T02610239 52019 IEM_DS3505
ZGNN,2000-06-28 18:00,ZGNN 281800Z AUTO 00000KT 14SM 24/23 RMK SLP068 T02420233 57012 IEM_DS3505
ZGNN,2000-06-28 21:00,ZGNN 282100Z AUTO 00000KT 12SM 24/23 A2974 RMK 70003 SLP065 T02350229 57003 IEM_DS3505
ZGNN,2000-06-28 22:00,ZGNN 282200Z AUTO 01004KT 6SM 24/23 A2974 RMK T02400230 IEM_DS3505
ZGNN,2000-06-28 23:00,ZGNN 282300Z AUTO 34004KT 6SM 24/23 A2977 RMK T02400230 IEM_DS3505
ZGNN,2000-06-29 00:00,ZGNN 290000Z AUTO 00000KT 12SM 26/24 A2980 RMK 70003 SLP078 T02580238 52013 IEM_DS3505
ZGNN,2000-06-29 01:00,ZGNN 290100Z AUTO 20004KT 6SM 28/24 A2980 RMK T02800240 IEM_DS3505
ZGNN,2000-06-29 02:00,ZGNN 290200Z AUTO 16004KT 7SM 30/24 A2980 RMK T03000240 IEM_DS3505
ZGNN,2000-06-29 03:00,ZGNN 290300Z AUTO 20004KT 19SM 31/22 A2980 RMK SLP078 T03090224 54000 IEM_DS3505
ZGNN,2000-06-29 04:00,ZGNN 290400Z AUTO 00000KT 7SM 32/23 A2977 RMK T03200230 IEM_DS3505
ZGNN,2000-06-29 05:00,ZGNN 290500Z AUTO 21006KT 7SM 34/22 A2977 RMK T03400220 IEM_DS3505
ZGNN,2000-06-29 06:00,ZGNN 290600Z AUTO 22006KT 19SM 34/23 A2974 RMK SLP058 T03360227 57019 IEM_DS3505
ZGNN,2000-06-29 07:00,ZGNN 290700Z AUTO 00000KT 7SM 35/23 A2971 RMK T03500230 IEM_DS3505
ZGNN,2000-06-29 08:00,ZGNN 290800Z AUTO 06006KT 7SM 35/22 A2968 RMK T03500220 IEM_DS3505
ZGNN,2000-06-29 09:00,ZGNN 290900Z AUTO 18008KT 19SM 35/22 A2965 RMK SLP035 T03520223 57023 IEM_DS3505
ZGNN,2000-06-29 10:00,ZGNN 291000Z AUTO 12008KT 7SM 33/23 A2965 RMK T03300230 IEM_DS3505
ZGNN,2000-06-29 11:00,ZGNN 291100Z AUTO 12006KT 7SM 33/23 A2965 RMK T03300230 IEM_DS3505
ZGNN,2000-06-29 12:00,ZGNN 291200Z AUTO 14004KT 19SM 32/24 A2968 RMK SLP039 T03150238 52004 IEM_DS3505
ZGNN,2000-06-29 13:00,ZGNN 291300Z AUTO 12010KT 6SM 29/24 A2971 RMK T02900240 IEM_DS3505
ZGNN,2000-06-29 15:00,ZGNN 291500Z AUTO 00000KT 17SM 28/24 RMK SLP065 T02770241 52026 IEM_DS3505
ZGNN,2000-06-29 18:00,ZGNN 291800Z AUTO 25002KT 17SM 25/24 RMK SLP064 T02480236 57001 IEM_DS3505
ZGNN,2000-06-29 21:00,ZGNN 292100Z AUTO 00000KT 16SM 24/23 A2974 RMK SLP061 T02380231 57003 IEM_DS3505
ZGNN,2000-06-29 22:00,ZGNN 292200Z AUTO 00000KT 6SM 24/23 A2974 RMK T02400230 IEM_DS3505
ZGNN,2000-06-29 23:00,ZGNN 292300Z AUTO 00000KT 6SM 25/24 A2977 RMK T02500240 IEM_DS3505
ZGNN,2000-06-30 00:00,ZGNN 300000Z AUTO 00000KT 9SM 26/24 A2977 RMK SLP076 T02640244 52015 IEM_DS3505
ZGNN,2000-06-30 01:00,ZGNN 300100Z AUTO 00000KT 6SM 29/24 A2980 RMK T02900240 IEM_DS3505
ZGNN,2000-06-30 02:00,ZGNN 300200Z AUTO 22006KT 7SM 31/23 A2980 RMK T03100230 IEM_DS3505
ZGNN,2000-06-30 03:00,ZGNN 300300Z AUTO 34002KT 19SM 32/22 A2980 RMK SLP079 T03180219 52003 IEM_DS3505
ZGNN,2000-06-30 04:00,ZGNN 300400Z AUTO 23006KT 7SM 33/21 A2980 RMK T03300210 IEM_DS3505
ZGNN,2000-06-30 05:00,ZGNN 300500Z AUTO 18004KT 7SM 34/22 A2977 RMK T03400220 IEM_DS3505
ZGNN,2000-06-30 06:00,ZGNN 300600Z AUTO 25004KT 19SM 35/21 A2974 RMK SLP066 T03500214 57013 IEM_DS3505
ZGNN,2000-06-30 07:00,ZGNN 300700Z AUTO 7SM RMK IEM_DS3505
ZGNN,2000-06-30 08:00,ZGNN 300800Z AUTO 09006KT 7SM 36/21 A2971 RMK T03600210 IEM_DS3505
ZGNN,2000-06-30 09:00,ZGNN 300900Z AUTO 22006KT 19SM 36/22 A2968 RMK SLP042 T03550222 57024 IEM_DS3505
ZGNN,2000-06-30 10:00,ZGNN 301000Z AUTO 13006KT 7SM 35/22 A2968 RMK T03500220 IEM_DS3505
ZGNN,2000-06-30 11:00,ZGNN 301100Z AUTO 12008KT 7SM 33/23 A2968 RMK T03300230 IEM_DS3505
ZGNN,2000-06-30 12:00,ZGNN 301200Z AUTO 14004KT 17SM 32/24 A2971 RMK SLP049 T03180237 52007 IEM_DS3505
ZGNN,2000-06-30 13:00,ZGNN 301300Z AUTO 13006KT 6SM 30/24 A2974 RMK T03000240 IEM_DS3505
ZGNN,2000-06-30 14:00,ZGNN 301400Z AUTO 15002KT 6SM 29/24 A2974 RMK T02900240 IEM_DS3505
ZGNN,2000-06-30 15:00,ZGNN 301500Z AUTO 25004KT 17SM 28/25 A2977 RMK SLP074 T02810247 52025 IEM_DS3505
ZGNN,2000-06-30 16:00,ZGNN 301600Z AUTO 00000KT 6SM 27/24 A2977 RMK T02700240 IEM_DS3505
ZGNN,2000-06-30 18:00,ZGNN 301800Z AUTO 00000KT 16SM 25/24 RMK SLP071 T02530239 57003 IEM_DS3505
ZGNN,2000-06-30 21:00,ZGNN 302100Z AUTO 00000KT 16SM 25/24 RMK SLP065 T02500240 57006 IEM_DS3505
ZGNN,2000-06-30 22:00,ZGNN 302200Z AUTO 00000KT 6SM 25/24 A2977 RMK T02500240 IEM_DS3505
ZGNN,2000-06-30 23:00,ZGNN 302300Z AUTO 00000KT 6SM 25/24 A2977 RMK T02500240 IEM_DS3505
ZGNN,2000-07-01 00:00,ZGNN 010000Z AUTO 27002KT 12SM 27/25 A2980 RMK SLP078 T02680248 52013 IEM_DS3505
ZGNN,2000-07-01 01:00,ZGNN 010100Z AUTO 18004KT 6SM 29/25 A2980 RMK T02900250 IEM_DS3505
ZGNN,2000-07-01 02:00,ZGNN 010200Z AUTO 24006KT 6SM 32/25 A2980 RMK T03200250 IEM_DS3505
ZGNN,2000-07-01 03:00,ZGNN 010300Z AUTO 18004KT 19SM 33/23 A2977 RMK SLP076 T03300227 57002 IEM_DS3505
ZGNN,2000-07-01 04:00,ZGNN 010400Z AUTO 15006KT 7SM 34/23 A2977 RMK T03400230 IEM_DS3505
ZGNN,2000-07-01 05:00,ZGNN 010500Z AUTO 18008KT 7SM 35/22 A2974 RMK T03500220 IEM_DS3505
ZGNN,2000-07-01 06:00,ZGNN 010600Z AUTO 22006KT 19SM 34/22 A2974 RMK SLP057 T03440217 57019 IEM_DS3505
ZGNN,2000-07-01 07:00,ZGNN 010700Z AUTO 18006KT 7SM 36/20 A2971 RMK T03600200 IEM_DS3505
ZGNN,2000-07-01 08:00,ZGNN 010800Z AUTO 14008KT 7SM 36/20 A2968 RMK T03600200 IEM_DS3505
ZGNN,2000-07-01 09:00,ZGNN 010900Z AUTO 09008KT 19SM 36/20 A2968 RMK SLP037 T03550197 57019 IEM_DS3505
ZGNN,2000-07-01 10:00,ZGNN 011000Z AUTO 12006KT 6SM 35/20 A2965 RMK T03500200 IEM_DS3505
ZGNN,2000-07-01 11:00,ZGNN 011100Z AUTO 09006KT 6SM 34/20 A2965 RMK T03400200 IEM_DS3505
ZGNN,2000-07-01 12:00,ZGNN 011200Z AUTO 14002KT 16SM 32/21 A2968 RMK SLP039 T03230210 52001 IEM_DS3505
ZGNN,2000-07-01 13:00,ZGNN 011300Z AUTO 14006KT 6SM 30/21 A2968 RMK T03000210 IEM_DS3505
ZGNN,2000-07-01 15:00,ZGNN 011500Z AUTO 00000KT 14SM 28/23 RMK SLP056 T02750232 52017 IEM_DS3505
ZGNN,2000-07-01 18:00,ZGNN 011800Z AUTO 00000KT 14SM 25/23 RMK SLP059 T02490227 52003 IEM_DS3505
ZGNN,2000-07-01 21:00,ZGNN 012100Z AUTO 00000KT 12SM 24/22 A2974 RMK SLP058 T02400222 57001 IEM_DS3505
ZGNN,2000-07-01 22:00,ZGNN 012200Z AUTO 00000KT 6SM 24/22 A2974 RMK T02400220 IEM_DS3505
ZGNN,2000-07-01 23:00,ZGNN 012300Z AUTO 00000KT 6SM 24/23 A2974 RMK T02400230 IEM_DS3505
ZGNN,2000-07-02 00:00,ZGNN 020000Z AUTO 09002KT 9SM 26/23 A2977 RMK SLP067 T02640229 52009 IEM_DS3505
ZGNN,2000-07-02 01:00,ZGNN 020100Z AUTO 00000KT 6SM 29/23 A2977 RMK T02900230 IEM_DS3505
ZGNN,2000-07-02 02:00,ZGNN 020200Z AUTO 17006KT 7SM 31/23 A2977 RMK T03100230 IEM_DS3505
ZGNN,2000-07-02 03:00,ZGNN 020300Z AUTO 14006KT 19SM 32/22 A2977 RMK SLP070 T03230222 52003 IEM_DS3505
ZGNN,2000-07-02 04:00,ZGNN 020400Z AUTO 23006KT 7SM 33/21 A2974 RMK T03300210 IEM_DS3505
ZGNN,2000-07-02 05:00,ZGNN 020500Z AUTO 00000KT 7SM 34/21 A2974 RMK T03400210 IEM_DS3505
ZGNN,2000-07-02 06:00,ZGNN 020600Z AUTO 29004KT 19SM 35/21 A2971 RMK SLP050 T03480206 57020 IEM_DS3505
ZGNN,2000-07-02 07:00,ZGNN 020700Z AUTO 12010KT 7SM 34/20 A2968 RMK T03400200 IEM_DS3505
ZGNN,2000-07-02 08:00,ZGNN 020800Z AUTO 12006KT 7SM 35/20 A2965 RMK T03500200 IEM_DS3505
ZGNN,2000-07-02 09:00,ZGNN 020900Z AUTO 18008KT 19SM 35/20 A2962 RMK SLP025 T03480202 57025 IEM_DS3505
ZGNN,2000-07-02 10:00,ZGNN 021000Z AUTO 11014KT 7SM 34/21 A2962 RMK T03400210 IEM_DS3505
ZGNN,2000-07-02 11:00,ZGNN 021100Z AUTO 13008KT 7SM 32/22 A2962 RMK T03200220 IEM_DS3505
ZGNN,2000-07-02 12:00,ZGNN 021200Z AUTO 14002KT 19SM 32/23 A2962 RMK SLP028 T03180226 52003 IEM_DS3505
ZGNN,2000-07-02 13:00,ZGNN 021300Z AUTO 13006KT 7SM 30/23 A2965 RMK T03000230 IEM_DS3505
ZGNN,2000-07-02 15:00,ZGNN 021500Z AUTO 04002KT 16SM 28/24 RMK SLP041 T02750239 52013 IEM_DS3505
ZGNN,2000-07-02 18:00,ZGNN 021800Z AUTO 00000KT 16SM 28/23 RMK SLP050 T02780230 52010 IEM_DS3505
ZGNN,2000-07-02 21:00,ZGNN 022100Z AUTO 20002KT 16SM 27/24 A2971 RMK SLP048 T02670244 57002 IEM_DS3505
ZGNN,2000-07-02 22:00,ZGNN 022200Z AUTO 15004KT 7SM 26/24 A2971 RMK T02600240 IEM_DS3505
ZGNN,2000-07-02 23:00,ZGNN 022300Z AUTO 00000KT 7SM 27/24 A2971 RMK T02700240 IEM_DS3505
ZGNN,2000-07-03 00:00,ZGNN 030000Z AUTO 22004KT 12SM 28/24 A2971 RMK SLP057 T02850245 52008 IEM_DS3505
ZGNN,2000-07-03 01:00,ZGNN 030100Z AUTO 16006KT 7SM 29/24 A2971 RMK T02900240 IEM_DS3505
ZGNN,2000-07-03 02:00,ZGNN 030200Z AUTO 08006KT 7SM 31/24 A2971 RMK T03100240 IEM_DS3505
ZGNN,2000-07-03 03:00,ZGNN 030300Z AUTO 14004KT 19SM 31/24 A2971 RMK SLP048 T03100238 57009 IEM_DS3505
ZGNN,2000-07-03 04:00,ZGNN 030400Z AUTO 07002KT 7SM 33/23 A2968 RMK T03300230 IEM_DS3505
ZGNN,2000-07-03 05:00,ZGNN 030500Z AUTO 10010KT 7SM 34/22 A2968 RMK T03400220 IEM_DS3505
ZGNN,2000-07-03 06:00,ZGNN 030600Z AUTO 22004KT 19SM 35/22 A2965 RMK SLP034 T03530224 57013 IEM_DS3505
ZGNN,2000-07-03 07:00,ZGNN 030700Z AUTO 12012KT 7SM 35/22 A2962 RMK T03500220 IEM_DS3505
ZGNN,2000-07-03 08:00,ZGNN 030800Z AUTO 13008KT 7SM 36/21 A2959 RMK T03600210 IEM_DS3505
ZGNN,2000-07-03 09:00,ZGNN 030900Z AUTO 14006KT 19SM 36/22 A2959 RMK SLP007 T03580215 57026 IEM_DS3505
ZGNN,2000-07-03 10:00,ZGNN 031000Z AUTO 12008KT 7SM 35/21 A2956 RMK T03500210 IEM_DS3505
ZGNN,2000-07-03 11:00,ZGNN 031100Z AUTO 14012KT 7SM 33/23 A2959 RMK T03300230 IEM_DS3505
ZGNN,2000-07-03 12:00,ZGNN 031200Z AUTO 18006KT 19SM 31/25 A2962 RMK SLP017 T03100248 52009 IEM_DS3505
ZGNN,2000-07-03 13:00,ZGNN 031300Z AUTO 14008KT 6SM 29/24 A2962 RMK T02900240 IEM_DS3505
ZGNN,2000-07-03 14:00,ZGNN 031400Z AUTO 15008KT 7SM 28/24 A2965 RMK T02800240 IEM_DS3505
ZGNN,2000-07-03 15:00,ZGNN 031500Z AUTO 18002KT 19SM 28/24 RMK SLP042 T02820238 52024 IEM_DS3505
ZGNN,2000-07-03 18:00,ZGNN 031800Z AUTO 18006KT 17SM 27/23 RMK SLP037 T02690234 57004 IEM_DS3505
ZGNN,2000-07-03 21:00,ZGNN 032100Z AUTO 00000KT 16SM 25/24 RMK SLP041 T02520238 52004 IEM_DS3505
ZGNN,2000-07-03 22:00,ZGNN 032200Z AUTO 00000KT 7SM 26/24 A2968 RMK T02600240 IEM_DS3505
ZGNN,2000-07-03 23:00,ZGNN 032300Z AUTO 00000KT 7SM 27/24 A2968 RMK T02700240 IEM_DS3505
ZGNN,2000-07-04 00:00,ZGNN 040000Z AUTO 16006KT 16SM 27/24 A2968 RMK SLP046 T02710241 52004 IEM_DS3505
ZGNN,2000-07-04 01:00,ZGNN 040100Z AUTO 14006KT 7SM 29/24 A2968 RMK T02900240 IEM_DS3505
ZGNN,2000-07-04 02:00,ZGNN 040200Z AUTO 14008KT 7SM 31/24 A2968 RMK T03100240 IEM_DS3505
ZGNN,2000-07-04 03:00,ZGNN 040300Z AUTO 20004KT 19SM 30/23 A2968 RMK SLP040 T03010234 57006 IEM_DS3505
ZGNN,2000-07-04 04:00,ZGNN 040400Z AUTO 10010KT 7SM 33/23 A2968 RMK T03300230 IEM_DS3505
ZGNN,2000-07-04 05:00,ZGNN 040500Z AUTO 15006KT 7SM 34/21 A2965 RMK T03400210 IEM_DS3505
ZGNN,2000-07-04 06:00,ZGNN 040600Z AUTO 22004KT 19SM 34/22 A2962 RMK SLP024 T03420221 57015 IEM_DS3505
ZGNN,2000-07-04 07:00,ZGNN 040700Z AUTO 20006KT 7SM 35/22 A2959 RMK T03500220 IEM_DS3505
ZGNN,2000-07-04 08:00,ZGNN 040800Z AUTO 13010KT 7SM 34/22 A2959 RMK T03400220 IEM_DS3505
ZGNN,2000-07-04 09:00,ZGNN 040900Z AUTO 14006KT 19SM 34/23 A2956 RMK SLP001 T03380226 57023 IEM_DS3505
ZGNN,2000-07-04 10:00,ZGNN 041000Z AUTO 13010KT 6SM 34/22 A2956 RMK T03400220 IEM_DS3505
ZGNN,2000-07-04 11:00,ZGNN 041100Z AUTO 15008KT 6SM 32/22 A2959 RMK T03200220 IEM_DS3505
ZGNN,2000-07-04 12:00,ZGNN 041200Z AUTO 16006KT 16SM 31/23 A2959 RMK SLP014 T03140234 52013 IEM_DS3505
ZGNN,2000-07-04 13:00,ZGNN 041300Z AUTO 15004KT 6SM 29/24 A2962 RMK T02900240 IEM_DS3505
ZGNN,2000-07-04 14:00,ZGNN 041400Z AUTO 16002KT 6SM 29/24 A2962 RMK T02900240 IEM_DS3505
ZGNN,2000-07-04 15:00,ZGNN 041500Z AUTO 22002KT 12SM 28/24 RMK SLP030 T02810243 52015 IEM_DS3505
ZGNN,2000-07-04 18:00,ZGNN 041800Z AUTO 00000KT 12SM 26/24 RMK SLP029 T02600243 54000 IEM_DS3505
ZGNN,2000-07-04 22:00,ZGNN 042200Z AUTO 00000KT 6SM 25/24 A2965 RMK T02500240 IEM_DS3505
ZGNN,2000-07-04 23:00,ZGNN 042300Z AUTO 25004KT 6SM 25/24 A2965 RMK T02500240 IEM_DS3505
ZGNN,2000-07-05 00:00,ZGNN 050000Z AUTO 18004KT 16SM 27/24 A2968 RMK SLP038 T02700243 52007 IEM_DS3505
ZGNN,2000-07-05 01:00,ZGNN 050100Z AUTO 19002KT 6SM 30/24 A2968 RMK T03000240 IEM_DS3505
ZGNN,2000-07-05 02:00,ZGNN 050200Z AUTO 00000KT 6SM 32/24 A2968 RMK T03200240 IEM_DS3505
ZGNN,2000-07-05 03:00,ZGNN 050300Z AUTO 14004KT 19SM 33/23 A2968 RMK SLP042 T03280234 52005 IEM_DS3505
ZGNN,2000-07-05 04:00,ZGNN 050400Z AUTO 18006KT 7SM 35/22 A2968 RMK T03500220 IEM_DS3505
ZGNN,2000-07-05 05:00,ZGNN 050500Z AUTO 25006KT 7SM 36/21 A2965 RMK T03600210 IEM_DS3505
ZGNN,2000-07-05 06:00,ZGNN 050600Z AUTO 20006KT 19SM 36/20 A2962 RMK SLP021 T03590198 57021 IEM_DS3505
ZGNN,2000-07-05 07:00,ZGNN 050700Z AUTO 00000KT 7SM 37/20 A2959 RMK T03700200 IEM_DS3505
ZGNN,2000-07-05 08:00,ZGNN 050800Z AUTO 00000KT 7SM 36/21 A2956 RMK T03600210 IEM_DS3505
ZGNN,2000-07-05 09:00,ZGNN 050900Z AUTO 14004KT 19SM 36/21 A2956 RMK SLP000 T03570207 57021 IEM_DS3505
ZGNN,2000-07-05 10:00,ZGNN 051000Z AUTO 10008KT 6SM 35/22 A2956 RMK T03500220 IEM_DS3505
ZGNN,2000-07-05 11:00,ZGNN 051100Z AUTO 12010KT 6SM 34/21 A2959 RMK T03400210 IEM_DS3505
ZGNN,2000-07-05 12:00,ZGNN 051200Z AUTO 14004KT 19SM 32/24 A2959 RMK SLP014 T03210241 52014 IEM_DS3505
ZGNN,2000-07-05 13:00,ZGNN 051300Z AUTO 14006KT 6SM 30/25 A2962 RMK T03000250 IEM_DS3505
ZGNN,2000-07-05 14:00,ZGNN 051400Z AUTO 18006KT 6SM 30/25 A2962 RMK T03000250 IEM_DS3505
ZGNN,2000-07-05 15:00,ZGNN 051500Z AUTO 14004KT 19SM 29/25 RMK SLP032 T02940251 52018 IEM_DS3505
ZGNN,2000-07-05 18:00,ZGNN 051800Z AUTO 09002KT 12SM 28/25 RMK SLP036 T02790252 52004 IEM_DS3505
ZGNN,2000-07-05 21:00,ZGNN 052100Z AUTO 00000KT 11SM 27/25 RMK SLP028 T02680251 57008 IEM_DS3505
ZGNN,2000-07-05 22:00,ZGNN 052200Z AUTO 00000KT 7SM 26/25 A2965 RMK T02600250 IEM_DS3505
ZGNN,2000-07-05 23:00,ZGNN 052300Z AUTO 00000KT 4SM 26/25 A2968 RMK T02600250 IEM_DS3505
ZGNN,2000-07-06 00:00,ZGNN 060000Z AUTO 18004KT 7SM 27/24 A2968 RMK 60003 SLP038 T02700244 52009 IEM_DS3505
ZGNN,2000-07-06 01:00,ZGNN 060100Z AUTO 00000KT 7SM 29/26 A2968 RMK T02900260 IEM_DS3505
ZGNN,2000-07-06 02:00,ZGNN 060200Z AUTO 22006KT 7SM 30/25 A2968 RMK T03000250 IEM_DS3505
ZGNN,2000-07-06 03:00,ZGNN 060300Z AUTO 27006KT 19SM 31/25 A2968 RMK SLP044 T03080248 52007 IEM_DS3505
ZGNN,2000-07-06 04:00,ZGNN 060400Z AUTO 21008KT 7SM 32/24 A2968 RMK T03200240 IEM_DS3505
ZGNN,2000-07-06 05:00,ZGNN 060500Z AUTO 22010KT 7SM 34/22 A2962 RMK T03400220 IEM_DS3505
ZGNN,2000-07-06 06:00,ZGNN 060600Z AUTO 18006KT 19SM 36/22 A2962 RMK 60003 SLP015 T03550217 57028 IEM_DS3505
ZGNN,2000-07-06 07:00,ZGNN 060700Z AUTO 30006KT 7SM 35/22 A2959 RMK T03500220 IEM_DS3505
ZGNN,2000-07-06 08:00,ZGNN 060800Z AUTO 33019KT 2SM 30/24 A2959 RMK T03000240 IEM_DS3505
ZGNN,2000-07-06 09:00,ZGNN 060900Z AUTO 09002KT 19SM 26/25 A2959 RMK SLP015 T02630249 57003 IEM_DS3505
ZGNN,2000-07-06 10:00,ZGNN 061000Z AUTO 21006KT 7SM 27/25 A2959 RMK T02700250 IEM_DS3505
ZGNN,2000-07-06 11:00,ZGNN 061100Z AUTO 00000KT 7SM 27/25 A2959 RMK T02700250 IEM_DS3505
ZGNN,2000-07-06 12:00,ZGNN 061200Z AUTO 00000KT 12SM 27/25 A2962 RMK 60067 SLP024 T02660252 52009 IEM_DS3505
ZGNN,2000-07-06 13:00,ZGNN 061300Z AUTO 00000KT 6SM 26/25 A2965 RMK T02600250 IEM_DS3505
ZGNN,2000-07-06 14:00,ZGNN 061400Z AUTO 00000KT 6SM 26/25 A2965 RMK T02600250 IEM_DS3505
ZGNN,2000-07-06 15:00,ZGNN 061500Z AUTO 22004KT 12SM 26/25 A2965 RMK SLP036 T02550248 52013 IEM_DS3505
ZGNN,2000-07-06 16:00,ZGNN 061600Z AUTO 25004KT 6SM 25/24 A2965 RMK T02500240 IEM_DS3505
ZGNN,2000-07-06 17:00,ZGNN 061700Z AUTO 00000KT 6SM 25/24 A2965 RMK T02500240 IEM_DS3505
ZGNN,2000-07-06 18:00,ZGNN 061800Z AUTO 00000KT 12SM 25/24 RMK SLP027 T02490242 57008 IEM_DS3505
ZGNN,2000-07-06 21:00,ZGNN 062100Z AUTO 00000KT 7SM 24/24 A2962 RMK 70067 SLP025 T02440240 57004 IEM_DS3505
ZGNN,2000-07-06 22:00,ZGNN 062200Z AUTO 00000KT 6SM 25/24 A2962 RMK T02500240 IEM_DS3505
ZGNN,2000-07-06 23:00,ZGNN 062300Z AUTO 27004KT 4SM 25/24 A2962 RMK T02500240 IEM_DS3505
ZGNN,2000-07-07 00:00,ZGNN 070000Z AUTO 00000KT 5SM 26/24 A2965 RMK 70067 SLP030 T02550245 52005 IEM_DS3505
ZGNN,2000-07-07 01:00,ZGNN 070100Z AUTO 19004KT 4SM 28/25 A2965 RMK T02800250 IEM_DS3505
ZGNN,2000-07-07 02:00,ZGNN 070200Z AUTO 13004KT 6SM 30/25 A2965 RMK T03000250 IEM_DS3505
ZGNN,2000-07-07 03:00,ZGNN 070300Z AUTO 22002KT 9SM 30/25 A2962 RMK SLP028 T03030253 57001 IEM_DS3505
ZGNN,2000-07-07 04:00,ZGNN 070400Z AUTO 00000KT 7SM 32/25 A2962 RMK T03200250 IEM_DS3505
ZGNN,2000-07-07 05:00,ZGNN 070500Z AUTO 00000KT 7SM 33/25 A2959 RMK T03300250 IEM_DS3505
ZGNN,2000-07-07 06:00,ZGNN 070600Z AUTO 27004KT 19SM 33/25 A2956 RMK SLP999 T03340251 57028 IEM_DS3505
ZGNN,2000-07-07 07:00,ZGNN 070700Z AUTO 00000KT 7SM 35/24 A2950 RMK T03500240 IEM_DS3505
ZGNN,2000-07-07 08:00,ZGNN 070800Z AUTO 00000KT 7SM 35/23 A2950 RMK T03500230 IEM_DS3505
ZGNN,2000-07-07 09:00,ZGNN 070900Z AUTO 00000KT 19SM 36/23 A2947 RMK SLP974 T03610228 57024 IEM_DS3505
ZGNN,2000-07-07 10:00,ZGNN 071000Z AUTO 21010KT 7SM 35/23 A2947 RMK T03500230 IEM_DS3505
ZGNN,2000-07-07 11:00,ZGNN 071100Z AUTO 15016KT 7SM 30/23 A2953 RMK T03000230 IEM_DS3505
ZGNN,2000-07-07 12:00,ZGNN 071200Z AUTO 25004KT 17SM 28/24 A2953 RMK SLP999 T02750236 52022 IEM_DS3505
ZGNN,2000-07-07 13:00,ZGNN 071300Z AUTO 27004KT 7SM 27/24 A2956 RMK T02700240 IEM_DS3505
ZGNN,2000-07-07 15:00,ZGNN 071500Z AUTO 14006KT 16SM 27/24 RMK SLP012 T02680239 52014 IEM_DS3505
ZGNN,2000-07-07 18:00,ZGNN 071800Z AUTO 00000KT 12SM 26/24 RMK SLP002 T02590243 57009 IEM_DS3505
ZGNN,2000-07-07 21:00,ZGNN 072100Z AUTO 00000KT 11SM 26/25 RMK SLP992 T02550246 57009 IEM_DS3505
ZGNN,2000-07-07 22:00,ZGNN 072200Z AUTO 00000KT 7SM 26/25 A2953 RMK T02600250 IEM_DS3505
ZGNN,2000-07-07 23:00,ZGNN 072300Z AUTO 35004KT 7SM 26/24 A2956 RMK T02600240 IEM_DS3505
ZGNN,2000-07-08 00:00,ZGNN 080000Z AUTO 09002KT 9SM 27/24 A2959 RMK SLP009 T02710245 52015 IEM_DS3505
ZGNN,2000-07-08 01:00,ZGNN 080100Z AUTO 03006KT 7SM 28/25 A2956 RMK T02800250 IEM_DS3505
ZGNN,2000-07-08 02:00,ZGNN 080200Z AUTO 00000KT 7SM 29/25 A2959 RMK T02900250 IEM_DS3505
ZGNN,2000-07-08 03:00,ZGNN 080300Z AUTO 04002KT 5SM 29/25 A2959 RMK SLP009 T02860254 54000 IEM_DS3505
ZGNN,2000-07-08 04:00,ZGNN 080400Z AUTO 06006KT 7SM 30/24 A2956 RMK T03000240 IEM_DS3505
ZGNN,2000-07-08 05:00,ZGNN 080500Z AUTO 00000KT 7SM 32/25 A2956 RMK T03200250 IEM_DS3505
ZGNN,2000-07-08 06:00,ZGNN 080600Z AUTO 07004KT 7SM 32/25 A2953 RMK 60003 SLP985 T03220248 57023 IEM_DS3505
ZGNN,2000-07-08 07:00,ZGNN 080700Z AUTO 12008KT 7SM 31/25 A2950 RMK T03100250 IEM_DS3505
ZGNN,2000-07-08 08:00,ZGNN 080800Z AUTO 15008KT 7SM 30/26 A2950 RMK T03000260 IEM_DS3505
ZGNN,2000-07-08 09:00,ZGNN 080900Z AUTO 18002KT 7SM 33/25 A2947 RMK SLP970 T03270252 57015 IEM_DS3505
ZGNN,2000-07-08 10:00,ZGNN 081000Z AUTO 16006KT 6SM 32/25 A2947 RMK T03200250 IEM_DS3505
ZGNN,2000-07-08 11:00,ZGNN 081100Z AUTO 17004KT 6SM 31/26 A2950 RMK T03100260 IEM_DS3505
ZGNN,2000-07-08 12:00,ZGNN 081200Z AUTO 22006KT 6SM 30/25 A2950 RMK 60003 SLP985 T02950253 52015 IEM_DS3505
ZGNN,2000-07-08 13:00,ZGNN 081300Z AUTO 21006KT 7SM 28/24 A2953 RMK T02800240 IEM_DS3505
ZGNN,2000-07-08 15:00,ZGNN 081500Z AUTO 00000KT 7SM 27/24 RMK SLP004 T02700244 52018 IEM_DS3505
ZGNN,2000-07-08 18:00,ZGNN 081800Z AUTO 29004KT 7SM 25/24 RMK 60039 SLP998 T02520243 57005 IEM_DS3505
ZGNN,2000-07-08 21:00,ZGNN 082100Z AUTO 32004KT 7SM 25/24 A2953 RMK 70043 SLP992 T02500243 57006 IEM_DS3505
ZGNN,2000-07-08 22:00,ZGNN 082200Z AUTO 00000KT 5SM 25/24 A2953 RMK T02500240 IEM_DS3505
ZGNN,2000-07-08 23:00,ZGNN 082300Z AUTO 00000KT 7SM 25/24 A2956 RMK T02500240 IEM_DS3505
ZGNN,2000-07-09 00:00,ZGNN 090000Z AUTO 04004KT 4SM 26/24 A2956 RMK 60008 SLP004 T02560245 52011 IEM_DS3505
ZGNN,2000-07-09 01:00,ZGNN 090100Z AUTO 00000KT 7SM 26/25 A2959 RMK T02600250 IEM_DS3505
ZGNN,2000-07-09 02:00,ZGNN 090200Z AUTO 33004KT 7SM 27/25 A2959 RMK T02700250 IEM_DS3505
ZGNN,2000-07-09 03:00,ZGNN 090300Z AUTO 00000KT 5SM 29/25 A2959 RMK SLP011 T02910249 52007 IEM_DS3505
ZGNN,2000-07-09 04:00,ZGNN 090400Z AUTO 35004KT 7SM 31/25 A2959 RMK T03100250 IEM_DS3505
ZGNN,2000-07-09 05:00,ZGNN 090500Z AUTO 00000KT 7SM 32/25 A2956 RMK T03200250 IEM_DS3505
ZGNN,2000-07-09 06:00,ZGNN 090600Z AUTO 07002KT 9SM 32/24 A2953 RMK 60003 SLP988 T03180245 57022 IEM_DS3505
ZGNN,2000-07-09 07:00,ZGNN 090700Z AUTO 00000KT 7SM 34/24 A2950 RMK T03400240 IEM_DS3505
ZGNN,2000-07-09 08:00,ZGNN 090800Z AUTO 13002KT 7SM 28/24 A2950 RMK T02800240 IEM_DS3505
ZGNN,2000-07-09 09:00,ZGNN 090900Z AUTO 27002KT 12SM 28/24 A2950 RMK SLP981 T02840244 57008 IEM_DS3505
ZGNN,2000-07-09 10:00,ZGNN 091000Z AUTO 34002KT 7SM 29/24 A2950 RMK T02900240 IEM_DS3505
ZGNN,2000-07-09 11:00,ZGNN 091100Z AUTO 35006KT 7SM 28/24 A2953 RMK T02800240 IEM_DS3505
ZGNN,2000-07-09 12:00,ZGNN 091200Z AUTO 34004KT 12SM 27/24 A2956 RMK 60000 SLP002 T02740240 52020 IEM_DS3505
ZGNN,2000-07-09 13:00,ZGNN 091300Z AUTO 36006KT 7SM 27/24 A2956 RMK T02700240 IEM_DS3505
ZGNN,2000-07-09 15:00,ZGNN 091500Z AUTO 22002KT 12SM 27/25 RMK SLP030 T02680247 52029 IEM_DS3505
ZGNN,2000-07-09 18:00,ZGNN 091800Z AUTO 34004KT 9SM 23/23 RMK 60075 SLP019 T02330226 57011 IEM_DS3505
ZGNN,2000-07-09 21:00,ZGNN 092100Z AUTO 00000KT 9SM 24/23 A2962 RMK 70080 SLP020 T02350228 54000 IEM_DS3505
ZGNN,2000-07-09 22:00,ZGNN 092200Z AUTO 00000KT 7SM 23/23 A2962 RMK T02300230 IEM_DS3505
ZGNN,2000-07-09 23:00,ZGNN 092300Z AUTO 14002KT 6SM 24/23 A2962 RMK T02400230 IEM_DS3505
ZGNN,2000-07-10 00:00,ZGNN 100000Z AUTO 34002KT 7SM 25/24 A2965 RMK 60003 SLP034 T02510237 52014 IEM_DS3505
ZGNN,2000-07-10 01:00,ZGNN 100100Z AUTO 35006KT 7SM 26/24 A2968 RMK T02600240 IEM_DS3505
ZGNN,2000-07-10 02:00,ZGNN 100200Z AUTO 34006KT 6SM 28/24 A2968 RMK T02800240 IEM_DS3505
ZGNN,2000-07-10 03:00,ZGNN 100300Z AUTO 14004KT 9SM 30/25 A2968 RMK SLP041 T02980247 52008 IEM_DS3505
ZGNN,2000-07-10 04:00,ZGNN 100400Z AUTO 04006KT 7SM 31/24 A2965 RMK T03100240 IEM_DS3505
ZGNN,2000-07-10 05:00,ZGNN 100500Z AUTO 07004KT 7SM 32/24 A2965 RMK T03200240 IEM_DS3505
ZGNN,2000-07-10 06:00,ZGNN 100600Z AUTO 34002KT 12SM 32/25 A2962 RMK SLP026 T03240252 57015 IEM_DS3505
ZGNN,2000-07-10 07:00,ZGNN 100700Z AUTO 06006KT 7SM 33/25 A2962 RMK T03300250 IEM_DS3505
ZGNN,2000-07-10 08:00,ZGNN 100800Z AUTO 03012KT 7SM 32/24 A2959 RMK T03200240 IEM_DS3505
ZGNN,2000-07-10 09:00,ZGNN 100900Z AUTO 34002KT 12SM 30/24 A2959 RMK SLP015 T03020238 57012 IEM_DS3505
ZGNN,2000-07-10 10:00,ZGNN 101000Z AUTO 34004KT 7SM 31/24 A2959 RMK T03100240 IEM_DS3505
ZGNN,2000-07-10 11:00,ZGNN 101100Z AUTO 15006KT 6SM 30/24 A2962 RMK T03000240 IEM_DS3505
ZGNN,2000-07-10 12:00,ZGNN 101200Z AUTO 22004KT 11SM 29/24 A2965 RMK SLP036 T02920238 52021 IEM_DS3505
ZGNN,2000-07-10 13:00,ZGNN 101300Z AUTO 00000KT 7SM 28/24 A2968 RMK T02800240 IEM_DS3505
ZGNN,2000-07-10 15:00,ZGNN 101500Z AUTO 00000KT 11SM 27/25 RMK SLP055 T02720246 52020 IEM_DS3505
ZGNN,2000-07-10 18:00,ZGNN 101800Z AUTO 00000KT 9SM 26/24 RMK SLP046 T02580245 57009 IEM_DS3505
ZGNN,2000-07-10 21:00,ZGNN 102100Z AUTO 00000KT 7SM 25/24 RMK SLP048 T02540245 52001 IEM_DS3505
ZGNN,2000-07-10 22:00,ZGNN 102200Z AUTO 00000KT 4SM 26/24 A2968 RMK T02600240 IEM_DS3505
ZGNN,2000-07-10 23:00,ZGNN 102300Z AUTO 00000KT 2SM 26/24 A2971 RMK T02600240 IEM_DS3505
ZGNN,2000-07-11 00:00,ZGNN 110000Z AUTO 00000KT 6SM 26/25 A2971 RMK SLP056 T02620248 52008 IEM_DS3505
ZGNN,2000-07-11 01:00,ZGNN 110100Z AUTO 32006KT 3SM 29/24 A2971 RMK T02900240 IEM_DS3505
ZGNN,2000-07-11 02:00,ZGNN 110200Z AUTO 34004KT 6SM 30/24 A2974 RMK T03000240 IEM_DS3505
ZGNN,2000-07-11 03:00,ZGNN 110300Z AUTO 02004KT 6SM 31/25 A2971 RMK SLP053 T03090252 57002 IEM_DS3505
ZGNN,2000-07-11 04:00,ZGNN 110400Z AUTO 36008KT 7SM 32/24 A2971 RMK T03200240 IEM_DS3505
ZGNN,2000-07-11 05:00,ZGNN 110500Z AUTO 06008KT 7SM 33/24 A2968 RMK T03300240 IEM_DS3505
ZGNN,2000-07-11 06:00,ZGNN 110600Z AUTO 04006KT 6SM 34/23 A2965 RMK SLP033 T03440234 57019 IEM_DS3505
ZGNN,2000-07-11 07:00,ZGNN 110700Z AUTO 03006KT 7SM 33/23 A2962 RMK T03300230 IEM_DS3505
ZGNN,2000-07-11 08:00,ZGNN 110800Z AUTO 03004KT 7SM 28/25 A2962 RMK T02800250 IEM_DS3505
ZGNN,2000-07-11 09:00,ZGNN 110900Z AUTO 11004KT 5SM 28/25 A2962 RMK SLP023 T02840253 57012 IEM_DS3505
ZGNN,2000-07-11 10:00,ZGNN 111000Z AUTO 36004KT 7SM 29/26 A2962 RMK T02900260 IEM_DS3505
ZGNN,2000-07-11 11:00,ZGNN 111100Z AUTO 06006KT 7SM 29/25 A2962 RMK T02900250 IEM_DS3505
ZGNN,2000-07-11 12:00,ZGNN 111200Z AUTO 00000KT 6SM 28/26 A2965 RMK 60003 SLP034 T02810257 52011 IEM_DS3505
ZGNN,2000-07-11 13:00,ZGNN 111300Z AUTO 03006KT 6SM 28/25 A2968 RMK T02800250 IEM_DS3505
ZGNN,2000-07-11 14:00,ZGNN 111400Z AUTO 02010KT 7SM 28/24 A2971 RMK T02800240 IEM_DS3505
ZGNN,2000-07-11 15:00,ZGNN 111500Z AUTO 09010KT 9SM 28/24 A2971 RMK SLP053 T02820235 52020 IEM_DS3505
ZGNN,2000-07-11 16:00,ZGNN 111600Z AUTO 06016KT 7SM 28/23 A2971 RMK T02800230 IEM_DS3505
ZGNN,2000-07-11 18:00,ZGNN 111800Z AUTO 09006KT 9SM 27/24 RMK 60000 SLP051 T02690236 57001 IEM_DS3505
ZGNN,2000-07-11 21:00,ZGNN 112100Z AUTO 09006KT 9SM 26/24 A2968 RMK 70004 SLP047 T02590236 57006 IEM_DS3505
ZGNN,2000-07-11 22:00,ZGNN 112200Z AUTO 06008KT 7SM 25/24 A2971 RMK T02500240 IEM_DS3505
ZGNN,2000-07-11 23:00,ZGNN 112300Z AUTO 06008KT 7SM 26/24 A2971 RMK T02600240 IEM_DS3505
ZGNN,2000-07-12 00:00,ZGNN 120000Z AUTO 07006KT 8SM 27/24 A2974 RMK 70004 SLP061 T02680236 52014 IEM_DS3505
ZGNN,2000-07-12 01:00,ZGNN 120100Z AUTO 09010KT 7SM 28/23 A2974 RMK T02800230 IEM_DS3505
ZGNN,2000-07-12 02:00,ZGNN 120200Z AUTO 06012KT 7SM 29/24 A2977 RMK T02900240 IEM_DS3505
ZGNN,2000-07-12 03:00,ZGNN 120300Z AUTO 14006KT 12SM 30/24 A2974 RMK SLP067 T02950238 52007 IEM_DS3505
ZGNN,2000-07-12 04:00,ZGNN 120400Z AUTO 09014KT 7SM 31/24 A2974 RMK T03100240 IEM_DS3505
ZGNN,2000-07-12 05:00,ZGNN 120500Z AUTO 12006KT 7SM 31/23 A2974 RMK T03100230 IEM_DS3505
ZGNN,2000-07-12 06:00,ZGNN 120600Z AUTO 20006KT 19SM 32/23 A2971 RMK 60000 SLP052 T03160233 57015 IEM_DS3505
ZGNN,2000-07-12 07:00,ZGNN 120700Z AUTO 08006KT 7SM 31/24 A2968 RMK T03100240 IEM_DS3505
ZGNN,2000-07-12 08:00,ZGNN 120800Z AUTO 03006KT 7SM 26/25 A2968 RMK T02600250 IEM_DS3505
ZGNN,2000-07-12 09:00,ZGNN 120900Z AUTO 09004KT 16SM 28/25 RMK SLP048 T02850251 57005 IEM_DS3505
ZGNN,2000-07-12 10:00,ZGNN 121000Z AUTO 06010KT 7SM 25/24 A2971 RMK T02500240 IEM_DS3505
ZGNN,2000-07-12 11:00,ZGNN 121100Z AUTO 09006KT 7SM 25/24 A2971 RMK T02500240 IEM_DS3505
ZGNN,2000-07-12 12:00,ZGNN 121200Z AUTO 07004KT 16SM 26/24 A2974 RMK 60016 SLP058 T02560245 52009 IEM_DS3505
ZGNN,2000-07-12 13:00,ZGNN 121300Z AUTO 05004KT 7SM 25/24 A2974 RMK T02500240 IEM_DS3505
ZGNN,2000-07-12 15:00,ZGNN 121500Z AUTO 00000KT 14SM 25/24 RMK SLP068 T02540244 52011 IEM_DS3505
ZGNN,2000-07-12 18:00,ZGNN 121800Z AUTO 00000KT 12SM 25/25 RMK 60012 SLP064 T02520246 57004 IEM_DS3505
ZGNN,2000-07-12 21:00,ZGNN 122100Z AUTO 18004KT 9SM 25/24 A2971 RMK 70052 SLP061 T02480244 57003 IEM_DS3505
ZGNN,2000-07-12 22:00,ZGNN 122200Z AUTO 00000KT 7SM 25/24 A2974 RMK T02500240 IEM_DS3505
ZGNN,2000-07-12 23:00,ZGNN 122300Z AUTO 12008KT 2SM 25/24 A2974 RMK T02500240 IEM_DS3505
ZGNN,2000-07-13 00:00,ZGNN 130000Z AUTO 09004KT 7SM 26/25 A2974 RMK 60051 SLP069 T02600247 52007 IEM_DS3505
ZGNN,2000-07-13 01:00,ZGNN 130100Z AUTO 11008KT 7SM 27/25 A2977 RMK T02700250 IEM_DS3505
ZGNN,2000-07-13 03:00,ZGNN 130300Z AUTO 29004KT 19SM 28/25 A2977 RMK SLP069 T02800246 52001 IEM_DS3505
ZGNN,2000-07-13 04:00,ZGNN 130400Z AUTO 21004KT 7SM 27/25 A2974 RMK T02700250 IEM_DS3505
ZGNN,2000-07-13 05:00,ZGNN 130500Z AUTO 00000KT 7SM 25/24 A2974 RMK T02500240 IEM_DS3505
ZGNN,2000-07-13 06:00,ZGNN 130600Z AUTO 32004KT 19SM 28/25 A2971 RMK 60063 SLP052 T02820254 57017 IEM_DS3505
ZGNN,2000-07-13 07:00,ZGNN 130700Z AUTO 17010KT 7SM 29/24 A2971 RMK T02900240 IEM_DS3505
ZGNN,2000-07-13 08:00,ZGNN 130800Z AUTO 22004KT 7SM 29/25 A2968 RMK T02900250 IEM_DS3505
ZGNN,2000-07-13 09:00,ZGNN 130900Z AUTO 29002KT 19SM 29/26 A2965 RMK SLP032 T02900257 57020 IEM_DS3505
ZGNN,2000-07-13 10:00,ZGNN 131000Z AUTO 19014KT 7SM 30/25 A2965 RMK T03000250 IEM_DS3505
ZGNN,2000-07-13 11:00,ZGNN 131100Z AUTO 17008KT 7SM 29/24 A2965 RMK T02900240 IEM_DS3505
ZGNN,2000-07-13 12:00,ZGNN 131200Z AUTO 18002KT 19SM 28/25 A2968 RMK 60004 SLP042 T02800246 52010 IEM_DS3505
ZGNN,2000-07-13 13:00,ZGNN 131300Z AUTO 12004KT 6SM 26/24 A2968 RMK T02600240 IEM_DS3505
ZGNN,2000-07-13 15:00,ZGNN 131500Z AUTO 14004KT 19SM 26/24 RMK SLP057 T02620243 52015 IEM_DS3505
ZGNN,2000-07-13 18:00,ZGNN 131800Z AUTO 07002KT 17SM 25/24 RMK SLP048 T02500243 57009 IEM_DS3505
ZGNN,2000-07-13 21:00,ZGNN 132100Z AUTO 00000KT 12SM 25/24 A2968 RMK 70097 SLP038 T02510241 57010 IEM_DS3505
ZGNN,2000-07-13 22:00,ZGNN 132200Z AUTO 03004KT 7SM 25/24 A2968 RMK T02500240 IEM_DS3505
ZGNN,2000-07-13 23:00,ZGNN 132300Z AUTO 00000KT 7SM 26/24 A2968 RMK T02600240 IEM_DS3505
ZGNN,2000-07-14 00:00,ZGNN 140000Z AUTO 00000KT 16SM 27/24 A2971 RMK 60003 SLP051 T02660243 52013 IEM_DS3505
ZGNN,2000-07-14 01:00,ZGNN 140100Z AUTO 07004KT 7SM 27/24 A2971 RMK T02700240 IEM_DS3505
ZGNN,2000-07-14 02:00,ZGNN 140200Z AUTO 09012KT 7SM 29/24 A2971 RMK T02900240 IEM_DS3505
ZGNN,2000-07-14 03:00,ZGNN 140300Z AUTO 14008KT 19SM 30/24 A2971 RMK SLP050 T02980238 57001 IEM_DS3505
ZGNN,2000-07-14 04:00,ZGNN 140400Z AUTO 11010KT 7SM 31/23 A2968 RMK T03100230 IEM_DS3505
ZGNN,2000-07-14 05:00,ZGNN 140500Z AUTO 12010KT 7SM 32/23 A2968 RMK T03200230 IEM_DS3505
ZGNN,2000-07-14 06:00,ZGNN 140600Z AUTO 16004KT 19SM 31/23 A2965 RMK SLP030 T03110228 57019 IEM_DS3505
ZGNN,2000-07-14 07:00,ZGNN 140700Z AUTO 15010KT 7SM 29/25 A2962 RMK T02900250 IEM_DS3505
ZGNN,2000-07-14 08:00,ZGNN 140800Z AUTO 14006KT 7SM 31/25 A2962 RMK T03100250 IEM_DS3505
ZGNN,2000-07-14 09:00,ZGNN 140900Z AUTO 20006KT 19SM 32/25 A2962 RMK SLP016 T03160246 57014 IEM_DS3505
ZGNN,2000-07-14 10:00,ZGNN 141000Z AUTO 14012KT 6SM 31/24 A2959 RMK T03100240 IEM_DS3505
ZGNN,2000-07-14 11:00,ZGNN 141100Z AUTO 17006KT 6SM 29/24 A2959 RMK T02900240 IEM_DS3505
ZGNN,2000-07-14 12:00,ZGNN 141200Z AUTO 00000KT 19SM 29/24 A2962 RMK SLP022 T02870237 52006 IEM_DS3505
ZGNN,2000-07-14 13:00,ZGNN 141300Z AUTO 12006KT 6SM 27/23 A2962 RMK T02700230 IEM_DS3505
ZGNN,2000-07-14 15:00,ZGNN 141500Z AUTO 00000KT 19SM 26/24 RMK SLP036 T02610240 52014 IEM_DS3505
ZGNN,2000-07-14 18:00,ZGNN 141800Z AUTO 00000KT 17SM 26/24 RMK SLP038 T02550242 52001 IEM_DS3505
ZGNN,2000-07-14 21:00,ZGNN 142100Z AUTO 07002KT 17SM 25/24 RMK 70003 SLP026 T02530243 57011 IEM_DS3505
ZGNN,2000-07-14 22:00,ZGNN 142200Z AUTO 07004KT 7SM 25/24 A2965 RMK T02500240 IEM_DS3505
ZGNN,2000-07-14 23:00,ZGNN 142300Z AUTO 08004KT 7SM 26/24 A2965 RMK T02600240 IEM_DS3505
ZGNN,2000-07-15 00:00,ZGNN 150000Z AUTO 00000KT 7SM 27/24 A2965 RMK SLP034 T02700241 52008 IEM_DS3505
ZGNN,2000-07-15 01:00,ZGNN 150100Z AUTO 00000KT 7SM 28/25 A2968 RMK T02800250 IEM_DS3505
ZGNN,2000-07-15 02:00,ZGNN 150200Z AUTO 14006KT 7SM 30/25 A2968 RMK T03000250 IEM_DS3505
ZGNN,2000-07-15 03:00,ZGNN 150300Z AUTO 20004KT 19SM 30/24 A2965 RMK SLP034 T02980244 54000 IEM_DS3505
ZGNN,2000-07-15 04:00,ZGNN 150400Z AUTO 15006KT 7SM 32/24 A2965 RMK T03200240 IEM_DS3505
ZGNN,2000-07-15 05:00,ZGNN 150500Z AUTO 14004KT 7SM 32/24 A2962 RMK T03200240 IEM_DS3505
ZGNN,2000-07-15 06:00,ZGNN 150600Z AUTO 07004KT 19SM 33/24 A2959 RMK SLP016 T03260243 57018 IEM_DS3505
ZGNN,2000-07-15 07:00,ZGNN 150700Z AUTO 10006KT 7SM 34/23 A2959 RMK T03400230 IEM_DS3505
ZGNN,2000-07-15 08:00,ZGNN 150800Z AUTO 12006KT 7SM 34/24 A2956 RMK T03400240 IEM_DS3505
ZGNN,2000-07-15 09:00,ZGNN 150900Z AUTO 18006KT 17SM 34/24 A2956 RMK SLP002 T03410237 57013 IEM_DS3505
ZGNN,2000-07-15 10:00,ZGNN 151000Z AUTO 16016KT 7SM 34/23 A2956 RMK T03400230 IEM_DS3505
ZGNN,2000-07-15 11:00,ZGNN 151100Z AUTO 17006KT 7SM 30/24 A2959 RMK T03000240 IEM_DS3505
ZGNN,2000-07-15 12:00,ZGNN 151200Z AUTO 00000KT 16SM 29/25 A2962 RMK SLP025 T02910250 52022 IEM_DS3505
ZGNN,2000-07-15 13:00,ZGNN 151300Z AUTO 00000KT 7SM 29/25 A2965 RMK T02900250 IEM_DS3505
ZGNN,2000-07-15 14:00,ZGNN 151400Z AUTO 00000KT 7SM 28/25 A2962 RMK T02800250 IEM_DS3505
ZGNN,2000-07-15 15:00,ZGNN 151500Z AUTO 35004KT 7SM 28/25 A2965 RMK T02800250 IEM_DS3505
ZGNN,2000-07-15 18:00,ZGNN 151800Z AUTO 00000KT 12SM 26/24 RMK SLP021 T02570244 57012 IEM_DS3505
ZGNN,2000-07-15 22:00,ZGNN 152200Z AUTO 00000KT 6SM 26/24 A2962 RMK T02600240 IEM_DS3505
ZGNN,2000-07-15 23:00,ZGNN 152300Z AUTO 34006KT 7SM 26/24 A2962 RMK T02600240 IEM_DS3505
ZGNN,2000-07-16 00:00,ZGNN 160000Z AUTO 34002KT 9SM 27/25 A2962 RMK SLP026 T02680248 52012 IEM_DS3505
ZGNN,2000-07-16 01:00,ZGNN 160100Z AUTO 36004KT 7SM 29/25 A2965 RMK T02900250 IEM_DS3505
ZGNN,2000-07-16 02:00,ZGNN 160200Z AUTO 36004KT 6SM 32/25 A2965 RMK T03200250 IEM_DS3505
ZGNN,2000-07-16 03:00,ZGNN 160300Z AUTO 04006KT 11SM 32/23 A2965 RMK SLP035 T03210234 52009 IEM_DS3505
ZGNN,2000-07-16 04:00,ZGNN 160400Z AUTO 01004KT 7SM 33/24 A2965 RMK T03300240 IEM_DS3505
ZGNN,2000-07-16 05:00,ZGNN 160500Z AUTO 07010KT 7SM 34/23 A2962 RMK T03400230 IEM_DS3505
ZGNN,2000-07-16 06:00,ZGNN 160600Z AUTO 04004KT 11SM 34/24 A2959 RMK SLP015 T03360242 57019 IEM_DS3505
ZGNN,2000-07-16 07:00,ZGNN 160700Z AUTO 03008KT 7SM 33/24 A2956 RMK T03300240 IEM_DS3505
ZGNN,2000-07-16 08:00,ZGNN 160800Z AUTO 06010KT 7SM 34/23 A2956 RMK T03400230 IEM_DS3505
ZGNN,2000-07-16 09:00,ZGNN 160900Z AUTO 07006KT 9SM 35/24 A2953 RMK SLP991 T03470240 57024 IEM_DS3505
ZGNN,2000-07-16 10:00,ZGNN 161000Z AUTO 05006KT 7SM 34/23 A2950 RMK T03400230 IEM_DS3505
ZGNN,2000-07-16 11:00,ZGNN 161100Z AUTO 02004KT 7SM 33/24 A2953 RMK T03300240 IEM_DS3505
ZGNN,2000-07-16 12:00,ZGNN 161200Z AUTO 00000KT 12SM 31/24 A2956 RMK 60003 SLP003 T03140244 52012 IEM_DS3505
ZGNN,2000-07-16 13:00,ZGNN 161300Z AUTO 34004KT 6SM 30/25 A2956 RMK T03000250 IEM_DS3505
ZGNN,2000-07-16 14:00,ZGNN 161400Z AUTO 00000KT 6SM 29/25 A2959 RMK T02900250 IEM_DS3505
ZGNN,2000-07-16 15:00,ZGNN 161500Z AUTO 00000KT 12SM 29/26 A2959 RMK SLP018 T02910259 52015 IEM_DS3505
ZGNN,2000-07-16 16:00,ZGNN 161600Z AUTO 00000KT 6SM 28/25 A2959 RMK T02800250 IEM_DS3505
ZGNN,2000-07-16 17:00,ZGNN 161700Z AUTO 35004KT 6SM 27/24 A2959 RMK T02700240 IEM_DS3505
ZGNN,2000-07-16 18:00,ZGNN 161800Z AUTO 00000KT 12SM 27/25 A2956 RMK SLP009 T02700250 57009 IEM_DS3505
ZGNN,2000-07-16 21:00,ZGNN 162100Z AUTO 00000KT 12SM 26/25 A2953 RMK 70003 SLP991 T02640247 57018 IEM_DS3505
ZGNN,2000-07-16 22:00,ZGNN 162200Z AUTO 00000KT 6SM 26/24 A2953 RMK T02600240 IEM_DS3505
ZGNN,2000-07-16 23:00,ZGNN 162300Z AUTO 33006KT 6SM 28/24 A2953 RMK T02800240 IEM_DS3505
ZGNN,2000-07-17 00:00,ZGNN 170000Z AUTO 36006KT 6SM 28/24 A2956 RMK 70003 SLP000 T02850242 52009 IEM_DS3505
ZGNN,2000-07-17 01:00,ZGNN 170100Z AUTO 35004KT 7SM 30/24 A2956 RMK T03000240 IEM_DS3505
ZGNN,2000-07-17 02:00,ZGNN 170200Z AUTO 01006KT 7SM 30/25 A2956 RMK T03000250 IEM_DS3505
ZGNN,2000-07-17 03:00,ZGNN 170300Z AUTO 18006KT 7SM 32/25 A2959 RMK SLP008 T03180251 52008 IEM_DS3505
ZGNN,2000-07-17 04:00,ZGNN 170400Z AUTO 04004KT 7SM 33/25 A2956 RMK T03300250 IEM_DS3505
ZGNN,2000-07-17 05:00,ZGNN 170500Z AUTO 03006KT 7SM 34/24 A2953 RMK T03400240 IEM_DS3505
ZGNN,2000-07-17 06:00,ZGNN 170600Z AUTO 34008KT 12SM 34/24 A2950 RMK 60003 SLP984 T03400245 57023 IEM_DS3505
ZGNN,2000-07-17 07:00,ZGNN 170700Z AUTO 30004KT 7SM 35/25 A2947 RMK T03500250 IEM_DS3505
ZGNN,2000-07-17 08:00,ZGNN 170800Z AUTO 00000KT 7SM 35/24 A2944 RMK T03500240 IEM_DS3505
ZGNN,2000-07-17 09:00,ZGNN 170900Z AUTO 11004KT 12SM 27/22 A2944 RMK SLP965 T02710223 57021 IEM_DS3505
ZGNN,2000-07-17 10:00,ZGNN 171000Z AUTO 36010KT 7SM 30/23 A2947 RMK T03000230 IEM_DS3505
ZGNN,2000-07-17 11:00,ZGNN 171100Z AUTO 33006KT 7SM RMK IEM_DS3505
ZGNN,2000-07-17 12:00,ZGNN 171200Z AUTO 02004KT 12SM 27/23 A2950 RMK 60039 SLP984 T02660234 52019 IEM_DS3505
ZGNN,2000-07-17 13:00,ZGNN 171300Z AUTO 34006KT 7SM 26/23 A2950 RMK T02600230 IEM_DS3505
ZGNN,2000-07-17 15:00,ZGNN 171500Z AUTO 07002KT 9SM 26/24 RMK SLP003 T02580236 52019 IEM_DS3505
ZGNN,2000-07-17 18:00,ZGNN 171800Z AUTO 00000KT 9SM 25/24 RMK 60000 SLP990 T02500239 57012 IEM_DS3505
ZGNN,2000-07-17 21:00,ZGNN 172100Z AUTO 00000KT 9SM 24/24 RMK 70039 SLP986 T02450235 57006 IEM_DS3505
ZGNN,2000-07-17 22:00,ZGNN 172200Z AUTO 00000KT 5SM 25/24 A2950 RMK T02500240 IEM_DS3505
ZGNN,2000-07-17 23:00,ZGNN 172300Z AUTO 36004KT 2SM 25/24 A2950 RMK T02500240 IEM_DS3505
ZGNN,2000-07-18 00:00,ZGNN 180000Z AUTO 00000KT 6SM 26/25 A2953 RMK 70039 SLP993 T02580247 52007 IEM_DS3505
ZGNN,2000-07-18 01:00,ZGNN 180100Z AUTO 19006KT 6SM 29/25 A2953 RMK T02900250 IEM_DS3505
ZGNN,2000-07-18 02:00,ZGNN 180200Z AUTO 00000KT 6SM 30/24 A2953 RMK T03000240 IEM_DS3505
ZGNN,2000-07-18 03:00,ZGNN 180300Z AUTO 14004KT 12SM 32/26 A2953 RMK SLP991 T03160258 54000 IEM_DS3505
ZGNN,2000-07-18 04:00,ZGNN 180400Z AUTO 16008KT 6SM 34/24 A2950 RMK T03400240 IEM_DS3505
ZGNN,2000-07-18 05:00,ZGNN 180500Z AUTO 16006KT 6SM 35/24 A2950 RMK T03500240 IEM_DS3505
ZGNN,2000-07-18 06:00,ZGNN 180600Z AUTO 34004KT 19SM 35/24 A2947 RMK SLP975 T03460243 57016 IEM_DS3505
ZGNN,2000-07-18 07:00,ZGNN 180700Z AUTO 12008KT 7SM 36/24 A2944 RMK T03600240 IEM_DS3505
ZGNN,2000-07-18 08:00,ZGNN 180800Z AUTO 13008KT 7SM 36/25 A2941 RMK T03600250 IEM_DS3505
ZGNN,2000-07-18 09:00,ZGNN 180900Z AUTO 18006KT 19SM 35/26 A2941 RMK SLP950 T03500260 57024 IEM_DS3505
ZGNN,2000-07-18 10:00,ZGNN 181000Z AUTO 15012KT 7SM 34/26 A2941 RMK T03400260 IEM_DS3505
ZGNN,2000-07-18 11:00,ZGNN 181100Z AUTO 16010KT 7SM 32/26 A2941 RMK T03200260 IEM_DS3505
ZGNN,2000-07-18 12:00,ZGNN 181200Z AUTO 16008KT 19SM 31/26 A2944 RMK SLP964 T03100262 52013 IEM_DS3505
ZGNN,2000-07-18 13:00,ZGNN 181300Z AUTO 15010KT 7SM 30/26 A2950 RMK T03000260 IEM_DS3505
ZGNN,2000-07-18 14:00,ZGNN 181400Z AUTO 25004KT 7SM 29/23 A2953 RMK T02900230 IEM_DS3505
ZGNN,2000-07-18 15:00,ZGNN 181500Z AUTO 27019KT 12SM 28/23 A2956 RMK SLP002 T02810229 52038 IEM_DS3505
ZGNN,2000-07-18 18:00,ZGNN 181800Z AUTO 09004KT 7SM 24/24 RMK 60094 SLP991 T02410235 57011 IEM_DS3505
ZGNN,2000-07-18 21:00,ZGNN 182100Z AUTO 20006KT 6SM 24/22 RMK 70061 SLP981 T02400224 57013 IEM_DS3505
ZGNN,2000-07-19 00:00,ZGNN 190000Z AUTO 22002KT 16SM 24/23 RMK 60016 SLP005 T02400228 52020 IEM_DS3505
ZGNN,2000-07-19 01:00,ZGNN 190100Z AUTO 13004KT 7SM 23/22 A2956 RMK T02300220 IEM_DS3505
ZGNN,2000-07-19 02:00,ZGNN 190200Z AUTO 10004KT 7SM 23/23 A2956 RMK T02300230 IEM_DS3505
ZGNN,2000-07-19 03:00,ZGNN 190300Z AUTO 14004KT 16SM 29/20 A2959 RMK SLP008 T02890204 52003 IEM_DS3505
ZGNN,2000-07-19 04:00,ZGNN 190400Z AUTO 04004KT 7SM 24/23 A2959 RMK T02400230 IEM_DS3505
ZGNN,2000-07-19 05:00,ZGNN 190500Z AUTO 17006KT 7SM 26/23 A2959 RMK T02600230 IEM_DS3505
ZGNN,2000-07-19 06:00,ZGNN 190600Z AUTO 14004KT 19SM 26/23 A2956 RMK 60008 SLP003 T02640232 57006 IEM_DS3505
ZGNN,2000-07-19 07:00,ZGNN 190700Z AUTO 12008KT 7SM 28/23 A2956 RMK T02800230 IEM_DS3505
ZGNN,2000-07-19 08:00,ZGNN 190800Z AUTO 12008KT 7SM 29/23 A2953 RMK T02900230 IEM_DS3505
ZGNN,2000-07-19 09:00,ZGNN 190900Z AUTO 18004KT 19SM 29/24 A2953 RMK SLP988 T02860241 57015 IEM_DS3505
ZGNN,2000-07-19 10:00,ZGNN 191000Z AUTO 00000KT 7SM 29/24 A2950 RMK T02900240 IEM_DS3505
ZGNN,2000-07-19 11:00,ZGNN 191100Z AUTO 00000KT 7SM 29/24 A2950 RMK T02900240 IEM_DS3505
ZGNN,2000-07-19 12:00,ZGNN 191200Z AUTO 00000KT 19SM 28/25 A2953 RMK SLP998 T02820247 52010 IEM_DS3505
ZGNN,2000-07-19 13:00,ZGNN 191300Z AUTO 16006KT 7SM 27/25 A2956 RMK T02700250 IEM_DS3505
ZGNN,2000-07-19 14:00,ZGNN 191400Z AUTO 06008KT 7SM 27/25 A2959 RMK T02700250 IEM_DS3505
ZGNN,2000-07-19 15:00,ZGNN 191500Z AUTO 11002KT 12SM 26/24 RMK SLP022 T02550244 52024 IEM_DS3505
ZGNN,2000-07-19 18:00,ZGNN 191800Z AUTO 09002KT 12SM 25/25 RMK 60000 SLP012 T02530246 57010 IEM_DS3505
ZGNN,2000-07-19 21:00,ZGNN 192100Z AUTO 14004KT 12SM 26/25 A2956 RMK 70015 SLP004 T02550246 57007 IEM_DS3505
ZGNN,2000-07-19 22:00,ZGNN 192200Z AUTO 08006KT 7SM 25/25 A2956 RMK T02500250 IEM_DS3505
ZGNN,2000-07-19 23:00,ZGNN 192300Z AUTO 07008KT 7SM 26/25 A2959 RMK T02600250 IEM_DS3505
ZGNN,2000-07-20 00:00,ZGNN 200000Z AUTO 07002KT 7SM 25/24 A2962 RMK 60000 SLP017 T02510241 52012 IEM_DS3505
ZGNN,2000-07-20 01:00,ZGNN 200100Z AUTO 06006KT 7SM 26/24 A2962 RMK T02600240 IEM_DS3505
ZGNN,2000-07-20 02:00,ZGNN 200200Z AUTO 13006KT 1 1/4SM 25/24 A2965 RMK T02500240 IEM_DS3505
ZGNN,2000-07-20 03:00,ZGNN 200300Z AUTO 18002KT 5SM 25/24 A2965 RMK SLP036 T02460242 52018 IEM_DS3505
ZGNN,2000-07-20 04:00,ZGNN 200400Z AUTO 10006KT 7SM 25/24 A2965 RMK T02500240 IEM_DS3505
ZGNN,2000-07-20 05:00,ZGNN 200500Z AUTO 13008KT 7SM 26/25 A2965 RMK T02600250 IEM_DS3505
ZGNN,2000-07-20 06:00,ZGNN 200600Z AUTO 14008KT 6SM 26/25 A2965 RMK 60028 SLP035 T02590246 54000 IEM_DS3505
ZGNN,2000-07-20 07:00,ZGNN 200700Z AUTO 12008KT 7SM 25/24 A2965 RMK T02500240 IEM_DS3505
ZGNN,2000-07-20 08:00,ZGNN 200800Z AUTO 15008KT 7SM 26/24 A2962 RMK T02600240 IEM_DS3505
ZGNN,2000-07-20 09:00,ZGNN 200900Z AUTO 14006KT 19SM 26/24 A2962 RMK SLP025 T02620243 57010 IEM_DS3505
ZGNN,2000-07-20 10:00,ZGNN 201000Z AUTO 09008KT 7SM 26/24 A2962 RMK T02600240 IEM_DS3505
ZGNN,2000-07-20 11:00,ZGNN 201100Z AUTO 12006KT 7SM 26/24 A2965 RMK T02600240 IEM_DS3505
ZGNN,2000-07-20 12:00,ZGNN 201200Z AUTO 09004KT 19SM 25/24 A2968 RMK 60000 SLP042 T02540240 52016 IEM_DS3505
ZGNN,2000-07-20 13:00,ZGNN 201300Z AUTO 06008KT 7SM 25/24 A2971 RMK T02500240 IEM_DS3505
ZGNN,2000-07-20 14:00,ZGNN 201400Z AUTO 07006KT 7SM 25/24 A2971 RMK T02500240 IEM_DS3505
ZGNN,2000-07-20 15:00,ZGNN 201500Z AUTO 09004KT 12SM 25/24 RMK SLP064 T02470240 52022 IEM_DS3505
ZGNN,2000-07-20 18:00,ZGNN 201800Z AUTO 11004KT 12SM 25/24 RMK 60008 SLP056 T02490242 57008 IEM_DS3505
ZGNN,2000-07-20 21:00,ZGNN 202100Z AUTO 14002KT 12SM 25/24 A2971 RMK 70049 SLP054 T02480244 57002 IEM_DS3505
ZGNN,2000-07-20 22:00,ZGNN 202200Z AUTO 05004KT 7SM 25/24 A2971 RMK T02500240 IEM_DS3505
ZGNN,2000-07-20 23:00,ZGNN 202300Z AUTO 10004KT 2 1/2SM 25/24 A2974 RMK T02500240 IEM_DS3505
ZGNN,2000-07-21 00:00,ZGNN 210000Z AUTO 09006KT 2 1/2SM 24/24 A2977 RMK 60224 SLP077 T02400237 52022 IEM_DS3505
ZGNN,2000-07-21 01:00,ZGNN 210100Z AUTO 03006KT 4SM 24/24 A2977 RMK T02400240 IEM_DS3505
ZGNN,2000-07-21 02:00,ZGNN 210200Z AUTO 12006KT 4SM 24/24 A2977 RMK T02400240 IEM_DS3505
ZGNN,2000-07-21 03:00,ZGNN 210300Z AUTO 14004KT 4SM 24/24 A2977 RMK SLP078 T02440241 52001 IEM_DS3505
ZGNN,2000-07-21 04:00,ZGNN 210400Z AUTO 19006KT 5SM 25/24 A2977 RMK T02500240 IEM_DS3505
ZGNN,2000-07-21 05:00,ZGNN 210500Z AUTO 15004KT 5SM 25/24 A2977 RMK T02500240 IEM_DS3505
ZGNN,2000-07-21 06:00,ZGNN 210600Z AUTO 16002KT 4SM 25/24 A2977 RMK 60102 SLP072 T02460242 57005 IEM_DS3505
ZGNN,2000-07-21 07:00,ZGNN 210700Z AUTO 10006KT 7SM 24/23 A2974 RMK T02400230 IEM_DS3505
ZGNN,2000-07-21 08:00,ZGNN 210800Z AUTO 12004KT 7SM 24/23 A2974 RMK T02400230 IEM_DS3505
ZGNN,2000-07-21 09:00,ZGNN 210900Z AUTO 09004KT 12SM 24/23 A2974 RMK SLP060 T02420232 57012 IEM_DS3505
ZGNN,2000-07-21 10:00,ZGNN 211000Z AUTO 11004KT 7SM 24/23 A2974 RMK T02400230 IEM_DS3505
ZGNN,2000-07-21 11:00,ZGNN 211100Z AUTO 10006KT 7SM 24/24 A2974 RMK T02400240 IEM_DS3505
ZGNN,2000-07-21 12:00,ZGNN 211200Z AUTO 00000KT 19SM 24/24 A2977 RMK 60008 SLP071 T02420235 52010 IEM_DS3505
ZGNN,2000-07-21 13:00,ZGNN 211300Z AUTO 08004KT 7SM 24/23 A2977 RMK T02400230 IEM_DS3505
ZGNN,2000-07-21 15:00,ZGNN 211500Z AUTO 09002KT 19SM 24/23 RMK SLP091 T02380234 52020 IEM_DS3505
ZGNN,2000-07-21 18:00,ZGNN 211800Z AUTO 00000KT 19SM 24/23 RMK 60003 SLP074 T02370233 57017 IEM_DS3505
ZGNN,2000-07-21 21:00,ZGNN 212100Z AUTO 00000KT 17SM 24/23 RMK 70322 SLP070 T02390232 57004 IEM_DS3505
ZGNN,2000-07-21 22:00,ZGNN 212200Z AUTO 00000KT 7SM 24/23 A2974 RMK T02400230 IEM_DS3505
ZGNN,2000-07-21 23:00,ZGNN 212300Z AUTO 00000KT 7SM 24/23 A2977 RMK T02400230 IEM_DS3505
ZGNN,2000-07-22 00:00,ZGNN 220000Z AUTO 00000KT 7SM 24/24 A2977 RMK 70110 SLP072 T02440237 52002 IEM_DS3505
ZGNN,2000-07-22 01:00,ZGNN 220100Z AUTO 07004KT 7SM 25/24 A2977 RMK T02500240 IEM_DS3505
ZGNN,2000-07-22 02:00,ZGNN 220200Z AUTO 06004KT 7SM 27/24 A2980 RMK T02700240 IEM_DS3505
ZGNN,2000-07-22 03:00,ZGNN 220300Z AUTO 14002KT 16SM 28/25 A2977 RMK SLP075 T02760251 52004 IEM_DS3505
ZGNN,2000-07-22 04:00,ZGNN 220400Z AUTO 11010KT 7SM 29/25 A2977 RMK T02900250 IEM_DS3505
ZGNN,2000-07-22 05:00,ZGNN 220500Z AUTO 14012KT 7SM 29/25 A2974 RMK T02900250 IEM_DS3505
ZGNN,2000-07-22 06:00,ZGNN 220600Z AUTO 14006KT 19SM 29/25 A2971 RMK SLP054 T02890250 57020 IEM_DS3505
ZGNN,2000-07-22 07:00,ZGNN 220700Z AUTO 17008KT 7SM 29/24 A2971 RMK T02900240 IEM_DS3505
ZGNN,2000-07-22 08:00,ZGNN 220800Z AUTO 00000KT 7SM 28/24 A2968 RMK T02800240 IEM_DS3505
ZGNN,2000-07-22 09:00,ZGNN 220900Z AUTO 14004KT 19SM 28/25 A2968 RMK SLP044 T02820248 57010 IEM_DS3505
ZGNN,2000-07-22 10:00,ZGNN 221000Z AUTO 10008KT 7SM 26/25 A2968 RMK T02600250 IEM_DS3505
ZGNN,2000-07-22 11:00,ZGNN 221100Z AUTO 10006KT 7SM 26/24 A2971 RMK T02600240 IEM_DS3505
ZGNN,2000-07-22 12:00,ZGNN 221200Z AUTO 14002KT 19SM 26/24 A2971 RMK 60003 SLP058 T02590240 52013 IEM_DS3505
ZGNN,2000-07-22 13:00,ZGNN 221300Z AUTO 13004KT 7SM 25/23 A2974 RMK T02500230 IEM_DS3505
ZGNN,2000-07-22 15:00,ZGNN 221500Z AUTO 09004KT 19SM 25/23 RMK SLP072 T02480232 57014 IEM_DS3505
ZGNN,2000-07-22 18:00,ZGNN 221800Z AUTO 09002KT 19SM 24/23 RMK SLP060 T02420233 57011 IEM_DS3505
ZGNN,2000-07-22 21:00,ZGNN 222100Z AUTO 04002KT 16SM 24/23 A2968 RMK 70003 SLP048 T02400233 57012 IEM_DS3505
ZGNN,2000-07-22 22:00,ZGNN 222200Z AUTO 00000KT 7SM 24/23 A2968 RMK T02400230 IEM_DS3505
ZGNN,2000-07-22 23:00,ZGNN 222300Z AUTO 07004KT 7SM 24/23 A2971 RMK T02400230 IEM_DS3505
ZGNN,2000-07-23 00:00,ZGNN 230000Z AUTO 14006KT 7SM 25/23 A2971 RMK 70003 SLP059 T02510234 52010 IEM_DS3505
ZGNN,2000-07-23 01:00,ZGNN 230100Z AUTO 11006KT 7SM 26/24 A2971 RMK T02600240 IEM_DS3505
ZGNN,2000-07-23 02:00,ZGNN 230200Z AUTO 13006KT 7SM 28/24 A2971 RMK T02800240 IEM_DS3505
ZGNN,2000-07-23 03:00,ZGNN 230300Z AUTO 14006KT 19SM 29/25 A2971 RMK SLP051 T02920247 57007 IEM_DS3505
ZGNN,2000-07-23 04:00,ZGNN 230400Z AUTO 12006KT 7SM 31/24 A2968 RMK T03100240 IEM_DS3505
ZGNN,2000-07-23 05:00,ZGNN 230500Z AUTO 14008KT 7SM 32/24 A2968 RMK T03200240 IEM_DS3505
ZGNN,2000-07-23 06:00,ZGNN 230600Z AUTO 22002KT 19SM 32/24 A2965 RMK SLP034 T03150242 57016 IEM_DS3505
ZGNN,2000-07-23 08:00,ZGNN 230800Z AUTO 13010KT 7SM 32/23 A2962 RMK T03200230 IEM_DS3505
ZGNN,2000-07-23 09:00,ZGNN 230900Z AUTO 18004KT 19SM 30/24 A2962 RMK SLP025 T03040242 57010 IEM_DS3505
ZGNN,2000-07-23 10:00,ZGNN 231000Z AUTO 14006KT 7SM 30/24 A2962 RMK T03000240 IEM_DS3505
ZGNN,2000-07-23 11:00,ZGNN 231100Z AUTO 19006KT 7SM 29/25 A2962 RMK T02900250 IEM_DS3505
ZGNN,2000-07-23 12:00,ZGNN 231200Z AUTO 16004KT 16SM 28/25 A2965 RMK SLP031 T02850250 52006 IEM_DS3505
ZGNN,2000-07-23 13:00,ZGNN 231300Z AUTO 14008KT 7SM 27/24 A2965 RMK T02700240 IEM_DS3505
ZGNN,2000-07-23 14:00,ZGNN 231400Z AUTO 14004KT 7SM 27/24 A2968 RMK T02700240 IEM_DS3505
ZGNN,2000-07-23 15:00,ZGNN 231500Z AUTO 00000KT 14SM 27/25 RMK SLP042 T02680248 52012 IEM_DS3505
ZGNN,2000-07-23 18:00,ZGNN 231800Z AUTO 00000KT 14SM 26/25 RMK SLP042 T02560247 54000 IEM_DS3505
ZGNN,2000-07-23 21:00,ZGNN 232100Z AUTO 00000KT 12SM 25/24 A2968 RMK SLP042 T02490243 57001 IEM_DS3505
ZGNN,2000-07-23 22:00,ZGNN 232200Z AUTO 00000KT 6SM 25/24 A2968 RMK T02500240 IEM_DS3505
ZGNN,2000-07-23 23:00,ZGNN 232300Z AUTO 00000KT 3SM 25/24 A2968 RMK T02500240 IEM_DS3505
ZGNN,2000-07-24 00:00,ZGNN 240000Z AUTO 00000KT 5SM 26/25 A2968 RMK SLP048 T02590248 52006 IEM_DS3505
ZGNN,2000-07-24 01:00,ZGNN 240100Z AUTO 14006KT 19SM 33/24 A2971 RMK SLP034 T03300240 57017 IEM_DS3505
ZGNN,2000-07-24 02:00,ZGNN 240200Z AUTO 00000KT 7SM 28/25 A2971 RMK T02800250 IEM_DS3505
ZGNN,2000-07-24 03:00,ZGNN 240300Z AUTO 00000KT 16SM 30/25 A2971 RMK SLP051 T02980247 52004 IEM_DS3505
ZGNN,2000-07-24 04:00,ZGNN 240400Z AUTO 16008KT 7SM 32/23 A2968 RMK T03200230 IEM_DS3505
ZGNN,2000-07-24 05:00,ZGNN 240500Z AUTO 15004KT 7SM 33/23 A2968 RMK T03300230 IEM_DS3505
ZGNN,2000-07-24 06:00,ZGNN 240600Z AUTO 14006KT 19SM 33/24 A2965 RMK SLP034 T03300240 57017 IEM_DS3505
ZGNN,2000-07-24 07:00,ZGNN 240700Z AUTO 09004KT 7SM 33/24 A2962 RMK T03300240 IEM_DS3505
ZGNN,2000-07-24 08:00,ZGNN 240800Z AUTO 06008KT 7SM 32/24 A2962 RMK T03200240 IEM_DS3505
ZGNN,2000-07-24 09:00,ZGNN 240900Z AUTO 29008KT 19SM 31/26 A2962 RMK SLP021 T03060256 57013 IEM_DS3505
ZGNN,2000-07-24 10:00,ZGNN 241000Z AUTO 32004KT 7SM 31/25 A2962 RMK T03100250 IEM_DS3505
ZGNN,2000-07-24 11:00,ZGNN 241100Z AUTO 15010KT 6SM 31/24 A2962 RMK T03100240 IEM_DS3505
ZGNN,2000-07-24 12:00,ZGNN 241200Z AUTO 14004KT 19SM 30/25 A2962 RMK SLP029 T02990247 52008 IEM_DS3505
ZGNN,2000-07-24 13:00,ZGNN 241300Z AUTO 15008KT 6SM 29/25 A2965 RMK T02900250 IEM_DS3505
ZGNN,2000-07-24 14:00,ZGNN 241400Z AUTO 15006KT 6SM 28/25 A2968 RMK T02800250 IEM_DS3505
ZGNN,2000-07-24 15:00,ZGNN 241500Z AUTO 00000KT 19SM 28/25 A2968 RMK SLP048 T02750250 52019 IEM_DS3505
ZGNN,2000-07-24 18:00,ZGNN 241800Z AUTO 00000KT 16SM 26/25 RMK SLP044 T02570246 57004 IEM_DS3505
ZGNN,2000-07-24 21:00,ZGNN 242100Z AUTO 07002KT 12SM 25/24 RMK SLP041 T02460240 57004 IEM_DS3505
ZGNN,2000-07-24 22:00,ZGNN 242200Z AUTO 00000KT 6SM 24/24 A2968 RMK T02400240 IEM_DS3505
ZGNN,2000-07-24 23:00,ZGNN 242300Z AUTO 36004KT 6SM 24/24 A2968 RMK T02400240 IEM_DS3505
ZGNN,2000-07-25 00:00,ZGNN 250000Z AUTO 00000KT 5SM 26/25 A2971 RMK SLP053 T02580248 52012 IEM_DS3505
ZGNN,2000-07-25 01:00,ZGNN 250100Z AUTO 00000KT 6SM 27/24 A2974 RMK T02700240 IEM_DS3505
ZGNN,2000-07-25 02:00,ZGNN 250200Z AUTO 00000KT 6SM 29/24 A2971 RMK T02900240 IEM_DS3505
ZGNN,2000-07-25 03:00,ZGNN 250300Z AUTO 18004KT 19SM 30/24 A2971 RMK SLP056 T03020244 52004 IEM_DS3505
ZGNN,2000-07-25 04:00,ZGNN 250400Z AUTO 14006KT 7SM 32/23 A2971 RMK T03200230 IEM_DS3505
ZGNN,2000-07-25 05:00,ZGNN 250500Z AUTO 00000KT 7SM 33/23 A2968 RMK T03300230 IEM_DS3505
ZGNN,2000-07-25 06:00,ZGNN 250600Z AUTO 00000KT 19SM 33/24 A2965 RMK SLP035 T03280244 57021 IEM_DS3505
ZGNN,2000-07-25 07:00,ZGNN 250700Z AUTO 22004KT 7SM 34/23 A2962 RMK T03400230 IEM_DS3505
ZGNN,2000-07-25 08:00,ZGNN 250800Z AUTO 22004KT 7SM 35/23 A2962 RMK T03500230 IEM_DS3505
ZGNN,2000-07-25 09:00,ZGNN 250900Z AUTO 27004KT 19SM 34/24 A2959 RMK SLP013 T03430239 57021 IEM_DS3505
ZGNN,2000-07-25 10:00,ZGNN 251000Z AUTO 12010KT 7SM 33/25 A2956 RMK T03300250 IEM_DS3505
ZGNN,2000-07-25 11:00,ZGNN 251100Z AUTO 12008KT 7SM 32/24 A2956 RMK T03200240 IEM_DS3505
ZGNN,2000-07-25 12:00,ZGNN 251200Z AUTO 14002KT 19SM 31/26 A2959 RMK SLP013 T03120255 57001 IEM_DS3505
ZGNN,2000-07-25 13:00,ZGNN 251300Z AUTO 15014KT 7SM 30/25 A2962 RMK T03000250 IEM_DS3505
ZGNN,2000-07-25 15:00,ZGNN 251500Z AUTO 14004KT 16SM 29/25 RMK SLP037 T02860254 52024 IEM_DS3505
ZGNN,2000-07-25 18:00,ZGNN 251800Z AUTO 11002KT 12SM 27/26 RMK SLP035 T02710256 57001 IEM_DS3505
ZGNN,2000-07-25 21:00,ZGNN 252100Z AUTO 00000KT 12SM 26/25 A2965 RMK SLP036 T02620252 52001 IEM_DS3505
ZGNN,2000-07-25 22:00,ZGNN 252200Z AUTO 00000KT 6SM 26/25 A2968 RMK T02600250 IEM_DS3505
ZGNN,2000-07-25 23:00,ZGNN 252300Z AUTO 36004KT 6SM 27/25 A2968 RMK T02700250 IEM_DS3505
ZGNN,2000-07-26 00:00,ZGNN 260000Z AUTO 00000KT 16SM 28/25 A2968 RMK SLP046 T02780253 52009 IEM_DS3505
ZGNN,2000-07-26 01:00,ZGNN 260100Z AUTO 00000KT 7SM 29/24 A2971 RMK T02900240 IEM_DS3505
ZGNN,2000-07-26 02:00,ZGNN 260200Z AUTO 15004KT 7SM 31/24 A2971 RMK T03100240 IEM_DS3505
ZGNN,2000-07-26 03:00,ZGNN 260300Z AUTO 27004KT 19SM 31/24 A2971 RMK SLP047 T03100236 52001 IEM_DS3505
ZGNN,2000-07-26 04:00,ZGNN 260400Z AUTO 00000KT 7SM 32/23 A2968 RMK T03200230 IEM_DS3505
ZGNN,2000-07-26 05:00,ZGNN 260500Z AUTO 00000KT 7SM 34/23 A2965 RMK T03400230 IEM_DS3505
ZGNN,2000-07-26 06:00,ZGNN 260600Z AUTO 27006KT 19SM 34/23 A2965 RMK SLP028 T03380233 57018 IEM_DS3505
ZGNN,2000-07-26 07:00,ZGNN 260700Z AUTO 00000KT 7SM 35/22 A2962 RMK T03500220 IEM_DS3505
ZGNN,2000-07-26 08:00,ZGNN 260800Z AUTO 17008KT 7SM 35/22 A2959 RMK T03500220 IEM_DS3505
ZGNN,2000-07-26 09:00,ZGNN 260900Z AUTO 22006KT 19SM 36/24 A2956 RMK SLP004 T03550243 57024 IEM_DS3505
ZGNN,2000-07-26 10:00,ZGNN 261000Z AUTO 11004KT 7SM 35/23 A2956 RMK T03500230 IEM_DS3505
ZGNN,2000-07-26 11:00,ZGNN 261100Z AUTO 14006KT 6SM 33/24 A2956 RMK T03300240 IEM_DS3505
ZGNN,2000-07-26 12:00,ZGNN 261200Z AUTO 18004KT 19SM 32/26 A2956 RMK SLP005 T03190257 52001 IEM_DS3505
ZGNN,2000-07-26 13:00,ZGNN 261300Z AUTO 15010KT 6SM 30/26 A2959 RMK T03000260 IEM_DS3505
ZGNN,2000-07-26 15:00,ZGNN 261500Z AUTO 18002KT 19SM 29/26 RMK SLP027 T02860260 52022 IEM_DS3505
ZGNN,2000-07-26 18:00,ZGNN 261800Z AUTO 00000KT 19SM 27/26 RMK SLP018 T02730259 57009 IEM_DS3505
ZGNN,2000-07-26 21:00,ZGNN 262100Z AUTO 00000KT 19SM 26/25 A2959 RMK SLP010 T02580251 57008 IEM_DS3505
ZGNN,2000-07-26 22:00,ZGNN 262200Z AUTO 00000KT 6SM 26/25 A2959 RMK T02600250 IEM_DS3505
ZGNN,2000-07-26 23:00,ZGNN 262300Z AUTO 00000KT 6SM 26/25 A2962 RMK T02600250 IEM_DS3505
ZGNN,2000-07-27 00:00,ZGNN 270000Z AUTO 00000KT 12SM 27/26 A2962 RMK SLP023 T02710256 52013 IEM_DS3505
ZGNN,2000-07-27 01:00,ZGNN 270100Z AUTO 00000KT 6SM 29/25 A2965 RMK T02900250 IEM_DS3505
ZGNN,2000-07-27 02:00,ZGNN 270200Z AUTO 15002KT 7SM 30/25 A2965 RMK T03000250 IEM_DS3505
ZGNN,2000-07-27 03:00,ZGNN 270300Z AUTO 25004KT 5SM 30/24 A2965 RMK SLP032 T03020243 52008 IEM_DS3505
ZGNN,2000-07-27 04:00,ZGNN 270400Z AUTO 17004KT 7SM 33/24 A2962 RMK T03300240 IEM_DS3505
ZGNN,2000-07-27 05:00,ZGNN 270500Z AUTO 00000KT 7SM 34/23 A2962 RMK T03400230 IEM_DS3505
ZGNN,2000-07-27 06:00,ZGNN 270600Z AUTO 32004KT 19SM 34/24 A2959 RMK SLP014 T03370238 57017 IEM_DS3505
ZGNN,2000-07-27 07:00,ZGNN 270700Z AUTO 00000KT 7SM 34/22 A2956 RMK T03400220 IEM_DS3505
ZGNN,2000-07-27 08:00,ZGNN 270800Z AUTO 12006KT 7SM 36/23 A2953 RMK T03600230 IEM_DS3505
ZGNN,2000-07-27 09:00,ZGNN 270900Z AUTO 22004KT 19SM 35/23 A2953 RMK SLP989 T03480229 57025 IEM_DS3505
ZGNN,2000-07-27 10:00,ZGNN 271000Z AUTO 13006KT 7SM 34/21 A2950 RMK T03400210 IEM_DS3505
ZGNN,2000-07-27 11:00,ZGNN 271100Z AUTO 14010KT 6SM 33/24 A2953 RMK T03300240 IEM_DS3505
ZGNN,2000-07-27 12:00,ZGNN 271200Z AUTO 14006KT 19SM 32/25 A2953 RMK SLP993 T03180251 52004 IEM_DS3505
ZGNN,2000-07-27 13:00,ZGNN 271300Z AUTO 14008KT 6SM 30/26 A2956 RMK T03000260 IEM_DS3505
ZGNN,2000-07-27 15:00,ZGNN 271500Z AUTO 18002KT 19SM 28/26 RMK SLP022 T02850257 52028 IEM_DS3505
ZGNN,2000-07-27 18:00,ZGNN 271800Z AUTO 00000KT 16SM 28/26 RMK SLP013 T02780256 57008 IEM_DS3505
ZGNN,2000-07-27 21:00,ZGNN 272100Z AUTO 00000KT 16SM 27/25 A2962 RMK SLP018 T02660253 52005 IEM_DS3505
ZGNN,2000-07-27 22:00,ZGNN 272200Z AUTO 12004KT 7SM 26/25 A2962 RMK T02600250 IEM_DS3505
ZGNN,2000-07-27 23:00,ZGNN 272300Z AUTO 00000KT 7SM 26/25 A2962 RMK T02600250 IEM_DS3505
ZGNN,2000-07-28 00:00,ZGNN 280000Z AUTO 00000KT 12SM 27/26 A2965 RMK SLP035 T02720255 52016 IEM_DS3505
ZGNN,2000-07-28 01:00,ZGNN 280100Z AUTO 18004KT 7SM 29/25 A2968 RMK T02900250 IEM_DS3505
ZGNN,2000-07-28 02:00,ZGNN 280200Z AUTO 09004KT 6SM 31/24 A2968 RMK T03100240 IEM_DS3505
ZGNN,2000-07-28 03:00,ZGNN 280300Z AUTO 36004KT 19SM 32/24 A2971 RMK SLP047 T03180240 52012 IEM_DS3505
ZGNN,2000-07-28 04:00,ZGNN 280400Z AUTO 27006KT 7SM 34/22 A2968 RMK T03400220 IEM_DS3505
ZGNN,2000-07-28 05:00,ZGNN 280500Z AUTO 21006KT 7SM 34/22 A2965 RMK T03400220 IEM_DS3505
ZGNN,2000-07-28 06:00,ZGNN 280600Z AUTO 02004KT 19SM 34/23 A2962 RMK SLP026 T03400234 57020 IEM_DS3505
ZGNN,2000-07-28 07:00,ZGNN 280700Z AUTO 08004KT 7SM 35/23 A2962 RMK T03500230 IEM_DS3505
ZGNN,2000-07-28 08:00,ZGNN 280800Z AUTO 14008KT 7SM 36/22 A2959 RMK T03600220 IEM_DS3505
ZGNN,2000-07-28 09:00,ZGNN 280900Z AUTO 16004KT 19SM 36/23 A2956 RMK SLP001 T03570226 57024 IEM_DS3505
ZGNN,2000-07-28 10:00,ZGNN 281000Z AUTO 13006KT 7SM 35/22 A2956 RMK T03500220 IEM_DS3505
ZGNN,2000-07-28 11:00,ZGNN 281100Z AUTO 11010KT 7SM 34/23 A2956 RMK T03400230 IEM_DS3505
ZGNN,2000-07-28 12:00,ZGNN 281200Z AUTO 16002KT 19SM 32/24 A2959 RMK SLP008 T03240242 52006 IEM_DS3505
ZGNN,2000-07-28 15:00,ZGNN 281500Z AUTO 00000KT 19SM 29/26 RMK SLP037 T02890257 52029 IEM_DS3505
ZGNN,2000-07-28 18:00,ZGNN 281800Z AUTO 00000KT 19SM 27/25 RMK SLP031 T02730253 57006 IEM_DS3505
ZGNN,2000-07-28 21:00,ZGNN 282100Z AUTO 00000KT 16SM 26/25 RMK SLP033 T02580247 52002 IEM_DS3505
ZGNN,2000-07-28 22:00,ZGNN 282200Z AUTO 00000KT 6SM 25/24 A2965 RMK T02500240 IEM_DS3505
ZGNN,2000-07-28 23:00,ZGNN 282300Z AUTO 00000KT 6SM 26/25 A2968 RMK T02600250 IEM_DS3505
ZGNN,2000-07-29 00:00,ZGNN 290000Z AUTO 00000KT 16SM 27/25 A2971 RMK SLP051 T02700250 52017 IEM_DS3505
ZGNN,2000-07-29 01:00,ZGNN 290100Z AUTO 20006KT 6SM 29/24 A2971 RMK T02900240 IEM_DS3505
ZGNN,2000-07-29 02:00,ZGNN 290200Z AUTO 15006KT 6SM 31/24 A2971 RMK T03100240 IEM_DS3505
ZGNN,2000-07-29 03:00,ZGNN 290300Z AUTO 20006KT 19SM 31/24 RMK SLP047 T03130242 57004 IEM_DS3505
ZGNN,2000-07-29 04:00,ZGNN 290400Z AUTO 12004KT 7SM 33/23 A2971 RMK T03300230 IEM_DS3505
ZGNN,2000-07-29 06:00,ZGNN 290600Z AUTO 22006KT 19SM 34/22 RMK SLP028 T03410225 57018 IEM_DS3505
ZGNN,2000-07-29 08:00,ZGNN 290800Z AUTO 14008KT 7SM 36/22 A2959 RMK T03600220 IEM_DS3505
ZGNN,2000-07-29 09:00,ZGNN 290900Z AUTO 00000KT 19SM 36/22 A2959 RMK SLP010 T03550215 57018 IEM_DS3505
ZGNN,2000-07-29 10:00,ZGNN 291000Z AUTO 11010KT 7SM 35/23 A2959 RMK T03500230 IEM_DS3505
ZGNN,2000-07-29 11:00,ZGNN 291100Z AUTO 14010KT 6SM 33/24 A2959 RMK T03300240 IEM_DS3505
ZGNN,2000-07-29 12:00,ZGNN 291200Z AUTO 14004KT 19SM 31/26 A2962 RMK SLP021 T03120257 52010 IEM_DS3505
ZGNN,2000-07-29 13:00,ZGNN 291300Z AUTO 15010KT 6SM 30/26 A2965 RMK T03000260 IEM_DS3505
ZGNN,2000-07-29 15:00,ZGNN 291500Z AUTO 00000KT 16SM 28/26 RMK SLP039 T02850260 52018 IEM_DS3505
ZGNN,2000-07-29 18:00,ZGNN 291800Z AUTO 00000KT 14SM 27/26 RMK SLP042 T02740259 52004 IEM_DS3505
ZGNN,2000-07-29 21:00,ZGNN 292100Z AUTO 00000KT 12SM 26/25 A2968 RMK SLP044 T02640254 52002 IEM_DS3505
ZGNN,2000-07-29 22:00,ZGNN 292200Z AUTO 00000KT 7SM 27/26 A2971 RMK T02700260 IEM_DS3505
ZGNN,2000-07-29 23:00,ZGNN 292300Z AUTO 00000KT 7SM 27/26 A2971 RMK T02700260 IEM_DS3505
ZGNN,2000-07-30 00:00,ZGNN 300000Z AUTO 22002KT 7SM 27/26 A2971 RMK SLP057 T02710260 52012 IEM_DS3505
ZGNN,2000-07-30 01:00,ZGNN 300100Z AUTO 22006KT 6SM 29/25 A2974 RMK T02900250 IEM_DS3505
ZGNN,2000-07-30 02:00,ZGNN 300200Z AUTO 20010KT 7SM 31/25 A2974 RMK T03100250 IEM_DS3505
ZGNN,2000-07-30 03:00,ZGNN 300300Z AUTO 18004KT 19SM 32/24 A2974 RMK SLP059 T03160241 52002 IEM_DS3505
ZGNN,2000-07-30 04:00,ZGNN 300400Z AUTO 27004KT 7SM 33/23 A2971 RMK T03300230 IEM_DS3505
ZGNN,2000-07-30 05:00,ZGNN 300500Z AUTO 17006KT 7SM 34/23 A2968 RMK T03400230 IEM_DS3505
ZGNN,2000-07-30 06:00,ZGNN 300600Z AUTO 20006KT 19SM 35/23 A2965 RMK SLP033 T03460233 57025 IEM_DS3505
ZGNN,2000-07-30 07:00,ZGNN 300700Z AUTO 00000KT 7SM 36/22 A2962 RMK T03600220 IEM_DS3505
ZGNN,2000-07-30 08:00,ZGNN 300800Z AUTO 00000KT 7SM 36/22 A2962 RMK T03600220 IEM_DS3505
ZGNN,2000-07-30 09:00,ZGNN 300900Z AUTO 22004KT 19SM 36/22 A2962 RMK SLP016 T03630225 57017 IEM_DS3505
ZGNN,2000-07-30 10:00,ZGNN 301000Z AUTO 14004KT 7SM 35/22 A2962 RMK T03500220 IEM_DS3505
ZGNN,2000-07-30 11:00,ZGNN 301100Z AUTO 16008KT 7SM 32/25 A2962 RMK T03200250 IEM_DS3505
ZGNN,2000-07-30 12:00,ZGNN 301200Z AUTO 14004KT 16SM 31/25 A2965 RMK SLP029 T03130246 52012 IEM_DS3505
ZGNN,2000-07-30 13:00,ZGNN 301300Z AUTO 17006KT 7SM 30/23 A2968 RMK T03000230 IEM_DS3505
ZGNN,2000-07-30 14:00,ZGNN 301400Z AUTO 14008KT 7SM 29/24 A2971 RMK T02900240 IEM_DS3505
ZGNN,2000-07-30 15:00,ZGNN 301500Z AUTO 02004KT 9SM 28/26 RMK SLP059 T02850257 52030 IEM_DS3505
ZGNN,2000-07-30 18:00,ZGNN 301800Z AUTO 00000KT 12SM 26/25 RMK 60098 SLP054 T02560246 57005 IEM_DS3505
ZGNN,2000-07-30 21:00,ZGNN 302100Z AUTO 00000KT 12SM 24/24 A2968 RMK 70099 SLP043 T02450236 57010 IEM_DS3505
ZGNN,2000-07-30 22:00,ZGNN 302200Z AUTO 00000KT 7SM 25/24 A2968 RMK T02500240 IEM_DS3505
ZGNN,2000-07-30 23:00,ZGNN 302300Z AUTO 00000KT 6SM 25/24 A2971 RMK T02500240 IEM_DS3505
ZGNN,2000-07-31 00:00,ZGNN 310000Z AUTO 27002KT 16SM 26/23 A2971 RMK 60003 SLP055 T02580233 52011 IEM_DS3505
ZGNN,2000-07-31 01:00,ZGNN 310100Z AUTO 23004KT 6SM 27/23 A2974 RMK T02700230 IEM_DS3505
ZGNN,2000-07-31 02:00,ZGNN 310200Z AUTO 19004KT 7SM 29/24 A2974 RMK T02900240 IEM_DS3505
ZGNN,2000-07-31 03:00,ZGNN 310300Z AUTO 00000KT 19SM 30/24 A2974 RMK SLP057 T02950241 52002 IEM_DS3505
ZGNN,2000-07-31 04:00,ZGNN 310400Z AUTO 03004KT 7SM 31/23 A2971 RMK T03100230 IEM_DS3505
ZGNN,2000-07-31 05:00,ZGNN 310500Z AUTO 13006KT 7SM 33/24 A2968 RMK T03300240 IEM_DS3505
ZGNN,2000-07-31 06:00,ZGNN 310600Z AUTO 20004KT 19SM 32/24 A2965 RMK SLP035 T03250237 57022 IEM_DS3505
ZGNN,2000-07-31 07:00,ZGNN 310700Z AUTO 00000KT 7SM 34/24 A2962 RMK T03400240 IEM_DS3505
ZGNN,2000-07-31 08:00,ZGNN 310800Z AUTO 33006KT 7SM 33/24 A2962 RMK T03300240 IEM_DS3505
ZGNN,2000-07-31 09:00,ZGNN 310900Z AUTO 22004KT 19SM 27/23 A2962 RMK SLP026 T02700234 57010 IEM_DS3505
ZGNN,2000-07-31 10:00,ZGNN 311000Z AUTO 00000KT 7SM 28/24 A2962 RMK T02800240 IEM_DS3505
ZGNN,2000-07-31 11:00,ZGNN 311100Z AUTO 04004KT 7SM 28/25 A2962 RMK T02800250 IEM_DS3505
ZGNN,2000-07-31 12:00,ZGNN 311200Z AUTO 00000KT 19SM 28/26 A2965 RMK 60012 SLP029 T02760255 52003 IEM_DS3505
ZGNN,2000-07-31 13:00,ZGNN 311300Z AUTO 16004KT 7SM 28/26 A2965 RMK T02800260 IEM_DS3505
ZGNN,2000-07-31 14:00,ZGNN 311400Z AUTO 19004KT 7SM 27/26 A2968 RMK T02700260 IEM_DS3505
ZGNN,2000-07-31 15:00,ZGNN 311500Z AUTO 00000KT 17SM 27/26 A2968 RMK SLP046 T02740261 52018 IEM_DS3505
ZGNN,2000-07-31 18:00,ZGNN 311800Z AUTO 00000KT 16SM 27/26 RMK SLP036 T02700259 57010 IEM_DS3505
ZGNN,2000-07-31 21:00,ZGNN 312100Z AUTO 34002KT 16SM 26/25 RMK T02590252 IEM_DS3505
ZGNN,2000-07-31 22:00,ZGNN 312200Z AUTO 16004KT 7SM 26/25 A2968 RMK T02600250 IEM_DS3505
ZGNN,2000-07-31 23:00,ZGNN 312300Z AUTO 16006KT 7SM 26/25 A2968 RMK T02600250 IEM_DS3505
ZGNN,2000-08-01 00:00,ZGNN 010000Z AUTO 22004KT 12SM 26/24 A2968 RMK 70012 SLP044 T02590240 52014 IEM_DS3505
ZGNN,2000-08-01 01:00,ZGNN 010100Z AUTO 00000KT 7SM 27/25 A2968 RMK T02700250 IEM_DS3505
ZGNN,2000-08-01 03:00,ZGNN 010300Z AUTO 14004KT 16SM 29/25 RMK SLP044 T02940246 52001 IEM_DS3505
ZGNN,2000-08-01 05:00,ZGNN 010500Z AUTO 13012KT 3SM 29/25 A2968 RMK T02900250 IEM_DS3505
ZGNN,2000-08-01 06:00,ZGNN 010600Z AUTO 14004KT 19SM 28/26 A2965 RMK 60016 SLP035 T02760259 57010 IEM_DS3505
ZGNN,2000-08-01 07:00,ZGNN 010700Z AUTO 00000KT 7SM 29/25 A2965 RMK T02900250 IEM_DS3505
ZGNN,2000-08-01 08:00,ZGNN 010800Z AUTO 08004KT 7SM 26/25 A2962 RMK T02600250 IEM_DS3505
ZGNN,2000-08-01 09:00,ZGNN 010900Z AUTO 34002KT 19SM 28/26 A2959 RMK SLP017 T02780260 57018 IEM_DS3505
ZGNN,2000-08-01 10:00,ZGNN 011000Z AUTO 06004KT 7SM 28/26 A2959 RMK T02800260 IEM_DS3505
ZGNN,2000-08-01 11:00,ZGNN 011100Z AUTO 16006KT 7SM 28/24 A2959 RMK T02800240 IEM_DS3505
ZGNN,2000-08-01 12:00,ZGNN 011200Z AUTO 00000KT 19SM 28/26 A2965 RMK 60012 SLP032 T02760259 52015 IEM_DS3505
ZGNN,2000-08-01 13:00,ZGNN 011300Z AUTO 13006KT 7SM 28/26 A2965 RMK T02800260 IEM_DS3505
ZGNN,2000-08-01 14:00,ZGNN 011400Z AUTO 12006KT 7SM 27/25 A2968 RMK T02700250 IEM_DS3505
ZGNN,2000-08-01 15:00,ZGNN 011500Z AUTO 14002KT 19SM 27/25 RMK SLP046 T02740254 52015 IEM_DS3505
ZGNN,2000-08-01 18:00,ZGNN 011800Z AUTO 22002KT 19SM 26/24 RMK SLP041 T02640243 57006 IEM_DS3505
ZGNN,2000-08-01 21:00,ZGNN 012100Z AUTO 00000KT 17SM 26/25 A2962 RMK 70029 SLP025 T02600246 57016 IEM_DS3505
ZGNN,2000-08-01 22:00,ZGNN 012200Z AUTO 00000KT 7SM 26/25 A2962 RMK T02600250 IEM_DS3505
ZGNN,2000-08-01 23:00,ZGNN 012300Z AUTO 35004KT 7SM 26/25 A2962 RMK T02600250 IEM_DS3505
ZGNN,2000-08-02 00:00,ZGNN 020000Z AUTO 16004KT 16SM 26/24 A2965 RMK 60000 SLP036 T02620239 52011 IEM_DS3505
ZGNN,2000-08-02 01:00,ZGNN 020100Z AUTO 08006KT 7SM 27/24 A2965 RMK T02700240 IEM_DS3505
ZGNN,2000-08-02 02:00,ZGNN 020200Z AUTO 13010KT 7SM 27/24 A2968 RMK T02700240 IEM_DS3505
ZGNN,2000-08-02 03:00,ZGNN 020300Z AUTO 25004KT 19SM 27/24 A2968 RMK SLP041 T02670244 52005 IEM_DS3505
ZGNN,2000-08-02 04:00,ZGNN 020400Z AUTO 12006KT 7SM 27/25 A2965 RMK T02700250 IEM_DS3505
ZGNN,2000-08-02 05:00,ZGNN 020500Z AUTO 15004KT 7SM 27/24 A2965 RMK T02700240 IEM_DS3505
ZGNN,2000-08-02 06:00,ZGNN 020600Z AUTO 20006KT 19SM 29/25 A2962 RMK 60000 SLP023 T02870249 57017 IEM_DS3505
ZGNN,2000-08-02 07:00,ZGNN 020700Z AUTO 22008KT 7SM 30/24 A2959 RMK T03000240 IEM_DS3505
ZGNN,2000-08-02 08:00,ZGNN 020800Z AUTO 14006KT 7SM 29/24 A2959 RMK T02900240 IEM_DS3505
ZGNN,2000-08-02 09:00,ZGNN 020900Z AUTO 16006KT 19SM 28/24 A2956 RMK SLP007 T02830245 57016 IEM_DS3505
ZGNN,2000-08-02 10:00,ZGNN 021000Z AUTO 15008KT 7SM 28/25 A2956 RMK T02800250 IEM_DS3505
ZGNN,2000-08-02 11:00,ZGNN 021100Z AUTO 12006KT 7SM 28/25 A2959 RMK T02800250 IEM_DS3505
ZGNN,2000-08-02 12:00,ZGNN 021200Z AUTO 14004KT 19SM 28/25 A2959 RMK SLP016 T02760251 52008 IEM_DS3505
ZGNN,2000-08-02 13:00,ZGNN 021300Z AUTO 13006KT 7SM 27/25 A2962 RMK T02700250 IEM_DS3505
ZGNN,2000-08-02 14:00,ZGNN 021400Z AUTO 12006KT 7SM 27/25 A2962 RMK T02700250 IEM_DS3505
ZGNN,2000-08-02 15:00,ZGNN 021500Z AUTO 16004KT 16SM 27/25 A2962 RMK SLP029 T02690251 52013 IEM_DS3505
ZGNN,2000-08-02 16:00,ZGNN 021600Z AUTO 10004KT 7SM 26/24 A2965 RMK T02600240 IEM_DS3505
ZGNN,2000-08-02 17:00,ZGNN 021700Z AUTO 00000KT 7SM 26/24 A2962 RMK T02600240 IEM_DS3505
ZGNN,2000-08-02 18:00,ZGNN 021800Z AUTO 16004KT 12SM 26/25 A2962 RMK SLP020 T02640250 57008 IEM_DS3505
ZGNN,2000-08-02 19:14,ZGNN 021914Z AUTO 08004KT 7SM 26/25 A2959 RMK T02600250 IEM_DS3505
ZGNN,2000-08-02 21:00,ZGNN 022100Z AUTO 09002KT 12SM 26/25 A2959 RMK 70001 SLP015 T02640253 57005 IEM_DS3505
ZGNN,2000-08-02 22:00,ZGNN 022200Z AUTO 14004KT 7SM 26/25 A2959 RMK T02600250 IEM_DS3505
ZGNN,2000-08-02 23:00,ZGNN 022300Z AUTO 00000KT 7SM 26/25 A2959 RMK T02600250 IEM_DS3505
ZGNN,2000-08-03 00:00,ZGNN 030000Z AUTO 00000KT 19SM 26/25 A2962 RMK 60003 SLP026 T02640246 52010 IEM_DS3505
ZGNN,2000-08-03 01:00,ZGNN 030100Z AUTO 13006KT 7SM 26/24 A2962 RMK T02600240 IEM_DS3505
ZGNN,2000-08-03 02:00,ZGNN 030200Z AUTO 12008KT 7SM 26/24 A2965 RMK T02600240 IEM_DS3505
ZGNN,2000-08-03 03:00,ZGNN 030300Z AUTO 09004KT 19SM 26/25 A2962 RMK SLP027 T02640251 52001 IEM_DS3505
ZGNN,2000-08-03 04:00,ZGNN 030400Z AUTO 09006KT 7SM 27/25 A2962 RMK T02700250 IEM_DS3505
ZGNN,2000-08-03 05:00,ZGNN 030500Z AUTO 12008KT 7SM 28/24 A2962 RMK T02800240 IEM_DS3505
ZGNN,2000-08-03 06:00,ZGNN 030600Z AUTO 14006KT 19SM 28/25 A2959 RMK 60008 SLP017 T02800253 57009 IEM_DS3505
ZGNN,2000-08-03 07:00,ZGNN 030700Z AUTO 12008KT 7SM 28/25 A2959 RMK T02800250 IEM_DS3505
ZGNN,2000-08-03 08:00,ZGNN 030800Z AUTO 12008KT 7SM 27/25 A2956 RMK T02700250 IEM_DS3505
ZGNN,2000-08-03 09:00,ZGNN 030900Z AUTO 09004KT 16SM 26/25 A2956 RMK SLP007 T02650252 57011 IEM_DS3505
ZGNN,2000-08-03 10:00,ZGNN 031000Z AUTO 13006KT 7SM 27/25 A2956 RMK T02700250 IEM_DS3505
ZGNN,2000-08-03 11:00,ZGNN 031100Z AUTO 07004KT 6SM 27/25 A2956 RMK T02700250 IEM_DS3505
ZGNN,2000-08-03 12:00,ZGNN 031200Z AUTO 00000KT 14SM 26/25 A2959 RMK 60001 SLP017 T02640253 52010 IEM_DS3505
ZGNN,2000-08-03 13:00,ZGNN 031300Z AUTO 05004KT 7SM 26/25 A2962 RMK T02600250 IEM_DS3505
ZGNN,2000-08-03 15:00,ZGNN 031500Z AUTO 00000KT 12SM 27/26 RMK SLP032 T02660258 52015 IEM_DS3505
ZGNN,2000-08-03 18:00,ZGNN 031800Z AUTO 20002KT 12SM 26/26 RMK SLP020 T02620255 57012 IEM_DS3505
ZGNN,2000-08-03 21:00,ZGNN 032100Z AUTO 11004KT 12SM 25/24 A2959 RMK 70008 SLP017 T02490242 57003 IEM_DS3505
ZGNN,2000-08-03 22:00,ZGNN 032200Z AUTO 26002KT 7SM 25/23 A2959 RMK T02500230 IEM_DS3505
ZGNN,2000-08-03 23:00,ZGNN 032300Z AUTO 00000KT 7SM 25/24 A2962 RMK T02500240 IEM_DS3505
ZGNN,2000-08-04 00:00,ZGNN 040000Z AUTO 09002KT 12SM 25/24 A2965 RMK 60003 SLP033 T02500240 52016 IEM_DS3505
ZGNN,2000-08-04 01:00,ZGNN 040100Z AUTO 15002KT 4SM 25/24 A2968 RMK T02500240 IEM_DS3505
ZGNN,2000-08-04 02:00,ZGNN 040200Z AUTO 00000KT 4SM 25/24 A2968 RMK T02500240 IEM_DS3505
ZGNN,2000-08-04 03:00,ZGNN 040300Z AUTO 22002KT 6SM 25/25 A2968 RMK SLP044 T02500246 52010 IEM_DS3505
ZGNN,2000-08-04 04:00,ZGNN 040400Z AUTO 14004KT 5SM 25/24 A2968 RMK T02500240 IEM_DS3505
ZGNN,2000-08-04 05:00,ZGNN 040500Z AUTO 00000KT 7SM 26/25 A2965 RMK T02600250 IEM_DS3505
ZGNN,2000-08-04 06:00,ZGNN 040600Z AUTO 20004KT 12SM 27/24 A2965 RMK 60024 SLP034 T02720245 57009 IEM_DS3505
ZGNN,2000-08-04 07:00,ZGNN 040700Z AUTO 15006KT 7SM 27/24 A2962 RMK T02700240 IEM_DS3505
ZGNN,2000-08-04 08:00,ZGNN 040800Z AUTO 14006KT 7SM 27/25 A2962 RMK T02700250 IEM_DS3505
ZGNN,2000-08-04 09:00,ZGNN 040900Z AUTO 14002KT 19SM 27/25 A2962 RMK SLP025 T02740249 57009 IEM_DS3505
ZGNN,2000-08-04 10:00,ZGNN 041000Z AUTO 09008KT 7SM 28/25 A2962 RMK T02800250 IEM_DS3505
ZGNN,2000-08-04 11:00,ZGNN 041100Z AUTO 09008KT 7SM 27/24 A2962 RMK T02700240 IEM_DS3505
ZGNN,2000-08-04 12:00,ZGNN 041200Z AUTO 14002KT 19SM 26/25 A2965 RMK SLP032 T02630246 52007 IEM_DS3505
ZGNN,2000-08-04 13:00,ZGNN 041300Z AUTO 13006KT 7SM 26/24 A2968 RMK T02600240 IEM_DS3505
ZGNN,2000-08-04 15:00,ZGNN 041500Z AUTO 14004KT 17SM 25/24 RMK SLP055 T02540240 52022 IEM_DS3505
ZGNN,2000-08-04 18:00,ZGNN 041800Z AUTO 00000KT 16SM 25/24 RMK 60003 SLP050 T02470237 57005 IEM_DS3505
ZGNN,2000-08-04 21:00,ZGNN 042100Z AUTO 00000KT 16SM 25/24 RMK 70024 SLP045 T02500241 57004 IEM_DS3505
ZGNN,2000-08-04 22:00,ZGNN 042200Z AUTO 00000KT 7SM 25/24 A2968 RMK T02500240 IEM_DS3505
ZGNN,2000-08-04 23:00,ZGNN 042300Z AUTO 00000KT 7SM 25/24 A2971 RMK T02500240 IEM_DS3505
ZGNN,2000-08-05 00:00,ZGNN 050000Z AUTO 11002KT 12SM 25/24 A2971 RMK 60000 SLP058 T02540243 52012 IEM_DS3505
ZGNN,2000-08-05 01:00,ZGNN 050100Z AUTO 12006KT 7SM 26/25 A2974 RMK T02600250 IEM_DS3505
ZGNN,2000-08-05 02:00,ZGNN 050200Z AUTO 14010KT 7SM 26/24 A2974 RMK T02600240 IEM_DS3505
ZGNN,2000-08-05 03:00,ZGNN 050300Z AUTO 14004KT 14SM 27/25 A2974 RMK SLP066 T02680248 52008 IEM_DS3505
ZGNN,2000-08-05 04:00,ZGNN 050400Z AUTO 16010KT 7SM 29/24 A2974 RMK T02900240 IEM_DS3505
ZGNN,2000-08-05 05:00,ZGNN 050500Z AUTO 14010KT 7SM 29/25 A2971 RMK T02900250 IEM_DS3505
ZGNN,2000-08-05 06:00,ZGNN 050600Z AUTO 16004KT 19SM 29/25 A2968 RMK 60003 SLP042 T02920247 57023 IEM_DS3505
ZGNN,2000-08-05 07:00,ZGNN 050700Z AUTO 12008KT 7SM 31/25 A2965 RMK T03100250 IEM_DS3505
ZGNN,2000-08-05 08:00,ZGNN 050800Z AUTO 12010KT 7SM 30/24 A2965 RMK T03000240 IEM_DS3505
ZGNN,2000-08-05 09:00,ZGNN 050900Z AUTO 14006KT 19SM 30/25 A2965 RMK SLP034 T03010248 57008 IEM_DS3505
ZGNN,2000-08-05 10:00,ZGNN 051000Z AUTO 14010KT 7SM 29/24 A2965 RMK T02900240 IEM_DS3505
ZGNN,2000-08-05 11:00,ZGNN 051100Z AUTO 00000KT 7SM 27/23 A2968 RMK T02700230 IEM_DS3505
ZGNN,2000-08-05 12:00,ZGNN 051200Z AUTO 11002KT 19SM 27/25 A2971 RMK SLP049 T02720247 52015 IEM_DS3505
ZGNN,2000-08-05 13:00,ZGNN 051300Z AUTO 12006KT 7SM 27/24 A2971 RMK T02700240 IEM_DS3505
ZGNN,2000-08-05 14:00,ZGNN 051400Z AUTO 13008KT 7SM 26/25 A2974 RMK T02600250 IEM_DS3505
ZGNN,2000-08-05 15:00,ZGNN 051500Z AUTO 14002KT 19SM 26/24 RMK SLP065 T02620245 52016 IEM_DS3505
ZGNN,2000-08-05 18:00,ZGNN 051800Z AUTO 09004KT 16SM 26/24 RMK SLP061 T02570244 57004 IEM_DS3505
ZGNN,2000-08-05 21:00,ZGNN 052100Z AUTO 09004KT 12SM 25/24 A2974 RMK 70003 SLP061 T02540241 54000 IEM_DS3505
ZGNN,2000-08-05 22:00,ZGNN 052200Z AUTO 11004KT 7SM 25/24 A2974 RMK T02500240 IEM_DS3505
ZGNN,2000-08-05 23:00,ZGNN 052300Z AUTO 12004KT 7SM 25/24 A2974 RMK T02500240 IEM_DS3505
ZGNN,2000-08-06 00:00,ZGNN 060000Z AUTO 11006KT 16SM 26/24 A2974 RMK 70003 SLP066 T02600237 52005 IEM_DS3505
ZGNN,2000-08-06 01:00,ZGNN 060100Z AUTO 09004KT 7SM 27/24 A2977 RMK T02700240 IEM_DS3505
ZGNN,2000-08-06 02:00,ZGNN 060200Z AUTO 15006KT 7SM 27/24 A2980 RMK T02700240 IEM_DS3505
ZGNN,2000-08-06 03:00,ZGNN 060300Z AUTO 14008KT 19SM 27/24 A2980 RMK SLP079 T02740243 52012 IEM_DS3505
ZGNN,2000-08-06 04:00,ZGNN 060400Z AUTO 11008KT 7SM 29/24 A2977 RMK T02900240 IEM_DS3505
ZGNN,2000-08-06 05:00,ZGNN 060500Z AUTO 11008KT 7SM 29/24 A2974 RMK T02900240 IEM_DS3505
ZGNN,2000-08-06 06:00,ZGNN 060600Z AUTO 14006KT 19SM 29/24 A2974 RMK 60003 SLP057 T02900245 57021 IEM_DS3505
ZGNN,2000-08-06 07:00,ZGNN 060700Z AUTO 07012KT 7SM 30/24 A2971 RMK T03000240 IEM_DS3505
ZGNN,2000-08-06 08:00,ZGNN 060800Z AUTO 13010KT 7SM 28/24 A2971 RMK T02800240 IEM_DS3505
ZGNN,2000-08-06 09:00,ZGNN 060900Z AUTO 16004KT 19SM 29/25 A2971 RMK SLP047 T02910247 57010 IEM_DS3505
ZGNN,2000-08-06 11:00,ZGNN 061100Z AUTO 00000KT 7SM 26/22 A2971 RMK T02600220 IEM_DS3505
ZGNN,2000-08-06 12:00,ZGNN 061200Z AUTO 36002KT 17SM 26/24 A2974 RMK 60003 SLP063 T02610237 52015 IEM_DS3505
ZGNN,2000-08-06 13:00,ZGNN 061300Z AUTO 00000KT 7SM 26/23 A2977 RMK T02600230 IEM_DS3505
ZGNN,2000-08-06 15:00,ZGNN 061500Z AUTO 14004KT 16SM 26/25 RMK SLP081 T02580247 52018 IEM_DS3505
ZGNN,2000-08-06 18:00,ZGNN 061800Z AUTO 09002KT 15SM 25/24 RMK 60001 SLP075 T02520241 57005 IEM_DS3505
ZGNN,2000-08-06 21:00,ZGNN 062100Z AUTO 09004KT 15SM 25/24 A2977 RMK 70001 SLP069 T02480236 57006 IEM_DS3505
ZGNN,2000-08-07 00:00,ZGNN 070000Z AUTO 14004KT 12SM 25/23 A2980 RMK 70001 SLP083 T02480233 52013 IEM_DS3505
ZGNN,2000-08-07 01:00,ZGNN 070100Z AUTO 04004KT 7SM 25/23 A2983 RMK T02500230 IEM_DS3505
ZGNN,2000-08-07 02:00,ZGNN 070200Z AUTO 06006KT 7SM 27/24 A2983 RMK T02700240 IEM_DS3505
ZGNN,2000-08-07 03:00,ZGNN 070300Z AUTO 09006KT 17SM 27/23 A2980 RMK SLP085 T02680233 52002 IEM_DS3505
ZGNN,2000-08-07 04:00,ZGNN 070400Z AUTO 14004KT 7SM 28/23 A2980 RMK T02800230 IEM_DS3505
ZGNN,2000-08-07 05:00,ZGNN 070500Z AUTO 11006KT 7SM 30/23 A2980 RMK T03000230 IEM_DS3505
ZGNN,2000-08-07 06:00,ZGNN 070600Z AUTO 14008KT 19SM 30/24 A2977 RMK SLP075 T02980241 57009 IEM_DS3505
ZGNN,2000-08-07 07:00,ZGNN 070700Z AUTO 13008KT 7SM 31/23 A2974 RMK T03100230 IEM_DS3505
ZGNN,2000-08-07 08:00,ZGNN 070800Z AUTO 11006KT 7SM 28/23 A2974 RMK T02800230 IEM_DS3505
ZGNN,2000-08-07 09:00,ZGNN 070900Z AUTO 14008KT 19SM 30/22 A2971 RMK SLP052 T03040223 57023 IEM_DS3505
ZGNN,2000-08-07 10:00,ZGNN 071000Z AUTO 15010KT 7SM 28/23 A2971 RMK T02800230 IEM_DS3505
ZGNN,2000-08-07 11:00,ZGNN 071100Z AUTO 16008KT 7SM 28/24 A2974 RMK T02800240 IEM_DS3505
ZGNN,2000-08-07 12:00,ZGNN 071200Z AUTO 11004KT 19SM 28/24 RMK 60003 SLP071 T02760239 52018 IEM_DS3505
ZGNN,2000-08-07 13:00,ZGNN 071300Z AUTO 12006KT 7SM 27/24 A2977 RMK T02700240 IEM_DS3505
ZGNN,2000-08-07 14:00,ZGNN 071400Z AUTO 11006KT 7SM 26/24 A2980 RMK T02600240 IEM_DS3505
ZGNN,2000-08-07 15:00,ZGNN 071500Z AUTO 14004KT 17SM 26/24 A2983 RMK SLP094 T02600240 52023 IEM_DS3505
ZGNN,2000-08-07 18:00,ZGNN 071800Z AUTO 14006KT 16SM 25/23 RMK 60003 SLP093 T02510231 54000 IEM_DS3505
ZGNN,2000-08-07 21:00,ZGNN 072100Z AUTO 00000KT 14SM 25/24 RMK 70003 SLP083 T02480236 57010 IEM_DS3505
ZGNN,2000-08-07 22:00,ZGNN 072200Z AUTO 00000KT 7SM 24/23 A2980 RMK T02400230 IEM_DS3505
ZGNN,2000-08-07 23:00,ZGNN 072300Z AUTO 00000KT 7SM 25/24 A2983 RMK T02500240 IEM_DS3505
ZGNN,2000-08-08 00:00,ZGNN 080000Z AUTO 00000KT 10SM 26/24 A2985 RMK 70003 SLP098 T02600240 52014 IEM_DS3505
ZGNN,2000-08-08 01:00,ZGNN 080100Z AUTO 00000KT 7SM 26/24 A2985 RMK T02600240 IEM_DS3505
ZGNN,2000-08-08 02:00,ZGNN 080200Z AUTO 11004KT 62SM RMK IEM_DS3505
ZGNN,2000-08-08 03:00,ZGNN 080300Z AUTO 25004KT 16SM 29/24 A2988 RMK SLP108 T02940241 52010 IEM_DS3505
ZGNN,2000-08-08 04:00,ZGNN 080400Z AUTO 16004KT 7SM 29/24 A2985 RMK T02900240 IEM_DS3505
ZGNN,2000-08-08 05:00,ZGNN 080500Z AUTO 04004KT 7SM 31/23 A2983 RMK T03100230 IEM_DS3505
ZGNN,2000-08-08 06:00,ZGNN 080600Z AUTO 16004KT 19SM 31/24 A2980 RMK 60003 SLP086 T03080237 57021 IEM_DS3505
ZGNN,2000-08-08 07:00,ZGNN 080700Z AUTO 14012KT 2SM 29/25 A2983 RMK T02900250 IEM_DS3505
ZGNN,2000-08-08 08:00,ZGNN 080800Z AUTO 00000KT 7SM 23/23 A2980 RMK T02300230 IEM_DS3505
ZGNN,2000-08-08 09:00,ZGNN 080900Z AUTO 36002KT 19SM 24/24 A2980 RMK SLP082 T02410235 57006 IEM_DS3505
ZGNN,2000-08-08 10:00,ZGNN 081000Z AUTO 36004KT 7SM 25/24 A2977 RMK T02500240 IEM_DS3505
ZGNN,2000-08-08 11:00,ZGNN 081100Z AUTO 00000KT 7SM 26/24 A2980 RMK T02600240 IEM_DS3505
ZGNN,2000-08-08 12:00,ZGNN 081200Z AUTO 00000KT 19SM 24/24 A2980 RMK 60098 SLP089 T02440238 52008 IEM_DS3505
ZGNN,2000-08-08 13:00,ZGNN 081300Z AUTO 00000KT 7SM 25/24 A2983 RMK T02500240 IEM_DS3505
ZGNN,2000-08-08 14:00,ZGNN 081400Z AUTO 00000KT 6SM 25/24 A2985 RMK T02500240 IEM_DS3505
ZGNN,2000-08-08 15:00,ZGNN 081500Z AUTO 00000KT 19SM 24/23 RMK SLP108 T02370234 52019 IEM_DS3505
ZGNN,2000-08-08 18:00,ZGNN 081800Z AUTO 00000KT 12SM 23/23 RMK SLP096 T02340231 57012 IEM_DS3505
ZGNN,2000-08-08 21:00,ZGNN 082100Z AUTO 00000KT 4SM 23/23 A2983 RMK 70100 SLP094 T02310230 57003 IEM_DS3505
ZGNN,2000-08-08 22:00,ZGNN 082200Z AUTO 00000KT 7SM 24/23 A2983 RMK T02400230 IEM_DS3505
ZGNN,2000-08-08 23:00,ZGNN 082300Z AUTO 00000KT 5SM 24/23 A2985 RMK T02400230 IEM_DS3505
ZGNN,2000-08-09 00:00,ZGNN 090000Z AUTO 34002KT 4SM 24/24 A2985 RMK 70100 SLP106 T02420235 52012 IEM_DS3505
ZGNN,2000-08-09 01:00,ZGNN 090100Z AUTO 26006KT 7SM 26/24 A2988 RMK T02600240 IEM_DS3505
ZGNN,2000-08-09 02:00,ZGNN 090200Z AUTO 22006KT 7SM 27/24 A2988 RMK T02700240 IEM_DS3505
ZGNN,2000-08-09 03:00,ZGNN 090300Z AUTO 14002KT 9SM 28/24 A2988 RMK SLP115 T02790245 52009 IEM_DS3505
ZGNN,2000-08-09 04:00,ZGNN 090400Z AUTO 14008KT 7SM 30/24 A2985 RMK T03000240 IEM_DS3505
ZGNN,2000-08-09 05:00,ZGNN 090500Z AUTO 00000KT 7SM 31/23 A2985 RMK T03100230 IEM_DS3505
ZGNN,2000-08-09 06:00,ZGNN 090600Z AUTO 22004KT 19SM 31/25 A2980 RMK SLP089 T03090246 57025 IEM_DS3505
ZGNN,2000-08-09 07:00,ZGNN 090700Z AUTO 21006KT 7SM 33/24 A2977 RMK T03300240 IEM_DS3505
ZGNN,2000-08-09 08:00,ZGNN 090800Z AUTO 00000KT 7SM 33/23 A2974 RMK T03300230 IEM_DS3505
ZGNN,2000-08-09 09:00,ZGNN 090900Z AUTO 34004KT 19SM 32/24 A2974 RMK SLP060 T03230241 57028 IEM_DS3505
ZGNN,2000-08-09 10:00,ZGNN 091000Z AUTO 00000KT 7SM 33/24 A2971 RMK T03300240 IEM_DS3505
ZGNN,2000-08-09 11:00,ZGNN 091100Z AUTO 03004KT 7SM 31/25 A2974 RMK T03100250 IEM_DS3505
ZGNN,2000-08-09 12:00,ZGNN 091200Z AUTO 00000KT 19SM 29/26 A2974 RMK SLP065 T02910258 52005 IEM_DS3505
ZGNN,2000-08-09 13:00,ZGNN 091300Z AUTO 13004KT 6SM 29/25 A2977 RMK T02900250 IEM_DS3505
ZGNN,2000-08-09 15:00,ZGNN 091500Z AUTO 18002KT 19SM 28/25 RMK SLP084 T02800250 52019 IEM_DS3505
ZGNN,2000-08-09 18:00,ZGNN 091800Z AUTO 22002KT 16SM 26/25 RMK SLP075 T02620246 57009 IEM_DS3505
ZGNN,2000-08-09 21:00,ZGNN 092100Z AUTO 00000KT 12SM 25/24 A2974 RMK SLP067 T02470240 57008 IEM_DS3505
ZGNN,2000-08-09 22:00,ZGNN 092200Z AUTO 00000KT 6SM 25/25 A2977 RMK T02500250 IEM_DS3505
ZGNN,2000-08-09 23:00,ZGNN 092300Z AUTO 00000KT 6SM 25/25 A2977 RMK T02500250 IEM_DS3505
ZGNN,2000-08-10 00:00,ZGNN 100000Z AUTO 20004KT 6SM 26/25 A2980 RMK SLP082 T02590248 52015 IEM_DS3505
ZGNN,2000-08-10 01:00,ZGNN 100100Z AUTO 20004KT 7SM 28/25 A2980 RMK T02800250 IEM_DS3505
ZGNN,2000-08-10 02:00,ZGNN 100200Z AUTO 26006KT 7SM 30/25 A2980 RMK T03000250 IEM_DS3505
ZGNN,2000-08-10 03:00,ZGNN 100300Z AUTO 22004KT 16SM 30/24 A2980 RMK SLP076 T03030244 57005 IEM_DS3505
ZGNN,2000-08-10 04:00,ZGNN 100400Z AUTO 18004KT 7SM 32/23 A2977 RMK T03200230 IEM_DS3505
ZGNN,2000-08-10 05:00,ZGNN 100500Z AUTO 12004KT 7SM 33/24 A2974 RMK T03300240 IEM_DS3505
ZGNN,2000-08-10 06:00,ZGNN 100600Z AUTO 29004KT 19SM 33/24 A2971 RMK SLP054 T03290239 57022 IEM_DS3505
ZGNN,2000-08-10 07:00,ZGNN 100700Z AUTO 07006KT 7SM 34/23 A2968 RMK T03400230 IEM_DS3505
ZGNN,2000-08-10 08:00,ZGNN 100800Z AUTO 17014KT 7SM 35/22 A2965 RMK T03500220 IEM_DS3505
ZGNN,2000-08-10 09:00,ZGNN 100900Z AUTO 11006KT 19SM 34/24 A2962 RMK SLP027 T03410235 57027 IEM_DS3505
ZGNN,2000-08-10 10:00,ZGNN 101000Z AUTO 13008KT 7SM 33/23 A2962 RMK T03300230 IEM_DS3505
ZGNN,2000-08-10 11:00,ZGNN 101100Z AUTO 12010KT 7SM 31/25 A2962 RMK T03100250 IEM_DS3505
ZGNN,2000-08-10 12:00,ZGNN 101200Z AUTO 11004KT 19SM 30/25 A2965 RMK SLP031 T03040249 52004 IEM_DS3505
ZGNN,2000-08-10 13:00,ZGNN 101300Z AUTO 14006KT 6SM 29/25 A2965 RMK T02900250 IEM_DS3505
ZGNN,2000-08-10 14:00,ZGNN 101400Z AUTO 13006KT 6SM 29/25 A2968 RMK T02900250 IEM_DS3505
ZGNN,2000-08-10 15:00,ZGNN 101500Z AUTO 20004KT 19SM 28/26 A2971 RMK SLP051 T02800255 52020 IEM_DS3505
ZGNN,2000-08-10 16:00,ZGNN 101600Z AUTO 00000KT 6SM 29/26 A2968 RMK T02900260 IEM_DS3505
ZGNN,2000-08-10 18:00,ZGNN 101800Z AUTO 25002KT 19SM 27/26 RMK SLP037 T02660255 57014 IEM_DS3505
ZGNN,2000-08-10 21:00,ZGNN 102100Z AUTO 04002KT 12SM 26/25 A2962 RMK SLP025 T02600253 57011 IEM_DS3505
ZGNN,2000-08-10 22:00,ZGNN 102200Z AUTO 00000KT 7SM 26/25 A2965 RMK T02600250 IEM_DS3505
ZGNN,2000-08-10 23:00,ZGNN 102300Z AUTO 08004KT 4SM 26/25 A2965 RMK T02600250 IEM_DS3505
ZGNN,2000-08-11 00:00,ZGNN 110000Z AUTO 11002KT 6SM 27/26 RMK SLP039 T02670256 52013 IEM_DS3505
ZGNN,2000-08-11 01:00,ZGNN 110100Z AUTO 17004KT 7SM 27/25 A2968 RMK T02700250 IEM_DS3505
ZGNN,2000-08-11 02:00,ZGNN 110200Z AUTO 15004KT 7SM 29/26 A2968 RMK T02900260 IEM_DS3505
ZGNN,2000-08-11 03:00,ZGNN 110300Z AUTO 20002KT 19SM 30/26 A2968 RMK SLP046 T03030257 52007 IEM_DS3505
ZGNN,2000-08-11 04:00,ZGNN 110400Z AUTO 12006KT 7SM 32/24 A2965 RMK T03200240 IEM_DS3505
ZGNN,2000-08-11 05:00,ZGNN 110500Z AUTO 16006KT 7SM 34/24 A2965 RMK T03400240 IEM_DS3505
ZGNN,2000-08-11 06:00,ZGNN 110600Z AUTO 09002KT 19SM 34/24 RMK SLP024 T03360237 57021 IEM_DS3505
ZGNN,2000-08-11 07:00,ZGNN 110700Z AUTO 11006KT 7SM 35/24 A2959 RMK T03500240 IEM_DS3505
ZGNN,2000-08-11 08:00,ZGNN 110800Z AUTO 12002KT 7SM 35/24 A2959 RMK T03500240 IEM_DS3505
ZGNN,2000-08-11 09:00,ZGNN 110900Z AUTO 18004KT 19SM 35/24 A2956 RMK SLP003 T03500241 57021 IEM_DS3505
ZGNN,2000-08-11 10:00,ZGNN 111000Z AUTO 13010KT 7SM 34/25 A2956 RMK T03400250 IEM_DS3505
ZGNN,2000-08-11 11:00,ZGNN 111100Z AUTO 15008KT 6SM 32/25 A2956 RMK T03200250 IEM_DS3505
ZGNN,2000-08-11 12:00,ZGNN 111200Z AUTO 14006KT 6SM 30/25 A2959 RMK T03000250 IEM_DS3505
ZGNN,2000-08-11 13:00,ZGNN 111300Z AUTO 15006KT 6SM 29/25 A2965 RMK T02900250 IEM_DS3505
ZGNN,2000-08-11 14:00,ZGNN 111400Z AUTO 13006KT 6SM 29/25 A2968 RMK T02900250 IEM_DS3505
ZGNN,2000-08-11 15:00,ZGNN 111500Z AUTO 14004KT 16SM 28/25 RMK SLP042 T02840253 52025 IEM_DS3505
ZGNN,2000-08-11 18:00,ZGNN 111800Z AUTO 00000KT 12SM 27/26 RMK SLP040 T02700259 57001 IEM_DS3505
ZGNN,2000-08-11 21:00,ZGNN 112100Z AUTO 02002KT 12SM 26/25 RMK SLP038 T02600254 57002 IEM_DS3505
ZGNN,2000-08-11 22:00,ZGNN 112200Z AUTO 00000KT 4SM 26/25 A2968 RMK T02600250 IEM_DS3505
ZGNN,2000-08-11 23:00,ZGNN 112300Z AUTO 00000KT 7SM 26/26 A2968 RMK T02600260 IEM_DS3505
ZGNN,2000-08-12 00:00,ZGNN 120000Z AUTO 29004KT 7SM 27/26 A2971 RMK SLP052 T02720259 52013 IEM_DS3505
ZGNN,2000-08-12 01:00,ZGNN 120100Z AUTO 18004KT 7SM 28/25 A2971 RMK T02800250 IEM_DS3505
ZGNN,2000-08-12 02:00,ZGNN 120200Z AUTO 19004KT 7SM 30/26 A2971 RMK T03000260 IEM_DS3505
ZGNN,2000-08-12 03:00,ZGNN 120300Z AUTO 14002KT 19SM 31/25 RMK SLP051 T03070253 57001 IEM_DS3505
ZGNN,2000-08-12 04:00,ZGNN 120400Z AUTO 09006KT 7SM 33/24 A2971 RMK T03300240 IEM_DS3505
ZGNN,2000-08-12 05:00,ZGNN 120500Z AUTO 08006KT 7SM 33/24 A2971 RMK T03300240 IEM_DS3505
ZGNN,2000-08-12 06:00,ZGNN 120600Z AUTO 29002KT 19SM 34/23 A2968 RMK SLP042 T03420233 57008 IEM_DS3505
ZGNN,2000-08-12 07:00,ZGNN 120700Z AUTO 00000KT 7SM 35/23 A2965 RMK T03500230 IEM_DS3505
ZGNN,2000-08-12 08:00,ZGNN 120800Z AUTO 10006KT 7SM 36/22 A2962 RMK T03600220 IEM_DS3505
ZGNN,2000-08-12 09:00,ZGNN 120900Z AUTO 18006KT 19SM 36/23 A2962 RMK SLP023 T03550228 57019 IEM_DS3505
ZGNN,2000-08-12 10:00,ZGNN 121000Z AUTO 14008KT 7SM 35/22 A2962 RMK T03500220 IEM_DS3505
ZGNN,2000-08-12 11:00,ZGNN 121100Z AUTO 12010KT 6SM 33/24 A2962 RMK T03300240 IEM_DS3505
ZGNN,2000-08-12 12:00,ZGNN 121200Z AUTO 16006KT 19SM 32/26 A2965 RMK SLP034 T03150260 52010 IEM_DS3505
ZGNN,2000-08-12 13:00,ZGNN 121300Z AUTO 16008KT 6SM 30/26 A2968 RMK T03000260 IEM_DS3505
ZGNN,2000-08-12 14:00,ZGNN 121400Z AUTO 10006KT 6SM 29/26 A2971 RMK T02900260 IEM_DS3505
ZGNN,2000-08-12 15:00,ZGNN 121500Z AUTO 20004KT 19SM 29/26 A2971 RMK SLP055 T02900262 52021 IEM_DS3505
ZGNN,2000-08-12 18:00,ZGNN 121800Z AUTO 14002KT 19SM 28/26 RMK SLP052 T02770263 57002 IEM_DS3505
ZGNN,2000-08-12 21:00,ZGNN 122100Z AUTO 16002KT 12SM 27/26 A2971 RMK SLP052 T02690259 54000 IEM_DS3505
ZGNN,2000-08-12 22:00,ZGNN 122200Z AUTO 00000KT 7SM 26/26 A2971 RMK T02600260 IEM_DS3505
ZGNN,2000-08-13 00:00,ZGNN 130000Z AUTO 00000KT 16SM 28/26 A2974 RMK SLP063 T02760262 52010 IEM_DS3505
ZGNN,2000-08-13 01:00,ZGNN 130100Z AUTO 17004KT 7SM 29/26 A2974 RMK T02900260 IEM_DS3505
ZGNN,2000-08-13 02:00,ZGNN 130200Z AUTO 16006KT 6SM 31/25 A2974 RMK T03100250 IEM_DS3505
ZGNN,2000-08-13 03:00,ZGNN 130300Z AUTO 27002KT 19SM 31/25 A2974 RMK SLP058 T03140250 57005 IEM_DS3505
ZGNN,2000-08-13 04:00,ZGNN 130400Z AUTO 16008KT 7SM 34/24 A2971 RMK T03400240 IEM_DS3505
ZGNN,2000-08-13 05:00,ZGNN 130500Z AUTO 15004KT 7SM 34/24 A2968 RMK T03400240 IEM_DS3505
ZGNN,2000-08-13 06:00,ZGNN 130600Z AUTO 20006KT 19SM 34/24 A2965 RMK SLP034 T03420242 57023 IEM_DS3505
ZGNN,2000-08-13 07:00,ZGNN 130700Z AUTO 15008KT 7SM 36/23 A2965 RMK T03600230 IEM_DS3505
ZGNN,2000-08-13 08:00,ZGNN 130800Z AUTO 10004KT 7SM 36/24 A2962 RMK T03600240 IEM_DS3505
ZGNN,2000-08-13 09:00,ZGNN 130900Z AUTO 16006KT 19SM 36/23 A2959 RMK SLP013 T03590232 57020 IEM_DS3505
ZGNN,2000-08-13 10:00,ZGNN 131000Z AUTO 15010KT 7SM 34/24 A2962 RMK T03400240 IEM_DS3505
ZGNN,2000-08-13 12:00,ZGNN 131200Z AUTO 18002KT 19SM 30/26 A2965 RMK SLP033 T03040260 52018 IEM_DS3505
ZGNN,2000-08-13 13:00,ZGNN 131300Z AUTO 14006KT 6SM 29/24 A2968 RMK T02900240 IEM_DS3505
ZGNN,2000-08-13 14:00,ZGNN 131400Z AUTO 15004KT 6SM 28/25 A2971 RMK T02800250 IEM_DS3505
ZGNN,2000-08-13 15:00,ZGNN 131500Z AUTO 22002KT 19SM 28/25 RMK SLP052 T02840253 52019 IEM_DS3505
ZGNN,2000-08-13 18:00,ZGNN 131800Z AUTO 00000KT 17SM 27/25 RMK SLP048 T02720252 57003 IEM_DS3505
ZGNN,2000-08-13 21:00,ZGNN 132100Z AUTO 34002KT 16SM 26/25 A2968 RMK SLP041 T02640254 57007 IEM_DS3505
ZGNN,2000-08-13 22:00,ZGNN 132200Z AUTO 12004KT 6SM 26/25 A2968 RMK T02600250 IEM_DS3505
ZGNN,2000-08-13 23:00,ZGNN 132300Z AUTO 00000KT 6SM 26/25 A2971 RMK T02600250 IEM_DS3505
ZGNN,2000-08-14 00:00,ZGNN 140000Z AUTO 20004KT 19SM 27/25 RMK SLP049 T02690254 52007 IEM_DS3505
ZGNN,2000-08-14 01:00,ZGNN 140100Z AUTO 13004KT 6SM 29/25 A2971 RMK T02900250 IEM_DS3505
ZGNN,2000-08-14 02:00,ZGNN 140200Z AUTO 00000KT 6SM 30/25 A2971 RMK T03000250 IEM_DS3505
ZGNN,2000-08-14 03:00,ZGNN 140300Z AUTO 16004KT 19SM 31/24 RMK SLP052 T03140240 52003 IEM_DS3505
ZGNN,2000-08-14 04:00,ZGNN 140400Z AUTO 00000KT 7SM 33/24 A2971 RMK T03300240 IEM_DS3505
ZGNN,2000-08-14 05:00,ZGNN 140500Z AUTO 25004KT 7SM 34/24 A2968 RMK T03400240 IEM_DS3505
ZGNN,2000-08-14 06:00,ZGNN 140600Z AUTO 22006KT 19SM 34/24 A2965 RMK SLP027 T03400245 57024 IEM_DS3505
ZGNN,2000-08-14 07:00,ZGNN 140700Z AUTO 05004KT 7SM 35/24 A2962 RMK T03500240 IEM_DS3505
ZGNN,2000-08-14 08:00,ZGNN 140800Z AUTO 04004KT 7SM 35/24 A2959 RMK T03500240 IEM_DS3505
ZGNN,2000-08-14 09:00,ZGNN 140900Z AUTO 19014KT 7SM 33/25 A2962 RMK T03300250 IEM_DS3505
ZGNN,2000-08-14 10:00,ZGNN 141000Z AUTO 14012KT 7SM 31/23 A2962 RMK T03100230 IEM_DS3505
ZGNN,2000-08-14 11:00,ZGNN 141100Z AUTO 14006KT 7SM 30/25 A2962 RMK T03000250 IEM_DS3505
ZGNN,2000-08-14 12:00,ZGNN 141200Z AUTO 16004KT 19SM 30/26 A2965 RMK SLP033 T02960257 52019 IEM_DS3505
ZGNN,2000-08-14 13:00,ZGNN 141300Z AUTO 15004KT 7SM 29/26 A2965 RMK T02900260 IEM_DS3505
ZGNN,2000-08-14 14:00,ZGNN 141400Z AUTO 14006KT 7SM 29/26 A2968 RMK T02900260 IEM_DS3505
ZGNN,2000-08-14 15:00,ZGNN 141500Z AUTO 14004KT 19SM 28/26 A2971 RMK SLP052 T02850261 52019 IEM_DS3505
ZGNN,2000-08-14 18:00,ZGNN 141800Z AUTO 07002KT 19SM 28/26 RMK SLP045 T02780261 57006 IEM_DS3505
ZGNN,2000-08-14 21:00,ZGNN 142100Z AUTO 04002KT 16SM 27/26 RMK SLP039 T02740260 57006 IEM_DS3505
ZGNN,2000-08-14 22:00,ZGNN 142200Z AUTO 12004KT 7SM 27/26 A2968 RMK T02700260 IEM_DS3505
ZGNN,2000-08-14 23:00,ZGNN 142300Z AUTO 13006KT 7SM 27/26 A2968 RMK T02700260 IEM_DS3505
ZGNN,2000-08-15 00:00,ZGNN 150000Z AUTO 20004KT 16SM 27/26 A2971 RMK SLP051 T02730258 52011 IEM_DS3505
ZGNN,2000-08-15 01:00,ZGNN 150100Z AUTO 15004KT 7SM 29/26 A2971 RMK T02900260 IEM_DS3505
ZGNN,2000-08-15 02:00,ZGNN 150200Z AUTO 12006KT 7SM 30/26 A2971 RMK T03000260 IEM_DS3505
ZGNN,2000-08-15 03:00,ZGNN 150300Z AUTO 32002KT 19SM 32/26 RMK SLP055 T03210260 52004 IEM_DS3505
ZGNN,2000-08-15 04:00,ZGNN 150400Z AUTO 07006KT 7SM 34/25 A2971 RMK T03400250 IEM_DS3505
ZGNN,2000-08-15 05:00,ZGNN 150500Z AUTO 23006KT 7SM 34/24 A2968 RMK T03400240 IEM_DS3505
ZGNN,2000-08-15 06:00,ZGNN 150600Z AUTO 11004KT 19SM 35/24 A2965 RMK SLP027 T03470240 57027 IEM_DS3505
ZGNN,2000-08-15 07:00,ZGNN 150700Z AUTO 20004KT 7SM 35/23 A2962 RMK T03500230 IEM_DS3505
ZGNN,2000-08-15 08:00,ZGNN 150800Z AUTO 14012KT 7SM 33/26 A2959 RMK T03300260 IEM_DS3505
ZGNN,2000-08-15 09:00,ZGNN 150900Z AUTO 18012KT 7SM 33/25 A2959 RMK T03300250 IEM_DS3505
ZGNN,2000-08-15 10:00,ZGNN 151000Z AUTO 13006KT 7SM 31/26 A2959 RMK T03100260 IEM_DS3505
ZGNN,2000-08-15 11:00,ZGNN 151100Z AUTO 13006KT 7SM 30/25 A2959 RMK T03000250 IEM_DS3505
ZGNN,2000-08-15 12:00,ZGNN 151200Z AUTO 20002KT 17SM 30/25 A2962 RMK SLP023 T03020253 52014 IEM_DS3505
ZGNN,2000-08-15 15:00,ZGNN 151500Z AUTO 11006KT 17SM 29/26 A2968 RMK SLP037 T02860255 52015 IEM_DS3505
ZGNN,2000-08-15 18:00,ZGNN 151800Z AUTO 07002KT 16SM 27/26 RMK SLP036 T02710257 57001 IEM_DS3505
ZGNN,2000-08-15 21:00,ZGNN 152100Z AUTO 02002KT 16SM 26/26 A2965 RMK SLP025 T02640256 57011 IEM_DS3505
ZGNN,2000-08-15 22:00,ZGNN 152200Z AUTO 00000KT 7SM 26/26 A2965 RMK T02600260 IEM_DS3505
ZGNN,2000-08-15 23:00,ZGNN 152300Z AUTO 00000KT 7SM 27/26 A2965 RMK T02700260 IEM_DS3505
ZGNN,2000-08-16 00:00,ZGNN 160000Z AUTO 09004KT 12SM 27/26 A2968 RMK SLP038 T02740257 52012 IEM_DS3505
ZGNN,2000-08-16 01:00,ZGNN 160100Z AUTO 12002KT 7SM 29/26 A2968 RMK T02900260 IEM_DS3505
ZGNN,2000-08-16 02:00,ZGNN 160200Z AUTO 00000KT 7SM 30/26 A2971 RMK T03000260 IEM_DS3505
ZGNN,2000-08-16 03:00,ZGNN 160300Z AUTO 22004KT 19SM 31/24 A2971 RMK SLP045 T03140245 52007 IEM_DS3505
ZGNN,2000-08-16 04:00,ZGNN 160400Z AUTO 00000KT 7SM 33/24 A2965 RMK T03300240 IEM_DS3505
ZGNN,2000-08-16 05:00,ZGNN 160500Z AUTO 16006KT 7SM 34/23 A2965 RMK T03400230 IEM_DS3505
ZGNN,2000-08-16 06:00,ZGNN 160600Z AUTO 29002KT 19SM 34/23 A2962 RMK SLP016 T03420231 57028 IEM_DS3505
ZGNN,2000-08-16 07:00,ZGNN 160700Z AUTO 09012KT 7SM 35/24 A2959 RMK T03500240 IEM_DS3505
ZGNN,2000-08-16 08:00,ZGNN 160800Z AUTO 15014KT 7SM 33/25 A2956 RMK T03300250 IEM_DS3505
ZGNN,2000-08-16 09:00,ZGNN 160900Z AUTO 18006KT 19SM 32/25 A2956 RMK SLP000 T03240252 57016 IEM_DS3505
ZGNN,2000-08-16 10:00,ZGNN 161000Z AUTO 14012KT 7SM 31/25 A2956 RMK T03100250 IEM_DS3505
ZGNN,2000-08-16 11:00,ZGNN 161100Z AUTO 13010KT 7SM 30/25 A2959 RMK T03000250 IEM_DS3505
ZGNN,2000-08-16 12:00,ZGNN 161200Z AUTO 18004KT 19SM 30/25 A2965 RMK SLP027 T02980247 52026 IEM_DS3505
ZGNN,2000-08-16 13:00,ZGNN 161300Z AUTO 13006KT 7SM 29/25 A2965 RMK T02900250 IEM_DS3505
ZGNN,2000-08-16 15:00,ZGNN 161500Z AUTO 11004KT 19SM 28/25 RMK SLP036 T02840253 52010 IEM_DS3505
ZGNN,2000-08-16 18:00,ZGNN 161800Z AUTO 11002KT 17SM 27/26 RMK SLP037 T02740257 52001 IEM_DS3505
ZGNN,2000-08-16 21:00,ZGNN 162100Z AUTO 11004KT 16SM 27/26 A2965 RMK SLP035 T02700255 57003 IEM_DS3505
ZGNN,2000-08-16 22:00,ZGNN 162200Z AUTO 09004KT 7SM 27/26 A2965 RMK T02700260 IEM_DS3505
ZGNN,2000-08-16 23:00,ZGNN 162300Z AUTO 10004KT 7SM 27/26 A2968 RMK T02700260 IEM_DS3505
ZGNN,2000-08-17 00:00,ZGNN 170000Z AUTO 14004KT 9SM 27/26 A2971 RMK SLP050 T02730255 52015 IEM_DS3505
ZGNN,2000-08-17 01:00,ZGNN 170100Z AUTO 11008KT 7SM 27/26 A2974 RMK T02700260 IEM_DS3505
ZGNN,2000-08-17 02:00,ZGNN 170200Z AUTO 13006KT 7SM 27/24 A2974 RMK T02700240 IEM_DS3505
ZGNN,2000-08-17 03:00,ZGNN 170300Z AUTO 16006KT 16SM 26/24 A2977 RMK SLP071 T02560236 52020 IEM_DS3505
ZGNN,2000-08-17 04:00,ZGNN 170400Z AUTO 09004KT 7SM 25/24 A2977 RMK T02500240 IEM_DS3505
ZGNN,2000-08-17 05:00,ZGNN 170500Z AUTO 12004KT 7SM 26/24 A2974 RMK T02600240 IEM_DS3505
ZGNN,2000-08-17 06:00,ZGNN 170600Z AUTO 29004KT 19SM 28/23 A2971 RMK 60004 SLP051 T02780229 57020 IEM_DS3505
ZGNN,2000-08-17 07:00,ZGNN 170700Z AUTO 18006KT 7SM 30/23 A2971 RMK T03000230 IEM_DS3505
ZGNN,2000-08-17 08:00,ZGNN 170800Z AUTO 09006KT 7SM 30/22 A2968 RMK T03000220 IEM_DS3505
ZGNN,2000-08-17 09:00,ZGNN 170900Z AUTO 14004KT 19SM 30/24 A2968 RMK SLP040 T02970242 57010 IEM_DS3505
ZGNN,2000-08-17 10:00,ZGNN 171000Z AUTO 15004KT 7SM 30/25 A2968 RMK T03000250 IEM_DS3505
ZGNN,2000-08-17 11:00,ZGNN 171100Z AUTO 13006KT 7SM 30/25 A2968 RMK T03000250 IEM_DS3505
ZGNN,2000-08-17 12:00,ZGNN 171200Z AUTO 09004KT 19SM 29/25 A2971 RMK 60003 SLP054 T02900251 52013 IEM_DS3505
ZGNN,2000-08-17 15:00,ZGNN 171500Z AUTO 14002KT 17SM 27/25 RMK SLP075 T02720252 52020 IEM_DS3505
ZGNN,2000-08-17 18:00,ZGNN 171800Z AUTO 00000KT 16SM 26/25 RMK SLP077 T02640247 52003 IEM_DS3505
ZGNN,2000-08-17 21:00,ZGNN 172100Z AUTO 07002KT 16SM 26/25 A2977 RMK 70004 SLP069 T02640248 57008 IEM_DS3505
ZGNN,2000-08-17 22:00,ZGNN 172200Z AUTO 10006KT 7SM 26/25 A2977 RMK T02600250 IEM_DS3505
ZGNN,2000-08-17 23:00,ZGNN 172300Z AUTO 00000KT 7SM 26/25 A2980 RMK T02600250 IEM_DS3505
ZGNN,2000-08-18 00:00,ZGNN 180000Z AUTO 11004KT 10SM 27/24 A2983 RMK 70004 SLP087 T02690245 52018 IEM_DS3505
ZGNN,2000-08-18 02:00,ZGNN 180200Z AUTO 12006KT 7SM 29/25 A2985 RMK T02900250 IEM_DS3505
ZGNN,2000-08-18 03:00,ZGNN 180300Z AUTO 11004KT 12SM 30/24 A2985 RMK SLP100 T03040235 52013 IEM_DS3505
ZGNN,2000-08-18 04:00,ZGNN 180400Z AUTO 15012KT 7SM 32/24 A2983 RMK T03200240 IEM_DS3505
ZGNN,2000-08-18 05:00,ZGNN 180500Z AUTO 15006KT 7SM 32/23 A2980 RMK T03200230 IEM_DS3505
ZGNN,2000-08-18 06:00,ZGNN 180600Z AUTO 14008KT 19SM 34/23 RMK SLP076 T03350228 57023 IEM_DS3505
ZGNN,2000-08-18 07:00,ZGNN 180700Z AUTO 09008KT 7SM 33/23 A2974 RMK T03300230 IEM_DS3505
ZGNN,2000-08-18 08:00,ZGNN 180800Z AUTO 06008KT 7SM 34/23 A2974 RMK T03400230 IEM_DS3505
ZGNN,2000-08-18 09:00,ZGNN 180900Z AUTO 14006KT 19SM 33/23 A2974 RMK SLP060 T03310231 57016 IEM_DS3505
ZGNN,2000-08-18 10:00,ZGNN 181000Z AUTO 28017KT 1SM 25/23 A2980 RMK T02500230 IEM_DS3505
ZGNN,2000-08-18 11:00,ZGNN 181100Z AUTO 00000KT 7SM 24/22 A2980 RMK T02400220 IEM_DS3505
ZGNN,2000-08-18 12:00,ZGNN 181200Z AUTO 32004KT 16SM 24/23 A2980 RMK 60098 SLP083 T02400230 52021 IEM_DS3505
ZGNN,2000-08-18 13:00,ZGNN 181300Z AUTO 00000KT 7SM 24/23 A2980 RMK T02400230 IEM_DS3505
ZGNN,2000-08-18 15:00,ZGNN 181500Z AUTO 00000KT 12SM 24/23 RMK SLP093 T02410234 52010 IEM_DS3505
ZGNN,2000-08-18 18:00,ZGNN 181800Z AUTO 00000KT 12SM 24/23 RMK 60003 SLP081 T02350228 57011 IEM_DS3505
ZGNN,2000-08-18 21:00,ZGNN 182100Z AUTO 00000KT 12SM 24/24 RMK 70096 SLP074 T02410235 57007 IEM_DS3505
ZGNN,2000-08-18 22:00,ZGNN 182200Z AUTO 27004KT 5SM 24/24 A2977 RMK T02400240 IEM_DS3505
ZGNN,2000-08-18 23:00,ZGNN 182300Z AUTO 00000KT 4SM 25/24 A2977 RMK T02500240 IEM_DS3505
ZGNN,2000-08-19 00:00,ZGNN 190000Z AUTO 00000KT 5SM 25/24 RMK 70096 SLP082 T02540241 52006 IEM_DS3505
ZGNN,2000-08-19 01:00,ZGNN 190100Z AUTO 00000KT 7SM 27/24 A2980 RMK T02700240 IEM_DS3505
ZGNN,2000-08-19 02:00,ZGNN 190200Z AUTO 13004KT 7SM 29/24 A2980 RMK T02900240 IEM_DS3505
ZGNN,2000-08-19 03:00,ZGNN 190300Z AUTO 20002KT 9SM 27/26 A2980 RMK SLP084 T02700255 52003 IEM_DS3505
ZGNN,2000-08-19 04:00,ZGNN 190400Z AUTO 18008KT 7SM 31/24 A2980 RMK T03100240 IEM_DS3505
ZGNN,2000-08-19 05:00,ZGNN 190500Z AUTO 22006KT 7SM 32/23 A2977 RMK T03200230 IEM_DS3505
ZGNN,2000-08-19 06:00,ZGNN 190600Z AUTO 32002KT 19SM 32/24 A2974 RMK SLP063 T03180237 57020 IEM_DS3505
ZGNN,2000-08-19 07:00,ZGNN 190700Z AUTO 26004KT 7SM 34/24 A2971 RMK T03400240 IEM_DS3505
ZGNN,2000-08-19 08:00,ZGNN 190800Z AUTO 27004KT 7SM 34/23 RMK T03400230 IEM_DS3505
ZGNN,2000-08-19 09:00,ZGNN 190900Z AUTO 16004KT 19SM 33/24 A2965 RMK SLP036 T03320236 57026 IEM_DS3505
ZGNN,2000-08-19 10:00,ZGNN 191000Z AUTO 15008KT 7SM 31/25 A2968 RMK T03100250 IEM_DS3505
ZGNN,2000-08-19 11:00,ZGNN 191100Z AUTO 21006KT 7SM 30/25 A2968 RMK T03000250 IEM_DS3505
ZGNN,2000-08-19 12:00,ZGNN 191200Z AUTO 00000KT 19SM 29/25 A2968 RMK SLP043 T02890253 52006 IEM_DS3505
ZGNN,2000-08-19 13:00,ZGNN 191300Z AUTO 00000KT 6SM 28/25 A2971 RMK T02800250 IEM_DS3505
ZGNN,2000-08-19 14:00,ZGNN 191400Z AUTO 00000KT 6SM 28/25 A2971 RMK T02800250 IEM_DS3505
ZGNN,2000-08-19 15:00,ZGNN 191500Z AUTO 00000KT 17SM 27/26 RMK SLP059 T02690256 52016 IEM_DS3505
ZGNN,2000-08-19 18:00,ZGNN 191800Z AUTO 34002KT 16SM 26/25 RMK SLP055 T02580250 57003 IEM_DS3505
ZGNN,2000-08-19 21:00,ZGNN 192100Z AUTO 00000KT 12SM 25/25 A2971 RMK SLP056 T02540247 52001 IEM_DS3505
ZGNN,2000-08-19 22:00,ZGNN 192200Z AUTO 00000KT 6SM 25/25 A2971 RMK T02500250 IEM_DS3505
ZGNN,2000-08-19 23:00,ZGNN 192300Z AUTO 00000KT 6SM 25/25 A2974 RMK T02500250 IEM_DS3505
ZGNN,2000-08-20 00:00,ZGNN 200000Z AUTO 00000KT 12SM 26/25 A2974 RMK SLP063 T02620249 52006 IEM_DS3505
ZGNN,2000-08-20 01:00,ZGNN 200100Z AUTO 19004KT 6SM 28/25 A2974 RMK T02800250 IEM_DS3505
ZGNN,2000-08-20 02:00,ZGNN 200200Z AUTO 19006KT 7SM 30/26 A2974 RMK T03000260 IEM_DS3505
ZGNN,2000-08-20 03:00,ZGNN 200300Z AUTO 27002KT 17SM 31/26 A2974 RMK SLP059 T03080261 57003 IEM_DS3505
ZGNN,2000-08-20 04:00,ZGNN 200400Z AUTO 17006KT 7SM 33/25 A2971 RMK T03300250 IEM_DS3505
ZGNN,2000-08-20 05:00,ZGNN 200500Z AUTO 22006KT 7SM 34/24 A2971 RMK T03400240 IEM_DS3505
ZGNN,2000-08-20 06:00,ZGNN 200600Z AUTO 27004KT 19SM 34/24 A2968 RMK SLP038 T03380236 57021 IEM_DS3505
ZGNN,2000-08-20 07:00,ZGNN 200700Z AUTO 00000KT 7SM 35/23 A2965 RMK T03500230 IEM_DS3505
ZGNN,2000-08-20 08:00,ZGNN 200800Z AUTO 13004KT 7SM 35/23 A2962 RMK T03500230 IEM_DS3505
ZGNN,2000-08-20 09:00,ZGNN 200900Z AUTO 11002KT 19SM 34/23 A2959 RMK SLP013 T03450230 57024 IEM_DS3505
ZGNN,2000-08-20 10:00,ZGNN 201000Z AUTO 13004KT 7SM 33/23 A2959 RMK T03300230 IEM_DS3505
ZGNN,2000-08-20 11:00,ZGNN 201100Z AUTO 13004KT 7SM 32/23 A2962 RMK T03200230 IEM_DS3505
ZGNN,2000-08-20 12:00,ZGNN 201200Z AUTO 02002KT 19SM 30/24 A2962 RMK SLP027 T03040239 52013 IEM_DS3505
ZGNN,2000-08-20 13:00,ZGNN 201300Z AUTO 15006KT 7SM 30/24 A2965 RMK T03000240 IEM_DS3505
ZGNN,2000-08-20 14:00,ZGNN 201400Z AUTO 16006KT 7SM 29/25 A2968 RMK T02900250 IEM_DS3505
ZGNN,2000-08-20 15:00,ZGNN 201500Z AUTO 00000KT 16SM 28/25 A2971 RMK SLP052 T02800249 52025 IEM_DS3505
ZGNN,2000-08-20 16:00,ZGNN 201600Z AUTO 00000KT 7SM 27/25 A2971 RMK T02700250 IEM_DS3505
ZGNN,2000-08-20 18:00,ZGNN 201800Z AUTO 00000KT 12SM 26/25 RMK SLP046 T02640247 57006 IEM_DS3505
ZGNN,2000-08-20 21:00,ZGNN 202100Z AUTO 32004KT 12SM 25/24 A2968 RMK SLP040 T02520238 57006 IEM_DS3505
ZGNN,2000-08-20 22:00,ZGNN 202200Z AUTO 00000KT 7SM 25/24 A2968 RMK T02500240 IEM_DS3505
ZGNN,2000-08-20 23:00,ZGNN 202300Z AUTO 00000KT 7SM 26/24 A2968 RMK T02600240 IEM_DS3505
ZGNN,2000-08-21 00:00,ZGNN 210000Z AUTO 00000KT 12SM 26/24 A2971 RMK SLP049 T02620245 52009 IEM_DS3505
ZGNN,2000-08-21 01:00,ZGNN 210100Z AUTO 15004KT 7SM 28/25 A2971 RMK T02800250 IEM_DS3505
ZGNN,2000-08-21 02:00,ZGNN 210200Z AUTO 00000KT 7SM 30/24 A2974 RMK T03000240 IEM_DS3505
ZGNN,2000-08-21 03:00,ZGNN 210300Z AUTO 00000KT 16SM 31/25 A2974 RMK SLP056 T03070247 52007 IEM_DS3505
ZGNN,2000-08-21 04:00,ZGNN 210400Z AUTO 01008KT 7SM 33/26 A2971 RMK T03300260 IEM_DS3505
ZGNN,2000-08-21 05:00,ZGNN 210500Z AUTO 30004KT 7SM 33/25 A2971 RMK T03300250 IEM_DS3505
ZGNN,2000-08-21 06:00,ZGNN 210600Z AUTO 09006KT 12SM 34/24 A2968 RMK SLP035 T03380243 57020 IEM_DS3505
ZGNN,2000-08-21 07:00,ZGNN 210700Z AUTO 03004KT 7SM 35/24 A2965 RMK T03500240 IEM_DS3505
ZGNN,2000-08-21 08:00,ZGNN 210800Z AUTO 03004KT 7SM 35/24 A2962 RMK T03500240 IEM_DS3505
ZGNN,2000-08-21 09:00,ZGNN 210900Z AUTO 34004KT 12SM 34/24 A2962 RMK SLP017 T03420238 57018 IEM_DS3505
ZGNN,2000-08-21 10:00,ZGNN 211000Z AUTO 07008KT 7SM 34/24 A2959 RMK T03400240 IEM_DS3505
ZGNN,2000-08-21 11:00,ZGNN 211100Z AUTO 03004KT 6SM 33/24 A2962 RMK T03300240 IEM_DS3505
ZGNN,2000-08-21 12:00,ZGNN 211200Z AUTO 00000KT 9SM 31/26 A2965 RMK SLP033 T03080257 52015 IEM_DS3505
ZGNN,2000-08-21 13:00,ZGNN 211300Z AUTO 04004KT 6SM 30/26 A2965 RMK T03000260 IEM_DS3505
ZGNN,2000-08-21 14:00,ZGNN 211400Z AUTO 01004KT 6SM 29/25 A2968 RMK T02900250 IEM_DS3505
ZGNN,2000-08-21 15:00,ZGNN 211500Z AUTO 00000KT 9SM 29/24 RMK SLP049 T02920239 52016 IEM_DS3505
ZGNN,2000-08-21 18:00,ZGNN 211800Z AUTO 00000KT 9SM 27/25 RMK SLP049 T02730246 52001 IEM_DS3505
ZGNN,2000-08-21 21:00,ZGNN 212100Z AUTO 00000KT 9SM 26/23 RMK SLP046 T02600234 57004 IEM_DS3505
ZGNN,2000-08-21 22:00,ZGNN 212200Z AUTO 01004KT 4SM 26/24 A2971 RMK T02600240 IEM_DS3505
ZGNN,2000-08-21 23:00,ZGNN 212300Z AUTO 02004KT 4SM 26/24 A2971 RMK T02600240 IEM_DS3505
ZGNN,2000-08-22 00:00,ZGNN 220000Z AUTO 36004KT 4SM 27/24 A2974 RMK T02700240 IEM_DS3505
ZGNN,2000-08-22 01:00,ZGNN 220100Z AUTO 06012KT 5SM 29/23 A2974 RMK T02900230 IEM_DS3505
ZGNN,2000-08-22 02:00,ZGNN 220200Z AUTO 05006KT 5SM 31/23 A2974 RMK T03100230 IEM_DS3505
ZGNN,2000-08-22 03:00,ZGNN 220300Z AUTO 07006KT 9SM 32/22 A2974 RMK SLP060 T03220224 52003 IEM_DS3505
ZGNN,2000-08-22 04:00,ZGNN 220400Z AUTO 03012KT 7SM 33/22 A2974 RMK T03300220 IEM_DS3505
ZGNN,2000-08-22 05:00,ZGNN 220500Z AUTO 06014KT 7SM 34/22 A2971 RMK T03400220 IEM_DS3505
ZGNN,2000-08-22 06:00,ZGNN 220600Z AUTO 02006KT 9SM 34/22 A2968 RMK SLP035 T03410218 57025 IEM_DS3505
ZGNN,2000-08-22 07:00,ZGNN 220700Z AUTO 05017KT 7SM 34/21 A2965 RMK T03400210 IEM_DS3505
ZGNN,2000-08-22 08:00,ZGNN 220800Z AUTO 04012KT 7SM 34/21 A2965 RMK T03400210 IEM_DS3505
ZGNN,2000-08-22 09:00,ZGNN 220900Z AUTO 07004KT 9SM 34/22 A2962 RMK SLP023 T03430224 57012 IEM_DS3505
ZGNN,2000-08-22 10:00,ZGNN 221000Z AUTO 06006KT 7SM 33/23 A2962 RMK T03300230 IEM_DS3505
ZGNN,2000-08-22 11:00,ZGNN 221100Z AUTO 02008KT 7SM 32/23 A2962 RMK T03200230 IEM_DS3505
ZGNN,2000-08-22 12:00,ZGNN 221200Z AUTO 00000KT 9SM 30/24 A2965 RMK 60003 SLP034 T03040240 52010 IEM_DS3505
ZGNN,2000-08-22 13:00,ZGNN 221300Z AUTO 35004KT 7SM 29/24 A2968 RMK T02900240 IEM_DS3505
ZGNN,2000-08-22 15:00,ZGNN 221500Z AUTO 00000KT 9SM 29/25 RMK SLP045 T02860246 52012 IEM_DS3505
ZGNN,2000-08-22 18:00,ZGNN 221800Z AUTO 18002KT 8SM 27/25 RMK SLP036 T02730249 57009 IEM_DS3505
ZGNN,2000-08-22 21:00,ZGNN 222100Z AUTO 00000KT 7SM 26/25 A2965 RMK 70003 SLP031 T02610248 57005 IEM_DS3505
ZGNN,2000-08-22 22:00,ZGNN 222200Z AUTO 00000KT 4SM 26/25 A2965 RMK T02600250 IEM_DS3505
ZGNN,2000-08-22 23:00,ZGNN 222300Z AUTO 35004KT 7SM 26/25 A2965 RMK T02600250 IEM_DS3505
ZGNN,2000-08-23 00:00,ZGNN 230000Z AUTO 34002KT 7SM 28/24 A2968 RMK 70003 SLP042 T02770244 52010 IEM_DS3505
ZGNN,2000-08-23 01:00,ZGNN 230100Z AUTO 00000KT 6SM 29/24 A2968 RMK T02900240 IEM_DS3505
ZGNN,2000-08-23 02:00,ZGNN 230200Z AUTO 29004KT 6SM 31/24 A2968 RMK T03100240 IEM_DS3505
ZGNN,2000-08-23 03:00,ZGNN 230300Z AUTO 34006KT 9SM 32/24 A2968 RMK SLP041 T03200244 54000 IEM_DS3505
ZGNN,2000-08-23 04:00,ZGNN 230400Z AUTO 06008KT 7SM 34/24 A2965 RMK T03400240 IEM_DS3505
ZGNN,2000-08-23 05:00,ZGNN 230500Z AUTO 03006KT 7SM 34/24 A2962 RMK T03400240 IEM_DS3505
ZGNN,2000-08-23 06:00,ZGNN 230600Z AUTO 07006KT 9SM 35/23 A2962 RMK SLP016 T03470232 57025 IEM_DS3505
ZGNN,2000-08-23 07:00,ZGNN 230700Z AUTO 04006KT 7SM 35/23 A2959 RMK T03500230 IEM_DS3505
ZGNN,2000-08-23 08:00,ZGNN 230800Z AUTO 02006KT 7SM 35/23 A2956 RMK T03500230 IEM_DS3505
ZGNN,2000-08-23 09:00,ZGNN 230900Z AUTO 02002KT 9SM 35/24 A2953 RMK SLP997 T03500237 57019 IEM_DS3505
ZGNN,2000-08-23 10:00,ZGNN 231000Z AUTO 03002KT 7SM 34/24 A2956 RMK T03400240 IEM_DS3505
ZGNN,2000-08-23 11:00,ZGNN 231100Z AUTO 03002KT 7SM 33/25 A2956 RMK T03300250 IEM_DS3505
ZGNN,2000-08-23 12:00,ZGNN 231200Z AUTO 00000KT 9SM 31/26 A2959 RMK SLP008 T03120258 52011 IEM_DS3505
ZGNN,2000-08-23 13:00,ZGNN 231300Z AUTO 34002KT 6SM 30/26 A2959 RMK T03000260 IEM_DS3505
ZGNN,2000-08-23 14:00,ZGNN 231400Z AUTO 00000KT 6SM 29/26 A2962 RMK T02900260 IEM_DS3505
ZGNN,2000-08-23 15:00,ZGNN 231500Z AUTO 00000KT 8SM 28/25 RMK SLP022 T02790254 52014 IEM_DS3505
ZGNN,2000-08-23 18:00,ZGNN 231800Z AUTO 00000KT 7SM 26/25 RMK SLP010 T02650249 57012 IEM_DS3505
ZGNN,2000-08-23 21:00,ZGNN 232100Z AUTO 00000KT 7SM 26/25 RMK SLP011 T02580248 52001 IEM_DS3505
ZGNN,2000-08-23 22:00,ZGNN 232200Z AUTO 35006KT 2 1/2SM 26/24 A2959 RMK T02600240 IEM_DS3505
ZGNN,2000-08-23 23:00,ZGNN 232300Z AUTO 35004KT 6SM 27/24 A2962 RMK T02700240 IEM_DS3505
ZGNN,2000-08-24 00:00,ZGNN 240000Z AUTO 32002KT 7SM 27/26 A2965 RMK SLP027 T02700256 52015 IEM_DS3505
ZGNN,2000-08-24 01:00,ZGNN 240100Z AUTO 35006KT 6SM 30/24 A2965 RMK T03000240 IEM_DS3505
ZGNN,2000-08-24 02:00,ZGNN 240200Z AUTO 33008KT 6SM 32/23 A2965 RMK T03200230 IEM_DS3505
ZGNN,2000-08-24 03:00,ZGNN 240300Z AUTO 34010KT 7SM 32/22 A2965 RMK SLP025 T03230222 57001 IEM_DS3505
ZGNN,2000-08-24 04:00,ZGNN 240400Z AUTO 02006KT 7SM 34/21 A2962 RMK T03400210 IEM_DS3505
ZGNN,2000-08-24 05:00,ZGNN 240500Z AUTO 35008KT 7SM 35/22 A2962 RMK T03500220 IEM_DS3505
ZGNN,2000-08-24 06:00,ZGNN 240600Z AUTO 04004KT 9SM 35/22 A2959 RMK SLP008 T03500221 57017 IEM_DS3505
ZGNN,2000-08-24 07:00,ZGNN 240700Z AUTO 03006KT 7SM 35/21 A2956 RMK T03500210 IEM_DS3505
ZGNN,2000-08-24 08:00,ZGNN 240800Z AUTO 03006KT 7SM 35/21 A2956 RMK T03500210 IEM_DS3505
ZGNN,2000-08-24 09:00,ZGNN 240900Z AUTO 02004KT 9SM 36/22 A2953 RMK SLP996 T03560220 57012 IEM_DS3505
ZGNN,2000-08-24 10:00,ZGNN 241000Z AUTO 06006KT 6SM 34/22 A2956 RMK T03400220 IEM_DS3505
ZGNN,2000-08-24 11:00,ZGNN 241100Z AUTO 04004KT 6SM 33/23 A2956 RMK T03300230 IEM_DS3505
ZGNN,2000-08-24 12:00,ZGNN 241200Z AUTO 00000KT 9SM 31/23 A2959 RMK SLP010 T03080234 52013 IEM_DS3505
ZGNN,2000-08-24 13:00,ZGNN 241300Z AUTO 00000KT 7SM 29/24 A2962 RMK T02900240 IEM_DS3505
ZGNN,2000-08-24 15:00,ZGNN 241500Z AUTO 00000KT 9SM 27/24 RMK SLP038 T02730245 52028 IEM_DS3505
ZGNN,2000-08-24 18:00,ZGNN 241800Z AUTO 00000KT 9SM 26/24 RMK SLP034 T02620239 57003 IEM_DS3505
ZGNN,2000-08-24 21:00,ZGNN 242100Z AUTO 00000KT 7SM 25/24 A2965 RMK SLP032 T02540243 57002 IEM_DS3505
ZGNN,2000-08-24 22:00,ZGNN 242200Z AUTO 00000KT 3SM 26/24 A2968 RMK T02600240 IEM_DS3505
ZGNN,2000-08-24 23:00,ZGNN 242300Z AUTO 00000KT 4SM 26/25 A2968 RMK T02600250 IEM_DS3505
ZGNN,2000-08-25 00:00,ZGNN 250000Z AUTO 00000KT 4SM 27/25 A2971 RMK SLP049 T02680251 52016 IEM_DS3505
ZGNN,2000-08-25 01:00,ZGNN 250100Z AUTO 01004KT 3SM 30/24 A2971 RMK T03000240 IEM_DS3505
ZGNN,2000-08-25 02:00,ZGNN 250200Z AUTO 00000KT 6SM 31/23 A2974 RMK T03100230 IEM_DS3505
ZGNN,2000-08-25 03:00,ZGNN 250300Z AUTO 07006KT 6SM 33/23 A2974 RMK SLP059 T03260232 52010 IEM_DS3505
ZGNN,2000-08-25 04:00,ZGNN 250400Z AUTO 00000KT 6SM 34/23 A2971 RMK T03400230 IEM_DS3505
ZGNN,2000-08-25 05:00,ZGNN 250500Z AUTO 00000KT 6SM 34/23 A2968 RMK T03400230 IEM_DS3505
ZGNN,2000-08-25 06:00,ZGNN 250600Z AUTO 11006KT 9SM 35/22 A2965 RMK SLP033 T03540224 57025 IEM_DS3505
ZGNN,2000-08-25 07:00,ZGNN 250700Z AUTO 06004KT 7SM 36/21 A2962 RMK T03600210 IEM_DS3505
ZGNN,2000-08-25 08:00,ZGNN 250800Z AUTO 07008KT 7SM 36/21 A2962 RMK T03600210 IEM_DS3505
ZGNN,2000-08-25 09:00,ZGNN 250900Z AUTO 02004KT 9SM 36/22 A2959 RMK SLP013 T03550222 57020 IEM_DS3505
ZGNN,2000-08-25 10:00,ZGNN 251000Z AUTO 15006KT 7SM 34/25 A2962 RMK T03400250 IEM_DS3505
ZGNN,2000-08-25 11:00,ZGNN 251100Z AUTO 16004KT 6SM 32/24 A2962 RMK T03200240 IEM_DS3505
ZGNN,2000-08-25 12:00,ZGNN 251200Z AUTO 00000KT 9SM 31/25 RMK SLP033 T03120254 52019 IEM_DS3505
ZGNN,2000-08-25 13:00,ZGNN 251300Z AUTO 15004KT 6SM 30/26 A2968 RMK T03000260 IEM_DS3505
ZGNN,2000-08-25 15:00,ZGNN 251500Z AUTO 22004KT 9SM 29/26 RMK SLP048 T02880263 52016 IEM_DS3505
ZGNN,2000-08-25 18:00,ZGNN 251800Z AUTO 34002KT 8SM 28/26 RMK SLP046 T02780264 57002 IEM_DS3505
ZGNN,2000-08-25 21:00,ZGNN 252100Z AUTO 00000KT 7SM 27/26 RMK SLP041 T02660258 57005 IEM_DS3505
ZGNN,2000-08-25 22:00,ZGNN 252200Z AUTO 00000KT 2 1/2SM 27/26 A2968 RMK T02700260 IEM_DS3505
ZGNN,2000-08-25 23:00,ZGNN 252300Z AUTO 00000KT 2 1/2SM 27/26 A2968 RMK T02700260 IEM_DS3505
ZGNN,2000-08-26 00:00,ZGNN 260000Z AUTO 36002KT 2SM 27/26 A2971 RMK SLP054 T02720264 52012 IEM_DS3505
ZGNN,2000-08-26 01:00,ZGNN 260100Z AUTO 15004KT 2SM 29/26 A2974 RMK T02900260 IEM_DS3505
ZGNN,2000-08-26 02:00,ZGNN 260200Z AUTO 00000KT 4SM 31/26 A2974 RMK T03100260 IEM_DS3505
ZGNN,2000-08-26 03:00,ZGNN 260300Z AUTO 09006KT 7SM 32/26 A2974 RMK SLP060 T03180260 52006 IEM_DS3505
ZGNN,2000-08-26 04:00,ZGNN 260400Z AUTO 07004KT 33/25 A2971 RMK T03300250 IEM_DS3505
ZGNN,2000-08-26 05:00,ZGNN 260500Z AUTO 26006KT 7SM 33/24 A2968 RMK T03300240 IEM_DS3505
ZGNN,2000-08-26 06:00,ZGNN 260600Z AUTO 34006KT 12SM 33/25 A2965 RMK SLP031 T03320250 57028 IEM_DS3505
ZGNN,2000-08-26 07:00,ZGNN 260700Z AUTO 05006KT 7SM 35/23 A2962 RMK T03500230 IEM_DS3505
ZGNN,2000-08-26 08:00,ZGNN 260800Z AUTO 00000KT 7SM 36/24 A2962 RMK T03600240 IEM_DS3505
ZGNN,2000-08-26 09:00,ZGNN 260900Z AUTO 20004KT 12SM 31/24 A2962 RMK SLP021 T03060238 57011 IEM_DS3505
ZGNN,2000-08-26 10:00,ZGNN 261000Z AUTO 18006KT 7SM 30/23 A2962 RMK T03000230 IEM_DS3505
ZGNN,2000-08-26 11:00,ZGNN 261100Z AUTO 00000KT 6SM 30/23 A2962 RMK T03000230 IEM_DS3505
ZGNN,2000-08-26 12:00,ZGNN 261200Z AUTO 16004KT 9SM 29/24 A2965 RMK SLP040 T02910235 52019 IEM_DS3505
ZGNN,2000-08-26 13:00,ZGNN 261300Z AUTO 06004KT 5SM 27/24 A2968 RMK T02700240 IEM_DS3505
ZGNN,2000-08-26 14:00,ZGNN 261400Z AUTO 00000KT 5SM 26/24 A2971 RMK T02600240 IEM_DS3505
ZGNN,2000-08-26 15:00,ZGNN 261500Z AUTO 22002KT 9SM 27/25 A2971 RMK SLP060 T02710251 52020 IEM_DS3505
ZGNN,2000-08-26 18:00,ZGNN 261800Z AUTO 25002KT 9SM 26/24 RMK SLP046 T02580241 57014 IEM_DS3505
ZGNN,2000-08-26 21:00,ZGNN 262100Z AUTO 00000KT 9SM 24/24 A2968 RMK SLP038 T02420235 57009 IEM_DS3505
ZGNN,2000-08-26 22:00,ZGNN 262200Z AUTO 00000KT 5SM 25/24 A2968 RMK T02500240 IEM_DS3505
ZGNN,2000-08-26 23:00,ZGNN 262300Z AUTO 00000KT 4SM 25/24 A2968 RMK T02500240 IEM_DS3505
ZGNN,2000-08-27 00:00,ZGNN 270000Z AUTO 00000KT 9SM 25/24 A2968 RMK SLP048 T02540245 52010 IEM_DS3505
ZGNN,2000-08-27 01:00,ZGNN 270100Z AUTO 18004KT 4SM 28/25 A2971 RMK T02800250 IEM_DS3505
ZGNN,2000-08-27 02:00,ZGNN 270200Z AUTO 12004KT 6SM 30/24 A2971 RMK T03000240 IEM_DS3505
ZGNN,2000-08-27 03:00,ZGNN 270300Z AUTO 07004KT 9SM 32/25 A2971 RMK SLP053 T03200247 52006 IEM_DS3505
ZGNN,2000-08-27 04:00,ZGNN 270400Z AUTO 11006KT 7SM 34/22 A2971 RMK T03400220 IEM_DS3505
ZGNN,2000-08-27 05:00,ZGNN 270500Z AUTO 12006KT 7SM 35/22 A2968 RMK T03500220 IEM_DS3505
ZGNN,2000-08-27 06:00,ZGNN 270600Z AUTO 00000KT 12SM 34/24 A2965 RMK SLP032 T03420238 57020 IEM_DS3505
ZGNN,2000-08-27 07:00,ZGNN 270700Z AUTO 12002KT 7SM 36/22 A2962 RMK T03600220 IEM_DS3505
ZGNN,2000-08-27 08:00,ZGNN 270800Z AUTO 13002KT 6SM 36/21 A2959 RMK T03600210 IEM_DS3505
ZGNN,2000-08-27 09:00,ZGNN 270900Z AUTO 02002KT 12SM 36/22 A2959 RMK SLP010 T03550215 57022 IEM_DS3505
ZGNN,2000-08-27 10:00,ZGNN 271000Z AUTO 07008KT 7SM 35/21 A2959 RMK T03500210 IEM_DS3505
ZGNN,2000-08-27 11:00,ZGNN 271100Z AUTO 33006KT 7SM 32/23 A2962 RMK T03200230 IEM_DS3505
ZGNN,2000-08-27 12:00,ZGNN 271200Z AUTO 34006KT 9SM 31/23 A2965 RMK SLP031 T03060233 52020 IEM_DS3505
ZGNN,2000-08-27 13:00,ZGNN 271300Z AUTO 33006KT 6SM 30/23 A2968 RMK T03000230 IEM_DS3505
ZGNN,2000-08-27 14:00,ZGNN 271400Z AUTO 34008KT 6SM 29/23 A2968 RMK T02900230 IEM_DS3505
ZGNN,2000-08-27 15:00,ZGNN 271500Z AUTO 00000KT 9SM 28/24 A2971 RMK SLP051 T02820242 52020 IEM_DS3505
ZGNN,2000-08-27 16:00,ZGNN 271600Z AUTO 36004KT 6SM 28/23 A2971 RMK T02800230 IEM_DS3505
ZGNN,2000-08-27 18:00,ZGNN 271800Z AUTO 34004KT 9SM 27/24 RMK SLP040 T02720238 57010 IEM_DS3505
ZGNN,2000-08-27 21:00,ZGNN 272100Z AUTO 00000KT 9SM 27/23 A2968 RMK SLP041 T02660234 52001 IEM_DS3505
ZGNN,2000-08-27 22:00,ZGNN 272200Z AUTO 00000KT 5SM 27/24 A2968 RMK T02700240 IEM_DS3505
ZGNN,2000-08-27 23:00,ZGNN 272300Z AUTO 35004KT 7SM 27/23 A2968 RMK T02700230 IEM_DS3505
ZGNN,2000-08-28 00:00,ZGNN 280000Z AUTO 32004KT 9SM 26/24 A2971 RMK 60008 SLP052 T02570241 52009 IEM_DS3505
ZGNN,2000-08-28 02:00,ZGNN 280200Z AUTO 33006KT 6SM 28/22 A2974 RMK T02800220 IEM_DS3505
ZGNN,2000-08-28 03:00,ZGNN 280300Z AUTO 34002KT 9SM 29/24 A2977 RMK SLP064 T02900236 52013 IEM_DS3505
ZGNN,2000-08-28 04:00,ZGNN 280400Z AUTO 00000KT 6SM 31/22 A2974 RMK T03100220 IEM_DS3505
ZGNN,2000-08-28 05:00,ZGNN 280500Z AUTO 00000KT 7SM 33/22 A2971 RMK T03300220 IEM_DS3505
ZGNN,2000-08-28 06:00,ZGNN 280600Z AUTO 25004KT 12SM 32/23 A2968 RMK SLP034 T03240230 57029 IEM_DS3505
ZGNN,2000-08-28 07:00,ZGNN 280700Z AUTO 31006KT 7SM 33/23 A2965 RMK T03300230 IEM_DS3505
ZGNN,2000-08-28 08:00,ZGNN 280800Z AUTO 34008KT 7SM 33/22 A2962 RMK T03300220 IEM_DS3505
ZGNN,2000-08-28 09:00,ZGNN 280900Z AUTO 34010KT 12SM 32/23 A2962 RMK SLP019 T03240226 57015 IEM_DS3505
ZGNN,2000-08-28 10:00,ZGNN 281000Z AUTO 33004KT 6SM 32/21 A2962 RMK T03200210 IEM_DS3505
ZGNN,2000-08-28 11:00,ZGNN 281100Z AUTO 33006KT 6SM 31/22 A2962 RMK T03100220 IEM_DS3505
ZGNN,2000-08-28 12:00,ZGNN 281200Z AUTO 34004KT 12SM 29/24 A2965 RMK SLP030 T02910235 52009 IEM_DS3505
ZGNN,2000-08-28 13:00,ZGNN 281300Z AUTO 34004KT 6SM 29/24 A2965 RMK T02900240 IEM_DS3505
ZGNN,2000-08-28 14:00,ZGNN 281400Z AUTO 34004KT 6SM 28/24 A2968 RMK T02800240 IEM_DS3505
ZGNN,2000-08-28 15:00,ZGNN 281500Z AUTO 34006KT 11SM 28/23 A2971 RMK SLP048 T02750233 52019 IEM_DS3505
ZGNN,2000-08-28 16:00,ZGNN 281600Z AUTO 33006KT 6SM 28/23 A2971 RMK T02800230 IEM_DS3505
ZGNN,2000-08-28 18:00,ZGNN 281800Z AUTO 00000KT 11SM 27/23 RMK SLP050 T02680227 52002 IEM_DS3505
ZGNN,2000-08-28 21:00,ZGNN 282100Z AUTO 32004KT 9SM 26/23 RMK 70008 SLP034 T02580226 57016 IEM_DS3505
ZGNN,2000-08-28 22:00,ZGNN 282200Z AUTO 31006KT 7SM 27/21 A2965 RMK T02700210 IEM_DS3505
ZGNN,2000-08-28 23:00,ZGNN 282300Z AUTO 00000KT 7SM 27/21 A2968 RMK T02700210 IEM_DS3505
ZGNN,2000-08-29 00:00,ZGNN 290000Z AUTO 34006KT 9SM 26/22 A2971 RMK SLP050 T02650223 52015 IEM_DS3505
ZGNN,2000-08-29 01:00,ZGNN 290100Z AUTO 33008KT 6SM 29/22 A2971 RMK T02900220 IEM_DS3505
ZGNN,2000-08-29 02:00,ZGNN 290200Z AUTO 33006KT 6SM 30/21 A2971 RMK T03000210 IEM_DS3505
ZGNN,2000-08-29 03:00,ZGNN 290300Z AUTO 02008KT 9SM 31/20 A2971 RMK SLP050 T03100203 52001 IEM_DS3505
ZGNN,2000-08-29 04:00,ZGNN 290400Z AUTO 36004KT 6SM 33/21 A2968 RMK T03300210 IEM_DS3505
ZGNN,2000-08-29 05:00,ZGNN 290500Z AUTO 32004KT 7SM 33/21 A2965 RMK T03300210 IEM_DS3505
ZGNN,2000-08-29 06:00,ZGNN 290600Z AUTO 34006KT 9SM 33/21 A2962 RMK SLP018 T03300213 57031 IEM_DS3505
ZGNN,2000-08-29 07:00,ZGNN 290700Z AUTO 36004KT 7SM 34/21 A2959 RMK T03400210 IEM_DS3505
ZGNN,2000-08-29 08:00,ZGNN 290800Z AUTO 31008KT 7SM 34/20 A2956 RMK T03400200 IEM_DS3505
ZGNN,2000-08-29 09:00,ZGNN 290900Z AUTO 36004KT 11SM 34/21 A2956 RMK SLP999 T03400212 57019 IEM_DS3505
ZGNN,2000-08-29 10:00,ZGNN 291000Z AUTO 32008KT 7SM 34/20 A2953 RMK T03400200 IEM_DS3505
ZGNN,2000-08-29 11:00,ZGNN 291100Z AUTO 03004KT 7SM 32/22 A2956 RMK T03200220 IEM_DS3505
ZGNN,2000-08-29 12:00,ZGNN 291200Z AUTO 00000KT 12SM 31/23 A2959 RMK 60003 SLP010 T03100228 52010 IEM_DS3505
ZGNN,2000-08-29 13:00,ZGNN 291300Z AUTO 00000KT 7SM 30/23 A2959 RMK T03000230 IEM_DS3505
ZGNN,2000-08-29 15:00,ZGNN 291500Z AUTO 29002KT 12SM 29/25 RMK SLP028 T02880247 52019 IEM_DS3505
ZGNN,2000-08-29 18:00,ZGNN 291800Z AUTO 34004KT 12SM 28/23 RMK SLP017 T02750227 57011 IEM_DS3505
ZGNN,2000-08-29 21:00,ZGNN 292100Z AUTO 00000KT 11SM 25/23 A2959 RMK 70003 SLP007 T02520230 57010 IEM_DS3505
ZGNN,2000-08-29 22:00,ZGNN 292200Z AUTO 34004KT 6SM 26/22 A2959 RMK T02600220 IEM_DS3505
ZGNN,2000-08-29 23:00,ZGNN 292300Z AUTO 34004KT 6SM 26/22 A2959 RMK T02600220 IEM_DS3505
ZGNN,2000-08-30 00:00,ZGNN 300000Z AUTO 34004KT 6SM 27/23 A2962 RMK 70003 SLP019 T02700229 52011 IEM_DS3505
ZGNN,2000-08-30 01:00,ZGNN 300100Z AUTO 34008KT 6SM 29/21 A2962 RMK T02900210 IEM_DS3505
ZGNN,2000-08-30 02:00,ZGNN 300200Z AUTO 36010KT 6SM 30/21 A2965 RMK T03000210 IEM_DS3505
ZGNN,2000-08-30 03:00,ZGNN 300300Z AUTO 36008KT 7SM 32/21 A2962 RMK SLP024 T03150211 52006 IEM_DS3505
ZGNN,2000-08-30 04:00,ZGNN 300400Z AUTO 34006KT 7SM 33/21 A2962 RMK T03300210 IEM_DS3505
ZGNN,2000-08-30 05:00,ZGNN 300500Z AUTO 33004KT 7SM 34/20 A2959 RMK T03400200 IEM_DS3505
ZGNN,2000-08-30 06:00,ZGNN 300600Z AUTO 34008KT 9SM 34/22 A2956 RMK SLP003 T03390216 57021 IEM_DS3505
ZGNN,2000-08-30 07:00,ZGNN 300700Z AUTO 32010KT 7SM 34/21 A2956 RMK T03400210 IEM_DS3505
ZGNN,2000-08-30 08:00,ZGNN 300800Z AUTO 33010KT 7SM 35/19 A2953 RMK T03500190 IEM_DS3505
ZGNN,2000-08-30 09:00,ZGNN 300900Z AUTO 34006KT 9SM 34/20 A2953 RMK SLP988 T03380201 57015 IEM_DS3505
ZGNN,2000-08-30 10:00,ZGNN 301000Z AUTO 33008KT 6SM 33/20 A2953 RMK T03300200 IEM_DS3505
ZGNN,2000-08-30 11:00,ZGNN 301100Z AUTO 00000KT 6SM 32/21 A2953 RMK T03200210 IEM_DS3505
ZGNN,2000-08-30 12:00,ZGNN 301200Z AUTO 34004KT 9SM 30/22 A2953 RMK SLP991 T02980221 52002 IEM_DS3505
ZGNN,2000-08-30 13:00,ZGNN 301300Z AUTO 05004KT 6SM 30/22 A2956 RMK T03000220 IEM_DS3505
ZGNN,2000-08-30 15:00,ZGNN 301500Z AUTO 00000KT 9SM 26/23 RMK SLP017 T02640226 52026 IEM_DS3505
ZGNN,2000-08-30 18:00,ZGNN 301800Z AUTO 00000KT 9SM 25/22 RMK SLP008 T02490224 57008 IEM_DS3505
ZGNN,2000-08-30 21:00,ZGNN 302100Z AUTO 16002KT 9SM 24/22 RMK SLP002 T02420224 57006 IEM_DS3505
ZGNN,2000-08-30 22:00,ZGNN 302200Z AUTO 00000KT 6SM 24/23 A2956 RMK T02400230 IEM_DS3505
ZGNN,2000-08-30 23:00,ZGNN 302300Z AUTO 00000KT 6SM 25/23 A2959 RMK T02500230 IEM_DS3505
ZGNN,2000-08-31 00:00,ZGNN 310000Z AUTO 34006KT 7SM 27/21 A2959 RMK SLP011 T02670212 52008 IEM_DS3505
ZGNN,2000-08-31 01:00,ZGNN 310100Z AUTO 33004KT 6SM 30/21 A2959 RMK T03000210 IEM_DS3505
ZGNN,2000-08-31 02:00,ZGNN 310200Z AUTO 32006KT 6SM 31/20 A2962 RMK T03100200 IEM_DS3505
ZGNN,2000-08-31 03:00,ZGNN 310300Z AUTO 34006KT 11SM 32/20 A2962 RMK SLP022 T03200198 52011 IEM_DS3505
ZGNN,2000-08-31 04:00,ZGNN 310400Z AUTO 10006KT 6SM 33/21 A2962 RMK T03300210 IEM_DS3505
ZGNN,2000-08-31 05:00,ZGNN 310500Z AUTO 12004KT 7SM 34/20 A2959 RMK T03400200 IEM_DS3505
ZGNN,2000-08-31 06:00,ZGNN 310600Z AUTO 02004KT 12SM 34/20 A2956 RMK SLP002 T03350204 57019 IEM_DS3505
ZGNN,2000-08-31 07:00,ZGNN 310700Z AUTO 07004KT 7SM 35/20 A2956 RMK T03500200 IEM_DS3505
ZGNN,2000-08-31 08:00,ZGNN 310800Z AUTO 08006KT 7SM 34/20 A2953 RMK T03400200 IEM_DS3505
ZGNN,2000-08-31 09:00,ZGNN 310900Z AUTO 02004KT 10SM 34/21 A2953 RMK SLP990 T03440213 57012 IEM_DS3505
ZGNN,2000-08-31 10:00,ZGNN 311000Z AUTO 06006KT 7SM 34/21 A2953 RMK T03400210 IEM_DS3505
ZGNN,2000-08-31 12:00,ZGNN 311200Z AUTO 00000KT 9SM 29/24 A2956 RMK SLP004 T02920235 52013 IEM_DS3505
ZGNN,2000-08-31 13:00,ZGNN 311300Z AUTO 00000KT 6SM 28/24 A2959 RMK T02800240 IEM_DS3505
ZGNN,2000-08-31 15:00,ZGNN 311500Z AUTO 00000KT 8SM 26/23 RMK SLP020 T02620230 52016 IEM_DS3505
ZGNN,2000-08-31 18:00,ZGNN 311800Z AUTO 00000KT 7SM 25/23 RMK SLP016 T02520229 57003 IEM_DS3505
ZGNN,2000-08-31 21:00,ZGNN 312100Z AUTO 00000KT 7SM 24/23 A2959 RMK SLP010 T02410228 57006 IEM_DS3505
ZGNN,2000-08-31 22:00,ZGNN 312200Z AUTO 00000KT 6SM 24/23 A2962 RMK T02400230 IEM_DS3505
ZGNN,2000-08-31 23:00,ZGNN 312300Z AUTO 00000KT 4SM 25/23 A2962 RMK T02500230 IEM_DS3505
ZGNN,2000-09-01 00:00,ZGNN 010000Z AUTO 00000KT 7SM 26/24 A2965 RMK SLP025 T02580238 52014 IEM_DS3505
ZGNN,2000-09-01 01:00,ZGNN 010100Z AUTO 09002KT 30/23 A2965 RMK T03000230 IEM_DS3505
ZGNN,2000-09-01 02:00,ZGNN 010200Z AUTO 00000KT 6SM 31/22 A2965 RMK T03100220 IEM_DS3505
ZGNN,2000-09-01 03:00,ZGNN 010300Z AUTO 11006KT 7SM 33/21 A2965 RMK SLP032 T03340208 52008 IEM_DS3505
ZGNN,2000-09-01 04:00,ZGNN 010400Z AUTO 00000KT 7SM 35/21 A2965 RMK T03500210 IEM_DS3505
ZGNN,2000-09-01 05:00,ZGNN 010500Z AUTO 01006KT 7SM 36/20 A2962 RMK T03600200 IEM_DS3505
ZGNN,2000-09-01 06:00,ZGNN 010600Z AUTO 34006KT 10SM 36/20 A2959 RMK SLP010 T03620202 57022 IEM_DS3505
ZGNN,2000-09-01 07:00,ZGNN 010700Z AUTO 00000KT 7SM 36/20 A2956 RMK T03600200 IEM_DS3505
ZGNN,2000-09-01 08:00,ZGNN 010800Z AUTO 04006KT 7SM 36/20 A2953 RMK T03600200 IEM_DS3505
ZGNN,2000-09-01 09:00,ZGNN 010900Z AUTO 00000KT 11SM 36/20 A2953 RMK SLP989 T03550204 57021 IEM_DS3505
ZGNN,2000-09-01 10:00,ZGNN 011000Z AUTO 00000KT 7SM 35/21 A2953 RMK T03500210 IEM_DS3505
ZGNN,2000-09-01 11:00,ZGNN 011100Z AUTO 12004KT 7SM 33/22 A2956 RMK T03300220 IEM_DS3505
ZGNN,2000-09-01 12:00,ZGNN 011200Z AUTO 00000KT 9SM 32/24 A2956 RMK SLP003 T03160238 52013 IEM_DS3505
ZGNN,2000-09-01 13:00,ZGNN 011300Z AUTO 00000KT 7SM 32/22 A2959 RMK T03200220 IEM_DS3505
ZGNN,2000-09-01 15:00,ZGNN 011500Z AUTO 00000KT 9SM 30/25 RMK SLP023 T02960247 52021 IEM_DS3505
ZGNN,2000-09-01 18:00,ZGNN 011800Z AUTO 00000KT 7SM 27/25 RMK SLP018 T02700249 57004 IEM_DS3505
ZGNN,2000-09-01 21:00,ZGNN 012100Z AUTO 00000KT 7SM 26/25 RMK SLP014 T02640247 57005 IEM_DS3505
ZGNN,2000-09-01 22:00,ZGNN 012200Z AUTO 00000KT 7SM 26/25 A2962 RMK T02600250 IEM_DS3505
ZGNN,2000-09-01 23:00,ZGNN 012300Z AUTO 00000KT 7SM 26/25 A2962 RMK T02600250 IEM_DS3505
ZGNN,2000-09-02 00:00,ZGNN 020000Z AUTO 00000KT 4SM 27/25 A2965 RMK SLP028 T02700253 52013 IEM_DS3505
ZGNN,2000-09-02 01:00,ZGNN 020100Z AUTO 00000KT 4SM 29/25 A2965 RMK T02900250 IEM_DS3505
ZGNN,2000-09-02 02:00,ZGNN 020200Z AUTO 09006KT 4SM 30/25 A2968 RMK T03000250 IEM_DS3505
ZGNN,2000-09-02 03:00,ZGNN 020300Z AUTO 11004KT 6SM 31/24 A2968 RMK SLP038 T03140240 52011 IEM_DS3505
ZGNN,2000-09-02 04:00,ZGNN 020400Z AUTO 00000KT 7SM 33/24 A2965 RMK T03300240 IEM_DS3505
ZGNN,2000-09-02 05:00,ZGNN 020500Z AUTO 15010KT 7SM 33/23 A2965 RMK T03300230 IEM_DS3505
ZGNN,2000-09-02 06:00,ZGNN 020600Z AUTO 22002KT 7SM 28/22 A2965 RMK 60003 SLP035 T02820222 57005 IEM_DS3505
ZGNN,2000-09-02 07:00,ZGNN 020700Z AUTO 23004KT 7SM 27/24 A2965 RMK T02700240 IEM_DS3505
ZGNN,2000-09-02 08:00,ZGNN 020800Z AUTO 12004KT 7SM 28/26 A2962 RMK T02800260 IEM_DS3505
ZGNN,2000-09-02 09:00,ZGNN 020900Z AUTO 00000KT 7SM 28/24 A2962 RMK SLP018 T02820238 57016 IEM_DS3505
ZGNN,2000-09-02 10:00,ZGNN 021000Z AUTO 26004KT 6SM 28/25 A2962 RMK T02800250 IEM_DS3505
ZGNN,2000-09-02 11:00,ZGNN 021100Z AUTO 16004KT 6SM 28/26 A2962 RMK T02800260 IEM_DS3505
ZGNN,2000-09-02 12:00,ZGNN 021200Z AUTO 00000KT 7SM 28/26 A2965 RMK 60004 SLP034 T02800261 52015 IEM_DS3505
ZGNN,2000-09-02 13:00,ZGNN 021300Z AUTO 15004KT 6SM 28/26 A2965 RMK T02800260 IEM_DS3505
ZGNN,2000-09-02 15:00,ZGNN 021500Z AUTO 00000KT 7SM 26/26 RMK SLP047 T02650255 52014 IEM_DS3505
ZGNN,2000-09-02 18:00,ZGNN 021800Z AUTO 07002KT 7SM 26/25 RMK SLP050 T02600249 52002 IEM_DS3505
ZGNN,2000-09-02 21:00,ZGNN 022100Z AUTO 20008KT 2SM 25/23 A2974 RMK 70041 SLP056 T02460234 52006 IEM_DS3505
ZGNN,2000-09-02 22:00,ZGNN 022200Z AUTO 00000KT 7SM 23/23 A2971 RMK T02300230 IEM_DS3505
ZGNN,2000-09-02 23:00,ZGNN 022300Z AUTO 00000KT 7SM 24/23 A2971 RMK T02400230 IEM_DS3505
ZGNN,2000-09-03 00:00,ZGNN 030000Z AUTO 00000KT 19SM 24/24 A2974 RMK 60059 SLP065 T02440235 52008 IEM_DS3505
ZGNN,2000-09-03 01:00,ZGNN 030100Z AUTO 05004KT 7SM 25/24 A2977 RMK T02500240 IEM_DS3505
ZGNN,2000-09-03 02:00,ZGNN 030200Z AUTO 07010KT 7SM 28/25 A2977 RMK T02800250 IEM_DS3505
ZGNN,2000-09-03 03:00,ZGNN 030300Z AUTO 14004KT 19SM 29/24 A2977 RMK SLP075 T02890245 52011 IEM_DS3505
ZGNN,2000-09-03 04:00,ZGNN 030400Z AUTO 11006KT 7SM 30/25 A2977 RMK T03000250 IEM_DS3505
ZGNN,2000-09-03 05:00,ZGNN 030500Z AUTO 12010KT 7SM 30/24 A2974 RMK T03000240 IEM_DS3505
ZGNN,2000-09-03 06:00,ZGNN 030600Z AUTO 09004KT 19SM 28/25 A2974 RMK 60020 SLP059 T02850247 57016 IEM_DS3505
ZGNN,2000-09-03 07:00,ZGNN 030700Z AUTO 12004KT 7SM 31/24 A2971 RMK T03100240 IEM_DS3505
ZGNN,2000-09-03 08:00,ZGNN 030800Z AUTO 13006KT 7SM 32/23 A2968 RMK T03200230 IEM_DS3505
ZGNN,2000-09-03 09:00,ZGNN 030900Z AUTO 09004KT 19SM 30/24 A2968 RMK SLP048 T03040236 57011 IEM_DS3505
ZGNN,2000-09-03 10:00,ZGNN 031000Z AUTO 08008KT 7SM 30/24 A2971 RMK T03000240 IEM_DS3505
ZGNN,2000-09-03 11:00,ZGNN 031100Z AUTO 09006KT 7SM 29/24 A2971 RMK T02900240 IEM_DS3505
ZGNN,2000-09-03 12:00,ZGNN 031200Z AUTO 14006KT 16SM 27/24 A2974 RMK SLP067 T02740241 52018 IEM_DS3505
ZGNN,2000-09-03 13:00,ZGNN 031300Z AUTO 06004KT 7SM 27/24 A2977 RMK T02700240 IEM_DS3505
ZGNN,2000-09-03 14:00,ZGNN 031400Z AUTO 06004KT 7SM 27/25 A2977 RMK T02700250 IEM_DS3505
ZGNN,2000-09-03 15:00,ZGNN 031500Z AUTO 04002KT 12SM 26/24 RMK SLP077 T02550239 52011 IEM_DS3505
ZGNN,2000-09-03 18:00,ZGNN 031800Z AUTO 00000KT 9SM 25/24 RMK SLP075 T02510237 57002 IEM_DS3505
ZGNN,2000-09-03 21:00,ZGNN 032100Z AUTO 00000KT 9SM 25/24 A2977 RMK 70040 SLP068 T02480239 57007 IEM_DS3505
ZGNN,2000-09-03 22:00,ZGNN 032200Z AUTO 02004KT 7SM 25/24 A2974 RMK T02500240 IEM_DS3505
ZGNN,2000-09-03 23:00,ZGNN 032300Z AUTO 00000KT 7SM 25/24 A2977 RMK T02500240 IEM_DS3505
ZGNN,2000-09-04 00:00,ZGNN 040000Z AUTO 34002KT 6SM 26/24 RMK 70018 SLP076 T02580236 52007 IEM_DS3505
ZGNN,2000-09-04 01:00,ZGNN 040100Z AUTO 08006KT 7SM 27/24 A2980 RMK T02700240 IEM_DS3505
ZGNN,2000-09-04 02:00,ZGNN 040200Z AUTO 09008KT 7SM 29/24 A2980 RMK T02900240 IEM_DS3505
ZGNN,2000-09-04 03:00,ZGNN 040300Z AUTO 11004KT 7SM 29/24 A2980 RMK SLP083 T02900237 52008 IEM_DS3505
ZGNN,2000-09-04 04:00,ZGNN 040400Z AUTO 07004KT 7SM 30/24 A2977 RMK T03000240 IEM_DS3505
ZGNN,2000-09-04 05:00,ZGNN 040500Z AUTO 07010KT 7SM 31/24 A2977 RMK T03100240 IEM_DS3505
ZGNN,2000-09-04 06:00,ZGNN 040600Z AUTO 09004KT 9SM 32/24 A2974 RMK SLP057 T03230235 57025 IEM_DS3505
ZGNN,2000-09-04 07:00,ZGNN 040700Z AUTO 08008KT 7SM 33/23 A2968 RMK T03300230 IEM_DS3505
ZGNN,2000-09-04 08:00,ZGNN 040800Z AUTO 08006KT 7SM 32/22 A2965 RMK T03200220 IEM_DS3505
ZGNN,2000-09-04 09:00,ZGNN 040900Z AUTO 07006KT 12SM 33/23 A2965 RMK SLP034 T03310228 57023 IEM_DS3505
ZGNN,2000-09-04 10:00,ZGNN 041000Z AUTO 07010KT 7SM 32/23 A2965 RMK T03200230 IEM_DS3505
ZGNN,2000-09-04 11:00,ZGNN 041100Z AUTO 11006KT 7SM 31/24 A2968 RMK T03100240 IEM_DS3505
ZGNN,2000-09-04 12:00,ZGNN 041200Z AUTO 25002KT 16SM 29/25 A2971 RMK SLP052 T02900251 52017 IEM_DS3505
ZGNN,2000-09-04 13:00,ZGNN 041300Z AUTO 26004KT 7SM 28/25 RMK T02800250 IEM_DS3505
ZGNN,2000-09-04 14:00,ZGNN 041400Z AUTO 00000KT 7SM 28/25 A2974 RMK T02800250 IEM_DS3505
ZGNN,2000-09-04 15:00,ZGNN 041500Z AUTO 00000KT 12SM 28/26 A2974 RMK SLP073 T02760261 52021 IEM_DS3505
ZGNN,2000-09-04 18:00,ZGNN 041800Z AUTO 00000KT 12SM 26/25 RMK SLP063 T02620248 57009 IEM_DS3505
ZGNN,2000-09-04 21:00,ZGNN 042100Z AUTO 00000KT 9SM 25/24 RMK SLP058 T02480239 57005 IEM_DS3505
ZGNN,2000-09-04 22:00,ZGNN 042200Z AUTO 00000KT 7SM 25/24 A2974 RMK T02500240 IEM_DS3505
ZGNN,2000-09-04 23:00,ZGNN 042300Z AUTO 00000KT 4SM 25/24 A2974 RMK T02500240 IEM_DS3505
ZGNN,2000-09-05 00:00,ZGNN 050000Z AUTO 04002KT 6SM 26/25 A2977 RMK SLP067 T02560246 52008 IEM_DS3505
ZGNN,2000-09-05 01:00,ZGNN 050100Z AUTO 00000KT 4SM 28/24 A2977 RMK T02800240 IEM_DS3505
ZGNN,2000-09-05 02:00,ZGNN 050200Z AUTO 00000KT 7SM 29/25 A2977 RMK T02900250 IEM_DS3505
ZGNN,2000-09-05 03:00,ZGNN 050300Z AUTO 36004KT 12SM 30/24 A2977 RMK SLP071 T03000239 52005 IEM_DS3505
ZGNN,2000-09-05 04:00,ZGNN 050400Z AUTO 26004KT 7SM 32/24 A2974 RMK T03200240 IEM_DS3505
ZGNN,2000-09-05 05:00,ZGNN 050500Z AUTO 25004KT 7SM 33/23 A2971 RMK T03300230 IEM_DS3505
ZGNN,2000-09-05 06:00,ZGNN 050600Z AUTO 18004KT 16SM 33/24 A2968 RMK SLP046 T03280244 57025 IEM_DS3505
ZGNN,2000-09-05 07:00,ZGNN 050700Z AUTO 00000KT 7SM 35/23 A2965 RMK T03500230 IEM_DS3505
ZGNN,2000-09-05 08:00,ZGNN 050800Z AUTO 21004KT 7SM 35/24 A2962 RMK T03500240 IEM_DS3505
ZGNN,2000-09-05 09:00,ZGNN 050900Z AUTO 22004KT 16SM 34/23 A2959 RMK SLP016 T03430231 57029 IEM_DS3505
ZGNN,2000-09-05 10:00,ZGNN 051000Z AUTO 22006KT 6SM 34/23 A2959 RMK T03400230 IEM_DS3505
ZGNN,2000-09-05 11:00,ZGNN 051100Z AUTO 00000KT 6SM 33/24 A2959 RMK T03300240 IEM_DS3505
ZGNN,2000-09-05 12:00,ZGNN 051200Z AUTO 34002KT 16SM 30/26 A2962 RMK SLP024 T03000257 52007 IEM_DS3505
ZGNN,2000-09-05 13:00,ZGNN 051300Z AUTO 00000KT 6SM 28/25 A2965 RMK T02800250 IEM_DS3505
ZGNN,2000-09-05 15:00,ZGNN 051500Z AUTO 00000KT 12SM 27/25 RMK SLP045 T02740254 52021 IEM_DS3505
ZGNN,2000-09-05 18:00,ZGNN 051800Z AUTO 04004KT 9SM 26/22 RMK SLP046 T02640220 52001 IEM_DS3505
ZGNN,2000-09-05 21:00,ZGNN 052100Z AUTO 02002KT 9SM 25/23 A2971 RMK SLP052 T02460228 52006 IEM_DS3505
ZGNN,2000-09-05 22:00,ZGNN 052200Z AUTO 04004KT 7SM 25/23 A2968 RMK T02500230 IEM_DS3505
ZGNN,2000-09-05 23:00,ZGNN 052300Z AUTO 00000KT 7SM 25/23 A2971 RMK T02500230 IEM_DS3505
ZGNN,2000-09-06 00:00,ZGNN 060000Z AUTO 27004KT 9SM 25/23 A2971 RMK SLP055 T02500233 52002 IEM_DS3505
ZGNN,2000-09-06 01:00,ZGNN 060100Z AUTO 33006KT 6SM 26/23 A2974 RMK T02600230 IEM_DS3505
ZGNN,2000-09-06 02:00,ZGNN 060200Z AUTO 35008KT 7SM 27/23 A2977 RMK T02700230 IEM_DS3505
ZGNN,2000-09-06 03:00,ZGNN 060300Z AUTO 02006KT 19SM 26/23 A2977 RMK SLP074 T02640226 52019 IEM_DS3505
ZGNN,2000-09-06 04:00,ZGNN 060400Z AUTO 01008KT 7SM 28/23 A2977 RMK T02800230 IEM_DS3505
ZGNN,2000-09-06 05:00,ZGNN 060500Z AUTO 31008KT 7SM 29/23 A2974 RMK T02900230 IEM_DS3505
ZGNN,2000-09-06 06:00,ZGNN 060600Z AUTO 02004KT 19SM 31/22 A2968 RMK 60003 SLP046 T03080218 57027 IEM_DS3505
ZGNN,2000-09-06 07:00,ZGNN 060700Z AUTO 00000KT 7SM 32/22 A2965 RMK T03200220 IEM_DS3505
ZGNN,2000-09-06 08:00,ZGNN 060800Z AUTO 02006KT 7SM 32/22 A2965 RMK T03200220 IEM_DS3505
ZGNN,2000-09-06 09:00,ZGNN 060900Z AUTO 36004KT 19SM 31/23 A2965 RMK SLP032 T03140226 57014 IEM_DS3505
ZGNN,2000-09-06 10:00,ZGNN 061000Z AUTO 02004KT 7SM 31/23 A2965 RMK T03100230 IEM_DS3505
ZGNN,2000-09-06 11:00,ZGNN 061100Z AUTO 00000KT 7SM 30/23 A2968 RMK T03000230 IEM_DS3505
ZGNN,2000-09-06 12:00,ZGNN 061200Z AUTO 00000KT 19SM 28/24 A2971 RMK SLP050 T02820239 52017 IEM_DS3505
ZGNN,2000-09-06 15:00,ZGNN 061500Z AUTO 00000KT 17SM 27/23 RMK SLP070 T02740231 52020 IEM_DS3505
ZGNN,2000-09-06 18:00,ZGNN 061800Z AUTO 00000KT 16SM 26/23 RMK SLP072 T02640226 52002 IEM_DS3505
ZGNN,2000-09-06 21:00,ZGNN 062100Z AUTO 00000KT 12SM 25/21 RMK 70003 SLP070 T02500214 57002 IEM_DS3505
ZGNN,2000-09-06 22:00,ZGNN 062200Z AUTO 02004KT 6SM 25/22 A2977 RMK T02500220 IEM_DS3505
ZGNN,2000-09-06 23:00,ZGNN 062300Z AUTO 03006KT 6SM 25/22 A2980 RMK T02500220 IEM_DS3505
ZGNN,2000-09-07 00:00,ZGNN 070000Z AUTO 36004KT 16SM 24/21 A2983 RMK 70003 SLP090 T02380214 52019 IEM_DS3505
ZGNN,2000-09-07 01:00,ZGNN 070100Z AUTO 09004KT 6SM 25/21 A2983 RMK T02500210 IEM_DS3505
ZGNN,2000-09-07 02:00,ZGNN 070200Z AUTO 05010KT 6SM 26/20 A2985 RMK T02600200 IEM_DS3505
ZGNN,2000-09-07 03:00,ZGNN 070300Z AUTO 09004KT 16SM 26/20 A2985 RMK SLP102 T02640197 52012 IEM_DS3505
ZGNN,2000-09-07 04:00,ZGNN 070400Z AUTO 06008KT 7SM 26/20 A2985 RMK T02600200 IEM_DS3505
ZGNN,2000-09-07 05:00,ZGNN 070500Z AUTO 03006KT 6SM 27/21 A2983 RMK T02700210 IEM_DS3505
ZGNN,2000-09-07 06:00,ZGNN 070600Z AUTO 07002KT 19SM 28/20 A2983 RMK SLP089 T02780203 57013 IEM_DS3505
ZGNN,2000-09-07 07:00,ZGNN 070700Z AUTO 03004KT 7SM 28/21 A2980 RMK T02800210 IEM_DS3505
ZGNN,2000-09-07 08:00,ZGNN 070800Z AUTO 02010KT 7SM 28/21 A2980 RMK T02800210 IEM_DS3505
ZGNN,2000-09-07 09:00,ZGNN 070900Z AUTO 02002KT 16SM 27/21 A2980 RMK SLP082 T02710207 57007 IEM_DS3505
ZGNN,2000-09-07 10:00,ZGNN 071000Z AUTO 34006KT 7SM 26/20 A2980 RMK T02600200 IEM_DS3505
ZGNN,2000-09-07 11:00,ZGNN 071100Z AUTO 02006KT 7SM 26/20 A2983 RMK T02600200 IEM_DS3505
ZGNN,2000-09-07 12:00,ZGNN 071200Z AUTO 36006KT 19SM 26/19 A2985 RMK SLP102 T02590193 52019 IEM_DS3505
ZGNN,2000-09-07 13:00,ZGNN 071300Z AUTO 35006KT 7SM 26/20 A2985 RMK T02600200 IEM_DS3505
ZGNN,2000-09-07 15:00,ZGNN 071500Z AUTO 34006KT 19SM 24/19 RMK SLP113 T02410190 52011 IEM_DS3505
ZGNN,2000-09-07 18:00,ZGNN 071800Z AUTO 34006KT 19SM 22/18 RMK SLP109 T02170184 57004 IEM_DS3505
ZGNN,2000-09-07 21:00,ZGNN 072100Z AUTO 34004KT 19SM 21/17 A2988 RMK SLP110 T02140172 52001 IEM_DS3505
ZGNN,2000-09-07 22:00,ZGNN 072200Z AUTO 35006KT 6SM 21/18 A2988 RMK T02100180 IEM_DS3505
ZGNN,2000-09-07 23:00,ZGNN 072300Z AUTO 00000KT 6SM 22/18 A2991 RMK T02200180 IEM_DS3505
ZGNN,2000-09-08 00:00,ZGNN 080000Z AUTO 34004KT 19SM 22/17 A2991 RMK SLP125 T02230166 52015 IEM_DS3505
ZGNN,2000-09-08 01:00,ZGNN 080100Z AUTO 33008KT 6SM 22/17 A2994 RMK T02200170 IEM_DS3505
ZGNN,2000-09-08 02:00,ZGNN 080200Z AUTO 36012KT 7SM 24/17 A2994 RMK T02400170 IEM_DS3505
ZGNN,2000-09-08 03:00,ZGNN 080300Z AUTO 34008KT 19SM 24/16 A2994 RMK SLP134 T02430164 52008 IEM_DS3505
ZGNN,2000-09-08 04:00,ZGNN 080400Z AUTO 34004KT 7SM 26/16 A2991 RMK T02600160 IEM_DS3505
ZGNN,2000-09-08 05:00,ZGNN 080500Z AUTO 02008KT 7SM 27/18 A2988 RMK T02700180 IEM_DS3505
ZGNN,2000-09-08 06:00,ZGNN 080600Z AUTO 34008KT 19SM 27/17 A2985 RMK SLP108 T02680174 57025 IEM_DS3505
ZGNN,2000-09-08 07:00,ZGNN 080700Z AUTO 35010KT 7SM 28/18 A2983 RMK T02800180 IEM_DS3505
ZGNN,2000-09-08 08:00,ZGNN 080800Z AUTO 34010KT 7SM 28/18 A2983 RMK T02800180 IEM_DS3505
ZGNN,2000-09-08 09:00,ZGNN 080900Z AUTO 34008KT 19SM 27/18 RMK SLP093 T02720177 57015 IEM_DS3505
ZGNN,2000-09-08 11:00,ZGNN 081100Z AUTO 35006KT 6SM 26/18 RMK T02600180 IEM_DS3505
ZGNN,2000-09-08 12:00,ZGNN 081200Z AUTO 02006KT 19SM 25/18 A2985 RMK SLP101 T02500176 52008 IEM_DS3505
ZGNN,2000-09-08 13:00,ZGNN 081300Z AUTO 01004KT 6SM 24/18 A2985 RMK T02400180 IEM_DS3505
ZGNN,2000-09-08 18:00,ZGNN 081800Z AUTO 34006KT 14SM 23/18 RMK SLP103 T02290178 57011 IEM_DS3505
ZGNN,2000-09-08 21:00,ZGNN 082100Z AUTO 34006KT 12SM 22/18 RMK SLP102 T02250177 57001 IEM_DS3505
ZGNN,2000-09-08 22:00,ZGNN 082200Z AUTO 02004KT 6SM 23/18 A2985 RMK T02300180 IEM_DS3505
ZGNN,2000-09-08 23:00,ZGNN 082300Z AUTO 33006KT 6SM 22/18 A2985 RMK T02200180 IEM_DS3505
ZGNN,2000-09-09 00:00,ZGNN 090000Z AUTO 34006KT 12SM 23/18 A2988 RMK SLP112 T02270180 52010 IEM_DS3505
ZGNN,2000-09-09 01:00,ZGNN 090100Z AUTO 35008KT 6SM 23/18 A2988 RMK T02300180 IEM_DS3505
ZGNN,2000-09-09 02:00,ZGNN 090200Z AUTO 34006KT 6SM 25/18 A2988 RMK T02500180 IEM_DS3505
ZGNN,2000-09-09 03:00,ZGNN 090300Z AUTO 36006KT 12SM 26/17 A2988 RMK SLP111 T02610174 57001 IEM_DS3505
ZGNN,2000-09-09 04:00,ZGNN 090400Z AUTO 33008KT 7SM 28/19 A2988 RMK T02800190 IEM_DS3505
ZGNN,2000-09-09 05:00,ZGNN 090500Z AUTO 35008KT 7SM 28/19 A2983 RMK T02800190 IEM_DS3505
ZGNN,2000-09-09 06:00,ZGNN 090600Z AUTO 02010KT 12SM 30/19 A2980 RMK SLP082 T02970194 57028 IEM_DS3505
ZGNN,2000-09-09 07:00,ZGNN 090700Z AUTO 35006KT 7SM 30/19 A2977 RMK T03000190 IEM_DS3505
ZGNN,2000-09-09 08:00,ZGNN 090800Z AUTO 33008KT 7SM 29/19 A2977 RMK T02900190 IEM_DS3505
ZGNN,2000-09-09 09:00,ZGNN 090900Z AUTO 07006KT 16SM 29/20 A2977 RMK SLP068 T02930198 57014 IEM_DS3505
ZGNN,2000-09-09 10:00,ZGNN 091000Z AUTO 04008KT 7SM 28/20 A2977 RMK T02800200 IEM_DS3505
ZGNN,2000-09-09 11:00,ZGNN 091100Z AUTO 04008KT 7SM 27/20 A2980 RMK T02700200 IEM_DS3505
ZGNN,2000-09-09 12:00,ZGNN 091200Z AUTO 00000KT 9SM 26/21 A2980 RMK 60003 SLP086 T02630208 52017 IEM_DS3505
ZGNN,2000-09-09 13:00,ZGNN 091300Z AUTO 36004KT 7SM 25/21 A2983 RMK T02500210 IEM_DS3505
ZGNN,2000-09-09 15:00,ZGNN 091500Z AUTO 02006KT 11SM 26/20 RMK SLP092 T02640195 52007 IEM_DS3505
ZGNN,2000-09-09 18:00,ZGNN 091800Z AUTO 00000KT 10SM 25/20 RMK 60003 SLP081 T02500200 57010 IEM_DS3505
ZGNN,2000-09-09 21:00,ZGNN 092100Z AUTO 02002KT 9SM 24/20 A2977 RMK 70003 SLP072 T02440203 57009 IEM_DS3505
ZGNN,2000-09-09 22:00,ZGNN 092200Z AUTO 02006KT 7SM 25/21 A2977 RMK T02500210 IEM_DS3505
ZGNN,2000-09-09 23:00,ZGNN 092300Z AUTO 04004KT 7SM 24/20 A2980 RMK T02400200 IEM_DS3505
ZGNN,2000-09-10 00:00,ZGNN 100000Z AUTO 04002KT 8SM 25/19 A2983 RMK 70003 SLP090 T02480189 52017 IEM_DS3505
ZGNN,2000-09-10 02:00,ZGNN 100200Z AUTO 04008KT 7SM 26/19 A2985 RMK T02600190 IEM_DS3505
ZGNN,2000-09-10 03:00,ZGNN 100300Z AUTO 02004KT 9SM 27/19 A2985 RMK SLP099 T02670187 52009 IEM_DS3505
ZGNN,2000-09-10 04:00,ZGNN 100400Z AUTO 03012KT 7SM 27/19 A2983 RMK T02700190 IEM_DS3505
ZGNN,2000-09-10 05:00,ZGNN 100500Z AUTO 03008KT 7SM 27/19 A2980 RMK T02700190 IEM_DS3505
ZGNN,2000-09-10 06:00,ZGNN 100600Z AUTO 02004KT 11SM 28/19 A2980 RMK SLP078 T02750194 57021 IEM_DS3505
ZGNN,2000-09-10 07:00,ZGNN 100700Z AUTO 03006KT 7SM 29/20 A2977 RMK T02900200 IEM_DS3505
ZGNN,2000-09-10 08:00,ZGNN 100800Z AUTO 03004KT 7SM 29/20 A2974 RMK T02900200 IEM_DS3505
ZGNN,2000-09-10 09:00,ZGNN 100900Z AUTO 07004KT 12SM 30/20 A2971 RMK SLP056 T02980199 57021 IEM_DS3505
ZGNN,2000-09-10 10:00,ZGNN 101000Z AUTO 33006KT 6SM 28/21 A2974 RMK T02800210 IEM_DS3505
ZGNN,2000-09-10 11:00,ZGNN 101100Z AUTO 35004KT 6SM 27/21 A2974 RMK T02700210 IEM_DS3505
ZGNN,2000-09-10 12:00,ZGNN 101200Z AUTO 00000KT 12SM 27/22 A2977 RMK SLP069 T02690217 52012 IEM_DS3505
ZGNN,2000-09-10 15:00,ZGNN 101500Z AUTO 00000KT 11SM 26/22 RMK SLP083 T02580223 52014 IEM_DS3505
ZGNN,2000-09-10 18:00,ZGNN 101800Z AUTO 00000KT 10SM 26/21 RMK 60003 SLP076 T02570212 57007 IEM_DS3505
ZGNN,2000-09-10 21:00,ZGNN 102100Z AUTO 04002KT 9SM 25/20 A2977 RMK 70003 SLP070 T02520197 57005 IEM_DS3505
ZGNN,2000-09-10 22:00,ZGNN 102200Z AUTO 04006KT 7SM 25/19 A2977 RMK T02500190 IEM_DS3505
ZGNN,2000-09-10 23:00,ZGNN 102300Z AUTO 03008KT 7SM 25/19 A2977 RMK T02500190 IEM_DS3505
ZGNN,2000-09-11 00:00,ZGNN 110000Z AUTO 07004KT 7SM 25/19 A2980 RMK 70003 SLP084 T02510187 52013 IEM_DS3505
ZGNN,2000-09-11 01:00,ZGNN 110100Z AUTO 04010KT 6SM 27/19 A2983 RMK T02700190 IEM_DS3505
ZGNN,2000-09-11 02:00,ZGNN 110200Z AUTO 04008KT 6SM 28/19 A2983 RMK T02800190 IEM_DS3505
ZGNN,2000-09-11 03:00,ZGNN 110300Z AUTO 07006KT 8SM 29/18 A2983 RMK SLP088 T02860183 52005 IEM_DS3505
ZGNN,2000-09-11 04:00,ZGNN 110400Z AUTO 09016KT 6SM 30/19 A2980 RMK T03000190 IEM_DS3505
ZGNN,2000-09-11 05:00,ZGNN 110500Z AUTO 04006KT 6SM 31/19 A2977 RMK T03100190 IEM_DS3505
ZGNN,2000-09-11 06:00,ZGNN 110600Z AUTO 04006KT 9SM 32/18 A2974 RMK SLP064 T03160185 57023 IEM_DS3505
ZGNN,2000-09-11 07:00,ZGNN 110700Z AUTO 06012KT 7SM 32/19 A2971 RMK T03200190 IEM_DS3505
ZGNN,2000-09-11 08:00,ZGNN 110800Z AUTO 36008KT 7SM 32/19 A2971 RMK T03200190 IEM_DS3505
ZGNN,2000-09-11 09:00,ZGNN 110900Z AUTO 32004KT 8SM 32/18 A2971 RMK SLP049 T03210184 57015 IEM_DS3505
ZGNN,2000-09-11 10:00,ZGNN 111000Z AUTO 03006KT 7SM 31/19 A2971 RMK T03100190 IEM_DS3505
ZGNN,2000-09-11 11:00,ZGNN 111100Z AUTO 04006KT 6SM 29/20 A2971 RMK T02900200 IEM_DS3505
ZGNN,2000-09-11 12:00,ZGNN 111200Z AUTO 04002KT 8SM 28/20 A2974 RMK SLP065 T02800202 52015 IEM_DS3505
ZGNN,2000-09-11 15:00,ZGNN 111500Z AUTO 00000KT 8SM 26/20 RMK SLP086 T02590201 52021 IEM_DS3505
ZGNN,2000-09-11 18:00,ZGNN 111800Z AUTO 04004KT 8SM 26/19 RMK SLP091 T02560190 52005 IEM_DS3505
ZGNN,2000-09-11 21:00,ZGNN 112100Z AUTO 00000KT 7SM 23/19 RMK SLP090 T02300190 57001 IEM_DS3505
ZGNN,2000-09-11 22:00,ZGNN 112200Z AUTO 35004KT 6SM 22/20 A2983 RMK T02200200 IEM_DS3505
ZGNN,2000-09-11 23:00,ZGNN 112300Z AUTO 35004KT 6SM 23/20 A2985 RMK T02300200 IEM_DS3505
ZGNN,2000-09-12 00:00,ZGNN 120000Z AUTO 00000KT 7SM 23/20 A2988 RMK SLP108 T02340200 52017 IEM_DS3505
ZGNN,2000-09-12 01:00,ZGNN 120100Z AUTO 06004KT 6SM 27/18 A2988 RMK T02700180 IEM_DS3505
ZGNN,2000-09-12 02:00,ZGNN 120200Z AUTO 05004KT 6SM 28/18 A2988 RMK T02800180 IEM_DS3505
ZGNN,2000-09-12 03:00,ZGNN 120300Z AUTO 07004KT 8SM 30/17 A2991 RMK SLP117 T02980171 52009 IEM_DS3505
ZGNN,2000-09-12 04:00,ZGNN 120400Z AUTO 35004KT 6SM 30/18 A2988 RMK T03000180 IEM_DS3505
ZGNN,2000-09-12 05:00,ZGNN 120500Z AUTO 33006KT 7SM 31/18 A2985 RMK T03100180 IEM_DS3505
ZGNN,2000-09-12 06:00,ZGNN 120600Z AUTO 34004KT 9SM 31/18 A2983 RMK SLP095 T03120176 57021 IEM_DS3505
ZGNN,2000-09-12 07:00,ZGNN 120700Z AUTO 35006KT 7SM 32/19 A2983 RMK T03200190 IEM_DS3505
ZGNN,2000-09-12 08:00,ZGNN 120800Z AUTO 36008KT 6SM 32/19 A2980 RMK T03200190 IEM_DS3505
ZGNN,2000-09-12 09:00,ZGNN 120900Z AUTO 34006KT 9SM 32/18 A2980 RMK SLP080 T03240180 57015 IEM_DS3505
ZGNN,2000-09-12 10:00,ZGNN 121000Z AUTO 35006KT 7SM 31/18 A2980 RMK T03100180 IEM_DS3505
ZGNN,2000-09-12 11:00,ZGNN 121100Z AUTO 33002KT 6SM 30/20 A2980 RMK T03000200 IEM_DS3505
ZGNN,2000-09-12 12:00,ZGNN 121200Z AUTO 00000KT 9SM 29/19 A2983 RMK SLP090 T02880190 52009 IEM_DS3505
ZGNN,2000-09-12 13:00,ZGNN 121300Z AUTO 02006KT 6SM 27/20 A2985 RMK T02700200 IEM_DS3505
ZGNN,2000-09-12 15:00,ZGNN 121500Z AUTO 02006KT 9SM 28/19 RMK SLP114 T02780189 52025 IEM_DS3505
ZGNN,2000-09-12 18:00,ZGNN 121800Z AUTO 34006KT 9SM 25/19 RMK SLP114 T02460189 57001 IEM_DS3505
ZGNN,2000-09-12 21:00,ZGNN 122100Z AUTO 36004KT 9SM 23/19 A2988 RMK SLP113 T02280187 57001 IEM_DS3505
ZGNN,2000-09-12 22:00,ZGNN 122200Z AUTO 35004KT 6SM 23/19 A2988 RMK T02300190 IEM_DS3505
ZGNN,2000-09-12 23:00,ZGNN 122300Z AUTO 35004KT 6SM 22/19 A2991 RMK T02200190 IEM_DS3505
ZGNN,2000-09-13 00:00,ZGNN 130000Z AUTO 34006KT 9SM 24/18 A2994 RMK SLP128 T02400177 52015 IEM_DS3505
ZGNN,2000-09-13 01:00,ZGNN 130100Z AUTO 35008KT 6SM 25/18 A2994 RMK T02500180 IEM_DS3505
ZGNN,2000-09-13 02:00,ZGNN 130200Z AUTO 36006KT 6SM 27/18 A2994 RMK T02700180 IEM_DS3505
ZGNN,2000-09-13 03:00,ZGNN 130300Z AUTO 32006KT 12SM 28/16 A2994 RMK SLP128 T02760164 54000 IEM_DS3505
ZGNN,2000-09-13 04:00,ZGNN 130400Z AUTO 34010KT 7SM 29/17 A2991 RMK T02900170 IEM_DS3505
ZGNN,2000-09-13 05:00,ZGNN 130500Z AUTO 34008KT 7SM 29/17 A2988 RMK T02900170 IEM_DS3505
ZGNN,2000-09-13 06:00,ZGNN 130600Z AUTO 34008KT 16SM 30/15 A2983 RMK SLP098 T03020151 57030 IEM_DS3505
ZGNN,2000-09-13 07:00,ZGNN 130700Z AUTO 01012KT 7SM 31/16 A2983 RMK T03100160 IEM_DS3505
ZGNN,2000-09-13 08:00,ZGNN 130800Z AUTO 01012KT 7SM 31/15 A2980 RMK T03100150 IEM_DS3505
ZGNN,2000-09-13 09:00,ZGNN 130900Z AUTO 34010KT 17SM 31/14 A2980 RMK SLP083 T03060135 57015 IEM_DS3505
ZGNN,2000-09-13 10:00,ZGNN 131000Z AUTO 35012KT 7SM 30/15 A2980 RMK T03000150 IEM_DS3505
ZGNN,2000-09-13 11:00,ZGNN 131100Z AUTO 35006KT 6SM 29/15 A2983 RMK T02900150 IEM_DS3505
ZGNN,2000-09-13 12:00,ZGNN 131200Z AUTO 36006KT 16SM 28/14 A2983 RMK SLP098 T02820140 52015 IEM_DS3505
ZGNN,2000-09-13 15:00,ZGNN 131500Z AUTO 36004KT 16SM 26/14 RMK SLP123 T02590145 52025 IEM_DS3505
ZGNN,2000-09-13 18:00,ZGNN 131800Z AUTO 34006KT 16SM 24/14 RMK SLP118 T02360144 57005 IEM_DS3505
ZGNN,2000-09-13 21:00,ZGNN 132100Z AUTO 34006KT 12SM 23/14 RMK SLP104 T02310138 57014 IEM_DS3505
ZGNN,2000-09-13 22:00,ZGNN 132200Z AUTO 34008KT 6SM 23/14 A2985 RMK T02300140 IEM_DS3505
ZGNN,2000-09-13 23:00,ZGNN 132300Z AUTO 35004KT 6SM 21/15 A2988 RMK T02100150 IEM_DS3505
ZGNN,2000-09-14 00:00,ZGNN 140000Z AUTO 34004KT 9SM 22/16 A2988 RMK SLP117 T02220160 52012 IEM_DS3505
ZGNN,2000-09-14 01:00,ZGNN 140100Z AUTO 34008KT 6SM 25/15 A2991 RMK T02500150 IEM_DS3505
ZGNN,2000-09-14 02:00,ZGNN 140200Z AUTO 34008KT 6SM 27/14 A2991 RMK T02700140 IEM_DS3505
ZGNN,2000-09-14 03:00,ZGNN 140300Z AUTO 34008KT 16SM 28/12 RMK SLP118 T02840116 52002 IEM_DS3505
ZGNN,2000-09-14 04:00,ZGNN 140400Z AUTO 02014KT 6SM 29/13 A2988 RMK T02900130 IEM_DS3505
ZGNN,2000-09-14 05:00,ZGNN 140500Z AUTO 34010KT 6SM 30/11 A2985 RMK T03000110 IEM_DS3505
ZGNN,2000-09-14 06:00,ZGNN 140600Z AUTO 02008KT 16SM 31/09 A2980 RMK SLP087 T03110088 57030 IEM_DS3505
ZGNN,2000-09-14 07:00,ZGNN 140700Z AUTO 35014KT 6SM 31/12 A2980 RMK T03100120 IEM_DS3505
ZGNN,2000-09-14 08:00,ZGNN 140800Z AUTO 01006KT 6SM 31/12 A2977 RMK T03100120 IEM_DS3505
ZGNN,2000-09-14 09:00,ZGNN 140900Z AUTO 34012KT 16SM 32/11 A2977 RMK SLP070 T03170112 57017 IEM_DS3505
ZGNN,2000-09-14 10:00,ZGNN 141000Z AUTO 33010KT 6SM 30/12 A2977 RMK T03000120 IEM_DS3505
ZGNN,2000-09-14 11:00,ZGNN 141100Z AUTO 31006KT 6SM 28/12 A2977 RMK T02800120 IEM_DS3505
ZGNN,2000-09-14 12:00,ZGNN 141200Z AUTO 34006KT 16SM 26/13 A2980 RMK SLP082 T02620126 52010 IEM_DS3505
ZGNN,2000-09-14 13:00,ZGNN 141300Z AUTO 34004KT 6SM 23/16 A2980 RMK T02300160 IEM_DS3505
ZGNN,2000-09-14 14:00,ZGNN 141400Z AUTO 32006KT 6SM 22/16 A2983 RMK T02200160 IEM_DS3505
ZGNN,2000-09-14 15:00,ZGNN 141500Z AUTO 36004KT 12SM 24/13 A2983 RMK SLP095 T02360134 52014 IEM_DS3505
ZGNN,2000-09-14 16:00,ZGNN 141600Z AUTO 00000KT 6SM 21/16 A2983 RMK T02100160 IEM_DS3505
ZGNN,2000-09-14 18:00,ZGNN 141800Z AUTO 20002KT 12SM 19/16 RMK SLP095 T01860163 57001 IEM_DS3505
ZGNN,2000-09-14 21:00,ZGNN 142100Z AUTO 34006KT 12SM 19/14 A2980 RMK SLP089 T01860143 57005 IEM_DS3505
ZGNN,2000-09-14 22:00,ZGNN 142200Z AUTO 35006KT 6SM 19/15 A2983 RMK T01900150 IEM_DS3505
ZGNN,2000-09-14 23:00,ZGNN 142300Z AUTO 00000KT 6SM 19/15 A2983 RMK T01900150 IEM_DS3505
ZGNN,2000-09-15 00:00,ZGNN 150000Z AUTO 34004KT 16SM 22/14 A2985 RMK SLP104 T02180138 52014 IEM_DS3505
ZGNN,2000-09-15 01:00,ZGNN 150100Z AUTO 35006KT 6SM 25/14 A2988 RMK T02500140 IEM_DS3505
ZGNN,2000-09-15 02:00,ZGNN 150200Z AUTO 03008KT 6SM 27/13 A2988 RMK T02700130 IEM_DS3505
ZGNN,2000-09-15 03:00,ZGNN 150300Z AUTO 04008KT 16SM 30/08 RMK SLP105 T02980082 52002 IEM_DS3505
ZGNN,2000-09-15 04:00,ZGNN 150400Z AUTO 02008KT 6SM 31/08 A2985 RMK T03100080 IEM_DS3505
ZGNN,2000-09-15 05:00,ZGNN 150500Z AUTO 36006KT 6SM 32/08 A2983 RMK T03200080 IEM_DS3505
ZGNN,2000-09-15 06:00,ZGNN 150600Z AUTO 04006KT 19SM 33/07 A2980 RMK SLP079 T03320068 57026 IEM_DS3505
ZGNN,2000-09-15 07:00,ZGNN 150700Z AUTO 02014KT 6SM 33/07 A2977 RMK T03300070 IEM_DS3505
ZGNN,2000-09-15 08:00,ZGNN 150800Z AUTO 04014KT 6SM 33/05 A2974 RMK T03300050 IEM_DS3505
ZGNN,2000-09-15 09:00,ZGNN 150900Z AUTO 04008KT 19SM 33/08 A2974 RMK SLP067 T03280079 57012 IEM_DS3505
ZGNN,2000-09-15 10:00,ZGNN 151000Z AUTO 03006KT 6SM 31/10 A2977 RMK T03100100 IEM_DS3505
ZGNN,2000-09-15 11:00,ZGNN 151100Z AUTO 03004KT 6SM 28/13 A2977 RMK T02800130 IEM_DS3505
ZGNN,2000-09-15 12:00,ZGNN 151200Z AUTO 00000KT 19SM 25/15 A2980 RMK SLP082 T02500148 52014 IEM_DS3505
ZGNN,2000-09-15 13:00,ZGNN 151300Z AUTO 34006KT 6SM 22/16 A2980 RMK T02200160 IEM_DS3505
ZGNN,2000-09-15 15:00,ZGNN 151500Z AUTO 00000KT 19SM 21/16 RMK SLP098 T02120159 52017 IEM_DS3505
ZGNN,2000-09-15 18:00,ZGNN 151800Z AUTO 00000KT 19SM 19/15 RMK SLP101 T01880154 52003 IEM_DS3505
ZGNN,2000-09-15 21:00,ZGNN 152100Z AUTO 00000KT 16SM 18/16 RMK SLP104 T01820155 52002 IEM_DS3505
ZGNN,2000-09-15 23:00,ZGNN 152300Z AUTO 00000KT 6SM 18/16 A2988 RMK T01800160 IEM_DS3505
ZGNN,2000-09-16 00:00,ZGNN 160000Z AUTO 00000KT 9SM 19/17 RMK SLP126 T01890171 52020 IEM_DS3505
ZGNN,2000-09-16 01:00,ZGNN 160100Z AUTO 00000KT 3SM 23/17 A2994 RMK T02300170 IEM_DS3505
ZGNN,2000-09-16 02:00,ZGNN 160200Z AUTO 03012KT 5SM 28/13 A2994 RMK T02800130 IEM_DS3505
ZGNN,2000-09-16 03:00,ZGNN 160300Z AUTO 14004KT 17SM 30/12 A2991 RMK SLP127 T03000119 52003 IEM_DS3505
ZGNN,2000-09-16 04:00,ZGNN 160400Z AUTO 07010KT 6SM 31/12 A2991 RMK T03100120 IEM_DS3505
ZGNN,2000-09-16 05:00,ZGNN 160500Z AUTO 6SM 32/10 A2988 RMK T03200100 IEM_DS3505
ZGNN,2000-09-16 06:00,ZGNN 160600Z AUTO 11008KT 16SM 33/09 A2985 RMK SLP104 T03280087 57022 IEM_DS3505
ZGNN,2000-09-16 07:00,ZGNN 160700Z AUTO 08006KT 6SM 32/07 A2983 RMK T03200070 IEM_DS3505
ZGNN,2000-09-16 08:00,ZGNN 160800Z AUTO 04008KT 6SM 32/09 A2983 RMK T03200090 IEM_DS3505
ZGNN,2000-09-16 09:00,ZGNN 160900Z AUTO 11004KT 16SM 32/08 A2983 RMK SLP092 T03220085 57012 IEM_DS3505
ZGNN,2000-09-16 10:00,ZGNN 161000Z AUTO 06006KT 6SM 30/09 A2983 RMK T03000090 IEM_DS3505
ZGNN,2000-09-16 11:00,ZGNN 161100Z AUTO 06004KT 6SM 27/15 A2985 RMK T02700150 IEM_DS3505
ZGNN,2000-09-16 12:00,ZGNN 161200Z AUTO 00000KT 12SM 24/14 A2985 RMK SLP107 T02420140 52013 IEM_DS3505
ZGNN,2000-09-16 13:00,ZGNN 161300Z AUTO 00000KT 6SM 21/17 A2988 RMK T02100170 IEM_DS3505
ZGNN,2000-09-16 15:00,ZGNN 161500Z AUTO 00000KT 12SM 19/14 RMK SLP119 T01880144 52013 IEM_DS3505
ZGNN,2000-09-16 18:00,ZGNN 161800Z AUTO 00000KT 12SM 17/15 RMK SLP119 T01740148 54000 IEM_DS3505
ZGNN,2000-09-16 21:00,ZGNN 162100Z AUTO 00000KT 12SM 16/14 A2991 RMK SLP118 T01630144 57001 IEM_DS3505
ZGNN,2000-09-16 22:00,ZGNN 162200Z AUTO 00000KT 4SM 18/16 A2991 RMK T01800160 IEM_DS3505
ZGNN,2000-09-16 23:00,ZGNN 162300Z AUTO 00000KT 6SM 18/16 A2991 RMK T01800160 IEM_DS3505
ZGNN,2000-09-17 00:00,ZGNN 170000Z AUTO 00000KT 7SM 18/16 A2994 RMK SLP134 T01780158 52014 IEM_DS3505
ZGNN,2000-09-17 01:00,ZGNN 170100Z AUTO 00000KT 6SM 23/16 A2994 RMK T02300160 IEM_DS3505
ZGNN,2000-09-17 02:00,ZGNN 170200Z AUTO 17006KT 6SM 26/14 A2994 RMK T02600140 IEM_DS3505
ZGNN,2000-09-17 03:00,ZGNN 170300Z AUTO 29004KT 7SM 29/14 A2994 RMK SLP133 T02900142 54000 IEM_DS3505
ZGNN,2000-09-17 04:00,ZGNN 170400Z AUTO 00000KT 6SM 31/12 A2991 RMK T03100120 IEM_DS3505
ZGNN,2000-09-17 05:00,ZGNN 170500Z AUTO 20008KT 6SM 33/09 A2988 RMK T03300090 IEM_DS3505
ZGNN,2000-09-17 06:00,ZGNN 170600Z AUTO 27004KT 14SM 33/12 A2985 RMK SLP101 T03320118 57031 IEM_DS3505
ZGNN,2000-09-17 07:00,ZGNN 170700Z AUTO 21006KT 6SM 34/12 A2983 RMK T03400120 IEM_DS3505
ZGNN,2000-09-17 08:00,ZGNN 170800Z AUTO 24004KT 6SM 34/12 A2980 RMK T03400120 IEM_DS3505
ZGNN,2000-09-17 09:00,ZGNN 170900Z AUTO 34004KT 16SM 34/12 A2980 RMK SLP087 T03360115 57014 IEM_DS3505
ZGNN,2000-09-17 10:00,ZGNN 171000Z AUTO 05004KT 6SM 31/15 A2980 RMK T03100150 IEM_DS3505
ZGNN,2000-09-17 11:00,ZGNN 171100Z AUTO 15006KT 6SM 29/15 A2983 RMK T02900150 IEM_DS3505
ZGNN,2000-09-17 12:00,ZGNN 171200Z AUTO 00000KT 12SM 25/16 A2983 RMK SLP102 T02540164 52014 IEM_DS3505
ZGNN,2000-09-17 13:00,ZGNN 171300Z AUTO 00000KT 6SM 24/19 A2985 RMK T02400190 IEM_DS3505
ZGNN,2000-09-17 15:00,ZGNN 171500Z AUTO 00000KT 11SM 22/17 RMK SLP114 T02200172 52013 IEM_DS3505
ZGNN,2000-09-17 18:00,ZGNN 171800Z AUTO 00000KT 11SM 20/17 RMK SLP107 T02000167 57006 IEM_DS3505
ZGNN,2000-09-17 21:00,ZGNN 172100Z AUTO 00000KT 7SM 19/16 A2988 RMK SLP108 T01860163 52001 IEM_DS3505
ZGNN,2000-09-17 22:00,ZGNN 172200Z AUTO 01004KT 4SM 19/17 A2988 RMK T01900170 IEM_DS3505
ZGNN,2000-09-17 23:00,ZGNN 172300Z AUTO 35004KT 4SM 19/17 A2988 RMK T01900170 IEM_DS3505
ZGNN,2000-09-18 00:00,ZGNN 180000Z AUTO 00000KT 4SM 20/18 A2991 RMK SLP122 T01960177 52012 IEM_DS3505
ZGNN,2000-09-18 01:00,ZGNN 180100Z AUTO 00000KT 24/18 A2994 RMK T02400180 IEM_DS3505
ZGNN,2000-09-18 02:00,ZGNN 180200Z AUTO 00000KT 6SM 28/17 A2994 RMK T02800170 IEM_DS3505
ZGNN,2000-09-18 03:00,ZGNN 180300Z AUTO 16004KT 9SM 29/15 A2991 RMK SLP123 T02900151 52002 IEM_DS3505
ZGNN,2000-09-18 04:00,ZGNN 180400Z AUTO 12006KT 6SM 31/15 A2991 RMK T03100150 IEM_DS3505
ZGNN,2000-09-18 05:00,ZGNN 180500Z AUTO 16006KT 6SM 33/14 A2988 RMK T03300140 IEM_DS3505
ZGNN,2000-09-18 06:00,ZGNN 180600Z AUTO 20006KT 12SM 33/14 A2985 RMK SLP102 T03300145 57020 IEM_DS3505
ZGNN,2000-09-18 07:00,ZGNN 180700Z AUTO 12008KT 7SM 33/15 A2983 RMK T03300150 IEM_DS3505
ZGNN,2000-09-18 08:00,ZGNN 180800Z AUTO 10004KT 7SM 33/15 A2983 RMK T03300150 IEM_DS3505
ZGNN,2000-09-18 09:00,ZGNN 180900Z AUTO 14004KT 11SM 32/16 A2983 RMK SLP094 T03200157 57008 IEM_DS3505
ZGNN,2000-09-18 10:00,ZGNN 181000Z AUTO 09006KT 6SM 31/16 A2983 RMK T03100160 IEM_DS3505
ZGNN,2000-09-18 11:00,ZGNN 181100Z AUTO 10004KT 6SM 29/17 A2985 RMK T02900170 IEM_DS3505
ZGNN,2000-09-18 12:00,ZGNN 181200Z AUTO 09002KT 10SM 28/18 A2985 RMK SLP105 T02780178 52010 IEM_DS3505
ZGNN,2000-09-18 13:00,ZGNN 181300Z AUTO 16006KT 6SM 26/18 A2988 RMK T02600180 IEM_DS3505
ZGNN,2000-09-18 15:00,ZGNN 181500Z AUTO 00000KT 9SM 25/18 RMK SLP122 T02510184 52018 IEM_DS3505
ZGNN,2000-09-18 18:00,ZGNN 181800Z AUTO 00000KT 9SM 23/19 RMK SLP114 T02330189 57007 IEM_DS3505
ZGNN,2000-09-18 21:00,ZGNN 182100Z AUTO 00000KT 8SM 23/19 RMK SLP118 T02280187 52003 IEM_DS3505
ZGNN,2000-09-18 22:00,ZGNN 182200Z AUTO 00000KT 4SM 23/20 A2991 RMK T02300200 IEM_DS3505
ZGNN,2000-09-18 23:00,ZGNN 182300Z AUTO 00000KT 2 1/2SM 23/20 A2994 RMK T02300200 IEM_DS3505
ZGNN,2000-09-19 00:00,ZGNN 190000Z AUTO 00000KT 7SM 24/19 A2994 RMK SLP136 T02420193 52017 IEM_DS3505
ZGNN,2000-09-19 01:00,ZGNN 190100Z AUTO 00000KT 2 1/2SM 25/20 RMK T02500200 IEM_DS3505
ZGNN,2000-09-19 02:00,ZGNN 190200Z AUTO 06004KT 4SM 27/22 A2997 RMK T02700220 IEM_DS3505
ZGNN,2000-09-19 03:00,ZGNN 190300Z AUTO 09006KT 5SM 27/22 A2997 RMK SLP140 T02680218 52004 IEM_DS3505
ZGNN,2000-09-19 04:00,ZGNN 190400Z AUTO 11008KT 7SM 28/21 A2994 RMK T02800210 IEM_DS3505
ZGNN,2000-09-19 05:00,ZGNN 190500Z AUTO 02004KT 7SM 29/21 A2994 RMK T02900210 IEM_DS3505
ZGNN,2000-09-19 06:00,ZGNN 190600Z AUTO 04004KT 7SM 28/21 A2991 RMK SLP123 T02820207 57017 IEM_DS3505
ZGNN,2000-09-19 07:00,ZGNN 190700Z AUTO 03006KT 7SM 28/22 A2988 RMK T02800220 IEM_DS3505
ZGNN,2000-09-19 08:00,ZGNN 190800Z AUTO 02008KT 5SM 28/21 A2988 RMK T02800210 IEM_DS3505
ZGNN,2000-09-19 09:00,ZGNN 190900Z AUTO 02004KT 4SM 27/21 A2988 RMK SLP115 T02740208 57008 IEM_DS3505
ZGNN,2000-09-19 10:00,ZGNN 191000Z AUTO 04004KT 27/21 A2988 RMK T02700210 IEM_DS3505
ZGNN,2000-09-19 11:00,ZGNN 191100Z AUTO 09006KT 4SM 26/21 A2991 RMK T02600210 IEM_DS3505
ZGNN,2000-09-19 12:00,ZGNN 191200Z AUTO 02002KT 6SM 26/21 A2994 RMK 60003 SLP128 T02560214 52013 IEM_DS3505
ZGNN,2000-09-19 13:00,ZGNN 191300Z AUTO 01004KT 3SM 25/22 A2994 RMK T02500220 IEM_DS3505
ZGNN,2000-09-19 15:00,ZGNN 191500Z AUTO 00000KT 6SM 24/21 RMK SLP145 T02440213 52017 IEM_DS3505
ZGNN,2000-09-19 18:00,ZGNN 191800Z AUTO 02002KT 6SM 24/21 RMK 60003 SLP140 T02360210 57005 IEM_DS3505
ZGNN,2000-09-19 21:00,ZGNN 192100Z AUTO 07002KT 5SM 23/21 A2994 RMK 70003 SLP134 T02330210 57006 IEM_DS3505
ZGNN,2000-09-19 22:00,ZGNN 192200Z AUTO 00000KT 2 1/2SM 23/21 A2997 RMK T02300210 IEM_DS3505
ZGNN,2000-09-19 23:00,ZGNN 192300Z AUTO 00000KT 2 1/2SM 23/21 A2997 RMK T02300210 IEM_DS3505
ZGNN,2000-09-20 00:00,ZGNN 200000Z AUTO 00000KT 2 1/2SM 24/21 A3000 RMK 60000 SLP148 T02380208 52013 IEM_DS3505
ZGNN,2000-09-20 01:00,ZGNN 200100Z AUTO 06006KT 3SM 25/21 A3000 RMK T02500210 IEM_DS3505
ZGNN,2000-09-20 02:00,ZGNN 200200Z AUTO 05002KT 3SM 26/21 A3000 RMK T02600210 IEM_DS3505
ZGNN,2000-09-20 03:00,ZGNN 200300Z AUTO 00000KT 3SM 28/21 A3000 RMK SLP153 T02760214 52006 IEM_DS3505
ZGNN,2000-09-20 04:00,ZGNN 200400Z AUTO 10004KT 29/22 A3000 RMK T02900220 IEM_DS3505
ZGNN,2000-09-20 05:00,ZGNN 200500Z AUTO 00000KT 7SM 29/21 A2997 RMK T02900210 IEM_DS3505
ZGNN,2000-09-20 06:00,ZGNN 200600Z AUTO 29004KT 5SM 29/20 A2994 RMK SLP128 T02900203 57024 IEM_DS3505
ZGNN,2000-09-20 07:00,ZGNN 200700Z AUTO 35004KT 7SM 30/20 A2991 RMK T03000200 IEM_DS3505
ZGNN,2000-09-20 08:00,ZGNN 200800Z AUTO 36006KT 7SM 29/22 A2991 RMK T02900220 IEM_DS3505
ZGNN,2000-09-20 09:00,ZGNN 200900Z AUTO 11008KT 5SM 28/21 A2991 RMK SLP122 T02820214 57007 IEM_DS3505
ZGNN,2000-09-20 10:00,ZGNN 201000Z AUTO 02006KT 7SM 26/22 A2991 RMK T02600220 IEM_DS3505
ZGNN,2000-09-20 11:00,ZGNN 201100Z AUTO 01004KT 7SM 26/22 A2994 RMK T02600220 IEM_DS3505
ZGNN,2000-09-20 12:00,ZGNN 201200Z AUTO 00000KT 6SM 26/22 A2994 RMK 60003 SLP133 T02550216 52011 IEM_DS3505
ZGNN,2000-09-20 13:00,ZGNN 201300Z AUTO 00000KT 7SM 25/22 A2994 RMK T02500220 IEM_DS3505
ZGNN,2000-09-20 15:00,ZGNN 201500Z AUTO 34004KT 5SM 25/22 RMK SLP147 T02460225 52014 IEM_DS3505
ZGNN,2000-09-20 18:00,ZGNN 201800Z AUTO 00000KT 5SM 24/22 RMK SLP146 T02450223 57001 IEM_DS3505
ZGNN,2000-09-20 21:00,ZGNN 202100Z AUTO 00000KT 4SM 24/22 RMK 70000 SLP142 T02410219 57004 IEM_DS3505
ZGNN,2000-09-20 22:00,ZGNN 202200Z AUTO 36004KT 2 1/2SM 24/22 A2997 RMK T02400220 IEM_DS3505
ZGNN,2000-09-20 23:00,ZGNN 202300Z AUTO 00000KT 2 1/2SM 23/22 A3000 RMK T02300220 IEM_DS3505
ZGNN,2000-09-21 00:00,ZGNN 210000Z AUTO 00000KT 3SM 24/22 A3000 RMK 70003 SLP153 T02360221 52010 IEM_DS3505
ZGNN,2000-09-21 01:00,ZGNN 210100Z AUTO 00000KT 2 1/2SM 26/22 A3003 RMK T02600220 IEM_DS3505
ZGNN,2000-09-21 02:00,ZGNN 210200Z AUTO 04004KT 3SM 27/22 A3003 RMK T02700220 IEM_DS3505
ZGNN,2000-09-21 03:00,ZGNN 210300Z AUTO 07006KT 5SM 28/22 A3003 RMK SLP164 T02830215 52012 IEM_DS3505
ZGNN,2000-09-21 04:00,ZGNN 210400Z AUTO 07008KT 4SM 29/25 A3003 RMK T02900250 IEM_DS3505
ZGNN,2000-09-21 05:00,ZGNN 210500Z AUTO 05004KT 4SM 30/25 A3000 RMK T03000250 IEM_DS3505
ZGNN,2000-09-21 06:00,ZGNN 210600Z AUTO 16004KT 5SM 30/22 A2997 RMK SLP139 T03050215 57024 IEM_DS3505
ZGNN,2000-09-21 07:00,ZGNN 210700Z AUTO 02004KT 5SM 31/21 A2994 RMK T03100210 IEM_DS3505
ZGNN,2000-09-21 08:00,ZGNN 210800Z AUTO 05004KT 5SM 32/22 A2991 RMK T03200220 IEM_DS3505
ZGNN,2000-09-21 09:00,ZGNN 210900Z AUTO 11004KT 6SM 32/21 A2991 RMK SLP125 T03160206 57014 IEM_DS3505
ZGNN,2000-09-21 10:00,ZGNN 211000Z AUTO 12008KT 6SM 29/22 A2991 RMK T02900220 IEM_DS3505
ZGNN,2000-09-21 11:00,ZGNN 211100Z AUTO 06004KT 5SM 27/23 A2994 RMK T02700230 IEM_DS3505
ZGNN,2000-09-21 12:00,ZGNN 211200Z AUTO 07004KT 7SM 26/23 A2994 RMK 60008 SLP141 T02610232 52015 IEM_DS3505
ZGNN,2000-09-21 13:00,ZGNN 211300Z AUTO 00000KT 5SM 26/22 A2997 RMK T02600220 IEM_DS3505
ZGNN,2000-09-21 15:00,ZGNN 211500Z AUTO 00000KT 6SM 24/23 RMK SLP163 T02410228 52022 IEM_DS3505
ZGNN,2000-09-21 18:00,ZGNN 211800Z AUTO 00000KT 6SM 24/23 RMK 60008 SLP160 T02360227 57003 IEM_DS3505
ZGNN,2000-09-21 21:00,ZGNN 212100Z AUTO 00000KT 6SM 23/22 A3000 RMK 70017 SLP149 T02270220 57010 IEM_DS3505
ZGNN,2000-09-21 22:00,ZGNN 212200Z AUTO 00000KT 4SM 23/22 A3000 RMK T02300220 IEM_DS3505
ZGNN,2000-09-21 23:00,ZGNN 212300Z AUTO 03004KT 4SM 23/22 A3000 RMK T02300220 IEM_DS3505
ZGNN,2000-09-22 00:00,ZGNN 220000Z AUTO 00000KT 3SM 24/23 A3003 RMK 70017 SLP161 T02380229 52010 IEM_DS3505
ZGNN,2000-09-22 01:00,ZGNN 220100Z AUTO 34004KT 4SM 26/23 A3003 RMK T02600230 IEM_DS3505
ZGNN,2000-09-22 02:00,ZGNN 220200Z AUTO 4SM 27/23 A3006 RMK T02700230 IEM_DS3505
ZGNN,2000-09-22 03:00,ZGNN 220300Z AUTO 20004KT 9SM 28/23 A3006 RMK SLP174 T02760231 52014 IEM_DS3505
ZGNN,2000-09-22 04:00,ZGNN 220400Z AUTO 15010KT 7SM 29/22 A3003 RMK T02900220 IEM_DS3505
ZGNN,2000-09-22 05:00,ZGNN 220500Z AUTO 07004KT 7SM 29/22 A3000 RMK T02900220 IEM_DS3505
ZGNN,2000-09-22 06:00,ZGNN 220600Z AUTO 16004KT 16SM 29/22 A2997 RMK 60003 SLP145 T02930225 57029 IEM_DS3505
ZGNN,2000-09-22 07:00,ZGNN 220700Z AUTO 11006KT 7SM 32/22 A2994 RMK T03200220 IEM_DS3505
ZGNN,2000-09-22 08:00,ZGNN 220800Z AUTO 22004KT 7SM 31/21 A2991 RMK T03100210 IEM_DS3505
ZGNN,2000-09-22 09:00,ZGNN 220900Z AUTO 25004KT 16SM 31/22 A2991 RMK SLP121 T03070216 57023 IEM_DS3505
ZGNN,2000-09-22 10:00,ZGNN 221000Z AUTO 15002KT 7SM 31/21 A2991 RMK T03100210 IEM_DS3505
ZGNN,2000-09-22 11:00,ZGNN 221100Z AUTO 15006KT 7SM 29/21 A2991 RMK T02900210 IEM_DS3505
ZGNN,2000-09-22 12:00,ZGNN 221200Z AUTO 16002KT 12SM 28/22 A2997 RMK SLP138 T02780224 52016 IEM_DS3505
ZGNN,2000-09-22 13:00,ZGNN 221300Z AUTO 09006KT 7SM 25/21 A3000 RMK T02500210 IEM_DS3505
ZGNN,2000-09-22 15:00,ZGNN 221500Z AUTO 25002KT 11SM 24/22 RMK SLP147 T02420223 52009 IEM_DS3505
ZGNN,2000-09-22 18:00,ZGNN 221800Z AUTO 34002KT 10SM 23/22 RMK 60003 SLP150 T02330221 52003 IEM_DS3505
ZGNN,2000-09-22 21:00,ZGNN 222100Z AUTO 00000KT 7SM 23/22 RMK 70003 SLP136 T02260220 57013 IEM_DS3505
ZGNN,2000-09-22 22:00,ZGNN 222200Z AUTO 36004KT 5SM 23/22 A2997 RMK T02300220 IEM_DS3505
ZGNN,2000-09-22 23:00,ZGNN 222300Z AUTO 02004KT 3SM 23/23 A2997 RMK T02300230 IEM_DS3505
ZGNN,2000-09-23 00:00,ZGNN 230000Z AUTO 00000KT 6SM 24/23 A3000 RMK 70003 SLP151 T02450233 52014 IEM_DS3505
ZGNN,2000-09-23 01:00,ZGNN 230100Z AUTO 06004KT 6SM 27/23 A3000 RMK T02700230 IEM_DS3505
ZGNN,2000-09-23 02:00,ZGNN 230200Z AUTO 15006KT 7SM 28/23 A3000 RMK T02800230 IEM_DS3505
ZGNN,2000-09-23 03:00,ZGNN 230300Z AUTO 07002KT 10SM 28/23 A3000 RMK SLP150 T02800229 57001 IEM_DS3505
ZGNN,2000-09-23 04:00,ZGNN 230400Z AUTO 08008KT 7SM 32/22 A2997 RMK T03200220 IEM_DS3505
ZGNN,2000-09-23 05:00,ZGNN 230500Z AUTO 13004KT 7SM 31/22 A2994 RMK T03100220 IEM_DS3505
ZGNN,2000-09-23 06:00,ZGNN 230600Z AUTO 20002KT 16SM 31/22 A2991 RMK 60003 SLP114 T03120219 57035 IEM_DS3505
ZGNN,2000-09-23 07:00,ZGNN 230700Z AUTO 30006KT 7SM 31/24 A2985 RMK T03100240 IEM_DS3505
ZGNN,2000-09-23 08:00,ZGNN 230800Z AUTO 12008KT 7SM 33/23 A2985 RMK T03300230 IEM_DS3505
ZGNN,2000-09-23 09:00,ZGNN 230900Z AUTO 11008KT 16SM 29/24 A2983 RMK SLP097 T02930236 57017 IEM_DS3505
ZGNN,2000-09-23 10:00,ZGNN 231000Z AUTO 13008KT 7SM 29/24 A2983 RMK T02900240 IEM_DS3505
ZGNN,2000-09-23 11:00,ZGNN 231100Z AUTO 13004KT 7SM 28/24 A2985 RMK T02800240 IEM_DS3505
ZGNN,2000-09-23 12:00,ZGNN 231200Z AUTO 14004KT 19SM 28/23 A2988 RMK 60003 SLP111 T02770231 52014 IEM_DS3505
ZGNN,2000-09-23 13:00,ZGNN 231300Z AUTO 6SM 26/23 A2991 RMK T02600230 IEM_DS3505
ZGNN,2000-09-23 15:00,ZGNN 231500Z AUTO 16004KT 17SM 26/23 RMK SLP129 T02560234 52018 IEM_DS3505
ZGNN,2000-09-23 18:00,ZGNN 231800Z AUTO 20002KT 16SM 26/24 RMK SLP114 T02550238 57014 IEM_DS3505
ZGNN,2000-09-23 21:00,ZGNN 232100Z AUTO 00000KT 7SM 25/24 A2985 RMK T02500240 IEM_DS3505
ZGNN,2000-09-23 22:00,ZGNN 232200Z AUTO 00000KT 7SM 25/24 A2988 RMK T02500240 IEM_DS3505
ZGNN,2000-09-23 23:00,ZGNN 232300Z AUTO 00000KT 7SM 25/24 A2988 RMK T02500240 IEM_DS3505
ZGNN,2000-09-24 00:00,ZGNN 240000Z AUTO 14004KT 7SM 25/24 A2991 RMK T02500240 IEM_DS3505
ZGNN,2000-09-24 01:00,ZGNN 240100Z AUTO 15006KT 7SM 27/24 A2994 RMK T02700240 IEM_DS3505
ZGNN,2000-09-24 02:00,ZGNN 240200Z AUTO 12006KT 7SM 29/23 A2994 RMK T02900230 IEM_DS3505
ZGNN,2000-09-24 03:00,ZGNN 240300Z AUTO 16004KT 12SM 30/23 A2991 RMK SLP124 T03000231 54000 IEM_DS3505
ZGNN,2000-09-24 04:00,ZGNN 240400Z AUTO 00000KT 7SM 30/22 A2991 RMK T03000220 IEM_DS3505
ZGNN,2000-09-24 05:00,ZGNN 240500Z AUTO 17004KT 7SM 32/22 A2985 RMK T03200220 IEM_DS3505
ZGNN,2000-09-24 06:00,ZGNN 240600Z AUTO 11006KT 19SM 32/22 A2983 RMK SLP089 T03220221 57034 IEM_DS3505
ZGNN,2000-09-24 07:00,ZGNN 240700Z AUTO 12010KT 7SM 33/22 A2980 RMK T03300220 IEM_DS3505
ZGNN,2000-09-24 08:00,ZGNN 240800Z AUTO 13014KT 7SM 33/23 A2977 RMK T03300230 IEM_DS3505
ZGNN,2000-09-24 09:00,ZGNN 240900Z AUTO 16006KT 19SM 31/23 A2974 RMK SLP067 T03100228 57022 IEM_DS3505
ZGNN,2000-09-24 10:00,ZGNN 241000Z AUTO 12016KT 7SM 30/23 A2977 RMK T03000230 IEM_DS3505
ZGNN,2000-09-24 11:00,ZGNN 241100Z AUTO 14014KT 7SM 28/23 A2977 RMK T02800230 IEM_DS3505
ZGNN,2000-09-24 12:00,ZGNN 241200Z AUTO 18004KT 19SM 28/23 A2980 RMK SLP084 T02760228 52016 IEM_DS3505
ZGNN,2000-09-24 13:00,ZGNN 241300Z AUTO 15010KT 7SM 27/23 A2983 RMK T02700230 IEM_DS3505
ZGNN,2000-09-24 15:00,ZGNN 241500Z AUTO 14002KT 19SM 26/23 RMK SLP098 T02630233 52015 IEM_DS3505
ZGNN,2000-09-24 18:00,ZGNN 241800Z AUTO 16002KT 19SM 26/24 RMK SLP094 T02570235 57004 IEM_DS3505
ZGNN,2000-09-24 21:00,ZGNN 242100Z AUTO 00000KT 12SM 25/24 A2980 RMK SLP088 T02490235 57006 IEM_DS3505
ZGNN,2000-09-24 22:00,ZGNN 242200Z AUTO 00000KT 7SM 25/23 A2983 RMK T02500230 IEM_DS3505
ZGNN,2000-09-24 23:00,ZGNN 242300Z AUTO 07004KT 7SM 25/23 A2983 RMK T02500230 IEM_DS3505
ZGNN,2000-09-25 00:00,ZGNN 250000Z AUTO 11004KT 10SM 26/24 A2985 RMK SLP101 T02640241 52012 IEM_DS3505
ZGNN,2000-09-25 01:00,ZGNN 250100Z AUTO 14008KT 7SM 27/24 A2985 RMK T02700240 IEM_DS3505
ZGNN,2000-09-25 02:00,ZGNN 250200Z AUTO 15008KT 7SM 28/24 A2988 RMK T02800240 IEM_DS3505
ZGNN,2000-09-25 03:00,ZGNN 250300Z AUTO 16006KT 19SM 30/23 RMK SLP106 T02980232 52006 IEM_DS3505
ZGNN,2000-09-25 04:00,ZGNN 250400Z AUTO 16010KT 7SM 31/22 A2985 RMK T03100220 IEM_DS3505
ZGNN,2000-09-25 05:00,ZGNN 250500Z AUTO 15010KT 7SM 33/22 A2980 RMK T03300220 IEM_DS3505
ZGNN,2000-09-25 06:00,ZGNN 250600Z AUTO 27002KT 6SM 29/23 A2977 RMK 60020 SLP080 T02910232 57026 IEM_DS3505
ZGNN,2000-09-25 07:00,ZGNN 250700Z AUTO 34006KT 7SM 23/22 A2977 RMK T02300220 IEM_DS3505
ZGNN,2000-09-25 08:00,ZGNN 250800Z AUTO 02004KT 7SM 24/23 A2977 RMK T02400230 IEM_DS3505
ZGNN,2000-09-25 09:00,ZGNN 250900Z AUTO 34002KT 19SM 24/23 RMK SLP071 T02380229 57011 IEM_DS3505
ZGNN,2000-09-25 10:00,ZGNN 251000Z AUTO 02006KT 7SM 24/23 A2974 RMK T02400230 IEM_DS3505
ZGNN,2000-09-25 11:00,ZGNN 251100Z AUTO 00000KT 7SM 25/24 A2974 RMK T02500240 IEM_DS3505
ZGNN,2000-09-25 12:00,ZGNN 251200Z AUTO 09004KT 12SM 25/24 A2980 RMK 60110 SLP081 T02490237 52011 IEM_DS3505
ZGNN,2000-09-25 13:00,ZGNN 251300Z AUTO 11006KT 7SM 25/24 A2980 RMK T02500240 IEM_DS3505
ZGNN,2000-09-25 15:00,ZGNN 251500Z AUTO 18004KT 12SM 25/24 RMK SLP094 T02530237 52014 IEM_DS3505
ZGNN,2000-09-25 18:00,ZGNN 251800Z AUTO 11004KT 12SM 25/24 RMK SLP096 T02510237 52001 IEM_DS3505
ZGNN,2000-09-25 21:00,ZGNN 252100Z AUTO 00000KT 12SM 24/24 RMK 70134 SLP092 T02450236 57005 IEM_DS3505
ZGNN,2000-09-25 22:00,ZGNN 252200Z AUTO 08004KT 7SM 24/24 A2983 RMK T02400240 IEM_DS3505
ZGNN,2000-09-25 23:00,ZGNN 252300Z AUTO 13006KT 7SM 24/24 A2983 RMK T02400240 IEM_DS3505
ZGNN,2000-09-26 00:00,ZGNN 260000Z AUTO 16006KT 12SM 25/24 A2985 RMK 60012 SLP108 T02490235 52016 IEM_DS3505
ZGNN,2000-09-26 01:00,ZGNN 260100Z AUTO 13006KT 7SM 25/24 A2988 RMK T02500240 IEM_DS3505
ZGNN,2000-09-26 02:00,ZGNN 260200Z AUTO 13012KT 7SM 27/24 A2988 RMK T02700240 IEM_DS3505
ZGNN,2000-09-26 03:00,ZGNN 260300Z AUTO 16004KT 19SM 26/23 A2991 RMK SLP124 T02560227 52016 IEM_DS3505
ZGNN,2000-09-26 04:00,ZGNN 260400Z AUTO 16002KT 7SM 24/23 A2991 RMK T02400230 IEM_DS3505
ZGNN,2000-09-26 05:00,ZGNN 260500Z AUTO 18006KT 7SM 25/24 A2988 RMK T02500240 IEM_DS3505
ZGNN,2000-09-26 06:00,ZGNN 260600Z AUTO 18006KT 19SM 26/23 A2985 RMK 60003 SLP104 T02600231 57019 IEM_DS3505
ZGNN,2000-09-26 07:00,ZGNN 260700Z AUTO 16006KT 7SM 27/24 A2985 RMK T02700240 IEM_DS3505
ZGNN,2000-09-26 08:00,ZGNN 260800Z AUTO 17008KT 7SM 27/23 A2983 RMK T02700230 IEM_DS3505
ZGNN,2000-09-26 09:00,ZGNN 260900Z AUTO 20002KT 19SM 28/24 A2977 RMK SLP078 T02750235 57026 IEM_DS3505
ZGNN,2000-09-26 10:00,ZGNN 261000Z AUTO 17008KT 7SM 27/24 A2980 RMK T02700240 IEM_DS3505
ZGNN,2000-09-26 11:00,ZGNN 261100Z AUTO 16006KT 6SM 26/24 A2983 RMK T02600240 IEM_DS3505
ZGNN,2000-09-26 12:00,ZGNN 261200Z AUTO 07002KT 16SM 26/24 A2985 RMK SLP100 T02580239 52021 IEM_DS3505
ZGNN,2000-09-26 13:00,ZGNN 261300Z AUTO 23002KT 7SM 25/24 A2985 RMK T02500240 IEM_DS3505
ZGNN,2000-09-26 15:00,ZGNN 261500Z AUTO 00000KT 12SM 24/24 RMK SLP116 T02420236 52016 IEM_DS3505
ZGNN,2000-09-26 18:00,ZGNN 261800Z AUTO 18002KT 11SM 25/24 RMK SLP111 T02490235 57005 IEM_DS3505
ZGNN,2000-09-26 21:00,ZGNN 262100Z AUTO 00000KT 9SM 25/24 A2985 RMK 70012 SLP106 T02470238 57004 IEM_DS3505
ZGNN,2000-09-26 22:00,ZGNN 262200Z AUTO 11002KT 7SM 25/24 A2988 RMK T02500240 IEM_DS3505
ZGNN,2000-09-26 23:00,ZGNN 262300Z AUTO 09004KT 7SM 25/24 A2988 RMK T02500240 IEM_DS3505
ZGNN,2000-09-27 00:00,ZGNN 270000Z AUTO 11002KT 4SM 25/24 A2991 RMK 60008 SLP122 T02470238 52015 IEM_DS3505
ZGNN,2000-09-27 01:00,ZGNN 270100Z AUTO 11002KT 4SM 25/24 A2991 RMK T02500240 IEM_DS3505
ZGNN,2000-09-27 03:00,ZGNN 270300Z AUTO 11006KT 9SM 28/24 A2991 RMK SLP126 T02800237 52004 IEM_DS3505
ZGNN,2000-09-27 04:00,ZGNN 270400Z AUTO 15008KT 7SM 27/24 A2991 RMK T02700240 IEM_DS3505
ZGNN,2000-09-27 05:00,ZGNN 270500Z AUTO 12006KT 7SM 29/24 A2988 RMK T02900240 IEM_DS3505
ZGNN,2000-09-27 06:00,ZGNN 270600Z AUTO 14006KT 11SM 30/24 A2985 RMK 60004 SLP098 T03030236 57026 IEM_DS3505
ZGNN,2000-09-27 07:00,ZGNN 270700Z AUTO 15010KT 7SM 30/22 A2983 RMK T03000220 IEM_DS3505
ZGNN,2000-09-27 08:00,ZGNN 270800Z AUTO 16010KT 7SM 30/22 A2980 RMK T03000220 IEM_DS3505
ZGNN,2000-09-27 09:00,ZGNN 270900Z AUTO 18004KT 14SM 28/23 A2980 RMK SLP087 T02840232 57012 IEM_DS3505
ZGNN,2000-09-27 10:00,ZGNN 271000Z AUTO 13006KT 7SM 28/23 A2983 RMK T02800230 IEM_DS3505
ZGNN,2000-09-27 11:00,ZGNN 271100Z AUTO 15004KT 6SM 27/23 A2983 RMK T02700230 IEM_DS3505
ZGNN,2000-09-27 12:00,ZGNN 271200Z AUTO 11002KT 16SM 27/23 A2985 RMK SLP101 T02720231 52014 IEM_DS3505
ZGNN,2000-09-27 13:00,ZGNN 271300Z AUTO 14004KT 7SM 25/24 A2988 RMK T02500240 IEM_DS3505
ZGNN,2000-09-27 15:00,ZGNN 271500Z AUTO 00000KT 16SM 25/23 RMK SLP117 T02490230 52016 IEM_DS3505
ZGNN,2000-09-27 18:00,ZGNN 271800Z AUTO 00000KT 16SM 23/22 RMK SLP113 T02300221 57004 IEM_DS3505
ZGNN,2000-09-27 21:00,ZGNN 272100Z AUTO 00000KT 12SM 23/22 RMK 70011 SLP115 T02270220 52001 IEM_DS3505
ZGNN,2000-09-27 22:00,ZGNN 272200Z AUTO 35006KT 7SM 23/22 A2991 RMK T02300220 IEM_DS3505
ZGNN,2000-09-27 23:00,ZGNN 272300Z AUTO 36004KT 2 1/2SM 23/22 A2991 RMK T02300220 IEM_DS3505
ZGNN,2000-09-28 00:00,ZGNN 280000Z AUTO 00000KT 5SM 25/23 A2991 RMK 70004 SLP123 T02470234 52008 IEM_DS3505
ZGNN,2000-09-28 01:00,ZGNN 280100Z AUTO 06004KT 4SM 26/23 A2994 RMK T02600230 IEM_DS3505
ZGNN,2000-09-28 02:00,ZGNN 280200Z AUTO 06004KT 6SM 26/24 A2994 RMK T02600240 IEM_DS3505
ZGNN,2000-09-28 03:00,ZGNN 280300Z AUTO 14004KT 12SM 28/23 A2994 RMK SLP136 T02800231 52013 IEM_DS3505
ZGNN,2000-09-28 04:00,ZGNN 280400Z AUTO 18006KT 7SM 29/23 A2994 RMK T02900230 IEM_DS3505
ZGNN,2000-09-28 06:00,ZGNN 280600Z AUTO 04004KT 19SM 31/22 A2988 RMK SLP109 T03110223 57026 IEM_DS3505
ZGNN,2000-09-28 07:00,ZGNN 280700Z AUTO 09008KT 7SM 31/22 A2985 RMK T03100220 IEM_DS3505
ZGNN,2000-09-28 08:00,ZGNN 280800Z AUTO 12014KT 7SM 29/23 A2985 RMK T02900230 IEM_DS3505
ZGNN,2000-09-28 09:00,ZGNN 280900Z AUTO 09002KT 12SM 26/24 RMK SLP103 T02640244 57007 IEM_DS3505
ZGNN,2000-09-28 10:00,ZGNN 281000Z AUTO 02004KT 7SM 27/24 A2985 RMK T02700240 IEM_DS3505
ZGNN,2000-09-28 11:00,ZGNN 281100Z AUTO 00000KT 7SM 26/25 A2985 RMK T02600250 IEM_DS3505
ZGNN,2000-09-28 12:00,ZGNN 281200Z AUTO 07002KT 12SM 25/24 A2988 RMK 60020 SLP111 T02540243 52008 IEM_DS3505
ZGNN,2000-09-28 13:00,ZGNN 281300Z AUTO 04004KT 7SM 26/24 A2988 RMK T02600240 IEM_DS3505
ZGNN,2000-09-28 14:00,ZGNN 281400Z AUTO 00000KT 7SM 25/24 A2991 RMK T02500240 IEM_DS3505
ZGNN,2000-09-28 15:00,ZGNN 281500Z AUTO 00000KT 12SM 25/23 RMK SLP125 T02510232 52015 IEM_DS3505
ZGNN,2000-09-28 18:00,ZGNN 281800Z AUTO 07002KT 9SM 23/23 RMK SLP123 T02340228 57002 IEM_DS3505
ZGNN,2000-09-28 21:00,ZGNN 282100Z AUTO 00000KT 8SM 24/24 A2991 RMK 70020 SLP119 T02380235 57005 IEM_DS3505
ZGNN,2000-09-28 22:00,ZGNN 282200Z AUTO 36004KT 5SM 24/23 A2988 RMK T02400230 IEM_DS3505
ZGNN,2000-09-28 23:00,ZGNN 282300Z AUTO 00000KT 7SM 24/23 A2991 RMK T02400230 IEM_DS3505
ZGNN,2000-09-29 00:00,ZGNN 290000Z AUTO 04002KT 12SM 25/23 A2994 RMK 70020 SLP133 T02500234 52014 IEM_DS3505
ZGNN,2000-09-29 01:00,ZGNN 290100Z AUTO 04006KT 7SM 26/24 A2997 RMK T02600240 IEM_DS3505
ZGNN,2000-09-29 02:00,ZGNN 290200Z AUTO 08008KT 7SM 27/24 A2997 RMK T02700240 IEM_DS3505
ZGNN,2000-09-29 03:00,ZGNN 290300Z AUTO 11006KT 12SM 28/24 A2997 RMK SLP143 T02750235 52010 IEM_DS3505
ZGNN,2000-09-29 04:00,ZGNN 290400Z AUTO 09008KT 7SM 29/24 A2994 RMK T02900240 IEM_DS3505
ZGNN,2000-09-29 05:00,ZGNN 290500Z AUTO 11010KT 7SM 31/24 A2991 RMK T03100240 IEM_DS3505
ZGNN,2000-09-29 06:00,ZGNN 290600Z AUTO 07006KT 14SM 30/24 A2988 RMK 60003 SLP115 T02980243 57027 IEM_DS3505
ZGNN,2000-09-29 07:00,ZGNN 290700Z AUTO 12010KT 7SM 32/22 A2985 RMK T03200220 IEM_DS3505
ZGNN,2000-09-29 08:00,ZGNN 290800Z AUTO 14010KT 7SM 32/22 A2985 RMK T03200220 IEM_DS3505
ZGNN,2000-09-29 09:00,ZGNN 290900Z AUTO 04004KT 12SM 29/25 A2985 RMK SLP098 T02930248 57017 IEM_DS3505
ZGNN,2000-09-29 10:00,ZGNN 291000Z AUTO 03008KT 7SM 29/25 RMK T02900250 IEM_DS3505
ZGNN,2000-09-29 11:00,ZGNN 291100Z AUTO 13004KT 7SM 28/23 A2985 RMK T02800230 IEM_DS3505
ZGNN,2000-09-29 12:00,ZGNN 291200Z AUTO 09002KT 12SM 27/25 A2988 RMK 60003 SLP111 T02740246 52013 IEM_DS3505
ZGNN,2000-09-29 13:00,ZGNN 291300Z AUTO 15006KT 7SM 26/23 A2988 RMK T02600230 IEM_DS3505
ZGNN,2000-09-29 14:00,ZGNN 291400Z AUTO 12004KT 7SM 26/23 A2994 RMK T02600230 IEM_DS3505
ZGNN,2000-09-29 15:00,ZGNN 291500Z AUTO 00000KT 12SM 25/23 A2994 RMK SLP129 T02530234 52018 IEM_DS3505
ZGNN,2000-09-29 18:00,ZGNN 291800Z AUTO 11004KT 12SM 25/23 RMK SLP131 T02490232 52002 IEM_DS3505
ZGNN,2000-09-29 21:00,ZGNN 292100Z AUTO 00000KT 12SM 24/23 RMK 70003 SLP128 T02430231 57003 IEM_DS3505
ZGNN,2000-09-29 22:00,ZGNN 292200Z AUTO 07004KT 7SM 24/23 A2994 RMK T02400230 IEM_DS3505
ZGNN,2000-09-29 23:00,ZGNN 292300Z AUTO 04004KT 7SM 24/23 A2994 RMK T02400230 IEM_DS3505
ZGNN,2000-09-30 00:00,ZGNN 300000Z AUTO 07004KT 9SM 25/23 A2997 RMK 70003 SLP142 T02510232 52013 IEM_DS3505
ZGNN,2000-09-30 01:00,ZGNN 300100Z AUTO 11008KT 7SM 27/24 A2997 RMK T02700240 IEM_DS3505
ZGNN,2000-09-30 02:00,ZGNN 300200Z AUTO 16008KT 7SM 29/23 A3000 RMK T02900230 IEM_DS3505
ZGNN,2000-09-30 03:00,ZGNN 300300Z AUTO 20004KT 19SM 30/24 A2997 RMK SLP147 T02950238 52006 IEM_DS3505
ZGNN,2000-09-30 04:00,ZGNN 300400Z AUTO 15010KT 7SM 32/22 A2997 RMK T03200220 IEM_DS3505
ZGNN,2000-09-30 05:00,ZGNN 300500Z AUTO 18008KT 7SM 32/21 A2994 RMK T03200210 IEM_DS3505
ZGNN,2000-09-30 06:00,ZGNN 300600Z AUTO 20004KT 19SM 32/21 A2991 RMK SLP122 T03240214 57024 IEM_DS3505
ZGNN,2000-09-30 07:00,ZGNN 300700Z AUTO 16008KT 7SM 33/20 A2988 RMK T03300200 IEM_DS3505
ZGNN,2000-09-30 08:00,ZGNN 300800Z AUTO 12008KT 7SM 32/21 A2988 RMK T03200210 IEM_DS3505
ZGNN,2000-09-30 09:00,ZGNN 300900Z AUTO 11008KT 19SM 32/23 A2985 RMK SLP107 T03200230 57015 IEM_DS3505
ZGNN,2000-09-30 10:00,ZGNN 301000Z AUTO 13014KT 7SM 30/23 A2985 RMK T03000230 IEM_DS3505
ZGNN,2000-09-30 11:00,ZGNN 301100Z AUTO 11006KT 7SM 28/23 A2988 RMK T02800230 IEM_DS3505
ZGNN,2000-09-30 12:00,ZGNN 301200Z AUTO 02002KT 19SM 27/24 A2991 RMK SLP123 T02740235 52015 IEM_DS3505
ZGNN,2000-09-30 13:00,ZGNN 301300Z AUTO 14002KT 6SM 27/24 A2994 RMK T02700240 IEM_DS3505
ZGNN,2000-09-30 14:00,ZGNN 301400Z AUTO 00000KT 6SM 26/24 A2997 RMK T02600240 IEM_DS3505
ZGNN,2000-09-30 15:00,ZGNN 301500Z AUTO 00000KT 19SM 25/24 A3000 RMK SLP149 T02520238 52026 IEM_DS3505
ZGNN,2000-09-30 16:00,ZGNN 301600Z AUTO 00000KT 7SM 25/24 A3000 RMK T02500240 IEM_DS3505
ZGNN,2000-09-30 18:00,ZGNN 301800Z AUTO 00000KT 16SM 24/23 RMK SLP149 T02380229 54000 IEM_DS3505
ZGNN,2000-09-30 21:00,ZGNN 302100Z AUTO 14002KT 12SM 24/23 A3000 RMK SLP150 T02390230 52001 IEM_DS3505
ZGNN,2000-09-30 22:00,ZGNN 302200Z AUTO 02002KT 7SM 24/23 A3000 RMK T02400230 IEM_DS3505
ZGNN,2000-09-30 23:00,ZGNN 302300Z AUTO 00000KT 7SM 24/23 A3000 RMK T02400230 IEM_DS3505
ZGNN,2000-10-01 00:00,ZGNN 010000Z AUTO 14002KT 16SM 25/23 A3000 RMK SLP156 T02510234 52005 IEM_DS3505
ZGNN,2000-10-01 01:00,ZGNN 010100Z AUTO 14004KT 7SM 27/23 A3003 RMK T02700230 IEM_DS3505
ZGNN,2000-10-01 02:00,ZGNN 010200Z AUTO 15002KT 7SM 28/23 A3003 RMK T02800230 IEM_DS3505
ZGNN,2000-10-01 03:00,ZGNN 010300Z AUTO 20004KT 19SM 29/23 A3003 RMK SLP157 T02860231 52001 IEM_DS3505
ZGNN,2000-10-01 04:00,ZGNN 010400Z AUTO 21006KT 7SM 31/23 A3000 RMK T03100230 IEM_DS3505
ZGNN,2000-10-01 05:00,ZGNN 010500Z AUTO 00000KT 7SM 33/23 A2997 RMK T03300230 IEM_DS3505
ZGNN,2000-10-01 06:00,ZGNN 010600Z AUTO 20006KT 19SM 33/22 A2991 RMK SLP127 T03260225 57029 IEM_DS3505
ZGNN,2000-10-01 07:00,ZGNN 010700Z AUTO 10006KT 7SM 34/22 A2988 RMK T03400220 IEM_DS3505
ZGNN,2000-10-01 08:00,ZGNN 010800Z AUTO 13010KT 7SM 33/22 A2988 RMK T03300220 IEM_DS3505
ZGNN,2000-10-01 09:00,ZGNN 010900Z AUTO 14006KT 19SM 32/23 A2985 RMK SLP106 T03160233 57020 IEM_DS3505
ZGNN,2000-10-01 10:00,ZGNN 011000Z AUTO 15012KT 7SM 31/22 A2988 RMK T03100220 IEM_DS3505
ZGNN,2000-10-01 11:00,ZGNN 011100Z AUTO 15012KT 7SM 29/24 A2988 RMK T02900240 IEM_DS3505
ZGNN,2000-10-01 12:00,ZGNN 011200Z AUTO 16008KT 19SM 28/24 A2991 RMK SLP121 T02780239 52014 IEM_DS3505
ZGNN,2000-10-01 13:00,ZGNN 011300Z AUTO 16006KT 6SM 27/24 A2991 RMK T02700240 IEM_DS3505
ZGNN,2000-10-01 14:00,ZGNN 011400Z AUTO 00000KT 6SM 26/24 A2994 RMK T02600240 IEM_DS3505
ZGNN,2000-10-01 15:00,ZGNN 011500Z AUTO 20004KT 17SM 26/24 A2994 RMK SLP135 T02630237 52014 IEM_DS3505
ZGNN,2000-10-01 16:00,ZGNN 011600Z AUTO 15004KT 6SM 26/24 A2994 RMK T02600240 IEM_DS3505
ZGNN,2000-10-01 18:00,ZGNN 011800Z AUTO 27002KT 16SM 26/23 RMK SLP132 T02570226 57002 IEM_DS3505
ZGNN,2000-10-01 21:00,ZGNN 012100Z AUTO 00000KT 12SM 25/23 A2994 RMK SLP126 T02500227 57006 IEM_DS3505
ZGNN,2000-10-01 22:00,ZGNN 012200Z AUTO 00000KT 6SM 25/23 A2994 RMK T02500230 IEM_DS3505
ZGNN,2000-10-01 23:00,ZGNN 012300Z AUTO 00000KT 6SM 25/23 A2994 RMK T02500230 IEM_DS3505
ZGNN,2000-10-02 00:00,ZGNN 020000Z AUTO 00000KT 11SM 26/23 A2997 RMK SLP140 T02590231 52013 IEM_DS3505
ZGNN,2000-10-02 01:00,ZGNN 020100Z AUTO 09004KT 6SM 28/24 A2997 RMK T02800240 IEM_DS3505
ZGNN,2000-10-02 02:00,ZGNN 020200Z AUTO 24004KT 6SM 29/23 A2997 RMK T02900230 IEM_DS3505
ZGNN,2000-10-02 03:00,ZGNN 020300Z AUTO 29002KT 16SM 30/23 A2994 RMK SLP135 T03000226 57005 IEM_DS3505
ZGNN,2000-10-02 04:00,ZGNN 020400Z AUTO 00000KT 7SM 31/22 A2991 RMK T03100220 IEM_DS3505
ZGNN,2000-10-02 05:00,ZGNN 020500Z AUTO 11004KT 7SM 33/21 A2988 RMK T03300210 IEM_DS3505
ZGNN,2000-10-02 06:00,ZGNN 020600Z AUTO 29002KT 19SM 32/22 A2985 RMK SLP105 T03210216 57029 IEM_DS3505
ZGNN,2000-10-02 07:00,ZGNN 020700Z AUTO 16010KT 7SM 34/21 A2983 RMK T03400210 IEM_DS3505
ZGNN,2000-10-02 08:00,ZGNN 020800Z AUTO 14008KT 7SM 34/22 A2980 RMK T03400220 IEM_DS3505
ZGNN,2000-10-02 09:00,ZGNN 020900Z AUTO 20004KT 19SM 33/23 A2980 RMK SLP087 T03260230 57018 IEM_DS3505
ZGNN,2000-10-02 10:00,ZGNN 021000Z AUTO 14010KT 7SM 31/23 A2980 RMK T03100230 IEM_DS3505
ZGNN,2000-10-02 11:00,ZGNN 021100Z AUTO 16012KT 7SM 29/23 A2983 RMK T02900230 IEM_DS3505
ZGNN,2000-10-02 12:00,ZGNN 021200Z AUTO 18004KT 17SM 28/22 A2985 RMK SLP104 T02830217 52016 IEM_DS3505
ZGNN,2000-10-02 13:00,ZGNN 021300Z AUTO 00000KT 6SM 27/24 A2988 RMK T02700240 IEM_DS3505
ZGNN,2000-10-02 14:00,ZGNN 021400Z AUTO 13004KT 6SM 27/24 A2988 RMK T02700240 IEM_DS3505
ZGNN,2000-10-02 15:00,ZGNN 021500Z AUTO 00000KT 16SM 26/23 A2988 RMK SLP115 T02620232 52012 IEM_DS3505
ZGNN,2000-10-02 16:00,ZGNN 021600Z AUTO 14004KT 6SM 26/24 A2988 RMK T02600240 IEM_DS3505
ZGNN,2000-10-02 17:00,ZGNN 021700Z AUTO 00000KT 6SM 26/24 A2988 RMK T02600240 IEM_DS3505
ZGNN,2000-10-02 18:00,ZGNN 021800Z AUTO 11004KT 14SM 26/23 RMK SLP114 T02580233 57001 IEM_DS3505
ZGNN,2000-10-02 21:00,ZGNN 022100Z AUTO 00000KT 12SM 25/24 A2985 RMK 70002 SLP105 T02510235 57009 IEM_DS3505
ZGNN,2000-10-02 22:00,ZGNN 022200Z AUTO 00000KT 7SM 25/24 A2985 RMK T02500240 IEM_DS3505
ZGNN,2000-10-02 23:00,ZGNN 022300Z AUTO 36004KT 7SM 25/23 A2988 RMK T02500230 IEM_DS3505
ZGNN,2000-10-03 00:00,ZGNN 030000Z AUTO 00000KT 9SM 25/23 A2991 RMK 60002 SLP128 T02480230 52022 IEM_DS3505
ZGNN,2000-10-03 01:00,ZGNN 030100Z AUTO 02008KT 7SM 25/22 A2994 RMK T02500220 IEM_DS3505
ZGNN,2000-10-03 02:00,ZGNN 030200Z AUTO 36006KT 7SM 26/22 A2997 RMK T02600220 IEM_DS3505
ZGNN,2000-10-03 03:00,ZGNN 030300Z AUTO 32006KT 19SM 26/22 A2994 RMK SLP135 T02600219 52006 IEM_DS3505
ZGNN,2000-10-03 04:00,ZGNN 030400Z AUTO 35006KT 7SM 27/21 A2994 RMK T02700210 IEM_DS3505
ZGNN,2000-10-03 05:00,ZGNN 030500Z AUTO 00000KT 7SM 28/22 A2991 RMK T02800220 IEM_DS3505
ZGNN,2000-10-03 06:00,ZGNN 030600Z AUTO 36006KT 19SM 28/22 A2988 RMK SLP107 T02810223 57027 IEM_DS3505
ZGNN,2000-10-03 07:00,ZGNN 030700Z AUTO 36006KT 7SM 28/22 A2985 RMK T02800220 IEM_DS3505
ZGNN,2000-10-03 08:00,ZGNN 030800Z AUTO 36010KT 7SM 28/22 A2983 RMK T02800220 IEM_DS3505
ZGNN,2000-10-03 09:00,ZGNN 030900Z AUTO 02006KT 19SM 28/22 A2983 RMK SLP095 T02840220 57012 IEM_DS3505
ZGNN,2000-10-03 10:00,ZGNN 031000Z AUTO 33006KT 7SM 27/22 A2983 RMK T02700220 IEM_DS3505
ZGNN,2000-10-03 11:00,ZGNN 031100Z AUTO 36008KT 7SM 26/22 A2985 RMK T02600220 IEM_DS3505
ZGNN,2000-10-03 12:00,ZGNN 031200Z AUTO 29002KT 19SM 26/22 A2985 RMK SLP105 T02560225 52009 IEM_DS3505
ZGNN,2000-10-03 13:00,ZGNN 031300Z AUTO 33006KT 7SM 25/22 A2988 RMK T02500220 IEM_DS3505
ZGNN,2000-10-03 15:00,ZGNN 031500Z AUTO 00000KT 16SM 25/23 RMK SLP121 T02480227 52016 IEM_DS3505
ZGNN,2000-10-03 18:00,ZGNN 031800Z AUTO 00000KT 14SM 24/22 RMK SLP113 T02380223 57007 IEM_DS3505
ZGNN,2000-10-03 21:00,ZGNN 032100Z AUTO 00000KT 11SM 23/22 A2988 RMK SLP108 T02330217 57005 IEM_DS3505
ZGNN,2000-10-03 22:00,ZGNN 032200Z AUTO 00000KT 6SM 23/22 A2988 RMK T02300220 IEM_DS3505
ZGNN,2000-10-03 23:00,ZGNN 032300Z AUTO 00000KT 7SM 23/22 A2988 RMK T02300220 IEM_DS3505
ZGNN,2000-10-04 00:00,ZGNN 040000Z AUTO 04002KT 5SM 24/22 A2991 RMK SLP124 T02400216 52015 IEM_DS3505
ZGNN,2000-10-04 01:00,ZGNN 040100Z AUTO 06004KT 7SM 26/22 A2994 RMK T02600220 IEM_DS3505
ZGNN,2000-10-04 02:00,ZGNN 040200Z AUTO 06006KT 7SM 27/21 A2994 RMK T02700210 IEM_DS3505
ZGNN,2000-10-04 03:00,ZGNN 040300Z AUTO 16004KT 7SM 27/21 A2994 RMK SLP134 T02720213 52010 IEM_DS3505
ZGNN,2000-10-04 04:00,ZGNN 040400Z AUTO 05006KT 7SM 28/22 A2994 RMK T02800220 IEM_DS3505
ZGNN,2000-10-04 05:00,ZGNN 040500Z AUTO 36010KT 7SM 29/22 A2988 RMK T02900220 IEM_DS3505
ZGNN,2000-10-04 06:00,ZGNN 040600Z AUTO 36004KT 11SM 29/22 A2985 RMK SLP105 T02880218 57028 IEM_DS3505
ZGNN,2000-10-04 07:00,ZGNN 040700Z AUTO 02010KT 7SM 31/22 A2983 RMK T03100220 IEM_DS3505
ZGNN,2000-10-04 08:00,ZGNN 040800Z AUTO 02008KT 7SM 31/22 A2983 RMK T03100220 IEM_DS3505
ZGNN,2000-10-04 09:00,ZGNN 040900Z AUTO 07002KT 7SM 30/22 A2983 RMK SLP089 T02980222 57016 IEM_DS3505
ZGNN,2000-10-04 10:00,ZGNN 041000Z AUTO 36006KT 7SM 28/22 A2983 RMK T02800220 IEM_DS3505
ZGNN,2000-10-04 11:00,ZGNN 041100Z AUTO 35008KT 7SM 27/23 A2985 RMK T02700230 IEM_DS3505
ZGNN,2000-10-04 12:00,ZGNN 041200Z AUTO 02004KT 6SM 26/23 A2988 RMK 60002 SLP112 T02550230 52022 IEM_DS3505
ZGNN,2000-10-04 13:00,ZGNN 041300Z AUTO 07004KT 7SM 25/22 A2991 RMK T02500220 IEM_DS3505
ZGNN,2000-10-04 15:00,ZGNN 041500Z AUTO 36002KT 7SM 24/22 RMK SLP135 T02410216 52023 IEM_DS3505
ZGNN,2000-10-04 18:00,ZGNN 041800Z AUTO 00000KT 7SM 24/22 RMK 60000 SLP125 T02360218 57009 IEM_DS3505
ZGNN,2000-10-04 21:00,ZGNN 042100Z AUTO 00000KT 7SM 23/21 A2991 RMK 70003 SLP123 T02320214 57002 IEM_DS3505
ZGNN,2000-10-04 22:00,ZGNN 042200Z AUTO 00000KT 3SM 23/22 A2994 RMK T02300220 IEM_DS3505
ZGNN,2000-10-04 23:00,ZGNN 042300Z AUTO 00000KT 4SM 23/21 A2994 RMK T02300210 IEM_DS3505
ZGNN,2000-10-05 00:00,ZGNN 050000Z AUTO 00000KT 5SM 23/21 A2997 RMK 70003 SLP143 T02330207 52018 IEM_DS3505
ZGNN,2000-10-05 01:00,ZGNN 050100Z AUTO 07006KT 4SM 24/21 A3000 RMK T02400210 IEM_DS3505
ZGNN,2000-10-05 02:00,ZGNN 050200Z AUTO 04002KT 7SM 25/21 A3000 RMK T02500210 IEM_DS3505
ZGNN,2000-10-05 03:00,ZGNN 050300Z AUTO 34002KT 6SM 25/21 A3000 RMK SLP153 T02500211 52010 IEM_DS3505
ZGNN,2000-10-05 04:00,ZGNN 050400Z AUTO 02006KT 7SM 26/21 A2997 RMK T02600210 IEM_DS3505
ZGNN,2000-10-05 05:00,ZGNN 050500Z AUTO 34008KT 7SM 25/22 A2997 RMK T02500220 IEM_DS3505
ZGNN,2000-10-05 06:00,ZGNN 050600Z AUTO 32010KT 6SM 25/22 A2994 RMK SLP131 T02460216 57022 IEM_DS3505
ZGNN,2000-10-05 07:00,ZGNN 050700Z AUTO 34008KT 7SM 25/21 A2991 RMK T02500210 IEM_DS3505
ZGNN,2000-10-05 08:00,ZGNN 050800Z AUTO 35012KT 7SM 25/21 A2988 RMK T02500210 IEM_DS3505
ZGNN,2000-10-05 09:00,ZGNN 050900Z AUTO 32008KT 7SM 25/21 A2991 RMK SLP123 T02460213 57008 IEM_DS3505
ZGNN,2000-10-05 10:00,ZGNN 051000Z AUTO 34006KT 7SM 24/21 A2991 RMK T02400210 IEM_DS3505
ZGNN,2000-10-05 11:00,ZGNN 051100Z AUTO 36006KT 7SM 24/21 A2991 RMK T02400210 IEM_DS3505
ZGNN,2000-10-05 12:00,ZGNN 051200Z AUTO 34006KT 12SM 24/21 A2994 RMK SLP131 T02350211 52008 IEM_DS3505
ZGNN,2000-10-05 13:00,ZGNN 051300Z AUTO 36010KT 7SM 23/21 A2997 RMK T02300210 IEM_DS3505
ZGNN,2000-10-05 14:00,ZGNN 051400Z AUTO 36006KT 7SM 23/21 A2997 RMK T02300210 IEM_DS3505
ZGNN,2000-10-05 15:00,ZGNN 051500Z AUTO 32006KT 12SM 23/21 A3000 RMK SLP151 T02300209 52020 IEM_DS3505
ZGNN,2000-10-05 18:00,ZGNN 051800Z AUTO 00000KT 9SM 22/21 RMK SLP149 T02250208 57002 IEM_DS3505
ZGNN,2000-10-05 21:00,ZGNN 052100Z AUTO 34004KT 7SM 22/20 A2997 RMK 70003 SLP140 T02230205 57009 IEM_DS3505
ZGNN,2000-10-05 22:00,ZGNN 052200Z AUTO 33004KT 7SM 22/21 A2997 RMK T02200210 IEM_DS3505
ZGNN,2000-10-05 23:00,ZGNN 052300Z AUTO 34006KT 7SM 22/20 A2997 RMK T02200200 IEM_DS3505
ZGNN,2000-10-06 00:00,ZGNN 060000Z AUTO 32004KT 7SM 23/21 A3000 RMK 60003 SLP156 T02280207 52016 IEM_DS3505
ZGNN,2000-10-06 01:00,ZGNN 060100Z AUTO 01008KT 7SM 25/19 A3003 RMK T02500190 IEM_DS3505
ZGNN,2000-10-06 02:00,ZGNN 060200Z AUTO 35008KT 7SM 26/20 A3003 RMK T02600200 IEM_DS3505
ZGNN,2000-10-06 03:00,ZGNN 060300Z AUTO 32006KT 9SM 25/21 A3003 RMK SLP164 T02510210 52008 IEM_DS3505
ZGNN,2000-10-06 04:00,ZGNN 060400Z AUTO 34004KT 7SM 27/21 A3000 RMK T02700210 IEM_DS3505
ZGNN,2000-10-06 05:00,ZGNN 060500Z AUTO 34004KT 7SM 27/21 A2997 RMK T02700210 IEM_DS3505
ZGNN,2000-10-06 06:00,ZGNN 060600Z AUTO 00000KT 9SM 27/22 A2997 RMK 60003 SLP140 T02700215 57023 IEM_DS3505
ZGNN,2000-10-06 07:00,ZGNN 060700Z AUTO 29008KT 7SM 28/22 A2994 RMK T02800220 IEM_DS3505
ZGNN,2000-10-06 08:00,ZGNN 060800Z AUTO 33004KT 7SM 28/22 A2991 RMK T02800220 IEM_DS3505
ZGNN,2000-10-06 09:00,ZGNN 060900Z AUTO 32006KT 9SM 28/22 A2991 RMK SLP122 T02750216 57018 IEM_DS3505
ZGNN,2000-10-06 10:00,ZGNN 061000Z AUTO 32008KT 6SM 26/22 A2991 RMK T02600220 IEM_DS3505
ZGNN,2000-10-06 11:00,ZGNN 061100Z AUTO 36008KT 6SM 25/21 A2991 RMK T02500210 IEM_DS3505
ZGNN,2000-10-06 12:00,ZGNN 061200Z AUTO 20002KT 9SM 24/22 A2991 RMK SLP129 T02420218 52006 IEM_DS3505
ZGNN,2000-10-06 13:00,ZGNN 061300Z AUTO 35004KT 6SM 24/21 A2994 RMK T02400210 IEM_DS3505
ZGNN,2000-10-06 14:00,ZGNN 061400Z AUTO 34004KT 6SM 23/21 A2997 RMK T02300210 IEM_DS3505
ZGNN,2000-10-06 15:00,ZGNN 061500Z AUTO 00000KT 9SM 23/22 A2997 RMK SLP142 T02280216 52013 IEM_DS3505
ZGNN,2000-10-06 16:00,ZGNN 061600Z AUTO 00000KT 6SM 23/21 A2997 RMK T02300210 IEM_DS3505
ZGNN,2000-10-06 18:00,ZGNN 061800Z AUTO 00000KT 8SM 21/21 RMK SLP132 T02120207 57010 IEM_DS3505
ZGNN,2000-10-06 21:00,ZGNN 062100Z AUTO 00000KT 7SM 21/21 RMK 70003 SLP129 T02130207 57002 IEM_DS3505
ZGNN,2000-10-06 22:00,ZGNN 062200Z AUTO 35004KT 6SM 22/21 A2994 RMK T02200210 IEM_DS3505
ZGNN,2000-10-06 23:00,ZGNN 062300Z AUTO 00000KT 5SM 22/21 A2997 RMK T02200210 IEM_DS3505
ZGNN,2000-10-07 00:00,ZGNN 070000Z AUTO 34006KT 4SM 22/21 A2997 RMK 70003 SLP149 T02210213 52019 IEM_DS3505
ZGNN,2000-10-07 01:00,ZGNN 070100Z AUTO 33008KT 4SM 24/22 A3000 RMK T02400220 IEM_DS3505
ZGNN,2000-10-07 02:00,ZGNN 070200Z AUTO 34010KT 5SM 26/22 A3000 RMK T02600220 IEM_DS3505
ZGNN,2000-10-07 03:00,ZGNN 070300Z AUTO 32002KT 7SM 27/21 A3000 RMK SLP152 T02660212 52003 IEM_DS3505
ZGNN,2000-10-07 04:00,ZGNN 070400Z AUTO 36004KT 7SM 28/21 A2997 RMK T02800210 IEM_DS3505
ZGNN,2000-10-07 05:00,ZGNN 070500Z AUTO 00000KT 7SM 28/22 A2994 RMK T02800220 IEM_DS3505
ZGNN,2000-10-07 06:00,ZGNN 070600Z AUTO 16004KT 7SM 29/22 A2991 RMK SLP119 T02890217 57032 IEM_DS3505
ZGNN,2000-10-07 07:00,ZGNN 070700Z AUTO 32008KT 7SM 29/22 A2988 RMK T02900220 IEM_DS3505
ZGNN,2000-10-07 08:00,ZGNN 070800Z AUTO 36006KT 7SM 30/21 A2985 RMK T03000210 IEM_DS3505
ZGNN,2000-10-07 09:00,ZGNN 070900Z AUTO 27004KT 9SM 29/22 A2983 RMK SLP097 T02940218 57021 IEM_DS3505
ZGNN,2000-10-07 10:00,ZGNN 071000Z AUTO 31004KT 6SM 29/22 A2985 RMK T02900220 IEM_DS3505
ZGNN,2000-10-07 11:00,ZGNN 071100Z AUTO 00000KT 6SM 28/22 A2985 RMK T02800220 IEM_DS3505
ZGNN,2000-10-07 12:00,ZGNN 071200Z AUTO 00000KT 9SM 25/23 A2988 RMK SLP113 T02520226 52014 IEM_DS3505
ZGNN,2000-10-07 13:00,ZGNN 071300Z AUTO 00000KT 6SM 24/23 A2991 RMK T02400230 IEM_DS3505
ZGNN,2000-10-07 14:00,ZGNN 071400Z AUTO 00000KT 6SM 24/23 A2991 RMK T02400230 IEM_DS3505
ZGNN,2000-10-07 15:00,ZGNN 071500Z AUTO 00000KT 9SM 24/22 A2991 RMK SLP128 T02350220 52016 IEM_DS3505
ZGNN,2000-10-07 16:00,ZGNN 071600Z AUTO 00000KT 4SM 23/22 A2991 RMK T02300220 IEM_DS3505
ZGNN,2000-10-07 21:00,ZGNN 072100Z AUTO 00000KT 7SM 23/22 A2988 RMK SLP112 T02280222 57004 IEM_DS3505
ZGNN,2000-10-07 22:00,ZGNN 072200Z AUTO 00000KT 7SM 23/22 A2988 RMK T02300220 IEM_DS3505
ZGNN,2000-10-07 23:00,ZGNN 072300Z AUTO 00000KT 7SM 23/22 A2988 RMK T02300220 IEM_DS3505
ZGNN,2000-10-08 00:00,ZGNN 080000Z AUTO 00000KT 4SM 23/22 A2991 RMK SLP120 T02320225 52007 IEM_DS3505
ZGNN,2000-10-08 01:00,ZGNN 080100Z AUTO 00000KT 3SM 26/23 A2991 RMK T02600230 IEM_DS3505
ZGNN,2000-10-08 02:00,ZGNN 080200Z AUTO 00000KT 6SM 29/23 A2991 RMK T02900230 IEM_DS3505
ZGNN,2000-10-08 03:00,ZGNN 080300Z AUTO 11008KT 6SM 30/23 A2988 RMK SLP114 T03010226 57005 IEM_DS3505
ZGNN,2000-10-08 04:00,ZGNN 080400Z AUTO 09004KT 32/22 A2985 RMK T03200220 IEM_DS3505
ZGNN,2000-10-08 05:00,ZGNN 080500Z AUTO 26002KT 7SM 31/22 A2983 RMK T03100220 IEM_DS3505
ZGNN,2000-10-08 06:00,ZGNN 080600Z AUTO 14006KT 6SM 32/22 A2980 RMK SLP079 T03190217 57034 IEM_DS3505
ZGNN,2000-10-08 07:00,ZGNN 080700Z AUTO 13006KT 7SM 33/21 A2977 RMK T03300210 IEM_DS3505
ZGNN,2000-10-08 08:00,ZGNN 080800Z AUTO 12006KT 7SM 33/21 A2977 RMK T03300210 IEM_DS3505
ZGNN,2000-10-08 09:00,ZGNN 080900Z AUTO 16006KT 5SM 28/22 A2974 RMK SLP070 T02810218 57010 IEM_DS3505
ZGNN,2000-10-08 10:00,ZGNN 081000Z AUTO 33002KT 7SM 28/23 A2977 RMK T02800230 IEM_DS3505
ZGNN,2000-10-08 11:00,ZGNN 081100Z AUTO 01004KT 6SM 26/24 A2977 RMK T02600240 IEM_DS3505
ZGNN,2000-10-08 12:00,ZGNN 081200Z AUTO 00000KT 7SM 26/24 A2980 RMK 60004 SLP083 T02580235 52012 IEM_DS3505
ZGNN,2000-10-08 13:00,ZGNN 081300Z AUTO 00000KT 4SM 25/24 A2980 RMK T02500240 IEM_DS3505
ZGNN,2000-10-08 15:00,ZGNN 081500Z AUTO 00000KT 7SM 24/23 RMK SLP099 T02450232 52017 IEM_DS3505
ZGNN,2000-10-08 18:00,ZGNN 081800Z AUTO 00000KT 7SM 23/22 RMK SLP095 T02340225 57003 IEM_DS3505
ZGNN,2000-10-08 21:00,ZGNN 082100Z AUTO 00000KT 6SM 23/22 A2983 RMK 70005 SLP096 T02270220 54000 IEM_DS3505
ZGNN,2000-10-08 22:00,ZGNN 082200Z AUTO 00000KT 2SM 23/22 A2985 RMK T02300220 IEM_DS3505
ZGNN,2000-10-08 23:00,ZGNN 082300Z AUTO 34004KT 2SM 22/22 A2985 RMK T02200220 IEM_DS3505
ZGNN,2000-10-09 00:00,ZGNN 090000Z AUTO 00000KT 3SM 23/22 A2988 RMK 70005 SLP116 T02290223 52019 IEM_DS3505
ZGNN,2000-10-09 01:00,ZGNN 090100Z AUTO 04002KT 2 1/2SM 26/23 A2991 RMK T02600230 IEM_DS3505
ZGNN,2000-10-09 02:00,ZGNN 090200Z AUTO 07002KT 6SM 28/23 A2991 RMK T02800230 IEM_DS3505
ZGNN,2000-10-09 03:00,ZGNN 090300Z AUTO 25002KT 11SM 29/23 A2991 RMK SLP119 T02880227 52004 IEM_DS3505
ZGNN,2000-10-09 04:00,ZGNN 090400Z AUTO 18006KT 7SM 31/23 A2988 RMK T03100230 IEM_DS3505
ZGNN,2000-10-09 05:00,ZGNN 090500Z AUTO 36010KT 7SM 32/22 A2983 RMK T03200220 IEM_DS3505
ZGNN,2000-10-09 06:00,ZGNN 090600Z AUTO 32002KT 12SM 31/22 A2980 RMK SLP086 T03110223 57032 IEM_DS3505
ZGNN,2000-10-09 07:00,ZGNN 090700Z AUTO 15010KT 7SM 34/20 A2980 RMK T03400200 IEM_DS3505
ZGNN,2000-10-09 08:00,ZGNN 090800Z AUTO 18010KT 7SM 32/20 A2977 RMK T03200200 IEM_DS3505
ZGNN,2000-10-09 09:00,ZGNN 090900Z AUTO 22004KT 16SM 32/21 A2974 RMK SLP067 T03230210 57019 IEM_DS3505
ZGNN,2000-10-09 10:00,ZGNN 091000Z AUTO 15006KT 7SM 31/21 A2977 RMK T03100210 IEM_DS3505
ZGNN,2000-10-09 12:00,ZGNN 091200Z AUTO 00000KT 11SM 28/23 A2980 RMK SLP086 T02760228 52018 IEM_DS3505
ZGNN,2000-10-09 13:00,ZGNN 091300Z AUTO 00000KT 6SM 27/23 A2983 RMK T02700230 IEM_DS3505
ZGNN,2000-10-09 14:00,ZGNN 091400Z AUTO 00000KT 6SM 26/23 A2983 RMK T02600230 IEM_DS3505
ZGNN,2000-10-09 15:00,ZGNN 091500Z AUTO 00000KT 10SM 24/22 RMK SLP101 T02440223 52015 IEM_DS3505
ZGNN,2000-10-09 18:00,ZGNN 091800Z AUTO 00000KT 8SM 23/22 RMK SLP101 T02310218 54000 IEM_DS3505
ZGNN,2000-10-09 21:00,ZGNN 092100Z AUTO 00000KT 7SM 23/22 RMK SLP094 T02260217 57006 IEM_DS3505
ZGNN,2000-10-09 22:00,ZGNN 092200Z AUTO 34004KT 6SM 23/22 A2983 RMK T02300220 IEM_DS3505
ZGNN,2000-10-09 23:00,ZGNN 092300Z AUTO 00000KT 4SM 22/21 A2985 RMK T02200210 IEM_DS3505
ZGNN,2000-10-10 00:00,ZGNN 100000Z AUTO 00000KT 7SM 23/22 A2988 RMK SLP113 T02320225 52017 IEM_DS3505
ZGNN,2000-10-10 01:00,ZGNN 100100Z AUTO 00000KT 4SM 27/23 A2988 RMK T02700230 IEM_DS3505
ZGNN,2000-10-10 02:00,ZGNN 100200Z AUTO 00000KT 6SM 29/22 A2988 RMK T02900220 IEM_DS3505
ZGNN,2000-10-10 03:00,ZGNN 100300Z AUTO 00000KT 9SM 30/22 A2988 RMK SLP115 T02980222 52003 IEM_DS3505
ZGNN,2000-10-10 04:00,ZGNN 100400Z AUTO 00000KT 7SM 30/21 A2985 RMK T03000210 IEM_DS3505
ZGNN,2000-10-10 05:00,ZGNN 100500Z AUTO 32004KT 7SM 33/20 A2983 RMK T03300200 IEM_DS3505
ZGNN,2000-10-10 06:00,ZGNN 100600Z AUTO 20006KT 9SM 34/20 A2980 RMK SLP086 T03360201 57028 IEM_DS3505
ZGNN,2000-10-10 07:00,ZGNN 100700Z AUTO 00000KT 7SM 33/19 A2977 RMK T03300190 IEM_DS3505
ZGNN,2000-10-10 08:00,ZGNN 100800Z AUTO 01006KT 7SM 34/19 A2977 RMK T03400190 IEM_DS3505
ZGNN,2000-10-10 09:00,ZGNN 100900Z AUTO 00000KT 11SM 32/20 A2977 RMK SLP075 T03220202 57011 IEM_DS3505
ZGNN,2000-10-10 10:00,ZGNN 101000Z AUTO 14004KT 7SM 32/20 A2977 RMK T03200200 IEM_DS3505
ZGNN,2000-10-10 11:00,ZGNN 101100Z AUTO 00000KT 7SM 29/22 A2980 RMK T02900220 IEM_DS3505
ZGNN,2000-10-10 12:00,ZGNN 101200Z AUTO 00000KT 11SM 27/22 A2980 RMK SLP088 T02740218 52012 IEM_DS3505
ZGNN,2000-10-10 15:00,ZGNN 101500Z AUTO 00000KT 9SM 24/22 RMK SLP101 T02450218 52013 IEM_DS3505
ZGNN,2000-10-10 18:00,ZGNN 101800Z AUTO 00000KT 9SM 24/22 RMK SLP095 T02380216 57005 IEM_DS3505
ZGNN,2000-10-10 21:00,ZGNN 102100Z AUTO 00000KT 7SM 22/21 A2983 RMK SLP095 T02240212 57001 IEM_DS3505
ZGNN,2000-10-10 22:00,ZGNN 102200Z AUTO 00000KT 5SM 23/21 A2983 RMK T02300210 IEM_DS3505
ZGNN,2000-10-10 23:00,ZGNN 102300Z AUTO 01004KT 6SM 23/21 A2985 RMK T02300210 IEM_DS3505
ZGNN,2000-10-11 00:00,ZGNN 110000Z AUTO 09002KT 5SM 24/22 A2988 RMK SLP110 T02420224 52015 IEM_DS3505
ZGNN,2000-10-11 01:00,ZGNN 110100Z AUTO 04006KT 5SM 27/24 A2988 RMK T02700240 IEM_DS3505
ZGNN,2000-10-11 02:00,ZGNN 110200Z AUTO 00000KT 7SM 29/23 A2988 RMK T02900230 IEM_DS3505
ZGNN,2000-10-11 03:00,ZGNN 110300Z AUTO 32004KT 6SM 31/22 A2988 RMK SLP110 T03130220 52001 IEM_DS3505
ZGNN,2000-10-11 04:00,ZGNN 110400Z AUTO 04010KT 7SM 32/21 A2985 RMK T03200210 IEM_DS3505
ZGNN,2000-10-11 05:00,ZGNN 110500Z AUTO 03004KT 7SM 33/20 A2983 RMK T03300200 IEM_DS3505
ZGNN,2000-10-11 06:00,ZGNN 110600Z AUTO 07004KT 11SM 32/20 A2980 RMK SLP084 T03230205 57026 IEM_DS3505
ZGNN,2000-10-11 07:00,ZGNN 110700Z AUTO 06006KT 7SM 33/20 A2977 RMK T03300200 IEM_DS3505
ZGNN,2000-10-11 08:00,ZGNN 110800Z AUTO 03008KT 7SM 33/20 A2977 RMK T03300200 IEM_DS3505
ZGNN,2000-10-11 09:00,ZGNN 110900Z AUTO 07006KT 11SM 33/20 A2977 RMK SLP074 T03310202 57010 IEM_DS3505
ZGNN,2000-10-11 10:00,ZGNN 111000Z AUTO 03006KT 7SM 32/21 A2980 RMK T03200210 IEM_DS3505
ZGNN,2000-10-11 11:00,ZGNN 111100Z AUTO 03004KT 7SM 30/22 A2980 RMK T03000220 IEM_DS3505
ZGNN,2000-10-11 12:00,ZGNN 111200Z AUTO 00000KT 11SM 30/22 A2983 RMK SLP090 T02980221 52015 IEM_DS3505
ZGNN,2000-10-11 13:00,ZGNN 111300Z AUTO 00000KT 7SM 29/23 A2985 RMK T02900230 IEM_DS3505
ZGNN,2000-10-11 15:00,ZGNN 111500Z AUTO 00000KT 9SM 27/22 RMK SLP107 T02730217 52018 IEM_DS3505
ZGNN,2000-10-11 18:00,ZGNN 111800Z AUTO 00000KT 9SM 26/22 RMK SLP098 T02560221 57009 IEM_DS3505
ZGNN,2000-10-11 21:00,ZGNN 112100Z AUTO 00000KT 7SM 24/22 A2985 RMK SLP098 T02420220 54000 IEM_DS3505
ZGNN,2000-10-11 22:00,ZGNN 112200Z AUTO 34006KT 7SM 24/22 A2985 RMK T02400220 IEM_DS3505
ZGNN,2000-10-11 23:00,ZGNN 112300Z AUTO 36006KT 6SM 24/22 A2985 RMK T02400220 IEM_DS3505
ZGNN,2000-10-12 00:00,ZGNN 120000Z AUTO 00000KT 6SM 26/23 A2988 RMK SLP110 T02570226 52011 IEM_DS3505
ZGNN,2000-10-12 01:00,ZGNN 120100Z AUTO 34006KT 6SM 28/22 A2988 RMK T02800220 IEM_DS3505
ZGNN,2000-10-12 02:00,ZGNN 120200Z AUTO 01010KT 6SM 30/21 A2988 RMK T03000210 IEM_DS3505
ZGNN,2000-10-12 03:00,ZGNN 120300Z AUTO 04004KT 6SM 31/21 A2988 RMK SLP112 T03120214 52003 IEM_DS3505
ZGNN,2000-10-12 04:00,ZGNN 120400Z AUTO 05012KT 7SM 32/20 A2985 RMK T03200200 IEM_DS3505
ZGNN,2000-10-12 05:00,ZGNN 120500Z AUTO 04010KT 7SM 33/21 A2985 RMK T03300210 IEM_DS3505
ZGNN,2000-10-12 06:00,ZGNN 120600Z AUTO 04012KT 7SM 33/20 A2983 RMK T03300200 IEM_DS3505
ZGNN,2000-10-12 07:00,ZGNN 120700Z AUTO 03010KT 7SM 33/20 A2980 RMK T03300200 IEM_DS3505
ZGNN,2000-10-12 08:00,ZGNN 120800Z AUTO 03012KT 7SM 32/20 A2980 RMK T03200200 IEM_DS3505
ZGNN,2000-10-12 09:00,ZGNN 120900Z AUTO 04006KT 9SM 32/20 A2980 RMK SLP076 T03160200 57011 IEM_DS3505
ZGNN,2000-10-12 10:00,ZGNN 121000Z AUTO 03010KT 6SM 30/20 A2980 RMK T03000200 IEM_DS3505
ZGNN,2000-10-12 11:00,ZGNN 121100Z AUTO 02010KT 6SM 28/19 A2983 RMK T02800190 IEM_DS3505
ZGNN,2000-10-12 12:00,ZGNN 121200Z AUTO 02010KT 10SM 27/18 A2985 RMK SLP101 T02700180 52024 IEM_DS3505
ZGNN,2000-10-12 13:00,ZGNN 121300Z AUTO 01010KT 6SM 26/17 A2988 RMK T02600170 IEM_DS3505
ZGNN,2000-10-12 15:00,ZGNN 121500Z AUTO 02004KT 11SM 24/16 RMK SLP122 T02450163 52021 IEM_DS3505
ZGNN,2000-10-12 18:00,ZGNN 121800Z AUTO 34006KT 12SM 22/15 RMK SLP123 T02230153 52001 IEM_DS3505
ZGNN,2000-10-12 21:00,ZGNN 122100Z AUTO 34006KT 12SM 21/14 A2991 RMK SLP119 T02140145 57004 IEM_DS3505
ZGNN,2000-10-12 22:00,ZGNN 122200Z AUTO 36010KT 7SM 21/14 A2991 RMK T02100140 IEM_DS3505
ZGNN,2000-10-12 23:00,ZGNN 122300Z AUTO 35008KT 7SM 21/14 A2994 RMK T02100140 IEM_DS3505
ZGNN,2000-10-13 00:00,ZGNN 130000Z AUTO 34008KT 16SM 21/14 A2994 RMK SLP135 T02110137 52014 IEM_DS3505
ZGNN,2000-10-13 01:00,ZGNN 130100Z AUTO 34010KT 7SM 22/14 A2997 RMK T02200140 IEM_DS3505
ZGNN,2000-10-13 02:00,ZGNN 130200Z AUTO 34010KT 7SM 22/14 A2997 RMK T02200140 IEM_DS3505
ZGNN,2000-10-13 03:00,ZGNN 130300Z AUTO 36008KT 16SM 23/14 A2997 RMK SLP140 T02280144 52005 IEM_DS3505
ZGNN,2000-10-13 04:00,ZGNN 130400Z AUTO 03006KT 7SM 24/15 A2994 RMK T02400150 IEM_DS3505
ZGNN,2000-10-13 05:00,ZGNN 130500Z AUTO 34014KT 7SM 24/15 A2991 RMK T02400150 IEM_DS3505
ZGNN,2000-10-13 06:00,ZGNN 130600Z AUTO 02006KT 17SM 24/15 RMK SLP111 T02420148 57029 IEM_DS3505
ZGNN,2000-10-13 07:00,ZGNN 130700Z AUTO 01006KT 7SM 24/14 A2985 RMK T02400140 IEM_DS3505
ZGNN,2000-10-13 08:00,ZGNN 130800Z AUTO 36012KT 7SM 24/15 A2985 RMK T02400150 IEM_DS3505
ZGNN,2000-10-13 09:00,ZGNN 130900Z AUTO 02008KT 17SM 24/15 A2985 RMK SLP101 T02360146 57010 IEM_DS3505
ZGNN,2000-10-13 10:00,ZGNN 131000Z AUTO 36016KT 7SM 22/15 A2985 RMK T02200150 IEM_DS3505
ZGNN,2000-10-13 11:00,ZGNN 131100Z AUTO 03008KT 7SM 19/17 A2988 RMK T01900170 IEM_DS3505
ZGNN,2000-10-13 12:00,ZGNN 131200Z AUTO 02006KT 9SM 19/16 A2991 RMK 60003 SLP127 T01890161 52024 IEM_DS3505
ZGNN,2000-10-13 13:00,ZGNN 131300Z AUTO 01010KT 7SM 18/17 A2994 RMK T01800170 IEM_DS3505
ZGNN,2000-10-13 15:00,ZGNN 131500Z AUTO 36008KT 12SM 18/15 RMK SLP136 T01810154 52010 IEM_DS3505
ZGNN,2000-10-13 18:00,ZGNN 131800Z AUTO 02008KT 7SM 17/15 RMK 60002 SLP136 T01690150 54000 IEM_DS3505
ZGNN,2000-10-13 21:00,ZGNN 132100Z AUTO 02010KT 6SM 16/15 RMK 70018 SLP134 T01580146 57003 IEM_DS3505
ZGNN,2000-10-13 22:00,ZGNN 132200Z AUTO 34010KT 3SM 16/15 A2994 RMK T01600150 IEM_DS3505
ZGNN,2000-10-13 23:00,ZGNN 132300Z AUTO 36012KT 3SM 15/15 A2997 RMK T01500150 IEM_DS3505
ZGNN,2000-10-14 00:00,ZGNN 140000Z AUTO 36010KT 2SM 15/14 A3000 RMK 60024 SLP154 T01530144 52019 IEM_DS3505
ZGNN,2000-10-14 01:00,ZGNN 140100Z AUTO 35006KT 2 1/2SM 15/14 A3000 RMK T01500140 IEM_DS3505
ZGNN,2000-10-14 02:00,ZGNN 140200Z AUTO 35010KT 2 1/2SM 15/15 A3003 RMK T01500150 IEM_DS3505
ZGNN,2000-10-14 03:00,ZGNN 140300Z AUTO 36010KT 2SM 16/14 A3003 RMK SLP165 T01550145 52010 IEM_DS3505
ZGNN,2000-10-14 04:00,ZGNN 140400Z AUTO 35006KT 2 1/2SM 16/15 A3000 RMK T01600150 IEM_DS3505
ZGNN,2000-10-14 05:00,ZGNN 140500Z AUTO 33012KT 4SM 16/15 A3000 RMK T01600150 IEM_DS3505
ZGNN,2000-10-14 06:00,ZGNN 140600Z AUTO 34006KT 5SM 16/15 A2997 RMK 60012 SLP145 T01580148 57020 IEM_DS3505
ZGNN,2000-10-14 07:00,ZGNN 140700Z AUTO 36012KT 1 1/2SM 16/15 A2994 RMK T01600150 IEM_DS3505
ZGNN,2000-10-14 08:00,ZGNN 140800Z AUTO 35010KT 4SM 16/15 A2994 RMK T01600150 IEM_DS3505
ZGNN,2000-10-14 09:00,ZGNN 140900Z AUTO 36008KT 2 1/2SM 16/14 A2994 RMK SLP140 T01550145 57005 IEM_DS3505
ZGNN,2000-10-14 10:00,ZGNN 141000Z AUTO 35008KT 7SM 16/15 A2997 RMK T01600150 IEM_DS3505
ZGNN,2000-10-14 11:00,ZGNN 141100Z AUTO 33008KT 4SM 15/15 A2997 RMK T01500150 IEM_DS3505
ZGNN,2000-10-14 12:00,ZGNN 141200Z AUTO 34008KT 3SM 16/15 A3000 RMK 60035 SLP158 T01560147 52018 IEM_DS3505
ZGNN,2000-10-14 13:00,ZGNN 141300Z AUTO 34008KT 5SM 16/15 A3003 RMK T01600150 IEM_DS3505
ZGNN,2000-10-14 15:00,ZGNN 141500Z AUTO 34006KT 5SM 16/15 RMK SLP166 T01590150 52008 IEM_DS3505
ZGNN,2000-10-14 18:00,ZGNN 141800Z AUTO 34006KT 3SM 16/15 RMK 60031 SLP158 T01560147 57008 IEM_DS3505
ZGNN,2000-10-14 21:00,ZGNN 142100Z AUTO 34006KT 2 1/2SM 15/15 A3000 RMK 70118 SLP155 T01530146 57003 IEM_DS3505
ZGNN,2000-10-14 22:00,ZGNN 142200Z AUTO 00000KT 2 1/2SM 15/15 A3000 RMK T01500150 IEM_DS3505
ZGNN,2000-10-14 23:00,ZGNN 142300Z AUTO 35008KT 5SM 15/15 A3003 RMK T01500150 IEM_DS3505
ZGNN,2000-10-15 00:00,ZGNN 150000Z AUTO 34006KT 2SM 15/14 A3006 RMK 60083 SLP177 T01520145 52021 IEM_DS3505
ZGNN,2000-10-15 01:00,ZGNN 150100Z AUTO 36006KT 2 1/2SM 15/15 A3009 RMK T01500150 IEM_DS3505
ZGNN,2000-10-15 02:00,ZGNN 150200Z AUTO 35004KT 7SM 16/15 A3009 RMK T01600150 IEM_DS3505
ZGNN,2000-10-15 03:00,ZGNN 150300Z AUTO 34006KT 9SM 16/15 A3009 RMK SLP194 T01560146 52017 IEM_DS3505
ZGNN,2000-10-15 04:00,ZGNN 150400Z AUTO 01008KT 7SM 16/15 A3009 RMK T01600150 IEM_DS3505
ZGNN,2000-10-15 05:00,ZGNN 150500Z AUTO 31006KT 7SM 16/15 A3006 RMK T01600150 IEM_DS3505
ZGNN,2000-10-15 06:00,ZGNN 150600Z AUTO 02006KT 4SM 16/15 A3003 RMK 60051 SLP172 T01570147 57021 IEM_DS3505
ZGNN,2000-10-15 07:00,ZGNN 150700Z AUTO 36006KT 7SM 16/15 A3003 RMK T01600150 IEM_DS3505
ZGNN,2000-10-15 08:00,ZGNN 150800Z AUTO 35006KT 7SM 16/15 A3003 RMK T01600150 IEM_DS3505
ZGNN,2000-10-15 09:00,ZGNN 150900Z AUTO 34006KT 5SM 16/15 A3003 RMK SLP171 T01570147 57001 IEM_DS3505
ZGNN,2000-10-15 10:00,ZGNN 151000Z AUTO 01004KT 7SM 16/15 A3003 RMK T01600150 IEM_DS3505
ZGNN,2000-10-15 11:00,ZGNN 151100Z AUTO 34006KT 7SM 16/15 A3006 RMK T01600150 IEM_DS3505
ZGNN,2000-10-15 12:00,ZGNN 151200Z AUTO 34006KT 4SM 16/15 A3006 RMK 60024 SLP179 T01580148 52007 IEM_DS3505
ZGNN,2000-10-15 13:00,ZGNN 151300Z AUTO 36006KT 7SM 16/15 A3009 RMK T01600150 IEM_DS3505
ZGNN,2000-10-15 15:00,ZGNN 151500Z AUTO 34008KT 4SM 16/15 RMK SLP192 T01570150 52013 IEM_DS3505
ZGNN,2000-10-15 18:00,ZGNN 151800Z AUTO 34004KT 6SM 16/15 RMK 60012 SLP186 T01580151 57006 IEM_DS3505
ZGNN,2000-10-15 21:00,ZGNN 152100Z AUTO 34006KT 5SM 16/15 A3006 RMK 70146 SLP185 T01570152 57001 IEM_DS3505
ZGNN,2000-10-15 22:00,ZGNN 152200Z AUTO 32008KT 3SM 16/15 A3009 RMK T01600150 IEM_DS3505
ZGNN,2000-10-15 23:00,ZGNN 152300Z AUTO 35008KT 4SM 16/15 A3009 RMK T01600150 IEM_DS3505
ZGNN,2000-10-16 00:00,ZGNN 160000Z AUTO 34006KT 2SM 16/15 A3012 RMK 60016 SLP201 T01580153 52016 IEM_DS3505
ZGNN,2000-10-16 01:00,ZGNN 160100Z AUTO 34008KT 7SM 16/15 A3015 RMK T01600150 IEM_DS3505
ZGNN,2000-10-16 02:00,ZGNN 160200Z AUTO 34008KT 7SM 16/15 A3015 RMK T01600150 IEM_DS3505
ZGNN,2000-10-16 03:00,ZGNN 160300Z AUTO 34008KT 9SM 17/16 A3015 RMK SLP206 T01660156 52005 IEM_DS3505
ZGNN,2000-10-16 04:00,ZGNN 160400Z AUTO 35010KT 7SM 17/15 A3012 RMK T01700150 IEM_DS3505
ZGNN,2000-10-16 05:00,ZGNN 160500Z AUTO 34012KT 7SM 18/15 A3009 RMK T01800150 IEM_DS3505
ZGNN,2000-10-16 06:00,ZGNN 160600Z AUTO 34008KT 12SM 18/15 A3006 RMK 60001 SLP181 T01790152 57024 IEM_DS3505
ZGNN,2000-10-16 07:00,ZGNN 160700Z AUTO 34010KT 7SM 18/15 A3006 RMK T01800150 IEM_DS3505
ZGNN,2000-10-16 08:00,ZGNN 160800Z AUTO 33006KT 7SM 18/15 A3003 RMK T01800150 IEM_DS3505
ZGNN,2000-10-16 09:00,ZGNN 160900Z AUTO 34008KT 11SM 18/15 A3006 RMK SLP173 T01800153 57008 IEM_DS3505
ZGNN,2000-10-16 10:00,ZGNN 161000Z AUTO 35008KT 7SM 18/15 A3006 RMK T01800150 IEM_DS3505
ZGNN,2000-10-16 11:00,ZGNN 161100Z AUTO 33006KT 7SM 18/16 A3006 RMK T01800160 IEM_DS3505
ZGNN,2000-10-16 12:00,ZGNN 161200Z AUTO 34006KT 12SM 18/16 A3006 RMK SLP185 T01780156 52012 IEM_DS3505
ZGNN,2000-10-16 13:00,ZGNN 161300Z AUTO 35008KT 7SM 18/15 A3009 RMK T01800150 IEM_DS3505
ZGNN,2000-10-16 14:00,ZGNN 161400Z AUTO 33006KT 7SM 18/15 A3009 RMK T01800150 IEM_DS3505
ZGNN,2000-10-16 15:00,ZGNN 161500Z AUTO 32006KT 12SM 18/15 A3009 RMK SLP191 T01760154 52006 IEM_DS3505
ZGNN,2000-10-16 18:00,ZGNN 161800Z AUTO 32008KT 12SM 17/15 RMK SLP178 T01730153 57012 IEM_DS3505
ZGNN,2000-10-16 21:00,ZGNN 162100Z AUTO 34008KT 12SM 17/15 RMK 70008 SLP171 T01740150 57007 IEM_DS3505
ZGNN,2000-10-16 22:00,ZGNN 162200Z AUTO 34006KT 7SM 18/15 A3006 RMK T01800150 IEM_DS3505
ZGNN,2000-10-16 23:00,ZGNN 162300Z AUTO 32004KT 7SM 18/15 A3009 RMK T01800150 IEM_DS3505
ZGNN,2000-10-17 00:00,ZGNN 170000Z AUTO 34008KT 12SM 18/15 A3009 RMK 70001 SLP187 T01760152 52015 IEM_DS3505
ZGNN,2000-10-17 01:00,ZGNN 170100Z AUTO 35010KT 7SM 19/14 A3009 RMK T01900140 IEM_DS3505
ZGNN,2000-10-17 02:00,ZGNN 170200Z AUTO 33010KT 6SM 20/15 A3012 RMK T02000150 IEM_DS3505
ZGNN,2000-10-17 03:00,ZGNN 170300Z AUTO 34006KT 19SM 21/15 A3009 RMK SLP191 T02130151 52005 IEM_DS3505
ZGNN,2000-10-17 04:00,ZGNN 170400Z AUTO 01006KT 7SM 23/15 A3006 RMK T02300150 IEM_DS3505
ZGNN,2000-10-17 05:00,ZGNN 170500Z AUTO 02012KT 7SM 24/15 A3003 RMK T02400150 IEM_DS3505
ZGNN,2000-10-17 06:00,ZGNN 170600Z AUTO 02006KT 19SM 24/16 A3000 RMK SLP156 T02390161 57034 IEM_DS3505
ZGNN,2000-10-17 07:00,ZGNN 170700Z AUTO 36010KT 7SM 24/16 A2997 RMK T02400160 IEM_DS3505
ZGNN,2000-10-17 08:00,ZGNN 170800Z AUTO 34010KT 7SM 25/17 A2994 RMK T02500170 IEM_DS3505
ZGNN,2000-10-17 09:00,ZGNN 170900Z AUTO 34006KT 19SM 25/16 A2994 RMK SLP141 T02480160 57014 IEM_DS3505
ZGNN,2000-10-17 10:00,ZGNN 171000Z AUTO 33010KT 6SM 23/17 A2997 RMK T02300170 IEM_DS3505
ZGNN,2000-10-17 11:00,ZGNN 171100Z AUTO 34008KT 6SM 22/17 A2997 RMK T02200170 IEM_DS3505
ZGNN,2000-10-17 12:00,ZGNN 171200Z AUTO 34008KT 19SM 21/17 A3000 RMK SLP153 T02080171 52011 IEM_DS3505
ZGNN,2000-10-17 13:00,ZGNN 171300Z AUTO 33006KT 6SM 20/17 A3000 RMK T02000170 IEM_DS3505
ZGNN,2000-10-17 14:00,ZGNN 171400Z AUTO 34004KT 6SM 19/17 A3000 RMK T01900170 IEM_DS3505
ZGNN,2000-10-17 15:00,ZGNN 171500Z AUTO 34008KT 17SM 19/17 RMK SLP157 T01920169 52004 IEM_DS3505
ZGNN,2000-10-17 18:00,ZGNN 171800Z AUTO 34006KT 16SM 18/16 RMK SLP148 T01820162 57008 IEM_DS3505
ZGNN,2000-10-17 21:00,ZGNN 172100Z AUTO 32006KT 12SM 17/16 A2997 RMK SLP149 T01740161 52001 IEM_DS3505
ZGNN,2000-10-17 22:00,ZGNN 172200Z AUTO 00000KT 6SM 17/16 A2997 RMK T01700160 IEM_DS3505
ZGNN,2000-10-17 23:00,ZGNN 172300Z AUTO 36004KT 6SM 17/15 A3000 RMK T01700150 IEM_DS3505
ZGNN,2000-10-18 00:00,ZGNN 180000Z AUTO 34004KT 19SM 18/16 A3000 RMK SLP158 T01800162 52008 IEM_DS3505
ZGNN,2000-10-18 01:00,ZGNN 180100Z AUTO 03006KT 6SM 20/16 A3000 RMK T02000160 IEM_DS3505
ZGNN,2000-10-18 02:00,ZGNN 180200Z AUTO 05006KT 6SM 22/16 A3000 RMK T02200160 IEM_DS3505
ZGNN,2000-10-18 03:00,ZGNN 180300Z AUTO 34006KT 19SM 23/16 A3000 RMK SLP151 T02300156 57006 IEM_DS3505
ZGNN,2000-10-18 04:00,ZGNN 180400Z AUTO 03006KT 7SM 24/17 A2997 RMK T02400170 IEM_DS3505
ZGNN,2000-10-18 05:00,ZGNN 180500Z AUTO 36008KT 7SM 25/17 A2994 RMK T02500170 IEM_DS3505
ZGNN,2000-10-18 06:00,ZGNN 180600Z AUTO 34010KT 19SM 25/17 A2991 RMK SLP119 T02540168 57032 IEM_DS3505
ZGNN,2000-10-18 07:00,ZGNN 180700Z AUTO 36010KT 7SM 25/17 A2988 RMK T02500170 IEM_DS3505
ZGNN,2000-10-18 08:00,ZGNN 180800Z AUTO 36006KT 6SM 25/17 A2985 RMK T02500170 IEM_DS3505
ZGNN,2000-10-18 09:00,ZGNN 180900Z AUTO 34006KT 19SM 25/17 A2985 RMK SLP111 T02520169 57008 IEM_DS3505
ZGNN,2000-10-18 10:00,ZGNN 181000Z AUTO 00000KT 7SM 24/18 A2988 RMK T02400180 IEM_DS3505
ZGNN,2000-10-18 11:00,ZGNN 181100Z AUTO 02004KT 7SM 24/19 A2988 RMK T02400190 IEM_DS3505
ZGNN,2000-10-18 12:00,ZGNN 181200Z AUTO 00000KT 17SM 23/19 A2991 RMK SLP123 T02300186 52012 IEM_DS3505
ZGNN,2000-10-18 13:00,ZGNN 181300Z AUTO 00000KT 7SM 22/18 A2991 RMK T02200180 IEM_DS3505
ZGNN,2000-10-18 15:00,ZGNN 181500Z AUTO 00000KT 16SM 22/19 RMK SLP135 T02240186 52013 IEM_DS3505
ZGNN,2000-10-18 18:00,ZGNN 181800Z AUTO 36002KT 11SM 20/19 RMK 60000 SLP132 T02020189 57003 IEM_DS3505
ZGNN,2000-10-18 21:00,ZGNN 182100Z AUTO 00000KT 9SM 19/19 RMK 70061 SLP123 T01900187 57009 IEM_DS3505
ZGNN,2000-10-18 22:00,ZGNN 182200Z AUTO 36004KT 3SM 19/19 A2991 RMK T01900190 IEM_DS3505
ZGNN,2000-10-18 23:00,ZGNN 182300Z AUTO 33006KT 2 1/2SM 19/18 A2991 RMK T01900180 IEM_DS3505
ZGNN,2000-10-19 00:00,ZGNN 190000Z AUTO 34004KT 2 1/2SM 19/18 A2994 RMK 60067 SLP137 T01900185 52013 IEM_DS3505
ZGNN,2000-10-19 01:00,ZGNN 190100Z AUTO 33006KT 1 1/2SM 19/19 A2997 RMK T01900190 IEM_DS3505
ZGNN,2000-10-19 02:00,ZGNN 190200Z AUTO 33008KT 4SM 19/19 A2997 RMK T01900190 IEM_DS3505
ZGNN,2000-10-19 03:00,ZGNN 190300Z AUTO 32004KT 5SM 19/19 A2997 RMK SLP143 T01940186 52006 IEM_DS3505
ZGNN,2000-10-19 04:00,ZGNN 190400Z AUTO 33006KT 4SM 19/18 A2994 RMK T01900180 IEM_DS3505
ZGNN,2000-10-19 05:00,ZGNN 190500Z AUTO 34006KT 4SM 19/18 A2991 RMK T01900180 IEM_DS3505
ZGNN,2000-10-19 06:00,ZGNN 190600Z AUTO 34004KT 4SM 19/19 A2988 RMK 60063 SLP119 T01920187 57025 IEM_DS3505
ZGNN,2000-10-19 07:00,ZGNN 190700Z AUTO 34004KT 4SM 19/19 A2988 RMK T01900190 IEM_DS3505
ZGNN,2000-10-19 08:00,ZGNN 190800Z AUTO 34004KT 3SM 19/18 A2985 RMK T01900180 IEM_DS3505
ZGNN,2000-10-19 09:00,ZGNN 190900Z AUTO 02004KT 5SM 19/18 A2985 RMK SLP113 T01920184 57006 IEM_DS3505
ZGNN,2000-10-19 10:00,ZGNN 191000Z AUTO 00000KT 2 1/2SM 19/19 A2988 RMK T01900190 IEM_DS3505
ZGNN,2000-10-19 11:00,ZGNN 191100Z AUTO 01004KT 2SM 19/18 A2988 RMK T01900180 IEM_DS3505
ZGNN,2000-10-19 12:00,ZGNN 191200Z AUTO 00000KT 4SM 19/19 A2988 RMK 60008 SLP119 T01900187 52006 IEM_DS3505
ZGNN,2000-10-19 13:00,ZGNN 191300Z AUTO 33004KT 2SM 19/18 A2991 RMK T01900180 IEM_DS3505
ZGNN,2000-10-19 15:00,ZGNN 191500Z AUTO 00000KT 4SM 19/18 RMK SLP130 T01880185 52011 IEM_DS3505
ZGNN,2000-10-19 18:00,ZGNN 191800Z AUTO 34004KT 5SM 19/18 RMK 60008 SLP117 T01890184 57013 IEM_DS3505
ZGNN,2000-10-19 21:00,ZGNN 192100Z AUTO 34002KT 7SM 19/18 A2985 RMK 70084 SLP108 T01880185 57009 IEM_DS3505
ZGNN,2000-10-19 22:00,ZGNN 192200Z AUTO 00000KT 2 1/2SM 19/18 A2988 RMK T01900180 IEM_DS3505
ZGNN,2000-10-19 23:00,ZGNN 192300Z AUTO 00000KT 4SM 19/19 A2988 RMK T01900190 IEM_DS3505
ZGNN,2000-10-20 00:00,ZGNN 200000Z AUTO 36002KT 4SM 19/19 A2991 RMK 60002 SLP130 T01920189 52022 IEM_DS3505
ZGNN,2000-10-20 01:00,ZGNN 200100Z AUTO 36006KT 1 1/4SM 19/19 A2994 RMK T01900190 IEM_DS3505
ZGNN,2000-10-20 02:00,ZGNN 200200Z AUTO 33006KT 2 1/2SM 20/19 A2994 RMK T02000190 IEM_DS3505
ZGNN,2000-10-20 03:00,ZGNN 200300Z AUTO 34006KT 5SM 20/19 A2994 RMK SLP139 T02000192 52009 IEM_DS3505
ZGNN,2000-10-20 04:00,ZGNN 200400Z AUTO 34006KT 3SM 20/20 A2994 RMK T02000200 IEM_DS3505
ZGNN,2000-10-20 05:00,ZGNN 200500Z AUTO 35006KT 2 1/2SM 20/20 A2991 RMK T02000200 IEM_DS3505
ZGNN,2000-10-20 06:00,ZGNN 200600Z AUTO 34008KT 4SM 20/20 A2988 RMK 60039 SLP115 T02050197 57024 IEM_DS3505
ZGNN,2000-10-20 07:00,ZGNN 200700Z AUTO 34006KT 4SM 21/20 A2985 RMK T02100200 IEM_DS3505
ZGNN,2000-10-20 08:00,ZGNN 200800Z AUTO 34006KT 2 1/2SM 21/20 A2985 RMK T02100200 IEM_DS3505
ZGNN,2000-10-20 09:00,ZGNN 200900Z AUTO 36004KT 2 1/2SM 20/19 A2985 RMK SLP108 T02020194 57007 IEM_DS3505
ZGNN,2000-10-20 10:00,ZGNN 201000Z AUTO 01004KT 3SM 20/20 A2985 RMK T02000200 IEM_DS3505
ZGNN,2000-10-20 11:00,ZGNN 201100Z AUTO 36004KT 3SM 20/20 A2988 RMK T02000200 IEM_DS3505
ZGNN,2000-10-20 12:00,ZGNN 201200Z AUTO 00000KT 2 1/2SM 20/20 A2991 RMK 60008 SLP120 T01980195 52012 IEM_DS3505
ZGNN,2000-10-20 13:00,ZGNN 201300Z AUTO 36004KT 2SM 20/20 A2991 RMK T02000200 IEM_DS3505
ZGNN,2000-10-20 14:00,ZGNN 201400Z AUTO 01002KT 3SM 20/20 A2991 RMK T02000200 IEM_DS3505
ZGNN,2000-10-20 15:00,ZGNN 201500Z AUTO 34004KT 2 1/2SM 20/19 A2991 RMK SLP129 T01970192 52009 IEM_DS3505
ZGNN,2000-10-20 16:00,ZGNN 201600Z AUTO 34008KT 3SM 19/19 A2991 RMK T01900190 IEM_DS3505
ZGNN,2000-10-20 18:00,ZGNN 201800Z AUTO 34004KT 2 1/2SM 19/19 RMK 60008 SLP116 T01930188 57012 IEM_DS3505
ZGNN,2000-10-20 21:00,ZGNN 202100Z AUTO 32004KT 2SM 19/19 RMK 70088 SLP111 T01920189 57005 IEM_DS3505
ZGNN,2000-10-20 22:00,ZGNN 202200Z AUTO 00000KT 7SM 19/19 A2988 RMK T01900190 IEM_DS3505
ZGNN,2000-10-20 23:00,ZGNN 202300Z AUTO 34004KT 3SM 19/19 A2991 RMK T01900190 IEM_DS3505
ZGNN,2000-10-21 00:00,ZGNN 210000Z AUTO 34004KT 2SM 19/19 A2991 RMK 60051 SLP129 T01930190 52017 IEM_DS3505
ZGNN,2000-10-21 01:00,ZGNN 210100Z AUTO 34008KT 4SM 20/19 A2994 RMK T02000190 IEM_DS3505
ZGNN,2000-10-21 02:00,ZGNN 210200Z AUTO 34004KT 2SM 20/19 A2994 RMK T02000190 IEM_DS3505
ZGNN,2000-10-21 03:00,ZGNN 210300Z AUTO 34004KT 4SM 20/20 A2994 RMK SLP130 T02020196 52001 IEM_DS3505
ZGNN,2000-10-21 04:00,ZGNN 210400Z AUTO 33008KT 1 1/2SM 21/20 A2991 RMK T02100200 IEM_DS3505
ZGNN,2000-10-21 05:00,ZGNN 210500Z AUTO 32004KT 2 1/2SM 21/20 A2988 RMK T02100200 IEM_DS3505
ZGNN,2000-10-21 06:00,ZGNN 210600Z AUTO 32004KT 4SM 21/20 A2985 RMK 60008 SLP105 T02060200 57024 IEM_DS3505
ZGNN,2000-10-21 07:00,ZGNN 210700Z AUTO 35008KT 4SM 21/20 A2983 RMK T02100200 IEM_DS3505
ZGNN,2000-10-21 08:00,ZGNN 210800Z AUTO 33006KT 4SM 21/20 A2983 RMK T02100200 IEM_DS3505
ZGNN,2000-10-21 09:00,ZGNN 210900Z AUTO 34004KT 4SM 21/20 A2983 RMK SLP097 T02080202 57008 IEM_DS3505
ZGNN,2000-10-21 10:00,ZGNN 211000Z AUTO 01004KT 4SM 21/20 A2985 RMK T02100200 IEM_DS3505
ZGNN,2000-10-21 11:00,ZGNN 211100Z AUTO 00000KT 4SM 21/20 A2985 RMK T02100200 IEM_DS3505
ZGNN,2000-10-21 12:00,ZGNN 211200Z AUTO 00000KT 2 1/2SM 21/20 A2988 RMK 60008 SLP114 T02060203 52017 IEM_DS3505
ZGNN,2000-10-21 13:00,ZGNN 211300Z AUTO 35004KT 2 1/2SM 21/20 A2991 RMK T02100200 IEM_DS3505
ZGNN,2000-10-21 15:00,ZGNN 211500Z AUTO 04002KT 2 1/2SM 20/20 RMK SLP123 T01990197 52009 IEM_DS3505
ZGNN,2000-10-21 18:00,ZGNN 211800Z AUTO 32004KT 3SM 20/20 RMK 60024 SLP114 T02010198 57009 IEM_DS3505
ZGNN,2000-10-21 21:00,ZGNN 212100Z AUTO 34004KT 5SM 20/19 A2985 RMK 70058 SLP105 T01990194 57009 IEM_DS3505
ZGNN,2000-10-21 22:00,ZGNN 212200Z AUTO 35006KT 4SM 20/19 A2988 RMK T02000190 IEM_DS3505
ZGNN,2000-10-21 23:00,ZGNN 212300Z AUTO 00000KT 7SM 20/19 A2988 RMK T02000190 IEM_DS3505
ZGNN,2000-10-22 00:00,ZGNN 220000Z AUTO 32002KT 5SM 20/20 A2991 RMK 60000 SLP121 T02010195 52016 IEM_DS3505
ZGNN,2000-10-22 01:00,ZGNN 220100Z AUTO 34004KT 7SM 21/20 A2991 RMK T02100200 IEM_DS3505
ZGNN,2000-10-22 02:00,ZGNN 220200Z AUTO 33004KT 7SM 21/20 A2994 RMK T02100200 IEM_DS3505
ZGNN,2000-10-22 03:00,ZGNN 220300Z AUTO 00000KT 8SM 22/20 A2994 RMK SLP132 T02180200 52011 IEM_DS3505
ZGNN,2000-10-22 04:00,ZGNN 220400Z AUTO 00000KT 7SM 23/21 A2991 RMK T02300210 IEM_DS3505
ZGNN,2000-10-22 05:00,ZGNN 220500Z AUTO 00000KT 7SM 23/21 A2988 RMK T02300210 IEM_DS3505
ZGNN,2000-10-22 06:00,ZGNN 220600Z AUTO 34004KT 11SM 24/21 A2985 RMK SLP102 T02350206 57029 IEM_DS3505
ZGNN,2000-10-22 07:00,ZGNN 220700Z AUTO 00000KT 7SM 24/21 A2983 RMK T02400210 IEM_DS3505
ZGNN,2000-10-22 08:00,ZGNN 220800Z AUTO 01004KT 7SM 24/21 A2983 RMK T02400210 IEM_DS3505
ZGNN,2000-10-22 09:00,ZGNN 220900Z AUTO 34004KT 12SM 24/21 A2983 RMK SLP094 T02400207 57008 IEM_DS3505
ZGNN,2000-10-22 10:00,ZGNN 221000Z AUTO 36004KT 7SM 24/21 A2983 RMK T02400210 IEM_DS3505
ZGNN,2000-10-22 11:00,ZGNN 221100Z AUTO 00000KT 7SM 23/21 A2985 RMK T02300210 IEM_DS3505
ZGNN,2000-10-22 12:00,ZGNN 221200Z AUTO 00000KT 12SM 23/22 A2985 RMK SLP109 T02290220 52014 IEM_DS3505
ZGNN,2000-10-22 13:00,ZGNN 221300Z AUTO 36004KT 7SM 23/21 A2988 RMK T02300210 IEM_DS3505
ZGNN,2000-10-22 15:00,ZGNN 221500Z AUTO 00000KT 12SM 22/20 RMK SLP111 T02190205 52003 IEM_DS3505
ZGNN,2000-10-22 18:00,ZGNN 221800Z AUTO 00000KT 11SM 21/21 RMK SLP111 T02130207 54000 IEM_DS3505
ZGNN,2000-10-22 21:00,ZGNN 222100Z AUTO 00000KT 9SM 21/21 A2985 RMK 70003 SLP108 T02140206 57003 IEM_DS3505
ZGNN,2000-10-22 22:00,ZGNN 222200Z AUTO 00000KT 5SM RMK IEM_DS3505
ZGNN,2000-10-22 23:00,ZGNN 222300Z AUTO 00000KT 5SM 22/21 A2988 RMK T02200210 IEM_DS3505
ZGNN,2000-10-23 00:00,ZGNN 230000Z AUTO 00000KT 2 1/2SM 22/21 A2991 RMK SLP124 T02170206 52016 IEM_DS3505
ZGNN,2000-10-23 01:00,ZGNN 230100Z AUTO 00000KT 4SM 23/21 A2994 RMK T02300210 IEM_DS3505
ZGNN,2000-10-23 02:00,ZGNN 230200Z AUTO 00000KT 5SM 24/21 A2994 RMK T02400210 IEM_DS3505
ZGNN,2000-10-23 03:00,ZGNN 230300Z AUTO 00000KT 8SM 24/21 A2994 RMK SLP132 T02440211 52008 IEM_DS3505
ZGNN,2000-10-23 04:00,ZGNN 230400Z AUTO 00000KT 7SM 26/21 A2991 RMK T02600210 IEM_DS3505
ZGNN,2000-10-23 05:00,ZGNN 230500Z AUTO 00000KT 7SM 26/21 A2988 RMK T02600210 IEM_DS3505
ZGNN,2000-10-23 06:00,ZGNN 230600Z AUTO 09002KT 7SM 27/23 A2985 RMK SLP101 T02690230 57030 IEM_DS3505
ZGNN,2000-10-23 07:00,ZGNN 230700Z AUTO 00000KT 7SM 28/21 A2983 RMK T02800210 IEM_DS3505
ZGNN,2000-10-23 08:00,ZGNN 230800Z AUTO 00000KT 7SM 29/21 A2983 RMK T02900210 IEM_DS3505
ZGNN,2000-10-23 09:00,ZGNN 230900Z AUTO 09002KT 7SM 28/25 A2983 RMK SLP092 T02820247 57009 IEM_DS3505
ZGNN,2000-10-23 10:00,ZGNN 231000Z AUTO 00000KT 7SM 27/22 A2983 RMK T02700220 IEM_DS3505
ZGNN,2000-10-23 11:00,ZGNN 231100Z AUTO 36004KT 7SM 25/22 A2985 RMK T02500220 IEM_DS3505
ZGNN,2000-10-23 12:00,ZGNN 231200Z AUTO 00000KT 7SM 24/23 A2985 RMK SLP109 T02380226 52016 IEM_DS3505
ZGNN,2000-10-23 13:00,ZGNN 231300Z AUTO 36004KT 6SM 23/22 A2988 RMK T02300220 IEM_DS3505
ZGNN,2000-10-23 14:00,ZGNN 231400Z AUTO 36004KT 6SM 23/22 A2988 RMK T02300220 IEM_DS3505
ZGNN,2000-10-23 15:00,ZGNN 231500Z AUTO 36002KT 7SM 23/22 A2991 RMK SLP120 T02290220 52011 IEM_DS3505
ZGNN,2000-10-23 18:00,ZGNN 231800Z AUTO 00000KT 7SM 22/22 RMK SLP119 T02240221 54000 IEM_DS3505
ZGNN,2000-10-23 21:00,ZGNN 232100Z AUTO 00000KT 2 1/2SM 23/22 RMK SLP120 T02260222 52001 IEM_DS3505
ZGNN,2000-10-23 22:00,ZGNN 232200Z AUTO 00000KT 3SM 23/22 A2991 RMK T02300220 IEM_DS3505
ZGNN,2000-10-23 23:00,ZGNN 232300Z AUTO 00000KT 1 1/4SM 23/22 A2994 RMK T02300220 IEM_DS3505
ZGNN,2000-10-24 00:00,ZGNN 240000Z AUTO 00000KT 2SM 24/23 A2997 RMK SLP142 T02350232 52021 IEM_DS3505
ZGNN,2000-10-24 01:00,ZGNN 240100Z AUTO 00000KT 2SM 24/23 A3000 RMK T02400230 IEM_DS3505
ZGNN,2000-10-24 02:00,ZGNN 240200Z AUTO 00000KT 2 1/2SM 25/24 A3000 RMK T02500240 IEM_DS3505
ZGNN,2000-10-24 03:00,ZGNN 240300Z AUTO 09002KT 4SM 26/24 A3000 RMK SLP155 T02600237 52013 IEM_DS3505
ZGNN,2000-10-24 04:00,ZGNN 240400Z AUTO 00000KT 7SM 29/24 A2997 RMK T02900240 IEM_DS3505
ZGNN,2000-10-24 05:00,ZGNN 240500Z AUTO 13006KT 7SM 29/24 A2994 RMK T02900240 IEM_DS3505
ZGNN,2000-10-24 06:00,ZGNN 240600Z AUTO 18004KT 11SM 31/23 A2991 RMK SLP122 T03070232 57031 IEM_DS3505
ZGNN,2000-10-24 07:00,ZGNN 240700Z AUTO 11004KT 7SM 31/23 A2988 RMK T03100230 IEM_DS3505
ZGNN,2000-10-24 08:00,ZGNN 240800Z AUTO 19002KT 7SM 32/22 A2988 RMK T03200220 IEM_DS3505
ZGNN,2000-10-24 09:00,ZGNN 240900Z AUTO 22002KT 12SM 31/23 A2988 RMK SLP113 T03140226 57009 IEM_DS3505
ZGNN,2000-10-24 10:00,ZGNN 241000Z AUTO 10004KT 7SM 30/23 A2988 RMK T03000230 IEM_DS3505
ZGNN,2000-10-24 11:00,ZGNN 241100Z AUTO 11004KT 7SM 28/24 A2988 RMK T02800240 IEM_DS3505
ZGNN,2000-10-24 12:00,ZGNN 241200Z AUTO 00000KT 12SM 27/24 A2991 RMK SLP125 T02660240 52011 IEM_DS3505
ZGNN,2000-10-24 15:00,ZGNN 241500Z AUTO 00000KT 12SM 24/23 RMK SLP141 T02440231 52016 IEM_DS3505
ZGNN,2000-10-24 18:00,ZGNN 241800Z AUTO 00000KT 11SM 23/22 RMK SLP138 T02300224 57002 IEM_DS3505
ZGNN,2000-10-24 21:00,ZGNN 242100Z AUTO 00000KT 9SM 22/22 A2997 RMK SLP140 T02220216 52002 IEM_DS3505
ZGNN,2000-10-24 22:00,ZGNN 242200Z AUTO 36004KT 6SM 22/22 A2997 RMK T02200220 IEM_DS3505
ZGNN,2000-10-24 23:00,ZGNN 242300Z AUTO 36002KT 6SM RMK IEM_DS3505
ZGNN,2000-10-25 00:00,ZGNN 250000Z AUTO 00000KT 6SM 23/22 A3000 RMK SLP157 T02260219 52015 IEM_DS3505
ZGNN,2000-10-25 01:00,ZGNN 250100Z AUTO 06004KT 5SM 26/23 A3003 RMK T02600230 IEM_DS3505
ZGNN,2000-10-25 02:00,ZGNN 250200Z AUTO 03002KT 7SM 27/24 A3006 RMK T02700240 IEM_DS3505
ZGNN,2000-10-25 03:00,ZGNN 250300Z AUTO 27004KT 9SM 28/24 A3003 RMK SLP167 T02820239 52011 IEM_DS3505
ZGNN,2000-10-25 04:00,ZGNN 250400Z AUTO 7SM 31/23 A3003 RMK T03100230 IEM_DS3505
ZGNN,2000-10-25 05:00,ZGNN 250500Z AUTO 10006KT 7SM 31/23 A3000 RMK T03100230 IEM_DS3505
ZGNN,2000-10-25 06:00,ZGNN 250600Z AUTO 14004KT 11SM 31/23 A2994 RMK SLP136 T03100233 57030 IEM_DS3505
ZGNN,2000-10-25 07:00,ZGNN 250700Z AUTO 00000KT 7SM 33/24 A2994 RMK T03300240 IEM_DS3505
ZGNN,2000-10-25 08:00,ZGNN 250800Z AUTO 17006KT 7SM 32/23 A2991 RMK T03200230 IEM_DS3505
ZGNN,2000-10-25 09:00,ZGNN 250900Z AUTO 18002KT 11SM 31/23 A2991 RMK SLP121 T03140228 57015 IEM_DS3505
ZGNN,2000-10-25 10:00,ZGNN 251000Z AUTO 00000KT 7SM 30/23 A2991 RMK T03000230 IEM_DS3505
ZGNN,2000-10-25 11:00,ZGNN 251100Z AUTO 36004KT 6SM 27/24 A2991 RMK T02700240 IEM_DS3505
ZGNN,2000-10-25 12:00,ZGNN 251200Z AUTO 00000KT 12SM 26/24 A2994 RMK SLP144 T02610239 52021 IEM_DS3505
ZGNN,2000-10-25 13:00,ZGNN 251300Z AUTO 36006KT 6SM 25/24 A2997 RMK T02500240 IEM_DS3505
ZGNN,2000-10-25 15:00,ZGNN 251500Z AUTO 00000KT 12SM 24/23 RMK SLP157 T02440231 52014 IEM_DS3505
ZGNN,2000-10-25 18:00,ZGNN 251800Z AUTO 34002KT 9SM 24/23 RMK SLP153 T02360227 57003 IEM_DS3505
ZGNN,2000-10-25 21:00,ZGNN 252100Z AUTO 25004KT 7SM 24/23 RMK 70010 SLP147 T02380234 57006 IEM_DS3505
ZGNN,2000-10-25 22:00,ZGNN 252200Z AUTO 32004KT 6SM 24/22 A2997 RMK T02400220 IEM_DS3505
ZGNN,2000-10-25 23:00,ZGNN 252300Z AUTO 00000KT 6SM 24/22 A3000 RMK T02400220 IEM_DS3505
ZGNN,2000-10-26 00:00,ZGNN 260000Z AUTO 09004KT 2 1/2SM 24/23 A3003 RMK 60012 SLP166 T02360232 52017 IEM_DS3505
ZGNN,2000-10-26 01:00,ZGNN 260100Z AUTO 05008KT 7SM 24/23 A3006 RMK T02400230 IEM_DS3505
ZGNN,2000-10-26 02:00,ZGNN 260200Z AUTO 09008KT 7SM 25/23 A3009 RMK T02500230 IEM_DS3505
ZGNN,2000-10-26 03:00,ZGNN 260300Z AUTO 34004KT 7SM 24/23 A3006 RMK SLP181 T02450229 52015 IEM_DS3505
ZGNN,2000-10-26 04:00,ZGNN 260400Z AUTO 32004KT 7SM 26/24 A3003 RMK T02600240 IEM_DS3505
ZGNN,2000-10-26 05:00,ZGNN 260500Z AUTO 31004KT 7SM 28/23 A3000 RMK T02800230 IEM_DS3505
ZGNN,2000-10-26 06:00,ZGNN 260600Z AUTO 09004KT 16SM 28/24 A2997 RMK 60028 SLP149 T02840235 57031 IEM_DS3505
ZGNN,2000-10-26 07:00,ZGNN 260700Z AUTO 08006KT 7SM 29/23 A2994 RMK T02900230 IEM_DS3505
ZGNN,2000-10-26 09:00,ZGNN 260900Z AUTO 02002KT 12SM 28/23 A2994 RMK SLP135 T02830229 57014 IEM_DS3505
ZGNN,2000-10-26 10:00,ZGNN 261000Z AUTO 04006KT 6SM 27/23 A2994 RMK T02700230 IEM_DS3505
ZGNN,2000-10-26 11:00,ZGNN 261100Z AUTO 04006KT 6SM 25/23 A2997 RMK T02500230 IEM_DS3505
ZGNN,2000-10-26 12:00,ZGNN 261200Z AUTO 09002KT 11SM 25/22 A3000 RMK SLP152 T02490224 52016 IEM_DS3505
ZGNN,2000-10-26 13:00,ZGNN 261300Z AUTO 02004KT 6SM 24/22 A3000 RMK T02400220 IEM_DS3505
ZGNN,2000-10-26 15:00,ZGNN 261500Z AUTO 00000KT 10SM 24/22 RMK SLP162 T02380220 52010 IEM_DS3505
ZGNN,2000-10-26 18:00,ZGNN 261800Z AUTO 00000KT 9SM 24/22 RMK SLP162 T02370219 52001 IEM_DS3505
ZGNN,2000-10-26 21:00,ZGNN 262100Z AUTO 00000KT 9SM 23/22 A3000 RMK 70026 SLP157 T02280218 57005 IEM_DS3505
ZGNN,2000-10-26 22:00,ZGNN 262200Z AUTO 00000KT 7SM 23/22 A3003 RMK T02300220 IEM_DS3505
ZGNN,2000-10-26 23:00,ZGNN 262300Z AUTO 00000KT 7SM 23/22 A3003 RMK T02300220 IEM_DS3505
ZGNN,2000-10-27 00:00,ZGNN 270000Z AUTO 00000KT 12SM 23/22 A3006 RMK 60003 SLP179 T02330220 52021 IEM_DS3505
ZGNN,2000-10-27 01:00,ZGNN 270100Z AUTO 03006KT 7SM 24/23 A3009 RMK T02400230 IEM_DS3505
ZGNN,2000-10-27 02:00,ZGNN 270200Z AUTO 03006KT 7SM 25/21 A3012 RMK T02500210 IEM_DS3505
ZGNN,2000-10-27 03:00,ZGNN 270300Z AUTO 07004KT 16SM 25/21 A3009 RMK SLP187 T02540209 52008 IEM_DS3505
ZGNN,2000-10-27 04:00,ZGNN 270400Z AUTO 04006KT 7SM RMK IEM_DS3505
ZGNN,2000-10-27 05:00,ZGNN 270500Z AUTO 07008KT 7SM 26/21 A3006 RMK T02600210 IEM_DS3505
ZGNN,2000-10-27 06:00,ZGNN 270600Z AUTO 07004KT 17SM 26/21 A3003 RMK SLP163 T02650208 57024 IEM_DS3505
ZGNN,2000-10-27 07:00,ZGNN 270700Z AUTO 01008KT 7SM 27/21 A3000 RMK T02700210 IEM_DS3505
ZGNN,2000-10-27 08:00,ZGNN 270800Z AUTO 03008KT 7SM 26/21 A3000 RMK T02600210 IEM_DS3505
ZGNN,2000-10-27 09:00,ZGNN 270900Z AUTO 09002KT 12SM 26/21 A3000 RMK SLP153 T02550212 57010 IEM_DS3505
ZGNN,2000-10-27 10:00,ZGNN 271000Z AUTO 07006KT 7SM 25/20 A3000 RMK T02500200 IEM_DS3505
ZGNN,2000-10-27 11:00,ZGNN 271100Z AUTO 04004KT 7SM 24/21 A3000 RMK T02400210 IEM_DS3505
ZGNN,2000-10-27 12:00,ZGNN 271200Z AUTO 00000KT 12SM 23/21 A3003 RMK SLP168 T02320212 52014 IEM_DS3505
ZGNN,2000-10-27 13:00,ZGNN 271300Z AUTO 05004KT 7SM 23/21 A3006 RMK T02300210 IEM_DS3505
ZGNN,2000-10-27 15:00,ZGNN 271500Z AUTO 00000KT 11SM 22/21 RMK SLP179 T02240210 52012 IEM_DS3505
ZGNN,2000-10-27 18:00,ZGNN 271800Z AUTO 34002KT 11SM 22/20 RMK SLP173 T02220200 57006 IEM_DS3505
ZGNN,2000-10-27 21:00,ZGNN 272100Z AUTO 00000KT 9SM 22/20 RMK 70003 SLP166 T02200195 57007 IEM_DS3505
ZGNN,2000-10-27 22:00,ZGNN 272200Z AUTO 00000KT 7SM 22/20 A3003 RMK T02200200 IEM_DS3505
ZGNN,2000-10-27 23:00,ZGNN 272300Z AUTO 00000KT 7SM 22/20 A3006 RMK T02200200 IEM_DS3505
ZGNN,2000-10-28 00:00,ZGNN 280000Z AUTO 00000KT 7SM 22/20 A3006 RMK SLP177 T02180196 52010 IEM_DS3505
ZGNN,2000-10-28 01:00,ZGNN 280100Z AUTO 10006KT 7SM 23/20 A3009 RMK T02300200 IEM_DS3505
ZGNN,2000-10-28 02:00,ZGNN 280200Z AUTO 08006KT 7SM 23/20 A3009 RMK T02300200 IEM_DS3505
ZGNN,2000-10-28 03:00,ZGNN 280300Z AUTO 02004KT 6SM 24/19 A3009 RMK SLP188 T02440191 52011 IEM_DS3505
ZGNN,2000-10-28 04:00,ZGNN 280400Z AUTO 05008KT 7SM 25/19 A3006 RMK T02500190 IEM_DS3505
ZGNN,2000-10-28 05:00,ZGNN 280500Z AUTO 03004KT 6SM 26/20 A3003 RMK T02600200 IEM_DS3505
ZGNN,2000-10-28 06:00,ZGNN 280600Z AUTO 34002KT 6SM 27/20 A3000 RMK T02700200 IEM_DS3505
ZGNN,2000-10-28 07:00,ZGNN 280700Z AUTO 34004KT 6SM 28/20 A2997 RMK T02800200 IEM_DS3505
ZGNN,2000-10-28 08:00,ZGNN 280800Z AUTO 34006KT 6SM 27/20 A2997 RMK T02700200 IEM_DS3505
ZGNN,2000-10-28 09:00,ZGNN 280900Z AUTO 34006KT 6SM 27/21 A2997 RMK SLP146 T02690206 57012 IEM_DS3505
ZGNN,2000-10-28 10:00,ZGNN 281000Z AUTO 35004KT 7SM 26/21 A2997 RMK T02600210 IEM_DS3505
ZGNN,2000-10-28 11:00,ZGNN 281100Z AUTO 02004KT 7SM 24/21 A2997 RMK T02400210 IEM_DS3505
ZGNN,2000-10-28 12:00,ZGNN 281200Z AUTO 00000KT 9SM 24/21 A3000 RMK SLP157 T02390207 52010 IEM_DS3505
ZGNN,2000-10-28 13:00,ZGNN 281300Z AUTO 36002KT 6SM 23/20 A3003 RMK T02300200 IEM_DS3505
ZGNN,2000-10-28 15:00,ZGNN 281500Z AUTO 00000KT 7SM 22/20 RMK SLP172 T02190201 52015 IEM_DS3505
ZGNN,2000-10-28 18:00,ZGNN 281800Z AUTO 00000KT 5SM 21/20 RMK SLP168 T02070198 57003 IEM_DS3505
ZGNN,2000-10-28 21:00,ZGNN 282100Z AUTO 04002KT 5SM 21/18 A3003 RMK SLP162 T02060179 57006 IEM_DS3505
ZGNN,2000-10-28 22:00,ZGNN 282200Z AUTO 04008KT 7SM 21/17 A3003 RMK T02100170 IEM_DS3505
ZGNN,2000-10-28 23:00,ZGNN 282300Z AUTO 04006KT 7SM 21/17 A3006 RMK T02100170 IEM_DS3505
ZGNN,2000-10-29 00:00,ZGNN 290000Z AUTO 07004KT 5SM 20/16 A3012 RMK SLP193 T01990157 52029 IEM_DS3505
ZGNN,2000-10-29 01:00,ZGNN 290100Z AUTO 04006KT 7SM 20/16 A3015 RMK T02000160 IEM_DS3505
ZGNN,2000-10-29 02:00,ZGNN 290200Z AUTO 01008KT 7SM 21/14 A3018 RMK T02100140 IEM_DS3505
ZGNN,2000-10-29 03:00,ZGNN 290300Z AUTO 36008KT 19SM 21/13 A3015 RMK SLP212 T02060129 52019 IEM_DS3505
ZGNN,2000-10-29 04:00,ZGNN 290400Z AUTO 01008KT 7SM 21/14 A3015 RMK T02100140 IEM_DS3505
ZGNN,2000-10-29 05:00,ZGNN 290500Z AUTO 34010KT 7SM 22/13 A3012 RMK T02200130 IEM_DS3505
ZGNN,2000-10-29 06:00,ZGNN 290600Z AUTO 34010KT 19SM 22/13 A3009 RMK SLP183 T02200126 57029 IEM_DS3505
ZGNN,2000-10-29 07:00,ZGNN 290700Z AUTO 01012KT 7SM 23/13 A3006 RMK T02300130 IEM_DS3505
ZGNN,2000-10-29 08:00,ZGNN 290800Z AUTO 01010KT 7SM 23/13 A3006 RMK T02300130 IEM_DS3505
ZGNN,2000-10-29 09:00,ZGNN 290900Z AUTO 34008KT 19SM 22/12 A3006 RMK SLP176 T02200124 57007 IEM_DS3505
ZGNN,2000-10-29 10:00,ZGNN 291000Z AUTO 33006KT 7SM 21/13 A3006 RMK T02100130 IEM_DS3505
ZGNN,2000-10-29 11:00,ZGNN 291100Z AUTO 00000KT 6SM 19/14 A3009 RMK T01900140 IEM_DS3505
ZGNN,2000-10-29 12:00,ZGNN 291200Z AUTO 02004KT 16SM 18/13 A3009 RMK SLP189 T01840127 52012 IEM_DS3505
ZGNN,2000-10-29 13:00,ZGNN 291300Z AUTO 00000KT 6SM 18/14 A3012 RMK T01800140 IEM_DS3505
ZGNN,2000-10-29 15:00,ZGNN 291500Z AUTO 34004KT 16SM 19/12 RMK SLP196 T01860124 52007 IEM_DS3505
ZGNN,2000-10-29 18:00,ZGNN 291800Z AUTO 36004KT 14SM 19/11 RMK SLP177 T01900108 57018 IEM_DS3505
ZGNN,2000-10-29 21:00,ZGNN 292100Z AUTO 34004KT 16SM 16/10 A3003 RMK SLP169 T01650105 57009 IEM_DS3505
ZGNN,2000-10-29 22:00,ZGNN 292200Z AUTO 34004KT 6SM 16/11 A3003 RMK T01600110 IEM_DS3505
ZGNN,2000-10-29 23:00,ZGNN 292300Z AUTO 34004KT 6SM 16/10 A3003 RMK T01600100 IEM_DS3505
ZGNN,2000-10-30 00:00,ZGNN 300000Z AUTO 34006KT 19SM 17/10 A3006 RMK SLP174 T01660102 52005 IEM_DS3505
ZGNN,2000-10-30 01:00,ZGNN 300100Z AUTO 34008KT 6SM 19/09 A3006 RMK T01900090 IEM_DS3505
ZGNN,2000-10-30 02:00,ZGNN 300200Z AUTO 35006KT 6SM 21/09 A3006 RMK T02100090 IEM_DS3505
ZGNN,2000-10-30 03:00,ZGNN 300300Z AUTO 32006KT 19SM 21/06 A3003 RMK SLP165 T02090061 57008 IEM_DS3505
ZGNN,2000-10-30 04:00,ZGNN 300400Z AUTO 02008KT 6SM 22/07 A3000 RMK T02200070 IEM_DS3505
ZGNN,2000-10-30 05:00,ZGNN 300500Z AUTO 36006KT 6SM 24/08 A2997 RMK T02400080 IEM_DS3505
ZGNN,2000-10-30 06:00,ZGNN 300600Z AUTO 34010KT 19SM 24/09 A2994 RMK SLP130 T02380092 57034 IEM_DS3505
ZGNN,2000-10-30 07:00,ZGNN 300700Z AUTO 03006KT 6SM 24/08 A2991 RMK T02400080 IEM_DS3505
ZGNN,2000-10-30 08:00,ZGNN 300800Z AUTO 36008KT 6SM 24/08 A2988 RMK T02400080 IEM_DS3505
ZGNN,2000-10-30 09:00,ZGNN 300900Z AUTO 29004KT 19SM 24/09 A2988 RMK SLP115 T02380092 57015 IEM_DS3505
ZGNN,2000-10-30 10:00,ZGNN 301000Z AUTO 00000KT 6SM 23/09 A2988 RMK T02300090 IEM_DS3505
ZGNN,2000-10-30 11:00,ZGNN 301100Z AUTO 00000KT 6SM 19/14 A2991 RMK T01900140 IEM_DS3505
ZGNN,2000-10-30 12:00,ZGNN 301200Z AUTO 00000KT 19SM 18/13 A2991 RMK SLP130 T01830130 52013 IEM_DS3505
ZGNN,2000-10-30 13:00,ZGNN 301300Z AUTO 35004KT 6SM 18/14 A2994 RMK T01800140 IEM_DS3505
ZGNN,2000-10-30 14:00,ZGNN 301400Z AUTO 35004KT 6SM 18/14 A2994 RMK T01800140 IEM_DS3505
ZGNN,2000-10-30 15:00,ZGNN 301500Z AUTO 00000KT 17SM 17/14 A2997 RMK SLP142 T01700144 52013 IEM_DS3505
ZGNN,2000-10-30 16:00,ZGNN 301600Z AUTO 00000KT 6SM 17/14 A2997 RMK T01700140 IEM_DS3505
ZGNN,2000-10-30 18:00,ZGNN 301800Z AUTO 00000KT 12SM 16/13 RMK SLP148 T01620134 52006 IEM_DS3505
ZGNN,2000-10-30 21:00,ZGNN 302100Z AUTO 00000KT 12SM 16/13 RMK SLP148 T01580133 54000 IEM_DS3505
ZGNN,2000-10-30 22:00,ZGNN 302200Z AUTO 00000KT 6SM 16/14 A3000 RMK T01600140 IEM_DS3505
ZGNN,2000-10-30 23:00,ZGNN 302300Z AUTO 00000KT 6SM 16/14 A3003 RMK T01600140 IEM_DS3505
ZGNN,2000-10-31 00:00,ZGNN 310000Z AUTO 00000KT 16SM 18/13 A3006 RMK SLP172 T01800131 52023 IEM_DS3505
ZGNN,2000-10-31 01:00,ZGNN 310100Z AUTO 35006KT 6SM 19/12 A3006 RMK T01900120 IEM_DS3505
ZGNN,2000-10-31 02:00,ZGNN 310200Z AUTO 35014KT 6SM 21/11 A3006 RMK T02100110 IEM_DS3505
ZGNN,2000-10-31 03:00,ZGNN 310300Z AUTO 36012KT 16SM 21/09 A3006 RMK SLP177 T02080088 52005 IEM_DS3505
ZGNN,2000-10-31 04:00,ZGNN 310400Z AUTO 33012KT 7SM 22/09 A3006 RMK T02200090 IEM_DS3505
ZGNN,2000-10-31 05:00,ZGNN 310500Z AUTO 35012KT 7SM 23/08 A3003 RMK T02300080 IEM_DS3505
ZGNN,2000-10-31 06:00,ZGNN 310600Z AUTO 02012KT 19SM 23/05 A3000 RMK SLP152 T02290047 57024 IEM_DS3505
ZGNN,2000-10-31 07:00,ZGNN 310700Z AUTO 35012KT 7SM 24/05 A2997 RMK T02400050 IEM_DS3505
ZGNN,2000-10-31 08:00,ZGNN 310800Z AUTO 36012KT 7SM 24/03 A2997 RMK T02400030 IEM_DS3505
ZGNN,2000-10-31 09:00,ZGNN 310900Z AUTO 36008KT 19SM 24/04 A2997 RMK SLP146 T02350042 57006 IEM_DS3505
ZGNN,2000-10-31 10:00,ZGNN 311000Z AUTO 35008KT 7SM 23/04 A3000 RMK T02300040 IEM_DS3505
ZGNN,2000-10-31 11:00,ZGNN 311100Z AUTO 36004KT 7SM 21/07 A3000 RMK T02100070 IEM_DS3505
ZGNN,2000-10-31 12:00,ZGNN 311200Z AUTO 36006KT 19SM 20/05 A3003 RMK SLP160 T02040053 52014 IEM_DS3505
ZGNN,2000-10-31 13:00,ZGNN 311300Z AUTO 34004KT 6SM 17/09 A3003 RMK T01700090 IEM_DS3505
ZGNN,2000-10-31 14:00,ZGNN 311400Z AUTO 34004KT 6SM 16/10 A3003 RMK T01600100 IEM_DS3505
ZGNN,2000-10-31 15:00,ZGNN 311500Z AUTO 34006KT 19SM 19/06 A3006 RMK SLP172 T01940057 52012 IEM_DS3505
ZGNN,2000-10-31 18:00,ZGNN 311800Z AUTO 36006KT 16SM 18/06 RMK SLP178 T01830065 52006 IEM_DS3505
ZGNN,2000-10-31 21:00,ZGNN 312100Z AUTO 00000KT 14SM 13/10 A3012 RMK SLP191 T01320099 52012 IEM_DS3505
ZGNN,2000-10-31 22:00,ZGNN 312200Z AUTO 34004KT 6SM 13/09 A3012 RMK T01300090 IEM_DS3505
ZGNN,2000-10-31 23:00,ZGNN 312300Z AUTO 34004KT 6SM 13/09 A3015 RMK T01300090 IEM_DS3505
ZGNN,2000-11-01 00:00,ZGNN 010000Z AUTO 02004KT 17SM 17/05 A3015 RMK SLP207 T01680052 52016 IEM_DS3505
ZGNN,2000-11-01 01:00,ZGNN 010100Z AUTO 36008KT 6SM 19/07 A3015 RMK T01900070 IEM_DS3505
ZGNN,2000-11-01 02:00,ZGNN 010200Z AUTO 01014KT 6SM 21/06 A3018 RMK T02100060 IEM_DS3505
ZGNN,2000-11-01 03:00,ZGNN 010300Z AUTO 36010KT 19SM 21/04 A3015 RMK SLP207 T02120039 54000 IEM_DS3505
ZGNN,2000-11-01 04:00,ZGNN 010400Z AUTO 34014KT 6SM 23/05 A3015 RMK T02300050 IEM_DS3505
ZGNN,2000-11-01 05:00,ZGNN 010500Z AUTO 34010KT 6SM 24/05 A3012 RMK T02400050 IEM_DS3505
ZGNN,2000-11-01 06:00,ZGNN 010600Z AUTO 34010KT 19SM 24/04 A3006 RMK SLP176 T02400038 57030 IEM_DS3505
ZGNN,2000-11-01 07:00,ZGNN 010700Z AUTO 01008KT 6SM 24/04 A3006 RMK T02400040 IEM_DS3505
ZGNN,2000-11-01 08:00,ZGNN 010800Z AUTO 34012KT 6SM 24/04 A3003 RMK T02400040 IEM_DS3505
ZGNN,2000-11-01 09:00,ZGNN 010900Z AUTO 36006KT 19SM 24/04 A3006 RMK SLP170 T02370042 57007 IEM_DS3505
ZGNN,2000-11-01 10:00,ZGNN 011000Z AUTO 35008KT 6SM 21/06 A3006 RMK T02100060 IEM_DS3505
ZGNN,2000-11-01 11:00,ZGNN 011100Z AUTO 34004KT 6SM 18/08 A3009 RMK T01800080 IEM_DS3505
ZGNN,2000-11-01 12:00,ZGNN 011200Z AUTO 00000KT 16SM 16/09 A3009 RMK SLP192 T01610092 52021 IEM_DS3505
ZGNN,2000-11-01 13:00,ZGNN 011300Z AUTO 33004KT 6SM 16/09 A3012 RMK T01600090 IEM_DS3505
ZGNN,2000-11-01 15:00,ZGNN 011500Z AUTO 00000KT 12SM 12/10 RMK SLP209 T01190100 52017 IEM_DS3505
ZGNN,2000-11-01 18:00,ZGNN 011800Z AUTO 00000KT 12SM 13/08 RMK SLP206 T01270083 57003 IEM_DS3505
ZGNN,2000-11-01 21:00,ZGNN 012100Z AUTO 00000KT 12SM 09/07 RMK SLP205 T00940073 57001 IEM_DS3505
ZGNN,2000-11-01 22:00,ZGNN 012200Z AUTO 00000KT 6SM 09/08 A3018 RMK T00900080 IEM_DS3505
ZGNN,2000-11-01 23:00,ZGNN 012300Z AUTO 00000KT 6SM 09/08 A3018 RMK T00900080 IEM_DS3505
ZGNN,2000-11-02 00:00,ZGNN 020000Z AUTO 00000KT 11SM 10/08 A3021 RMK SLP223 T00960084 52015 IEM_DS3505
ZGNN,2000-11-02 01:00,ZGNN 020100Z AUTO 00000KT 6SM 16/11 A3021 RMK T01600110 IEM_DS3505
ZGNN,2000-11-02 02:00,ZGNN 020200Z AUTO 09004KT 6SM 19/07 A3021 RMK T01900070 IEM_DS3505
ZGNN,2000-11-02 03:00,ZGNN 020300Z AUTO 02004KT 12SM 20/04 A3018 RMK SLP219 T01980037 57002 IEM_DS3505
ZGNN,2000-11-02 04:00,ZGNN 020400Z AUTO 33010KT 6SM 22/04 A3015 RMK T02200040 IEM_DS3505
ZGNN,2000-11-02 05:00,ZGNN 020500Z AUTO 36008KT 6SM 23/04 A3012 RMK T02300040 IEM_DS3505
ZGNN,2000-11-02 06:00,ZGNN 020600Z AUTO 34006KT 16SM 23/04 A3009 RMK SLP183 T02290043 57034 IEM_DS3505
ZGNN,2000-11-02 07:00,ZGNN 020700Z AUTO 34006KT 6SM 24/02 A3006 RMK T02400020 IEM_DS3505
ZGNN,2000-11-02 08:00,ZGNN 020800Z AUTO 34006KT 6SM 24/02 A3006 RMK T02400020 IEM_DS3505
ZGNN,2000-11-02 09:00,ZGNN 020900Z AUTO 34006KT 16SM 24/04 A3006 RMK SLP174 T02370042 57010 IEM_DS3505
ZGNN,2000-11-02 10:00,ZGNN 021000Z AUTO 34004KT 6SM 22/08 A3006 RMK T02200080 IEM_DS3505
ZGNN,2000-11-02 11:00,ZGNN 021100Z AUTO 33002KT 6SM 17/11 A3006 RMK T01700110 IEM_DS3505
ZGNN,2000-11-02 12:00,ZGNN 021200Z AUTO 00000KT 12SM 14/10 A3009 RMK SLP191 T01440102 52014 IEM_DS3505
ZGNN,2000-11-02 13:00,ZGNN 021300Z AUTO 00000KT 6SM 13/11 A3009 RMK T01300110 IEM_DS3505
ZGNN,2000-11-02 15:00,ZGNN 021500Z AUTO 00000KT 12SM 11/09 RMK SLP207 T01080092 52018 IEM_DS3505
ZGNN,2000-11-02 18:00,ZGNN 021800Z AUTO 00000KT 12SM 10/08 RMK SLP198 T00960084 57008 IEM_DS3505
ZGNN,2000-11-02 21:00,ZGNN 022100Z AUTO 00000KT 12SM 08/07 A3009 RMK SLP190 T00800074 57009 IEM_DS3505
ZGNN,2000-11-02 22:00,ZGNN 022200Z AUTO 00000KT 6SM 08/08 A3009 RMK T00800080 IEM_DS3505
ZGNN,2000-11-02 23:00,ZGNN 022300Z AUTO 00000KT 6SM 08/08 A3012 RMK T00800080 IEM_DS3505
ZGNN,2000-11-03 00:00,ZGNN 030000Z AUTO 00000KT 6SM 09/08 A3015 RMK SLP209 T00860080 52017 IEM_DS3505
ZGNN,2000-11-03 01:00,ZGNN 030100Z AUTO 00000KT 6SM 14/11 A3015 RMK T01400110 IEM_DS3505
ZGNN,2000-11-03 02:00,ZGNN 030200Z AUTO 00000KT 6SM 17/11 A3018 RMK T01700110 IEM_DS3505
ZGNN,2000-11-03 03:00,ZGNN 030300Z AUTO 09004KT 12SM 20/04 A3015 RMK SLP210 T02030045 52003 IEM_DS3505
ZGNN,2000-11-03 04:00,ZGNN 030400Z AUTO 07008KT 6SM 23/06 A3012 RMK T02300060 IEM_DS3505
ZGNN,2000-11-03 05:00,ZGNN 030500Z AUTO 07002KT 6SM 24/05 A3009 RMK T02400050 IEM_DS3505
ZGNN,2000-11-03 06:00,ZGNN 030600Z AUTO 09006KT 16SM 24/04 A3006 RMK SLP178 T02380044 57031 IEM_DS3505
ZGNN,2000-11-03 07:00,ZGNN 030700Z AUTO 32006KT 6SM 25/06 A3003 RMK T02500060 IEM_DS3505
ZGNN,2000-11-03 08:00,ZGNN 030800Z AUTO 35002KT 6SM 24/05 A3003 RMK T02400050 IEM_DS3505
ZGNN,2000-11-03 09:00,ZGNN 030900Z AUTO 29002KT 12SM 24/05 A3003 RMK SLP168 T02400051 57010 IEM_DS3505
ZGNN,2000-11-03 10:00,ZGNN 031000Z AUTO 00000KT 6SM 22/09 A3003 RMK T02200090 IEM_DS3505
ZGNN,2000-11-03 11:00,ZGNN 031100Z AUTO 32004KT 6SM 16/12 A3003 RMK T01600120 IEM_DS3505
ZGNN,2000-11-03 12:00,ZGNN 031200Z AUTO 00000KT 11SM 14/10 A3006 RMK SLP181 T01440100 52010 IEM_DS3505
ZGNN,2000-11-03 13:00,ZGNN 031300Z AUTO 34006KT 6SM 14/11 A3009 RMK T01400110 IEM_DS3505
ZGNN,2000-11-03 15:00,ZGNN 031500Z AUTO 00000KT 11SM 11/09 RMK SLP192 T01120094 52013 IEM_DS3505
ZGNN,2000-11-03 18:00,ZGNN 031800Z AUTO 00000KT 9SM 09/08 RMK SLP193 T00940082 52002 IEM_DS3505
ZGNN,2000-11-03 21:00,ZGNN 032100Z AUTO 00000KT 7SM 09/08 A3012 RMK SLP196 T00860078 52003 IEM_DS3505
ZGNN,2000-11-03 22:00,ZGNN 032200Z AUTO 00000KT 6SM 09/08 A3012 RMK T00900080 IEM_DS3505
ZGNN,2000-11-03 23:00,ZGNN 032300Z AUTO 12002KT 4SM 09/09 A3015 RMK T00900090 IEM_DS3505
ZGNN,2000-11-04 00:00,ZGNN 040000Z AUTO 00000KT 7SM 10/09 A3018 RMK SLP217 T01020092 52018 IEM_DS3505
ZGNN,2000-11-04 01:00,ZGNN 040100Z AUTO 00000KT 6SM 16/12 A3018 RMK T01600120 IEM_DS3505
ZGNN,2000-11-04 02:00,ZGNN 040200Z AUTO 34006KT 6SM 20/09 A3018 RMK T02000090 IEM_DS3505
ZGNN,2000-11-04 03:00,ZGNN 040300Z AUTO 36004KT 16SM 22/09 A3018 RMK SLP211 T02200090 57003 IEM_DS3505
ZGNN,2000-11-04 04:00,ZGNN 040400Z AUTO 32010KT 6SM 24/09 A3015 RMK T02400090 IEM_DS3505
ZGNN,2000-11-04 05:00,ZGNN 040500Z AUTO 34004KT 6SM 24/09 A3009 RMK T02400090 IEM_DS3505
ZGNN,2000-11-04 06:00,ZGNN 040600Z AUTO 34008KT 17SM 25/09 A3006 RMK SLP176 T02520087 57035 IEM_DS3505
ZGNN,2000-11-04 07:00,ZGNN 040700Z AUTO 01006KT 6SM 26/07 A3003 RMK T02600070 IEM_DS3505
ZGNN,2000-11-04 08:00,ZGNN 040800Z AUTO 33008KT 6SM 26/06 A3000 RMK T02600060 IEM_DS3505
ZGNN,2000-11-04 09:00,ZGNN 040900Z AUTO 36006KT 6SM 26/07 A3000 RMK T02600070 IEM_DS3505
ZGNN,2000-11-04 10:00,ZGNN 041000Z AUTO 34004KT 6SM 24/10 A3000 RMK T02400100 IEM_DS3505
ZGNN,2000-11-04 11:00,ZGNN 041100Z AUTO 34004KT 6SM 20/11 A3003 RMK T02000110 IEM_DS3505
ZGNN,2000-11-04 12:00,ZGNN 041200Z AUTO 00000KT 16SM 16/12 A3006 RMK SLP178 T01600116 52019 IEM_DS3505
ZGNN,2000-11-04 13:00,ZGNN 041300Z AUTO 01004KT 6SM 16/12 A3006 RMK T01600120 IEM_DS3505
ZGNN,2000-11-04 15:00,ZGNN 041500Z AUTO 00000KT 12SM 12/10 RMK SLP182 T01200097 52006 IEM_DS3505
ZGNN,2000-11-04 18:00,ZGNN 041800Z AUTO 00000KT 11SM 10/08 RMK SLP168 T00990085 57013 IEM_DS3505
ZGNN,2000-11-04 21:00,ZGNN 042100Z AUTO 00000KT 9SM 08/07 A3000 RMK SLP160 T00840071 57008 IEM_DS3505
ZGNN,2000-11-04 22:00,ZGNN 042200Z AUTO 00000KT 6SM 09/09 A3000 RMK T00900090 IEM_DS3505
ZGNN,2000-11-04 23:00,ZGNN 042300Z AUTO 00000KT 6SM 09/09 A3003 RMK T00900090 IEM_DS3505
ZGNN,2000-11-05 00:00,ZGNN 050000Z AUTO 00000KT 7SM 09/08 A3003 RMK SLP173 T00900084 52010 IEM_DS3505
ZGNN,2000-11-05 01:00,ZGNN 050100Z AUTO 00000KT 6SM 15/11 A3003 RMK T01500110 IEM_DS3505
ZGNN,2000-11-05 02:00,ZGNN 050200Z AUTO 00000KT 6SM 19/12 A3006 RMK T01900120 IEM_DS3505
ZGNN,2000-11-05 03:00,ZGNN 050300Z AUTO 16004KT 7SM 22/12 A3003 RMK SLP167 T02180121 57004 IEM_DS3505
ZGNN,2000-11-05 04:00,ZGNN 050400Z AUTO 00000KT 6SM 24/09 A3000 RMK T02400090 IEM_DS3505
ZGNN,2000-11-05 05:00,ZGNN 050500Z AUTO 00000KT 6SM 25/06 A2994 RMK T02500060 IEM_DS3505
ZGNN,2000-11-05 06:00,ZGNN 050600Z AUTO 27006KT 9SM 26/09 A2991 RMK SLP125 T02630086 57040 IEM_DS3505
ZGNN,2000-11-05 07:00,ZGNN 050700Z AUTO 00000KT 6SM 27/09 A2988 RMK T02700090 IEM_DS3505
ZGNN,2000-11-05 08:00,ZGNN 050800Z AUTO 00000KT 6SM 26/06 A2985 RMK T02600060 IEM_DS3505
ZGNN,2000-11-05 09:00,ZGNN 050900Z AUTO 34006KT 11SM 25/06 A2985 RMK SLP106 T02530065 57020 IEM_DS3505
ZGNN,2000-11-05 10:00,ZGNN 051000Z AUTO 00000KT 6SM 23/09 A2985 RMK T02300090 IEM_DS3505
ZGNN,2000-11-05 11:00,ZGNN 051100Z AUTO 00000KT 6SM 17/11 A2985 RMK T01700110 IEM_DS3505
ZGNN,2000-11-05 12:00,ZGNN 051200Z AUTO 00000KT 12SM 15/10 A2988 RMK SLP120 T01520105 52012 IEM_DS3505
ZGNN,2000-11-05 13:00,ZGNN 051300Z AUTO 00000KT 6SM 13/11 A2988 RMK T01300110 IEM_DS3505
ZGNN,2000-11-05 15:00,ZGNN 051500Z AUTO 00000KT 12SM 12/09 RMK SLP128 T01160090 52010 IEM_DS3505
ZGNN,2000-11-05 18:00,ZGNN 051800Z AUTO 00000KT 9SM 10/08 RMK SLP120 T00970085 57007 IEM_DS3505
ZGNN,2000-11-05 21:00,ZGNN 052100Z AUTO 00000KT 8SM 09/08 A2988 RMK SLP114 T00920080 57007 IEM_DS3505
ZGNN,2000-11-05 22:00,ZGNN 052200Z AUTO 00000KT 6SM 10/09 A2988 RMK T01000090 IEM_DS3505
ZGNN,2000-11-05 23:00,ZGNN 052300Z AUTO 00000KT 6SM 09/08 A2991 RMK T00900080 IEM_DS3505
ZGNN,2000-11-06 00:00,ZGNN 060000Z AUTO 18002KT 5SM 10/09 A2994 RMK SLP135 T01020092 52019 IEM_DS3505
ZGNN,2000-11-06 01:00,ZGNN 060100Z AUTO 26006KT 6SM 15/11 A2994 RMK T01500110 IEM_DS3505
ZGNN,2000-11-06 02:00,ZGNN 060200Z AUTO 16006KT 6SM 19/12 A2997 RMK T01900120 IEM_DS3505
ZGNN,2000-11-06 03:00,ZGNN 060300Z AUTO 00000KT 6SM 21/11 RMK SLP144 T02130111 52010 IEM_DS3505
ZGNN,2000-11-06 04:00,ZGNN 060400Z AUTO 00000KT 6SM 25/10 A2994 RMK T02500100 IEM_DS3505
ZGNN,2000-11-06 05:00,ZGNN 060500Z AUTO 00000KT 6SM 26/09 A2991 RMK T02600090 IEM_DS3505
ZGNN,2000-11-06 06:00,ZGNN 060600Z AUTO 00000KT 9SM 27/07 A2985 RMK SLP109 T02670068 57033 IEM_DS3505
ZGNN,2000-11-06 07:00,ZGNN 060700Z AUTO 20006KT 6SM 28/08 A2983 RMK T02800080 IEM_DS3505
ZGNN,2000-11-06 08:00,ZGNN 060800Z AUTO 14008KT 6SM 28/09 A2983 RMK T02800090 IEM_DS3505
ZGNN,2000-11-06 09:00,ZGNN 060900Z AUTO 00000KT 11SM 27/10 A2983 RMK SLP098 T02730105 57011 IEM_DS3505
ZGNN,2000-11-06 10:00,ZGNN 061000Z AUTO 00000KT 6SM 24/13 A2985 RMK T02400130 IEM_DS3505
ZGNN,2000-11-06 11:00,ZGNN 061100Z AUTO 34006KT 6SM 19/14 A2985 RMK T01900140 IEM_DS3505
ZGNN,2000-11-06 12:00,ZGNN 061200Z AUTO 00000KT 10SM 17/13 A2988 RMK SLP116 T01730133 52015 IEM_DS3505
ZGNN,2000-11-06 13:00,ZGNN 061300Z AUTO 33004KT 6SM 16/14 A2991 RMK T01600140 IEM_DS3505
ZGNN,2000-11-06 15:00,ZGNN 061500Z AUTO 00000KT 9SM 14/12 RMK SLP130 T01410117 52016 IEM_DS3505
ZGNN,2000-11-06 18:00,ZGNN 061800Z AUTO 00000KT 7SM 12/11 RMK SLP125 T01250108 57004 IEM_DS3505
ZGNN,2000-11-06 21:00,ZGNN 062100Z AUTO 00000KT 7SM 11/10 RMK SLP129 T01080100 52004 IEM_DS3505
ZGNN,2000-11-06 22:00,ZGNN 062200Z AUTO 00000KT 6SM 12/11 A2994 RMK T01200110 IEM_DS3505
ZGNN,2000-11-06 23:00,ZGNN 062300Z AUTO 00000KT 4SM 12/11 A2997 RMK T01200110 IEM_DS3505
ZGNN,2000-11-07 00:00,ZGNN 070000Z AUTO 00000KT 3SM 12/11 A3000 RMK SLP155 T01170109 52023 IEM_DS3505
ZGNN,2000-11-07 01:00,ZGNN 070100Z AUTO 00000KT 4SM 16/14 A3000 RMK T01600140 IEM_DS3505
ZGNN,2000-11-07 02:00,ZGNN 070200Z AUTO 00000KT 6SM 21/13 A3003 RMK T02100130 IEM_DS3505
ZGNN,2000-11-07 03:00,ZGNN 070300Z AUTO 27004KT 9SM 23/12 A3000 RMK SLP155 T02310117 52002 IEM_DS3505
ZGNN,2000-11-07 04:00,ZGNN 070400Z AUTO 00000KT 6SM 27/14 A2997 RMK T02700140 IEM_DS3505
ZGNN,2000-11-07 05:00,ZGNN 070500Z AUTO 35004KT 6SM 28/12 A2994 RMK T02800120 IEM_DS3505
ZGNN,2000-11-07 06:00,ZGNN 070600Z AUTO 18004KT 10SM 28/12 A2991 RMK SLP124 T02820122 57029 IEM_DS3505
ZGNN,2000-11-07 07:00,ZGNN 070700Z AUTO 01004KT 6SM 29/12 A2988 RMK T02900120 IEM_DS3505
ZGNN,2000-11-07 08:00,ZGNN 070800Z AUTO 33006KT 6SM 29/13 A2988 RMK T02900130 IEM_DS3505
ZGNN,2000-11-07 09:00,ZGNN 070900Z AUTO 32004KT 9SM 28/13 A2988 RMK SLP119 T02820127 57006 IEM_DS3505
ZGNN,2000-11-07 10:00,ZGNN 071000Z AUTO 34002KT 6SM 25/14 A2991 RMK T02500140 IEM_DS3505
ZGNN,2000-11-07 11:00,ZGNN 071100Z AUTO 34004KT 6SM 21/16 A2991 RMK T02100160 IEM_DS3505
ZGNN,2000-11-07 12:00,ZGNN 071200Z AUTO 00000KT 10SM 20/14 A2991 RMK SLP132 T01960145 52011 IEM_DS3505
ZGNN,2000-11-07 13:00,ZGNN 071300Z AUTO 00000KT 6SM 18/15 A2994 RMK T01800150 IEM_DS3505
ZGNN,2000-11-07 15:00,ZGNN 071500Z AUTO 00000KT 9SM 17/14 RMK SLP139 T01690145 52009 IEM_DS3505
ZGNN,2000-11-07 18:00,ZGNN 071800Z AUTO 00000KT 8SM 15/14 RMK SLP133 T01520138 57005 IEM_DS3505
ZGNN,2000-11-07 21:00,ZGNN 072100Z AUTO 00000KT 7SM 14/14 RMK SLP132 T01440135 57001 IEM_DS3505
ZGNN,2000-11-07 22:00,ZGNN 072200Z AUTO 00000KT 4SM 14/14 A2994 RMK T01400140 IEM_DS3505
ZGNN,2000-11-07 23:00,ZGNN 072300Z AUTO 00000KT 3SM 14/14 A2997 RMK T01400140 IEM_DS3505
ZGNN,2000-11-08 01:00,ZGNN 080100Z AUTO 18002KT 3SM 19/16 A3000 RMK T01900160 IEM_DS3505
ZGNN,2000-11-08 02:00,ZGNN 080200Z AUTO 00000KT 5SM 23/15 A3000 RMK T02300150 IEM_DS3505
ZGNN,2000-11-08 04:00,ZGNN 080400Z AUTO 36008KT 6SM 26/10 A2997 RMK T02600100 IEM_DS3505
ZGNN,2000-11-08 05:00,ZGNN 080500Z AUTO 32006KT 6SM 27/15 A2994 RMK T02700150 IEM_DS3505
ZGNN,2000-11-08 06:00,ZGNN 080600Z AUTO 04004KT 9SM 27/15 A2991 RMK SLP122 T02720152 57031 IEM_DS3505
ZGNN,2000-11-08 07:00,ZGNN 080700Z AUTO 00000KT 6SM 28/15 A2988 RMK T02800150 IEM_DS3505
ZGNN,2000-11-08 08:00,ZGNN 080800Z AUTO 33008KT 6SM 28/15 A2988 RMK T02800150 IEM_DS3505
ZGNN,2000-11-08 09:00,ZGNN 080900Z AUTO 04002KT 9SM 27/17 A2988 RMK SLP114 T02690169 57008 IEM_DS3505
ZGNN,2000-11-08 10:00,ZGNN 081000Z AUTO 05004KT 7SM 25/17 A2988 RMK T02500170 IEM_DS3505
ZGNN,2000-11-08 11:00,ZGNN 081100Z AUTO 03006KT 6SM 23/16 A2991 RMK T02300160 IEM_DS3505
ZGNN,2000-11-08 12:00,ZGNN 081200Z AUTO 00000KT 9SM 22/17 A2991 RMK SLP139 T02180166 52023 IEM_DS3505
ZGNN,2000-11-08 13:00,ZGNN 081300Z AUTO 02004KT 6SM 20/16 A2997 RMK T02000160 IEM_DS3505
ZGNN,2000-11-08 15:00,ZGNN 081500Z AUTO 00000KT 7SM 19/16 RMK SLP151 T01890157 52014 IEM_DS3505
ZGNN,2000-11-08 18:00,ZGNN 081800Z AUTO 00000KT 4SM 16/14 RMK SLP145 T01580144 57006 IEM_DS3505
ZGNN,2000-11-08 21:00,ZGNN 082100Z AUTO 00000KT 4SM 14/13 RMK SLP139 T01360129 57007 IEM_DS3505
ZGNN,2000-11-08 22:00,ZGNN 082200Z AUTO 00000KT 4SM 14/14 A2997 RMK T01400140 IEM_DS3505
ZGNN,2000-11-08 23:00,ZGNN 082300Z AUTO 00000KT 1 1/2SM 14/14 A2997 RMK T01400140 IEM_DS3505
ZGNN,2000-11-09 00:00,ZGNN 090000Z AUTO 00000KT 2 1/2SM 14/13 A3000 RMK SLP155 T01350131 52015 IEM_DS3505
ZGNN,2000-11-09 01:00,ZGNN 090100Z AUTO 00000KT 1 1/4SM 18/16 A3000 RMK T01800160 IEM_DS3505
ZGNN,2000-11-09 02:00,ZGNN 090200Z AUTO 07006KT 1 1/2SM 21/17 A3003 RMK T02100170 IEM_DS3505
ZGNN,2000-11-09 03:00,ZGNN 090300Z AUTO 27002KT 2 1/2SM 22/15 A3003 RMK SLP158 T02240151 52004 IEM_DS3505
ZGNN,2000-11-09 04:00,ZGNN 090400Z AUTO 14006KT 24/15 A3000 RMK T02400150 IEM_DS3505
ZGNN,2000-11-09 05:00,ZGNN 090500Z AUTO 04006KT 5SM 25/15 A2994 RMK T02500150 IEM_DS3505
ZGNN,2000-11-09 07:00,ZGNN 090700Z AUTO 03006KT 5SM 26/15 A2988 RMK T02600150 IEM_DS3505
ZGNN,2000-11-09 08:00,ZGNN 090800Z AUTO 00000KT 6SM 26/16 A2988 RMK T02600160 IEM_DS3505
ZGNN,2000-11-09 09:00,ZGNN 090900Z AUTO 09004KT 5SM 26/15 A2988 RMK SLP117 T02550152 57007 IEM_DS3505
ZGNN,2000-11-09 10:00,ZGNN 091000Z AUTO 06006KT 6SM 23/16 A2988 RMK T02300160 IEM_DS3505
ZGNN,2000-11-09 11:00,ZGNN 091100Z AUTO 05004KT 6SM 21/17 A2991 RMK T02100170 IEM_DS3505
ZGNN,2000-11-09 12:00,ZGNN 091200Z AUTO 09002KT 4SM 21/16 A2997 RMK SLP144 T02060163 52026 IEM_DS3505
ZGNN,2000-11-09 13:00,ZGNN 091300Z AUTO 06004KT 6SM 20/17 A3000 RMK T02000170 IEM_DS3505
ZGNN,2000-11-09 15:00,ZGNN 091500Z AUTO 04004KT 4SM 19/16 RMK SLP162 T01910159 52019 IEM_DS3505
ZGNN,2000-11-09 18:00,ZGNN 091800Z AUTO 00000KT 5SM 18/16 RMK SLP167 T01790157 52006 IEM_DS3505
ZGNN,2000-11-09 21:00,ZGNN 092100Z AUTO 09002KT 6SM 16/15 A3006 RMK SLP174 T01640154 52006 IEM_DS3505
ZGNN,2000-11-09 22:00,ZGNN 092200Z AUTO 00000KT 5SM 17/16 A3009 RMK T01700160 IEM_DS3505
ZGNN,2000-11-09 23:00,ZGNN 092300Z AUTO 7SM 17/16 A3012 RMK T01700160 IEM_DS3505
ZGNN,2000-11-10 00:00,ZGNN 100000Z AUTO 00000KT 6SM 18/16 A3015 RMK SLP201 T01750163 52026 IEM_DS3505
ZGNN,2000-11-10 01:00,ZGNN 100100Z AUTO 06004KT 7SM 19/17 A3015 RMK T01900170 IEM_DS3505
ZGNN,2000-11-10 02:00,ZGNN 100200Z AUTO 04006KT 7SM 21/17 A3018 RMK T02100170 IEM_DS3505
ZGNN,2000-11-10 03:00,ZGNN 100300Z AUTO 09004KT 7SM 22/16 A3018 RMK SLP211 T02240165 52011 IEM_DS3505
ZGNN,2000-11-10 04:00,ZGNN 100400Z AUTO 13004KT 7SM 24/17 A3015 RMK T02400170 IEM_DS3505
ZGNN,2000-11-10 05:00,ZGNN 100500Z AUTO 14006KT 7SM 25/17 A3012 RMK T02500170 IEM_DS3505
ZGNN,2000-11-10 06:00,ZGNN 100600Z AUTO 04004KT 9SM 25/17 A3009 RMK SLP177 T02520167 57033 IEM_DS3505
ZGNN,2000-11-10 07:00,ZGNN 100700Z AUTO 09006KT 7SM 27/17 A3006 RMK T02700170 IEM_DS3505
ZGNN,2000-11-10 08:00,ZGNN 100800Z AUTO 03006KT 7SM 26/16 A3003 RMK T02600160 IEM_DS3505
ZGNN,2000-11-10 09:00,ZGNN 100900Z AUTO 04004KT 9SM 26/16 A3003 RMK SLP169 T02550163 57009 IEM_DS3505
ZGNN,2000-11-10 10:00,ZGNN 101000Z AUTO 08008KT 7SM 23/17 A3006 RMK T02300170 IEM_DS3505
ZGNN,2000-11-10 11:00,ZGNN 101100Z AUTO 05006KT 7SM 22/17 A3009 RMK T02200170 IEM_DS3505
ZGNN,2000-11-10 12:00,ZGNN 101200Z AUTO 07004KT 9SM 21/16 A3012 RMK SLP195 T02140160 52025 IEM_DS3505
ZGNN,2000-11-10 13:00,ZGNN 101300Z AUTO 05010KT 6SM 20/15 A3015 RMK T02000150 IEM_DS3505
ZGNN,2000-11-10 15:00,ZGNN 101500Z AUTO 07002KT 9SM 18/14 RMK SLP210 T01840145 52015 IEM_DS3505
ZGNN,2000-11-10 18:00,ZGNN 101800Z AUTO 00000KT 9SM 16/12 RMK SLP212 T01630119 52003 IEM_DS3505
ZGNN,2000-11-10 21:00,ZGNN 102100Z AUTO 00000KT 9SM 14/11 RMK SLP208 T01420110 57005 IEM_DS3505
ZGNN,2000-11-10 22:00,ZGNN 102200Z AUTO 00000KT 7SM 14/12 A3018 RMK T01400120 IEM_DS3505
ZGNN,2000-11-10 23:00,ZGNN 102300Z AUTO 00000KT 7SM 14/11 A3021 RMK T01400110 IEM_DS3505
ZGNN,2000-11-11 00:00,ZGNN 110000Z AUTO 04004KT 11SM 14/10 A3024 RMK SLP233 T01450105 52024 IEM_DS3505
ZGNN,2000-11-11 01:00,ZGNN 110100Z AUTO 02008KT 7SM 16/11 A3024 RMK T01600110 IEM_DS3505
ZGNN,2000-11-11 02:00,ZGNN 110200Z AUTO 07006KT 7SM 18/12 A3027 RMK T01800120 IEM_DS3505
ZGNN,2000-11-11 03:00,ZGNN 110300Z AUTO 09006KT 10SM 19/11 A3024 RMK SLP234 T01940110 52001 IEM_DS3505
ZGNN,2000-11-11 04:00,ZGNN 110400Z AUTO 35006KT 7SM 21/12 A3021 RMK T02100120 IEM_DS3505
ZGNN,2000-11-11 05:00,ZGNN 110500Z AUTO 01004KT 7SM 21/12 A3018 RMK T02100120 IEM_DS3505
ZGNN,2000-11-11 06:00,ZGNN 110600Z AUTO 09002KT 9SM 22/12 A3012 RMK SLP199 T02160121 57034 IEM_DS3505
ZGNN,2000-11-11 07:00,ZGNN 110700Z AUTO 05006KT 7SM 21/13 A3009 RMK T02100130 IEM_DS3505
ZGNN,2000-11-11 08:00,ZGNN 110800Z AUTO 02008KT 7SM 20/12 A3009 RMK T02000120 IEM_DS3505
ZGNN,2000-11-11 09:00,ZGNN 110900Z AUTO 04006KT 9SM 19/11 A3009 RMK SLP194 T01900114 57006 IEM_DS3505
ZGNN,2000-11-11 10:00,ZGNN 111000Z AUTO 04008KT 7SM 17/11 A3012 RMK T01700110 IEM_DS3505
ZGNN,2000-11-11 11:00,ZGNN 111100Z AUTO 03006KT 7SM 16/10 A3015 RMK T01600100 IEM_DS3505
ZGNN,2000-11-11 12:00,ZGNN 111200Z AUTO 09002KT 9SM 15/09 A3018 RMK SLP223 T01540094 52027 IEM_DS3505
ZGNN,2000-11-11 13:00,ZGNN 111300Z AUTO 05006KT 7SM 15/10 A3021 RMK T01500100 IEM_DS3505
ZGNN,2000-11-11 14:00,ZGNN 111400Z AUTO 06006KT 7SM 15/10 A3024 RMK T01500100 IEM_DS3505
ZGNN,2000-11-11 15:00,ZGNN 111500Z AUTO 04002KT 9SM 15/09 RMK SLP237 T01460091 52015 IEM_DS3505
ZGNN,2000-11-11 18:00,ZGNN 111800Z AUTO 04002KT 7SM 14/09 RMK SLP239 T01420091 52003 IEM_DS3505
ZGNN,2000-11-11 21:00,ZGNN 112100Z AUTO 36006KT 7SM 12/08 A3024 RMK SLP235 T01230076 57005 IEM_DS3505
ZGNN,2000-11-11 22:00,ZGNN 112200Z AUTO 00000KT 7SM 12/08 A3024 RMK T01200080 IEM_DS3505
ZGNN,2000-11-11 23:00,ZGNN 112300Z AUTO 00000KT 6SM 10/08 A3027 RMK T01000080 IEM_DS3505
ZGNN,2000-11-12 00:00,ZGNN 120000Z AUTO 36008KT 9SM 11/08 A3027 RMK SLP245 T01070080 52008 IEM_DS3505
ZGNN,2000-11-12 01:00,ZGNN 120100Z AUTO 36004KT 6SM 14/07 A3027 RMK T01400070 IEM_DS3505
ZGNN,2000-11-12 02:00,ZGNN 120200Z AUTO 35010KT 6SM 16/07 A3030 RMK T01600070 IEM_DS3505
ZGNN,2000-11-12 03:00,ZGNN 120300Z AUTO 34010KT 12SM 16/06 A3030 RMK SLP254 T01620064 52010 IEM_DS3505
ZGNN,2000-11-12 04:00,ZGNN 120400Z AUTO 34008KT 7SM 18/07 A3024 RMK T01800070 IEM_DS3505
ZGNN,2000-11-12 05:00,ZGNN 120500Z AUTO 02012KT 7SM 18/08 A3021 RMK T01800080 IEM_DS3505
ZGNN,2000-11-12 06:00,ZGNN 120600Z AUTO 34010KT 16SM 18/07 A3018 RMK SLP217 T01840069 57036 IEM_DS3505
ZGNN,2000-11-12 07:00,ZGNN 120700Z AUTO 08004KT 6SM 19/08 A3015 RMK T01900080 IEM_DS3505
ZGNN,2000-11-12 08:00,ZGNN 120800Z AUTO 01008KT 6SM 20/09 A3012 RMK T02000090 IEM_DS3505
ZGNN,2000-11-12 09:00,ZGNN 120900Z AUTO 04002KT 16SM 19/09 A3015 RMK SLP205 T01860087 57012 IEM_DS3505
ZGNN,2000-11-12 10:00,ZGNN 121000Z AUTO 04008KT 6SM 18/08 A3015 RMK T01800080 IEM_DS3505
ZGNN,2000-11-12 11:00,ZGNN 121100Z AUTO 02006KT 6SM 16/09 A3015 RMK T01600090 IEM_DS3505
ZGNN,2000-11-12 12:00,ZGNN 121200Z AUTO 36002KT 16SM 14/09 A3018 RMK SLP220 T01420087 52013 IEM_DS3505
ZGNN,2000-11-12 13:00,ZGNN 121300Z AUTO 00000KT 6SM 14/09 A3021 RMK T01400090 IEM_DS3505
ZGNN,2000-11-12 15:00,ZGNN 121500Z AUTO 00000KT 16SM 11/09 RMK SLP228 T01120088 52009 IEM_DS3505
ZGNN,2000-11-12 18:00,ZGNN 121800Z AUTO 00000KT 16SM 11/08 RMK SLP218 T01120081 57010 IEM_DS3505
ZGNN,2000-11-12 21:00,ZGNN 122100Z AUTO 00000KT 12SM 11/07 A3015 RMK SLP212 T01120066 57005 IEM_DS3505
ZGNN,2000-11-12 22:00,ZGNN 122200Z AUTO 00000KT 7SM 11/08 A3018 RMK T01100080 IEM_DS3505
ZGNN,2000-11-12 23:00,ZGNN 122300Z AUTO 00000KT 7SM 11/08 A3018 RMK T01100080 IEM_DS3505
ZGNN,2000-11-13 00:00,ZGNN 130000Z AUTO 00000KT 11SM 12/08 A3018 RMK SLP226 T01180077 52012 IEM_DS3505
ZGNN,2000-11-13 01:00,ZGNN 130100Z AUTO 00000KT 7SM 13/07 A3021 RMK T01300070 IEM_DS3505
ZGNN,2000-11-13 02:00,ZGNN 130200Z AUTO 00000KT 7SM 14/07 A3021 RMK T01400070 IEM_DS3505
ZGNN,2000-11-13 03:00,ZGNN 130300Z AUTO 34006KT 12SM 15/06 A3021 RMK SLP225 T01520056 54000 IEM_DS3505
ZGNN,2000-11-13 04:00,ZGNN 130400Z AUTO 02006KT 7SM 17/08 A3015 RMK T01700080 IEM_DS3505
ZGNN,2000-11-13 05:00,ZGNN 130500Z AUTO 03008KT 7SM 18/08 A3012 RMK T01800080 IEM_DS3505
ZGNN,2000-11-13 06:00,ZGNN 130600Z AUTO 09004KT 11SM 18/08 A3009 RMK SLP183 T01820079 57041 IEM_DS3505
ZGNN,2000-11-13 07:00,ZGNN 130700Z AUTO 06004KT 7SM 19/08 A3006 RMK T01900080 IEM_DS3505
ZGNN,2000-11-13 08:00,ZGNN 130800Z AUTO 06006KT 7SM 19/08 A3003 RMK T01900080 IEM_DS3505
ZGNN,2000-11-13 09:00,ZGNN 130900Z AUTO 11004KT 10SM 18/08 A3003 RMK SLP168 T01840084 57015 IEM_DS3505
ZGNN,2000-11-13 10:00,ZGNN 131000Z AUTO 07006KT 7SM 18/09 A3003 RMK T01800090 IEM_DS3505
ZGNN,2000-11-13 11:00,ZGNN 131100Z AUTO 00000KT 7SM 17/10 A3006 RMK T01700100 IEM_DS3505
ZGNN,2000-11-13 12:00,ZGNN 131200Z AUTO 07004KT 11SM 17/08 A3006 RMK SLP184 T01720085 52016 IEM_DS3505
ZGNN,2000-11-13 13:00,ZGNN 131300Z AUTO 06004KT 7SM 17/09 A3009 RMK T01700090 IEM_DS3505
ZGNN,2000-11-13 14:00,ZGNN 131400Z AUTO 09004KT 7SM 16/09 A3009 RMK T01600090 IEM_DS3505
ZGNN,2000-11-13 18:00,ZGNN 131800Z AUTO 00000KT 9SM 16/11 RMK SLP192 T01600110 57001 IEM_DS3505
ZGNN,2000-11-13 21:00,ZGNN 132100Z AUTO 00000KT 9SM 16/12 A3006 RMK SLP177 T01580118 57015 IEM_DS3505
ZGNN,2000-11-13 22:00,ZGNN 132200Z AUTO 00000KT 7SM 16/11 A3006 RMK T01600110 IEM_DS3505
ZGNN,2000-11-13 23:00,ZGNN 132300Z AUTO 00000KT 7SM 16/11 A3006 RMK T01600110 IEM_DS3505
ZGNN,2000-11-14 00:00,ZGNN 140000Z AUTO 00000KT 8SM 16/11 A3009 RMK SLP184 T01620110 52007 IEM_DS3505
ZGNN,2000-11-14 01:00,ZGNN 140100Z AUTO 00000KT 7SM 17/11 A3012 RMK T01700110 IEM_DS3505
ZGNN,2000-11-14 02:00,ZGNN 140200Z AUTO 00000KT 7SM 18/11 A3012 RMK T01800110 IEM_DS3505
ZGNN,2000-11-14 03:00,ZGNN 140300Z AUTO 34004KT 7SM 18/11 A3012 RMK SLP200 T01850106 52016 IEM_DS3505
ZGNN,2000-11-14 04:00,ZGNN 140400Z AUTO 33002KT 7SM 19/11 A3012 RMK T01900110 IEM_DS3505
ZGNN,2000-11-14 05:00,ZGNN 140500Z AUTO 01006KT 7SM 20/11 A3009 RMK T02000110 IEM_DS3505
ZGNN,2000-11-14 06:00,ZGNN 140600Z AUTO 02002KT 7SM 20/12 A3006 RMK SLP174 T02000122 57025 IEM_DS3505
ZGNN,2000-11-14 07:00,ZGNN 140700Z AUTO 02002KT 7SM 21/12 A3003 RMK T02100120 IEM_DS3505
ZGNN,2000-11-14 08:00,ZGNN 140800Z AUTO 34006KT 7SM 20/13 A3003 RMK T02000130 IEM_DS3505
ZGNN,2000-11-14 09:00,ZGNN 140900Z AUTO 34004KT 7SM 20/13 A3000 RMK SLP162 T02020131 57012 IEM_DS3505
ZGNN,2000-11-14 10:00,ZGNN 141000Z AUTO 01002KT 7SM 20/14 A3003 RMK T02000140 IEM_DS3505
ZGNN,2000-11-14 11:00,ZGNN 141100Z AUTO 00000KT 7SM 19/14 A3003 RMK T01900140 IEM_DS3505
ZGNN,2000-11-14 12:00,ZGNN 141200Z AUTO 00000KT 7SM 19/15 A3006 RMK T01900150 IEM_DS3505
ZGNN,2000-11-14 13:00,ZGNN 141300Z AUTO 00000KT 7SM 19/15 A3006 RMK T01900150 IEM_DS3505
ZGNN,2000-11-14 14:00,ZGNN 141400Z AUTO 00000KT 7SM 18/15 A3009 RMK T01800150 IEM_DS3505
ZGNN,2000-11-14 15:00,ZGNN 141500Z AUTO 00000KT 7SM 19/14 RMK SLP183 T01860143 52009 IEM_DS3505
ZGNN,2000-11-14 18:00,ZGNN 141800Z AUTO 00000KT 7SM 18/13 RMK SLP182 T01800134 57001 IEM_DS3505
ZGNN,2000-11-14 21:00,ZGNN 142100Z AUTO 00000KT 6SM 18/15 A3006 RMK SLP179 T01760147 57003 IEM_DS3505
ZGNN,2000-11-14 22:00,ZGNN 142200Z AUTO 00000KT 3SM 18/15 A3009 RMK T01800150 IEM_DS3505
ZGNN,2000-11-14 23:00,ZGNN 142300Z AUTO 00000KT 2 1/2SM 18/15 A3009 RMK T01800150 IEM_DS3505
ZGNN,2000-11-15 00:00,ZGNN 150000Z AUTO 00000KT 5SM 18/14 A3012 RMK SLP198 T01790145 52019 IEM_DS3505
ZGNN,2000-11-15 01:00,ZGNN 150100Z AUTO 36004KT 3SM 19/15 A3015 RMK T01900150 IEM_DS3505
ZGNN,2000-11-15 02:00,ZGNN 150200Z AUTO 35004KT 4SM 20/15 A3018 RMK T02000150 IEM_DS3505
ZGNN,2000-11-15 03:00,ZGNN 150300Z AUTO 36004KT 5SM 20/14 A3015 RMK SLP208 T02020142 52010 IEM_DS3505
ZGNN,2000-11-15 04:00,ZGNN 150400Z AUTO 33008KT 6SM 22/15 A3015 RMK T02200150 IEM_DS3505
ZGNN,2000-11-15 05:00,ZGNN 150500Z AUTO 33010KT 6SM 22/14 A3009 RMK T02200140 IEM_DS3505
ZGNN,2000-11-15 06:00,ZGNN 150600Z AUTO 02006KT 9SM 23/14 A3006 RMK SLP177 T02260143 57030 IEM_DS3505
ZGNN,2000-11-15 07:00,ZGNN 150700Z AUTO 02004KT 6SM 23/15 A3006 RMK T02300150 IEM_DS3505
ZGNN,2000-11-15 08:00,ZGNN 150800Z AUTO 36004KT 6SM 24/15 A3003 RMK T02400150 IEM_DS3505
ZGNN,2000-11-15 09:00,ZGNN 150900Z AUTO 36004KT 10SM 23/15 A3006 RMK SLP173 T02290151 57004 IEM_DS3505
ZGNN,2000-11-15 10:00,ZGNN 151000Z AUTO 04004KT 6SM 22/16 A3006 RMK T02200160 IEM_DS3505
ZGNN,2000-11-15 11:00,ZGNN 151100Z AUTO 04006KT 7SM 21/15 A3009 RMK T02100150 IEM_DS3505
ZGNN,2000-11-15 12:00,ZGNN 151200Z AUTO 07002KT 9SM 21/15 A3012 RMK SLP200 T02080151 52026 IEM_DS3505
ZGNN,2000-11-15 13:00,ZGNN 151300Z AUTO 03006KT 7SM 20/14 A3015 RMK T02000140 IEM_DS3505
ZGNN,2000-11-15 14:00,ZGNN 151400Z AUTO 03006KT 7SM 20/14 A3015 RMK T02000140 IEM_DS3505
ZGNN,2000-11-15 15:00,ZGNN 151500Z AUTO 36006KT 9SM 20/14 RMK SLP215 T01980143 52015 IEM_DS3505
ZGNN,2000-11-15 18:00,ZGNN 151800Z AUTO 34004KT 9SM 18/13 RMK SLP215 T01850134 54000 IEM_DS3505
ZGNN,2000-11-15 21:00,ZGNN 152100Z AUTO 34006KT 9SM 17/12 A3015 RMK SLP208 T01740124 57007 IEM_DS3505
ZGNN,2000-11-15 22:00,ZGNN 152200Z AUTO 01006KT 7SM 17/12 A3018 RMK T01700120 IEM_DS3505
ZGNN,2000-11-15 23:00,ZGNN 152300Z AUTO 31010KT 7SM 17/12 A3021 RMK T01700120 IEM_DS3505
ZGNN,2000-11-16 00:00,ZGNN 160000Z AUTO 34008KT 12SM 16/11 A3021 RMK SLP227 T01640108 52018 IEM_DS3505
ZGNN,2000-11-16 01:00,ZGNN 160100Z AUTO 02010KT 6SM 17/10 A3024 RMK T01700100 IEM_DS3505
ZGNN,2000-11-16 02:00,ZGNN 160200Z AUTO 36008KT 6SM 18/10 A3024 RMK T01800100 IEM_DS3505
ZGNN,2000-11-16 03:00,ZGNN 160300Z AUTO 34012KT 16SM 19/10 A3024 RMK SLP234 T01880103 52008 IEM_DS3505
ZGNN,2000-11-16 04:00,ZGNN 160400Z AUTO 34012KT 6SM 21/11 A3021 RMK T02100110 IEM_DS3505
ZGNN,2000-11-16 05:00,ZGNN 160500Z AUTO 34012KT 6SM 22/11 A3018 RMK T02200110 IEM_DS3505
ZGNN,2000-11-16 06:00,ZGNN 160600Z AUTO 34008KT 19SM 22/10 A3012 RMK SLP200 T02150104 57034 IEM_DS3505
ZGNN,2000-11-16 07:00,ZGNN 160700Z AUTO 33008KT 6SM 23/11 A3009 RMK T02300110 IEM_DS3505
ZGNN,2000-11-16 08:00,ZGNN 160800Z AUTO 01012KT 6SM 24/11 A3006 RMK T02400110 IEM_DS3505
ZGNN,2000-11-16 09:00,ZGNN 160900Z AUTO 11006KT 16SM 22/12 A3012 RMK SLP193 T02210119 57007 IEM_DS3505
ZGNN,2000-11-16 10:00,ZGNN 161000Z AUTO 05010KT 6SM 21/11 A3015 RMK T02100110 IEM_DS3505
ZGNN,2000-11-16 11:00,ZGNN 161100Z AUTO 07014KT 6SM 20/11 A3015 RMK T02000110 IEM_DS3505
ZGNN,2000-11-16 12:00,ZGNN 161200Z AUTO 09006KT 12SM 19/10 A3018 RMK SLP222 T01870095 52028 IEM_DS3505
ZGNN,2000-11-16 13:00,ZGNN 161300Z AUTO 04008KT 6SM 18/10 A3021 RMK T01800100 IEM_DS3505
ZGNN,2000-11-16 14:00,ZGNN 161400Z AUTO 02008KT 6SM 17/09 A3024 RMK T01700090 IEM_DS3505
ZGNN,2000-11-16 15:00,ZGNN 161500Z AUTO 07006KT 12SM 16/09 RMK SLP240 T01590087 52017 IEM_DS3505
ZGNN,2000-11-16 18:00,ZGNN 161800Z AUTO 04004KT 12SM 15/08 RMK SLP236 T01500083 57003 IEM_DS3505
ZGNN,2000-11-16 21:00,ZGNN 162100Z AUTO 36006KT 12SM 15/08 A3024 RMK SLP238 T01480083 52002 IEM_DS3505
ZGNN,2000-11-16 22:00,ZGNN 162200Z AUTO 34006KT 6SM 15/08 A3024 RMK T01500080 IEM_DS3505
ZGNN,2000-11-16 23:00,ZGNN 162300Z AUTO 35004KT 6SM 15/08 A3027 RMK T01500080 IEM_DS3505
ZGNN,2000-11-17 00:00,ZGNN 170000Z AUTO 36008KT 16SM 15/08 A3027 RMK SLP254 T01480076 52015 IEM_DS3505
ZGNN,2000-11-17 01:00,ZGNN 170100Z AUTO 34004KT 6SM 16/08 A3030 RMK T01600080 IEM_DS3505
ZGNN,2000-11-17 02:00,ZGNN 170200Z AUTO 34010KT 6SM 17/08 A3030 RMK T01700080 IEM_DS3505
ZGNN,2000-11-17 03:00,ZGNN 170300Z AUTO 32010KT 16SM 17/07 A3027 RMK SLP251 T01710069 57003 IEM_DS3505
ZGNN,2000-11-17 04:00,ZGNN 170400Z AUTO 33006KT 6SM 18/08 A3024 RMK T01800080 IEM_DS3505
ZGNN,2000-11-17 05:00,ZGNN 170500Z AUTO 34010KT 6SM 20/09 A3018 RMK T02000090 IEM_DS3505
ZGNN,2000-11-17 06:00,ZGNN 170600Z AUTO 36008KT 14SM 19/07 A3015 RMK SLP205 T01920070 57045 IEM_DS3505
ZGNN,2000-11-17 07:00,ZGNN 170700Z AUTO 04004KT 6SM 20/09 A3012 RMK T02000090 IEM_DS3505
ZGNN,2000-11-17 08:00,ZGNN 170800Z AUTO 36004KT 6SM 20/09 A3012 RMK T02000090 IEM_DS3505
ZGNN,2000-11-17 09:00,ZGNN 170900Z AUTO 04004KT 16SM 19/08 A3012 RMK SLP194 T01940085 57011 IEM_DS3505
ZGNN,2000-11-17 10:00,ZGNN 171000Z AUTO 06006KT 6SM 18/09 A3012 RMK T01800090 IEM_DS3505
ZGNN,2000-11-17 11:00,ZGNN 171100Z AUTO 08002KT 6SM 18/09 A3015 RMK T01800090 IEM_DS3505
ZGNN,2000-11-17 12:00,ZGNN 171200Z AUTO 00000KT 12SM 17/10 A3015 RMK SLP209 T01710095 52014 IEM_DS3505
ZGNN,2000-11-17 13:00,ZGNN 171300Z AUTO 10002KT 6SM 17/10 A3018 RMK T01700100 IEM_DS3505
ZGNN,2000-11-17 14:00,ZGNN 171400Z AUTO 12002KT 6SM 16/09 A3018 RMK T01600090 IEM_DS3505
ZGNN,2000-11-17 15:00,ZGNN 171500Z AUTO 00000KT 12SM 16/09 RMK SLP211 T01650090 52003 IEM_DS3505
ZGNN,2000-11-17 18:00,ZGNN 171800Z AUTO 00000KT 12SM 15/10 RMK SLP206 T01520101 57005 IEM_DS3505
ZGNN,2000-11-17 21:00,ZGNN 172100Z AUTO 00000KT 12SM 16/08 RMK SLP199 T01600079 57007 IEM_DS3505
ZGNN,2000-11-17 22:00,ZGNN 172200Z AUTO 01002KT 7SM 16/09 A3015 RMK T01600090 IEM_DS3505
ZGNN,2000-11-17 23:00,ZGNN 172300Z AUTO 02002KT 7SM 16/09 A3015 RMK T01600090 IEM_DS3505
ZGNN,2000-11-18 00:00,ZGNN 180000Z AUTO 00000KT 11SM 16/08 A3018 RMK SLP213 T01570080 52013 IEM_DS3505
ZGNN,2000-11-18 01:00,ZGNN 180100Z AUTO 09006KT 7SM 16/08 A3018 RMK T01600080 IEM_DS3505
ZGNN,2000-11-18 02:00,ZGNN 180200Z AUTO 06006KT 7SM 16/08 A3018 RMK T01600080 IEM_DS3505
ZGNN,2000-11-18 03:00,ZGNN 180300Z AUTO 04004KT 7SM 17/08 A3018 RMK SLP216 T01680082 52003 IEM_DS3505
ZGNN,2000-11-18 04:00,ZGNN 180400Z AUTO 06008KT 7SM 17/09 A3015 RMK T01700090 IEM_DS3505
ZGNN,2000-11-18 05:00,ZGNN 180500Z AUTO 09004KT 7SM 18/08 A3012 RMK T01800080 IEM_DS3505
ZGNN,2000-11-18 06:00,ZGNN 180600Z AUTO 09004KT 7SM 18/08 A3009 RMK SLP182 T01750079 57033 IEM_DS3505
ZGNN,2000-11-18 07:00,ZGNN 180700Z AUTO 04004KT 7SM 18/09 A3006 RMK T01800090 IEM_DS3505
ZGNN,2000-11-18 08:00,ZGNN 180800Z AUTO 10006KT 7SM 17/09 A3006 RMK T01700090 IEM_DS3505
ZGNN,2000-11-18 09:00,ZGNN 180900Z AUTO 09004KT 7SM 16/09 A3006 RMK SLP179 T01650092 57003 IEM_DS3505
ZGNN,2000-11-18 10:00,ZGNN 181000Z AUTO 09004KT 7SM 16/10 A3006 RMK T01600100 IEM_DS3505
ZGNN,2000-11-18 11:00,ZGNN 181100Z AUTO 07006KT 7SM 16/10 A3009 RMK T01600100 IEM_DS3505
ZGNN,2000-11-18 12:00,ZGNN 181200Z AUTO 11006KT 7SM 15/10 A3012 RMK 60003 SLP196 T01540099 52016 IEM_DS3505
ZGNN,2000-11-18 13:00,ZGNN 181300Z AUTO 09004KT 7SM 13/13 A3012 RMK T01300130 IEM_DS3505
ZGNN,2000-11-18 15:00,ZGNN 181500Z AUTO 09002KT 7SM 13/12 RMK SLP196 T01330120 54000 IEM_DS3505
ZGNN,2000-11-18 18:00,ZGNN 181800Z AUTO 00000KT 7SM 13/12 RMK 60000 SLP189 T01340121 57007 IEM_DS3505
ZGNN,2000-11-18 21:00,ZGNN 182100Z AUTO 16002KT 6SM 13/12 A3006 RMK 70000 SLP174 T01340125 57015 IEM_DS3505
ZGNN,2000-11-18 22:00,ZGNN 182200Z AUTO 00000KT 2SM 13/13 A3006 RMK T01300130 IEM_DS3505
ZGNN,2000-11-18 23:00,ZGNN 182300Z AUTO 00000KT 2SM 13/12 A3009 RMK T01300120 IEM_DS3505
ZGNN,2000-11-19 00:00,ZGNN 190000Z AUTO 00000KT 2SM 13/13 A3009 RMK 60000 SLP193 T01340129 52019 IEM_DS3505
ZGNN,2000-11-19 01:00,ZGNN 190100Z AUTO 09004KT 1SM 14/13 A3012 RMK T01400130 IEM_DS3505
ZGNN,2000-11-19 02:00,ZGNN 190200Z AUTO 09006KT 1SM 15/14 A3012 RMK T01500140 IEM_DS3505
ZGNN,2000-11-19 03:00,ZGNN 190300Z AUTO 02004KT 4SM 15/14 A3012 RMK SLP198 T01500138 52004 IEM_DS3505
ZGNN,2000-11-19 04:00,ZGNN 190400Z AUTO 34004KT 1 1/4SM 15/14 A3009 RMK T01500140 IEM_DS3505
ZGNN,2000-11-19 05:00,ZGNN 190500Z AUTO 01004KT 1 1/4SM 16/15 A3006 RMK T01600150 IEM_DS3505
ZGNN,2000-11-19 06:00,ZGNN 190600Z AUTO 34006KT 3SM 16/14 A3003 RMK 60000 SLP172 T01560142 57025 IEM_DS3505
ZGNN,2000-11-19 07:00,ZGNN 190700Z AUTO 34006KT 1 1/4SM 16/15 A3003 RMK T01600150 IEM_DS3505
ZGNN,2000-11-19 08:00,ZGNN 190800Z AUTO 35004KT 1 1/4SM 16/15 A3006 RMK T01600150 IEM_DS3505
ZGNN,2000-11-19 09:00,ZGNN 190900Z AUTO 02004KT 2 1/2SM 16/15 A3006 RMK SLP183 T01580149 52011 IEM_DS3505
ZGNN,2000-11-19 10:00,ZGNN 191000Z AUTO 36006KT 1SM 16/15 A3009 RMK T01600150 IEM_DS3505
ZGNN,2000-11-19 11:00,ZGNN 191100Z AUTO 04006KT 1SM 15/15 A3012 RMK T01500150 IEM_DS3505
ZGNN,2000-11-19 12:00,ZGNN 191200Z AUTO 00000KT 2 1/2SM 15/14 A3015 RMK 60008 SLP212 T01480143 52028 IEM_DS3505
ZGNN,2000-11-19 13:00,ZGNN 191300Z AUTO 34010KT 1 1/4SM 14/14 A3018 RMK T01400140 IEM_DS3505
ZGNN,2000-11-19 14:00,ZGNN 191400Z AUTO 35010KT 2 1/2SM 14/13 A3021 RMK T01400130 IEM_DS3505
ZGNN,2000-11-19 15:00,ZGNN 191500Z AUTO 36008KT 2 1/2SM 14/12 A3024 RMK SLP237 T01380118 52025 IEM_DS3505
ZGNN,2000-11-19 16:00,ZGNN 191600Z AUTO 33006KT 4SM 14/12 A3024 RMK T01400120 IEM_DS3505
ZGNN,2000-11-19 17:00,ZGNN 191700Z AUTO 33010KT 4SM 13/12 A3027 RMK T01300120 IEM_DS3505
ZGNN,2000-11-19 18:00,ZGNN 191800Z AUTO 34006KT 7SM 13/10 RMK 60000 SLP246 T01340103 52009 IEM_DS3505
ZGNN,2000-11-19 21:00,ZGNN 192100Z AUTO 36008KT 9SM 13/07 A3027 RMK 70009 SLP251 T01320073 52005 IEM_DS3505
ZGNN,2000-11-19 22:00,ZGNN 192200Z AUTO 36008KT 7SM 13/07 A3030 RMK T01300070 IEM_DS3505
ZGNN,2000-11-19 23:00,ZGNN 192300Z AUTO 34010KT 7SM 13/06 A3033 RMK T01300060 IEM_DS3505
ZGNN,2000-11-20 00:00,ZGNN 200000Z AUTO 36008KT 19SM 13/05 A3036 RMK 70009 SLP278 T01300053 52026 IEM_DS3505
ZGNN,2000-11-20 01:00,ZGNN 200100Z AUTO 33010KT 7SM 14/06 A3036 RMK T01400060 IEM_DS3505
ZGNN,2000-11-20 02:00,ZGNN 200200Z AUTO 32012KT 6SM 14/05 A3036 RMK T01400050 IEM_DS3505
ZGNN,2000-11-20 03:00,ZGNN 200300Z AUTO 02012KT 19SM 16/04 A3036 RMK SLP274 T01560039 57003 IEM_DS3505
ZGNN,2000-11-20 04:00,ZGNN 200400Z AUTO 34016KT 6SM 16/04 A3033 RMK T01600040 IEM_DS3505
ZGNN,2000-11-20 05:00,ZGNN 200500Z AUTO 35012KT 6SM 18/04 A3027 RMK T01800040 IEM_DS3505
ZGNN,2000-11-20 06:00,ZGNN 200600Z AUTO 34014KT 19SM 18/03 A3024 RMK SLP232 T01760029 57041 IEM_DS3505
ZGNN,2000-11-20 07:00,ZGNN 200700Z AUTO 34010KT 6SM 18/04 A3021 RMK T01800040 IEM_DS3505
ZGNN,2000-11-20 08:00,ZGNN 200800Z AUTO 35010KT 6SM 18/04 A3018 RMK T01800040 IEM_DS3505
ZGNN,2000-11-20 09:00,ZGNN 200900Z AUTO 34008KT 19SM 18/03 A3021 RMK SLP223 T01780032 57009 IEM_DS3505
ZGNN,2000-11-20 10:00,ZGNN 201000Z AUTO 34008KT 6SM 17/04 A3021 RMK T01700040 IEM_DS3505
ZGNN,2000-11-20 11:00,ZGNN 201100Z AUTO 33006KT 6SM 15/04 A3021 RMK T01500040 IEM_DS3505
ZGNN,2000-11-20 12:00,ZGNN 201200Z AUTO 34006KT 19SM 15/04 A3027 RMK SLP243 T01480042 52019 IEM_DS3505
ZGNN,2000-11-20 13:00,ZGNN 201300Z AUTO 33002KT 6SM 13/06 A3027 RMK T01300060 IEM_DS3505
ZGNN,2000-11-20 14:00,ZGNN 201400Z AUTO 32004KT 6SM 12/07 A3027 RMK T01200070 IEM_DS3505
ZGNN,2000-11-20 15:00,ZGNN 201500Z AUTO 34004KT 12SM 12/06 RMK SLP246 T01160061 52002 IEM_DS3505
ZGNN,2000-11-20 18:00,ZGNN 201800Z AUTO 34006KT 12SM 11/05 RMK SLP241 T01140051 57004 IEM_DS3505
ZGNN,2000-11-20 21:00,ZGNN 202100Z AUTO 34004KT 9SM 10/05 A3024 RMK SLP236 T01000052 57005 IEM_DS3505
ZGNN,2000-11-20 22:00,ZGNN 202200Z AUTO 36006KT 6SM 09/06 A3024 RMK T00900060 IEM_DS3505
ZGNN,2000-11-20 23:00,ZGNN 202300Z AUTO 01004KT 6SM 09/06 A3024 RMK T00900060 IEM_DS3505
ZGNN,2000-11-21 00:00,ZGNN 210000Z AUTO 00000KT 12SM 09/06 A3027 RMK SLP247 T00940064 52010 IEM_DS3505
ZGNN,2000-11-21 01:00,ZGNN 210100Z AUTO 34004KT 6SM 13/06 A3027 RMK T01300060 IEM_DS3505
ZGNN,2000-11-21 02:00,ZGNN 210200Z AUTO 33008KT 6SM 16/03 A3030 RMK T01600030 IEM_DS3505
ZGNN,2000-11-21 03:00,ZGNN 210300Z AUTO 34008KT 19SM 16/00 A3027 RMK SLP250 T01580005 52003 IEM_DS3505
ZGNN,2000-11-21 04:00,ZGNN 210400Z AUTO 01006KT 6SM 17/03 A3024 RMK T01700030 IEM_DS3505
ZGNN,2000-11-21 05:00,ZGNN 210500Z AUTO 04006KT 6SM 19/03 A3021 RMK T01900030 IEM_DS3505
ZGNN,2000-11-21 06:00,ZGNN 210600Z AUTO 34004KT 19SM 18/M02 A3018 RMK SLP211 T01851015 57037 IEM_DS3505
ZGNN,2000-11-21 07:00,ZGNN 210700Z AUTO 36008KT 6SM 20/03 A3015 RMK T02000030 IEM_DS3505
ZGNN,2000-11-21 08:00,ZGNN 210800Z AUTO 04008KT 6SM 20/03 A3012 RMK T02000030 IEM_DS3505
ZGNN,2000-11-21 09:00,ZGNN 210900Z AUTO 02006KT 19SM 19/M01 A3012 RMK SLP200 T01921008 57011 IEM_DS3505
ZGNN,2000-11-21 10:00,ZGNN 211000Z AUTO 35004KT 6SM 18/05 A3015 RMK T01800050 IEM_DS3505
ZGNN,2000-11-21 11:00,ZGNN 211100Z AUTO 35004KT 6SM 14/07 A3015 RMK T01400070 IEM_DS3505
ZGNN,2000-11-21 12:00,ZGNN 211200Z AUTO 00000KT 19SM 13/05 A3018 RMK SLP218 T01310054 52016 IEM_DS3505
ZGNN,2000-11-21 13:00,ZGNN 211300Z AUTO 00000KT 6SM 10/08 A3021 RMK T01000080 IEM_DS3505
ZGNN,2000-11-21 14:00,ZGNN 211400Z AUTO 00000KT 6SM 10/08 A3021 RMK T01000080 IEM_DS3505
ZGNN,2000-11-21 15:00,ZGNN 211500Z AUTO 00000KT 19SM 09/06 RMK SLP234 T00870063 52016 IEM_DS3505
ZGNN,2000-11-21 18:00,ZGNN 211800Z AUTO 00000KT 9SM 07/06 RMK SLP229 T00730055 57005 IEM_DS3505
ZGNN,2000-11-21 21:00,ZGNN 212100Z AUTO 00000KT 9SM 06/05 A3018 RMK SLP218 T00650049 57011 IEM_DS3505
ZGNN,2000-11-21 22:00,ZGNN 212200Z AUTO 00000KT 6SM 07/05 A3018 RMK T00700050 IEM_DS3505
ZGNN,2000-11-21 23:00,ZGNN 212300Z AUTO 00000KT 6SM 07/05 A3021 RMK T00700050 IEM_DS3505
ZGNN,2000-11-22 00:00,ZGNN 220000Z AUTO 00000KT 7SM 06/06 A3021 RMK SLP232 T00650056 52013 IEM_DS3505
ZGNN,2000-11-22 01:00,ZGNN 220100Z AUTO 00000KT 6SM 13/08 A3024 RMK T01300080 IEM_DS3505
ZGNN,2000-11-22 02:00,ZGNN 220200Z AUTO 32006KT 6SM 16/05 A3024 RMK T01600050 IEM_DS3505
ZGNN,2000-11-22 03:00,ZGNN 220300Z AUTO 09006KT 12SM 18/03 A3024 RMK SLP238 T01790030 52007 IEM_DS3505
ZGNN,2000-11-22 05:00,ZGNN 220500Z AUTO 07004KT 6SM 21/05 A3018 RMK T02100050 IEM_DS3505
ZGNN,2000-11-22 06:00,ZGNN 220600Z AUTO 09006KT 12SM 22/03 A3015 RMK SLP202 T02160027 57034 IEM_DS3505
ZGNN,2000-11-22 07:00,ZGNN 220700Z AUTO 06008KT 6SM 22/04 A3012 RMK T02200040 IEM_DS3505
ZGNN,2000-11-22 08:00,ZGNN 220800Z AUTO 05006KT 6SM 22/03 A3009 RMK T02200030 IEM_DS3505
ZGNN,2000-11-22 09:00,ZGNN 220900Z AUTO 02004KT 12SM 21/02 A3009 RMK SLP190 T02140020 57013 IEM_DS3505
ZGNN,2000-11-22 10:00,ZGNN 221000Z AUTO 11004KT 6SM 19/05 A3012 RMK T01900050 IEM_DS3505
ZGNN,2000-11-22 11:00,ZGNN 221100Z AUTO 35004KT 6SM 15/09 A3012 RMK T01500090 IEM_DS3505
ZGNN,2000-11-22 12:00,ZGNN 221200Z AUTO 00000KT 12SM 13/08 A3015 RMK SLP209 T01290081 52017 IEM_DS3505
ZGNN,2000-11-22 13:00,ZGNN 221300Z AUTO 34004KT 6SM 12/09 A3015 RMK T01200090 IEM_DS3505
ZGNN,2000-11-22 15:00,ZGNN 221500Z AUTO 00000KT 11SM 10/07 RMK SLP219 T01040068 52012 IEM_DS3505
ZGNN,2000-11-22 18:00,ZGNN 221800Z AUTO 00000KT 11SM 08/07 RMK SLP214 T00850066 57004 IEM_DS3505
ZGNN,2000-11-22 21:00,ZGNN 222100Z AUTO 00000KT 9SM 07/06 RMK SLP211 T00720059 57004 IEM_DS3505
ZGNN,2000-11-22 22:00,ZGNN 222200Z AUTO 00000KT 6SM 08/07 A3015 RMK T00800070 IEM_DS3505
ZGNN,2000-11-22 23:00,ZGNN 222300Z AUTO 00000KT 6SM 08/07 A3018 RMK T00800070 IEM_DS3505
ZGNN,2000-11-23 00:00,ZGNN 230000Z AUTO 00000KT 9SM 07/06 A3018 RMK SLP224 T00740058 52011 IEM_DS3505
ZGNN,2000-11-23 01:00,ZGNN 230100Z AUTO 00000KT 6SM 12/09 A3021 RMK T01200090 IEM_DS3505
ZGNN,2000-11-23 02:00,ZGNN 230200Z AUTO 00000KT 6SM 16/08 A3021 RMK T01600080 IEM_DS3505
ZGNN,2000-11-23 03:00,ZGNN 230300Z AUTO 00000KT 7SM 17/07 A3018 RMK SLP223 T01700073 52001 IEM_DS3505
ZGNN,2000-11-23 04:00,ZGNN 230400Z AUTO 02006KT 6SM 21/07 A3015 RMK T02100070 IEM_DS3505
ZGNN,2000-11-23 05:00,ZGNN 230500Z AUTO 10006KT 6SM 24/07 A3012 RMK T02400070 IEM_DS3505
ZGNN,2000-11-23 06:00,ZGNN 230600Z AUTO 18004KT 9SM 24/07 A3006 RMK SLP182 T02370071 57039 IEM_DS3505
ZGNN,2000-11-23 07:00,ZGNN 230700Z AUTO 00000KT 6SM 25/09 A3003 RMK T02500090 IEM_DS3505
ZGNN,2000-11-23 08:00,ZGNN 230800Z AUTO 08004KT 6SM 25/08 A3003 RMK T02500080 IEM_DS3505
ZGNN,2000-11-23 09:00,ZGNN 230900Z AUTO 16002KT 12SM 24/08 A3003 RMK SLP167 T02430081 57015 IEM_DS3505
ZGNN,2000-11-23 10:00,ZGNN 231000Z AUTO 00000KT 6SM 22/11 A3003 RMK T02200110 IEM_DS3505
ZGNN,2000-11-23 11:00,ZGNN 231100Z AUTO 35006KT 6SM 17/12 A3003 RMK T01700120 IEM_DS3505
ZGNN,2000-11-23 12:00,ZGNN 231200Z AUTO 00000KT 11SM 16/11 A3006 RMK SLP179 T01570109 52009 IEM_DS3505
ZGNN,2000-11-23 13:00,ZGNN 231300Z AUTO 00000KT 6SM 15/12 A3006 RMK T01500120 IEM_DS3505
ZGNN,2000-11-23 14:00,ZGNN 231400Z AUTO 00000KT 6SM 14/11 A3009 RMK T01400110 IEM_DS3505
ZGNN,2000-11-23 15:00,ZGNN 231500Z AUTO 00000KT 11SM 14/10 RMK SLP183 T01350105 52006 IEM_DS3505
ZGNN,2000-11-23 18:00,ZGNN 231800Z AUTO 00000KT 9SM 12/10 RMK SLP180 T01180101 57001 IEM_DS3505
ZGNN,2000-11-23 21:00,ZGNN 232100Z AUTO 00000KT 7SM 11/10 A3006 RMK SLP176 T01120102 57004 IEM_DS3505
ZGNN,2000-11-23 22:00,ZGNN 232200Z AUTO 35004KT 6SM 12/11 A3006 RMK T01200110 IEM_DS3505
ZGNN,2000-11-23 23:00,ZGNN 232300Z AUTO 00000KT 5SM 12/11 A3009 RMK T01200110 IEM_DS3505
ZGNN,2000-11-24 00:00,ZGNN 240000Z AUTO 00000KT 5SM 13/12 A3009 RMK SLP191 T01310124 52013 IEM_DS3505
ZGNN,2000-11-24 01:00,ZGNN 240100Z AUTO 00000KT 4SM 17/15 A3012 RMK T01700150 IEM_DS3505
ZGNN,2000-11-24 02:00,ZGNN 240200Z AUTO 09002KT 4SM 21/16 A3012 RMK T02100160 IEM_DS3505
ZGNN,2000-11-24 03:00,ZGNN 240300Z AUTO 20002KT 4SM 22/17 A3009 RMK SLP190 T02170167 54000 IEM_DS3505
ZGNN,2000-11-24 04:00,ZGNN 240400Z AUTO 15006KT 6SM 24/16 A3009 RMK T02400160 IEM_DS3505
ZGNN,2000-11-24 05:00,ZGNN 240500Z AUTO 00000KT 6SM 25/16 A3003 RMK T02500160 IEM_DS3505
ZGNN,2000-11-24 06:00,ZGNN 240600Z AUTO 00000KT 9SM 25/16 A3000 RMK SLP154 T02490162 57035 IEM_DS3505
ZGNN,2000-11-24 07:00,ZGNN 240700Z AUTO 14008KT 7SM 25/15 A2997 RMK T02500150 IEM_DS3505
ZGNN,2000-11-24 08:00,ZGNN 240800Z AUTO 14008KT 7SM 25/16 A2997 RMK T02500160 IEM_DS3505
ZGNN,2000-11-24 09:00,ZGNN 240900Z AUTO 18004KT 9SM 24/16 A2997 RMK SLP143 T02400160 57011 IEM_DS3505
ZGNN,2000-11-24 10:00,ZGNN 241000Z AUTO 18006KT 7SM 23/16 A2997 RMK T02300160 IEM_DS3505
ZGNN,2000-11-24 11:00,ZGNN 241100Z AUTO 18006KT 7SM 22/17 A2997 RMK T02200170 IEM_DS3505
ZGNN,2000-11-24 12:00,ZGNN 241200Z AUTO 00000KT 7SM 20/16 A3000 RMK SLP155 T01980165 52011 IEM_DS3505
ZGNN,2000-11-24 13:00,ZGNN 241300Z AUTO 00000KT 7SM 20/17 A3000 RMK T02000170 IEM_DS3505
ZGNN,2000-11-24 14:00,ZGNN 241400Z AUTO 15004KT 7SM 20/17 A3000 RMK T02000170 IEM_DS3505
ZGNN,2000-11-24 15:00,ZGNN 241500Z AUTO 00000KT 7SM 19/17 RMK SLP160 T01860166 52007 IEM_DS3505
ZGNN,2000-11-24 18:00,ZGNN 241800Z AUTO 02002KT 7SM 19/17 RMK SLP155 T01930174 57004 IEM_DS3505
ZGNN,2000-11-24 21:00,ZGNN 242100Z AUTO 00000KT 2 1/2SM 19/18 RMK 70003 SLP154 T01900182 57001 IEM_DS3505
ZGNN,2000-11-24 22:00,ZGNN 242200Z AUTO 00000KT 2SM 19/18 A3000 RMK T01900180 IEM_DS3505
ZGNN,2000-11-24 23:00,ZGNN 242300Z AUTO 00000KT 2SM 19/18 A3003 RMK T01900180 IEM_DS3505
ZGNN,2000-11-25 00:00,ZGNN 250000Z AUTO 00000KT 1 1/4SM 19/18 A3006 RMK 60024 SLP177 T01880185 52021 IEM_DS3505
ZGNN,2000-11-25 01:00,ZGNN 250100Z AUTO 07004KT 1SM 19/19 A3009 RMK T01900190 IEM_DS3505
ZGNN,2000-11-25 02:00,ZGNN 250200Z AUTO 09006KT 1SM 19/19 A3009 RMK T01900190 IEM_DS3505
ZGNN,2000-11-25 03:00,ZGNN 250300Z AUTO 02004KT 1 1/4SM 19/18 A3009 RMK SLP183 T01920182 52006 IEM_DS3505
ZGNN,2000-11-25 04:00,ZGNN 250400Z AUTO 08004KT 1 1/4SM 20/19 A3006 RMK T02000190 IEM_DS3505
ZGNN,2000-11-25 05:00,ZGNN 250500Z AUTO 09004KT 1 1/4SM 20/19 A3003 RMK T02000190 IEM_DS3505
ZGNN,2000-11-25 06:00,ZGNN 250600Z AUTO 00000KT 4SM 21/18 A3000 RMK 60000 SLP152 T02060182 57030 IEM_DS3505
ZGNN,2000-11-25 07:00,ZGNN 250700Z AUTO 00000KT 2SM 21/18 A2997 RMK T02100180 IEM_DS3505
ZGNN,2000-11-25 08:00,ZGNN 250800Z AUTO 05004KT 2SM 21/19 A2997 RMK T02100190 IEM_DS3505
ZGNN,2000-11-25 09:00,ZGNN 250900Z AUTO 00000KT 4SM 21/19 A2997 RMK SLP142 T02130186 57010 IEM_DS3505
ZGNN,2000-11-25 10:00,ZGNN 251000Z AUTO 00000KT 2SM 21/19 A2997 RMK T02100190 IEM_DS3505
ZGNN,2000-11-25 11:00,ZGNN 251100Z AUTO 00000KT 1 1/4SM 20/19 A2997 RMK T02000190 IEM_DS3505
ZGNN,2000-11-25 12:00,ZGNN 251200Z AUTO 00000KT 4SM 19/18 A3000 RMK 60003 SLP155 T01940184 52013 IEM_DS3505
ZGNN,2000-11-25 13:00,ZGNN 251300Z AUTO 00000KT 1 1/4SM 19/19 A3000 RMK T01900190 IEM_DS3505
ZGNN,2000-11-25 15:00,ZGNN 251500Z AUTO 00000KT 5SM 20/19 A3003 RMK SLP165 T01980189 52010 IEM_DS3505
ZGNN,2000-11-25 18:00,ZGNN 251800Z AUTO 00000KT 6SM 20/19 RMK SLP164 T02000186 57001 IEM_DS3505
ZGNN,2000-11-25 21:00,ZGNN 252100Z AUTO 00000KT 5SM 19/18 A3003 RMK 70021 SLP162 T01860181 57002 IEM_DS3505
ZGNN,2000-11-25 22:00,ZGNN 252200Z AUTO 00000KT 1 1/4SM 19/18 A3003 RMK T01900180 IEM_DS3505
ZGNN,2000-11-25 23:00,ZGNN 252300Z AUTO 01004KT 1 1/4SM 19/18 A3003 RMK T01900180 IEM_DS3505
ZGNN,2000-11-26 00:00,ZGNN 260000Z AUTO 00000KT 1 1/4SM 19/19 A3009 RMK 70001 SLP184 T01920186 52021 IEM_DS3505
ZGNN,2000-11-26 01:00,ZGNN 260100Z AUTO 03004KT 1 1/4SM 21/19 A3012 RMK T02100190 IEM_DS3505
ZGNN,2000-11-26 02:00,ZGNN 260200Z AUTO 06006KT 1 1/2SM 22/19 A3012 RMK T02200190 IEM_DS3505
ZGNN,2000-11-26 03:00,ZGNN 260300Z AUTO 11004KT 3SM 24/19 A3012 RMK SLP192 T02360189 52009 IEM_DS3505
ZGNN,2000-11-26 04:00,ZGNN 260400Z AUTO 12004KT 3SM 25/20 A3009 RMK T02500200 IEM_DS3505
ZGNN,2000-11-26 05:00,ZGNN 260500Z AUTO 09006KT 7SM 26/20 A3006 RMK T02600200 IEM_DS3505
ZGNN,2000-11-26 06:00,ZGNN 260600Z AUTO 09002KT 6SM 26/20 A3003 RMK SLP162 T02600199 57029 IEM_DS3505
ZGNN,2000-11-26 07:00,ZGNN 260700Z AUTO 30002KT 7SM 27/20 A3000 RMK T02700200 IEM_DS3505
ZGNN,2000-11-26 08:00,ZGNN 260800Z AUTO 00000KT 6SM 27/21 A3000 RMK T02700210 IEM_DS3505
ZGNN,2000-11-26 09:00,ZGNN 260900Z AUTO 00000KT 7SM 26/20 A3000 RMK SLP155 T02640202 57007 IEM_DS3505
ZGNN,2000-11-26 10:00,ZGNN 261000Z AUTO 00000KT 6SM 26/20 A3000 RMK T02600200 IEM_DS3505
ZGNN,2000-11-26 11:00,ZGNN 261100Z AUTO 34004KT 6SM 24/21 A3003 RMK T02400210 IEM_DS3505
ZGNN,2000-11-26 12:00,ZGNN 261200Z AUTO 00000KT 7SM 23/21 A3003 RMK SLP171 T02340210 52015 IEM_DS3505
ZGNN,2000-11-26 13:00,ZGNN 261300Z AUTO 00000KT 6SM 22/20 A3006 RMK T02200200 IEM_DS3505
ZGNN,2000-11-26 14:00,ZGNN 261400Z AUTO 00000KT 7SM 22/21 A3006 RMK T02200210 IEM_DS3505
ZGNN,2000-11-26 15:00,ZGNN 261500Z AUTO 16004KT 7SM 22/20 RMK SLP181 T02220205 52011 IEM_DS3505
ZGNN,2000-11-26 18:00,ZGNN 261800Z AUTO 00000KT 7SM 21/20 RMK SLP178 T02080199 57003 IEM_DS3505
ZGNN,2000-11-26 21:00,ZGNN 262100Z AUTO 00000KT 7SM 21/20 A3006 RMK SLP171 T02080200 57006 IEM_DS3505
ZGNN,2000-11-26 22:00,ZGNN 262200Z AUTO 00000KT 1 1/4SM 21/20 A3006 RMK T02100200 IEM_DS3505
ZGNN,2000-11-26 23:00,ZGNN 262300Z AUTO 00000KT 1 1/4SM 21/20 A3009 RMK T02100200 IEM_DS3505
ZGNN,2000-11-27 00:00,ZGNN 270000Z AUTO 00000KT 3SM 21/20 A3009 RMK SLP187 T02100201 52015 IEM_DS3505
ZGNN,2000-11-27 01:00,ZGNN 270100Z AUTO 05002KT 1 1/2SM 22/20 A3012 RMK T02200200 IEM_DS3505
ZGNN,2000-11-27 02:00,ZGNN 270200Z AUTO 07004KT 2 1/2SM 23/19 A3012 RMK T02300190 IEM_DS3505
ZGNN,2000-11-27 03:00,ZGNN 270300Z AUTO 09006KT 6SM 24/18 A3012 RMK SLP198 T02390184 52011 IEM_DS3505
ZGNN,2000-11-27 04:00,ZGNN 270400Z AUTO 09008KT 26/19 A3012 RMK T02600190 IEM_DS3505
ZGNN,2000-11-27 05:00,ZGNN 270500Z AUTO 03004KT 26/19 A3009 RMK T02600190 IEM_DS3505
ZGNN,2000-11-27 06:00,ZGNN 270600Z AUTO 09002KT 7SM 26/18 A3006 RMK SLP172 T02610183 57025 IEM_DS3505
ZGNN,2000-11-27 07:00,ZGNN 270700Z AUTO 09004KT 5SM 26/19 A3003 RMK T02600190 IEM_DS3505
ZGNN,2000-11-27 08:00,ZGNN 270800Z AUTO 12006KT 5SM 26/19 A3003 RMK T02600190 IEM_DS3505
ZGNN,2000-11-27 09:00,ZGNN 270900Z AUTO 11002KT 7SM 26/19 A3000 RMK SLP161 T02610188 57011 IEM_DS3505
ZGNN,2000-11-27 10:00,ZGNN 271000Z AUTO 00000KT 4SM 25/20 A3003 RMK T02500200 IEM_DS3505
ZGNN,2000-11-27 11:00,ZGNN 271100Z AUTO 00000KT 4SM 24/20 A3003 RMK T02400200 IEM_DS3505
ZGNN,2000-11-27 12:00,ZGNN 271200Z AUTO 00000KT 7SM 23/20 A3006 RMK SLP174 T02280197 52012 IEM_DS3505
ZGNN,2000-11-27 13:00,ZGNN 271300Z AUTO 36004KT 4SM 22/20 A3006 RMK T02200200 IEM_DS3505
ZGNN,2000-11-27 14:00,ZGNN 271400Z AUTO 00000KT 4SM 22/20 A3006 RMK T02200200 IEM_DS3505
ZGNN,2000-11-27 15:00,ZGNN 271500Z AUTO 00000KT 7SM 21/19 RMK SLP179 T02120187 52005 IEM_DS3505
ZGNN,2000-11-27 18:00,ZGNN 271800Z AUTO 00000KT 7SM 21/18 RMK SLP177 T02080176 57002 IEM_DS3505
ZGNN,2000-11-27 21:00,ZGNN 272100Z AUTO 11004KT 7SM 20/16 RMK SLP178 T01980160 52001 IEM_DS3505
ZGNN,2000-11-27 22:00,ZGNN 272200Z AUTO 06008KT 3SM 19/16 A3006 RMK T01900160 IEM_DS3505
ZGNN,2000-11-27 23:00,ZGNN 272300Z AUTO 06008KT 2 1/2SM 19/16 A3009 RMK T01900160 IEM_DS3505
ZGNN,2000-11-28 00:00,ZGNN 280000Z AUTO 09004KT 5SM 19/15 A3012 RMK SLP193 T01910152 52014 IEM_DS3505
ZGNN,2000-11-28 01:00,ZGNN 280100Z AUTO 09004KT 2SM 19/15 A3012 RMK T01900150 IEM_DS3505
ZGNN,2000-11-28 02:00,ZGNN 280200Z AUTO 07004KT 2SM 19/15 A3015 RMK T01900150 IEM_DS3505
ZGNN,2000-11-28 03:00,ZGNN 280300Z AUTO 14004KT 6SM 19/15 A3015 RMK SLP205 T01920146 52011 IEM_DS3505
ZGNN,2000-11-28 04:00,ZGNN 280400Z AUTO 09006KT 2SM 20/15 A3012 RMK T02000150 IEM_DS3505
ZGNN,2000-11-28 05:00,ZGNN 280500Z AUTO 07004KT 2SM 21/15 A3009 RMK T02100150 IEM_DS3505
ZGNN,2000-11-28 06:00,ZGNN 280600Z AUTO 11002KT 6SM 21/15 A3006 RMK SLP175 T02080149 57029 IEM_DS3505
ZGNN,2000-11-28 07:00,ZGNN 280700Z AUTO 04006KT 2SM 22/16 A3003 RMK T02200160 IEM_DS3505
ZGNN,2000-11-28 08:00,ZGNN 280800Z AUTO 05008KT 2SM 22/16 A3000 RMK T02200160 IEM_DS3505
ZGNN,2000-11-28 09:00,ZGNN 280900Z AUTO 00000KT 6SM 22/16 A3000 RMK SLP158 T02210164 57017 IEM_DS3505
ZGNN,2000-11-28 10:00,ZGNN 281000Z AUTO 06006KT 2SM 21/16 A3000 RMK T02100160 IEM_DS3505
ZGNN,2000-11-28 11:00,ZGNN 281100Z AUTO 04006KT 2SM 19/15 A3003 RMK T01900150 IEM_DS3505
ZGNN,2000-11-28 12:00,ZGNN 281200Z AUTO 09006KT 6SM 19/14 A3003 RMK SLP169 T01860141 52010 IEM_DS3505
ZGNN,2000-11-28 13:00,ZGNN 281300Z AUTO 03006KT 2SM 17/14 A3006 RMK T01700140 IEM_DS3505
ZGNN,2000-11-28 15:00,ZGNN 281500Z AUTO 09002KT 6SM 17/14 RMK SLP185 T01740141 52016 IEM_DS3505
ZGNN,2000-11-28 18:00,ZGNN 281800Z AUTO 09004KT 6SM 18/14 RMK SLP178 T01780140 57007 IEM_DS3505
ZGNN,2000-11-28 21:00,ZGNN 282100Z AUTO 00000KT 6SM 17/15 A3006 RMK SLP174 T01740147 57003 IEM_DS3505
ZGNN,2000-11-28 22:00,ZGNN 282200Z AUTO 00000KT 2SM 17/15 A3006 RMK T01700150 IEM_DS3505
ZGNN,2000-11-28 23:00,ZGNN 282300Z AUTO 11004KT 2SM 17/15 A3006 RMK T01700150 IEM_DS3505
ZGNN,2000-11-29 00:00,ZGNN 290000Z AUTO 00000KT 3SM 18/15 A3009 RMK SLP185 T01780147 52010 IEM_DS3505
ZGNN,2000-11-29 01:00,ZGNN 290100Z AUTO 00000KT 1 1/2SM 19/15 A3009 RMK T01900150 IEM_DS3505
ZGNN,2000-11-29 02:00,ZGNN 290200Z AUTO 09006KT 2SM 20/16 A3009 RMK T02000160 IEM_DS3505
ZGNN,2000-11-29 03:00,ZGNN 290300Z AUTO 11006KT 5SM 21/16 A3009 RMK SLP182 T02120161 57003 IEM_DS3505
ZGNN,2000-11-29 04:00,ZGNN 290400Z AUTO 15006KT 2SM 24/17 A3006 RMK T02400170 IEM_DS3505
ZGNN,2000-11-29 05:00,ZGNN 290500Z AUTO 13008KT 7SM 25/18 A3003 RMK T02500180 IEM_DS3505
ZGNN,2000-11-29 06:00,ZGNN 290600Z AUTO 18006KT 6SM 25/17 A3000 RMK SLP153 T02460173 57027 IEM_DS3505
ZGNN,2000-11-29 07:00,ZGNN 290700Z AUTO 14012KT 7SM 25/18 A2997 RMK T02500180 IEM_DS3505
ZGNN,2000-11-29 08:00,ZGNN 290800Z AUTO 17012KT 7SM 25/18 A2997 RMK T02500180 IEM_DS3505
ZGNN,2000-11-29 09:00,ZGNN 290900Z AUTO 18006KT 7SM 25/18 A2997 RMK SLP143 T02460178 57010 IEM_DS3505
ZGNN,2000-11-29 10:00,ZGNN 291000Z AUTO 15012KT 6SM 23/19 A3000 RMK T02300190 IEM_DS3505
ZGNN,2000-11-29 11:00,ZGNN 291100Z AUTO 16008KT 6SM 22/19 A3000 RMK T02200190 IEM_DS3505
ZGNN,2000-11-29 12:00,ZGNN 291200Z AUTO 00000KT 9SM 22/19 A3003 RMK SLP163 T02190191 52019 IEM_DS3505
ZGNN,2000-11-29 13:00,ZGNN 291300Z AUTO 18006KT 6SM 22/19 A3003 RMK T02200190 IEM_DS3505
ZGNN,2000-11-29 14:00,ZGNN 291400Z AUTO 15004KT 6SM 21/19 A3003 RMK T02100190 IEM_DS3505
ZGNN,2000-11-29 15:00,ZGNN 291500Z AUTO 18002KT 9SM 21/19 A3006 RMK SLP174 T02140189 52011 IEM_DS3505
ZGNN,2000-11-29 16:00,ZGNN 291600Z AUTO 15008KT 6SM 21/19 A3006 RMK T02100190 IEM_DS3505
ZGNN,2000-11-29 18:00,ZGNN 291800Z AUTO 14004KT 9SM 21/19 RMK SLP169 T02110189 57004 IEM_DS3505
ZGNN,2000-11-29 21:00,ZGNN 292100Z AUTO 16004KT 9SM 21/19 RMK 70003 SLP159 T02110189 57010 IEM_DS3505
ZGNN,2000-11-30 00:00,ZGNN 300000Z AUTO 00000KT 4SM 20/19 RMK 60003 SLP169 T02040191 52009 IEM_DS3505
ZGNN,2000-11-30 03:00,ZGNN 300300Z AUTO 09004KT 19SM 23/19 RMK SLP171 T02310192 52003 IEM_DS3505
ZGNN,2000-11-30 06:00,ZGNN 300600Z AUTO 14004KT 9SM 25/19 RMK SLP142 T02480191 57028 IEM_DS3505
ZGNN,2000-11-30 09:00,ZGNN 300900Z AUTO 14004KT 7SM 24/19 RMK SLP141 T02360194 57002 IEM_DS3505
ZGNN,2000-11-30 12:00,ZGNN 301200Z AUTO 04004KT 5SM 18/18 RMK 60008 SLP162 T01820176 52020 IEM_DS3505
ZGNN,2000-11-30 15:00,ZGNN 301500Z AUTO 00000KT 7SM 16/15 RMK SLP173 T01630151 52011 IEM_DS3505
ZGNN,2000-11-30 18:00,ZGNN 301800Z AUTO 00000KT 9SM 16/14 RMK 60000 SLP169 T01600144 57004 IEM_DS3505
ZGNN,2000-11-30 21:00,ZGNN 302100Z AUTO 00000KT 9SM 16/15 RMK 70009 SLP162 T01590147 57007 IEM_DS3505
ZGNN,2000-12-01 00:00,ZGNN 010000Z AUTO 07002KT 2 1/2SM 15/14 RMK 60003 SLP178 T01500141 52014 IEM_DS3505
ZGNN,2000-12-01 03:00,ZGNN 010300Z AUTO 04002KT 5SM 16/14 RMK SLP188 T01600141 52010 IEM_DS3505
ZGNN,2000-12-01 06:00,ZGNN 010600Z AUTO 00000KT 2 1/2SM 15/14 RMK 60002 SLP165 T01540144 57023 IEM_DS3505
ZGNN,2000-12-01 09:00,ZGNN 010900Z AUTO 34004KT 4SM 16/15 RMK SLP155 T01620146 57010 IEM_DS3505
ZGNN,2000-12-01 12:00,ZGNN 011200Z AUTO 00000KT 4SM 16/15 RMK 60008 SLP165 T01630149 52010 IEM_DS3505
ZGNN,2000-12-01 15:00,ZGNN 011500Z AUTO 09004KT 4SM 17/15 RMK SLP177 T01660149 52012 IEM_DS3505
ZGNN,2000-12-01 18:00,ZGNN 011800Z AUTO 00000KT 6SM 16/14 RMK SLP182 T01600143 52004 IEM_DS3505
ZGNN,2000-12-01 21:00,ZGNN 012100Z AUTO 00000KT 6SM 16/14 RMK 70009 SLP182 T01620136 52001 IEM_DS3505
ZGNN,2000-12-01 22:00,ZGNN 012200Z AUTO 05004KT 7SM 16/14 A3009 RMK T01600140 IEM_DS3505
ZGNN,2000-12-01 23:00,ZGNN 012300Z AUTO 00000KT 7SM 16/14 A3012 RMK T01600140 IEM_DS3505
ZGNN,2000-12-02 00:00,ZGNN 020000Z AUTO 00000KT 4SM 16/14 A3015 RMK 70009 SLP205 T01580139 52022 IEM_DS3505
ZGNN,2000-12-02 01:00,ZGNN 020100Z AUTO 03008KT 3SM 16/14 A3015 RMK T01600140 IEM_DS3505
ZGNN,2000-12-02 02:00,ZGNN 020200Z AUTO 03006KT 3SM 16/14 A3021 RMK T01600140 IEM_DS3505
ZGNN,2000-12-02 03:00,ZGNN 020300Z AUTO 04004KT 2SM 15/13 A3021 RMK SLP223 T01520132 52018 IEM_DS3505
ZGNN,2000-12-02 04:00,ZGNN 020400Z AUTO 06006KT 1 1/4SM 15/14 A3018 RMK T01500140 IEM_DS3505
ZGNN,2000-12-02 05:00,ZGNN 020500Z AUTO 02008KT 1 1/2SM 15/14 A3015 RMK T01500140 IEM_DS3505
ZGNN,2000-12-02 06:00,ZGNN 020600Z AUTO 02004KT 1 1/2SM 14/13 A3015 RMK 60000 SLP207 T01440133 57016 IEM_DS3505
ZGNN,2000-12-02 07:00,ZGNN 020700Z AUTO 34008KT 2SM 14/13 A3012 RMK T01400130 IEM_DS3505
ZGNN,2000-12-02 08:00,ZGNN 020800Z AUTO 01006KT 2SM 14/13 A3012 RMK T01400130 IEM_DS3505
ZGNN,2000-12-02 09:00,ZGNN 020900Z AUTO 36006KT 6SM 14/12 A3015 RMK SLP206 T01370120 57001 IEM_DS3505
ZGNN,2000-12-02 10:00,ZGNN 021000Z AUTO 34008KT 7SM 14/12 A3015 RMK T01400120 IEM_DS3505
ZGNN,2000-12-02 11:00,ZGNN 021100Z AUTO 33008KT 7SM 14/12 A3018 RMK T01400120 IEM_DS3505
ZGNN,2000-12-02 12:00,ZGNN 021200Z AUTO 34006KT 7SM 14/11 A3021 RMK 60003 SLP231 T01360114 52024 IEM_DS3505
ZGNN,2000-12-02 13:00,ZGNN 021300Z AUTO 33006KT 7SM 14/11 A3024 RMK T01400110 IEM_DS3505
ZGNN,2000-12-02 15:00,ZGNN 021500Z AUTO 34006KT 7SM 13/10 RMK SLP238 T01330102 52007 IEM_DS3505
ZGNN,2000-12-02 18:00,ZGNN 021800Z AUTO 34008KT 7SM 13/10 RMK SLP235 T01320097 57003 IEM_DS3505
ZGNN,2000-12-02 21:00,ZGNN 022100Z AUTO 34008KT 9SM 13/09 A3024 RMK 70000 SLP237 T01260090 52001 IEM_DS3505
ZGNN,2000-12-02 22:00,ZGNN 022200Z AUTO 34008KT 7SM 12/10 A3024 RMK T01200100 IEM_DS3505
ZGNN,2000-12-02 23:00,ZGNN 022300Z AUTO 34008KT 7SM 12/10 A3027 RMK T01200100 IEM_DS3505
ZGNN,2000-12-03 00:00,ZGNN 030000Z AUTO 36008KT 16SM 12/09 A3030 RMK 70000 SLP255 T01250087 52018 IEM_DS3505
ZGNN,2000-12-03 01:00,ZGNN 030100Z AUTO 33004KT 7SM 13/10 A3033 RMK T01300100 IEM_DS3505
ZGNN,2000-12-03 02:00,ZGNN 030200Z AUTO 36010KT 7SM 13/09 A3033 RMK T01300090 IEM_DS3505
ZGNN,2000-12-03 03:00,ZGNN 030300Z AUTO 32012KT 19SM 13/09 A3033 RMK SLP269 T01340086 52014 IEM_DS3505
ZGNN,2000-12-03 04:00,ZGNN 030400Z AUTO 34008KT 7SM 13/09 A3033 RMK T01300090 IEM_DS3505
ZGNN,2000-12-03 05:00,ZGNN 030500Z AUTO 33008KT 7SM 14/08 A3030 RMK T01400080 IEM_DS3505
ZGNN,2000-12-03 06:00,ZGNN 030600Z AUTO 34014KT 19SM 13/08 A3027 RMK SLP248 T01300077 57021 IEM_DS3505
ZGNN,2000-12-03 07:00,ZGNN 030700Z AUTO 33010KT 7SM 13/09 A3024 RMK T01300090 IEM_DS3505
ZGNN,2000-12-03 08:00,ZGNN 030800Z AUTO 30006KT 7SM 13/09 A3024 RMK T01300090 IEM_DS3505
ZGNN,2000-12-03 09:00,ZGNN 030900Z AUTO 34006KT 17SM 12/08 A3024 RMK SLP241 T01230085 57007 IEM_DS3505
ZGNN,2000-12-03 10:00,ZGNN 031000Z AUTO 35014KT 7SM 12/09 A3024 RMK T01200090 IEM_DS3505
ZGNN,2000-12-03 11:00,ZGNN 031100Z AUTO 33006KT 7SM 12/09 A3027 RMK T01200090 IEM_DS3505
ZGNN,2000-12-03 12:00,ZGNN 031200Z AUTO 32008KT 16SM 12/08 A3027 RMK SLP249 T01230080 52008 IEM_DS3505
ZGNN,2000-12-03 13:00,ZGNN 031300Z AUTO 34004KT 7SM 12/09 A3027 RMK T01200090 IEM_DS3505
ZGNN,2000-12-03 15:00,ZGNN 031500Z AUTO 00000KT 16SM 10/09 RMK SLP244 T01050089 57005 IEM_DS3505
ZGNN,2000-12-03 18:00,ZGNN 031800Z AUTO 34004KT 16SM 11/08 RMK SLP223 T01130083 57021 IEM_DS3505
ZGNN,2000-12-03 21:00,ZGNN 032100Z AUTO 00000KT 16SM 09/08 A3015 RMK SLP209 T00900077 57015 IEM_DS3505
ZGNN,2000-12-03 22:00,ZGNN 032200Z AUTO 00000KT 6SM 10/09 A3015 RMK T01000090 IEM_DS3505
ZGNN,2000-12-03 23:00,ZGNN 032300Z AUTO 00000KT 6SM 09/08 A3018 RMK T00900080 IEM_DS3505
ZGNN,2000-12-04 00:00,ZGNN 040000Z AUTO 00000KT 6SM 07/07 A3018 RMK SLP226 T00740072 52017 IEM_DS3505
ZGNN,2000-12-04 01:00,ZGNN 040100Z AUTO 00000KT 3SM 11/10 A3021 RMK T01100100 IEM_DS3505
ZGNN,2000-12-04 02:00,ZGNN 040200Z AUTO 35004KT 6SM 14/08 A3021 RMK T01400080 IEM_DS3505
ZGNN,2000-12-04 03:00,ZGNN 040300Z AUTO 34006KT 9SM 15/06 A3021 RMK SLP229 T01470065 52004 IEM_DS3505
ZGNN,2000-12-04 05:00,ZGNN 040500Z AUTO 34008KT 6SM 18/08 A3012 RMK T01800080 IEM_DS3505
ZGNN,2000-12-04 06:00,ZGNN 040600Z AUTO 14004KT 12SM 18/08 A3009 RMK SLP183 T01850081 57044 IEM_DS3505
ZGNN,2000-12-04 07:00,ZGNN 040700Z AUTO 03006KT 6SM 19/08 A3006 RMK T01900080 IEM_DS3505
ZGNN,2000-12-04 08:00,ZGNN 040800Z AUTO 02004KT 6SM 20/09 A3003 RMK T02000090 IEM_DS3505
ZGNN,2000-12-04 09:00,ZGNN 040900Z AUTO 32004KT 9SM 19/08 A3003 RMK SLP169 T01890081 57014 IEM_DS3505
ZGNN,2000-12-04 10:00,ZGNN 041000Z AUTO 31004KT 6SM 17/09 A3003 RMK T01700090 IEM_DS3505
ZGNN,2000-12-04 11:00,ZGNN 041100Z AUTO 00000KT 6SM 14/11 A3006 RMK T01400110 IEM_DS3505
ZGNN,2000-12-04 12:00,ZGNN 041200Z AUTO 04002KT 9SM 13/10 A3006 RMK SLP189 T01290098 52017 IEM_DS3505
ZGNN,2000-12-04 13:00,ZGNN 041300Z AUTO 34004KT 6SM 13/10 A3006 RMK T01300100 IEM_DS3505
ZGNN,2000-12-04 15:00,ZGNN 041500Z AUTO 00000KT 9SM 10/09 RMK SLP192 T01040088 52005 IEM_DS3505
ZGNN,2000-12-04 18:00,ZGNN 041800Z AUTO 00000KT 7SM 10/08 RMK SLP186 T00950083 57005 IEM_DS3505
ZGNN,2000-12-04 21:00,ZGNN 042100Z AUTO 00000KT 7SM 11/10 RMK SLP181 T01080098 57005 IEM_DS3505
ZGNN,2000-12-04 22:00,ZGNN 042200Z AUTO 00000KT 6SM 10/10 A3009 RMK T01000100 IEM_DS3505
ZGNN,2000-12-04 23:00,ZGNN 042300Z AUTO 00000KT 7SM 10/09 A3009 RMK T01000090 IEM_DS3505
ZGNN,2000-12-05 00:00,ZGNN 050000Z AUTO 00000KT 5SM 09/08 A3012 RMK SLP206 T00900082 52023 IEM_DS3505
ZGNN,2000-12-05 01:00,ZGNN 050100Z AUTO 01004KT 7SM 14/11 A3015 RMK T01400110 IEM_DS3505
ZGNN,2000-12-05 02:00,ZGNN 050200Z AUTO 34004KT 7SM 16/10 A3018 RMK T01600100 IEM_DS3505
ZGNN,2000-12-05 03:00,ZGNN 050300Z AUTO 34004KT 9SM 17/08 A3015 RMK SLP214 T01700085 52009 IEM_DS3505
ZGNN,2000-12-05 04:00,ZGNN 050400Z AUTO 05006KT 7SM 18/09 A3015 RMK T01800090 IEM_DS3505
ZGNN,2000-12-05 05:00,ZGNN 050500Z AUTO 01008KT 6SM 19/10 A3009 RMK T01900100 IEM_DS3505
ZGNN,2000-12-05 06:00,ZGNN 050600Z AUTO 32004KT 9SM 19/10 A3006 RMK SLP176 T01940097 57037 IEM_DS3505
ZGNN,2000-12-05 07:00,ZGNN 050700Z AUTO 05006KT 6SM 20/10 A3003 RMK T02000100 IEM_DS3505
ZGNN,2000-12-05 08:00,ZGNN 050800Z AUTO 33004KT 6SM 20/10 A3003 RMK T02000100 IEM_DS3505
ZGNN,2000-12-05 09:00,ZGNN 050900Z AUTO 34004KT 12SM 20/10 A3003 RMK SLP170 T01950101 57006 IEM_DS3505
ZGNN,2000-12-05 10:00,ZGNN 051000Z AUTO 04004KT 6SM 18/12 A3003 RMK T01800120 IEM_DS3505
ZGNN,2000-12-05 11:00,ZGNN 051100Z AUTO 34004KT 6SM 16/12 A3006 RMK T01600120 IEM_DS3505
ZGNN,2000-12-05 12:00,ZGNN 051200Z AUTO 00000KT 12SM 16/12 A3006 RMK SLP183 T01560123 52012 IEM_DS3505
ZGNN,2000-12-05 13:00,ZGNN 051300Z AUTO 02004KT 6SM 16/13 A3009 RMK T01600130 IEM_DS3505
ZGNN,2000-12-05 14:00,ZGNN 051400Z AUTO 36004KT 6SM 16/13 A3009 RMK T01600130 IEM_DS3505
ZGNN,2000-12-05 15:00,ZGNN 051500Z AUTO 00000KT 12SM 16/14 RMK SLP187 T01620139 52006 IEM_DS3505
ZGNN,2000-12-05 18:00,ZGNN 051800Z AUTO 00000KT 12SM 16/14 RMK SLP178 T01620139 57008 IEM_DS3505
ZGNN,2000-12-05 21:00,ZGNN 052100Z AUTO 00000KT 12SM 16/12 A3006 RMK SLP182 T01600116 52004 IEM_DS3505
ZGNN,2000-12-05 22:00,ZGNN 052200Z AUTO 05004KT 4SM 16/13 A3009 RMK T01600130 IEM_DS3505
ZGNN,2000-12-05 23:00,ZGNN 052300Z AUTO 00000KT 2 1/2SM 15/13 A3009 RMK T01500130 IEM_DS3505
ZGNN,2000-12-06 00:00,ZGNN 060000Z AUTO 00000KT 6SM 15/13 A3012 RMK SLP204 T01480130 52020 IEM_DS3505
ZGNN,2000-12-06 01:00,ZGNN 060100Z AUTO 00000KT 2SM 17/13 A3015 RMK T01700130 IEM_DS3505
ZGNN,2000-12-06 02:00,ZGNN 060200Z AUTO 11008KT 3SM 19/11 A3015 RMK T01900110 IEM_DS3505
ZGNN,2000-12-06 03:00,ZGNN 060300Z AUTO 14004KT 6SM 21/10 A3015 RMK SLP203 T02080102 52001 IEM_DS3505
ZGNN,2000-12-06 04:00,ZGNN 060400Z AUTO 13010KT 5SM 23/10 A3012 RMK T02300100 IEM_DS3505
ZGNN,2000-12-06 05:00,ZGNN 060500Z AUTO 09006KT 6SM 24/12 A3006 RMK T02400120 IEM_DS3505
ZGNN,2000-12-06 06:00,ZGNN 060600Z AUTO 14004KT 7SM 24/12 A3003 RMK SLP164 T02420125 57038 IEM_DS3505
ZGNN,2000-12-06 07:00,ZGNN 060700Z AUTO 07004KT 6SM 25/13 A3000 RMK T02500130 IEM_DS3505
ZGNN,2000-12-06 08:00,ZGNN 060800Z AUTO 13008KT 6SM 26/14 A3000 RMK T02600140 IEM_DS3505
ZGNN,2000-12-06 09:00,ZGNN 060900Z AUTO 14006KT 7SM 25/13 A3000 RMK SLP155 T02460130 57009 IEM_DS3505
ZGNN,2000-12-06 10:00,ZGNN 061000Z AUTO 13004KT 6SM 22/15 A3000 RMK T02200150 IEM_DS3505
ZGNN,2000-12-06 11:00,ZGNN 061100Z AUTO 22004KT 6SM 20/15 A3003 RMK T02000150 IEM_DS3505
ZGNN,2000-12-06 12:00,ZGNN 061200Z AUTO 00000KT 7SM 18/15 A3006 RMK SLP173 T01840152 52016 IEM_DS3505
ZGNN,2000-12-06 13:00,ZGNN 061300Z AUTO 00000KT 6SM 18/16 A3006 RMK T01800160 IEM_DS3505
ZGNN,2000-12-06 15:00,ZGNN 061500Z AUTO 00000KT 6SM 16/14 RMK SLP185 T01580144 52013 IEM_DS3505
ZGNN,2000-12-06 18:00,ZGNN 061800Z AUTO 00000KT 6SM 14/13 RMK SLP189 T01400131 52004 IEM_DS3505
ZGNN,2000-12-06 21:00,ZGNN 062100Z AUTO 00000KT 6SM 15/14 RMK SLP184 T01460137 57005 IEM_DS3505
ZGNN,2000-12-06 22:00,ZGNN 062200Z AUTO 34004KT 4SM 15/14 A3009 RMK T01500140 IEM_DS3505
ZGNN,2000-12-06 23:00,ZGNN 062300Z AUTO 00000KT 4SM 15/14 A3009 RMK T01500140 IEM_DS3505
ZGNN,2000-12-07 00:00,ZGNN 070000Z AUTO 00000KT 5SM 14/13 A3012 RMK SLP197 T01420133 52012 IEM_DS3505
ZGNN,2000-12-07 01:00,ZGNN 070100Z AUTO 00000KT 2SM 17/15 A3015 RMK T01700150 IEM_DS3505
ZGNN,2000-12-07 02:00,ZGNN 070200Z AUTO 00000KT 2 1/2SM 20/15 A3018 RMK T02000150 IEM_DS3505
ZGNN,2000-12-07 03:00,ZGNN 070300Z AUTO 09004KT 6SM 21/14 A3015 RMK SLP211 T02120142 52014 IEM_DS3505
ZGNN,2000-12-07 04:00,ZGNN 070400Z AUTO 00000KT 5SM 23/15 A3015 RMK T02300150 IEM_DS3505
ZGNN,2000-12-07 05:00,ZGNN 070500Z AUTO 05004KT 5SM 24/14 A3009 RMK T02400140 IEM_DS3505
ZGNN,2000-12-07 06:00,ZGNN 070600Z AUTO 07002KT 6SM 24/15 A3006 RMK SLP179 T02380150 57031 IEM_DS3505
ZGNN,2000-12-07 07:00,ZGNN 070700Z AUTO 00000KT 7SM 24/15 A3006 RMK T02400150 IEM_DS3505
ZGNN,2000-12-07 08:00,ZGNN 070800Z AUTO 00000KT 7SM 24/14 A3003 RMK T02400140 IEM_DS3505
ZGNN,2000-12-07 09:00,ZGNN 070900Z AUTO 00000KT 7SM 24/15 A3003 RMK SLP170 T02390148 57009 IEM_DS3505
ZGNN,2000-12-07 10:00,ZGNN 071000Z AUTO 33004KT 7SM 23/16 A3003 RMK T02300160 IEM_DS3505
ZGNN,2000-12-07 11:00,ZGNN 071100Z AUTO 35004KT 7SM 21/17 A3006 RMK T02100170 IEM_DS3505
ZGNN,2000-12-07 12:00,ZGNN 071200Z AUTO 00000KT 7SM 20/17 A3009 RMK SLP185 T02050166 52014 IEM_DS3505
ZGNN,2000-12-07 13:00,ZGNN 071300Z AUTO 00000KT 7SM 20/17 A3009 RMK T02000170 IEM_DS3505
ZGNN,2000-12-07 14:00,ZGNN 071400Z AUTO 00000KT 7SM 20/16 A3012 RMK T02000160 IEM_DS3505
ZGNN,2000-12-07 15:00,ZGNN 071500Z AUTO 00000KT 7SM 20/14 RMK SLP194 T02050144 52011 IEM_DS3505
ZGNN,2000-12-07 18:00,ZGNN 071800Z AUTO 32006KT 9SM 19/14 RMK SLP190 T01870144 57004 IEM_DS3505
ZGNN,2000-12-07 21:00,ZGNN 072100Z AUTO 02002KT 8SM 18/14 A3006 RMK SLP177 T01760138 57013 IEM_DS3505
ZGNN,2000-12-07 22:00,ZGNN 072200Z AUTO 00000KT 6SM 17/14 A3006 RMK T01700140 IEM_DS3505
ZGNN,2000-12-07 23:00,ZGNN 072300Z AUTO 00000KT 7SM 17/14 A3006 RMK T01700140 IEM_DS3505
ZGNN,2000-12-08 00:00,ZGNN 080000Z AUTO 00000KT 4SM 16/14 A3009 RMK SLP186 T01600141 52008 IEM_DS3505
ZGNN,2000-12-08 01:00,ZGNN 080100Z AUTO 34004KT 4SM 18/14 A3012 RMK T01800140 IEM_DS3505
ZGNN,2000-12-08 02:00,ZGNN 080200Z AUTO 35004KT 4SM 19/14 A3015 RMK T01900140 IEM_DS3505
ZGNN,2000-12-08 03:00,ZGNN 080300Z AUTO 07002KT 4SM 21/14 A3015 RMK SLP188 T02140141 52003 IEM_DS3505
ZGNN,2000-12-08 04:00,ZGNN 080400Z AUTO 02004KT 5SM 23/13 A3009 RMK T02300130 IEM_DS3505
ZGNN,2000-12-08 05:00,ZGNN 080500Z AUTO 00000KT 5SM 23/14 A3003 RMK T02300140 IEM_DS3505
ZGNN,2000-12-08 06:00,ZGNN 080600Z AUTO 14002KT 4SM 25/14 A3000 RMK SLP149 T02480145 57038 IEM_DS3505
ZGNN,2000-12-08 07:00,ZGNN 080700Z AUTO 00000KT 6SM 26/14 A2997 RMK T02600140 IEM_DS3505
ZGNN,2000-12-08 08:00,ZGNN 080800Z AUTO 00000KT 6SM 26/14 A2994 RMK T02600140 IEM_DS3505
ZGNN,2000-12-08 09:00,ZGNN 080900Z AUTO 14002KT 5SM 25/15 A2994 RMK SLP138 T02500149 57011 IEM_DS3505
ZGNN,2000-12-08 10:00,ZGNN 081000Z AUTO 00000KT 6SM 22/16 A2997 RMK T02200160 IEM_DS3505
ZGNN,2000-12-08 11:00,ZGNN 081100Z AUTO 00000KT 6SM 21/16 A2997 RMK T02100160 IEM_DS3505
ZGNN,2000-12-08 12:00,ZGNN 081200Z AUTO 00000KT 5SM 19/16 A3000 RMK SLP154 T01940159 52014 IEM_DS3505
ZGNN,2000-12-08 13:00,ZGNN 081300Z AUTO 19004KT 21/14 A3000 RMK T02100140 IEM_DS3505
ZGNN,2000-12-08 14:00,ZGNN 081400Z AUTO 21004KT 21/14 A3003 RMK T02100140 IEM_DS3505
ZGNN,2000-12-08 15:00,ZGNN 081500Z AUTO 14004KT 6SM 21/14 A3000 RMK SLP160 T02070142 52008 IEM_DS3505
ZGNN,2000-12-08 18:00,ZGNN 081800Z AUTO 00000KT 6SM 18/16 RMK SLP149 T01800155 57011 IEM_DS3505
ZGNN,2000-12-08 21:00,ZGNN 082100Z AUTO 00000KT 4SM 16/15 RMK SLP139 T01620150 57010 IEM_DS3505
ZGNN,2000-12-08 22:00,ZGNN 082200Z AUTO 34004KT 2 1/2SM 16/15 A2997 RMK T01600150 IEM_DS3505
ZGNN,2000-12-08 23:00,ZGNN 082300Z AUTO 01004KT 2SM 15/15 A2997 RMK T01500150 IEM_DS3505
ZGNN,2000-12-09 00:00,ZGNN 090000Z AUTO 09004KT 1 1/4SM 17/16 A3000 RMK SLP155 T01700163 52014 IEM_DS3505
ZGNN,2000-12-09 01:00,ZGNN 090100Z AUTO 00000KT 1 1/2SM 18/17 A3000 RMK T01800170 IEM_DS3505
ZGNN,2000-12-09 02:00,ZGNN 090200Z AUTO 14008KT 4SM 21/18 A3003 RMK T02100180 IEM_DS3505
ZGNN,2000-12-09 03:00,ZGNN 090300Z AUTO 18006KT 5SM 21/17 A3003 RMK SLP164 T02140170 52010 IEM_DS3505
ZGNN,2000-12-09 04:00,ZGNN 090400Z AUTO 15012KT 6SM 24/16 A3000 RMK T02400160 IEM_DS3505
ZGNN,2000-12-09 05:00,ZGNN 090500Z AUTO 16017KT 6SM 24/17 A2997 RMK T02400170 IEM_DS3505
ZGNN,2000-12-09 06:00,ZGNN 090600Z AUTO 18006KT 8SM 24/16 A2994 RMK SLP134 T02420161 57029 IEM_DS3505
ZGNN,2000-12-09 07:00,ZGNN 090700Z AUTO 13016KT 6SM 25/16 A2991 RMK T02500160 IEM_DS3505
ZGNN,2000-12-09 08:00,ZGNN 090800Z AUTO 15016KT 6SM 25/15 A2991 RMK T02500150 IEM_DS3505
ZGNN,2000-12-09 09:00,ZGNN 090900Z AUTO 16008KT 10SM 24/15 A2991 RMK SLP127 T02390146 57008 IEM_DS3505
ZGNN,2000-12-09 10:00,ZGNN 091000Z AUTO 14006KT 6SM 21/16 A2991 RMK T02100160 IEM_DS3505
ZGNN,2000-12-09 11:00,ZGNN 091100Z AUTO 17004KT 6SM 22/16 A2994 RMK T02200160 IEM_DS3505
ZGNN,2000-12-09 12:00,ZGNN 091200Z AUTO 27002KT 12SM 21/17 A2997 RMK SLP142 T02130166 52015 IEM_DS3505
ZGNN,2000-12-09 13:00,ZGNN 091300Z AUTO 14006KT 6SM 21/17 A2997 RMK T02100170 IEM_DS3505
ZGNN,2000-12-09 15:00,ZGNN 091500Z AUTO 07002KT 12SM 20/17 RMK SLP149 T01980169 52007 IEM_DS3505
ZGNN,2000-12-09 18:00,ZGNN 091800Z AUTO 07002KT 11SM 19/17 RMK SLP149 T01890168 52001 IEM_DS3505
ZGNN,2000-12-09 21:00,ZGNN 092100Z AUTO 00000KT 7SM 19/17 A3000 RMK SLP155 T01870172 52006 IEM_DS3505
ZGNN,2000-12-09 22:00,ZGNN 092200Z AUTO 04004KT 4SM 18/17 A3003 RMK T01800170 IEM_DS3505
ZGNN,2000-12-09 23:00,ZGNN 092300Z AUTO 02004KT 4SM 17/17 A3003 RMK T01700170 IEM_DS3505
ZGNN,2000-12-10 00:00,ZGNN 100000Z AUTO 00000KT 6SM 19/18 A3009 RMK SLP182 T01900179 52026 IEM_DS3505
ZGNN,2000-12-10 01:00,ZGNN 100100Z AUTO 00000KT 2 1/2SM 19/18 A3009 RMK T01900180 IEM_DS3505
ZGNN,2000-12-10 02:00,ZGNN 100200Z AUTO 10004KT 7SM 21/18 A3012 RMK T02100180 IEM_DS3505
ZGNN,2000-12-10 03:00,ZGNN 100300Z AUTO 14006KT 6SM 22/18 A3012 RMK SLP193 T02200177 52011 IEM_DS3505
ZGNN,2000-12-10 04:00,ZGNN 100400Z AUTO 15006KT 7SM 23/18 A3009 RMK T02300180 IEM_DS3505
ZGNN,2000-12-10 05:00,ZGNN 100500Z AUTO 00000KT 7SM 24/18 A3006 RMK T02400180 IEM_DS3505
ZGNN,2000-12-10 06:00,ZGNN 100600Z AUTO 00000KT 9SM 24/18 A3003 RMK 60003 SLP169 T02400175 57023 IEM_DS3505
ZGNN,2000-12-10 07:00,ZGNN 100700Z AUTO 00000KT 7SM 25/18 A3003 RMK T02500180 IEM_DS3505
ZGNN,2000-12-10 08:00,ZGNN 100800Z AUTO 12004KT 7SM 25/18 A3003 RMK T02500180 IEM_DS3505
ZGNN,2000-12-10 09:00,ZGNN 100900Z AUTO 07004KT 12SM 24/18 A3003 RMK SLP166 T02420175 57003 IEM_DS3505
ZGNN,2000-12-10 10:00,ZGNN 101000Z AUTO 07004KT 7SM 23/17 A3003 RMK T02300170 IEM_DS3505
ZGNN,2000-12-10 11:00,ZGNN 101100Z AUTO 08004KT 7SM 22/18 A3006 RMK T02200180 IEM_DS3505
ZGNN,2000-12-10 12:00,ZGNN 101200Z AUTO 00000KT 9SM 21/18 A3006 RMK SLP180 T02120177 52013 IEM_DS3505
ZGNN,2000-12-10 13:00,ZGNN 101300Z AUTO 35004KT 7SM 20/18 A3009 RMK T02000180 IEM_DS3505
ZGNN,2000-12-10 15:00,ZGNN 101500Z AUTO 00000KT 9SM 20/17 RMK SLP190 T01970168 52010 IEM_DS3505
ZGNN,2000-12-10 18:00,ZGNN 101800Z AUTO 07002KT 7SM 18/16 RMK SLP186 T01850158 57004 IEM_DS3505
ZGNN,2000-12-10 21:00,ZGNN 102100Z AUTO 07004KT 9SM 18/14 A3009 RMK 70003 SLP184 T01780138 57002 IEM_DS3505
ZGNN,2000-12-10 22:00,ZGNN 102200Z AUTO 04006KT 4SM 18/14 A3012 RMK T01800140 IEM_DS3505
ZGNN,2000-12-10 23:00,ZGNN 102300Z AUTO 04006KT 4SM 18/14 A3015 RMK T01800140 IEM_DS3505
ZGNN,2000-12-11 00:00,ZGNN 110000Z AUTO 04002KT 4SM 17/12 A3018 RMK 70003 SLP214 T01670124 52029 IEM_DS3505
ZGNN,2000-12-11 01:00,ZGNN 110100Z AUTO 02006KT 4SM 17/13 A3021 RMK T01700130 IEM_DS3505
ZGNN,2000-12-11 02:00,ZGNN 110200Z AUTO 04006KT 5SM 19/12 A3021 RMK T01900120 IEM_DS3505
ZGNN,2000-12-11 03:00,ZGNN 110300Z AUTO 09004KT 5SM 19/12 A3021 RMK SLP223 T01890115 52009 IEM_DS3505
ZGNN,2000-12-11 04:00,ZGNN 110400Z AUTO 04010KT 5SM 21/12 A3018 RMK T02100120 IEM_DS3505
ZGNN,2000-12-11 05:00,ZGNN 110500Z AUTO 09010KT 5SM 22/12 A3015 RMK T02200120 IEM_DS3505
ZGNN,2000-12-11 06:00,ZGNN 110600Z AUTO 09004KT 5SM 22/12 A3012 RMK SLP193 T02180125 57029 IEM_DS3505
ZGNN,2000-12-11 07:00,ZGNN 110700Z AUTO 10006KT 6SM 23/13 A3009 RMK T02300130 IEM_DS3505
ZGNN,2000-12-11 08:00,ZGNN 110800Z AUTO 03008KT 6SM 23/13 A3009 RMK T02300130 IEM_DS3505
ZGNN,2000-12-11 09:00,ZGNN 110900Z AUTO 00000KT 5SM 22/12 A3009 RMK SLP189 T02230125 57004 IEM_DS3505
ZGNN,2000-12-11 10:00,ZGNN 111000Z AUTO 06004KT 5SM 21/13 A3009 RMK T02100130 IEM_DS3505
ZGNN,2000-12-11 11:00,ZGNN 111100Z AUTO 02004KT 19/13 A3009 RMK T01900130 IEM_DS3505
ZGNN,2000-12-11 12:00,ZGNN 111200Z AUTO 00000KT 6SM 17/14 A3012 RMK SLP195 T01740135 52004 IEM_DS3505
ZGNN,2000-12-11 13:00,ZGNN 111300Z AUTO 04004KT 4SM 17/14 A3012 RMK T01700140 IEM_DS3505
ZGNN,2000-12-11 15:00,ZGNN 111500Z AUTO 00000KT 6SM 16/13 RMK SLP207 T01650129 52012 IEM_DS3505
ZGNN,2000-12-11 18:00,ZGNN 111800Z AUTO 00000KT 6SM 17/12 RMK SLP207 T01710122 52001 IEM_DS3505
ZGNN,2000-12-11 21:00,ZGNN 112100Z AUTO 00000KT 6SM 16/12 RMK SLP203 T01630115 57004 IEM_DS3505
ZGNN,2000-12-11 22:00,ZGNN 112200Z AUTO 03006KT 4SM 16/11 A3015 RMK T01600110 IEM_DS3505
ZGNN,2000-12-11 23:00,ZGNN 112300Z AUTO 03006KT 4SM 16/11 A3015 RMK T01600110 IEM_DS3505
ZGNN,2000-12-12 00:00,ZGNN 120000Z AUTO 04002KT 3SM 16/10 A3018 RMK SLP215 T01580099 52010 IEM_DS3505
ZGNN,2000-12-12 01:00,ZGNN 120100Z AUTO 06008KT 16/10 A3021 RMK T01600100 IEM_DS3505
ZGNN,2000-12-12 02:00,ZGNN 120200Z AUTO 06008KT 6SM 16/10 A3021 RMK T01600100 IEM_DS3505
ZGNN,2000-12-12 03:00,ZGNN 120300Z AUTO 07004KT 6SM 16/09 A3024 RMK SLP236 T01570089 52021 IEM_DS3505
ZGNN,2000-12-12 04:00,ZGNN 120400Z AUTO 06012KT 15/09 A3021 RMK T01500090 IEM_DS3505
ZGNN,2000-12-12 05:00,ZGNN 120500Z AUTO 06010KT 2 1/2SM 16/09 A3018 RMK T01600090 IEM_DS3505
ZGNN,2000-12-12 06:00,ZGNN 120600Z AUTO 07006KT 6SM 15/09 A3018 RMK 60003 SLP215 T01530089 57021 IEM_DS3505
ZGNN,2000-12-12 07:00,ZGNN 120700Z AUTO 01008KT 15/09 A3015 RMK T01500090 IEM_DS3505
ZGNN,2000-12-12 08:00,ZGNN 120800Z AUTO 01006KT 4SM 14/09 A3018 RMK T01400090 IEM_DS3505
ZGNN,2000-12-12 09:00,ZGNN 120900Z AUTO 36006KT 7SM 14/08 A3018 RMK SLP223 T01360080 52007 IEM_DS3505
ZGNN,2000-12-12 10:00,ZGNN 121000Z AUTO 36012KT 7SM 13/08 A3021 RMK T01300080 IEM_DS3505
ZGNN,2000-12-12 11:00,ZGNN 121100Z AUTO 36010KT 5SM 12/08 A3024 RMK T01200080 IEM_DS3505
ZGNN,2000-12-12 12:00,ZGNN 121200Z AUTO 36008KT 6SM 12/08 A3024 RMK 60003 SLP242 T01150076 52019 IEM_DS3505
ZGNN,2000-12-12 13:00,ZGNN 121300Z AUTO 33012KT 5SM 11/09 A3027 RMK T01100090 IEM_DS3505
ZGNN,2000-12-12 15:00,ZGNN 121500Z AUTO 36006KT 6SM 11/06 RMK SLP246 T01140058 52003 IEM_DS3505
ZGNN,2000-12-12 18:00,ZGNN 121800Z AUTO 36006KT 6SM 11/04 RMK SLP242 T01120040 57004 IEM_DS3505
ZGNN,2000-12-12 21:00,ZGNN 122100Z AUTO 36008KT 7SM 11/02 A3021 RMK 70003 SLP236 T01100024 57006 IEM_DS3505
ZGNN,2000-12-12 22:00,ZGNN 122200Z AUTO 36004KT 7SM 11/03 A3024 RMK T01100030 IEM_DS3505
ZGNN,2000-12-12 23:00,ZGNN 122300Z AUTO 35006KT 7SM 11/03 A3024 RMK T01100030 IEM_DS3505
ZGNN,2000-12-13 00:00,ZGNN 130000Z AUTO 36006KT 19SM 11/02 A3024 RMK 70003 SLP247 T01080024 52010 IEM_DS3505
ZGNN,2000-12-13 01:00,ZGNN 130100Z AUTO 34006KT 7SM 12/03 A3027 RMK T01200030 IEM_DS3505
ZGNN,2000-12-13 02:00,ZGNN 130200Z AUTO 33004KT 7SM 12/03 A3027 RMK T01200030 IEM_DS3505
ZGNN,2000-12-13 03:00,ZGNN 130300Z AUTO 02006KT 19SM 12/02 A3027 RMK SLP245 T01220020 57002 IEM_DS3505
ZGNN,2000-12-13 04:00,ZGNN 130400Z AUTO 01006KT 7SM 13/03 A3021 RMK T01300030 IEM_DS3505
ZGNN,2000-12-13 05:00,ZGNN 130500Z AUTO 34012KT 6SM 14/02 A3018 RMK T01400020 IEM_DS3505
ZGNN,2000-12-13 06:00,ZGNN 130600Z AUTO 32004KT 19SM 15/02 A3015 RMK SLP203 T01460025 57040 IEM_DS3505
ZGNN,2000-12-13 07:00,ZGNN 130700Z AUTO 33012KT 6SM 17/04 A3009 RMK T01700040 IEM_DS3505
ZGNN,2000-12-13 08:00,ZGNN 130800Z AUTO 33010KT 6SM 17/04 A3009 RMK T01700040 IEM_DS3505
ZGNN,2000-12-13 09:00,ZGNN 130900Z AUTO 36006KT 19SM 16/04 A3009 RMK SLP192 T01640040 57011 IEM_DS3505
ZGNN,2000-12-13 10:00,ZGNN 131000Z AUTO 03006KT 6SM 16/05 A3012 RMK T01600050 IEM_DS3505
ZGNN,2000-12-13 11:00,ZGNN 131100Z AUTO 36004KT 6SM 13/05 A3012 RMK T01300050 IEM_DS3505
ZGNN,2000-12-13 12:00,ZGNN 131200Z AUTO 07002KT 19SM 12/06 A3015 RMK SLP206 T01240056 52013 IEM_DS3505
ZGNN,2000-12-13 13:00,ZGNN 131300Z AUTO 33004KT 6SM 12/06 A3015 RMK T01200060 IEM_DS3505
ZGNN,2000-12-13 15:00,ZGNN 131500Z AUTO 00000KT 17SM 09/07 RMK SLP217 T00910067 52010 IEM_DS3505
ZGNN,2000-12-13 18:00,ZGNN 131800Z AUTO 00000KT 16SM 07/06 RMK SLP219 T00720056 52002 IEM_DS3505
ZGNN,2000-12-13 21:00,ZGNN 132100Z AUTO 00000KT 12SM 06/05 RMK SLP219 T00590047 52001 IEM_DS3505
ZGNN,2000-12-13 22:00,ZGNN 132200Z AUTO 00000KT 6SM 06/06 A3021 RMK T00600060 IEM_DS3505
ZGNN,2000-12-13 23:00,ZGNN 132300Z AUTO 36004KT 6SM 06/05 A3021 RMK T00600050 IEM_DS3505
ZGNN,2000-12-14 00:00,ZGNN 140000Z AUTO 00000KT 7SM 05/05 A3024 RMK SLP243 T00540049 52022 IEM_DS3505
ZGNN,2000-12-14 01:00,ZGNN 140100Z AUTO 00000KT 6SM 10/07 A3024 RMK T01000070 IEM_DS3505
ZGNN,2000-12-14 02:00,ZGNN 140200Z AUTO 31006KT 6SM 12/04 A3027 RMK T01200040 IEM_DS3505
ZGNN,2000-12-14 03:00,ZGNN 140300Z AUTO 34006KT 11SM 13/04 A3024 RMK SLP239 T01330044 57003 IEM_DS3505
ZGNN,2000-12-14 04:00,ZGNN 140400Z AUTO 33008KT 6SM 15/05 A3021 RMK T01500050 IEM_DS3505
ZGNN,2000-12-14 05:00,ZGNN 140500Z AUTO 35004KT 6SM 16/05 A3015 RMK T01600050 IEM_DS3505
ZGNN,2000-12-14 06:00,ZGNN 140600Z AUTO 32006KT 12SM 16/05 A3012 RMK SLP203 T01630047 57035 IEM_DS3505
ZGNN,2000-12-14 07:00,ZGNN 140700Z AUTO 33008KT 6SM 17/06 A3012 RMK T01700060 IEM_DS3505
ZGNN,2000-12-14 08:00,ZGNN 140800Z AUTO 03008KT 6SM 18/06 A3012 RMK T01800060 IEM_DS3505
ZGNN,2000-12-14 09:00,ZGNN 140900Z AUTO 36006KT 12SM 17/05 A3012 RMK SLP199 T01730051 57004 IEM_DS3505
ZGNN,2000-12-14 10:00,ZGNN 141000Z AUTO 33004KT 6SM 16/07 A3012 RMK T01600070 IEM_DS3505
ZGNN,2000-12-14 11:00,ZGNN 141100Z AUTO 00000KT 6SM 14/08 A3012 RMK T01400080 IEM_DS3505
ZGNN,2000-12-14 12:00,ZGNN 141200Z AUTO 00000KT 12SM 12/07 A3015 RMK SLP213 T01190074 52012 IEM_DS3505
ZGNN,2000-12-14 13:00,ZGNN 141300Z AUTO 00000KT 6SM 11/08 A3015 RMK T01100080 IEM_DS3505
ZGNN,2000-12-14 14:00,ZGNN 141400Z AUTO 00000KT 6SM 11/08 A3018 RMK T01100080 IEM_DS3505
ZGNN,2000-12-14 15:00,ZGNN 141500Z AUTO 00000KT 11SM 09/07 RMK SLP219 T00910067 52008 IEM_DS3505
ZGNN,2000-12-14 18:00,ZGNN 141800Z AUTO 00000KT 11SM 08/07 RMK SLP219 T00840067 54000 IEM_DS3505
ZGNN,2000-12-14 21:00,ZGNN 142100Z AUTO 20004KT 9SM 10/07 A3015 RMK SLP210 T01020070 57008 IEM_DS3505
ZGNN,2000-12-14 22:00,ZGNN 142200Z AUTO 00000KT 6SM 11/07 A3015 RMK T01100070 IEM_DS3505
ZGNN,2000-12-14 23:00,ZGNN 142300Z AUTO 00000KT 6SM 11/08 A3018 RMK T01100080 IEM_DS3505
ZGNN,2000-12-15 00:00,ZGNN 150000Z AUTO 00000KT 5SM 10/08 A3018 RMK SLP223 T00990083 52011 IEM_DS3505
ZGNN,2000-12-15 01:00,ZGNN 150100Z AUTO 00000KT 6SM 12/07 A3021 RMK T01200070 IEM_DS3505
ZGNN,2000-12-15 02:00,ZGNN 150200Z AUTO 05006KT 6SM 13/07 A3021 RMK T01300070 IEM_DS3505
ZGNN,2000-12-15 03:00,ZGNN 150300Z AUTO 00000KT 6SM 14/07 A3018 RMK SLP225 T01420068 52003 IEM_DS3505
ZGNN,2000-12-15 04:00,ZGNN 150400Z AUTO 05004KT 7SM 15/07 A3015 RMK T01500070 IEM_DS3505
ZGNN,2000-12-15 05:00,ZGNN 150500Z AUTO 05004KT 7SM 15/08 A3015 RMK T01500080 IEM_DS3505
ZGNN,2000-12-15 06:00,ZGNN 150600Z AUTO 04004KT 6SM 16/07 A3012 RMK SLP200 T01560072 57025 IEM_DS3505
ZGNN,2000-12-15 07:00,ZGNN 150700Z AUTO 03002KT 7SM 17/09 A3009 RMK T01700090 IEM_DS3505
ZGNN,2000-12-15 08:00,ZGNN 150800Z AUTO 06002KT 7SM 17/09 A3009 RMK T01700090 IEM_DS3505
ZGNN,2000-12-15 09:00,ZGNN 150900Z AUTO 04002KT 6SM 17/10 A3009 RMK SLP194 T01670095 57005 IEM_DS3505
ZGNN,2000-12-15 10:00,ZGNN 151000Z AUTO 03002KT 7SM 16/10 A3012 RMK T01600100 IEM_DS3505
ZGNN,2000-12-15 11:00,ZGNN 151100Z AUTO 00000KT 7SM 16/11 A3012 RMK T01600110 IEM_DS3505
ZGNN,2000-12-15 12:00,ZGNN 151200Z AUTO 00000KT 7SM 16/11 A3015 RMK SLP204 T01570106 52010 IEM_DS3505
ZGNN,2000-12-15 13:00,ZGNN 151300Z AUTO 00000KT 7SM 16/11 A3015 RMK T01600110 IEM_DS3505
ZGNN,2000-12-15 15:00,ZGNN 151500Z AUTO 00000KT 7SM 15/10 RMK SLP211 T01530102 52008 IEM_DS3505
ZGNN,2000-12-15 18:00,ZGNN 151800Z AUTO 00000KT 9SM 15/10 RMK SLP214 T01500105 52003 IEM_DS3505
ZGNN,2000-12-15 21:00,ZGNN 152100Z AUTO 00000KT 7SM 15/12 RMK SLP218 T01490116 52004 IEM_DS3505
ZGNN,2000-12-15 22:00,ZGNN 152200Z AUTO 00000KT 4SM 15/12 A3018 RMK T01500120 IEM_DS3505
ZGNN,2000-12-15 23:00,ZGNN 152300Z AUTO 34004KT 4SM 15/11 A3021 RMK T01500110 IEM_DS3505
ZGNN,2000-12-16 00:00,ZGNN 160000Z AUTO 00000KT 4SM 15/12 A3021 RMK SLP234 T01480119 52015 IEM_DS3505
ZGNN,2000-12-16 01:00,ZGNN 160100Z AUTO 33004KT 2 1/2SM 16/11 A3024 RMK T01600110 IEM_DS3505
ZGNN,2000-12-16 02:00,ZGNN 160200Z AUTO 00000KT 2 1/2SM 16/12 A3027 RMK T01600120 IEM_DS3505
ZGNN,2000-12-16 03:00,ZGNN 160300Z AUTO 04002KT 4SM 17/11 A3024 RMK SLP240 T01660113 52007 IEM_DS3505
ZGNN,2000-12-16 04:00,ZGNN 160400Z AUTO 36004KT 2 1/2SM 18/11 A3024 RMK T01800110 IEM_DS3505
ZGNN,2000-12-16 05:00,ZGNN 160500Z AUTO 33004KT 2 1/2SM 18/11 A3018 RMK T01800110 IEM_DS3505
ZGNN,2000-12-16 06:00,ZGNN 160600Z AUTO 27002KT 6SM 20/12 A3015 RMK SLP204 T02000120 57035 IEM_DS3505
ZGNN,2000-12-16 07:00,ZGNN 160700Z AUTO 33004KT 19/12 A3012 RMK T01900120 IEM_DS3505
ZGNN,2000-12-16 08:00,ZGNN 160800Z AUTO 36004KT 20/11 A3012 RMK T02000110 IEM_DS3505
ZGNN,2000-12-16 09:00,ZGNN 160900Z AUTO 36008KT 6SM 19/11 A3015 RMK SLP204 T01900108 54000 IEM_DS3505
ZGNN,2000-12-16 10:00,ZGNN 161000Z AUTO 03004KT 18/10 A3015 RMK T01800100 IEM_DS3505
ZGNN,2000-12-16 11:00,ZGNN 161100Z AUTO 35004KT 3SM 18/11 A3018 RMK T01800110 IEM_DS3505
ZGNN,2000-12-16 12:00,ZGNN 161200Z AUTO 36004KT 6SM 18/11 RMK SLP221 T01760110 52016 IEM_DS3505
ZGNN,2000-12-16 13:00,ZGNN 161300Z AUTO 01004KT 3SM 17/12 A3021 RMK T01700120 IEM_DS3505
ZGNN,2000-12-16 14:00,ZGNN 161400Z AUTO 36004KT 3SM 17/12 A3021 RMK T01700120 IEM_DS3505
ZGNN,2000-12-16 15:00,ZGNN 161500Z AUTO 00000KT 6SM 17/12 RMK SLP228 T01670118 52007 IEM_DS3505
ZGNN,2000-12-16 18:00,ZGNN 161800Z AUTO 00000KT 6SM 16/12 RMK SLP218 T01560123 57009 IEM_DS3505
ZGNN,2000-12-16 21:00,ZGNN 162100Z AUTO 34002KT 9SM 16/11 A3018 RMK SLP214 T01550114 57004 IEM_DS3505
ZGNN,2000-12-16 22:00,ZGNN 162200Z AUTO 34004KT 4SM 15/12 A3018 RMK T01500120 IEM_DS3505
ZGNN,2000-12-16 23:00,ZGNN 162300Z AUTO 00000KT 4SM 15/12 A3021 RMK T01500120 IEM_DS3505
ZGNN,2000-12-17 00:00,ZGNN 170000Z AUTO 00000KT 4SM 13/11 A3021 RMK SLP233 T01330112 52018 IEM_DS3505
ZGNN,2000-12-17 01:00,ZGNN 170100Z AUTO 00000KT 2 1/2SM 15/13 A3024 RMK T01500130 IEM_DS3505
ZGNN,2000-12-17 02:00,ZGNN 170200Z AUTO 00000KT 4SM 18/12 A3024 RMK T01800120 IEM_DS3505
ZGNN,2000-12-17 03:00,ZGNN 170300Z AUTO 00000KT 4SM 19/12 A3021 RMK SLP224 T01900118 57008 IEM_DS3505
ZGNN,2000-12-17 04:00,ZGNN 170400Z AUTO 00000KT 21/12 A3018 RMK T02100120 IEM_DS3505
ZGNN,2000-12-17 05:00,ZGNN 170500Z AUTO 15006KT 6SM 22/13 A3012 RMK T02200130 IEM_DS3505
ZGNN,2000-12-17 06:00,ZGNN 170600Z AUTO 20002KT 6SM 23/12 A3006 RMK SLP176 T02320124 57047 IEM_DS3505
ZGNN,2000-12-17 07:00,ZGNN 170700Z AUTO 00000KT 6SM 24/14 A3003 RMK T02400140 IEM_DS3505
ZGNN,2000-12-17 08:00,ZGNN 170800Z AUTO 15006KT 6SM 24/14 A3000 RMK T02400140 IEM_DS3505
ZGNN,2000-12-17 09:00,ZGNN 170900Z AUTO 09002KT 8SM 23/14 A3000 RMK SLP157 T02340135 57018 IEM_DS3505
ZGNN,2000-12-17 10:00,ZGNN 171000Z AUTO 03004KT 6SM 22/14 A3000 RMK T02200140 IEM_DS3505
ZGNN,2000-12-17 11:00,ZGNN 171100Z AUTO 35004KT 6SM 19/15 A3003 RMK T01900150 IEM_DS3505
ZGNN,2000-12-17 12:00,ZGNN 171200Z AUTO 00000KT 7SM 17/14 A3003 RMK SLP174 T01710136 52014 IEM_DS3505
ZGNN,2000-12-17 13:00,ZGNN 171300Z AUTO 01004KT 6SM 17/14 A3006 RMK T01700140 IEM_DS3505
ZGNN,2000-12-17 15:00,ZGNN 171500Z AUTO 00000KT 7SM 15/13 RMK SLP174 T01490129 52001 IEM_DS3505
ZGNN,2000-12-17 18:00,ZGNN 171800Z AUTO 00000KT 6SM 17/13 RMK SLP168 T01730129 57004 IEM_DS3505
ZGNN,2000-12-17 21:00,ZGNN 172100Z AUTO 00000KT 6SM 17/13 RMK SLP157 T01740132 57011 IEM_DS3505
ZGNN,2000-12-17 23:00,ZGNN 172300Z AUTO 00000KT 4SM 16/13 A3003 RMK T01600130 IEM_DS3505
ZGNN,2000-12-18 00:00,ZGNN 180000Z AUTO 00000KT 5SM 16/13 A3003 RMK SLP167 T01640132 52008 IEM_DS3505
ZGNN,2000-12-18 01:19,ZGNN 180119Z AUTO 01004KT 5SM 18/14 A3006 RMK T01800140 IEM_DS3505
ZGNN,2000-12-18 02:00,ZGNN 180200Z AUTO 00000KT 4SM 20/15 A3006 RMK T02000150 IEM_DS3505
ZGNN,2000-12-18 03:00,ZGNN 180300Z AUTO 18002KT 5SM 22/15 A3003 RMK SLP168 T02200154 52002 IEM_DS3505
ZGNN,2000-12-18 04:00,ZGNN 180400Z AUTO 14012KT 6SM 25/15 A3000 RMK T02500150 IEM_DS3505
ZGNN,2000-12-18 05:00,ZGNN 180500Z AUTO 14008KT 6SM 26/15 A2994 RMK T02600150 IEM_DS3505
ZGNN,2000-12-18 06:00,ZGNN 180600Z AUTO 18008KT 11SM 25/15 A2991 RMK SLP125 T02510147 57041 IEM_DS3505
ZGNN,2000-12-18 07:00,ZGNN 180700Z AUTO 13019KT 7SM 26/15 A2988 RMK T02600150 IEM_DS3505
ZGNN,2000-12-18 08:00,ZGNN 180800Z AUTO 13014KT 7SM 25/16 A2985 RMK T02500160 IEM_DS3505
ZGNN,2000-12-18 09:00,ZGNN 180900Z AUTO 18008KT 5SM 25/15 A2985 RMK SLP111 T02480151 57014 IEM_DS3505
ZGNN,2000-12-18 10:00,ZGNN 181000Z AUTO 13016KT 6SM 23/16 A2988 RMK T02300160 IEM_DS3505
ZGNN,2000-12-18 11:00,ZGNN 181100Z AUTO 14008KT 6SM 22/17 A2988 RMK T02200170 IEM_DS3505
ZGNN,2000-12-18 12:00,ZGNN 181200Z AUTO 16004KT 6SM 21/17 A2991 RMK SLP133 T02110169 52021 IEM_DS3505
ZGNN,2000-12-18 13:00,ZGNN 181300Z AUTO 10002KT 6SM 20/18 A2994 RMK T02000180 IEM_DS3505
ZGNN,2000-12-18 14:00,ZGNN 181400Z AUTO 15004KT 6SM 20/18 A2997 RMK T02000180 IEM_DS3505
ZGNN,2000-12-18 15:00,ZGNN 181500Z AUTO 20004KT 7SM 20/18 A2997 RMK SLP143 T01980175 52011 IEM_DS3505
ZGNN,2000-12-18 18:00,ZGNN 181800Z AUTO 14006KT 7SM 20/18 RMK SLP147 T02040183 52005 IEM_DS3505
ZGNN,2000-12-18 21:00,ZGNN 182100Z AUTO 14004KT 7SM 20/18 RMK SLP146 T02020185 57002 IEM_DS3505
ZGNN,2000-12-18 22:00,ZGNN 182200Z AUTO 13008KT 7SM 20/19 A2997 RMK T02000190 IEM_DS3505
ZGNN,2000-12-18 23:00,ZGNN 182300Z AUTO 13006KT 4SM 20/19 A3000 RMK T02000190 IEM_DS3505
ZGNN,2000-12-19 00:00,ZGNN 190000Z AUTO 14002KT 1 1/4SM 20/19 A3000 RMK 60003 SLP157 T01990190 52010 IEM_DS3505
ZGNN,2000-12-19 01:00,ZGNN 190100Z AUTO 13006KT 4SM 21/19 A3003 RMK T02100190 IEM_DS3505
ZGNN,2000-12-19 02:00,ZGNN 190200Z AUTO 14008KT 5SM 22/19 A3003 RMK T02200190 IEM_DS3505
ZGNN,2000-12-19 03:00,ZGNN 190300Z AUTO 14006KT 7SM 22/19 A3003 RMK SLP168 T02160193 52011 IEM_DS3505
ZGNN,2000-12-19 04:00,ZGNN 190400Z AUTO 15006KT 7SM 22/19 A3000 RMK T02200190 IEM_DS3505
ZGNN,2000-12-19 05:00,ZGNN 190500Z AUTO 12014KT 7SM 25/19 A2997 RMK T02500190 IEM_DS3505
ZGNN,2000-12-19 06:00,ZGNN 190600Z AUTO 20008KT 9SM 25/20 A2991 RMK SLP129 T02500195 57037 IEM_DS3505
ZGNN,2000-12-19 08:00,ZGNN 190800Z AUTO 12010KT 7SM 25/19 A2988 RMK T02500190 IEM_DS3505
ZGNN,2000-12-19 09:00,ZGNN 190900Z AUTO 18006KT 12SM 25/19 A2991 RMK SLP125 T02480189 57004 IEM_DS3505
ZGNN,2000-12-19 10:00,ZGNN 191000Z AUTO 14010KT 7SM 23/19 A2991 RMK T02300190 IEM_DS3505
ZGNN,2000-12-19 11:00,ZGNN 191100Z AUTO 15004KT 7SM 21/19 A2994 RMK T02100190 IEM_DS3505
ZGNN,2000-12-19 12:00,ZGNN 191200Z AUTO 00000KT 12SM 21/19 A2997 RMK SLP143 T02100191 52016 IEM_DS3505
ZGNN,2000-12-19 13:00,ZGNN 191300Z AUTO 00000KT 7SM 20/19 A3000 RMK T02000190 IEM_DS3505
ZGNN,2000-12-19 15:00,ZGNN 191500Z AUTO 00000KT 9SM 19/18 RMK SLP162 T01940184 52019 IEM_DS3505
ZGNN,2000-12-19 18:00,ZGNN 191800Z AUTO 00000KT 9SM 20/19 RMK SLP172 T01970189 52011 IEM_DS3505
ZGNN,2000-12-19 21:00,ZGNN 192100Z AUTO 00000KT 7SM 20/20 A3006 RMK 70003 SLP175 T02040195 52003 IEM_DS3505
ZGNN,2000-12-19 22:00,ZGNN 192200Z AUTO 00000KT 4SM 20/19 A3006 RMK T02000190 IEM_DS3505
ZGNN,2000-12-19 23:00,ZGNN 192300Z AUTO 35004KT 2 1/2SM 20/19 A3009 RMK T02000190 IEM_DS3505
ZGNN,2000-12-20 00:00,ZGNN 200000Z AUTO 04004KT 5SM 21/20 A3009 RMK SLP194 T02080196 52018 IEM_DS3505
ZGNN,2000-12-20 01:00,ZGNN 200100Z AUTO 33019KT 7SM 18/15 A3018 RMK T01800150 IEM_DS3505
ZGNN,2000-12-20 02:00,ZGNN 200200Z AUTO 33019KT 7SM 15/13 A3024 RMK T01500130 IEM_DS3505
ZGNN,2000-12-20 03:00,ZGNN 200300Z AUTO 34010KT 19SM 15/12 A3024 RMK SLP242 T01500117 52045 IEM_DS3505
ZGNN,2000-12-20 04:00,ZGNN 200400Z AUTO 34016KT 7SM 16/11 A3024 RMK T01600110 IEM_DS3505
ZGNN,2000-12-20 05:00,ZGNN 200500Z AUTO 36017KT 7SM 16/10 A3024 RMK T01600100 IEM_DS3505
ZGNN,2000-12-20 06:00,ZGNN 200600Z AUTO 34010KT 19SM 15/10 A3021 RMK 60003 SLP225 T01520098 57016 IEM_DS3505
ZGNN,2000-12-20 07:00,ZGNN 200700Z AUTO 36012KT 7SM 16/09 A3018 RMK T01600090 IEM_DS3505
ZGNN,2000-12-20 08:00,ZGNN 200800Z AUTO 35006KT 7SM 16/09 A3018 RMK T01600090 IEM_DS3505
ZGNN,2000-12-20 09:00,ZGNN 200900Z AUTO 36008KT 19SM 16/08 A3021 RMK SLP223 T01560083 57002 IEM_DS3505
ZGNN,2000-12-20 10:00,ZGNN 201000Z AUTO 01012KT 7SM 15/09 A3021 RMK T01500090 IEM_DS3505
ZGNN,2000-12-20 11:00,ZGNN 201100Z AUTO 36014KT 7SM 15/08 A3021 RMK T01500080 IEM_DS3505
ZGNN,2000-12-20 12:00,ZGNN 201200Z AUTO 02006KT 19SM 15/08 A3024 RMK SLP239 T01500076 52016 IEM_DS3505
ZGNN,2000-12-20 13:00,ZGNN 201300Z AUTO 36008KT 7SM 14/08 A3027 RMK T01400080 IEM_DS3505
ZGNN,2000-12-20 14:00,ZGNN 201400Z AUTO 35004KT 6SM 13/08 A3027 RMK T01300080 IEM_DS3505
ZGNN,2000-12-20 15:00,ZGNN 201500Z AUTO 36006KT 17SM 13/07 RMK SLP250 T01340070 52009 IEM_DS3505
ZGNN,2000-12-20 18:00,ZGNN 201800Z AUTO 00000KT 16SM 10/07 RMK SLP256 T00970069 52005 IEM_DS3505
ZGNN,2000-12-20 21:00,ZGNN 202100Z AUTO 36006KT 16SM 12/05 RMK 70003 SLP247 T01210049 57008 IEM_DS3505
ZGNN,2000-12-20 22:00,ZGNN 202200Z AUTO 36006KT 6SM 12/05 A3027 RMK T01200050 IEM_DS3505
ZGNN,2000-12-20 23:00,ZGNN 202300Z AUTO 35004KT 6SM 12/05 A3030 RMK T01200050 IEM_DS3505
ZGNN,2000-12-21 00:00,ZGNN 210000Z AUTO 34008KT 12SM 12/04 A3033 RMK 70003 SLP271 T01160035 52023 IEM_DS3505
ZGNN,2000-12-21 01:00,ZGNN 210100Z AUTO 34010KT 6SM 12/04 A3036 RMK T01200040 IEM_DS3505
ZGNN,2000-12-21 02:00,ZGNN 210200Z AUTO 33012KT 6SM 13/04 A3036 RMK T01300040 IEM_DS3505
ZGNN,2000-12-21 03:00,ZGNN 210300Z AUTO 34006KT 16SM 14/02 A3033 RMK SLP270 T01390023 57001 IEM_DS3505
ZGNN,2000-12-21 04:00,ZGNN 210400Z AUTO 34010KT 6SM 16/03 A3030 RMK T01600030 IEM_DS3505
ZGNN,2000-12-21 05:00,ZGNN 210500Z AUTO 35012KT 6SM 16/03 A3024 RMK T01600030 IEM_DS3505
ZGNN,2000-12-21 06:00,ZGNN 210600Z AUTO 34010KT 19SM 17/02 A3021 RMK SLP225 T01700019 57044 IEM_DS3505
ZGNN,2000-12-21 07:00,ZGNN 210700Z AUTO 32008KT 6SM 18/02 A3015 RMK T01800020 IEM_DS3505
ZGNN,2000-12-21 08:00,ZGNN 210800Z AUTO 31010KT 6SM 19/02 A3012 RMK T01900020 IEM_DS3505
ZGNN,2000-12-21 09:00,ZGNN 210900Z AUTO 36006KT 19SM 18/01 A3012 RMK SLP202 T01780006 57022 IEM_DS3505
ZGNN,2000-12-21 10:00,ZGNN 211000Z AUTO 36004KT 6SM 16/03 A3012 RMK T01600030 IEM_DS3505
ZGNN,2000-12-21 11:00,ZGNN 211100Z AUTO 35004KT 6SM 14/05 A3012 RMK T01400050 IEM_DS3505
ZGNN,2000-12-21 12:00,ZGNN 211200Z AUTO 00000KT 19SM 13/04 A3015 RMK SLP213 T01280045 52009 IEM_DS3505
ZGNN,2000-12-21 13:00,ZGNN 211300Z AUTO 34004KT 6SM 10/07 A3018 RMK T01000070 IEM_DS3505
ZGNN,2000-12-21 14:00,ZGNN 211400Z AUTO 33002KT 6SM 09/07 A3018 RMK T00900070 IEM_DS3505
ZGNN,2000-12-21 15:00,ZGNN 211500Z AUTO 00000KT 19SM 09/05 RMK SLP217 T00860053 52004 IEM_DS3505
ZGNN,2000-12-21 18:00,ZGNN 211800Z AUTO 14002KT 12SM 07/05 RMK SLP211 T00690048 57006 IEM_DS3505
ZGNN,2000-12-21 21:00,ZGNN 212100Z AUTO 00000KT 12SM 07/06 A3015 RMK SLP208 T00740056 57003 IEM_DS3505
ZGNN,2000-12-21 22:00,ZGNN 212200Z AUTO 00000KT 6SM 09/06 A3015 RMK T00900060 IEM_DS3505
ZGNN,2000-12-21 23:00,ZGNN 212300Z AUTO 35002KT 6SM 09/07 A3015 RMK T00900070 IEM_DS3505
ZGNN,2000-12-22 00:00,ZGNN 220000Z AUTO 00000KT 8SM 08/07 A3015 RMK SLP218 T00830066 52009 IEM_DS3505
ZGNN,2000-12-22 01:00,ZGNN 220100Z AUTO 17002KT 6SM 11/08 A3018 RMK T01100080 IEM_DS3505
ZGNN,2000-12-22 02:00,ZGNN 220200Z AUTO 15004KT 6SM 14/05 A3021 RMK T01400050 IEM_DS3505
ZGNN,2000-12-22 03:00,ZGNN 220300Z AUTO 00000KT 12SM 16/05 A3018 RMK SLP223 T01620048 52006 IEM_DS3505
ZGNN,2000-12-22 04:00,ZGNN 220400Z AUTO 00000KT 6SM 18/04 A3015 RMK T01800040 IEM_DS3505
ZGNN,2000-12-22 05:00,ZGNN 220500Z AUTO 00000KT 6SM 19/04 A3012 RMK T01900040 IEM_DS3505
ZGNN,2000-12-22 06:00,ZGNN 220600Z AUTO 27002KT 19SM 20/05 A3006 RMK SLP180 T02020047 57042 IEM_DS3505
ZGNN,2000-12-22 07:00,ZGNN 220700Z AUTO 05006KT 6SM 22/05 A3003 RMK T02200050 IEM_DS3505
ZGNN,2000-12-22 08:00,ZGNN 220800Z AUTO 00000KT 6SM 21/05 A3003 RMK T02100050 IEM_DS3505
ZGNN,2000-12-22 09:00,ZGNN 220900Z AUTO 02004KT 19SM 20/04 A3006 RMK SLP177 T01970039 57003 IEM_DS3505
ZGNN,2000-12-22 10:00,ZGNN 221000Z AUTO 00000KT 6SM 19/06 A3006 RMK T01900060 IEM_DS3505
ZGNN,2000-12-22 11:00,ZGNN 221100Z AUTO 34004KT 6SM 15/08 A3009 RMK T01500080 IEM_DS3505
ZGNN,2000-12-22 12:00,ZGNN 221200Z AUTO 00000KT 16SM 13/07 A3012 RMK SLP201 T01300073 52023 IEM_DS3505
ZGNN,2000-12-22 13:00,ZGNN 221300Z AUTO 35006KT 6SM 11/08 A3015 RMK T01100080 IEM_DS3505
ZGNN,2000-12-22 15:00,ZGNN 221500Z AUTO 00000KT 16SM 10/07 RMK SLP216 T00980073 52016 IEM_DS3505
ZGNN,2000-12-22 18:00,ZGNN 221800Z AUTO 00000KT 12SM 08/06 RMK SLP217 T00820060 52001 IEM_DS3505
ZGNN,2000-12-22 21:00,ZGNN 222100Z AUTO 00000KT 12SM 07/06 RMK SLP207 T00690056 57010 IEM_DS3505
ZGNN,2000-12-22 22:00,ZGNN 222200Z AUTO 00000KT 6SM 07/06 A3015 RMK T00700060 IEM_DS3505
ZGNN,2000-12-22 23:00,ZGNN 222300Z AUTO 00000KT 5SM 07/06 A3018 RMK T00700060 IEM_DS3505
ZGNN,2000-12-23 00:00,ZGNN 230000Z AUTO 00000KT 4SM 06/05 A3018 RMK SLP224 T00560047 52014 IEM_DS3505
ZGNN,2000-12-23 01:00,ZGNN 230100Z AUTO 00000KT 2 1/2SM 11/07 A3021 RMK T01100070 IEM_DS3505
ZGNN,2000-12-23 02:00,ZGNN 230200Z AUTO 09004KT 7SM 16/09 A3024 RMK T01600090 IEM_DS3505
ZGNN,2000-12-23 03:00,ZGNN 230300Z AUTO 14004KT 7SM 18/08 A3021 RMK SLP227 T01840079 52006 IEM_DS3505
ZGNN,2000-12-23 04:00,ZGNN 230400Z AUTO 10006KT 6SM 20/07 A3018 RMK T02000070 IEM_DS3505
ZGNN,2000-12-23 05:00,ZGNN 230500Z AUTO 00000KT 6SM 22/05 A3015 RMK T02200050 IEM_DS3505
ZGNN,2000-12-23 06:00,ZGNN 230600Z AUTO 00000KT 16SM 22/04 A3009 RMK SLP190 T02220037 57036 IEM_DS3505
ZGNN,2000-12-23 07:00,ZGNN 230700Z AUTO 09004KT 6SM 23/02 A3006 RMK T02300020 IEM_DS3505
ZGNN,2000-12-23 08:00,ZGNN 230800Z AUTO 33002KT 6SM 23/05 A3006 RMK T02300050 IEM_DS3505
ZGNN,2000-12-23 09:00,ZGNN 230900Z AUTO 11004KT 15SM 22/02 A3006 RMK SLP173 T02230016 57017 IEM_DS3505
ZGNN,2000-12-23 10:00,ZGNN 231000Z AUTO 00000KT 6SM 20/04 A3006 RMK T02000040 IEM_DS3505
ZGNN,2000-12-23 11:00,ZGNN 231100Z AUTO 33004KT 6SM 14/06 A3009 RMK T01400060 IEM_DS3505
ZGNN,2000-12-23 12:00,ZGNN 231200Z AUTO 00000KT 15SM 12/05 A3009 RMK SLP192 T01220048 52016 IEM_DS3505
ZGNN,2000-12-23 13:00,ZGNN 231300Z AUTO 00000KT 6SM 11/06 A3012 RMK T01100060 IEM_DS3505
ZGNN,2000-12-23 15:00,ZGNN 231500Z AUTO 00000KT 14SM 08/04 RMK SLP206 T00840043 52016 IEM_DS3505
ZGNN,2000-12-23 18:00,ZGNN 231800Z AUTO 00000KT 12SM 07/04 RMK SLP206 T00660040 54000 IEM_DS3505
ZGNN,2000-12-23 21:00,ZGNN 232100Z AUTO 00000KT 7SM 06/04 A3012 RMK SLP199 T00550036 57007 IEM_DS3505
ZGNN,2000-12-23 22:00,ZGNN 232200Z AUTO 00000KT 6SM 06/04 A3015 RMK T00600040 IEM_DS3505
ZGNN,2000-12-23 23:00,ZGNN 232300Z AUTO 00000KT 6SM 05/04 A3015 RMK T00500040 IEM_DS3505
ZGNN,2000-12-24 00:00,ZGNN 240000Z AUTO 00000KT 7SM 04/03 A3018 RMK SLP220 T00380026 52018 IEM_DS3505
ZGNN,2000-12-24 01:00,ZGNN 240100Z AUTO 00000KT 6SM 09/06 A3021 RMK T00900060 IEM_DS3505
ZGNN,2000-12-24 02:00,ZGNN 240200Z AUTO 00000KT 6SM 14/04 A3021 RMK T01400040 IEM_DS3505
ZGNN,2000-12-24 03:00,ZGNN 240300Z AUTO 18004KT 6SM 17/05 A3021 RMK SLP230 T01720046 52012 IEM_DS3505
ZGNN,2000-12-24 04:00,ZGNN 240400Z AUTO 07008KT 6SM 21/00 A3018 RMK T02100000 IEM_DS3505
ZGNN,2000-12-24 05:00,ZGNN 240500Z AUTO 09008KT 6SM 21/02 A3015 RMK T02100020 IEM_DS3505
ZGNN,2000-12-24 06:00,ZGNN 240600Z AUTO 18002KT 12SM 22/M00 A3009 RMK SLP190 T02221005 57038 IEM_DS3505
ZGNN,2000-12-24 07:00,ZGNN 240700Z AUTO 13004KT 6SM 24/00 A3006 RMK T02400000 IEM_DS3505
ZGNN,2000-12-24 08:00,ZGNN 240800Z AUTO 06004KT 6SM 24/01 A3006 RMK T02400010 IEM_DS3505
ZGNN,2000-12-24 09:00,ZGNN 240900Z AUTO 00000KT 12SM 23/02 A3009 RMK SLP181 T02280015 57009 IEM_DS3505
ZGNN,2000-12-24 10:00,ZGNN 241000Z AUTO 05002KT 6SM 20/06 A3009 RMK T02000060 IEM_DS3505
ZGNN,2000-12-24 11:00,ZGNN 241100Z AUTO 32004KT 6SM 14/06 A3009 RMK T01400060 IEM_DS3505
ZGNN,2000-12-24 12:00,ZGNN 241200Z AUTO 00000KT 9SM 12/05 RMK SLP204 T01210052 52019 IEM_DS3505
ZGNN,2000-12-24 13:00,ZGNN 241300Z AUTO 00000KT 6SM 11/06 A3015 RMK T01100060 IEM_DS3505
ZGNN,2000-12-24 15:00,ZGNN 241500Z AUTO 00000KT 9SM 08/05 RMK SLP212 T00840046 52011 IEM_DS3505
ZGNN,2000-12-24 18:00,ZGNN 241800Z AUTO 00000KT 9SM 06/04 RMK SLP210 T00620036 57002 IEM_DS3505
ZGNN,2000-12-24 21:00,ZGNN 242100Z AUTO 00000KT 8SM 04/03 A3015 RMK SLP208 T00450030 57002 IEM_DS3505
ZGNN,2000-12-24 22:00,ZGNN 242200Z AUTO 00000KT 6SM 06/04 A3015 RMK T00600040 IEM_DS3505
ZGNN,2000-12-24 23:00,ZGNN 242300Z AUTO 00000KT 4SM 05/04 A3018 RMK T00500040 IEM_DS3505
ZGNN,2000-12-25 00:00,ZGNN 250000Z AUTO 00000KT 7SM 04/03 A3021 RMK SLP228 T00440034 52017 IEM_DS3505
ZGNN,2000-12-25 01:00,ZGNN 250100Z AUTO 28002KT 3SM 10/06 A3024 RMK T01000060 IEM_DS3505
ZGNN,2000-12-25 02:00,ZGNN 250200Z AUTO 16002KT 3SM 13/07 A3024 RMK T01300070 IEM_DS3505
ZGNN,2000-12-25 03:00,ZGNN 250300Z AUTO 00000KT 5SM 18/07 A3024 RMK SLP238 T01750072 52012 IEM_DS3505
ZGNN,2000-12-25 04:00,ZGNN 250400Z AUTO 08006KT 5SM 20/04 A3021 RMK T02000040 IEM_DS3505
ZGNN,2000-12-25 05:00,ZGNN 250500Z AUTO 07004KT 6SM 23/03 A3018 RMK T02300030 IEM_DS3505
ZGNN,2000-12-25 06:00,ZGNN 250600Z AUTO 09004KT 6SM 23/04 A3012 RMK SLP202 T02290037 57034 IEM_DS3505
ZGNN,2000-12-25 07:00,ZGNN 250700Z AUTO 06006KT 6SM 24/04 A3009 RMK T02400040 IEM_DS3505
ZGNN,2000-12-25 08:00,ZGNN 250800Z AUTO 04004KT 6SM 24/05 A3009 RMK T02400050 IEM_DS3505
ZGNN,2000-12-25 09:00,ZGNN 250900Z AUTO 00000KT 7SM 23/06 A3009 RMK SLP188 T02330059 57015 IEM_DS3505
ZGNN,2000-12-25 10:00,ZGNN 251000Z AUTO 02004KT 6SM 20/07 A3009 RMK T02000070 IEM_DS3505
ZGNN,2000-12-25 11:00,ZGNN 251100Z AUTO 00000KT 6SM 16/08 A3009 RMK T01600080 IEM_DS3505
ZGNN,2000-12-25 12:00,ZGNN 251200Z AUTO 00000KT 8SM 14/07 A3012 RMK SLP201 T01430072 52011 IEM_DS3505
ZGNN,2000-12-25 13:00,ZGNN 251300Z AUTO 34004KT 6SM 12/07 A3012 RMK T01200070 IEM_DS3505
ZGNN,2000-12-25 14:00,ZGNN 251400Z AUTO 00000KT 6SM 12/08 A3015 RMK T01200080 IEM_DS3505
ZGNN,2000-12-25 15:00,ZGNN 251500Z AUTO 00000KT 7SM 12/08 RMK SLP211 T01150078 52012 IEM_DS3505
ZGNN,2000-12-25 18:00,ZGNN 251800Z AUTO 00000KT 7SM 12/09 RMK SLP212 T01210089 52003 IEM_DS3505
ZGNN,2000-12-25 21:00,ZGNN 252100Z AUTO 00000KT 7SM 13/10 RMK SLP207 T01320097 57005 IEM_DS3505
ZGNN,2000-12-25 22:00,ZGNN 252200Z AUTO 36004KT 4SM 13/10 A3015 RMK T01300100 IEM_DS3505
ZGNN,2000-12-25 23:00,ZGNN 252300Z AUTO 35004KT 4SM 13/11 A3018 RMK T01300110 IEM_DS3505
ZGNN,2000-12-26 00:00,ZGNN 260000Z AUTO 00000KT 2SM 13/11 A3018 RMK T01300110 IEM_DS3505
ZGNN,2000-12-26 01:00,ZGNN 260100Z AUTO 00000KT 2SM 15/12 A3021 RMK T01500120 IEM_DS3505
ZGNN,2000-12-26 02:00,ZGNN 260200Z AUTO 00000KT 2 1/2SM 17/11 A3024 RMK T01700110 IEM_DS3505
ZGNN,2000-12-26 03:00,ZGNN 260300Z AUTO 00000KT 4SM 19/10 A3024 RMK SLP236 T01890095 52012 IEM_DS3505
ZGNN,2000-12-26 04:00,ZGNN 260400Z AUTO 05010KT 6SM 22/08 A3021 RMK T02200080 IEM_DS3505
ZGNN,2000-12-26 05:00,ZGNN 260500Z AUTO 04008KT 6SM 23/09 A3018 RMK T02300090 IEM_DS3505
ZGNN,2000-12-26 06:00,ZGNN 260600Z AUTO 11004KT 6SM 24/09 A3012 RMK SLP202 T02350089 57032 IEM_DS3505
ZGNN,2000-12-26 08:00,ZGNN 260800Z AUTO 12002KT 6SM 24/09 A3009 RMK T02400090 IEM_DS3505
ZGNN,2000-12-26 09:00,ZGNN 260900Z AUTO 04002KT 11SM 23/09 A3009 RMK SLP188 T02340090 57013 IEM_DS3505
ZGNN,2000-12-26 10:00,ZGNN 261000Z AUTO 00000KT 6SM 22/12 A3009 RMK T02200120 IEM_DS3505
ZGNN,2000-12-26 11:00,ZGNN 261100Z AUTO 00000KT 6SM 20/12 A3012 RMK T02000120 IEM_DS3505
ZGNN,2000-12-26 12:00,ZGNN 261200Z AUTO 00000KT 9SM 20/12 A3012 RMK SLP202 T01950118 52012 IEM_DS3505
ZGNN,2000-12-26 13:00,ZGNN 261300Z AUTO 00000KT 6SM 19/13 A3012 RMK T01900130 IEM_DS3505
ZGNN,2000-12-26 14:00,ZGNN 261400Z AUTO 00000KT 6SM 18/13 A3015 RMK T01800130 IEM_DS3505
ZGNN,2000-12-26 15:00,ZGNN 261500Z AUTO 00000KT 9SM 18/13 RMK SLP208 T01780126 52007 IEM_DS3505
ZGNN,2000-12-26 18:00,ZGNN 261800Z AUTO 00000KT 9SM 18/12 RMK SLP201 T01800119 57005 IEM_DS3505
ZGNN,2000-12-26 21:00,ZGNN 262100Z AUTO 00000KT 8SM 17/13 A3012 RMK SLP195 T01660129 57007 IEM_DS3505
ZGNN,2000-12-26 22:00,ZGNN 262200Z AUTO 35004KT 6SM 16/13 A3012 RMK T01600130 IEM_DS3505
ZGNN,2000-12-26 23:00,ZGNN 262300Z AUTO 00000KT 6SM 16/14 A3015 RMK T01600140 IEM_DS3505
ZGNN,2000-12-27 00:00,ZGNN 270000Z AUTO 00000KT 7SM 15/13 RMK SLP209 T01520130 52013 IEM_DS3505
ZGNN,2000-12-27 02:00,ZGNN 270200Z AUTO 00000KT 6SM 19/14 A3021 RMK T01900140 IEM_DS3505
ZGNN,2000-12-27 03:00,ZGNN 270300Z AUTO 14002KT 9SM 21/13 A3018 RMK SLP220 T02090133 52012 IEM_DS3505
ZGNN,2000-12-27 04:00,ZGNN 270400Z AUTO 08006KT 6SM 23/14 A3018 RMK T02300140 IEM_DS3505
ZGNN,2000-12-27 05:00,ZGNN 270500Z AUTO 17006KT 7SM 24/13 A3012 RMK T02400130 IEM_DS3505
ZGNN,2000-12-27 06:00,ZGNN 270600Z AUTO 16004KT 9SM 23/12 A3009 RMK SLP186 T02290123 57033 IEM_DS3505
ZGNN,2000-12-27 07:00,ZGNN 270700Z AUTO 13006KT 7SM 24/12 A3006 RMK T02400120 IEM_DS3505
ZGNN,2000-12-27 08:00,ZGNN 270800Z AUTO 09006KT 7SM 23/12 A3006 RMK T02300120 IEM_DS3505
ZGNN,2000-12-27 09:00,ZGNN 270900Z AUTO 14004KT 12SM 23/13 A3006 RMK SLP181 T02290129 57005 IEM_DS3505
ZGNN,2000-12-27 10:00,ZGNN 271000Z AUTO 09004KT 7SM 22/13 A3009 RMK T02200130 IEM_DS3505
ZGNN,2000-12-27 11:00,ZGNN 271100Z AUTO 00000KT 7SM 21/15 A3009 RMK T02100150 IEM_DS3505
ZGNN,2000-12-27 12:00,ZGNN 271200Z AUTO 00000KT 12SM 20/14 A3012 RMK 60003 SLP193 T01960137 52010 IEM_DS3505
ZGNN,2000-12-27 13:00,ZGNN 271300Z AUTO 35004KT 6SM 19/15 A3012 RMK T01900150 IEM_DS3505
ZGNN,2000-12-27 14:00,ZGNN 271400Z AUTO 35006KT 6SM 18/14 A3015 RMK T01800140 IEM_DS3505
ZGNN,2000-12-27 15:00,ZGNN 271500Z AUTO 00000KT 9SM 17/12 RMK SLP208 T01660119 52016 IEM_DS3505
ZGNN,2000-12-27 18:00,ZGNN 271800Z AUTO 00000KT 7SM 14/12 RMK SLP208 T01420116 54000 IEM_DS3505
ZGNN,2000-12-27 21:00,ZGNN 272100Z AUTO 00000KT 7SM 13/11 RMK 70003 SLP204 T01290114 57005 IEM_DS3505
ZGNN,2000-12-27 22:00,ZGNN 272200Z AUTO 36002KT 4SM 13/11 A3015 RMK T01300110 IEM_DS3505
ZGNN,2000-12-27 23:00,ZGNN 272300Z AUTO 00000KT 2 1/2SM 13/11 A3015 RMK T01300110 IEM_DS3505
ZGNN,2000-12-28 00:00,ZGNN 280000Z AUTO 00000KT 4SM 13/11 A3018 RMK 70003 SLP221 T01260111 52016 IEM_DS3505
ZGNN,2000-12-28 01:00,ZGNN 280100Z AUTO 36004KT 2SM 15/12 A3018 RMK T01500120 IEM_DS3505
ZGNN,2000-12-28 02:00,ZGNN 280200Z AUTO 10004KT 2SM 19/14 A3021 RMK T01900140 IEM_DS3505
ZGNN,2000-12-28 03:00,ZGNN 280300Z AUTO 00000KT 7SM 21/14 A3021 RMK SLP220 T02080136 54000 IEM_DS3505
ZGNN,2000-12-28 04:00,ZGNN 280400Z AUTO 07010KT 3SM 23/12 A3018 RMK T02300120 IEM_DS3505
ZGNN,2000-12-28 05:00,ZGNN 280500Z AUTO 09006KT 3SM 23/12 A3015 RMK T02300120 IEM_DS3505
ZGNN,2000-12-28 06:00,ZGNN 280600Z AUTO 02004KT 9SM 24/11 A3009 RMK SLP188 T02410112 57031 IEM_DS3505
ZGNN,2000-12-28 07:00,ZGNN 280700Z AUTO 05006KT 6SM 25/11 A3006 RMK T02500110 IEM_DS3505
ZGNN,2000-12-28 08:00,ZGNN 280800Z AUTO 04006KT 6SM 25/11 A3006 RMK T02500110 IEM_DS3505
ZGNN,2000-12-28 09:00,ZGNN 280900Z AUTO 11002KT 9SM 24/11 A3006 RMK SLP176 T02430113 57012 IEM_DS3505
ZGNN,2000-12-28 10:00,ZGNN 281000Z AUTO 06004KT 6SM 23/13 A3006 RMK T02300130 IEM_DS3505
ZGNN,2000-12-28 11:00,ZGNN 281100Z AUTO 35004KT 6SM 20/12 A3006 RMK T02000120 IEM_DS3505
ZGNN,2000-12-28 12:00,ZGNN 281200Z AUTO 00000KT 7SM 18/12 A3009 RMK SLP186 T01840123 52008 IEM_DS3505
ZGNN,2000-12-28 13:00,ZGNN 281300Z AUTO 00000KT 5SM 17/12 A3009 RMK T01700120 IEM_DS3505
ZGNN,2000-12-28 14:00,ZGNN 281400Z AUTO 35004KT 4SM 17/12 A3009 RMK T01700120 IEM_DS3505
ZGNN,2000-12-28 15:00,ZGNN 281500Z AUTO 07002KT 7SM 18/11 RMK SLP185 T01750109 52001 IEM_DS3505
ZGNN,2000-12-28 18:00,ZGNN 281800Z AUTO 16004KT 7SM 16/11 RMK SLP182 T01600112 57002 IEM_DS3505
ZGNN,2000-12-28 21:00,ZGNN 282100Z AUTO 00000KT 7SM 13/11 A3006 RMK SLP177 T01340107 57006 IEM_DS3505
ZGNN,2000-12-28 22:00,ZGNN 282200Z AUTO 00000KT 4SM 14/11 A3006 RMK T01400110 IEM_DS3505
ZGNN,2000-12-28 23:00,ZGNN 282300Z AUTO 00000KT 2 1/2SM 14/11 A3009 RMK T01400110 IEM_DS3505
ZGNN,2000-12-29 00:00,ZGNN 290000Z AUTO 00000KT 4SM 14/10 A3009 RMK SLP189 T01440098 52011 IEM_DS3505
ZGNN,2000-12-29 01:00,ZGNN 290100Z AUTO 07006KT 3SM 16/09 A3012 RMK T01600090 IEM_DS3505
ZGNN,2000-12-29 02:00,ZGNN 290200Z AUTO 07006KT 3SM 17/09 A3012 RMK T01700090 IEM_DS3505
ZGNN,2000-12-29 03:00,ZGNN 290300Z AUTO 14004KT 3SM 18/09 A3012 RMK SLP198 T01840089 52009 IEM_DS3505
ZGNN,2000-12-29 04:00,ZGNN 290400Z AUTO 06008KT 3SM 20/10 A3009 RMK T02000100 IEM_DS3505
ZGNN,2000-12-29 05:00,ZGNN 290500Z AUTO 15006KT 22/12 A3006 RMK T02200120 IEM_DS3505
ZGNN,2000-12-29 06:00,ZGNN 290600Z AUTO 14008KT 5SM 22/11 A3000 RMK SLP159 T02250113 57037 IEM_DS3505
ZGNN,2000-12-29 07:00,ZGNN 290700Z AUTO 13010KT 24/12 A2997 RMK T02400120 IEM_DS3505
ZGNN,2000-12-29 08:00,ZGNN 290800Z AUTO 13010KT 5SM 24/13 A2994 RMK T02400130 IEM_DS3505
ZGNN,2000-12-29 09:00,ZGNN 290900Z AUTO 14004KT 6SM 23/12 A2997 RMK SLP145 T02340123 57015 IEM_DS3505
ZGNN,2000-12-29 10:00,ZGNN 291000Z AUTO 14006KT 6SM 22/13 A2997 RMK T02200130 IEM_DS3505
ZGNN,2000-12-29 11:00,ZGNN 291100Z AUTO 09004KT 5SM 20/13 A2997 RMK T02000130 IEM_DS3505
ZGNN,2000-12-29 12:00,ZGNN 291200Z AUTO 07004KT 7SM 19/12 A3000 RMK SLP159 T01860118 52013 IEM_DS3505
ZGNN,2000-12-29 13:00,ZGNN 291300Z AUTO 06004KT 18/12 A3003 RMK T01800120 IEM_DS3505
ZGNN,2000-12-29 15:00,ZGNN 291500Z AUTO 09002KT 7SM 17/10 RMK SLP175 T01720101 52017 IEM_DS3505
ZGNN,2000-12-29 18:00,ZGNN 291800Z AUTO 09004KT 7SM 16/09 RMK SLP176 T01620093 52001 IEM_DS3505
ZGNN,2000-12-29 21:00,ZGNN 292100Z AUTO 09002KT 7SM 15/10 A3006 RMK SLP175 T01530098 57001 IEM_DS3505
ZGNN,2000-12-29 22:00,ZGNN 292200Z AUTO 05004KT 2SM 15/10 A3006 RMK T01500100 IEM_DS3505
ZGNN,2000-12-29 23:00,ZGNN 292300Z AUTO 06004KT 2 1/2SM 15/10 A3006 RMK T01500100 IEM_DS3505
ZGNN,2000-12-30 00:00,ZGNN 300000Z AUTO 09002KT 2 1/2SM 15/10 A3009 RMK SLP193 T01540097 52017 IEM_DS3505
ZGNN,2000-12-30 01:00,ZGNN 300100Z AUTO 00000KT 2SM 15/10 A3012 RMK T01500100 IEM_DS3505
ZGNN,2000-12-30 02:00,ZGNN 300200Z AUTO 05004KT 1 1/2SM 16/10 A3015 RMK T01600100 IEM_DS3505
ZGNN,2000-12-30 03:00,ZGNN 300300Z AUTO 09002KT 2 1/2SM 16/10 A3015 RMK SLP203 T01590096 52010 IEM_DS3505
ZGNN,2000-12-30 04:00,ZGNN 300400Z AUTO 05002KT 2SM 16/10 A3012 RMK T01600100 IEM_DS3505
ZGNN,2000-12-30 05:00,ZGNN 300500Z AUTO 03006KT 1 1/2SM 17/10 A3009 RMK T01700100 IEM_DS3505
ZGNN,2000-12-30 06:00,ZGNN 300600Z AUTO 36004KT 3SM 17/10 A3006 RMK SLP181 T01680102 57022 IEM_DS3505
ZGNN,2000-12-30 07:00,ZGNN 300700Z AUTO 34008KT 1 1/2SM 17/11 A3006 RMK T01700110 IEM_DS3505
ZGNN,2000-12-30 08:00,ZGNN 300800Z AUTO 35010KT 1 1/2SM 18/10 A3006 RMK T01800100 IEM_DS3505
ZGNN,2000-12-30 09:00,ZGNN 300900Z AUTO 36006KT 3SM 18/10 A3006 RMK SLP178 T01790098 57003 IEM_DS3505
ZGNN,2000-12-30 10:00,ZGNN 301000Z AUTO 34010KT 1 1/2SM 17/11 A3009 RMK T01700110 IEM_DS3505
ZGNN,2000-12-30 11:00,ZGNN 301100Z AUTO 35004KT 1 1/2SM 16/10 A3009 RMK T01600100 IEM_DS3505
ZGNN,2000-12-30 12:00,ZGNN 301200Z AUTO 34004KT 3SM 15/10 A3012 RMK SLP198 T01480105 52019 IEM_DS3505
ZGNN,2000-12-30 13:00,ZGNN 301300Z AUTO 33006KT 2SM 15/10 A3015 RMK T01500100 IEM_DS3505
ZGNN,2000-12-30 14:00,ZGNN 301400Z AUTO 33004KT 2SM 14/10 A3015 RMK T01400100 IEM_DS3505
ZGNN,2000-12-30 15:00,ZGNN 301500Z AUTO 34006KT 4SM 13/10 RMK SLP212 T01300099 52013 IEM_DS3505
ZGNN,2000-12-30 18:00,ZGNN 301800Z AUTO 36002KT 5SM 12/09 RMK SLP213 T01240088 52001 IEM_DS3505
ZGNN,2000-12-30 21:00,ZGNN 302100Z AUTO 11004KT 5SM 09/08 A3012 RMK SLP203 T00940075 57010 IEM_DS3505
ZGNN,2000-12-30 22:00,ZGNN 302200Z AUTO 35004KT 3SM 10/08 A3015 RMK T01000080 IEM_DS3505
ZGNN,2000-12-30 23:00,ZGNN 302300Z AUTO 36002KT 2 1/2SM 09/08 A3018 RMK T00900080 IEM_DS3505
