station,valid,metar
ZGNN,2001-01-01 00:00,ZGNN 010000Z AUTO 14002KT 4SM 08/06 A3009 RMK SLP184 T00750064 52010 IEM_DS3505
ZGNN,2001-01-01 01:00,ZGNN 010100Z AUTO 00000KT 1 1/2SM 10/09 A3009 RMK T01000090 IEM_DS3505
ZGNN,2001-01-01 02:00,ZGNN 010200Z AUTO 04006KT 1 1/2SM 13/09 A3012 RMK T01300090 IEM_DS3505
ZGNN,2001-01-01 03:00,ZGNN 010300Z AUTO 14004KT 4SM 14/08 A3009 RMK SLP196 T01400082 52012 IEM_DS3505
ZGNN,2001-01-01 04:00,ZGNN 010400Z AUTO 12004KT 2 1/2SM 17/10 A3009 RMK T01700100 IEM_DS3505
ZGNN,2001-01-01 05:00,ZGNN 010500Z AUTO 17012KT 3SM 20/12 A3003 RMK T02000120 IEM_DS3505
ZGNN,2001-01-01 06:00,ZGNN 010600Z AUTO 18008KT 5SM 20/13 A2997 RMK SLP153 T02050126 57041 IEM_DS3505
ZGNN,2001-01-01 07:00,ZGNN 010700Z AUTO 13010KT 5SM 21/12 A2994 RMK T02100120 IEM_DS3505
ZGNN,2001-01-01 08:00,ZGNN 010800Z AUTO 15012KT 5SM 21/12 A2991 RMK T02100120 IEM_DS3505
ZGNN,2001-01-01 09:00,ZGNN 010900Z AUTO 16008KT 6SM 20/11 A2991 RMK SLP130 T02030113 57023 IEM_DS3505
ZGNN,2001-01-01 10:00,ZGNN 011000Z AUTO 14008KT 5SM 20/12 A2991 RMK T02000120 IEM_DS3505
ZGNN,2001-01-01 11:00,ZGNN 011100Z AUTO 13008KT 18/12 A2991 RMK T01800120 IEM_DS3505
ZGNN,2001-01-01 12:00,ZGNN 011200Z AUTO 18006KT 7SM 18/13 A2994 RMK SLP140 T01800127 52010 IEM_DS3505
ZGNN,2001-01-01 13:00,ZGNN 011300Z AUTO 15006KT 4SM 16/13 A2994 RMK T01600130 IEM_DS3505
ZGNN,2001-01-01 14:00,ZGNN 011400Z AUTO 19004KT 4SM 16/13 A2997 RMK T01600130 IEM_DS3505
ZGNN,2001-01-01 15:00,ZGNN 011500Z AUTO 00000KT 7SM 15/13 A2997 RMK SLP148 T01530128 52008 IEM_DS3505
ZGNN,2001-01-01 18:00,ZGNN 011800Z AUTO 00000KT 6SM 15/14 RMK SLP150 T01520136 52004 IEM_DS3505
ZGNN,2001-01-01 21:00,ZGNN 012100Z AUTO 00000KT 6SM 16/15 RMK SLP141 T01650150 57009 IEM_DS3505
ZGNN,2001-01-01 22:00,ZGNN 012200Z AUTO 00000KT 1 1/2SM 16/15 A2997 RMK T01600150 IEM_DS3505
ZGNN,2001-01-01 23:00,ZGNN 012300Z AUTO 00000KT 1 1/4SM 16/15 A2997 RMK T01600150 IEM_DS3505
ZGNN,2001-01-02 00:00,ZGNN 020000Z AUTO 00000KT 1 1/4SM 16/15 A3000 RMK 60000 SLP157 T01590152 52015 IEM_DS3505
ZGNN,2001-01-02 01:00,ZGNN 020100Z AUTO 05004KT 1SM 16/16 A3000 RMK T01600160 IEM_DS3505
ZGNN,2001-01-02 02:00,ZGNN 020200Z AUTO 00000KT 1SM 16/16 A3003 RMK T01600160 IEM_DS3505
ZGNN,2001-01-02 03:00,ZGNN 020300Z AUTO 09002KT 1SM 16/16 A3003 RMK SLP170 T01650158 52013 IEM_DS3505
ZGNN,2001-01-02 04:00,ZGNN 020400Z AUTO 10002KT 1SM 17/16 A3003 RMK T01700160 IEM_DS3505
ZGNN,2001-01-02 05:00,ZGNN 020500Z AUTO 07004KT 1SM 17/16 A3000 RMK T01700160 IEM_DS3505
ZGNN,2001-01-02 06:00,ZGNN 020600Z AUTO 00000KT 1SM 16/16 A2997 RMK 60004 SLP146 T01640157 57024 IEM_DS3505
ZGNN,2001-01-02 07:00,ZGNN 020700Z AUTO 05004KT 1/2SM 17/17 A2994 RMK T01700170 IEM_DS3505
ZGNN,2001-01-02 08:00,ZGNN 020800Z AUTO 05004KT 1SM 17/17 A2994 RMK T01700170 IEM_DS3505
ZGNN,2001-01-02 09:00,ZGNN 020900Z AUTO 00000KT 1SM 17/16 A2994 RMK SLP134 T01660161 57011 IEM_DS3505
ZGNN,2001-01-02 10:00,ZGNN 021000Z AUTO 05004KT 1SM 17/16 A2994 RMK T01700160 IEM_DS3505
ZGNN,2001-01-02 11:00,ZGNN 021100Z AUTO 06002KT 1SM 16/16 A2994 RMK T01600160 IEM_DS3505
ZGNN,2001-01-02 12:00,ZGNN 021200Z AUTO 00000KT 2SM 16/16 A2997 RMK 60001 SLP152 T01620155 52017 IEM_DS3505
ZGNN,2001-01-02 13:00,ZGNN 021300Z AUTO 02002KT 1SM 16/15 A3000 RMK T01600150 IEM_DS3505
ZGNN,2001-01-02 15:00,ZGNN 021500Z AUTO 00000KT 2 1/2SM 16/15 RMK SLP163 T01590149 52011 IEM_DS3505
ZGNN,2001-01-02 18:00,ZGNN 021800Z AUTO 09004KT 4SM 16/14 RMK SLP170 T01590140 52007 IEM_DS3505
ZGNN,2001-01-02 21:00,ZGNN 022100Z AUTO 11004KT 4SM 16/14 A3003 RMK 70007 SLP164 T01580137 57006 IEM_DS3505
ZGNN,2001-01-02 22:00,ZGNN 022200Z AUTO 07006KT 1 1/2SM 16/14 A3003 RMK T01600140 IEM_DS3505
ZGNN,2001-01-02 23:00,ZGNN 022300Z AUTO 05004KT 1 1/2SM 15/14 A3006 RMK T01500140 IEM_DS3505
ZGNN,2001-01-03 00:00,ZGNN 030000Z AUTO 07002KT 1 1/4SM 15/14 A3009 RMK 60003 SLP186 T01530137 52021 IEM_DS3505
ZGNN,2001-01-03 01:00,ZGNN 030100Z AUTO 03008KT 1SM 15/14 A3012 RMK T01500140 IEM_DS3505
ZGNN,2001-01-03 02:00,ZGNN 030200Z AUTO 06006KT 2SM 14/14 A3015 RMK T01400140 IEM_DS3505
ZGNN,2001-01-03 03:00,ZGNN 030300Z AUTO 07002KT 2 1/2SM 14/13 A3015 RMK SLP214 T01370132 52028 IEM_DS3505
ZGNN,2001-01-03 04:00,ZGNN 030400Z AUTO 35004KT 4SM 14/13 A3015 RMK T01400130 IEM_DS3505
ZGNN,2001-01-03 05:00,ZGNN 030500Z AUTO 32004KT 4SM 13/13 A3012 RMK T01300130 IEM_DS3505
ZGNN,2001-01-03 06:00,ZGNN 030600Z AUTO 34006KT 3SM 13/12 A3009 RMK 60012 SLP191 T01340123 57023 IEM_DS3505
ZGNN,2001-01-03 07:00,ZGNN 030700Z AUTO 35006KT 3SM 13/12 A3006 RMK T01300120 IEM_DS3505
ZGNN,2001-01-03 08:00,ZGNN 030800Z AUTO 34008KT 4SM 13/12 A3006 RMK T01300120 IEM_DS3505
ZGNN,2001-01-03 09:00,ZGNN 030900Z AUTO 36006KT 3SM 13/12 A3009 RMK SLP185 T01330120 57006 IEM_DS3505
ZGNN,2001-01-03 10:00,ZGNN 031000Z AUTO 34006KT 4SM 13/12 A3009 RMK T01300120 IEM_DS3505
ZGNN,2001-01-03 11:00,ZGNN 031100Z AUTO 33004KT 4SM 13/12 A3009 RMK T01300120 IEM_DS3505
ZGNN,2001-01-03 12:00,ZGNN 031200Z AUTO 04002KT 5SM 13/12 A3012 RMK 60000 SLP196 T01280119 52010 IEM_DS3505
ZGNN,2001-01-03 13:00,ZGNN 031300Z AUTO 06006KT 4SM 13/12 A3012 RMK T01300120 IEM_DS3505
ZGNN,2001-01-03 15:00,ZGNN 031500Z AUTO 00000KT 4SM 12/11 RMK SLP207 T01220111 52011 IEM_DS3505
ZGNN,2001-01-03 18:00,ZGNN 031800Z AUTO 00000KT 4SM 12/11 RMK SLP198 T01240109 57009 IEM_DS3505
ZGNN,2001-01-03 21:00,ZGNN 032100Z AUTO 32002KT 6SM 12/11 RMK 70013 SLP200 T01220107 52002 IEM_DS3505
ZGNN,2001-01-03 22:00,ZGNN 032200Z AUTO 01004KT 2SM 12/10 A3012 RMK T01200100 IEM_DS3505
ZGNN,2001-01-03 23:00,ZGNN 032300Z AUTO 06004KT 1 1/2SM 12/11 A3012 RMK T01200110 IEM_DS3505
ZGNN,2001-01-04 00:00,ZGNN 040000Z AUTO 00000KT 3SM 12/11 A3018 RMK 60000 SLP220 T01150109 52019 IEM_DS3505
ZGNN,2001-01-04 01:00,ZGNN 040100Z AUTO 00000KT 1SM 12/11 A3018 RMK T01200110 IEM_DS3505
ZGNN,2001-01-04 02:00,ZGNN 040200Z AUTO 00000KT 1 1/2SM 12/11 A3021 RMK T01200110 IEM_DS3505
ZGNN,2001-01-04 03:00,ZGNN 040300Z AUTO 34004KT 2 1/2SM 12/11 A3021 RMK SLP227 T01240113 52007 IEM_DS3505
ZGNN,2001-01-04 04:00,ZGNN 040400Z AUTO 01006KT 1 1/4SM 13/12 A3018 RMK T01300120 IEM_DS3505
ZGNN,2001-01-04 05:00,ZGNN 040500Z AUTO 35006KT 1 1/4SM 12/12 A3018 RMK T01200120 IEM_DS3505
ZGNN,2001-01-04 06:00,ZGNN 040600Z AUTO 34004KT 2SM 12/11 A3012 RMK 60000 SLP202 T01240113 57025 IEM_DS3505
ZGNN,2001-01-04 07:00,ZGNN 040700Z AUTO 33004KT 2 1/2SM 13/12 A3012 RMK T01300120 IEM_DS3505
ZGNN,2001-01-04 08:00,ZGNN 040800Z AUTO 01004KT 4SM 13/11 A3009 RMK T01300110 IEM_DS3505
ZGNN,2001-01-04 09:00,ZGNN 040900Z AUTO 11002KT 3SM 13/11 A3009 RMK SLP190 T01280113 57011 IEM_DS3505
ZGNN,2001-01-04 10:00,ZGNN 041000Z AUTO 36004KT 4SM 13/12 A3009 RMK T01300120 IEM_DS3505
ZGNN,2001-01-04 11:00,ZGNN 041100Z AUTO 01004KT 4SM 13/11 A3012 RMK T01300110 IEM_DS3505
ZGNN,2001-01-04 12:00,ZGNN 041200Z AUTO 34004KT 5SM 13/11 A3012 RMK 60003 SLP203 T01270114 52012 IEM_DS3505
ZGNN,2001-01-04 13:00,ZGNN 041300Z AUTO 02004KT 4SM 13/12 A3015 RMK T01300120 IEM_DS3505
ZGNN,2001-01-04 15:00,ZGNN 041500Z AUTO 00000KT 6SM 12/11 RMK SLP214 T01250110 52011 IEM_DS3505
ZGNN,2001-01-04 18:00,ZGNN 041800Z AUTO 02002KT 6SM 12/11 RMK SLP205 T01240109 57009 IEM_DS3505
ZGNN,2001-01-04 21:00,ZGNN 042100Z AUTO 00000KT 6SM 12/11 A3012 RMK 70001 SLP196 T01240107 57008 IEM_DS3505
ZGNN,2001-01-04 22:00,ZGNN 042200Z AUTO 00000KT 3SM 13/11 A3012 RMK T01300110 IEM_DS3505
ZGNN,2001-01-04 23:00,ZGNN 042300Z AUTO 00000KT 3SM 12/11 A3012 RMK T01200110 IEM_DS3505
ZGNN,2001-01-05 00:00,ZGNN 050000Z AUTO 00000KT 4SM 13/11 A3015 RMK 60003 SLP211 T01260111 52014 IEM_DS3505
ZGNN,2001-01-05 01:00,ZGNN 050100Z AUTO 00000KT 3SM 13/11 A3018 RMK T01300110 IEM_DS3505
ZGNN,2001-01-05 02:00,ZGNN 050200Z AUTO 05004KT 3SM 14/11 A3018 RMK T01400110 IEM_DS3505
ZGNN,2001-01-05 03:00,ZGNN 050300Z AUTO 14004KT 5SM 14/11 A3018 RMK SLP218 T01420112 52008 IEM_DS3505
ZGNN,2001-01-05 04:00,ZGNN 050400Z AUTO 05006KT 4SM 16/12 A3015 RMK T01600120 IEM_DS3505
ZGNN,2001-01-05 05:00,ZGNN 050500Z AUTO 17002KT 4SM 18/13 A3009 RMK T01800130 IEM_DS3505
ZGNN,2001-01-05 06:00,ZGNN 050600Z AUTO 00000KT 6SM 19/14 A3006 RMK SLP179 T01910139 57037 IEM_DS3505
ZGNN,2001-01-05 07:00,ZGNN 050700Z AUTO 18002KT 20/14 A3003 RMK T02000140 IEM_DS3505
ZGNN,2001-01-05 08:00,ZGNN 050800Z AUTO 14004KT 20/14 A3000 RMK T02000140 IEM_DS3505
ZGNN,2001-01-05 09:00,ZGNN 050900Z AUTO 25002KT 5SM 20/14 A3000 RMK SLP163 T02000144 57016 IEM_DS3505
ZGNN,2001-01-05 10:00,ZGNN 051000Z AUTO 23002KT 4SM 20/15 A3003 RMK T02000150 IEM_DS3505
ZGNN,2001-01-05 11:00,ZGNN 051100Z AUTO 33002KT 3SM 18/16 A3003 RMK T01800160 IEM_DS3505
ZGNN,2001-01-05 12:00,ZGNN 051200Z AUTO 00000KT 5SM 18/15 A3003 RMK SLP172 T01780154 52008 IEM_DS3505
ZGNN,2001-01-05 13:00,ZGNN 051300Z AUTO 01004KT 2 1/2SM 18/16 A3006 RMK T01800160 IEM_DS3505
ZGNN,2001-01-05 14:00,ZGNN 051400Z AUTO 35004KT 2 1/2SM 18/15 A3006 RMK T01800150 IEM_DS3505
ZGNN,2001-01-05 15:00,ZGNN 051500Z AUTO 09002KT 5SM 17/15 RMK SLP179 T01740147 52008 IEM_DS3505
ZGNN,2001-01-05 18:00,ZGNN 051800Z AUTO 00000KT 5SM 17/14 RMK 60003 SLP169 T01680144 57009 IEM_DS3505
ZGNN,2001-01-05 21:00,ZGNN 052100Z AUTO 00000KT 5SM 17/15 A3003 RMK 70003 SLP162 T01730153 57007 IEM_DS3505
ZGNN,2001-01-05 22:00,ZGNN 052200Z AUTO 13006KT 7SM 18/16 A3000 RMK T01800160 IEM_DS3505
ZGNN,2001-01-05 23:00,ZGNN 052300Z AUTO 15008KT 7SM 18/15 A3003 RMK T01800150 IEM_DS3505
ZGNN,2001-01-06 00:00,ZGNN 060000Z AUTO 00000KT 6SM 18/15 A3006 RMK 60000 SLP178 T01780149 52016 IEM_DS3505
ZGNN,2001-01-06 01:00,ZGNN 060100Z AUTO 13006KT 7SM 18/15 A3009 RMK T01800150 IEM_DS3505
ZGNN,2001-01-06 02:00,ZGNN 060200Z AUTO 15012KT 7SM 19/15 A3009 RMK T01900150 IEM_DS3505
ZGNN,2001-01-06 03:00,ZGNN 060300Z AUTO 18006KT 7SM 21/16 A3006 RMK SLP178 T02060156 54000 IEM_DS3505
ZGNN,2001-01-06 04:00,ZGNN 060400Z AUTO 14012KT 7SM 22/16 A3003 RMK T02200160 IEM_DS3505
ZGNN,2001-01-06 05:00,ZGNN 060500Z AUTO 15012KT 7SM 23/16 A3000 RMK T02300160 IEM_DS3505
ZGNN,2001-01-06 06:00,ZGNN 060600Z AUTO 18008KT 9SM 23/17 A2997 RMK 60003 SLP144 T02280167 57033 IEM_DS3505
ZGNN,2001-01-06 07:00,ZGNN 060700Z AUTO 18012KT 7SM 24/17 A2994 RMK T02400170 IEM_DS3505
ZGNN,2001-01-06 08:00,ZGNN 060800Z AUTO 14014KT 7SM 23/17 A2991 RMK T02300170 IEM_DS3505
ZGNN,2001-01-06 09:00,ZGNN 060900Z AUTO 18008KT 11SM 22/17 A2991 RMK SLP130 T02240171 57014 IEM_DS3505
ZGNN,2001-01-06 10:00,ZGNN 061000Z AUTO 12008KT 7SM 20/18 A2994 RMK T02000180 IEM_DS3505
ZGNN,2001-01-06 11:00,ZGNN 061100Z AUTO 14004KT 7SM 19/17 A2994 RMK T01900170 IEM_DS3505
ZGNN,2001-01-06 12:00,ZGNN 061200Z AUTO 00000KT 11SM 19/18 A2997 RMK SLP141 T01940175 52011 IEM_DS3505
ZGNN,2001-01-06 13:00,ZGNN 061300Z AUTO 15004KT 7SM 18/17 A2997 RMK T01800170 IEM_DS3505
ZGNN,2001-01-06 14:00,ZGNN 061400Z AUTO 00000KT 7SM 18/17 A2997 RMK T01800170 IEM_DS3505
ZGNN,2001-01-06 15:00,ZGNN 061500Z AUTO 00000KT 9SM 16/16 RMK SLP149 T01650158 52007 IEM_DS3505
ZGNN,2001-01-06 18:00,ZGNN 061800Z AUTO 00000KT 7SM 16/15 RMK SLP146 T01580151 57002 IEM_DS3505
ZGNN,2001-01-06 21:00,ZGNN 062100Z AUTO 11002KT 6SM 18/18 A2994 RMK 70000 SLP141 T01840178 57005 IEM_DS3505
ZGNN,2001-01-06 22:00,ZGNN 062200Z AUTO 15006KT 7SM 18/18 A2994 RMK T01800180 IEM_DS3505
ZGNN,2001-01-06 23:00,ZGNN 062300Z AUTO 14006KT 7SM 18/18 A2997 RMK T01800180 IEM_DS3505
ZGNN,2001-01-07 00:00,ZGNN 070000Z AUTO 14004KT 4SM 19/18 A2997 RMK 70003 SLP147 T01890179 52006 IEM_DS3505
ZGNN,2001-01-07 01:00,ZGNN 070100Z AUTO 15006KT 7SM 19/18 A3000 RMK T01900180 IEM_DS3505
ZGNN,2001-01-07 02:00,ZGNN 070200Z AUTO 15010KT 7SM 21/18 A3000 RMK T02100180 IEM_DS3505
ZGNN,2001-01-07 03:00,ZGNN 070300Z AUTO 18004KT 10SM 22/18 A3000 RMK SLP159 T02200179 52012 IEM_DS3505
ZGNN,2001-01-07 04:00,ZGNN 070400Z AUTO 13017KT 7SM 24/18 A2997 RMK T02400180 IEM_DS3505
ZGNN,2001-01-07 05:00,ZGNN 070500Z AUTO 10010KT 7SM 25/18 A2994 RMK T02500180 IEM_DS3505
ZGNN,2001-01-07 06:00,ZGNN 070600Z AUTO 14010KT 19SM 23/17 A2988 RMK SLP118 T02340173 57041 IEM_DS3505
ZGNN,2001-01-07 07:00,ZGNN 070700Z AUTO 13016KT 7SM 25/18 A2985 RMK T02500180 IEM_DS3505
ZGNN,2001-01-07 08:00,ZGNN 070800Z AUTO 15012KT 7SM 25/18 A2983 RMK T02500180 IEM_DS3505
ZGNN,2001-01-07 09:00,ZGNN 070900Z AUTO 20004KT 19SM 24/18 A2983 RMK SLP093 T02440178 57023 IEM_DS3505
ZGNN,2001-01-07 10:00,ZGNN 071000Z AUTO 13012KT 7SM 24/18 A2983 RMK T02400180 IEM_DS3505
ZGNN,2001-01-07 11:00,ZGNN 071100Z AUTO 14010KT 7SM 22/18 A2983 RMK T02200180 IEM_DS3505
ZGNN,2001-01-07 12:00,ZGNN 071200Z AUTO 18004KT 16SM 21/18 A2985 RMK SLP108 T02110179 52014 IEM_DS3505
ZGNN,2001-01-07 13:00,ZGNN 071300Z AUTO 11004KT 6SM 20/18 A2988 RMK T02000180 IEM_DS3505
ZGNN,2001-01-07 14:00,ZGNN 071400Z AUTO 16006KT 6SM 19/18 A2988 RMK T01900180 IEM_DS3505
ZGNN,2001-01-07 15:00,ZGNN 071500Z AUTO 00000KT 16SM 19/18 RMK SLP118 T01900175 52010 IEM_DS3505
ZGNN,2001-01-07 18:00,ZGNN 071800Z AUTO 00000KT 5SM 15/15 RMK SLP115 T01540147 57004 IEM_DS3505
ZGNN,2001-01-07 21:00,ZGNN 072100Z AUTO 09004KT 5SM 17/17 A2985 RMK SLP104 T01740171 57010 IEM_DS3505
ZGNN,2001-01-07 22:00,ZGNN 072200Z AUTO 00000KT 1/4SM 16/16 A2985 RMK T01600160 IEM_DS3505
ZGNN,2001-01-07 23:00,ZGNN 072300Z AUTO 00000KT 1 1/4SM 17/17 A2988 RMK T01700170 IEM_DS3505
ZGNN,2001-01-08 00:00,ZGNN 080000Z AUTO 00000KT 5SM 17/17 A2988 RMK SLP117 T01700168 52012 IEM_DS3505
ZGNN,2001-01-08 01:00,ZGNN 080100Z AUTO 00000KT 5SM 19/19 A2991 RMK T01900190 IEM_DS3505
ZGNN,2001-01-08 02:00,ZGNN 080200Z AUTO 13016KT 5SM 21/19 A2994 RMK T02100190 IEM_DS3505
ZGNN,2001-01-08 03:00,ZGNN 080300Z AUTO 16008KT 7SM 22/18 A2991 RMK SLP130 T02250184 52014 IEM_DS3505
ZGNN,2001-01-08 04:00,ZGNN 080400Z AUTO 12014KT 7SM 25/19 A2988 RMK T02500190 IEM_DS3505
ZGNN,2001-01-08 05:00,ZGNN 080500Z AUTO 13012KT 7SM 24/18 A2988 RMK T02400180 IEM_DS3505
ZGNN,2001-01-08 06:00,ZGNN 080600Z AUTO 13014KT 7SM 26/18 A2983 RMK T02600180 IEM_DS3505
ZGNN,2001-01-08 07:00,ZGNN 080700Z AUTO 15014KT 7SM 28/18 A2980 RMK T02800180 IEM_DS3505
ZGNN,2001-01-08 08:00,ZGNN 080800Z AUTO 14014KT 7SM 27/18 A2977 RMK T02700180 IEM_DS3505
ZGNN,2001-01-08 09:00,ZGNN 080900Z AUTO 14006KT 16SM 26/18 A2977 RMK SLP082 T02560177 57017 IEM_DS3505
ZGNN,2001-01-08 10:00,ZGNN 081000Z AUTO 13016KT 7SM 24/18 A2980 RMK T02400180 IEM_DS3505
ZGNN,2001-01-08 11:00,ZGNN 081100Z AUTO 14012KT 7SM 22/18 A2983 RMK T02200180 IEM_DS3505
ZGNN,2001-01-08 12:00,ZGNN 081200Z AUTO 14008KT 16SM 22/18 A2983 RMK SLP100 T02160181 52017 IEM_DS3505
ZGNN,2001-01-08 13:00,ZGNN 081300Z AUTO 15006KT 6SM 20/18 A2985 RMK T02000180 IEM_DS3505
ZGNN,2001-01-08 14:00,ZGNN 081400Z AUTO 12004KT 6SM 19/18 A2988 RMK T01900180 IEM_DS3505
ZGNN,2001-01-08 15:00,ZGNN 081500Z AUTO 22002KT 12SM 18/17 RMK SLP129 T01850174 52029 IEM_DS3505
ZGNN,2001-01-08 18:00,ZGNN 081800Z AUTO 09002KT 9SM 18/18 RMK SLP140 T01830175 52011 IEM_DS3505
ZGNN,2001-01-08 21:00,ZGNN 082100Z AUTO 04002KT 12SM 20/18 RMK SLP140 T01950179 52001 IEM_DS3505
ZGNN,2001-01-08 22:00,ZGNN 082200Z AUTO 03008KT 2SM 16/14 A2997 RMK T01600140 IEM_DS3505
ZGNN,2001-01-08 23:00,ZGNN 082300Z AUTO 05010KT 1 1/2SM 13/12 A3006 RMK T01300120 IEM_DS3505
ZGNN,2001-01-09 00:00,ZGNN 090000Z AUTO 32002KT 6SM 12/12 A3009 RMK 60008 SLP195 T01230115 52051 IEM_DS3505
ZGNN,2001-01-09 01:00,ZGNN 090100Z AUTO 03012KT 7SM 12/11 A3015 RMK T01200110 IEM_DS3505
ZGNN,2001-01-09 02:00,ZGNN 090200Z AUTO 36008KT 7SM 12/10 A3018 RMK T01200100 IEM_DS3505
ZGNN,2001-01-09 03:00,ZGNN 090300Z AUTO 07004KT 12SM 11/09 A3021 RMK SLP228 T01080088 52031 IEM_DS3505
ZGNN,2001-01-09 04:00,ZGNN 090400Z AUTO 02006KT 7SM 11/09 A3018 RMK T01100090 IEM_DS3505
ZGNN,2001-01-09 05:00,ZGNN 090500Z AUTO 34010KT 7SM 11/08 A3018 RMK T01100080 IEM_DS3505
ZGNN,2001-01-09 06:00,ZGNN 090600Z AUTO 34008KT 12SM 11/07 A3015 RMK 60000 SLP209 T01080073 57019 IEM_DS3505
ZGNN,2001-01-09 07:00,ZGNN 090700Z AUTO 01010KT 7SM RMK IEM_DS3505
ZGNN,2001-01-09 08:00,ZGNN 090800Z AUTO 02010KT 7SM 11/06 A3012 RMK T01100060 IEM_DS3505
ZGNN,2001-01-09 09:00,ZGNN 090900Z AUTO 34006KT 19SM 11/06 A3012 RMK SLP199 T01120061 57009 IEM_DS3505
ZGNN,2001-01-09 10:00,ZGNN 091000Z AUTO 02008KT 7SM 11/06 A3012 RMK T01100060 IEM_DS3505
ZGNN,2001-01-09 11:00,ZGNN 091100Z AUTO 04006KT 7SM 10/06 A3012 RMK T01000060 IEM_DS3505
ZGNN,2001-01-09 12:00,ZGNN 091200Z AUTO 04002KT 19SM 10/05 A3015 RMK 60003 SLP205 T00950053 52004 IEM_DS3505
ZGNN,2001-01-09 13:00,ZGNN 091300Z AUTO 05004KT 7SM 09/05 A3015 RMK T00900050 IEM_DS3505
ZGNN,2001-01-09 14:00,ZGNN 091400Z AUTO 04002KT 7SM 09/05 A3015 RMK T00900050 IEM_DS3505
ZGNN,2001-01-09 15:00,ZGNN 091500Z AUTO 00000KT 17SM 09/05 RMK SLP218 T00940050 52012 IEM_DS3505
ZGNN,2001-01-09 18:00,ZGNN 091800Z AUTO 00000KT 17SM 09/06 RMK 60003 SLP209 T00920055 57009 IEM_DS3505
ZGNN,2001-01-09 21:00,ZGNN 092100Z AUTO 00000KT 12SM 09/07 A3012 RMK 70011 SLP199 T00900066 57010 IEM_DS3505
ZGNN,2001-01-09 22:00,ZGNN 092200Z AUTO 09002KT 7SM 09/07 A3009 RMK T00900070 IEM_DS3505
ZGNN,2001-01-09 23:00,ZGNN 092300Z AUTO 00000KT 7SM 09/07 A3012 RMK T00900070 IEM_DS3505
ZGNN,2001-01-10 00:00,ZGNN 100000Z AUTO 00000KT 6SM 09/07 A3012 RMK 60004 SLP207 T00860067 52008 IEM_DS3505
ZGNN,2001-01-10 01:00,ZGNN 100100Z AUTO 18002KT 3SM 09/07 A3015 RMK T00900070 IEM_DS3505
ZGNN,2001-01-10 02:00,ZGNN 100200Z AUTO 14002KT 3SM 09/07 A3015 RMK T00900070 IEM_DS3505
ZGNN,2001-01-10 03:00,ZGNN 100300Z AUTO 09004KT 4SM 10/06 A3015 RMK SLP208 T00960059 52001 IEM_DS3505
ZGNN,2001-01-10 04:00,ZGNN 100400Z AUTO 07004KT 5SM 10/06 A3012 RMK T01000060 IEM_DS3505
ZGNN,2001-01-10 05:00,ZGNN 100500Z AUTO 00000KT 4SM 10/06 A3009 RMK T01000060 IEM_DS3505
ZGNN,2001-01-10 06:00,ZGNN 100600Z AUTO 14002KT 4SM 10/05 A3006 RMK SLP178 T01030053 57030 IEM_DS3505
ZGNN,2001-01-10 07:00,ZGNN 100700Z AUTO 10004KT 4SM 10/05 A3003 RMK T01000050 IEM_DS3505
ZGNN,2001-01-10 08:00,ZGNN 100800Z AUTO 06006KT 4SM 10/05 A3000 RMK T01000050 IEM_DS3505
ZGNN,2001-01-10 09:00,ZGNN 100900Z AUTO 04004KT 4SM 10/05 A3000 RMK SLP161 T01050053 57016 IEM_DS3505
ZGNN,2001-01-10 10:00,ZGNN 101000Z AUTO 06004KT 4SM 10/05 A3000 RMK T01000050 IEM_DS3505
ZGNN,2001-01-10 11:00,ZGNN 101100Z AUTO 07006KT 4SM 10/05 A3000 RMK T01000050 IEM_DS3505
ZGNN,2001-01-10 12:00,ZGNN 101200Z AUTO 09002KT 3SM 10/05 A3000 RMK SLP169 T00980049 52007 IEM_DS3505
ZGNN,2001-01-10 13:00,ZGNN 101300Z AUTO 09008KT 10/04 A3003 RMK T01000040 IEM_DS3505
ZGNN,2001-01-10 15:00,ZGNN 101500Z AUTO 00000KT 2 1/2SM 09/05 RMK SLP181 T00940050 52012 IEM_DS3505
ZGNN,2001-01-10 18:00,ZGNN 101800Z AUTO 11002KT 7SM 08/06 RMK 60003 SLP192 T00840058 52011 IEM_DS3505
ZGNN,2001-01-10 21:00,ZGNN 102100Z AUTO 22002KT 4SM 08/07 RMK 70003 SLP178 T00850068 57014 IEM_DS3505
ZGNN,2001-01-10 22:00,ZGNN 102200Z AUTO 00000KT 4SM 09/07 A3003 RMK T00900070 IEM_DS3505
ZGNN,2001-01-10 23:00,ZGNN 102300Z AUTO 00000KT 4SM 09/07 A3003 RMK T00900070 IEM_DS3505
ZGNN,2001-01-11 00:00,ZGNN 110000Z AUTO 00000KT 2SM 09/07 A3006 RMK 70003 SLP182 T00890074 52004 IEM_DS3505
ZGNN,2001-01-11 01:00,ZGNN 110100Z AUTO 00000KT 1 1/4SM 09/08 A3009 RMK T00900080 IEM_DS3505
ZGNN,2001-01-11 02:00,ZGNN 110200Z AUTO 21004KT 1 1/4SM 10/08 A3009 RMK T01000080 IEM_DS3505
ZGNN,2001-01-11 03:00,ZGNN 110300Z AUTO 00000KT 7SM 11/08 A3009 RMK SLP189 T01140075 52008 IEM_DS3505
ZGNN,2001-01-11 04:00,ZGNN 110400Z AUTO 00000KT 3SM 13/08 A3006 RMK T01300080 IEM_DS3505
ZGNN,2001-01-11 05:00,ZGNN 110500Z AUTO 00000KT 15/07 A3003 RMK T01500070 IEM_DS3505
ZGNN,2001-01-11 06:00,ZGNN 110600Z AUTO 11004KT 9SM 15/08 A2997 RMK SLP152 T01530075 57036 IEM_DS3505
ZGNN,2001-01-11 07:00,ZGNN 110700Z AUTO 18004KT 16/08 A2994 RMK T01600080 IEM_DS3505
ZGNN,2001-01-11 08:00,ZGNN 110800Z AUTO 00000KT 16/09 A2994 RMK T01600090 IEM_DS3505
ZGNN,2001-01-11 09:00,ZGNN 110900Z AUTO 11004KT 7SM 16/09 A2994 RMK SLP137 T01580086 57015 IEM_DS3505
ZGNN,2001-01-11 10:00,ZGNN 111000Z AUTO 08004KT 2SM 16/09 A2994 RMK T01600090 IEM_DS3505
ZGNN,2001-01-11 11:00,ZGNN 111100Z AUTO 10004KT 2SM 15/10 A2994 RMK T01500100 IEM_DS3505
ZGNN,2001-01-11 12:00,ZGNN 111200Z AUTO 14002KT 6SM 15/10 A2997 RMK SLP149 T01490099 52012 IEM_DS3505
ZGNN,2001-01-11 13:00,ZGNN 111300Z AUTO 12006KT 2SM 14/11 A2997 RMK T01400110 IEM_DS3505
ZGNN,2001-01-11 14:00,ZGNN 111400Z AUTO 06004KT 2SM 14/10 A2997 RMK T01400100 IEM_DS3505
ZGNN,2001-01-11 15:00,ZGNN 111500Z AUTO 09002KT 6SM 14/10 A3000 RMK SLP158 T01380095 52009 IEM_DS3505
ZGNN,2001-01-11 16:00,ZGNN 111600Z AUTO 09006KT 2SM 14/10 A3000 RMK T01400100 IEM_DS3505
ZGNN,2001-01-11 17:00,ZGNN 111700Z AUTO 08006KT 2SM 13/10 A3000 RMK T01300100 IEM_DS3505
ZGNN,2001-01-11 18:00,ZGNN 111800Z AUTO 00000KT 5SM 12/11 RMK 60003 SLP164 T01240111 52007 IEM_DS3505
ZGNN,2001-01-11 21:00,ZGNN 112100Z AUTO 00000KT 4SM 12/11 A2997 RMK 70001 SLP150 T01190113 57014 IEM_DS3505
ZGNN,2001-01-11 22:00,ZGNN 112200Z AUTO 06004KT 1SM 12/11 A2997 RMK T01200110 IEM_DS3505
ZGNN,2001-01-11 23:00,ZGNN 112300Z AUTO 08004KT 1SM 12/11 A2997 RMK T01200110 IEM_DS3505
ZGNN,2001-01-12 00:00,ZGNN 120000Z AUTO 00000KT 2SM 12/11 A3000 RMK 60002 SLP158 T01220114 52008 IEM_DS3505
ZGNN,2001-01-12 01:00,ZGNN 120100Z AUTO 02004KT 1SM 12/12 A3003 RMK T01200120 IEM_DS3505
ZGNN,2001-01-12 02:00,ZGNN 120200Z AUTO 05006KT 1SM 13/12 A3003 RMK T01300120 IEM_DS3505
ZGNN,2001-01-12 03:00,ZGNN 120300Z AUTO 09002KT 3SM 13/12 A3006 RMK SLP175 T01300123 52016 IEM_DS3505
ZGNN,2001-01-12 04:00,ZGNN 120400Z AUTO 07004KT 1SM 13/12 A3003 RMK T01300120 IEM_DS3505
ZGNN,2001-01-12 05:00,ZGNN 120500Z AUTO 36004KT 1SM 13/13 A3003 RMK T01300130 IEM_DS3505
ZGNN,2001-01-12 06:00,ZGNN 120600Z AUTO 00000KT 2SM 13/13 RMK 60000 SLP161 T01330128 57014 IEM_DS3505
ZGNN,2001-01-12 07:00,ZGNN 120700Z AUTO 36004KT 1SM 13/13 A3000 RMK T01300130 IEM_DS3505
ZGNN,2001-01-12 08:00,ZGNN 120800Z AUTO 33004KT 1 1/4SM 13/13 A3000 RMK T01300130 IEM_DS3505
ZGNN,2001-01-12 09:00,ZGNN 120900Z AUTO 34004KT 2SM 14/13 A3000 RMK SLP159 T01350130 57002 IEM_DS3505
ZGNN,2001-01-12 10:00,ZGNN 121000Z AUTO 00000KT 1SM 14/13 A3003 RMK T01400130 IEM_DS3505
ZGNN,2001-01-12 11:00,ZGNN 121100Z AUTO 36004KT 1SM 14/13 A3003 RMK T01400130 IEM_DS3505
ZGNN,2001-01-12 12:00,ZGNN 121200Z AUTO 04004KT 2SM 14/13 A3009 RMK 60000 SLP185 T01380131 52026 IEM_DS3505
ZGNN,2001-01-12 13:00,ZGNN 121300Z AUTO 00000KT 1 1/4SM 14/13 A3012 RMK T01400130 IEM_DS3505
ZGNN,2001-01-12 14:00,ZGNN 121400Z AUTO 00000KT 1 1/4SM 13/13 A3015 RMK T01300130 IEM_DS3505
ZGNN,2001-01-12 15:00,ZGNN 121500Z AUTO 00000KT 1 1/4SM 13/13 RMK SLP215 T01330128 52030 IEM_DS3505
ZGNN,2001-01-12 18:00,ZGNN 121800Z AUTO 34006KT 4SM 14/11 RMK 60002 SLP219 T01360112 52004 IEM_DS3505
ZGNN,2001-01-12 21:00,ZGNN 122100Z AUTO 07004KT 6SM 13/11 A3015 RMK 70004 SLP214 T01280109 57005 IEM_DS3505
ZGNN,2001-01-12 22:00,ZGNN 122200Z AUTO 05004KT 7SM 12/10 A3018 RMK T01200100 IEM_DS3505
ZGNN,2001-01-12 23:00,ZGNN 122300Z AUTO 00000KT 7SM A3018 RMK IEM_DS3505
ZGNN,2001-01-13 00:00,ZGNN 130000Z AUTO 09002KT 5SM 10/08 A3018 RMK 60003 SLP222 T01040077 52007 IEM_DS3505
ZGNN,2001-01-13 01:00,ZGNN 130100Z AUTO 00000KT 6SM 11/09 A3018 RMK T01100090 IEM_DS3505
ZGNN,2001-01-13 02:00,ZGNN 130200Z AUTO 36008KT 6SM 13/08 A3021 RMK T01300080 IEM_DS3505
ZGNN,2001-01-13 03:00,ZGNN 130300Z AUTO 02006KT 12SM 14/08 A3021 RMK SLP225 T01430081 52004 IEM_DS3505
ZGNN,2001-01-13 04:00,ZGNN 130400Z AUTO 34010KT 6SM 15/07 RMK T01500070 IEM_DS3505
ZGNN,2001-01-13 05:00,ZGNN 130500Z AUTO 36004KT 6SM 16/07 A3012 RMK T01600070 IEM_DS3505
ZGNN,2001-01-13 06:00,ZGNN 130600Z AUTO 34002KT 12SM 16/07 A3009 RMK SLP190 T01640072 57034 IEM_DS3505
ZGNN,2001-01-13 07:00,ZGNN 130700Z AUTO 36002KT 6SM 18/08 A3006 RMK T01800080 IEM_DS3505
ZGNN,2001-01-13 08:00,ZGNN 130800Z AUTO 08002KT 6SM 18/08 A3006 RMK T01800080 IEM_DS3505
ZGNN,2001-01-13 09:00,ZGNN 130900Z AUTO 14002KT 12SM 18/08 A3003 RMK SLP172 T01780081 57018 IEM_DS3505
ZGNN,2001-01-13 10:00,ZGNN 131000Z AUTO 06002KT 6SM 17/09 A3003 RMK T01700090 IEM_DS3505
ZGNN,2001-01-13 11:00,ZGNN 131100Z AUTO 00000KT 6SM 16/10 A3006 RMK T01600100 IEM_DS3505
ZGNN,2001-01-13 12:00,ZGNN 131200Z AUTO 07004KT 7SM 13/10 A3006 RMK SLP179 T01320097 52005 IEM_DS3505
ZGNN,2001-01-13 14:00,ZGNN 131400Z AUTO 00000KT 6SM 12/10 A3009 RMK T01200100 IEM_DS3505
ZGNN,2001-01-13 15:00,ZGNN 131500Z AUTO 00000KT 7SM 12/10 A3012 RMK SLP195 T01200099 52017 IEM_DS3505
ZGNN,2001-01-13 16:00,ZGNN 131600Z AUTO 00000KT 6SM 12/11 A3012 RMK T01200110 IEM_DS3505
ZGNN,2001-01-13 18:00,ZGNN 131800Z AUTO 00000KT 7SM 13/11 RMK SLP200 T01300109 52006 IEM_DS3505
ZGNN,2001-01-13 21:00,ZGNN 132100Z AUTO 07002KT 7SM 13/07 RMK SLP201 T01330074 52001 IEM_DS3505
ZGNN,2001-01-13 22:00,ZGNN 132200Z AUTO 02006KT 7SM 12/07 A3015 RMK T01200070 IEM_DS3505
ZGNN,2001-01-13 23:00,ZGNN 132300Z AUTO 36004KT 7SM 11/07 A3015 RMK T01100070 IEM_DS3505
ZGNN,2001-01-14 00:00,ZGNN 140000Z AUTO 00000KT 6SM 11/07 A3018 RMK SLP220 T01100073 52017 IEM_DS3505
ZGNN,2001-01-14 01:00,ZGNN 140100Z AUTO 03006KT 7SM 12/07 A3021 RMK T01200070 IEM_DS3505
ZGNN,2001-01-14 02:00,ZGNN 140200Z AUTO 04006KT 6SM 13/06 A3024 RMK T01300060 IEM_DS3505
ZGNN,2001-01-14 03:00,ZGNN 140300Z AUTO 09004KT 8SM 14/06 A3024 RMK SLP236 T01360063 52016 IEM_DS3505
ZGNN,2001-01-14 04:00,ZGNN 140400Z AUTO 04010KT 6SM 14/06 A3021 RMK T01400060 IEM_DS3505
ZGNN,2001-01-14 05:00,ZGNN 140500Z AUTO 04010KT 6SM 14/05 A3018 RMK T01400050 IEM_DS3505
ZGNN,2001-01-14 06:00,ZGNN 140600Z AUTO 09004KT 7SM 15/05 A3015 RMK SLP207 T01520051 57028 IEM_DS3505
ZGNN,2001-01-14 07:00,ZGNN 140700Z AUTO 04008KT 6SM 16/05 A3012 RMK T01600050 IEM_DS3505
ZGNN,2001-01-14 08:00,ZGNN 140800Z AUTO 01008KT 7SM 15/06 A3012 RMK T01500060 IEM_DS3505
ZGNN,2001-01-14 09:00,ZGNN 140900Z AUTO 02004KT 7SM 15/06 A3012 RMK SLP197 T01540059 57009 IEM_DS3505
ZGNN,2001-01-14 10:00,ZGNN 141000Z AUTO 10006KT 7SM 15/06 A3012 RMK T01500060 IEM_DS3505
ZGNN,2001-01-14 11:00,ZGNN 141100Z AUTO 06006KT 7SM 14/06 A3015 RMK T01400060 IEM_DS3505
ZGNN,2001-01-14 12:00,ZGNN 141200Z AUTO 00000KT 7SM 14/06 A3018 RMK SLP216 T01450065 52017 IEM_DS3505
ZGNN,2001-01-14 13:00,ZGNN 141300Z AUTO 06006KT 7SM 14/06 A3018 RMK T01400060 IEM_DS3505
ZGNN,2001-01-14 15:00,ZGNN 141500Z AUTO 34002KT 6SM 12/06 RMK SLP244 T01240061 52028 IEM_DS3505
ZGNN,2001-01-14 18:00,ZGNN 141800Z AUTO 02004KT 7SM 10/08 RMK 60016 SLP249 T01000084 52005 IEM_DS3505
ZGNN,2001-01-14 21:00,ZGNN 142100Z AUTO 34006KT 6SM 09/08 A3027 RMK 70026 SLP248 T00940082 57001 IEM_DS3505
ZGNN,2001-01-14 22:00,ZGNN 142200Z AUTO 34004KT 4SM 09/09 A3027 RMK T00900090 IEM_DS3505
ZGNN,2001-01-14 23:00,ZGNN 142300Z AUTO 00000KT 4SM 09/09 A3030 RMK T00900090 IEM_DS3505
ZGNN,2001-01-15 00:00,ZGNN 150000Z AUTO 04004KT 5SM 09/07 RMK 60016 SLP265 T00880071 52016 IEM_DS3505
ZGNN,2001-01-15 01:00,ZGNN 150100Z AUTO 04006KT 3SM 09/08 A3033 RMK T00900080 IEM_DS3505
ZGNN,2001-01-15 02:00,ZGNN 150200Z AUTO 36006KT 3SM 09/07 A3036 RMK T00900070 IEM_DS3505
ZGNN,2001-01-15 03:00,ZGNN 150300Z AUTO 09002KT 3SM 08/08 A3039 RMK SLP289 T00840076 52023 IEM_DS3505
ZGNN,2001-01-15 04:00,ZGNN 150400Z AUTO 02004KT 1 1/4SM 09/08 A3039 RMK T00900080 IEM_DS3505
ZGNN,2001-01-15 05:00,ZGNN 150500Z AUTO 34004KT 1 1/4SM 09/08 A3036 RMK T00900080 IEM_DS3505
ZGNN,2001-01-15 06:00,ZGNN 150600Z AUTO 32006KT 2 1/2SM 09/08 A3033 RMK 60016 SLP272 T00890083 57017 IEM_DS3505
ZGNN,2001-01-15 07:00,ZGNN 150700Z AUTO 33006KT 1 1/4SM 09/07 A3033 RMK T00900070 IEM_DS3505
ZGNN,2001-01-15 08:00,ZGNN 150800Z AUTO 34006KT 1 1/2SM 09/08 A3033 RMK T00900080 IEM_DS3505
ZGNN,2001-01-15 09:00,ZGNN 150900Z AUTO 02004KT 2 1/2SM 08/07 A3033 RMK SLP267 T00840071 57005 IEM_DS3505
ZGNN,2001-01-15 10:00,ZGNN 151000Z AUTO 05004KT 1 1/4SM 08/08 A3033 RMK T00800080 IEM_DS3505
ZGNN,2001-01-15 11:00,ZGNN 151100Z AUTO 36004KT 1 1/4SM 08/07 A3033 RMK T00800070 IEM_DS3505
ZGNN,2001-01-15 12:00,ZGNN 151200Z AUTO 00000KT 5SM 08/07 A3036 RMK 60008 SLP282 T00850072 52014 IEM_DS3505
ZGNN,2001-01-15 13:00,ZGNN 151300Z AUTO 00000KT 2 1/2SM 09/08 A3036 RMK T00900080 IEM_DS3505
ZGNN,2001-01-15 14:00,ZGNN 151400Z AUTO 04004KT 2 1/2SM 08/08 A3039 RMK T00800080 IEM_DS3505
ZGNN,2001-01-15 15:00,ZGNN 151500Z AUTO 07002KT 6SM 08/07 A3039 RMK SLP290 T00800071 52008 IEM_DS3505
ZGNN,2001-01-15 18:00,ZGNN 151800Z AUTO 00000KT 4SM 08/07 RMK 60003 SLP292 T00780072 52002 IEM_DS3505
ZGNN,2001-01-15 21:00,ZGNN 152100Z AUTO 00000KT 4SM 08/07 RMK T00800074 IEM_DS3505
ZGNN,2001-01-15 22:00,ZGNN 152200Z AUTO 00000KT 1SM 08/08 A3036 RMK T00800080 IEM_DS3505
ZGNN,2001-01-15 23:00,ZGNN 152300Z AUTO 00000KT 1 1/4SM 08/08 A3036 RMK T00800080 IEM_DS3505
ZGNN,2001-01-16 00:00,ZGNN 160000Z AUTO 00000KT 4SM 08/07 A3036 RMK 60002 SLP288 T00780069 52005 IEM_DS3505
ZGNN,2001-01-16 01:00,ZGNN 160100Z AUTO 00000KT 2SM 08/07 A3039 RMK T00800070 IEM_DS3505
ZGNN,2001-01-16 02:00,ZGNN 160200Z AUTO 00000KT 2 1/2SM 09/08 A3039 RMK T00900080 IEM_DS3505
ZGNN,2001-01-16 03:00,ZGNN 160300Z AUTO 00000KT 5SM 09/07 A3039 RMK SLP295 T00910074 52007 IEM_DS3505
ZGNN,2001-01-16 04:00,ZGNN 160400Z AUTO 01004KT 4SM 10/08 A3036 RMK T01000080 IEM_DS3505
ZGNN,2001-01-16 05:00,ZGNN 160500Z AUTO 33008KT 4SM 10/07 A3033 RMK T01000070 IEM_DS3505
ZGNN,2001-01-16 06:00,ZGNN 160600Z AUTO 02006KT 5SM 10/08 A3030 RMK 60003 SLP260 T01040075 57034 IEM_DS3505
ZGNN,2001-01-16 07:00,ZGNN 160700Z AUTO 33004KT 5SM 10/07 A3027 RMK T01000070 IEM_DS3505
ZGNN,2001-01-16 08:00,ZGNN 160800Z AUTO 35004KT 7SM 10/07 A3027 RMK T01000070 IEM_DS3505
ZGNN,2001-01-16 09:00,ZGNN 160900Z AUTO 34002KT 6SM 10/06 A3024 RMK SLP246 T01010065 57014 IEM_DS3505
ZGNN,2001-01-16 10:00,ZGNN 161000Z AUTO 34004KT 7SM 10/07 A3027 RMK T01000070 IEM_DS3505
ZGNN,2001-01-16 11:00,ZGNN 161100Z AUTO 00000KT 7SM 10/07 A3027 RMK T01000070 IEM_DS3505
ZGNN,2001-01-16 12:00,ZGNN 161200Z AUTO 34002KT 6SM 10/07 A3030 RMK 60003 SLP256 T00960073 52010 IEM_DS3505
ZGNN,2001-01-16 13:00,ZGNN 161300Z AUTO 00000KT 2 1/2SM 09/08 A3030 RMK T00900080 IEM_DS3505
ZGNN,2001-01-16 14:00,ZGNN 161400Z AUTO 00000KT 2 1/2SM 09/08 A3030 RMK T00900080 IEM_DS3505
ZGNN,2001-01-16 15:00,ZGNN 161500Z AUTO 00000KT 4SM 09/08 A3030 RMK SLP266 T00900084 52010 IEM_DS3505
ZGNN,2001-01-16 18:00,ZGNN 161800Z AUTO 34002KT 2 1/2SM 09/08 RMK 60002 SLP256 T00890083 57010 IEM_DS3505
ZGNN,2001-01-16 21:00,ZGNN 162100Z AUTO 34004KT 2 1/2SM 09/08 A3027 RMK 70003 SLP251 T00930085 57005 IEM_DS3505
ZGNN,2001-01-16 22:00,ZGNN 162200Z AUTO 00000KT 1 1/4SM 09/09 A3027 RMK T00900090 IEM_DS3505
ZGNN,2001-01-16 23:00,ZGNN 162300Z AUTO 00000KT 1 1/4SM 09/09 A3027 RMK T00900090 IEM_DS3505
ZGNN,2001-01-17 00:00,ZGNN 170000Z AUTO 00000KT 1 1/4SM 09/09 A3027 RMK 60003 SLP256 T00940090 52005 IEM_DS3505
ZGNN,2001-01-17 01:00,ZGNN 170100Z AUTO 00000KT 1SM 10/09 A3030 RMK T01000090 IEM_DS3505
ZGNN,2001-01-17 02:00,ZGNN 170200Z AUTO 11004KT 1 1/4SM 10/10 A3030 RMK T01000100 IEM_DS3505
ZGNN,2001-01-17 03:00,ZGNN 170300Z AUTO 16002KT 1SM 10/10 A3030 RMK SLP263 T00990095 52007 IEM_DS3505
ZGNN,2001-01-17 04:00,ZGNN 170400Z AUTO 08002KT 1 1/4SM 10/10 A3027 RMK T01000100 IEM_DS3505
ZGNN,2001-01-17 05:00,ZGNN 170500Z AUTO 33004KT 1 1/4SM 11/10 A3024 RMK T01100100 IEM_DS3505
ZGNN,2001-01-17 06:00,ZGNN 170600Z AUTO 04002KT 2 1/2SM 11/10 A3021 RMK 60000 SLP225 T01130095 57037 IEM_DS3505
ZGNN,2001-01-17 07:00,ZGNN 170700Z AUTO 07004KT 1 1/2SM 12/10 A3015 RMK T01200100 IEM_DS3505
ZGNN,2001-01-17 08:00,ZGNN 170800Z AUTO 01002KT 1 1/2SM 12/10 A3015 RMK T01200100 IEM_DS3505
ZGNN,2001-01-17 09:00,ZGNN 170900Z AUTO 32006KT 1 1/4SM 12/10 A3015 RMK SLP207 T01170105 57018 IEM_DS3505
ZGNN,2001-01-17 10:00,ZGNN 171000Z AUTO 00000KT 1SM 12/11 A3012 RMK T01200110 IEM_DS3505
ZGNN,2001-01-17 11:00,ZGNN 171100Z AUTO 34002KT 1SM 12/11 A3012 RMK T01200110 IEM_DS3505
ZGNN,2001-01-17 12:00,ZGNN 171200Z AUTO 00000KT 1SM 11/11 A3015 RMK 60003 SLP210 T01120110 52003 IEM_DS3505
ZGNN,2001-01-17 13:00,ZGNN 171300Z AUTO 00000KT 1SM 11/11 A3015 RMK T01100110 IEM_DS3505
ZGNN,2001-01-17 14:00,ZGNN 171400Z AUTO 00000KT 1SM 11/11 A3015 RMK T01100110 IEM_DS3505
ZGNN,2001-01-17 15:00,ZGNN 171500Z AUTO 00000KT 5SM 12/11 A3015 RMK SLP214 T01150109 52004 IEM_DS3505
ZGNN,2001-01-17 16:00,ZGNN 171600Z AUTO 19004KT 1SM 12/11 A3015 RMK T01200110 IEM_DS3505
ZGNN,2001-01-17 18:00,ZGNN 171800Z AUTO 00000KT 1 1/4SM 12/11 RMK 60003 SLP197 T01160112 57016 IEM_DS3505
ZGNN,2001-01-17 22:00,ZGNN 172200Z AUTO 35004KT 1SM 12/12 A3009 RMK T01200120 IEM_DS3505
ZGNN,2001-01-17 23:00,ZGNN 172300Z AUTO 24002KT 1/4SM 12/12 A3012 RMK T01200120 IEM_DS3505
ZGNN,2001-01-18 00:00,ZGNN 180000Z AUTO 00000KT 1/8SM 12/12 A3012 RMK 60000 SLP204 T01210119 52016 IEM_DS3505
ZGNN,2001-01-18 01:00,ZGNN 180100Z AUTO 20004KT 1/8SM 12/12 A3015 RMK T01200120 IEM_DS3505
ZGNN,2001-01-18 02:00,ZGNN 180200Z AUTO 00000KT 1/4SM 13/12 A3018 RMK T01300120 IEM_DS3505
ZGNN,2001-01-18 03:00,ZGNN 180300Z AUTO 00000KT 1/8SM 13/13 A3018 RMK SLP219 T01310129 52015 IEM_DS3505
ZGNN,2001-01-18 04:00,ZGNN 180400Z AUTO 00000KT 1SM 14/13 A3015 RMK T01400130 IEM_DS3505
ZGNN,2001-01-18 05:00,ZGNN 180500Z AUTO 00000KT 1 1/4SM 15/14 A3012 RMK T01500140 IEM_DS3505
ZGNN,2001-01-18 06:00,ZGNN 180600Z AUTO 07002KT 2SM 16/15 A3009 RMK 60000 SLP183 T01600146 57035 IEM_DS3505
ZGNN,2001-01-18 07:00,ZGNN 180700Z AUTO 14006KT 1 1/2SM 16/15 A3006 RMK T01600150 IEM_DS3505
ZGNN,2001-01-18 08:00,ZGNN 180800Z AUTO 10006KT 2SM 18/16 A3003 RMK T01800160 IEM_DS3505
ZGNN,2001-01-18 09:00,ZGNN 180900Z AUTO 00000KT 1 1/4SM 17/16 A3003 RMK SLP170 T01740161 57012 IEM_DS3505
ZGNN,2001-01-18 10:00,ZGNN 181000Z AUTO 12010KT 1 1/2SM 18/17 A3003 RMK T01800170 IEM_DS3505
ZGNN,2001-01-18 11:00,ZGNN 181100Z AUTO 12006KT 1 1/2SM 18/17 A3003 RMK T01800170 IEM_DS3505
ZGNN,2001-01-18 12:00,ZGNN 181200Z AUTO 14002KT 4SM 18/17 A3006 RMK SLP183 T01800168 52013 IEM_DS3505
ZGNN,2001-01-18 13:00,ZGNN 181300Z AUTO 00000KT 2SM 17/16 A3009 RMK T01700160 IEM_DS3505
ZGNN,2001-01-18 14:00,ZGNN 181400Z AUTO 06004KT 2SM 18/17 A3009 RMK T01800170 IEM_DS3505
ZGNN,2001-01-18 15:00,ZGNN 181500Z AUTO 07002KT 3SM 16/16 A3012 RMK SLP196 T01640159 52013 IEM_DS3505
ZGNN,2001-01-18 16:00,ZGNN 181600Z AUTO 00000KT 1 1/4SM 16/16 A3012 RMK T01600160 IEM_DS3505
ZGNN,2001-01-18 17:00,ZGNN 181700Z AUTO 00000KT 1SM 16/16 A3012 RMK T01600160 IEM_DS3505
ZGNN,2001-01-18 18:00,ZGNN 181800Z AUTO 00000KT 2 1/2SM 16/16 A3012 RMK SLP195 T01640159 54000 IEM_DS3505
ZGNN,2001-01-18 19:00,ZGNN 181900Z AUTO 00000KT 1SM 15/15 A3009 RMK T01500150 IEM_DS3505
ZGNN,2001-01-18 21:00,ZGNN 182100Z AUTO 14006KT 2SM 17/17 A3009 RMK 70001 SLP185 T01720169 57010 IEM_DS3505
ZGNN,2001-01-18 22:00,ZGNN 182200Z AUTO 13008KT 2 1/2SM 17/17 A3009 RMK T01700170 IEM_DS3505
ZGNN,2001-01-18 23:00,ZGNN 182300Z AUTO 12006KT 2 1/2SM 17/16 A3009 RMK T01700160 IEM_DS3505
ZGNN,2001-01-19 00:00,ZGNN 190000Z AUTO 00000KT 1 1/4SM 17/17 A3012 RMK 70000 SLP196 T01710166 52011 IEM_DS3505
ZGNN,2001-01-19 01:00,ZGNN 190100Z AUTO 18006KT 2 1/2SM 18/17 A3015 RMK T01800170 IEM_DS3505
ZGNN,2001-01-19 02:00,ZGNN 190200Z AUTO 14006KT 7SM 19/17 A3015 RMK T01900170 IEM_DS3505
ZGNN,2001-01-19 03:00,ZGNN 190300Z AUTO 18004KT 6SM 19/18 A3018 RMK SLP215 T01940175 52019 IEM_DS3505
ZGNN,2001-01-19 04:00,ZGNN 190400Z AUTO 18008KT 7SM 21/18 A3015 RMK T02100180 IEM_DS3505
ZGNN,2001-01-19 05:00,ZGNN 190500Z AUTO 15012KT 7SM 24/18 A3009 RMK T02400180 IEM_DS3505
ZGNN,2001-01-19 06:00,ZGNN 190600Z AUTO 18006KT 12SM 23/18 A3006 RMK SLP180 T02260178 57034 IEM_DS3505
ZGNN,2001-01-19 07:00,ZGNN 190700Z AUTO 15010KT 7SM 24/18 A3003 RMK T02400180 IEM_DS3505
ZGNN,2001-01-19 08:00,ZGNN 190800Z AUTO 12008KT 7SM A3003 RMK IEM_DS3505
ZGNN,2001-01-19 09:00,ZGNN 190900Z AUTO 15010KT 7SM 23/17 A3000 RMK T02300170 IEM_DS3505
ZGNN,2001-01-19 10:00,ZGNN 191000Z AUTO 12010KT 7SM RMK IEM_DS3505
ZGNN,2001-01-19 11:00,ZGNN 191100Z AUTO 13010KT 7SM 21/17 A3003 RMK T02100170 IEM_DS3505
ZGNN,2001-01-19 12:00,ZGNN 191200Z AUTO 00000KT 11SM 20/18 A3006 RMK SLP177 T02050178 52012 IEM_DS3505
ZGNN,2001-01-19 13:00,ZGNN 191300Z AUTO 00000KT 7SM 19/17 A3009 RMK T01900170 IEM_DS3505
ZGNN,2001-01-19 14:00,ZGNN 191400Z AUTO 00000KT 7SM 18/17 A3009 RMK T01800170 IEM_DS3505
ZGNN,2001-01-19 15:00,ZGNN 191500Z AUTO 00000KT 11SM 18/17 A3009 RMK SLP189 T01810166 52012 IEM_DS3505
ZGNN,2001-01-19 16:00,ZGNN 191600Z AUTO 00000KT 7SM 17/17 A3009 RMK T01700170 IEM_DS3505
ZGNN,2001-01-19 18:00,ZGNN 191800Z AUTO 07002KT 9SM 16/15 RMK SLP193 T01590150 52004 IEM_DS3505
ZGNN,2001-01-19 21:00,ZGNN 192100Z AUTO 02002KT 7SM 17/17 A3009 RMK SLP189 T01730168 57003 IEM_DS3505
ZGNN,2001-01-19 22:00,ZGNN 192200Z AUTO 00000KT 5SM 17/17 A3009 RMK T01700170 IEM_DS3505
ZGNN,2001-01-19 23:00,ZGNN 192300Z AUTO 15006KT 5SM 17/17 A3012 RMK T01700170 IEM_DS3505
ZGNN,2001-01-20 00:00,ZGNN 200000Z AUTO 00000KT 4SM 18/17 A3012 RMK SLP202 T01760171 52012 IEM_DS3505
ZGNN,2001-01-20 01:00,ZGNN 200100Z AUTO 00000KT 1 1/4SM 19/18 A3015 RMK T01900180 IEM_DS3505
ZGNN,2001-01-20 02:00,ZGNN 200200Z AUTO 12006KT 2SM 20/18 A3018 RMK T02000180 IEM_DS3505
ZGNN,2001-01-20 03:00,ZGNN 200300Z AUTO 09004KT 5SM 20/18 A3018 RMK SLP213 T01960178 52011 IEM_DS3505
ZGNN,2001-01-20 04:00,ZGNN 200400Z AUTO 10004KT 7SM 21/18 A3015 RMK T02100180 IEM_DS3505
ZGNN,2001-01-20 05:00,ZGNN 200500Z AUTO 36006KT 7SM 23/18 A3012 RMK T02300180 IEM_DS3505
ZGNN,2001-01-20 06:00,ZGNN 200600Z AUTO 09004KT 9SM 22/17 A3006 RMK SLP178 T02190171 57035 IEM_DS3505
ZGNN,2001-01-20 07:00,ZGNN 200700Z AUTO 04004KT 7SM 24/17 A3003 RMK T02400170 IEM_DS3505
ZGNN,2001-01-20 09:00,ZGNN 200900Z AUTO 34004KT 11SM 20/16 A3000 RMK SLP161 T01990156 57017 IEM_DS3505
ZGNN,2001-01-20 10:00,ZGNN 201000Z AUTO 36008KT 6SM 18/15 A3000 RMK T01800150 IEM_DS3505
ZGNN,2001-01-20 11:00,ZGNN 201100Z AUTO 01004KT 6SM 17/15 A3000 RMK T01700150 IEM_DS3505
ZGNN,2001-01-20 12:00,ZGNN 201200Z AUTO 00000KT 9SM 16/14 A3000 RMK SLP161 T01650142 57001 IEM_DS3505
ZGNN,2001-01-20 13:00,ZGNN 201300Z AUTO 02002KT 6SM 16/14 A3000 RMK T01600140 IEM_DS3505
ZGNN,2001-01-20 14:00,ZGNN 201400Z AUTO 00000KT 6SM 15/14 A3003 RMK T01500140 IEM_DS3505
ZGNN,2001-01-20 15:00,ZGNN 201500Z AUTO 09002KT 7SM 15/14 A3003 RMK SLP168 T01520136 52008 IEM_DS3505
ZGNN,2001-01-20 16:00,ZGNN 201600Z AUTO 06004KT 7SM 15/13 A3003 RMK T01500130 IEM_DS3505
ZGNN,2001-01-20 17:00,ZGNN 201700Z AUTO 03004KT 7SM 14/13 A3000 RMK T01400130 IEM_DS3505
ZGNN,2001-01-20 18:00,ZGNN 201800Z AUTO 00000KT 7SM 13/12 RMK SLP157 T01310124 57011 IEM_DS3505
ZGNN,2001-01-20 21:00,ZGNN 202100Z AUTO 00000KT 7SM 13/12 A2997 RMK SLP150 T01280121 57008 IEM_DS3505
ZGNN,2001-01-20 22:00,ZGNN 202200Z AUTO 00000KT 2 1/2SM 13/12 A2997 RMK T01300120 IEM_DS3505
ZGNN,2001-01-20 23:00,ZGNN 202300Z AUTO 00000KT 1 1/4SM 12/12 A2997 RMK T01200120 IEM_DS3505
ZGNN,2001-01-21 00:00,ZGNN 210000Z AUTO 00000KT 2SM 12/11 A3000 RMK SLP157 T01180114 52006 IEM_DS3505
ZGNN,2001-01-21 01:00,ZGNN 210100Z AUTO 00000KT 1 1/2SM 14/13 A3000 RMK T01400130 IEM_DS3505
ZGNN,2001-01-21 02:00,ZGNN 210200Z AUTO 03004KT 2SM 15/13 A3003 RMK T01500130 IEM_DS3505
ZGNN,2001-01-21 03:00,ZGNN 210300Z AUTO 14004KT 4SM 16/14 A3003 RMK SLP164 T01630140 52008 IEM_DS3505
ZGNN,2001-01-21 04:00,ZGNN 210400Z AUTO 02002KT 2SM 19/15 A2997 RMK T01900150 IEM_DS3505
ZGNN,2001-01-21 05:00,ZGNN 210500Z AUTO 11002KT 2 1/2SM 21/17 A2994 RMK T02100170 IEM_DS3505
ZGNN,2001-01-21 06:00,ZGNN 210600Z AUTO 14006KT 6SM 22/17 A2988 RMK SLP118 T02170168 57045 IEM_DS3505
ZGNN,2001-01-21 07:00,ZGNN 210700Z AUTO 11008KT 24/17 A2985 RMK T02400170 IEM_DS3505
ZGNN,2001-01-21 08:00,ZGNN 210800Z AUTO 07010KT 6SM 24/18 A2983 RMK T02400180 IEM_DS3505
ZGNN,2001-01-21 09:00,ZGNN 210900Z AUTO 09006KT 6SM 23/18 A2983 RMK SLP094 T02330183 57023 IEM_DS3505
ZGNN,2001-01-21 10:00,ZGNN 211000Z AUTO 09008KT 6SM 23/19 A2980 RMK T02300190 IEM_DS3505
ZGNN,2001-01-21 11:00,ZGNN 211100Z AUTO 06006KT 5SM 21/19 A2983 RMK T02100190 IEM_DS3505
ZGNN,2001-01-21 12:00,ZGNN 211200Z AUTO 00000KT 7SM 21/18 A2985 RMK SLP104 T02060182 52009 IEM_DS3505
ZGNN,2001-01-21 13:00,ZGNN 211300Z AUTO 13012KT 5SM 20/18 A2985 RMK T02000180 IEM_DS3505
ZGNN,2001-01-21 14:00,ZGNN 211400Z AUTO 14006KT 5SM 19/18 A2988 RMK T01900180 IEM_DS3505
ZGNN,2001-01-21 15:00,ZGNN 211500Z AUTO 11002KT 9SM 20/18 A2988 RMK SLP119 T01980179 52016 IEM_DS3505
ZGNN,2001-01-21 16:00,ZGNN 211600Z AUTO 14006KT 7SM 19/18 A2988 RMK T01900180 IEM_DS3505
ZGNN,2001-01-21 17:00,ZGNN 211700Z AUTO 15010KT 6SM 19/18 A2988 RMK T01900180 IEM_DS3505
ZGNN,2001-01-21 18:00,ZGNN 211800Z AUTO 14008KT 9SM 20/18 A2988 RMK SLP117 T02010180 57001 IEM_DS3505
ZGNN,2001-01-21 19:00,ZGNN 211900Z AUTO 15012KT 6SM 20/18 A2988 RMK T02000180 IEM_DS3505
ZGNN,2001-01-21 20:00,ZGNN 212000Z AUTO 15010KT 7SM 20/19 A2988 RMK T02000190 IEM_DS3505
ZGNN,2001-01-21 21:00,ZGNN 212100Z AUTO 14002KT 7SM 20/19 A2988 RMK SLP111 T02010188 57005 IEM_DS3505
ZGNN,2001-01-21 22:00,ZGNN 212200Z AUTO 08002KT 7SM 20/19 A2988 RMK T02000190 IEM_DS3505
ZGNN,2001-01-21 23:00,ZGNN 212300Z AUTO 12006KT 4SM 19/19 A2988 RMK T01900190 IEM_DS3505
ZGNN,2001-01-22 00:00,ZGNN 220000Z AUTO 00000KT 4SM 20/19 A2991 RMK SLP121 T01990188 52009 IEM_DS3505
ZGNN,2001-01-22 01:00,ZGNN 220100Z AUTO 14006KT 5SM 20/19 A2991 RMK T02000190 IEM_DS3505
ZGNN,2001-01-22 02:00,ZGNN 220200Z AUTO 14010KT 7SM 22/19 A2994 RMK T02200190 IEM_DS3505
ZGNN,2001-01-22 03:00,ZGNN 220300Z AUTO 18008KT 7SM 24/19 A2991 RMK SLP127 T02370190 52006 IEM_DS3505
ZGNN,2001-01-22 04:00,ZGNN 220400Z AUTO 13008KT 7SM 25/19 A2988 RMK T02500190 IEM_DS3505
ZGNN,2001-01-22 05:00,ZGNN 220500Z AUTO 15008KT 7SM 25/19 A2985 RMK T02500190 IEM_DS3505
ZGNN,2001-01-22 06:00,ZGNN 220600Z AUTO 18008KT 12SM 26/19 A2980 RMK SLP088 T02590191 57037 IEM_DS3505
ZGNN,2001-01-22 07:00,ZGNN 220700Z AUTO 13016KT 7SM 27/20 A2977 RMK T02700200 IEM_DS3505
ZGNN,2001-01-22 08:00,ZGNN 220800Z AUTO 14016KT 7SM 28/20 A2974 RMK T02800200 IEM_DS3505
ZGNN,2001-01-22 09:00,ZGNN 220900Z AUTO 14006KT 16SM 26/20 A2974 RMK SLP070 T02580195 57018 IEM_DS3505
ZGNN,2001-01-22 10:00,ZGNN 221000Z AUTO 12010KT 7SM 24/20 A2977 RMK T02400200 IEM_DS3505
ZGNN,2001-01-22 11:00,ZGNN 221100Z AUTO 13006KT 7SM 22/19 A2977 RMK T02200190 IEM_DS3505
ZGNN,2001-01-22 12:00,ZGNN 221200Z AUTO 16002KT 12SM 22/20 A2980 RMK SLP083 T02200195 52012 IEM_DS3505
ZGNN,2001-01-22 13:00,ZGNN 221300Z AUTO 00000KT 7SM 21/20 A2983 RMK T02100200 IEM_DS3505
ZGNN,2001-01-22 14:00,ZGNN 221400Z AUTO 15006KT 7SM 21/20 A2983 RMK T02100200 IEM_DS3505
ZGNN,2001-01-22 15:00,ZGNN 221500Z AUTO 20002KT 12SM 21/19 A2985 RMK SLP102 T02130193 52019 IEM_DS3505
ZGNN,2001-01-22 16:00,ZGNN 221600Z AUTO 00000KT 7SM 21/19 A2985 RMK T02100190 IEM_DS3505
ZGNN,2001-01-22 18:00,ZGNN 221800Z AUTO 18004KT 11SM 21/19 RMK SLP107 T02090193 52005 IEM_DS3505
ZGNN,2001-01-22 21:00,ZGNN 222100Z AUTO 00000KT 9SM 20/19 RMK SLP108 T02030192 52001 IEM_DS3505
ZGNN,2001-01-22 22:00,ZGNN 222200Z AUTO 00000KT 7SM 20/19 A2985 RMK T02000190 IEM_DS3505
ZGNN,2001-01-22 23:00,ZGNN 222300Z AUTO 00000KT 7SM 20/19 A2988 RMK T02000190 IEM_DS3505
ZGNN,2001-01-23 00:00,ZGNN 230000Z AUTO 00000KT 4SM 20/19 A2991 RMK SLP122 T02000194 52013 IEM_DS3505
ZGNN,2001-01-23 01:00,ZGNN 230100Z AUTO 16006KT 7SM 21/20 A2991 RMK T02100200 IEM_DS3505
ZGNN,2001-01-23 02:00,ZGNN 230200Z AUTO 15010KT 7SM 22/20 A2994 RMK T02200200 IEM_DS3505
ZGNN,2001-01-23 03:00,ZGNN 230300Z AUTO 18006KT 12SM 23/20 A2994 RMK SLP137 T02260205 52015 IEM_DS3505
ZGNN,2001-01-23 04:00,ZGNN 230400Z AUTO 12006KT 7SM 26/20 A2991 RMK T02600200 IEM_DS3505
ZGNN,2001-01-23 05:00,ZGNN 230500Z AUTO 14014KT 7SM 27/20 A2988 RMK T02700200 IEM_DS3505
ZGNN,2001-01-23 06:00,ZGNN 230600Z AUTO 14008KT 16SM 27/20 A2983 RMK SLP097 T02720198 57038 IEM_DS3505
ZGNN,2001-01-23 07:00,ZGNN 230700Z AUTO 16016KT 7SM 28/20 A2980 RMK T02800200 IEM_DS3505
ZGNN,2001-01-23 08:00,ZGNN 230800Z AUTO 14016KT 7SM 27/20 A2980 RMK T02700200 IEM_DS3505
ZGNN,2001-01-23 09:00,ZGNN 230900Z AUTO 18012KT 19SM 25/20 A2980 RMK SLP084 T02520200 57014 IEM_DS3505
ZGNN,2001-01-23 10:00,ZGNN 231000Z AUTO 14016KT 7SM 24/20 A2980 RMK T02400200 IEM_DS3505
ZGNN,2001-01-23 11:00,ZGNN 231100Z AUTO 14016KT 7SM 23/20 A2983 RMK T02300200 IEM_DS3505
ZGNN,2001-01-23 12:00,ZGNN 231200Z AUTO 18008KT 19SM 22/20 A2985 RMK SLP104 T02250196 52019 IEM_DS3505
ZGNN,2001-01-23 13:00,ZGNN 231300Z AUTO 14019KT 7SM 22/20 A2985 RMK T02200200 IEM_DS3505
ZGNN,2001-01-23 14:00,ZGNN 231400Z AUTO 15016KT 7SM 22/20 A2985 RMK T02200200 IEM_DS3505
ZGNN,2001-01-23 15:00,ZGNN 231500Z AUTO 14006KT 19SM 22/20 RMK SLP114 T02230198 52011 IEM_DS3505
ZGNN,2001-01-23 18:00,ZGNN 231800Z AUTO 14004KT 16SM 22/20 RMK 60003 SLP109 T02190201 57004 IEM_DS3505
ZGNN,2001-01-23 21:00,ZGNN 232100Z AUTO 18002KT 12SM 21/20 A2983 RMK 70026 SLP098 T02080202 57012 IEM_DS3505
ZGNN,2001-01-23 22:00,ZGNN 232200Z AUTO 13010KT 5SM 21/20 A2983 RMK T02100200 IEM_DS3505
ZGNN,2001-01-23 23:00,ZGNN 232300Z AUTO 15012KT 7SM 21/20 A2985 RMK T02100200 IEM_DS3505
ZGNN,2001-01-24 00:00,ZGNN 240000Z AUTO 18004KT 4SM 21/20 A2988 RMK 60028 SLP109 T02110200 52011 IEM_DS3505
ZGNN,2001-01-24 01:00,ZGNN 240100Z AUTO 14010KT 7SM 21/20 A2988 RMK T02100200 IEM_DS3505
ZGNN,2001-01-24 02:00,ZGNN 240200Z AUTO 12012KT 7SM 22/20 A2988 RMK T02200200 IEM_DS3505
ZGNN,2001-01-24 03:00,ZGNN 240300Z AUTO 14010KT 12SM 23/20 A2988 RMK SLP118 T02280197 52009 IEM_DS3505
ZGNN,2001-01-24 04:00,ZGNN 240400Z AUTO 13014KT 7SM 25/20 A2985 RMK T02500200 IEM_DS3505
ZGNN,2001-01-24 05:00,ZGNN 240500Z AUTO 14010KT 7SM 25/20 A2983 RMK T02500200 IEM_DS3505
ZGNN,2001-01-24 06:00,ZGNN 240600Z AUTO 14004KT 12SM 24/20 A2980 RMK SLP086 T02350197 57032 IEM_DS3505
ZGNN,2001-01-24 07:00,ZGNN 240700Z AUTO 14010KT 7SM 24/20 A2977 RMK T02400200 IEM_DS3505
ZGNN,2001-01-24 08:00,ZGNN 240800Z AUTO 12010KT 7SM 24/20 A2977 RMK T02400200 IEM_DS3505
ZGNN,2001-01-24 09:00,ZGNN 240900Z AUTO 14004KT 16SM 24/20 A2974 RMK SLP071 T02370204 57015 IEM_DS3505
ZGNN,2001-01-24 10:00,ZGNN 241000Z AUTO 13008KT 7SM 22/21 A2974 RMK T02200210 IEM_DS3505
ZGNN,2001-01-24 11:00,ZGNN 241100Z AUTO 14006KT 7SM 22/20 A2974 RMK T02200200 IEM_DS3505
ZGNN,2001-01-24 12:00,ZGNN 241200Z AUTO 11004KT 12SM 22/20 A2977 RMK SLP078 T02240199 52007 IEM_DS3505
ZGNN,2001-01-24 13:00,ZGNN 241300Z AUTO 12006KT 7SM 22/20 A2977 RMK T02200200 IEM_DS3505
ZGNN,2001-01-24 14:00,ZGNN 241400Z AUTO 13008KT 7SM 22/20 A2980 RMK T02200200 IEM_DS3505
ZGNN,2001-01-24 15:00,ZGNN 241500Z AUTO 09002KT 12SM 20/19 A2977 RMK SLP077 T01960187 57001 IEM_DS3505
ZGNN,2001-01-24 16:00,ZGNN 241600Z AUTO 04010KT 7SM 18/18 A2977 RMK T01800180 IEM_DS3505
ZGNN,2001-01-24 17:00,ZGNN 241700Z AUTO 03008KT 7SM 18/18 A2977 RMK T01800180 IEM_DS3505
ZGNN,2001-01-24 18:00,ZGNN 241800Z AUTO 11004KT 12SM 17/16 A2977 RMK 60031 SLP083 T01700163 52005 IEM_DS3505
ZGNN,2001-01-24 19:00,ZGNN 241900Z AUTO 06008KT 7SM 16/15 A2977 RMK T01600150 IEM_DS3505
ZGNN,2001-01-24 20:00,ZGNN 242000Z AUTO 06008KT 7SM 15/14 A2977 RMK T01500140 IEM_DS3505
ZGNN,2001-01-24 21:00,ZGNN 242100Z AUTO 09006KT 9SM 14/13 A2977 RMK 70033 SLP078 T01370128 57005 IEM_DS3505
ZGNN,2001-01-24 22:00,ZGNN 242200Z AUTO 04010KT 7SM 13/12 A2980 RMK T01300120 IEM_DS3505
ZGNN,2001-01-24 23:00,ZGNN 242300Z AUTO 06012KT 7SM 13/12 A2980 RMK T01300120 IEM_DS3505
ZGNN,2001-01-25 00:00,ZGNN 250000Z AUTO 09004KT 4SM 12/12 A2983 RMK 60000 SLP106 T01220116 52026 IEM_DS3505
ZGNN,2001-01-25 01:00,ZGNN 250100Z AUTO 05008KT 1 1/2SM 13/12 A2988 RMK T01300120 IEM_DS3505
ZGNN,2001-01-25 02:00,ZGNN 250200Z AUTO 04012KT 2SM 11/10 A2991 RMK T01100100 IEM_DS3505
ZGNN,2001-01-25 03:00,ZGNN 250300Z AUTO 09004KT 2SM 10/09 A2991 RMK SLP133 T01020094 52026 IEM_DS3505
ZGNN,2001-01-25 04:00,ZGNN 250400Z AUTO 05006KT 1 1/4SM 10/10 A2991 RMK T01000100 IEM_DS3505
ZGNN,2001-01-25 05:00,ZGNN 250500Z AUTO 03012KT 2 1/2SM 11/10 A2988 RMK T01100100 IEM_DS3505
ZGNN,2001-01-25 06:00,ZGNN 250600Z AUTO 09002KT 2 1/2SM 10/09 A2985 RMK 60002 SLP111 T01030093 57023 IEM_DS3505
ZGNN,2001-01-25 07:00,ZGNN 250700Z AUTO 01006KT 2 1/2SM 11/10 A2985 RMK T01100100 IEM_DS3505
ZGNN,2001-01-25 08:00,ZGNN 250800Z AUTO 01008KT 4SM 10/09 A2983 RMK T01000090 IEM_DS3505
ZGNN,2001-01-25 09:00,ZGNN 250900Z AUTO 14002KT 6SM 10/09 A2985 RMK SLP105 T01020088 57006 IEM_DS3505
ZGNN,2001-01-25 10:00,ZGNN 251000Z AUTO 05008KT 7SM 10/09 A2985 RMK T01000090 IEM_DS3505
ZGNN,2001-01-25 11:00,ZGNN 251100Z AUTO 05004KT 7SM 10/08 A2988 RMK T01000080 IEM_DS3505
ZGNN,2001-01-25 12:00,ZGNN 251200Z AUTO 04002KT 16SM 10/07 A2994 RMK 60000 SLP135 T00970074 52029 IEM_DS3505
ZGNN,2001-01-25 13:00,ZGNN 251300Z AUTO 34012KT 7SM 10/07 A2997 RMK T01000070 IEM_DS3505
ZGNN,2001-01-25 14:00,ZGNN 251400Z AUTO 34010KT 7SM 10/07 A3000 RMK T01000070 IEM_DS3505
ZGNN,2001-01-25 15:00,ZGNN 251500Z AUTO 34006KT 16SM 10/06 A3000 RMK SLP166 T00980059 52030 IEM_DS3505
ZGNN,2001-01-25 16:00,ZGNN 251600Z AUTO 34012KT 7SM 10/05 A3003 RMK T01000050 IEM_DS3505
ZGNN,2001-01-25 18:00,ZGNN 251800Z AUTO 34010KT 16SM 09/05 RMK SLP177 T00890051 52010 IEM_DS3505
ZGNN,2001-01-25 21:00,ZGNN 252100Z AUTO 32010KT 16SM 09/04 A3006 RMK 70003 SLP181 T00860040 52004 IEM_DS3505
ZGNN,2001-01-25 22:00,ZGNN 252200Z AUTO 35012KT 7SM 09/04 A3009 RMK T00900040 IEM_DS3505
ZGNN,2001-01-25 23:00,ZGNN 252300Z AUTO 34010KT 7SM 09/04 A3009 RMK T00900040 IEM_DS3505
ZGNN,2001-01-26 00:00,ZGNN 260000Z AUTO 34010KT 17SM 09/03 A3012 RMK 70002 SLP195 T00870034 52014 IEM_DS3505
ZGNN,2001-01-26 01:00,ZGNN 260100Z AUTO 34010KT 7SM 09/04 A3012 RMK T00900040 IEM_DS3505
ZGNN,2001-01-26 02:00,ZGNN 260200Z AUTO 34010KT 6SM 10/03 A3015 RMK T01000030 IEM_DS3505
ZGNN,2001-01-26 03:00,ZGNN 260300Z AUTO 36008KT 19SM 10/03 A3015 RMK SLP209 T01010026 52014 IEM_DS3505
ZGNN,2001-01-26 04:00,ZGNN 260400Z AUTO 34012KT 7SM 11/04 A3012 RMK T01100040 IEM_DS3505
ZGNN,2001-01-26 05:00,ZGNN 260500Z AUTO 35006KT 7SM 11/03 A3009 RMK T01100030 IEM_DS3505
ZGNN,2001-01-26 06:00,ZGNN 260600Z AUTO 34010KT 19SM 12/03 A3003 RMK SLP170 T01170028 57038 IEM_DS3505
ZGNN,2001-01-26 07:00,ZGNN 260700Z AUTO 34006KT 7SM 13/03 A3000 RMK T01300030 IEM_DS3505
ZGNN,2001-01-26 08:00,ZGNN 260800Z AUTO 34008KT 7SM 13/04 A3000 RMK T01300040 IEM_DS3505
ZGNN,2001-01-26 09:00,ZGNN 260900Z AUTO 36006KT 19SM 13/04 A3000 RMK SLP163 T01270036 57007 IEM_DS3505
ZGNN,2001-01-26 10:00,ZGNN 261000Z AUTO 35006KT 7SM 12/05 A3003 RMK T01200050 IEM_DS3505
ZGNN,2001-01-26 11:00,ZGNN 261100Z AUTO 04010KT 7SM 12/05 A3003 RMK T01200050 IEM_DS3505
ZGNN,2001-01-26 12:00,ZGNN 261200Z AUTO 00000KT 19SM 11/04 A3006 RMK SLP181 T01090042 52017 IEM_DS3505
ZGNN,2001-01-26 13:00,ZGNN 261300Z AUTO 03006KT 7SM 10/04 A3006 RMK T01000040 IEM_DS3505
ZGNN,2001-01-26 14:00,ZGNN 261400Z AUTO 05008KT 7SM 10/04 A3009 RMK T01000040 IEM_DS3505
ZGNN,2001-01-26 15:00,ZGNN 261500Z AUTO 04002KT 19SM 10/04 A3009 RMK SLP192 T01030043 52011 IEM_DS3505
ZGNN,2001-01-26 18:00,ZGNN 261800Z AUTO 00000KT 19SM 10/04 RMK SLP191 T01000044 54000 IEM_DS3505
ZGNN,2001-01-26 21:00,ZGNN 262100Z AUTO 00000KT 19SM 09/05 A3006 RMK SLP183 T00930048 57008 IEM_DS3505
ZGNN,2001-01-26 22:00,ZGNN 262200Z AUTO 00000KT 7SM 09/04 A3009 RMK T00900040 IEM_DS3505
ZGNN,2001-01-26 23:00,ZGNN 262300Z AUTO 03006KT 7SM 09/04 A3009 RMK T00900040 IEM_DS3505
ZGNN,2001-01-27 00:00,ZGNN 270000Z AUTO 00000KT 11SM 09/04 A3012 RMK SLP202 T00910041 52018 IEM_DS3505
ZGNN,2001-01-27 01:00,ZGNN 270100Z AUTO 06006KT 7SM 09/03 A3015 RMK T00900030 IEM_DS3505
ZGNN,2001-01-27 02:00,ZGNN 270200Z AUTO 03004KT 7SM 10/03 A3015 RMK T01000030 IEM_DS3505
ZGNN,2001-01-27 03:00,ZGNN 270300Z AUTO 00000KT 12SM 10/03 A3015 RMK SLP215 T00990032 52013 IEM_DS3505
ZGNN,2001-01-27 04:00,ZGNN 270400Z AUTO 00000KT 7SM 11/04 A3015 RMK T01100040 IEM_DS3505
ZGNN,2001-01-27 05:00,ZGNN 270500Z AUTO 00000KT 7SM 11/04 A3012 RMK T01100040 IEM_DS3505
ZGNN,2001-01-27 06:00,ZGNN 270600Z AUTO 34006KT 12SM 11/04 A3009 RMK SLP185 T01100035 57029 IEM_DS3505
ZGNN,2001-01-27 07:00,ZGNN 270700Z AUTO 36006KT 7SM 11/04 A3006 RMK T01100040 IEM_DS3505
ZGNN,2001-01-27 08:00,ZGNN 270800Z AUTO 01008KT 7SM 12/04 A3006 RMK T01200040 IEM_DS3505
ZGNN,2001-01-27 09:00,ZGNN 270900Z AUTO 07002KT 12SM 12/05 A3006 RMK SLP181 T01150047 57004 IEM_DS3505
ZGNN,2001-01-27 10:00,ZGNN 271000Z AUTO 05006KT 7SM 11/05 A3009 RMK T01100050 IEM_DS3505
ZGNN,2001-01-27 11:00,ZGNN 271100Z AUTO 04004KT 7SM 11/04 A3012 RMK T01100040 IEM_DS3505
ZGNN,2001-01-27 12:00,ZGNN 271200Z AUTO 02004KT 12SM 10/05 A3015 RMK SLP210 T01040046 52028 IEM_DS3505
ZGNN,2001-01-27 13:00,ZGNN 271300Z AUTO 03004KT 7SM 10/06 A3018 RMK T01000060 IEM_DS3505
ZGNN,2001-01-27 15:00,ZGNN 271500Z AUTO 32004KT 11SM 10/06 RMK SLP231 T00950058 52021 IEM_DS3505
ZGNN,2001-01-27 18:00,ZGNN 271800Z AUTO 00000KT 11SM 10/06 RMK 60003 SLP229 T00990062 57002 IEM_DS3505
ZGNN,2001-01-27 21:00,ZGNN 272100Z AUTO 36006KT 11SM 10/03 A3021 RMK 70003 SLP233 T01040033 52004 IEM_DS3505
ZGNN,2001-01-27 22:00,ZGNN 272200Z AUTO 33006KT 7SM 11/04 A3024 RMK T01100040 IEM_DS3505
ZGNN,2001-01-27 23:00,ZGNN 272300Z AUTO 01004KT 7SM 10/04 A3027 RMK T01000040 IEM_DS3505
ZGNN,2001-01-28 00:00,ZGNN 280000Z AUTO 36008KT 12SM 09/01 A3027 RMK 70003 SLP255 T00940008 52021 IEM_DS3505
ZGNN,2001-01-28 01:00,ZGNN 280100Z AUTO 35010KT 7SM 11/04 A3030 RMK T01100040 IEM_DS3505
ZGNN,2001-01-28 02:00,ZGNN 280200Z AUTO 34008KT 7SM 10/04 A3033 RMK T01000040 IEM_DS3505
ZGNN,2001-01-28 03:00,ZGNN 280300Z AUTO 34010KT 12SM 11/00 A3030 RMK SLP262 T01130003 52007 IEM_DS3505
ZGNN,2001-01-28 04:00,ZGNN 280400Z AUTO 34010KT 6SM 12/00 A3027 RMK T01200000 IEM_DS3505
ZGNN,2001-01-28 05:00,ZGNN 280500Z AUTO 01010KT 6SM 14/02 A3024 RMK T01400020 IEM_DS3505
ZGNN,2001-01-28 06:00,ZGNN 280600Z AUTO 36008KT 12SM 14/00 A3018 RMK SLP221 T01360003 57039 IEM_DS3505
ZGNN,2001-01-28 07:00,ZGNN 280700Z AUTO 36012KT 6SM 14/01 A3018 RMK T01400010 IEM_DS3505
ZGNN,2001-01-28 08:00,ZGNN 280800Z AUTO 34004KT 6SM 14/00 A3015 RMK T01400000 IEM_DS3505
ZGNN,2001-01-28 09:00,ZGNN 280900Z AUTO 36006KT 12SM 15/M00 A3015 RMK SLP212 T01461001 57009 IEM_DS3505
ZGNN,2001-01-28 10:00,ZGNN 281000Z AUTO 01008KT 6SM 14/02 A3018 RMK T01400020 IEM_DS3505
ZGNN,2001-01-28 11:00,ZGNN 281100Z AUTO 05004KT 6SM 13/04 A3018 RMK T01300040 IEM_DS3505
ZGNN,2001-01-28 12:00,ZGNN 281200Z AUTO 00000KT 12SM 12/04 A3021 RMK SLP231 T01180043 52018 IEM_DS3505
ZGNN,2001-01-28 13:00,ZGNN 281300Z AUTO 00000KT 6SM 11/06 A3024 RMK T01100060 IEM_DS3505
ZGNN,2001-01-28 14:00,ZGNN 281400Z AUTO 00000KT 6SM 11/04 A3024 RMK T01100040 IEM_DS3505
ZGNN,2001-01-28 15:00,ZGNN 281500Z AUTO 00000KT 12SM 10/04 A3027 RMK SLP246 T01000039 52015 IEM_DS3505
ZGNN,2001-01-28 16:00,ZGNN 281600Z AUTO 00000KT 6SM 10/04 A3027 RMK T01000040 IEM_DS3505
ZGNN,2001-01-28 18:00,ZGNN 281800Z AUTO 00000KT 12SM 10/06 RMK SLP244 T00950056 57002 IEM_DS3505
ZGNN,2001-01-28 21:00,ZGNN 282100Z AUTO 00000KT 12SM 08/03 A3024 RMK SLP239 T00840027 57005 IEM_DS3505
ZGNN,2001-01-28 22:00,ZGNN 282200Z AUTO 34004KT 6SM 08/04 A3027 RMK T00800040 IEM_DS3505
ZGNN,2001-01-28 23:00,ZGNN 282300Z AUTO 00000KT 6SM 07/04 A3027 RMK T00700040 IEM_DS3505
ZGNN,2001-01-29 00:00,ZGNN 290000Z AUTO 00000KT 11SM 05/03 A3030 RMK SLP257 T00540032 52017 IEM_DS3505
ZGNN,2001-01-29 01:00,ZGNN 290100Z AUTO 00000KT 6SM 08/03 A3033 RMK T00800030 IEM_DS3505
ZGNN,2001-01-29 02:00,ZGNN 290200Z AUTO 03006KT 6SM 11/00 A3033 RMK T01100000 IEM_DS3505
ZGNN,2001-01-29 03:00,ZGNN 290300Z AUTO 14002KT 14SM 13/02 A3033 RMK SLP268 T01270015 52012 IEM_DS3505
ZGNN,2001-01-29 04:00,ZGNN 290400Z AUTO 05006KT 6SM 14/01 A3030 RMK T01400010 IEM_DS3505
ZGNN,2001-01-29 05:00,ZGNN 290500Z AUTO 06004KT 6SM 15/02 A3024 RMK T01500020 IEM_DS3505
ZGNN,2001-01-29 06:00,ZGNN 290600Z AUTO 14004KT 14SM 15/01 A3018 RMK SLP218 T01470011 57049 IEM_DS3505
ZGNN,2001-01-29 07:00,ZGNN 290700Z AUTO 08004KT 6SM 16/02 A3015 RMK T01600020 IEM_DS3505
ZGNN,2001-01-29 08:00,ZGNN 290800Z AUTO 10002KT 6SM 15/03 A3012 RMK T01500030 IEM_DS3505
ZGNN,2001-01-29 09:00,ZGNN 290900Z AUTO 09002KT 12SM 15/02 A3009 RMK SLP191 T01500016 57027 IEM_DS3505
ZGNN,2001-01-29 10:00,ZGNN 291000Z AUTO 15004KT 6SM 15/03 A3009 RMK T01500030 IEM_DS3505
ZGNN,2001-01-29 12:00,ZGNN 291200Z AUTO 11004KT 9SM 12/06 A3009 RMK SLP194 T01250059 52002 IEM_DS3505
ZGNN,2001-01-29 13:00,ZGNN 291300Z AUTO 00000KT 6SM 12/06 A3012 RMK T01200060 IEM_DS3505
ZGNN,2001-01-29 14:00,ZGNN 291400Z AUTO 00000KT 6SM 12/07 A3012 RMK T01200070 IEM_DS3505
ZGNN,2001-01-29 15:00,ZGNN 291500Z AUTO 00000KT 9SM 12/08 A3012 RMK SLP201 T01220077 52008 IEM_DS3505
ZGNN,2001-01-29 16:00,ZGNN 291600Z AUTO 34004KT 7SM 12/07 A3015 RMK T01200070 IEM_DS3505
ZGNN,2001-01-29 17:00,ZGNN 291700Z AUTO 33002KT 7SM 12/06 A3015 RMK T01200060 IEM_DS3505
ZGNN,2001-01-29 18:00,ZGNN 291800Z AUTO 00000KT 9SM 12/08 A3012 RMK SLP202 T01240079 52002 IEM_DS3505
ZGNN,2001-01-29 19:00,ZGNN 291900Z AUTO 00000KT 7SM 12/07 A3012 RMK T01200070 IEM_DS3505
ZGNN,2001-01-29 20:00,ZGNN 292000Z AUTO 03004KT 7SM 12/07 A3012 RMK T01200070 IEM_DS3505
ZGNN,2001-01-29 21:00,ZGNN 292100Z AUTO 00000KT 9SM 12/07 RMK SLP198 T01230069 57004 IEM_DS3505
ZGNN,2001-01-29 22:00,ZGNN 292200Z AUTO 01004KT 7SM 12/07 A3012 RMK T01200070 IEM_DS3505
ZGNN,2001-01-29 23:00,ZGNN 292300Z AUTO 03006KT 4SM 12/07 A3015 RMK T01200070 IEM_DS3505
ZGNN,2001-01-30 00:00,ZGNN 300000Z AUTO 00000KT 5SM 12/08 A3018 RMK SLP218 T01240077 52019 IEM_DS3505
ZGNN,2001-01-30 01:00,ZGNN 300100Z AUTO 05008KT 4SM 12/09 A3018 RMK T01200090 IEM_DS3505
ZGNN,2001-01-30 02:00,ZGNN 300200Z AUTO 10006KT 4SM 12/09 A3021 RMK T01200090 IEM_DS3505
ZGNN,2001-01-30 03:00,ZGNN 300300Z AUTO 11004KT 3SM 12/09 A3018 RMK SLP220 T01250089 52002 IEM_DS3505
ZGNN,2001-01-30 04:00,ZGNN 300400Z AUTO 09006KT 1 1/4SM 12/10 A3015 RMK T01200100 IEM_DS3505
ZGNN,2001-01-30 05:00,ZGNN 300500Z AUTO 08006KT 1 1/2SM 12/10 A3012 RMK T01200100 IEM_DS3505
ZGNN,2001-01-30 06:00,ZGNN 300600Z AUTO 16004KT 2 1/2SM 13/09 A3006 RMK 60003 SLP180 T01280093 57039 IEM_DS3505
ZGNN,2001-01-30 07:00,ZGNN 300700Z AUTO 16004KT 1 1/4SM 13/10 A3003 RMK T01300100 IEM_DS3505
ZGNN,2001-01-30 08:00,ZGNN 300800Z AUTO 16004KT 1 1/4SM 13/10 A3000 RMK T01300100 IEM_DS3505
ZGNN,2001-01-30 09:00,ZGNN 300900Z AUTO 00000KT 2 1/2SM 13/10 A3000 RMK SLP161 T01290100 57019 IEM_DS3505
ZGNN,2001-01-30 10:00,ZGNN 301000Z AUTO 00000KT 1 1/4SM RMK IEM_DS3505
ZGNN,2001-01-30 11:00,ZGNN 301100Z AUTO 00000KT 1 1/4SM 12/10 A3000 RMK T01200100 IEM_DS3505
ZGNN,2001-01-30 12:00,ZGNN 301200Z AUTO 07002KT 2SM 12/11 A3000 RMK 60003 SLP165 T01180106 52004 IEM_DS3505
ZGNN,2001-01-30 13:00,ZGNN 301300Z AUTO 00000KT 1 1/4SM 12/11 A3003 RMK T01200110 IEM_DS3505
ZGNN,2001-01-30 14:00,ZGNN 301400Z AUTO 00000KT 1 1/4SM 12/10 A3003 RMK T01200100 IEM_DS3505
ZGNN,2001-01-30 15:00,ZGNN 301500Z AUTO 04002KT 2SM 12/10 A3003 RMK SLP169 T01160098 52004 IEM_DS3505
ZGNN,2001-01-30 16:00,ZGNN 301600Z AUTO 01004KT 1 1/4SM 12/10 A3003 RMK T01200100 IEM_DS3505
ZGNN,2001-01-30 18:00,ZGNN 301800Z AUTO 00000KT 4SM 11/09 RMK 60003 SLP160 T01120094 57009 IEM_DS3505
ZGNN,2001-01-30 21:00,ZGNN 302100Z AUTO 02004KT 2 1/2SM 11/09 A2997 RMK 70001 SLP153 T01080094 57007 IEM_DS3505
ZGNN,2001-01-30 22:00,ZGNN 302200Z AUTO 04004KT 1 1/4SM 11/10 A3000 RMK T01100100 IEM_DS3505
ZGNN,2001-01-30 23:00,ZGNN 302300Z AUTO 00000KT 1SM 11/10 A3000 RMK T01100100 IEM_DS3505
ZGNN,2001-01-31 00:00,ZGNN 310000Z AUTO 00000KT 1SM 11/10 A3003 RMK 60002 SLP169 T01080100 52015 IEM_DS3505
ZGNN,2001-01-31 01:00,ZGNN 310100Z AUTO 00000KT 1SM 11/10 A3003 RMK T01100100 IEM_DS3505
ZGNN,2001-01-31 02:00,ZGNN 310200Z AUTO 35004KT 1SM 12/11 A3006 RMK T01200110 IEM_DS3505
ZGNN,2001-01-31 03:00,ZGNN 310300Z AUTO 34004KT 1 1/4SM 12/10 A3003 RMK SLP179 T01160104 52010 IEM_DS3505
ZGNN,2001-01-31 04:00,ZGNN 310400Z AUTO 36004KT 1SM 12/11 A3003 RMK T01200110 IEM_DS3505
ZGNN,2001-01-31 05:00,ZGNN 310500Z AUTO 36004KT 1SM 12/11 A3000 RMK T01200110 IEM_DS3505
ZGNN,2001-01-31 06:00,ZGNN 310600Z AUTO 34002KT 1 1/4SM 12/11 A2997 RMK 60003 SLP146 T01200112 57032 IEM_DS3505
ZGNN,2001-01-31 07:00,ZGNN 310700Z AUTO 36004KT 1 1/4SM 12/11 A2994 RMK T01200110 IEM_DS3505
ZGNN,2001-01-31 08:00,ZGNN 310800Z AUTO 01004KT 1SM 12/11 A2994 RMK T01200110 IEM_DS3505
ZGNN,2001-01-31 09:00,ZGNN 310900Z AUTO 00000KT 2SM 12/11 A2994 RMK SLP142 T01220111 57004 IEM_DS3505
ZGNN,2001-01-31 10:00,ZGNN 311000Z AUTO 00000KT 1SM 12/12 A2997 RMK T01200120 IEM_DS3505
ZGNN,2001-01-31 11:00,ZGNN 311100Z AUTO 00000KT 1SM 12/12 A2997 RMK T01200120 IEM_DS3505
ZGNN,2001-01-31 12:00,ZGNN 311200Z AUTO 00000KT 2SM 12/12 A3000 RMK 60004 SLP160 T01220118 52018 IEM_DS3505
ZGNN,2001-01-31 13:00,ZGNN 311300Z AUTO 33004KT 1SM 12/12 A3000 RMK T01200120 IEM_DS3505
ZGNN,2001-01-31 14:00,ZGNN 311400Z AUTO 00000KT 1SM 12/12 A3003 RMK T01200120 IEM_DS3505
ZGNN,2001-01-31 15:00,ZGNN 311500Z AUTO 34006KT 2SM 12/12 A3003 RMK SLP169 T01220116 52009 IEM_DS3505
ZGNN,2001-01-31 18:00,ZGNN 311800Z AUTO 34006KT 2SM 12/11 RMK 60012 SLP172 T01190109 52003 IEM_DS3505
ZGNN,2001-01-31 21:00,ZGNN 312100Z AUTO 32008KT 4SM 12/11 RMK 70017 SLP160 T01180108 57012 IEM_DS3505
ZGNN,2001-01-31 22:00,ZGNN 312200Z AUTO 34008KT 5SM 12/10 A3003 RMK T01200100 IEM_DS3505
ZGNN,2001-01-31 23:00,ZGNN 312300Z AUTO 33008KT 2 1/2SM 12/10 A3003 RMK T01200100 IEM_DS3505
ZGNN,2001-02-01 00:00,ZGNN 010000Z AUTO 32006KT 4SM 12/10 A3006 RMK 60000 SLP176 T01160104 52016 IEM_DS3505
ZGNN,2001-02-01 01:00,ZGNN 010100Z AUTO 32008KT 4SM 12/10 A3006 RMK T01200100 IEM_DS3505
ZGNN,2001-02-01 02:00,ZGNN 010200Z AUTO 34004KT 5SM 12/10 A3009 RMK T01200100 IEM_DS3505
ZGNN,2001-02-01 03:00,ZGNN 010300Z AUTO 32006KT 6SM 12/10 A3009 RMK SLP187 T01240101 52011 IEM_DS3505
ZGNN,2001-02-01 04:00,ZGNN 010400Z AUTO 34008KT 7SM 13/10 A3006 RMK T01300100 IEM_DS3505
ZGNN,2001-02-01 05:00,ZGNN 010500Z AUTO 01006KT 7SM 13/10 A3003 RMK T01300100 IEM_DS3505
ZGNN,2001-02-01 06:00,ZGNN 010600Z AUTO 02002KT 6SM 12/10 A3000 RMK 60003 SLP158 T01220099 57029 IEM_DS3505
ZGNN,2001-02-01 07:00,ZGNN 010700Z AUTO 34008KT 4SM 12/10 A2997 RMK T01200100 IEM_DS3505
ZGNN,2001-02-01 08:00,ZGNN 010800Z AUTO 01004KT 2SM 12/10 A2997 RMK T01200100 IEM_DS3505
ZGNN,2001-02-01 09:00,ZGNN 010900Z AUTO 09002KT 4SM 11/10 A2997 RMK SLP152 T01100102 57006 IEM_DS3505
ZGNN,2001-02-01 10:00,ZGNN 011000Z AUTO 04004KT 6SM RMK IEM_DS3505
ZGNN,2001-02-01 11:00,ZGNN 011100Z AUTO 04006KT 1 1/4SM 10/09 A3000 RMK T01000090 IEM_DS3505
ZGNN,2001-02-01 12:00,ZGNN 011200Z AUTO 09002KT 6SM 10/09 A3003 RMK 60002 SLP171 T00990089 52018 IEM_DS3505
ZGNN,2001-02-01 13:00,ZGNN 011300Z AUTO 03006KT 1 1/4SM 10/09 A3006 RMK T01000090 IEM_DS3505
ZGNN,2001-02-01 15:00,ZGNN 011500Z AUTO 00000KT 4SM 09/08 RMK SLP187 T00910085 52016 IEM_DS3505
ZGNN,2001-02-01 18:00,ZGNN 011800Z AUTO 00000KT 4SM 09/08 RMK 60002 SLP185 T00860082 57002 IEM_DS3505
ZGNN,2001-02-01 21:00,ZGNN 012100Z AUTO 34006KT 4SM 08/07 A3006 RMK 70007 SLP186 T00850072 54000 IEM_DS3505
ZGNN,2001-02-01 22:00,ZGNN 012200Z AUTO 35008KT 3SM 08/07 A3006 RMK T00800070 IEM_DS3505
ZGNN,2001-02-01 23:00,ZGNN 012300Z AUTO 35008KT 3SM 08/07 A3009 RMK T00800070 IEM_DS3505
ZGNN,2001-02-02 00:00,ZGNN 020000Z AUTO 34006KT 5SM 08/06 A3012 RMK 60003 SLP201 T00820065 52015 IEM_DS3505
ZGNN,2001-02-02 01:00,ZGNN 020100Z AUTO 03006KT 3SM 08/07 A3012 RMK T00800070 IEM_DS3505
ZGNN,2001-02-02 02:00,ZGNN 020200Z AUTO 35004KT 3SM 08/07 A3012 RMK T00800070 IEM_DS3505
ZGNN,2001-02-02 03:00,ZGNN 020300Z AUTO 34008KT 4SM 08/06 A3015 RMK SLP207 T00840065 52005 IEM_DS3505
ZGNN,2001-02-02 05:00,ZGNN 020500Z AUTO 34008KT 4SM 09/07 A3006 RMK T00900070 IEM_DS3505
ZGNN,2001-02-02 06:00,ZGNN 020600Z AUTO 04004KT 4SM 09/07 A3003 RMK 60003 SLP168 T00900066 57038 IEM_DS3505
ZGNN,2001-02-02 07:00,ZGNN 020700Z AUTO 02006KT 4SM 09/07 A3000 RMK T00900070 IEM_DS3505
ZGNN,2001-02-02 08:00,ZGNN 020800Z AUTO 34006KT 4SM 09/07 A2997 RMK T00900070 IEM_DS3505
ZGNN,2001-02-02 09:00,ZGNN 020900Z AUTO 34004KT 4SM 09/07 A2997 RMK SLP149 T00920069 57019 IEM_DS3505
ZGNN,2001-02-02 10:00,ZGNN 021000Z AUTO 35004KT 3SM 09/07 A2997 RMK T00900070 IEM_DS3505
ZGNN,2001-02-02 11:00,ZGNN 021100Z AUTO 02002KT 2SM 09/07 A2997 RMK T00900070 IEM_DS3505
ZGNN,2001-02-02 12:00,ZGNN 021200Z AUTO 34004KT 5SM 09/07 A3000 RMK 60003 SLP159 T00860073 52010 IEM_DS3505
ZGNN,2001-02-02 13:00,ZGNN 021300Z AUTO 36002KT 2 1/2SM 09/08 A3000 RMK T00900080 IEM_DS3505
ZGNN,2001-02-02 15:00,ZGNN 021500Z AUTO 00000KT 5SM 09/07 RMK SLP167 T00860071 52008 IEM_DS3505
ZGNN,2001-02-02 18:00,ZGNN 021800Z AUTO 00000KT 4SM 08/07 RMK 60003 SLP161 T00760070 57006 IEM_DS3505
ZGNN,2001-02-02 21:00,ZGNN 022100Z AUTO 00000KT 4SM 08/07 A2997 RMK 70002 SLP153 T00750071 57008 IEM_DS3505
ZGNN,2001-02-02 22:00,ZGNN 022200Z AUTO 36004KT 1 1/4SM 08/07 A3000 RMK T00800070 IEM_DS3505
ZGNN,2001-02-02 23:00,ZGNN 022300Z AUTO 30002KT 1 1/4SM 08/07 A3000 RMK T00800070 IEM_DS3505
ZGNN,2001-02-03 00:00,ZGNN 030000Z AUTO 36004KT 2SM 08/07 A3003 RMK 60004 SLP172 T00780074 52019 IEM_DS3505
ZGNN,2001-02-03 01:00,ZGNN 030100Z AUTO 03006KT 2SM 08/07 A3006 RMK T00800070 IEM_DS3505
ZGNN,2001-02-03 02:00,ZGNN 030200Z AUTO 36004KT 2SM 08/08 A3009 RMK T00800080 IEM_DS3505
ZGNN,2001-02-03 03:00,ZGNN 030300Z AUTO 32002KT 4SM 09/08 A3009 RMK SLP193 T00860075 52021 IEM_DS3505
ZGNN,2001-02-03 04:00,ZGNN 030400Z AUTO 01006KT 4SM 09/08 A3009 RMK T00900080 IEM_DS3505
ZGNN,2001-02-03 05:00,ZGNN 030500Z AUTO 01004KT 7SM 09/08 A3006 RMK T00900080 IEM_DS3505
ZGNN,2001-02-03 06:00,ZGNN 030600Z AUTO 36008KT 5SM 09/08 A3003 RMK 60000 SLP168 T00920080 57025 IEM_DS3505
ZGNN,2001-02-03 07:00,ZGNN 030700Z AUTO 33006KT 7SM 09/08 A3000 RMK T00900080 IEM_DS3505
ZGNN,2001-02-03 08:00,ZGNN 030800Z AUTO 36006KT 7SM 10/08 A3000 RMK T01000080 IEM_DS3505
ZGNN,2001-02-03 09:00,ZGNN 030900Z AUTO 34002KT 6SM 10/08 A2997 RMK SLP157 T00980079 57011 IEM_DS3505
ZGNN,2001-02-03 10:00,ZGNN 031000Z AUTO 01006KT 7SM 10/08 A3000 RMK T01000080 IEM_DS3505
ZGNN,2001-02-03 11:00,ZGNN 031100Z AUTO 00000KT 7SM 10/09 A3000 RMK T01000090 IEM_DS3505
ZGNN,2001-02-03 12:00,ZGNN 031200Z AUTO 00000KT 6SM 10/09 A3003 RMK 60003 SLP172 T01010087 52015 IEM_DS3505
ZGNN,2001-02-03 13:00,ZGNN 031300Z AUTO 00000KT 7SM 10/09 A3006 RMK T01000090 IEM_DS3505
ZGNN,2001-02-03 15:00,ZGNN 031500Z AUTO 00000KT 6SM 10/09 RMK SLP188 T01000088 52016 IEM_DS3505
ZGNN,2001-02-03 18:00,ZGNN 031800Z AUTO 00000KT 6SM 10/09 RMK SLP191 T01020094 52003 IEM_DS3505
ZGNN,2001-02-03 21:00,ZGNN 032100Z AUTO 32006KT 6SM 10/08 A3009 RMK 70003 SLP193 T01050085 52002 IEM_DS3505
ZGNN,2001-02-03 22:00,ZGNN 032200Z AUTO 30006KT 7SM 11/09 A3012 RMK T01100090 IEM_DS3505
ZGNN,2001-02-03 23:00,ZGNN 032300Z AUTO 32004KT 7SM 11/09 A3015 RMK T01100090 IEM_DS3505
ZGNN,2001-02-04 00:00,ZGNN 040000Z AUTO 34006KT 5SM 11/08 A3015 RMK 70001 SLP213 T01070076 52020 IEM_DS3505
ZGNN,2001-02-04 01:00,ZGNN 040100Z AUTO 33008KT 7SM 11/06 A3018 RMK T01100060 IEM_DS3505
ZGNN,2001-02-04 02:00,ZGNN 040200Z AUTO 35006KT 7SM 12/05 A3018 RMK T01200050 IEM_DS3505
ZGNN,2001-02-04 03:00,ZGNN 040300Z AUTO 32008KT 5SM 12/04 A3018 RMK SLP218 T01220045 52006 IEM_DS3505
ZGNN,2001-02-04 04:00,ZGNN 040400Z AUTO 00000KT 7SM 13/04 A3015 RMK T01300040 IEM_DS3505
ZGNN,2001-02-04 05:00,ZGNN 040500Z AUTO 34004KT 7SM 15/06 A3012 RMK T01500060 IEM_DS3505
ZGNN,2001-02-04 06:00,ZGNN 040600Z AUTO 32004KT 5SM 15/06 A3006 RMK SLP178 T01510063 57039 IEM_DS3505
ZGNN,2001-02-04 07:00,ZGNN 040700Z AUTO 32004KT 6SM 17/06 A3003 RMK T01700060 IEM_DS3505
ZGNN,2001-02-04 08:00,ZGNN 040800Z AUTO 10006KT 6SM 18/06 A3000 RMK T01800060 IEM_DS3505
ZGNN,2001-02-04 09:00,ZGNN 040900Z AUTO 11004KT 7SM 18/08 A2997 RMK SLP153 T01760076 57024 IEM_DS3505
ZGNN,2001-02-04 10:00,ZGNN 041000Z AUTO 12004KT 6SM 17/07 A2997 RMK T01700070 IEM_DS3505
ZGNN,2001-02-04 11:00,ZGNN 041100Z AUTO 11006KT 6SM 14/09 A2997 RMK T01400090 IEM_DS3505
ZGNN,2001-02-04 12:00,ZGNN 041200Z AUTO 09002KT 7SM 13/08 A3000 RMK SLP160 T01340082 52006 IEM_DS3505
ZGNN,2001-02-04 13:00,ZGNN 041300Z AUTO 00000KT 6SM 12/10 A3003 RMK T01200100 IEM_DS3505
ZGNN,2001-02-04 15:00,ZGNN 041500Z AUTO 00000KT 7SM 11/07 RMK SLP165 T01120070 52005 IEM_DS3505
ZGNN,2001-02-04 18:00,ZGNN 041800Z AUTO 00000KT 6SM 09/08 RMK SLP159 T00900075 57006 IEM_DS3505
ZGNN,2001-02-04 21:00,ZGNN 042100Z AUTO 00000KT 6SM 09/08 A2997 RMK SLP151 T00900082 57007 IEM_DS3505
ZGNN,2001-02-04 22:00,ZGNN 042200Z AUTO 32004KT 4SM 10/08 A2997 RMK T01000080 IEM_DS3505
ZGNN,2001-02-04 23:00,ZGNN 042300Z AUTO 01004KT 4SM 10/08 A3000 RMK T01000080 IEM_DS3505
ZGNN,2001-02-05 00:00,ZGNN 050000Z AUTO 00000KT 4SM 12/10 A3003 RMK SLP166 T01150097 52014 IEM_DS3505
ZGNN,2001-02-05 01:00,ZGNN 050100Z AUTO 00000KT 2SM 12/10 A3003 RMK T01200100 IEM_DS3505
ZGNN,2001-02-05 02:00,ZGNN 050200Z AUTO 00000KT 2 1/2SM 13/11 A3006 RMK T01300110 IEM_DS3505
ZGNN,2001-02-05 03:00,ZGNN 050300Z AUTO 00000KT 5SM 14/11 A3006 RMK SLP179 T01410111 52013 IEM_DS3505
ZGNN,2001-02-05 04:00,ZGNN 050400Z AUTO 00000KT 3SM 16/12 A3003 RMK T01600120 IEM_DS3505
ZGNN,2001-02-05 05:00,ZGNN 050500Z AUTO 19006KT 3SM 17/12 A3000 RMK T01700120 IEM_DS3505
ZGNN,2001-02-05 06:00,ZGNN 050600Z AUTO 27002KT 6SM 17/12 A2994 RMK SLP143 T01730123 57035 IEM_DS3505
ZGNN,2001-02-05 07:00,ZGNN 050700Z AUTO 00000KT 7SM 18/12 A2991 RMK T01800120 IEM_DS3505
ZGNN,2001-02-05 08:00,ZGNN 050800Z AUTO 00000KT 7SM 19/13 A2988 RMK T01900130 IEM_DS3505
ZGNN,2001-02-05 09:00,ZGNN 050900Z AUTO 27004KT 7SM 18/13 A2988 RMK SLP117 T01850127 57026 IEM_DS3505
ZGNN,2001-02-05 10:00,ZGNN 051000Z AUTO 00000KT 6SM 19/14 A2988 RMK T01900140 IEM_DS3505
ZGNN,2001-02-05 11:00,ZGNN 051100Z AUTO 00000KT 5SM 17/14 A2985 RMK T01700140 IEM_DS3505
ZGNN,2001-02-05 12:00,ZGNN 051200Z AUTO 00000KT 7SM 16/13 A2988 RMK SLP115 T01560133 57002 IEM_DS3505
ZGNN,2001-02-05 13:00,ZGNN 051300Z AUTO 33002KT 3SM 15/14 A2988 RMK T01500140 IEM_DS3505
ZGNN,2001-02-05 15:00,ZGNN 051500Z AUTO 00000KT 3SM 15/14 RMK SLP129 T01480136 52015 IEM_DS3505
ZGNN,2001-02-05 18:00,ZGNN 051800Z AUTO 04002KT 3SM 15/14 RMK SLP122 T01490140 57006 IEM_DS3505
ZGNN,2001-02-05 21:00,ZGNN 052100Z AUTO 00000KT 5SM 15/14 RMK SLP111 T01510144 57011 IEM_DS3505
ZGNN,2001-02-05 22:00,ZGNN 052200Z AUTO 00000KT 2SM 16/15 A2988 RMK T01600150 IEM_DS3505
ZGNN,2001-02-05 23:00,ZGNN 052300Z AUTO 00000KT 1 1/2SM 16/15 A2988 RMK T01600150 IEM_DS3505
ZGNN,2001-02-06 00:00,ZGNN 060000Z AUTO 00000KT 2SM 15/15 A2991 RMK SLP125 T01540149 52013 IEM_DS3505
ZGNN,2001-02-06 01:00,ZGNN 060100Z AUTO 00000KT 1 1/4SM 16/15 A2991 RMK T01600150 IEM_DS3505
ZGNN,2001-02-06 02:00,ZGNN 060200Z AUTO 15002KT 1 1/2SM 17/16 A2991 RMK T01700160 IEM_DS3505
ZGNN,2001-02-06 03:00,ZGNN 060300Z AUTO 00000KT 1SM 17/16 A2994 RMK SLP133 T01680161 52008 IEM_DS3505
ZGNN,2001-02-06 04:00,ZGNN 060400Z AUTO 21002KT 1 1/4SM 18/17 A2991 RMK T01800170 IEM_DS3505
ZGNN,2001-02-06 05:00,ZGNN 060500Z AUTO 10002KT 2SM 20/17 A2988 RMK T02000170 IEM_DS3505
ZGNN,2001-02-06 06:00,ZGNN 060600Z AUTO 02002KT 3SM 20/18 A2983 RMK SLP101 T01980175 57030 IEM_DS3505
ZGNN,2001-02-06 07:00,ZGNN 060700Z AUTO 10004KT 3SM 21/18 A2980 RMK T02100180 IEM_DS3505
ZGNN,2001-02-06 08:00,ZGNN 060800Z AUTO 09008KT 3SM 21/18 A2980 RMK T02100180 IEM_DS3505
ZGNN,2001-02-06 09:00,ZGNN 060900Z AUTO 11002KT 3SM 20/18 A2980 RMK SLP088 T01990180 57013 IEM_DS3505
ZGNN,2001-02-06 10:00,ZGNN 061000Z AUTO 10006KT 3SM 20/18 A2980 RMK T02000180 IEM_DS3505
ZGNN,2001-02-06 11:00,ZGNN 061100Z AUTO 06004KT 2 1/2SM 20/18 A2980 RMK T02000180 IEM_DS3505
ZGNN,2001-02-06 12:00,ZGNN 061200Z AUTO 00000KT 2 1/2SM 20/18 A2983 RMK SLP100 T01960180 52012 IEM_DS3505
ZGNN,2001-02-06 13:00,ZGNN 061300Z AUTO 10004KT 2 1/2SM 19/18 A2985 RMK T01900180 IEM_DS3505
ZGNN,2001-02-06 14:00,ZGNN 061400Z AUTO 10004KT 3SM 19/18 A2985 RMK T01900180 IEM_DS3505
ZGNN,2001-02-06 15:00,ZGNN 061500Z AUTO 00000KT 2 1/2SM 19/18 A2988 RMK SLP120 T01920179 52020 IEM_DS3505
ZGNN,2001-02-06 16:00,ZGNN 061600Z AUTO 05004KT 3SM 19/18 A2991 RMK T01900180 IEM_DS3505
ZGNN,2001-02-06 17:00,ZGNN 061700Z AUTO 03004KT 3SM 19/18 A2994 RMK T01900180 IEM_DS3505
ZGNN,2001-02-06 18:00,ZGNN 061800Z AUTO 00000KT 2SM 19/18 A2994 RMK SLP135 T01900184 52015 IEM_DS3505
ZGNN,2001-02-06 19:00,ZGNN 061900Z AUTO 06004KT 3SM 19/18 A2994 RMK T01900180 IEM_DS3505
ZGNN,2001-02-06 21:00,ZGNN 062100Z AUTO 04006KT 6SM 15/14 A2997 RMK 70025 SLP143 T01540138 52007 IEM_DS3505
ZGNN,2001-02-06 22:00,ZGNN 062200Z AUTO 04012KT 7SM 15/12 A3000 RMK T01500120 IEM_DS3505
ZGNN,2001-02-06 23:00,ZGNN 062300Z AUTO 04012KT 7SM 14/11 A3003 RMK T01400110 IEM_DS3505
ZGNN,2001-02-07 00:00,ZGNN 070000Z AUTO 04002KT 14SM 14/11 A3009 RMK 60024 SLP185 T01360112 52041 IEM_DS3505
ZGNN,2001-02-07 01:00,ZGNN 070100Z AUTO 36008KT 7SM 14/11 A3012 RMK T01400110 IEM_DS3505
ZGNN,2001-02-07 02:00,ZGNN 070200Z AUTO 34012KT 7SM 14/10 A3015 RMK T01400100 IEM_DS3505
ZGNN,2001-02-07 03:00,ZGNN 070300Z AUTO 34012KT 16SM 14/10 A3015 RMK SLP210 T01400102 52025 IEM_DS3505
ZGNN,2001-02-07 04:00,ZGNN 070400Z AUTO 36014KT 7SM 15/09 A3015 RMK T01500090 IEM_DS3505
ZGNN,2001-02-07 05:00,ZGNN 070500Z AUTO 34012KT 7SM 15/09 A3012 RMK T01500090 IEM_DS3505
ZGNN,2001-02-07 06:00,ZGNN 070600Z AUTO 34008KT 19SM 15/09 A3009 RMK 60003 SLP185 T01510086 57025 IEM_DS3505
ZGNN,2001-02-07 07:00,ZGNN 070700Z AUTO 33006KT 7SM 16/09 A3009 RMK T01600090 IEM_DS3505
ZGNN,2001-02-07 08:00,ZGNN 070800Z AUTO 36008KT 7SM 16/09 A3006 RMK T01600090 IEM_DS3505
ZGNN,2001-02-07 09:00,ZGNN 070900Z AUTO 36006KT 19SM 16/09 A3006 RMK SLP180 T01560086 57006 IEM_DS3505
ZGNN,2001-02-07 10:00,ZGNN 071000Z AUTO 02004KT 7SM 16/09 A3006 RMK T01600090 IEM_DS3505
ZGNN,2001-02-07 11:00,ZGNN 071100Z AUTO 03006KT 7SM 15/09 A3009 RMK T01500090 IEM_DS3505
ZGNN,2001-02-07 12:00,ZGNN 071200Z AUTO 00000KT 16SM 14/09 A3009 RMK SLP197 T01420089 52016 IEM_DS3505
ZGNN,2001-02-07 13:00,ZGNN 071300Z AUTO 03006KT 7SM 14/09 A3012 RMK T01400090 IEM_DS3505
ZGNN,2001-02-07 15:00,ZGNN 071500Z AUTO 07002KT 16SM 13/08 RMK SLP214 T01280080 52017 IEM_DS3505
ZGNN,2001-02-07 18:00,ZGNN 071800Z AUTO 00000KT 16SM 11/07 RMK SLP222 T01090067 52007 IEM_DS3505
ZGNN,2001-02-07 21:00,ZGNN 072100Z AUTO 04002KT 16SM 10/05 RMK 70003 SLP210 T01020054 57011 IEM_DS3505
ZGNN,2001-02-07 23:00,ZGNN 072300Z AUTO 03006KT 7SM 10/05 A3018 RMK T01000050 IEM_DS3505
ZGNN,2001-02-08 00:00,ZGNN 080000Z AUTO 32002KT 12SM 10/05 A3021 RMK 70003 SLP225 T00980052 52014 IEM_DS3505
ZGNN,2001-02-08 01:00,ZGNN 080100Z AUTO 04006KT 7SM 10/04 A3021 RMK T01000040 IEM_DS3505
ZGNN,2001-02-08 02:00,ZGNN 080200Z AUTO 01008KT 7SM 11/05 A3024 RMK T01100050 IEM_DS3505
ZGNN,2001-02-08 03:00,ZGNN 080300Z AUTO 04004KT 16SM 12/05 A3021 RMK SLP235 T01210049 52010 IEM_DS3505
ZGNN,2001-02-08 04:00,ZGNN 080400Z AUTO 03004KT 6SM 12/05 A3021 RMK T01200050 IEM_DS3505
ZGNN,2001-02-08 05:00,ZGNN 080500Z AUTO 35008KT 7SM 13/05 A3018 RMK T01300050 IEM_DS3505
ZGNN,2001-02-08 06:00,ZGNN 080600Z AUTO 36006KT 16SM 12/05 A3015 RMK SLP210 T01230052 57025 IEM_DS3505
ZGNN,2001-02-08 07:00,ZGNN 080700Z AUTO 06004KT 7SM 13/05 A3009 RMK T01300050 IEM_DS3505
ZGNN,2001-02-08 08:00,ZGNN 080800Z AUTO 01004KT 7SM 13/06 A3009 RMK T01300060 IEM_DS3505
ZGNN,2001-02-08 09:00,ZGNN 080900Z AUTO 04002KT 12SM 12/06 A3009 RMK SLP191 T01230062 57019 IEM_DS3505
ZGNN,2001-02-08 10:00,ZGNN 081000Z AUTO 02008KT 7SM 12/06 A3009 RMK T01200060 IEM_DS3505
ZGNN,2001-02-08 11:00,ZGNN 081100Z AUTO 06006KT 7SM 11/06 A3012 RMK T01100060 IEM_DS3505
ZGNN,2001-02-08 12:00,ZGNN 081200Z AUTO 00000KT 12SM 10/06 A3012 RMK 60003 SLP203 T01030062 52011 IEM_DS3505
ZGNN,2001-02-08 13:00,ZGNN 081300Z AUTO 06004KT 7SM 10/07 A3015 RMK T01000070 IEM_DS3505
ZGNN,2001-02-08 15:00,ZGNN 081500Z AUTO 09002KT 6SM 09/08 RMK SLP222 T00910078 52019 IEM_DS3505
ZGNN,2001-02-08 18:00,ZGNN 081800Z AUTO 00000KT 6SM 09/08 RMK 60003 SLP219 T00870079 57003 IEM_DS3505
ZGNN,2001-02-08 21:00,ZGNN 082100Z AUTO 34008KT 6SM 09/08 A3018 RMK 70006 SLP225 T00880080 52006 IEM_DS3505
ZGNN,2001-02-08 22:00,ZGNN 082200Z AUTO 36006KT 2 1/2SM 09/08 A3018 RMK T00900080 IEM_DS3505
ZGNN,2001-02-08 23:00,ZGNN 082300Z AUTO 34004KT 2SM 09/08 A3021 RMK T00900080 IEM_DS3505
ZGNN,2001-02-09 00:00,ZGNN 090000Z AUTO 34004KT 4SM 09/08 A3021 RMK 60012 SLP235 T00880080 52009 IEM_DS3505
ZGNN,2001-02-09 01:00,ZGNN 090100Z AUTO 03006KT 4SM 09/08 A3021 RMK T00900080 IEM_DS3505
ZGNN,2001-02-09 02:00,ZGNN 090200Z AUTO 33006KT 2 1/2SM 09/08 A3024 RMK T00900080 IEM_DS3505
ZGNN,2001-02-09 03:00,ZGNN 090300Z AUTO 36004KT 4SM 09/08 A3024 RMK SLP245 T00920080 52010 IEM_DS3505
ZGNN,2001-02-09 04:00,ZGNN 090400Z AUTO 33004KT 4SM 09/08 A3024 RMK T00900080 IEM_DS3505
ZGNN,2001-02-09 05:00,ZGNN 090500Z AUTO 34006KT 4SM 09/08 A3021 RMK T00900080 IEM_DS3505
ZGNN,2001-02-09 06:00,ZGNN 090600Z AUTO 34006KT 4SM 09/08 A3021 RMK 60004 SLP226 T00920080 57019 IEM_DS3505
ZGNN,2001-02-09 07:00,ZGNN 090700Z AUTO 33006KT 2SM 09/08 A3018 RMK T00900080 IEM_DS3505
ZGNN,2001-02-09 08:00,ZGNN 090800Z AUTO 34010KT 4SM 09/07 A3018 RMK T00900070 IEM_DS3505
ZGNN,2001-02-09 09:00,ZGNN 090900Z AUTO 34006KT 5SM 09/08 A3018 RMK SLP223 T00860078 57003 IEM_DS3505
ZGNN,2001-02-09 10:00,ZGNN 091000Z AUTO 34006KT 7SM 09/07 A3018 RMK T00900070 IEM_DS3505
ZGNN,2001-02-09 11:00,ZGNN 091100Z AUTO 32008KT 7SM 09/07 A3021 RMK T00900070 IEM_DS3505
ZGNN,2001-02-09 12:00,ZGNN 091200Z AUTO 04004KT 9SM 08/07 A3021 RMK 60004 SLP236 T00840071 52013 IEM_DS3505
ZGNN,2001-02-09 13:00,ZGNN 091300Z AUTO 35006KT 5SM 09/07 A3024 RMK T00900070 IEM_DS3505
ZGNN,2001-02-09 14:00,ZGNN 091400Z AUTO 33008KT 5SM 08/07 A3027 RMK T00800070 IEM_DS3505
ZGNN,2001-02-09 15:00,ZGNN 091500Z AUTO 32006KT 7SM 08/07 RMK SLP251 T00840073 52015 IEM_DS3505
ZGNN,2001-02-09 18:00,ZGNN 091800Z AUTO 32004KT 7SM 09/07 RMK 60012 SLP245 T00880073 57006 IEM_DS3505
ZGNN,2001-02-09 21:00,ZGNN 092100Z AUTO 32006KT 12SM 09/07 A3024 RMK 70031 SLP238 T00910072 57007 IEM_DS3505
ZGNN,2001-02-09 22:00,ZGNN 092200Z AUTO 32004KT 7SM 09/07 A3021 RMK T00900070 IEM_DS3505
ZGNN,2001-02-09 23:00,ZGNN 092300Z AUTO 33004KT 7SM 10/06 A3024 RMK T01000060 IEM_DS3505
ZGNN,2001-02-10 00:00,ZGNN 100000Z AUTO 34006KT 12SM 09/06 A3024 RMK 70023 SLP242 T00930063 52004 IEM_DS3505
ZGNN,2001-02-10 01:00,ZGNN 100100Z AUTO 31006KT 7SM 10/06 A3024 RMK T01000060 IEM_DS3505
ZGNN,2001-02-10 02:00,ZGNN 100200Z AUTO 34010KT 7SM 10/06 A3024 RMK T01000060 IEM_DS3505
ZGNN,2001-02-10 03:00,ZGNN 100300Z AUTO 32008KT 12SM 10/06 A3024 RMK SLP246 T01030062 52004 IEM_DS3505
ZGNN,2001-02-10 04:00,ZGNN 100400Z AUTO 35006KT 7SM 10/06 A3024 RMK T01000060 IEM_DS3505
ZGNN,2001-02-10 05:00,ZGNN 100500Z AUTO 30006KT 7SM 11/06 A3021 RMK T01100060 IEM_DS3505
ZGNN,2001-02-10 06:00,ZGNN 100600Z AUTO 32006KT 12SM 11/06 A3015 RMK SLP215 T01070065 57030 IEM_DS3505
ZGNN,2001-02-10 07:00,ZGNN 100700Z AUTO 30006KT 7SM 11/06 A3015 RMK T01100060 IEM_DS3505
ZGNN,2001-02-10 08:00,ZGNN 100800Z AUTO 34008KT 7SM 11/06 A3012 RMK T01100060 IEM_DS3505
ZGNN,2001-02-10 09:00,ZGNN 100900Z AUTO 32004KT 9SM 11/06 A3012 RMK SLP200 T01080063 57015 IEM_DS3505
ZGNN,2001-02-10 10:00,ZGNN 101000Z AUTO 33006KT 7SM 11/07 A3012 RMK T01100070 IEM_DS3505
ZGNN,2001-02-10 11:00,ZGNN 101100Z AUTO 35006KT 7SM 10/06 A3012 RMK T01000060 IEM_DS3505
ZGNN,2001-02-10 12:00,ZGNN 101200Z AUTO 00000KT 9SM 10/08 A3012 RMK 60003 SLP200 T00980077 54000 IEM_DS3505
ZGNN,2001-02-10 13:00,ZGNN 101300Z AUTO 34004KT 7SM 10/07 A3012 RMK T01000070 IEM_DS3505
ZGNN,2001-02-10 14:00,ZGNN 101400Z AUTO 32002KT 7SM 10/07 A3015 RMK T01000070 IEM_DS3505
ZGNN,2001-02-10 15:00,ZGNN 101500Z AUTO 00000KT 9SM 10/08 A3015 RMK SLP208 T01000075 52008 IEM_DS3505
ZGNN,2001-02-10 16:00,ZGNN 101600Z AUTO 00000KT 7SM 10/07 A3012 RMK T01000070 IEM_DS3505
ZGNN,2001-02-10 18:00,ZGNN 101800Z AUTO 04002KT 9SM 10/08 RMK SLP205 T01000079 57003 IEM_DS3505
ZGNN,2001-02-10 21:00,ZGNN 102100Z AUTO 00000KT 7SM 10/08 A3009 RMK 70003 SLP194 T00990076 57011 IEM_DS3505
ZGNN,2001-02-10 22:00,ZGNN 102200Z AUTO 00000KT 3SM 10/08 A3012 RMK T01000080 IEM_DS3505
ZGNN,2001-02-10 23:00,ZGNN 102300Z AUTO 02002KT 3SM 10/07 A3012 RMK T01000070 IEM_DS3505
ZGNN,2001-02-11 00:00,ZGNN 110000Z AUTO 09004KT 3SM 09/08 A3012 RMK 60003 SLP203 T00910083 52009 IEM_DS3505
ZGNN,2001-02-11 01:00,ZGNN 110100Z AUTO 09002KT 1 1/2SM 09/08 A3012 RMK T00900080 IEM_DS3505
ZGNN,2001-02-11 02:00,ZGNN 110200Z AUTO 05004KT 2 1/2SM 10/08 A3015 RMK T01000080 IEM_DS3505
ZGNN,2001-02-11 03:00,ZGNN 110300Z AUTO 07002KT 4SM 10/09 A3015 RMK SLP205 T01020088 52002 IEM_DS3505
ZGNN,2001-02-11 04:00,ZGNN 110400Z AUTO 00000KT 1SM 10/09 A3012 RMK T01000090 IEM_DS3505
ZGNN,2001-02-11 05:00,ZGNN 110500Z AUTO 00000KT 1SM 10/09 A3009 RMK T01000090 IEM_DS3505
ZGNN,2001-02-11 06:00,ZGNN 110600Z AUTO 00000KT 2SM 11/10 A3006 RMK 60000 SLP180 T01080100 57024 IEM_DS3505
ZGNN,2001-02-11 07:00,ZGNN 110700Z AUTO 32004KT 1 1/4SM 11/10 A3003 RMK T01100100 IEM_DS3505
ZGNN,2001-02-11 08:00,ZGNN 110800Z AUTO 33004KT 1 1/4SM 11/10 A3003 RMK T01100100 IEM_DS3505
ZGNN,2001-02-11 09:00,ZGNN 110900Z AUTO 00000KT 1 1/4SM 11/10 A3003 RMK SLP167 T01120098 57013 IEM_DS3505
ZGNN,2001-02-11 10:00,ZGNN 111000Z AUTO 00000KT 1 1/4SM 11/10 A3000 RMK T01100100 IEM_DS3505
ZGNN,2001-02-11 11:00,ZGNN 111100Z AUTO 00000KT 1SM 11/10 A3000 RMK T01100100 IEM_DS3505
ZGNN,2001-02-11 12:00,ZGNN 111200Z AUTO 00000KT 2SM 11/10 A3003 RMK 60000 SLP169 T01080104 52002 IEM_DS3505
ZGNN,2001-02-11 13:00,ZGNN 111300Z AUTO 00000KT 1SM 11/11 A3006 RMK T01100110 IEM_DS3505
ZGNN,2001-02-11 14:00,ZGNN 111400Z AUTO 00000KT 1SM 11/10 A3006 RMK T01100100 IEM_DS3505
ZGNN,2001-02-11 15:00,ZGNN 111500Z AUTO 00000KT 4SM 11/11 RMK SLP185 T01120106 52016 IEM_DS3505
ZGNN,2001-02-11 18:00,ZGNN 111800Z AUTO 00000KT 6SM 12/11 RMK 60002 SLP187 T01150111 52002 IEM_DS3505
ZGNN,2001-02-11 21:00,ZGNN 112100Z AUTO 00000KT 6SM 11/11 A3006 RMK 70003 SLP183 T01120108 57004 IEM_DS3505
ZGNN,2001-02-11 22:00,ZGNN 112200Z AUTO 00000KT 1 1/4SM 11/10 A3009 RMK T01100100 IEM_DS3505
ZGNN,2001-02-11 23:00,ZGNN 112300Z AUTO 00000KT 1 1/4SM 11/11 A3009 RMK T01100110 IEM_DS3505
ZGNN,2001-02-12 00:00,ZGNN 120000Z AUTO 00000KT 1 1/4SM 11/11 A3012 RMK 60000 SLP200 T01110107 52017 IEM_DS3505
ZGNN,2001-02-12 01:00,ZGNN 120100Z AUTO 33004KT 1 1/4SM 12/11 A3015 RMK T01200110 IEM_DS3505
ZGNN,2001-02-12 02:00,ZGNN 120200Z AUTO 01004KT 1 1/4SM 13/12 A3015 RMK T01300120 IEM_DS3505
ZGNN,2001-02-12 03:00,ZGNN 120300Z AUTO 34006KT 2SM 14/12 A3015 RMK SLP214 T01360119 52014 IEM_DS3505
ZGNN,2001-02-12 04:00,ZGNN 120400Z AUTO 33004KT 2SM 14/12 A3015 RMK T01400120 IEM_DS3505
ZGNN,2001-02-12 05:00,ZGNN 120500Z AUTO 33004KT 2SM 15/12 A3012 RMK T01500120 IEM_DS3505
ZGNN,2001-02-12 06:00,ZGNN 120600Z AUTO 32006KT 3SM 15/12 A3006 RMK 60003 SLP183 T01460122 57030 IEM_DS3505
ZGNN,2001-02-12 07:00,ZGNN 120700Z AUTO 32006KT 2 1/2SM 15/12 A3006 RMK T01500120 IEM_DS3505
ZGNN,2001-02-12 08:00,ZGNN 120800Z AUTO 34006KT 2 1/2SM 15/13 A3003 RMK T01500130 IEM_DS3505
ZGNN,2001-02-12 09:00,ZGNN 120900Z AUTO 34008KT 4SM 15/12 A3003 RMK SLP170 T01470125 57013 IEM_DS3505
ZGNN,2001-02-12 10:00,ZGNN 121000Z AUTO 34004KT 2 1/2SM 15/12 A3003 RMK T01500120 IEM_DS3505
ZGNN,2001-02-12 11:00,ZGNN 121100Z AUTO 33006KT 2 1/2SM 14/12 A3003 RMK T01400120 IEM_DS3505
ZGNN,2001-02-12 12:00,ZGNN 121200Z AUTO 34006KT 3SM 14/12 A3003 RMK SLP172 T01390123 52002 IEM_DS3505
ZGNN,2001-02-12 13:00,ZGNN 121300Z AUTO 32006KT 2 1/2SM 14/12 A3006 RMK T01400120 IEM_DS3505
ZGNN,2001-02-12 15:00,ZGNN 121500Z AUTO 04002KT 3SM 13/12 RMK SLP191 T01330118 52019 IEM_DS3505
ZGNN,2001-02-12 18:00,ZGNN 121800Z AUTO 00000KT 2SM 12/12 RMK 60003 SLP196 T01240120 52005 IEM_DS3505
ZGNN,2001-02-12 21:00,ZGNN 122100Z AUTO 36006KT 7SM 12/11 RMK 70003 SLP200 T01230110 52004 IEM_DS3505
ZGNN,2001-02-12 22:00,ZGNN 122200Z AUTO 33004KT 1 1/2SM 12/11 A3015 RMK T01200110 IEM_DS3505
ZGNN,2001-02-12 23:00,ZGNN 122300Z AUTO 34008KT 1 1/2SM 12/11 A3018 RMK T01200110 IEM_DS3505
ZGNN,2001-02-13 00:00,ZGNN 130000Z AUTO 36006KT 1 1/4SM 11/10 A3021 RMK 60002 SLP229 T01130103 52028 IEM_DS3505
ZGNN,2001-02-13 01:00,ZGNN 130100Z AUTO 33010KT 4SM 11/10 A3024 RMK T01100100 IEM_DS3505
ZGNN,2001-02-13 02:00,ZGNN 130200Z AUTO 33014KT 7SM 11/09 A3027 RMK T01100090 IEM_DS3505
ZGNN,2001-02-13 03:00,ZGNN 130300Z AUTO 34008KT 7SM 11/09 A3027 RMK SLP249 T01080092 52020 IEM_DS3505
ZGNN,2001-02-13 04:00,ZGNN 130400Z AUTO 35012KT 7SM 11/08 A3027 RMK T01100080 IEM_DS3505
ZGNN,2001-02-13 05:00,ZGNN 130500Z AUTO 34014KT 7SM 12/08 A3024 RMK T01200080 IEM_DS3505
ZGNN,2001-02-13 06:00,ZGNN 130600Z AUTO 36008KT 19SM 12/08 A3024 RMK 60000 SLP234 T01150076 57015 IEM_DS3505
ZGNN,2001-02-13 07:00,ZGNN 130700Z AUTO 35012KT 7SM 12/08 A3021 RMK T01200080 IEM_DS3505
ZGNN,2001-02-13 08:00,ZGNN 130800Z AUTO 34006KT 7SM 12/07 A3021 RMK T01200070 IEM_DS3505
ZGNN,2001-02-13 09:00,ZGNN 130900Z AUTO 34008KT 19SM 12/06 A3021 RMK SLP233 T01180063 57001 IEM_DS3505
ZGNN,2001-02-13 10:00,ZGNN 131000Z AUTO 33008KT 7SM 12/07 A3024 RMK T01200070 IEM_DS3505
ZGNN,2001-02-13 11:00,ZGNN 131100Z AUTO 34010KT 7SM 12/06 A3027 RMK T01200060 IEM_DS3505
ZGNN,2001-02-13 12:00,ZGNN 131200Z AUTO 34006KT 19SM 11/06 A3027 RMK SLP256 T01100063 52022 IEM_DS3505
ZGNN,2001-02-13 13:00,ZGNN 131300Z AUTO 35004KT 7SM 10/07 A3030 RMK T01000070 IEM_DS3505
ZGNN,2001-02-13 14:00,ZGNN 131400Z AUTO 00000KT 7SM 10/08 A3033 RMK T01000080 IEM_DS3505
ZGNN,2001-02-13 15:00,ZGNN 131500Z AUTO 00000KT 19SM 10/08 RMK SLP280 T01040075 52023 IEM_DS3505
ZGNN,2001-02-13 18:00,ZGNN 131800Z AUTO 36006KT 16SM 11/04 RMK SLP280 T01060043 52001 IEM_DS3505
ZGNN,2001-02-13 21:00,ZGNN 132100Z AUTO 34004KT 19SM 09/04 A3033 RMK 70002 SLP277 T00930038 57004 IEM_DS3505
ZGNN,2001-02-13 22:00,ZGNN 132200Z AUTO 00000KT 6SM 09/03 A3036 RMK T00900030 IEM_DS3505
ZGNN,2001-02-13 23:00,ZGNN 132300Z AUTO 36006KT 6SM 09/03 A3036 RMK T00900030 IEM_DS3505
ZGNN,2001-02-14 00:00,ZGNN 140000Z AUTO 34006KT 19SM 09/03 A3039 RMK 70000 SLP289 T00900026 52012 IEM_DS3505
ZGNN,2001-02-14 01:00,ZGNN 140100Z AUTO 35006KT 6SM 10/03 A3039 RMK T01000030 IEM_DS3505
ZGNN,2001-02-14 02:00,ZGNN 140200Z AUTO 34006KT 6SM 11/02 A3039 RMK T01100020 IEM_DS3505
ZGNN,2001-02-14 03:00,ZGNN 140300Z AUTO 36008KT 19SM 12/02 A3039 RMK SLP288 T01230018 54000 IEM_DS3505
ZGNN,2001-02-14 04:00,ZGNN 140400Z AUTO 34010KT 6SM 14/02 A3036 RMK T01400020 IEM_DS3505
ZGNN,2001-02-14 05:00,ZGNN 140500Z AUTO 32004KT 6SM 15/02 A3030 RMK T01500020 IEM_DS3505
ZGNN,2001-02-14 06:00,ZGNN 140600Z AUTO 16004KT 19SM 16/04 A3027 RMK SLP246 T01580037 57041 IEM_DS3505
ZGNN,2001-02-14 07:00,ZGNN 140700Z AUTO 33004KT 6SM 16/03 A3021 RMK T01600030 IEM_DS3505
ZGNN,2001-02-14 08:00,ZGNN 140800Z AUTO 01006KT 6SM 16/03 A3018 RMK T01600030 IEM_DS3505
ZGNN,2001-02-14 09:00,ZGNN 140900Z AUTO 02006KT 19SM 16/04 A3018 RMK SLP219 T01630036 57027 IEM_DS3505
ZGNN,2001-02-14 10:00,ZGNN 141000Z AUTO 01006KT 6SM 16/04 A3018 RMK T01600040 IEM_DS3505
ZGNN,2001-02-14 11:00,ZGNN 141100Z AUTO 04002KT 6SM 14/07 A3018 RMK T01400070 IEM_DS3505
ZGNN,2001-02-14 12:00,ZGNN 141200Z AUTO 00000KT 12SM 12/07 A3018 RMK SLP225 T01200073 52005 IEM_DS3505
ZGNN,2001-02-14 13:00,ZGNN 141300Z AUTO 35004KT 6SM 11/07 A3021 RMK T01100070 IEM_DS3505
ZGNN,2001-02-14 15:00,ZGNN 141500Z AUTO 00000KT 12SM 08/06 RMK SLP245 T00840060 52020 IEM_DS3505
ZGNN,2001-02-14 18:00,ZGNN 141800Z AUTO 00000KT 12SM 07/06 RMK SLP244 T00720056 57001 IEM_DS3505
ZGNN,2001-02-14 21:00,ZGNN 142100Z AUTO 00000KT 9SM 10/08 RMK SLP236 T01020077 57007 IEM_DS3505
ZGNN,2001-02-14 22:00,ZGNN 142200Z AUTO 05002KT 7SM 11/06 A3024 RMK T01100060 IEM_DS3505
ZGNN,2001-02-14 23:00,ZGNN 142300Z AUTO 14002KT 7SM 11/06 A3027 RMK T01100060 IEM_DS3505
ZGNN,2001-02-15 00:00,ZGNN 150000Z AUTO 00000KT 7SM 10/06 A3030 RMK SLP260 T01030057 52023 IEM_DS3505
ZGNN,2001-02-15 01:00,ZGNN 150100Z AUTO 00000KT 6SM 11/06 A3033 RMK T01100060 IEM_DS3505
ZGNN,2001-02-15 02:00,ZGNN 150200Z AUTO 01004KT 9SM 12/06 A3033 RMK T01200060 IEM_DS3505
ZGNN,2001-02-15 03:00,ZGNN 150300Z AUTO 14004KT 9SM 14/05 A3033 RMK SLP273 T01370054 52013 IEM_DS3505
ZGNN,2001-02-15 04:00,ZGNN 150400Z AUTO 02010KT 6SM 15/05 A3033 RMK T01500050 IEM_DS3505
ZGNN,2001-02-15 05:00,ZGNN 150500Z AUTO 02006KT 6SM 17/04 A3030 RMK T01700040 IEM_DS3505
ZGNN,2001-02-15 06:00,ZGNN 150600Z AUTO 14006KT 16SM 18/03 A3024 RMK SLP243 T01780032 57029 IEM_DS3505
ZGNN,2001-02-15 07:00,ZGNN 150700Z AUTO 11006KT 6SM 19/04 A3021 RMK T01900040 IEM_DS3505
ZGNN,2001-02-15 08:00,ZGNN 150800Z AUTO 01006KT 6SM 19/03 A3018 RMK T01900030 IEM_DS3505
ZGNN,2001-02-15 09:00,ZGNN 150900Z AUTO 04004KT 12SM 19/04 A3018 RMK SLP219 T01880042 57023 IEM_DS3505
ZGNN,2001-02-15 10:00,ZGNN 151000Z AUTO 01006KT 6SM 18/05 A3018 RMK T01800050 IEM_DS3505
ZGNN,2001-02-15 11:00,ZGNN 151100Z AUTO 00000KT 7SM 17/07 A3021 RMK T01700070 IEM_DS3505
ZGNN,2001-02-15 12:00,ZGNN 151200Z AUTO 02002KT 9SM 15/08 A3021 RMK SLP228 T01480080 52008 IEM_DS3505
ZGNN,2001-02-15 13:00,ZGNN 151300Z AUTO 00000KT 7SM 15/08 A3024 RMK T01500080 IEM_DS3505
ZGNN,2001-02-15 15:00,ZGNN 151500Z AUTO 00000KT 9SM 14/07 RMK SLP246 T01390074 52019 IEM_DS3505
ZGNN,2001-02-15 18:00,ZGNN 151800Z AUTO 00000KT 9SM 14/06 RMK SLP249 T01380058 52004 IEM_DS3505
ZGNN,2001-02-15 21:00,ZGNN 152100Z AUTO 00000KT 9SM 12/07 A3027 RMK SLP248 T01180072 57002 IEM_DS3505
ZGNN,2001-02-15 22:00,ZGNN 152200Z AUTO 00000KT 7SM 12/09 A3027 RMK T01200090 IEM_DS3505
ZGNN,2001-02-15 23:00,ZGNN 152300Z AUTO 34004KT 7SM 12/09 A3030 RMK T01200090 IEM_DS3505
ZGNN,2001-02-16 00:00,ZGNN 160000Z AUTO 00000KT 7SM 12/06 A3033 RMK SLP270 T01230064 52021 IEM_DS3505
ZGNN,2001-02-16 01:00,ZGNN 160100Z AUTO 00000KT 7SM 14/07 A3036 RMK T01400070 IEM_DS3505
ZGNN,2001-02-16 03:00,ZGNN 160300Z AUTO 34004KT 9SM 18/02 A3036 RMK SLP277 T01790020 52008 IEM_DS3505
ZGNN,2001-02-16 05:00,ZGNN 160500Z AUTO 15004KT 6SM 20/03 A3030 RMK T02000030 IEM_DS3505
ZGNN,2001-02-16 06:00,ZGNN 160600Z AUTO 22002KT 7SM 20/03 A3024 RMK SLP239 T01980027 57037 IEM_DS3505
ZGNN,2001-02-16 07:00,ZGNN 160700Z AUTO 00000KT 6SM 21/06 A3021 RMK T02100060 IEM_DS3505
ZGNN,2001-02-16 08:00,ZGNN 160800Z AUTO 00000KT 6SM 22/06 A3018 RMK T02200060 IEM_DS3505
ZGNN,2001-02-16 09:00,ZGNN 160900Z AUTO 09004KT 9SM 21/03 A3015 RMK SLP212 T02110031 57027 IEM_DS3505
ZGNN,2001-02-16 10:00,ZGNN 161000Z AUTO 09008KT 6SM 21/03 A3015 RMK T02100030 IEM_DS3505
ZGNN,2001-02-16 11:00,ZGNN 161100Z AUTO 10006KT 6SM 19/04 A3015 RMK T01900040 IEM_DS3505
ZGNN,2001-02-16 12:00,ZGNN 161200Z AUTO 00000KT 8SM 15/07 A3018 RMK SLP221 T01520071 52008 IEM_DS3505
ZGNN,2001-02-16 13:00,ZGNN 161300Z AUTO 36004KT 6SM 13/08 A3018 RMK T01300080 IEM_DS3505
ZGNN,2001-02-16 15:00,ZGNN 161500Z AUTO 00000KT 7SM 11/07 RMK SLP226 T01110069 52005 IEM_DS3505
ZGNN,2001-02-16 18:00,ZGNN 161800Z AUTO 00000KT 7SM 09/06 RMK SLP222 T00920064 57004 IEM_DS3505
ZGNN,2001-02-16 21:00,ZGNN 162100Z AUTO 00000KT 7SM 09/07 A3015 RMK SLP204 T00920073 57017 IEM_DS3505
ZGNN,2001-02-16 22:00,ZGNN 162200Z AUTO 00000KT 4SM 10/08 A3015 RMK T01000080 IEM_DS3505
ZGNN,2001-02-16 23:00,ZGNN 162300Z AUTO 00000KT 2 1/2SM 10/09 A3015 RMK T01000090 IEM_DS3505
ZGNN,2001-02-17 00:00,ZGNN 170000Z AUTO 00000KT 4SM 10/09 A3018 RMK SLP215 T01010091 52009 IEM_DS3505
ZGNN,2001-02-17 01:00,ZGNN 170100Z AUTO 00000KT 1 1/4SM 14/12 A3018 RMK T01400120 IEM_DS3505
ZGNN,2001-02-17 02:00,ZGNN 170200Z AUTO 14006KT 2 1/2SM 17/14 A3018 RMK T01700140 IEM_DS3505
ZGNN,2001-02-17 03:00,ZGNN 170300Z AUTO 14008KT 6SM 18/13 A3018 RMK SLP223 T01800134 52009 IEM_DS3505
ZGNN,2001-02-17 04:00,ZGNN 170400Z AUTO 10012KT 3SM 19/14 A3018 RMK T01900140 IEM_DS3505
ZGNN,2001-02-17 05:00,ZGNN 170500Z AUTO 12019KT 4SM 20/15 A3012 RMK T02000150 IEM_DS3505
ZGNN,2001-02-17 06:00,ZGNN 170600Z AUTO 18008KT 9SM 20/15 A3009 RMK SLP189 T02030147 57033 IEM_DS3505
ZGNN,2001-02-17 07:00,ZGNN 170700Z AUTO 14014KT 7SM 22/15 A3006 RMK T02200150 IEM_DS3505
ZGNN,2001-02-17 08:00,ZGNN 170800Z AUTO 13019KT 7SM 22/14 A3003 RMK T02200140 IEM_DS3505
ZGNN,2001-02-17 09:00,ZGNN 170900Z AUTO 14008KT 9SM 22/14 A3000 RMK SLP163 T02190135 57025 IEM_DS3505
ZGNN,2001-02-17 10:00,ZGNN 171000Z AUTO 13012KT 6SM 21/13 A3003 RMK T02100130 IEM_DS3505
ZGNN,2001-02-17 11:00,ZGNN 171100Z AUTO 13012KT 6SM 19/14 A3003 RMK T01900140 IEM_DS3505
ZGNN,2001-02-17 12:00,ZGNN 171200Z AUTO 00000KT 8SM 19/14 A3003 RMK SLP172 T01860141 52008 IEM_DS3505
ZGNN,2001-02-17 13:00,ZGNN 171300Z AUTO 15004KT 6SM 17/15 A3006 RMK T01700150 IEM_DS3505
ZGNN,2001-02-17 14:00,ZGNN 171400Z AUTO 15004KT 6SM 17/14 A3006 RMK T01700140 IEM_DS3505
ZGNN,2001-02-17 15:00,ZGNN 171500Z AUTO 00000KT 7SM 16/14 A3009 RMK SLP183 T01640141 52012 IEM_DS3505
ZGNN,2001-02-17 18:00,ZGNN 171800Z AUTO 14002KT 7SM 16/14 RMK SLP180 T01550143 57002 IEM_DS3505
ZGNN,2001-02-17 21:00,ZGNN 172100Z AUTO 20004KT 7SM 17/15 A3003 RMK SLP170 T01720153 57009 IEM_DS3505
ZGNN,2001-02-17 22:00,ZGNN 172200Z AUTO 11004KT 4SM 17/16 A3006 RMK T01700160 IEM_DS3505
ZGNN,2001-02-17 23:00,ZGNN 172300Z AUTO 00000KT 1 1/2SM 17/16 A3006 RMK T01700160 IEM_DS3505
ZGNN,2001-02-18 00:00,ZGNN 180000Z AUTO 00000KT 3SM 17/16 A3009 RMK SLP182 T01690155 52011 IEM_DS3505
ZGNN,2001-02-18 01:00,ZGNN 180100Z AUTO 14006KT 2SM 17/16 A3009 RMK T01700160 IEM_DS3505
ZGNN,2001-02-18 02:00,ZGNN 180200Z AUTO 13008KT 4SM 18/16 A3009 RMK T01800160 IEM_DS3505
ZGNN,2001-02-18 03:00,ZGNN 180300Z AUTO 16006KT 4SM 18/16 A3009 RMK SLP189 T01820155 52006 IEM_DS3505
ZGNN,2001-02-18 04:00,ZGNN 180400Z AUTO 13010KT 7SM 20/16 A3006 RMK T02000160 IEM_DS3505
ZGNN,2001-02-18 05:00,ZGNN 180500Z AUTO 16008KT 7SM 21/16 A3003 RMK T02100160 IEM_DS3505
ZGNN,2001-02-18 06:00,ZGNN 180600Z AUTO 16002KT 7SM 21/16 A3000 RMK SLP153 T02100157 57035 IEM_DS3505
ZGNN,2001-02-18 07:00,ZGNN 180700Z AUTO 14014KT 7SM 21/16 A2997 RMK T02100160 IEM_DS3505
ZGNN,2001-02-18 08:00,ZGNN 180800Z AUTO 15012KT 7SM 21/16 A2994 RMK T02100160 IEM_DS3505
ZGNN,2001-02-18 09:00,ZGNN 180900Z AUTO 16006KT 9SM 21/16 A2994 RMK SLP133 T02080158 57019 IEM_DS3505
ZGNN,2001-02-18 10:00,ZGNN 181000Z AUTO 14008KT 7SM 20/16 A2994 RMK T02000160 IEM_DS3505
ZGNN,2001-02-18 11:00,ZGNN 181100Z AUTO 16006KT 7SM 20/16 A2994 RMK T02000160 IEM_DS3505
ZGNN,2001-02-18 12:00,ZGNN 181200Z AUTO 00000KT 12SM 20/16 A2994 RMK SLP142 T01950162 52008 IEM_DS3505
ZGNN,2001-02-18 13:00,ZGNN 181300Z AUTO 14002KT 7SM 19/16 A2997 RMK T01900160 IEM_DS3505
ZGNN,2001-02-18 15:00,ZGNN 181500Z AUTO 00000KT 12SM 17/16 RMK SLP156 T01730156 52014 IEM_DS3505
ZGNN,2001-02-18 18:00,ZGNN 181800Z AUTO 00000KT 9SM 17/16 RMK SLP159 T01670155 52003 IEM_DS3505
ZGNN,2001-02-18 21:00,ZGNN 182100Z AUTO 00000KT 7SM 17/16 A3000 RMK SLP153 T01740161 57005 IEM_DS3505
ZGNN,2001-02-18 22:00,ZGNN 182200Z AUTO 36004KT 5SM 17/16 A3000 RMK T01700160 IEM_DS3505
ZGNN,2001-02-18 23:00,ZGNN 182300Z AUTO 00000KT 3SM 17/17 A3003 RMK T01700170 IEM_DS3505
ZGNN,2001-02-19 00:00,ZGNN 190000Z AUTO 07002KT 2 1/2SM 18/17 A3006 RMK SLP173 T01780168 52019 IEM_DS3505
ZGNN,2001-02-19 01:00,ZGNN 190100Z AUTO 14006KT 2SM 18/17 A3006 RMK T01800170 IEM_DS3505
ZGNN,2001-02-19 02:00,ZGNN 190200Z AUTO 10002KT 2 1/2SM 19/18 A3009 RMK T01900180 IEM_DS3505
ZGNN,2001-02-19 03:00,ZGNN 190300Z AUTO 14006KT 5SM 19/17 A3009 RMK SLP186 T01930174 52013 IEM_DS3505
ZGNN,2001-02-19 04:00,ZGNN 190400Z AUTO 14006KT 7SM 20/17 A3006 RMK T02000170 IEM_DS3505
ZGNN,2001-02-19 05:00,ZGNN 190500Z AUTO 15006KT 7SM 20/18 A3006 RMK T02000180 IEM_DS3505
ZGNN,2001-02-19 06:00,ZGNN 190600Z AUTO 18004KT 6SM 20/17 A3003 RMK SLP164 T02020173 57022 IEM_DS3505
ZGNN,2001-02-19 07:00,ZGNN 190700Z AUTO 12006KT 1 1/2SM 20/18 A3000 RMK T02000180 IEM_DS3505
ZGNN,2001-02-19 08:00,ZGNN 190800Z AUTO 14006KT 4SM 20/18 A2997 RMK T02000180 IEM_DS3505
ZGNN,2001-02-19 09:00,ZGNN 190900Z AUTO 16004KT 6SM 21/18 A2997 RMK SLP145 T02070178 57018 IEM_DS3505
ZGNN,2001-02-19 10:00,ZGNN 191000Z AUTO 15006KT 7SM 20/18 A2997 RMK T02000180 IEM_DS3505
ZGNN,2001-02-19 11:00,ZGNN 191100Z AUTO 14006KT 7SM 20/18 A2997 RMK T02000180 IEM_DS3505
ZGNN,2001-02-19 12:00,ZGNN 191200Z AUTO 00000KT 7SM 20/18 A2997 RMK 60003 SLP152 T01970178 52006 IEM_DS3505
ZGNN,2001-02-19 13:00,ZGNN 191300Z AUTO 14006KT 7SM 20/18 A3000 RMK T02000180 IEM_DS3505
ZGNN,2001-02-19 15:00,ZGNN 191500Z AUTO 00000KT 6SM 19/18 RMK SLP159 T01910178 52008 IEM_DS3505
ZGNN,2001-02-19 18:00,ZGNN 191800Z AUTO 00000KT 6SM 19/17 RMK SLP153 T01870174 57006 IEM_DS3505
ZGNN,2001-02-19 21:00,ZGNN 192100Z AUTO 18002KT 6SM 18/17 RMK 70003 SLP151 T01810170 57002 IEM_DS3505
ZGNN,2001-02-19 22:00,ZGNN 192200Z AUTO 11004KT 7SM 18/16 A2997 RMK T01800160 IEM_DS3505
ZGNN,2001-02-19 23:00,ZGNN 192300Z AUTO 00000KT 7SM 18/16 A3000 RMK T01800160 IEM_DS3505
ZGNN,2001-02-20 00:00,ZGNN 200000Z AUTO 14004KT 7SM 18/16 A3000 RMK 70003 SLP160 T01810156 52008 IEM_DS3505
ZGNN,2001-02-20 01:00,ZGNN 200100Z AUTO 00000KT 7SM 19/16 A3003 RMK T01900160 IEM_DS3505
ZGNN,2001-02-20 02:00,ZGNN 200200Z AUTO 11006KT 7SM 21/16 A3003 RMK T02100160 IEM_DS3505
ZGNN,2001-02-20 03:00,ZGNN 200300Z AUTO 14004KT 11SM 22/15 A3003 RMK SLP169 T02210151 52010 IEM_DS3505
ZGNN,2001-02-20 04:00,ZGNN 200400Z AUTO 13014KT 6SM 25/14 A3003 RMK T02500140 IEM_DS3505
ZGNN,2001-02-20 05:00,ZGNN 200500Z AUTO 17014KT 6SM 27/12 A2997 RMK T02700120 IEM_DS3505
ZGNN,2001-02-20 06:00,ZGNN 200600Z AUTO 18008KT 19SM 27/13 A2994 RMK SLP130 T02680132 57037 IEM_DS3505
ZGNN,2001-02-20 07:00,ZGNN 200700Z AUTO 12017KT 7SM 27/13 A2991 RMK T02700130 IEM_DS3505
ZGNN,2001-02-20 08:00,ZGNN 200800Z AUTO 14019KT 7SM 26/14 A2988 RMK T02600140 IEM_DS3505
ZGNN,2001-02-20 09:00,ZGNN 200900Z AUTO 18010KT 17SM 26/12 A2988 RMK SLP113 T02550123 57017 IEM_DS3505
ZGNN,2001-02-20 10:00,ZGNN 201000Z AUTO 15017KT 6SM 24/14 A2988 RMK T02400140 IEM_DS3505
ZGNN,2001-02-20 11:00,ZGNN 201100Z AUTO 15012KT 6SM 22/12 A2988 RMK T02200120 IEM_DS3505
ZGNN,2001-02-20 12:00,ZGNN 201200Z AUTO 20002KT 16SM 22/12 A2991 RMK SLP128 T02160125 52013 IEM_DS3505
ZGNN,2001-02-20 13:00,ZGNN 201300Z AUTO 15010KT 7SM 21/12 A2994 RMK T02100120 IEM_DS3505
ZGNN,2001-02-20 14:00,ZGNN 201400Z AUTO 00000KT 7SM 20/12 A2994 RMK T02000120 IEM_DS3505
ZGNN,2001-02-20 15:00,ZGNN 201500Z AUTO 00000KT 12SM 19/13 RMK SLP134 T01920129 52007 IEM_DS3505
ZGNN,2001-02-20 18:00,ZGNN 201800Z AUTO 27002KT 12SM 17/14 RMK SLP130 T01660138 57004 IEM_DS3505
ZGNN,2001-02-20 21:00,ZGNN 202100Z AUTO 00000KT 7SM 16/15 A2991 RMK SLP126 T01630151 57004 IEM_DS3505
ZGNN,2001-02-20 22:00,ZGNN 202200Z AUTO 00000KT 5SM 16/15 A2991 RMK T01600150 IEM_DS3505
ZGNN,2001-02-20 23:00,ZGNN 202300Z AUTO 36004KT 2 1/2SM 15/14 A2994 RMK T01500140 IEM_DS3505
ZGNN,2001-02-21 00:00,ZGNN 210000Z AUTO 00000KT 2SM 16/15 A2997 RMK SLP142 T01590149 52015 IEM_DS3505
ZGNN,2001-02-21 01:00,ZGNN 210100Z AUTO 35004KT 1 1/4SM 17/16 A2997 RMK T01700160 IEM_DS3505
ZGNN,2001-02-21 02:00,ZGNN 210200Z AUTO 08006KT 2 1/2SM 19/17 A3000 RMK T01900170 IEM_DS3505
ZGNN,2001-02-21 03:00,ZGNN 210300Z AUTO 11004KT 9SM 21/16 A3000 RMK SLP154 T02080162 52012 IEM_DS3505
ZGNN,2001-02-21 04:00,ZGNN 210400Z AUTO 11004KT 7SM 23/17 A2997 RMK T02300170 IEM_DS3505
ZGNN,2001-02-21 05:00,ZGNN 210500Z AUTO 12006KT 7SM 24/16 A2994 RMK T02400160 IEM_DS3505
ZGNN,2001-02-21 06:00,ZGNN 210600Z AUTO 27004KT 12SM 24/16 A2991 RMK SLP120 T02420157 57033 IEM_DS3505
ZGNN,2001-02-21 07:00,ZGNN 210700Z AUTO 15006KT 7SM 25/15 A2985 RMK T02500150 IEM_DS3505
ZGNN,2001-02-21 08:00,ZGNN 210800Z AUTO 11006KT 7SM 25/16 A2985 RMK T02500160 IEM_DS3505
ZGNN,2001-02-21 09:00,ZGNN 210900Z AUTO 09006KT 16SM 25/17 A2985 RMK SLP100 T02500167 57020 IEM_DS3505
ZGNN,2001-02-21 10:00,ZGNN 211000Z AUTO 14012KT 6SM 24/16 A2985 RMK T02400160 IEM_DS3505
ZGNN,2001-02-21 11:00,ZGNN 211100Z AUTO 17006KT 6SM 23/17 A2985 RMK T02300170 IEM_DS3505
ZGNN,2001-02-21 12:00,ZGNN 211200Z AUTO 18006KT 16SM 23/17 A2988 RMK SLP118 T02280172 52017 IEM_DS3505
ZGNN,2001-02-21 13:00,ZGNN 211300Z AUTO 18004KT 6SM 22/17 A2991 RMK T02200170 IEM_DS3505
ZGNN,2001-02-21 15:00,ZGNN 211500Z AUTO 00000KT 16SM 21/17 RMK SLP132 T02140172 52015 IEM_DS3505
ZGNN,2001-02-21 18:00,ZGNN 211800Z AUTO 11002KT 12SM 20/17 RMK SLP131 T01960170 57001 IEM_DS3505
ZGNN,2001-02-21 21:00,ZGNN 212100Z AUTO 00000KT 9SM 17/16 RMK SLP115 T01720160 57016 IEM_DS3505
ZGNN,2001-02-21 22:00,ZGNN 212200Z AUTO 00000KT 6SM 16/16 A2988 RMK T01600160 IEM_DS3505
ZGNN,2001-02-21 23:00,ZGNN 212300Z AUTO 00000KT 2 1/2SM 17/16 A2991 RMK T01700160 IEM_DS3505
ZGNN,2001-02-22 00:00,ZGNN 220000Z AUTO 00000KT 2 1/2SM 17/16 A2994 RMK SLP137 T01680161 52021 IEM_DS3505
ZGNN,2001-02-22 01:00,ZGNN 220100Z AUTO 00000KT 2SM 19/18 A2997 RMK T01900180 IEM_DS3505
ZGNN,2001-02-22 02:00,ZGNN 220200Z AUTO 14008KT 5SM 21/19 A2997 RMK T02100190 IEM_DS3505
ZGNN,2001-02-22 03:00,ZGNN 220300Z AUTO 18006KT 9SM 22/19 A2997 RMK SLP143 T02220191 52007 IEM_DS3505
ZGNN,2001-02-22 04:00,ZGNN 220400Z AUTO 21006KT 7SM 25/18 A2994 RMK T02500180 IEM_DS3505
ZGNN,2001-02-22 05:00,ZGNN 220500Z AUTO 00000KT 7SM 24/17 A2988 RMK T02400170 IEM_DS3505
ZGNN,2001-02-22 06:00,ZGNN 220600Z AUTO 14006KT 12SM 24/18 A2985 RMK SLP108 T02370185 57034 IEM_DS3505
ZGNN,2001-02-22 07:00,ZGNN 220700Z AUTO 09010KT 7SM 25/18 A2983 RMK T02500180 IEM_DS3505
ZGNN,2001-02-22 08:00,ZGNN 220800Z AUTO 12010KT 7SM 25/18 A2983 RMK T02500180 IEM_DS3505
ZGNN,2001-02-22 09:00,ZGNN 220900Z AUTO 14004KT 12SM 24/19 A2980 RMK SLP094 T02420189 57015 IEM_DS3505
ZGNN,2001-02-22 10:00,ZGNN 221000Z AUTO 12008KT 7SM 24/19 A2983 RMK T02400190 IEM_DS3505
ZGNN,2001-02-22 11:00,ZGNN 221100Z AUTO 00000KT 7SM 23/19 A2983 RMK T02300190 IEM_DS3505
ZGNN,2001-02-22 12:00,ZGNN 221200Z AUTO 00000KT 12SM 22/18 A2983 RMK SLP094 T02170182 54000 IEM_DS3505
ZGNN,2001-02-22 13:00,ZGNN 221300Z AUTO 17004KT 7SM 22/18 A2985 RMK T02200180 IEM_DS3505
ZGNN,2001-02-22 14:00,ZGNN 221400Z AUTO 00000KT 7SM 21/18 A2985 RMK T02100180 IEM_DS3505
ZGNN,2001-02-22 15:00,ZGNN 221500Z AUTO 00000KT 11SM 21/18 RMK SLP111 T02060184 52017 IEM_DS3505
ZGNN,2001-02-22 18:00,ZGNN 221800Z AUTO 00000KT 9SM 17/17 RMK SLP105 T01740166 57006 IEM_DS3505
ZGNN,2001-02-22 21:00,ZGNN 222100Z AUTO 00000KT 6SM 16/15 A2983 RMK SLP102 T01600153 57003 IEM_DS3505
ZGNN,2001-02-22 22:00,ZGNN 222200Z AUTO 00000KT 7SM 16/15 A2985 RMK T01600150 IEM_DS3505
ZGNN,2001-02-22 23:00,ZGNN 222300Z AUTO 00000KT 7SM 16/15 A2985 RMK T01600150 IEM_DS3505
ZGNN,2001-02-23 00:00,ZGNN 230000Z AUTO 00000KT 4SM 15/15 A2988 RMK SLP122 T01530148 52019 IEM_DS3505
ZGNN,2001-02-23 01:00,ZGNN 230100Z AUTO 00000KT 1/8SM 18/18 A2991 RMK T01800180 IEM_DS3505
ZGNN,2001-02-23 02:00,ZGNN 230200Z AUTO 14004KT 1 1/4SM 19/19 A2991 RMK T01900190 IEM_DS3505
ZGNN,2001-02-23 03:00,ZGNN 230300Z AUTO 04002KT 2 1/2SM 21/19 A2991 RMK SLP124 T02080186 52003 IEM_DS3505
ZGNN,2001-02-23 04:00,ZGNN 230400Z AUTO 22002KT 7SM 24/19 A2988 RMK T02400190 IEM_DS3505
ZGNN,2001-02-23 05:00,ZGNN 230500Z AUTO 18004KT 7SM 25/18 A2985 RMK T02500180 IEM_DS3505
ZGNN,2001-02-23 06:00,ZGNN 230600Z AUTO 22002KT 9SM 25/18 A2983 RMK SLP091 T02520180 57032 IEM_DS3505
ZGNN,2001-02-23 07:00,ZGNN 230700Z AUTO 23008KT 7SM 27/19 A2977 RMK T02700190 IEM_DS3505
ZGNN,2001-02-23 08:00,ZGNN 230800Z AUTO 20006KT 7SM 28/18 A2977 RMK T02800180 IEM_DS3505
ZGNN,2001-02-23 09:00,ZGNN 230900Z AUTO 16004KT 12SM 26/19 A2977 RMK SLP073 T02600189 57018 IEM_DS3505
ZGNN,2001-02-23 10:00,ZGNN 231000Z AUTO 13010KT 6SM 25/19 A2977 RMK T02500190 IEM_DS3505
ZGNN,2001-02-23 11:00,ZGNN 231100Z AUTO 12004KT 6SM 23/20 A2977 RMK T02300200 IEM_DS3505
ZGNN,2001-02-23 12:00,ZGNN 231200Z AUTO 09004KT 11SM 23/20 A2980 RMK SLP083 T02270195 52009 IEM_DS3505
ZGNN,2001-02-23 13:00,ZGNN 231300Z AUTO 05002KT 6SM 21/19 A2980 RMK T02100190 IEM_DS3505
ZGNN,2001-02-23 14:00,ZGNN 231400Z AUTO 05002KT 6SM 20/19 A2983 RMK T02000190 IEM_DS3505
ZGNN,2001-02-23 15:00,ZGNN 231500Z AUTO 00000KT 7SM 20/19 RMK SLP100 T01970186 52017 IEM_DS3505
ZGNN,2001-02-23 18:00,ZGNN 231800Z AUTO 00000KT 7SM 18/17 RMK SLP104 T01770172 52005 IEM_DS3505
ZGNN,2001-02-23 21:00,ZGNN 232100Z AUTO 00000KT 4SM 19/19 A2985 RMK SLP107 T01920189 52003 IEM_DS3505
ZGNN,2001-02-23 22:00,ZGNN 232200Z AUTO 00000KT 3/8SM 19/19 A2988 RMK T01900190 IEM_DS3505
ZGNN,2001-02-23 23:00,ZGNN 232300Z AUTO 00000KT 1/8SM 19/19 A2988 RMK T01900190 IEM_DS3505
ZGNN,2001-02-24 00:00,ZGNN 240000Z AUTO 00000KT 1 1/4SM 19/19 RMK SLP128 T01920190 52020 IEM_DS3505
ZGNN,2001-02-24 01:00,ZGNN 240100Z AUTO 04006KT 1 1/4SM 20/19 A2994 RMK T02000190 IEM_DS3505
ZGNN,2001-02-24 02:00,ZGNN 240200Z AUTO 05002KT 2 1/2SM 20/20 A2994 RMK T02000200 IEM_DS3505
ZGNN,2001-02-24 03:00,ZGNN 240300Z AUTO 09004KT 5SM 21/19 A2997 RMK SLP147 T02130191 52018 IEM_DS3505
ZGNN,2001-02-24 04:00,ZGNN 240400Z AUTO 35004KT 7SM 18/16 A2997 RMK T01800160 IEM_DS3505
ZGNN,2001-02-24 05:00,ZGNN 240500Z AUTO 33008KT 7SM 18/16 A2997 RMK T01800160 IEM_DS3505
ZGNN,2001-02-24 06:00,ZGNN 240600Z AUTO 36006KT 7SM 18/15 A2997 RMK 60000 SLP149 T01800149 52001 IEM_DS3505
ZGNN,2001-02-24 07:00,ZGNN 240700Z AUTO 02016KT 7SM 17/15 RMK T01700150 IEM_DS3505
ZGNN,2001-02-24 08:00,ZGNN 240800Z AUTO 04012KT 7SM 15/14 A2994 RMK T01500140 IEM_DS3505
ZGNN,2001-02-24 09:00,ZGNN 240900Z AUTO 04004KT 5SM 13/13 A2997 RMK SLP154 T01340127 52004 IEM_DS3505
ZGNN,2001-02-24 10:00,ZGNN 241000Z AUTO 06010KT 7SM 14/13 A3000 RMK T01400130 IEM_DS3505
ZGNN,2001-02-24 11:00,ZGNN 241100Z AUTO 06010KT 7SM 14/12 A3003 RMK T01400120 IEM_DS3505
ZGNN,2001-02-24 12:00,ZGNN 241200Z AUTO 09002KT 7SM 13/12 A3003 RMK 60059 SLP164 T01320115 52010 IEM_DS3505
ZGNN,2001-02-24 13:00,ZGNN 241300Z AUTO 06008KT 7SM 13/11 A3006 RMK T01300110 IEM_DS3505
ZGNN,2001-02-24 15:00,ZGNN 241500Z AUTO 09004KT 7SM 13/10 RMK SLP180 T01280097 52016 IEM_DS3505
ZGNN,2001-02-24 18:00,ZGNN 241800Z AUTO 02006KT 6SM 12/11 RMK 60012 SLP178 T01240113 57003 IEM_DS3505
ZGNN,2001-02-24 21:00,ZGNN 242100Z AUTO 02006KT 6SM 11/10 A3006 RMK 70089 SLP187 T01120100 52008 IEM_DS3505
ZGNN,2001-02-24 22:00,ZGNN 242200Z AUTO 01006KT 2 1/2SM 11/10 A3006 RMK T01100100 IEM_DS3505
ZGNN,2001-02-24 23:00,ZGNN 242300Z AUTO 02006KT 4SM 11/10 A3009 RMK T01100100 IEM_DS3505
ZGNN,2001-02-25 00:00,ZGNN 250000Z AUTO 02002KT 6SM 11/10 A3012 RMK 60035 SLP201 T01080096 52013 IEM_DS3505
ZGNN,2001-02-25 01:00,ZGNN 250100Z AUTO 01006KT 5SM 10/09 A3015 RMK T01000090 IEM_DS3505
ZGNN,2001-02-25 02:00,ZGNN 250200Z AUTO 02006KT 2 1/2SM 10/09 A3015 RMK T01000090 IEM_DS3505
ZGNN,2001-02-25 03:00,ZGNN 250300Z AUTO 00000KT 5SM 10/10 A3021 RMK SLP224 T01020096 52023 IEM_DS3505
ZGNN,2001-02-25 04:00,ZGNN 250400Z AUTO 01008KT 2SM 11/10 A3018 RMK T01100100 IEM_DS3505
ZGNN,2001-02-25 05:00,ZGNN 250500Z AUTO 06006KT 2SM 11/10 A3012 RMK T01100100 IEM_DS3505
ZGNN,2001-02-25 06:00,ZGNN 250600Z AUTO 11006KT 7SM 12/10 A3012 RMK 60051 SLP196 T01200101 57028 IEM_DS3505
ZGNN,2001-02-25 07:00,ZGNN 250700Z AUTO 06010KT 7SM 12/10 A3006 RMK T01200100 IEM_DS3505
ZGNN,2001-02-25 08:00,ZGNN 250800Z AUTO 01008KT 7SM 12/09 A3006 RMK T01200090 IEM_DS3505
ZGNN,2001-02-25 09:00,ZGNN 250900Z AUTO 02004KT 7SM 12/09 A3009 RMK SLP186 T01160092 57010 IEM_DS3505
ZGNN,2001-02-25 10:00,ZGNN 251000Z AUTO 03006KT 7SM 11/09 A3009 RMK T01100090 IEM_DS3505
ZGNN,2001-02-25 11:00,ZGNN 251100Z AUTO 02006KT 1 1/2SM 11/10 A3012 RMK T01100100 IEM_DS3505
ZGNN,2001-02-25 12:00,ZGNN 251200Z AUTO 07002KT 4SM 10/10 A3012 RMK 60001 SLP206 T01040096 52019 IEM_DS3505
ZGNN,2001-02-25 13:00,ZGNN 251300Z AUTO 06008KT 1 1/2SM 10/09 A3015 RMK T01000090 IEM_DS3505
ZGNN,2001-02-25 14:00,ZGNN 251400Z AUTO 06010KT 1 1/2SM 10/09 A3015 RMK T01000090 IEM_DS3505
ZGNN,2001-02-25 15:00,ZGNN 251500Z AUTO 04002KT 4SM 09/09 RMK SLP216 T00940088 52010 IEM_DS3505
ZGNN,2001-02-25 18:00,ZGNN 251800Z AUTO 04004KT 4SM 09/08 RMK 60001 SLP210 T00900084 57006 IEM_DS3505
ZGNN,2001-02-25 21:00,ZGNN 252100Z AUTO 00000KT 4SM 09/09 A3012 RMK 70078 SLP199 T00930089 57011 IEM_DS3505
ZGNN,2001-02-25 22:00,ZGNN 252200Z AUTO 09004KT 1 1/4SM 10/09 A3012 RMK T01000090 IEM_DS3505
ZGNN,2001-02-25 23:00,ZGNN 252300Z AUTO 07006KT 1 1/4SM 10/09 A3012 RMK T01000090 IEM_DS3505
ZGNN,2001-02-26 00:00,ZGNN 260000Z AUTO 14002KT 4SM 10/09 A3015 RMK 60008 SLP211 T00960092 52012 IEM_DS3505
ZGNN,2001-02-26 01:00,ZGNN 260100Z AUTO 02004KT 1 1/4SM 10/09 A3015 RMK T01000090 IEM_DS3505
ZGNN,2001-02-26 02:00,ZGNN 260200Z AUTO 04002KT 1 1/2SM 10/09 A3018 RMK T01000090 IEM_DS3505
ZGNN,2001-02-26 03:00,ZGNN 260300Z AUTO 04004KT 2SM 10/09 A3018 RMK SLP218 T00970091 52007 IEM_DS3505
ZGNN,2001-02-26 04:00,ZGNN 260400Z AUTO 04004KT 1 1/2SM 10/10 A3015 RMK T01000100 IEM_DS3505
ZGNN,2001-02-26 05:00,ZGNN 260500Z AUTO 03004KT 1 1/2SM 10/10 A3012 RMK T01000100 IEM_DS3505
ZGNN,2001-02-26 06:00,ZGNN 260600Z AUTO 09004KT 5SM 10/09 A3012 RMK 60000 SLP195 T01050093 57023 IEM_DS3505
ZGNN,2001-02-26 07:00,ZGNN 260700Z AUTO 05004KT 4SM 11/10 A3006 RMK T01100100 IEM_DS3505
ZGNN,2001-02-26 08:00,ZGNN 260800Z AUTO 05004KT 3SM 11/10 A3006 RMK T01100100 IEM_DS3505
ZGNN,2001-02-26 09:00,ZGNN 260900Z AUTO 11004KT 4SM 11/10 A3003 RMK SLP174 T01090097 57020 IEM_DS3505
ZGNN,2001-02-26 10:00,ZGNN 261000Z AUTO 12006KT 1 1/4SM 11/10 A3006 RMK T01100100 IEM_DS3505
ZGNN,2001-02-26 11:00,ZGNN 261100Z AUTO 07002KT 1 1/4SM 11/10 A3006 RMK T01100100 IEM_DS3505
ZGNN,2001-02-26 12:00,ZGNN 261200Z AUTO 09004KT 4SM 10/10 A3006 RMK 60000 SLP185 T01040100 52010 IEM_DS3505
ZGNN,2001-02-26 13:00,ZGNN 261300Z AUTO 10004KT 1SM 10/10 A3009 RMK T01000100 IEM_DS3505
ZGNN,2001-02-26 14:00,ZGNN 261400Z AUTO 09004KT 1SM 10/10 A3012 RMK T01000100 IEM_DS3505
ZGNN,2001-02-26 15:00,ZGNN 261500Z AUTO 09002KT 2 1/2SM 10/10 RMK SLP198 T01030099 52013 IEM_DS3505
ZGNN,2001-02-26 18:00,ZGNN 261800Z AUTO 00000KT 2SM 10/10 RMK 60002 SLP192 T01040100 57005 IEM_DS3505
ZGNN,2001-02-26 21:00,ZGNN 262100Z AUTO 00000KT 2 1/2SM 11/10 RMK 70004 SLP189 T01060102 57003 IEM_DS3505
ZGNN,2001-02-26 22:00,ZGNN 262200Z AUTO 00000KT 1 1/2SM 11/10 A3009 RMK T01100100 IEM_DS3505
ZGNN,2001-02-26 23:00,ZGNN 262300Z AUTO 00000KT 1SM 11/10 A3012 RMK T01100100 IEM_DS3505
ZGNN,2001-02-27 00:00,ZGNN 270000Z AUTO 00000KT 2SM 11/11 A3015 RMK 60001 SLP208 T01080106 52018 IEM_DS3505
ZGNN,2001-02-27 01:00,ZGNN 270100Z AUTO 03002KT 1SM 11/11 A3018 RMK T01100110 IEM_DS3505
ZGNN,2001-02-27 02:00,ZGNN 270200Z AUTO 02004KT 1SM 12/11 A3018 RMK T01200110 IEM_DS3505
ZGNN,2001-02-27 03:00,ZGNN 270300Z AUTO 14004KT 2SM 12/12 A3021 RMK SLP226 T01190115 52018 IEM_DS3505
ZGNN,2001-02-27 04:00,ZGNN 270400Z AUTO 00000KT 1 1/4SM 12/12 A3018 RMK T01200120 IEM_DS3505
ZGNN,2001-02-27 05:00,ZGNN 270500Z AUTO 03004KT 1 1/4SM 13/12 A3015 RMK T01300120 IEM_DS3505
ZGNN,2001-02-27 06:00,ZGNN 270600Z AUTO 36004KT 1 1/4SM 13/12 A3012 RMK 60000 SLP203 T01310120 57022 IEM_DS3505
ZGNN,2001-02-27 07:00,ZGNN 270700Z AUTO 00000KT 1SM 13/13 A3012 RMK T01300130 IEM_DS3505
ZGNN,2001-02-27 08:00,ZGNN 270800Z AUTO 00000KT 1SM 13/13 A3012 RMK T01300130 IEM_DS3505
ZGNN,2001-02-27 09:00,ZGNN 270900Z AUTO 04004KT 3SM 13/12 A3012 RMK SLP199 T01310124 57004 IEM_DS3505
ZGNN,2001-02-27 10:00,ZGNN 271000Z AUTO 03004KT 4SM 13/12 A3012 RMK T01300120 IEM_DS3505
ZGNN,2001-02-27 11:00,ZGNN 271100Z AUTO 00000KT 2SM 13/12 A3012 RMK T01300120 IEM_DS3505
ZGNN,2001-02-27 12:00,ZGNN 271200Z AUTO 00000KT 6SM 12/12 A3015 RMK 60002 SLP210 T01240118 52011 IEM_DS3505
ZGNN,2001-02-27 13:00,ZGNN 271300Z AUTO 01004KT 2SM 12/11 A3018 RMK T01200110 IEM_DS3505
ZGNN,2001-02-27 14:00,ZGNN 271400Z AUTO 00000KT 2SM 12/11 A3018 RMK T01200110 IEM_DS3505
ZGNN,2001-02-27 15:00,ZGNN 271500Z AUTO 00000KT 9SM 12/11 RMK SLP222 T01220111 52012 IEM_DS3505
ZGNN,2001-02-27 18:00,ZGNN 271800Z AUTO 32006KT 11SM 12/11 RMK 60003 SLP218 T01230108 57004 IEM_DS3505
ZGNN,2001-02-27 21:00,ZGNN 272100Z AUTO 32006KT 9SM 12/10 A3018 RMK 70003 SLP217 T01200096 57001 IEM_DS3505
ZGNN,2001-02-27 22:00,ZGNN 272200Z AUTO 36006KT 7SM 12/09 A3018 RMK T01200090 IEM_DS3505
ZGNN,2001-02-27 23:00,ZGNN 272300Z AUTO 35008KT 7SM 12/09 A3021 RMK T01200090 IEM_DS3505
ZGNN,2001-02-28 00:00,ZGNN 280000Z AUTO 34010KT 12SM 12/08 A3021 RMK 70002 SLP238 T01200084 52021 IEM_DS3505
ZGNN,2001-02-28 01:00,ZGNN 280100Z AUTO 32006KT 7SM 12/08 A3024 RMK T01200080 IEM_DS3505
ZGNN,2001-02-28 02:00,ZGNN 280200Z AUTO 34006KT 7SM 13/08 A3027 RMK T01300080 IEM_DS3505
ZGNN,2001-02-28 03:00,ZGNN 280300Z AUTO 34004KT 16SM 14/09 A3024 RMK SLP242 T01390088 52004 IEM_DS3505
ZGNN,2001-02-28 04:00,ZGNN 280400Z AUTO 32006KT 7SM 15/09 A3024 RMK T01500090 IEM_DS3505
ZGNN,2001-02-28 05:00,ZGNN 280500Z AUTO 36006KT 7SM 16/09 A3021 RMK T01600090 IEM_DS3505
ZGNN,2001-02-28 06:00,ZGNN 280600Z AUTO 34006KT 17SM 16/09 A3018 RMK SLP217 T01560086 57024 IEM_DS3505
ZGNN,2001-02-28 07:00,ZGNN 280700Z AUTO 34008KT 7SM 16/09 A3015 RMK T01600090 IEM_DS3505
ZGNN,2001-02-28 08:00,ZGNN 280800Z AUTO 34006KT 7SM 16/11 A3012 RMK T01600110 IEM_DS3505
ZGNN,2001-02-28 09:00,ZGNN 280900Z AUTO 34006KT 16SM 17/10 A3012 RMK SLP194 T01660102 57022 IEM_DS3505
ZGNN,2001-02-28 10:00,ZGNN 281000Z AUTO 00000KT 6SM 17/10 A3012 RMK T01700100 IEM_DS3505
ZGNN,2001-02-28 11:00,ZGNN 281100Z AUTO 00000KT 6SM 16/11 A3012 RMK T01600110 IEM_DS3505
ZGNN,2001-02-28 12:00,ZGNN 281200Z AUTO 00000KT 16SM 15/12 A3015 RMK SLP215 T01500121 52020 IEM_DS3505
ZGNN,2001-02-28 13:00,ZGNN 281300Z AUTO 00000KT 6SM 14/12 A3018 RMK T01400120 IEM_DS3505
ZGNN,2001-02-28 14:00,ZGNN 281400Z AUTO 00000KT 6SM 12/11 A3021 RMK T01200110 IEM_DS3505
ZGNN,2001-02-28 15:00,ZGNN 281500Z AUTO 00000KT 12SM 11/10 RMK SLP234 T01140102 52018 IEM_DS3505
ZGNN,2001-02-28 16:00,ZGNN 281600Z AUTO 25004KT 2 1/2SM 11/09 A3018 RMK T01100090 IEM_DS3505
ZGNN,2001-02-28 17:00,ZGNN 281700Z AUTO 31002KT 1 1/2SM 10/09 A3018 RMK T01000090 IEM_DS3505
ZGNN,2001-02-28 18:00,ZGNN 281800Z AUTO 00000KT 9SM 10/09 A3018 RMK SLP232 T00980090 57002 IEM_DS3505
ZGNN,2001-02-28 19:00,ZGNN 281900Z AUTO 33002KT 1 1/4SM 10/09 A3018 RMK T01000090 IEM_DS3505
ZGNN,2001-02-28 20:00,ZGNN 282000Z AUTO 00000KT 1SM 09/08 A3018 RMK T00900080 IEM_DS3505
ZGNN,2001-02-28 21:00,ZGNN 282100Z AUTO 00000KT 2 1/2SM 09/09 A3018 RMK SLP228 T00910089 57004 IEM_DS3505
ZGNN,2001-02-28 22:00,ZGNN 282200Z AUTO 00000KT 1 1/2SM 09/09 A3018 RMK T00900090 IEM_DS3505
ZGNN,2001-02-28 23:00,ZGNN 282300Z AUTO 00000KT 1 1/4SM 09/08 A3021 RMK T00900080 IEM_DS3505
ZGNN,2001-03-01 00:00,ZGNN 010000Z AUTO 00000KT 2SM 08/08 A3021 RMK SLP241 T00830081 52012 IEM_DS3505
ZGNN,2001-03-01 01:00,ZGNN 010100Z AUTO 1 1/2SM 11/10 A3024 RMK T01100100 IEM_DS3505
ZGNN,2001-03-01 02:00,ZGNN 010200Z AUTO 4SM 14/10 A3024 RMK T01400100 IEM_DS3505
ZGNN,2001-03-01 03:00,ZGNN 010300Z AUTO 27002KT 16SM 17/08 A3024 RMK SLP250 T01670081 52011 IEM_DS3505
ZGNN,2001-03-01 04:00,ZGNN 010400Z AUTO 6SM 17/07 A3021 RMK T01700070 IEM_DS3505
ZGNN,2001-03-01 05:00,ZGNN 010500Z AUTO 6SM 18/06 A3018 RMK T01800060 IEM_DS3505
ZGNN,2001-03-01 06:00,ZGNN 010600Z AUTO 29006KT 16SM 20/09 A3015 RMK SLP213 T01980088 57036 IEM_DS3505
ZGNN,2001-03-01 07:00,ZGNN 010700Z AUTO 6SM 20/09 A3009 RMK T02000090 IEM_DS3505
ZGNN,2001-03-01 08:00,ZGNN 010800Z AUTO 6SM 21/09 A3006 RMK T02100090 IEM_DS3505
ZGNN,2001-03-01 09:00,ZGNN 010900Z AUTO 07004KT 12SM 21/09 A3006 RMK SLP187 T02070089 57026 IEM_DS3505
ZGNN,2001-03-01 10:00,ZGNN 011000Z AUTO 6SM 20/08 A3003 RMK T02000080 IEM_DS3505
ZGNN,2001-03-01 11:00,ZGNN 011100Z AUTO 08002KT 6SM 18/10 A3003 RMK T01800100 IEM_DS3505
ZGNN,2001-03-01 12:00,ZGNN 011200Z AUTO 00000KT 12SM 16/11 A3006 RMK SLP185 T01590113 57003 IEM_DS3505
ZGNN,2001-03-01 13:00,ZGNN 011300Z AUTO 02006KT 4SM 15/11 A3009 RMK T01500110 IEM_DS3505
ZGNN,2001-03-01 14:00,ZGNN 011400Z AUTO 02002KT 4SM 16/10 A3009 RMK T01600100 IEM_DS3505
ZGNN,2001-03-01 15:00,ZGNN 011500Z AUTO 00000KT 9SM 13/10 A3009 RMK SLP199 T01320101 52015 IEM_DS3505
ZGNN,2001-03-01 16:00,ZGNN 011600Z AUTO 00000KT 3SM 13/10 A3009 RMK T01300100 IEM_DS3505
ZGNN,2001-03-01 17:00,ZGNN 011700Z AUTO 35002KT 2SM 13/10 A3009 RMK T01300100 IEM_DS3505
ZGNN,2001-03-01 18:00,ZGNN 011800Z AUTO 00000KT 7SM 12/09 A3006 RMK SLP191 T01180094 57008 IEM_DS3505
ZGNN,2001-03-01 19:00,ZGNN 011900Z AUTO 33004KT 6SM 12/09 A3006 RMK T01200090 IEM_DS3505
ZGNN,2001-03-01 20:00,ZGNN 012000Z AUTO 36002KT 4SM 11/09 A3006 RMK T01100090 IEM_DS3505
ZGNN,2001-03-01 21:00,ZGNN 012100Z AUTO 00000KT 7SM 11/10 A3006 RMK SLP186 T01130095 57004 IEM_DS3505
ZGNN,2001-03-01 22:00,ZGNN 012200Z AUTO 02006KT 2 1/2SM 12/09 A3006 RMK T01200090 IEM_DS3505
ZGNN,2001-03-01 23:00,ZGNN 012300Z AUTO 03002KT 4SM 13/09 A3009 RMK T01300090 IEM_DS3505
ZGNN,2001-03-02 00:00,ZGNN 020000Z AUTO 00000KT 7SM 12/10 A3009 RMK SLP204 T01230102 52016 IEM_DS3505
ZGNN,2001-03-02 01:00,ZGNN 020100Z AUTO 03002KT 4SM 14/09 A3012 RMK T01400090 IEM_DS3505
ZGNN,2001-03-02 02:00,ZGNN 020200Z AUTO 5SM 16/10 A3012 RMK T01600100 IEM_DS3505
ZGNN,2001-03-02 03:00,ZGNN 020300Z AUTO 14004KT 9SM 17/12 A3012 RMK SLP207 T01740120 52004 IEM_DS3505
ZGNN,2001-03-02 05:00,ZGNN 020500Z AUTO 11006KT 6SM 18/13 A3006 RMK T01800130 IEM_DS3505
ZGNN,2001-03-02 06:00,ZGNN 020600Z AUTO 14006KT 9SM 19/13 A3003 RMK SLP172 T01940127 57034 IEM_DS3505
ZGNN,2001-03-02 07:00,ZGNN 020700Z AUTO 14008KT 6SM 20/12 A2997 RMK T02000120 IEM_DS3505
ZGNN,2001-03-02 08:00,ZGNN 020800Z AUTO 13006KT 6SM 20/13 A2994 RMK T02000130 IEM_DS3505
ZGNN,2001-03-02 09:00,ZGNN 020900Z AUTO 14008KT 7SM 21/14 A2994 RMK SLP148 T02080140 57024 IEM_DS3505
ZGNN,2001-03-02 10:00,ZGNN 021000Z AUTO 12008KT 7SM 20/14 A2994 RMK T02000140 IEM_DS3505
ZGNN,2001-03-02 11:00,ZGNN 021100Z AUTO 13006KT 7SM 19/15 A2994 RMK T01900150 IEM_DS3505
ZGNN,2001-03-02 12:00,ZGNN 021200Z AUTO 09004KT 9SM 19/16 A2997 RMK SLP157 T01920155 52009 IEM_DS3505
ZGNN,2001-03-02 13:00,ZGNN 021300Z AUTO 10004KT 7SM 19/15 A3000 RMK T01900150 IEM_DS3505
ZGNN,2001-03-02 14:00,ZGNN 021400Z AUTO 06004KT 4SM 18/15 A3000 RMK T01800150 IEM_DS3505
ZGNN,2001-03-02 15:00,ZGNN 021500Z AUTO 07002KT 8SM 18/16 A3006 RMK SLP180 T01840161 52024 IEM_DS3505
ZGNN,2001-03-02 16:00,ZGNN 021600Z AUTO 07004KT 2 1/2SM 18/15 A3006 RMK T01800150 IEM_DS3505
ZGNN,2001-03-02 17:00,ZGNN 021700Z AUTO 04004KT 2SM 17/15 A3006 RMK T01700150 IEM_DS3505
ZGNN,2001-03-02 18:00,ZGNN 021800Z AUTO 00000KT 6SM 18/16 A3006 RMK 60003 SLP181 T01750162 52001 IEM_DS3505
ZGNN,2001-03-02 19:00,ZGNN 021900Z AUTO 06006KT 1 1/4SM 17/15 A3006 RMK T01700150 IEM_DS3505
ZGNN,2001-03-02 20:00,ZGNN 022000Z AUTO 05004KT 1SM 16/15 A3006 RMK T01600150 IEM_DS3505
ZGNN,2001-03-02 21:00,ZGNN 022100Z AUTO 00000KT 5SM 17/16 A3006 RMK 70003 SLP184 T01660156 52003 IEM_DS3505
ZGNN,2001-03-02 22:00,ZGNN 022200Z AUTO 02004KT 1SM 16/15 A3009 RMK T01600150 IEM_DS3505
ZGNN,2001-03-02 23:00,ZGNN 022300Z AUTO 03006KT 1SM 16/15 A3009 RMK T01600150 IEM_DS3505
ZGNN,2001-03-03 00:00,ZGNN 030000Z AUTO 00000KT 1 1/4SM 16/16 A3012 RMK 60004 SLP209 T01600157 52024 IEM_DS3505
ZGNN,2001-03-03 01:00,ZGNN 030100Z AUTO 35006KT 1 1/4SM 16/15 A3015 RMK T01600150 IEM_DS3505
ZGNN,2001-03-03 02:00,ZGNN 030200Z AUTO 35006KT 1 1/2SM 16/14 A3018 RMK T01600140 IEM_DS3505
ZGNN,2001-03-03 03:00,ZGNN 030300Z AUTO 34010KT 2SM 15/14 A3018 RMK SLP230 T01540144 52020 IEM_DS3505
ZGNN,2001-03-03 04:00,ZGNN 030400Z AUTO 34010KT 2SM 15/13 A3018 RMK T01500130 IEM_DS3505
ZGNN,2001-03-03 05:00,ZGNN 030500Z AUTO 34006KT 2SM 15/13 A3015 RMK T01500130 IEM_DS3505
ZGNN,2001-03-03 06:00,ZGNN 030600Z AUTO 34006KT 3SM 16/14 A3015 RMK 60002 SLP213 T01560142 57017 IEM_DS3505
ZGNN,2001-03-03 07:00,ZGNN 030700Z AUTO 2 1/2SM 16/13 A3012 RMK T01600130 IEM_DS3505
ZGNN,2001-03-03 08:00,ZGNN 030800Z AUTO 2 1/2SM 17/13 A3012 RMK T01700130 IEM_DS3505
ZGNN,2001-03-03 09:00,ZGNN 030900Z AUTO 00000KT 5SM 17/15 A3012 RMK SLP206 T01700146 57006 IEM_DS3505
ZGNN,2001-03-03 10:00,ZGNN 031000Z AUTO 03002KT 2 1/2SM 17/14 A3012 RMK T01700140 IEM_DS3505
ZGNN,2001-03-03 11:00,ZGNN 031100Z AUTO 00000KT 2SM 17/15 A3015 RMK T01700150 IEM_DS3505
ZGNN,2001-03-03 12:00,ZGNN 031200Z AUTO 00000KT 4SM 17/15 A3018 RMK SLP223 T01660154 52016 IEM_DS3505
ZGNN,2001-03-03 13:00,ZGNN 031300Z AUTO 00000KT 2SM 17/14 A3021 RMK T01700140 IEM_DS3505
ZGNN,2001-03-03 14:00,ZGNN 031400Z AUTO 30002KT 2SM 16/14 A3021 RMK T01600140 IEM_DS3505
ZGNN,2001-03-03 15:00,ZGNN 031500Z AUTO 36002KT 5SM 15/14 A3024 RMK SLP246 T01540145 52022 IEM_DS3505
ZGNN,2001-03-03 17:00,ZGNN 031700Z AUTO 00000KT 1SM 14/13 A3027 RMK T01400130 IEM_DS3505
ZGNN,2001-03-03 18:00,ZGNN 031800Z AUTO 00000KT 7SM 15/10 A3024 RMK SLP252 T01520105 52006 IEM_DS3505
ZGNN,2001-03-03 19:00,ZGNN 031900Z AUTO 02004KT 1SM 15/11 A3024 RMK T01500110 IEM_DS3505
ZGNN,2001-03-03 20:00,ZGNN 032000Z AUTO 00000KT 1SM 13/11 A3024 RMK T01300110 IEM_DS3505
ZGNN,2001-03-03 21:00,ZGNN 032100Z AUTO 00000KT 6SM 12/10 A3021 RMK 70005 SLP239 T01230104 57013 IEM_DS3505
ZGNN,2001-03-03 22:00,ZGNN 032200Z AUTO 00000KT 4SM 12/10 A3024 RMK T01200100 IEM_DS3505
ZGNN,2001-03-03 23:00,ZGNN 032300Z AUTO 24002KT 2SM 11/10 A3024 RMK T01100100 IEM_DS3505
ZGNN,2001-03-04 00:00,ZGNN 040000Z AUTO 00000KT 5SM 11/10 A3027 RMK 70002 SLP255 T01080098 52015 IEM_DS3505
ZGNN,2001-03-04 01:00,ZGNN 040100Z AUTO 00000KT 1 1/4SM 13/11 A3027 RMK T01300110 IEM_DS3505
ZGNN,2001-03-04 02:00,ZGNN 040200Z AUTO 7SM 17/10 A3027 RMK T01700100 IEM_DS3505
ZGNN,2001-03-04 03:00,ZGNN 040300Z AUTO 09004KT 12SM 19/08 A3027 RMK SLP250 T01890076 57003 IEM_DS3505
ZGNN,2001-03-04 04:00,ZGNN 040400Z AUTO 05008KT 6SM 20/06 A3024 RMK T02000060 IEM_DS3505
ZGNN,2001-03-04 05:00,ZGNN 040500Z AUTO 06008KT 6SM 21/06 A3018 RMK T02100060 IEM_DS3505
ZGNN,2001-03-04 06:00,ZGNN 040600Z AUTO 36002KT 12SM 22/07 A3015 RMK SLP208 T02200066 57040 IEM_DS3505
ZGNN,2001-03-04 07:00,ZGNN 040700Z AUTO 6SM 22/05 A3009 RMK T02200050 IEM_DS3505
ZGNN,2001-03-04 08:00,ZGNN 040800Z AUTO 14006KT 6SM 22/04 A3006 RMK T02200040 IEM_DS3505
ZGNN,2001-03-04 09:00,ZGNN 040900Z AUTO 22002KT 12SM 22/08 A3003 RMK SLP172 T02230079 57037 IEM_DS3505
ZGNN,2001-03-04 10:00,ZGNN 041000Z AUTO 14002KT 6SM 22/08 A3003 RMK T02200080 IEM_DS3505
ZGNN,2001-03-04 11:00,ZGNN 041100Z AUTO 12004KT 6SM 20/10 A3000 RMK T02000100 IEM_DS3505
ZGNN,2001-03-04 12:00,ZGNN 041200Z AUTO 00000KT 7SM 18/12 A3003 RMK SLP174 T01780116 52001 IEM_DS3505
ZGNN,2001-03-04 13:00,ZGNN 041300Z AUTO 00000KT 18/12 A3003 RMK T01800120 IEM_DS3505
ZGNN,2001-03-04 14:00,ZGNN 041400Z AUTO 23002KT 17/11 A3006 RMK T01700110 IEM_DS3505
ZGNN,2001-03-04 15:00,ZGNN 041500Z AUTO 00000KT 7SM 15/12 A3006 RMK SLP182 T01460116 52009 IEM_DS3505
ZGNN,2001-03-04 16:00,ZGNN 041600Z AUTO 00000KT 2SM 14/11 A3006 RMK T01400110 IEM_DS3505
ZGNN,2001-03-04 17:00,ZGNN 041700Z AUTO 00000KT 4SM 16/08 A3003 RMK T01600080 IEM_DS3505
ZGNN,2001-03-04 18:00,ZGNN 041800Z AUTO 00000KT 7SM 14/10 A3003 RMK SLP171 T01420096 57010 IEM_DS3505
ZGNN,2001-03-04 19:00,ZGNN 041900Z AUTO 1 1/2SM 15/07 A3000 RMK T01500070 IEM_DS3505
ZGNN,2001-03-04 20:00,ZGNN 042000Z AUTO 08002KT 7SM 15/08 A3000 RMK T01500080 IEM_DS3505
ZGNN,2001-03-04 21:00,ZGNN 042100Z AUTO 00000KT 9SM 14/10 A3000 RMK SLP162 T01350098 57009 IEM_DS3505
ZGNN,2001-03-04 22:00,ZGNN 042200Z AUTO 5SM 14/09 A3000 RMK T01400090 IEM_DS3505
ZGNN,2001-03-04 23:00,ZGNN 042300Z AUTO 6SM 13/10 A3000 RMK T01300100 IEM_DS3505
ZGNN,2001-03-05 00:00,ZGNN 050000Z AUTO 00000KT 7SM 14/11 A3003 RMK SLP176 T01360108 52013 IEM_DS3505
ZGNN,2001-03-05 01:00,ZGNN 050100Z AUTO 02004KT 5SM 15/11 A3006 RMK T01500110 IEM_DS3505
ZGNN,2001-03-05 02:00,ZGNN 050200Z AUTO 6SM 16/12 A3006 RMK T01600120 IEM_DS3505
ZGNN,2001-03-05 03:00,ZGNN 050300Z AUTO 14004KT 7SM 18/12 A3006 RMK SLP186 T01760122 52010 IEM_DS3505
ZGNN,2001-03-05 04:00,ZGNN 050400Z AUTO 12008KT 7SM 19/14 A3003 RMK T01900140 IEM_DS3505
ZGNN,2001-03-05 05:00,ZGNN 050500Z AUTO 14008KT 7SM 21/15 A2997 RMK T02100150 IEM_DS3505
ZGNN,2001-03-05 06:00,ZGNN 050600Z AUTO 16004KT 9SM 21/15 A2994 RMK SLP144 T02070152 57041 IEM_DS3505
ZGNN,2001-03-05 07:00,ZGNN 050700Z AUTO 14012KT 7SM 21/15 A2991 RMK T02100150 IEM_DS3505
ZGNN,2001-03-05 08:00,ZGNN 050800Z AUTO 13010KT 7SM 21/16 A2985 RMK T02100160 IEM_DS3505
ZGNN,2001-03-05 09:00,ZGNN 050900Z AUTO 14006KT 9SM 21/17 A2985 RMK SLP118 T02080166 57026 IEM_DS3505
ZGNN,2001-03-05 10:00,ZGNN 051000Z AUTO 14008KT 7SM 20/16 A2985 RMK T02000160 IEM_DS3505
ZGNN,2001-03-05 11:00,ZGNN 051100Z AUTO 14006KT 7SM 20/16 A2988 RMK T02000160 IEM_DS3505
ZGNN,2001-03-05 12:00,ZGNN 051200Z AUTO 14004KT 9SM 20/17 A2988 RMK SLP131 T02000167 52013 IEM_DS3505
ZGNN,2001-03-05 13:00,ZGNN 051300Z AUTO 15006KT 7SM 19/16 A2991 RMK T01900160 IEM_DS3505
ZGNN,2001-03-05 14:00,ZGNN 051400Z AUTO 14004KT 7SM 19/16 A2994 RMK T01900160 IEM_DS3505
ZGNN,2001-03-05 15:00,ZGNN 051500Z AUTO 18002KT 7SM 19/17 A2994 RMK SLP147 T01900169 52016 IEM_DS3505
ZGNN,2001-03-05 16:00,ZGNN 051600Z AUTO 7SM 19/16 A2994 RMK T01900160 IEM_DS3505
ZGNN,2001-03-05 17:00,ZGNN 051700Z AUTO 7SM 19/16 A2994 RMK T01900160 IEM_DS3505
ZGNN,2001-03-05 18:00,ZGNN 051800Z AUTO 14002KT 7SM 19/17 A2994 RMK SLP143 T01900170 57003 IEM_DS3505
ZGNN,2001-03-05 19:00,ZGNN 051900Z AUTO 7SM 19/16 A2991 RMK T01900160 IEM_DS3505
ZGNN,2001-03-05 20:00,ZGNN 052000Z AUTO 7SM 18/16 A2991 RMK T01800160 IEM_DS3505
ZGNN,2001-03-05 21:00,ZGNN 052100Z AUTO 00000KT 7SM 19/17 A2991 RMK SLP135 T01880168 57008 IEM_DS3505
ZGNN,2001-03-05 22:00,ZGNN 052200Z AUTO 4SM 18/16 A2991 RMK T01800160 IEM_DS3505
ZGNN,2001-03-05 23:00,ZGNN 052300Z AUTO 12004KT 4SM 18/16 A2994 RMK T01800160 IEM_DS3505
ZGNN,2001-03-06 00:00,ZGNN 060000Z AUTO 00000KT 5SM 19/17 A2994 RMK SLP147 T01880173 52012 IEM_DS3505
ZGNN,2001-03-06 01:00,ZGNN 060100Z AUTO 12004KT 2SM 19/17 A2997 RMK T01900170 IEM_DS3505
ZGNN,2001-03-06 02:00,ZGNN 060200Z AUTO 2SM 19/17 A2997 RMK T01900170 IEM_DS3505
ZGNN,2001-03-06 03:00,ZGNN 060300Z AUTO 14004KT 4SM 20/18 A2997 RMK SLP156 T02010184 52009 IEM_DS3505
ZGNN,2001-03-06 04:00,ZGNN 060400Z AUTO 15008KT 5SM 21/18 A2997 RMK T02100180 IEM_DS3505
ZGNN,2001-03-06 05:00,ZGNN 060500Z AUTO 14008KT 7SM 21/18 A2994 RMK T02100180 IEM_DS3505
ZGNN,2001-03-06 06:00,ZGNN 060600Z AUTO 14006KT 7SM 22/18 A2991 RMK SLP127 T02160184 57028 IEM_DS3505
ZGNN,2001-03-06 07:00,ZGNN 060700Z AUTO 14010KT 7SM 22/18 A2988 RMK T02200180 IEM_DS3505
ZGNN,2001-03-06 08:00,ZGNN 060800Z AUTO 13008KT 7SM 21/18 A2985 RMK T02100180 IEM_DS3505
ZGNN,2001-03-06 09:00,ZGNN 060900Z AUTO 14006KT 7SM 22/18 A2985 RMK SLP115 T02160184 57012 IEM_DS3505
ZGNN,2001-03-06 10:00,ZGNN 061000Z AUTO 15008KT 7SM 21/18 A2985 RMK T02100180 IEM_DS3505
ZGNN,2001-03-06 11:00,ZGNN 061100Z AUTO 15008KT 7SM 21/18 A2988 RMK T02100180 IEM_DS3505
ZGNN,2001-03-06 12:00,ZGNN 061200Z AUTO 22004KT 9SM 21/18 A2988 RMK SLP129 T02120184 52013 IEM_DS3505
ZGNN,2001-03-06 13:00,ZGNN 061300Z AUTO 17004KT 7SM 21/17 A2991 RMK T02100170 IEM_DS3505
ZGNN,2001-03-06 14:00,ZGNN 061400Z AUTO 7SM 21/17 A2994 RMK T02100170 IEM_DS3505
ZGNN,2001-03-06 15:00,ZGNN 061500Z AUTO 18002KT 9SM 21/18 A2994 RMK SLP149 T02100181 52020 IEM_DS3505
ZGNN,2001-03-06 17:00,ZGNN 061700Z AUTO 12004KT 4SM 19/18 A2994 RMK T01900180 IEM_DS3505
ZGNN,2001-03-06 18:00,ZGNN 061800Z AUTO 04002KT 7SM 19/18 A2991 RMK SLP143 T01900180 57006 IEM_DS3505
ZGNN,2001-03-06 19:00,ZGNN 061900Z AUTO 4SM 19/18 A2991 RMK T01900180 IEM_DS3505
ZGNN,2001-03-06 20:00,ZGNN 062000Z AUTO 3SM 19/18 A2991 RMK T01900180 IEM_DS3505
ZGNN,2001-03-06 21:00,ZGNN 062100Z AUTO 00000KT 7SM 19/19 A2991 RMK SLP136 T01920186 57006 IEM_DS3505
ZGNN,2001-03-06 22:00,ZGNN 062200Z AUTO 35002KT 2 1/2SM 19/18 A2994 RMK T01900180 IEM_DS3505
ZGNN,2001-03-06 23:00,ZGNN 062300Z AUTO 00000KT 2SM 19/18 A2994 RMK T01900180 IEM_DS3505
ZGNN,2001-03-07 00:00,ZGNN 070000Z AUTO 00000KT 2 1/2SM 19/19 A2997 RMK SLP158 T01920186 52021 IEM_DS3505
ZGNN,2001-03-07 01:00,ZGNN 070100Z AUTO 07002KT 1 1/4SM 20/18 A3000 RMK T02000180 IEM_DS3505
ZGNN,2001-03-07 02:00,ZGNN 070200Z AUTO 3SM 21/19 A3000 RMK T02100190 IEM_DS3505
ZGNN,2001-03-07 03:00,ZGNN 070300Z AUTO 10006KT 7SM 23/19 A3000 RMK T02300190 IEM_DS3505
ZGNN,2001-03-07 04:00,ZGNN 070400Z AUTO 7SM 24/18 A2997 RMK T02400180 IEM_DS3505
ZGNN,2001-03-07 05:00,ZGNN 070500Z AUTO 7SM 24/18 A2997 RMK T02400180 IEM_DS3505
ZGNN,2001-03-07 06:00,ZGNN 070600Z AUTO 02004KT 9SM 23/20 A2994 RMK SLP141 T02300198 57026 IEM_DS3505
ZGNN,2001-03-07 07:00,ZGNN 070700Z AUTO 05010KT 4SM 22/19 A2991 RMK T02200190 IEM_DS3505
ZGNN,2001-03-07 08:00,ZGNN 070800Z AUTO 04012KT 5SM 20/16 A2991 RMK T02000160 IEM_DS3505
ZGNN,2001-03-07 09:00,ZGNN 070900Z AUTO 07004KT 12SM 20/16 A2991 RMK SLP141 T01950157 57001 IEM_DS3505
ZGNN,2001-03-07 10:00,ZGNN 071000Z AUTO 06010KT 7SM 18/15 A2994 RMK T01800150 IEM_DS3505
ZGNN,2001-03-07 11:00,ZGNN 071100Z AUTO 04010KT 7SM 17/15 A2997 RMK T01700150 IEM_DS3505
ZGNN,2001-03-07 12:00,ZGNN 071200Z AUTO 04004KT 6SM 16/15 A3000 RMK 60003 SLP171 T01570147 52029 IEM_DS3505
ZGNN,2001-03-07 13:00,ZGNN 071300Z AUTO 04010KT 4SM 15/14 A3003 RMK T01500140 IEM_DS3505
ZGNN,2001-03-07 14:00,ZGNN 071400Z AUTO 02006KT 4SM 15/14 A3006 RMK T01500140 IEM_DS3505
ZGNN,2001-03-07 15:00,ZGNN 071500Z AUTO 00000KT 11SM 16/13 A3009 RMK SLP197 T01580133 52026 IEM_DS3505
ZGNN,2001-03-07 16:00,ZGNN 071600Z AUTO 05008KT 2 1/2SM 15/13 A3012 RMK T01500130 IEM_DS3505
ZGNN,2001-03-07 17:00,ZGNN 071700Z AUTO 04008KT 2 1/2SM 15/13 A3012 RMK T01500130 IEM_DS3505
ZGNN,2001-03-07 18:00,ZGNN 071800Z AUTO 02002KT 12SM 15/13 A3009 RMK 60000 SLP198 T01530130 52001 IEM_DS3505
ZGNN,2001-03-07 19:00,ZGNN 071900Z AUTO 04008KT 2 1/2SM 15/12 A3009 RMK T01500120 IEM_DS3505
ZGNN,2001-03-07 20:00,ZGNN 072000Z AUTO 03012KT 2SM 14/12 A3009 RMK T01400120 IEM_DS3505
ZGNN,2001-03-07 21:00,ZGNN 072100Z AUTO 04002KT 6SM 14/13 A3009 RMK 70001 SLP207 T01400133 52008 IEM_DS3505
ZGNN,2001-03-07 22:00,ZGNN 072200Z AUTO 05006KT 1 1/4SM 14/13 A3012 RMK T01400130 IEM_DS3505
ZGNN,2001-03-07 23:00,ZGNN 072300Z AUTO 04006KT 1 1/4SM 13/12 A3018 RMK T01300120 IEM_DS3505
ZGNN,2001-03-08 00:00,ZGNN 080000Z AUTO 04006KT 4SM 13/12 A3021 RMK 60004 SLP241 T01300123 52032 IEM_DS3505
ZGNN,2001-03-08 01:00,ZGNN 080100Z AUTO 03006KT 1 1/2SM 13/12 A3027 RMK T01300120 IEM_DS3505
ZGNN,2001-03-08 02:00,ZGNN 080200Z AUTO 03006KT 4SM 13/12 A3030 RMK T01300120 IEM_DS3505
ZGNN,2001-03-08 03:00,ZGNN 080300Z AUTO 04004KT 4SM 12/12 A3030 RMK SLP263 T01240116 52021 IEM_DS3505
ZGNN,2001-03-08 04:00,ZGNN 080400Z AUTO 05006KT 5SM 12/11 A3030 RMK T01200110 IEM_DS3505
ZGNN,2001-03-08 05:00,ZGNN 080500Z AUTO 05008KT 7SM 12/11 A3027 RMK T01200110 IEM_DS3505
ZGNN,2001-03-08 06:00,ZGNN 080600Z AUTO 04004KT 7SM 13/12 A3024 RMK 60035 SLP246 T01290116 57016 IEM_DS3505
ZGNN,2001-03-08 07:00,ZGNN 080700Z AUTO 03006KT 7SM 13/11 A3021 RMK T01300110 IEM_DS3505
ZGNN,2001-03-08 08:00,ZGNN 080800Z AUTO 35006KT 7SM 13/11 A3018 RMK T01300110 IEM_DS3505
ZGNN,2001-03-08 09:00,ZGNN 080900Z AUTO 36006KT 12SM 13/10 A3021 RMK SLP232 T01320105 57014 IEM_DS3505
ZGNN,2001-03-08 10:00,ZGNN 081000Z AUTO 35006KT 7SM 13/10 A3018 RMK T01300100 IEM_DS3505
ZGNN,2001-03-08 11:00,ZGNN 081100Z AUTO 35006KT 7SM 13/10 A3021 RMK T01300100 IEM_DS3505
ZGNN,2001-03-08 12:00,ZGNN 081200Z AUTO 34004KT 12SM 13/10 A3021 RMK 60003 SLP245 T01280105 52012 IEM_DS3505
ZGNN,2001-03-08 13:00,ZGNN 081300Z AUTO 02004KT 7SM 13/10 A3024 RMK T01300100 IEM_DS3505
ZGNN,2001-03-08 15:00,ZGNN 081500Z AUTO 00000KT 12SM 13/10 RMK SLP258 T01300105 52013 IEM_DS3505
ZGNN,2001-03-08 18:00,ZGNN 081800Z AUTO 34002KT 9SM 13/11 RMK SLP241 T01300111 57017 IEM_DS3505
ZGNN,2001-03-08 20:00,ZGNN 082000Z AUTO 35006KT 5SM 13/09 A3018 RMK T01300090 IEM_DS3505
ZGNN,2001-03-08 21:00,ZGNN 082100Z AUTO 34004KT 11SM 13/10 A3018 RMK 70042 SLP232 T01270104 57009 IEM_DS3505
ZGNN,2001-03-08 22:00,ZGNN 082200Z AUTO 4SM 13/10 A3018 RMK T01300100 IEM_DS3505
ZGNN,2001-03-08 23:00,ZGNN 082300Z AUTO 34004KT 4SM 12/10 A3021 RMK T01200100 IEM_DS3505
ZGNN,2001-03-09 00:00,ZGNN 090000Z AUTO 02002KT 5SM 12/11 A3021 RMK 60008 SLP241 T01200109 52009 IEM_DS3505
ZGNN,2001-03-09 01:00,ZGNN 090100Z AUTO 3SM 12/10 A3024 RMK T01200100 IEM_DS3505
ZGNN,2001-03-09 02:00,ZGNN 090200Z AUTO 2 1/2SM 12/10 A3024 RMK T01200100 IEM_DS3505
ZGNN,2001-03-09 03:00,ZGNN 090300Z AUTO 36004KT 5SM 13/11 A3027 RMK SLP255 T01260107 52014 IEM_DS3505
ZGNN,2001-03-09 04:00,ZGNN 090400Z AUTO 01004KT 2SM 13/10 A3024 RMK T01300100 IEM_DS3505
ZGNN,2001-03-09 05:00,ZGNN 090500Z AUTO 35004KT 3SM 12/10 A3024 RMK T01200100 IEM_DS3505
ZGNN,2001-03-09 06:00,ZGNN 090600Z AUTO 09002KT 4SM 13/10 A3018 RMK 60012 SLP228 T01280105 57027 IEM_DS3505
ZGNN,2001-03-09 07:00,ZGNN 090700Z AUTO 08004KT 2 1/2SM 13/10 A3015 RMK T01300100 IEM_DS3505
ZGNN,2001-03-09 08:00,ZGNN 090800Z AUTO 4SM 13/10 A3012 RMK T01300100 IEM_DS3505
ZGNN,2001-03-09 09:00,ZGNN 090900Z AUTO 00000KT 3SM 13/10 A3015 RMK T01300100 IEM_DS3505
ZGNN,2001-03-09 10:00,ZGNN 091000Z AUTO 11004KT 3SM 12/10 A3012 RMK T01200100 IEM_DS3505
ZGNN,2001-03-09 11:00,ZGNN 091100Z AUTO 10004KT 3SM 12/10 A3012 RMK T01200100 IEM_DS3505
ZGNN,2001-03-09 12:00,ZGNN 091200Z AUTO 09004KT 12SM 12/10 A3012 RMK 60004 SLP212 T01200103 52004 IEM_DS3505
ZGNN,2001-03-09 13:00,ZGNN 091300Z AUTO 06004KT 2 1/2SM 12/10 A3015 RMK T01200100 IEM_DS3505
ZGNN,2001-03-09 14:00,ZGNN 091400Z AUTO 05004KT 2 1/2SM 12/10 A3018 RMK T01200100 IEM_DS3505
ZGNN,2001-03-09 15:00,ZGNN 091500Z AUTO 00000KT 9SM 12/11 A3018 RMK SLP224 T01170109 52012 IEM_DS3505
ZGNN,2001-03-09 16:00,ZGNN 091600Z AUTO 07004KT 2SM 12/10 A3015 RMK T01200100 IEM_DS3505
ZGNN,2001-03-09 17:00,ZGNN 091700Z AUTO 05006KT 2 1/2SM 11/10 A3015 RMK T01100100 IEM_DS3505
ZGNN,2001-03-09 18:00,ZGNN 091800Z AUTO 11006KT 5SM 11/10 A3012 RMK 60012 SLP199 T01100102 57025 IEM_DS3505
ZGNN,2001-03-09 19:00,ZGNN 091900Z AUTO 2SM 11/10 A3012 RMK T01100100 IEM_DS3505
ZGNN,2001-03-09 20:00,ZGNN 092000Z AUTO 1 1/2SM 11/10 A3009 RMK T01100100 IEM_DS3505
ZGNN,2001-03-09 21:00,ZGNN 092100Z AUTO 11004KT 2 1/2SM 11/11 A3009 RMK 70040 SLP199 T01120108 54000 IEM_DS3505
ZGNN,2001-03-09 22:00,ZGNN 092200Z AUTO 1SM 11/10 A3012 RMK T01100100 IEM_DS3505
ZGNN,2001-03-09 23:00,ZGNN 092300Z AUTO 06004KT 1SM 11/10 A3012 RMK T01100100 IEM_DS3505
ZGNN,2001-03-10 00:00,ZGNN 100000Z AUTO 11004KT 1 1/4SM 12/12 A3015 RMK 60008 SLP210 T01170115 52011 IEM_DS3505
ZGNN,2001-03-10 01:00,ZGNN 100100Z AUTO 10004KT 1SM 12/11 A3015 RMK T01200110 IEM_DS3505
ZGNN,2001-03-10 02:00,ZGNN 100200Z AUTO 09002KT 1 1/4SM 12/11 A3015 RMK T01200110 IEM_DS3505
ZGNN,2001-03-10 03:00,ZGNN 100300Z AUTO 00000KT 2SM 12/12 A3018 RMK SLP228 T01250118 52018 IEM_DS3505
ZGNN,2001-03-10 04:00,ZGNN 100400Z AUTO 05006KT 1 1/2SM 12/11 A3015 RMK T01200110 IEM_DS3505
ZGNN,2001-03-10 05:00,ZGNN 100500Z AUTO 06006KT 1 1/2SM 12/11 A3015 RMK T01200110 IEM_DS3505
ZGNN,2001-03-10 06:00,ZGNN 100600Z AUTO 09004KT 1 1/4SM 13/12 A3012 RMK 60012 SLP206 T01270121 57022 IEM_DS3505
ZGNN,2001-03-10 07:00,ZGNN 100700Z AUTO 09004KT 1 1/2SM 13/11 A3009 RMK T01300110 IEM_DS3505
ZGNN,2001-03-10 08:00,ZGNN 100800Z AUTO 2SM 13/12 A3006 RMK T01300120 IEM_DS3505
ZGNN,2001-03-10 09:00,ZGNN 100900Z AUTO 11004KT 1 1/4SM 13/12 A3006 RMK SLP190 T01290123 57016 IEM_DS3505
ZGNN,2001-03-10 10:00,ZGNN 101000Z AUTO 10004KT 2SM 13/11 A3006 RMK T01300110 IEM_DS3505
ZGNN,2001-03-10 11:00,ZGNN 101100Z AUTO 2SM 13/11 A3006 RMK T01300110 IEM_DS3505
ZGNN,2001-03-10 12:00,ZGNN 101200Z AUTO 34002KT 6SM 13/12 A3006 RMK 60002 SLP198 T01300123 52008 IEM_DS3505
ZGNN,2001-03-10 13:00,ZGNN 101300Z AUTO 2SM 13/12 A3012 RMK T01300120 IEM_DS3505
ZGNN,2001-03-10 14:00,ZGNN 101400Z AUTO 00000KT 1 1/2SM 13/12 A3012 RMK T01300120 IEM_DS3505
ZGNN,2001-03-10 15:00,ZGNN 101500Z AUTO 00000KT 4SM 13/12 A3012 RMK SLP210 T01280124 52012 IEM_DS3505
ZGNN,2001-03-10 16:00,ZGNN 101600Z AUTO 26002KT 1 1/4SM 13/12 A3012 RMK T01300120 IEM_DS3505
ZGNN,2001-03-10 17:00,ZGNN 101700Z AUTO 00000KT 1 1/2SM 13/12 A3012 RMK T01300120 IEM_DS3505
ZGNN,2001-03-10 18:00,ZGNN 101800Z AUTO 00000KT 2 1/2SM 13/13 A3009 RMK 60000 SLP197 T01300126 57012 IEM_DS3505
ZGNN,2001-03-10 19:00,ZGNN 101900Z AUTO 10002KT 1SM 13/12 A3009 RMK T01300120 IEM_DS3505
ZGNN,2001-03-10 20:00,ZGNN 102000Z AUTO 03004KT 1SM 13/12 A3006 RMK T01300120 IEM_DS3505
ZGNN,2001-03-10 21:00,ZGNN 102100Z AUTO 14002KT 2SM 13/12 A3009 RMK 70025 SLP192 T01290125 57005 IEM_DS3505
ZGNN,2001-03-10 22:00,ZGNN 102200Z AUTO 07004KT 1SM 13/12 A3006 RMK T01300120 IEM_DS3505
ZGNN,2001-03-10 23:00,ZGNN 102300Z AUTO 1SM 13/12 A3009 RMK T01300120 IEM_DS3505
ZGNN,2001-03-11 00:00,ZGNN 110000Z AUTO 00000KT 1 1/4SM 13/12 A3012 RMK 60008 SLP215 T01290125 52023 IEM_DS3505
ZGNN,2001-03-11 01:00,ZGNN 110100Z AUTO 1 1/4SM 13/12 A3015 RMK T01300120 IEM_DS3505
ZGNN,2001-03-11 02:00,ZGNN 110200Z AUTO 31004KT 1 1/2SM 13/12 A3018 RMK T01300120 IEM_DS3505
ZGNN,2001-03-11 03:00,ZGNN 110300Z AUTO 34002KT 2 1/2SM 13/12 A3018 RMK SLP232 T01340125 52016 IEM_DS3505
ZGNN,2001-03-11 04:00,ZGNN 110400Z AUTO 33004KT 5SM 13/12 A3021 RMK T01300120 IEM_DS3505
ZGNN,2001-03-11 05:00,ZGNN 110500Z AUTO 5SM 14/12 A3018 RMK T01400120 IEM_DS3505
ZGNN,2001-03-11 06:00,ZGNN 110600Z AUTO 34006KT 5SM 14/13 A3015 RMK 60039 SLP214 T01380127 57017 IEM_DS3505
ZGNN,2001-03-11 07:00,ZGNN 110700Z AUTO 34004KT 7SM 14/12 A3012 RMK T01400120 IEM_DS3505
ZGNN,2001-03-11 09:00,ZGNN 110900Z AUTO 34008KT 5SM 14/13 A3012 RMK SLP206 T01430130 57008 IEM_DS3505
ZGNN,2001-03-11 10:00,ZGNN 111000Z AUTO 7SM 14/12 A3012 RMK T01400120 IEM_DS3505
ZGNN,2001-03-11 11:00,ZGNN 111100Z AUTO 35004KT 7SM 14/12 A3015 RMK T01400120 IEM_DS3505
ZGNN,2001-03-11 12:00,ZGNN 111200Z AUTO 34002KT 5SM 14/13 A3015 RMK 60016 SLP220 T01380129 52014 IEM_DS3505
ZGNN,2001-03-11 13:00,ZGNN 111300Z AUTO 34004KT 4SM 14/12 A3018 RMK T01400120 IEM_DS3505
ZGNN,2001-03-11 14:00,ZGNN 111400Z AUTO 01004KT 5SM 14/12 A3018 RMK T01400120 IEM_DS3505
ZGNN,2001-03-11 15:00,ZGNN 111500Z AUTO 00000KT 5SM 14/13 A3021 RMK SLP234 T01360131 52014 IEM_DS3505
ZGNN,2001-03-11 16:00,ZGNN 111600Z AUTO 18002KT 2SM 13/12 A3021 RMK T01300120 IEM_DS3505
ZGNN,2001-03-11 17:00,ZGNN 111700Z AUTO 2 1/2SM 13/12 A3018 RMK T01300120 IEM_DS3505
ZGNN,2001-03-11 18:00,ZGNN 111800Z AUTO 00000KT 6SM 13/13 A3018 RMK 60008 SLP227 T01330131 57007 IEM_DS3505
ZGNN,2001-03-11 19:00,ZGNN 111900Z AUTO 00000KT 3SM 13/12 A3015 RMK T01300120 IEM_DS3505
ZGNN,2001-03-11 20:00,ZGNN 112000Z AUTO 00000KT 2SM 13/12 A3015 RMK T01300120 IEM_DS3505
ZGNN,2001-03-11 21:00,ZGNN 112100Z AUTO 00000KT 4SM 13/13 A3015 RMK 70070 SLP215 T01310129 57012 IEM_DS3505
ZGNN,2001-03-11 22:00,ZGNN 112200Z AUTO 1 1/4SM 13/12 A3015 RMK T01300120 IEM_DS3505
ZGNN,2001-03-11 23:00,ZGNN 112300Z AUTO 1 1/4SM 13/12 A3018 RMK T01300120 IEM_DS3505
ZGNN,2001-03-12 00:00,ZGNN 120000Z AUTO 00000KT 4SM 13/13 A3018 RMK 60004 SLP230 T01340130 52015 IEM_DS3505
ZGNN,2001-03-12 01:00,ZGNN 120100Z AUTO 1 1/2SM 13/13 A3021 RMK T01300130 IEM_DS3505
ZGNN,2001-03-12 02:00,ZGNN 120200Z AUTO 5SM 15/12 A3021 RMK T01500120 IEM_DS3505
ZGNN,2001-03-12 03:00,ZGNN 120300Z AUTO 00000KT 12SM 16/13 A3024 RMK SLP243 T01580131 52013 IEM_DS3505
ZGNN,2001-03-12 04:00,ZGNN 120400Z AUTO 36006KT 7SM 16/12 A3021 RMK T01600120 IEM_DS3505
ZGNN,2001-03-12 05:00,ZGNN 120500Z AUTO 7SM 17/11 A3018 RMK T01700110 IEM_DS3505
ZGNN,2001-03-12 06:00,ZGNN 120600Z AUTO 34006KT 12SM 17/11 A3015 RMK 60003 SLP216 T01690114 57026 IEM_DS3505
ZGNN,2001-03-12 07:00,ZGNN 120700Z AUTO 7SM 17/11 A3012 RMK T01700110 IEM_DS3505
ZGNN,2001-03-12 08:00,ZGNN 120800Z AUTO 30006KT 7SM 17/11 A3012 RMK T01700110 IEM_DS3505
ZGNN,2001-03-12 09:00,ZGNN 120900Z AUTO 00000KT 12SM 18/12 A3009 RMK SLP197 T01750121 57019 IEM_DS3505
ZGNN,2001-03-12 10:00,ZGNN 121000Z AUTO 7SM 17/11 A3009 RMK T01700110 IEM_DS3505
ZGNN,2001-03-12 11:00,ZGNN 121100Z AUTO 7SM 17/12 A3009 RMK T01700120 IEM_DS3505
ZGNN,2001-03-12 12:00,ZGNN 121200Z AUTO 32002KT 12SM 16/13 A3009 RMK 60003 SLP195 T01580133 57002 IEM_DS3505
ZGNN,2001-03-12 13:00,ZGNN 121300Z AUTO 23004KT 7SM 15/12 A3012 RMK T01500120 IEM_DS3505
ZGNN,2001-03-12 14:00,ZGNN 121400Z AUTO 00000KT 3SM 14/13 A3012 RMK T01400130 IEM_DS3505
ZGNN,2001-03-12 15:00,ZGNN 121500Z AUTO 04004KT 10SM 14/12 A3012 RMK SLP206 T01400125 52011 IEM_DS3505
ZGNN,2001-03-12 16:00,ZGNN 121600Z AUTO 20004KT 3SM 14/12 A3015 RMK T01400120 IEM_DS3505
ZGNN,2001-03-12 17:00,ZGNN 121700Z AUTO 36004KT 4SM 14/12 A3012 RMK T01400120 IEM_DS3505
ZGNN,2001-03-12 18:00,ZGNN 121800Z AUTO 32004KT 10SM 14/13 A3009 RMK SLP197 T01380127 57009 IEM_DS3505
ZGNN,2001-03-12 19:00,ZGNN 121900Z AUTO 07004KT 4SM 14/12 A3009 RMK T01400120 IEM_DS3505
ZGNN,2001-03-12 20:00,ZGNN 122000Z AUTO 32002KT 4SM 14/13 A3009 RMK T01400130 IEM_DS3505
ZGNN,2001-03-12 21:00,ZGNN 122100Z AUTO 00000KT 6SM 14/14 A3006 RMK 70001 SLP192 T01440135 57005 IEM_DS3505
ZGNN,2001-03-12 22:00,ZGNN 122200Z AUTO 00000KT 4SM 14/13 A3006 RMK T01400130 IEM_DS3505
ZGNN,2001-03-12 23:00,ZGNN 122300Z AUTO 20002KT 4SM 14/13 A3009 RMK T01400130 IEM_DS3505
ZGNN,2001-03-13 00:00,ZGNN 130000Z AUTO 00000KT 4SM 15/14 A3009 RMK 70003 SLP202 T01460135 52010 IEM_DS3505
ZGNN,2001-03-13 01:00,ZGNN 130100Z AUTO 34002KT 2 1/2SM 15/13 A3012 RMK T01500130 IEM_DS3505
ZGNN,2001-03-13 02:00,ZGNN 130200Z AUTO 00000KT 4SM 16/13 A3015 RMK T01600130 IEM_DS3505
ZGNN,2001-03-13 03:00,ZGNN 130300Z AUTO 18002KT 5SM 17/14 A3012 RMK SLP207 T01660140 52005 IEM_DS3505
ZGNN,2001-03-13 04:00,ZGNN 130400Z AUTO 7SM 17/14 A3012 RMK T01700140 IEM_DS3505
ZGNN,2001-03-13 05:00,ZGNN 130500Z AUTO 20006KT 7SM 18/14 A3009 RMK T01800140 IEM_DS3505
ZGNN,2001-03-13 06:00,ZGNN 130600Z AUTO 22004KT 4SM 17/15 A3009 RMK 60004 SLP190 T01680151 57017 IEM_DS3505
ZGNN,2001-03-13 07:00,ZGNN 130700Z AUTO 16004KT 2 1/2SM 16/15 A3006 RMK T01600150 IEM_DS3505
ZGNN,2001-03-13 08:00,ZGNN 130800Z AUTO 14004KT 2SM 16/15 A3003 RMK T01600150 IEM_DS3505
ZGNN,2001-03-13 09:00,ZGNN 130900Z AUTO 00000KT 4SM 17/16 A3000 RMK SLP169 T01660159 57020 IEM_DS3505
ZGNN,2001-03-13 10:00,ZGNN 131000Z AUTO 24004KT 2 1/2SM 16/15 A3000 RMK T01600150 IEM_DS3505
ZGNN,2001-03-13 11:00,ZGNN 131100Z AUTO 24004KT 2 1/2SM 16/15 A3000 RMK T01600150 IEM_DS3505
ZGNN,2001-03-13 12:00,ZGNN 131200Z AUTO 18004KT 4SM 16/16 A3000 RMK 60024 SLP170 T01600157 54000 IEM_DS3505
ZGNN,2001-03-13 13:00,ZGNN 131300Z AUTO 20004KT 2 1/2SM 16/15 A3000 RMK T01600150 IEM_DS3505
ZGNN,2001-03-13 14:00,ZGNN 131400Z AUTO 28004KT 3SM 16/15 A3003 RMK T01600150 IEM_DS3505
ZGNN,2001-03-13 15:00,ZGNN 131500Z AUTO 00000KT 3SM 16/16 A3003 RMK SLP176 T01600157 52007 IEM_DS3505
ZGNN,2001-03-13 16:00,ZGNN 131600Z AUTO 00000KT 2 1/2SM 16/15 A3003 RMK T01600150 IEM_DS3505
ZGNN,2001-03-13 17:00,ZGNN 131700Z AUTO 22004KT 2SM 16/15 A3003 RMK T01600150 IEM_DS3505
ZGNN,2001-03-13 18:00,ZGNN 131800Z AUTO 22002KT 3SM 16/16 A3000 RMK 60003 SLP165 T01600157 57011 IEM_DS3505
ZGNN,2001-03-13 19:00,ZGNN 131900Z AUTO 23004KT 5SM 16/15 A3000 RMK T01600150 IEM_DS3505
ZGNN,2001-03-13 20:00,ZGNN 132000Z AUTO 00000KT 3SM 16/15 A2997 RMK T01600150 IEM_DS3505
ZGNN,2001-03-13 21:00,ZGNN 132100Z AUTO 00000KT 4SM 16/16 A2997 RMK 70035 SLP152 T01580155 57013 IEM_DS3505
ZGNN,2001-03-13 22:00,ZGNN 132200Z AUTO 00000KT 3SM 16/15 A2997 RMK T01600150 IEM_DS3505
ZGNN,2001-03-13 23:00,ZGNN 132300Z AUTO 00000KT 2 1/2SM 16/15 A2997 RMK T01600150 IEM_DS3505
ZGNN,2001-03-14 00:00,ZGNN 140000Z AUTO 00000KT 3SM 16/16 A3000 RMK 60004 SLP164 T01620159 52012 IEM_DS3505
ZGNN,2001-03-14 01:00,ZGNN 140100Z AUTO 1 1/4SM 17/16 A3003 RMK T01700160 IEM_DS3505
ZGNN,2001-03-14 02:00,ZGNN 140200Z AUTO 1 1/4SM 17/16 A3003 RMK T01700160 IEM_DS3505
ZGNN,2001-03-14 03:00,ZGNN 140300Z AUTO 18002KT 2SM 18/18 A3003 RMK SLP177 T01800177 52013 IEM_DS3505
ZGNN,2001-03-14 04:00,ZGNN 140400Z AUTO 2SM 18/17 A3003 RMK T01800170 IEM_DS3505
ZGNN,2001-03-14 05:00,ZGNN 140500Z AUTO 2 1/2SM 19/17 A3000 RMK T01900170 IEM_DS3505
ZGNN,2001-03-14 06:00,ZGNN 140600Z AUTO 00000KT 2 1/2SM 19/19 A2997 RMK 60000 SLP158 T01920186 57018 IEM_DS3505
ZGNN,2001-03-14 07:00,ZGNN 140700Z AUTO 00000KT 1 1/2SM 19/18 A2997 RMK T01900180 IEM_DS3505
ZGNN,2001-03-14 08:00,ZGNN 140800Z AUTO 20004KT 1 1/4SM 19/18 A2994 RMK T01900180 IEM_DS3505
ZGNN,2001-03-14 09:00,ZGNN 140900Z AUTO 18002KT 2SM 20/19 A2994 RMK SLP144 T01960190 57014 IEM_DS3505
ZGNN,2001-03-14 10:00,ZGNN 141000Z AUTO 2SM 19/17 A2994 RMK T01900170 IEM_DS3505
ZGNN,2001-03-14 11:00,ZGNN 141100Z AUTO 00000KT 2SM 19/17 A2997 RMK T01900170 IEM_DS3505
ZGNN,2001-03-14 12:00,ZGNN 141200Z AUTO 00000KT 6SM 19/19 A2997 RMK SLP157 T01910186 52013 IEM_DS3505
ZGNN,2001-03-14 13:00,ZGNN 141300Z AUTO 36002KT 2SM 19/18 A3000 RMK T01900180 IEM_DS3505
ZGNN,2001-03-14 14:00,ZGNN 141400Z AUTO 1SM 19/18 A3000 RMK T01900180 IEM_DS3505
ZGNN,2001-03-14 15:00,ZGNN 141500Z AUTO 00000KT 6SM 18/18 A3000 RMK SLP165 T01850182 52008 IEM_DS3505
ZGNN,2001-03-14 16:00,ZGNN 141600Z AUTO 1SM 19/17 A3000 RMK T01900170 IEM_DS3505
ZGNN,2001-03-14 17:00,ZGNN 141700Z AUTO 14004KT 3SM 19/18 A2997 RMK T01900180 IEM_DS3505
ZGNN,2001-03-14 18:00,ZGNN 141800Z AUTO 00000KT 7SM 20/19 A2997 RMK 60004 SLP153 T01950189 57011 IEM_DS3505
ZGNN,2001-03-14 19:00,ZGNN 141900Z AUTO 1 1/4SM 20/18 A2997 RMK T02000180 IEM_DS3505
ZGNN,2001-03-14 20:00,ZGNN 142000Z AUTO 1 1/2SM 20/18 A2994 RMK T02000180 IEM_DS3505
ZGNN,2001-03-14 21:00,ZGNN 142100Z AUTO 00000KT 5SM 20/19 A2994 RMK 70006 SLP142 T01960190 57011 IEM_DS3505
ZGNN,2001-03-14 22:00,ZGNN 142200Z AUTO 4SM 20/18 A2994 RMK T02000180 IEM_DS3505
ZGNN,2001-03-14 23:00,ZGNN 142300Z AUTO 00000KT 3SM 20/18 A2997 RMK T02000180 IEM_DS3505
ZGNN,2001-03-15 00:00,ZGNN 150000Z AUTO 00000KT 3SM 20/19 A3000 RMK 60002 SLP158 T01960193 52016 IEM_DS3505
ZGNN,2001-03-15 01:00,ZGNN 150100Z AUTO 00000KT 1SM 19/18 A3000 RMK T01900180 IEM_DS3505
ZGNN,2001-03-15 02:00,ZGNN 150200Z AUTO 00000KT 1 1/4SM 20/19 A3003 RMK T02000190 IEM_DS3505
ZGNN,2001-03-15 03:00,ZGNN 150300Z AUTO 14004KT 5SM 21/20 A3000 RMK SLP162 T02110199 52004 IEM_DS3505
ZGNN,2001-03-15 04:00,ZGNN 150400Z AUTO 14004KT 7SM 22/20 A2997 RMK T02200200 IEM_DS3505
ZGNN,2001-03-15 05:00,ZGNN 150500Z AUTO 12006KT 7SM 23/20 A2994 RMK T02300200 IEM_DS3505
ZGNN,2001-03-15 06:00,ZGNN 150600Z AUTO 18004KT 16SM 23/20 A2991 RMK 60001 SLP128 T02320205 57033 IEM_DS3505
ZGNN,2001-03-15 07:00,ZGNN 150700Z AUTO 12006KT 7SM 22/20 A2988 RMK T02200200 IEM_DS3505
ZGNN,2001-03-15 08:00,ZGNN 150800Z AUTO 12006KT 7SM 23/20 A2985 RMK T02300200 IEM_DS3505
ZGNN,2001-03-15 09:00,ZGNN 150900Z AUTO 14004KT 16SM 23/20 A2985 RMK SLP112 T02310205 57016 IEM_DS3505
ZGNN,2001-03-15 10:00,ZGNN 151000Z AUTO 13006KT 7SM 23/20 A2983 RMK T02300200 IEM_DS3505
ZGNN,2001-03-15 11:00,ZGNN 151100Z AUTO 13008KT 7SM 22/20 A2983 RMK T02200200 IEM_DS3505
ZGNN,2001-03-15 12:00,ZGNN 151200Z AUTO 20004KT 12SM 22/20 A2985 RMK SLP114 T02220204 52002 IEM_DS3505
ZGNN,2001-03-15 13:00,ZGNN 151300Z AUTO 14006KT 7SM 21/19 A2985 RMK T02100190 IEM_DS3505
ZGNN,2001-03-15 14:00,ZGNN 151400Z AUTO 4SM 21/19 A2985 RMK T02100190 IEM_DS3505
ZGNN,2001-03-15 15:00,ZGNN 151500Z AUTO 18004KT 11SM 21/20 A2988 RMK SLP123 T02100198 52009 IEM_DS3505
ZGNN,2001-03-15 16:00,ZGNN 151600Z AUTO 14004KT 4SM 20/19 A2988 RMK T02000190 IEM_DS3505
ZGNN,2001-03-15 17:00,ZGNN 151700Z AUTO 4SM 20/19 A2988 RMK T02000190 IEM_DS3505
ZGNN,2001-03-15 18:00,ZGNN 151800Z AUTO 18002KT 9SM 20/20 A2988 RMK SLP120 T02050196 57003 IEM_DS3505
ZGNN,2001-03-15 19:00,ZGNN 151900Z AUTO 00000KT 2 1/2SM 20/18 A2985 RMK T02000180 IEM_DS3505
ZGNN,2001-03-15 20:00,ZGNN 152000Z AUTO 3SM 20/19 A2985 RMK T02000190 IEM_DS3505
ZGNN,2001-03-15 21:00,ZGNN 152100Z AUTO 00000KT 9SM 20/20 A2985 RMK 70002 SLP110 T02040195 57009 IEM_DS3505
ZGNN,2001-03-15 22:00,ZGNN 152200Z AUTO 18004KT 7SM 20/19 A2983 RMK T02000190 IEM_DS3505
ZGNN,2001-03-15 23:00,ZGNN 152300Z AUTO 16008KT 7SM 21/19 A2985 RMK T02100190 IEM_DS3505
ZGNN,2001-03-16 00:00,ZGNN 160000Z AUTO 22004KT 6SM 21/20 A2985 RMK 70001 SLP118 T02120198 52007 IEM_DS3505
ZGNN,2001-03-16 01:00,ZGNN 160100Z AUTO 7SM 22/19 A2988 RMK T02200190 IEM_DS3505
ZGNN,2001-03-16 02:00,ZGNN 160200Z AUTO 18004KT 7SM 22/20 A2988 RMK T02200200 IEM_DS3505
ZGNN,2001-03-16 03:00,ZGNN 160300Z AUTO 20004KT 9SM 24/21 A2985 RMK SLP112 T02380211 57005 IEM_DS3505
ZGNN,2001-03-16 04:00,ZGNN 160400Z AUTO 18004KT 7SM 25/20 A2985 RMK T02500200 IEM_DS3505
ZGNN,2001-03-16 05:00,ZGNN 160500Z AUTO 20008KT 7SM 27/20 A2980 RMK T02700200 IEM_DS3505
ZGNN,2001-03-16 06:00,ZGNN 160600Z AUTO 16006KT 19SM 27/21 A2974 RMK SLP074 T02670214 57037 IEM_DS3505
ZGNN,2001-03-16 07:00,ZGNN 160700Z AUTO 19008KT 7SM 28/20 A2971 RMK T02800200 IEM_DS3505
ZGNN,2001-03-16 08:00,ZGNN 160800Z AUTO 19010KT 7SM 29/19 A2968 RMK T02900190 IEM_DS3505
ZGNN,2001-03-16 09:00,ZGNN 160900Z AUTO 14008KT 16SM 28/21 A2965 RMK SLP044 T02850213 57029 IEM_DS3505
ZGNN,2001-03-16 10:00,ZGNN 161000Z AUTO 14010KT 7SM 27/21 A2965 RMK T02700210 IEM_DS3505
ZGNN,2001-03-16 11:00,ZGNN 161100Z AUTO 14012KT 7SM 26/20 A2965 RMK T02600200 IEM_DS3505
ZGNN,2001-03-16 12:00,ZGNN 161200Z AUTO 18004KT 12SM 25/20 A2968 RMK SLP052 T02460204 52007 IEM_DS3505
ZGNN,2001-03-16 13:00,ZGNN 161300Z AUTO 15004KT 6SM 23/20 A2971 RMK T02300200 IEM_DS3505
ZGNN,2001-03-16 15:00,ZGNN 161500Z AUTO 20002KT 12SM 22/20 RMK SLP080 T02160201 52027 IEM_DS3505
ZGNN,2001-03-16 18:00,ZGNN 161800Z AUTO 32004KT 11SM 21/20 RMK SLP079 T02120195 54000 IEM_DS3505
ZGNN,2001-03-16 19:00,ZGNN 161900Z AUTO 32006KT 5SM 20/18 A2977 RMK T02000180 IEM_DS3505
ZGNN,2001-03-16 20:00,ZGNN 162000Z AUTO 35002KT 4SM 19/18 A2974 RMK T01900180 IEM_DS3505
ZGNN,2001-03-16 21:00,ZGNN 162100Z AUTO 04004KT 9SM 19/19 A2977 RMK SLP082 T01930187 52003 IEM_DS3505
ZGNN,2001-03-16 22:00,ZGNN 162200Z AUTO 04002KT 4SM 19/17 A2977 RMK T01900170 IEM_DS3505
ZGNN,2001-03-16 23:00,ZGNN 162300Z AUTO 7SM 18/17 A2980 RMK T01800170 IEM_DS3505
ZGNN,2001-03-17 00:00,ZGNN 170000Z AUTO 09002KT 3SM 19/19 A2983 RMK SLP105 T01890186 52022 IEM_DS3505
ZGNN,2001-03-17 01:00,ZGNN 170100Z AUTO 09002KT 7SM 20/19 A2985 RMK T02000190 IEM_DS3505
ZGNN,2001-03-17 02:00,ZGNN 170200Z AUTO 00000KT 7SM 23/20 A2988 RMK T02300200 IEM_DS3505
ZGNN,2001-03-17 03:00,ZGNN 170300Z AUTO 14002KT 12SM 25/21 A2988 RMK SLP121 T02500206 52016 IEM_DS3505
ZGNN,2001-03-17 04:00,ZGNN 170400Z AUTO 7SM 26/20 A2988 RMK T02600200 IEM_DS3505
ZGNN,2001-03-17 05:00,ZGNN 170500Z AUTO 7SM 26/21 A2985 RMK T02600210 IEM_DS3505
ZGNN,2001-03-17 06:00,ZGNN 170600Z AUTO 07004KT 16SM 26/22 A2983 RMK SLP101 T02640217 57019 IEM_DS3505
ZGNN,2001-03-17 07:00,ZGNN 170700Z AUTO 07006KT 7SM 26/21 A2980 RMK T02600210 IEM_DS3505
ZGNN,2001-03-17 08:00,ZGNN 170800Z AUTO 07008KT 7SM 27/20 A2980 RMK T02700200 IEM_DS3505
ZGNN,2001-03-17 09:00,ZGNN 170900Z AUTO 04004KT 19SM 22/18 A2980 RMK SLP100 T02240176 57003 IEM_DS3505
ZGNN,2001-03-17 10:00,ZGNN 171000Z AUTO 03014KT 7SM 21/16 A2983 RMK T02100160 IEM_DS3505
ZGNN,2001-03-17 11:00,ZGNN 171100Z AUTO 05012KT 7SM 19/15 A2985 RMK T01900150 IEM_DS3505
ZGNN,2001-03-17 12:00,ZGNN 171200Z AUTO 04004KT 16SM 18/14 A2988 RMK SLP128 T01780144 52027 IEM_DS3505
ZGNN,2001-03-17 13:00,ZGNN 171300Z AUTO 06010KT 7SM 17/13 A2991 RMK T01700130 IEM_DS3505
ZGNN,2001-03-17 14:00,ZGNN 171400Z AUTO 07008KT 7SM 17/13 A2994 RMK T01700130 IEM_DS3505
ZGNN,2001-03-17 15:00,ZGNN 171500Z AUTO 07004KT 16SM 17/13 RMK SLP149 T01730134 52022 IEM_DS3505
ZGNN,2001-03-17 18:00,ZGNN 171800Z AUTO 00000KT 16SM 17/13 RMK SLP148 T01670130 57001 IEM_DS3505
ZGNN,2001-03-17 20:00,ZGNN 172000Z AUTO 11004KT 7SM 15/13 A2994 RMK T01500130 IEM_DS3505
ZGNN,2001-03-17 21:00,ZGNN 172100Z AUTO 09002KT 12SM 15/12 A2997 RMK 70003 SLP152 T01500125 52002 IEM_DS3505
ZGNN,2001-03-17 22:00,ZGNN 172200Z AUTO 10004KT 7SM 15/12 A2997 RMK T01500120 IEM_DS3505
ZGNN,2001-03-17 23:00,ZGNN 172300Z AUTO 7SM 15/12 A3000 RMK T01500120 IEM_DS3505
ZGNN,2001-03-18 00:00,ZGNN 180000Z AUTO 09002KT 12SM 15/12 A3003 RMK 60003 SLP170 T01520119 52017 IEM_DS3505
ZGNN,2001-03-18 01:00,ZGNN 180100Z AUTO 05004KT 7SM 15/11 A3003 RMK T01500110 IEM_DS3505
ZGNN,2001-03-18 02:00,ZGNN 180200Z AUTO 7SM 16/11 A3006 RMK T01600110 IEM_DS3505
ZGNN,2001-03-18 03:00,ZGNN 180300Z AUTO 00000KT 16SM 17/12 A3006 RMK SLP186 T01710120 52016 IEM_DS3505
ZGNN,2001-03-18 04:00,ZGNN 180400Z AUTO 7SM 18/12 A3006 RMK T01800120 IEM_DS3505
ZGNN,2001-03-18 05:00,ZGNN 180500Z AUTO 03006KT 7SM 19/13 A3000 RMK T01900130 IEM_DS3505
ZGNN,2001-03-18 06:00,ZGNN 180600Z AUTO 32004KT 16SM 20/14 A2997 RMK SLP158 T01980138 57027 IEM_DS3505
ZGNN,2001-03-18 07:00,ZGNN 180700Z AUTO 7SM 19/13 A2994 RMK T01900130 IEM_DS3505
ZGNN,2001-03-18 08:00,ZGNN 180800Z AUTO 06006KT 7SM 20/14 A2991 RMK T02000140 IEM_DS3505
ZGNN,2001-03-18 09:00,ZGNN 180900Z AUTO 11004KT 9SM 20/15 A2991 RMK SLP135 T02020148 57023 IEM_DS3505
ZGNN,2001-03-18 10:00,ZGNN 181000Z AUTO 04006KT 7SM 20/14 A2991 RMK T02000140 IEM_DS3505
ZGNN,2001-03-18 11:00,ZGNN 181100Z AUTO 05004KT 7SM 19/14 A2991 RMK T01900140 IEM_DS3505
ZGNN,2001-03-18 12:00,ZGNN 181200Z AUTO 07002KT 11SM 19/15 A2994 RMK SLP145 T01930151 52010 IEM_DS3505
ZGNN,2001-03-18 13:00,ZGNN 181300Z AUTO 08004KT 7SM 19/14 A2994 RMK T01900140 IEM_DS3505
ZGNN,2001-03-18 14:00,ZGNN 181400Z AUTO 07004KT 3SM 18/15 A2997 RMK T01800150 IEM_DS3505
ZGNN,2001-03-18 15:00,ZGNN 181500Z AUTO 00000KT 9SM 19/15 A2997 RMK SLP156 T01870152 52011 IEM_DS3505
ZGNN,2001-03-18 16:00,ZGNN 181600Z AUTO 4SM 18/15 A2997 RMK T01800150 IEM_DS3505
ZGNN,2001-03-18 17:00,ZGNN 181700Z AUTO 11002KT 4SM 18/14 A2997 RMK T01800140 IEM_DS3505
ZGNN,2001-03-18 18:00,ZGNN 181800Z AUTO 00000KT 9SM 18/15 A2997 RMK SLP149 T01810150 57006 IEM_DS3505
ZGNN,2001-03-18 19:00,ZGNN 181900Z AUTO 06002KT 3SM 18/14 A2994 RMK T01800140 IEM_DS3505
ZGNN,2001-03-18 20:00,ZGNN 182000Z AUTO 00000KT 3SM 18/14 A2991 RMK T01800140 IEM_DS3505
ZGNN,2001-03-18 21:00,ZGNN 182100Z AUTO 00000KT 9SM 18/15 A2991 RMK 70003 SLP139 T01780147 57010 IEM_DS3505
ZGNN,2001-03-18 22:00,ZGNN 182200Z AUTO 05002KT 5SM 17/14 A2994 RMK T01700140 IEM_DS3505
ZGNN,2001-03-18 23:00,ZGNN 182300Z AUTO 4SM 17/14 A2994 RMK T01700140 IEM_DS3505
ZGNN,2001-03-19 00:00,ZGNN 190000Z AUTO 09002KT 6SM 17/15 A2994 RMK 60003 SLP152 T01740147 52012 IEM_DS3505
ZGNN,2001-03-19 01:00,ZGNN 190100Z AUTO 02006KT 2SM 17/15 A2997 RMK T01700150 IEM_DS3505
ZGNN,2001-03-19 02:00,ZGNN 190200Z AUTO 06004KT 2SM 17/15 A3000 RMK T01700150 IEM_DS3505
ZGNN,2001-03-19 03:00,ZGNN 190300Z AUTO 11002KT 4SM 17/16 A3000 RMK SLP164 T01720157 52012 IEM_DS3505
ZGNN,2001-03-19 04:00,ZGNN 190400Z AUTO 00000KT 1SM RMK IEM_DS3505
ZGNN,2001-03-19 05:00,ZGNN 190500Z AUTO 00000KT 1SM 17/17 A2997 RMK T01700170 IEM_DS3505
ZGNN,2001-03-19 06:00,ZGNN 190600Z AUTO 14002KT 2SM 17/17 A2994 RMK 60043 SLP134 T01710166 57030 IEM_DS3505
ZGNN,2001-03-19 07:00,ZGNN 190700Z AUTO 00000KT 1 1/4SM RMK IEM_DS3505
ZGNN,2001-03-19 08:00,ZGNN 190800Z AUTO 07006KT 1 1/4SM 17/17 A2988 RMK T01700170 IEM_DS3505
ZGNN,2001-03-19 09:00,ZGNN 190900Z AUTO 14002KT 4SM 17/17 A2988 RMK SLP119 T01730168 57015 IEM_DS3505
ZGNN,2001-03-19 10:00,ZGNN 191000Z AUTO 06006KT 1SM 17/17 A2988 RMK T01700170 IEM_DS3505
ZGNN,2001-03-19 11:00,ZGNN 191100Z AUTO 07006KT 6SM RMK IEM_DS3505
ZGNN,2001-03-19 12:00,ZGNN 191200Z AUTO 14002KT 4SM 17/16 A2991 RMK 60020 SLP127 T01680165 52008 IEM_DS3505
ZGNN,2001-03-19 13:00,ZGNN 191300Z AUTO 06006KT 1SM 17/16 A2991 RMK T01700160 IEM_DS3505
ZGNN,2001-03-19 15:00,ZGNN 191500Z AUTO 00000KT 4SM 16/16 RMK SLP142 T01640161 52015 IEM_DS3505
ZGNN,2001-03-19 18:00,ZGNN 191800Z AUTO 00000KT 2SM 16/16 RMK 60003 SLP139 T01640162 57003 IEM_DS3505
ZGNN,2001-03-19 21:00,ZGNN 192100Z AUTO 00000KT 1/4SM 16/16 RMK 70061 SLP132 T01640164 57007 IEM_DS3505
ZGNN,2001-03-19 22:00,ZGNN 192200Z AUTO 00000KT 1/2SM 17/17 A2994 RMK T01700170 IEM_DS3505
ZGNN,2001-03-19 23:00,ZGNN 192300Z AUTO 02006KT 1/2SM 17/17 A2997 RMK T01700170 IEM_DS3505
ZGNN,2001-03-20 00:00,ZGNN 200000Z AUTO 00000KT 3/8SM 17/17 A2997 RMK 60000 SLP153 T01700170 52021 IEM_DS3505
ZGNN,2001-03-20 01:00,ZGNN 200100Z AUTO 01006KT 1SM 17/17 A3000 RMK T01700170 IEM_DS3505
ZGNN,2001-03-20 02:00,ZGNN 200200Z AUTO 35010KT 7SM 18/17 A3003 RMK T01800170 IEM_DS3505
ZGNN,2001-03-20 03:00,ZGNN 200300Z AUTO 34006KT 19SM 18/16 A3003 RMK SLP171 T01830160 52017 IEM_DS3505
ZGNN,2001-03-20 04:00,ZGNN 200400Z AUTO 35012KT 7SM 19/16 A3003 RMK T01900160 IEM_DS3505
ZGNN,2001-03-20 05:00,ZGNN 200500Z AUTO 01008KT 7SM 19/16 A3000 RMK T01900160 IEM_DS3505
ZGNN,2001-03-20 06:00,ZGNN 200600Z AUTO 02004KT 19SM 19/16 A2994 RMK 60002 SLP143 T01940156 57027 IEM_DS3505
ZGNN,2001-03-20 07:00,ZGNN 200700Z AUTO 34006KT 7SM 20/16 A2994 RMK T02000160 IEM_DS3505
ZGNN,2001-03-20 08:00,ZGNN 200800Z AUTO 7SM 21/15 A2988 RMK T02100150 IEM_DS3505
ZGNN,2001-03-20 09:00,ZGNN 200900Z AUTO 04002KT 19SM 22/17 A2988 RMK SLP121 T02180166 57021 IEM_DS3505
ZGNN,2001-03-20 10:00,ZGNN 201000Z AUTO 7SM 21/16 A2988 RMK T02100160 IEM_DS3505
ZGNN,2001-03-20 11:00,ZGNN 201100Z AUTO 08004KT 7SM 21/16 A2988 RMK T02100160 IEM_DS3505
ZGNN,2001-03-20 12:00,ZGNN 201200Z AUTO 00000KT 12SM 19/17 A2991 RMK SLP135 T01930168 52013 IEM_DS3505
ZGNN,2001-03-20 13:00,ZGNN 201300Z AUTO 00000KT 7SM 20/16 A2994 RMK T02000160 IEM_DS3505
ZGNN,2001-03-20 14:00,ZGNN 201400Z AUTO 35002KT 6SM 19/16 A2994 RMK T01900160 IEM_DS3505
ZGNN,2001-03-20 15:00,ZGNN 201500Z AUTO 00000KT 12SM 17/16 RMK SLP145 T01700158 52010 IEM_DS3505
ZGNN,2001-03-20 18:00,ZGNN 201800Z AUTO 00000KT 12SM 16/14 RMK SLP136 T01550143 57009 IEM_DS3505
ZGNN,2001-03-20 21:00,ZGNN 202100Z AUTO 00000KT 7SM 14/13 RMK 70002 SLP127 T01390134 57009 IEM_DS3505
ZGNN,2001-03-20 23:00,ZGNN 202300Z AUTO 00000KT 3SM 14/13 A2991 RMK T01400130 IEM_DS3505
ZGNN,2001-03-21 00:00,ZGNN 210000Z AUTO 00000KT 5SM 15/14 A2991 RMK 70002 SLP142 T01510144 52015 IEM_DS3505
ZGNN,2001-03-21 01:00,ZGNN 210100Z AUTO 00000KT 3SM 17/15 A2994 RMK T01700150 IEM_DS3505
ZGNN,2001-03-21 02:00,ZGNN 210200Z AUTO 4SM 20/15 A2994 RMK T02000150 IEM_DS3505
ZGNN,2001-03-21 03:00,ZGNN 210300Z AUTO 34002KT 7SM 23/16 A2994 RMK SLP139 T02280159 57002 IEM_DS3505
ZGNN,2001-03-21 04:00,ZGNN 210400Z AUTO 6SM 24/16 A2991 RMK T02400160 IEM_DS3505
ZGNN,2001-03-21 05:00,ZGNN 210500Z AUTO 6SM 25/16 A2988 RMK T02500160 IEM_DS3505
ZGNN,2001-03-21 06:00,ZGNN 210600Z AUTO 09004KT 9SM 27/18 A2983 RMK SLP104 T02660175 57034 IEM_DS3505
ZGNN,2001-03-21 07:00,ZGNN 210700Z AUTO 6SM 28/15 A2980 RMK T02800150 IEM_DS3505
ZGNN,2001-03-21 08:00,ZGNN 210800Z AUTO 16008KT 6SM 28/16 A2974 RMK T02800160 IEM_DS3505
ZGNN,2001-03-21 09:00,ZGNN 210900Z AUTO 14006KT 16SM 29/16 A2974 RMK SLP074 T02880165 57029 IEM_DS3505
ZGNN,2001-03-21 10:00,ZGNN 211000Z AUTO 14010KT 6SM 27/15 A2974 RMK T02700150 IEM_DS3505
ZGNN,2001-03-21 11:00,ZGNN 211100Z AUTO 12006KT 6SM 25/16 A2974 RMK T02500160 IEM_DS3505
ZGNN,2001-03-21 12:00,ZGNN 211200Z AUTO 00000KT 16SM 24/16 A2974 RMK SLP075 T02450159 54000 IEM_DS3505
ZGNN,2001-03-21 13:00,ZGNN 211300Z AUTO 6SM 23/15 A2977 RMK T02300150 IEM_DS3505
ZGNN,2001-03-21 14:00,ZGNN 211400Z AUTO 20002KT 6SM 22/15 A2977 RMK T02200150 IEM_DS3505
ZGNN,2001-03-21 15:00,ZGNN 211500Z AUTO 00000KT 16SM 22/16 A2977 RMK SLP086 T02190162 52012 IEM_DS3505
ZGNN,2001-03-21 16:00,ZGNN 211600Z AUTO 4SM 20/17 A2977 RMK T02000170 IEM_DS3505
ZGNN,2001-03-21 17:00,ZGNN 211700Z AUTO 00000KT 4SM 19/16 A2977 RMK T01900160 IEM_DS3505
ZGNN,2001-03-21 18:00,ZGNN 211800Z AUTO 00000KT 12SM 19/17 A2977 RMK SLP083 T01920166 57002 IEM_DS3505
ZGNN,2001-03-21 19:00,ZGNN 211900Z AUTO 4SM 19/16 A2977 RMK T01900160 IEM_DS3505
ZGNN,2001-03-21 20:00,ZGNN 212000Z AUTO 4SM 19/16 A2974 RMK T01900160 IEM_DS3505
ZGNN,2001-03-21 21:00,ZGNN 212100Z AUTO 00000KT 12SM 18/16 A2974 RMK SLP075 T01780158 57008 IEM_DS3505
ZGNN,2001-03-21 22:00,ZGNN 212200Z AUTO 34002KT 5SM 18/16 A2977 RMK T01800160 IEM_DS3505
ZGNN,2001-03-21 23:00,ZGNN 212300Z AUTO 02002KT 6SM 18/15 A2977 RMK T01800150 IEM_DS3505
ZGNN,2001-03-22 00:00,ZGNN 220000Z AUTO 00000KT 6SM 18/16 A2980 RMK SLP096 T01780165 52019 IEM_DS3505
ZGNN,2001-03-22 01:00,ZGNN 220100Z AUTO 00000KT 6SM 21/16 A2983 RMK T02100160 IEM_DS3505
ZGNN,2001-03-22 02:00,ZGNN 220200Z AUTO 6SM 23/17 A2983 RMK T02300170 IEM_DS3505
ZGNN,2001-03-22 03:00,ZGNN 220300Z AUTO 22004KT 9SM 24/20 A2983 RMK SLP096 T02380195 52001 IEM_DS3505
ZGNN,2001-03-22 04:00,ZGNN 220400Z AUTO 21006KT 7SM 26/19 A2980 RMK T02600190 IEM_DS3505
ZGNN,2001-03-22 05:00,ZGNN 220500Z AUTO 7SM 28/19 A2974 RMK T02800190 IEM_DS3505
ZGNN,2001-03-22 06:00,ZGNN 220600Z AUTO 18006KT 12SM 28/20 A2971 RMK SLP058 T02830204 57037 IEM_DS3505
ZGNN,2001-03-22 07:00,ZGNN 220700Z AUTO 7SM 30/20 A2965 RMK T03000200 IEM_DS3505
ZGNN,2001-03-22 08:00,ZGNN 220800Z AUTO 7SM 30/21 A2962 RMK T03000210 IEM_DS3505
ZGNN,2001-03-22 09:00,ZGNN 220900Z AUTO 14006KT 16SM 30/22 A2962 RMK SLP033 T02980216 57024 IEM_DS3505
ZGNN,2001-03-22 10:00,ZGNN 221000Z AUTO 12008KT 7SM 28/22 A2962 RMK T02800220 IEM_DS3505
ZGNN,2001-03-22 11:00,ZGNN 221100Z AUTO 15010KT 7SM 26/21 A2962 RMK T02600210 IEM_DS3505
ZGNN,2001-03-22 12:00,ZGNN 221200Z AUTO 14006KT 12SM 25/22 A2965 RMK SLP048 T02490218 52013 IEM_DS3505
ZGNN,2001-03-22 13:00,ZGNN 221300Z AUTO 14008KT 6SM 24/21 A2968 RMK T02400210 IEM_DS3505
ZGNN,2001-03-22 15:00,ZGNN 221500Z AUTO 18004KT 12SM 24/22 RMK SLP068 T02370216 52021 IEM_DS3505
ZGNN,2001-03-22 16:00,ZGNN 221600Z AUTO 7SM RMK IEM_DS3505
ZGNN,2001-03-22 17:00,ZGNN 221700Z AUTO 00000KT 12SM 23/21 RMK SLP062 T02270213 IEM_DS3505
ZGNN,2001-03-22 18:00,ZGNN 221800Z AUTO 00000KT 12SM 23/21 RMK SLP067 T02270213 54000 IEM_DS3505
ZGNN,2001-03-22 19:00,ZGNN 221900Z AUTO 7SM RMK IEM_DS3505
ZGNN,2001-03-22 20:00,ZGNN 222000Z AUTO 06002KT 7SM RMK IEM_DS3505
ZGNN,2001-03-22 21:00,ZGNN 222100Z AUTO 00000KT 9SM 22/21 A2971 RMK SLP058 T02220213 57009 IEM_DS3505
ZGNN,2001-03-22 22:00,ZGNN 222200Z AUTO 00000KT 7SM 22/21 A2971 RMK T02200210 IEM_DS3505
ZGNN,2001-03-22 23:00,ZGNN 222300Z AUTO 7SM 22/21 A2971 RMK T02200210 IEM_DS3505
ZGNN,2001-03-23 00:00,ZGNN 230000Z AUTO 00000KT 9SM 23/21 A2974 RMK SLP073 T02260214 52014 IEM_DS3505
ZGNN,2001-03-23 01:00,ZGNN 230100Z AUTO 7SM 23/21 A2977 RMK T02300210 IEM_DS3505
ZGNN,2001-03-23 02:00,ZGNN 230200Z AUTO 7SM 25/21 A2977 RMK T02500210 IEM_DS3505
ZGNN,2001-03-23 03:00,ZGNN 230300Z AUTO 22002KT 12SM 26/22 A2977 RMK SLP080 T02650222 52008 IEM_DS3505
ZGNN,2001-03-23 04:00,ZGNN 230400Z AUTO 7SM 28/21 A2974 RMK T02800210 IEM_DS3505
ZGNN,2001-03-23 05:00,ZGNN 230500Z AUTO 19006KT 7SM 29/21 A2971 RMK T02900210 IEM_DS3505
ZGNN,2001-03-23 06:00,ZGNN 230600Z AUTO 18002KT 19SM 29/22 A2968 RMK SLP050 T02910221 57030 IEM_DS3505
ZGNN,2001-03-23 07:00,ZGNN 230700Z AUTO 7SM 30/22 A2962 RMK T03000220 IEM_DS3505
ZGNN,2001-03-23 08:00,ZGNN 230800Z AUTO 13010KT 7SM 30/22 A2962 RMK T03000220 IEM_DS3505
ZGNN,2001-03-23 09:00,ZGNN 230900Z AUTO 18008KT 19SM 29/23 A2959 RMK SLP026 T02940229 57023 IEM_DS3505
ZGNN,2001-03-23 10:00,ZGNN 231000Z AUTO 14012KT 6SM 28/22 A2959 RMK T02800220 IEM_DS3505
ZGNN,2001-03-23 11:00,ZGNN 231100Z AUTO 14010KT 6SM 26/21 A2962 RMK T02600210 IEM_DS3505
ZGNN,2001-03-23 12:00,ZGNN 231200Z AUTO 18006KT 19SM 25/22 A2962 RMK SLP039 T02480218 52012 IEM_DS3505
ZGNN,2001-03-23 13:00,ZGNN 231300Z AUTO 15006KT 6SM 24/21 A2965 RMK T02400210 IEM_DS3505
ZGNN,2001-03-23 15:00,ZGNN 231500Z AUTO 16004KT 16SM 24/22 RMK SLP060 T02350217 52021 IEM_DS3505
ZGNN,2001-03-23 18:00,ZGNN 231800Z AUTO 00000KT 12SM 22/21 A2971 RMK SLP058 T02180207 57002 IEM_DS3505
ZGNN,2001-03-23 19:00,ZGNN 231900Z AUTO 00000KT 2SM 21/20 A2968 RMK T02100200 IEM_DS3505
ZGNN,2001-03-23 20:00,ZGNN 232000Z AUTO 2SM 21/20 A2968 RMK T02100200 IEM_DS3505
ZGNN,2001-03-23 21:00,ZGNN 232100Z AUTO 00000KT 9SM 20/20 A2968 RMK SLP050 T02030200 57008 IEM_DS3505
ZGNN,2001-03-23 22:00,ZGNN 232200Z AUTO 01002KT 3SM 21/20 A2968 RMK T02100200 IEM_DS3505
ZGNN,2001-03-23 23:00,ZGNN 232300Z AUTO 1 1/4SM 21/20 A2968 RMK T02100200 IEM_DS3505
ZGNN,2001-03-24 00:00,ZGNN 240000Z AUTO 00000KT 4SM 22/21 A2971 RMK SLP069 T02150210 52018 IEM_DS3505
ZGNN,2001-03-24 01:00,ZGNN 240100Z AUTO 7SM 22/21 A2974 RMK T02200210 IEM_DS3505
ZGNN,2001-03-24 02:00,ZGNN 240200Z AUTO 7SM 24/21 A2974 RMK T02400210 IEM_DS3505
ZGNN,2001-03-24 03:00,ZGNN 240300Z AUTO 14004KT 7SM 26/23 A2974 RMK SLP069 T02620227 52001 IEM_DS3505
ZGNN,2001-03-24 04:00,ZGNN 240400Z AUTO 7SM 27/21 A2971 RMK T02700210 IEM_DS3505
ZGNN,2001-03-24 05:00,ZGNN 240500Z AUTO 7SM 28/21 A2968 RMK T02800210 IEM_DS3505
ZGNN,2001-03-24 06:00,ZGNN 240600Z AUTO 22006KT 19SM 29/23 A2965 RMK SLP033 T02910227 57036 IEM_DS3505
ZGNN,2001-03-24 07:00,ZGNN 240700Z AUTO 7SM 30/22 A2959 RMK T03000220 IEM_DS3505
ZGNN,2001-03-24 08:00,ZGNN 240800Z AUTO 7SM 30/22 A2956 RMK T03000220 IEM_DS3505
ZGNN,2001-03-24 09:00,ZGNN 240900Z AUTO 14006KT 19SM 29/23 A2956 RMK SLP010 T02900231 57023 IEM_DS3505
ZGNN,2001-03-24 10:00,ZGNN 241000Z AUTO 13010KT 6SM 27/22 A2956 RMK T02700220 IEM_DS3505
ZGNN,2001-03-24 11:00,ZGNN 241100Z AUTO 12006KT 6SM 26/22 A2956 RMK T02600220 IEM_DS3505
ZGNN,2001-03-24 12:00,ZGNN 241200Z AUTO 11002KT 19SM 26/23 A2959 RMK SLP025 T02560227 52015 IEM_DS3505
ZGNN,2001-03-24 13:00,ZGNN 241300Z AUTO 09004KT 6SM 24/22 A2965 RMK T02400220 IEM_DS3505
ZGNN,2001-03-24 15:00,ZGNN 241500Z AUTO 09002KT 17SM 24/22 A2965 RMK SLP050 T02400225 52025 IEM_DS3505
ZGNN,2001-03-24 16:00,ZGNN 241600Z AUTO 04006KT 4SM RMK IEM_DS3505
ZGNN,2001-03-24 17:00,ZGNN 241700Z AUTO 04006KT 4SM RMK IEM_DS3505
ZGNN,2001-03-24 18:00,ZGNN 241800Z AUTO 09004KT 16SM 24/22 RMK SLP044 T02400224 57005 IEM_DS3505
ZGNN,2001-03-24 19:00,ZGNN 241900Z AUTO 05006KT 5SM RMK IEM_DS3505
ZGNN,2001-03-24 20:00,ZGNN 242000Z AUTO 03006KT 3SM RMK IEM_DS3505
ZGNN,2001-03-24 21:00,ZGNN 242100Z AUTO 02004KT 11SM 24/22 A2968 RMK SLP052 T02360221 52008 IEM_DS3505
ZGNN,2001-03-24 22:00,ZGNN 242200Z AUTO 36012G23KT 5SM 22/19 A2971 RMK T02200190 IEM_DS3505
ZGNN,2001-03-24 23:00,ZGNN 242300Z AUTO 36012KT 7SM 19/17 A2977 RMK T01900170 IEM_DS3505
ZGNN,2001-03-25 00:00,ZGNN 250000Z AUTO 02008KT 5SM 19/16 A2983 RMK 60020 SLP109 T01860165 52054 IEM_DS3505
ZGNN,2001-03-25 01:00,ZGNN 250100Z AUTO 36008KT 7SM 18/16 A2985 RMK T01800160 IEM_DS3505
ZGNN,2001-03-25 02:00,ZGNN 250200Z AUTO 33010KT 7SM 18/16 A2988 RMK T01800160 IEM_DS3505
ZGNN,2001-03-25 03:00,ZGNN 250300Z AUTO 34012KT 19SM 18/15 A2988 RMK SLP119 T01790152 52009 IEM_DS3505
ZGNN,2001-03-25 04:00,ZGNN 250400Z AUTO 33014KT 7SM 20/14 A2985 RMK T02000140 IEM_DS3505
ZGNN,2001-03-25 05:00,ZGNN 250500Z AUTO 01010KT 7SM 21/14 A2983 RMK T02100140 IEM_DS3505
ZGNN,2001-03-25 06:00,ZGNN 250600Z AUTO 34006KT 19SM 21/15 A2980 RMK 60024 SLP093 T02140147 57025 IEM_DS3505
ZGNN,2001-03-25 07:00,ZGNN 250700Z AUTO 02010KT 7SM 23/14 A2977 RMK T02300140 IEM_DS3505
ZGNN,2001-03-25 08:00,ZGNN 250800Z AUTO 04006KT 7SM 23/14 A2974 RMK T02300140 IEM_DS3505
ZGNN,2001-03-25 09:00,ZGNN 250900Z AUTO 04006KT 19SM 23/16 A2974 RMK SLP072 T02320157 57020 IEM_DS3505
ZGNN,2001-03-25 10:00,ZGNN 251000Z AUTO 06008KT 7SM 22/15 A2974 RMK T02200150 IEM_DS3505
ZGNN,2001-03-25 11:00,ZGNN 251100Z AUTO 07006KT 7SM 21/15 A2977 RMK T02100150 IEM_DS3505
ZGNN,2001-03-25 12:00,ZGNN 251200Z AUTO 00000KT 19SM 20/16 A2977 RMK SLP092 T01980164 52018 IEM_DS3505
ZGNN,2001-03-25 13:00,ZGNN 251300Z AUTO 06002KT 6SM 20/16 A2980 RMK T02000160 IEM_DS3505
ZGNN,2001-03-25 14:00,ZGNN 251400Z AUTO 05002KT 6SM 19/15 A2983 RMK T01900150 IEM_DS3505
ZGNN,2001-03-25 15:00,ZGNN 251500Z AUTO 00000KT 12SM 18/15 A2985 RMK SLP118 T01790154 52025 IEM_DS3505
ZGNN,2001-03-25 16:00,ZGNN 251600Z AUTO 00000KT 6SM 18/15 A2985 RMK T01800150 IEM_DS3505
ZGNN,2001-03-25 17:00,ZGNN 251700Z AUTO 32002KT 7SM 17/14 A2985 RMK T01700140 IEM_DS3505
ZGNN,2001-03-25 18:00,ZGNN 251800Z AUTO 00000KT 12SM 17/15 A2985 RMK SLP113 T01710151 57005 IEM_DS3505
ZGNN,2001-03-25 19:00,ZGNN 251900Z AUTO 23002KT 6SM 16/15 A2983 RMK T01600150 IEM_DS3505
ZGNN,2001-03-25 20:00,ZGNN 252000Z AUTO 04004KT 4SM 16/14 A2980 RMK T01600140 IEM_DS3505
ZGNN,2001-03-25 21:00,ZGNN 252100Z AUTO 34002KT 11SM 15/14 A2977 RMK 70042 SLP086 T01520145 57026 IEM_DS3505
ZGNN,2001-03-25 22:00,ZGNN 252200Z AUTO 00000KT 4SM 15/14 A2980 RMK T01500140 IEM_DS3505
ZGNN,2001-03-25 23:00,ZGNN 252300Z AUTO 00000KT 4SM 15/14 A2980 RMK T01500140 IEM_DS3505
ZGNN,2001-03-26 00:00,ZGNN 260000Z AUTO 00000KT 7SM 16/14 A2983 RMK 70022 SLP109 T01580144 52022 IEM_DS3505
ZGNN,2001-03-26 01:00,ZGNN 260100Z AUTO 6SM 17/15 A2985 RMK T01700150 IEM_DS3505
ZGNN,2001-03-26 02:00,ZGNN 260200Z AUTO 6SM 18/14 A2985 RMK T01800140 IEM_DS3505
ZGNN,2001-03-26 03:00,ZGNN 260300Z AUTO 09004KT 12SM 19/14 A2985 RMK SLP118 T01920137 52009 IEM_DS3505
ZGNN,2001-03-26 04:00,ZGNN 260400Z AUTO 7SM 19/12 A2985 RMK T01900120 IEM_DS3505
ZGNN,2001-03-26 05:00,ZGNN 260500Z AUTO 07004KT 7SM 18/14 A2983 RMK T01800140 IEM_DS3505
ZGNN,2001-03-26 06:00,ZGNN 260600Z AUTO 04004KT 9SM 18/15 A2980 RMK 60008 SLP094 T01760152 57024 IEM_DS3505
ZGNN,2001-03-26 07:00,ZGNN 260700Z AUTO 06006KT 6SM 19/13 A2977 RMK T01900130 IEM_DS3505
ZGNN,2001-03-26 08:00,ZGNN 260800Z AUTO 35006KT 6SM 20/12 A2974 RMK T02000120 IEM_DS3505
ZGNN,2001-03-26 09:00,ZGNN 260900Z AUTO 02006KT 12SM 20/13 A2971 RMK SLP070 T02010134 57024 IEM_DS3505
ZGNN,2001-03-26 10:00,ZGNN 261000Z AUTO 33008KT 6SM 20/14 A2974 RMK T02000140 IEM_DS3505
ZGNN,2001-03-26 11:00,ZGNN 261100Z AUTO 36006KT 4SM 19/14 A2971 RMK T01900140 IEM_DS3505
ZGNN,2001-03-26 12:00,ZGNN 261200Z AUTO 00000KT 11SM 18/15 A2974 RMK 60003 SLP072 T01800153 52002 IEM_DS3505
ZGNN,2001-03-26 13:00,ZGNN 261300Z AUTO 36004KT 4SM 18/15 A2974 RMK T01800150 IEM_DS3505
ZGNN,2001-03-26 14:00,ZGNN 261400Z AUTO 02004KT 4SM 18/14 A2977 RMK T01800140 IEM_DS3505
ZGNN,2001-03-26 15:00,ZGNN 261500Z AUTO 00000KT 11SM 18/15 A2977 RMK SLP092 T01800148 52020 IEM_DS3505
ZGNN,2001-03-26 16:00,ZGNN 261600Z AUTO 04002KT 4SM 18/14 A2980 RMK T01800140 IEM_DS3505
ZGNN,2001-03-26 17:00,ZGNN 261700Z AUTO 05004KT 5SM 18/14 A2977 RMK T01800140 IEM_DS3505
ZGNN,2001-03-26 18:00,ZGNN 261800Z AUTO 14002KT 11SM 18/15 A2977 RMK SLP084 T01770146 57008 IEM_DS3505
ZGNN,2001-03-26 19:00,ZGNN 261900Z AUTO 05004KT 4SM 17/14 A2974 RMK T01700140 IEM_DS3505
ZGNN,2001-03-26 20:00,ZGNN 262000Z AUTO 04004KT 5SM 17/14 A2974 RMK T01700140 IEM_DS3505
ZGNN,2001-03-26 21:00,ZGNN 262100Z AUTO 14002KT 9SM 18/14 A2974 RMK 70006 SLP076 T01770141 57007 IEM_DS3505
ZGNN,2001-03-26 22:00,ZGNN 262200Z AUTO 01004KT 7SM 18/14 A2974 RMK T01800140 IEM_DS3505
ZGNN,2001-03-26 23:00,ZGNN 262300Z AUTO 3SM 17/14 A2974 RMK T01700140 IEM_DS3505
ZGNN,2001-03-27 00:00,ZGNN 270000Z AUTO 34006KT 7SM 17/15 A2977 RMK 60000 SLP090 T01740150 52013 IEM_DS3505
ZGNN,2001-03-27 01:00,ZGNN 270100Z AUTO 34004KT 4SM 17/14 A2980 RMK T01700140 IEM_DS3505
ZGNN,2001-03-27 02:00,ZGNN 270200Z AUTO 06004KT 4SM 18/14 A2980 RMK T01800140 IEM_DS3505
ZGNN,2001-03-27 03:00,ZGNN 270300Z AUTO 34004KT 6SM 18/16 A2983 RMK SLP101 T01850157 52011 IEM_DS3505
ZGNN,2001-03-27 04:00,ZGNN 270400Z AUTO 01004KT 5SM 19/14 A2980 RMK T01900140 IEM_DS3505
ZGNN,2001-03-27 05:00,ZGNN 270500Z AUTO 7SM 20/14 A2980 RMK T02000140 IEM_DS3505
ZGNN,2001-03-27 06:00,ZGNN 270600Z AUTO 00000KT 8SM 21/15 A2974 RMK SLP075 T02140154 57025 IEM_DS3505
ZGNN,2001-03-27 07:00,ZGNN 270700Z AUTO 7SM 21/15 A2971 RMK T02100150 IEM_DS3505
ZGNN,2001-03-27 08:00,ZGNN 270800Z AUTO 7SM 22/15 A2971 RMK T02200150 IEM_DS3505
ZGNN,2001-03-27 09:00,ZGNN 270900Z AUTO 14004KT 8SM 22/16 A2971 RMK SLP063 T02200165 57012 IEM_DS3505
ZGNN,2001-03-27 10:00,ZGNN 271000Z AUTO 09004KT 4SM 21/16 A2971 RMK T02100160 IEM_DS3505
ZGNN,2001-03-27 11:00,ZGNN 271100Z AUTO 11004KT 3SM 21/16 A2974 RMK T02100160 IEM_DS3505
ZGNN,2001-03-27 12:00,ZGNN 271200Z AUTO 00000KT 9SM 21/17 A2977 RMK SLP083 T02080174 52020 IEM_DS3505
ZGNN,2001-03-27 13:00,ZGNN 271300Z AUTO 3SM 21/16 A2977 RMK T02100160 IEM_DS3505
ZGNN,2001-03-27 14:00,ZGNN 271400Z AUTO 09004KT 3SM 20/16 A2983 RMK T02000160 IEM_DS3505
ZGNN,2001-03-27 15:00,ZGNN 271500Z AUTO 00000KT 9SM 20/16 A2983 RMK SLP109 T02000162 52025 IEM_DS3505
ZGNN,2001-03-27 16:00,ZGNN 271600Z AUTO 05004KT 3SM 19/16 A2983 RMK T01900160 IEM_DS3505
ZGNN,2001-03-27 17:00,ZGNN 271700Z AUTO 05004KT 3SM 19/16 A2983 RMK T01900160 IEM_DS3505
ZGNN,2001-03-27 18:00,ZGNN 271800Z AUTO 00000KT 9SM 19/16 A2983 RMK SLP101 T01860165 57007 IEM_DS3505
ZGNN,2001-03-27 19:00,ZGNN 271900Z AUTO 05002KT 3SM 18/16 A2983 RMK T01800160 IEM_DS3505
ZGNN,2001-03-27 20:00,ZGNN 272000Z AUTO 02004KT 4SM 19/16 A2980 RMK T01900160 IEM_DS3505
ZGNN,2001-03-27 21:00,ZGNN 272100Z AUTO 00000KT 8SM 18/16 A2983 RMK 70000 SLP100 T01830165 57001 IEM_DS3505
ZGNN,2001-03-27 22:00,ZGNN 272200Z AUTO 02002KT 3SM 18/15 A2983 RMK T01800150 IEM_DS3505
ZGNN,2001-03-27 23:00,ZGNN 272300Z AUTO 04002KT 2SM 18/16 A2983 RMK T01800160 IEM_DS3505
ZGNN,2001-03-28 00:00,ZGNN 280000Z AUTO 14002KT 4SM 19/17 A2985 RMK SLP111 T01860166 52011 IEM_DS3505
ZGNN,2001-03-28 01:00,ZGNN 280100Z AUTO 07006KT 7SM 19/15 A2985 RMK T01900150 IEM_DS3505
ZGNN,2001-03-28 02:00,ZGNN 280200Z AUTO 07006KT 7SM 21/16 A2988 RMK T02100160 IEM_DS3505
ZGNN,2001-03-28 03:00,ZGNN 280300Z AUTO 14004KT 7SM 22/17 A2985 RMK SLP111 T02230172 54000 IEM_DS3505
ZGNN,2001-03-28 04:00,ZGNN 280400Z AUTO 7SM 23/17 A2983 RMK T02300170 IEM_DS3505
ZGNN,2001-03-28 05:00,ZGNN 280500Z AUTO 7SM 23/17 A2983 RMK T02300170 IEM_DS3505
ZGNN,2001-03-28 06:00,ZGNN 280600Z AUTO 00000KT 9SM 25/18 A2980 RMK SLP091 T02480181 57019 IEM_DS3505
ZGNN,2001-03-28 07:00,ZGNN 280700Z AUTO 7SM 25/17 A2977 RMK T02500170 IEM_DS3505
ZGNN,2001-03-28 08:00,ZGNN 280800Z AUTO 13006KT 7SM 25/18 A2977 RMK T02500180 IEM_DS3505
ZGNN,2001-03-28 09:00,ZGNN 280900Z AUTO 14004KT 9SM 25/18 A2977 RMK SLP082 T02480182 57009 IEM_DS3505
ZGNN,2001-03-28 10:00,ZGNN 281000Z AUTO 14006KT 5SM 24/18 A2980 RMK T02400180 IEM_DS3505
ZGNN,2001-03-28 11:00,ZGNN 281100Z AUTO 09002KT 5SM 23/18 A2980 RMK T02300180 IEM_DS3505
ZGNN,2001-03-28 12:00,ZGNN 281200Z AUTO 07002KT 7SM 23/20 A2983 RMK 60003 SLP101 T02260197 52018 IEM_DS3505
ZGNN,2001-03-28 13:00,ZGNN 281300Z AUTO 04002KT 4SM 22/19 A2985 RMK T02200190 IEM_DS3505
ZGNN,2001-03-28 14:00,ZGNN 281400Z AUTO 04004KT 4SM 22/19 A2988 RMK T02200190 IEM_DS3505
ZGNN,2001-03-28 15:00,ZGNN 281500Z AUTO 09006KT 6SM 22/19 A2991 RMK SLP135 T02220194 52034 IEM_DS3505
ZGNN,2001-03-28 16:00,ZGNN 281600Z AUTO 36016KT 7SM 17/15 A3000 RMK T01700150 IEM_DS3505
ZGNN,2001-03-28 18:00,ZGNN 281800Z AUTO 04004KT 6SM 16/14 A3000 RMK 60055 SLP162 T01600143 52026 IEM_DS3505
ZGNN,2001-03-28 19:00,ZGNN 281900Z AUTO 33006KT 7SM 16/14 A3000 RMK T01600140 IEM_DS3505
ZGNN,2001-03-28 21:00,ZGNN 282100Z AUTO 34006KT 12SM 16/13 A3000 RMK 70056 SLP164 T01590134 52002 IEM_DS3505
ZGNN,2001-03-28 22:00,ZGNN 282200Z AUTO 01006KT 7SM 16/13 A3000 RMK T01600130 IEM_DS3505
ZGNN,2001-03-28 23:00,ZGNN 282300Z AUTO 32006KT 7SM 16/12 A3003 RMK T01600120 IEM_DS3505
ZGNN,2001-03-29 00:00,ZGNN 290000Z AUTO 36004KT 19SM 16/12 A3003 RMK 60001 SLP177 T01550124 52012 IEM_DS3505
ZGNN,2001-03-29 01:00,ZGNN 290100Z AUTO 34008KT 7SM 17/12 A3006 RMK T01700120 IEM_DS3505
ZGNN,2001-03-29 02:00,ZGNN 290200Z AUTO 32008KT 7SM 17/11 A3006 RMK T01700110 IEM_DS3505
ZGNN,2001-03-29 03:00,ZGNN 290300Z AUTO 36008KT 19SM 19/12 A3006 RMK SLP178 T01900122 52002 IEM_DS3505
ZGNN,2001-03-29 04:00,ZGNN 290400Z AUTO 04006KT 7SM 20/11 A3003 RMK T02000110 IEM_DS3505
ZGNN,2001-03-29 05:00,ZGNN 290500Z AUTO 34006KT 7SM 20/12 A3000 RMK T02000120 IEM_DS3505
ZGNN,2001-03-29 06:00,ZGNN 290600Z AUTO 14004KT 19SM 22/12 A2994 RMK SLP145 T02200122 57033 IEM_DS3505
ZGNN,2001-03-29 07:00,ZGNN 290700Z AUTO 7SM 23/12 A2991 RMK T02300120 IEM_DS3505
ZGNN,2001-03-29 08:00,ZGNN 290800Z AUTO 6SM 24/12 A2988 RMK T02400120 IEM_DS3505
ZGNN,2001-03-29 09:00,ZGNN 290900Z AUTO 34004KT 19SM 24/10 A2985 RMK SLP115 T02380101 57029 IEM_DS3505
ZGNN,2001-03-29 10:00,ZGNN 291000Z AUTO 07004KT 6SM 23/10 A2985 RMK T02300100 IEM_DS3505
ZGNN,2001-03-29 11:00,ZGNN 291100Z AUTO 11004KT 6SM 21/12 A2988 RMK T02100120 IEM_DS3505
ZGNN,2001-03-29 12:00,ZGNN 291200Z AUTO 00000KT 19SM 20/13 A2988 RMK SLP129 T01980128 52012 IEM_DS3505
ZGNN,2001-03-29 13:00,ZGNN 291300Z AUTO 10002KT 6SM 19/12 A2991 RMK T01900120 IEM_DS3505
ZGNN,2001-03-29 15:00,ZGNN 291500Z AUTO 00000KT 16SM 17/14 RMK SLP140 T01660138 52011 IEM_DS3505
ZGNN,2001-03-29 17:00,ZGNN 291700Z AUTO 04002KT 6SM 17/14 A2991 RMK T01700140 IEM_DS3505
ZGNN,2001-03-29 18:00,ZGNN 291800Z AUTO 00000KT 12SM 16/14 A2991 RMK SLP136 T01590136 57003 IEM_DS3505
ZGNN,2001-03-29 19:00,ZGNN 291900Z AUTO 03004KT 7SM 16/13 A2991 RMK T01600130 IEM_DS3505
ZGNN,2001-03-29 20:00,ZGNN 292000Z AUTO 00000KT 7SM 17/13 A2991 RMK T01700130 IEM_DS3505
ZGNN,2001-03-29 21:00,ZGNN 292100Z AUTO 00000KT 11SM 15/13 A2991 RMK SLP131 T01510133 57005 IEM_DS3505
ZGNN,2001-03-29 22:00,ZGNN 292200Z AUTO 30002KT 6SM 16/14 A2991 RMK T01600140 IEM_DS3505
ZGNN,2001-03-29 23:00,ZGNN 292300Z AUTO 01002KT 6SM 16/13 A2994 RMK T01600130 IEM_DS3505
ZGNN,2001-03-30 00:00,ZGNN 300000Z AUTO 00000KT 6SM 15/15 A2994 RMK SLP148 T01540147 52016 IEM_DS3505
ZGNN,2001-03-30 01:00,ZGNN 300100Z AUTO 07002KT 6SM 18/15 A2997 RMK T01800150 IEM_DS3505
ZGNN,2001-03-30 02:00,ZGNN 300200Z AUTO 14010KT 7SM 20/16 A2997 RMK T02000160 IEM_DS3505
ZGNN,2001-03-30 03:00,ZGNN 300300Z AUTO 18008KT 9SM 21/16 A2997 RMK SLP152 T02120165 52005 IEM_DS3505
ZGNN,2001-03-30 04:00,ZGNN 300400Z AUTO 15008KT 7SM 21/16 A2994 RMK T02100160 IEM_DS3505
ZGNN,2001-03-30 05:00,ZGNN 300500Z AUTO 15008KT 7SM 22/16 A2991 RMK T02200160 IEM_DS3505
ZGNN,2001-03-30 06:00,ZGNN 300600Z AUTO 16004KT 12SM 24/17 A2988 RMK SLP118 T02360172 57034 IEM_DS3505
ZGNN,2001-03-30 07:00,ZGNN 300700Z AUTO 15010KT 7SM 24/17 A2985 RMK T02400170 IEM_DS3505
ZGNN,2001-03-30 08:00,ZGNN 300800Z AUTO 15012KT 7SM 24/17 A2983 RMK T02400170 IEM_DS3505
ZGNN,2001-03-30 09:00,ZGNN 300900Z AUTO 14006KT 11SM 24/17 A2983 RMK SLP111 T02360169 57007 IEM_DS3505
ZGNN,2001-03-30 10:00,ZGNN 301000Z AUTO 14010KT 7SM 22/17 A2985 RMK T02200170 IEM_DS3505
ZGNN,2001-03-30 11:00,ZGNN 301100Z AUTO 14010KT 7SM 21/17 A2988 RMK T02100170 IEM_DS3505
ZGNN,2001-03-30 12:00,ZGNN 301200Z AUTO 18002KT 9SM 22/18 A2988 RMK SLP130 T02170175 52019 IEM_DS3505
ZGNN,2001-03-30 13:00,ZGNN 301300Z AUTO 05002KT 7SM 21/17 A2991 RMK T02100170 IEM_DS3505
ZGNN,2001-03-30 14:00,ZGNN 301400Z AUTO 3SM 21/18 A2994 RMK T02100180 IEM_DS3505
ZGNN,2001-03-30 15:00,ZGNN 301500Z AUTO 00000KT 7SM 21/18 A2997 RMK SLP150 T02120183 52021 IEM_DS3505
ZGNN,2001-03-30 16:00,ZGNN 301600Z AUTO 1 1/2SM 20/18 A2997 RMK T02000180 IEM_DS3505
ZGNN,2001-03-30 17:00,ZGNN 301700Z AUTO 07002KT 1SM 19/18 A2997 RMK T01900180 IEM_DS3505
ZGNN,2001-03-30 18:00,ZGNN 301800Z AUTO 00000KT 7SM 20/19 A2994 RMK 60008 SLP146 T01980192 57004 IEM_DS3505
ZGNN,2001-03-30 19:00,ZGNN 301900Z AUTO 1 1/4SM 19/18 A2994 RMK T01900180 IEM_DS3505
ZGNN,2001-03-30 20:00,ZGNN 302000Z AUTO 06002KT 1 1/4SM 19/18 A2994 RMK T01900180 IEM_DS3505
ZGNN,2001-03-30 21:00,ZGNN 302100Z AUTO 09002KT 6SM 20/19 A2994 RMK 70011 SLP140 T01960190 57006 IEM_DS3505
ZGNN,2001-03-30 22:00,ZGNN 302200Z AUTO 1 1/4SM 19/18 A2994 RMK T01900180 IEM_DS3505
ZGNN,2001-03-30 23:00,ZGNN 302300Z AUTO 06002KT 1SM 19/18 A2997 RMK T01900180 IEM_DS3505
ZGNN,2001-03-31 00:00,ZGNN 310000Z AUTO 00000KT 2 1/2SM 19/19 A3000 RMK 60004 SLP162 T01940191 52021 IEM_DS3505
ZGNN,2001-03-31 01:00,ZGNN 310100Z AUTO 04006KT 1SM 19/18 A3000 RMK T01900180 IEM_DS3505
ZGNN,2001-03-31 02:00,ZGNN 310200Z AUTO 04004KT 1SM 19/19 A3003 RMK T01900190 IEM_DS3505
ZGNN,2001-03-31 03:00,ZGNN 310300Z AUTO 00000KT 2SM 20/20 A3003 RMK SLP170 T02000197 52008 IEM_DS3505
ZGNN,2001-03-31 04:00,ZGNN 310400Z AUTO 11004KT 1 1/4SM 20/19 A3003 RMK T02000190 IEM_DS3505
ZGNN,2001-03-31 05:00,ZGNN 310500Z AUTO 07006KT 1 1/4SM 20/19 A3000 RMK T02000190 IEM_DS3505
ZGNN,2001-03-31 06:00,ZGNN 310600Z AUTO 09002KT 1 1/4SM 20/19 A2997 RMK 60000 SLP155 T01980193 57015 IEM_DS3505
ZGNN,2001-03-31 07:00,ZGNN 310700Z AUTO 06006KT 1SM 19/18 A2994 RMK T01900180 IEM_DS3505
ZGNN,2001-03-31 08:00,ZGNN 310800Z AUTO 06008KT 1 1/4SM 19/18 A2994 RMK T01900180 IEM_DS3505
ZGNN,2001-03-31 09:00,ZGNN 310900Z AUTO 09004KT 3SM 20/19 A2994 RMK SLP149 T01970189 57006 IEM_DS3505
ZGNN,2001-03-31 10:00,ZGNN 311000Z AUTO 07008KT 1SM 19/18 A2997 RMK T01900180 IEM_DS3505
ZGNN,2001-03-31 11:00,ZGNN 311100Z AUTO 05006KT 1SM 19/18 A2997 RMK T01900180 IEM_DS3505
ZGNN,2001-03-31 12:00,ZGNN 311200Z AUTO 09004KT 1 1/4SM 19/19 A3000 RMK 60008 SLP163 T01920189 52014 IEM_DS3505
ZGNN,2001-03-31 13:00,ZGNN 311300Z AUTO 08006KT 2 1/2SM 19/18 A3000 RMK T01900180 IEM_DS3505
ZGNN,2001-03-31 14:00,ZGNN 311400Z AUTO 06006KT 1 1/2SM 19/18 A3003 RMK T01900180 IEM_DS3505
ZGNN,2001-03-31 15:00,ZGNN 311500Z AUTO 00000KT 1 1/4SM 19/19 A3006 RMK SLP181 T01910188 52017 IEM_DS3505
ZGNN,2001-03-31 16:00,ZGNN 311600Z AUTO 07006KT 3SM 19/18 A3006 RMK T01900180 IEM_DS3505
ZGNN,2001-03-31 18:00,ZGNN 311800Z AUTO 07002KT 1 1/4SM 19/18 A3000 RMK 60024 SLP168 T01860183 57013 IEM_DS3505
ZGNN,2001-03-31 19:00,ZGNN 311900Z AUTO 05006KT 1 1/4SM 18/17 A3000 RMK T01800170 IEM_DS3505
ZGNN,2001-03-31 20:00,ZGNN 312000Z AUTO 06004KT 2 1/2SM 18/17 A3000 RMK T01800170 IEM_DS3505
ZGNN,2001-03-31 21:00,ZGNN 312100Z AUTO 00000KT 2SM 18/18 A3000 RMK 70042 SLP163 T01810178 57005 IEM_DS3505
ZGNN,2001-03-31 22:00,ZGNN 312200Z AUTO 07004KT 2 1/2SM 18/17 A3000 RMK T01800170 IEM_DS3505
ZGNN,2001-03-31 23:00,ZGNN 312300Z AUTO 07006KT 1 1/4SM 18/17 A3000 RMK T01800170 IEM_DS3505
ZGNN,2001-04-01 00:00,ZGNN 010000Z AUTO 09004KT 3SM 18/18 A3000 RMK 60016 SLP168 T01800175 52005 IEM_DS3505
ZGNN,2001-04-01 01:00,ZGNN 010100Z AUTO 06004KT 1 1/4SM 18/17 A3003 RMK T01800170 IEM_DS3505
ZGNN,2001-04-01 02:00,ZGNN 010200Z AUTO 07004KT 1 1/4SM 18/17 A3006 RMK T01800170 IEM_DS3505
ZGNN,2001-04-01 03:00,ZGNN 010300Z AUTO 00000KT 1 1/2SM 18/18 A3003 RMK SLP178 T01820179 52010 IEM_DS3505
ZGNN,2001-04-01 04:00,ZGNN 010400Z AUTO 1SM 18/17 A3003 RMK T01800170 IEM_DS3505
ZGNN,2001-04-01 05:00,ZGNN 010500Z AUTO 06004KT 1 1/4SM 19/18 A2997 RMK T01900180 IEM_DS3505
ZGNN,2001-04-01 06:00,ZGNN 010600Z AUTO 07002KT 1 1/2SM 19/19 A2994 RMK 60002 SLP145 T01930188 57032 IEM_DS3505
ZGNN,2001-04-01 07:00,ZGNN 010700Z AUTO 07004KT 2 1/2SM 20/18 A2991 RMK T02000180 IEM_DS3505
ZGNN,2001-04-01 08:00,ZGNN 010800Z AUTO 05002KT 2 1/2SM 20/19 A2988 RMK T02000190 IEM_DS3505
ZGNN,2001-04-01 09:00,ZGNN 010900Z AUTO 00000KT 2SM 21/20 A2988 RMK SLP124 T02090200 57021 IEM_DS3505
ZGNN,2001-04-01 10:00,ZGNN 011000Z AUTO 5SM 21/20 A2988 RMK T02100200 IEM_DS3505
ZGNN,2001-04-01 11:00,ZGNN 011100Z AUTO 15006KT 7SM 22/19 A2988 RMK T02200190 IEM_DS3505
ZGNN,2001-04-01 12:00,ZGNN 011200Z AUTO 00000KT 1 1/4SM 21/20 A2988 RMK 60003 SLP126 T02080205 52002 IEM_DS3505
ZGNN,2001-04-01 13:00,ZGNN 011300Z AUTO 16006KT 7SM 22/19 A2991 RMK T02200190 IEM_DS3505
ZGNN,2001-04-01 14:00,ZGNN 011400Z AUTO 15008KT 7SM 22/19 A2991 RMK T02200190 IEM_DS3505
ZGNN,2001-04-01 15:00,ZGNN 011500Z AUTO 18004KT 6SM 22/20 A2991 RMK SLP136 T02180203 52010 IEM_DS3505
ZGNN,2001-04-01 16:00,ZGNN 011600Z AUTO 16008KT 4SM 22/20 A2991 RMK T02200200 IEM_DS3505
ZGNN,2001-04-01 17:00,ZGNN 011700Z AUTO 16010KT 4SM 22/20 A2988 RMK T02200200 IEM_DS3505
ZGNN,2001-04-01 18:00,ZGNN 011800Z AUTO 18006KT 7SM 22/20 A2988 RMK SLP123 T02180203 57012 IEM_DS3505
ZGNN,2001-04-01 19:00,ZGNN 011900Z AUTO 17006KT 4SM 22/20 A2985 RMK T02200200 IEM_DS3505
ZGNN,2001-04-01 20:00,ZGNN 012000Z AUTO 16006KT 6SM 22/20 A2985 RMK T02200200 IEM_DS3505
ZGNN,2001-04-01 21:00,ZGNN 012100Z AUTO 18004KT 9SM 22/20 A2985 RMK 70012 SLP112 T02170205 57011 IEM_DS3505
ZGNN,2001-04-01 22:00,ZGNN 012200Z AUTO 15004KT 7SM 22/20 A2985 RMK T02200200 IEM_DS3505
ZGNN,2001-04-01 23:00,ZGNN 012300Z AUTO 14008KT 7SM 22/20 A2985 RMK T02200200 IEM_DS3505
ZGNN,2001-04-02 00:00,ZGNN 020000Z AUTO 18006KT 5SM 22/20 A2988 RMK 70002 SLP123 T02210204 52011 IEM_DS3505
ZGNN,2001-04-02 01:00,ZGNN 020100Z AUTO 15006KT 7SM 22/20 A2988 RMK T02200200 IEM_DS3505
ZGNN,2001-04-02 02:00,ZGNN 020200Z AUTO 15010KT 7SM 23/20 A2988 RMK T02300200 IEM_DS3505
ZGNN,2001-04-02 03:00,ZGNN 020300Z AUTO 20004KT 11SM 25/21 A2988 RMK SLP123 T02460213 52001 IEM_DS3505
ZGNN,2001-04-02 04:00,ZGNN 020400Z AUTO 14008KT 7SM 25/21 A2985 RMK T02500210 IEM_DS3505
ZGNN,2001-04-02 05:00,ZGNN 020500Z AUTO 14006KT 7SM 24/20 A2983 RMK T02400200 IEM_DS3505
ZGNN,2001-04-02 06:00,ZGNN 020600Z AUTO 18006KT 16SM 26/22 A2977 RMK SLP084 T02600219 57038 IEM_DS3505
ZGNN,2001-04-02 07:00,ZGNN 020700Z AUTO 15006KT 7SM 26/21 A2974 RMK T02600210 IEM_DS3505
ZGNN,2001-04-02 08:00,ZGNN 020800Z AUTO 12010KT 7SM 26/21 A2974 RMK T02600210 IEM_DS3505
ZGNN,2001-04-02 09:00,ZGNN 020900Z AUTO 14006KT 19SM 27/22 A2971 RMK SLP060 T02660219 57024 IEM_DS3505
ZGNN,2001-04-02 10:00,ZGNN 021000Z AUTO 14010KT 7SM 25/21 A2971 RMK T02500210 IEM_DS3505
ZGNN,2001-04-02 11:00,ZGNN 021100Z AUTO 14004KT 7SM 24/21 A2971 RMK T02400210 IEM_DS3505
ZGNN,2001-04-02 12:00,ZGNN 021200Z AUTO 14006KT 12SM 24/21 A2971 RMK SLP068 T02380208 52008 IEM_DS3505
ZGNN,2001-04-02 13:00,ZGNN 021300Z AUTO 15008KT 6SM 23/20 A2974 RMK T02300200 IEM_DS3505
ZGNN,2001-04-02 14:00,ZGNN 021400Z AUTO 15002KT 4SM 22/20 A2977 RMK T02200200 IEM_DS3505
ZGNN,2001-04-02 15:00,ZGNN 021500Z AUTO 00000KT 12SM 22/21 A2977 RMK SLP086 T02230209 52018 IEM_DS3505
ZGNN,2001-04-02 16:00,ZGNN 021600Z AUTO 14004KT 4SM 22/20 A2977 RMK T02200200 IEM_DS3505
ZGNN,2001-04-02 17:00,ZGNN 021700Z AUTO 11002KT 2 1/2SM 21/20 A2977 RMK T02100200 IEM_DS3505
ZGNN,2001-04-02 18:00,ZGNN 021800Z AUTO 14004KT 11SM 22/21 A2977 RMK SLP084 T02200208 57002 IEM_DS3505
ZGNN,2001-04-02 19:00,ZGNN 021900Z AUTO 4SM 22/20 A2977 RMK T02200200 IEM_DS3505
ZGNN,2001-04-02 20:00,ZGNN 022000Z AUTO 13004KT 4SM 22/20 A2977 RMK T02200200 IEM_DS3505
ZGNN,2001-04-02 21:00,ZGNN 022100Z AUTO 00000KT 9SM 22/21 A2977 RMK SLP078 T02180209 57006 IEM_DS3505
ZGNN,2001-04-02 22:00,ZGNN 022200Z AUTO 00000KT 7SM 22/20 A2977 RMK T02200200 IEM_DS3505
ZGNN,2001-04-02 23:00,ZGNN 022300Z AUTO 5SM 22/20 A2977 RMK T02200200 IEM_DS3505
ZGNN,2001-04-03 00:00,ZGNN 030000Z AUTO 00000KT 7SM 22/22 A2980 RMK SLP097 T02230216 52018 IEM_DS3505
ZGNN,2001-04-03 01:00,ZGNN 030100Z AUTO 00000KT 7SM 23/21 A2983 RMK T02300210 IEM_DS3505
ZGNN,2001-04-03 02:00,ZGNN 030200Z AUTO 00000KT 7SM 24/21 A2983 RMK T02400210 IEM_DS3505
ZGNN,2001-04-03 03:00,ZGNN 030300Z AUTO 11004KT 12SM 25/22 A2983 RMK SLP102 T02480221 52006 IEM_DS3505
ZGNN,2001-04-03 04:00,ZGNN 030400Z AUTO 7SM 26/21 A2980 RMK T02600210 IEM_DS3505
ZGNN,2001-04-03 05:00,ZGNN 030500Z AUTO 7SM 28/21 A2977 RMK T02800210 IEM_DS3505
ZGNN,2001-04-03 06:00,ZGNN 030600Z AUTO 27002KT 16SM 28/22 A2974 RMK SLP070 T02780224 57031 IEM_DS3505
ZGNN,2001-04-03 07:00,ZGNN 030700Z AUTO 7SM 28/22 A2971 RMK T02800220 IEM_DS3505
ZGNN,2001-04-03 08:00,ZGNN 030800Z AUTO 10006KT 7SM 27/22 A2971 RMK T02700220 IEM_DS3505
ZGNN,2001-04-03 09:00,ZGNN 030900Z AUTO 09006KT 16SM 28/23 A2968 RMK SLP058 T02780229 57012 IEM_DS3505
ZGNN,2001-04-03 10:00,ZGNN 031000Z AUTO 11006KT 7SM 27/23 A2971 RMK T02700230 IEM_DS3505
ZGNN,2001-04-03 11:00,ZGNN 031100Z AUTO 11006KT 7SM 26/23 A2971 RMK T02600230 IEM_DS3505
ZGNN,2001-04-03 12:00,ZGNN 031200Z AUTO 09004KT 14SM 25/23 A2974 RMK SLP075 T02540232 52016 IEM_DS3505
ZGNN,2001-04-03 13:00,ZGNN 031300Z AUTO 07004KT 7SM 24/22 A2977 RMK T02400220 IEM_DS3505
ZGNN,2001-04-03 14:00,ZGNN 031400Z AUTO 07004KT 7SM 24/22 A2977 RMK T02400220 IEM_DS3505
ZGNN,2001-04-03 15:00,ZGNN 031500Z AUTO 11004KT 12SM 25/23 RMK SLP094 T02470231 52019 IEM_DS3505
ZGNN,2001-04-03 16:00,ZGNN 031600Z AUTO 07004KT 4SM 24/22 A2980 RMK T02400220 IEM_DS3505
ZGNN,2001-04-03 17:00,ZGNN 031700Z AUTO 4SM 24/22 A2980 RMK T02400220 IEM_DS3505
ZGNN,2001-04-03 18:00,ZGNN 031800Z AUTO 14002KT 12SM 24/23 A2980 RMK SLP089 T02440231 57004 IEM_DS3505
ZGNN,2001-04-03 19:00,ZGNN 031900Z AUTO 4SM 24/22 A2977 RMK T02400220 IEM_DS3505
ZGNN,2001-04-03 20:00,ZGNN 032000Z AUTO 14002KT 4SM 24/22 A2977 RMK T02400220 IEM_DS3505
ZGNN,2001-04-03 21:00,ZGNN 032100Z AUTO 00000KT 9SM 24/23 A2980 RMK 70003 SLP086 T02380229 57003 IEM_DS3505
ZGNN,2001-04-03 22:00,ZGNN 032200Z AUTO 02002KT 4SM 23/22 A2980 RMK T02300220 IEM_DS3505
ZGNN,2001-04-03 23:00,ZGNN 032300Z AUTO 04006KT 1 1/2SM 22/20 A2983 RMK T02200200 IEM_DS3505
ZGNN,2001-04-04 00:00,ZGNN 040000Z AUTO 04004KT 3SM 21/20 A2985 RMK 60004 SLP117 T02080199 52029 IEM_DS3505
ZGNN,2001-04-04 01:00,ZGNN 040100Z AUTO 04008KT 4SM 19/18 A2991 RMK T01900180 IEM_DS3505
ZGNN,2001-04-04 02:00,ZGNN 040200Z AUTO 05008KT 6SM 19/18 A2991 RMK T01900180 IEM_DS3505
ZGNN,2001-04-04 03:00,ZGNN 040300Z AUTO 04002KT 4SM 20/19 A2991 RMK SLP132 T01990190 52015 IEM_DS3505
ZGNN,2001-04-04 04:00,ZGNN 040400Z AUTO 06006KT 5SM 20/18 A2991 RMK T02000180 IEM_DS3505
ZGNN,2001-04-04 05:00,ZGNN 040500Z AUTO 04006KT 2SM 20/18 A2988 RMK T02000180 IEM_DS3505
ZGNN,2001-04-04 06:00,ZGNN 040600Z AUTO 09004KT 5SM 21/18 A2985 RMK 60004 SLP116 T02100185 57016 IEM_DS3505
ZGNN,2001-04-04 07:00,ZGNN 040700Z AUTO 04010KT 7SM 21/17 A2985 RMK T02100170 IEM_DS3505
ZGNN,2001-04-04 08:00,ZGNN 040800Z AUTO 02008KT 7SM 21/18 A2983 RMK T02100180 IEM_DS3505
ZGNN,2001-04-04 09:00,ZGNN 040900Z AUTO 27010KT 5SM 20/19 A2985 RMK SLP114 T02020186 57002 IEM_DS3505
ZGNN,2001-04-04 10:00,ZGNN 041000Z AUTO 36004KT 3SM 20/18 A2985 RMK T02000180 IEM_DS3505
ZGNN,2001-04-04 11:00,ZGNN 041100Z AUTO 01006KT 5SM 20/18 A2985 RMK T02000180 IEM_DS3505
ZGNN,2001-04-04 12:00,ZGNN 041200Z AUTO 00000KT 6SM 20/19 A2988 RMK 60008 SLP121 T02020191 52006 IEM_DS3505
ZGNN,2001-04-04 13:00,ZGNN 041300Z AUTO 06002KT 4SM 20/18 A2991 RMK T02000180 IEM_DS3505
ZGNN,2001-04-04 14:00,ZGNN 041400Z AUTO 07004KT 3SM 20/18 A2994 RMK T02000180 IEM_DS3505
ZGNN,2001-04-04 15:00,ZGNN 041500Z AUTO 00000KT 7SM 20/18 A2994 RMK SLP148 T01970181 52026 IEM_DS3505
ZGNN,2001-04-04 16:00,ZGNN 041600Z AUTO 4SM 20/17 A2994 RMK T02000170 IEM_DS3505
ZGNN,2001-04-04 17:00,ZGNN 041700Z AUTO 4SM 20/17 A2994 RMK T02000170 IEM_DS3505
ZGNN,2001-04-04 18:00,ZGNN 041800Z AUTO 00000KT 7SM 19/18 RMK 60003 SLP134 T01940176 57014 IEM_DS3505
ZGNN,2001-04-04 20:00,ZGNN 042000Z AUTO 00000KT 4SM 19/17 A2988 RMK T01900170 IEM_DS3505
ZGNN,2001-04-04 21:00,ZGNN 042100Z AUTO 00000KT 6SM 19/18 A2988 RMK 70014 SLP128 T01920179 57006 IEM_DS3505
ZGNN,2001-04-04 22:00,ZGNN 042200Z AUTO 16002KT 7SM 19/17 A2991 RMK T01900170 IEM_DS3505
ZGNN,2001-04-04 23:00,ZGNN 042300Z AUTO 06002KT 5SM 19/17 A2991 RMK T01900170 IEM_DS3505
ZGNN,2001-04-05 00:00,ZGNN 050000Z AUTO 00000KT 4SM 19/18 A2994 RMK 70009 SLP143 T01940183 52015 IEM_DS3505
ZGNN,2001-04-05 01:00,ZGNN 050100Z AUTO 00000KT 7SM 20/17 A2997 RMK T02000170 IEM_DS3505
ZGNN,2001-04-05 02:00,ZGNN 050200Z AUTO 06006KT 7SM 21/17 A2994 RMK T02100170 IEM_DS3505
ZGNN,2001-04-05 03:00,ZGNN 050300Z AUTO 04004KT 12SM 21/17 A2994 RMK SLP146 T02140172 52003 IEM_DS3505
ZGNN,2001-04-05 04:00,ZGNN 050400Z AUTO 08006KT 7SM 22/17 A2994 RMK T02200170 IEM_DS3505
ZGNN,2001-04-05 05:00,ZGNN 050500Z AUTO 09006KT 7SM 22/17 A2991 RMK T02200170 IEM_DS3505
ZGNN,2001-04-05 06:00,ZGNN 050600Z AUTO 07004KT 12SM 22/18 A2988 RMK SLP119 T02230180 57026 IEM_DS3505
ZGNN,2001-04-05 07:00,ZGNN 050700Z AUTO 08004KT 7SM 22/18 A2985 RMK T02200180 IEM_DS3505
ZGNN,2001-04-05 08:00,ZGNN 050800Z AUTO 07006KT 7SM 22/17 A2983 RMK T02200170 IEM_DS3505
ZGNN,2001-04-05 09:00,ZGNN 050900Z AUTO 00000KT 6SM 22/18 A2983 RMK SLP104 T02170182 57015 IEM_DS3505
ZGNN,2001-04-05 11:00,ZGNN 051100Z AUTO 07004KT 2SM 20/18 A2983 RMK T02000180 IEM_DS3505
ZGNN,2001-04-05 12:00,ZGNN 051200Z AUTO 09004KT 5SM 20/19 A2985 RMK 60003 SLP115 T02020193 52011 IEM_DS3505
ZGNN,2001-04-05 13:00,ZGNN 051300Z AUTO 07002KT 1 1/2SM 20/19 A2988 RMK T02000190 IEM_DS3505
ZGNN,2001-04-05 14:00,ZGNN 051400Z AUTO 05004KT 1SM 20/19 A2988 RMK T02000190 IEM_DS3505
ZGNN,2001-04-05 15:00,ZGNN 051500Z AUTO 09004KT 5SM 20/19 A2991 RMK 60003 SLP115 T02020193 52011 IEM_DS3505
ZGNN,2001-04-05 16:00,ZGNN 051600Z AUTO 06002KT 3/8SM 20/19 A2991 RMK T02000190 IEM_DS3505
ZGNN,2001-04-05 17:00,ZGNN 051700Z AUTO 04004KT 1/2SM 20/19 A2991 RMK T02000190 IEM_DS3505
ZGNN,2001-04-05 18:00,ZGNN 051800Z AUTO 00000KT 4SM 20/20 A2988 RMK 60000 SLP119 T01980196 57008 IEM_DS3505
ZGNN,2001-04-05 19:00,ZGNN 051900Z AUTO 01006KT 1SM 20/19 A2985 RMK T02000190 IEM_DS3505
ZGNN,2001-04-05 20:00,ZGNN 052000Z AUTO 02004KT 1SM 20/19 A2985 RMK T02000190 IEM_DS3505
ZGNN,2001-04-05 21:00,ZGNN 052100Z AUTO 00000KT 4SM 20/19 A2985 RMK 70001 SLP118 T01990194 57001 IEM_DS3505
ZGNN,2001-04-05 22:00,ZGNN 052200Z AUTO 35004KT 1SM 20/19 A2988 RMK T02000190 IEM_DS3505
ZGNN,2001-04-05 23:00,ZGNN 052300Z AUTO 36006KT 1SM 20/19 A2991 RMK T02000190 IEM_DS3505
ZGNN,2001-04-06 00:00,ZGNN 060000Z AUTO 00000KT 2SM 20/20 A2991 RMK 60002 SLP139 T02020199 52020 IEM_DS3505
ZGNN,2001-04-06 01:00,ZGNN 060100Z AUTO 01004KT 1SM 20/19 A2994 RMK T02000190 IEM_DS3505
ZGNN,2001-04-06 02:00,ZGNN 060200Z AUTO 34004KT 1 1/4SM 20/19 A2997 RMK T02000190 IEM_DS3505
ZGNN,2001-04-06 03:00,ZGNN 060300Z AUTO 34004KT 5SM 20/20 A2997 RMK SLP153 T02020196 52014 IEM_DS3505
ZGNN,2001-04-06 04:00,ZGNN 060400Z AUTO 35006KT 6SM 20/19 A2997 RMK T02000190 IEM_DS3505
ZGNN,2001-04-06 05:00,ZGNN 060500Z AUTO 34006KT 4SM 20/19 A2994 RMK T02000190 IEM_DS3505
ZGNN,2001-04-06 06:00,ZGNN 060600Z AUTO 34004KT 6SM 21/20 A2991 RMK 60002 SLP129 T02080197 57023 IEM_DS3505
ZGNN,2001-04-06 07:00,ZGNN 060700Z AUTO 36004KT 4SM 20/19 A2988 RMK T02000190 IEM_DS3505
ZGNN,2001-04-06 08:00,ZGNN 060800Z AUTO 36004KT 2 1/2SM 20/19 A2985 RMK T02000190 IEM_DS3505
ZGNN,2001-04-06 09:00,ZGNN 060900Z AUTO 32004KT 5SM 20/20 A2985 RMK SLP112 T02040198 57017 IEM_DS3505
ZGNN,2001-04-06 10:00,ZGNN 061000Z AUTO 35002KT 1 1/4SM 20/19 A2985 RMK T02000190 IEM_DS3505
ZGNN,2001-04-06 11:00,ZGNN 061100Z AUTO 35002KT 1 1/2SM 20/19 A2985 RMK T02000190 IEM_DS3505
ZGNN,2001-04-06 12:00,ZGNN 061200Z AUTO 00000KT 6SM 20/20 A2988 RMK 60000 SLP126 T02030198 52014 IEM_DS3505
ZGNN,2001-04-06 13:00,ZGNN 061300Z AUTO 09004KT 1 1/4SM 20/19 A2988 RMK T02000190 IEM_DS3505
ZGNN,2001-04-06 14:00,ZGNN 061400Z AUTO 03002KT 1 1/4SM 20/19 A2991 RMK T02000190 IEM_DS3505
ZGNN,2001-04-06 15:00,ZGNN 061500Z AUTO 00000KT 6SM 20/20 RMK SLP146 T02030200 52019 IEM_DS3505
ZGNN,2001-04-06 16:00,ZGNN 061600Z AUTO 01002KT 2SM 20/19 A2994 RMK T02000190 IEM_DS3505
ZGNN,2001-04-06 17:00,ZGNN 061700Z AUTO 01002KT 2SM 20/19 A2991 RMK T02000190 IEM_DS3505
ZGNN,2001-04-06 18:00,ZGNN 061800Z AUTO 00000KT 6SM 20/20 A2991 RMK 60000 SLP133 T02020197 57012 IEM_DS3505
ZGNN,2001-04-06 19:00,ZGNN 061900Z AUTO 2SM 20/19 A2988 RMK T02000190 IEM_DS3505
ZGNN,2001-04-06 20:00,ZGNN 062000Z AUTO 03004KT 1 1/2SM 20/19 A2985 RMK T02000190 IEM_DS3505
ZGNN,2001-04-06 21:00,ZGNN 062100Z AUTO 00000KT 6SM 20/20 A2985 RMK 70004 SLP112 T02020196 57021 IEM_DS3505
ZGNN,2001-04-06 22:00,ZGNN 062200Z AUTO 04004KT 2 1/2SM 20/19 A2988 RMK T02000190 IEM_DS3505
ZGNN,2001-04-06 23:00,ZGNN 062300Z AUTO 03004KT 1SM 20/19 A2988 RMK T02000190 IEM_DS3505
ZGNN,2001-04-07 00:00,ZGNN 070000Z AUTO 00000KT 4SM 20/20 A2988 RMK 60003 SLP126 T02020199 52014 IEM_DS3505
ZGNN,2001-04-07 01:00,ZGNN 070100Z AUTO 07004KT 1 1/2SM 20/19 A2991 RMK T02000190 IEM_DS3505
ZGNN,2001-04-07 02:00,ZGNN 070200Z AUTO 08002KT 1 1/4SM 20/19 A2991 RMK T02000190 IEM_DS3505
ZGNN,2001-04-07 03:00,ZGNN 070300Z AUTO 11002KT 3SM 21/20 A2991 RMK SLP130 T02100205 52004 IEM_DS3505
ZGNN,2001-04-07 04:00,ZGNN 070400Z AUTO 09004KT 1 1/4SM 21/20 A2988 RMK T02100200 IEM_DS3505
ZGNN,2001-04-07 05:00,ZGNN 070500Z AUTO 13004KT 2 1/2SM 22/20 A2983 RMK T02200200 IEM_DS3505
ZGNN,2001-04-07 06:00,ZGNN 070600Z AUTO 09002KT 4SM 22/21 A2980 RMK 60003 SLP093 T02220211 57036 IEM_DS3505
ZGNN,2001-04-07 07:00,ZGNN 070700Z AUTO 4SM 23/21 A2974 RMK T02300210 IEM_DS3505
ZGNN,2001-04-07 08:00,ZGNN 070800Z AUTO 06004KT 4SM 24/22 A2971 RMK T02400220 IEM_DS3505
ZGNN,2001-04-07 09:00,ZGNN 070900Z AUTO 18004KT 6SM 24/23 A2971 RMK SLP063 T02410229 57030 IEM_DS3505
ZGNN,2001-04-07 10:00,ZGNN 071000Z AUTO 15008KT 7SM 24/22 A2968 RMK T02400220 IEM_DS3505
ZGNN,2001-04-07 11:00,ZGNN 071100Z AUTO 15006KT 7SM 24/22 A2968 RMK T02400220 IEM_DS3505
ZGNN,2001-04-07 12:00,ZGNN 071200Z AUTO 18004KT 7SM 24/22 A2968 RMK SLP059 T02370225 57004 IEM_DS3505
ZGNN,2001-04-07 13:00,ZGNN 071300Z AUTO 15006KT 7SM 23/22 A2968 RMK T02300220 IEM_DS3505
ZGNN,2001-04-07 14:00,ZGNN 071400Z AUTO 7SM 23/22 A2971 RMK T02300220 IEM_DS3505
ZGNN,2001-04-07 15:00,ZGNN 071500Z AUTO 00000KT 7SM 24/23 A2971 RMK SLP068 T02390229 52010 IEM_DS3505
ZGNN,2001-04-07 16:00,ZGNN 071600Z AUTO 35004KT 3SM 23/22 A2971 RMK T02300220 IEM_DS3505
ZGNN,2001-04-07 17:00,ZGNN 071700Z AUTO 2 1/2SM 23/22 A2971 RMK T02300220 IEM_DS3505
ZGNN,2001-04-07 18:00,ZGNN 071800Z AUTO 00000KT 6SM 23/23 A2968 RMK SLP051 T02310227 57017 IEM_DS3505
ZGNN,2001-04-07 19:00,ZGNN 071900Z AUTO 19004KT 1SM 22/21 A2965 RMK T02200210 IEM_DS3505
ZGNN,2001-04-07 20:00,ZGNN 072000Z AUTO 18002KT 1/4SM 22/21 A2965 RMK T02200210 IEM_DS3505
ZGNN,2001-04-07 21:00,ZGNN 072100Z AUTO 00000KT 6SM 22/22 RMK 70003 SLP037 T02210218 57014 IEM_DS3505
ZGNN,2001-04-07 22:00,ZGNN 072200Z AUTO 00000KT 1SM 22/21 A2965 RMK T02200210 IEM_DS3505
ZGNN,2001-04-07 23:00,ZGNN 072300Z AUTO 00000KT 1SM 22/21 A2965 RMK T02200210 IEM_DS3505
ZGNN,2001-04-08 00:00,ZGNN 080000Z AUTO 00000KT 3SM 22/22 A2968 RMK 70003 SLP052 T02250219 52015 IEM_DS3505
ZGNN,2001-04-08 01:00,ZGNN 080100Z AUTO 00000KT 1 1/4SM 23/21 A2968 RMK T02300210 IEM_DS3505
ZGNN,2001-04-08 02:00,ZGNN 080200Z AUTO 6SM 25/22 A2968 RMK T02500220 IEM_DS3505
ZGNN,2001-04-08 03:00,ZGNN 080300Z AUTO 14002KT 6SM 27/24 A2968 RMK SLP054 T02690240 52003 IEM_DS3505
ZGNN,2001-04-08 04:00,ZGNN 080400Z AUTO 7SM 29/23 A2965 RMK T02900230 IEM_DS3505
ZGNN,2001-04-08 05:00,ZGNN 080500Z AUTO 23008KT 7SM 30/23 A2965 RMK T03000230 IEM_DS3505
ZGNN,2001-04-08 06:00,ZGNN 080600Z AUTO 22006KT 9SM 31/24 A2959 RMK SLP023 T03080243 57030 IEM_DS3505
ZGNN,2001-04-08 07:00,ZGNN 080700Z AUTO 6SM 32/23 A2956 RMK T03200230 IEM_DS3505
ZGNN,2001-04-08 08:00,ZGNN 080800Z AUTO 12006KT 6SM 32/24 A2953 RMK T03200240 IEM_DS3505
ZGNN,2001-04-08 09:00,ZGNN 080900Z AUTO 04006KT 9SM 32/26 A2953 RMK SLP998 T03230260 57024 IEM_DS3505
ZGNN,2001-04-08 10:00,ZGNN 081000Z AUTO 05010KT 6SM 31/25 A2953 RMK T03100250 IEM_DS3505
ZGNN,2001-04-08 11:00,ZGNN 081100Z AUTO 07006KT 7SM 29/24 A2953 RMK T02900240 IEM_DS3505
ZGNN,2001-04-08 12:00,ZGNN 081200Z AUTO 14004KT 9SM 28/25 A2959 RMK SLP019 T02800249 52020 IEM_DS3505
ZGNN,2001-04-08 13:00,ZGNN 081300Z AUTO 11006KT 6SM 26/23 A2959 RMK T02600230 IEM_DS3505
ZGNN,2001-04-08 14:00,ZGNN 081400Z AUTO 13004KT 7SM 26/23 A2962 RMK T02600230 IEM_DS3505
ZGNN,2001-04-08 15:00,ZGNN 081500Z AUTO 14006KT 9SM 26/24 A2965 RMK SLP043 T02590240 52024 IEM_DS3505
ZGNN,2001-04-08 16:00,ZGNN 081600Z AUTO 12006KT 4SM 25/23 A2965 RMK T02500230 IEM_DS3505
ZGNN,2001-04-08 17:00,ZGNN 081700Z AUTO 10008KT 4SM 25/23 A2965 RMK T02500230 IEM_DS3505
ZGNN,2001-04-08 18:00,ZGNN 081800Z AUTO 14006KT 9SM 25/23 A2965 RMK SLP037 T02480234 57005 IEM_DS3505
ZGNN,2001-04-08 19:00,ZGNN 081900Z AUTO 10006KT 4SM 24/23 A2962 RMK T02400230 IEM_DS3505
ZGNN,2001-04-08 20:00,ZGNN 082000Z AUTO 10006KT 2SM 24/23 A2962 RMK T02400230 IEM_DS3505
ZGNN,2001-04-08 21:00,ZGNN 082100Z AUTO 14002KT 7SM 25/24 A2962 RMK 70003 SLP031 T02470235 57006 IEM_DS3505
ZGNN,2001-04-08 22:00,ZGNN 082200Z AUTO 11002KT 4SM 24/23 A2962 RMK T02400230 IEM_DS3505
ZGNN,2001-04-08 23:00,ZGNN 082300Z AUTO 08004KT 3SM 25/23 A2965 RMK T02500230 IEM_DS3505
ZGNN,2001-04-09 00:00,ZGNN 090000Z AUTO 00000KT 5SM 25/24 A2968 RMK 60003 SLP053 T02510238 52021 IEM_DS3505
ZGNN,2001-04-09 01:00,ZGNN 090100Z AUTO 15004KT 7SM 25/23 A2971 RMK T02500230 IEM_DS3505
ZGNN,2001-04-09 02:00,ZGNN 090200Z AUTO 17006KT 7SM 27/23 A2971 RMK T02700230 IEM_DS3505
ZGNN,2001-04-09 03:00,ZGNN 090300Z AUTO 18004KT 8SM 28/24 A2971 RMK SLP063 T02780242 52010 IEM_DS3505
ZGNN,2001-04-09 04:00,ZGNN 090400Z AUTO 15006KT 7SM 29/24 A2971 RMK T02900240 IEM_DS3505
ZGNN,2001-04-09 05:00,ZGNN 090500Z AUTO 11006KT 7SM 30/24 A2968 RMK T03000240 IEM_DS3505
ZGNN,2001-04-09 06:00,ZGNN 090600Z AUTO 14006KT 8SM 31/25 A2965 RMK SLP037 T03080248 57025 IEM_DS3505
ZGNN,2001-04-09 07:00,ZGNN 090700Z AUTO 11008KT 7SM 32/24 A2962 RMK T03200240 IEM_DS3505
ZGNN,2001-04-09 08:00,ZGNN 090800Z AUTO 12008KT 7SM 31/24 A2959 RMK T03100240 IEM_DS3505
ZGNN,2001-04-09 09:00,ZGNN 090900Z AUTO 14008KT 8SM 31/24 A2959 RMK SLP024 T03140245 57013 IEM_DS3505
ZGNN,2001-04-09 10:00,ZGNN 091000Z AUTO 13008KT 6SM 30/24 A2962 RMK T03000240 IEM_DS3505
ZGNN,2001-04-09 11:00,ZGNN 091100Z AUTO 13006KT 6SM 29/24 A2962 RMK T02900240 IEM_DS3505
ZGNN,2001-04-09 12:00,ZGNN 091200Z AUTO 14004KT 7SM 28/24 A2965 RMK SLP044 T02820245 52019 IEM_DS3505
ZGNN,2001-04-09 13:00,ZGNN 091300Z AUTO 11004KT 6SM 27/24 A2968 RMK T02700240 IEM_DS3505
ZGNN,2001-04-09 14:00,ZGNN 091400Z AUTO 11006KT 6SM 26/23 A2974 RMK T02600230 IEM_DS3505
ZGNN,2001-04-09 15:00,ZGNN 091500Z AUTO 00000KT 7SM 26/24 A2974 RMK SLP070 T02620242 52026 IEM_DS3505
ZGNN,2001-04-09 16:00,ZGNN 091600Z AUTO 11006KT 7SM 26/23 A2974 RMK T02600230 IEM_DS3505
ZGNN,2001-04-09 17:00,ZGNN 091700Z AUTO 12006KT 7SM 26/23 A2974 RMK T02600230 IEM_DS3505
ZGNN,2001-04-09 18:00,ZGNN 091800Z AUTO 11004KT 7SM 26/24 A2974 RMK SLP066 T02590236 57004 IEM_DS3505
ZGNN,2001-04-09 19:00,ZGNN 091900Z AUTO 12006KT 4SM 25/23 A2974 RMK T02500230 IEM_DS3505
ZGNN,2001-04-09 20:00,ZGNN 092000Z AUTO 11006KT 5SM 25/23 A2971 RMK T02500230 IEM_DS3505
ZGNN,2001-04-09 21:00,ZGNN 092100Z AUTO 11004KT 7SM 25/24 A2971 RMK 70003 SLP065 T02540237 57001 IEM_DS3505
ZGNN,2001-04-09 22:00,ZGNN 092200Z AUTO 09004KT 2 1/2SM 25/23 A2974 RMK T02500230 IEM_DS3505
ZGNN,2001-04-09 23:00,ZGNN 092300Z AUTO 2 1/2SM 25/23 A2977 RMK T02500230 IEM_DS3505
ZGNN,2001-04-10 00:00,ZGNN 100000Z AUTO 14004KT 3SM 25/24 A2980 RMK SLP092 T02540240 52026 IEM_DS3505
ZGNN,2001-04-10 01:00,ZGNN 100100Z AUTO 12004KT 3SM 26/23 A2983 RMK T02600230 IEM_DS3505
ZGNN,2001-04-10 02:00,ZGNN 100200Z AUTO 5SM 26/23 A2985 RMK T02600230 IEM_DS3505
ZGNN,2001-04-10 03:00,ZGNN 100300Z AUTO 14004KT 7SM 28/24 A2985 RMK SLP104 T02760242 52012 IEM_DS3505
ZGNN,2001-04-10 04:00,ZGNN 100400Z AUTO 7SM 29/24 A2983 RMK T02900240 IEM_DS3505
ZGNN,2001-04-10 05:00,ZGNN 100500Z AUTO 7SM 30/24 A2980 RMK T03000240 IEM_DS3505
ZGNN,2001-04-10 06:00,ZGNN 100600Z AUTO 04004KT 7SM 30/25 A2980 RMK SLP085 T02950252 57018 IEM_DS3505
ZGNN,2001-04-10 07:00,ZGNN 100700Z AUTO 05006KT 30/24 A2977 RMK T03000240 IEM_DS3505
ZGNN,2001-04-10 08:00,ZGNN 100800Z AUTO 04006KT 7SM 30/23 A2974 RMK T03000230 IEM_DS3505
ZGNN,2001-04-10 09:00,ZGNN 100900Z AUTO 09002KT 9SM 30/25 A2977 RMK SLP076 T03040251 57009 IEM_DS3505
ZGNN,2001-04-10 10:00,ZGNN 101000Z AUTO 07008KT 7SM 29/25 A2977 RMK T02900250 IEM_DS3505
ZGNN,2001-04-10 11:00,ZGNN 101100Z AUTO 04016KT 7SM 25/20 A2980 RMK T02500200 IEM_DS3505
ZGNN,2001-04-10 12:00,ZGNN 101200Z AUTO 09004KT 12SM 24/20 A2985 RMK SLP121 T02380195 52043 IEM_DS3505
ZGNN,2001-04-10 13:00,ZGNN 101300Z AUTO 06012KT 7SM 23/18 A2991 RMK T02300180 IEM_DS3505
ZGNN,2001-04-10 14:00,ZGNN 101400Z AUTO 36010KT 7SM 23/17 A2997 RMK T02300170 IEM_DS3505
ZGNN,2001-04-10 15:00,ZGNN 101500Z AUTO 34010KT 12SM 21/16 RMK SLP164 T02120157 52042 IEM_DS3505
ZGNN,2001-04-10 18:00,ZGNN 101800Z AUTO 36012KT 12SM 19/12 RMK SLP177 T01900120 52013 IEM_DS3505
ZGNN,2001-04-10 21:00,ZGNN 102100Z AUTO 34014G23KT 12SM 17/09 A3015 RMK 70003 SLP214 T01660093 52036 IEM_DS3505
ZGNN,2001-04-10 22:00,ZGNN 102200Z AUTO 35012KT 7SM 15/10 A3015 RMK T01500100 IEM_DS3505
ZGNN,2001-04-10 23:00,ZGNN 102300Z AUTO 35012KT 7SM 15/09 A3018 RMK T01500090 IEM_DS3505
ZGNN,2001-04-11 00:00,ZGNN 110000Z AUTO 36008KT 19SM 15/08 A3021 RMK 60003 SLP232 T01540085 52016 IEM_DS3505
ZGNN,2001-04-11 01:00,ZGNN 110100Z AUTO 35010KT 7SM 16/08 A3021 RMK T01600080 IEM_DS3505
ZGNN,2001-04-11 02:00,ZGNN 110200Z AUTO 35014KT 7SM 16/08 A3024 RMK T01600080 IEM_DS3505
ZGNN,2001-04-11 03:00,ZGNN 110300Z AUTO 36010KT 19SM 16/08 A3024 RMK SLP252 T01600083 52019 IEM_DS3505
ZGNN,2001-04-11 04:00,ZGNN 110400Z AUTO 34008KT 7SM 16/08 A3024 RMK T01600080 IEM_DS3505
ZGNN,2001-04-11 05:00,ZGNN 110500Z AUTO 36014KT 7SM 15/08 A3021 RMK T01500080 IEM_DS3505
ZGNN,2001-04-11 06:00,ZGNN 110600Z AUTO 34008KT 19SM 16/09 A3015 RMK 60000 SLP221 T01570094 57031 IEM_DS3505
ZGNN,2001-04-11 07:00,ZGNN 110700Z AUTO 35010KT 7SM 16/07 A3012 RMK T01600070 IEM_DS3505
ZGNN,2001-04-11 08:00,ZGNN 110800Z AUTO 01014KT 7SM 17/07 A3009 RMK T01700070 IEM_DS3505
ZGNN,2001-04-11 09:00,ZGNN 110900Z AUTO 36010KT 19SM 18/08 A3006 RMK SLP192 T01770080 57029 IEM_DS3505
ZGNN,2001-04-11 10:00,ZGNN 111000Z AUTO 36010KT 2SM 13/11 A3006 RMK T01300110 IEM_DS3505
ZGNN,2001-04-11 11:00,ZGNN 111100Z AUTO 7SM 13/10 A3009 RMK T01300100 IEM_DS3505
ZGNN,2001-04-11 12:00,ZGNN 111200Z AUTO 00000KT 16SM 14/12 RMK 60047 SLP202 T01370118 52009 IEM_DS3505
ZGNN,2001-04-11 13:00,ZGNN 111300Z AUTO 21004KT 6SM 14/11 A3012 RMK T01400110 IEM_DS3505
ZGNN,2001-04-11 14:00,ZGNN 111400Z AUTO 21002KT 6SM 14/12 A3015 RMK T01400120 IEM_DS3505
ZGNN,2001-04-11 15:00,ZGNN 111500Z AUTO 00000KT 12SM 14/13 RMK SLP216 T01400127 52014 IEM_DS3505
ZGNN,2001-04-11 18:00,ZGNN 111800Z AUTO 32002KT 12SM 14/12 RMK SLP209 T01420118 57007 IEM_DS3505
ZGNN,2001-04-11 21:00,ZGNN 112100Z AUTO 34004KT 12SM 14/10 A3009 RMK 70050 SLP196 T01450097 57013 IEM_DS3505
ZGNN,2001-04-11 22:00,ZGNN 112200Z AUTO 35004KT 6SM 14/09 A3009 RMK T01400090 IEM_DS3505
ZGNN,2001-04-11 23:00,ZGNN 112300Z AUTO 03002KT 7SM 14/09 A3012 RMK T01400090 IEM_DS3505
ZGNN,2001-04-12 00:00,ZGNN 120000Z AUTO 00000KT 12SM 15/10 A3015 RMK 70048 SLP217 T01480098 52020 IEM_DS3505
ZGNN,2001-04-12 01:00,ZGNN 120100Z AUTO 34006KT 6SM 15/08 A3015 RMK T01500080 IEM_DS3505
ZGNN,2001-04-12 02:00,ZGNN 120200Z AUTO 33004KT 6SM 16/08 A3018 RMK T01600080 IEM_DS3505
ZGNN,2001-04-12 03:00,ZGNN 120300Z AUTO 34006KT 12SM 17/08 A3015 RMK SLP219 T01660077 52003 IEM_DS3505
ZGNN,2001-04-12 04:00,ZGNN 120400Z AUTO 36006KT 6SM 18/07 A3012 RMK T01800070 IEM_DS3505
ZGNN,2001-04-12 06:00,ZGNN 120600Z AUTO 34002KT 12SM 20/06 A3003 RMK SLP175 T02020064 57043 IEM_DS3505
ZGNN,2001-04-12 07:00,ZGNN 120700Z AUTO 6SM 21/05 A3000 RMK T02100050 IEM_DS3505
ZGNN,2001-04-12 08:00,ZGNN 120800Z AUTO 6SM 21/05 A2997 RMK T02100050 IEM_DS3505
ZGNN,2001-04-12 09:00,ZGNN 120900Z AUTO 18004KT 12SM 21/06 A2994 RMK SLP144 T02140058 57030 IEM_DS3505
ZGNN,2001-04-12 10:00,ZGNN 121000Z AUTO 11004KT 6SM 21/06 A2994 RMK T02100060 IEM_DS3505
ZGNN,2001-04-12 11:00,ZGNN 121100Z AUTO 6SM 19/08 A2997 RMK T01900080 IEM_DS3505
ZGNN,2001-04-12 12:00,ZGNN 121200Z AUTO 00000KT 12SM 18/11 RMK SLP159 T01760108 52014 IEM_DS3505
ZGNN,2001-04-12 13:00,ZGNN 121300Z AUTO 03004KT 6SM 17/10 A2997 RMK T01700100 IEM_DS3505
ZGNN,2001-04-12 14:00,ZGNN 121400Z AUTO 03004KT 6SM 16/11 A3000 RMK T01600110 IEM_DS3505
ZGNN,2001-04-12 15:00,ZGNN 121500Z AUTO 00000KT 12SM 15/11 A3003 RMK SLP174 T01520107 52015 IEM_DS3505
ZGNN,2001-04-12 16:00,ZGNN 121600Z AUTO 00000KT 6SM 15/12 A3003 RMK T01500120 IEM_DS3505
ZGNN,2001-04-12 17:00,ZGNN 121700Z AUTO 00000KT 7SM 15/13 A3000 RMK T01500130 IEM_DS3505
ZGNN,2001-04-12 18:00,ZGNN 121800Z AUTO 00000KT 9SM 16/12 A3000 RMK T01560118 IEM_DS3505
ZGNN,2001-04-12 19:00,ZGNN 121900Z AUTO 03002KT 7SM 16/11 A2997 RMK T01600110 IEM_DS3505
ZGNN,2001-04-12 20:00,ZGNN 122000Z AUTO 6SM 16/11 A2997 RMK T01600110 IEM_DS3505
ZGNN,2001-04-12 21:00,ZGNN 122100Z AUTO 00000KT 12SM 16/12 A2997 RMK SLP154 T01620116 57007 IEM_DS3505
ZGNN,2001-04-12 22:00,ZGNN 122200Z AUTO 06002KT 7SM 16/12 A2997 RMK T01600120 IEM_DS3505
ZGNN,2001-04-12 23:00,ZGNN 122300Z AUTO 04004KT 7SM 16/12 A2997 RMK T01600120 IEM_DS3505
ZGNN,2001-04-13 00:00,ZGNN 130000Z AUTO 00000KT 8SM 16/13 A3000 RMK SLP166 T01650127 52011 IEM_DS3505
ZGNN,2001-04-13 01:00,ZGNN 130100Z AUTO 7SM 17/12 A3000 RMK T01700120 IEM_DS3505
ZGNN,2001-04-13 02:00,ZGNN 130200Z AUTO 7SM 18/12 A3000 RMK T01800120 IEM_DS3505
ZGNN,2001-04-13 03:00,ZGNN 130300Z AUTO 18004KT 11SM 19/13 A3000 RMK SLP167 T01940127 52002 IEM_DS3505
ZGNN,2001-04-13 04:00,ZGNN 130400Z AUTO 16006KT 7SM 21/12 A3000 RMK T02100120 IEM_DS3505
ZGNN,2001-04-13 05:00,ZGNN 130500Z AUTO 7SM 22/13 A2997 RMK T02200130 IEM_DS3505
ZGNN,2001-04-13 06:00,ZGNN 130600Z AUTO 18006KT 12SM 23/14 A2994 RMK SLP140 T02290143 57026 IEM_DS3505
ZGNN,2001-04-13 08:00,ZGNN 130800Z AUTO 09006KT 7SM 24/14 A2988 RMK T02400140 IEM_DS3505
ZGNN,2001-04-13 09:00,ZGNN 130900Z AUTO 14006KT 12SM 24/14 A2988 RMK SLP121 T02430139 57018 IEM_DS3505
ZGNN,2001-04-13 10:00,ZGNN 131000Z AUTO 12006KT 7SM 23/15 A2988 RMK T02300150 IEM_DS3505
ZGNN,2001-04-13 11:00,ZGNN 131100Z AUTO 13006KT 7SM 22/15 A2988 RMK T02200150 IEM_DS3505
ZGNN,2001-04-13 12:00,ZGNN 131200Z AUTO 14004KT 12SM 21/16 A2991 RMK SLP136 T02120156 52014 IEM_DS3505
ZGNN,2001-04-13 13:00,ZGNN 131300Z AUTO 10006KT 7SM 20/16 A2994 RMK T02000160 IEM_DS3505
ZGNN,2001-04-13 14:00,ZGNN 131400Z AUTO 12004KT 7SM 20/16 A2997 RMK T02000160 IEM_DS3505
ZGNN,2001-04-13 15:00,ZGNN 131500Z AUTO 09002KT 12SM 21/17 A3000 RMK SLP167 T02060169 52031 IEM_DS3505
ZGNN,2001-04-13 16:00,ZGNN 131600Z AUTO 09004KT 3SM 20/16 A3003 RMK T02000160 IEM_DS3505
ZGNN,2001-04-13 17:00,ZGNN 131700Z AUTO 07004KT 3SM 19/16 A3003 RMK T01900160 IEM_DS3505
ZGNN,2001-04-13 18:00,ZGNN 131800Z AUTO 09002KT 9SM 20/17 A3003 RMK SLP168 T01980169 52002 IEM_DS3505
ZGNN,2001-04-13 19:00,ZGNN 131900Z AUTO 03004KT 3SM 19/16 A3003 RMK T01900160 IEM_DS3505
ZGNN,2001-04-13 20:00,ZGNN 132000Z AUTO 07006KT 2 1/2SM 19/16 A3003 RMK T01900160 IEM_DS3505
ZGNN,2001-04-13 21:00,ZGNN 132100Z AUTO 00000KT 7SM 19/17 A3003 RMK SLP179 T01880172 52010 IEM_DS3505
ZGNN,2001-04-13 22:00,ZGNN 132200Z AUTO 07006KT 2 1/2SM 18/16 A3006 RMK T01800160 IEM_DS3505
ZGNN,2001-04-13 23:00,ZGNN 132300Z AUTO 07006KT 1 1/2SM 18/16 A3009 RMK T01800160 IEM_DS3505
ZGNN,2001-04-14 00:00,ZGNN 140000Z AUTO 09002KT 2SM 18/17 A3012 RMK 60000 SLP203 T01840174 52023 IEM_DS3505
ZGNN,2001-04-14 01:00,ZGNN 140100Z AUTO 06002KT 1SM 18/17 A3015 RMK T01800170 IEM_DS3505
ZGNN,2001-04-14 02:00,ZGNN 140200Z AUTO 06002KT 1SM 18/17 A3015 RMK T01800170 IEM_DS3505
ZGNN,2001-04-14 03:00,ZGNN 140300Z AUTO 20002KT 4SM 19/18 A3015 RMK SLP212 T01880175 52009 IEM_DS3505
ZGNN,2001-04-14 04:00,ZGNN 140400Z AUTO 03006KT 2SM 19/16 A3015 RMK T01900160 IEM_DS3505
ZGNN,2001-04-14 05:00,ZGNN 140500Z AUTO 04006KT 2 1/2SM 19/17 A3012 RMK T01900170 IEM_DS3505
ZGNN,2001-04-14 06:00,ZGNN 140600Z AUTO 36004KT 6SM 20/17 A3009 RMK 60002 SLP193 T01980172 57019 IEM_DS3505
ZGNN,2001-04-14 07:00,ZGNN 140700Z AUTO 2 1/2SM 20/17 A3006 RMK T02000170 IEM_DS3505
ZGNN,2001-04-14 08:00,ZGNN 140800Z AUTO 06004KT 3SM 20/17 A3003 RMK T02000170 IEM_DS3505
ZGNN,2001-04-14 09:00,ZGNN 140900Z AUTO 09002KT 6SM 20/17 A3003 RMK SLP174 T02020173 57018 IEM_DS3505
ZGNN,2001-04-14 10:00,ZGNN 141000Z AUTO 11004KT 2 1/2SM 20/17 A3003 RMK T02000170 IEM_DS3505
ZGNN,2001-04-14 11:00,ZGNN 141100Z AUTO 14004KT 2 1/2SM 19/17 A3003 RMK T01900170 IEM_DS3505
ZGNN,2001-04-14 12:00,ZGNN 141200Z AUTO 00000KT 5SM 19/18 A3006 RMK SLP180 T01920179 52005 IEM_DS3505
ZGNN,2001-04-14 13:00,ZGNN 141300Z AUTO 2SM 19/17 A3006 RMK T01900170 IEM_DS3505
ZGNN,2001-04-14 14:00,ZGNN 141400Z AUTO 21002KT 2 1/2SM 19/17 A3009 RMK T01900170 IEM_DS3505
ZGNN,2001-04-14 15:00,ZGNN 141500Z AUTO 00000KT 4SM 19/18 A3012 RMK SLP199 T01920179 52019 IEM_DS3505
ZGNN,2001-04-14 16:00,ZGNN 141600Z AUTO 00000KT 2SM 19/17 A3009 RMK T01900170 IEM_DS3505
ZGNN,2001-04-14 17:00,ZGNN 141700Z AUTO 00000KT 2 1/2SM 19/17 A3009 RMK T01900170 IEM_DS3505
ZGNN,2001-04-14 18:00,ZGNN 141800Z AUTO 00000KT 4SM 19/17 A3006 RMK SLP188 T01910173 57011 IEM_DS3505
ZGNN,2001-04-14 19:00,ZGNN 141900Z AUTO 07004KT 1SM 18/17 A3006 RMK T01800170 IEM_DS3505
ZGNN,2001-04-14 20:00,ZGNN 142000Z AUTO 01002KT 1SM 18/17 A3006 RMK T01800170 IEM_DS3505
ZGNN,2001-04-14 21:00,ZGNN 142100Z AUTO 00000KT 4SM 18/18 A3003 RMK 70003 SLP176 T01840178 57012 IEM_DS3505
ZGNN,2001-04-14 22:00,ZGNN 142200Z AUTO 00000KT 1SM 18/17 A3003 RMK T01800170 IEM_DS3505
ZGNN,2001-04-14 23:00,ZGNN 142300Z AUTO 1SM 18/17 A3006 RMK T01800170 IEM_DS3505
ZGNN,2001-04-15 00:00,ZGNN 150000Z AUTO 00000KT 2 1/2SM 18/17 A3006 RMK T01800170 IEM_DS3505
ZGNN,2001-04-15 01:00,ZGNN 150100Z AUTO 03004KT 1 1/4SM 18/17 A3009 RMK T01800170 IEM_DS3505
ZGNN,2001-04-15 02:00,ZGNN 150200Z AUTO 1 1/2SM 19/17 A3009 RMK T01900170 IEM_DS3505
ZGNN,2001-04-15 03:00,ZGNN 150300Z AUTO 09002KT 3SM 19/18 A3009 RMK SLP191 T01910183 52002 IEM_DS3505
ZGNN,2001-04-15 04:00,ZGNN 150400Z AUTO 07006KT 2SM 19/17 A3006 RMK T01900170 IEM_DS3505
ZGNN,2001-04-15 05:00,ZGNN 150500Z AUTO 2 1/2SM 19/17 A3003 RMK T01900170 IEM_DS3505
ZGNN,2001-04-15 06:00,ZGNN 150600Z AUTO 00000KT 4SM 20/18 A3000 RMK 60003 SLP162 T01960180 57028 IEM_DS3505
ZGNN,2001-04-15 07:00,ZGNN 150700Z AUTO 02002KT 1 1/2SM 19/17 A2997 RMK T01900170 IEM_DS3505
ZGNN,2001-04-15 08:00,ZGNN 150800Z AUTO 03004KT 1SM 19/18 A2994 RMK T01900180 IEM_DS3505
ZGNN,2001-04-15 09:00,ZGNN 150900Z AUTO 00000KT 1 1/4SM 19/19 A2994 RMK SLP141 T01940188 57021 IEM_DS3505
ZGNN,2001-04-15 10:00,ZGNN 151000Z AUTO 05004KT 1SM 19/18 A2994 RMK T01900180 IEM_DS3505
ZGNN,2001-04-15 11:00,ZGNN 151100Z AUTO 08002KT 1/2SM 19/18 A2994 RMK T01900180 IEM_DS3505
ZGNN,2001-04-15 12:00,ZGNN 151200Z AUTO 09004KT 1 1/4SM 19/19 A2994 RMK 60002 SLP148 T01910186 52007 IEM_DS3505
ZGNN,2001-04-15 13:00,ZGNN 151300Z AUTO 07006KT 1 1/2SM 19/17 A2997 RMK T01900170 IEM_DS3505
ZGNN,2001-04-15 14:00,ZGNN 151400Z AUTO 09006KT 1SM 18/17 A2997 RMK T01800170 IEM_DS3505
ZGNN,2001-04-15 15:00,ZGNN 151500Z AUTO 07002KT 3SM 18/18 A3000 RMK SLP164 T01810176 52015 IEM_DS3505
ZGNN,2001-04-15 16:00,ZGNN 151600Z AUTO 07006KT 2SM 18/16 A2997 RMK T01800160 IEM_DS3505
ZGNN,2001-04-15 17:00,ZGNN 151700Z AUTO 05004KT 1SM 18/16 A2997 RMK T01800160 IEM_DS3505
ZGNN,2001-04-15 18:00,ZGNN 151800Z AUTO 07002KT 4SM 18/17 A2997 RMK 60002 SLP150 T01760171 57014 IEM_DS3505
ZGNN,2001-04-15 19:00,ZGNN 151900Z AUTO 04004KT 1SM 17/16 A2994 RMK T01700160 IEM_DS3505
ZGNN,2001-04-15 20:00,ZGNN 152000Z AUTO 1SM 17/16 A2994 RMK T01700160 IEM_DS3505
ZGNN,2001-04-15 21:00,ZGNN 152100Z AUTO 00000KT 3SM 17/17 A2991 RMK 70008 SLP137 T01740171 57012 IEM_DS3505
ZGNN,2001-04-15 22:00,ZGNN 152200Z AUTO 04004KT 1 1/4SM 17/16 A2994 RMK T01700160 IEM_DS3505
ZGNN,2001-04-15 23:00,ZGNN 152300Z AUTO 06004KT 1SM 17/16 A2994 RMK T01700160 IEM_DS3505
ZGNN,2001-04-16 00:00,ZGNN 160000Z AUTO 00000KT 1 1/4SM 18/18 A2997 RMK 60004 SLP151 T01780175 52013 IEM_DS3505
ZGNN,2001-04-16 01:00,ZGNN 160100Z AUTO 1SM 18/17 A2997 RMK T01800170 IEM_DS3505
ZGNN,2001-04-16 02:00,ZGNN 160200Z AUTO 05004KT 1 1/2SM 18/17 A2997 RMK T01800170 IEM_DS3505
ZGNN,2001-04-16 03:00,ZGNN 160300Z AUTO 00000KT 2SM 19/18 A2997 RMK SLP157 T01860180 52006 IEM_DS3505
ZGNN,2001-04-16 04:00,ZGNN 160400Z AUTO 35004KT 1 1/4SM 19/17 A2997 RMK T01900170 IEM_DS3505
ZGNN,2001-04-16 05:00,ZGNN 160500Z AUTO 35004KT 2SM 19/18 A2994 RMK T01900180 IEM_DS3505
ZGNN,2001-04-16 06:00,ZGNN 160600Z AUTO 32004KT 2SM 19/18 A2991 RMK 60003 SLP128 T01930185 57028 IEM_DS3505
ZGNN,2001-04-16 07:00,ZGNN 160700Z AUTO 2SM 19/18 A2985 RMK T01900180 IEM_DS3505
ZGNN,2001-04-16 08:00,ZGNN 160800Z AUTO 1 1/4SM 19/18 A2985 RMK T01900180 IEM_DS3505
ZGNN,2001-04-16 09:00,ZGNN 160900Z AUTO 07002KT 1 1/4SM 20/19 A2985 RMK SLP112 T01950192 57016 IEM_DS3505
ZGNN,2001-04-16 10:00,ZGNN 161000Z AUTO 03004KT 1SM 19/18 A2985 RMK T01900180 IEM_DS3505
ZGNN,2001-04-16 11:00,ZGNN 161100Z AUTO 04006KT 1SM 19/18 A2985 RMK T01900180 IEM_DS3505
ZGNN,2001-04-16 12:00,ZGNN 161200Z AUTO 11002KT 1 1/4SM 19/19 A2985 RMK 60000 SLP121 T01920189 52009 IEM_DS3505
ZGNN,2001-04-16 13:00,ZGNN 161300Z AUTO 09004KT 1SM 18/17 A2988 RMK T01800170 IEM_DS3505
ZGNN,2001-04-16 14:00,ZGNN 161400Z AUTO 1SM 18/18 A2991 RMK T01800180 IEM_DS3505
ZGNN,2001-04-16 15:00,ZGNN 161500Z AUTO 00000KT 2SM 19/18 A2991 RMK SLP136 T01880183 52015 IEM_DS3505
ZGNN,2001-04-16 16:00,ZGNN 161600Z AUTO 13002KT 1SM 18/17 A2991 RMK T01800170 IEM_DS3505
ZGNN,2001-04-16 17:00,ZGNN 161700Z AUTO 13002KT 1 1/4SM 18/17 A2988 RMK T01800170 IEM_DS3505
ZGNN,2001-04-16 18:00,ZGNN 161800Z AUTO 00000KT 2 1/2SM 18/18 A2988 RMK 60003 SLP120 T01850180 57016 IEM_DS3505
ZGNN,2001-04-16 19:00,ZGNN 161900Z AUTO 02002KT 1 1/4SM 18/17 A2985 RMK T01800170 IEM_DS3505
ZGNN,2001-04-16 20:00,ZGNN 162000Z AUTO 00000KT 1 1/2SM 18/17 A2985 RMK T01800170 IEM_DS3505
ZGNN,2001-04-16 21:00,ZGNN 162100Z AUTO 00000KT 3SM 18/18 A2985 RMK 70004 SLP113 T01850179 57007 IEM_DS3505
ZGNN,2001-04-16 22:00,ZGNN 162200Z AUTO 00000KT 1 1/4SM 18/17 A2985 RMK T01800170 IEM_DS3505
ZGNN,2001-04-16 23:00,ZGNN 162300Z AUTO 00000KT 1 1/4SM 18/17 A2985 RMK T01800170 IEM_DS3505
ZGNN,2001-04-17 00:00,ZGNN 170000Z AUTO 00000KT 1 1/4SM 19/18 A2988 RMK 60000 SLP124 T01880182 52011 IEM_DS3505
ZGNN,2001-04-17 01:00,ZGNN 170100Z AUTO 00000KT 2SM 20/17 A2988 RMK T02000170 IEM_DS3505
ZGNN,2001-04-17 02:00,ZGNN 170200Z AUTO 2SM 20/18 A2988 RMK T02000180 IEM_DS3505
ZGNN,2001-04-17 03:00,ZGNN 170300Z AUTO 04004KT 3SM 20/18 A2988 RMK SLP123 T02050183 57001 IEM_DS3505
ZGNN,2001-04-17 04:00,ZGNN 170400Z AUTO 00000KT 2SM 21/18 A2988 RMK T02100180 IEM_DS3505
ZGNN,2001-04-17 05:00,ZGNN 170500Z AUTO 2SM 22/19 A2985 RMK T02200190 IEM_DS3505
ZGNN,2001-04-17 06:00,ZGNN 170600Z AUTO 09002KT 2 1/2SM 22/19 A2983 RMK SLP097 T02210193 57025 IEM_DS3505
ZGNN,2001-04-17 07:00,ZGNN 170700Z AUTO 2SM 22/19 A2977 RMK T02200190 IEM_DS3505
ZGNN,2001-04-17 08:00,ZGNN 170800Z AUTO 08004KT 2SM 23/19 A2977 RMK T02300190 IEM_DS3505
ZGNN,2001-04-17 09:00,ZGNN 170900Z AUTO 11006KT 2 1/2SM 23/20 A2974 RMK SLP073 T02260198 57023 IEM_DS3505
ZGNN,2001-04-17 10:00,ZGNN 171000Z AUTO 10004KT 1 1/2SM 22/19 A2971 RMK T02200190 IEM_DS3505
ZGNN,2001-04-17 11:00,ZGNN 171100Z AUTO 09004KT 1 1/2SM 22/20 A2971 RMK T02200200 IEM_DS3505
ZGNN,2001-04-17 12:00,ZGNN 171200Z AUTO 00000KT 2SM 22/20 A2974 RMK SLP078 T02200205 52004 IEM_DS3505
ZGNN,2001-04-17 13:00,ZGNN 171300Z AUTO 07004KT 1 1/2SM 22/20 A2977 RMK T02200200 IEM_DS3505
ZGNN,2001-04-17 14:00,ZGNN 171400Z AUTO 05006KT 1 1/2SM 21/20 A2977 RMK T02100200 IEM_DS3505
ZGNN,2001-04-17 15:00,ZGNN 171500Z AUTO 09002KT 2SM 22/21 A2977 RMK SLP084 T02160207 52007 IEM_DS3505
ZGNN,2001-04-17 16:00,ZGNN 171600Z AUTO 02004KT 1 1/4SM 21/20 A2977 RMK T02100200 IEM_DS3505
ZGNN,2001-04-17 17:00,ZGNN 171700Z AUTO 03004KT 1SM 21/20 A2977 RMK T02100200 IEM_DS3505
ZGNN,2001-04-17 18:00,ZGNN 171800Z AUTO 00000KT 3SM 21/21 A2974 RMK SLP072 T02100207 57012 IEM_DS3505
ZGNN,2001-04-17 19:00,ZGNN 171900Z AUTO 1/4SM 21/20 A2971 RMK T02100200 IEM_DS3505
ZGNN,2001-04-17 20:00,ZGNN 172000Z AUTO 06004KT 3/8SM 21/20 A2971 RMK T02100200 IEM_DS3505
ZGNN,2001-04-17 21:00,ZGNN 172100Z AUTO 11002KT 1SM 21/21 A2971 RMK 70000 SLP064 T02100208 57008 IEM_DS3505
ZGNN,2001-04-17 22:00,ZGNN 172200Z AUTO 02004KT 1/2SM 21/20 A2974 RMK T02100200 IEM_DS3505
ZGNN,2001-04-17 23:00,ZGNN 172300Z AUTO 02004KT 1/2SM 21/20 A2974 RMK T02100200 IEM_DS3505
ZGNN,2001-04-18 00:00,ZGNN 180000Z AUTO 00000KT 1SM 22/21 A2974 RMK SLP078 T02160213 52014 IEM_DS3505
ZGNN,2001-04-18 01:00,ZGNN 180100Z AUTO 03004KT 1SM 22/21 A2977 RMK T02200210 IEM_DS3505
ZGNN,2001-04-18 02:00,ZGNN 180200Z AUTO 5SM 24/22 A2977 RMK T02400220 IEM_DS3505
ZGNN,2001-04-18 03:00,ZGNN 180300Z AUTO 18004KT 7SM 26/23 A2974 RMK SLP078 T02560230 52001 IEM_DS3505
ZGNN,2001-04-18 04:00,ZGNN 180400Z AUTO 7SM 26/23 A2974 RMK T02600230 IEM_DS3505
ZGNN,2001-04-18 05:00,ZGNN 180500Z AUTO 13008KT 7SM 26/23 A2971 RMK T02600230 IEM_DS3505
ZGNN,2001-04-18 06:00,ZGNN 180600Z AUTO 14004KT 9SM 26/24 A2968 RMK SLP047 T02650236 57031 IEM_DS3505
ZGNN,2001-04-18 07:00,ZGNN 180700Z AUTO 10006KT 7SM 27/23 A2965 RMK T02700230 IEM_DS3505
ZGNN,2001-04-18 08:00,ZGNN 180800Z AUTO 09006KT 7SM 27/23 A2962 RMK T02700230 IEM_DS3505
ZGNN,2001-04-18 09:00,ZGNN 180900Z AUTO 11004KT 9SM 27/24 A2959 RMK SLP022 T02680238 57024 IEM_DS3505
ZGNN,2001-04-18 10:00,ZGNN 181000Z AUTO 08006KT 7SM 27/23 A2959 RMK T02700230 IEM_DS3505
ZGNN,2001-04-18 11:00,ZGNN 181100Z AUTO 09006KT 7SM 26/23 A2959 RMK T02600230 IEM_DS3505
ZGNN,2001-04-18 12:00,ZGNN 181200Z AUTO 09002KT 9SM 26/23 A2962 RMK SLP034 T02560233 52012 IEM_DS3505
ZGNN,2001-04-18 13:00,ZGNN 181300Z AUTO 7SM 25/23 A2962 RMK T02500230 IEM_DS3505
ZGNN,2001-04-18 14:00,ZGNN 181400Z AUTO 11002KT 7SM 24/22 A2965 RMK T02400220 IEM_DS3505
ZGNN,2001-04-18 15:00,ZGNN 181500Z AUTO 18004KT 9SM 25/23 A2968 RMK SLP054 T02490232 52020 IEM_DS3505
ZGNN,2001-04-18 16:00,ZGNN 181600Z AUTO 4SM 24/22 A2968 RMK T02400220 IEM_DS3505
ZGNN,2001-04-18 17:00,ZGNN 181700Z AUTO 4SM 24/22 A2965 RMK T02400220 IEM_DS3505
ZGNN,2001-04-18 18:00,ZGNN 181800Z AUTO 00000KT 9SM 24/23 A2965 RMK SLP043 T02430230 57011 IEM_DS3505
ZGNN,2001-04-18 19:00,ZGNN 181900Z AUTO 4SM 23/22 A2962 RMK T02300220 IEM_DS3505
ZGNN,2001-04-18 20:00,ZGNN 182000Z AUTO 08002KT 3SM 23/21 A2962 RMK T02300210 IEM_DS3505
ZGNN,2001-04-18 21:00,ZGNN 182100Z AUTO 00000KT 9SM 23/22 A2962 RMK SLP035 T02300224 57008 IEM_DS3505
ZGNN,2001-04-18 22:00,ZGNN 182200Z AUTO 07002KT 3SM 23/22 A2965 RMK T02300220 IEM_DS3505
ZGNN,2001-04-18 23:00,ZGNN 182300Z AUTO 05002KT 3SM 23/22 A2965 RMK T02300220 IEM_DS3505
ZGNN,2001-04-19 00:00,ZGNN 190000Z AUTO 14002KT 6SM 25/24 A2968 RMK SLP048 T02480236 52013 IEM_DS3505
ZGNN,2001-04-19 01:00,ZGNN 190100Z AUTO 14010KT 4SM 26/23 A2968 RMK T02600230 IEM_DS3505
ZGNN,2001-04-19 02:00,ZGNN 190200Z AUTO 14012KT 5SM 27/23 A2968 RMK T02700230 IEM_DS3505
ZGNN,2001-04-19 03:00,ZGNN 190300Z AUTO 14006KT 9SM 28/24 A2968 RMK SLP051 T02770238 52004 IEM_DS3505
ZGNN,2001-04-19 04:00,ZGNN 190400Z AUTO 13010KT 7SM 29/24 A2965 RMK T02900240 IEM_DS3505
ZGNN,2001-04-19 05:00,ZGNN 190500Z AUTO 15008KT 7SM 30/23 A2962 RMK T03000230 IEM_DS3505
ZGNN,2001-04-19 06:00,ZGNN 190600Z AUTO 14006KT 12SM 30/25 A2959 RMK SLP019 T03050249 57031 IEM_DS3505
ZGNN,2001-04-19 07:00,ZGNN 190700Z AUTO 12010KT 7SM 31/24 A2953 RMK T03100240 IEM_DS3505
ZGNN,2001-04-19 08:00,ZGNN 190800Z AUTO 11010KT 7SM 31/24 A2950 RMK T03100240 IEM_DS3505
ZGNN,2001-04-19 09:00,ZGNN 190900Z AUTO 14008KT 12SM 32/25 A2950 RMK SLP995 T03150251 57024 IEM_DS3505
ZGNN,2001-04-19 10:00,ZGNN 191000Z AUTO 12010KT 6SM 30/24 A2950 RMK T03000240 IEM_DS3505
ZGNN,2001-04-19 11:00,ZGNN 191100Z AUTO 13006KT 6SM 29/23 A2950 RMK T02900230 IEM_DS3505
ZGNN,2001-04-19 12:00,ZGNN 191200Z AUTO 14002KT 12SM 28/24 A2953 RMK SLP005 T02760239 52009 IEM_DS3505
ZGNN,2001-04-19 13:00,ZGNN 191300Z AUTO 13006KT 6SM 26/23 A2956 RMK T02600230 IEM_DS3505
ZGNN,2001-04-19 14:00,ZGNN 191400Z AUTO 14006KT 6SM 26/23 A2959 RMK T02600230 IEM_DS3505
ZGNN,2001-04-19 15:00,ZGNN 191500Z AUTO 00000KT 11SM 26/23 A2959 RMK SLP022 T02580232 52017 IEM_DS3505
ZGNN,2001-04-19 16:00,ZGNN 191600Z AUTO 6SM 25/22 A2959 RMK T02500220 IEM_DS3505
ZGNN,2001-04-19 17:00,ZGNN 191700Z AUTO 36002KT 6SM 25/22 A2956 RMK T02500220 IEM_DS3505
ZGNN,2001-04-19 18:00,ZGNN 191800Z AUTO 00000KT 9SM 24/23 A2956 RMK SLP009 T02420227 57012 IEM_DS3505
ZGNN,2001-04-19 19:00,ZGNN 191900Z AUTO 02004KT 4SM 24/22 A2953 RMK T02400220 IEM_DS3505
ZGNN,2001-04-19 20:00,ZGNN 192000Z AUTO 35004KT 4SM 24/22 A2953 RMK T02400220 IEM_DS3505
ZGNN,2001-04-19 21:00,ZGNN 192100Z AUTO 36002KT 5SM 24/22 A2953 RMK T02400220 IEM_DS3505
ZGNN,2001-04-19 22:00,ZGNN 192200Z AUTO 00000KT 4SM 23/21 A2956 RMK T02300210 IEM_DS3505
ZGNN,2001-04-19 23:00,ZGNN 192300Z AUTO 5SM 22/21 A2956 RMK T02200210 IEM_DS3505
ZGNN,2001-04-20 00:00,ZGNN 200000Z AUTO 00000KT 9SM 24/23 A2959 RMK SLP021 T02410232 52011 IEM_DS3505
ZGNN,2001-04-20 01:00,ZGNN 200100Z AUTO 6SM 26/23 A2959 RMK T02600230 IEM_DS3505
ZGNN,2001-04-20 02:00,ZGNN 200200Z AUTO 6SM 28/23 A2959 RMK T02800230 IEM_DS3505
ZGNN,2001-04-20 03:00,ZGNN 200300Z AUTO 22002KT 12SM 30/24 A2959 RMK SLP017 T02980241 57003 IEM_DS3505
ZGNN,2001-04-20 04:00,ZGNN 200400Z AUTO 6SM 31/23 A2956 RMK T03100230 IEM_DS3505
ZGNN,2001-04-20 06:00,ZGNN 200600Z AUTO 16004KT 19SM 33/24 A2947 RMK SLP984 T03320242 IEM_DS3505
ZGNN,2001-04-20 07:00,ZGNN 200700Z AUTO 12008KT 6SM 34/24 A2944 RMK T03400240 IEM_DS3505
ZGNN,2001-04-20 08:00,ZGNN 200800Z AUTO 12010KT 6SM 34/25 A2941 RMK T03400250 IEM_DS3505
ZGNN,2001-04-20 09:00,ZGNN 200900Z AUTO 14008KT 19SM 33/25 A2938 RMK SLP956 T03310249 57028 IEM_DS3505
ZGNN,2001-04-20 10:00,ZGNN 201000Z AUTO 12010KT 6SM 31/24 A2938 RMK T03100240 IEM_DS3505
ZGNN,2001-04-20 11:00,ZGNN 201100Z AUTO 12008KT 6SM 30/24 A2941 RMK T03000240 IEM_DS3505
ZGNN,2001-04-20 12:00,ZGNN 201200Z AUTO 25002KT 12SM 29/25 A2944 RMK SLP972 T02900246 52015 IEM_DS3505
ZGNN,2001-04-20 13:00,ZGNN 201300Z AUTO 20002KT 6SM 27/24 A2947 RMK T02700240 IEM_DS3505
ZGNN,2001-04-20 14:00,ZGNN 201400Z AUTO 6SM 27/24 A2950 RMK T02700240 IEM_DS3505
ZGNN,2001-04-20 15:00,ZGNN 201500Z AUTO 00000KT 12SM 26/24 A2950 RMK SLP994 T02620241 52022 IEM_DS3505
ZGNN,2001-04-20 16:00,ZGNN 201600Z AUTO 11002KT 7SM 26/23 A2950 RMK T02600230 IEM_DS3505
ZGNN,2001-04-20 17:00,ZGNN 201700Z AUTO 02004KT 4SM 26/23 A2950 RMK T02600230 IEM_DS3505
ZGNN,2001-04-20 18:00,ZGNN 201800Z AUTO 00000KT 12SM 25/23 A2950 RMK T02480234 IEM_DS3505
ZGNN,2001-04-20 19:00,ZGNN 201900Z AUTO 02006KT 3SM 24/22 A2950 RMK T02400220 IEM_DS3505
ZGNN,2001-04-20 20:00,ZGNN 202000Z AUTO 04006KT 2 1/2SM 24/22 A2950 RMK T02400220 IEM_DS3505
ZGNN,2001-04-20 21:00,ZGNN 202100Z AUTO 14002KT 9SM 24/23 A2950 RMK SLP996 T02400230 52004 IEM_DS3505
ZGNN,2001-04-20 22:00,ZGNN 202200Z AUTO 02004KT 4SM 24/22 A2953 RMK T02400220 IEM_DS3505
ZGNN,2001-04-20 23:00,ZGNN 202300Z AUTO 03006KT 3SM 24/22 A2956 RMK T02400220 IEM_DS3505
ZGNN,2001-04-21 00:00,ZGNN 210000Z AUTO 00000KT 6SM 25/24 A2959 RMK SLP017 T02540237 52021 IEM_DS3505
ZGNN,2001-04-21 01:00,ZGNN 210100Z AUTO 04008KT 6SM 26/23 A2959 RMK T02600230 IEM_DS3505
ZGNN,2001-04-21 02:00,ZGNN 210200Z AUTO 04006KT 6SM 28/23 A2962 RMK T02800230 IEM_DS3505
ZGNN,2001-04-21 03:00,ZGNN 210300Z AUTO 07006KT 12SM 29/24 A2962 RMK SLP030 T02940237 52013 IEM_DS3505
ZGNN,2001-04-21 04:00,ZGNN 210400Z AUTO 07006KT 7SM 30/24 RMK T03000240 IEM_DS3505
ZGNN,2001-04-21 05:00,ZGNN 210500Z AUTO 06006KT 7SM 32/24 A2959 RMK T03200240 IEM_DS3505
ZGNN,2001-04-21 06:00,ZGNN 210600Z AUTO 07006KT 12SM 31/25 A2956 RMK SLP015 T03140248 57015 IEM_DS3505
ZGNN,2001-04-21 07:00,ZGNN 210700Z AUTO 04014KT 7SM 31/24 A2956 RMK T03100240 IEM_DS3505
ZGNN,2001-04-21 08:00,ZGNN 210800Z AUTO 06014KT 7SM 30/23 A2953 RMK T03000230 IEM_DS3505
ZGNN,2001-04-21 09:00,ZGNN 210900Z AUTO 09006KT 12SM 30/23 A2956 RMK SLP009 T02950233 57007 IEM_DS3505
ZGNN,2001-04-21 10:00,ZGNN 211000Z AUTO 08014KT 5SM 26/21 A2959 RMK T02600210 IEM_DS3505
ZGNN,2001-04-21 11:00,ZGNN 211100Z AUTO 08012KT 6SM 24/19 A2962 RMK T02400190 IEM_DS3505
ZGNN,2001-04-21 12:00,ZGNN 211200Z AUTO 36004KT 7SM 22/18 A2968 RMK SLP053 T02250181 52042 IEM_DS3505
ZGNN,2001-04-21 13:00,ZGNN 211300Z AUTO 03014KT 6SM 22/17 A2971 RMK T02200170 IEM_DS3505
ZGNN,2001-04-21 14:00,ZGNN 211400Z AUTO 05012KT 7SM 20/16 A2974 RMK T02000160 IEM_DS3505
ZGNN,2001-04-21 15:00,ZGNN 211500Z AUTO 04004KT 7SM 20/16 A2980 RMK SLP092 T02000160 52039 IEM_DS3505
ZGNN,2001-04-21 16:00,ZGNN 211600Z AUTO 05010KT 7SM 19/15 A2980 RMK T01900150 IEM_DS3505
ZGNN,2001-04-21 17:00,ZGNN 211700Z AUTO 06010KT 7SM 19/14 A2980 RMK T01900140 IEM_DS3505
ZGNN,2001-04-21 18:00,ZGNN 211800Z AUTO 04004KT 7SM 18/14 A2983 RMK 60003 SLP097 T01840139 52005 IEM_DS3505
ZGNN,2001-04-21 19:00,ZGNN 211900Z AUTO 05010KT 5SM 18/13 A2983 RMK T01800130 IEM_DS3505
ZGNN,2001-04-21 20:00,ZGNN 212000Z AUTO 05010KT 6SM 17/13 A2980 RMK T01700130 IEM_DS3505
ZGNN,2001-04-21 21:00,ZGNN 212100Z AUTO 04002KT 6SM 16/14 A2983 RMK 70007 SLP101 T01610145 52003 IEM_DS3505
ZGNN,2001-04-21 22:00,ZGNN 212200Z AUTO 05008KT 7SM 16/13 A2985 RMK T01600130 IEM_DS3505
ZGNN,2001-04-21 23:00,ZGNN 212300Z AUTO 36006KT 7SM 17/12 A2988 RMK T01700120 IEM_DS3505
ZGNN,2001-04-22 00:00,ZGNN 220000Z AUTO 09002KT 12SM 16/14 A2991 RMK 60008 SLP135 T01580139 52032 IEM_DS3505
ZGNN,2001-04-22 01:00,ZGNN 220100Z AUTO 7SM 16/13 A2994 RMK T01600130 IEM_DS3505
ZGNN,2001-04-22 02:00,ZGNN 220200Z AUTO 06004KT 7SM 16/13 A2997 RMK T01600130 IEM_DS3505
ZGNN,2001-04-22 03:00,ZGNN 220300Z AUTO 09004KT 17SM 17/13 A2997 RMK SLP149 T01680133 52013 IEM_DS3505
ZGNN,2001-04-22 04:00,ZGNN 220400Z AUTO 33008KT 7SM 18/13 A2997 RMK T01800130 IEM_DS3505
ZGNN,2001-04-22 05:00,ZGNN 220500Z AUTO 34004KT 7SM 19/13 A2994 RMK T01900130 IEM_DS3505
ZGNN,2001-04-22 06:00,ZGNN 220600Z AUTO 34004KT 17SM 19/13 A2991 RMK SLP124 T01860130 57024 IEM_DS3505
ZGNN,2001-04-22 07:00,ZGNN 220700Z AUTO 09006KT 7SM 19/14 A2988 RMK T01900140 IEM_DS3505
ZGNN,2001-04-22 08:00,ZGNN 220800Z AUTO 05008KT 7SM 19/14 A2985 RMK T01900140 IEM_DS3505
ZGNN,2001-04-22 09:00,ZGNN 220900Z AUTO 07004KT 17SM 18/14 A2985 RMK SLP105 T01840135 57020 IEM_DS3505
ZGNN,2001-04-22 10:00,ZGNN 221000Z AUTO 07008KT 7SM 18/13 A2985 RMK T01800130 IEM_DS3505
ZGNN,2001-04-22 11:00,ZGNN 221100Z AUTO 08006KT 7SM 17/13 A2985 RMK T01700130 IEM_DS3505
ZGNN,2001-04-22 12:00,ZGNN 221200Z AUTO 04004KT 16SM 17/13 A2985 RMK SLP118 T01710130 52013 IEM_DS3505
ZGNN,2001-04-22 13:00,ZGNN 221300Z AUTO 05006KT 7SM 17/12 A2988 RMK T01700120 IEM_DS3505
ZGNN,2001-04-22 14:00,ZGNN 221400Z AUTO 05004KT 4SM 16/12 A2991 RMK T01600120 IEM_DS3505
ZGNN,2001-04-22 15:00,ZGNN 221500Z AUTO 00000KT 14SM 16/13 A2991 RMK SLP140 T01650129 52022 IEM_DS3505
ZGNN,2001-04-22 16:00,ZGNN 221600Z AUTO 07006KT 4SM 16/13 A2991 RMK T01600130 IEM_DS3505
ZGNN,2001-04-22 17:00,ZGNN 221700Z AUTO 06008KT 4SM 16/12 A2991 RMK T01600120 IEM_DS3505
ZGNN,2001-04-22 18:00,ZGNN 221800Z AUTO 04002KT 12SM 16/13 A2991 RMK SLP132 T01560131 57008 IEM_DS3505
ZGNN,2001-04-22 19:00,ZGNN 221900Z AUTO 05004KT 2SM 14/13 A2988 RMK T01400130 IEM_DS3505
ZGNN,2001-04-22 20:00,ZGNN 222000Z AUTO 05006KT 1 1/4SM 14/13 A2985 RMK T01400130 IEM_DS3505
ZGNN,2001-04-22 21:00,ZGNN 222100Z AUTO 34004KT 7SM 15/14 A2985 RMK 70001 SLP119 T01490144 57013 IEM_DS3505
ZGNN,2001-04-22 22:00,ZGNN 222200Z AUTO 1SM 15/14 A2985 RMK T01500140 IEM_DS3505
ZGNN,2001-04-22 23:00,ZGNN 222300Z AUTO 1SM 15/14 A2985 RMK T01500140 IEM_DS3505
ZGNN,2001-04-23 00:00,ZGNN 230000Z AUTO 34006KT 6SM 15/14 A2991 RMK 60055 SLP133 T01500141 52013 IEM_DS3505
ZGNN,2001-04-23 01:00,ZGNN 230100Z AUTO 5SM 16/13 A2994 RMK T01600130 IEM_DS3505
ZGNN,2001-04-23 02:00,ZGNN 230200Z AUTO 35004KT 5SM 16/14 A2994 RMK T01600140 IEM_DS3505
ZGNN,2001-04-23 03:00,ZGNN 230300Z AUTO 34004KT 7SM 17/15 A2994 RMK SLP149 T01680146 52016 IEM_DS3505
ZGNN,2001-04-23 04:00,ZGNN 230400Z AUTO 01004KT 3SM 17/14 A2994 RMK T01700140 IEM_DS3505
ZGNN,2001-04-23 05:00,ZGNN 230500Z AUTO 2 1/2SM 17/15 A2991 RMK T01700150 IEM_DS3505
ZGNN,2001-04-23 06:00,ZGNN 230600Z AUTO 34004KT 5SM 18/16 A2988 RMK 60000 SLP125 T01750155 57023 IEM_DS3505
ZGNN,2001-04-23 07:00,ZGNN 230700Z AUTO 36006KT 1 1/2SM 17/15 A2985 RMK T01700150 IEM_DS3505
ZGNN,2001-04-23 08:00,ZGNN 230800Z AUTO 34008KT 2SM 17/15 A2985 RMK T01700150 IEM_DS3505
ZGNN,2001-04-23 09:00,ZGNN 230900Z AUTO 04004KT 4SM 16/16 RMK SLP119 T01620155 57007 IEM_DS3505
ZGNN,2001-04-23 10:00,ZGNN 231000Z AUTO 1 1/2SM RMK IEM_DS3505
ZGNN,2001-04-23 11:00,ZGNN 231100Z AUTO 00000KT 2 1/2SM RMK IEM_DS3505
ZGNN,2001-04-23 12:00,ZGNN 231200Z AUTO 34002KT 12SM 16/16 A2988 RMK 60012 SLP130 T01640156 52011 IEM_DS3505
ZGNN,2001-04-23 13:00,ZGNN 231300Z AUTO 02006KT 3SM 16/15 A2991 RMK T01600150 IEM_DS3505
ZGNN,2001-04-23 14:00,ZGNN 231400Z AUTO 31006KT 3SM 16/15 A2994 RMK T01600150 IEM_DS3505
ZGNN,2001-04-23 15:00,ZGNN 231500Z AUTO 36004KT 12SM 16/16 A2994 RMK SLP145 T01600155 52015 IEM_DS3505
ZGNN,2001-04-23 16:00,ZGNN 231600Z AUTO 33004KT 7SM 16/14 A2994 RMK T01600140 IEM_DS3505
ZGNN,2001-04-23 17:00,ZGNN 231700Z AUTO 36004KT 7SM 16/15 A2994 RMK T01600150 IEM_DS3505
ZGNN,2001-04-23 18:00,ZGNN 231800Z AUTO 32002KT 12SM 16/15 A2994 RMK SLP145 T01610154 52001 IEM_DS3505
ZGNN,2001-04-23 19:00,ZGNN 231900Z AUTO 34004KT 3SM 16/15 A2994 RMK T01600150 IEM_DS3505
ZGNN,2001-04-23 20:00,ZGNN 232000Z AUTO 4SM 16/15 A2991 RMK T01600150 IEM_DS3505
ZGNN,2001-04-23 21:00,ZGNN 232100Z AUTO 32004KT 9SM 16/16 A2991 RMK 70086 SLP137 T01620155 57009 IEM_DS3505
ZGNN,2001-04-23 22:00,ZGNN 232200Z AUTO 7SM 16/15 A2991 RMK T01600150 IEM_DS3505
ZGNN,2001-04-23 23:00,ZGNN 232300Z AUTO 2SM 16/15 A2994 RMK T01600150 IEM_DS3505
ZGNN,2001-04-24 00:00,ZGNN 240000Z AUTO 32008KT 3SM 16/16 A2997 RMK 60016 SLP156 T01620155 52019 IEM_DS3505
ZGNN,2001-04-24 01:00,ZGNN 240100Z AUTO 34004KT 3SM 16/15 A2997 RMK T01600150 IEM_DS3505
ZGNN,2001-04-24 02:00,ZGNN 240200Z AUTO 7SM 17/15 A3000 RMK T01700150 IEM_DS3505
ZGNN,2001-04-24 03:00,ZGNN 240300Z AUTO 34004KT 7SM 18/15 A3000 RMK T01800150 IEM_DS3505
ZGNN,2001-04-24 04:00,ZGNN 240400Z AUTO 7SM 18/15 A2997 RMK T01800150 IEM_DS3505
ZGNN,2001-04-24 05:00,ZGNN 240500Z AUTO 35006KT 7SM 19/16 A2997 RMK T01900160 IEM_DS3505
ZGNN,2001-04-24 06:00,ZGNN 240600Z AUTO 04004KT 11SM 19/16 A2994 RMK 60003 SLP141 T01930163 57019 IEM_DS3505
ZGNN,2001-04-24 07:00,ZGNN 240700Z AUTO 00000KT 7SM 19/16 A2991 RMK T01900160 IEM_DS3505
ZGNN,2001-04-24 08:00,ZGNN 240800Z AUTO 1SM 17/16 A2988 RMK T01700160 IEM_DS3505
ZGNN,2001-04-24 09:00,ZGNN 240900Z AUTO 00000KT 9SM 18/17 A2988 RMK SLP129 T01810171 57012 IEM_DS3505
ZGNN,2001-04-24 10:00,ZGNN 241000Z AUTO 34004KT 4SM 18/16 A2988 RMK T01800160 IEM_DS3505
ZGNN,2001-04-24 11:00,ZGNN 241100Z AUTO 03006KT 1 1/2SM 18/16 A2988 RMK T01800160 IEM_DS3505
ZGNN,2001-04-24 12:00,ZGNN 241200Z AUTO 00000KT 9SM 17/17 A2991 RMK 60079 SLP138 T01740166 52009 IEM_DS3505
ZGNN,2001-04-24 13:00,ZGNN 241300Z AUTO 06004KT 2SM 17/16 A2994 RMK T01700160 IEM_DS3505
ZGNN,2001-04-24 14:00,ZGNN 241400Z AUTO 06004KT 2SM 17/16 A2997 RMK T01700160 IEM_DS3505
ZGNN,2001-04-24 15:00,ZGNN 241500Z AUTO 00000KT 5SM 17/16 A3000 RMK SLP165 T01660159 52027 IEM_DS3505
ZGNN,2001-04-24 16:00,ZGNN 241600Z AUTO 05004KT 1 1/2SM 16/15 A3000 RMK T01600150 IEM_DS3505
ZGNN,2001-04-24 17:00,ZGNN 241700Z AUTO 04004KT 1 1/2SM 16/15 A3000 RMK T01600150 IEM_DS3505
ZGNN,2001-04-24 18:00,ZGNN 241800Z AUTO 00000KT 6SM 16/16 A2997 RMK 60004 SLP156 T01640159 57009 IEM_DS3505
ZGNN,2001-04-24 19:00,ZGNN 241900Z AUTO 1 1/2SM 16/15 A2997 RMK T01600150 IEM_DS3505
ZGNN,2001-04-24 20:00,ZGNN 242000Z AUTO 33004KT 6SM 17/15 A2997 RMK T01700150 IEM_DS3505
ZGNN,2001-04-24 21:00,ZGNN 242100Z AUTO 34004KT 6SM 16/16 A2997 RMK 70139 SLP157 T01640159 52001 IEM_DS3505
ZGNN,2001-04-24 22:00,ZGNN 242200Z AUTO 02004KT 3SM 16/15 A2997 RMK T01600150 IEM_DS3505
ZGNN,2001-04-24 23:00,ZGNN 242300Z AUTO 10004KT 3SM 16/15 A2994 RMK T01600150 IEM_DS3505
ZGNN,2001-04-25 00:00,ZGNN 250000Z AUTO 29004KT 2SM 16/16 A2997 RMK 60055 SLP161 T01650162 52003 IEM_DS3505
ZGNN,2001-04-25 01:00,ZGNN 250100Z AUTO 35002KT 4SM 17/15 A3000 RMK T01700150 IEM_DS3505
ZGNN,2001-04-25 02:00,ZGNN 250200Z AUTO 4SM 17/15 A3003 RMK T01700150 IEM_DS3505
ZGNN,2001-04-25 03:00,ZGNN 250300Z AUTO 02004KT 7SM 17/16 A3003 RMK SLP172 T01720159 52011 IEM_DS3505
ZGNN,2001-04-25 04:00,ZGNN 250400Z AUTO 4SM 17/15 A3000 RMK T01700150 IEM_DS3505
ZGNN,2001-04-25 05:00,ZGNN 250500Z AUTO 5SM 17/15 A3000 RMK T01700150 IEM_DS3505
ZGNN,2001-04-25 06:00,ZGNN 250600Z AUTO 34002KT 9SM 18/16 A3000 RMK 60002 SLP159 T01810159 57012 IEM_DS3505
ZGNN,2001-04-25 07:00,ZGNN 250700Z AUTO 08006KT 7SM 18/15 A2994 RMK T01800150 IEM_DS3505
ZGNN,2001-04-25 08:00,ZGNN 250800Z AUTO 05006KT 7SM 19/15 A2994 RMK T01900150 IEM_DS3505
ZGNN,2001-04-25 09:00,ZGNN 250900Z AUTO 09002KT 11SM 20/15 A2991 RMK SLP130 T02050153 57028 IEM_DS3505
ZGNN,2001-04-25 10:00,ZGNN 251000Z AUTO 06006KT 7SM 20/15 A2991 RMK T02000150 IEM_DS3505
ZGNN,2001-04-25 11:00,ZGNN 251100Z AUTO 05004KT 7SM 19/15 A2991 RMK T01900150 IEM_DS3505
ZGNN,2001-04-25 12:00,ZGNN 251200Z AUTO 00000KT 12SM 18/16 A2994 RMK SLP147 T01800160 52016 IEM_DS3505
ZGNN,2001-04-25 13:00,ZGNN 251300Z AUTO 07002KT 7SM 18/15 A2997 RMK T01800150 IEM_DS3505
ZGNN,2001-04-25 14:00,ZGNN 251400Z AUTO 07004KT 7SM 18/14 A3000 RMK T01800140 IEM_DS3505
ZGNN,2001-04-25 15:00,ZGNN 251500Z AUTO 00000KT 9SM 17/15 A3000 RMK SLP164 T01730154 52017 IEM_DS3505
ZGNN,2001-04-25 16:00,ZGNN 251600Z AUTO 05002KT 3SM 17/15 A3000 RMK T01700150 IEM_DS3505
ZGNN,2001-04-25 17:00,ZGNN 251700Z AUTO 03004KT 3SM 17/15 A2997 RMK T01700150 IEM_DS3505
ZGNN,2001-04-25 18:00,ZGNN 251800Z AUTO 00000KT 7SM 17/15 A2997 RMK SLP150 T01740154 57014 IEM_DS3505
ZGNN,2001-04-25 19:00,ZGNN 251900Z AUTO 02002KT 3SM 17/14 A2994 RMK T01700140 IEM_DS3505
ZGNN,2001-04-25 20:00,ZGNN 252000Z AUTO 06002KT 3SM 17/15 A2994 RMK T01700150 IEM_DS3505
ZGNN,2001-04-25 21:00,ZGNN 252100Z AUTO 00000KT 7SM 18/16 A2994 RMK 70005 SLP148 T01750156 57001 IEM_DS3505
ZGNN,2001-04-25 22:00,ZGNN 252200Z AUTO 10004KT 3SM 17/15 A2997 RMK T01700150 IEM_DS3505
ZGNN,2001-04-25 23:00,ZGNN 252300Z AUTO 06002KT 1SM 16/15 A2997 RMK T01600150 IEM_DS3505
ZGNN,2001-04-26 00:00,ZGNN 260000Z AUTO 00000KT 1SM 17/16 A3000 RMK 60000 SLP160 T01680163 52011 IEM_DS3505
ZGNN,2001-04-26 01:00,ZGNN 260100Z AUTO 04004KT 1SM 17/16 A3000 RMK T01700160 IEM_DS3505
ZGNN,2001-04-26 02:00,ZGNN 260200Z AUTO 06006KT 3SM 18/16 A3000 RMK T01800160 IEM_DS3505
ZGNN,2001-04-26 03:00,ZGNN 260300Z AUTO 09002KT 2SM 18/17 A3000 RMK SLP164 T01790167 52004 IEM_DS3505
ZGNN,2001-04-26 04:00,ZGNN 260400Z AUTO 07004KT 2 1/2SM 18/16 A3000 RMK T01800160 IEM_DS3505
ZGNN,2001-04-26 05:00,ZGNN 260500Z AUTO 2 1/2SM 18/16 A2997 RMK T01800160 IEM_DS3505
ZGNN,2001-04-26 06:00,ZGNN 260600Z AUTO 09004KT 2SM 18/17 A2991 RMK 60000 SLP138 T01820174 57026 IEM_DS3505
ZGNN,2001-04-26 07:00,ZGNN 260700Z AUTO 09002KT 1 1/2SM 18/17 A2988 RMK T01800170 IEM_DS3505
ZGNN,2001-04-26 08:00,ZGNN 260800Z AUTO 10002KT 1 1/4SM 18/17 A2988 RMK T01800170 IEM_DS3505
ZGNN,2001-04-26 09:00,ZGNN 260900Z AUTO 00000KT 1 1/4SM 18/18 A2985 RMK SLP117 T01820177 57020 IEM_DS3505
ZGNN,2001-04-26 11:00,ZGNN 261100Z AUTO 08004KT 1SM 18/17 A2985 RMK T01800170 IEM_DS3505
ZGNN,2001-04-26 12:00,ZGNN 261200Z AUTO 09004KT 4SM 18/18 A2985 RMK 60000 SLP120 T01820179 52002 IEM_DS3505
ZGNN,2001-04-26 13:00,ZGNN 261300Z AUTO 08004KT 1SM 18/17 A2988 RMK T01800170 IEM_DS3505
ZGNN,2001-04-26 14:00,ZGNN 261400Z AUTO 05004KT 1SM 18/17 A2991 RMK T01800170 IEM_DS3505
ZGNN,2001-04-26 15:00,ZGNN 261500Z AUTO 00000KT 2 1/2SM 18/18 A2991 RMK SLP134 T01820180 52014 IEM_DS3505
ZGNN,2001-04-26 16:00,ZGNN 261600Z AUTO 07004KT 1 1/4SM 18/18 A2991 RMK T01800180 IEM_DS3505
ZGNN,2001-04-26 17:00,ZGNN 261700Z AUTO 06002KT 1SM 18/18 A2988 RMK T01800180 IEM_DS3505
ZGNN,2001-04-26 18:00,ZGNN 261800Z AUTO 00000KT 2SM 19/18 A2988 RMK 60004 SLP120 T01860184 57013 IEM_DS3505
ZGNN,2001-04-26 19:00,ZGNN 261900Z AUTO 02004KT 1SM 19/18 A2985 RMK T01900180 IEM_DS3505
ZGNN,2001-04-26 20:00,ZGNN 262000Z AUTO 05004KT 1/2SM 19/18 A2983 RMK T01900180 IEM_DS3505
ZGNN,2001-04-26 21:00,ZGNN 262100Z AUTO 09002KT 2SM 20/19 A2983 RMK 70006 SLP108 T01950193 57012 IEM_DS3505
ZGNN,2001-04-26 22:00,ZGNN 262200Z AUTO 01004KT 1SM 19/19 A2983 RMK T01900190 IEM_DS3505
ZGNN,2001-04-26 23:00,ZGNN 262300Z AUTO 02006KT 1SM 20/19 A2983 RMK T02000190 IEM_DS3505
ZGNN,2001-04-27 00:00,ZGNN 270000Z AUTO 00000KT 1 1/4SM 20/20 A2985 RMK 60001 SLP114 T02040201 52006 IEM_DS3505
ZGNN,2001-04-27 01:00,ZGNN 270100Z AUTO 1SM 20/20 A2985 RMK T02000200 IEM_DS3505
ZGNN,2001-04-27 02:00,ZGNN 270200Z AUTO 1 1/4SM 21/21 A2985 RMK T02100210 IEM_DS3505
ZGNN,2001-04-27 03:00,ZGNN 270300Z AUTO 18006KT 4SM 23/22 A2985 RMK SLP111 T02320225 57002 IEM_DS3505
ZGNN,2001-04-27 04:00,ZGNN 270400Z AUTO 7SM 24/22 A2983 RMK T02400220 IEM_DS3505
ZGNN,2001-04-27 05:00,ZGNN 270500Z AUTO 16006KT 7SM RMK IEM_DS3505
ZGNN,2001-04-27 06:00,ZGNN 270600Z AUTO 16006KT 12SM 25/23 A2977 RMK 60003 SLP085 T02480231 57025 IEM_DS3505
ZGNN,2001-04-27 07:00,ZGNN 270700Z AUTO 15010KT 7SM 25/22 A2974 RMK T02500220 IEM_DS3505
ZGNN,2001-04-27 08:00,ZGNN 270800Z AUTO 15014KT 7SM 26/22 A2971 RMK T02600220 IEM_DS3505
ZGNN,2001-04-27 09:00,ZGNN 270900Z AUTO 14010KT 12SM 26/23 A2968 RMK SLP056 T02630228 57028 IEM_DS3505
ZGNN,2001-04-27 10:00,ZGNN 271000Z AUTO 15010KT 7SM 26/21 A2968 RMK T02600210 IEM_DS3505
ZGNN,2001-04-27 11:00,ZGNN 271100Z AUTO 14012KT 7SM 25/21 A2968 RMK T02500210 IEM_DS3505
ZGNN,2001-04-27 12:00,ZGNN 271200Z AUTO 18008KT 12SM 25/22 A2971 RMK SLP060 T02500220 52004 IEM_DS3505
ZGNN,2001-04-27 13:00,ZGNN 271300Z AUTO 13006KT 6SM 24/21 A2974 RMK T02400210 IEM_DS3505
ZGNN,2001-04-27 14:00,ZGNN 271400Z AUTO 15004KT 7SM 24/21 A2977 RMK T02400210 IEM_DS3505
ZGNN,2001-04-27 15:00,ZGNN 271500Z AUTO 22002KT 11SM 24/22 A2980 RMK SLP088 T02360221 52028 IEM_DS3505
ZGNN,2001-04-27 16:00,ZGNN 271600Z AUTO 15006KT 7SM 24/21 A2980 RMK T02400210 IEM_DS3505
ZGNN,2001-04-27 17:00,ZGNN 271700Z AUTO 15006KT 7SM 23/21 A2977 RMK T02300210 IEM_DS3505
ZGNN,2001-04-27 18:00,ZGNN 271800Z AUTO 00000KT 9SM 23/22 A2977 RMK SLP077 T02300221 57011 IEM_DS3505
ZGNN,2001-04-27 20:00,ZGNN 272000Z AUTO 00000KT 4SM 22/21 A2974 RMK T02200210 IEM_DS3505
ZGNN,2001-04-27 21:00,ZGNN 272100Z AUTO 04002KT 7SM 22/21 A2971 RMK 70000 SLP066 T02200214 57011 IEM_DS3505
ZGNN,2001-04-27 22:00,ZGNN 272200Z AUTO 05002KT 3SM 22/21 A2971 RMK T02200210 IEM_DS3505
ZGNN,2001-04-27 23:00,ZGNN 272300Z AUTO 03002KT 5SM 22/21 A2974 RMK T02200210 IEM_DS3505
ZGNN,2001-04-28 00:00,ZGNN 280000Z AUTO 00000KT 4SM 24/22 A2977 RMK 70003 SLP080 T02350225 52014 IEM_DS3505
ZGNN,2001-04-28 01:00,ZGNN 280100Z AUTO 7SM 24/22 A2977 RMK T02400220 IEM_DS3505
ZGNN,2001-04-28 02:00,ZGNN 280200Z AUTO 15006KT 7SM 26/23 A2977 RMK T02600230 IEM_DS3505
ZGNN,2001-04-28 03:00,ZGNN 280300Z AUTO 20004KT 9SM 28/24 A2977 RMK SLP078 T02840237 57001 IEM_DS3505
ZGNN,2001-04-28 04:00,ZGNN 280400Z AUTO 13010KT 7SM 28/23 A2974 RMK T02800230 IEM_DS3505
ZGNN,2001-04-28 05:00,ZGNN 280500Z AUTO 15008KT 7SM 28/23 A2971 RMK T02800230 IEM_DS3505
ZGNN,2001-04-28 06:00,ZGNN 280600Z AUTO 18006KT 12SM 28/24 A2968 RMK SLP054 T02850239 57024 IEM_DS3505
ZGNN,2001-04-28 07:00,ZGNN 280700Z AUTO 14010KT 7SM 29/24 A2965 RMK T02900240 IEM_DS3505
ZGNN,2001-04-28 08:00,ZGNN 280800Z AUTO 15012KT 7SM 29/23 A2965 RMK T02900230 IEM_DS3505
ZGNN,2001-04-28 09:00,ZGNN 280900Z AUTO 14008KT 12SM 28/24 A2962 RMK SLP035 T02830236 57019 IEM_DS3505
ZGNN,2001-04-28 10:00,ZGNN 281000Z AUTO 15012KT 7SM 28/23 A2962 RMK T02800230 IEM_DS3505
ZGNN,2001-04-28 11:00,ZGNN 281100Z AUTO 15010KT 6SM 27/22 A2965 RMK T02700220 IEM_DS3505
ZGNN,2001-04-28 12:00,ZGNN 281200Z AUTO 25002KT 19SM 26/23 A2965 RMK SLP051 T02600228 52016 IEM_DS3505
ZGNN,2001-04-28 13:00,ZGNN 281300Z AUTO 15004KT 6SM 25/22 A2968 RMK T02500220 IEM_DS3505
ZGNN,2001-04-28 14:00,ZGNN 281400Z AUTO 16004KT 6SM 25/22 A2971 RMK T02500220 IEM_DS3505
ZGNN,2001-04-28 15:00,ZGNN 281500Z AUTO 14004KT 16SM 24/23 RMK SLP071 T02410226 52020 IEM_DS3505
ZGNN,2001-04-28 17:00,ZGNN 281700Z AUTO 25004KT 7SM 23/22 A2974 RMK T02300220 IEM_DS3505
ZGNN,2001-04-28 18:00,ZGNN 281800Z AUTO 22008KT 9SM 24/22 A2977 RMK 60004 SLP083 T02400222 52012 IEM_DS3505
ZGNN,2001-04-28 19:00,ZGNN 281900Z AUTO 22012KT 7SM 22/20 A2977 RMK T02200200 IEM_DS3505
ZGNN,2001-04-28 20:00,ZGNN 282000Z AUTO 20010KT 7SM 21/19 A2971 RMK T02100190 IEM_DS3505
ZGNN,2001-04-28 21:00,ZGNN 282100Z AUTO 00000KT 11SM 21/20 A2968 RMK 70012 SLP054 T02080197 57029 IEM_DS3505
ZGNN,2001-04-28 22:00,ZGNN 282200Z AUTO 23004KT 7SM 21/19 A2974 RMK T02100190 IEM_DS3505
ZGNN,2001-04-28 23:00,ZGNN 282300Z AUTO 7SM 21/19 A2974 RMK T02100190 IEM_DS3505
ZGNN,2001-04-29 00:00,ZGNN 290000Z AUTO 14002KT 7SM 21/20 A2974 RMK 60008 SLP073 T02140200 52018 IEM_DS3505
ZGNN,2001-04-29 01:00,ZGNN 290100Z AUTO 7SM 22/20 A2977 RMK T02200200 IEM_DS3505
ZGNN,2001-04-29 02:00,ZGNN 290200Z AUTO 36006KT 7SM 24/20 A2974 RMK T02400200 IEM_DS3505
ZGNN,2001-04-29 03:00,ZGNN 290300Z AUTO 09004KT 19SM 24/21 A2974 RMK SLP078 T02370211 52005 IEM_DS3505
ZGNN,2001-04-29 04:00,ZGNN 290400Z AUTO 6SM 27/20 A2977 RMK T02700200 IEM_DS3505
ZGNN,2001-04-29 05:00,ZGNN 290500Z AUTO 6SM 28/21 A2974 RMK T02800210 IEM_DS3505
ZGNN,2001-04-29 06:00,ZGNN 290600Z AUTO 18002KT 19SM 29/22 A2974 RMK 60003 SLP069 T02860225 57008 IEM_DS3505
ZGNN,2001-04-29 07:00,ZGNN 290700Z AUTO 6SM 30/22 A2968 RMK T03000220 IEM_DS3505
ZGNN,2001-04-29 08:00,ZGNN 290800Z AUTO 7SM 31/22 A2965 RMK T03100220 IEM_DS3505
ZGNN,2001-04-29 09:00,ZGNN 290900Z AUTO 25004KT 19SM 32/24 A2965 RMK SLP043 T03150237 57025 IEM_DS3505
ZGNN,2001-04-29 10:00,ZGNN 291000Z AUTO 7SM 31/23 A2965 RMK T03100230 IEM_DS3505
ZGNN,2001-04-29 11:00,ZGNN 291100Z AUTO 15006KT 7SM 29/23 A2968 RMK T02900230 IEM_DS3505
ZGNN,2001-04-29 12:00,ZGNN 291200Z AUTO 00000KT 16SM 27/23 A2968 RMK SLP056 T02740231 52012 IEM_DS3505
ZGNN,2001-04-29 13:00,ZGNN 291300Z AUTO 12002KT 6SM 26/22 A2974 RMK T02600220 IEM_DS3505
ZGNN,2001-04-29 14:00,ZGNN 291400Z AUTO 00000KT 6SM 26/22 A2977 RMK T02600220 IEM_DS3505
ZGNN,2001-04-29 15:00,ZGNN 291500Z AUTO 00000KT 14SM 25/23 A2977 RMK SLP083 T02500230 52026 IEM_DS3505
ZGNN,2001-04-29 17:00,ZGNN 291700Z AUTO 4SM 23/22 A2980 RMK T02300220 IEM_DS3505
ZGNN,2001-04-29 18:00,ZGNN 291800Z AUTO 04002KT 14SM 23/22 A2980 RMK SLP087 T02320223 52005 IEM_DS3505
ZGNN,2001-04-29 19:00,ZGNN 291900Z AUTO 33002KT 3SM 23/22 A2980 RMK T02300220 IEM_DS3505
ZGNN,2001-04-29 20:00,ZGNN 292000Z AUTO 00000KT 4SM 22/21 A2980 RMK T02200210 IEM_DS3505
ZGNN,2001-04-29 21:00,ZGNN 292100Z AUTO 00000KT 9SM 22/22 A2980 RMK 70000 SLP095 T02210217 52008 IEM_DS3505
ZGNN,2001-04-29 22:00,ZGNN 292200Z AUTO 01002KT 3SM 22/21 A2983 RMK T02200210 IEM_DS3505
ZGNN,2001-04-29 23:00,ZGNN 292300Z AUTO 7SM 23/22 A2983 RMK T02300220 IEM_DS3505
ZGNN,2001-04-30 00:00,ZGNN 300000Z AUTO 00000KT 6SM 24/23 A2985 RMK 70003 SLP110 T02380229 52014 IEM_DS3505
ZGNN,2001-04-30 01:00,ZGNN 300100Z AUTO 00000KT 7SM 27/23 A2985 RMK T02700230 IEM_DS3505
ZGNN,2001-04-30 02:00,ZGNN 300200Z AUTO 7SM 27/23 A2985 RMK T02700230 IEM_DS3505
ZGNN,2001-04-30 03:00,ZGNN 300300Z AUTO 04002KT 12SM 29/24 A2985 RMK SLP109 T02860243 54000 IEM_DS3505
ZGNN,2001-04-30 04:00,ZGNN 300400Z AUTO 7SM 30/24 A2983 RMK T03000240 IEM_DS3505
ZGNN,2001-04-30 05:00,ZGNN 300500Z AUTO 7SM 31/24 A2983 RMK T03100240 IEM_DS3505
ZGNN,2001-04-30 06:00,ZGNN 300600Z AUTO 22004KT 19SM 32/24 A2977 RMK SLP081 T03160240 57027 IEM_DS3505
ZGNN,2001-04-30 07:00,ZGNN 300700Z AUTO 7SM 32/24 A2974 RMK T03200240 IEM_DS3505
ZGNN,2001-04-30 08:00,ZGNN 300800Z AUTO 10004KT 7SM 32/24 A2974 RMK T03200240 IEM_DS3505
ZGNN,2001-04-30 09:00,ZGNN 300900Z AUTO 12006KT 7SM 32/25 A2971 RMK T03200250 IEM_DS3505
ZGNN,2001-04-30 10:00,ZGNN 301000Z AUTO 12008KT 7SM 31/25 A2971 RMK T03100250 IEM_DS3505
ZGNN,2001-04-30 11:00,ZGNN 301100Z AUTO 13006KT 7SM 30/24 A2974 RMK T03000240 IEM_DS3505
ZGNN,2001-04-30 12:00,ZGNN 301200Z AUTO 14004KT 17SM 29/25 A2977 RMK SLP078 T02900252 52016 IEM_DS3505
ZGNN,2001-04-30 13:00,ZGNN 301300Z AUTO 7SM 28/24 A2980 RMK T02800240 IEM_DS3505
ZGNN,2001-04-30 14:00,ZGNN 301400Z AUTO 02012KT 7SM 23/21 A2988 RMK T02300210 IEM_DS3505
ZGNN,2001-04-30 15:00,ZGNN 301500Z AUTO 29006KT 22/21 A2997 RMK SLP150 T02220210 52071 IEM_DS3505
ZGNN,2001-04-30 16:00,ZGNN 301600Z AUTO 34008KT 4SM 21/20 A2994 RMK T02100200 IEM_DS3505
ZGNN,2001-04-30 17:00,ZGNN 301700Z AUTO 35008KT 7SM 21/19 A3000 RMK T02100190 IEM_DS3505
ZGNN,2001-04-30 18:00,ZGNN 301800Z AUTO 34006KT 12SM 21/19 RMK 60114 SLP152 T02120188 52002 IEM_DS3505
ZGNN,2001-04-30 20:00,ZGNN 302000Z AUTO 33006KT 6SM 20/18 A2994 RMK T02000180 IEM_DS3505
ZGNN,2001-04-30 21:00,ZGNN 302100Z AUTO 34008KT 12SM 20/18 A2994 RMK 70115 SLP142 T02010177 57010 IEM_DS3505
ZGNN,2001-04-30 22:00,ZGNN 302200Z AUTO 33008KT 6SM 20/16 A2994 RMK T02000160 IEM_DS3505
ZGNN,2001-04-30 23:00,ZGNN 302300Z AUTO 34004KT 6SM 20/16 A2997 RMK T02000160 IEM_DS3505
ZGNN,2001-05-01 00:00,ZGNN 010000Z AUTO 34006KT 15SM 20/17 A3000 RMK 70115 SLP159 T02000174 52016 IEM_DS3505
ZGNN,2001-05-01 01:00,ZGNN 010100Z AUTO 32006KT 6SM 21/15 A3000 RMK T02100150 IEM_DS3505
ZGNN,2001-05-01 02:00,ZGNN 010200Z AUTO 34008G17KT 6SM 22/15 A3000 RMK T02200150 IEM_DS3505
ZGNN,2001-05-01 03:00,ZGNN 010300Z AUTO 34006KT 17SM 22/16 A3000 RMK SLP162 T02180161 52002 IEM_DS3505
ZGNN,2001-05-01 04:00,ZGNN 010400Z AUTO 32006KT 6SM 23/16 A3000 RMK T02300160 IEM_DS3505
ZGNN,2001-05-01 05:00,ZGNN 010500Z AUTO 34006KT 6SM 24/15 A2997 RMK T02400150 IEM_DS3505
ZGNN,2001-05-01 06:00,ZGNN 010600Z AUTO 00000KT 19SM 25/17 A2997 RMK SLP135 T02540168 57026 IEM_DS3505
ZGNN,2001-05-01 07:00,ZGNN 010700Z AUTO 6SM 25/16 A2991 RMK T02500160 IEM_DS3505
ZGNN,2001-05-01 08:00,ZGNN 010800Z AUTO 6SM 25/16 A2988 RMK T02500160 IEM_DS3505
ZGNN,2001-05-01 09:00,ZGNN 010900Z AUTO 32006KT 19SM 25/18 A2988 RMK SLP111 T02540177 57024 IEM_DS3505
ZGNN,2001-05-01 10:00,ZGNN 011000Z AUTO 31004KT 6SM 25/17 A2985 RMK T02500170 IEM_DS3505
ZGNN,2001-05-01 11:00,ZGNN 011100Z AUTO 32002KT 6SM 25/17 A2985 RMK T02500170 IEM_DS3505
ZGNN,2001-05-01 12:00,ZGNN 011200Z AUTO 32004KT 16SM 23/19 A2985 RMK SLP116 T02290193 52004 IEM_DS3505
ZGNN,2001-05-01 13:00,ZGNN 011300Z AUTO 00000KT 7SM 22/19 A2985 RMK T02200190 IEM_DS3505
ZGNN,2001-05-01 14:00,ZGNN 011400Z AUTO 00000KT 7SM 22/19 A2988 RMK T02200190 IEM_DS3505
ZGNN,2001-05-01 15:00,ZGNN 011500Z AUTO 00000KT 12SM 22/19 A2988 RMK SLP133 T02190193 52017 IEM_DS3505
ZGNN,2001-05-01 16:00,ZGNN 011600Z AUTO 7SM 22/19 A2991 RMK T02200190 IEM_DS3505
ZGNN,2001-05-01 17:00,ZGNN 011700Z AUTO 00000KT 3SM 22/19 A2988 RMK T02200190 IEM_DS3505
ZGNN,2001-05-01 18:00,ZGNN 011800Z AUTO 00000KT 12SM 21/19 A2985 RMK SLP114 T02130194 57018 IEM_DS3505
ZGNN,2001-05-01 19:00,ZGNN 011900Z AUTO 00000KT 3SM 22/18 A2983 RMK T02200180 IEM_DS3505
ZGNN,2001-05-01 20:00,ZGNN 012000Z AUTO 00000KT 2 1/2SM 21/19 A2983 RMK T02100190 IEM_DS3505
ZGNN,2001-05-01 21:00,ZGNN 012100Z AUTO 00000KT 9SM 21/19 A2980 RMK SLP097 T02090190 57017 IEM_DS3505
ZGNN,2001-05-01 22:00,ZGNN 012200Z AUTO 00000KT 3SM 21/18 A2983 RMK T02100180 IEM_DS3505
ZGNN,2001-05-01 23:00,ZGNN 012300Z AUTO 00000KT 2 1/2SM 21/19 A2985 RMK T02100190 IEM_DS3505
ZGNN,2001-05-02 00:00,ZGNN 020000Z AUTO 00000KT 2 1/2SM 21/19 A2988 RMK SLP119 T02140189 52022 IEM_DS3505
ZGNN,2001-05-02 01:00,ZGNN 020100Z AUTO 00000KT 2 1/2SM 22/19 A2988 RMK T02200190 IEM_DS3505
ZGNN,2001-05-02 02:00,ZGNN 020200Z AUTO 3SM 23/18 A2991 RMK T02300180 IEM_DS3505
ZGNN,2001-05-02 03:00,ZGNN 020300Z AUTO 04002KT 9SM 24/18 A2988 RMK SLP124 T02380181 52005 IEM_DS3505
ZGNN,2001-05-02 04:00,ZGNN 020400Z AUTO 5SM 24/18 A2985 RMK T02400180 IEM_DS3505
ZGNN,2001-05-02 05:00,ZGNN 020500Z AUTO 5SM 24/18 A2983 RMK T02400180 IEM_DS3505
ZGNN,2001-05-02 06:00,ZGNN 020600Z AUTO 16004KT 9SM 26/19 A2980 RMK SLP090 T02560188 57033 IEM_DS3505
ZGNN,2001-05-02 07:00,ZGNN 020700Z AUTO 6SM 26/19 A2977 RMK T02600190 IEM_DS3505
ZGNN,2001-05-02 08:00,ZGNN 020800Z AUTO 08004KT 6SM 26/20 A2974 RMK T02600200 IEM_DS3505
ZGNN,2001-05-02 09:00,ZGNN 020900Z AUTO 07002KT 9SM 25/21 A2974 RMK SLP069 T02540211 57021 IEM_DS3505
ZGNN,2001-05-02 10:00,ZGNN 021000Z AUTO 02008KT 4SM 25/20 A2974 RMK T02500200 IEM_DS3505
ZGNN,2001-05-02 11:00,ZGNN 021100Z AUTO 02006KT 3SM 24/20 A2974 RMK T02400200 IEM_DS3505
ZGNN,2001-05-02 12:00,ZGNN 021200Z AUTO 00000KT 9SM 23/21 A2977 RMK 60003 SLP081 T02340208 52011 IEM_DS3505
ZGNN,2001-05-02 13:00,ZGNN 021300Z AUTO 10002KT 2 1/2SM 23/20 A2977 RMK T02300200 IEM_DS3505
ZGNN,2001-05-02 14:00,ZGNN 021400Z AUTO 07006KT 2 1/2SM 23/20 A2980 RMK T02300200 IEM_DS3505
ZGNN,2001-05-02 15:00,ZGNN 021500Z AUTO 00000KT 9SM 23/21 A2980 RMK SLP092 T02280207 52012 IEM_DS3505
ZGNN,2001-05-02 16:00,ZGNN 021600Z AUTO 05004KT 2 1/2SM 22/20 A2980 RMK T02200200 IEM_DS3505
ZGNN,2001-05-02 17:00,ZGNN 021700Z AUTO 01006KT 2 1/2SM 22/20 A2980 RMK T02200200 IEM_DS3505
ZGNN,2001-05-02 18:00,ZGNN 021800Z AUTO 09004KT 9SM 22/21 A2980 RMK SLP090 T02220207 57002 IEM_DS3505
ZGNN,2001-05-02 19:00,ZGNN 021900Z AUTO 2SM 22/20 A2980 RMK T02200200 IEM_DS3505
ZGNN,2001-05-02 20:00,ZGNN 022000Z AUTO 09002KT 1 1/2SM 22/20 A2980 RMK T02200200 IEM_DS3505
ZGNN,2001-05-02 21:00,ZGNN 022100Z AUTO 00000KT 6SM 22/21 A2983 RMK 70003 SLP098 T02180206 52008 IEM_DS3505
ZGNN,2001-05-02 22:00,ZGNN 022200Z AUTO 34002KT 2SM 22/20 A2983 RMK T02200200 IEM_DS3505
ZGNN,2001-05-02 23:00,ZGNN 022300Z AUTO 12004KT 1 1/4SM 21/20 A2983 RMK T02100200 IEM_DS3505
ZGNN,2001-05-03 00:00,ZGNN 030000Z AUTO 34004KT 3SM 22/21 A2985 RMK 60003 SLP111 T02200208 52012 IEM_DS3505
ZGNN,2001-05-03 01:00,ZGNN 030100Z AUTO 33004KT 1 1/4SM 22/20 A2988 RMK T02200200 IEM_DS3505
ZGNN,2001-05-03 02:00,ZGNN 030200Z AUTO 00000KT 2 1/2SM 23/20 A2985 RMK T02300200 IEM_DS3505
ZGNN,2001-05-03 03:00,ZGNN 030300Z AUTO 22004KT 4SM 25/21 A2985 RMK SLP113 T02470214 52003 IEM_DS3505
ZGNN,2001-05-03 04:00,ZGNN 030400Z AUTO 4SM 26/21 A2985 RMK T02600210 IEM_DS3505
ZGNN,2001-05-03 05:00,ZGNN 030500Z AUTO 00000KT 7SM 27/21 A2983 RMK T02700210 IEM_DS3505
ZGNN,2001-05-03 06:00,ZGNN 030600Z AUTO 27002KT 6SM 27/22 A2980 RMK 60003 SLP094 T02730223 57019 IEM_DS3505
ZGNN,2001-05-03 07:00,ZGNN 030700Z AUTO 7SM 27/22 A2980 RMK T02700220 IEM_DS3505
ZGNN,2001-05-03 08:00,ZGNN 030800Z AUTO 13006KT 7SM 26/23 A2977 RMK T02600230 IEM_DS3505
ZGNN,2001-05-03 09:00,ZGNN 030900Z AUTO 20002KT 6SM 26/23 A2977 RMK SLP088 T02550232 57006 IEM_DS3505
ZGNN,2001-05-03 10:00,ZGNN 031000Z AUTO 13002KT 4SM 25/23 A2980 RMK T02500230 IEM_DS3505
ZGNN,2001-05-03 11:00,ZGNN 031100Z AUTO 05002KT 2 1/2SM 24/23 A2983 RMK T02400230 IEM_DS3505
ZGNN,2001-05-03 12:00,ZGNN 031200Z AUTO 00000KT 2 1/2SM 24/24 A2983 RMK 60008 SLP105 T02440237 52016 IEM_DS3505
ZGNN,2001-05-03 13:00,ZGNN 031300Z AUTO 11002KT 2SM 24/23 A2985 RMK T02400230 IEM_DS3505
ZGNN,2001-05-03 14:00,ZGNN 031400Z AUTO 13004KT 2 1/2SM 24/22 A2988 RMK T02400220 IEM_DS3505
ZGNN,2001-05-03 15:00,ZGNN 031500Z AUTO 14002KT 2 1/2SM 24/23 A2988 RMK SLP121 T02380232 52017 IEM_DS3505
ZGNN,2001-05-03 16:00,ZGNN 031600Z AUTO 12002KT 1 1/2SM 23/22 A2988 RMK T02300220 IEM_DS3505
ZGNN,2001-05-03 17:00,ZGNN 031700Z AUTO 07002KT 1SM 23/22 A2988 RMK T02300220 IEM_DS3505
ZGNN,2001-05-03 18:00,ZGNN 031800Z AUTO 00000KT 2 1/2SM 23/23 A2985 RMK 60016 SLP113 T02320228 57008 IEM_DS3505
ZGNN,2001-05-03 19:00,ZGNN 031900Z AUTO 08004KT 1SM 23/22 A2983 RMK T02300220 IEM_DS3505
ZGNN,2001-05-03 20:00,ZGNN 032000Z AUTO 04002KT 1 1/4SM 23/22 A2983 RMK T02300220 IEM_DS3505
ZGNN,2001-05-03 21:00,ZGNN 032100Z AUTO 00000KT 5SM 23/22 A2983 RMK 70023 SLP106 T02270224 57007 IEM_DS3505
ZGNN,2001-05-03 22:00,ZGNN 032200Z AUTO 04004KT 1 1/2SM 23/22 A2983 RMK T02300220 IEM_DS3505
ZGNN,2001-05-03 23:00,ZGNN 032300Z AUTO 03004KT 2 1/2SM 23/21 A2985 RMK T02300210 IEM_DS3505
ZGNN,2001-05-04 00:00,ZGNN 040000Z AUTO 07002KT 2SM 23/22 A2988 RMK 60003 SLP120 T02300224 52013 IEM_DS3505
ZGNN,2001-05-04 01:00,ZGNN 040100Z AUTO 2SM 23/22 A2988 RMK T02300220 IEM_DS3505
ZGNN,2001-05-04 02:00,ZGNN 040200Z AUTO 00000KT 2SM 24/22 A2991 RMK T02400220 IEM_DS3505
ZGNN,2001-05-04 03:00,ZGNN 040300Z AUTO 20002KT 4SM 26/24 A2988 RMK SLP124 T02550241 52005 IEM_DS3505
ZGNN,2001-05-04 04:00,ZGNN 040400Z AUTO 16008KT 7SM 27/23 A2988 RMK T02700230 IEM_DS3505
ZGNN,2001-05-04 06:00,ZGNN 040600Z AUTO 14004KT 6SM 24/23 A2985 RMK 60012 SLP109 T02450232 57015 IEM_DS3505
ZGNN,2001-05-04 07:00,ZGNN 040700Z AUTO 7SM 24/22 A2983 RMK T02400220 IEM_DS3505
ZGNN,2001-05-04 08:00,ZGNN 040800Z AUTO 13006KT 7SM 25/23 A2980 RMK T02500230 IEM_DS3505
ZGNN,2001-05-04 09:00,ZGNN 040900Z AUTO 14004KT 11SM 26/24 A2980 RMK SLP088 T02580238 57021 IEM_DS3505
ZGNN,2001-05-04 10:00,ZGNN 041000Z AUTO 12006KT 7SM 26/23 A2977 RMK T02600230 IEM_DS3505
ZGNN,2001-05-04 11:00,ZGNN 041100Z AUTO 12004KT 6SM 26/23 A2977 RMK T02600230 IEM_DS3505
ZGNN,2001-05-04 12:00,ZGNN 041200Z AUTO 09002KT 16SM 25/24 A2980 RMK 60008 SLP096 T02500238 52008 IEM_DS3505
ZGNN,2001-05-04 13:00,ZGNN 041300Z AUTO 6SM 24/23 A2983 RMK T02400230 IEM_DS3505
ZGNN,2001-05-04 14:00,ZGNN 041400Z AUTO 5SM 24/22 A2983 RMK T02400220 IEM_DS3505
ZGNN,2001-05-04 15:00,ZGNN 041500Z AUTO 29004KT 12SM 24/23 A2985 RMK SLP113 T02390227 52017 IEM_DS3505
ZGNN,2001-05-04 16:00,ZGNN 041600Z AUTO 00000KT 5SM 24/22 A2985 RMK T02400220 IEM_DS3505
ZGNN,2001-05-04 17:00,ZGNN 041700Z AUTO 04004KT 3SM 23/22 A2983 RMK T02300220 IEM_DS3505
ZGNN,2001-05-04 18:00,ZGNN 041800Z AUTO 00000KT 9SM 23/22 A2983 RMK SLP105 T02280221 57008 IEM_DS3505
ZGNN,2001-05-04 19:00,ZGNN 041900Z AUTO 00000KT 3SM 23/22 A2980 RMK T02300220 IEM_DS3505
ZGNN,2001-05-04 20:00,ZGNN 042000Z AUTO 02002KT 4SM 23/22 A2980 RMK T02300220 IEM_DS3505
ZGNN,2001-05-04 21:00,ZGNN 042100Z AUTO 00000KT 9SM 23/22 A2980 RMK 70021 SLP086 T02280224 57019 IEM_DS3505
ZGNN,2001-05-04 22:00,ZGNN 042200Z AUTO 11004KT 4SM 23/22 A2977 RMK T02300220 IEM_DS3505
ZGNN,2001-05-04 23:00,ZGNN 042300Z AUTO 6SM 23/22 A2980 RMK T02300220 IEM_DS3505
ZGNN,2001-05-05 00:00,ZGNN 050000Z AUTO 16002KT 7SM 24/23 A2983 RMK 70020 SLP099 T02440232 52013 IEM_DS3505
ZGNN,2001-05-05 01:00,ZGNN 050100Z AUTO 15006KT 7SM 26/23 A2983 RMK T02600230 IEM_DS3505
ZGNN,2001-05-05 02:00,ZGNN 050200Z AUTO 16010KT 7SM 27/22 A2983 RMK T02700220 IEM_DS3505
ZGNN,2001-05-05 03:00,ZGNN 050300Z AUTO 18004KT 16SM 27/24 A2983 RMK SLP101 T02720238 52003 IEM_DS3505
ZGNN,2001-05-05 04:00,ZGNN 050400Z AUTO 14008KT 7SM 27/23 A2983 RMK T02700230 IEM_DS3505
ZGNN,2001-05-05 05:00,ZGNN 050500Z AUTO 14006KT 7SM 29/23 A2980 RMK T02900230 IEM_DS3505
ZGNN,2001-05-05 06:00,ZGNN 050600Z AUTO 14004KT 19SM 29/25 A2977 RMK 60000 SLP077 T02890248 57024 IEM_DS3505
ZGNN,2001-05-05 07:00,ZGNN 050700Z AUTO 12008KT 7SM 29/24 A2971 RMK T02900240 IEM_DS3505
ZGNN,2001-05-05 08:00,ZGNN 050800Z AUTO 13010KT 7SM 29/24 A2971 RMK T02900240 IEM_DS3505
ZGNN,2001-05-05 09:00,ZGNN 050900Z AUTO 11004KT 19SM 28/25 A2968 RMK SLP057 T02800246 57020 IEM_DS3505
ZGNN,2001-05-05 10:00,ZGNN 051000Z AUTO 13008KT 7SM 29/24 A2968 RMK T02900240 IEM_DS3505
ZGNN,2001-05-05 11:00,ZGNN 051100Z AUTO 11006KT 7SM 27/24 A2971 RMK T02700240 IEM_DS3505
ZGNN,2001-05-05 12:00,ZGNN 051200Z AUTO 00000KT 19SM 27/24 A2971 RMK 60003 SLP063 T02680245 52006 IEM_DS3505
ZGNN,2001-05-05 13:00,ZGNN 051300Z AUTO 6SM 26/23 A2974 RMK T02600230 IEM_DS3505
ZGNN,2001-05-05 14:00,ZGNN 051400Z AUTO 6SM 25/23 A2977 RMK T02500230 IEM_DS3505
ZGNN,2001-05-05 15:00,ZGNN 051500Z AUTO 00000KT 17SM 25/24 A2977 RMK SLP083 T02540240 52020 IEM_DS3505
ZGNN,2001-05-05 16:00,ZGNN 051600Z AUTO 09002KT 4SM 24/23 A2977 RMK T02400230 IEM_DS3505
ZGNN,2001-05-05 17:00,ZGNN 051700Z AUTO 4SM 24/23 A2977 RMK T02400230 IEM_DS3505
ZGNN,2001-05-05 18:00,ZGNN 051800Z AUTO 00000KT 16SM 24/24 A2974 RMK SLP073 T02390235 57010 IEM_DS3505
ZGNN,2001-05-05 19:00,ZGNN 051900Z AUTO 35002KT 3SM 24/23 A2974 RMK T02400230 IEM_DS3505
ZGNN,2001-05-05 20:00,ZGNN 052000Z AUTO 04002KT 2SM 23/22 A2971 RMK T02300220 IEM_DS3505
ZGNN,2001-05-05 21:00,ZGNN 052100Z AUTO 00000KT 12SM 24/24 A2971 RMK 70000 SLP065 T02410237 57008 IEM_DS3505
ZGNN,2001-05-05 22:00,ZGNN 052200Z AUTO 6SM 24/23 A2974 RMK T02400230 IEM_DS3505
ZGNN,2001-05-05 23:00,ZGNN 052300Z AUTO 05002KT 7SM 24/23 A2974 RMK T02400230 IEM_DS3505
ZGNN,2001-05-06 00:00,ZGNN 060000Z AUTO 00000KT 12SM 25/24 A2977 RMK 70000 SLP079 T02530237 52014 IEM_DS3505
ZGNN,2001-05-06 01:00,ZGNN 060100Z AUTO 7SM 27/23 A2977 RMK T02700230 IEM_DS3505
ZGNN,2001-05-06 02:00,ZGNN 060200Z AUTO 7SM 28/23 A2977 RMK T02800230 IEM_DS3505
ZGNN,2001-05-06 03:00,ZGNN 060300Z AUTO 27002KT 19SM 30/24 A2977 RMK SLP080 T02970239 52002 IEM_DS3505
ZGNN,2001-05-06 04:00,ZGNN 060400Z AUTO 7SM 30/24 A2974 RMK T03000240 IEM_DS3505
ZGNN,2001-05-06 05:00,ZGNN 060500Z AUTO 7SM 32/24 A2971 RMK T03200240 IEM_DS3505
ZGNN,2001-05-06 06:00,ZGNN 060600Z AUTO 14006KT 19SM 32/26 A2968 RMK SLP054 T03250260 57026 IEM_DS3505
ZGNN,2001-05-06 07:00,ZGNN 060700Z AUTO 7SM 33/25 A2965 RMK T03300250 IEM_DS3505
ZGNN,2001-05-06 08:00,ZGNN 060800Z AUTO 11010KT 7SM 32/26 A2962 RMK T03200260 IEM_DS3505
ZGNN,2001-05-06 09:00,ZGNN 060900Z AUTO 14006KT 19SM 32/26 A2959 RMK SLP029 T03230261 57024 IEM_DS3505
ZGNN,2001-05-06 10:00,ZGNN 061000Z AUTO 13010KT 7SM 31/25 A2959 RMK T03100250 IEM_DS3505
ZGNN,2001-05-06 11:00,ZGNN 061100Z AUTO 13008KT 7SM 30/25 A2962 RMK T03000250 IEM_DS3505
ZGNN,2001-05-06 12:00,ZGNN 061200Z AUTO 18002KT 19SM 29/25 A2962 RMK SLP032 T02880252 52002 IEM_DS3505
ZGNN,2001-05-06 13:00,ZGNN 061300Z AUTO 7SM 27/24 A2965 RMK T02700240 IEM_DS3505
ZGNN,2001-05-06 14:00,ZGNN 061400Z AUTO 10002KT 6SM 26/24 A2968 RMK T02600240 IEM_DS3505
ZGNN,2001-05-06 15:00,ZGNN 061500Z AUTO 22004KT 16SM 27/25 A2968 RMK SLP053 T02660248 52021 IEM_DS3505
ZGNN,2001-05-06 16:00,ZGNN 061600Z AUTO 07002KT 6SM 25/24 A2968 RMK T02500240 IEM_DS3505
ZGNN,2001-05-06 17:00,ZGNN 061700Z AUTO 00000KT 3SM 25/24 A2968 RMK T02500240 IEM_DS3505
ZGNN,2001-05-06 18:00,ZGNN 061800Z AUTO 02002KT 16SM 25/24 A2968 RMK SLP045 T02520243 57007 IEM_DS3505
ZGNN,2001-05-06 19:00,ZGNN 061900Z AUTO 02004KT 3SM 25/24 A2965 RMK T02500240 IEM_DS3505
ZGNN,2001-05-06 20:00,ZGNN 062000Z AUTO 04006KT 2SM 24/23 A2965 RMK T02400230 IEM_DS3505
ZGNN,2001-05-06 21:00,ZGNN 062100Z AUTO 00000KT 7SM 25/24 A2965 RMK SLP044 T02480241 57001 IEM_DS3505
ZGNN,2001-05-06 22:00,ZGNN 062200Z AUTO 04004KT 2 1/2SM 24/23 A2965 RMK T02400230 IEM_DS3505
ZGNN,2001-05-06 23:00,ZGNN 062300Z AUTO 7SM 25/23 A2968 RMK T02500230 IEM_DS3505
ZGNN,2001-05-07 00:00,ZGNN 070000Z AUTO 00000KT 12SM 26/24 A2968 RMK SLP059 T02590243 52014 IEM_DS3505
ZGNN,2001-05-07 01:00,ZGNN 070100Z AUTO 7SM 27/23 A2971 RMK T02700230 IEM_DS3505
ZGNN,2001-05-07 02:00,ZGNN 070200Z AUTO 7SM 28/24 A2971 RMK T02800240 IEM_DS3505
ZGNN,2001-05-07 03:00,ZGNN 070300Z AUTO 11004KT 12SM 30/25 A2971 RMK SLP061 T02960250 52002 IEM_DS3505
ZGNN,2001-05-07 04:00,ZGNN 070400Z AUTO 6SM 32/24 A2971 RMK T03200240 IEM_DS3505
ZGNN,2001-05-07 05:00,ZGNN 070500Z AUTO 7SM 33/24 A2968 RMK T03300240 IEM_DS3505
ZGNN,2001-05-07 06:00,ZGNN 070600Z AUTO 22004KT 17SM 34/24 A2965 RMK SLP037 T03350244 57023 IEM_DS3505
ZGNN,2001-05-07 07:00,ZGNN 070700Z AUTO 7SM 35/23 A2962 RMK T03500230 IEM_DS3505
ZGNN,2001-05-07 08:00,ZGNN 070800Z AUTO 00000KT 7SM 36/22 A2959 RMK T03600220 IEM_DS3505
ZGNN,2001-05-07 09:00,ZGNN 070900Z AUTO 18006KT 19SM 35/25 A2956 RMK SLP006 T03520249 57030 IEM_DS3505
ZGNN,2001-05-07 10:00,ZGNN 071000Z AUTO 13004KT 7SM 33/26 A2956 RMK T03300260 IEM_DS3505
ZGNN,2001-05-07 11:00,ZGNN 071100Z AUTO 13006KT 7SM 32/26 A2956 RMK T03200260 IEM_DS3505
ZGNN,2001-05-07 12:00,ZGNN 071200Z AUTO 00000KT 19SM 31/27 A2959 RMK SLP020 T03120270 52013 IEM_DS3505
ZGNN,2001-05-07 13:00,ZGNN 071300Z AUTO 12002KT 7SM 29/26 A2962 RMK T02900260 IEM_DS3505
ZGNN,2001-05-07 14:00,ZGNN 071400Z AUTO 11002KT 6SM 28/25 A2962 RMK T02800250 IEM_DS3505
ZGNN,2001-05-07 15:00,ZGNN 071500Z AUTO 09004KT 19SM 28/26 A2965 RMK SLP040 T02850260 52020 IEM_DS3505
ZGNN,2001-05-07 16:00,ZGNN 071600Z AUTO 07004KT 15SM 27/25 A2965 RMK T02700250 IEM_DS3505
ZGNN,2001-05-07 17:00,ZGNN 071700Z AUTO 07006KT 25SM RMK IEM_DS3505
ZGNN,2001-05-07 18:00,ZGNN 071800Z AUTO 02004KT 12SM 27/24 RMK SLP045 T02700237 52006 IEM_DS3505
ZGNN,2001-05-07 19:00,ZGNN 071900Z AUTO 04006KT 26/23 A2965 RMK T02600230 IEM_DS3505
ZGNN,2001-05-07 20:00,ZGNN 072000Z AUTO 04006KT 25/22 A2965 RMK T02500220 IEM_DS3505
ZGNN,2001-05-07 21:00,ZGNN 072100Z AUTO 09004KT 11SM 25/22 A2968 RMK 70003 SLP051 T02480221 52005 IEM_DS3505
ZGNN,2001-05-07 22:00,ZGNN 072200Z AUTO 01004KT 10SM 24/22 A2968 RMK T02400220 IEM_DS3505
ZGNN,2001-05-07 23:00,ZGNN 072300Z AUTO 6SM RMK IEM_DS3505
ZGNN,2001-05-08 00:00,ZGNN 080000Z AUTO 36004KT 6SM 24/22 RMK 60051 SLP066 T02360224 52014 IEM_DS3505
ZGNN,2001-05-08 01:00,ZGNN 080100Z AUTO 05008KT RMK IEM_DS3505
ZGNN,2001-05-08 02:00,ZGNN 080200Z AUTO 04004KT 6SM 25/22 A2974 RMK T02500220 IEM_DS3505
ZGNN,2001-05-08 03:00,ZGNN 080300Z AUTO 02006KT 5SM 26/23 A2977 RMK SLP073 T02580226 52007 IEM_DS3505
ZGNN,2001-05-08 04:00,ZGNN 080400Z AUTO 04006KT 6SM 26/22 A2974 RMK T02600220 IEM_DS3505
ZGNN,2001-05-08 05:00,ZGNN 080500Z AUTO 34006KT 6SM RMK IEM_DS3505
ZGNN,2001-05-08 06:00,ZGNN 080600Z AUTO 04002KT 6SM 28/24 A2968 RMK SLP051 T02780235 57022 IEM_DS3505
ZGNN,2001-05-08 07:00,ZGNN 080700Z AUTO 27/22 A2965 RMK T02700220 IEM_DS3505
ZGNN,2001-05-08 08:00,ZGNN 080800Z AUTO 05002KT 6SM 27/22 A2962 RMK T02700220 IEM_DS3505
ZGNN,2001-05-08 09:00,ZGNN 080900Z AUTO 00000KT 6SM 27/23 A2962 RMK SLP030 T02720232 57021 IEM_DS3505
ZGNN,2001-05-08 10:00,ZGNN 081000Z AUTO 36004KT RMK IEM_DS3505
ZGNN,2001-05-08 11:00,ZGNN 081100Z AUTO 05010KT 6SM 25/22 A2962 RMK T02500220 IEM_DS3505
ZGNN,2001-05-08 12:00,ZGNN 081200Z AUTO 09006KT 7SM 25/21 A2965 RMK SLP041 T02500214 52010 IEM_DS3505
ZGNN,2001-05-08 13:00,ZGNN 081300Z AUTO 06006KT 6SM 24/21 A2968 RMK T02400210 IEM_DS3505
ZGNN,2001-05-08 14:00,ZGNN 081400Z AUTO 05004KT 6SM RMK IEM_DS3505
ZGNN,2001-05-08 15:00,ZGNN 081500Z AUTO 00000KT 4SM 24/22 A2971 RMK SLP063 T02380217 52022 IEM_DS3505
ZGNN,2001-05-08 16:00,ZGNN 081600Z AUTO 08004KT 23/21 A2968 RMK T02300210 IEM_DS3505
ZGNN,2001-05-08 17:00,ZGNN 081700Z AUTO 23/20 A2968 RMK T02300200 IEM_DS3505
ZGNN,2001-05-08 18:00,ZGNN 081800Z AUTO 00000KT 6SM 22/21 A2968 RMK 60004 SLP049 T02250211 57014 IEM_DS3505
ZGNN,2001-05-08 19:00,ZGNN 081900Z AUTO 04004KT 23/20 A2965 RMK T02300200 IEM_DS3505
ZGNN,2001-05-08 20:00,ZGNN 082000Z AUTO 04004KT 22/20 A2965 RMK T02200200 IEM_DS3505
ZGNN,2001-05-08 21:00,ZGNN 082100Z AUTO 32010KT 6SM 22/22 A2968 RMK 70056 SLP049 T02240215 54000 IEM_DS3505
ZGNN,2001-05-08 22:00,ZGNN 082200Z AUTO 34006KT RMK IEM_DS3505
ZGNN,2001-05-08 23:00,ZGNN 082300Z AUTO 22/20 A2968 RMK T02200200 IEM_DS3505
ZGNN,2001-05-09 00:00,ZGNN 090000Z AUTO 32006KT 15SM 22/21 A2974 RMK 60039 SLP067 T02160207 52017 IEM_DS3505
ZGNN,2001-05-09 01:00,ZGNN 090100Z AUTO 32006KT RMK IEM_DS3505
ZGNN,2001-05-09 02:00,ZGNN 090200Z AUTO 6SM 22/19 A2977 RMK T02200190 IEM_DS3505
ZGNN,2001-05-09 03:00,ZGNN 090300Z AUTO 32008KT 12SM 22/20 RMK SLP081 T02250204 52014 IEM_DS3505
ZGNN,2001-05-09 04:00,ZGNN 090400Z AUTO 34008KT 6SM 23/19 A2977 RMK T02300190 IEM_DS3505
ZGNN,2001-05-09 05:00,ZGNN 090500Z AUTO 33008KT 6SM RMK IEM_DS3505
ZGNN,2001-05-09 06:00,ZGNN 090600Z AUTO 34008KT 19SM 25/19 A2980 RMK 60008 SLP087 T02460194 52006 IEM_DS3505
ZGNN,2001-05-09 07:00,ZGNN 090700Z AUTO 33010KT 6SM 25/18 A2977 RMK T02500180 IEM_DS3505
ZGNN,2001-05-09 08:00,ZGNN 090800Z AUTO 34012KT 10SM 26/18 A2977 RMK T02600180 IEM_DS3505
ZGNN,2001-05-09 09:00,ZGNN 090900Z AUTO 34014KT 19SM 26/17 A2977 RMK SLP081 T02640171 57006 IEM_DS3505
ZGNN,2001-05-09 10:00,ZGNN 091000Z AUTO 34012KT 6SM 25/15 A2977 RMK T02500150 IEM_DS3505
ZGNN,2001-05-09 11:00,ZGNN 091100Z AUTO 34010KT 6SM 25/14 A2980 RMK T02500140 IEM_DS3505
ZGNN,2001-05-09 12:00,ZGNN 091200Z AUTO 34006KT 16SM 23/14 A2983 RMK SLP100 T02320135 52018 IEM_DS3505
ZGNN,2001-05-09 13:00,ZGNN 091300Z AUTO 35006KT 6SM 22/14 A2985 RMK T02200140 IEM_DS3505
ZGNN,2001-05-09 14:00,ZGNN 091400Z AUTO 35004KT 6SM 21/14 A2988 RMK T02100140 IEM_DS3505
ZGNN,2001-05-09 15:00,ZGNN 091500Z AUTO 36006KT 12SM 21/13 A2991 RMK SLP133 T02140131 52032 IEM_DS3505
ZGNN,2001-05-09 18:00,ZGNN 091800Z AUTO 34006KT 12SM 19/13 RMK SLP129 T01940131 57004 IEM_DS3505
ZGNN,2001-05-09 21:00,ZGNN 092100Z AUTO 34006KT 12SM 17/14 A2991 RMK 70045 SLP127 T01740141 57002 IEM_DS3505
ZGNN,2001-05-09 22:00,ZGNN 092200Z AUTO 35006KT 6SM RMK IEM_DS3505
ZGNN,2001-05-09 23:00,ZGNN 092300Z AUTO 34006KT 18/13 A2991 RMK T01800130 IEM_DS3505
ZGNN,2001-05-10 00:00,ZGNN 100000Z AUTO 34012KT 19SM 20/13 A2991 RMK 70007 SLP135 T01980128 52008 IEM_DS3505
ZGNN,2001-05-10 01:00,ZGNN 100100Z AUTO 34008KT 6SM 21/13 A2994 RMK T02100130 IEM_DS3505
ZGNN,2001-05-10 02:00,ZGNN 100200Z AUTO 35008KT 6SM 22/13 A2994 RMK T02200130 IEM_DS3505
ZGNN,2001-05-10 03:00,ZGNN 100300Z AUTO 02006KT 19SM 23/13 A2994 RMK SLP146 T02310134 52011 IEM_DS3505
ZGNN,2001-05-10 04:00,ZGNN 100400Z AUTO 34008KT RMK IEM_DS3505
ZGNN,2001-05-10 05:00,ZGNN 100500Z AUTO 36006KT 6SM RMK IEM_DS3505
ZGNN,2001-05-10 06:00,ZGNN 100600Z AUTO 02008KT 19SM 25/15 RMK SLP120 T02540149 57025 IEM_DS3505
ZGNN,2001-05-10 07:00,ZGNN 100700Z AUTO 35010KT 6SM RMK IEM_DS3505
ZGNN,2001-05-10 08:00,ZGNN 100800Z AUTO 33008KT 6SM RMK IEM_DS3505
ZGNN,2001-05-10 09:00,ZGNN 100900Z AUTO 29004KT 19SM 26/16 RMK SLP109 T02560155 57012 IEM_DS3505
ZGNN,2001-05-10 10:00,ZGNN 101000Z AUTO 36006KT 6SM 26/14 A2985 RMK T02600140 IEM_DS3505
ZGNN,2001-05-10 11:00,ZGNN 101100Z AUTO 33004KT 6SM RMK IEM_DS3505
ZGNN,2001-05-10 12:00,ZGNN 101200Z AUTO 00000KT 19SM 23/18 A2985 RMK SLP119 T02340182 52010 IEM_DS3505
ZGNN,2001-05-10 13:00,ZGNN 101300Z AUTO 07002KT 6SM 22/17 A2988 RMK T02200170 IEM_DS3505
ZGNN,2001-05-10 14:00,ZGNN 101400Z AUTO 6SM 23/17 A2991 RMK T02300170 IEM_DS3505
ZGNN,2001-05-10 15:00,ZGNN 101500Z AUTO 00000KT 17SM 22/19 A2994 RMK SLP137 T02180187 52019 IEM_DS3505
ZGNN,2001-05-10 16:00,ZGNN 101600Z AUTO 28002KT 22/18 A2994 RMK T02200180 IEM_DS3505
ZGNN,2001-05-10 17:00,ZGNN 101700Z AUTO 21/18 A2994 RMK T02100180 IEM_DS3505
ZGNN,2001-05-10 18:00,ZGNN 101800Z AUTO 00000KT 16SM 21/18 A2991 RMK SLP132 T02120184 57005 IEM_DS3505
ZGNN,2001-05-10 19:00,ZGNN 101900Z AUTO 21/19 A2988 RMK T02100190 IEM_DS3505
ZGNN,2001-05-10 20:00,ZGNN 102000Z AUTO 29004KT 21/18 A2988 RMK T02100180 IEM_DS3505
ZGNN,2001-05-10 21:00,ZGNN 102100Z AUTO 32002KT 12SM 21/18 A2988 RMK SLP123 T02070180 57009 IEM_DS3505
ZGNN,2001-05-10 22:00,ZGNN 102200Z AUTO 20/18 A2988 RMK T02000180 IEM_DS3505
ZGNN,2001-05-10 23:00,ZGNN 102300Z AUTO 6SM 21/18 A2991 RMK T02100180 IEM_DS3505
ZGNN,2001-05-11 00:00,ZGNN 110000Z AUTO 00000KT 12SM 22/18 A2991 RMK SLP136 T02220181 52013 IEM_DS3505
ZGNN,2001-05-11 01:00,ZGNN 110100Z AUTO 6SM 24/15 A2994 RMK T02400150 IEM_DS3505
ZGNN,2001-05-11 02:00,ZGNN 110200Z AUTO 36006KT 6SM 26/16 A2991 RMK T02600160 IEM_DS3505
ZGNN,2001-05-11 03:00,ZGNN 110300Z AUTO 02004KT 14SM 27/17 RMK SLP138 T02690173 52002 IEM_DS3505
ZGNN,2001-05-11 04:00,ZGNN 110400Z AUTO 4SM RMK IEM_DS3505
ZGNN,2001-05-11 06:00,ZGNN 110600Z AUTO 11004KT 16SM 29/17 RMK SLP115 T02870167 57022 IEM_DS3505
ZGNN,2001-05-11 08:00,ZGNN 110800Z AUTO 6SM 29/16 A2983 RMK T02900160 IEM_DS3505
ZGNN,2001-05-11 09:00,ZGNN 110900Z AUTO 32006KT 16SM 29/16 A2980 RMK SLP094 T02900157 57021 IEM_DS3505
ZGNN,2001-05-11 10:00,ZGNN 111000Z AUTO 33002KT 6SM 29/15 A2980 RMK T02900150 IEM_DS3505
ZGNN,2001-05-11 11:00,ZGNN 111100Z AUTO 33004KT 6SM 28/17 A2980 RMK T02800170 IEM_DS3505
ZGNN,2001-05-11 12:00,ZGNN 111200Z AUTO 00000KT 14SM 24/19 A2983 RMK SLP104 T02440188 52009 IEM_DS3505
ZGNN,2001-05-11 13:00,ZGNN 111300Z AUTO 6SM 24/19 A2985 RMK T02400190 IEM_DS3505
ZGNN,2001-05-11 14:00,ZGNN 111400Z AUTO 01002KT 23/19 A2985 RMK T02300190 IEM_DS3505
ZGNN,2001-05-11 15:00,ZGNN 111500Z AUTO 00000KT 12SM 22/18 A2988 RMK SLP122 T02160184 52019 IEM_DS3505
ZGNN,2001-05-11 16:00,ZGNN 111600Z AUTO 22/18 A2988 RMK T02200180 IEM_DS3505
ZGNN,2001-05-11 17:00,ZGNN 111700Z AUTO 20/18 A2988 RMK T02000180 IEM_DS3505
ZGNN,2001-05-11 18:00,ZGNN 111800Z AUTO 00000KT 11SM 20/18 A2985 RMK SLP112 T02030182 57010 IEM_DS3505
ZGNN,2001-05-11 19:00,ZGNN 111900Z AUTO 20/18 A2985 RMK T02000180 IEM_DS3505
ZGNN,2001-05-11 20:00,ZGNN 112000Z AUTO 20/18 A2985 RMK T02000180 IEM_DS3505
ZGNN,2001-05-11 21:00,ZGNN 112100Z AUTO 00000KT 9SM 20/19 A2985 RMK SLP108 T02030187 57004 IEM_DS3505
ZGNN,2001-05-11 22:00,ZGNN 112200Z AUTO 12SM 21/18 A2985 RMK T02100180 IEM_DS3505
ZGNN,2001-05-11 23:00,ZGNN 112300Z AUTO 6SM 21/19 A2985 RMK T02100190 IEM_DS3505
ZGNN,2001-05-12 00:00,ZGNN 120000Z AUTO 00000KT 9SM 23/19 A2985 RMK SLP117 T02270191 52008 IEM_DS3505
ZGNN,2001-05-12 01:00,ZGNN 120100Z AUTO 6SM 24/19 A2985 RMK T02400190 IEM_DS3505
ZGNN,2001-05-12 02:00,ZGNN 120200Z AUTO 6SM 27/17 A2985 RMK T02700170 IEM_DS3505
ZGNN,2001-05-12 03:00,ZGNN 120300Z AUTO 04004KT 16SM 28/18 A2985 RMK SLP108 T02840175 57008 IEM_DS3505
ZGNN,2001-05-12 04:00,ZGNN 120400Z AUTO 29/17 A2983 RMK T02900170 IEM_DS3505
ZGNN,2001-05-12 05:00,ZGNN 120500Z AUTO 31SM 30/16 A2983 RMK T03000160 IEM_DS3505
ZGNN,2001-05-12 06:00,ZGNN 120600Z AUTO 09004KT 17SM 30/16 RMK SLP092 T03040162 57015 IEM_DS3505
ZGNN,2001-05-12 08:00,ZGNN 120800Z AUTO 6SM 31/14 A2977 RMK T03100140 IEM_DS3505
ZGNN,2001-05-12 09:00,ZGNN 120900Z AUTO 04002KT 19SM 31/17 A2974 RMK SLP074 T03080167 57018 IEM_DS3505
ZGNN,2001-05-12 10:00,ZGNN 121000Z AUTO 6SM 30/14 A2974 RMK T03000140 IEM_DS3505
ZGNN,2001-05-12 11:00,ZGNN 121100Z AUTO 34002KT 6SM 29/17 A2974 RMK T02900170 IEM_DS3505
ZGNN,2001-05-12 12:00,ZGNN 121200Z AUTO 00000KT 16SM 26/20 A2977 RMK SLP086 T02620195 52011 IEM_DS3505
ZGNN,2001-05-12 13:00,ZGNN 121300Z AUTO 6SM 25/19 A2980 RMK T02500190 IEM_DS3505
ZGNN,2001-05-12 14:00,ZGNN 121400Z AUTO 6SM 24/20 A2980 RMK T02400200 IEM_DS3505
ZGNN,2001-05-12 15:00,ZGNN 121500Z AUTO 00000KT 12SM 23/20 A2983 RMK SLP102 T02290195 52017 IEM_DS3505
ZGNN,2001-05-12 16:00,ZGNN 121600Z AUTO 6SM 23/19 A2983 RMK T02300190 IEM_DS3505
ZGNN,2001-05-12 17:00,ZGNN 121700Z AUTO 21/19 A2980 RMK T02100190 IEM_DS3505
ZGNN,2001-05-12 18:00,ZGNN 121800Z AUTO 00000KT 12SM 21/18 A2980 RMK SLP091 T02100185 57011 IEM_DS3505
ZGNN,2001-05-12 19:00,ZGNN 121900Z AUTO 21/18 A2977 RMK T02100180 IEM_DS3505
ZGNN,2001-05-12 20:00,ZGNN 122000Z AUTO 21/18 A2977 RMK T02100180 IEM_DS3505
ZGNN,2001-05-12 21:00,ZGNN 122100Z AUTO 00000KT 9SM 20/18 A2977 RMK SLP079 T01990181 57012 IEM_DS3505
ZGNN,2001-05-12 22:00,ZGNN 122200Z AUTO 29002KT 6SM 20/18 A2977 RMK T02000180 IEM_DS3505
ZGNN,2001-05-12 23:00,ZGNN 122300Z AUTO 6SM 20/18 A2980 RMK T02000180 IEM_DS3505
ZGNN,2001-05-13 00:00,ZGNN 130000Z AUTO 00000KT 7SM 22/19 A2980 RMK SLP095 T02150192 52015 IEM_DS3505
ZGNN,2001-05-13 01:00,ZGNN 130100Z AUTO 25/19 A2983 RMK T02500190 IEM_DS3505
ZGNN,2001-05-13 02:00,ZGNN 130200Z AUTO 6SM 27/19 A2980 RMK T02700190 IEM_DS3505
ZGNN,2001-05-13 03:00,ZGNN 130300Z AUTO 27002KT 8SM 28/19 A2980 RMK SLP092 T02850194 57002 IEM_DS3505
ZGNN,2001-05-13 04:00,ZGNN 130400Z AUTO 6SM RMK IEM_DS3505
ZGNN,2001-05-13 05:00,ZGNN 130500Z AUTO 6SM 31/16 A2977 RMK T03100160 IEM_DS3505
ZGNN,2001-05-13 06:00,ZGNN 130600Z AUTO 22004KT 9SM 31/19 A2977 RMK SLP074 T03090186 57018 IEM_DS3505
ZGNN,2001-05-13 07:00,ZGNN 130700Z AUTO 6SM 32/15 A2974 RMK T03200150 IEM_DS3505
ZGNN,2001-05-13 08:00,ZGNN 130800Z AUTO 6SM 31/16 A2971 RMK T03100160 IEM_DS3505
ZGNN,2001-05-13 09:00,ZGNN 130900Z AUTO 00000KT 8SM 31/18 A2971 RMK SLP059 T03130181 57015 IEM_DS3505
ZGNN,2001-05-13 10:00,ZGNN 131000Z AUTO 06004KT 6SM 30/18 A2971 RMK T03000180 IEM_DS3505
ZGNN,2001-05-13 11:00,ZGNN 131100Z AUTO 08002KT 6SM 29/21 A2971 RMK T02900210 IEM_DS3505
ZGNN,2001-05-13 12:00,ZGNN 131200Z AUTO 00000KT 7SM 26/21 A2971 RMK SLP069 T02650210 52009 IEM_DS3505
ZGNN,2001-05-13 13:00,ZGNN 131300Z AUTO 1 1/2SM 25/22 A2974 RMK T02500220 IEM_DS3505
ZGNN,2001-05-13 14:00,ZGNN 131400Z AUTO 19SM 25/21 A2977 RMK T02500210 IEM_DS3505
ZGNN,2001-05-13 15:00,ZGNN 131500Z AUTO 00000KT 7SM 23/20 A2977 RMK SLP086 T02340200 52018 IEM_DS3505
ZGNN,2001-05-13 16:00,ZGNN 131600Z AUTO 24/20 A2977 RMK T02400200 IEM_DS3505
ZGNN,2001-05-13 17:00,ZGNN 131700Z AUTO 23/20 A2977 RMK T02300200 IEM_DS3505
ZGNN,2001-05-13 18:00,ZGNN 131800Z AUTO 00000KT 6SM 22/21 A2977 RMK SLP079 T02250207 57007 IEM_DS3505
ZGNN,2001-05-13 19:00,ZGNN 131900Z AUTO 23/20 A2974 RMK T02300200 IEM_DS3505
ZGNN,2001-05-13 20:00,ZGNN 132000Z AUTO 22/21 A2974 RMK T02200210 IEM_DS3505
ZGNN,2001-05-14 00:00,ZGNN 140000Z AUTO 00000KT 2 1/2SM 23/22 A2980 RMK SLP090 T02340216 52017 IEM_DS3505
ZGNN,2001-05-14 01:00,ZGNN 140100Z AUTO 6SM 25/21 A2980 RMK T02500210 IEM_DS3505
ZGNN,2001-05-14 02:00,ZGNN 140200Z AUTO 6SM 27/21 A2983 RMK T02700210 IEM_DS3505
ZGNN,2001-05-14 03:00,ZGNN 140300Z AUTO 18002KT 6SM 29/21 RMK SLP098 T02880213 52009 IEM_DS3505
ZGNN,2001-05-14 04:00,ZGNN 140400Z AUTO 6SM 31/20 A2980 RMK T03100200 IEM_DS3505
ZGNN,2001-05-14 05:00,ZGNN 140500Z AUTO 6SM 32/20 A2980 RMK T03200200 IEM_DS3505
ZGNN,2001-05-14 06:00,ZGNN 140600Z AUTO 11006KT 12SM 32/22 RMK SLP084 T03170215 57013 IEM_DS3505
ZGNN,2001-05-14 07:00,ZGNN 140700Z AUTO 11006KT 6SM RMK IEM_DS3505
ZGNN,2001-05-14 08:00,ZGNN 140800Z AUTO 6SM 31/19 A2974 RMK T03100190 IEM_DS3505
ZGNN,2001-05-14 09:00,ZGNN 140900Z AUTO 00000KT 12SM 32/21 RMK SLP069 T03170206 57015 IEM_DS3505
ZGNN,2001-05-14 10:00,ZGNN 141000Z AUTO 12004KT 6SM 30/21 A2974 RMK T03000210 IEM_DS3505
ZGNN,2001-05-14 11:00,ZGNN 141100Z AUTO 6SM RMK IEM_DS3505
ZGNN,2001-05-14 12:00,ZGNN 141200Z AUTO 00000KT 12SM 28/23 RMK 60003 SLP079 T02840229 52009 IEM_DS3505
ZGNN,2001-05-14 13:00,ZGNN 141300Z AUTO 7SM 28/20 A2980 RMK T02800200 IEM_DS3505
ZGNN,2001-05-14 14:00,ZGNN 141400Z AUTO 05002KT 26/22 A2983 RMK T02600220 IEM_DS3505
ZGNN,2001-05-14 15:00,ZGNN 141500Z AUTO 00000KT 12SM 27/23 A2985 RMK SLP102 T02660228 52024 IEM_DS3505
ZGNN,2001-05-14 16:00,ZGNN 141600Z AUTO 30002KT 26/22 A2985 RMK T02600220 IEM_DS3505
ZGNN,2001-05-14 18:00,ZGNN 141800Z AUTO 00000KT 12SM 24/22 RMK SLP099 T02440223 57003 IEM_DS3505
ZGNN,2001-05-14 21:00,ZGNN 142100Z AUTO 00000KT 9SM 23/21 A2983 RMK 70003 SLP100 T02320214 54000 IEM_DS3505
ZGNN,2001-05-14 22:00,ZGNN 142200Z AUTO 6SM 24/21 A2983 RMK T02400210 IEM_DS3505
ZGNN,2001-05-14 23:00,ZGNN 142300Z AUTO 03002KT 6SM 24/21 A2985 RMK T02400210 IEM_DS3505
ZGNN,2001-05-15 00:00,ZGNN 150000Z AUTO 6SM 25/21 A2985 RMK T02500210 IEM_DS3505
ZGNN,2001-05-15 01:00,ZGNN 150100Z AUTO 26/21 A2988 RMK T02600210 IEM_DS3505
ZGNN,2001-05-15 02:00,ZGNN 150200Z AUTO 6SM RMK IEM_DS3505
ZGNN,2001-05-15 03:00,ZGNN 150300Z AUTO 34006KT 6SM 27/23 RMK SLP129 T02700229 52013 IEM_DS3505
ZGNN,2001-05-15 05:00,ZGNN 150500Z AUTO 13006KT 6SM 26/20 A2988 RMK T02600200 IEM_DS3505
ZGNN,2001-05-15 06:00,ZGNN 150600Z AUTO 18004KT 7SM 26/20 A2988 RMK SLP118 T02610202 57012 IEM_DS3505
ZGNN,2001-05-15 07:00,ZGNN 150700Z AUTO 24/21 A2985 RMK T02400210 IEM_DS3505
ZGNN,2001-05-15 08:00,ZGNN 150800Z AUTO 6SM RMK IEM_DS3505
ZGNN,2001-05-15 09:00,ZGNN 150900Z AUTO 34010KT 5SM 26/22 A2985 RMK SLP114 T02580221 57004 IEM_DS3505
ZGNN,2001-05-15 10:00,ZGNN 151000Z AUTO 34010KT 9SM 24/21 A2985 RMK T02400210 IEM_DS3505
ZGNN,2001-05-15 11:00,ZGNN 151100Z AUTO 34012KT 6SM 23/20 A2988 RMK T02300200 IEM_DS3505
ZGNN,2001-05-15 12:00,ZGNN 151200Z AUTO 34010KT 4SM 23/21 A2991 RMK 60003 SLP128 T02280207 52013 IEM_DS3505
ZGNN,2001-05-15 13:00,ZGNN 151300Z AUTO 33006KT 6SM 22/19 A2991 RMK T02200190 IEM_DS3505
ZGNN,2001-05-15 14:00,ZGNN 151400Z AUTO 6SM 22/18 A2994 RMK T02200180 IEM_DS3505
ZGNN,2001-05-15 15:00,ZGNN 151500Z AUTO 32008KT 4SM 22/19 A2994 RMK SLP141 T02200189 52013 IEM_DS3505
ZGNN,2001-05-15 16:00,ZGNN 151600Z AUTO 22/18 A2994 RMK T02200180 IEM_DS3505
ZGNN,2001-05-15 17:00,ZGNN 151700Z AUTO 21/17 A2991 RMK T02100170 IEM_DS3505
ZGNN,2001-05-15 21:00,ZGNN 152100Z AUTO 32006KT 5SM 22/18 A2988 RMK 70003 SLP126 T02150180 57004 IEM_DS3505
ZGNN,2001-05-15 22:00,ZGNN 152200Z AUTO 32006KT 10SM 22/17 A2991 RMK T02200170 IEM_DS3505
ZGNN,2001-05-15 23:00,ZGNN 152300Z AUTO 6SM RMK IEM_DS3505
ZGNN,2001-05-16 00:00,ZGNN 160000Z AUTO 34006KT 6SM 22/18 RMK 70003 SLP145 T02200182 52018 IEM_DS3505
ZGNN,2001-05-16 01:00,ZGNN 160100Z AUTO 34004KT 47SM RMK IEM_DS3505
ZGNN,2001-05-16 02:00,ZGNN 160200Z AUTO 34006KT 6SM 23/18 A2997 RMK T02300180 IEM_DS3505
ZGNN,2001-05-16 03:00,ZGNN 160300Z AUTO 36006KT 9SM 24/18 A2994 RMK SLP144 T02400184 54000 IEM_DS3505
ZGNN,2001-05-16 04:00,ZGNN 160400Z AUTO 36006KT 24/18 A2994 RMK T02400180 IEM_DS3505
ZGNN,2001-05-16 05:00,ZGNN 160500Z AUTO 36008KT 6SM 25/18 A2991 RMK T02500180 IEM_DS3505
ZGNN,2001-05-16 06:00,ZGNN 160600Z AUTO 36004KT 7SM 25/19 A2988 RMK 60003 SLP124 T02520190 57020 IEM_DS3505
ZGNN,2001-05-16 07:00,ZGNN 160700Z AUTO 23/20 A2988 RMK T02300200 IEM_DS3505
ZGNN,2001-05-16 08:00,ZGNN 160800Z AUTO 33006KT 23/21 A2985 RMK T02300210 IEM_DS3505
ZGNN,2001-05-16 09:00,ZGNN 160900Z AUTO 34006KT 6SM 24/21 A2985 RMK SLP109 T02360209 57015 IEM_DS3505
ZGNN,2001-05-16 10:00,ZGNN 161000Z AUTO 6SM 23/20 A2983 RMK T02300200 IEM_DS3505
ZGNN,2001-05-16 11:00,ZGNN 161100Z AUTO 33004KT 6SM 23/20 A2985 RMK T02300200 IEM_DS3505
ZGNN,2001-05-16 12:00,ZGNN 161200Z AUTO 34006KT 5SM 23/21 A2985 RMK 60008 SLP113 T02290211 52004 IEM_DS3505
ZGNN,2001-05-16 13:00,ZGNN 161300Z AUTO 02006KT 6SM 23/20 A2985 RMK T02300200 IEM_DS3505
ZGNN,2001-05-16 14:00,ZGNN 161400Z AUTO 02006KT 19SM 23/20 A2985 RMK T02300200 IEM_DS3505
ZGNN,2001-05-16 15:00,ZGNN 161500Z AUTO 00000KT 4SM 23/21 A2988 RMK SLP122 T02260212 52009 IEM_DS3505
ZGNN,2001-05-16 16:00,ZGNN 161600Z AUTO 36002KT 22/21 A2988 RMK T02200210 IEM_DS3505
ZGNN,2001-05-16 17:00,ZGNN 161700Z AUTO 36004KT 22/21 A2983 RMK T02200210 IEM_DS3505
ZGNN,2001-05-16 18:00,ZGNN 161800Z AUTO 36004KT 4SM 22/21 A2983 RMK 60008 SLP100 T02200212 57021 IEM_DS3505
ZGNN,2001-05-16 19:00,ZGNN 161900Z AUTO 01004KT 22/21 A2980 RMK T02200210 IEM_DS3505
ZGNN,2001-05-16 20:00,ZGNN 162000Z AUTO 35002KT 22/20 A2980 RMK T02200200 IEM_DS3505
ZGNN,2001-05-16 21:00,ZGNN 162100Z AUTO 32002KT 4SM 22/21 A2980 RMK 70114 SLP090 T02200211 57011 IEM_DS3505
ZGNN,2001-05-16 22:00,ZGNN 162200Z AUTO 35004KT 6SM 21/20 A2980 RMK T02100200 IEM_DS3505
ZGNN,2001-05-16 23:00,ZGNN 162300Z AUTO 27006KT 6SM 21/20 A2983 RMK T02100200 IEM_DS3505
ZGNN,2001-05-17 00:00,ZGNN 170000Z AUTO 34006KT 4SM 21/21 RMK 60248 SLP098 T02140211 52008 IEM_DS3505
ZGNN,2001-05-17 02:00,ZGNN 170200Z AUTO 01004KT 6SM 22/21 A2983 RMK T02200210 IEM_DS3505
ZGNN,2001-05-17 03:00,ZGNN 170300Z AUTO 00000KT 2 1/2SM 22/22 A2983 RMK SLP102 T02240218 52004 IEM_DS3505
ZGNN,2001-05-17 04:00,ZGNN 170400Z AUTO 34004KT 23/21 A2980 RMK T02300210 IEM_DS3505
ZGNN,2001-05-17 05:00,ZGNN 170500Z AUTO 36004KT 8SM RMK IEM_DS3505
ZGNN,2001-05-17 06:00,ZGNN 170600Z AUTO 32004KT 2SM 23/22 RMK 60087 SLP081 T02260220 57021 IEM_DS3505
ZGNN,2001-05-17 07:00,ZGNN 170700Z AUTO 36006KT 16SM 22/21 A2974 RMK T02200210 IEM_DS3505
ZGNN,2001-05-17 08:00,ZGNN 170800Z AUTO 6SM 23/21 A2971 RMK T02300210 IEM_DS3505
ZGNN,2001-05-17 09:00,ZGNN 170900Z AUTO 32002KT 4SM 23/22 A2971 RMK SLP062 T02290223 57018 IEM_DS3505
ZGNN,2001-05-17 10:00,ZGNN 171000Z AUTO 15SM 23/22 A2971 RMK T02300220 IEM_DS3505
ZGNN,2001-05-17 11:00,ZGNN 171100Z AUTO 36004KT 6SM RMK IEM_DS3505
ZGNN,2001-05-17 12:00,ZGNN 171200Z AUTO 36004KT 5SM 23/22 A2974 RMK 60134 SLP072 T02290225 52009 IEM_DS3505
ZGNN,2001-05-17 13:00,ZGNN 171300Z AUTO 6SM RMK IEM_DS3505
ZGNN,2001-05-17 14:00,ZGNN 171400Z AUTO 02002KT 6SM 23/22 A2977 RMK T02300220 IEM_DS3505
ZGNN,2001-05-17 15:00,ZGNN 171500Z AUTO 34002KT 6SM 23/23 A2977 RMK SLP084 T02300226 52012 IEM_DS3505
ZGNN,2001-05-17 16:00,ZGNN 171600Z AUTO 34004KT 23/22 A2977 RMK T02300220 IEM_DS3505
ZGNN,2001-05-17 17:00,ZGNN 171700Z AUTO 36002KT 23/22 A2974 RMK T02300220 IEM_DS3505
ZGNN,2001-05-17 18:00,ZGNN 171800Z AUTO 34004KT 9SM 23/22 A2974 RMK 60002 SLP070 T02280222 57013 IEM_DS3505
ZGNN,2001-05-17 19:00,ZGNN 171900Z AUTO 23/21 A2971 RMK T02300210 IEM_DS3505
ZGNN,2001-05-17 20:00,ZGNN 172000Z AUTO 33004KT 23/21 A2971 RMK T02300210 IEM_DS3505
ZGNN,2001-05-17 21:00,ZGNN 172100Z AUTO 34006KT 7SM 23/22 A2971 RMK 70372 SLP060 T02260220 57010 IEM_DS3505
ZGNN,2001-05-17 22:00,ZGNN 172200Z AUTO 23/21 A2971 RMK T02300210 IEM_DS3505
ZGNN,2001-05-18 00:00,ZGNN 180000Z AUTO 34006KT 3SM 23/22 RMK 60001 SLP078 T02280222 52018 IEM_DS3505
ZGNN,2001-05-18 01:00,ZGNN 180100Z AUTO 6SM 24/21 A2977 RMK T02400210 IEM_DS3505
ZGNN,2001-05-18 02:00,ZGNN 180200Z AUTO 35006KT 6SM 25/22 A2980 RMK T02500220 IEM_DS3505
ZGNN,2001-05-18 03:00,ZGNN 180300Z AUTO 34006KT 12SM 25/23 A2977 RMK SLP085 T02490226 52007 IEM_DS3505
ZGNN,2001-05-18 04:00,ZGNN 180400Z AUTO 36010KT 25SM RMK IEM_DS3505
ZGNN,2001-05-18 05:00,ZGNN 180500Z AUTO 31012KT RMK IEM_DS3505
ZGNN,2001-05-18 06:00,ZGNN 180600Z AUTO 32014KT 12SM 26/21 RMK 60003 SLP070 T02610212 57015 IEM_DS3505
ZGNN,2001-05-18 07:00,ZGNN 180700Z AUTO 32010KT 6SM RMK IEM_DS3505
ZGNN,2001-05-18 08:00,ZGNN 180800Z AUTO 33010KT 6SM RMK IEM_DS3505
ZGNN,2001-05-18 09:00,ZGNN 180900Z AUTO 32008KT 19SM 28/21 RMK SLP057 T02760212 57012 IEM_DS3505
ZGNN,2001-05-18 10:00,ZGNN 181000Z AUTO 6SM 27/20 A2968 RMK T02700200 IEM_DS3505
ZGNN,2001-05-18 11:00,ZGNN 181100Z AUTO 31004KT RMK IEM_DS3505
ZGNN,2001-05-18 12:00,ZGNN 181200Z AUTO 00000KT 19SM 25/22 A2971 RMK SLP066 T02460219 52008 IEM_DS3505
ZGNN,2001-05-18 13:00,ZGNN 181300Z AUTO 24/21 A2974 RMK T02400210 IEM_DS3505
ZGNN,2001-05-18 14:00,ZGNN 181400Z AUTO 09002KT 24/21 A2977 RMK T02400210 IEM_DS3505
ZGNN,2001-05-18 15:00,ZGNN 181500Z AUTO 34006KT 16SM 25/19 RMK SLP083 T02500186 52018 IEM_DS3505
ZGNN,2001-05-18 18:00,ZGNN 181800Z AUTO 32010KT 12SM 24/17 RMK SLP068 T02420172 57015 IEM_DS3505
ZGNN,2001-05-18 21:00,ZGNN 182100Z AUTO 16004KT 12SM 22/18 A2971 RMK 70001 SLP063 T02190183 57005 IEM_DS3505
ZGNN,2001-05-18 22:00,ZGNN 182200Z AUTO 6SM RMK IEM_DS3505
ZGNN,2001-05-18 23:00,ZGNN 182300Z AUTO 6SM 22/19 A2974 RMK T02200190 IEM_DS3505
ZGNN,2001-05-19 00:00,ZGNN 190000Z AUTO 00000KT 19SM 23/19 A2977 RMK 70003 SLP082 T02320193 52018 IEM_DS3505
ZGNN,2001-05-19 01:00,ZGNN 190100Z AUTO 6SM 26/18 A2980 RMK T02600180 IEM_DS3505
ZGNN,2001-05-19 02:00,ZGNN 190200Z AUTO 6SM 27/18 A2980 RMK T02700180 IEM_DS3505
ZGNN,2001-05-19 03:00,ZGNN 190300Z AUTO 04002KT 19SM 28/19 A2980 RMK SLP086 T02830192 52005 IEM_DS3505
ZGNN,2001-05-19 04:00,ZGNN 190400Z AUTO 6SM 29/17 A2977 RMK T02900170 IEM_DS3505
ZGNN,2001-05-19 05:00,ZGNN 190500Z AUTO 6SM 29/20 A2974 RMK T02900200 IEM_DS3505
ZGNN,2001-05-19 06:00,ZGNN 190600Z AUTO 27004KT 19SM 30/20 A2971 RMK SLP059 T03000203 57026 IEM_DS3505
ZGNN,2001-05-19 08:00,ZGNN 190800Z AUTO 6SM 31/18 A2965 RMK T03100180 IEM_DS3505
ZGNN,2001-05-19 09:00,ZGNN 190900Z AUTO 02004KT 19SM 31/20 A2962 RMK SLP036 T03090202 57023 IEM_DS3505
ZGNN,2001-05-19 10:00,ZGNN 191000Z AUTO 6SM 31/19 A2962 RMK T03100190 IEM_DS3505
ZGNN,2001-05-19 11:00,ZGNN 191100Z AUTO 05004KT 6SM 29/21 A2965 RMK T02900210 IEM_DS3505
ZGNN,2001-05-19 12:00,ZGNN 191200Z AUTO 00000KT 19SM 27/23 A2965 RMK SLP043 T02680226 52006 IEM_DS3505
ZGNN,2001-05-19 13:00,ZGNN 191300Z AUTO 35002KT 6SM 26/22 A2968 RMK T02600220 IEM_DS3505
ZGNN,2001-05-19 14:00,ZGNN 191400Z AUTO 29002KT 26/22 A2968 RMK T02600220 IEM_DS3505
ZGNN,2001-05-19 15:00,ZGNN 191500Z AUTO 00000KT 16SM 24/22 A2971 RMK SLP063 T02430219 52020 IEM_DS3505
ZGNN,2001-05-19 16:00,ZGNN 191600Z AUTO 25/21 A2971 RMK T02500210 IEM_DS3505
ZGNN,2001-05-19 17:00,ZGNN 191700Z AUTO 24/22 A2968 RMK T02400220 IEM_DS3505
ZGNN,2001-05-19 18:00,ZGNN 191800Z AUTO 00000KT 12SM 24/22 A2968 RMK SLP049 T02410223 57013 IEM_DS3505
ZGNN,2001-05-19 19:00,ZGNN 191900Z AUTO 24/22 A2965 RMK T02400220 IEM_DS3505
ZGNN,2001-05-19 20:00,ZGNN 192000Z AUTO 24/22 A2965 RMK T02400220 IEM_DS3505
ZGNN,2001-05-19 21:00,ZGNN 192100Z AUTO 00000KT 12SM 24/23 A2965 RMK SLP042 T02360226 57007 IEM_DS3505
ZGNN,2001-05-19 22:00,ZGNN 192200Z AUTO 6SM 24/22 A2965 RMK T02400220 IEM_DS3505
ZGNN,2001-05-19 23:00,ZGNN 192300Z AUTO 6SM 24/22 A2968 RMK T02400220 IEM_DS3505
ZGNN,2001-05-20 00:00,ZGNN 200000Z AUTO 00000KT 2 1/2SM 24/23 A2968 RMK 60003 SLP056 T02450229 52013 IEM_DS3505
ZGNN,2001-05-20 01:00,ZGNN 200100Z AUTO 6SM 26/23 A2971 RMK T02600230 IEM_DS3505
ZGNN,2001-05-20 02:00,ZGNN 200200Z AUTO 27/22 A2971 RMK T02700220 IEM_DS3505
ZGNN,2001-05-20 03:00,ZGNN 200300Z AUTO 22004KT 11SM 28/23 A2968 RMK SLP052 T02800231 57003 IEM_DS3505
ZGNN,2001-05-20 04:00,ZGNN 200400Z AUTO 6SM 30/21 A2968 RMK T03000210 IEM_DS3505
ZGNN,2001-05-20 06:00,ZGNN 200600Z AUTO 20006KT 19SM 31/23 A2962 RMK 60003 SLP028 T03140229 57023 IEM_DS3505
ZGNN,2001-05-20 07:00,ZGNN 200700Z AUTO 6SM RMK IEM_DS3505
ZGNN,2001-05-20 08:00,ZGNN 200800Z AUTO 6SM RMK IEM_DS3505
ZGNN,2001-05-20 09:00,ZGNN 200900Z AUTO 16006KT 19SM 32/23 RMK SLP008 T03160233 57020 IEM_DS3505
ZGNN,2001-05-20 10:00,ZGNN 201000Z AUTO 6SM 31/23 A2956 RMK T03100230 IEM_DS3505
ZGNN,2001-05-20 11:00,ZGNN 201100Z AUTO 14006KT 30/24 A2956 RMK T03000240 IEM_DS3505
ZGNN,2001-05-20 12:00,ZGNN 201200Z AUTO 07002KT 19SM 29/25 RMK SLP024 T02910247 52015 IEM_DS3505
ZGNN,2001-05-20 13:00,ZGNN 201300Z AUTO 15004KT 6SM RMK IEM_DS3505
ZGNN,2001-05-20 14:00,ZGNN 201400Z AUTO 6SM 27/23 A2962 RMK T02700230 IEM_DS3505
ZGNN,2001-05-20 15:00,ZGNN 201500Z AUTO 00000KT 16SM 27/24 A2962 RMK SLP041 T02660243 52017 IEM_DS3505
ZGNN,2001-05-20 16:00,ZGNN 201600Z AUTO 13004KT 6SM 26/24 A2962 RMK T02600240 IEM_DS3505
ZGNN,2001-05-20 17:00,ZGNN 201700Z AUTO 19004KT 25/24 A2965 RMK T02500240 IEM_DS3505
ZGNN,2001-05-20 18:00,ZGNN 201800Z AUTO 00000KT 12SM 26/24 A2962 RMK SLP034 T02560245 57006 IEM_DS3505
ZGNN,2001-05-20 19:00,ZGNN 201900Z AUTO 12002KT 25/23 A2962 RMK T02500230 IEM_DS3505
ZGNN,2001-05-20 20:00,ZGNN 202000Z AUTO 25/23 A2959 RMK T02500230 IEM_DS3505
ZGNN,2001-05-20 21:00,ZGNN 202100Z AUTO 00000KT 11SM 25/24 A2959 RMK 70003 SLP020 T02500241 57014 IEM_DS3505
ZGNN,2001-05-20 22:00,ZGNN 202200Z AUTO 16SM 25/23 A2959 RMK T02500230 IEM_DS3505
ZGNN,2001-05-20 23:00,ZGNN 202300Z AUTO 6SM 25/23 A2962 RMK T02500230 IEM_DS3505
ZGNN,2001-05-21 00:00,ZGNN 210000Z AUTO 14004KT 7SM 26/24 A2962 RMK 70003 SLP035 T02550242 52014 IEM_DS3505
ZGNN,2001-05-21 01:00,ZGNN 210100Z AUTO 6SM RMK IEM_DS3505
ZGNN,2001-05-21 02:00,ZGNN 210200Z AUTO 6SM RMK IEM_DS3505
ZGNN,2001-05-21 03:00,ZGNN 210300Z AUTO 00000KT 9SM 26/24 RMK SLP039 T02630245 52004 IEM_DS3505
ZGNN,2001-05-21 05:00,ZGNN 210500Z AUTO 4SM RMK IEM_DS3505
ZGNN,2001-05-21 06:00,ZGNN 210600Z AUTO 11002KT 19SM 30/26 RMK 60001 SLP012 T03010255 57026 IEM_DS3505
ZGNN,2001-05-21 07:00,ZGNN 210700Z AUTO 6SM RMK IEM_DS3505
ZGNN,2001-05-21 08:00,ZGNN 210800Z AUTO 31/25 A2950 RMK T03100250 IEM_DS3505
ZGNN,2001-05-21 09:00,ZGNN 210900Z AUTO 04004KT 6SM 27/25 A2953 RMK SLP001 T02680251 57012 IEM_DS3505
ZGNN,2001-05-21 10:00,ZGNN 211000Z AUTO 11010KT 6SM 25/23 A2956 RMK T02500230 IEM_DS3505
ZGNN,2001-05-21 11:00,ZGNN 211100Z AUTO 19SM 25/23 A2959 RMK T02500230 IEM_DS3505
ZGNN,2001-05-21 12:00,ZGNN 211200Z AUTO 14006KT 6SM 25/24 A2959 RMK 60063 SLP026 T02480239 52024 IEM_DS3505
ZGNN,2001-05-21 13:00,ZGNN 211300Z AUTO 17004KT 9SM 24/23 A2962 RMK T02400230 IEM_DS3505
ZGNN,2001-05-21 14:00,ZGNN 211400Z AUTO 6SM 24/23 A2962 RMK T02400230 IEM_DS3505
ZGNN,2001-05-21 15:00,ZGNN 211500Z AUTO 00000KT 7SM 24/23 A2962 RMK SLP034 T02400233 52008 IEM_DS3505
ZGNN,2001-05-21 18:00,ZGNN 211800Z AUTO 32004KT 7SM 24/23 A2962 RMK 60016 SLP031 T02380232 57002 IEM_DS3505
ZGNN,2001-05-21 19:00,ZGNN 211900Z AUTO 02004KT 24/23 A2959 RMK T02400230 IEM_DS3505
ZGNN,2001-05-21 20:00,ZGNN 212000Z AUTO 01002KT 24/22 A2959 RMK T02400220 IEM_DS3505
ZGNN,2001-05-21 21:00,ZGNN 212100Z AUTO 00000KT 9SM 23/23 RMK 70078 SLP028 T02330229 57004 IEM_DS3505
ZGNN,2001-05-21 23:00,ZGNN 212300Z AUTO 24/23 A2965 RMK T02400230 IEM_DS3505
ZGNN,2001-05-22 00:00,ZGNN 220000Z AUTO 00000KT 2SM 24/24 A2965 RMK 70078 SLP044 T02440237 52016 IEM_DS3505
ZGNN,2001-05-22 01:00,ZGNN 220100Z AUTO 12SM 25/23 A2968 RMK T02500230 IEM_DS3505
ZGNN,2001-05-22 02:00,ZGNN 220200Z AUTO 6SM 26/23 A2968 RMK T02600230 IEM_DS3505
ZGNN,2001-05-22 03:00,ZGNN 220300Z AUTO 00000KT 6SM 27/24 A2968 RMK SLP052 T02680242 52008 IEM_DS3505
ZGNN,2001-05-22 04:00,ZGNN 220400Z AUTO 6SM 28/23 A2968 RMK T02800230 IEM_DS3505
ZGNN,2001-05-22 05:00,ZGNN 220500Z AUTO 6SM RMK IEM_DS3505
ZGNN,2001-05-22 06:00,ZGNN 220600Z AUTO 14002KT 7SM 30/25 RMK SLP032 T03010248 57019 IEM_DS3505
ZGNN,2001-05-22 07:00,ZGNN 220700Z AUTO 6SM RMK IEM_DS3505
ZGNN,2001-05-22 08:00,ZGNN 220800Z AUTO 6SM 31/23 A2959 RMK T03100230 IEM_DS3505
ZGNN,2001-05-22 09:00,ZGNN 220900Z AUTO 20004KT 9SM 31/24 A2956 RMK SLP017 T03130243 57014 IEM_DS3505
ZGNN,2001-05-22 10:00,ZGNN 221000Z AUTO 11004KT 30/24 A2956 RMK T03000240 IEM_DS3505
ZGNN,2001-05-22 11:00,ZGNN 221100Z AUTO 30/24 A2959 RMK T03000240 IEM_DS3505
ZGNN,2001-05-22 12:00,ZGNN 221200Z AUTO 04004KT 9SM 28/25 A2959 RMK SLP024 T02840253 52006 IEM_DS3505
ZGNN,2001-05-22 13:00,ZGNN 221300Z AUTO 6SM 28/25 A2962 RMK T02800250 IEM_DS3505
ZGNN,2001-05-22 14:00,ZGNN 221400Z AUTO 26002KT 27/25 A2965 RMK T02700250 IEM_DS3505
ZGNN,2001-05-22 15:00,ZGNN 221500Z AUTO 00000KT 9SM 26/25 A2965 RMK SLP042 T02600249 52018 IEM_DS3505
ZGNN,2001-05-22 16:00,ZGNN 221600Z AUTO 26/24 A2965 RMK T02600240 IEM_DS3505
ZGNN,2001-05-22 17:00,ZGNN 221700Z AUTO 26/24 A2965 RMK T02600240 IEM_DS3505
ZGNN,2001-05-22 18:00,ZGNN 221800Z AUTO 00000KT 7SM 25/24 A2965 RMK SLP041 T02500243 57001 IEM_DS3505
ZGNN,2001-05-22 19:00,ZGNN 221900Z AUTO 03002KT 25/23 A2962 RMK T02500230 IEM_DS3505
ZGNN,2001-05-22 20:00,ZGNN 222000Z AUTO 26/24 A2962 RMK T02600240 IEM_DS3505
ZGNN,2001-05-22 21:00,ZGNN 222100Z AUTO 00000KT 7SM 25/25 A2962 RMK SLP037 T02520248 57003 IEM_DS3505
ZGNN,2001-05-22 22:00,ZGNN 222200Z AUTO 08002KT 25/24 A2965 RMK T02500240 IEM_DS3505
ZGNN,2001-05-22 23:00,ZGNN 222300Z AUTO 6SM 25/24 A2965 RMK T02500240 IEM_DS3505
ZGNN,2001-05-23 00:00,ZGNN 230000Z AUTO 00000KT 7SM 26/25 RMK SLP052 T02580247 52014 IEM_DS3505
ZGNN,2001-05-23 03:00,ZGNN 230300Z AUTO 14004KT 11SM 30/24 RMK SLP047 T03030245 57004 IEM_DS3505
ZGNN,2001-05-23 04:00,ZGNN 230400Z AUTO 6SM RMK IEM_DS3505
ZGNN,2001-05-23 05:00,ZGNN 230500Z AUTO 6SM RMK IEM_DS3505
ZGNN,2001-05-23 06:00,ZGNN 230600Z AUTO 14006KT 14SM 33/25 RMK SLP021 T03260249 57026 IEM_DS3505
ZGNN,2001-05-23 07:00,ZGNN 230700Z AUTO 6SM RMK IEM_DS3505
ZGNN,2001-05-23 08:00,ZGNN 230800Z AUTO 6SM RMK IEM_DS3505
ZGNN,2001-05-23 09:00,ZGNN 230900Z AUTO 18004KT 14SM 33/25 RMK SLP002 T03300248 57018 IEM_DS3505
ZGNN,2001-05-23 10:00,ZGNN 231000Z AUTO 10006KT 6SM 32/24 A2953 RMK T03200240 IEM_DS3505
ZGNN,2001-05-23 12:00,ZGNN 231200Z AUTO 14002KT 14SM 30/26 A2956 RMK SLP010 T02960257 52007 IEM_DS3505
ZGNN,2001-05-23 13:00,ZGNN 231300Z AUTO 13004KT 16SM 28/25 A2959 RMK T02800250 IEM_DS3505
ZGNN,2001-05-23 14:00,ZGNN 231400Z AUTO 6SM 28/24 A2962 RMK T02800240 IEM_DS3505
ZGNN,2001-05-23 15:00,ZGNN 231500Z AUTO 09002KT 12SM 28/25 RMK SLP033 T02760251 52023 IEM_DS3505
ZGNN,2001-05-23 18:00,ZGNN 231800Z AUTO 00000KT 12SM 26/24 RMK SLP027 T02600240 57006 IEM_DS3505
ZGNN,2001-05-23 21:00,ZGNN 232100Z AUTO 09002KT 9SM 26/25 RMK SLP021 T02600247 57005 IEM_DS3505
ZGNN,2001-05-24 00:00,ZGNN 240000Z AUTO 11004KT 5SM 27/25 RMK SLP036 T02680254 52014 IEM_DS3505
ZGNN,2001-05-24 03:00,ZGNN 240300Z AUTO 18008KT 19SM 31/24 A2962 RMK SLP035 T03060244 57001 IEM_DS3505
ZGNN,2001-05-24 04:00,ZGNN 240400Z AUTO 12006KT 31/24 A2962 RMK T03100240 IEM_DS3505
ZGNN,2001-05-24 05:00,ZGNN 240500Z AUTO 32/25 A2959 RMK T03200250 IEM_DS3505
ZGNN,2001-05-24 06:00,ZGNN 240600Z AUTO 18004KT 19SM 32/24 A2956 RMK SLP011 T03200244 57024 IEM_DS3505
ZGNN,2001-05-24 07:00,ZGNN 240700Z AUTO 12008KT 19SM 32/24 A2953 RMK T03200240 IEM_DS3505
ZGNN,2001-05-24 08:00,ZGNN 240800Z AUTO 04012KT 6SM 30/24 A2953 RMK T03000240 IEM_DS3505
ZGNN,2001-05-24 09:00,ZGNN 240900Z AUTO 18002KT 15SM 31/27 A2950 RMK SLP993 T03100269 57018 IEM_DS3505
ZGNN,2001-05-24 10:00,ZGNN 241000Z AUTO 6SM 29/26 A2950 RMK T02900260 IEM_DS3505
ZGNN,2001-05-24 11:00,ZGNN 241100Z AUTO 23004KT 26/24 A2953 RMK T02600240 IEM_DS3505
ZGNN,2001-05-24 12:00,ZGNN 241200Z AUTO 00000KT 19SM 26/25 A2956 RMK 60039 SLP008 T02640248 52014 IEM_DS3505
ZGNN,2001-05-24 13:00,ZGNN 241300Z AUTO 15004KT 6SM 27/25 A2959 RMK T02700250 IEM_DS3505
ZGNN,2001-05-24 14:00,ZGNN 241400Z AUTO 13006KT 6SM 27/24 A2962 RMK T02700240 IEM_DS3505
ZGNN,2001-05-24 15:00,ZGNN 241500Z AUTO 11004KT 17SM 27/25 RMK SLP030 T02740252 52023 IEM_DS3505
ZGNN,2001-05-24 18:00,ZGNN 241800Z AUTO 11004KT 16SM 27/25 RMK SLP031 T02700253 52001 IEM_DS3505
ZGNN,2001-05-24 21:00,ZGNN 242100Z AUTO 32006KT 12SM 25/23 RMK 70039 SLP033 T02480229 52002 IEM_DS3505
ZGNN,2001-05-24 22:00,ZGNN 242200Z AUTO 35006KT 6SM 24/22 A2962 RMK T02400220 IEM_DS3505
ZGNN,2001-05-24 23:00,ZGNN 242300Z AUTO 01006KT 6SM RMK IEM_DS3505
ZGNN,2001-05-25 00:00,ZGNN 250000Z AUTO 00000KT 7SM 24/24 RMK 60024 SLP045 T02440238 52010 IEM_DS3505
ZGNN,2001-05-25 01:00,ZGNN 250100Z AUTO 6SM RMK IEM_DS3505
ZGNN,2001-05-25 02:00,ZGNN 250200Z AUTO 6SM RMK IEM_DS3505
ZGNN,2001-05-25 03:00,ZGNN 250300Z AUTO 09004KT 7SM 27/25 RMK SLP052 T02720249 52008 IEM_DS3505
ZGNN,2001-05-25 04:00,ZGNN 250400Z AUTO 03006KT 12SM RMK IEM_DS3505
ZGNN,2001-05-25 05:00,ZGNN 250500Z AUTO 29/24 A2965 RMK T02900240 IEM_DS3505
ZGNN,2001-05-25 06:00,ZGNN 250600Z AUTO 32004KT 6SM 24/23 A2965 RMK 60102 SLP041 T02400231 57012 IEM_DS3505
ZGNN,2001-05-25 07:00,ZGNN 250700Z AUTO 01006KT 6SM RMK IEM_DS3505
ZGNN,2001-05-25 08:00,ZGNN 250800Z AUTO 03004KT 6SM RMK IEM_DS3505
ZGNN,2001-05-25 09:00,ZGNN 250900Z AUTO 00000KT 9SM 26/25 A2962 RMK SLP037 T02600246 57004 IEM_DS3505
ZGNN,2001-05-25 10:00,ZGNN 251000Z AUTO 05006KT 6SM 26/24 A2965 RMK T02600240 IEM_DS3505
ZGNN,2001-05-25 11:00,ZGNN 251100Z AUTO 09006KT 7SM 24/23 A2965 RMK T02400230 IEM_DS3505
ZGNN,2001-05-25 12:00,ZGNN 251200Z AUTO 09002KT 6SM 24/24 A2968 RMK 60016 SLP053 T02450238 52016 IEM_DS3505
ZGNN,2001-05-25 13:00,ZGNN 251300Z AUTO 6SM 24/23 A2968 RMK T02400230 IEM_DS3505
ZGNN,2001-05-25 14:00,ZGNN 251400Z AUTO 04004KT 24/23 A2971 RMK T02400230 IEM_DS3505
ZGNN,2001-05-25 15:00,ZGNN 251500Z AUTO 00000KT 9SM 24/24 A2974 RMK SLP072 T02420236 52019 IEM_DS3505
ZGNN,2001-05-25 16:00,ZGNN 251600Z AUTO 04002KT 24/23 A2974 RMK T02400230 IEM_DS3505
ZGNN,2001-05-25 17:00,ZGNN 251700Z AUTO 08012KT 24/23 A2974 RMK T02400230 IEM_DS3505
ZGNN,2001-05-25 18:00,ZGNN 251800Z AUTO 00000KT 4SM 24/24 A2974 RMK 60276 SLP068 T02450239 57005 IEM_DS3505
ZGNN,2001-05-25 19:00,ZGNN 251900Z AUTO 24/23 A2971 RMK T02400230 IEM_DS3505
ZGNN,2001-05-25 20:00,ZGNN 252000Z AUTO 11004KT 24/23 A2968 RMK T02400230 IEM_DS3505
ZGNN,2001-05-25 21:00,ZGNN 252100Z AUTO 00000KT 3SM 25/24 A2971 RMK 70450 SLP059 T02460243 57008 IEM_DS3505
ZGNN,2001-05-25 22:00,ZGNN 252200Z AUTO 05004KT 7SM 24/23 A2971 RMK T02400230 IEM_DS3505
ZGNN,2001-05-25 23:00,ZGNN 252300Z AUTO 03002KT 6SM 25/23 A2974 RMK T02500230 IEM_DS3505
ZGNN,2001-05-26 00:00,ZGNN 260000Z AUTO 00000KT 6SM 24/24 A2974 RMK 60035 SLP073 T02440235 52013 IEM_DS3505
ZGNN,2001-05-26 01:00,ZGNN 260100Z AUTO 08006KT 25/23 A2977 RMK T02500230 IEM_DS3505
ZGNN,2001-05-26 02:00,ZGNN 260200Z AUTO 10004KT 6SM 26/24 A2977 RMK T02600240 IEM_DS3505
ZGNN,2001-05-26 03:00,ZGNN 260300Z AUTO 14002KT 2 1/2SM 27/25 A2977 RMK SLP080 T02660253 52008 IEM_DS3505
ZGNN,2001-05-26 04:00,ZGNN 260400Z AUTO 26006KT 24/23 A2974 RMK T02400230 IEM_DS3505
ZGNN,2001-05-26 05:00,ZGNN 260500Z AUTO 21004KT 27/24 A2974 RMK T02700240 IEM_DS3505
ZGNN,2001-05-26 06:00,ZGNN 260600Z AUTO 00000KT 3SM 24/24 A2974 RMK 60130 SLP072 T02420239 57009 IEM_DS3505
ZGNN,2001-05-26 07:00,ZGNN 260700Z AUTO 03008KT 25/23 A2971 RMK T02500230 IEM_DS3505
ZGNN,2001-05-26 08:00,ZGNN 260800Z AUTO 35006KT 24/23 A2971 RMK T02400230 IEM_DS3505
ZGNN,2001-05-26 09:00,ZGNN 260900Z AUTO 00000KT 8SM 24/24 A2971 RMK SLP061 T02440240 57010 IEM_DS3505
ZGNN,2001-05-26 10:00,ZGNN 261000Z AUTO 24/22 A2974 RMK T02400220 IEM_DS3505
ZGNN,2001-05-26 11:00,ZGNN 261100Z AUTO 35004KT 6SM 24/22 A2974 RMK T02400220 IEM_DS3505
ZGNN,2001-05-26 12:00,ZGNN 261200Z AUTO 00000KT 2 1/2SM 24/24 A2977 RMK 60020 SLP079 T02420236 52017 IEM_DS3505
ZGNN,2001-05-26 13:00,ZGNN 261300Z AUTO 36004KT 6SM 24/23 A2977 RMK T02400230 IEM_DS3505
ZGNN,2001-05-26 14:00,ZGNN 261400Z AUTO 02002KT 24/22 A2977 RMK T02400220 IEM_DS3505
ZGNN,2001-05-26 15:00,ZGNN 261500Z AUTO 09002KT 2SM 24/24 A2983 RMK SLP098 T02420236 52020 IEM_DS3505
ZGNN,2001-05-26 16:00,ZGNN 261600Z AUTO 04002KT 24/23 A2983 RMK T02400230 IEM_DS3505
ZGNN,2001-05-26 17:00,ZGNN 261700Z AUTO 06002KT 24/23 A2983 RMK T02400230 IEM_DS3505
ZGNN,2001-05-26 18:00,ZGNN 261800Z AUTO 00000KT 2SM 24/23 A2980 RMK 60001 SLP094 T02380234 57005 IEM_DS3505
ZGNN,2001-05-26 19:00,ZGNN 261900Z AUTO 24/23 A2980 RMK T02400230 IEM_DS3505
ZGNN,2001-05-26 20:00,ZGNN 262000Z AUTO 32004KT 24/22 A2977 RMK T02400220 IEM_DS3505
ZGNN,2001-05-26 21:00,ZGNN 262100Z AUTO 34008KT 7SM 24/23 RMK 70152 SLP085 T02370231 57009 IEM_DS3505
ZGNN,2001-05-26 22:00,ZGNN 262200Z AUTO 6SM RMK IEM_DS3505
ZGNN,2001-05-26 23:00,ZGNN 262300Z AUTO 34006KT 23/21 A2980 RMK T02300210 IEM_DS3505
ZGNN,2001-05-27 00:00,ZGNN 270000Z AUTO 32006KT 4SM 23/22 A2980 RMK 60008 SLP096 T02310222 52011 IEM_DS3505
ZGNN,2001-05-27 01:00,ZGNN 270100Z AUTO 34010KT RMK IEM_DS3505
ZGNN,2001-05-27 02:00,ZGNN 270200Z AUTO 35010KT 23/21 A2983 RMK T02300210 IEM_DS3505
ZGNN,2001-05-27 03:00,ZGNN 270300Z AUTO 34008KT 4SM 23/23 A2983 RMK SLP104 T02330226 52008 IEM_DS3505
ZGNN,2001-05-27 04:00,ZGNN 270400Z AUTO 35008KT 23/22 A2983 RMK T02300220 IEM_DS3505
ZGNN,2001-05-27 05:00,ZGNN 270500Z AUTO 34008KT 23/22 A2980 RMK T02300220 IEM_DS3505
ZGNN,2001-05-27 06:00,ZGNN 270600Z AUTO 32012KT 6SM 24/22 A2980 RMK 60020 SLP090 T02350217 57014 IEM_DS3505
ZGNN,2001-05-27 07:00,ZGNN 270700Z AUTO 34010KT 23/21 A2977 RMK T02300210 IEM_DS3505
ZGNN,2001-05-27 08:00,ZGNN 270800Z AUTO 34010KT 23/21 A2977 RMK T02300210 IEM_DS3505
ZGNN,2001-05-27 09:00,ZGNN 270900Z AUTO 34008KT 5SM 23/22 A2977 RMK SLP081 T02280216 57009 IEM_DS3505
ZGNN,2001-05-27 10:00,ZGNN 271000Z AUTO 34010KT 23/20 A2977 RMK T02300200 IEM_DS3505
ZGNN,2001-05-27 11:00,ZGNN 271100Z AUTO 33010KT 6SM RMK IEM_DS3505
ZGNN,2001-05-27 12:00,ZGNN 271200Z AUTO 34010KT 7SM 22/21 RMK 60003 SLP088 T02250207 52006 IEM_DS3505
ZGNN,2001-05-27 13:00,ZGNN 271300Z AUTO 33006KT 23/20 A2980 RMK T02300200 IEM_DS3505
ZGNN,2001-05-27 15:00,ZGNN 271500Z AUTO 32006KT 6SM 22/20 RMK SLP106 T02230203 52018 IEM_DS3505
ZGNN,2001-05-27 16:00,ZGNN 271600Z AUTO 22/20 A2985 RMK T02200200 IEM_DS3505
ZGNN,2001-05-27 17:00,ZGNN 271700Z AUTO 31006KT 21/20 A2983 RMK T02100200 IEM_DS3505
ZGNN,2001-05-27 18:00,ZGNN 271800Z AUTO 32008KT 7SM 22/20 A2980 RMK 60002 SLP097 T02180200 57009 IEM_DS3505
ZGNN,2001-05-27 19:00,ZGNN 271900Z AUTO 33006KT 22/19 A2980 RMK T02200190 IEM_DS3505
ZGNN,2001-05-27 20:00,ZGNN 272000Z AUTO 21/19 A2980 RMK T02100190 IEM_DS3505
ZGNN,2001-05-27 21:00,ZGNN 272100Z AUTO 34006KT 7SM 21/20 A2980 RMK 70030 SLP091 T02110199 57006 IEM_DS3505
ZGNN,2001-05-27 22:00,ZGNN 272200Z AUTO 6SM 21/19 A2980 RMK T02100190 IEM_DS3505
ZGNN,2001-05-27 23:00,ZGNN 272300Z AUTO 6SM 21/19 A2980 RMK T02100190 IEM_DS3505
ZGNN,2001-05-28 00:00,ZGNN 280000Z AUTO 34006KT 4SM 21/20 A2983 RMK 60000 SLP100 T02100198 52009 IEM_DS3505
ZGNN,2001-05-28 01:00,ZGNN 280100Z AUTO 31006KT 6SM 21/19 A2983 RMK T02100190 IEM_DS3505
ZGNN,2001-05-28 02:00,ZGNN 280200Z AUTO 32006KT 22SM 21/19 A2983 RMK T02100190 IEM_DS3505
ZGNN,2001-05-28 03:00,ZGNN 280300Z AUTO 32006KT 2SM 21/20 A2980 RMK SLP095 T02140200 57005 IEM_DS3505
ZGNN,2001-05-28 04:00,ZGNN 280400Z AUTO 34004KT 6SM 22/20 A2980 RMK T02200200 IEM_DS3505
ZGNN,2001-05-28 05:00,ZGNN 280500Z AUTO 33006KT 23/19 A2977 RMK T02300190 IEM_DS3505
ZGNN,2001-05-28 06:00,ZGNN 280600Z AUTO 34006KT 9SM 23/20 A2977 RMK 60000 SLP079 T02300203 57016 IEM_DS3505
ZGNN,2001-05-28 07:00,ZGNN 280700Z AUTO 34006KT 5SM RMK IEM_DS3505
ZGNN,2001-05-28 08:00,ZGNN 280800Z AUTO 34006KT 6SM 24/19 A2971 RMK T02400190 IEM_DS3505
ZGNN,2001-05-28 09:00,ZGNN 280900Z AUTO 34008KT 7SM 23/20 A2971 RMK SLP059 T02340200 57019 IEM_DS3505
ZGNN,2001-05-28 10:00,ZGNN 281000Z AUTO 32004KT 6SM 23/20 A2971 RMK T02300200 IEM_DS3505
ZGNN,2001-05-28 11:00,ZGNN 281100Z AUTO 31004KT 6SM 23/20 A2974 RMK T02300200 IEM_DS3505
ZGNN,2001-05-28 12:00,ZGNN 281200Z AUTO 29002KT 12SM 22/21 RMK SLP078 T02250208 52018 IEM_DS3505
ZGNN,2001-05-28 13:00,ZGNN 281300Z AUTO 4SM RMK IEM_DS3505
ZGNN,2001-05-28 15:00,ZGNN 281500Z AUTO 00000KT 12SM 22/21 A2977 RMK SLP083 T02210207 52005 IEM_DS3505
ZGNN,2001-05-28 16:00,ZGNN 281600Z AUTO 26002KT 21/20 A2974 RMK T02100200 IEM_DS3505
ZGNN,2001-05-28 17:00,ZGNN 281700Z AUTO 21/20 A2974 RMK T02100200 IEM_DS3505
ZGNN,2001-05-28 18:00,ZGNN 281800Z AUTO 00000KT 9SM 21/20 A2971 RMK SLP067 T02080202 57016 IEM_DS3505
ZGNN,2001-05-28 19:00,ZGNN 281900Z AUTO 21/20 A2971 RMK T02100200 IEM_DS3505
ZGNN,2001-05-28 20:00,ZGNN 282000Z AUTO 21/20 A2971 RMK T02100200 IEM_DS3505
ZGNN,2001-05-28 21:00,ZGNN 282100Z AUTO 00000KT 9SM 21/21 RMK 70001 SLP064 T02130208 57002 IEM_DS3505
ZGNN,2001-05-28 23:00,ZGNN 282300Z AUTO 6SM RMK IEM_DS3505
ZGNN,2001-05-29 00:00,ZGNN 290000Z AUTO 22002KT 7SM 22/21 RMK 70000 SLP073 T02240212 52008 IEM_DS3505
ZGNN,2001-05-29 02:00,ZGNN 290200Z AUTO 25/20 A2974 RMK T02500200 IEM_DS3505
ZGNN,2001-05-29 03:00,ZGNN 290300Z AUTO 22004KT 9SM 26/22 A2974 RMK SLP067 T02600216 57005 IEM_DS3505
ZGNN,2001-05-29 05:00,ZGNN 290500Z AUTO 6SM RMK IEM_DS3505
ZGNN,2001-05-29 06:00,ZGNN 290600Z AUTO 00000KT 7SM 28/22 RMK SLP048 T02820224 57018 IEM_DS3505
ZGNN,2001-05-29 07:00,ZGNN 290700Z AUTO 12SM 29/22 A2965 RMK T02900220 IEM_DS3505
ZGNN,2001-05-29 08:00,ZGNN 290800Z AUTO 6SM 29/22 A2962 RMK T02900220 IEM_DS3505
ZGNN,2001-05-29 09:00,ZGNN 290900Z AUTO 36006KT 9SM 29/22 A2962 RMK SLP035 T02920222 57013 IEM_DS3505
ZGNN,2001-05-29 10:00,ZGNN 291000Z AUTO 34006KT 6SM 29/22 A2962 RMK T02900220 IEM_DS3505
ZGNN,2001-05-29 11:00,ZGNN 291100Z AUTO 35004KT 6SM 28/22 A2965 RMK T02800220 IEM_DS3505
ZGNN,2001-05-29 12:00,ZGNN 291200Z AUTO 00000KT 6SM 26/23 A2968 RMK SLP052 T02620230 52017 IEM_DS3505
ZGNN,2001-05-29 13:00,ZGNN 291300Z AUTO 05004KT 6SM RMK IEM_DS3505
ZGNN,2001-05-29 14:00,ZGNN 291400Z AUTO 06004KT 6SM RMK IEM_DS3505
ZGNN,2001-05-29 15:00,ZGNN 291500Z AUTO 09002KT 6SM 24/22 A2974 RMK SLP069 T02440220 52017 IEM_DS3505
ZGNN,2001-05-29 16:00,ZGNN 291600Z AUTO 05004KT 24/21 A2974 RMK T02400210 IEM_DS3505
ZGNN,2001-05-29 17:00,ZGNN 291700Z AUTO 04004KT 23/21 A2971 RMK T02300210 IEM_DS3505
ZGNN,2001-05-29 18:00,ZGNN 291800Z AUTO 00000KT 6SM 24/22 A2971 RMK 60003 SLP058 T02370221 57011 IEM_DS3505
ZGNN,2001-05-29 19:00,ZGNN 291900Z AUTO 23/21 A2968 RMK T02300210 IEM_DS3505
ZGNN,2001-05-29 20:00,ZGNN 292000Z AUTO 31002KT 23/21 A2971 RMK T02300210 IEM_DS3505
ZGNN,2001-05-29 21:00,ZGNN 292100Z AUTO 36002KT 6SM 23/22 A2971 RMK 70003 SLP058 T02340218 52001 IEM_DS3505
ZGNN,2001-05-29 22:00,ZGNN 292200Z AUTO 24/20 A2971 RMK T02400200 IEM_DS3505
ZGNN,2001-05-29 23:00,ZGNN 292300Z AUTO 24/20 A2974 RMK T02400200 IEM_DS3505
ZGNN,2001-05-30 00:00,ZGNN 300000Z AUTO 34006KT 7SM 24/21 A2977 RMK 60003 SLP081 T02380213 52022 IEM_DS3505
ZGNN,2001-05-30 01:00,ZGNN 300100Z AUTO 24/21 A2980 RMK T02400210 IEM_DS3505
ZGNN,2001-05-30 02:00,ZGNN 300200Z AUTO 6SM 24/21 A2980 RMK T02400210 IEM_DS3505
ZGNN,2001-05-30 03:00,ZGNN 300300Z AUTO 32006KT 12SM 25/21 RMK SLP092 T02460210 52010 IEM_DS3505
ZGNN,2001-05-30 04:00,ZGNN 300400Z AUTO 35006KT 6SM RMK 60003 SLP074 57017 IEM_DS3505
ZGNN,2001-05-30 05:00,ZGNN 300500Z AUTO 6SM RMK IEM_DS3505
ZGNN,2001-05-30 06:00,ZGNN 300600Z AUTO 32006KT 16SM 26/21 RMK 60003 SLP074 T02640207 57017 IEM_DS3505
ZGNN,2001-05-30 07:00,ZGNN 300700Z AUTO 6SM 27/20 A2974 RMK T02700200 IEM_DS3505
ZGNN,2001-05-30 08:00,ZGNN 300800Z AUTO 29/20 A2971 RMK T02900200 IEM_DS3505
ZGNN,2001-05-30 09:00,ZGNN 300900Z AUTO 07004KT 12SM 29/21 RMK SLP054 T02900212 57019 IEM_DS3505
ZGNN,2001-05-30 10:00,ZGNN 301000Z AUTO 6SM RMK IEM_DS3505
ZGNN,2001-05-30 11:00,ZGNN 301100Z AUTO 11004KT 6SM 27/21 A2971 RMK T02700210 IEM_DS3505
ZGNN,2001-05-30 12:00,ZGNN 301200Z AUTO 04002KT 12SM 27/22 A2974 RMK SLP073 T02660220 52018 IEM_DS3505
ZGNN,2001-05-30 13:00,ZGNN 301300Z AUTO 6SM 25/22 A2977 RMK T02500220 IEM_DS3505
ZGNN,2001-05-30 14:00,ZGNN 301400Z AUTO 25/22 A2977 RMK T02500220 IEM_DS3505
ZGNN,2001-05-30 15:00,ZGNN 301500Z AUTO 00000KT 12SM 25/22 A2980 RMK SLP089 T02460225 52015 IEM_DS3505
ZGNN,2001-05-30 16:00,ZGNN 301600Z AUTO 24/22 A2980 RMK T02400220 IEM_DS3505
ZGNN,2001-05-30 18:00,ZGNN 301800Z AUTO 00000KT 9SM 23/22 A2977 RMK SLP077 T02340222 57011 IEM_DS3505
ZGNN,2001-05-30 19:00,ZGNN 301900Z AUTO 23/22 A2977 RMK T02300220 IEM_DS3505
ZGNN,2001-05-30 20:00,ZGNN 302000Z AUTO 26002KT 23/22 A2977 RMK T02300220 IEM_DS3505
ZGNN,2001-05-30 21:00,ZGNN 302100Z AUTO 00000KT 7SM 22/22 A2977 RMK 70003 SLP082 T02250219 52005 IEM_DS3505
ZGNN,2001-05-30 22:00,ZGNN 302200Z AUTO 6SM 23/21 A2977 RMK T02300210 IEM_DS3505
ZGNN,2001-05-30 23:00,ZGNN 302300Z AUTO 6SM 23/22 A2977 RMK T02300220 IEM_DS3505
ZGNN,2001-05-31 00:00,ZGNN 310000Z AUTO 00000KT 5SM 24/23 A2980 RMK 70003 SLP094 T02390230 52012 IEM_DS3505
ZGNN,2001-05-31 01:00,ZGNN 310100Z AUTO 6SM 24/22 A2983 RMK T02400220 IEM_DS3505
ZGNN,2001-05-31 02:00,ZGNN 310200Z AUTO 26/21 A2983 RMK T02600210 IEM_DS3505
ZGNN,2001-05-31 03:00,ZGNN 310300Z AUTO 02004KT 7SM 27/18 A2983 RMK SLP100 T02710184 52006 IEM_DS3505
ZGNN,2001-05-31 04:00,ZGNN 310400Z AUTO 03006KT 6SM 28/19 A2983 RMK T02800190 IEM_DS3505
ZGNN,2001-05-31 05:00,ZGNN 310500Z AUTO 09008KT 6SM 27/18 A2980 RMK T02700180 IEM_DS3505
ZGNN,2001-05-31 06:00,ZGNN 310600Z AUTO 09006KT 11SM 28/19 A2977 RMK SLP084 T02850190 57016 IEM_DS3505
ZGNN,2001-05-31 07:00,ZGNN 310700Z AUTO 08012KT 6SM 28/18 A2977 RMK T02800180 IEM_DS3505
ZGNN,2001-05-31 08:00,ZGNN 310800Z AUTO 07010KT 28/18 A2977 RMK T02800180 IEM_DS3505
ZGNN,2001-05-31 09:00,ZGNN 310900Z AUTO 09006KT 12SM 28/19 A2974 RMK SLP075 T02820192 57009 IEM_DS3505
ZGNN,2001-05-31 10:00,ZGNN 311000Z AUTO 09006KT 6SM 28/19 A2974 RMK T02800190 IEM_DS3505
ZGNN,2001-05-31 11:00,ZGNN 311100Z AUTO 06006KT 6SM 27/19 A2977 RMK T02700190 IEM_DS3505
ZGNN,2001-05-31 12:00,ZGNN 311200Z AUTO 11004KT 11SM 26/19 A2980 RMK SLP091 T02620191 52015 IEM_DS3505
ZGNN,2001-05-31 13:00,ZGNN 311300Z AUTO 07008KT 3SM 25/20 A2983 RMK T02500200 IEM_DS3505
ZGNN,2001-05-31 14:00,ZGNN 311400Z AUTO 07004KT 6SM 24/21 A2983 RMK T02400210 IEM_DS3505
ZGNN,2001-05-31 15:00,ZGNN 311500Z AUTO 14002KT 9SM 24/22 A2985 RMK SLP109 T02400219 52018 IEM_DS3505
ZGNN,2001-05-31 16:00,ZGNN 311600Z AUTO 06004KT 23/22 A2985 RMK T02300220 IEM_DS3505
ZGNN,2001-05-31 17:00,ZGNN 311700Z AUTO 06008KT 22/21 A2983 RMK T02200210 IEM_DS3505
ZGNN,2001-05-31 18:00,ZGNN 311800Z AUTO 04004KT 6SM 22/21 A2983 RMK 60008 SLP096 T02220213 57012 IEM_DS3505
ZGNN,2001-05-31 19:00,ZGNN 311900Z AUTO 02006KT 22/20 A2980 RMK T02200200 IEM_DS3505
ZGNN,2001-05-31 20:00,ZGNN 312000Z AUTO 33002KT 21/20 A2980 RMK T02100200 IEM_DS3505
ZGNN,2001-05-31 21:00,ZGNN 312100Z AUTO 04002KT 6SM 22/21 A2980 RMK 70098 SLP090 T02190214 57007 IEM_DS3505
ZGNN,2001-05-31 22:00,ZGNN 312200Z AUTO 02006KT 22/21 A2980 RMK T02200210 IEM_DS3505
ZGNN,2001-05-31 23:00,ZGNN 312300Z AUTO 03006KT RMK IEM_DS3505
ZGNN,2001-06-01 00:00,ZGNN 010000Z AUTO 09002KT 2 1/2SM 23/22 RMK 60094 SLP104 T02260220 52014 IEM_DS3505
ZGNN,2001-06-01 01:00,ZGNN 010100Z AUTO 08002KT 6SM RMK IEM_DS3505
ZGNN,2001-06-01 02:00,ZGNN 010200Z AUTO 06006KT 6SM RMK IEM_DS3505
ZGNN,2001-06-01 03:00,ZGNN 010300Z AUTO 09002KT 4SM 23/22 A2985 RMK SLP112 T02320223 52007 IEM_DS3505
ZGNN,2001-06-01 04:00,ZGNN 010400Z AUTO 07006KT 6SM 24/22 A2985 RMK T02400220 IEM_DS3505
ZGNN,2001-06-01 05:00,ZGNN 010500Z AUTO 7SM 24/22 A2983 RMK T02400220 IEM_DS3505
ZGNN,2001-06-01 06:00,ZGNN 010600Z AUTO 09002KT 5SM 24/23 A2983 RMK 60004 SLP098 T02430230 57014 IEM_DS3505
ZGNN,2001-06-01 07:00,ZGNN 010700Z AUTO 04006KT 6SM 24/22 A2980 RMK T02400220 IEM_DS3505
ZGNN,2001-06-01 08:00,ZGNN 010800Z AUTO 02006KT 6SM 25/23 A2977 RMK T02500230 IEM_DS3505
ZGNN,2001-06-01 09:00,ZGNN 010900Z AUTO 00000KT 4SM 24/24 A2977 RMK SLP078 T02440235 57019 IEM_DS3505
ZGNN,2001-06-01 10:00,ZGNN 011000Z AUTO 03006KT 25/23 A2977 RMK T02500230 IEM_DS3505
ZGNN,2001-06-01 11:00,ZGNN 011100Z AUTO 02006KT 6SM 25/23 A2977 RMK T02500230 IEM_DS3505
ZGNN,2001-06-01 12:00,ZGNN 011200Z AUTO 09004KT 4SM 25/23 A2980 RMK 60003 SLP093 T02460234 52015 IEM_DS3505
ZGNN,2001-06-01 13:00,ZGNN 011300Z AUTO 07004KT 1 1/4SM 24/22 A2983 RMK T02400220 IEM_DS3505
ZGNN,2001-06-01 14:00,ZGNN 011400Z AUTO 04004KT 24/23 A2985 RMK T02400230 IEM_DS3505
ZGNN,2001-06-01 15:00,ZGNN 011500Z AUTO 00000KT 4SM 24/23 A2985 RMK SLP111 T02370231 52017 IEM_DS3505
ZGNN,2001-06-01 16:00,ZGNN 011600Z AUTO 05004KT 23/22 A2985 RMK T02300220 IEM_DS3505
ZGNN,2001-06-01 17:00,ZGNN 011700Z AUTO 07004KT 23/22 A2985 RMK T02300220 IEM_DS3505
ZGNN,2001-06-01 18:00,ZGNN 011800Z AUTO 14004KT 2 1/2SM 23/23 A2983 RMK 60047 SLP099 T02290226 57011 IEM_DS3505
ZGNN,2001-06-01 19:00,ZGNN 011900Z AUTO 02004KT 23/22 A2980 RMK T02300220 IEM_DS3505
ZGNN,2001-06-01 20:00,ZGNN 012000Z AUTO 06006KT 23/22 A2980 RMK T02300220 IEM_DS3505
ZGNN,2001-06-01 21:00,ZGNN 012100Z AUTO 09002KT 2 1/2SM 23/22 A2980 RMK 70056 SLP096 T02260220 57003 IEM_DS3505
ZGNN,2001-06-01 22:00,ZGNN 012200Z AUTO 06006KT 22/21 A2983 RMK T02200210 IEM_DS3505
ZGNN,2001-06-01 23:00,ZGNN 012300Z AUTO 07006KT 6SM 22/21 A2983 RMK T02200210 IEM_DS3505
ZGNN,2001-06-02 00:00,ZGNN 020000Z AUTO 09002KT 5SM 23/22 A2985 RMK 60004 SLP112 T02260217 52015 IEM_DS3505
ZGNN,2001-06-02 01:00,ZGNN 020100Z AUTO 07006KT 6SM 23/21 A2988 RMK T02300210 IEM_DS3505
ZGNN,2001-06-02 02:00,ZGNN 020200Z AUTO 08006KT 23/21 A2988 RMK T02300210 IEM_DS3505
ZGNN,2001-06-02 04:00,ZGNN 020400Z AUTO 6SM 24/22 A2988 RMK T02400220 IEM_DS3505
ZGNN,2001-06-02 06:00,ZGNN 020600Z AUTO 6SM RMK IEM_DS3505
ZGNN,2001-06-02 07:00,ZGNN 020700Z AUTO 6SM 25/23 A2980 RMK T02500230 IEM_DS3505
ZGNN,2001-06-02 08:00,ZGNN 020800Z AUTO 06006KT 6SM 25/22 A2980 RMK T02500220 IEM_DS3505
ZGNN,2001-06-02 09:00,ZGNN 020900Z AUTO 04004KT 2 1/2SM 25/24 A2977 RMK SLP085 T02500236 57017 IEM_DS3505
ZGNN,2001-06-02 10:00,ZGNN 021000Z AUTO 04006KT 17SM 25/23 A2980 RMK T02500230 IEM_DS3505
ZGNN,2001-06-02 11:00,ZGNN 021100Z AUTO 04006KT 24/23 A2980 RMK T02400230 IEM_DS3505
ZGNN,2001-06-02 12:00,ZGNN 021200Z AUTO 36002KT 6SM 24/23 RMK 60008 SLP098 T02400234 52013 IEM_DS3505
ZGNN,2001-06-02 13:00,ZGNN 021300Z AUTO 04006KT 6SM 24/23 A2983 RMK T02400230 IEM_DS3505
ZGNN,2001-06-02 14:00,ZGNN 021400Z AUTO 03006KT 24/23 A2985 RMK T02400230 IEM_DS3505
ZGNN,2001-06-02 15:00,ZGNN 021500Z AUTO 00000KT 6SM 24/23 A2985 RMK SLP115 T02390233 52017 IEM_DS3505
ZGNN,2001-06-02 16:00,ZGNN 021600Z AUTO 05004KT 24/22 A2985 RMK T02400220 IEM_DS3505
ZGNN,2001-06-02 17:00,ZGNN 021700Z AUTO 04004KT 24/22 A2983 RMK T02400220 IEM_DS3505
ZGNN,2001-06-02 18:00,ZGNN 021800Z AUTO 09002KT 6SM 24/23 A2983 RMK SLP098 T02380234 57017 IEM_DS3505
ZGNN,2001-06-02 19:00,ZGNN 021900Z AUTO 02004KT 24/22 A2983 RMK T02400220 IEM_DS3505
ZGNN,2001-06-02 20:00,ZGNN 022000Z AUTO 33002KT 24/23 A2980 RMK T02400230 IEM_DS3505
ZGNN,2001-06-02 21:00,ZGNN 022100Z AUTO 32002KT 5SM 24/24 A2980 RMK 70011 SLP090 T02380235 57008 IEM_DS3505
ZGNN,2001-06-02 22:00,ZGNN 022200Z AUTO 6SM 24/23 A2980 RMK T02400230 IEM_DS3505
ZGNN,2001-06-02 23:00,ZGNN 022300Z AUTO 04002KT 24/23 A2983 RMK T02400230 IEM_DS3505
ZGNN,2001-06-03 00:00,ZGNN 030000Z AUTO 00000KT 1SM 24/24 A2983 RMK 60008 SLP100 T02380235 52010 IEM_DS3505
ZGNN,2001-06-03 01:00,ZGNN 030100Z AUTO 28006KT 6SM RMK IEM_DS3505
ZGNN,2001-06-03 02:00,ZGNN 030200Z AUTO 02006KT 6SM RMK IEM_DS3505
ZGNN,2001-06-03 03:00,ZGNN 030300Z AUTO 00000KT 19SM 25/22 RMK SLP110 T02480224 52010 IEM_DS3505
ZGNN,2001-06-03 06:00,ZGNN 030600Z AUTO 32002KT 19SM 28/24 RMK 60047 SLP091 T02780235 57018 IEM_DS3505
ZGNN,2001-06-03 07:00,ZGNN 030700Z AUTO 6SM 29/24 A2977 RMK T02900240 IEM_DS3505
ZGNN,2001-06-03 08:00,ZGNN 030800Z AUTO 36006KT 6SM RMK IEM_DS3505
ZGNN,2001-06-03 09:00,ZGNN 030900Z AUTO 34006KT 7SM 29/24 RMK SLP069 T02900245 57022 IEM_DS3505
ZGNN,2001-06-03 10:00,ZGNN 031000Z AUTO 35006KT 6SM 28/24 A2974 RMK T02800240 IEM_DS3505
ZGNN,2001-06-03 11:00,ZGNN 031100Z AUTO 35008KT 27/23 A2971 RMK T02700230 IEM_DS3505
ZGNN,2001-06-03 12:00,ZGNN 031200Z AUTO 00000KT 9SM 26/24 A2974 RMK 60003 SLP076 T02600240 52007 IEM_DS3505
ZGNN,2001-06-03 13:00,ZGNN 031300Z AUTO 35006KT RMK IEM_DS3505
ZGNN,2001-06-03 15:00,ZGNN 031500Z AUTO 34002KT 7SM 25/24 A2980 RMK SLP095 T02520235 52018 IEM_DS3505
ZGNN,2001-06-03 16:00,ZGNN 031600Z AUTO 02004KT 24/23 A2980 RMK T02400230 IEM_DS3505
ZGNN,2001-06-03 17:00,ZGNN 031700Z AUTO 01004KT 24/23 A2977 RMK T02400230 IEM_DS3505
ZGNN,2001-06-03 18:00,ZGNN 031800Z AUTO 36004KT 7SM 23/23 A2974 RMK 60008 SLP074 T02340228 57020 IEM_DS3505
ZGNN,2001-06-03 19:00,ZGNN 031900Z AUTO 35006KT 23/22 A2974 RMK T02300220 IEM_DS3505
ZGNN,2001-06-03 20:00,ZGNN 032000Z AUTO 33004KT 23/22 A2971 RMK T02300220 IEM_DS3505
ZGNN,2001-06-03 21:00,ZGNN 032100Z AUTO 27002KT 6SM 23/22 A2971 RMK 70064 SLP060 T02280224 57014 IEM_DS3505
ZGNN,2001-06-03 22:00,ZGNN 032200Z AUTO 22/21 A2974 RMK T02200210 IEM_DS3505
ZGNN,2001-06-03 23:00,ZGNN 032300Z AUTO 32010KT 6SM 22/21 A2974 RMK T02200210 IEM_DS3505
ZGNN,2001-06-04 00:00,ZGNN 040000Z AUTO 25004KT 4SM 22/22 A2977 RMK 60146 SLP078 T02220219 52017 IEM_DS3505
ZGNN,2001-06-04 01:00,ZGNN 040100Z AUTO 33006KT 6SM 23/21 A2977 RMK T02300210 IEM_DS3505
ZGNN,2001-06-04 02:00,ZGNN 040200Z AUTO 01002KT 23/21 A2977 RMK T02300210 IEM_DS3505
ZGNN,2001-06-04 03:00,ZGNN 040300Z AUTO 32004KT 5SM 23/22 A2977 RMK SLP084 T02330224 52006 IEM_DS3505
ZGNN,2001-06-04 04:00,ZGNN 040400Z AUTO 36004KT 6SM 23/22 A2977 RMK T02300220 IEM_DS3505
ZGNN,2001-06-04 05:00,ZGNN 040500Z AUTO 25/22 A2974 RMK T02500220 IEM_DS3505
ZGNN,2001-06-04 06:00,ZGNN 040600Z AUTO 14004KT 7SM 25/23 A2971 RMK 60035 SLP066 T02460233 57018 IEM_DS3505
ZGNN,2001-06-04 07:00,ZGNN 040700Z AUTO 16SM 25/22 A2971 RMK T02500220 IEM_DS3505
ZGNN,2001-06-04 08:00,ZGNN 040800Z AUTO 6SM 25/22 A2968 RMK T02500220 IEM_DS3505
ZGNN,2001-06-04 09:00,ZGNN 040900Z AUTO 04002KT 16SM 26/23 RMK SLP047 T02600233 57018 IEM_DS3505
ZGNN,2001-06-04 10:00,ZGNN 041000Z AUTO 12004KT 25/22 A2968 RMK T02500220 IEM_DS3505
ZGNN,2001-06-04 11:00,ZGNN 041100Z AUTO 10004KT 8SM RMK IEM_DS3505
ZGNN,2001-06-04 12:00,ZGNN 041200Z AUTO 00000KT 19SM 25/23 A2968 RMK SLP059 T02480232 52011 IEM_DS3505
ZGNN,2001-06-04 13:00,ZGNN 041300Z AUTO 6SM 24/22 A2968 RMK T02400220 IEM_DS3505
ZGNN,2001-06-04 14:00,ZGNN 041400Z AUTO 27004KT 6SM 23/22 A2971 RMK T02300220 IEM_DS3505
ZGNN,2001-06-04 15:00,ZGNN 041500Z AUTO 00000KT 16SM 23/22 A2971 RMK SLP069 T02280222 52010 IEM_DS3505
ZGNN,2001-06-04 16:00,ZGNN 041600Z AUTO 04002KT 22/21 A2971 RMK T02200210 IEM_DS3505
ZGNN,2001-06-04 17:00,ZGNN 041700Z AUTO 22/21 A2971 RMK T02200210 IEM_DS3505
ZGNN,2001-06-04 18:00,ZGNN 041800Z AUTO 00000KT 16SM 22/21 RMK SLP067 T02150210 57002 IEM_DS3505
ZGNN,2001-06-04 19:00,ZGNN 041900Z AUTO 22/20 A2971 RMK T02200200 IEM_DS3505
ZGNN,2001-06-04 20:00,ZGNN 042000Z AUTO 22/21 A2968 RMK T02200210 IEM_DS3505
ZGNN,2001-06-04 21:00,ZGNN 042100Z AUTO 00000KT 5SM 22/22 A2968 RMK 70182 SLP054 T02180215 57013 IEM_DS3505
ZGNN,2001-06-04 22:00,ZGNN 042200Z AUTO 06002KT 6SM 22/21 A2968 RMK T02200210 IEM_DS3505
ZGNN,2001-06-04 23:00,ZGNN 042300Z AUTO 19002KT 6SM 22/21 A2971 RMK T02200210 IEM_DS3505
ZGNN,2001-06-05 00:00,ZGNN 050000Z AUTO 00000KT 4SM 23/22 A2971 RMK 70036 SLP065 T02280224 52011 IEM_DS3505
ZGNN,2001-06-05 01:00,ZGNN 050100Z AUTO 6SM 24/22 A2974 RMK T02400220 IEM_DS3505
ZGNN,2001-06-05 02:00,ZGNN 050200Z AUTO 4SM RMK IEM_DS3505
ZGNN,2001-06-05 03:00,ZGNN 050300Z AUTO 09004KT 9SM 28/22 RMK SLP064 T02840220 54000 IEM_DS3505
ZGNN,2001-06-05 04:00,ZGNN 050400Z AUTO 6SM RMK IEM_DS3505
ZGNN,2001-06-05 06:00,ZGNN 050600Z AUTO 22002KT 19SM 30/22 A2968 RMK SLP043 T03020219 57020 IEM_DS3505
ZGNN,2001-06-05 07:00,ZGNN 050700Z AUTO 31/21 A2965 RMK T03100210 IEM_DS3505
ZGNN,2001-06-05 08:00,ZGNN 050800Z AUTO 6SM 32/21 A2962 RMK T03200210 IEM_DS3505
ZGNN,2001-06-05 09:00,ZGNN 050900Z AUTO 14004KT 19SM 31/22 A2959 RMK SLP018 T03140218 57025 IEM_DS3505
ZGNN,2001-06-05 10:00,ZGNN 051000Z AUTO 10004KT 6SM 31/21 A2959 RMK T03100210 IEM_DS3505
ZGNN,2001-06-05 11:00,ZGNN 051100Z AUTO 07002KT 6SM 29/21 A2959 RMK T02900210 IEM_DS3505
ZGNN,2001-06-05 12:00,ZGNN 051200Z AUTO 00000KT 16SM 28/23 A2962 RMK SLP030 T02760231 52011 IEM_DS3505
ZGNN,2001-06-05 13:00,ZGNN 051300Z AUTO 02004KT 6SM 27/22 A2962 RMK T02700220 IEM_DS3505
ZGNN,2001-06-05 14:00,ZGNN 051400Z AUTO 10002KT 6SM 26/22 A2965 RMK T02600220 IEM_DS3505
ZGNN,2001-06-05 15:00,ZGNN 051500Z AUTO 00000KT 12SM 26/23 A2968 RMK SLP053 T02590230 52024 IEM_DS3505
ZGNN,2001-06-05 16:00,ZGNN 051600Z AUTO 26/23 A2968 RMK T02600230 IEM_DS3505
ZGNN,2001-06-05 17:00,ZGNN 051700Z AUTO 25/23 A2968 RMK T02500230 IEM_DS3505
ZGNN,2001-06-05 18:00,ZGNN 051800Z AUTO 00000KT 9SM 24/23 A2965 RMK SLP041 T02430233 57012 IEM_DS3505
ZGNN,2001-06-05 19:00,ZGNN 051900Z AUTO 25/23 A2965 RMK T02500230 IEM_DS3505
ZGNN,2001-06-05 20:00,ZGNN 052000Z AUTO 05002KT 25/23 A2965 RMK T02500230 IEM_DS3505
ZGNN,2001-06-05 21:00,ZGNN 052100Z AUTO 00000KT 7SM 25/24 A2965 RMK SLP038 T02490240 57002 IEM_DS3505
ZGNN,2001-06-05 22:00,ZGNN 052200Z AUTO 21004KT 24/22 A2965 RMK T02400220 IEM_DS3505
ZGNN,2001-06-05 23:00,ZGNN 052300Z AUTO 26004KT 24/22 A2965 RMK T02400220 IEM_DS3505
ZGNN,2001-06-06 00:00,ZGNN 060000Z AUTO 00000KT 14SM 25/24 A2965 RMK 60012 SLP047 T02460237 52008 IEM_DS3505
ZGNN,2001-06-06 01:00,ZGNN 060100Z AUTO 6SM 25/23 A2968 RMK T02500230 IEM_DS3505
ZGNN,2001-06-06 02:00,ZGNN 060200Z AUTO 10004KT 6SM 27/23 A2968 RMK T02700230 IEM_DS3505
ZGNN,2001-06-06 03:00,ZGNN 060300Z AUTO 14004KT 19SM 28/24 RMK SLP053 T02780239 52006 IEM_DS3505
ZGNN,2001-06-06 04:00,ZGNN 060400Z AUTO 6SM 29/23 A2968 RMK SLP052 T02900230 IEM_DS3505
ZGNN,2001-06-06 05:00,ZGNN 060500Z AUTO 29/24 A2965 RMK SLP041 T02900240 IEM_DS3505
ZGNN,2001-06-06 06:00,ZGNN 060600Z AUTO 14004KT 19SM 30/24 A2965 RMK 60000 SLP037 T02950240 57016 IEM_DS3505
ZGNN,2001-06-06 07:00,ZGNN 060700Z AUTO 18014KT 15SM 25/23 A2962 RMK SLP033 T02500230 IEM_DS3505
ZGNN,2001-06-06 08:00,ZGNN 060800Z AUTO 34004KT 5SM 25/24 A2962 RMK SLP033 T02500240 IEM_DS3505
ZGNN,2001-06-06 09:00,ZGNN 060900Z AUTO 14004KT 6SM 25/24 A2959 RMK SLP027 T02540245 57011 IEM_DS3505
ZGNN,2001-06-06 10:00,ZGNN 061000Z AUTO 12004KT 7SM 26/24 A2959 RMK SLP022 T02600240 IEM_DS3505
ZGNN,2001-06-06 11:00,ZGNN 061100Z AUTO 11004KT 6SM 26/24 A2962 RMK SLP033 T02600240 IEM_DS3505
ZGNN,2001-06-06 12:00,ZGNN 061200Z AUTO 09002KT 7SM 25/24 A2962 RMK 60079 SLP036 T02540245 52009 IEM_DS3505
ZGNN,2001-06-06 13:00,ZGNN 061300Z AUTO 06002KT 6SM 25/23 A2965 RMK SLP043 T02500230 IEM_DS3505
ZGNN,2001-06-06 15:00,ZGNN 061500Z AUTO 09002KT 10SM 25/24 A2967 RMK SLP049 T02520241 52014 IEM_DS3505
ZGNN,2001-06-06 18:00,ZGNN 061800Z AUTO 16002KT 10SM 25/24 A2966 RMK SLP044 T02500241 57005 IEM_DS3505
ZGNN,2001-06-06 19:00,ZGNN 061900Z AUTO 25/23 A2965 RMK SLP043 T02500230 IEM_DS3505
ZGNN,2001-06-06 20:00,ZGNN 062000Z AUTO 25/23 A2962 RMK SLP033 T02500230 IEM_DS3505
ZGNN,2001-06-06 21:00,ZGNN 062100Z AUTO 00000KT 9SM 25/24 A2964 RMK 70092 SLP040 T02470241 57005 IEM_DS3505
ZGNN,2001-06-06 22:00,ZGNN 062200Z AUTO 6SM RMK IEM_DS3505
ZGNN,2001-06-06 23:00,ZGNN 062300Z AUTO 05002KT RMK IEM_DS3505
ZGNN,2001-06-07 00:00,ZGNN 070000Z AUTO 09004KT 6SM 26/24 A2965 RMK 70079 SLP044 T02580244 52004 IEM_DS3505
ZGNN,2001-06-07 01:00,ZGNN 070100Z AUTO 10004KT 6SM 26/24 A2965 RMK SLP043 T02600240 IEM_DS3505
ZGNN,2001-06-07 02:00,ZGNN 070200Z AUTO 13006KT 22SM 27/24 A2968 RMK SLP053 T02700240 IEM_DS3505
ZGNN,2001-06-07 03:00,ZGNN 070300Z AUTO 20002KT 5SM 27/24 A2968 RMK SLP046 T02660243 52003 IEM_DS3505
ZGNN,2001-06-07 04:00,ZGNN 070400Z AUTO 13006KT 6SM 24/23 A2968 RMK SLP054 T02400230 IEM_DS3505
ZGNN,2001-06-07 05:00,ZGNN 070500Z AUTO 12006KT 14SM RMK IEM_DS3505
ZGNN,2001-06-07 06:00,ZGNN 070600Z AUTO 16002KT 11SM 25/24 A2962 RMK 60126 SLP034 T02460240 57013 IEM_DS3505
ZGNN,2001-06-07 07:00,ZGNN 070700Z AUTO 15006KT 6SM 25/23 A2959 RMK SLP022 T02500230 IEM_DS3505
ZGNN,2001-06-07 08:00,ZGNN 070800Z AUTO 15004KT 12SM 25/23 A2959 RMK SLP022 T02500230 IEM_DS3505
ZGNN,2001-06-07 09:00,ZGNN 070900Z AUTO 20002KT 17SM 26/24 A2956 RMK SLP011 T02580244 57022 IEM_DS3505
ZGNN,2001-06-07 10:00,ZGNN 071000Z AUTO 14006KT 16SM 26/24 A2959 RMK SLP022 T02600240 IEM_DS3505
ZGNN,2001-06-07 11:00,ZGNN 071100Z AUTO 13006KT 6SM 26/24 A2959 RMK SLP022 T02600240 IEM_DS3505
ZGNN,2001-06-07 12:00,ZGNN 071200Z AUTO 16002KT 10SM 26/25 A2959 RMK 60000 SLP023 T02590246 52012 IEM_DS3505
ZGNN,2001-06-07 13:00,ZGNN 071300Z AUTO 26/23 A2959 RMK SLP022 T02600230 IEM_DS3505
ZGNN,2001-06-07 14:00,ZGNN 071400Z AUTO 12004KT 10SM 25/23 A2962 RMK SLP033 T02500230 IEM_DS3505
ZGNN,2001-06-07 15:00,ZGNN 071500Z AUTO 07002KT 9SM 25/24 A2961 RMK SLP029 T02500241 52006 IEM_DS3505
ZGNN,2001-06-07 18:00,ZGNN 071800Z AUTO 00000KT 9SM 26/24 A2959 RMK 60000 SLP024 T02580241 57006 IEM_DS3505
ZGNN,2001-06-07 19:00,ZGNN 071900Z AUTO 26/23 A2959 RMK SLP022 T02600230 IEM_DS3505
ZGNN,2001-06-07 20:00,ZGNN 072000Z AUTO 25/23 A2959 RMK SLP022 T02500230 IEM_DS3505
ZGNN,2001-06-07 21:00,ZGNN 072100Z AUTO 00000KT 7SM 25/24 A2956 RMK 70159 SLP015 T02480242 57008 IEM_DS3505
ZGNN,2001-06-07 22:00,ZGNN 072200Z AUTO 24/23 A2956 RMK SLP012 T02400230 IEM_DS3505
ZGNN,2001-06-07 23:00,ZGNN 072300Z AUTO 36002KT 6SM RMK IEM_DS3505
ZGNN,2001-06-08 00:00,ZGNN 080000Z AUTO 00000KT 7SM 25/25 A2959 RMK 60031 SLP023 T02530249 52008 IEM_DS3505
ZGNN,2001-06-08 01:00,ZGNN 080100Z AUTO 6SM RMK IEM_DS3505
ZGNN,2001-06-08 02:00,ZGNN 080200Z AUTO 6SM RMK IEM_DS3505
ZGNN,2001-06-08 03:00,ZGNN 080300Z AUTO 14004KT 12SM 28/26 A2958 RMK SLP017 T02800255 57006 IEM_DS3505
ZGNN,2001-06-08 04:00,ZGNN 080400Z AUTO 15006KT 6SM RMK IEM_DS3505
ZGNN,2001-06-08 05:00,ZGNN 080500Z AUTO 14006KT 29/25 A2959 RMK SLP020 T02900250 IEM_DS3505
ZGNN,2001-06-08 06:00,ZGNN 080600Z AUTO 14004KT 11SM 29/26 A2956 RMK 60000 SLP015 T02900259 57001 IEM_DS3505
ZGNN,2001-06-08 07:00,ZGNN 080700Z AUTO 14010KT 6SM 29/25 A2953 RMK SLP000 T02900250 IEM_DS3505
ZGNN,2001-06-08 08:00,ZGNN 080800Z AUTO 15010KT RMK IEM_DS3505
ZGNN,2001-06-08 09:00,ZGNN 080900Z AUTO 14002KT 12SM 30/26 A2950 RMK SLP997 T02960259 57018 IEM_DS3505
ZGNN,2001-06-08 10:00,ZGNN 081000Z AUTO 12008KT 29/25 A2953 RMK SLP000 T02900250 IEM_DS3505
ZGNN,2001-06-08 11:00,ZGNN 081100Z AUTO 13008KT 19SM 28/25 A2953 RMK SLP000 T02800250 IEM_DS3505
ZGNN,2001-06-08 12:00,ZGNN 081200Z AUTO 14004KT 19SM 28/25 A2956 RMK 60003 SLP010 T02770252 52012 IEM_DS3505
ZGNN,2001-06-08 13:00,ZGNN 081300Z AUTO 15008KT 6SM 27/24 A2956 RMK SLP011 T02700240 IEM_DS3505
ZGNN,2001-06-08 14:00,ZGNN 081400Z AUTO 14002KT 6SM 26/24 A2959 RMK SLP022 T02600240 IEM_DS3505
ZGNN,2001-06-08 15:00,ZGNN 081500Z AUTO 00000KT 16SM 26/24 A2960 RMK SLP025 T02630242 52015 IEM_DS3505
ZGNN,2001-06-08 18:00,ZGNN 081800Z AUTO 07002KT 12SM 25/24 A2960 RMK SLP024 T02540240 57001 IEM_DS3505
ZGNN,2001-06-08 21:00,ZGNN 082100Z AUTO 00000KT 7SM 25/24 A2959 RMK 70001 SLP017 T02510241 57006 IEM_DS3505
ZGNN,2001-06-08 22:00,ZGNN 082200Z AUTO 6SM 24/23 A2959 RMK SLP023 T02400230 IEM_DS3505
ZGNN,2001-06-08 23:00,ZGNN 082300Z AUTO 6SM 25/24 A2959 RMK SLP022 T02500240 IEM_DS3505
ZGNN,2001-06-09 00:00,ZGNN 090000Z AUTO 14002KT 6SM 27/25 A2962 RMK 70000 SLP030 T02690254 52012 IEM_DS3505
ZGNN,2001-06-09 03:00,ZGNN 090300Z AUTO 18006KT 19SM 31/26 A2962 RMK SLP030 T03080255 52001 IEM_DS3505
ZGNN,2001-06-09 04:00,ZGNN 090400Z AUTO 6SM RMK IEM_DS3505
ZGNN,2001-06-09 05:00,ZGNN 090500Z AUTO 11004KT 6SM RMK IEM_DS3505
ZGNN,2001-06-09 06:00,ZGNN 090600Z AUTO 14006KT 19SM 32/26 A2958 RMK SLP017 T03240255 57013 IEM_DS3505
ZGNN,2001-06-09 07:00,ZGNN 090700Z AUTO 14008KT RMK IEM_DS3505
ZGNN,2001-06-09 08:00,ZGNN 090800Z AUTO 12010KT 31/25 A2956 RMK SLP009 T03100250 IEM_DS3505
ZGNN,2001-06-09 09:00,ZGNN 090900Z AUTO 14004KT 19SM 31/26 A2953 RMK SLP001 T03140256 57016 IEM_DS3505
ZGNN,2001-06-09 10:00,ZGNN 091000Z AUTO 13008KT 28SM 30/25 A2953 RMK SLP999 T03000250 IEM_DS3505
ZGNN,2001-06-09 11:00,ZGNN 091100Z AUTO 14008KT 6SM 29/24 A2956 RMK SLP010 T02900240 IEM_DS3505
ZGNN,2001-06-09 12:00,ZGNN 091200Z AUTO 14006KT 16SM 29/25 A2959 RMK SLP021 T02870248 52020 IEM_DS3505
ZGNN,2001-06-09 13:00,ZGNN 091300Z AUTO 15008KT RMK IEM_DS3505
ZGNN,2001-06-09 14:00,ZGNN 091400Z AUTO 14006KT 6SM 27/24 A2962 RMK SLP032 T02700240 IEM_DS3505
ZGNN,2001-06-09 15:00,ZGNN 091500Z AUTO 14002KT 14SM 27/24 A2960 RMK SLP024 T02670244 52003 IEM_DS3505
ZGNN,2001-06-09 18:00,ZGNN 091800Z AUTO 00000KT 14SM 25/24 A2960 RMK SLP023 T02540243 57001 IEM_DS3505
ZGNN,2001-06-09 20:00,ZGNN 092000Z AUTO 04004KT 25/23 A2959 RMK SLP022 T02500230 IEM_DS3505
ZGNN,2001-06-09 21:00,ZGNN 092100Z AUTO 00000KT 9SM 25/24 A2959 RMK SLP021 T02530240 57002 IEM_DS3505
ZGNN,2001-06-09 22:00,ZGNN 092200Z AUTO 6SM 25/23 A2959 RMK SLP022 T02500230 IEM_DS3505
ZGNN,2001-06-09 23:00,ZGNN 092300Z AUTO 05002KT 6SM 25/23 A2962 RMK SLP033 T02500230 IEM_DS3505
ZGNN,2001-06-10 00:00,ZGNN 100000Z AUTO 00000KT 7SM 26/25 A2962 RMK SLP034 T02620251 52012 IEM_DS3505
ZGNN,2001-06-10 01:00,ZGNN 100100Z AUTO 19SM RMK IEM_DS3505
ZGNN,2001-06-10 02:00,ZGNN 100200Z AUTO 15002KT RMK IEM_DS3505
ZGNN,2001-06-10 03:00,ZGNN 100300Z AUTO 00000KT 12SM 28/26 A2968 RMK SLP048 T02820258 52014 IEM_DS3505
ZGNN,2001-06-10 04:00,ZGNN 100400Z AUTO 6SM RMK IEM_DS3505
ZGNN,2001-06-10 05:00,ZGNN 100500Z AUTO 6SM 29/25 A2962 RMK SLP031 T02900250 IEM_DS3505
ZGNN,2001-06-10 06:00,ZGNN 100600Z AUTO 14004KT 12SM 30/26 A2962 RMK 60000 SLP032 T03000258 57015 IEM_DS3505
ZGNN,2001-06-10 07:00,ZGNN 100700Z AUTO 17014KT 26/23 A2959 RMK SLP022 T02600230 IEM_DS3505
ZGNN,2001-06-10 08:00,ZGNN 100800Z AUTO 15SM 25/24 A2962 RMK SLP033 T02500240 IEM_DS3505
ZGNN,2001-06-10 09:00,ZGNN 100900Z AUTO 6SM 25/24 A2959 RMK SLP022 T02500240 IEM_DS3505
ZGNN,2001-06-10 10:00,ZGNN 101000Z AUTO 10002KT 12SM RMK IEM_DS3505
ZGNN,2001-06-10 11:00,ZGNN 101100Z AUTO 26/24 A2962 RMK SLP033 T02600240 IEM_DS3505
ZGNN,2001-06-10 12:00,ZGNN 101200Z AUTO 00000KT 9SM 26/25 A2965 RMK 60240 SLP037 T02560250 52011 IEM_DS3505
ZGNN,2001-06-10 13:00,ZGNN 101300Z AUTO 6SM RMK IEM_DS3505
ZGNN,2001-06-10 14:00,ZGNN 101400Z AUTO 11002KT 6SM 25/24 A2965 RMK SLP043 T02500240 IEM_DS3505
ZGNN,2001-06-10 15:00,ZGNN 101500Z AUTO 00000KT 7SM 25/25 A2968 RMK SLP051 T02510247 52014 IEM_DS3505
ZGNN,2001-06-10 16:00,ZGNN 101600Z AUTO 31002KT 25/24 A2968 RMK SLP053 T02500240 IEM_DS3505
ZGNN,2001-06-10 17:00,ZGNN 101700Z AUTO 24002KT 2 1/2SM 25/24 A2968 RMK SLP053 T02500240 IEM_DS3505
ZGNN,2001-06-10 18:00,ZGNN 101800Z AUTO 04004KT 7SM 25/25 A2965 RMK SLP042 T02500247 57009 IEM_DS3505
ZGNN,2001-06-10 19:00,ZGNN 101900Z AUTO 17002KT 25/24 A2965 RMK SLP043 T02500240 IEM_DS3505
ZGNN,2001-06-10 20:00,ZGNN 102000Z AUTO 27002KT 25/24 A2965 RMK SLP043 T02500240 IEM_DS3505
ZGNN,2001-06-10 21:00,ZGNN 102100Z AUTO 00000KT 4SM 25/25 A2965 RMK 70239 SLP042 T02500247 57001 IEM_DS3505
ZGNN,2001-06-10 22:00,ZGNN 102200Z AUTO 20SM 24/23 A2968 RMK SLP054 T02400230 IEM_DS3505
ZGNN,2001-06-10 23:00,ZGNN 102300Z AUTO 7SM 24/23 A2968 RMK SLP054 T02400230 IEM_DS3505
ZGNN,2001-06-11 00:00,ZGNN 110000Z AUTO 00000KT 6SM 24/24 A2968 RMK 60189 SLP056 T02440243 52014 IEM_DS3505
ZGNN,2001-06-11 01:00,ZGNN 110100Z AUTO 6SM RMK IEM_DS3505
ZGNN,2001-06-11 02:00,ZGNN 110200Z AUTO 16SM 27/24 A2971 RMK SLP062 T02700240 IEM_DS3505
ZGNN,2001-06-11 03:00,ZGNN 110300Z AUTO 00000KT 16SM 26/25 A2971 RMK SLP065 T02650248 52009 IEM_DS3505
ZGNN,2001-06-11 04:00,ZGNN 110400Z AUTO 6SM 28/24 A2971 RMK SLP061 T02800240 IEM_DS3505
ZGNN,2001-06-11 06:00,ZGNN 110600Z AUTO 32006KT 19SM 29/24 A2968 RMK 60003 SLP048 T02880244 57016 IEM_DS3505
ZGNN,2001-06-11 07:00,ZGNN 110700Z AUTO 6SM RMK IEM_DS3505
ZGNN,2001-06-11 08:00,ZGNN 110800Z AUTO 13004KT 6SM 28/24 A2965 RMK SLP042 T02800240 IEM_DS3505
ZGNN,2001-06-11 09:00,ZGNN 110900Z AUTO 16006KT 19SM 29/25 A2962 RMK SLP034 T02870252 57014 IEM_DS3505
ZGNN,2001-06-11 10:00,ZGNN 111000Z AUTO 2SM 29/25 A2962 RMK SLP031 T02900250 IEM_DS3505
ZGNN,2001-06-11 11:00,ZGNN 111100Z AUTO 6SM 28/24 A2962 RMK SLP032 T02800240 IEM_DS3505
ZGNN,2001-06-11 12:00,ZGNN 111200Z AUTO 11004KT 19SM 27/25 A2965 RMK 60003 SLP045 T02720252 52010 IEM_DS3505
ZGNN,2001-06-11 13:00,ZGNN 111300Z AUTO 11004KT 6SM 26/24 A2968 RMK SLP053 T02600240 IEM_DS3505
ZGNN,2001-06-11 14:00,ZGNN 111400Z AUTO 10002KT 6SM 25/23 A2968 RMK SLP053 T02500230 IEM_DS3505
ZGNN,2001-06-11 15:00,ZGNN 111500Z AUTO 00000KT 16SM 25/24 A2972 RMK SLP065 T02500237 52020 IEM_DS3505
ZGNN,2001-06-11 18:00,ZGNN 111800Z AUTO 00000KT 12SM 25/24 A2968 RMK SLP058 T02460236 57006 IEM_DS3505
ZGNN,2001-06-11 19:00,ZGNN 111900Z AUTO 04002KT 24/23 A2968 RMK SLP054 T02400230 IEM_DS3505
ZGNN,2001-06-11 20:00,ZGNN 112000Z AUTO 02002KT 24/23 A2968 RMK SLP054 T02400230 IEM_DS3505
ZGNN,2001-06-11 21:00,ZGNN 112100Z AUTO 00000KT 7SM 25/24 A2968 RMK 70190 SLP046 T02460240 57012 IEM_DS3505
ZGNN,2001-06-11 22:00,ZGNN 112200Z AUTO 09002KT 6SM 24/23 A2968 RMK SLP054 T02400230 IEM_DS3505
ZGNN,2001-06-11 23:00,ZGNN 112300Z AUTO 25/23 A2968 RMK SLP053 T02500230 IEM_DS3505
ZGNN,2001-06-12 00:00,ZGNN 120000Z AUTO 18002KT 5SM 25/24 A2970 RMK 70003 SLP057 T02540243 52011 IEM_DS3505
ZGNN,2001-06-12 02:00,ZGNN 120200Z AUTO 6SM 29/24 A2968 RMK SLP052 T02900240 IEM_DS3505
ZGNN,2001-06-12 03:00,ZGNN 120300Z AUTO 27002KT 19SM 30/25 A2968 RMK SLP045 T02960248 57012 IEM_DS3505
ZGNN,2001-06-12 04:00,ZGNN 120400Z AUTO 20SM 31/23 A2965 RMK SLP040 T03100230 IEM_DS3505
ZGNN,2001-06-12 05:00,ZGNN 120500Z AUTO 6SM RMK IEM_DS3505
ZGNN,2001-06-12 06:00,ZGNN 120600Z AUTO 18004KT 19SM 32/24 A2959 RMK SLP022 T03200243 57022 IEM_DS3505
ZGNN,2001-06-12 07:00,ZGNN 120700Z AUTO 16SM 32/23 A2959 RMK SLP019 T03200230 IEM_DS3505
ZGNN,2001-06-12 08:00,ZGNN 120800Z AUTO 13008KT 6SM 31/25 A2956 RMK SLP009 T03100250 IEM_DS3505
ZGNN,2001-06-12 09:00,ZGNN 120900Z AUTO 22004KT 4SM 26/25 A2959 RMK SLP017 T02620248 57006 IEM_DS3505
ZGNN,2001-06-12 10:00,ZGNN 121000Z AUTO 25/23 A2959 RMK SLP022 T02500230 IEM_DS3505
ZGNN,2001-06-12 11:00,ZGNN 121100Z AUTO 12SM 26/24 A2959 RMK SLP022 T02600240 IEM_DS3505
ZGNN,2001-06-12 12:00,ZGNN 121200Z AUTO 04002KT 6SM 26/25 A2959 RMK 60031 SLP024 T02630253 52007 IEM_DS3505
ZGNN,2001-06-12 13:00,ZGNN 121300Z AUTO 07002KT 6SM 26/25 A2962 RMK SLP033 T02600250 IEM_DS3505
ZGNN,2001-06-12 14:00,ZGNN 121400Z AUTO 12004KT 6SM RMK IEM_DS3505
ZGNN,2001-06-12 15:00,ZGNN 121500Z AUTO 14004KT 9SM 27/25 A2962 RMK SLP030 T02660252 52007 IEM_DS3505
ZGNN,2001-06-12 16:00,ZGNN 121600Z AUTO 26/24 A2962 RMK SLP033 T02600240 IEM_DS3505
ZGNN,2001-06-12 17:00,ZGNN 121700Z AUTO 26/24 A2962 RMK SLP033 T02600240 IEM_DS3505
ZGNN,2001-06-12 18:00,ZGNN 121800Z AUTO 22004KT 9SM 26/25 A2962 RMK 60012 SLP026 T02600254 57004 IEM_DS3505
ZGNN,2001-06-12 19:00,ZGNN 121900Z AUTO 29010KT 24/23 A2959 RMK SLP023 T02400230 IEM_DS3505
ZGNN,2001-06-12 20:00,ZGNN 122000Z AUTO 21006KT 24/22 A2962 RMK SLP034 T02400220 IEM_DS3505
ZGNN,2001-06-12 21:00,ZGNN 122100Z AUTO 25004KT 7SM 24/23 A2959 RMK 70092 SLP023 T02370233 57005 IEM_DS3505
ZGNN,2001-06-12 22:00,ZGNN 122200Z AUTO 26006KT 6SM 24/22 A2959 RMK SLP023 T02400220 IEM_DS3505
ZGNN,2001-06-12 23:00,ZGNN 122300Z AUTO 29006KT 15SM 24/22 A2959 RMK SLP023 T02400220 IEM_DS3505
ZGNN,2001-06-13 00:00,ZGNN 130000Z AUTO 32004KT 7SM 24/22 A2962 RMK 60047 SLP031 T02400225 52008 IEM_DS3505
ZGNN,2001-06-13 01:00,ZGNN 130100Z AUTO 30006KT 6SM 25/22 A2962 RMK SLP033 T02500220 IEM_DS3505
ZGNN,2001-06-13 02:00,ZGNN 130200Z AUTO 33006KT 22SM RMK IEM_DS3505
ZGNN,2001-06-13 03:00,ZGNN 130300Z AUTO 34008KT 19SM 26/22 A2962 RMK SLP035 T02580223 52005 IEM_DS3505
ZGNN,2001-06-13 04:00,ZGNN 130400Z AUTO 32008KT RMK IEM_DS3505
ZGNN,2001-06-13 05:00,ZGNN 130500Z AUTO 34004KT 6SM RMK IEM_DS3505
ZGNN,2001-06-13 06:00,ZGNN 130600Z AUTO 29004KT 19SM 29/23 A2959 RMK 60003 SLP021 T02880227 57013 IEM_DS3505
ZGNN,2001-06-13 07:00,ZGNN 130700Z AUTO 6SM RMK IEM_DS3505
ZGNN,2001-06-13 08:00,ZGNN 130800Z AUTO 6SM 30/20 A2959 RMK SLP020 T03000200 IEM_DS3505
ZGNN,2001-06-13 09:00,ZGNN 130900Z AUTO 14004KT 16SM 30/23 A2957 RMK SLP015 T02990227 57007 IEM_DS3505
ZGNN,2001-06-13 10:00,ZGNN 131000Z AUTO 6SM 30/22 A2956 RMK SLP009 T03000220 IEM_DS3505
ZGNN,2001-06-13 11:00,ZGNN 131100Z AUTO 22004KT 6SM 28/23 A2959 RMK SLP021 T02800230 IEM_DS3505
ZGNN,2001-06-13 12:00,ZGNN 131200Z AUTO 00000KT 17SM 27/25 A2959 RMK SLP022 T02720247 52007 IEM_DS3505
ZGNN,2001-06-13 13:00,ZGNN 131300Z AUTO 27002KT 6SM 26/23 A2962 RMK SLP033 T02600230 IEM_DS3505
ZGNN,2001-06-13 14:00,ZGNN 131400Z AUTO 6SM 25/23 A2962 RMK SLP033 T02500230 IEM_DS3505
ZGNN,2001-06-13 15:00,ZGNN 131500Z AUTO 00000KT 12SM 24/23 A2962 RMK SLP035 T02440232 52012 IEM_DS3505
ZGNN,2001-06-13 16:00,ZGNN 131600Z AUTO 24/22 A2965 RMK SLP044 T02400220 IEM_DS3505
ZGNN,2001-06-13 17:00,ZGNN 131700Z AUTO 16002KT 24/22 A2962 RMK SLP034 T02400220 IEM_DS3505
ZGNN,2001-06-13 18:00,ZGNN 131800Z AUTO 00000KT 12SM 23/22 A2962 RMK SLP030 T02300224 57004 IEM_DS3505
ZGNN,2001-06-13 19:00,ZGNN 131900Z AUTO 23/22 A2962 RMK SLP034 T02300220 IEM_DS3505
ZGNN,2001-06-13 20:00,ZGNN 132000Z AUTO 23/22 A2962 RMK SLP034 T02300220 IEM_DS3505
ZGNN,2001-06-13 21:00,ZGNN 132100Z AUTO 00000KT 9SM 23/22 A2962 RMK 70002 SLP035 T02260220 52005 IEM_DS3505
ZGNN,2001-06-13 22:00,ZGNN 132200Z AUTO 7SM 23/22 A2962 RMK SLP034 T02300220 IEM_DS3505
ZGNN,2001-06-13 23:00,ZGNN 132300Z AUTO 6SM 23/22 A2965 RMK SLP044 T02300220 IEM_DS3505
ZGNN,2001-06-14 00:00,ZGNN 140000Z AUTO 00000KT 2SM 24/23 A2965 RMK 70003 SLP047 T02360232 52011 IEM_DS3505
ZGNN,2001-06-14 01:00,ZGNN 140100Z AUTO 25/23 A2965 RMK SLP043 T02500230 IEM_DS3505
ZGNN,2001-06-14 02:00,ZGNN 140200Z AUTO 6SM 27/23 A2965 RMK SLP042 T02700230 IEM_DS3505
ZGNN,2001-06-14 03:00,ZGNN 140300Z AUTO 22002KT 6SM 29/25 A2965 RMK SLP042 T02880252 57004 IEM_DS3505
ZGNN,2001-06-14 04:00,ZGNN 140400Z AUTO 6SM 31/24 A2965 RMK SLP040 T03100240 IEM_DS3505
ZGNN,2001-06-14 05:00,ZGNN 140500Z AUTO 3SM RMK IEM_DS3505
ZGNN,2001-06-14 06:00,ZGNN 140600Z AUTO 04004KT 11SM 32/23 A2961 RMK SLP027 T03200233 57014 IEM_DS3505
ZGNN,2001-06-14 07:00,ZGNN 140700Z AUTO 6SM RMK IEM_DS3505
ZGNN,2001-06-14 08:00,ZGNN 140800Z AUTO 6SM RMK IEM_DS3505
ZGNN,2001-06-14 09:00,ZGNN 140900Z AUTO 11006KT 16SM 33/20 A2959 RMK SLP018 T03340197 57009 IEM_DS3505
ZGNN,2001-06-14 10:00,ZGNN 141000Z AUTO 09004KT 6SM 32/20 A2959 RMK SLP019 T03200200 IEM_DS3505
ZGNN,2001-06-14 11:00,ZGNN 141100Z AUTO 07004KT 6SM 30/22 A2959 RMK SLP020 T03000220 IEM_DS3505
ZGNN,2001-06-14 12:00,ZGNN 141200Z AUTO 00000KT 16SM 28/21 A2962 RMK SLP027 T02760214 52008 IEM_DS3505
ZGNN,2001-06-14 13:00,ZGNN 141300Z AUTO 04004KT 6SM 26/22 A2962 RMK SLP033 T02600220 IEM_DS3505
ZGNN,2001-06-14 14:00,ZGNN 141400Z AUTO 6SM 26/22 A2965 RMK SLP043 T02600220 IEM_DS3505
ZGNN,2001-06-14 15:00,ZGNN 141500Z AUTO 00000KT 12SM 24/21 A2965 RMK SLP044 T02380211 52017 IEM_DS3505
ZGNN,2001-06-14 16:00,ZGNN 141600Z AUTO 24/21 A2965 RMK SLP044 T02400210 IEM_DS3505
ZGNN,2001-06-14 17:00,ZGNN 141700Z AUTO 24/22 A2965 RMK SLP044 T02400220 IEM_DS3505
ZGNN,2001-06-14 18:00,ZGNN 141800Z AUTO 00000KT 9SM 23/22 A2965 RMK SLP036 T02300218 57008 IEM_DS3505
ZGNN,2001-06-14 19:00,ZGNN 141900Z AUTO 23/22 A2965 RMK SLP044 T02300220 IEM_DS3505
ZGNN,2001-06-14 20:00,ZGNN 142000Z AUTO 23/22 A2965 RMK SLP044 T02300220 IEM_DS3505
ZGNN,2001-06-14 21:00,ZGNN 142100Z AUTO 00000KT 4SM 22/22 A2965 RMK SLP038 T02250218 52003 IEM_DS3505
ZGNN,2001-06-14 22:00,ZGNN 142200Z AUTO 6SM 22/21 A2965 RMK SLP045 T02200210 IEM_DS3505
ZGNN,2001-06-14 23:00,ZGNN 142300Z AUTO 23/22 A2968 RMK SLP054 T02300220 IEM_DS3505
ZGNN,2001-06-15 00:00,ZGNN 150000Z AUTO 00000KT 2 1/2SM 24/23 A2968 RMK SLP053 T02450232 52013 IEM_DS3505
ZGNN,2001-06-15 01:00,ZGNN 150100Z AUTO 6SM 26/24 A2968 RMK SLP053 T02600240 IEM_DS3505
ZGNN,2001-06-15 02:00,ZGNN 150200Z AUTO 6SM 28/23 A2968 RMK SLP052 T02800230 IEM_DS3505
ZGNN,2001-06-15 03:00,ZGNN 150300Z AUTO 14006KT 7SM 29/22 A2968 RMK SLP047 T02920225 57005 IEM_DS3505
ZGNN,2001-06-15 04:00,ZGNN 150400Z AUTO 6SM 31/22 A2965 RMK SLP040 T03100220 IEM_DS3505
ZGNN,2001-06-15 05:00,ZGNN 150500Z AUTO 6SM 32/22 A2962 RMK SLP030 T03200220 IEM_DS3505
ZGNN,2001-06-15 06:00,ZGNN 150600Z AUTO 32004KT 17SM 32/22 A2962 RMK SLP027 T03180223 57020 IEM_DS3505
ZGNN,2001-06-15 07:00,ZGNN 150700Z AUTO 32/21 A2959 RMK SLP019 T03200210 IEM_DS3505
ZGNN,2001-06-15 08:00,ZGNN 150800Z AUTO 6SM 33/17 A2956 RMK SLP008 T03300170 IEM_DS3505
ZGNN,2001-06-15 09:00,ZGNN 150900Z AUTO 16004KT 17SM 33/19 A2956 RMK SLP007 T03320193 57019 IEM_DS3505
ZGNN,2001-06-15 10:00,ZGNN 151000Z AUTO 13006KT 6SM 32/18 A2956 RMK SLP009 T03200180 IEM_DS3505
ZGNN,2001-06-15 11:00,ZGNN 151100Z AUTO 13006KT 6SM 30/21 A2956 RMK SLP009 T03000210 IEM_DS3505
ZGNN,2001-06-15 12:00,ZGNN 151200Z AUTO 00000KT 12SM 29/22 A2959 RMK SLP018 T02900223 52010 IEM_DS3505
ZGNN,2001-06-15 14:00,ZGNN 151400Z AUTO 6SM 27/22 A2959 RMK SLP021 T02700220 IEM_DS3505
ZGNN,2001-06-15 15:00,ZGNN 151500Z AUTO 00000KT 12SM 26/23 A2962 RMK SLP030 T02640229 52013 IEM_DS3505
ZGNN,2001-06-15 16:00,ZGNN 151600Z AUTO 25/22 A2962 RMK SLP033 T02500220 IEM_DS3505
ZGNN,2001-06-15 17:00,ZGNN 151700Z AUTO 25/22 A2962 RMK SLP033 T02500220 IEM_DS3505
ZGNN,2001-06-15 18:00,ZGNN 151800Z AUTO 29002KT 9SM 24/23 A2962 RMK SLP029 T02420227 57001 IEM_DS3505
ZGNN,2001-06-15 19:00,ZGNN 151900Z AUTO 24/22 A2962 RMK SLP034 T02400220 IEM_DS3505
ZGNN,2001-06-15 20:00,ZGNN 152000Z AUTO 24/22 A2962 RMK SLP034 T02400220 IEM_DS3505
ZGNN,2001-06-15 21:00,ZGNN 152100Z AUTO 29002KT 9SM 23/22 A2962 RMK SLP027 T02260217 57002 IEM_DS3505
ZGNN,2001-06-15 22:00,ZGNN 152200Z AUTO 02004KT 6SM 23/22 A2962 RMK SLP034 T02300220 IEM_DS3505
ZGNN,2001-06-15 23:00,ZGNN 152300Z AUTO 05002KT 6SM 23/22 A2965 RMK SLP044 T02300220 IEM_DS3505
ZGNN,2001-06-16 00:00,ZGNN 160000Z AUTO 14004KT 5SM 25/22 A2965 RMK SLP041 T02500224 52013 IEM_DS3505
ZGNN,2001-06-16 01:00,ZGNN 160100Z AUTO 6SM 26/22 A2965 RMK SLP043 T02600220 IEM_DS3505
ZGNN,2001-06-16 02:00,ZGNN 160200Z AUTO 6SM 29/22 A2965 RMK SLP041 T02900220 IEM_DS3505
ZGNN,2001-06-16 03:00,ZGNN 160300Z AUTO 16008KT 9SM 30/23 A2965 RMK SLP038 T02960227 57002 IEM_DS3505
ZGNN,2001-06-16 04:00,ZGNN 160400Z AUTO 14006KT 6SM 31/20 A2965 RMK SLP040 T03100200 IEM_DS3505
ZGNN,2001-06-16 05:00,ZGNN 160500Z AUTO 6SM 32/20 A2962 RMK SLP030 T03200200 IEM_DS3505
ZGNN,2001-06-16 06:00,ZGNN 160600Z AUTO 12SM 33/22 A2959 RMK SLP018 T03300220 IEM_DS3505
ZGNN,2001-06-16 07:00,ZGNN 160700Z AUTO 15SM RMK IEM_DS3505
ZGNN,2001-06-16 08:00,ZGNN 160800Z AUTO 13006KT 6SM 33/23 A2956 RMK SLP008 T03300230 IEM_DS3505
ZGNN,2001-06-16 09:00,ZGNN 160900Z AUTO 14002KT 16SM 33/24 A2956 RMK SLP007 T03300243 57015 IEM_DS3505
ZGNN,2001-06-16 10:00,ZGNN 161000Z AUTO 12008KT 6SM 32/24 A2956 RMK SLP009 T03200240 IEM_DS3505
ZGNN,2001-06-16 11:00,ZGNN 161100Z AUTO 14008KT 6SM 30/24 A2956 RMK SLP009 T03000240 IEM_DS3505
ZGNN,2001-06-16 12:00,ZGNN 161200Z AUTO 16004KT 16SM 29/25 A2959 RMK SLP021 T02940252 52013 IEM_DS3505
ZGNN,2001-06-16 13:00,ZGNN 161300Z AUTO 13010KT 6SM 28/25 A2959 RMK SLP021 T02800250 IEM_DS3505
ZGNN,2001-06-16 14:00,ZGNN 161400Z AUTO 13006KT 6SM 28/24 A2962 RMK SLP032 T02800240 IEM_DS3505
ZGNN,2001-06-16 15:00,ZGNN 161500Z AUTO 22002KT 14SM 28/25 A2965 RMK SLP040 T02750248 52020 IEM_DS3505
ZGNN,2001-06-16 18:00,ZGNN 161800Z AUTO 00000KT 12SM 26/25 A2963 RMK SLP035 T02640248 57005 IEM_DS3505
ZGNN,2001-06-16 21:00,ZGNN 162100Z AUTO 00000KT 9SM 26/25 A2965 RMK SLP036 T02600247 52001 IEM_DS3505
ZGNN,2001-06-16 22:00,ZGNN 162200Z AUTO 14004KT 6SM 26/24 A2965 RMK SLP043 T02600240 IEM_DS3505
ZGNN,2001-06-16 23:00,ZGNN 162300Z AUTO 12004KT 6SM 26/24 A2968 RMK SLP053 T02600240 IEM_DS3505
ZGNN,2001-06-17 00:00,ZGNN 170000Z AUTO 14006KT 16SM 28/24 A2968 RMK SLP046 T02790244 52010 IEM_DS3505
ZGNN,2001-06-17 01:00,ZGNN 170100Z AUTO 14008KT 6SM 28/24 A2968 RMK SLP052 T02800240 IEM_DS3505
ZGNN,2001-06-17 02:00,ZGNN 170200Z AUTO 14006KT 19SM 30/24 A2968 RMK SLP051 T03000240 IEM_DS3505
ZGNN,2001-06-17 03:00,ZGNN 170300Z AUTO 18004KT 19SM 31/25 A2968 RMK SLP052 T03090247 52006 IEM_DS3505
ZGNN,2001-06-17 05:00,ZGNN 170500Z AUTO 13008KT RMK IEM_DS3505
ZGNN,2001-06-17 06:00,ZGNN 170600Z AUTO 18008KT 19SM 32/24 A2963 RMK SLP034 T03210236 57018 IEM_DS3505
ZGNN,2001-06-17 07:00,ZGNN 170700Z AUTO 13010KT 4SM RMK IEM_DS3505
ZGNN,2001-06-17 08:00,ZGNN 170800Z AUTO 22012KT 6SM 28/24 A2962 RMK SLP032 T02800240 IEM_DS3505
ZGNN,2001-06-17 09:00,ZGNN 170900Z AUTO 00000KT 19SM 27/25 A2959 RMK SLP026 T02660248 57009 IEM_DS3505
ZGNN,2001-06-17 10:00,ZGNN 171000Z AUTO 19SM 28/25 A2959 RMK SLP021 T02800250 IEM_DS3505
ZGNN,2001-06-17 11:00,ZGNN 171100Z AUTO 6SM 27/25 A2959 RMK SLP021 T02700250 IEM_DS3505
ZGNN,2001-06-17 12:00,ZGNN 171200Z AUTO 18002KT 17SM 28/25 A2962 RMK 60012 SLP028 T02780250 52003 IEM_DS3505
ZGNN,2001-06-17 13:00,ZGNN 171300Z AUTO 14002KT 6SM 27/24 A2962 RMK SLP032 T02700240 IEM_DS3505
ZGNN,2001-06-17 14:00,ZGNN 171400Z AUTO 10002KT 6SM 27/24 A2965 RMK SLP042 T02700240 IEM_DS3505
ZGNN,2001-06-17 15:00,ZGNN 171500Z AUTO 00000KT 16SM 26/25 A2964 RMK SLP039 T02640250 52011 IEM_DS3505
ZGNN,2001-06-17 18:00,ZGNN 171800Z AUTO 00000KT 12SM 26/25 A2964 RMK SLP036 T02580250 57003 IEM_DS3505
ZGNN,2001-06-17 21:00,ZGNN 172100Z AUTO 00000KT 9SM 26/25 A2965 RMK 70010 SLP035 T02560249 57002 IEM_DS3505
ZGNN,2001-06-17 22:00,ZGNN 172200Z AUTO 6SM 25/24 A2965 RMK SLP043 T02500240 IEM_DS3505
ZGNN,2001-06-17 23:00,ZGNN 172300Z AUTO 6SM 25/24 A2965 RMK SLP043 T02500240 IEM_DS3505
ZGNN,2001-06-18 00:00,ZGNN 180000Z AUTO 22004KT 9SM 27/26 A2968 RMK 70010 SLP046 T02720258 52011 IEM_DS3505
ZGNN,2001-06-18 01:00,ZGNN 180100Z AUTO 17006KT 6SM 29/24 A2968 RMK SLP052 T02900240 IEM_DS3505
ZGNN,2001-06-18 02:00,ZGNN 180200Z AUTO 6SM RMK IEM_DS3505
ZGNN,2001-06-18 03:00,ZGNN 180300Z AUTO 22006KT 19SM 30/24 A2965 RMK SLP040 T03030244 57005 IEM_DS3505
ZGNN,2001-06-18 04:00,ZGNN 180400Z AUTO 6SM 32/24 A2962 RMK SLP030 T03200240 IEM_DS3505
ZGNN,2001-06-18 06:00,ZGNN 180600Z AUTO 11006KT 19SM 33/25 A2959 RMK SLP021 T03290251 57019 IEM_DS3505
ZGNN,2001-06-18 07:00,ZGNN 180700Z AUTO 13010KT 32/24 A2956 RMK SLP009 T03200240 IEM_DS3505
ZGNN,2001-06-18 08:00,ZGNN 180800Z AUTO 11006KT 32/25 A2953 RMK SLP998 T03200250 IEM_DS3505
ZGNN,2001-06-18 09:00,ZGNN 180900Z AUTO 14006KT 19SM 34/26 A2950 RMK SLP994 T03350255 57026 IEM_DS3505
ZGNN,2001-06-18 10:00,ZGNN 181000Z AUTO 13010KT 6SM 32/25 A2950 RMK SLP988 T03200250 IEM_DS3505
ZGNN,2001-06-18 11:00,ZGNN 181100Z AUTO 14008KT 6SM 31/25 A2953 RMK SLP999 T03100250 IEM_DS3505
ZGNN,2001-06-18 12:00,ZGNN 181200Z AUTO 14004KT 19SM 30/25 A2953 RMK SLP004 T02980253 52009 IEM_DS3505
ZGNN,2001-06-18 13:00,ZGNN 181300Z AUTO 14006KT 6SM 28/25 A2956 RMK SLP010 T02800250 IEM_DS3505
ZGNN,2001-06-18 14:00,ZGNN 181400Z AUTO 14008KT 6SM 28/25 A2956 RMK SLP010 T02800250 IEM_DS3505
ZGNN,2001-06-18 15:00,ZGNN 181500Z AUTO 14006KT 16SM 28/26 A2956 RMK SLP016 T02790257 52012 IEM_DS3505
ZGNN,2001-06-18 16:00,ZGNN 181600Z AUTO 16004KT 6SM 27/25 A2956 RMK SLP011 T02700250 IEM_DS3505
ZGNN,2001-06-18 18:00,ZGNN 181800Z AUTO 18004KT 16SM 27/26 A2956 RMK SLP009 T02720255 57006 IEM_DS3505
ZGNN,2001-06-18 21:00,ZGNN 182100Z AUTO 22002KT 12SM 26/25 A2953 RMK SLP001 T02630253 57008 IEM_DS3505
ZGNN,2001-06-18 22:00,ZGNN 182200Z AUTO 07002KT 6SM 26/24 A2953 RMK SLP001 T02600240 IEM_DS3505
ZGNN,2001-06-18 23:00,ZGNN 182300Z AUTO 6SM 26/25 A2953 RMK SLP001 T02600250 IEM_DS3505
ZGNN,2001-06-19 00:00,ZGNN 190000Z AUTO 16002KT 9SM 28/26 A2956 RMK SLP007 T02760258 52005 IEM_DS3505
ZGNN,2001-06-19 01:00,ZGNN 190100Z AUTO 13006KT 28/24 A2956 RMK SLP010 T02800240 IEM_DS3505
ZGNN,2001-06-19 02:00,ZGNN 190200Z AUTO 8SM 30/24 A2956 RMK SLP009 T03000240 IEM_DS3505
ZGNN,2001-06-19 03:00,ZGNN 190300Z AUTO 18004KT 19SM 31/24 A2956 RMK SLP003 T03080240 57003 IEM_DS3505
ZGNN,2001-06-19 04:00,ZGNN 190400Z AUTO 6SM 32/23 A2953 RMK SLP998 T03200230 IEM_DS3505
ZGNN,2001-06-19 05:00,ZGNN 190500Z AUTO 6SM 32/24 A2953 RMK SLP998 T03200240 IEM_DS3505
ZGNN,2001-06-19 06:00,ZGNN 190600Z AUTO 18002KT 19SM 33/26 A2950 RMK SLP986 T03270257 57017 IEM_DS3505
ZGNN,2001-06-19 07:00,ZGNN 190700Z AUTO 33/25 A2947 RMK SLP978 T03300250 IEM_DS3505
ZGNN,2001-06-19 08:00,ZGNN 190800Z AUTO 13008KT RMK IEM_DS3505
ZGNN,2001-06-19 09:00,ZGNN 190900Z AUTO 18006KT 19SM 33/26 A2945 RMK SLP972 T03260257 57014 IEM_DS3505
ZGNN,2001-06-19 10:00,ZGNN 191000Z AUTO 23006KT 6SM RMK IEM_DS3505
ZGNN,2001-06-19 11:00,ZGNN 191100Z AUTO 6SM RMK IEM_DS3505
ZGNN,2001-06-19 12:00,ZGNN 191200Z AUTO 14002KT 17SM 30/27 A2948 RMK SLP983 T03020266 52011 IEM_DS3505
ZGNN,2001-06-19 13:00,ZGNN 191300Z AUTO 13006KT 6SM RMK IEM_DS3505
ZGNN,2001-06-19 14:00,ZGNN 191400Z AUTO 31SM RMK IEM_DS3505
ZGNN,2001-06-19 15:00,ZGNN 191500Z AUTO 18004KT 16SM 29/26 A2953 RMK SLP003 T02860261 52020 IEM_DS3505
ZGNN,2001-06-19 18:00,ZGNN 191800Z AUTO 14004KT 16SM 28/26 A2951 RMK SLP991 T02800261 57012 IEM_DS3505
ZGNN,2001-06-19 21:00,ZGNN 192100Z AUTO 00000KT 11SM 27/26 A2947 RMK SLP986 T02680257 57005 IEM_DS3505
ZGNN,2001-06-19 22:00,ZGNN 192200Z AUTO 02002KT 27/25 A2950 RMK SLP991 T02700250 IEM_DS3505
ZGNN,2001-06-19 23:00,ZGNN 192300Z AUTO 05004KT 27/25 A2953 RMK SLP001 T02700250 IEM_DS3505
ZGNN,2001-06-20 00:00,ZGNN 200000Z AUTO 09004KT 7SM 28/26 A2953 RMK SLP004 T02780261 52018 IEM_DS3505
ZGNN,2001-06-20 01:00,ZGNN 200100Z AUTO 13006KT 6SM RMK IEM_DS3505
ZGNN,2001-06-20 02:00,ZGNN 200200Z AUTO 14008KT 6SM RMK IEM_DS3505
ZGNN,2001-06-20 03:00,ZGNN 200300Z AUTO 14006KT 16SM 31/26 A2953 RMK SLP007 T03100262 52003 IEM_DS3505
ZGNN,2001-06-20 04:00,ZGNN 200400Z AUTO 13008KT 6SM 32/26 A2953 RMK SLP998 T03200260 IEM_DS3505
ZGNN,2001-06-20 05:00,ZGNN 200500Z AUTO 12010KT RMK IEM_DS3505
ZGNN,2001-06-20 06:00,ZGNN 200600Z AUTO 18006KT 16SM 32/26 A2950 RMK SLP993 T03220260 57014 IEM_DS3505
ZGNN,2001-06-20 07:00,ZGNN 200700Z AUTO 15SM RMK IEM_DS3505
ZGNN,2001-06-20 08:00,ZGNN 200800Z AUTO 12006KT 31/26 A2947 RMK SLP979 T03100260 IEM_DS3505
ZGNN,2001-06-20 09:00,ZGNN 200900Z AUTO 22010KT 16SM 31/27 A2947 RMK SLP987 T03090267 57006 IEM_DS3505
ZGNN,2001-06-20 10:00,ZGNN 201000Z AUTO 35002KT 28/25 A2947 RMK SLP980 T02800250 IEM_DS3505
ZGNN,2001-06-20 11:00,ZGNN 201100Z AUTO 6SM 28/25 A2950 RMK SLP990 T02800250 IEM_DS3505
ZGNN,2001-06-20 12:00,ZGNN 201200Z AUTO 32004KT 16SM 28/26 A2953 RMK 60003 SLP001 T02790261 52013 IEM_DS3505
ZGNN,2001-06-20 13:00,ZGNN 201300Z AUTO 36004KT 6SM RMK IEM_DS3505
ZGNN,2001-06-20 14:00,ZGNN 201400Z AUTO 20SM RMK IEM_DS3505
ZGNN,2001-06-20 15:00,ZGNN 201500Z AUTO 00000KT 16SM 27/26 A2959 RMK SLP021 T02720262 52020 IEM_DS3505
ZGNN,2001-06-20 16:00,ZGNN 201600Z AUTO 03002KT 27/25 A2959 RMK SLP021 T02700250 IEM_DS3505
ZGNN,2001-06-20 17:00,ZGNN 201700Z AUTO 05002KT 28/26 A2959 RMK SLP021 T02800260 IEM_DS3505
ZGNN,2001-06-20 18:00,ZGNN 201800Z AUTO 07002KT 16SM 28/26 A2956 RMK SLP009 T02760262 57011 IEM_DS3505
ZGNN,2001-06-20 19:00,ZGNN 201900Z AUTO 08002KT 27/26 A2956 RMK SLP011 T02700260 IEM_DS3505
ZGNN,2001-06-20 20:00,ZGNN 202000Z AUTO 04002KT 27/25 A2956 RMK SLP011 T02700250 IEM_DS3505
ZGNN,2001-06-20 21:00,ZGNN 202100Z AUTO 09002KT 12SM 27/26 A2956 RMK 70003 SLP016 T02730259 52006 IEM_DS3505
ZGNN,2001-06-20 22:00,ZGNN 202200Z AUTO 05002KT 22SM RMK IEM_DS3505
ZGNN,2001-06-20 23:00,ZGNN 202300Z AUTO 02004KT 6SM 27/25 A2959 RMK SLP021 T02700250 IEM_DS3505
ZGNN,2001-06-21 00:00,ZGNN 210000Z AUTO 00000KT 9SM 28/26 A2962 RMK 70003 SLP031 T02750260 52015 IEM_DS3505
ZGNN,2001-06-21 01:00,ZGNN 210100Z AUTO 01006KT 6SM 28/25 A2962 RMK SLP032 T02800250 IEM_DS3505
ZGNN,2001-06-21 02:00,ZGNN 210200Z AUTO 6SM 28/24 A2965 RMK SLP042 T02800240 IEM_DS3505
ZGNN,2001-06-21 03:00,ZGNN 210300Z AUTO 32006KT 16SM 26/25 A2965 RMK SLP045 T02650249 52013 IEM_DS3505
ZGNN,2001-06-21 04:00,ZGNN 210400Z AUTO 34006KT 10SM 27/24 A2965 RMK SLP042 T02700240 IEM_DS3505
ZGNN,2001-06-21 05:00,ZGNN 210500Z AUTO 02006KT 6SM 29/24 A2965 RMK SLP041 T02900240 IEM_DS3505
ZGNN,2001-06-21 06:00,ZGNN 210600Z AUTO 32010KT 19SM 29/24 A2963 RMK 60002 SLP033 T02940243 57011 IEM_DS3505
ZGNN,2001-06-21 07:00,ZGNN 210700Z AUTO 33008KT RMK IEM_DS3505
ZGNN,2001-06-21 08:00,ZGNN 210800Z AUTO 33010KT 6SM 29/24 A2959 RMK SLP020 T02900240 IEM_DS3505
ZGNN,2001-06-21 09:00,ZGNN 210900Z AUTO 34008KT 17SM 28/24 A2959 RMK SLP017 T02800243 57016 IEM_DS3505
ZGNN,2001-06-21 10:00,ZGNN 211000Z AUTO 35010KT 6SM RMK IEM_DS3505
ZGNN,2001-06-21 11:00,ZGNN 211100Z AUTO 32008KT 6SM 27/23 A2959 RMK SLP021 T02700230 IEM_DS3505
ZGNN,2001-06-21 12:00,ZGNN 211200Z AUTO 34006KT 16SM 26/23 A2962 RMK SLP035 T02630233 52017 IEM_DS3505
ZGNN,2001-06-21 13:00,ZGNN 211300Z AUTO 6SM 26/22 A2968 RMK SLP053 T02600220 IEM_DS3505
ZGNN,2001-06-21 14:00,ZGNN 211400Z AUTO 6SM RMK IEM_DS3505
ZGNN,2001-06-21 15:00,ZGNN 211500Z AUTO 34012KT 12SM 25/22 A2968 RMK SLP053 T02540219 52017 IEM_DS3505
ZGNN,2001-06-21 18:00,ZGNN 211800Z AUTO 32006KT 9SM 25/22 A2967 RMK SLP047 T02460216 57005 IEM_DS3505
ZGNN,2001-06-21 21:00,ZGNN 212100Z AUTO 18004KT 6SM 23/22 A2968 RMK 70037 SLP049 T02280221 52001 IEM_DS3505
ZGNN,2001-06-21 22:00,ZGNN 212200Z AUTO 35004KT 22/21 A2968 RMK SLP055 T02200210 IEM_DS3505
ZGNN,2001-06-21 23:00,ZGNN 212300Z AUTO 33006KT 23/21 A2968 RMK SLP054 T02300210 IEM_DS3505
ZGNN,2001-06-22 00:00,ZGNN 220000Z AUTO 32004KT 7SM 24/22 A2970 RMK 60094 SLP059 T02350222 52010 IEM_DS3505
ZGNN,2001-06-22 02:00,ZGNN 220200Z AUTO 26/22 A2971 RMK SLP062 T02600220 IEM_DS3505
ZGNN,2001-06-22 04:00,ZGNN 220400Z AUTO 33008KT 6SM RMK IEM_DS3505
ZGNN,2001-06-22 05:00,ZGNN 220500Z AUTO 34008KT 6SM 27/22 A2971 RMK SLP062 T02700220 IEM_DS3505
ZGNN,2001-06-22 06:00,ZGNN 220600Z AUTO 34008KT 14SM 28/24 A2968 RMK SLP052 T02760236 57013 IEM_DS3505
ZGNN,2001-06-22 07:00,ZGNN 220700Z AUTO 31008KT 6SM RMK IEM_DS3505
ZGNN,2001-06-22 08:00,ZGNN 220800Z AUTO 32010KT 6SM RMK IEM_DS3505
ZGNN,2001-06-22 09:00,ZGNN 220900Z AUTO 32012KT 16SM 29/25 A2962 RMK SLP032 T02880246 57020 IEM_DS3505
ZGNN,2001-06-22 10:00,ZGNN 221000Z AUTO 32010KT 6SM 28/23 A2962 RMK SLP032 T02800230 IEM_DS3505
ZGNN,2001-06-22 11:00,ZGNN 221100Z AUTO 34006KT 6SM 28/23 A2962 RMK SLP032 T02800230 IEM_DS3505
ZGNN,2001-06-22 12:00,ZGNN 221200Z AUTO 00000KT 16SM 27/24 A2965 RMK SLP043 T02700237 52010 IEM_DS3505
ZGNN,2001-06-22 13:00,ZGNN 221300Z AUTO 11SM 27/23 A2968 RMK SLP053 T02700230 IEM_DS3505
ZGNN,2001-06-22 14:00,ZGNN 221400Z AUTO 23002KT 6SM 26/24 A2968 RMK SLP053 T02600240 IEM_DS3505
ZGNN,2001-06-22 15:00,ZGNN 221500Z AUTO 00000KT 12SM 26/25 A2971 RMK SLP057 T02600246 52014 IEM_DS3505
ZGNN,2001-06-22 16:00,ZGNN 221600Z AUTO 25SM 26/23 A2971 RMK SLP062 T02600230 IEM_DS3505
ZGNN,2001-06-22 17:00,ZGNN 221700Z AUTO 25SM 26/23 A2968 RMK SLP053 T02600230 IEM_DS3505
ZGNN,2001-06-22 18:00,ZGNN 221800Z AUTO 32004KT 9SM 26/24 A2965 RMK SLP041 T02550238 57015 IEM_DS3505
ZGNN,2001-06-22 20:00,ZGNN 222000Z AUTO 25/23 A2962 RMK SLP033 T02500230 IEM_DS3505
ZGNN,2001-06-22 21:00,ZGNN 222100Z AUTO 34002KT 9SM 25/23 A2962 RMK 70061 SLP033 T02500227 57008 IEM_DS3505
ZGNN,2001-06-22 22:00,ZGNN 222200Z AUTO 6SM 25/23 A2965 RMK SLP043 T02500230 IEM_DS3505
ZGNN,2001-06-22 23:00,ZGNN 222300Z AUTO 6SM 25/23 A2965 RMK SLP043 T02500230 IEM_DS3505
ZGNN,2001-06-23 00:00,ZGNN 230000Z AUTO 32004KT 10SM 26/23 A2965 RMK SLP041 T02600234 52008 IEM_DS3505
ZGNN,2001-06-23 01:00,ZGNN 230100Z AUTO 6SM 27/23 A2968 RMK SLP053 T02700230 IEM_DS3505
ZGNN,2001-06-23 02:00,ZGNN 230200Z AUTO 35006KT 6SM RMK IEM_DS3505
ZGNN,2001-06-23 03:00,ZGNN 230300Z AUTO 36004KT 12SM 30/24 A2966 RMK SLP043 T02960245 52002 IEM_DS3505
ZGNN,2001-06-23 04:00,ZGNN 230400Z AUTO 6SM RMK IEM_DS3505
ZGNN,2001-06-23 06:00,ZGNN 230600Z AUTO 27002KT 19SM 32/24 A2961 RMK SLP027 T03150240 57015 IEM_DS3505
ZGNN,2001-06-23 07:00,ZGNN 230700Z AUTO 6SM RMK IEM_DS3505
ZGNN,2001-06-23 08:00,ZGNN 230800Z AUTO 6SM RMK IEM_DS3505
ZGNN,2001-06-23 09:00,ZGNN 230900Z AUTO 00000KT 19SM 33/25 A2956 RMK SLP007 T03300246 57019 IEM_DS3505
ZGNN,2001-06-23 10:00,ZGNN 231000Z AUTO 10006KT RMK IEM_DS3505
ZGNN,2001-06-23 11:00,ZGNN 231100Z AUTO 07004KT 6SM 31/25 A2956 RMK SLP009 T03100250 IEM_DS3505
ZGNN,2001-06-23 12:00,ZGNN 231200Z AUTO 04004KT 14SM 30/25 A2956 RMK SLP018 T02960248 52010 IEM_DS3505
ZGNN,2001-06-23 13:00,ZGNN 231300Z AUTO 03002KT 6SM 28/25 A2959 RMK SLP021 T02800250 IEM_DS3505
ZGNN,2001-06-23 14:00,ZGNN 231400Z AUTO 02002KT 28/24 A2962 RMK SLP032 T02800240 IEM_DS3505
ZGNN,2001-06-23 15:00,ZGNN 231500Z AUTO 00000KT 12SM 27/25 A2965 RMK SLP038 T02700250 52020 IEM_DS3505
ZGNN,2001-06-23 16:00,ZGNN 231600Z AUTO 27/24 A2965 RMK SLP042 T02700240 IEM_DS3505
ZGNN,2001-06-23 17:00,ZGNN 231700Z AUTO 27/24 A2965 RMK SLP042 T02700240 IEM_DS3505
ZGNN,2001-06-23 18:00,ZGNN 231800Z AUTO 00000KT 9SM 26/25 A2962 RMK SLP031 T02590248 57007 IEM_DS3505
ZGNN,2001-06-23 19:00,ZGNN 231900Z AUTO 26/25 A2962 RMK SLP033 T02600250 IEM_DS3505
ZGNN,2001-06-23 20:00,ZGNN 232000Z AUTO 26/24 A2962 RMK SLP033 T02600240 IEM_DS3505
ZGNN,2001-06-23 21:00,ZGNN 232100Z AUTO 00000KT 7SM 25/24 A2962 RMK SLP029 T02540245 57002 IEM_DS3505
ZGNN,2001-06-23 22:00,ZGNN 232200Z AUTO 01002KT 6SM 25/24 A2962 RMK SLP033 T02500240 IEM_DS3505
ZGNN,2001-06-23 23:00,ZGNN 232300Z AUTO 26/24 A2962 RMK SLP033 T02600240 IEM_DS3505
ZGNN,2001-06-24 00:00,ZGNN 240000Z AUTO 00000KT 2 1/2SM 27/26 A2965 RMK SLP037 T02740257 52008 IEM_DS3505
ZGNN,2001-06-24 01:00,ZGNN 240100Z AUTO 20SM 29/25 A2965 RMK SLP041 T02900250 IEM_DS3505
ZGNN,2001-06-24 02:00,ZGNN 240200Z AUTO 6SM RMK IEM_DS3505
ZGNN,2001-06-24 03:00,ZGNN 240300Z AUTO 00000KT 6SM 32/26 A2965 RMK SLP041 T03150261 52004 IEM_DS3505
ZGNN,2001-06-24 04:00,ZGNN 240400Z AUTO 6SM RMK IEM_DS3505
ZGNN,2001-06-24 05:00,ZGNN 240500Z AUTO 6SM RMK IEM_DS3505
ZGNN,2001-06-24 06:00,ZGNN 240600Z AUTO 00000KT 9SM 34/24 A2960 RMK SLP024 T03400239 57016 IEM_DS3505
ZGNN,2001-06-24 07:00,ZGNN 240700Z AUTO 6SM RMK IEM_DS3505
ZGNN,2001-06-24 08:00,ZGNN 240800Z AUTO 6SM RMK IEM_DS3505
ZGNN,2001-06-24 09:00,ZGNN 240900Z AUTO 18004KT 9SM 35/24 A2956 RMK SLP008 T03470244 57016 IEM_DS3505
ZGNN,2001-06-24 10:00,ZGNN 241000Z AUTO 08006KT 6SM RMK IEM_DS3505
ZGNN,2001-06-24 11:00,ZGNN 241100Z AUTO 17006KT 6SM RMK IEM_DS3505
ZGNN,2001-06-24 12:00,ZGNN 241200Z AUTO 14002KT 6SM 27/25 A2962 RMK 60043 SLP031 T02700253 52021 IEM_DS3505
ZGNN,2001-06-24 13:00,ZGNN 241300Z AUTO 6SM 28/25 A2962 RMK SLP032 T02800250 IEM_DS3505
ZGNN,2001-06-24 14:00,ZGNN 241400Z AUTO 04004KT 6SM 28/24 A2965 RMK SLP042 T02800240 IEM_DS3505
ZGNN,2001-06-24 15:00,ZGNN 241500Z AUTO 00000KT 7SM 27/24 A2968 RMK SLP049 T02740244 52019 IEM_DS3505
ZGNN,2001-06-24 16:00,ZGNN 241600Z AUTO 05004KT 16SM 27/24 A2968 RMK SLP053 T02700240 IEM_DS3505
ZGNN,2001-06-24 17:00,ZGNN 241700Z AUTO 08004KT 27/25 A2965 RMK SLP042 T02700250 IEM_DS3505
ZGNN,2001-06-24 18:00,ZGNN 241800Z AUTO 00000KT 7SM 27/25 A2965 RMK 60000 SLP038 T02660249 57010 IEM_DS3505
ZGNN,2001-06-24 19:00,ZGNN 241900Z AUTO 05004KT 26/24 A2965 RMK SLP043 T02600240 IEM_DS3505
ZGNN,2001-06-24 20:00,ZGNN 242000Z AUTO 02004KT 26/24 A2962 RMK SLP033 T02600240 IEM_DS3505
ZGNN,2001-06-24 21:00,ZGNN 242100Z AUTO 00000KT 7SM 26/25 A2962 RMK 70042 SLP033 T02590248 57005 IEM_DS3505
ZGNN,2001-06-24 22:00,ZGNN 242200Z AUTO 05004KT RMK IEM_DS3505
ZGNN,2001-06-24 23:00,ZGNN 242300Z AUTO 03004KT 26/24 A2965 RMK SLP043 T02600240 IEM_DS3505
ZGNN,2001-06-25 00:00,ZGNN 250000Z AUTO 00000KT 4SM 27/25 A2965 RMK 70042 SLP044 T02660253 52009 IEM_DS3505
ZGNN,2001-06-25 01:00,ZGNN 250100Z AUTO 28/25 A2965 RMK SLP042 T02800250 IEM_DS3505
ZGNN,2001-06-25 02:00,ZGNN 250200Z AUTO 6SM 29/25 A2965 RMK SLP041 T02900250 IEM_DS3505
ZGNN,2001-06-25 03:00,ZGNN 250300Z AUTO 00000KT 12SM 30/25 A2965 RMK SLP041 T03030253 57002 IEM_DS3505
ZGNN,2001-06-25 04:00,ZGNN 250400Z AUTO 6SM 31/25 A2965 RMK SLP040 T03100250 IEM_DS3505
ZGNN,2001-06-25 05:00,ZGNN 250500Z AUTO 6SM RMK IEM_DS3505
ZGNN,2001-06-25 06:00,ZGNN 250600Z AUTO 32008KT 16SM 32/26 A2959 RMK SLP020 T03190263 57021 IEM_DS3505
ZGNN,2001-06-25 07:00,ZGNN 250700Z AUTO 16006KT 6SM 29/24 A2959 RMK SLP020 T02900240 IEM_DS3505
ZGNN,2001-06-25 08:00,ZGNN 250800Z AUTO 08004KT 6SM 28/24 A2956 RMK SLP010 T02800240 IEM_DS3505
ZGNN,2001-06-25 09:00,ZGNN 250900Z AUTO 09004KT 12SM 30/26 A2956 RMK SLP013 T02950255 57007 IEM_DS3505
ZGNN,2001-06-25 10:00,ZGNN 251000Z AUTO 6SM 28/24 A2959 RMK SLP021 T02800240 IEM_DS3505
ZGNN,2001-06-25 11:00,ZGNN 251100Z AUTO 10002KT 6SM 28/25 A2959 RMK SLP021 T02800250 IEM_DS3505
ZGNN,2001-06-25 12:00,ZGNN 251200Z AUTO 00000KT 11SM 28/25 A2959 RMK 60004 SLP023 T02770253 52009 IEM_DS3505
ZGNN,2001-06-25 13:00,ZGNN 251300Z AUTO 6SM 27/24 A2959 RMK SLP021 T02700240 IEM_DS3505
ZGNN,2001-06-25 14:00,ZGNN 251400Z AUTO 6SM 27/24 A2962 RMK SLP032 T02700240 IEM_DS3505
ZGNN,2001-06-25 15:00,ZGNN 251500Z AUTO 00000KT 9SM 26/25 A2962 RMK SLP027 T02620251 52005 IEM_DS3505
ZGNN,2001-06-25 16:00,ZGNN 251600Z AUTO 26/25 A2962 RMK SLP033 T02600250 IEM_DS3505
ZGNN,2001-06-25 17:00,ZGNN 251700Z AUTO 26/24 A2962 RMK SLP033 T02600240 IEM_DS3505
ZGNN,2001-06-25 18:00,ZGNN 251800Z AUTO 00000KT 7SM 26/25 A2959 RMK SLP022 T02570249 57005 IEM_DS3505
ZGNN,2001-06-25 19:00,ZGNN 251900Z AUTO 35002KT 26/24 A2959 RMK SLP022 T02600240 IEM_DS3505
ZGNN,2001-06-25 20:00,ZGNN 252000Z AUTO 26/24 A2956 RMK SLP011 T02600240 IEM_DS3505
ZGNN,2001-06-25 21:00,ZGNN 252100Z AUTO 00000KT 7SM 25/24 A2959 RMK 70004 SLP016 T02510245 57006 IEM_DS3505
ZGNN,2001-06-25 22:00,ZGNN 252200Z AUTO 6SM 26/24 A2959 RMK SLP022 T02600240 IEM_DS3505
ZGNN,2001-06-25 23:00,ZGNN 252300Z AUTO 6SM 26/24 A2959 RMK SLP022 T02600240 IEM_DS3505
ZGNN,2001-06-26 00:00,ZGNN 260000Z AUTO 09002KT 2SM 27/26 A2962 RMK 70004 SLP028 T02680255 52011 IEM_DS3505
ZGNN,2001-06-26 01:00,ZGNN 260100Z AUTO 6SM 28/24 A2962 RMK SLP032 T02800240 IEM_DS3505
ZGNN,2001-06-26 02:00,ZGNN 260200Z AUTO 6SM RMK IEM_DS3505
ZGNN,2001-06-26 03:00,ZGNN 260300Z AUTO 09004KT 7SM 30/25 A2959 RMK SLP022 T03010252 57005 IEM_DS3505
ZGNN,2001-06-26 04:00,ZGNN 260400Z AUTO 6SM 31/23 A2959 RMK SLP019 T03100230 IEM_DS3505
ZGNN,2001-06-26 06:00,ZGNN 260600Z AUTO 09006KT 16SM 32/24 A2953 RMK SLP000 T03170245 57022 IEM_DS3505
ZGNN,2001-06-26 07:00,ZGNN 260700Z AUTO 07006KT 32/24 A2950 RMK SLP988 T03200240 IEM_DS3505
ZGNN,2001-06-26 08:00,ZGNN 260800Z AUTO 10SM 32/24 A2950 RMK SLP988 T03200240 IEM_DS3505
ZGNN,2001-06-26 09:00,ZGNN 260900Z AUTO 09002KT 12SM 32/25 A2950 RMK SLP986 T03220248 57013 IEM_DS3505
ZGNN,2001-06-26 10:00,ZGNN 261000Z AUTO 06004KT 6SM 31/25 A2950 RMK SLP989 T03100250 IEM_DS3505
ZGNN,2001-06-26 11:00,ZGNN 261100Z AUTO 10SM RMK IEM_DS3505
ZGNN,2001-06-26 12:00,ZGNN 261200Z AUTO 33002KT 6SM 28/25 A2953 RMK SLP000 T02800250 IEM_DS3505
ZGNN,2001-06-26 13:00,ZGNN 261300Z AUTO 6SM 28/25 A2956 RMK SLP010 T02800250 IEM_DS3505
ZGNN,2001-06-26 14:00,ZGNN 261400Z AUTO 05004KT 28/25 A2956 RMK SLP010 T02800250 IEM_DS3505
ZGNN,2001-06-26 15:00,ZGNN 261500Z AUTO 00000KT 12SM 28/25 A2959 RMK SLP024 T02790249 52018 IEM_DS3505
ZGNN,2001-06-26 16:00,ZGNN 261600Z AUTO 05004KT 26/25 A2959 RMK SLP022 T02600250 IEM_DS3505
ZGNN,2001-06-26 17:00,ZGNN 261700Z AUTO 27/24 A2956 RMK SLP011 T02700240 IEM_DS3505
ZGNN,2001-06-26 18:00,ZGNN 261800Z AUTO 00000KT 9SM 26/25 A2956 RMK SLP014 T02640250 57010 IEM_DS3505
ZGNN,2001-06-26 19:00,ZGNN 261900Z AUTO 03006KT 26/24 A2953 RMK SLP001 T02600240 IEM_DS3505
ZGNN,2001-06-26 20:00,ZGNN 262000Z AUTO 01002KT 26/24 A2953 RMK SLP001 T02600240 IEM_DS3505
ZGNN,2001-06-26 21:00,ZGNN 262100Z AUTO 00000KT 7SM 26/25 A2956 RMK SLP003 T02640250 57010 IEM_DS3505
ZGNN,2001-06-26 22:00,ZGNN 262200Z AUTO 05002KT 6SM 26/24 A2956 RMK SLP011 T02600240 IEM_DS3505
ZGNN,2001-06-26 23:00,ZGNN 262300Z AUTO 05002KT 6SM 26/23 A2956 RMK SLP011 T02600230 IEM_DS3505
ZGNN,2001-06-27 00:00,ZGNN 270000Z AUTO 36004KT 7SM 27/25 A2959 RMK 70002 SLP022 T02710248 52018 IEM_DS3505
ZGNN,2001-06-27 01:00,ZGNN 270100Z AUTO 04006KT 6SM 27/24 A2959 RMK SLP021 T02700240 IEM_DS3505
ZGNN,2001-06-27 02:00,ZGNN 270200Z AUTO 04010KT 28/24 A2962 RMK SLP032 T02800240 IEM_DS3505
ZGNN,2001-06-27 03:00,ZGNN 270300Z AUTO 07006KT 9SM 28/25 A2959 RMK SLP023 T02810249 52001 IEM_DS3505
ZGNN,2001-06-27 04:00,ZGNN 270400Z AUTO 03006KT 6SM RMK IEM_DS3505
ZGNN,2001-06-27 05:00,ZGNN 270500Z AUTO 07008KT 29/24 A2956 RMK SLP010 T02900240 IEM_DS3505
ZGNN,2001-06-27 06:00,ZGNN 270600Z AUTO 14004KT 19SM 29/24 A2956 RMK 60003 SLP007 T02900236 57016 IEM_DS3505
ZGNN,2001-06-27 07:00,ZGNN 270700Z AUTO 07012KT 29/23 A2953 RMK SLP000 T02900230 IEM_DS3505
ZGNN,2001-06-27 08:00,ZGNN 270800Z AUTO 08006KT 28/23 A2953 RMK SLP000 T02800230 IEM_DS3505
ZGNN,2001-06-27 09:00,ZGNN 270900Z AUTO 07004KT 9SM 26/25 A2953 RMK SLP000 T02620248 57008 IEM_DS3505
ZGNN,2001-06-27 10:00,ZGNN 271000Z AUTO 05010KT 6SM 26/24 A2953 RMK SLP001 T02600240 IEM_DS3505
ZGNN,2001-06-27 11:00,ZGNN 271100Z AUTO 06008KT 6SM RMK IEM_DS3505
ZGNN,2001-06-27 12:00,ZGNN 271200Z AUTO 09006KT 12SM 25/24 A2956 RMK 60003 SLP017 T02520236 52017 IEM_DS3505
ZGNN,2001-06-27 13:00,ZGNN 271300Z AUTO 08008KT 6SM 25/23 A2959 RMK SLP022 T02500230 IEM_DS3505
ZGNN,2001-06-27 14:00,ZGNN 271400Z AUTO 09010KT 6SM 25/23 A2962 RMK SLP033 T02500230 IEM_DS3505
ZGNN,2001-06-27 15:00,ZGNN 271500Z AUTO 14006KT 12SM 25/24 A2962 RMK SLP034 T02510238 52017 IEM_DS3505
ZGNN,2001-06-27 18:00,ZGNN 271800Z AUTO 14006KT 9SM 24/24 A2962 RMK 60002 SLP028 T02450236 57006 IEM_DS3505
ZGNN,2001-06-27 19:00,ZGNN 271900Z AUTO 10004KT 24/23 A2959 RMK SLP023 T02400230 IEM_DS3505
ZGNN,2001-06-27 21:00,ZGNN 272100Z AUTO 16004KT 7SM 24/24 A2962 RMK 70025 SLP029 T02430239 54000 IEM_DS3505
ZGNN,2001-06-27 22:00,ZGNN 272200Z AUTO 06006KT 24/23 A2962 RMK SLP034 T02400230 IEM_DS3505
ZGNN,2001-06-27 23:00,ZGNN 272300Z AUTO 09006KT 6SM 24/23 A2965 RMK SLP044 T02400230 IEM_DS3505
ZGNN,2001-06-28 00:00,ZGNN 280000Z AUTO 11006KT 7SM 24/24 A2965 RMK 60063 SLP039 T02440237 52010 IEM_DS3505
ZGNN,2001-06-28 01:00,ZGNN 280100Z AUTO 10006KT 6SM 25/23 A2965 RMK SLP043 T02500230 IEM_DS3505
ZGNN,2001-06-28 02:00,ZGNN 280200Z AUTO 11008KT 6SM 26/23 A2968 RMK SLP053 T02600230 IEM_DS3505
ZGNN,2001-06-28 03:00,ZGNN 280300Z AUTO 14008KT 19SM 29/24 A2965 RMK SLP040 T02880241 52002 IEM_DS3505
ZGNN,2001-06-28 04:00,ZGNN 280400Z AUTO 19012KT 6SM 23/22 A2968 RMK SLP054 T02300220 IEM_DS3505
ZGNN,2001-06-28 05:00,ZGNN 280500Z AUTO 16004KT 6SM 24/23 A2965 RMK SLP044 T02400230 IEM_DS3505
ZGNN,2001-06-28 06:00,ZGNN 280600Z AUTO 18004KT 4SM 25/24 A2965 RMK 60094 SLP042 T02500244 52001 IEM_DS3505
ZGNN,2001-06-28 07:00,ZGNN 280700Z AUTO 12004KT 7SM 26/24 A2965 RMK SLP043 T02600240 IEM_DS3505
ZGNN,2001-06-28 08:00,ZGNN 280800Z AUTO 11006KT 19SM 26/24 A2962 RMK SLP033 T02600240 IEM_DS3505
ZGNN,2001-06-28 09:00,ZGNN 280900Z AUTO 14008KT 12SM 27/25 A2962 RMK SLP029 T02660246 57012 IEM_DS3505
ZGNN,2001-06-28 10:00,ZGNN 281000Z AUTO 17006KT 6SM 26/23 A2959 RMK SLP022 T02600230 IEM_DS3505
ZGNN,2001-06-28 11:00,ZGNN 281100Z AUTO 6SM RMK IEM_DS3505
ZGNN,2001-06-28 12:00,ZGNN 281200Z AUTO 00000KT 17SM 26/24 A2965 RMK 60004 SLP038 T02560243 52008 IEM_DS3505
ZGNN,2001-06-28 13:00,ZGNN 281300Z AUTO 10004KT 6SM 25/23 A2968 RMK SLP053 T02500230 IEM_DS3505
ZGNN,2001-06-28 14:00,ZGNN 281400Z AUTO 05004KT 6SM 24/23 A2968 RMK SLP054 T02400230 IEM_DS3505
ZGNN,2001-06-28 15:00,ZGNN 281500Z AUTO 00000KT 15SM 25/24 A2968 RMK SLP053 T02500238 52016 IEM_DS3505
ZGNN,2001-06-28 18:00,ZGNN 281800Z AUTO 00000KT 12SM 25/24 A2967 RMK SLP049 T02490239 57005 IEM_DS3505
ZGNN,2001-06-28 21:00,ZGNN 282100Z AUTO 07004KT 7SM 25/25 A2968 RMK 70141 SLP047 T02500246 57002 IEM_DS3505
ZGNN,2001-06-28 22:00,ZGNN 282200Z AUTO 25/24 A2968 RMK SLP053 T02500240 IEM_DS3505
ZGNN,2001-06-28 23:00,ZGNN 282300Z AUTO 07004KT 6SM 25/24 A2971 RMK SLP063 T02500240 IEM_DS3505
ZGNN,2001-06-29 00:00,ZGNN 290000Z AUTO 04004KT 7SM 26/25 A2971 RMK 60002 SLP058 T02600250 52011 IEM_DS3505
ZGNN,2001-06-29 01:00,ZGNN 290100Z AUTO 6SM RMK IEM_DS3505
ZGNN,2001-06-29 02:00,ZGNN 290200Z AUTO 10006KT 6SM RMK IEM_DS3505
ZGNN,2001-06-29 03:00,ZGNN 290300Z AUTO 09004KT 11SM 27/25 A2972 RMK SLP066 T02660249 52008 IEM_DS3505
ZGNN,2001-06-29 04:00,ZGNN 290400Z AUTO 08006KT 6SM RMK IEM_DS3505
ZGNN,2001-06-29 05:00,ZGNN 290500Z AUTO 11006KT RMK IEM_DS3505
ZGNN,2001-06-29 06:00,ZGNN 290600Z AUTO 14008KT 16SM 30/25 A2968 RMK 60003 SLP053 T02980247 57012 IEM_DS3505
ZGNN,2001-06-29 07:00,ZGNN 290700Z AUTO 13006KT 9SM 29/24 A2965 RMK SLP041 T02900240 IEM_DS3505
ZGNN,2001-06-29 08:00,ZGNN 290800Z AUTO 14006KT 6SM 30/25 A2965 RMK SLP041 T03000250 IEM_DS3505
ZGNN,2001-06-29 09:00,ZGNN 290900Z AUTO 14004KT 19SM 31/25 A2963 RMK SLP033 T03080246 57019 IEM_DS3505
ZGNN,2001-06-29 10:00,ZGNN 291000Z AUTO 17008KT 6SM 29/23 A2962 RMK SLP031 T02900230 IEM_DS3505
ZGNN,2001-06-29 11:00,ZGNN 291100Z AUTO 14006KT 6SM 29/24 A2965 RMK SLP041 T02900240 IEM_DS3505
ZGNN,2001-06-29 12:00,ZGNN 291200Z AUTO 00000KT 16SM 28/24 A2967 RMK 60003 SLP047 T02780244 52013 IEM_DS3505
ZGNN,2001-06-29 13:00,ZGNN 291300Z AUTO 12004KT 27/24 A2971 RMK SLP062 T02700240 IEM_DS3505
ZGNN,2001-06-29 15:00,ZGNN 291500Z AUTO 18002KT 12SM 27/25 A2972 RMK SLP067 T02680248 52020 IEM_DS3505
ZGNN,2001-06-29 17:00,ZGNN 291700Z AUTO 26/24 A2974 RMK SLP072 T02600240 IEM_DS3505
ZGNN,2001-06-29 18:00,ZGNN 291800Z AUTO 00000KT 11SM 26/24 A2971 RMK SLP060 T02600243 57007 IEM_DS3505
ZGNN,2001-06-29 19:00,ZGNN 291900Z AUTO 25/23 A2971 RMK SLP063 T02500230 IEM_DS3505
ZGNN,2001-06-29 20:00,ZGNN 292000Z AUTO 25/23 A2971 RMK SLP063 T02500230 IEM_DS3505
ZGNN,2001-06-29 21:00,ZGNN 292100Z AUTO 00000KT 9SM 26/25 A2968 RMK 70000 SLP055 T02560247 57005 IEM_DS3505
ZGNN,2001-06-29 22:00,ZGNN 292200Z AUTO 04004KT 6SM 25/24 A2971 RMK SLP063 T02500240 IEM_DS3505
ZGNN,2001-06-29 23:00,ZGNN 292300Z AUTO 04006KT 6SM 25/24 A2971 RMK SLP063 T02500240 IEM_DS3505
ZGNN,2001-06-30 00:00,ZGNN 300000Z AUTO 00000KT 5SM 26/25 A2971 RMK 70003 SLP063 T02590248 52008 IEM_DS3505
ZGNN,2001-06-30 01:00,ZGNN 300100Z AUTO 6SM 27/24 A2971 RMK SLP062 T02700240 IEM_DS3505
ZGNN,2001-06-30 02:00,ZGNN 300200Z AUTO 6SM 29/23 A2974 RMK SLP071 T02900230 IEM_DS3505
ZGNN,2001-06-30 03:00,ZGNN 300300Z AUTO 25002KT 19SM 30/24 A2971 RMK SLP062 T02990244 57001 IEM_DS3505
ZGNN,2001-06-30 04:00,ZGNN 300400Z AUTO 6SM 30/23 A2971 RMK SLP060 T03000230 IEM_DS3505
ZGNN,2001-06-30 06:00,ZGNN 300600Z AUTO 18006KT 19SM 32/23 A2965 RMK SLP041 T03220226 57020 IEM_DS3505
ZGNN,2001-06-30 07:00,ZGNN 300700Z AUTO 6SM 33/23 A2965 RMK SLP040 T03300230 IEM_DS3505
ZGNN,2001-06-30 08:00,ZGNN 300800Z AUTO 6SM 33/23 A2962 RMK SLP029 T03300230 IEM_DS3505
ZGNN,2001-06-30 09:00,ZGNN 300900Z AUTO 34004KT 19SM 33/23 A2959 RMK SLP017 T03280228 57024 IEM_DS3505
ZGNN,2001-06-30 10:00,ZGNN 301000Z AUTO 6SM RMK IEM_DS3505
ZGNN,2001-06-30 11:00,ZGNN 301100Z AUTO 10004KT 6SM 32/23 A2959 RMK SLP019 T03200230 IEM_DS3505
ZGNN,2001-06-30 12:00,ZGNN 301200Z AUTO 00000KT 19SM 30/24 A2962 RMK SLP029 T03000244 52012 IEM_DS3505
ZGNN,2001-06-30 13:00,ZGNN 301300Z AUTO 03004KT 6SM 29/24 A2965 RMK SLP041 T02900240 IEM_DS3505
ZGNN,2001-06-30 14:00,ZGNN 301400Z AUTO 02004KT 6SM 29/23 A2965 RMK SLP041 T02900230 IEM_DS3505
ZGNN,2001-06-30 15:00,ZGNN 301500Z AUTO 00000KT 19SM 27/25 A2966 RMK SLP044 T02730250 52015 IEM_DS3505
ZGNN,2001-06-30 17:00,ZGNN 301700Z AUTO 27/25 A2965 RMK SLP042 T02700250 IEM_DS3505
ZGNN,2001-06-30 18:00,ZGNN 301800Z AUTO 00000KT 12SM 27/25 A2962 RMK SLP030 T02660252 57014 IEM_DS3505
ZGNN,2001-06-30 19:00,ZGNN 301900Z AUTO 26/24 A2959 RMK SLP022 T02600240 IEM_DS3505
ZGNN,2001-06-30 20:00,ZGNN 302000Z AUTO 26/24 A2959 RMK SLP022 T02600240 IEM_DS3505
ZGNN,2001-06-30 21:00,ZGNN 302100Z AUTO 11002KT 12SM 27/25 A2962 RMK SLP026 T02680251 57003 IEM_DS3505
ZGNN,2001-07-01 00:00,ZGNN 010000Z AUTO 00000KT 7SM 28/26 A2962 RMK SLP032 T02760256 52005 IEM_DS3505
ZGNN,2001-07-01 01:00,ZGNN 010100Z AUTO 05006KT 6SM 29/24 A2962 RMK T02900240 IEM_DS3505
ZGNN,2001-07-01 02:00,ZGNN 010200Z AUTO 05006KT 11SM 29/24 A2965 RMK T02900240 IEM_DS3505
ZGNN,2001-07-01 03:00,ZGNN 010300Z AUTO 09002KT 4SM 23/22 A2965 RMK T02320223 52007 IEM_DS3505
ZGNN,2001-07-01 04:00,ZGNN 010400Z AUTO 04012KT 6SM RMK IEM_DS3505
ZGNN,2001-07-01 05:00,ZGNN 010500Z AUTO 03008KT RMK IEM_DS3505
ZGNN,2001-07-01 06:00,ZGNN 010600Z AUTO 04004KT 19SM 33/23 RMK SLP010 T03320233 57023 IEM_DS3505
ZGNN,2001-07-01 07:00,ZGNN 010700Z AUTO 04014KT 6SM RMK IEM_DS3505
ZGNN,2001-07-01 08:00,ZGNN 010800Z AUTO 05010KT 6SM 34/23 A2953 RMK T03400230 IEM_DS3505
ZGNN,2001-07-01 09:00,ZGNN 010900Z AUTO 04004KT 19SM 33/24 RMK SLP989 T03320236 57021 IEM_DS3505
ZGNN,2001-07-01 10:00,ZGNN 011000Z AUTO 05008KT 6SM RMK IEM_DS3505
ZGNN,2001-07-01 11:00,ZGNN 011100Z AUTO 05008KT RMK IEM_DS3505
ZGNN,2001-07-01 12:00,ZGNN 011200Z AUTO 00000KT 16SM 30/25 RMK SLP999 T03000251 52010 IEM_DS3505
ZGNN,2001-07-01 13:00,ZGNN 011300Z AUTO 01006KT 6SM 30/24 A2953 RMK T03000240 IEM_DS3505
ZGNN,2001-07-01 14:00,ZGNN 011400Z AUTO 36006KT RMK IEM_DS3505
ZGNN,2001-07-01 15:00,ZGNN 011500Z AUTO 34004KT 12SM 28/25 A2956 RMK SLP012 T02850251 52013 IEM_DS3505
ZGNN,2001-07-01 18:00,ZGNN 011800Z AUTO 34004KT 9SM 26/24 A2950 RMK 60004 SLP992 T02620245 57020 IEM_DS3505
ZGNN,2001-07-01 19:00,ZGNN 011900Z AUTO 34004KT 26/24 A2947 RMK T02600240 IEM_DS3505
ZGNN,2001-07-01 21:00,ZGNN 012100Z AUTO 34008KT 7SM 26/24 A2944 RMK 70004 SLP974 T02580244 57018 IEM_DS3505
ZGNN,2001-07-01 22:00,ZGNN 012200Z AUTO 35008KT 6SM 26/23 A2944 RMK T02600230 IEM_DS3505
ZGNN,2001-07-01 23:00,ZGNN 012300Z AUTO 34008KT 6SM RMK IEM_DS3505
ZGNN,2001-07-02 00:00,ZGNN 020000Z AUTO 36008KT 16SM 27/23 RMK 60000 SLP978 T02740231 52004 IEM_DS3505
ZGNN,2001-07-02 01:00,ZGNN 020100Z AUTO 35010KT 6SM RMK IEM_DS3505
ZGNN,2001-07-02 02:00,ZGNN 020200Z AUTO 35010KT 6SM 28/23 A2947 RMK T02800230 IEM_DS3505
ZGNN,2001-07-02 03:00,ZGNN 020300Z AUTO 36012KT 6SM 27/23 A2944 RMK SLP977 T02670229 57002 IEM_DS3505
ZGNN,2001-07-02 04:00,ZGNN 020400Z AUTO 34010KT 6SM 26/23 A2944 RMK T02600230 IEM_DS3505
ZGNN,2001-07-02 05:00,ZGNN 020500Z AUTO 34012KT 4SM 25/24 A2941 RMK SLP962 T02500237 57017 IEM_DS3505
ZGNN,2001-07-02 06:00,ZGNN 020600Z AUTO 34016G23KT 2 1/2SM 25/24 A2938 RMK 60043 SLP952 T02490236 57025 IEM_DS3505
ZGNN,2001-07-02 07:00,ZGNN 020700Z AUTO 34016G27KT 6SM 25/23 A2935 RMK T02500230 IEM_DS3505
ZGNN,2001-07-02 08:00,ZGNN 020800Z AUTO 35016G25KT 6SM 25/23 A2932 RMK T02500230 IEM_DS3505
ZGNN,2001-07-02 09:00,ZGNN 020900Z AUTO 36012G29KT 2 1/2SM 24/24 RMK SLP929 T02450235 57023 IEM_DS3505
ZGNN,2001-07-02 10:00,ZGNN 021000Z AUTO 36025G39KT 24/23 A2929 RMK T02400230 IEM_DS3505
ZGNN,2001-07-02 11:00,ZGNN 021100Z AUTO 02027G39KT 6SM RMK IEM_DS3505
ZGNN,2001-07-02 12:00,ZGNN 021200Z AUTO 04012KT 2SM 25/24 A2932 RMK 60185 SLP942 T02460239 52013 IEM_DS3505
ZGNN,2001-07-02 13:00,ZGNN 021300Z AUTO 05027G37KT 6SM RMK IEM_DS3505
ZGNN,2001-07-02 14:00,ZGNN 021400Z AUTO 06025G35KT 6SM RMK IEM_DS3505
ZGNN,2001-07-02 15:00,ZGNN 021500Z AUTO 07012G27KT 2 1/2SM 25/24 RMK SLP963 T02480236 52021 IEM_DS3505
ZGNN,2001-07-02 16:00,ZGNN 021600Z AUTO 07017KT 24/23 A2941 RMK T02400230 IEM_DS3505
ZGNN,2001-07-02 17:00,ZGNN 021700Z AUTO 08014KT 24/23 A2941 RMK T02400230 IEM_DS3505
ZGNN,2001-07-02 18:00,ZGNN 021800Z AUTO 09014KT 2SM 24/24 A2938 RMK 60319 SLP959 T02430240 57005 IEM_DS3505
ZGNN,2001-07-02 19:00,ZGNN 021900Z AUTO 10016KT 25/23 A2938 RMK T02500230 IEM_DS3505
ZGNN,2001-07-02 20:00,ZGNN 022000Z AUTO 10014KT 25/23 A2938 RMK T02500230 IEM_DS3505
ZGNN,2001-07-02 21:00,ZGNN 022100Z AUTO 09008KT 2 1/2SM 25/24 A2938 RMK 70675 SLP955 T02460240 57004 IEM_DS3505
ZGNN,2001-07-02 22:00,ZGNN 022200Z AUTO 12017G29KT 11SM RMK IEM_DS3505
ZGNN,2001-07-02 23:00,ZGNN 022300Z AUTO 11010KT 24/23 A2944 RMK T02400230 IEM_DS3505
ZGNN,2001-07-03 00:00,ZGNN 030000Z AUTO 14008KT 2 1/2SM 25/24 A2944 RMK 60280 SLP981 T02470240 52026 IEM_DS3505
ZGNN,2001-07-03 01:00,ZGNN 030100Z AUTO 09016KT 7SM 25/23 A2947 RMK T02500230 IEM_DS3505
ZGNN,2001-07-03 02:00,ZGNN 030200Z AUTO 10016KT 16SM 25/23 A2950 RMK T02500230 IEM_DS3505
ZGNN,2001-07-03 03:00,ZGNN 030300Z AUTO 14008KT 2SM 25/24 A2953 RMK SLP997 T02470240 52016 IEM_DS3505
ZGNN,2001-07-03 04:00,ZGNN 030400Z AUTO 12012KT 6SM 24/23 A2953 RMK T02400230 IEM_DS3505
ZGNN,2001-07-03 05:00,ZGNN 030500Z AUTO 13012KT 24/23 A2953 RMK T02400230 IEM_DS3505
ZGNN,2001-07-03 06:00,ZGNN 030600Z AUTO 14010KT 4SM 24/23 A2953 RMK 60260 SLP007 T02430234 52009 IEM_DS3505
ZGNN,2001-07-03 07:00,ZGNN 030700Z AUTO 11008KT 23/22 A2953 RMK T02300220 IEM_DS3505
ZGNN,2001-07-03 08:00,ZGNN 030800Z AUTO 10004KT 24/22 A2953 RMK T02400220 IEM_DS3505
ZGNN,2001-07-03 09:00,ZGNN 030900Z AUTO 04002KT 12SM 25/24 A2950 RMK SLP996 T02460243 57010 IEM_DS3505
ZGNN,2001-07-03 10:00,ZGNN 031000Z AUTO 06004KT 6SM 26/24 A2953 RMK T02600240 IEM_DS3505
ZGNN,2001-07-03 11:00,ZGNN 031100Z AUTO 07008KT 26/24 A2953 RMK T02600240 IEM_DS3505
ZGNN,2001-07-03 12:00,ZGNN 031200Z AUTO 14006KT 11SM 26/24 A2959 RMK 60051 SLP014 T02620245 52018 IEM_DS3505
ZGNN,2001-07-03 15:00,ZGNN 031500Z AUTO 09004KT 12SM 26/24 RMK SLP040 T02560243 52025 IEM_DS3505
ZGNN,2001-07-03 18:00,ZGNN 031800Z AUTO 09004KT 16SM 25/24 RMK 60002 SLP034 T02520236 57006 IEM_DS3505
ZGNN,2001-07-03 21:00,ZGNN 032100Z AUTO 09002KT 12SM 25/23 RMK 70459 SLP033 T02460231 57001 IEM_DS3505
ZGNN,2001-07-03 22:00,ZGNN 032200Z AUTO 04006KT 6SM RMK IEM_DS3505
ZGNN,2001-07-03 23:00,ZGNN 032300Z AUTO 06004KT RMK IEM_DS3505
ZGNN,2001-07-04 00:00,ZGNN 040000Z AUTO 09006KT 12SM 26/24 A2962 RMK 70311 SLP034 T02550236 52002 IEM_DS3505
ZGNN,2001-07-04 01:00,ZGNN 040100Z AUTO 08006KT 12SM RMK IEM_DS3505
ZGNN,2001-07-04 02:00,ZGNN 040200Z AUTO 09006KT 6SM RMK IEM_DS3505
ZGNN,2001-07-04 03:00,ZGNN 040300Z AUTO 09006KT 16SM 28/24 RMK SLP036 T02850236 52002 IEM_DS3505
ZGNN,2001-07-04 04:00,ZGNN 040400Z AUTO 08004KT 6SM 29/23 A2962 RMK T02900230 IEM_DS3505
ZGNN,2001-07-04 05:00,ZGNN 040500Z AUTO 06006KT 29/24 A2962 RMK T02900240 IEM_DS3505
ZGNN,2001-07-04 06:00,ZGNN 040600Z AUTO 14004KT 19SM 30/25 A2959 RMK SLP021 T03040248 57014 IEM_DS3505
ZGNN,2001-07-04 07:00,ZGNN 040700Z AUTO 31/23 A2956 RMK T03100230 IEM_DS3505
ZGNN,2001-07-04 08:00,ZGNN 040800Z AUTO 6SM RMK IEM_DS3505
ZGNN,2001-07-04 09:00,ZGNN 040900Z AUTO 14002KT 19SM 31/24 A2953 RMK SLP002 T03080245 57019 IEM_DS3505
ZGNN,2001-07-04 10:00,ZGNN 041000Z AUTO 30/24 A2953 RMK T03000240 IEM_DS3505
ZGNN,2001-07-04 11:00,ZGNN 041100Z AUTO 28002KT 6SM 28/25 A2953 RMK T02800250 IEM_DS3505
ZGNN,2001-07-04 12:00,ZGNN 041200Z AUTO 27004KT 6SM 27/25 A2953 RMK T02700250 IEM_DS3505
ZGNN,2001-07-04 13:00,ZGNN 041300Z AUTO 6SM 27/25 A2956 RMK T02700250 IEM_DS3505
ZGNN,2001-07-04 14:00,ZGNN 041400Z AUTO 24002KT 6SM 26/24 A2956 RMK T02600240 IEM_DS3505
ZGNN,2001-07-04 15:00,ZGNN 041500Z AUTO 00000KT 16SM 26/25 A2956 RMK SLP015 T02600250 52009 IEM_DS3505
ZGNN,2001-07-04 16:00,ZGNN 041600Z AUTO 25002KT 6SM 26/24 A2956 RMK T02600240 IEM_DS3505
ZGNN,2001-07-04 17:00,ZGNN 041700Z AUTO 6SM 25/24 A2953 RMK T02500240 IEM_DS3505
ZGNN,2001-07-04 18:00,ZGNN 041800Z AUTO 00000KT 7SM 25/24 A2950 RMK SLP993 T02490245 57022 IEM_DS3505
ZGNN,2001-07-04 19:00,ZGNN 041900Z AUTO 25/24 A2950 RMK T02500240 IEM_DS3505
ZGNN,2001-07-04 20:00,ZGNN 042000Z AUTO 23006KT 25/23 A2950 RMK T02500230 IEM_DS3505
ZGNN,2001-07-04 21:00,ZGNN 042100Z AUTO 25004KT 7SM 24/24 A2950 RMK SLP990 T02430239 57003 IEM_DS3505
ZGNN,2001-07-04 22:00,ZGNN 042200Z AUTO 24006KT 6SM 25/23 A2947 RMK T02500230 IEM_DS3505
ZGNN,2001-07-04 23:00,ZGNN 042300Z AUTO 22004KT 6SM 25/24 A2950 RMK T02500240 IEM_DS3505
ZGNN,2001-07-05 00:00,ZGNN 050000Z AUTO 27006KT 16SM 27/25 A2950 RMK SLP987 T02660249 57003 IEM_DS3505
ZGNN,2001-07-05 01:00,ZGNN 050100Z AUTO 28008KT 6SM 29/24 A2950 RMK T02900240 IEM_DS3505
ZGNN,2001-07-05 02:00,ZGNN 050200Z AUTO 32008KT 6SM 30/24 A2950 RMK T03000240 IEM_DS3505
ZGNN,2001-07-05 03:00,ZGNN 050300Z AUTO 32010KT 19SM 31/25 A2947 RMK SLP978 T03060253 57008 IEM_DS3505
ZGNN,2001-07-05 04:00,ZGNN 050400Z AUTO 33010KT 6SM 32/24 A2947 RMK T03200240 IEM_DS3505
ZGNN,2001-07-05 05:00,ZGNN 050500Z AUTO 33008KT 6SM 33/25 A2944 RMK T03300250 IEM_DS3505
ZGNN,2001-07-05 06:00,ZGNN 050600Z AUTO 32010KT 19SM 34/26 A2944 RMK SLP963 T03350258 57015 IEM_DS3505
ZGNN,2001-07-05 07:00,ZGNN 050700Z AUTO 33008KT 34/24 A2941 RMK T03400240 IEM_DS3505
ZGNN,2001-07-05 08:00,ZGNN 050800Z AUTO 32008KT 6SM 35/24 A2938 RMK T03500240 IEM_DS3505
ZGNN,2001-07-05 09:00,ZGNN 050900Z AUTO 32008KT 19SM 34/25 A2938 RMK SLP945 T03430247 57017 IEM_DS3505
ZGNN,2001-07-05 10:00,ZGNN 051000Z AUTO 30008KT 6SM 35/23 A2935 RMK T03500230 IEM_DS3505
ZGNN,2001-07-05 11:00,ZGNN 051100Z AUTO 29004KT 6SM 34/24 A2935 RMK T03400240 IEM_DS3505
ZGNN,2001-07-05 12:00,ZGNN 051200Z AUTO 00000KT 16SM 31/27 A2938 RMK SLP945 T03080270 57001 IEM_DS3505
ZGNN,2001-07-05 13:00,ZGNN 051300Z AUTO 28004KT 6SM 29/25 A2938 RMK T02900250 IEM_DS3505
ZGNN,2001-07-05 14:00,ZGNN 051400Z AUTO 6SM 29/26 A2938 RMK T02900260 IEM_DS3505
ZGNN,2001-07-05 15:00,ZGNN 051500Z AUTO 22002KT 15SM 28/26 A2941 RMK SLP958 T02840265 52013 IEM_DS3505
ZGNN,2001-07-05 16:00,ZGNN 051600Z AUTO 23006KT 28/25 A2941 RMK T02800250 IEM_DS3505
ZGNN,2001-07-05 18:00,ZGNN 051800Z AUTO 00000KT 12SM 28/26 RMK SLP950 T02780257 57007 IEM_DS3505
ZGNN,2001-07-05 19:00,ZGNN 051900Z AUTO 22002KT 27/25 A2938 RMK T02700250 IEM_DS3505
ZGNN,2001-07-05 21:00,ZGNN 052100Z AUTO 31004KT 6SM 28/24 A2935 RMK T02800240 IEM_DS3505
ZGNN,2001-07-05 23:00,ZGNN 052300Z AUTO 29006KT 6SM 29/23 A2935 RMK T02900230 IEM_DS3505
ZGNN,2001-07-06 00:00,ZGNN 060000Z AUTO 32010KT 16SM 29/24 A2938 RMK SLP944 T02940243 52007 IEM_DS3505
ZGNN,2001-07-06 01:00,ZGNN 060100Z AUTO 31006KT 6SM 31/24 A2938 RMK T03100240 IEM_DS3505
ZGNN,2001-07-06 02:00,ZGNN 060200Z AUTO 30008KT 6SM 32/23 A2938 RMK T03200230 IEM_DS3505
ZGNN,2001-07-06 03:00,ZGNN 060300Z AUTO 32014KT 16SM 32/24 A2938 RMK SLP948 T03220237 52004 IEM_DS3505
ZGNN,2001-07-06 04:00,ZGNN 060400Z AUTO 34010KT 6SM 33/23 A2938 RMK T03300230 IEM_DS3505
ZGNN,2001-07-06 05:00,ZGNN 060500Z AUTO 31014KT 6SM 33/23 A2935 RMK T03300230 IEM_DS3505
ZGNN,2001-07-06 06:00,ZGNN 060600Z AUTO 32014KT 19SM 33/24 A2935 RMK SLP937 T03290245 57011 IEM_DS3505
ZGNN,2001-07-06 07:00,ZGNN 060700Z AUTO 29012KT 6SM 35/24 A2932 RMK T03500240 IEM_DS3505
ZGNN,2001-07-06 08:00,ZGNN 060800Z AUTO 30012KT 6SM 35/24 A2932 RMK T03500240 IEM_DS3505
ZGNN,2001-07-06 09:00,ZGNN 060900Z AUTO 32016KT 19SM 34/25 A2929 RMK SLP924 T03350247 57012 IEM_DS3505
ZGNN,2001-07-06 10:00,ZGNN 061000Z AUTO 28008KT 6SM 33/25 A2929 RMK T03300250 IEM_DS3505
ZGNN,2001-07-06 11:00,ZGNN 061100Z AUTO 29008KT 6SM 33/24 A2929 RMK T03300240 IEM_DS3505
ZGNN,2001-07-06 12:00,ZGNN 061200Z AUTO 32008KT 12SM 32/25 A2932 RMK 60004 SLP928 T03150251 52003 IEM_DS3505
ZGNN,2001-07-06 13:00,ZGNN 061300Z AUTO 30010KT 6SM 32/23 A2932 RMK T03200230 IEM_DS3505
ZGNN,2001-07-06 15:00,ZGNN 061500Z AUTO 00000KT 12SM 28/24 RMK SLP947 T02810237 52019 IEM_DS3505
ZGNN,2001-07-06 18:00,ZGNN 061800Z AUTO 32008KT 12SM 31/23 RMK SLP930 T03060227 57016 IEM_DS3505
ZGNN,2001-07-06 21:00,ZGNN 062100Z AUTO 34008KT 11SM 28/24 A2932 RMK 70006 SLP933 T02780237 52002 IEM_DS3505
ZGNN,2001-07-06 22:00,ZGNN 062200Z AUTO 32008KT 6SM 27/23 A2935 RMK T02700230 IEM_DS3505
ZGNN,2001-07-06 23:00,ZGNN 062300Z AUTO 33004KT 6SM 26/24 A2935 RMK T02600240 IEM_DS3505
ZGNN,2001-07-07 00:00,ZGNN 070000Z AUTO 32006KT 5SM 26/24 A2938 RMK 60008 SLP951 T02570244 52017 IEM_DS3505
ZGNN,2001-07-07 01:00,ZGNN 070100Z AUTO 28008KT 6SM 26/23 A2938 RMK T02600230 IEM_DS3505
ZGNN,2001-07-07 02:00,ZGNN 070200Z AUTO 21006KT 25/24 A2938 RMK T02500240 IEM_DS3505
ZGNN,2001-07-07 03:00,ZGNN 070300Z AUTO 22004KT 5SM 26/25 A2941 RMK SLP957 T02580250 52005 IEM_DS3505
ZGNN,2001-07-07 04:00,ZGNN 070400Z AUTO 24010KT 6SM 26/24 A2941 RMK T02600240 IEM_DS3505
ZGNN,2001-07-07 05:00,ZGNN 070500Z AUTO 22008KT 2SM 26/24 A2941 RMK T02600240 IEM_DS3505
ZGNN,2001-07-07 06:00,ZGNN 070600Z AUTO 22006KT 4SM 26/25 A2941 RMK 60028 SLP955 T02610251 57001 IEM_DS3505
ZGNN,2001-07-07 07:00,ZGNN 070700Z AUTO 20008KT 6SM 25/24 A2938 RMK T02500240 IEM_DS3505
ZGNN,2001-07-07 08:00,ZGNN 070800Z AUTO 18010KT 6SM RMK IEM_DS3505
ZGNN,2001-07-07 09:00,ZGNN 070900Z AUTO 22008KT 2 1/2SM 25/25 RMK SLP956 T02520246 54000 IEM_DS3505
ZGNN,2001-07-07 10:00,ZGNN 071000Z AUTO 18006KT 6SM 25/24 A2941 RMK T02500240 IEM_DS3505
ZGNN,2001-07-07 11:00,ZGNN 071100Z AUTO 16006KT 6SM 25/24 A2941 RMK T02500240 IEM_DS3505
ZGNN,2001-07-07 12:00,ZGNN 071200Z AUTO 18004KT 4SM 25/24 A2944 RMK 60043 SLP973 T02500244 52016 IEM_DS3505
ZGNN,2001-07-07 13:00,ZGNN 071300Z AUTO 15006KT 19SM 25/23 A2947 RMK T02500230 IEM_DS3505
ZGNN,2001-07-07 14:00,ZGNN 071400Z AUTO 15006KT 25/24 A2950 RMK T02500240 IEM_DS3505
ZGNN,2001-07-07 15:00,ZGNN 071500Z AUTO 16002KT 3SM 26/25 RMK SLP003 T02570250 52030 IEM_DS3505
ZGNN,2001-07-07 16:00,ZGNN 071600Z AUTO 13006KT 26/24 A2956 RMK T02600240 IEM_DS3505
ZGNN,2001-07-07 17:00,ZGNN 071700Z AUTO 12006KT 26/24 A2956 RMK T02600240 IEM_DS3505
ZGNN,2001-07-07 18:00,ZGNN 071800Z AUTO 09002KT 3SM 26/25 A2953 RMK 60016 SLP008 T02600254 52005 IEM_DS3505
ZGNN,2001-07-07 19:00,ZGNN 071900Z AUTO 10010KT 25/24 A2956 RMK T02500240 IEM_DS3505
ZGNN,2001-07-07 20:00,ZGNN 072000Z AUTO 10004KT 25/23 A2956 RMK T02500230 IEM_DS3505
ZGNN,2001-07-07 21:00,ZGNN 072100Z AUTO 09006KT 2 1/2SM 24/24 A2959 RMK 70099 SLP023 T02450236 52014 IEM_DS3505
ZGNN,2001-07-07 22:00,ZGNN 072200Z AUTO 11004KT 6SM 24/23 A2962 RMK T02400230 IEM_DS3505
ZGNN,2001-07-07 23:00,ZGNN 072300Z AUTO 11008KT 6SM RMK IEM_DS3505
ZGNN,2001-07-08 00:00,ZGNN 080000Z AUTO 09004KT 7SM 25/24 RMK 60004 SLP049 T02510241 52026 IEM_DS3505
ZGNN,2001-07-08 01:00,ZGNN 080100Z AUTO 09008KT 6SM RMK IEM_DS3505
ZGNN,2001-07-08 02:00,ZGNN 080200Z AUTO 13006KT 6SM 25/24 A2971 RMK T02500240 IEM_DS3505
ZGNN,2001-07-08 03:00,ZGNN 080300Z AUTO 14004KT 2SM 26/26 RMK SLP063 T02600256 52014 IEM_DS3505
ZGNN,2001-07-08 04:00,ZGNN 080400Z AUTO 12006KT RMK IEM_DS3505
ZGNN,2001-07-08 05:00,ZGNN 080500Z AUTO 19006KT 9SM 26/25 A2971 RMK T02600250 IEM_DS3505
ZGNN,2001-07-08 06:00,ZGNN 080600Z AUTO 14002KT 4SM 28/25 A2971 RMK 60016 SLP057 T02750248 57005 IEM_DS3505
ZGNN,2001-07-08 07:00,ZGNN 080700Z AUTO 10004KT 6SM 28/25 A2968 RMK T02800250 IEM_DS3505
ZGNN,2001-07-08 08:00,ZGNN 080800Z AUTO 11008KT 6SM 29/25 A2965 RMK T02900250 IEM_DS3505
ZGNN,2001-07-08 09:00,ZGNN 080900Z AUTO 09002KT 12SM 29/26 A2965 RMK SLP041 T02890258 57016 IEM_DS3505
ZGNN,2001-07-08 10:00,ZGNN 081000Z AUTO 12004KT 6SM 27/25 A2968 RMK T02700250 IEM_DS3505
ZGNN,2001-07-08 12:00,ZGNN 081200Z AUTO 00000KT 9SM 27/26 RMK 60035 SLP061 T02670260 52019 IEM_DS3505
ZGNN,2001-07-08 13:00,ZGNN 081300Z AUTO 02002KT 6SM RMK IEM_DS3505
ZGNN,2001-07-08 14:00,ZGNN 081400Z AUTO 05004KT 6SM 27/25 A2974 RMK T02700250 IEM_DS3505
ZGNN,2001-07-08 15:00,ZGNN 081500Z AUTO 00000KT 9SM 26/25 A2974 RMK SLP079 T02600254 52018 IEM_DS3505
ZGNN,2001-07-08 16:00,ZGNN 081600Z AUTO 05004KT 6SM 26/24 A2977 RMK T02600240 IEM_DS3505
ZGNN,2001-07-08 17:00,ZGNN 081700Z AUTO 6SM 26/24 A2980 RMK T02600240 IEM_DS3505
ZGNN,2001-07-08 18:00,ZGNN 081800Z AUTO 00000KT 9SM 26/25 RMK SLP088 T02560247 52009 IEM_DS3505
ZGNN,2001-07-08 21:00,ZGNN 082100Z AUTO 00000KT 7SM 25/24 RMK 70049 SLP079 T02530242 57008 IEM_DS3505
ZGNN,2001-07-08 22:00,ZGNN 082200Z AUTO 04002KT 6SM RMK IEM_DS3505
ZGNN,2001-07-08 23:00,ZGNN 082300Z AUTO 25/24 A2980 RMK T02500240 IEM_DS3505
ZGNN,2001-07-09 00:00,ZGNN 090000Z AUTO 07002KT 6SM 26/24 RMK 70049 SLP091 T02580244 52011 IEM_DS3505
ZGNN,2001-07-09 01:00,ZGNN 090100Z AUTO 04006KT 6SM 26/24 A2983 RMK T02600240 IEM_DS3505
ZGNN,2001-07-09 02:00,ZGNN 090200Z AUTO 05006KT 3SM RMK IEM_DS3505
ZGNN,2001-07-09 03:00,ZGNN 090300Z AUTO 11006KT 16SM 29/25 A2980 RMK SLP093 T02920250 52003 IEM_DS3505
ZGNN,2001-07-09 04:00,ZGNN 090400Z AUTO 10006KT 6SM 30/23 A2980 RMK T03000230 IEM_DS3505
ZGNN,2001-07-09 05:00,ZGNN 090500Z AUTO 09006KT 7SM RMK IEM_DS3505
ZGNN,2001-07-09 06:00,ZGNN 090600Z AUTO 09004KT 19SM 31/24 RMK SLP081 T03110245 57012 IEM_DS3505
ZGNN,2001-07-09 07:00,ZGNN 090700Z AUTO 11006KT 6SM RMK IEM_DS3505
ZGNN,2001-07-09 08:00,ZGNN 090800Z AUTO 09006KT RMK IEM_DS3505
ZGNN,2001-07-09 09:00,ZGNN 090900Z AUTO 14008KT 19SM 31/25 A2974 RMK SLP070 T03070253 57011 IEM_DS3505
ZGNN,2001-07-09 10:00,ZGNN 091000Z AUTO 24006KT 15SM 28/24 A2974 RMK T02800240 IEM_DS3505
ZGNN,2001-07-09 11:00,ZGNN 091100Z AUTO 26004KT 6SM RMK IEM_DS3505
ZGNN,2001-07-09 12:00,ZGNN 091200Z AUTO 00000KT 19SM 28/25 RMK 60003 SLP078 T02780251 52007 IEM_DS3505
ZGNN,2001-07-09 13:00,ZGNN 091300Z AUTO 6SM RMK IEM_DS3505
ZGNN,2001-07-09 15:00,ZGNN 091500Z AUTO 00000KT 19SM 27/26 RMK SLP090 T02710260 52013 IEM_DS3505
ZGNN,2001-07-09 17:00,ZGNN 091700Z AUTO 26/25 A2977 RMK T02600250 IEM_DS3505
ZGNN,2001-07-09 18:00,ZGNN 091800Z AUTO 00000KT 12SM 26/25 A2977 RMK SLP079 T02590253 57011 IEM_DS3505
ZGNN,2001-07-09 19:00,ZGNN 091900Z AUTO 25/24 A2974 RMK T02500240 IEM_DS3505
ZGNN,2001-07-09 20:00,ZGNN 092000Z AUTO 15002KT 26/24 A2977 RMK T02600240 IEM_DS3505
ZGNN,2001-07-09 21:00,ZGNN 092100Z AUTO 00000KT 9SM 26/25 A2974 RMK 70003 SLP074 T02600253 57005 IEM_DS3505
ZGNN,2001-07-09 22:00,ZGNN 092200Z AUTO 25002KT 6SM RMK IEM_DS3505
ZGNN,2001-07-09 23:00,ZGNN 092300Z AUTO 13002KT RMK IEM_DS3505
ZGNN,2001-07-10 00:00,ZGNN 100000Z AUTO 18004KT 12SM 26/25 RMK 70003 SLP089 T02650251 52014 IEM_DS3505
ZGNN,2001-07-10 01:00,ZGNN 100100Z AUTO 6SM RMK IEM_DS3505
ZGNN,2001-07-10 02:00,ZGNN 100200Z AUTO 6SM 29/24 A2977 RMK T02900240 IEM_DS3505
ZGNN,2001-07-10 03:00,ZGNN 100300Z AUTO 32004KT 19SM 30/25 RMK SLP084 T03030253 57004 IEM_DS3505
ZGNN,2001-07-10 04:00,ZGNN 100400Z AUTO 6SM RMK IEM_DS3505
ZGNN,2001-07-10 06:00,ZGNN 100600Z AUTO 22006KT 19SM 32/24 RMK SLP065 T03200244 57018 IEM_DS3505
ZGNN,2001-07-10 07:00,ZGNN 100700Z AUTO 6SM RMK IEM_DS3505
ZGNN,2001-07-10 08:00,ZGNN 100800Z AUTO 6SM RMK IEM_DS3505
ZGNN,2001-07-10 09:00,ZGNN 100900Z AUTO 18006KT 19SM 33/24 RMK SLP045 T03330243 57020 IEM_DS3505
ZGNN,2001-07-10 10:00,ZGNN 101000Z AUTO 13006KT 16SM RMK IEM_DS3505
ZGNN,2001-07-10 11:00,ZGNN 101100Z AUTO 13004KT 6SM 31/25 A2968 RMK T03100250 IEM_DS3505
ZGNN,2001-07-10 12:00,ZGNN 101200Z AUTO 14002KT 19SM 31/26 A2968 RMK SLP050 T03060256 52005 IEM_DS3505
ZGNN,2001-07-10 13:00,ZGNN 101300Z AUTO 6SM 29/24 A2971 RMK T02900240 IEM_DS3505
ZGNN,2001-07-10 15:00,ZGNN 101500Z AUTO 20002KT 17SM 28/25 RMK SLP066 T02780248 52016 IEM_DS3505
ZGNN,2001-07-10 18:00,ZGNN 101800Z AUTO 00000KT 16SM 27/25 RMK SLP057 T02670253 57009 IEM_DS3505
ZGNN,2001-07-10 20:00,ZGNN 102000Z AUTO 26/24 A2971 RMK T02600240 IEM_DS3505
ZGNN,2001-07-10 21:00,ZGNN 102100Z AUTO 00000KT 12SM 25/24 A2968 RMK SLP054 T02540245 57003 IEM_DS3505
ZGNN,2001-07-10 22:00,ZGNN 102200Z AUTO 6SM 25/24 A2968 RMK T02500240 IEM_DS3505
ZGNN,2001-07-10 23:00,ZGNN 102300Z AUTO 6SM 25/24 A2968 RMK T02500240 IEM_DS3505
ZGNN,2001-07-11 00:00,ZGNN 110000Z AUTO 00000KT 7SM 27/25 A2971 RMK SLP062 T02730252 52008 IEM_DS3505
ZGNN,2001-07-11 01:00,ZGNN 110100Z AUTO 6SM 28/24 A2971 RMK T02800240 IEM_DS3505
ZGNN,2001-07-11 02:00,ZGNN 110200Z AUTO 30/24 A2971 RMK T03000240 IEM_DS3505
ZGNN,2001-07-11 03:00,ZGNN 110300Z AUTO 22006KT 19SM 30/25 RMK SLP055 T03040251 57007 IEM_DS3505
ZGNN,2001-07-11 04:00,ZGNN 110400Z AUTO 21006KT 12SM 32/23 A2968 RMK T03200230 IEM_DS3505
ZGNN,2001-07-11 05:00,ZGNN 110500Z AUTO 19006KT RMK IEM_DS3505
ZGNN,2001-07-11 06:00,ZGNN 110600Z AUTO 18006KT 19SM 33/25 RMK SLP039 T03300249 57016 IEM_DS3505
ZGNN,2001-07-11 07:00,ZGNN 110700Z AUTO 21006KT 6SM RMK IEM_DS3505
ZGNN,2001-07-11 08:00,ZGNN 110800Z AUTO 21006KT 6SM RMK IEM_DS3505
ZGNN,2001-07-11 09:00,ZGNN 110900Z AUTO 22006KT 19SM 34/25 RMK SLP014 T03400250 57024 IEM_DS3505
ZGNN,2001-07-11 10:00,ZGNN 111000Z AUTO 25SM 34/24 A2956 RMK T03400240 IEM_DS3505
ZGNN,2001-07-11 11:00,ZGNN 111100Z AUTO 15010KT 6SM 32/26 A2956 RMK T03200260 IEM_DS3505
ZGNN,2001-07-11 12:00,ZGNN 111200Z AUTO 14004KT 16SM 31/26 A2959 RMK SLP021 T03080264 52006 IEM_DS3505
ZGNN,2001-07-11 13:00,ZGNN 111300Z AUTO 13006KT 6SM 29/26 A2962 RMK T02900260 IEM_DS3505
ZGNN,2001-07-11 14:00,ZGNN 111400Z AUTO 28/26 A2962 RMK T02800260 IEM_DS3505
ZGNN,2001-07-11 15:00,ZGNN 111500Z AUTO 16004KT 16SM 28/26 RMK SLP037 T02780264 52016 IEM_DS3505
ZGNN,2001-07-11 17:00,ZGNN 111700Z AUTO 27/25 A2962 RMK T02700250 IEM_DS3505
ZGNN,2001-07-11 18:00,ZGNN 111800Z AUTO 00000KT 16SM 27/26 A2962 RMK SLP029 T02740262 57007 IEM_DS3505
ZGNN,2001-07-11 19:00,ZGNN 111900Z AUTO 27/25 A2962 RMK T02700250 IEM_DS3505
ZGNN,2001-07-11 20:00,ZGNN 112000Z AUTO 26/25 A2962 RMK T02600250 IEM_DS3505
ZGNN,2001-07-11 21:00,ZGNN 112100Z AUTO 00000KT 11SM 27/26 A2962 RMK SLP026 T02680260 57003 IEM_DS3505
ZGNN,2001-07-11 22:00,ZGNN 112200Z AUTO 6SM 26/25 A2962 RMK T02600250 IEM_DS3505
ZGNN,2001-07-11 23:00,ZGNN 112300Z AUTO 6SM 26/25 A2962 RMK T02600250 IEM_DS3505
ZGNN,2001-07-12 00:00,ZGNN 120000Z AUTO 00000KT 4SM 27/26 A2962 RMK SLP033 T02730262 52006 IEM_DS3505
ZGNN,2001-07-12 01:00,ZGNN 120100Z AUTO 30/25 A2962 RMK T03000250 IEM_DS3505
ZGNN,2001-07-12 02:00,ZGNN 120200Z AUTO 6SM RMK IEM_DS3505
ZGNN,2001-07-12 03:00,ZGNN 120300Z AUTO 00000KT 19SM 32/26 RMK SLP030 T03170265 57002 IEM_DS3505
ZGNN,2001-07-12 04:00,ZGNN 120400Z AUTO 6SM 33/24 A2962 RMK T03300240 IEM_DS3505
ZGNN,2001-07-12 05:00,ZGNN 120500Z AUTO 6SM RMK IEM_DS3505
ZGNN,2001-07-12 06:00,ZGNN 120600Z AUTO 22006KT 19SM 34/25 A2956 RMK SLP012 T03430248 57018 IEM_DS3505
ZGNN,2001-07-12 07:00,ZGNN 120700Z AUTO 35/24 A2953 RMK T03500240 IEM_DS3505
ZGNN,2001-07-12 08:00,ZGNN 120800Z AUTO 22SM 36/23 A2953 RMK T03600230 IEM_DS3505
ZGNN,2001-07-12 09:00,ZGNN 120900Z AUTO 14008KT 19SM 35/25 RMK SLP991 T03500253 57020 IEM_DS3505
ZGNN,2001-07-12 10:00,ZGNN 121000Z AUTO 14010KT 33/26 A2950 RMK T03300260 IEM_DS3505
ZGNN,2001-07-12 11:00,ZGNN 121100Z AUTO 14008KT 9SM 32/26 A2950 RMK T03200260 IEM_DS3505
ZGNN,2001-07-12 12:00,ZGNN 121200Z AUTO 14006KT 19SM 31/27 A2953 RMK SLP000 T03130269 52008 IEM_DS3505
ZGNN,2001-07-12 13:00,ZGNN 121300Z AUTO 13006KT 6SM 30/26 A2956 RMK T03000260 IEM_DS3505
ZGNN,2001-07-12 14:00,ZGNN 121400Z AUTO 6SM 29/26 A2956 RMK T02900260 IEM_DS3505
ZGNN,2001-07-12 15:00,ZGNN 121500Z AUTO 18002KT 19SM 29/26 A2959 RMK SLP018 T02890264 52018 IEM_DS3505
ZGNN,2001-07-12 18:00,ZGNN 121800Z AUTO 20002KT 19SM 28/26 RMK SLP007 T02780263 57011 IEM_DS3505
ZGNN,2001-07-12 20:00,ZGNN 122000Z AUTO 05002KT 27/25 A2953 RMK T02700250 IEM_DS3505
ZGNN,2001-07-12 21:00,ZGNN 122100Z AUTO 00000KT 16SM 27/26 RMK SLP002 T02700262 57004 IEM_DS3505
ZGNN,2001-07-12 22:00,ZGNN 122200Z AUTO 04002KT 6SM 27/25 A2956 RMK T02700250 IEM_DS3505
ZGNN,2001-07-12 23:00,ZGNN 122300Z AUTO 6SM 27/26 A2956 RMK T02700260 IEM_DS3505
ZGNN,2001-07-13 00:00,ZGNN 130000Z AUTO 16004KT 9SM 28/27 A2959 RMK SLP018 T02810267 52015 IEM_DS3505
ZGNN,2001-07-13 01:00,ZGNN 130100Z AUTO 12SM 29/26 A2959 RMK T02900260 IEM_DS3505
ZGNN,2001-07-13 02:00,ZGNN 130200Z AUTO 6SM RMK IEM_DS3505
ZGNN,2001-07-13 03:00,ZGNN 130300Z AUTO 18006KT 19SM 32/27 A2962 RMK SLP021 T03230266 52003 IEM_DS3505
ZGNN,2001-07-13 04:00,ZGNN 130400Z AUTO 12006KT 10SM RMK IEM_DS3505
ZGNN,2001-07-13 05:00,ZGNN 130500Z AUTO 15006KT 6SM RMK IEM_DS3505
ZGNN,2001-07-13 06:00,ZGNN 130600Z AUTO 14004KT 19SM 34/25 RMK SLP001 T03430253 57019 IEM_DS3505
ZGNN,2001-07-13 07:00,ZGNN 130700Z AUTO 14006KT RMK IEM_DS3505
ZGNN,2001-07-13 08:00,ZGNN 130800Z AUTO 15010KT 6SM RMK IEM_DS3505
ZGNN,2001-07-13 09:00,ZGNN 130900Z AUTO 16010KT 19SM 33/26 RMK SLP991 T03320258 57011 IEM_DS3505
ZGNN,2001-07-13 10:00,ZGNN 131000Z AUTO 14012KT 6SM RMK IEM_DS3505
ZGNN,2001-07-13 11:00,ZGNN 131100Z AUTO 25014G23KT 29/21 A2956 RMK T02900210 IEM_DS3505
ZGNN,2001-07-13 12:00,ZGNN 131200Z AUTO 00000KT 17SM 28/23 RMK SLP006 T02840231 52014 IEM_DS3505
ZGNN,2001-07-13 13:00,ZGNN 131300Z AUTO 6SM RMK IEM_DS3505
ZGNN,2001-07-13 14:00,ZGNN 131400Z AUTO 26002KT 27/23 A2959 RMK T02700230 IEM_DS3505
ZGNN,2001-07-13 15:00,ZGNN 131500Z AUTO 00000KT 16SM 27/25 A2962 RMK SLP023 T02740252 52018 IEM_DS3505
ZGNN,2001-07-13 16:00,ZGNN 131600Z AUTO 20002KT 26/24 A2959 RMK T02600240 IEM_DS3505
ZGNN,2001-07-13 18:00,ZGNN 131800Z AUTO 00000KT 16SM 27/26 RMK SLP016 T02720258 57007 IEM_DS3505
ZGNN,2001-07-13 21:00,ZGNN 132100Z AUTO 00000KT 12SM 27/26 RMK SLP016 T02740262 54000 IEM_DS3505
ZGNN,2001-07-13 22:00,ZGNN 132200Z AUTO 16SM RMK IEM_DS3505
ZGNN,2001-07-14 00:00,ZGNN 140000Z AUTO 25010KT 11SM 27/25 RMK SLP028 T02670249 52011 IEM_DS3505
ZGNN,2001-07-14 01:00,ZGNN 140100Z AUTO 09004KT 26/24 A2962 RMK T02600240 IEM_DS3505
ZGNN,2001-07-14 02:00,ZGNN 140200Z AUTO 08004KT 27/24 A2965 RMK T02700240 IEM_DS3505
ZGNN,2001-07-14 03:00,ZGNN 140300Z AUTO 00000KT 9SM 26/25 A2965 RMK SLP039 T02650249 52010 IEM_DS3505
ZGNN,2001-07-14 04:00,ZGNN 140400Z AUTO 20006KT 6SM RMK IEM_DS3505
ZGNN,2001-07-14 05:00,ZGNN 140500Z AUTO 15008KT 6SM RMK IEM_DS3505
ZGNN,2001-07-14 06:00,ZGNN 140600Z AUTO 18006KT 19SM 28/24 A2962 RMK 60008 SLP029 T02840237 57009 IEM_DS3505
ZGNN,2001-07-14 07:00,ZGNN 140700Z AUTO 9SM RMK IEM_DS3505
ZGNN,2001-07-14 08:00,ZGNN 140800Z AUTO 15006KT 6SM 27/23 A2962 RMK T02700230 IEM_DS3505
ZGNN,2001-07-14 09:00,ZGNN 140900Z AUTO 18006KT 19SM 28/23 A2962 RMK SLP027 T02770232 57002 IEM_DS3505
ZGNN,2001-07-14 10:00,ZGNN 141000Z AUTO 10006KT 27/22 A2962 RMK T02700220 IEM_DS3505
ZGNN,2001-07-14 11:00,ZGNN 141100Z AUTO 12006KT 6SM 26/22 A2962 RMK T02600220 IEM_DS3505
ZGNN,2001-07-14 12:00,ZGNN 141200Z AUTO 14004KT 19SM 26/23 A2965 RMK 60003 SLP046 T02580232 52018 IEM_DS3505
ZGNN,2001-07-14 13:00,ZGNN 141300Z AUTO 6SM 25/23 A2968 RMK T02500230 IEM_DS3505
ZGNN,2001-07-14 14:00,ZGNN 141400Z AUTO 11002KT 6SM 25/22 A2971 RMK T02500220 IEM_DS3505
ZGNN,2001-07-14 15:00,ZGNN 141500Z AUTO 11004KT 16SM 25/23 RMK SLP064 T02460230 52017 IEM_DS3505
ZGNN,2001-07-14 18:00,ZGNN 141800Z AUTO 09002KT 12SM 24/23 RMK 60003 SLP050 T02420227 57013 IEM_DS3505
ZGNN,2001-07-14 21:00,ZGNN 142100Z AUTO 07002KT 12SM 25/24 A2965 RMK 70006 SLP044 T02480236 57006 IEM_DS3505
ZGNN,2001-07-14 22:00,ZGNN 142200Z AUTO 6SM 25/23 A2968 RMK T02500230 IEM_DS3505
ZGNN,2001-07-14 23:00,ZGNN 142300Z AUTO 11002KT 6SM 25/23 A2968 RMK T02500230 IEM_DS3505
ZGNN,2001-07-15 00:00,ZGNN 150000Z AUTO 00000KT 5SM 26/24 A2971 RMK 60003 SLP056 T02580244 52011 IEM_DS3505
ZGNN,2001-07-15 01:00,ZGNN 150100Z AUTO 8SM 26/23 A2971 RMK T02600230 IEM_DS3505
ZGNN,2001-07-15 02:00,ZGNN 150200Z AUTO 9SM RMK IEM_DS3505
ZGNN,2001-07-15 03:00,ZGNN 150300Z AUTO 14006KT 16SM 27/24 A2971 RMK SLP061 T02740237 52005 IEM_DS3505
ZGNN,2001-07-15 04:00,ZGNN 150400Z AUTO 12006KT 6SM 27/23 A2971 RMK T02700230 IEM_DS3505
ZGNN,2001-07-15 05:00,ZGNN 150500Z AUTO 13008KT RMK IEM_DS3505
ZGNN,2001-07-15 06:00,ZGNN 150600Z AUTO 18010KT 19SM 28/24 RMK SLP044 T02840243 57016 IEM_DS3505
ZGNN,2001-07-15 07:00,ZGNN 150700Z AUTO 14008KT 6SM RMK IEM_DS3505
ZGNN,2001-07-15 08:00,ZGNN 150800Z AUTO 11010KT 6SM RMK IEM_DS3505
ZGNN,2001-07-15 09:00,ZGNN 150900Z AUTO 14008KT 19SM 29/24 RMK SLP032 T02940243 57012 IEM_DS3505
ZGNN,2001-07-15 10:00,ZGNN 151000Z AUTO 13008KT 28/24 A2962 RMK T02800240 IEM_DS3505
ZGNN,2001-07-15 11:00,ZGNN 151100Z AUTO 6SM 27/24 A2965 RMK T02700240 IEM_DS3505
ZGNN,2001-07-15 12:00,ZGNN 151200Z AUTO 14006KT 5SM 25/24 A2968 RMK 60004 SLP054 T02520241 52021 IEM_DS3505
ZGNN,2001-07-15 13:00,ZGNN 151300Z AUTO 11004KT 12SM 26/24 A2971 RMK T02600240 IEM_DS3505
ZGNN,2001-07-15 14:00,ZGNN 151400Z AUTO 06002KT 26/24 A2971 RMK T02600240 IEM_DS3505
ZGNN,2001-07-15 15:00,ZGNN 151500Z AUTO 00000KT 5SM 26/25 A2971 RMK SLP063 T02580251 52010 IEM_DS3505
ZGNN,2001-07-15 16:00,ZGNN 151600Z AUTO 25/24 A2971 RMK T02500240 IEM_DS3505
ZGNN,2001-07-15 17:00,ZGNN 151700Z AUTO 12002KT 25/23 A2971 RMK T02500230 IEM_DS3505
ZGNN,2001-07-15 18:00,ZGNN 151800Z AUTO 00000KT 4SM 25/25 A2968 RMK 60020 SLP053 T02530246 57010 IEM_DS3505
ZGNN,2001-07-15 21:00,ZGNN 152100Z AUTO 09004KT 7SM 25/24 RMK 70023 SLP038 T02520242 57015 IEM_DS3505
ZGNN,2001-07-15 22:00,ZGNN 152200Z AUTO 15002KT 25/23 A2965 RMK T02500230 IEM_DS3505
ZGNN,2001-07-15 23:00,ZGNN 152300Z AUTO 14006KT 6SM 25/23 A2965 RMK T02500230 IEM_DS3505
ZGNN,2001-07-16 00:00,ZGNN 160000Z AUTO 18004KT 9SM 25/24 A2968 RMK 60000 SLP048 T02540238 52009 IEM_DS3505
ZGNN,2001-07-16 01:00,ZGNN 160100Z AUTO 16004KT 6SM 25/23 A2968 RMK T02500230 IEM_DS3505
ZGNN,2001-07-16 02:00,ZGNN 160200Z AUTO 14006KT 6SM 25/23 A2971 RMK T02500230 IEM_DS3505
ZGNN,2001-07-16 03:00,ZGNN 160300Z AUTO 18004KT 19SM 26/24 RMK SLP057 T02640244 52009 IEM_DS3505
ZGNN,2001-07-16 04:00,ZGNN 160400Z AUTO 14004KT 6SM 26/23 A2968 RMK T02600230 IEM_DS3505
ZGNN,2001-07-16 05:00,ZGNN 160500Z AUTO 14006KT 19SM 26/23 A2968 RMK T02600230 IEM_DS3505
ZGNN,2001-07-16 06:00,ZGNN 160600Z AUTO 18002KT 12SM 27/24 A2965 RMK 60002 SLP037 T02680244 57019 IEM_DS3505
ZGNN,2001-07-16 07:00,ZGNN 160700Z AUTO 22006KT 6SM 26/24 A2962 RMK T02600240 IEM_DS3505
ZGNN,2001-07-16 08:00,ZGNN 160800Z AUTO 23008KT 6SM 26/23 A2959 RMK T02600230 IEM_DS3505
ZGNN,2001-07-16 09:00,ZGNN 160900Z AUTO 25004KT 19SM 26/24 A2959 RMK SLP018 T02600241 57019 IEM_DS3505
ZGNN,2001-07-16 10:00,ZGNN 161000Z AUTO 6SM 27/24 A2956 RMK T02700240 IEM_DS3505
ZGNN,2001-07-16 11:00,ZGNN 161100Z AUTO 19002KT 16SM 27/24 A2959 RMK T02700240 IEM_DS3505
ZGNN,2001-07-16 12:00,ZGNN 161200Z AUTO 00000KT 19SM 27/25 A2959 RMK 60008 SLP029 T02680248 52011 IEM_DS3505
ZGNN,2001-07-16 13:00,ZGNN 161300Z AUTO 04002KT 6SM 26/24 A2962 RMK T02600240 IEM_DS3505
ZGNN,2001-07-16 15:00,ZGNN 161500Z AUTO 34004KT 7SM 25/25 A2962 RMK SLP037 T02540250 52008 IEM_DS3505
ZGNN,2001-07-16 16:00,ZGNN 161600Z AUTO 04002KT 25/24 A2962 RMK T02500240 IEM_DS3505
ZGNN,2001-07-16 18:00,ZGNN 161800Z AUTO 07004KT 7SM 25/24 A2956 RMK 60063 SLP018 T02490245 57019 IEM_DS3505
ZGNN,2001-07-16 19:00,ZGNN 161900Z AUTO 25/24 A2956 RMK T02500240 IEM_DS3505
ZGNN,2001-07-16 20:00,ZGNN 162000Z AUTO 25/24 A2953 RMK T02500240 IEM_DS3505
ZGNN,2001-07-16 21:00,ZGNN 162100Z AUTO 00000KT 6SM 25/24 A2953 RMK 70074 SLP005 T02490243 57013 IEM_DS3505
ZGNN,2001-07-16 22:00,ZGNN 162200Z AUTO 6SM 25/24 A2956 RMK T02500240 IEM_DS3505
ZGNN,2001-07-16 23:00,ZGNN 162300Z AUTO 25004KT 6SM 24/23 A2956 RMK T02400230 IEM_DS3505
ZGNN,2001-07-17 00:00,ZGNN 170000Z AUTO 27004KT 4SM 24/24 A2959 RMK 60091 SLP020 T02430239 52015 IEM_DS3505
ZGNN,2001-07-17 01:00,ZGNN 170100Z AUTO 6SM 25/23 A2959 RMK T02500230 IEM_DS3505
ZGNN,2001-07-17 02:00,ZGNN 170200Z AUTO 6SM RMK IEM_DS3505
ZGNN,2001-07-17 03:00,ZGNN 170300Z AUTO 36006KT 19SM 27/24 A2959 RMK SLP023 T02690242 52003 IEM_DS3505
ZGNN,2001-07-17 04:00,ZGNN 170400Z AUTO 32006KT 6SM RMK IEM_DS3505
ZGNN,2001-07-17 05:00,ZGNN 170500Z AUTO 6SM RMK IEM_DS3505
ZGNN,2001-07-17 06:00,ZGNN 170600Z AUTO 09004KT 19SM 29/24 RMK 60020 SLP005 T02940245 57017 IEM_DS3505
ZGNN,2001-07-17 07:00,ZGNN 170700Z AUTO 33006KT 6SM 30/24 A2953 RMK T03000240 IEM_DS3505
ZGNN,2001-07-17 08:00,ZGNN 170800Z AUTO 25004KT 12SM RMK IEM_DS3505
ZGNN,2001-07-17 09:00,ZGNN 170900Z AUTO 25006KT 16SM 29/25 RMK SLP999 T02920253 57006 IEM_DS3505
ZGNN,2001-07-17 10:00,ZGNN 171000Z AUTO 20006KT 6SM RMK IEM_DS3505
ZGNN,2001-07-17 11:00,ZGNN 171100Z AUTO 20004KT 6SM RMK IEM_DS3505
ZGNN,2001-07-17 12:00,ZGNN 171200Z AUTO 00000KT 12SM 27/24 A2953 RMK SLP006 T02690237 52006 IEM_DS3505
ZGNN,2001-07-17 13:00,ZGNN 171300Z AUTO 05006KT 6SM RMK IEM_DS3505
ZGNN,2001-07-17 14:00,ZGNN 171400Z AUTO 6SM 25/23 A2956 RMK T02500230 IEM_DS3505
ZGNN,2001-07-17 15:00,ZGNN 171500Z AUTO 02002KT 12SM 25/24 A2956 RMK SLP019 T02480238 52013 IEM_DS3505
ZGNN,2001-07-17 16:00,ZGNN 171600Z AUTO 31004KT 6SM 25/23 A2959 RMK T02500230 IEM_DS3505
ZGNN,2001-07-17 17:00,ZGNN 171700Z AUTO 07002KT 25/23 A2956 RMK T02500230 IEM_DS3505
ZGNN,2001-07-17 18:00,ZGNN 171800Z AUTO 00000KT 9SM 24/24 A2956 RMK SLP009 T02450241 57009 IEM_DS3505
ZGNN,2001-07-17 19:00,ZGNN 171900Z AUTO 05002KT 24/23 A2953 RMK T02400230 IEM_DS3505
ZGNN,2001-07-17 20:00,ZGNN 172000Z AUTO 24/23 A2953 RMK T02400230 IEM_DS3505
ZGNN,2001-07-17 21:00,ZGNN 172100Z AUTO 32002KT 7SM 24/24 A2953 RMK 70104 SLP000 T02440240 57009 IEM_DS3505
ZGNN,2001-07-17 23:00,ZGNN 172300Z AUTO 6SM 25/23 A2956 RMK T02500230 IEM_DS3505
ZGNN,2001-07-18 00:00,ZGNN 180000Z AUTO 00000KT 7SM 26/24 RMK 70018 SLP014 T02580238 52013 IEM_DS3505
ZGNN,2001-07-18 01:00,ZGNN 180100Z AUTO 6SM 27/23 A2959 RMK T02700230 IEM_DS3505
ZGNN,2001-07-18 02:00,ZGNN 180200Z AUTO 29/23 A2959 RMK T02900230 IEM_DS3505
ZGNN,2001-07-18 03:00,ZGNN 180300Z AUTO 34002KT 9SM 30/25 RMK SLP021 T02980246 52008 IEM_DS3505
ZGNN,2001-07-18 04:00,ZGNN 180400Z AUTO 6SM 30/24 A2959 RMK T03000240 IEM_DS3505
ZGNN,2001-07-18 05:00,ZGNN 180500Z AUTO 6SM RMK IEM_DS3505
ZGNN,2001-07-18 06:00,ZGNN 180600Z AUTO 14004KT 12SM 31/24 RMK SLP009 T03130243 57012 IEM_DS3505
ZGNN,2001-07-18 07:00,ZGNN 180700Z AUTO 13006KT RMK IEM_DS3505
ZGNN,2001-07-18 08:00,ZGNN 180800Z AUTO 10006KT 6SM 32/24 A2950 RMK T03200240 IEM_DS3505
ZGNN,2001-07-18 09:00,ZGNN 180900Z AUTO 14004KT 12SM 32/24 RMK SLP996 T03180240 57013 IEM_DS3505
ZGNN,2001-07-18 10:00,ZGNN 181000Z AUTO 15006KT 6SM 31/24 A2953 RMK T03100240 IEM_DS3505
ZGNN,2001-07-18 11:00,ZGNN 181100Z AUTO 14008KT 6SM 30/24 A2953 RMK T03000240 IEM_DS3505
ZGNN,2001-07-18 12:00,ZGNN 181200Z AUTO 18004KT 14SM 28/26 A2956 RMK SLP006 T02840255 52010 IEM_DS3505
ZGNN,2001-07-18 13:00,ZGNN 181300Z AUTO 6SM 27/24 A2956 RMK T02700240 IEM_DS3505
ZGNN,2001-07-18 14:00,ZGNN 181400Z AUTO 6SM 27/23 A2959 RMK T02700230 IEM_DS3505
ZGNN,2001-07-18 15:00,ZGNN 181500Z AUTO 00000KT 12SM 26/24 RMK SLP028 T02650245 52022 IEM_DS3505
ZGNN,2001-07-18 18:00,ZGNN 181800Z AUTO 00000KT 11SM 25/24 A2959 RMK SLP026 T02480241 57002 IEM_DS3505
ZGNN,2001-07-18 20:00,ZGNN 182000Z AUTO 03002KT 25/24 A2959 RMK T02500240 IEM_DS3505
ZGNN,2001-07-18 21:00,ZGNN 182100Z AUTO 14002KT 9SM 25/24 A2962 RMK SLP029 T02510245 52003 IEM_DS3505
ZGNN,2001-07-18 22:00,ZGNN 182200Z AUTO 05002KT 16SM 25/24 A2962 RMK T02500240 IEM_DS3505
ZGNN,2001-07-18 23:00,ZGNN 182300Z AUTO 6SM 25/24 A2962 RMK T02500240 IEM_DS3505
ZGNN,2001-07-19 00:00,ZGNN 190000Z AUTO 20002KT 5SM 26/25 A2962 RMK SLP037 T02590248 52007 IEM_DS3505
ZGNN,2001-07-19 01:00,ZGNN 190100Z AUTO 6SM 27/23 A2965 RMK T02700230 IEM_DS3505
ZGNN,2001-07-19 02:00,ZGNN 190200Z AUTO 15SM 29/24 A2965 RMK T02900240 IEM_DS3505
ZGNN,2001-07-19 03:00,ZGNN 190300Z AUTO 14002KT 12SM 29/24 A2968 RMK SLP042 T02930243 52006 IEM_DS3505
ZGNN,2001-07-19 04:00,ZGNN 190400Z AUTO 6SM 31/23 A2965 RMK T03100230 IEM_DS3505
ZGNN,2001-07-19 05:00,ZGNN 190500Z AUTO 6SM 31/24 A2965 RMK T03100240 IEM_DS3505
ZGNN,2001-07-19 06:00,ZGNN 190600Z AUTO 09002KT 12SM 32/24 A2962 RMK SLP029 T03170245 57013 IEM_DS3505
ZGNN,2001-07-19 07:00,ZGNN 190700Z AUTO 19SM 32/23 A2959 RMK T03200230 IEM_DS3505
ZGNN,2001-07-19 08:00,ZGNN 190800Z AUTO 6SM RMK IEM_DS3505
ZGNN,2001-07-19 09:00,ZGNN 190900Z AUTO 14004KT 12SM 33/24 A2956 RMK SLP008 T03260240 57021 IEM_DS3505
ZGNN,2001-07-19 10:00,ZGNN 191000Z AUTO 12004KT 6SM 32/24 A2956 RMK T03200240 IEM_DS3505
ZGNN,2001-07-19 11:00,ZGNN 191100Z AUTO 12004KT 6SM 31/24 A2956 RMK T03100240 IEM_DS3505
ZGNN,2001-07-19 12:00,ZGNN 191200Z AUTO 18014KT 16SM 30/25 A2959 RMK SLP021 T03000250 52013 IEM_DS3505
ZGNN,2001-07-19 13:00,ZGNN 191300Z AUTO 17006KT 6SM 29/25 A2962 RMK T02900250 IEM_DS3505
ZGNN,2001-07-19 14:00,ZGNN 191400Z AUTO 6SM 28/25 A2965 RMK T02800250 IEM_DS3505
ZGNN,2001-07-19 15:00,ZGNN 191500Z AUTO 14002KT 14SM 28/25 A2965 RMK SLP037 T02800253 52016 IEM_DS3505
ZGNN,2001-07-19 17:00,ZGNN 191700Z AUTO 10002KT 27/24 A2965 RMK T02700240 IEM_DS3505
ZGNN,2001-07-19 18:00,ZGNN 191800Z AUTO 00000KT 12SM 27/25 A2965 RMK SLP034 T02670254 57003 IEM_DS3505
ZGNN,2001-07-19 20:00,ZGNN 192000Z AUTO 26/25 A2962 RMK T02600250 IEM_DS3505
ZGNN,2001-07-19 21:00,ZGNN 192100Z AUTO 00000KT 9SM 25/25 A2962 RMK SLP027 T02540251 57007 IEM_DS3505
ZGNN,2001-07-19 22:00,ZGNN 192200Z AUTO 6SM 26/24 A2962 RMK T02600240 IEM_DS3505
ZGNN,2001-07-19 23:00,ZGNN 192300Z AUTO 06002KT 6SM 26/25 A2962 RMK T02600250 IEM_DS3505
ZGNN,2001-07-20 00:00,ZGNN 200000Z AUTO 00000KT 3SM 27/26 RMK SLP031 T02680257 52004 IEM_DS3505
ZGNN,2001-07-20 01:00,ZGNN 200100Z AUTO 6SM 28/25 A2962 RMK T02800250 IEM_DS3505
ZGNN,2001-07-20 02:00,ZGNN 200200Z AUTO 6SM 29/25 A2962 RMK T02900250 IEM_DS3505
ZGNN,2001-07-20 03:00,ZGNN 200300Z AUTO 14006KT 12SM 30/25 A2962 RMK SLP034 T03020250 52003 IEM_DS3505
ZGNN,2001-07-20 04:00,ZGNN 200400Z AUTO 09006KT 6SM 30/24 A2962 RMK T03000240 IEM_DS3505
ZGNN,2001-07-20 05:00,ZGNN 200500Z AUTO 11006KT 5SM 31/24 A2959 RMK T03100240 IEM_DS3505
ZGNN,2001-07-20 06:00,ZGNN 200600Z AUTO 09006KT 19SM 33/24 A2959 RMK SLP015 T03260245 57018 IEM_DS3505
ZGNN,2001-07-20 07:00,ZGNN 200700Z AUTO 12008KT 6SM 33/23 A2956 RMK T03300230 IEM_DS3505
ZGNN,2001-07-20 08:00,ZGNN 200800Z AUTO 13008KT 43SM 32/23 A2953 RMK T03200230 IEM_DS3505
ZGNN,2001-07-20 09:00,ZGNN 200900Z AUTO 09006KT 19SM 32/23 RMK SLP999 T03220232 57016 IEM_DS3505
ZGNN,2001-07-20 10:00,ZGNN 201000Z AUTO 10006KT 6SM 30/24 A2953 RMK T03000240 IEM_DS3505
ZGNN,2001-07-20 11:00,ZGNN 201100Z AUTO 08004KT 5SM RMK IEM_DS3505
ZGNN,2001-07-20 12:00,ZGNN 201200Z AUTO 07004KT 12SM 29/25 A2956 RMK SLP014 T02880247 52014 IEM_DS3505
ZGNN,2001-07-20 13:00,ZGNN 201300Z AUTO 13004KT 6SM 28/24 A2959 RMK T02800240 IEM_DS3505
ZGNN,2001-07-20 14:00,ZGNN 201400Z AUTO 16006KT 6SM 27/23 A2962 RMK T02700230 IEM_DS3505
ZGNN,2001-07-20 15:00,ZGNN 201500Z AUTO 18004KT 12SM 27/24 A2965 RMK SLP041 T02740238 52027 IEM_DS3505
ZGNN,2001-07-20 18:00,ZGNN 201800Z AUTO 00000KT 12SM 26/24 RMK SLP034 T02580239 57007 IEM_DS3505
ZGNN,2001-07-20 20:00,ZGNN 202000Z AUTO 04004KT 26/23 A2962 RMK T02600230 IEM_DS3505
ZGNN,2001-07-20 21:00,ZGNN 202100Z AUTO 00000KT 9SM 26/24 RMK SLP034 T02570244 54000 IEM_DS3505
ZGNN,2001-07-20 22:00,ZGNN 202200Z AUTO 03006KT 6SM RMK IEM_DS3505
ZGNN,2001-07-20 23:00,ZGNN 202300Z AUTO 04004KT 6SM RMK IEM_DS3505
ZGNN,2001-07-21 00:00,ZGNN 210000Z AUTO 07002KT 4SM 26/25 A2965 RMK SLP044 T02640246 52009 IEM_DS3505
ZGNN,2001-07-21 01:00,ZGNN 210100Z AUTO 07010KT 6SM 26/24 A2968 RMK T02600240 IEM_DS3505
ZGNN,2001-07-21 02:00,ZGNN 210200Z AUTO 05006KT 6SM RMK IEM_DS3505
ZGNN,2001-07-21 03:00,ZGNN 210300Z AUTO 04004KT 12SM 28/25 A2971 RMK SLP055 T02810250 52011 IEM_DS3505
ZGNN,2001-07-21 04:00,ZGNN 210400Z AUTO 08008KT RMK IEM_DS3505
ZGNN,2001-07-21 05:00,ZGNN 210500Z AUTO 08008KT RMK IEM_DS3505
ZGNN,2001-07-21 06:00,ZGNN 210600Z AUTO 14004KT 16SM 32/24 RMK 60004 SLP032 T03200238 57022 IEM_DS3505
ZGNN,2001-07-21 07:00,ZGNN 210700Z VRB01MPS 9999 SCT023 SCT070 32/23 Q1002 NOSIG
ZGNN,2001-07-21 08:00,ZGNN 210800Z VRB02MPS 9999 SCT023 SCT053 32/24 Q1002 NOSIG
ZGNN,2001-07-21 09:00,ZGNN 210900Z 11003MPS 080V140 9999 FEW023TCU SCT023 SCT046 32/23 Q1001 NOSIG
ZGNN,2001-07-21 10:00,ZGNN 211000Z 07005MPS 9999 FEW023CB SCT023 BKN043 26/23 Q1003 NOSIG
ZGNN,2001-07-21 11:00,ZGNN 211100Z 08003MPS 9999 SCT026 BKN130 26/23 Q1003 NOSIG
ZGNN,2001-07-21 12:00,ZGNN 211200Z 05004MPS 9999 SCT026 BKN130 26/23 Q1003 NOSIG
ZGNN,2001-07-21 13:00,ZGNN 211300Z AUTO 07006KT RMK IEM_DS3505
ZGNN,2001-07-21 14:00,ZGNN 211400Z AUTO 07006KT 6SM RMK IEM_DS3505
ZGNN,2001-07-21 15:00,ZGNN 211500Z AUTO 07002KT 7SM 26/24 A2971 RMK SLP060 T02600243 52023 IEM_DS3505
ZGNN,2001-07-21 16:00,ZGNN 211600Z AUTO 05004KT 25/24 A2971 RMK T02500240 IEM_DS3505
ZGNN,2001-07-21 17:00,ZGNN 211700Z AUTO 06006KT 25/23 A2971 RMK T02500230 IEM_DS3505
ZGNN,2001-07-21 18:00,ZGNN 211800Z AUTO 00000KT 7SM 26/24 A2971 RMK 60003 SLP057 T02570241 57002 IEM_DS3505
ZGNN,2001-07-21 19:00,ZGNN 211900Z AUTO 06006KT 25/23 A2968 RMK T02500230 IEM_DS3505
ZGNN,2001-07-21 20:00,ZGNN 212000Z AUTO 06006KT 25/23 A2968 RMK T02500230 IEM_DS3505
ZGNN,2001-07-21 21:00,ZGNN 212100Z AUTO 07002KT 7SM 25/24 RMK 70005 SLP055 T02530239 57002 IEM_DS3505
ZGNN,2001-07-21 22:00,ZGNN 212200Z AUTO 06006KT 6SM 25/23 A2968 RMK T02500230 IEM_DS3505
ZGNN,2001-07-21 23:00,ZGNN 212300Z AUTO 06004KT 6SM RMK IEM_DS3505
ZGNN,2001-07-22 00:00,ZGNN 220000Z AUTO 09006KT 6SM 26/23 RMK 70005 SLP061 T02630234 52005 IEM_DS3505
ZGNN,2001-07-22 01:00,ZGNN 220100Z AUTO 08008KT RMK IEM_DS3505
ZGNN,2001-07-22 02:00,ZGNN 220200Z AUTO 09006KT 6SM RMK IEM_DS3505
ZGNN,2001-07-22 03:00,ZGNN 220300Z AUTO 14006KT 19SM 29/24 RMK SLP069 T02900236 52008 IEM_DS3505
ZGNN,2001-07-22 04:00,ZGNN 220400Z AUTO 12006KT 6SM 26/24 A2974 RMK T02600240 IEM_DS3505
ZGNN,2001-07-22 05:00,ZGNN 220500Z AUTO 08006KT 6SM 28/24 A2974 RMK T02800240 IEM_DS3505
ZGNN,2001-07-22 06:00,ZGNN 220600Z AUTO 29002KT 19SM 30/25 RMK 60002 SLP056 T03030254 57013 IEM_DS3505
ZGNN,2001-07-22 07:00,ZGNN 220700Z AUTO 09008KT 6SM 31/23 A2968 RMK T03100230 IEM_DS3505
ZGNN,2001-07-22 08:00,ZGNN 220800Z AUTO 18006KT 6SM 28/24 A2968 RMK T02800240 IEM_DS3505
ZGNN,2001-07-22 09:00,ZGNN 220900Z AUTO 16004KT 19SM 31/23 A2965 RMK SLP038 T03090233 57017 IEM_DS3505
ZGNN,2001-07-22 10:00,ZGNN 221000Z AUTO 16008KT 6SM 29/23 A2965 RMK T02900230 IEM_DS3505
ZGNN,2001-07-22 11:00,ZGNN 221100Z AUTO 10006KT 26/23 A2968 RMK T02600230 IEM_DS3505
ZGNN,2001-07-22 12:00,ZGNN 221200Z AUTO 00000KT 16SM 26/25 A2968 RMK 60055 SLP063 T02560249 52023 IEM_DS3505
ZGNN,2001-07-22 13:00,ZGNN 221300Z AUTO 07004KT 6SM 25/24 A2974 RMK T02500240 IEM_DS3505
ZGNN,2001-07-22 14:00,ZGNN 221400Z AUTO 08004KT 25/24 A2977 RMK T02500240 IEM_DS3505
ZGNN,2001-07-22 15:00,ZGNN 221500Z AUTO 11004KT 12SM 26/24 A2977 RMK SLP086 T02560245 52024 IEM_DS3505
ZGNN,2001-07-22 16:00,ZGNN 221600Z AUTO 25/24 A2977 RMK T02500240 IEM_DS3505
ZGNN,2001-07-22 17:00,ZGNN 221700Z AUTO 11002KT 25/24 A2977 RMK T02500240 IEM_DS3505
ZGNN,2001-07-22 18:00,ZGNN 221800Z AUTO 00000KT 12SM 25/24 RMK 60002 SLP084 T02500244 57002 IEM_DS3505
ZGNN,2001-07-22 21:00,ZGNN 222100Z AUTO 00000KT 7SM 25/24 A2974 RMK 70060 SLP074 T02520243 57010 IEM_DS3505
ZGNN,2001-07-22 22:00,ZGNN 222200Z AUTO 05004KT 31SM 25/24 A2974 RMK T02500240 IEM_DS3505
ZGNN,2001-07-22 23:00,ZGNN 222300Z AUTO 05004KT RMK IEM_DS3505
ZGNN,2001-07-23 00:00,ZGNN 230000Z AUTO 09002KT 6SM 26/24 A2977 RMK 60002 SLP077 T02560245 52002 IEM_DS3505
ZGNN,2001-07-23 01:00,ZGNN 230100Z AUTO 10004KT 6SM 26/23 A2977 RMK T02600230 IEM_DS3505
ZGNN,2001-07-23 02:00,ZGNN 230200Z AUTO 07006KT 6SM 26/24 A2980 RMK T02600240 IEM_DS3505
ZGNN,2001-07-23 03:00,ZGNN 230300Z AUTO 04004KT 12SM 26/24 A2980 RMK SLP090 T02610245 52013 IEM_DS3505
ZGNN,2001-07-23 04:00,ZGNN 230400Z AUTO 6SM RMK IEM_DS3505
ZGNN,2001-07-23 05:00,ZGNN 230500Z AUTO 29/24 A2974 RMK T02900240 IEM_DS3505
ZGNN,2001-07-23 06:00,ZGNN 230600Z AUTO 09006KT 19SM 30/25 RMK 60003 SLP067 T03050249 57022 IEM_DS3505
ZGNN,2001-07-23 07:00,ZGNN 230700Z AUTO 6SM RMK IEM_DS3505
ZGNN,2001-07-23 08:00,ZGNN 230800Z AUTO 14SM 32/24 A2968 RMK T03200240 IEM_DS3505
ZGNN,2001-07-23 09:00,ZGNN 230900Z AUTO 22002KT 12SM 29/25 A2968 RMK SLP050 T02880254 57017 IEM_DS3505
ZGNN,2001-07-23 10:00,ZGNN 231000Z AUTO 19002KT 19SM 28/24 A2965 RMK T02800240 IEM_DS3505
ZGNN,2001-07-23 11:00,ZGNN 231100Z AUTO 23006KT 27/24 A2968 RMK T02700240 IEM_DS3505
ZGNN,2001-07-23 12:00,ZGNN 231200Z AUTO 00000KT 12SM 27/25 A2968 RMK 60000 SLP048 T02720251 57002 IEM_DS3505
ZGNN,2001-07-23 13:00,ZGNN 231300Z AUTO 14002KT 6SM 27/25 A2968 RMK T02700250 IEM_DS3505
ZGNN,2001-07-23 14:00,ZGNN 231400Z AUTO 6SM 27/25 A2971 RMK T02700250 IEM_DS3505
ZGNN,2001-07-23 15:00,ZGNN 231500Z AUTO 00000KT 12SM 26/25 RMK SLP060 T02610253 52011 IEM_DS3505
ZGNN,2001-07-23 16:00,ZGNN 231600Z AUTO 26/24 A2971 RMK T02600240 IEM_DS3505
ZGNN,2001-07-23 17:00,ZGNN 231700Z AUTO 26/23 A2971 RMK T02600230 IEM_DS3505
ZGNN,2001-07-23 18:00,ZGNN 231800Z AUTO 00000KT 9SM 25/24 RMK SLP054 T02510244 57005 IEM_DS3505
ZGNN,2001-07-23 19:00,ZGNN 231900Z AUTO 25/23 A2968 RMK T02500230 IEM_DS3505
ZGNN,2001-07-23 20:00,ZGNN 232000Z AUTO 25/23 A2968 RMK T02500230 IEM_DS3505
ZGNN,2001-07-23 21:00,ZGNN 232100Z AUTO 00000KT 7SM 24/24 RMK 70001 SLP049 T02430239 57005 IEM_DS3505
ZGNN,2001-07-23 22:00,ZGNN 232200Z AUTO 6SM RMK IEM_DS3505
ZGNN,2001-07-23 23:00,ZGNN 232300Z AUTO 33002KT 6SM 25/23 A2968 RMK T02500230 IEM_DS3505
ZGNN,2001-07-24 00:00,ZGNN 240000Z AUTO 27002KT 12SM 26/25 A2968 RMK 70001 SLP055 T02600246 52006 IEM_DS3505
ZGNN,2001-07-24 01:00,ZGNN 240100Z AUTO 20002KT 7SM 26/24 A2971 RMK T02600240 IEM_DS3505
ZGNN,2001-07-24 02:00,ZGNN 240200Z AUTO 6SM RMK IEM_DS3505
ZGNN,2001-07-24 03:00,ZGNN 240300Z AUTO 14002KT 14SM 30/25 RMK SLP049 T03030248 57005 IEM_DS3505
ZGNN,2001-07-24 04:00,ZGNN 240400Z AUTO 6SM 31/24 A2968 RMK T03100240 IEM_DS3505
ZGNN,2001-07-24 05:00,ZGNN 240500Z AUTO 9SM 32/23 A2965 RMK T03200230 IEM_DS3505
ZGNN,2001-07-24 06:00,ZGNN 240600Z AUTO 18004KT 19SM 32/23 A2962 RMK SLP033 T03250226 57016 IEM_DS3505
ZGNN,2001-07-24 07:00,ZGNN 240700Z AUTO 7SM 34/23 A2962 RMK T03400230 IEM_DS3505
ZGNN,2001-07-24 08:00,ZGNN 240800Z AUTO 6SM 34/23 A2959 RMK T03400230 IEM_DS3505
ZGNN,2001-07-24 09:00,ZGNN 240900Z AUTO 18004KT 19SM 34/24 A2956 RMK SLP009 T03410243 57023 IEM_DS3505
ZGNN,2001-07-24 10:00,ZGNN 241000Z AUTO 15006KT 6SM RMK IEM_DS3505
ZGNN,2001-07-24 11:00,ZGNN 241100Z AUTO 11006KT 6SM 32/23 A2956 RMK T03200230 IEM_DS3505
ZGNN,2001-07-24 12:00,ZGNN 241200Z AUTO 11002KT 17SM 32/25 A2959 RMK SLP021 T03150249 52011 IEM_DS3505
ZGNN,2001-07-24 13:00,ZGNN 241300Z AUTO 15004KT 6SM 29/25 A2962 RMK T02900250 IEM_DS3505
ZGNN,2001-07-24 14:00,ZGNN 241400Z AUTO 16004KT 6SM 28/25 A2962 RMK T02800250 IEM_DS3505
ZGNN,2001-07-24 15:00,ZGNN 241500Z AUTO 00000KT 16SM 28/25 A2965 RMK SLP039 T02830254 52018 IEM_DS3505
ZGNN,2001-07-24 18:00,ZGNN 241800Z AUTO 34002KT 12SM 26/25 RMK SLP024 T02630252 57015 IEM_DS3505
ZGNN,2001-07-24 21:00,ZGNN 242100Z AUTO 00000KT 9SM 26/25 A2962 RMK SLP032 T02570250 52009 IEM_DS3505
ZGNN,2001-07-24 22:00,ZGNN 242200Z AUTO 04002KT 6SM RMK IEM_DS3505
ZGNN,2001-07-24 23:00,ZGNN 242300Z AUTO 02002KT RMK IEM_DS3505
ZGNN,2001-07-25 00:00,ZGNN 250000Z AUTO 09002KT 9SM 27/25 A2965 RMK SLP044 T02730250 52011 IEM_DS3505
ZGNN,2001-07-25 01:00,ZGNN 250100Z AUTO 6SM 28/25 A2968 RMK T02800250 IEM_DS3505
ZGNN,2001-07-25 02:00,ZGNN 250200Z AUTO 6SM 29/24 A2968 RMK T02900240 IEM_DS3505
ZGNN,2001-07-25 03:00,ZGNN 250300Z AUTO 18002KT 17SM 31/26 RMK SLP044 T03080260 54000 IEM_DS3505
ZGNN,2001-07-25 05:00,ZGNN 250500Z AUTO 11006KT 6SM RMK IEM_DS3505
ZGNN,2001-07-25 06:00,ZGNN 250600Z AUTO 14004KT 19SM 33/24 RMK SLP025 T03340241 57018 IEM_DS3505
ZGNN,2001-07-25 07:00,ZGNN 250700Z AUTO 6SM 34/23 A2959 RMK T03400230 IEM_DS3505
ZGNN,2001-07-25 08:00,ZGNN 250800Z AUTO 6SM RMK IEM_DS3505
ZGNN,2001-07-25 09:00,ZGNN 250900Z AUTO 09004KT 17SM 34/24 A2956 RMK SLP007 T03450241 57018 IEM_DS3505
ZGNN,2001-07-25 10:00,ZGNN 251000Z AUTO 06006KT 6SM 34/23 A2956 RMK T03400230 IEM_DS3505
ZGNN,2001-07-25 11:00,ZGNN 251100Z AUTO 09004KT 6SM 32/24 A2956 RMK T03200240 IEM_DS3505
ZGNN,2001-07-25 12:00,ZGNN 251200Z AUTO 00000KT 12SM 31/25 RMK SLP023 T03090247 52015 IEM_DS3505
ZGNN,2001-07-25 13:00,ZGNN 251300Z AUTO 03004KT 6SM 30/23 A2959 RMK T03000230 IEM_DS3505
ZGNN,2001-07-25 14:00,ZGNN 251400Z AUTO 35002KT 6SM 30/23 A2962 RMK T03000230 IEM_DS3505
ZGNN,2001-07-25 15:00,ZGNN 251500Z AUTO 00000KT 12SM 28/25 RMK SLP034 T02820251 52011 IEM_DS3505
ZGNN,2001-07-25 17:00,ZGNN 251700Z AUTO 07002KT 27/25 RMK T02700250 IEM_DS3505
ZGNN,2001-07-25 18:00,ZGNN 251800Z AUTO 00000KT 11SM 27/25 A2962 RMK SLP027 T02680253 57006 IEM_DS3505
ZGNN,2001-07-25 19:00,ZGNN 251900Z AUTO 28/23 A2959 RMK T02800230 IEM_DS3505
ZGNN,2001-07-25 20:00,ZGNN 252000Z AUTO 06004KT 26/24 A2959 RMK T02600240 IEM_DS3505
ZGNN,2001-07-25 21:00,ZGNN 252100Z AUTO 00000KT 9SM 26/24 A2959 RMK SLP014 T02600243 57013 IEM_DS3505
ZGNN,2001-07-25 22:00,ZGNN 252200Z AUTO 6SM 26/24 A2959 RMK T02600240 IEM_DS3505
ZGNN,2001-07-25 23:00,ZGNN 252300Z AUTO 6SM 26/24 A2959 RMK T02600240 IEM_DS3505
ZGNN,2001-07-26 00:00,ZGNN 260000Z AUTO 34006KT 4SM 27/26 A2959 RMK SLP024 T02730256 52009 IEM_DS3505
ZGNN,2001-07-26 01:00,ZGNN 260100Z AUTO 31006KT 12SM RMK IEM_DS3505
ZGNN,2001-07-26 02:00,ZGNN 260200Z AUTO 33010KT 6SM 31/25 A2959 RMK T03100250 IEM_DS3505
ZGNN,2001-07-26 03:00,ZGNN 260300Z AUTO 34008KT 8SM 30/26 A2959 RMK SLP021 T03010255 57003 IEM_DS3505
ZGNN,2001-07-26 04:00,ZGNN 260400Z AUTO 35006KT 6SM 30/24 A2959 RMK T03000240 IEM_DS3505
ZGNN,2001-07-26 05:00,ZGNN 260500Z AUTO 36010KT 12SM RMK IEM_DS3505
ZGNN,2001-07-26 06:00,ZGNN 260600Z AUTO 36008KT 12SM 30/23 A2956 RMK 60000 SLP007 T02960228 57014 IEM_DS3505
ZGNN,2001-07-26 07:00,ZGNN 260700Z AUTO 01012KT 6SM 30/22 A2953 RMK T03000220 IEM_DS3505
ZGNN,2001-07-26 08:00,ZGNN 260800Z AUTO 36012KT RMK IEM_DS3505
ZGNN,2001-07-26 09:00,ZGNN 260900Z AUTO 36006KT 16SM 29/23 RMK SLP988 T02860233 57019 IEM_DS3505
ZGNN,2001-07-26 10:00,ZGNN 261000Z AUTO 33006KT 10SM RMK IEM_DS3505
ZGNN,2001-07-26 11:00,ZGNN 261100Z AUTO 32006KT 6SM 28/23 A2950 RMK T02800230 IEM_DS3505
ZGNN,2001-07-26 12:00,ZGNN 261200Z AUTO 34006KT 2SM 25/24 A2950 RMK 60016 SLP996 T02500241 52007 IEM_DS3505
ZGNN,2001-07-26 13:00,ZGNN 261300Z AUTO 29006KT 6SM 25/23 A2950 RMK T02500230 IEM_DS3505
ZGNN,2001-07-26 14:00,ZGNN 261400Z AUTO 31010KT 6SM 25/23 A2950 RMK T02500230 IEM_DS3505
ZGNN,2001-07-26 15:00,ZGNN 261500Z AUTO 34006KT 2SM 25/24 A2953 RMK SLP997 T02470238 52002 IEM_DS3505
ZGNN,2001-07-26 16:00,ZGNN 261600Z AUTO 30006KT 24/23 A2953 RMK T02400230 IEM_DS3505
ZGNN,2001-07-26 17:00,ZGNN 261700Z AUTO 20006KT 24/23 A2953 RMK T02400230 IEM_DS3505
ZGNN,2001-07-26 18:00,ZGNN 261800Z AUTO 18010KT 2SM 24/24 A2953 RMK 60063 SLP004 T02420239 52007 IEM_DS3505
ZGNN,2001-07-26 19:00,ZGNN 261900Z AUTO 17010KT 24/23 A2956 RMK T02400230 IEM_DS3505
ZGNN,2001-07-26 20:00,ZGNN 262000Z AUTO 16008KT 24/23 A2956 RMK T02400230 IEM_DS3505
ZGNN,2001-07-26 21:00,ZGNN 262100Z AUTO 14006KT 3SM 24/23 A2956 RMK 70165 SLP014 T02400234 52009 IEM_DS3505
ZGNN,2001-07-26 22:00,ZGNN 262200Z AUTO 15006KT 6SM 24/22 A2959 RMK T02400220 IEM_DS3505
ZGNN,2001-07-26 23:00,ZGNN 262300Z AUTO 15006KT 6SM 24/22 A2959 RMK T02400220 IEM_DS3505
ZGNN,2001-07-27 00:00,ZGNN 270000Z AUTO 16002KT 4SM 24/24 A2959 RMK 60106 SLP025 T02440237 52010 IEM_DS3505
ZGNN,2001-07-27 01:00,ZGNN 270100Z AUTO 12006KT 6SM 24/23 A2959 RMK T02400230 IEM_DS3505
ZGNN,2001-07-27 02:00,ZGNN 270200Z AUTO 09004KT 6SM 24/23 A2962 RMK T02400230 IEM_DS3505
ZGNN,2001-07-27 03:00,ZGNN 270300Z AUTO 09004KT 4SM 24/24 A2965 RMK SLP038 T02440238 52013 IEM_DS3505
ZGNN,2001-07-27 04:00,ZGNN 270400Z AUTO 16004KT 6SM 24/23 A2965 RMK T02400230 IEM_DS3505
ZGNN,2001-07-27 05:00,ZGNN 270500Z AUTO 13004KT 24/23 A2962 RMK T02400230 IEM_DS3505
ZGNN,2001-07-27 06:00,ZGNN 270600Z AUTO 14004KT 9SM 25/24 A2962 RMK 60028 SLP032 T02510241 57006 IEM_DS3505
ZGNN,2001-07-27 07:00,ZGNN 270700Z AUTO 16004KT RMK IEM_DS3505
ZGNN,2001-07-27 08:00,ZGNN 270800Z AUTO 6SM RMK IEM_DS3505
ZGNN,2001-07-27 09:00,ZGNN 270900Z AUTO 18002KT 16SM 26/24 RMK SLP023 T02630239 57009 IEM_DS3505
ZGNN,2001-07-27 10:00,ZGNN 271000Z AUTO 14004KT 6SM RMK IEM_DS3505
ZGNN,2001-07-27 11:00,ZGNN 271100Z AUTO 10004KT RMK IEM_DS3505
ZGNN,2001-07-27 12:00,ZGNN 271200Z AUTO 00000KT 12SM 26/24 A2962 RMK 60000 SLP028 T02610245 52005 IEM_DS3505
ZGNN,2001-07-27 13:00,ZGNN 271300Z AUTO 10002KT 19SM 25/24 A2962 RMK T02500240 IEM_DS3505
ZGNN,2001-07-27 15:00,ZGNN 271500Z AUTO 11002KT 12SM 26/25 RMK SLP046 T02580247 52018 IEM_DS3505
ZGNN,2001-07-27 16:00,ZGNN 271600Z AUTO 06002KT 6SM RMK IEM_DS3505
ZGNN,2001-07-27 17:00,ZGNN 271700Z AUTO 4SM 25/24 A2965 RMK T02500240 IEM_DS3505
ZGNN,2001-07-27 18:00,ZGNN 271800Z AUTO 14002KT 12SM 26/25 A2965 RMK SLP042 T02590248 57004 IEM_DS3505
ZGNN,2001-07-27 19:00,ZGNN 271900Z AUTO 25/23 RMK T02500230 IEM_DS3505
ZGNN,2001-07-27 20:00,ZGNN 272000Z AUTO 25/23 A2965 RMK T02500230 IEM_DS3505
ZGNN,2001-07-27 21:00,ZGNN 272100Z AUTO 00000KT 9SM 25/24 A2962 RMK 70057 SLP029 T02480242 57012 IEM_DS3505
ZGNN,2001-07-27 22:00,ZGNN 272200Z AUTO 6SM 25/23 A2965 RMK T02500230 IEM_DS3505
ZGNN,2001-07-27 23:00,ZGNN 272300Z AUTO 06002KT 6SM 25/23 A2965 RMK T02500230 IEM_DS3505
ZGNN,2001-07-28 00:00,ZGNN 280000Z AUTO 09004KT 19SM 27/25 A2965 RMK 60008 SLP044 T02660246 52015 IEM_DS3505
ZGNN,2001-07-28 01:00,ZGNN 280100Z AUTO 6SM 27/24 A2968 RMK T02700240 IEM_DS3505
ZGNN,2001-07-28 02:00,ZGNN 280200Z AUTO 10006KT 6SM RMK IEM_DS3505
ZGNN,2001-07-28 03:00,ZGNN 280300Z AUTO 18006KT 19SM 29/26 RMK SLP049 T02940255 52005 IEM_DS3505
ZGNN,2001-07-28 04:00,ZGNN 280400Z AUTO 14008KT 30/25 A2968 RMK T03000250 IEM_DS3505
ZGNN,2001-07-28 05:00,ZGNN 280500Z AUTO 15010KT 6SM RMK IEM_DS3505
ZGNN,2001-07-28 06:00,ZGNN 280600Z AUTO 14006KT 19SM 27/24 RMK 60003 SLP044 T02700244 57005 IEM_DS3505
ZGNN,2001-07-28 07:00,ZGNN 280700Z AUTO 13008KT 30/25 A2965 RMK T03000250 IEM_DS3505
ZGNN,2001-07-28 08:00,ZGNN 280800Z AUTO 13010KT 30/25 A2962 RMK T03000250 IEM_DS3505
ZGNN,2001-07-28 09:00,ZGNN 280900Z AUTO 16004KT 19SM 30/25 A2959 RMK SLP027 T03000247 57017 IEM_DS3505
ZGNN,2001-07-28 10:00,ZGNN 281000Z AUTO 14008KT 6SM 30/24 A2959 RMK T03000240 IEM_DS3505
ZGNN,2001-07-28 11:00,ZGNN 281100Z AUTO 15008KT 6SM RMK IEM_DS3505
ZGNN,2001-07-28 12:00,ZGNN 281200Z AUTO 14002KT 19SM 28/25 RMK SLP038 T02800252 52011 IEM_DS3505
ZGNN,2001-07-28 13:00,ZGNN 281300Z AUTO 12004KT 6SM 27/24 A2965 RMK T02700240 IEM_DS3505
ZGNN,2001-07-28 14:00,ZGNN 281400Z AUTO 13004KT RMK IEM_DS3505
ZGNN,2001-07-28 15:00,ZGNN 281500Z AUTO 09006KT 16SM 27/25 RMK SLP053 T02660252 52015 IEM_DS3505
ZGNN,2001-07-28 16:00,ZGNN 281600Z AUTO 06002KT 26/24 A2968 RMK T02600240 IEM_DS3505
ZGNN,2001-07-28 18:00,ZGNN 281800Z AUTO 00000KT 16SM 26/25 A2968 RMK SLP051 T02620254 57002 IEM_DS3505
ZGNN,2001-07-28 19:00,ZGNN 281900Z AUTO 08002KT 26/24 A2965 RMK T02600240 IEM_DS3505
ZGNN,2001-07-28 21:00,ZGNN 282100Z AUTO 00000KT 12SM 26/25 A2965 RMK 70003 SLP038 T02560252 57012 IEM_DS3505
ZGNN,2001-07-28 22:00,ZGNN 282200Z AUTO 06002KT 6SM 25/24 A2965 RMK T02500240 IEM_DS3505
ZGNN,2001-07-28 23:00,ZGNN 282300Z AUTO 6SM 26/24 A2968 RMK T02600240 IEM_DS3505
ZGNN,2001-07-29 00:00,ZGNN 290000Z AUTO 04002KT 4SM 26/26 RMK 70003 SLP049 T02650255 52010 IEM_DS3505
ZGNN,2001-07-29 01:00,ZGNN 290100Z AUTO 10006KT 6SM 28/25 A2968 RMK T02800250 IEM_DS3505
ZGNN,2001-07-29 02:00,ZGNN 290200Z AUTO 12008KT 6SM 29/24 A2971 RMK T02900240 IEM_DS3505
ZGNN,2001-07-29 03:00,ZGNN 290300Z AUTO 14006KT 19SM 31/25 A2971 RMK SLP055 T03060247 52007 IEM_DS3505
ZGNN,2001-07-29 04:00,ZGNN 290400Z AUTO 13006KT 6SM RMK IEM_DS3505
ZGNN,2001-07-29 05:00,ZGNN 290500Z AUTO 14006KT 6SM 32/25 A2968 RMK T03200250 IEM_DS3505
ZGNN,2001-07-29 06:00,ZGNN 290600Z AUTO 18004KT 19SM 33/25 RMK SLP038 T03280250 57017 IEM_DS3505
ZGNN,2001-07-29 07:00,ZGNN 290700Z AUTO 21008KT RMK IEM_DS3505
ZGNN,2001-07-29 08:00,ZGNN 290800Z AUTO 13008KT 6SM RMK IEM_DS3505
ZGNN,2001-07-29 09:00,ZGNN 290900Z AUTO 18006KT 19SM 32/25 RMK SLP023 T03160250 57015 IEM_DS3505
ZGNN,2001-07-29 10:00,ZGNN 291000Z AUTO 13008KT 6SM RMK IEM_DS3505
ZGNN,2001-07-29 11:00,ZGNN 291100Z AUTO 14010KT 16SM 30/24 A2959 RMK T03000240 IEM_DS3505
ZGNN,2001-07-29 12:00,ZGNN 291200Z AUTO 14004KT 19SM 29/26 A2962 RMK SLP029 T02940259 52006 IEM_DS3505
ZGNN,2001-07-29 13:00,ZGNN 291300Z AUTO 13006KT 6SM 28/25 A2965 RMK T02800250 IEM_DS3505
ZGNN,2001-07-29 14:00,ZGNN 291400Z AUTO 14006KT 28/25 A2965 RMK T02800250 IEM_DS3505
ZGNN,2001-07-29 15:00,ZGNN 291500Z AUTO 18004KT 16SM 28/26 RMK SLP052 T02780256 52023 IEM_DS3505
ZGNN,2001-07-29 18:00,ZGNN 291800Z AUTO 11002KT 15SM 27/26 RMK SLP038 T02660258 57014 IEM_DS3505
ZGNN,2001-07-29 20:00,ZGNN 292000Z AUTO 07004KT 26/25 A2965 RMK T02600250 IEM_DS3505
ZGNN,2001-07-29 21:00,ZGNN 292100Z AUTO 00000KT 12SM 26/26 RMK SLP038 T02640256 54000 IEM_DS3505
ZGNN,2001-07-29 22:00,ZGNN 292200Z AUTO 09002KT 6SM 26/24 A2965 RMK T02600240 IEM_DS3505
ZGNN,2001-07-29 23:00,ZGNN 292300Z AUTO 6SM 26/24 A2965 RMK T02600240 IEM_DS3505
ZGNN,2001-07-30 00:00,ZGNN 300000Z AUTO 09004KT 12SM 28/26 A2968 RMK SLP049 T02780257 52011 IEM_DS3505
ZGNN,2001-07-30 01:00,ZGNN 300100Z AUTO 14006KT 6SM 29/24 A2968 RMK T02900240 IEM_DS3505
ZGNN,2001-07-30 02:00,ZGNN 300200Z AUTO 14006KT 6SM RMK IEM_DS3505
ZGNN,2001-07-30 03:00,ZGNN 300300Z AUTO 22006KT 19SM 31/25 RMK SLP052 T03100254 52003 IEM_DS3505
ZGNN,2001-07-30 04:00,ZGNN 300400Z AUTO 6SM 31/25 A2968 RMK T03100250 IEM_DS3505
ZGNN,2001-07-30 05:00,ZGNN 300500Z AUTO 6SM 33/24 A2965 RMK T03300240 IEM_DS3505
ZGNN,2001-07-30 06:00,ZGNN 300600Z AUTO 18004KT 19SM 33/26 A2962 RMK SLP031 T03280256 57020 IEM_DS3505
ZGNN,2001-07-30 07:00,ZGNN 300700Z AUTO 10006KT 6SM RMK IEM_DS3505
ZGNN,2001-07-30 08:00,ZGNN 300800Z AUTO 11006KT 6SM RMK IEM_DS3505
ZGNN,2001-07-30 09:00,ZGNN 300900Z AUTO 14006KT 19SM 33/25 RMK SLP015 T03340251 57016 IEM_DS3505
ZGNN,2001-07-30 10:00,ZGNN 301000Z AUTO 13012KT 6SM 32/25 A2959 RMK T03200250 IEM_DS3505
ZGNN,2001-07-30 11:00,ZGNN 301100Z AUTO 13010KT 6SM 31/25 A2959 RMK T03100250 IEM_DS3505
ZGNN,2001-07-30 12:00,ZGNN 301200Z AUTO 14006KT 17SM 30/25 A2962 RMK SLP031 T03010254 52015 IEM_DS3505
ZGNN,2001-07-30 13:00,ZGNN 301300Z AUTO 13006KT 6SM 29/25 A2965 RMK T02900250 IEM_DS3505
ZGNN,2001-07-30 14:00,ZGNN 301400Z AUTO 14006KT 6SM 28/25 A2965 RMK T02800250 IEM_DS3505
ZGNN,2001-07-30 15:00,ZGNN 301500Z AUTO 11004KT 16SM 28/26 A2968 RMK SLP046 T02830255 52015 IEM_DS3505
ZGNN,2001-07-30 16:00,ZGNN 301600Z AUTO 09002KT 7SM 27/25 A2968 RMK T02700250 IEM_DS3505
ZGNN,2001-07-30 17:00,ZGNN 301700Z AUTO 6SM 27/25 A2968 RMK T02700250 IEM_DS3505
ZGNN,2001-07-30 18:00,ZGNN 301800Z AUTO 04002KT 15SM 27/26 A2968 RMK SLP043 T02660256 57003 IEM_DS3505
ZGNN,2001-07-30 19:00,ZGNN 301900Z AUTO 06002KT 6SM 26/25 A2965 RMK T02600250 IEM_DS3505
ZGNN,2001-07-30 20:00,ZGNN 302000Z AUTO 06002KT 6SM 26/24 A2965 RMK T02600240 IEM_DS3505
ZGNN,2001-07-30 21:00,ZGNN 302100Z AUTO 00000KT 11SM 26/25 A2965 RMK SLP037 T02600254 57006 IEM_DS3505
ZGNN,2001-07-30 22:00,ZGNN 302200Z AUTO 04002KT 7SM 26/25 A2965 RMK T02600250 IEM_DS3505
ZGNN,2001-07-30 23:00,ZGNN 302300Z AUTO 6SM 26/25 A2965 RMK T02600250 IEM_DS3505
ZGNN,2001-07-31 00:00,ZGNN 310000Z AUTO 00000KT 5SM 27/26 A2968 RMK SLP049 T02730258 52012 IEM_DS3505
ZGNN,2001-07-31 01:00,ZGNN 310100Z AUTO 7SM 29/25 A2968 RMK T02900250 IEM_DS3505
ZGNN,2001-07-31 02:00,ZGNN 310200Z AUTO 7SM 30/25 A2968 RMK T03000250 IEM_DS3505
ZGNN,2001-07-31 03:00,ZGNN 310300Z AUTO 14006KT 19SM 32/25 A2968 RMK SLP042 T03200250 57006 IEM_DS3505
ZGNN,2001-07-31 04:00,ZGNN 310400Z AUTO 7SM 33/24 A2965 RMK T03300240 IEM_DS3505
ZGNN,2001-07-31 05:00,ZGNN 310500Z AUTO 7SM 33/25 A2962 RMK T03300250 IEM_DS3505
ZGNN,2001-07-31 06:00,ZGNN 310600Z AUTO 14006KT 19SM 34/26 A2962 RMK SLP024 T03440256 57018 IEM_DS3505
ZGNN,2001-07-31 07:00,ZGNN 310700Z AUTO 13006KT 7SM 34/26 A2959 RMK T03400260 IEM_DS3505
ZGNN,2001-07-31 08:00,ZGNN 310800Z AUTO 10006KT 7SM 33/26 A2956 RMK T03300260 IEM_DS3505
ZGNN,2001-07-31 09:00,ZGNN 310900Z AUTO 02002KT 17SM 30/28 A2953 RMK SLP003 T02980279 57022 IEM_DS3505
ZGNN,2001-07-31 10:00,ZGNN 311000Z AUTO 13006KT 7SM 31/27 A2953 RMK T03100270 IEM_DS3505
ZGNN,2001-07-31 11:00,ZGNN 311100Z AUTO 14008KT 7SM 31/26 A2956 RMK T03100260 IEM_DS3505
ZGNN,2001-07-31 12:00,ZGNN 311200Z AUTO 14004KT 16SM 30/27 A2956 RMK 60035 SLP014 T03020266 52011 IEM_DS3505
ZGNN,2001-07-31 13:00,ZGNN 311300Z AUTO 12006KT 7SM 29/25 A2959 RMK T02900250 IEM_DS3505
ZGNN,2001-07-31 14:00,ZGNN 311400Z AUTO 7SM 28/25 A2962 RMK T02800250 IEM_DS3505
ZGNN,2001-07-31 15:00,ZGNN 311500Z AUTO 14002KT 12SM 29/26 A2962 RMK SLP034 T02860264 52021 IEM_DS3505
ZGNN,2001-07-31 18:00,ZGNN 311800Z AUTO 14002KT 9SM 28/26 RMK 60003 SLP021 T02780264 57013 IEM_DS3505
ZGNN,2001-07-31 21:00,ZGNN 312100Z AUTO 00000KT 9SM 27/26 A2956 RMK 70035 SLP009 T02700262 57013 IEM_DS3505
ZGNN,2001-07-31 22:00,ZGNN 312200Z AUTO 7SM 27/25 A2956 RMK T02700250 IEM_DS3505
ZGNN,2001-07-31 23:00,ZGNN 312300Z AUTO 04004KT 7SM 27/25 A2959 RMK T02700250 IEM_DS3505
ZGNN,2001-08-01 00:00,ZGNN 010000Z AUTO 34004KT 9SM 27/26 A2962 RMK 70035 SLP028 T02740263 52019 IEM_DS3505
ZGNN,2001-08-01 01:00,ZGNN 010100Z AUTO 33006KT 7SM 27/25 A2962 RMK T02700250 IEM_DS3505
ZGNN,2001-08-01 02:00,ZGNN 010200Z AUTO 31006KT 1 1/4SM 24/22 A2965 RMK T02400220 IEM_DS3505
ZGNN,2001-08-01 03:00,ZGNN 010300Z AUTO 32004KT 12SM 25/23 A2965 RMK SLP038 T02460234 52009 IEM_DS3505
ZGNN,2001-08-01 04:00,ZGNN 010400Z AUTO 32006KT 7SM 25/23 A2965 RMK T02500230 IEM_DS3505
ZGNN,2001-08-01 05:00,ZGNN 010500Z AUTO 7SM 25/22 A2965 RMK T02500220 IEM_DS3505
ZGNN,2001-08-01 06:00,ZGNN 010600Z AUTO 00000KT 16SM 25/24 A2965 RMK 60043 SLP042 T02480239 52004 IEM_DS3505
ZGNN,2001-08-01 07:00,ZGNN 010700Z AUTO 07006KT 7SM RMK IEM_DS3505
ZGNN,2001-08-01 08:00,ZGNN 010800Z AUTO 7SM 25/23 A2959 RMK T02500230 IEM_DS3505
ZGNN,2001-08-01 09:00,ZGNN 010900Z AUTO 34002KT 9SM 26/24 A2959 RMK SLP021 T02560236 57021 IEM_DS3505
ZGNN,2001-08-01 10:00,ZGNN 011000Z AUTO 7SM 26/23 A2959 RMK T02600230 IEM_DS3505
ZGNN,2001-08-01 11:00,ZGNN 011100Z AUTO 7SM 26/23 A2959 RMK T02600230 IEM_DS3505
ZGNN,2001-08-01 12:00,ZGNN 011200Z AUTO 14002KT 9SM 26/24 A2962 RMK 60008 SLP032 T02550238 52011 IEM_DS3505
ZGNN,2001-08-01 13:00,ZGNN 011300Z AUTO 13002KT 7SM 25/23 A2965 RMK T02500230 IEM_DS3505
ZGNN,2001-08-01 14:00,ZGNN 011400Z AUTO 7SM 25/23 A2965 RMK T02500230 IEM_DS3505
ZGNN,2001-08-01 15:00,ZGNN 011500Z AUTO 00000KT 9SM 25/24 A2968 RMK SLP048 T02460239 52015 IEM_DS3505
ZGNN,2001-08-01 18:00,ZGNN 011800Z AUTO 00000KT 7SM 24/24 RMK SLP037 T02420238 57011 IEM_DS3505
ZGNN,2001-08-01 19:00,ZGNN 011900Z AUTO 05002KT 4SM 24/23 A2962 RMK T02400230 IEM_DS3505
ZGNN,2001-08-01 20:00,ZGNN 012000Z AUTO 10002KT 3SM 24/23 A2962 RMK T02400230 IEM_DS3505
ZGNN,2001-08-01 21:00,ZGNN 012100Z AUTO 00000KT 7SM 24/24 A2962 RMK 70052 SLP029 T02420236 57008 IEM_DS3505
ZGNN,2001-08-01 22:00,ZGNN 012200Z AUTO 05002KT 4SM 24/23 A2962 RMK T02400230 IEM_DS3505
ZGNN,2001-08-01 23:00,ZGNN 012300Z AUTO 09004KT 7SM 24/22 A2962 RMK T02400220 IEM_DS3505
ZGNN,2001-08-02 00:00,ZGNN 020000Z AUTO 04004KT 5SM 24/23 A2965 RMK 60000 SLP044 T02420230 52015 IEM_DS3505
ZGNN,2001-08-02 01:00,ZGNN 020100Z AUTO 06008KT 7SM 24/22 A2965 RMK T02400220 IEM_DS3505
ZGNN,2001-08-02 02:00,ZGNN 020200Z AUTO 05008KT 7SM 24/22 A2968 RMK T02400220 IEM_DS3505
ZGNN,2001-08-02 03:00,ZGNN 020300Z AUTO 04006KT 9SM 25/23 A2968 RMK SLP053 T02460230 52009 IEM_DS3505
ZGNN,2001-08-02 04:00,ZGNN 020400Z AUTO 07012KT 7SM 24/22 A2968 RMK T02400220 IEM_DS3505
ZGNN,2001-08-02 05:00,ZGNN 020500Z AUTO 08010KT 7SM 24/22 A2968 RMK T02400220 IEM_DS3505
ZGNN,2001-08-02 06:00,ZGNN 020600Z AUTO 09004KT 9SM 24/24 A2968 RMK 60012 SLP046 T02450235 57007 IEM_DS3505
ZGNN,2001-08-02 07:00,ZGNN 020700Z AUTO 08008KT 7SM 25/23 A2965 RMK T02500230 IEM_DS3505
ZGNN,2001-08-02 08:00,ZGNN 020800Z AUTO 06006KT 7SM 25/22 A2965 RMK T02500220 IEM_DS3505
ZGNN,2001-08-02 09:00,ZGNN 020900Z AUTO 04002KT 16SM 25/24 A2965 RMK SLP044 T02520235 57002 IEM_DS3505
ZGNN,2001-08-02 10:00,ZGNN 021000Z AUTO 05010KT 7SM 25/23 A2968 RMK T02500230 IEM_DS3505
ZGNN,2001-08-02 11:00,ZGNN 021100Z AUTO 07008KT 7SM 24/23 A2968 RMK T02400230 IEM_DS3505
ZGNN,2001-08-02 12:00,ZGNN 021200Z AUTO 07004KT 7SM 24/23 A2968 RMK 60001 SLP056 T02440232 52012 IEM_DS3505
ZGNN,2001-08-02 13:00,ZGNN 021300Z AUTO 06004KT 7SM 24/22 A2971 RMK T02400220 IEM_DS3505
ZGNN,2001-08-02 14:00,ZGNN 021400Z AUTO 04002KT 6SM 24/22 A2974 RMK T02400220 IEM_DS3505
ZGNN,2001-08-02 15:00,ZGNN 021500Z AUTO 00000KT 7SM 24/23 A2974 RMK SLP076 T02420233 52019 IEM_DS3505
ZGNN,2001-08-02 16:00,ZGNN 021600Z AUTO 02004KT 7SM 24/23 A2977 RMK T02400230 IEM_DS3505
ZGNN,2001-08-02 17:00,ZGNN 021700Z AUTO 04004KT 7SM 24/23 A2977 RMK T02400230 IEM_DS3505
ZGNN,2001-08-02 18:00,ZGNN 021800Z AUTO 09002KT 5SM 24/23 A2974 RMK 60004 SLP074 T02380234 57002 IEM_DS3505
ZGNN,2001-08-02 19:00,ZGNN 021900Z AUTO 04004KT 3SM 24/23 A2974 RMK T02400230 IEM_DS3505
ZGNN,2001-08-02 20:00,ZGNN 022000Z AUTO 05004KT 1 1/2SM 23/22 A2974 RMK T02300220 IEM_DS3505
ZGNN,2001-08-02 21:00,ZGNN 022100Z AUTO 00000KT 6SM 24/24 A2974 RMK 70036 SLP067 T02390235 57006 IEM_DS3505
ZGNN,2001-08-02 22:00,ZGNN 022200Z AUTO 07004KT 3SM 24/23 A2971 RMK T02400230 IEM_DS3505
ZGNN,2001-08-02 23:00,ZGNN 022300Z AUTO 4SM 24/23 A2974 RMK T02400230 IEM_DS3505
ZGNN,2001-08-03 00:00,ZGNN 030000Z AUTO 14006KT 4SM 24/24 A2977 RMK 60020 SLP080 T02450235 52012 IEM_DS3505
ZGNN,2001-08-03 01:00,ZGNN 030100Z AUTO 07008KT 4SM 24/23 A2977 RMK T02400230 IEM_DS3505
ZGNN,2001-08-03 02:00,ZGNN 030200Z AUTO 07006KT 4SM 24/23 A2980 RMK T02400230 IEM_DS3505
ZGNN,2001-08-03 03:00,ZGNN 030300Z AUTO 09006KT 2SM 25/24 A2983 RMK SLP099 T02480239 52019 IEM_DS3505
ZGNN,2001-08-03 04:00,ZGNN 030400Z AUTO 05006KT 3SM RMK IEM_DS3505
ZGNN,2001-08-03 05:00,ZGNN 030500Z AUTO 08008KT 3SM 24/23 A2983 RMK T02400230 IEM_DS3505
ZGNN,2001-08-03 06:00,ZGNN 030600Z AUTO 00000KT 12SM 24/24 A2983 RMK 60067 SLP101 T02400236 52002 IEM_DS3505
ZGNN,2001-08-03 07:00,ZGNN 030700Z AUTO 7SM 25/22 A2980 RMK T02500220 IEM_DS3505
ZGNN,2001-08-03 08:00,ZGNN 030800Z AUTO 7SM 25/22 A2980 RMK T02500220 IEM_DS3505
ZGNN,2001-08-03 09:00,ZGNN 030900Z AUTO 04002KT 12SM 25/24 A2980 RMK SLP094 T02490235 57007 IEM_DS3505
ZGNN,2001-08-03 10:00,ZGNN 031000Z AUTO 05006KT 7SM 25/23 A2983 RMK T02500230 IEM_DS3505
ZGNN,2001-08-03 11:00,ZGNN 031100Z AUTO 07004KT 7SM 24/23 A2983 RMK T02400230 IEM_DS3505
ZGNN,2001-08-03 12:00,ZGNN 031200Z AUTO 00000KT 12SM 24/24 A2985 RMK SLP113 T02440235 52019 IEM_DS3505
ZGNN,2001-08-03 13:00,ZGNN 031300Z AUTO 04004KT 7SM 24/22 A2985 RMK T02400220 IEM_DS3505
ZGNN,2001-08-03 15:00,ZGNN 031500Z AUTO 34002KT 12SM 24/23 RMK SLP136 T02360232 52022 IEM_DS3505
ZGNN,2001-08-03 16:00,ZGNN 031600Z AUTO 01004KT 6SM 23/22 A2991 RMK T02300220 IEM_DS3505
ZGNN,2001-08-03 17:00,ZGNN 031700Z AUTO 04004KT 7SM 23/22 A2991 RMK T02300220 IEM_DS3505
ZGNN,2001-08-03 18:00,ZGNN 031800Z AUTO 00000KT 9SM 23/23 A2991 RMK SLP131 T02310227 57005 IEM_DS3505
ZGNN,2001-08-03 19:00,ZGNN 031900Z AUTO 04002KT 2SM 23/22 A2988 RMK T02300220 IEM_DS3505
ZGNN,2001-08-03 20:00,ZGNN 032000Z AUTO 36002KT 3SM 23/22 A2988 RMK T02300220 IEM_DS3505
ZGNN,2001-08-03 21:00,ZGNN 032100Z AUTO 32004KT 4SM 23/22 A2988 RMK 70067 SLP121 T02270224 57010 IEM_DS3505
ZGNN,2001-08-03 22:00,ZGNN 032200Z AUTO 1 1/2SM 23/22 A2988 RMK T02300220 IEM_DS3505
ZGNN,2001-08-03 23:00,ZGNN 032300Z AUTO 02002KT 2SM 23/22 A2988 RMK T02300220 IEM_DS3505
ZGNN,2001-08-04 00:00,ZGNN 040000Z AUTO 00000KT 5SM 23/23 A2991 RMK 70065 SLP134 T02330229 52013 IEM_DS3505
ZGNN,2001-08-04 01:00,ZGNN 040100Z AUTO 5SM 27/23 A2991 RMK T02700230 IEM_DS3505
ZGNN,2001-08-04 02:00,ZGNN 040200Z AUTO 36004KT 7SM 27/23 A2994 RMK T02700230 IEM_DS3505
ZGNN,2001-08-04 03:00,ZGNN 040300Z AUTO 02004KT 19SM 29/24 A2994 RMK SLP139 T02880245 52006 IEM_DS3505
ZGNN,2001-08-04 04:00,ZGNN 040400Z AUTO 7SM 29/23 A2994 RMK T02900230 IEM_DS3505
ZGNN,2001-08-04 05:00,ZGNN 040500Z AUTO 7SM 31/24 A2991 RMK T03100240 IEM_DS3505
ZGNN,2001-08-04 06:00,ZGNN 040600Z AUTO 04004KT 12SM 31/24 A2988 RMK SLP126 T03140243 57012 IEM_DS3505
ZGNN,2001-08-04 07:00,ZGNN 040700Z AUTO 7SM 31/24 A2988 RMK T03100240 IEM_DS3505
ZGNN,2001-08-04 08:00,ZGNN 040800Z AUTO 35008KT 7SM 32/24 A2985 RMK T03200240 IEM_DS3505
ZGNN,2001-08-04 09:00,ZGNN 040900Z AUTO 02006KT 16SM 31/24 A2983 RMK SLP105 T03120240 57021 IEM_DS3505
ZGNN,2001-08-04 10:00,ZGNN 041000Z AUTO 7SM 31/24 A2983 RMK T03100240 IEM_DS3505
ZGNN,2001-08-04 11:00,ZGNN 041100Z AUTO 36004KT 7SM 31/24 A2983 RMK T03100240 IEM_DS3505
ZGNN,2001-08-04 12:00,ZGNN 041200Z AUTO 00000KT 17SM 28/26 A2985 RMK SLP108 T02840256 52003 IEM_DS3505
ZGNN,2001-08-04 13:00,ZGNN 041300Z AUTO 6SM 28/25 A2985 RMK T02800250 IEM_DS3505
ZGNN,2001-08-04 14:00,ZGNN 041400Z AUTO 4SM 27/25 A2985 RMK T02700250 IEM_DS3505
ZGNN,2001-08-04 15:00,ZGNN 041500Z AUTO 00000KT 12SM 26/25 A2988 RMK SLP117 T02600250 52009 IEM_DS3505
ZGNN,2001-08-04 16:00,ZGNN 041600Z AUTO 25002KT 3SM 26/24 A2988 RMK T02600240 IEM_DS3505
ZGNN,2001-08-04 17:00,ZGNN 041700Z AUTO 3SM 26/24 A2985 RMK T02600240 IEM_DS3505
ZGNN,2001-08-04 18:00,ZGNN 041800Z AUTO 02004KT 4SM 25/25 A2985 RMK SLP111 T02530246 57005 IEM_DS3505
ZGNN,2001-08-04 19:00,ZGNN 041900Z AUTO 2SM 25/24 A2985 RMK T02500240 IEM_DS3505
ZGNN,2001-08-04 20:00,ZGNN 042000Z AUTO 2 1/2SM 25/24 A2983 RMK T02500240 IEM_DS3505
ZGNN,2001-08-04 21:00,ZGNN 042100Z AUTO 00000KT 4SM 24/24 A2983 RMK SLP106 T02420239 57005 IEM_DS3505
ZGNN,2001-08-04 22:00,ZGNN 042200Z AUTO 2SM 25/24 A2983 RMK T02500240 IEM_DS3505
ZGNN,2001-08-04 23:00,ZGNN 042300Z AUTO 1SM 25/24 A2985 RMK T02500240 IEM_DS3505
ZGNN,2001-08-05 00:00,ZGNN 050000Z AUTO 00000KT 4SM 25/25 A2985 RMK SLP120 T02540250 52013 IEM_DS3505
ZGNN,2001-08-05 01:00,ZGNN 050100Z AUTO 4SM 28/25 A2988 RMK T02800250 IEM_DS3505
ZGNN,2001-08-05 02:00,ZGNN 050200Z AUTO 35004KT 6SM 30/25 A2985 RMK T03000250 IEM_DS3505
ZGNN,2001-08-05 03:00,ZGNN 050300Z AUTO 36002KT 12SM 31/26 A2985 RMK SLP107 T03100256 57012 IEM_DS3505
ZGNN,2001-08-05 04:00,ZGNN 050400Z AUTO 7SM 32/24 A2985 RMK T03200240 IEM_DS3505
ZGNN,2001-08-05 05:00,ZGNN 050500Z AUTO 7SM 32/24 A2983 RMK T03200240 IEM_DS3505
ZGNN,2001-08-05 06:00,ZGNN 050600Z AUTO 02004KT 11SM 33/25 A2980 RMK SLP092 T03330252 57015 IEM_DS3505
ZGNN,2001-08-05 07:00,ZGNN 050700Z AUTO 7SM 34/23 A2980 RMK T03400230 IEM_DS3505
ZGNN,2001-08-05 08:00,ZGNN 050800Z AUTO 7SM 34/23 A2977 RMK T03400230 IEM_DS3505
ZGNN,2001-08-05 09:00,ZGNN 050900Z AUTO 00000KT 9SM 34/24 A2974 RMK SLP066 T03410240 57025 IEM_DS3505
ZGNN,2001-08-05 10:00,ZGNN 051000Z AUTO 08004KT 7SM 32/24 A2971 RMK T03200240 IEM_DS3505
ZGNN,2001-08-05 11:00,ZGNN 051100Z AUTO 12006KT 7SM 31/25 A2974 RMK T03100250 IEM_DS3505
ZGNN,2001-08-05 12:00,ZGNN 051200Z AUTO 00000KT 7SM 30/25 A2977 RMK SLP079 T03050250 52012 IEM_DS3505
ZGNN,2001-08-05 13:00,ZGNN 051300Z AUTO 24004KT 7SM 28/25 A2980 RMK T02800250 IEM_DS3505
ZGNN,2001-08-05 14:00,ZGNN 051400Z AUTO 4SM 27/24 A2980 RMK T02700240 IEM_DS3505
ZGNN,2001-08-05 15:00,ZGNN 051500Z AUTO 00000KT 7SM 28/25 A2983 RMK SLP095 T02800252 52017 IEM_DS3505
ZGNN,2001-08-05 16:00,ZGNN 051600Z AUTO 21002KT 3SM 27/25 A2983 RMK T02700250 IEM_DS3505
ZGNN,2001-08-05 17:00,ZGNN 051700Z AUTO 15002KT 3SM 26/24 A2983 RMK T02600240 IEM_DS3505
ZGNN,2001-08-05 18:00,ZGNN 051800Z AUTO 00000KT 4SM 26/25 A2983 RMK SLP093 T02620254 57002 IEM_DS3505
ZGNN,2001-08-05 19:00,ZGNN 051900Z AUTO 3SM 26/24 A2980 RMK T02600240 IEM_DS3505
ZGNN,2001-08-05 20:00,ZGNN 052000Z AUTO 3SM 26/24 A2980 RMK T02600240 IEM_DS3505
ZGNN,2001-08-05 21:00,ZGNN 052100Z AUTO 00000KT 4SM 25/25 A2977 RMK SLP082 T02540247 57011 IEM_DS3505
ZGNN,2001-08-05 22:00,ZGNN 052200Z AUTO 02004KT 1 1/2SM 25/24 A2977 RMK T02500240 IEM_DS3505
ZGNN,2001-08-05 23:00,ZGNN 052300Z AUTO 3SM 26/24 A2980 RMK T02600240 IEM_DS3505
ZGNN,2001-08-06 00:00,ZGNN 060000Z AUTO 00000KT 6SM 27/25 A2980 RMK SLP090 T02730249 52007 IEM_DS3505
ZGNN,2001-08-06 02:00,ZGNN 060200Z AUTO 7SM 29/25 A2983 RMK T02900250 IEM_DS3505
ZGNN,2001-08-06 03:00,ZGNN 060300Z AUTO 18002KT 12SM 30/26 RMK SLP096 T03020258 52006 IEM_DS3505
ZGNN,2001-08-06 04:00,ZGNN 060400Z AUTO 7SM 31/24 A2980 RMK T03100240 IEM_DS3505
ZGNN,2001-08-06 05:00,ZGNN 060500Z AUTO 7SM 32/22 A2980 RMK T03200220 IEM_DS3505
ZGNN,2001-08-06 06:00,ZGNN 060600Z AUTO 04004KT 19SM 32/25 A2977 RMK SLP076 T03240248 57019 IEM_DS3505
ZGNN,2001-08-06 07:00,ZGNN 060700Z AUTO 7SM 33/23 A2974 RMK T03300230 IEM_DS3505
ZGNN,2001-08-06 08:00,ZGNN 060800Z AUTO 7SM 33/23 A2971 RMK T03300230 IEM_DS3505
ZGNN,2001-08-06 09:00,ZGNN 060900Z AUTO 02002KT 19SM 33/24 A2968 RMK SLP051 T03320245 57025 IEM_DS3505
ZGNN,2001-08-06 10:00,ZGNN 061000Z AUTO 7SM 33/24 A2968 RMK T03300240 IEM_DS3505
ZGNN,2001-08-06 11:00,ZGNN 061100Z AUTO 14004KT 6SM 32/24 A2965 RMK T03200240 IEM_DS3505
ZGNN,2001-08-06 12:00,ZGNN 061200Z AUTO 18002KT 19SM 31/25 A2968 RMK SLP045 T03110254 57006 IEM_DS3505
ZGNN,2001-08-06 13:00,ZGNN 061300Z AUTO 6SM 30/25 A2968 RMK T03000250 IEM_DS3505
ZGNN,2001-08-06 15:00,ZGNN 061500Z AUTO 00000KT 15SM 28/26 RMK SLP066 T02840259 52021 IEM_DS3505
ZGNN,2001-08-06 18:00,ZGNN 061800Z AUTO 00000KT 12SM 27/26 RMK SLP068 T02660258 52002 IEM_DS3505
ZGNN,2001-08-06 21:00,ZGNN 062100Z AUTO 00000KT 9SM 25/24 A2971 RMK SLP063 T02540245 57005 IEM_DS3505
ZGNN,2001-08-06 22:00,ZGNN 062200Z AUTO 6SM 25/24 A2974 RMK T02500240 IEM_DS3505
ZGNN,2001-08-06 23:00,ZGNN 062300Z AUTO 6SM 25/24 A2974 RMK T02500240 IEM_DS3505
ZGNN,2001-08-07 00:00,ZGNN 070000Z AUTO 25002KT 7SM 27/25 A2974 RMK SLP070 T02660252 52007 IEM_DS3505
ZGNN,2001-08-07 01:00,ZGNN 070100Z AUTO 6SM 28/24 A2977 RMK T02800240 IEM_DS3505
ZGNN,2001-08-07 02:00,ZGNN 070200Z AUTO 6SM 30/24 A2974 RMK T03000240 IEM_DS3505
ZGNN,2001-08-07 03:00,ZGNN 070300Z AUTO 27006KT 19SM 30/24 A2974 RMK SLP069 T03040239 57001 IEM_DS3505
ZGNN,2001-08-07 04:00,ZGNN 070400Z AUTO 7SM 32/23 A2971 RMK T03200230 IEM_DS3505
ZGNN,2001-08-07 05:00,ZGNN 070500Z AUTO 7SM 33/24 A2971 RMK T03300240 IEM_DS3505
ZGNN,2001-08-07 06:00,ZGNN 070600Z AUTO 18006KT 19SM 33/23 A2968 RMK SLP049 T03280231 57020 IEM_DS3505
ZGNN,2001-08-07 07:00,ZGNN 070700Z AUTO 7SM 34/23 A2965 RMK T03400230 IEM_DS3505
ZGNN,2001-08-07 09:00,ZGNN 070900Z AUTO 27004KT 19SM 34/24 A2962 RMK SLP026 T03450243 57022 IEM_DS3505
ZGNN,2001-08-07 10:00,ZGNN 071000Z AUTO 7SM 34/22 A2959 RMK T03400220 IEM_DS3505
ZGNN,2001-08-07 12:00,ZGNN 071200Z AUTO 00000KT 19SM 31/26 A2962 RMK SLP027 T03100257 54000 IEM_DS3505
ZGNN,2001-08-07 13:00,ZGNN 071300Z AUTO 14008KT 6SM 30/25 A2962 RMK T03000250 IEM_DS3505
ZGNN,2001-08-07 14:00,ZGNN 071400Z AUTO 6SM 29/25 A2965 RMK T02900250 IEM_DS3505
ZGNN,2001-08-07 15:00,ZGNN 071500Z AUTO 00000KT 16SM 29/25 RMK SLP048 T02890253 52021 IEM_DS3505
ZGNN,2001-08-07 18:00,ZGNN 071800Z AUTO 00000KT 12SM 26/25 RMK SLP054 T02630250 52006 IEM_DS3505
ZGNN,2001-08-07 21:00,ZGNN 072100Z AUTO 00000KT 12SM 25/25 A2968 RMK SLP053 T02520246 57001 IEM_DS3505
ZGNN,2001-08-07 22:00,ZGNN 072200Z AUTO 13002KT 6SM 26/24 A2971 RMK T02600240 IEM_DS3505
ZGNN,2001-08-07 23:00,ZGNN 072300Z AUTO 10002KT 6SM 25/24 A2971 RMK T02500240 IEM_DS3505
ZGNN,2001-08-08 00:00,ZGNN 080000Z AUTO 36002KT 5SM 27/25 A2971 RMK SLP058 T02660252 52005 IEM_DS3505
ZGNN,2001-08-08 01:00,ZGNN 080100Z AUTO 6SM 29/25 A2971 RMK T02900250 IEM_DS3505
ZGNN,2001-08-08 02:00,ZGNN 080200Z AUTO 7SM 30/25 A2974 RMK T03000250 IEM_DS3505
ZGNN,2001-08-08 03:00,ZGNN 080300Z AUTO 22002KT 14SM 31/25 A2974 RMK SLP067 T03140248 52009 IEM_DS3505
ZGNN,2001-08-08 04:00,ZGNN 080400Z AUTO 7SM 32/24 A2974 RMK T03200240 IEM_DS3505
ZGNN,2001-08-08 05:00,ZGNN 080500Z AUTO 7SM 33/23 A2971 RMK T03300230 IEM_DS3505
ZGNN,2001-08-08 06:00,ZGNN 080600Z AUTO 32004KT 19SM 33/24 A2971 RMK SLP055 T03340243 57012 IEM_DS3505
ZGNN,2001-08-08 07:00,ZGNN 080700Z AUTO 7SM 34/24 A2968 RMK T03400240 IEM_DS3505
ZGNN,2001-08-08 08:00,ZGNN 080800Z AUTO 05004KT 7SM 34/24 A2965 RMK T03400240 IEM_DS3505
ZGNN,2001-08-08 09:00,ZGNN 080900Z AUTO 00000KT 17SM 34/24 A2965 RMK SLP034 T03420238 57021 IEM_DS3505
ZGNN,2001-08-08 10:00,ZGNN 081000Z AUTO 7SM 34/23 A2965 RMK T03400230 IEM_DS3505
ZGNN,2001-08-08 11:00,ZGNN 081100Z AUTO 05004KT 7SM 32/24 A2965 RMK T03200240 IEM_DS3505
ZGNN,2001-08-08 12:00,ZGNN 081200Z AUTO 00000KT 17SM 30/26 A2968 RMK SLP049 T03030262 52015 IEM_DS3505
ZGNN,2001-08-08 13:00,ZGNN 081300Z AUTO 6SM 30/25 A2968 RMK T03000250 IEM_DS3505
ZGNN,2001-08-08 15:00,ZGNN 081500Z AUTO 34004KT 17SM 27/25 RMK SLP064 T02710250 52015 IEM_DS3505
ZGNN,2001-08-08 18:00,ZGNN 081800Z AUTO 00000KT 14SM 26/25 A2974 RMK SLP071 T02620254 52007 IEM_DS3505
ZGNN,2001-08-08 20:00,ZGNN 082000Z AUTO 06002KT 7SM 26/24 A2977 RMK T02600240 IEM_DS3505
ZGNN,2001-08-08 21:00,ZGNN 082100Z AUTO 00000KT 12SM 26/25 A2977 RMK SLP076 T02580249 52005 IEM_DS3505
ZGNN,2001-08-08 22:00,ZGNN 082200Z AUTO 6SM 26/25 A2977 RMK T02600250 IEM_DS3505
ZGNN,2001-08-08 23:00,ZGNN 082300Z AUTO 6SM 26/25 A2977 RMK T02600250 IEM_DS3505
ZGNN,2001-08-09 00:00,ZGNN 090000Z AUTO 00000KT 4SM 27/26 A2977 RMK SLP084 T02690261 52007 IEM_DS3505
ZGNN,2001-08-09 01:00,ZGNN 090100Z AUTO 7SM 29/26 A2977 RMK T02900260 IEM_DS3505
ZGNN,2001-08-09 02:00,ZGNN 090200Z AUTO 7SM 31/25 A2977 RMK T03100250 IEM_DS3505
ZGNN,2001-08-09 03:00,ZGNN 090300Z AUTO 27002KT 12SM 32/26 A2977 RMK SLP082 T03170262 57001 IEM_DS3505
ZGNN,2001-08-09 04:00,ZGNN 090400Z AUTO 7SM 32/25 A2977 RMK T03200250 IEM_DS3505
ZGNN,2001-08-09 05:00,ZGNN 090500Z AUTO 7SM 33/24 A2974 RMK T03300240 IEM_DS3505
ZGNN,2001-08-09 06:00,ZGNN 090600Z AUTO 36004KT 9SM 34/26 A2974 RMK SLP063 T03450257 57019 IEM_DS3505
ZGNN,2001-08-09 08:00,ZGNN 090800Z AUTO 7SM 35/23 A2968 RMK T03500230 IEM_DS3505
ZGNN,2001-08-09 09:00,ZGNN 090900Z AUTO 00000KT 4SM 32/25 A2968 RMK SLP084 T03200250 52007 IEM_DS3505
ZGNN,2001-08-09 10:00,ZGNN 091000Z AUTO 24008KT 7SM 30/25 A2968 RMK T03000250 IEM_DS3505
ZGNN,2001-08-09 11:00,ZGNN 091100Z AUTO 7SM 29/24 A2971 RMK T02900240 IEM_DS3505
ZGNN,2001-08-09 12:00,ZGNN 091200Z AUTO 20002KT 9SM 31/25 A2971 RMK SLP056 T03060248 52010 IEM_DS3505
ZGNN,2001-08-09 13:00,ZGNN 091300Z AUTO 7SM 28/25 A2971 RMK T02800250 IEM_DS3505
ZGNN,2001-08-09 14:00,ZGNN 091400Z AUTO 20002KT 7SM 27/25 A2974 RMK T02700250 IEM_DS3505
ZGNN,2001-08-09 15:00,ZGNN 091500Z AUTO 00000KT 7SM 28/25 A2977 RMK SLP075 T02770247 52019 IEM_DS3505
ZGNN,2001-08-09 16:00,ZGNN 091600Z AUTO 27002KT 7SM 27/25 A2977 RMK T02700250 IEM_DS3505
ZGNN,2001-08-09 17:00,ZGNN 091700Z AUTO 7SM 27/24 A2974 RMK T02700240 IEM_DS3505
ZGNN,2001-08-09 18:00,ZGNN 091800Z AUTO 00000KT 7SM 27/25 A2974 RMK SLP065 T02680250 57010 IEM_DS3505
ZGNN,2001-08-09 19:00,ZGNN 091900Z AUTO 02002KT 7SM 27/24 A2971 RMK T02700240 IEM_DS3505
ZGNN,2001-08-09 20:00,ZGNN 092000Z AUTO 05002KT 3SM 26/24 A2971 RMK T02600240 IEM_DS3505
ZGNN,2001-08-09 21:00,ZGNN 092100Z AUTO 00000KT 6SM 26/25 A2971 RMK SLP059 T02590248 57006 IEM_DS3505
ZGNN,2001-08-09 22:00,ZGNN 092200Z AUTO 03002KT 6SM 26/24 A2971 RMK T02600240 IEM_DS3505
ZGNN,2001-08-09 23:00,ZGNN 092300Z AUTO 33002KT 6SM 26/24 A2974 RMK T02600240 IEM_DS3505
ZGNN,2001-08-10 00:00,ZGNN 100000Z AUTO 00000KT 3SM 27/26 A2974 RMK SLP070 T02730259 52011 IEM_DS3505
ZGNN,2001-08-10 01:00,ZGNN 100100Z AUTO 06004KT 3SM 29/25 A2974 RMK T02900250 IEM_DS3505
ZGNN,2001-08-10 02:00,ZGNN 100200Z AUTO 07006KT 7SM 30/25 A2977 RMK T03000250 IEM_DS3505
ZGNN,2001-08-10 03:00,ZGNN 100300Z AUTO 04006KT 7SM 32/25 A2974 RMK SLP069 T03190254 57001 IEM_DS3505
ZGNN,2001-08-10 04:00,ZGNN 100400Z AUTO 07008KT 7SM 33/24 A2974 RMK T03300240 IEM_DS3505
ZGNN,2001-08-10 05:00,ZGNN 100500Z AUTO 06010KT 7SM 34/23 A2971 RMK T03400230 IEM_DS3505
ZGNN,2001-08-10 06:00,ZGNN 100600Z AUTO 04008KT 19SM 34/23 A2968 RMK SLP047 T03450231 57021 IEM_DS3505
ZGNN,2001-08-10 07:00,ZGNN 100700Z AUTO 05008KT 7SM 34/22 A2965 RMK T03400220 IEM_DS3505
ZGNN,2001-08-10 08:00,ZGNN 100800Z AUTO 06008KT 7SM 33/23 A2962 RMK T03300230 IEM_DS3505
ZGNN,2001-08-10 09:00,ZGNN 100900Z AUTO 09002KT 9SM 34/25 A2962 RMK SLP033 T03430250 57014 IEM_DS3505
ZGNN,2001-08-10 10:00,ZGNN 101000Z AUTO 09006KT 7SM 27/24 A2968 RMK T02700240 IEM_DS3505
ZGNN,2001-08-10 11:00,ZGNN 101100Z AUTO 05004KT 7SM 27/24 A2968 RMK T02700240 IEM_DS3505
ZGNN,2001-08-10 12:00,ZGNN 101200Z AUTO 18002KT 12SM 28/25 A2971 RMK 60008 SLP060 T02750247 52025 IEM_DS3505
ZGNN,2001-08-10 13:00,ZGNN 101300Z AUTO 06004KT 7SM 27/24 A2971 RMK T02700240 IEM_DS3505
ZGNN,2001-08-10 14:00,ZGNN 101400Z AUTO 05004KT 7SM 26/24 A2974 RMK T02600240 IEM_DS3505
ZGNN,2001-08-10 15:00,ZGNN 101500Z AUTO 00000KT 12SM 27/25 A2974 RMK SLP076 T02680250 52017 IEM_DS3505
ZGNN,2001-08-10 17:00,ZGNN 101700Z AUTO 05006KT 7SM 26/24 A2974 RMK T02600240 IEM_DS3505
ZGNN,2001-08-10 18:00,ZGNN 101800Z AUTO 36002KT 12SM 27/25 A2974 RMK SLP073 T02670249 57003 IEM_DS3505
ZGNN,2001-08-10 19:00,ZGNN 101900Z AUTO 04010KT 7SM 26/24 A2971 RMK T02600240 IEM_DS3505
ZGNN,2001-08-10 20:00,ZGNN 102000Z AUTO 11008KT 7SM 25/23 A2974 RMK T02500230 IEM_DS3505
ZGNN,2001-08-10 21:00,ZGNN 102100Z AUTO 11002KT 7SM 26/24 A2974 RMK 70009 SLP067 T02550242 57006 IEM_DS3505
ZGNN,2001-08-10 22:00,ZGNN 102200Z AUTO 07004KT 7SM 25/24 A2974 RMK T02500240 IEM_DS3505
ZGNN,2001-08-10 23:00,ZGNN 102300Z AUTO 08006KT 5SM 25/23 A2977 RMK T02500230 IEM_DS3505
ZGNN,2001-08-11 00:00,ZGNN 110000Z AUTO 07002KT 5SM 26/24 A2977 RMK 60004 SLP081 T02570244 52012 IEM_DS3505
ZGNN,2001-08-11 01:00,ZGNN 110100Z AUTO 07008KT 7SM 27/24 A2977 RMK T02700240 IEM_DS3505
ZGNN,2001-08-11 02:00,ZGNN 110200Z AUTO 08008KT 7SM 27/24 A2980 RMK T02700240 IEM_DS3505
ZGNN,2001-08-11 03:00,ZGNN 110300Z AUTO 09008KT 16SM 29/24 A2977 RMK SLP085 T02900245 52005 IEM_DS3505
ZGNN,2001-08-11 04:00,ZGNN 110400Z AUTO 09010KT 7SM 30/24 A2977 RMK T03000240 IEM_DS3505
ZGNN,2001-08-11 05:00,ZGNN 110500Z AUTO 10008KT 7SM 30/24 A2974 RMK T03000240 IEM_DS3505
ZGNN,2001-08-11 06:00,ZGNN 110600Z AUTO 7SM 29/25 A2971 RMK T02900250 IEM_DS3505
ZGNN,2001-08-11 07:00,ZGNN 110700Z AUTO 08010KT 7SM 29/24 A2971 RMK T02900240 IEM_DS3505
ZGNN,2001-08-11 12:00,ZGNN 111200Z AUTO 09002KT 16SM 28/25 A2974 RMK 60003 SLP071 T02750250 52015 IEM_DS3505
ZGNN,2001-08-11 13:00,ZGNN 111300Z AUTO 03006KT 7SM 27/24 A2977 RMK T02700240 IEM_DS3505
ZGNN,2001-08-11 15:00,ZGNN 111500Z AUTO 04006KT 7SM 26/24 A2980 RMK T02600240 IEM_DS3505
ZGNN,2001-08-11 16:00,ZGNN 111600Z AUTO 06006KT 7SM 27/24 A2980 RMK T02700240 IEM_DS3505
ZGNN,2001-08-11 18:00,ZGNN 111800Z AUTO 09004KT 12SM 26/24 A2977 RMK 60000 SLP082 T02640243 57008 IEM_DS3505
ZGNN,2001-08-11 19:00,ZGNN 111900Z AUTO 05006KT 7SM 25/24 A2977 RMK T02500240 IEM_DS3505
ZGNN,2001-08-11 20:00,ZGNN 112000Z AUTO 07006KT 4SM 25/24 A2974 RMK T02500240 IEM_DS3505
ZGNN,2001-08-11 21:00,ZGNN 112100Z AUTO 14002KT 6SM 26/24 A2974 RMK 70008 SLP077 T02550245 57005 IEM_DS3505
ZGNN,2001-08-11 22:00,ZGNN 112200Z AUTO 7SM 25/24 A2974 RMK T02500240 IEM_DS3505
ZGNN,2001-08-11 23:00,ZGNN 112300Z AUTO 05002KT 7SM 25/23 A2977 RMK T02500230 IEM_DS3505
ZGNN,2001-08-12 00:00,ZGNN 120000Z AUTO 04002KT 6SM 26/24 A2977 RMK 60008 SLP087 T02560245 52009 IEM_DS3505
ZGNN,2001-08-12 01:00,ZGNN 120100Z AUTO 7SM 27/24 A2980 RMK T02700240 IEM_DS3505
ZGNN,2001-08-12 02:00,ZGNN 120200Z AUTO 7SM 27/24 A2980 RMK T02700240 IEM_DS3505
ZGNN,2001-08-12 03:00,ZGNN 120300Z AUTO 22004KT 16SM 28/25 A2980 RMK SLP085 T02840246 57001 IEM_DS3505
ZGNN,2001-08-12 04:00,ZGNN 120400Z AUTO 7SM 29/24 A2977 RMK T02900240 IEM_DS3505
ZGNN,2001-08-12 05:00,ZGNN 120500Z AUTO 7SM 30/23 A2974 RMK T03000230 IEM_DS3505
ZGNN,2001-08-12 06:00,ZGNN 120600Z AUTO 11004KT 19SM 31/25 A2974 RMK SLP067 T03070247 57018 IEM_DS3505
ZGNN,2001-08-12 07:00,ZGNN 120700Z AUTO 32008KT 7SM 24/23 A2977 RMK T02400230 IEM_DS3505
ZGNN,2001-08-12 08:00,ZGNN 120800Z AUTO 36006KT 7SM 25/23 A2974 RMK T02500230 IEM_DS3505
ZGNN,2001-08-12 09:00,ZGNN 120900Z AUTO 00000KT 12SM 25/24 A2974 RMK SLP073 T02460239 52005 IEM_DS3505
ZGNN,2001-08-12 10:00,ZGNN 121000Z AUTO 01002KT 7SM 25/23 A2974 RMK T02500230 IEM_DS3505
ZGNN,2001-08-12 11:00,ZGNN 121100Z AUTO 02006KT 7SM 25/23 A2974 RMK T02500230 IEM_DS3505
ZGNN,2001-08-12 13:00,ZGNN 121300Z AUTO 07004KT 7SM 25/23 A2980 RMK T02500230 IEM_DS3505
ZGNN,2001-08-12 14:00,ZGNN 121400Z AUTO 06004KT 7SM 25/23 A2980 RMK T02500230 IEM_DS3505
ZGNN,2001-08-12 15:00,ZGNN 121500Z AUTO 11004KT 9SM 25/24 A2983 RMK 60043 SLP085 T02480242 52012 IEM_DS3505
ZGNN,2001-08-12 16:00,ZGNN 121600Z AUTO 03004KT 3SM 25/23 A2983 RMK T02500230 IEM_DS3505
ZGNN,2001-08-12 17:00,ZGNN 121700Z AUTO 06002KT 1 1/2SM 24/23 A2980 RMK T02400230 IEM_DS3505
ZGNN,2001-08-12 18:00,ZGNN 121800Z AUTO 00000KT 7SM 24/24 A2980 RMK SLP083 T02420239 57011 IEM_DS3505
ZGNN,2001-08-12 19:00,ZGNN 121900Z AUTO 03004KT 2SM 24/ A2977 RMK IEM_DS3505
ZGNN,2001-08-12 20:00,ZGNN 122000Z AUTO 05004KT 1 1/2SM 24/23 A2977 RMK T02400230 IEM_DS3505
ZGNN,2001-08-12 21:00,ZGNN 122100Z AUTO 00000KT 7SM 24/24 A2977 RMK 70049 SLP085 T02450239 54000 IEM_DS3505
ZGNN,2001-08-12 22:00,ZGNN 122200Z AUTO 05004KT 1 1/2SM 24/23 A2977 RMK T02400230 IEM_DS3505
ZGNN,2001-08-12 23:00,ZGNN 122300Z AUTO 08004KT 2 1/2SM 25/23 A2980 RMK T02500230 IEM_DS3505
ZGNN,2001-08-13 00:00,ZGNN 130000Z AUTO 09004KT 4SM 26/24 A2980 RMK 70044 SLP094 T02560242 52009 IEM_DS3505
ZGNN,2001-08-13 01:00,ZGNN 130100Z AUTO 07004KT 7SM 26/23 A2983 RMK T02600230 IEM_DS3505
ZGNN,2001-08-13 02:00,ZGNN 130200Z AUTO 7SM 27/23 A2983 RMK T02700230 IEM_DS3505
ZGNN,2001-08-13 03:00,ZGNN 130300Z AUTO 14002KT 6SM 27/24 RMK SLP102 T02740240 52009 IEM_DS3505
ZGNN,2001-08-13 04:00,ZGNN 130400Z AUTO 05006KT 2 1/2SM 27/24 A2983 RMK T02700240 IEM_DS3505
ZGNN,2001-08-13 05:00,ZGNN 130500Z AUTO 4SM 26/24 A2980 RMK T02600240 IEM_DS3505
ZGNN,2001-08-13 06:00,ZGNN 130600Z AUTO 09002KT 7SM 28/26 A2977 RMK 60012 SLP081 T02810256 57021 IEM_DS3505
ZGNN,2001-08-13 07:00,ZGNN 130700Z AUTO 7SM 30/24 A2974 RMK T03000240 IEM_DS3505
ZGNN,2001-08-13 08:00,ZGNN 130800Z AUTO 7SM 29/24 A2974 RMK T02900240 IEM_DS3505
ZGNN,2001-08-13 09:00,ZGNN 130900Z AUTO 36004KT 9SM 29/25 A2974 RMK SLP068 T02920248 57012 IEM_DS3505
ZGNN,2001-08-13 10:00,ZGNN 131000Z AUTO 08004KT 7SM 29/24 A2974 RMK T02900240 IEM_DS3505
ZGNN,2001-08-13 11:00,ZGNN 131100Z AUTO 27006KT 4SM 23/21 A2977 RMK T02300210 IEM_DS3505
ZGNN,2001-08-13 12:00,ZGNN 131200Z AUTO 02002KT 7SM 23/22 A2980 RMK 60016 SLP091 T02320220 52021 IEM_DS3505
ZGNN,2001-08-13 13:00,ZGNN 131300Z AUTO 7SM 24/22 A2983 RMK T02400220 IEM_DS3505
ZGNN,2001-08-13 14:00,ZGNN 131400Z AUTO 7SM 24/22 A2985 RMK T02400220 IEM_DS3505
ZGNN,2001-08-13 15:00,ZGNN 131500Z AUTO 00000KT 7SM 24/24 RMK SLP106 T02420236 52016 IEM_DS3505
ZGNN,2001-08-13 16:00,ZGNN 131600Z AUTO 35002KT 4SM 24/23 A2985 RMK T02400230 IEM_DS3505
ZGNN,2001-08-13 17:00,ZGNN 131700Z AUTO 4SM 24/23 A2983 RMK T02400230 IEM_DS3505
ZGNN,2001-08-13 18:00,ZGNN 131800Z AUTO 00000KT 7SM 24/23 A2983 RMK 60002 SLP095 T02400234 57011 IEM_DS3505
ZGNN,2001-08-13 19:00,ZGNN 131900Z AUTO 4SM 24/23 A2980 RMK T02400230 IEM_DS3505
ZGNN,2001-08-13 20:00,ZGNN 132000Z AUTO 4SM 24/22 A2980 RMK T02400220 IEM_DS3505
ZGNN,2001-08-13 21:00,ZGNN 132100Z AUTO 5SM 24/23 A2980 RMK T02400230 IEM_DS3505
ZGNN,2001-08-13 22:00,ZGNN 132200Z AUTO 05002KT 5SM 24/23 A2980 RMK T02400230 IEM_DS3505
ZGNN,2001-08-13 23:00,ZGNN 132300Z AUTO 1SM 24/23 A2983 RMK T02400230 IEM_DS3505
ZGNN,2001-08-14 00:00,ZGNN 140000Z AUTO 00000KT 2SM 24/24 A2983 RMK 70029 SLP105 T02420236 52017 IEM_DS3505
ZGNN,2001-08-14 01:00,ZGNN 140100Z AUTO 1 1/2SM 25/23 A2985 RMK T02500230 IEM_DS3505
ZGNN,2001-08-14 02:00,ZGNN 140200Z AUTO 2 1/2SM 27/23 A2985 RMK T02700230 IEM_DS3505
ZGNN,2001-08-14 03:00,ZGNN 140300Z AUTO 00000KT 4SM 28/24 A2985 RMK SLP109 T02780241 52005 IEM_DS3505
ZGNN,2001-08-14 04:00,ZGNN 140400Z AUTO 4SM 29/24 A2985 RMK T02900240 IEM_DS3505
ZGNN,2001-08-14 05:00,ZGNN 140500Z AUTO 7SM 31/24 A2983 RMK T03100240 IEM_DS3505
ZGNN,2001-08-14 06:00,ZGNN 140600Z AUTO 25002KT 7SM 31/24 A2980 RMK SLP084 T03060235 57024 IEM_DS3505
ZGNN,2001-08-14 07:00,ZGNN 140700Z AUTO 7SM 32/23 A2974 RMK T03200230 IEM_DS3505
ZGNN,2001-08-14 08:00,ZGNN 140800Z AUTO 13008G17KT 7SM 30/24 A2971 RMK T03000240 IEM_DS3505
ZGNN,2001-08-14 09:00,ZGNN 140900Z AUTO 22004KT 7SM 30/25 A2974 RMK SLP064 T02960253 57020 IEM_DS3505
ZGNN,2001-08-14 10:00,ZGNN 141000Z AUTO 21002KT 7SM 29/24 A2974 RMK T02900240 IEM_DS3505
ZGNN,2001-08-14 11:00,ZGNN 141100Z AUTO 7SM 28/24 A2974 RMK T02800240 IEM_DS3505
ZGNN,2001-08-14 12:00,ZGNN 141200Z AUTO 00000KT 11SM 27/25 A2977 RMK 60000 SLP078 T02680254 52013 IEM_DS3505
ZGNN,2001-08-14 13:00,ZGNN 141300Z AUTO 7SM 27/25 A2977 RMK T02700250 IEM_DS3505
ZGNN,2001-08-14 15:00,ZGNN 141500Z AUTO 00000KT 10SM 26/26 A2980 RMK SLP095 T02650257 52017 IEM_DS3505
ZGNN,2001-08-14 16:00,ZGNN 141600Z AUTO 04006KT 3SM 26/25 A2980 RMK T02600250 IEM_DS3505
ZGNN,2001-08-14 18:00,ZGNN 141800Z AUTO 11002KT 9SM 26/24 A2977 RMK 60003 SLP080 T02570243 57014 IEM_DS3505
ZGNN,2001-08-14 19:00,ZGNN 141900Z AUTO 05004KT 7SM 25/23 A2977 RMK T02500230 IEM_DS3505
ZGNN,2001-08-14 20:00,ZGNN 142000Z AUTO 04004KT 4SM 24/23 A2974 RMK T02400230 IEM_DS3505
ZGNN,2001-08-14 21:00,ZGNN 142100Z AUTO 04006KT 7SM 24/22 A2974 RMK T02400220 IEM_DS3505
ZGNN,2001-08-14 22:00,ZGNN 142200Z AUTO 06004KT 7SM 24/22 A2974 RMK T02400220 IEM_DS3505
ZGNN,2001-08-14 23:00,ZGNN 142300Z AUTO 03004KT 7SM 24/22 A2977 RMK T02400220 IEM_DS3505
ZGNN,2001-08-15 00:00,ZGNN 150000Z AUTO 14002KT 5SM 25/23 A2977 RMK 70000 SLP077 T02520232 52005 IEM_DS3505
ZGNN,2001-08-15 01:00,ZGNN 150100Z AUTO 7SM 26/23 A2977 RMK T02600230 IEM_DS3505
ZGNN,2001-08-15 02:00,ZGNN 150200Z AUTO 7SM 27/24 A2980 RMK T02700240 IEM_DS3505
ZGNN,2001-08-15 03:00,ZGNN 150300Z AUTO 00000KT 11SM 28/24 A2977 RMK SLP082 T02820242 52006 IEM_DS3505
ZGNN,2001-08-15 04:00,ZGNN 150400Z AUTO 7SM 29/23 A2977 RMK T02900230 IEM_DS3505
ZGNN,2001-08-15 05:00,ZGNN 150500Z AUTO 7SM 31/22 A2977 RMK T03100220 IEM_DS3505
ZGNN,2001-08-15 06:00,ZGNN 150600Z AUTO 27004KT 17SM 31/23 A2974 RMK SLP065 T03130228 57017 IEM_DS3505
ZGNN,2001-08-15 07:00,ZGNN 150700Z AUTO 7SM 33/21 A2968 RMK T03300210 IEM_DS3505
ZGNN,2001-08-15 08:00,ZGNN 150800Z AUTO 7SM 32/21 A2965 RMK T03200210 IEM_DS3505
ZGNN,2001-08-15 09:00,ZGNN 150900Z AUTO 34008KT 17SM 30/24 A2965 RMK SLP037 T02990239 57028 IEM_DS3505
ZGNN,2001-08-15 10:00,ZGNN 151000Z AUTO 36008KT 7SM 30/23 A2962 RMK T03000230 IEM_DS3505
ZGNN,2001-08-15 11:00,ZGNN 151100Z AUTO 06008KT 7SM 30/24 A2965 RMK T03000240 IEM_DS3505
ZGNN,2001-08-15 12:00,ZGNN 151200Z AUTO 18006KT 16SM 28/23 A2968 RMK SLP054 T02750232 52017 IEM_DS3505
ZGNN,2001-08-15 13:00,ZGNN 151300Z AUTO 6SM 26/22 A2971 RMK T02600220 IEM_DS3505
ZGNN,2001-08-15 14:00,ZGNN 151400Z AUTO 6SM 25/22 A2971 RMK T02500220 IEM_DS3505
ZGNN,2001-08-15 15:00,ZGNN 151500Z AUTO 00000KT 12SM 26/24 RMK SLP066 T02560239 52012 IEM_DS3505
ZGNN,2001-08-15 17:00,ZGNN 151700Z AUTO 04004KT 7SM 25/23 A2971 RMK T02500230 IEM_DS3505
ZGNN,2001-08-15 18:00,ZGNN 151800Z AUTO 00000KT 11SM 25/24 A2968 RMK SLP054 T02490239 57012 IEM_DS3505
ZGNN,2001-08-15 19:00,ZGNN 151900Z AUTO 03002KT 2 1/2SM 25/23 A2968 RMK T02500230 IEM_DS3505
ZGNN,2001-08-15 20:00,ZGNN 152000Z AUTO 36002KT 4SM 25/23 A2968 RMK T02500230 IEM_DS3505
ZGNN,2001-08-15 21:00,ZGNN 152100Z AUTO 00000KT 7SM 24/24 A2968 RMK SLP046 T02440240 57008 IEM_DS3505
ZGNN,2001-08-15 22:00,ZGNN 152200Z AUTO 03002KT 2 1/2SM 25/23 A2968 RMK T02500230 IEM_DS3505
ZGNN,2001-08-15 23:00,ZGNN 152300Z AUTO 2SM 25/23 A2968 RMK T02500230 IEM_DS3505
ZGNN,2001-08-16 00:00,ZGNN 160000Z AUTO 00000KT 3SM 25/25 A2968 RMK SLP053 T02520246 52007 IEM_DS3505
ZGNN,2001-08-16 01:00,ZGNN 160100Z AUTO 2SM 26/23 A2971 RMK T02600230 IEM_DS3505
ZGNN,2001-08-16 02:00,ZGNN 160200Z AUTO 7SM 29/24 A2971 RMK T02900240 IEM_DS3505
ZGNN,2001-08-16 03:00,ZGNN 160300Z AUTO 18004KT 7SM 30/24 A2971 RMK SLP061 T03020244 52008 IEM_DS3505
ZGNN,2001-08-16 04:00,ZGNN 160400Z AUTO 7SM 31/24 A2971 RMK T03100240 IEM_DS3505
ZGNN,2001-08-16 05:00,ZGNN 160500Z AUTO 7SM 32/23 A2968 RMK T03200230 IEM_DS3505
ZGNN,2001-08-16 06:00,ZGNN 160600Z AUTO 20004KT 16SM 32/23 A2965 RMK SLP042 T03200230 57018 IEM_DS3505
ZGNN,2001-08-16 07:00,ZGNN 160700Z AUTO 7SM 33/23 A2962 RMK T03300230 IEM_DS3505
ZGNN,2001-08-16 08:00,ZGNN 160800Z AUTO 7SM 33/23 A2959 RMK T03300230 IEM_DS3505
ZGNN,2001-08-16 09:00,ZGNN 160900Z AUTO 09002KT 17SM 31/25 A2956 RMK SLP015 T03110249 57027 IEM_DS3505
ZGNN,2001-08-16 10:00,ZGNN 161000Z AUTO 10006KT 7SM 31/24 A2959 RMK T03100240 IEM_DS3505
ZGNN,2001-08-16 11:00,ZGNN 161100Z AUTO 09006KT 7SM 29/24 A2959 RMK T02900240 IEM_DS3505
ZGNN,2001-08-16 12:00,ZGNN 161200Z AUTO 14004KT 11SM 29/25 A2959 RMK SLP025 T02910247 52009 IEM_DS3505
ZGNN,2001-08-16 13:00,ZGNN 161300Z AUTO 6SM 28/24 A2965 RMK T02800240 IEM_DS3505
ZGNN,2001-08-16 14:00,ZGNN 161400Z AUTO 6SM 27/24 A2965 RMK T02700240 IEM_DS3505
ZGNN,2001-08-16 15:00,ZGNN 161500Z AUTO 00000KT 9SM 26/25 A2968 RMK SLP049 T02640251 52025 IEM_DS3505
ZGNN,2001-08-16 16:00,ZGNN 161600Z AUTO 6SM 27/24 A2968 RMK T02700240 IEM_DS3505
ZGNN,2001-08-16 17:00,ZGNN 161700Z AUTO 7SM 26/24 A2968 RMK T02600240 IEM_DS3505
ZGNN,2001-08-16 18:00,ZGNN 161800Z AUTO 00000KT 8SM 25/25 A2968 RMK SLP046 T02530246 57003 IEM_DS3505
ZGNN,2001-08-16 19:00,ZGNN 161900Z AUTO 4SM 26/24 A2965 RMK T02600240 IEM_DS3505
ZGNN,2001-08-16 20:00,ZGNN 162000Z AUTO 3SM 25/24 A2965 RMK T02500240 IEM_DS3505
ZGNN,2001-08-16 21:00,ZGNN 162100Z AUTO 00000KT 8SM 25/25 A2965 RMK SLP046 T02530246 57003 IEM_DS3505
ZGNN,2001-08-16 22:00,ZGNN 162200Z AUTO 02002KT 2SM 25/24 A2965 RMK T02500240 IEM_DS3505
ZGNN,2001-08-17 00:00,ZGNN 170000Z AUTO 2 1/2SM 26/24 A2965 RMK T02600240 IEM_DS3505
ZGNN,2001-08-17 01:00,ZGNN 170100Z AUTO 4SM A2968 RMK IEM_DS3505
ZGNN,2001-08-17 02:00,ZGNN 170200Z AUTO 6SM 29/24 A2971 RMK T02900240 IEM_DS3505
ZGNN,2001-08-17 03:00,ZGNN 170300Z AUTO 00000KT 7SM 31/24 A2971 RMK SLP056 T03070242 52012 IEM_DS3505
ZGNN,2001-08-17 04:00,ZGNN 170400Z AUTO 7SM 31/24 A2971 RMK T03100240 IEM_DS3505
ZGNN,2001-08-17 05:00,ZGNN 170500Z AUTO 7SM 33/23 A2968 RMK T03300230 IEM_DS3505
ZGNN,2001-08-17 06:00,ZGNN 170600Z AUTO 29002KT 9SM 33/24 A2965 RMK SLP037 T03260238 57019 IEM_DS3505
ZGNN,2001-08-17 07:00,ZGNN 170700Z AUTO 7SM 34/22 A2962 RMK T03400220 IEM_DS3505
ZGNN,2001-08-17 08:00,ZGNN 170800Z AUTO 7SM 34/22 A2959 RMK T03400220 IEM_DS3505
ZGNN,2001-08-17 09:00,ZGNN 170900Z AUTO 00000KT 12SM 33/23 A2959 RMK SLP017 T03320234 57020 IEM_DS3505
ZGNN,2001-08-17 10:00,ZGNN 171000Z AUTO 06004KT 7SM 32/23 A2959 RMK T03200230 IEM_DS3505
ZGNN,2001-08-17 11:00,ZGNN 171100Z AUTO 04008KT 7SM 30/23 A2959 RMK T03000230 IEM_DS3505
ZGNN,2001-08-17 12:00,ZGNN 171200Z AUTO 00000KT 12SM 29/23 A2962 RMK SLP033 T02910234 52015 IEM_DS3505
ZGNN,2001-08-17 13:00,ZGNN 171300Z AUTO 05004KT 7SM 28/23 A2965 RMK T02800230 IEM_DS3505
ZGNN,2001-08-17 14:00,ZGNN 171400Z AUTO 6SM 27/23 A2968 RMK T02700230 IEM_DS3505
ZGNN,2001-08-17 15:00,ZGNN 171500Z AUTO 00000KT 12SM 27/23 A2968 RMK SLP056 T02680233 52024 IEM_DS3505
ZGNN,2001-08-17 16:00,ZGNN 171600Z AUTO 34002KT 5SM 26/24 A2971 RMK T02600240 IEM_DS3505
ZGNN,2001-08-17 17:00,ZGNN 171700Z AUTO 5SM 26/23 A2968 RMK T02600230 IEM_DS3505
ZGNN,2001-08-17 18:00,ZGNN 171800Z AUTO 00000KT 12SM 25/24 A2968 RMK SLP051 T02530239 57005 IEM_DS3505
ZGNN,2001-08-17 19:00,ZGNN 171900Z AUTO 01002KT 4SM 26/23 A2965 RMK T02600230 IEM_DS3505
ZGNN,2001-08-17 20:00,ZGNN 172000Z AUTO 05004KT 2 1/2SM 25/23 A2965 RMK T02500230 IEM_DS3505
ZGNN,2001-08-17 21:00,ZGNN 172100Z AUTO 00000KT 6SM 25/24 A2965 RMK SLP039 T02460239 57012 IEM_DS3505
ZGNN,2001-08-17 22:00,ZGNN 172200Z AUTO 18002KT 2 1/2SM 25/23 A2965 RMK T02500230 IEM_DS3505
ZGNN,2001-08-17 23:00,ZGNN 172300Z AUTO 1 1/2SM 25/23 A2965 RMK T02500230 IEM_DS3505
ZGNN,2001-08-18 00:00,ZGNN 180000Z AUTO 00000KT 4SM 25/24 A2968 RMK SLP050 T02540241 52010 IEM_DS3505
ZGNN,2001-08-18 01:00,ZGNN 180100Z AUTO 07002KT 2 1/2SM 28/23 A2971 RMK T02800230 IEM_DS3505
ZGNN,2001-08-18 02:00,ZGNN 180200Z AUTO 2 1/2SM 29/23 A2971 RMK T02900230 IEM_DS3505
ZGNN,2001-08-18 03:00,ZGNN 180300Z AUTO 11004KT 7SM 31/24 RMK SLP062 T03080245 52013 IEM_DS3505
ZGNN,2001-08-18 04:00,ZGNN 180400Z AUTO 7SM 32/23 A2971 RMK T03200230 IEM_DS3505
ZGNN,2001-08-18 05:00,ZGNN 180500Z AUTO 7SM 32/22 A2968 RMK T03200220 IEM_DS3505
ZGNN,2001-08-18 06:00,ZGNN 180600Z AUTO 16004KT 12SM 33/24 A2965 RMK SLP043 T03340241 57019 IEM_DS3505
ZGNN,2001-08-18 07:00,ZGNN 180700Z AUTO 7SM 32/23 A2962 RMK T03200230 IEM_DS3505
ZGNN,2001-08-18 08:00,ZGNN 180800Z AUTO 7SM 34/22 A2959 RMK T03400220 IEM_DS3505
ZGNN,2001-08-18 09:00,ZGNN 180900Z AUTO 29004KT 12SM 31/24 A2959 RMK SLP018 T03100244 57025 IEM_DS3505
ZGNN,2001-08-18 10:00,ZGNN 181000Z AUTO 05004KT 6SM 32/23 A2959 RMK T03200230 IEM_DS3505
ZGNN,2001-08-18 11:00,ZGNN 181100Z AUTO 08002KT 6SM 31/24 A2959 RMK T03100240 IEM_DS3505
ZGNN,2001-08-18 12:00,ZGNN 181200Z AUTO 00000KT 12SM 29/26 A2962 RMK 60003 SLP031 T02910258 52012 IEM_DS3505
ZGNN,2001-08-18 13:00,ZGNN 181300Z AUTO 6SM 29/24 A2965 RMK T02900240 IEM_DS3505
ZGNN,2001-08-18 14:00,ZGNN 181400Z AUTO 13006KT 6SM 28/24 A2968 RMK T02800240 IEM_DS3505
ZGNN,2001-08-18 15:00,ZGNN 181500Z AUTO 00000KT 9SM 27/24 A2968 RMK SLP052 T02720245 52022 IEM_DS3505
ZGNN,2001-08-18 16:00,ZGNN 181600Z AUTO 7SM 26/24 A2968 RMK T02600240 IEM_DS3505
ZGNN,2001-08-18 17:00,ZGNN 181700Z AUTO 12002KT 7SM 26/24 A2968 RMK T02600240 IEM_DS3505
ZGNN,2001-08-18 18:00,ZGNN 181800Z AUTO 00000KT 9SM 25/24 A2968 RMK SLP049 T02530244 57003 IEM_DS3505
ZGNN,2001-08-18 19:00,ZGNN 181900Z AUTO 08002KT 3SM 25/24 A2968 RMK T02500240 IEM_DS3505
ZGNN,2001-08-18 20:00,ZGNN 182000Z AUTO 05004KT 3SM 25/23 A2965 RMK T02500230 IEM_DS3505
ZGNN,2001-08-18 21:00,ZGNN 182100Z AUTO 00000KT 9SM 25/24 A2968 RMK 70003 SLP048 T02500240 57002 IEM_DS3505
ZGNN,2001-08-18 22:00,ZGNN 182200Z AUTO 05002KT 7SM 24/23 A2968 RMK T02400230 IEM_DS3505
ZGNN,2001-08-18 23:00,ZGNN 182300Z AUTO 2 1/2SM 25/23 A2968 RMK T02500230 IEM_DS3505
ZGNN,2001-08-19 00:00,ZGNN 190000Z AUTO 00000KT 6SM 26/24 A2971 RMK 70003 SLP059 T02550245 52011 IEM_DS3505
ZGNN,2001-08-19 01:00,ZGNN 190100Z AUTO 4SM 28/24 A2971 RMK T02800240 IEM_DS3505
ZGNN,2001-08-19 02:00,ZGNN 190200Z AUTO 6SM 29/24 A2971 RMK T02900240 IEM_DS3505
ZGNN,2001-08-19 03:00,ZGNN 190300Z AUTO 00000KT 9SM 30/25 A2971 RMK SLP061 T03010248 52003 IEM_DS3505
ZGNN,2001-08-19 04:00,ZGNN 190400Z AUTO 7SM 32/24 A2971 RMK T03200240 IEM_DS3505
ZGNN,2001-08-19 05:00,ZGNN 190500Z AUTO 7SM 32/23 A2968 RMK T03200230 IEM_DS3505
ZGNN,2001-08-19 06:00,ZGNN 190600Z AUTO 04006KT 12SM 33/24 A2965 RMK SLP045 T03260240 57016 IEM_DS3505
ZGNN,2001-08-19 07:00,ZGNN 190700Z AUTO 7SM 32/23 A2965 RMK T03200230 IEM_DS3505
ZGNN,2001-08-19 08:00,ZGNN 190800Z AUTO 7SM 34/23 A2962 RMK T03400230 IEM_DS3505
ZGNN,2001-08-19 09:00,ZGNN 190900Z AUTO 22006KT 12SM 31/23 A2962 RMK SLP031 T03140231 57014 IEM_DS3505
ZGNN,2001-08-19 10:00,ZGNN 191000Z AUTO 27006KT 7SM 29/25 A2962 RMK T02900250 IEM_DS3505
ZGNN,2001-08-19 11:00,ZGNN 191100Z AUTO 15004KT 6SM 29/25 A2962 RMK T02900250 IEM_DS3505
ZGNN,2001-08-19 12:00,ZGNN 191200Z AUTO 16002KT 12SM 29/25 A2968 RMK SLP046 T02860246 52014 IEM_DS3505
ZGNN,2001-08-19 13:00,ZGNN 191300Z AUTO 23002KT 6SM 28/25 A2968 RMK T02800250 IEM_DS3505
ZGNN,2001-08-19 14:00,ZGNN 191400Z AUTO 05004KT 6SM 27/25 A2971 RMK T02700250 IEM_DS3505
ZGNN,2001-08-19 15:00,ZGNN 191500Z AUTO 00000KT 11SM 26/25 A2974 RMK SLP069 T02640253 52023 IEM_DS3505
ZGNN,2001-08-19 16:00,ZGNN 191600Z AUTO 6SM 27/25 A2974 RMK T02700250 IEM_DS3505
ZGNN,2001-08-19 17:00,ZGNN 191700Z AUTO 4SM 26/24 A2974 RMK T02600240 IEM_DS3505
ZGNN,2001-08-19 18:00,ZGNN 191800Z AUTO 02004KT 9SM 26/25 A2974 RMK SLP065 T02560250 57003 IEM_DS3505
ZGNN,2001-08-19 19:00,ZGNN 191900Z AUTO 1 1/2SM 26/24 A2971 RMK T02600240 IEM_DS3505
ZGNN,2001-08-19 20:00,ZGNN 192000Z AUTO 1 1/2SM 25/24 A2971 RMK T02500240 IEM_DS3505
ZGNN,2001-08-19 21:00,ZGNN 192100Z AUTO 00000KT 7SM 25/24 A2971 RMK SLP061 T02480244 57005 IEM_DS3505
ZGNN,2001-08-19 22:00,ZGNN 192200Z AUTO 2 1/2SM 25/24 A2971 RMK T02500240 IEM_DS3505
ZGNN,2001-08-19 23:00,ZGNN 192300Z AUTO 2 1/2SM 25/24 A2971 RMK T02500240 IEM_DS3505
ZGNN,2001-08-20 00:00,ZGNN 200000Z AUTO 00000KT 4SM 26/25 A2974 RMK SLP070 T02620249 52009 IEM_DS3505
ZGNN,2001-08-20 01:00,ZGNN 200100Z AUTO 2SM 27/24 A2974 RMK T02700240 IEM_DS3505
ZGNN,2001-08-20 02:00,ZGNN 200200Z AUTO 4SM 29/25 A2977 RMK T02900250 IEM_DS3505
ZGNN,2001-08-20 03:00,ZGNN 200300Z AUTO 32002KT 6SM 30/25 A2977 RMK SLP077 T03040251 52007 IEM_DS3505
ZGNN,2001-08-20 04:00,ZGNN 200400Z AUTO 6SM 32/23 A2977 RMK T03200230 IEM_DS3505
ZGNN,2001-08-20 05:00,ZGNN 200500Z AUTO 7SM 34/22 A2974 RMK T03400220 IEM_DS3505
ZGNN,2001-08-20 06:00,ZGNN 200600Z AUTO 18006KT 9SM 34/24 A2971 RMK SLP062 T03430240 57014 IEM_DS3505
ZGNN,2001-08-20 07:00,ZGNN 200700Z AUTO 7SM 35/23 A2971 RMK T03500230 IEM_DS3505
ZGNN,2001-08-20 08:00,ZGNN 200800Z AUTO 7SM 34/22 A2968 RMK T03400220 IEM_DS3505
ZGNN,2001-08-20 09:00,ZGNN 200900Z AUTO 00000KT 9SM 35/24 A2965 RMK SLP040 T03480240 57022 IEM_DS3505
ZGNN,2001-08-20 10:00,ZGNN 201000Z AUTO 7SM 34/22 A2965 RMK T03400220 IEM_DS3505
ZGNN,2001-08-20 11:00,ZGNN 201100Z AUTO 13004KT 7SM 32/24 A2965 RMK T03200240 IEM_DS3505
ZGNN,2001-08-20 12:00,ZGNN 201200Z AUTO 14008G23KT 7SM 30/24 A2971 RMK SLP060 T03040242 52019 IEM_DS3505
ZGNN,2001-08-20 13:00,ZGNN 201300Z AUTO 04002KT 6SM 28/23 A2971 RMK T02800230 IEM_DS3505
ZGNN,2001-08-20 14:00,ZGNN 201400Z AUTO 6SM 27/23 A2974 RMK T02700230 IEM_DS3505
ZGNN,2001-08-20 15:00,ZGNN 201500Z AUTO 27002KT 7SM 26/25 A2974 RMK SLP068 T02650248 52008 IEM_DS3505
ZGNN,2001-08-20 16:00,ZGNN 201600Z AUTO 6SM 26/24 A2977 RMK T02600240 IEM_DS3505
ZGNN,2001-08-20 17:00,ZGNN 201700Z AUTO 7SM 26/23 A2977 RMK T02600230 IEM_DS3505
ZGNN,2001-08-20 18:00,ZGNN 201800Z AUTO 00000KT 7SM 26/24 A2974 RMK SLP071 T02600243 52004 IEM_DS3505
ZGNN,2001-08-20 19:00,ZGNN 201900Z AUTO 03004KT 4SM 26/24 A2974 RMK T02600240 IEM_DS3505
ZGNN,2001-08-20 20:00,ZGNN 202000Z AUTO 4SM 26/24 A2974 RMK T02600240 IEM_DS3505
ZGNN,2001-08-20 21:00,ZGNN 202100Z AUTO 00000KT 6SM 25/25 A2974 RMK SLP067 T02520246 57004 IEM_DS3505
ZGNN,2001-08-20 22:00,ZGNN 202200Z AUTO 2SM 25/24 A2974 RMK T02500240 IEM_DS3505
ZGNN,2001-08-20 23:00,ZGNN 202300Z AUTO 1 1/2SM 25/24 A2974 RMK T02500240 IEM_DS3505
ZGNN,2001-08-21 00:00,ZGNN 210000Z AUTO 14002KT 3SM 26/25 A2974 RMK SLP072 T02580247 52004 IEM_DS3505
ZGNN,2001-08-21 01:00,ZGNN 210100Z AUTO 1 1/2SM 28/24 A2974 RMK T02800240 IEM_DS3505
ZGNN,2001-08-21 02:00,ZGNN 210200Z AUTO 3SM 30/25 A2977 RMK T03000250 IEM_DS3505
ZGNN,2001-08-21 03:00,ZGNN 210300Z AUTO 27002KT 6SM 31/26 A2974 RMK SLP072 T03080260 54000 IEM_DS3505
ZGNN,2001-08-21 04:00,ZGNN 210400Z AUTO 7SM 32/24 A2971 RMK T03200240 IEM_DS3505
ZGNN,2001-08-21 05:00,ZGNN 210500Z AUTO 7SM 34/22 A2971 RMK T03400220 IEM_DS3505
ZGNN,2001-08-21 06:00,ZGNN 210600Z AUTO 27002KT 15SM 34/24 A2968 RMK SLP046 T03440240 57024 IEM_DS3505
ZGNN,2001-08-21 07:00,ZGNN 210700Z AUTO 7SM 35/23 A2965 RMK T03500230 IEM_DS3505
ZGNN,2001-08-21 08:00,ZGNN 210800Z AUTO 7SM 34/21 A2962 RMK T03400210 IEM_DS3505
ZGNN,2001-08-21 09:00,ZGNN 210900Z AUTO 18006KT 15SM 35/22 A2962 RMK SLP025 T03500219 57021 IEM_DS3505
ZGNN,2001-08-21 10:00,ZGNN 211000Z AUTO 7SM 34/22 A2962 RMK T03400220 IEM_DS3505
ZGNN,2001-08-21 11:00,ZGNN 211100Z AUTO 15004KT 6SM 32/24 A2962 RMK T03200240 IEM_DS3505
ZGNN,2001-08-21 12:00,ZGNN 211200Z AUTO 14004KT 9SM 32/25 A2962 RMK SLP032 T03170250 52006 IEM_DS3505
ZGNN,2001-08-21 13:00,ZGNN 211300Z AUTO 6SM 29/25 A2965 RMK T02900250 IEM_DS3505
ZGNN,2001-08-21 14:00,ZGNN 211400Z AUTO 22002KT 6SM 29/24 A2965 RMK T02900240 IEM_DS3505
ZGNN,2001-08-21 15:00,ZGNN 211500Z AUTO 00000KT 9SM 28/26 A2968 RMK SLP047 T02820255 52015 IEM_DS3505
ZGNN,2001-08-21 16:00,ZGNN 211600Z AUTO 4SM 27/25 A2968 RMK T02700250 IEM_DS3505
ZGNN,2001-08-21 17:00,ZGNN 211700Z AUTO 4SM 27/25 A2968 RMK T02700250 IEM_DS3505
ZGNN,2001-08-21 18:00,ZGNN 211800Z AUTO 00000KT 7SM 25/24 A2965 RMK SLP043 T02540245 57004 IEM_DS3505
ZGNN,2001-08-21 19:00,ZGNN 211900Z AUTO 25002KT 4SM 25/23 A2965 RMK T02500230 IEM_DS3505
ZGNN,2001-08-21 20:00,ZGNN 212000Z AUTO 3SM 25/24 A2965 RMK T02500240 IEM_DS3505
ZGNN,2001-08-21 21:00,ZGNN 212100Z AUTO 00000KT 7SM 24/24 A2965 RMK SLP040 T02430237 57003 IEM_DS3505
ZGNN,2001-08-21 22:00,ZGNN 212200Z AUTO 2 1/2SM 25/23 A2965 RMK T02500230 IEM_DS3505
ZGNN,2001-08-21 23:00,ZGNN 212300Z AUTO 1/2SM 25/24 A2968 RMK T02500240 IEM_DS3505
ZGNN,2001-08-22 00:00,ZGNN 220000Z AUTO 00000KT 4SM 26/25 A2968 RMK SLP049 T02580250 52009 IEM_DS3505
ZGNN,2001-08-22 01:00,ZGNN 220100Z AUTO 4SM 28/24 A2968 RMK T02800240 IEM_DS3505
ZGNN,2001-08-22 02:00,ZGNN 220200Z AUTO 11SM 30/24 A2968 RMK T03000240 IEM_DS3505
ZGNN,2001-08-22 03:00,ZGNN 220300Z AUTO 32002KT 11SM 32/24 A2968 RMK SLP050 T03180242 52001 IEM_DS3505
ZGNN,2001-08-22 04:00,ZGNN 220400Z AUTO 7SM 33/21 A2968 RMK T03300210 IEM_DS3505
ZGNN,2001-08-22 05:00,ZGNN 220500Z AUTO 7SM 34/20 A2965 RMK T03400200 IEM_DS3505
ZGNN,2001-08-22 06:00,ZGNN 220600Z AUTO 22006KT 12SM 34/22 A2962 RMK SLP030 T03420219 57019 IEM_DS3505
ZGNN,2001-08-22 07:00,ZGNN 220700Z AUTO 7SM 35/20 A2962 RMK T03500200 IEM_DS3505
ZGNN,2001-08-22 08:00,ZGNN 220800Z AUTO 7SM 35/20 A2959 RMK T03500200 IEM_DS3505
ZGNN,2001-08-22 09:00,ZGNN 220900Z AUTO 27004KT 11SM 35/22 A2959 RMK SLP014 T03510222 57016 IEM_DS3505
ZGNN,2001-08-22 10:00,ZGNN 221000Z AUTO 7SM 34/20 A2959 RMK T03400200 IEM_DS3505
ZGNN,2001-08-22 11:00,ZGNN 221100Z AUTO 12004KT 7SM 32/22 A2956 RMK T03200220 IEM_DS3505
ZGNN,2001-08-22 12:00,ZGNN 221200Z AUTO 14004KT 12SM 32/25 A2959 RMK SLP021 T03180247 52006 IEM_DS3505
ZGNN,2001-08-22 13:00,ZGNN 221300Z AUTO 13004KT 6SM 30/24 A2959 RMK T03000240 IEM_DS3505
ZGNN,2001-08-22 14:00,ZGNN 221400Z AUTO 6SM 29/24 A2962 RMK T02900240 IEM_DS3505
ZGNN,2001-08-22 15:00,ZGNN 221500Z AUTO 00000KT 12SM 28/25 A2962 RMK SLP034 T02850253 52014 IEM_DS3505
ZGNN,2001-08-22 16:00,ZGNN 221600Z AUTO 18002KT 5SM 27/24 A2962 RMK T02700240 IEM_DS3505
ZGNN,2001-08-22 17:00,ZGNN 221700Z AUTO 5SM 27/25 A2962 RMK T02700250 IEM_DS3505
ZGNN,2001-08-22 18:00,ZGNN 221800Z AUTO 00000KT 12SM 27/25 A2962 RMK SLP026 T02660252 57008 IEM_DS3505
ZGNN,2001-08-22 19:00,ZGNN 221900Z AUTO 2 1/2SM 26/24 A2962 RMK T02600240 IEM_DS3505
ZGNN,2001-08-22 20:00,ZGNN 222000Z AUTO 2SM 26/24 A2962 RMK T02600240 IEM_DS3505
ZGNN,2001-08-22 21:00,ZGNN 222100Z AUTO 00000KT 6SM 25/25 A2962 RMK SLP031 T02530246 52005 IEM_DS3505
ZGNN,2001-08-22 22:00,ZGNN 222200Z AUTO 1 1/2SM 26/24 A2965 RMK T02600240 IEM_DS3505
ZGNN,2001-08-22 23:00,ZGNN 222300Z AUTO 1SM 25/24 A2965 RMK T02500240 IEM_DS3505
ZGNN,2001-08-23 00:00,ZGNN 230000Z AUTO 00000KT 2SM 26/25 A2965 RMK SLP042 T02640254 52010 IEM_DS3505
ZGNN,2001-08-23 01:00,ZGNN 230100Z AUTO 2 1/2SM 28/25 A2965 RMK T02800250 IEM_DS3505
ZGNN,2001-08-23 02:00,ZGNN 230200Z AUTO 24006KT 7SM 30/24 A2965 RMK T03000240 IEM_DS3505
ZGNN,2001-08-23 03:00,ZGNN 230300Z AUTO 22006KT 12SM 31/24 A2965 RMK SLP044 T03140242 52002 IEM_DS3505
ZGNN,2001-08-23 04:00,ZGNN 230400Z AUTO 7SM 32/22 A2965 RMK T03200220 IEM_DS3505
ZGNN,2001-08-23 05:00,ZGNN 230500Z AUTO 7SM 33/22 A2962 RMK T03300220 IEM_DS3505
ZGNN,2001-08-23 06:00,ZGNN 230600Z AUTO 16004KT 16SM 34/23 A2959 RMK SLP020 T03390229 57023 IEM_DS3505
ZGNN,2001-08-23 07:00,ZGNN 230700Z AUTO 7SM 35/21 A2956 RMK T03500210 IEM_DS3505
ZGNN,2001-08-23 08:00,ZGNN 230800Z AUTO 7SM 35/21 A2953 RMK T03500210 IEM_DS3505
ZGNN,2001-08-23 09:00,ZGNN 230900Z AUTO 25004KT 16SM 35/23 A2953 RMK SLP002 T03480232 57018 IEM_DS3505
ZGNN,2001-08-23 10:00,ZGNN 231000Z AUTO 7SM 34/23 A2953 RMK T03400230 IEM_DS3505
ZGNN,2001-08-23 11:00,ZGNN 231100Z AUTO 34002KT 6SM 32/24 A2953 RMK T03200240 IEM_DS3505
ZGNN,2001-08-23 12:00,ZGNN 231200Z AUTO 00000KT 9SM 30/25 A2956 RMK SLP009 T03030253 52006 IEM_DS3505
ZGNN,2001-08-23 13:00,ZGNN 231300Z AUTO 6SM 30/25 A2959 RMK T03000250 IEM_DS3505
ZGNN,2001-08-23 14:00,ZGNN 231400Z AUTO 6SM 29/25 A2959 RMK T02900250 IEM_DS3505
ZGNN,2001-08-23 15:00,ZGNN 231500Z AUTO 00000KT 9SM 28/26 A2959 RMK SLP023 T02790258 52015 IEM_DS3505
ZGNN,2001-08-23 16:00,ZGNN 231600Z AUTO 6SM 27/25 A2959 RMK T02700250 IEM_DS3505
ZGNN,2001-08-23 17:00,ZGNN 231700Z AUTO 7SM 27/25 A2959 RMK T02700250 IEM_DS3505
ZGNN,2001-08-23 18:00,ZGNN 231800Z AUTO 00000KT 7SM 27/25 A2959 RMK SLP016 T02670254 57007 IEM_DS3505
ZGNN,2001-08-23 19:00,ZGNN 231900Z AUTO 3SM 26/25 A2959 RMK T02600250 IEM_DS3505
ZGNN,2001-08-23 20:00,ZGNN 232000Z AUTO 09002KT 2 1/2SM 26/24 A2956 RMK T02600240 IEM_DS3505
ZGNN,2001-08-23 21:00,ZGNN 232100Z AUTO 00000KT 7SM 26/25 A2956 RMK SLP016 T02590252 54000 IEM_DS3505
ZGNN,2001-08-23 22:00,ZGNN 232200Z AUTO 02002KT 3SM 26/25 A2959 RMK T02600250 IEM_DS3505
ZGNN,2001-08-23 23:00,ZGNN 232300Z AUTO 05002KT 1 1/4SM 26/24 A2959 RMK T02600240 IEM_DS3505
ZGNN,2001-08-24 00:00,ZGNN 240000Z AUTO 14004KT 3SM 27/26 A2959 RMK SLP028 T02680255 52011 IEM_DS3505
ZGNN,2001-08-24 01:00,ZGNN 240100Z AUTO 2 1/2SM 28/25 A2962 RMK T02800250 IEM_DS3505
ZGNN,2001-08-24 02:00,ZGNN 240200Z AUTO 3SM 29/25 A2965 RMK T02900250 IEM_DS3505
ZGNN,2001-08-24 03:00,ZGNN 240300Z AUTO 27006KT 7SM 31/26 A2962 RMK SLP028 T03080265 54000 IEM_DS3505
ZGNN,2001-08-24 04:00,ZGNN 240400Z AUTO 20006KT 7SM 32/25 A2959 RMK T03200250 IEM_DS3505
ZGNN,2001-08-24 05:00,ZGNN 240500Z AUTO 20008KT 7SM 33/23 A2956 RMK T03300230 IEM_DS3505
ZGNN,2001-08-24 06:00,ZGNN 240600Z AUTO 22006KT 12SM 34/25 A2953 RMK SLP004 T03440251 57023 IEM_DS3505
ZGNN,2001-08-24 07:00,ZGNN 240700Z AUTO 7SM 35/24 A2953 RMK T03500240 IEM_DS3505
ZGNN,2001-08-24 08:00,ZGNN 240800Z AUTO 7SM 35/23 A2950 RMK T03500230 IEM_DS3505
ZGNN,2001-08-24 09:00,ZGNN 240900Z AUTO 18002KT 19SM 34/24 A2950 RMK SLP990 T03450244 57014 IEM_DS3505
ZGNN,2001-08-24 10:00,ZGNN 241000Z AUTO 11004KT 7SM 34/24 A2950 RMK T03400240 IEM_DS3505
ZGNN,2001-08-24 11:00,ZGNN 241100Z AUTO 14004KT 7SM 32/26 A2953 RMK T03200260 IEM_DS3505
ZGNN,2001-08-24 12:00,ZGNN 241200Z AUTO 14004KT 16SM 32/26 A2953 RMK SLP999 T03200265 52009 IEM_DS3505
ZGNN,2001-08-24 13:00,ZGNN 241300Z AUTO 14006KT 7SM 30/26 A2953 RMK T03000260 IEM_DS3505
ZGNN,2001-08-24 14:00,ZGNN 241400Z AUTO 14006KT 7SM 30/26 A2956 RMK T03000260 IEM_DS3505
ZGNN,2001-08-24 15:00,ZGNN 241500Z AUTO 22002KT 12SM 30/27 A2962 RMK SLP029 T02960266 52030 IEM_DS3505
ZGNN,2001-08-24 16:00,ZGNN 241600Z AUTO 22012KT 7SM 26/22 A2962 RMK T02600220 IEM_DS3505
ZGNN,2001-08-24 18:00,ZGNN 241800Z AUTO 00000KT 11SM 26/24 RMK 60000 SLP011 T02580238 57018 IEM_DS3505
ZGNN,2001-08-24 21:00,ZGNN 242100Z AUTO 00000KT 12SM 25/24 A2962 RMK 70000 SLP029 T02530236 52018 IEM_DS3505
ZGNN,2001-08-24 22:00,ZGNN 242200Z AUTO 7SM 26/23 A2962 RMK T02600230 IEM_DS3505
ZGNN,2001-08-24 23:00,ZGNN 242300Z AUTO 7SM 25/23 A2962 RMK T02500230 IEM_DS3505
ZGNN,2001-08-25 00:00,ZGNN 250000Z AUTO 00000KT 11SM 26/24 A2965 RMK 60000 SLP011 T02580238 57018 IEM_DS3505
ZGNN,2001-08-25 01:00,ZGNN 250100Z AUTO 21002KT 7SM 27/23 A2968 RMK T02700230 IEM_DS3505
ZGNN,2001-08-25 02:00,ZGNN 250200Z AUTO 7SM 28/24 A2968 RMK T02800240 IEM_DS3505
ZGNN,2001-08-25 03:00,ZGNN 250300Z AUTO 29006KT 19SM 30/25 RMK SLP041 T02970249 57001 IEM_DS3505
ZGNN,2001-08-25 04:00,ZGNN 250400Z AUTO 7SM 31/23 A2965 RMK T03100230 IEM_DS3505
ZGNN,2001-08-25 05:00,ZGNN 250500Z AUTO 30006KT 7SM 31/23 A2965 RMK T03100230 IEM_DS3505
ZGNN,2001-08-25 06:00,ZGNN 250600Z AUTO 32008KT 19SM 32/24 A2962 RMK SLP031 T03200244 57010 IEM_DS3505
ZGNN,2001-08-25 07:00,ZGNN 250700Z AUTO 26006KT 7SM 32/24 A2962 RMK T03200240 IEM_DS3505
ZGNN,2001-08-25 08:00,ZGNN 250800Z AUTO 30008KT 7SM 33/23 A2959 RMK T03300230 IEM_DS3505
ZGNN,2001-08-25 09:00,ZGNN 250900Z AUTO 36008KT 12SM 30/26 A2959 RMK SLP024 T02990257 57007 IEM_DS3505
ZGNN,2001-08-25 10:00,ZGNN 251000Z AUTO 02014KT 7SM 29/23 A2959 RMK T02900230 IEM_DS3505
ZGNN,2001-08-25 11:00,ZGNN 251100Z AUTO 02008KT 7SM 28/24 A2959 RMK T02800240 IEM_DS3505
ZGNN,2001-08-25 12:00,ZGNN 251200Z AUTO 34002KT 12SM 27/25 A2962 RMK 60003 SLP030 T02700253 52005 IEM_DS3505
ZGNN,2001-08-25 13:00,ZGNN 251300Z AUTO 32002KT 7SM 27/24 A2962 RMK T02700240 IEM_DS3505
ZGNN,2001-08-25 14:00,ZGNN 251400Z AUTO 32004KT 7SM 27/23 A2965 RMK T02700230 IEM_DS3505
ZGNN,2001-08-25 15:00,ZGNN 251500Z AUTO 32006KT 12SM 26/24 A2965 RMK SLP041 T02620236 52012 IEM_DS3505
ZGNN,2001-08-25 16:00,ZGNN 251600Z AUTO 7SM 27/23 A2968 RMK T02700230 IEM_DS3505
ZGNN,2001-08-25 17:00,ZGNN 251700Z AUTO 7SM 27/22 A2968 RMK T02700220 IEM_DS3505
ZGNN,2001-08-25 18:00,ZGNN 251800Z AUTO 00000KT 11SM 26/24 A2965 RMK 60003 SLP044 T02610235 52003 IEM_DS3505
ZGNN,2001-08-25 19:00,ZGNN 251900Z AUTO 5SM 26/23 A2965 RMK T02600230 IEM_DS3505
ZGNN,2001-08-25 20:00,ZGNN 252000Z AUTO 36006KT 7SM 26/22 A2965 RMK T02600220 IEM_DS3505
ZGNN,2001-08-25 21:00,ZGNN 252100Z AUTO 04002KT 9SM 25/23 A2965 RMK 70003 SLP039 T02530231 57006 IEM_DS3505
ZGNN,2001-08-25 22:00,ZGNN 252200Z AUTO 36004KT 7SM 25/22 A2965 RMK T02500220 IEM_DS3505
ZGNN,2001-08-25 23:00,ZGNN 252300Z AUTO 6SM 26/23 A2965 RMK T02600230 IEM_DS3505
ZGNN,2001-08-26 00:00,ZGNN 260000Z AUTO 00000KT 4SM 26/24 A2968 RMK 70003 SLP047 T02590236 52008 IEM_DS3505
ZGNN,2001-08-26 01:00,ZGNN 260100Z AUTO 7SM 27/23 A2968 RMK T02700230 IEM_DS3505
ZGNN,2001-08-26 02:00,ZGNN 260200Z AUTO 7SM 29/23 A2968 RMK T02900230 IEM_DS3505
ZGNN,2001-08-26 03:00,ZGNN 260300Z AUTO 00000KT 6SM 30/24 A2968 RMK SLP048 T03030241 52002 IEM_DS3505
ZGNN,2001-08-26 04:00,ZGNN 260400Z AUTO 36006KT 7SM 30/23 A2968 RMK T03000230 IEM_DS3505
ZGNN,2001-08-26 05:00,ZGNN 260500Z AUTO 01006KT 7SM 30/23 A2965 RMK T03000230 IEM_DS3505
ZGNN,2001-08-26 06:00,ZGNN 260600Z AUTO 36006KT 9SM 32/24 A2962 RMK SLP032 T03190243 57016 IEM_DS3505
ZGNN,2001-08-26 07:00,ZGNN 260700Z AUTO 33008KT 7SM 31/24 A2962 RMK T03100240 IEM_DS3505
ZGNN,2001-08-26 08:00,ZGNN 260800Z AUTO 34010KT 7SM 31/23 A2959 RMK T03100230 IEM_DS3505
ZGNN,2001-08-26 09:00,ZGNN 260900Z AUTO 34008KT 9SM 30/25 A2959 RMK SLP020 T02980250 57012 IEM_DS3505
ZGNN,2001-08-26 10:00,ZGNN 261000Z AUTO 33008KT 7SM 29/24 A2959 RMK T02900240 IEM_DS3505
ZGNN,2001-08-26 11:00,ZGNN 261100Z AUTO 10008KT 7SM 27/24 A2965 RMK T02700240 IEM_DS3505
ZGNN,2001-08-26 12:00,ZGNN 261200Z AUTO 29006KT 4SM 24/23 A2965 RMK 60091 SLP047 T02380228 52025 IEM_DS3505
ZGNN,2001-08-26 13:00,ZGNN 261300Z AUTO 10002KT 7SM 24/22 A2968 RMK T02400220 IEM_DS3505
ZGNN,2001-08-26 14:00,ZGNN 261400Z AUTO 7SM 24/23 A2968 RMK T02400230 IEM_DS3505
ZGNN,2001-08-26 15:00,ZGNN 261500Z AUTO 00000KT 7SM 25/24 A2968 RMK SLP052 T02460243 52006 IEM_DS3505
ZGNN,2001-08-26 16:00,ZGNN 261600Z AUTO 20002KT 7SM 24/23 A2968 RMK T02400230 IEM_DS3505
ZGNN,2001-08-26 17:00,ZGNN 261700Z AUTO 7SM 25/23 A2968 RMK T02500230 IEM_DS3505
ZGNN,2001-08-26 18:00,ZGNN 261800Z AUTO 00000KT 7SM 25/24 A2968 RMK 60002 SLP044 T02480244 57007 IEM_DS3505
ZGNN,2001-08-26 19:00,ZGNN 261900Z AUTO 3SM 25/24 A2965 RMK T02500240 IEM_DS3505
ZGNN,2001-08-26 20:00,ZGNN 262000Z AUTO 13004KT 2SM 25/24 A2965 RMK T02500240 IEM_DS3505
ZGNN,2001-08-26 21:00,ZGNN 262100Z AUTO 00000KT 6SM 25/24 A2965 RMK 70090 SLP041 T02530242 57004 IEM_DS3505
ZGNN,2001-08-26 22:00,ZGNN 262200Z AUTO 21002KT 2 1/2SM 25/24 A2965 RMK T02500240 IEM_DS3505
ZGNN,2001-08-26 23:00,ZGNN 262300Z AUTO 33002KT 4SM 25/22 A2965 RMK T02500220 IEM_DS3505
ZGNN,2001-08-27 00:00,ZGNN 270000Z AUTO 00000KT 6SM 26/24 A2968 RMK 70090 SLP048 T02570235 52006 IEM_DS3505
ZGNN,2001-08-27 01:00,ZGNN 270100Z AUTO 35004KT 5SM 27/22 A2968 RMK T02700220 IEM_DS3505
ZGNN,2001-08-27 02:00,ZGNN 270200Z AUTO 34006KT 7SM 27/22 A2968 RMK T02700220 IEM_DS3505
ZGNN,2001-08-27 03:00,ZGNN 270300Z AUTO 34008KT 9SM 29/22 A2968 RMK SLP049 T02920225 52002 IEM_DS3505
ZGNN,2001-08-27 04:00,ZGNN 270400Z AUTO 34008KT 7SM 29/22 A2968 RMK T02900220 IEM_DS3505
ZGNN,2001-08-27 05:00,ZGNN 270500Z AUTO 34008KT 7SM 29/22 A2968 RMK T02900220 IEM_DS3505
ZGNN,2001-08-27 06:00,ZGNN 270600Z AUTO 34010KT 12SM 30/23 A2965 RMK SLP038 T03000234 57011 IEM_DS3505
ZGNN,2001-08-27 07:00,ZGNN 270700Z AUTO 34008KT 7SM 30/22 A2962 RMK T03000220 IEM_DS3505
ZGNN,2001-08-27 08:00,ZGNN 270800Z AUTO 34008KT 7SM 30/22 A2959 RMK T03000220 IEM_DS3505
ZGNN,2001-08-27 09:00,ZGNN 270900Z AUTO 34008KT 8SM 30/23 A2959 RMK SLP017 T03000228 57020 IEM_DS3505
ZGNN,2001-08-27 10:00,ZGNN 271000Z AUTO 36006KT 7SM 29/23 A2959 RMK T02900230 IEM_DS3505
ZGNN,2001-08-27 11:00,ZGNN 271100Z AUTO 35004KT 7SM 28/23 A2962 RMK T02800230 IEM_DS3505
ZGNN,2001-08-27 12:00,ZGNN 271200Z AUTO 00000KT 8SM 28/23 A2962 RMK SLP033 T02800226 52015 IEM_DS3505
ZGNN,2001-08-27 13:00,ZGNN 271300Z AUTO 01004KT 7SM 28/22 A2965 RMK T02800220 IEM_DS3505
ZGNN,2001-08-27 14:00,ZGNN 271400Z AUTO 01006KT 7SM 27/21 A2965 RMK T02700210 IEM_DS3505
ZGNN,2001-08-27 15:00,ZGNN 271500Z AUTO 36004KT 8SM 27/22 A2968 RMK SLP045 T02730223 52013 IEM_DS3505
ZGNN,2001-08-27 16:00,ZGNN 271600Z AUTO 35004KT 5SM 27/22 A2968 RMK T02700220 IEM_DS3505
ZGNN,2001-08-27 17:00,ZGNN 271700Z AUTO 6SM 26/22 A2965 RMK T02600220 IEM_DS3505
ZGNN,2001-08-27 18:00,ZGNN 271800Z AUTO 34004KT 7SM 26/23 A2965 RMK SLP037 T02610229 57008 IEM_DS3505
ZGNN,2001-08-27 19:00,ZGNN 271900Z AUTO 35004KT 4SM 26/22 A2965 RMK T02600220 IEM_DS3505
ZGNN,2001-08-27 20:00,ZGNN 272000Z AUTO 34004KT 4SM 26/22 A2962 RMK T02600220 IEM_DS3505
ZGNN,2001-08-27 21:00,ZGNN 272100Z AUTO 34004KT 7SM 26/22 A2962 RMK SLP028 T02640220 57009 IEM_DS3505
ZGNN,2001-08-27 22:00,ZGNN 272200Z AUTO 34004KT 7SM 26/22 A2962 RMK T02600220 IEM_DS3505
ZGNN,2001-08-27 23:00,ZGNN 272300Z AUTO 35004KT 7SM 26/21 A2962 RMK T02600210 IEM_DS3505
ZGNN,2001-08-28 00:00,ZGNN 280000Z AUTO 32004KT 7SM 27/22 A2962 RMK SLP034 T02660222 52005 IEM_DS3505
ZGNN,2001-08-28 01:00,ZGNN 280100Z AUTO 35004KT 7SM 27/22 A2965 RMK T02700220 IEM_DS3505
ZGNN,2001-08-28 02:00,ZGNN 280200Z AUTO 35006KT 6SM 29/21 A2965 RMK T02900210 IEM_DS3505
ZGNN,2001-08-28 03:00,ZGNN 280300Z AUTO 34006KT 9SM 30/23 A2965 RMK SLP038 T02960227 52005 IEM_DS3505
ZGNN,2001-08-28 04:00,ZGNN 280400Z AUTO 34006KT 7SM 30/22 A2965 RMK T03000220 IEM_DS3505
ZGNN,2001-08-28 05:00,ZGNN 280500Z AUTO 34006KT 7SM 30/21 A2962 RMK T03000210 IEM_DS3505
ZGNN,2001-08-28 06:00,ZGNN 280600Z AUTO 29008KT 9SM 31/22 A2959 RMK SLP020 T03140221 57018 IEM_DS3505
ZGNN,2001-08-28 07:00,ZGNN 280700Z AUTO 32008KT 7SM 32/22 A2959 RMK T03200220 IEM_DS3505
ZGNN,2001-08-28 08:00,ZGNN 280800Z AUTO 33006KT 7SM 31/22 A2956 RMK T03100220 IEM_DS3505
ZGNN,2001-08-28 09:00,ZGNN 280900Z AUTO 32008KT 6SM 31/23 A2956 RMK SLP005 T03100230 57015 IEM_DS3505
ZGNN,2001-08-28 10:00,ZGNN 281000Z AUTO 33006KT 6SM 31/22 A2953 RMK T03100220 IEM_DS3505
ZGNN,2001-08-28 11:00,ZGNN 281100Z AUTO 31006KT 6SM 30/22 A2956 RMK T03000220 IEM_DS3505
ZGNN,2001-08-28 12:00,ZGNN 281200Z AUTO 34006KT 8SM 29/23 A2956 RMK SLP012 T02900229 52007 IEM_DS3505
ZGNN,2001-08-28 13:00,ZGNN 281300Z AUTO 33006KT 6SM 28/22 A2959 RMK T02800220 IEM_DS3505
ZGNN,2001-08-28 14:00,ZGNN 281400Z AUTO 34004KT 6SM 28/22 A2959 RMK T02800220 IEM_DS3505
ZGNN,2001-08-28 15:00,ZGNN 281500Z AUTO 34004KT 7SM 27/23 A2962 RMK SLP028 T02700234 52016 IEM_DS3505
ZGNN,2001-08-28 16:00,ZGNN 281600Z AUTO 34006KT 5SM 28/22 A2962 RMK T02800220 IEM_DS3505
ZGNN,2001-08-28 17:00,ZGNN 281700Z AUTO 33008KT 5SM 28/21 A2959 RMK T02800210 IEM_DS3505
ZGNN,2001-08-28 18:00,ZGNN 281800Z AUTO 32006KT 7SM 27/22 A2959 RMK 60003 SLP018 T02700223 57010 IEM_DS3505
ZGNN,2001-08-28 19:00,ZGNN 281900Z AUTO 34004KT 5SM 27/21 A2956 RMK T02700210 IEM_DS3505
ZGNN,2001-08-28 20:00,ZGNN 282000Z AUTO 4SM 26/22 A2956 RMK T02600220 IEM_DS3505
ZGNN,2001-08-28 21:00,ZGNN 282100Z AUTO 34004KT 7SM 26/22 RMK 70003 SLP009 T02650221 57009 IEM_DS3505
ZGNN,2001-08-28 22:00,ZGNN 282200Z AUTO 35004KT 7SM 27/21 A2956 RMK T02700210 IEM_DS3505
ZGNN,2001-08-28 23:00,ZGNN 282300Z AUTO 36004KT 27/21 A2959 RMK T02700210 IEM_DS3505
ZGNN,2001-08-29 00:00,ZGNN 290000Z AUTO 34008KT 7SM 26/22 A2959 RMK 70003 SLP018 T02650223 52009 IEM_DS3505
ZGNN,2001-08-29 01:00,ZGNN 290100Z AUTO 35006KT 6SM 27/22 A2959 RMK T02700220 IEM_DS3505
ZGNN,2001-08-29 02:00,ZGNN 290200Z AUTO 34008KT 6SM 29/22 A2962 RMK T02900220 IEM_DS3505
ZGNN,2001-08-29 03:00,ZGNN 290300Z AUTO 02008KT 7SM 30/23 A2962 RMK SLP023 T02950227 52005 IEM_DS3505
ZGNN,2001-08-29 04:00,ZGNN 290400Z AUTO 36008KT 7SM 30/21 A2959 RMK T03000210 IEM_DS3505
ZGNN,2001-08-29 05:00,ZGNN 290500Z AUTO 35008G17KT 7SM 31/22 A2959 RMK T03100220 IEM_DS3505
ZGNN,2001-08-29 06:00,ZGNN 290600Z AUTO 32006KT 9SM 31/22 A2956 RMK SLP003 T03080224 57019 IEM_DS3505
ZGNN,2001-08-29 07:00,ZGNN 290700Z AUTO 32012KT 7SM 31/22 A2953 RMK T03100220 IEM_DS3505
ZGNN,2001-08-29 08:00,ZGNN 290800Z AUTO 34008KT 6SM 32/22 A2953 RMK T03200220 IEM_DS3505
ZGNN,2001-08-29 09:00,ZGNN 290900Z AUTO 34010KT 8SM 31/23 A2950 RMK SLP986 T03140226 57017 IEM_DS3505
ZGNN,2001-08-29 10:00,ZGNN 291000Z AUTO 35008KT 7SM 31/22 A2950 RMK T03100220 IEM_DS3505
ZGNN,2001-08-29 11:00,ZGNN 291100Z AUTO 35008KT 7SM 30/22 A2950 RMK T03000220 IEM_DS3505
ZGNN,2001-08-29 12:00,ZGNN 291200Z AUTO 34004KT 8SM 29/23 A2950 RMK SLP993 T02890228 52006 IEM_DS3505
ZGNN,2001-08-29 13:00,ZGNN 291300Z AUTO 35004KT 6SM 29/22 A2953 RMK T02900220 IEM_DS3505
ZGNN,2001-08-29 14:00,ZGNN 291400Z AUTO 35004KT 6SM 28/22 A2953 RMK T02800220 IEM_DS3505
ZGNN,2001-08-29 15:00,ZGNN 291500Z AUTO 34004KT 7SM 28/23 A2956 RMK SLP009 T02750226 52016 IEM_DS3505
ZGNN,2001-08-29 16:00,ZGNN 291600Z AUTO 34006KT 7SM 28/21 A2956 RMK T02800210 IEM_DS3505
ZGNN,2001-08-29 17:00,ZGNN 291700Z AUTO 35006KT 7SM 28/21 A2953 RMK T02800210 IEM_DS3505
ZGNN,2001-08-29 18:00,ZGNN 291800Z AUTO 34006KT 7SM 28/22 RMK SLP002 T02800222 57006 IEM_DS3505
ZGNN,2001-08-29 19:00,ZGNN 291900Z AUTO 36006KT 7SM 28/22 A2953 RMK T02800220 IEM_DS3505
ZGNN,2001-08-29 20:00,ZGNN 292000Z AUTO 36008KT 7SM 28/22 A2953 RMK T02800220 IEM_DS3505
ZGNN,2001-08-29 21:00,ZGNN 292100Z AUTO 36006KT 7SM 27/22 A2950 RMK 70003 SLP993 T02670225 57009 IEM_DS3505
ZGNN,2001-08-29 22:00,ZGNN 292200Z AUTO 35008KT 5SM 26/22 A2950 RMK T02600220 IEM_DS3505
ZGNN,2001-08-29 23:00,ZGNN 292300Z AUTO 35006KT 7SM 26/22 A2953 RMK T02600220 IEM_DS3505
ZGNN,2001-08-30 00:00,ZGNN 300000Z AUTO 34006KT 3SM 25/24 A2956 RMK 60000 SLP006 T02510235 52012 IEM_DS3505
ZGNN,2001-08-30 01:00,ZGNN 300100Z AUTO 35006KT 4SM 26/23 A2956 RMK T02600230 IEM_DS3505
ZGNN,2001-08-30 02:00,ZGNN 300200Z AUTO 35008KT 5SM 27/23 A2956 RMK T02700230 IEM_DS3505
ZGNN,2001-08-30 03:00,ZGNN 300300Z AUTO 36006KT 3SM 28/24 A2956 RMK SLP014 T02780235 52008 IEM_DS3505
ZGNN,2001-08-30 04:00,ZGNN 300400Z AUTO 35012KT 7SM 29/22 A2956 RMK T02900220 IEM_DS3505
ZGNN,2001-08-30 05:00,ZGNN 300500Z AUTO 35008KT 7SM 29/22 A2953 RMK T02900220 IEM_DS3505
ZGNN,2001-08-30 06:00,ZGNN 300600Z AUTO 34008KT 5SM 29/23 A2953 RMK 60000 SLP996 T02890233 57018 IEM_DS3505
ZGNN,2001-08-30 07:00,ZGNN 300700Z AUTO 34008KT 7SM 29/22 A2950 RMK T02900220 IEM_DS3505
ZGNN,2001-08-30 08:00,ZGNN 300800Z AUTO 35010KT 7SM 29/23 A2947 RMK T02900230 IEM_DS3505
ZGNN,2001-08-30 09:00,ZGNN 300900Z AUTO 36008KT 6SM 29/23 A2947 RMK SLP983 T02900233 57013 IEM_DS3505
ZGNN,2001-08-30 10:00,ZGNN 301000Z AUTO 02008KT 4SM 27/23 A2950 RMK T02700230 IEM_DS3505
ZGNN,2001-08-30 11:00,ZGNN 301100Z AUTO 36006KT 4SM 27/23 A2950 RMK T02700230 IEM_DS3505
ZGNN,2001-08-30 12:00,ZGNN 301200Z AUTO 34004KT 4SM 26/24 A2950 RMK 60008 SLP998 T02580241 52014 IEM_DS3505
ZGNN,2001-08-30 13:00,ZGNN 301300Z AUTO 36006KT 4SM 27/23 A2953 RMK T02700230 IEM_DS3505
ZGNN,2001-08-30 14:00,ZGNN 301400Z AUTO 01008KT 2 1/2SM 26/23 A2956 RMK T02600230 IEM_DS3505
ZGNN,2001-08-30 15:00,ZGNN 301500Z AUTO 36004KT 3SM 25/24 A2959 RMK SLP021 T02490239 52023 IEM_DS3505
ZGNN,2001-08-30 16:00,ZGNN 301600Z AUTO 35006KT 3SM 25/23 A2956 RMK T02500230 IEM_DS3505
ZGNN,2001-08-30 17:00,ZGNN 301700Z AUTO 34010KT 4SM 25/23 A2953 RMK T02500230 IEM_DS3505
ZGNN,2001-08-30 18:00,ZGNN 301800Z AUTO 34010KT 7SM 25/23 A2953 RMK 60035 SLP003 T02510234 57017 IEM_DS3505
ZGNN,2001-08-30 19:00,ZGNN 301900Z AUTO 34008KT 5SM 25/22 A2953 RMK T02500220 IEM_DS3505
ZGNN,2001-08-30 20:00,ZGNN 302000Z AUTO 34010KT 4SM 24/22 A2950 RMK T02400220 IEM_DS3505
ZGNN,2001-08-30 21:00,ZGNN 302100Z AUTO 34006KT 4SM 24/23 A2950 RMK 70051 SLP990 T02400227 57013 IEM_DS3505
ZGNN,2001-08-30 22:00,ZGNN 302200Z AUTO 34008KT 2 1/2SM 24/22 A2950 RMK T02400220 IEM_DS3505
ZGNN,2001-08-30 23:00,ZGNN 302300Z AUTO 35008KT 3SM 24/22 A2950 RMK T02400220 IEM_DS3505
ZGNN,2001-08-31 00:00,ZGNN 310000Z AUTO 34010KT 4SM 24/23 A2953 RMK 60028 SLP000 T02360227 52009 IEM_DS3505
ZGNN,2001-08-31 01:00,ZGNN 310100Z AUTO 34012G23KT 4SM 24/22 A2953 RMK T02400220 IEM_DS3505
ZGNN,2001-08-31 02:00,ZGNN 310200Z AUTO 34012KT 2 1/2SM 24/22 A2953 RMK T02400220 IEM_DS3505
ZGNN,2001-08-31 03:00,ZGNN 310300Z AUTO 36016G21KT 4SM 24/23 A2953 RMK SLP006 T02370233 52005 IEM_DS3505
ZGNN,2001-08-31 04:00,ZGNN 310400Z AUTO 33017G27KT 2 1/2SM 24/22 A2950 RMK T02400220 IEM_DS3505
ZGNN,2001-08-31 05:00,ZGNN 310500Z AUTO 34014G27KT 2 1/2SM 24/22 A2950 RMK T02400220 IEM_DS3505
ZGNN,2001-08-31 06:00,ZGNN 310600Z AUTO 34016G25KT 3SM 24/23 A2947 RMK 60051 SLP986 T02410231 57019 IEM_DS3505
ZGNN,2001-08-31 07:00,ZGNN 310700Z AUTO 34016KT 3SM 24/23 A2947 RMK SLP981 T02410229 57018 IEM_DS3505
ZGNN,2001-08-31 08:00,ZGNN 310800Z AUTO 36017G25KT 3SM 24/23 A2947 RMK SLP981 T02410229 57011 IEM_DS3505
ZGNN,2001-08-31 09:00,ZGNN 310900Z AUTO 34014KT 3SM 24/23 A2947 RMK SLP984 T02420227 57002 IEM_DS3505
ZGNN,2001-08-31 10:00,ZGNN 311000Z AUTO 34014KT 2 1/2SM 23/22 A2947 RMK T02300220 IEM_DS3505
ZGNN,2001-08-31 11:00,ZGNN 311100Z AUTO 14004KT 2SM 23/22 A2950 RMK SLP996 T02320225 52014 IEM_DS3505
ZGNN,2001-08-31 12:00,ZGNN 311200Z AUTO 36006KT 2SM 23/22 RMK 60083 SLP007 T02310224 52022 IEM_DS3505
ZGNN,2001-08-31 13:00,ZGNN 311300Z AUTO 36008KT 2 1/2SM 23/23 RMK SLP013 T02320226 52028 IEM_DS3505
ZGNN,2001-08-31 14:00,ZGNN 311400Z AUTO 35008KT 3SM 23/22 A2959 RMK T02300220 IEM_DS3505
ZGNN,2001-08-31 15:00,ZGNN 311500Z AUTO 36010KT 5SM 23/22 A2959 RMK SLP023 T02330224 52016 IEM_DS3505
ZGNN,2001-08-31 16:00,ZGNN 311600Z AUTO 36012KT 4SM 23/22 A2959 RMK SLP022 T02320223 52009 IEM_DS3505
ZGNN,2001-08-31 17:00,ZGNN 311700Z AUTO 36010KT 4SM 23/22 A2959 RMK SLP019 T02330221 57002 IEM_DS3505
ZGNN,2001-08-31 18:00,ZGNN 311800Z AUTO 36012KT 4SM 23/22 A2959 RMK 60020 SLP018 T02300223 57005 IEM_DS3505
ZGNN,2001-08-31 19:00,ZGNN 311900Z AUTO 34008KT 3SM 23/22 A2956 RMK SLP014 T02290223 57008 IEM_DS3505
ZGNN,2001-08-31 20:00,ZGNN 312000Z AUTO 34010G19KT 3SM 23/22 A2956 RMK SLP015 T02300221 57004 IEM_DS3505
ZGNN,2001-08-31 21:00,ZGNN 312100Z AUTO 34008KT 3SM 23/22 A2956 RMK 70178 SLP012 T02290220 57006 IEM_DS3505
ZGNN,2001-08-31 22:00,ZGNN 312200Z AUTO 34008KT 3SM 23/22 A2959 RMK SLP018 T02280219 52004 IEM_DS3505
ZGNN,2001-08-31 23:00,ZGNN 312300Z AUTO 32010KT 3SM 22/22 A2959 RMK SLP024 T02240220 52008 IEM_DS3505
ZGNN,2001-09-01 00:00,ZGNN 010000Z AUTO 34008KT 4SM 22/22 A2962 RMK 60051 SLP030 T02240221 52017 IEM_DS3505
ZGNN,2001-09-01 01:00,ZGNN 010100Z AUTO 32008KT 3SM 23/22 A2965 RMK SLP039 T02260223 52020 IEM_DS3505
ZGNN,2001-09-01 02:00,ZGNN 010200Z AUTO 33008KT 2 1/2SM 23/21 A2965 RMK T02300210 IEM_DS3505
ZGNN,2001-09-01 03:00,ZGNN 010300Z AUTO 34008KT 3SM 23/22 RMK SLP043 T02290225 52013 IEM_DS3505
ZGNN,2001-09-01 04:00,ZGNN 010400Z AUTO 32008KT 3SM 23/22 A2965 RMK T02300220 IEM_DS3505
ZGNN,2001-09-01 05:00,ZGNN 010500Z AUTO 32006KT 1 1/2SM 24/22 A2965 RMK T02400220 IEM_DS3505
ZGNN,2001-09-01 06:00,ZGNN 010600Z AUTO 32008KT 5SM 23/23 RMK 60079 SLP033 T02330227 57010 IEM_DS3505
ZGNN,2001-09-01 07:00,ZGNN 010700Z AUTO 31008KT 1 1/2SM 23/22 A2962 RMK T02300220 IEM_DS3505
ZGNN,2001-09-01 08:00,ZGNN 010800Z AUTO 31008KT 4SM 23/22 A2959 RMK T02300220 IEM_DS3505
ZGNN,2001-09-01 09:00,ZGNN 010900Z AUTO 32006KT 4SM 24/23 A2959 RMK SLP024 T02360227 57008 IEM_DS3505
ZGNN,2001-09-01 10:00,ZGNN 011000Z AUTO 32006KT 2SM 23/22 A2959 RMK T02300220 IEM_DS3505
ZGNN,2001-09-01 11:00,ZGNN 011100Z AUTO 33010KT 5SM 23/22 A2962 RMK T02300220 IEM_DS3505
ZGNN,2001-09-01 12:00,ZGNN 011200Z AUTO 32004KT 5SM 23/22 A2962 RMK 60063 SLP035 T02340225 52010 IEM_DS3505
ZGNN,2001-09-01 13:00,ZGNN 011300Z AUTO 32008KT 7SM 23/21 A2965 RMK T02300210 IEM_DS3505
ZGNN,2001-09-01 14:00,ZGNN 011400Z AUTO 33006KT 7SM 23/22 A2965 RMK T02300220 IEM_DS3505
ZGNN,2001-09-01 15:00,ZGNN 011500Z AUTO 33006KT 7SM 23/21 A2968 RMK T02300210 IEM_DS3505
ZGNN,2001-09-01 16:00,ZGNN 011600Z AUTO 32006KT 6SM 24/21 A2965 RMK T02400210 IEM_DS3505
ZGNN,2001-09-01 17:00,ZGNN 011700Z AUTO 33004KT 5SM 24/21 A2965 RMK T02400210 IEM_DS3505
ZGNN,2001-09-01 18:00,ZGNN 011800Z AUTO 34008KT 6SM 24/22 A2965 RMK 60000 SLP040 T02350220 57009 IEM_DS3505
ZGNN,2001-09-01 19:00,ZGNN 011900Z AUTO 08002KT 2 1/2SM 23/21 A2965 RMK T02300210 IEM_DS3505
ZGNN,2001-09-01 20:00,ZGNN 012000Z AUTO 1SM 23/21 A2962 RMK T02300210 IEM_DS3505
ZGNN,2001-09-01 21:00,ZGNN 012100Z AUTO 02002KT 4SM 23/22 A2962 RMK 70199 SLP035 T02280219 57005 IEM_DS3505
ZGNN,2001-09-01 22:00,ZGNN 012200Z AUTO 36002KT 2SM 22/21 A2965 RMK T02200210 IEM_DS3505
ZGNN,2001-09-01 23:00,ZGNN 012300Z AUTO 34004KT 2SM 23/21 A2965 RMK T02300210 IEM_DS3505
ZGNN,2001-09-02 00:00,ZGNN 020000Z AUTO 34006KT 2 1/2SM 22/22 A2968 RMK 60020 SLP049 T02240215 52014 IEM_DS3505
ZGNN,2001-09-02 01:00,ZGNN 020100Z AUTO 33004KT 4SM 23/21 A2968 RMK T02300210 IEM_DS3505
ZGNN,2001-09-02 02:00,ZGNN 020200Z AUTO 33006KT 4SM 23/21 A2971 RMK T02300210 IEM_DS3505
ZGNN,2001-09-02 03:00,ZGNN 020300Z AUTO 34008KT 6SM 23/22 A2971 RMK SLP061 T02340215 52012 IEM_DS3505
ZGNN,2001-09-02 04:00,ZGNN 020400Z AUTO 33006KT 6SM 24/21 A2971 RMK T02400210 IEM_DS3505
ZGNN,2001-09-02 06:00,ZGNN 020600Z AUTO 34008KT 6SM 25/22 A2968 RMK 60002 SLP049 T02520221 57011 IEM_DS3505
ZGNN,2001-09-02 07:00,ZGNN 020700Z AUTO 34006G16KT 7SM 25/21 A2968 RMK T02500210 IEM_DS3505
ZGNN,2001-09-02 08:00,ZGNN 020800Z AUTO 35006KT 7SM 25/21 A2965 RMK T02500210 IEM_DS3505
ZGNN,2001-09-02 09:00,ZGNN 020900Z AUTO 02006KT 9SM 26/21 A2965 RMK SLP041 T02550213 57008 IEM_DS3505
ZGNN,2001-09-02 10:00,ZGNN 021000Z AUTO 35004KT 7SM 25/21 A2965 RMK T02500210 IEM_DS3505
ZGNN,2001-09-02 11:00,ZGNN 021100Z AUTO 7SM 24/21 A2968 RMK T02400210 IEM_DS3505
ZGNN,2001-09-02 12:00,ZGNN 021200Z AUTO 00000KT 5SM 24/23 A2968 RMK 60000 SLP057 T02350226 52015 IEM_DS3505
ZGNN,2001-09-02 13:00,ZGNN 021300Z AUTO 4SM 23/21 A2971 RMK T02300210 IEM_DS3505
ZGNN,2001-09-02 14:00,ZGNN 021400Z AUTO 3SM 23/21 A2971 RMK T02300210 IEM_DS3505
ZGNN,2001-09-02 15:00,ZGNN 021500Z AUTO 32002KT 4SM 24/22 A2974 RMK SLP069 T02350223 52012 IEM_DS3505
ZGNN,2001-09-02 16:00,ZGNN 021600Z AUTO 2 1/2SM 23/22 A2974 RMK T02300220 IEM_DS3505
ZGNN,2001-09-02 17:00,ZGNN 021700Z AUTO 4SM 24/21 A2971 RMK T02400210 IEM_DS3505
ZGNN,2001-09-02 18:00,ZGNN 021800Z AUTO 34006KT 7SM 24/22 A2971 RMK 60002 SLP058 T02380219 57010 IEM_DS3505
ZGNN,2001-09-02 19:00,ZGNN 021900Z AUTO 33008KT 4SM 24/21 A2968 RMK T02400210 IEM_DS3505
ZGNN,2001-09-02 20:00,ZGNN 022000Z AUTO 34006KT 4SM 24/21 A2968 RMK T02400210 IEM_DS3505
ZGNN,2001-09-02 21:00,ZGNN 022100Z AUTO 34006KT 7SM 24/22 RMK 70017 SLP055 T02360215 57003 IEM_DS3505
ZGNN,2001-09-02 22:00,ZGNN 022200Z AUTO 34004KT 7SM 24/21 A2968 RMK T02400210 IEM_DS3505
ZGNN,2001-09-02 23:00,ZGNN 022300Z AUTO 34006KT 7SM 24/20 A2971 RMK T02400200 IEM_DS3505
ZGNN,2001-09-03 00:00,ZGNN 030000Z AUTO 34010KT 5SM 24/22 A2971 RMK 70006 SLP066 T02390215 52010 IEM_DS3505
ZGNN,2001-09-03 01:00,ZGNN 030100Z AUTO 34006KT 7SM 25/21 A2974 RMK T02500210 IEM_DS3505
ZGNN,2001-09-03 02:00,ZGNN 030200Z AUTO 34008KT 7SM 26/21 A2974 RMK T02600210 IEM_DS3505
ZGNN,2001-09-03 03:00,ZGNN 030300Z AUTO 34008KT 6SM 26/22 A2974 RMK SLP073 T02630223 52008 IEM_DS3505
ZGNN,2001-09-03 04:00,ZGNN 030400Z AUTO 35008KT 5SM 27/22 A2974 RMK T02700220 IEM_DS3505
ZGNN,2001-09-03 05:00,ZGNN 030500Z AUTO 36006KT 7SM 27/21 A2974 RMK T02700210 IEM_DS3505
ZGNN,2001-09-03 06:00,ZGNN 030600Z AUTO 36002KT 6SM 27/23 A2974 RMK 60003 SLP067 T02680230 57006 IEM_DS3505
ZGNN,2001-09-03 07:00,ZGNN 030700Z AUTO 03008KT 3SM 26/21 A2971 RMK T02600210 IEM_DS3505
ZGNN,2001-09-03 08:00,ZGNN 030800Z AUTO 05006KT 1SM 23/22 A2971 RMK T02300220 IEM_DS3505
ZGNN,2001-09-03 09:00,ZGNN 030900Z AUTO 36006KT 2 1/2SM 24/22 A2971 RMK SLP062 T02430225 57006 IEM_DS3505
ZGNN,2001-09-03 10:00,ZGNN 031000Z AUTO 36008KT 6SM 24/22 A2971 RMK T02400220 IEM_DS3505
ZGNN,2001-09-03 11:00,ZGNN 031100Z AUTO 35008KT 5SM 24/22 A2971 RMK T02400220 IEM_DS3505
ZGNN,2001-09-03 12:00,ZGNN 031200Z AUTO 36006KT 4SM 24/22 A2974 RMK 60004 SLP069 T02390223 52007 IEM_DS3505
ZGNN,2001-09-03 13:00,ZGNN 031300Z AUTO 35006KT 4SM 24/22 A2974 RMK T02400220 IEM_DS3505
ZGNN,2001-09-03 14:00,ZGNN 031400Z AUTO 35006KT 7SM 24/22 A2977 RMK T02400220 IEM_DS3505
ZGNN,2001-09-03 15:00,ZGNN 031500Z AUTO 36006KT 6SM 24/22 A2977 RMK SLP082 T02400225 52014 IEM_DS3505
ZGNN,2001-09-03 16:00,ZGNN 031600Z AUTO 35006KT 4SM 24/22 A2977 RMK T02400220 IEM_DS3505
ZGNN,2001-09-03 18:00,ZGNN 031800Z AUTO 34006KT 6SM 24/22 A2974 RMK 60004 SLP069 T02410222 57013 IEM_DS3505
ZGNN,2001-09-03 19:00,ZGNN 031900Z AUTO 35008KT 7SM 24/21 A2971 RMK T02400210 IEM_DS3505
ZGNN,2001-09-03 21:00,ZGNN 032100Z AUTO 36006KT 12SM 24/21 A2971 RMK 70008 SLP056 T02420214 57013 IEM_DS3505
ZGNN,2001-09-03 23:00,ZGNN 032300Z AUTO 02004KT 3SM 23/21 A2971 RMK T02300210 IEM_DS3505
ZGNN,2001-09-04 00:00,ZGNN 040000Z AUTO 36008KT 2 1/2SM 24/22 A2971 RMK 60002 SLP065 T02350220 52008 IEM_DS3505
ZGNN,2001-09-04 01:00,ZGNN 040100Z AUTO 35008KT 5SM 24/21 A2974 RMK T02400210 IEM_DS3505
ZGNN,2001-09-04 02:00,ZGNN 040200Z AUTO 35008KT 3SM 24/22 A2974 RMK T02400220 IEM_DS3505
ZGNN,2001-09-04 03:00,ZGNN 040300Z AUTO 36008KT 4SM 24/22 A2974 RMK SLP069 T02410225 52004 IEM_DS3505
ZGNN,2001-09-04 04:00,ZGNN 040400Z AUTO 36008KT 2 1/2SM 24/22 A2974 RMK T02400220 IEM_DS3505
ZGNN,2001-09-04 05:00,ZGNN 040500Z AUTO 01010KT 2 1/2SM 24/22 A2971 RMK T02400220 IEM_DS3505
ZGNN,2001-09-04 06:00,ZGNN 040600Z AUTO 36008KT 4SM 24/23 A2968 RMK 60024 SLP055 T02420233 57013 IEM_DS3505
ZGNN,2001-09-04 07:00,ZGNN 040700Z AUTO 36010KT 2SM 24/22 A2968 RMK T02400220 IEM_DS3505
ZGNN,2001-09-04 08:00,ZGNN 040800Z AUTO 35010KT 3SM 25/23 A2965 RMK T02500230 IEM_DS3505
ZGNN,2001-09-04 09:00,ZGNN 040900Z AUTO 36010KT 6SM 25/23 A2965 RMK SLP041 T02500230 57014 IEM_DS3505
ZGNN,2001-09-04 10:00,ZGNN 041000Z AUTO 36008KT 7SM 25/22 A2965 RMK T02500220 IEM_DS3505
ZGNN,2001-09-04 11:00,ZGNN 041100Z AUTO 36008KT 7SM 25/22 A2968 RMK T02500220 IEM_DS3505
ZGNN,2001-09-04 12:00,ZGNN 041200Z AUTO 36008KT 9SM 25/23 A2968 RMK 60020 SLP051 T02460228 52010 IEM_DS3505
ZGNN,2001-09-04 13:00,ZGNN 041300Z AUTO 35008KT 4SM 24/22 A2968 RMK T02400220 IEM_DS3505
ZGNN,2001-09-04 14:00,ZGNN 041400Z AUTO 35010KT 3SM 24/22 A2971 RMK T02400220 IEM_DS3505
ZGNN,2001-09-04 15:00,ZGNN 041500Z AUTO 36010KT 8SM 24/22 A2971 RMK SLP062 T02450223 52011 IEM_DS3505
ZGNN,2001-09-04 17:00,ZGNN 041700Z AUTO 35008KT 3SM 24/21 A2971 RMK T02400210 IEM_DS3505
ZGNN,2001-09-04 18:00,ZGNN 041800Z AUTO 34006KT 3SM 24/22 A2971 RMK 60012 SLP058 T02380225 57005 IEM_DS3505
ZGNN,2001-09-04 19:00,ZGNN 041900Z AUTO 01006KT 2 1/2SM 23/22 A2968 RMK T02300220 IEM_DS3505
ZGNN,2001-09-04 21:00,ZGNN 042100Z AUTO 07004KT 6SM 24/22 A2968 RMK 70064 SLP045 T02370224 57012 IEM_DS3505
ZGNN,2001-09-04 22:00,ZGNN 042200Z AUTO 01004KT 2 1/2SM 24/21 A2968 RMK T02400210 IEM_DS3505
ZGNN,2001-09-05 00:00,ZGNN 050000Z AUTO 04004KT 4SM 24/22 RMK 60008 SLP060 T02400219 52015 IEM_DS3505
ZGNN,2001-09-05 01:00,ZGNN 050100Z AUTO 36006KT 3SM 25/22 A2971 RMK T02500220 IEM_DS3505
ZGNN,2001-09-05 02:00,ZGNN 050200Z AUTO 36010KT 4SM 26/21 A2971 RMK T02600210 IEM_DS3505
ZGNN,2001-09-05 03:00,ZGNN 050300Z AUTO 36008KT 8SM 27/23 A2971 RMK SLP064 T02720227 52004 IEM_DS3505
ZGNN,2001-09-05 04:00,ZGNN 050400Z AUTO 03010KT 7SM 27/22 A2971 RMK T02700220 IEM_DS3505
ZGNN,2001-09-05 05:00,ZGNN 050500Z AUTO 02010KT 7SM 27/21 A2971 RMK T02700210 IEM_DS3505
ZGNN,2001-09-05 06:00,ZGNN 050600Z AUTO 00000KT 8SM 27/23 A2968 RMK 60000 SLP052 T02680227 57012 IEM_DS3505
ZGNN,2001-09-05 07:00,ZGNN 050700Z AUTO 34004KT 7SM 26/23 A2968 RMK T02600230 IEM_DS3505
ZGNN,2001-09-05 08:00,ZGNN 050800Z AUTO 36008KT 5SM 27/22 A2965 RMK T02700220 IEM_DS3505
ZGNN,2001-09-05 09:00,ZGNN 050900Z AUTO 36006KT 7SM 27/23 A2965 RMK SLP039 T02680230 57013 IEM_DS3505
ZGNN,2001-09-05 10:00,ZGNN 051000Z AUTO 01008KT 4SM 27/22 A2965 RMK T02700220 IEM_DS3505
ZGNN,2001-09-05 11:00,ZGNN 051100Z AUTO 01006KT 4SM 26/22 A2965 RMK T02600220 IEM_DS3505
ZGNN,2001-09-05 12:00,ZGNN 051200Z AUTO 02004KT 7SM 26/23 A2968 RMK 60003 SLP051 T02630227 52012 IEM_DS3505
ZGNN,2001-09-05 13:00,ZGNN 051300Z AUTO 03004KT 4SM 25/22 A2968 RMK T02500220 IEM_DS3505
ZGNN,2001-09-05 14:00,ZGNN 051400Z AUTO 2SM 25/22 A2971 RMK T02500220 IEM_DS3505
ZGNN,2001-09-05 15:00,ZGNN 051500Z AUTO 00000KT 4SM 24/24 A2974 RMK SLP068 T02440237 52017 IEM_DS3505
ZGNN,2001-09-05 16:00,ZGNN 051600Z AUTO 35004KT 1SM 24/23 A2974 RMK T02400230 IEM_DS3505
ZGNN,2001-09-05 17:00,ZGNN 051700Z AUTO 35004KT 1 1/4SM 24/22 A2971 RMK T02400220 IEM_DS3505
ZGNN,2001-09-05 18:00,ZGNN 051800Z AUTO 36002KT 5SM 24/23 A2971 RMK 60008 SLP062 T02410232 57006 IEM_DS3505
ZGNN,2001-09-05 19:00,ZGNN 051900Z AUTO 1 1/2SM 24/22 A2971 RMK T02400220 IEM_DS3505
ZGNN,2001-09-05 20:00,ZGNN 052000Z AUTO 03006KT 1/2SM 23/22 A2971 RMK T02300220 IEM_DS3505
ZGNN,2001-09-05 21:00,ZGNN 052100Z AUTO 36006KT 4SM 24/23 A2971 RMK 70028 SLP058 T02390230 57004 IEM_DS3505
ZGNN,2001-09-05 22:00,ZGNN 052200Z AUTO 01008KT 1 1/4SM 23/22 A2971 RMK T02300220 IEM_DS3505
ZGNN,2001-09-05 23:00,ZGNN 052300Z AUTO 36006KT 2SM 24/22 A2971 RMK T02400220 IEM_DS3505
ZGNN,2001-09-06 00:00,ZGNN 060000Z AUTO 34006KT 3SM 24/23 A2974 RMK 60035 SLP068 T02440231 52010 IEM_DS3505
ZGNN,2001-09-06 01:00,ZGNN 060100Z AUTO 36006KT 3SM 26/23 A2974 RMK T02600230 IEM_DS3505
ZGNN,2001-09-06 02:00,ZGNN 060200Z AUTO 02008KT 4SM 26/23 A2974 RMK T02600230 IEM_DS3505
ZGNN,2001-09-06 03:00,ZGNN 060300Z AUTO 36008KT 5SM 28/24 A2974 RMK SLP073 T02790242 52005 IEM_DS3505
ZGNN,2001-09-06 04:00,ZGNN 060400Z AUTO 04012KT 7SM 28/23 A2974 RMK T02800230 IEM_DS3505
ZGNN,2001-09-06 05:00,ZGNN 060500Z AUTO 04012KT 7SM 30/23 A2971 RMK T03000230 IEM_DS3505
ZGNN,2001-09-06 06:00,ZGNN 060600Z AUTO 04008KT 10SM 30/24 A2971 RMK SLP057 T03050244 57015 IEM_DS3505
ZGNN,2001-09-06 07:00,ZGNN 060700Z AUTO 02010KT 7SM 30/23 A2968 RMK T03000230 IEM_DS3505
ZGNN,2001-09-06 08:00,ZGNN 060800Z AUTO 01010KT 7SM 31/23 A2968 RMK T03100230 IEM_DS3505
ZGNN,2001-09-06 09:00,ZGNN 060900Z AUTO 36004KT 9SM 30/24 A2965 RMK SLP044 T03000236 57013 IEM_DS3505
ZGNN,2001-09-06 10:00,ZGNN 061000Z AUTO 12006KT 5SM 26/24 A2968 RMK T02600240 IEM_DS3505
ZGNN,2001-09-06 11:00,ZGNN 061100Z AUTO 24002KT 5SM 26/24 A2968 RMK T02600240 IEM_DS3505
ZGNN,2001-09-06 12:00,ZGNN 061200Z AUTO 00000KT 7SM 27/26 A2971 RMK SLP061 T02720259 52016 IEM_DS3505
ZGNN,2001-09-06 13:00,ZGNN 061300Z AUTO 12006KT 5SM 26/24 A2974 RMK T02600240 IEM_DS3505
ZGNN,2001-09-06 14:00,ZGNN 061400Z AUTO 02010KT 5SM 25/23 A2974 RMK T02500230 IEM_DS3505
ZGNN,2001-09-06 15:00,ZGNN 061500Z AUTO 00000KT 7SM 26/24 RMK SLP076 T02550242 52015 IEM_DS3505
ZGNN,2001-09-06 16:00,ZGNN 061600Z AUTO 01004KT 7SM 25/23 A2974 RMK T02500230 IEM_DS3505
ZGNN,2001-09-06 17:00,ZGNN 061700Z AUTO 01004KT 7SM 25/23 A2974 RMK T02500230 IEM_DS3505
ZGNN,2001-09-06 18:00,ZGNN 061800Z AUTO 00000KT 9SM 25/24 A2974 RMK 60008 SLP067 T02500237 57008 IEM_DS3505
ZGNN,2001-09-06 19:00,ZGNN 061900Z AUTO 7SM 25/23 A2974 RMK T02500230 IEM_DS3505
ZGNN,2001-09-06 20:00,ZGNN 062000Z AUTO 05002KT 7SM 25/23 A2971 RMK T02500230 IEM_DS3505
ZGNN,2001-09-06 21:00,ZGNN 062100Z AUTO 32004KT 7SM 25/24 A2974 RMK 70027 SLP068 T02490239 52001 IEM_DS3505
ZGNN,2001-09-06 22:00,ZGNN 062200Z AUTO 36002KT 4SM RMK IEM_DS3505
ZGNN,2001-09-06 23:00,ZGNN 062300Z AUTO 4SM 25/23 A2974 RMK T02500230 IEM_DS3505
ZGNN,2001-09-07 00:00,ZGNN 070000Z AUTO 00000KT 6SM 26/25 A2977 RMK 70008 SLP081 T02570248 52012 IEM_DS3505
ZGNN,2001-09-07 01:00,ZGNN 070100Z AUTO 05002KT 4SM 26/24 A2980 RMK T02600240 IEM_DS3505
ZGNN,2001-09-07 02:00,ZGNN 070200Z AUTO 4SM 27/23 A2977 RMK T02700230 IEM_DS3505
ZGNN,2001-09-07 03:00,ZGNN 070300Z AUTO 27002KT 12SM 29/25 A2977 RMK SLP081 T02880249 52001 IEM_DS3505
ZGNN,2001-09-07 04:00,ZGNN 070400Z AUTO 7SM 29/24 A2977 RMK T02900240 IEM_DS3505
ZGNN,2001-09-07 05:00,ZGNN 070500Z AUTO 7SM 28/24 A2974 RMK T02800240 IEM_DS3505
ZGNN,2001-09-07 06:00,ZGNN 070600Z AUTO 25002KT 9SM 29/24 A2974 RMK 60003 SLP069 T02940241 57012 IEM_DS3505
ZGNN,2001-09-07 07:00,ZGNN 070700Z AUTO 33004KT 7SM 29/24 A2971 RMK T02900240 IEM_DS3505
ZGNN,2001-09-07 08:00,ZGNN 070800Z AUTO 01004KT 6SM 29/24 A2968 RMK T02900240 IEM_DS3505
ZGNN,2001-09-07 09:00,ZGNN 070900Z AUTO 00000KT 12SM 30/26 A2968 RMK SLP052 T02950257 57017 IEM_DS3505
ZGNN,2001-09-07 10:00,ZGNN 071000Z AUTO 33004KT 6SM 29/24 A2968 RMK T02900240 IEM_DS3505
ZGNN,2001-09-07 11:00,ZGNN 071100Z AUTO 34004KT 6SM 28/24 A2968 RMK T02800240 IEM_DS3505
ZGNN,2001-09-07 12:00,ZGNN 071200Z AUTO 00000KT 7SM 27/25 A2971 RMK SLP060 T02730253 52008 IEM_DS3505
ZGNN,2001-09-07 13:00,ZGNN 071300Z AUTO 6SM 26/24 A2974 RMK T02600240 IEM_DS3505
ZGNN,2001-09-07 14:00,ZGNN 071400Z AUTO 6SM 26/23 A2977 RMK T02600230 IEM_DS3505
ZGNN,2001-09-07 15:00,ZGNN 071500Z AUTO 00000KT 7SM 25/24 A2977 RMK SLP080 T02470241 52019 IEM_DS3505
ZGNN,2001-09-07 16:00,ZGNN 071600Z AUTO 3SM 25/23 A2977 RMK T02500230 IEM_DS3505
ZGNN,2001-09-07 17:00,ZGNN 071700Z AUTO 36002KT 3SM 25/23 A2977 RMK T02500230 IEM_DS3505
ZGNN,2001-09-07 18:00,ZGNN 071800Z AUTO 00000KT 7SM 24/24 A2974 RMK SLP072 T02420238 57007 IEM_DS3505
ZGNN,2001-09-07 19:00,ZGNN 071900Z AUTO 2SM 25/23 A2974 RMK T02500230 IEM_DS3505
ZGNN,2001-09-07 20:00,ZGNN 072000Z AUTO 2SM 25/23 A2974 RMK T02500230 IEM_DS3505
ZGNN,2001-09-07 21:00,ZGNN 072100Z AUTO 00000KT 7SM 24/24 A2974 RMK 70003 SLP069 T02420239 57003 IEM_DS3505
ZGNN,2001-09-07 22:00,ZGNN 072200Z AUTO 2SM 24/23 A2974 RMK T02400230 IEM_DS3505
ZGNN,2001-09-07 23:00,ZGNN 072300Z AUTO 1SM 24/23 A2974 RMK T02400230 IEM_DS3505
ZGNN,2001-09-08 00:00,ZGNN 080000Z AUTO 00000KT 6SM 25/25 A2977 RMK 70003 SLP078 T02530247 52008 IEM_DS3505
ZGNN,2001-09-08 01:00,ZGNN 080100Z AUTO 2 1/2SM 27/24 A2977 RMK T02700240 IEM_DS3505
ZGNN,2001-09-08 02:00,ZGNN 080200Z AUTO 03008KT 2 1/2SM 28/24 A2977 RMK T02800240 IEM_DS3505
ZGNN,2001-09-08 03:00,ZGNN 080300Z AUTO 36006KT 5SM 30/26 A2977 RMK SLP081 T03030260 52004 IEM_DS3505
ZGNN,2001-09-08 04:00,ZGNN 080400Z AUTO 06008KT 31/24 A2977 RMK T03100240 IEM_DS3505
ZGNN,2001-09-08 05:00,ZGNN 080500Z AUTO 04008KT 7SM 32/24 A2974 RMK T03200240 IEM_DS3505
ZGNN,2001-09-08 06:00,ZGNN 080600Z AUTO 09002KT 7SM 32/25 A2971 RMK SLP062 T03160246 57019 IEM_DS3505
ZGNN,2001-09-08 07:00,ZGNN 080700Z AUTO 06008KT 7SM 32/24 A2971 RMK T03200240 IEM_DS3505
ZGNN,2001-09-08 08:00,ZGNN 080800Z AUTO 06008KT 7SM 32/23 A2968 RMK T03200230 IEM_DS3505
ZGNN,2001-09-08 09:00,ZGNN 080900Z AUTO 04004KT 6SM 32/25 A2968 RMK SLP046 T03220251 57015 IEM_DS3505
ZGNN,2001-09-08 10:00,ZGNN 081000Z AUTO 06006KT 7SM 31/24 A2968 RMK T03100240 IEM_DS3505
ZGNN,2001-09-08 11:00,ZGNN 081100Z AUTO 06004KT 4SM 29/25 A2968 RMK T02900250 IEM_DS3505
ZGNN,2001-09-08 12:00,ZGNN 081200Z AUTO 00000KT 6SM 28/26 A2971 RMK SLP062 T02830258 52015 IEM_DS3505
ZGNN,2001-09-08 13:00,ZGNN 081300Z AUTO 35002KT 2SM 28/25 A2974 RMK T02800250 IEM_DS3505
ZGNN,2001-09-08 14:00,ZGNN 081400Z AUTO 35002KT 2SM 28/25 A2977 RMK T02800250 IEM_DS3505
ZGNN,2001-09-08 15:00,ZGNN 081500Z AUTO 00000KT 6SM 26/25 RMK SLP084 T02580249 52022 IEM_DS3505
ZGNN,2001-09-08 16:00,ZGNN 081600Z AUTO 06006KT 1 1/4SM 26/24 A2977 RMK T02600240 IEM_DS3505
ZGNN,2001-09-08 17:00,ZGNN 081700Z AUTO 04008KT 3SM 26/23 A2980 RMK T02600230 IEM_DS3505
ZGNN,2001-09-08 18:00,ZGNN 081800Z AUTO 00000KT 5SM 26/24 A2977 RMK SLP077 T02580238 57007 IEM_DS3505
ZGNN,2001-09-08 20:00,ZGNN 082000Z AUTO 4SM 26/23 A2974 RMK T02600230 IEM_DS3505
ZGNN,2001-09-08 21:00,ZGNN 082100Z AUTO 34002KT 5SM 25/24 A2974 RMK SLP071 T02500237 57006 IEM_DS3505
ZGNN,2001-09-08 22:00,ZGNN 082200Z AUTO 33004KT 2 1/2SM 25/23 A2977 RMK T02500230 IEM_DS3505
ZGNN,2001-09-08 23:00,ZGNN 082300Z AUTO 32004KT 3SM 25/23 A2977 RMK T02500230 IEM_DS3505
ZGNN,2001-09-09 00:00,ZGNN 090000Z AUTO 02004KT 4SM 25/24 A2977 RMK SLP087 T02530239 52015 IEM_DS3505
ZGNN,2001-09-09 01:00,ZGNN 090100Z AUTO 35006KT 4SM 27/23 A2980 RMK T02700230 IEM_DS3505
ZGNN,2001-09-09 02:00,ZGNN 090200Z AUTO 5SM 29/24 A2980 RMK T02900240 IEM_DS3505
ZGNN,2001-09-09 03:00,ZGNN 090300Z AUTO 02004KT 3SM 29/23 A2980 RMK SLP089 T02920230 52003 IEM_DS3505
ZGNN,2001-09-09 04:00,ZGNN 090400Z AUTO 02010KT 30/22 A2977 RMK T03000220 IEM_DS3505
ZGNN,2001-09-09 05:00,ZGNN 090500Z AUTO 03008KT 5SM 30/21 A2977 RMK T03000210 IEM_DS3505
ZGNN,2001-09-09 06:00,ZGNN 090600Z AUTO 04004KT 4SM 31/22 A2974 RMK SLP073 T03140215 57016 IEM_DS3505
ZGNN,2001-09-09 07:00,ZGNN 090700Z AUTO 04008KT 6SM 31/21 A2974 RMK T03100210 IEM_DS3505
ZGNN,2001-09-09 08:00,ZGNN 090800Z AUTO 05008KT 6SM 31/20 A2971 RMK T03100200 IEM_DS3505
ZGNN,2001-09-09 09:00,ZGNN 090900Z AUTO 04004KT 4SM 32/22 A2968 RMK SLP055 T03160215 57017 IEM_DS3505
ZGNN,2001-09-09 10:00,ZGNN 091000Z AUTO 04006KT 6SM 30/21 A2968 RMK T03000210 IEM_DS3505
ZGNN,2001-09-09 11:00,ZGNN 091100Z AUTO 33006KT 6SM 28/22 A2971 RMK T02800220 IEM_DS3505
ZGNN,2001-09-09 12:00,ZGNN 091200Z AUTO 34006KT 6SM 27/23 A2974 RMK SLP069 T02710229 52012 IEM_DS3505
ZGNN,2001-09-09 13:00,ZGNN 091300Z AUTO 34006KT 6SM 27/22 A2977 RMK T02700220 IEM_DS3505
ZGNN,2001-09-09 14:00,ZGNN 091400Z AUTO 34006KT 4SM 26/22 A2977 RMK T02600220 IEM_DS3505
ZGNN,2001-09-09 15:00,ZGNN 091500Z AUTO 34008KT 7SM 26/22 A2980 RMK SLP086 T02590225 52018 IEM_DS3505
ZGNN,2001-09-09 16:00,ZGNN 091600Z AUTO 34006KT 4SM 25/22 A2980 RMK T02500220 IEM_DS3505
ZGNN,2001-09-09 18:00,ZGNN 091800Z AUTO 34006KT 7SM 25/22 A2977 RMK SLP083 T02490219 57003 IEM_DS3505
ZGNN,2001-09-09 19:00,ZGNN 091900Z AUTO 35004KT 4SM 25/21 A2977 RMK T02500210 IEM_DS3505
ZGNN,2001-09-09 20:00,ZGNN 092000Z AUTO 34006KT 4SM 25/20 A2977 RMK T02500200 IEM_DS3505
ZGNN,2001-09-09 21:00,ZGNN 092100Z AUTO 34008KT 7SM 24/22 A2977 RMK SLP075 T02400215 57008 IEM_DS3505
ZGNN,2001-09-09 22:00,ZGNN 092200Z AUTO 35006KT 6SM 24/20 A2977 RMK T02400200 IEM_DS3505
ZGNN,2001-09-09 23:00,ZGNN 092300Z AUTO 34002KT 6SM 23/20 A2977 RMK T02300200 IEM_DS3505
ZGNN,2001-09-10 00:00,ZGNN 100000Z AUTO 00000KT 5SM 24/22 A2980 RMK SLP089 T02430216 52013 IEM_DS3505
ZGNN,2001-09-10 01:00,ZGNN 100100Z AUTO 6SM 27/19 A2980 RMK T02700190 IEM_DS3505
ZGNN,2001-09-10 02:00,ZGNN 100200Z AUTO 01006KT 6SM 28/18 A2983 RMK T02800180 IEM_DS3505
ZGNN,2001-09-10 03:00,ZGNN 100300Z AUTO 09004KT 9SM 29/18 A2983 RMK SLP097 T02940183 52009 IEM_DS3505
ZGNN,2001-09-10 04:00,ZGNN 100400Z AUTO 04010KT 6SM 30/18 A2980 RMK T03000180 IEM_DS3505
ZGNN,2001-09-10 06:00,ZGNN 100600Z AUTO 04008KT 10SM 31/19 A2977 RMK SLP079 T03100192 57018 IEM_DS3505
ZGNN,2001-09-10 07:00,ZGNN 100700Z AUTO 04010KT 7SM 31/18 A2974 RMK T03100180 IEM_DS3505
ZGNN,2001-09-10 08:00,ZGNN 100800Z AUTO 05012KT 6SM 31/17 A2974 RMK T03100170 IEM_DS3505
ZGNN,2001-09-10 09:00,ZGNN 100900Z AUTO 04004KT 9SM 31/19 A2974 RMK SLP070 T03100192 57009 IEM_DS3505
ZGNN,2001-09-10 10:00,ZGNN 101000Z AUTO 02008KT 6SM 30/19 A2974 RMK T03000190 IEM_DS3505
ZGNN,2001-09-10 11:00,ZGNN 101100Z AUTO 03004KT 6SM 27/20 A2974 RMK T02700200 IEM_DS3505
ZGNN,2001-09-10 12:00,ZGNN 101200Z AUTO 00000KT 12SM 26/21 A2977 RMK SLP078 T02640207 52007 IEM_DS3505
ZGNN,2001-09-10 13:00,ZGNN 101300Z AUTO 36004KT 6SM 27/20 A2977 RMK T02700200 IEM_DS3505
ZGNN,2001-09-10 14:00,ZGNN 101400Z AUTO 6SM 25/21 A2980 RMK T02500210 IEM_DS3505
ZGNN,2001-09-10 15:00,ZGNN 101500Z AUTO 00000KT 9SM 24/21 A2980 RMK SLP092 T02370213 52014 IEM_DS3505
ZGNN,2001-09-10 16:00,ZGNN 101600Z AUTO 36004KT 26/19 A2980 RMK T02600190 IEM_DS3505
ZGNN,2001-09-10 17:00,ZGNN 101700Z AUTO 2SM 25/20 A2980 RMK T02500200 IEM_DS3505
ZGNN,2001-09-10 18:00,ZGNN 101800Z AUTO 34006KT 9SM 26/20 A2977 RMK SLP083 T02590196 57008 IEM_DS3505
ZGNN,2001-09-10 19:00,ZGNN 101900Z AUTO 35006KT 4SM 26/19 A2977 RMK T02600190 IEM_DS3505
ZGNN,2001-09-10 20:00,ZGNN 102000Z AUTO 35006KT 3SM 26/19 A2977 RMK T02600190 IEM_DS3505
ZGNN,2001-09-10 21:00,ZGNN 102100Z AUTO 34006KT 9SM 25/20 A2977 RMK SLP078 T02540196 57005 IEM_DS3505
ZGNN,2001-09-10 22:00,ZGNN 102200Z AUTO 35006KT 6SM 25/19 A2977 RMK T02500190 IEM_DS3505
ZGNN,2001-09-10 23:00,ZGNN 102300Z AUTO 36004KT 6SM 25/19 A2980 RMK T02500190 IEM_DS3505
ZGNN,2001-09-11 00:00,ZGNN 110000Z AUTO 00000KT 9SM 25/20 A2983 RMK SLP097 T02520200 52018 IEM_DS3505
ZGNN,2001-09-11 02:00,ZGNN 110200Z AUTO 03008KT 6SM 29/18 A2983 RMK T02900180 IEM_DS3505
ZGNN,2001-09-11 03:00,ZGNN 110300Z AUTO 04006KT 9SM 29/19 A2983 RMK SLP101 T02940187 52004 IEM_DS3505
ZGNN,2001-09-11 04:00,ZGNN 110400Z AUTO 05012KT 6SM 30/18 A2983 RMK T03000180 IEM_DS3505
ZGNN,2001-09-11 05:00,ZGNN 110500Z AUTO 04010KT 6SM 31/19 A2980 RMK T03100190 IEM_DS3505
ZGNN,2001-09-11 06:00,ZGNN 110600Z AUTO 07004KT 9SM 31/19 A2977 RMK SLP080 T03100190 57020 IEM_DS3505
ZGNN,2001-09-11 07:00,ZGNN 110700Z AUTO 07010KT 7SM 31/19 A2974 RMK T03100190 IEM_DS3505
ZGNN,2001-09-11 08:00,ZGNN 110800Z AUTO 08010KT 6SM 31/20 A2974 RMK T03100200 IEM_DS3505
ZGNN,2001-09-11 09:00,ZGNN 110900Z AUTO 11002KT 9SM 30/20 A2974 RMK SLP072 T03040203 57008 IEM_DS3505
ZGNN,2001-09-11 10:00,ZGNN 111000Z AUTO 06006KT 6SM 29/21 A2974 RMK T02900210 IEM_DS3505
ZGNN,2001-09-11 11:00,ZGNN 111100Z AUTO 05004KT 5SM 28/21 A2977 RMK T02800210 IEM_DS3505
ZGNN,2001-09-11 12:00,ZGNN 111200Z AUTO 00000KT 5SM 28/22 A2980 RMK 60003 SLP088 T02800225 52015 IEM_DS3505
ZGNN,2001-09-11 13:00,ZGNN 111300Z AUTO 05002KT 4SM 27/22 A2980 RMK T02700220 IEM_DS3505
ZGNN,2001-09-11 14:00,ZGNN 111400Z AUTO 04004KT 4SM 27/22 A2980 RMK T02700220 IEM_DS3505
ZGNN,2001-09-11 15:00,ZGNN 111500Z AUTO 09006KT 6SM 27/21 A2983 RMK SLP095 T02720208 52008 IEM_DS3505
ZGNN,2001-09-11 16:00,ZGNN 111600Z AUTO 04006KT 3SM 26/21 A2980 RMK T02600210 IEM_DS3505
ZGNN,2001-09-11 17:00,ZGNN 111700Z AUTO 04002KT 3SM 26/21 A2983 RMK T02600210 IEM_DS3505
ZGNN,2001-09-11 18:00,ZGNN 111800Z AUTO 07004KT 5SM 26/22 A2980 RMK 60003 SLP093 T02600223 57002 IEM_DS3505
ZGNN,2001-09-11 19:00,ZGNN 111900Z AUTO 2 1/2SM 25/22 A2980 RMK T02500220 IEM_DS3505
ZGNN,2001-09-11 20:00,ZGNN 112000Z AUTO 2 1/2SM 24/22 A2980 RMK T02400220 IEM_DS3505
ZGNN,2001-09-11 21:00,ZGNN 112100Z AUTO 18002KT 5SM 24/23 A2983 RMK 70000 SLP098 T02440234 52004 IEM_DS3505
ZGNN,2001-09-11 22:00,ZGNN 112200Z AUTO 33002KT 2SM 24/22 A2983 RMK T02400220 IEM_DS3505
ZGNN,2001-09-11 23:00,ZGNN 112300Z AUTO 01008KT 1SM 24/22 A2985 RMK T02400220 IEM_DS3505
ZGNN,2001-09-12 00:00,ZGNN 120000Z AUTO 00000KT 2SM 24/23 A2985 RMK 60024 SLP112 T02370230 52014 IEM_DS3505
ZGNN,2001-09-12 01:00,ZGNN 120100Z AUTO 01006KT 1 1/2SM 25/22 A2988 RMK T02500220 IEM_DS3505
ZGNN,2001-09-12 02:00,ZGNN 120200Z AUTO 2SM 26/22 A2988 RMK T02600220 IEM_DS3505
ZGNN,2001-09-12 03:00,ZGNN 120300Z AUTO 00000KT 3SM 27/23 A2988 RMK SLP115 T02700228 52003 IEM_DS3505
ZGNN,2001-09-12 04:00,ZGNN 120400Z AUTO 2 1/2SM 29/22 A2985 RMK T02900220 IEM_DS3505
ZGNN,2001-09-12 06:00,ZGNN 120600Z AUTO 3SM 30/22 A2980 RMK T03000220 IEM_DS3505
ZGNN,2001-09-12 07:00,ZGNN 120700Z AUTO 05008KT 30/21 A2977 RMK T03000210 IEM_DS3505
ZGNN,2001-09-12 08:00,ZGNN 120800Z AUTO 06006KT 31/21 A2977 RMK T03100210 IEM_DS3505
ZGNN,2001-09-12 09:00,ZGNN 120900Z AUTO 02004KT 4SM 31/23 A2977 RMK SLP078 T03080232 57013 IEM_DS3505
ZGNN,2001-09-12 10:00,ZGNN 121000Z AUTO 04006KT 30/22 A2977 RMK T03000220 IEM_DS3505
ZGNN,2001-09-12 11:00,ZGNN 121100Z AUTO 04004KT 3SM 28/22 A2977 RMK T02800220 IEM_DS3505
ZGNN,2001-09-12 12:00,ZGNN 121200Z AUTO 00000KT 3SM 26/25 A2980 RMK SLP091 T02650247 52011 IEM_DS3505
ZGNN,2001-09-12 13:00,ZGNN 121300Z AUTO 1 1/2SM 27/23 A2980 RMK T02700230 IEM_DS3505
ZGNN,2001-09-12 14:00,ZGNN 121400Z AUTO 2SM 26/23 A2983 RMK T02600230 IEM_DS3505
ZGNN,2001-09-12 15:00,ZGNN 121500Z AUTO 00000KT 3SM 25/24 A2983 RMK SLP100 T02470238 52010 IEM_DS3505
ZGNN,2001-09-12 16:00,ZGNN 121600Z AUTO 1 1/2SM 25/23 A2983 RMK T02500230 IEM_DS3505
ZGNN,2001-09-12 17:00,ZGNN 121700Z AUTO 1SM 25/23 A2983 RMK T02500230 IEM_DS3505
ZGNN,2001-09-12 18:00,ZGNN 121800Z AUTO 34004KT 2 1/2SM 24/23 A2980 RMK SLP096 T02440234 57004 IEM_DS3505
ZGNN,2001-09-12 19:00,ZGNN 121900Z AUTO 1SM 25/24 A2980 RMK T02500240 IEM_DS3505
ZGNN,2001-09-12 20:00,ZGNN 122000Z AUTO 26004KT 1SM 24/23 A2980 RMK T02400230 IEM_DS3505
ZGNN,2001-09-12 21:00,ZGNN 122100Z AUTO 32004KT 5SM 24/24 A2980 RMK 70024 SLP090 T02450236 57005 IEM_DS3505
ZGNN,2001-09-12 22:00,ZGNN 122200Z AUTO 2SM 24/23 A2980 RMK T02400230 IEM_DS3505
ZGNN,2001-09-12 23:00,ZGNN 122300Z AUTO 06002KT 1 1/2SM 24/23 A2980 RMK T02400230 IEM_DS3505
ZGNN,2001-09-13 00:00,ZGNN 130000Z AUTO 00000KT 4SM 25/24 A2983 RMK 60000 SLP100 T02490237 52009 IEM_DS3505
ZGNN,2001-09-13 01:00,ZGNN 130100Z AUTO 1 1/2SM 26/23 A2983 RMK T02600230 IEM_DS3505
ZGNN,2001-09-13 02:00,ZGNN 130200Z AUTO 2 1/2SM 27/24 A2983 RMK T02700240 IEM_DS3505
ZGNN,2001-09-13 03:00,ZGNN 130300Z AUTO 27002KT 4SM 29/26 A2983 RMK SLP099 T02940255 57001 IEM_DS3505
ZGNN,2001-09-13 04:00,ZGNN 130400Z AUTO 7SM 30/23 A2980 RMK T03000230 IEM_DS3505
ZGNN,2001-09-13 05:00,ZGNN 130500Z AUTO 7SM 31/24 A2977 RMK T03100240 IEM_DS3505
ZGNN,2001-09-13 06:00,ZGNN 130600Z AUTO 27004KT 4SM 32/25 A2977 RMK SLP077 T03150249 57021 IEM_DS3505
ZGNN,2001-09-13 07:00,ZGNN 130700Z AUTO 6SM 31/23 A2974 RMK T03100230 IEM_DS3505
ZGNN,2001-09-13 08:00,ZGNN 130800Z AUTO 7SM 32/22 A2971 RMK T03200220 IEM_DS3505
ZGNN,2001-09-13 09:00,ZGNN 130900Z AUTO 00000KT 5SM 31/25 A2971 RMK SLP060 T03120246 57017 IEM_DS3505
ZGNN,2001-09-13 10:00,ZGNN 131000Z AUTO 30/24 A2971 RMK T03000240 IEM_DS3505
ZGNN,2001-09-13 11:00,ZGNN 131100Z AUTO 4SM 28/25 A2971 RMK T02800250 IEM_DS3505
ZGNN,2001-09-13 12:00,ZGNN 131200Z AUTO 22004KT 6SM 28/26 A2974 RMK 60000 SLP073 T02770256 52012 IEM_DS3505
ZGNN,2001-09-13 13:00,ZGNN 131300Z AUTO 4SM 26/25 A2977 RMK T02600250 IEM_DS3505
ZGNN,2001-09-13 14:00,ZGNN 131400Z AUTO 3SM 26/25 A2980 RMK T02600250 IEM_DS3505
ZGNN,2001-09-13 15:00,ZGNN 131500Z AUTO 00000KT 6SM 25/25 A2980 RMK SLP090 T02540248 52018 IEM_DS3505
ZGNN,2001-09-13 16:00,ZGNN 131600Z AUTO 33002KT 2SM 26/24 A2980 RMK T02600240 IEM_DS3505
ZGNN,2001-09-13 17:00,ZGNN 131700Z AUTO 1 1/4SM 26/24 A2980 RMK T02600240 IEM_DS3505
ZGNN,2001-09-13 18:00,ZGNN 131800Z AUTO 00000KT 6SM 26/25 RMK SLP085 T02550246 57005 IEM_DS3505
ZGNN,2001-09-13 19:00,ZGNN 131900Z AUTO 1SM 25/24 A2977 RMK T02500240 IEM_DS3505
ZGNN,2001-09-13 20:00,ZGNN 132000Z AUTO 1SM 26/24 A2977 RMK T02600240 IEM_DS3505
ZGNN,2001-09-13 21:00,ZGNN 132100Z AUTO 00000KT 6SM 25/25 A2977 RMK 70000 SLP079 T02520246 57006 IEM_DS3505
ZGNN,2001-09-13 22:00,ZGNN 132200Z AUTO 1 1/4SM 25/24 A2977 RMK T02500240 IEM_DS3505
ZGNN,2001-09-14 00:00,ZGNN 140000Z AUTO 00000KT 2SM 25/24 A2983 RMK 70000 SLP100 T02530243 52020 IEM_DS3505
ZGNN,2001-09-14 01:00,ZGNN 140100Z AUTO 1 1/4SM 27/24 A2985 RMK T02700240 IEM_DS3505
ZGNN,2001-09-14 02:00,ZGNN 140200Z AUTO 1 1/2SM 28/24 A2985 RMK T02800240 IEM_DS3505
ZGNN,2001-09-14 03:00,ZGNN 140300Z AUTO 20002KT 6SM 30/23 A2985 RMK SLP110 T02970234 52010 IEM_DS3505
ZGNN,2001-09-14 04:00,ZGNN 140400Z AUTO 32/22 A2985 RMK T03200220 IEM_DS3505
ZGNN,2001-09-14 05:00,ZGNN 140500Z AUTO 6SM 33/21 A2983 RMK T03300210 IEM_DS3505
ZGNN,2001-09-14 06:00,ZGNN 140600Z AUTO 20004KT 9SM 33/23 A2980 RMK SLP086 T03270230 57023 IEM_DS3505
ZGNN,2001-09-14 07:00,ZGNN 140700Z AUTO 6SM 33/22 A2977 RMK T03300220 IEM_DS3505
ZGNN,2001-09-14 08:00,ZGNN 140800Z AUTO 6SM 33/21 A2974 RMK T03300210 IEM_DS3505
ZGNN,2001-09-14 09:00,ZGNN 140900Z AUTO 18002KT 9SM 33/23 A2974 RMK SLP066 T03330227 57019 IEM_DS3505
ZGNN,2001-09-14 10:00,ZGNN 141000Z AUTO 11002KT 6SM 32/23 A2974 RMK T03200230 IEM_DS3505
ZGNN,2001-09-14 11:00,ZGNN 141100Z AUTO 13002KT 6SM 30/25 A2974 RMK T03000250 IEM_DS3505
ZGNN,2001-09-14 12:00,ZGNN 141200Z AUTO 00000KT 7SM 28/25 A2974 RMK SLP076 T02790252 52008 IEM_DS3505
ZGNN,2001-09-14 13:00,ZGNN 141300Z AUTO 4SM 28/24 A2977 RMK T02800240 IEM_DS3505
ZGNN,2001-09-14 14:00,ZGNN 141400Z AUTO 4SM 28/25 A2980 RMK T02800250 IEM_DS3505
ZGNN,2001-09-14 15:00,ZGNN 141500Z AUTO 00000KT 7SM 26/25 RMK SLP095 T02630250 52020 IEM_DS3505
ZGNN,2001-09-14 16:00,ZGNN 141600Z AUTO 3SM 27/24 A2980 RMK T02700240 IEM_DS3505
ZGNN,2001-09-14 17:00,ZGNN 141700Z AUTO 3SM 26/24 A2980 RMK T02600240 IEM_DS3505
ZGNN,2001-09-14 18:00,ZGNN 141800Z AUTO 00000KT 6SM 25/24 A2980 RMK SLP093 T02540245 57002 IEM_DS3505
ZGNN,2001-09-14 19:00,ZGNN 141900Z AUTO 3SM 26/24 A2980 RMK T02600240 IEM_DS3505
ZGNN,2001-09-14 20:00,ZGNN 142000Z AUTO 1 1/2SM 26/24 A2980 RMK T02600240 IEM_DS3505
ZGNN,2001-09-14 21:00,ZGNN 142100Z AUTO 00000KT 6SM 25/24 A2980 RMK SLP086 T02520242 57006 IEM_DS3505
ZGNN,2001-09-14 22:00,ZGNN 142200Z AUTO 5SM 25/23 A2980 RMK T02500230 IEM_DS3505
ZGNN,2001-09-14 23:00,ZGNN 142300Z AUTO 2 1/2SM 25/23 A2980 RMK T02500230 IEM_DS3505
ZGNN,2001-09-15 00:00,ZGNN 150000Z AUTO 00000KT 6SM 25/24 A2983 RMK SLP102 T02500241 52014 IEM_DS3505
ZGNN,2001-09-15 01:00,ZGNN 150100Z AUTO 1 1/2SM 27/24 A2985 RMK T02700240 IEM_DS3505
ZGNN,2001-09-15 02:00,ZGNN 150200Z AUTO 2 1/2SM 29/25 A2985 RMK T02900250 IEM_DS3505
ZGNN,2001-09-15 03:00,ZGNN 150300Z AUTO 27002KT 6SM 31/25 A2985 RMK SLP105 T03110246 52004 IEM_DS3505
ZGNN,2001-09-15 04:00,ZGNN 150400Z AUTO 7SM 32/25 A2983 RMK T03200250 IEM_DS3505
ZGNN,2001-09-15 05:00,ZGNN 150500Z AUTO 7SM 33/23 A2980 RMK T03300230 IEM_DS3505
ZGNN,2001-09-15 06:00,ZGNN 150600Z AUTO 22004KT 7SM 34/24 A2977 RMK SLP075 T03350244 57029 IEM_DS3505
ZGNN,2001-09-15 07:00,ZGNN 150700Z AUTO 5SM 34/23 A2974 RMK T03400230 IEM_DS3505
ZGNN,2001-09-15 08:00,ZGNN 150800Z AUTO 5SM 34/21 A2971 RMK T03400210 IEM_DS3505
ZGNN,2001-09-15 09:00,ZGNN 150900Z AUTO 02004KT 4SM 29/26 A2971 RMK SLP060 T02940258 57016 IEM_DS3505
ZGNN,2001-09-15 10:00,ZGNN 151000Z AUTO 06004KT 32/24 A2971 RMK T03200240 IEM_DS3505
ZGNN,2001-09-15 11:00,ZGNN 151100Z AUTO 04002KT 3SM 30/25 A2971 RMK T03000250 IEM_DS3505
ZGNN,2001-09-15 12:00,ZGNN 151200Z AUTO 00000KT 7SM 28/25 A2974 RMK 60008 SLP068 T02800252 52007 IEM_DS3505
ZGNN,2001-09-15 13:00,ZGNN 151300Z AUTO 02004KT 2 1/2SM 28/24 A2974 RMK T02800240 IEM_DS3505
ZGNN,2001-09-15 14:00,ZGNN 151400Z AUTO 2 1/2SM 28/24 A2977 RMK T02800240 IEM_DS3505
ZGNN,2001-09-15 15:00,ZGNN 151500Z AUTO 00000KT 7SM 26/25 A2980 RMK SLP085 T02640253 52018 IEM_DS3505
ZGNN,2001-09-15 16:00,ZGNN 151600Z AUTO 2SM 27/24 A2980 RMK T02700240 IEM_DS3505
ZGNN,2001-09-15 17:00,ZGNN 151700Z AUTO 2SM 26/25 A2980 RMK T02600250 IEM_DS3505
ZGNN,2001-09-15 18:00,ZGNN 151800Z AUTO 00000KT 7SM 26/25 A2980 RMK SLP084 T02580248 54000 IEM_DS3505
ZGNN,2001-09-15 19:00,ZGNN 151900Z AUTO 1SM 26/24 A2977 RMK T02600240 IEM_DS3505
ZGNN,2001-09-15 20:00,ZGNN 152000Z AUTO 25002KT 1 1/2SM 26/24 A2977 RMK T02600240 IEM_DS3505
ZGNN,2001-09-15 21:00,ZGNN 152100Z AUTO 00000KT 6SM 25/24 A2977 RMK 70007 SLP084 T02470243 57001 IEM_DS3505
ZGNN,2001-09-15 22:00,ZGNN 152200Z AUTO 30002KT 2SM 25/23 A2980 RMK T02500230 IEM_DS3505
ZGNN,2001-09-15 23:00,ZGNN 152300Z AUTO 1 1/4SM 25/24 A2980 RMK T02500240 IEM_DS3505
ZGNN,2001-09-16 00:00,ZGNN 160000Z AUTO 00000KT 1 1/4SM 25/25 A2983 RMK 70007 SLP097 T02540248 52012 IEM_DS3505
ZGNN,2001-09-16 01:00,ZGNN 160100Z AUTO 1 1/4SM 28/25 A2983 RMK T02800250 IEM_DS3505
ZGNN,2001-09-16 02:00,ZGNN 160200Z AUTO 1 1/2SM 30/25 A2983 RMK T03000250 IEM_DS3505
ZGNN,2001-09-16 03:00,ZGNN 160300Z AUTO 09004KT 2SM 31/26 A2983 RMK SLP102 T03090259 52006 IEM_DS3505
ZGNN,2001-09-16 04:00,ZGNN 160400Z AUTO 2 1/2SM 33/25 A2983 RMK T03300250 IEM_DS3505
ZGNN,2001-09-16 05:00,ZGNN 160500Z AUTO 2 1/2SM 33/23 A2980 RMK T03300230 IEM_DS3505
ZGNN,2001-09-16 06:00,ZGNN 160600Z AUTO 25004KT 4SM 33/24 A2977 RMK SLP076 T03340235 57025 IEM_DS3505
ZGNN,2001-09-16 07:00,ZGNN 160700Z AUTO 34/22 A2974 RMK T03400220 IEM_DS3505
ZGNN,2001-09-16 08:00,ZGNN 160800Z AUTO 5SM 34/ A2971 RMK IEM_DS3505
ZGNN,2001-09-16 09:00,ZGNN 160900Z AUTO 00000KT 5SM 34/24 A2971 RMK SLP055 T03430236 57021 IEM_DS3505
ZGNN,2001-09-16 10:00,ZGNN 161000Z AUTO 5SM 33/23 A2968 RMK T03300230 IEM_DS3505
ZGNN,2001-09-16 11:00,ZGNN 161100Z AUTO 5SM 31/26 A2971 RMK T03100260 IEM_DS3505
ZGNN,2001-09-16 12:00,ZGNN 161200Z AUTO 00000KT 5SM 29/26 A2971 RMK SLP060 T02870256 52004 IEM_DS3505
ZGNN,2001-09-16 13:00,ZGNN 161300Z AUTO 3SM 28/24 A2974 RMK T02800240 IEM_DS3505
ZGNN,2001-09-16 14:00,ZGNN 161400Z AUTO 2 1/2SM 28/24 A2977 RMK T02800240 IEM_DS3505
ZGNN,2001-09-16 15:00,ZGNN 161500Z AUTO 00000KT 6SM 26/25 A2980 RMK SLP086 T02620246 52026 IEM_DS3505
ZGNN,2001-09-16 16:00,ZGNN 161600Z AUTO 2SM 27/24 A2980 RMK T02700240 IEM_DS3505
ZGNN,2001-09-16 17:00,ZGNN 161700Z AUTO 27002KT 2SM 26/24 A2980 RMK T02600240 IEM_DS3505
ZGNN,2001-09-16 18:00,ZGNN 161800Z AUTO 00000KT 6SM 25/25 A2977 RMK SLP079 T02530246 57006 IEM_DS3505
ZGNN,2001-09-16 19:00,ZGNN 161900Z AUTO 2SM 26/24 A2977 RMK T02600240 IEM_DS3505
ZGNN,2001-09-16 20:00,ZGNN 162000Z AUTO 1 1/2SM 25/24 A2974 RMK T02500240 IEM_DS3505
ZGNN,2001-09-16 21:00,ZGNN 162100Z AUTO 00000KT 4SM 25/24 A2974 RMK SLP069 T02470241 57010 IEM_DS3505
ZGNN,2001-09-16 22:00,ZGNN 162200Z AUTO 1SM 25/23 A2974 RMK T02500230 IEM_DS3505
ZGNN,2001-09-16 23:00,ZGNN 162300Z AUTO 27002KT 1 1/4SM 25/23 A2977 RMK T02500230 IEM_DS3505
ZGNN,2001-09-17 00:00,ZGNN 170000Z AUTO 00000KT 1 1/4SM 25/25 A2977 RMK SLP083 T02540247 52013 IEM_DS3505
ZGNN,2001-09-17 01:00,ZGNN 170100Z AUTO 2SM 28/24 A2980 RMK T02800240 IEM_DS3505
ZGNN,2001-09-17 02:00,ZGNN 170200Z AUTO 3SM 29/24 A2980 RMK T02900240 IEM_DS3505
ZGNN,2001-09-17 03:00,ZGNN 170300Z AUTO 22002KT 4SM 32/26 A2980 RMK SLP085 T03160265 52002 IEM_DS3505
ZGNN,2001-09-17 04:00,ZGNN 170400Z AUTO 33/25 A2977 RMK T03300250 IEM_DS3505
ZGNN,2001-09-17 05:00,ZGNN 170500Z AUTO 7SM 33/24 A2974 RMK T03300240 IEM_DS3505
ZGNN,2001-09-17 06:00,ZGNN 170600Z AUTO 27006KT 7SM 34/26 A2971 RMK SLP057 T03440256 57027 IEM_DS3505
ZGNN,2001-09-17 07:00,ZGNN 170700Z AUTO 7SM 35/24 A2968 RMK T03500240 IEM_DS3505
ZGNN,2001-09-17 08:00,ZGNN 170800Z AUTO 19002KT 7SM 35/24 A2968 RMK T03500240 IEM_DS3505
ZGNN,2001-09-17 09:00,ZGNN 170900Z AUTO 22004KT 7SM 35/26 A2965 RMK SLP040 T03460255 57017 IEM_DS3505
ZGNN,2001-09-17 10:00,ZGNN 171000Z AUTO 21002KT 7SM 33/24 A2965 RMK T03300240 IEM_DS3505
ZGNN,2001-09-17 11:00,ZGNN 171100Z AUTO 7SM 32/25 A2965 RMK T03200250 IEM_DS3505
ZGNN,2001-09-17 12:00,ZGNN 171200Z AUTO 00000KT 7SM 30/26 A2968 RMK SLP054 T03010261 52013 IEM_DS3505
ZGNN,2001-09-17 13:00,ZGNN 171300Z AUTO 5SM 30/25 A2971 RMK T03000250 IEM_DS3505
ZGNN,2001-09-17 14:00,ZGNN 171400Z AUTO 12002KT 3SM 29/25 A2974 RMK T02900250 IEM_DS3505
ZGNN,2001-09-17 15:00,ZGNN 171500Z AUTO 22002KT 7SM 28/26 A2974 RMK SLP070 T02840263 52017 IEM_DS3505
ZGNN,2001-09-17 16:00,ZGNN 171600Z AUTO 3SM 28/25 A2974 RMK T02800250 IEM_DS3505
ZGNN,2001-09-17 17:00,ZGNN 171700Z AUTO 2 1/2SM 27/25 A2974 RMK T02700250 IEM_DS3505
ZGNN,2001-09-17 18:00,ZGNN 171800Z AUTO 20002KT 6SM 28/26 A2974 RMK SLP065 T02750261 57004 IEM_DS3505
ZGNN,2001-09-17 19:00,ZGNN 171900Z AUTO 33004KT 2 1/2SM 27/25 A2971 RMK T02700250 IEM_DS3505
ZGNN,2001-09-17 20:00,ZGNN 172000Z AUTO 1 1/2SM 27/25 A2974 RMK T02700250 IEM_DS3505
ZGNN,2001-09-17 21:00,ZGNN 172100Z AUTO 00000KT 6SM 27/26 A2971 RMK SLP060 T02660255 57005 IEM_DS3505
ZGNN,2001-09-18 00:00,ZGNN 180000Z AUTO 00000KT 2SM 27/26 A2977 RMK 60016 SLP081 T02680257 52019 IEM_DS3505
ZGNN,2001-09-18 01:00,ZGNN 180100Z AUTO 4SM 28/24 A2977 RMK T02800240 IEM_DS3505
ZGNN,2001-09-18 02:00,ZGNN 180200Z AUTO 4SM 29/24 A2980 RMK T02900240 IEM_DS3505
ZGNN,2001-09-18 03:00,ZGNN 180300Z AUTO 22006KT 4SM 29/25 A2980 RMK SLP091 T02880254 52010 IEM_DS3505
ZGNN,2001-09-18 04:00,ZGNN 180400Z AUTO 5SM 30/25 A2977 RMK T03000250 IEM_DS3505
ZGNN,2001-09-18 05:00,ZGNN 180500Z AUTO 6SM 32/23 A2977 RMK T03200230 IEM_DS3505
ZGNN,2001-09-18 06:00,ZGNN 180600Z AUTO 22004KT 7SM 33/26 A2971 RMK 60001 SLP061 T03270258 57029 IEM_DS3505
ZGNN,2001-09-18 07:00,ZGNN 180700Z AUTO 7SM 33/24 A2971 RMK T03300240 IEM_DS3505
ZGNN,2001-09-18 08:00,ZGNN 180800Z AUTO 7SM 32/24 A2968 RMK T03200240 IEM_DS3505
ZGNN,2001-09-18 09:00,ZGNN 180900Z AUTO 14004KT 7SM 32/26 A2968 RMK SLP045 T03180263 57016 IEM_DS3505
ZGNN,2001-09-18 10:00,ZGNN 181000Z AUTO 06006KT 5SM 31/25 A2968 RMK T03100250 IEM_DS3505
ZGNN,2001-09-18 11:00,ZGNN 181100Z AUTO 07002KT 4SM 29/25 A2968 RMK T02900250 IEM_DS3505
ZGNN,2001-09-18 12:00,ZGNN 181200Z AUTO 14002KT 4SM 29/26 A2971 RMK 60000 SLP059 T02860261 52013 IEM_DS3505
ZGNN,2001-09-18 13:00,ZGNN 181300Z AUTO 5SM 29/25 A2974 RMK T02900250 IEM_DS3505
ZGNN,2001-09-18 14:00,ZGNN 181400Z AUTO 04004KT 5SM 27/24 A2974 RMK T02700240 IEM_DS3505
ZGNN,2001-09-18 15:00,ZGNN 181500Z AUTO 00000KT 4SM 26/25 A2974 RMK SLP071 T02620249 52012 IEM_DS3505
ZGNN,2001-09-18 16:00,ZGNN 181600Z AUTO 11002KT 3SM 27/24 A2974 RMK T02700240 IEM_DS3505
ZGNN,2001-09-18 17:00,ZGNN 181700Z AUTO 3SM 26/24 A2974 RMK T02600240 IEM_DS3505
ZGNN,2001-09-18 18:00,ZGNN 181800Z AUTO 00000KT 4SM 25/24 A2974 RMK SLP069 T02510245 57001 IEM_DS3505
ZGNN,2001-09-18 19:00,ZGNN 181900Z AUTO 2SM 25/24 A2974 RMK T02500240 IEM_DS3505
ZGNN,2001-09-18 20:00,ZGNN 182000Z AUTO 2SM 25/24 A2974 RMK T02500240 IEM_DS3505
ZGNN,2001-09-18 21:00,ZGNN 182100Z AUTO 00000KT 4SM 24/24 A2974 RMK 70019 SLP066 T02440240 57004 IEM_DS3505
ZGNN,2001-09-18 22:00,ZGNN 182200Z AUTO 05002KT 2SM 25/23 A2974 RMK T02500230 IEM_DS3505
ZGNN,2001-09-18 23:00,ZGNN 182300Z AUTO 1 1/4SM 24/23 A2977 RMK T02400230 IEM_DS3505
ZGNN,2001-09-19 00:00,ZGNN 190000Z AUTO 00000KT 2SM 25/24 A2977 RMK 70002 SLP082 T02510245 52015 IEM_DS3505
ZGNN,2001-09-19 01:00,ZGNN 190100Z AUTO 1 1/2SM 26/24 A2980 RMK T02600240 IEM_DS3505
ZGNN,2001-09-19 02:00,ZGNN 190200Z AUTO 2 1/2SM 28/24 A2980 RMK T02800240 IEM_DS3505
ZGNN,2001-09-19 03:00,ZGNN 190300Z AUTO 18006KT 3SM 30/26 A2980 RMK SLP089 T02980259 52008 IEM_DS3505
ZGNN,2001-09-19 04:00,ZGNN 190400Z AUTO 31/24 A2980 RMK T03100240 IEM_DS3505
ZGNN,2001-09-19 05:00,ZGNN 190500Z AUTO 6SM 32/24 A2977 RMK T03200240 IEM_DS3505
ZGNN,2001-09-19 06:00,ZGNN 190600Z AUTO 00000KT 6SM 32/24 A2971 RMK SLP061 T03220245 57027 IEM_DS3505
ZGNN,2001-09-19 07:00,ZGNN 190700Z AUTO 06004KT 7SM 33/22 A2968 RMK T03300220 IEM_DS3505
ZGNN,2001-09-19 08:00,ZGNN 190800Z AUTO 7SM 33/22 A2968 RMK T03300220 IEM_DS3505
ZGNN,2001-09-19 09:00,ZGNN 190900Z AUTO 09006KT 7SM 33/22 A2968 RMK SLP044 T03340225 57017 IEM_DS3505
ZGNN,2001-09-19 10:00,ZGNN 191000Z AUTO 10004KT 6SM 32/23 A2968 RMK T03200230 IEM_DS3505
ZGNN,2001-09-19 11:00,ZGNN 191100Z AUTO 12002KT 6SM 30/24 A2968 RMK T03000240 IEM_DS3505
ZGNN,2001-09-19 12:00,ZGNN 191200Z AUTO 00000KT 6SM 27/25 A2968 RMK SLP057 T02720252 52011 IEM_DS3505
ZGNN,2001-09-19 13:00,ZGNN 191300Z AUTO 5SM 28/25 A2971 RMK T02800250 IEM_DS3505
ZGNN,2001-09-19 15:00,ZGNN 191500Z AUTO 00000KT 5SM 26/25 A2974 RMK SLP075 T02620248 52019 IEM_DS3505
ZGNN,2001-09-19 18:00,ZGNN 191800Z AUTO 00000KT 5SM 25/24 RMK SLP075 T02540245 54000 IEM_DS3505
ZGNN,2001-09-19 21:00,ZGNN 192100Z AUTO 00000KT 3SM 24/24 A2974 RMK SLP071 T02450239 57003 IEM_DS3505
ZGNN,2001-09-19 22:00,ZGNN 192200Z AUTO 02002KT 2 1/2SM 25/23 A2977 RMK T02500230 IEM_DS3505
ZGNN,2001-09-19 23:00,ZGNN 192300Z AUTO 36002KT 1 1/2SM 25/23 A2977 RMK T02500230 IEM_DS3505
ZGNN,2001-09-20 00:00,ZGNN 200000Z AUTO 00000KT 2 1/2SM 25/25 A2980 RMK SLP091 T02520246 52018 IEM_DS3505
ZGNN,2001-09-20 01:00,ZGNN 200100Z AUTO 2SM 28/23 A2983 RMK T02800230 IEM_DS3505
ZGNN,2001-09-20 02:00,ZGNN 200200Z AUTO 2SM 29/23 A2983 RMK T02900230 IEM_DS3505
ZGNN,2001-09-20 03:00,ZGNN 200300Z AUTO 36006KT 3SM 30/23 A2983 RMK SLP097 T03010231 52007 IEM_DS3505
ZGNN,2001-09-20 04:00,ZGNN 200400Z AUTO 36006KT 2 1/2SM 31/22 A2980 RMK T03100220 IEM_DS3505
ZGNN,2001-09-20 05:00,ZGNN 200500Z AUTO 2SM 32/23 A2977 RMK T03200230 IEM_DS3505
ZGNN,2001-09-20 06:00,ZGNN 200600Z AUTO 04004KT 4SM 33/22 A2977 RMK SLP075 T03280219 57021 IEM_DS3505
ZGNN,2001-09-20 07:00,ZGNN 200700Z AUTO 2 1/2SM 33/22 A2974 RMK T03300220 IEM_DS3505
ZGNN,2001-09-20 08:00,ZGNN 200800Z AUTO 05006KT 3SM 33/21 A2971 RMK T03300210 IEM_DS3505
ZGNN,2001-09-20 09:00,ZGNN 200900Z AUTO 00000KT 4SM 28/25 A2971 RMK SLP064 T02820254 57013 IEM_DS3505
ZGNN,2001-09-20 10:00,ZGNN 201000Z AUTO 01008KT 3SM 31/21 A2971 RMK T03100210 IEM_DS3505
ZGNN,2001-09-20 11:00,ZGNN 201100Z AUTO 2SM 29/22 A2974 RMK T02900220 IEM_DS3505
ZGNN,2001-09-20 12:00,ZGNN 201200Z AUTO 00000KT 6SM 26/24 A2974 RMK 60012 SLP076 T02600243 52012 IEM_DS3505
ZGNN,2001-09-20 13:00,ZGNN 201300Z AUTO 2SM 27/23 A2977 RMK T02700230 IEM_DS3505
ZGNN,2001-09-20 14:00,ZGNN 201400Z AUTO 2SM 26/23 A2980 RMK T02600230 IEM_DS3505
ZGNN,2001-09-20 15:00,ZGNN 201500Z AUTO 00000KT 6SM 25/24 A2983 RMK SLP098 T02500238 52023 IEM_DS3505
ZGNN,2001-09-20 16:00,ZGNN 201600Z AUTO 2SM 25/23 A2983 RMK T02500230 IEM_DS3505
ZGNN,2001-09-20 17:00,ZGNN 201700Z AUTO 1 1/2SM 26/23 A2983 RMK T02600230 IEM_DS3505
ZGNN,2001-09-20 18:00,ZGNN 201800Z AUTO 00000KT 7SM 25/23 A2983 RMK SLP100 T02460231 52002 IEM_DS3505
ZGNN,2001-09-20 19:00,ZGNN 201900Z AUTO 1 1/2SM 26/23 A2983 RMK T02600230 IEM_DS3505
ZGNN,2001-09-20 20:00,ZGNN 202000Z AUTO 2SM 24/22 A2980 RMK T02400220 IEM_DS3505
ZGNN,2001-09-20 21:00,ZGNN 202100Z AUTO 00000KT 5SM 23/22 A2980 RMK 70011 SLP092 T02320222 57009 IEM_DS3505
ZGNN,2001-09-20 22:00,ZGNN 202200Z AUTO 2 1/2SM 24/22 A2980 RMK T02400220 IEM_DS3505
ZGNN,2001-09-20 23:00,ZGNN 202300Z AUTO 1 1/2SM 24/21 A2980 RMK T02400210 IEM_DS3505
ZGNN,2001-09-21 00:00,ZGNN 210000Z AUTO 00000KT 3SM 24/23 A2983 RMK 70011 SLP103 T02410231 52010 IEM_DS3505
ZGNN,2001-09-21 01:00,ZGNN 210100Z AUTO 33006KT 4SM 27/20 A2985 RMK T02700200 IEM_DS3505
ZGNN,2001-09-21 02:00,ZGNN 210200Z AUTO 33006KT 6SM 28/21 A2985 RMK T02800210 IEM_DS3505
ZGNN,2001-09-21 03:00,ZGNN 210300Z AUTO 36006KT 9SM 28/21 A2985 RMK SLP109 T02810208 52007 IEM_DS3505
ZGNN,2001-09-21 04:00,ZGNN 210400Z AUTO 35006KT 7SM 29/20 A2985 RMK T02900200 IEM_DS3505
ZGNN,2001-09-21 05:00,ZGNN 210500Z AUTO 35008KT 7SM 30/20 A2983 RMK T03000200 IEM_DS3505
ZGNN,2001-09-21 06:00,ZGNN 210600Z AUTO 36004KT 12SM 30/21 A2980 RMK SLP093 T02960214 57016 IEM_DS3505
ZGNN,2001-09-21 07:00,ZGNN 210700Z AUTO 01008KT 7SM 30/20 A2980 RMK T03000200 IEM_DS3505
ZGNN,2001-09-21 08:00,ZGNN 210800Z AUTO 08004KT 7SM 25/23 A2980 RMK T02500230 IEM_DS3505
ZGNN,2001-09-21 09:00,ZGNN 210900Z AUTO 36010KT 9SM 26/22 A2980 RMK SLP092 T02590225 57002 IEM_DS3505
ZGNN,2001-09-21 10:00,ZGNN 211000Z AUTO 03006KT 7SM 24/22 A2980 RMK T02400220 IEM_DS3505
ZGNN,2001-09-21 11:00,ZGNN 211100Z AUTO 06006KT 4SM 24/22 A2983 RMK T02400220 IEM_DS3505
ZGNN,2001-09-21 12:00,ZGNN 211200Z AUTO 00000KT 7SM 24/23 A2983 RMK 60008 SLP101 T02380226 52009 IEM_DS3505
ZGNN,2001-09-21 13:00,ZGNN 211300Z AUTO 06004KT 4SM 24/22 A2985 RMK T02400220 IEM_DS3505
ZGNN,2001-09-21 14:00,ZGNN 211400Z AUTO 07002KT 5SM 23/21 A2988 RMK T02300210 IEM_DS3505
ZGNN,2001-09-21 15:00,ZGNN 211500Z AUTO 00000KT 7SM 24/22 A2988 RMK SLP126 T02360221 52025 IEM_DS3505
ZGNN,2001-09-21 16:00,ZGNN 211600Z AUTO 05006KT 7SM 23/21 A2988 RMK T02300210 IEM_DS3505
ZGNN,2001-09-21 17:00,ZGNN 211700Z AUTO 05006KT 5SM 22/21 A2988 RMK T02200210 IEM_DS3505
ZGNN,2001-09-21 18:00,ZGNN 211800Z AUTO 00000KT 4SM 22/22 A2988 RMK 60002 SLP116 T02240217 57009 IEM_DS3505
ZGNN,2001-09-21 19:00,ZGNN 211900Z AUTO 36002KT 2 1/2SM 22/21 A2985 RMK T02200210 IEM_DS3505
ZGNN,2001-09-21 20:00,ZGNN 212000Z AUTO 36004KT 3SM 22/21 A2985 RMK T02200210 IEM_DS3505
ZGNN,2001-09-21 21:00,ZGNN 212100Z AUTO 34002KT 4SM 22/21 RMK 70076 SLP114 T02170212 57003 IEM_DS3505
ZGNN,2001-09-21 22:00,ZGNN 212200Z AUTO 36006KT 4SM 22/20 A2985 RMK T02200200 IEM_DS3505
ZGNN,2001-09-21 23:00,ZGNN 212300Z AUTO 35004KT 4SM 21/20 A2988 RMK T02100200 IEM_DS3505
ZGNN,2001-09-22 00:00,ZGNN 220000Z AUTO 18002KT 4SM 22/21 A2988 RMK 60142 SLP128 T02160213 52013 IEM_DS3505
ZGNN,2001-09-22 01:00,ZGNN 220100Z AUTO 4SM 22/21 A2991 RMK T02200210 IEM_DS3505
ZGNN,2001-09-22 02:00,ZGNN 220200Z AUTO 5SM 22/21 A2991 RMK T02200210 IEM_DS3505
ZGNN,2001-09-22 03:00,ZGNN 220300Z AUTO 04004KT 4SM 23/22 A2994 RMK SLP137 T02260222 52009 IEM_DS3505
ZGNN,2001-09-22 04:00,ZGNN 220400Z AUTO 4SM 23/21 A2994 RMK T02300210 IEM_DS3505
ZGNN,2001-09-22 05:00,ZGNN 220500Z AUTO 2 1/2SM 23/22 A2991 RMK T02300220 IEM_DS3505
ZGNN,2001-09-22 06:00,ZGNN 220600Z AUTO 32004KT 5SM 25/23 A2988 RMK 60008 SLP123 T02500233 57014 IEM_DS3505
ZGNN,2001-09-22 07:00,ZGNN 220700Z AUTO 34004KT 3SM 24/22 A2988 RMK T02400220 IEM_DS3505
ZGNN,2001-09-22 09:00,ZGNN 220900Z AUTO 00000KT 6SM 23/23 A2985 RMK SLP113 T02300227 57010 IEM_DS3505
ZGNN,2001-09-22 10:00,ZGNN 221000Z AUTO 7SM 24/22 A2985 RMK T02400220 IEM_DS3505
ZGNN,2001-09-22 11:00,ZGNN 221100Z AUTO 13002KT 5SM 24/22 A2988 RMK T02400220 IEM_DS3505
ZGNN,2001-09-22 12:00,ZGNN 221200Z AUTO 00000KT 9SM 23/23 A2988 RMK 60067 SLP127 T02340228 52014 IEM_DS3505
ZGNN,2001-09-22 13:00,ZGNN 221300Z AUTO 27002KT 4SM 23/22 A2991 RMK T02300220 IEM_DS3505
ZGNN,2001-09-22 14:00,ZGNN 221400Z AUTO 4SM 23/22 A2991 RMK T02300220 IEM_DS3505
ZGNN,2001-09-22 15:00,ZGNN 221500Z AUTO 34004KT 7SM 23/23 A2991 RMK SLP133 T02330227 52006 IEM_DS3505
ZGNN,2001-09-22 16:00,ZGNN 221600Z AUTO 4SM 23/22 A2991 RMK T02300220 IEM_DS3505
ZGNN,2001-09-22 17:00,ZGNN 221700Z AUTO 01002KT 2SM 23/22 A2991 RMK T02300220 IEM_DS3505
ZGNN,2001-09-22 18:00,ZGNN 221800Z AUTO 36002KT 7SM 23/22 A2991 RMK 60003 SLP126 T02340225 57006 IEM_DS3505
ZGNN,2001-09-22 19:00,ZGNN 221900Z AUTO 36002KT 3SM 23/22 A2988 RMK T02300220 IEM_DS3505
ZGNN,2001-09-22 20:00,ZGNN 222000Z AUTO 3SM 23/22 A2988 RMK T02300220 IEM_DS3505
ZGNN,2001-09-22 21:00,ZGNN 222100Z AUTO 00000KT 6SM 23/23 A2988 RMK 70148 SLP125 T02320226 57002 IEM_DS3505
ZGNN,2001-09-22 22:00,ZGNN 222200Z AUTO 02002KT 2 1/2SM 23/22 A2991 RMK T02300220 IEM_DS3505
ZGNN,2001-09-22 23:00,ZGNN 222300Z AUTO 06002KT 2 1/2SM 23/22 A2991 RMK T02300220 IEM_DS3505
ZGNN,2001-09-23 00:00,ZGNN 230000Z AUTO 00000KT 2SM 24/23 A2994 RMK 70076 SLP142 T02350229 52017 IEM_DS3505
ZGNN,2001-09-23 01:00,ZGNN 230100Z AUTO 7SM 24/21 A2994 RMK T02400210 IEM_DS3505
ZGNN,2001-09-23 02:00,ZGNN 230200Z AUTO 7SM 26/21 A2997 RMK T02600210 IEM_DS3505
ZGNN,2001-09-23 03:00,ZGNN 230300Z AUTO 36004KT 7SM 27/22 A2997 RMK SLP146 T02700225 52005 IEM_DS3505
ZGNN,2001-09-23 04:00,ZGNN 230400Z AUTO 7SM 28/21 A2994 RMK T02800210 IEM_DS3505
ZGNN,2001-09-23 05:00,ZGNN 230500Z AUTO 7SM 28/21 A2991 RMK T02800210 IEM_DS3505
ZGNN,2001-09-23 06:00,ZGNN 230600Z AUTO 27004KT 7SM 28/22 A2988 RMK SLP115 T02840216 57030 IEM_DS3505
ZGNN,2001-09-23 07:00,ZGNN 230700Z AUTO 7SM 30/20 A2985 RMK T03000200 IEM_DS3505
ZGNN,2001-09-23 08:00,ZGNN 230800Z AUTO 7SM 30/22 A2983 RMK T03000220 IEM_DS3505
ZGNN,2001-09-23 09:00,ZGNN 230900Z AUTO 32004KT 12SM 30/22 A2983 RMK SLP096 T02970220 57019 IEM_DS3505
ZGNN,2001-09-23 10:00,ZGNN 231000Z AUTO 6SM 29/22 A2980 RMK T02900220 IEM_DS3505
ZGNN,2001-09-23 11:00,ZGNN 231100Z AUTO 29002KT 7SM 28/22 A2983 RMK T02800220 IEM_DS3505
ZGNN,2001-09-23 12:00,ZGNN 231200Z AUTO 00000KT 11SM 26/24 A2983 RMK SLP102 T02590236 52005 IEM_DS3505
ZGNN,2001-09-23 14:00,ZGNN 231400Z AUTO 4SM 25/23 A2985 RMK T02500230 IEM_DS3505
ZGNN,2001-09-23 15:00,ZGNN 231500Z AUTO 00000KT 9SM 24/23 A2985 RMK SLP115 T02390227 52013 IEM_DS3505
ZGNN,2001-09-23 16:00,ZGNN 231600Z AUTO 4SM 24/22 A2985 RMK T02400220 IEM_DS3505
ZGNN,2001-09-23 17:00,ZGNN 231700Z AUTO 3SM 23/22 A2985 RMK T02300220 IEM_DS3505
ZGNN,2001-09-23 18:00,ZGNN 231800Z AUTO 00000KT 7SM 22/22 A2985 RMK SLP111 T02230220 57004 IEM_DS3505
ZGNN,2001-09-23 19:00,ZGNN 231900Z AUTO 3SM 23/21 A2985 RMK T02300210 IEM_DS3505
ZGNN,2001-09-23 20:00,ZGNN 232000Z AUTO 2 1/2SM 22/21 A2985 RMK T02200210 IEM_DS3505
ZGNN,2001-09-23 21:00,ZGNN 232100Z AUTO 00000KT 6SM 21/21 A2985 RMK SLP108 T02130210 57003 IEM_DS3505
ZGNN,2001-09-23 22:00,ZGNN 232200Z AUTO 2SM 22/21 A2985 RMK T02200210 IEM_DS3505
ZGNN,2001-09-23 23:00,ZGNN 232300Z AUTO 1SM 22/21 A2985 RMK T02200210 IEM_DS3505
ZGNN,2001-09-24 00:00,ZGNN 240000Z AUTO 16002KT 2 1/2SM 23/22 A2988 RMK SLP119 T02280225 52011 IEM_DS3505
ZGNN,2001-09-24 01:00,ZGNN 240100Z AUTO 2 1/2SM 25/23 A2991 RMK T02500230 IEM_DS3505
ZGNN,2001-09-24 02:00,ZGNN 240200Z AUTO 5SM 27/22 A2991 RMK T02700220 IEM_DS3505
ZGNN,2001-09-24 03:00,ZGNN 240300Z AUTO 27004KT 6SM 28/22 A2988 RMK SLP124 T02830225 52005 IEM_DS3505
ZGNN,2001-09-24 04:00,ZGNN 240400Z AUTO 7SM 29/21 A2988 RMK T02900210 IEM_DS3505
ZGNN,2001-09-24 05:00,ZGNN 240500Z AUTO 7SM 30/21 A2985 RMK T03000210 IEM_DS3505
ZGNN,2001-09-24 06:00,ZGNN 240600Z AUTO 27004KT 12SM 31/22 A2983 RMK SLP095 T03070224 57028 IEM_DS3505
ZGNN,2001-09-24 07:00,ZGNN 240700Z AUTO 7SM 30/21 A2980 RMK T03000210 IEM_DS3505
ZGNN,2001-09-24 08:00,ZGNN 240800Z AUTO 35006KT 7SM 31/20 A2977 RMK T03100200 IEM_DS3505
ZGNN,2001-09-24 09:00,ZGNN 240900Z AUTO 32006KT 12SM 31/22 A2977 RMK SLP081 T03070216 57014 IEM_DS3505
ZGNN,2001-09-24 10:00,ZGNN 241000Z AUTO 6SM 30/21 A2977 RMK T03000210 IEM_DS3505
ZGNN,2001-09-24 11:00,ZGNN 241100Z AUTO 6SM 28/21 A2977 RMK T02800210 IEM_DS3505
ZGNN,2001-09-24 12:00,ZGNN 241200Z AUTO 00000KT 11SM 26/23 A2980 RMK SLP086 T02610231 52004 IEM_DS3505
ZGNN,2001-09-24 13:00,ZGNN 241300Z AUTO 6SM 26/22 A2980 RMK T02600220 IEM_DS3505
ZGNN,2001-09-24 14:00,ZGNN 241400Z AUTO 5SM 26/22 A2983 RMK T02600220 IEM_DS3505
ZGNN,2001-09-24 15:00,ZGNN 241500Z AUTO 00000KT 9SM 24/22 A2983 RMK SLP101 T02350222 52016 IEM_DS3505
ZGNN,2001-09-24 16:00,ZGNN 241600Z AUTO 25002KT 3SM 24/21 A2983 RMK T02400210 IEM_DS3505
ZGNN,2001-09-24 17:00,ZGNN 241700Z AUTO 2SM 23/22 A2983 RMK T02300220 IEM_DS3505
ZGNN,2001-09-24 18:00,ZGNN 241800Z AUTO 00000KT 7SM 22/21 A2983 RMK SLP097 T02210213 57004 IEM_DS3505
ZGNN,2001-09-24 19:00,ZGNN 241900Z AUTO 2 1/2SM 23/21 A2983 RMK T02300210 IEM_DS3505
ZGNN,2001-09-24 20:00,ZGNN 242000Z AUTO 3SM 23/21 A2983 RMK T02300210 IEM_DS3505
ZGNN,2001-09-24 21:00,ZGNN 242100Z AUTO 00000KT 7SM 22/21 A2983 RMK SLP097 T02150213 54000 IEM_DS3505
ZGNN,2001-09-24 22:00,ZGNN 242200Z AUTO 2 1/2SM 22/21 A2983 RMK T02200210 IEM_DS3505
ZGNN,2001-09-24 23:00,ZGNN 242300Z AUTO 1SM 22/21 A2983 RMK T02200210 IEM_DS3505
ZGNN,2001-09-25 00:00,ZGNN 250000Z AUTO 00000KT 3SM 22/22 A2985 RMK SLP113 T02220219 52015 IEM_DS3505
ZGNN,2001-09-25 01:00,ZGNN 250100Z AUTO 3SM 26/22 A2988 RMK T02600220 IEM_DS3505
ZGNN,2001-09-25 02:00,ZGNN 250200Z AUTO 36008KT 6SM 28/18 A2988 RMK T02800180 IEM_DS3505
ZGNN,2001-09-25 03:00,ZGNN 250300Z AUTO 04006KT 7SM 29/20 A2988 RMK SLP119 T02890200 52007 IEM_DS3505
ZGNN,2001-09-25 04:00,ZGNN 250400Z AUTO 33006KT 6SM 30/20 A2988 RMK T03000200 IEM_DS3505
ZGNN,2001-09-25 05:00,ZGNN 250500Z AUTO 33006KT 7SM 30/19 A2983 RMK T03000190 IEM_DS3505
ZGNN,2001-09-25 06:00,ZGNN 250600Z AUTO 00000KT 12SM 31/19 A2980 RMK SLP089 T03080190 57030 IEM_DS3505
ZGNN,2001-09-25 07:00,ZGNN 250700Z AUTO 32008KT 7SM 31/18 A2977 RMK T03100180 IEM_DS3505
ZGNN,2001-09-25 08:00,ZGNN 250800Z AUTO 33008KT 7SM 31/19 A2977 RMK T03100190 IEM_DS3505
ZGNN,2001-09-25 09:00,ZGNN 250900Z AUTO 32006KT 15SM 31/19 RMK SLP072 T03080193 57017 IEM_DS3505
ZGNN,2001-09-25 10:00,ZGNN 251000Z AUTO 6SM 30/19 A2974 RMK T03000190 IEM_DS3505
ZGNN,2001-09-25 11:00,ZGNN 251100Z AUTO 32002KT 6SM 28/20 A2974 RMK T02800200 IEM_DS3505
ZGNN,2001-09-25 12:00,ZGNN 251200Z AUTO 00000KT 9SM 26/22 A2977 RMK SLP082 T02610215 52009 IEM_DS3505
ZGNN,2001-09-25 13:00,ZGNN 251300Z AUTO 36004KT 6SM 27/21 A2980 RMK T02700210 IEM_DS3505
ZGNN,2001-09-25 14:00,ZGNN 251400Z AUTO 6SM 25/21 A2980 RMK T02500210 IEM_DS3505
ZGNN,2001-09-25 15:00,ZGNN 251500Z AUTO 00000KT 6SM 23/22 A2983 RMK SLP098 T02340218 52017 IEM_DS3505
ZGNN,2001-09-25 16:00,ZGNN 251600Z AUTO 03002KT 3SM 23/21 A2983 RMK T02300210 IEM_DS3505
ZGNN,2001-09-25 17:00,ZGNN 251700Z AUTO 3SM 24/21 A2980 RMK T02400210 IEM_DS3505
ZGNN,2001-09-25 18:00,ZGNN 251800Z AUTO 00000KT 6SM 24/20 A2980 RMK SLP087 T02350198 57010 IEM_DS3505
ZGNN,2001-09-25 19:00,ZGNN 251900Z AUTO 36004KT 3SM 24/19 A2980 RMK T02400190 IEM_DS3505
ZGNN,2001-09-25 20:00,ZGNN 252000Z AUTO 05002KT 2 1/2SM 23/19 A2980 RMK T02300190 IEM_DS3505
ZGNN,2001-09-25 21:00,ZGNN 252100Z AUTO 36004KT 6SM 23/20 A2980 RMK SLP088 T02260195 54000 IEM_DS3505
ZGNN,2001-09-25 23:00,ZGNN 252300Z AUTO 2SM 22/20 A2983 RMK T02200200 IEM_DS3505
ZGNN,2001-09-26 00:00,ZGNN 260000Z AUTO 00000KT 5SM 22/20 A2985 RMK SLP106 T02200205 52017 IEM_DS3505
ZGNN,2001-09-26 01:00,ZGNN 260100Z AUTO 3SM 25/19 A2985 RMK T02500190 IEM_DS3505
ZGNN,2001-09-26 02:00,ZGNN 260200Z AUTO 5SM 27/19 A2985 RMK T02700190 IEM_DS3505
ZGNN,2001-09-26 03:00,ZGNN 260300Z AUTO 36006KT 5SM 28/18 A2985 RMK SLP105 T02760185 57001 IEM_DS3505
ZGNN,2001-09-26 04:00,ZGNN 260400Z AUTO 01006KT 29/18 A2983 RMK T02900180 IEM_DS3505
ZGNN,2001-09-26 05:00,ZGNN 260500Z AUTO 35006KT 5SM 29/19 A2977 RMK T02900190 IEM_DS3505
ZGNN,2001-09-26 06:00,ZGNN 260600Z AUTO 29006KT 6SM 30/20 A2974 RMK SLP069 T02990204 57034 IEM_DS3505
ZGNN,2001-09-26 07:00,ZGNN 260700Z AUTO 5SM 31/17 A2971 RMK T03100170 IEM_DS3505
ZGNN,2001-09-26 08:00,ZGNN 260800Z AUTO 34006KT 7SM 30/18 A2971 RMK T03000180 IEM_DS3505
ZGNN,2001-09-26 09:00,ZGNN 260900Z AUTO 32006KT 7SM 30/19 A2971 RMK SLP058 T03030194 57011 IEM_DS3505
ZGNN,2001-09-26 10:00,ZGNN 261000Z AUTO 32004KT 6SM 30/19 A2971 RMK T03000190 IEM_DS3505
ZGNN,2001-09-26 11:00,ZGNN 261100Z AUTO 31002KT 6SM 28/20 A2974 RMK T02800200 IEM_DS3505
ZGNN,2001-09-26 12:00,ZGNN 261200Z AUTO 00000KT 6SM 26/22 A2974 RMK SLP077 T02590221 52017 IEM_DS3505
ZGNN,2001-09-26 13:00,ZGNN 261300Z AUTO 02002KT 4SM 26/21 A2977 RMK T02600210 IEM_DS3505
ZGNN,2001-09-26 14:00,ZGNN 261400Z AUTO 31002KT 4SM 26/21 A2980 RMK T02600210 IEM_DS3505
ZGNN,2001-09-26 15:00,ZGNN 261500Z AUTO 00000KT 5SM 23/22 A2980 RMK SLP096 T02330217 52020 IEM_DS3505
ZGNN,2001-09-26 16:00,ZGNN 261600Z AUTO 20002KT 2SM 23/21 A2980 RMK T02300210 IEM_DS3505
ZGNN,2001-09-26 17:00,ZGNN 261700Z AUTO 2SM 23/21 A2980 RMK T02300210 IEM_DS3505
ZGNN,2001-09-26 18:00,ZGNN 261800Z AUTO 00000KT 5SM 22/21 A2980 RMK SLP091 T02200214 57005 IEM_DS3505
ZGNN,2001-09-26 19:00,ZGNN 261900Z AUTO 20002KT 1SM 23/21 A2980 RMK T02300210 IEM_DS3505
ZGNN,2001-09-26 20:00,ZGNN 262000Z AUTO 1 1/2SM 23/21 A2980 RMK T02300210 IEM_DS3505
ZGNN,2001-09-26 21:00,ZGNN 262100Z AUTO 00000KT 4SM 22/21 A2980 RMK SLP094 T02180212 52003 IEM_DS3505
ZGNN,2001-09-26 22:00,ZGNN 262200Z AUTO 1 1/4SM 22/21 A2983 RMK T02200210 IEM_DS3505
ZGNN,2001-09-26 23:00,ZGNN 262300Z AUTO 12002KT 2SM 22/21 A2983 RMK T02200210 IEM_DS3505
ZGNN,2001-09-27 00:00,ZGNN 270000Z AUTO 00000KT 4SM 22/22 A2985 RMK SLP110 T02220216 52015 IEM_DS3505
ZGNN,2001-09-27 01:00,ZGNN 270100Z AUTO 35006KT 26/19 A2985 RMK T02600190 IEM_DS3505
ZGNN,2001-09-27 02:00,ZGNN 270200Z AUTO 35006KT 6SM 27/19 A2988 RMK T02700190 IEM_DS3505
ZGNN,2001-09-27 03:00,ZGNN 270300Z AUTO 36004KT 6SM 28/17 A2985 RMK SLP114 T02790168 52004 IEM_DS3505
ZGNN,2001-09-27 04:00,ZGNN 270400Z AUTO 01008KT 6SM 29/17 A2985 RMK T02900170 IEM_DS3505
ZGNN,2001-09-27 05:00,ZGNN 270500Z AUTO 34006KT 7SM 30/15 A2983 RMK T03000150 IEM_DS3505
ZGNN,2001-09-27 06:00,ZGNN 270600Z AUTO 32006KT 7SM 30/18 A2980 RMK SLP087 T03020177 57026 IEM_DS3505
ZGNN,2001-09-27 07:00,ZGNN 270700Z AUTO 34006KT 7SM 31/16 A2977 RMK T03100160 IEM_DS3505
ZGNN,2001-09-27 08:00,ZGNN 270800Z AUTO 34006KT 7SM A2974 RMK IEM_DS3505
ZGNN,2001-09-27 09:00,ZGNN 270900Z AUTO 32004KT 7SM 30/18 A2974 RMK SLP087 T03020177 57026 IEM_DS3505
ZGNN,2001-09-27 10:00,ZGNN 271000Z AUTO 6SM 29/17 A2977 RMK T02900170 IEM_DS3505
ZGNN,2001-09-27 11:00,ZGNN 271100Z AUTO 06002KT 6SM 27/19 A2977 RMK T02700190 IEM_DS3505
ZGNN,2001-09-27 12:00,ZGNN 271200Z AUTO 00000KT 9SM 25/20 A2980 RMK SLP089 T02490199 52014 IEM_DS3505
ZGNN,2001-09-27 13:00,ZGNN 271300Z AUTO 4SM 24/19 A2983 RMK T02400190 IEM_DS3505
ZGNN,2001-09-27 14:00,ZGNN 271400Z AUTO 4SM 24/19 A2985 RMK T02400190 IEM_DS3505
ZGNN,2001-09-27 15:00,ZGNN 271500Z AUTO 00000KT 9SM 22/20 A2985 RMK SLP112 T02160199 52023 IEM_DS3505
ZGNN,2001-09-27 16:00,ZGNN 271600Z AUTO 2 1/2SM 22/20 A2985 RMK T02200200 IEM_DS3505
ZGNN,2001-09-27 17:00,ZGNN 271700Z AUTO 2 1/2SM 22/20 A2985 RMK T02200200 IEM_DS3505
ZGNN,2001-09-27 18:00,ZGNN 271800Z AUTO 00000KT 7SM 22/18 A2985 RMK SLP106 T02210176 57005 IEM_DS3505
ZGNN,2001-09-27 19:00,ZGNN 271900Z AUTO 3SM 22/18 A2985 RMK T02200180 IEM_DS3505
ZGNN,2001-09-27 20:00,ZGNN 272000Z AUTO 2SM 22/20 RMK T02200200 IEM_DS3505
ZGNN,2001-09-27 21:00,ZGNN 272100Z AUTO 34006KT 6SM 22/17 A2985 RMK SLP109 T02160174 52003 IEM_DS3505
ZGNN,2001-09-27 22:00,ZGNN 272200Z AUTO 23/17 A2985 RMK T02300170 IEM_DS3505
ZGNN,2001-09-27 23:00,ZGNN 272300Z AUTO 5SM 20/18 A2988 RMK T02000180 IEM_DS3505
ZGNN,2001-09-28 00:00,ZGNN 280000Z AUTO 00000KT 5SM 21/19 A2991 RMK SLP127 T02100191 52016 IEM_DS3505
ZGNN,2001-09-28 01:00,ZGNN 280100Z AUTO 5SM 25/16 A2991 RMK T02500160 IEM_DS3505
ZGNN,2001-09-28 02:00,ZGNN 280200Z AUTO 36008KT 6SM 27/13 A2991 RMK T02700130 IEM_DS3505
ZGNN,2001-09-28 03:00,ZGNN 280300Z AUTO 04008KT 12SM 28/16 A2988 RMK SLP126 T02780159 54000 IEM_DS3505
ZGNN,2001-09-28 04:00,ZGNN 280400Z AUTO 34006KT 6SM 29/15 A2988 RMK T02900150 IEM_DS3505
ZGNN,2001-09-28 05:00,ZGNN 280500Z AUTO 34006KT 6SM 29/14 A2985 RMK T02900140 IEM_DS3505
ZGNN,2001-09-28 06:00,ZGNN 280600Z AUTO 36006KT 12SM 30/16 A2983 RMK SLP099 T03020159 57026 IEM_DS3505
ZGNN,2001-09-28 07:00,ZGNN 280700Z AUTO 6SM 31/14 A2980 RMK T03100140 IEM_DS3505
ZGNN,2001-09-28 08:00,ZGNN 280800Z AUTO 6SM 30/15 A2980 RMK T03000150 IEM_DS3505
ZGNN,2001-09-28 09:00,ZGNN 280900Z AUTO 00000KT 12SM 30/18 A2977 RMK SLP086 T03020180 57013 IEM_DS3505
ZGNN,2001-09-28 10:00,ZGNN 281000Z AUTO 06004KT 6SM 29/18 A2980 RMK T02900180 IEM_DS3505
ZGNN,2001-09-28 11:00,ZGNN 281100Z AUTO 6SM 27/19 A2980 RMK T02700190 IEM_DS3505
ZGNN,2001-09-28 12:00,ZGNN 281200Z AUTO 00000KT 11SM 24/20 A2980 RMK SLP097 T02380201 52009 IEM_DS3505
ZGNN,2001-09-28 13:00,ZGNN 281300Z AUTO 26002KT 6SM 24/19 A2983 RMK T02400190 IEM_DS3505
ZGNN,2001-09-28 14:00,ZGNN 281400Z AUTO 6SM 23/20 A2985 RMK T02300200 IEM_DS3505
ZGNN,2001-09-28 15:00,ZGNN 281500Z AUTO 00000KT 11SM 21/20 A2985 RMK SLP112 T02120200 52016 IEM_DS3505
ZGNN,2001-09-28 16:00,ZGNN 281600Z AUTO 23002KT 3SM 22/20 A2985 RMK T02200200 IEM_DS3505
ZGNN,2001-09-28 17:00,ZGNN 281700Z AUTO 4SM 23/20 A2985 RMK T02300200 IEM_DS3505
ZGNN,2001-09-28 18:00,ZGNN 281800Z AUTO 00000KT 9SM 22/21 A2985 RMK SLP111 T02200212 54000 IEM_DS3505
ZGNN,2001-09-28 19:00,ZGNN 281900Z AUTO 21002KT 2 1/2SM 23/20 A2985 RMK T02300200 IEM_DS3505
ZGNN,2001-09-28 20:00,ZGNN 282000Z AUTO 19002KT 2 1/2SM 22/21 A2985 RMK T02200210 IEM_DS3505
ZGNN,2001-09-28 21:00,ZGNN 282100Z AUTO 00000KT 9SM 23/21 A2985 RMK SLP108 T02290212 57003 IEM_DS3505
ZGNN,2001-09-28 22:00,ZGNN 282200Z AUTO 4SM 22/21 A2985 RMK T02200210 IEM_DS3505
ZGNN,2001-09-28 23:00,ZGNN 282300Z AUTO 19002KT 5SM 22/21 A2988 RMK T02200210 IEM_DS3505
ZGNN,2001-09-29 00:00,ZGNN 290000Z AUTO 27002KT 9SM 23/21 A2991 RMK SLP126 T02340207 52016 IEM_DS3505
ZGNN,2001-09-29 01:00,ZGNN 290100Z AUTO 4SM 25/20 A2991 RMK T02500200 IEM_DS3505
ZGNN,2001-09-29 02:00,ZGNN 290200Z AUTO 6SM 28/18 A2994 RMK T02800180 IEM_DS3505
ZGNN,2001-09-29 03:00,ZGNN 290300Z AUTO 34004KT 9SM 29/18 A2991 RMK SLP132 T02860181 52007 IEM_DS3505
ZGNN,2001-09-29 04:00,ZGNN 290400Z AUTO 6SM 30/17 A2991 RMK T03000170 IEM_DS3505
ZGNN,2001-09-29 05:00,ZGNN 290500Z AUTO 6SM 31/18 A2985 RMK T03100180 IEM_DS3505
ZGNN,2001-09-29 06:00,ZGNN 290600Z AUTO 34006KT 9SM 31/19 A2983 RMK SLP100 T03140190 57031 IEM_DS3505
ZGNN,2001-09-29 07:00,ZGNN 290700Z AUTO 6SM 32/17 A2980 RMK T03200170 IEM_DS3505
ZGNN,2001-09-29 08:00,ZGNN 290800Z AUTO 6SM 32/18 A2980 RMK T03200180 IEM_DS3505
ZGNN,2001-09-29 09:00,ZGNN 290900Z AUTO 34004KT 11SM 32/19 A2980 RMK SLP088 T03180191 57011 IEM_DS3505
ZGNN,2001-09-29 10:00,ZGNN 291000Z AUTO 31004KT 6SM 31/19 A2980 RMK T03100190 IEM_DS3505
ZGNN,2001-09-29 11:00,ZGNN 291100Z AUTO 6SM 27/21 A2980 RMK T02700210 IEM_DS3505
ZGNN,2001-09-29 12:00,ZGNN 291200Z AUTO 00000KT 9SM 26/21 A2983 RMK SLP102 T02550212 52012 IEM_DS3505
ZGNN,2001-09-29 13:00,ZGNN 291300Z AUTO 6SM 25/21 A2985 RMK T02500210 IEM_DS3505
ZGNN,2001-09-29 14:00,ZGNN 291400Z AUTO 3SM 25/21 A2985 RMK T02500210 IEM_DS3505
ZGNN,2001-09-29 15:00,ZGNN 291500Z AUTO 00000KT 9SM 23/21 A2988 RMK SLP120 T02320209 52018 IEM_DS3505
ZGNN,2001-09-29 16:00,ZGNN 291600Z AUTO 28002KT 3SM 24/20 A2988 RMK T02400200 IEM_DS3505
ZGNN,2001-09-29 17:00,ZGNN 291700Z AUTO 3SM 22/20 A2988 RMK T02200200 IEM_DS3505
ZGNN,2001-09-29 18:00,ZGNN 291800Z AUTO 00000KT 7SM 22/20 A2988 RMK SLP118 T02190205 57001 IEM_DS3505
ZGNN,2001-09-29 19:00,ZGNN 291900Z AUTO 01002KT 3SM 23/20 A2988 RMK T02300200 IEM_DS3505
ZGNN,2001-09-29 20:00,ZGNN 292000Z AUTO 36004KT 4SM 24/19 A2988 RMK T02400190 IEM_DS3505
ZGNN,2001-09-29 21:00,ZGNN 292100Z AUTO 07002KT 7SM 22/21 A2988 RMK SLP117 T02220210 57001 IEM_DS3505
ZGNN,2001-09-29 22:00,ZGNN 292200Z AUTO 23002KT 6SM 22/21 A2988 RMK T02200210 IEM_DS3505
ZGNN,2001-09-29 23:00,ZGNN 292300Z AUTO 21002KT 6SM 22/21 A2991 RMK T02200210 IEM_DS3505
ZGNN,2001-09-30 00:00,ZGNN 300000Z AUTO 00000KT 5SM 24/22 A2994 RMK SLP139 T02380220 52021 IEM_DS3505
ZGNN,2001-09-30 01:00,ZGNN 300100Z AUTO 34004KT 6SM 26/20 A2994 RMK T02600200 IEM_DS3505
ZGNN,2001-09-30 02:00,ZGNN 300200Z AUTO 6SM 29/19 A2997 RMK T02900190 IEM_DS3505
ZGNN,2001-09-30 03:00,ZGNN 300300Z AUTO 36006KT 6SM 30/20 A2997 RMK SLP147 T02960205 52008 IEM_DS3505
ZGNN,2001-09-30 04:00,ZGNN 300400Z AUTO 7SM 30/19 A2994 RMK T03000190 IEM_DS3505
ZGNN,2001-09-30 05:00,ZGNN 300500Z AUTO 7SM 31/18 A2991 RMK T03100180 IEM_DS3505
ZGNN,2001-09-30 06:00,ZGNN 300600Z AUTO 32006KT 9SM 31/19 A2988 RMK SLP115 T03080191 57031 IEM_DS3505
ZGNN,2001-09-30 07:00,ZGNN 300700Z AUTO 33008KT 7SM 31/19 A2985 RMK T03100190 IEM_DS3505
ZGNN,2001-09-30 08:00,ZGNN 300800Z AUTO 31006KT 7SM 32/18 A2983 RMK T03200180 IEM_DS3505
ZGNN,2001-09-30 09:00,ZGNN 300900Z AUTO 29006KT 12SM 32/20 A2983 RMK SLP103 T03150198 57012 IEM_DS3505
ZGNN,2001-09-30 10:00,ZGNN 301000Z AUTO 6SM 31/18 A2985 RMK T03100180 IEM_DS3505
ZGNN,2001-09-30 11:00,ZGNN 301100Z AUTO 30002KT 6SM 28/21 A2985 RMK T02800210 IEM_DS3505
ZGNN,2001-09-30 12:00,ZGNN 301200Z AUTO 00000KT 9SM 26/22 A2985 RMK SLP116 T02640220 52012 IEM_DS3505
ZGNN,2001-09-30 13:00,ZGNN 301300Z AUTO 6SM 26/20 A2988 RMK T02600200 IEM_DS3505
ZGNN,2001-09-30 14:00,ZGNN 301400Z AUTO 30002KT 6SM 25/20 A2991 RMK T02500200 IEM_DS3505
ZGNN,2001-09-30 15:00,ZGNN 301500Z AUTO 00000KT 7SM 23/21 A2991 RMK SLP132 T02270210 52016 IEM_DS3505
ZGNN,2001-09-30 16:00,ZGNN 301600Z AUTO 5SM 23/20 A2991 RMK T02300200 IEM_DS3505
ZGNN,2001-09-30 17:00,ZGNN 301700Z AUTO 26002KT 5SM 22/20 A2991 RMK T02200200 IEM_DS3505
ZGNN,2001-09-30 18:00,ZGNN 301800Z AUTO 00000KT 6SM 21/20 A2991 RMK SLP130 T02140202 57002 IEM_DS3505
ZGNN,2001-09-30 19:00,ZGNN 301900Z AUTO 23002KT 3SM 21/19 A2991 RMK T02100190 IEM_DS3505
ZGNN,2001-09-30 20:00,ZGNN 302000Z AUTO 3SM 22/20 A2991 RMK T02200200 IEM_DS3505
ZGNN,2001-09-30 21:00,ZGNN 302100Z AUTO 00000KT 6SM 20/20 A2991 RMK SLP131 T02040198 52001 IEM_DS3505
ZGNN,2001-09-30 22:00,ZGNN 302200Z AUTO 2 1/2SM 21/20 A2991 RMK T02100200 IEM_DS3505
ZGNN,2001-09-30 23:00,ZGNN 302300Z AUTO 2 1/2SM 22/20 A2994 RMK T02200200 IEM_DS3505
ZGNN,2001-10-01 00:00,ZGNN 010000Z AUTO 00000KT 5SM 22/21 A2997 RMK SLP150 T02190211 52018 IEM_DS3505
ZGNN,2001-10-01 01:00,ZGNN 010100Z AUTO 2SM 25/21 A2997 RMK T02500210 IEM_DS3505
ZGNN,2001-10-01 02:00,ZGNN 010200Z AUTO 7SM 27/19 A2997 RMK T02700190 IEM_DS3505
ZGNN,2001-10-01 03:00,ZGNN 010300Z AUTO 02006KT 7SM 30/20 A2997 RMK SLP150 T02980197 52001 IEM_DS3505
ZGNN,2001-10-01 04:00,ZGNN 010400Z AUTO 07006KT 7SM 30/18 A2997 RMK T03000180 IEM_DS3505
ZGNN,2001-10-01 05:00,ZGNN 010500Z AUTO 6SM 31/18 A2994 RMK T03100180 IEM_DS3505
ZGNN,2001-10-01 06:00,ZGNN 010600Z AUTO 18002KT 7SM 32/20 A2991 RMK SLP123 T03150200 57026 IEM_DS3505
ZGNN,2001-10-01 07:00,ZGNN 010700Z AUTO 09006KT 7SM 32/18 A2988 RMK T03200180 IEM_DS3505
ZGNN,2001-10-01 08:00,ZGNN 010800Z AUTO 7SM 32/19 A2985 RMK T03200190 IEM_DS3505
ZGNN,2001-10-01 09:00,ZGNN 010900Z AUTO 09006KT 9SM 32/20 A2985 RMK SLP111 T03180195 57012 IEM_DS3505
ZGNN,2001-10-01 10:00,ZGNN 011000Z AUTO 10004KT 6SM 30/20 A2985 RMK T03000200 IEM_DS3505
ZGNN,2001-10-01 11:00,ZGNN 011100Z AUTO 04004KT 6SM 28/21 A2985 RMK T02800210 IEM_DS3505
ZGNN,2001-10-01 12:00,ZGNN 011200Z AUTO 00000KT 7SM 26/22 A2988 RMK SLP120 T02580220 52007 IEM_DS3505
ZGNN,2001-10-01 13:00,ZGNN 011300Z AUTO 01002KT 27/21 A2988 RMK T02700210 IEM_DS3505
ZGNN,2001-10-01 14:00,ZGNN 011400Z AUTO 02004KT 4SM 26/21 A2991 RMK T02600210 IEM_DS3505
ZGNN,2001-10-01 15:00,ZGNN 011500Z AUTO 00000KT 7SM 23/22 A2991 RMK SLP131 T02320217 52013 IEM_DS3505
ZGNN,2001-10-01 16:00,ZGNN 011600Z AUTO 4SM 25/20 A2994 RMK T02500200 IEM_DS3505
ZGNN,2001-10-01 17:00,ZGNN 011700Z AUTO 02002KT 3SM 25/21 A2991 RMK T02500210 IEM_DS3505
ZGNN,2001-10-01 18:00,ZGNN 011800Z AUTO 00000KT 6SM 22/21 A2991 RMK SLP130 T02240212 57001 IEM_DS3505
ZGNN,2001-10-01 19:00,ZGNN 011900Z AUTO 3SM 24/20 A2991 RMK T02400200 IEM_DS3505
ZGNN,2001-10-01 20:00,ZGNN 012000Z AUTO 3SM 24/21 A2991 RMK T02400210 IEM_DS3505
ZGNN,2001-10-01 21:00,ZGNN 012100Z AUTO 00000KT 6SM 24/22 A2991 RMK SLP133 T02440217 52003 IEM_DS3505
ZGNN,2001-10-01 22:00,ZGNN 012200Z AUTO 03004KT 3SM 24/21 A2994 RMK T02400210 IEM_DS3505
ZGNN,2001-10-01 23:00,ZGNN 012300Z AUTO 03002KT 2 1/2SM 23/22 A2994 RMK T02300220 IEM_DS3505
ZGNN,2001-10-02 00:00,ZGNN 020000Z AUTO 00000KT 2 1/2SM 24/23 A2997 RMK SLP153 T02390226 52018 IEM_DS3505
ZGNN,2001-10-02 01:00,ZGNN 020100Z AUTO 05006KT 2SM 24/22 A3000 RMK T02400220 IEM_DS3505
ZGNN,2001-10-02 02:00,ZGNN 020200Z AUTO 2 1/2SM 26/23 A3000 RMK T02600230 IEM_DS3505
ZGNN,2001-10-02 03:00,ZGNN 020300Z AUTO 18002KT 5SM 29/23 A2997 RMK SLP153 T02860234 52001 IEM_DS3505
ZGNN,2001-10-02 04:00,ZGNN 020400Z AUTO 14006KT 7SM 29/22 A2997 RMK T02900220 IEM_DS3505
ZGNN,2001-10-02 05:00,ZGNN 020500Z AUTO 7SM 30/22 A2991 RMK T03000220 IEM_DS3505
ZGNN,2001-10-02 06:00,ZGNN 020600Z AUTO 14006KT 15SM 30/22 A2988 RMK SLP120 T03020220 57032 IEM_DS3505
ZGNN,2001-10-02 07:00,ZGNN 020700Z AUTO 21014G23KT 1SM 23/21 A2988 RMK T02300210 IEM_DS3505
ZGNN,2001-10-02 08:00,ZGNN 020800Z AUTO 04004KT 7SM 26/23 A2985 RMK T02600230 IEM_DS3505
ZGNN,2001-10-02 09:00,ZGNN 020900Z AUTO 14006KT 7SM 26/24 A2988 RMK SLP117 T02560240 57004 IEM_DS3505
ZGNN,2001-10-02 10:00,ZGNN 021000Z AUTO 05004KT 7SM 25/23 A2985 RMK T02500230 IEM_DS3505
ZGNN,2001-10-02 11:00,ZGNN 021100Z AUTO 7SM 25/23 A2988 RMK T02500230 IEM_DS3505
ZGNN,2001-10-02 12:00,ZGNN 021200Z AUTO 14002KT 11SM 25/23 A2988 RMK 60031 SLP124 T02470229 52007 IEM_DS3505
ZGNN,2001-10-02 13:00,ZGNN 021300Z AUTO 7SM 24/22 A2991 RMK T02400220 IEM_DS3505
ZGNN,2001-10-02 14:00,ZGNN 021400Z AUTO 03004KT 5SM 23/22 A2994 RMK T02300220 IEM_DS3505
ZGNN,2001-10-02 15:00,ZGNN 021500Z AUTO 00000KT 9SM 24/23 A2994 RMK SLP144 T02360227 52020 IEM_DS3505
ZGNN,2001-10-02 16:00,ZGNN 021600Z AUTO 36002KT 4SM 23/22 A2994 RMK T02300220 IEM_DS3505
ZGNN,2001-10-02 17:00,ZGNN 021700Z AUTO 4SM 23/22 A2994 RMK T02300220 IEM_DS3505
ZGNN,2001-10-02 18:00,ZGNN 021800Z AUTO 00000KT 6SM 23/22 A2994 RMK SLP139 T02260220 57005 IEM_DS3505
ZGNN,2001-10-02 19:00,ZGNN 021900Z AUTO 01002KT 3SM 23/22 A2991 RMK T02300220 IEM_DS3505
ZGNN,2001-10-02 20:00,ZGNN 022000Z AUTO 3SM 23/22 A2991 RMK T02300220 IEM_DS3505
ZGNN,2001-10-02 21:00,ZGNN 022100Z AUTO 00000KT 6SM 24/23 A2991 RMK 70033 SLP129 T02360230 57010 IEM_DS3505
ZGNN,2001-10-02 23:00,ZGNN 022300Z AUTO 1 1/2SM 24/22 A2994 RMK T02400220 IEM_DS3505
ZGNN,2001-10-03 00:00,ZGNN 030000Z AUTO 00000KT 2 1/2SM 24/23 RMK 70033 SLP141 T02420233 52011 IEM_DS3505
ZGNN,2001-10-03 01:00,ZGNN 030100Z AUTO 2SM 25/23 A2997 RMK T02500230 IEM_DS3505
ZGNN,2001-10-03 03:00,ZGNN 030300Z AUTO 18002KT 5SM 28/24 A2997 RMK SLP155 T02780241 52015 IEM_DS3505
ZGNN,2001-10-03 04:00,ZGNN 030400Z AUTO 7SM 29/23 A2997 RMK T02900230 IEM_DS3505
ZGNN,2001-10-03 05:00,ZGNN 030500Z AUTO 14006KT 7SM 26/23 A2994 RMK T02600230 IEM_DS3505
ZGNN,2001-10-03 06:00,ZGNN 030600Z AUTO 14006KT 19SM 27/24 A2991 RMK 60012 SLP126 T02740240 57029 IEM_DS3505
ZGNN,2001-10-03 07:00,ZGNN 030700Z AUTO 7SM 28/23 A2985 RMK T02800230 IEM_DS3505
ZGNN,2001-10-03 08:00,ZGNN 030800Z AUTO 7SM 28/22 A2985 RMK T02800220 IEM_DS3505
ZGNN,2001-10-03 09:00,ZGNN 030900Z AUTO 32010KT 11SM 24/22 A2988 RMK SLP119 T02430222 57007 IEM_DS3505
ZGNN,2001-10-03 10:00,ZGNN 031000Z AUTO 34008KT 19SM 23/20 A2988 RMK SLP148 T02300201 52028 IEM_DS3505
ZGNN,2001-10-03 11:00,ZGNN 031100Z AUTO 34010KT 7SM 23/20 A2991 RMK T02300200 IEM_DS3505
ZGNN,2001-10-03 12:00,ZGNN 031200Z AUTO 34008KT 19SM 23/20 A2994 RMK 60003 SLP148 T02300201 52028 IEM_DS3505
ZGNN,2001-10-03 13:00,ZGNN 031300Z AUTO 36008KT 7SM 23/19 A2997 RMK T02300190 IEM_DS3505
ZGNN,2001-10-03 15:00,ZGNN 031500Z AUTO 00000KT 16SM 23/20 RMK SLP168 T02260201 52020 IEM_DS3505
ZGNN,2001-10-03 18:00,ZGNN 031800Z AUTO 00000KT 12SM 22/21 RMK SLP164 T02240209 57004 IEM_DS3505
ZGNN,2001-10-03 19:00,ZGNN 031900Z AUTO 06002KT 7SM 22/20 A3000 RMK T02200200 IEM_DS3505
ZGNN,2001-10-03 21:00,ZGNN 032100Z AUTO 34004KT 11SM 22/20 A2997 RMK 70011 SLP156 T02200195 57008 IEM_DS3505
ZGNN,2001-10-03 22:00,ZGNN 032200Z AUTO 35004KT 7SM 22/18 A3000 RMK T02200180 IEM_DS3505
ZGNN,2001-10-03 23:00,ZGNN 032300Z AUTO 36004KT 7SM 22/18 A3000 RMK T02200180 IEM_DS3505
ZGNN,2001-10-04 00:00,ZGNN 040000Z AUTO 34002KT 12SM 22/19 A3003 RMK 70011 SLP173 T02230192 52016 IEM_DS3505
ZGNN,2001-10-04 01:00,ZGNN 040100Z AUTO 7SM 23/18 A3006 RMK T02300180 IEM_DS3505
ZGNN,2001-10-04 02:00,ZGNN 040200Z AUTO 7SM 24/18 A3006 RMK T02400180 IEM_DS3505
ZGNN,2001-10-04 03:00,ZGNN 040300Z AUTO 34004KT 14SM 24/19 A3006 RMK SLP183 T02410186 52010 IEM_DS3505
ZGNN,2001-10-04 04:00,ZGNN 040400Z AUTO 33006KT 7SM 25/18 A3006 RMK T02500180 IEM_DS3505
ZGNN,2001-10-04 05:00,ZGNN 040500Z AUTO 7SM 26/17 A3003 RMK T02600170 IEM_DS3505
ZGNN,2001-10-04 06:00,ZGNN 040600Z AUTO 34006KT 19SM 26/19 A2997 RMK SLP157 T02600189 57025 IEM_DS3505
ZGNN,2001-10-04 07:00,ZGNN 040700Z AUTO 32006KT 7SM 25/18 A2997 RMK T02500180 IEM_DS3505
ZGNN,2001-10-04 08:00,ZGNN 040800Z AUTO 33008KT 7SM 26/18 A2994 RMK T02600180 IEM_DS3505
ZGNN,2001-10-04 09:00,ZGNN 040900Z AUTO 34006KT 19SM 24/19 A2994 RMK SLP147 T02420189 57010 IEM_DS3505
ZGNN,2001-10-04 10:00,ZGNN 041000Z AUTO 36004KT 19SM 24/18 A2994 RMK T02400180 52011 IEM_DS3505
ZGNN,2001-10-04 11:00,ZGNN 041100Z AUTO 35004KT 7SM 24/18 A2997 RMK T02400180 IEM_DS3505
ZGNN,2001-10-04 12:00,ZGNN 041200Z AUTO 36004KT 19SM 23/18 A2997 RMK SLP159 T02320185 52011 IEM_DS3505
ZGNN,2001-10-04 13:00,ZGNN 041300Z AUTO 35004KT 7SM 23/18 A3000 RMK T02300180 IEM_DS3505
ZGNN,2001-10-04 14:00,ZGNN 041400Z AUTO 34004KT 7SM 23/19 A3000 RMK T02300190 IEM_DS3505
ZGNN,2001-10-04 15:00,ZGNN 041500Z AUTO 00000KT 16SM 23/20 A3003 RMK SLP171 T02260198 52012 IEM_DS3505
ZGNN,2001-10-04 17:00,ZGNN 041700Z AUTO 05002KT 7SM 22/18 A3000 RMK T02200180 IEM_DS3505
ZGNN,2001-10-04 18:00,ZGNN 041800Z AUTO 00000KT 12SM 21/19 A3000 RMK SLP158 T02090190 57012 IEM_DS3505
ZGNN,2001-10-04 19:00,ZGNN 041900Z AUTO 29002KT 6SM 21/18 A2997 RMK T02100180 IEM_DS3505
ZGNN,2001-10-04 20:00,ZGNN 042000Z AUTO 33002KT 7SM 22/18 A2997 RMK T02200180 IEM_DS3505
ZGNN,2001-10-04 21:00,ZGNN 042100Z AUTO 00000KT 11SM 20/19 A2994 RMK SLP146 T02030194 57013 IEM_DS3505
ZGNN,2001-10-04 22:00,ZGNN 042200Z AUTO 6SM 20/19 A2997 RMK T02000190 IEM_DS3505
ZGNN,2001-10-04 23:00,ZGNN 042300Z AUTO 6SM 20/19 A2997 RMK T02000190 IEM_DS3505
ZGNN,2001-10-05 00:00,ZGNN 050000Z AUTO 00000KT 7SM 20/20 A2997 RMK SLP154 T02020196 52008 IEM_DS3505
ZGNN,2001-10-05 01:00,ZGNN 050100Z AUTO 6SM 23/19 A2997 RMK T02300190 IEM_DS3505
ZGNN,2001-10-05 02:00,ZGNN 050200Z AUTO 6SM 24/18 A3000 RMK T02400180 IEM_DS3505
ZGNN,2001-10-05 03:00,ZGNN 050300Z AUTO 14004KT 12SM 26/18 A3000 RMK SLP157 T02560184 52004 IEM_DS3505
ZGNN,2001-10-05 04:00,ZGNN 050400Z AUTO 7SM 25/18 A2997 RMK T02500180 IEM_DS3505
ZGNN,2001-10-05 05:00,ZGNN 050500Z AUTO 7SM 25/19 A2994 RMK T02500190 IEM_DS3505
ZGNN,2001-10-05 06:00,ZGNN 050600Z AUTO 00000KT 9SM 27/20 A2991 RMK SLP134 T02680203 57023 IEM_DS3505
ZGNN,2001-10-05 07:00,ZGNN 050700Z AUTO 7SM 27/20 A2988 RMK T02700200 IEM_DS3505
ZGNN,2001-10-05 08:00,ZGNN 050800Z AUTO 7SM 26/20 A2988 RMK T02600200 IEM_DS3505
ZGNN,2001-10-05 09:00,ZGNN 050900Z AUTO 25002KT 12SM 26/21 A2988 RMK SLP120 T02630211 57014 IEM_DS3505
ZGNN,2001-10-05 10:00,ZGNN 051000Z AUTO 6SM 26/20 A2988 RMK T02600200 IEM_DS3505
ZGNN,2001-10-05 11:00,ZGNN 051100Z AUTO 6SM 25/20 A2988 RMK T02500200 IEM_DS3505
ZGNN,2001-10-05 12:00,ZGNN 051200Z AUTO 00000KT 11SM 23/22 A2988 RMK SLP127 T02340216 52006 IEM_DS3505
ZGNN,2001-10-05 13:00,ZGNN 051300Z AUTO 6SM 23/21 A2991 RMK T02300210 IEM_DS3505
ZGNN,2001-10-05 14:00,ZGNN 051400Z AUTO 6SM 23/21 A2994 RMK T02300210 IEM_DS3505
ZGNN,2001-10-05 15:00,ZGNN 051500Z AUTO 00000KT 9SM 22/21 A2994 RMK SLP141 T02180210 52015 IEM_DS3505
ZGNN,2001-10-05 16:00,ZGNN 051600Z AUTO 3SM 22/21 A2994 RMK T02200210 IEM_DS3505
ZGNN,2001-10-05 17:00,ZGNN 051700Z AUTO 35002KT 2 1/2SM 23/21 A2994 RMK T02300210 IEM_DS3505
ZGNN,2001-10-05 18:00,ZGNN 051800Z AUTO 00000KT 7SM 22/22 A2991 RMK 60003 SLP129 T02240218 57011 IEM_DS3505
ZGNN,2001-10-05 19:00,ZGNN 051900Z AUTO 02004KT 2 1/2SM 23/21 A2991 RMK T02300210 IEM_DS3505
ZGNN,2001-10-05 20:00,ZGNN 052000Z AUTO 04002KT 2 1/2SM 23/21 A2988 RMK T02300210 IEM_DS3505
ZGNN,2001-10-05 21:00,ZGNN 052100Z AUTO 00000KT 6SM 22/21 A2988 RMK 70003 SLP122 T02200214 57007 IEM_DS3505
ZGNN,2001-10-05 22:00,ZGNN 052200Z AUTO 02002KT 1 1/2SM 22/21 A2988 RMK T02200210 IEM_DS3505
ZGNN,2001-10-05 23:00,ZGNN 052300Z AUTO 03004KT 1SM 22/21 A2991 RMK T02200210 IEM_DS3505
ZGNN,2001-10-06 00:00,ZGNN 060000Z AUTO 00000KT 4SM 23/22 A2991 RMK 60003 SLP136 T02290220 52013 IEM_DS3505
ZGNN,2001-10-06 01:00,ZGNN 060100Z AUTO 1 1/2SM 24/22 A2994 RMK T02400220 IEM_DS3505
ZGNN,2001-10-06 02:00,ZGNN 060200Z AUTO 2 1/2SM 25/22 A2994 RMK T02500220 IEM_DS3505
ZGNN,2001-10-06 03:00,ZGNN 060300Z AUTO 11004KT 4SM 26/23 A2994 RMK SLP142 T02600228 52006 IEM_DS3505
ZGNN,2001-10-06 04:00,ZGNN 060400Z AUTO 12006KT 3SM 27/22 A2991 RMK T02700220 IEM_DS3505
ZGNN,2001-10-06 05:00,ZGNN 060500Z AUTO 13006KT 4SM 27/22 A2988 RMK T02700220 IEM_DS3505
ZGNN,2001-10-06 06:00,ZGNN 060600Z AUTO 14006KT 7SM 27/22 A2985 RMK SLP113 T02740220 57028 IEM_DS3505
ZGNN,2001-10-06 07:00,ZGNN 060700Z AUTO 13006KT 3SM 27/22 A2985 RMK T02700220 IEM_DS3505
ZGNN,2001-10-06 08:00,ZGNN 060800Z AUTO 14006KT 3SM RMK IEM_DS3505
ZGNN,2001-10-06 09:00,ZGNN 060900Z AUTO 25002KT 3SM 25/24 A2983 RMK SLP107 T02500238 57007 IEM_DS3505
ZGNN,2001-10-06 10:00,ZGNN 061000Z AUTO 2SM 25/23 A2983 RMK T02500230 IEM_DS3505
ZGNN,2001-10-06 11:00,ZGNN 061100Z AUTO 7SM 24/23 A2983 RMK T02400230 IEM_DS3505
ZGNN,2001-10-06 12:00,ZGNN 061200Z AUTO 14002KT 6SM 25/23 A2985 RMK 60016 SLP107 T02460234 52001 IEM_DS3505
ZGNN,2001-10-06 13:00,ZGNN 061300Z AUTO 15004KT 7SM 24/22 A2985 RMK T02400220 IEM_DS3505
ZGNN,2001-10-06 15:00,ZGNN 061500Z AUTO 00000KT 7SM 24/23 A2988 RMK SLP118 T02380232 52011 IEM_DS3505
ZGNN,2001-10-06 16:00,ZGNN 061600Z AUTO 15002KT 7SM 24/23 A2988 RMK T02400230 IEM_DS3505
ZGNN,2001-10-06 17:00,ZGNN 061700Z AUTO 7SM 24/22 A2988 RMK T02400220 IEM_DS3505
ZGNN,2001-10-06 18:00,ZGNN 061800Z AUTO 00000KT 7SM 24/24 A2985 RMK SLP114 T02420235 57004 IEM_DS3505
ZGNN,2001-10-06 19:00,ZGNN 061900Z AUTO 12004KT 3SM 24/22 A2985 RMK T02400220 IEM_DS3505
ZGNN,2001-10-06 20:00,ZGNN 062000Z AUTO 12004KT 4SM 24/22 A2985 RMK T02400220 IEM_DS3505
ZGNN,2001-10-06 21:00,ZGNN 062100Z AUTO 00000KT 6SM 24/23 A2985 RMK 70015 SLP111 T02420233 57003 IEM_DS3505
ZGNN,2001-10-06 22:00,ZGNN 062200Z AUTO 3SM 23/22 A2985 RMK T02300220 IEM_DS3505
ZGNN,2001-10-06 23:00,ZGNN 062300Z AUTO 31002KT 6SM 23/22 A2988 RMK T02300220 IEM_DS3505
ZGNN,2001-10-07 00:00,ZGNN 070000Z AUTO 09002KT 4SM 24/24 A2988 RMK 60003 SLP126 T02420235 52015 IEM_DS3505
ZGNN,2001-10-07 01:00,ZGNN 070100Z AUTO 10004KT 2SM 24/23 A2991 RMK T02400230 IEM_DS3505
ZGNN,2001-10-07 02:00,ZGNN 070200Z AUTO 09006KT 5SM 25/23 A2994 RMK T02500230 IEM_DS3505
ZGNN,2001-10-07 03:00,ZGNN 070300Z AUTO 14004KT 4SM 25/24 A2991 RMK SLP133 T02520243 52007 IEM_DS3505
ZGNN,2001-10-07 04:00,ZGNN 070400Z AUTO 1 1/2SM 25/23 A2991 RMK T02500230 IEM_DS3505
ZGNN,2001-10-07 05:00,ZGNN 070500Z AUTO 4SM 25/24 A2988 RMK T02500240 IEM_DS3505
ZGNN,2001-10-07 06:00,ZGNN 070600Z AUTO 14004KT 5SM 26/25 A2985 RMK 60012 SLP109 T02630250 57024 IEM_DS3505
ZGNN,2001-10-07 07:00,ZGNN 070700Z AUTO 7SM 27/23 A2983 RMK T02700230 IEM_DS3505
ZGNN,2001-10-07 08:00,ZGNN 070800Z AUTO 14006KT 7SM 28/23 A2983 RMK T02800230 IEM_DS3505
ZGNN,2001-10-07 09:00,ZGNN 070900Z AUTO 18004KT 19SM 28/23 A2983 RMK SLP095 T02800231 57013 IEM_DS3505
ZGNN,2001-10-07 10:00,ZGNN 071000Z AUTO 15006KT 7SM 27/22 A2983 RMK T02700220 IEM_DS3505
ZGNN,2001-10-07 11:00,ZGNN 071100Z AUTO 10004KT 7SM 25/23 A2983 RMK T02500230 IEM_DS3505
ZGNN,2001-10-07 12:00,ZGNN 071200Z AUTO 22004KT 19SM 25/23 A2983 RMK SLP103 T02540229 52007 IEM_DS3505
ZGNN,2001-10-07 13:00,ZGNN 071300Z AUTO 11004KT 6SM 24/22 A2985 RMK T02400220 IEM_DS3505
ZGNN,2001-10-07 14:00,ZGNN 071400Z AUTO 7SM 24/22 A2985 RMK T02400220 IEM_DS3505
ZGNN,2001-10-07 15:00,ZGNN 071500Z AUTO 00000KT 12SM 24/23 A2988 RMK SLP118 T02380229 52015 IEM_DS3505
ZGNN,2001-10-07 17:00,ZGNN 071700Z AUTO 03004KT 5SM 24/22 A2988 RMK T02400220 IEM_DS3505
ZGNN,2001-10-07 18:00,ZGNN 071800Z AUTO 00000KT 9SM 24/23 A2988 RMK SLP116 T02410234 57002 IEM_DS3505
ZGNN,2001-10-07 19:00,ZGNN 071900Z AUTO 04002KT 3SM 24/23 A2985 RMK T02400230 IEM_DS3505
ZGNN,2001-10-07 20:00,ZGNN 072000Z AUTO 03002KT 4SM 24/23 A2985 RMK T02400230 IEM_DS3505
ZGNN,2001-10-07 21:00,ZGNN 072100Z AUTO 00000KT 7SM 24/24 A2985 RMK 70013 SLP110 T02450238 57005 IEM_DS3505
ZGNN,2001-10-07 22:00,ZGNN 072200Z AUTO 35002KT 4SM 24/23 A2988 RMK T02400230 IEM_DS3505
ZGNN,2001-10-07 23:00,ZGNN 072300Z AUTO 7SM 25/23 A2988 RMK T02500230 IEM_DS3505
ZGNN,2001-10-08 00:00,ZGNN 080000Z AUTO 18002KT 6SM 25/24 A2991 RMK 70013 SLP128 T02500238 52017 IEM_DS3505
ZGNN,2001-10-08 01:00,ZGNN 080100Z AUTO 7SM 26/23 A2991 RMK T02600230 IEM_DS3505
ZGNN,2001-10-08 02:00,ZGNN 080200Z AUTO 7SM 28/23 A2991 RMK T02800230 IEM_DS3505
ZGNN,2001-10-08 03:00,ZGNN 080300Z AUTO 18004KT 19SM 29/24 A2991 RMK SLP131 T02870235 52003 IEM_DS3505
ZGNN,2001-10-08 04:00,ZGNN 080400Z AUTO 15008KT 7SM 29/23 A2991 RMK T02900230 IEM_DS3505
ZGNN,2001-10-08 05:00,ZGNN 080500Z AUTO 7SM 29/22 A2985 RMK T02900220 IEM_DS3505
ZGNN,2001-10-08 06:00,ZGNN 080600Z AUTO 18004KT 19SM 31/24 A2985 RMK SLP102 T03120235 57027 IEM_DS3505
ZGNN,2001-10-08 07:00,ZGNN 080700Z AUTO 7SM 31/24 A2983 RMK T03100240 IEM_DS3505
ZGNN,2001-10-08 09:00,ZGNN 080900Z AUTO 09004KT 19SM 30/24 A2980 RMK SLP096 T02960245 57007 IEM_DS3505
ZGNN,2001-10-08 10:00,ZGNN 081000Z AUTO 06006KT 7SM 26/23 A2985 RMK T02600230 IEM_DS3505
ZGNN,2001-10-08 11:00,ZGNN 081100Z AUTO 35012KT 7SM 22/20 A2988 RMK T02200200 IEM_DS3505
ZGNN,2001-10-08 12:00,ZGNN 081200Z AUTO 34006KT 9SM 22/21 A2991 RMK 60002 SLP140 T02170206 52042 IEM_DS3505
ZGNN,2001-10-08 13:00,ZGNN 081300Z AUTO 35008KT 7SM 21/19 A2997 RMK T02100190 IEM_DS3505
ZGNN,2001-10-08 14:00,ZGNN 081400Z AUTO 34010KT 7SM 21/19 A2997 RMK T02100190 IEM_DS3505
ZGNN,2001-10-08 15:00,ZGNN 081500Z AUTO 36006KT 9SM 20/19 RMK SLP163 T02040193 52023 IEM_DS3505
ZGNN,2001-10-08 16:00,ZGNN 081600Z AUTO 35008KT 7SM 20/19 A3000 RMK T02000190 IEM_DS3505
ZGNN,2001-10-08 17:00,ZGNN 081700Z AUTO 01008KT 4SM 20/18 A3000 RMK T02000180 IEM_DS3505
ZGNN,2001-10-08 18:00,ZGNN 081800Z AUTO 34006KT 7SM 20/18 A3000 RMK 60055 SLP157 T01950185 57005 IEM_DS3505
ZGNN,2001-10-08 19:00,ZGNN 081900Z AUTO 36004KT 3SM 20/18 A2997 RMK T02000180 IEM_DS3505
ZGNN,2001-10-08 20:00,ZGNN 082000Z AUTO 7SM 19/18 A2997 RMK T01900180 IEM_DS3505
ZGNN,2001-10-08 21:00,ZGNN 082100Z AUTO 00000KT 6SM 19/19 A3000 RMK 70080 SLP156 T01940189 57002 IEM_DS3505
ZGNN,2001-10-08 22:00,ZGNN 082200Z AUTO 04002KT 7SM 19/18 A3000 RMK T01900180 IEM_DS3505
ZGNN,2001-10-08 23:00,ZGNN 082300Z AUTO 7SM 19/18 A3000 RMK T01900180 IEM_DS3505
ZGNN,2001-10-09 00:00,ZGNN 090000Z AUTO 36006KT 9SM 20/18 A3003 RMK 60039 SLP171 T01980175 52013 IEM_DS3505
ZGNN,2001-10-09 01:00,ZGNN 090100Z AUTO 02004KT 7SM 20/18 A3003 RMK T02000180 IEM_DS3505
ZGNN,2001-10-09 02:00,ZGNN 090200Z AUTO 7SM 20/17 A3006 RMK T02000170 IEM_DS3505
ZGNN,2001-10-09 03:00,ZGNN 090300Z AUTO 09002KT 16SM 21/18 A3006 RMK SLP179 T02130180 52008 IEM_DS3505
ZGNN,2001-10-09 04:00,ZGNN 090400Z AUTO 31006KT 7SM 22/17 A3003 RMK T02200170 IEM_DS3505
ZGNN,2001-10-09 05:00,ZGNN 090500Z AUTO 34004KT 7SM 22/17 A3003 RMK T02200170 IEM_DS3505
ZGNN,2001-10-09 06:00,ZGNN 090600Z AUTO 32006KT 19SM 22/18 RMK 60003 SLP159 T02180180 57020 IEM_DS3505
ZGNN,2001-10-09 07:00,ZGNN 090700Z AUTO 33006KT 7SM 22/16 A2997 RMK T02200160 IEM_DS3505
ZGNN,2001-10-09 08:00,ZGNN 090800Z AUTO 33004KT 6SM 22/17 A2997 RMK T02200170 IEM_DS3505
ZGNN,2001-10-09 09:00,ZGNN 090900Z AUTO 34004KT 19SM 22/18 A2997 RMK SLP154 T02150175 57005 IEM_DS3505
ZGNN,2001-10-09 10:00,ZGNN 091000Z AUTO 05004KT 7SM 21/17 A2997 RMK T02100170 IEM_DS3505
ZGNN,2001-10-09 11:00,ZGNN 091100Z AUTO 07002KT 7SM 20/18 A2997 RMK T02000180 IEM_DS3505
ZGNN,2001-10-09 12:00,ZGNN 091200Z AUTO 00000KT 11SM 20/19 A3000 RMK 60003 SLP160 T02010190 52006 IEM_DS3505
ZGNN,2001-10-09 13:00,ZGNN 091300Z AUTO 03004KT 6SM 20/18 A3000 RMK T02000180 IEM_DS3505
ZGNN,2001-10-09 14:00,ZGNN 091400Z AUTO 04002KT 6SM 19/18 A2997 RMK T01900180 IEM_DS3505
ZGNN,2001-10-09 15:00,ZGNN 091500Z AUTO 29002KT 9SM 18/18 A3000 RMK SLP161 T01840179 52001 IEM_DS3505
ZGNN,2001-10-09 16:00,ZGNN 091600Z AUTO 26002KT 3SM 19/18 A3000 RMK T01900180 IEM_DS3505
ZGNN,2001-10-09 17:00,ZGNN 091700Z AUTO 3SM 18/17 A3000 RMK T01800170 IEM_DS3505
ZGNN,2001-10-09 18:00,ZGNN 091800Z AUTO 00000KT 9SM 18/18 A2997 RMK SLP156 T01800177 57005 IEM_DS3505
ZGNN,2001-10-09 19:00,ZGNN 091900Z AUTO 2 1/2SM 18/17 A2997 RMK T01800170 IEM_DS3505
ZGNN,2001-10-09 20:00,ZGNN 092000Z AUTO 4SM 19/18 A2997 RMK T01900180 IEM_DS3505
ZGNN,2001-10-09 21:00,ZGNN 092100Z AUTO 29002KT 9SM 19/18 A2997 RMK 70015 SLP155 T01900185 57001 IEM_DS3505
ZGNN,2001-10-09 22:00,ZGNN 092200Z AUTO 5SM 19/18 A3000 RMK T01900180 IEM_DS3505
ZGNN,2001-10-09 23:00,ZGNN 092300Z AUTO 6SM 20/18 A3000 RMK T02000180 IEM_DS3505
ZGNN,2001-10-10 00:00,ZGNN 100000Z AUTO 00000KT 9SM 20/18 A3003 RMK 70003 SLP171 T02000177 52016 IEM_DS3505
ZGNN,2001-10-10 01:00,ZGNN 100100Z AUTO 6SM 21/18 A3006 RMK T02100180 IEM_DS3505
ZGNN,2001-10-10 02:00,ZGNN 100200Z AUTO 6SM 22/17 A3006 RMK T02200170 IEM_DS3505
ZGNN,2001-10-10 03:00,ZGNN 100300Z AUTO 09002KT 14SM 24/17 A3006 RMK SLP177 T02380172 52006 IEM_DS3505
ZGNN,2001-10-10 04:00,ZGNN 100400Z AUTO 06006KT 6SM 25/17 A3003 RMK T02500170 IEM_DS3505
ZGNN,2001-10-10 05:00,ZGNN 100500Z AUTO 01006KT 6SM 25/17 A3000 RMK T02500170 IEM_DS3505
ZGNN,2001-10-10 06:00,ZGNN 100600Z AUTO 11008KT 12SM 26/17 A2997 RMK SLP151 T02630171 57025 IEM_DS3505
ZGNN,2001-10-10 07:00,ZGNN 100700Z AUTO 08006KT 6SM 27/17 A2994 RMK T02700170 IEM_DS3505
ZGNN,2001-10-10 08:00,ZGNN 100800Z AUTO 05006KT 6SM 26/17 A2994 RMK T02600170 IEM_DS3505
ZGNN,2001-10-10 09:00,ZGNN 100900Z AUTO 04004KT 9SM 26/18 A2994 RMK SLP140 T02610185 57010 IEM_DS3505
ZGNN,2001-10-10 10:00,ZGNN 101000Z AUTO 05006KT 6SM 25/18 A2994 RMK T02500180 IEM_DS3505
ZGNN,2001-10-10 11:00,ZGNN 101100Z AUTO 08004KT 6SM 23/19 A2994 RMK T02300190 IEM_DS3505
ZGNN,2001-10-10 12:00,ZGNN 101200Z AUTO 00000KT 8SM 22/20 A2994 RMK SLP143 T02180198 52002 IEM_DS3505
ZGNN,2001-10-10 13:00,ZGNN 101300Z AUTO 01004KT 4SM 23/19 A2997 RMK T02300190 IEM_DS3505
ZGNN,2001-10-10 15:00,ZGNN 101500Z AUTO 00000KT 7SM 21/19 A2997 RMK SLP154 T02100191 52011 IEM_DS3505
ZGNN,2001-10-10 16:00,ZGNN 101600Z AUTO 3SM 21/19 A3000 RMK T02100190 IEM_DS3505
ZGNN,2001-10-10 17:00,ZGNN 101700Z AUTO 34002KT 3SM 20/18 A2997 RMK T02000180 IEM_DS3505
ZGNN,2001-10-10 18:00,ZGNN 101800Z AUTO 00000KT 7SM 20/19 A2997 RMK SLP150 T01960186 57003 IEM_DS3505
ZGNN,2001-10-10 19:00,ZGNN 101900Z AUTO 01002KT 2 1/2SM 20/18 A2997 RMK T02000180 IEM_DS3505
ZGNN,2001-10-10 20:00,ZGNN 102000Z AUTO 2SM 20/18 A2997 RMK T02000180 IEM_DS3505
ZGNN,2001-10-10 21:00,ZGNN 102100Z AUTO 00000KT 7SM 20/19 A2997 RMK SLP149 T01970186 57001 IEM_DS3505
ZGNN,2001-10-10 22:00,ZGNN 102200Z AUTO 06002KT 2SM 20/18 A2997 RMK T02000180 IEM_DS3505
ZGNN,2001-10-10 23:00,ZGNN 102300Z AUTO 05002KT 2 1/2SM 20/18 A3000 RMK T02000180 IEM_DS3505
ZGNN,2001-10-11 00:00,ZGNN 110000Z AUTO 00000KT 3SM 20/20 A3003 RMK SLP171 T02050196 52020 IEM_DS3505
ZGNN,2001-10-11 01:00,ZGNN 110100Z AUTO 2 1/2SM 23/18 A3003 RMK T02300180 IEM_DS3505
ZGNN,2001-10-11 02:00,ZGNN 110200Z AUTO 08004KT 3SM 24/18 A3003 RMK T02400180 IEM_DS3505
ZGNN,2001-10-11 03:00,ZGNN 110300Z AUTO 07006KT 9SM 27/18 A3003 RMK SLP171 T02660185 52002 IEM_DS3505
ZGNN,2001-10-11 04:00,ZGNN 110400Z AUTO 7SM 27/19 A3003 RMK T02700190 IEM_DS3505
ZGNN,2001-10-11 05:00,ZGNN 110500Z AUTO 7SM 27/19 A3000 RMK T02700190 IEM_DS3505
ZGNN,2001-10-11 06:00,ZGNN 110600Z AUTO 09004KT 14SM 28/21 A2994 RMK SLP142 T02840206 57029 IEM_DS3505
ZGNN,2001-10-11 07:00,ZGNN 110700Z AUTO 7SM 29/20 A2991 RMK T02900200 IEM_DS3505
ZGNN,2001-10-11 08:00,ZGNN 110800Z AUTO 7SM 29/20 A2991 RMK T02900200 IEM_DS3505
ZGNN,2001-10-11 09:00,ZGNN 110900Z AUTO 00000KT 14SM 29/21 A2988 RMK SLP126 T02900207 57015 IEM_DS3505
ZGNN,2001-10-11 10:00,ZGNN 111000Z AUTO 06004KT 7SM 28/21 A2988 RMK T02800210 IEM_DS3505
ZGNN,2001-10-11 11:00,ZGNN 111100Z AUTO 05004KT 7SM 26/22 A2991 RMK T02600220 IEM_DS3505
ZGNN,2001-10-11 12:00,ZGNN 111200Z AUTO 00000KT 12SM 24/22 A2991 RMK SLP135 T02420221 52008 IEM_DS3505
ZGNN,2001-10-11 13:00,ZGNN 111300Z AUTO 02002KT 7SM 25/21 A2994 RMK T02500210 IEM_DS3505
ZGNN,2001-10-11 14:00,ZGNN 111400Z AUTO 5SM 24/22 A2997 RMK T02400220 IEM_DS3505
ZGNN,2001-10-11 15:00,ZGNN 111500Z AUTO 04004KT 11SM 24/22 A2997 RMK SLP148 T02400222 52014 IEM_DS3505
ZGNN,2001-10-11 16:00,ZGNN 111600Z AUTO 05004KT 3SM 24/21 A2997 RMK T02400210 IEM_DS3505
ZGNN,2001-10-11 17:00,ZGNN 111700Z AUTO 07002KT 3SM 24/22 A2997 RMK T02400220 IEM_DS3505
ZGNN,2001-10-11 18:00,ZGNN 111800Z AUTO 09002KT 9SM 24/23 A2994 RMK SLP142 T02400227 57006 IEM_DS3505
ZGNN,2001-10-11 19:00,ZGNN 111900Z AUTO 2SM 23/22 A2994 RMK T02300220 IEM_DS3505
ZGNN,2001-10-11 20:00,ZGNN 112000Z AUTO 2SM 24/22 A2994 RMK T02400220 IEM_DS3505
ZGNN,2001-10-11 21:00,ZGNN 112100Z AUTO 00000KT 6SM 24/23 A2994 RMK SLP141 T02360229 57001 IEM_DS3505
ZGNN,2001-10-11 22:00,ZGNN 112200Z AUTO 03002KT 2SM 23/22 A2994 RMK T02300220 IEM_DS3505
ZGNN,2001-10-11 23:00,ZGNN 112300Z AUTO 03004KT 1 1/4SM 24/22 A2997 RMK T02400220 IEM_DS3505
ZGNN,2001-10-12 00:00,ZGNN 120000Z AUTO 00000KT 3SM 24/23 A2997 RMK SLP153 T02400231 52011 IEM_DS3505
ZGNN,2001-10-12 01:00,ZGNN 120100Z AUTO 2SM 24/22 A3000 RMK T02400220 IEM_DS3505
ZGNN,2001-10-12 02:00,ZGNN 120200Z AUTO 3SM 25/22 A3000 RMK T02500220 IEM_DS3505
ZGNN,2001-10-12 03:00,ZGNN 120300Z AUTO 18004KT 6SM 27/23 A3000 RMK SLP161 T02700232 52009 IEM_DS3505
ZGNN,2001-10-12 04:00,ZGNN 120400Z AUTO 16006KT 7SM 27/22 A3000 RMK T02700220 IEM_DS3505
ZGNN,2001-10-12 05:00,ZGNN 120500Z AUTO 7SM 28/22 A2997 RMK T02800220 IEM_DS3505
ZGNN,2001-10-12 06:00,ZGNN 120600Z AUTO 18004KT 7SM 28/23 A2991 RMK SLP132 T02840226 57029 IEM_DS3505
ZGNN,2001-10-12 07:00,ZGNN 120700Z AUTO 7SM 29/22 A2988 RMK T02900220 IEM_DS3505
ZGNN,2001-10-12 08:00,ZGNN 120800Z AUTO 7SM 29/21 A2988 RMK T02900210 IEM_DS3505
ZGNN,2001-10-12 09:00,ZGNN 120900Z AUTO 18002KT 9SM 29/22 A2988 RMK SLP118 T02900220 57013 IEM_DS3505
ZGNN,2001-10-12 10:00,ZGNN 121000Z AUTO 14004KT 7SM 28/21 A2988 RMK T02800210 IEM_DS3505
ZGNN,2001-10-12 11:00,ZGNN 121100Z AUTO 16002KT 7SM 27/22 A2988 RMK T02700220 IEM_DS3505
ZGNN,2001-10-12 12:00,ZGNN 121200Z AUTO 00000KT 9SM 26/23 A2988 RMK SLP125 T02610233 52006 IEM_DS3505
ZGNN,2001-10-12 13:00,ZGNN 121300Z AUTO 14002KT 7SM 25/22 A2991 RMK T02500220 IEM_DS3505
ZGNN,2001-10-12 14:00,ZGNN 121400Z AUTO 13004KT 7SM 25/22 A2991 RMK T02500220 IEM_DS3505
ZGNN,2001-10-12 15:00,ZGNN 121500Z AUTO 00000KT 9SM 25/23 RMK SLP131 T02460231 52006 IEM_DS3505
ZGNN,2001-10-12 18:00,ZGNN 121800Z AUTO 00000KT 7SM 23/23 RMK SLP131 T02330226 54000 IEM_DS3505
ZGNN,2001-10-12 20:00,ZGNN 122000Z AUTO 12002KT 4SM 24/22 A2991 RMK T02400220 IEM_DS3505
ZGNN,2001-10-12 21:00,ZGNN 122100Z AUTO 14004KT 7SM 24/23 A2991 RMK SLP121 T02440229 57009 IEM_DS3505
ZGNN,2001-10-12 22:00,ZGNN 122200Z AUTO 14002KT 4SM 24/22 A2991 RMK T02400220 IEM_DS3505
ZGNN,2001-10-12 23:00,ZGNN 122300Z AUTO 4SM 24/22 A2991 RMK T02400220 IEM_DS3505
ZGNN,2001-10-13 00:00,ZGNN 130000Z AUTO 07002KT 3SM 24/23 A2994 RMK SLP139 T02420230 52017 IEM_DS3505
ZGNN,2001-10-13 01:00,ZGNN 130100Z AUTO 4SM 25/22 A2994 RMK T02500220 IEM_DS3505
ZGNN,2001-10-13 02:00,ZGNN 130200Z AUTO 12006KT 5SM 26/22 A2994 RMK T02600220 IEM_DS3505
ZGNN,2001-10-13 03:00,ZGNN 130300Z AUTO 18006KT 9SM 27/22 A2994 RMK SLP146 T02720219 52007 IEM_DS3505
ZGNN,2001-10-13 04:00,ZGNN 130400Z AUTO 7SM 28/22 A2994 RMK T02800220 IEM_DS3505
ZGNN,2001-10-13 05:00,ZGNN 130500Z AUTO 17006KT 7SM 28/21 A2991 RMK T02800210 IEM_DS3505
ZGNN,2001-10-13 06:00,ZGNN 130600Z AUTO 18006KT 12SM 30/23 A2985 RMK SLP110 T02950227 57035 IEM_DS3505
ZGNN,2001-10-13 07:00,ZGNN 130700Z AUTO 7SM 30/21 A2983 RMK T03000210 IEM_DS3505
ZGNN,2001-10-13 08:00,ZGNN 130800Z AUTO 13004KT 7SM 30/21 A2980 RMK T03000210 IEM_DS3505
ZGNN,2001-10-13 09:00,ZGNN 130900Z AUTO 18002KT 9SM 30/22 A2980 RMK SLP092 T02990222 57018 IEM_DS3505
ZGNN,2001-10-13 10:00,ZGNN 131000Z AUTO 14008KT 6SM 28/22 A2980 RMK T02800220 IEM_DS3505
ZGNN,2001-10-13 11:00,ZGNN 131100Z AUTO 14004KT 6SM 26/22 A2980 RMK T02600220 IEM_DS3505
ZGNN,2001-10-13 12:00,ZGNN 131200Z AUTO 00000KT 9SM 26/23 A2983 RMK SLP103 T02590227 52010 IEM_DS3505
ZGNN,2001-10-13 13:00,ZGNN 131300Z AUTO 4SM 25/22 A2985 RMK T02500220 IEM_DS3505
ZGNN,2001-10-13 14:00,ZGNN 131400Z AUTO 3SM 24/21 A2985 RMK T02400210 IEM_DS3505
ZGNN,2001-10-13 15:00,ZGNN 131500Z AUTO 00000KT 9SM 24/22 A2985 RMK SLP116 T02370221 52013 IEM_DS3505
ZGNN,2001-10-13 16:00,ZGNN 131600Z AUTO 11002KT 5SM 24/20 A2985 RMK T02400200 IEM_DS3505
ZGNN,2001-10-13 17:00,ZGNN 131700Z AUTO 13002KT 7SM 24/20 A2985 RMK T02400200 IEM_DS3505
ZGNN,2001-10-13 18:00,ZGNN 131800Z AUTO 00000KT 7SM 23/21 A2985 RMK SLP112 T02270210 57003 IEM_DS3505
ZGNN,2001-10-13 19:00,ZGNN 131900Z AUTO 5SM 24/21 A2985 RMK T02400210 IEM_DS3505
ZGNN,2001-10-13 20:00,ZGNN 132000Z AUTO 4SM 23/21 A2985 RMK T02300210 IEM_DS3505
ZGNN,2001-10-13 21:00,ZGNN 132100Z AUTO 09002KT 7SM 24/22 A2985 RMK SLP111 T02390221 57001 IEM_DS3505
ZGNN,2001-10-13 22:00,ZGNN 132200Z AUTO 6SM 24/21 A2985 RMK T02400210 IEM_DS3505
ZGNN,2001-10-13 23:00,ZGNN 132300Z AUTO 15004KT 6SM 24/21 A2988 RMK T02400210 IEM_DS3505
ZGNN,2001-10-14 00:00,ZGNN 140000Z AUTO 00000KT 7SM 24/22 A2988 RMK SLP126 T02400224 52014 IEM_DS3505
ZGNN,2001-10-14 01:00,ZGNN 140100Z AUTO 11004KT 7SM 24/22 A2991 RMK T02400220 IEM_DS3505
ZGNN,2001-10-14 02:00,ZGNN 140200Z AUTO 13004KT 7SM 25/22 A2991 RMK T02500220 IEM_DS3505
ZGNN,2001-10-14 03:00,ZGNN 140300Z AUTO 14006KT 7SM 27/23 A2991 RMK SLP133 T02670226 52007 IEM_DS3505
ZGNN,2001-10-14 04:00,ZGNN 140400Z AUTO 14006KT 7SM 27/22 A2988 RMK T02700220 IEM_DS3505
ZGNN,2001-10-14 05:00,ZGNN 140500Z AUTO 14006KT 7SM 28/21 A2985 RMK T02800210 IEM_DS3505
ZGNN,2001-10-14 06:00,ZGNN 140600Z AUTO 18004KT 12SM 29/22 A2983 RMK SLP102 T02930215 57030 IEM_DS3505
ZGNN,2001-10-14 07:00,ZGNN 140700Z AUTO 15006KT 7SM 29/21 A2980 RMK T02900210 IEM_DS3505
ZGNN,2001-10-14 08:00,ZGNN 140800Z AUTO 17006KT 7SM 29/21 A2980 RMK T02900210 IEM_DS3505
ZGNN,2001-10-14 09:00,ZGNN 140900Z AUTO 18004KT 11SM 29/20 A2980 RMK SLP087 T02930205 57015 IEM_DS3505
ZGNN,2001-10-14 10:00,ZGNN 141000Z AUTO 14004KT 7SM 28/21 A2980 RMK T02800210 IEM_DS3505
ZGNN,2001-10-14 11:00,ZGNN 141100Z AUTO 13002KT 7SM 26/22 A2980 RMK T02600220 IEM_DS3505
ZGNN,2001-10-14 12:00,ZGNN 141200Z AUTO 00000KT 9SM 26/23 A2983 RMK SLP102 T02580226 52014 IEM_DS3505
ZGNN,2001-10-14 13:00,ZGNN 141300Z AUTO 12002KT 4SM 25/22 A2985 RMK T02500220 IEM_DS3505
ZGNN,2001-10-14 14:00,ZGNN 141400Z AUTO 4SM 25/22 A2988 RMK T02500220 IEM_DS3505
ZGNN,2001-10-14 15:00,ZGNN 141500Z AUTO 00000KT 7SM 24/22 A2988 RMK SLP123 T02350225 52021 IEM_DS3505
ZGNN,2001-10-14 16:00,ZGNN 141600Z AUTO 3SM 24/21 A2988 RMK T02400210 IEM_DS3505
ZGNN,2001-10-14 17:00,ZGNN 141700Z AUTO 3SM 24/21 A2991 RMK T02400210 IEM_DS3505
ZGNN,2001-10-14 18:00,ZGNN 141800Z AUTO 00000KT 6SM 22/21 A2988 RMK SLP124 T02210212 52001 IEM_DS3505
ZGNN,2001-10-14 19:00,ZGNN 141900Z AUTO 4SM 23/20 A2988 RMK T02300200 IEM_DS3505
ZGNN,2001-10-14 20:00,ZGNN 142000Z AUTO 3SM 23/21 A2988 RMK T02300210 IEM_DS3505
ZGNN,2001-10-14 21:00,ZGNN 142100Z AUTO 00000KT 6SM 22/22 A2988 RMK SLP123 T02210215 57001 IEM_DS3505
ZGNN,2001-10-14 22:00,ZGNN 142200Z AUTO 02002KT 2 1/2SM 23/21 A2991 RMK T02300210 IEM_DS3505
ZGNN,2001-10-14 23:00,ZGNN 142300Z AUTO 05002KT 2 1/2SM 23/21 A2991 RMK T02300210 IEM_DS3505
ZGNN,2001-10-15 00:00,ZGNN 150000Z AUTO 00000KT 5SM 24/22 A2994 RMK SLP142 T02440219 52019 IEM_DS3505
ZGNN,2001-10-15 01:00,ZGNN 150100Z AUTO 5SM 25/22 A2994 RMK T02500220 IEM_DS3505
ZGNN,2001-10-15 02:00,ZGNN 150200Z AUTO 7SM 27/21 A2997 RMK T02700210 IEM_DS3505
ZGNN,2001-10-15 03:00,ZGNN 150300Z AUTO 18004KT 12SM 28/21 A2997 RMK SLP150 T02780214 52008 IEM_DS3505
ZGNN,2001-10-15 04:00,ZGNN 150400Z AUTO 7SM 29/21 A2994 RMK T02900210 IEM_DS3505
ZGNN,2001-10-15 05:00,ZGNN 150500Z AUTO 7SM 30/20 A2991 RMK T03000200 IEM_DS3505
ZGNN,2001-10-15 06:00,ZGNN 150600Z AUTO 18004KT 9SM 30/22 A2988 RMK SLP121 T03030218 57028 IEM_DS3505
ZGNN,2001-10-15 07:00,ZGNN 150700Z AUTO 7SM 31/20 A2985 RMK T03100200 IEM_DS3505
ZGNN,2001-10-15 08:00,ZGNN 150800Z AUTO 7SM 31/20 A2985 RMK T03100200 IEM_DS3505
ZGNN,2001-10-15 09:00,ZGNN 150900Z AUTO 00000KT 9SM 31/22 A2985 RMK SLP110 T03060218 57011 IEM_DS3505
ZGNN,2001-10-15 10:00,ZGNN 151000Z AUTO 11002KT 7SM 29/21 A2985 RMK T02900210 IEM_DS3505
ZGNN,2001-10-15 11:00,ZGNN 151100Z AUTO 10002KT 6SM 27/22 A2985 RMK T02700220 IEM_DS3505
ZGNN,2001-10-15 12:00,ZGNN 151200Z AUTO 00000KT 7SM 25/22 A2988 RMK SLP122 T02540223 52011 IEM_DS3505
ZGNN,2001-10-15 13:00,ZGNN 151300Z AUTO 5SM 26/22 A2991 RMK T02600220 IEM_DS3505
ZGNN,2001-10-15 14:00,ZGNN 151400Z AUTO 05006KT 3SM 25/22 A2991 RMK T02500220 IEM_DS3505
ZGNN,2001-10-15 15:00,ZGNN 151500Z AUTO 04004KT 2SM 25/22 A2994 RMK T02500220 IEM_DS3505
ZGNN,2001-10-15 16:00,ZGNN 151600Z AUTO 05006KT 3SM 25/21 A2994 RMK T02500210 IEM_DS3505
ZGNN,2001-10-15 17:00,ZGNN 151700Z AUTO 06004KT 3SM 24/21 A2994 RMK T02400210 IEM_DS3505
ZGNN,2001-10-15 18:00,ZGNN 151800Z AUTO 00000KT 6SM 24/21 A2994 RMK 60003 SLP134 T02440213 57002 IEM_DS3505
ZGNN,2001-10-15 19:00,ZGNN 151900Z AUTO 01006KT 3SM 24/20 A2991 RMK T02400200 IEM_DS3505
ZGNN,2001-10-15 20:00,ZGNN 152000Z AUTO 03004KT 3SM 24/20 A2991 RMK T02400200 IEM_DS3505
ZGNN,2001-10-15 21:00,ZGNN 152100Z AUTO 00000KT 9SM 24/21 A2991 RMK 70003 SLP127 T02350211 57007 IEM_DS3505
ZGNN,2001-10-15 22:00,ZGNN 152200Z AUTO 10002KT 4SM 23/20 A2991 RMK T02300200 IEM_DS3505
ZGNN,2001-10-15 23:00,ZGNN 152300Z AUTO 07004KT 4SM 22/19 A2994 RMK T02200190 IEM_DS3505
ZGNN,2001-10-16 00:00,ZGNN 160000Z AUTO 04002KT 7SM 22/19 A2994 RMK 70003 SLP145 T02200189 52016 IEM_DS3505
ZGNN,2001-10-16 01:00,ZGNN 160100Z AUTO 06004KT 7SM 23/18 A2997 RMK T02300180 IEM_DS3505
ZGNN,2001-10-16 02:00,ZGNN 160200Z AUTO 7SM 24/18 A2997 RMK T02400180 IEM_DS3505
ZGNN,2001-10-16 03:00,ZGNN 160300Z AUTO 36002KT 7SM 26/19 A2997 RMK SLP149 T02560188 52005 IEM_DS3505
ZGNN,2001-10-16 04:00,ZGNN 160400Z AUTO 6SM 27/19 A2994 RMK T02700190 IEM_DS3505
ZGNN,2001-10-16 05:00,ZGNN 160500Z AUTO 05006KT 6SM 26/18 A2991 RMK T02600180 IEM_DS3505
ZGNN,2001-10-16 06:00,ZGNN 160600Z AUTO 32002KT 6SM 27/20 A2988 RMK SLP122 T02720196 57027 IEM_DS3505
ZGNN,2001-10-16 07:00,ZGNN 160700Z AUTO 35006KT 7SM 28/20 A2988 RMK T02800200 IEM_DS3505
ZGNN,2001-10-16 08:00,ZGNN 160800Z AUTO 35008KT 7SM 28/19 A2985 RMK T02800190 IEM_DS3505
ZGNN,2001-10-16 09:00,ZGNN 160900Z AUTO 04004KT 9SM 28/20 A2985 RMK SLP109 T02780203 57013 IEM_DS3505
ZGNN,2001-10-16 10:00,ZGNN 161000Z AUTO 02006KT 7SM 27/20 A2985 RMK T02700200 IEM_DS3505
ZGNN,2001-10-16 11:00,ZGNN 161100Z AUTO 36004KT 7SM 26/19 A2988 RMK T02600190 IEM_DS3505
ZGNN,2001-10-16 12:00,ZGNN 161200Z AUTO 02006KT 9SM 25/20 A2991 RMK SLP129 T02500195 52019 IEM_DS3505
ZGNN,2001-10-16 13:00,ZGNN 161300Z AUTO 36008KT 7SM 24/18 A2991 RMK T02400180 IEM_DS3505
ZGNN,2001-10-16 14:00,ZGNN 161400Z AUTO 7SM 22/18 A2994 RMK T02200180 IEM_DS3505
ZGNN,2001-10-16 15:00,ZGNN 161500Z AUTO 34002KT 7SM 22/19 A2997 RMK SLP151 T02160194 52022 IEM_DS3505
ZGNN,2001-10-16 16:00,ZGNN 161600Z AUTO 35002KT 7SM 23/18 A2997 RMK T02300180 IEM_DS3505
ZGNN,2001-10-16 18:00,ZGNN 161800Z AUTO 00000KT 6SM 22/19 RMK SLP152 T02170194 52001 IEM_DS3505
ZGNN,2001-10-16 21:00,ZGNN 162100Z AUTO 00000KT 6SM 20/18 A2997 RMK SLP144 T01950184 57008 IEM_DS3505
ZGNN,2001-10-16 22:00,ZGNN 162200Z AUTO 6SM 20/18 A2997 RMK T02000180 IEM_DS3505
ZGNN,2001-10-16 23:00,ZGNN 162300Z AUTO 32002KT 6SM 19/18 A3000 RMK T01900180 IEM_DS3505
ZGNN,2001-10-17 00:00,ZGNN 170000Z AUTO 00000KT 11SM 20/18 A3003 RMK SLP167 T01950179 52022 IEM_DS3505
ZGNN,2001-10-17 01:00,ZGNN 170100Z AUTO 7SM 22/17 A3003 RMK T02200170 IEM_DS3505
ZGNN,2001-10-17 02:00,ZGNN 170200Z AUTO 34008KT 7SM 23/16 A3003 RMK T02300160 IEM_DS3505
ZGNN,2001-10-17 03:00,ZGNN 170300Z AUTO 32008KT 12SM 24/16 A3003 RMK SLP172 T02410161 52005 IEM_DS3505
ZGNN,2001-10-17 04:00,ZGNN 170400Z AUTO 33008KT 6SM 24/16 A3000 RMK T02400160 IEM_DS3505
ZGNN,2001-10-17 05:00,ZGNN 170500Z AUTO 33008KT 7SM 25/16 A2997 RMK T02500160 IEM_DS3505
ZGNN,2001-10-17 06:00,ZGNN 170600Z AUTO 36008KT 19SM 25/17 A2994 RMK SLP146 T02540168 57025 IEM_DS3505
ZGNN,2001-10-17 07:00,ZGNN 170700Z AUTO 33008KT 7SM 25/16 A2994 RMK T02500160 IEM_DS3505
ZGNN,2001-10-17 08:00,ZGNN 170800Z AUTO 35006KT 7SM 25/16 A2991 RMK T02500160 IEM_DS3505
ZGNN,2001-10-17 09:00,ZGNN 170900Z AUTO 34006KT 19SM 25/17 A2991 RMK SLP133 T02510168 57013 IEM_DS3505
ZGNN,2001-10-17 10:00,ZGNN 171000Z AUTO 35006KT 7SM 24/16 A2991 RMK T02400160 IEM_DS3505
ZGNN,2001-10-17 11:00,ZGNN 171100Z AUTO 32006KT 7SM 23/16 A2994 RMK T02300160 IEM_DS3505
ZGNN,2001-10-17 12:00,ZGNN 171200Z AUTO 34004KT 12SM 23/17 A2997 RMK SLP151 T02280168 52017 IEM_DS3505
ZGNN,2001-10-17 13:00,ZGNN 171300Z AUTO 33006KT 7SM 22/16 A3000 RMK T02200160 IEM_DS3505
ZGNN,2001-10-17 15:00,ZGNN 171500Z AUTO 34004KT 12SM 21/17 RMK SLP169 T02110171 52018 IEM_DS3505
ZGNN,2001-10-17 18:00,ZGNN 171800Z AUTO 32004KT 11SM 20/17 RMK SLP166 T01990166 57003 IEM_DS3505
ZGNN,2001-10-17 21:00,ZGNN 172100Z AUTO 00000KT 9SM 20/16 A3000 RMK SLP166 T02020162 54000 IEM_DS3505
ZGNN,2001-10-17 22:00,ZGNN 172200Z AUTO 7SM 20/16 A3003 RMK T02000160 IEM_DS3505
ZGNN,2001-10-17 23:00,ZGNN 172300Z AUTO 36002KT 7SM 20/16 A3003 RMK T02000160 IEM_DS3505
ZGNN,2001-10-18 00:00,ZGNN 180000Z AUTO 07002KT 11SM 20/17 A3006 RMK SLP184 T02020169 52017 IEM_DS3505
ZGNN,2001-10-18 01:00,ZGNN 180100Z AUTO 6SM 21/16 A3006 RMK T02100160 IEM_DS3505
ZGNN,2001-10-18 02:00,ZGNN 180200Z AUTO 6SM 22/15 A3009 RMK T02200150 IEM_DS3505
ZGNN,2001-10-18 03:00,ZGNN 180300Z AUTO 34002KT 12SM 24/16 A3009 RMK SLP187 T02350162 52004 IEM_DS3505
ZGNN,2001-10-18 04:00,ZGNN 180400Z AUTO 7SM 24/15 A3006 RMK T02400150 IEM_DS3505
ZGNN,2001-10-18 05:00,ZGNN 180500Z AUTO 7SM 26/16 A3003 RMK T02600160 IEM_DS3505
ZGNN,2001-10-18 06:00,ZGNN 180600Z AUTO 32004KT 14SM 25/18 A3000 RMK SLP157 T02540175 57030 IEM_DS3505
ZGNN,2001-10-18 07:00,ZGNN 180700Z AUTO 7SM 26/16 A2997 RMK T02600160 IEM_DS3505
ZGNN,2001-10-18 08:00,ZGNN 180800Z AUTO 7SM 27/16 A2997 RMK T02700160 IEM_DS3505
ZGNN,2001-10-18 09:00,ZGNN 180900Z AUTO 00000KT 14SM 26/18 A2997 RMK SLP147 T02620175 57009 IEM_DS3505
ZGNN,2001-10-18 10:00,ZGNN 181000Z AUTO 34004KT 6SM 25/17 A2997 RMK T02500170 IEM_DS3505
ZGNN,2001-10-18 11:00,ZGNN 181100Z AUTO 6SM 24/19 A2997 RMK T02400190 IEM_DS3505
ZGNN,2001-10-18 12:00,ZGNN 181200Z AUTO 00000KT 9SM 21/20 A3000 RMK SLP168 T02140195 52019 IEM_DS3505
ZGNN,2001-10-18 13:00,ZGNN 181300Z AUTO 5SM 22/18 A3003 RMK T02200180 IEM_DS3505
ZGNN,2001-10-18 14:00,ZGNN 181400Z AUTO 4SM 21/18 A3006 RMK T02100180 IEM_DS3505
ZGNN,2001-10-18 15:00,ZGNN 181500Z AUTO 00000KT 9SM 20/19 A3003 RMK SLP175 T01990186 52008 IEM_DS3505
ZGNN,2001-10-18 16:00,ZGNN 181600Z AUTO 3SM 21/19 A3006 RMK T02100190 IEM_DS3505
ZGNN,2001-10-18 17:00,ZGNN 181700Z AUTO 2 1/2SM 21/19 A3006 RMK T02100190 IEM_DS3505
ZGNN,2001-10-18 18:00,ZGNN 181800Z AUTO 00000KT 7SM 21/20 A3006 RMK SLP181 T02110197 52006 IEM_DS3505
ZGNN,2001-10-18 19:00,ZGNN 181900Z AUTO 03002KT 3SM 22/19 A3006 RMK T02200190 IEM_DS3505
ZGNN,2001-10-18 20:00,ZGNN 182000Z AUTO 3SM 22/18 A3006 RMK T02200180 IEM_DS3505
ZGNN,2001-10-18 21:00,ZGNN 182100Z AUTO 00000KT 7SM 22/20 A3006 RMK 70003 SLP180 T02160201 54000 IEM_DS3505
ZGNN,2001-10-18 22:00,ZGNN 182200Z AUTO 07004KT 2SM 21/19 A3006 RMK T02100190 IEM_DS3505
ZGNN,2001-10-18 23:00,ZGNN 182300Z AUTO 36004KT 2SM 21/18 A3009 RMK T02100180 IEM_DS3505
ZGNN,2001-10-19 00:00,ZGNN 190000Z AUTO 00000KT 2 1/2SM 21/20 A3012 RMK 60008 SLP199 T02080200 52017 IEM_DS3505
ZGNN,2001-10-19 01:00,ZGNN 190100Z AUTO 2SM 22/19 A3012 RMK T02200190 IEM_DS3505
ZGNN,2001-10-19 02:00,ZGNN 190200Z AUTO 2 1/2SM 23/19 A3012 RMK T02300190 IEM_DS3505
ZGNN,2001-10-19 03:00,ZGNN 190300Z AUTO 09004KT 7SM 25/19 A3012 RMK SLP204 T02500191 52006 IEM_DS3505
ZGNN,2001-10-19 04:00,ZGNN 190400Z AUTO 6SM 26/18 A3012 RMK T02600180 IEM_DS3505
ZGNN,2001-10-19 05:00,ZGNN 190500Z AUTO 6SM 27/19 A3009 RMK T02700190 IEM_DS3505
ZGNN,2001-10-19 06:00,ZGNN 190600Z AUTO 18004KT 9SM 28/20 A3006 RMK SLP178 T02820204 57025 IEM_DS3505
ZGNN,2001-10-19 07:00,ZGNN 190700Z AUTO 29/19 A3003 RMK T02900190 IEM_DS3505
ZGNN,2001-10-19 08:00,ZGNN 190800Z AUTO 28/19 A3000 RMK T02800190 IEM_DS3505
ZGNN,2001-10-19 09:00,ZGNN 190900Z AUTO 00000KT 9SM 28/21 A3000 RMK SLP162 T02770208 57016 IEM_DS3505
ZGNN,2001-10-19 10:00,ZGNN 191000Z AUTO 34004KT 27/21 A3000 RMK T02700210 IEM_DS3505
ZGNN,2001-10-19 11:00,ZGNN 191100Z AUTO 33004KT 4SM 25/20 A3000 RMK T02500200 IEM_DS3505
ZGNN,2001-10-19 12:00,ZGNN 191200Z AUTO 00000KT 7SM 24/21 A3003 RMK SLP172 T02380209 52009 IEM_DS3505
ZGNN,2001-10-19 13:00,ZGNN 191300Z AUTO 3SM 23/20 A3006 RMK T02300200 IEM_DS3505
ZGNN,2001-10-19 14:00,ZGNN 191400Z AUTO 24002KT 3SM 23/20 A3006 RMK T02300200 IEM_DS3505
ZGNN,2001-10-19 15:00,ZGNN 191500Z AUTO 00000KT 5SM 21/20 A3006 RMK SLP181 T02140205 52009 IEM_DS3505
ZGNN,2001-10-19 16:00,ZGNN 191600Z AUTO 29002KT 2 1/2SM 22/20 A3006 RMK T02200200 IEM_DS3505
ZGNN,2001-10-19 17:00,ZGNN 191700Z AUTO 2SM 22/20 A3006 RMK T02200200 IEM_DS3505
ZGNN,2001-10-19 18:00,ZGNN 191800Z AUTO 00000KT 2 1/2SM 21/20 A3003 RMK SLP174 T02070201 57006 IEM_DS3505
ZGNN,2001-10-19 19:00,ZGNN 191900Z AUTO 07002KT 1 1/4SM 21/19 A3003 RMK T02100190 IEM_DS3505
ZGNN,2001-10-19 20:00,ZGNN 192000Z AUTO 1SM 20/19 A3003 RMK T02000190 IEM_DS3505
ZGNN,2001-10-19 21:00,ZGNN 192100Z AUTO 00000KT 3SM 21/20 A3003 RMK 70009 SLP171 T02080202 57003 IEM_DS3505
ZGNN,2001-10-19 22:00,ZGNN 192200Z AUTO 2 1/2SM 21/19 A3003 RMK T02100190 IEM_DS3505
ZGNN,2001-10-19 23:00,ZGNN 192300Z AUTO 32002KT 1SM 21/19 A3006 RMK T02100190 IEM_DS3505
ZGNN,2001-10-20 00:00,ZGNN 200000Z AUTO 00000KT 2 1/2SM 21/20 A3006 RMK SLP188 T02060203 52016 IEM_DS3505
ZGNN,2001-10-20 01:00,ZGNN 200100Z AUTO 1SM 23/20 A3009 RMK T02300200 IEM_DS3505
ZGNN,2001-10-20 02:00,ZGNN 200200Z AUTO 2SM 25/21 A3009 RMK T02500210 IEM_DS3505
ZGNN,2001-10-20 03:00,ZGNN 200300Z AUTO 22002KT 3SM 26/22 A3006 RMK SLP183 T02610223 57004 IEM_DS3505
ZGNN,2001-10-20 04:00,ZGNN 200400Z AUTO 3SM 27/21 A3003 RMK T02700210 IEM_DS3505
ZGNN,2001-10-20 05:00,ZGNN 200500Z AUTO 29/21 A3000 RMK T02900210 IEM_DS3505
ZGNN,2001-10-20 06:00,ZGNN 200600Z AUTO 00000KT 6SM 29/22 A2997 RMK SLP152 T02900216 57031 IEM_DS3505
ZGNN,2001-10-20 07:00,ZGNN 200700Z AUTO 30/20 A2994 RMK T03000200 IEM_DS3505
ZGNN,2001-10-20 08:00,ZGNN 200800Z AUTO 29/20 A2994 RMK T02900200 IEM_DS3505
ZGNN,2001-10-20 09:00,ZGNN 200900Z AUTO 04002KT 6SM 29/21 A2994 RMK SLP137 T02900213 57014 IEM_DS3505
ZGNN,2001-10-20 10:00,ZGNN 201000Z AUTO 11002KT 28/22 A2994 RMK T02800220 IEM_DS3505
ZGNN,2001-10-20 11:00,ZGNN 201100Z AUTO 00000KT 6SM 27/22 A2994 RMK SLP156 T02700220 52017 IEM_DS3505
ZGNN,2001-10-20 12:00,ZGNN 201200Z AUTO 00000KT 6SM 24/22 A2997 RMK SLP156 T02450224 52017 IEM_DS3505
ZGNN,2001-10-20 13:00,ZGNN 201300Z AUTO 3SM 24/22 A3000 RMK T02400220 IEM_DS3505
ZGNN,2001-10-20 14:00,ZGNN 201400Z AUTO 1 1/2SM 24/22 A3000 RMK T02400220 IEM_DS3505
ZGNN,2001-10-20 15:00,ZGNN 201500Z AUTO 00000KT 6SM 22/22 RMK SLP164 T02230215 52009 IEM_DS3505
ZGNN,2001-10-20 18:00,ZGNN 201800Z AUTO 00000KT 3SM 21/21 RMK SLP154 T02140208 57009 IEM_DS3505
ZGNN,2001-10-20 21:00,ZGNN 202100Z AUTO 00000KT 3SM 21/21 A3000 RMK SLP156 T02110208 52002 IEM_DS3505
ZGNN,2001-10-20 22:00,ZGNN 202200Z AUTO 04002KT 2SM 21/20 A3000 RMK T02100200 IEM_DS3505
ZGNN,2001-10-20 23:00,ZGNN 202300Z AUTO 35002KT 2SM 21/20 A3000 RMK T02100200 IEM_DS3505
ZGNN,2001-10-21 00:00,ZGNN 210000Z AUTO 00000KT 2SM 21/21 A3003 RMK SLP168 T02120210 52010 IEM_DS3505
ZGNN,2001-10-21 01:00,ZGNN 210100Z AUTO 2SM 24/22 A3003 RMK T02400220 IEM_DS3505
ZGNN,2001-10-21 02:00,ZGNN 210200Z AUTO 2 1/2SM 26/21 A3003 RMK T02600210 IEM_DS3505
ZGNN,2001-10-21 03:00,ZGNN 210300Z AUTO 32004KT 4SM 28/22 A3003 RMK SLP169 T02770218 52002 IEM_DS3505
ZGNN,2001-10-21 04:00,ZGNN 210400Z AUTO 02006KT 2 1/2SM 29/20 A3000 RMK T02900200 IEM_DS3505
ZGNN,2001-10-21 05:00,ZGNN 210500Z AUTO 06008KT 5SM 29/20 A2994 RMK T02900200 IEM_DS3505
ZGNN,2001-10-21 06:00,ZGNN 210600Z AUTO 04004KT 6SM 30/20 A2991 RMK SLP133 T03020198 57035 IEM_DS3505
ZGNN,2001-10-21 07:00,ZGNN 210700Z AUTO 11006KT 7SM 30/19 A2991 RMK T03000190 IEM_DS3505
ZGNN,2001-10-21 08:00,ZGNN 210800Z AUTO 11006KT 7SM 31/20 A2991 RMK T03100200 IEM_DS3505
ZGNN,2001-10-21 09:00,ZGNN 210900Z AUTO 04002KT 6SM 30/21 A2991 RMK SLP127 T03000211 57006 IEM_DS3505
ZGNN,2001-10-21 10:00,ZGNN 211000Z AUTO 05002KT 28/21 A2991 RMK T02800210 IEM_DS3505
ZGNN,2001-10-21 11:00,ZGNN 211100Z AUTO 36002KT 27/21 A2991 RMK T02700210 IEM_DS3505
ZGNN,2001-10-21 12:00,ZGNN 211200Z AUTO 00000KT 5SM 24/22 A2994 RMK SLP142 T02400219 52014 IEM_DS3505
ZGNN,2001-10-21 13:00,ZGNN 211300Z AUTO 3SM 24/21 A2997 RMK T02400210 IEM_DS3505
ZGNN,2001-10-21 14:00,ZGNN 211400Z AUTO 2 1/2SM 23/21 A2997 RMK T02300210 IEM_DS3505
ZGNN,2001-10-21 15:00,ZGNN 211500Z AUTO 00000KT 4SM 22/21 A2997 RMK SLP152 T02180209 52010 IEM_DS3505
ZGNN,2001-10-21 16:00,ZGNN 211600Z AUTO 2SM 22/20 A2997 RMK T02200200 IEM_DS3505
ZGNN,2001-10-21 17:00,ZGNN 211700Z AUTO 1 1/2SM 22/20 A2997 RMK T02200200 IEM_DS3505
ZGNN,2001-10-21 18:00,ZGNN 211800Z AUTO 02002KT 4SM 22/21 A2997 RMK SLP154 T02160208 52003 IEM_DS3505
ZGNN,2001-10-21 19:00,ZGNN 211900Z AUTO 35004KT 1 1/2SM 22/20 A2997 RMK T02200200 IEM_DS3505
ZGNN,2001-10-21 20:00,ZGNN 212000Z AUTO 1 1/2SM 22/20 A2997 RMK T02200200 IEM_DS3505
ZGNN,2001-10-21 21:00,ZGNN 212100Z AUTO 00000KT 3SM 21/20 A2997 RMK SLP150 T02070202 57004 IEM_DS3505
ZGNN,2001-10-21 22:00,ZGNN 212200Z AUTO 1 1/2SM 21/20 A2997 RMK T02100200 IEM_DS3505
ZGNN,2001-10-21 23:00,ZGNN 212300Z AUTO 1SM 21/20 A3000 RMK T02100200 IEM_DS3505
ZGNN,2001-10-22 00:00,ZGNN 220000Z AUTO 00000KT 2SM 21/21 A3003 RMK SLP174 T02130210 52022 IEM_DS3505
ZGNN,2001-10-22 01:00,ZGNN 220100Z AUTO 1 1/4SM 24/21 A3003 RMK T02400210 IEM_DS3505
ZGNN,2001-10-22 02:00,ZGNN 220200Z AUTO 1 1/4SM 26/21 A3003 RMK T02600210 IEM_DS3505
ZGNN,2001-10-22 03:00,ZGNN 220300Z AUTO 09004KT 3SM 28/21 A3003 RMK SLP174 T02780211 52001 IEM_DS3505
ZGNN,2001-10-22 04:00,ZGNN 220400Z AUTO 05008KT 2 1/2SM 29/20 A3003 RMK T02900200 IEM_DS3505
ZGNN,2001-10-22 06:00,ZGNN 220600Z AUTO 09004KT 6SM 30/20 A2997 RMK SLP149 T03030205 57024 IEM_DS3505
ZGNN,2001-10-22 07:00,ZGNN 220700Z AUTO 06008KT 7SM 30/19 A2994 RMK T03000190 IEM_DS3505
ZGNN,2001-10-22 08:00,ZGNN 220800Z AUTO 04008KT 7SM 30/20 A2994 RMK T03000200 IEM_DS3505
ZGNN,2001-10-22 09:00,ZGNN 220900Z AUTO 00000KT 6SM 30/21 A2994 RMK SLP137 T02960208 57012 IEM_DS3505
ZGNN,2001-10-22 11:00,ZGNN 221100Z AUTO 03006KT 26/20 A2994 RMK T02600200 IEM_DS3505
ZGNN,2001-10-22 12:00,ZGNN 221200Z AUTO 00000KT 6SM 26/21 A2997 RMK SLP149 T02600212 52011 IEM_DS3505
ZGNN,2001-10-22 13:00,ZGNN 221300Z AUTO 06004KT 3SM 25/21 A2997 RMK T02500210 IEM_DS3505
ZGNN,2001-10-22 14:00,ZGNN 221400Z AUTO 04002KT 2 1/2SM 25/21 A3000 RMK T02500210 IEM_DS3505
ZGNN,2001-10-22 15:00,ZGNN 221500Z AUTO 00000KT 6SM 24/22 A3000 RMK SLP158 T02420217 52010 IEM_DS3505
ZGNN,2001-10-22 16:00,ZGNN 221600Z AUTO 07004KT 2 1/2SM 24/21 A3000 RMK T02400210 IEM_DS3505
ZGNN,2001-10-22 17:00,ZGNN 221700Z AUTO 2SM 24/20 A3000 RMK T02400200 IEM_DS3505
ZGNN,2001-10-22 18:00,ZGNN 221800Z AUTO 00000KT 6SM 24/20 A3000 RMK SLP154 T02400200 57003 IEM_DS3505
ZGNN,2001-10-22 19:00,ZGNN 221900Z AUTO 05004KT 2 1/2SM 23/19 A2997 RMK T02300190 IEM_DS3505
ZGNN,2001-10-22 20:00,ZGNN 222000Z AUTO 09004KT 3SM 23/19 A3000 RMK T02300190 IEM_DS3505
ZGNN,2001-10-22 21:00,ZGNN 222100Z AUTO 00000KT 6SM 23/19 A3000 RMK SLP160 T02290190 52005 IEM_DS3505
ZGNN,2001-10-22 22:00,ZGNN 222200Z AUTO 3SM 22/18 A3003 RMK T02200180 IEM_DS3505
ZGNN,2001-10-22 23:00,ZGNN 222300Z AUTO 2 1/2SM 21/19 A3003 RMK T02100190 IEM_DS3505
ZGNN,2001-10-23 00:00,ZGNN 230000Z AUTO 00000KT 4SM 22/20 A3006 RMK SLP178 T02230198 52017 IEM_DS3505
ZGNN,2001-10-23 01:00,ZGNN 230100Z AUTO 2 1/2SM 24/19 A3006 RMK T02400190 IEM_DS3505
ZGNN,2001-10-23 02:00,ZGNN 230200Z AUTO 11002KT 2 1/2SM 25/19 A3009 RMK T02500190 IEM_DS3505
ZGNN,2001-10-23 03:00,ZGNN 230300Z AUTO 04004KT 6SM 27/20 A3009 RMK SLP186 T02680195 52008 IEM_DS3505
ZGNN,2001-10-23 04:00,ZGNN 230400Z AUTO 27/19 A3006 RMK T02700190 IEM_DS3505
ZGNN,2001-10-23 05:00,ZGNN 230500Z AUTO 02006KT 4SM RMK IEM_DS3505
ZGNN,2001-10-23 06:00,ZGNN 230600Z AUTO 36004KT 6SM 28/20 A3000 RMK SLP158 T02820197 57027 IEM_DS3505
ZGNN,2001-10-23 07:00,ZGNN 230700Z AUTO 28/20 A2997 RMK T02800200 IEM_DS3505
ZGNN,2001-10-23 08:00,ZGNN 230800Z AUTO 02006KT 28/19 A2997 RMK T02800190 IEM_DS3505
ZGNN,2001-10-23 09:00,ZGNN 230900Z AUTO 04002KT 6SM 28/20 A2997 RMK SLP145 T02810205 57013 IEM_DS3505
ZGNN,2001-10-23 10:00,ZGNN 231000Z AUTO 02004KT 27/19 A2997 RMK T02700190 IEM_DS3505
ZGNN,2001-10-23 11:00,ZGNN 231100Z AUTO 02004KT 4SM 26/21 A3000 RMK T02600210 IEM_DS3505
ZGNN,2001-10-23 12:00,ZGNN 231200Z AUTO 00000KT 6SM 24/21 A3000 RMK SLP163 T02440214 52017 IEM_DS3505
ZGNN,2001-10-23 13:00,ZGNN 231300Z AUTO 35002KT 3SM 24/21 A3000 RMK T02400210 IEM_DS3505
ZGNN,2001-10-23 14:00,ZGNN 231400Z AUTO 2SM 23/21 A3003 RMK T02300210 IEM_DS3505
ZGNN,2001-10-23 15:00,ZGNN 231500Z AUTO 00000KT 6SM 23/21 A3003 RMK SLP166 T02300212 52003 IEM_DS3505
ZGNN,2001-10-23 16:00,ZGNN 231600Z AUTO 04004KT 2SM 23/20 A3000 RMK T02300200 IEM_DS3505
ZGNN,2001-10-23 17:00,ZGNN 231700Z AUTO 01002KT 2 1/2SM 23/19 A3000 RMK T02300190 IEM_DS3505
ZGNN,2001-10-23 18:00,ZGNN 231800Z AUTO 00000KT 6SM 23/20 A3000 RMK SLP156 T02300202 57009 IEM_DS3505
ZGNN,2001-10-23 19:00,ZGNN 231900Z AUTO 2SM 23/20 A2997 RMK T02300200 IEM_DS3505
ZGNN,2001-10-23 20:00,ZGNN 232000Z AUTO 02002KT 2 1/2SM 23/19 A2997 RMK T02300190 IEM_DS3505
ZGNN,2001-10-23 21:00,ZGNN 232100Z AUTO 00000KT 6SM 22/21 A2997 RMK SLP148 T02230209 57008 IEM_DS3505
ZGNN,2001-10-23 22:00,ZGNN 232200Z AUTO 2 1/2SM 22/20 A2997 RMK T02200200 IEM_DS3505
ZGNN,2001-10-23 23:00,ZGNN 232300Z AUTO 18002KT 1 1/4SM 22/20 A3000 RMK T02200200 IEM_DS3505
ZGNN,2001-10-24 00:00,ZGNN 240000Z AUTO 00000KT 4SM 22/21 A3000 RMK SLP162 T02220208 52013 IEM_DS3505
ZGNN,2001-10-24 01:00,ZGNN 240100Z AUTO 1 1/2SM 23/20 A3003 RMK T02300200 IEM_DS3505
ZGNN,2001-10-24 02:00,ZGNN 240200Z AUTO 2SM 25/19 A3003 RMK T02500190 IEM_DS3505
ZGNN,2001-10-24 03:00,ZGNN 240300Z AUTO 09004KT 4SM 27/19 A3000 RMK SLP160 T02740191 57001 IEM_DS3505
ZGNN,2001-10-24 04:00,ZGNN 240400Z AUTO 10006KT 3SM 28/20 A3000 RMK T02800200 IEM_DS3505
ZGNN,2001-10-24 05:00,ZGNN 240500Z AUTO 10006KT 28/21 A2997 RMK T02800210 IEM_DS3505
ZGNN,2001-10-24 06:00,ZGNN 240600Z AUTO 04004KT 4SM 29/21 A2994 RMK SLP137 T02940208 57023 IEM_DS3505
ZGNN,2001-10-24 07:00,ZGNN 240700Z AUTO 05006KT 30/19 A2991 RMK T03000190 IEM_DS3505
ZGNN,2001-10-24 08:00,ZGNN 240800Z AUTO 30/19 A2991 RMK T03000190 IEM_DS3505
ZGNN,2001-10-24 09:00,ZGNN 240900Z AUTO 00000KT 4SM 30/22 A2988 RMK SLP127 T02980216 57010 IEM_DS3505
ZGNN,2001-10-24 10:00,ZGNN 241000Z AUTO 12002KT 5SM 28/21 A2991 RMK T02800210 IEM_DS3505
ZGNN,2001-10-24 11:00,ZGNN 241100Z AUTO 14004KT 5SM 27/22 A2991 RMK T02700220 IEM_DS3505
ZGNN,2001-10-24 12:00,ZGNN 241200Z AUTO 00000KT 4SM 25/22 A2994 RMK SLP142 T02490222 52014 IEM_DS3505
ZGNN,2001-10-24 13:00,ZGNN 241300Z AUTO 11002KT 2 1/2SM 25/22 A2994 RMK T02500220 IEM_DS3505
ZGNN,2001-10-24 14:00,ZGNN 241400Z AUTO 2 1/2SM 25/22 A2997 RMK T02500220 IEM_DS3505
ZGNN,2001-10-24 15:00,ZGNN 241500Z AUTO 00000KT 4SM 24/22 A2997 RMK SLP150 T02350223 52009 IEM_DS3505
ZGNN,2001-10-24 16:00,ZGNN 241600Z AUTO 29002KT 2SM 24/21 A2997 RMK T02400210 IEM_DS3505
ZGNN,2001-10-24 17:00,ZGNN 241700Z AUTO 1 1/2SM 23/21 A2997 RMK T02300210 IEM_DS3505
ZGNN,2001-10-24 18:00,ZGNN 241800Z AUTO 00000KT 4SM 22/21 A2994 RMK SLP140 T02200212 57010 IEM_DS3505
ZGNN,2001-10-24 19:00,ZGNN 241900Z AUTO 1 1/2SM 22/21 A2994 RMK T02200210 IEM_DS3505
ZGNN,2001-10-24 20:00,ZGNN 242000Z AUTO 3SM 22/20 A2994 RMK T02200200 IEM_DS3505
ZGNN,2001-10-24 21:00,ZGNN 242100Z AUTO 00000KT 3SM 21/21 A2994 RMK SLP140 T02120206 54000 IEM_DS3505
ZGNN,2001-10-24 22:00,ZGNN 242200Z AUTO 35002KT 3SM 22/20 A2994 RMK T02200200 IEM_DS3505
ZGNN,2001-10-24 23:00,ZGNN 242300Z AUTO 04002KT 2SM 22/20 A2994 RMK T02200200 IEM_DS3505
ZGNN,2001-10-25 00:00,ZGNN 250000Z AUTO 00000KT 3SM 23/22 A2997 RMK SLP152 T02260217 52011 IEM_DS3505
ZGNN,2001-10-25 01:00,ZGNN 250100Z AUTO 1 1/2SM 24/21 A3000 RMK T02400210 IEM_DS3505
ZGNN,2001-10-25 02:00,ZGNN 250200Z AUTO 14008KT 4SM 25/22 A3000 RMK T02500220 IEM_DS3505
ZGNN,2001-10-25 03:00,ZGNN 250300Z AUTO 16006KT 4SM 27/22 A3000 RMK SLP158 T02700217 52007 IEM_DS3505
ZGNN,2001-10-25 04:00,ZGNN 250400Z AUTO 14008KT 7SM 27/21 A2997 RMK T02700210 IEM_DS3505
ZGNN,2001-10-25 05:00,ZGNN 250500Z AUTO 16008KT 7SM 28/20 A2994 RMK T02800200 IEM_DS3505
ZGNN,2001-10-25 06:00,ZGNN 250600Z AUTO 11004KT 9SM 29/20 A2991 RMK SLP128 T02880204 57030 IEM_DS3505
ZGNN,2001-10-25 07:00,ZGNN 250700Z AUTO 12006KT 7SM 30/20 A2988 RMK T03000200 IEM_DS3505
ZGNN,2001-10-25 08:00,ZGNN 250800Z AUTO 12006KT 7SM 29/19 A2985 RMK T02900190 IEM_DS3505
ZGNN,2001-10-25 09:00,ZGNN 250900Z AUTO 16002KT 11SM 29/20 A2985 RMK SLP112 T02930205 57016 IEM_DS3505
ZGNN,2001-10-25 10:00,ZGNN 251000Z AUTO 13004KT 6SM 28/20 A2985 RMK T02800200 IEM_DS3505
ZGNN,2001-10-25 11:00,ZGNN 251100Z AUTO 13002KT 6SM 26/21 A2988 RMK T02600210 IEM_DS3505
ZGNN,2001-10-25 12:00,ZGNN 251200Z AUTO 00000KT 9SM 24/22 A2988 RMK SLP129 T02430221 52016 IEM_DS3505
ZGNN,2001-10-25 13:00,ZGNN 251300Z AUTO 5SM 24/21 A2991 RMK T02400210 IEM_DS3505
ZGNN,2001-10-25 14:00,ZGNN 251400Z AUTO 24002KT 5SM 24/21 A2994 RMK T02400210 IEM_DS3505
ZGNN,2001-10-25 15:00,ZGNN 251500Z AUTO 00000KT 7SM 22/21 A2994 RMK SLP143 T02210213 52014 IEM_DS3505
ZGNN,2001-10-25 16:00,ZGNN 251600Z AUTO 4SM 24/21 A2994 RMK T02400210 IEM_DS3505
ZGNN,2001-10-25 17:00,ZGNN 251700Z AUTO 33002KT 3SM 23/20 A2991 RMK T02300200 IEM_DS3505
ZGNN,2001-10-25 18:00,ZGNN 251800Z AUTO 00000KT 7SM 21/20 A2991 RMK SLP134 T02140205 57008 IEM_DS3505
ZGNN,2001-10-25 19:00,ZGNN 251900Z AUTO 4SM 23/20 A2991 RMK T02300200 IEM_DS3505
ZGNN,2001-10-25 20:00,ZGNN 252000Z AUTO 5SM 23/21 A2991 RMK T02300210 IEM_DS3505
ZGNN,2001-10-25 21:00,ZGNN 252100Z AUTO 00000KT 6SM 22/21 A2988 RMK SLP125 T02160210 57009 IEM_DS3505
ZGNN,2001-10-25 22:00,ZGNN 252200Z AUTO 5SM 22/21 A2988 RMK T02200210 IEM_DS3505
ZGNN,2001-10-25 23:00,ZGNN 252300Z AUTO 36002KT 3SM 23/21 A2991 RMK T02300210 IEM_DS3505
ZGNN,2001-10-26 00:00,ZGNN 260000Z AUTO 00000KT 2 1/2SM 22/22 A2994 RMK 60002 SLP144 T02250221 52018 IEM_DS3505
ZGNN,2001-10-26 01:00,ZGNN 260100Z AUTO 2 1/2SM 23/21 A2997 RMK T02300210 IEM_DS3505
ZGNN,2001-10-26 02:00,ZGNN 260200Z AUTO 03006KT 2 1/2SM 24/21 A2997 RMK T02400210 IEM_DS3505
ZGNN,2001-10-26 03:00,ZGNN 260300Z AUTO 16002KT 7SM 25/22 A2997 RMK SLP153 T02540222 52009 IEM_DS3505
ZGNN,2001-10-26 04:00,ZGNN 260400Z AUTO 7SM 25/22 A2997 RMK T02500220 IEM_DS3505
ZGNN,2001-10-26 05:00,ZGNN 260500Z AUTO 5SM 25/22 A2994 RMK T02500220 IEM_DS3505
ZGNN,2001-10-26 06:00,ZGNN 260600Z AUTO 00000KT 5SM 25/24 A2991 RMK 60008 SLP132 T02520235 57021 IEM_DS3505
ZGNN,2001-10-26 07:00,ZGNN 260700Z AUTO 3SM 25/23 A2988 RMK T02500230 IEM_DS3505
ZGNN,2001-10-26 08:00,ZGNN 260800Z AUTO 2SM RMK IEM_DS3505
ZGNN,2001-10-26 09:00,ZGNN 260900Z AUTO 00000KT 4SM 25/24 A2988 RMK SLP125 T02480239 57007 IEM_DS3505
ZGNN,2001-10-26 10:00,ZGNN 261000Z AUTO 18004KT 5SM 25/22 A2991 RMK T02500220 IEM_DS3505
ZGNN,2001-10-26 11:00,ZGNN 261100Z AUTO 18002KT 7SM 24/22 A2991 RMK T02400220 IEM_DS3505
ZGNN,2001-10-26 12:00,ZGNN 261200Z AUTO 00000KT 9SM 24/24 RMK 60008 SLP136 T02430236 52011 IEM_DS3505
ZGNN,2001-10-26 13:00,ZGNN 261300Z AUTO 03002KT 6SM 24/22 A2994 RMK T02400220 IEM_DS3505
ZGNN,2001-10-26 14:00,ZGNN 261400Z AUTO 2SM 24/22 A2994 RMK T02400220 IEM_DS3505
ZGNN,2001-10-26 15:00,ZGNN 261500Z AUTO 00000KT 4SM 23/23 A2994 RMK SLP146 T02290226 52010 IEM_DS3505
ZGNN,2001-10-26 16:00,ZGNN 261600Z AUTO 2SM 23/22 A2994 RMK T02300220 IEM_DS3505
ZGNN,2001-10-26 17:00,ZGNN 261700Z AUTO 1 1/4SM 22/21 A2994 RMK T02200210 IEM_DS3505
ZGNN,2001-10-26 18:00,ZGNN 261800Z AUTO 00000KT 2 1/2SM 23/22 A2994 RMK SLP142 T02260223 57004 IEM_DS3505
ZGNN,2001-10-26 19:00,ZGNN 261900Z AUTO 1SM 22/21 A2994 RMK T02200210 IEM_DS3505
ZGNN,2001-10-26 20:00,ZGNN 262000Z AUTO 1 1/2SM 22/21 A2994 RMK T02200210 IEM_DS3505
ZGNN,2001-10-27 00:00,ZGNN 270000Z AUTO 32006KT 7SM 22/21 A3000 RMK 60008 SLP161 T02160207 52023 IEM_DS3505
ZGNN,2001-10-27 01:00,ZGNN 270100Z AUTO 35008KT 7SM 22/20 A3000 RMK T02200200 IEM_DS3505
ZGNN,2001-10-27 02:00,ZGNN 270200Z AUTO 01010KT 7SM 23/20 A3003 RMK T02300200 IEM_DS3505
ZGNN,2001-10-27 03:00,ZGNN 270300Z AUTO 36004KT 19SM 25/22 A3003 RMK SLP169 T02520216 52009 IEM_DS3505
ZGNN,2001-10-27 04:00,ZGNN 270400Z AUTO 34008KT 7SM 25/20 A3003 RMK T02500200 IEM_DS3505
ZGNN,2001-10-27 05:00,ZGNN 270500Z AUTO 35008KT 7SM 24/20 A3000 RMK T02400200 IEM_DS3505
ZGNN,2001-10-27 06:00,ZGNN 270600Z AUTO 32006KT 19SM 25/22 A2997 RMK 60000 SLP149 T02500216 57020 IEM_DS3505
ZGNN,2001-10-27 07:00,ZGNN 270700Z AUTO 34008KT 7SM 25/20 A2997 RMK T02500200 IEM_DS3505
ZGNN,2001-10-27 08:00,ZGNN 270800Z AUTO 34006KT 7SM 24/20 A2994 RMK T02400200 IEM_DS3505
ZGNN,2001-10-27 09:00,ZGNN 270900Z AUTO 34010KT 19SM 24/22 A2994 RMK SLP146 T02450215 57003 IEM_DS3505
ZGNN,2001-10-27 10:00,ZGNN 271000Z AUTO 33008KT 7SM 24/20 A2997 RMK T02400200 IEM_DS3505
ZGNN,2001-10-27 11:00,ZGNN 271100Z AUTO 34006KT 7SM 24/20 A2997 RMK T02400200 IEM_DS3505
ZGNN,2001-10-27 12:00,ZGNN 271200Z AUTO 34006KT 19SM 23/20 A3000 RMK T02300200 IEM_DS3505
ZGNN,2001-10-27 13:00,ZGNN 271300Z AUTO 36004KT 7SM 23/20 A3003 RMK T02300200 IEM_DS3505
ZGNN,2001-10-27 14:00,ZGNN 271400Z AUTO 35004KT 7SM 23/20 A3003 RMK T02300200 IEM_DS3505
ZGNN,2001-10-27 15:00,ZGNN 271500Z AUTO 00000KT 16SM 22/21 A3003 RMK SLP175 T02200206 52011 IEM_DS3505
ZGNN,2001-10-27 16:00,ZGNN 271600Z AUTO 02002KT 7SM 22/20 A3006 RMK T02200200 IEM_DS3505
ZGNN,2001-10-27 17:00,ZGNN 271700Z AUTO 7SM 22/20 A3003 RMK T02200200 IEM_DS3505
ZGNN,2001-10-27 18:00,ZGNN 271800Z AUTO 00000KT 9SM 22/21 A3003 RMK SLP174 T02170206 57002 IEM_DS3505
ZGNN,2001-10-27 19:00,ZGNN 271900Z AUTO 03002KT 7SM 22/20 A3003 RMK T02200200 IEM_DS3505
ZGNN,2001-10-27 20:00,ZGNN 272000Z AUTO 7SM 21/19 A3003 RMK T02100190 IEM_DS3505
ZGNN,2001-10-27 21:00,ZGNN 272100Z AUTO 34004KT 9SM 21/19 A3003 RMK 70009 SLP168 T02130193 57006 IEM_DS3505
ZGNN,2001-10-27 22:00,ZGNN 272200Z AUTO 36004KT 6SM 21/17 A3003 RMK T02100170 IEM_DS3505
ZGNN,2001-10-27 23:00,ZGNN 272300Z AUTO 6SM 21/17 A3006 RMK T02100170 IEM_DS3505
ZGNN,2001-10-28 00:00,ZGNN 280000Z AUTO 00000KT 16SM 21/19 A3009 RMK 60003 SLP193 T02110186 52025 IEM_DS3505
ZGNN,2001-10-28 01:00,ZGNN 280100Z AUTO 35004KT 6SM 22/16 A3012 RMK T02200160 IEM_DS3505
ZGNN,2001-10-28 02:00,ZGNN 280200Z AUTO 34006KT 6SM 22/16 A3012 RMK T02200160 IEM_DS3505
ZGNN,2001-10-28 03:00,ZGNN 280300Z AUTO 36004KT 19SM 22/16 A3012 RMK SLP204 T02250163 52010 IEM_DS3505
ZGNN,2001-10-28 04:00,ZGNN 280400Z AUTO 36004KT 19SM 25/17 A3009 RMK 60003 SLP174 T02460167 57029 IEM_DS3505
ZGNN,2001-10-28 05:00,ZGNN 280500Z AUTO 36008KT 7SM 24/15 A3006 RMK T02400150 IEM_DS3505
ZGNN,2001-10-28 06:00,ZGNN 280600Z AUTO 36004KT 19SM 25/17 A3003 RMK 60003 SLP174 T02460167 57029 IEM_DS3505
ZGNN,2001-10-28 07:00,ZGNN 280700Z AUTO 33008KT 7SM 24/16 A3003 RMK T02400160 IEM_DS3505
ZGNN,2001-10-28 08:00,ZGNN 280800Z AUTO 34006KT 7SM 24/15 A3000 RMK T02400150 IEM_DS3505
ZGNN,2001-10-28 09:00,ZGNN 280900Z AUTO 36006KT 19SM 24/16 A3000 RMK SLP166 T02360165 57008 IEM_DS3505
ZGNN,2001-10-28 10:00,ZGNN 281000Z AUTO 36006KT 7SM 23/16 A3003 RMK T02300160 IEM_DS3505
ZGNN,2001-10-28 11:00,ZGNN 281100Z AUTO 36006KT 7SM 23/15 A3003 RMK T02300150 IEM_DS3505
ZGNN,2001-10-28 12:00,ZGNN 281200Z AUTO 36004KT 19SM 22/16 A3006 RMK SLP186 T02180157 52019 IEM_DS3505
ZGNN,2001-10-28 13:00,ZGNN 281300Z AUTO 03004KT 7SM 21/15 A3009 RMK T02100150 IEM_DS3505
ZGNN,2001-10-28 14:00,ZGNN 281400Z AUTO 35002KT 7SM 21/15 A3009 RMK T02100150 IEM_DS3505
ZGNN,2001-10-28 15:00,ZGNN 281500Z AUTO 00000KT 19SM 21/17 RMK SLP196 T02080169 52010 IEM_DS3505
ZGNN,2001-10-28 18:00,ZGNN 281800Z AUTO 00000KT 19SM 20/16 RMK SLP188 T02040157 57007 IEM_DS3505
ZGNN,2001-10-28 21:00,ZGNN 282100Z AUTO 32004KT 16SM 20/17 A3006 RMK 70003 SLP183 T01990166 57005 IEM_DS3505
ZGNN,2001-10-28 22:00,ZGNN 282200Z AUTO 6SM 19/16 A3006 RMK T01900160 IEM_DS3505
ZGNN,2001-10-28 23:00,ZGNN 282300Z AUTO 7SM 20/17 A3009 RMK T02000170 IEM_DS3505
ZGNN,2001-10-29 00:00,ZGNN 290000Z AUTO 34002KT 14SM 20/16 A3012 RMK 70003 SLP200 T02030165 52016 IEM_DS3505
ZGNN,2001-10-29 01:00,ZGNN 290100Z AUTO 35004KT 6SM 21/15 A3012 RMK T02100150 IEM_DS3505
ZGNN,2001-10-29 02:00,ZGNN 290200Z AUTO 36006KT 6SM 22/16 A3015 RMK T02200160 IEM_DS3505
ZGNN,2001-10-29 03:00,ZGNN 290300Z AUTO 32004KT 19SM 24/15 A3015 RMK SLP210 T02360150 52010 IEM_DS3505
ZGNN,2001-10-29 04:00,ZGNN 290400Z AUTO 02008KT 6SM 25/14 A3012 RMK T02500140 IEM_DS3505
ZGNN,2001-10-29 05:00,ZGNN 290500Z AUTO 36008KT 7SM 25/14 A3009 RMK T02500140 IEM_DS3505
ZGNN,2001-10-29 06:00,ZGNN 290600Z AUTO 34010G16KT 16SM 25/15 A3006 RMK SLP177 T02520154 57032 IEM_DS3505
ZGNN,2001-10-29 07:00,ZGNN 290700Z AUTO 34006KT 7SM 25/15 A3003 RMK T02500150 IEM_DS3505
ZGNN,2001-10-29 08:00,ZGNN 290800Z AUTO 33010KT 6SM 24/15 A3003 RMK T02400150 IEM_DS3505
ZGNN,2001-10-29 09:00,ZGNN 290900Z AUTO 34008KT 16SM 24/16 A3003 RMK SLP173 T02370160 57004 IEM_DS3505
ZGNN,2001-10-29 10:00,ZGNN 291000Z AUTO 33008KT 7SM 22/16 A3006 RMK T02200160 IEM_DS3505
ZGNN,2001-10-29 11:00,ZGNN 291100Z AUTO 34008KT 7SM 21/15 A3006 RMK T02100150 IEM_DS3505
ZGNN,2001-10-29 12:00,ZGNN 291200Z AUTO 34004KT 12SM 21/16 A3006 RMK SLP187 T02080165 52013 IEM_DS3505
ZGNN,2001-10-29 13:00,ZGNN 291300Z AUTO 35006KT 7SM 21/15 A3009 RMK T02100150 IEM_DS3505
ZGNN,2001-10-29 14:00,ZGNN 291400Z AUTO 35004KT 7SM 20/15 A3009 RMK T02000150 IEM_DS3505
ZGNN,2001-10-29 15:00,ZGNN 291500Z AUTO 34004KT 12SM 20/16 RMK SLP195 T01980165 52008 IEM_DS3505
ZGNN,2001-10-29 18:00,ZGNN 291800Z AUTO 34004KT 12SM 20/16 RMK SLP190 T01960163 57004 IEM_DS3505
ZGNN,2001-10-29 21:00,ZGNN 292100Z AUTO 00000KT 12SM 19/17 A3006 RMK SLP177 T01930167 57014 IEM_DS3505
ZGNN,2001-10-29 22:00,ZGNN 292200Z AUTO 34002KT 7SM 19/16 A3006 RMK T01900160 IEM_DS3505
ZGNN,2001-10-29 23:00,ZGNN 292300Z AUTO 7SM 19/16 A3006 RMK T01900160 IEM_DS3505
ZGNN,2001-10-30 00:00,ZGNN 300000Z AUTO 00000KT 5SM 20/17 A3009 RMK 60003 SLP191 T01950171 52014 IEM_DS3505
ZGNN,2001-10-30 01:00,ZGNN 300100Z AUTO 4SM 20/16 A3012 RMK T02000160 IEM_DS3505
ZGNN,2001-10-30 02:00,ZGNN 300200Z AUTO 05004KT 4SM 20/16 A3012 RMK T02000160 IEM_DS3505
ZGNN,2001-10-30 03:00,ZGNN 300300Z AUTO 09002KT 6SM 20/16 A3012 RMK SLP206 T02040161 52014 IEM_DS3505
ZGNN,2001-10-30 04:00,ZGNN 300400Z AUTO 05004KT 5SM 21/15 A3012 RMK T02100150 IEM_DS3505
ZGNN,2001-10-30 05:00,ZGNN 300500Z AUTO 02008KT 21/15 A3006 RMK T02100150 IEM_DS3505
ZGNN,2001-10-30 06:00,ZGNN 300600Z AUTO 04002KT 7SM 21/16 A3003 RMK SLP174 T02110162 57031 IEM_DS3505
ZGNN,2001-10-30 07:00,ZGNN 300700Z AUTO 04006KT 22/16 A3000 RMK T02200160 IEM_DS3505
ZGNN,2001-10-30 08:00,ZGNN 300800Z AUTO 5SM 21/16 A3000 RMK T02100160 IEM_DS3505
ZGNN,2001-10-30 09:00,ZGNN 300900Z AUTO 04002KT 5SM 21/16 A3000 RMK SLP165 T02140165 57009 IEM_DS3505
ZGNN,2001-10-30 10:00,ZGNN 301000Z AUTO 07004KT 5SM 21/16 A3003 RMK T02100160 IEM_DS3505
ZGNN,2001-10-30 11:00,ZGNN 301100Z AUTO 05002KT 3SM 20/17 A3003 RMK T02000170 IEM_DS3505
ZGNN,2001-10-30 12:00,ZGNN 301200Z AUTO 00000KT 4SM 20/18 A3003 RMK 60003 SLP172 T01980179 52007 IEM_DS3505
ZGNN,2001-10-30 13:00,ZGNN 301300Z AUTO 04002KT 2 1/2SM 19/17 A3006 RMK T01900170 IEM_DS3505
ZGNN,2001-10-30 14:00,ZGNN 301400Z AUTO 02002KT 3SM 20/17 A3006 RMK T02000170 IEM_DS3505
ZGNN,2001-10-30 15:00,ZGNN 301500Z AUTO 34004KT 4SM 19/18 A3006 RMK SLP180 T01860176 52007 IEM_DS3505
ZGNN,2001-10-30 16:00,ZGNN 301600Z AUTO 2 1/2SM 20/17 A3006 RMK T02000170 IEM_DS3505
ZGNN,2001-10-30 17:00,ZGNN 301700Z AUTO 2 1/2SM 20/17 A3003 RMK T02000170 IEM_DS3505
ZGNN,2001-10-30 18:00,ZGNN 301800Z AUTO 00000KT 3SM 20/18 A3003 RMK SLP168 T01960177 57011 IEM_DS3505
ZGNN,2001-10-30 19:00,ZGNN 301900Z AUTO 1 1/2SM 19/17 A3000 RMK T01900170 IEM_DS3505
ZGNN,2001-10-30 20:00,ZGNN 302000Z AUTO 01004KT 2SM 19/17 A3000 RMK T01900170 IEM_DS3505
ZGNN,2001-10-30 21:00,ZGNN 302100Z AUTO 00000KT 3SM 20/18 A3000 RMK 70003 SLP162 T01960177 57006 IEM_DS3505
ZGNN,2001-10-30 22:00,ZGNN 302200Z AUTO 04004KT 2 1/2SM 19/17 A3000 RMK T01900170 IEM_DS3505
ZGNN,2001-10-30 23:00,ZGNN 302300Z AUTO 05004KT 1 1/4SM 19/17 A3003 RMK T01900170 IEM_DS3505
ZGNN,2001-10-31 00:00,ZGNN 310000Z AUTO 09002KT 2 1/2SM 19/18 A3006 RMK 60000 SLP184 T01920182 52021 IEM_DS3505
ZGNN,2001-10-31 01:00,ZGNN 310100Z AUTO 1SM 19/18 A3009 RMK T01900180 IEM_DS3505
ZGNN,2001-10-31 02:00,ZGNN 310200Z AUTO 1 1/4SM 20/18 A3009 RMK T02000180 IEM_DS3505
ZGNN,2001-10-31 03:00,ZGNN 310300Z AUTO 00000KT 2 1/2SM 20/19 A3009 RMK SLP193 T02040188 52009 IEM_DS3505
ZGNN,2001-10-31 04:00,ZGNN 310400Z AUTO 1 1/2SM 21/18 A3006 RMK T02100180 IEM_DS3505
ZGNN,2001-10-31 05:00,ZGNN 310500Z AUTO 1 1/2SM 21/18 A3003 RMK T02100180 IEM_DS3505
ZGNN,2001-10-31 06:00,ZGNN 310600Z AUTO 00000KT 2 1/2SM 22/20 A3000 RMK 60003 SLP166 T02200195 57026 IEM_DS3505
ZGNN,2001-10-31 08:00,ZGNN 310800Z AUTO 1 1/4SM 22/20 A3000 RMK T02200200 IEM_DS3505
ZGNN,2001-10-31 09:00,ZGNN 310900Z AUTO 34002KT 2 1/2SM 21/20 A2997 RMK SLP157 T02110202 57009 IEM_DS3505
ZGNN,2001-10-31 10:00,ZGNN 311000Z AUTO 35004KT 1SM 21/19 A3000 RMK T02100190 IEM_DS3505
ZGNN,2001-10-31 11:00,ZGNN 311100Z AUTO 35004KT 1 1/2SM 21/19 A3000 RMK T02100190 IEM_DS3505
ZGNN,2001-10-31 12:00,ZGNN 311200Z AUTO 00000KT 2SM 20/20 A3000 RMK 60004 SLP171 T02010196 52014 IEM_DS3505
ZGNN,2001-10-31 13:00,ZGNN 311300Z AUTO 1 1/2SM 21/19 A3003 RMK T02100190 IEM_DS3505
ZGNN,2001-10-31 14:00,ZGNN 311400Z AUTO 1 1/4SM 21/19 A3003 RMK T02100190 IEM_DS3505
ZGNN,2001-10-31 15:00,ZGNN 311500Z AUTO 00000KT 2SM 21/20 A3003 RMK SLP180 T02060201 52009 IEM_DS3505
ZGNN,2001-10-31 16:00,ZGNN 311600Z AUTO 1SM 21/20 A3006 RMK T02100200 IEM_DS3505
ZGNN,2001-10-31 18:00,ZGNN 311800Z AUTO 00000KT 1 1/4SM 21/20 RMK 60004 SLP170 T02070204 57009 IEM_DS3505
ZGNN,2001-10-31 21:00,ZGNN 312100Z AUTO 00000KT 1SM 21/20 A3000 RMK 70009 SLP162 T02080205 57009 IEM_DS3505
ZGNN,2001-10-31 23:00,ZGNN 312300Z AUTO 1SM 21/20 A3003 RMK T02100200 IEM_DS3505
ZGNN,2001-11-01 00:00,ZGNN 010000Z AUTO 00000KT 1SM 22/21 A3006 RMK 60003 SLP177 T02160210 52015 IEM_DS3505
ZGNN,2001-11-01 01:00,ZGNN 010100Z AUTO 1SM 22/20 A3006 RMK T02200200 IEM_DS3505
ZGNN,2001-11-01 02:00,ZGNN 010200Z AUTO 08004KT 1 1/2SM 23/21 A3006 RMK T02300210 IEM_DS3505
ZGNN,2001-11-01 03:00,ZGNN 010300Z AUTO 09002KT 3SM 25/22 A3006 RMK SLP183 T02510224 52007 IEM_DS3505
ZGNN,2001-11-01 04:00,ZGNN 010400Z AUTO 3SM 25/22 A3003 RMK T02500220 IEM_DS3505
ZGNN,2001-11-01 05:00,ZGNN 010500Z AUTO 16006KT 7SM 27/22 A3000 RMK T02700220 IEM_DS3505
ZGNN,2001-11-01 06:00,ZGNN 010600Z AUTO 18004KT 9SM 29/23 A2997 RMK SLP148 T02870228 57034 IEM_DS3505
ZGNN,2001-11-01 07:00,ZGNN 010700Z AUTO 7SM 27/22 A2994 RMK T02700220 IEM_DS3505
ZGNN,2001-11-01 08:00,ZGNN 010800Z AUTO 15008KT 7SM 28/22 A2991 RMK T02800220 IEM_DS3505
ZGNN,2001-11-01 09:00,ZGNN 010900Z AUTO 00000KT 9SM 28/23 A2994 RMK SLP137 T02750229 57011 IEM_DS3505
ZGNN,2001-11-01 10:00,ZGNN 011000Z AUTO 15004KT 7SM 26/22 A2994 RMK T02600220 IEM_DS3505
ZGNN,2001-11-01 11:00,ZGNN 011100Z AUTO 13002KT 7SM 25/22 A2994 RMK T02500220 IEM_DS3505
ZGNN,2001-11-01 12:00,ZGNN 011200Z AUTO 00000KT 9SM 25/23 A2997 RMK SLP150 T02520229 52013 IEM_DS3505
ZGNN,2001-11-01 13:00,ZGNN 011300Z AUTO 6SM 25/22 A2997 RMK T02500220 IEM_DS3505
ZGNN,2001-11-01 14:00,ZGNN 011400Z AUTO 6SM 24/22 A2997 RMK T02400220 IEM_DS3505
ZGNN,2001-11-01 15:00,ZGNN 011500Z AUTO 00000KT 9SM 24/23 A3000 RMK SLP159 T02380228 52009 IEM_DS3505
ZGNN,2001-11-01 16:00,ZGNN 011600Z AUTO 7SM 23/22 A3000 RMK T02300220 IEM_DS3505
ZGNN,2001-11-01 17:00,ZGNN 011700Z AUTO 7SM 23/21 A3000 RMK T02300210 IEM_DS3505
ZGNN,2001-11-01 18:00,ZGNN 011800Z AUTO 00000KT 9SM 23/22 A2997 RMK SLP152 T02320222 57006 IEM_DS3505
ZGNN,2001-11-01 19:00,ZGNN 011900Z AUTO 04002KT 5SM 22/21 A2997 RMK T02200210 IEM_DS3505
ZGNN,2001-11-01 20:00,ZGNN 012000Z AUTO 11002KT 4SM 23/21 A2994 RMK T02300210 IEM_DS3505
ZGNN,2001-11-01 21:00,ZGNN 012100Z AUTO 00000KT 9SM 22/22 A2994 RMK SLP140 T02200215 57012 IEM_DS3505
ZGNN,2001-11-01 22:00,ZGNN 012200Z AUTO 4SM 22/21 A2994 RMK T02200210 IEM_DS3505
ZGNN,2001-11-01 23:00,ZGNN 012300Z AUTO 2 1/2SM 22/21 A2994 RMK T02200210 IEM_DS3505
ZGNN,2001-11-02 00:00,ZGNN 020000Z AUTO 00000KT 3SM 23/23 A2997 RMK SLP154 T02330226 52013 IEM_DS3505
ZGNN,2001-11-02 01:00,ZGNN 020100Z AUTO 7SM 24/22 A3000 RMK T02400220 IEM_DS3505
ZGNN,2001-11-02 02:00,ZGNN 020200Z AUTO 14008KT 7SM 26/22 A3000 RMK T02600220 IEM_DS3505
ZGNN,2001-11-02 03:00,ZGNN 020300Z AUTO 18006KT 12SM 27/23 A3000 RMK SLP159 T02730228 52006 IEM_DS3505
ZGNN,2001-11-02 04:00,ZGNN 020400Z AUTO 15006KT 7SM 28/22 A2997 RMK T02800220 IEM_DS3505
ZGNN,2001-11-02 05:00,ZGNN 020500Z AUTO 17010KT 7SM 27/22 A2994 RMK T02700220 IEM_DS3505
ZGNN,2001-11-02 06:00,ZGNN 020600Z AUTO 18006KT 19SM 28/23 A2991 RMK SLP132 T02760226 57027 IEM_DS3505
ZGNN,2001-11-02 07:00,ZGNN 020700Z AUTO 18008KT 7SM 28/22 A2988 RMK T02800220 IEM_DS3505
ZGNN,2001-11-02 08:00,ZGNN 020800Z AUTO 14006KT 7SM 29/22 A2985 RMK T02900220 IEM_DS3505
ZGNN,2001-11-02 09:00,ZGNN 020900Z AUTO 18004KT 19SM 29/23 A2985 RMK SLP115 T02880227 57017 IEM_DS3505
ZGNN,2001-11-02 10:00,ZGNN 021000Z AUTO 14006KT 7SM 27/22 A2985 RMK T02700220 IEM_DS3505
ZGNN,2001-11-02 11:00,ZGNN 021100Z AUTO 12004KT 7SM 26/22 A2985 RMK T02600220 IEM_DS3505
ZGNN,2001-11-02 12:00,ZGNN 021200Z AUTO 14004KT 19SM 26/23 A2988 RMK SLP118 T02570231 52003 IEM_DS3505
ZGNN,2001-11-02 13:00,ZGNN 021300Z AUTO 15004KT 7SM 25/23 A2988 RMK T02500230 IEM_DS3505
ZGNN,2001-11-02 14:00,ZGNN 021400Z AUTO 7SM 24/22 A2991 RMK T02400220 IEM_DS3505
ZGNN,2001-11-02 15:00,ZGNN 021500Z AUTO 00000KT 16SM 24/23 A2991 RMK SLP132 T02450233 52014 IEM_DS3505
ZGNN,2001-11-02 16:00,ZGNN 021600Z AUTO 7SM 23/22 A2991 RMK T02300220 IEM_DS3505
ZGNN,2001-11-02 17:00,ZGNN 021700Z AUTO 7SM 24/22 A2991 RMK T02400220 IEM_DS3505
ZGNN,2001-11-02 18:00,ZGNN 021800Z AUTO 00000KT 12SM 24/23 A2991 RMK SLP134 T02390233 52002 IEM_DS3505
ZGNN,2001-11-02 19:00,ZGNN 021900Z AUTO 12002KT 6SM 24/22 A2991 RMK T02400220 IEM_DS3505
ZGNN,2001-11-02 21:00,ZGNN 022100Z AUTO 00000KT 9SM 24/23 A2991 RMK SLP131 T02400231 57002 IEM_DS3505
ZGNN,2001-11-02 22:00,ZGNN 022200Z AUTO 7SM 24/22 A2991 RMK T02400220 IEM_DS3505
ZGNN,2001-11-02 23:00,ZGNN 022300Z AUTO 7SM 23/22 A2994 RMK T02300220 IEM_DS3505
ZGNN,2001-11-03 00:00,ZGNN 030000Z AUTO 00000KT 5SM 24/23 A2997 RMK SLP144 T02390232 52012 IEM_DS3505
ZGNN,2001-11-03 01:00,ZGNN 030100Z AUTO 7SM 25/22 A2997 RMK T02500220 IEM_DS3505
ZGNN,2001-11-03 02:00,ZGNN 030200Z AUTO 7SM 26/22 A2997 RMK T02600220 IEM_DS3505
ZGNN,2001-11-03 03:00,ZGNN 030300Z AUTO 16006KT 9SM 28/23 A2997 RMK SLP150 T02760230 52006 IEM_DS3505
ZGNN,2001-11-03 04:00,ZGNN 030400Z AUTO 7SM 28/21 A2994 RMK T02800210 IEM_DS3505
ZGNN,2001-11-03 05:00,ZGNN 030500Z AUTO 7SM 30/21 A2991 RMK T03000210 IEM_DS3505
ZGNN,2001-11-03 06:00,ZGNN 030600Z AUTO 14006KT 16SM 30/21 A2988 RMK SLP119 T03030208 57030 IEM_DS3505
ZGNN,2001-11-03 07:00,ZGNN 030700Z AUTO 7SM 30/21 A2985 RMK T03000210 IEM_DS3505
ZGNN,2001-11-03 08:00,ZGNN 030800Z AUTO 7SM 29/21 A2985 RMK T02900210 IEM_DS3505
ZGNN,2001-11-03 09:00,ZGNN 030900Z AUTO 14004KT 19SM 29/22 A2985 RMK SLP108 T02930218 57011 IEM_DS3505
ZGNN,2001-11-03 11:00,ZGNN 031100Z AUTO 08004KT 7SM 25/22 A2988 RMK T02500220 IEM_DS3505
ZGNN,2001-11-03 12:00,ZGNN 031200Z AUTO 09006KT 12SM 24/21 A2991 RMK SLP130 T02430207 52020 IEM_DS3505
ZGNN,2001-11-03 13:00,ZGNN 031300Z AUTO 08008KT 7SM 22/20 A2994 RMK T02200200 IEM_DS3505
ZGNN,2001-11-03 14:00,ZGNN 031400Z AUTO 08008KT 7SM 22/19 A2994 RMK T02200190 IEM_DS3505
ZGNN,2001-11-03 15:00,ZGNN 031500Z AUTO 09006KT 12SM 22/20 A2994 RMK SLP145 T02180196 52016 IEM_DS3505
ZGNN,2001-11-03 16:00,ZGNN 031600Z AUTO 07008KT 4SM 21/19 A2994 RMK T02100190 IEM_DS3505
ZGNN,2001-11-03 17:00,ZGNN 031700Z AUTO 07008KT 5SM 21/19 A2994 RMK T02100190 IEM_DS3505
ZGNN,2001-11-03 18:00,ZGNN 031800Z AUTO 09004KT 11SM 21/19 A2994 RMK SLP141 T02140194 57004 IEM_DS3505
ZGNN,2001-11-03 19:00,ZGNN 031900Z AUTO 06006KT 7SM 21/19 A2994 RMK T02100190 IEM_DS3505
ZGNN,2001-11-03 20:00,ZGNN 032000Z AUTO 07006KT 6SM 21/19 A2994 RMK T02100190 IEM_DS3505
ZGNN,2001-11-03 21:00,ZGNN 032100Z AUTO 09004KT 7SM 21/20 A2991 RMK SLP135 T02110195 57006 IEM_DS3505
ZGNN,2001-11-03 22:00,ZGNN 032200Z AUTO 06004KT 4SM 21/19 A2994 RMK T02100190 IEM_DS3505
ZGNN,2001-11-03 23:00,ZGNN 032300Z AUTO 06002KT 5SM 21/19 A2994 RMK T02100190 IEM_DS3505
ZGNN,2001-11-04 00:00,ZGNN 040000Z AUTO 07002KT 3SM 21/20 A2997 RMK 60003 SLP152 T02110200 52015 IEM_DS3505
ZGNN,2001-11-04 01:00,ZGNN 040100Z AUTO 03006KT 1 1/4SM 21/19 A2997 RMK T02100190 IEM_DS3505
ZGNN,2001-11-04 02:00,ZGNN 040200Z AUTO 05004KT 1 1/4SM 21/19 A3000 RMK T02100190 IEM_DS3505
ZGNN,2001-11-04 03:00,ZGNN 040300Z AUTO 02002KT 3SM 21/20 A3000 RMK SLP162 T02100204 52010 IEM_DS3505
ZGNN,2001-11-04 04:00,ZGNN 040400Z AUTO 03004KT 2 1/2SM 22/20 A2997 RMK T02200200 IEM_DS3505
ZGNN,2001-11-04 05:00,ZGNN 040500Z AUTO 04004KT 2 1/2SM 22/21 A2994 RMK T02200210 IEM_DS3505
ZGNN,2001-11-04 06:00,ZGNN 040600Z AUTO 00000KT 4SM 23/22 A2994 RMK 60020 SLP139 T02300221 57023 IEM_DS3505
ZGNN,2001-11-04 07:00,ZGNN 040700Z AUTO 2SM 23/21 A2991 RMK T02300210 IEM_DS3505
ZGNN,2001-11-04 08:00,ZGNN 040800Z AUTO 2SM 24/22 A2991 RMK T02400220 IEM_DS3505
ZGNN,2001-11-04 09:00,ZGNN 040900Z AUTO 00000KT 4SM 25/23 A2991 RMK SLP131 T02480230 57007 IEM_DS3505
ZGNN,2001-11-04 10:00,ZGNN 041000Z AUTO 08004KT 4SM 24/22 A2991 RMK T02400220 IEM_DS3505
ZGNN,2001-11-04 11:00,ZGNN 041100Z AUTO 07004KT 3SM 24/22 A2994 RMK T02400220 IEM_DS3505
ZGNN,2001-11-04 12:00,ZGNN 041200Z AUTO 04002KT 4SM 23/22 A2994 RMK 60003 SLP146 T02340225 52014 IEM_DS3505
ZGNN,2001-11-04 13:00,ZGNN 041300Z AUTO 05004KT 2SM 23/21 A2997 RMK T02300210 IEM_DS3505
ZGNN,2001-11-04 14:00,ZGNN 041400Z AUTO 05004KT 2SM 22/20 A3000 RMK T02200200 IEM_DS3505
ZGNN,2001-11-04 15:00,ZGNN 041500Z AUTO 09002KT 5SM 22/21 A3000 RMK SLP163 T02210207 52017 IEM_DS3505
ZGNN,2001-11-04 16:00,ZGNN 041600Z AUTO 09004KT 4SM 22/20 A3000 RMK T02200200 IEM_DS3505
ZGNN,2001-11-04 17:00,ZGNN 041700Z AUTO 08006KT 4SM 21/19 A3003 RMK T02100190 IEM_DS3505
ZGNN,2001-11-04 18:00,ZGNN 041800Z AUTO 09002KT 5SM 22/20 A3000 RMK 60003 SLP164 T02160204 52001 IEM_DS3505
ZGNN,2001-11-04 19:00,ZGNN 041900Z AUTO 04002KT 3SM 21/19 A3000 RMK T02100190 IEM_DS3505
ZGNN,2001-11-04 20:00,ZGNN 042000Z AUTO 07002KT 2SM 21/20 A3000 RMK T02100200 IEM_DS3505
ZGNN,2001-11-04 21:00,ZGNN 042100Z AUTO 11002KT 4SM 21/20 A3000 RMK 70018 SLP167 T02120203 52003 IEM_DS3505
ZGNN,2001-11-04 22:00,ZGNN 042200Z AUTO 04004KT 3SM 21/19 A3003 RMK T02100190 IEM_DS3505
ZGNN,2001-11-04 23:00,ZGNN 042300Z AUTO 04004KT 2 1/2SM 21/19 A3006 RMK T02100190 IEM_DS3505
ZGNN,2001-11-05 00:00,ZGNN 050000Z AUTO 14004KT 2 1/2SM 21/20 A3009 RMK 60003 SLP189 T02130204 52022 IEM_DS3505
ZGNN,2001-11-05 01:00,ZGNN 050100Z AUTO 04006KT 3SM 22/19 A3009 RMK T02200190 IEM_DS3505
ZGNN,2001-11-05 02:00,ZGNN 050200Z AUTO 05006KT 1 1/4SM 21/20 A3015 RMK T02100200 IEM_DS3505
ZGNN,2001-11-05 03:00,ZGNN 050300Z AUTO 04004KT 2 1/2SM 20/20 A3015 RMK SLP220 T02020196 52030 IEM_DS3505
ZGNN,2001-11-05 04:00,ZGNN 050400Z AUTO 04014KT 3SM 19/18 A3018 RMK T01900180 IEM_DS3505
ZGNN,2001-11-05 05:00,ZGNN 050500Z AUTO 05012KT 4SM 18/17 A3018 RMK T01800170 IEM_DS3505
ZGNN,2001-11-05 06:00,ZGNN 050600Z AUTO 04006KT 4SM 18/18 A3018 RMK 60039 SLP221 T01850179 54000 IEM_DS3505
ZGNN,2001-11-05 07:00,ZGNN 050700Z AUTO 05010KT RMK IEM_DS3505
ZGNN,2001-11-05 08:00,ZGNN 050800Z AUTO 01006KT 7SM RMK IEM_DS3505
ZGNN,2001-11-05 09:00,ZGNN 050900Z AUTO 07002KT 16SM 19/17 A3018 RMK SLP220 T01860173 57001 IEM_DS3505
ZGNN,2001-11-05 10:00,ZGNN 051000Z AUTO 04006KT 7SM 18/16 A3018 RMK T01800160 IEM_DS3505
ZGNN,2001-11-05 11:00,ZGNN 051100Z AUTO 7SM 18/17 A3018 RMK T01800170 IEM_DS3505
ZGNN,2001-11-05 12:00,ZGNN 051200Z AUTO 36004KT 16SM 18/16 A3021 RMK 60012 SLP232 T01850160 52012 IEM_DS3505
ZGNN,2001-11-05 13:00,ZGNN 051300Z AUTO 05004KT 7SM 18/16 A3024 RMK T01800160 IEM_DS3505
ZGNN,2001-11-05 14:00,ZGNN 051400Z AUTO 03004KT 7SM 19/15 A3024 RMK T01900150 IEM_DS3505
ZGNN,2001-11-05 15:00,ZGNN 051500Z AUTO 00000KT 12SM 18/16 RMK SLP241 T01820162 52008 IEM_DS3505
ZGNN,2001-11-05 18:00,ZGNN 051800Z AUTO 36004KT 12SM 18/13 RMK SLP235 T01790131 57006 IEM_DS3505
ZGNN,2001-11-05 21:00,ZGNN 052100Z AUTO 34004KT 12SM 17/12 A3021 RMK 70051 SLP232 T01720121 57003 IEM_DS3505
ZGNN,2001-11-05 22:00,ZGNN 052200Z AUTO 34006KT 7SM 17/12 A3021 RMK T01700120 IEM_DS3505
ZGNN,2001-11-05 23:00,ZGNN 052300Z AUTO 34006KT 7SM 17/11 A3024 RMK T01700110 IEM_DS3505
ZGNN,2001-11-06 00:00,ZGNN 060000Z AUTO 34004KT 19SM 17/12 A3027 RMK 70051 SLP255 T01710118 52022 IEM_DS3505
ZGNN,2001-11-06 01:00,ZGNN 060100Z AUTO 34006KT 7SM 18/11 A3027 RMK T01800110 IEM_DS3505
ZGNN,2001-11-06 02:00,ZGNN 060200Z AUTO 34008KT 7SM 18/11 A3030 RMK T01800110 IEM_DS3505
ZGNN,2001-11-06 03:00,ZGNN 060300Z AUTO 34004KT 19SM 19/12 A3030 RMK SLP262 T01880116 52008 IEM_DS3505
ZGNN,2001-11-06 04:00,ZGNN 060400Z AUTO 35008KT 7SM 20/11 A3027 RMK T02000110 IEM_DS3505
ZGNN,2001-11-06 05:00,ZGNN 060500Z AUTO 35008KT 7SM 20/12 A3024 RMK T02000120 IEM_DS3505
ZGNN,2001-11-06 06:00,ZGNN 060600Z AUTO 36008KT 19SM 21/12 A3018 RMK SLP223 T02120124 57038 IEM_DS3505
ZGNN,2001-11-06 07:00,ZGNN 060700Z AUTO 01008KT 6SM 21/12 A3015 RMK T02100120 IEM_DS3505
ZGNN,2001-11-06 08:00,ZGNN 060800Z AUTO 34006KT 6SM 21/12 A3015 RMK T02100120 IEM_DS3505
ZGNN,2001-11-06 09:00,ZGNN 060900Z AUTO 34006KT 19SM 21/13 A3015 RMK SLP210 T02140131 57013 IEM_DS3505
ZGNN,2001-11-06 10:00,ZGNN 061000Z AUTO 35006KT 7SM 20/13 A3015 RMK T02000130 IEM_DS3505
ZGNN,2001-11-06 11:00,ZGNN 061100Z AUTO 36004KT 7SM 19/13 A3018 RMK T01900130 IEM_DS3505
ZGNN,2001-11-06 12:00,ZGNN 061200Z AUTO 36002KT 16SM 18/13 A3018 RMK SLP225 T01760134 52014 IEM_DS3505
ZGNN,2001-11-06 13:00,ZGNN 061300Z AUTO 01004KT 7SM 18/13 A3021 RMK T01800130 IEM_DS3505
ZGNN,2001-11-06 14:00,ZGNN 061400Z AUTO 34004KT 7SM 18/13 A3021 RMK T01800130 IEM_DS3505
ZGNN,2001-11-06 15:00,ZGNN 061500Z AUTO 36004KT 16SM 18/13 RMK SLP231 T01760130 52006 IEM_DS3505
ZGNN,2001-11-06 18:00,ZGNN 061800Z AUTO 34002KT 12SM 17/13 RMK SLP220 T01700131 57010 IEM_DS3505
ZGNN,2001-11-06 21:00,ZGNN 062100Z AUTO 32004KT 12SM 17/13 A3015 RMK SLP214 T01680133 57006 IEM_DS3505
ZGNN,2001-11-06 22:00,ZGNN 062200Z AUTO 7SM 17/12 A3015 RMK T01700120 IEM_DS3505
ZGNN,2001-11-06 23:00,ZGNN 062300Z AUTO 7SM 17/12 A3018 RMK T01700120 IEM_DS3505
ZGNN,2001-11-07 00:00,ZGNN 070000Z AUTO 00000KT 15SM 17/14 A3018 RMK SLP226 T01700135 52011 IEM_DS3505
ZGNN,2001-11-07 01:00,ZGNN 070100Z AUTO 33004KT 7SM 17/12 A3018 RMK T01700120 IEM_DS3505
ZGNN,2001-11-07 02:00,ZGNN 070200Z AUTO 7SM 18/12 A3021 RMK T01800120 IEM_DS3505
ZGNN,2001-11-07 03:00,ZGNN 070300Z AUTO 29004KT 16SM 19/13 A3018 RMK SLP223 T01900126 57003 IEM_DS3505
ZGNN,2001-11-07 04:00,ZGNN 070400Z AUTO 7SM 21/12 A3015 RMK T02100120 IEM_DS3505
ZGNN,2001-11-07 05:00,ZGNN 070500Z AUTO 7SM 22/13 A3009 RMK T02200130 IEM_DS3505
ZGNN,2001-11-07 06:00,ZGNN 070600Z AUTO 22004KT 12SM 22/13 A3006 RMK SLP184 T02220133 57038 IEM_DS3505
ZGNN,2001-11-07 07:00,ZGNN 070700Z AUTO 7SM 22/13 A3003 RMK T02200130 IEM_DS3505
ZGNN,2001-11-07 08:00,ZGNN 070800Z AUTO 7SM 22/13 A3003 RMK T02200130 IEM_DS3505
ZGNN,2001-11-07 09:00,ZGNN 070900Z AUTO 34006KT 12SM 21/14 A3003 RMK SLP174 T02100138 57010 IEM_DS3505
ZGNN,2001-11-07 10:00,ZGNN 071000Z AUTO 33004KT 7SM 20/13 A3003 RMK T02000130 IEM_DS3505
ZGNN,2001-11-07 11:00,ZGNN 071100Z AUTO 32004KT 7SM 20/14 A3003 RMK T02000140 IEM_DS3505
ZGNN,2001-11-07 12:00,ZGNN 071200Z AUTO 32002KT 11SM 19/14 A3006 RMK SLP184 T01930138 52010 IEM_DS3505
ZGNN,2001-11-07 13:00,ZGNN 071300Z AUTO 35004KT 7SM 19/13 A3009 RMK T01900130 IEM_DS3505
ZGNN,2001-11-07 15:00,ZGNN 071500Z AUTO 00000KT 9SM 19/16 A3009 RMK SLP192 T01880158 52008 IEM_DS3505
ZGNN,2001-11-07 16:00,ZGNN 071600Z AUTO 7SM 19/15 A3009 RMK T01900150 IEM_DS3505
ZGNN,2001-11-07 17:00,ZGNN 071700Z AUTO 32002KT 7SM 19/14 A3009 RMK T01900140 IEM_DS3505
ZGNN,2001-11-07 18:00,ZGNN 071800Z AUTO 34006KT 9SM 18/15 A3009 RMK SLP192 T01850151 52001 IEM_DS3505
ZGNN,2001-11-07 19:00,ZGNN 071900Z AUTO 34006KT 7SM 18/13 A3009 RMK T01800130 IEM_DS3505
ZGNN,2001-11-07 20:00,ZGNN 072000Z AUTO 35006KT 7SM 18/13 A3006 RMK T01800130 IEM_DS3505
ZGNN,2001-11-07 21:00,ZGNN 072100Z AUTO 34004KT 7SM 18/15 A3006 RMK SLP188 T01820148 57005 IEM_DS3505
ZGNN,2001-11-07 22:00,ZGNN 072200Z AUTO 35004KT 7SM 18/14 A3009 RMK T01800140 IEM_DS3505
ZGNN,2001-11-07 23:00,ZGNN 072300Z AUTO 35006KT 7SM 18/14 A3009 RMK T01800140 IEM_DS3505
ZGNN,2001-11-08 00:00,ZGNN 080000Z AUTO 34004KT 7SM 18/14 A3009 RMK SLP198 T01820144 52010 IEM_DS3505
ZGNN,2001-11-08 01:00,ZGNN 080100Z AUTO 34006KT 6SM 19/14 A3012 RMK T01900140 IEM_DS3505
ZGNN,2001-11-08 02:00,ZGNN 080200Z AUTO 6SM 20/14 A3012 RMK T02000140 IEM_DS3505
ZGNN,2001-11-08 03:00,ZGNN 080300Z AUTO 00000KT 7SM 22/15 A3012 RMK SLP200 T02220152 52003 IEM_DS3505
ZGNN,2001-11-08 04:00,ZGNN 080400Z AUTO 7SM 23/15 A3009 RMK T02300150 IEM_DS3505
ZGNN,2001-11-08 05:00,ZGNN 080500Z AUTO 35006KT 7SM 23/15 A3006 RMK T02300150 IEM_DS3505
ZGNN,2001-11-08 06:00,ZGNN 080600Z AUTO 32008KT 9SM 23/16 A3003 RMK SLP173 T02340155 57027 IEM_DS3505
ZGNN,2001-11-08 07:00,ZGNN 080700Z AUTO 33012KT 7SM 23/15 A3003 RMK T02300150 IEM_DS3505
ZGNN,2001-11-08 08:00,ZGNN 080800Z AUTO 33008KT 6SM 22/14 A3003 RMK T02200140 IEM_DS3505
ZGNN,2001-11-08 09:00,ZGNN 080900Z AUTO 34006KT 9SM 21/14 A3003 RMK SLP177 T02130142 52004 IEM_DS3505
ZGNN,2001-11-08 10:00,ZGNN 081000Z AUTO 34008KT 7SM 20/13 A3006 RMK T02000130 IEM_DS3505
ZGNN,2001-11-08 11:00,ZGNN 081100Z AUTO 35006KT 7SM 20/13 A3009 RMK T02000130 IEM_DS3505
ZGNN,2001-11-08 12:00,ZGNN 081200Z AUTO 34004KT 9SM 20/14 A3009 RMK SLP197 T01950138 52019 IEM_DS3505
ZGNN,2001-11-08 13:00,ZGNN 081300Z AUTO 34006KT 7SM 19/14 A3012 RMK T01900140 IEM_DS3505
ZGNN,2001-11-08 14:00,ZGNN 081400Z AUTO 6SM 19/14 A3012 RMK T01900140 IEM_DS3505
ZGNN,2001-11-08 15:00,ZGNN 081500Z AUTO 34006KT 9SM 18/15 A3012 RMK SLP205 T01840150 52008 IEM_DS3505
ZGNN,2001-11-08 16:00,ZGNN 081600Z AUTO 33006KT 7SM 19/14 A3012 RMK T01900140 IEM_DS3505
ZGNN,2001-11-08 17:00,ZGNN 081700Z AUTO 33008KT 7SM 19/13 A3012 RMK T01900130 IEM_DS3505
ZGNN,2001-11-08 18:00,ZGNN 081800Z AUTO 34006KT 9SM 18/13 A3009 RMK SLP196 T01840133 57008 IEM_DS3505
ZGNN,2001-11-08 19:00,ZGNN 081900Z AUTO 32006KT 7SM 18/12 A3009 RMK T01800120 IEM_DS3505
ZGNN,2001-11-08 20:00,ZGNN 082000Z AUTO 34006KT 7SM 18/12 A3009 RMK T01800120 IEM_DS3505
ZGNN,2001-11-08 21:00,ZGNN 082100Z AUTO 34006KT 9SM 17/12 A3009 RMK SLP192 T01700123 57005 IEM_DS3505
ZGNN,2001-11-08 22:00,ZGNN 082200Z AUTO 33008KT 7SM 18/11 A3012 RMK T01800110 IEM_DS3505
ZGNN,2001-11-08 23:00,ZGNN 082300Z AUTO 35006KT 7SM 18/11 A3012 RMK T01800110 IEM_DS3505
ZGNN,2001-11-09 00:00,ZGNN 090000Z AUTO 36006KT 7SM 18/11 A3015 RMK SLP213 T01780114 52021 IEM_DS3505
ZGNN,2001-11-09 01:00,ZGNN 090100Z AUTO 34006KT 7SM 18/11 A3018 RMK T01800110 IEM_DS3505
ZGNN,2001-11-09 02:00,ZGNN 090200Z AUTO 34010KT 6SM 18/09 A3018 RMK T01800090 IEM_DS3505
ZGNN,2001-11-09 03:00,ZGNN 090300Z AUTO 02008KT 12SM 20/11 A3018 RMK SLP225 T02010106 52012 IEM_DS3505
ZGNN,2001-11-09 04:00,ZGNN 090400Z AUTO 36010KT 7SM 21/10 A3015 RMK T02100100 IEM_DS3505
ZGNN,2001-11-09 05:00,ZGNN 090500Z AUTO 36010KT 7SM 22/11 A3012 RMK T02200110 IEM_DS3505
ZGNN,2001-11-09 06:00,ZGNN 090600Z AUTO 34010KT 16SM 22/11 A3009 RMK SLP189 T02240109 57035 IEM_DS3505
ZGNN,2001-11-09 07:00,ZGNN 090700Z AUTO 35010KT 7SM 23/10 A3006 RMK T02300100 IEM_DS3505
ZGNN,2001-11-09 08:00,ZGNN 090800Z AUTO 36008KT 7SM 23/10 A3003 RMK T02300100 IEM_DS3505
ZGNN,2001-11-09 09:00,ZGNN 090900Z AUTO 36006KT 12SM 23/11 A3006 RMK SLP181 T02260114 57008 IEM_DS3505
ZGNN,2001-11-09 10:00,ZGNN 091000Z AUTO 34006KT 6SM 22/11 A3006 RMK T02200110 IEM_DS3505
ZGNN,2001-11-09 11:00,ZGNN 091100Z AUTO 06004KT 6SM 19/12 A3009 RMK T01900120 IEM_DS3505
ZGNN,2001-11-09 12:00,ZGNN 091200Z AUTO 36006KT 9SM 18/12 A3012 RMK SLP203 T01790124 52020 IEM_DS3505
ZGNN,2001-11-09 13:00,ZGNN 091300Z AUTO 35004KT 6SM 18/11 A3012 RMK T01800110 IEM_DS3505
ZGNN,2001-11-09 14:00,ZGNN 091400Z AUTO 6SM 18/11 A3015 RMK T01800110 IEM_DS3505
ZGNN,2001-11-09 15:00,ZGNN 091500Z AUTO 00000KT 7SM 16/12 A3015 RMK SLP212 T01610121 52009 IEM_DS3505
ZGNN,2001-11-09 16:00,ZGNN 091600Z AUTO 34002KT 6SM 16/12 A3012 RMK T01600120 IEM_DS3505
ZGNN,2001-11-09 17:00,ZGNN 091700Z AUTO 36004KT 6SM 16/11 A3012 RMK T01600110 IEM_DS3505
ZGNN,2001-11-09 18:00,ZGNN 091800Z AUTO 00000KT 7SM 13/12 A3012 RMK SLP198 T01340123 57014 IEM_DS3505
ZGNN,2001-11-09 19:00,ZGNN 091900Z AUTO 34002KT 6SM 14/11 A3009 RMK T01400110 IEM_DS3505
ZGNN,2001-11-09 21:00,ZGNN 092100Z AUTO 34006KT 7SM 15/10 A3009 RMK SLP196 T01460096 57001 IEM_DS3505
ZGNN,2001-11-09 22:00,ZGNN 092200Z AUTO 35006KT 6SM 15/09 A3009 RMK T01500090 IEM_DS3505
ZGNN,2001-11-09 23:00,ZGNN 092300Z AUTO 36004KT 6SM 15/08 A3012 RMK T01500080 IEM_DS3505
ZGNN,2001-11-10 00:00,ZGNN 100000Z AUTO 00000KT 12SM 13/11 A3015 RMK SLP216 T01310114 52018 IEM_DS3505
ZGNN,2001-11-10 01:00,ZGNN 100100Z AUTO 35006KT 6SM 17/09 A3015 RMK T01700090 IEM_DS3505
ZGNN,2001-11-10 02:00,ZGNN 100200Z AUTO 35006KT 6SM 19/08 A3018 RMK T01900080 IEM_DS3505
ZGNN,2001-11-10 03:00,ZGNN 100300Z AUTO 36008KT 14SM 20/08 A3015 RMK SLP219 T01980083 52004 IEM_DS3505
ZGNN,2001-11-10 04:00,ZGNN 100400Z AUTO 36008KT 6SM 21/08 A3012 RMK T02100080 IEM_DS3505
ZGNN,2001-11-10 05:00,ZGNN 100500Z AUTO 35010KT 6SM 22/08 A3009 RMK T02200080 IEM_DS3505
ZGNN,2001-11-10 06:00,ZGNN 100600Z AUTO 34010KT 16SM 22/09 RMK SLP183 T02230089 57035 IEM_DS3505
ZGNN,2001-11-10 07:00,ZGNN 100700Z AUTO 33010KT 6SM 23/08 A3003 RMK T02300080 IEM_DS3505
ZGNN,2001-11-10 08:00,ZGNN 100800Z AUTO 36010KT 6SM 23/07 A3000 RMK T02300070 IEM_DS3505
ZGNN,2001-11-10 09:00,ZGNN 100900Z AUTO 34006KT 12SM 22/09 A3003 RMK SLP172 T02210086 57011 IEM_DS3505
ZGNN,2001-11-10 10:00,ZGNN 101000Z AUTO 35006KT 6SM 21/09 A3003 RMK T02100090 IEM_DS3505
ZGNN,2001-11-10 11:00,ZGNN 101100Z AUTO 33004KT 6SM 19/10 A3006 RMK T01900100 IEM_DS3505
ZGNN,2001-11-10 12:00,ZGNN 101200Z AUTO 02004KT 6SM 18/10 A3009 RMK T01800100 IEM_DS3505
ZGNN,2001-11-10 13:00,ZGNN 101300Z AUTO 36004KT 6SM 18/10 A3012 RMK T01800100 IEM_DS3505
ZGNN,2001-11-10 14:00,ZGNN 101400Z AUTO 02004KT 5SM 17/10 A3012 RMK T01700100 IEM_DS3505
ZGNN,2001-11-10 15:00,ZGNN 101500Z AUTO 00000KT 10SM 17/11 A3012 RMK SLP207 T01690110 52014 IEM_DS3505
ZGNN,2001-11-10 16:00,ZGNN 101600Z AUTO 07004KT 4SM 16/11 A3012 RMK T01600110 IEM_DS3505
ZGNN,2001-11-10 17:00,ZGNN 101700Z AUTO 07004KT 4SM 15/11 A3009 RMK T01500110 IEM_DS3505
ZGNN,2001-11-10 18:00,ZGNN 101800Z AUTO 00000KT 9SM 14/12 A3009 RMK SLP198 T01360116 57009 IEM_DS3505
ZGNN,2001-11-10 19:00,ZGNN 101900Z AUTO 33006KT 5SM 16/09 A3009 RMK T01600090 IEM_DS3505
ZGNN,2001-11-10 20:00,ZGNN 102000Z AUTO 34004KT 4SM 16/09 A3009 RMK T01600090 IEM_DS3505
ZGNN,2001-11-10 21:00,ZGNN 102100Z AUTO 34006KT 9SM 15/10 A3009 RMK SLP193 T01460096 57004 IEM_DS3505
ZGNN,2001-11-10 22:00,ZGNN 102200Z AUTO 34004KT 6SM 15/09 A3009 RMK T01500090 IEM_DS3505
ZGNN,2001-11-10 23:00,ZGNN 102300Z AUTO 34004KT 15/09 A3012 RMK T01500090 IEM_DS3505
ZGNN,2001-11-11 00:00,ZGNN 110000Z AUTO 34006KT 6SM 15/10 A3015 RMK SLP213 T01500096 52018 IEM_DS3505
ZGNN,2001-11-11 01:00,ZGNN 110100Z AUTO 34008KT 18/09 A3015 RMK T01800090 IEM_DS3505
ZGNN,2001-11-11 02:00,ZGNN 110200Z AUTO 35010KT 3SM 19/09 A3015 RMK T01900090 IEM_DS3505
ZGNN,2001-11-11 03:00,ZGNN 110300Z AUTO 34010KT 11SM 20/08 A3015 RMK SLP214 T02020079 52002 IEM_DS3505
ZGNN,2001-11-11 04:00,ZGNN 110400Z AUTO 35010KT 6SM 21/06 A3012 RMK T02100060 IEM_DS3505
ZGNN,2001-11-11 05:00,ZGNN 110500Z AUTO 35010KT 6SM 22/05 A3009 RMK T02200050 IEM_DS3505
ZGNN,2001-11-11 06:00,ZGNN 110600Z AUTO 35010KT 6SM 23/05 A3003 RMK T02300050 IEM_DS3505
ZGNN,2001-11-11 07:00,ZGNN 110700Z AUTO 35008KT 6SM 23/05 A3003 RMK T02300050 IEM_DS3505
ZGNN,2001-11-11 08:00,ZGNN 110800Z AUTO 36010KT 6SM 24/04 A3003 RMK T02400040 IEM_DS3505
ZGNN,2001-11-11 09:00,ZGNN 110900Z AUTO 34008KT 16SM 23/06 A3000 RMK SLP170 T02310059 57007 IEM_DS3505
ZGNN,2001-11-11 10:00,ZGNN 111000Z AUTO 35004KT 6SM 22/06 A3003 RMK T02200060 IEM_DS3505
ZGNN,2001-11-11 11:00,ZGNN 111100Z AUTO 33004KT 6SM 19/09 A3003 RMK T01900090 IEM_DS3505
ZGNN,2001-11-11 12:00,ZGNN 111200Z AUTO 00000KT 14SM 17/11 A3006 RMK SLP187 T01700109 52016 IEM_DS3505
ZGNN,2001-11-11 13:00,ZGNN 111300Z AUTO 35002KT 6SM 16/11 A3009 RMK T01600110 IEM_DS3505
ZGNN,2001-11-11 14:00,ZGNN 111400Z AUTO 6SM 15/11 A3009 RMK T01500110 IEM_DS3505
ZGNN,2001-11-11 15:00,ZGNN 111500Z AUTO 00000KT 14SM 14/11 A3009 RMK SLP197 T01350109 52010 IEM_DS3505
ZGNN,2001-11-11 16:00,ZGNN 111600Z AUTO 11002KT 5SM 14/11 A3009 RMK T01400110 IEM_DS3505
ZGNN,2001-11-11 17:00,ZGNN 111700Z AUTO 22002KT 3SM 14/12 A3009 RMK T01400120 IEM_DS3505
ZGNN,2001-11-11 18:00,ZGNN 111800Z AUTO 00000KT 12SM 12/11 A3006 RMK SLP187 T01200110 57010 IEM_DS3505
ZGNN,2001-11-11 19:00,ZGNN 111900Z AUTO 3SM 13/11 A3006 RMK T01300110 IEM_DS3505
ZGNN,2001-11-11 20:00,ZGNN 112000Z AUTO 22002KT 3SM 12/11 A3003 RMK T01200110 IEM_DS3505
ZGNN,2001-11-11 21:00,ZGNN 112100Z AUTO 00000KT 9SM 11/11 A3003 RMK SLP179 T01130107 57008 IEM_DS3505
ZGNN,2001-11-11 22:00,ZGNN 112200Z AUTO 3SM 12/11 A3006 RMK T01200110 IEM_DS3505
ZGNN,2001-11-11 23:00,ZGNN 112300Z AUTO 2 1/2SM 12/11 A3006 RMK T01200110 IEM_DS3505
ZGNN,2001-11-12 00:00,ZGNN 120000Z AUTO 00000KT 6SM 11/11 A3009 RMK SLP194 T01130109 52013 IEM_DS3505
ZGNN,2001-11-12 01:00,ZGNN 120100Z AUTO 2 1/2SM 15/12 A3009 RMK T01500120 IEM_DS3505
ZGNN,2001-11-12 02:00,ZGNN 120200Z AUTO 5SM 19/12 A3012 RMK T01900120 IEM_DS3505
ZGNN,2001-11-12 03:00,ZGNN 120300Z AUTO 07004KT 7SM 22/10 A3012 RMK SLP201 T02170100 52009 IEM_DS3505
ZGNN,2001-11-12 04:00,ZGNN 120400Z AUTO 6SM 23/07 A3009 RMK T02300070 IEM_DS3505
ZGNN,2001-11-12 05:00,ZGNN 120500Z AUTO 04008KT 6SM 23/06 A3006 RMK T02300060 IEM_DS3505
ZGNN,2001-11-12 06:00,ZGNN 120600Z AUTO 14002KT 11SM 24/09 A3000 RMK SLP164 T02430086 57036 IEM_DS3505
ZGNN,2001-11-12 07:00,ZGNN 120700Z AUTO 06006KT 6SM 24/06 A2997 RMK T02400060 IEM_DS3505
ZGNN,2001-11-12 09:00,ZGNN 120900Z AUTO 00000KT 12SM 24/08 A2997 RMK T02440083 IEM_DS3505
ZGNN,2001-11-12 10:00,ZGNN 121000Z AUTO 05002KT 6SM 23/10 A2997 RMK T02300100 IEM_DS3505
ZGNN,2001-11-12 11:00,ZGNN 121100Z AUTO 00000KT 12SM 21/13 A2997 RMK SLP168 T02080134 52013 IEM_DS3505
ZGNN,2001-11-12 12:00,ZGNN 121200Z AUTO 00000KT 12SM 21/13 A3000 RMK SLP168 T02080134 52013 IEM_DS3505
ZGNN,2001-11-12 13:00,ZGNN 121300Z AUTO 6SM 21/10 A3003 RMK T02100100 IEM_DS3505
ZGNN,2001-11-12 14:00,ZGNN 121400Z AUTO 01002KT 6SM 21/12 A3003 RMK T02100120 IEM_DS3505
ZGNN,2001-11-12 15:00,ZGNN 121500Z AUTO 00000KT 11SM 20/12 A3006 RMK SLP182 T02020124 52016 IEM_DS3505
ZGNN,2001-11-12 16:00,ZGNN 121600Z AUTO 6SM 20/13 A3006 RMK T02000130 IEM_DS3505
ZGNN,2001-11-12 17:00,ZGNN 121700Z AUTO 01002KT 6SM 20/12 A3006 RMK T02000120 IEM_DS3505
ZGNN,2001-11-12 18:00,ZGNN 121800Z AUTO 00000KT 11SM 19/15 A3006 RMK SLP178 T01900146 57003 IEM_DS3505
ZGNN,2001-11-12 19:00,ZGNN 121900Z AUTO 01002KT 7SM 19/13 A3003 RMK T01900130 IEM_DS3505
ZGNN,2001-11-12 20:00,ZGNN 122000Z AUTO 02004KT 7SM 20/11 A3003 RMK T02000110 IEM_DS3505
ZGNN,2001-11-12 21:00,ZGNN 122100Z AUTO 00000KT 7SM 18/15 A3006 RMK 70002 SLP183 T01770150 52004 IEM_DS3505
ZGNN,2001-11-12 22:00,ZGNN 122200Z AUTO 15004KT 4SM 17/14 A3006 RMK T01700140 IEM_DS3505
ZGNN,2001-11-12 23:00,ZGNN 122300Z AUTO 6SM 17/14 A3009 RMK T01700140 IEM_DS3505
ZGNN,2001-11-13 00:00,ZGNN 130000Z AUTO 27004KT 5SM 17/15 A3012 RMK 60002 SLP212 T01720152 52028 IEM_DS3505
ZGNN,2001-11-13 01:00,ZGNN 130100Z AUTO 3SM 16/14 A3015 RMK T01600140 IEM_DS3505
ZGNN,2001-11-13 02:00,ZGNN 130200Z AUTO 23004KT 3SM 17/15 A3018 RMK T01700150 IEM_DS3505
ZGNN,2001-11-13 03:00,ZGNN 130300Z AUTO 20002KT 6SM 19/16 A3018 RMK SLP222 T01920157 52010 IEM_DS3505
ZGNN,2001-11-13 04:00,ZGNN 130400Z AUTO 21006KT 3SM 19/16 A3015 RMK T01900160 IEM_DS3505
ZGNN,2001-11-13 05:00,ZGNN 130500Z AUTO 21/15 A3012 RMK T02100150 IEM_DS3505
ZGNN,2001-11-13 06:00,ZGNN 130600Z AUTO 04004KT 7SM 23/13 A3009 RMK 60000 SLP186 T02300126 57035 IEM_DS3505
ZGNN,2001-11-13 07:00,ZGNN 130700Z AUTO 6SM 22/16 A3006 RMK T02200160 IEM_DS3505
ZGNN,2001-11-13 08:00,ZGNN 130800Z AUTO 35006KT 6SM 23/11 A3006 RMK T02300110 IEM_DS3505
ZGNN,2001-11-13 09:00,ZGNN 130900Z AUTO 02006KT 9SM 23/10 A3006 RMK SLP182 T02340102 57004 IEM_DS3505
ZGNN,2001-11-13 10:00,ZGNN 131000Z AUTO 35004KT 6SM 23/11 A3006 RMK T02300110 IEM_DS3505
ZGNN,2001-11-13 12:00,ZGNN 131200Z AUTO 36006KT 9SM 22/11 A3012 RMK 60003 SLP208 T02180106 52025 IEM_DS3505
ZGNN,2001-11-13 13:00,ZGNN 131300Z AUTO 36008KT 6SM 22/09 A3015 RMK T02200090 IEM_DS3505
ZGNN,2001-11-13 14:00,ZGNN 131400Z AUTO 35006KT 6SM 21/09 A3018 RMK T02100090 IEM_DS3505
ZGNN,2001-11-13 15:00,ZGNN 131500Z AUTO 34008KT 9SM 21/08 A3018 RMK SLP227 T02100085 52019 IEM_DS3505
ZGNN,2001-11-13 18:00,ZGNN 131800Z AUTO 02006KT 9SM 21/08 RMK SLP228 T02060085 52002 IEM_DS3505
ZGNN,2001-11-13 19:00,ZGNN 131900Z AUTO 03016KT 7SM 20/05 A3021 RMK T02000050 IEM_DS3505
ZGNN,2001-11-13 21:00,ZGNN 132100Z AUTO 04006KT 9SM 17/06 A3024 RMK 70001 SLP242 T01720057 52013 IEM_DS3505
ZGNN,2001-11-13 22:00,ZGNN 132200Z AUTO 02017KT 7SM 16/05 A3027 RMK T01600050 IEM_DS3505
ZGNN,2001-11-13 23:00,ZGNN 132300Z AUTO 02019G31KT 7SM 16/05 A3027 RMK T01600050 IEM_DS3505
ZGNN,2001-11-14 00:00,ZGNN 140000Z AUTO 00000KT 9SM 14/07 A3030 RMK 60003 SLP264 T01450074 52021 IEM_DS3505
ZGNN,2001-11-14 01:00,ZGNN 140100Z AUTO 4SM 13/09 A3033 RMK T01300090 IEM_DS3505
ZGNN,2001-11-14 02:00,ZGNN 140200Z AUTO 4SM 13/11 A3036 RMK T01300110 IEM_DS3505
ZGNN,2001-11-14 03:00,ZGNN 140300Z AUTO 02002KT 9SM 14/10 A3036 RMK SLP281 T01390105 52016 IEM_DS3505
ZGNN,2001-11-14 04:00,ZGNN 140400Z AUTO 7SM 15/09 A3030 RMK T01500090 IEM_DS3505
ZGNN,2001-11-14 05:00,ZGNN 140500Z AUTO 7SM 15/09 A3027 RMK T01500090 IEM_DS3505
ZGNN,2001-11-14 06:00,ZGNN 140600Z AUTO 32004KT 7SM 15/10 A3027 RMK 60016 SLP252 T01540105 57028 IEM_DS3505
ZGNN,2001-11-14 07:00,ZGNN 140700Z AUTO 01008KT 7SM 15/10 A3024 RMK T01500100 IEM_DS3505
ZGNN,2001-11-14 08:00,ZGNN 140800Z AUTO 7SM 14/09 A3027 RMK T01400090 IEM_DS3505
ZGNN,2001-11-14 09:00,ZGNN 140900Z AUTO 00000KT 7SM 14/10 A3027 RMK SLP254 T01440100 54000 IEM_DS3505
ZGNN,2001-11-14 10:00,ZGNN 141000Z AUTO 32004KT 5SM 13/10 A3027 RMK T01300100 IEM_DS3505
ZGNN,2001-11-14 11:00,ZGNN 141100Z AUTO 5SM 13/10 A3030 RMK T01300100 IEM_DS3505
ZGNN,2001-11-14 12:00,ZGNN 141200Z AUTO 00000KT 4SM 12/11 A3030 RMK 60016 SLP272 T01250108 52017 IEM_DS3505
ZGNN,2001-11-14 13:00,ZGNN 141300Z AUTO 24004KT 5SM 12/10 A3036 RMK T01200100 IEM_DS3505
ZGNN,2001-11-14 14:00,ZGNN 141400Z AUTO 5SM 12/10 A3036 RMK T01200100 IEM_DS3505
ZGNN,2001-11-14 15:00,ZGNN 141500Z AUTO 00000KT 6SM 12/11 A3036 RMK SLP284 T01230114 52012 IEM_DS3505
ZGNN,2001-11-14 16:00,ZGNN 141600Z AUTO 26004KT 5SM 12/10 A3033 RMK T01200100 IEM_DS3505
ZGNN,2001-11-14 17:00,ZGNN 141700Z AUTO 25004KT 7SM 12/10 A3033 RMK T01200100 IEM_DS3505
ZGNN,2001-11-14 18:00,ZGNN 141800Z AUTO 00000KT 12SM 12/11 A3030 RMK 60004 SLP270 T01180110 57014 IEM_DS3505
ZGNN,2001-11-14 19:00,ZGNN 141900Z AUTO 25002KT 4SM 12/11 A3030 RMK T01200110 IEM_DS3505
ZGNN,2001-11-14 20:00,ZGNN 142000Z AUTO 22004KT 4SM 12/10 A3030 RMK T01200100 IEM_DS3505
ZGNN,2001-11-14 21:00,ZGNN 142100Z AUTO 00000KT 7SM 12/11 A3027 RMK 70034 SLP261 T01180110 57009 IEM_DS3505
ZGNN,2001-11-14 22:00,ZGNN 142200Z AUTO 25004KT 4SM 12/10 A3027 RMK T01200100 IEM_DS3505
ZGNN,2001-11-14 23:00,ZGNN 142300Z AUTO 28002KT 4SM 12/10 A3030 RMK T01200100 IEM_DS3505
ZGNN,2001-11-15 00:00,ZGNN 150000Z AUTO 27004KT 7SM 12/11 A3030 RMK 70034 SLP275 T01180110 52013 IEM_DS3505
ZGNN,2001-11-15 01:00,ZGNN 150100Z AUTO 3SM 13/12 A3033 RMK T01300120 IEM_DS3505
ZGNN,2001-11-15 02:00,ZGNN 150200Z AUTO 5SM 16/11 A3033 RMK T01600110 IEM_DS3505
ZGNN,2001-11-15 03:00,ZGNN 150300Z AUTO 34008KT 9SM 17/10 A3030 RMK SLP268 T01710104 57005 IEM_DS3505
ZGNN,2001-11-15 04:00,ZGNN 150400Z AUTO 34008KT 6SM 19/08 A3027 RMK T01900080 IEM_DS3505
ZGNN,2001-11-15 05:00,ZGNN 150500Z AUTO 34008KT 6SM 20/09 A3024 RMK T02000090 IEM_DS3505
ZGNN,2001-11-15 06:00,ZGNN 150600Z AUTO 04008KT 12SM 21/04 A3021 RMK SLP230 T02120042 57037 IEM_DS3505
ZGNN,2001-11-15 07:00,ZGNN 150700Z AUTO 36008KT 6SM 22/03 A3015 RMK T02200030 IEM_DS3505
ZGNN,2001-11-15 08:00,ZGNN 150800Z AUTO 02006KT 6SM 22/05 A3015 RMK T02200050 IEM_DS3505
ZGNN,2001-11-15 09:00,ZGNN 150900Z AUTO 04002KT 19SM 22/03 A3015 RMK SLP211 T02210032 57018 IEM_DS3505
ZGNN,2001-11-15 10:00,ZGNN 151000Z AUTO 04006KT 6SM 18/04 A3015 RMK T01800040 IEM_DS3505
ZGNN,2001-11-15 11:00,ZGNN 151100Z AUTO 01002KT 6SM 15/06 RMK T01500060 IEM_DS3505
ZGNN,2001-11-15 12:00,ZGNN 151200Z AUTO 00000KT 14SM 12/07 A3018 RMK SLP233 T01160072 52019 IEM_DS3505
ZGNN,2001-11-15 13:00,ZGNN 151300Z AUTO 6SM 12/08 A3021 RMK T01200080 IEM_DS3505
ZGNN,2001-11-15 14:00,ZGNN 151400Z AUTO 6SM 10/09 A3024 RMK T01000090 IEM_DS3505
ZGNN,2001-11-15 15:00,ZGNN 151500Z AUTO 00000KT 9SM 08/07 A3024 RMK SLP249 T00840069 52016 IEM_DS3505
ZGNN,2001-11-15 16:00,ZGNN 151600Z AUTO 6SM 09/07 A3024 RMK T00900070 IEM_DS3505
ZGNN,2001-11-15 18:00,ZGNN 151800Z AUTO 00000KT 10SM 07/06 A3024 RMK SLP249 T00740065 52001 IEM_DS3505
ZGNN,2001-11-15 19:00,ZGNN 151900Z AUTO 7SM 09/07 A3024 RMK T00900070 IEM_DS3505
ZGNN,2001-11-15 20:00,ZGNN 152000Z AUTO 7SM 08/07 A3024 RMK T00800070 IEM_DS3505
ZGNN,2001-11-15 21:00,ZGNN 152100Z AUTO 00000KT 9SM 06/06 A3021 RMK SLP241 T00640057 57008 IEM_DS3505
ZGNN,2001-11-15 22:00,ZGNN 152200Z AUTO 25002KT 6SM 08/06 A3021 RMK T00800060 IEM_DS3505
ZGNN,2001-11-15 23:00,ZGNN 152300Z AUTO 24002KT 6SM 07/06 A3024 RMK T00700060 IEM_DS3505
ZGNN,2001-11-16 00:00,ZGNN 160000Z AUTO 00000KT 9SM 06/06 A3024 RMK SLP253 T00650061 52009 IEM_DS3505
ZGNN,2001-11-16 01:00,ZGNN 160100Z AUTO 5SM 11/09 A3027 RMK T01100090 IEM_DS3505
ZGNN,2001-11-16 02:00,ZGNN 160200Z AUTO 6SM 15/08 A3027 RMK T01500080 IEM_DS3505
ZGNN,2001-11-16 03:00,ZGNN 160300Z AUTO 14002KT 9SM 19/10 A3027 RMK SLP257 T01870099 52006 IEM_DS3505
ZGNN,2001-11-16 04:00,ZGNN 160400Z AUTO 6SM 21/06 A3024 RMK T02100060 IEM_DS3505
ZGNN,2001-11-16 05:00,ZGNN 160500Z AUTO 6SM 22/03 A3021 RMK T02200030 IEM_DS3505
ZGNN,2001-11-16 06:00,ZGNN 160600Z AUTO 02004KT 19SM 22/03 A3018 RMK SLP220 T02220027 57036 IEM_DS3505
ZGNN,2001-11-16 07:00,ZGNN 160700Z AUTO 02006KT 6SM 22/01 A3015 RMK T02200010 IEM_DS3505
ZGNN,2001-11-16 08:00,ZGNN 160800Z AUTO 04006KT 6SM 22/03 A3012 RMK T02200030 IEM_DS3505
ZGNN,2001-11-16 09:00,ZGNN 160900Z AUTO 36002KT 19SM 22/07 A3012 RMK SLP203 T02220072 57017 IEM_DS3505
ZGNN,2001-11-16 10:00,ZGNN 161000Z AUTO 33004KT 6SM 20/07 A3012 RMK T02000070 IEM_DS3505
ZGNN,2001-11-16 11:00,ZGNN 161100Z AUTO 31002KT 6SM 15/10 A3012 RMK T01500100 IEM_DS3505
ZGNN,2001-11-16 12:00,ZGNN 161200Z AUTO 00000KT 16SM 13/10 A3015 RMK SLP220 T01270102 52015 IEM_DS3505
ZGNN,2001-11-16 13:00,ZGNN 161300Z AUTO 5SM 12/10 A3018 RMK T01200100 IEM_DS3505
ZGNN,2001-11-16 15:00,ZGNN 161500Z AUTO 00000KT 12SM 09/08 A3021 RMK SLP231 T00940077 52013 IEM_DS3505
ZGNN,2001-11-16 16:00,ZGNN 161600Z AUTO 5SM 10/08 A3021 RMK T01000080 IEM_DS3505
ZGNN,2001-11-16 17:00,ZGNN 161700Z AUTO 19002KT 4SM 09/08 A3021 RMK T00900080 IEM_DS3505
ZGNN,2001-11-16 18:00,ZGNN 161800Z AUTO 00000KT 10SM 08/07 A3021 RMK SLP231 T00760070 54000 IEM_DS3505
ZGNN,2001-11-16 19:00,ZGNN 161900Z AUTO 24002KT 5SM 09/08 A3021 RMK T00900080 IEM_DS3505
ZGNN,2001-11-16 20:00,ZGNN 162000Z AUTO 3SM 08/07 A3021 RMK T00800070 IEM_DS3505
ZGNN,2001-11-16 21:00,ZGNN 162100Z AUTO 00000KT 9SM 07/06 A3018 RMK SLP230 T00660059 57001 IEM_DS3505
ZGNN,2001-11-16 22:00,ZGNN 162200Z AUTO 4SM 07/06 A3021 RMK T00700060 IEM_DS3505
ZGNN,2001-11-16 23:00,ZGNN 162300Z AUTO 4SM 07/06 A3021 RMK T00700060 IEM_DS3505
ZGNN,2001-11-17 00:00,ZGNN 170000Z AUTO 00000KT 6SM 07/06 A3024 RMK SLP253 T00670065 52020 IEM_DS3505
ZGNN,2001-11-17 01:00,ZGNN 170100Z AUTO 2 1/2SM 12/10 A3027 RMK T01200100 IEM_DS3505
ZGNN,2001-11-17 02:00,ZGNN 170200Z AUTO 3SM 15/09 A3027 RMK T01500090 IEM_DS3505
ZGNN,2001-11-17 03:00,ZGNN 170300Z AUTO 00000KT 16SM 20/10 A3027 RMK SLP254 T01960102 52004 IEM_DS3505
ZGNN,2001-11-17 04:00,ZGNN 170400Z AUTO 02008KT 6SM 21/04 A3024 RMK T02100040 IEM_DS3505
ZGNN,2001-11-17 05:00,ZGNN 170500Z AUTO 6SM 22/04 A3021 RMK T02200040 IEM_DS3505
ZGNN,2001-11-17 06:00,ZGNN 170600Z AUTO 02006KT 19SM 23/06 A3015 RMK SLP217 T02320060 57036 IEM_DS3505
ZGNN,2001-11-17 07:00,ZGNN 170700Z AUTO 05006KT 6SM 23/04 A3012 RMK T02300040 IEM_DS3505
ZGNN,2001-11-17 08:00,ZGNN 170800Z AUTO 6SM 23/03 A3012 RMK T02300030 IEM_DS3505
ZGNN,2001-11-17 09:00,ZGNN 170900Z AUTO 02002KT 15SM 23/08 A3012 RMK SLP201 T02340075 57016 IEM_DS3505
ZGNN,2001-11-17 10:00,ZGNN 171000Z AUTO 35002KT 6SM 21/08 A3012 RMK T02100080 IEM_DS3505
ZGNN,2001-11-17 11:00,ZGNN 171100Z AUTO 6SM 16/10 A3012 RMK T01600100 IEM_DS3505
ZGNN,2001-11-17 12:00,ZGNN 171200Z AUTO 00000KT 12SM 13/10 A3015 RMK SLP221 T01300101 52017 IEM_DS3505
ZGNN,2001-11-17 13:00,ZGNN 171300Z AUTO 5SM 13/11 A3018 RMK T01300110 IEM_DS3505
ZGNN,2001-11-17 14:00,ZGNN 171400Z AUTO 16002KT 4SM 12/10 A3018 RMK T01200100 IEM_DS3505
ZGNN,2001-11-17 15:00,ZGNN 171500Z AUTO 00000KT 11SM 10/09 A3021 RMK SLP236 T01000086 52017 IEM_DS3505
ZGNN,2001-11-17 16:00,ZGNN 171600Z AUTO 18002KT 3SM 11/09 A3021 RMK T01100090 IEM_DS3505
ZGNN,2001-11-17 17:00,ZGNN 171700Z AUTO 25004KT 4SM 10/09 A3021 RMK T01000090 IEM_DS3505
ZGNN,2001-11-17 18:00,ZGNN 171800Z AUTO 00000KT 9SM 08/07 A3021 RMK SLP235 T00840071 54000 IEM_DS3505
ZGNN,2001-11-17 19:00,ZGNN 171900Z AUTO 3SM 09/08 A3021 RMK T00900080 IEM_DS3505
ZGNN,2001-11-17 20:00,ZGNN 172000Z AUTO 26002KT 4SM 09/08 A3021 RMK T00900080 IEM_DS3505
ZGNN,2001-11-17 21:00,ZGNN 172100Z AUTO 00000KT 9SM 08/07 A3018 RMK SLP229 T00760067 57006 IEM_DS3505
ZGNN,2001-11-17 22:00,ZGNN 172200Z AUTO 4SM 08/07 A3021 RMK T00800070 IEM_DS3505
ZGNN,2001-11-17 23:00,ZGNN 172300Z AUTO 4SM 08/07 A3021 RMK T00800070 IEM_DS3505
ZGNN,2001-11-18 00:00,ZGNN 180000Z AUTO 00000KT 6SM 07/07 A3024 RMK SLP245 T00700066 52013 IEM_DS3505
ZGNN,2001-11-18 01:00,ZGNN 180100Z AUTO 4SM 11/09 A3027 RMK T01100090 IEM_DS3505
ZGNN,2001-11-18 02:00,ZGNN 180200Z AUTO 5SM 16/11 A3027 RMK T01600110 IEM_DS3505
ZGNN,2001-11-18 03:00,ZGNN 180300Z AUTO 22002KT 11SM 20/09 A3027 RMK SLP257 T02010094 52014 IEM_DS3505
ZGNN,2001-11-18 04:00,ZGNN 180400Z AUTO 03006KT 6SM 22/05 A3024 RMK T02200050 IEM_DS3505
ZGNN,2001-11-18 05:00,ZGNN 180500Z AUTO 03008KT 6SM 23/05 A3021 RMK T02300050 IEM_DS3505
ZGNN,2001-11-18 06:00,ZGNN 180600Z AUTO 04004KT 16SM 24/06 A3018 RMK SLP223 T02380061 57033 IEM_DS3505
ZGNN,2001-11-18 07:00,ZGNN 180700Z AUTO 08006KT 6SM 24/03 A3015 RMK T02400030 IEM_DS3505
ZGNN,2001-11-18 08:00,ZGNN 180800Z AUTO 05006KT 6SM 24/03 A3015 RMK T02400030 IEM_DS3505
ZGNN,2001-11-18 09:00,ZGNN 180900Z AUTO 07002KT 16SM 24/08 A3015 RMK SLP211 T02420076 57012 IEM_DS3505
ZGNN,2001-11-18 10:00,ZGNN 181000Z AUTO 07004KT 6SM 21/08 A3015 RMK T02100080 IEM_DS3505
ZGNN,2001-11-18 11:00,ZGNN 181100Z AUTO 36002KT 6SM 18/09 A3015 RMK T01800090 IEM_DS3505
ZGNN,2001-11-18 12:00,ZGNN 181200Z AUTO 00000KT 12SM 16/08 A3018 RMK SLP229 T01570084 52015 IEM_DS3505
ZGNN,2001-11-18 13:00,ZGNN 181300Z AUTO 6SM 14/10 A3021 RMK T01400100 IEM_DS3505
ZGNN,2001-11-18 14:00,ZGNN 181400Z AUTO 6SM 12/10 A3021 RMK T01200100 IEM_DS3505
ZGNN,2001-11-18 15:00,ZGNN 181500Z AUTO 00000KT 12SM 11/09 A3021 RMK SLP241 T01080090 52014 IEM_DS3505
ZGNN,2001-11-18 16:00,ZGNN 181600Z AUTO 20002KT 4SM 11/09 A3021 RMK T01100090 IEM_DS3505
ZGNN,2001-11-18 17:00,ZGNN 181700Z AUTO 4SM 11/09 A3021 RMK T01100090 IEM_DS3505
ZGNN,2001-11-18 18:00,ZGNN 181800Z AUTO 00000KT 9SM 09/08 A3021 RMK SLP237 T00910083 57003 IEM_DS3505
ZGNN,2001-11-18 19:00,ZGNN 181900Z AUTO 3SM 10/09 A3021 RMK T01000090 IEM_DS3505
ZGNN,2001-11-18 20:00,ZGNN 182000Z AUTO 26002KT 3SM 10/09 A3021 RMK T01000090 IEM_DS3505
ZGNN,2001-11-18 21:00,ZGNN 182100Z AUTO 00000KT 7SM 08/08 RMK SLP239 T00830079 52002 IEM_DS3505
ZGNN,2001-11-18 23:00,ZGNN 182300Z AUTO 3SM 08/07 A3024 RMK T00800070 IEM_DS3505
ZGNN,2001-11-19 00:00,ZGNN 190000Z AUTO 00000KT 4SM 08/08 RMK SLP260 T00820078 52018 IEM_DS3505
ZGNN,2001-11-19 01:00,ZGNN 190100Z AUTO 18002KT 2SM 12/10 A3027 RMK T01200100 IEM_DS3505
ZGNN,2001-11-19 02:00,ZGNN 190200Z AUTO 12SM 17/11 A3027 RMK T01700110 IEM_DS3505
ZGNN,2001-11-19 03:00,ZGNN 190300Z AUTO 36006KT 12SM 20/07 RMK SLP256 T02010072 57002 IEM_DS3505
ZGNN,2001-11-19 04:00,ZGNN 190400Z AUTO 6SM 21/07 A3024 RMK T02100070 IEM_DS3505
ZGNN,2001-11-19 05:00,ZGNN 190500Z AUTO 03006KT 6SM 22/06 A3021 RMK T02200060 IEM_DS3505
ZGNN,2001-11-19 06:00,ZGNN 190600Z AUTO 34006KT 16SM 23/07 A3018 RMK SLP221 T02270074 57034 IEM_DS3505
ZGNN,2001-11-19 07:00,ZGNN 190700Z AUTO 33006KT 6SM 24/07 A3015 RMK T02400070 IEM_DS3505
ZGNN,2001-11-19 08:00,ZGNN 190800Z AUTO 6SM 23/06 A3012 RMK T02300060 IEM_DS3505
ZGNN,2001-11-19 09:00,ZGNN 190900Z AUTO 32006KT 14SM 23/08 A3012 RMK SLP209 T02280081 57012 IEM_DS3505
ZGNN,2001-11-19 10:00,ZGNN 191000Z AUTO 33004KT 7SM RMK IEM_DS3505
ZGNN,2001-11-19 11:00,ZGNN 191100Z AUTO 04006KT 6SM 17/10 A3018 RMK T01700100 IEM_DS3505
ZGNN,2001-11-19 12:00,ZGNN 191200Z AUTO 00000KT 9SM 14/11 A3018 RMK SLP232 T01450113 52020 IEM_DS3505
ZGNN,2001-11-19 13:00,ZGNN 191300Z AUTO 6SM 14/11 A3021 RMK T01400110 IEM_DS3505
ZGNN,2001-11-19 14:00,ZGNN 191400Z AUTO 4SM 13/11 A3024 RMK T01300110 IEM_DS3505
ZGNN,2001-11-19 15:00,ZGNN 191500Z AUTO 00000KT 9SM 11/10 A3024 RMK SLP243 T01140098 52014 IEM_DS3505
ZGNN,2001-11-19 16:00,ZGNN 191600Z AUTO 3SM 12/10 A3024 RMK T01200100 IEM_DS3505
ZGNN,2001-11-19 17:00,ZGNN 191700Z AUTO 26002KT 4SM 12/10 A3024 RMK T01200100 IEM_DS3505
ZGNN,2001-11-19 18:00,ZGNN 191800Z AUTO 00000KT 7SM 10/09 A3024 RMK SLP240 T00990091 57003 IEM_DS3505
ZGNN,2001-11-19 19:00,ZGNN 191900Z AUTO 3SM RMK IEM_DS3505
ZGNN,2001-11-19 20:00,ZGNN 192000Z AUTO 2SM 10/09 A3021 RMK T01000090 IEM_DS3505
ZGNN,2001-11-19 21:00,ZGNN 192100Z AUTO 00000KT 6SM 09/09 A3021 RMK SLP236 T00910089 57004 IEM_DS3505
ZGNN,2001-11-19 22:00,ZGNN 192200Z AUTO 2 1/2SM 10/09 A3021 RMK T01000090 IEM_DS3505
ZGNN,2001-11-19 23:00,ZGNN 192300Z AUTO 1 1/2SM 10/09 A3024 RMK T01000090 IEM_DS3505
ZGNN,2001-11-20 00:00,ZGNN 200000Z AUTO 00000KT 3SM 09/09 A3024 RMK SLP251 T00910091 52012 IEM_DS3505
ZGNN,2001-11-20 01:00,ZGNN 200100Z AUTO 1 1/2SM 13/11 A3027 RMK T01300110 IEM_DS3505
ZGNN,2001-11-20 02:00,ZGNN 200200Z AUTO 2 1/2SM 16/12 A3027 RMK T01600120 IEM_DS3505
ZGNN,2001-11-20 03:00,ZGNN 200300Z AUTO 16002KT 7SM 20/10 A3027 RMK SLP253 T02020096 52004 IEM_DS3505
ZGNN,2001-11-20 04:00,ZGNN 200400Z AUTO 06006KT 6SM 21/08 A3024 RMK T02100080 IEM_DS3505
ZGNN,2001-11-20 05:00,ZGNN 200500Z AUTO 08006KT 6SM 22/07 A3021 RMK T02200070 IEM_DS3505
ZGNN,2001-11-20 06:00,ZGNN 200600Z AUTO 07006KT 7SM 23/07 A3015 RMK SLP217 T02300068 57035 IEM_DS3505
ZGNN,2001-11-20 07:00,ZGNN 200700Z AUTO 6SM 23/06 A3012 RMK T02300060 IEM_DS3505
ZGNN,2001-11-20 08:00,ZGNN 200800Z AUTO 05006KT 6SM 23/05 A3012 RMK T02300050 IEM_DS3505
ZGNN,2001-11-20 09:00,ZGNN 200900Z AUTO 06006KT 6SM 22/06 A3012 RMK T02200060 IEM_DS3505
ZGNN,2001-11-20 10:00,ZGNN 201000Z AUTO 04004KT 6SM 20/08 A3015 RMK T02000080 IEM_DS3505
ZGNN,2001-11-20 11:00,ZGNN 201100Z AUTO 34002KT 6SM 18/09 A3015 RMK T01800090 IEM_DS3505
ZGNN,2001-11-20 12:00,ZGNN 201200Z AUTO 00000KT 9SM 14/11 A3018 RMK SLP231 T01370107 52020 IEM_DS3505
ZGNN,2001-11-20 13:00,ZGNN 201300Z AUTO 33002KT 4SM 14/11 A3018 RMK T01400110 IEM_DS3505
ZGNN,2001-11-20 14:00,ZGNN 201400Z AUTO 18002KT 4SM 12/11 A3021 RMK T01200110 IEM_DS3505
ZGNN,2001-11-20 15:00,ZGNN 201500Z AUTO 00000KT 7SM 11/09 A3021 RMK SLP240 T01070089 52011 IEM_DS3505
ZGNN,2001-11-20 16:00,ZGNN 201600Z AUTO 4SM 12/09 A3021 RMK T01200090 IEM_DS3505
ZGNN,2001-11-20 17:00,ZGNN 201700Z AUTO 4SM 10/09 A3021 RMK T01000090 IEM_DS3505
ZGNN,2001-11-20 18:00,ZGNN 201800Z AUTO 00000KT 7SM 09/08 A3021 RMK SLP233 T00900082 57006 IEM_DS3505
ZGNN,2001-11-20 19:00,ZGNN 201900Z AUTO 19002KT 2 1/2SM 09/07 A3018 RMK T00900070 IEM_DS3505
ZGNN,2001-11-20 20:00,ZGNN 202000Z AUTO 1 1/2SM 09/08 A3018 RMK T00900080 IEM_DS3505
ZGNN,2001-11-20 21:00,ZGNN 202100Z AUTO 00000KT 6SM 08/07 A3018 RMK SLP227 T00760072 57006 IEM_DS3505
ZGNN,2001-11-20 22:00,ZGNN 202200Z AUTO 2 1/2SM 09/07 A3018 RMK T00900070 IEM_DS3505
ZGNN,2001-11-20 23:00,ZGNN 202300Z AUTO 2 1/2SM 08/07 A3021 RMK T00800070 IEM_DS3505
ZGNN,2001-11-21 00:00,ZGNN 210000Z AUTO 00000KT 2SM 07/07 A3024 RMK SLP243 T00700068 52013 IEM_DS3505
ZGNN,2001-11-21 01:00,ZGNN 210100Z AUTO 1 1/2SM 12/10 A3024 RMK T01200100 IEM_DS3505
ZGNN,2001-11-21 03:00,ZGNN 210300Z AUTO 14004KT 7SM 20/07 RMK SLP244 T02010072 52003 IEM_DS3505
ZGNN,2001-11-21 04:00,ZGNN 210400Z AUTO 6SM 21/07 A3021 RMK T02100070 IEM_DS3505
ZGNN,2001-11-21 05:00,ZGNN 210500Z AUTO 02002KT 6SM 23/07 A3015 RMK T02320066 57009 IEM_DS3505
ZGNN,2001-11-21 06:00,ZGNN 210600Z AUTO 04004KT 12SM 23/04 A3012 RMK SLP207 T02320042 57036 IEM_DS3505
ZGNN,2001-11-21 07:00,ZGNN 210700Z AUTO 6SM 23/04 A3009 RMK T02300040 IEM_DS3505
ZGNN,2001-11-21 08:00,ZGNN 210800Z AUTO 6SM 23/04 A3009 RMK T02300040 IEM_DS3505
ZGNN,2001-11-21 09:00,ZGNN 210900Z AUTO 02002KT 9SM 23/07 A3009 RMK SLP198 T02320066 57009 IEM_DS3505
ZGNN,2001-11-21 10:00,ZGNN 211000Z AUTO 33002KT 6SM 20/09 A3009 RMK T02000090 IEM_DS3505
ZGNN,2001-11-21 11:00,ZGNN 211100Z AUTO 6SM 16/10 A3012 RMK T01600100 IEM_DS3505
ZGNN,2001-11-21 12:00,ZGNN 211200Z AUTO 00000KT 9SM 13/09 A3015 RMK SLP218 T01340091 52017 IEM_DS3505
ZGNN,2001-11-21 13:00,ZGNN 211300Z AUTO 32002KT 4SM 13/10 A3015 RMK T01300100 IEM_DS3505
ZGNN,2001-11-21 14:00,ZGNN 211400Z AUTO 3SM 11/09 A3018 RMK T01100090 IEM_DS3505
ZGNN,2001-11-21 15:00,ZGNN 211500Z AUTO 00000KT 8SM 10/08 A3018 RMK SLP228 T00960082 52012 IEM_DS3505
ZGNN,2001-11-21 18:00,ZGNN 211800Z AUTO 00000KT 7SM 08/07 A3015 RMK SLP219 T00800069 57008 IEM_DS3505
ZGNN,2001-11-21 19:00,ZGNN 211900Z AUTO 28002KT 4SM 09/07 A3015 RMK T00900070 IEM_DS3505
ZGNN,2001-11-21 20:00,ZGNN 212000Z AUTO 2SM 08/07 A3015 RMK T00800070 IEM_DS3505
ZGNN,2001-11-21 21:00,ZGNN 212100Z AUTO 00000KT 6SM 07/06 A3015 RMK SLP214 T00670060 57005 IEM_DS3505
ZGNN,2001-11-21 22:00,ZGNN 212200Z AUTO 3SM 08/06 A3015 RMK T00800060 IEM_DS3505
ZGNN,2001-11-21 23:00,ZGNN 212300Z AUTO 24004KT 1 1/2SM 07/06 A3015 RMK T00700060 IEM_DS3505
ZGNN,2001-11-22 00:00,ZGNN 220000Z AUTO 00000KT 6SM 06/06 A3018 RMK SLP234 T00640057 52017 IEM_DS3505
ZGNN,2001-11-22 01:00,ZGNN 220100Z AUTO 1 1/2SM 12/10 A3021 RMK T01200100 IEM_DS3505
ZGNN,2001-11-22 02:00,ZGNN 220200Z AUTO 2SM 15/11 A3021 RMK T01500110 IEM_DS3505
ZGNN,2001-11-22 03:00,ZGNN 220300Z AUTO 00000KT 4SM 19/09 A3021 RMK SLP233 T01880087 52001 IEM_DS3505
ZGNN,2001-11-22 04:00,ZGNN 220400Z AUTO 6SM 21/07 A3018 RMK T02100070 IEM_DS3505
ZGNN,2001-11-22 05:00,ZGNN 220500Z AUTO 6SM 22/05 A3012 RMK T02200050 IEM_DS3505
ZGNN,2001-11-22 06:00,ZGNN 220600Z AUTO 14004KT 7SM 23/05 A3009 RMK SLP193 T02270049 57039 IEM_DS3505
ZGNN,2001-11-22 07:00,ZGNN 220700Z AUTO 6SM 23/03 A3006 RMK T02300030 IEM_DS3505
ZGNN,2001-11-22 08:00,ZGNN 220800Z AUTO 6SM 23/04 A3003 RMK T02300040 IEM_DS3505
ZGNN,2001-11-22 09:00,ZGNN 220900Z AUTO 00000KT 7SM 23/05 A3003 RMK SLP177 T02300051 57016 IEM_DS3505
ZGNN,2001-11-22 10:00,ZGNN 221000Z AUTO 04002KT 6SM 21/05 A3006 RMK T02100050 IEM_DS3505
ZGNN,2001-11-22 11:00,ZGNN 221100Z AUTO 6SM 16/09 A3006 RMK T01600090 IEM_DS3505
ZGNN,2001-11-22 12:00,ZGNN 221200Z AUTO 00000KT 6SM 13/09 A3009 RMK SLP196 T01300088 52016 IEM_DS3505
ZGNN,2001-11-22 13:00,ZGNN 221300Z AUTO 5SM 12/10 A3009 RMK T01200100 IEM_DS3505
ZGNN,2001-11-22 14:00,ZGNN 221400Z AUTO 33002KT 5SM 12/08 A3012 RMK T01200080 IEM_DS3505
ZGNN,2001-11-22 15:00,ZGNN 221500Z AUTO 00000KT 6SM 10/08 A3012 RMK SLP205 T00970078 52011 IEM_DS3505
ZGNN,2001-11-22 16:00,ZGNN 221600Z AUTO 4SM 10/08 A3012 RMK T01000080 IEM_DS3505
ZGNN,2001-11-22 17:00,ZGNN 221700Z AUTO 2SM 10/08 A3012 RMK T01000080 IEM_DS3505
ZGNN,2001-11-22 18:00,ZGNN 221800Z AUTO 00000KT 6SM 08/07 A3012 RMK SLP203 T00800071 57001 IEM_DS3505
ZGNN,2001-11-22 19:00,ZGNN 221900Z AUTO 3SM 09/08 A3009 RMK T00900080 IEM_DS3505
ZGNN,2001-11-22 21:00,ZGNN 222100Z AUTO 00000KT 6SM 07/07 A3009 RMK SLP199 T00720068 57004 IEM_DS3505
ZGNN,2001-11-22 22:00,ZGNN 222200Z AUTO 5SM 08/07 A3012 RMK T00800070 IEM_DS3505
ZGNN,2001-11-22 23:00,ZGNN 222300Z AUTO 1 1/2SM 08/06 A3012 RMK T00800060 IEM_DS3505
ZGNN,2001-11-23 00:00,ZGNN 230000Z AUTO 00000KT 4SM 07/07 A3015 RMK SLP216 T00700068 52014 IEM_DS3505
ZGNN,2001-11-23 01:00,ZGNN 230100Z AUTO 2SM 11/09 A3015 RMK T01100090 IEM_DS3505
ZGNN,2001-11-23 02:00,ZGNN 230200Z AUTO 2 1/2SM 15/10 A3018 RMK T01500100 IEM_DS3505
ZGNN,2001-11-23 03:00,ZGNN 230300Z AUTO 09002KT 6SM 19/09 A3015 RMK SLP218 T01860091 52004 IEM_DS3505
ZGNN,2001-11-23 04:00,ZGNN 230400Z AUTO 21/07 A3012 RMK T02100070 IEM_DS3505
ZGNN,2001-11-23 05:00,ZGNN 230500Z AUTO 6SM 22/06 A3009 RMK T02200060 IEM_DS3505
ZGNN,2001-11-23 06:00,ZGNN 230600Z AUTO 18004KT 7SM 24/06 A3003 RMK SLP176 T02380065 57040 IEM_DS3505
ZGNN,2001-11-23 07:00,ZGNN 230700Z AUTO 6SM 24/05 A3000 RMK T02400050 IEM_DS3505
ZGNN,2001-11-23 08:00,ZGNN 230800Z AUTO 6SM 24/04 A3000 RMK T02400040 IEM_DS3505
ZGNN,2001-11-23 09:00,ZGNN 230900Z AUTO 00000KT 8SM 24/08 A3000 RMK SLP164 T02380081 57012 IEM_DS3505
ZGNN,2001-11-23 10:00,ZGNN 231000Z AUTO 35004KT 6SM 21/09 A3000 RMK T02100090 IEM_DS3505
ZGNN,2001-11-23 11:00,ZGNN 231100Z AUTO 18/09 A3000 RMK T01800090 IEM_DS3505
ZGNN,2001-11-23 12:00,ZGNN 231200Z AUTO 00000KT 7SM 14/10 A3003 RMK SLP179 T01360099 52012 IEM_DS3505
ZGNN,2001-11-23 13:00,ZGNN 231300Z AUTO 19002KT 3SM 13/11 A3003 RMK T01300110 IEM_DS3505
ZGNN,2001-11-23 14:00,ZGNN 231400Z AUTO 3SM 13/09 A3006 RMK T01300090 IEM_DS3505
ZGNN,2001-11-23 15:00,ZGNN 231500Z AUTO 00000KT 7SM 10/09 A3006 RMK SLP184 T01040086 52007 IEM_DS3505
ZGNN,2001-11-23 16:00,ZGNN 231600Z AUTO 2SM 11/09 A3006 RMK T01100090 IEM_DS3505
ZGNN,2001-11-23 17:00,ZGNN 231700Z AUTO 3SM 10/08 A3006 RMK T01000080 IEM_DS3505
ZGNN,2001-11-23 18:00,ZGNN 231800Z AUTO 00000KT 6SM 09/08 A3006 RMK SLP180 T00880078 57003 IEM_DS3505
ZGNN,2001-11-23 19:00,ZGNN 231900Z AUTO 34002KT 2 1/2SM 10/08 A3003 RMK T01000080 IEM_DS3505
ZGNN,2001-11-23 20:00,ZGNN 232000Z AUTO 06002KT 2 1/2SM 09/08 A3003 RMK T00900080 IEM_DS3505
ZGNN,2001-11-23 21:00,ZGNN 232100Z AUTO 00000KT 6SM 08/07 A3003 RMK SLP180 T00810072 54000 IEM_DS3505
ZGNN,2001-11-23 22:00,ZGNN 232200Z AUTO 3SM 09/08 A3006 RMK T00900080 IEM_DS3505
ZGNN,2001-11-24 00:00,ZGNN 240000Z AUTO 00000KT 3SM 08/08 A3009 RMK SLP201 T00840082 52018 IEM_DS3505
ZGNN,2001-11-24 01:00,ZGNN 240100Z AUTO 1 1/2SM 12/10 A3012 RMK T01200100 IEM_DS3505
ZGNN,2001-11-24 02:00,ZGNN 240200Z AUTO 2SM 15/11 A3012 RMK T01500110 IEM_DS3505
ZGNN,2001-11-24 03:00,ZGNN 240300Z AUTO 00000KT 6SM 19/11 A3012 RMK SLP205 T01910111 52006 IEM_DS3505
ZGNN,2001-11-24 04:00,ZGNN 240400Z AUTO 22/10 A3009 RMK T02200100 IEM_DS3505
ZGNN,2001-11-24 05:00,ZGNN 240500Z AUTO 6SM 24/06 A3006 RMK T02400060 IEM_DS3505
ZGNN,2001-11-24 06:00,ZGNN 240600Z AUTO 32008KT 9SM 24/07 A3000 RMK SLP169 T02430073 57035 IEM_DS3505
ZGNN,2001-11-24 07:00,ZGNN 240700Z AUTO 36006KT 6SM 24/05 A3000 RMK T02400050 IEM_DS3505
ZGNN,2001-11-24 08:00,ZGNN 240800Z AUTO 34008KT 6SM 25/05 A2997 RMK T02500050 IEM_DS3505
ZGNN,2001-11-24 09:00,ZGNN 240900Z AUTO 32004KT 9SM 24/08 A2997 RMK SLP154 T02410081 57015 IEM_DS3505
ZGNN,2001-11-24 10:00,ZGNN 241000Z AUTO 29002KT 6SM 22/09 A2997 RMK T02200090 IEM_DS3505
ZGNN,2001-11-24 11:00,ZGNN 241100Z AUTO 6SM 17/11 A3000 RMK T01700110 IEM_DS3505
ZGNN,2001-11-24 12:00,ZGNN 241200Z AUTO 00000KT 7SM 14/12 A3003 RMK SLP177 T01430115 52020 IEM_DS3505
ZGNN,2001-11-24 13:00,ZGNN 241300Z AUTO 4SM 13/11 A3003 RMK T01300110 IEM_DS3505
ZGNN,2001-11-24 14:00,ZGNN 241400Z AUTO 13002KT 3SM 13/11 A3003 RMK T01300110 IEM_DS3505
ZGNN,2001-11-24 15:00,ZGNN 241500Z AUTO 00000KT 6SM 11/10 A3003 RMK SLP180 T01120100 52005 IEM_DS3505
ZGNN,2001-11-24 16:00,ZGNN 241600Z AUTO 1 1/2SM 12/10 A3003 RMK T01200100 IEM_DS3505
ZGNN,2001-11-24 17:00,ZGNN 241700Z AUTO 1 1/2SM 12/10 A3003 RMK T01200100 IEM_DS3505
ZGNN,2001-11-24 18:00,ZGNN 241800Z AUTO 00000KT 5SM 10/09 A3000 RMK SLP168 T01020094 57011 IEM_DS3505
ZGNN,2001-11-24 19:00,ZGNN 241900Z AUTO 1 1/2SM 11/10 A3000 RMK T01100100 IEM_DS3505
ZGNN,2001-11-24 20:00,ZGNN 242000Z AUTO 1 1/2SM 10/09 A3000 RMK T01000090 IEM_DS3505
ZGNN,2001-11-24 21:00,ZGNN 242100Z AUTO 00000KT 5SM 10/09 A3000 RMK SLP163 T00970091 57005 IEM_DS3505
ZGNN,2001-11-24 22:00,ZGNN 242200Z AUTO 25002KT 2 1/2SM 11/09 A3000 RMK T01100090 IEM_DS3505
ZGNN,2001-11-24 23:00,ZGNN 242300Z AUTO 19002KT 1 1/2SM 10/08 A3003 RMK T01000080 IEM_DS3505
ZGNN,2001-11-25 00:00,ZGNN 250000Z AUTO 00000KT 3SM 10/09 A3006 RMK SLP186 T00990093 52021 IEM_DS3505
ZGNN,2001-11-25 01:00,ZGNN 250100Z AUTO 1 1/4SM 13/10 A3006 RMK T01300100 IEM_DS3505
ZGNN,2001-11-25 02:00,ZGNN 250200Z AUTO 2SM 16/12 A3009 RMK T01600120 IEM_DS3505
ZGNN,2001-11-25 03:00,ZGNN 250300Z AUTO 32004KT 7SM 21/09 A3006 RMK SLP188 T02070091 52004 IEM_DS3505
ZGNN,2001-11-25 04:00,ZGNN 250400Z AUTO 6SM 23/06 A3003 RMK T02300060 IEM_DS3505
ZGNN,2001-11-25 05:00,ZGNN 250500Z AUTO 6SM 24/06 A3003 RMK T02400060 IEM_DS3505
ZGNN,2001-11-25 06:00,ZGNN 250600Z AUTO 09006KT 11SM 25/06 A3000 RMK SLP160 T02460058 57027 IEM_DS3505
ZGNN,2001-11-25 07:00,ZGNN 250700Z AUTO 6SM 25/05 A2997 RMK T02500050 IEM_DS3505
ZGNN,2001-11-25 08:00,ZGNN 250800Z AUTO 01006KT 6SM 25/04 A2994 RMK T02500040 IEM_DS3505
ZGNN,2001-11-25 09:00,ZGNN 250900Z AUTO 00000KT 9SM 24/09 A2997 RMK SLP151 T02450087 57009 IEM_DS3505
ZGNN,2001-11-25 10:00,ZGNN 251000Z AUTO 01004KT 6SM 21/09 A2997 RMK T02100090 IEM_DS3505
ZGNN,2001-11-25 11:00,ZGNN 251100Z AUTO 02004KT 6SM 19/10 A3000 RMK T01900100 IEM_DS3505
ZGNN,2001-11-25 12:00,ZGNN 251200Z AUTO 00000KT 9SM 14/11 A3003 RMK SLP178 T01420108 52024 IEM_DS3505
ZGNN,2001-11-25 13:00,ZGNN 251300Z AUTO 6SM 14/10 A3006 RMK T01400100 IEM_DS3505
ZGNN,2001-11-25 14:00,ZGNN 251400Z AUTO 34002KT 4SM 14/10 A3009 RMK T01400100 IEM_DS3505
ZGNN,2001-11-25 15:00,ZGNN 251500Z AUTO 00000KT 9SM 11/09 A3009 RMK SLP198 T01060086 52021 IEM_DS3505
ZGNN,2001-11-25 16:00,ZGNN 251600Z AUTO 3SM 11/09 A3012 RMK T01100090 IEM_DS3505
ZGNN,2001-11-25 17:00,ZGNN 251700Z AUTO 3SM 11/09 A3009 RMK T01100090 IEM_DS3505
ZGNN,2001-11-25 18:00,ZGNN 251800Z AUTO 00000KT 7SM 09/08 A3012 RMK SLP199 T00920077 52002 IEM_DS3505
ZGNN,2001-11-25 19:00,ZGNN 251900Z AUTO 5SM 10/08 A3012 RMK T01000080 IEM_DS3505
ZGNN,2001-11-25 20:00,ZGNN 252000Z AUTO 4SM 09/08 A3012 RMK T00900080 IEM_DS3505
ZGNN,2001-11-25 21:00,ZGNN 252100Z AUTO 00000KT 6SM 08/07 A3012 RMK SLP207 T00780069 52007 IEM_DS3505
ZGNN,2001-11-25 22:00,ZGNN 252200Z AUTO 4SM 09/07 A3015 RMK T00900070 IEM_DS3505
ZGNN,2001-11-25 23:00,ZGNN 252300Z AUTO 4SM 08/07 A3015 RMK T00800070 IEM_DS3505
ZGNN,2001-11-26 00:00,ZGNN 260000Z AUTO 00000KT 4SM 07/07 A3018 RMK SLP236 T00720068 52026 IEM_DS3505
ZGNN,2001-11-26 01:00,ZGNN 260100Z AUTO 2 1/2SM 12/09 A3021 RMK T01200090 IEM_DS3505
ZGNN,2001-11-26 02:00,ZGNN 260200Z AUTO 6SM 17/10 A3024 RMK T01700100 IEM_DS3505
ZGNN,2001-11-26 03:00,ZGNN 260300Z AUTO 04006KT 6SM 21/07 A3021 RMK SLP239 T02090071 52006 IEM_DS3505
ZGNN,2001-11-26 04:00,ZGNN 260400Z AUTO 04006KT 6SM 22/06 A3021 RMK T02200060 IEM_DS3505
ZGNN,2001-11-26 05:00,ZGNN 260500Z AUTO 05006KT 6SM 23/05 A3018 RMK T02300050 IEM_DS3505
ZGNN,2001-11-26 06:00,ZGNN 260600Z AUTO 00000KT 7SM 24/07 A3012 RMK SLP205 T02420071 57033 IEM_DS3505
ZGNN,2001-11-26 07:00,ZGNN 260700Z AUTO 6SM 25/04 A3009 RMK T02500040 IEM_DS3505
ZGNN,2001-11-26 08:00,ZGNN 260800Z AUTO 6SM 24/04 A3009 RMK T02400040 IEM_DS3505
ZGNN,2001-11-26 09:00,ZGNN 260900Z AUTO 00000KT 15SM 24/06 A3009 RMK SLP192 T02420065 57014 IEM_DS3505
ZGNN,2001-11-26 10:00,ZGNN 261000Z AUTO 10002KT 6SM 22/06 A3009 RMK T02200060 IEM_DS3505
ZGNN,2001-11-26 11:00,ZGNN 261100Z AUTO 34002KT 6SM 17/11 A3009 RMK T01700110 IEM_DS3505
ZGNN,2001-11-26 12:00,ZGNN 261200Z AUTO 00000KT 11SM 14/09 A3012 RMK SLP207 T01360093 52012 IEM_DS3505
ZGNN,2001-11-26 13:00,ZGNN 261300Z AUTO 4SM 13/09 A3012 RMK T01300090 IEM_DS3505
ZGNN,2001-11-26 14:00,ZGNN 261400Z 00000MPS 6000 SKC 12/10 Q1021 NOSIG
ZGNN,2001-11-26 15:00,ZGNN 261500Z AUTO 00000MPS 6000 BR SKC 12/09 Q1021
ZGNN,2001-11-26 16:00,ZGNN 261600Z AUTO 4SM 11/09 A3015 RMK T01100090 IEM_DS3505
ZGNN,2001-11-26 17:00,ZGNN 261700Z AUTO 23002KT 5SM 11/08 A3015 RMK T01100080 IEM_DS3505
ZGNN,2001-11-26 18:00,ZGNN 261800Z AUTO 00000KT 6SM 09/08 A3015 RMK SLP211 T00890081 57008 IEM_DS3505
ZGNN,2001-11-26 19:00,ZGNN 261900Z AUTO 3SM 09/08 A3012 RMK T00900080 IEM_DS3505
ZGNN,2001-11-26 20:00,ZGNN 262000Z AUTO 3SM 10/08 A3012 RMK T01000080 IEM_DS3505
ZGNN,2001-11-26 21:00,ZGNN 262100Z AUTO 00000KT 4SM 08/07 A3012 RMK SLP203 T00830072 57008 IEM_DS3505
ZGNN,2001-11-26 22:00,ZGNN 262200Z AUTO 2 1/2SM 09/08 A3012 RMK T00900080 IEM_DS3505
ZGNN,2001-11-26 23:00,ZGNN 262300Z AUTO 27002KT 1 1/2SM 09/08 A3012 RMK T00900080 IEM_DS3505
ZGNN,2001-11-27 00:00,ZGNN 270000Z AUTO 00000KT 4SM 08/07 A3015 RMK SLP224 T00780074 52018 IEM_DS3505
ZGNN,2001-11-27 01:00,ZGNN 270100Z AUTO 1 1/2SM 12/10 A3018 RMK T01200100 IEM_DS3505
ZGNN,2001-11-27 02:00,ZGNN 270200Z AUTO 1 1/2SM 15/11 A3021 RMK T01500110 IEM_DS3505
ZGNN,2001-11-27 03:00,ZGNN 270300Z AUTO 18004KT 2SM 19/11 A3018 RMK SLP228 T01860109 52006 IEM_DS3505
ZGNN,2001-11-27 04:00,ZGNN 270400Z AUTO 2 1/2SM 20/10 A3015 RMK T02000100 IEM_DS3505
ZGNN,2001-11-27 05:00,ZGNN 270500Z AUTO 22/09 A3012 RMK T02200090 IEM_DS3505
ZGNN,2001-11-27 06:00,ZGNN 270600Z AUTO 00000KT 6SM 24/11 A3006 RMK SLP183 T02430106 57043 IEM_DS3505
ZGNN,2001-11-27 07:00,ZGNN 270700Z AUTO 6SM 24/08 A3003 RMK T02400080 IEM_DS3505
ZGNN,2001-11-27 08:00,ZGNN 270800Z AUTO 6SM 23/08 A3000 RMK T02300080 IEM_DS3505
ZGNN,2001-11-27 09:00,ZGNN 270900Z AUTO 20004KT 7SM 23/08 A3000 RMK SLP169 T02290080 57014 IEM_DS3505
ZGNN,2001-11-27 10:00,ZGNN 271000Z AUTO 6SM 22/08 A3003 RMK T02200080 IEM_DS3505
ZGNN,2001-11-27 11:00,ZGNN 271100Z AUTO 16004KT 6SM 21/09 A3003 RMK T02100090 IEM_DS3505
ZGNN,2001-11-27 12:00,ZGNN 271200Z AUTO 00000KT 7SM 20/12 A3003 RMK 60003 SLP182 T01980122 52011 IEM_DS3505
ZGNN,2001-11-27 13:00,ZGNN 271300Z AUTO 6SM 19/10 A3006 RMK T01900100 IEM_DS3505
ZGNN,2001-11-27 14:00,ZGNN 271400Z AUTO 15002KT 6SM 19/12 A3006 RMK T01900120 IEM_DS3505
ZGNN,2001-11-27 15:00,ZGNN 271500Z AUTO 00000KT 7SM 19/12 A3006 RMK SLP187 T01900118 52008 IEM_DS3505
ZGNN,2001-11-27 16:00,ZGNN 271600Z AUTO 15006KT 7SM 19/13 A3006 RMK T01900130 IEM_DS3505
ZGNN,2001-11-27 17:00,ZGNN 271700Z AUTO 25002KT 5SM 18/15 A3003 RMK T01800150 IEM_DS3505
ZGNN,2001-11-27 18:00,ZGNN 271800Z AUTO 14004KT 6SM 18/16 A3003 RMK 60001 SLP174 T01780156 57012 IEM_DS3505
ZGNN,2001-11-27 20:00,ZGNN 272000Z AUTO 2SM 17/15 A2997 RMK T01700150 IEM_DS3505
ZGNN,2001-11-27 21:00,ZGNN 272100Z AUTO 25004KT 4SM 17/16 A2997 RMK 70013 SLP154 T01660163 57020 IEM_DS3505
ZGNN,2001-11-27 22:00,ZGNN 272200Z AUTO 1 1/2SM 16/15 A2997 RMK T01600150 IEM_DS3505
ZGNN,2001-11-27 23:00,ZGNN 272300Z AUTO 03002KT 1 1/4SM 17/16 A2997 RMK T01700160 IEM_DS3505
ZGNN,2001-11-28 00:00,ZGNN 280000Z AUTO 00000KT 3SM 17/16 A2997 RMK 60016 SLP159 T01690164 52004 IEM_DS3505
ZGNN,2001-11-28 01:00,ZGNN 280100Z AUTO 1SM 17/16 A3000 RMK T01700160 IEM_DS3505
ZGNN,2001-11-28 02:00,ZGNN 280200Z AUTO 1SM 17/16 A3000 RMK T01700160 IEM_DS3505
ZGNN,2001-11-28 03:00,ZGNN 280300Z AUTO 00000KT 4SM 18/17 A3000 RMK SLP167 T01760169 52008 IEM_DS3505
ZGNN,2001-11-28 04:00,ZGNN 280400Z AUTO 1 1/2SM 18/17 A2997 RMK T01800170 IEM_DS3505
ZGNN,2001-11-28 05:00,ZGNN 280500Z AUTO 2SM 19/17 A2994 RMK T01900170 IEM_DS3505
ZGNN,2001-11-28 06:00,ZGNN 280600Z AUTO 16004KT 5SM 20/18 RMK 60002 SLP124 T02000181 57042 IEM_DS3505
ZGNN,2001-11-28 07:00,ZGNN 280700Z AUTO 12006KT 5SM 20/18 A2985 RMK T02000180 IEM_DS3505
ZGNN,2001-11-28 08:00,ZGNN 280800Z AUTO 11008KT 4SM 21/18 A2983 RMK T02100180 IEM_DS3505
ZGNN,2001-11-28 09:00,ZGNN 280900Z AUTO 11004KT 5SM 20/19 A2983 RMK SLP107 T02030186 57017 IEM_DS3505
ZGNN,2001-11-28 10:00,ZGNN 281000Z AUTO 13004KT 3SM 20/18 A2983 RMK T02000180 IEM_DS3505
ZGNN,2001-11-28 11:00,ZGNN 281100Z AUTO 3SM 20/18 A2983 RMK T02000180 IEM_DS3505
ZGNN,2001-11-28 12:00,ZGNN 281200Z AUTO 14006KT 5SM 20/19 A2985 RMK SLP115 T02010187 52008 IEM_DS3505
ZGNN,2001-11-28 13:00,ZGNN 281300Z AUTO 4SM 20/18 RMK T02000180 IEM_DS3505
ZGNN,2001-11-28 14:00,ZGNN 281400Z AUTO 4SM 19/18 A2988 RMK T01900180 IEM_DS3505
ZGNN,2001-11-28 15:00,ZGNN 281500Z AUTO 00000KT 4SM 19/18 A2988 RMK SLP123 T01940183 52008 IEM_DS3505
ZGNN,2001-11-28 16:00,ZGNN 281600Z AUTO 3SM 19/18 A2988 RMK T01900180 IEM_DS3505
ZGNN,2001-11-28 17:00,ZGNN 281700Z AUTO 5SM 19/18 A2988 RMK T01900180 IEM_DS3505
ZGNN,2001-11-28 18:00,ZGNN 281800Z AUTO 14002KT 4SM 20/19 A2988 RMK SLP120 T01990186 57002 IEM_DS3505
ZGNN,2001-11-28 19:00,ZGNN 281900Z AUTO 6SM 19/18 A2985 RMK T01900180 IEM_DS3505
ZGNN,2001-11-28 20:00,ZGNN 282000Z AUTO 14002KT 7SM 19/18 A2985 RMK T01900180 IEM_DS3505
ZGNN,2001-11-28 21:00,ZGNN 282100Z AUTO 00000KT 6SM 20/19 A2988 RMK 70006 SLP120 T01980189 54000 IEM_DS3505
ZGNN,2001-11-28 22:00,ZGNN 282200Z AUTO 7SM 19/18 A2988 RMK T01900180 IEM_DS3505
ZGNN,2001-11-28 23:00,ZGNN 282300Z AUTO 2 1/2SM 16/14 A2991 RMK T01600140 IEM_DS3505
ZGNN,2001-11-29 00:00,ZGNN 290000Z AUTO 00000KT 6SM 19/18 A2997 RMK 70002 SLP150 T01860180 52029 IEM_DS3505
ZGNN,2001-11-29 01:00,ZGNN 290100Z AUTO 1/2SM 17/16 A2997 RMK T01700160 IEM_DS3505
ZGNN,2001-11-29 03:00,ZGNN 290300Z AUTO 22002KT 12SM 24/18 A2997 RMK SLP156 T02450177 52007 IEM_DS3505
ZGNN,2001-11-29 04:00,ZGNN 290400Z AUTO 7SM 25/16 A2997 RMK T02500160 IEM_DS3505
ZGNN,2001-11-29 05:00,ZGNN 290500Z AUTO 7SM 25/16 A2994 RMK T02500160 IEM_DS3505
ZGNN,2001-11-29 06:00,ZGNN 290600Z AUTO 27006KT 19SM 27/16 A2988 RMK SLP120 T02660164 57035 IEM_DS3505
ZGNN,2001-11-29 07:00,ZGNN 290700Z AUTO 7SM 26/16 A2985 RMK T02600160 IEM_DS3505
ZGNN,2001-11-29 08:00,ZGNN 290800Z AUTO 7SM 26/15 A2985 RMK T02600150 IEM_DS3505
ZGNN,2001-11-29 09:00,ZGNN 290900Z AUTO 00000KT 19SM 26/18 A2985 RMK SLP112 T02560181 57008 IEM_DS3505
ZGNN,2001-11-29 10:00,ZGNN 291000Z AUTO 6SM 25/15 A2985 RMK T02500150 IEM_DS3505
ZGNN,2001-11-29 11:00,ZGNN 291100Z AUTO 02002KT 7SM 22/17 A2985 RMK T02200170 IEM_DS3505
ZGNN,2001-11-29 12:00,ZGNN 291200Z AUTO 00000KT 16SM 21/18 A2988 RMK SLP128 T02080183 52014 IEM_DS3505
ZGNN,2001-11-29 13:00,ZGNN 291300Z AUTO 6SM 21/18 A2991 RMK T02100180 IEM_DS3505
ZGNN,2001-11-29 14:00,ZGNN 291400Z AUTO 6SM 21/18 A2991 RMK T02100180 IEM_DS3505
ZGNN,2001-11-29 15:00,ZGNN 291500Z AUTO 00000KT 12SM 21/19 A2991 RMK SLP135 T02080191 52009 IEM_DS3505
ZGNN,2001-11-29 16:00,ZGNN 291600Z AUTO 4SM 20/18 A2991 RMK T02000180 IEM_DS3505
ZGNN,2001-11-29 17:00,ZGNN 291700Z AUTO 4SM 20/18 A2991 RMK T02000180 IEM_DS3505
ZGNN,2001-11-29 18:00,ZGNN 291800Z AUTO 00000KT 11SM 20/19 A2991 RMK SLP135 T01960190 54000 IEM_DS3505
ZGNN,2001-11-29 19:00,ZGNN 291900Z AUTO 03002KT 3SM 19/18 A2991 RMK T01900180 IEM_DS3505
ZGNN,2001-11-29 20:00,ZGNN 292000Z AUTO 03002KT 3SM 19/18 A2991 RMK T01900180 IEM_DS3505
ZGNN,2001-11-29 21:00,ZGNN 292100Z AUTO 00000KT 9SM 20/19 A2991 RMK SLP137 T01960188 52002 IEM_DS3505
ZGNN,2001-11-29 22:00,ZGNN 292200Z AUTO 17002KT 2 1/2SM 19/18 A2994 RMK T01900180 IEM_DS3505
ZGNN,2001-11-29 23:00,ZGNN 292300Z AUTO 3SM 19/18 A2997 RMK T01900180 IEM_DS3505
ZGNN,2001-11-30 00:00,ZGNN 300000Z AUTO 00000KT 4SM 19/18 A2997 RMK SLP159 T01910183 52020 IEM_DS3505
ZGNN,2001-11-30 01:00,ZGNN 300100Z AUTO 7SM 20/18 A3000 RMK T02000180 IEM_DS3505
ZGNN,2001-11-30 02:00,ZGNN 300200Z AUTO 7SM 22/18 A3000 RMK T02200180 IEM_DS3505
ZGNN,2001-11-30 03:00,ZGNN 300300Z AUTO 14002KT 9SM 24/18 A3000 RMK SLP160 T02360183 52002 IEM_DS3505
ZGNN,2001-11-30 04:00,ZGNN 300400Z AUTO 7SM 24/16 A2997 RMK T02400160 IEM_DS3505
ZGNN,2001-11-30 05:00,ZGNN 300500Z AUTO 17006KT 7SM 25/15 A2994 RMK T02500150 IEM_DS3505
ZGNN,2001-11-30 06:00,ZGNN 300600Z AUTO 18004KT 12SM 27/15 A2988 RMK SLP126 T02660152 57033 IEM_DS3505
ZGNN,2001-11-30 07:00,ZGNN 300700Z AUTO 21006KT 7SM 26/13 A2988 RMK T02600130 IEM_DS3505
ZGNN,2001-11-30 08:00,ZGNN 300800Z AUTO 7SM 26/14 A2985 RMK T02600140 IEM_DS3505
ZGNN,2001-11-30 09:00,ZGNN 300900Z AUTO 00000KT 12SM 26/13 A2985 RMK SLP110 T02590133 57016 IEM_DS3505
ZGNN,2001-11-30 10:00,ZGNN 301000Z AUTO 6SM 24/15 A2985 RMK T02400150 IEM_DS3505
ZGNN,2001-11-30 11:00,ZGNN 301100Z AUTO 14004KT 6SM 22/16 A2985 RMK T02200160 IEM_DS3505
ZGNN,2001-11-30 12:00,ZGNN 301200Z AUTO 00000KT 11SM 20/18 A2988 RMK SLP129 T02020175 52017 IEM_DS3505
ZGNN,2001-11-30 13:00,ZGNN 301300Z AUTO 34002KT 6SM 20/18 A2991 RMK T02000180 IEM_DS3505
ZGNN,2001-11-30 14:00,ZGNN 301400Z AUTO 12002KT 7SM 21/18 A2991 RMK T02100180 IEM_DS3505
ZGNN,2001-11-30 15:00,ZGNN 301500Z AUTO 14004KT 11SM 21/19 A2991 RMK SLP138 T02130188 52011 IEM_DS3505
ZGNN,2001-11-30 16:00,ZGNN 301600Z AUTO 26002KT 7SM 20/18 A2994 RMK T02000180 IEM_DS3505
ZGNN,2001-11-30 17:00,ZGNN 301700Z AUTO 7SM 20/18 A2994 RMK T02000180 IEM_DS3505
ZGNN,2001-11-30 18:00,ZGNN 301800Z AUTO 00000KT 9SM 20/19 A2994 RMK SLP143 T01970188 52005 IEM_DS3505
ZGNN,2001-11-30 19:00,ZGNN 301900Z AUTO 3SM 18/17 A2994 RMK T01800170 IEM_DS3505
ZGNN,2001-11-30 20:00,ZGNN 302000Z AUTO 04004KT 3SM 17/16 A2994 RMK T01700160 IEM_DS3505
ZGNN,2001-11-30 21:00,ZGNN 302100Z AUTO 00000KT 5SM 17/17 A2994 RMK SLP142 T01730171 57002 IEM_DS3505
ZGNN,2001-11-30 22:00,ZGNN 302200Z AUTO 04004KT 2 1/2SM 18/17 A2994 RMK T01800170 IEM_DS3505
ZGNN,2001-11-30 23:00,ZGNN 302300Z AUTO 01002KT 2SM 19/18 A2994 RMK T01900180 IEM_DS3505
ZGNN,2001-12-01 00:00,ZGNN 010000Z AUTO 00000KT 4SM 19/19 A2997 RMK SLP155 T01920186 52012 IEM_DS3505
ZGNN,2001-12-01 01:00,ZGNN 010100Z AUTO 2SM 20/18 A3000 RMK T02000180 IEM_DS3505
ZGNN,2001-12-01 02:00,ZGNN 010200Z AUTO 4SM 21/19 A3000 RMK T02100190 IEM_DS3505
ZGNN,2001-12-01 03:00,ZGNN 010300Z AUTO 14004KT 6SM 22/19 A3000 RMK SLP166 T02220189 52012 IEM_DS3505
ZGNN,2001-12-01 04:00,ZGNN 010400Z AUTO 7SM 23/19 A3000 RMK T02300190 IEM_DS3505
ZGNN,2001-12-01 05:00,ZGNN 010500Z AUTO 7SM 25/18 A2997 RMK T02500180 IEM_DS3505
ZGNN,2001-12-01 06:00,ZGNN 010600Z AUTO 07004KT 9SM 26/19 A2991 RMK SLP134 T02630189 57031 IEM_DS3505
ZGNN,2001-12-01 07:00,ZGNN 010700Z AUTO 13006KT 7SM 26/18 A2988 RMK T02600180 IEM_DS3505
ZGNN,2001-12-01 08:00,ZGNN 010800Z AUTO 12004KT 7SM 25/18 A2988 RMK T02500180 IEM_DS3505
ZGNN,2001-12-01 09:00,ZGNN 010900Z AUTO 14004KT 12SM 25/19 A2988 RMK SLP122 T02530188 57013 IEM_DS3505
ZGNN,2001-12-01 10:00,ZGNN 011000Z AUTO 10004KT 6SM 24/18 A2988 RMK T02400180 IEM_DS3505
ZGNN,2001-12-01 11:00,ZGNN 011100Z AUTO 12002KT 6SM 22/18 A2991 RMK T02200180 IEM_DS3505
ZGNN,2001-12-01 12:00,ZGNN 011200Z AUTO 04002KT 11SM 22/19 A2991 RMK SLP140 T02150190 52017 IEM_DS3505
ZGNN,2001-12-01 13:00,ZGNN 011300Z AUTO 6SM 21/18 A2994 RMK T02100180 IEM_DS3505
ZGNN,2001-12-01 14:00,ZGNN 011400Z AUTO 10002KT 6SM 20/18 A2994 RMK T02000180 IEM_DS3505
ZGNN,2001-12-01 15:00,ZGNN 011500Z AUTO 00000KT 11SM 20/18 A2997 RMK SLP147 T01980185 52008 IEM_DS3505
ZGNN,2001-12-01 16:00,ZGNN 011600Z AUTO 6SM 20/18 A2994 RMK T02000180 IEM_DS3505
ZGNN,2001-12-01 17:00,ZGNN 011700Z AUTO 36002KT 4SM 19/17 A2994 RMK T01900170 IEM_DS3505
ZGNN,2001-12-01 18:00,ZGNN 011800Z AUTO 00000KT 7SM 19/18 A2994 RMK SLP144 T01870182 57003 IEM_DS3505
ZGNN,2001-12-01 19:00,ZGNN 011900Z AUTO 04002KT 2 1/2SM 18/17 A2994 RMK T01800170 IEM_DS3505
ZGNN,2001-12-01 20:00,ZGNN 012000Z AUTO 03004KT 2 1/2SM 19/17 A2994 RMK T01900170 IEM_DS3505
ZGNN,2001-12-01 21:00,ZGNN 012100Z AUTO 00000KT 7SM 18/17 A2994 RMK SLP144 T01790174 54000 IEM_DS3505
ZGNN,2001-12-01 22:00,ZGNN 012200Z AUTO 2 1/2SM 20/18 A2994 RMK T02000180 IEM_DS3505
ZGNN,2001-12-01 23:00,ZGNN 012300Z AUTO 25002KT 2SM 19/18 A2997 RMK T01900180 IEM_DS3505
ZGNN,2001-12-02 00:00,ZGNN 020000Z AUTO 00000KT 3SM 20/19 A2997 RMK SLP156 T01960193 52011 IEM_DS3505
ZGNN,2001-12-02 01:00,ZGNN 020100Z AUTO 2SM 21/19 A3000 RMK T02100190 IEM_DS3505
ZGNN,2001-12-02 02:00,ZGNN 020200Z AUTO 13006KT 5SM 23/19 A3000 RMK T02300190 IEM_DS3505
ZGNN,2001-12-02 03:00,ZGNN 020300Z AUTO 14008KT 7SM 24/19 A3000 RMK SLP166 T02370189 52011 IEM_DS3505
ZGNN,2001-12-02 04:00,ZGNN 020400Z AUTO 13008KT 7SM 25/19 A3000 RMK T02500190 IEM_DS3505
ZGNN,2001-12-02 05:00,ZGNN 020500Z AUTO 13010KT 7SM 25/18 A2997 RMK T02500180 IEM_DS3505
ZGNN,2001-12-02 06:00,ZGNN 020600Z AUTO 16010KT 11SM 26/18 A2991 RMK SLP135 T02560177 57031 IEM_DS3505
ZGNN,2001-12-02 07:00,ZGNN 020700Z AUTO 14008KT 7SM 24/17 A2991 RMK T02400170 IEM_DS3505
ZGNN,2001-12-02 08:00,ZGNN 020800Z AUTO 15008KT 7SM 25/17 A2988 RMK T02500170 IEM_DS3505
ZGNN,2001-12-02 09:00,ZGNN 020900Z AUTO 14006KT 12SM 25/17 A2988 RMK SLP128 T02500167 57007 IEM_DS3505
ZGNN,2001-12-02 10:00,ZGNN 021000Z AUTO 14008KT 6SM 24/15 A2988 RMK T02400150 IEM_DS3505
ZGNN,2001-12-02 11:00,ZGNN 021100Z AUTO 13006KT 6SM 22/16 A2991 RMK T02200160 IEM_DS3505
ZGNN,2001-12-02 12:00,ZGNN 021200Z AUTO 00000KT 12SM 21/16 A2994 RMK SLP137 T02130162 52009 IEM_DS3505
ZGNN,2001-12-02 13:00,ZGNN 021300Z AUTO 6SM 20/16 A2994 RMK T02000160 IEM_DS3505
ZGNN,2001-12-02 14:00,ZGNN 021400Z AUTO 33002KT 6SM 18/16 A2994 RMK T01800160 IEM_DS3505
ZGNN,2001-12-02 15:00,ZGNN 021500Z AUTO 00000KT 12SM 18/16 A2994 RMK SLP145 T01810163 52008 IEM_DS3505
ZGNN,2001-12-02 16:00,ZGNN 021600Z AUTO 7SM 19/16 A2997 RMK T01900160 IEM_DS3505
ZGNN,2001-12-02 17:00,ZGNN 021700Z AUTO 7SM 19/16 A2994 RMK T01900160 IEM_DS3505
ZGNN,2001-12-02 18:00,ZGNN 021800Z AUTO 00000KT 12SM 20/18 A2994 RMK SLP141 T02040183 57003 IEM_DS3505
ZGNN,2001-12-02 19:00,ZGNN 021900Z AUTO 4SM 20/17 A2994 RMK T02000170 IEM_DS3505
ZGNN,2001-12-02 20:00,ZGNN 022000Z AUTO 16002KT 4SM 20/18 A2994 RMK T02000180 IEM_DS3505
ZGNN,2001-12-02 21:00,ZGNN 022100Z AUTO 00000KT 5SM 20/19 A2994 RMK SLP146 T02020188 52004 IEM_DS3505
ZGNN,2001-12-02 22:00,ZGNN 022200Z AUTO 03002KT 4SM 18/17 A2997 RMK T01800170 IEM_DS3505
ZGNN,2001-12-02 23:00,ZGNN 022300Z AUTO 04002KT 3SM 18/17 A2997 RMK T01800170 IEM_DS3505
ZGNN,2001-12-03 00:00,ZGNN 030000Z AUTO 00000KT 3SM 20/19 A3000 RMK SLP164 T02000191 52017 IEM_DS3505
ZGNN,2001-12-03 01:00,ZGNN 030100Z AUTO 1 1/2SM 20/19 A3000 RMK T02000190 IEM_DS3505
ZGNN,2001-12-03 02:00,ZGNN 030200Z AUTO 12006KT 3SM 22/19 A3003 RMK T02200190 IEM_DS3505
ZGNN,2001-12-03 03:00,ZGNN 030300Z AUTO 11006KT 7SM 23/19 A3003 RMK SLP170 T02290188 52006 IEM_DS3505
ZGNN,2001-12-03 04:00,ZGNN 030400Z AUTO 13008KT 7SM 23/19 A3000 RMK T02300190 IEM_DS3505
ZGNN,2001-12-03 05:00,ZGNN 030500Z AUTO 14008KT 7SM 24/18 A2997 RMK T02400180 IEM_DS3505
ZGNN,2001-12-03 06:00,ZGNN 030600Z AUTO 16006KT 12SM 25/18 A2994 RMK SLP138 T02520183 57030 IEM_DS3505
ZGNN,2001-12-03 07:00,ZGNN 030700Z AUTO 7SM 25/18 A2991 RMK T02500180 IEM_DS3505
ZGNN,2001-12-03 08:00,ZGNN 030800Z AUTO 7SM 26/18 A2991 RMK T02600180 IEM_DS3505
ZGNN,2001-12-03 09:00,ZGNN 030900Z AUTO 16006KT 16SM 26/18 A2991 RMK SLP125 T02600178 57013 IEM_DS3505
ZGNN,2001-12-03 10:00,ZGNN 031000Z AUTO 14006KT 7SM 24/18 A2991 RMK T02400180 IEM_DS3505
ZGNN,2001-12-03 11:00,ZGNN 031100Z AUTO 14006KT 7SM 23/18 A2991 RMK T02300180 IEM_DS3505
ZGNN,2001-12-03 12:00,ZGNN 031200Z AUTO 22002KT 9SM 23/19 RMK SLP148 T02290192 52022 IEM_DS3505
ZGNN,2001-12-03 13:00,ZGNN 031300Z AUTO 11004KT 6SM 21/18 A2997 RMK T02100180 IEM_DS3505
ZGNN,2001-12-03 14:00,ZGNN 031400Z AUTO 13004KT 6SM 21/18 A2997 RMK T02100180 IEM_DS3505
ZGNN,2001-12-03 15:00,ZGNN 031500Z AUTO 04002KT 9SM 19/18 A2997 RMK SLP149 T01930179 52001 IEM_DS3505
ZGNN,2001-12-03 16:00,ZGNN 031600Z AUTO 7SM 20/17 A2997 RMK T02000170 IEM_DS3505
ZGNN,2001-12-03 17:00,ZGNN 031700Z AUTO 34002KT 4SM 19/17 A2997 RMK T01900170 IEM_DS3505
ZGNN,2001-12-03 18:00,ZGNN 031800Z AUTO 00000KT 7SM 19/18 A2997 RMK SLP151 T01920182 52002 IEM_DS3505
ZGNN,2001-12-03 19:00,ZGNN 031900Z AUTO 01002KT 4SM 19/17 A2997 RMK T01900170 IEM_DS3505
ZGNN,2001-12-03 20:00,ZGNN 032000Z AUTO 02004KT 3SM 19/18 A2997 RMK T01900180 IEM_DS3505
ZGNN,2001-12-03 21:00,ZGNN 032100Z AUTO 07002KT 7SM 20/19 A2997 RMK SLP146 T01990190 57004 IEM_DS3505
ZGNN,2001-12-03 22:00,ZGNN 032200Z AUTO 04004KT 4SM 19/18 A2997 RMK T01900180 IEM_DS3505
ZGNN,2001-12-03 23:00,ZGNN 032300Z AUTO 01002KT 3SM 20/18 A2997 RMK T02000180 IEM_DS3505
ZGNN,2001-12-04 00:00,ZGNN 040000Z AUTO 00000KT 5SM 20/19 A3000 RMK SLP156 T02000191 52009 IEM_DS3505
ZGNN,2001-12-04 01:00,ZGNN 040100Z AUTO 7SM 20/18 A3000 RMK T02000180 IEM_DS3505
ZGNN,2001-12-04 02:00,ZGNN 040200Z AUTO 14006KT 7SM 22/18 A3000 RMK T02200180 IEM_DS3505
ZGNN,2001-12-04 03:00,ZGNN 040300Z AUTO 18006KT 9SM 23/18 A3000 RMK SLP163 T02280182 52006 IEM_DS3505
ZGNN,2001-12-04 04:00,ZGNN 040400Z AUTO 14006KT 7SM 25/18 A2997 RMK T02500180 IEM_DS3505
ZGNN,2001-12-04 05:00,ZGNN 040500Z AUTO 14006KT 7SM 25/18 A2994 RMK T02500180 IEM_DS3505
ZGNN,2001-12-04 06:00,ZGNN 040600Z AUTO 14008KT 12SM 27/18 A2988 RMK SLP121 T02680181 57040 IEM_DS3505
ZGNN,2001-12-04 07:00,ZGNN 040700Z AUTO 14008KT 7SM 26/17 A2985 RMK T02600170 IEM_DS3505
ZGNN,2001-12-04 08:00,ZGNN 040800Z AUTO 14008KT 7SM 26/17 A2983 RMK T02600170 IEM_DS3505
ZGNN,2001-12-04 09:00,ZGNN 040900Z AUTO 16006KT 12SM 26/17 A2983 RMK SLP102 T02640172 57019 IEM_DS3505
ZGNN,2001-12-04 10:00,ZGNN 041000Z AUTO 15008KT 6SM 25/18 A2983 RMK T02500180 IEM_DS3505
ZGNN,2001-12-04 11:00,ZGNN 041100Z AUTO 15008KT 6SM 24/18 A2985 RMK T02400180 IEM_DS3505
ZGNN,2001-12-04 12:00,ZGNN 041200Z AUTO 18004KT 12SM 23/19 A2988 RMK SLP122 T02310192 52019 IEM_DS3505
ZGNN,2001-12-04 13:00,ZGNN 041300Z AUTO 17004KT 6SM 22/18 A2988 RMK T02200180 IEM_DS3505
ZGNN,2001-12-04 14:00,ZGNN 041400Z AUTO 6SM 20/18 A2991 RMK T02000180 IEM_DS3505
ZGNN,2001-12-04 17:00,ZGNN 041700Z AUTO 4SM 18/17 A2991 RMK T01800170 IEM_DS3505
ZGNN,2001-12-04 18:00,ZGNN 041800Z AUTO 00000KT 9SM 19/18 A2991 RMK SLP133 T01870182 52001 IEM_DS3505
ZGNN,2001-12-04 19:00,ZGNN 041900Z AUTO 02002KT 2 1/2SM 18/17 A2991 RMK T01800170 IEM_DS3505
ZGNN,2001-12-04 20:00,ZGNN 042000Z AUTO 35002KT 3SM 18/17 A2991 RMK T01800170 IEM_DS3505
ZGNN,2001-12-04 21:00,ZGNN 042100Z AUTO 00000KT 4SM 17/17 A2991 RMK SLP133 T01710168 57001 IEM_DS3505
ZGNN,2001-12-04 22:00,ZGNN 042200Z AUTO 3SM 18/17 A2991 RMK T01800170 IEM_DS3505
ZGNN,2001-12-04 23:00,ZGNN 042300Z AUTO 1SM 17/16 A2994 RMK T01700160 IEM_DS3505
ZGNN,2001-12-05 00:00,ZGNN 050000Z AUTO 00000KT 1/4SM 16/16 A2997 RMK SLP150 T01630160 52016 IEM_DS3505
ZGNN,2001-12-05 01:00,ZGNN 050100Z AUTO 1SM 19/18 A2997 RMK T01900180 IEM_DS3505
ZGNN,2001-12-05 02:00,ZGNN 050200Z AUTO 2SM 21/20 A3000 RMK T02100200 IEM_DS3505
ZGNN,2001-12-05 03:00,ZGNN 050300Z AUTO 20002KT 5SM 24/20 A2997 RMK SLP155 T02350200 52006 IEM_DS3505
ZGNN,2001-12-05 04:00,ZGNN 050400Z AUTO 14010KT 7SM 25/19 A2997 RMK T02500190 IEM_DS3505
ZGNN,2001-12-05 05:00,ZGNN 050500Z AUTO 13008KT 7SM 25/18 A2991 RMK T02500180 IEM_DS3505
ZGNN,2001-12-05 06:00,ZGNN 050600Z AUTO 18004KT 10SM 27/19 A2988 RMK SLP124 T02700187 57030 IEM_DS3505
ZGNN,2001-12-05 07:00,ZGNN 050700Z AUTO 20006KT 7SM 26/18 A2985 RMK T02600180 IEM_DS3505
ZGNN,2001-12-05 08:00,ZGNN 050800Z AUTO 7SM 26/18 A2985 RMK T02600180 IEM_DS3505
ZGNN,2001-12-05 09:00,ZGNN 050900Z AUTO 14006KT 11SM 26/19 A2985 RMK SLP118 T02570192 57007 IEM_DS3505
ZGNN,2001-12-05 10:00,ZGNN 051000Z AUTO 15006KT 7SM 24/19 A2988 RMK T02400190 IEM_DS3505
ZGNN,2001-12-05 11:00,ZGNN 051100Z AUTO 13004KT 7SM 24/20 A2991 RMK T02400200 IEM_DS3505
ZGNN,2001-12-05 12:00,ZGNN 051200Z AUTO 00000KT 7SM 23/20 A2994 RMK SLP143 T02320203 52024 IEM_DS3505
ZGNN,2001-12-05 13:00,ZGNN 051300Z AUTO 14004KT 7SM 22/20 A2994 RMK T02200200 IEM_DS3505
ZGNN,2001-12-05 14:00,ZGNN 051400Z AUTO 7SM 22/20 A2997 RMK T02200200 IEM_DS3505
ZGNN,2001-12-05 15:00,ZGNN 051500Z AUTO 00000KT 7SM 22/21 A3000 RMK SLP161 T02230206 52019 IEM_DS3505
ZGNN,2001-12-05 16:00,ZGNN 051600Z AUTO 04002KT 3SM 21/20 A3000 RMK T02100200 IEM_DS3505
ZGNN,2001-12-05 17:00,ZGNN 051700Z AUTO 05010KT 3SM 20/17 A3003 RMK T02000170 IEM_DS3505
ZGNN,2001-12-05 18:00,ZGNN 051800Z AUTO 07006KT 6SM 18/14 A3003 RMK SLP179 T01830145 52018 IEM_DS3505
ZGNN,2001-12-05 19:00,ZGNN 051900Z AUTO 04016KT 6SM 16/12 A3006 RMK T01600120 IEM_DS3505
ZGNN,2001-12-05 21:00,ZGNN 052100Z AUTO 04004KT 6SM 13/10 A3009 RMK 70003 SLP199 T01320105 52018 IEM_DS3505
ZGNN,2001-12-05 22:00,ZGNN 052200Z AUTO 04012KT 7SM 12/10 A3012 RMK T01200100 IEM_DS3505
ZGNN,2001-12-05 23:00,ZGNN 052300Z AUTO 04010KT 7SM 11/10 A3015 RMK T01100100 IEM_DS3505
ZGNN,2001-12-06 00:00,ZGNN 060000Z AUTO 04002KT 5SM 11/10 A3018 RMK 60016 SLP228 T01100102 52028 IEM_DS3505
ZGNN,2001-12-06 01:00,ZGNN 060100Z AUTO 05006KT 7SM 11/10 A3021 RMK T01100100 IEM_DS3505
ZGNN,2001-12-06 02:00,ZGNN 060200Z AUTO 06006KT 7SM 11/10 A3024 RMK T01100100 IEM_DS3505
ZGNN,2001-12-06 03:00,ZGNN 060300Z AUTO 02006KT 12SM 12/10 A3024 RMK SLP245 T01210100 52016 IEM_DS3505
ZGNN,2001-12-06 04:00,ZGNN 060400Z AUTO 36010KT 7SM 13/07 A3021 RMK T01300070 IEM_DS3505
ZGNN,2001-12-06 05:00,ZGNN 060500Z AUTO 35008KT 7SM 13/08 A3018 RMK T01300080 IEM_DS3505
ZGNN,2001-12-06 06:00,ZGNN 060600Z AUTO 34008KT 16SM 13/07 A3015 RMK 60000 SLP215 T01330069 57030 IEM_DS3505
ZGNN,2001-12-06 07:00,ZGNN 060700Z AUTO 34008KT 7SM 13/07 A3012 RMK T01300070 IEM_DS3505
ZGNN,2001-12-06 08:00,ZGNN 060800Z AUTO 35008KT 7SM 13/07 A3012 RMK T01300070 IEM_DS3505
ZGNN,2001-12-06 09:00,ZGNN 060900Z AUTO 34004KT 16SM 13/07 A3012 RMK SLP210 T01340068 57006 IEM_DS3505
ZGNN,2001-12-06 10:00,ZGNN 061000Z AUTO 07006KT 7SM 13/07 A3015 RMK T01300070 IEM_DS3505
ZGNN,2001-12-06 11:00,ZGNN 061100Z AUTO 04006KT 7SM 13/06 A3015 RMK T01300060 IEM_DS3505
ZGNN,2001-12-06 12:00,ZGNN 061200Z AUTO 07002KT 14SM 13/07 A3018 RMK SLP225 T01270067 52014 IEM_DS3505
ZGNN,2001-12-06 13:00,ZGNN 061300Z AUTO 06008KT 7SM 12/06 A3018 RMK T01200060 IEM_DS3505
ZGNN,2001-12-06 14:00,ZGNN 061400Z AUTO 06004KT 7SM 12/06 A3018 RMK T01200060 IEM_DS3505
ZGNN,2001-12-06 15:00,ZGNN 061500Z AUTO 07004KT 12SM 12/06 A3018 RMK SLP228 T01220058 52003 IEM_DS3505
ZGNN,2001-12-06 18:00,ZGNN 061800Z AUTO 02002KT 11SM 11/06 RMK 60003 SLP222 T01130064 57006 IEM_DS3505
ZGNN,2001-12-06 20:00,ZGNN 062000Z AUTO 06006KT 5SM 10/06 A3015 RMK T01000060 IEM_DS3505
ZGNN,2001-12-06 21:00,ZGNN 062100Z AUTO 00000KT 5SM 09/08 A3015 RMK 70017 SLP218 T00910085 57004 IEM_DS3505
ZGNN,2001-12-06 22:00,ZGNN 062200Z AUTO 04004KT 1 1/2SM 09/08 A3015 RMK T00900080 IEM_DS3505
ZGNN,2001-12-06 23:00,ZGNN 062300Z AUTO 06004KT 1 1/4SM 09/08 A3015 RMK T00900080 IEM_DS3505
ZGNN,2001-12-07 00:00,ZGNN 070000Z AUTO 09002KT 1 1/4SM 09/09 A3018 RMK 60002 SLP231 T00930087 52012 IEM_DS3505
ZGNN,2001-12-07 01:00,ZGNN 070100Z AUTO 08004KT 1SM 09/08 A3021 RMK T00900080 IEM_DS3505
ZGNN,2001-12-07 02:00,ZGNN 070200Z AUTO 06004KT 1SM 10/09 A3021 RMK T01000090 IEM_DS3505
ZGNN,2001-12-07 03:00,ZGNN 070300Z AUTO 36004KT 4SM 10/09 A3021 RMK SLP235 T01020090 52004 IEM_DS3505
ZGNN,2001-12-07 04:00,ZGNN 070400Z AUTO 01004KT 4SM 11/08 A3018 RMK T01100080 IEM_DS3505
ZGNN,2001-12-07 05:00,ZGNN 070500Z AUTO 4SM 11/08 A3015 RMK T01100080 IEM_DS3505
ZGNN,2001-12-07 06:00,ZGNN 070600Z AUTO 02004KT 4SM 11/09 A3012 RMK 60001 SLP204 T01130091 57030 IEM_DS3505
ZGNN,2001-12-07 07:00,ZGNN 070700Z AUTO 04004KT 3SM 12/09 A3009 RMK T01200090 IEM_DS3505
ZGNN,2001-12-07 08:00,ZGNN 070800Z AUTO 3SM 12/09 A3006 RMK T01200090 IEM_DS3505
ZGNN,2001-12-07 09:00,ZGNN 070900Z AUTO 34004KT 3SM 12/09 A3006 RMK SLP193 T01170091 57011 IEM_DS3505
ZGNN,2001-12-07 10:00,ZGNN 071000Z AUTO 3SM 12/09 A3009 RMK T01200090 IEM_DS3505
ZGNN,2001-12-07 11:00,ZGNN 071100Z AUTO 2 1/2SM 11/09 A3009 RMK T01100090 IEM_DS3505
ZGNN,2001-12-07 12:00,ZGNN 071200Z AUTO 00000KT 4SM 12/10 A3009 RMK 60003 SLP208 T01160100 52014 IEM_DS3505
ZGNN,2001-12-07 13:00,ZGNN 071300Z AUTO 06002KT 2 1/2SM 12/09 A3012 RMK T01200090 IEM_DS3505
ZGNN,2001-12-07 14:00,ZGNN 071400Z AUTO 06002KT 3SM 12/09 A3012 RMK T01200090 IEM_DS3505
ZGNN,2001-12-07 15:00,ZGNN 071500Z AUTO 00000KT 4SM 12/11 A3012 RMK SLP205 T01210108 57002 IEM_DS3505
ZGNN,2001-12-07 16:00,ZGNN 071600Z AUTO 05002KT 2SM 12/10 A3012 RMK T01200100 IEM_DS3505
ZGNN,2001-12-07 17:00,ZGNN 071700Z AUTO 05002KT 2SM 12/10 A3012 RMK T01200100 IEM_DS3505
ZGNN,2001-12-07 18:00,ZGNN 071800Z AUTO 00000KT 6SM 12/11 A3012 RMK SLP204 T01250110 57001 IEM_DS3505
ZGNN,2001-12-07 19:00,ZGNN 071900Z AUTO 2SM 12/10 A3009 RMK T01200100 IEM_DS3505
ZGNN,2001-12-07 20:00,ZGNN 072000Z AUTO 01004KT 2SM 12/10 A3009 RMK T01200100 IEM_DS3505
ZGNN,2001-12-07 21:00,ZGNN 072100Z AUTO 32002KT 5SM 12/10 A3009 RMK 70002 SLP197 T01240105 57007 IEM_DS3505
ZGNN,2001-12-07 22:00,ZGNN 072200Z AUTO 35002KT 3SM 13/10 A3009 RMK T01300100 IEM_DS3505
ZGNN,2001-12-07 23:00,ZGNN 072300Z AUTO 33002KT 2 1/2SM 13/10 A3012 RMK T01300100 IEM_DS3505
ZGNN,2001-12-08 00:00,ZGNN 080000Z AUTO 36002KT 3SM 13/11 A3012 RMK 70001 SLP214 T01280109 52017 IEM_DS3505
ZGNN,2001-12-08 01:00,ZGNN 080100Z AUTO 34002KT 2 1/2SM 13/10 A3015 RMK T01300100 IEM_DS3505
ZGNN,2001-12-08 03:00,ZGNN 080300Z AUTO 36002KT 6SM 16/11 A3015 RMK SLP220 T01640112 52007 IEM_DS3505
ZGNN,2001-12-08 04:00,ZGNN 080400Z AUTO 18/11 A3015 RMK T01800110 IEM_DS3505
ZGNN,2001-12-08 05:00,ZGNN 080500Z AUTO 19/11 A3009 RMK T01900110 IEM_DS3505
ZGNN,2001-12-08 06:00,ZGNN 080600Z AUTO 11004KT 7SM 20/12 A3006 RMK SLP185 T01980117 57033 IEM_DS3505
ZGNN,2001-12-08 07:00,ZGNN 080700Z AUTO 02006KT 20/12 A3003 RMK T02000120 IEM_DS3505
ZGNN,2001-12-08 08:00,ZGNN 080800Z AUTO 08004KT 3SM 20/12 A3003 RMK T02000120 IEM_DS3505
ZGNN,2001-12-08 09:00,ZGNN 080900Z AUTO 32006KT 6SM 20/13 A3003 RMK SLP180 T02040133 57005 IEM_DS3505
ZGNN,2001-12-08 10:00,ZGNN 081000Z AUTO 02006KT 3SM 20/12 A3006 RMK T02000120 IEM_DS3505
ZGNN,2001-12-08 11:00,ZGNN 081100Z AUTO 3SM 19/13 A3006 RMK T01900130 IEM_DS3505
ZGNN,2001-12-08 12:00,ZGNN 081200Z AUTO 00000KT 6SM 17/14 A3009 RMK SLP197 T01740143 52016 IEM_DS3505
ZGNN,2001-12-08 13:00,ZGNN 081300Z AUTO 04004KT 3SM 17/14 A3012 RMK T01700140 IEM_DS3505
ZGNN,2001-12-08 14:00,ZGNN 081400Z AUTO 02006KT 3SM 17/12 A3012 RMK T01700120 IEM_DS3505
ZGNN,2001-12-08 15:00,ZGNN 081500Z AUTO 00000KT 6SM 17/13 A3015 RMK SLP210 T01700131 52014 IEM_DS3505
ZGNN,2001-12-08 16:00,ZGNN 081600Z AUTO 05002KT 4SM 17/12 A3012 RMK T01700120 IEM_DS3505
ZGNN,2001-12-08 17:00,ZGNN 081700Z AUTO 03002KT 4SM 17/12 A3012 RMK T01700120 IEM_DS3505
ZGNN,2001-12-08 18:00,ZGNN 081800Z AUTO 36004KT 6SM 16/13 A3012 RMK SLP206 T01580131 57004 IEM_DS3505
ZGNN,2001-12-08 19:00,ZGNN 081900Z AUTO 02004KT 3SM 16/13 A3012 RMK T01600130 IEM_DS3505
ZGNN,2001-12-08 20:00,ZGNN 082000Z AUTO 34002KT 3SM 16/12 A3012 RMK T01600120 IEM_DS3505
ZGNN,2001-12-08 21:00,ZGNN 082100Z AUTO 00000KT 6SM 15/13 A3012 RMK SLP206 T01520132 54000 IEM_DS3505
ZGNN,2001-12-08 22:00,ZGNN 082200Z AUTO 03002KT 3SM 14/12 A3012 RMK T01400120 IEM_DS3505
ZGNN,2001-12-08 23:00,ZGNN 082300Z AUTO 01004KT 3SM 14/11 A3015 RMK T01400110 IEM_DS3505
ZGNN,2001-12-09 00:00,ZGNN 090000Z AUTO 00000KT 7SM 13/11 A3018 RMK SLP228 T01310112 52021 IEM_DS3505
ZGNN,2001-12-09 01:00,ZGNN 090100Z AUTO 4SM 15/11 A3021 RMK T01500110 IEM_DS3505
ZGNN,2001-12-09 02:00,ZGNN 090200Z AUTO 34006KT 7SM 17/11 A3024 RMK T01700110 IEM_DS3505
ZGNN,2001-12-09 03:00,ZGNN 090300Z AUTO 02004KT 7SM 17/11 A3021 RMK SLP238 T01720113 52010 IEM_DS3505
ZGNN,2001-12-09 04:00,ZGNN 090400Z AUTO 35006KT 18/11 A3021 RMK T01800110 IEM_DS3505
ZGNN,2001-12-09 05:00,ZGNN 090500Z AUTO 3SM 19/12 A3018 RMK T01900120 IEM_DS3505
ZGNN,2001-12-09 06:00,ZGNN 090600Z AUTO 02006KT 5SM 20/12 A3012 RMK SLP205 T01950122 57032 IEM_DS3505
ZGNN,2001-12-09 07:00,ZGNN 090700Z AUTO 01006KT 2 1/2SM 20/12 A3009 RMK T02000120 IEM_DS3505
ZGNN,2001-12-09 08:00,ZGNN 090800Z AUTO 01006KT 2 1/2SM 20/12 A3009 RMK T02000120 IEM_DS3505
ZGNN,2001-12-09 09:00,ZGNN 090900Z AUTO 07004KT 7SM 19/13 A3009 RMK SLP192 T01860130 57013 IEM_DS3505
ZGNN,2001-12-09 10:00,ZGNN 091000Z AUTO 07006KT 6SM 17/12 A3009 RMK T01700120 IEM_DS3505
ZGNN,2001-12-09 11:00,ZGNN 091100Z AUTO 05006KT 6SM 16/12 A3012 RMK T01600120 IEM_DS3505
ZGNN,2001-12-09 12:00,ZGNN 091200Z AUTO 04002KT 7SM 16/11 A3012 RMK 60003 SLP210 T01580114 52016 IEM_DS3505
ZGNN,2001-12-09 13:00,ZGNN 091300Z AUTO 04006KT 7SM 15/11 A3015 RMK T01500110 IEM_DS3505
ZGNN,2001-12-09 14:00,ZGNN 091400Z AUTO 05006KT 7SM 15/11 A3015 RMK T01500110 IEM_DS3505
ZGNN,2001-12-09 15:00,ZGNN 091500Z AUTO 00000KT 7SM 15/11 A3018 RMK SLP221 T01530114 52012 IEM_DS3505
ZGNN,2001-12-09 16:00,ZGNN 091600Z AUTO 06006KT 4SM 14/11 A3018 RMK T01400110 IEM_DS3505
ZGNN,2001-12-09 17:00,ZGNN 091700Z AUTO 36006KT 3SM 14/12 A3015 RMK T01400120 IEM_DS3505
ZGNN,2001-12-09 18:00,ZGNN 091800Z AUTO 32006KT 6SM 14/12 A3015 RMK 60003 SLP216 T01350120 57005 IEM_DS3505
ZGNN,2001-12-09 19:00,ZGNN 091900Z AUTO 36006KT 2SM 13/12 A3015 RMK T01300120 IEM_DS3505
ZGNN,2001-12-09 20:00,ZGNN 092000Z AUTO 35006KT 2SM 13/12 A3015 RMK T01300120 IEM_DS3505
ZGNN,2001-12-09 21:00,ZGNN 092100Z AUTO 34006KT 4SM 13/12 A3012 RMK 70008 SLP209 T01290122 57007 IEM_DS3505
ZGNN,2001-12-09 22:00,ZGNN 092200Z AUTO 34006KT 2 1/2SM 12/11 A3015 RMK T01200110 IEM_DS3505
ZGNN,2001-12-09 23:00,ZGNN 092300Z AUTO 35006KT 3SM 12/11 A3015 RMK T01200110 IEM_DS3505
ZGNN,2001-12-10 00:00,ZGNN 100000Z AUTO 02004KT 2 1/2SM 12/11 A3018 RMK 60016 SLP228 T01200112 52018 IEM_DS3505
ZGNN,2001-12-10 01:00,ZGNN 100100Z AUTO 36006KT 2 1/2SM 12/11 A3021 RMK T01200110 IEM_DS3505
ZGNN,2001-12-10 02:00,ZGNN 100200Z AUTO 36006KT 2 1/2SM 12/11 A3021 RMK T01200110 IEM_DS3505
ZGNN,2001-12-10 03:00,ZGNN 100300Z AUTO 32002KT 4SM 12/12 A3024 RMK SLP241 T01200116 52013 IEM_DS3505
ZGNN,2001-12-10 04:00,ZGNN 100400Z AUTO 36006KT 2 1/2SM 13/11 A3021 RMK T01300110 IEM_DS3505
ZGNN,2001-12-10 05:00,ZGNN 100500Z AUTO 35006KT 2 1/2SM 13/11 A3018 RMK T01300110 IEM_DS3505
ZGNN,2001-12-10 06:00,ZGNN 100600Z AUTO 34008KT 5SM 13/12 A3015 RMK 60024 SLP213 T01280117 57028 IEM_DS3505
ZGNN,2001-12-10 07:00,ZGNN 100700Z AUTO 34006KT 3SM 12/11 A3012 RMK T01200110 IEM_DS3505
ZGNN,2001-12-10 08:00,ZGNN 100800Z AUTO 35006KT 2 1/2SM 12/11 A3012 RMK T01200110 IEM_DS3505
ZGNN,2001-12-10 09:00,ZGNN 100900Z AUTO 14002KT 2 1/2SM 12/11 A3012 RMK SLP209 T01220114 57005 IEM_DS3505
ZGNN,2001-12-10 10:00,ZGNN 101000Z AUTO 04006KT 1 1/2SM 12/11 A3012 RMK T01200110 IEM_DS3505
ZGNN,2001-12-10 11:00,ZGNN 101100Z AUTO 06006KT 2 1/2SM 11/10 A3015 RMK T01100100 IEM_DS3505
ZGNN,2001-12-10 12:00,ZGNN 101200Z AUTO 07002KT 4SM 11/11 A3015 RMK 60012 SLP223 T01100106 52014 IEM_DS3505
ZGNN,2001-12-10 13:00,ZGNN 101300Z AUTO 06004KT 3SM 11/10 A3018 RMK T01100100 IEM_DS3505
ZGNN,2001-12-10 14:00,ZGNN 101400Z AUTO 06002KT 2SM 11/10 A3018 RMK T01100100 IEM_DS3505
ZGNN,2001-12-10 15:00,ZGNN 101500Z AUTO 00000KT 3SM 11/11 A3018 RMK SLP226 T01100108 52003 IEM_DS3505
ZGNN,2001-12-10 16:00,ZGNN 101600Z AUTO 1 1/2SM 11/10 A3018 RMK T01100100 IEM_DS3505
ZGNN,2001-12-10 17:00,ZGNN 101700Z AUTO 1SM 11/10 A3015 RMK T01100100 IEM_DS3505
ZGNN,2001-12-10 18:00,ZGNN 101800Z AUTO 00000KT 2 1/2SM 11/11 A3015 RMK 60012 SLP216 T01130109 57010 IEM_DS3505
ZGNN,2001-12-10 19:00,ZGNN 101900Z AUTO 35002KT 5SM 11/10 A3012 RMK T01100100 IEM_DS3505
ZGNN,2001-12-10 20:00,ZGNN 102000Z AUTO 34004KT 2SM 11/10 A3012 RMK T01100100 IEM_DS3505
ZGNN,2001-12-10 21:00,ZGNN 102100Z AUTO 36002KT 2 1/2SM 11/11 A3012 RMK 70063 SLP203 T01140110 57013 IEM_DS3505
ZGNN,2001-12-10 22:00,ZGNN 102200Z AUTO 36004KT 2 1/2SM 11/10 A3012 RMK T01100100 IEM_DS3505
ZGNN,2001-12-10 23:00,ZGNN 102300Z AUTO 33002KT 3SM 11/10 A3012 RMK T01100100 IEM_DS3505
ZGNN,2001-12-11 00:00,ZGNN 110000Z AUTO 00000KT 4SM 11/11 A3015 RMK 60028 SLP217 T01120108 52014 IEM_DS3505
ZGNN,2001-12-11 01:00,ZGNN 110100Z AUTO 05002KT 1 1/2SM 11/10 A3018 RMK T01100100 IEM_DS3505
ZGNN,2001-12-11 02:00,ZGNN 110200Z AUTO 06004KT 2SM 11/10 A3018 RMK T01100100 IEM_DS3505
ZGNN,2001-12-11 03:00,ZGNN 110300Z AUTO 00000KT 3SM 11/11 A3018 RMK SLP227 T01140110 52009 IEM_DS3505
ZGNN,2001-12-11 04:00,ZGNN 110400Z AUTO 07002KT 1 1/2SM 12/11 A3015 RMK T01200110 IEM_DS3505
ZGNN,2001-12-11 05:00,ZGNN 110500Z AUTO 09002KT 2 1/2SM 12/11 A3012 RMK T01200110 IEM_DS3505
ZGNN,2001-12-11 06:00,ZGNN 110600Z AUTO 04004KT 2 1/2SM 12/12 A3009 RMK 60020 SLP193 T01220118 57033 IEM_DS3505
ZGNN,2001-12-11 07:00,ZGNN 110700Z AUTO 07004KT 1 1/2SM 12/11 A3006 RMK T01200110 IEM_DS3505
ZGNN,2001-12-11 08:00,ZGNN 110800Z AUTO 06004KT 2 1/2SM 12/11 A3006 RMK T01200110 IEM_DS3505
ZGNN,2001-12-11 09:00,ZGNN 110900Z AUTO 00000KT 2 1/2SM 12/12 A3003 RMK SLP184 T01210115 57009 IEM_DS3505
ZGNN,2001-12-11 11:00,ZGNN 111100Z AUTO 06004KT 1 1/2SM 11/11 A3006 RMK T01100110 IEM_DS3505
ZGNN,2001-12-11 12:00,ZGNN 111200Z AUTO 00000KT 2SM 12/11 A3009 RMK 60002 SLP187 T01150111 52003 IEM_DS3505
ZGNN,2001-12-11 13:00,ZGNN 111300Z AUTO 07002KT 2 1/2SM 11/10 A3009 RMK T01100100 IEM_DS3505
ZGNN,2001-12-11 14:00,ZGNN 111400Z AUTO 08002KT 2SM 11/11 A3012 RMK T01100110 IEM_DS3505
ZGNN,2001-12-11 15:00,ZGNN 111500Z AUTO 00000KT 2SM 12/11 A3012 RMK SLP206 T01160112 52019 IEM_DS3505
ZGNN,2001-12-11 16:00,ZGNN 111600Z AUTO 06004KT 1SM 12/11 A3012 RMK T01200110 IEM_DS3505
ZGNN,2001-12-11 17:00,ZGNN 111700Z AUTO 02002KT 1SM 11/11 A3009 RMK T01100110 IEM_DS3505
ZGNN,2001-12-11 18:00,ZGNN 111800Z AUTO 00000KT 2SM 12/11 A3009 RMK 60002 SLP198 T01150111 57008 IEM_DS3505
ZGNN,2001-12-11 19:00,ZGNN 111900Z AUTO 07002KT 1SM 12/11 A3009 RMK T01200110 IEM_DS3505
ZGNN,2001-12-11 20:00,ZGNN 112000Z AUTO 1SM 12/11 A3006 RMK T01200110 IEM_DS3505
ZGNN,2001-12-11 21:00,ZGNN 112100Z AUTO 00000KT 2SM 12/12 A3006 RMK 70047 SLP191 T01190117 57007 IEM_DS3505
ZGNN,2001-12-11 22:00,ZGNN 112200Z AUTO 1 1/2SM 12/11 A3009 RMK T01200110 IEM_DS3505
ZGNN,2001-12-11 23:00,ZGNN 112300Z AUTO 1SM 12/11 A3009 RMK T01200110 IEM_DS3505
ZGNN,2001-12-12 00:00,ZGNN 120000Z AUTO 00000KT 1 1/4SM 12/12 A3012 RMK 60004 SLP206 T01230121 52015 IEM_DS3505
ZGNN,2001-12-12 01:00,ZGNN 120100Z AUTO 04002KT 1 1/4SM 12/12 A3015 RMK T01200120 IEM_DS3505
ZGNN,2001-12-12 02:00,ZGNN 120200Z AUTO 02004KT 3SM 13/12 A3015 RMK T01300120 IEM_DS3505
ZGNN,2001-12-12 03:00,ZGNN 120300Z AUTO 02002KT 1 1/4SM 13/12 A3018 RMK SLP226 T01320125 52020 IEM_DS3505
ZGNN,2001-12-12 04:00,ZGNN 120400Z AUTO 02004KT 4SM 13/12 A3015 RMK T01300120 IEM_DS3505
ZGNN,2001-12-12 05:00,ZGNN 120500Z AUTO 01006KT 3SM 13/12 A3015 RMK T01300120 IEM_DS3505
ZGNN,2001-12-12 06:00,ZGNN 120600Z AUTO 02002KT 2SM 14/13 A3012 RMK 60016 SLP211 T01360129 57015 IEM_DS3505
ZGNN,2001-12-12 07:00,ZGNN 120700Z AUTO 36008KT 2 1/2SM 13/12 A3012 RMK T01300120 IEM_DS3505
ZGNN,2001-12-12 08:00,ZGNN 120800Z AUTO 36006KT 3SM 13/12 A3012 RMK T01300120 IEM_DS3505
ZGNN,2001-12-12 09:00,ZGNN 120900Z AUTO 00000KT 2SM 13/12 A3012 RMK SLP214 T01290125 52003 IEM_DS3505
ZGNN,2001-12-12 10:00,ZGNN 121000Z AUTO 07004KT 2 1/2SM 12/11 A3015 RMK T01200110 IEM_DS3505
ZGNN,2001-12-12 11:00,ZGNN 121100Z AUTO 08004KT 4SM 12/11 A3018 RMK T01200110 IEM_DS3505
ZGNN,2001-12-12 12:00,ZGNN 121200Z AUTO 00000KT 2SM 12/12 A3018 RMK 60016 SLP233 T01200116 52019 IEM_DS3505
ZGNN,2001-12-12 14:00,ZGNN 121400Z AUTO 06004KT 2 1/2SM 11/11 A3024 RMK T01100110 IEM_DS3505
ZGNN,2001-12-12 15:00,ZGNN 121500Z AUTO 07002KT 2 1/2SM 11/11 A3024 RMK SLP249 T01140110 52016 IEM_DS3505
ZGNN,2001-12-12 16:00,ZGNN 121600Z AUTO 08004KT 1 1/4SM 11/10 A3024 RMK T01100100 IEM_DS3505
ZGNN,2001-12-12 17:00,ZGNN 121700Z AUTO 07004KT 2SM 11/10 A3024 RMK T01100100 IEM_DS3505
ZGNN,2001-12-12 18:00,ZGNN 121800Z AUTO 00000KT 2 1/2SM 11/10 A3024 RMK 60016 SLP251 T01070103 52002 IEM_DS3505
ZGNN,2001-12-12 19:00,ZGNN 121900Z AUTO 05006KT 2 1/2SM 10/09 A3024 RMK T01000090 IEM_DS3505
ZGNN,2001-12-12 20:00,ZGNN 122000Z AUTO 06006KT 2SM 10/09 A3024 RMK T01000090 IEM_DS3505
ZGNN,2001-12-12 21:00,ZGNN 122100Z AUTO 00000KT 2SM 10/10 A3024 RMK 70054 SLP253 T01030099 52001 IEM_DS3505
ZGNN,2001-12-12 22:00,ZGNN 122200Z AUTO 06006KT 2SM 10/09 A3027 RMK T01000090 IEM_DS3505
ZGNN,2001-12-12 23:00,ZGNN 122300Z AUTO 05006KT 2 1/2SM 10/09 A3027 RMK T01000090 IEM_DS3505
ZGNN,2001-12-13 00:00,ZGNN 130000Z AUTO 04004KT 4SM 10/09 A3033 RMK 60008 SLP277 T00990089 52024 IEM_DS3505
ZGNN,2001-12-13 01:00,ZGNN 130100Z AUTO 01008KT 4SM 10/09 A3036 RMK T01000090 IEM_DS3505
ZGNN,2001-12-13 02:00,ZGNN 130200Z AUTO 36006KT 4SM 10/09 A3039 RMK T01000090 IEM_DS3505
ZGNN,2001-12-13 03:00,ZGNN 130300Z AUTO 04002KT 4SM 10/09 A3039 RMK SLP302 T01020094 52024 IEM_DS3505
ZGNN,2001-12-13 04:00,ZGNN 130400Z AUTO 36006KT 5SM 10/09 A3039 RMK T01000090 IEM_DS3505
ZGNN,2001-12-13 05:00,ZGNN 130500Z AUTO 36010KT 5SM 10/08 A3036 RMK T01000080 IEM_DS3505
ZGNN,2001-12-13 06:00,ZGNN 130600Z AUTO 34006KT 3SM 10/09 A3033 RMK 60002 SLP281 T01030091 57021 IEM_DS3505
ZGNN,2001-12-13 07:00,ZGNN 130700Z AUTO 35006KT 5SM 10/09 A3033 RMK T01000090 IEM_DS3505
ZGNN,2001-12-13 08:00,ZGNN 130800Z AUTO 35008KT 7SM 10/08 A3033 RMK T01000080 IEM_DS3505
ZGNN,2001-12-13 09:00,ZGNN 130900Z AUTO 02004KT 7SM 10/08 A3033 RMK SLP282 T01030085 52001 IEM_DS3505
ZGNN,2001-12-13 10:00,ZGNN 131000Z AUTO 34008KT 7SM 10/08 A3036 RMK T01000080 IEM_DS3505
ZGNN,2001-12-13 11:00,ZGNN 131100Z AUTO 35008KT 7SM 10/08 A3036 RMK T01000080 IEM_DS3505
ZGNN,2001-12-13 12:00,ZGNN 131200Z AUTO 00000KT 12SM 10/08 A3039 RMK 60000 SLP303 T00980084 52021 IEM_DS3505
ZGNN,2001-12-13 13:00,ZGNN 131300Z AUTO 08002KT 7SM 10/07 A3042 RMK T01000070 IEM_DS3505
ZGNN,2001-12-13 14:00,ZGNN 131400Z AUTO 04002KT 7SM 10/07 A3045 RMK T01000070 IEM_DS3505
ZGNN,2001-12-13 15:00,ZGNN 131500Z AUTO 00000KT 12SM 10/08 A3045 RMK SLP323 T00960079 52019 IEM_DS3505
ZGNN,2001-12-13 16:00,ZGNN 131600Z AUTO 06004KT 4SM 09/07 A3045 RMK T00900070 IEM_DS3505
ZGNN,2001-12-13 17:00,ZGNN 131700Z AUTO 2 1/2SM 09/07 A3045 RMK T00900070 IEM_DS3505
ZGNN,2001-12-13 18:00,ZGNN 131800Z AUTO 00000KT 9SM 09/08 A3045 RMK 60001 SLP323 T00880077 54000 IEM_DS3505
ZGNN,2001-12-13 19:00,ZGNN 131900Z AUTO 35006KT 4SM 08/06 A3045 RMK T00800060 IEM_DS3505
ZGNN,2001-12-13 20:00,ZGNN 132000Z AUTO 34004KT 1 1/2SM 08/07 A3045 RMK T00800070 IEM_DS3505
ZGNN,2001-12-13 21:00,ZGNN 132100Z AUTO 36008KT 9SM 08/06 A3045 RMK 70008 SLP320 T00780060 57003 IEM_DS3505
ZGNN,2001-12-13 22:00,ZGNN 132200Z AUTO 35006KT 4SM 08/06 A3045 RMK T00800060 IEM_DS3505
ZGNN,2001-12-13 23:00,ZGNN 132300Z AUTO 35008KT 4SM 07/06 A3047 RMK T00700060 IEM_DS3505
ZGNN,2001-12-14 00:00,ZGNN 140000Z AUTO 36008KT 4SM 08/06 A3047 RMK 60000 SLP334 T00750059 52013 IEM_DS3505
ZGNN,2001-12-14 01:00,ZGNN 140100Z AUTO 36002KT 5SM 08/06 A3050 RMK T00800060 IEM_DS3505
ZGNN,2001-12-14 02:00,ZGNN 140200Z AUTO 35008KT 5SM 08/05 A3050 RMK T00800050 IEM_DS3505
ZGNN,2001-12-14 03:00,ZGNN 140300Z AUTO 34006KT 5SM 10/05 A3050 RMK SLP338 T00950050 52005 IEM_DS3505
ZGNN,2001-12-14 04:00,ZGNN 140400Z AUTO 34008KT 7SM 10/05 A3047 RMK T01000050 IEM_DS3505
ZGNN,2001-12-14 05:00,ZGNN 140500Z AUTO 33008KT 7SM 10/05 A3042 RMK T01000050 IEM_DS3505
ZGNN,2001-12-14 06:00,ZGNN 140600Z AUTO 32010KT 6SM 11/05 A3039 RMK 60003 SLP300 T01080051 57037 IEM_DS3505
ZGNN,2001-12-14 07:00,ZGNN 140700Z AUTO 33006KT 7SM 11/05 A3036 RMK T01100050 IEM_DS3505
ZGNN,2001-12-14 08:00,ZGNN 140800Z AUTO 33006KT 7SM 11/04 A3033 RMK T01100040 IEM_DS3505
ZGNN,2001-12-14 09:00,ZGNN 140900Z AUTO 34006KT 4SM 11/05 A3033 RMK SLP282 T01070050 57018 IEM_DS3505
ZGNN,2001-12-14 10:00,ZGNN 141000Z AUTO 35006KT 7SM 10/05 A3033 RMK T01000050 IEM_DS3505
ZGNN,2001-12-14 11:00,ZGNN 141100Z AUTO 5SM 10/05 A3036 RMK T01000050 IEM_DS3505
ZGNN,2001-12-14 12:00,ZGNN 141200Z AUTO 34004KT 6SM 10/05 A3036 RMK SLP292 T00980054 52009 IEM_DS3505
ZGNN,2001-12-14 13:00,ZGNN 141300Z AUTO 32004KT 4SM 09/06 A3039 RMK T00900060 IEM_DS3505
ZGNN,2001-12-14 14:00,ZGNN 141400Z AUTO 33004KT 3SM 09/06 A3039 RMK T00900060 IEM_DS3505
ZGNN,2001-12-14 15:00,ZGNN 141500Z AUTO 00000KT 4SM 08/07 A3039 RMK SLP300 T00850074 52008 IEM_DS3505
ZGNN,2001-12-14 16:00,ZGNN 141600Z AUTO 01004KT 3SM 09/06 A3039 RMK T00900060 IEM_DS3505
ZGNN,2001-12-14 17:00,ZGNN 141700Z AUTO 36004KT 3SM 09/06 A3036 RMK T00900060 IEM_DS3505
ZGNN,2001-12-14 18:00,ZGNN 141800Z AUTO 00000KT 4SM 09/07 A3036 RMK 60000 SLP287 T00860073 57012 IEM_DS3505
ZGNN,2001-12-14 19:00,ZGNN 141900Z AUTO 35002KT 3SM 09/06 A3033 RMK T00900060 IEM_DS3505
ZGNN,2001-12-14 20:00,ZGNN 142000Z AUTO 34004KT 3SM 09/06 A3030 RMK T00900060 IEM_DS3505
ZGNN,2001-12-14 21:00,ZGNN 142100Z AUTO 32004KT 5SM 09/07 A3030 RMK 70001 SLP268 T00860073 57019 IEM_DS3505
ZGNN,2001-12-14 22:00,ZGNN 142200Z AUTO 34002KT 2SM 09/07 A3030 RMK T00900070 IEM_DS3505
ZGNN,2001-12-14 23:00,ZGNN 142300Z AUTO 35002KT 2 1/2SM 09/07 A3030 RMK T00900070 IEM_DS3505
ZGNN,2001-12-15 00:00,ZGNN 150000Z AUTO 32002KT 3SM 09/07 A3030 RMK 60003 SLP275 T00880073 52007 IEM_DS3505
ZGNN,2001-12-15 01:00,ZGNN 150100Z AUTO 4SM 09/06 A3033 RMK T00900060 IEM_DS3505
ZGNN,2001-12-15 02:00,ZGNN 150200Z AUTO 32004KT 4SM 10/07 A3036 RMK T01000070 IEM_DS3505
ZGNN,2001-12-15 03:00,ZGNN 150300Z AUTO 00000KT 6SM 10/07 A3033 RMK SLP284 T01010074 52009 IEM_DS3505
ZGNN,2001-12-15 04:00,ZGNN 150400Z AUTO 4SM 10/06 A3033 RMK T01000060 IEM_DS3505
ZGNN,2001-12-15 05:00,ZGNN 150500Z AUTO 3SM 11/06 A3027 RMK T01100060 IEM_DS3505
ZGNN,2001-12-15 06:00,ZGNN 150600Z AUTO 00000KT 7SM 11/08 A3024 RMK SLP244 T01140077 57039 IEM_DS3505
ZGNN,2001-12-15 07:00,ZGNN 150700Z AUTO 4SM 12/07 A3018 RMK T01200070 IEM_DS3505
ZGNN,2001-12-15 08:00,ZGNN 150800Z AUTO 3SM 12/07 A3018 RMK T01200070 IEM_DS3505
ZGNN,2001-12-15 09:00,ZGNN 150900Z AUTO 00000KT 6SM 12/08 A3018 RMK SLP228 T01190085 57016 IEM_DS3505
ZGNN,2001-12-15 10:00,ZGNN 151000Z AUTO 3SM 12/08 A3018 RMK T01200080 IEM_DS3505
ZGNN,2001-12-15 11:00,ZGNN 151100Z AUTO 2 1/2SM 12/08 A3021 RMK T01200080 IEM_DS3505
ZGNN,2001-12-15 12:00,ZGNN 151200Z AUTO 00000KT 6SM 12/08 A3021 RMK SLP241 T01170085 52013 IEM_DS3505
ZGNN,2001-12-15 13:00,ZGNN 151300Z AUTO 03002KT 2 1/2SM 12/07 A3024 RMK T01200070 IEM_DS3505
ZGNN,2001-12-15 14:00,ZGNN 151400Z AUTO 2SM 12/08 A3024 RMK T01200080 IEM_DS3505
ZGNN,2001-12-15 15:00,ZGNN 151500Z AUTO 07002KT 1 1/2SM 11/08 A3024 RMK T01100080 IEM_DS3505
ZGNN,2001-12-15 16:00,ZGNN 151600Z AUTO 1SM 10/09 A3024 RMK T01000090 IEM_DS3505
ZGNN,2001-12-15 17:00,ZGNN 151700Z AUTO 1SM 10/09 A3024 RMK T01000090 IEM_DS3505
ZGNN,2001-12-15 18:00,ZGNN 151800Z AUTO 00000KT 4SM 11/10 A3021 RMK 60000 SLP238 T01060098 57014 IEM_DS3505
ZGNN,2001-12-15 19:00,ZGNN 151900Z AUTO 3/8SM 10/09 A3018 RMK T01000090 IEM_DS3505
ZGNN,2001-12-15 20:00,ZGNN 152000Z AUTO 06002KT 1SM 10/10 A3018 RMK T01000100 IEM_DS3505
ZGNN,2001-12-15 21:00,ZGNN 152100Z AUTO 00000KT 3SM 11/10 A3018 RMK 70001 SLP229 T01080100 57009 IEM_DS3505
ZGNN,2001-12-15 22:00,ZGNN 152200Z AUTO 01004KT 1SM 11/10 A3018 RMK T01100100 IEM_DS3505
ZGNN,2001-12-15 23:00,ZGNN 152300Z AUTO 04004KT 1SM 11/10 A3018 RMK T01100100 IEM_DS3505
ZGNN,2001-12-16 00:00,ZGNN 160000Z AUTO 00000KT 2 1/2SM 11/11 A3021 RMK 60004 SLP238 T01100106 52009 IEM_DS3505
ZGNN,2001-12-16 01:00,ZGNN 160100Z AUTO 1SM 11/10 A3021 RMK T01100100 IEM_DS3505
ZGNN,2001-12-16 02:00,ZGNN 160200Z AUTO 1 1/4SM 11/10 A3024 RMK T01100100 IEM_DS3505
ZGNN,2001-12-16 03:00,ZGNN 160300Z AUTO 00000KT 1 1/4SM 12/12 A3024 RMK SLP246 T01220116 52008 IEM_DS3505
ZGNN,2001-12-16 04:00,ZGNN 160400Z AUTO 04004KT 1SM 12/11 A3021 RMK T01200110 IEM_DS3505
ZGNN,2001-12-16 05:00,ZGNN 160500Z AUTO 06004KT 1SM 13/12 A3018 RMK T01300120 IEM_DS3505
ZGNN,2001-12-16 06:00,ZGNN 160600Z AUTO 00000KT 1 1/4SM 13/12 A3015 RMK 60008 SLP215 T01320125 57030 IEM_DS3505
ZGNN,2001-12-16 07:00,ZGNN 160700Z AUTO 1 1/2SM 13/12 A3012 RMK T01300120 IEM_DS3505
ZGNN,2001-12-16 08:00,ZGNN 160800Z AUTO 05002KT 1 1/4SM 13/11 A3012 RMK T01300110 IEM_DS3505
ZGNN,2001-12-16 09:00,ZGNN 160900Z AUTO 00000KT 1 1/4SM 13/12 A3012 RMK SLP209 T01290123 57006 IEM_DS3505
ZGNN,2001-12-16 10:00,ZGNN 161000Z AUTO 07004KT 1SM 13/12 A3012 RMK T01300120 IEM_DS3505
ZGNN,2001-12-16 11:00,ZGNN 161100Z AUTO 05002KT 1 1/4SM 12/12 A3015 RMK T01200120 IEM_DS3505
ZGNN,2001-12-16 12:00,ZGNN 161200Z AUTO 00000KT 2 1/2SM 13/12 A3015 RMK 60002 SLP221 T01260120 52012 IEM_DS3505
ZGNN,2001-12-16 13:00,ZGNN 161300Z AUTO 1 1/4SM 12/11 A3018 RMK T01200110 IEM_DS3505
ZGNN,2001-12-16 14:00,ZGNN 161400Z AUTO 08002KT 1 1/4SM 12/11 A3018 RMK T01200110 IEM_DS3505
ZGNN,2001-12-16 15:00,ZGNN 161500Z AUTO 00000KT 2 1/2SM 12/12 A3018 RMK SLP225 T01240120 52004 IEM_DS3505
ZGNN,2001-12-16 16:00,ZGNN 161600Z AUTO 04002KT 1SM 12/11 A3018 RMK T01200110 IEM_DS3505
ZGNN,2001-12-16 17:00,ZGNN 161700Z AUTO 05002KT 1SM 12/11 A3018 RMK T01200110 IEM_DS3505
ZGNN,2001-12-16 18:00,ZGNN 161800Z AUTO 09002KT 1 1/4SM 12/12 A3015 RMK 60002 SLP219 T01210119 57006 IEM_DS3505
ZGNN,2001-12-16 19:00,ZGNN 161900Z AUTO 05002KT 1SM 12/11 A3015 RMK T01200110 IEM_DS3505
ZGNN,2001-12-16 20:00,ZGNN 162000Z AUTO 04004KT 1SM 12/11 A3012 RMK T01200110 IEM_DS3505
ZGNN,2001-12-16 21:00,ZGNN 162100Z AUTO 00000KT 1 1/4SM 12/12 A3015 RMK 70015 SLP219 T01190117 54000 IEM_DS3505
ZGNN,2001-12-16 22:00,ZGNN 162200Z AUTO 04004KT 1SM 12/11 A3015 RMK T01200110 IEM_DS3505
ZGNN,2001-12-16 23:00,ZGNN 162300Z AUTO 04004KT 1SM 12/11 A3018 RMK T01200110 IEM_DS3505
ZGNN,2001-12-17 00:00,ZGNN 170000Z AUTO 36004KT 2 1/2SM 12/11 A3021 RMK 60004 SLP237 T01180114 52018 IEM_DS3505
ZGNN,2001-12-17 01:00,ZGNN 170100Z AUTO 01006KT 2SM 12/11 A3024 RMK T01200110 IEM_DS3505
ZGNN,2001-12-17 02:00,ZGNN 170200Z AUTO 01006KT 5SM 12/10 A3027 RMK T01200100 IEM_DS3505
ZGNN,2001-12-17 03:00,ZGNN 170300Z AUTO 04004KT 4SM 12/11 A3027 RMK SLP257 T01180106 52019 IEM_DS3505
ZGNN,2001-12-17 04:00,ZGNN 170400Z AUTO 34006KT 4SM 11/10 A3024 RMK T01100100 IEM_DS3505
ZGNN,2001-12-17 05:00,ZGNN 170500Z AUTO 35006KT 5SM 12/10 A3021 RMK T01200100 IEM_DS3505
ZGNN,2001-12-17 06:00,ZGNN 170600Z AUTO 02004KT 7SM 12/11 A3021 RMK 60002 SLP231 T01200109 57025 IEM_DS3505
ZGNN,2001-12-17 07:00,ZGNN 170700Z AUTO 01006KT 5SM 12/10 A3018 RMK T01200100 IEM_DS3505
ZGNN,2001-12-17 08:00,ZGNN 170800Z AUTO 01006KT 5SM 12/10 A3018 RMK T01200100 IEM_DS3505
ZGNN,2001-12-17 09:00,ZGNN 170900Z AUTO 00000KT 9SM 12/11 A3018 RMK SLP224 T01190109 57007 IEM_DS3505
ZGNN,2001-12-17 10:00,ZGNN 171000Z AUTO 08006KT 2SM 11/10 A3018 RMK T01100100 IEM_DS3505
ZGNN,2001-12-17 11:00,ZGNN 171100Z AUTO 07004KT 2 1/2SM 11/10 A3018 RMK T01100100 IEM_DS3505
ZGNN,2001-12-17 12:00,ZGNN 171200Z AUTO 00000KT 9SM 11/10 A3021 RMK 60003 SLP240 T01130101 52015 IEM_DS3505
ZGNN,2001-12-17 13:00,ZGNN 171300Z AUTO 04004KT 4SM 11/09 A3024 RMK T01100090 IEM_DS3505
ZGNN,2001-12-17 14:00,ZGNN 171400Z AUTO 02002KT 5SM 11/09 A3024 RMK T01100090 IEM_DS3505
ZGNN,2001-12-17 15:00,ZGNN 171500Z AUTO 00000KT 6SM 11/10 A3027 RMK SLP256 T01130095 52016 IEM_DS3505
ZGNN,2001-12-17 16:00,ZGNN 171600Z AUTO 05002KT 4SM 11/09 A3027 RMK T01100090 IEM_DS3505
ZGNN,2001-12-17 17:00,ZGNN 171700Z AUTO 05004KT 3SM 11/09 A3024 RMK T01100090 IEM_DS3505
ZGNN,2001-12-17 18:00,ZGNN 171800Z AUTO 00000KT 6SM 11/10 RMK SLP250 T01100100 57006 IEM_DS3505
ZGNN,2001-12-17 21:00,ZGNN 172100Z AUTO 34004KT 6SM 10/10 A3024 RMK 70007 SLP248 T01010095 57002 IEM_DS3505
ZGNN,2001-12-17 22:00,ZGNN 172200Z AUTO 34004KT 2 1/2SM 10/09 A3027 RMK T01000090 IEM_DS3505
ZGNN,2001-12-17 23:00,ZGNN 172300Z AUTO 34004KT 2 1/2SM 10/08 A3027 RMK T01000080 IEM_DS3505
ZGNN,2001-12-18 00:00,ZGNN 180000Z AUTO 00000KT 4SM 10/09 A3030 RMK 60001 SLP268 T00980094 52019 IEM_DS3505
ZGNN,2001-12-18 01:00,ZGNN 180100Z AUTO 35006KT 2SM 10/08 A3033 RMK T01000080 IEM_DS3505
ZGNN,2001-12-18 02:00,ZGNN 180200Z AUTO 35006KT 2SM 10/09 A3036 RMK T01000090 IEM_DS3505
ZGNN,2001-12-18 03:00,ZGNN 180300Z AUTO 36004KT 5SM 10/10 A3036 RMK SLP286 T01020096 52018 IEM_DS3505
ZGNN,2001-12-18 04:00,ZGNN 180400Z AUTO 01006KT 4SM 11/09 A3033 RMK T01100090 IEM_DS3505
ZGNN,2001-12-18 05:00,ZGNN 180500Z AUTO 6SM 11/09 A3030 RMK T01100090 IEM_DS3505
ZGNN,2001-12-18 06:00,ZGNN 180600Z AUTO 04004KT 9SM 11/09 A3027 RMK 60003 SLP256 T01120088 57029 IEM_DS3505
ZGNN,2001-12-18 07:00,ZGNN 180700Z AUTO 35006KT 7SM 11/08 A3024 RMK T01100080 IEM_DS3505
ZGNN,2001-12-18 08:00,ZGNN 180800Z AUTO 36006KT 7SM 12/08 A3024 RMK T01200080 IEM_DS3505
ZGNN,2001-12-18 09:00,ZGNN 180900Z AUTO 02004KT 12SM 12/10 A3024 RMK SLP248 T01250096 57008 IEM_DS3505
ZGNN,2001-12-18 10:00,ZGNN 181000Z AUTO 04004KT 7SM 12/09 A3024 RMK T01200090 IEM_DS3505
ZGNN,2001-12-18 11:00,ZGNN 181100Z AUTO 05004KT 5SM 12/09 A3027 RMK T01200090 IEM_DS3505
ZGNN,2001-12-18 12:00,ZGNN 181200Z AUTO 00000KT 9SM 12/09 A3030 RMK 60003 SLP267 T01170091 52019 IEM_DS3505
ZGNN,2001-12-18 13:00,ZGNN 181300Z AUTO 07002KT 5SM 11/08 A3030 RMK T01100080 IEM_DS3505
ZGNN,2001-12-18 14:00,ZGNN 181400Z AUTO 36004KT 4SM 11/08 A3033 RMK T01100080 IEM_DS3505
ZGNN,2001-12-18 15:00,ZGNN 181500Z AUTO 34004KT 9SM 11/09 A3033 RMK SLP279 T01080092 52011 IEM_DS3505
ZGNN,2001-12-18 16:00,ZGNN 181600Z AUTO 34004KT 4SM 10/09 A3033 RMK T01000090 IEM_DS3505
ZGNN,2001-12-18 17:00,ZGNN 181700Z AUTO 34002KT 4SM 10/08 A3033 RMK T01000080 IEM_DS3505
ZGNN,2001-12-18 18:00,ZGNN 181800Z AUTO 34004KT 9SM 11/09 A3030 RMK SLP273 T01080086 57005 IEM_DS3505
ZGNN,2001-12-18 19:00,ZGNN 181900Z AUTO 35002KT 5SM 11/08 A3030 RMK T01100080 IEM_DS3505
ZGNN,2001-12-18 20:00,ZGNN 182000Z AUTO 36004KT 5SM 11/08 A3030 RMK T01100080 IEM_DS3505
ZGNN,2001-12-18 21:00,ZGNN 182100Z AUTO 34002KT 8SM 11/08 A3030 RMK 70004 SLP270 T01090078 57003 IEM_DS3505
ZGNN,2001-12-18 22:00,ZGNN 182200Z AUTO 35004KT 7SM 11/07 A3030 RMK T01100070 IEM_DS3505
ZGNN,2001-12-18 23:00,ZGNN 182300Z AUTO 35004KT 7SM 10/07 A3033 RMK T01000070 IEM_DS3505
ZGNN,2001-12-19 00:00,ZGNN 190000Z AUTO 36004KT 6SM 10/07 A3036 RMK 60003 SLP288 T01040068 52017 IEM_DS3505
ZGNN,2001-12-19 01:00,ZGNN 190100Z AUTO 07002KT 4SM 10/06 A3039 RMK T01000060 IEM_DS3505
ZGNN,2001-12-19 02:00,ZGNN 190200Z AUTO 35006KT 7SM 10/06 A3039 RMK T01000060 IEM_DS3505
ZGNN,2001-12-19 03:00,ZGNN 190300Z AUTO 32006KT 3SM 10/08 A3039 RMK SLP299 T01000079 52011 IEM_DS3505
ZGNN,2001-12-19 04:00,ZGNN 190400Z AUTO 36006KT 4SM 11/07 A3036 RMK T01100070 IEM_DS3505
ZGNN,2001-12-19 05:00,ZGNN 190500Z AUTO 36004KT 4SM 11/08 A3033 RMK T01100080 IEM_DS3505
ZGNN,2001-12-19 06:00,ZGNN 190600Z AUTO 34004KT 3SM 11/09 A3030 RMK 60003 SLP266 T01120086 57032 IEM_DS3505
ZGNN,2001-12-19 07:00,ZGNN 190700Z AUTO 4SM 11/08 A3027 RMK T01100080 IEM_DS3505
ZGNN,2001-12-19 08:00,ZGNN 190800Z AUTO 01006KT 5SM 11/08 A3027 RMK T01100080 IEM_DS3505
ZGNN,2001-12-19 09:00,ZGNN 190900Z AUTO 07002KT 4SM 11/10 A3024 RMK SLP253 T01130095 57013 IEM_DS3505
ZGNN,2001-12-19 10:00,ZGNN 191000Z AUTO 06004KT 2SM 11/09 A3027 RMK T01100090 IEM_DS3505
ZGNN,2001-12-19 11:00,ZGNN 191100Z AUTO 06004KT 1 1/2SM 11/09 A3027 RMK T01100090 IEM_DS3505
ZGNN,2001-12-19 12:00,ZGNN 191200Z AUTO 00000KT 6SM 11/09 A3030 RMK 60003 SLP269 T01100094 52016 IEM_DS3505
ZGNN,2001-12-19 13:00,ZGNN 191300Z AUTO 05004KT 2 1/2SM 11/08 RMK T01100080 IEM_DS3505
ZGNN,2001-12-19 14:00,ZGNN 191400Z AUTO 04002KT 2 1/2SM 11/09 A3030 RMK T01100090 IEM_DS3505
ZGNN,2001-12-19 15:00,ZGNN 191500Z AUTO 04002KT 7SM 11/09 A3030 RMK SLP272 T01070089 52002 IEM_DS3505
ZGNN,2001-12-19 16:00,ZGNN 191600Z AUTO 05004KT 2SM 10/08 A3030 RMK T01000080 IEM_DS3505
ZGNN,2001-12-19 17:00,ZGNN 191700Z AUTO 2SM 10/08 A3030 RMK T01000080 IEM_DS3505
ZGNN,2001-12-19 18:00,ZGNN 191800Z AUTO 00000KT 6SM 10/10 A3027 RMK 60003 SLP263 T01030095 57008 IEM_DS3505
ZGNN,2001-12-19 19:00,ZGNN 191900Z AUTO 06002KT 1SM 10/09 A3027 RMK T01000090 IEM_DS3505
ZGNN,2001-12-19 20:00,ZGNN 192000Z AUTO 3/8SM 10/09 A3027 RMK T01000090 IEM_DS3505
ZGNN,2001-12-19 21:00,ZGNN 192100Z AUTO 00000KT 1 1/4SM 10/10 A3027 RMK 70001 SLP258 T01020098 57005 IEM_DS3505
ZGNN,2001-12-19 22:00,ZGNN 192200Z AUTO 01004KT 1SM 10/09 A3027 RMK T01000090 IEM_DS3505
ZGNN,2001-12-19 23:00,ZGNN 192300Z AUTO 1SM 10/09 A3030 RMK T01000090 IEM_DS3505
ZGNN,2001-12-20 00:00,ZGNN 200000Z AUTO 00000KT 1 1/4SM 10/10 A3033 RMK 60002 SLP285 T01020098 52026 IEM_DS3505
ZGNN,2001-12-20 01:00,ZGNN 200100Z AUTO 35004KT 2 1/2SM 10/09 A3036 RMK T01000090 IEM_DS3505
ZGNN,2001-12-20 02:00,ZGNN 200200Z AUTO 36006KT 3SM 10/09 A3039 RMK T01000090 IEM_DS3505
ZGNN,2001-12-20 03:00,ZGNN 200300Z AUTO 34002KT 2SM 11/10 A3042 RMK SLP304 T01090101 52019 IEM_DS3505
ZGNN,2001-12-20 04:00,ZGNN 200400Z AUTO 34006KT 2 1/2SM 11/09 A3039 RMK T01100090 IEM_DS3505
ZGNN,2001-12-20 05:00,ZGNN 200500Z AUTO 34006KT 1 1/2SM 11/09 A3036 RMK T01100090 IEM_DS3505
ZGNN,2001-12-20 06:00,ZGNN 200600Z AUTO 32004KT 2SM 11/10 A3036 RMK 60001 SLP283 T01080104 57021 IEM_DS3505
ZGNN,2001-12-20 07:00,ZGNN 200700Z AUTO 35006KT 4SM 11/09 A3033 RMK T01100090 IEM_DS3505
ZGNN,2001-12-20 08:00,ZGNN 200800Z AUTO 35006KT 3SM 11/09 A3033 RMK T01100090 IEM_DS3505
ZGNN,2001-12-20 09:00,ZGNN 200900Z AUTO 36008KT 2SM 11/10 A3036 RMK SLP286 T01080096 52003 IEM_DS3505
ZGNN,2001-12-20 10:00,ZGNN 201000Z AUTO 35006KT 2 1/2SM 10/09 A3039 RMK T01000090 IEM_DS3505
ZGNN,2001-12-20 11:00,ZGNN 201100Z AUTO 36008KT 5SM 10/09 A3042 RMK T01000090 IEM_DS3505
ZGNN,2001-12-20 12:00,ZGNN 201200Z AUTO 34008KT 2 1/2SM 10/09 A3042 RMK 60000 SLP313 T01020088 52027 IEM_DS3505
ZGNN,2001-12-20 13:00,ZGNN 201300Z AUTO 34006KT 5SM 10/08 A3045 RMK T01000080 IEM_DS3505
ZGNN,2001-12-20 14:00,ZGNN 201400Z AUTO 33010KT 7SM 10/07 A3047 RMK T01000070 IEM_DS3505
ZGNN,2001-12-20 15:00,ZGNN 201500Z AUTO 34010KT 6SM 10/08 A3047 RMK SLP334 T01020075 52020 IEM_DS3505
ZGNN,2001-12-20 17:00,ZGNN 201700Z AUTO 34006KT 7SM 10/07 A3047 RMK T01000070 IEM_DS3505
ZGNN,2001-12-20 18:00,ZGNN 201800Z AUTO 34006KT 6SM 10/06 A3047 RMK 60003 SLP330 T01020059 57003 IEM_DS3505
ZGNN,2001-12-20 19:00,ZGNN 201900Z AUTO 34008KT 7SM 10/05 A3047 RMK T01000050 IEM_DS3505
ZGNN,2001-12-20 20:00,ZGNN 202000Z AUTO 35008KT 7SM 10/05 A3045 RMK T01000050 IEM_DS3505
ZGNN,2001-12-20 21:00,ZGNN 202100Z AUTO 34008KT 6SM 10/04 A3047 RMK 70004 SLP325 T01000044 57005 IEM_DS3505
ZGNN,2001-12-20 22:00,ZGNN 202200Z AUTO 34006KT 6SM 10/05 A3047 RMK T01000050 IEM_DS3505
ZGNN,2001-12-20 23:00,ZGNN 202300Z AUTO 34008KT 6SM 10/04 A3050 RMK T01000040 IEM_DS3505
ZGNN,2001-12-21 00:00,ZGNN 210000Z AUTO 34006KT 11SM 10/04 A3050 RMK 70002 SLP340 T00990037 52014 IEM_DS3505
ZGNN,2001-12-21 01:00,ZGNN 210100Z AUTO 35008KT 6SM 10/03 A3053 RMK T01000030 IEM_DS3505
ZGNN,2001-12-21 02:00,ZGNN 210200Z AUTO 35010KT 6SM 11/03 A3056 RMK T01100030 IEM_DS3505
ZGNN,2001-12-21 03:00,ZGNN 210300Z AUTO 36008KT 16SM 12/03 A3053 RMK SLP350 T01210027 52011 IEM_DS3505
ZGNN,2001-12-21 04:00,ZGNN 210400Z AUTO 34012KT 6SM 12/03 A3050 RMK T01200030 IEM_DS3505
ZGNN,2001-12-21 05:00,ZGNN 210500Z AUTO 35012KT 6SM 13/03 A3047 RMK T01300030 IEM_DS3505
ZGNN,2001-12-21 06:00,ZGNN 210600Z AUTO 34008KT 16SM 14/02 A3045 RMK SLP316 T01400021 57033 IEM_DS3505
ZGNN,2001-12-21 07:00,ZGNN 210700Z AUTO 36014KT 6SM 14/01 A3042 RMK T01400010 IEM_DS3505
ZGNN,2001-12-21 08:00,ZGNN 210800Z AUTO 36012KT 6SM 14/01 A3039 RMK T01400010 IEM_DS3505
ZGNN,2001-12-21 09:00,ZGNN 210900Z AUTO 36008KT 16SM 13/01 A3039 RMK SLP305 T01320006 57012 IEM_DS3505
ZGNN,2001-12-21 10:00,ZGNN 211000Z AUTO 35006KT 6SM 12/02 A3042 RMK T01200020 IEM_DS3505
ZGNN,2001-12-21 11:00,ZGNN 211100Z AUTO 35002KT 6SM 11/04 A3042 RMK T01100040 IEM_DS3505
ZGNN,2001-12-21 12:00,ZGNN 211200Z AUTO 34006KT 14SM 11/02 A3045 RMK SLP320 T01100023 52015 IEM_DS3505
ZGNN,2001-12-21 13:00,ZGNN 211300Z AUTO 34004KT 6SM 10/03 A3047 RMK T01000030 IEM_DS3505
ZGNN,2001-12-21 14:00,ZGNN 211400Z AUTO 36002KT 6SM 11/03 A3047 RMK T01100030 IEM_DS3505
ZGNN,2001-12-21 15:00,ZGNN 211500Z AUTO 34006KT 14SM 11/03 A3047 RMK SLP334 T01100026 52014 IEM_DS3505
ZGNN,2001-12-21 16:00,ZGNN 211600Z AUTO 35004KT 5SM 10/04 A3050 RMK T01000040 IEM_DS3505
ZGNN,2001-12-21 17:00,ZGNN 211700Z AUTO 36004KT 4SM 09/04 A3047 RMK T00900040 IEM_DS3505
ZGNN,2001-12-21 18:00,ZGNN 211800Z AUTO 34004KT 12SM 10/03 A3047 RMK SLP331 T00950029 57003 IEM_DS3505
ZGNN,2001-12-21 19:00,ZGNN 211900Z AUTO 35004KT 4SM 07/04 A3047 RMK T00700040 IEM_DS3505
ZGNN,2001-12-21 20:00,ZGNN 212000Z AUTO 35004KT 4SM 08/03 A3047 RMK T00800030 IEM_DS3505
ZGNN,2001-12-21 21:00,ZGNN 212100Z AUTO 36004KT 12SM 09/02 A3047 RMK SLP326 T00920017 57005 IEM_DS3505
ZGNN,2001-12-21 22:00,ZGNN 212200Z AUTO 34004KT 6SM 09/03 A3047 RMK T00900030 IEM_DS3505
ZGNN,2001-12-21 23:00,ZGNN 212300Z AUTO 34006KT 6SM 09/02 A3047 RMK T00900020 IEM_DS3505
ZGNN,2001-12-22 00:00,ZGNN 220000Z AUTO 36006KT 12SM 09/02 A3047 RMK SLP336 T00900020 52009 IEM_DS3505
ZGNN,2001-12-22 01:00,ZGNN 220100Z AUTO 36006KT 6SM 09/02 A3050 RMK T00900020 IEM_DS3505
ZGNN,2001-12-22 02:00,ZGNN 220200Z AUTO 36008KT 6SM 10/01 A3050 RMK T01000010 IEM_DS3505
ZGNN,2001-12-22 03:00,ZGNN 220300Z AUTO 34008KT 14SM 11/M02 A3047 RMK SLP331 T01131018 57004 IEM_DS3505
ZGNN,2001-12-22 04:00,ZGNN 220400Z AUTO 35006KT 6SM 13/M02 A3045 RMK T01301020 IEM_DS3505
ZGNN,2001-12-22 05:00,ZGNN 220500Z AUTO 33006KT 6SM 13/00 A3042 RMK T01300000 IEM_DS3505
ZGNN,2001-12-22 06:00,ZGNN 220600Z AUTO 34006KT 17SM 14/M03 A3036 RMK SLP290 T01411034 57040 IEM_DS3505
ZGNN,2001-12-22 07:00,ZGNN 220700Z AUTO 34008KT 6SM 15/M02 A3033 RMK T01501020 IEM_DS3505
ZGNN,2001-12-22 08:00,ZGNN 220800Z AUTO 34006KT 6SM 15/M02 A3030 RMK T01501020 IEM_DS3505
ZGNN,2001-12-22 09:00,ZGNN 220900Z AUTO 34006KT 19SM 15/M01 A3030 RMK SLP273 T01541010 57017 IEM_DS3505
ZGNN,2001-12-22 10:00,ZGNN 221000Z AUTO 36004KT 6SM 14/00 A3030 RMK T01400000 IEM_DS3505
ZGNN,2001-12-22 11:00,ZGNN 221100Z AUTO 32002KT 6SM 10/04 A3033 RMK T01000040 IEM_DS3505
ZGNN,2001-12-22 12:00,ZGNN 221200Z AUTO 04002KT 14SM 08/04 A3033 RMK SLP285 T00840043 52010 IEM_DS3505
ZGNN,2001-12-22 13:00,ZGNN 221300Z AUTO 6SM 07/04 A3036 RMK T00700040 IEM_DS3505
ZGNN,2001-12-22 14:00,ZGNN 221400Z AUTO 3SM 07/04 A3036 RMK T00700040 IEM_DS3505
ZGNN,2001-12-22 15:00,ZGNN 221500Z AUTO 00000KT 14SM 06/04 A3036 RMK SLP293 T00620041 52008 IEM_DS3505
ZGNN,2001-12-22 17:00,ZGNN 221700Z AUTO 3SM 07/05 A3036 RMK T00700050 IEM_DS3505
ZGNN,2001-12-22 18:00,ZGNN 221800Z AUTO 00000KT 12SM 06/04 A3033 RMK SLP281 T00580044 57011 IEM_DS3505
ZGNN,2001-12-22 19:00,ZGNN 221900Z AUTO 3SM 06/04 A3033 RMK T00600040 IEM_DS3505
ZGNN,2001-12-22 20:00,ZGNN 222000Z AUTO 23002KT 3SM 06/04 A3030 RMK T00600040 IEM_DS3505
ZGNN,2001-12-22 21:00,ZGNN 222100Z AUTO 00000KT 11SM 04/03 A3030 RMK SLP273 T00370032 57008 IEM_DS3505
ZGNN,2001-12-22 22:00,ZGNN 222200Z AUTO 6SM 04/03 A3033 RMK T00400030 IEM_DS3505
ZGNN,2001-12-22 23:00,ZGNN 222300Z AUTO 7SM 03/02 A3033 RMK T00300020 IEM_DS3505
ZGNN,2001-12-23 00:00,ZGNN 230000Z AUTO 00000KT 9SM 02/02 A3033 RMK SLP289 T00210016 52013 IEM_DS3505
ZGNN,2001-12-23 01:00,ZGNN 230100Z AUTO 6SM 06/04 A3036 RMK T00600040 IEM_DS3505
ZGNN,2001-12-23 02:00,ZGNN 230200Z AUTO 6SM 10/06 A3039 RMK T01000060 IEM_DS3505
ZGNN,2001-12-23 03:00,ZGNN 230300Z AUTO 16002KT 9SM 14/05 A3036 RMK SLP291 T01360047 52005 IEM_DS3505
ZGNN,2001-12-23 04:00,ZGNN 230400Z AUTO 6SM 16/01 A3036 RMK T01600010 IEM_DS3505
ZGNN,2001-12-23 05:00,ZGNN 230500Z AUTO 6SM 16/M01 A3030 RMK T01601010 IEM_DS3505
ZGNN,2001-12-23 06:00,ZGNN 230600Z AUTO 14004KT 11SM 18/02 A3027 RMK SLP251 T01780019 57039 IEM_DS3505
ZGNN,2001-12-23 07:00,ZGNN 230700Z AUTO 6SM 19/M01 A3024 RMK T01901010 IEM_DS3505
ZGNN,2001-12-23 08:00,ZGNN 230800Z AUTO 6SM 19/00 A3024 RMK T01900000 IEM_DS3505
ZGNN,2001-12-23 09:00,ZGNN 230900Z AUTO 16002KT 14SM 20/01 A3024 RMK SLP246 T01960010 57005 IEM_DS3505
ZGNN,2001-12-23 10:00,ZGNN 231000Z AUTO 13002KT 6SM 17/M01 A3024 RMK T01701010 IEM_DS3505
ZGNN,2001-12-23 11:00,ZGNN 231100Z AUTO 35004KT 6SM 13/03 A3024 RMK T01300030 IEM_DS3505
ZGNN,2001-12-23 12:00,ZGNN 231200Z AUTO 00000KT 12SM 09/06 A3027 RMK SLP263 T00940064 52014 IEM_DS3505
ZGNN,2001-12-23 13:00,ZGNN 231300Z AUTO 01002KT 6SM 08/05 A3027 RMK T00800050 IEM_DS3505
ZGNN,2001-12-23 14:00,ZGNN 231400Z AUTO 2 1/2SM 07/06 A3030 RMK T00700060 IEM_DS3505
ZGNN,2001-12-23 15:00,ZGNN 231500Z AUTO 00000KT 7SM 05/04 A3030 RMK SLP268 T00510039 52007 IEM_DS3505
ZGNN,2001-12-23 16:00,ZGNN 231600Z AUTO 3SM 06/03 A3030 RMK T00600030 IEM_DS3505
ZGNN,2001-12-23 17:00,ZGNN 231700Z AUTO 3SM 05/03 A3027 RMK T00500030 IEM_DS3505
ZGNN,2001-12-23 18:00,ZGNN 231800Z AUTO 00000KT 7SM 04/03 A3027 RMK SLP259 T00370027 57008 IEM_DS3505
ZGNN,2001-12-23 19:00,ZGNN 231900Z AUTO 2SM 05/04 A3027 RMK T00500040 IEM_DS3505
ZGNN,2001-12-23 20:00,ZGNN 232000Z AUTO 3SM 04/03 A3027 RMK T00400030 IEM_DS3505
ZGNN,2001-12-23 21:00,ZGNN 232100Z AUTO 00000KT 7SM 03/02 A3027 RMK SLP254 T00260021 57005 IEM_DS3505
ZGNN,2001-12-23 22:00,ZGNN 232200Z AUTO 4SM 03/02 A3027 RMK T00300020 IEM_DS3505
ZGNN,2001-12-23 23:00,ZGNN 232300Z AUTO 4SM 03/02 A3027 RMK T00300020 IEM_DS3505
ZGNN,2001-12-24 00:00,ZGNN 240000Z AUTO 00000KT 7SM 02/02 A3030 RMK SLP271 T00190019 52014 IEM_DS3505
ZGNN,2001-12-24 01:00,ZGNN 240100Z AUTO 2 1/2SM 05/04 A3033 RMK T00500040 IEM_DS3505
ZGNN,2001-12-24 02:00,ZGNN 240200Z AUTO 2 1/2SM 09/06 A3033 RMK T00900060 IEM_DS3505
ZGNN,2001-12-24 03:00,ZGNN 240300Z AUTO 18004KT 4SM 13/05 A3033 RMK SLP276 T01300050 52007 IEM_DS3505
ZGNN,2001-12-24 04:00,ZGNN 240400Z AUTO 5SM 16/03 A3030 RMK T01600030 IEM_DS3505
ZGNN,2001-12-24 05:00,ZGNN 240500Z AUTO 6SM 17/01 A3027 RMK T01700010 IEM_DS3505
ZGNN,2001-12-24 06:00,ZGNN 240600Z AUTO 00000KT 8SM 20/01 A3021 RMK SLP238 T01980006 57036 IEM_DS3505
ZGNN,2001-12-24 07:00,ZGNN 240700Z AUTO 6SM 20/01 A3018 RMK T02000010 IEM_DS3505
ZGNN,2001-12-24 08:00,ZGNN 240800Z AUTO 6SM 20/M01 A3018 RMK T02001010 IEM_DS3505
ZGNN,2001-12-24 09:00,ZGNN 240900Z AUTO 00000KT 11SM 20/03 A3018 RMK SLP226 T01960027 57013 IEM_DS3505
ZGNN,2001-12-24 10:00,ZGNN 241000Z AUTO 11002KT 6SM 17/03 A3018 RMK T01700030 IEM_DS3505
ZGNN,2001-12-24 11:00,ZGNN 241100Z AUTO 01002KT 6SM 13/06 A3018 RMK T01300060 IEM_DS3505
ZGNN,2001-12-24 12:00,ZGNN 241200Z AUTO 00000KT 10SM 10/06 A3021 RMK SLP241 T00970060 52012 IEM_DS3505
ZGNN,2001-12-24 13:00,ZGNN 241300Z AUTO 30002KT 6SM 09/05 A3024 RMK T00900050 IEM_DS3505
ZGNN,2001-12-24 14:00,ZGNN 241400Z AUTO 35002KT 6SM 08/04 A3024 RMK T00800040 IEM_DS3505
ZGNN,2001-12-24 15:00,ZGNN 241500Z AUTO 00000KT 9SM 06/05 A3027 RMK SLP259 T00630047 52020 IEM_DS3505
ZGNN,2001-12-24 16:00,ZGNN 241600Z AUTO 34002KT 4SM 07/03 A3027 RMK T00700030 IEM_DS3505
ZGNN,2001-12-24 17:00,ZGNN 241700Z AUTO 3SM 05/03 A3027 RMK T00500030 IEM_DS3505
ZGNN,2001-12-24 18:00,ZGNN 241800Z AUTO 00000KT 7SM 05/03 A3027 RMK SLP257 T00460034 54000 IEM_DS3505
ZGNN,2001-12-24 19:00,ZGNN 241900Z AUTO 3SM 04/03 A3027 RMK T00400030 IEM_DS3505
ZGNN,2001-12-24 20:00,ZGNN 242000Z AUTO 04002KT 4SM 04/02 A3030 RMK T00400020 IEM_DS3505
ZGNN,2001-12-24 21:00,ZGNN 242100Z AUTO 00000KT 7SM 04/03 A3030 RMK SLP268 T00360029 52010 IEM_DS3505
ZGNN,2001-12-24 22:00,ZGNN 242200Z AUTO 04004KT 4SM 04/02 A3030 RMK T00400020 IEM_DS3505
ZGNN,2001-12-24 23:00,ZGNN 242300Z AUTO 01002KT 4SM 04/02 A3033 RMK T00400020 IEM_DS3505
ZGNN,2001-12-25 00:00,ZGNN 250000Z AUTO 00000KT 8SM 03/03 A3033 RMK SLP289 T00290026 52018 IEM_DS3505
ZGNN,2001-12-25 01:00,ZGNN 250100Z AUTO 6SM 07/04 A3039 RMK T00700040 IEM_DS3505
ZGNN,2001-12-25 02:00,ZGNN 250200Z AUTO 4SM 11/05 A3042 RMK T01100050 IEM_DS3505
ZGNN,2001-12-25 03:00,ZGNN 250300Z AUTO 16004KT 4SM 15/06 A3042 RMK SLP304 T01460058 52017 IEM_DS3505
ZGNN,2001-12-25 04:00,ZGNN 250400Z AUTO 06006KT 6SM 16/03 A3039 RMK T01600030 IEM_DS3505
ZGNN,2001-12-25 05:00,ZGNN 250500Z AUTO 07010KT 6SM 17/02 A3033 RMK T01700020 IEM_DS3505
ZGNN,2001-12-25 06:00,ZGNN 250600Z AUTO 09006KT 9SM 18/03 A3030 RMK SLP266 T01800028 57037 IEM_DS3505
ZGNN,2001-12-25 07:00,ZGNN 250700Z AUTO 09006KT 6SM 19/00 A3027 RMK T01900000 IEM_DS3505
ZGNN,2001-12-25 08:00,ZGNN 250800Z AUTO 6SM 19/00 A3027 RMK T01900000 IEM_DS3505
ZGNN,2001-12-25 09:00,ZGNN 250900Z AUTO 04002KT 7SM 18/04 A3027 RMK SLP262 T01830042 57004 IEM_DS3505
ZGNN,2001-12-25 10:00,ZGNN 251000Z AUTO 05006KT 6SM 15/04 A3030 RMK T01500040 IEM_DS3505
ZGNN,2001-12-25 11:00,ZGNN 251100Z AUTO 02002KT 6SM 13/05 A3030 RMK T01300050 IEM_DS3505
ZGNN,2001-12-25 12:00,ZGNN 251200Z AUTO 00000KT 7SM 12/06 A3030 RMK SLP276 T01230062 52012 IEM_DS3505
ZGNN,2001-12-25 13:00,ZGNN 251300Z AUTO 02004KT 6SM 12/06 A3033 RMK T01200060 IEM_DS3505
ZGNN,2001-12-25 14:00,ZGNN 251400Z AUTO 02004KT 6SM 12/06 A3033 RMK T01200060 IEM_DS3505
ZGNN,2001-12-25 15:00,ZGNN 251500Z AUTO 00000KT 6SM 11/06 A3033 RMK SLP284 T01120056 52010 IEM_DS3505
ZGNN,2001-12-25 16:00,ZGNN 251600Z AUTO 02004KT 2 1/2SM 10/05 A3033 RMK T01000050 IEM_DS3505
ZGNN,2001-12-25 17:00,ZGNN 251700Z AUTO 02004KT 2SM 10/06 A3033 RMK T01000060 IEM_DS3505
ZGNN,2001-12-25 18:00,ZGNN 251800Z AUTO 00000KT 4SM 11/05 A3033 RMK SLP273 T01070052 57010 IEM_DS3505
ZGNN,2001-12-25 19:00,ZGNN 251900Z AUTO 06002KT 2SM 08/06 A3030 RMK T00800060 IEM_DS3505
ZGNN,2001-12-25 20:00,ZGNN 252000Z AUTO 36002KT 2 1/2SM 09/05 A3030 RMK T00900050 IEM_DS3505
ZGNN,2001-12-25 21:00,ZGNN 252100Z AUTO 00000KT 4SM 08/07 A3033 RMK SLP272 T00800067 57001 IEM_DS3505
ZGNN,2001-12-25 22:00,ZGNN 252200Z AUTO 4SM 08/07 A3033 RMK T00800070 IEM_DS3505
ZGNN,2001-12-25 23:00,ZGNN 252300Z AUTO 4SM 09/07 A3036 RMK T00900070 IEM_DS3505
ZGNN,2001-12-26 00:00,ZGNN 260000Z AUTO 00000KT 4SM 09/08 A3039 RMK SLP294 T00940082 52020 IEM_DS3505
ZGNN,2001-12-26 01:00,ZGNN 260100Z AUTO 2 1/2SM 10/07 A3039 RMK T01000070 IEM_DS3505
ZGNN,2001-12-26 02:00,ZGNN 260200Z AUTO 2 1/2SM 11/07 A3042 RMK T01100070 IEM_DS3505
ZGNN,2001-12-26 03:00,ZGNN 260300Z AUTO 04004KT 4SM 12/05 A3042 RMK SLP307 T01250046 52014 IEM_DS3505
ZGNN,2001-12-26 04:00,ZGNN 260400Z AUTO 05008KT 3SM 13/04 A3039 RMK T01300040 IEM_DS3505
ZGNN,2001-12-26 05:00,ZGNN 260500Z AUTO 06006KT 15/04 A3036 RMK T01500040 IEM_DS3505
ZGNN,2001-12-26 06:00,ZGNN 260600Z AUTO 11004KT 5SM 16/04 A3030 RMK SLP270 T01570041 57036 IEM_DS3505
ZGNN,2001-12-26 07:00,ZGNN 260700Z AUTO 16/04 A3027 RMK T01600040 IEM_DS3505
ZGNN,2001-12-26 08:00,ZGNN 260800Z AUTO 06006KT 17/04 A3027 RMK T01700040 IEM_DS3505
ZGNN,2001-12-26 09:00,ZGNN 260900Z AUTO 00000KT 5SM 16/05 A3027 RMK SLP259 T01610047 57012 IEM_DS3505
ZGNN,2001-12-26 10:00,ZGNN 261000Z AUTO 02004KT 3SM 15/04 A3027 RMK T01500040 IEM_DS3505
ZGNN,2001-12-26 11:00,ZGNN 261100Z AUTO 02002KT 3SM 14/07 A3027 RMK T01400070 IEM_DS3505
ZGNN,2001-12-26 12:00,ZGNN 261200Z AUTO 00000KT 5SM 12/08 A3030 RMK SLP263 T01220077 52004 IEM_DS3505
ZGNN,2001-12-26 13:00,ZGNN 261300Z AUTO 35002KT 3SM 11/07 A3030 RMK T01100070 IEM_DS3505
ZGNN,2001-12-26 14:00,ZGNN 261400Z AUTO 35002KT 3SM 11/07 A3030 RMK T01100070 IEM_DS3505
ZGNN,2001-12-26 15:00,ZGNN 261500Z AUTO 00000KT 4SM 10/08 A3030 RMK SLP273 T01050080 52010 IEM_DS3505
ZGNN,2001-12-26 16:00,ZGNN 261600Z AUTO 2SM 10/07 A3033 RMK T01000070 IEM_DS3505
ZGNN,2001-12-26 17:00,ZGNN 261700Z AUTO 2SM 10/08 A3033 RMK T01000080 IEM_DS3505
ZGNN,2001-12-26 18:00,ZGNN 261800Z AUTO 00000KT 4SM 10/08 A3033 RMK SLP276 T00960084 52003 IEM_DS3505
ZGNN,2001-12-26 19:00,ZGNN 261900Z AUTO 03002KT 1 1/2SM 10/08 A3030 RMK T01000080 IEM_DS3505
ZGNN,2001-12-26 20:00,ZGNN 262000Z AUTO 08002KT 1 1/2SM 10/09 A3030 RMK T01000090 IEM_DS3505
ZGNN,2001-12-26 21:00,ZGNN 262100Z AUTO 00000KT 4SM 11/10 A3030 RMK SLP271 T01070097 57004 IEM_DS3505
ZGNN,2001-12-26 22:00,ZGNN 262200Z AUTO 1 1/2SM 11/08 A3033 RMK T01100080 IEM_DS3505
ZGNN,2001-12-26 23:00,ZGNN 262300Z AUTO 1 1/4SM 11/08 A3033 RMK T01100080 IEM_DS3505
ZGNN,2001-12-27 00:00,ZGNN 270000Z AUTO 00000KT 3SM 12/09 A3036 RMK SLP293 T01170087 52021 IEM_DS3505
ZGNN,2001-12-27 01:00,ZGNN 270100Z AUTO 01004KT 1 1/4SM 13/07 A3039 RMK T01300070 IEM_DS3505
ZGNN,2001-12-27 02:00,ZGNN 270200Z AUTO 2SM 14/06 A3042 RMK T01400060 IEM_DS3505
ZGNN,2001-12-27 03:00,ZGNN 270300Z AUTO 14002KT 4SM 15/06 RMK SLP306 T01460063 52013 IEM_DS3505
ZGNN,2001-12-27 04:00,ZGNN 270400Z AUTO 2SM 15/05 A3039 RMK T01500050 IEM_DS3505
ZGNN,2001-12-27 05:00,ZGNN 270500Z AUTO 05006KT 2 1/2SM 17/05 A3033 RMK T01700050 IEM_DS3505
ZGNN,2001-12-27 06:00,ZGNN 270600Z AUTO 04004KT 4SM 18/05 A3030 RMK SLP267 T01840053 57038 IEM_DS3505
ZGNN,2001-12-27 07:00,ZGNN 270700Z AUTO 2 1/2SM 19/05 A3027 RMK T01900050 IEM_DS3505
ZGNN,2001-12-27 08:00,ZGNN 270800Z AUTO 19/04 A3027 RMK T01900040 IEM_DS3505
ZGNN,2001-12-27 09:00,ZGNN 270900Z AUTO 02002KT 4SM 19/08 A3030 RMK SLP260 T01900080 57006 IEM_DS3505
ZGNN,2001-12-27 10:00,ZGNN 271000Z AUTO 35004KT 2SM 17/08 A3030 RMK T01700080 IEM_DS3505
ZGNN,2001-12-27 11:00,ZGNN 271100Z AUTO 34004KT 3SM 15/08 A3030 RMK T01500080 IEM_DS3505
ZGNN,2001-12-27 12:00,ZGNN 271200Z AUTO 07002KT 5SM 15/09 A3033 RMK SLP278 T01460091 52017 IEM_DS3505
ZGNN,2001-12-27 13:00,ZGNN 271300Z AUTO 01002KT 3SM 13/09 A3033 RMK T01300090 IEM_DS3505
ZGNN,2001-12-27 14:00,ZGNN 271400Z AUTO 2 1/2SM 13/10 A3033 RMK T01300100 IEM_DS3505
ZGNN,2001-12-27 15:00,ZGNN 271500Z AUTO 00000KT 5SM 13/11 A3036 RMK SLP284 T01310108 52006 IEM_DS3505
ZGNN,2001-12-27 16:00,ZGNN 271600Z AUTO 1SM 12/10 A3036 RMK T01200100 IEM_DS3505
ZGNN,2001-12-27 17:00,ZGNN 271700Z AUTO 03006KT 2SM 12/08 A3033 RMK T01200080 IEM_DS3505
ZGNN,2001-12-27 18:00,ZGNN 271800Z AUTO 00000KT 5SM 12/08 A3033 RMK SLP278 T01180081 57005 IEM_DS3505
ZGNN,2001-12-27 19:00,ZGNN 271900Z AUTO 1 1/2SM 11/09 A3033 RMK T01100090 IEM_DS3505
ZGNN,2001-12-27 20:00,ZGNN 272000Z AUTO 1 1/2SM 11/09 A3033 RMK T01100090 IEM_DS3505
ZGNN,2001-12-27 21:00,ZGNN 272100Z AUTO 00000KT 4SM 11/09 A3033 RMK SLP274 T01100090 57004 IEM_DS3505
ZGNN,2001-12-27 22:00,ZGNN 272200Z AUTO 2SM 11/09 A3033 RMK T01100090 IEM_DS3505
ZGNN,2001-12-27 23:00,ZGNN 272300Z AUTO 01004KT 2SM 12/07 A3036 RMK T01200070 IEM_DS3505
ZGNN,2001-12-28 00:00,ZGNN 280000Z AUTO 00000KT 4SM 12/08 A3039 RMK SLP297 T01180075 52021 IEM_DS3505
ZGNN,2001-12-28 01:00,ZGNN 280100Z AUTO 2SM 13/08 A3042 RMK T01300080 IEM_DS3505
ZGNN,2001-12-28 02:00,ZGNN 280200Z AUTO 2 1/2SM 14/07 A3042 RMK T01400070 IEM_DS3505
ZGNN,2001-12-28 03:00,ZGNN 280300Z AUTO 09004KT 4SM 16/06 A3042 RMK SLP311 T01560063 52015 IEM_DS3505
ZGNN,2001-12-28 04:00,ZGNN 280400Z AUTO 2 1/2SM 17/06 A3039 RMK T01700060 IEM_DS3505
ZGNN,2001-12-28 05:00,ZGNN 280500Z AUTO 06006KT 2 1/2SM 17/06 A3036 RMK T01700060 IEM_DS3505
ZGNN,2001-12-28 06:00,ZGNN 280600Z AUTO 32006KT 5SM 18/06 A3036 RMK SLP284 T01750064 57027 IEM_DS3505
ZGNN,2001-12-28 07:00,ZGNN 280700Z AUTO 36006KT 2 1/2SM 17/06 A3033 RMK T01700060 IEM_DS3505
ZGNN,2001-12-28 08:00,ZGNN 280800Z AUTO 34010KT 2 1/2SM 15/05 A3036 RMK T01500050 IEM_DS3505
ZGNN,2001-12-28 09:00,ZGNN 280900Z AUTO 02006KT 6SM 14/04 A3036 RMK SLP294 T01430041 52009 IEM_DS3505
ZGNN,2001-12-28 10:00,ZGNN 281000Z AUTO 35008KT 2 1/2SM 14/03 A3039 RMK T01400030 IEM_DS3505
ZGNN,2001-12-28 11:00,ZGNN 281100Z AUTO 35006KT 2 1/2SM 13/04 A3039 RMK T01300040 IEM_DS3505
ZGNN,2001-12-28 12:00,ZGNN 281200Z AUTO 34006KT 6SM 13/04 A3039 RMK SLP304 T01310035 52010 IEM_DS3505
ZGNN,2001-12-28 13:00,ZGNN 281300Z AUTO 36006KT 2 1/2SM 13/04 A3042 RMK T01300040 IEM_DS3505
ZGNN,2001-12-28 14:00,ZGNN 281400Z AUTO 01006KT 3SM 13/04 A3039 RMK T01300040 IEM_DS3505
ZGNN,2001-12-28 15:00,ZGNN 281500Z AUTO 02006KT 6SM 13/04 A3042 RMK SLP305 T01260042 52002 IEM_DS3505
ZGNN,2001-12-28 16:00,ZGNN 281600Z AUTO 03004KT 2 1/2SM 12/05 A3042 RMK T01200050 IEM_DS3505
ZGNN,2001-12-28 17:00,ZGNN 281700Z AUTO 36006KT 2 1/2SM 11/04 A3042 RMK T01100040 IEM_DS3505
ZGNN,2001-12-28 18:00,ZGNN 281800Z AUTO 34004KT 6SM 10/04 A3042 RMK SLP306 T00950043 54000 IEM_DS3505
ZGNN,2001-12-28 19:00,ZGNN 281900Z AUTO 34008KT 2 1/2SM 10/03 A3039 RMK T01000030 IEM_DS3505
ZGNN,2001-12-28 20:00,ZGNN 282000Z AUTO 34008KT 3SM 09/03 A3036 RMK T00900030 IEM_DS3505
ZGNN,2001-12-28 21:00,ZGNN 282100Z AUTO 32004KT 6SM 08/03 A3036 RMK SLP290 T00820033 57016 IEM_DS3505
ZGNN,2001-12-28 22:00,ZGNN 282200Z AUTO 36006KT 09/03 A3036 RMK T00900030 IEM_DS3505
ZGNN,2001-12-28 23:00,ZGNN 282300Z AUTO 36008KT 5SM 09/02 A3039 RMK T00900020 IEM_DS3505
ZGNN,2001-12-29 00:00,ZGNN 290000Z AUTO 32004KT 6SM 07/03 A3039 RMK SLP302 T00660030 52011 IEM_DS3505
ZGNN,2001-12-29 01:00,ZGNN 290100Z AUTO 3SM 09/03 A3042 RMK T00900030 IEM_DS3505
ZGNN,2001-12-29 02:00,ZGNN 290200Z AUTO 33006KT 2 1/2SM 11/02 A3042 RMK T01100020 IEM_DS3505
ZGNN,2001-12-29 03:00,ZGNN 290300Z AUTO 34004KT 7SM 12/03 A3039 RMK SLP301 T01230027 54000 IEM_DS3505
ZGNN,2001-12-29 04:00,ZGNN 290400Z AUTO 13/02 A3036 RMK T01300020 IEM_DS3505
ZGNN,2001-12-29 05:00,ZGNN 290500Z AUTO 15/02 A3033 RMK T01500020 IEM_DS3505
ZGNN,2001-12-29 06:00,ZGNN 290600Z AUTO 27002KT 9SM 16/03 A3024 RMK SLP252 T01580034 57048 IEM_DS3505
ZGNN,2001-12-29 07:00,ZGNN 290700Z AUTO 33006KT 6SM 16/02 A3024 RMK T01600020 IEM_DS3505
ZGNN,2001-12-29 08:00,ZGNN 290800Z AUTO 6SM 17/02 A3021 RMK T01700020 IEM_DS3505
ZGNN,2001-12-29 09:00,ZGNN 290900Z AUTO 36002KT 9SM 17/04 A3021 RMK SLP236 T01670042 57016 IEM_DS3505
ZGNN,2001-12-29 10:00,ZGNN 291000Z AUTO 10002KT 6SM 15/04 A3021 RMK T01500040 IEM_DS3505
ZGNN,2001-12-29 11:00,ZGNN 291100Z AUTO 35002KT 13/06 A3021 RMK T01300060 IEM_DS3505
ZGNN,2001-12-29 12:00,ZGNN 291200Z AUTO 00000KT 9SM 10/06 A3021 RMK SLP240 T00970060 52002 IEM_DS3505
ZGNN,2001-12-29 13:00,ZGNN 291300Z AUTO 3SM 09/06 A3021 RMK T00900060 IEM_DS3505
ZGNN,2001-12-29 14:00,ZGNN 291400Z AUTO 33002KT 3SM 09/05 A3021 RMK T00900050 IEM_DS3505
ZGNN,2001-12-29 15:00,ZGNN 291500Z AUTO 00000KT 8SM 07/05 A3021 RMK SLP243 T00720049 52003 IEM_DS3505
ZGNN,2001-12-29 16:00,ZGNN 291600Z AUTO 22002KT 1 1/2SM 07/05 A3024 RMK T00700050 IEM_DS3505
ZGNN,2001-12-29 17:00,ZGNN 291700Z AUTO 2 1/2SM 07/05 A3024 RMK T00700050 IEM_DS3505
ZGNN,2001-12-29 18:00,ZGNN 291800Z AUTO 00000KT 6SM 05/04 A3021 RMK SLP242 T00540042 54000 IEM_DS3505
ZGNN,2001-12-29 19:00,ZGNN 291900Z AUTO 2 1/2SM 06/04 A3021 RMK T00600040 IEM_DS3505
ZGNN,2001-12-29 20:00,ZGNN 292000Z AUTO 2SM 06/04 A3018 RMK T00600040 IEM_DS3505
ZGNN,2001-12-29 21:00,ZGNN 292100Z AUTO 00000KT 6SM 04/04 A3018 RMK SLP229 T00440037 57013 IEM_DS3505
ZGNN,2001-12-29 22:00,ZGNN 292200Z AUTO 28002KT 2 1/2SM 05/04 A3018 RMK T00500040 IEM_DS3505
ZGNN,2001-12-29 23:00,ZGNN 292300Z AUTO 2SM 04/03 A3018 RMK T00400030 IEM_DS3505
ZGNN,2001-12-30 00:00,ZGNN 300000Z AUTO 00000KT 6SM 04/03 A3021 RMK SLP247 T00350030 52016 IEM_DS3505
ZGNN,2001-12-30 01:00,ZGNN 300100Z AUTO 1 1/2SM 07/05 A3024 RMK T00700050 IEM_DS3505
ZGNN,2001-12-30 03:00,ZGNN 300300Z AUTO 16002KT 4SM 14/05 A3024 RMK SLP243 T01360050 57002 IEM_DS3505
ZGNN,2001-12-30 04:00,ZGNN 300400Z AUTO 2 1/2SM 16/04 A3018 RMK T01600040 IEM_DS3505
ZGNN,2001-12-30 05:00,ZGNN 300500Z AUTO 17/04 A3015 RMK T01700040 IEM_DS3505
ZGNN,2001-12-30 06:00,ZGNN 300600Z AUTO 25006KT 5SM 18/05 A3012 RMK SLP200 T01830049 57042 IEM_DS3505
ZGNN,2001-12-30 07:00,ZGNN 300700Z AUTO 19/04 A3006 RMK T01900040 IEM_DS3505
ZGNN,2001-12-30 08:00,ZGNN 300800Z AUTO 20/04 A3006 RMK T02000040 IEM_DS3505
ZGNN,2001-12-30 09:00,ZGNN 300900Z AUTO 00000KT 5SM 20/08 A3003 RMK SLP179 T01970075 57020 IEM_DS3505
ZGNN,2001-12-30 10:00,ZGNN 301000Z AUTO 14004KT 5SM 18/07 A3003 RMK T01800070 IEM_DS3505
ZGNN,2001-12-30 11:00,ZGNN 301100Z AUTO 14004KT 16/09 A3006 RMK T01600090 IEM_DS3505
ZGNN,2001-12-30 12:00,ZGNN 301200Z AUTO 00000KT 5SM 14/10 A3006 RMK SLP186 T01370096 52005 IEM_DS3505
ZGNN,2001-12-30 13:00,ZGNN 301300Z AUTO 4SM 13/09 A3006 RMK T01300090 IEM_DS3505
ZGNN,2001-12-30 14:00,ZGNN 301400Z AUTO 02004KT 4SM 12/09 A3006 RMK T01200090 IEM_DS3505
ZGNN,2001-12-30 15:00,ZGNN 301500Z AUTO 00000KT 4SM 10/09 A3006 RMK SLP191 T01010089 52006 IEM_DS3505
ZGNN,2001-12-30 16:00,ZGNN 301600Z AUTO 1 1/4SM 10/08 A3006 RMK T01000080 IEM_DS3505
ZGNN,2001-12-30 17:00,ZGNN 301700Z AUTO 35002KT 1SM 09/08 A3006 RMK T00900080 IEM_DS3505
ZGNN,2001-12-30 18:00,ZGNN 301800Z AUTO 00000KT 2 1/2SM 09/08 A3009 RMK SLP195 T00880084 52005 IEM_DS3505
ZGNN,2001-12-30 19:00,ZGNN 301900Z AUTO 36002KT 1SM 08/07 A3009 RMK T00800070 IEM_DS3505
ZGNN,2001-12-30 20:00,ZGNN 302000Z AUTO 36002KT 1SM 08/07 A3006 RMK T00800070 IEM_DS3505
ZGNN,2001-12-30 21:00,ZGNN 302100Z AUTO 00000KT 1SM 07/07 A3006 RMK SLP191 T00700066 57004 IEM_DS3505
ZGNN,2001-12-30 22:00,ZGNN 302200Z AUTO 1SM 07/06 A3009 RMK T00700060 IEM_DS3505
ZGNN,2001-12-30 23:00,ZGNN 302300Z AUTO 07002KT 1SM 08/06 A3009 RMK T00800060 IEM_DS3505
