station,valid,metar
ZGNN,1997-01-01 00:00,ZGNN 010000Z AUTO 04002KT 9SM 18/17 A3014 RMK SLP195 T01840167 52015 IEM_DS3505
ZGNN,1997-01-01 01:00,ZGNN 010100Z AUTO 00000KT 1 1/2SM 18/17 A3015 RMK SLP199 T01800170 IEM_DS3505
ZGNN,1997-01-01 02:00,ZGNN 010200Z AUTO 00000KT 4SM 19/18 A3018 RMK SLP209 T01900180 IEM_DS3505
ZGNN,1997-01-01 03:00,ZGNN 010300Z AUTO 09002KT 9SM 20/17 A3018 RMK SLP209 T02040170 52014 IEM_DS3505
ZGNN,1997-01-01 04:00,ZGNN 010400Z AUTO 00000KT 7SM 21/17 A3015 RMK SLP198 T02100170 IEM_DS3505
ZGNN,1997-01-01 05:00,ZGNN 010500Z AUTO 00000KT 7SM 21/17 A3012 RMK SLP188 T02100170 IEM_DS3505
ZGNN,1997-01-01 06:00,ZGNN 010600Z AUTO 09004KT 9SM 22/16 A3012 RMK SLP188 T02160165 57021 IEM_DS3505
ZGNN,1997-01-01 08:00,ZGNN 010800Z AUTO 11004KT 7SM 23/16 A3009 RMK SLP177 T02300160 IEM_DS3505
ZGNN,1997-01-01 09:00,ZGNN 010900Z AUTO 20002KT 9SM 24/16 A3009 RMK SLP177 T02350160 57011 IEM_DS3505
ZGNN,1997-01-01 10:00,ZGNN 011000Z AUTO 00000KT 6SM 22/16 A3009 RMK SLP177 T02200160 IEM_DS3505
ZGNN,1997-01-01 11:00,ZGNN 011100Z AUTO 01004KT 6SM 19/16 A3009 RMK SLP178 T01900160 IEM_DS3505
ZGNN,1997-01-01 12:00,ZGNN 011200Z AUTO 00000KT 8SM 19/17 A3012 RMK SLP191 T01880167 52013 IEM_DS3505
ZGNN,1997-01-01 13:00,ZGNN 011300Z AUTO 00000KT 6SM 16/14 A3012 RMK SLP189 T01600140 IEM_DS3505
ZGNN,1997-01-01 15:00,ZGNN 011500Z AUTO 00000KT 9SM 17/16 A3014 RMK SLP196 T01690157 52005 IEM_DS3505
ZGNN,1997-01-01 18:00,ZGNN 011800Z AUTO 00000KT 9SM 16/15 A3012 RMK SLP189 T01600150 57006 IEM_DS3505
ZGNN,1997-01-01 21:00,ZGNN 012100Z AUTO 25002KT 7SM 16/15 A3009 RMK SLP181 T01640154 57008 IEM_DS3505
ZGNN,1997-01-01 22:00,ZGNN 012200Z AUTO 00000KT 1/2SM 11/11 A3009 RMK SLP181 T01100110 IEM_DS3505
ZGNN,1997-01-01 23:00,ZGNN 012300Z AUTO 00000KT 3/8SM 12/11 A3009 RMK SLP180 T01200110 IEM_DS3505
ZGNN,1997-01-02 00:00,ZGNN 020000Z AUTO 04004KT 2SM 15/15 A3012 RMK SLP194 T01530148 52012 IEM_DS3505
ZGNN,1997-01-02 01:00,ZGNN 020100Z AUTO 00000KT 1/8SM 13/12 A3015 RMK SLP200 T01300120 IEM_DS3505
ZGNN,1997-01-02 02:00,ZGNN 020200Z AUTO 03004KT 1/4SM 15/14 A3015 RMK SLP200 T01500140 IEM_DS3505
ZGNN,1997-01-02 03:00,ZGNN 020300Z AUTO 00000KT 4SM 20/16 A3015 RMK SLP198 T02010163 52004 IEM_DS3505
ZGNN,1997-01-02 04:00,ZGNN 020400Z AUTO 04006KT 4SM 23/16 A3012 RMK SLP187 T02300160 IEM_DS3505
ZGNN,1997-01-02 05:00,ZGNN 020500Z AUTO 18008KT 6SM 25/16 A3009 RMK SLP177 T02500160 IEM_DS3505
ZGNN,1997-01-02 06:00,ZGNN 020600Z AUTO 29002KT 9SM 25/15 A3003 RMK SLP164 T02470153 57033 IEM_DS3505
ZGNN,1997-01-02 07:00,ZGNN 020700Z AUTO 14012KT 7SM 24/15 A3000 RMK SLP147 T02400150 IEM_DS3505
ZGNN,1997-01-02 08:00,ZGNN 020800Z AUTO 17014KT 7SM 24/14 A2997 RMK SLP136 T02400140 IEM_DS3505
ZGNN,1997-01-02 09:00,ZGNN 020900Z AUTO 22004KT 16SM 24/11 A3000 RMK SLP147 T02420113 57017 IEM_DS3505
ZGNN,1997-01-02 10:00,ZGNN 021000Z AUTO 17010KT 7SM 23/11 A3000 RMK SLP147 T02300110 IEM_DS3505
ZGNN,1997-01-02 11:00,ZGNN 021100Z AUTO 18004KT 7SM 22/12 A3000 RMK SLP147 T02200120 IEM_DS3505
ZGNN,1997-01-02 12:00,ZGNN 021200Z AUTO 18002KT 12SM 22/12 A3003 RMK SLP153 T02220124 52006 IEM_DS3505
ZGNN,1997-01-02 13:00,ZGNN 021300Z AUTO 23004KT 7SM 19/13 A3003 RMK SLP158 T01900130 IEM_DS3505
ZGNN,1997-01-02 15:00,ZGNN 021500Z AUTO 18002KT 12SM 20/14 A3003 RMK SLP159 T02020144 52006 IEM_DS3505
ZGNN,1997-01-02 18:00,ZGNN 021800Z AUTO 04004KT 11SM 19/16 A3004 RMK SLP159 T01880158 52001 IEM_DS3505
ZGNN,1997-01-02 21:00,ZGNN 022100Z AUTO 04004KT 11SM 18/16 A3000 RMK SLP158 T01820157 57002 IEM_DS3505
ZGNN,1997-01-02 22:00,ZGNN 022200Z AUTO 13002KT 4SM 18/16 A3003 RMK SLP158 T01800160 IEM_DS3505
ZGNN,1997-01-02 23:00,ZGNN 022300Z AUTO 12004KT 2 1/2SM 18/16 A3003 RMK SLP158 T01800160 IEM_DS3505
ZGNN,1997-01-03 00:00,ZGNN 030000Z AUTO 16002KT 7SM 18/15 A3006 RMK SLP177 T01820153 52019 IEM_DS3505
ZGNN,1997-01-03 01:00,ZGNN 030100Z AUTO 13006KT 3SM 18/16 A3009 RMK SLP179 T01800160 IEM_DS3505
ZGNN,1997-01-03 02:00,ZGNN 030200Z AUTO 14008KT 3SM 19/16 A3009 RMK SLP178 T01900160 IEM_DS3505
ZGNN,1997-01-03 03:00,ZGNN 030300Z AUTO 04002KT 7SM 20/16 A3009 RMK SLP183 T01950156 52006 IEM_DS3505
ZGNN,1997-01-03 04:00,ZGNN 030400Z AUTO 15006KT 4SM 21/16 A3006 RMK SLP168 T02100160 IEM_DS3505
ZGNN,1997-01-03 05:00,ZGNN 030500Z AUTO 15006KT 4SM 22/16 A3003 RMK SLP157 T02200160 IEM_DS3505
ZGNN,1997-01-03 06:00,ZGNN 030600Z AUTO 09002KT 7SM 23/16 A3001 RMK SLP150 T02290164 57033 IEM_DS3505
ZGNN,1997-01-03 08:00,ZGNN 030800Z AUTO 13004KT 7SM 24/16 A2994 RMK SLP126 T02400160 IEM_DS3505
ZGNN,1997-01-03 09:00,ZGNN 030900Z AUTO 09002KT 7SM 24/16 A2994 RMK SLP131 T02390161 57018 IEM_DS3505
ZGNN,1997-01-03 10:00,ZGNN 031000Z AUTO 14006KT 4SM 21/17 A2994 RMK SLP127 T02100170 IEM_DS3505
ZGNN,1997-01-03 11:00,ZGNN 031100Z AUTO 15002KT 3SM 20/17 A2997 RMK SLP138 T02000170 IEM_DS3505
ZGNN,1997-01-03 12:00,ZGNN 031200Z AUTO 18002KT 9SM 21/16 A3000 RMK SLP150 T02060163 52018 IEM_DS3505
ZGNN,1997-01-03 13:00,ZGNN 031300Z AUTO 13002KT 3SM 19/17 A3003 RMK SLP158 T01900170 IEM_DS3505
ZGNN,1997-01-03 15:00,ZGNN 031500Z AUTO 09002KT 9SM 20/17 A3005 RMK SLP165 T02000167 52015 IEM_DS3505
ZGNN,1997-01-03 18:00,ZGNN 031800Z AUTO 16002KT 8SM 19/17 A3005 RMK SLP164 T01920167 57001 IEM_DS3505
ZGNN,1997-01-03 21:00,ZGNN 032100Z AUTO 09002KT 7SM 19/17 A3003 RMK SLP164 T01870166 54000 IEM_DS3505
ZGNN,1997-01-03 22:00,ZGNN 032200Z AUTO 00000KT 2SM 17/17 A3006 RMK SLP169 T01700170 IEM_DS3505
ZGNN,1997-01-03 23:00,ZGNN 032300Z AUTO 09002KT 2SM 18/17 A3006 RMK SLP168 T01800170 IEM_DS3505
ZGNN,1997-01-04 00:00,ZGNN 040000Z AUTO 11002KT 9SM 19/16 A3009 RMK SLP183 T01880165 52019 IEM_DS3505
ZGNN,1997-01-04 01:00,ZGNN 040100Z AUTO 14004KT 2 1/2SM 18/16 A3012 RMK SLP189 T01800160 IEM_DS3505
ZGNN,1997-01-04 02:00,ZGNN 040200Z AUTO 12004KT 2 1/2SM 18/16 A3015 RMK SLP199 T01800160 IEM_DS3505
ZGNN,1997-01-04 03:00,ZGNN 040300Z AUTO 00000KT 9SM 20/16 A3015 RMK SLP199 T02010165 52016 IEM_DS3505
ZGNN,1997-01-04 04:00,ZGNN 040400Z AUTO 14006KT 7SM 20/16 A3012 RMK SLP188 T02000160 IEM_DS3505
ZGNN,1997-01-04 05:00,ZGNN 040500Z AUTO 16006KT 7SM 21/16 A3009 RMK SLP178 T02100160 IEM_DS3505
ZGNN,1997-01-04 06:00,ZGNN 040600Z AUTO 22002KT 9SM 22/16 A3009 RMK SLP172 T02210162 57027 IEM_DS3505
ZGNN,1997-01-04 07:00,ZGNN 040700Z AUTO 17006KT 6SM 21/16 A3006 RMK SLP168 T02100160 IEM_DS3505
ZGNN,1997-01-04 08:00,ZGNN 040800Z AUTO 15006KT 6SM 21/15 A3003 RMK SLP158 T02100150 IEM_DS3505
ZGNN,1997-01-04 09:00,ZGNN 040900Z AUTO 09002KT 9SM 21/16 A3003 RMK SLP162 T02110158 57010 IEM_DS3505
ZGNN,1997-01-04 10:00,ZGNN 041000Z AUTO 15006KT 6SM 21/15 A3006 RMK SLP168 T02100150 IEM_DS3505
ZGNN,1997-01-04 11:00,ZGNN 041100Z AUTO 00000KT 6SM 19/16 A3009 RMK SLP178 T01900160 IEM_DS3505
ZGNN,1997-01-04 12:00,ZGNN 041200Z AUTO 04004KT 9SM 20/15 A3012 RMK SLP183 T02010152 52021 IEM_DS3505
ZGNN,1997-01-04 13:00,ZGNN 041300Z AUTO 08004KT 6SM 19/16 A3012 RMK SLP188 T01900160 IEM_DS3505
ZGNN,1997-01-04 15:00,ZGNN 041500Z AUTO 04004KT 9SM 18/14 A3015 RMK SLP200 T01840135 52017 IEM_DS3505
ZGNN,1997-01-04 18:00,ZGNN 041800Z AUTO 09004KT 9SM 18/11 A3017 RMK SLP204 T01790108 52004 IEM_DS3505
ZGNN,1997-01-04 21:00,ZGNN 042100Z AUTO 04004KT 9SM 18/10 A3018 RMK SLP206 T01760099 52002 IEM_DS3505
ZGNN,1997-01-04 22:00,ZGNN 042200Z AUTO 06004KT 5SM 16/11 A3018 RMK SLP209 T01600110 IEM_DS3505
ZGNN,1997-01-04 23:00,ZGNN 042300Z AUTO 36006KT 4SM 16/11 A3021 RMK SLP220 T01600110 IEM_DS3505
ZGNN,1997-01-05 00:00,ZGNN 050000Z AUTO 04006KT 10SM 17/08 A3024 RMK SLP234 T01700084 52027 IEM_DS3505
ZGNN,1997-01-05 01:00,ZGNN 050100Z AUTO 04006KT 2SM 14/10 A3030 RMK SLP251 T01400100 IEM_DS3505
ZGNN,1997-01-05 02:00,ZGNN 050200Z AUTO 36008KT 2SM 14/11 A3033 RMK SLP262 T01400110 IEM_DS3505
ZGNN,1997-01-05 03:00,ZGNN 050300Z AUTO 04006KT 11SM 16/08 A3033 RMK SLP261 T01640079 52026 IEM_DS3505
ZGNN,1997-01-05 04:00,ZGNN 050400Z AUTO 04006KT 3SM 16/08 A3030 RMK SLP251 T01600080 IEM_DS3505
ZGNN,1997-01-05 05:00,ZGNN 050500Z AUTO 03012KT 3SM 16/08 A3024 RMK SLP230 T01600080 IEM_DS3505
ZGNN,1997-01-05 06:00,ZGNN 050600Z AUTO 09004KT 9SM 18/07 A3021 RMK SLP229 T01810072 57031 IEM_DS3505
ZGNN,1997-01-05 07:00,ZGNN 050700Z AUTO 05008KT 4SM 18/06 A3021 RMK SLP219 T01800060 IEM_DS3505
ZGNN,1997-01-05 08:00,ZGNN 050800Z AUTO 05008KT 4SM 18/07 A3021 RMK SLP219 T01800070 IEM_DS3505
ZGNN,1997-01-05 09:00,ZGNN 050900Z AUTO 04008KT 11SM 18/07 A3018 RMK SLP220 T01840069 57009 IEM_DS3505
ZGNN,1997-01-05 10:00,ZGNN 051000Z AUTO 07006KT 4SM 17/08 A3018 RMK SLP209 T01700080 IEM_DS3505
ZGNN,1997-01-05 11:00,ZGNN 051100Z AUTO 01004KT 3SM 15/08 A3024 RMK SLP230 T01500080 IEM_DS3505
ZGNN,1997-01-05 12:00,ZGNN 051200Z AUTO 04002KT 11SM 16/06 A3024 RMK SLP241 T01570065 52020 IEM_DS3505
ZGNN,1997-01-05 13:00,ZGNN 051300Z AUTO 00000KT 7SM 15/07 A3027 RMK SLP241 T01500070 IEM_DS3505
ZGNN,1997-01-05 14:00,ZGNN 051400Z AUTO 07006KT 7SM 15/06 A3027 RMK SLP241 T01500060 IEM_DS3505
ZGNN,1997-01-05 15:00,ZGNN 051500Z AUTO 07004KT 10SM 15/06 A3027 RMK SLP247 T01470057 52006 IEM_DS3505
ZGNN,1997-01-05 18:00,ZGNN 051800Z AUTO 00000KT 9SM 14/06 A3027 RMK SLP241 T01420065 57006 IEM_DS3505
ZGNN,1997-01-05 21:00,ZGNN 052100Z AUTO 04004KT 9SM 14/06 A3024 RMK SLP231 T01390057 57010 IEM_DS3505
ZGNN,1997-01-05 22:00,ZGNN 052200Z AUTO 00000KT 6SM 13/06 A3024 RMK SLP231 T01300060 IEM_DS3505
ZGNN,1997-01-05 23:00,ZGNN 052300Z AUTO 00000KT 7SM 13/06 A3027 RMK SLP242 T01300060 IEM_DS3505
ZGNN,1997-01-06 00:00,ZGNN 060000Z AUTO 09002KT 10SM 14/05 A3027 RMK SLP245 T01380053 52014 IEM_DS3505
ZGNN,1997-01-06 01:00,ZGNN 060100Z AUTO 00000KT 7SM 13/06 A3030 RMK SLP252 T01300060 IEM_DS3505
ZGNN,1997-01-06 02:00,ZGNN 060200Z AUTO 06006KT 7SM 14/03 A3033 RMK SLP262 T01400030 IEM_DS3505
ZGNN,1997-01-06 03:00,ZGNN 060300Z AUTO 04006KT 11SM 16/04 A3033 RMK SLP264 T01570043 52019 IEM_DS3505
ZGNN,1997-01-06 04:00,ZGNN 060400Z AUTO 06006KT 7SM 15/03 A3030 RMK SLP251 T01500030 IEM_DS3505
ZGNN,1997-01-06 05:00,ZGNN 060500Z AUTO 05004KT 7SM 17/04 A3027 RMK SLP240 T01700040 IEM_DS3505
ZGNN,1997-01-06 06:00,ZGNN 060600Z AUTO 18004KT 11SM 19/06 A3024 RMK SLP230 T01870062 57034 IEM_DS3505
ZGNN,1997-01-06 07:00,ZGNN 060700Z AUTO 14004KT 6SM 19/06 A3021 RMK SLP219 T01900060 IEM_DS3505
ZGNN,1997-01-06 08:00,ZGNN 060800Z AUTO 00000KT 6SM 18/06 A3018 RMK SLP209 T01800060 IEM_DS3505
ZGNN,1997-01-06 09:00,ZGNN 060900Z AUTO 07002KT 12SM 19/07 A3018 RMK SLP209 T01900069 57020 IEM_DS3505
ZGNN,1997-01-06 10:00,ZGNN 061000Z AUTO 11004KT 6SM 18/07 A3018 RMK SLP209 T01800070 IEM_DS3505
ZGNN,1997-01-06 11:00,ZGNN 061100Z AUTO 10004KT 6SM 17/09 A3021 RMK SLP219 T01700090 IEM_DS3505
ZGNN,1997-01-06 12:00,ZGNN 061200Z AUTO 00000KT 9SM 17/08 A3021 RMK SLP230 T01740075 52020 IEM_DS3505
ZGNN,1997-01-06 13:00,ZGNN 061300Z AUTO 09004KT 6SM 16/07 A3024 RMK SLP230 T01600070 IEM_DS3505
ZGNN,1997-01-06 15:00,ZGNN 061500Z AUTO 11002KT 9SM 16/06 A3027 RMK SLP240 T01630065 52010 IEM_DS3505
ZGNN,1997-01-06 18:00,ZGNN 061800Z AUTO 04002KT 9SM 15/06 A3025 RMK SLP234 T01520063 57005 IEM_DS3505
ZGNN,1997-01-06 21:00,ZGNN 062100Z AUTO 09002KT 9SM 16/07 A3024 RMK SLP229 T01550070 57005 IEM_DS3505
ZGNN,1997-01-06 22:00,ZGNN 062200Z AUTO 07010KT 7SM 15/04 A3024 RMK SLP230 T01500040 IEM_DS3505
ZGNN,1997-01-06 23:00,ZGNN 062300Z AUTO 08008KT 7SM 15/04 A3027 RMK SLP241 T01500040 IEM_DS3505
ZGNN,1997-01-07 00:00,ZGNN 070000Z AUTO 09002KT 9SM 15/05 A3030 RMK SLP248 T01510049 52018 IEM_DS3505
ZGNN,1997-01-07 01:00,ZGNN 070100Z AUTO 09010KT 7SM 15/04 A3030 RMK SLP251 T01500040 IEM_DS3505
ZGNN,1997-01-07 02:00,ZGNN 070200Z AUTO 08012KT 7SM 15/03 A3033 RMK SLP261 T01500030 IEM_DS3505
ZGNN,1997-01-07 03:00,ZGNN 070300Z AUTO 04004KT 9SM 15/04 A3036 RMK SLP271 T01520039 52023 IEM_DS3505
ZGNN,1997-01-07 04:00,ZGNN 070400Z AUTO 06010KT 7SM 15/03 A3033 RMK SLP261 T01500030 IEM_DS3505
ZGNN,1997-01-07 05:00,ZGNN 070500Z AUTO 06008KT 7SM 16/03 A3030 RMK SLP251 T01600030 IEM_DS3505
ZGNN,1997-01-07 06:00,ZGNN 070600Z AUTO 04006KT 11SM 16/03 A3027 RMK SLP248 T01570032 57023 IEM_DS3505
ZGNN,1997-01-07 07:00,ZGNN 070700Z AUTO 07008KT 7SM 17/03 A3027 RMK SLP240 T01700030 IEM_DS3505
ZGNN,1997-01-07 08:00,ZGNN 070800Z AUTO 04010KT 7SM 16/03 A3024 RMK SLP230 T01600030 IEM_DS3505
ZGNN,1997-01-07 09:00,ZGNN 070900Z AUTO 04006KT 11SM 15/04 A3027 RMK SLP244 T01510035 57004 IEM_DS3505
ZGNN,1997-01-07 10:00,ZGNN 071000Z AUTO 06006KT 5SM 15/03 A3027 RMK SLP241 T01500030 IEM_DS3505
ZGNN,1997-01-07 11:00,ZGNN 071100Z AUTO 04010KT 5SM 14/09 A3030 RMK SLP251 T01400090 IEM_DS3505
ZGNN,1997-01-07 12:00,ZGNN 071200Z AUTO 04008KT 9SM 13/02 A3033 RMK SLP270 T01260025 52025 IEM_DS3505
ZGNN,1997-01-07 13:00,ZGNN 071300Z AUTO 06008KT 5SM 12/08 A3036 RMK SLP272 T01200080 IEM_DS3505
ZGNN,1997-01-07 15:00,ZGNN 071500Z AUTO 04004KT 9SM 12/02 A3041 RMK SLP289 T01150024 52019 IEM_DS3505
ZGNN,1997-01-07 18:00,ZGNN 071800Z AUTO 04004KT 9SM 11/03 A3041 RMK SLP290 T01080029 52001 IEM_DS3505
ZGNN,1997-01-07 21:00,ZGNN 072100Z AUTO 07006KT 9SM 10/03 A3029 RMK SLP248 T00970029 57006 IEM_DS3505
ZGNN,1997-01-07 22:00,ZGNN 072200Z AUTO 05006KT 4SM 09/07 A3039 RMK SLP283 T00900070 IEM_DS3505
ZGNN,1997-01-07 23:00,ZGNN 072300Z AUTO 06008KT 4SM 09/07 A3042 RMK SLP293 T00900070 IEM_DS3505
ZGNN,1997-01-08 00:00,ZGNN 080000Z AUTO 04004KT 10SM 09/02 A3042 RMK SLP304 T00920025 52019 IEM_DS3505
ZGNN,1997-01-08 01:00,ZGNN 080100Z AUTO 06008KT 7SM 09/07 A3045 RMK SLP303 T00900070 IEM_DS3505
ZGNN,1997-01-08 02:00,ZGNN 080200Z AUTO 03010KT 7SM 10/07 A3047 RMK SLP310 T01000070 IEM_DS3505
ZGNN,1997-01-08 03:00,ZGNN 080300Z AUTO 09006KT 10SM 10/02 A3050 RMK SLP323 T01020024 52019 IEM_DS3505
ZGNN,1997-01-08 05:00,ZGNN 080500Z AUTO 35008KT 7SM 11/02 A3045 RMK SLP303 T01100020 IEM_DS3505
ZGNN,1997-01-08 06:00,ZGNN 080600Z AUTO 04006KT 11SM 11/03 A3042 RMK SLP297 T01100032 57026 IEM_DS3505
ZGNN,1997-01-08 07:00,ZGNN 080700Z AUTO 33006KT 7SM 10/02 A3039 RMK SLP283 T01000020 IEM_DS3505
ZGNN,1997-01-08 08:00,ZGNN 080800Z AUTO 34008KT 7SM 10/02 A3039 RMK SLP283 T01000020 IEM_DS3505
ZGNN,1997-01-08 09:00,ZGNN 080900Z AUTO 04006KT 11SM 11/03 A3039 RMK SLP290 T01060027 57007 IEM_DS3505
ZGNN,1997-01-08 10:00,ZGNN 081000Z AUTO 03004KT 7SM 10/02 A3039 RMK SLP283 T01000020 IEM_DS3505
ZGNN,1997-01-08 11:00,ZGNN 081100Z AUTO 04006KT 7SM 09/02 A3042 RMK SLP293 T00900020 IEM_DS3505
ZGNN,1997-01-08 12:00,ZGNN 081200Z AUTO 04006KT 12SM 09/02 A3042 RMK SLP303 T00930024 52013 IEM_DS3505
ZGNN,1997-01-08 13:00,ZGNN 081300Z AUTO 05006KT 7SM 09/02 A3045 RMK SLP303 T00900020 IEM_DS3505
ZGNN,1997-01-08 15:00,ZGNN 081500Z AUTO 09004KT 12SM 09/02 A3045 RMK SLP305 T00880017 52002 IEM_DS3505
ZGNN,1997-01-08 18:00,ZGNN 081800Z AUTO 04006KT 11SM 09/01 A3044 RMK SLP298 T00910013 57007 IEM_DS3505
ZGNN,1997-01-08 21:00,ZGNN 082100Z AUTO 34004KT 11SM 08/01 A3036 RMK SLP284 T00800010 57014 IEM_DS3505
ZGNN,1997-01-08 22:00,ZGNN 082200Z AUTO 34004KT 7SM 08/01 A3036 RMK SLP274 T00800010 IEM_DS3505
ZGNN,1997-01-08 23:00,ZGNN 082300Z AUTO 35006KT 7SM 08/01 A3039 RMK SLP284 T00800010 IEM_DS3505
ZGNN,1997-01-09 00:00,ZGNN 090000Z AUTO 09004KT 12SM 08/02 A3039 RMK SLP296 T00830017 52011 IEM_DS3505
ZGNN,1997-01-09 01:00,ZGNN 090100Z AUTO 02004KT 7SM 08/01 A3042 RMK SLP294 T00800010 IEM_DS3505
ZGNN,1997-01-09 02:00,ZGNN 090200Z AUTO 05004KT 7SM 08/01 A3045 RMK SLP304 T00800010 IEM_DS3505
ZGNN,1997-01-09 03:00,ZGNN 090300Z AUTO 00000KT 12SM 09/02 A3046 RMK SLP307 T00940016 52011 IEM_DS3505
ZGNN,1997-01-09 05:00,ZGNN 090500Z AUTO 34008KT 7SM 11/01 A3042 RMK SLP293 T01100010 IEM_DS3505
ZGNN,1997-01-09 06:00,ZGNN 090600Z AUTO 36008KT 12SM 12/03 A3039 RMK SLP282 T01170027 57024 IEM_DS3505
ZGNN,1997-01-09 08:00,ZGNN 090800Z AUTO 02010KT 7SM 11/01 A3033 RMK SLP262 T01100010 IEM_DS3505
ZGNN,1997-01-09 09:00,ZGNN 090900Z AUTO 34006KT 11SM 12/02 A3033 RMK SLP272 T01150021 57010 IEM_DS3505
ZGNN,1997-01-09 10:00,ZGNN 091000Z AUTO 31004KT 7SM 10/01 A3033 RMK SLP263 T01000010 IEM_DS3505
ZGNN,1997-01-09 11:00,ZGNN 091100Z AUTO 04004KT 7SM 11/02 A3036 RMK SLP273 T01100020 IEM_DS3505
ZGNN,1997-01-09 12:00,ZGNN 091200Z AUTO 09002KT 9SM 11/03 A3036 RMK SLP279 T01120026 52007 IEM_DS3505
ZGNN,1997-01-09 13:00,ZGNN 091300Z AUTO 00000KT 7SM 11/02 A3039 RMK SLP283 T01100020 IEM_DS3505
ZGNN,1997-01-09 15:00,ZGNN 091500Z AUTO 04002KT 9SM 09/04 A3042 RMK SLP292 T00920039 52013 IEM_DS3505
ZGNN,1997-01-09 18:00,ZGNN 091800Z AUTO 00000KT 9SM 08/05 A3040 RMK SLP286 T00830049 57006 IEM_DS3505
ZGNN,1997-01-09 21:00,ZGNN 092100Z AUTO 04002KT 8SM 07/04 A3033 RMK SLP269 T00710038 57017 IEM_DS3505
ZGNN,1997-01-09 22:00,ZGNN 092200Z AUTO 00000KT 6SM 05/04 A3033 RMK SLP264 T00500040 IEM_DS3505
ZGNN,1997-01-09 23:00,ZGNN 092300Z AUTO 00000KT 6SM 05/03 A3036 RMK SLP275 T00500030 IEM_DS3505
ZGNN,1997-01-10 00:00,ZGNN 100000Z AUTO 00000KT 6SM 03/03 A3036 RMK SLP275 T00300030 IEM_DS3505
ZGNN,1997-01-10 01:00,ZGNN 100100Z AUTO 00000KT 6SM 07/04 A3039 RMK SLP284 T00700040 IEM_DS3505
ZGNN,1997-01-10 02:00,ZGNN 100200Z AUTO 01006KT 6SM 11/00 A3039 RMK SLP283 T01100000 IEM_DS3505
ZGNN,1997-01-10 03:00,ZGNN 100300Z AUTO 04004KT 6SM 12/04 A3039 RMK SLP284 T01250041 52004 IEM_DS3505
ZGNN,1997-01-10 04:00,ZGNN 100400Z AUTO 34006KT 6SM 14/01 A3036 RMK SLP272 T01400010 IEM_DS3505
ZGNN,1997-01-10 05:00,ZGNN 100500Z AUTO 02004KT 6SM 15/02 A3030 RMK SLP251 T01500020 IEM_DS3505
ZGNN,1997-01-10 06:00,ZGNN 100600Z AUTO 32004KT 9SM 16/02 A3027 RMK SLP243 T01640024 57040 IEM_DS3505
ZGNN,1997-01-10 07:00,ZGNN 100700Z AUTO 02008KT 6SM 17/00 A3024 RMK SLP229 T01700000 IEM_DS3505
ZGNN,1997-01-10 08:00,ZGNN 100800Z AUTO 34006KT 6SM 17/01 A3021 RMK SLP219 T01700010 IEM_DS3505
ZGNN,1997-01-10 09:00,ZGNN 100900Z AUTO 11002KT 11SM 18/03 A3021 RMK SLP223 T01780034 57020 IEM_DS3505
ZGNN,1997-01-10 10:00,ZGNN 101000Z AUTO 04004KT 6SM 16/04 A3021 RMK SLP220 T01600040 IEM_DS3505
ZGNN,1997-01-10 12:00,ZGNN 101200Z AUTO 04004KT 11SM 13/03 A3027 RMK SLP240 T01320034 52016 IEM_DS3505
ZGNN,1997-01-10 13:00,ZGNN 101300Z AUTO 36004KT 6SM 11/04 A3027 RMK SLP242 T01100040 IEM_DS3505
ZGNN,1997-01-10 15:00,ZGNN 101500Z AUTO 04002KT 10SM 11/04 A3032 RMK SLP259 T01090042 52020 IEM_DS3505
ZGNN,1997-01-10 18:00,ZGNN 101800Z AUTO 04002KT 9SM 08/05 A3033 RMK SLP262 T00850054 52003 IEM_DS3505
ZGNN,1997-01-10 21:00,ZGNN 102100Z AUTO 04002KT 7SM 07/05 A3030 RMK SLP259 T00690046 57003 IEM_DS3505
ZGNN,1997-01-10 22:00,ZGNN 102200Z AUTO 00000KT 6SM 05/03 A3030 RMK SLP254 T00500030 IEM_DS3505
ZGNN,1997-01-10 23:00,ZGNN 102300Z AUTO 36004KT 6SM 05/04 A3033 RMK SLP264 T00500040 IEM_DS3505
ZGNN,1997-01-11 00:00,ZGNN 110000Z AUTO 04002KT 7SM 06/05 A3033 RMK SLP271 T00620046 52011 IEM_DS3505
ZGNN,1997-01-11 01:00,ZGNN 110100Z AUTO 00000KT 4SM 07/04 A3036 RMK SLP274 T00700040 IEM_DS3505
ZGNN,1997-01-11 02:00,ZGNN 110200Z AUTO 00000KT 4SM 11/05 A3036 RMK SLP273 T01100050 IEM_DS3505
ZGNN,1997-01-11 03:00,ZGNN 110300Z AUTO 00000KT 7SM 14/05 A3036 RMK SLP279 T01450048 52009 IEM_DS3505
ZGNN,1997-01-11 04:00,ZGNN 110400Z AUTO 09006KT 6SM 17/00 A3036 RMK SLP271 T01700000 IEM_DS3505
ZGNN,1997-01-11 05:00,ZGNN 110500Z AUTO 08004KT 6SM 18/00 A3030 RMK SLP250 T01800000 IEM_DS3505
ZGNN,1997-01-11 06:00,ZGNN 110600Z AUTO 04004KT 9SM 20/03 A3027 RMK SLP244 T01950034 57034 IEM_DS3505
ZGNN,1997-01-11 07:00,ZGNN 110700Z AUTO 08006KT 6SM 20/M01 A3024 RMK SLP228 T02001010 IEM_DS3505
ZGNN,1997-01-11 08:00,ZGNN 110800Z AUTO 00000KT 6SM 19/M02 A3021 RMK SLP219 T01901020 IEM_DS3505
ZGNN,1997-01-11 09:00,ZGNN 110900Z AUTO 25002KT 12SM 20/01 A3018 RMK SLP219 T02050008 57025 IEM_DS3505
ZGNN,1997-01-11 10:00,ZGNN 111000Z AUTO 00000KT 6SM 18/01 A3018 RMK SLP209 T01800010 IEM_DS3505
ZGNN,1997-01-11 11:00,ZGNN 111100Z AUTO 02004KT 6SM 14/03 A3021 RMK SLP220 T01400030 IEM_DS3505
ZGNN,1997-01-11 12:00,ZGNN 111200Z AUTO 04002KT 10SM 12/06 A3021 RMK SLP228 T01200058 52007 IEM_DS3505
ZGNN,1997-01-11 13:00,ZGNN 111300Z AUTO 35004KT 6SM 10/03 A3024 RMK SLP232 T01000030 IEM_DS3505
ZGNN,1997-01-11 14:00,ZGNN 111400Z AUTO 00000KT 6SM 09/03 A3024 RMK SLP232 T00900030 IEM_DS3505
ZGNN,1997-01-11 15:00,ZGNN 111500Z AUTO 00000KT 8SM 10/06 A3027 RMK SLP239 T00990058 52012 IEM_DS3505
ZGNN,1997-01-11 18:00,ZGNN 111800Z AUTO 00000KT 7SM 09/05 A3025 RMK SLP233 T00920047 57005 IEM_DS3505
ZGNN,1997-01-11 21:00,ZGNN 112100Z AUTO 04002KT 7SM 07/04 A3024 RMK SLP226 T00730038 57007 IEM_DS3505
ZGNN,1997-01-11 22:00,ZGNN 112200Z AUTO 01004KT 6SM 05/03 A3021 RMK SLP223 T00500030 IEM_DS3505
ZGNN,1997-01-11 23:00,ZGNN 112300Z AUTO 00000KT 6SM 05/02 A3024 RMK SLP233 T00500020 IEM_DS3505
ZGNN,1997-01-12 00:00,ZGNN 120000Z AUTO 00000KT 7SM 07/03 A3024 RMK SLP245 T00680032 52017 IEM_DS3505
ZGNN,1997-01-12 01:00,ZGNN 120100Z AUTO 00000KT 5SM 08/04 A3027 RMK SLP243 T00800040 IEM_DS3505
ZGNN,1997-01-12 02:00,ZGNN 120200Z AUTO 00000KT 6SM 13/03 A3027 RMK SLP242 T01300030 IEM_DS3505
ZGNN,1997-01-12 03:00,ZGNN 120300Z AUTO 00000KT 7SM 16/04 A3027 RMK SLP249 T01550043 52005 IEM_DS3505
ZGNN,1997-01-12 05:00,ZGNN 120500Z AUTO 13008KT 6SM 20/05 A3021 RMK SLP218 T02000050 IEM_DS3505
ZGNN,1997-01-12 06:00,ZGNN 120600Z AUTO 20004KT 12SM 21/04 A3017 RMK SLP206 T02090039 57042 IEM_DS3505
ZGNN,1997-01-12 07:00,ZGNN 120700Z AUTO 18008KT 6SM 21/ RMK IEM_DS3505
ZGNN,1997-01-12 09:00,ZGNN 120900Z AUTO 09004KT 12SM 22/05 A3009 RMK SLP183 T02180048 57023 IEM_DS3505
ZGNN,1997-01-12 10:00,ZGNN 121000Z AUTO 17006KT 6SM 19/00 A3009 RMK SLP178 T01900000 IEM_DS3505
ZGNN,1997-01-12 11:00,ZGNN 121100Z AUTO 17004KT 6SM 17/02 A3009 RMK SLP179 T01700020 IEM_DS3505
ZGNN,1997-01-12 12:00,ZGNN 121200Z AUTO 22002KT 12SM 18/04 A3009 RMK SLP186 T01770039 52003 IEM_DS3505
ZGNN,1997-01-12 13:00,ZGNN 121300Z AUTO 00000KT 6SM 14/02 A3012 RMK SLP190 T01400020 IEM_DS3505
ZGNN,1997-01-12 15:00,ZGNN 121500Z AUTO 00000KT 11SM 15/04 A3014 RMK SLP197 T01460039 52011 IEM_DS3505
ZGNN,1997-01-12 18:00,ZGNN 121800Z AUTO 00000KT 10SM 12/06 A3014 RMK SLP195 T01230057 57011 IEM_DS3505
ZGNN,1997-01-12 21:00,ZGNN 122100Z AUTO 04004KT 9SM 12/08 A3006 RMK SLP179 T01250078 57016 IEM_DS3505
ZGNN,1997-01-12 22:00,ZGNN 122200Z AUTO 09002KT 7SM 13/10 A3009 RMK SLP180 T01300100 IEM_DS3505
ZGNN,1997-01-12 23:00,ZGNN 122300Z AUTO 03002KT 7SM 13/10 A3009 RMK SLP180 T01300100 IEM_DS3505
ZGNN,1997-01-13 00:00,ZGNN 130000Z AUTO 04004KT 9SM 13/08 A3012 RMK SLP197 T01320084 52017 IEM_DS3505
ZGNN,1997-01-13 01:00,ZGNN 130100Z AUTO 11006KT 3SM 14/12 A3015 RMK SLP200 T01400120 IEM_DS3505
ZGNN,1997-01-13 02:00,ZGNN 130200Z AUTO 09004KT 3SM 15/13 A3018 RMK SLP210 T01500130 IEM_DS3505
ZGNN,1997-01-13 03:00,ZGNN 130300Z AUTO 20002KT 9SM 16/11 A3018 RMK SLP211 T01610109 52014 IEM_DS3505
ZGNN,1997-01-13 04:00,ZGNN 130400Z AUTO 15002KT 4SM 16/13 A3015 RMK SLP199 T01600130 IEM_DS3505
ZGNN,1997-01-13 05:00,ZGNN 130500Z AUTO 15006KT 4SM 17/14 A3012 RMK SLP189 T01700140 IEM_DS3505
ZGNN,1997-01-13 06:00,ZGNN 130600Z AUTO 14002KT 8SM 20/12 A3006 RMK SLP176 T01950118 57034 IEM_DS3505
ZGNN,1997-01-13 07:00,ZGNN 130700Z AUTO 11006KT 7SM 20/13 A3003 RMK SLP158 T02000130 IEM_DS3505
ZGNN,1997-01-13 08:00,ZGNN 130800Z AUTO 18004KT 7SM 21/13 A3003 RMK SLP158 T02100130 IEM_DS3505
ZGNN,1997-01-13 09:00,ZGNN 130900Z AUTO 14002KT 9SM 20/13 A3000 RMK SLP157 T02050130 57019 IEM_DS3505
ZGNN,1997-01-13 10:00,ZGNN 131000Z AUTO 12004KT 7SM 20/13 A3003 RMK SLP158 T02000130 IEM_DS3505
ZGNN,1997-01-13 11:00,ZGNN 131100Z AUTO 17004KT 7SM 19/13 A3003 RMK SLP158 T01900130 IEM_DS3505
ZGNN,1997-01-13 12:00,ZGNN 131200Z AUTO 00000KT 9SM 18/14 A3006 RMK SLP175 T01750135 52018 IEM_DS3505
ZGNN,1997-01-13 13:00,ZGNN 131300Z AUTO 00000KT 6SM 16/13 A3009 RMK SLP179 T01600130 IEM_DS3505
ZGNN,1997-01-13 15:00,ZGNN 131500Z AUTO 04002KT 9SM 17/13 A3011 RMK SLP186 T01720131 52011 IEM_DS3505
ZGNN,1997-01-13 18:00,ZGNN 131800Z AUTO 00000KT 8SM 16/ A3010 RMK SLP184 57002 IEM_DS3505
ZGNN,1997-01-13 21:00,ZGNN 132100Z AUTO 02002KT 7SM 15/13 A3006 RMK SLP175 T01540127 57009 IEM_DS3505
ZGNN,1997-01-13 22:00,ZGNN 132200Z AUTO 00000KT 4SM 13/12 A3006 RMK SLP170 T01300120 IEM_DS3505
ZGNN,1997-01-13 23:00,ZGNN 132300Z AUTO 00000KT 3SM 13/12 A3009 RMK SLP180 T01300120 IEM_DS3505
ZGNN,1997-01-14 00:00,ZGNN 140000Z AUTO 07002KT 5SM 15/13 A3012 RMK SLP189 T01510128 52014 IEM_DS3505
ZGNN,1997-01-14 01:00,ZGNN 140100Z AUTO 00000KT 2 1/2SM 15/14 A3015 RMK SLP200 T01500140 IEM_DS3505
ZGNN,1997-01-14 02:00,ZGNN 140200Z AUTO 10004KT 2 1/2SM 18/15 A3015 RMK SLP199 T01800150 IEM_DS3505
ZGNN,1997-01-14 03:00,ZGNN 140300Z AUTO 00000KT 7SM 18/14 A3015 RMK SLP205 T01830141 52016 IEM_DS3505
ZGNN,1997-01-14 04:00,ZGNN 140400Z AUTO 00000KT 5SM 20/15 A3012 RMK SLP188 T02000150 IEM_DS3505
ZGNN,1997-01-14 05:00,ZGNN 140500Z AUTO 16006KT 7SM 21/14 A3009 RMK SLP178 T02100140 IEM_DS3505
ZGNN,1997-01-14 06:00,ZGNN 140600Z AUTO 04004KT 12SM 22/11 A3006 RMK SLP175 T02210112 57029 IEM_DS3505
ZGNN,1997-01-14 07:00,ZGNN 140700Z AUTO 06006KT 7SM 22/11 A3003 RMK SLP157 T02200110 IEM_DS3505
ZGNN,1997-01-14 08:00,ZGNN 140800Z AUTO 06006KT 7SM 22/10 A3003 RMK SLP157 T02200100 IEM_DS3505
ZGNN,1997-01-14 09:00,ZGNN 140900Z AUTO 04004KT 12SM 22/12 A3003 RMK SLP159 T02210121 57016 IEM_DS3505
ZGNN,1997-01-14 10:00,ZGNN 141000Z AUTO 09004KT 7SM 21/10 A3003 RMK SLP158 T02100100 IEM_DS3505
ZGNN,1997-01-14 11:00,ZGNN 141100Z AUTO 09004KT 6SM 18/12 A3003 RMK SLP158 T01800120 IEM_DS3505
ZGNN,1997-01-14 12:00,ZGNN 141200Z AUTO 04002KT 12SM 18/11 A3006 RMK SLP175 T01840107 52015 IEM_DS3505
ZGNN,1997-01-14 13:00,ZGNN 141300Z AUTO 04006KT 6SM 17/11 A3009 RMK SLP179 T01700110 IEM_DS3505
ZGNN,1997-01-14 15:00,ZGNN 141500Z AUTO 04006KT 11SM 17/10 A3013 RMK SLP194 T01710097 52019 IEM_DS3505
ZGNN,1997-01-14 18:00,ZGNN 141800Z AUTO 04002KT 11SM 16/10 A3013 RMK SLP190 T01580101 57003 IEM_DS3505
ZGNN,1997-01-14 21:00,ZGNN 142100Z AUTO 09002KT 12SM 16/10 A3009 RMK SLP187 T01550095 57003 IEM_DS3505
ZGNN,1997-01-14 23:00,ZGNN 142300Z AUTO 00000KT 4SM 15/10 A3012 RMK SLP190 T01500100 IEM_DS3505
ZGNN,1997-01-15 00:00,ZGNN 150000Z AUTO 00000KT 6SM 15/10 A3014 RMK SLP197 T01510102 52009 IEM_DS3505
ZGNN,1997-01-15 01:00,ZGNN 150100Z AUTO 06004KT 4SM 15/09 A3015 RMK SLP200 T01500090 IEM_DS3505
ZGNN,1997-01-15 02:00,ZGNN 150200Z AUTO 06008KT 4SM 16/09 A3018 RMK SLP209 T01600090 IEM_DS3505
ZGNN,1997-01-15 03:00,ZGNN 150300Z AUTO 07004KT 7SM 17/10 A3015 RMK SLP205 T01660102 52008 IEM_DS3505
ZGNN,1997-01-15 04:00,ZGNN 150400Z AUTO 06006KT 4SM 18/11 A3012 RMK SLP189 T01800110 IEM_DS3505
ZGNN,1997-01-15 05:00,ZGNN 150500Z AUTO 15008KT 4SM 20/11 A3009 RMK SLP178 T02000110 IEM_DS3505
ZGNN,1997-01-15 06:00,ZGNN 150600Z AUTO 07004KT 9SM 20/12 A3003 RMK SLP164 T02050115 57040 IEM_DS3505
ZGNN,1997-01-15 08:00,ZGNN 150800Z AUTO 14008KT 7SM 22/13 A3000 RMK SLP147 T02200130 IEM_DS3505
ZGNN,1997-01-15 09:00,ZGNN 150900Z AUTO 04004KT 9SM 21/12 A3000 RMK SLP149 T02090123 57015 IEM_DS3505
ZGNN,1997-01-15 10:00,ZGNN 151000Z AUTO 15010KT 7SM 21/14 A2997 RMK SLP137 T02100140 IEM_DS3505
ZGNN,1997-01-15 11:00,ZGNN 151100Z AUTO 17008KT 7SM 20/14 A3000 RMK SLP148 T02000140 IEM_DS3505
ZGNN,1997-01-15 12:00,ZGNN 151200Z AUTO 00000KT 8SM 18/12 A3003 RMK SLP162 T01850122 52012 IEM_DS3505
ZGNN,1997-01-15 13:00,ZGNN 151300Z AUTO 15008KT 7SM 19/15 A3003 RMK SLP158 T01900150 IEM_DS3505
ZGNN,1997-01-15 14:00,ZGNN 151400Z AUTO 07004KT 7SM 18/13 A3006 RMK SLP168 T01800130 IEM_DS3505
ZGNN,1997-01-15 15:00,ZGNN 151500Z AUTO 04002KT 8SM 17/12 A3008 RMK SLP175 T01740116 52013 IEM_DS3505
ZGNN,1997-01-15 18:00,ZGNN 151800Z AUTO 00000KT 7SM 17/11 A3007 RMK SLP172 T01730114 57002 IEM_DS3505
ZGNN,1997-01-15 21:00,ZGNN 152100Z AUTO 00000KT 7SM 17/12 A3003 RMK SLP163 T01720119 57009 IEM_DS3505
ZGNN,1997-01-15 22:00,ZGNN 152200Z AUTO 00000KT 2 1/2SM 17/14 A3003 RMK SLP159 T01700140 IEM_DS3505
ZGNN,1997-01-15 23:00,ZGNN 152300Z AUTO 08004KT 2 1/2SM 16/13 A3006 RMK SLP169 T01600130 IEM_DS3505
ZGNN,1997-01-16 00:00,ZGNN 160000Z AUTO 00000KT 5SM 17/13 A3006 RMK SLP176 T01690130 52012 IEM_DS3505
ZGNN,1997-01-16 01:00,ZGNN 160100Z AUTO 07006KT 2 1/2SM 17/14 A3009 RMK SLP179 T01700140 IEM_DS3505
ZGNN,1997-01-16 02:00,ZGNN 160200Z AUTO 07008KT 2SM 17/13 A3009 RMK SLP179 T01700130 IEM_DS3505
ZGNN,1997-01-16 03:00,ZGNN 160300Z AUTO 09004KT 4SM 17/12 A3009 RMK SLP187 T01720123 52011 IEM_DS3505
ZGNN,1997-01-16 04:00,ZGNN 160400Z AUTO 10006KT 1 1/4SM 15/14 A3009 RMK SLP179 T01500140 IEM_DS3505
ZGNN,1997-01-16 05:00,ZGNN 160500Z AUTO 08006KT 1 1/4SM 16/14 A3003 RMK SLP159 T01600140 IEM_DS3505
ZGNN,1997-01-16 06:00,ZGNN 160600Z AUTO 14002KT 6SM 18/13 A3000 RMK SLP154 T01760132 57033 IEM_DS3505
ZGNN,1997-01-16 07:00,ZGNN 160700Z AUTO 07006KT 1 1/4SM 18/15 A2997 RMK SLP138 T01800150 IEM_DS3505
ZGNN,1997-01-16 08:00,ZGNN 160800Z AUTO 10006KT 1 1/4SM 19/16 A2997 RMK SLP138 T01900160 IEM_DS3505
ZGNN,1997-01-16 09:00,ZGNN 160900Z AUTO 04004KT 5SM 19/14 A2997 RMK SLP140 T01910145 57013 IEM_DS3505
ZGNN,1997-01-16 10:00,ZGNN 161000Z AUTO 13006KT 2SM 19/17 A2997 RMK SLP138 T01900170 IEM_DS3505
ZGNN,1997-01-16 11:00,ZGNN 161100Z AUTO 15006KT 2 1/2SM 19/17 A2997 RMK SLP138 T01900170 IEM_DS3505
ZGNN,1997-01-16 12:00,ZGNN 161200Z AUTO 04004KT 6SM 19/16 A3000 RMK SLP150 T01880156 52010 IEM_DS3505
ZGNN,1997-01-16 13:00,ZGNN 161300Z AUTO 16006KT 2 1/2SM 19/17 A3000 RMK SLP148 T01900170 IEM_DS3505
ZGNN,1997-01-16 15:00,ZGNN 161500Z AUTO 00000KT 6SM 18/16 A3002 RMK SLP155 T01790161 52004 IEM_DS3505
ZGNN,1997-01-16 18:00,ZGNN 161800Z AUTO 00000KT 6SM 18/17 A3002 RMK SLP156 T01840168 52002 IEM_DS3505
ZGNN,1997-01-16 21:00,ZGNN 162100Z AUTO 00000KT 7SM 19/18 A3000 RMK SLP151 T01910178 57005 IEM_DS3505
ZGNN,1997-01-16 22:00,ZGNN 162200Z AUTO 15006KT 4SM 19/18 A3000 RMK SLP148 T01900180 IEM_DS3505
ZGNN,1997-01-16 23:00,ZGNN 162300Z AUTO 17004KT 4SM 19/18 A3000 RMK SLP148 T01900180 IEM_DS3505
ZGNN,1997-01-17 00:00,ZGNN 170000Z AUTO 00000KT 7SM 19/18 A3003 RMK SLP161 T01910178 52010 IEM_DS3505
ZGNN,1997-01-17 01:00,ZGNN 170100Z AUTO 00000KT 4SM 19/18 A3006 RMK SLP168 T01900180 IEM_DS3505
ZGNN,1997-01-17 02:00,ZGNN 170200Z AUTO 16006KT 5SM 20/18 A3009 RMK SLP178 T02000180 IEM_DS3505
ZGNN,1997-01-17 03:00,ZGNN 170300Z AUTO 00000KT 7SM 20/18 A3009 RMK SLP178 T02040183 52017 IEM_DS3505
ZGNN,1997-01-17 04:00,ZGNN 170400Z AUTO 13006KT 7SM 22/18 A3006 RMK SLP167 T02200180 IEM_DS3505
ZGNN,1997-01-17 05:00,ZGNN 170500Z AUTO 15004KT 7SM 22/18 A3003 RMK SLP157 T02200180 IEM_DS3505
ZGNN,1997-01-17 06:00,ZGNN 170600Z AUTO 27002KT 9SM 23/18 A3000 RMK SLP149 T02300181 57029 IEM_DS3505
ZGNN,1997-01-17 07:00,ZGNN 170700Z AUTO 17010KT 7SM 24/17 A2997 RMK SLP136 T02400170 IEM_DS3505
ZGNN,1997-01-17 08:00,ZGNN 170800Z AUTO 16008KT 7SM 23/18 A2997 RMK SLP137 T02300180 IEM_DS3505
ZGNN,1997-01-17 09:00,ZGNN 170900Z AUTO 00000KT 9SM 23/18 A2994 RMK SLP137 T02330179 57011 IEM_DS3505
ZGNN,1997-01-17 10:00,ZGNN 171000Z AUTO 15008KT 7SM 22/18 A2997 RMK SLP137 T02200180 IEM_DS3505
ZGNN,1997-01-17 11:00,ZGNN 171100Z AUTO 16008KT 7SM 21/18 A2997 RMK SLP137 T02100180 IEM_DS3505
ZGNN,1997-01-17 12:00,ZGNN 171200Z AUTO 11002KT 9SM 22/18 A3000 RMK SLP154 T02150182 52016 IEM_DS3505
ZGNN,1997-01-17 13:00,ZGNN 171300Z AUTO 13004KT 7SM 20/18 A3003 RMK SLP158 T02000180 IEM_DS3505
ZGNN,1997-01-17 15:00,ZGNN 171500Z AUTO 00000KT 9SM 20/18 A3005 RMK SLP165 T02030181 52011 IEM_DS3505
ZGNN,1997-01-17 18:00,ZGNN 171800Z AUTO 14002KT 9SM 20/18 A3005 RMK SLP165 T02010178 52001 IEM_DS3505
ZGNN,1997-01-17 19:00,ZGNN 171900Z AUTO 14010KT 7SM 19/17 A3003 RMK SLP158 T01900170 IEM_DS3505
ZGNN,1997-01-17 20:00,ZGNN 172000Z AUTO 15010KT 7SM 19/17 A3000 RMK SLP148 T01900170 IEM_DS3505
ZGNN,1997-01-17 21:00,ZGNN 172100Z AUTO 07006KT 7SM 14/13 A3003 RMK 70000 SLP171 T01350126 52005 IEM_DS3505
ZGNN,1997-01-17 22:00,ZGNN 172200Z AUTO 05008KT 7SM 13/13 A3006 RMK SLP170 T01300130 IEM_DS3505
ZGNN,1997-01-17 23:00,ZGNN 172300Z AUTO 03006KT 7SM 13/12 A3006 RMK SLP170 T01300120 IEM_DS3505
ZGNN,1997-01-18 00:00,ZGNN 180000Z AUTO 04004KT 9SM 12/11 A3009 RMK 60031 70031 SLP193 T01210108 52021 IEM_DS3505
ZGNN,1997-01-18 01:00,ZGNN 180100Z AUTO 05008KT 2SM 12/11 A3012 RMK SLP191 T01200110 IEM_DS3505
ZGNN,1997-01-18 02:00,ZGNN 180200Z AUTO 06006KT 2 1/2SM 12/11 A3015 RMK SLP201 T01200110 IEM_DS3505
ZGNN,1997-01-18 03:00,ZGNN 180300Z AUTO 09004KT 9SM 12/10 A3018 RMK SLP215 T01170097 52021 IEM_DS3505
ZGNN,1997-01-18 04:00,ZGNN 180400Z AUTO 03006KT 1 1/2SM 11/10 A3015 RMK SLP201 T01100100 IEM_DS3505
ZGNN,1997-01-18 05:00,ZGNN 180500Z AUTO 03006KT 1 1/2SM 11/10 A3012 RMK SLP191 T01100100 IEM_DS3505
ZGNN,1997-01-18 06:00,ZGNN 180600Z AUTO 07004KT 9SM 11/11 A3012 RMK 60008 SLP192 T01130107 57022 IEM_DS3505
ZGNN,1997-01-18 07:00,ZGNN 180700Z AUTO 06004KT 3SM 11/10 A3006 RMK SLP171 T01100100 IEM_DS3505
ZGNN,1997-01-18 08:00,ZGNN 180800Z AUTO 03004KT 2 1/2SM 11/10 A3006 RMK SLP171 T01100100 IEM_DS3505
ZGNN,1997-01-18 09:00,ZGNN 180900Z AUTO 04004KT 7SM 10/10 A3009 RMK SLP185 T01050095 57009 IEM_DS3505
ZGNN,1997-01-18 10:00,ZGNN 181000Z AUTO 08004KT 4SM 10/10 A3009 RMK SLP181 T01000100 IEM_DS3505
ZGNN,1997-01-18 11:00,ZGNN 181100Z AUTO 06004KT 6SM 10/09 A3009 RMK SLP181 T01000090 IEM_DS3505
ZGNN,1997-01-18 12:00,ZGNN 181200Z AUTO 07002KT 9SM 11/10 A3012 RMK 60012 SLP198 T01090101 52013 IEM_DS3505
ZGNN,1997-01-18 13:00,ZGNN 181300Z AUTO 06004KT 6SM 10/10 A3012 RMK SLP191 T01000100 IEM_DS3505
ZGNN,1997-01-18 15:00,ZGNN 181500Z AUTO 00000KT 11SM 11/09 A3016 RMK SLP206 T01060090 52008 IEM_DS3505
ZGNN,1997-01-18 18:00,ZGNN 181800Z AUTO 09002KT 6SM 10/10 A3014 RMK 60002 SLP198 T01020098 57008 IEM_DS3505
ZGNN,1997-01-18 21:00,ZGNN 182100Z AUTO 02002KT 7SM 10/10 A3012 RMK 70055 SLP199 T01020096 52001 IEM_DS3505
ZGNN,1997-01-18 22:00,ZGNN 182200Z AUTO 02006KT 2 1/2SM 10/10 A3015 RMK SLP201 T01000100 IEM_DS3505
ZGNN,1997-01-18 23:00,ZGNN 182300Z AUTO 00000KT 2 1/2SM 10/09 A3015 RMK SLP201 T01000090 IEM_DS3505
ZGNN,1997-01-19 00:00,ZGNN 190000Z AUTO 00000KT 9SM 11/09 A3018 RMK 60004 70028 SLP211 T01080092 52012 IEM_DS3505
ZGNN,1997-01-19 01:00,ZGNN 190100Z AUTO 36004KT 2 1/2SM 10/10 A3018 RMK SLP211 T01000100 IEM_DS3505
ZGNN,1997-01-19 02:00,ZGNN 190200Z AUTO 06004KT 4SM 11/10 A3021 RMK SLP221 T01100100 IEM_DS3505
ZGNN,1997-01-19 03:00,ZGNN 190300Z AUTO 11002KT 11SM 11/09 A3021 RMK SLP224 T01110089 52013 IEM_DS3505
ZGNN,1997-01-19 04:00,ZGNN 190400Z AUTO 07002KT 3SM 11/10 A3018 RMK SLP211 T01100100 IEM_DS3505
ZGNN,1997-01-19 05:00,ZGNN 190500Z AUTO 09002KT 3SM 11/10 A3015 RMK SLP201 T01100100 IEM_DS3505
ZGNN,1997-01-19 06:00,ZGNN 190600Z AUTO 22002KT 7SM 12/10 A3012 RMK 60008 SLP198 T01190095 57026 IEM_DS3505
ZGNN,1997-01-19 07:00,ZGNN 190700Z AUTO 09002KT 4SM 12/10 A3009 RMK SLP180 T01200100 IEM_DS3505
ZGNN,1997-01-19 08:00,ZGNN 190800Z AUTO 00000KT 4SM 12/10 A3009 RMK SLP180 T01200100 IEM_DS3505
ZGNN,1997-01-19 09:00,ZGNN 190900Z AUTO 02002KT 7SM 13/10 A3006 RMK SLP180 T01270102 57018 IEM_DS3505
ZGNN,1997-01-19 10:00,ZGNN 191000Z AUTO 00000KT 4SM 12/10 A3006 RMK SLP170 T01200100 IEM_DS3505
ZGNN,1997-01-19 11:00,ZGNN 191100Z AUTO 10002KT 3SM 12/10 A3009 RMK SLP180 T01200100 IEM_DS3505
ZGNN,1997-01-19 12:00,ZGNN 191200Z AUTO 09002KT 9SM 12/10 A3009 RMK SLP187 T01230102 52007 IEM_DS3505
ZGNN,1997-01-19 13:00,ZGNN 191300Z AUTO 00000KT 3SM 12/10 A3009 RMK SLP180 T01200100 IEM_DS3505
ZGNN,1997-01-19 15:00,ZGNN 191500Z AUTO 04002KT 9SM 13/10 A3011 RMK SLP188 T01260103 52001 IEM_DS3505
ZGNN,1997-01-19 18:00,ZGNN 191800Z AUTO 00000KT 9SM 12/11 A3007 RMK SLP172 T01230106 57015 IEM_DS3505
ZGNN,1997-01-19 21:00,ZGNN 192100Z AUTO 04002KT 8SM 12/10 A3000 RMK 70001 SLP161 T01190102 57011 IEM_DS3505
ZGNN,1997-01-19 22:00,ZGNN 192200Z AUTO 07004KT 1 1/4SM 11/11 A3000 RMK SLP150 T01100110 IEM_DS3505
ZGNN,1997-01-19 23:00,ZGNN 192300Z AUTO 07002KT 1 1/4SM 11/11 A3003 RMK SLP161 T01100110 IEM_DS3505
ZGNN,1997-01-20 00:00,ZGNN 200000Z AUTO 07004KT 6SM 12/11 A3003 RMK 60000 70008 SLP167 T01150111 52006 IEM_DS3505
ZGNN,1997-01-20 01:00,ZGNN 200100Z AUTO 08002KT 1SM 11/11 A3006 RMK SLP171 T01100110 IEM_DS3505
ZGNN,1997-01-20 02:00,ZGNN 200200Z AUTO 09002KT 1SM 12/11 A3006 RMK SLP170 T01200110 IEM_DS3505
ZGNN,1997-01-20 03:00,ZGNN 200300Z AUTO 14002KT 6SM 12/12 A3008 RMK SLP177 T01240122 52010 IEM_DS3505
ZGNN,1997-01-20 04:00,ZGNN 200400Z AUTO 00000KT 1 1/4SM RMK IEM_DS3505
ZGNN,1997-01-20 05:00,ZGNN 200500Z AUTO 00000KT 1 1/4SM 13/12 A3000 RMK SLP150 T01300120 IEM_DS3505
ZGNN,1997-01-20 06:00,ZGNN 200600Z AUTO 04002KT 4SM 13/13 A2997 RMK 60001 SLP142 T01310126 57035 IEM_DS3505
ZGNN,1997-01-20 07:00,ZGNN 200700Z AUTO 14002KT 3SM 15/13 A2994 RMK SLP129 T01500130 IEM_DS3505
ZGNN,1997-01-20 08:00,ZGNN 200800Z AUTO 00000KT 1 1/4SM 15/14 A2991 RMK SLP119 T01500140 IEM_DS3505
ZGNN,1997-01-20 09:00,ZGNN 200900Z AUTO 04002KT 2 1/2SM 14/14 A2991 RMK SLP131 T01430138 57011 IEM_DS3505
ZGNN,1997-01-20 10:00,ZGNN 201000Z AUTO 00000KT 1SM 15/14 A2991 RMK SLP119 T01500140 IEM_DS3505
ZGNN,1997-01-20 11:00,ZGNN 201100Z AUTO 00000KT 1/4SM 15/15 A2994 RMK SLP129 T01500150 IEM_DS3505
ZGNN,1997-01-20 12:00,ZGNN 201200Z AUTO 04004KT 1SM 14/14 A2994 RMK SLP133 T01450143 52002 IEM_DS3505
ZGNN,1997-01-20 13:00,ZGNN 201300Z AUTO 00000KT 1/4SM 15/15 A2994 RMK SLP129 T01500150 IEM_DS3505
ZGNN,1997-01-20 15:00,ZGNN 201500Z AUTO 00000KT 1/8SM 15/15 A2999 RMK SLP145 T01510149 52012 IEM_DS3505
ZGNN,1997-01-20 18:00,ZGNN 201800Z AUTO 00000KT 1/4SM 15/15 A2999 RMK 60000 SLP145 T01540152 52001 IEM_DS3505
ZGNN,1997-01-20 21:00,ZGNN 202100Z AUTO 00000KT 3/8SM 16/16 A2997 RMK 70002 SLP141 T01580155 57004 IEM_DS3505
ZGNN,1997-01-20 22:00,ZGNN 202200Z AUTO 00000KT 1/4SM 17/17 A2997 RMK SLP139 T01700170 IEM_DS3505
ZGNN,1997-01-20 23:00,ZGNN 202300Z AUTO 03004KT 1/8SM 17/17 A3000 RMK SLP149 T01700170 IEM_DS3505
ZGNN,1997-01-21 00:00,ZGNN 210000Z AUTO 00000KT 1/8SM 16/16 A3000 RMK 60000 70002 SLP156 T01630161 52015 IEM_DS3505
ZGNN,1997-01-21 01:00,ZGNN 210100Z AUTO 00000KT 1/8SM 17/17 A3003 RMK SLP159 T01700170 IEM_DS3505
ZGNN,1997-01-21 02:00,ZGNN 210200Z AUTO 00000KT 1/2SM 18/18 A3006 RMK SLP168 T01800180 IEM_DS3505
ZGNN,1997-01-21 03:00,ZGNN 210300Z AUTO 00000KT 3SM 19/18 A3006 RMK SLP179 T01890179 52023 IEM_DS3505
ZGNN,1997-01-21 04:00,ZGNN 210400Z AUTO 00000KT 1 1/2SM 20/19 A3006 RMK SLP168 T02000190 IEM_DS3505
ZGNN,1997-01-21 05:00,ZGNN 210500Z AUTO 13008KT 7SM 23/19 A3003 RMK SLP157 T02300190 IEM_DS3505
ZGNN,1997-01-21 06:00,ZGNN 210600Z AUTO 29002KT 7SM 23/19 A3000 RMK SLP154 T02270189 57024 IEM_DS3505
ZGNN,1997-01-21 07:00,ZGNN 210700Z AUTO 17008KT 7SM 24/18 A2994 RMK SLP126 T02400180 IEM_DS3505
ZGNN,1997-01-21 08:00,ZGNN 210800Z AUTO 14006KT 7SM 23/18 A2994 RMK SLP127 T02300180 IEM_DS3505
ZGNN,1997-01-21 09:00,ZGNN 210900Z AUTO 09002KT 9SM 23/20 A2994 RMK SLP136 T02290195 57018 IEM_DS3505
ZGNN,1997-01-21 10:00,ZGNN 211000Z AUTO 14006KT 7SM 23/19 A2994 RMK SLP127 T02300190 IEM_DS3505
ZGNN,1997-01-21 11:00,ZGNN 211100Z AUTO 14004KT 7SM 21/18 A2997 RMK SLP137 T02100180 IEM_DS3505
ZGNN,1997-01-21 12:00,ZGNN 211200Z AUTO 00000KT 5SM 20/19 A3000 RMK SLP145 T02000189 52009 IEM_DS3505
ZGNN,1997-01-21 13:00,ZGNN 211300Z AUTO 12006KT 7SM 20/18 A3000 RMK SLP148 T02000180 IEM_DS3505
ZGNN,1997-01-21 14:00,ZGNN 211400Z AUTO 00000KT 7SM 20/18 A3000 RMK SLP148 T02000180 IEM_DS3505
ZGNN,1997-01-21 15:00,ZGNN 211500Z AUTO 07002KT 7SM 20/19 A3003 RMK SLP159 T01990188 52014 IEM_DS3505
ZGNN,1997-01-21 16:00,ZGNN 211600Z AUTO 07004KT 5SM 18/18 A3000 RMK SLP148 T01800180 IEM_DS3505
ZGNN,1997-01-21 17:00,ZGNN 211700Z AUTO 11004KT 4SM 19/18 A3003 RMK SLP158 T01900180 IEM_DS3505
ZGNN,1997-01-21 18:00,ZGNN 211800Z AUTO 04004KT 6SM 20/18 A3000 RMK SLP152 T01980184 57006 IEM_DS3505
ZGNN,1997-01-21 21:00,ZGNN 212100Z AUTO 04004KT 6SM 19/17 A2997 RMK 70000 SLP138 T01890173 57014 IEM_DS3505
ZGNN,1997-01-21 22:00,ZGNN 212200Z AUTO 15006KT 5SM 19/18 A2997 RMK SLP138 T01900180 IEM_DS3505
ZGNN,1997-01-21 23:00,ZGNN 212300Z AUTO 12006KT 5SM 19/18 A2997 RMK SLP138 T01900180 IEM_DS3505
ZGNN,1997-01-22 00:00,ZGNN 220000Z AUTO 04002KT 6SM 18/17 A2997 RMK 60004 70004 SLP144 T01780168 52005 IEM_DS3505
ZGNN,1997-01-22 01:00,ZGNN 220100Z AUTO 15010KT 7SM 19/18 A2997 RMK SLP138 T01900180 IEM_DS3505
ZGNN,1997-01-22 02:00,ZGNN 220200Z AUTO 15012KT 7SM 20/18 A3000 RMK SLP148 T02000180 IEM_DS3505
ZGNN,1997-01-22 03:00,ZGNN 220300Z AUTO 09004KT 6SM 19/18 A3000 RMK SLP155 T01940176 52011 IEM_DS3505
ZGNN,1997-01-22 04:00,ZGNN 220400Z AUTO 16014KT 7SM 21/17 A3000 RMK SLP147 T02100170 IEM_DS3505
ZGNN,1997-01-22 05:00,ZGNN 220500Z AUTO 16017KT 7SM 21/17 A2997 RMK SLP137 T02100170 IEM_DS3505
ZGNN,1997-01-22 06:00,ZGNN 220600Z AUTO 22004KT 12SM 22/17 A2991 RMK SLP121 T02190167 57033 IEM_DS3505
ZGNN,1997-01-22 07:00,ZGNN 220700Z AUTO 16014KT 7SM 21/17 A2988 RMK SLP107 T02100170 IEM_DS3505
ZGNN,1997-01-22 08:00,ZGNN 220800Z AUTO 18008KT 2 1/2SM 19/18 A2988 RMK SLP108 T01900180 IEM_DS3505
ZGNN,1997-01-22 09:00,ZGNN 220900Z AUTO 00000KT 7SM 19/18 A2988 RMK SLP110 T01940183 57012 IEM_DS3505
ZGNN,1997-01-22 11:00,ZGNN 221100Z AUTO 09002KT 7SM 19/18 A2988 RMK 60020 SLP116 T01910181 52006 IEM_DS3505
ZGNN,1997-01-22 12:00,ZGNN 221200Z AUTO 09002KT 7SM 19/18 A2988 RMK 60020 SLP116 T01910181 52006 IEM_DS3505
ZGNN,1997-01-22 13:00,ZGNN 221300Z AUTO 15008KT 7SM 18/18 A2991 RMK SLP118 T01800180 IEM_DS3505
ZGNN,1997-01-22 14:00,ZGNN 221400Z AUTO 16008KT 7SM 19/18 A2991 RMK SLP118 T01900180 IEM_DS3505
ZGNN,1997-01-22 15:00,ZGNN 221500Z AUTO 22002KT 9SM 19/18 A2988 RMK SLP112 T01890181 57004 IEM_DS3505
ZGNN,1997-01-22 16:00,ZGNN 221600Z AUTO 16006KT 7SM 18/18 A2988 RMK SLP108 T01800180 IEM_DS3505
ZGNN,1997-01-22 18:00,ZGNN 221800Z AUTO 00000KT 9SM 19/18 A2986 RMK 60008 SLP101 T01900182 57010 IEM_DS3505
ZGNN,1997-01-22 21:00,ZGNN 222100Z AUTO 18002KT 6SM 19/18 A2980 RMK 70047 SLP091 T01880183 57011 IEM_DS3505
ZGNN,1997-01-22 22:00,ZGNN 222200Z AUTO 15004KT 2 1/2SM 19/18 A2980 RMK SLP080 T01900180 IEM_DS3505
ZGNN,1997-01-22 23:00,ZGNN 222300Z AUTO 12004KT 2 1/2SM 19/18 A2983 RMK SLP091 T01900180 IEM_DS3505
ZGNN,1997-01-23 00:00,ZGNN 230000Z AUTO 04008KT 7SM 14/14 A2985 RMK 60091 70118 SLP113 T01450136 52022 IEM_DS3505
ZGNN,1997-01-23 01:00,ZGNN 230100Z AUTO 03010KT 5SM 13/12 A2988 RMK SLP109 T01300120 IEM_DS3505
ZGNN,1997-01-23 02:00,ZGNN 230200Z AUTO 36006KT 5SM 13/12 A2994 RMK SLP130 T01300120 IEM_DS3505
ZGNN,1997-01-23 03:00,ZGNN 230300Z AUTO 34004KT 7SM 13/12 A2997 RMK SLP152 T01330120 52038 IEM_DS3505
ZGNN,1997-01-23 04:00,ZGNN 230400Z AUTO 35012KT 7SM 13/12 A2997 RMK SLP140 T01300120 IEM_DS3505
ZGNN,1997-01-23 05:00,ZGNN 230500Z AUTO 02006KT 7SM 13/11 A2994 RMK SLP130 T01300110 IEM_DS3505
ZGNN,1997-01-23 06:00,ZGNN 230600Z AUTO 04004KT 19SM 13/11 A2994 RMK 60047 SLP135 T01270106 57017 IEM_DS3505
ZGNN,1997-01-23 07:00,ZGNN 230700Z AUTO 33008KT 7SM 12/10 A2991 RMK SLP120 T01200100 IEM_DS3505
ZGNN,1997-01-23 08:00,ZGNN 230800Z AUTO 06008KT 7SM 11/09 A2994 RMK SLP130 T01100090 IEM_DS3505
ZGNN,1997-01-23 09:00,ZGNN 230900Z AUTO 09006KT 19SM 12/08 A2994 RMK SLP136 T01180082 52001 IEM_DS3505
ZGNN,1997-01-23 10:00,ZGNN 231000Z AUTO 03006KT 7SM 11/08 A2997 RMK SLP140 T01100080 IEM_DS3505
ZGNN,1997-01-23 11:00,ZGNN 231100Z AUTO 06004KT 7SM 10/08 A3000 RMK SLP151 T01000080 IEM_DS3505
ZGNN,1997-01-23 12:00,ZGNN 231200Z AUTO 04006KT 16SM 11/07 A3000 RMK 60000 SLP159 T01120066 52022 IEM_DS3505
ZGNN,1997-01-23 13:00,ZGNN 231300Z AUTO 03008KT 7SM 11/09 A3003 RMK SLP161 T01100090 IEM_DS3505
ZGNN,1997-01-23 14:00,ZGNN 231400Z AUTO 03006KT 7SM 10/08 A3006 RMK SLP171 T01000080 IEM_DS3505
ZGNN,1997-01-23 15:00,ZGNN 231500Z AUTO 04004KT 14SM 09/08 A3006 RMK SLP181 T00920075 52021 IEM_DS3505
ZGNN,1997-01-23 16:00,ZGNN 231600Z AUTO 01012KT 7SM 09/08 A3009 RMK SLP181 T00900080 IEM_DS3505
ZGNN,1997-01-23 18:00,ZGNN 231800Z AUTO 04006KT 12SM 08/05 A3010 RMK 60012 SLP183 T00820051 52002 IEM_DS3505
ZGNN,1997-01-23 21:00,ZGNN 232100Z AUTO 34004KT 12SM 08/05 A3012 RMK 70138 SLP195 T00800051 52012 IEM_DS3505
ZGNN,1997-01-23 22:00,ZGNN 232200Z AUTO 35006KT 7SM 07/05 A3009 RMK SLP182 T00700050 IEM_DS3505
ZGNN,1997-01-23 23:00,ZGNN 232300Z AUTO 02010KT 7SM 07/05 A3012 RMK SLP192 T00700050 IEM_DS3505
ZGNN,1997-01-24 01:00,ZGNN 240100Z AUTO 03006KT 7SM 08/03 A3015 RMK SLP202 T00800030 IEM_DS3505
ZGNN,1997-01-24 02:00,ZGNN 240200Z AUTO 35008KT 7SM 08/03 A3018 RMK SLP212 T00800030 IEM_DS3505
ZGNN,1997-01-24 03:00,ZGNN 240300Z AUTO 04006KT 16SM 10/04 A3021 RMK SLP221 T00990040 52013 IEM_DS3505
ZGNN,1997-01-24 04:00,ZGNN 240400Z AUTO 35010KT 7SM 10/03 A3015 RMK SLP201 T01000030 IEM_DS3505
ZGNN,1997-01-24 05:00,ZGNN 240500Z AUTO 35010KT 7SM 10/03 A3015 RMK SLP201 T01000030 IEM_DS3505
ZGNN,1997-01-24 06:00,ZGNN 240600Z AUTO 32006KT 17SM 11/04 A3012 RMK SLP193 T01110036 57027 IEM_DS3505
ZGNN,1997-01-24 07:00,ZGNN 240700Z AUTO 36008KT 7SM 11/03 A3009 RMK SLP181 T01100030 IEM_DS3505
ZGNN,1997-01-24 08:00,ZGNN 240800Z AUTO 36004KT 7SM 11/03 A3009 RMK SLP181 T01100030 IEM_DS3505
ZGNN,1997-01-24 09:00,ZGNN 240900Z AUTO 04004KT 17SM 11/04 A3009 RMK SLP186 T01110039 57007 IEM_DS3505
ZGNN,1997-01-24 10:00,ZGNN 241000Z AUTO 04004KT 7SM 11/04 A3009 RMK SLP181 T01100040 IEM_DS3505
ZGNN,1997-01-24 11:00,ZGNN 241100Z AUTO 08004KT 7SM 10/03 A3009 RMK SLP181 T01000030 IEM_DS3505
ZGNN,1997-01-24 12:00,ZGNN 241200Z AUTO 04004KT 16SM 10/04 A3012 RMK SLP201 T01030042 52014 IEM_DS3505
ZGNN,1997-01-24 13:00,ZGNN 241300Z AUTO 00000KT 7SM 09/04 A3012 RMK SLP191 T00900040 IEM_DS3505
ZGNN,1997-01-24 14:00,ZGNN 241400Z AUTO 00000KT 6SM 09/05 A3012 RMK SLP191 T00900050 IEM_DS3505
ZGNN,1997-01-24 15:00,ZGNN 241500Z AUTO 04002KT 14SM 09/05 A3015 RMK SLP202 T00930046 52002 IEM_DS3505
ZGNN,1997-01-24 18:00,ZGNN 241800Z AUTO 04004KT 14SM 08/04 A3016 RMK SLP204 T00810042 52002 IEM_DS3505
ZGNN,1997-01-24 21:00,ZGNN 242100Z AUTO 04002KT 12SM 07/03 A3015 RMK SLP209 T00740031 52004 IEM_DS3505
ZGNN,1997-01-25 00:00,ZGNN 250000Z AUTO 09002KT 11SM 08/03 A3021 RMK SLP225 T00770032 52016 IEM_DS3505
ZGNN,1997-01-25 01:00,ZGNN 250100Z AUTO 08006KT 7SM 08/03 A3021 RMK SLP222 T00800030 IEM_DS3505
ZGNN,1997-01-25 02:00,ZGNN 250200Z AUTO 05006KT 7SM 08/02 A3024 RMK SLP232 T00800020 IEM_DS3505
ZGNN,1997-01-25 03:00,ZGNN 250300Z AUTO 04002KT 11SM 10/02 A3024 RMK SLP242 T00960019 52017 IEM_DS3505
ZGNN,1997-01-25 04:00,ZGNN 250400Z AUTO 07006KT 6SM 11/02 A3024 RMK SLP231 T01100020 IEM_DS3505
ZGNN,1997-01-25 05:00,ZGNN 250500Z AUTO 03004KT 6SM 12/02 A3021 RMK SLP221 T01200020 IEM_DS3505
ZGNN,1997-01-25 06:00,ZGNN 250600Z AUTO 04004KT 12SM 13/03 A3018 RMK SLP213 T01270027 57028 IEM_DS3505
ZGNN,1997-01-25 07:00,ZGNN 250700Z AUTO 10004KT 6SM 13/03 A3015 RMK SLP200 T01300030 IEM_DS3505
ZGNN,1997-01-25 08:00,ZGNN 250800Z AUTO 00000KT 6SM 13/03 A3012 RMK SLP190 T01300030 IEM_DS3505
ZGNN,1997-01-25 09:00,ZGNN 250900Z AUTO 00000KT 12SM 14/04 A3012 RMK SLP201 T01390041 57012 IEM_DS3505
ZGNN,1997-01-25 10:00,ZGNN 251000Z AUTO 00000KT 6SM 13/03 A3015 RMK SLP200 T01300030 IEM_DS3505
ZGNN,1997-01-25 11:00,ZGNN 251100Z AUTO 00000KT 6SM 12/04 A3015 RMK SLP201 T01200040 IEM_DS3505
ZGNN,1997-01-25 12:00,ZGNN 251200Z AUTO 02002KT 12SM 13/05 A3018 RMK SLP217 T01260050 52016 IEM_DS3505
ZGNN,1997-01-25 13:00,ZGNN 251300Z AUTO 00000KT 6SM 12/07 A3018 RMK SLP211 T01200070 IEM_DS3505
ZGNN,1997-01-25 14:00,ZGNN 251400Z AUTO 00000KT 6SM 12/07 A3021 RMK SLP221 T01200070 IEM_DS3505
ZGNN,1997-01-25 15:00,ZGNN 251500Z AUTO 04002KT 12SM 12/06 A3024 RMK SLP230 T01190057 52013 IEM_DS3505
ZGNN,1997-01-25 18:00,ZGNN 251800Z AUTO 07002KT 9SM 12/06 A3023 RMK SLP229 T01150062 57001 IEM_DS3505
ZGNN,1997-01-25 21:00,ZGNN 252100Z AUTO 09002KT 11SM 11/05 A3021 RMK SLP222 T01120051 57007 IEM_DS3505
ZGNN,1997-01-25 22:00,ZGNN 252200Z AUTO 09004KT 7SM 11/04 A3021 RMK SLP221 T01100040 IEM_DS3505
ZGNN,1997-01-25 23:00,ZGNN 252300Z AUTO 00000KT 7SM 11/04 A3024 RMK SLP231 T01100040 IEM_DS3505
ZGNN,1997-01-26 00:00,ZGNN 260000Z AUTO 04002KT 9SM 11/04 A3024 RMK SLP236 T01070039 52014 IEM_DS3505
ZGNN,1997-01-26 01:00,ZGNN 260100Z AUTO 00000KT 7SM 11/04 A3027 RMK SLP242 T01100040 IEM_DS3505
ZGNN,1997-01-26 02:00,ZGNN 260200Z AUTO 00000KT 7SM 11/04 A3030 RMK SLP252 T01100040 IEM_DS3505
ZGNN,1997-01-26 03:00,ZGNN 260300Z AUTO 04002KT 9SM 12/05 A3027 RMK SLP247 T01220050 52011 IEM_DS3505
ZGNN,1997-01-26 04:00,ZGNN 260400Z AUTO 00000KT 7SM 13/05 A3027 RMK SLP242 T01300050 IEM_DS3505
ZGNN,1997-01-26 05:00,ZGNN 260500Z AUTO 36002KT 7SM 13/04 A3024 RMK SLP231 T01300040 IEM_DS3505
ZGNN,1997-01-26 06:00,ZGNN 260600Z AUTO 22002KT 11SM 14/05 A3021 RMK SLP221 T01410049 57026 IEM_DS3505
ZGNN,1997-01-26 07:00,ZGNN 260700Z AUTO 02002KT 7SM 14/05 A3018 RMK SLP210 T01400050 IEM_DS3505
ZGNN,1997-01-26 08:00,ZGNN 260800Z AUTO 03004KT 7SM 15/06 A3015 RMK SLP200 T01500060 IEM_DS3505
ZGNN,1997-01-26 09:00,ZGNN 260900Z AUTO 32002KT 11SM 15/06 A3015 RMK SLP208 T01480061 57012 IEM_DS3505
ZGNN,1997-01-26 10:00,ZGNN 261000Z AUTO 00000KT 5SM 14/05 A3015 RMK SLP200 T01400050 IEM_DS3505
ZGNN,1997-01-26 11:00,ZGNN 261100Z AUTO 00000KT 5SM 14/07 A3015 RMK SLP200 T01400070 IEM_DS3505
ZGNN,1997-01-26 12:00,ZGNN 261200Z AUTO 20002KT 10SM 14/08 A3018 RMK SLP212 T01410081 52003 IEM_DS3505
ZGNN,1997-01-26 13:00,ZGNN 261300Z AUTO 00000KT 7SM 13/09 A3021 RMK SLP220 T01300090 IEM_DS3505
ZGNN,1997-01-26 15:00,ZGNN 261500Z AUTO 00000KT 9SM 14/10 A3024 RMK SLP232 T01350104 52020 IEM_DS3505
ZGNN,1997-01-26 18:00,ZGNN 261800Z AUTO 00000KT 9SM 13/09 A3023 RMK SLP228 T01310092 57003 IEM_DS3505
ZGNN,1997-01-26 21:00,ZGNN 262100Z AUTO 00000KT 9SM 13/08 A3018 RMK SLP218 T01270085 57010 IEM_DS3505
ZGNN,1997-01-26 22:00,ZGNN 262200Z AUTO 00000KT 5SM 12/09 A3018 RMK SLP211 T01200090 IEM_DS3505
ZGNN,1997-01-26 23:00,ZGNN 262300Z AUTO 00000KT 4SM 12/09 A3021 RMK SLP221 T01200090 IEM_DS3505
ZGNN,1997-01-27 00:00,ZGNN 270000Z AUTO 00000KT 7SM 13/09 A3024 RMK SLP231 T01270091 52013 IEM_DS3505
ZGNN,1997-01-27 01:00,ZGNN 270100Z AUTO 02004KT 3SM 13/07 A3024 RMK SLP231 T01300070 IEM_DS3505
ZGNN,1997-01-27 02:00,ZGNN 270200Z AUTO 36004KT 4SM 13/07 A3027 RMK SLP242 T01300070 IEM_DS3505
ZGNN,1997-01-27 03:00,ZGNN 270300Z AUTO 34002KT 9SM 14/06 A3030 RMK SLP251 T01450062 52020 IEM_DS3505
ZGNN,1997-01-27 04:00,ZGNN 270400Z AUTO 35004KT 7SM 14/03 A3027 RMK SLP241 T01400030 IEM_DS3505
ZGNN,1997-01-27 05:00,ZGNN 270500Z AUTO 35006KT 7SM 15/04 A3024 RMK SLP230 T01500040 IEM_DS3505
ZGNN,1997-01-27 06:00,ZGNN 270600Z AUTO 36004KT 11SM 16/04 A3021 RMK SLP222 T01570044 57029 IEM_DS3505
ZGNN,1997-01-27 07:00,ZGNN 270700Z AUTO 35004KT 6SM 15/04 A3018 RMK SLP210 T01500040 IEM_DS3505
ZGNN,1997-01-27 08:00,ZGNN 270800Z AUTO 04006KT 6SM 16/03 A3015 RMK SLP199 T01600030 IEM_DS3505
ZGNN,1997-01-27 09:00,ZGNN 270900Z AUTO 36004KT 12SM 17/05 A3015 RMK SLP199 T01720052 57023 IEM_DS3505
ZGNN,1997-01-27 10:00,ZGNN 271000Z AUTO 00000KT 6SM 16/06 A3015 RMK SLP199 T01600060 IEM_DS3505
ZGNN,1997-01-27 11:00,ZGNN 271100Z AUTO 00000KT 6SM 14/07 A3015 RMK SLP200 T01400070 IEM_DS3505
ZGNN,1997-01-27 12:00,ZGNN 271200Z AUTO 00000KT 12SM 14/06 A3015 RMK SLP210 T01360065 52011 IEM_DS3505
ZGNN,1997-01-27 13:00,ZGNN 271300Z AUTO 00000KT 6SM 11/08 A3018 RMK SLP211 T01100080 IEM_DS3505
ZGNN,1997-01-27 15:00,ZGNN 271500Z AUTO 09002KT 9SM 10/08 A3021 RMK SLP220 T01050085 52009 IEM_DS3505
ZGNN,1997-01-27 18:00,ZGNN 271800Z AUTO 00000KT 9SM 10/08 A3020 RMK SLP218 T00970085 57002 IEM_DS3505
ZGNN,1997-01-27 21:00,ZGNN 272100Z AUTO 00000KT 4SM 09/08 A3015 RMK SLP202 T00870081 57015 IEM_DS3505
ZGNN,1997-01-27 22:00,ZGNN 272200Z AUTO 00000KT 4SM 06/05 A3012 RMK SLP192 T00600050 IEM_DS3505
ZGNN,1997-01-27 23:00,ZGNN 272300Z AUTO 00000KT 2SM 05/05 A3015 RMK SLP203 T00500050 IEM_DS3505
ZGNN,1997-01-28 00:00,ZGNN 280000Z AUTO 00000KT 2 1/2SM 08/08 A3018 RMK SLP217 T00850079 52014 IEM_DS3505
ZGNN,1997-01-28 01:00,ZGNN 280100Z AUTO 00000KT 1 1/4SM 09/07 A3021 RMK SLP222 T00900070 IEM_DS3505
ZGNN,1997-01-28 02:00,ZGNN 280200Z AUTO 00000KT 2SM 12/09 A3021 RMK SLP221 T01200090 IEM_DS3505
ZGNN,1997-01-28 03:00,ZGNN 280300Z AUTO 00000KT 2 1/2SM 15/09 A3021 RMK SLP225 T01460091 52008 IEM_DS3505
ZGNN,1997-01-28 04:00,ZGNN 280400Z AUTO 00000KT 6SM 17/05 A3018 RMK SLP209 T01700050 IEM_DS3505
ZGNN,1997-01-28 05:00,ZGNN 280500Z AUTO 12006KT 6SM 18/05 A3012 RMK SLP189 T01800050 IEM_DS3505
ZGNN,1997-01-28 06:00,ZGNN 280600Z AUTO 22004KT 11SM 19/06 A3009 RMK SLP186 T01890063 57038 IEM_DS3505
ZGNN,1997-01-28 07:00,ZGNN 280700Z AUTO 00000KT 6SM 20/04 A3006 RMK SLP168 T02000040 IEM_DS3505
ZGNN,1997-01-28 08:00,ZGNN 280800Z AUTO 14004KT 6SM 20/03 A3003 RMK SLP158 T02000030 IEM_DS3505
ZGNN,1997-01-28 09:00,ZGNN 280900Z AUTO 09002KT 11SM 20/06 A3003 RMK SLP160 T02030062 57026 IEM_DS3505
ZGNN,1997-01-28 10:00,ZGNN 281000Z AUTO 00000KT 6SM 19/07 A3000 RMK SLP148 T01900070 IEM_DS3505
ZGNN,1997-01-28 11:00,ZGNN 281100Z AUTO 00000KT 6SM 16/08 A3000 RMK SLP149 T01600080 IEM_DS3505
ZGNN,1997-01-28 12:00,ZGNN 281200Z AUTO 00000KT 9SM 14/10 A3003 RMK SLP163 T01430099 52002 IEM_DS3505
ZGNN,1997-01-28 13:00,ZGNN 281300Z AUTO 00000KT 6SM 12/11 A3003 RMK SLP160 T01200110 IEM_DS3505
ZGNN,1997-01-28 15:00,ZGNN 281500Z AUTO 09002KT 9SM 14/08 A3007 RMK SLP172 T01370083 52010 IEM_DS3505
ZGNN,1997-01-28 18:00,ZGNN 281800Z AUTO 04004KT 9SM 12/07 A3002 RMK SLP157 T01190074 57014 IEM_DS3505
ZGNN,1997-01-28 21:00,ZGNN 282100Z AUTO 04004KT 9SM 11/07 A3000 RMK SLP157 T01080073 54000 IEM_DS3505
ZGNN,1997-01-28 22:00,ZGNN 282200Z AUTO 02004KT 4SM 09/06 A3000 RMK SLP151 T00900060 IEM_DS3505
ZGNN,1997-01-28 23:00,ZGNN 282300Z AUTO 36004KT 4SM 09/06 A3003 RMK SLP161 T00900060 IEM_DS3505
ZGNN,1997-01-29 00:00,ZGNN 290000Z AUTO 04002KT 7SM 10/08 A3008 RMK SLP177 T01050078 52019 IEM_DS3505
ZGNN,1997-01-29 01:00,ZGNN 290100Z AUTO 01004KT 4SM 11/08 A3006 RMK SLP171 T01100080 IEM_DS3505
ZGNN,1997-01-29 02:00,ZGNN 290200Z AUTO 12002KT 4SM 15/09 A3009 RMK SLP179 T01500090 IEM_DS3505
ZGNN,1997-01-29 03:00,ZGNN 290300Z AUTO 18004KT 7SM 16/12 A3009 RMK SLP188 T01590117 52011 IEM_DS3505
ZGNN,1997-01-29 04:00,ZGNN 290400Z AUTO 15008KT 6SM 20/11 A3006 RMK SLP168 T02000110 IEM_DS3505
ZGNN,1997-01-29 05:00,ZGNN 290500Z AUTO 20008KT 7SM 20/11 A3003 RMK SLP158 T02000110 IEM_DS3505
ZGNN,1997-01-29 06:00,ZGNN 290600Z AUTO 18004KT 9SM 21/12 A2997 RMK SLP148 T02120122 57039 IEM_DS3505
ZGNN,1997-01-29 07:00,ZGNN 290700Z AUTO 13012KT 7SM 20/12 A2994 RMK SLP128 T02000120 IEM_DS3505
ZGNN,1997-01-29 09:00,ZGNN 290900Z AUTO 22004KT 9SM 21/13 A2991 RMK SLP122 T02110127 57026 IEM_DS3505
ZGNN,1997-01-29 10:00,ZGNN 291000Z AUTO 15006KT 6SM 20/13 A2991 RMK SLP117 T02000130 IEM_DS3505
ZGNN,1997-01-29 11:00,ZGNN 291100Z AUTO 00000KT 6SM 18/14 A2991 RMK SLP118 T01800140 IEM_DS3505
ZGNN,1997-01-29 12:00,ZGNN 291200Z AUTO 18004KT 9SM 18/14 A2991 RMK SLP122 T01820137 54000 IEM_DS3505
ZGNN,1997-01-29 13:00,ZGNN 291300Z AUTO 17006KT 6SM 16/14 A2991 RMK SLP119 T01600140 IEM_DS3505
ZGNN,1997-01-29 15:00,ZGNN 291500Z AUTO 20004KT 9SM 16/14 A2996 RMK SLP137 T01600137 52015 IEM_DS3505
ZGNN,1997-01-29 18:00,ZGNN 291800Z AUTO 00000KT 5SM 14/13 A2994 RMK SLP128 T01400129 57008 IEM_DS3505
ZGNN,1997-01-29 21:00,ZGNN 292100Z AUTO 04002KT 5SM 14/13 A2991 RMK SLP120 T01390130 57008 IEM_DS3505
ZGNN,1997-01-29 22:00,ZGNN 292200Z AUTO 00000KT 1/2SM 12/12 A2988 RMK SLP110 T01200120 IEM_DS3505
ZGNN,1997-01-29 23:00,ZGNN 292300Z AUTO 00000KT 1SM 13/12 A2991 RMK SLP120 T01300120 IEM_DS3505
ZGNN,1997-01-30 00:00,ZGNN 300000Z AUTO 04002KT 4SM 15/14 A2994 RMK SLP132 T01480137 52011 IEM_DS3505
ZGNN,1997-01-30 01:00,ZGNN 300100Z AUTO 36004KT 1 1/4SM 15/14 A2997 RMK SLP139 T01500140 IEM_DS3505
ZGNN,1997-01-30 02:00,ZGNN 300200Z AUTO 00000KT 1 1/4SM 16/14 A2997 RMK SLP139 T01600140 IEM_DS3505
ZGNN,1997-01-30 03:00,ZGNN 300300Z AUTO 18002KT 5SM 18/16 A2997 RMK SLP146 T01800155 52014 IEM_DS3505
ZGNN,1997-01-30 04:00,ZGNN 300400Z AUTO 13008KT 4SM 20/15 A2997 RMK SLP138 T02000150 IEM_DS3505
ZGNN,1997-01-30 05:00,ZGNN 300500Z AUTO 15006KT 7SM 22/15 A2991 RMK SLP117 T02200150 IEM_DS3505
ZGNN,1997-01-30 06:00,ZGNN 300600Z AUTO 00000KT 7SM 21/17 A2988 RMK SLP115 T02120168 57030 IEM_DS3505
ZGNN,1997-01-30 07:00,ZGNN 300700Z AUTO 11006KT 7SM 23/16 A2985 RMK SLP095 T02300160 IEM_DS3505
ZGNN,1997-01-30 08:00,ZGNN 300800Z AUTO 12008KT 7SM 23/16 A2985 RMK SLP095 T02300160 IEM_DS3505
ZGNN,1997-01-30 09:00,ZGNN 300900Z AUTO 04002KT 7SM 23/17 A2985 RMK SLP102 T02260166 57013 IEM_DS3505
ZGNN,1997-01-30 10:00,ZGNN 301000Z AUTO 15008KT 7SM 21/16 A2985 RMK SLP096 T02100160 IEM_DS3505
ZGNN,1997-01-30 11:00,ZGNN 301100Z AUTO 13006KT 7SM 19/16 A2988 RMK SLP108 T01900160 IEM_DS3505
ZGNN,1997-01-30 12:00,ZGNN 301200Z AUTO 00000KT 7SM 20/17 A2988 RMK SLP116 T01980167 52014 IEM_DS3505
ZGNN,1997-01-30 13:00,ZGNN 301300Z AUTO 15004KT 7SM 18/17 A2991 RMK SLP118 T01800170 IEM_DS3505
ZGNN,1997-01-30 15:00,ZGNN 301500Z AUTO 00000KT 7SM 18/17 A2996 RMK SLP135 T01830166 52019 IEM_DS3505
ZGNN,1997-01-30 18:00,ZGNN 301800Z AUTO 09002KT 6SM 17/16 A2996 RMK SLP135 T01700158 54000 IEM_DS3505
ZGNN,1997-01-30 21:00,ZGNN 302100Z AUTO 04002KT 5SM 17/16 A2991 RMK SLP126 T01720159 57009 IEM_DS3505
ZGNN,1997-01-30 22:00,ZGNN 302200Z AUTO 04004KT 1SM 15/15 A2994 RMK SLP129 T01500150 IEM_DS3505
ZGNN,1997-01-30 23:00,ZGNN 302300Z AUTO 02004KT 1/4SM 14/14 A2994 RMK SLP129 T01400140 IEM_DS3505
ZGNN,1997-01-31 00:00,ZGNN 310000Z AUTO 04002KT 5SM 16/16 A2997 RMK SLP145 T01650155 52019 IEM_DS3505
ZGNN,1997-01-31 01:00,ZGNN 310100Z AUTO 00000KT 1SM 16/15 A3000 RMK SLP149 T01600150 IEM_DS3505
ZGNN,1997-01-31 02:00,ZGNN 310200Z AUTO 18004KT 1 1/4SM 17/16 A3003 RMK SLP159 T01700160 IEM_DS3505
ZGNN,1997-01-31 03:00,ZGNN 310300Z AUTO 16002KT 5SM 18/16 A3003 RMK SLP161 T01830160 52016 IEM_DS3505
ZGNN,1997-01-31 04:00,ZGNN 310400Z AUTO 14006KT 5SM 21/16 A3003 RMK SLP158 T02100160 IEM_DS3505
ZGNN,1997-01-31 05:00,ZGNN 310500Z AUTO 14008KT 6SM 22/16 A2997 RMK SLP137 T02200160 IEM_DS3505
ZGNN,1997-01-31 08:00,ZGNN 310800Z AUTO 16012KT 6SM 23/15 A2991 RMK SLP117 T02300150 IEM_DS3505
ZGNN,1997-01-31 09:00,ZGNN 310900Z AUTO 14012KT 6SM 22/15 A2991 RMK SLP117 T02200150 IEM_DS3505
ZGNN,1997-01-31 10:00,ZGNN 311000Z AUTO 16012KT 6SM 21/15 A2991 RMK SLP117 T02100150 IEM_DS3505
ZGNN,1997-01-31 11:00,ZGNN 311100Z AUTO 17006KT 6SM 20/15 A2991 RMK SLP117 T02000150 IEM_DS3505
ZGNN,1997-01-31 12:00,ZGNN 311200Z AUTO 00000KT 9SM 20/16 A2994 RMK SLP127 T02000158 52008 IEM_DS3505
ZGNN,1997-01-31 13:00,ZGNN 311300Z AUTO 18002KT 6SM 17/15 A2994 RMK SLP128 T01700150 IEM_DS3505
ZGNN,1997-01-31 14:00,ZGNN 311400Z AUTO 24004KT 6SM 18/15 A2994 RMK SLP128 T01800150 IEM_DS3505
ZGNN,1997-01-31 15:00,ZGNN 311500Z AUTO 04002KT 9SM 17/16 A2997 RMK SLP139 T01730158 52012 IEM_DS3505
ZGNN,1997-01-31 18:00,ZGNN 311800Z AUTO 09002KT 9SM A2996 RMK SLP136 57003 IEM_DS3505
ZGNN,1997-01-31 21:00,ZGNN 312100Z AUTO 27004KT 9SM 18/17 A2994 RMK SLP128 T01840171 57007 IEM_DS3505
ZGNN,1997-01-31 22:00,ZGNN 312200Z AUTO 13002KT 3SM 18/17 A2994 RMK SLP128 T01800170 IEM_DS3505
ZGNN,1997-01-31 23:00,ZGNN 312300Z AUTO 14004KT 2 1/2SM 18/17 A2997 RMK SLP138 T01800170 IEM_DS3505
ZGNN,1997-02-01 00:00,ZGNN 010000Z AUTO 18002KT 9SM 19/17 A2997 RMK SLP142 T01870171 52013 IEM_DS3505
ZGNN,1997-02-01 02:00,ZGNN 010200Z AUTO 15014KT 5SM 20/17 A3000 RMK SLP148 T02000170 IEM_DS3505
ZGNN,1997-02-01 03:00,ZGNN 010300Z AUTO 16004KT 9SM 21/17 A3000 RMK SLP156 T02090170 52014 IEM_DS3505
ZGNN,1997-02-01 04:00,ZGNN 010400Z AUTO 15010KT 7SM 22/17 A2997 RMK SLP137 T02200170 IEM_DS3505
ZGNN,1997-02-01 05:00,ZGNN 010500Z AUTO 16012KT 7SM 23/17 A2994 RMK SLP127 T02300170 IEM_DS3505
ZGNN,1997-02-01 06:00,ZGNN 010600Z AUTO 15014KT 7SM 23/17 A2991 RMK SLP117 T02300170 IEM_DS3505
ZGNN,1997-02-01 07:00,ZGNN 010700Z AUTO 17012KT 7SM 24/16 A2985 RMK SLP095 T02400160 IEM_DS3505
ZGNN,1997-02-01 09:00,ZGNN 010900Z AUTO 32002KT 16SM 25/16 A2983 RMK SLP100 T02460160 57022 IEM_DS3505
ZGNN,1997-02-01 10:00,ZGNN 011000Z AUTO 16010KT 7SM 23/16 A2985 RMK SLP095 T02300160 IEM_DS3505
ZGNN,1997-02-01 11:00,ZGNN 011100Z AUTO 14006KT 7SM 22/16 A2985 RMK SLP096 T02200160 IEM_DS3505
ZGNN,1997-02-01 12:00,ZGNN 011200Z AUTO 15004KT 6SM 20/16 A2988 RMK SLP107 T02000160 IEM_DS3505
ZGNN,1997-02-01 13:00,ZGNN 011300Z AUTO 14008KT 7SM 20/16 A2988 RMK SLP107 T02000160 IEM_DS3505
ZGNN,1997-02-01 14:00,ZGNN 011400Z AUTO 18004KT 7SM 20/16 A2988 RMK SLP107 T02000160 IEM_DS3505
ZGNN,1997-02-01 15:00,ZGNN 011500Z AUTO 16002KT 17SM 20/17 A2991 RMK SLP115 T02040166 52008 IEM_DS3505
ZGNN,1997-02-01 18:00,ZGNN 011800Z AUTO 00000KT 16SM 20/16 A2989 RMK SLP111 T01950164 57004 IEM_DS3505
ZGNN,1997-02-01 21:00,ZGNN 012100Z AUTO 00000KT 12SM 18/16 A2986 RMK SLP100 T01830165 57011 IEM_DS3505
ZGNN,1997-02-01 22:00,ZGNN 012200Z AUTO 00000KT 4SM 17/16 A2985 RMK SLP097 T01700160 IEM_DS3505
ZGNN,1997-02-01 23:00,ZGNN 012300Z AUTO 00000KT 2 1/2SM 16/15 A2988 RMK SLP109 T01600150 IEM_DS3505
ZGNN,1997-02-02 00:00,ZGNN 020000Z AUTO 00000KT 1 1/4SM 15/15 A2988 RMK SLP109 T01500150 IEM_DS3505
ZGNN,1997-02-02 01:00,ZGNN 020100Z AUTO 00000KT 1 1/4SM 18/16 A2991 RMK SLP118 T01800160 IEM_DS3505
ZGNN,1997-02-02 02:00,ZGNN 020200Z AUTO 00000KT 6SM 19/17 A2991 RMK SLP118 T01900170 IEM_DS3505
ZGNN,1997-02-02 03:00,ZGNN 020300Z AUTO 04004KT 12SM 22/17 A2991 RMK SLP118 T02220174 52003 IEM_DS3505
ZGNN,1997-02-02 05:00,ZGNN 020500Z AUTO 00000KT 7SM 24/16 A2985 RMK SLP095 T02400160 IEM_DS3505
ZGNN,1997-02-02 06:00,ZGNN 020600Z AUTO 04006KT 12SM 23/17 A2983 RMK SLP096 T02290171 57022 IEM_DS3505
ZGNN,1997-02-02 07:00,ZGNN 020700Z AUTO 13006KT 7SM 25/17 A2980 RMK SLP079 T02500170 IEM_DS3505
ZGNN,1997-02-02 08:00,ZGNN 020800Z AUTO 09012KT 7SM 23/17 A2980 RMK SLP079 T02300170 IEM_DS3505
ZGNN,1997-02-02 09:00,ZGNN 020900Z AUTO 04008KT 12SM 19/13 A2980 RMK SLP094 T01860130 57003 IEM_DS3505
ZGNN,1997-02-02 10:00,ZGNN 021000Z AUTO 07012KT 7SM 21/14 A2983 RMK SLP090 T02100140 IEM_DS3505
ZGNN,1997-02-02 11:00,ZGNN 021100Z AUTO 07012KT 7SM 18/12 A2983 RMK SLP091 T01800120 IEM_DS3505
ZGNN,1997-02-02 12:00,ZGNN 021200Z AUTO 09008KT 12SM 15/10 A2985 RMK SLP112 T01510104 52017 IEM_DS3505
ZGNN,1997-02-02 13:00,ZGNN 021300Z AUTO 06012KT 7SM 15/10 A2988 RMK SLP109 T01500100 IEM_DS3505
ZGNN,1997-02-02 14:00,ZGNN 021400Z AUTO 06008KT 7SM 15/11 A2991 RMK SLP119 T01500110 IEM_DS3505
ZGNN,1997-02-02 15:00,ZGNN 021500Z AUTO 04006KT 12SM 14/10 A2995 RMK SLP132 T01390099 52021 IEM_DS3505
ZGNN,1997-02-02 18:00,ZGNN 021800Z AUTO 04006KT 12SM 13/09 A2995 RMK SLP131 T01260088 57001 IEM_DS3505
ZGNN,1997-02-02 21:00,ZGNN 022100Z AUTO 04006KT 11SM 11/08 A2991 RMK SLP135 T01070085 52003 IEM_DS3505
ZGNN,1997-02-02 22:00,ZGNN 022200Z AUTO 04008KT 7SM 10/09 A2994 RMK SLP131 T01000090 IEM_DS3505
ZGNN,1997-02-02 23:00,ZGNN 022300Z AUTO 04006KT 7SM 10/09 A2997 RMK SLP141 T01000090 IEM_DS3505
ZGNN,1997-02-03 00:00,ZGNN 030000Z AUTO 04006KT 12SM 10/07 A3000 RMK SLP153 T01050069 52017 IEM_DS3505
ZGNN,1997-02-03 01:00,ZGNN 030100Z AUTO 06006KT 6SM 09/08 A3000 RMK SLP151 T00900080 IEM_DS3505
ZGNN,1997-02-03 02:00,ZGNN 030200Z AUTO 04006KT 6SM 09/08 A3003 RMK SLP161 T00900080 IEM_DS3505
ZGNN,1997-02-03 03:00,ZGNN 030300Z AUTO 09004KT 9SM 10/08 A3003 RMK SLP176 T00980077 52023 IEM_DS3505
ZGNN,1997-02-03 04:00,ZGNN 030400Z AUTO 06006KT 6SM 10/08 A3003 RMK SLP161 T01000080 IEM_DS3505
ZGNN,1997-02-03 05:00,ZGNN 030500Z AUTO 07006KT 1 1/4SM 09/09 A3003 RMK SLP161 T00900090 IEM_DS3505
ZGNN,1997-02-03 06:00,ZGNN 030600Z AUTO 04002KT 9SM 10/08 A3000 RMK SLP158 T01010080 57018 IEM_DS3505
ZGNN,1997-02-03 07:00,ZGNN 030700Z AUTO 08002KT 1 1/4SM 10/09 A2997 RMK SLP141 T01000090 IEM_DS3505
ZGNN,1997-02-03 08:00,ZGNN 030800Z AUTO 08006KT 2SM 10/09 A2997 RMK SLP141 T01000090 IEM_DS3505
ZGNN,1997-02-03 09:00,ZGNN 030900Z AUTO 09004KT 9SM 11/07 A2997 RMK SLP154 T01090074 57005 IEM_DS3505
ZGNN,1997-02-03 10:00,ZGNN 031000Z AUTO 07004KT 3SM 10/09 A3000 RMK SLP151 T01000090 IEM_DS3505
ZGNN,1997-02-03 11:00,ZGNN 031100Z AUTO 07006KT 4SM 09/08 A3000 RMK SLP151 T00900080 IEM_DS3505
ZGNN,1997-02-03 12:00,ZGNN 031200Z AUTO 04004KT 9SM 10/07 A3003 RMK SLP170 T01040068 52016 IEM_DS3505
ZGNN,1997-02-03 13:00,ZGNN 031300Z AUTO 06006KT 7SM 09/08 A3006 RMK SLP171 T00900080 IEM_DS3505
ZGNN,1997-02-03 14:00,ZGNN 031400Z AUTO 06006KT 7SM 10/08 A3009 RMK SLP181 T01000080 IEM_DS3505
ZGNN,1997-02-03 15:00,ZGNN 031500Z AUTO 04004KT 9SM 10/08 A3011 RMK SLP189 T00980082 52019 IEM_DS3505
ZGNN,1997-02-03 18:00,ZGNN 031800Z AUTO 04004KT 9SM 09/08 A3012 RMK SLP190 T00940082 52001 IEM_DS3505
ZGNN,1997-02-03 21:00,ZGNN 032100Z AUTO 09002KT 7SM 09/08 A3008 RMK SLP179 T00920077 57011 IEM_DS3505
ZGNN,1997-02-03 22:00,ZGNN 032200Z AUTO 35006KT 7SM 09/07 A3009 RMK SLP181 T00900070 IEM_DS3505
ZGNN,1997-02-03 23:00,ZGNN 032300Z AUTO 02004KT 7SM 09/07 A3009 RMK SLP181 T00900070 IEM_DS3505
ZGNN,1997-02-04 00:00,ZGNN 040000Z AUTO 09002KT 11SM 09/07 A3012 RMK SLP198 T00910070 52019 IEM_DS3505
ZGNN,1997-02-04 01:00,ZGNN 040100Z AUTO 07004KT 5SM 09/08 A3012 RMK SLP191 T00900080 IEM_DS3505
ZGNN,1997-02-04 02:00,ZGNN 040200Z AUTO 06006KT 6SM 09/07 A3015 RMK SLP202 T00900070 IEM_DS3505
ZGNN,1997-02-04 03:00,ZGNN 040300Z AUTO 04002KT 11SM 10/06 A3015 RMK SLP208 T01010065 52010 IEM_DS3505
ZGNN,1997-02-04 04:00,ZGNN 040400Z AUTO 08006KT 7SM 10/07 A3012 RMK SLP191 T01000070 IEM_DS3505
ZGNN,1997-02-04 05:00,ZGNN 040500Z AUTO 09004KT 7SM 10/07 A3012 RMK SLP191 T01000070 IEM_DS3505
ZGNN,1997-02-04 06:00,ZGNN 040600Z AUTO 04002KT 14SM 12/07 A3006 RMK SLP183 T01170069 57025 IEM_DS3505
ZGNN,1997-02-04 07:00,ZGNN 040700Z AUTO 02006KT 7SM 11/07 A3006 RMK SLP171 T01100070 IEM_DS3505
ZGNN,1997-02-04 08:00,ZGNN 040800Z AUTO 03006KT 7SM 11/07 A3003 RMK SLP161 T01100070 IEM_DS3505
ZGNN,1997-02-04 09:00,ZGNN 040900Z AUTO 04006KT 14SM 11/06 A3006 RMK SLP177 T01110062 57006 IEM_DS3505
ZGNN,1997-02-04 10:00,ZGNN 041000Z AUTO 06006KT 7SM 11/08 A3006 RMK SLP171 T01100080 IEM_DS3505
ZGNN,1997-02-04 11:00,ZGNN 041100Z AUTO 05008KT 7SM 10/07 A3009 RMK SLP181 T01000070 IEM_DS3505
ZGNN,1997-02-04 12:00,ZGNN 041200Z AUTO 04006KT 12SM 10/06 A3012 RMK SLP196 T01000064 52019 IEM_DS3505
ZGNN,1997-02-04 13:00,ZGNN 041300Z AUTO 06004KT 7SM 09/07 A3015 RMK SLP202 T00900070 IEM_DS3505
ZGNN,1997-02-04 14:00,ZGNN 041400Z AUTO 05008KT 7SM 09/07 A3015 RMK SLP202 T00900070 IEM_DS3505
ZGNN,1997-02-04 15:00,ZGNN 041500Z AUTO 36004KT 11SM 10/06 A3015 RMK SLP208 T00970065 52012 IEM_DS3505
ZGNN,1997-02-04 18:00,ZGNN 041800Z AUTO 00000KT 9SM 09/06 A3016 RMK SLP206 T00920064 57002 IEM_DS3505
ZGNN,1997-02-04 21:00,ZGNN 042100Z AUTO 00000KT 6SM 09/08 A3012 RMK SLP204 T00860078 57002 IEM_DS3505
ZGNN,1997-02-04 22:00,ZGNN 042200Z AUTO 33008KT 4SM 08/07 A3012 RMK SLP192 T00800070 IEM_DS3505
ZGNN,1997-02-04 23:00,ZGNN 042300Z AUTO 01004KT 4SM 08/07 A3012 RMK SLP192 T00800070 IEM_DS3505
ZGNN,1997-02-05 00:00,ZGNN 050000Z AUTO 14002KT 5SM 08/07 A3015 RMK 60001 70001 SLP208 T00790073 52003 IEM_DS3505
ZGNN,1997-02-05 01:00,ZGNN 050100Z AUTO 01004KT 2 1/2SM 09/07 A3018 RMK SLP212 T00900070 IEM_DS3505
ZGNN,1997-02-05 02:00,ZGNN 050200Z AUTO 06004KT 1 1/4SM 08/08 A3021 RMK SLP222 T00800080 IEM_DS3505
ZGNN,1997-02-05 03:00,ZGNN 050300Z AUTO 34002KT 9SM 09/07 A3021 RMK SLP228 T00910072 52020 IEM_DS3505
ZGNN,1997-02-05 04:00,ZGNN 050400Z AUTO 02004KT 4SM 09/07 A3021 RMK SLP222 T00900070 IEM_DS3505
ZGNN,1997-02-05 05:00,ZGNN 050500Z AUTO 01008KT 4SM 09/07 A3018 RMK SLP212 T00900070 IEM_DS3505
ZGNN,1997-02-05 06:00,ZGNN 050600Z AUTO 04004KT 9SM 10/07 A3015 RMK SLP207 T00950067 57021 IEM_DS3505
ZGNN,1997-02-05 07:00,ZGNN 050700Z AUTO 01008KT 6SM 09/07 A3012 RMK SLP191 T00900070 IEM_DS3505
ZGNN,1997-02-05 08:00,ZGNN 050800Z AUTO 04004KT 6SM 09/07 A3009 RMK SLP181 T00900070 IEM_DS3505
ZGNN,1997-02-05 09:00,ZGNN 050900Z AUTO 04002KT 7SM 09/07 A3009 RMK SLP194 T00890070 57013 IEM_DS3505
ZGNN,1997-02-05 10:00,ZGNN 051000Z AUTO 04006KT 3SM 09/07 A3009 RMK SLP181 T00900070 IEM_DS3505
ZGNN,1997-02-05 11:00,ZGNN 051100Z AUTO 07004KT 2 1/2SM 08/07 A3012 RMK SLP192 T00800070 IEM_DS3505
ZGNN,1997-02-05 12:00,ZGNN 051200Z AUTO 04002KT 9SM 09/07 A3012 RMK 60002 SLP198 T00880066 52004 IEM_DS3505
ZGNN,1997-02-05 13:00,ZGNN 051300Z AUTO 06004KT 6SM 08/07 A3012 RMK SLP192 T00800070 IEM_DS3505
ZGNN,1997-02-05 15:00,ZGNN 051500Z AUTO 00000KT 7SM 09/07 A3017 RMK SLP208 T00860067 52010 IEM_DS3505
ZGNN,1997-02-05 18:00,ZGNN 051800Z AUTO 09002KT 6SM 08/07 A3019 RMK 60002 SLP214 T00800074 52006 IEM_DS3505
ZGNN,1997-02-05 21:00,ZGNN 052100Z AUTO 09002KT 6SM 08/07 A3012 RMK 70008 SLP198 T00760072 57016 IEM_DS3505
ZGNN,1997-02-05 22:00,ZGNN 052200Z AUTO 36004KT 2SM 08/07 A3012 RMK SLP192 T00800070 IEM_DS3505
ZGNN,1997-02-05 23:00,ZGNN 052300Z AUTO 35004KT 2SM 08/07 A3012 RMK SLP192 T00800070 IEM_DS3505
ZGNN,1997-02-06 00:00,ZGNN 060000Z AUTO 04002KT 4SM 07/07 A3015 RMK 60004 70008 SLP205 T00730069 52007 IEM_DS3505
ZGNN,1997-02-06 02:00,ZGNN 060200Z AUTO 35004KT 1 1/2SM 08/07 A3018 RMK SLP212 T00800070 IEM_DS3505
ZGNN,1997-02-06 03:00,ZGNN 060300Z AUTO 04002KT 6SM 08/07 A3018 RMK SLP221 T00800067 52016 IEM_DS3505
ZGNN,1997-02-06 04:00,ZGNN 060400Z AUTO 35006KT 4SM 08/07 A3015 RMK SLP202 T00800070 IEM_DS3505
ZGNN,1997-02-06 06:00,ZGNN 060600Z AUTO 04002KT 9SM 09/07 A3009 RMK 60000 SLP190 T00930070 57031 IEM_DS3505
ZGNN,1997-02-06 07:00,ZGNN 060700Z AUTO 01004KT 2 1/2SM 08/07 A3006 RMK SLP172 T00800070 IEM_DS3505
ZGNN,1997-02-06 08:00,ZGNN 060800Z AUTO 02004KT 5SM 08/07 A3006 RMK SLP172 T00800070 IEM_DS3505
ZGNN,1997-02-06 09:00,ZGNN 060900Z AUTO 04002KT 9SM 08/07 A3003 RMK SLP174 T00850070 57016 IEM_DS3505
ZGNN,1997-02-06 10:00,ZGNN 061000Z AUTO 36004KT 2SM 08/07 A3003 RMK SLP162 T00800070 IEM_DS3505
ZGNN,1997-02-06 11:00,ZGNN 061100Z AUTO 00000KT 1 1/4SM 08/07 A3006 RMK SLP172 T00800070 IEM_DS3505
ZGNN,1997-02-06 12:00,ZGNN 061200Z AUTO 04004KT 7SM 08/07 A3006 RMK SLP177 T00800069 52003 IEM_DS3505
ZGNN,1997-02-06 15:00,ZGNN 061500Z AUTO 09002KT 4SM 08/07 A3012 RMK SLP193 T00780072 52016 IEM_DS3505
ZGNN,1997-02-06 18:00,ZGNN 061800Z AUTO 04002KT 4SM 08/07 A3011 RMK 60002 SLP190 T00810072 57003 IEM_DS3505
ZGNN,1997-02-06 21:00,ZGNN 062100Z AUTO 00000KT 12SM 08/07 A3007 RMK 70008 SLP176 T00810072 57014 IEM_DS3505
ZGNN,1997-02-06 22:00,ZGNN 062200Z AUTO 33004KT 1 1/2SM 08/07 A3006 RMK SLP172 T00800070 IEM_DS3505
ZGNN,1997-02-06 23:00,ZGNN 062300Z AUTO 34006KT 3SM 08/07 A3006 RMK SLP172 T00800070 IEM_DS3505
ZGNN,1997-02-07 00:00,ZGNN 070000Z AUTO 32002KT 12SM 08/07 A3009 RMK 60000 70004 SLP188 T00790073 52012 IEM_DS3505
ZGNN,1997-02-07 01:00,ZGNN 070100Z AUTO 02002KT 7SM 08/07 A3009 RMK SLP182 T00800070 IEM_DS3505
ZGNN,1997-02-07 02:00,ZGNN 070200Z AUTO 33006KT 7SM 09/07 A3012 RMK SLP191 T00900070 IEM_DS3505
ZGNN,1997-02-07 03:00,ZGNN 070300Z AUTO 04002KT 14SM 10/07 A3012 RMK SLP199 T00950067 52011 IEM_DS3505
ZGNN,1997-02-07 04:00,ZGNN 070400Z AUTO 32006KT 7SM 10/06 A3009 RMK SLP181 T01000060 IEM_DS3505
ZGNN,1997-02-07 05:00,ZGNN 070500Z AUTO 01006KT 7SM 10/06 A3009 RMK SLP181 T01000060 IEM_DS3505
ZGNN,1997-02-07 06:00,ZGNN 070600Z AUTO 00000KT 16SM 11/07 A3003 RMK 60000 SLP171 T01090074 57027 IEM_DS3505
ZGNN,1997-02-07 07:00,ZGNN 070700Z AUTO 04002KT 7SM 11/07 A3000 RMK SLP150 T01100070 IEM_DS3505
ZGNN,1997-02-07 08:00,ZGNN 070800Z AUTO 07006KT 7SM 12/07 A2997 RMK SLP140 T01200070 IEM_DS3505
ZGNN,1997-02-07 09:00,ZGNN 070900Z AUTO 00000KT 16SM 12/07 A2994 RMK SLP144 T01210074 57027 IEM_DS3505
ZGNN,1997-02-07 10:00,ZGNN 071000Z AUTO 06004KT 7SM 12/07 A2994 RMK SLP130 T01200070 IEM_DS3505
ZGNN,1997-02-07 11:00,ZGNN 071100Z AUTO 05002KT 7SM 11/08 A2997 RMK SLP140 T01100080 IEM_DS3505
ZGNN,1997-02-07 12:00,ZGNN 071200Z AUTO 36002KT 12SM 11/06 A2997 RMK SLP149 T01130064 52005 IEM_DS3505
ZGNN,1997-02-07 15:00,ZGNN 071500Z AUTO 04002KT 12SM 11/07 A3004 RMK SLP163 T01090067 52014 IEM_DS3505
ZGNN,1997-02-07 18:00,ZGNN 071800Z AUTO 00000KT 12SM 10/06 A3003 RMK SLP162 T01030065 57001 IEM_DS3505
ZGNN,1997-02-07 21:00,ZGNN 072100Z AUTO 04002KT 16SM 10/06 A2999 RMK 70001 SLP148 T00980061 57014 IEM_DS3505
ZGNN,1997-02-07 22:00,ZGNN 072200Z AUTO 06004KT 7SM 09/06 A2997 RMK SLP141 T00900060 IEM_DS3505
ZGNN,1997-02-07 23:00,ZGNN 072300Z AUTO 06006KT 7SM 09/06 A3000 RMK SLP151 T00900060 IEM_DS3505
ZGNN,1997-02-08 00:00,ZGNN 080000Z AUTO 09002KT 14SM 10/06 A3000 RMK SLP160 T00950063 52012 IEM_DS3505
ZGNN,1997-02-08 01:00,ZGNN 080100Z AUTO 08004KT 7SM 10/06 A3003 RMK SLP161 T01000060 IEM_DS3505
ZGNN,1997-02-08 02:00,ZGNN 080200Z AUTO 07006KT 7SM 10/06 A3003 RMK SLP161 T01000060 IEM_DS3505
ZGNN,1997-02-08 03:00,ZGNN 080300Z AUTO 00000KT 16SM 11/06 A3006 RMK SLP174 T01110057 52014 IEM_DS3505
ZGNN,1997-02-08 04:00,ZGNN 080400Z AUTO 07004KT 7SM 11/06 A3006 RMK SLP171 T01100060 IEM_DS3505
ZGNN,1997-02-08 05:00,ZGNN 080500Z AUTO 06002KT 7SM 12/05 A3003 RMK SLP160 T01200050 IEM_DS3505
ZGNN,1997-02-08 06:00,ZGNN 080600Z AUTO 36004KT 16SM 13/07 A2997 RMK SLP148 T01300066 57025 IEM_DS3505
ZGNN,1997-02-08 08:00,ZGNN 080800Z AUTO 35004KT 7SM 14/07 A2991 RMK SLP119 T01400070 IEM_DS3505
ZGNN,1997-02-08 09:00,ZGNN 080900Z AUTO 32004KT 16SM 14/08 A2991 RMK SLP127 T01400075 57021 IEM_DS3505
ZGNN,1997-02-08 10:00,ZGNN 081000Z AUTO 04006KT 7SM 13/06 A2991 RMK SLP120 T01300060 IEM_DS3505
ZGNN,1997-02-08 11:00,ZGNN 081100Z AUTO 35002KT 7SM 13/07 A2994 RMK SLP130 T01300070 IEM_DS3505
ZGNN,1997-02-08 12:00,ZGNN 081200Z AUTO 00000KT 16SM 14/09 A2994 RMK SLP136 T01350088 52009 IEM_DS3505
ZGNN,1997-02-08 13:00,ZGNN 081300Z AUTO 00000KT 7SM 13/08 A2997 RMK SLP140 T01300080 IEM_DS3505
ZGNN,1997-02-08 15:00,ZGNN 081500Z AUTO 34002KT 12SM 13/08 A3001 RMK SLP154 T01330081 52018 IEM_DS3505
ZGNN,1997-02-08 18:00,ZGNN 081800Z AUTO 09006KT 11SM 13/06 A3001 RMK SLP152 T01270062 57002 IEM_DS3505
ZGNN,1997-02-08 21:00,ZGNN 082100Z AUTO 04004KT 12SM 11/06 A2999 RMK SLP148 T01140058 57004 IEM_DS3505
ZGNN,1997-02-08 22:00,ZGNN 082200Z AUTO 07006KT 7SM 11/06 A2997 RMK SLP140 T01100060 IEM_DS3505
ZGNN,1997-02-08 23:00,ZGNN 082300Z AUTO 07004KT 7SM 11/06 A3000 RMK SLP150 T01100060 IEM_DS3505
ZGNN,1997-02-09 00:00,ZGNN 090000Z AUTO 04004KT 12SM 11/06 A3003 RMK SLP162 T01090060 52014 IEM_DS3505
ZGNN,1997-02-09 01:00,ZGNN 090100Z AUTO 06006KT 7SM 11/05 A3003 RMK SLP161 T01100050 IEM_DS3505
ZGNN,1997-02-09 02:00,ZGNN 090200Z AUTO 06006KT 7SM 11/05 A3006 RMK SLP171 T01100050 IEM_DS3505
ZGNN,1997-02-09 03:00,ZGNN 090300Z AUTO 09004KT 12SM 12/06 A3009 RMK SLP182 T01230057 52020 IEM_DS3505
ZGNN,1997-02-09 04:00,ZGNN 090400Z AUTO 04004KT 7SM 13/06 A3006 RMK SLP170 T01300060 IEM_DS3505
ZGNN,1997-02-09 06:00,ZGNN 090600Z AUTO 00000KT 19SM 15/07 A3000 RMK SLP151 T01480066 57031 IEM_DS3505
ZGNN,1997-02-09 07:00,ZGNN 090700Z AUTO 03006KT 7SM 15/06 A2994 RMK SLP129 T01500060 IEM_DS3505
ZGNN,1997-02-09 08:00,ZGNN 090800Z AUTO 05004KT 7SM 15/06 A2994 RMK SLP129 T01500060 IEM_DS3505
ZGNN,1997-02-09 09:00,ZGNN 090900Z AUTO 00000KT 16SM 15/06 A2994 RMK SLP133 T01540064 57018 IEM_DS3505
ZGNN,1997-02-09 10:00,ZGNN 091000Z AUTO 00000KT 7SM 14/07 A2994 RMK SLP129 T01400070 IEM_DS3505
ZGNN,1997-02-09 11:00,ZGNN 091100Z AUTO 09004KT 7SM 14/07 A2994 RMK SLP129 T01400070 IEM_DS3505
ZGNN,1997-02-09 12:00,ZGNN 091200Z AUTO 09004KT 12SM 14/07 A2997 RMK SLP147 T01400066 52014 IEM_DS3505
ZGNN,1997-02-09 15:00,ZGNN 091500Z AUTO 36002KT 12SM 13/08 A3007 RMK SLP172 T01340075 52025 IEM_DS3505
ZGNN,1997-02-09 18:00,ZGNN 091800Z AUTO 04004KT 12SM 12/07 A3007 RMK SLP173 T01250069 52001 IEM_DS3505
ZGNN,1997-02-09 21:00,ZGNN 092100Z AUTO 32002KT 11SM 12/08 A3006 RMK SLP169 T01150076 57004 IEM_DS3505
ZGNN,1997-02-09 22:00,ZGNN 092200Z AUTO 33006KT 7SM 11/08 A3006 RMK SLP171 T01100080 IEM_DS3505
ZGNN,1997-02-09 23:00,ZGNN 092300Z AUTO 33004KT 7SM 11/07 A3006 RMK SLP171 T01100070 IEM_DS3505
ZGNN,1997-02-10 00:00,ZGNN 100000Z AUTO 34004KT 11SM 11/08 A3009 RMK SLP186 T01130080 52017 IEM_DS3505
ZGNN,1997-02-10 01:00,ZGNN 100100Z AUTO 34004KT 7SM 11/08 A3012 RMK SLP191 T01100080 IEM_DS3505
ZGNN,1997-02-10 02:00,ZGNN 100200Z AUTO 33006KT 7SM 11/08 A3012 RMK SLP191 T01100080 IEM_DS3505
ZGNN,1997-02-10 03:00,ZGNN 100300Z AUTO 04006KT 12SM 13/08 A3015 RMK SLP198 T01270078 52012 IEM_DS3505
ZGNN,1997-02-10 04:00,ZGNN 100400Z AUTO 33008KT 7SM 13/09 A3012 RMK SLP190 T01300090 IEM_DS3505
ZGNN,1997-02-10 05:00,ZGNN 100500Z AUTO 34006KT 7SM 13/07 A3009 RMK SLP180 T01300070 IEM_DS3505
ZGNN,1997-02-10 06:00,ZGNN 100600Z AUTO 14002KT 14SM 14/08 A3006 RMK SLP173 T01430079 57025 IEM_DS3505
ZGNN,1997-02-10 07:00,ZGNN 100700Z AUTO 35008KT 7SM 14/07 A3003 RMK SLP160 T01400070 IEM_DS3505
ZGNN,1997-02-10 08:00,ZGNN 100800Z AUTO 35006KT 7SM 14/07 A3000 RMK SLP150 T01400070 IEM_DS3505
ZGNN,1997-02-10 09:00,ZGNN 100900Z AUTO 04004KT 14SM 14/07 A3000 RMK SLP162 T01450067 57011 IEM_DS3505
ZGNN,1997-02-10 10:00,ZGNN 101000Z AUTO 03004KT 7SM 14/08 A3003 RMK SLP160 T01400080 IEM_DS3505
ZGNN,1997-02-10 11:00,ZGNN 101100Z AUTO 05006KT 7SM 14/07 A3003 RMK SLP160 T01400070 IEM_DS3505
ZGNN,1997-02-10 12:00,ZGNN 101200Z AUTO 34004KT 12SM 13/07 A3007 RMK SLP174 T01330069 52012 IEM_DS3505
ZGNN,1997-02-10 13:00,ZGNN 101300Z AUTO 07004KT 7SM 13/07 A3009 RMK SLP180 T01300070 IEM_DS3505
ZGNN,1997-02-10 15:00,ZGNN 101500Z AUTO 00000KT 9SM 12/09 A3014 RMK SLP198 T01240088 52024 IEM_DS3505
ZGNN,1997-02-10 18:00,ZGNN 101800Z AUTO 00000KT 9SM 13/08 A3013 RMK 60001 SLP193 T01260079 57005 IEM_DS3505
ZGNN,1997-02-10 21:00,ZGNN 102100Z AUTO 22002KT 9SM 13/08 A3012 RMK 70001 SLP189 T01270078 57004 IEM_DS3505
ZGNN,1997-02-10 22:00,ZGNN 102200Z AUTO 11004KT 7SM 12/07 A3012 RMK SLP191 T01200070 IEM_DS3505
ZGNN,1997-02-10 23:00,ZGNN 102300Z AUTO 04004KT 7SM 11/08 A3012 RMK SLP191 T01100080 IEM_DS3505
ZGNN,1997-02-11 00:00,ZGNN 110000Z AUTO 04006KT 11SM 13/05 A3015 RMK 70001 SLP206 T01290054 52017 IEM_DS3505
ZGNN,1997-02-11 01:00,ZGNN 110100Z AUTO 08004KT 7SM 12/07 A3018 RMK SLP211 T01200070 IEM_DS3505
ZGNN,1997-02-11 02:00,ZGNN 110200Z AUTO 08004KT 7SM 12/07 A3018 RMK SLP211 T01200070 IEM_DS3505
ZGNN,1997-02-11 03:00,ZGNN 110300Z AUTO 04004KT 11SM 14/05 A3018 RMK SLP220 T01380047 52014 IEM_DS3505
ZGNN,1997-02-11 04:00,ZGNN 110400Z AUTO 06006KT 7SM 13/05 A3018 RMK SLP210 T01300050 IEM_DS3505
ZGNN,1997-02-11 05:00,ZGNN 110500Z AUTO 04008KT 7SM 14/05 A3015 RMK SLP200 T01400050 IEM_DS3505
ZGNN,1997-02-11 06:00,ZGNN 110600Z AUTO 09004KT 11SM 15/05 A3012 RMK SLP198 T01490054 57022 IEM_DS3505
ZGNN,1997-02-11 07:00,ZGNN 110700Z AUTO 05008KT 7SM 14/05 A3012 RMK SLP190 T01400050 IEM_DS3505
ZGNN,1997-02-11 08:00,ZGNN 110800Z AUTO 07006KT 7SM 15/05 A3009 RMK SLP179 T01500050 IEM_DS3505
ZGNN,1997-02-11 09:00,ZGNN 110900Z AUTO 00000KT 9SM 15/06 A3009 RMK SLP188 T01480061 57010 IEM_DS3505
ZGNN,1997-02-11 10:00,ZGNN 111000Z AUTO 11006KT 5SM 14/06 A3009 RMK SLP180 T01400060 IEM_DS3505
ZGNN,1997-02-11 11:00,ZGNN 111100Z AUTO 10006KT 5SM 13/07 A3009 RMK SLP180 T01300070 IEM_DS3505
ZGNN,1997-02-11 12:00,ZGNN 111200Z AUTO 00000KT 9SM 14/07 A3012 RMK SLP194 T01370074 52006 IEM_DS3505
ZGNN,1997-02-11 13:00,ZGNN 111300Z AUTO 00000KT 5SM 13/08 A3012 RMK SLP190 T01300080 IEM_DS3505
ZGNN,1997-02-11 15:00,ZGNN 111500Z AUTO 09004KT 9SM 13/09 A3017 RMK SLP206 T01330087 52012 IEM_DS3505
ZGNN,1997-02-11 18:00,ZGNN 111800Z AUTO 04002KT 11SM 13/09 A3016 RMK SLP204 T01280090 57002 IEM_DS3505
ZGNN,1997-02-11 21:00,ZGNN 112100Z AUTO 25002KT 11SM 13/09 A3015 RMK SLP199 T01280090 57005 IEM_DS3505
ZGNN,1997-02-11 23:00,ZGNN 112300Z AUTO 20004KT 2SM 12/10 A3015 RMK SLP201 T01200100 IEM_DS3505
ZGNN,1997-02-12 00:00,ZGNN 120000Z AUTO 00000KT 9SM 13/09 A3018 RMK SLP210 T01280090 52011 IEM_DS3505
ZGNN,1997-02-12 01:00,ZGNN 120100Z AUTO 00000KT 2SM 12/09 A3018 RMK SLP211 T01200090 IEM_DS3505
ZGNN,1997-02-12 02:00,ZGNN 120200Z AUTO 00000KT 2SM 13/09 A3021 RMK SLP220 T01300090 IEM_DS3505
ZGNN,1997-02-12 03:00,ZGNN 120300Z AUTO 00000KT 9SM 13/10 A3021 RMK SLP227 T01330098 52017 IEM_DS3505
ZGNN,1997-02-12 04:00,ZGNN 120400Z AUTO 09006KT 4SM 14/08 A3018 RMK SLP210 T01400080 IEM_DS3505
ZGNN,1997-02-12 05:00,ZGNN 120500Z AUTO 07006KT 5SM 14/09 A3018 RMK SLP210 T01400090 IEM_DS3505
ZGNN,1997-02-12 06:00,ZGNN 120600Z AUTO 04004KT 9SM 14/08 A3012 RMK 60000 SLP200 T01400078 57027 IEM_DS3505
ZGNN,1997-02-12 07:00,ZGNN 120700Z AUTO 03006KT 3SM 13/09 A3012 RMK SLP190 T01300090 IEM_DS3505
ZGNN,1997-02-12 08:00,ZGNN 120800Z AUTO 02006KT 3SM 13/09 A3009 RMK SLP180 T01300090 IEM_DS3505
ZGNN,1997-02-12 09:00,ZGNN 120900Z AUTO 02006KT 9SM 13/09 A3009 RMK SLP187 T01270094 57013 IEM_DS3505
ZGNN,1997-02-12 10:00,ZGNN 121000Z AUTO 05006KT 2 1/2SM 12/09 A3009 RMK SLP180 T01200090 IEM_DS3505
ZGNN,1997-02-12 11:00,ZGNN 121100Z AUTO 06004KT 1 1/2SM 11/10 A3012 RMK SLP191 T01100100 IEM_DS3505
ZGNN,1997-02-12 12:00,ZGNN 121200Z AUTO 04004KT 3SM 12/10 A3012 RMK SLP200 T01170095 52012 IEM_DS3505
ZGNN,1997-02-12 15:00,ZGNN 121500Z AUTO 04004KT 5SM 12/09 A3019 RMK SLP214 T01190093 52014 IEM_DS3505
ZGNN,1997-02-12 18:00,ZGNN 121800Z AUTO 00000KT 7SM 12/10 A3018 RMK SLP211 T01200096 57002 IEM_DS3505
ZGNN,1997-02-12 21:00,ZGNN 122100Z AUTO 34002KT 6SM 11/10 A3016 RMK 70000 SLP203 T01140102 57009 IEM_DS3505
ZGNN,1997-02-12 22:00,ZGNN 122200Z AUTO 35006KT 1 1/2SM 11/11 A3012 RMK SLP191 T01100110 IEM_DS3505
ZGNN,1997-02-12 23:00,ZGNN 122300Z AUTO 01004KT 1 1/2SM 11/10 A3015 RMK SLP201 T01100100 IEM_DS3505
ZGNN,1997-02-13 00:00,ZGNN 130000Z AUTO 36004KT 6SM 11/10 A3018 RMK 60016 70016 SLP222 T01070099 52019 IEM_DS3505
ZGNN,1997-02-13 01:00,ZGNN 130100Z AUTO 02004KT 1SM 11/10 A3021 RMK SLP221 T01100100 IEM_DS3505
ZGNN,1997-02-13 02:00,ZGNN 130200Z AUTO 03002KT 1 1/4SM 10/10 A3021 RMK SLP221 T01000100 IEM_DS3505
ZGNN,1997-02-13 03:00,ZGNN 130300Z AUTO 07002KT 6SM 10/09 A3021 RMK SLP231 T01020090 52009 IEM_DS3505
ZGNN,1997-02-13 04:00,ZGNN 130400Z AUTO 07006KT 1 1/4SM 10/10 A3021 RMK SLP221 T01000100 IEM_DS3505
ZGNN,1997-02-13 06:00,ZGNN 130600Z AUTO 07004KT 6SM 10/09 A3015 RMK 60004 SLP210 T01000088 57021 IEM_DS3505
ZGNN,1997-02-13 07:00,ZGNN 130700Z AUTO 06006KT 1 1/2SM 10/10 A3012 RMK SLP191 T01000100 IEM_DS3505
ZGNN,1997-02-13 08:00,ZGNN 130800Z AUTO 06006KT 1 1/4SM 09/09 A3012 RMK SLP191 T00900090 IEM_DS3505
ZGNN,1997-02-13 09:00,ZGNN 130900Z AUTO 00000KT 6SM 10/09 A3012 RMK SLP198 T00970091 57012 IEM_DS3505
ZGNN,1997-02-13 10:00,ZGNN 131000Z AUTO 07004KT 1 1/2SM 10/09 A3012 RMK SLP191 T01000090 IEM_DS3505
ZGNN,1997-02-13 11:00,ZGNN 131100Z AUTO 07006KT 3SM 09/09 A3012 RMK SLP191 T00900090 IEM_DS3505
ZGNN,1997-02-13 12:00,ZGNN 131200Z AUTO 00000KT 8SM 10/08 A3015 RMK 60004 SLP203 T00950085 52005 IEM_DS3505
ZGNN,1997-02-13 15:00,ZGNN 131500Z AUTO 00000KT 7SM 09/08 A3021 RMK SLP221 T00930081 52017 IEM_DS3505
ZGNN,1997-02-13 18:00,ZGNN 131800Z AUTO 07002KT 7SM 10/08 A3019 RMK 60012 SLP214 T00950085 57006 IEM_DS3505
ZGNN,1997-02-13 21:00,ZGNN 132100Z AUTO 00000KT 7SM 09/08 A3015 RMK 70039 SLP205 T00910083 57010 IEM_DS3505
ZGNN,1997-02-13 22:00,ZGNN 132200Z AUTO 36004KT 2SM 09/09 A3015 RMK SLP202 T00900090 IEM_DS3505
ZGNN,1997-02-13 23:00,ZGNN 132300Z AUTO 34004KT 5SM 09/08 A3015 RMK SLP202 T00900080 IEM_DS3505
ZGNN,1997-02-14 00:00,ZGNN 140000Z AUTO 07002KT 9SM 09/08 A3018 RMK 60008 70031 SLP217 T00870076 52012 IEM_DS3505
ZGNN,1997-02-14 01:00,ZGNN 140100Z AUTO 04004KT 6SM 09/08 A3018 RMK SLP212 T00900080 IEM_DS3505
ZGNN,1997-02-14 02:00,ZGNN 140200Z AUTO 03004KT 4SM 09/08 A3018 RMK SLP212 T00900080 IEM_DS3505
ZGNN,1997-02-14 03:00,ZGNN 140300Z AUTO 25002KT 19SM 09/08 A3018 RMK SLP220 T00930076 52003 IEM_DS3505
ZGNN,1997-02-14 04:00,ZGNN 140400Z AUTO 07004KT 1 1/2SM 09/08 A3015 RMK SLP202 T00900080 IEM_DS3505
ZGNN,1997-02-14 05:00,ZGNN 140500Z AUTO 35006KT 4SM 09/09 A3012 RMK SLP191 T00900090 IEM_DS3505
ZGNN,1997-02-14 06:00,ZGNN 140600Z AUTO 36004KT 9SM 10/08 A3012 RMK 60002 SLP195 T00950083 57024 IEM_DS3505
ZGNN,1997-02-14 07:00,ZGNN 140700Z AUTO 35006KT 7SM 09/08 A3006 RMK SLP171 T00900080 IEM_DS3505
ZGNN,1997-02-14 08:00,ZGNN 140800Z AUTO 01006KT 7SM 09/09 A3006 RMK SLP171 T00900090 IEM_DS3505
ZGNN,1997-02-14 09:00,ZGNN 140900Z AUTO 36004KT 9SM 09/08 A3006 RMK SLP177 T00930083 57018 IEM_DS3505
ZGNN,1997-02-14 10:00,ZGNN 141000Z AUTO 01008KT 7SM 09/08 A3006 RMK SLP171 T00900080 IEM_DS3505
ZGNN,1997-02-14 11:00,ZGNN 141100Z AUTO 03006KT 7SM 09/08 A3006 RMK SLP171 T00900080 IEM_DS3505
ZGNN,1997-02-14 12:00,ZGNN 141200Z AUTO 04004KT 5SM 09/08 A3006 RMK 60001 SLP181 T00870081 52003 IEM_DS3505
ZGNN,1997-02-14 13:00,ZGNN 141300Z AUTO 05004KT 4SM 09/08 A3009 RMK SLP181 T00900080 IEM_DS3505
ZGNN,1997-02-14 15:00,ZGNN 141500Z AUTO 04002KT 5SM 08/08 A3013 RMK SLP195 T00850081 52014 IEM_DS3505
ZGNN,1997-02-14 18:00,ZGNN 141800Z AUTO 04002KT 5SM 09/08 A3012 RMK 60016 SLP190 T00880084 57004 IEM_DS3505
ZGNN,1997-02-14 21:00,ZGNN 142100Z AUTO 02002KT 5SM 09/08 A3010 RMK 70028 SLP184 T00890079 57006 IEM_DS3505
ZGNN,1997-02-14 22:00,ZGNN 142200Z AUTO 36006KT 7SM 08/07 A3006 RMK SLP172 T00800070 IEM_DS3505
ZGNN,1997-02-14 23:00,ZGNN 142300Z AUTO 34004KT 7SM 08/07 A3009 RMK SLP182 T00800070 IEM_DS3505
ZGNN,1997-02-15 00:00,ZGNN 150000Z AUTO 04004KT 9SM 09/08 A3012 RMK 60002 70020 SLP200 T00900077 52015 IEM_DS3505
ZGNN,1997-02-15 01:00,ZGNN 150100Z AUTO 36006KT 7SM 09/07 A3015 RMK SLP202 T00900070 IEM_DS3505
ZGNN,1997-02-15 02:00,ZGNN 150200Z AUTO 35008KT 7SM 10/07 A3018 RMK SLP211 T01000070 IEM_DS3505
ZGNN,1997-02-15 03:00,ZGNN 150300Z AUTO 36004KT 9SM 11/08 A3018 RMK SLP217 T01090076 52017 IEM_DS3505
ZGNN,1997-02-15 04:00,ZGNN 150400Z AUTO 02008KT 7SM 11/06 A3015 RMK SLP201 T01100060 IEM_DS3505
ZGNN,1997-02-15 05:00,ZGNN 150500Z AUTO 30008KT 7SM 12/06 A3015 RMK SLP201 T01200060 IEM_DS3505
ZGNN,1997-02-15 06:00,ZGNN 150600Z AUTO 02006KT 12SM 13/07 A3012 RMK SLP192 T01290071 57024 IEM_DS3505
ZGNN,1997-02-15 07:00,ZGNN 150700Z AUTO 34010KT 7SM 13/06 A3009 RMK SLP180 T01300060 IEM_DS3505
ZGNN,1997-02-15 08:00,ZGNN 150800Z AUTO 33006KT 7SM 13/06 A3009 RMK SLP180 T01300060 IEM_DS3505
ZGNN,1997-02-15 09:00,ZGNN 150900Z AUTO 07004KT 16SM 14/07 A3006 RMK SLP179 T01350069 57013 IEM_DS3505
ZGNN,1997-02-15 10:00,ZGNN 151000Z AUTO 03006KT 7SM 13/07 A3006 RMK SLP170 T01300070 IEM_DS3505
ZGNN,1997-02-15 11:00,ZGNN 151100Z AUTO 05006KT 7SM 13/07 A3009 RMK SLP180 T01300070 IEM_DS3505
ZGNN,1997-02-15 12:00,ZGNN 151200Z AUTO 00000KT 17SM 13/08 A3012 RMK SLP193 T01260084 52014 IEM_DS3505
ZGNN,1997-02-15 13:00,ZGNN 151300Z AUTO 00000KT 7SM 12/09 A3015 RMK SLP201 T01200090 IEM_DS3505
ZGNN,1997-02-15 15:00,ZGNN 151500Z AUTO 00000KT 16SM 12/08 A3017 RMK SLP207 T01200081 52014 IEM_DS3505
ZGNN,1997-02-15 18:00,ZGNN 151800Z AUTO 00000KT 16SM 12/08 A3016 RMK SLP205 T01180081 57002 IEM_DS3505
ZGNN,1997-02-15 21:00,ZGNN 152100Z AUTO 04004KT 16SM 11/07 A3015 RMK 70000 SLP200 T01110067 57005 IEM_DS3505
ZGNN,1997-02-15 22:00,ZGNN 152200Z AUTO 00000KT 7SM 11/07 A3015 RMK SLP201 T01100070 IEM_DS3505
ZGNN,1997-02-15 23:00,ZGNN 152300Z AUTO 04004KT 7SM 10/07 A3015 RMK SLP201 T01000070 IEM_DS3505
ZGNN,1997-02-16 00:00,ZGNN 160000Z AUTO 00000KT 12SM 10/06 A3018 RMK SLP214 T01040061 52014 IEM_DS3505
ZGNN,1997-02-16 01:00,ZGNN 160100Z AUTO 00000KT 7SM 11/06 A3021 RMK SLP221 T01100060 IEM_DS3505
ZGNN,1997-02-16 02:00,ZGNN 160200Z AUTO 00000KT 7SM 11/06 A3021 RMK SLP221 T01100060 IEM_DS3505
ZGNN,1997-02-16 03:00,ZGNN 160300Z AUTO 02004KT 14SM 12/05 A3021 RMK SLP228 T01230054 52014 IEM_DS3505
ZGNN,1997-02-16 04:00,ZGNN 160400Z AUTO 01006KT 7SM 13/06 A3021 RMK SLP220 T01300060 IEM_DS3505
ZGNN,1997-02-16 05:00,ZGNN 160500Z AUTO 05004KT 7SM 14/05 A3015 RMK SLP200 T01400050 IEM_DS3505
ZGNN,1997-02-16 06:00,ZGNN 160600Z AUTO 32004KT 12SM 14/06 A3012 RMK SLP199 T01450062 57028 IEM_DS3505
ZGNN,1997-02-16 07:00,ZGNN 160700Z AUTO 02006KT 7SM 14/06 A3009 RMK SLP180 T01400060 IEM_DS3505
ZGNN,1997-02-16 08:00,ZGNN 160800Z AUTO 34006KT 7SM 14/06 A3006 RMK SLP170 T01400060 IEM_DS3505
ZGNN,1997-02-16 09:00,ZGNN 160900Z AUTO 02004KT 12SM 14/06 A3006 RMK SLP181 T01450060 57018 IEM_DS3505
ZGNN,1997-02-16 10:00,ZGNN 161000Z AUTO 04006KT 7SM 14/06 A3009 RMK SLP180 T01400060 IEM_DS3505
ZGNN,1997-02-16 11:00,ZGNN 161100Z AUTO 06004KT 7SM 14/07 A3009 RMK SLP180 T01400070 IEM_DS3505
ZGNN,1997-02-16 12:00,ZGNN 161200Z AUTO 07004KT 12SM 13/06 A3009 RMK SLP190 T01320063 52008 IEM_DS3505
ZGNN,1997-02-16 13:00,ZGNN 161300Z AUTO 07006KT 7SM 13/07 A3015 RMK SLP200 T01300070 IEM_DS3505
ZGNN,1997-02-16 15:00,ZGNN 161500Z AUTO 00000KT 12SM 13/07 A3019 RMK SLP214 T01270071 52024 IEM_DS3505
ZGNN,1997-02-16 18:00,ZGNN 161800Z AUTO 00000KT 12SM 12/08 A3019 RMK SLP213 T01240084 54000 IEM_DS3505
ZGNN,1997-02-16 21:00,ZGNN 162100Z AUTO 04002KT 11SM 12/06 A3015 RMK SLP202 T01230062 57011 IEM_DS3505
ZGNN,1997-02-16 22:00,ZGNN 162200Z AUTO 07004KT 7SM 12/08 A3015 RMK SLP201 T01200080 IEM_DS3505
ZGNN,1997-02-16 23:00,ZGNN 162300Z AUTO 07006KT 7SM 12/07 A3018 RMK SLP211 T01200070 IEM_DS3505
ZGNN,1997-02-17 00:00,ZGNN 170000Z AUTO 07004KT 8SM 12/07 A3018 RMK SLP220 T01170067 52017 IEM_DS3505
ZGNN,1997-02-17 01:00,ZGNN 170100Z AUTO 06004KT 7SM 11/07 A3021 RMK SLP221 T01100070 IEM_DS3505
ZGNN,1997-02-17 02:00,ZGNN 170200Z AUTO 05006KT 7SM 12/06 A3021 RMK SLP221 T01200060 IEM_DS3505
ZGNN,1997-02-17 03:00,ZGNN 170300Z AUTO 07004KT 9SM 12/07 A3024 RMK SLP235 T01190073 52015 IEM_DS3505
ZGNN,1997-02-17 04:00,ZGNN 170400Z AUTO 08006KT 4SM 12/07 A3021 RMK SLP221 T01200070 IEM_DS3505
ZGNN,1997-02-17 05:00,ZGNN 170500Z AUTO 06008KT 4SM 12/07 A3021 RMK SLP221 T01200070 IEM_DS3505
ZGNN,1997-02-17 06:00,ZGNN 170600Z AUTO 04004KT 9SM 12/08 A3018 RMK SLP212 T01210076 57023 IEM_DS3505
ZGNN,1997-02-17 07:00,ZGNN 170700Z AUTO 05002KT 4SM 12/07 A3015 RMK SLP201 T01200070 IEM_DS3505
ZGNN,1997-02-17 08:00,ZGNN 170800Z AUTO 04006KT 4SM 11/08 A3012 RMK SLP191 T01100080 IEM_DS3505
ZGNN,1997-02-17 09:00,ZGNN 170900Z AUTO 07004KT 11SM 11/07 A3015 RMK SLP203 T01130071 57009 IEM_DS3505
ZGNN,1997-02-17 10:00,ZGNN 171000Z AUTO 36004KT 2 1/2SM 10/09 A3015 RMK SLP201 T01000090 IEM_DS3505
ZGNN,1997-02-17 11:00,ZGNN 171100Z AUTO 07002KT 2 1/2SM 10/09 A3018 RMK SLP211 T01000090 IEM_DS3505
ZGNN,1997-02-17 12:00,ZGNN 171200Z AUTO 00000KT 10SM 11/07 A3018 RMK SLP219 T01080066 52016 IEM_DS3505
ZGNN,1997-02-17 13:00,ZGNN 171300Z AUTO 08002KT 2 1/2SM 10/08 A3021 RMK SLP221 T01000080 IEM_DS3505
ZGNN,1997-02-17 15:00,ZGNN 171500Z AUTO 00000KT 9SM 11/06 A3026 RMK SLP237 T01070062 52018 IEM_DS3505
ZGNN,1997-02-17 18:00,ZGNN 171800Z AUTO 00000KT 9SM 11/07 A3025 RMK SLP235 T01080070 57002 IEM_DS3505
ZGNN,1997-02-17 21:00,ZGNN 172100Z AUTO 00000KT 7SM 11/07 A3024 RMK SLP230 T01090071 57005 IEM_DS3505
ZGNN,1997-02-17 22:00,ZGNN 172200Z AUTO 00000KT 5SM 10/08 A3024 RMK SLP232 T01000080 IEM_DS3505
ZGNN,1997-02-17 23:00,ZGNN 172300Z AUTO 02002KT 4SM 10/08 A3027 RMK SLP243 T01000080 IEM_DS3505
ZGNN,1997-02-18 00:00,ZGNN 180000Z AUTO 00000KT 6SM 11/06 A3027 RMK SLP250 T01110064 52020 IEM_DS3505
ZGNN,1997-02-18 01:00,ZGNN 180100Z AUTO 33004KT 7SM 11/05 A3030 RMK SLP252 T01100050 IEM_DS3505
ZGNN,1997-02-18 02:00,ZGNN 180200Z AUTO 35006KT 7SM 11/04 A3033 RMK SLP262 T01100040 IEM_DS3505
ZGNN,1997-02-18 03:00,ZGNN 180300Z AUTO 04006KT 7SM 12/05 A3033 RMK SLP267 T01220053 52017 IEM_DS3505
ZGNN,1997-02-18 04:00,ZGNN 180400Z AUTO 35008KT 7SM 12/03 A3033 RMK SLP262 T01200030 IEM_DS3505
ZGNN,1997-02-18 05:00,ZGNN 180500Z AUTO 03004KT 7SM 13/04 A3030 RMK SLP252 T01300040 IEM_DS3505
ZGNN,1997-02-18 06:00,ZGNN 180600Z AUTO 02004KT 9SM 14/04 A3027 RMK SLP242 T01380042 57025 IEM_DS3505
ZGNN,1997-02-18 07:00,ZGNN 180700Z AUTO 33004KT 7SM 13/04 A3021 RMK SLP220 T01300040 IEM_DS3505
ZGNN,1997-02-18 08:00,ZGNN 180800Z AUTO 02004KT 7SM 14/04 A3021 RMK SLP220 T01400040 IEM_DS3505
ZGNN,1997-02-18 09:00,ZGNN 180900Z AUTO 11004KT 11SM 15/04 A3018 RMK SLP222 T01470041 57020 IEM_DS3505
ZGNN,1997-02-18 10:00,ZGNN 181000Z AUTO 06002KT 6SM 14/05 A3018 RMK SLP210 T01400050 IEM_DS3505
ZGNN,1997-02-18 11:00,ZGNN 181100Z AUTO 08004KT 6SM 12/05 A3021 RMK SLP221 T01200050 IEM_DS3505
ZGNN,1997-02-18 12:00,ZGNN 181200Z AUTO 00000KT 12SM 12/06 A3024 RMK SLP235 T01160058 52013 IEM_DS3505
ZGNN,1997-02-18 13:00,ZGNN 181300Z AUTO 36004KT 6SM 10/07 A3027 RMK SLP243 T01000070 IEM_DS3505
ZGNN,1997-02-18 14:00,ZGNN 181400Z AUTO 36004KT 6SM 08/06 A3030 RMK SLP253 T00800060 IEM_DS3505
ZGNN,1997-02-18 15:00,ZGNN 181500Z AUTO 00000KT 12SM 10/06 A3030 RMK SLP258 T00960059 52022 IEM_DS3505
ZGNN,1997-02-18 16:00,ZGNN 181600Z AUTO 36002KT 6SM 07/07 A3030 RMK SLP254 T00700070 IEM_DS3505
ZGNN,1997-02-18 18:00,ZGNN 181800Z AUTO 00000KT 7SM 08/07 A3031 RMK SLP254 T00840071 57003 IEM_DS3505
ZGNN,1997-02-18 21:00,ZGNN 182100Z AUTO 00000KT 6SM 08/06 A3027 RMK SLP243 T00760065 57011 IEM_DS3505
ZGNN,1997-02-18 22:00,ZGNN 182200Z AUTO 00000KT 4SM 05/05 A3027 RMK SLP244 T00500050 IEM_DS3505
ZGNN,1997-02-18 23:00,ZGNN 182300Z AUTO 00000KT 4SM 05/05 A3027 RMK SLP244 T00500050 IEM_DS3505
ZGNN,1997-02-19 00:00,ZGNN 190000Z AUTO 00000KT 3SM 07/06 A3030 RMK SLP258 T00710060 52014 IEM_DS3505
ZGNN,1997-02-19 01:00,ZGNN 190100Z AUTO 00000KT 7SM 08/06 A3030 RMK SLP253 T00800060 IEM_DS3505
ZGNN,1997-02-19 02:00,ZGNN 190200Z AUTO 00000KT 7SM 11/06 A3033 RMK SLP262 T01100060 IEM_DS3505
ZGNN,1997-02-19 03:00,ZGNN 190300Z AUTO 07004KT 7SM 14/05 A3033 RMK SLP263 T01440050 52006 IEM_DS3505
ZGNN,1997-02-19 04:00,ZGNN 190400Z AUTO 12006KT 6SM 16/04 A3030 RMK SLP251 T01600040 IEM_DS3505
ZGNN,1997-02-19 05:00,ZGNN 190500Z AUTO 09008KT 6SM 16/03 A3024 RMK SLP230 T01600030 IEM_DS3505
ZGNN,1997-02-19 06:00,ZGNN 190600Z AUTO 25004KT 12SM 19/04 A3021 RMK SLP221 T01860044 57041 IEM_DS3505
ZGNN,1997-02-19 07:00,ZGNN 190700Z AUTO 10008KT 6SM 18/03 A3015 RMK SLP199 T01800030 IEM_DS3505
ZGNN,1997-02-19 08:00,ZGNN 190800Z AUTO 11008KT 6SM 19/04 A3012 RMK SLP188 T01900040 IEM_DS3505
ZGNN,1997-02-19 09:00,ZGNN 190900Z AUTO 22002KT 12SM 19/05 A3012 RMK SLP196 T01930052 57025 IEM_DS3505
ZGNN,1997-02-19 10:00,ZGNN 191000Z AUTO 19008KT 7SM 17/05 A3015 RMK SLP199 T01700050 IEM_DS3505
ZGNN,1997-02-19 11:00,ZGNN 191100Z AUTO 18006KT 7SM 16/05 A3015 RMK SLP199 T01600050 IEM_DS3505
ZGNN,1997-02-19 12:00,ZGNN 191200Z AUTO 20002KT 12SM 17/06 A3015 RMK SLP213 T01670058 52016 IEM_DS3505
ZGNN,1997-02-19 13:00,ZGNN 191300Z AUTO 19004KT 7SM 15/08 A3018 RMK SLP210 T01500080 IEM_DS3505
ZGNN,1997-02-19 15:00,ZGNN 191500Z AUTO 00000KT 12SM 16/08 A3022 RMK SLP223 T01560076 52011 IEM_DS3505
ZGNN,1997-02-19 18:00,ZGNN 191800Z AUTO 11002KT 11SM 15/08 A3021 RMK SLP218 T01500078 57004 IEM_DS3505
ZGNN,1997-02-19 21:00,ZGNN 192100Z AUTO 00000KT 9SM 15/09 A3018 RMK SLP216 T01460087 57002 IEM_DS3505
ZGNN,1997-02-19 22:00,ZGNN 192200Z AUTO 09004KT 7SM 14/10 A3018 RMK SLP210 T01400100 IEM_DS3505
ZGNN,1997-02-19 23:00,ZGNN 192300Z AUTO 00000KT 7SM 14/11 A3021 RMK SLP220 T01400110 IEM_DS3505
ZGNN,1997-02-20 00:00,ZGNN 200000Z AUTO 00000KT 9SM 14/10 A3024 RMK SLP230 T01410101 52013 IEM_DS3505
ZGNN,1997-02-20 01:00,ZGNN 200100Z AUTO 05004KT 4SM 14/11 A3024 RMK SLP230 T01400110 IEM_DS3505
ZGNN,1997-02-20 02:00,ZGNN 200200Z AUTO 00000KT 4SM 15/10 A3027 RMK SLP241 T01500100 IEM_DS3505
ZGNN,1997-02-20 03:00,ZGNN 200300Z AUTO 00000KT 7SM 16/10 A3027 RMK SLP248 T01550104 52018 IEM_DS3505
ZGNN,1997-02-20 04:00,ZGNN 200400Z AUTO 02006KT 4SM 16/10 A3027 RMK SLP241 T01600100 IEM_DS3505
ZGNN,1997-02-20 05:00,ZGNN 200500Z AUTO 01004KT 4SM 16/09 A3024 RMK SLP230 T01600090 IEM_DS3505
ZGNN,1997-02-20 06:00,ZGNN 200600Z AUTO 02006KT 7SM 17/10 A3024 RMK SLP230 T01660095 57018 IEM_DS3505
ZGNN,1997-02-20 07:00,ZGNN 200700Z AUTO 00000KT 3SM 16/10 A3021 RMK SLP220 T01600100 IEM_DS3505
ZGNN,1997-02-20 08:00,ZGNN 200800Z AUTO 00000KT 4SM 16/10 A3018 RMK SLP209 T01600100 IEM_DS3505
ZGNN,1997-02-20 09:00,ZGNN 200900Z AUTO 04002KT 7SM 16/10 A3018 RMK SLP217 T01650105 57013 IEM_DS3505
ZGNN,1997-02-20 10:00,ZGNN 201000Z AUTO 00000KT 4SM 15/12 A3018 RMK SLP210 T01500120 IEM_DS3505
ZGNN,1997-02-20 11:00,ZGNN 201100Z AUTO 00000KT 4SM 15/11 A3021 RMK SLP220 T01500110 IEM_DS3505
ZGNN,1997-02-20 12:00,ZGNN 201200Z AUTO 09004KT 7SM 15/11 A3021 RMK SLP227 T01540113 52010 IEM_DS3505
ZGNN,1997-02-20 13:00,ZGNN 201300Z AUTO 00000KT 2 1/2SM 15/12 A3024 RMK SLP230 T01500120 IEM_DS3505
ZGNN,1997-02-20 15:00,ZGNN 201500Z AUTO 00000KT 7SM 15/12 A3027 RMK SLP241 T01470115 52014 IEM_DS3505
ZGNN,1997-02-20 18:00,ZGNN 201800Z AUTO 00000KT 9SM 15/12 A3027 RMK SLP240 T01460116 57001 IEM_DS3505
ZGNN,1997-02-20 21:00,ZGNN 202100Z AUTO 36004KT 9SM 14/12 A3024 RMK SLP230 T01430119 57010 IEM_DS3505
ZGNN,1997-02-20 23:00,ZGNN 202300Z AUTO 32002KT 2 1/2SM 14/12 A3024 RMK SLP230 T01400120 IEM_DS3505
ZGNN,1997-02-21 00:00,ZGNN 210000Z AUTO 34002KT 3SM 14/12 A3027 RMK SLP245 T01380118 52015 IEM_DS3505
ZGNN,1997-02-21 01:00,ZGNN 210100Z AUTO 01004KT 2SM 13/12 A3030 RMK SLP252 T01300120 IEM_DS3505
ZGNN,1997-02-21 02:00,ZGNN 210200Z AUTO 35006KT 2SM 14/12 A3033 RMK SLP262 T01400120 IEM_DS3505
ZGNN,1997-02-21 03:00,ZGNN 210300Z AUTO 34002KT 5SM 15/12 A3033 RMK SLP261 T01530122 52016 IEM_DS3505
ZGNN,1997-02-21 04:00,ZGNN 210400Z AUTO 36004KT 3SM 16/12 A3030 RMK SLP251 T01600120 IEM_DS3505
ZGNN,1997-02-21 05:00,ZGNN 210500Z AUTO 09004KT 4SM 18/12 A3027 RMK SLP240 T01800120 IEM_DS3505
ZGNN,1997-02-21 06:00,ZGNN 210600Z AUTO 07002KT 7SM 19/12 A3024 RMK SLP232 T01900120 57028 IEM_DS3505
ZGNN,1997-02-21 07:00,ZGNN 210700Z AUTO 07004KT 4SM 21/13 A3018 RMK SLP208 T02100130 IEM_DS3505
ZGNN,1997-02-21 08:00,ZGNN 210800Z AUTO 07006KT 4SM 21/13 A3015 RMK SLP198 T02100130 IEM_DS3505
ZGNN,1997-02-21 09:00,ZGNN 210900Z AUTO 25002KT 9SM 21/12 A3015 RMK SLP205 T02130121 57027 IEM_DS3505
ZGNN,1997-02-21 10:00,ZGNN 211000Z AUTO 34006KT 4SM 19/12 A3015 RMK SLP198 T01900120 IEM_DS3505
ZGNN,1997-02-21 11:00,ZGNN 211100Z AUTO 34004KT 4SM 18/13 A3015 RMK SLP199 T01800130 IEM_DS3505
ZGNN,1997-02-21 12:00,ZGNN 211200Z AUTO 04002KT 9SM 18/13 A3018 RMK SLP212 T01750129 52006 IEM_DS3505
ZGNN,1997-02-21 13:00,ZGNN 211300Z AUTO 36006KT 4SM 16/13 A3018 RMK SLP209 T01600130 IEM_DS3505
ZGNN,1997-02-21 15:00,ZGNN 211500Z AUTO 00000KT 7SM 15/13 A3023 RMK SLP226 T01530133 52014 IEM_DS3505
ZGNN,1997-02-21 18:00,ZGNN 211800Z AUTO 00000KT 7SM 14/12 A3023 RMK SLP226 T01420120 52001 IEM_DS3505
ZGNN,1997-02-21 21:00,ZGNN 212100Z AUTO 00000KT 7SM 13/12 A3018 RMK SLP217 T01300121 57009 IEM_DS3505
ZGNN,1997-02-21 22:00,ZGNN 212200Z AUTO 00000KT 1 1/4SM 12/11 A3021 RMK SLP221 T01200110 IEM_DS3505
ZGNN,1997-02-21 23:00,ZGNN 212300Z AUTO 00000KT 1 1/4SM 11/11 A3021 RMK SLP221 T01100110 IEM_DS3505
ZGNN,1997-02-22 00:00,ZGNN 220000Z AUTO 00000KT 4SM 12/12 A3024 RMK SLP230 T01250117 52015 IEM_DS3505
ZGNN,1997-02-22 01:00,ZGNN 220100Z AUTO 00000KT 3/8SM 12/12 A3024 RMK SLP231 T01200120 IEM_DS3505
ZGNN,1997-02-22 02:00,ZGNN 220200Z AUTO 09004KT 1 1/4SM 15/12 A3027 RMK SLP241 T01500120 IEM_DS3505
ZGNN,1997-02-22 03:00,ZGNN 220300Z AUTO 00000KT 5SM 16/12 A3027 RMK SLP240 T01650121 52007 IEM_DS3505
ZGNN,1997-02-22 04:00,ZGNN 220400Z AUTO 11012KT 5SM 20/13 A3024 RMK SLP228 T02000130 IEM_DS3505
ZGNN,1997-02-22 05:00,ZGNN 220500Z AUTO 14006KT 7SM 21/12 A3021 RMK SLP218 T02100120 IEM_DS3505
ZGNN,1997-02-22 06:00,ZGNN 220600Z AUTO 00000KT 11SM 22/14 A3015 RMK SLP209 T02230135 57030 IEM_DS3505
ZGNN,1997-02-22 07:00,ZGNN 220700Z AUTO 18010KT 7SM 23/12 A3012 RMK SLP187 T02300120 IEM_DS3505
ZGNN,1997-02-22 08:00,ZGNN 220800Z AUTO 16008KT 7SM 23/12 A3012 RMK SLP187 T02300120 IEM_DS3505
ZGNN,1997-02-22 09:00,ZGNN 220900Z AUTO 00000KT 9SM 23/14 A3009 RMK SLP187 T02290137 57022 IEM_DS3505
ZGNN,1997-02-22 10:00,ZGNN 221000Z AUTO 16010KT 7SM 23/11 A3009 RMK SLP177 T02300110 IEM_DS3505
ZGNN,1997-02-22 11:00,ZGNN 221100Z AUTO 17008KT 7SM 21/10 A3009 RMK SLP178 T02100100 IEM_DS3505
ZGNN,1997-02-22 12:00,ZGNN 221200Z AUTO 00000KT 9SM 18/14 A3012 RMK SLP188 T01840143 52001 IEM_DS3505
ZGNN,1997-02-22 13:00,ZGNN 221300Z AUTO 18004KT 6SM 17/12 A3012 RMK SLP189 T01700120 IEM_DS3505
ZGNN,1997-02-22 15:00,ZGNN 221500Z AUTO 00000KT 9SM 18/13 A3016 RMK SLP202 T01850128 52014 IEM_DS3505
ZGNN,1997-02-22 18:00,ZGNN 221800Z AUTO 00000KT 7SM 15/14 A3017 RMK SLP205 T01540138 52003 IEM_DS3505
ZGNN,1997-02-22 21:00,ZGNN 222100Z AUTO 04002KT 6SM 14/13 A3015 RMK SLP201 T01410132 57004 IEM_DS3505
ZGNN,1997-02-22 22:00,ZGNN 222200Z AUTO 00000KT 1 1/2SM 13/13 A3015 RMK SLP200 T01300130 IEM_DS3505
ZGNN,1997-02-22 23:00,ZGNN 222300Z AUTO 00000KT 1 1/2SM 14/14 A3015 RMK SLP200 T01400140 IEM_DS3505
ZGNN,1997-02-23 00:00,ZGNN 230000Z AUTO 00000KT 6SM 14/13 A3015 RMK SLP210 T01430134 52009 IEM_DS3505
ZGNN,1997-02-23 01:00,ZGNN 230100Z AUTO 04002KT 2 1/2SM 16/14 A3018 RMK SLP209 T01600140 IEM_DS3505
ZGNN,1997-02-23 02:00,ZGNN 230200Z AUTO 11006KT 3SM 17/15 A3021 RMK SLP219 T01700150 IEM_DS3505
ZGNN,1997-02-23 03:00,ZGNN 230300Z AUTO 27004KT 6SM 18/14 A3021 RMK SLP224 T01850140 52014 IEM_DS3505
ZGNN,1997-02-23 04:00,ZGNN 230400Z AUTO 20006KT 7SM 20/15 A3018 RMK SLP208 T02000150 IEM_DS3505
ZGNN,1997-02-23 05:00,ZGNN 230500Z AUTO 18012KT 7SM 22/15 A3015 RMK SLP198 T02200150 IEM_DS3505
ZGNN,1997-02-23 06:00,ZGNN 230600Z AUTO 11002KT 9SM 22/15 A3012 RMK SLP195 T02150151 57029 IEM_DS3505
ZGNN,1997-02-23 07:00,ZGNN 230700Z AUTO 12012KT 7SM 24/15 A3009 RMK SLP177 T02400150 IEM_DS3505
ZGNN,1997-02-23 08:00,ZGNN 230800Z AUTO 16012KT 7SM 23/15 A3006 RMK SLP167 T02300150 IEM_DS3505
ZGNN,1997-02-23 09:00,ZGNN 230900Z AUTO 20002KT 9SM 23/15 A3006 RMK SLP171 T02310151 57023 IEM_DS3505
ZGNN,1997-02-23 10:00,ZGNN 231000Z AUTO 16010KT 6SM 22/16 A3006 RMK SLP167 T02200160 IEM_DS3505
ZGNN,1997-02-23 11:00,ZGNN 231100Z AUTO 17008KT 6SM A3006 RMK IEM_DS3505
ZGNN,1997-02-23 12:00,ZGNN 231200Z AUTO 20002KT 9SM 20/16 A3009 RMK SLP181 T02050162 52009 IEM_DS3505
ZGNN,1997-02-23 15:00,ZGNN 231500Z AUTO 27002KT 9SM 19/16 A3015 RMK SLP197 T01930163 52016 IEM_DS3505
ZGNN,1997-02-23 18:00,ZGNN 231800Z AUTO 00000KT 9SM 19/16 A3013 RMK SLP192 T01900165 57004 IEM_DS3505
ZGNN,1997-02-23 21:00,ZGNN 232100Z AUTO 20002KT 9SM 19/16 A3009 RMK SLP181 T01870165 57011 IEM_DS3505
ZGNN,1997-02-23 22:00,ZGNN 232200Z AUTO 16008KT 4SM 18/17 A3009 RMK SLP179 T01800170 IEM_DS3505
ZGNN,1997-02-23 23:00,ZGNN 232300Z AUTO 15008KT 4SM 18/16 A3012 RMK SLP189 T01800160 IEM_DS3505
ZGNN,1997-02-24 00:00,ZGNN 240000Z AUTO 00000KT 7SM 18/16 A3012 RMK SLP193 T01850165 52012 IEM_DS3505
ZGNN,1997-02-24 01:00,ZGNN 240100Z AUTO 18004KT 5SM 18/16 A3015 RMK SLP199 T01800160 IEM_DS3505
ZGNN,1997-02-24 02:00,ZGNN 240200Z AUTO 17006KT 7SM 18/17 A3018 RMK SLP209 T01800170 IEM_DS3505
ZGNN,1997-02-24 03:00,ZGNN 240300Z AUTO 09002KT 9SM 20/16 A3018 RMK SLP212 T02000164 52019 IEM_DS3505
ZGNN,1997-02-24 04:00,ZGNN 240400Z AUTO 15006KT 7SM 19/17 A3018 RMK SLP209 T01900170 IEM_DS3505
ZGNN,1997-02-24 05:00,ZGNN 240500Z AUTO 16006KT 7SM 20/17 A3015 RMK SLP198 T02000170 IEM_DS3505
ZGNN,1997-02-24 06:00,ZGNN 240600Z AUTO 20002KT 10SM 22/17 A3012 RMK SLP189 T02180173 57023 IEM_DS3505
ZGNN,1997-02-24 07:00,ZGNN 240700Z AUTO 16010KT 7SM 22/17 A3009 RMK SLP177 T02200170 IEM_DS3505
ZGNN,1997-02-24 08:00,ZGNN 240800Z AUTO 15010KT 7SM 22/16 A3009 RMK SLP177 T02200160 IEM_DS3505
ZGNN,1997-02-24 09:00,ZGNN 240900Z AUTO 34002KT 16SM 22/17 A3006 RMK SLP175 T02200168 57014 IEM_DS3505
ZGNN,1997-02-24 10:00,ZGNN 241000Z AUTO 16008KT 7SM 22/17 A3009 RMK SLP177 T02200170 IEM_DS3505
ZGNN,1997-02-24 11:00,ZGNN 241100Z AUTO 18004KT 7SM 20/17 A3009 RMK SLP178 T02000170 IEM_DS3505
ZGNN,1997-02-24 12:00,ZGNN 241200Z AUTO 00000KT 12SM 20/17 A3012 RMK SLP187 T01960172 52012 IEM_DS3505
ZGNN,1997-02-24 13:00,ZGNN 241300Z AUTO 17004KT 7SM 19/16 A3012 RMK SLP188 T01900160 IEM_DS3505
ZGNN,1997-02-24 18:00,ZGNN 241800Z AUTO 00000KT 9SM 18/17 A3013 RMK SLP190 T01810169 57007 IEM_DS3505
ZGNN,1997-02-24 21:00,ZGNN 242100Z AUTO 00000KT 7SM 18/17 A3009 RMK SLP185 T01800170 57005 IEM_DS3505
ZGNN,1997-02-24 22:00,ZGNN 242200Z AUTO 00000KT 4SM 18/17 A3009 RMK SLP179 T01800170 IEM_DS3505
ZGNN,1997-02-24 23:00,ZGNN 242300Z AUTO 00000KT 4SM 18/17 A3012 RMK SLP189 T01800170 IEM_DS3505
ZGNN,1997-02-25 00:00,ZGNN 250000Z AUTO 00000KT 6SM 18/17 A3015 RMK SLP201 T01820169 52015 IEM_DS3505
ZGNN,1997-02-25 01:00,ZGNN 250100Z AUTO 15008KT 2 1/2SM 18/17 A3015 RMK SLP199 T01800170 IEM_DS3505
ZGNN,1997-02-25 02:00,ZGNN 250200Z AUTO 16004KT 5SM 19/18 A3018 RMK SLP209 T01900180 IEM_DS3505
ZGNN,1997-02-25 03:00,ZGNN 250300Z AUTO 20002KT 11SM 21/17 A3018 RMK SLP212 T02070171 52012 IEM_DS3505
ZGNN,1997-02-25 04:00,ZGNN 250400Z AUTO 17012KT 7SM 21/17 A3018 RMK SLP208 T02100170 IEM_DS3505
ZGNN,1997-02-25 05:00,ZGNN 250500Z AUTO 17006KT 7SM 23/17 A3012 RMK SLP187 T02300170 IEM_DS3505
ZGNN,1997-02-25 06:00,ZGNN 250600Z AUTO 22004KT 12SM 25/16 A3009 RMK SLP182 T02500161 57030 IEM_DS3505
ZGNN,1997-02-25 07:00,ZGNN 250700Z AUTO 15014KT 7SM 25/16 A3006 RMK SLP166 T02500160 IEM_DS3505
ZGNN,1997-02-25 08:00,ZGNN 250800Z AUTO 18006KT 7SM 25/16 A3006 RMK SLP166 T02500160 IEM_DS3505
ZGNN,1997-02-25 09:00,ZGNN 250900Z AUTO 25004KT 12SM 25/16 A3006 RMK SLP166 T02530159 57015 IEM_DS3505
ZGNN,1997-02-25 10:00,ZGNN 251000Z AUTO 14006KT 7SM 24/16 A3003 RMK SLP157 T02400160 IEM_DS3505
ZGNN,1997-02-25 11:00,ZGNN 251100Z AUTO 17006KT 7SM 22/16 A3006 RMK SLP167 T02200160 IEM_DS3505
ZGNN,1997-02-25 12:00,ZGNN 251200Z AUTO 25002KT 12SM 23/17 A3006 RMK SLP170 T02280166 52003 IEM_DS3505
ZGNN,1997-02-25 13:00,ZGNN 251300Z AUTO 20004KT 7SM 21/16 A3009 RMK SLP178 T02100160 IEM_DS3505
ZGNN,1997-02-25 15:00,ZGNN 251500Z AUTO 20002KT 11SM 21/16 A3011 RMK SLP184 T02080164 52014 IEM_DS3505
ZGNN,1997-02-25 18:00,ZGNN 251800Z AUTO 07002KT 11SM 18/17 A3011 RMK SLP186 T01830166 52002 IEM_DS3505
ZGNN,1997-02-25 21:00,ZGNN 252100Z AUTO 00000KT 11SM 18/17 A3009 RMK SLP179 T01770167 57007 IEM_DS3505
ZGNN,1997-02-25 22:00,ZGNN 252200Z AUTO 00000KT 2 1/2SM 17/16 A3009 RMK SLP179 T01700160 IEM_DS3505
ZGNN,1997-02-25 23:00,ZGNN 252300Z AUTO 00000KT 2SM 17/16 A3012 RMK SLP189 T01700160 IEM_DS3505
ZGNN,1997-02-26 00:00,ZGNN 260000Z AUTO 00000KT 6SM 18/17 A3012 RMK SLP195 T01850169 52016 IEM_DS3505
ZGNN,1997-02-26 01:00,ZGNN 260100Z AUTO 00000KT 4SM 20/18 A3015 RMK SLP198 T02000180 IEM_DS3505
ZGNN,1997-02-26 02:00,ZGNN 260200Z AUTO 13008KT 6SM 21/18 A3015 RMK SLP198 T02100180 IEM_DS3505
ZGNN,1997-02-26 03:00,ZGNN 260300Z AUTO 27004KT 19SM 24/18 A3015 RMK SLP203 T02350183 52008 IEM_DS3505
ZGNN,1997-02-26 04:00,ZGNN 260400Z AUTO 09004KT 7SM 24/17 A3015 RMK SLP197 T02400170 IEM_DS3505
ZGNN,1997-02-26 05:00,ZGNN 260500Z AUTO 08004KT 7SM 25/16 A3009 RMK SLP177 T02500160 IEM_DS3505
ZGNN,1997-02-26 06:00,ZGNN 260600Z AUTO 09004KT 16SM 27/16 A3006 RMK SLP165 T02670162 57037 IEM_DS3505
ZGNN,1997-02-26 07:00,ZGNN 260700Z AUTO 11006KT 7SM 27/15 A3000 RMK SLP146 T02700150 IEM_DS3505
ZGNN,1997-02-26 08:00,ZGNN 260800Z AUTO 15010KT 7SM 27/14 A3000 RMK SLP146 T02700140 IEM_DS3505
ZGNN,1997-02-26 09:00,ZGNN 260900Z AUTO 27004KT 16SM 27/14 A2997 RMK SLP143 T02720145 57022 IEM_DS3505
ZGNN,1997-02-26 10:00,ZGNN 261000Z AUTO 14008KT 7SM 27/14 A2997 RMK SLP136 T02700140 IEM_DS3505
ZGNN,1997-02-26 11:00,ZGNN 261100Z AUTO 15006KT 6SM 24/15 A2997 RMK SLP136 T02400150 IEM_DS3505
ZGNN,1997-02-26 12:00,ZGNN 261200Z AUTO 20002KT 12SM 24/15 A3000 RMK SLP149 T02440153 52006 IEM_DS3505
ZGNN,1997-02-26 13:00,ZGNN 261300Z AUTO 18006KT 6SM 22/16 A3003 RMK SLP157 T02200160 IEM_DS3505
ZGNN,1997-02-26 14:00,ZGNN 261400Z AUTO 00000KT 6SM 20/16 A3006 RMK SLP168 T02000160 IEM_DS3505
ZGNN,1997-02-26 15:00,ZGNN 261500Z AUTO 20004KT 12SM 22/16 A3006 RMK SLP168 T02190158 52019 IEM_DS3505
ZGNN,1997-02-26 16:00,ZGNN 261600Z AUTO 16004KT 6SM 18/16 A3006 RMK SLP168 T01800160 IEM_DS3505
ZGNN,1997-02-26 17:00,ZGNN 261700Z AUTO 00000KT 6SM 18/15 A3006 RMK SLP168 T01800150 IEM_DS3505
ZGNN,1997-02-26 18:00,ZGNN 261800Z AUTO 07004KT 11SM 19/16 A3007 RMK SLP170 T01920164 52002 IEM_DS3505
ZGNN,1997-02-26 21:00,ZGNN 262100Z AUTO 07004KT 10SM 18/16 A3006 RMK SLP173 T01830163 52003 IEM_DS3505
ZGNN,1997-02-26 22:00,ZGNN 262200Z AUTO 09004KT 7SM 18/17 A3006 RMK SLP168 T01800170 IEM_DS3505
ZGNN,1997-02-26 23:00,ZGNN 262300Z AUTO 00000KT 7SM 18/17 A3009 RMK SLP179 T01800170 IEM_DS3505
ZGNN,1997-02-27 00:00,ZGNN 270000Z AUTO 07002KT 9SM 19/17 A3009 RMK SLP185 T01910171 52011 IEM_DS3505
ZGNN,1997-02-27 01:00,ZGNN 270100Z AUTO 14008KT 7SM 19/17 A3012 RMK SLP188 T01900170 IEM_DS3505
ZGNN,1997-02-27 02:00,ZGNN 270200Z AUTO 14010KT 7SM 20/17 A3012 RMK SLP188 T02000170 IEM_DS3505
ZGNN,1997-02-27 03:00,ZGNN 270300Z AUTO 22002KT 11SM 21/17 A3012 RMK SLP197 T02090170 52012 IEM_DS3505
ZGNN,1997-02-27 04:00,ZGNN 270400Z AUTO 17008KT 7SM 23/17 A3012 RMK SLP187 T02300170 IEM_DS3505
ZGNN,1997-02-27 05:00,ZGNN 270500Z AUTO 13008KT 7SM 24/16 A3009 RMK SLP177 T02400160 IEM_DS3505
ZGNN,1997-02-27 06:00,ZGNN 270600Z AUTO 20006KT 14SM 25/16 A3003 RMK SLP160 T02510156 57036 IEM_DS3505
ZGNN,1997-02-27 07:00,ZGNN 270700Z AUTO 16014KT 7SM 26/15 A3000 RMK SLP146 T02600150 IEM_DS3505
ZGNN,1997-02-27 08:00,ZGNN 270800Z AUTO 15010KT 7SM 26/15 A2997 RMK SLP136 T02600150 IEM_DS3505
ZGNN,1997-02-27 09:00,ZGNN 270900Z AUTO 22006KT 16SM 27/16 A2997 RMK SLP140 T02670157 57020 IEM_DS3505
ZGNN,1997-02-27 10:00,ZGNN 271000Z AUTO 15014KT 7SM 25/15 A2997 RMK SLP136 T02500150 IEM_DS3505
ZGNN,1997-02-27 11:00,ZGNN 271100Z AUTO 15008KT 7SM 23/16 A3000 RMK SLP147 T02300160 IEM_DS3505
ZGNN,1997-02-27 12:00,ZGNN 271200Z AUTO 00000KT 16SM 24/13 A3000 RMK SLP148 T02350130 52008 IEM_DS3505
ZGNN,1997-02-27 13:00,ZGNN 271300Z AUTO 16006KT 6SM 20/16 A3003 RMK SLP158 T02000160 IEM_DS3505
ZGNN,1997-02-27 15:00,ZGNN 271500Z AUTO 22004KT 16SM 21/16 A3005 RMK SLP166 T02110163 52017 IEM_DS3505
ZGNN,1997-02-27 18:00,ZGNN 271800Z AUTO 22006KT 12SM 20/17 A3007 RMK SLP169 T02010172 52004 IEM_DS3505
ZGNN,1997-02-27 21:00,ZGNN 272100Z AUTO 00000KT 11SM 20/17 A3004 RMK SLP161 T02000174 57008 IEM_DS3505
ZGNN,1997-02-27 22:00,ZGNN 272200Z AUTO 00000KT 6SM 16/16 A3006 RMK SLP169 T01600160 IEM_DS3505
ZGNN,1997-02-27 23:00,ZGNN 272300Z AUTO 00000KT 7SM 16/15 A3006 RMK SLP169 T01600150 IEM_DS3505
ZGNN,1997-02-28 00:00,ZGNN 280000Z AUTO 07002KT 5SM 19/18 A3009 RMK SLP180 T01940178 52018 IEM_DS3505
ZGNN,1997-02-28 01:00,ZGNN 280100Z AUTO 00000KT 5SM 19/18 A3009 RMK SLP178 T01900180 IEM_DS3505
ZGNN,1997-02-28 02:00,ZGNN 280200Z AUTO 21004KT 7SM 20/18 A3012 RMK SLP188 T02000180 IEM_DS3505
ZGNN,1997-02-28 03:00,ZGNN 280300Z AUTO 09002KT 8SM 22/18 A3012 RMK SLP189 T02250184 52009 IEM_DS3505
ZGNN,1997-02-28 04:00,ZGNN 280400Z AUTO 17010KT 7SM 23/18 A3009 RMK SLP177 T02300180 IEM_DS3505
ZGNN,1997-02-28 05:00,ZGNN 280500Z AUTO 13008KT 7SM 24/17 A3006 RMK SLP167 T02400170 IEM_DS3505
ZGNN,1997-02-28 06:00,ZGNN 280600Z AUTO 27002KT 11SM 24/18 A3003 RMK SLP157 T02370177 57031 IEM_DS3505
ZGNN,1997-02-28 07:00,ZGNN 280700Z AUTO 11006KT 7SM 25/17 A3000 RMK SLP146 T02500170 IEM_DS3505
ZGNN,1997-02-28 08:00,ZGNN 280800Z AUTO 14008KT 7SM 25/17 A2997 RMK SLP136 T02500170 IEM_DS3505
ZGNN,1997-02-28 09:00,ZGNN 280900Z AUTO 11002KT 12SM 24/18 A2997 RMK SLP138 T02450175 57019 IEM_DS3505
ZGNN,1997-02-28 10:00,ZGNN 281000Z AUTO 13008KT 7SM 24/17 A2997 RMK SLP136 T02400170 IEM_DS3505
ZGNN,1997-02-28 11:00,ZGNN 281100Z AUTO 13008KT 7SM 23/17 A2997 RMK SLP137 T02300170 IEM_DS3505
ZGNN,1997-02-28 12:00,ZGNN 281200Z AUTO 00000KT 14SM 23/18 A3000 RMK SLP148 T02320180 52010 IEM_DS3505
ZGNN,1997-02-28 13:00,ZGNN 281300Z AUTO 15006KT 7SM 22/18 A3003 RMK SLP157 T02200180 IEM_DS3505
ZGNN,1997-02-28 15:00,ZGNN 281500Z AUTO 07002KT 12SM 22/18 A3005 RMK SLP164 T02180178 52016 IEM_DS3505
ZGNN,1997-02-28 18:00,ZGNN 281800Z AUTO 00000KT 12SM 21/18 A3003 RMK SLP157 T02120178 57007 IEM_DS3505
ZGNN,1997-02-28 21:00,ZGNN 282100Z AUTO 07002KT 12SM 21/18 A3000 RMK SLP150 T02080176 57007 IEM_DS3505
ZGNN,1997-02-28 22:00,ZGNN 282200Z AUTO 01004KT 7SM 19/17 A3000 RMK SLP148 T01900170 IEM_DS3505
ZGNN,1997-02-28 23:00,ZGNN 282300Z AUTO 06004KT 6SM 19/17 A3000 RMK SLP148 T01900170 IEM_DS3505
ZGNN,1997-03-01 00:00,ZGNN 010000Z AUTO 11002KT 9SM 20/18 A3003 RMK SLP162 T01990176 52012 IEM_DS3505
ZGNN,1997-03-01 01:00,ZGNN 010100Z AUTO 09004KT 7SM 20/17 A3006 RMK SLP168 T02000170 IEM_DS3505
ZGNN,1997-03-01 02:00,ZGNN 010200Z AUTO 12008KT 7SM 21/18 A3006 RMK SLP168 T02100180 IEM_DS3505
ZGNN,1997-03-01 03:00,ZGNN 010300Z AUTO 27002KT 11SM 23/18 A3006 RMK SLP167 T02280179 52005 IEM_DS3505
ZGNN,1997-03-01 04:00,ZGNN 010400Z AUTO 15006KT 7SM 23/16 A3003 RMK SLP157 T02300160 IEM_DS3505
ZGNN,1997-03-01 05:00,ZGNN 010500Z AUTO 14008KT 7SM 24/18 A3000 RMK SLP147 T02400180 IEM_DS3505
ZGNN,1997-03-01 06:00,ZGNN 010600Z AUTO 11004KT 12SM 24/18 A2994 RMK SLP138 T02450175 57029 IEM_DS3505
ZGNN,1997-03-01 07:00,ZGNN 010700Z AUTO 14010KT 7SM 25/17 A2991 RMK SLP116 T02500170 IEM_DS3505
ZGNN,1997-03-01 08:00,ZGNN 010800Z AUTO 14006KT 7SM 25/16 A2991 RMK SLP116 T02500160 IEM_DS3505
ZGNN,1997-03-01 09:00,ZGNN 010900Z AUTO 04004KT 12SM 25/17 A2991 RMK SLP120 T02470172 57018 IEM_DS3505
ZGNN,1997-03-01 10:00,ZGNN 011000Z AUTO 16012KT 7SM 25/15 A2991 RMK SLP116 T02500150 IEM_DS3505
ZGNN,1997-03-01 11:00,ZGNN 011100Z AUTO 12008KT 7SM 24/16 A2994 RMK SLP126 T02400160 IEM_DS3505
ZGNN,1997-03-01 12:00,ZGNN 011200Z AUTO 07004KT 12SM 22/16 A2997 RMK SLP139 T02190156 52019 IEM_DS3505
ZGNN,1997-03-01 13:00,ZGNN 011300Z AUTO 06006KT 7SM 22/16 A3000 RMK SLP147 T02200160 IEM_DS3505
ZGNN,1997-03-01 15:00,ZGNN 011500Z AUTO 02004KT 9SM 18/16 A3008 RMK SLP176 T01750155 52036 IEM_DS3505
ZGNN,1997-03-01 18:00,ZGNN 011800Z AUTO 02006KT 7SM 14/13 A3015 RMK 60031 SLP197 T01440133 52021 IEM_DS3505
ZGNN,1997-03-01 21:00,ZGNN 012100Z AUTO 02006KT 7SM 14/12 A3015 RMK 70055 SLP208 T01410125 52011 IEM_DS3505
ZGNN,1997-03-01 22:00,ZGNN 012200Z AUTO 01008KT 6SM 13/12 A3015 RMK SLP200 T01300120 IEM_DS3505
ZGNN,1997-03-01 23:00,ZGNN 012300Z AUTO 02004KT 7SM 13/12 A3018 RMK SLP210 T01300120 IEM_DS3505
ZGNN,1997-03-02 00:00,ZGNN 020000Z AUTO 34004KT 9SM 14/12 A3024 RMK 60028 70059 SLP232 T01350116 52023 IEM_DS3505
ZGNN,1997-03-02 01:00,ZGNN 020100Z AUTO 01008KT 7SM 14/11 A3027 RMK SLP241 T01400110 IEM_DS3505
ZGNN,1997-03-02 02:00,ZGNN 020200Z AUTO 01010KT 7SM 14/10 A3027 RMK SLP241 T01400100 IEM_DS3505
ZGNN,1997-03-02 03:00,ZGNN 020300Z AUTO 07002KT 12SM 15/11 A3030 RMK SLP250 T01470113 52017 IEM_DS3505
ZGNN,1997-03-02 04:00,ZGNN 020400Z AUTO 01004KT 7SM 15/10 A3027 RMK SLP241 T01500100 IEM_DS3505
ZGNN,1997-03-02 05:00,ZGNN 020500Z AUTO 35008KT 7SM 15/10 A3027 RMK SLP241 T01500100 IEM_DS3505
ZGNN,1997-03-02 06:00,ZGNN 020600Z AUTO 34006KT 16SM 16/10 A3024 RMK SLP230 T01640102 57020 IEM_DS3505
ZGNN,1997-03-02 07:00,ZGNN 020700Z AUTO 36010KT 7SM 17/08 A3021 RMK SLP219 T01700080 IEM_DS3505
ZGNN,1997-03-02 08:00,ZGNN 020800Z AUTO 35012KT 7SM 17/09 A3018 RMK SLP209 T01700090 IEM_DS3505
ZGNN,1997-03-02 09:00,ZGNN 020900Z AUTO 02008KT 16SM 17/09 A3021 RMK SLP221 T01700091 57009 IEM_DS3505
ZGNN,1997-03-02 10:00,ZGNN 021000Z AUTO 02008KT 7SM 17/09 A3018 RMK SLP209 T01700090 IEM_DS3505
ZGNN,1997-03-02 11:00,ZGNN 021100Z AUTO 06004KT 6SM 15/11 A3021 RMK SLP220 T01500110 IEM_DS3505
ZGNN,1997-03-02 12:00,ZGNN 021200Z AUTO 07002KT 12SM 14/09 A3021 RMK SLP232 T01440087 52011 IEM_DS3505
ZGNN,1997-03-02 13:00,ZGNN 021300Z AUTO 06004KT 6SM 13/09 A3024 RMK SLP231 T01300090 IEM_DS3505
ZGNN,1997-03-02 15:00,ZGNN 021500Z AUTO 00000KT 12SM 13/09 A3030 RMK SLP250 T01300088 52017 IEM_DS3505
ZGNN,1997-03-02 18:00,ZGNN 021800Z AUTO 00000KT 11SM 13/09 A3028 RMK SLP245 T01260086 57004 IEM_DS3505
ZGNN,1997-03-02 21:00,ZGNN 022100Z AUTO 00000KT 9SM 12/10 A3024 RMK 70008 SLP239 T01220099 57006 IEM_DS3505
ZGNN,1997-03-02 22:00,ZGNN 022200Z AUTO 00000KT 7SM 11/10 A3024 RMK SLP231 T01100100 IEM_DS3505
ZGNN,1997-03-02 23:00,ZGNN 022300Z AUTO 00000KT 7SM 11/10 A3027 RMK SLP242 T01100100 IEM_DS3505
ZGNN,1997-03-03 00:00,ZGNN 030000Z AUTO 00000KT 8SM 12/09 A3030 RMK SLP252 T01230089 52012 IEM_DS3505
ZGNN,1997-03-03 01:00,ZGNN 030100Z AUTO 00000KT 7SM 13/11 A3033 RMK SLP262 T01300110 IEM_DS3505
ZGNN,1997-03-03 02:00,ZGNN 030200Z AUTO 05006KT 6SM 15/08 A3033 RMK SLP261 T01500080 IEM_DS3505
ZGNN,1997-03-03 03:00,ZGNN 030300Z AUTO 07004KT 11SM 17/09 A3033 RMK SLP260 T01720094 52009 IEM_DS3505
ZGNN,1997-03-03 04:00,ZGNN 030400Z AUTO 11008KT 6SM 18/10 A3030 RMK SLP250 T01800100 IEM_DS3505
ZGNN,1997-03-03 05:00,ZGNN 030500Z AUTO 11006KT 6SM 19/10 A3024 RMK SLP229 T01900100 IEM_DS3505
ZGNN,1997-03-03 06:00,ZGNN 030600Z AUTO 20004KT 12SM 20/10 A3021 RMK SLP216 T02010101 57043 IEM_DS3505
ZGNN,1997-03-03 07:00,ZGNN 030700Z AUTO 21004KT 6SM 21/10 A3015 RMK SLP198 T02100100 IEM_DS3505
ZGNN,1997-03-03 08:00,ZGNN 030800Z AUTO 00000KT 6SM 21/10 A3012 RMK SLP188 T02100100 IEM_DS3505
ZGNN,1997-03-03 09:00,ZGNN 030900Z AUTO 20002KT 14SM 21/11 A3012 RMK SLP191 T02130108 57025 IEM_DS3505
ZGNN,1997-03-03 10:00,ZGNN 031000Z AUTO 13008KT 6SM 21/11 A3009 RMK SLP178 T02100110 IEM_DS3505
ZGNN,1997-03-03 11:00,ZGNN 031100Z AUTO 13004KT 6SM 20/12 A3012 RMK SLP188 T02000120 IEM_DS3505
ZGNN,1997-03-03 12:00,ZGNN 031200Z AUTO 04002KT 16SM 19/13 A3012 RMK SLP198 T01890127 52006 IEM_DS3505
ZGNN,1997-03-03 13:00,ZGNN 031300Z AUTO 15006KT 6SM 17/13 A3015 RMK SLP199 T01700130 IEM_DS3505
ZGNN,1997-03-03 15:00,ZGNN 031500Z AUTO 00000KT 14SM 18/13 A3020 RMK SLP217 T01800128 52020 IEM_DS3505
ZGNN,1997-03-03 18:00,ZGNN 031800Z AUTO 07004KT 14SM 17/13 A3020 RMK SLP215 T01690126 57002 IEM_DS3505
ZGNN,1997-03-03 21:00,ZGNN 032100Z AUTO 07004KT 12SM 17/13 A3018 RMK SLP210 T01670126 57005 IEM_DS3505
ZGNN,1997-03-03 22:00,ZGNN 032200Z AUTO 13008KT 7SM 16/13 A3021 RMK SLP220 T01600130 IEM_DS3505
ZGNN,1997-03-03 23:00,ZGNN 032300Z AUTO 14006KT 7SM 16/14 A3021 RMK SLP220 T01600140 IEM_DS3505
ZGNN,1997-03-04 00:00,ZGNN 040000Z AUTO 00000KT 9SM 17/14 A3024 RMK SLP236 T01670137 52026 IEM_DS3505
ZGNN,1997-03-04 01:00,ZGNN 040100Z AUTO 15008KT 7SM 17/14 A3024 RMK SLP229 T01700140 IEM_DS3505
ZGNN,1997-03-04 02:00,ZGNN 040200Z AUTO 15008KT 7SM 18/14 A3027 RMK SLP240 T01800140 IEM_DS3505
ZGNN,1997-03-04 03:00,ZGNN 040300Z AUTO 04002KT 9SM 19/14 A3024 RMK SLP239 T01910137 52003 IEM_DS3505
ZGNN,1997-03-04 04:00,ZGNN 040400Z AUTO 18008KT 7SM 21/13 A3024 RMK SLP228 T02100130 IEM_DS3505
ZGNN,1997-03-04 05:00,ZGNN 040500Z AUTO 19010KT 7SM 21/12 A3018 RMK SLP208 T02100120 IEM_DS3505
ZGNN,1997-03-04 06:00,ZGNN 040600Z AUTO 20004KT 16SM 21/12 A3015 RMK SLP203 T02130125 57036 IEM_DS3505
ZGNN,1997-03-04 07:00,ZGNN 040700Z AUTO 18010KT 7SM 21/13 A3012 RMK SLP188 T02100130 IEM_DS3505
ZGNN,1997-03-04 08:00,ZGNN 040800Z AUTO 17010KT 7SM 21/13 A3009 RMK SLP178 T02100130 IEM_DS3505
ZGNN,1997-03-04 09:00,ZGNN 040900Z AUTO 22004KT 16SM 21/13 A3009 RMK SLP180 T02130129 57022 IEM_DS3505
ZGNN,1997-03-04 10:00,ZGNN 041000Z AUTO 16006KT 7SM 20/13 A3009 RMK SLP178 T02000130 IEM_DS3505
ZGNN,1997-03-04 11:00,ZGNN 041100Z AUTO 18004KT 7SM 19/14 A3012 RMK SLP188 T01900140 IEM_DS3505
ZGNN,1997-03-04 12:00,ZGNN 041200Z AUTO 20004KT 14SM 20/13 A3012 RMK SLP189 T02000132 52008 IEM_DS3505
ZGNN,1997-03-04 13:00,ZGNN 041300Z AUTO 17004KT 7SM 19/14 A3012 RMK SLP188 T01900140 IEM_DS3505
ZGNN,1997-03-04 15:00,ZGNN 041500Z AUTO 20004KT 12SM 20/13 A3015 RMK SLP197 T01950130 52009 IEM_DS3505
ZGNN,1997-03-04 18:00,ZGNN 041800Z AUTO 00000KT 12SM 19/14 A3011 RMK SLP185 T01890135 57012 IEM_DS3505
ZGNN,1997-03-04 21:00,ZGNN 042100Z AUTO 20002KT 11SM 17/14 A3009 RMK SLP182 T01690136 57003 IEM_DS3505
ZGNN,1997-03-04 22:00,ZGNN 042200Z AUTO 15004KT 6SM 15/14 A3009 RMK SLP179 T01500140 IEM_DS3505
ZGNN,1997-03-04 23:00,ZGNN 042300Z AUTO 00000KT 5SM 15/14 A3012 RMK SLP190 T01500140 IEM_DS3505
ZGNN,1997-03-05 00:00,ZGNN 050000Z AUTO 00000KT 8SM 17/15 A3012 RMK SLP197 T01660149 52014 IEM_DS3505
ZGNN,1997-03-05 01:00,ZGNN 050100Z AUTO 00000KT 4SM 16/15 A3015 RMK SLP199 T01600150 IEM_DS3505
ZGNN,1997-03-05 02:00,ZGNN 050200Z AUTO 18008KT 7SM 19/16 A3015 RMK SLP198 T01900160 IEM_DS3505
ZGNN,1997-03-05 03:00,ZGNN 050300Z AUTO 20008KT 9SM 21/16 A3015 RMK SLP202 T02090157 52006 IEM_DS3505
ZGNN,1997-03-05 04:00,ZGNN 050400Z AUTO 16010KT 7SM 23/15 A3012 RMK SLP187 T02300150 IEM_DS3505
ZGNN,1997-03-05 05:00,ZGNN 050500Z AUTO 19008KT 7SM 23/14 A3009 RMK SLP177 T02300140 IEM_DS3505
ZGNN,1997-03-05 06:00,ZGNN 050600Z AUTO 14004KT 14SM 22/16 A3003 RMK SLP163 T02220161 57039 IEM_DS3505
ZGNN,1997-03-05 07:00,ZGNN 050700Z AUTO 16008KT 7SM 24/15 A2997 RMK SLP136 T02400150 IEM_DS3505
ZGNN,1997-03-05 08:00,ZGNN 050800Z AUTO 13010KT 7SM 24/15 A2997 RMK SLP136 T02400150 IEM_DS3505
ZGNN,1997-03-05 09:00,ZGNN 050900Z AUTO 16004KT 12SM 23/16 A2994 RMK SLP134 T02330165 57029 IEM_DS3505
ZGNN,1997-03-05 10:00,ZGNN 051000Z AUTO 15016KT 6SM 23/15 A2994 RMK SLP127 T02300150 IEM_DS3505
ZGNN,1997-03-05 11:00,ZGNN 051100Z AUTO 16008KT 6SM 21/15 A2997 RMK SLP137 T02100150 IEM_DS3505
ZGNN,1997-03-05 12:00,ZGNN 051200Z AUTO 27002KT 11SM 21/16 A3000 RMK SLP148 T02130158 52014 IEM_DS3505
ZGNN,1997-03-05 13:00,ZGNN 051300Z AUTO 00000KT 6SM 19/16 A3003 RMK SLP158 T01900160 IEM_DS3505
ZGNN,1997-03-05 15:00,ZGNN 051500Z AUTO 00000KT 11SM 20/15 A3008 RMK SLP174 T02000151 52026 IEM_DS3505
ZGNN,1997-03-05 18:00,ZGNN 051800Z AUTO 00000KT 11SM 18/15 A3007 RMK SLP173 T01760154 57001 IEM_DS3505
ZGNN,1997-03-05 21:00,ZGNN 052100Z AUTO 04002KT 9SM 17/16 A3006 RMK SLP169 T01740157 57004 IEM_DS3505
ZGNN,1997-03-05 22:00,ZGNN 052200Z AUTO 00000KT 7SM 17/16 A3006 RMK SLP169 T01700160 IEM_DS3505
ZGNN,1997-03-05 23:00,ZGNN 052300Z AUTO 15002KT 4SM 17/16 A3009 RMK SLP179 T01700160 IEM_DS3505
ZGNN,1997-03-06 00:00,ZGNN 060000Z AUTO 00000KT 7SM 18/17 A3012 RMK SLP191 T01810168 52022 IEM_DS3505
ZGNN,1997-03-06 02:00,ZGNN 060200Z AUTO 15010KT 7SM 21/17 A3015 RMK SLP198 T02100170 IEM_DS3505
ZGNN,1997-03-06 03:00,ZGNN 060300Z AUTO 09004KT 9SM 22/18 A3015 RMK SLP201 T02250180 52010 IEM_DS3505
ZGNN,1997-03-06 04:00,ZGNN 060400Z AUTO 16008KT 7SM 24/16 A3012 RMK SLP187 T02400160 IEM_DS3505
ZGNN,1997-03-06 05:00,ZGNN 060500Z AUTO 17012KT 7SM 24/16 A3009 RMK SLP177 T02400160 IEM_DS3505
ZGNN,1997-03-06 06:00,ZGNN 060600Z AUTO 00000KT 11SM 24/17 A3006 RMK SLP168 T02370171 57033 IEM_DS3505
ZGNN,1997-03-06 07:00,ZGNN 060700Z AUTO 13008KT 7SM 23/16 A3000 RMK SLP147 T02300160 IEM_DS3505
ZGNN,1997-03-06 08:00,ZGNN 060800Z AUTO 15006KT 7SM 23/16 A3000 RMK SLP147 T02300160 IEM_DS3505
ZGNN,1997-03-06 09:00,ZGNN 060900Z AUTO 22004KT 11SM 24/16 A3000 RMK SLP148 T02350163 57020 IEM_DS3505
ZGNN,1997-03-06 10:00,ZGNN 061000Z AUTO 14012KT 7SM 23/16 A3000 RMK SLP147 T02300160 IEM_DS3505
ZGNN,1997-03-06 11:00,ZGNN 061100Z AUTO 15008KT 7SM 22/17 A3000 RMK SLP147 T02200170 IEM_DS3505
ZGNN,1997-03-06 12:00,ZGNN 061200Z AUTO 00000KT 11SM 22/17 A3003 RMK SLP158 T02200170 52010 IEM_DS3505
ZGNN,1997-03-06 13:00,ZGNN 061300Z AUTO 14008KT 7SM 21/18 A3003 RMK SLP158 T02100180 IEM_DS3505
ZGNN,1997-03-06 15:00,ZGNN 061500Z AUTO 22002KT 11SM 21/17 A3007 RMK SLP173 T02130169 52016 IEM_DS3505
ZGNN,1997-03-06 18:00,ZGNN 061800Z AUTO 00000KT 11SM 20/17 A3009 RMK SLP176 T02040170 52003 IEM_DS3505
ZGNN,1997-03-06 21:00,ZGNN 062100Z AUTO 00000KT 9SM 19/17 A3006 RMK SLP176 T01930167 57001 IEM_DS3505
ZGNN,1997-03-06 22:00,ZGNN 062200Z AUTO 01004KT 7SM 18/17 A3009 RMK SLP179 T01800170 IEM_DS3505
ZGNN,1997-03-06 23:00,ZGNN 062300Z AUTO 06004KT 7SM 18/17 A3012 RMK SLP189 T01800170 IEM_DS3505
ZGNN,1997-03-07 00:00,ZGNN 070000Z AUTO 07002KT 8SM 19/17 A3015 RMK SLP197 T01940171 52021 IEM_DS3505
ZGNN,1997-03-07 01:00,ZGNN 070100Z AUTO 07004KT 5SM 19/17 A3018 RMK SLP209 T01900170 IEM_DS3505
ZGNN,1997-03-07 02:00,ZGNN 070200Z AUTO 12006KT 7SM 21/18 A3018 RMK SLP208 T02100180 IEM_DS3505
ZGNN,1997-03-07 03:00,ZGNN 070300Z AUTO 00000KT 9SM 22/18 A3018 RMK SLP215 T02180178 52018 IEM_DS3505
ZGNN,1997-03-07 04:00,ZGNN 070400Z AUTO 13008KT 7SM 22/18 A3018 RMK SLP208 T02200180 IEM_DS3505
ZGNN,1997-03-07 05:00,ZGNN 070500Z AUTO 12006KT 7SM 23/18 A3015 RMK SLP197 T02300180 IEM_DS3505
ZGNN,1997-03-07 06:00,ZGNN 070600Z AUTO 07004KT 12SM 24/18 A3012 RMK SLP193 T02380183 57022 IEM_DS3505
ZGNN,1997-03-07 07:00,ZGNN 070700Z AUTO 17004KT 7SM 25/17 A3009 RMK SLP177 T02500170 IEM_DS3505
ZGNN,1997-03-07 08:00,ZGNN 070800Z AUTO 14004KT 7SM 25/16 A3006 RMK SLP166 T02500160 IEM_DS3505
ZGNN,1997-03-07 09:00,ZGNN 070900Z AUTO 00000KT 12SM 25/18 A3006 RMK SLP172 T02470179 57020 IEM_DS3505
ZGNN,1997-03-07 10:00,ZGNN 071000Z AUTO 07004KT 7SM 24/18 A3006 RMK SLP167 T02400180 IEM_DS3505
ZGNN,1997-03-07 11:00,ZGNN 071100Z AUTO 00000KT 7SM 23/19 A3006 RMK SLP167 T02300190 IEM_DS3505
ZGNN,1997-03-07 12:00,ZGNN 071200Z AUTO 00000KT 10SM 22/18 A3009 RMK SLP175 T02210185 52002 IEM_DS3505
ZGNN,1997-03-07 13:00,ZGNN 071300Z AUTO 00000KT 7SM 21/18 A3009 RMK SLP178 T02100180 IEM_DS3505
ZGNN,1997-03-07 15:00,ZGNN 071500Z AUTO 00000KT 9SM 20/18 A3012 RMK SLP189 T02040185 52014 IEM_DS3505
ZGNN,1997-03-07 18:00,ZGNN 071800Z AUTO 00000KT 7SM 19/17 A3010 RMK SLP182 T01870174 57007 IEM_DS3505
ZGNN,1997-03-07 21:00,ZGNN 072100Z AUTO 00000KT 7SM 15/15 A3006 RMK SLP173 T01500150 57009 IEM_DS3505
ZGNN,1997-03-07 22:00,ZGNN 072200Z AUTO 00000KT 1/2SM 15/15 A3009 RMK SLP179 T01500150 IEM_DS3505
ZGNN,1997-03-07 23:00,ZGNN 072300Z AUTO 00000KT 1/2SM 16/16 A3012 RMK SLP189 T01600160 IEM_DS3505
ZGNN,1997-03-08 00:00,ZGNN 080000Z AUTO 00000KT 2 1/2SM 18/18 A3012 RMK SLP195 T01840178 52022 IEM_DS3505
ZGNN,1997-03-08 01:00,ZGNN 080100Z AUTO 00000KT 3/8SM 17/17 A3015 RMK SLP199 T01700170 IEM_DS3505
ZGNN,1997-03-08 02:00,ZGNN 080200Z AUTO 16004KT 4SM 19/18 A3018 RMK SLP209 T01900180 IEM_DS3505
ZGNN,1997-03-08 03:00,ZGNN 080300Z AUTO 00000KT 7SM 20/18 A3015 RMK SLP205 T02000176 52010 IEM_DS3505
ZGNN,1997-03-08 04:00,ZGNN 080400Z AUTO 18004KT 6SM 23/18 A3015 RMK SLP197 T02300180 IEM_DS3505
ZGNN,1997-03-08 05:00,ZGNN 080500Z AUTO 11008KT 7SM 26/18 A3009 RMK SLP176 T02600180 IEM_DS3505
ZGNN,1997-03-08 06:00,ZGNN 080600Z AUTO 25002KT 9SM 26/18 A3006 RMK SLP169 T02550179 57035 IEM_DS3505
ZGNN,1997-03-08 07:00,ZGNN 080700Z AUTO 15008KT 7SM 26/16 A3000 RMK SLP146 T02600160 IEM_DS3505
ZGNN,1997-03-08 08:00,ZGNN 080800Z AUTO 14010KT 7SM 27/16 A3000 RMK SLP146 T02700160 IEM_DS3505
ZGNN,1997-03-08 09:00,ZGNN 080900Z AUTO 16002KT 11SM 27/16 A2997 RMK SLP143 T02670164 57026 IEM_DS3505
ZGNN,1997-03-08 10:00,ZGNN 081000Z AUTO 15012KT 6SM 25/15 A2997 RMK SLP136 T02500150 IEM_DS3505
ZGNN,1997-03-08 11:00,ZGNN 081100Z AUTO 14010KT 6SM 24/15 A3000 RMK SLP147 T02400150 IEM_DS3505
ZGNN,1997-03-08 12:00,ZGNN 081200Z AUTO 32002KT 11SM 24/17 A3000 RMK SLP151 T02390168 52008 IEM_DS3505
ZGNN,1997-03-08 13:00,ZGNN 081300Z AUTO 00000KT 7SM 22/16 A3003 RMK SLP157 T02200160 IEM_DS3505
ZGNN,1997-03-08 15:00,ZGNN 081500Z AUTO 18002KT 9SM 22/16 A3007 RMK SLP170 T02150159 52018 IEM_DS3505
ZGNN,1997-03-08 18:00,ZGNN 081800Z AUTO 25002KT 9SM 20/16 A3007 RMK SLP172 T01990164 52003 IEM_DS3505
ZGNN,1997-03-08 21:00,ZGNN 082100Z AUTO 07002KT 9SM 20/17 A3003 RMK SLP165 T01980172 57007 IEM_DS3505
ZGNN,1997-03-08 22:00,ZGNN 082200Z AUTO 12004KT 7SM 19/17 A3006 RMK SLP168 T01900170 IEM_DS3505
ZGNN,1997-03-08 23:00,ZGNN 082300Z AUTO 13004KT 7SM 19/17 A3006 RMK SLP168 T01900170 IEM_DS3505
ZGNN,1997-03-09 00:00,ZGNN 090000Z AUTO 00000KT 11SM 20/18 A3009 RMK SLP180 T01950176 52014 IEM_DS3505
ZGNN,1997-03-09 01:00,ZGNN 090100Z AUTO 00000KT 7SM 20/18 A3012 RMK SLP188 T02000180 IEM_DS3505
ZGNN,1997-03-09 02:00,ZGNN 090200Z AUTO 16008KT 7SM 21/18 A3012 RMK SLP188 T02100180 IEM_DS3505
ZGNN,1997-03-09 03:00,ZGNN 090300Z AUTO 16004KT 12SM 22/18 A3012 RMK SLP187 T02210180 52007 IEM_DS3505
ZGNN,1997-03-09 04:00,ZGNN 090400Z AUTO 16014KT 7SM 24/18 A3009 RMK SLP177 T02400180 IEM_DS3505
ZGNN,1997-03-09 05:00,ZGNN 090500Z AUTO 15014KT 7SM 25/17 A3003 RMK SLP156 T02500170 IEM_DS3505
ZGNN,1997-03-09 06:00,ZGNN 090600Z AUTO 22004KT 9SM 24/18 A3000 RMK SLP151 T02450177 57035 IEM_DS3505
ZGNN,1997-03-09 07:00,ZGNN 090700Z AUTO 15016KT 7SM 24/18 A3000 RMK SLP147 T02400180 IEM_DS3505
ZGNN,1997-03-09 08:00,ZGNN 090800Z AUTO 15014KT 7SM 24/18 A2994 RMK SLP126 T02400180 IEM_DS3505
ZGNN,1997-03-09 09:00,ZGNN 090900Z AUTO 29004KT 12SM 24/18 A2997 RMK SLP137 T02370180 57014 IEM_DS3505
ZGNN,1997-03-09 10:00,ZGNN 091000Z AUTO 16010KT 7SM 22/18 A2997 RMK SLP137 T02200180 IEM_DS3505
ZGNN,1997-03-09 11:00,ZGNN 091100Z AUTO 15010KT 7SM 22/18 A2997 RMK SLP137 T02200180 IEM_DS3505
ZGNN,1997-03-09 12:00,ZGNN 091200Z AUTO 29004KT 12SM 23/18 A3000 RMK SLP143 T02260180 52006 IEM_DS3505
ZGNN,1997-03-09 13:00,ZGNN 091300Z AUTO 17002KT 7SM 22/17 A3003 RMK SLP157 T02200170 IEM_DS3505
ZGNN,1997-03-09 15:00,ZGNN 091500Z AUTO 27004KT 11SM 22/16 A3007 RMK SLP170 T02190165 52027 IEM_DS3505
ZGNN,1997-03-09 18:00,ZGNN 091800Z AUTO 20002KT 10SM 20/17 A3006 RMK SLP167 T01990170 57003 IEM_DS3505
ZGNN,1997-03-09 21:00,ZGNN 092100Z AUTO 00000KT 9SM 20/18 A3003 RMK SLP166 T02000181 57001 IEM_DS3505
ZGNN,1997-03-09 22:00,ZGNN 092200Z AUTO 14004KT 7SM 19/18 A3006 RMK SLP168 T01900180 IEM_DS3505
ZGNN,1997-03-09 23:00,ZGNN 092300Z AUTO 00000KT 5SM 20/18 A3009 RMK SLP178 T02000180 IEM_DS3505
ZGNN,1997-03-10 00:00,ZGNN 100000Z AUTO 07002KT 9SM 20/18 A3009 RMK SLP186 T01990176 52019 IEM_DS3505
ZGNN,1997-03-10 01:00,ZGNN 100100Z AUTO 13004KT 6SM 21/19 A3012 RMK SLP188 T02100190 IEM_DS3505
ZGNN,1997-03-10 02:00,ZGNN 100200Z AUTO 14008KT 7SM 22/18 A3012 RMK SLP187 T02200180 IEM_DS3505
ZGNN,1997-03-10 03:00,ZGNN 100300Z AUTO 09004KT 9SM 23/18 A3012 RMK SLP189 T02310185 52004 IEM_DS3505
ZGNN,1997-03-10 04:00,ZGNN 100400Z AUTO 16008KT 7SM 24/17 A3009 RMK SLP177 T02400170 IEM_DS3505
ZGNN,1997-03-10 05:00,ZGNN 100500Z AUTO 16008KT 7SM 24/17 A3006 RMK SLP167 T02400170 IEM_DS3505
ZGNN,1997-03-10 06:00,ZGNN 100600Z AUTO 11002KT 11SM 24/18 A3003 RMK SLP157 T02450179 57032 IEM_DS3505
ZGNN,1997-03-10 07:00,ZGNN 100700Z AUTO 15008KT 7SM 25/17 A2997 RMK SLP136 T02500170 IEM_DS3505
ZGNN,1997-03-10 08:00,ZGNN 100800Z AUTO 15012KT 7SM 25/17 A2997 RMK SLP136 T02500170 IEM_DS3505
ZGNN,1997-03-10 09:00,ZGNN 100900Z AUTO 29004KT 11SM 25/18 A2994 RMK SLP136 T02490178 57021 IEM_DS3505
ZGNN,1997-03-10 10:00,ZGNN 101000Z AUTO 15010KT 7SM 23/18 A2997 RMK SLP137 T02300180 IEM_DS3505
ZGNN,1997-03-10 11:00,ZGNN 101100Z AUTO 15008KT 7SM 23/18 A2997 RMK SLP137 T02300180 IEM_DS3505
ZGNN,1997-03-10 12:00,ZGNN 101200Z AUTO 22004KT 11SM 23/19 A3000 RMK SLP143 T02330186 52007 IEM_DS3505
ZGNN,1997-03-10 13:00,ZGNN 101300Z AUTO 16006KT 7SM 22/18 A3003 RMK SLP157 T02200180 IEM_DS3505
ZGNN,1997-03-10 14:00,ZGNN 101400Z AUTO 17006KT 7SM 21/18 A3003 RMK SLP158 T02100180 IEM_DS3505
ZGNN,1997-03-10 15:00,ZGNN 101500Z AUTO 20004KT 11SM 22/18 A3006 RMK SLP166 T02190179 52023 IEM_DS3505
ZGNN,1997-03-10 18:00,ZGNN 101800Z AUTO 25002KT 12SM 21/18 A3005 RMK SLP164 T02110176 57002 IEM_DS3505
ZGNN,1997-03-10 21:00,ZGNN 102100Z AUTO 27004KT 10SM 20/18 A3003 RMK SLP154 T01980184 57010 IEM_DS3505
ZGNN,1997-03-10 22:00,ZGNN 102200Z AUTO 00000KT 4SM 18/17 A3003 RMK SLP158 T01800170 IEM_DS3505
ZGNN,1997-03-10 23:00,ZGNN 102300Z AUTO 00000KT 3SM 19/18 A3006 RMK SLP168 T01900180 IEM_DS3505
ZGNN,1997-03-11 00:00,ZGNN 110000Z AUTO 04002KT 5SM 20/19 A3006 RMK SLP171 T02010188 52017 IEM_DS3505
ZGNN,1997-03-11 01:00,ZGNN 110100Z AUTO 00000KT 3SM 20/19 A3009 RMK SLP178 T02000190 IEM_DS3505
ZGNN,1997-03-11 02:00,ZGNN 110200Z AUTO 17010KT 7SM 22/18 A3009 RMK SLP177 T02200180 IEM_DS3505
ZGNN,1997-03-11 03:00,ZGNN 110300Z AUTO 27004KT 8SM 24/19 A3009 RMK SLP174 T02390189 52003 IEM_DS3505
ZGNN,1997-03-11 04:00,ZGNN 110400Z AUTO 14012KT 7SM 25/18 A3003 RMK SLP156 T02500180 IEM_DS3505
ZGNN,1997-03-11 05:00,ZGNN 110500Z AUTO 17014KT 7SM 26/17 A3000 RMK SLP146 T02600170 IEM_DS3505
ZGNN,1997-03-11 06:00,ZGNN 110600Z AUTO 18004KT 11SM 25/18 A2997 RMK SLP138 T02520183 57036 IEM_DS3505
ZGNN,1997-03-11 07:00,ZGNN 110700Z AUTO 15008KT 7SM 26/18 A2991 RMK SLP116 T02600180 IEM_DS3505
ZGNN,1997-03-11 08:00,ZGNN 110800Z AUTO 15014KT 7SM 26/18 A2991 RMK SLP116 T02600180 IEM_DS3505
ZGNN,1997-03-11 09:00,ZGNN 110900Z AUTO 14006KT 11SM 25/18 A2991 RMK SLP116 T02530181 57022 IEM_DS3505
ZGNN,1997-03-11 10:00,ZGNN 111000Z AUTO 14012KT 7SM 23/19 A2991 RMK SLP117 T02300190 IEM_DS3505
ZGNN,1997-03-11 11:00,ZGNN 111100Z AUTO 15006KT 7SM 22/18 A2991 RMK SLP117 T02200180 IEM_DS3505
ZGNN,1997-03-11 12:00,ZGNN 111200Z AUTO 22004KT 10SM 22/18 A2991 RMK SLP119 T02240183 52003 IEM_DS3505
ZGNN,1997-03-11 13:00,ZGNN 111300Z AUTO 16010KT 7SM 21/18 A2994 RMK SLP127 T02100180 IEM_DS3505
ZGNN,1997-03-11 15:00,ZGNN 111500Z AUTO 09004KT 10SM 22/18 A2998 RMK SLP139 T02160183 52020 IEM_DS3505
ZGNN,1997-03-11 18:00,ZGNN 111800Z AUTO 25004KT 10SM 20/18 A2995 RMK SLP131 T02040180 57008 IEM_DS3505
ZGNN,1997-03-11 21:00,ZGNN 112100Z AUTO 00000KT 9SM 19/18 A2991 RMK SLP125 T01940180 57006 IEM_DS3505
ZGNN,1997-03-11 22:00,ZGNN 112200Z AUTO 00000KT 5SM 18/17 A2994 RMK SLP128 T01800170 IEM_DS3505
ZGNN,1997-03-11 23:00,ZGNN 112300Z AUTO 00000KT 4SM 18/17 A2994 RMK SLP128 T01800170 IEM_DS3505
ZGNN,1997-03-12 00:00,ZGNN 120000Z AUTO 20002KT 6SM 20/18 A2997 RMK SLP135 T01970184 52010 IEM_DS3505
ZGNN,1997-03-12 01:00,ZGNN 120100Z AUTO 14006KT 7SM 21/19 A2997 RMK SLP137 T02100190 IEM_DS3505
ZGNN,1997-03-12 02:00,ZGNN 120200Z AUTO 15006KT 7SM 23/19 A3000 RMK SLP147 T02300190 IEM_DS3505
ZGNN,1997-03-12 03:00,ZGNN 120300Z AUTO 20006KT 7SM 25/19 A2997 RMK SLP141 T02460188 52006 IEM_DS3505
ZGNN,1997-03-12 04:00,ZGNN 120400Z AUTO 19008KT 7SM 25/19 A2997 RMK SLP136 T02500190 IEM_DS3505
ZGNN,1997-03-12 05:00,ZGNN 120500Z AUTO 17006KT 7SM 25/19 A2991 RMK SLP116 T02500190 IEM_DS3505
ZGNN,1997-03-12 06:00,ZGNN 120600Z AUTO 00000KT 9SM 25/20 A2988 RMK SLP112 T02530195 57029 IEM_DS3505
ZGNN,1997-03-12 07:00,ZGNN 120700Z AUTO 13014KT 7SM 25/19 A2985 RMK SLP095 T02500190 IEM_DS3505
ZGNN,1997-03-12 08:00,ZGNN 120800Z AUTO 15014KT 7SM 25/19 A2983 RMK SLP089 T02500190 IEM_DS3505
ZGNN,1997-03-12 09:00,ZGNN 120900Z AUTO 18004KT 9SM 25/20 A2983 RMK SLP092 T02470195 57020 IEM_DS3505
ZGNN,1997-03-12 10:00,ZGNN 121000Z AUTO 12014KT 7SM 23/19 A2983 RMK SLP089 T02300190 IEM_DS3505
ZGNN,1997-03-12 11:00,ZGNN 121100Z AUTO 14010KT 7SM 22/19 A2983 RMK SLP090 T02200190 IEM_DS3505
ZGNN,1997-03-12 12:00,ZGNN 121200Z AUTO 20004KT 11SM 23/19 A2985 RMK SLP097 T02260193 52005 IEM_DS3505
ZGNN,1997-03-12 13:00,ZGNN 121300Z AUTO 15008KT 7SM 22/19 A2988 RMK SLP107 T02200190 IEM_DS3505
ZGNN,1997-03-12 15:00,ZGNN 121500Z AUTO 09002KT 11SM 22/20 A2991 RMK SLP115 T02240195 52019 IEM_DS3505
ZGNN,1997-03-12 18:00,ZGNN 121800Z AUTO 22002KT 9SM 22/19 A2989 RMK SLP110 T02190194 57005 IEM_DS3505
ZGNN,1997-03-12 21:00,ZGNN 122100Z AUTO 00000KT 9SM 21/19 A2985 RMK SLP103 T02140194 57008 IEM_DS3505
ZGNN,1997-03-12 22:00,ZGNN 122200Z AUTO 14006KT 7SM 21/20 A2988 RMK SLP107 T02100200 IEM_DS3505
ZGNN,1997-03-12 23:00,ZGNN 122300Z AUTO 16004KT 7SM 21/20 A2988 RMK SLP107 T02100200 IEM_DS3505
ZGNN,1997-03-13 00:00,ZGNN 130000Z AUTO 09002KT 9SM 22/20 A2991 RMK SLP118 T02170197 52015 IEM_DS3505
ZGNN,1997-03-13 01:00,ZGNN 130100Z AUTO 15006KT 7SM 22/20 A2991 RMK SLP117 T02200200 IEM_DS3505
ZGNN,1997-03-13 02:00,ZGNN 130200Z AUTO 15006KT 7SM 22/20 A2994 RMK SLP127 T02200200 IEM_DS3505
ZGNN,1997-03-13 03:00,ZGNN 130300Z AUTO 20004KT 9SM 23/20 A2991 RMK SLP120 T02310204 52002 IEM_DS3505
ZGNN,1997-03-13 04:00,ZGNN 130400Z AUTO 17008KT 7SM 25/20 A2988 RMK SLP106 T02500200 IEM_DS3505
ZGNN,1997-03-13 05:00,ZGNN 130500Z AUTO 17010KT 7SM 26/20 A2985 RMK SLP095 T02600200 IEM_DS3505
ZGNN,1997-03-13 06:00,ZGNN 130600Z AUTO 00000KT 9SM 26/21 A2980 RMK SLP083 T02600209 57036 IEM_DS3505
ZGNN,1997-03-13 07:00,ZGNN 130700Z AUTO 13008KT 7SM 27/21 A2977 RMK SLP068 T02700210 IEM_DS3505
ZGNN,1997-03-13 08:00,ZGNN 130800Z AUTO 10008KT 7SM 27/20 A2977 RMK SLP068 T02700200 IEM_DS3505
ZGNN,1997-03-13 09:00,ZGNN 130900Z AUTO 34004KT 12SM 26/21 RMK T02600206 57018 IEM_DS3505
ZGNN,1997-03-13 10:00,ZGNN 131000Z AUTO 17010KT 7SM 26/20 A2977 RMK SLP068 T02600200 IEM_DS3505
ZGNN,1997-03-13 11:00,ZGNN 131100Z AUTO 15008KT 7SM 24/20 A2977 RMK SLP069 T02400200 IEM_DS3505
ZGNN,1997-03-13 12:00,ZGNN 131200Z AUTO 20006KT 12SM 24/20 A2980 RMK SLP078 T02380203 52013 IEM_DS3505
ZGNN,1997-03-13 13:00,ZGNN 131300Z AUTO 15012KT 7SM 22/20 A2980 RMK SLP080 T02200200 IEM_DS3505
ZGNN,1997-03-13 15:00,ZGNN 131500Z AUTO 25002KT 12SM 23/20 A2986 RMK SLP099 T02310199 52021 IEM_DS3505
ZGNN,1997-03-13 18:00,ZGNN 131800Z AUTO 22004KT 12SM 22/20 A2983 RMK SLP088 T02230195 57011 IEM_DS3505
ZGNN,1997-03-13 21:00,ZGNN 132100Z AUTO 00000KT 9SM 22/20 A2980 RMK SLP083 T02190199 57005 IEM_DS3505
ZGNN,1997-03-13 22:00,ZGNN 132200Z AUTO 00000KT 7SM 21/20 A2983 RMK SLP090 T02100200 IEM_DS3505
ZGNN,1997-03-13 23:00,ZGNN 132300Z AUTO 36004KT 7SM 21/20 A2983 RMK SLP090 T02100200 IEM_DS3505
ZGNN,1997-03-14 00:00,ZGNN 140000Z AUTO 04004KT 9SM 22/20 A2985 RMK SLP101 T02190202 52017 IEM_DS3505
ZGNN,1997-03-14 01:00,ZGNN 140100Z AUTO 00000KT 7SM 22/20 A2988 RMK SLP107 T02200200 IEM_DS3505
ZGNN,1997-03-14 02:00,ZGNN 140200Z AUTO 00000KT 7SM 23/21 A2988 RMK SLP107 T02300210 IEM_DS3505
ZGNN,1997-03-14 03:00,ZGNN 140300Z AUTO 20002KT 9SM 24/21 A2988 RMK SLP107 T02450212 52007 IEM_DS3505
ZGNN,1997-03-14 04:00,ZGNN 140400Z AUTO 21006KT 7SM 27/21 A2985 RMK SLP094 T02700210 IEM_DS3505
ZGNN,1997-03-14 05:00,ZGNN 140500Z AUTO 14008KT 7SM 28/21 A2983 RMK SLP088 T02800210 IEM_DS3505
ZGNN,1997-03-14 06:00,ZGNN 140600Z AUTO 16002KT 17SM 28/21 A2980 RMK SLP078 T02850214 57029 IEM_DS3505
ZGNN,1997-03-14 07:00,ZGNN 140700Z AUTO 17004KT 7SM 30/21 A2977 RMK SLP067 T03000210 IEM_DS3505
ZGNN,1997-03-14 08:00,ZGNN 140800Z AUTO 14006KT 7SM 30/21 A2974 RMK SLP056 T03000210 IEM_DS3505
ZGNN,1997-03-14 09:00,ZGNN 140900Z AUTO 09004KT 19SM 29/22 A2974 RMK SLP060 T02900220 57017 IEM_DS3505
ZGNN,1997-03-14 10:00,ZGNN 141000Z AUTO 13010KT 6SM 27/21 A2977 RMK SLP068 T02700210 IEM_DS3505
ZGNN,1997-03-14 11:00,ZGNN 141100Z AUTO 15012KT 6SM 25/21 A2977 RMK SLP069 T02500210 IEM_DS3505
ZGNN,1997-03-14 12:00,ZGNN 141200Z AUTO 18002KT 16SM 25/21 A2980 RMK SLP081 T02520212 52020 IEM_DS3505
ZGNN,1997-03-14 13:00,ZGNN 141300Z AUTO 18004KT 6SM 23/21 A2983 RMK SLP089 T02300210 IEM_DS3505
ZGNN,1997-03-14 15:00,ZGNN 141500Z AUTO 00000KT 16SM 24/21 A2987 RMK SLP102 T02450206 52021 IEM_DS3505
ZGNN,1997-03-14 18:00,ZGNN 141800Z AUTO 00000KT 16SM 23/20 A2986 RMK SLP100 T02310204 57002 IEM_DS3505
ZGNN,1997-03-14 21:00,ZGNN 142100Z AUTO 00000KT 12SM 23/20 A2985 RMK SLP100 T02290205 54000 IEM_DS3505
ZGNN,1997-03-14 22:00,ZGNN 142200Z AUTO 00000KT 7SM 21/20 A2985 RMK SLP096 T02100200 IEM_DS3505
ZGNN,1997-03-14 23:00,ZGNN 142300Z AUTO 00000KT 7SM 21/20 A2985 RMK SLP096 T02100200 IEM_DS3505
ZGNN,1997-03-15 00:00,ZGNN 150000Z AUTO 00000KT 9SM 23/21 A2991 RMK SLP125 T02270210 52025 IEM_DS3505
ZGNN,1997-03-15 01:00,ZGNN 150100Z AUTO 05002KT 5SM 22/20 A2994 RMK SLP127 T02200200 IEM_DS3505
ZGNN,1997-03-15 02:00,ZGNN 150200Z AUTO 09004KT 5SM 23/21 A2994 RMK SLP127 T02300210 IEM_DS3505
ZGNN,1997-03-15 03:00,ZGNN 150300Z AUTO 07004KT 9SM 24/22 A2994 RMK SLP129 T02430216 52004 IEM_DS3505
ZGNN,1997-03-15 04:00,ZGNN 150400Z AUTO 15008KT 7SM 27/21 A2991 RMK SLP115 T02700210 IEM_DS3505
ZGNN,1997-03-15 05:00,ZGNN 150500Z AUTO 15008KT 7SM 27/21 A2988 RMK SLP105 T02700210 IEM_DS3505
ZGNN,1997-03-15 06:00,ZGNN 150600Z AUTO 04004KT 9SM 26/22 A2988 RMK SLP112 T02550223 57017 IEM_DS3505
ZGNN,1997-03-15 07:00,ZGNN 150700Z AUTO 34004KT 7SM 25/22 A2985 RMK SLP095 T02500220 IEM_DS3505
ZGNN,1997-03-15 08:00,ZGNN 150800Z AUTO 36004KT 7SM 25/22 A2985 RMK SLP095 T02500220 IEM_DS3505
ZGNN,1997-03-15 09:00,ZGNN 150900Z AUTO 09004KT 12SM 26/22 A2985 RMK SLP101 T02580221 57011 IEM_DS3505
ZGNN,1997-03-15 10:00,ZGNN 151000Z AUTO 14010KT 7SM 26/21 A2985 RMK SLP095 T02600210 IEM_DS3505
ZGNN,1997-03-15 11:00,ZGNN 151100Z AUTO 13008KT 7SM 25/21 A2985 RMK SLP095 T02500210 IEM_DS3505
ZGNN,1997-03-15 12:00,ZGNN 151200Z AUTO 07004KT 11SM 25/22 A2988 RMK SLP107 T02470223 52006 IEM_DS3505
ZGNN,1997-03-15 13:00,ZGNN 151300Z AUTO 10006KT 7SM 24/22 A2991 RMK SLP116 T02400220 IEM_DS3505
ZGNN,1997-03-15 15:00,ZGNN 151500Z AUTO 07006KT 11SM 21/17 A2999 RMK SLP142 T02080174 52034 IEM_DS3505
ZGNN,1997-03-15 18:00,ZGNN 151800Z AUTO 07004KT 7SM 18/16 A2995 RMK 60004 SLP131 T01800163 57011 IEM_DS3505
ZGNN,1997-03-15 21:00,ZGNN 152100Z AUTO 07004KT 11SM 17/15 A2994 RMK 70004 SLP133 T01730154 52002 IEM_DS3505
ZGNN,1997-03-15 22:00,ZGNN 152200Z AUTO 08004KT 7SM 17/16 A2997 RMK SLP139 T01700160 IEM_DS3505
ZGNN,1997-03-15 23:00,ZGNN 152300Z AUTO 06006KT 7SM 16/15 A2997 RMK SLP139 T01600150 IEM_DS3505
ZGNN,1997-03-16 00:00,ZGNN 160000Z AUTO 04006KT 7SM 16/15 A3000 RMK 60075 70079 SLP168 T01580148 52034 IEM_DS3505
ZGNN,1997-03-16 01:00,ZGNN 160100Z AUTO 05004KT 7SM 16/15 A3003 RMK SLP159 T01600150 IEM_DS3505
ZGNN,1997-03-16 02:00,ZGNN 160200Z AUTO 08004KT 7SM 16/16 A3003 RMK SLP159 T01600160 IEM_DS3505
ZGNN,1997-03-16 03:00,ZGNN 160300Z AUTO 07006KT 10SM 17/15 A3007 RMK SLP172 T01710150 52004 IEM_DS3505
ZGNN,1997-03-16 04:00,ZGNN 160400Z AUTO 36008KT 7SM 17/16 A3006 RMK SLP169 T01700160 IEM_DS3505
ZGNN,1997-03-16 05:00,ZGNN 160500Z AUTO 02006KT 2 1/2SM 17/16 A3006 RMK SLP169 T01700160 IEM_DS3505
ZGNN,1997-03-16 06:00,ZGNN 160600Z AUTO 04002KT 9SM 18/16 A3003 RMK 60020 SLP160 T01800155 57012 IEM_DS3505
ZGNN,1997-03-16 07:00,ZGNN 160700Z AUTO 03010KT 7SM 17/14 A3003 RMK SLP159 T01700140 IEM_DS3505
ZGNN,1997-03-16 08:00,ZGNN 160800Z AUTO 03008KT 7SM 18/14 A3000 RMK SLP148 T01800140 IEM_DS3505
ZGNN,1997-03-16 09:00,ZGNN 160900Z AUTO 07006KT 11SM 18/13 A3000 RMK SLP157 T01790127 IEM_DS3505
ZGNN,1997-03-16 10:00,ZGNN 161000Z AUTO 03006KT 7SM 17/14 A3000 RMK SLP149 T01700140 IEM_DS3505
ZGNN,1997-03-16 11:00,ZGNN 161100Z AUTO 04008KT 7SM 17/13 A3003 RMK SLP159 T01700130 IEM_DS3505
ZGNN,1997-03-16 12:00,ZGNN 161200Z AUTO 07004KT 11SM 16/12 A3006 RMK SLP172 T01640116 52015 IEM_DS3505
ZGNN,1997-03-16 13:00,ZGNN 161300Z AUTO 08008KT 7SM 16/12 A3009 RMK SLP179 T01600120 IEM_DS3505
ZGNN,1997-03-16 15:00,ZGNN 161500Z AUTO 07006KT 10SM 16/11 A3015 RMK SLP199 T01570106 52027 IEM_DS3505
ZGNN,1997-03-16 18:00,ZGNN 161800Z AUTO 07004KT 11SM 13/12 A3012 RMK 60028 SLP189 T01340119 57010 IEM_DS3505
ZGNN,1997-03-16 21:00,ZGNN 162100Z AUTO 00000KT 12SM 13/11 A3012 RMK 70118 SLP194 T01320107 52004 IEM_DS3505
ZGNN,1997-03-16 22:00,ZGNN 162200Z AUTO 07008KT 7SM 12/11 A3012 RMK SLP191 T01200110 IEM_DS3505
ZGNN,1997-03-16 23:00,ZGNN 162300Z AUTO 09004KT 7SM 12/11 A3015 RMK SLP201 T01200110 IEM_DS3505
ZGNN,1997-03-17 00:00,ZGNN 170000Z AUTO 11004KT 11SM 14/11 A3015 RMK 60000 70047 SLP209 T01360110 52015 IEM_DS3505
ZGNN,1997-03-17 01:00,ZGNN 170100Z AUTO 06006KT 7SM 13/11 A3018 RMK SLP210 T01300110 IEM_DS3505
ZGNN,1997-03-17 02:00,ZGNN 170200Z AUTO 00000KT 7SM 13/11 A3021 RMK SLP220 T01300110 IEM_DS3505
ZGNN,1997-03-17 03:00,ZGNN 170300Z AUTO 07004KT 11SM 14/11 A3021 RMK SLP224 T01400106 52015 IEM_DS3505
ZGNN,1997-03-17 04:00,ZGNN 170400Z AUTO 00000KT 7SM 13/11 A3021 RMK SLP220 T01300110 IEM_DS3505
ZGNN,1997-03-17 05:00,ZGNN 170500Z AUTO 07004KT 4SM 14/11 A3015 RMK SLP200 T01400110 IEM_DS3505
ZGNN,1997-03-17 06:00,ZGNN 170600Z AUTO 04002KT 11SM 14/10 A3015 RMK 60000 SLP207 T01370105 57017 IEM_DS3505
ZGNN,1997-03-17 08:00,ZGNN 170800Z AUTO 10008KT 6SM 13/12 A3006 RMK SLP170 T01300120 IEM_DS3505
ZGNN,1997-03-17 09:00,ZGNN 170900Z AUTO 07004KT 12SM 13/11 A3006 RMK SLP188 T01300109 57019 IEM_DS3505
ZGNN,1997-03-17 10:00,ZGNN 171000Z AUTO 04008KT 6SM 13/11 A3009 RMK SLP180 T01300110 IEM_DS3505
ZGNN,1997-03-17 11:00,ZGNN 171100Z AUTO 03004KT 4SM 13/12 A3012 RMK SLP190 T01300120 IEM_DS3505
ZGNN,1997-03-17 12:00,ZGNN 171200Z AUTO 34004KT 9SM 13/12 A3015 RMK 60004 SLP211 T01320119 52023 IEM_DS3505
ZGNN,1997-03-17 13:00,ZGNN 171300Z AUTO 06004KT 5SM 13/12 A3012 RMK SLP190 T01300120 IEM_DS3505
ZGNN,1997-03-17 14:00,ZGNN 171400Z AUTO 00000KT 5SM 12/12 A3015 RMK SLP201 T01200120 IEM_DS3505
ZGNN,1997-03-17 15:00,ZGNN 171500Z AUTO 02002KT 9SM 12/11 A3019 RMK SLP216 T01240107 52005 IEM_DS3505
ZGNN,1997-03-17 18:00,ZGNN 171800Z AUTO 00000KT 9SM 12/11 A3015 RMK 60008 SLP200 T01250112 57016 IEM_DS3505
ZGNN,1997-03-17 21:00,ZGNN 172100Z AUTO 09002KT 8SM 12/11 A3006 RMK 70016 SLP180 T01210108 57020 IEM_DS3505
ZGNN,1997-03-17 23:00,ZGNN 172300Z AUTO 04004KT 2 1/2SM 12/11 A3009 RMK SLP180 T01200110 IEM_DS3505
ZGNN,1997-03-18 00:00,ZGNN 180000Z AUTO 04002KT 8SM 12/11 A3009 RMK 60002 70016 SLP192 T01210111 52012 IEM_DS3505
ZGNN,1997-03-18 01:00,ZGNN 180100Z AUTO 04006KT 1SM 12/12 A3009 RMK SLP180 T01200120 IEM_DS3505
ZGNN,1997-03-18 02:00,ZGNN 180200Z AUTO 00000KT 1 1/2SM 12/12 A3012 RMK SLP191 T01200120 IEM_DS3505
ZGNN,1997-03-18 03:00,ZGNN 180300Z AUTO 07004KT 9SM 14/12 A3009 RMK SLP184 T01350122 57008 IEM_DS3505
ZGNN,1997-03-18 04:00,ZGNN 180400Z AUTO 09006KT 7SM 14/12 A3009 RMK SLP180 T01400120 IEM_DS3505
ZGNN,1997-03-18 05:00,ZGNN 180500Z AUTO 09006KT 7SM 14/12 A3003 RMK SLP160 T01400120 IEM_DS3505
ZGNN,1997-03-18 06:00,ZGNN 180600Z AUTO 00000KT 11SM 14/12 A3003 RMK 60002 SLP159 T01410123 57025 IEM_DS3505
ZGNN,1997-03-18 07:00,ZGNN 180700Z AUTO 09004KT 7SM 14/13 A2997 RMK SLP139 T01400130 IEM_DS3505
ZGNN,1997-03-18 08:00,ZGNN 180800Z AUTO 09004KT 7SM 14/13 A2994 RMK SLP129 T01400130 IEM_DS3505
ZGNN,1997-03-18 09:00,ZGNN 180900Z AUTO 04004KT 8SM 14/13 A2995 RMK SLP131 T01390128 57028 IEM_DS3505
ZGNN,1997-03-18 10:00,ZGNN 181000Z AUTO 09006KT 4SM 14/13 A2994 RMK SLP129 T01400130 IEM_DS3505
ZGNN,1997-03-18 11:00,ZGNN 181100Z AUTO 09004KT 1 1/4SM 13/13 A2994 RMK SLP130 T01300130 IEM_DS3505
ZGNN,1997-03-18 12:00,ZGNN 181200Z AUTO 11002KT 4SM 14/14 A2997 RMK 60001 SLP141 T01400135 52010 IEM_DS3505
ZGNN,1997-03-18 13:00,ZGNN 181300Z AUTO 00000KT 2SM 14/13 A2997 RMK SLP139 T01400130 IEM_DS3505
ZGNN,1997-03-18 14:00,ZGNN 181400Z AUTO 16004KT 2SM 14/13 A2997 RMK SLP139 T01400130 IEM_DS3505
ZGNN,1997-03-18 15:00,ZGNN 181500Z AUTO 25004KT 6SM 14/13 A2998 RMK SLP143 T01400133 52002 IEM_DS3505
ZGNN,1997-03-18 18:00,ZGNN 181800Z AUTO 11002KT 1 1/4SM 14/14 A2990 RMK 60051 SLP116 T01390135 57026 IEM_DS3505
ZGNN,1997-03-18 21:00,ZGNN 182100Z AUTO 02002KT 4SM 14/14 A2988 RMK 70055 SLP117 T01400136 52001 IEM_DS3505
ZGNN,1997-03-18 22:00,ZGNN 182200Z AUTO 24006KT 1 1/2SM 14/13 A2991 RMK SLP119 T01400130 IEM_DS3505
ZGNN,1997-03-19 00:00,ZGNN 190000Z AUTO 36002KT 6SM 14/12 A3000 RMK 60004 70055 SLP152 T01390122 52034 IEM_DS3505
ZGNN,1997-03-19 01:00,ZGNN 190100Z AUTO 00000KT 7SM 14/13 A3003 RMK SLP160 T01400130 IEM_DS3505
ZGNN,1997-03-19 02:00,ZGNN 190200Z AUTO 03006KT 7SM 14/12 A3006 RMK SLP170 T01400120 IEM_DS3505
ZGNN,1997-03-19 03:00,ZGNN 190300Z AUTO 00000KT 9SM 14/12 A3003 RMK SLP167 T01450125 52015 IEM_DS3505
ZGNN,1997-03-19 04:00,ZGNN 190400Z AUTO 36006KT 7SM 16/13 A3003 RMK SLP159 T01600130 IEM_DS3505
ZGNN,1997-03-19 05:00,ZGNN 190500Z AUTO 05004KT 7SM 17/12 A3000 RMK SLP149 T01700120 IEM_DS3505
ZGNN,1997-03-19 06:00,ZGNN 190600Z AUTO 02004KT 12SM 17/13 A2997 RMK 60000 SLP140 T01730132 57026 IEM_DS3505
ZGNN,1997-03-19 07:00,ZGNN 190700Z AUTO 03010KT 7SM 18/12 A2994 RMK SLP128 T01800120 IEM_DS3505
ZGNN,1997-03-19 08:00,ZGNN 190800Z AUTO 02006KT 7SM 18/12 A2991 RMK SLP118 T01800120 IEM_DS3505
ZGNN,1997-03-19 09:00,ZGNN 190900Z AUTO 09004KT 12SM 18/12 A2991 RMK SLP125 T01790120 57015 IEM_DS3505
ZGNN,1997-03-19 10:00,ZGNN 191000Z AUTO 07008KT 7SM 17/12 A2991 RMK SLP118 T01700120 IEM_DS3505
ZGNN,1997-03-19 11:00,ZGNN 191100Z AUTO 06006KT 7SM 17/11 A2994 RMK SLP128 T01700110 IEM_DS3505
ZGNN,1997-03-19 12:00,ZGNN 191200Z AUTO 07006KT 12SM 17/12 A2994 RMK SLP139 T01680117 52014 IEM_DS3505
ZGNN,1997-03-19 13:00,ZGNN 191300Z AUTO 07006KT 7SM 16/12 A2997 RMK SLP139 T01600120 IEM_DS3505
ZGNN,1997-03-19 15:00,ZGNN 191500Z AUTO 09006KT 11SM 16/10 A3000 RMK SLP150 T01600101 52011 IEM_DS3505
ZGNN,1997-03-19 18:00,ZGNN 191800Z AUTO 00000KT 11SM 15/10 A2998 RMK SLP141 T01510102 57009 IEM_DS3505
ZGNN,1997-03-19 21:00,ZGNN 192100Z AUTO 04006KT 9SM 13/11 A2991 RMK 70008 SLP119 T01320107 57022 IEM_DS3505
ZGNN,1997-03-19 22:00,ZGNN 192200Z AUTO 11004KT 7SM 12/11 A2994 RMK SLP130 T01200110 IEM_DS3505
ZGNN,1997-03-19 23:00,ZGNN 192300Z AUTO 14002KT 7SM 12/11 A2997 RMK SLP140 T01200110 IEM_DS3505
ZGNN,1997-03-20 00:00,ZGNN 200000Z AUTO 07004KT 10SM 13/10 A2997 RMK 60008 70008 SLP146 T01300103 52027 IEM_DS3505
ZGNN,1997-03-20 01:00,ZGNN 200100Z AUTO 04006KT 7SM 12/11 A3000 RMK SLP150 T01200110 IEM_DS3505
ZGNN,1997-03-20 02:00,ZGNN 200200Z AUTO 01006KT 7SM 13/11 A3000 RMK SLP150 T01300110 IEM_DS3505
ZGNN,1997-03-20 03:00,ZGNN 200300Z AUTO 00000KT 10SM 14/11 A3000 RMK SLP156 T01410107 52010 IEM_DS3505
ZGNN,1997-03-20 04:00,ZGNN 200400Z AUTO 06006KT 7SM 15/11 A2997 RMK SLP139 T01500110 IEM_DS3505
ZGNN,1997-03-20 06:00,ZGNN 200600Z AUTO 09004KT 12SM 15/11 A2994 RMK SLP131 T01540109 57025 IEM_DS3505
ZGNN,1997-03-20 07:00,ZGNN 200700Z AUTO 05006KT 7SM 15/10 A2991 RMK SLP119 T01500100 IEM_DS3505
ZGNN,1997-03-20 08:00,ZGNN 200800Z AUTO 09008KT 7SM 15/11 A2988 RMK SLP109 T01500110 IEM_DS3505
ZGNN,1997-03-20 09:00,ZGNN 200900Z AUTO 07004KT 16SM 15/11 A2988 RMK SLP114 T01470108 57017 IEM_DS3505
ZGNN,1997-03-20 10:00,ZGNN 201000Z AUTO 07006KT 7SM 14/11 A2988 RMK SLP109 T01400110 IEM_DS3505
ZGNN,1997-03-20 11:00,ZGNN 201100Z AUTO 09006KT 7SM 14/11 A2991 RMK SLP119 T01400110 IEM_DS3505
ZGNN,1997-03-20 12:00,ZGNN 201200Z AUTO 02002KT 12SM 14/11 A2994 RMK SLP128 T01380114 52013 IEM_DS3505
ZGNN,1997-03-20 13:00,ZGNN 201300Z AUTO 08006KT 4SM 13/12 A2994 RMK SLP130 T01300120 IEM_DS3505
ZGNN,1997-03-20 15:00,ZGNN 201500Z AUTO 04004KT 9SM 13/12 A2999 RMK SLP145 T01290120 52017 IEM_DS3505
ZGNN,1997-03-20 18:00,ZGNN 201800Z AUTO 07002KT 4SM 13/12 A2994 RMK 60002 SLP129 T01290123 57015 IEM_DS3505
ZGNN,1997-03-20 21:00,ZGNN 202100Z AUTO 07004KT 3SM 13/12 A2991 RMK 70020 SLP119 T01280124 57010 IEM_DS3505
ZGNN,1997-03-20 22:00,ZGNN 202200Z AUTO 00000KT 1SM 13/13 A2991 RMK SLP120 T01300130 IEM_DS3505
ZGNN,1997-03-20 23:00,ZGNN 202300Z AUTO 07004KT 1SM 13/13 A2994 RMK SLP130 T01300130 IEM_DS3505
ZGNN,1997-03-21 00:00,ZGNN 210000Z AUTO 00000KT 4SM 13/12 A2994 RMK 60016 70020 SLP130 T01270121 52010 IEM_DS3505
ZGNN,1997-03-21 01:00,ZGNN 210100Z AUTO 09004KT 2SM 13/13 A2994 RMK SLP130 T01300130 IEM_DS3505
ZGNN,1997-03-21 02:00,ZGNN 210200Z AUTO 07002KT 2 1/2SM 13/13 A2997 RMK SLP140 T01300130 IEM_DS3505
ZGNN,1997-03-21 03:00,ZGNN 210300Z AUTO 07002KT 5SM 13/12 A2997 RMK SLP144 T01300123 52014 IEM_DS3505
ZGNN,1997-03-21 04:00,ZGNN 210400Z AUTO 07004KT 1 1/2SM 14/13 A2994 RMK SLP129 T01400130 IEM_DS3505
ZGNN,1997-03-21 05:00,ZGNN 210500Z AUTO 05006KT 2SM 14/13 A2991 RMK SLP119 T01400130 IEM_DS3505
ZGNN,1997-03-21 06:00,ZGNN 210600Z AUTO 09002KT 4SM 14/13 A2988 RMK SLP116 T01430129 57027 IEM_DS3505
ZGNN,1997-03-21 07:00,ZGNN 210700Z AUTO 03004KT 1 1/2SM 14/13 A2985 RMK SLP098 T01400130 IEM_DS3505
ZGNN,1997-03-21 08:00,ZGNN 210800Z AUTO 03006KT 1 1/2SM 14/13 A2983 RMK SLP092 T01400130 IEM_DS3505
ZGNN,1997-03-21 09:00,ZGNN 210900Z AUTO 07004KT 7SM 14/12 A2983 RMK SLP101 T01410121 57015 IEM_DS3505
ZGNN,1997-03-21 10:00,ZGNN 211000Z AUTO 06006KT 2 1/2SM 14/13 A2985 RMK SLP098 T01400130 IEM_DS3505
ZGNN,1997-03-21 11:00,ZGNN 211100Z AUTO 06006KT 2SM 14/13 A2985 RMK SLP098 T01400130 IEM_DS3505
ZGNN,1997-03-21 12:00,ZGNN 211200Z AUTO 07002KT 6SM 13/12 A2988 RMK SLP116 T01310122 52014 IEM_DS3505
ZGNN,1997-03-21 13:00,ZGNN 211300Z AUTO 05004KT 2 1/2SM 13/13 A2988 RMK SLP109 T01300130 IEM_DS3505
ZGNN,1997-03-21 14:00,ZGNN 211400Z AUTO 00000KT 3SM 13/12 A2991 RMK SLP120 T01300120 IEM_DS3505
ZGNN,1997-03-21 15:00,ZGNN 211500Z AUTO 02002KT 7SM 14/11 A2994 RMK SLP127 T01350114 52011 IEM_DS3505
ZGNN,1997-03-21 18:00,ZGNN 211800Z AUTO 00000KT 5SM 13/12 A2993 RMK 60000 SLP126 T01280124 57001 IEM_DS3505
ZGNN,1997-03-21 21:00,ZGNN 212100Z AUTO 00000KT 3SM 13/12 A2991 RMK 70004 SLP119 T01290125 57006 IEM_DS3505
ZGNN,1997-03-21 23:00,ZGNN 212300Z AUTO 36004KT 2SM 13/12 A2994 RMK SLP130 T01300120 IEM_DS3505
ZGNN,1997-03-22 00:00,ZGNN 220000Z AUTO 00000KT 3SM 13/12 A2997 RMK 60004 70004 SLP147 T01300124 52027 IEM_DS3505
ZGNN,1997-03-22 01:00,ZGNN 220100Z AUTO 36006KT 7SM 13/12 A3000 RMK SLP150 T01300120 IEM_DS3505
ZGNN,1997-03-22 02:00,ZGNN 220200Z AUTO 36008KT 7SM 14/12 A3000 RMK SLP150 T01400120 IEM_DS3505
ZGNN,1997-03-22 03:00,ZGNN 220300Z AUTO 34004KT 11SM 15/12 A3000 RMK SLP157 T01500123 52010 IEM_DS3505
ZGNN,1997-03-22 04:00,ZGNN 220400Z AUTO 33008KT 7SM 16/12 A3000 RMK SLP149 T01600120 IEM_DS3505
ZGNN,1997-03-22 05:00,ZGNN 220500Z AUTO 34008KT 7SM 16/12 A2997 RMK SLP139 T01600120 IEM_DS3505
ZGNN,1997-03-22 06:00,ZGNN 220600Z AUTO 34004KT 11SM 17/12 A2994 RMK 60000 SLP132 T01670122 57024 IEM_DS3505
ZGNN,1997-03-22 07:00,ZGNN 220700Z AUTO 01008KT 7SM 17/13 A2991 RMK SLP118 T01700130 IEM_DS3505
ZGNN,1997-03-22 08:00,ZGNN 220800Z AUTO 35004KT 7SM 17/12 A2991 RMK SLP118 T01700120 IEM_DS3505
ZGNN,1997-03-22 09:00,ZGNN 220900Z AUTO 04002KT 11SM 17/12 A2991 RMK SLP120 T01690122 57012 IEM_DS3505
ZGNN,1997-03-22 10:00,ZGNN 221000Z AUTO 03006KT 7SM 16/13 A2991 RMK SLP119 T01600130 IEM_DS3505
ZGNN,1997-03-22 11:00,ZGNN 221100Z AUTO 00000KT 7SM 16/13 A2994 RMK SLP129 T01600130 IEM_DS3505
ZGNN,1997-03-22 12:00,ZGNN 221200Z AUTO 00000KT 9SM 16/14 A2997 RMK SLP141 T01640136 52021 IEM_DS3505
ZGNN,1997-03-22 13:00,ZGNN 221300Z AUTO 00000KT 7SM 16/14 A2997 RMK SLP139 T01600140 IEM_DS3505
ZGNN,1997-03-22 15:00,ZGNN 221500Z AUTO 00000KT 9SM 16/13 A3002 RMK SLP157 T01580133 52016 IEM_DS3505
ZGNN,1997-03-22 18:00,ZGNN 221800Z AUTO 00000KT 9SM 16/14 A3001 RMK SLP152 T01550137 57005 IEM_DS3505
ZGNN,1997-03-22 21:00,ZGNN 222100Z AUTO 00000KT 7SM 15/11 A3000 RMK 70002 SLP153 T01510114 52001 IEM_DS3505
ZGNN,1997-03-22 22:00,ZGNN 222200Z AUTO 06004KT 7SM 15/11 A3000 RMK SLP149 T01500110 IEM_DS3505
ZGNN,1997-03-22 23:00,ZGNN 222300Z AUTO 05004KT 7SM 15/11 A3003 RMK SLP159 T01500110 IEM_DS3505
ZGNN,1997-03-23 00:00,ZGNN 230000Z AUTO 00000KT 9SM 15/11 A3003 RMK SLP168 T01500113 52015 IEM_DS3505
ZGNN,1997-03-23 01:00,ZGNN 230100Z AUTO 00000KT 7SM 15/11 A3006 RMK SLP169 T01500110 IEM_DS3505
ZGNN,1997-03-23 02:00,ZGNN 230200Z AUTO 00000KT 7SM 16/10 A3009 RMK SLP179 T01600100 IEM_DS3505
ZGNN,1997-03-23 03:00,ZGNN 230300Z AUTO 29002KT 9SM 17/10 A3009 RMK SLP185 T01680104 52017 IEM_DS3505
ZGNN,1997-03-23 04:00,ZGNN 230400Z AUTO 33006KT 7SM 17/10 A3009 RMK SLP179 T01700100 IEM_DS3505
ZGNN,1997-03-23 05:00,ZGNN 230500Z AUTO 34006KT 7SM 17/10 A3006 RMK SLP169 T01700100 IEM_DS3505
ZGNN,1997-03-23 06:00,ZGNN 230600Z AUTO 07004KT 11SM 17/10 A3006 RMK SLP170 T01720103 57015 IEM_DS3505
ZGNN,1997-03-23 07:00,ZGNN 230700Z AUTO 09006KT 7SM 17/11 A3003 RMK SLP159 T01700110 IEM_DS3505
ZGNN,1997-03-23 08:00,ZGNN 230800Z AUTO 03004KT 7SM 18/11 A3000 RMK SLP148 T01800110 IEM_DS3505
ZGNN,1997-03-23 09:00,ZGNN 230900Z AUTO 11002KT 12SM 18/11 A3000 RMK SLP154 T01810109 57016 IEM_DS3505
ZGNN,1997-03-23 10:00,ZGNN 231000Z AUTO 04004KT 7SM 17/11 A3003 RMK SLP159 T01700110 IEM_DS3505
ZGNN,1997-03-23 11:00,ZGNN 231100Z AUTO 07004KT 7SM 17/11 A3003 RMK SLP159 T01700110 IEM_DS3505
ZGNN,1997-03-23 12:00,ZGNN 231200Z AUTO 04002KT 12SM 17/12 A3006 RMK SLP171 T01730123 52017 IEM_DS3505
ZGNN,1997-03-23 13:00,ZGNN 231300Z AUTO 00000KT 7SM 16/12 A3006 RMK SLP169 T01600120 IEM_DS3505
ZGNN,1997-03-23 15:00,ZGNN 231500Z AUTO 00000KT 11SM 17/13 A3011 RMK SLP187 T01690132 52016 IEM_DS3505
ZGNN,1997-03-23 18:00,ZGNN 231800Z AUTO 00000KT 7SM 17/14 A3010 RMK SLP182 T01660136 57005 IEM_DS3505
ZGNN,1997-03-23 21:00,ZGNN 232100Z AUTO 00000KT 7SM 16/13 A3012 RMK SLP185 T01650129 52003 IEM_DS3505
ZGNN,1997-03-23 22:00,ZGNN 232200Z AUTO 20004KT 2 1/2SM 15/13 A3012 RMK SLP190 T01500130 IEM_DS3505
ZGNN,1997-03-23 23:00,ZGNN 232300Z AUTO 06006KT 2 1/2SM 15/14 A3006 RMK SLP169 T01500140 IEM_DS3505
ZGNN,1997-03-24 00:00,ZGNN 240000Z AUTO 07004KT 9SM 15/12 A3012 RMK 60000 70001 SLP189 T01530120 52004 IEM_DS3505
ZGNN,1997-03-24 01:00,ZGNN 240100Z AUTO 00000KT 2 1/2SM 15/13 A3015 RMK SLP200 T01500130 IEM_DS3505
ZGNN,1997-03-24 02:00,ZGNN 240200Z AUTO 00000KT 2 1/2SM 15/13 A3018 RMK SLP210 T01500130 IEM_DS3505
ZGNN,1997-03-24 03:00,ZGNN 240300Z AUTO 09002KT 9SM 16/12 A3015 RMK SLP209 T01590117 52020 IEM_DS3505
ZGNN,1997-03-24 06:00,ZGNN 240600Z AUTO 02004KT 4SM 15/14 A3012 RMK 60000 SLP189 T01480141 57020 IEM_DS3505
ZGNN,1997-03-24 07:00,ZGNN 240700Z AUTO 09004KT 2 1/2SM 15/13 A3009 RMK SLP179 T01500130 IEM_DS3505
ZGNN,1997-03-24 08:00,ZGNN 240800Z AUTO 09004KT 2 1/2SM 15/14 A3006 RMK SLP169 T01500140 IEM_DS3505
ZGNN,1997-03-24 09:00,ZGNN 240900Z AUTO 07002KT 6SM 16/13 A3003 RMK SLP165 T01620134 57024 IEM_DS3505
ZGNN,1997-03-24 10:00,ZGNN 241000Z AUTO 11006KT 2 1/2SM 15/14 A3003 RMK SLP159 T01500140 IEM_DS3505
ZGNN,1997-03-24 11:00,ZGNN 241100Z AUTO 09006KT 3SM 15/14 A3006 RMK SLP169 T01500140 IEM_DS3505
ZGNN,1997-03-24 12:00,ZGNN 241200Z AUTO 04002KT 7SM 15/13 A3003 RMK 60000 SLP172 T01530133 52007 IEM_DS3505
ZGNN,1997-03-24 13:00,ZGNN 241300Z AUTO 13006KT 3SM 15/13 A3006 RMK SLP169 T01500130 IEM_DS3505
ZGNN,1997-03-24 14:00,ZGNN 241400Z AUTO 13004KT 3SM 15/13 A3006 RMK SLP169 T01500130 IEM_DS3505
ZGNN,1997-03-24 15:00,ZGNN 241500Z AUTO 00000KT 6SM 15/13 A3011 RMK SLP187 T01470134 52014 IEM_DS3505
ZGNN,1997-03-24 18:00,ZGNN 241800Z AUTO 07004KT 5SM 14/14 A3006 RMK 60000 SLP171 T01440139 57016 IEM_DS3505
ZGNN,1997-03-24 21:00,ZGNN 242100Z AUTO 07004KT 4SM 14/14 A3003 RMK 70004 SLP165 T01440140 57005 IEM_DS3505
ZGNN,1997-03-24 22:00,ZGNN 242200Z AUTO 03002KT 1 1/4SM 14/14 A3006 RMK SLP170 T01400140 IEM_DS3505
ZGNN,1997-03-25 00:00,ZGNN 250000Z AUTO 00000KT 4SM 15/14 A3009 RMK 60002 70004 SLP186 T01490144 52020 IEM_DS3505
ZGNN,1997-03-25 01:00,ZGNN 250100Z AUTO 00000KT 2 1/2SM 15/15 A3009 RMK SLP179 T01500150 IEM_DS3505
ZGNN,1997-03-25 03:00,ZGNN 250300Z AUTO 07002KT 4SM 16/15 A3012 RMK SLP193 T01590152 52007 IEM_DS3505
ZGNN,1997-03-25 04:00,ZGNN 250400Z AUTO 07004KT 4SM 16/15 A3012 RMK SLP189 T01600150 IEM_DS3505
ZGNN,1997-03-25 05:00,ZGNN 250500Z AUTO 09006KT 2 1/2SM 16/15 A3009 RMK SLP179 T01600150 IEM_DS3505
ZGNN,1997-03-25 06:00,ZGNN 250600Z AUTO 00000KT 2SM 16/16 A3007 RMK 60002 SLP174 T01650158 57018 IEM_DS3505
ZGNN,1997-03-25 07:00,ZGNN 250700Z AUTO 05004KT 1 1/2SM 16/16 A3003 RMK SLP159 T01600160 IEM_DS3505
ZGNN,1997-03-25 08:00,ZGNN 250800Z AUTO 07004KT 1 1/4SM 16/16 A3003 RMK SLP159 T01600160 IEM_DS3505
ZGNN,1997-03-25 09:00,ZGNN 250900Z AUTO 07002KT 1 1/4SM 16/16 A3000 RMK SLP161 T01650160 57013 IEM_DS3505
ZGNN,1997-03-25 10:00,ZGNN 251000Z AUTO 03004KT 1 1/4SM 16/16 A3003 RMK SLP159 T01600160 IEM_DS3505
ZGNN,1997-03-25 11:00,ZGNN 251100Z AUTO 07004KT 1 1/2SM 16/16 A3003 RMK SLP159 T01600160 IEM_DS3505
ZGNN,1997-03-25 12:00,ZGNN 251200Z AUTO 04002KT 2 1/2SM 16/15 A3006 RMK 60004 SLP176 T01590150 52015 IEM_DS3505
ZGNN,1997-03-25 13:00,ZGNN 251300Z AUTO 07004KT 1 1/4SM 16/16 A3009 RMK SLP179 T01600160 IEM_DS3505
ZGNN,1997-03-25 15:00,ZGNN 251500Z AUTO 00000KT 5SM 16/15 A3013 RMK SLP192 T01580151 52016 IEM_DS3505
ZGNN,1997-03-25 18:00,ZGNN 251800Z AUTO 00000KT 4SM 16/15 A3011 RMK 60008 SLP187 T01570152 57005 IEM_DS3505
ZGNN,1997-03-25 21:00,ZGNN 252100Z AUTO 00000KT 2 1/2SM 16/15 A3006 RMK 70016 SLP176 T01590152 57011 IEM_DS3505
ZGNN,1997-03-25 22:00,ZGNN 252200Z AUTO 04002KT 1 1/2SM 16/15 A3006 RMK SLP169 T01600150 IEM_DS3505
ZGNN,1997-03-25 23:00,ZGNN 252300Z AUTO 05004KT 2SM 16/15 A3009 RMK SLP179 T01600150 IEM_DS3505
ZGNN,1997-03-26 00:00,ZGNN 260000Z AUTO 00000KT 4SM 16/15 A3012 RMK 60008 70024 SLP190 T01590149 52014 IEM_DS3505
ZGNN,1997-03-26 01:00,ZGNN 260100Z AUTO 34006KT 2 1/2SM 16/15 A3015 RMK SLP199 T01600150 IEM_DS3505
ZGNN,1997-03-26 02:00,ZGNN 260200Z AUTO 33006KT 3SM 16/15 A3015 RMK SLP199 T01600150 IEM_DS3505
ZGNN,1997-03-26 03:00,ZGNN 260300Z AUTO 00000KT 6SM 16/15 A3018 RMK SLP212 T01610151 52021 IEM_DS3505
ZGNN,1997-03-26 04:00,ZGNN 260400Z AUTO 36004KT 6SM 16/15 A3018 RMK SLP209 T01600150 IEM_DS3505
ZGNN,1997-03-26 05:00,ZGNN 260500Z AUTO 33004KT 4SM 16/15 A3015 RMK SLP199 T01600150 IEM_DS3505
ZGNN,1997-03-26 06:00,ZGNN 260600Z AUTO 32004KT 6SM 16/15 A3015 RMK 60024 SLP211 T01610151 57001 IEM_DS3505
ZGNN,1997-03-26 07:00,ZGNN 260700Z AUTO 00000KT 7SM 15/14 A3012 RMK SLP190 T01500140 IEM_DS3505
ZGNN,1997-03-26 08:00,ZGNN 260800Z AUTO 35004KT 5SM 15/14 A3012 RMK SLP190 T01500140 IEM_DS3505
ZGNN,1997-03-26 09:00,ZGNN 260900Z AUTO 07002KT 6SM 16/15 A3012 RMK SLP192 T01620150 57018 IEM_DS3505
ZGNN,1997-03-26 10:00,ZGNN 261000Z AUTO 00000KT 2SM 15/15 A3012 RMK SLP190 T01500150 IEM_DS3505
ZGNN,1997-03-26 11:00,ZGNN 261100Z AUTO 09010KT 1 1/4SM 15/14 A3012 RMK SLP190 T01500140 IEM_DS3505
ZGNN,1997-03-26 12:00,ZGNN 261200Z AUTO 07004KT 12SM 15/14 A3012 RMK 60059 SLP191 T01490140 57002 IEM_DS3505
ZGNN,1997-03-26 13:00,ZGNN 261300Z AUTO 07006KT 7SM 15/14 A3012 RMK SLP190 T01500140 IEM_DS3505
ZGNN,1997-03-26 15:00,ZGNN 261500Z AUTO 00000KT 7SM 15/14 A3019 RMK SLP214 T01510139 52023 IEM_DS3505
ZGNN,1997-03-26 18:00,ZGNN 261800Z AUTO 00000KT 5SM 15/15 A3014 RMK 60004 SLP198 T01510146 57016 IEM_DS3505
ZGNN,1997-03-26 21:00,ZGNN 262100Z AUTO 00000KT 2 1/2SM 15/14 A3012 RMK 70094 SLP185 T01500140 57012 IEM_DS3505
ZGNN,1997-03-26 22:00,ZGNN 262200Z AUTO 27004KT 2SM 15/14 A3012 RMK SLP190 T01500140 IEM_DS3505
ZGNN,1997-03-26 23:00,ZGNN 262300Z AUTO 00000KT 4SM 15/14 A3012 RMK SLP190 T01500140 IEM_DS3505
ZGNN,1997-03-27 00:00,ZGNN 270000Z AUTO 02002KT 4SM 15/14 A3012 RMK 60075 70161 SLP199 T01460141 52013 IEM_DS3505
ZGNN,1997-03-27 01:00,ZGNN 270100Z AUTO 35004KT 2 1/2SM 15/14 A3015 RMK SLP200 T01500140 IEM_DS3505
ZGNN,1997-03-27 02:00,ZGNN 270200Z AUTO 03004KT 2SM 15/14 A3018 RMK SLP210 T01500140 IEM_DS3505
ZGNN,1997-03-27 03:00,ZGNN 270300Z AUTO 07002KT 4SM 15/14 A3015 RMK SLP205 T01490142 52006 IEM_DS3505
ZGNN,1997-03-27 04:00,ZGNN 270400Z AUTO 00000KT 7SM 15/14 A3012 RMK SLP190 T01500140 IEM_DS3505
ZGNN,1997-03-27 05:00,ZGNN 270500Z AUTO 00000KT 3SM 15/ A3012 RMK SLP190 IEM_DS3505
ZGNN,1997-03-27 06:00,ZGNN 270600Z AUTO 02002KT 5SM 15/15 A3009 RMK 60102 SLP185 T01520147 57020 IEM_DS3505
ZGNN,1997-03-27 07:00,ZGNN 270700Z AUTO 03002KT 7SM 15/15 A3006 RMK SLP169 T01500150 IEM_DS3505
ZGNN,1997-03-27 08:00,ZGNN 270800Z AUTO 00000KT 7SM 15/15 A3003 RMK SLP159 T01500150 IEM_DS3505
ZGNN,1997-03-27 09:00,ZGNN 270900Z AUTO 22002KT 5SM 16/15 A3003 RMK SLP160 T01580146 57024 IEM_DS3505
ZGNN,1997-03-27 10:00,ZGNN 271000Z AUTO 10004KT 4SM 15/15 A3000 RMK SLP149 T01500150 IEM_DS3505
ZGNN,1997-03-27 11:00,ZGNN 271100Z AUTO 12006KT 4SM 15/15 A3000 RMK SLP149 T01500150 IEM_DS3505
ZGNN,1997-03-27 12:00,ZGNN 271200Z AUTO 00000KT 11SM 16/15 A3003 RMK 60004 SLP161 T01560146 52001 IEM_DS3505
ZGNN,1997-03-27 13:00,ZGNN 271300Z AUTO 09006KT 4SM 15/15 A3003 RMK SLP159 T01500150 IEM_DS3505
ZGNN,1997-03-27 15:00,ZGNN 271500Z AUTO 00000KT 9SM 15/14 A3006 RMK SLP168 T01530144 52007 IEM_DS3505
ZGNN,1997-03-27 18:00,ZGNN 271800Z AUTO 00000KT 7SM 15/15 A3002 RMK 60004 SLP157 T01510146 57011 IEM_DS3505
ZGNN,1997-03-27 21:00,ZGNN 272100Z AUTO 00000KT 6SM 15/15 A2999 RMK 70185 SLP144 T01500148 57013 IEM_DS3505
ZGNN,1997-03-27 22:00,ZGNN 272200Z AUTO 00000KT 1SM 15/15 A2997 RMK SLP139 T01500150 IEM_DS3505
ZGNN,1997-03-27 23:00,ZGNN 272300Z AUTO 00000KT 1/2SM 15/15 A3000 RMK SLP149 T01500150 IEM_DS3505
ZGNN,1997-03-28 00:00,ZGNN 280000Z AUTO 00000KT 1 1/4SM 15/15 A3003 RMK 60004 70114 SLP161 T01520149 52017 IEM_DS3505
ZGNN,1997-03-28 01:00,ZGNN 280100Z AUTO 00000KT 1SM 15/15 A3003 RMK SLP159 T01500150 IEM_DS3505
ZGNN,1997-03-28 02:00,ZGNN 280200Z AUTO 00000KT 1 1/4SM 16/15 A3003 RMK SLP159 T01600150 IEM_DS3505
ZGNN,1997-03-28 03:00,ZGNN 280300Z AUTO 00000KT 5SM 17/16 A3003 RMK SLP162 T01660158 52001 IEM_DS3505
ZGNN,1997-03-28 04:00,ZGNN 280400Z AUTO 00000KT 4SM 17/16 A3000 RMK SLP149 T01700160 IEM_DS3505
ZGNN,1997-03-28 05:00,ZGNN 280500Z AUTO 00000KT 6SM 18/17 A2997 RMK SLP124 T01800170 57013 IEM_DS3505
ZGNN,1997-03-28 06:00,ZGNN 280600Z AUTO 09002KT 7SM 18/16 A2994 RMK SLP137 T01810164 57025 IEM_DS3505
ZGNN,1997-03-28 07:00,ZGNN 280700Z AUTO 06004KT 1 1/4SM 18/17 A2991 RMK SLP118 T01800170 IEM_DS3505
ZGNN,1997-03-28 08:00,ZGNN 280800Z AUTO 02006KT 1 1/4SM 18/17 A2991 RMK SLP118 T01800170 IEM_DS3505
ZGNN,1997-03-28 09:00,ZGNN 280900Z AUTO 00000KT 6SM 18/17 A2988 RMK SLP124 T01800170 57013 IEM_DS3505
ZGNN,1997-03-28 10:00,ZGNN 281000Z AUTO 08004KT 1 1/4SM 18/17 A2991 RMK SLP118 T01800170 IEM_DS3505
ZGNN,1997-03-28 11:00,ZGNN 281100Z AUTO 08006KT 2 1/2SM 18/17 A2991 RMK SLP118 T01800170 IEM_DS3505
ZGNN,1997-03-28 12:00,ZGNN 281200Z AUTO 09002KT 8SM 17/16 A2991 RMK 60000 SLP129 T01740162 52005 IEM_DS3505
ZGNN,1997-03-28 13:00,ZGNN 281300Z AUTO 12004KT 2 1/2SM 17/16 A2994 RMK SLP128 T01700160 IEM_DS3505
ZGNN,1997-03-28 15:00,ZGNN 281500Z AUTO 00000KT 10SM 17/16 A2999 RMK SLP145 T01690157 52016 IEM_DS3505
ZGNN,1997-03-28 16:00,ZGNN 281600Z AUTO 00000KT 4SM 17/16 A2997 RMK SLP139 T01700160 IEM_DS3505
ZGNN,1997-03-28 17:00,ZGNN 281700Z AUTO 00000KT 2 1/2SM 17/16 A2997 RMK SLP139 T01700160 IEM_DS3505
ZGNN,1997-03-28 18:00,ZGNN 281800Z AUTO 00000KT 9SM 17/16 A2997 RMK SLP143 T01690155 57001 IEM_DS3505
ZGNN,1997-03-28 21:00,ZGNN 282100Z AUTO 07002KT 9SM 17/16 A2996 RMK 70001 SLP137 T01690159 57006 IEM_DS3505
ZGNN,1997-03-28 22:00,ZGNN 282200Z AUTO 00000KT 1 1/4SM 17/16 A2997 RMK SLP139 T01700160 IEM_DS3505
ZGNN,1997-03-28 23:00,ZGNN 282300Z AUTO 00000KT 1 1/4SM 17/16 A3000 RMK SLP149 T01700160 IEM_DS3505
ZGNN,1997-03-29 00:00,ZGNN 290000Z AUTO 02002KT 10SM 17/16 A3000 RMK SLP155 T01710156 52017 IEM_DS3505
ZGNN,1997-03-29 02:00,ZGNN 290200Z AUTO 04004KT 7SM 18/15 A3006 RMK SLP168 T01800150 IEM_DS3505
ZGNN,1997-03-29 03:00,ZGNN 290300Z AUTO 00000KT 10SM 20/16 A3003 RMK SLP164 T02020161 52010 IEM_DS3505
ZGNN,1997-03-29 04:00,ZGNN 290400Z AUTO 35004KT 7SM 20/16 A3003 RMK SLP158 T02000160 IEM_DS3505
ZGNN,1997-03-29 05:00,ZGNN 290500Z AUTO 01002KT 7SM 22/17 A3000 RMK SLP147 T02200170 IEM_DS3505
ZGNN,1997-03-29 06:00,ZGNN 290600Z AUTO 29004KT 12SM 23/17 A2997 RMK SLP146 T02330170 57018 IEM_DS3505
ZGNN,1997-03-29 07:00,ZGNN 290700Z AUTO 03002KT 7SM 23/18 A2994 RMK SLP127 T02300180 IEM_DS3505
ZGNN,1997-03-29 08:00,ZGNN 290800Z AUTO 35004KT 7SM 23/18 A2994 RMK SLP127 T02300180 IEM_DS3505
ZGNN,1997-03-29 09:00,ZGNN 290900Z AUTO 00000KT 12SM 24/18 A2994 RMK SLP129 T02420184 57016 IEM_DS3505
ZGNN,1997-03-29 10:00,ZGNN 291000Z AUTO 01004KT 7SM 23/18 A2994 RMK SLP127 T02300180 IEM_DS3505
ZGNN,1997-03-29 11:00,ZGNN 291100Z AUTO 02004KT 7SM 22/18 A2994 RMK SLP127 T02200180 IEM_DS3505
ZGNN,1997-03-29 12:00,ZGNN 291200Z AUTO 00000KT 11SM 22/19 A3000 RMK SLP149 T02170190 52019 IEM_DS3505
ZGNN,1997-03-29 13:00,ZGNN 291300Z AUTO 00000KT 5SM 21/18 A3003 RMK SLP158 T02100180 IEM_DS3505
ZGNN,1997-03-29 15:00,ZGNN 291500Z AUTO 00000KT 11SM 21/18 A3007 RMK SLP170 T02060180 52021 IEM_DS3505
ZGNN,1997-03-29 18:00,ZGNN 291800Z AUTO 00000KT 9SM 20/18 A3004 RMK SLP159 T02010182 57010 IEM_DS3505
ZGNN,1997-03-29 21:00,ZGNN 292100Z AUTO 00000KT 7SM 19/17 A3003 RMK 70004 SLP168 T01910173 52009 IEM_DS3505
ZGNN,1997-03-29 22:00,ZGNN 292200Z AUTO 36002KT 4SM 18/17 A3006 RMK SLP168 T01800170 IEM_DS3505
ZGNN,1997-03-29 23:00,ZGNN 292300Z AUTO 03002KT 5SM 18/17 A3006 RMK SLP168 T01800170 IEM_DS3505
ZGNN,1997-03-30 00:00,ZGNN 300000Z AUTO 36002KT 5SM 18/17 A3009 RMK 60008 70008 SLP183 T01840166 52014 IEM_DS3505
ZGNN,1997-03-30 01:00,ZGNN 300100Z AUTO 01004KT 5SM 18/17 A3012 RMK SLP189 T01800170 IEM_DS3505
ZGNN,1997-03-30 02:00,ZGNN 300200Z AUTO 35002KT 5SM 19/17 A3015 RMK SLP198 T01900170 IEM_DS3505
ZGNN,1997-03-30 03:00,ZGNN 300300Z AUTO 34002KT 6SM 20/17 A3015 RMK SLP197 T01980167 52014 IEM_DS3505
ZGNN,1997-03-30 04:00,ZGNN 300400Z AUTO 34006KT 5SM 19/17 A3012 RMK SLP188 T01900170 IEM_DS3505
ZGNN,1997-03-30 05:00,ZGNN 300500Z AUTO 35008KT 5SM 19/17 A3012 RMK SLP188 T01900170 IEM_DS3505
ZGNN,1997-03-30 06:00,ZGNN 300600Z AUTO 02002KT 7SM 20/17 A3009 RMK 60000 SLP179 T01990166 57018 IEM_DS3505
ZGNN,1997-03-30 07:00,ZGNN 300700Z AUTO 36006KT 5SM 19/17 A3006 RMK SLP168 T01900170 IEM_DS3505
ZGNN,1997-03-30 08:00,ZGNN 300800Z AUTO 02006KT 4SM 19/17 A3006 RMK SLP168 T01900170 IEM_DS3505
ZGNN,1997-03-30 09:00,ZGNN 300900Z AUTO 02002KT 7SM 21/17 A3006 RMK SLP169 T02070168 57010 IEM_DS3505
ZGNN,1997-03-30 10:00,ZGNN 301000Z AUTO 35006KT 4SM 19/17 A3006 RMK SLP168 T01900170 IEM_DS3505
ZGNN,1997-03-30 11:00,ZGNN 301100Z AUTO 34006KT 4SM 19/16 A3006 RMK SLP168 T01900160 IEM_DS3505
ZGNN,1997-03-30 12:00,ZGNN 301200Z AUTO 04002KT 7SM 19/16 A3009 RMK SLP176 T01890162 52007 IEM_DS3505
ZGNN,1997-03-30 13:00,ZGNN 301300Z AUTO 33004KT 4SM 19/16 A3009 RMK SLP178 T01900160 IEM_DS3505
ZGNN,1997-03-30 15:00,ZGNN 301500Z AUTO 00000KT 7SM 19/16 A3011 RMK SLP185 T01870160 52009 IEM_DS3505
ZGNN,1997-03-30 18:00,ZGNN 301800Z AUTO 29002KT 7SM 18/16 A3010 RMK SLP180 T01820165 57005 IEM_DS3505
ZGNN,1997-03-30 21:00,ZGNN 302100Z AUTO 00000KT 7SM 17/16 A3006 RMK 70008 SLP170 T01710161 57010 IEM_DS3505
ZGNN,1997-03-30 22:00,ZGNN 302200Z AUTO 36004KT 1 1/4SM 17/16 A3006 RMK SLP169 T01700160 IEM_DS3505
ZGNN,1997-03-30 23:00,ZGNN 302300Z AUTO 05004KT 1 1/4SM 17/16 A3006 RMK SLP169 T01700160 IEM_DS3505
ZGNN,1997-03-31 00:00,ZGNN 310000Z AUTO 00000KT 7SM 17/16 A3009 RMK 60004 70004 SLP179 T01730165 52008 IEM_DS3505
ZGNN,1997-03-31 01:00,ZGNN 310100Z AUTO 09006KT 1 1/2SM 17/17 A3009 RMK SLP179 T01700170 IEM_DS3505
ZGNN,1997-03-31 02:00,ZGNN 310200Z AUTO 10002KT 2 1/2SM 18/17 A3012 RMK SLP189 T01800170 IEM_DS3505
ZGNN,1997-03-31 03:00,ZGNN 310300Z AUTO 00000KT 9SM 18/16 A3009 RMK SLP185 T01840164 52006 IEM_DS3505
ZGNN,1997-03-31 04:00,ZGNN 310400Z AUTO 10004KT 1 1/4SM 18/18 A3009 RMK SLP179 T01800180 IEM_DS3505
ZGNN,1997-03-31 05:00,ZGNN 310500Z AUTO 11004KT 1 1/2SM 19/18 A3006 RMK SLP168 T01900180 IEM_DS3505
ZGNN,1997-03-31 06:00,ZGNN 310600Z AUTO 00000KT 9SM 20/18 A3003 RMK SLP161 T02020178 57023 IEM_DS3505
ZGNN,1997-03-31 07:00,ZGNN 310700Z AUTO 00000KT 2SM 20/19 A3000 RMK SLP148 T02000190 IEM_DS3505
ZGNN,1997-03-31 08:00,ZGNN 310800Z AUTO 00000KT 2SM 21/19 A2997 RMK SLP137 T02100190 IEM_DS3505
ZGNN,1997-03-31 09:00,ZGNN 310900Z AUTO 07002KT 9SM 21/19 A2994 RMK SLP135 T02110186 57026 IEM_DS3505
ZGNN,1997-03-31 10:00,ZGNN 311000Z AUTO 13006KT 2 1/2SM 22/19 A2994 RMK SLP127 T02200190 IEM_DS3505
ZGNN,1997-03-31 11:00,ZGNN 311100Z AUTO 12004KT 2SM 21/19 A2997 RMK SLP137 T02100190 IEM_DS3505
ZGNN,1997-03-31 12:00,ZGNN 311200Z AUTO 00000KT 7SM 20/19 A2997 RMK SLP143 T02050191 52008 IEM_DS3505
ZGNN,1997-03-31 13:00,ZGNN 311300Z AUTO 12004KT 2 1/2SM 20/19 A2997 RMK SLP138 T02000190 IEM_DS3505
ZGNN,1997-03-31 14:00,ZGNN 311400Z AUTO 12004KT 2 1/2SM 20/19 A3000 RMK SLP148 T02000190 IEM_DS3505
ZGNN,1997-03-31 15:00,ZGNN 311500Z AUTO 00000KT 7SM 20/19 A3001 RMK SLP152 T02010192 52009 IEM_DS3505
ZGNN,1997-03-31 18:00,ZGNN 311800Z AUTO 00000KT 6SM 20/19 A2997 RMK 60002 SLP138 T01970192 57014 IEM_DS3505
ZGNN,1997-03-31 21:00,ZGNN 312100Z AUTO 00000KT 5SM 20/19 A2988 RMK 70012 SLP113 T02000192 57024 IEM_DS3505
ZGNN,1997-03-31 22:00,ZGNN 312200Z AUTO 15010KT 2 1/2SM 20/19 A2988 RMK SLP107 T02000190 IEM_DS3505
ZGNN,1997-03-31 23:00,ZGNN 312300Z AUTO 16008KT 4SM 20/19 A2991 RMK SLP117 T02000190 IEM_DS3505
ZGNN,1997-04-01 00:00,ZGNN 010000Z AUTO 07004KT 7SM 20/20 A2991 RMK 60012 70012 SLP121 T02030195 52008 IEM_DS3505
ZGNN,1997-04-01 01:00,ZGNN 010100Z AUTO 16012KT 5SM 22/20 A2991 RMK SLP117 T02200200 IEM_DS3505
ZGNN,1997-04-01 02:00,ZGNN 010200Z AUTO 15014KT 7SM 24/21 A2991 RMK SLP116 T02400210 IEM_DS3505
ZGNN,1997-04-01 03:00,ZGNN 010300Z AUTO 25002KT 7SM 23/20 A2994 RMK SLP128 T02310205 52007 IEM_DS3505
ZGNN,1997-04-01 04:00,ZGNN 010400Z AUTO 16008KT 7SM 24/20 A2991 RMK SLP116 T02400200 IEM_DS3505
ZGNN,1997-04-01 05:00,ZGNN 010500Z AUTO 23004KT 7SM 22/21 A2988 RMK SLP107 T02200210 IEM_DS3505
ZGNN,1997-04-01 06:00,ZGNN 010600Z AUTO 20004KT 2 1/2SM 22/21 A2985 RMK 60047 SLP106 T02190210 57022 IEM_DS3505
ZGNN,1997-04-01 07:00,ZGNN 010700Z AUTO 20012KT 7SM 23/19 A2983 RMK SLP089 T02300190 IEM_DS3505
ZGNN,1997-04-01 08:00,ZGNN 010800Z AUTO 17008KT 7SM 23/19 A2980 RMK SLP079 T02300190 IEM_DS3505
ZGNN,1997-04-01 09:00,ZGNN 010900Z AUTO 20004KT 12SM 24/19 A2980 RMK SLP084 T02410191 57022 IEM_DS3505
ZGNN,1997-04-01 10:00,ZGNN 011000Z AUTO 00000KT 7SM 23/20 A2980 RMK SLP079 T02300200 IEM_DS3505
ZGNN,1997-04-01 11:00,ZGNN 011100Z AUTO 15006KT 7SM 24/21 A2980 RMK SLP079 T02400210 IEM_DS3505
ZGNN,1997-04-01 12:00,ZGNN 011200Z AUTO 09004KT 12SM 23/21 A2983 RMK 60020 SLP081 T02310210 57003 IEM_DS3505
ZGNN,1997-04-01 13:00,ZGNN 011300Z AUTO 14006KT 7SM 22/20 A2985 RMK SLP096 T02200200 IEM_DS3505
ZGNN,1997-04-01 14:00,ZGNN 011400Z AUTO 15006KT 7SM 21/20 A2985 RMK SLP096 T02100200 IEM_DS3505
ZGNN,1997-04-01 15:00,ZGNN 011500Z AUTO 00000KT 12SM 22/20 A2986 RMK SLP099 T02170205 52018 IEM_DS3505
ZGNN,1997-04-01 18:00,ZGNN 011800Z AUTO 20002KT 11SM 21/20 A2985 RMK SLP096 T02130202 57003 IEM_DS3505
ZGNN,1997-04-01 21:00,ZGNN 012100Z AUTO 09002KT 7SM 20/19 A2983 RMK 70067 SLP090 T01970194 IEM_DS3505
ZGNN,1997-04-01 22:00,ZGNN 012200Z AUTO 00000KT 2SM 19/19 A2983 RMK SLP091 T01900190 IEM_DS3505
ZGNN,1997-04-01 23:00,ZGNN 012300Z AUTO 01004KT 1SM 18/18 A2985 RMK SLP097 T01800180 IEM_DS3505
ZGNN,1997-04-02 00:00,ZGNN 020000Z AUTO 00000KT 5SM 21/20 A2985 RMK 70067 SLP104 T02100205 52012 IEM_DS3505
ZGNN,1997-04-02 01:00,ZGNN 020100Z AUTO 00000KT 5SM 22/21 A2988 RMK SLP107 T02200210 IEM_DS3505
ZGNN,1997-04-02 02:00,ZGNN 020200Z AUTO 18008KT 7SM 25/21 A2988 RMK SLP106 T02500210 IEM_DS3505
ZGNN,1997-04-02 03:00,ZGNN 020300Z AUTO 22002KT 7SM 26/22 A2988 RMK SLP106 T02560217 52003 IEM_DS3505
ZGNN,1997-04-02 04:00,ZGNN 020400Z AUTO 16010KT 7SM 27/22 A2985 RMK SLP094 T02700220 IEM_DS3505
ZGNN,1997-04-02 05:00,ZGNN 020500Z AUTO 14010KT 7SM 28/22 A2983 RMK SLP088 T02800220 IEM_DS3505
ZGNN,1997-04-02 06:00,ZGNN 020600Z AUTO 34002KT 16SM 28/22 A2980 RMK SLP077 T02830222 57029 IEM_DS3505
ZGNN,1997-04-02 07:00,ZGNN 020700Z AUTO 12008KT 7SM 29/22 A2977 RMK SLP067 T02900220 IEM_DS3505
ZGNN,1997-04-02 08:00,ZGNN 020800Z AUTO 14010KT 7SM 29/22 A2974 RMK SLP056 T02900220 IEM_DS3505
ZGNN,1997-04-02 09:00,ZGNN 020900Z AUTO 29002KT 16SM 29/23 A2971 RMK SLP055 T02860230 57022 IEM_DS3505
ZGNN,1997-04-02 10:00,ZGNN 021000Z AUTO 14014KT 7SM 27/22 A2974 RMK SLP057 T02700220 IEM_DS3505
ZGNN,1997-04-02 11:00,ZGNN 021100Z AUTO 15017KT 7SM 26/22 A2977 RMK SLP068 T02600220 IEM_DS3505
ZGNN,1997-04-02 12:00,ZGNN 021200Z AUTO 20004KT 14SM 25/22 A2980 RMK 60000 SLP074 T02490219 52019 IEM_DS3505
ZGNN,1997-04-02 13:00,ZGNN 021300Z AUTO 15008KT 7SM 23/21 A2980 RMK SLP079 T02300210 IEM_DS3505
ZGNN,1997-04-02 15:00,ZGNN 021500Z AUTO 20002KT 14SM 24/21 A2984 RMK SLP092 T02350212 52018 IEM_DS3505
ZGNN,1997-04-02 18:00,ZGNN 021800Z AUTO 00000KT 14SM 23/21 A2983 RMK SLP089 T02280208 57003 IEM_DS3505
ZGNN,1997-04-02 21:00,ZGNN 022100Z AUTO 36002KT 11SM 22/21 A2980 RMK 70001 SLP085 T02250208 57004 IEM_DS3505
ZGNN,1997-04-02 22:00,ZGNN 022200Z AUTO 02004KT 7SM 21/21 A2983 RMK SLP090 T02100210 IEM_DS3505
ZGNN,1997-04-02 23:00,ZGNN 022300Z AUTO 00000KT 7SM 22/21 A2985 RMK SLP096 T02200210 IEM_DS3505
ZGNN,1997-04-03 00:00,ZGNN 030000Z AUTO 00000KT 11SM 22/21 A2985 RMK 70001 SLP098 T02250211 52013 IEM_DS3505
ZGNN,1997-04-03 01:00,ZGNN 030100Z AUTO 06004KT 7SM 23/21 A2988 RMK SLP107 T02300210 IEM_DS3505
ZGNN,1997-04-03 02:00,ZGNN 030200Z AUTO 15004KT 7SM 25/22 A2988 RMK SLP106 T02500220 IEM_DS3505
ZGNN,1997-04-03 03:00,ZGNN 030300Z AUTO 02002KT 12SM 26/22 A2988 RMK SLP102 T02620224 52004 IEM_DS3505
ZGNN,1997-04-03 04:00,ZGNN 030400Z AUTO 25006KT 7SM 28/21 A2985 RMK SLP094 T02800210 IEM_DS3505
ZGNN,1997-04-03 05:00,ZGNN 030500Z AUTO 12002KT 7SM 29/21 A2983 RMK SLP088 T02900210 IEM_DS3505
ZGNN,1997-04-03 06:00,ZGNN 030600Z AUTO 34002KT 16SM 30/22 A2977 RMK SLP071 T02990217 57030 IEM_DS3505
ZGNN,1997-04-03 07:00,ZGNN 030700Z AUTO 20006KT 7SM 30/22 A2974 RMK SLP056 T03000220 IEM_DS3505
ZGNN,1997-04-03 08:00,ZGNN 030800Z AUTO 24006KT 7SM 31/22 A2971 RMK SLP046 T03100220 IEM_DS3505
ZGNN,1997-04-03 09:00,ZGNN 030900Z AUTO 20002KT 16SM 30/22 A2971 RMK SLP045 T03020225 57026 IEM_DS3505
ZGNN,1997-04-03 10:00,ZGNN 031000Z AUTO 15006KT 7SM 28/22 A2971 RMK SLP047 T02800220 IEM_DS3505
ZGNN,1997-04-03 11:00,ZGNN 031100Z AUTO 15008KT 6SM 26/22 A2974 RMK SLP057 T02600220 IEM_DS3505
ZGNN,1997-04-03 12:00,ZGNN 031200Z AUTO 09002KT 16SM 26/22 A2974 RMK SLP066 T02630222 52020 IEM_DS3505
ZGNN,1997-04-03 13:00,ZGNN 031300Z AUTO 00000KT 6SM 24/22 A2977 RMK SLP069 T02400220 IEM_DS3505
ZGNN,1997-04-03 15:00,ZGNN 031500Z AUTO 00000KT 16SM 24/22 A2982 RMK SLP087 T02450215 52021 IEM_DS3505
ZGNN,1997-04-03 18:00,ZGNN 031800Z AUTO 00000KT 12SM 24/22 A2982 RMK SLP086 T02350217 54000 IEM_DS3505
ZGNN,1997-04-03 21:00,ZGNN 032100Z AUTO 00000KT 9SM 22/20 A2985 RMK 70008 SLP097 T02170202 52010 IEM_DS3505
ZGNN,1997-04-03 22:00,ZGNN 032200Z AUTO 34004KT 7SM 22/20 A2988 RMK SLP107 T02200200 IEM_DS3505
ZGNN,1997-04-03 23:00,ZGNN 032300Z AUTO 34006KT 5SM 20/20 A2991 RMK SLP117 T02000200 IEM_DS3505
ZGNN,1997-04-04 00:00,ZGNN 040000Z AUTO 00000KT 7SM 21/20 A2994 RMK 60016 70016 SLP132 T02070195 52034 IEM_DS3505
ZGNN,1997-04-04 01:00,ZGNN 040100Z AUTO 05004KT 7SM 21/19 A2997 RMK SLP137 T02100190 IEM_DS3505
ZGNN,1997-04-04 02:00,ZGNN 040200Z AUTO 07006KT 7SM 20/19 A3000 RMK SLP148 T02000190 IEM_DS3505
ZGNN,1997-04-04 03:00,ZGNN 040300Z AUTO 11002KT 12SM 23/18 A3000 RMK SLP144 T02330179 52012 IEM_DS3505
ZGNN,1997-04-04 04:00,ZGNN 040400Z AUTO 07002KT 7SM 22/20 A2997 RMK SLP137 T02200200 IEM_DS3505
ZGNN,1997-04-04 05:00,ZGNN 040500Z AUTO 06004KT 7SM 23/19 A2994 RMK SLP127 T02300190 IEM_DS3505
ZGNN,1997-04-04 06:00,ZGNN 040600Z AUTO 07004KT 16SM 25/18 A2991 RMK SLP121 T02470181 57022 IEM_DS3505
ZGNN,1997-04-04 07:00,ZGNN 040700Z AUTO 06006KT 7SM 24/18 A2988 RMK SLP106 T02400180 IEM_DS3505
ZGNN,1997-04-04 08:00,ZGNN 040800Z AUTO 07004KT 7SM 24/19 A2988 RMK SLP106 T02400190 IEM_DS3505
ZGNN,1997-04-04 09:00,ZGNN 040900Z AUTO 07004KT 14SM 23/17 A2988 RMK SLP113 T02340170 57009 IEM_DS3505
ZGNN,1997-04-04 10:00,ZGNN 041000Z AUTO 07006KT 7SM 23/19 A2988 RMK SLP107 T02300190 IEM_DS3505
ZGNN,1997-04-04 11:00,ZGNN 041100Z AUTO 07002KT 7SM 22/18 A2991 RMK SLP117 T02200180 IEM_DS3505
ZGNN,1997-04-04 12:00,ZGNN 041200Z AUTO 09004KT 14SM 23/16 A2991 RMK SLP127 T02260164 52014 IEM_DS3505
ZGNN,1997-04-04 13:00,ZGNN 041300Z AUTO 08010KT 7SM 21/16 A2994 RMK SLP127 T02100160 IEM_DS3505
ZGNN,1997-04-04 15:00,ZGNN 041500Z AUTO 16002KT 14SM 21/16 A3001 RMK SLP150 T02080156 52023 IEM_DS3505
ZGNN,1997-04-04 18:00,ZGNN 041800Z AUTO 07004KT 11SM 20/14 A2997 RMK SLP137 T02040144 57013 IEM_DS3505
ZGNN,1997-04-04 21:00,ZGNN 042100Z AUTO 07004KT 11SM 19/14 A2997 RMK 70008 SLP134 T01900138 57003 IEM_DS3505
ZGNN,1997-04-04 22:00,ZGNN 042200Z AUTO 03004KT 7SM 18/15 A2997 RMK SLP138 T01800150 IEM_DS3505
ZGNN,1997-04-04 23:00,ZGNN 042300Z AUTO 08004KT 7SM 18/15 A2997 RMK SLP138 T01800150 IEM_DS3505
ZGNN,1997-04-05 00:00,ZGNN 050000Z AUTO 07004KT 12SM 19/14 A3000 RMK SLP154 T01890137 52019 IEM_DS3505
ZGNN,1997-04-05 01:00,ZGNN 050100Z AUTO 05006KT 7SM 19/14 A3003 RMK SLP158 T01900140 IEM_DS3505
ZGNN,1997-04-05 02:00,ZGNN 050200Z AUTO 07002KT 7SM 19/15 A3003 RMK SLP158 T01900150 IEM_DS3505
ZGNN,1997-04-05 03:00,ZGNN 050300Z AUTO 09004KT 15SM 21/14 A3003 RMK SLP160 T02080145 52006 IEM_DS3505
ZGNN,1997-04-05 04:00,ZGNN 050400Z AUTO 06004KT 7SM 21/15 A3003 RMK SLP158 T02100150 IEM_DS3505
ZGNN,1997-04-05 05:00,ZGNN 050500Z AUTO 07008KT 7SM 21/15 A3000 RMK SLP147 T02100150 IEM_DS3505
ZGNN,1997-04-05 06:00,ZGNN 050600Z AUTO 00000KT 16SM 22/15 A2994 RMK SLP140 T02170150 57019 IEM_DS3505
ZGNN,1997-04-05 07:00,ZGNN 050700Z AUTO 09008KT 7SM 22/15 A2994 RMK SLP127 T02200150 IEM_DS3505
ZGNN,1997-04-05 08:00,ZGNN 050800Z AUTO 08008KT 7SM 23/16 A2988 RMK SLP107 T02300160 IEM_DS3505
ZGNN,1997-04-05 09:00,ZGNN 050900Z AUTO 07004KT 16SM 22/15 A2988 RMK SLP117 T02230150 57023 IEM_DS3505
ZGNN,1997-04-05 10:00,ZGNN 051000Z AUTO 09008KT 7SM 22/16 A2988 RMK SLP107 T02200160 IEM_DS3505
ZGNN,1997-04-05 11:00,ZGNN 051100Z AUTO 08008KT 7SM 21/16 A2988 RMK SLP107 T02100160 IEM_DS3505
ZGNN,1997-04-05 12:00,ZGNN 051200Z AUTO 09004KT 16SM 20/15 A2991 RMK SLP122 T02040152 52004 IEM_DS3505
ZGNN,1997-04-05 13:00,ZGNN 051300Z AUTO 05004KT 7SM 19/16 A2994 RMK SLP128 T01900160 IEM_DS3505
ZGNN,1997-04-05 15:00,ZGNN 051500Z AUTO 09002KT 14SM 20/16 A2998 RMK SLP141 T01950155 52019 IEM_DS3505
ZGNN,1997-04-05 18:00,ZGNN 051800Z AUTO 07002KT 12SM 19/16 A2995 RMK SLP130 T01890159 57011 IEM_DS3505
ZGNN,1997-04-05 21:00,ZGNN 052100Z AUTO 00000KT 9SM 18/16 A2991 RMK SLP127 T01780163 57003 IEM_DS3505
ZGNN,1997-04-05 22:00,ZGNN 052200Z AUTO 16008KT 2 1/2SM 17/16 A2997 RMK SLP139 T01700160 IEM_DS3505
ZGNN,1997-04-05 23:00,ZGNN 052300Z AUTO 18006KT 2SM 17/16 A2994 RMK SLP128 T01700160 IEM_DS3505
ZGNN,1997-04-06 00:00,ZGNN 060000Z AUTO 07004KT 12SM 18/17 A2991 RMK 60063 70059 SLP120 T01760166 57007 IEM_DS3505
ZGNN,1997-04-06 01:00,ZGNN 060100Z AUTO 06006KT 4SM 18/18 A2994 RMK SLP128 T01800180 IEM_DS3505
ZGNN,1997-04-06 02:00,ZGNN 060200Z AUTO 03008KT 7SM 19/18 A2994 RMK SLP128 T01900180 IEM_DS3505
ZGNN,1997-04-06 03:00,ZGNN 060300Z AUTO 20004KT 4SM 21/18 A2994 RMK SLP135 T02110182 52015 IEM_DS3505
ZGNN,1997-04-06 04:00,ZGNN 060400Z AUTO 04006KT 7SM 21/19 A2994 RMK SLP127 T02100190 IEM_DS3505
ZGNN,1997-04-06 05:00,ZGNN 060500Z AUTO 31006KT 7SM 23/19 A2991 RMK SLP117 T02300190 IEM_DS3505
ZGNN,1997-04-06 06:00,ZGNN 060600Z AUTO 16002KT 16SM 24/19 A2985 RMK 60000 SLP104 T02400192 57030 IEM_DS3505
ZGNN,1997-04-06 07:00,ZGNN 060700Z AUTO 12004KT 7SM 24/19 A2983 RMK SLP089 T02400190 IEM_DS3505
ZGNN,1997-04-06 08:00,ZGNN 060800Z AUTO 10006KT 7SM 24/20 A2980 RMK SLP079 T02400200 IEM_DS3505
ZGNN,1997-04-06 09:00,ZGNN 060900Z AUTO 20002KT 14SM 24/21 A2980 RMK SLP078 T02360206 57026 IEM_DS3505
ZGNN,1997-04-06 10:00,ZGNN 061000Z AUTO 14012KT 7SM 23/20 A2980 RMK SLP079 T02300200 IEM_DS3505
ZGNN,1997-04-06 11:00,ZGNN 061100Z AUTO 15006KT 7SM 23/20 A2980 RMK SLP079 T02300200 IEM_DS3505
ZGNN,1997-04-06 12:00,ZGNN 061200Z AUTO 00000KT 7SM 23/21 A2983 RMK SLP085 T02310207 52007 IEM_DS3505
ZGNN,1997-04-06 13:00,ZGNN 061300Z AUTO 14008KT 7SM 22/21 A2983 RMK SLP090 T02200210 IEM_DS3505
ZGNN,1997-04-06 15:00,ZGNN 061500Z AUTO 25002KT 12SM 22/21 A2987 RMK SLP103 T02250211 52018 IEM_DS3505
ZGNN,1997-04-06 18:00,ZGNN 061800Z AUTO 11002KT 11SM 22/21 A2983 RMK SLP090 T02230214 57012 IEM_DS3505
ZGNN,1997-04-06 21:00,ZGNN 062100Z AUTO 20002KT 9SM 23/22 A2980 RMK 70059 SLP080 T02290217 57010 IEM_DS3505
ZGNN,1997-04-06 22:00,ZGNN 062200Z AUTO 16008KT 3SM 23/22 A2980 RMK SLP079 T02300220 IEM_DS3505
ZGNN,1997-04-07 00:00,ZGNN 070000Z AUTO 00000KT 6SM 23/22 A2983 RMK 60004 70004 SLP091 T02300220 52011 IEM_DS3505
ZGNN,1997-04-07 01:00,ZGNN 070100Z AUTO 00000KT 7SM 24/22 A2983 RMK SLP089 T02400220 IEM_DS3505
ZGNN,1997-04-07 02:00,ZGNN 070200Z AUTO 14006KT 7SM 24/22 A2985 RMK SLP095 T02400220 IEM_DS3505
ZGNN,1997-04-07 03:00,ZGNN 070300Z AUTO 16004KT 12SM 26/22 A2985 RMK SLP103 T02590224 52012 IEM_DS3505
ZGNN,1997-04-07 04:00,ZGNN 070400Z AUTO 00000KT 7SM 27/22 A2985 RMK SLP094 T02700220 IEM_DS3505
ZGNN,1997-04-07 05:00,ZGNN 070500Z AUTO 12006KT 7SM 27/22 A2983 RMK SLP088 T02700220 IEM_DS3505
ZGNN,1997-04-07 06:00,ZGNN 070600Z AUTO 00000KT 16SM 26/22 A2980 RMK SLP079 T02600219 57024 IEM_DS3505
ZGNN,1997-04-07 07:00,ZGNN 070700Z AUTO 16008KT 7SM 28/23 A2977 RMK SLP068 T02800230 IEM_DS3505
ZGNN,1997-04-07 08:00,ZGNN 070800Z AUTO 19010KT 7SM 28/21 A2977 RMK SLP068 T02800210 IEM_DS3505
ZGNN,1997-04-07 09:00,ZGNN 070900Z AUTO 20006KT 17SM 28/22 A2977 RMK SLP063 T02830215 57015 IEM_DS3505
ZGNN,1997-04-07 10:00,ZGNN 071000Z AUTO 16008KT 7SM 27/21 A2977 RMK SLP068 T02700210 IEM_DS3505
ZGNN,1997-04-07 11:00,ZGNN 071100Z AUTO 15010KT 7SM 26/21 A2977 RMK SLP068 T02600210 IEM_DS3505
ZGNN,1997-04-07 12:00,ZGNN 071200Z AUTO 20006KT 19SM 25/21 A2980 RMK SLP082 T02540209 52018 IEM_DS3505
ZGNN,1997-04-07 13:00,ZGNN 071300Z AUTO 15010KT 7SM 24/21 A2980 RMK SLP079 T02400210 IEM_DS3505
ZGNN,1997-04-07 15:00,ZGNN 071500Z AUTO 16002KT 17SM 24/21 A2984 RMK SLP092 T02420214 52010 IEM_DS3505
ZGNN,1997-04-07 18:00,ZGNN 071800Z AUTO 00000KT 16SM 23/22 A2982 RMK SLP084 T02320217 57008 IEM_DS3505
ZGNN,1997-04-07 21:00,ZGNN 072100Z AUTO 00000KT 16SM 22/21 A2980 RMK 70004 SLP074 T02210213 57010 IEM_DS3505
ZGNN,1997-04-07 22:00,ZGNN 072200Z AUTO 23004KT 7SM 24/20 A2980 RMK SLP079 T02400200 IEM_DS3505
ZGNN,1997-04-07 23:00,ZGNN 072300Z AUTO 00000KT 7SM 23/20 A2983 RMK SLP089 T02300200 IEM_DS3505
ZGNN,1997-04-08 00:00,ZGNN 080000Z AUTO 09004KT 11SM 23/21 A2985 RMK 60002 70002 SLP096 T02280214 52022 IEM_DS3505
ZGNN,1997-04-08 01:00,ZGNN 080100Z AUTO 13008KT 7SM 21/20 A2988 RMK SLP107 T02100200 IEM_DS3505
ZGNN,1997-04-08 02:00,ZGNN 080200Z AUTO 03004KT 7SM 22/20 A2988 RMK SLP107 T02200200 IEM_DS3505
ZGNN,1997-04-08 03:00,ZGNN 080300Z AUTO 34002KT 12SM 23/20 A2991 RMK SLP117 T02330201 52021 IEM_DS3505
ZGNN,1997-04-08 04:00,ZGNN 080400Z AUTO 15006KT 7SM 23/19 A2988 RMK SLP107 T02300190 IEM_DS3505
ZGNN,1997-04-08 05:00,ZGNN 080500Z AUTO 21004KT 7SM 23/20 A2988 RMK SLP107 T02300200 IEM_DS3505
ZGNN,1997-04-08 06:00,ZGNN 080600Z AUTO 18004KT 14SM 26/20 A2983 RMK 60000 SLP088 T02550204 57029 IEM_DS3505
ZGNN,1997-04-08 07:00,ZGNN 080700Z AUTO 14004KT 7SM 25/19 A2983 RMK SLP089 T02500190 IEM_DS3505
ZGNN,1997-04-08 08:00,ZGNN 080800Z AUTO 14010KT 7SM 25/20 A2980 RMK SLP079 T02500200 IEM_DS3505
ZGNN,1997-04-08 09:00,ZGNN 080900Z AUTO 20002KT 16SM 25/20 A2980 RMK SLP078 T02470200 57010 IEM_DS3505
ZGNN,1997-04-08 10:00,ZGNN 081000Z AUTO 19006KT 7SM 24/20 A2980 RMK SLP079 T02400200 IEM_DS3505
ZGNN,1997-04-08 11:00,ZGNN 081100Z AUTO 15004KT 7SM 23/20 A2983 RMK SLP089 T02300200 IEM_DS3505
ZGNN,1997-04-08 12:00,ZGNN 081200Z AUTO 00000KT 18SM 23/20 A2985 RMK SLP106 T02340205 52027 IEM_DS3505
ZGNN,1997-04-08 13:00,ZGNN 081300Z AUTO 12002KT 6SM 22/20 A2988 RMK SLP107 T02200200 IEM_DS3505
ZGNN,1997-04-08 15:00,ZGNN 081500Z AUTO 07002KT 14SM 22/20 A2992 RMK SLP121 T02230202 52015 IEM_DS3505
ZGNN,1997-04-08 18:00,ZGNN 081800Z AUTO 22004KT 12SM 22/21 A2988 RMK SLP105 T02180207 57015 IEM_DS3505
ZGNN,1997-04-08 21:00,ZGNN 082100Z AUTO 04002KT 12SM 22/21 A2985 RMK 70004 SLP099 T02200208 57006 IEM_DS3505
ZGNN,1997-04-08 22:00,ZGNN 082200Z AUTO 00000KT 7SM 21/20 A2985 RMK SLP096 T02100200 IEM_DS3505
ZGNN,1997-04-08 23:00,ZGNN 082300Z AUTO 00000KT 7SM 21/20 A2988 RMK SLP107 T02100200 IEM_DS3505
ZGNN,1997-04-09 00:00,ZGNN 090000Z AUTO 00000KT 12SM 22/21 A2991 RMK SLP119 T02220208 52019 IEM_DS3505
ZGNN,1997-04-09 01:00,ZGNN 090100Z AUTO 13004KT 7SM 23/21 A2994 RMK SLP127 T02300210 IEM_DS3505
ZGNN,1997-04-09 02:00,ZGNN 090200Z AUTO 00000KT 7SM 24/21 A2997 RMK SLP136 T02400210 IEM_DS3505
ZGNN,1997-04-09 03:00,ZGNN 090300Z AUTO 02004KT 16SM 24/21 A2994 RMK SLP132 T02390212 52013 IEM_DS3505
ZGNN,1997-04-09 04:00,ZGNN 090400Z AUTO 07004KT 7SM 26/21 A2991 RMK SLP116 T02600210 IEM_DS3505
ZGNN,1997-04-09 05:00,ZGNN 090500Z AUTO 12004KT 7SM 28/21 A2991 RMK SLP115 T02800210 IEM_DS3505
ZGNN,1997-04-09 06:00,ZGNN 090600Z AUTO 09004KT 12SM 27/22 A2985 RMK SLP100 T02690219 57031 IEM_DS3505
ZGNN,1997-04-09 07:00,ZGNN 090700Z AUTO 16008KT 7SM 27/21 A2983 RMK SLP088 T02700210 IEM_DS3505
ZGNN,1997-04-09 08:00,ZGNN 090800Z AUTO 32010KT 5SM 22/20 A2985 RMK SLP096 T02200200 IEM_DS3505
ZGNN,1997-04-09 09:00,ZGNN 090900Z AUTO 34004KT 12SM 22/20 A2983 RMK SLP093 T02210199 57008 IEM_DS3505
ZGNN,1997-04-09 10:00,ZGNN 091000Z AUTO 28006KT 7SM 22/20 A2985 RMK SLP096 T02200200 IEM_DS3505
ZGNN,1997-04-09 11:00,ZGNN 091100Z AUTO 17004KT 7SM 21/20 A2985 RMK SLP096 T02100200 IEM_DS3505
ZGNN,1997-04-09 12:00,ZGNN 091200Z AUTO 09004KT 19SM 21/20 A2988 RMK 60016 SLP109 T02140199 52016 IEM_DS3505
ZGNN,1997-04-09 13:00,ZGNN 091300Z AUTO 06002KT 6SM 21/20 A2991 RMK SLP117 T02100200 IEM_DS3505
ZGNN,1997-04-09 15:00,ZGNN 091500Z AUTO 07008KT 14SM 21/18 A2997 RMK SLP138 T02070180 52029 IEM_DS3505
ZGNN,1997-04-09 18:00,ZGNN 091800Z AUTO 07002KT 12SM 20/18 A2998 RMK SLP141 T02000176 52003 IEM_DS3505
ZGNN,1997-04-09 21:00,ZGNN 092100Z AUTO 07004KT 12SM 19/16 A2997 RMK 70016 SLP141 T01930161 57001 IEM_DS3505
ZGNN,1997-04-09 22:00,ZGNN 092200Z AUTO 05004KT 7SM 19/17 A2997 RMK SLP138 T01900170 IEM_DS3505
ZGNN,1997-04-09 23:00,ZGNN 092300Z AUTO 06004KT 7SM 19/17 A3000 RMK SLP148 T01900170 IEM_DS3505
ZGNN,1997-04-10 00:00,ZGNN 100000Z AUTO 04004KT 12SM 19/16 A3003 RMK 70016 SLP158 T01910159 52017 IEM_DS3505
ZGNN,1997-04-10 01:00,ZGNN 100100Z AUTO 06006KT 7SM 20/17 A3006 RMK SLP168 T02000170 IEM_DS3505
ZGNN,1997-04-10 02:00,ZGNN 100200Z AUTO 00000KT 7SM 21/17 A3006 RMK SLP168 T02100170 IEM_DS3505
ZGNN,1997-04-10 03:00,ZGNN 100300Z AUTO 18002KT 14SM 22/17 A3007 RMK SLP169 T02200168 52011 IEM_DS3505
ZGNN,1997-04-10 06:00,ZGNN 100600Z AUTO 07004KT 16SM 23/17 A3002 RMK SLP154 T02270169 57014 IEM_DS3505
ZGNN,1997-04-10 08:00,ZGNN 100800Z AUTO 06006KT 7SM 23/17 A2997 RMK SLP137 T02300170 IEM_DS3505
ZGNN,1997-04-10 09:00,ZGNN 100900Z AUTO 07004KT 16SM 22/17 A2999 RMK SLP142 T02250170 57012 IEM_DS3505
ZGNN,1997-04-10 10:00,ZGNN 101000Z AUTO 02008KT 7SM 22/17 A2997 RMK SLP137 T02200170 IEM_DS3505
ZGNN,1997-04-10 11:00,ZGNN 101100Z AUTO 05004KT 7SM 21/18 A3000 RMK SLP147 T02100180 IEM_DS3505
ZGNN,1997-04-10 12:00,ZGNN 101200Z AUTO 07004KT 16SM 21/16 A3000 RMK SLP151 T02070164 52008 IEM_DS3505
ZGNN,1997-04-10 13:00,ZGNN 101300Z AUTO 05004KT 7SM 20/16 A3003 RMK SLP158 T02000160 IEM_DS3505
ZGNN,1997-04-10 15:00,ZGNN 101500Z AUTO 04002KT 14SM 20/16 A3008 RMK SLP174 T01950162 52023 IEM_DS3505
ZGNN,1997-04-10 18:00,ZGNN 101800Z AUTO 00000KT 12SM 20/17 A3008 RMK SLP174 T01970167 54000 IEM_DS3505
ZGNN,1997-04-10 21:00,ZGNN 102100Z AUTO 04002KT 7SM 20/17 A3003 RMK SLP161 T01970171 57013 IEM_DS3505
ZGNN,1997-04-10 22:00,ZGNN 102200Z AUTO 00000KT 5SM 19/18 A3003 RMK SLP158 T01900180 IEM_DS3505
ZGNN,1997-04-10 23:00,ZGNN 102300Z AUTO 00000KT 7SM 20/18 A3006 RMK SLP168 T02000180 IEM_DS3505
ZGNN,1997-04-11 00:00,ZGNN 110000Z AUTO 07004KT 12SM 20/16 A3006 RMK SLP175 T01970157 52014 IEM_DS3505
ZGNN,1997-04-11 01:00,ZGNN 110100Z AUTO 05004KT 7SM 20/17 A3009 RMK SLP178 T02000170 IEM_DS3505
ZGNN,1997-04-11 02:00,ZGNN 110200Z AUTO 05004KT 7SM 20/16 A3009 RMK SLP178 T02000160 IEM_DS3505
ZGNN,1997-04-11 03:00,ZGNN 110300Z AUTO 09004KT 14SM 21/17 A3009 RMK SLP184 T02110169 52009 IEM_DS3505
ZGNN,1997-04-11 04:00,ZGNN 110400Z AUTO 03008KT 7SM 21/16 A3009 RMK SLP178 T02100160 IEM_DS3505
ZGNN,1997-04-11 05:00,ZGNN 110500Z AUTO 05004KT 7SM 21/16 A3009 RMK SLP178 T02100160 IEM_DS3505
ZGNN,1997-04-11 06:00,ZGNN 110600Z AUTO 07002KT 16SM 22/16 A3003 RMK 60000 SLP164 T02160162 57020 IEM_DS3505
ZGNN,1997-04-11 07:00,ZGNN 110700Z AUTO 11004KT 7SM 21/16 A3000 RMK SLP147 T02100160 IEM_DS3505
ZGNN,1997-04-11 08:00,ZGNN 110800Z AUTO 10006KT 7SM 22/17 A2997 RMK SLP137 T02200170 IEM_DS3505
ZGNN,1997-04-11 09:00,ZGNN 110900Z AUTO 11002KT 16SM 22/17 A2997 RMK SLP142 T02190167 57021 IEM_DS3505
ZGNN,1997-04-11 10:00,ZGNN 111000Z AUTO 10004KT 7SM 21/17 A2997 RMK SLP137 T02100170 IEM_DS3505
ZGNN,1997-04-11 11:00,ZGNN 111100Z AUTO 06006KT 7SM 21/17 A2997 RMK SLP137 T02100170 IEM_DS3505
ZGNN,1997-04-11 12:00,ZGNN 111200Z AUTO 04004KT 12SM 21/17 A3001 RMK SLP151 T02110170 52008 IEM_DS3505
ZGNN,1997-04-11 13:00,ZGNN 111300Z AUTO 06004KT 7SM 21/17 A3000 RMK SLP147 T02100170 IEM_DS3505
ZGNN,1997-04-11 15:00,ZGNN 111500Z AUTO 11004KT 11SM 20/17 A3006 RMK SLP168 T02010168 52017 IEM_DS3505
ZGNN,1997-04-11 18:00,ZGNN 111800Z AUTO 07002KT 11SM 20/17 A3002 RMK SLP156 T01970167 57012 IEM_DS3505
ZGNN,1997-04-11 21:00,ZGNN 112100Z AUTO 07002KT 11SM 19/17 A2994 RMK 70000 SLP138 T01930170 57018 IEM_DS3505
ZGNN,1997-04-11 22:00,ZGNN 112200Z AUTO 00000KT 7SM 19/18 A2994 RMK SLP128 T01900180 IEM_DS3505
ZGNN,1997-04-11 23:00,ZGNN 112300Z AUTO 01004KT 3SM 19/18 A2997 RMK SLP138 T01900180 IEM_DS3505
ZGNN,1997-04-12 00:00,ZGNN 120000Z AUTO 07002KT 9SM 20/18 A2997 RMK SLP142 T01990176 IEM_DS3505
ZGNN,1997-04-12 01:00,ZGNN 120100Z AUTO 04004KT 1SM 19/18 A3000 RMK SLP148 T01900180 IEM_DS3505
ZGNN,1997-04-12 02:00,ZGNN 120200Z AUTO 04004KT 1 1/4SM 19/19 A3000 RMK SLP148 T01900190 IEM_DS3505
ZGNN,1997-04-12 03:00,ZGNN 120300Z AUTO 00000KT 6SM 20/19 A2997 RMK SLP147 T01950187 52005 IEM_DS3505
ZGNN,1997-04-12 04:00,ZGNN 120400Z AUTO 30006KT 1 1/2SM 20/19 A2997 RMK SLP138 T02000190 IEM_DS3505
ZGNN,1997-04-12 05:00,ZGNN 120500Z AUTO 07004KT 2SM 21/20 A2994 RMK SLP127 T02100200 IEM_DS3505
ZGNN,1997-04-12 06:00,ZGNN 120600Z AUTO 04004KT 5SM 21/20 A2991 RMK 60142 SLP119 T02070201 57027 IEM_DS3505
ZGNN,1997-04-12 07:00,ZGNN 120700Z AUTO 09008KT 2 1/2SM 22/20 A2985 RMK SLP096 T02200200 IEM_DS3505
ZGNN,1997-04-12 08:00,ZGNN 120800Z AUTO 33008KT 2 1/2SM 21/20 A2985 RMK SLP096 T02100200 IEM_DS3505
ZGNN,1997-04-12 09:00,ZGNN 120900Z AUTO 09004KT 9SM 21/20 A2983 RMK SLP097 T02090200 57022 IEM_DS3505
ZGNN,1997-04-12 11:00,ZGNN 121100Z AUTO 12006KT 5SM 21/20 A2988 RMK SLP107 T02100200 IEM_DS3505
ZGNN,1997-04-12 12:00,ZGNN 121200Z AUTO 09002KT 12SM 20/19 A2985 RMK 60051 SLP106 T02020186 52009 IEM_DS3505
ZGNN,1997-04-12 13:00,ZGNN 121300Z AUTO 06004KT 5SM 20/19 A2988 RMK SLP107 T02000190 IEM_DS3505
ZGNN,1997-04-12 15:00,ZGNN 121500Z AUTO 09004KT 11SM 20/19 A2991 RMK SLP118 T01990188 52011 IEM_DS3505
ZGNN,1997-04-12 18:00,ZGNN 121800Z AUTO 00000KT 9SM 20/19 A2988 RMK SLP108 T02000192 57009 IEM_DS3505
ZGNN,1997-04-12 21:00,ZGNN 122100Z AUTO 07002KT 9SM 20/19 A2985 RMK 70197 SLP103 T02020194 57005 IEM_DS3505
ZGNN,1997-04-12 22:00,ZGNN 122200Z AUTO 03004KT 1 1/4SM 20/20 A2985 RMK SLP096 T02000200 IEM_DS3505
ZGNN,1997-04-12 23:00,ZGNN 122300Z AUTO 03004KT 1/4SM 20/20 A2985 RMK SLP096 T02000200 IEM_DS3505
ZGNN,1997-04-13 00:00,ZGNN 130000Z AUTO 00000KT 4SM 20/20 A2988 RMK 70197 SLP110 T02040199 52007 IEM_DS3505
ZGNN,1997-04-13 01:00,ZGNN 130100Z AUTO 04004KT 1/2SM 20/20 A2991 RMK SLP117 T02000200 IEM_DS3505
ZGNN,1997-04-13 02:00,ZGNN 130200Z AUTO 00000KT 1/2SM 21/20 A2991 RMK SLP117 T02100200 IEM_DS3505
ZGNN,1997-04-13 03:00,ZGNN 130300Z AUTO 02002KT 6SM 22/21 A2991 RMK SLP118 T02190207 52008 IEM_DS3505
ZGNN,1997-04-13 04:00,ZGNN 130400Z AUTO 12004KT 1 1/2SM 23/21 A2988 RMK SLP107 T02300210 IEM_DS3505
ZGNN,1997-04-13 05:00,ZGNN 130500Z AUTO 11004KT 3SM 24/22 A2985 RMK SLP095 T02400220 IEM_DS3505
ZGNN,1997-04-13 06:00,ZGNN 130600Z AUTO 22002KT 10SM 24/22 A2985 RMK SLP096 T02430216 57022 IEM_DS3505
ZGNN,1997-04-13 07:00,ZGNN 130700Z AUTO 09004KT 7SM 25/22 A2983 RMK SLP089 T02500220 IEM_DS3505
ZGNN,1997-04-13 08:00,ZGNN 130800Z AUTO 11002KT 5SM 24/22 A2980 RMK SLP079 T02400220 IEM_DS3505
ZGNN,1997-04-13 09:00,ZGNN 130900Z AUTO 09002KT 16SM 25/22 A2980 RMK SLP075 T02510225 57020 IEM_DS3505
ZGNN,1997-04-13 10:00,ZGNN 131000Z AUTO 13006KT 7SM 25/22 A2977 RMK SLP069 T02500220 IEM_DS3505
ZGNN,1997-04-13 11:00,ZGNN 131100Z AUTO 09006KT 7SM 24/22 A2980 RMK SLP079 T02400220 IEM_DS3505
ZGNN,1997-04-13 12:00,ZGNN 131200Z AUTO 07004KT 12SM 23/21 A2983 RMK SLP089 T02280214 52013 IEM_DS3505
ZGNN,1997-04-13 13:00,ZGNN 131300Z AUTO 05004KT 7SM 23/22 A2985 RMK SLP095 T02300220 IEM_DS3505
ZGNN,1997-04-13 15:00,ZGNN 131500Z AUTO 07002KT 11SM 22/21 A2990 RMK SLP112 T02250214 52023 IEM_DS3505
ZGNN,1997-04-13 18:00,ZGNN 131800Z AUTO 00000KT 11SM 23/22 A2987 RMK SLP103 T02260217 57008 IEM_DS3505
ZGNN,1997-04-13 21:00,ZGNN 132100Z AUTO 00000KT 9SM 22/21 A2985 RMK 70002 SLP097 T02170211 57006 IEM_DS3505
ZGNN,1997-04-13 22:00,ZGNN 132200Z AUTO 06004KT 7SM 21/20 A2985 RMK SLP096 T02100200 IEM_DS3505
ZGNN,1997-04-13 23:00,ZGNN 132300Z AUTO 04002KT 6SM 21/20 A2988 RMK SLP107 T02100200 IEM_DS3505
ZGNN,1997-04-14 00:00,ZGNN 140000Z AUTO 07004KT 8SM 22/21 A2991 RMK 70002 SLP114 T02220211 52016 IEM_DS3505
ZGNN,1997-04-14 01:00,ZGNN 140100Z AUTO 00000KT 7SM 23/21 A2994 RMK SLP127 T02300210 IEM_DS3505
ZGNN,1997-04-14 02:00,ZGNN 140200Z AUTO 21002KT 7SM 24/21 A2994 RMK SLP126 T02400210 IEM_DS3505
ZGNN,1997-04-14 03:00,ZGNN 140300Z AUTO 29002KT 12SM 26/21 A2991 RMK SLP123 T02590214 52010 IEM_DS3505
ZGNN,1997-04-14 04:00,ZGNN 140400Z AUTO 24004KT 7SM 26/21 A2991 RMK SLP116 T02600210 IEM_DS3505
ZGNN,1997-04-14 05:00,ZGNN 140500Z AUTO 20008KT 7SM 27/21 A2991 RMK SLP115 T02700210 IEM_DS3505
ZGNN,1997-04-14 06:00,ZGNN 140600Z AUTO 27002KT 16SM 27/21 A2985 RMK SLP098 T02690211 57025 IEM_DS3505
ZGNN,1997-04-14 07:00,ZGNN 140700Z AUTO 18008KT 6SM 28/19 A2983 RMK SLP088 T02800190 IEM_DS3505
ZGNN,1997-04-14 08:00,ZGNN 140800Z AUTO 16008KT 6SM 29/20 A2980 RMK SLP078 T02900200 IEM_DS3505
ZGNN,1997-04-14 09:00,ZGNN 140900Z AUTO 20004KT 16SM 29/21 A2980 RMK SLP081 T02870206 57017 IEM_DS3505
ZGNN,1997-04-14 10:00,ZGNN 141000Z AUTO 16006KT 6SM 29/21 A2980 RMK SLP078 T02900210 IEM_DS3505
ZGNN,1997-04-14 11:00,ZGNN 141100Z AUTO 13004KT 6SM 27/22 A2983 RMK SLP088 T02700220 IEM_DS3505
ZGNN,1997-04-14 12:00,ZGNN 141200Z AUTO 00000KT 19SM 26/22 A2985 RMK SLP097 T02640223 52016 IEM_DS3505
ZGNN,1997-04-14 13:00,ZGNN 141300Z AUTO 12004KT 6SM 25/22 A2988 RMK SLP106 T02500220 IEM_DS3505
ZGNN,1997-04-14 15:00,ZGNN 141500Z AUTO 07004KT 19SM 24/22 A2992 RMK SLP119 T02430225 52022 IEM_DS3505
ZGNN,1997-04-14 18:00,ZGNN 141800Z AUTO 09004KT 16SM 23/20 A2990 RMK SLP112 T02310195 57007 IEM_DS3505
ZGNN,1997-04-14 21:00,ZGNN 142100Z AUTO 04002KT 16SM 22/18 A2991 RMK SLP122 T02160176 52010 IEM_DS3505
ZGNN,1997-04-14 22:00,ZGNN 142200Z AUTO 01002KT 7SM 20/19 A2994 RMK SLP128 T02000190 IEM_DS3505
ZGNN,1997-04-14 23:00,ZGNN 142300Z AUTO 00000KT 7SM 20/19 A2994 RMK SLP128 T02000190 IEM_DS3505
ZGNN,1997-04-15 00:00,ZGNN 150000Z AUTO 20002KT 12SM 22/17 A2997 RMK SLP141 T02160172 52018 IEM_DS3505
ZGNN,1997-04-15 01:00,ZGNN 150100Z AUTO 07002KT 7SM 22/17 A3000 RMK SLP147 T02200170 IEM_DS3505
ZGNN,1997-04-15 02:00,ZGNN 150200Z AUTO 03006KT 7SM 24/18 A3000 RMK SLP147 T02400180 IEM_DS3505
ZGNN,1997-04-15 03:00,ZGNN 150300Z AUTO 32002KT 12SM 24/17 A3000 RMK SLP147 T02420166 52006 IEM_DS3505
ZGNN,1997-04-15 04:00,ZGNN 150400Z AUTO 34006KT 7SM 24/17 A2997 RMK SLP136 T02400170 IEM_DS3505
ZGNN,1997-04-15 05:00,ZGNN 150500Z AUTO 30006KT 7SM 25/17 A2997 RMK SLP136 T02500170 IEM_DS3505
ZGNN,1997-04-15 06:00,ZGNN 150600Z AUTO 02004KT 16SM 26/18 A2994 RMK SLP126 T02590182 57020 IEM_DS3505
ZGNN,1997-04-15 07:00,ZGNN 150700Z AUTO 01006KT 7SM 25/18 A2991 RMK SLP116 T02500180 IEM_DS3505
ZGNN,1997-04-15 08:00,ZGNN 150800Z AUTO 02006KT 7SM 25/18 A2988 RMK SLP106 T02500180 IEM_DS3505
ZGNN,1997-04-15 09:00,ZGNN 150900Z AUTO 04002KT 16SM 26/18 A2988 RMK SLP110 T02630180 57016 IEM_DS3505
ZGNN,1997-04-15 10:00,ZGNN 151000Z AUTO 01006KT 7SM 25/18 A2988 RMK SLP106 T02500180 IEM_DS3505
ZGNN,1997-04-15 11:00,ZGNN 151100Z AUTO 36006KT 7SM 24/18 A2991 RMK SLP116 T02400180 IEM_DS3505
ZGNN,1997-04-15 12:00,ZGNN 151200Z AUTO 07004KT 16SM 24/18 A2991 RMK SLP121 T02350178 52010 IEM_DS3505
ZGNN,1997-04-15 13:00,ZGNN 151300Z AUTO 06004KT 7SM 23/18 A2994 RMK SLP127 T02300180 IEM_DS3505
ZGNN,1997-04-15 15:00,ZGNN 151500Z AUTO 04002KT 16SM 22/18 A2998 RMK SLP140 T02180176 52019 IEM_DS3505
ZGNN,1997-04-15 18:00,ZGNN 151800Z AUTO 00000KT 14SM 21/18 A2997 RMK SLP136 T02070180 57004 IEM_DS3505
ZGNN,1997-04-15 21:00,ZGNN 152100Z AUTO 00000KT 10SM 20/18 A2995 RMK SLP130 T01990185 57006 IEM_DS3505
ZGNN,1997-04-15 22:00,ZGNN 152200Z AUTO 06004KT 7SM 19/18 A2997 RMK SLP138 T01900180 IEM_DS3505
ZGNN,1997-04-15 23:00,ZGNN 152300Z AUTO 24004KT 7SM 19/18 A2997 RMK SLP138 T01900180 IEM_DS3505
ZGNN,1997-04-16 00:00,ZGNN 160000Z AUTO 04002KT 5SM 21/19 A3000 RMK SLP146 T02110187 52016 IEM_DS3505
ZGNN,1997-04-16 01:00,ZGNN 160100Z AUTO 02004KT 6SM 22/18 A3000 RMK SLP147 T02200180 IEM_DS3505
ZGNN,1997-04-16 02:00,ZGNN 160200Z AUTO 05004KT 6SM 24/18 A3000 RMK SLP147 T02400180 IEM_DS3505
ZGNN,1997-04-16 03:00,ZGNN 160300Z AUTO 34004KT 9SM 26/18 A2997 RMK SLP140 T02560177 57006 IEM_DS3505
ZGNN,1997-04-16 04:00,ZGNN 160400Z AUTO 34006KT 7SM 26/18 A2994 RMK SLP126 T02600180 IEM_DS3505
ZGNN,1997-04-16 05:00,ZGNN 160500Z AUTO 00000KT 7SM 27/19 A2994 RMK SLP126 T02700190 IEM_DS3505
ZGNN,1997-04-16 06:00,ZGNN 160600Z AUTO 34004KT 16SM 28/19 A2988 RMK SLP109 T02810191 57030 IEM_DS3505
ZGNN,1997-04-16 07:00,ZGNN 160700Z AUTO 14004KT 7SM 29/18 A2985 RMK SLP094 T02900180 IEM_DS3505
ZGNN,1997-04-16 08:00,ZGNN 160800Z AUTO 17006KT 7SM 29/19 A2983 RMK SLP088 T02900190 IEM_DS3505
ZGNN,1997-04-16 09:00,ZGNN 160900Z AUTO 14002KT 17SM 29/19 A2983 RMK SLP088 T02870189 57021 IEM_DS3505
ZGNN,1997-04-16 10:00,ZGNN 161000Z AUTO 00000KT 6SM 28/19 A2983 RMK SLP088 T02800190 IEM_DS3505
ZGNN,1997-04-16 11:00,ZGNN 161100Z AUTO 00000KT 7SM 28/20 A2985 RMK SLP094 T02800200 IEM_DS3505
ZGNN,1997-04-16 12:00,ZGNN 161200Z AUTO 16004KT 16SM 26/21 A2988 RMK SLP104 T02640210 52016 IEM_DS3505
ZGNN,1997-04-16 13:00,ZGNN 161300Z AUTO 16008KT 7SM 23/22 A2988 RMK SLP107 T02300220 IEM_DS3505
ZGNN,1997-04-16 15:00,ZGNN 161500Z AUTO 00000KT 16SM 24/22 A2994 RMK SLP126 T02400216 52022 IEM_DS3505
ZGNN,1997-04-16 18:00,ZGNN 161800Z AUTO 18002KT 14SM 24/21 A2991 RMK SLP115 T02350214 57011 IEM_DS3505
ZGNN,1997-04-16 21:00,ZGNN 162100Z AUTO 04002KT 11SM 23/21 A2988 RMK SLP105 T02270210 57010 IEM_DS3505
ZGNN,1997-04-16 22:00,ZGNN 162200Z AUTO 00000KT 4SM 22/21 A2988 RMK SLP107 T02200210 IEM_DS3505
ZGNN,1997-04-16 23:00,ZGNN 162300Z AUTO 00000KT 3SM 23/21 A2991 RMK SLP117 T02300210 IEM_DS3505
ZGNN,1997-04-17 00:00,ZGNN 170000Z AUTO 00000KT 12SM 24/21 A2991 RMK SLP123 T02360212 52018 IEM_DS3505
ZGNN,1997-04-17 01:00,ZGNN 170100Z AUTO 13006KT 7SM 25/22 A2994 RMK SLP126 T02500220 IEM_DS3505
ZGNN,1997-04-17 02:00,ZGNN 170200Z AUTO 14010KT 7SM 25/22 A2994 RMK SLP126 T02500220 IEM_DS3505
ZGNN,1997-04-17 03:00,ZGNN 170300Z AUTO 29004KT 16SM 26/22 A2994 RMK SLP126 T02640217 52003 IEM_DS3505
ZGNN,1997-04-17 04:00,ZGNN 170400Z AUTO 18008KT 7SM 27/21 A2991 RMK SLP115 T02700210 IEM_DS3505
ZGNN,1997-04-17 05:00,ZGNN 170500Z AUTO 17008KT 7SM 29/22 A2988 RMK SLP105 T02900220 IEM_DS3505
ZGNN,1997-04-17 06:00,ZGNN 170600Z AUTO 20008KT 19SM 29/20 A2985 RMK SLP092 T02920205 57033 IEM_DS3505
ZGNN,1997-04-17 07:00,ZGNN 170700Z AUTO 16010KT 7SM 30/22 A2980 RMK SLP077 T03000220 IEM_DS3505
ZGNN,1997-04-17 08:00,ZGNN 170800Z AUTO 21014KT 7SM 31/20 A2980 RMK SLP077 T03100200 IEM_DS3505
ZGNN,1997-04-17 09:00,ZGNN 170900Z AUTO 07004KT 19SM 27/23 A2977 RMK SLP070 T02710229 57023 IEM_DS3505
ZGNN,1997-04-17 10:00,ZGNN 171000Z AUTO 22008KT 7SM 30/20 A2977 RMK SLP067 T03000200 IEM_DS3505
ZGNN,1997-04-17 11:00,ZGNN 171100Z AUTO 15010KT 7SM 28/22 A2980 RMK SLP078 T02800220 IEM_DS3505
ZGNN,1997-04-17 12:00,ZGNN 171200Z AUTO 09002KT 16SM 26/23 A2983 RMK 60004 SLP087 T02580227 52017 IEM_DS3505
ZGNN,1997-04-17 13:00,ZGNN 171300Z AUTO 16006KT 6SM 26/22 A2983 RMK SLP088 T02600220 IEM_DS3505
ZGNN,1997-04-17 15:00,ZGNN 171500Z AUTO 18002KT 16SM 25/22 A2989 RMK SLP108 T02520218 52021 IEM_DS3505
ZGNN,1997-04-17 18:00,ZGNN 171800Z AUTO 07002KT 16SM 24/22 A2986 RMK SLP099 T02390221 57008 IEM_DS3505
ZGNN,1997-04-17 21:00,ZGNN 172100Z AUTO 11002KT 16SM 24/22 A2985 RMK 70004 SLP102 T02400222 52002 IEM_DS3505
ZGNN,1997-04-17 22:00,ZGNN 172200Z AUTO 00000KT 7SM 23/22 A2988 RMK SLP107 T02300220 IEM_DS3505
ZGNN,1997-04-17 23:00,ZGNN 172300Z AUTO 14004KT 7SM 23/22 A2991 RMK SLP117 T02300220 IEM_DS3505
ZGNN,1997-04-18 00:00,ZGNN 180000Z AUTO 07002KT 16SM 24/23 A2991 RMK 70004 SLP121 T02440229 52019 IEM_DS3505
ZGNN,1997-04-18 01:00,ZGNN 180100Z AUTO 29004KT 19SM 30/22 A2994 RMK SLP107 T02970223 57021 IEM_DS3505
ZGNN,1997-04-18 02:00,ZGNN 180200Z AUTO 15006KT 7SM 25/23 A2994 RMK SLP126 T02500230 IEM_DS3505
ZGNN,1997-04-18 03:00,ZGNN 180300Z AUTO 18002KT 16SM 28/23 A2994 RMK SLP129 T02790234 52008 IEM_DS3505
ZGNN,1997-04-18 04:00,ZGNN 180400Z AUTO 13010KT 7SM 28/22 A2994 RMK SLP125 T02800220 IEM_DS3505
ZGNN,1997-04-18 05:00,ZGNN 180500Z AUTO 14008KT 7SM 29/22 A2991 RMK SLP115 T02900220 IEM_DS3505
ZGNN,1997-04-18 06:00,ZGNN 180600Z AUTO 29004KT 19SM 30/22 A2988 RMK SLP107 T02970223 57021 IEM_DS3505
ZGNN,1997-04-18 07:00,ZGNN 180700Z AUTO 17006KT 7SM 28/23 A2985 RMK SLP094 T02800230 IEM_DS3505
ZGNN,1997-04-18 08:00,ZGNN 180800Z AUTO 17010KT 7SM 29/22 A2985 RMK SLP094 T02900220 IEM_DS3505
ZGNN,1997-04-18 09:00,ZGNN 180900Z AUTO 00000KT 19SM 30/23 A2983 RMK SLP086 T02970226 57021 IEM_DS3505
ZGNN,1997-04-18 10:00,ZGNN 181000Z AUTO 21002KT 7SM 26/23 A2983 RMK SLP088 T02600230 IEM_DS3505
ZGNN,1997-04-18 11:00,ZGNN 181100Z AUTO 35004KT 7SM 25/23 A2988 RMK SLP106 T02500230 IEM_DS3505
ZGNN,1997-04-18 12:00,ZGNN 181200Z AUTO 04004KT 17SM 26/22 A2988 RMK SLP109 T02550224 52022 IEM_DS3505
ZGNN,1997-04-18 13:00,ZGNN 181300Z AUTO 12006KT 7SM 25/23 A2991 RMK SLP116 T02500230 IEM_DS3505
ZGNN,1997-04-18 15:00,ZGNN 181500Z AUTO 11002KT 16SM 24/21 A2995 RMK SLP128 T02380208 52019 IEM_DS3505
ZGNN,1997-04-18 18:00,ZGNN 181800Z AUTO 07004KT 14SM 23/21 A2992 RMK SLP120 T02330206 57008 IEM_DS3505
ZGNN,1997-04-18 21:00,ZGNN 182100Z AUTO 00000KT 12SM 23/21 A2988 RMK SLP111 T02310210 57009 IEM_DS3505
ZGNN,1997-04-18 22:00,ZGNN 182200Z AUTO 09002KT 4SM 22/21 A2991 RMK SLP117 T02200210 IEM_DS3505
ZGNN,1997-04-18 23:00,ZGNN 182300Z AUTO 05002KT 4SM 23/21 A2991 RMK SLP117 T02300210 IEM_DS3505
ZGNN,1997-04-19 00:00,ZGNN 190000Z AUTO 09002KT 8SM 23/21 A2994 RMK SLP129 T02330212 52018 IEM_DS3505
ZGNN,1997-04-19 01:00,ZGNN 190100Z AUTO 08004KT 7SM 24/22 A2994 RMK SLP126 T02400220 IEM_DS3505
ZGNN,1997-04-19 02:00,ZGNN 190200Z AUTO 11004KT 7SM 25/22 A2997 RMK SLP136 T02500220 IEM_DS3505
ZGNN,1997-04-19 03:00,ZGNN 190300Z AUTO 07004KT 12SM 25/22 A2994 RMK SLP134 T02520216 52005 IEM_DS3505
ZGNN,1997-04-19 04:00,ZGNN 190400Z AUTO 16008KT 7SM 28/23 A2994 RMK SLP125 T02800230 IEM_DS3505
ZGNN,1997-04-19 05:00,ZGNN 190500Z AUTO 15008KT 7SM 29/23 A2991 RMK SLP115 T02900230 IEM_DS3505
ZGNN,1997-04-19 06:00,ZGNN 190600Z AUTO 22002KT 16SM 30/24 A2988 RMK SLP104 T02980240 57030 IEM_DS3505
ZGNN,1997-04-19 07:00,ZGNN 190700Z AUTO 12008KT 7SM 30/23 A2983 RMK SLP087 T03000230 IEM_DS3505
ZGNN,1997-04-19 08:00,ZGNN 190800Z AUTO 18006KT 7SM 31/22 A2980 RMK SLP077 T03100220 IEM_DS3505
ZGNN,1997-04-19 09:00,ZGNN 190900Z AUTO 02004KT 19SM 31/24 A2977 RMK SLP070 T03070237 57033 IEM_DS3505
ZGNN,1997-04-19 10:00,ZGNN 191000Z AUTO 13008KT 7SM 30/22 A2977 RMK SLP067 T03000220 IEM_DS3505
ZGNN,1997-04-19 11:00,ZGNN 191100Z AUTO 15012KT 7SM 29/23 A2980 RMK SLP078 T02900230 IEM_DS3505
ZGNN,1997-04-19 12:00,ZGNN 191200Z AUTO 27002KT 19SM 28/22 A2982 RMK SLP085 T02820225 52014 IEM_DS3505
ZGNN,1997-04-19 15:00,ZGNN 191500Z AUTO 20006KT 19SM 26/22 A2989 RMK SLP110 T02630225 52025 IEM_DS3505
ZGNN,1997-04-19 18:00,ZGNN 191800Z AUTO 18004KT 17SM 26/22 A2987 RMK SLP102 T02550224 57007 IEM_DS3505
ZGNN,1997-04-19 21:00,ZGNN 192100Z AUTO 07002KT 16SM 25/22 A2985 RMK SLP099 T02460219 57003 IEM_DS3505
ZGNN,1997-04-19 22:00,ZGNN 192200Z AUTO 18006KT 7SM 24/22 A2985 RMK SLP095 T02400220 IEM_DS3505
ZGNN,1997-04-19 23:00,ZGNN 192300Z AUTO 15004KT 7SM 23/22 A2988 RMK SLP107 T02300220 IEM_DS3505
ZGNN,1997-04-20 00:00,ZGNN 200000Z AUTO 00000KT 13SM 25/23 A2991 RMK SLP112 T02520227 52012 IEM_DS3505
ZGNN,1997-04-20 01:00,ZGNN 200100Z AUTO 15012KT 7SM 26/23 A2991 RMK SLP116 T02600230 IEM_DS3505
ZGNN,1997-04-20 02:00,ZGNN 200200Z AUTO 16010KT 7SM 28/23 A2991 RMK SLP115 T02800230 IEM_DS3505
ZGNN,1997-04-20 03:00,ZGNN 200300Z AUTO 20006KT 14SM 28/23 A2991 RMK SLP111 T02850233 54000 IEM_DS3505
ZGNN,1997-04-20 04:00,ZGNN 200400Z AUTO 17014KT 7SM 29/23 A2988 RMK SLP105 T02900230 IEM_DS3505
ZGNN,1997-04-20 05:00,ZGNN 200500Z AUTO 19006KT 7SM 30/23 A2985 RMK SLP093 T03000230 IEM_DS3505
ZGNN,1997-04-20 06:00,ZGNN 200600Z AUTO 18004KT 19SM 32/23 A2983 RMK SLP086 T03170229 57025 IEM_DS3505
ZGNN,1997-04-20 07:00,ZGNN 200700Z AUTO 15010KT 7SM 32/23 A2980 RMK SLP077 T03200230 IEM_DS3505
ZGNN,1997-04-20 08:00,ZGNN 200800Z AUTO 14012KT 7SM 32/23 A2977 RMK SLP067 T03200230 IEM_DS3505
ZGNN,1997-04-20 09:00,ZGNN 200900Z AUTO 25004KT 19SM 32/23 A2977 RMK SLP063 T03190233 57023 IEM_DS3505
ZGNN,1997-04-20 10:00,ZGNN 201000Z AUTO 14014KT 7SM 29/23 A2977 RMK SLP067 T02900230 IEM_DS3505
ZGNN,1997-04-20 11:00,ZGNN 201100Z AUTO 14012KT 7SM 28/23 A2980 RMK SLP078 T02800230 IEM_DS3505
ZGNN,1997-04-20 12:00,ZGNN 201200Z AUTO 20004KT 19SM 28/23 A2980 RMK SLP080 T02800226 52017 IEM_DS3505
ZGNN,1997-04-20 13:00,ZGNN 201300Z AUTO 16008KT 6SM 26/23 A2983 RMK SLP088 T02600230 IEM_DS3505
ZGNN,1997-04-20 15:00,ZGNN 201500Z AUTO 11002KT 19SM 26/23 A2988 RMK SLP107 T02640227 52027 IEM_DS3505
ZGNN,1997-04-20 18:00,ZGNN 201800Z AUTO 32002KT 16SM 25/22 A2985 RMK SLP095 T02540225 57012 IEM_DS3505
ZGNN,1997-04-20 21:00,ZGNN 202100Z AUTO 00000KT 16SM 25/23 A2985 RMK SLP093 T02490230 57002 IEM_DS3505
ZGNN,1997-04-20 22:00,ZGNN 202200Z AUTO 02004KT 7SM 24/23 A2983 RMK SLP089 T02400230 IEM_DS3505
ZGNN,1997-04-20 23:00,ZGNN 202300Z AUTO 13004KT 7SM 24/23 A2988 RMK SLP106 T02400230 IEM_DS3505
ZGNN,1997-04-21 00:00,ZGNN 210000Z AUTO 07006KT 3SM 23/21 A2988 RMK 60035 70035 SLP117 T02320206 52023 IEM_DS3505
ZGNN,1997-04-21 01:00,ZGNN 210100Z AUTO 04006KT 7SM 23/21 A2991 RMK SLP117 T02300210 IEM_DS3505
ZGNN,1997-04-21 02:00,ZGNN 210200Z AUTO 12006KT 1 1/4SM 22/21 A2994 RMK SLP127 T02200210 IEM_DS3505
ZGNN,1997-04-21 03:00,ZGNN 210300Z AUTO 29004KT 2 1/2SM 20/19 A2991 RMK SLP141 T02040193 52023 IEM_DS3505
ZGNN,1997-04-21 04:00,ZGNN 210400Z AUTO 02010KT 7SM 21/20 A2997 RMK SLP137 T02100200 IEM_DS3505
ZGNN,1997-04-21 05:00,ZGNN 210500Z AUTO 03012KT 7SM 22/20 A2997 RMK SLP137 T02200200 IEM_DS3505
ZGNN,1997-04-21 06:00,ZGNN 210600Z AUTO 09004KT 19SM 23/21 A2994 RMK 60114 SLP126 T02270210 57014 IEM_DS3505
ZGNN,1997-04-21 07:00,ZGNN 210700Z AUTO 06012KT 7SM 24/19 A2988 RMK SLP106 T02400190 IEM_DS3505
ZGNN,1997-04-21 08:00,ZGNN 210800Z AUTO 11006KT 7SM 24/19 A2985 RMK SLP095 T02400190 IEM_DS3505
ZGNN,1997-04-21 09:00,ZGNN 210900Z AUTO 09004KT 19SM 25/20 A2985 RMK SLP103 T02470196 57023 IEM_DS3505
ZGNN,1997-04-21 10:00,ZGNN 211000Z AUTO 05006KT 7SM 24/20 A2985 RMK SLP095 T02400200 IEM_DS3505
ZGNN,1997-04-21 11:00,ZGNN 211100Z AUTO 07006KT 6SM 23/19 A2988 RMK SLP107 T02300190 IEM_DS3505
ZGNN,1997-04-21 12:00,ZGNN 211200Z AUTO 00000KT 17SM 23/20 A2991 RMK 60000 SLP119 T02310200 52015 IEM_DS3505
ZGNN,1997-04-21 13:00,ZGNN 211300Z AUTO 08004KT 7SM 22/19 A2991 RMK SLP117 T02200190 IEM_DS3505
ZGNN,1997-04-21 15:00,ZGNN 211500Z AUTO 07002KT 16SM 22/20 A2999 RMK SLP144 T02210196 52025 IEM_DS3505
ZGNN,1997-04-21 18:00,ZGNN 211800Z AUTO 07004KT 12SM 22/20 A2995 RMK SLP130 T02160197 57014 IEM_DS3505
ZGNN,1997-04-21 21:00,ZGNN 212100Z AUTO 07002KT 12SM 21/19 A2991 RMK 70150 SLP126 T02140194 57004 IEM_DS3505
ZGNN,1997-04-21 22:00,ZGNN 212200Z AUTO 04004KT 5SM 21/20 A2994 RMK SLP127 T02100200 IEM_DS3505
ZGNN,1997-04-21 23:00,ZGNN 212300Z AUTO 00000KT 4SM 21/20 A2997 RMK SLP137 T02100200 IEM_DS3505
ZGNN,1997-04-22 00:00,ZGNN 220000Z AUTO 07004KT 12SM 22/19 A2997 RMK 70118 SLP138 T02230190 52012 IEM_DS3505
ZGNN,1997-04-22 01:00,ZGNN 220100Z AUTO 08004KT 7SM 23/19 A3000 RMK SLP147 T02300190 IEM_DS3505
ZGNN,1997-04-22 02:00,ZGNN 220200Z AUTO 07006KT 7SM 24/20 A3000 RMK SLP147 T02400200 IEM_DS3505
ZGNN,1997-04-22 03:00,ZGNN 220300Z AUTO 07004KT 16SM 26/19 A3000 RMK SLP151 T02550188 52013 IEM_DS3505
ZGNN,1997-04-22 04:00,ZGNN 220400Z AUTO 12010KT 7SM 25/19 A3000 RMK SLP146 T02500190 IEM_DS3505
ZGNN,1997-04-22 05:00,ZGNN 220500Z AUTO 08006KT 7SM 26/19 A2997 RMK SLP136 T02600190 IEM_DS3505
ZGNN,1997-04-22 06:00,ZGNN 220600Z AUTO 07002KT 16SM 27/20 A2997 RMK SLP133 T02720201 57017 IEM_DS3505
ZGNN,1997-04-22 07:00,ZGNN 220700Z AUTO 12004KT 7SM 27/20 A2994 RMK SLP126 T02700200 IEM_DS3505
ZGNN,1997-04-22 08:00,ZGNN 220800Z AUTO 18004KT 7SM 28/20 A2991 RMK SLP115 T02800200 IEM_DS3505
ZGNN,1997-04-22 09:00,ZGNN 220900Z AUTO 09004KT 17SM 28/20 A2988 RMK SLP109 T02850202 57024 IEM_DS3505
ZGNN,1997-04-22 10:00,ZGNN 221000Z AUTO 10004KT 6SM 28/21 A2988 RMK SLP105 T02800210 IEM_DS3505
ZGNN,1997-04-22 11:00,ZGNN 221100Z AUTO 11006KT 6SM 27/21 A2991 RMK SLP115 T02700210 IEM_DS3505
ZGNN,1997-04-22 12:00,ZGNN 221200Z AUTO 09002KT 15SM 26/21 A2991 RMK SLP121 T02610208 52012 IEM_DS3505
ZGNN,1997-04-22 13:00,ZGNN 221300Z AUTO 00000KT 6SM 25/22 A2994 RMK SLP126 T02500220 IEM_DS3505
ZGNN,1997-04-22 14:00,ZGNN 221400Z AUTO 00000KT 6SM 24/22 A2997 RMK SLP136 T02400220 IEM_DS3505
ZGNN,1997-04-22 15:00,ZGNN 221500Z AUTO 07002KT 14SM 25/22 A2998 RMK SLP139 T02480217 52018 IEM_DS3505
ZGNN,1997-04-22 18:00,ZGNN 221800Z AUTO 07004KT 12SM 24/22 A2998 RMK SLP138 T02440220 57001 IEM_DS3505
ZGNN,1997-04-22 21:00,ZGNN 222100Z AUTO 07002KT 12SM 24/22 A2994 RMK SLP131 T02400219 57007 IEM_DS3505
ZGNN,1997-04-22 22:00,ZGNN 222200Z AUTO 00000KT 7SM 23/21 A2997 RMK SLP137 T02300210 IEM_DS3505
ZGNN,1997-04-22 23:00,ZGNN 222300Z AUTO 07004KT 7SM 23/21 A2997 RMK SLP137 T02300210 IEM_DS3505
ZGNN,1997-04-23 00:00,ZGNN 230000Z AUTO 07002KT 12SM 24/22 A3000 RMK SLP147 T02430224 52016 IEM_DS3505
ZGNN,1997-04-23 01:00,ZGNN 230100Z AUTO 08004KT 7SM 24/22 A3003 RMK SLP157 T02400220 IEM_DS3505
ZGNN,1997-04-23 02:00,ZGNN 230200Z AUTO 04004KT 7SM 25/23 A3006 RMK SLP166 T02500230 IEM_DS3505
ZGNN,1997-04-23 03:00,ZGNN 230300Z AUTO 00000KT 16SM 25/23 A3003 RMK SLP160 T02490227 52013 IEM_DS3505
ZGNN,1997-04-23 04:00,ZGNN 230400Z AUTO 17008KT 7SM 28/22 A3003 RMK SLP155 T02800220 IEM_DS3505
ZGNN,1997-04-23 05:00,ZGNN 230500Z AUTO 16008KT 7SM 28/23 A3000 RMK SLP145 T02800230 IEM_DS3505
ZGNN,1997-04-23 06:00,ZGNN 230600Z AUTO 02004KT 7SM 22/21 A2997 RMK 60016 SLP151 T02150206 57010 IEM_DS3505
ZGNN,1997-04-23 07:00,ZGNN 230700Z AUTO 09010KT 1SM 21/20 A3000 RMK SLP147 T02100200 IEM_DS3505
ZGNN,1997-04-23 08:00,ZGNN 230800Z AUTO 06010KT 2SM 20/20 A2997 RMK SLP138 T02000200 IEM_DS3505
ZGNN,1997-04-23 09:00,ZGNN 230900Z AUTO 00000KT 9SM 20/19 A3000 RMK SLP151 T02010188 54000 IEM_DS3505
ZGNN,1997-04-23 10:00,ZGNN 231000Z AUTO 06004KT 7SM 20/19 A3000 RMK SLP148 T02000190 IEM_DS3505
ZGNN,1997-04-23 11:00,ZGNN 231100Z AUTO 02006KT 4SM 20/19 A3000 RMK SLP148 T02000190 IEM_DS3505
ZGNN,1997-04-23 12:00,ZGNN 231200Z AUTO 00000KT 12SM 20/19 A3006 RMK 60185 SLP166 T01990191 52015 IEM_DS3505
ZGNN,1997-04-23 13:00,ZGNN 231300Z AUTO 10004KT 7SM 19/18 A3006 RMK SLP168 T01900180 IEM_DS3505
ZGNN,1997-04-23 15:00,ZGNN 231500Z AUTO 04002KT 12SM 20/19 A3011 RMK SLP185 T02020186 52019 IEM_DS3505
ZGNN,1997-04-23 18:00,ZGNN 231800Z AUTO 00000KT 12SM 21/19 A3006 RMK SLP169 T02060193 57017 IEM_DS3505
ZGNN,1997-04-23 21:00,ZGNN 232100Z AUTO 04002KT 4SM 20/19 A3003 RMK 70201 SLP167 T02040190 57002 IEM_DS3505
ZGNN,1997-04-23 22:00,ZGNN 232200Z AUTO 04002KT 7SM 20/19 A3006 RMK SLP168 T02000190 IEM_DS3505
ZGNN,1997-04-23 23:00,ZGNN 232300Z AUTO 02004KT 4SM 20/19 A3006 RMK SLP168 T02000190 IEM_DS3505
ZGNN,1997-04-24 00:00,ZGNN 240000Z AUTO 04004KT 6SM 20/17 A3009 RMK 70201 SLP183 T02010172 52016 IEM_DS3505
ZGNN,1997-04-24 01:00,ZGNN 240100Z AUTO 05004KT 7SM 20/17 A3012 RMK SLP188 T02000170 IEM_DS3505
ZGNN,1997-04-24 02:00,ZGNN 240200Z AUTO 09008KT 7SM 20/17 A3012 RMK SLP188 T02000170 IEM_DS3505
ZGNN,1997-04-24 03:00,ZGNN 240300Z AUTO 09006KT 12SM 22/17 A3012 RMK SLP197 T02150168 52014 IEM_DS3505
ZGNN,1997-04-24 04:00,ZGNN 240400Z AUTO 07008KT 7SM 21/16 A3012 RMK SLP188 T02100160 IEM_DS3505
ZGNN,1997-04-24 05:00,ZGNN 240500Z AUTO 03004KT 7SM 21/17 A3012 RMK SLP188 T02100170 IEM_DS3505
ZGNN,1997-04-24 06:00,ZGNN 240600Z AUTO 16002KT 15SM 21/16 A3009 RMK SLP184 T02060158 57013 IEM_DS3505
ZGNN,1997-04-24 07:00,ZGNN 240700Z AUTO 04006KT 4SM 19/17 A3009 RMK SLP178 T01900170 IEM_DS3505
ZGNN,1997-04-24 08:00,ZGNN 240800Z AUTO 06008KT 4SM 18/17 A3009 RMK SLP179 T01800170 IEM_DS3505
ZGNN,1997-04-24 09:00,ZGNN 240900Z AUTO 04004KT 7SM 18/16 A3009 RMK SLP179 T01770164 57005 IEM_DS3505
ZGNN,1997-04-24 10:00,ZGNN 241000Z AUTO 05006KT 4SM 17/17 A3009 RMK SLP179 T01700170 IEM_DS3505
ZGNN,1997-04-24 11:00,ZGNN 241100Z AUTO 04006KT 6SM 17/16 A3009 RMK SLP179 T01700160 IEM_DS3505
ZGNN,1997-04-24 12:00,ZGNN 241200Z AUTO 00000KT 6SM 18/16 A3012 RMK 60035 SLP193 T01750163 52013 IEM_DS3505
ZGNN,1997-04-24 13:00,ZGNN 241300Z AUTO 05004KT 7SM 17/16 A3012 RMK SLP189 T01700160 IEM_DS3505
ZGNN,1997-04-24 15:00,ZGNN 241500Z AUTO 00000KT 9SM 18/15 A3017 RMK SLP205 T01760154 52013 IEM_DS3505
ZGNN,1997-04-24 18:00,ZGNN 241800Z AUTO 09004KT 12SM 18/15 A3014 RMK 60000 SLP194 T01780147 57011 IEM_DS3505
ZGNN,1997-04-24 21:00,ZGNN 242100Z AUTO 07002KT 12SM 16/13 A3009 RMK 70035 SLP186 T01640130 57009 IEM_DS3505
ZGNN,1997-04-24 22:00,ZGNN 242200Z AUTO 05004KT 7SM 16/14 A3012 RMK SLP189 T01600140 IEM_DS3505
ZGNN,1997-04-24 23:00,ZGNN 242300Z AUTO 06004KT 7SM 16/14 A3012 RMK SLP189 T01600140 IEM_DS3505
ZGNN,1997-04-25 00:00,ZGNN 250000Z AUTO 07004KT 10SM 17/12 A3015 RMK 60002 70035 SLP203 T01660123 52017 IEM_DS3505
ZGNN,1997-04-25 01:00,ZGNN 250100Z AUTO 07004KT 7SM 16/14 A3018 RMK SLP209 T01600140 IEM_DS3505
ZGNN,1997-04-25 02:00,ZGNN 250200Z AUTO 03004KT 7SM 16/13 A3018 RMK SLP209 T01600130 IEM_DS3505
ZGNN,1997-04-25 03:00,ZGNN 250300Z AUTO 04002KT 11SM 17/12 A3018 RMK SLP215 T01660125 52012 IEM_DS3505
ZGNN,1997-04-25 04:00,ZGNN 250400Z AUTO 01008KT 7SM 16/13 A3018 RMK SLP209 T01600130 IEM_DS3505
ZGNN,1997-04-25 05:00,ZGNN 250500Z AUTO 07004KT 7SM 16/13 A3018 RMK SLP209 T01600130 IEM_DS3505
ZGNN,1997-04-25 06:00,ZGNN 250600Z AUTO 07002KT 9SM 17/13 A3015 RMK SLP202 T01700129 57013 IEM_DS3505
ZGNN,1997-04-25 07:00,ZGNN 250700Z AUTO 00000KT 7SM 17/14 A3012 RMK SLP189 T01700140 IEM_DS3505
ZGNN,1997-04-25 08:00,ZGNN 250800Z AUTO 01006KT 7SM 17/13 A3009 RMK SLP179 T01700130 IEM_DS3505
ZGNN,1997-04-25 09:00,ZGNN 250900Z AUTO 02004KT 12SM 17/13 A3009 RMK SLP187 T01720127 57015 IEM_DS3505
ZGNN,1997-04-25 10:00,ZGNN 251000Z AUTO 36006KT 7SM 17/12 A3012 RMK SLP189 T01700120 IEM_DS3505
ZGNN,1997-04-25 12:00,ZGNN 251200Z AUTO 34002KT 9SM 17/13 A3015 RMK SLP200 T01680133 52013 IEM_DS3505
ZGNN,1997-04-25 13:00,ZGNN 251300Z AUTO 00000KT 7SM 15/14 A3015 RMK SLP200 T01500140 IEM_DS3505
ZGNN,1997-04-25 15:00,ZGNN 251500Z AUTO 04002KT 9SM 16/13 A3018 RMK SLP208 T01610131 52008 IEM_DS3505
ZGNN,1997-04-25 18:00,ZGNN 251800Z AUTO 29004KT 7SM 15/14 A3014 RMK 60008 SLP197 T01490137 57011 IEM_DS3505
ZGNN,1997-04-25 21:00,ZGNN 252100Z AUTO 29002KT 3SM 14/14 A3009 RMK 70043 SLP185 T01450138 57012 IEM_DS3505
ZGNN,1997-04-25 22:00,ZGNN 252200Z AUTO 32004KT 5SM 14/13 A2988 RMK T01400130 IEM_DS3505
ZGNN,1997-04-25 23:00,ZGNN 252300Z AUTO 34004KT 4SM 14/13 A2988 RMK T01400130 IEM_DS3505
ZGNN,1997-04-26 00:00,ZGNN 260000Z AUTO 00000KT 5SM 15/14 A2988 RMK 60059 70067 SLP199 T01470136 52014 IEM_DS3505
ZGNN,1997-04-26 01:00,ZGNN 260100Z AUTO 34004KT 5SM 14/14 A3015 RMK SLP200 T01400140 IEM_DS3505
ZGNN,1997-04-26 02:00,ZGNN 260200Z AUTO 33004KT 5SM 15/14 A3018 RMK SLP210 T01500140 IEM_DS3505
ZGNN,1997-04-26 03:00,ZGNN 260300Z AUTO 00000KT 6SM 16/14 A3015 RMK SLP205 T01610142 52006 IEM_DS3505
ZGNN,1997-04-26 04:00,ZGNN 260400Z AUTO 34008KT 7SM 16/14 A3015 RMK SLP199 T01600140 IEM_DS3505
ZGNN,1997-04-26 05:00,ZGNN 260500Z AUTO 35006KT 7SM 17/14 A3012 RMK SLP189 T01700140 IEM_DS3505
ZGNN,1997-04-26 06:00,ZGNN 260600Z AUTO 00000KT 6SM 18/15 A3012 RMK 60004 SLP190 T01760147 57015 IEM_DS3505
ZGNN,1997-04-26 07:00,ZGNN 260700Z AUTO 33004KT 7SM 19/14 A3009 RMK SLP178 T01900140 IEM_DS3505
ZGNN,1997-04-26 08:00,ZGNN 260800Z AUTO 00000KT 7SM 19/15 A3006 RMK SLP168 T01900150 IEM_DS3505
ZGNN,1997-04-26 09:00,ZGNN 260900Z AUTO 02002KT 9SM 20/16 A3006 RMK SLP173 T01950155 57017 IEM_DS3505
ZGNN,1997-04-26 10:00,ZGNN 261000Z AUTO 05004KT 7SM 19/15 A3006 RMK SLP168 T01900150 IEM_DS3505
ZGNN,1997-04-26 11:00,ZGNN 261100Z AUTO 00000KT 7SM 19/16 A3006 RMK SLP168 T01900160 IEM_DS3505
ZGNN,1997-04-26 12:00,ZGNN 261200Z AUTO 00000KT 12SM 18/16 A3009 RMK SLP177 T01830160 52004 IEM_DS3505
ZGNN,1997-04-26 13:00,ZGNN 261300Z AUTO 00000KT 7SM 17/16 A3009 RMK SLP179 T01700160 IEM_DS3505
ZGNN,1997-04-26 15:00,ZGNN 261500Z AUTO 00000KT 12SM 17/16 A3011 RMK SLP187 T01690155 52010 IEM_DS3505
ZGNN,1997-04-26 18:00,ZGNN 261800Z AUTO 00000KT 12SM 17/16 A3009 RMK SLP179 T01710157 57008 IEM_DS3505
ZGNN,1997-04-26 21:00,ZGNN 262100Z AUTO 00000KT 9SM 17/16 A3006 RMK 70031 SLP176 T01670157 57003 IEM_DS3505
ZGNN,1997-04-26 22:00,ZGNN 262200Z AUTO 00000KT 3SM 16/15 A3009 RMK SLP179 T01600150 IEM_DS3505
ZGNN,1997-04-26 23:00,ZGNN 262300Z AUTO 00000KT 1 1/4SM 15/15 A3009 RMK SLP179 T01500150 IEM_DS3505
ZGNN,1997-04-27 00:00,ZGNN 270000Z AUTO 00000KT 5SM 18/17 A3009 RMK 70008 SLP187 T01790166 52011 IEM_DS3505
ZGNN,1997-04-27 01:00,ZGNN 270100Z AUTO 35004KT 3SM 19/16 A3012 RMK SLP188 T01900160 IEM_DS3505
ZGNN,1997-04-27 02:00,ZGNN 270200Z AUTO 36004KT 4SM 20/16 A3012 RMK SLP188 T02000160 IEM_DS3505
ZGNN,1997-04-27 03:00,ZGNN 270300Z AUTO 32006KT 9SM 22/17 A3012 RMK SLP188 T02160174 52002 IEM_DS3505
ZGNN,1997-04-27 04:00,ZGNN 270400Z AUTO 00000KT 7SM 23/17 A3009 RMK SLP177 T02300170 IEM_DS3505
ZGNN,1997-04-27 05:00,ZGNN 270500Z AUTO 01004KT 7SM 24/17 A3006 RMK SLP167 T02400170 IEM_DS3505
ZGNN,1997-04-27 06:00,ZGNN 270600Z AUTO 04002KT 16SM 26/17 A3003 RMK SLP157 T02570171 57030 IEM_DS3505
ZGNN,1997-04-27 07:00,ZGNN 270700Z AUTO 15004KT 7SM 26/18 A3000 RMK SLP146 T02600180 IEM_DS3505
ZGNN,1997-04-27 08:00,ZGNN 270800Z AUTO 15006KT 7SM 26/18 A2997 RMK SLP136 T02600180 IEM_DS3505
ZGNN,1997-04-27 09:00,ZGNN 270900Z AUTO 04002KT 19SM 27/16 A2997 RMK SLP134 T02730160 57023 IEM_DS3505
ZGNN,1997-04-27 10:00,ZGNN 271000Z AUTO 00000KT 7SM 26/17 A2994 RMK SLP126 T02600170 IEM_DS3505
ZGNN,1997-04-27 11:00,ZGNN 271100Z AUTO 00000KT 6SM 25/18 A2994 RMK SLP126 T02500180 IEM_DS3505
ZGNN,1997-04-27 12:00,ZGNN 271200Z AUTO 00000KT 17SM 24/19 A2997 RMK SLP139 T02380190 52005 IEM_DS3505
ZGNN,1997-04-27 13:00,ZGNN 271300Z AUTO 36004KT 6SM 22/19 A2997 RMK SLP137 T02200190 IEM_DS3505
ZGNN,1997-04-27 15:00,ZGNN 271500Z AUTO 00000KT 12SM 21/19 A3002 RMK SLP155 T02130194 52016 IEM_DS3505
ZGNN,1997-04-27 18:00,ZGNN 271800Z AUTO 00000KT 12SM 20/19 A2999 RMK SLP142 T02030190 57013 IEM_DS3505
ZGNN,1997-04-27 21:00,ZGNN 272100Z AUTO 02002KT 12SM 20/18 A2994 RMK SLP132 T01970183 57010 IEM_DS3505
ZGNN,1997-04-27 22:00,ZGNN 272200Z AUTO 00000KT 2SM 19/18 A2997 RMK SLP138 T01900180 IEM_DS3505
ZGNN,1997-04-27 23:00,ZGNN 272300Z AUTO 00000KT 1 1/4SM 19/19 A2997 RMK SLP138 T01900190 IEM_DS3505
ZGNN,1997-04-28 00:00,ZGNN 280000Z AUTO 00000KT 7SM 20/19 A3000 RMK SLP147 T02050186 52015 IEM_DS3505
ZGNN,1997-04-28 01:00,ZGNN 280100Z AUTO 04004KT 2 1/2SM 23/20 A3000 RMK SLP147 T02300200 IEM_DS3505
ZGNN,1997-04-28 02:00,ZGNN 280200Z AUTO 24006KT 6SM 25/20 A3000 RMK SLP146 T02500200 IEM_DS3505
ZGNN,1997-04-28 03:00,ZGNN 280300Z AUTO 00000KT 9SM 26/20 A3000 RMK SLP152 T02650196 52005 IEM_DS3505
ZGNN,1997-04-28 04:00,ZGNN 280400Z AUTO 14004KT 7SM 27/19 A2997 RMK SLP136 T02700190 IEM_DS3505
ZGNN,1997-04-28 05:00,ZGNN 280500Z AUTO 14006KT 7SM 28/20 A2994 RMK SLP125 T02800200 IEM_DS3505
ZGNN,1997-04-28 06:00,ZGNN 280600Z AUTO 04002KT 16SM 29/22 A2991 RMK SLP116 T02880216 57035 IEM_DS3505
ZGNN,1997-04-28 07:00,ZGNN 280700Z AUTO 17004KT 7SM 29/20 A2988 RMK SLP105 T02900200 IEM_DS3505
ZGNN,1997-04-28 08:00,ZGNN 280800Z AUTO 11006KT 7SM 29/19 A2985 RMK SLP094 T02900190 IEM_DS3505
ZGNN,1997-04-28 09:00,ZGNN 280900Z AUTO 16002KT 16SM 30/20 A2983 RMK SLP089 T02970204 57027 IEM_DS3505
ZGNN,1997-04-28 10:00,ZGNN 281000Z AUTO 15008KT 6SM 28/20 A2983 RMK SLP088 T02800200 IEM_DS3505
ZGNN,1997-04-28 11:00,ZGNN 281100Z AUTO 17006KT 6SM 27/21 A2983 RMK SLP088 T02700210 IEM_DS3505
ZGNN,1997-04-28 12:00,ZGNN 281200Z AUTO 18002KT 19SM 27/20 A2985 RMK SLP095 T02690199 52006 IEM_DS3505
ZGNN,1997-04-28 13:00,ZGNN 281300Z AUTO 16004KT 6SM 24/20 A2988 RMK SLP106 T02400200 IEM_DS3505
ZGNN,1997-04-28 15:00,ZGNN 281500Z AUTO 16002KT 17SM 24/20 A2991 RMK SLP114 T02390204 52019 IEM_DS3505
ZGNN,1997-04-28 18:00,ZGNN 281800Z AUTO 00000KT 16SM 23/20 A2990 RMK SLP111 T02280202 57003 IEM_DS3505
ZGNN,1997-04-28 21:00,ZGNN 282100Z AUTO 07002KT 12SM 22/20 A2988 RMK SLP108 T02150201 57003 IEM_DS3505
ZGNN,1997-04-28 22:00,ZGNN 282200Z AUTO 01002KT 6SM 20/19 A2988 RMK SLP107 T02000190 IEM_DS3505
ZGNN,1997-04-28 23:00,ZGNN 282300Z AUTO 02004KT 6SM 20/19 A2991 RMK SLP117 T02000190 IEM_DS3505
ZGNN,1997-04-29 01:00,ZGNN 290100Z AUTO 23002KT 6SM 24/20 A2994 RMK SLP126 T02400200 IEM_DS3505
ZGNN,1997-04-29 02:00,ZGNN 290200Z AUTO 00000KT 6SM 25/20 A2994 RMK SLP126 T02500200 IEM_DS3505
ZGNN,1997-04-29 03:00,ZGNN 290300Z AUTO 20002KT 17SM 27/20 A2994 RMK SLP124 T02670199 52001 IEM_DS3505
ZGNN,1997-04-29 04:00,ZGNN 290400Z AUTO 15002KT 7SM 28/20 A2994 RMK SLP125 T02800200 IEM_DS3505
ZGNN,1997-04-29 05:00,ZGNN 290500Z AUTO 12002KT 7SM 28/20 A2991 RMK SLP115 T02800200 IEM_DS3505
ZGNN,1997-04-29 06:00,ZGNN 290600Z AUTO 11004KT 19SM 29/20 A2988 RMK SLP101 T02930205 57023 IEM_DS3505
ZGNN,1997-04-29 07:00,ZGNN 290700Z AUTO 12002KT 7SM 29/20 A2985 RMK SLP094 T02900200 IEM_DS3505
ZGNN,1997-04-29 08:00,ZGNN 290800Z AUTO 00000KT 7SM 29/21 A2983 RMK SLP088 T02900210 IEM_DS3505
ZGNN,1997-04-29 09:00,ZGNN 290900Z AUTO 15004KT 7SM 29/21 A2980 RMK SLP078 T02900210 IEM_DS3505
ZGNN,1997-04-29 10:00,ZGNN 291000Z AUTO 14006KT 7SM 28/22 A2983 RMK SLP088 T02800220 IEM_DS3505
ZGNN,1997-04-29 11:00,ZGNN 291100Z AUTO 13004KT 7SM 27/22 A2985 RMK SLP094 T02700220 IEM_DS3505
ZGNN,1997-04-29 12:00,ZGNN 291200Z AUTO 04006KT 5SM 26/21 A2985 RMK 60016 SLP114 T02590214 52037 IEM_DS3505
ZGNN,1997-04-29 13:00,ZGNN 291300Z AUTO 35016KT 5SM 22/18 A2991 RMK SLP117 T02200180 IEM_DS3505
ZGNN,1997-04-29 14:00,ZGNN 291400Z AUTO 06006KT 7SM 21/21 A2991 RMK SLP117 T02100210 IEM_DS3505
ZGNN,1997-04-29 15:00,ZGNN 291500Z AUTO 07004KT 12SM 22/21 A2993 RMK SLP124 T02170209 52010 IEM_DS3505
ZGNN,1997-04-29 18:00,ZGNN 291800Z AUTO 04002KT 9SM 22/21 A2993 RMK 60256 SLP121 T02150209 57003 IEM_DS3505
ZGNN,1997-04-29 21:00,ZGNN 292100Z AUTO 29002KT 9SM 21/20 A2991 RMK 70272 SLP120 T02140199 57001 IEM_DS3505
ZGNN,1997-04-29 22:00,ZGNN 292200Z AUTO 25004KT 6SM 21/20 A2991 RMK SLP117 T02100200 IEM_DS3505
ZGNN,1997-04-29 23:00,ZGNN 292300Z AUTO 00000KT 6SM 21/20 A2994 RMK SLP127 T02100200 IEM_DS3505
ZGNN,1997-04-30 00:00,ZGNN 300000Z AUTO 27004KT 9SM 22/20 A2994 RMK 70272 SLP134 T02250200 52014 IEM_DS3505
ZGNN,1997-04-30 01:00,ZGNN 300100Z AUTO 00000KT 7SM 23/20 A2997 RMK SLP137 T02300200 IEM_DS3505
ZGNN,1997-04-30 02:00,ZGNN 300200Z AUTO 00000KT 7SM 23/20 A3000 RMK SLP147 T02300200 IEM_DS3505
ZGNN,1997-04-30 03:00,ZGNN 300300Z AUTO 07004KT 11SM 26/20 A2997 RMK SLP137 T02560201 52002 IEM_DS3505
ZGNN,1997-04-30 04:00,ZGNN 300400Z AUTO 01004KT 7SM 26/21 A2997 RMK SLP136 T02600210 IEM_DS3505
ZGNN,1997-04-30 05:00,ZGNN 300500Z AUTO 04006KT 7SM 28/19 A2994 RMK SLP125 T02800190 IEM_DS3505
ZGNN,1997-04-30 06:00,ZGNN 300600Z AUTO 00000KT 16SM 28/20 A2991 RMK SLP115 T02810196 57021 IEM_DS3505
ZGNN,1997-04-30 08:00,ZGNN 300800Z AUTO 27004KT 7SM 30/16 A2985 RMK SLP093 T03000160 IEM_DS3505
ZGNN,1997-04-30 09:00,ZGNN 300900Z AUTO 18002KT 17SM 30/20 A2985 RMK SLP093 T02980197 57022 IEM_DS3505
ZGNN,1997-04-30 10:00,ZGNN 301000Z AUTO 00000KT 6SM 29/18 A2985 RMK SLP094 T02900180 IEM_DS3505
ZGNN,1997-04-30 12:00,ZGNN 301200Z AUTO 00000KT 16SM 26/22 A2987 RMK SLP103 T02630220 52010 IEM_DS3505
ZGNN,1997-04-30 13:00,ZGNN 301300Z AUTO 36004KT 6SM 26/21 A2988 RMK SLP106 T02600210 IEM_DS3505
ZGNN,1997-04-30 15:00,ZGNN 301500Z AUTO 00000KT 11SM 25/22 A2991 RMK SLP116 T02460222 52013 IEM_DS3505
ZGNN,1997-04-30 18:00,ZGNN 301800Z AUTO 00000KT 11SM 23/21 A2989 RMK SLP109 T02310214 57007 IEM_DS3505
ZGNN,1997-04-30 21:00,ZGNN 302100Z AUTO 04002KT 10SM 22/20 A2985 RMK SLP101 T02170203 57008 IEM_DS3505
ZGNN,1997-04-30 22:00,ZGNN 302200Z AUTO 01004KT 4SM 21/20 A2988 RMK SLP107 T02100200 IEM_DS3505
ZGNN,1997-04-30 23:00,ZGNN 302300Z AUTO 00000KT 1 1/4SM 20/19 A2988 RMK SLP107 T02000190 IEM_DS3505
ZGNN,1997-05-01 00:00,ZGNN 010000Z AUTO 00000KT 14SM 22/20 A2991 RMK SLP117 T02200203 52016 IEM_DS3505
ZGNN,1997-05-01 01:00,ZGNN 010100Z AUTO 00000KT 1 1/4SM 23/21 A2994 RMK SLP127 T02300210 IEM_DS3505
ZGNN,1997-05-01 02:00,ZGNN 010200Z AUTO 00000KT 6SM 26/22 A2994 RMK SLP126 T02600220 IEM_DS3505
ZGNN,1997-05-01 03:00,ZGNN 010300Z AUTO 22004KT 9SM 28/21 A2991 RMK SLP120 T02770208 52003 IEM_DS3505
ZGNN,1997-05-01 04:00,ZGNN 010400Z AUTO 22010KT 6SM 30/21 A2991 RMK SLP115 T03000210 IEM_DS3505
ZGNN,1997-05-01 05:00,ZGNN 010500Z AUTO 23006KT 7SM 31/20 A2988 RMK SLP104 T03100200 IEM_DS3505
ZGNN,1997-05-01 06:00,ZGNN 010600Z AUTO 20004KT 14SM 32/18 A2985 RMK SLP095 T03150185 57024 IEM_DS3505
ZGNN,1997-05-01 07:00,ZGNN 010700Z AUTO 18004KT 6SM 32/15 A2983 RMK SLP087 T03200150 IEM_DS3505
ZGNN,1997-05-01 08:00,ZGNN 010800Z AUTO 20006KT 6SM 32/16 A2980 RMK SLP077 T03200160 IEM_DS3505
ZGNN,1997-05-01 09:00,ZGNN 010900Z AUTO 27004KT 16SM 33/15 A2980 RMK SLP074 T03290148 57021 IEM_DS3505
ZGNN,1997-05-01 10:00,ZGNN 011000Z AUTO 00000KT 6SM 32/19 A2980 RMK SLP077 T03200190 IEM_DS3505
ZGNN,1997-05-01 11:00,ZGNN 011100Z AUTO 17008KT 6SM 29/22 A2980 RMK SLP078 T02900220 IEM_DS3505
ZGNN,1997-05-01 12:00,ZGNN 011200Z AUTO 20004KT 16SM 29/20 A2983 RMK SLP083 T02890198 52008 IEM_DS3505
ZGNN,1997-05-01 13:00,ZGNN 011300Z AUTO 00000KT 6SM 26/22 A2985 RMK SLP095 T02600220 IEM_DS3505
ZGNN,1997-05-01 15:00,ZGNN 011500Z AUTO 07002KT 14SM 26/22 A2988 RMK SLP104 T02550218 52021 IEM_DS3505
ZGNN,1997-05-01 18:00,ZGNN 011800Z AUTO 04002KT 14SM 24/22 A2985 RMK SLP093 T02350217 57010 IEM_DS3505
ZGNN,1997-05-01 21:00,ZGNN 012100Z AUTO 07004KT 7SM 22/21 A2983 RMK SLP090 T02230206 57003 IEM_DS3505
ZGNN,1997-05-01 22:00,ZGNN 012200Z AUTO 00000KT 4SM 22/22 A2985 RMK SLP096 T02200220 IEM_DS3505
ZGNN,1997-05-01 23:00,ZGNN 012300Z AUTO 00000KT 2SM 21/21 A2985 RMK SLP096 T02100210 IEM_DS3505
ZGNN,1997-05-02 00:00,ZGNN 020000Z AUTO 04002KT 16SM 23/20 A2988 RMK SLP108 T02310205 52017 IEM_DS3505
ZGNN,1997-05-02 01:00,ZGNN 020100Z AUTO 14002KT 5SM 25/22 A2991 RMK SLP116 T02500220 IEM_DS3505
ZGNN,1997-05-02 02:00,ZGNN 020200Z AUTO 14004KT 7SM 27/22 A2991 RMK SLP115 T02700220 IEM_DS3505
ZGNN,1997-05-02 03:00,ZGNN 020300Z AUTO 00000KT 16SM 28/22 A2988 RMK SLP109 T02790217 52001 IEM_DS3505
ZGNN,1997-05-02 04:00,ZGNN 020400Z AUTO 20008KT 6SM 29/21 A2985 RMK SLP094 T02900210 IEM_DS3505
ZGNN,1997-05-02 05:00,ZGNN 020500Z AUTO 16008KT 6SM 30/21 A2985 RMK SLP093 T03000210 IEM_DS3505
ZGNN,1997-05-02 06:00,ZGNN 020600Z AUTO 11004KT 19SM 31/22 A2983 RMK SLP085 T03120222 57023 IEM_DS3505
ZGNN,1997-05-02 07:00,ZGNN 020700Z AUTO 13006KT 7SM 32/21 A2977 RMK SLP067 T03200210 IEM_DS3505
ZGNN,1997-05-02 08:00,ZGNN 020800Z AUTO 13010KT 7SM 31/23 A2977 RMK SLP067 T03100230 IEM_DS3505
ZGNN,1997-05-02 09:00,ZGNN 020900Z AUTO 25002KT 19SM 31/24 A2977 RMK SLP062 T03070236 57023 IEM_DS3505
ZGNN,1997-05-02 10:00,ZGNN 021000Z AUTO 16006KT 7SM 27/20 A2974 RMK SLP057 T02700200 IEM_DS3505
ZGNN,1997-05-02 11:00,ZGNN 021100Z AUTO 15008KT 7SM 26/23 A2977 RMK SLP068 T02600230 IEM_DS3505
ZGNN,1997-05-02 12:00,ZGNN 021200Z AUTO 09004KT 19SM 27/23 A2977 RMK SLP070 T02720231 52008 IEM_DS3505
ZGNN,1997-05-02 13:00,ZGNN 021300Z AUTO 16006KT 6SM 25/23 A2983 RMK SLP089 T02500230 IEM_DS3505
ZGNN,1997-05-02 15:00,ZGNN 021500Z AUTO 18002KT 19SM 26/24 A2985 RMK SLP094 T02590236 52024 IEM_DS3505
ZGNN,1997-05-02 17:00,ZGNN 021700Z AUTO 07002KT 16SM 25/ A2981 RMK SLP081 IEM_DS3505
ZGNN,1997-05-02 18:00,ZGNN 021800Z AUTO 07002KT 16SM 25/23 A2981 RMK SLP081 T02500231 57013 IEM_DS3505
ZGNN,1997-05-02 21:00,ZGNN 022100Z AUTO 00000KT 12SM 25/23 A2977 RMK SLP073 T02480232 57008 IEM_DS3505
ZGNN,1997-05-02 22:00,ZGNN 022200Z AUTO 05004KT 6SM 23/23 A2980 RMK SLP079 T02300230 IEM_DS3505
ZGNN,1997-05-02 23:00,ZGNN 022300Z AUTO 00000KT 6SM 23/23 A2980 RMK SLP079 T02300230 IEM_DS3505
ZGNN,1997-05-03 00:00,ZGNN 030000Z AUTO 07004KT 6SM 26/24 A2982 RMK SLP083 T02550235 52010 IEM_DS3505
ZGNN,1997-05-03 01:00,ZGNN 030100Z AUTO 08006KT 7SM 26/23 A2983 RMK SLP088 T02600230 IEM_DS3505
ZGNN,1997-05-03 02:00,ZGNN 030200Z AUTO 13008KT 7SM 28/23 A2983 RMK SLP088 T02800230 IEM_DS3505
ZGNN,1997-05-03 03:00,ZGNN 030300Z AUTO 16002KT 12SM 28/24 A2983 RMK SLP085 T02810238 52002 IEM_DS3505
ZGNN,1997-05-03 04:00,ZGNN 030400Z AUTO 14006KT 7SM 29/23 A2980 RMK SLP078 T02900230 IEM_DS3505
ZGNN,1997-05-03 05:00,ZGNN 030500Z AUTO 13006KT 7SM 30/23 A2977 RMK SLP067 T03000230 IEM_DS3505
ZGNN,1997-05-03 06:00,ZGNN 030600Z AUTO 16002KT 16SM 30/24 A2974 RMK SLP057 T03020238 57028 IEM_DS3505
ZGNN,1997-05-03 07:00,ZGNN 030700Z AUTO 21012KT 7SM 29/22 A2971 RMK SLP046 T02900220 IEM_DS3505
ZGNN,1997-05-03 08:00,ZGNN 030800Z AUTO 18006KT 7SM 29/20 A2971 RMK SLP046 T02900200 IEM_DS3505
ZGNN,1997-05-03 09:00,ZGNN 030900Z AUTO 22002KT 16SM 29/23 A2968 RMK SLP034 T02880229 57023 IEM_DS3505
ZGNN,1997-05-03 10:00,ZGNN 031000Z AUTO 14008KT 7SM 28/24 A2968 RMK SLP037 T02800240 IEM_DS3505
ZGNN,1997-05-03 11:00,ZGNN 031100Z AUTO 13008KT 7SM 27/24 A2968 RMK SLP037 T02700240 IEM_DS3505
ZGNN,1997-05-03 12:00,ZGNN 031200Z AUTO 25002KT 16SM 28/24 A2971 RMK 60094 SLP042 T02750241 52008 IEM_DS3505
ZGNN,1997-05-03 13:00,ZGNN 031300Z AUTO 15008KT 6SM 26/24 A2971 RMK SLP047 T02600240 IEM_DS3505
ZGNN,1997-05-03 15:00,ZGNN 031500Z AUTO 02002KT 16SM 26/24 A2976 RMK SLP065 T02650236 52023 IEM_DS3505
ZGNN,1997-05-03 18:00,ZGNN 031800Z AUTO 11002KT 14SM 26/23 A2974 RMK SLP058 T02600232 57007 IEM_DS3505
ZGNN,1997-05-03 21:00,ZGNN 032100Z AUTO 00000KT 12SM 25/23 A2971 RMK 70094 SLP053 T02510228 57005 IEM_DS3505
ZGNN,1997-05-03 22:00,ZGNN 032200Z AUTO 16004KT 4SM 24/23 A2971 RMK SLP048 T02400230 IEM_DS3505
ZGNN,1997-05-03 23:00,ZGNN 032300Z AUTO 15008KT 7SM 23/22 A2974 RMK SLP058 T02300220 IEM_DS3505
ZGNN,1997-05-04 00:00,ZGNN 040000Z AUTO 07002KT 11SM 23/22 A2977 RMK 60039 70134 SLP070 T02330221 52016 IEM_DS3505
ZGNN,1997-05-04 01:00,ZGNN 040100Z AUTO 09006KT 7SM 23/22 A2980 RMK SLP079 T02300220 IEM_DS3505
ZGNN,1997-05-04 02:00,ZGNN 040200Z AUTO 13008KT 7SM 23/22 A2977 RMK SLP069 T02300220 IEM_DS3505
ZGNN,1997-05-04 03:00,ZGNN 040300Z AUTO 07006KT 5SM 22/21 A2977 RMK SLP084 T02190210 52014 IEM_DS3505
ZGNN,1997-05-04 04:00,ZGNN 040400Z AUTO 11012KT 2 1/2SM 21/21 A2980 RMK SLP080 T02100210 IEM_DS3505
ZGNN,1997-05-04 06:00,ZGNN 040600Z AUTO 20006KT 16SM 24/21 A2974 RMK 60142 SLP057 T02350214 57027 IEM_DS3505
ZGNN,1997-05-04 07:00,ZGNN 040700Z AUTO 18010KT 7SM 25/22 A2971 RMK SLP047 T02500220 IEM_DS3505
ZGNN,1997-05-04 08:00,ZGNN 040800Z AUTO 14008KT 7SM 25/22 A2968 RMK SLP037 T02500220 IEM_DS3505
ZGNN,1997-05-04 09:00,ZGNN 040900Z AUTO 07002KT 19SM 27/22 A2968 RMK SLP038 T02720224 57018 IEM_DS3505
ZGNN,1997-05-04 10:00,ZGNN 041000Z AUTO 11006KT 7SM 25/22 A2968 RMK SLP037 T02500220 IEM_DS3505
ZGNN,1997-05-04 11:00,ZGNN 041100Z AUTO 09006KT 7SM 25/22 A2968 RMK SLP037 T02500220 IEM_DS3505
ZGNN,1997-05-04 12:00,ZGNN 041200Z AUTO 07002KT 16SM 25/22 A2968 RMK SLP043 T02460215 52004 IEM_DS3505
ZGNN,1997-05-04 13:00,ZGNN 041300Z AUTO 09008KT 7SM 24/21 A2971 RMK SLP048 T02400210 IEM_DS3505
ZGNN,1997-05-04 15:00,ZGNN 041500Z AUTO 07004KT 16SM 24/22 A2975 RMK SLP063 T02430218 52020 IEM_DS3505
ZGNN,1997-05-04 18:00,ZGNN 041800Z AUTO 07004KT 12SM 23/21 A2970 RMK 60020 SLP046 T02270213 57017 IEM_DS3505
ZGNN,1997-05-04 21:00,ZGNN 042100Z AUTO 04004KT 7SM 22/22 A2965 RMK 70209 SLP028 T02220216 57017 IEM_DS3505
ZGNN,1997-05-04 23:00,ZGNN 042300Z AUTO 21006KT 7SM 22/21 A2965 RMK SLP028 T02200210 IEM_DS3505
ZGNN,1997-05-05 00:00,ZGNN 050000Z AUTO 00000KT 5SM 23/22 A2968 RMK 60024 70181 SLP042 T02280221 52013 IEM_DS3505
ZGNN,1997-05-05 01:00,ZGNN 050100Z AUTO 19004KT 7SM 23/22 A2971 RMK SLP048 T02300220 IEM_DS3505
ZGNN,1997-05-05 02:00,ZGNN 050200Z AUTO 15002KT 7SM 27/23 A2968 RMK SLP037 T02700230 IEM_DS3505
ZGNN,1997-05-05 03:00,ZGNN 050300Z AUTO 20002KT 8SM 27/23 A2968 RMK SLP039 T02690234 57002 IEM_DS3505
ZGNN,1997-05-05 04:00,ZGNN 050400Z AUTO 21004KT 7SM 28/23 A2968 RMK SLP037 T02800230 IEM_DS3505
ZGNN,1997-05-05 05:00,ZGNN 050500Z AUTO 22004KT 7SM 29/23 A2965 RMK SLP026 T02900230 IEM_DS3505
ZGNN,1997-05-05 06:00,ZGNN 050600Z AUTO 04004KT 11SM 27/23 A2965 RMK SLP027 T02720230 57012 IEM_DS3505
ZGNN,1997-05-05 07:00,ZGNN 050700Z AUTO 02008KT 7SM 27/22 A2962 RMK SLP017 T02700220 IEM_DS3505
ZGNN,1997-05-05 08:00,ZGNN 050800Z AUTO 05008KT 7SM 27/24 A2962 RMK SLP017 T02700240 IEM_DS3505
ZGNN,1997-05-05 09:00,ZGNN 050900Z AUTO 09002KT 12SM 27/23 A2962 RMK SLP016 T02700231 57011 IEM_DS3505
ZGNN,1997-05-05 10:00,ZGNN 051000Z AUTO 07010KT 7SM 25/24 A2962 RMK SLP017 T02500240 IEM_DS3505
ZGNN,1997-05-05 11:00,ZGNN 051100Z AUTO 13010KT 7SM 24/23 A2962 RMK SLP017 T02400230 IEM_DS3505
ZGNN,1997-05-05 12:00,ZGNN 051200Z AUTO 11002KT 12SM 24/22 A2968 RMK SLP045 T02450217 52028 IEM_DS3505
ZGNN,1997-05-05 13:00,ZGNN 051300Z AUTO 11010KT 7SM 22/21 A2968 RMK SLP038 T02200210 IEM_DS3505
ZGNN,1997-05-05 15:00,ZGNN 051500Z AUTO 07002KT 12SM 23/21 A2974 RMK SLP059 T02270209 52014 IEM_DS3505
ZGNN,1997-05-05 18:00,ZGNN 051800Z AUTO 07004KT 12SM 22/21 A2970 RMK 60004 SLP045 T02230208 57014 IEM_DS3505
ZGNN,1997-05-05 21:00,ZGNN 052100Z AUTO 04002KT 6SM 22/21 A2965 RMK 70020 SLP034 T02220210 57010 IEM_DS3505
ZGNN,1997-05-05 22:00,ZGNN 052200Z AUTO 07006KT 5SM 22/21 A2968 RMK SLP038 T02200210 IEM_DS3505
ZGNN,1997-05-05 23:00,ZGNN 052300Z AUTO 11004KT 7SM 22/21 A2971 RMK SLP048 T02200210 IEM_DS3505
ZGNN,1997-05-06 00:00,ZGNN 060000Z AUTO 07004KT 9SM 23/21 A2974 RMK 60000 70008 SLP060 T02280210 52025 IEM_DS3505
ZGNN,1997-05-06 01:00,ZGNN 060100Z AUTO 11004KT 5SM 22/21 A2974 RMK SLP058 T02200210 IEM_DS3505
ZGNN,1997-05-06 02:00,ZGNN 060200Z AUTO 09006KT 7SM 23/22 A2974 RMK SLP058 T02300220 IEM_DS3505
ZGNN,1997-05-06 03:00,ZGNN 060300Z AUTO 07004KT 11SM 24/22 A2974 RMK SLP060 T02440219 54000 IEM_DS3505
ZGNN,1997-05-06 04:00,ZGNN 060400Z AUTO 12003KT 25/22 A2974 RMK SLP058 T02500220 IEM_DS3505
ZGNN,1997-05-06 05:00,ZGNN 060500Z AUTO 15008KT 7SM 26/23 A2971 RMK SLP047 T02600230 IEM_DS3505
ZGNN,1997-05-06 06:00,ZGNN 060600Z AUTO 09004KT 14SM 27/23 A2971 RMK SLP046 T02720231 57014 IEM_DS3505
ZGNN,1997-05-06 07:00,ZGNN 060700Z AUTO 13008KT 7SM 27/23 A2968 RMK SLP037 T02700230 IEM_DS3505
ZGNN,1997-05-06 08:00,ZGNN 060800Z AUTO 17006KT 7SM 27/23 A2968 RMK SLP037 T02700230 IEM_DS3505
ZGNN,1997-05-06 09:00,ZGNN 060900Z AUTO 07002KT 14SM 26/24 A2965 RMK SLP033 T02590240 57013 IEM_DS3505
ZGNN,1997-05-06 10:00,ZGNN 061000Z AUTO 14006KT 7SM 27/23 A2965 RMK SLP027 T02700230 IEM_DS3505
ZGNN,1997-05-06 11:00,ZGNN 061100Z AUTO 11004KT 7SM 26/23 A2968 RMK SLP037 T02600230 IEM_DS3505
ZGNN,1997-05-06 12:00,ZGNN 061200Z AUTO 11002KT 12SM 26/24 A2971 RMK 60004 SLP048 T02590245 52015 IEM_DS3505
ZGNN,1997-05-06 13:00,ZGNN 061300Z AUTO 00000KT 7SM 25/23 A2971 RMK SLP047 T02500230 IEM_DS3505
ZGNN,1997-05-06 15:00,ZGNN 061500Z AUTO 00000KT 11SM 25/24 A2977 RMK SLP067 T02540243 52019 IEM_DS3505
ZGNN,1997-05-06 18:00,ZGNN 061800Z AUTO 00000KT 7SM 25/24 A2974 RMK SLP056 T02490239 57010 IEM_DS3505
ZGNN,1997-05-06 21:00,ZGNN 062100Z AUTO 04002KT 7SM 24/23 A2973 RMK 70004 SLP055 T02410229 57002 IEM_DS3505
ZGNN,1997-05-06 22:00,ZGNN 062200Z AUTO 13008KT 4SM 24/23 A2971 RMK SLP048 T02400230 IEM_DS3505
ZGNN,1997-05-06 23:00,ZGNN 062300Z AUTO 13004KT 7SM 24/23 A2974 RMK SLP058 T02400230 IEM_DS3505
ZGNN,1997-05-07 00:00,ZGNN 070000Z AUTO 11002KT 9SM 24/22 A2977 RMK 60001 70004 SLP070 T02440225 52015 IEM_DS3505
ZGNN,1997-05-07 01:00,ZGNN 070100Z AUTO 09006KT 7SM 25/23 A2980 RMK SLP079 T02500230 IEM_DS3505
ZGNN,1997-05-07 02:00,ZGNN 070200Z AUTO 11004KT 7SM 25/23 A2980 RMK SLP079 T02500230 IEM_DS3505
ZGNN,1997-05-07 03:00,ZGNN 070300Z AUTO 00000KT 10SM 26/23 A2980 RMK SLP078 T02620232 52008 IEM_DS3505
ZGNN,1997-05-07 05:00,ZGNN 070500Z AUTO 12006KT 7SM 28/23 A2977 RMK SLP068 T02800230 IEM_DS3505
ZGNN,1997-05-07 06:00,ZGNN 070600Z AUTO 22002KT 12SM 29/24 A2974 RMK SLP063 T02870241 57014 IEM_DS3505
ZGNN,1997-05-07 07:00,ZGNN 070700Z AUTO 08004KT 7SM 29/24 A2971 RMK SLP046 T02900240 IEM_DS3505
ZGNN,1997-05-07 08:00,ZGNN 070800Z AUTO 07006KT 7SM 29/24 A2971 RMK SLP046 T02900240 IEM_DS3505
ZGNN,1997-05-07 09:00,ZGNN 070900Z AUTO 07002KT 16SM 29/25 A2968 RMK SLP043 T02930249 57020 IEM_DS3505
ZGNN,1997-05-07 10:00,ZGNN 071000Z AUTO 10006KT 7SM 28/25 A2968 RMK SLP037 T02800250 IEM_DS3505
ZGNN,1997-05-07 11:00,ZGNN 071100Z AUTO 13008KT 7SM 28/25 A2971 RMK SLP047 T02800250 IEM_DS3505
ZGNN,1997-05-07 12:00,ZGNN 071200Z AUTO 22002KT 16SM 28/25 A2971 RMK SLP052 T02810247 52009 IEM_DS3505
ZGNN,1997-05-07 13:00,ZGNN 071300Z AUTO 13008KT 7SM 27/24 A2974 RMK SLP057 T02700240 IEM_DS3505
ZGNN,1997-05-07 15:00,ZGNN 071500Z AUTO 00000KT 16SM 27/24 A2981 RMK SLP081 T02670241 52029 IEM_DS3505
ZGNN,1997-05-07 18:00,ZGNN 071800Z AUTO 09004KT 11SM 26/24 A2978 RMK SLP071 T02580242 57010 IEM_DS3505
ZGNN,1997-05-07 21:00,ZGNN 072100Z AUTO 36002KT 8SM 26/24 A2977 RMK SLP066 T02550244 57005 IEM_DS3505
ZGNN,1997-05-07 23:00,ZGNN 072300Z AUTO 00000KT 4SM 25/24 A2980 RMK SLP079 T02500240 IEM_DS3505
ZGNN,1997-05-08 00:00,ZGNN 080000Z AUTO 00000KT 7SM 26/25 A2983 RMK SLP082 T02620248 52016 IEM_DS3505
ZGNN,1997-05-08 01:00,ZGNN 080100Z AUTO 19004KT 6SM 27/25 A2983 RMK SLP088 T02700250 IEM_DS3505
ZGNN,1997-05-08 02:00,ZGNN 080200Z AUTO 12004KT 7SM 27/25 A2983 RMK SLP088 T02700250 IEM_DS3505
ZGNN,1997-05-08 03:00,ZGNN 080300Z AUTO 16002KT 9SM 28/25 A2983 RMK SLP082 T02830254 54000 IEM_DS3505
ZGNN,1997-05-08 04:00,ZGNN 080400Z AUTO 07004KT 7SM 30/25 A2983 RMK SLP087 T03000250 IEM_DS3505
ZGNN,1997-05-08 05:00,ZGNN 080500Z AUTO 18006KT 7SM 31/25 A2980 RMK SLP077 T03100250 IEM_DS3505
ZGNN,1997-05-08 06:00,ZGNN 080600Z AUTO 00000KT 12SM 30/25 A2977 RMK SLP067 T03040251 57015 IEM_DS3505
ZGNN,1997-05-08 07:00,ZGNN 080700Z AUTO 10004KT 7SM 31/25 A2974 RMK SLP056 T03100250 IEM_DS3505
ZGNN,1997-05-08 08:00,ZGNN 080800Z AUTO 05002KT 7SM 31/25 A2971 RMK SLP046 T03100250 IEM_DS3505
ZGNN,1997-05-08 09:00,ZGNN 080900Z AUTO 04004KT 14SM 31/25 A2971 RMK SLP052 T03120253 57015 IEM_DS3505
ZGNN,1997-05-08 10:00,ZGNN 081000Z AUTO 06004KT 7SM 30/26 A2971 RMK SLP046 T03000260 IEM_DS3505
ZGNN,1997-05-08 11:00,ZGNN 081100Z AUTO 09006KT 6SM 30/25 A2971 RMK SLP046 T03000250 IEM_DS3505
ZGNN,1997-05-08 12:00,ZGNN 081200Z AUTO 09004KT 14SM 29/26 A2974 RMK SLP059 T02930261 52007 IEM_DS3505
ZGNN,1997-05-08 13:00,ZGNN 081300Z AUTO 10004KT 7SM 28/26 A2977 RMK SLP068 T02800260 IEM_DS3505
ZGNN,1997-05-08 14:00,ZGNN 081400Z AUTO 10006KT 7SM 27/25 A2980 RMK SLP078 T02700250 IEM_DS3505
ZGNN,1997-05-08 15:00,ZGNN 081500Z AUTO 07010KT 12SM 26/23 A2983 RMK SLP092 T02620233 52033 IEM_DS3505
ZGNN,1997-05-08 18:00,ZGNN 081800Z AUTO 07002KT 12SM 25/22 A2979 RMK SLP073 T02500219 57019 IEM_DS3505
ZGNN,1997-05-08 21:00,ZGNN 082100Z AUTO 07006KT 9SM 24/21 A2977 RMK 70000 SLP076 T02410214 52003 IEM_DS3505
ZGNN,1997-05-08 22:00,ZGNN 082200Z AUTO 01010KT 2SM 23/22 A2980 RMK SLP079 T02300220 IEM_DS3505
ZGNN,1997-05-08 23:00,ZGNN 082300Z AUTO 05004KT 2 1/2SM 22/22 A2985 RMK SLP096 T02200220 IEM_DS3505
ZGNN,1997-05-09 00:00,ZGNN 090000Z AUTO 36002KT 6SM 23/22 A2991 RMK 60071 70071 SLP112 T02260219 52035 IEM_DS3505
ZGNN,1997-05-09 01:00,ZGNN 090100Z AUTO 09002KT 2 1/2SM 22/22 A2991 RMK SLP117 T02200220 IEM_DS3505
ZGNN,1997-05-09 03:00,ZGNN 090300Z AUTO 09004KT 6SM 23/22 A2991 RMK SLP118 T02270221 52006 IEM_DS3505
ZGNN,1997-05-09 06:00,ZGNN 090600Z AUTO 07004KT 16SM 24/21 A2980 RMK 60106 SLP079 T02350214 57039 IEM_DS3505
ZGNN,1997-05-09 07:00,ZGNN 090700Z AUTO 22002KT 7SM 26/21 A2980 RMK SLP078 T02600210 IEM_DS3505
ZGNN,1997-05-09 08:00,ZGNN 090800Z AUTO 23002KT 7SM 26/21 A2977 RMK SLP068 T02600210 IEM_DS3505
ZGNN,1997-05-09 09:00,ZGNN 090900Z AUTO 09002KT 19SM 25/21 A2977 RMK SLP062 T02500213 57017 IEM_DS3505
ZGNN,1997-05-09 10:00,ZGNN 091000Z AUTO 12006KT 7SM 25/22 A2974 RMK SLP058 T02500220 IEM_DS3505
ZGNN,1997-05-09 11:00,ZGNN 091100Z AUTO 12006KT 7SM 25/22 A2974 RMK SLP058 T02500220 IEM_DS3505
ZGNN,1997-05-09 12:00,ZGNN 091200Z AUTO 00000KT 19SM 24/22 A2977 RMK SLP066 T02410220 52004 IEM_DS3505
ZGNN,1997-05-09 13:00,ZGNN 091300Z AUTO 12004KT 6SM 24/22 A2977 RMK SLP069 T02400220 IEM_DS3505
ZGNN,1997-05-09 15:00,ZGNN 091500Z AUTO 07002KT 19SM 24/22 A2978 RMK SLP073 T02360220 52007 IEM_DS3505
ZGNN,1997-05-09 18:00,ZGNN 091800Z AUTO 09002KT 16SM 24/22 A2978 RMK T02360223 57001 IEM_DS3505
ZGNN,1997-05-09 21:00,ZGNN 092100Z AUTO 07002KT 16SM 23/22 RMK 70173 SLP066 T02320222 57006 IEM_DS3505
ZGNN,1997-05-09 22:00,ZGNN 092200Z AUTO 00000KT 7SM 22/22 A2977 RMK SLP069 T02200220 IEM_DS3505
ZGNN,1997-05-09 23:00,ZGNN 092300Z AUTO 00000KT 7SM 22/22 A2977 RMK SLP069 T02200220 IEM_DS3505
ZGNN,1997-05-10 00:00,ZGNN 100000Z AUTO 20002KT 12SM 24/23 A2980 RMK 70102 SLP074 T02420226 52008 IEM_DS3505
ZGNN,1997-05-10 01:00,ZGNN 100100Z AUTO 15012KT 7SM 26/22 A2977 RMK SLP068 T02600220 IEM_DS3505
ZGNN,1997-05-10 02:00,ZGNN 100200Z AUTO 16014KT 7SM 27/22 A2980 RMK SLP078 T02700220 IEM_DS3505
ZGNN,1997-05-10 03:00,ZGNN 100300Z AUTO 25004KT 16SM 27/23 A2977 RMK SLP070 T02700231 57004 IEM_DS3505
ZGNN,1997-05-10 04:00,ZGNN 100400Z AUTO 16006KT 7SM 28/22 A2974 RMK SLP057 T02800220 IEM_DS3505
ZGNN,1997-05-10 05:00,ZGNN 100500Z AUTO 22008KT 7SM 29/22 A2971 RMK SLP046 T02900220 IEM_DS3505
ZGNN,1997-05-10 06:00,ZGNN 100600Z AUTO 20008KT 17SM 31/23 A2968 RMK SLP041 T03060231 57028 IEM_DS3505
ZGNN,1997-05-10 07:00,ZGNN 100700Z AUTO 15012KT 7SM 31/24 A2965 RMK SLP026 T03100240 IEM_DS3505
ZGNN,1997-05-10 08:00,ZGNN 100800Z AUTO 15010KT 7SM 30/24 A2962 RMK SLP016 T03000240 IEM_DS3505
ZGNN,1997-05-10 09:00,ZGNN 100900Z AUTO 18006KT 17SM 30/23 A2962 RMK SLP018 T03030231 57023 IEM_DS3505
ZGNN,1997-05-10 10:00,ZGNN 101000Z AUTO 16010KT 7SM 29/23 A2962 RMK SLP016 T02900230 IEM_DS3505
ZGNN,1997-05-10 11:00,ZGNN 101100Z AUTO 14010KT 6SM 27/23 A2962 RMK SLP017 T02700230 IEM_DS3505
ZGNN,1997-05-10 12:00,ZGNN 101200Z AUTO 18006KT 19SM 27/23 A2965 RMK SLP021 T02690234 52003 IEM_DS3505
ZGNN,1997-05-10 13:00,ZGNN 101300Z AUTO 15012KT 6SM 25/23 A2965 RMK SLP027 T02500230 IEM_DS3505
ZGNN,1997-05-10 15:00,ZGNN 101500Z AUTO 20002KT 19SM 26/23 A2968 RMK SLP036 T02580233 52015 IEM_DS3505
ZGNN,1997-05-10 18:00,ZGNN 101800Z AUTO 00000KT 16SM 25/23 A2967 RMK SLP035 T02490230 57001 IEM_DS3505
ZGNN,1997-05-10 21:00,ZGNN 102100Z AUTO 00000KT 16SM 24/22 A2968 RMK SLP036 T02410225 52001 IEM_DS3505
ZGNN,1997-05-10 22:00,ZGNN 102200Z AUTO 00000KT 6SM 22/22 A2968 RMK SLP038 T02200220 IEM_DS3505
ZGNN,1997-05-10 23:00,ZGNN 102300Z AUTO 00000KT 6SM 23/22 A2968 RMK SLP038 T02300220 IEM_DS3505
ZGNN,1997-05-11 00:00,ZGNN 110000Z AUTO 00000KT 12SM 27/23 A2971 RMK SLP045 T02670234 52009 IEM_DS3505
ZGNN,1997-05-11 01:00,ZGNN 110100Z AUTO 14006KT 6SM 28/23 A2971 RMK SLP047 T02800230 IEM_DS3505
ZGNN,1997-05-11 02:00,ZGNN 110200Z AUTO 22004KT 7SM 30/22 A2971 RMK SLP046 T03000220 IEM_DS3505
ZGNN,1997-05-11 03:00,ZGNN 110300Z AUTO 11004KT 19SM 30/25 A2971 RMK SLP043 T03030248 57002 IEM_DS3505
ZGNN,1997-05-11 04:00,ZGNN 110400Z AUTO 22008KT 7SM 31/24 A2968 RMK SLP036 T03100240 IEM_DS3505
ZGNN,1997-05-11 05:00,ZGNN 110500Z AUTO 15012KT 7SM 32/25 A2965 RMK SLP025 T03200250 IEM_DS3505
ZGNN,1997-05-11 06:00,ZGNN 110600Z AUTO 20006KT 19SM 32/25 A2962 RMK SLP019 T03160246 57023 IEM_DS3505
ZGNN,1997-05-11 07:00,ZGNN 110700Z AUTO 15016KT 7SM 33/25 A2959 RMK SLP005 T03300250 IEM_DS3505
ZGNN,1997-05-11 08:00,ZGNN 110800Z AUTO 14014KT 7SM 33/25 A2959 RMK SLP005 T03300250 IEM_DS3505
ZGNN,1997-05-11 09:00,ZGNN 110900Z AUTO 16004KT 19SM 32/24 A2956 RMK SLP000 T03210245 57019 IEM_DS3505
ZGNN,1997-05-11 10:00,ZGNN 111000Z AUTO 15016KT 6SM 30/24 A2956 RMK SLP996 T03000240 IEM_DS3505
ZGNN,1997-05-11 11:00,ZGNN 111100Z AUTO 16012KT 6SM 28/24 A2959 RMK SLP006 T02800240 IEM_DS3505
ZGNN,1997-05-11 12:00,ZGNN 111200Z AUTO 20004KT 19SM 28/24 A2959 RMK SLP011 T02820242 52011 IEM_DS3505
ZGNN,1997-05-11 13:00,ZGNN 111300Z AUTO 17012KT 6SM 27/24 A2965 RMK SLP027 T02700240 IEM_DS3505
ZGNN,1997-05-11 15:00,ZGNN 111500Z AUTO 22002KT 19SM 27/24 A2966 RMK SLP029 T02660240 52018 IEM_DS3505
ZGNN,1997-05-11 18:00,ZGNN 111800Z AUTO 00000KT 19SM 26/24 A2965 RMK SLP026 T02620235 57003 IEM_DS3505
ZGNN,1997-05-11 21:00,ZGNN 112100Z AUTO 00000KT 16SM 26/23 A2962 RMK SLP021 T02590234 57005 IEM_DS3505
ZGNN,1997-05-11 22:00,ZGNN 112200Z AUTO 00000KT 7SM 24/23 A2965 RMK SLP028 T02400230 IEM_DS3505
ZGNN,1997-05-11 23:00,ZGNN 112300Z AUTO 00000KT 7SM 25/23 A2965 RMK SLP027 T02500230 IEM_DS3505
ZGNN,1997-05-12 00:00,ZGNN 120000Z AUTO 22002KT 12SM 27/24 A2968 RMK SLP038 T02730240 52016 IEM_DS3505
ZGNN,1997-05-12 01:00,ZGNN 120100Z AUTO 16010KT 7SM 28/24 A2968 RMK SLP037 T02800240 IEM_DS3505
ZGNN,1997-05-12 02:00,ZGNN 120200Z AUTO 16014KT 7SM 30/24 A2968 RMK SLP036 T03000240 IEM_DS3505
ZGNN,1997-05-12 03:00,ZGNN 120300Z AUTO 18004KT 16SM 31/24 A2968 RMK SLP037 T03110245 54000 IEM_DS3505
ZGNN,1997-05-12 04:00,ZGNN 120400Z AUTO 14012KT 7SM 32/25 A2968 RMK SLP035 T03200250 IEM_DS3505
ZGNN,1997-05-12 05:00,ZGNN 120500Z AUTO 14014KT 7SM 32/25 A2965 RMK SLP025 T03200250 IEM_DS3505
ZGNN,1997-05-12 06:00,ZGNN 120600Z AUTO 22006KT 17SM 33/25 A2962 RMK SLP018 T03270249 57019 IEM_DS3505
ZGNN,1997-05-12 07:00,ZGNN 120700Z AUTO 14014KT 7SM 32/25 A2959 RMK SLP005 T03200250 IEM_DS3505
ZGNN,1997-05-12 08:00,ZGNN 120800Z AUTO 15016KT 7SM 31/25 A2956 RMK SLP995 T03100250 IEM_DS3505
ZGNN,1997-05-12 09:00,ZGNN 120900Z AUTO 20006KT 19SM 32/26 A2956 RMK SLP997 T03240256 57021 IEM_DS3505
ZGNN,1997-05-12 10:00,ZGNN 121000Z AUTO 15012KT 6SM 31/25 A2956 RMK SLP995 T03100250 IEM_DS3505
ZGNN,1997-05-12 11:00,ZGNN 121100Z AUTO 15012KT 6SM 29/24 A2956 RMK SLP996 T02900240 IEM_DS3505
ZGNN,1997-05-12 12:00,ZGNN 121200Z AUTO 04002KT 19SM 29/25 A2959 RMK SLP012 T02890247 52015 IEM_DS3505
ZGNN,1997-05-12 13:00,ZGNN 121300Z AUTO 16008KT 6SM 27/24 A2965 RMK SLP027 T02700240 IEM_DS3505
ZGNN,1997-05-12 15:00,ZGNN 121500Z AUTO 07004KT 16SM 27/24 A2969 RMK SLP042 T02700244 52030 IEM_DS3505
ZGNN,1997-05-12 18:00,ZGNN 121800Z AUTO 07002KT 16SM 26/24 A2970 RMK SLP043 T02650241 52001 IEM_DS3505
ZGNN,1997-05-12 21:00,ZGNN 122100Z AUTO 00000KT 14SM 26/24 A2968 RMK SLP038 T02630242 57005 IEM_DS3505
ZGNN,1997-05-12 22:00,ZGNN 122200Z AUTO 36004KT 6SM 24/23 A2971 RMK SLP048 T02400230 IEM_DS3505
ZGNN,1997-05-12 23:00,ZGNN 122300Z AUTO 01004KT 6SM 25/24 A2971 RMK SLP047 T02500240 IEM_DS3505
ZGNN,1997-05-13 00:00,ZGNN 130000Z AUTO 25004KT 11SM 27/25 A2974 RMK SLP058 T02740247 52019 IEM_DS3505
ZGNN,1997-05-13 01:00,ZGNN 130100Z AUTO 15008KT 6SM 29/24 A2974 RMK SLP056 T02900240 IEM_DS3505
ZGNN,1997-05-13 02:00,ZGNN 130200Z AUTO 16012KT 6SM 30/24 A2977 RMK SLP067 T03000240 IEM_DS3505
ZGNN,1997-05-13 03:00,ZGNN 130300Z AUTO 16004KT 14SM 31/24 A2977 RMK SLP066 T03100242 52008 IEM_DS3505
ZGNN,1997-05-13 04:00,ZGNN 130400Z AUTO 15010KT 7SM 32/23 A2974 RMK SLP056 T03200230 IEM_DS3505
ZGNN,1997-05-13 05:00,ZGNN 130500Z AUTO 14014KT 7SM 32/24 A2974 RMK SLP056 T03200240 IEM_DS3505
ZGNN,1997-05-13 07:00,ZGNN 130700Z AUTO 15012KT 7SM 32/24 A2968 RMK SLP035 T03200240 IEM_DS3505
ZGNN,1997-05-13 08:00,ZGNN 130800Z AUTO 15016KT 7SM 32/25 A2965 RMK SLP025 T03200250 IEM_DS3505
ZGNN,1997-05-13 09:00,ZGNN 130900Z AUTO 02002KT 19SM 31/24 A2965 RMK SLP028 T03100244 57017 IEM_DS3505
ZGNN,1997-05-13 10:00,ZGNN 131000Z AUTO 15014KT 7SM 30/24 A2965 RMK SLP026 T03000240 IEM_DS3505
ZGNN,1997-05-13 11:00,ZGNN 131100Z AUTO 14008KT 6SM 29/24 A2968 RMK SLP036 T02900240 IEM_DS3505
ZGNN,1997-05-13 12:00,ZGNN 131200Z AUTO 22004KT 12SM 29/24 A2971 RMK SLP043 T02920239 52014 IEM_DS3505
ZGNN,1997-05-13 13:00,ZGNN 131300Z AUTO 14008KT 6SM 27/24 A2971 RMK SLP047 T02700240 IEM_DS3505
ZGNN,1997-05-13 15:00,ZGNN 131500Z AUTO 27004KT 12SM 28/24 A2975 RMK SLP062 T02750241 52020 IEM_DS3505
ZGNN,1997-05-13 18:00,ZGNN 131800Z AUTO 34002KT 12SM 27/24 A2974 RMK SLP057 T02670241 57005 IEM_DS3505
ZGNN,1997-05-13 21:00,ZGNN 132100Z AUTO 14002KT 11SM 26/24 A2974 RMK SLP060 T02610242 52002 IEM_DS3505
ZGNN,1997-05-13 22:00,ZGNN 132200Z AUTO 00000KT 6SM 24/23 A2977 RMK SLP069 T02400230 IEM_DS3505
ZGNN,1997-05-13 23:00,ZGNN 132300Z AUTO 00000KT 6SM 25/23 A2977 RMK SLP069 T02500230 IEM_DS3505
ZGNN,1997-05-14 00:00,ZGNN 140000Z AUTO 14002KT 11SM 27/24 A2980 RMK SLP082 T02710236 52022 IEM_DS3505
ZGNN,1997-05-14 01:00,ZGNN 140100Z AUTO 16008KT 6SM 28/23 A2983 RMK SLP088 T02800230 IEM_DS3505
ZGNN,1997-05-14 02:00,ZGNN 140200Z AUTO 15012KT 7SM 30/24 A2983 RMK SLP087 T03000240 IEM_DS3505
ZGNN,1997-05-14 03:00,ZGNN 140300Z AUTO 20004KT 16SM 31/24 A2980 RMK SLP080 T03070240 57002 IEM_DS3505
ZGNN,1997-05-14 04:00,ZGNN 140400Z AUTO 13012KT 7SM 31/25 A2980 RMK SLP077 T03100250 IEM_DS3505
ZGNN,1997-05-14 05:00,ZGNN 140500Z AUTO 07008KT 7SM 28/24 A2977 RMK SLP068 T02800240 IEM_DS3505
ZGNN,1997-05-14 06:00,ZGNN 140600Z AUTO 22004KT 14SM 28/23 A2974 RMK SLP061 T02770232 57019 IEM_DS3505
ZGNN,1997-05-14 07:00,ZGNN 140700Z AUTO 12012KT 7SM 30/25 A2971 RMK SLP046 T03000250 IEM_DS3505
ZGNN,1997-05-14 08:00,ZGNN 140800Z AUTO 16008KT 7SM 30/25 A2968 RMK SLP036 T03000250 IEM_DS3505
ZGNN,1997-05-14 09:00,ZGNN 140900Z AUTO 07004KT 9SM 26/22 A2968 RMK SLP045 T02550220 57016 IEM_DS3505
ZGNN,1997-05-14 10:00,ZGNN 141000Z AUTO 15014KT 6SM 30/24 A2968 RMK SLP036 T03000240 IEM_DS3505
ZGNN,1997-05-14 11:00,ZGNN 141100Z AUTO 15014KT 6SM 29/24 A2968 RMK SLP036 T02900240 IEM_DS3505
ZGNN,1997-05-14 12:00,ZGNN 141200Z AUTO 22002KT 12SM 28/24 A2971 RMK 60071 SLP048 T02810237 52003 IEM_DS3505
ZGNN,1997-05-14 13:00,ZGNN 141300Z AUTO 16006KT 6SM 27/24 A2974 RMK SLP057 T02700240 IEM_DS3505
ZGNN,1997-05-14 14:00,ZGNN 141400Z AUTO 15006KT 6SM 26/24 A2977 RMK SLP068 T02600240 IEM_DS3505
ZGNN,1997-05-14 15:00,ZGNN 141500Z AUTO 09002KT 12SM 27/24 A2978 RMK SLP071 T02670240 52023 IEM_DS3505
ZGNN,1997-05-14 18:00,ZGNN 141800Z AUTO 00000KT 12SM 26/24 A2977 RMK SLP066 T02600240 57005 IEM_DS3505
ZGNN,1997-05-14 21:00,ZGNN 142100Z AUTO 00000KT 11SM 26/24 A2977 RMK 70071 SLP069 T02550242 52002 IEM_DS3505
ZGNN,1997-05-14 22:00,ZGNN 142200Z AUTO 02004KT 6SM 25/24 A2977 RMK SLP069 T02500240 IEM_DS3505
ZGNN,1997-05-14 23:00,ZGNN 142300Z AUTO 04004KT 7SM 25/24 A2980 RMK SLP079 T02500240 IEM_DS3505
ZGNN,1997-05-15 00:00,ZGNN 150000Z AUTO 00000KT 12SM 28/25 A2980 RMK 70071 SLP079 T02750248 52011 IEM_DS3505
ZGNN,1997-05-15 01:00,ZGNN 150100Z AUTO 15006KT 6SM 28/23 A2980 RMK SLP078 T02800230 IEM_DS3505
ZGNN,1997-05-15 02:00,ZGNN 150200Z AUTO 18006KT 7SM 29/23 A2980 RMK SLP078 T02900230 IEM_DS3505
ZGNN,1997-05-15 03:00,ZGNN 150300Z AUTO 22004KT 16SM 30/24 A2980 RMK SLP078 T02990236 57001 IEM_DS3505
ZGNN,1997-05-15 04:00,ZGNN 150400Z AUTO 13008KT 7SM 30/23 A2977 RMK SLP067 T03000230 IEM_DS3505
ZGNN,1997-05-15 05:00,ZGNN 150500Z AUTO 15008KT 7SM 30/23 A2977 RMK SLP067 T03000230 IEM_DS3505
ZGNN,1997-05-15 06:00,ZGNN 150600Z AUTO 22002KT 19SM 31/24 A2974 RMK SLP054 T03090238 57024 IEM_DS3505
ZGNN,1997-05-15 07:00,ZGNN 150700Z AUTO 15006KT 7SM 30/23 A2971 RMK SLP046 T03000230 IEM_DS3505
ZGNN,1997-05-15 08:00,ZGNN 150800Z AUTO 15008KT 7SM 31/24 A2968 RMK SLP036 T03100240 IEM_DS3505
ZGNN,1997-05-15 09:00,ZGNN 150900Z AUTO 00000KT 19SM 31/24 A2968 RMK SLP034 T03130235 57019 IEM_DS3505
ZGNN,1997-05-15 10:00,ZGNN 151000Z AUTO 15006KT 7SM 30/24 A2968 RMK SLP036 T03000240 IEM_DS3505
ZGNN,1997-05-15 11:00,ZGNN 151100Z AUTO 15008KT 7SM 29/24 A2971 RMK SLP046 T02900240 IEM_DS3505
ZGNN,1997-05-15 12:00,ZGNN 151200Z AUTO 25004KT 19SM 29/24 A2971 RMK SLP052 T02920238 52017 IEM_DS3505
ZGNN,1997-05-15 13:00,ZGNN 151300Z AUTO 15008KT 6SM 26/23 A2974 RMK SLP057 T02600230 IEM_DS3505
ZGNN,1997-05-15 14:00,ZGNN 151400Z AUTO 17008KT 6SM 25/23 A2974 RMK SLP058 T02500230 IEM_DS3505
ZGNN,1997-05-15 15:00,ZGNN 151500Z AUTO 00000KT 19SM 27/24 A2977 RMK SLP069 T02720241 52017 IEM_DS3505
ZGNN,1997-05-15 18:00,ZGNN 151800Z AUTO 07002KT 16SM 26/24 A2975 RMK SLP061 T02600240 57008 IEM_DS3505
ZGNN,1997-05-15 21:00,ZGNN 152100Z AUTO 11004KT 12SM 26/24 A2974 RMK SLP056 T02560243 57005 IEM_DS3505
ZGNN,1997-05-15 22:00,ZGNN 152200Z AUTO 00000KT 6SM 25/24 A2974 RMK SLP058 T02500240 IEM_DS3505
ZGNN,1997-05-15 23:00,ZGNN 152300Z AUTO 36004KT 7SM 25/24 A2977 RMK SLP069 T02500240 IEM_DS3505
ZGNN,1997-05-16 00:00,ZGNN 160000Z AUTO 00000KT 11SM 26/24 A2977 RMK SLP065 T02640241 52009 IEM_DS3505
ZGNN,1997-05-16 01:00,ZGNN 160100Z AUTO 04004KT 6SM 26/24 A2980 RMK SLP078 T02600240 IEM_DS3505
ZGNN,1997-05-16 02:00,ZGNN 160200Z AUTO 14006KT 7SM 28/24 A2980 RMK SLP078 T02800240 IEM_DS3505
ZGNN,1997-05-16 03:00,ZGNN 160300Z AUTO 04004KT 12SM 28/24 A2980 RMK SLP080 T02830243 52015 IEM_DS3505
ZGNN,1997-05-16 04:00,ZGNN 160400Z AUTO 08004KT 7SM 29/23 A2980 RMK SLP078 T02900230 IEM_DS3505
ZGNN,1997-05-16 05:00,ZGNN 160500Z AUTO 02006KT 7SM 27/25 A2977 RMK SLP068 T02700250 IEM_DS3505
ZGNN,1997-05-16 06:00,ZGNN 160600Z AUTO 04006KT 12SM 27/24 A2977 RMK 60001 SLP073 T02670244 57007 IEM_DS3505
ZGNN,1997-05-16 07:00,ZGNN 160700Z AUTO 33008KT 4SM 25/25 A2977 RMK SLP069 T02500250 IEM_DS3505
ZGNN,1997-05-16 08:00,ZGNN 160800Z AUTO 36004KT 4SM 24/23 A2977 RMK SLP069 T02400230 IEM_DS3505
ZGNN,1997-05-16 09:00,ZGNN 160900Z AUTO 32002KT 12SM 25/23 A2977 RMK SLP068 T02500230 57006 IEM_DS3505
ZGNN,1997-05-16 10:00,ZGNN 161000Z AUTO 02004KT 7SM 24/23 A2977 RMK SLP069 T02400230 IEM_DS3505
ZGNN,1997-05-16 11:00,ZGNN 161100Z AUTO 00000KT 7SM 24/22 A2977 RMK SLP069 T02400220 IEM_DS3505
ZGNN,1997-05-16 12:00,ZGNN 161200Z AUTO 29002KT 12SM 24/23 A2980 RMK 60004 SLP082 T02440231 52014 IEM_DS3505
ZGNN,1997-05-16 13:00,ZGNN 161300Z AUTO 01004KT 7SM 24/22 A2983 RMK SLP089 T02400220 IEM_DS3505
ZGNN,1997-05-16 15:00,ZGNN 161500Z AUTO 02004KT 12SM 24/22 A2987 RMK SLP102 T02400218 52020 IEM_DS3505
ZGNN,1997-05-16 18:00,ZGNN 161800Z AUTO 36004KT 12SM 24/22 A2984 RMK SLP092 T02350217 57010 IEM_DS3505
ZGNN,1997-05-16 19:00,ZGNN 161900Z AUTO 00000KT 7SM 23/21 A2983 RMK SLP089 T02300210 IEM_DS3505
ZGNN,1997-05-16 20:00,ZGNN 162000Z AUTO 01006KT 7SM 23/21 A2980 RMK SLP079 T02300210 IEM_DS3505
ZGNN,1997-05-16 21:00,ZGNN 162100Z AUTO 02002KT 12SM 24/21 A2980 RMK 70008 SLP082 T02350206 57010 IEM_DS3505
ZGNN,1997-05-16 22:00,ZGNN 162200Z AUTO 00000KT 7SM 22/20 A2983 RMK SLP090 T02200200 IEM_DS3505
ZGNN,1997-05-16 23:00,ZGNN 162300Z AUTO 00000KT 7SM 23/21 A2985 RMK SLP095 T02300210 IEM_DS3505
ZGNN,1997-05-17 00:00,ZGNN 170000Z AUTO 00000KT 11SM 24/21 A2985 RMK 70008 SLP099 T02410211 52017 IEM_DS3505
ZGNN,1997-05-17 01:00,ZGNN 170100Z AUTO 00000KT 6SM 24/21 A2988 RMK SLP106 T02400210 IEM_DS3505
ZGNN,1997-05-17 02:00,ZGNN 170200Z AUTO 00000KT 7SM 25/20 A2988 RMK SLP106 T02500200 IEM_DS3505
ZGNN,1997-05-17 03:00,ZGNN 170300Z AUTO 00000KT 11SM 26/20 A2988 RMK SLP106 T02610200 52007 IEM_DS3505
ZGNN,1997-05-17 04:00,ZGNN 170400Z AUTO 30006KT 7SM 27/20 A2985 RMK SLP094 T02700200 IEM_DS3505
ZGNN,1997-05-17 05:00,ZGNN 170500Z AUTO 02004KT 7SM 27/21 A2983 RMK SLP088 T02700210 IEM_DS3505
ZGNN,1997-05-17 06:00,ZGNN 170600Z AUTO 07006KT 16SM 29/20 A2980 RMK SLP077 T02890202 57028 IEM_DS3505
ZGNN,1997-05-17 07:00,ZGNN 170700Z AUTO 18004KT 7SM 29/22 A2977 RMK SLP067 T02900220 IEM_DS3505
ZGNN,1997-05-17 08:00,ZGNN 170800Z AUTO 14004KT 7SM 28/21 A2974 RMK SLP057 T02800210 IEM_DS3505
ZGNN,1997-05-17 09:00,ZGNN 170900Z AUTO 16004KT 19SM 30/21 A2971 RMK SLP048 T02970213 57029 IEM_DS3505
ZGNN,1997-05-17 10:00,ZGNN 171000Z AUTO 14004KT 7SM 29/22 A2971 RMK SLP046 T02900220 IEM_DS3505
ZGNN,1997-05-17 11:00,ZGNN 171100Z AUTO 21006KT 6SM 28/22 A2971 RMK SLP047 T02800220 IEM_DS3505
ZGNN,1997-05-17 12:00,ZGNN 171200Z AUTO 00000KT 19SM 28/22 A2971 RMK SLP048 T02820216 54000 IEM_DS3505
ZGNN,1997-05-17 15:00,ZGNN 171500Z AUTO 00000KT 19SM 26/23 A2977 RMK SLP067 T02650226 52019 IEM_DS3505
ZGNN,1997-05-17 18:00,ZGNN 171800Z AUTO 09002KT 16SM 26/23 A2975 RMK SLP060 T02550226 57007 IEM_DS3505
ZGNN,1997-05-17 21:00,ZGNN 172100Z AUTO 07004KT 12SM 25/23 A2973 RMK SLP056 T02470228 57004 IEM_DS3505
ZGNN,1997-05-17 23:00,ZGNN 172300Z AUTO 00000KT 6SM 24/23 A2974 RMK SLP058 T02400230 IEM_DS3505
ZGNN,1997-05-18 00:00,ZGNN 180000Z AUTO 07002KT 9SM 25/23 A2977 RMK SLP066 T02520232 52010 IEM_DS3505
ZGNN,1997-05-18 01:00,ZGNN 180100Z AUTO 16004KT 6SM 26/23 A2977 RMK SLP068 T02600230 IEM_DS3505
ZGNN,1997-05-18 02:00,ZGNN 180200Z AUTO 20004KT 6SM 27/23 A2980 RMK SLP078 T02700230 IEM_DS3505
ZGNN,1997-05-18 03:00,ZGNN 180300Z AUTO 25002KT 12SM 28/23 A2980 RMK SLP073 T02830233 52007 IEM_DS3505
ZGNN,1997-05-18 04:00,ZGNN 180400Z AUTO 16004KT 7SM 31/24 A2977 RMK SLP067 T03100240 IEM_DS3505
ZGNN,1997-05-18 05:00,ZGNN 180500Z AUTO 19006KT 7SM 31/24 A2974 RMK SLP056 T03100240 IEM_DS3505
ZGNN,1997-05-18 06:00,ZGNN 180600Z AUTO 16004KT 16SM 32/26 A2971 RMK SLP043 T03230255 57029 IEM_DS3505
ZGNN,1997-05-18 07:00,ZGNN 180700Z AUTO 14004KT 7SM 32/24 A2968 RMK SLP035 T03200240 IEM_DS3505
ZGNN,1997-05-18 08:00,ZGNN 180800Z AUTO 14008KT 7SM 32/24 A2965 RMK SLP025 T03200240 IEM_DS3505
ZGNN,1997-05-18 09:00,ZGNN 180900Z AUTO 00000KT 17SM 32/25 A2962 RMK SLP020 T03240253 57023 IEM_DS3505
ZGNN,1997-05-18 10:00,ZGNN 181000Z AUTO 14008KT 7SM 31/25 A2962 RMK SLP016 T03100250 IEM_DS3505
ZGNN,1997-05-18 11:00,ZGNN 181100Z AUTO 13006KT 7SM 30/25 A2965 RMK SLP026 T03000250 IEM_DS3505
ZGNN,1997-05-18 12:00,ZGNN 181200Z AUTO 00000KT 19SM 30/26 A2968 RMK SLP034 T02990257 52013 IEM_DS3505
ZGNN,1997-05-18 13:00,ZGNN 181300Z AUTO 13004KT 7SM 28/25 A2971 RMK SLP047 T02800250 IEM_DS3505
ZGNN,1997-05-18 14:00,ZGNN 181400Z AUTO 15004KT 7SM 27/25 A2974 RMK SLP057 T02700250 IEM_DS3505
ZGNN,1997-05-18 15:00,ZGNN 181500Z AUTO 09004KT 16SM 28/26 A2974 RMK SLP060 T02790255 52026 IEM_DS3505
ZGNN,1997-05-18 18:00,ZGNN 181800Z AUTO 07002KT 14SM 27/25 A2972 RMK SLP051 T02740254 57008 IEM_DS3505
ZGNN,1997-05-18 21:00,ZGNN 182100Z AUTO 00000KT 12SM 26/25 A2971 RMK 70002 SLP046 T02640251 57005 IEM_DS3505
ZGNN,1997-05-18 22:00,ZGNN 182200Z AUTO 00000KT 2 1/2SM 26/25 A2971 RMK SLP047 T02600250 IEM_DS3505
ZGNN,1997-05-18 23:00,ZGNN 182300Z AUTO 00000KT 2 1/2SM 26/25 A2974 RMK SLP057 T02600250 IEM_DS3505
ZGNN,1997-05-19 00:00,ZGNN 190000Z AUTO 04004KT 12SM 27/26 A2977 RMK 60002 70002 SLP065 T02690256 52018 IEM_DS3505
ZGNN,1997-05-19 01:00,ZGNN 190100Z AUTO 07002KT 3SM 26/25 A2977 RMK SLP068 T02600250 IEM_DS3505
ZGNN,1997-05-19 02:00,ZGNN 190200Z AUTO 02004KT 3SM 27/25 A2977 RMK SLP068 T02700250 IEM_DS3505
ZGNN,1997-05-19 03:00,ZGNN 190300Z AUTO 04004KT 16SM 26/21 A2980 RMK SLP076 T02600214 52011 IEM_DS3505
ZGNN,1997-05-19 04:00,ZGNN 190400Z AUTO 35012KT 7SM 26/23 A2977 RMK SLP068 T02600230 IEM_DS3505
ZGNN,1997-05-19 05:00,ZGNN 190500Z AUTO 36006KT 7SM 26/23 A2977 RMK SLP068 T02600230 IEM_DS3505
ZGNN,1997-05-19 06:00,ZGNN 190600Z AUTO 04004KT 19SM 29/23 A2974 RMK 60004 SLP052 T02880233 57024 IEM_DS3505
ZGNN,1997-05-19 07:00,ZGNN 190700Z AUTO 03004KT 6SM 29/23 A2971 RMK SLP046 T02900230 IEM_DS3505
ZGNN,1997-05-19 08:00,ZGNN 190800Z AUTO 04004KT 6SM 31/23 A2968 RMK SLP036 T03100230 IEM_DS3505
ZGNN,1997-05-19 09:00,ZGNN 190900Z AUTO 04002KT 19SM 31/24 A2968 RMK SLP034 T03110237 57017 IEM_DS3505
ZGNN,1997-05-19 10:00,ZGNN 191000Z AUTO 32004KT 6SM 29/24 A2968 RMK SLP036 T02900240 IEM_DS3505
ZGNN,1997-05-19 11:00,ZGNN 191100Z AUTO 34004KT 6SM 29/24 A2968 RMK SLP036 T02900240 IEM_DS3505
ZGNN,1997-05-19 12:00,ZGNN 191200Z AUTO 00000KT 19SM 30/25 A2971 RMK SLP049 T02950250 52014 IEM_DS3505
ZGNN,1997-05-19 13:00,ZGNN 191300Z AUTO 34004KT 6SM 27/25 A2974 RMK SLP057 T02700250 IEM_DS3505
ZGNN,1997-05-19 14:00,ZGNN 191400Z AUTO 01002KT 6SM 27/25 A2977 RMK SLP068 T02700250 IEM_DS3505
ZGNN,1997-05-19 15:00,ZGNN 191500Z AUTO 00000KT 16SM 28/24 A2977 RMK SLP070 T02790242 52021 IEM_DS3505
ZGNN,1997-05-19 16:00,ZGNN 191600Z AUTO 00000KT 7SM 27/25 A2977 RMK SLP068 T02700250 IEM_DS3505
ZGNN,1997-05-19 18:00,ZGNN 191800Z AUTO 00000KT 12SM 27/24 A2975 RMK SLP062 T02730239 57008 IEM_DS3505
ZGNN,1997-05-19 21:00,ZGNN 192100Z AUTO 00000KT 12SM 26/23 A2974 RMK 70004 SLP066 T02640231 52004 IEM_DS3505
ZGNN,1997-05-19 22:00,ZGNN 192200Z AUTO 02006KT 5SM 25/24 A2977 RMK SLP069 T02500240 IEM_DS3505
ZGNN,1997-05-19 23:00,ZGNN 192300Z AUTO 03004KT 5SM 24/24 A2980 RMK SLP079 T02400240 IEM_DS3505
ZGNN,1997-05-20 00:00,ZGNN 200000Z AUTO 00000KT 7SM 25/24 A2983 RMK 60110 70110 SLP084 T02470235 52023 IEM_DS3505
ZGNN,1997-05-20 01:00,ZGNN 200100Z AUTO 19006KT 7SM 24/23 A2985 RMK SLP095 T02400230 IEM_DS3505
ZGNN,1997-05-20 02:00,ZGNN 200200Z AUTO 24004KT 7SM 23/22 A2983 RMK SLP089 T02300220 IEM_DS3505
ZGNN,1997-05-20 03:00,ZGNN 200300Z AUTO 09002KT 6SM 26/24 A2983 RMK SLP082 T02550238 57002 IEM_DS3505
ZGNN,1997-05-20 04:00,ZGNN 200400Z AUTO 17002KT 6SM 24/23 A2980 RMK SLP079 T02400230 IEM_DS3505
ZGNN,1997-05-20 05:00,ZGNN 200500Z AUTO 00000KT 5SM 25/23 A2977 RMK SLP069 T02500230 IEM_DS3505
ZGNN,1997-05-20 06:00,ZGNN 200600Z AUTO 00000KT 14SM 28/24 A2977 RMK 60008 SLP065 T02810237 57017 IEM_DS3505
ZGNN,1997-05-20 07:00,ZGNN 200700Z AUTO 34004KT 7SM 26/23 A2974 RMK SLP057 T02600230 IEM_DS3505
ZGNN,1997-05-20 08:00,ZGNN 200800Z AUTO 21004KT 7SM 26/23 A2974 RMK SLP057 T02600230 IEM_DS3505
ZGNN,1997-05-20 09:00,ZGNN 200900Z AUTO 14002KT 16SM 28/24 A2974 RMK SLP051 T02800238 57014 IEM_DS3505
ZGNN,1997-05-20 10:00,ZGNN 201000Z AUTO 25004KT 6SM 27/23 A2971 RMK SLP047 T02700230 IEM_DS3505
ZGNN,1997-05-20 11:00,ZGNN 201100Z AUTO 23004KT 6SM 26/24 A2974 RMK SLP057 T02600240 IEM_DS3505
ZGNN,1997-05-20 12:00,ZGNN 201200Z AUTO 07004KT 16SM 27/23 A2974 RMK SLP061 T02670229 52010 IEM_DS3505
ZGNN,1997-05-20 13:00,ZGNN 201300Z AUTO 00000KT 6SM 25/24 A2977 RMK SLP069 T02500240 IEM_DS3505
ZGNN,1997-05-20 14:00,ZGNN 201400Z AUTO 33004KT 6SM 25/24 A2980 RMK SLP079 T02500240 IEM_DS3505
ZGNN,1997-05-20 15:00,ZGNN 201500Z AUTO 04004KT 14SM 26/23 A2980 RMK SLP078 T02550226 52016 IEM_DS3505
ZGNN,1997-05-20 18:00,ZGNN 201800Z AUTO 07002KT 12SM 25/22 A2977 RMK SLP066 T02530219 57011 IEM_DS3505
ZGNN,1997-05-20 21:00,ZGNN 202100Z AUTO 07004KT 12SM 25/23 A2971 RMK 70118 SLP055 T02490229 57011 IEM_DS3505
ZGNN,1997-05-20 22:00,ZGNN 202200Z AUTO 00000KT 2 1/2SM 24/23 A2974 RMK SLP058 T02400230 IEM_DS3505
ZGNN,1997-05-20 23:00,ZGNN 202300Z AUTO 00000KT 2 1/2SM 24/23 A2974 RMK SLP058 T02400230 IEM_DS3505
ZGNN,1997-05-21 00:00,ZGNN 210000Z AUTO 09002KT 9SM 25/23 A2977 RMK 70008 SLP065 T02530227 52010 IEM_DS3505
ZGNN,1997-05-21 01:00,ZGNN 210100Z AUTO 15006KT 5SM 26/24 A2977 RMK SLP068 T02600240 IEM_DS3505
ZGNN,1997-05-21 02:00,ZGNN 210200Z AUTO 15006KT 5SM 26/24 A2977 RMK SLP068 T02600240 IEM_DS3505
ZGNN,1997-05-21 03:00,ZGNN 210300Z AUTO 00000KT 9SM 26/24 A2977 RMK SLP069 T02650245 52004 IEM_DS3505
ZGNN,1997-05-21 04:00,ZGNN 210400Z AUTO 14010KT 7SM 29/25 A2974 RMK SLP056 T02900250 IEM_DS3505
ZGNN,1997-05-21 05:00,ZGNN 210500Z AUTO 13008KT 7SM 29/25 A2971 RMK SLP046 T02900250 IEM_DS3505
ZGNN,1997-05-21 06:00,ZGNN 210600Z AUTO 09004KT 12SM 29/25 A2968 RMK 60001 SLP042 T02940249 57027 IEM_DS3505
ZGNN,1997-05-21 07:00,ZGNN 210700Z AUTO 15008KT 7SM 30/26 A2968 RMK SLP036 T03000260 IEM_DS3505
ZGNN,1997-05-21 08:00,ZGNN 210800Z AUTO 10008KT 7SM 30/24 A2965 RMK SLP026 T03000240 IEM_DS3505
ZGNN,1997-05-21 09:00,ZGNN 210900Z AUTO 00000KT 19SM 30/26 A2965 RMK SLP023 T03030256 57019 IEM_DS3505
ZGNN,1997-05-21 10:00,ZGNN 211000Z AUTO 12006KT 7SM 30/25 A2965 RMK SLP026 T03000250 IEM_DS3505
ZGNN,1997-05-21 11:00,ZGNN 211100Z AUTO 15008KT 7SM 29/24 A2965 RMK SLP026 T02900240 IEM_DS3505
ZGNN,1997-05-21 12:00,ZGNN 211200Z AUTO 00000KT 19SM 29/25 A2968 RMK 60008 SLP038 T02920254 52015 IEM_DS3505
ZGNN,1997-05-21 13:00,ZGNN 211300Z AUTO 15004KT 7SM 27/25 A2971 RMK SLP047 T02700250 IEM_DS3505
ZGNN,1997-05-21 15:00,ZGNN 211500Z AUTO 07004KT 14SM 26/25 A2974 RMK SLP057 T02600247 52019 IEM_DS3505
ZGNN,1997-05-21 18:00,ZGNN 211800Z AUTO 07002KT 14SM 26/25 A2973 RMK 60008 SLP055 T02590251 57002 IEM_DS3505
ZGNN,1997-05-21 21:00,ZGNN 212100Z AUTO 07006KT 14SM 24/22 A2971 RMK 70016 SLP053 T02380222 57002 IEM_DS3505
ZGNN,1997-05-21 22:00,ZGNN 212200Z AUTO 00000KT 5SM 26/25 A2974 RMK SLP057 T02600250 IEM_DS3505
ZGNN,1997-05-21 23:00,ZGNN 212300Z AUTO 08012KT 3SM 26/25 A2974 RMK SLP057 T02600250 IEM_DS3505
ZGNN,1997-05-22 00:00,ZGNN 220000Z AUTO 32002KT 16SM 21/19 A2980 RMK 70016 SLP081 T02130194 52027 IEM_DS3505
ZGNN,1997-05-22 01:00,ZGNN 220100Z AUTO 35006KT 3SM 20/19 A2983 RMK SLP090 T02000190 IEM_DS3505
ZGNN,1997-05-22 02:00,ZGNN 220200Z AUTO 35010KT 7SM 20/19 A2985 RMK SLP096 T02000190 IEM_DS3505
ZGNN,1997-05-22 03:00,ZGNN 220300Z AUTO 34006KT 16SM 20/19 A2988 RMK SLP111 T02020188 52029 IEM_DS3505
ZGNN,1997-05-22 04:00,ZGNN 220400Z AUTO 34010KT 5SM 20/19 A2988 RMK SLP107 T02000190 IEM_DS3505
ZGNN,1997-05-22 05:00,ZGNN 220500Z AUTO 34008KT 7SM 20/19 A2988 RMK SLP107 T02000190 IEM_DS3505
ZGNN,1997-05-22 06:00,ZGNN 220600Z AUTO 04002KT 19SM 22/18 A2988 RMK 60075 SLP102 T02200182 57008 IEM_DS3505
ZGNN,1997-05-22 07:00,ZGNN 220700Z AUTO 33006KT 7SM 20/18 A2988 RMK SLP107 T02000180 IEM_DS3505
ZGNN,1997-05-22 08:00,ZGNN 220800Z AUTO 34012KT 3SM 19/18 A2985 RMK SLP097 T01900180 IEM_DS3505
ZGNN,1997-05-22 09:00,ZGNN 220900Z AUTO 00000KT 9SM 21/18 A2985 RMK SLP098 T02080183 57005 IEM_DS3505
ZGNN,1997-05-22 10:00,ZGNN 221000Z AUTO 02004KT 7SM 20/18 A2985 RMK SLP096 T02000180 IEM_DS3505
ZGNN,1997-05-22 11:00,ZGNN 221100Z AUTO 01004KT 7SM 20/18 A2988 RMK SLP107 T02000180 IEM_DS3505
ZGNN,1997-05-22 12:00,ZGNN 221200Z AUTO 00000KT 11SM 21/19 A2992 RMK 60008 SLP119 T02080192 52021 IEM_DS3505
ZGNN,1997-05-22 13:00,ZGNN 221300Z AUTO 35006KT 7SM 20/18 A2991 RMK SLP117 T02000180 IEM_DS3505
ZGNN,1997-05-22 14:00,ZGNN 221400Z AUTO 00000KT 7SM 20/18 A2994 RMK SLP128 T02000180 IEM_DS3505
ZGNN,1997-05-22 15:00,ZGNN 221500Z AUTO 00000KT 10SM 21/18 A2996 RMK SLP134 T02090179 52015 IEM_DS3505
ZGNN,1997-05-22 18:00,ZGNN 221800Z AUTO 36004KT 9SM 21/17 A2994 RMK 60000 SLP125 T02080171 57009 IEM_DS3505
ZGNN,1997-05-22 21:00,ZGNN 222100Z AUTO 02002KT 9SM 20/17 A2991 RMK 70083 SLP118 T02050167 57007 IEM_DS3505
ZGNN,1997-05-22 22:00,ZGNN 222200Z AUTO 34004KT 6SM 20/16 A2991 RMK SLP117 T02000160 IEM_DS3505
ZGNN,1997-05-22 23:00,ZGNN 222300Z AUTO 36004KT 6SM 19/16 A2991 RMK SLP118 T01900160 IEM_DS3505
ZGNN,1997-05-23 00:00,ZGNN 230000Z AUTO 22004KT 16SM 22/16 A2994 RMK 70083 SLP127 T02170161 52009 IEM_DS3505
ZGNN,1997-05-23 01:00,ZGNN 230100Z AUTO 35006KT 6SM 22/16 A2994 RMK SLP127 T02200160 IEM_DS3505
ZGNN,1997-05-23 02:00,ZGNN 230200Z AUTO 35008KT 7SM 23/16 A2994 RMK SLP127 T02300160 IEM_DS3505
ZGNN,1997-05-23 03:00,ZGNN 230300Z AUTO 22004KT 19SM 25/16 A2994 RMK SLP131 T02460160 52004 IEM_DS3505
ZGNN,1997-05-23 05:00,ZGNN 230500Z AUTO 02006KT 7SM 25/16 A2991 RMK SLP116 T02500160 IEM_DS3505
ZGNN,1997-05-23 06:00,ZGNN 230600Z AUTO 07004KT 19SM 27/16 A2991 RMK SLP116 T02670165 57014 IEM_DS3505
ZGNN,1997-05-23 07:00,ZGNN 230700Z AUTO 33008KT 7SM 26/16 A2988 RMK SLP106 T02600160 IEM_DS3505
ZGNN,1997-05-23 08:00,ZGNN 230800Z AUTO 35010KT 7SM 26/16 A2985 RMK SLP095 T02600160 IEM_DS3505
ZGNN,1997-05-23 09:00,ZGNN 230900Z AUTO 07006KT 19SM 26/17 A2985 RMK SLP096 T02650170 57020 IEM_DS3505
ZGNN,1997-05-23 10:00,ZGNN 231000Z AUTO 02008KT 6SM 26/16 A2985 RMK SLP095 T02600160 IEM_DS3505
ZGNN,1997-05-23 11:00,ZGNN 231100Z AUTO 02006KT 6SM 25/17 A2985 RMK SLP095 T02500170 IEM_DS3505
ZGNN,1997-05-23 12:00,ZGNN 231200Z AUTO 00000KT 16SM 25/18 A2988 RMK SLP108 T02460176 52011 IEM_DS3505
ZGNN,1997-05-23 13:00,ZGNN 231300Z AUTO 03002KT 6SM 22/18 A2991 RMK SLP117 T02200180 IEM_DS3505
ZGNN,1997-05-23 15:00,ZGNN 231500Z AUTO 00000KT 16SM 22/18 A2994 RMK SLP125 T02200177 52017 IEM_DS3505
ZGNN,1997-05-23 18:00,ZGNN 231800Z AUTO 00000KT 16SM 20/18 A2991 RMK SLP115 T02030179 57009 IEM_DS3505
ZGNN,1997-05-23 21:00,ZGNN 232100Z AUTO 00000KT 11SM 20/19 A2988 RMK SLP110 T01990188 57006 IEM_DS3505
ZGNN,1997-05-23 22:00,ZGNN 232200Z AUTO 00000KT 6SM 19/17 A2988 RMK SLP108 T01900170 IEM_DS3505
ZGNN,1997-05-23 23:00,ZGNN 232300Z AUTO 00000KT 6SM 19/18 A2991 RMK SLP118 T01900180 IEM_DS3505
ZGNN,1997-05-24 00:00,ZGNN 240000Z AUTO 00000KT 7SM 22/19 A2991 RMK SLP119 T02200189 52009 IEM_DS3505
ZGNN,1997-05-24 01:00,ZGNN 240100Z AUTO 36006KT 6SM 23/16 A2991 RMK SLP117 T02300160 IEM_DS3505
ZGNN,1997-05-24 02:00,ZGNN 240200Z AUTO 01006KT 6SM 25/17 A2994 RMK SLP126 T02500170 IEM_DS3505
ZGNN,1997-05-24 03:00,ZGNN 240300Z AUTO 36002KT 12SM 26/17 A2991 RMK SLP120 T02650171 52002 IEM_DS3505
ZGNN,1997-05-24 04:00,ZGNN 240400Z AUTO 03008KT 7SM 26/15 A2991 RMK SLP116 T02600150 IEM_DS3505
ZGNN,1997-05-24 05:00,ZGNN 240500Z AUTO 02006KT 7SM 27/16 A2988 RMK SLP105 T02700160 IEM_DS3505
ZGNN,1997-05-24 06:00,ZGNN 240600Z AUTO 04006KT 12SM 28/17 A2988 RMK SLP102 T02770171 57018 IEM_DS3505
ZGNN,1997-05-24 07:00,ZGNN 240700Z AUTO 06004KT 6SM 28/18 A2985 RMK SLP094 T02800180 IEM_DS3505
ZGNN,1997-05-24 08:00,ZGNN 240800Z AUTO 06006KT 7SM 27/17 A2983 RMK SLP088 T02700170 IEM_DS3505
ZGNN,1997-05-24 09:00,ZGNN 240900Z AUTO 07004KT 14SM 28/17 A2983 RMK SLP084 T02830173 57018 IEM_DS3505
ZGNN,1997-05-24 10:00,ZGNN 241000Z AUTO 06006KT 6SM 27/17 A2983 RMK SLP088 T02700170 IEM_DS3505
ZGNN,1997-05-24 11:00,ZGNN 241100Z AUTO 00000KT 6SM 26/18 A2983 RMK SLP088 T02600180 IEM_DS3505
ZGNN,1997-05-24 12:00,ZGNN 241200Z AUTO 00000KT 14SM 26/19 A2983 RMK SLP091 T02580194 52007 IEM_DS3505
ZGNN,1997-05-24 13:00,ZGNN 241300Z AUTO 08004KT 6SM 23/20 A2985 RMK SLP095 T02300200 IEM_DS3505
ZGNN,1997-05-24 15:00,ZGNN 241500Z AUTO 00000KT 12SM 23/20 A2989 RMK SLP108 T02340204 52017 IEM_DS3505
ZGNN,1997-05-24 18:00,ZGNN 241800Z AUTO 00000KT 12SM 22/20 A2988 RMK SLP104 T02230200 57004 IEM_DS3505
ZGNN,1997-05-24 21:00,ZGNN 242100Z AUTO 00000KT 9SM 21/20 A2985 RMK SLP095 T02110197 57009 IEM_DS3505
ZGNN,1997-05-24 22:00,ZGNN 242200Z AUTO 00000KT 4SM 19/19 A2985 RMK SLP097 T01900190 IEM_DS3505
ZGNN,1997-05-24 23:00,ZGNN 242300Z AUTO 00000KT 3SM 19/19 A2988 RMK SLP108 T01900190 IEM_DS3505
ZGNN,1997-05-25 00:00,ZGNN 250000Z AUTO 00000KT 4SM 22/20 A2988 RMK SLP105 T02230205 52010 IEM_DS3505
ZGNN,1997-05-25 01:00,ZGNN 250100Z AUTO 16004KT 3SM 24/21 A2988 RMK SLP106 T02400210 IEM_DS3505
ZGNN,1997-05-25 02:00,ZGNN 250200Z AUTO 19004KT 4SM 26/20 A2988 RMK SLP106 T02600200 IEM_DS3505
ZGNN,1997-05-25 03:00,ZGNN 250300Z AUTO 16002KT 7SM 28/20 A2988 RMK SLP106 T02750201 52001 IEM_DS3505
ZGNN,1997-05-25 04:00,ZGNN 250400Z AUTO 31002KT 7SM 28/19 A2985 RMK SLP094 T02800190 IEM_DS3505
ZGNN,1997-05-25 05:00,ZGNN 250500Z AUTO 17004KT 7SM 29/19 A2985 RMK SLP094 T02900190 IEM_DS3505
ZGNN,1997-05-25 06:00,ZGNN 250600Z AUTO 25004KT 12SM 30/19 A2982 RMK SLP086 T03000189 57019 IEM_DS3505
ZGNN,1997-05-25 07:00,ZGNN 250700Z AUTO 06006KT 7SM 30/18 A2980 RMK SLP077 T03000180 IEM_DS3505
ZGNN,1997-05-25 08:00,ZGNN 250800Z AUTO 09004KT 7SM 30/18 A2980 RMK SLP077 T03000180 IEM_DS3505
ZGNN,1997-05-25 09:00,ZGNN 250900Z AUTO 07002KT 16SM 30/18 A2977 RMK SLP069 T03050182 57017 IEM_DS3505
ZGNN,1997-05-25 10:00,ZGNN 251000Z AUTO 10004KT 6SM 30/18 A2977 RMK SLP067 T03000180 IEM_DS3505
ZGNN,1997-05-25 11:00,ZGNN 251100Z AUTO 00000KT 6SM 29/20 A2977 RMK SLP067 T02900200 IEM_DS3505
ZGNN,1997-05-25 12:00,ZGNN 251200Z AUTO 00000KT 16SM 28/21 A2980 RMK SLP077 T02750209 52007 IEM_DS3505
ZGNN,1997-05-25 13:00,ZGNN 251300Z AUTO 36004KT 6SM 24/22 A2980 RMK SLP079 T02400220 IEM_DS3505
ZGNN,1997-05-25 15:00,ZGNN 251500Z AUTO 00000KT 16SM 26/21 A2984 RMK SLP091 T02550207 52015 IEM_DS3505
ZGNN,1997-05-25 18:00,ZGNN 251800Z AUTO 07002KT 16SM 24/21 A2982 RMK SLP084 T02430208 57007 IEM_DS3505
ZGNN,1997-05-25 21:00,ZGNN 252100Z AUTO 04004KT 9SM 23/21 A2980 RMK SLP079 T02270206 57005 IEM_DS3505
ZGNN,1997-05-25 22:00,ZGNN 252200Z AUTO 00000KT 3SM 21/20 A2980 RMK SLP080 T02100200 IEM_DS3505
ZGNN,1997-05-25 23:00,ZGNN 252300Z AUTO 00000KT 2 1/2SM 22/21 A2983 RMK SLP090 T02200210 IEM_DS3505
ZGNN,1997-05-26 00:00,ZGNN 260000Z AUTO 04002KT 9SM 24/20 A2985 RMK SLP093 T02350200 52013 IEM_DS3505
ZGNN,1997-05-26 01:00,ZGNN 260100Z AUTO 00000KT 3SM 24/21 A2985 RMK SLP095 T02400210 IEM_DS3505
ZGNN,1997-05-26 02:00,ZGNN 260200Z AUTO 19006KT 4SM 26/21 A2985 RMK SLP095 T02600210 IEM_DS3505
ZGNN,1997-05-26 03:00,ZGNN 260300Z AUTO 25004KT 11SM 28/22 A2985 RMK SLP093 T02830220 52001 IEM_DS3505
ZGNN,1997-05-26 04:00,ZGNN 260400Z AUTO 22004KT 7SM 29/21 A2983 RMK SLP088 T02900210 IEM_DS3505
ZGNN,1997-05-26 05:00,ZGNN 260500Z AUTO 21004KT 7SM 30/20 A2980 RMK SLP077 T03000200 IEM_DS3505
ZGNN,1997-05-26 06:00,ZGNN 260600Z AUTO 22002KT 12SM 31/20 A2977 RMK SLP069 T03120202 57024 IEM_DS3505
ZGNN,1997-05-26 07:00,ZGNN 260700Z AUTO 10004KT 7SM 31/21 A2977 RMK SLP067 T03100210 IEM_DS3505
ZGNN,1997-05-26 08:00,ZGNN 260800Z AUTO 12006KT 6SM 31/20 A2974 RMK SLP056 T03100200 IEM_DS3505
ZGNN,1997-05-26 09:00,ZGNN 260900Z AUTO 20002KT 12SM 32/21 A2971 RMK SLP045 T03170213 57024 IEM_DS3505
ZGNN,1997-05-26 10:00,ZGNN 261000Z AUTO 16008KT 6SM 31/21 A2971 RMK SLP046 T03100210 IEM_DS3505
ZGNN,1997-05-26 11:00,ZGNN 261100Z AUTO 15008KT 6SM 29/20 A2971 RMK SLP046 T02900200 IEM_DS3505
ZGNN,1997-05-26 12:00,ZGNN 261200Z AUTO 16002KT 12SM 29/21 A2974 RMK SLP051 T02940208 52006 IEM_DS3505
ZGNN,1997-05-26 13:00,ZGNN 261300Z AUTO 17004KT 6SM 26/20 A2974 RMK SLP057 T02600200 IEM_DS3505
ZGNN,1997-05-26 15:00,ZGNN 261500Z AUTO 25004KT 12SM 27/18 A2979 RMK SLP074 T02670185 52023 IEM_DS3505
ZGNN,1997-05-26 18:00,ZGNN 261800Z AUTO 07004KT 11SM 25/18 A2978 RMK SLP072 T02480179 57002 IEM_DS3505
ZGNN,1997-05-26 21:00,ZGNN 262100Z AUTO 00000KT 11SM 23/20 A2974 RMK SLP065 T02290195 57007 IEM_DS3505
ZGNN,1997-05-26 22:00,ZGNN 262200Z AUTO 03004KT 6SM 22/18 A2977 RMK SLP069 T02200180 IEM_DS3505
ZGNN,1997-05-26 23:00,ZGNN 262300Z AUTO 01004KT 6SM 22/19 A2977 RMK SLP069 T02200190 IEM_DS3505
ZGNN,1997-05-27 00:00,ZGNN 270000Z AUTO 07004KT 7SM 24/20 A2977 RMK SLP071 T02410205 52006 IEM_DS3505
ZGNN,1997-05-27 01:00,ZGNN 270100Z AUTO 19004KT 6SM 26/21 A2977 RMK SLP068 T02600210 IEM_DS3505
ZGNN,1997-05-27 02:00,ZGNN 270200Z AUTO 13004KT 6SM 28/20 A2977 RMK SLP068 T02800200 IEM_DS3505
ZGNN,1997-05-27 03:00,ZGNN 270300Z AUTO 09002KT 12SM 28/23 A2977 RMK SLP069 T02840227 57002 IEM_DS3505
ZGNN,1997-05-27 04:00,ZGNN 270400Z AUTO 18004KT 6SM 29/20 A2974 RMK SLP056 T02900200 IEM_DS3505
ZGNN,1997-05-27 05:00,ZGNN 270500Z AUTO 14004KT 6SM 30/21 A2971 RMK SLP046 T03000210 IEM_DS3505
ZGNN,1997-05-27 06:00,ZGNN 270600Z AUTO 09006KT 19SM 31/22 A2968 RMK SLP043 T03120215 57026 IEM_DS3505
ZGNN,1997-05-27 07:00,ZGNN 270700Z AUTO 27004KT 6SM 31/20 A2968 RMK SLP036 T03100200 IEM_DS3505
ZGNN,1997-05-27 08:00,ZGNN 270800Z AUTO 00000KT 6SM 32/21 A2965 RMK SLP025 T03200210 IEM_DS3505
ZGNN,1997-05-27 09:00,ZGNN 270900Z AUTO 07004KT 19SM 32/22 A2962 RMK SLP023 T03240223 57020 IEM_DS3505
ZGNN,1997-05-27 10:00,ZGNN 271000Z AUTO 15008KT 6SM 30/22 A2962 RMK SLP016 T03000220 IEM_DS3505
ZGNN,1997-05-27 11:00,ZGNN 271100Z AUTO 16008KT 6SM 29/22 A2965 RMK SLP026 T02900220 IEM_DS3505
ZGNN,1997-05-27 12:00,ZGNN 271200Z AUTO 22004KT 14SM 30/23 A2968 RMK SLP032 T02960228 52009 IEM_DS3505
ZGNN,1997-05-27 13:00,ZGNN 271300Z AUTO 13006KT 6SM 27/22 A2968 RMK SLP037 T02700220 IEM_DS3505
ZGNN,1997-05-27 15:00,ZGNN 271500Z AUTO 00000KT 12SM 27/23 A2971 RMK SLP048 T02690227 52016 IEM_DS3505
ZGNN,1997-05-27 18:00,ZGNN 271800Z AUTO 04002KT 12SM 26/23 A2972 RMK SLP051 T02650227 52004 IEM_DS3505
ZGNN,1997-05-27 21:00,ZGNN 272100Z AUTO 07002KT 9SM 26/24 A2970 RMK SLP045 T02580238 57006 IEM_DS3505
ZGNN,1997-05-28 00:00,ZGNN 280000Z AUTO 07004KT 9SM 26/24 A2974 RMK SLP059 T02620238 52013 IEM_DS3505
ZGNN,1997-05-28 01:00,ZGNN 280100Z AUTO 04002KT 6SM 26/24 A2974 RMK SLP057 T02600240 IEM_DS3505
ZGNN,1997-05-28 02:00,ZGNN 280200Z AUTO 00000KT 7SM 27/24 A2974 RMK SLP057 T02700240 IEM_DS3505
ZGNN,1997-05-28 03:00,ZGNN 280300Z AUTO 32006KT 12SM 25/22 A2977 RMK SLP065 T02490215 52006 IEM_DS3505
ZGNN,1997-05-28 04:00,ZGNN 280400Z AUTO 32017KT 7SM 23/21 A2974 RMK SLP058 T02300210 IEM_DS3505
ZGNN,1997-05-28 05:00,ZGNN 280500Z AUTO 34016KT 7SM 24/22 A2974 RMK SLP058 T02400220 IEM_DS3505
ZGNN,1997-05-28 06:00,ZGNN 280600Z AUTO 02006KT 9SM 23/20 A2974 RMK 60000 SLP065 T02310204 57001 IEM_DS3505
ZGNN,1997-05-28 07:00,ZGNN 280700Z AUTO 02008KT 7SM 24/20 A2974 RMK SLP058 T02400200 IEM_DS3505
ZGNN,1997-05-28 08:00,ZGNN 280800Z AUTO 36008KT 7SM 24/20 A2974 RMK SLP058 T02400200 IEM_DS3505
ZGNN,1997-05-28 09:00,ZGNN 280900Z AUTO 36006KT 16SM 24/20 A2974 RMK SLP054 T02440200 57011 IEM_DS3505
ZGNN,1997-05-28 10:00,ZGNN 281000Z AUTO 34006KT 7SM 25/20 A2974 RMK SLP058 T02500200 IEM_DS3505
ZGNN,1997-05-28 11:00,ZGNN 281100Z AUTO 34008KT 7SM 24/19 A2977 RMK SLP069 T02400190 IEM_DS3505
ZGNN,1997-05-28 12:00,ZGNN 281200Z AUTO 34004KT 16SM 24/20 A2980 RMK 60000 SLP074 T02450199 52020 IEM_DS3505
ZGNN,1997-05-28 13:00,ZGNN 281300Z AUTO 36008KT 7SM 24/19 A2980 RMK SLP079 T02400190 IEM_DS3505
ZGNN,1997-05-28 15:00,ZGNN 281500Z AUTO 36002KT 12SM 24/19 A2983 RMK SLP090 T02350192 52016 IEM_DS3505
ZGNN,1997-05-28 18:00,ZGNN 281800Z AUTO 34004KT 12SM 23/19 A2979 RMK SLP076 T02330189 57014 IEM_DS3505
ZGNN,1997-05-28 21:00,ZGNN 282100Z AUTO 00000KT 12SM 23/19 A2977 RMK 70001 SLP071 T02310189 57005 IEM_DS3505
ZGNN,1997-05-28 22:00,ZGNN 282200Z AUTO 01004KT 7SM 22/20 A2977 RMK SLP069 T02200200 IEM_DS3505
ZGNN,1997-05-28 23:00,ZGNN 282300Z AUTO 04004KT 7SM 22/19 A2980 RMK SLP080 T02200190 IEM_DS3505
ZGNN,1997-05-29 00:00,ZGNN 290000Z AUTO 09004KT 12SM 22/19 A2980 RMK 60001 70002 SLP081 T02200194 52010 IEM_DS3505
ZGNN,1997-05-29 01:00,ZGNN 290100Z AUTO 08004KT 7SM 22/19 A2983 RMK SLP090 T02200190 IEM_DS3505
ZGNN,1997-05-29 02:00,ZGNN 290200Z AUTO 12002KT 7SM 23/19 A2983 RMK SLP089 T02300190 IEM_DS3505
ZGNN,1997-05-29 03:00,ZGNN 290300Z AUTO 07002KT 19SM 24/18 A2983 RMK SLP088 T02350185 52007 IEM_DS3505
ZGNN,1997-05-29 04:00,ZGNN 290400Z AUTO 07004KT 7SM 24/19 A2980 RMK SLP079 T02400190 IEM_DS3505
ZGNN,1997-05-29 05:00,ZGNN 290500Z AUTO 07006KT 7SM 25/21 A2980 RMK SLP079 T02500210 IEM_DS3505
ZGNN,1997-05-29 06:00,ZGNN 290600Z AUTO 09004KT 12SM 24/18 A2980 RMK SLP078 T02410183 57010 IEM_DS3505
ZGNN,1997-05-29 07:00,ZGNN 290700Z AUTO 04006KT 7SM 25/18 A2977 RMK SLP069 T02500180 IEM_DS3505
ZGNN,1997-05-29 08:00,ZGNN 290800Z AUTO 07006KT 7SM 25/19 A2977 RMK SLP069 T02500190 IEM_DS3505
ZGNN,1997-05-29 09:00,ZGNN 290900Z AUTO 09004KT 16SM 25/20 A2974 RMK SLP064 T02470195 57014 IEM_DS3505
ZGNN,1997-05-29 10:00,ZGNN 291000Z AUTO 08008KT 7SM 24/20 A2977 RMK SLP069 T02400200 IEM_DS3505
ZGNN,1997-05-29 11:00,ZGNN 291100Z AUTO 09006KT 7SM 23/19 A2977 RMK SLP069 T02300190 IEM_DS3505
ZGNN,1997-05-29 12:00,ZGNN 291200Z AUTO 09002KT 19SM 23/19 A2980 RMK SLP075 T02300194 52011 IEM_DS3505
ZGNN,1997-05-29 13:00,ZGNN 291300Z AUTO 00000KT 7SM 22/20 A2980 RMK SLP080 T02200200 IEM_DS3505
ZGNN,1997-05-29 15:00,ZGNN 291500Z AUTO 04002KT 16SM 22/20 A2982 RMK SLP088 T02180196 52013 IEM_DS3505
ZGNN,1997-05-29 18:00,ZGNN 291800Z AUTO 00000KT 12SM 22/20 A2982 RMK SLP084 T02210195 57004 IEM_DS3505
ZGNN,1997-05-29 21:00,ZGNN 292100Z AUTO 34002KT 12SM 22/20 A2983 RMK 70001 SLP087 T02230200 52003 IEM_DS3505
ZGNN,1997-05-29 22:00,ZGNN 292200Z AUTO 00000KT 4SM 21/20 A2983 RMK SLP090 T02100200 IEM_DS3505
ZGNN,1997-05-29 23:00,ZGNN 292300Z AUTO 00000KT 6SM 21/19 A2985 RMK SLP096 T02100190 IEM_DS3505
ZGNN,1997-05-30 00:00,ZGNN 300000Z AUTO 00000KT 11SM 24/20 A2985 RMK SLP102 T02430202 52015 IEM_DS3505
ZGNN,1997-05-30 01:00,ZGNN 300100Z AUTO 13002KT 6SM 25/19 A2988 RMK SLP106 T02500190 IEM_DS3505
ZGNN,1997-05-30 02:00,ZGNN 300200Z AUTO 11006KT 7SM 26/19 A2985 RMK SLP095 T02600190 IEM_DS3505
ZGNN,1997-05-30 03:00,ZGNN 300300Z AUTO 00000KT 12SM 28/19 A2985 RMK SLP099 T02790190 57003 IEM_DS3505
ZGNN,1997-05-30 04:00,ZGNN 300400Z AUTO 35004KT 7SM 28/20 A2985 RMK SLP094 T02800200 IEM_DS3505
ZGNN,1997-05-30 05:00,ZGNN 300500Z AUTO 05004KT 7SM 29/20 A2983 RMK SLP088 T02900200 IEM_DS3505
ZGNN,1997-05-30 06:00,ZGNN 300600Z AUTO 14004KT 12SM 28/22 A2983 RMK 60000 SLP079 T02850219 57015 IEM_DS3505
ZGNN,1997-05-30 07:00,ZGNN 300700Z AUTO 05006KT 7SM 31/18 A2980 RMK SLP077 T03100180 IEM_DS3505
ZGNN,1997-05-30 08:00,ZGNN 300800Z AUTO 00000KT 7SM 31/18 A2977 RMK SLP067 T03100180 IEM_DS3505
ZGNN,1997-05-30 09:00,ZGNN 300900Z AUTO 09002KT 19SM 32/20 A2977 RMK SLP061 T03220198 57020 IEM_DS3505
ZGNN,1997-05-30 10:00,ZGNN 301000Z AUTO 13006KT 6SM 31/19 A2974 RMK SLP056 T03100190 IEM_DS3505
ZGNN,1997-05-30 11:00,ZGNN 301100Z AUTO 00000KT 6SM 29/20 A2977 RMK SLP067 T02900200 IEM_DS3505
ZGNN,1997-05-30 12:00,ZGNN 301200Z AUTO 00000KT 19SM 29/21 A2977 RMK SLP065 T02890212 52004 IEM_DS3505
ZGNN,1997-05-30 13:00,ZGNN 301300Z AUTO 00000KT 6SM 26/23 A2980 RMK SLP078 T02600230 IEM_DS3505
ZGNN,1997-05-30 15:00,ZGNN 301500Z AUTO 00000KT 16SM 27/22 A2983 RMK SLP087 T02670218 52022 IEM_DS3505
ZGNN,1997-05-30 18:00,ZGNN 301800Z AUTO 00000KT 16SM 24/20 A2981 RMK SLP081 T02390198 57006 IEM_DS3505
ZGNN,1997-05-30 21:00,ZGNN 302100Z AUTO 04002KT 12SM 22/20 A2980 RMK SLP077 T02230195 57004 IEM_DS3505
ZGNN,1997-05-30 22:00,ZGNN 302200Z AUTO 00000KT 6SM 22/21 A2980 RMK SLP080 T02200210 IEM_DS3505
ZGNN,1997-05-30 23:00,ZGNN 302300Z AUTO 00000KT 6SM 23/21 A2983 RMK SLP089 T02300210 IEM_DS3505
ZGNN,1997-05-31 00:00,ZGNN 310000Z AUTO 00000KT 9SM 24/19 A2983 RMK SLP089 T02420191 52012 IEM_DS3505
ZGNN,1997-05-31 01:00,ZGNN 310100Z AUTO 13004KT 6SM 25/22 A2983 RMK SLP089 T02500220 IEM_DS3505
ZGNN,1997-05-31 02:00,ZGNN 310200Z AUTO 15006KT 6SM 27/22 A2983 RMK SLP088 T02700220 IEM_DS3505
ZGNN,1997-05-31 03:00,ZGNN 310300Z AUTO 22004KT 11SM 29/22 A2983 RMK SLP082 T02880222 57007 IEM_DS3505
ZGNN,1997-05-31 04:00,ZGNN 310400Z AUTO 15006KT 7SM 30/22 A2980 RMK SLP077 T03000220 IEM_DS3505
ZGNN,1997-05-31 05:00,ZGNN 310500Z AUTO 19008KT 7SM 31/22 A2977 RMK SLP067 T03100220 IEM_DS3505
ZGNN,1997-05-31 06:00,ZGNN 310600Z AUTO 16006KT 7SM 30/22 A2974 RMK SLP056 T03000220 IEM_DS3505
ZGNN,1997-05-31 07:00,ZGNN 310700Z AUTO 16006KT 7SM 31/21 A2971 RMK SLP046 T03100210 IEM_DS3505
ZGNN,1997-05-31 08:00,ZGNN 310800Z AUTO 13006KT 6SM 31/21 A2971 RMK SLP046 T03100210 IEM_DS3505
ZGNN,1997-05-31 09:00,ZGNN 310900Z AUTO 27004KT 16SM 33/22 A2968 RMK SLP034 T03260217 57025 IEM_DS3505
ZGNN,1997-05-31 11:00,ZGNN 311100Z AUTO 14008KT 6SM 29/21 A2968 RMK SLP036 T02900210 IEM_DS3505
ZGNN,1997-05-31 12:00,ZGNN 311200Z AUTO 00000KT 16SM 30/20 A2968 RMK SLP038 T02950202 52004 IEM_DS3505
ZGNN,1997-05-31 13:00,ZGNN 311300Z AUTO 16006KT 6SM 27/19 A2971 RMK SLP047 T02700190 IEM_DS3505
ZGNN,1997-05-31 15:00,ZGNN 311500Z AUTO 25004KT 12SM 27/19 A2973 RMK SLP055 T02670194 52017 IEM_DS3505
ZGNN,1997-05-31 18:00,ZGNN 311800Z AUTO 00000KT 11SM 25/21 A2973 RMK SLP055 T02490207 54000 IEM_DS3505
ZGNN,1997-05-31 21:00,ZGNN 312100Z AUTO 00000KT 11SM 24/23 A2971 RMK SLP052 T02440228 57003 IEM_DS3505
ZGNN,1997-05-31 22:00,ZGNN 312200Z AUTO 36004KT 6SM 22/21 A2974 RMK SLP058 T02200210 IEM_DS3505
ZGNN,1997-05-31 23:00,ZGNN 312300Z AUTO 04004KT 6SM 23/22 A2974 RMK SLP058 T02300220 IEM_DS3505
ZGNN,1997-06-01 00:00,ZGNN 010000Z AUTO 09004KT 9SM 26/23 A2974 RMK SLP062 T02590233 52010 IEM_DS3505
ZGNN,1997-06-01 01:00,ZGNN 010100Z AUTO 00000KT 6SM 27/22 A2974 RMK SLP057 T02700220 IEM_DS3505
ZGNN,1997-06-01 02:00,ZGNN 010200Z AUTO 14006KT 6SM 28/22 A2974 RMK SLP057 T02800220 IEM_DS3505
ZGNN,1997-06-01 03:00,ZGNN 010300Z AUTO 20002KT 19SM 30/22 A2974 RMK SLP054 T02970215 57008 IEM_DS3505
ZGNN,1997-06-01 04:00,ZGNN 010400Z AUTO 18004KT 6SM 31/20 A2971 RMK SLP046 T03100200 IEM_DS3505
ZGNN,1997-06-01 05:00,ZGNN 010500Z AUTO 08006KT 6SM 32/21 A2971 RMK SLP045 T03200210 IEM_DS3505
ZGNN,1997-06-01 06:00,ZGNN 010600Z AUTO 20006KT 17SM 34/22 A2968 RMK SLP034 T03370220 57019 IEM_DS3505
ZGNN,1997-06-01 07:00,ZGNN 010700Z AUTO 14004KT 7SM 33/23 A2965 RMK SLP025 T03300230 IEM_DS3505
ZGNN,1997-06-01 08:00,ZGNN 010800Z AUTO 19004KT 7SM 33/23 A2965 RMK SLP025 T03300230 IEM_DS3505
ZGNN,1997-06-01 09:00,ZGNN 010900Z AUTO 16002KT 16SM 33/26 A2962 RMK SLP015 T03280256 57019 IEM_DS3505
ZGNN,1997-06-01 10:00,ZGNN 011000Z AUTO 15012KT 7SM 30/25 A2962 RMK SLP016 T03000250 IEM_DS3505
ZGNN,1997-06-01 11:00,ZGNN 011100Z AUTO 15008KT 6SM 29/25 A2962 RMK SLP016 T02900250 IEM_DS3505
ZGNN,1997-06-01 12:00,ZGNN 011200Z AUTO 20002KT 17SM 29/24 A2965 RMK 60002 SLP027 T02900245 52011 IEM_DS3505
ZGNN,1997-06-01 13:00,ZGNN 011300Z AUTO 14006KT 6SM 27/24 A2968 RMK SLP037 T02700240 IEM_DS3505
ZGNN,1997-06-01 15:00,ZGNN 011500Z AUTO 09004KT 17SM 28/25 A2969 RMK SLP039 T02750247 52013 IEM_DS3505
ZGNN,1997-06-01 18:00,ZGNN 011800Z AUTO 11004KT 16SM 27/25 A2967 RMK SLP033 T02700249 57006 IEM_DS3505
ZGNN,1997-06-01 21:00,ZGNN 012100Z AUTO 04002KT 16SM 26/24 A2965 RMK 70002 SLP026 T02650245 57007 IEM_DS3505
ZGNN,1997-06-01 22:00,ZGNN 012200Z AUTO 13004KT 7SM 25/24 A2965 RMK SLP027 T02500240 IEM_DS3505
ZGNN,1997-06-01 23:00,ZGNN 012300Z AUTO 14004KT 7SM 26/24 A2965 RMK SLP027 T02600240 IEM_DS3505
ZGNN,1997-06-02 00:00,ZGNN 020000Z AUTO 00000KT 12SM 27/25 A2965 RMK 70002 SLP033 T02710248 52006 IEM_DS3505
ZGNN,1997-06-02 01:00,ZGNN 020100Z AUTO 16008KT 7SM 28/25 A2968 RMK SLP037 T02800250 IEM_DS3505
ZGNN,1997-06-02 02:00,ZGNN 020200Z AUTO 16008KT 7SM 30/24 A2968 RMK SLP036 T03000240 IEM_DS3505
ZGNN,1997-06-02 03:00,ZGNN 020300Z AUTO 09002KT 12SM 30/25 A2968 RMK SLP042 T03010252 52010 IEM_DS3505
ZGNN,1997-06-02 04:00,ZGNN 020400Z AUTO 15004KT 7SM 32/24 A2968 RMK SLP035 T03200240 IEM_DS3505
ZGNN,1997-06-02 05:00,ZGNN 020500Z AUTO 15008KT 7SM 32/24 A2965 RMK SLP025 T03200240 IEM_DS3505
ZGNN,1997-06-02 06:00,ZGNN 020600Z AUTO 20004KT 19SM 33/26 A2962 RMK 60000 SLP021 T03330257 57021 IEM_DS3505
ZGNN,1997-06-02 07:00,ZGNN 020700Z AUTO 17012KT 7SM 32/25 A2962 RMK SLP015 T03200250 IEM_DS3505
ZGNN,1997-06-02 08:00,ZGNN 020800Z AUTO 16010KT 7SM 33/24 A2959 RMK SLP005 T03300240 IEM_DS3505
ZGNN,1997-06-02 09:00,ZGNN 020900Z AUTO 02002KT 19SM 30/26 A2959 RMK SLP005 T02950259 57016 IEM_DS3505
ZGNN,1997-06-02 10:00,ZGNN 021000Z AUTO 13010KT 7SM 31/25 A2959 RMK SLP005 T03100250 IEM_DS3505
ZGNN,1997-06-02 11:00,ZGNN 021100Z AUTO 13008KT 7SM 30/25 A2962 RMK SLP016 T03000250 IEM_DS3505
ZGNN,1997-06-02 12:00,ZGNN 021200Z AUTO 18002KT 19SM 29/25 A2962 RMK 60016 SLP020 T02930252 52015 IEM_DS3505
ZGNN,1997-06-02 13:00,ZGNN 021300Z AUTO 13008KT 7SM 28/24 A2965 RMK SLP026 T02800240 IEM_DS3505
ZGNN,1997-06-02 15:00,ZGNN 021500Z AUTO 09004KT 19SM 28/25 A2968 RMK SLP038 T02780248 52018 IEM_DS3505
ZGNN,1997-06-02 18:00,ZGNN 021800Z AUTO 07002KT 16SM 27/25 A2966 RMK SLP031 T02680250 57007 IEM_DS3505
ZGNN,1997-06-02 21:00,ZGNN 022100Z AUTO 07004KT 16SM 27/25 A2965 RMK 70016 SLP034 T02660249 52002 IEM_DS3505
ZGNN,1997-06-02 22:00,ZGNN 022200Z AUTO 05004KT 4SM 26/25 A2968 RMK SLP037 T02600250 IEM_DS3505
ZGNN,1997-06-02 23:00,ZGNN 022300Z AUTO 06004KT 4SM 26/25 A2968 RMK SLP037 T02600250 IEM_DS3505
ZGNN,1997-06-03 00:00,ZGNN 030000Z AUTO 07004KT 14SM 27/25 A2971 RMK 70016 SLP045 T02730253 52011 IEM_DS3505
ZGNN,1997-06-03 01:00,ZGNN 030100Z AUTO 10006KT 7SM 28/25 A2971 RMK SLP047 T02800250 IEM_DS3505
ZGNN,1997-06-03 02:00,ZGNN 030200Z AUTO 00000KT 7SM 29/25 A2971 RMK SLP046 T02900250 IEM_DS3505
ZGNN,1997-06-03 03:00,ZGNN 030300Z AUTO 07004KT 16SM 30/26 A2974 RMK SLP053 T02990257 52009 IEM_DS3505
ZGNN,1997-06-03 04:00,ZGNN 030400Z AUTO 11008KT 7SM 32/26 A2971 RMK SLP045 T03200260 IEM_DS3505
ZGNN,1997-06-03 05:00,ZGNN 030500Z AUTO 13012KT 7SM 32/26 A2971 RMK SLP045 T03200260 IEM_DS3505
ZGNN,1997-06-03 06:00,ZGNN 030600Z AUTO 07006KT 19SM 33/26 A2968 RMK SLP038 T03320263 57015 IEM_DS3505
ZGNN,1997-06-03 07:00,ZGNN 030700Z AUTO 15010KT 7SM 34/26 A2965 RMK SLP025 T03400260 IEM_DS3505
ZGNN,1997-06-03 08:00,ZGNN 030800Z AUTO 17014KT 7SM 32/25 A2965 RMK SLP025 T03200250 IEM_DS3505
ZGNN,1997-06-03 09:00,ZGNN 030900Z AUTO 20006KT 19SM 32/26 A2965 RMK SLP023 T03250259 57015 IEM_DS3505
ZGNN,1997-06-03 10:00,ZGNN 031000Z AUTO 24004KT 7SM 30/25 A2962 RMK SLP016 T03000250 IEM_DS3505
ZGNN,1997-06-03 11:00,ZGNN 031100Z AUTO 09008KT 7SM 30/25 A2968 RMK SLP036 T03000250 IEM_DS3505
ZGNN,1997-06-03 12:00,ZGNN 031200Z AUTO 02002KT 19SM 28/25 A2971 RMK 60000 SLP046 T02780251 52022 IEM_DS3505
ZGNN,1997-06-03 13:00,ZGNN 031300Z AUTO 00000KT 6SM 28/25 A2974 RMK SLP057 T02800250 IEM_DS3505
ZGNN,1997-06-03 15:00,ZGNN 031500Z AUTO 07002KT 16SM 27/26 A2977 RMK SLP072 T02740256 52026 IEM_DS3505
ZGNN,1997-06-03 16:00,ZGNN 031600Z AUTO 03004KT 7SM 27/25 A2977 RMK SLP068 T02700250 IEM_DS3505
ZGNN,1997-06-03 17:00,ZGNN 031700Z AUTO 02004KT 7SM 26/25 A2977 RMK SLP068 T02600250 IEM_DS3505
ZGNN,1997-06-03 18:00,ZGNN 031800Z AUTO 02002KT 16SM 27/25 A2977 RMK SLP065 T02670254 57006 IEM_DS3505
ZGNN,1997-06-03 21:00,ZGNN 032100Z AUTO 07002KT 14SM 26/25 A2974 RMK 70001 SLP056 T02630247 57009 IEM_DS3505
ZGNN,1997-06-03 22:00,ZGNN 032200Z AUTO 05004KT 4SM 26/25 A2977 RMK SLP068 T02600250 IEM_DS3505
ZGNN,1997-06-03 23:00,ZGNN 032300Z AUTO 00000KT 4SM 26/25 A2977 RMK SLP068 T02600250 IEM_DS3505
ZGNN,1997-06-04 00:00,ZGNN 040000Z AUTO 07004KT 11SM 27/25 A2980 RMK 70001 SLP072 T02730250 52015 IEM_DS3505
ZGNN,1997-06-04 01:00,ZGNN 040100Z AUTO 00000KT 4SM 27/25 A2980 RMK SLP078 T02700250 IEM_DS3505
ZGNN,1997-06-04 02:00,ZGNN 040200Z AUTO 14004KT 7SM 29/25 A2980 RMK SLP078 T02900250 IEM_DS3505
ZGNN,1997-06-04 03:00,ZGNN 040300Z AUTO 16002KT 12SM 30/26 A2980 RMK SLP072 T03030257 54000 IEM_DS3505
ZGNN,1997-06-04 04:00,ZGNN 040400Z AUTO 32004KT 7SM 31/25 A2977 RMK SLP067 T03100250 IEM_DS3505
ZGNN,1997-06-04 05:00,ZGNN 040500Z AUTO 31006KT 7SM 30/25 A2977 RMK SLP067 T03000250 IEM_DS3505
ZGNN,1997-06-04 06:00,ZGNN 040600Z AUTO 04002KT 9SM 30/24 A2974 RMK SLP061 T02950241 57011 IEM_DS3505
ZGNN,1997-06-04 07:00,ZGNN 040700Z AUTO 33004KT 7SM 29/23 A2974 RMK SLP056 T02900230 IEM_DS3505
ZGNN,1997-06-04 08:00,ZGNN 040800Z AUTO 34006KT 7SM 29/24 A2971 RMK SLP046 T02900240 IEM_DS3505
ZGNN,1997-06-04 09:00,ZGNN 040900Z AUTO 07004KT 11SM 30/25 A2968 RMK SLP037 T03050247 57023 IEM_DS3505
ZGNN,1997-06-04 11:00,ZGNN 041100Z AUTO 10006KT 7SM 30/25 A2968 RMK SLP036 T03000250 IEM_DS3505
ZGNN,1997-06-04 12:00,ZGNN 041200Z AUTO 07004KT 14SM 29/25 A2971 RMK SLP043 T02940253 52005 IEM_DS3505
ZGNN,1997-06-04 13:00,ZGNN 041300Z AUTO 08004KT 6SM 28/25 A2971 RMK SLP047 T02800250 IEM_DS3505
ZGNN,1997-06-04 14:00,ZGNN 041400Z AUTO 11004KT 7SM 27/25 A2974 RMK SLP057 T02700250 IEM_DS3505
ZGNN,1997-06-04 15:00,ZGNN 041500Z AUTO 02002KT 12SM 27/26 A2974 RMK SLP056 T02730256 52014 IEM_DS3505
ZGNN,1997-06-04 16:00,ZGNN 041600Z AUTO 13002KT 7SM 27/25 A2974 RMK SLP057 T02700250 IEM_DS3505
ZGNN,1997-06-04 17:00,ZGNN 041700Z AUTO 00000KT 7SM 27/25 A2974 RMK SLP057 T02700250 IEM_DS3505
ZGNN,1997-06-04 18:00,ZGNN 041800Z AUTO 04004KT 12SM 27/25 A2972 RMK SLP050 T02660250 57007 IEM_DS3505
ZGNN,1997-06-04 21:00,ZGNN 042100Z AUTO 07002KT 11SM 26/25 A2968 RMK SLP037 T02610250 57012 IEM_DS3505
ZGNN,1997-06-04 22:00,ZGNN 042200Z AUTO 03002KT 7SM 26/25 A2971 RMK SLP047 T02600250 IEM_DS3505
ZGNN,1997-06-04 23:00,ZGNN 042300Z AUTO 00000KT 7SM 26/25 A2971 RMK SLP047 T02600250 IEM_DS3505
ZGNN,1997-06-05 00:00,ZGNN 050000Z AUTO 04002KT 9SM 27/25 A2971 RMK SLP049 T02710253 52011 IEM_DS3505
ZGNN,1997-06-05 01:00,ZGNN 050100Z AUTO 17008KT 7SM 29/25 A2971 RMK SLP046 T02900250 IEM_DS3505
ZGNN,1997-06-05 02:00,ZGNN 050200Z AUTO 13008KT 7SM 31/25 A2971 RMK SLP046 T03100250 IEM_DS3505
ZGNN,1997-06-05 03:00,ZGNN 050300Z AUTO 20002KT 12SM 31/26 A2971 RMK SLP040 T03130258 57008 IEM_DS3505
ZGNN,1997-06-05 04:00,ZGNN 050400Z AUTO 13012KT 7SM 33/25 A2968 RMK SLP035 T03300250 IEM_DS3505
ZGNN,1997-06-05 05:00,ZGNN 050500Z AUTO 18014KT 7SM 33/25 A2965 RMK SLP025 T03300250 IEM_DS3505
ZGNN,1997-06-05 06:00,ZGNN 050600Z AUTO 09004KT 19SM 34/26 A2965 RMK SLP021 T03370260 57019 IEM_DS3505
ZGNN,1997-06-05 07:00,ZGNN 050700Z AUTO 18014KT 7SM 32/25 A2962 RMK SLP015 T03200250 IEM_DS3505
ZGNN,1997-06-05 08:00,ZGNN 050800Z AUTO 15012KT 7SM 34/25 A2959 RMK SLP005 T03400250 IEM_DS3505
ZGNN,1997-06-05 09:00,ZGNN 050900Z AUTO 29006KT 19SM 33/25 A2956 RMK SLP002 T03300254 57019 IEM_DS3505
ZGNN,1997-06-05 10:00,ZGNN 051000Z AUTO 15010KT 7SM 31/24 A2956 RMK SLP995 T03100240 IEM_DS3505
ZGNN,1997-06-05 11:00,ZGNN 051100Z AUTO 14012KT 6SM 30/24 A2959 RMK SLP006 T03000240 IEM_DS3505
ZGNN,1997-06-05 12:00,ZGNN 051200Z AUTO 00000KT 19SM 30/25 A2959 RMK SLP009 T03010254 52007 IEM_DS3505
ZGNN,1997-06-05 13:00,ZGNN 051300Z AUTO 16010KT 6SM 29/25 A2962 RMK SLP016 T02900250 IEM_DS3505
ZGNN,1997-06-05 14:00,ZGNN 051400Z AUTO 15008KT 6SM 28/25 A2965 RMK SLP026 T02800250 IEM_DS3505
ZGNN,1997-06-05 15:00,ZGNN 051500Z AUTO 11004KT 16SM 28/25 A2968 RMK SLP036 T02840252 52027 IEM_DS3505
ZGNN,1997-06-05 18:00,ZGNN 051800Z AUTO 07004KT 12SM 28/25 A2966 RMK SLP028 T02790254 57008 IEM_DS3505
ZGNN,1997-06-05 21:00,ZGNN 052100Z AUTO 00000KT 12SM 28/26 A2962 RMK SLP019 T02770256 57009 IEM_DS3505
ZGNN,1997-06-05 22:00,ZGNN 052200Z AUTO 14006KT 6SM 26/25 A2962 RMK SLP017 T02600250 IEM_DS3505
ZGNN,1997-06-05 23:00,ZGNN 052300Z AUTO 14004KT 6SM 27/25 A2962 RMK SLP017 T02700250 IEM_DS3505
ZGNN,1997-06-06 00:00,ZGNN 060000Z AUTO 00000KT 11SM 29/26 A2962 RMK SLP020 T02900255 52001 IEM_DS3505
ZGNN,1997-06-06 01:00,ZGNN 060100Z AUTO 16010KT 6SM 30/25 A2965 RMK SLP026 T03000250 IEM_DS3505
ZGNN,1997-06-06 02:00,ZGNN 060200Z AUTO 16008KT 7SM 32/25 A2965 RMK SLP025 T03200250 IEM_DS3505
ZGNN,1997-06-06 03:00,ZGNN 060300Z AUTO 22006KT 14SM 32/25 A2965 RMK SLP026 T03210251 52006 IEM_DS3505
ZGNN,1997-06-06 04:00,ZGNN 060400Z AUTO 17014KT 7SM 33/25 A2962 RMK SLP015 T03300250 IEM_DS3505
ZGNN,1997-06-06 05:00,ZGNN 060500Z AUTO 17014KT 7SM 34/25 A2962 RMK SLP015 T03400250 IEM_DS3505
ZGNN,1997-06-06 06:00,ZGNN 060600Z AUTO 22004KT 19SM 33/26 A2959 RMK SLP006 T03300257 57020 IEM_DS3505
ZGNN,1997-06-06 07:00,ZGNN 060700Z AUTO 13014KT 7SM 34/26 A2956 RMK SLP995 T03400260 IEM_DS3505
ZGNN,1997-06-06 08:00,ZGNN 060800Z AUTO 13016KT 7SM 35/26 A2953 RMK SLP984 T03500260 IEM_DS3505
ZGNN,1997-06-06 09:00,ZGNN 060900Z AUTO 16006KT 19SM 34/26 A2953 RMK SLP987 T03410261 57018 IEM_DS3505
ZGNN,1997-06-06 10:00,ZGNN 061000Z AUTO 13014KT 7SM 33/25 A2953 RMK SLP985 T03300250 IEM_DS3505
ZGNN,1997-06-06 11:00,ZGNN 061100Z AUTO 15012KT 6SM 31/25 A2956 RMK SLP995 T03100250 IEM_DS3505
ZGNN,1997-06-06 12:00,ZGNN 061200Z AUTO 32004KT 19SM 31/25 A2959 RMK SLP002 T03090253 52014 IEM_DS3505
ZGNN,1997-06-06 13:00,ZGNN 061300Z AUTO 14004KT 6SM 29/25 A2962 RMK SLP016 T02900250 IEM_DS3505
ZGNN,1997-06-06 15:00,ZGNN 061500Z AUTO 34002KT 17SM 29/25 A2965 RMK SLP027 T02870249 52025 IEM_DS3505
ZGNN,1997-06-06 18:00,ZGNN 061800Z AUTO 02004KT 16SM 28/25 A2964 RMK SLP024 T02790248 57003 IEM_DS3505
ZGNN,1997-06-06 21:00,ZGNN 062100Z AUTO 07004KT 16SM 28/25 A2965 RMK SLP027 T02770252 52003 IEM_DS3505
ZGNN,1997-06-06 22:00,ZGNN 062200Z AUTO 00000KT 7SM 27/24 A2965 RMK SLP027 T02700240 IEM_DS3505
ZGNN,1997-06-06 23:00,ZGNN 062300Z AUTO 17006KT 7SM 27/25 A2968 RMK SLP037 T02700250 IEM_DS3505
ZGNN,1997-06-07 00:00,ZGNN 070000Z AUTO 20002KT 19SM 29/25 A2971 RMK SLP046 T02890253 52019 IEM_DS3505
ZGNN,1997-06-07 01:00,ZGNN 070100Z AUTO 17008KT 7SM 30/25 A2971 RMK SLP046 T03000250 IEM_DS3505
ZGNN,1997-06-07 02:00,ZGNN 070200Z AUTO 15008KT 7SM 31/25 A2971 RMK SLP046 T03100250 IEM_DS3505
ZGNN,1997-06-07 03:00,ZGNN 070300Z AUTO 20004KT 19SM 32/26 A2971 RMK SLP050 T03200255 52004 IEM_DS3505
ZGNN,1997-06-07 04:00,ZGNN 070400Z AUTO 13008KT 7SM 33/25 A2971 RMK SLP045 T03300250 IEM_DS3505
ZGNN,1997-06-07 05:00,ZGNN 070500Z AUTO 12010KT 7SM 34/25 A2971 RMK SLP045 T03400250 IEM_DS3505
ZGNN,1997-06-07 06:00,ZGNN 070600Z AUTO 20004KT 19SM 34/26 A2968 RMK SLP037 T03440257 57013 IEM_DS3505
ZGNN,1997-06-07 07:00,ZGNN 070700Z AUTO 15012KT 7SM 35/25 A2965 RMK SLP025 T03500250 IEM_DS3505
ZGNN,1997-06-07 08:00,ZGNN 070800Z AUTO 14014KT 7SM 35/25 A2965 RMK SLP025 T03500250 IEM_DS3505
ZGNN,1997-06-07 09:00,ZGNN 070900Z AUTO 09004KT 19SM 34/26 A2962 RMK SLP019 T03390258 57018 IEM_DS3505
ZGNN,1997-06-07 10:00,ZGNN 071000Z AUTO 14014KT 7SM 32/25 A2962 RMK SLP015 T03200250 IEM_DS3505
ZGNN,1997-06-07 11:00,ZGNN 071100Z AUTO 15010KT 7SM 31/25 A2965 RMK SLP026 T03100250 IEM_DS3505
ZGNN,1997-06-07 12:00,ZGNN 071200Z AUTO 34002KT 19SM 31/25 A2968 RMK SLP035 T03080249 52016 IEM_DS3505
ZGNN,1997-06-07 13:00,ZGNN 071300Z AUTO 17010KT 6SM 29/24 A2971 RMK SLP046 T02900240 IEM_DS3505
ZGNN,1997-06-07 14:00,ZGNN 071400Z AUTO 14006KT 6SM 28/24 A2971 RMK SLP047 T02800240 IEM_DS3505
ZGNN,1997-06-07 15:00,ZGNN 071500Z AUTO 14002KT 19SM 29/25 A2974 RMK SLP054 T02870246 52019 IEM_DS3505
ZGNN,1997-06-07 18:00,ZGNN 071800Z AUTO 14002KT 16SM 28/25 A2974 RMK SLP058 T02770249 52004 IEM_DS3505
ZGNN,1997-06-07 21:00,ZGNN 072100Z AUTO 34002KT 16SM 28/25 A2971 RMK SLP051 T02750250 57007 IEM_DS3505
ZGNN,1997-06-07 22:00,ZGNN 072200Z AUTO 00000KT 6SM 26/24 A2974 RMK SLP057 T02600240 IEM_DS3505
ZGNN,1997-06-07 23:00,ZGNN 072300Z AUTO 16004KT 6SM 27/25 A2974 RMK SLP057 T02700250 IEM_DS3505
ZGNN,1997-06-08 00:00,ZGNN 080000Z AUTO 22004KT 16SM 29/25 A2977 RMK SLP062 T02870250 52011 IEM_DS3505
ZGNN,1997-06-08 01:00,ZGNN 080100Z AUTO 16008KT 6SM 31/25 A2977 RMK SLP067 T03100250 IEM_DS3505
ZGNN,1997-06-08 02:00,ZGNN 080200Z AUTO 15010KT 7SM 32/24 A2977 RMK SLP067 T03200240 IEM_DS3505
ZGNN,1997-06-08 03:00,ZGNN 080300Z AUTO 22002KT 19SM 33/25 A2977 RMK SLP062 T03290252 54000 IEM_DS3505
ZGNN,1997-06-08 04:00,ZGNN 080400Z AUTO 06008KT 7SM 34/25 A2974 RMK SLP055 T03400250 IEM_DS3505
ZGNN,1997-06-08 05:00,ZGNN 080500Z AUTO 13010KT 7SM 34/25 A2971 RMK SLP045 T03400250 IEM_DS3505
ZGNN,1997-06-08 06:00,ZGNN 080600Z AUTO 20004KT 19SM 35/25 A2968 RMK SLP038 T03530253 57024 IEM_DS3505
ZGNN,1997-06-08 07:00,ZGNN 080700Z AUTO 13016KT 7SM 35/25 A2968 RMK SLP035 T03500250 IEM_DS3505
ZGNN,1997-06-08 08:00,ZGNN 080800Z AUTO 15012KT 7SM 35/25 A2965 RMK SLP025 T03500250 IEM_DS3505
ZGNN,1997-06-08 09:00,ZGNN 080900Z AUTO 14006KT 19SM 34/26 A2965 RMK SLP024 T03450260 57014 IEM_DS3505
ZGNN,1997-06-08 10:00,ZGNN 081000Z AUTO 14010KT 7SM 33/25 A2965 RMK SLP025 T03300250 IEM_DS3505
ZGNN,1997-06-08 11:00,ZGNN 081100Z AUTO 16012KT 7SM 31/25 A2965 RMK SLP026 T03100250 IEM_DS3505
ZGNN,1997-06-08 12:00,ZGNN 081200Z AUTO 32002KT 19SM 31/25 A2968 RMK SLP034 T03110252 52010 IEM_DS3505
ZGNN,1997-06-08 13:00,ZGNN 081300Z AUTO 14006KT 6SM 29/25 A2968 RMK SLP036 T02900250 IEM_DS3505
ZGNN,1997-06-08 15:00,ZGNN 081500Z AUTO 11002KT 19SM 29/25 A2973 RMK SLP053 T02910253 52019 IEM_DS3505
ZGNN,1997-06-08 18:00,ZGNN 081800Z AUTO 00000KT 16SM 28/25 A2970 RMK SLP043 T02810249 57010 IEM_DS3505
ZGNN,1997-06-08 21:00,ZGNN 082100Z AUTO 07002KT 16SM 28/25 A2968 RMK SLP042 T02780251 57001 IEM_DS3505
ZGNN,1997-06-08 22:00,ZGNN 082200Z AUTO 00000KT 6SM 26/24 A2968 RMK SLP037 T02600240 IEM_DS3505
ZGNN,1997-06-08 23:00,ZGNN 082300Z AUTO 13002KT 6SM 27/25 A2971 RMK SLP047 T02700250 IEM_DS3505
ZGNN,1997-06-09 00:00,ZGNN 090000Z AUTO 02002KT 12SM 29/26 A2971 RMK SLP049 T02880256 52007 IEM_DS3505
ZGNN,1997-06-09 01:00,ZGNN 090100Z AUTO 16006KT 6SM 30/25 A2971 RMK SLP046 T03000250 IEM_DS3505
ZGNN,1997-06-09 02:00,ZGNN 090200Z AUTO 18006KT 6SM 32/25 A2971 RMK SLP045 T03200250 IEM_DS3505
ZGNN,1997-06-09 03:00,ZGNN 090300Z AUTO 00000KT 16SM 32/27 A2971 RMK SLP048 T03210268 57001 IEM_DS3505
ZGNN,1997-06-09 04:00,ZGNN 090400Z AUTO 27004KT 7SM 34/23 A2971 RMK SLP045 T03400230 IEM_DS3505
ZGNN,1997-06-09 05:00,ZGNN 090500Z AUTO 25002KT 7SM 35/22 A2968 RMK SLP035 T03500220 IEM_DS3505
ZGNN,1997-06-09 06:00,ZGNN 090600Z AUTO 25002KT 19SM 35/24 A2965 RMK SLP028 T03520241 57019 IEM_DS3505
ZGNN,1997-06-09 07:00,ZGNN 090700Z AUTO 32002KT 7SM 36/22 A2965 RMK SLP024 T03600220 IEM_DS3505
ZGNN,1997-06-09 08:00,ZGNN 090800Z AUTO 32002KT 7SM 37/22 A2962 RMK SLP014 T03700220 IEM_DS3505
ZGNN,1997-06-09 09:00,ZGNN 090900Z AUTO 04004KT 19SM 35/25 A2962 RMK SLP015 T03480249 57013 IEM_DS3505
ZGNN,1997-06-09 10:00,ZGNN 091000Z AUTO 16008KT 7SM 34/25 A2959 RMK SLP005 T03400250 IEM_DS3505
ZGNN,1997-06-09 11:00,ZGNN 091100Z AUTO 09008KT 1/2SM A2971 RMK SLP047 IEM_DS3505
ZGNN,1997-06-09 12:00,ZGNN 091200Z AUTO 07004KT 16SM 27/25 A2971 RMK 60016 SLP050 T02680248 52033 IEM_DS3505
ZGNN,1997-06-09 13:00,ZGNN 091300Z AUTO 02004KT 7SM 25/23 A2974 RMK SLP058 T02500230 IEM_DS3505
ZGNN,1997-06-09 14:00,ZGNN 091400Z AUTO 17004KT 7SM 25/24 A2977 RMK SLP069 T02500240 IEM_DS3505
ZGNN,1997-06-09 15:00,ZGNN 091500Z AUTO 00000KT 12SM 26/24 A2977 RMK SLP077 T02630243 52027 IEM_DS3505
ZGNN,1997-06-09 16:00,ZGNN 091600Z AUTO 35004KT 7SM 24/23 A2980 RMK SLP079 T02400230 IEM_DS3505
ZGNN,1997-06-09 18:00,ZGNN 091800Z AUTO 09004KT 12SM 24/22 A2978 RMK 60031 SLP071 T02350225 57005 IEM_DS3505
ZGNN,1997-06-09 21:00,ZGNN 092100Z AUTO 34004KT 12SM 24/22 A2977 RMK 70047 SLP071 T02420220 54000 IEM_DS3505
ZGNN,1997-06-09 22:00,ZGNN 092200Z AUTO 35006KT 7SM 23/20 A2980 RMK SLP079 T02300200 IEM_DS3505
ZGNN,1997-06-09 23:00,ZGNN 092300Z AUTO 34006KT 7SM 22/19 A2980 RMK SLP080 T02200190 IEM_DS3505
ZGNN,1997-06-10 00:00,ZGNN 100000Z AUTO 34004KT 19SM 23/20 A2985 RMK 60004 70051 SLP095 T02260197 52022 IEM_DS3505
ZGNN,1997-06-10 01:00,ZGNN 100100Z AUTO 35014KT 7SM 22/18 A2985 RMK SLP096 T02200180 IEM_DS3505
ZGNN,1997-06-10 02:00,ZGNN 100200Z AUTO 34012KT 7SM 21/18 A2988 RMK SLP107 T02100180 IEM_DS3505
ZGNN,1997-06-10 03:00,ZGNN 100300Z AUTO 29004KT 19SM 22/18 A2988 RMK SLP108 T02170182 52013 IEM_DS3505
ZGNN,1997-06-10 04:00,ZGNN 100400Z AUTO 01004KT 6SM 20/19 A2988 RMK SLP107 T02000190 IEM_DS3505
ZGNN,1997-06-10 05:00,ZGNN 100500Z AUTO 34006KT 7SM 21/19 A2985 RMK SLP096 T02100190 IEM_DS3505
ZGNN,1997-06-10 06:00,ZGNN 100600Z AUTO 34004KT 15SM 23/19 A2985 RMK 60008 SLP092 T02290190 57016 IEM_DS3505
ZGNN,1997-06-10 07:00,ZGNN 100700Z AUTO 02008KT 7SM 24/20 A2974 RMK SLP058 T02400200 IEM_DS3505
ZGNN,1997-06-10 08:00,ZGNN 100800Z AUTO 33004KT 7SM 24/19 A2983 RMK SLP089 T02400190 IEM_DS3505
ZGNN,1997-06-10 09:00,ZGNN 100900Z AUTO 02004KT 16SM 25/19 A2980 RMK SLP079 T02500191 57013 IEM_DS3505
ZGNN,1997-06-10 10:00,ZGNN 101000Z AUTO 01006KT 7SM 25/19 A2980 RMK SLP079 T02500190 IEM_DS3505
ZGNN,1997-06-10 11:00,ZGNN 101100Z AUTO 00000KT 6SM 24/19 A2980 RMK SLP079 T02400190 IEM_DS3505
ZGNN,1997-06-10 12:00,ZGNN 101200Z AUTO 00000KT 19SM 25/20 A2983 RMK 60000 SLP084 T02460200 52005 IEM_DS3505
ZGNN,1997-06-10 13:00,ZGNN 101300Z AUTO 00000KT 7SM 23/18 A2983 RMK SLP089 T02300180 IEM_DS3505
ZGNN,1997-06-10 15:00,ZGNN 101500Z AUTO 29002KT 16SM 24/18 A2987 RMK SLP101 T02400185 52016 IEM_DS3505
ZGNN,1997-06-10 18:00,ZGNN 101800Z AUTO 00000KT 16SM 24/19 A2984 RMK SLP092 T02350187 57008 IEM_DS3505
ZGNN,1997-06-10 21:00,ZGNN 102100Z AUTO 00000KT 16SM 23/19 A2981 RMK 70012 SLP082 T02280186 57010 IEM_DS3505
ZGNN,1997-06-10 22:00,ZGNN 102200Z AUTO 00000KT 7SM 21/19 A2980 RMK SLP080 T02100190 IEM_DS3505
ZGNN,1997-06-10 23:00,ZGNN 102300Z AUTO 00000KT 7SM 21/19 A2983 RMK SLP090 T02100190 IEM_DS3505
ZGNN,1997-06-11 00:00,ZGNN 110000Z AUTO 25004KT 12SM 24/20 A2983 RMK 70008 SLP092 T02350195 52010 IEM_DS3505
ZGNN,1997-06-11 01:00,ZGNN 110100Z AUTO 00000KT 6SM 26/19 A2985 RMK SLP095 T02600190 IEM_DS3505
ZGNN,1997-06-11 02:00,ZGNN 110200Z AUTO 03004KT 6SM 27/19 A2985 RMK SLP094 T02700190 IEM_DS3505
ZGNN,1997-06-11 03:00,ZGNN 110300Z AUTO 25004KT 16SM 28/19 A2985 RMK SLP100 T02780187 52008 IEM_DS3505
ZGNN,1997-06-11 04:00,ZGNN 110400Z AUTO 00000KT 7SM 28/19 A2985 RMK SLP094 T02800190 IEM_DS3505
ZGNN,1997-06-11 05:00,ZGNN 110500Z AUTO 33006KT 7SM 29/19 A2985 RMK SLP094 T02900190 IEM_DS3505
ZGNN,1997-06-11 06:00,ZGNN 110600Z AUTO 00000KT 16SM 29/19 A2983 RMK SLP087 T02940189 57012 IEM_DS3505
ZGNN,1997-06-11 07:00,ZGNN 110700Z AUTO 20004KT 7SM 30/19 A2980 RMK SLP077 T03000190 IEM_DS3505
ZGNN,1997-06-11 08:00,ZGNN 110800Z AUTO 00000KT 7SM 30/19 A2980 RMK SLP077 T03000190 IEM_DS3505
ZGNN,1997-06-11 09:00,ZGNN 110900Z AUTO 14004KT 19SM 31/17 A2977 RMK SLP065 T03110173 57022 IEM_DS3505
ZGNN,1997-06-11 10:00,ZGNN 111000Z AUTO 00000KT 6SM 30/19 A2977 RMK SLP067 T03000190 IEM_DS3505
ZGNN,1997-06-11 11:00,ZGNN 111100Z AUTO 00000KT 6SM 29/19 A2977 RMK SLP067 T02900190 IEM_DS3505
ZGNN,1997-06-11 12:00,ZGNN 111200Z AUTO 00000KT 19SM 29/20 A2977 RMK SLP071 T02900196 52006 IEM_DS3505
ZGNN,1997-06-11 13:00,ZGNN 111300Z AUTO 19004KT 6SM 25/21 A2980 RMK SLP079 T02500210 IEM_DS3505
ZGNN,1997-06-11 15:00,ZGNN 111500Z AUTO 00000KT 16SM 27/22 A2984 RMK SLP090 T02690224 52019 IEM_DS3505
ZGNN,1997-06-11 18:00,ZGNN 111800Z AUTO 00000KT 16SM 26/21 A2983 RMK SLP087 T02560213 57003 IEM_DS3505
ZGNN,1997-06-11 21:00,ZGNN 112100Z AUTO 00000KT 12SM 25/21 A2980 RMK SLP082 T02470211 57005 IEM_DS3505
ZGNN,1997-06-11 22:00,ZGNN 112200Z AUTO 00000KT 6SM 23/22 A2980 RMK SLP079 T02300220 IEM_DS3505
ZGNN,1997-06-11 23:00,ZGNN 112300Z AUTO 00000KT 6SM 24/22 A2983 RMK SLP089 T02400220 IEM_DS3505
ZGNN,1997-06-12 00:00,ZGNN 120000Z AUTO 07002KT 12SM 25/20 A2985 RMK SLP092 T02530205 52010 IEM_DS3505
ZGNN,1997-06-12 01:00,ZGNN 120100Z AUTO 00000KT 6SM 28/22 A2985 RMK SLP094 T02800220 IEM_DS3505
ZGNN,1997-06-12 02:00,ZGNN 120200Z AUTO 00000KT 6SM 29/22 A2985 RMK SLP094 T02900220 IEM_DS3505
ZGNN,1997-06-12 03:00,ZGNN 120300Z AUTO 00000KT 12SM 30/21 A2985 RMK SLP093 T03030210 52001 IEM_DS3505
ZGNN,1997-06-12 04:00,ZGNN 120400Z AUTO 24004KT 7SM 31/21 A2983 RMK SLP087 T03100210 IEM_DS3505
ZGNN,1997-06-12 05:00,ZGNN 120500Z AUTO 19004KT 7SM 32/21 A2983 RMK SLP087 T03200210 IEM_DS3505
ZGNN,1997-06-12 06:00,ZGNN 120600Z AUTO 20004KT 14SM 32/21 A2980 RMK SLP076 T03150210 57017 IEM_DS3505
ZGNN,1997-06-12 07:00,ZGNN 120700Z AUTO 15006KT 7SM 31/22 A2977 RMK SLP067 T03100220 IEM_DS3505
ZGNN,1997-06-12 08:00,ZGNN 120800Z AUTO 11008KT 7SM 32/22 A2974 RMK SLP056 T03200220 IEM_DS3505
ZGNN,1997-06-12 09:00,ZGNN 120900Z AUTO 09004KT 14SM 32/23 A2974 RMK SLP057 T03180226 57019 IEM_DS3505
ZGNN,1997-06-12 11:00,ZGNN 121100Z AUTO 16006KT 7SM 30/24 A2974 RMK SLP056 T03000240 IEM_DS3505
ZGNN,1997-06-12 12:00,ZGNN 121200Z AUTO 00000KT 16SM 30/24 A2976 RMK SLP063 T02990245 52007 IEM_DS3505
ZGNN,1997-06-12 13:00,ZGNN 121300Z AUTO 15004KT 6SM 28/25 A2977 RMK SLP068 T02800250 IEM_DS3505
ZGNN,1997-06-12 14:00,ZGNN 121400Z AUTO 16006KT 7SM 27/25 A2980 RMK SLP078 T02700250 IEM_DS3505
ZGNN,1997-06-12 15:00,ZGNN 121500Z AUTO 20004KT 12SM 28/25 A2980 RMK SLP079 T02780250 52015 IEM_DS3505
ZGNN,1997-06-12 18:00,ZGNN 121800Z AUTO 00000KT 12SM 27/25 A2978 RMK SLP071 T02730253 57007 IEM_DS3505
ZGNN,1997-06-12 21:00,ZGNN 122100Z AUTO 00000KT 11SM 27/26 A2977 RMK 70001 SLP060 T02700256 57011 IEM_DS3505
ZGNN,1997-06-12 22:00,ZGNN 122200Z AUTO 19006KT 6SM 26/25 A2974 RMK SLP057 T02600250 IEM_DS3505
ZGNN,1997-06-12 23:00,ZGNN 122300Z AUTO 19002KT 6SM 25/24 A2977 RMK SLP069 T02500240 IEM_DS3505
ZGNN,1997-06-13 00:00,ZGNN 130000Z AUTO 00000KT 12SM 27/24 A2977 RMK 60001 70001 SLP066 T02710242 52005 IEM_DS3505
ZGNN,1997-06-13 01:00,ZGNN 130100Z AUTO 20006KT 6SM 27/23 A2977 RMK SLP068 T02700230 IEM_DS3505
ZGNN,1997-06-13 02:00,ZGNN 130200Z AUTO 00000KT 6SM 29/24 A2977 RMK SLP067 T02900240 IEM_DS3505
ZGNN,1997-06-13 03:00,ZGNN 130300Z AUTO 04004KT 16SM 29/24 A2977 RMK SLP068 T02910237 52002 IEM_DS3505
ZGNN,1997-06-13 04:00,ZGNN 130400Z AUTO 15004KT 6SM 30/23 A2977 RMK SLP067 T03000230 IEM_DS3505
ZGNN,1997-06-13 05:00,ZGNN 130500Z AUTO 03004KT 6SM 30/23 A2974 RMK SLP056 T03000230 IEM_DS3505
ZGNN,1997-06-13 06:00,ZGNN 130600Z AUTO 04004KT 17SM 29/25 A2971 RMK SLP053 T02910247 57015 IEM_DS3505
ZGNN,1997-06-13 07:00,ZGNN 130700Z AUTO 02006KT 6SM 31/24 A2971 RMK SLP046 T03100240 IEM_DS3505
ZGNN,1997-06-13 08:00,ZGNN 130800Z AUTO 01008KT 7SM 29/25 A2968 RMK SLP036 T02900250 IEM_DS3505
ZGNN,1997-06-13 09:00,ZGNN 130900Z AUTO 04004KT 16SM 28/26 A2968 RMK SLP032 T02750257 57021 IEM_DS3505
ZGNN,1997-06-13 10:00,ZGNN 131000Z AUTO 36006KT 7SM 27/24 A2968 RMK SLP037 T02700240 IEM_DS3505
ZGNN,1997-06-13 11:00,ZGNN 131100Z AUTO 36010KT 6SM 26/24 A2968 RMK SLP037 T02600240 IEM_DS3505
ZGNN,1997-06-13 12:00,ZGNN 131200Z AUTO 36004KT 16SM 28/24 A2971 RMK 60004 SLP050 T02750242 52018 IEM_DS3505
ZGNN,1997-06-13 13:00,ZGNN 131300Z AUTO 06004KT 7SM 26/24 A2974 RMK SLP057 T02600240 IEM_DS3505
ZGNN,1997-06-13 14:00,ZGNN 131400Z AUTO 03004KT 7SM 26/24 A2977 RMK SLP068 T02600240 IEM_DS3505
ZGNN,1997-06-13 15:00,ZGNN 131500Z AUTO 00000KT 16SM 26/23 A2977 RMK SLP066 T02620232 52016 IEM_DS3505
ZGNN,1997-06-13 18:00,ZGNN 131800Z AUTO 00000KT 16SM 26/24 A2974 RMK SLP059 T02630237 57007 IEM_DS3505
ZGNN,1997-06-13 21:00,ZGNN 132100Z AUTO 00000KT 16SM 26/23 A2974 RMK 70004 SLP054 T02570234 57005 IEM_DS3505
ZGNN,1997-06-13 22:00,ZGNN 132200Z AUTO 35008KT 7SM 25/22 A2974 RMK SLP058 T02500220 IEM_DS3505
ZGNN,1997-06-13 23:00,ZGNN 132300Z AUTO 35006KT 7SM 25/21 A2977 RMK SLP069 T02500210 IEM_DS3505
ZGNN,1997-06-14 00:00,ZGNN 140000Z AUTO 02002KT 11SM 26/22 A2980 RMK 70004 SLP076 T02560217 52022 IEM_DS3505
ZGNN,1997-06-14 01:00,ZGNN 140100Z AUTO 04004KT 7SM 25/21 A2980 RMK SLP079 T02500210 IEM_DS3505
ZGNN,1997-06-14 02:00,ZGNN 140200Z AUTO 36006KT 7SM 26/21 A2980 RMK SLP078 T02600210 IEM_DS3505
ZGNN,1997-06-14 03:00,ZGNN 140300Z AUTO 14004KT 12SM 28/22 A2980 RMK SLP072 T02750219 57004 IEM_DS3505
ZGNN,1997-06-14 04:00,ZGNN 140400Z AUTO 09004KT 7SM 27/21 A2980 RMK SLP078 T02700210 IEM_DS3505
ZGNN,1997-06-14 05:00,ZGNN 140500Z AUTO 33006KT 7SM 28/22 A2980 RMK SLP078 T02800220 IEM_DS3505
ZGNN,1997-06-14 06:00,ZGNN 140600Z AUTO 07006KT 16SM 29/21 A2977 RMK SLP066 T02890212 57006 IEM_DS3505
ZGNN,1997-06-14 07:00,ZGNN 140700Z AUTO 34004KT 7SM 29/21 A2977 RMK SLP067 T02900210 IEM_DS3505
ZGNN,1997-06-14 08:00,ZGNN 140800Z AUTO 05006KT 7SM 29/22 A2974 RMK SLP056 T02900220 IEM_DS3505
ZGNN,1997-06-14 09:00,ZGNN 140900Z AUTO 04004KT 16SM 30/21 A2974 RMK SLP058 T02950211 57008 IEM_DS3505
ZGNN,1997-06-14 10:00,ZGNN 141000Z AUTO 35006KT 7SM 28/22 A2974 RMK SLP057 T02800220 IEM_DS3505
ZGNN,1997-06-14 11:00,ZGNN 141100Z AUTO 04006KT 7SM 28/22 A2974 RMK SLP057 T02800220 IEM_DS3505
ZGNN,1997-06-14 12:00,ZGNN 141200Z AUTO 07002KT 19SM 28/21 A2977 RMK SLP069 T02790214 52011 IEM_DS3505
ZGNN,1997-06-14 13:00,ZGNN 141300Z AUTO 00000KT 6SM 26/23 A2980 RMK SLP078 T02600230 IEM_DS3505
ZGNN,1997-06-14 15:00,ZGNN 141500Z AUTO 04002KT 19SM 27/22 A2984 RMK SLP091 T02670217 52022 IEM_DS3505
ZGNN,1997-06-14 18:00,ZGNN 141800Z AUTO 00000KT 16SM 26/22 A2980 RMK SLP078 T02550216 57013 IEM_DS3505
ZGNN,1997-06-14 21:00,ZGNN 142100Z AUTO 00000KT 16SM 25/22 A2980 RMK SLP081 T02460221 52003 IEM_DS3505
ZGNN,1997-06-14 22:00,ZGNN 142200Z AUTO 36004KT 7SM 23/21 A2983 RMK SLP089 T02300210 IEM_DS3505
ZGNN,1997-06-14 23:00,ZGNN 142300Z AUTO 00000KT 7SM 23/21 A2985 RMK SLP095 T02300210 IEM_DS3505
ZGNN,1997-06-15 00:00,ZGNN 150000Z AUTO 07004KT 12SM 26/21 A2985 RMK SLP100 T02630209 52019 IEM_DS3505
ZGNN,1997-06-15 01:00,ZGNN 150100Z AUTO 02004KT 7SM 26/21 A2985 RMK SLP095 T02600210 IEM_DS3505
ZGNN,1997-06-15 02:00,ZGNN 150200Z AUTO 07004KT 7SM 27/21 A2988 RMK SLP105 T02700210 IEM_DS3505
ZGNN,1997-06-15 03:00,ZGNN 150300Z AUTO 07006KT 19SM 29/20 A2985 RMK SLP100 T02940199 54000 IEM_DS3505
ZGNN,1997-06-15 04:00,ZGNN 150400Z AUTO 05006KT 7SM 29/21 A2985 RMK SLP094 T02900210 IEM_DS3505
ZGNN,1997-06-15 05:00,ZGNN 150500Z AUTO 02008KT 7SM 29/21 A2985 RMK SLP094 T02900210 IEM_DS3505
ZGNN,1997-06-15 06:00,ZGNN 150600Z AUTO 02006KT 19SM 30/21 A2983 RMK SLP086 T03050210 57014 IEM_DS3505
ZGNN,1997-06-15 07:00,ZGNN 150700Z AUTO 06008KT 7SM 29/21 A2980 RMK SLP078 T02900210 IEM_DS3505
ZGNN,1997-06-15 08:00,ZGNN 150800Z AUTO 03006KT 7SM 30/21 A2980 RMK SLP077 T03000210 IEM_DS3505
ZGNN,1997-06-15 09:00,ZGNN 150900Z AUTO 04008KT 19SM 32/21 A2977 RMK SLP070 T03150207 57016 IEM_DS3505
ZGNN,1997-06-15 10:00,ZGNN 151000Z AUTO 07006KT 6SM 30/21 A2977 RMK SLP067 T03000210 IEM_DS3505
ZGNN,1997-06-15 12:00,ZGNN 151200Z AUTO 09004KT 19SM 29/22 A2980 RMK SLP076 T02860217 52006 IEM_DS3505
ZGNN,1997-06-15 13:00,ZGNN 151300Z AUTO 00000KT 6SM 26/22 A2983 RMK SLP088 T02600220 IEM_DS3505
ZGNN,1997-06-15 15:00,ZGNN 151500Z AUTO 07004KT 17SM 26/22 A2985 RMK SLP097 T02620216 52021 IEM_DS3505
ZGNN,1997-06-15 18:00,ZGNN 151800Z AUTO 00000KT 16SM 25/22 A2982 RMK SLP086 T02490215 57011 IEM_DS3505
ZGNN,1997-06-15 21:00,ZGNN 152100Z AUTO 00000KT 16SM 24/22 A2980 RMK SLP081 T02420217 57005 IEM_DS3505
ZGNN,1997-06-15 22:00,ZGNN 152200Z AUTO 36004KT 7SM 22/21 A2983 RMK SLP090 T02200210 IEM_DS3505
ZGNN,1997-06-15 23:00,ZGNN 152300Z AUTO 00000KT 7SM 23/21 A2985 RMK SLP095 T02300210 IEM_DS3505
ZGNN,1997-06-16 00:00,ZGNN 160000Z AUTO 16002KT 12SM 25/22 A2985 RMK SLP099 T02490218 52018 IEM_DS3505
ZGNN,1997-06-16 01:00,ZGNN 160100Z AUTO 09004KT 7SM 26/22 A2985 RMK SLP095 T02600220 IEM_DS3505
ZGNN,1997-06-16 02:00,ZGNN 160200Z AUTO 07004KT 7SM 26/22 A2988 RMK SLP106 T02600220 IEM_DS3505
ZGNN,1997-06-16 03:00,ZGNN 160300Z AUTO 14002KT 19SM 29/22 A2985 RMK SLP099 T02890217 54000 IEM_DS3505
ZGNN,1997-06-16 04:00,ZGNN 160400Z AUTO 04004KT 7SM 29/22 A2985 RMK SLP094 T02900220 IEM_DS3505
ZGNN,1997-06-16 05:00,ZGNN 160500Z AUTO 07006KT 7SM 30/21 A2983 RMK SLP087 T03000210 IEM_DS3505
ZGNN,1997-06-16 06:00,ZGNN 160600Z AUTO 20002KT 19SM 30/22 A2983 RMK SLP083 T03030216 57016 IEM_DS3505
ZGNN,1997-06-16 07:00,ZGNN 160700Z AUTO 03004KT 7SM 30/22 A2980 RMK SLP077 T03000220 IEM_DS3505
ZGNN,1997-06-16 08:00,ZGNN 160800Z AUTO 35006KT 7SM 30/22 A2980 RMK SLP077 T03000220 IEM_DS3505
ZGNN,1997-06-16 09:00,ZGNN 160900Z AUTO 04002KT 19SM 30/22 A2977 RMK SLP066 T03020222 57017 IEM_DS3505
ZGNN,1997-06-16 11:00,ZGNN 161100Z AUTO 06002KT 7SM 29/23 A2977 RMK SLP067 T02900230 IEM_DS3505
ZGNN,1997-06-16 12:00,ZGNN 161200Z AUTO 09002KT 19SM 29/23 A2980 RMK SLP076 T02930228 52010 IEM_DS3505
ZGNN,1997-06-16 13:00,ZGNN 161300Z AUTO 36004KT 6SM 27/23 A2983 RMK SLP088 T02700230 IEM_DS3505
ZGNN,1997-06-16 15:00,ZGNN 161500Z AUTO 09002KT 19SM 27/23 A2986 RMK SLP099 T02700229 52023 IEM_DS3505
ZGNN,1997-06-16 18:00,ZGNN 161800Z AUTO 07002KT 16SM 26/22 A2982 RMK SLP085 T02550224 57014 IEM_DS3505
ZGNN,1997-06-16 21:00,ZGNN 162100Z AUTO 09002KT 12SM 24/22 A2980 RMK SLP076 T02440220 57009 IEM_DS3505
ZGNN,1997-06-16 22:00,ZGNN 162200Z AUTO 02002KT 6SM 23/22 A2980 RMK SLP079 T02300220 IEM_DS3505
ZGNN,1997-06-16 23:00,ZGNN 162300Z AUTO 00000KT 6SM 24/22 A2980 RMK SLP079 T02400220 IEM_DS3505
ZGNN,1997-06-17 00:00,ZGNN 170000Z AUTO 07002KT 16SM 27/22 A2983 RMK SLP089 T02670220 52013 IEM_DS3505
ZGNN,1997-06-17 01:00,ZGNN 170100Z AUTO 06002KT 6SM 27/22 A2985 RMK SLP094 T02700220 IEM_DS3505
ZGNN,1997-06-17 02:00,ZGNN 170200Z AUTO 07004KT 6SM 28/22 A2985 RMK SLP094 T02800220 IEM_DS3505
ZGNN,1997-06-17 03:00,ZGNN 170300Z AUTO 07004KT 19SM 30/22 A2983 RMK SLP091 T02970221 52002 IEM_DS3505
ZGNN,1997-06-17 04:00,ZGNN 170400Z AUTO 07002KT 7SM 30/22 A2983 RMK SLP087 T03000220 IEM_DS3505
ZGNN,1997-06-17 05:00,ZGNN 170500Z AUTO 09004KT 7SM 31/22 A2980 RMK SLP077 T03100220 IEM_DS3505
ZGNN,1997-06-17 06:00,ZGNN 170600Z AUTO 18004KT 17SM 33/23 A2977 RMK SLP064 T03260232 57026 IEM_DS3505
ZGNN,1997-06-17 07:00,ZGNN 170700Z AUTO 00000KT 7SM 32/22 A2974 RMK SLP056 T03200220 IEM_DS3505
ZGNN,1997-06-17 08:00,ZGNN 170800Z AUTO 00000KT 7SM 33/21 A2971 RMK SLP045 T03300210 IEM_DS3505
ZGNN,1997-06-17 09:00,ZGNN 170900Z AUTO 02002KT 19SM 31/23 A2971 RMK SLP048 T03090227 57017 IEM_DS3505
ZGNN,1997-06-17 10:00,ZGNN 171000Z AUTO 06006KT 7SM 32/22 A2971 RMK SLP045 T03200220 IEM_DS3505
ZGNN,1997-06-17 12:00,ZGNN 171200Z AUTO 00000KT 16SM 30/24 A2974 RMK SLP062 T02990241 52014 IEM_DS3505
ZGNN,1997-06-17 13:00,ZGNN 171300Z AUTO 00000KT 6SM 28/24 A2977 RMK SLP068 T02800240 IEM_DS3505
ZGNN,1997-06-17 14:00,ZGNN 171400Z AUTO 03004KT 6SM 27/24 A2980 RMK SLP078 T02700240 IEM_DS3505
ZGNN,1997-06-17 15:00,ZGNN 171500Z AUTO 04002KT 12SM 28/24 A2983 RMK SLP080 T02830240 52018 IEM_DS3505
ZGNN,1997-06-17 16:00,ZGNN 171600Z AUTO 02004KT 6SM 27/25 A2983 RMK SLP088 T02700250 IEM_DS3505
ZGNN,1997-06-17 18:00,ZGNN 171800Z AUTO 04002KT 12SM 27/24 A2979 RMK SLP072 T02690245 57007 IEM_DS3505
ZGNN,1997-06-17 21:00,ZGNN 172100Z AUTO 07004KT 11SM 26/24 A2977 RMK SLP072 T02650239 57001 IEM_DS3505
ZGNN,1997-06-17 22:00,ZGNN 172200Z AUTO 06002KT 2 1/2SM 25/24 A2980 RMK SLP079 T02500240 IEM_DS3505
ZGNN,1997-06-17 23:00,ZGNN 172300Z AUTO 06002KT 2SM 25/24 A2980 RMK SLP079 T02500240 IEM_DS3505
ZGNN,1997-06-18 00:00,ZGNN 180000Z AUTO 09004KT 10SM 26/24 A2980 RMK SLP081 T02590242 52009 IEM_DS3505
ZGNN,1997-06-18 01:00,ZGNN 180100Z AUTO 07006KT 7SM 27/24 A2980 RMK SLP078 T02700240 IEM_DS3505
ZGNN,1997-06-18 02:00,ZGNN 180200Z AUTO 12006KT 7SM 28/24 A2980 RMK SLP078 T02800240 IEM_DS3505
ZGNN,1997-06-18 03:00,ZGNN 180300Z AUTO 07004KT 16SM 29/24 A2980 RMK SLP080 T02930239 57001 IEM_DS3505
ZGNN,1997-06-18 04:00,ZGNN 180400Z AUTO 14004KT 7SM 31/24 A2980 RMK SLP077 T03100240 IEM_DS3505
ZGNN,1997-06-18 05:00,ZGNN 180500Z AUTO 11004KT 7SM 31/23 A2977 RMK SLP067 T03100230 IEM_DS3505
ZGNN,1997-06-18 06:00,ZGNN 180600Z AUTO 11002KT 19SM 32/24 A2974 RMK SLP057 T03190243 57022 IEM_DS3505
ZGNN,1997-06-18 07:00,ZGNN 180700Z AUTO 14006KT 7SM 31/23 A2971 RMK SLP046 T03100230 IEM_DS3505
ZGNN,1997-06-18 08:00,ZGNN 180800Z AUTO 07004KT 7SM 30/25 A2971 RMK SLP046 T03000250 IEM_DS3505
ZGNN,1997-06-18 09:00,ZGNN 180900Z AUTO 06006KT 7SM 31/23 A2968 RMK SLP036 T03100230 IEM_DS3505
ZGNN,1997-06-18 10:00,ZGNN 181000Z AUTO 10004KT 6SM 30/24 A2968 RMK SLP036 T03000240 IEM_DS3505
ZGNN,1997-06-18 11:00,ZGNN 181100Z AUTO 16006KT 6SM 30/25 A2968 RMK SLP036 T03000250 IEM_DS3505
ZGNN,1997-06-18 12:00,ZGNN 181200Z AUTO 20006KT 10SM 30/25 A2974 RMK SLP049 T03030247 52010 IEM_DS3505
ZGNN,1997-06-18 13:00,ZGNN 181300Z AUTO 17010KT 7SM 28/24 A2974 RMK SLP057 T02800240 IEM_DS3505
ZGNN,1997-06-18 14:00,ZGNN 181400Z AUTO 00000KT 7SM 27/24 A2974 RMK SLP057 T02700240 IEM_DS3505
ZGNN,1997-06-18 15:00,ZGNN 181500Z AUTO 04004KT 11SM 26/24 A2977 RMK SLP068 T02640243 52019 IEM_DS3505
ZGNN,1997-06-18 18:00,ZGNN 181800Z AUTO 00000KT 11SM 26/24 A2973 RMK 60000 SLP052 T02590245 57015 IEM_DS3505
ZGNN,1997-06-18 21:00,ZGNN 182100Z AUTO 04002KT 9SM 26/25 A2971 RMK 70001 SLP050 T02580247 57002 IEM_DS3505
ZGNN,1997-06-18 22:00,ZGNN 182200Z AUTO 00000KT 7SM 25/24 A2971 RMK SLP047 T02500240 IEM_DS3505
ZGNN,1997-06-18 23:00,ZGNN 182300Z AUTO 00000KT 4SM 25/25 A2974 RMK SLP058 T02500250 IEM_DS3505
ZGNN,1997-06-19 00:00,ZGNN 190000Z AUTO 00000KT 7SM 26/25 A2974 RMK 70001 SLP060 T02650249 52009 IEM_DS3505
ZGNN,1997-06-19 01:00,ZGNN 190100Z AUTO 16004KT 7SM 27/25 A2977 RMK SLP068 T02700250 IEM_DS3505
ZGNN,1997-06-19 02:00,ZGNN 190200Z AUTO 00000KT 7SM 28/24 A2977 RMK SLP068 T02800240 IEM_DS3505
ZGNN,1997-06-19 03:00,ZGNN 190300Z AUTO 14004KT 11SM 29/25 A2977 RMK SLP063 T02890251 52003 IEM_DS3505
ZGNN,1997-06-19 04:00,ZGNN 190400Z AUTO 00000KT 7SM 30/24 A2974 RMK SLP056 T03000240 IEM_DS3505
ZGNN,1997-06-19 05:00,ZGNN 190500Z AUTO 09004KT 7SM 30/24 A2971 RMK SLP046 T03000240 IEM_DS3505
ZGNN,1997-06-19 06:00,ZGNN 190600Z AUTO 00000KT 9SM 28/25 A2971 RMK 60016 SLP047 T02810251 57016 IEM_DS3505
ZGNN,1997-06-19 07:00,ZGNN 190700Z AUTO 02004KT 7SM 31/24 A2968 RMK SLP036 T03100240 IEM_DS3505
ZGNN,1997-06-19 08:00,ZGNN 190800Z AUTO 08004KT 7SM 31/24 A2965 RMK SLP026 T03100240 IEM_DS3505
ZGNN,1997-06-19 09:00,ZGNN 190900Z AUTO 29002KT 16SM 30/25 A2965 RMK SLP029 T02990251 57018 IEM_DS3505
ZGNN,1997-06-19 10:00,ZGNN 191000Z AUTO 26006KT 2 1/2SM 26/25 A2968 RMK SLP037 T02600250 IEM_DS3505
ZGNN,1997-06-19 11:00,ZGNN 191100Z AUTO 24004KT 7SM 26/26 A2968 RMK SLP037 T02600260 IEM_DS3505
ZGNN,1997-06-19 12:00,ZGNN 191200Z AUTO 04004KT 16SM 27/26 A2971 RMK 60024 SLP043 T02720257 52014 IEM_DS3505
ZGNN,1997-06-19 13:00,ZGNN 191300Z AUTO 24006KT 7SM 26/24 A2971 RMK SLP047 T02600240 IEM_DS3505
ZGNN,1997-06-19 14:00,ZGNN 191400Z AUTO 00000KT 7SM 25/24 A2974 RMK SLP058 T02500240 IEM_DS3505
ZGNN,1997-06-19 15:00,ZGNN 191500Z AUTO 25002KT 16SM 26/25 A2974 RMK SLP056 T02630246 52013 IEM_DS3505
ZGNN,1997-06-19 16:00,ZGNN 191600Z AUTO 00000KT 6SM 25/24 A2974 RMK SLP058 T02500240 IEM_DS3505
ZGNN,1997-06-19 17:00,ZGNN 191700Z AUTO 00000KT 6SM 25/25 A2974 RMK SLP058 T02500250 IEM_DS3505
ZGNN,1997-06-19 18:00,ZGNN 191800Z AUTO 00000KT 14SM 26/25 A2973 RMK 60000 SLP054 T02600246 57002 IEM_DS3505
ZGNN,1997-06-19 21:00,ZGNN 192100Z AUTO 00000KT 12SM 26/25 A2971 RMK 70039 SLP048 T02600249 57006 IEM_DS3505
ZGNN,1997-06-19 22:00,ZGNN 192200Z AUTO 00000KT 4SM 26/25 A2971 RMK SLP047 T02600250 IEM_DS3505
ZGNN,1997-06-19 23:00,ZGNN 192300Z AUTO 00000KT 4SM 26/25 A2974 RMK SLP057 T02600250 IEM_DS3505
ZGNN,1997-06-20 00:00,ZGNN 200000Z AUTO 09002KT 5SM 27/25 A2974 RMK 70039 SLP054 T02680254 52006 IEM_DS3505
ZGNN,1997-06-20 01:00,ZGNN 200100Z AUTO 15006KT 4SM 27/25 A2974 RMK SLP057 T02700250 IEM_DS3505
ZGNN,1997-06-20 02:00,ZGNN 200200Z AUTO 16004KT 7SM 27/25 A2977 RMK SLP068 T02700250 IEM_DS3505
ZGNN,1997-06-20 03:00,ZGNN 200300Z AUTO 22002KT 9SM 28/26 A2977 RMK SLP065 T02830255 52011 IEM_DS3505
ZGNN,1997-06-20 04:00,ZGNN 200400Z AUTO 19004KT 7SM 28/25 A2974 RMK SLP057 T02800250 IEM_DS3505
ZGNN,1997-06-20 05:00,ZGNN 200500Z AUTO 17006KT 7SM 30/25 A2974 RMK SLP056 T03000250 IEM_DS3505
ZGNN,1997-06-20 06:00,ZGNN 200600Z AUTO 14004KT 16SM 30/25 A2971 RMK SLP046 T03030253 57019 IEM_DS3505
ZGNN,1997-06-20 07:00,ZGNN 200700Z AUTO 12008KT 7SM 31/25 A2971 RMK SLP046 T03100250 IEM_DS3505
ZGNN,1997-06-20 08:00,ZGNN 200800Z AUTO 14008KT 7SM 32/26 A2968 RMK SLP035 T03200260 IEM_DS3505
ZGNN,1997-06-20 09:00,ZGNN 200900Z AUTO 20002KT 19SM 31/26 A2971 RMK SLP036 T03090259 57009 IEM_DS3505
ZGNN,1997-06-20 10:00,ZGNN 201000Z AUTO 19010KT 7SM 26/25 A2971 RMK SLP047 T02600250 IEM_DS3505
ZGNN,1997-06-20 11:00,ZGNN 201100Z AUTO 10006KT 7SM 26/25 A2971 RMK SLP047 T02600250 IEM_DS3505
ZGNN,1997-06-20 12:00,ZGNN 201200Z AUTO 00000KT 11SM 27/24 A2971 RMK 60000 SLP047 T02730245 52010 IEM_DS3505
ZGNN,1997-06-20 13:00,ZGNN 201300Z AUTO 14004KT 7SM 25/24 A2971 RMK SLP047 T02500240 IEM_DS3505
ZGNN,1997-06-20 15:00,ZGNN 201500Z AUTO 07004KT 12SM 26/25 A2973 RMK SLP053 T02630246 52006 IEM_DS3505
ZGNN,1997-06-20 18:00,ZGNN 201800Z AUTO 09004KT 12SM 27/25 A2974 RMK SLP056 T02670249 52003 IEM_DS3505
ZGNN,1997-06-20 21:00,ZGNN 202100Z AUTO 04002KT 12SM 26/25 A2968 RMK 70000 SLP038 T02620246 57017 IEM_DS3505
ZGNN,1997-06-20 22:00,ZGNN 202200Z AUTO 15004KT 5SM 26/25 A2968 RMK SLP037 T02600250 IEM_DS3505
ZGNN,1997-06-20 23:00,ZGNN 202300Z AUTO 13006KT 4SM 26/25 A2971 RMK SLP047 T02600250 IEM_DS3505
ZGNN,1997-06-21 00:00,ZGNN 210000Z AUTO 11002KT 7SM 26/25 A2971 RMK 60031 70031 SLP050 T02590251 52011 IEM_DS3505
ZGNN,1997-06-21 01:00,ZGNN 210100Z AUTO 12004KT 7SM 26/25 A2974 RMK SLP057 T02600250 IEM_DS3505
ZGNN,1997-06-21 02:00,ZGNN 210200Z AUTO 04004KT 7SM 26/25 A2974 RMK SLP057 T02600250 IEM_DS3505
ZGNN,1997-06-21 03:00,ZGNN 210300Z AUTO 02004KT 9SM 25/23 A2974 RMK SLP061 T02460231 52011 IEM_DS3505
ZGNN,1997-06-21 04:00,ZGNN 210400Z AUTO 06006KT 7SM 25/24 A2974 RMK SLP058 T02500240 IEM_DS3505
ZGNN,1997-06-21 05:00,ZGNN 210500Z AUTO 07006KT 7SM 26/24 A2974 RMK SLP057 T02600240 IEM_DS3505
ZGNN,1997-06-21 06:00,ZGNN 210600Z AUTO 04004KT 12SM 27/24 A2971 RMK 60008 SLP049 T02690242 57012 IEM_DS3505
ZGNN,1997-06-21 07:00,ZGNN 210700Z AUTO 05004KT 7SM 27/25 A2968 RMK SLP037 T02700250 IEM_DS3505
ZGNN,1997-06-21 08:00,ZGNN 210800Z AUTO 01006KT 7SM 27/24 A2968 RMK SLP037 T02700240 IEM_DS3505
ZGNN,1997-06-21 09:00,ZGNN 210900Z AUTO 09004KT 16SM 28/24 A2968 RMK SLP037 T02780245 57012 IEM_DS3505
ZGNN,1997-06-21 10:00,ZGNN 211000Z AUTO 02006KT 7SM 27/24 A2968 RMK SLP037 T02700240 IEM_DS3505
ZGNN,1997-06-21 11:00,ZGNN 211100Z AUTO 35004KT 7SM 26/24 A2971 RMK SLP047 T02600240 IEM_DS3505
ZGNN,1997-06-21 12:00,ZGNN 211200Z AUTO 00000KT 16SM 27/24 A2974 RMK SLP054 T02680239 52017 IEM_DS3505
ZGNN,1997-06-21 13:00,ZGNN 211300Z AUTO 03002KT 7SM 26/24 A2974 RMK SLP057 T02600240 IEM_DS3505
ZGNN,1997-06-21 15:00,ZGNN 211500Z AUTO 00000KT 16SM 26/24 A2977 RMK SLP068 T02620240 52013 IEM_DS3505
ZGNN,1997-06-21 18:00,ZGNN 211800Z AUTO 25002KT 12SM 26/24 A2975 RMK SLP060 T02600240 57007 IEM_DS3505
ZGNN,1997-06-21 21:00,ZGNN 212100Z AUTO 29004KT 6SM 25/25 A2974 RMK 70051 SLP054 T02530246 57006 IEM_DS3505
ZGNN,1997-06-21 22:00,ZGNN 212200Z AUTO 35006KT 6SM 24/24 A2974 RMK SLP058 T02400240 IEM_DS3505
ZGNN,1997-06-21 23:00,ZGNN 212300Z AUTO 35006KT 7SM 24/24 A2974 RMK SLP058 T02400240 IEM_DS3505
ZGNN,1997-06-22 00:00,ZGNN 220000Z AUTO 02004KT 7SM 25/24 A2974 RMK 60087 70094 SLP059 T02490240 52005 IEM_DS3505
ZGNN,1997-06-22 01:00,ZGNN 220100Z AUTO 35006KT 1 1/2SM 25/24 A2977 RMK SLP069 T02500240 IEM_DS3505
ZGNN,1997-06-22 02:00,ZGNN 220200Z AUTO 36004KT 2 1/2SM 24/24 A2977 RMK SLP069 T02400240 IEM_DS3505
ZGNN,1997-06-22 03:00,ZGNN 220300Z AUTO 09002KT 9SM 26/24 A2976 RMK SLP065 T02550244 52006 IEM_DS3505
ZGNN,1997-06-22 04:00,ZGNN 220400Z AUTO 03004KT 2 1/2SM 24/23 A2977 RMK SLP069 T02400230 IEM_DS3505
ZGNN,1997-06-22 05:00,ZGNN 220500Z AUTO 34006KT 2 1/2SM 24/24 A2977 RMK SLP069 T02400240 IEM_DS3505
ZGNN,1997-06-22 06:00,ZGNN 220600Z AUTO 07002KT 2 1/2SM 24/24 A2974 RMK 60142 SLP057 T02380235 57009 IEM_DS3505
ZGNN,1997-06-22 07:00,ZGNN 220700Z AUTO 02002KT 3SM 24/24 A2974 RMK SLP058 T02400240 IEM_DS3505
ZGNN,1997-06-22 08:00,ZGNN 220800Z AUTO 29004KT 5SM 25/24 A2968 RMK SLP037 T02500240 IEM_DS3505
ZGNN,1997-06-22 09:00,ZGNN 220900Z AUTO 25004KT 4SM 25/24 A2965 RMK SLP031 T02530242 57025 IEM_DS3505
ZGNN,1997-06-22 10:00,ZGNN 221000Z AUTO 34004KT 7SM 26/24 A2965 RMK SLP027 T02600240 IEM_DS3505
ZGNN,1997-06-22 11:00,ZGNN 221100Z AUTO 34002KT 7SM 26/24 A2968 RMK SLP037 T02600240 IEM_DS3505
ZGNN,1997-06-22 12:00,ZGNN 221200Z AUTO 20004KT 7SM 26/25 A2971 RMK 60055 SLP040 T02560246 52009 IEM_DS3505
ZGNN,1997-06-22 13:00,ZGNN 221300Z AUTO 21004KT 7SM 25/24 A2971 RMK SLP047 T02500240 IEM_DS3505
ZGNN,1997-06-22 14:00,ZGNN 221400Z AUTO 25004KT 7SM 25/24 A2971 RMK SLP047 T02500240 IEM_DS3505
ZGNN,1997-06-22 15:00,ZGNN 221500Z AUTO 00000KT 6SM 25/24 A2974 RMK SLP052 T02530242 52012 IEM_DS3505
ZGNN,1997-06-22 18:00,ZGNN 221800Z AUTO 00000KT 9SM 25/24 A2970 RMK SLP046 T02520245 57007 IEM_DS3505
ZGNN,1997-06-22 21:00,ZGNN 222100Z AUTO 00000KT 7SM 25/25 A2968 RMK 70272 SLP035 T02520246 57010 IEM_DS3505
ZGNN,1997-06-22 22:00,ZGNN 222200Z AUTO 00000KT 4SM 24/24 A2968 RMK SLP038 T02400240 IEM_DS3505
ZGNN,1997-06-22 23:00,ZGNN 222300Z AUTO 20002KT 2 1/2SM 25/24 A2968 RMK SLP037 T02500240 IEM_DS3505
ZGNN,1997-06-23 00:00,ZGNN 230000Z AUTO 00000KT 6SM 26/24 A2968 RMK 70201 SLP040 T02550245 52005 IEM_DS3505
ZGNN,1997-06-23 01:00,ZGNN 230100Z AUTO 22006KT 5SM 26/24 A2971 RMK SLP047 T02600240 IEM_DS3505
ZGNN,1997-06-23 02:00,ZGNN 230200Z AUTO 00000KT 7SM 28/25 A2971 RMK SLP047 T02800250 IEM_DS3505
ZGNN,1997-06-23 03:00,ZGNN 230300Z AUTO 00000KT 6SM 27/25 A2971 RMK SLP043 T02730246 52003 IEM_DS3505
ZGNN,1997-06-23 04:00,ZGNN 230400Z AUTO 03004KT 7SM 29/24 A2968 RMK SLP036 T02900240 IEM_DS3505
ZGNN,1997-06-23 05:00,ZGNN 230500Z AUTO 00000KT 7SM 30/25 A2968 RMK SLP036 T03000250 IEM_DS3505
ZGNN,1997-06-23 06:00,ZGNN 230600Z AUTO 07004KT 11SM 31/25 A2965 RMK SLP026 T03060248 57016 IEM_DS3505
ZGNN,1997-06-23 07:00,ZGNN 230700Z AUTO 00000KT 7SM 31/24 A2962 RMK SLP016 T03100240 IEM_DS3505
ZGNN,1997-06-23 08:00,ZGNN 230800Z AUTO 00000KT 7SM 31/24 A2962 RMK SLP016 T03100240 IEM_DS3505
ZGNN,1997-06-23 09:00,ZGNN 230900Z AUTO 00000KT 12SM 32/24 A2959 RMK SLP012 T03230241 57014 IEM_DS3505
ZGNN,1997-06-23 10:00,ZGNN 231000Z AUTO 07004KT 7SM 31/25 A2959 RMK SLP005 T03100250 IEM_DS3505
ZGNN,1997-06-23 11:00,ZGNN 231100Z AUTO 00000KT 7SM 30/25 A2959 RMK SLP006 T03000250 IEM_DS3505
ZGNN,1997-06-23 12:00,ZGNN 231200Z AUTO 00000KT 12SM 30/26 A2962 RMK SLP016 T02960256 52003 IEM_DS3505
ZGNN,1997-06-23 13:00,ZGNN 231300Z AUTO 14004KT 7SM 28/25 A2962 RMK SLP016 T02800250 IEM_DS3505
ZGNN,1997-06-23 15:00,ZGNN 231500Z AUTO 20004KT 12SM 28/26 A2966 RMK SLP030 T02750255 52014 IEM_DS3505
ZGNN,1997-06-23 18:00,ZGNN 231800Z AUTO 07002KT 12SM 26/25 A2965 RMK SLP025 T02650251 57004 IEM_DS3505
ZGNN,1997-06-23 21:00,ZGNN 232100Z AUTO 04004KT 11SM 26/26 A2960 RMK SLP012 T02630255 57013 IEM_DS3505
ZGNN,1997-06-23 22:00,ZGNN 232200Z AUTO 00000KT 4SM 26/25 A2959 RMK SLP007 T02600250 IEM_DS3505
ZGNN,1997-06-23 23:00,ZGNN 232300Z AUTO 00000KT 4SM 26/25 A2959 RMK SLP007 T02600250 IEM_DS3505
ZGNN,1997-06-24 00:00,ZGNN 240000Z AUTO 07004KT 8SM 27/25 A2962 RMK SLP013 T02710253 52001 IEM_DS3505
ZGNN,1997-06-24 01:00,ZGNN 240100Z AUTO 00000KT 3SM 27/25 A2965 RMK SLP027 T02700250 IEM_DS3505
ZGNN,1997-06-24 02:00,ZGNN 240200Z AUTO 15004KT 7SM 28/25 A2965 RMK SLP026 T02800250 IEM_DS3505
ZGNN,1997-06-24 03:00,ZGNN 240300Z AUTO 00000KT 10SM 29/25 A2965 RMK SLP025 T02890253 52012 IEM_DS3505
ZGNN,1997-06-24 04:00,ZGNN 240400Z AUTO 20006KT 7SM 30/25 A2962 RMK SLP016 T03000250 IEM_DS3505
ZGNN,1997-06-24 05:00,ZGNN 240500Z AUTO 03004KT 7SM 31/25 A2959 RMK SLP005 T03100250 IEM_DS3505
ZGNN,1997-06-24 06:00,ZGNN 240600Z AUTO 02006KT 9SM 31/24 A2959 RMK SLP007 T03080241 57018 IEM_DS3505
ZGNN,1997-06-24 07:00,ZGNN 240700Z AUTO 35006KT 7SM 29/25 A2959 RMK SLP006 T02900250 IEM_DS3505
ZGNN,1997-06-24 08:00,ZGNN 240800Z AUTO 02006KT 7SM 28/24 A2956 RMK SLP996 T02800240 IEM_DS3505
ZGNN,1997-06-24 09:00,ZGNN 240900Z AUTO 00000KT 12SM 31/23 A2956 RMK SLP989 T03110231 57018 IEM_DS3505
ZGNN,1997-06-24 10:00,ZGNN 241000Z AUTO 00000KT 6SM 29/25 A2959 RMK SLP006 T02900250 IEM_DS3505
ZGNN,1997-06-24 11:00,ZGNN 241100Z AUTO 15004KT 7SM 29/25 A2959 RMK SLP006 T02900250 IEM_DS3505
ZGNN,1997-06-24 12:00,ZGNN 241200Z AUTO 00000KT 12SM 29/25 A2959 RMK SLP010 T02930249 52021 IEM_DS3505
ZGNN,1997-06-24 13:00,ZGNN 241300Z AUTO 00000KT 6SM 27/25 A2959 RMK SLP007 T02700250 IEM_DS3505
ZGNN,1997-06-24 15:00,ZGNN 241500Z AUTO 00000KT 11SM 28/25 A2962 RMK SLP015 T02760251 52005 IEM_DS3505
ZGNN,1997-06-24 18:00,ZGNN 241800Z AUTO 00000KT 12SM 27/25 A2961 RMK SLP012 T02710250 57003 IEM_DS3505
ZGNN,1997-06-24 21:00,ZGNN 242100Z AUTO 00000KT 12SM 26/24 A2959 RMK SLP008 T02560242 57004 IEM_DS3505
ZGNN,1997-06-24 23:00,ZGNN 242300Z AUTO 00000KT 5SM 25/24 A2962 RMK SLP017 T02500240 IEM_DS3505
ZGNN,1997-06-25 00:00,ZGNN 250000Z AUTO 07004KT 9SM 27/25 A2962 RMK SLP019 T02670251 52011 IEM_DS3505
ZGNN,1997-06-25 01:00,ZGNN 250100Z AUTO 00000KT 4SM 28/25 A2962 RMK SLP016 T02800250 IEM_DS3505
ZGNN,1997-06-25 02:00,ZGNN 250200Z AUTO 34004KT 4SM 28/25 A2962 RMK SLP016 T02800250 IEM_DS3505
ZGNN,1997-06-25 03:00,ZGNN 250300Z AUTO 00000KT 11SM 30/25 A2965 RMK SLP022 T03040251 52003 IEM_DS3505
ZGNN,1997-06-25 04:00,ZGNN 250400Z AUTO 35006KT 4SM 31/25 A2962 RMK SLP016 T03100250 IEM_DS3505
ZGNN,1997-06-25 06:00,ZGNN 250600Z AUTO 04004KT 12SM 33/25 A2959 RMK SLP007 T03270246 57015 IEM_DS3505
ZGNN,1997-06-25 07:00,ZGNN 250700Z AUTO 32006KT 6SM 28/23 A2959 RMK SLP006 T02800230 IEM_DS3505
ZGNN,1997-06-25 08:00,ZGNN 250800Z AUTO 33006KT 4SM 29/23 A2956 RMK SLP996 T02900230 IEM_DS3505
ZGNN,1997-06-25 09:00,ZGNN 250900Z AUTO 09002KT 16SM 31/23 A2956 RMK SLP998 T03070234 57009 IEM_DS3505
ZGNN,1997-06-25 10:00,ZGNN 251000Z AUTO 33008KT 7SM 28/24 A2959 RMK SLP006 T02800240 IEM_DS3505
ZGNN,1997-06-25 11:00,ZGNN 251100Z AUTO 00000KT 6SM 27/24 A2959 RMK SLP007 T02700240 IEM_DS3505
ZGNN,1997-06-25 12:00,ZGNN 251200Z AUTO 14002KT 17SM 28/24 A2959 RMK SLP009 T02820238 52011 IEM_DS3505
ZGNN,1997-06-25 13:00,ZGNN 251300Z AUTO 04004KT 6SM 26/24 A2959 RMK SLP007 T02600240 IEM_DS3505
ZGNN,1997-06-25 14:00,ZGNN 251400Z AUTO 00000KT 6SM 25/24 A2962 RMK SLP017 T02500240 IEM_DS3505
ZGNN,1997-06-25 15:00,ZGNN 251500Z AUTO 07002KT 14SM 27/25 A2964 RMK SLP024 T02700246 52015 IEM_DS3505
ZGNN,1997-06-25 18:00,ZGNN 251800Z AUTO 00000KT 11SM 26/25 A2963 RMK SLP019 T02600247 57005 IEM_DS3505
ZGNN,1997-06-25 21:00,ZGNN 252100Z AUTO 04002KT 11SM 25/24 A2965 RMK SLP021 T02540245 52002 IEM_DS3505
ZGNN,1997-06-25 22:00,ZGNN 252200Z AUTO 05004KT 4SM 25/24 A2965 RMK SLP027 T02500240 IEM_DS3505
ZGNN,1997-06-25 23:00,ZGNN 252300Z AUTO 03004KT 2SM 25/24 A2965 RMK SLP027 T02500240 IEM_DS3505
ZGNN,1997-06-26 00:00,ZGNN 260000Z AUTO 02004KT 7SM 26/24 A2965 RMK SLP032 T02630242 52010 IEM_DS3505
ZGNN,1997-06-26 01:00,ZGNN 260100Z AUTO 04004KT 3SM 27/25 A2968 RMK SLP037 T02700250 IEM_DS3505
ZGNN,1997-06-26 02:00,ZGNN 260200Z AUTO 05004KT 7SM 28/24 A2968 RMK SLP037 T02800240 IEM_DS3505
ZGNN,1997-06-26 03:00,ZGNN 260300Z AUTO 11002KT 11SM 30/24 A2968 RMK SLP031 T03050244 54000 IEM_DS3505
ZGNN,1997-06-26 04:00,ZGNN 260400Z AUTO 02004KT 7SM 31/24 A2965 RMK SLP026 T03100240 IEM_DS3505
ZGNN,1997-06-26 05:00,ZGNN 260500Z AUTO 35006KT 7SM 31/24 A2965 RMK SLP026 T03100240 IEM_DS3505
ZGNN,1997-06-26 06:00,ZGNN 260600Z AUTO 09004KT 16SM 32/24 A2962 RMK SLP012 T03250242 57019 IEM_DS3505
ZGNN,1997-06-26 07:00,ZGNN 260700Z AUTO 07006KT 7SM 32/25 A2959 RMK SLP005 T03200250 IEM_DS3505
ZGNN,1997-06-26 08:00,ZGNN 260800Z AUTO 04004KT 7SM 30/26 A2956 RMK SLP996 T03000260 IEM_DS3505
ZGNN,1997-06-26 09:00,ZGNN 260900Z AUTO 07002KT 17SM 33/25 A2956 RMK SLP996 T03260248 57016 IEM_DS3505
ZGNN,1997-06-26 10:00,ZGNN 261000Z AUTO 15006KT 6SM 30/25 A2956 RMK SLP996 T03000250 IEM_DS3505
ZGNN,1997-06-26 11:00,ZGNN 261100Z AUTO 16006KT 6SM 29/25 A2959 RMK SLP006 T02900250 IEM_DS3505
ZGNN,1997-06-26 12:00,ZGNN 261200Z AUTO 22002KT 17SM 29/24 A2962 RMK SLP015 T02870245 52018 IEM_DS3505
ZGNN,1997-06-26 13:00,ZGNN 261300Z AUTO 17002KT 6SM 27/24 A2962 RMK SLP017 T02700240 IEM_DS3505
ZGNN,1997-06-26 14:00,ZGNN 261400Z AUTO 00000KT 6SM 26/24 A2965 RMK SLP027 T02600240 IEM_DS3505
ZGNN,1997-06-26 15:00,ZGNN 261500Z AUTO 07002KT 16SM 27/24 A2964 RMK SLP025 T02710242 52011 IEM_DS3505
ZGNN,1997-06-26 18:00,ZGNN 261800Z AUTO 09002KT 14SM 26/25 A2961 RMK SLP014 T02630246 57011 IEM_DS3505
ZGNN,1997-06-26 21:00,ZGNN 262100Z AUTO 02002KT 14SM 26/24 A2960 RMK SLP011 T02610245 57003 IEM_DS3505
ZGNN,1997-06-26 22:00,ZGNN 262200Z AUTO 00000KT 4SM 25/24 A2959 RMK SLP007 T02500240 IEM_DS3505
ZGNN,1997-06-26 23:00,ZGNN 262300Z AUTO 03004KT 6SM 25/24 A2962 RMK SLP017 T02500240 IEM_DS3505
ZGNN,1997-06-27 00:00,ZGNN 270000Z AUTO 07004KT 12SM 27/25 A2962 RMK SLP024 T02660248 52012 IEM_DS3505
ZGNN,1997-06-27 01:00,ZGNN 270100Z AUTO 06004KT 7SM 26/24 A2965 RMK SLP027 T02600240 IEM_DS3505
ZGNN,1997-06-27 02:00,ZGNN 270200Z AUTO 06004KT 7SM 28/25 A2965 RMK SLP026 T02800250 IEM_DS3505
ZGNN,1997-06-27 03:00,ZGNN 270300Z AUTO 07006KT 16SM 30/24 A2965 RMK SLP026 T02990245 52003 IEM_DS3505
ZGNN,1997-06-27 06:00,ZGNN 270600Z AUTO 22004KT 19SM 32/24 A2959 RMK SLP009 T03150242 57017 IEM_DS3505
ZGNN,1997-06-27 07:00,ZGNN 270700Z AUTO 13006KT 7SM 28/24 A2959 RMK SLP006 T02800240 IEM_DS3505
ZGNN,1997-06-27 08:00,ZGNN 270800Z AUTO 15004KT 7SM 29/25 A2953 RMK SLP986 T02900250 IEM_DS3505
ZGNN,1997-06-27 09:00,ZGNN 270900Z AUTO 22004KT 19SM 31/24 A2953 RMK SLP985 T03140242 57024 IEM_DS3505
ZGNN,1997-06-27 10:00,ZGNN 271000Z AUTO 12004KT 7SM 30/23 A2953 RMK SLP986 T03000230 IEM_DS3505
ZGNN,1997-06-27 11:00,ZGNN 271100Z AUTO 13008KT 7SM 28/24 A2953 RMK SLP986 T02800240 IEM_DS3505
ZGNN,1997-06-27 12:00,ZGNN 271200Z AUTO 13004KT 19SM 29/24 A2956 RMK SLP997 T02890244 52012 IEM_DS3505
ZGNN,1997-06-27 13:00,ZGNN 271300Z AUTO 00000KT 7SM 26/24 A2959 RMK SLP007 T02600240 IEM_DS3505
ZGNN,1997-06-27 15:00,ZGNN 271500Z AUTO 07002KT 14SM 27/25 A2960 RMK SLP008 T02740247 52011 IEM_DS3505
ZGNN,1997-06-27 18:00,ZGNN 271800Z AUTO 07002KT 12SM 26/25 A2957 RMK SLP000 T02650249 57008 IEM_DS3505
ZGNN,1997-06-27 21:00,ZGNN 272100Z AUTO 09002KT 12SM 26/25 A2953 RMK SLP990 T02630246 57010 IEM_DS3505
ZGNN,1997-06-27 22:00,ZGNN 272200Z AUTO 12002KT 7SM 25/24 A2956 RMK SLP997 T02500240 IEM_DS3505
ZGNN,1997-06-27 23:00,ZGNN 272300Z AUTO 12002KT 7SM 26/24 A2956 RMK SLP997 T02600240 IEM_DS3505
ZGNN,1997-06-28 00:00,ZGNN 280000Z AUTO 07004KT 9SM 26/25 A2956 RMK 60016 70016 SLP003 T02570250 52013 IEM_DS3505
ZGNN,1997-06-28 01:00,ZGNN 280100Z AUTO 15004KT 7SM 27/24 A2959 RMK SLP007 T02700240 IEM_DS3505
ZGNN,1997-06-28 02:00,ZGNN 280200Z AUTO 00000KT 7SM 28/25 A2959 RMK SLP006 T02800250 IEM_DS3505
ZGNN,1997-06-28 03:00,ZGNN 280300Z AUTO 09004KT 12SM 28/24 A2956 RMK SLP000 T02850241 57003 IEM_DS3505
ZGNN,1997-06-28 04:00,ZGNN 280400Z AUTO 05006KT 7SM 29/25 A2956 RMK SLP996 T02900250 IEM_DS3505
ZGNN,1997-06-28 05:00,ZGNN 280500Z AUTO 11006KT 7SM 30/24 A2956 RMK SLP996 T03000240 IEM_DS3505
ZGNN,1997-06-28 06:00,ZGNN 280600Z AUTO 00000KT 14SM 32/25 A2953 RMK SLP985 T03150248 57015 IEM_DS3505
ZGNN,1997-06-28 07:00,ZGNN 280700Z AUTO 00000KT 7SM 32/25 A2950 RMK SLP975 T03200250 IEM_DS3505
ZGNN,1997-06-28 08:00,ZGNN 280800Z AUTO 16004KT 7SM 32/ A2947 RMK SLP965 IEM_DS3505
ZGNN,1997-06-28 09:00,ZGNN 280900Z AUTO 00000KT 16SM 32/25 A2947 RMK SLP962 T03250247 57023 IEM_DS3505
ZGNN,1997-06-28 10:00,ZGNN 281000Z AUTO 16012KT 7SM 29/25 A2950 RMK SLP976 T02900250 IEM_DS3505
ZGNN,1997-06-28 11:00,ZGNN 281100Z AUTO 13004KT 7SM 29/25 A2950 RMK SLP976 T02900250 IEM_DS3505
ZGNN,1997-06-28 12:00,ZGNN 281200Z AUTO 00000KT 12SM 28/26 A2953 RMK 60035 SLP988 T02750255 52025 IEM_DS3505
ZGNN,1997-06-28 13:00,ZGNN 281300Z AUTO 00000KT 7SM 26/24 A2953 RMK SLP987 T02600240 IEM_DS3505
ZGNN,1997-06-28 15:00,ZGNN 281500Z AUTO 11004KT 12SM 27/26 A2959 RMK SLP005 T02730258 52018 IEM_DS3505
ZGNN,1997-06-28 18:00,ZGNN 281800Z AUTO 00000KT 12SM 27/26 A2954 RMK SLP989 T02690255 57016 IEM_DS3505
ZGNN,1997-06-28 21:00,ZGNN 282100Z AUTO 07004KT 12SM 27/25 A2950 RMK 70051 SLP983 T02660252 57006 IEM_DS3505
ZGNN,1997-06-28 22:00,ZGNN 282200Z AUTO 17004KT 7SM 26/25 A2953 RMK SLP987 T02600250 IEM_DS3505
ZGNN,1997-06-28 23:00,ZGNN 282300Z AUTO 00000KT 7SM 27/25 A2953 RMK SLP986 T02700250 IEM_DS3505
ZGNN,1997-06-29 00:00,ZGNN 290000Z AUTO 00000KT 7SM 28/26 A2953 RMK 60000 70035 SLP994 T02750255 52011 IEM_DS3505
ZGNN,1997-06-29 01:00,ZGNN 290100Z AUTO 14008KT 7SM 28/25 A2956 RMK SLP996 T02800250 IEM_DS3505
ZGNN,1997-06-29 02:00,ZGNN 290200Z AUTO 14010KT 7SM 28/25 A2956 RMK SLP996 T02800250 IEM_DS3505
ZGNN,1997-06-29 03:00,ZGNN 290300Z AUTO 22004KT 9SM 28/25 A2956 RMK SLP000 T02780248 52006 IEM_DS3505
ZGNN,1997-06-29 04:00,ZGNN 290400Z AUTO 14012KT 7SM 28/24 A2956 RMK SLP996 T02800240 IEM_DS3505
ZGNN,1997-06-29 05:00,ZGNN 290500Z AUTO 16006KT 7SM 27/24 A2953 RMK SLP986 T02700240 IEM_DS3505
ZGNN,1997-06-29 06:00,ZGNN 290600Z AUTO 18004KT 19SM 27/24 A2953 RMK SLP988 T02690243 57012 IEM_DS3505
ZGNN,1997-06-29 07:00,ZGNN 290700Z AUTO 16008KT 7SM 28/25 A2950 RMK SLP976 T02800250 IEM_DS3505
ZGNN,1997-06-29 08:00,ZGNN 290800Z AUTO 15012KT 7SM 28/25 A2947 RMK SLP966 T02800250 IEM_DS3505
ZGNN,1997-06-29 09:00,ZGNN 290900Z AUTO 22002KT 19SM 28/25 A2950 RMK SLP975 T02820250 57013 IEM_DS3505
ZGNN,1997-06-29 10:00,ZGNN 291000Z AUTO 16010KT 7SM 28/25 A2950 RMK SLP976 T02800250 IEM_DS3505
ZGNN,1997-06-29 11:00,ZGNN 291100Z AUTO 15006KT 7SM 28/25 A2950 RMK SLP976 T02800250 IEM_DS3505
ZGNN,1997-06-29 12:00,ZGNN 291200Z AUTO 11002KT 16SM 28/25 A2950 RMK SLP978 T02770252 52003 IEM_DS3505
ZGNN,1997-06-29 13:00,ZGNN 291300Z AUTO 00000KT 7SM 27/25 A2953 RMK SLP986 T02700250 IEM_DS3505
ZGNN,1997-06-29 15:00,ZGNN 291500Z AUTO 07004KT 16SM 27/25 A2957 RMK SLP000 T02690252 52022 IEM_DS3505
ZGNN,1997-06-29 18:00,ZGNN 291800Z AUTO 07004KT 12SM 27/25 A2954 RMK SLP989 T02710254 57011 IEM_DS3505
ZGNN,1997-06-29 21:00,ZGNN 292100Z AUTO 11002KT 12SM 27/26 A2953 RMK 70001 SLP987 T02700260 57002 IEM_DS3505
ZGNN,1997-06-29 22:00,ZGNN 292200Z AUTO 13006KT 7SM 27/25 A2953 RMK SLP986 T02700250 IEM_DS3505
ZGNN,1997-06-29 23:00,ZGNN 292300Z AUTO 15006KT 7SM 27/25 A2953 RMK SLP986 T02700250 IEM_DS3505
ZGNN,1997-06-30 00:00,ZGNN 300000Z AUTO 00000KT 11SM 28/26 A2956 RMK SLP998 T02750255 52011 IEM_DS3505
ZGNN,1997-06-30 01:00,ZGNN 300100Z AUTO 16006KT 7SM 27/26 A2956 RMK SLP996 T02700260 IEM_DS3505
ZGNN,1997-06-30 02:00,ZGNN 300200Z AUTO 15012KT 7SM 29/25 A2959 RMK SLP006 T02900250 IEM_DS3505
ZGNN,1997-06-30 03:00,ZGNN 300300Z AUTO 22006KT 14SM 29/24 A2959 RMK SLP006 T02900245 52008 IEM_DS3505
ZGNN,1997-06-30 04:00,ZGNN 300400Z AUTO 19006KT 7SM 30/24 A2959 RMK SLP006 T03000240 IEM_DS3505
ZGNN,1997-06-30 05:00,ZGNN 300500Z AUTO 15010KT 7SM 30/25 A2956 RMK SLP996 T03000250 IEM_DS3505
ZGNN,1997-06-30 06:00,ZGNN 300600Z AUTO 20008KT 17SM 30/25 A2953 RMK 60000 SLP985 T03030253 57021 IEM_DS3505
ZGNN,1997-06-30 07:00,ZGNN 300700Z AUTO 14012KT 7SM 31/25 A2950 RMK SLP975 T03100250 IEM_DS3505
ZGNN,1997-06-30 08:00,ZGNN 300800Z AUTO 16012KT 7SM 30/25 A2950 RMK SLP975 T03000250 IEM_DS3505
ZGNN,1997-06-30 09:00,ZGNN 300900Z AUTO 22004KT 17SM 30/26 A2950 RMK SLP976 T02960257 57009 IEM_DS3505
ZGNN,1997-06-30 10:00,ZGNN 301000Z AUTO 15012KT 7SM 29/25 A2950 RMK SLP976 T02900250 IEM_DS3505
ZGNN,1997-06-30 11:00,ZGNN 301100Z AUTO 15012KT 7SM 29/25 A2953 RMK SLP986 T02900250 IEM_DS3505
ZGNN,1997-06-30 12:00,ZGNN 301200Z AUTO 02002KT 16SM 29/26 A2953 RMK SLP991 T02860257 52015 IEM_DS3505
ZGNN,1997-06-30 13:00,ZGNN 301300Z AUTO 17008KT 7SM 28/25 A2956 RMK SLP996 T02800250 IEM_DS3505
ZGNN,1997-06-30 15:00,ZGNN 301500Z AUTO 18002KT 16SM 28/26 A2960 RMK SLP009 T02780256 52018 IEM_DS3505
ZGNN,1997-06-30 18:00,ZGNN 301800Z AUTO 27004KT 16SM 28/26 A2957 RMK SLP999 T02750255 57010 IEM_DS3505
ZGNN,1997-06-30 21:00,ZGNN 302100Z AUTO 25002KT 16SM 28/25 A2956 RMK 70000 SLP994 T02750253 57005 IEM_DS3505
ZGNN,1997-06-30 22:00,ZGNN 302200Z AUTO 00000KT 7SM 27/25 A2956 RMK SLP996 T02700250 IEM_DS3505
ZGNN,1997-07-01 00:00,ZGNN 010000Z AUTO 07004KT 16SM 28/26 A2959 RMK SLP007 T02810257 52013 IEM_DS3505
ZGNN,1997-07-01 01:00,ZGNN 010100Z AUTO 14008KT 7SM 29/25 A2959 RMK SLP006 T02900250 IEM_DS3505
ZGNN,1997-07-01 02:00,ZGNN 010200Z AUTO 15008KT 7SM 30/26 A2962 RMK SLP016 T03000260 IEM_DS3505
ZGNN,1997-07-01 03:00,ZGNN 010300Z AUTO 27004KT 16SM 31/26 A2962 RMK SLP014 T03140260 52007 IEM_DS3505
ZGNN,1997-07-01 04:00,ZGNN 010400Z AUTO 17012KT 7SM 31/25 A2962 RMK SLP016 T03100250 IEM_DS3505
ZGNN,1997-07-01 05:00,ZGNN 010500Z AUTO 19010KT 7SM 32/26 A2959 RMK SLP005 T03200260 IEM_DS3505
ZGNN,1997-07-01 06:00,ZGNN 010600Z AUTO 20004KT 19SM 32/25 A2956 RMK SLP997 T03210254 57017 IEM_DS3505
ZGNN,1997-07-01 07:00,ZGNN 010700Z AUTO 13002KT 7SM 28/26 A2956 RMK SLP996 T02800260 IEM_DS3505
ZGNN,1997-07-01 08:00,ZGNN 010800Z AUTO 17014KT 7SM 29/25 A2953 RMK SLP986 T02900250 IEM_DS3505
ZGNN,1997-07-01 09:00,ZGNN 010900Z AUTO 04004KT 9SM 28/27 A2953 RMK SLP992 T02830269 57005 IEM_DS3505
ZGNN,1997-07-01 10:00,ZGNN 011000Z AUTO 12012KT 1SM 27/26 A2956 RMK SLP996 T02700260 IEM_DS3505
ZGNN,1997-07-01 11:00,ZGNN 011100Z AUTO 18004KT 7SM 27/26 A2956 RMK SLP996 T02700260 IEM_DS3505
ZGNN,1997-07-01 12:00,ZGNN 011200Z AUTO 00000KT 9SM 28/26 A2956 RMK 60035 SLP999 T02810262 52007 IEM_DS3505
ZGNN,1997-07-01 13:00,ZGNN 011300Z AUTO 16008KT 7SM 27/25 A2959 RMK SLP007 T02700250 IEM_DS3505
ZGNN,1997-07-01 15:00,ZGNN 011500Z AUTO 11002KT 10SM 28/26 A2965 RMK SLP028 T02770256 52029 IEM_DS3505
ZGNN,1997-07-01 18:00,ZGNN 011800Z AUTO 27002KT 12SM 27/26 A2963 RMK 60002 SLP021 T02730255 57007 IEM_DS3505
ZGNN,1997-07-01 21:00,ZGNN 012100Z AUTO 00000KT 11SM 27/25 A2962 RMK 70039 SLP013 T02700253 57008 IEM_DS3505
ZGNN,1997-07-01 22:00,ZGNN 012200Z AUTO 04002KT 6SM 26/25 A2962 RMK SLP017 T02600250 IEM_DS3505
ZGNN,1997-07-01 23:00,ZGNN 012300Z AUTO 06004KT 7SM 26/25 A2962 RMK SLP017 T02600250 IEM_DS3505
ZGNN,1997-07-02 00:00,ZGNN 020000Z AUTO 16002KT 14SM 28/26 A2965 RMK 70039 SLP024 T02820257 52011 IEM_DS3505
ZGNN,1997-07-02 01:00,ZGNN 020100Z AUTO 16006KT 7SM 29/25 A2965 RMK SLP026 T02900250 IEM_DS3505
ZGNN,1997-07-02 02:00,ZGNN 020200Z AUTO 17010KT 7SM 31/25 A2965 RMK SLP026 T03100250 IEM_DS3505
ZGNN,1997-07-02 03:00,ZGNN 020300Z AUTO 14004KT 17SM 32/26 A2965 RMK SLP024 T03170259 54000 IEM_DS3505
ZGNN,1997-07-02 04:00,ZGNN 020400Z AUTO 16010KT 7SM 32/26 A2962 RMK SLP015 T03200260 IEM_DS3505
ZGNN,1997-07-02 06:00,ZGNN 020600Z AUTO 27004KT 16SM 29/26 A2959 RMK 60002 SLP008 T02900259 57016 IEM_DS3505
ZGNN,1997-07-02 07:00,ZGNN 020700Z AUTO 17008KT 7SM 33/25 A2956 RMK SLP995 T03300250 IEM_DS3505
ZGNN,1997-07-02 08:00,ZGNN 020800Z AUTO 12008KT 7SM 30/26 A2956 RMK SLP996 T03000260 IEM_DS3505
ZGNN,1997-07-02 09:00,ZGNN 020900Z AUTO 04004KT 16SM 27/26 A2956 RMK SLP996 T02660255 57013 IEM_DS3505
ZGNN,1997-07-02 10:00,ZGNN 021000Z AUTO 15010KT 7SM 28/26 A2953 RMK SLP986 T02800260 IEM_DS3505
ZGNN,1997-07-02 11:00,ZGNN 021100Z AUTO 16006KT 7SM 28/25 A2956 RMK SLP996 T02800250 IEM_DS3505
ZGNN,1997-07-02 12:00,ZGNN 021200Z AUTO 00000KT 19SM 28/26 A2959 RMK 60043 SLP005 T02850261 52010 IEM_DS3505
ZGNN,1997-07-02 13:00,ZGNN 021300Z AUTO 15006KT 6SM 28/25 A2962 RMK SLP016 T02800250 IEM_DS3505
ZGNN,1997-07-02 15:00,ZGNN 021500Z AUTO 29002KT 17SM 28/26 A2965 RMK SLP026 T02800258 52021 IEM_DS3505
ZGNN,1997-07-02 18:00,ZGNN 021800Z AUTO 09004KT 4SM 28/26 A2964 RMK SLP023 T02750257 57003 IEM_DS3505
ZGNN,1997-07-02 21:00,ZGNN 022100Z AUTO 00000KT 16SM 27/26 A2959 RMK 70047 SLP010 T02740257 57014 IEM_DS3505
ZGNN,1997-07-02 22:00,ZGNN 022200Z AUTO 00000KT 7SM 26/25 A2959 RMK SLP007 T02600250 IEM_DS3505
ZGNN,1997-07-02 23:00,ZGNN 022300Z AUTO 00000KT 7SM 26/25 A2962 RMK SLP017 T02600250 IEM_DS3505
ZGNN,1997-07-03 00:00,ZGNN 030000Z AUTO 00000KT 14SM 28/26 A2962 RMK 70047 SLP019 T02790260 52010 IEM_DS3505
ZGNN,1997-07-03 01:00,ZGNN 030100Z AUTO 16004KT 6SM 28/26 A2965 RMK SLP026 T02800260 IEM_DS3505
ZGNN,1997-07-03 02:00,ZGNN 030200Z AUTO 18006KT 6SM 29/25 A2965 RMK SLP026 T02900250 IEM_DS3505
ZGNN,1997-07-03 03:00,ZGNN 030300Z AUTO 20004KT 16SM 30/26 A2965 RMK SLP021 T03050259 52002 IEM_DS3505
ZGNN,1997-07-03 04:00,ZGNN 030400Z AUTO 19008KT 7SM 31/26 A2962 RMK SLP016 T03100260 IEM_DS3505
ZGNN,1997-07-03 05:00,ZGNN 030500Z AUTO 17010KT 7SM 32/25 A2959 RMK SLP005 T03200250 IEM_DS3505
ZGNN,1997-07-03 06:00,ZGNN 030600Z AUTO 11004KT 15SM 32/26 A2959 RMK SLP003 T03210260 57018 IEM_DS3505
ZGNN,1997-07-03 07:00,ZGNN 030700Z AUTO 13012KT 7SM 31/24 A2956 RMK SLP995 T03100240 IEM_DS3505
ZGNN,1997-07-03 08:00,ZGNN 030800Z AUTO 14006KT 7SM 29/26 A2956 RMK SLP996 T02900260 IEM_DS3505
ZGNN,1997-07-03 09:00,ZGNN 030900Z AUTO 09002KT 12SM 29/26 A2953 RMK SLP990 T02910263 57013 IEM_DS3505
ZGNN,1997-07-03 10:00,ZGNN 031000Z AUTO 14006KT 7SM 29/26 A2956 RMK SLP996 T02900260 IEM_DS3505
ZGNN,1997-07-03 11:00,ZGNN 031100Z AUTO 13006KT 7SM 28/26 A2956 RMK SLP996 T02800260 IEM_DS3505
ZGNN,1997-07-03 12:00,ZGNN 031200Z AUTO 07002KT 19SM 28/26 A2959 RMK 60024 SLP003 T02840260 52013 IEM_DS3505
ZGNN,1997-07-03 13:00,ZGNN 031300Z AUTO 15006KT 7SM 28/26 A2959 RMK SLP006 T02800260 IEM_DS3505
ZGNN,1997-07-03 15:00,ZGNN 031500Z AUTO 20002KT 17SM 28/26 A2965 RMK SLP026 T02790257 52023 IEM_DS3505
ZGNN,1997-07-03 18:00,ZGNN 031800Z AUTO 07002KT 16SM 28/26 A2962 RMK SLP016 T02750255 57010 IEM_DS3505
ZGNN,1997-07-03 21:00,ZGNN 032100Z AUTO 20002KT 16SM 27/25 A2959 RMK 70024 SLP001 T02740254 57015 IEM_DS3505
ZGNN,1997-07-03 22:00,ZGNN 032200Z AUTO 00000KT 7SM 26/25 A2956 RMK SLP997 T02600250 IEM_DS3505
ZGNN,1997-07-03 23:00,ZGNN 032300Z AUTO 00000KT 7SM 27/25 A2959 RMK SLP007 T02700250 IEM_DS3505
ZGNN,1997-07-04 00:00,ZGNN 040000Z AUTO 14006KT 7SM 27/25 A2959 RMK SLP007 T02700250 IEM_DS3505
ZGNN,1997-07-04 01:00,ZGNN 040100Z AUTO 15008KT 6SM 28/25 A2962 RMK SLP016 T02800250 IEM_DS3505
ZGNN,1997-07-04 02:00,ZGNN 040200Z AUTO 16008KT 7SM 28/24 A2962 RMK SLP016 T02800240 IEM_DS3505
ZGNN,1997-07-04 03:00,ZGNN 040300Z AUTO 22006KT 16SM 29/26 A2965 RMK SLP023 T02920262 52012 IEM_DS3505
ZGNN,1997-07-04 04:00,ZGNN 040400Z AUTO 17006KT 7SM 30/26 A2962 RMK SLP016 T03000260 IEM_DS3505
ZGNN,1997-07-04 05:00,ZGNN 040500Z AUTO 16008KT 7SM 30/26 A2962 RMK SLP016 T03000260 IEM_DS3505
ZGNN,1997-07-04 06:00,ZGNN 040600Z AUTO 27004KT 17SM 31/26 A2959 RMK SLP007 T03060259 57016 IEM_DS3505
ZGNN,1997-07-04 07:00,ZGNN 040700Z AUTO 14010KT 7SM 30/26 A2959 RMK SLP006 T03000260 IEM_DS3505
ZGNN,1997-07-04 08:00,ZGNN 040800Z AUTO 15006KT 7SM 30/26 A2956 RMK SLP996 T03000260 IEM_DS3505
ZGNN,1997-07-04 09:00,ZGNN 040900Z AUTO 32002KT 16SM 30/26 A2956 RMK SLP996 T03010261 57011 IEM_DS3505
ZGNN,1997-07-04 10:00,ZGNN 041000Z AUTO 36006KT 7SM 28/25 A2956 RMK SLP996 T02800250 IEM_DS3505
ZGNN,1997-07-04 11:00,ZGNN 041100Z AUTO 09006KT 7SM 27/26 A2956 RMK SLP996 T02700260 IEM_DS3505
ZGNN,1997-07-04 12:00,ZGNN 041200Z AUTO 04004KT 12SM 26/24 A2959 RMK 60028 SLP016 T02650245 52019 IEM_DS3505
ZGNN,1997-07-04 13:00,ZGNN 041300Z AUTO 00000KT 7SM 27/26 A2962 RMK SLP017 T02700260 IEM_DS3505
ZGNN,1997-07-04 15:00,ZGNN 041500Z AUTO 07002KT 9SM 27/26 A2967 RMK SLP035 T02740260 52020 IEM_DS3505
ZGNN,1997-07-04 18:00,ZGNN 041800Z AUTO 07002KT 11SM 27/26 A2964 RMK 60000 SLP024 T02730256 57011 IEM_DS3505
ZGNN,1997-07-04 21:00,ZGNN 042100Z AUTO 00000KT 10SM 27/26 A2962 RMK 70028 SLP018 T02710260 57006 IEM_DS3505
ZGNN,1997-07-04 22:00,ZGNN 042200Z AUTO 00000KT 7SM 26/25 A2962 RMK SLP017 T02600250 IEM_DS3505
ZGNN,1997-07-04 23:00,ZGNN 042300Z AUTO 14008KT 7SM 27/25 A2965 RMK SLP027 T02700250 IEM_DS3505
ZGNN,1997-07-05 00:00,ZGNN 050000Z AUTO 25002KT 12SM 27/24 A2965 RMK 70028 SLP028 T02720245 52009 IEM_DS3505
ZGNN,1997-07-05 01:00,ZGNN 050100Z AUTO 15006KT 7SM 26/24 A2968 RMK SLP037 T02600240 IEM_DS3505
ZGNN,1997-07-05 02:00,ZGNN 050200Z AUTO 15008KT 7SM 26/25 A2971 RMK SLP047 T02600250 IEM_DS3505
ZGNN,1997-07-05 03:00,ZGNN 050300Z AUTO 16002KT 11SM 26/25 A2971 RMK SLP043 T02650249 52015 IEM_DS3505
ZGNN,1997-07-05 04:00,ZGNN 050400Z AUTO 16006KT 7SM 27/25 A2968 RMK SLP037 T02700250 IEM_DS3505
ZGNN,1997-07-05 05:00,ZGNN 050500Z AUTO 16010KT 7SM 27/25 A2968 RMK SLP037 T02700250 IEM_DS3505
ZGNN,1997-07-05 06:00,ZGNN 050600Z AUTO 22006KT 19SM 28/25 A2968 RMK 60008 SLP029 T02820247 57014 IEM_DS3505
ZGNN,1997-07-05 07:00,ZGNN 050700Z AUTO 18006KT 7SM 26/25 A2965 RMK SLP027 T02600250 IEM_DS3505
ZGNN,1997-07-05 08:00,ZGNN 050800Z AUTO 18004KT 7SM 26/25 A2962 RMK SLP017 T02600250 IEM_DS3505
ZGNN,1997-07-05 09:00,ZGNN 050900Z AUTO 22004KT 19SM 27/25 A2962 RMK SLP011 T02720252 57018 IEM_DS3505
ZGNN,1997-07-05 10:00,ZGNN 051000Z AUTO 17004KT 7SM 27/25 A2959 RMK SLP007 T02700250 IEM_DS3505
ZGNN,1997-07-05 11:00,ZGNN 051100Z AUTO 18004KT 7SM 27/26 A2959 RMK SLP007 T02700260 IEM_DS3505
ZGNN,1997-07-05 12:00,ZGNN 051200Z AUTO 09002KT 19SM 28/26 A2962 RMK 60000 SLP017 T02760262 52006 IEM_DS3505
ZGNN,1997-07-05 13:00,ZGNN 051300Z AUTO 14004KT 7SM 27/26 A2962 RMK SLP017 T02700260 IEM_DS3505
ZGNN,1997-07-05 15:00,ZGNN 051500Z AUTO 00000KT 19SM 28/26 A2965 RMK SLP027 T02760259 52010 IEM_DS3505
ZGNN,1997-07-05 18:00,ZGNN 051800Z AUTO 07002KT 19SM 27/26 A2964 RMK SLP024 T02710260 57003 IEM_DS3505
ZGNN,1997-07-05 21:00,ZGNN 052100Z AUTO 00000KT 16SM 27/26 A2959 RMK 70008 SLP012 T02700257 57012 IEM_DS3505
ZGNN,1997-07-05 22:00,ZGNN 052200Z AUTO 00000KT 7SM 26/25 A2959 RMK SLP007 T02600250 IEM_DS3505
ZGNN,1997-07-05 23:00,ZGNN 052300Z AUTO 14004KT 7SM 26/25 A2959 RMK SLP007 T02600250 IEM_DS3505
ZGNN,1997-07-06 00:00,ZGNN 060000Z AUTO 00000KT 16SM 28/26 A2962 RMK 70008 SLP014 T02780261 52003 IEM_DS3505
ZGNN,1997-07-06 01:00,ZGNN 060100Z AUTO 18008KT 7SM 29/26 A2962 RMK SLP016 T02900260 IEM_DS3505
ZGNN,1997-07-06 02:00,ZGNN 060200Z AUTO 17006KT 7SM 29/25 A2962 RMK SLP016 T02900250 IEM_DS3505
ZGNN,1997-07-06 03:00,ZGNN 060300Z AUTO 20008KT 17SM 30/26 A2962 RMK SLP012 T03030259 57002 IEM_DS3505
ZGNN,1997-07-06 04:00,ZGNN 060400Z AUTO 21004KT 7SM 30/25 A2959 RMK SLP006 T03000250 IEM_DS3505
ZGNN,1997-07-06 05:00,ZGNN 060500Z AUTO 20012KT 7SM 24/24 A2959 RMK SLP007 T02400240 IEM_DS3505
ZGNN,1997-07-06 06:00,ZGNN 060600Z AUTO 20006KT 12SM 26/23 A2959 RMK 60008 SLP008 T02630234 57005 IEM_DS3505
ZGNN,1997-07-06 07:00,ZGNN 060700Z AUTO 20002KT 7SM 25/24 A2956 RMK SLP997 T02500240 IEM_DS3505
ZGNN,1997-07-06 08:00,ZGNN 060800Z AUTO 00000KT 7SM 25/24 A2956 RMK SLP997 T02500240 IEM_DS3505
ZGNN,1997-07-06 09:00,ZGNN 060900Z AUTO 11002KT 9SM 25/24 A2956 RMK SLP999 T02530242 57009 IEM_DS3505
ZGNN,1997-07-06 10:00,ZGNN 061000Z AUTO 12002KT 4SM 25/25 A2956 RMK SLP997 T02500250 IEM_DS3505
ZGNN,1997-07-06 11:00,ZGNN 061100Z AUTO 12004KT 4SM 25/25 A2956 RMK SLP997 T02500250 IEM_DS3505
ZGNN,1997-07-06 12:00,ZGNN 061200Z AUTO 00000KT 16SM 26/25 A2956 RMK 60020 SLP002 T02590251 52003 IEM_DS3505
ZGNN,1997-07-06 13:00,ZGNN 061300Z AUTO 00000KT 4SM 26/25 A2959 RMK SLP007 T02600250 IEM_DS3505
ZGNN,1997-07-06 15:00,ZGNN 061500Z AUTO 04002KT 16SM 26/26 A2961 RMK SLP013 T02620255 52012 IEM_DS3505
ZGNN,1997-07-06 18:00,ZGNN 061800Z AUTO 00000KT 16SM 26/26 A2959 RMK SLP006 T02640257 57008 IEM_DS3505
ZGNN,1997-07-06 21:00,ZGNN 062100Z AUTO 04002KT 16SM 26/26 A2956 RMK 70028 SLP998 T02640257 57008 IEM_DS3505
ZGNN,1997-07-06 22:00,ZGNN 062200Z AUTO 00000KT 6SM 26/25 A2956 RMK SLP997 T02600250 IEM_DS3505
ZGNN,1997-07-06 23:00,ZGNN 062300Z AUTO 00000KT 6SM 26/25 A2956 RMK SLP997 T02600250 IEM_DS3505
ZGNN,1997-07-07 00:00,ZGNN 070000Z AUTO 00000KT 9SM 27/26 A2959 RMK 60004 70028 SLP007 T02700263 52009 IEM_DS3505
ZGNN,1997-07-07 01:00,ZGNN 070100Z AUTO 17002KT 6SM 28/26 A2959 RMK SLP006 T02800260 IEM_DS3505
ZGNN,1997-07-07 02:00,ZGNN 070200Z AUTO 20006KT 6SM 29/26 A2959 RMK SLP006 T02900260 IEM_DS3505
ZGNN,1997-07-07 03:00,ZGNN 070300Z AUTO 22004KT 16SM 30/26 A2959 RMK SLP009 T02990263 52003 IEM_DS3505
ZGNN,1997-07-07 04:00,ZGNN 070400Z AUTO 23004KT 7SM 31/25 A2959 RMK SLP005 T03100250 IEM_DS3505
ZGNN,1997-07-07 05:00,ZGNN 070500Z AUTO 21006KT 7SM 31/25 A2959 RMK SLP005 T03100250 IEM_DS3505
ZGNN,1997-07-07 06:00,ZGNN 070600Z AUTO 29006KT 16SM 32/25 A2956 RMK SLP995 T03210248 57014 IEM_DS3505
ZGNN,1997-07-07 07:00,ZGNN 070700Z AUTO 21008KT 7SM 33/24 A2953 RMK SLP985 T03300240 IEM_DS3505
ZGNN,1997-07-07 08:00,ZGNN 070800Z AUTO 25008KT 7SM 30/23 A2956 RMK SLP996 T03000230 IEM_DS3505
ZGNN,1997-07-07 09:00,ZGNN 070900Z AUTO 25006KT 19SM 31/23 A2956 RMK SLP996 T03090232 52001 IEM_DS3505
ZGNN,1997-07-07 10:00,ZGNN 071000Z AUTO 27004KT 7SM 29/24 A2956 RMK SLP996 T02900240 IEM_DS3505
ZGNN,1997-07-07 11:00,ZGNN 071100Z AUTO 25004KT 7SM 29/24 A2956 RMK SLP996 T02900240 IEM_DS3505
ZGNN,1997-07-07 12:00,ZGNN 071200Z AUTO 29002KT 19SM 28/25 A2959 RMK SLP009 T02840249 52013 IEM_DS3505
ZGNN,1997-07-07 13:00,ZGNN 071300Z AUTO 00000KT 6SM 27/25 A2959 RMK SLP007 T02700250 IEM_DS3505
ZGNN,1997-07-07 15:00,ZGNN 071500Z AUTO 07002KT 16SM 27/26 A2962 RMK SLP016 T02720257 52007 IEM_DS3505
ZGNN,1997-07-07 18:00,ZGNN 071800Z AUTO 07002KT 16SM 27/25 A2960 RMK SLP008 T02670253 57008 IEM_DS3505
ZGNN,1997-07-07 21:00,ZGNN 072100Z AUTO 22004KT 12SM 25/24 A2959 RMK 70051 SLP010 T02460239 52002 IEM_DS3505
ZGNN,1997-07-07 22:00,ZGNN 072200Z AUTO 00000KT 7SM 25/24 A2959 RMK SLP007 T02500240 IEM_DS3505
ZGNN,1997-07-07 23:00,ZGNN 072300Z AUTO 00000KT 7SM 25/25 A2962 RMK SLP017 T02500250 IEM_DS3505
ZGNN,1997-07-08 00:00,ZGNN 080000Z AUTO 25002KT 9SM 25/24 A2962 RMK 60067 70067 SLP018 T02520243 52007 IEM_DS3505
ZGNN,1997-07-08 01:00,ZGNN 080100Z AUTO 27004KT 7SM 25/25 A2962 RMK SLP017 T02500250 IEM_DS3505
ZGNN,1997-07-08 02:00,ZGNN 080200Z AUTO 27006KT 7SM 26/24 A2965 RMK SLP027 T02600240 IEM_DS3505
ZGNN,1997-07-08 03:00,ZGNN 080300Z AUTO 25004KT 9SM 25/24 A2965 RMK SLP027 T02490237 52009 IEM_DS3505
ZGNN,1997-07-08 04:00,ZGNN 080400Z AUTO 24006KT 7SM 26/24 A2965 RMK SLP027 T02600240 IEM_DS3505
ZGNN,1997-07-08 05:00,ZGNN 080500Z AUTO 23006KT 7SM 26/24 A2965 RMK SLP027 T02600240 IEM_DS3505
ZGNN,1997-07-08 06:00,ZGNN 080600Z AUTO 27006KT 6SM 24/23 A2962 RMK 60091 SLP021 T02430234 57006 IEM_DS3505
ZGNN,1997-07-08 07:00,ZGNN 080700Z AUTO 31004KT 7SM 25/24 A2962 RMK SLP017 T02500240 IEM_DS3505
ZGNN,1997-07-08 08:00,ZGNN 080800Z AUTO 31004KT 7SM 25/24 A2962 RMK SLP017 T02500240 IEM_DS3505
ZGNN,1997-07-08 09:00,ZGNN 080900Z AUTO 29004KT 12SM 25/24 A2962 RMK SLP015 T02510237 57006 IEM_DS3505
ZGNN,1997-07-08 10:00,ZGNN 081000Z AUTO 00000KT 7SM 25/23 A2962 RMK SLP017 T02500230 IEM_DS3505
ZGNN,1997-07-08 12:00,ZGNN 081200Z AUTO 27004KT 7SM 24/24 A2965 RMK 60063 SLP025 T02420238 52010 IEM_DS3505
ZGNN,1997-07-08 13:00,ZGNN 081300Z AUTO 35008KT 7SM 24/23 A2968 RMK SLP038 T02400230 IEM_DS3505
ZGNN,1997-07-08 15:00,ZGNN 081500Z AUTO 04002KT 6SM 24/23 A2968 RMK SLP039 T02380232 52013 IEM_DS3505
ZGNN,1997-07-08 18:00,ZGNN 081800Z AUTO 00000KT 9SM 24/22 A2967 RMK 60020 SLP034 T02350223 57005 IEM_DS3505
ZGNN,1997-07-08 21:00,ZGNN 082100Z AUTO 36002KT 9SM 24/22 A2965 RMK 70185 SLP031 T02360220 57003 IEM_DS3505
ZGNN,1997-07-08 22:00,ZGNN 082200Z AUTO 36006KT 7SM 24/23 A2965 RMK SLP028 T02400230 IEM_DS3505
ZGNN,1997-07-08 23:00,ZGNN 082300Z AUTO 00000KT 7SM 24/23 A2968 RMK SLP038 T02400230 IEM_DS3505
ZGNN,1997-07-09 00:00,ZGNN 090000Z AUTO 00000KT 10SM 24/23 A2968 RMK 70169 SLP038 T02390227 52007 IEM_DS3505
ZGNN,1997-07-09 01:00,ZGNN 090100Z AUTO 00000KT 7SM 24/21 A2968 RMK SLP038 T02400210 IEM_DS3505
ZGNN,1997-07-09 02:00,ZGNN 090200Z AUTO 33006KT 7SM 25/21 A2971 RMK SLP047 T02500210 IEM_DS3505
ZGNN,1997-07-09 03:00,ZGNN 090300Z AUTO 32002KT 11SM 27/22 A2971 RMK SLP041 T02670221 52004 IEM_DS3505
ZGNN,1997-07-09 04:00,ZGNN 090400Z AUTO 31006KT 7SM 28/21 A2968 RMK SLP037 T02800210 IEM_DS3505
ZGNN,1997-07-09 05:00,ZGNN 090500Z AUTO 01006KT 7SM 28/22 A2968 RMK SLP037 T02800220 IEM_DS3505
ZGNN,1997-07-09 06:00,ZGNN 090600Z AUTO 34002KT 14SM 27/22 A2968 RMK SLP033 T02730220 57008 IEM_DS3505
ZGNN,1997-07-09 07:00,ZGNN 090700Z AUTO 33006KT 7SM 28/22 A2965 RMK SLP026 T02800220 IEM_DS3505
ZGNN,1997-07-09 08:00,ZGNN 090800Z AUTO 33006KT 7SM 28/22 A2965 RMK SLP026 T02800220 IEM_DS3505
ZGNN,1997-07-09 09:00,ZGNN 090900Z AUTO 14002KT 9SM 25/24 A2962 RMK SLP024 T02540237 57009 IEM_DS3505
ZGNN,1997-07-09 10:00,ZGNN 091000Z AUTO 36004KT 7SM 28/22 A2965 RMK SLP026 T02800220 IEM_DS3505
ZGNN,1997-07-09 11:00,ZGNN 091100Z AUTO 06006KT 7SM 25/24 A2965 RMK SLP027 T02500240 IEM_DS3505
ZGNN,1997-07-09 12:00,ZGNN 091200Z AUTO 20002KT 12SM 25/23 A2968 RMK 60000 SLP034 T02480231 52009 IEM_DS3505
ZGNN,1997-07-09 13:00,ZGNN 091300Z AUTO 00000KT 7SM 24/23 A2968 RMK SLP038 T02400230 IEM_DS3505
ZGNN,1997-07-09 14:00,ZGNN 091400Z AUTO 00000KT 7SM 24/23 A2968 RMK SLP038 T02400230 IEM_DS3505
ZGNN,1997-07-09 15:00,ZGNN 091500Z AUTO 00000KT 12SM 25/23 A2970 RMK SLP043 T02470231 52010 IEM_DS3505
ZGNN,1997-07-09 18:00,ZGNN 091800Z AUTO 00000KT 12SM 25/24 A2969 RMK SLP041 T02460236 57002 IEM_DS3505
ZGNN,1997-07-09 21:00,ZGNN 092100Z AUTO 00000KT 9SM 24/23 A2968 RMK 70001 SLP036 T02450230 57005 IEM_DS3505
ZGNN,1997-07-09 22:00,ZGNN 092200Z AUTO 00000KT 4SM 24/23 A2968 RMK SLP038 T02400230 IEM_DS3505
ZGNN,1997-07-09 23:00,ZGNN 092300Z AUTO 00000KT 2 1/2SM 24/23 A2968 RMK SLP038 T02400230 IEM_DS3505
ZGNN,1997-07-10 00:00,ZGNN 100000Z AUTO 02002KT 3SM 25/24 A2971 RMK 70001 SLP045 T02480236 52008 IEM_DS3505
ZGNN,1997-07-10 01:00,ZGNN 100100Z AUTO 36004KT 4SM 26/23 A2971 RMK SLP047 T02600230 IEM_DS3505
ZGNN,1997-07-10 02:00,ZGNN 100200Z AUTO 32006KT 6SM 27/23 A2971 RMK SLP047 T02700230 IEM_DS3505
ZGNN,1997-07-10 03:00,ZGNN 100300Z AUTO 00000KT 9SM 29/22 A2971 RMK SLP049 T02870221 52005 IEM_DS3505
ZGNN,1997-07-10 04:00,ZGNN 100400Z AUTO 00000KT 7SM 29/21 A2971 RMK SLP046 T02900210 IEM_DS3505
ZGNN,1997-07-10 06:00,ZGNN 100600Z AUTO 07004KT 12SM 29/23 A2971 RMK SLP045 T02910227 57004 IEM_DS3505
ZGNN,1997-07-10 07:00,ZGNN 100700Z AUTO 00000KT 7SM 30/22 A2968 RMK SLP036 T03000220 IEM_DS3505
ZGNN,1997-07-10 08:00,ZGNN 100800Z AUTO 33004KT 7SM 30/22 A2968 RMK SLP036 T03000220 IEM_DS3505
ZGNN,1997-07-10 09:00,ZGNN 100900Z AUTO 34002KT 19SM 30/22 A2968 RMK SLP032 T03020219 57013 IEM_DS3505
ZGNN,1997-07-10 10:00,ZGNN 101000Z AUTO 33006KT 6SM 30/22 A2965 RMK SLP026 T03000220 IEM_DS3505
ZGNN,1997-07-10 11:00,ZGNN 101100Z AUTO 33004KT 6SM 29/23 A2968 RMK SLP036 T02900230 IEM_DS3505
ZGNN,1997-07-10 12:00,ZGNN 101200Z AUTO 00000KT 16SM 28/23 A2968 RMK SLP042 T02830234 52010 IEM_DS3505
ZGNN,1997-07-10 13:00,ZGNN 101300Z AUTO 00000KT 6SM 27/23 A2971 RMK SLP047 T02700230 IEM_DS3505
ZGNN,1997-07-10 15:00,ZGNN 101500Z AUTO 07002KT 12SM 26/24 A2976 RMK SLP063 T02630239 52021 IEM_DS3505
ZGNN,1997-07-10 18:00,ZGNN 101800Z AUTO 00000KT 12SM 25/23 A2974 RMK SLP057 T02530234 57006 IEM_DS3505
ZGNN,1997-07-10 21:00,ZGNN 102100Z AUTO 00000KT 12SM 25/23 A2974 RMK SLP053 T02460234 57004 IEM_DS3505
ZGNN,1997-07-10 22:00,ZGNN 102200Z AUTO 00000KT 2SM 24/23 A2974 RMK SLP058 T02400230 IEM_DS3505
ZGNN,1997-07-10 23:00,ZGNN 102300Z AUTO 00000KT 1 1/4SM 24/23 A2977 RMK SLP069 T02400230 IEM_DS3505
ZGNN,1997-07-11 00:00,ZGNN 110000Z AUTO 04002KT 5SM 25/24 A2977 RMK SLP068 T02530239 52015 IEM_DS3505
ZGNN,1997-07-11 01:00,ZGNN 110100Z AUTO 33004KT 6SM 27/23 A2977 RMK SLP068 T02700230 IEM_DS3505
ZGNN,1997-07-11 02:00,ZGNN 110200Z AUTO 33004KT 6SM 28/23 A2977 RMK SLP068 T02800230 IEM_DS3505
ZGNN,1997-07-11 03:00,ZGNN 110300Z AUTO 09004KT 9SM 29/23 A2977 RMK SLP070 T02940234 52002 IEM_DS3505
ZGNN,1997-07-11 04:00,ZGNN 110400Z AUTO 16006KT 7SM 30/23 A2977 RMK SLP067 T03000230 IEM_DS3505
ZGNN,1997-07-11 05:00,ZGNN 110500Z AUTO 09006KT 7SM 31/22 A2977 RMK SLP067 T03100220 IEM_DS3505
ZGNN,1997-07-11 06:00,ZGNN 110600Z AUTO 04004KT 12SM 31/23 A2974 RMK SLP053 T03140232 57017 IEM_DS3505
ZGNN,1997-07-11 07:00,ZGNN 110700Z AUTO 13006KT 7SM 32/24 A2971 RMK SLP045 T03200240 IEM_DS3505
ZGNN,1997-07-11 08:00,ZGNN 110800Z AUTO 16006KT 7SM 32/22 A2971 RMK SLP045 T03200220 IEM_DS3505
ZGNN,1997-07-11 09:00,ZGNN 110900Z AUTO 00000KT 14SM 32/23 A2968 RMK SLP038 T03150230 57015 IEM_DS3505
ZGNN,1997-07-11 10:00,ZGNN 111000Z AUTO 11010KT 7SM 31/24 A2968 RMK SLP036 T03100240 IEM_DS3505
ZGNN,1997-07-11 11:00,ZGNN 111100Z AUTO 09006KT 6SM 29/24 A2968 RMK SLP036 T02900240 IEM_DS3505
ZGNN,1997-07-11 12:00,ZGNN 111200Z AUTO 07002KT 12SM 29/24 A2971 RMK SLP050 T02930242 52012 IEM_DS3505
ZGNN,1997-07-11 13:00,ZGNN 111300Z AUTO 08004KT 7SM 28/24 A2974 RMK SLP057 T02800240 IEM_DS3505
ZGNN,1997-07-11 15:00,ZGNN 111500Z AUTO 00000KT 12SM 28/24 A2978 RMK SLP070 T02780239 52020 IEM_DS3505
ZGNN,1997-07-11 18:00,ZGNN 111800Z AUTO 20002KT 11SM 27/25 A2977 RMK SLP066 T02690246 57003 IEM_DS3505
ZGNN,1997-07-11 21:00,ZGNN 112100Z AUTO 07004KT 11SM 26/25 A2974 RMK SLP063 T02630249 57004 IEM_DS3505
ZGNN,1997-07-11 22:00,ZGNN 112200Z AUTO 00000KT 3SM 26/25 A2974 RMK SLP057 T02600250 IEM_DS3505
ZGNN,1997-07-11 23:00,ZGNN 112300Z AUTO 07002KT 3SM 26/25 A2974 RMK SLP057 T02600250 IEM_DS3505
ZGNN,1997-07-12 00:00,ZGNN 120000Z AUTO 09002KT 7SM 27/25 A2977 RMK SLP064 T02680252 52001 IEM_DS3505
ZGNN,1997-07-12 01:00,ZGNN 120100Z AUTO 11008KT 7SM 28/25 A2977 RMK SLP068 T02800250 IEM_DS3505
ZGNN,1997-07-12 02:00,ZGNN 120200Z AUTO 12008KT 7SM 29/24 A2977 RMK SLP067 T02900240 IEM_DS3505
ZGNN,1997-07-12 03:00,ZGNN 120300Z AUTO 20004KT 10SM 29/25 A2977 RMK SLP067 T02880253 52003 IEM_DS3505
ZGNN,1997-07-12 04:00,ZGNN 120400Z AUTO 14010KT 7SM 30/25 A2977 RMK SLP067 T03000250 IEM_DS3505
ZGNN,1997-07-12 05:00,ZGNN 120500Z AUTO 16010KT 7SM 29/25 A2977 RMK SLP067 T02900250 IEM_DS3505
ZGNN,1997-07-12 06:00,ZGNN 120600Z AUTO 00000KT 9SM 26/24 A2974 RMK 60043 SLP056 T02590245 57011 IEM_DS3505
ZGNN,1997-07-12 07:00,ZGNN 120700Z AUTO 13008KT 7SM 30/25 A2971 RMK SLP046 T03000250 IEM_DS3505
ZGNN,1997-07-12 08:00,ZGNN 120800Z AUTO 16008KT 6SM 31/25 A2971 RMK SLP046 T03100250 IEM_DS3505
ZGNN,1997-07-12 09:00,ZGNN 120900Z AUTO 20006KT 16SM 32/26 A2971 RMK SLP041 T03190257 57014 IEM_DS3505
ZGNN,1997-07-12 10:00,ZGNN 121000Z AUTO 14006KT 6SM 29/24 A2968 RMK SLP036 T02900240 IEM_DS3505
ZGNN,1997-07-12 11:00,ZGNN 121100Z AUTO 16004KT 6SM 29/25 A2971 RMK SLP046 T02900250 IEM_DS3505
ZGNN,1997-07-12 12:00,ZGNN 121200Z AUTO 00000KT 14SM 29/25 A2971 RMK 60000 SLP053 T02880246 52011 IEM_DS3505
ZGNN,1997-07-12 13:00,ZGNN 121300Z AUTO 14004KT 6SM 27/25 A2974 RMK SLP057 T02700250 IEM_DS3505
ZGNN,1997-07-12 15:00,ZGNN 121500Z AUTO 11002KT 12SM 27/25 A2977 RMK SLP068 T02740250 52015 IEM_DS3505
ZGNN,1997-07-12 18:00,ZGNN 121800Z AUTO 00000KT 12SM 27/25 A2977 RMK SLP067 T02670254 57001 IEM_DS3505
ZGNN,1997-07-12 21:00,ZGNN 122100Z AUTO 07004KT 11SM 26/25 A2977 RMK 70047 SLP064 T02640253 57002 IEM_DS3505
ZGNN,1997-07-12 22:00,ZGNN 122200Z AUTO 00000KT 7SM 24/23 A2977 RMK SLP069 T02400230 IEM_DS3505
ZGNN,1997-07-12 23:00,ZGNN 122300Z AUTO 00000KT 7SM 25/24 A2977 RMK SLP069 T02500240 IEM_DS3505
ZGNN,1997-07-13 00:00,ZGNN 130000Z AUTO 07002KT 11SM 27/25 A2980 RMK 60004 70047 SLP073 T02740253 52008 IEM_DS3505
ZGNN,1997-07-13 01:00,ZGNN 130100Z AUTO 12006KT 7SM 29/25 A2980 RMK SLP078 T02900250 IEM_DS3505
ZGNN,1997-07-13 02:00,ZGNN 130200Z AUTO 13010KT 7SM 30/25 A2980 RMK SLP077 T03000250 IEM_DS3505
ZGNN,1997-07-13 03:00,ZGNN 130300Z AUTO 00000KT 14SM 30/25 A2980 RMK SLP077 T03050253 52004 IEM_DS3505
ZGNN,1997-07-13 04:00,ZGNN 130400Z AUTO 18004KT 7SM 31/25 A2980 RMK SLP077 T03100250 IEM_DS3505
ZGNN,1997-07-13 05:00,ZGNN 130500Z AUTO 08006KT 7SM 32/25 A2977 RMK SLP067 T03200250 IEM_DS3505
ZGNN,1997-07-13 06:00,ZGNN 130600Z AUTO 09004KT 16SM 32/26 A2974 RMK SLP059 T03240258 57017 IEM_DS3505
ZGNN,1997-07-13 07:00,ZGNN 130700Z AUTO 18006KT 7SM 31/24 A2971 RMK SLP046 T03100240 IEM_DS3505
ZGNN,1997-07-13 08:00,ZGNN 130800Z AUTO 19006KT 7SM 31/25 A2971 RMK SLP046 T03100250 IEM_DS3505
ZGNN,1997-07-13 09:00,ZGNN 130900Z AUTO 25002KT 16SM 31/25 A2971 RMK SLP043 T03080249 57016 IEM_DS3505
ZGNN,1997-07-13 10:00,ZGNN 131000Z AUTO 00000KT 7SM 27/26 A2971 RMK SLP047 T02700260 IEM_DS3505
ZGNN,1997-07-13 11:00,ZGNN 131100Z AUTO 00000KT 7SM 27/25 A2971 RMK SLP047 T02700250 IEM_DS3505
ZGNN,1997-07-13 12:00,ZGNN 131200Z AUTO 00000KT 16SM 29/25 A2971 RMK SLP050 T02890253 52006 IEM_DS3505
ZGNN,1997-07-13 13:00,ZGNN 131300Z AUTO 00000KT 7SM 27/25 A2974 RMK SLP057 T02700250 IEM_DS3505
ZGNN,1997-07-13 15:00,ZGNN 131500Z AUTO 09002KT 14SM 28/25 A2979 RMK SLP073 T02760254 52023 IEM_DS3505
ZGNN,1997-07-13 18:00,ZGNN 131800Z AUTO 07004KT 12SM 27/25 A2977 RMK SLP068 T02690252 57004 IEM_DS3505
ZGNN,1997-07-13 21:00,ZGNN 132100Z AUTO 07004KT 12SM 26/24 A2974 RMK SLP059 T02620242 57010 IEM_DS3505
ZGNN,1997-07-13 22:00,ZGNN 132200Z AUTO 00000KT 7SM 25/24 A2974 RMK SLP058 T02500240 IEM_DS3505
ZGNN,1997-07-13 23:00,ZGNN 132300Z AUTO 07004KT 7SM 25/24 A2977 RMK SLP069 T02500240 IEM_DS3505
ZGNN,1997-07-14 00:00,ZGNN 140000Z AUTO 09004KT 12SM 26/24 A2977 RMK SLP069 T02650242 52010 IEM_DS3505
ZGNN,1997-07-14 01:00,ZGNN 140100Z AUTO 11006KT 7SM 28/25 A2977 RMK SLP068 T02800250 IEM_DS3505
ZGNN,1997-07-14 02:00,ZGNN 140200Z AUTO 11008KT 7SM 30/25 A2977 RMK SLP067 T03000250 IEM_DS3505
ZGNN,1997-07-14 03:00,ZGNN 140300Z AUTO 09004KT 14SM 30/25 A2977 RMK SLP067 T02960247 52003 IEM_DS3505
ZGNN,1997-07-14 04:00,ZGNN 140400Z AUTO 11006KT 7SM 31/24 A2977 RMK SLP067 T03100240 IEM_DS3505
ZGNN,1997-07-14 05:00,ZGNN 140500Z AUTO 13008KT 7SM 31/25 A2974 RMK SLP056 T03100250 IEM_DS3505
ZGNN,1997-07-14 06:00,ZGNN 140600Z AUTO 11004KT 17SM 32/25 A2974 RMK SLP047 T03230249 57024 IEM_DS3505
ZGNN,1997-07-14 07:00,ZGNN 140700Z AUTO 20006KT 7SM 26/25 A2971 RMK SLP047 T02600250 IEM_DS3505
ZGNN,1997-07-14 08:00,ZGNN 140800Z AUTO 20006KT 7SM 28/25 A2968 RMK SLP037 T02800250 IEM_DS3505
ZGNN,1997-07-14 09:00,ZGNN 140900Z AUTO 00000KT 16SM 30/26 A2965 RMK SLP025 T03050256 57022 IEM_DS3505
ZGNN,1997-07-14 10:00,ZGNN 141000Z AUTO 15004KT 7SM 28/25 A2965 RMK SLP026 T02800250 IEM_DS3505
ZGNN,1997-07-14 11:00,ZGNN 141100Z AUTO 20004KT 7SM 28/25 A2965 RMK SLP026 T02800250 IEM_DS3505
ZGNN,1997-07-14 12:00,ZGNN 141200Z AUTO 22004KT 16SM 26/26 A2969 RMK 60063 SLP039 T02640256 52013 IEM_DS3505
ZGNN,1997-07-14 13:00,ZGNN 141300Z AUTO 14008KT 7SM RMK IEM_DS3505
ZGNN,1997-07-14 15:00,ZGNN 141500Z AUTO 09004KT 17SM 27/25 A2974 RMK SLP058 T02710254 52019 IEM_DS3505
ZGNN,1997-07-14 18:00,ZGNN 141800Z AUTO 04004KT 16SM 26/25 A2970 RMK 60016 SLP043 T02610253 57014 IEM_DS3505
ZGNN,1997-07-14 19:00,ZGNN 141900Z AUTO 00000KT 7SM 26/25 A2971 RMK SLP047 T02600250 IEM_DS3505
ZGNN,1997-07-14 20:00,ZGNN 142000Z AUTO 00000KT 7SM 25/25 A2968 RMK SLP037 T02500250 IEM_DS3505
ZGNN,1997-07-14 21:00,ZGNN 142100Z AUTO 07004KT 16SM 26/25 A2965 RMK 70075 SLP030 T02570246 57013 IEM_DS3505
ZGNN,1997-07-14 22:00,ZGNN 142200Z AUTO 05004KT 7SM 25/25 A2968 RMK SLP037 T02500250 IEM_DS3505
ZGNN,1997-07-14 23:00,ZGNN 142300Z AUTO 04004KT 7SM 25/25 A2968 RMK SLP037 T02500250 IEM_DS3505
ZGNN,1997-07-15 00:00,ZGNN 150000Z AUTO 07006KT 12SM 26/24 A2968 RMK 70075 SLP041 T02620245 52010 IEM_DS3505
ZGNN,1997-07-15 01:00,ZGNN 150100Z AUTO 06006KT 7SM 26/24 A2971 RMK SLP047 T02600240 IEM_DS3505
ZGNN,1997-07-15 02:00,ZGNN 150200Z AUTO 07006KT 7SM 28/25 A2971 RMK SLP047 T02800250 IEM_DS3505
ZGNN,1997-07-15 03:00,ZGNN 150300Z AUTO 09004KT 14SM 29/25 A2971 RMK SLP043 T02940252 52002 IEM_DS3505
ZGNN,1997-07-15 04:00,ZGNN 150400Z AUTO 09006KT 7SM 27/25 A2968 RMK SLP037 T02700250 IEM_DS3505
ZGNN,1997-07-15 05:00,ZGNN 150500Z AUTO 12006KT 7SM 28/25 A2968 RMK SLP037 T02800250 IEM_DS3505
ZGNN,1997-07-15 06:00,ZGNN 150600Z AUTO 07004KT 16SM 26/25 A2965 RMK 60047 SLP028 T02610247 57015 IEM_DS3505
ZGNN,1997-07-15 07:00,ZGNN 150700Z AUTO 12010KT 7SM 29/25 A2962 RMK SLP016 T02900250 IEM_DS3505
ZGNN,1997-07-15 08:00,ZGNN 150800Z AUTO 09008KT 7SM 29/25 A2962 RMK SLP016 T02900250 IEM_DS3505
ZGNN,1997-07-15 09:00,ZGNN 150900Z AUTO 04006KT 19SM 27/25 A2959 RMK SLP012 T02740253 57016 IEM_DS3505
ZGNN,1997-07-15 10:00,ZGNN 151000Z AUTO 08006KT 7SM 28/25 A2959 RMK SLP006 T02800250 IEM_DS3505
ZGNN,1997-07-15 11:00,ZGNN 151100Z AUTO 09006KT 7SM 28/25 A2962 RMK SLP016 T02800250 IEM_DS3505
ZGNN,1997-07-15 12:00,ZGNN 151200Z AUTO 07004KT 16SM 27/26 A2965 RMK SLP027 T02710258 52015 IEM_DS3505
ZGNN,1997-07-15 13:00,ZGNN 151300Z AUTO 10004KT 7SM 26/25 A2965 RMK SLP027 T02600250 IEM_DS3505
ZGNN,1997-07-15 15:00,ZGNN 151500Z AUTO 09002KT 16SM 26/26 A2970 RMK SLP044 T02650255 52017 IEM_DS3505
ZGNN,1997-07-15 18:00,ZGNN 151800Z AUTO 09002KT 14SM 26/25 A2966 RMK 60002 SLP029 T02570248 57015 IEM_DS3505
ZGNN,1997-07-15 21:00,ZGNN 152100Z AUTO 07004KT 12SM 26/25 A2962 RMK 70051 SLP022 T02560247 57007 IEM_DS3505
ZGNN,1997-07-15 22:00,ZGNN 152200Z AUTO 05004KT 7SM 25/24 A2962 RMK SLP017 T02500240 IEM_DS3505
ZGNN,1997-07-15 23:00,ZGNN 152300Z AUTO 06004KT 7SM 25/25 A2965 RMK SLP027 T02500250 IEM_DS3505
ZGNN,1997-07-16 00:00,ZGNN 160000Z AUTO 00000KT 11SM 27/25 A2965 RMK 70051 SLP033 T02690249 52011 IEM_DS3505
ZGNN,1997-07-16 01:00,ZGNN 160100Z AUTO 09008KT 7SM 26/25 A2968 RMK SLP037 T02600250 IEM_DS3505
ZGNN,1997-07-16 02:00,ZGNN 160200Z AUTO 09008KT 7SM 27/24 A2968 RMK SLP037 T02700240 IEM_DS3505
ZGNN,1997-07-16 03:00,ZGNN 160300Z AUTO 07006KT 12SM 29/25 A2968 RMK SLP035 T02900252 52002 IEM_DS3505
ZGNN,1997-07-16 04:00,ZGNN 160400Z AUTO 11010KT 7SM 27/25 A2968 RMK SLP037 T02700250 IEM_DS3505
ZGNN,1997-07-16 05:00,ZGNN 160500Z AUTO 11006KT 7SM 27/25 A2968 RMK SLP037 T02700250 IEM_DS3505
ZGNN,1997-07-16 06:00,ZGNN 160600Z AUTO 16002KT 19SM 30/26 A2965 RMK 60000 SLP023 T02960257 57012 IEM_DS3505
ZGNN,1997-07-16 07:00,ZGNN 160700Z AUTO 14006KT 7SM 29/25 A2962 RMK SLP016 T02900250 IEM_DS3505
ZGNN,1997-07-16 08:00,ZGNN 160800Z AUTO 12004KT 7SM 30/25 A2959 RMK SLP006 T03000250 IEM_DS3505
ZGNN,1997-07-16 09:00,ZGNN 160900Z AUTO 04004KT 19SM 29/26 A2959 RMK SLP004 T02910255 57018 IEM_DS3505
ZGNN,1997-07-16 10:00,ZGNN 161000Z AUTO 10006KT 7SM 28/25 A2959 RMK SLP006 T02800250 IEM_DS3505
ZGNN,1997-07-16 11:00,ZGNN 161100Z AUTO 08006KT 7SM 28/25 A2959 RMK SLP006 T02800250 IEM_DS3505
ZGNN,1997-07-16 12:00,ZGNN 161200Z AUTO 07002KT 19SM 28/25 A2962 RMK SLP017 T02770250 52012 IEM_DS3505
ZGNN,1997-07-16 13:00,ZGNN 161300Z AUTO 09002KT 7SM 26/25 A2965 RMK SLP027 T02600250 IEM_DS3505
ZGNN,1997-07-16 15:00,ZGNN 161500Z AUTO 00000KT 19SM 27/25 A2970 RMK SLP045 T02670254 52028 IEM_DS3505
ZGNN,1997-07-16 18:00,ZGNN 161800Z AUTO 00000KT 19SM 26/25 A2969 RMK SLP040 T02600253 57005 IEM_DS3505
ZGNN,1997-07-16 21:00,ZGNN 162100Z AUTO 00000KT 16SM 26/25 A2965 RMK 70000 SLP033 T02570250 57007 IEM_DS3505
ZGNN,1997-07-16 22:00,ZGNN 162200Z AUTO 08002KT 4SM 25/25 A2968 RMK SLP037 T02500250 IEM_DS3505
ZGNN,1997-07-16 23:00,ZGNN 162300Z AUTO 08002KT 4SM 25/25 A2968 RMK SLP037 T02500250 IEM_DS3505
ZGNN,1997-07-17 00:00,ZGNN 170000Z AUTO 00000KT 12SM 26/25 A2968 RMK SLP042 T02650251 52009 IEM_DS3505
ZGNN,1997-07-17 01:00,ZGNN 170100Z AUTO 13006KT 7SM 27/25 A2971 RMK SLP047 T02700250 IEM_DS3505
ZGNN,1997-07-17 02:00,ZGNN 170200Z AUTO 11004KT 7SM 29/25 A2971 RMK SLP046 T02900250 IEM_DS3505
ZGNN,1997-07-17 03:00,ZGNN 170300Z AUTO 00000KT 14SM 30/26 A2971 RMK SLP046 T02990259 52004 IEM_DS3505
ZGNN,1997-07-17 04:00,ZGNN 170400Z AUTO 21004KT 7SM 31/ A2971 RMK SLP046 IEM_DS3505
ZGNN,1997-07-17 05:00,ZGNN 170500Z AUTO 14006KT 7SM 31/24 A2968 RMK SLP036 T03100240 IEM_DS3505
ZGNN,1997-07-17 06:00,ZGNN 170600Z AUTO 20004KT 19SM 32/25 A2968 RMK SLP035 T03170251 57010 IEM_DS3505
ZGNN,1997-07-17 07:00,ZGNN 170700Z AUTO 22006KT 7SM 30/24 A2965 RMK SLP026 T03000240 IEM_DS3505
ZGNN,1997-07-17 08:00,ZGNN 170800Z AUTO 17006KT 7SM 31/24 A2962 RMK SLP016 T03100240 IEM_DS3505
ZGNN,1997-07-17 09:00,ZGNN 170900Z AUTO 11002KT 19SM 31/25 A2962 RMK SLP016 T03110249 57019 IEM_DS3505
ZGNN,1997-07-17 10:00,ZGNN 171000Z AUTO 08006KT 7SM 29/24 A2962 RMK SLP016 T02900240 IEM_DS3505
ZGNN,1997-07-17 11:00,ZGNN 171100Z AUTO 14006KT 7SM 29/25 A2965 RMK SLP026 T02900250 IEM_DS3505
ZGNN,1997-07-17 12:00,ZGNN 171200Z AUTO 09002KT 19SM 28/24 A2968 RMK SLP036 T02820245 52019 IEM_DS3505
ZGNN,1997-07-17 13:00,ZGNN 171300Z AUTO 16004KT 6SM 27/25 A2971 RMK SLP047 T02700250 IEM_DS3505
ZGNN,1997-07-17 14:00,ZGNN 171400Z AUTO 12004KT 6SM 27/25 A2974 RMK SLP057 T02700250 IEM_DS3505
ZGNN,1997-07-17 15:00,ZGNN 171500Z AUTO 07002KT 19SM 28/24 A2974 RMK SLP057 T02750244 52021 IEM_DS3505
ZGNN,1997-07-17 18:00,ZGNN 171800Z AUTO 00000KT 19SM 27/25 A2972 RMK SLP050 T02690248 57006 IEM_DS3505
ZGNN,1997-07-17 21:00,ZGNN 172100Z AUTO 09002KT 19SM 27/25 A2974 RMK SLP049 T02670254 57001 IEM_DS3505
ZGNN,1997-07-17 22:00,ZGNN 172200Z AUTO 09004KT 6SM 26/25 A2974 RMK SLP057 T02600250 IEM_DS3505
ZGNN,1997-07-17 23:00,ZGNN 172300Z AUTO 17006KT 7SM 25/24 A2974 RMK SLP058 T02500240 IEM_DS3505
ZGNN,1997-07-18 00:00,ZGNN 180000Z AUTO 16002KT 16SM 27/25 A2974 RMK SLP059 T02680247 52009 IEM_DS3505
ZGNN,1997-07-18 01:00,ZGNN 180100Z AUTO 14006KT 7SM 27/24 A2977 RMK SLP068 T02700240 IEM_DS3505
ZGNN,1997-07-18 02:00,ZGNN 180200Z AUTO 16006KT 7SM 29/25 A2977 RMK SLP067 T02900250 IEM_DS3505
ZGNN,1997-07-18 03:00,ZGNN 180300Z AUTO 20004KT 19SM 30/25 A2977 RMK SLP066 T02960253 52007 IEM_DS3505
ZGNN,1997-07-18 04:00,ZGNN 180400Z AUTO 11006KT 7SM 31/25 A2977 RMK SLP067 T03100250 IEM_DS3505
ZGNN,1997-07-18 05:00,ZGNN 180500Z AUTO 00000KT 7SM 27/25 A2974 RMK SLP057 T02700250 IEM_DS3505
ZGNN,1997-07-18 06:00,ZGNN 180600Z AUTO 22002KT 16SM 30/26 A2971 RMK 60067 SLP048 T02950256 57018 IEM_DS3505
ZGNN,1997-07-18 07:00,ZGNN 180700Z AUTO 07006KT 7SM 29/26 A2971 RMK SLP046 T02900260 IEM_DS3505
ZGNN,1997-07-18 09:00,ZGNN 180900Z AUTO 02002KT 19SM 28/26 A2965 RMK SLP031 T02830258 57017 IEM_DS3505
ZGNN,1997-07-18 10:00,ZGNN 181000Z AUTO 00000KT 7SM 29/25 A2968 RMK SLP036 T02900250 IEM_DS3505
ZGNN,1997-07-18 11:00,ZGNN 181100Z AUTO 15010KT 7SM 29/24 A2968 RMK SLP036 T02900240 IEM_DS3505
ZGNN,1997-07-18 12:00,ZGNN 181200Z AUTO 22002KT 19SM 29/25 A2974 RMK SLP056 T02870247 52025 IEM_DS3505
ZGNN,1997-07-18 13:00,ZGNN 181300Z AUTO 13008KT 7SM 27/24 A2977 RMK SLP068 T02700240 IEM_DS3505
ZGNN,1997-07-18 14:00,ZGNN 181400Z AUTO 15008KT 7SM 26/25 A2977 RMK SLP068 T02600250 IEM_DS3505
ZGNN,1997-07-18 15:00,ZGNN 181500Z AUTO 04002KT 19SM 27/25 A2980 RMK SLP076 T02700246 52020 IEM_DS3505
ZGNN,1997-07-18 18:00,ZGNN 181800Z AUTO 22002KT 16SM 26/25 A2977 RMK SLP068 T02630246 57008 IEM_DS3505
ZGNN,1997-07-18 21:00,ZGNN 182100Z AUTO 00000KT 16SM 26/25 A2974 RMK 70067 SLP059 T02620248 57009 IEM_DS3505
ZGNN,1997-07-19 00:00,ZGNN 190000Z AUTO 09002KT 16SM 26/24 A2974 RMK 60000 70067 SLP066 T02590242 52007 IEM_DS3505
ZGNN,1997-07-19 01:00,ZGNN 190100Z AUTO 14006KT 7SM 27/24 A2977 RMK SLP068 T02700240 IEM_DS3505
ZGNN,1997-07-19 02:00,ZGNN 190200Z AUTO 14008KT 7SM 28/25 A2977 RMK SLP068 T02800250 IEM_DS3505
ZGNN,1997-07-19 03:00,ZGNN 190300Z AUTO 09004KT 19SM 29/25 A2977 RMK SLP069 T02890253 52003 IEM_DS3505
ZGNN,1997-07-19 04:00,ZGNN 190400Z AUTO 13008KT 7SM 29/25 A2977 RMK SLP067 T02900250 IEM_DS3505
ZGNN,1997-07-19 05:00,ZGNN 190500Z AUTO 14010KT 7SM 30/24 A2974 RMK SLP056 T03000240 IEM_DS3505
ZGNN,1997-07-19 06:00,ZGNN 190600Z AUTO 32004KT 19SM 31/26 A2971 RMK SLP044 T03100256 57024 IEM_DS3505
ZGNN,1997-07-19 07:00,ZGNN 190700Z AUTO 16010KT 7SM 30/25 A2968 RMK SLP036 T03000250 IEM_DS3505
ZGNN,1997-07-19 08:00,ZGNN 190800Z AUTO 13012KT 7SM 31/24 A2968 RMK SLP036 T03100240 IEM_DS3505
ZGNN,1997-07-19 09:00,ZGNN 190900Z AUTO 22004KT 19SM 31/25 A2965 RMK SLP029 T03060248 57015 IEM_DS3505
ZGNN,1997-07-19 10:00,ZGNN 191000Z AUTO 14012KT 7SM 29/24 A2968 RMK SLP036 T02900240 IEM_DS3505
ZGNN,1997-07-19 11:00,ZGNN 191100Z AUTO 13010KT 7SM 28/25 A2968 RMK SLP037 T02800250 IEM_DS3505
ZGNN,1997-07-19 12:00,ZGNN 191200Z AUTO 07002KT 19SM 28/25 A2971 RMK SLP046 T02780248 52016 IEM_DS3505
ZGNN,1997-07-19 13:00,ZGNN 191300Z AUTO 13008KT 7SM 27/25 A2974 RMK SLP057 T02700250 IEM_DS3505
ZGNN,1997-07-19 15:00,ZGNN 191500Z AUTO 09002KT 19SM 27/25 A2977 RMK SLP068 T02690249 52022 IEM_DS3505
ZGNN,1997-07-19 18:00,ZGNN 191800Z AUTO 11004KT 16SM 27/25 A2974 RMK SLP058 T02660249 57010 IEM_DS3505
ZGNN,1997-07-19 21:00,ZGNN 192100Z AUTO 11004KT 16SM 26/25 A2971 RMK 70001 SLP051 T02630249 57007 IEM_DS3505
ZGNN,1997-07-19 22:00,ZGNN 192200Z AUTO 12006KT 7SM 25/24 A2971 RMK SLP047 T02500240 IEM_DS3505
ZGNN,1997-07-19 23:00,ZGNN 192300Z AUTO 12004KT 7SM 25/24 A2974 RMK SLP058 T02500240 IEM_DS3505
ZGNN,1997-07-20 00:00,ZGNN 200000Z AUTO 11002KT 9SM 26/25 A2974 RMK SLP057 T02630249 52006 IEM_DS3505
ZGNN,1997-07-20 01:00,ZGNN 200100Z AUTO 09004KT 7SM 26/25 A2974 RMK SLP057 T02600250 IEM_DS3505
ZGNN,1997-07-20 02:00,ZGNN 200200Z AUTO 12006KT 7SM 29/25 A2977 RMK SLP067 T02900250 IEM_DS3505
ZGNN,1997-07-20 03:00,ZGNN 200300Z AUTO 09004KT 9SM 26/25 A2977 RMK SLP066 T02630246 52009 IEM_DS3505
ZGNN,1997-07-20 04:00,ZGNN 200400Z AUTO 07006KT 7SM 27/25 A2974 RMK SLP057 T02700250 IEM_DS3505
ZGNN,1997-07-20 05:00,ZGNN 200500Z AUTO 10004KT 7SM 27/25 A2974 RMK SLP057 T02700250 IEM_DS3505
ZGNN,1997-07-20 06:00,ZGNN 200600Z AUTO 16002KT 6SM 27/25 A2971 RMK 60028 SLP054 T02730253 57012 IEM_DS3505
ZGNN,1997-07-20 07:00,ZGNN 200700Z AUTO 13008KT 7SM 29/24 A2968 RMK SLP036 T02900240 IEM_DS3505
ZGNN,1997-07-20 08:00,ZGNN 200800Z AUTO 12010KT 7SM 28/24 A2968 RMK SLP037 T02800240 IEM_DS3505
ZGNN,1997-07-20 09:00,ZGNN 200900Z AUTO 09004KT 19SM 29/25 A2968 RMK SLP038 T02870250 57016 IEM_DS3505
ZGNN,1997-07-20 10:00,ZGNN 201000Z AUTO 12008KT 7SM 27/24 A2968 RMK SLP037 T02700240 IEM_DS3505
ZGNN,1997-07-20 11:00,ZGNN 201100Z AUTO 16008KT 7SM 27/24 A2968 RMK SLP037 T02700240 IEM_DS3505
ZGNN,1997-07-20 12:00,ZGNN 201200Z AUTO 09004KT 12SM 27/25 A2971 RMK 60008 SLP050 T02690251 52012 IEM_DS3505
ZGNN,1997-07-20 13:00,ZGNN 201300Z AUTO 12008KT 7SM 26/24 A2974 RMK SLP057 T02600240 IEM_DS3505
ZGNN,1997-07-20 15:00,ZGNN 201500Z AUTO 04004KT 16SM 26/25 A2978 RMK SLP070 T02630247 52020 IEM_DS3505
ZGNN,1997-07-20 18:00,ZGNN 201800Z AUTO 09004KT 16SM 26/24 A2976 RMK SLP063 T02550242 57007 IEM_DS3505
ZGNN,1997-07-20 21:00,ZGNN 202100Z AUTO 09004KT 16SM 25/24 A2974 RMK 70035 SLP058 T02510239 57005 IEM_DS3505
ZGNN,1997-07-20 22:00,ZGNN 202200Z AUTO 09004KT 7SM 25/24 A2974 RMK SLP058 T02500240 IEM_DS3505
ZGNN,1997-07-20 23:00,ZGNN 202300Z AUTO 08006KT 7SM 24/24 A2974 RMK SLP058 T02400240 IEM_DS3505
ZGNN,1997-07-21 00:00,ZGNN 210000Z AUTO 07002KT 19SM 26/24 A2977 RMK 60000 70035 SLP062 T02550238 52004 IEM_DS3505
ZGNN,1997-07-21 01:00,ZGNN 210100Z AUTO 08008KT 7SM 27/24 A2974 RMK SLP057 T02700240 IEM_DS3505
ZGNN,1997-07-21 02:00,ZGNN 210200Z AUTO 18008KT 7SM 23/23 A2977 RMK SLP069 T02300230 IEM_DS3505
ZGNN,1997-07-21 03:00,ZGNN 210300Z AUTO 18002KT 9SM 24/23 A2977 RMK SLP075 T02380231 52012 IEM_DS3505
ZGNN,1997-07-21 04:00,ZGNN 210400Z AUTO 13006KT 7SM 25/24 A2977 RMK SLP069 T02500240 IEM_DS3505
ZGNN,1997-07-21 05:00,ZGNN 210500Z AUTO 12006KT 7SM 26/24 A2977 RMK SLP068 T02600240 IEM_DS3505
ZGNN,1997-07-21 06:00,ZGNN 210600Z AUTO 07006KT 12SM 26/24 A2977 RMK 60055 SLP070 T02560240 57005 IEM_DS3505
ZGNN,1997-07-21 07:00,ZGNN 210700Z AUTO 14008KT 7SM 28/24 A2977 RMK SLP068 T02800240 IEM_DS3505
ZGNN,1997-07-21 08:00,ZGNN 210800Z AUTO 12008KT 7SM 28/24 A2974 RMK SLP057 T02800240 IEM_DS3505
ZGNN,1997-07-21 09:00,ZGNN 210900Z AUTO 09004KT 12SM 27/25 A2974 RMK SLP055 T02670246 57014 IEM_DS3505
ZGNN,1997-07-21 10:00,ZGNN 211000Z AUTO 13006KT 7SM 26/24 A2974 RMK SLP057 T02600240 IEM_DS3505
ZGNN,1997-07-21 11:00,ZGNN 211100Z AUTO 11006KT 7SM 25/24 A2974 RMK SLP058 T02500240 IEM_DS3505
ZGNN,1997-07-21 12:00,ZGNN 211200Z AUTO 07004KT 11SM 26/24 A2977 RMK 60000 SLP069 T02550239 52013 IEM_DS3505
ZGNN,1997-07-21 13:00,ZGNN 211300Z AUTO 10002KT 7SM 25/24 A2980 RMK SLP079 T02500240 IEM_DS3505
ZGNN,1997-07-21 15:00,ZGNN 211500Z AUTO 07004KT 12SM 25/24 A2982 RMK SLP086 T02480238 52017 IEM_DS3505
ZGNN,1997-07-21 18:00,ZGNN 211800Z AUTO 07004KT 12SM 25/23 A2982 RMK 60002 SLP086 T02460234 54000 IEM_DS3505
ZGNN,1997-07-21 21:00,ZGNN 212100Z AUTO 09002KT 12SM 24/24 A2980 RMK 70059 SLP078 T02420235 57008 IEM_DS3505
ZGNN,1997-07-21 22:00,ZGNN 212200Z AUTO 04004KT 7SM 24/23 A2980 RMK SLP079 T02400230 IEM_DS3505
ZGNN,1997-07-21 23:00,ZGNN 212300Z AUTO 05004KT 7SM 24/23 A2980 RMK SLP079 T02400230 IEM_DS3505
ZGNN,1997-07-22 00:00,ZGNN 220000Z AUTO 00000KT 9SM 25/24 A2983 RMK 60000 70059 SLP087 T02500238 52009 IEM_DS3505
ZGNN,1997-07-22 01:00,ZGNN 220100Z AUTO 09006KT 7SM 26/24 A2983 RMK SLP088 T02600240 IEM_DS3505
ZGNN,1997-07-22 02:00,ZGNN 220200Z AUTO 13006KT 7SM 26/25 A2983 RMK SLP088 T02600250 IEM_DS3505
ZGNN,1997-07-22 03:00,ZGNN 220300Z AUTO 11004KT 16SM 29/25 A2983 RMK SLP090 T02900251 52004 IEM_DS3505
ZGNN,1997-07-22 04:00,ZGNN 220400Z AUTO 13008KT 7SM 29/24 A2983 RMK SLP088 T02900240 IEM_DS3505
ZGNN,1997-07-22 06:00,ZGNN 220600Z AUTO 29002KT 19SM 32/24 A2980 RMK SLP070 T03170244 57020 IEM_DS3505
ZGNN,1997-07-22 07:00,ZGNN 220700Z AUTO 23002KT 7SM 27/25 A2980 RMK SLP078 T02700250 IEM_DS3505
ZGNN,1997-07-22 08:00,ZGNN 220800Z AUTO 29002KT 7SM 27/25 A2977 RMK SLP068 T02700250 IEM_DS3505
ZGNN,1997-07-22 09:00,ZGNN 220900Z AUTO 00000KT 17SM 27/24 A2974 RMK SLP059 T02730243 57011 IEM_DS3505
ZGNN,1997-07-22 10:00,ZGNN 221000Z AUTO 01004KT 7SM 26/24 A2974 RMK SLP057 T02600240 IEM_DS3505
ZGNN,1997-07-22 11:00,ZGNN 221100Z AUTO 01004KT 6SM 26/24 A2977 RMK SLP068 T02600240 IEM_DS3505
ZGNN,1997-07-22 12:00,ZGNN 221200Z AUTO 04002KT 16SM 26/23 A2977 RMK SLP073 T02630234 52013 IEM_DS3505
ZGNN,1997-07-22 13:00,ZGNN 221300Z AUTO 02004KT 6SM 25/24 A2980 RMK SLP079 T02500240 IEM_DS3505
ZGNN,1997-07-22 15:00,ZGNN 221500Z AUTO 00000KT 16SM 26/24 A2982 RMK SLP084 T02610242 52012 IEM_DS3505
ZGNN,1997-07-22 18:00,ZGNN 221800Z AUTO 00000KT 12SM 25/24 A2982 RMK 60008 SLP084 T02540243 54000 IEM_DS3505
ZGNN,1997-07-22 21:00,ZGNN 222100Z AUTO 04004KT 12SM 25/24 A2980 RMK 70008 SLP074 T02490240 57010 IEM_DS3505
ZGNN,1997-07-22 22:00,ZGNN 222200Z AUTO 03004KT 4SM 24/24 A2980 RMK SLP079 T02400240 IEM_DS3505
ZGNN,1997-07-22 23:00,ZGNN 222300Z AUTO 03004KT 2SM 25/24 A2980 RMK SLP079 T02500240 IEM_DS3505
ZGNN,1997-07-23 00:00,ZGNN 230000Z AUTO 06004KT 2 1/2SM 25/24 A2983 RMK SLP089 T02500240 IEM_DS3505
ZGNN,1997-07-23 01:00,ZGNN 230100Z AUTO 07004KT 3SM 26/24 A2983 RMK SLP088 T02600240 IEM_DS3505
ZGNN,1997-07-23 02:00,ZGNN 230200Z AUTO 09006KT 7SM 27/24 A2983 RMK SLP088 T02700240 IEM_DS3505
ZGNN,1997-07-23 03:00,ZGNN 230300Z AUTO 09002KT 16SM 29/25 A2983 RMK SLP090 T02910250 52005 IEM_DS3505
ZGNN,1997-07-23 04:00,ZGNN 230400Z AUTO 09006KT 7SM 30/25 A2983 RMK SLP087 T03000250 IEM_DS3505
ZGNN,1997-07-23 05:00,ZGNN 230500Z AUTO 11008KT 7SM 31/24 A2980 RMK SLP077 T03100240 IEM_DS3505
ZGNN,1997-07-23 06:00,ZGNN 230600Z AUTO 11004KT 19SM 32/24 A2977 RMK SLP068 T03170242 57022 IEM_DS3505
ZGNN,1997-07-23 07:00,ZGNN 230700Z AUTO 13010KT 7SM 32/24 A2977 RMK SLP067 T03200240 IEM_DS3505
ZGNN,1997-07-23 08:00,ZGNN 230800Z AUTO 09006KT 7SM 30/24 A2974 RMK SLP056 T03000240 IEM_DS3505
ZGNN,1997-07-23 09:00,ZGNN 230900Z AUTO 16002KT 19SM 32/23 A2974 RMK SLP053 T03230230 57015 IEM_DS3505
ZGNN,1997-07-23 11:00,ZGNN 231100Z AUTO 00000KT 7SM 28/26 A2974 RMK SLP057 T02800260 IEM_DS3505
ZGNN,1997-07-23 12:00,ZGNN 231200Z AUTO 00000KT 16SM 29/24 A2977 RMK SLP063 T02930243 52010 IEM_DS3505
ZGNN,1997-07-23 13:00,ZGNN 231300Z AUTO 00000KT 6SM 26/24 A2977 RMK SLP068 T02600240 IEM_DS3505
ZGNN,1997-07-23 15:00,ZGNN 231500Z AUTO 00000KT 12SM 28/25 A2982 RMK SLP083 T02760248 52020 IEM_DS3505
ZGNN,1997-07-23 18:00,ZGNN 231800Z AUTO 02006KT 12SM 27/24 A2981 RMK 60001 SLP082 T02720245 57001 IEM_DS3505
ZGNN,1997-07-23 21:00,ZGNN 232100Z AUTO 09002KT 11SM 26/24 A2974 RMK 70008 SLP075 T02560245 57007 IEM_DS3505
ZGNN,1997-07-23 23:00,ZGNN 232300Z AUTO 03004KT 5SM 25/24 A2980 RMK SLP079 T02500240 IEM_DS3505
ZGNN,1997-07-24 00:00,ZGNN 240000Z AUTO 04004KT 11SM 26/25 A2983 RMK 60004 70008 SLP084 T02650248 52009 IEM_DS3505
ZGNN,1997-07-24 01:00,ZGNN 240100Z AUTO 11006KT 7SM 27/25 A2983 RMK SLP088 T02700250 IEM_DS3505
ZGNN,1997-07-24 02:00,ZGNN 240200Z AUTO 13006KT 7SM 29/25 A2983 RMK SLP088 T02900250 IEM_DS3505
ZGNN,1997-07-24 03:00,ZGNN 240300Z AUTO 00000KT 16SM 29/24 A2983 RMK SLP088 T02930236 52004 IEM_DS3505
ZGNN,1997-07-24 04:00,ZGNN 240400Z AUTO 06006KT 7SM 31/24 A2983 RMK SLP087 T03100240 IEM_DS3505
ZGNN,1997-07-24 05:00,ZGNN 240500Z AUTO 06006KT 7SM 31/24 A2980 RMK SLP077 T03100240 IEM_DS3505
ZGNN,1997-07-24 06:00,ZGNN 240600Z AUTO 07004KT 19SM 32/23 A2977 RMK SLP064 T03240229 57023 IEM_DS3505
ZGNN,1997-07-24 07:00,ZGNN 240700Z AUTO 18008KT 7SM 31/24 A2977 RMK SLP067 T03100240 IEM_DS3505
ZGNN,1997-07-24 08:00,ZGNN 240800Z AUTO 18008KT 7SM 31/23 A2974 RMK SLP056 T03100230 IEM_DS3505
ZGNN,1997-07-24 09:00,ZGNN 240900Z AUTO 18004KT 19SM 32/24 A2971 RMK SLP048 T03180239 57016 IEM_DS3505
ZGNN,1997-07-24 10:00,ZGNN 241000Z AUTO 17006KT 7SM 30/23 A2974 RMK SLP056 T03000230 IEM_DS3505
ZGNN,1997-07-24 11:00,ZGNN 241100Z AUTO 09006KT 7SM 29/24 A2974 RMK SLP056 T02900240 IEM_DS3505
ZGNN,1997-07-24 12:00,ZGNN 241200Z AUTO 09004KT 19SM 28/24 A2974 RMK SLP059 T02810244 52010 IEM_DS3505
ZGNN,1997-07-24 13:00,ZGNN 241300Z AUTO 00000KT 7SM 27/25 A2977 RMK SLP068 T02700250 IEM_DS3505
ZGNN,1997-07-24 15:00,ZGNN 241500Z AUTO 07004KT 19SM 28/25 A2981 RMK SLP081 T02780248 52022 IEM_DS3505
ZGNN,1997-07-24 18:00,ZGNN 241800Z AUTO 00000KT 19SM 27/ A2978 RMK SLP071 57009 IEM_DS3505
ZGNN,1997-07-24 21:00,ZGNN 242100Z AUTO 11004KT 19SM 26/25 A2977 RMK SLP066 T02640247 57005 IEM_DS3505
ZGNN,1997-07-24 22:00,ZGNN 242200Z AUTO 00000KT 6SM 25/24 A2977 RMK SLP069 T02500240 IEM_DS3505
ZGNN,1997-07-24 23:00,ZGNN 242300Z AUTO 00000KT 6SM 25/24 A2980 RMK SLP079 T02500240 IEM_DS3505
ZGNN,1997-07-25 00:00,ZGNN 250000Z AUTO 09002KT 12SM 27/25 A2980 RMK SLP075 T02670253 52008 IEM_DS3505
ZGNN,1997-07-25 01:00,ZGNN 250100Z AUTO 09004KT 7SM 27/25 A2983 RMK SLP088 T02700250 IEM_DS3505
ZGNN,1997-07-25 02:00,ZGNN 250200Z AUTO 00000KT 7SM 28/25 A2983 RMK SLP088 T02800250 IEM_DS3505
ZGNN,1997-07-25 03:00,ZGNN 250300Z AUTO 14004KT 16SM 30/25 A2983 RMK SLP081 T03040249 52006 IEM_DS3505
ZGNN,1997-07-25 04:00,ZGNN 250400Z AUTO 18004KT 7SM 30/25 A2980 RMK SLP077 T03000250 IEM_DS3505
ZGNN,1997-07-25 05:00,ZGNN 250500Z AUTO 18006KT 7SM 27/25 A2980 RMK SLP078 T02700250 IEM_DS3505
ZGNN,1997-07-25 06:00,ZGNN 250600Z AUTO 04006KT 12SM 28/25 A2977 RMK 60008 SLP069 T02760249 57012 IEM_DS3505
ZGNN,1997-07-25 07:00,ZGNN 250700Z AUTO 04006KT 7SM 30/25 A2974 RMK SLP056 T03000250 IEM_DS3505
ZGNN,1997-07-25 08:00,ZGNN 250800Z AUTO 14010KT 7SM 27/24 A2977 RMK SLP068 T02700240 IEM_DS3505
ZGNN,1997-07-25 09:00,ZGNN 250900Z AUTO 00000KT 16SM 30/24 A2974 RMK SLP059 T02970240 57010 IEM_DS3505
ZGNN,1997-07-25 10:00,ZGNN 251000Z AUTO 00000KT 7SM 26/24 A2974 RMK SLP057 T02600240 IEM_DS3505
ZGNN,1997-07-25 11:00,ZGNN 251100Z AUTO 00000KT 7SM 26/24 A2974 RMK SLP057 T02600240 IEM_DS3505
ZGNN,1997-07-25 12:00,ZGNN 251200Z AUTO 04002KT 17SM 28/25 A2974 RMK SLP057 T02750250 57002 IEM_DS3505
ZGNN,1997-07-25 13:00,ZGNN 251300Z AUTO 00000KT 7SM 26/24 A2977 RMK SLP068 T02600240 IEM_DS3505
ZGNN,1997-07-25 14:00,ZGNN 251400Z AUTO 35004KT 7SM 26/24 A2977 RMK SLP068 T02600240 IEM_DS3505
ZGNN,1997-07-25 15:00,ZGNN 251500Z AUTO 04002KT 16SM 27/25 A2980 RMK SLP072 T02700250 52015 IEM_DS3505
ZGNN,1997-07-25 16:00,ZGNN 251600Z AUTO 36004KT 7SM 25/24 A2980 RMK SLP079 T02500240 IEM_DS3505
ZGNN,1997-07-25 18:00,ZGNN 251800Z AUTO 00000KT 16SM 26/26 A2978 RMK SLP072 T02630255 54000 IEM_DS3505
ZGNN,1997-07-25 21:00,ZGNN 252100Z AUTO 04004KT 14SM 26/25 A2977 RMK 70008 SLP064 T02600249 57008 IEM_DS3505
ZGNN,1997-07-25 22:00,ZGNN 252200Z AUTO 05004KT 2SM 25/25 A2977 RMK SLP069 T02500250 IEM_DS3505
ZGNN,1997-07-25 23:00,ZGNN 252300Z AUTO 09004KT 2 1/2SM 25/24 A2977 RMK SLP069 T02500240 IEM_DS3505
ZGNN,1997-07-26 00:00,ZGNN 260000Z AUTO 04002KT 12SM 26/25 A2977 RMK 70008 SLP071 T02630250 52007 IEM_DS3505
ZGNN,1997-07-26 01:00,ZGNN 260100Z AUTO 00000KT 2 1/2SM 27/25 A2980 RMK SLP078 T02700250 IEM_DS3505
ZGNN,1997-07-26 02:00,ZGNN 260200Z AUTO 00000KT 4SM 28/25 A2980 RMK SLP078 T02800250 IEM_DS3505
ZGNN,1997-07-26 03:00,ZGNN 260300Z AUTO 04002KT 12SM 29/26 A2980 RMK SLP079 T02920256 52008 IEM_DS3505
ZGNN,1997-07-26 04:00,ZGNN 260400Z AUTO 12006KT 7SM 30/25 A2980 RMK SLP077 T03000250 IEM_DS3505
ZGNN,1997-07-26 05:00,ZGNN 260500Z AUTO 05002KT 7SM 30/26 A2977 RMK SLP067 T03000260 IEM_DS3505
ZGNN,1997-07-26 06:00,ZGNN 260600Z AUTO 09002KT 12SM 26/25 A2974 RMK 60118 SLP064 T02620252 57015 IEM_DS3505
ZGNN,1997-07-26 07:00,ZGNN 260700Z AUTO 05004KT 7SM 27/24 A2974 RMK SLP057 T02700240 IEM_DS3505
ZGNN,1997-07-26 08:00,ZGNN 260800Z AUTO 03004KT 7SM 27/25 A2971 RMK SLP047 T02700250 IEM_DS3505
ZGNN,1997-07-26 09:00,ZGNN 260900Z AUTO 09004KT 14SM 29/26 A2971 RMK SLP044 T02880256 57020 IEM_DS3505
ZGNN,1997-07-26 10:00,ZGNN 261000Z AUTO 08006KT 7SM 29/25 A2971 RMK SLP046 T02900250 IEM_DS3505
ZGNN,1997-07-26 11:00,ZGNN 261100Z AUTO 06004KT 6SM 28/25 A2974 RMK SLP057 T02800250 IEM_DS3505
ZGNN,1997-07-26 12:00,ZGNN 261200Z AUTO 00000KT 16SM 28/26 A2974 RMK 60012 SLP061 T02800255 52017 IEM_DS3505
ZGNN,1997-07-26 13:00,ZGNN 261300Z AUTO 00000KT 7SM 27/26 A2977 RMK SLP068 T02700260 IEM_DS3505
ZGNN,1997-07-26 15:00,ZGNN 261500Z AUTO 00000KT 12SM 28/26 A2981 RMK SLP081 T02750264 52020 IEM_DS3505
ZGNN,1997-07-26 18:00,ZGNN 261800Z AUTO 00000KT 11SM 27/26 A2978 RMK 60001 SLP070 T02710257 57011 IEM_DS3505
ZGNN,1997-07-26 21:00,ZGNN 262100Z AUTO 00000KT 11SM 26/25 A2977 RMK 70130 SLP063 T02620252 57007 IEM_DS3505
ZGNN,1997-07-26 22:00,ZGNN 262200Z AUTO 10002KT 7SM 25/24 A2977 RMK SLP069 T02500240 IEM_DS3505
ZGNN,1997-07-26 23:00,ZGNN 262300Z AUTO 00000KT 5SM 25/24 A2977 RMK SLP069 T02500240 IEM_DS3505
ZGNN,1997-07-27 00:00,ZGNN 270000Z AUTO 00000KT 11SM 26/25 A2980 RMK 70130 SLP075 T02630252 52012 IEM_DS3505
ZGNN,1997-07-27 01:00,ZGNN 270100Z AUTO 07002KT 5SM 27/25 A2980 RMK SLP078 T02700250 IEM_DS3505
ZGNN,1997-07-27 02:00,ZGNN 270200Z AUTO 18002KT 7SM 28/25 A2980 RMK SLP078 T02800250 IEM_DS3505
ZGNN,1997-07-27 03:00,ZGNN 270300Z AUTO 20002KT 17SM 28/25 A2980 RMK SLP077 T02850253 52002 IEM_DS3505
ZGNN,1997-07-27 04:00,ZGNN 270400Z AUTO 17004KT 7SM 29/25 A2980 RMK SLP078 T02900250 IEM_DS3505
ZGNN,1997-07-27 05:00,ZGNN 270500Z AUTO 18004KT 7SM 31/25 A2977 RMK SLP067 T03100250 IEM_DS3505
ZGNN,1997-07-27 06:00,ZGNN 270600Z AUTO 20006KT 19SM 29/25 A2977 RMK SLP061 T02900251 57016 IEM_DS3505
ZGNN,1997-07-27 07:00,ZGNN 270700Z AUTO 18004KT 7SM 25/24 A2974 RMK SLP058 T02500240 IEM_DS3505
ZGNN,1997-07-27 08:00,ZGNN 270800Z AUTO 00000KT 7SM 26/25 A2974 RMK SLP057 T02600250 IEM_DS3505
ZGNN,1997-07-27 09:00,ZGNN 270900Z AUTO 00000KT 19SM 28/24 A2974 RMK SLP053 T02830243 57008 IEM_DS3505
ZGNN,1997-07-27 10:00,ZGNN 271000Z AUTO 04004KT 7SM 26/25 A2974 RMK SLP057 T02600250 IEM_DS3505
ZGNN,1997-07-27 11:00,ZGNN 271100Z AUTO 36004KT 7SM 26/25 A2971 RMK SLP047 T02600250 IEM_DS3505
ZGNN,1997-07-27 12:00,ZGNN 271200Z AUTO 04004KT 16SM 26/25 A2974 RMK 60008 SLP058 T02620248 52005 IEM_DS3505
ZGNN,1997-07-27 13:00,ZGNN 271300Z AUTO 36002KT 7SM 25/24 A2977 RMK SLP069 T02500240 IEM_DS3505
ZGNN,1997-07-27 14:00,ZGNN 271400Z AUTO 36002KT 7SM 25/24 A2980 RMK SLP079 T02500240 IEM_DS3505
ZGNN,1997-07-27 15:00,ZGNN 271500Z AUTO 00000KT 17SM 26/25 A2981 RMK SLP080 T02640248 52022 IEM_DS3505
ZGNN,1997-07-27 18:00,ZGNN 271800Z AUTO 04002KT 16SM 26/25 A2978 RMK 60000 SLP070 T02610250 57010 IEM_DS3505
ZGNN,1997-07-27 21:00,ZGNN 272100Z AUTO 09002KT 14SM 26/25 A2977 RMK 70008 SLP066 T02580247 57004 IEM_DS3505
ZGNN,1997-07-27 22:00,ZGNN 272200Z AUTO 02004KT 2 1/2SM 25/24 A2977 RMK SLP069 T02500240 IEM_DS3505
ZGNN,1997-07-27 23:00,ZGNN 272300Z AUTO 04004KT 2SM 25/25 A2977 RMK SLP069 T02500250 IEM_DS3505
ZGNN,1997-07-28 00:00,ZGNN 280000Z AUTO 09002KT 16SM 26/25 A2980 RMK 70008 SLP075 T02600246 52009 IEM_DS3505
ZGNN,1997-07-28 01:00,ZGNN 280100Z AUTO 05004KT 4SM 26/25 A2980 RMK SLP078 T02600250 IEM_DS3505
ZGNN,1997-07-28 02:00,ZGNN 280200Z AUTO 09004KT 5SM 27/25 A2980 RMK SLP078 T02700250 IEM_DS3505
ZGNN,1997-07-28 03:00,ZGNN 280300Z AUTO 18002KT 17SM 29/25 A2983 RMK SLP081 T02860246 52006 IEM_DS3505
ZGNN,1997-07-28 04:00,ZGNN 280400Z AUTO 06004KT 7SM 29/25 A2980 RMK SLP078 T02900250 IEM_DS3505
ZGNN,1997-07-28 05:00,ZGNN 280500Z AUTO 00000KT 7SM 31/25 A2977 RMK SLP067 T03100250 IEM_DS3505
ZGNN,1997-07-28 06:00,ZGNN 280600Z AUTO 25002KT 19SM 32/25 A2974 RMK SLP061 T03220252 57019 IEM_DS3505
ZGNN,1997-07-28 07:00,ZGNN 280700Z AUTO 16006KT 7SM 31/25 A2974 RMK SLP056 T03100250 IEM_DS3505
ZGNN,1997-07-28 08:00,ZGNN 280800Z AUTO 15010KT 7SM 27/23 A2974 RMK SLP057 T02700230 IEM_DS3505
ZGNN,1997-07-28 09:00,ZGNN 280900Z AUTO 22004KT 19SM 28/24 A2974 RMK SLP049 T02750239 57013 IEM_DS3505
ZGNN,1997-07-28 10:00,ZGNN 281000Z AUTO 16006KT 7SM 26/24 A2971 RMK SLP047 T02600240 IEM_DS3505
ZGNN,1997-07-28 11:00,ZGNN 281100Z AUTO 15004KT 7SM 26/24 A2974 RMK SLP057 T02600240 IEM_DS3505
ZGNN,1997-07-28 12:00,ZGNN 281200Z AUTO 09004KT 19SM 26/24 A2974 RMK SLP060 T02620239 52011 IEM_DS3505
ZGNN,1997-07-28 13:00,ZGNN 281300Z AUTO 00000KT 7SM 25/24 A2977 RMK SLP069 T02500240 IEM_DS3505
ZGNN,1997-07-28 15:00,ZGNN 281500Z AUTO 00000KT 17SM 26/24 A2978 RMK SLP071 T02570241 52011 IEM_DS3505
ZGNN,1997-07-28 18:00,ZGNN 281800Z AUTO 00000KT 16SM 26/24 A2976 RMK SLP063 T02570244 57008 IEM_DS3505
ZGNN,1997-07-28 21:00,ZGNN 282100Z AUTO 07002KT 16SM 26/24 A2974 RMK SLP056 T02550244 57007 IEM_DS3505
ZGNN,1997-07-28 22:00,ZGNN 282200Z AUTO 09004KT 4SM 25/24 A2974 RMK SLP058 T02500240 IEM_DS3505
ZGNN,1997-07-28 23:00,ZGNN 282300Z AUTO 08006KT 4SM 25/24 A2974 RMK SLP058 T02500240 IEM_DS3505
ZGNN,1997-07-29 00:00,ZGNN 290000Z AUTO 07002KT 12SM 26/25 A2977 RMK SLP067 T02590246 52011 IEM_DS3505
ZGNN,1997-07-29 01:00,ZGNN 290100Z AUTO 00000KT 7SM 26/24 A2977 RMK SLP068 T02600240 IEM_DS3505
ZGNN,1997-07-29 02:00,ZGNN 290200Z AUTO 11004KT 7SM 27/25 A2980 RMK SLP078 T02700250 IEM_DS3505
ZGNN,1997-07-29 03:00,ZGNN 290300Z AUTO 00000KT 16SM 29/25 A2980 RMK SLP074 T02890250 52007 IEM_DS3505
ZGNN,1997-07-29 04:00,ZGNN 290400Z AUTO 11004KT 7SM 29/25 A2977 RMK SLP067 T02900250 IEM_DS3505
ZGNN,1997-07-29 05:00,ZGNN 290500Z AUTO 17004KT 7SM 29/24 A2974 RMK SLP056 T02900240 IEM_DS3505
ZGNN,1997-07-29 06:00,ZGNN 290600Z AUTO 27004KT 19SM 32/25 A2974 RMK SLP053 T03210254 57020 IEM_DS3505
ZGNN,1997-07-29 07:00,ZGNN 290700Z AUTO 12008KT 7SM 28/24 A2971 RMK SLP047 T02800240 IEM_DS3505
ZGNN,1997-07-29 08:00,ZGNN 290800Z AUTO 09008KT 7SM 29/25 A2968 RMK SLP036 T02900250 IEM_DS3505
ZGNN,1997-07-29 09:00,ZGNN 290900Z AUTO 09002KT 19SM 30/25 A2968 RMK SLP035 T02950249 57019 IEM_DS3505
ZGNN,1997-07-29 10:00,ZGNN 291000Z AUTO 11006KT 7SM 28/25 A2968 RMK SLP037 T02800250 IEM_DS3505
ZGNN,1997-07-29 11:00,ZGNN 291100Z AUTO 12004KT 7SM 28/25 A2968 RMK SLP037 T02800250 IEM_DS3505
ZGNN,1997-07-29 12:00,ZGNN 291200Z AUTO 09002KT 19SM 28/25 A2971 RMK 60031 SLP045 T02830248 52010 IEM_DS3505
ZGNN,1997-07-29 13:00,ZGNN 291300Z AUTO 00000KT 7SM 27/26 A2974 RMK SLP057 T02700260 IEM_DS3505
ZGNN,1997-07-29 15:00,ZGNN 291500Z AUTO 09004KT 19SM 27/25 A2977 RMK SLP066 T02700252 52021 IEM_DS3505
ZGNN,1997-07-29 18:00,ZGNN 291800Z AUTO 09002KT 16SM 26/25 A2972 RMK SLP051 T02650251 57014 IEM_DS3505
ZGNN,1997-07-29 21:00,ZGNN 292100Z AUTO 07004KT 16SM 26/25 A2971 RMK 70031 SLP047 T02590251 57005 IEM_DS3505
ZGNN,1997-07-29 22:00,ZGNN 292200Z AUTO 12004KT 4SM 25/25 A2971 RMK SLP047 T02500250 IEM_DS3505
ZGNN,1997-07-29 23:00,ZGNN 292300Z AUTO 00000KT 1SM 25/25 A2971 RMK SLP047 T02500250 IEM_DS3505
ZGNN,1997-07-30 00:00,ZGNN 300000Z AUTO 07002KT 9SM 27/25 A2974 RMK 70031 SLP052 T02670253 52005 IEM_DS3505
ZGNN,1997-07-30 01:00,ZGNN 300100Z AUTO 08004KT 7SM 28/25 A2974 RMK SLP057 T02800250 IEM_DS3505
ZGNN,1997-07-30 02:00,ZGNN 300200Z AUTO 00000KT 7SM 28/25 A2974 RMK SLP057 T02800250 IEM_DS3505
ZGNN,1997-07-30 03:00,ZGNN 300300Z AUTO 00000KT 11SM 31/25 A2974 RMK SLP056 T03090253 52005 IEM_DS3505
ZGNN,1997-07-30 04:00,ZGNN 300400Z AUTO 17004KT 7SM 31/24 A2971 RMK SLP046 T03100240 IEM_DS3505
ZGNN,1997-07-30 05:00,ZGNN 300500Z AUTO 00000KT 7SM 31/24 A2971 RMK SLP046 T03100240 IEM_DS3505
ZGNN,1997-07-30 06:00,ZGNN 300600Z AUTO 04002KT 19SM 33/24 A2968 RMK SLP031 T03310244 57025 IEM_DS3505
ZGNN,1997-07-30 07:00,ZGNN 300700Z AUTO 02004KT 7SM 30/25 A2965 RMK SLP026 T03000250 IEM_DS3505
ZGNN,1997-07-30 08:00,ZGNN 300800Z AUTO 07004KT 7SM 32/25 A2962 RMK SLP015 T03200250 IEM_DS3505
ZGNN,1997-07-30 09:00,ZGNN 300900Z AUTO 09004KT 19SM 32/25 A2962 RMK SLP010 T03200253 57021 IEM_DS3505
ZGNN,1997-07-30 10:00,ZGNN 301000Z AUTO 16006KT 7SM 32/25 A2959 RMK SLP005 T03200250 IEM_DS3505
ZGNN,1997-07-30 11:00,ZGNN 301100Z AUTO 12004KT 7SM 30/26 A2962 RMK SLP016 T03000260 IEM_DS3505
ZGNN,1997-07-30 12:00,ZGNN 301200Z AUTO 07002KT 19SM 31/25 A2965 RMK SLP020 T03060250 52010 IEM_DS3505
ZGNN,1997-07-30 13:00,ZGNN 301300Z AUTO 00000KT 6SM 28/26 A2968 RMK SLP037 T02800260 IEM_DS3505
ZGNN,1997-07-30 15:00,ZGNN 301500Z AUTO 07002KT 16SM 29/26 A2971 RMK SLP045 T02860261 52025 IEM_DS3505
ZGNN,1997-07-30 18:00,ZGNN 301800Z AUTO 11004KT 16SM 27/25 A2966 RMK SLP031 T02740251 57014 IEM_DS3505
ZGNN,1997-07-30 21:00,ZGNN 302100Z AUTO 04002KT 14SM 27/25 A2965 RMK SLP024 T02660250 57007 IEM_DS3505
ZGNN,1997-07-30 22:00,ZGNN 302200Z AUTO 00000KT 7SM 25/24 A2965 RMK SLP027 T02500240 IEM_DS3505
ZGNN,1997-07-30 23:00,ZGNN 302300Z AUTO 00000KT 6SM 25/25 A2965 RMK SLP027 T02500250 IEM_DS3505
ZGNN,1997-07-31 00:00,ZGNN 310000Z AUTO 04002KT 11SM 28/26 A2965 RMK SLP028 T02790255 52004 IEM_DS3505
ZGNN,1997-07-31 01:00,ZGNN 310100Z AUTO 00000KT 7SM 28/25 A2968 RMK SLP037 T02800250 IEM_DS3505
ZGNN,1997-07-31 02:00,ZGNN 310200Z AUTO 10004KT 7SM 30/25 A2968 RMK SLP036 T03000250 IEM_DS3505
ZGNN,1997-07-31 03:00,ZGNN 310300Z AUTO 18004KT 19SM 31/24 A2968 RMK SLP036 T03120237 52008 IEM_DS3505
ZGNN,1997-07-31 04:00,ZGNN 310400Z AUTO 17004KT 7SM 32/24 A2968 RMK SLP035 T03200240 IEM_DS3505
ZGNN,1997-07-31 05:00,ZGNN 310500Z AUTO 18006KT 7SM 33/25 A2965 RMK SLP025 T03300250 IEM_DS3505
ZGNN,1997-07-31 06:00,ZGNN 310600Z AUTO 25004KT 19SM 34/25 A2962 RMK SLP015 T03390250 57021 IEM_DS3505
ZGNN,1997-07-31 07:00,ZGNN 310700Z AUTO 11006KT 7SM 34/23 A2959 RMK SLP005 T03400230 IEM_DS3505
ZGNN,1997-07-31 08:00,ZGNN 310800Z AUTO 10008KT 7SM 33/22 A2956 RMK SLP995 T03300220 IEM_DS3505
ZGNN,1997-07-31 09:00,ZGNN 310900Z AUTO 07004KT 19SM 35/24 A2953 RMK SLP992 T03470243 57022 IEM_DS3505
ZGNN,1997-07-31 10:00,ZGNN 311000Z AUTO 08008KT 7SM 33/23 A2956 RMK SLP995 T03300230 IEM_DS3505
ZGNN,1997-07-31 12:00,ZGNN 311200Z AUTO 20004KT 19SM 32/25 A2956 RMK SLP999 T03150246 52006 IEM_DS3505
ZGNN,1997-07-31 13:00,ZGNN 311300Z AUTO 09002KT 7SM 29/25 A2959 RMK SLP006 T02900250 IEM_DS3505
ZGNN,1997-07-31 14:00,ZGNN 311400Z AUTO 10004KT 7SM 28/25 A2965 RMK SLP026 T02800250 IEM_DS3505
ZGNN,1997-07-31 15:00,ZGNN 311500Z AUTO 22004KT 14SM 29/25 A2965 RMK SLP026 T02870249 52027 IEM_DS3505
ZGNN,1997-07-31 18:00,ZGNN 311800Z AUTO 07004KT 14SM 28/24 A2964 RMK SLP024 T02780242 57002 IEM_DS3505
ZGNN,1997-07-31 21:00,ZGNN 312100Z AUTO 07004KT 12SM 27/25 A2959 RMK SLP009 T02690249 57015 IEM_DS3505
ZGNN,1997-07-31 22:00,ZGNN 312200Z AUTO 02004KT 6SM 25/25 A2959 RMK SLP007 T02500250 IEM_DS3505
ZGNN,1997-07-31 23:00,ZGNN 312300Z AUTO 00000KT 6SM 25/25 A2962 RMK SLP017 T02500250 IEM_DS3505
ZGNN,1997-08-01 00:00,ZGNN 010000Z AUTO 04002KT 9SM 28/25 A2962 RMK SLP017 T02790248 52008 IEM_DS3505
ZGNN,1997-08-01 02:00,ZGNN 010200Z AUTO 03002KT 6SM 30/25 A2965 RMK SLP026 T03000250 IEM_DS3505
ZGNN,1997-08-01 03:00,ZGNN 010300Z AUTO 09002KT 12SM 32/25 A2965 RMK SLP026 T03240250 52009 IEM_DS3505
ZGNN,1997-08-01 04:00,ZGNN 010400Z AUTO 04004KT 7SM 32/24 A2965 RMK SLP025 T03200240 IEM_DS3505
ZGNN,1997-08-01 05:00,ZGNN 010500Z AUTO 06004KT 7SM 33/24 A2962 RMK SLP015 T03300240 IEM_DS3505
ZGNN,1997-08-01 06:00,ZGNN 010600Z AUTO 11004KT 19SM 34/24 A2962 RMK SLP008 T03400238 57018 IEM_DS3505
ZGNN,1997-08-01 07:00,ZGNN 010700Z AUTO 03004KT 7SM 34/25 A2956 RMK SLP995 T03400250 IEM_DS3505
ZGNN,1997-08-01 08:00,ZGNN 010800Z AUTO 07004KT 7SM 34/23 A2953 RMK SLP984 T03400230 IEM_DS3505
ZGNN,1997-08-01 09:00,ZGNN 010900Z AUTO 04004KT 19SM 35/23 A2950 RMK SLP976 T03530231 57031 IEM_DS3505
ZGNN,1997-08-01 10:00,ZGNN 011000Z AUTO 07004KT 6SM 34/24 A2950 RMK SLP974 T03400240 IEM_DS3505
ZGNN,1997-08-01 11:00,ZGNN 011100Z AUTO 07004KT 6SM 33/25 A2953 RMK SLP985 T03300250 IEM_DS3505
ZGNN,1997-08-01 12:00,ZGNN 011200Z AUTO 00000KT 19SM 33/24 A2956 RMK SLP991 T03290245 52014 IEM_DS3505
ZGNN,1997-08-01 13:00,ZGNN 011300Z AUTO 31002KT 6SM 29/26 A2956 RMK SLP996 T02900260 IEM_DS3505
ZGNN,1997-08-01 14:00,ZGNN 011400Z AUTO 31002KT 6SM 28/26 A2959 RMK SLP006 T02800260 IEM_DS3505
ZGNN,1997-08-01 15:00,ZGNN 011500Z AUTO 00000KT 17SM 31/26 A2959 RMK SLP006 T03070263 52016 IEM_DS3505
ZGNN,1997-08-01 18:00,ZGNN 011800Z AUTO 25002KT 14SM 30/26 A2955 RMK SLP990 T02970260 57016 IEM_DS3505
ZGNN,1997-08-01 21:00,ZGNN 012100Z AUTO 02004KT 14SM 29/25 A2950 RMK SLP981 T02930252 57009 IEM_DS3505
ZGNN,1997-08-01 22:00,ZGNN 012200Z AUTO 35004KT 7SM 28/25 A2950 RMK SLP976 T02800250 IEM_DS3505
ZGNN,1997-08-01 23:00,ZGNN 012300Z AUTO 34004KT 7SM 27/25 A2953 RMK SLP986 T02700250 IEM_DS3505
ZGNN,1997-08-02 00:00,ZGNN 020000Z AUTO 02002KT 8SM 30/26 A2956 RMK SLP994 T02960256 52013 IEM_DS3505
ZGNN,1997-08-02 01:00,ZGNN 020100Z AUTO 35004KT 5SM 30/25 A2956 RMK SLP996 T03000250 IEM_DS3505
ZGNN,1997-08-02 02:00,ZGNN 020200Z AUTO 34006KT 5SM 31/25 A2956 RMK SLP995 T03100250 IEM_DS3505
ZGNN,1997-08-02 03:00,ZGNN 020300Z AUTO 34002KT 12SM 32/24 A2959 RMK SLP999 T03190244 52005 IEM_DS3505
ZGNN,1997-08-02 04:00,ZGNN 020400Z AUTO 32006KT 7SM 33/25 A2956 RMK SLP995 T03300250 IEM_DS3505
ZGNN,1997-08-02 05:00,ZGNN 020500Z AUTO 30004KT 7SM 34/23 A2953 RMK SLP984 T03400230 IEM_DS3505
ZGNN,1997-08-02 06:00,ZGNN 020600Z AUTO 32006KT 19SM 35/24 A2950 RMK SLP976 T03490236 57023 IEM_DS3505
ZGNN,1997-08-02 07:00,ZGNN 020700Z AUTO 36008KT 7SM 35/24 A2947 RMK SLP964 T03500240 IEM_DS3505
ZGNN,1997-08-02 08:00,ZGNN 020800Z AUTO 34006KT 7SM 35/23 A2944 RMK SLP954 T03500230 IEM_DS3505
ZGNN,1997-08-02 09:00,ZGNN 020900Z AUTO 32004KT 19SM 35/24 A2941 RMK SLP947 T03540241 57029 IEM_DS3505
ZGNN,1997-08-02 10:00,ZGNN 021000Z AUTO 33004KT 7SM 35/24 A2944 RMK SLP954 T03500240 IEM_DS3505
ZGNN,1997-08-02 11:00,ZGNN 021100Z AUTO 26004KT 7SM 32/25 A2944 RMK SLP955 T03200250 IEM_DS3505
ZGNN,1997-08-02 12:00,ZGNN 021200Z AUTO 00000KT 16SM 33/25 A2944 RMK SLP960 T03340251 52013 IEM_DS3505
ZGNN,1997-08-02 13:00,ZGNN 021300Z AUTO 00000KT 7SM 30/26 A2947 RMK SLP965 T03000260 IEM_DS3505
ZGNN,1997-08-02 14:00,ZGNN 021400Z AUTO 00000KT 7SM 29/27 A2950 RMK SLP976 T02900270 IEM_DS3505
ZGNN,1997-08-02 15:00,ZGNN 021500Z AUTO 25006KT 16SM 32/25 A2951 RMK SLP979 T03150246 52019 IEM_DS3505
ZGNN,1997-08-02 18:00,ZGNN 021800Z AUTO 22002KT 16SM 30/24 A2949 RMK SLP971 T02960238 57008 IEM_DS3505
ZGNN,1997-08-02 21:00,ZGNN 022100Z AUTO 22004KT 16SM 27/25 A2947 RMK SLP966 T02700250 57006 IEM_DS3505
ZGNN,1997-08-02 22:00,ZGNN 022200Z AUTO 24004KT 7SM 27/25 A2947 RMK SLP966 T02700250 IEM_DS3505
ZGNN,1997-08-02 23:00,ZGNN 022300Z AUTO 20006KT 6SM 27/25 A2950 RMK SLP976 T02700250 IEM_DS3505
ZGNN,1997-08-03 00:00,ZGNN 030000Z AUTO 22004KT 12SM 29/24 A2953 RMK SLP980 T02900242 52015 IEM_DS3505
ZGNN,1997-08-03 01:00,ZGNN 030100Z AUTO 23004KT 6SM 30/25 A2953 RMK SLP986 T03000250 IEM_DS3505
ZGNN,1997-08-03 02:00,ZGNN 030200Z AUTO 20004KT 6SM 31/25 A2956 RMK SLP995 T03100250 IEM_DS3505
ZGNN,1997-08-03 03:00,ZGNN 030300Z AUTO 27002KT 17SM 33/24 A2956 RMK SLP990 T03300241 52010 IEM_DS3505
ZGNN,1997-08-03 04:00,ZGNN 030400Z AUTO 20006KT 7SM 33/25 A2956 RMK SLP995 T03300250 IEM_DS3505
ZGNN,1997-08-03 05:00,ZGNN 030500Z AUTO 30004KT 7SM 34/24 A2953 RMK SLP984 T03400240 IEM_DS3505
ZGNN,1997-08-03 06:00,ZGNN 030600Z AUTO 22004KT 19SM 34/26 A2950 RMK SLP978 T03390261 57012 IEM_DS3505
ZGNN,1997-08-03 07:00,ZGNN 030700Z AUTO 19010KT 7SM 35/25 A2950 RMK SLP974 T03500250 IEM_DS3505
ZGNN,1997-08-03 08:00,ZGNN 030800Z AUTO 17008KT 7SM 30/24 A2950 RMK SLP975 T03000240 IEM_DS3505
ZGNN,1997-08-03 09:00,ZGNN 030900Z AUTO 27008KT 19SM 31/24 A2950 RMK SLP985 T03090238 52006 IEM_DS3505
ZGNN,1997-08-03 10:00,ZGNN 031000Z AUTO 15006KT 7SM 28/23 A2953 RMK SLP986 T02800230 IEM_DS3505
ZGNN,1997-08-03 11:00,ZGNN 031100Z AUTO 12006KT 7SM 27/24 A2953 RMK SLP986 T02700240 IEM_DS3505
ZGNN,1997-08-03 12:00,ZGNN 031200Z AUTO 18002KT 19SM 28/24 A2956 RMK 60008 SLP990 T02760240 52005 IEM_DS3505
ZGNN,1997-08-03 13:00,ZGNN 031300Z AUTO 10004KT 6SM 26/24 A2956 RMK SLP997 T02600240 IEM_DS3505
ZGNN,1997-08-03 14:00,ZGNN 031400Z AUTO 00000KT 6SM 26/24 A2959 RMK SLP007 T02600240 IEM_DS3505
ZGNN,1997-08-03 15:00,ZGNN 031500Z AUTO 09004KT 19SM 27/25 A2962 RMK SLP014 T02740250 52024 IEM_DS3505
ZGNN,1997-08-03 16:00,ZGNN 031600Z AUTO 00000KT 6SM 26/25 A2962 RMK SLP017 T02600250 IEM_DS3505
ZGNN,1997-08-03 18:00,ZGNN 031800Z AUTO 00000KT 16SM 27/25 A2960 RMK SLP009 T02710253 57005 IEM_DS3505
ZGNN,1997-08-03 21:00,ZGNN 032100Z AUTO 00000KT 16SM 27/26 A2959 RMK 70008 SLP007 T02710257 57002 IEM_DS3505
ZGNN,1997-08-03 22:00,ZGNN 032200Z AUTO 00000KT 7SM 26/25 A2962 RMK SLP017 T02600250 IEM_DS3505
ZGNN,1997-08-03 23:00,ZGNN 032300Z AUTO 00000KT 7SM 27/25 A2962 RMK SLP017 T02700250 IEM_DS3505
ZGNN,1997-08-04 00:00,ZGNN 040000Z AUTO 09002KT 14SM 28/26 A2965 RMK 70008 SLP021 T02810260 52014 IEM_DS3505
ZGNN,1997-08-04 01:00,ZGNN 040100Z AUTO 17004KT 7SM 29/26 A2965 RMK SLP026 T02900260 IEM_DS3505
ZGNN,1997-08-04 02:00,ZGNN 040200Z AUTO 14008KT 7SM 30/26 A2965 RMK SLP026 T03000260 IEM_DS3505
ZGNN,1997-08-04 03:00,ZGNN 040300Z AUTO 07004KT 19SM 31/26 A2965 RMK SLP027 T03140263 52006 IEM_DS3505
ZGNN,1997-08-04 04:00,ZGNN 040400Z AUTO 09004KT 7SM 33/26 A2965 RMK SLP025 T03300260 IEM_DS3505
ZGNN,1997-08-04 05:00,ZGNN 040500Z AUTO 15008KT 7SM 34/25 A2962 RMK SLP015 T03400250 IEM_DS3505
ZGNN,1997-08-04 06:00,ZGNN 040600Z AUTO 09002KT 19SM 34/26 A2959 RMK SLP008 T03380258 57019 IEM_DS3505
ZGNN,1997-08-04 07:00,ZGNN 040700Z AUTO 16012KT 7SM 34/25 A2956 RMK SLP995 T03400250 IEM_DS3505
ZGNN,1997-08-04 08:00,ZGNN 040800Z AUTO 17016KT 7SM 32/25 A2959 RMK SLP005 T03200250 IEM_DS3505
ZGNN,1997-08-04 09:00,ZGNN 040900Z AUTO 25006KT 19SM 28/23 A2959 RMK SLP010 T02830230 52002 IEM_DS3505
ZGNN,1997-08-04 10:00,ZGNN 041000Z AUTO 26004KT 7SM 26/24 A2962 RMK SLP017 T02600240 IEM_DS3505
ZGNN,1997-08-04 11:00,ZGNN 041100Z AUTO 01004KT 7SM 26/25 A2962 RMK SLP017 T02600250 IEM_DS3505
ZGNN,1997-08-04 12:00,ZGNN 041200Z AUTO 36002KT 19SM 28/24 A2962 RMK 60002 SLP017 T02750236 52007 IEM_DS3505
ZGNN,1997-08-04 13:00,ZGNN 041300Z AUTO 29004KT 7SM 26/24 A2965 RMK SLP027 T02600240 IEM_DS3505
ZGNN,1997-08-04 15:00,ZGNN 041500Z AUTO 00000KT 16SM 27/25 A2967 RMK SLP035 T02730246 52018 IEM_DS3505
ZGNN,1997-08-04 18:00,ZGNN 041800Z AUTO 00000KT 17SM 27/24 A2964 RMK SLP024 T02700244 57011 IEM_DS3505
ZGNN,1997-08-04 21:00,ZGNN 042100Z AUTO 00000KT 17SM 27/26 A2962 RMK 70002 SLP023 T02690255 57002 IEM_DS3505
ZGNN,1997-08-04 22:00,ZGNN 042200Z AUTO 02004KT 7SM 26/25 A2962 RMK SLP017 T02600250 IEM_DS3505
ZGNN,1997-08-04 23:00,ZGNN 042300Z AUTO 11004KT 2 1/2SM 26/25 A2965 RMK SLP027 T02600250 IEM_DS3505
ZGNN,1997-08-05 00:00,ZGNN 050000Z AUTO 00000KT 16SM 28/26 A2965 RMK 70002 SLP029 T02780261 52006 IEM_DS3505
ZGNN,1997-08-05 01:00,ZGNN 050100Z AUTO 15004KT 7SM 27/25 A2965 RMK SLP027 T02700250 IEM_DS3505
ZGNN,1997-08-05 02:00,ZGNN 050200Z AUTO 10004KT 7SM 29/26 A2968 RMK SLP036 T02900260 IEM_DS3505
ZGNN,1997-08-05 03:00,ZGNN 050300Z AUTO 22004KT 19SM 32/26 A2965 RMK SLP029 T03150258 52001 IEM_DS3505
ZGNN,1997-08-05 04:00,ZGNN 050400Z AUTO 21006KT 7SM 33/26 A2965 RMK SLP025 T03300260 IEM_DS3505
ZGNN,1997-08-05 05:00,ZGNN 050500Z AUTO 31004KT 7SM 34/25 A2962 RMK SLP015 T03400250 IEM_DS3505
ZGNN,1997-08-05 06:00,ZGNN 050600Z AUTO 02006KT 19SM 30/28 A2962 RMK 60028 SLP012 T03010275 57017 IEM_DS3505
ZGNN,1997-08-05 07:00,ZGNN 050700Z AUTO 24006KT 7SM 35/25 A2959 RMK SLP004 T03500250 IEM_DS3505
ZGNN,1997-08-05 08:00,ZGNN 050800Z AUTO 14010KT 7SM 32/25 A2956 RMK SLP995 T03200250 IEM_DS3505
ZGNN,1997-08-05 09:00,ZGNN 050900Z AUTO 29004KT 3SM 27/24 A2956 RMK SLP004 T02660242 57009 IEM_DS3505
ZGNN,1997-08-05 10:00,ZGNN 051000Z AUTO 09006KT 7SM 30/25 A2956 RMK SLP996 T03000250 IEM_DS3505
ZGNN,1997-08-05 11:00,ZGNN 051100Z AUTO 07004KT 6SM 29/26 A2956 RMK SLP996 T02900260 IEM_DS3505
ZGNN,1997-08-05 12:00,ZGNN 051200Z AUTO 02002KT 12SM 27/26 A2959 RMK 60126 SLP004 T02730259 52001 IEM_DS3505
ZGNN,1997-08-05 13:00,ZGNN 051300Z AUTO 13004KT 7SM 29/27 A2959 RMK SLP006 T02900270 IEM_DS3505
ZGNN,1997-08-05 15:00,ZGNN 051500Z AUTO 11004KT 16SM 28/26 A2963 RMK SLP019 T02850264 52015 IEM_DS3505
ZGNN,1997-08-05 18:00,ZGNN 051800Z AUTO 07002KT 16SM 28/27 A2962 RMK SLP015 T02830266 57004 IEM_DS3505
ZGNN,1997-08-05 21:00,ZGNN 052100Z AUTO 00000KT 14SM 28/26 A2959 RMK 70157 SLP002 T02790265 57013 IEM_DS3505
ZGNN,1997-08-05 22:00,ZGNN 052200Z AUTO 03002KT 7SM 27/26 A2959 RMK SLP007 T02700260 IEM_DS3505
ZGNN,1997-08-05 23:00,ZGNN 052300Z AUTO 36004KT 7SM 27/26 A2962 RMK SLP017 T02700260 IEM_DS3505
ZGNN,1997-08-06 00:00,ZGNN 060000Z AUTO 00000KT 12SM 28/27 A2962 RMK 70157 SLP015 T02800269 52013 IEM_DS3505
ZGNN,1997-08-06 01:00,ZGNN 060100Z AUTO 14004KT 7SM 29/27 A2962 RMK SLP016 T02900270 IEM_DS3505
ZGNN,1997-08-06 02:00,ZGNN 060200Z AUTO 08006KT 7SM 30/27 A2962 RMK SLP016 T03000270 IEM_DS3505
ZGNN,1997-08-06 03:00,ZGNN 060300Z AUTO 04004KT 12SM 30/28 A2962 RMK SLP015 T02970275 54000 IEM_DS3505
ZGNN,1997-08-06 04:00,ZGNN 060400Z AUTO 14008KT 7SM 32/26 A2962 RMK SLP015 T03200260 IEM_DS3505
ZGNN,1997-08-06 05:00,ZGNN 060500Z AUTO 10006KT 7SM 33/26 A2959 RMK SLP005 T03300260 IEM_DS3505
ZGNN,1997-08-06 06:00,ZGNN 060600Z AUTO 02004KT 16SM 32/28 A2956 RMK SLP994 T03230281 57021 IEM_DS3505
ZGNN,1997-08-06 07:00,ZGNN 060700Z AUTO 07004KT 7SM 34/26 A2953 RMK SLP984 T03400260 IEM_DS3505
ZGNN,1997-08-06 08:00,ZGNN 060800Z AUTO 12008KT 7SM 34/26 A2953 RMK SLP984 T03400260 IEM_DS3505
ZGNN,1997-08-06 09:00,ZGNN 060900Z AUTO 11004KT 19SM 34/27 A2953 RMK SLP980 T03400268 57013 IEM_DS3505
ZGNN,1997-08-06 10:00,ZGNN 061000Z AUTO 14010KT 7SM 32/27 A2953 RMK SLP985 T03200270 IEM_DS3505
ZGNN,1997-08-06 11:00,ZGNN 061100Z AUTO 15008KT 7SM 31/26 A2953 RMK SLP985 T03100260 IEM_DS3505
ZGNN,1997-08-06 12:00,ZGNN 061200Z AUTO 00000KT 19SM 31/26 A2953 RMK SLP990 T03060265 52009 IEM_DS3505
ZGNN,1997-08-06 13:00,ZGNN 061300Z AUTO 14004KT 7SM 29/26 A2956 RMK SLP996 T02900260 IEM_DS3505
ZGNN,1997-08-06 15:00,ZGNN 061500Z AUTO 07004KT 19SM 29/27 A2961 RMK SLP014 T02940266 52024 IEM_DS3505
ZGNN,1997-08-06 18:00,ZGNN 061800Z AUTO 07002KT 12SM 29/26 A2957 RMK SLP998 T02870265 57016 IEM_DS3505
ZGNN,1997-08-06 21:00,ZGNN 062100Z AUTO 00000KT 12SM 29/27 A2953 RMK SLP991 T02860268 57006 IEM_DS3505
ZGNN,1997-08-06 22:00,ZGNN 062200Z AUTO 00000KT 7SM 28/27 A2956 RMK SLP996 T02800270 IEM_DS3505
ZGNN,1997-08-06 23:00,ZGNN 062300Z AUTO 17004KT 7SM 28/26 A2956 RMK SLP996 T02800260 IEM_DS3505
ZGNN,1997-08-07 00:00,ZGNN 070000Z AUTO 00000KT 12SM 29/27 A2956 RMK SLP002 T02890273 52010 IEM_DS3505
ZGNN,1997-08-07 01:00,ZGNN 070100Z AUTO 17006KT 7SM 30/27 A2956 RMK SLP996 T03000270 IEM_DS3505
ZGNN,1997-08-07 02:00,ZGNN 070200Z AUTO 19006KT 7SM 31/27 A2956 RMK SLP995 T03100270 IEM_DS3505
ZGNN,1997-08-07 03:00,ZGNN 070300Z AUTO 18002KT 19SM 31/27 A2956 RMK SLP996 T03090274 57006 IEM_DS3505
ZGNN,1997-08-07 04:00,ZGNN 070400Z AUTO 06002KT 7SM 32/27 A2956 RMK SLP995 T03200270 IEM_DS3505
ZGNN,1997-08-07 05:00,ZGNN 070500Z AUTO 08006KT 7SM 33/27 A2953 RMK SLP985 T03300270 IEM_DS3505
ZGNN,1997-08-07 06:00,ZGNN 070600Z AUTO 29006KT 17SM 32/26 A2953 RMK SLP984 T03210257 57011 IEM_DS3505
ZGNN,1997-08-07 07:00,ZGNN 070700Z AUTO 13006KT 7SM 33/26 A2950 RMK SLP975 T03300260 IEM_DS3505
ZGNN,1997-08-07 08:00,ZGNN 070800Z AUTO 11004KT 7SM 32/27 A2950 RMK SLP975 T03200270 IEM_DS3505
ZGNN,1997-08-07 09:00,ZGNN 070900Z AUTO 07004KT 17SM 29/26 A2947 RMK SLP971 T02890256 57014 IEM_DS3505
ZGNN,1997-08-07 10:00,ZGNN 071000Z AUTO 09004KT 7SM 30/25 A2950 RMK SLP975 T03000250 IEM_DS3505
ZGNN,1997-08-07 11:00,ZGNN 071100Z AUTO 12006KT 7SM 30/26 A2953 RMK SLP986 T03000260 IEM_DS3505
ZGNN,1997-08-07 12:00,ZGNN 071200Z AUTO 09004KT 19SM 28/26 A2953 RMK 60004 SLP990 T02760258 52019 IEM_DS3505
ZGNN,1997-08-07 13:00,ZGNN 071300Z AUTO 09004KT 7SM 29/27 A2959 RMK SLP006 T02900270 IEM_DS3505
ZGNN,1997-08-07 14:00,ZGNN 071400Z AUTO 06004KT 7SM 28/27 A2962 RMK SLP016 T02800270 IEM_DS3505
ZGNN,1997-08-07 15:00,ZGNN 071500Z AUTO 27002KT 16SM 27/26 A2965 RMK SLP024 T02710256 52034 IEM_DS3505
ZGNN,1997-08-07 18:00,ZGNN 071800Z AUTO 00000KT 14SM 27/25 A2961 RMK SLP012 T02690252 57012 IEM_DS3505
ZGNN,1997-08-07 21:00,ZGNN 072100Z AUTO 00000KT 12SM 26/26 A2959 RMK 70004 SLP008 T02640256 57004 IEM_DS3505
ZGNN,1997-08-07 22:00,ZGNN 072200Z AUTO 36002KT 5SM 26/25 A2959 RMK SLP007 T02600250 IEM_DS3505
ZGNN,1997-08-07 23:00,ZGNN 072300Z AUTO 12006KT 5SM 26/25 A2962 RMK SLP017 T02600250 IEM_DS3505
ZGNN,1997-08-08 00:00,ZGNN 080000Z AUTO 00000KT 11SM 27/25 A2962 RMK 60001 70004 SLP017 T02660250 52008 IEM_DS3505
ZGNN,1997-08-08 01:00,ZGNN 080100Z AUTO 00000KT 4SM 26/25 A2965 RMK SLP027 T02600250 IEM_DS3505
ZGNN,1997-08-08 02:00,ZGNN 080200Z AUTO 19004KT 4SM 27/25 A2965 RMK SLP027 T02700250 IEM_DS3505
ZGNN,1997-08-08 03:00,ZGNN 080300Z AUTO 02004KT 11SM 27/25 A2965 RMK SLP027 T02720254 52010 IEM_DS3505
ZGNN,1997-08-08 04:00,ZGNN 080400Z AUTO 34006KT 7SM 28/25 A2965 RMK SLP026 T02800250 IEM_DS3505
ZGNN,1997-08-08 05:00,ZGNN 080500Z AUTO 19006KT 7SM 28/24 A2965 RMK SLP026 T02800240 IEM_DS3505
ZGNN,1997-08-08 06:00,ZGNN 080600Z AUTO 09002KT 12SM 27/26 A2965 RMK 60008 SLP022 T02690258 57005 IEM_DS3505
ZGNN,1997-08-08 07:00,ZGNN 080700Z AUTO 15004KT 7SM 27/26 A2962 RMK SLP017 T02700260 IEM_DS3505
ZGNN,1997-08-08 08:00,ZGNN 080800Z AUTO 09006KT 7SM 28/26 A2959 RMK SLP006 T02800260 IEM_DS3505
ZGNN,1997-08-08 09:00,ZGNN 080900Z AUTO 04002KT 9SM 27/25 A2959 RMK SLP013 T02670253 57009 IEM_DS3505
ZGNN,1997-08-08 10:00,ZGNN 081000Z AUTO 10006KT 4SM 28/26 A2959 RMK SLP006 T02800260 IEM_DS3505
ZGNN,1997-08-08 11:00,ZGNN 081100Z AUTO 12004KT 6SM 27/26 A2959 RMK SLP007 T02700260 IEM_DS3505
ZGNN,1997-08-08 12:00,ZGNN 081200Z AUTO 00000KT 12SM 26/25 A2962 RMK 60004 SLP020 T02620251 52007 IEM_DS3505
ZGNN,1997-08-08 13:00,ZGNN 081300Z AUTO 00000KT 7SM 27/26 A2965 RMK SLP027 T02700260 IEM_DS3505
ZGNN,1997-08-08 14:00,ZGNN 081400Z AUTO 36004KT 7SM 27/26 A2968 RMK SLP037 T02700260 IEM_DS3505
ZGNN,1997-08-08 15:00,ZGNN 081500Z AUTO 07002KT 12SM 26/25 A2969 RMK SLP041 T02620252 52021 IEM_DS3505
ZGNN,1997-08-08 18:00,ZGNN 081800Z AUTO 20002KT 9SM 26/25 A2968 RMK 60001 SLP037 T02630252 57004 IEM_DS3505
ZGNN,1997-08-08 21:00,ZGNN 082100Z AUTO 04002KT 9SM 26/25 A2965 RMK 70043 SLP032 T02590252 57005 IEM_DS3505
ZGNN,1997-08-08 22:00,ZGNN 082200Z AUTO 01004KT 1 1/2SM 26/25 A2965 RMK SLP027 T02600250 IEM_DS3505
ZGNN,1997-08-08 23:00,ZGNN 082300Z AUTO 02004KT 1 1/2SM 26/25 A2968 RMK SLP037 T02600250 IEM_DS3505
ZGNN,1997-08-09 00:00,ZGNN 090000Z AUTO 00000KT 7SM 26/25 A2971 RMK 60035 70047 SLP046 T02590248 52014 IEM_DS3505
ZGNN,1997-08-09 01:00,ZGNN 090100Z AUTO 24004KT 1 1/2SM 25/25 A2968 RMK SLP037 T02500250 IEM_DS3505
ZGNN,1997-08-09 02:00,ZGNN 090200Z AUTO 25004KT 4SM 25/25 A2971 RMK SLP047 T02500250 IEM_DS3505
ZGNN,1997-08-09 03:00,ZGNN 090300Z AUTO 00000KT 6SM 25/25 A2971 RMK SLP052 T02540247 52006 IEM_DS3505
ZGNN,1997-08-09 04:00,ZGNN 090400Z AUTO 00000KT 5SM 26/25 A2971 RMK SLP047 T02600250 IEM_DS3505
ZGNN,1997-08-09 05:00,ZGNN 090500Z AUTO 00000KT 7SM 26/25 A2968 RMK SLP037 T02600250 IEM_DS3505
ZGNN,1997-08-09 06:00,ZGNN 090600Z AUTO 00000KT 7SM 26/25 A2968 RMK 60126 SLP035 T02650254 57017 IEM_DS3505
ZGNN,1997-08-09 07:00,ZGNN 090700Z AUTO 14006KT 7SM 27/25 A2968 RMK SLP037 T02700250 IEM_DS3505
ZGNN,1997-08-09 08:00,ZGNN 090800Z AUTO 06004KT 7SM 28/26 A2965 RMK SLP026 T02800260 IEM_DS3505
ZGNN,1997-08-09 09:00,ZGNN 090900Z AUTO 14002KT 12SM 27/25 A2965 RMK SLP028 T02700253 57007 IEM_DS3505
ZGNN,1997-08-09 10:00,ZGNN 091000Z AUTO 03006KT 1SM 26/25 A2965 RMK SLP027 T02600250 IEM_DS3505
ZGNN,1997-08-09 11:00,ZGNN 091100Z AUTO 28004KT 4SM 25/24 A2968 RMK SLP037 T02500240 IEM_DS3505
ZGNN,1997-08-09 12:00,ZGNN 091200Z AUTO 00000KT 12SM 26/25 A2971 RMK 60150 SLP040 T02550248 52012 IEM_DS3505
ZGNN,1997-08-09 13:00,ZGNN 091300Z AUTO 19004KT 7SM 25/24 A2971 RMK SLP047 T02500240 IEM_DS3505
ZGNN,1997-08-09 15:00,ZGNN 091500Z AUTO 00000KT 11SM 25/25 A2972 RMK SLP051 T02530247 52011 IEM_DS3505
ZGNN,1997-08-09 18:00,ZGNN 091800Z AUTO 22002KT 12SM 25/24 A2969 RMK 60051 SLP039 T02530244 57012 IEM_DS3505
ZGNN,1997-08-09 21:00,ZGNN 092100Z AUTO 16002KT 12SM 25/24 A2968 RMK 70331 SLP036 T02520242 57003 IEM_DS3505
ZGNN,1997-08-09 22:00,ZGNN 092200Z AUTO 16004KT 7SM 24/24 A2971 RMK SLP048 T02400240 IEM_DS3505
ZGNN,1997-08-09 23:00,ZGNN 092300Z AUTO 24004KT 7SM 24/24 A2971 RMK SLP048 T02400240 IEM_DS3505
ZGNN,1997-08-10 00:00,ZGNN 100000Z AUTO 09002KT 9SM 25/24 A2971 RMK 70327 SLP049 T02520243 52013 IEM_DS3505
ZGNN,1997-08-10 01:00,ZGNN 100100Z AUTO 21004KT 7SM RMK IEM_DS3505
ZGNN,1997-08-10 02:00,ZGNN 100200Z AUTO 18008KT 7SM RMK IEM_DS3505
ZGNN,1997-08-10 03:00,ZGNN 100300Z AUTO 25004KT 7SM 26/24 A2971 RMK SLP050 T02610241 52001 IEM_DS3505
ZGNN,1997-08-10 04:00,ZGNN 100400Z AUTO 21008KT 7SM 25/24 A2971 RMK SLP047 T02500240 IEM_DS3505
ZGNN,1997-08-10 05:00,ZGNN 100500Z AUTO 24008KT 7SM 25/24 A2971 RMK SLP047 T02500240 IEM_DS3505
ZGNN,1997-08-10 06:00,ZGNN 100600Z AUTO 25006KT 12SM 26/24 A2968 RMK 60012 SLP037 T02650242 57013 IEM_DS3505
ZGNN,1997-08-10 08:00,ZGNN 100800Z AUTO 21008KT 2 1/2SM 24/24 A2965 RMK SLP028 T02400240 IEM_DS3505
ZGNN,1997-08-10 09:00,ZGNN 100900Z AUTO 22004KT 9SM 25/24 A2965 RMK SLP028 T02520242 57009 IEM_DS3505
ZGNN,1997-08-10 10:00,ZGNN 101000Z AUTO 23006KT 7SM 25/24 A2965 RMK SLP027 T02500240 IEM_DS3505
ZGNN,1997-08-10 11:00,ZGNN 101100Z AUTO 24006KT 7SM 25/24 A2965 RMK SLP027 T02500240 IEM_DS3505
ZGNN,1997-08-10 12:00,ZGNN 101200Z AUTO 00000KT 16SM 26/24 A2965 RMK 60004 SLP032 T02560237 52004 IEM_DS3505
ZGNN,1997-08-10 13:00,ZGNN 101300Z AUTO 15002KT 7SM 25/24 A2968 RMK SLP037 T02500240 IEM_DS3505
ZGNN,1997-08-10 15:00,ZGNN 101500Z AUTO 00000KT 16SM 25/24 A2968 RMK SLP038 T02530242 52006 IEM_DS3505
ZGNN,1997-08-10 18:00,ZGNN 101800Z AUTO 00000KT 16SM 25/24 A2966 RMK SLP033 T02520242 57005 IEM_DS3505
ZGNN,1997-08-10 21:00,ZGNN 102100Z AUTO 00000KT 9SM 25/24 A2966 RMK 70016 SLP031 T02490245 57002 IEM_DS3505
ZGNN,1997-08-10 22:00,ZGNN 102200Z AUTO 00000KT 7SM 25/24 A2965 RMK SLP027 T02500240 IEM_DS3505
ZGNN,1997-08-10 23:00,ZGNN 102300Z AUTO 00000KT 4SM 25/24 A2968 RMK SLP037 T02500240 IEM_DS3505
ZGNN,1997-08-11 00:00,ZGNN 110000Z AUTO 00000KT 4SM 26/25 A2971 RMK 60004 70020 SLP040 T02560246 52009 IEM_DS3505
ZGNN,1997-08-11 01:00,ZGNN 110100Z AUTO 32002KT 3SM 26/24 A2971 RMK SLP047 T02600240 IEM_DS3505
ZGNN,1997-08-11 02:00,ZGNN 110200Z AUTO 31002KT 7SM 26/24 A2971 RMK SLP047 T02600240 IEM_DS3505
ZGNN,1997-08-11 03:00,ZGNN 110300Z AUTO 04002KT 7SM 27/25 A2971 RMK SLP049 T02660250 52009 IEM_DS3505
ZGNN,1997-08-11 04:00,ZGNN 110400Z AUTO 00000KT 4SM 25/24 A2971 RMK SLP047 T02500240 IEM_DS3505
ZGNN,1997-08-11 05:00,ZGNN 110500Z AUTO 27004KT 3SM 25/24 A2971 RMK SLP047 T02500240 IEM_DS3505
ZGNN,1997-08-11 06:00,ZGNN 110600Z AUTO 27002KT 12SM 29/25 A2968 RMK 60016 SLP036 T02890251 57013 IEM_DS3505
ZGNN,1997-08-11 07:00,ZGNN 110700Z AUTO 14002KT 7SM 29/25 A2965 RMK SLP026 T02900250 IEM_DS3505
ZGNN,1997-08-11 08:00,ZGNN 110800Z AUTO 17004KT 7SM 29/25 A2965 RMK SLP026 T02900250 IEM_DS3505
ZGNN,1997-08-11 09:00,ZGNN 110900Z AUTO 11002KT 16SM 31/26 A2965 RMK SLP025 T03140259 57010 IEM_DS3505
ZGNN,1997-08-11 11:00,ZGNN 111100Z AUTO 09006KT 6SM 29/25 A2965 RMK SLP026 T02900250 IEM_DS3505
ZGNN,1997-08-11 12:00,ZGNN 111200Z AUTO 09002KT 14SM 27/25 A2968 RMK SLP035 T02740249 52009 IEM_DS3505
ZGNN,1997-08-11 13:00,ZGNN 111300Z AUTO 00000KT 6SM 27/26 A2971 RMK SLP047 T02700260 IEM_DS3505
ZGNN,1997-08-11 14:00,ZGNN 111400Z AUTO 00000KT 6SM 27/26 A2971 RMK SLP047 T02700260 IEM_DS3505
ZGNN,1997-08-11 15:00,ZGNN 111500Z AUTO 09002KT 11SM 26/25 A2974 RMK SLP055 T02650252 52020 IEM_DS3505
ZGNN,1997-08-11 18:00,ZGNN 111800Z AUTO 07004KT 11SM 26/25 A2970 RMK SLP045 T02590251 57010 IEM_DS3505
ZGNN,1997-08-11 21:00,ZGNN 112100Z AUTO 00000KT 11SM 26/25 A2968 RMK 70020 SLP039 T02580249 57005 IEM_DS3505
ZGNN,1997-08-11 22:00,ZGNN 112200Z AUTO 00000KT 3SM 25/25 A2968 RMK SLP037 T02500250 IEM_DS3505
ZGNN,1997-08-11 23:00,ZGNN 112300Z AUTO 00000KT 1 1/4SM 25/25 A2971 RMK SLP047 T02500250 IEM_DS3505
ZGNN,1997-08-12 00:00,ZGNN 120000Z AUTO 22002KT 5SM 26/25 A2971 RMK 70016 SLP052 T02590249 52012 IEM_DS3505
ZGNN,1997-08-12 01:00,ZGNN 120100Z AUTO 00000KT 2 1/2SM 26/25 A2974 RMK SLP057 T02600250 IEM_DS3505
ZGNN,1997-08-12 02:00,ZGNN 120200Z AUTO 00000KT 4SM 28/25 A2974 RMK SLP057 T02800250 IEM_DS3505
ZGNN,1997-08-12 03:00,ZGNN 120300Z AUTO 22004KT 11SM 29/26 A2974 RMK SLP053 T02860257 52001 IEM_DS3505
ZGNN,1997-08-12 04:00,ZGNN 120400Z AUTO 00000KT 7SM 31/26 A2974 RMK SLP056 T03100260 IEM_DS3505
ZGNN,1997-08-12 05:00,ZGNN 120500Z AUTO 00000KT 7SM 32/25 A2971 RMK SLP045 T03200250 IEM_DS3505
ZGNN,1997-08-12 06:00,ZGNN 120600Z AUTO 04002KT 12SM 33/26 A2971 RMK SLP039 T03300261 57013 IEM_DS3505
ZGNN,1997-08-12 07:00,ZGNN 120700Z AUTO 16006KT 7SM 33/25 A2968 RMK SLP035 T03300250 IEM_DS3505
ZGNN,1997-08-12 08:00,ZGNN 120800Z AUTO 14004KT 7SM 34/25 A2968 RMK SLP035 T03400250 IEM_DS3505
ZGNN,1997-08-12 09:00,ZGNN 120900Z AUTO 07006KT 14SM 32/26 A2965 RMK SLP024 T03210257 57015 IEM_DS3505
ZGNN,1997-08-12 10:00,ZGNN 121000Z AUTO 11006KT 6SM 33/25 A2965 RMK SLP025 T03300250 IEM_DS3505
ZGNN,1997-08-12 11:00,ZGNN 121100Z AUTO 14006KT 6SM 31/26 A2968 RMK SLP036 T03100260 IEM_DS3505
ZGNN,1997-08-12 12:00,ZGNN 121200Z AUTO 09004KT 14SM 29/26 A2971 RMK SLP043 T02920261 52018 IEM_DS3505
ZGNN,1997-08-12 13:00,ZGNN 121300Z AUTO 14004KT 6SM 28/26 A2971 RMK SLP047 T02800260 IEM_DS3505
ZGNN,1997-08-12 15:00,ZGNN 121500Z AUTO 09002KT 12SM 28/25 A2974 RMK SLP056 T02800253 52013 IEM_DS3505
ZGNN,1997-08-12 18:00,ZGNN 121800Z AUTO 36002KT 12SM 27/26 A2973 RMK SLP054 T02720258 57001 IEM_DS3505
ZGNN,1997-08-12 21:00,ZGNN 122100Z AUTO 04004KT 12SM 27/26 A2968 RMK SLP043 T02670256 57011 IEM_DS3505
ZGNN,1997-08-12 22:00,ZGNN 122200Z AUTO 00000KT 7SM 25/24 A2971 RMK SLP047 T02500240 IEM_DS3505
ZGNN,1997-08-12 23:00,ZGNN 122300Z AUTO 00000KT 7SM 26/24 A2974 RMK SLP057 T02600240 IEM_DS3505
ZGNN,1997-08-13 00:00,ZGNN 130000Z AUTO 18002KT 7SM 27/26 A2974 RMK SLP058 T02730259 52014 IEM_DS3505
ZGNN,1997-08-13 01:00,ZGNN 130100Z AUTO 00000KT 7SM 27/24 A2977 RMK SLP068 T02700240 IEM_DS3505
ZGNN,1997-08-13 02:00,ZGNN 130200Z AUTO 16004KT 6SM 29/24 A2977 RMK SLP067 T02900240 IEM_DS3505
ZGNN,1997-08-13 03:00,ZGNN 130300Z AUTO 20002KT 11SM 30/26 A2977 RMK SLP066 T02970261 52008 IEM_DS3505
ZGNN,1997-08-13 04:00,ZGNN 130400Z AUTO 00000KT 6SM 30/26 A2977 RMK SLP067 T03000260 IEM_DS3505
ZGNN,1997-08-13 05:00,ZGNN 130500Z AUTO 10004KT 7SM 31/25 A2974 RMK SLP056 T03100250 IEM_DS3505
ZGNN,1997-08-13 06:00,ZGNN 130600Z AUTO 18002KT 17SM 31/26 A2974 RMK SLP050 T03070263 57015 IEM_DS3505
ZGNN,1997-08-13 07:00,ZGNN 130700Z AUTO 12006KT 7SM 29/24 A2968 RMK SLP036 T02900240 IEM_DS3505
ZGNN,1997-08-13 08:00,ZGNN 130800Z AUTO 00000KT 7SM 29/26 A2968 RMK SLP036 T02900260 IEM_DS3505
ZGNN,1997-08-13 09:00,ZGNN 130900Z AUTO 16002KT 16SM 29/24 A2971 RMK SLP041 T02920245 57010 IEM_DS3505
ZGNN,1997-08-13 10:00,ZGNN 131000Z AUTO 06006KT 7SM 27/26 A2971 RMK SLP047 T02700260 IEM_DS3505
ZGNN,1997-08-13 11:00,ZGNN 131100Z AUTO 12004KT 7SM 25/24 A2974 RMK SLP058 T02500240 IEM_DS3505
ZGNN,1997-08-13 12:00,ZGNN 131200Z AUTO 07004KT 11SM 26/24 A2974 RMK 60008 SLP051 T02620245 52010 IEM_DS3505
ZGNN,1997-08-13 13:00,ZGNN 131300Z AUTO 00000KT 7SM 25/25 A2974 RMK SLP058 T02500250 IEM_DS3505
ZGNN,1997-08-13 15:00,ZGNN 131500Z AUTO 04004KT 14SM 26/25 A2974 RMK SLP059 T02580247 52008 IEM_DS3505
ZGNN,1997-08-13 18:00,ZGNN 131800Z AUTO 00000KT 16SM 26/24 A2971 RMK 60000 SLP048 T02570243 57011 IEM_DS3505
ZGNN,1997-08-13 21:00,ZGNN 132100Z AUTO 07002KT 16SM 26/24 A2974 RMK 70008 SLP053 T02570244 52005 IEM_DS3505
ZGNN,1997-08-13 22:00,ZGNN 132200Z AUTO 00000KT 7SM 25/24 A2974 RMK SLP058 T02500240 IEM_DS3505
ZGNN,1997-08-13 23:00,ZGNN 132300Z AUTO 07004KT 7SM 25/24 A2974 RMK SLP058 T02500240 IEM_DS3505
ZGNN,1997-08-14 00:00,ZGNN 140000Z AUTO 04004KT 12SM 26/24 A2977 RMK 70008 SLP064 T02570243 52011 IEM_DS3505
ZGNN,1997-08-14 01:00,ZGNN 140100Z AUTO 08004KT 7SM 26/25 A2977 RMK SLP068 T02600250 IEM_DS3505
ZGNN,1997-08-14 02:00,ZGNN 140200Z AUTO 14006KT 7SM 27/25 A2977 RMK SLP068 T02700250 IEM_DS3505
ZGNN,1997-08-14 03:00,ZGNN 140300Z AUTO 09004KT 16SM 28/25 A2977 RMK SLP063 T02780253 57001 IEM_DS3505
ZGNN,1997-08-14 04:00,ZGNN 140400Z AUTO 07004KT 7SM 30/25 A2974 RMK SLP056 T03000250 IEM_DS3505
ZGNN,1997-08-14 05:00,ZGNN 140500Z AUTO 12004KT 7SM 31/24 A2971 RMK SLP046 T03100240 IEM_DS3505
ZGNN,1997-08-14 06:00,ZGNN 140600Z AUTO 22006KT 19SM 29/24 A2971 RMK SLP047 T02860237 57016 IEM_DS3505
ZGNN,1997-08-14 07:00,ZGNN 140700Z AUTO 06004KT 7SM 25/24 A2971 RMK SLP047 T02500240 IEM_DS3505
ZGNN,1997-08-14 08:00,ZGNN 140800Z AUTO 14008KT 7SM 27/25 A2968 RMK SLP037 T02700250 IEM_DS3505
ZGNN,1997-08-14 09:00,ZGNN 140900Z AUTO 27004KT 19SM 30/25 A2968 RMK SLP038 T02960248 57009 IEM_DS3505
ZGNN,1997-08-14 10:00,ZGNN 141000Z AUTO 17008KT 7SM 27/25 A2971 RMK SLP047 T02700250 IEM_DS3505
ZGNN,1997-08-14 11:00,ZGNN 141100Z AUTO 16002KT 7SM 27/25 A2968 RMK SLP037 T02700250 IEM_DS3505
ZGNN,1997-08-14 12:00,ZGNN 141200Z AUTO 09004KT 19SM 27/25 A2971 RMK SLP048 T02720251 52010 IEM_DS3505
ZGNN,1997-08-14 13:00,ZGNN 141300Z AUTO 14004KT 7SM 26/25 A2974 RMK SLP057 T02600250 IEM_DS3505
ZGNN,1997-08-14 15:00,ZGNN 141500Z AUTO 07002KT 16SM 26/25 A2976 RMK SLP063 T02650248 52015 IEM_DS3505
ZGNN,1997-08-14 18:00,ZGNN 141800Z AUTO 09002KT 11SM 26/25 A2974 RMK 60000 SLP058 T02580247 57005 IEM_DS3505
ZGNN,1997-08-14 21:00,ZGNN 142100Z AUTO 09002KT 11SM 26/24 A2971 RMK 70001 SLP055 T02580245 57003 IEM_DS3505
ZGNN,1997-08-14 22:00,ZGNN 142200Z AUTO 00000KT 7SM 25/24 A2974 RMK SLP058 T02500240 IEM_DS3505
ZGNN,1997-08-14 23:00,ZGNN 142300Z AUTO 09002KT 7SM 25/24 A2974 RMK SLP058 T02500240 IEM_DS3505
ZGNN,1997-08-15 00:00,ZGNN 150000Z AUTO 04004KT 6SM 25/24 A2977 RMK 60059 70059 SLP065 T02490243 52010 IEM_DS3505
ZGNN,1997-08-15 01:00,ZGNN 150100Z AUTO 08008KT 7SM 25/24 A2977 RMK SLP069 T02500240 IEM_DS3505
ZGNN,1997-08-15 02:00,ZGNN 150200Z AUTO 06008KT 7SM 26/24 A2980 RMK SLP078 T02600240 IEM_DS3505
ZGNN,1997-08-15 03:00,ZGNN 150300Z AUTO 07004KT 10SM 25/24 A2980 RMK SLP081 T02510242 52015 IEM_DS3505
ZGNN,1997-08-15 04:00,ZGNN 150400Z AUTO 07006KT 7SM 26/24 A2977 RMK SLP068 T02600240 IEM_DS3505
ZGNN,1997-08-15 05:00,ZGNN 150500Z AUTO 11006KT 7SM 27/24 A2974 RMK SLP057 T02700240 IEM_DS3505
ZGNN,1997-08-15 06:00,ZGNN 150600Z AUTO 04004KT 16SM 28/24 A2974 RMK 60016 SLP056 T02850244 57024 IEM_DS3505
ZGNN,1997-08-15 07:00,ZGNN 150700Z AUTO 07008KT 7SM 28/24 A2971 RMK SLP047 T02800240 IEM_DS3505
ZGNN,1997-08-15 08:00,ZGNN 150800Z AUTO 11004KT 7SM 29/24 A2968 RMK SLP036 T02900240 IEM_DS3505
ZGNN,1997-08-15 09:00,ZGNN 150900Z AUTO 18002KT 16SM 30/25 A2968 RMK SLP036 T02990248 57020 IEM_DS3505
ZGNN,1997-08-15 10:00,ZGNN 151000Z AUTO 07004KT 7SM 29/25 A2968 RMK SLP036 T02900250 IEM_DS3505
ZGNN,1997-08-15 11:00,ZGNN 151100Z AUTO 07002KT 6SM 28/25 A2971 RMK SLP047 T02800250 IEM_DS3505
ZGNN,1997-08-15 12:00,ZGNN 151200Z AUTO 00000KT 16SM 29/26 A2974 RMK SLP058 T02860255 52022 IEM_DS3505
ZGNN,1997-08-15 13:00,ZGNN 151300Z AUTO 00000KT 6SM 27/26 A2977 RMK SLP068 T02700260 IEM_DS3505
ZGNN,1997-08-15 14:00,ZGNN 151400Z AUTO 00000KT 7SM 27/25 A2977 RMK SLP068 T02700250 IEM_DS3505
ZGNN,1997-08-15 15:00,ZGNN 151500Z AUTO 00000KT 9SM 25/24 A2981 RMK SLP081 T02530239 52022 IEM_DS3505
ZGNN,1997-08-15 18:00,ZGNN 151800Z AUTO 00000KT 6SM 25/25 A2976 RMK 60063 SLP064 T02530247 57016 IEM_DS3505
ZGNN,1997-08-15 21:00,ZGNN 152100Z AUTO 00000KT 7SM 26/25 A2971 RMK 70138 SLP049 T02580251 57015 IEM_DS3505
ZGNN,1997-08-15 22:00,ZGNN 152200Z AUTO 36002KT 4SM 25/25 A2971 RMK SLP047 T02500250 IEM_DS3505
ZGNN,1997-08-15 23:00,ZGNN 152300Z AUTO 36002KT 4SM 25/25 A2974 RMK SLP058 T02500250 IEM_DS3505
ZGNN,1997-08-16 00:00,ZGNN 160000Z AUTO 07004KT 7SM 27/25 A2977 RMK 70079 SLP064 T02680252 52015 IEM_DS3505
ZGNN,1997-08-16 01:00,ZGNN 160100Z AUTO 00000KT 1 1/4SM 26/25 A2977 RMK SLP068 T02600250 IEM_DS3505
ZGNN,1997-08-16 02:00,ZGNN 160200Z AUTO 32002KT 2 1/2SM 26/25 A2980 RMK SLP078 T02600250 IEM_DS3505
ZGNN,1997-08-16 03:00,ZGNN 160300Z AUTO 00000KT 9SM 30/25 A2980 RMK SLP076 T02950248 52012 IEM_DS3505
ZGNN,1997-08-16 04:00,ZGNN 160400Z AUTO 34006KT 3SM 27/25 A2977 RMK SLP068 T02700250 IEM_DS3505
ZGNN,1997-08-16 05:00,ZGNN 160500Z AUTO 00000KT 4SM 28/25 A2977 RMK SLP068 T02800250 IEM_DS3505
ZGNN,1997-08-16 06:00,ZGNN 160600Z AUTO 29004KT 16SM 30/25 A2974 RMK SLP055 T02950253 57021 IEM_DS3505
ZGNN,1997-08-16 07:00,ZGNN 160700Z AUTO 29004KT 7SM 29/25 A2971 RMK SLP046 T02900250 IEM_DS3505
ZGNN,1997-08-16 08:00,ZGNN 160800Z AUTO 31004KT 6SM 29/25 A2968 RMK SLP036 T02900250 IEM_DS3505
ZGNN,1997-08-16 09:00,ZGNN 160900Z AUTO 00000KT 17SM 29/24 A2968 RMK SLP033 T02870241 57022 IEM_DS3505
ZGNN,1997-08-16 10:00,ZGNN 161000Z AUTO 33004KT 7SM 29/25 A2968 RMK SLP036 T02900250 IEM_DS3505
ZGNN,1997-08-16 11:00,ZGNN 161100Z AUTO 00000KT 7SM 28/25 A2968 RMK SLP037 T02800250 IEM_DS3505
ZGNN,1997-08-16 12:00,ZGNN 161200Z AUTO 00000KT 9SM 29/26 A2971 RMK 60000 SLP041 T02860262 52008 IEM_DS3505
ZGNN,1997-08-16 13:00,ZGNN 161300Z AUTO 00000KT 4SM 27/26 A2971 RMK SLP047 T02700260 IEM_DS3505
ZGNN,1997-08-16 15:00,ZGNN 161500Z AUTO 09002KT 9SM 27/24 A2973 RMK SLP055 T02680242 52014 IEM_DS3505
ZGNN,1997-08-16 18:00,ZGNN 161800Z AUTO 27002KT 9SM 26/25 A2972 RMK SLP050 T02610250 57005 IEM_DS3505
ZGNN,1997-08-16 21:00,ZGNN 162100Z AUTO 32002KT 9SM 26/24 A2968 RMK 70001 SLP043 T02560239 57007 IEM_DS3505
ZGNN,1997-08-16 22:00,ZGNN 162200Z AUTO 36004KT 7SM 25/23 A2968 RMK SLP037 T02500230 IEM_DS3505
ZGNN,1997-08-16 23:00,ZGNN 162300Z AUTO 00000KT 7SM 25/23 A2968 RMK SLP037 T02500230 IEM_DS3505
ZGNN,1997-08-17 00:00,ZGNN 170000Z AUTO 00000KT 11SM 26/25 A2971 RMK 70001 SLP049 T02630247 52006 IEM_DS3505
ZGNN,1997-08-17 01:00,ZGNN 170100Z AUTO 35002KT 7SM 27/23 A2974 RMK SLP057 T02700230 IEM_DS3505
ZGNN,1997-08-17 02:00,ZGNN 170200Z AUTO 03006KT 6SM 28/24 A2971 RMK SLP047 T02800240 IEM_DS3505
ZGNN,1997-08-17 03:00,ZGNN 170300Z AUTO 04002KT 16SM 31/23 A2974 RMK SLP052 T03110234 52004 IEM_DS3505
ZGNN,1997-08-17 04:00,ZGNN 170400Z AUTO 03006KT 7SM 30/24 A2971 RMK SLP046 T03000240 IEM_DS3505
ZGNN,1997-08-17 05:00,ZGNN 170500Z AUTO 04006KT 7SM 32/23 A2971 RMK SLP045 T03200230 IEM_DS3505
ZGNN,1997-08-17 06:00,ZGNN 170600Z AUTO 04006KT 16SM 33/21 A2968 RMK SLP030 T03310209 57022 IEM_DS3505
ZGNN,1997-08-17 07:00,ZGNN 170700Z AUTO 33006KT 7SM 32/22 A2965 RMK SLP025 T03200220 IEM_DS3505
ZGNN,1997-08-17 08:00,ZGNN 170800Z AUTO 34006KT 7SM 32/21 A2962 RMK SLP015 T03200210 IEM_DS3505
ZGNN,1997-08-17 09:00,ZGNN 170900Z AUTO 34006KT 16SM 33/21 A2962 RMK SLP011 T03300213 57019 IEM_DS3505
ZGNN,1997-08-17 10:00,ZGNN 171000Z AUTO 33006KT 7SM 32/21 A2962 RMK SLP015 T03200210 IEM_DS3505
ZGNN,1997-08-17 11:00,ZGNN 171100Z AUTO 34004KT 6SM 31/21 A2962 RMK SLP016 T03100210 IEM_DS3505
ZGNN,1997-08-17 12:00,ZGNN 171200Z AUTO 00000KT 14SM 30/22 A2962 RMK SLP013 T03030218 52002 IEM_DS3505
ZGNN,1997-08-17 13:00,ZGNN 171300Z AUTO 00000KT 6SM 27/24 A2965 RMK SLP027 T02700240 IEM_DS3505
ZGNN,1997-08-17 15:00,ZGNN 171500Z AUTO 00000KT 11SM 28/24 A2968 RMK SLP036 T02790242 52023 IEM_DS3505
ZGNN,1997-08-17 18:00,ZGNN 171800Z AUTO 29002KT 11SM 27/23 A2966 RMK SLP029 T02680226 57007 IEM_DS3505
ZGNN,1997-08-17 21:00,ZGNN 172100Z AUTO 14004KT 9SM 27/22 A2962 RMK SLP018 T02680216 57011 IEM_DS3505
ZGNN,1997-08-17 22:00,ZGNN 172200Z AUTO 00000KT 5SM 24/22 A2965 RMK SLP028 T02400220 IEM_DS3505
ZGNN,1997-08-17 23:00,ZGNN 172300Z AUTO 00000KT 6SM 24/23 A2965 RMK SLP028 T02400230 IEM_DS3505
ZGNN,1997-08-18 00:00,ZGNN 180000Z AUTO 25002KT 8SM 28/23 A2968 RMK SLP033 T02760228 52015 IEM_DS3505
ZGNN,1997-08-18 01:00,ZGNN 180100Z AUTO 35006KT 6SM 28/22 A2968 RMK SLP037 T02800220 IEM_DS3505
ZGNN,1997-08-18 02:00,ZGNN 180200Z AUTO 36010KT 6SM 29/22 A2968 RMK SLP036 T02900220 IEM_DS3505
ZGNN,1997-08-18 03:00,ZGNN 180300Z AUTO 34006KT 9SM 32/22 A2968 RMK SLP038 T03150224 52005 IEM_DS3505
ZGNN,1997-08-18 04:00,ZGNN 180400Z AUTO 35010KT 6SM 32/22 A2968 RMK SLP035 T03200220 IEM_DS3505
ZGNN,1997-08-18 05:00,ZGNN 180500Z AUTO 33008KT 6SM 32/21 A2965 RMK SLP025 T03200210 IEM_DS3505
ZGNN,1997-08-18 06:00,ZGNN 180600Z AUTO 04004KT 14SM 34/22 A2962 RMK SLP012 T03350223 57026 IEM_DS3505
ZGNN,1997-08-18 07:00,ZGNN 180700Z AUTO 32010KT 7SM 33/21 A2959 RMK SLP005 T03300210 IEM_DS3505
ZGNN,1997-08-18 08:00,ZGNN 180800Z AUTO 34008KT 7SM 32/21 A2956 RMK SLP995 T03200210 IEM_DS3505
ZGNN,1997-08-18 09:00,ZGNN 180900Z AUTO 11002KT 16SM 34/21 A2956 RMK SLP994 T03350209 57018 IEM_DS3505
ZGNN,1997-08-18 10:00,ZGNN 181000Z AUTO 34004KT 7SM 32/21 A2956 RMK SLP995 T03200210 IEM_DS3505
ZGNN,1997-08-18 11:00,ZGNN 181100Z AUTO 33002KT 6SM 31/22 A2956 RMK SLP995 T03100220 IEM_DS3505
ZGNN,1997-08-18 12:00,ZGNN 181200Z AUTO 00000KT 16SM 31/23 A2959 RMK SLP002 T03070233 52008 IEM_DS3505
ZGNN,1997-08-18 13:00,ZGNN 181300Z AUTO 00000KT 6SM 27/24 A2959 RMK SLP007 T02700240 IEM_DS3505
ZGNN,1997-08-18 15:00,ZGNN 181500Z AUTO 00000KT 14SM 29/23 A2963 RMK SLP021 T02930234 52019 IEM_DS3505
ZGNN,1997-08-18 18:00,ZGNN 181800Z AUTO 04002KT 12SM 28/22 A2962 RMK SLP016 T02790224 57005 IEM_DS3505
ZGNN,1997-08-18 21:00,ZGNN 182100Z AUTO 00000KT 12SM 27/21 A2959 RMK SLP011 T02730207 57005 IEM_DS3505
ZGNN,1997-08-18 22:00,ZGNN 182200Z AUTO 00000KT 6SM 25/22 A2962 RMK SLP017 T02500220 IEM_DS3505
ZGNN,1997-08-18 23:00,ZGNN 182300Z AUTO 36002KT 6SM 25/22 A2962 RMK SLP017 T02500220 IEM_DS3505
ZGNN,1997-08-19 00:00,ZGNN 190000Z AUTO 34006KT 16SM 28/21 A2965 RMK SLP025 T02820206 52014 IEM_DS3505
ZGNN,1997-08-19 01:00,ZGNN 190100Z AUTO 35008KT 6SM 28/22 A2965 RMK SLP026 T02800220 IEM_DS3505
ZGNN,1997-08-19 02:00,ZGNN 190200Z AUTO 33012KT 6SM 30/22 A2965 RMK SLP026 T03000220 IEM_DS3505
ZGNN,1997-08-19 03:00,ZGNN 190300Z AUTO 04006KT 16SM 32/21 A2965 RMK SLP023 T03160212 57002 IEM_DS3505
ZGNN,1997-08-19 04:00,ZGNN 190400Z AUTO 34004KT 6SM 32/21 A2962 RMK SLP015 T03200210 IEM_DS3505
ZGNN,1997-08-19 05:00,ZGNN 190500Z AUTO 34008KT 6SM 33/20 A2962 RMK SLP015 T03300200 IEM_DS3505
ZGNN,1997-08-19 06:00,ZGNN 190600Z AUTO 02008KT 16SM 34/20 A2959 RMK SLP002 T03390202 57020 IEM_DS3505
ZGNN,1997-08-19 07:00,ZGNN 190700Z AUTO 34006KT 6SM 34/19 A2956 RMK SLP995 T03400190 IEM_DS3505
ZGNN,1997-08-19 08:00,ZGNN 190800Z AUTO 33006KT 6SM 34/20 A2956 RMK SLP995 T03400200 IEM_DS3505
ZGNN,1997-08-19 09:00,ZGNN 190900Z AUTO 34004KT 17SM 36/19 A2956 RMK SLP994 T03560194 57008 IEM_DS3505
ZGNN,1997-08-19 10:00,ZGNN 191000Z AUTO 34006KT 6SM 34/20 A2956 RMK SLP995 T03400200 IEM_DS3505
ZGNN,1997-08-19 11:00,ZGNN 191100Z AUTO 33004KT 6SM 32/21 A2959 RMK SLP005 T03200210 IEM_DS3505
ZGNN,1997-08-19 12:00,ZGNN 191200Z AUTO 00000KT 12SM 32/21 A2962 RMK SLP012 T03180212 52017 IEM_DS3505
ZGNN,1997-08-19 13:00,ZGNN 191300Z AUTO 35004KT 6SM 27/24 A2965 RMK SLP027 T02700240 IEM_DS3505
ZGNN,1997-08-19 14:00,ZGNN 191400Z AUTO 35004KT 6SM 26/24 A2968 RMK SLP037 T02600240 IEM_DS3505
ZGNN,1997-08-19 15:00,ZGNN 191500Z AUTO 00000KT 10SM 29/23 A2968 RMK SLP036 T02870234 52024 IEM_DS3505
ZGNN,1997-08-19 16:00,ZGNN 191600Z AUTO 00000KT 6SM 25/23 A2971 RMK SLP047 T02500230 IEM_DS3505
ZGNN,1997-08-19 18:00,ZGNN 191800Z AUTO 00000KT 9SM 27/23 A2968 RMK SLP036 T02710232 54000 IEM_DS3505
ZGNN,1997-08-19 21:00,ZGNN 192100Z AUTO 00000KT 8SM 26/23 A2968 RMK SLP038 T02580226 52002 IEM_DS3505
ZGNN,1997-08-19 22:00,ZGNN 192200Z AUTO 22004KT 4SM 24/22 A2971 RMK SLP048 T02400220 IEM_DS3505
ZGNN,1997-08-19 23:00,ZGNN 192300Z AUTO 22002KT 3SM 24/23 A2971 RMK SLP048 T02400230 IEM_DS3505
ZGNN,1997-08-20 00:00,ZGNN 200000Z AUTO 27004KT 7SM 27/22 A2971 RMK SLP050 T02690219 52012 IEM_DS3505
ZGNN,1997-08-20 01:00,ZGNN 200100Z AUTO 33004KT 6SM 28/23 A2974 RMK SLP057 T02800230 IEM_DS3505
ZGNN,1997-08-20 02:00,ZGNN 200200Z AUTO 34006KT 6SM 30/20 A2974 RMK SLP056 T03000200 IEM_DS3505
ZGNN,1997-08-20 03:00,ZGNN 200300Z AUTO 34004KT 12SM 33/21 A2974 RMK SLP053 T03270206 52003 IEM_DS3505
ZGNN,1997-08-20 04:00,ZGNN 200400Z AUTO 35012KT 6SM 32/21 A2971 RMK SLP045 T03200210 IEM_DS3505
ZGNN,1997-08-20 05:00,ZGNN 200500Z AUTO 03004KT 6SM 33/22 A2968 RMK SLP035 T03300220 IEM_DS3505
ZGNN,1997-08-20 06:00,ZGNN 200600Z AUTO 02006KT 19SM 35/20 A2968 RMK SLP033 T03520203 57020 IEM_DS3505
ZGNN,1997-08-20 07:00,ZGNN 200700Z AUTO 35008KT 6SM 35/18 A2965 RMK SLP025 T03500180 IEM_DS3505
ZGNN,1997-08-20 08:00,ZGNN 200800Z AUTO 33006KT 6SM 35/18 A2962 RMK SLP014 T03500180 IEM_DS3505
ZGNN,1997-08-20 09:00,ZGNN 200900Z AUTO 04006KT 19SM 36/18 A2962 RMK SLP015 T03620179 57018 IEM_DS3505
ZGNN,1997-08-20 10:00,ZGNN 201000Z AUTO 34006KT 6SM 35/20 A2962 RMK SLP014 T03500200 IEM_DS3505
ZGNN,1997-08-20 11:00,ZGNN 201100Z AUTO 00000KT 6SM 32/23 A2962 RMK SLP015 T03200230 IEM_DS3505
ZGNN,1997-08-20 12:00,ZGNN 201200Z AUTO 00000KT 12SM 32/22 A2965 RMK SLP026 T03160220 52011 IEM_DS3505
ZGNN,1997-08-20 13:00,ZGNN 201300Z AUTO 35004KT 6SM 28/23 A2968 RMK SLP037 T02800230 IEM_DS3505
ZGNN,1997-08-20 15:00,ZGNN 201500Z AUTO 00000KT 12SM 29/21 A2971 RMK SLP046 T02940206 52020 IEM_DS3505
ZGNN,1997-08-20 18:00,ZGNN 201800Z AUTO 00000KT 11SM 29/21 A2970 RMK SLP043 T02860214 57003 IEM_DS3505
ZGNN,1997-08-20 21:00,ZGNN 202100Z AUTO 00000KT 12SM 27/20 A2968 RMK SLP042 T02740202 57001 IEM_DS3505
ZGNN,1997-08-20 22:00,ZGNN 202200Z AUTO 00000KT 6SM 25/21 A2971 RMK SLP047 T02500210 IEM_DS3505
ZGNN,1997-08-20 23:00,ZGNN 202300Z AUTO 00000KT 6SM 26/21 A2971 RMK SLP047 T02600210 IEM_DS3505
ZGNN,1997-08-21 00:00,ZGNN 210000Z AUTO 02002KT 7SM 29/21 A2971 RMK SLP049 T02870211 52007 IEM_DS3505
ZGNN,1997-08-21 01:00,ZGNN 210100Z AUTO 36004KT 6SM 29/21 A2974 RMK SLP056 T02900210 IEM_DS3505
ZGNN,1997-08-21 02:00,ZGNN 210200Z AUTO 03008KT 6SM 30/21 A2974 RMK SLP056 T03000210 IEM_DS3505
ZGNN,1997-08-21 03:00,ZGNN 210300Z AUTO 04008KT 9SM 32/20 A2974 RMK SLP048 T03250203 57001 IEM_DS3505
ZGNN,1997-08-21 04:00,ZGNN 210400Z AUTO 03008KT 6SM 32/19 A2971 RMK SLP045 T03200190 IEM_DS3505
ZGNN,1997-08-21 05:00,ZGNN 210500Z AUTO 01010KT 6SM 32/20 A2971 RMK SLP045 T03200200 IEM_DS3505
ZGNN,1997-08-21 06:00,ZGNN 210600Z AUTO 34006KT 12SM 33/20 A2968 RMK SLP036 T03260199 57012 IEM_DS3505
ZGNN,1997-08-21 07:00,ZGNN 210700Z AUTO 01008KT 7SM 32/20 A2968 RMK SLP035 T03200200 IEM_DS3505
ZGNN,1997-08-21 08:00,ZGNN 210800Z AUTO 01008KT 7SM 32/20 A2965 RMK SLP025 T03200200 IEM_DS3505
ZGNN,1997-08-21 09:00,ZGNN 210900Z AUTO 34006KT 14SM 32/20 A2965 RMK SLP019 T03250204 57017 IEM_DS3505
ZGNN,1997-08-21 10:00,ZGNN 211000Z AUTO 02006KT 7SM 31/20 A2962 RMK SLP016 T03100200 IEM_DS3505
ZGNN,1997-08-21 11:00,ZGNN 211100Z AUTO 36006KT 6SM 30/20 A2962 RMK SLP016 T03000200 IEM_DS3505
ZGNN,1997-08-21 12:00,ZGNN 211200Z AUTO 04004KT 16SM 31/21 A2965 RMK SLP024 T03070211 52005 IEM_DS3505
ZGNN,1997-08-21 13:00,ZGNN 211300Z AUTO 02004KT 6SM 28/23 A2965 RMK SLP026 T02800230 IEM_DS3505
ZGNN,1997-08-21 15:00,ZGNN 211500Z AUTO 32002KT 16SM 30/20 A2967 RMK SLP032 T03010201 52008 IEM_DS3505
ZGNN,1997-08-21 18:00,ZGNN 211800Z AUTO 02004KT 14SM 29/20 A2963 RMK SLP020 T02930196 57012 IEM_DS3505
ZGNN,1997-08-21 21:00,ZGNN 212100Z AUTO 00000KT 12SM 29/20 A2959 RMK SLP012 T02910203 57008 IEM_DS3505
ZGNN,1997-08-21 22:00,ZGNN 212200Z AUTO 33006KT 6SM 27/20 A2962 RMK SLP017 T02700200 IEM_DS3505
ZGNN,1997-08-21 23:00,ZGNN 212300Z AUTO 34008KT 6SM 27/20 A2962 RMK SLP017 T02700200 IEM_DS3505
ZGNN,1997-08-22 00:00,ZGNN 220000Z AUTO 02004KT 14SM 29/20 A2962 RMK SLP013 T02880203 52001 IEM_DS3505
ZGNN,1997-08-22 01:00,ZGNN 220100Z AUTO 34006KT 6SM 28/21 A2962 RMK SLP016 T02800210 IEM_DS3505
ZGNN,1997-08-22 02:00,ZGNN 220200Z AUTO 34006KT 6SM 28/20 A2962 RMK SLP016 T02800200 IEM_DS3505
ZGNN,1997-08-22 03:00,ZGNN 220300Z AUTO 02006KT 14SM 30/21 A2959 RMK SLP007 T03010211 57006 IEM_DS3505
ZGNN,1997-08-22 04:00,ZGNN 220400Z AUTO 34014KT 7SM 29/20 A2959 RMK SLP006 T02900200 IEM_DS3505
ZGNN,1997-08-22 05:00,ZGNN 220500Z AUTO 03010KT 7SM 28/21 A2956 RMK SLP996 T02800210 IEM_DS3505
ZGNN,1997-08-22 06:00,ZGNN 220600Z AUTO 04006KT 11SM 29/22 A2956 RMK 60000 SLP994 T02870217 57013 IEM_DS3505
ZGNN,1997-08-22 07:00,ZGNN 220700Z AUTO 34006KT 7SM 25/24 A2953 RMK SLP987 T02500240 IEM_DS3505
ZGNN,1997-08-22 08:00,ZGNN 220800Z AUTO 36010KT 7SM 25/23 A2950 RMK SLP977 T02500230 IEM_DS3505
ZGNN,1997-08-22 09:00,ZGNN 220900Z AUTO 04006KT 9SM 27/22 A2950 RMK SLP982 T02660224 57012 IEM_DS3505
ZGNN,1997-08-22 10:00,ZGNN 221000Z AUTO 35014KT 7SM 25/23 A2950 RMK SLP977 T02500230 IEM_DS3505
ZGNN,1997-08-22 11:00,ZGNN 221100Z AUTO 34010KT 5SM 24/23 A2950 RMK SLP977 T02400230 IEM_DS3505
ZGNN,1997-08-22 12:00,ZGNN 221200Z AUTO 02006KT 9SM 25/23 A2950 RMK 60020 SLP986 T02520230 52004 IEM_DS3505
ZGNN,1997-08-22 13:00,ZGNN 221300Z AUTO 36014KT 5SM 24/23 A2953 RMK SLP987 T02400230 IEM_DS3505
ZGNN,1997-08-22 15:00,ZGNN 221500Z AUTO 04006KT 11SM 26/23 A2956 RMK SLP998 T02590228 52012 IEM_DS3505
ZGNN,1997-08-22 18:00,ZGNN 221800Z AUTO 02008KT 7SM 25/23 A2955 RMK 60039 SLP993 T02470232 57006 IEM_DS3505
ZGNN,1997-08-22 21:00,ZGNN 222100Z AUTO 07006KT 9SM 24/23 A2953 RMK 70098 SLP991 T02450230 57002 IEM_DS3505
ZGNN,1997-08-22 22:00,ZGNN 222200Z AUTO 03008KT 4SM 24/23 A2953 RMK SLP987 T02400230 IEM_DS3505
ZGNN,1997-08-22 23:00,ZGNN 222300Z AUTO 03012KT 7SM 24/23 A2956 RMK SLP997 T02400230 IEM_DS3505
ZGNN,1997-08-23 00:00,ZGNN 230000Z AUTO 07006KT 10SM 25/24 A2959 RMK 60039 70102 SLP008 T02470235 52017 IEM_DS3505
ZGNN,1997-08-23 01:00,ZGNN 230100Z AUTO 03010KT 7SM 25/24 A2959 RMK SLP007 T02500240 IEM_DS3505
ZGNN,1997-08-23 02:00,ZGNN 230200Z AUTO 03012KT 7SM 25/24 A2959 RMK SLP007 T02500240 IEM_DS3505
ZGNN,1997-08-23 03:00,ZGNN 230300Z AUTO 09008KT 10SM 26/24 A2959 RMK SLP018 T02630237 52010 IEM_DS3505
ZGNN,1997-08-23 04:00,ZGNN 230400Z AUTO 05008KT 3SM 25/24 A2962 RMK SLP017 T02500240 IEM_DS3505
ZGNN,1997-08-23 05:00,ZGNN 230500Z AUTO 08008KT 7SM 25/24 A2962 RMK SLP017 T02500240 IEM_DS3505
ZGNN,1997-08-23 06:00,ZGNN 230600Z AUTO 04002KT 9SM 25/24 A2962 RMK 60051 SLP019 T02510242 52001 IEM_DS3505
ZGNN,1997-08-23 07:00,ZGNN 230700Z AUTO 11006KT 4SM 25/24 A2962 RMK SLP017 T02500240 IEM_DS3505
ZGNN,1997-08-23 08:00,ZGNN 230800Z AUTO 06006KT 7SM 25/24 A2962 RMK SLP017 T02500240 IEM_DS3505
ZGNN,1997-08-23 09:00,ZGNN 230900Z AUTO 04004KT 10SM 25/24 A2962 RMK SLP017 T02490240 57002 IEM_DS3505
ZGNN,1997-08-23 10:00,ZGNN 231000Z AUTO 03006KT 7SM 25/24 A2962 RMK SLP017 T02500240 IEM_DS3505
ZGNN,1997-08-23 11:00,ZGNN 231100Z AUTO 03006KT 7SM 25/24 A2965 RMK SLP027 T02500240 IEM_DS3505
ZGNN,1997-08-23 12:00,ZGNN 231200Z AUTO 00000KT 11SM 25/24 A2968 RMK 60122 SLP035 T02500243 52018 IEM_DS3505
ZGNN,1997-08-23 13:00,ZGNN 231300Z AUTO 05004KT 7SM 25/24 A2971 RMK SLP047 T02500240 IEM_DS3505
ZGNN,1997-08-23 15:00,ZGNN 231500Z AUTO 09004KT 12SM 26/24 A2973 RMK SLP054 T02560242 52019 IEM_DS3505
ZGNN,1997-08-23 18:00,ZGNN 231800Z AUTO 02002KT 12SM 25/24 A2971 RMK 60004 SLP049 T02490239 57005 IEM_DS3505
ZGNN,1997-08-23 21:00,ZGNN 232100Z AUTO 00000KT 12SM 25/24 A2971 RMK 70181 SLP047 T02500243 54000 IEM_DS3505
ZGNN,1997-08-23 22:00,ZGNN 232200Z AUTO 05002KT 7SM 25/24 A2971 RMK SLP047 T02500240 IEM_DS3505
ZGNN,1997-08-23 23:00,ZGNN 232300Z AUTO 00000KT 5SM 25/24 A2974 RMK SLP058 T02500240 IEM_DS3505
ZGNN,1997-08-24 00:00,ZGNN 240000Z AUTO 04002KT 11SM 26/24 A2974 RMK 70177 SLP058 T02590240 52009 IEM_DS3505
ZGNN,1997-08-24 01:00,ZGNN 240100Z AUTO 08004KT 5SM 26/24 A2977 RMK SLP068 T02600240 IEM_DS3505
ZGNN,1997-08-24 02:00,ZGNN 240200Z AUTO 09008KT 7SM 28/24 A2977 RMK SLP068 T02800240 IEM_DS3505
ZGNN,1997-08-24 03:00,ZGNN 240300Z AUTO 14004KT 16SM 30/26 A2977 RMK SLP070 T03010255 52012 IEM_DS3505
ZGNN,1997-08-24 04:00,ZGNN 240400Z AUTO 12008KT 7SM 29/24 A2977 RMK SLP067 T02900240 IEM_DS3505
ZGNN,1997-08-24 05:00,ZGNN 240500Z AUTO 06006KT 7SM 30/23 A2974 RMK SLP056 T03000230 IEM_DS3505
ZGNN,1997-08-24 06:00,ZGNN 240600Z AUTO 02004KT 19SM 32/24 A2971 RMK SLP050 T03190241 57020 IEM_DS3505
ZGNN,1997-08-24 07:00,ZGNN 240700Z AUTO 34002KT 7SM 31/24 A2971 RMK SLP046 T03100240 IEM_DS3505
ZGNN,1997-08-24 08:00,ZGNN 240800Z AUTO 06006KT 7SM 32/24 A2968 RMK SLP035 T03200240 IEM_DS3505
ZGNN,1997-08-24 09:00,ZGNN 240900Z AUTO 16002KT 19SM 33/23 A2968 RMK SLP032 T03280234 57017 IEM_DS3505
ZGNN,1997-08-24 10:00,ZGNN 241000Z AUTO 06006KT 7SM 31/25 A2968 RMK SLP036 T03100250 IEM_DS3505
ZGNN,1997-08-24 11:00,ZGNN 241100Z AUTO 03004KT 6SM 30/24 A2968 RMK SLP036 T03000240 IEM_DS3505
ZGNN,1997-08-24 12:00,ZGNN 241200Z AUTO 00000KT 19SM 30/24 A2971 RMK SLP051 T03000239 52018 IEM_DS3505
ZGNN,1997-08-24 13:00,ZGNN 241300Z AUTO 36004KT 6SM 27/25 A2974 RMK SLP057 T02700250 IEM_DS3505
ZGNN,1997-08-24 15:00,ZGNN 241500Z AUTO 00000KT 16SM 28/25 A2976 RMK SLP065 T02790254 52014 IEM_DS3505
ZGNN,1997-08-24 18:00,ZGNN 241800Z AUTO 00000KT 16SM 27/26 A2973 RMK SLP052 T02690255 57012 IEM_DS3505
ZGNN,1997-08-24 21:00,ZGNN 242100Z AUTO 00000KT 12SM 26/25 A2974 RMK SLP054 T02620249 52002 IEM_DS3505
ZGNN,1997-08-24 22:00,ZGNN 242200Z AUTO 18004KT 5SM 24/23 A2977 RMK SLP069 T02400230 IEM_DS3505
ZGNN,1997-08-24 23:00,ZGNN 242300Z AUTO 26004KT 7SM 24/24 A2974 RMK SLP058 T02400240 IEM_DS3505
ZGNN,1997-08-25 00:00,ZGNN 250000Z AUTO 00000KT 10SM 26/24 A2977 RMK SLP066 T02610241 52011 IEM_DS3505
ZGNN,1997-08-25 01:00,ZGNN 250100Z AUTO 09004KT 5SM 27/24 A2977 RMK SLP068 T02700240 IEM_DS3505
ZGNN,1997-08-25 02:00,ZGNN 250200Z AUTO 03004KT 7SM 29/24 A2980 RMK SLP078 T02900240 IEM_DS3505
ZGNN,1997-08-25 03:00,ZGNN 250300Z AUTO 09002KT 11SM 28/25 A2980 RMK SLP076 T02780250 52010 IEM_DS3505
ZGNN,1997-08-25 04:00,ZGNN 250400Z AUTO 03004KT 7SM 30/25 A2977 RMK SLP067 T03000250 IEM_DS3505
ZGNN,1997-08-25 05:00,ZGNN 250500Z AUTO 11004KT 7SM 30/25 A2977 RMK SLP067 T03000250 IEM_DS3505
ZGNN,1997-08-25 06:00,ZGNN 250600Z AUTO 04004KT 12SM 29/24 A2974 RMK 60000 SLP058 T02920241 57018 IEM_DS3505
ZGNN,1997-08-25 07:00,ZGNN 250700Z AUTO 34008KT 7SM 29/24 A2971 RMK SLP046 T02900240 IEM_DS3505
ZGNN,1997-08-25 08:00,ZGNN 250800Z AUTO 03006KT 7SM 30/25 A2968 RMK SLP036 T03000250 IEM_DS3505
ZGNN,1997-08-25 09:00,ZGNN 250900Z AUTO 07004KT 12SM 29/25 A2968 RMK SLP038 T02910249 57020 IEM_DS3505
ZGNN,1997-08-25 10:00,ZGNN 251000Z AUTO 02006KT 7SM 29/25 A2968 RMK SLP036 T02900250 IEM_DS3505
ZGNN,1997-08-25 11:00,ZGNN 251100Z AUTO 07004KT 6SM 28/25 A2971 RMK SLP047 T02800250 IEM_DS3505
ZGNN,1997-08-25 12:00,ZGNN 251200Z AUTO 02002KT 11SM 28/25 A2971 RMK SLP044 T02800247 52006 IEM_DS3505
ZGNN,1997-08-25 13:00,ZGNN 251300Z AUTO 00000KT 5SM 27/25 A2974 RMK SLP057 T02700250 IEM_DS3505
ZGNN,1997-08-25 15:00,ZGNN 251500Z AUTO 02002KT 10SM 27/25 A2977 RMK SLP066 T02700249 52022 IEM_DS3505
ZGNN,1997-08-25 18:00,ZGNN 251800Z AUTO 22002KT 9SM 26/25 A2975 RMK SLP060 T02640253 57006 IEM_DS3505
ZGNN,1997-08-25 21:00,ZGNN 252100Z AUTO 00000KT 9SM 26/25 A2974 RMK 70000 SLP055 T02610251 57005 IEM_DS3505
ZGNN,1997-08-25 22:00,ZGNN 252200Z AUTO 03004KT 4SM 25/25 A2974 RMK SLP058 T02500250 IEM_DS3505
ZGNN,1997-08-25 23:00,ZGNN 252300Z AUTO 00000KT 2 1/2SM 25/25 A2977 RMK SLP069 T02500250 IEM_DS3505
ZGNN,1997-08-26 00:00,ZGNN 260000Z AUTO 00000KT 7SM 26/25 A2977 RMK SLP068 T02640250 52013 IEM_DS3505
ZGNN,1997-08-26 01:00,ZGNN 260100Z AUTO 00000KT 2 1/2SM 27/25 A2977 RMK SLP068 T02700250 IEM_DS3505
ZGNN,1997-08-26 02:00,ZGNN 260200Z AUTO 00000KT 5SM 28/25 A2980 RMK SLP078 T02800250 IEM_DS3505
ZGNN,1997-08-26 03:00,ZGNN 260300Z AUTO 07004KT 9SM 29/25 A2983 RMK SLP083 T02880253 52015 IEM_DS3505
ZGNN,1997-08-26 04:00,ZGNN 260400Z AUTO 14004KT 7SM 29/25 A2980 RMK SLP078 T02900250 IEM_DS3505
ZGNN,1997-08-26 05:00,ZGNN 260500Z AUTO 15004KT 7SM 31/24 A2977 RMK SLP067 T03100240 IEM_DS3505
ZGNN,1997-08-26 06:00,ZGNN 260600Z AUTO 11002KT 16SM 31/24 A2974 RMK SLP060 T03130244 57023 IEM_DS3505
ZGNN,1997-08-26 07:00,ZGNN 260700Z AUTO 15006KT 7SM 31/23 A2974 RMK SLP056 T03100230 IEM_DS3505
ZGNN,1997-08-26 09:00,ZGNN 260900Z AUTO 07006KT 19SM 32/23 A2971 RMK SLP048 T03210234 57011 IEM_DS3505
ZGNN,1997-08-26 10:00,ZGNN 261000Z AUTO 05006KT 7SM 31/24 A2971 RMK SLP046 T03100240 IEM_DS3505
ZGNN,1997-08-26 11:00,ZGNN 261100Z AUTO 09006KT 7SM 29/24 A2974 RMK SLP056 T02900240 IEM_DS3505
ZGNN,1997-08-26 12:00,ZGNN 261200Z AUTO 07002KT 19SM 30/24 A2977 RMK SLP065 T02960239 52016 IEM_DS3505
ZGNN,1997-08-26 13:00,ZGNN 261300Z AUTO 00000KT 7SM 28/26 A2980 RMK SLP078 T02800260 IEM_DS3505
ZGNN,1997-08-26 15:00,ZGNN 261500Z AUTO 04002KT 16SM 28/25 A2981 RMK SLP080 T02770252 52015 IEM_DS3505
ZGNN,1997-08-26 18:00,ZGNN 261800Z AUTO 00000KT 16SM 27/25 A2978 RMK SLP070 T02700249 57010 IEM_DS3505
ZGNN,1997-08-26 21:00,ZGNN 262100Z AUTO 00000KT 14SM 27/25 A2977 RMK SLP065 T02670253 57004 IEM_DS3505
ZGNN,1997-08-26 22:00,ZGNN 262200Z AUTO 36004KT 7SM 25/24 A2977 RMK SLP069 T02500240 IEM_DS3505
ZGNN,1997-08-26 23:00,ZGNN 262300Z AUTO 00000KT 2SM 26/24 A2980 RMK SLP078 T02600240 IEM_DS3505
ZGNN,1997-08-27 00:00,ZGNN 270000Z AUTO 00000KT 6SM 26/25 A2980 RMK SLP081 T02610248 52015 IEM_DS3505
ZGNN,1997-08-27 01:00,ZGNN 270100Z AUTO 06004KT 1 1/2SM 26/25 A2983 RMK SLP088 T02600250 IEM_DS3505
ZGNN,1997-08-27 02:00,ZGNN 270200Z AUTO 09008KT 4SM 28/25 A2985 RMK SLP094 T02800250 IEM_DS3505
ZGNN,1997-08-27 03:00,ZGNN 270300Z AUTO 04004KT 11SM 27/24 A2983 RMK SLP097 T02710245 52016 IEM_DS3505
ZGNN,1997-08-27 04:00,ZGNN 270400Z AUTO 07008KT 7SM 29/25 A2983 RMK SLP088 T02900250 IEM_DS3505
ZGNN,1997-08-27 05:00,ZGNN 270500Z AUTO 01002KT 3SM 24/24 A2983 RMK SLP089 T02400240 IEM_DS3505
ZGNN,1997-08-27 06:00,ZGNN 270600Z AUTO 02002KT 12SM 28/25 A2980 RMK 60004 SLP072 T02800246 57025 IEM_DS3505
ZGNN,1997-08-27 07:00,ZGNN 270700Z AUTO 35004KT 6SM 26/24 A2977 RMK SLP068 T02600240 IEM_DS3505
ZGNN,1997-08-27 08:00,ZGNN 270800Z AUTO 36004KT 7SM 26/24 A2974 RMK SLP057 T02600240 IEM_DS3505
ZGNN,1997-08-27 09:00,ZGNN 270900Z AUTO 09004KT 12SM 27/24 A2974 RMK SLP059 T02720236 57013 IEM_DS3505
ZGNN,1997-08-27 10:00,ZGNN 271000Z AUTO 03004KT 6SM 27/24 A2974 RMK SLP057 T02700240 IEM_DS3505
ZGNN,1997-08-27 11:00,ZGNN 271100Z AUTO 08002KT 6SM 27/24 A2977 RMK SLP068 T02700240 IEM_DS3505
ZGNN,1997-08-27 12:00,ZGNN 271200Z AUTO 00000KT 12SM 26/24 A2977 RMK SLP071 T02650245 52012 IEM_DS3505
ZGNN,1997-08-27 13:00,ZGNN 271300Z AUTO 34004KT 6SM 25/24 A2980 RMK SLP079 T02500240 IEM_DS3505
ZGNN,1997-08-27 15:00,ZGNN 271500Z AUTO 00000KT 12SM 26/24 A2981 RMK SLP083 T02570243 52012 IEM_DS3505
ZGNN,1997-08-27 18:00,ZGNN 271800Z AUTO 00000KT 9SM 26/24 A2980 RMK SLP078 T02550245 57005 IEM_DS3505
ZGNN,1997-08-27 21:00,ZGNN 272100Z AUTO 00000KT 9SM 25/24 A2977 RMK 70004 SLP071 T02470238 57007 IEM_DS3505
ZGNN,1997-08-27 22:00,ZGNN 272200Z AUTO 00000KT 3SM 24/24 A2980 RMK SLP079 T02400240 IEM_DS3505
ZGNN,1997-08-27 23:00,ZGNN 272300Z AUTO 00000KT 2 1/2SM 24/24 A2980 RMK SLP079 T02400240 IEM_DS3505
ZGNN,1997-08-28 00:00,ZGNN 280000Z AUTO 04002KT 6SM 25/24 A2980 RMK 70004 SLP082 T02530239 52010 IEM_DS3505
ZGNN,1997-08-28 01:00,ZGNN 280100Z AUTO 00000KT 4SM 26/24 A2983 RMK SLP088 T02600240 IEM_DS3505
ZGNN,1997-08-28 02:00,ZGNN 280200Z AUTO 36002KT 6SM 28/24 A2983 RMK SLP088 T02800240 IEM_DS3505
ZGNN,1997-08-28 03:00,ZGNN 280300Z AUTO 09004KT 9SM 29/24 A2980 RMK SLP081 T02920242 54000 IEM_DS3505
ZGNN,1997-08-28 05:00,ZGNN 280500Z AUTO 11004KT 7SM 31/23 A2977 RMK SLP067 T03100230 IEM_DS3505
ZGNN,1997-08-28 06:00,ZGNN 280600Z AUTO 34004KT 4SM 32/24 A2974 RMK SLP052 T03210237 57028 IEM_DS3505
ZGNN,1997-08-28 07:00,ZGNN 280700Z AUTO 14004KT 7SM 32/22 A2971 RMK SLP045 T03200220 IEM_DS3505
ZGNN,1997-08-28 08:00,ZGNN 280800Z AUTO 30004KT 7SM 33/23 A2968 RMK SLP035 T03300230 IEM_DS3505
ZGNN,1997-08-28 09:00,ZGNN 280900Z AUTO 00000KT 7SM 33/23 A2968 RMK SLP033 T03280226 57019 IEM_DS3505
ZGNN,1997-08-28 10:00,ZGNN 281000Z AUTO 00000KT 7SM 32/23 A2968 RMK SLP035 T03200230 IEM_DS3505
ZGNN,1997-08-28 11:00,ZGNN 281100Z AUTO 00000KT 6SM 30/24 A2968 RMK SLP036 T03000240 IEM_DS3505
ZGNN,1997-08-28 12:00,ZGNN 281200Z AUTO 00000KT 11SM 31/24 A2971 RMK SLP040 T03070236 52006 IEM_DS3505
ZGNN,1997-08-28 13:00,ZGNN 281300Z AUTO 00000KT 6SM 28/26 A2971 RMK SLP047 T02800260 IEM_DS3505
ZGNN,1997-08-28 15:00,ZGNN 281500Z AUTO 00000KT 9SM 29/26 A2975 RMK SLP061 T02870255 52022 IEM_DS3505
ZGNN,1997-08-28 18:00,ZGNN 281800Z AUTO 00000KT 6SM 27/26 A2971 RMK SLP047 T02730256 57014 IEM_DS3505
ZGNN,1997-08-28 21:00,ZGNN 282100Z AUTO 00000KT 6SM 27/26 A2971 RMK SLP040 T02680258 57007 IEM_DS3505
ZGNN,1997-08-28 22:00,ZGNN 282200Z AUTO 00000KT 6SM 25/24 A2971 RMK SLP047 T02500240 IEM_DS3505
ZGNN,1997-08-28 23:00,ZGNN 282300Z AUTO 00000KT 3SM 25/24 A2971 RMK SLP047 T02500240 IEM_DS3505
ZGNN,1997-08-29 00:00,ZGNN 290000Z AUTO 29002KT 4SM 27/25 A2974 RMK SLP050 T02700252 52010 IEM_DS3505
ZGNN,1997-08-29 01:00,ZGNN 290100Z AUTO 08002KT 4SM 28/25 A2974 RMK SLP057 T02800250 IEM_DS3505
ZGNN,1997-08-29 02:00,ZGNN 290200Z AUTO 00000KT 6SM 30/25 A2977 RMK SLP067 T03000250 IEM_DS3505
ZGNN,1997-08-29 03:00,ZGNN 290300Z AUTO 09002KT 8SM 32/25 A2977 RMK SLP059 T03180249 52009 IEM_DS3505
ZGNN,1997-08-29 04:00,ZGNN 290400Z AUTO 25006KT 7SM 32/23 A2974 RMK SLP056 T03200230 IEM_DS3505
ZGNN,1997-08-29 05:00,ZGNN 290500Z AUTO 30004KT 7SM 33/25 A2971 RMK SLP045 T03300250 IEM_DS3505
ZGNN,1997-08-29 06:00,ZGNN 290600Z AUTO 27004KT 5SM 33/24 A2968 RMK SLP035 T03320237 57024 IEM_DS3505
ZGNN,1997-08-29 08:00,ZGNN 290800Z AUTO 14006KT 7SM 34/23 A2965 RMK SLP025 T03400230 IEM_DS3505
ZGNN,1997-08-29 09:00,ZGNN 290900Z AUTO 04002KT 4SM 35/23 A2965 RMK SLP020 T03500230 57015 IEM_DS3505
ZGNN,1997-08-29 10:00,ZGNN 291000Z AUTO 05010KT 7SM 31/25 A2965 RMK SLP026 T03100250 IEM_DS3505
ZGNN,1997-08-29 12:00,ZGNN 291200Z AUTO 00000KT 5SM 31/24 A2968 RMK SLP035 T03090236 52015 IEM_DS3505
ZGNN,1997-08-29 13:00,ZGNN 291300Z AUTO 14004KT 6SM 27/25 A2971 RMK SLP047 T02700250 IEM_DS3505
ZGNN,1997-08-29 15:00,ZGNN 291500Z AUTO 20004KT 5SM 29/25 A2973 RMK SLP052 T02920250 52017 IEM_DS3505
ZGNN,1997-08-29 18:00,ZGNN 291800Z AUTO 25004KT 5SM 28/26 A2972 RMK SLP049 T02810256 57003 IEM_DS3505
ZGNN,1997-08-29 21:00,ZGNN 292100Z AUTO 25002KT 6SM 27/25 A2971 RMK SLP049 T02730249 54000 IEM_DS3505
ZGNN,1997-08-29 22:00,ZGNN 292200Z AUTO 20004KT 4SM 25/24 A2971 RMK SLP047 T02500240 IEM_DS3505
ZGNN,1997-08-29 23:00,ZGNN 292300Z AUTO 00000KT 6SM 25/24 A2974 RMK SLP058 T02500240 IEM_DS3505
ZGNN,1997-08-30 00:00,ZGNN 300000Z AUTO 25004KT 8SM 27/24 A2977 RMK SLP061 T02700244 52012 IEM_DS3505
ZGNN,1997-08-30 01:00,ZGNN 300100Z AUTO 00000KT 6SM 28/24 A2977 RMK SLP068 T02800240 IEM_DS3505
ZGNN,1997-08-30 02:00,ZGNN 300200Z AUTO 02002KT 6SM 29/24 A2980 RMK SLP078 T02900240 IEM_DS3505
ZGNN,1997-08-30 03:00,ZGNN 300300Z AUTO 00000KT 9SM 31/26 A2980 RMK SLP072 T03120255 52011 IEM_DS3505
ZGNN,1997-08-30 04:00,ZGNN 300400Z AUTO 00000KT 32/26 A2977 RMK SLP067 T03200260 IEM_DS3505
ZGNN,1997-08-30 05:00,ZGNN 300500Z AUTO 15004KT 33/25 A2977 RMK SLP066 T03300250 IEM_DS3505
ZGNN,1997-08-30 06:00,ZGNN 300600Z AUTO 34004KT 11SM 34/24 A2974 RMK SLP051 T03430239 57021 IEM_DS3505
ZGNN,1997-08-30 07:00,ZGNN 300700Z AUTO 14004KT 35/24 A2971 RMK SLP045 T03500240 IEM_DS3505
ZGNN,1997-08-30 08:00,ZGNN 300800Z AUTO 00000KT 7SM 35/23 A2968 RMK SLP035 T03500230 IEM_DS3505
ZGNN,1997-08-30 09:00,ZGNN 300900Z AUTO 20004KT 12SM 35/23 A2965 RMK SLP026 T03510233 57025 IEM_DS3505
ZGNN,1997-08-30 10:00,ZGNN 301000Z AUTO 15004KT 7SM 34/24 A2968 RMK SLP035 T03400240 IEM_DS3505
ZGNN,1997-08-30 11:00,ZGNN 301100Z AUTO 15004KT 7SM 32/25 A2968 RMK SLP035 T03200250 IEM_DS3505
ZGNN,1997-08-30 12:00,ZGNN 301200Z AUTO 20002KT 12SM 33/25 A2971 RMK SLP041 T03260246 52015 IEM_DS3505
ZGNN,1997-08-30 13:00,ZGNN 301300Z AUTO 19004KT 6SM 29/25 A2974 RMK SLP056 T02900250 IEM_DS3505
ZGNN,1997-08-30 15:00,ZGNN 301500Z AUTO 20002KT 12SM 30/25 A2976 RMK SLP064 T02990247 52023 IEM_DS3505
ZGNN,1997-08-30 18:00,ZGNN 301800Z AUTO 22002KT 11SM 28/25 A2975 RMK SLP061 T02770246 57003 IEM_DS3505
ZGNN,1997-08-30 21:00,ZGNN 302100Z AUTO 02002KT 9SM 26/25 A2974 RMK SLP058 T02650254 57003 IEM_DS3505
ZGNN,1997-08-30 22:00,ZGNN 302200Z AUTO 00000KT 6SM 25/24 A2977 RMK SLP069 T02500240 IEM_DS3505
ZGNN,1997-08-30 23:00,ZGNN 302300Z AUTO 00000KT 6SM 25/23 A2977 RMK SLP069 T02500230 IEM_DS3505
ZGNN,1997-08-31 00:00,ZGNN 310000Z AUTO 02004KT 16SM 27/25 A2980 RMK SLP070 T02690249 52012 IEM_DS3505
ZGNN,1997-08-31 01:00,ZGNN 310100Z AUTO 00000KT 6SM 28/25 A2980 RMK SLP078 T02800250 IEM_DS3505
ZGNN,1997-08-31 02:00,ZGNN 310200Z AUTO 00000KT 7SM 30/24 A2980 RMK SLP077 T03000240 IEM_DS3505
ZGNN,1997-08-31 03:00,ZGNN 310300Z AUTO 22002KT 17SM 32/25 A2980 RMK SLP075 T03150251 52005 IEM_DS3505
ZGNN,1997-08-31 04:00,ZGNN 310400Z AUTO 18008KT 7SM 32/24 A2980 RMK SLP077 T03200240 IEM_DS3505
ZGNN,1997-08-31 05:00,ZGNN 310500Z AUTO 15004KT 7SM 33/25 A2977 RMK SLP066 T03300250 IEM_DS3505
ZGNN,1997-08-31 06:00,ZGNN 310600Z AUTO 09004KT 19SM 33/24 A2974 RMK SLP057 T03340243 57018 IEM_DS3505
ZGNN,1997-08-31 07:00,ZGNN 310700Z AUTO 12004KT 7SM 33/24 A2974 RMK SLP055 T03300240 IEM_DS3505
ZGNN,1997-08-31 08:00,ZGNN 310800Z AUTO 16006KT 7SM 32/25 A2971 RMK SLP045 T03200250 IEM_DS3505
ZGNN,1997-08-31 09:00,ZGNN 310900Z AUTO 25002KT 19SM 34/25 A2971 RMK SLP037 T03390250 57020 IEM_DS3505
ZGNN,1997-08-31 10:00,ZGNN 311000Z AUTO 21006KT 7SM 29/26 A2971 RMK SLP046 T02900260 IEM_DS3505
ZGNN,1997-08-31 11:00,ZGNN 311100Z AUTO 23004KT 7SM 29/26 A2971 RMK SLP046 T02900260 IEM_DS3505
ZGNN,1997-08-31 12:00,ZGNN 311200Z AUTO 16002KT 16SM 30/25 A2974 RMK SLP053 T03040246 52015 IEM_DS3505
ZGNN,1997-08-31 13:00,ZGNN 311300Z AUTO 16004KT 7SM 28/26 A2977 RMK SLP068 T02800260 IEM_DS3505
ZGNN,1997-08-31 14:00,ZGNN 311400Z AUTO 17004KT 7SM 27/25 A2977 RMK SLP068 T02700250 IEM_DS3505
ZGNN,1997-08-31 15:00,ZGNN 311500Z AUTO 20004KT 16SM 28/25 A2980 RMK SLP075 T02850253 52023 IEM_DS3505
ZGNN,1997-08-31 18:00,ZGNN 311800Z AUTO 00000KT 12SM 28/25 A2977 RMK SLP066 T02760252 57009 IEM_DS3505
ZGNN,1997-08-31 21:00,ZGNN 312100Z AUTO 00000KT 11SM 27/26 A2974 RMK SLP054 T02700256 57012 IEM_DS3505
ZGNN,1997-08-31 22:00,ZGNN 312200Z AUTO 00000KT 7SM 26/25 A2974 RMK SLP057 T02600250 IEM_DS3505
ZGNN,1997-08-31 23:00,ZGNN 312300Z AUTO 03004KT 7SM 26/25 A2977 RMK SLP068 T02600250 IEM_DS3505
ZGNN,1997-09-01 00:00,ZGNN 010000Z AUTO 07002KT 10SM 27/26 A2980 RMK SLP072 T02730256 52017 IEM_DS3505
ZGNN,1997-09-01 01:00,ZGNN 010100Z AUTO 00000KT 7SM 28/26 A2980 RMK SLP078 T02800260 IEM_DS3505
ZGNN,1997-09-01 02:00,ZGNN 010200Z AUTO 02004KT 7SM 29/26 A2980 RMK SLP078 T02900260 IEM_DS3505
ZGNN,1997-09-01 03:00,ZGNN 010300Z AUTO 14002KT 12SM 31/25 A2980 RMK SLP075 T03110248 52004 IEM_DS3505
ZGNN,1997-09-01 04:00,ZGNN 010400Z AUTO 17006KT 7SM 32/25 A2980 RMK SLP077 T03200250 IEM_DS3505
ZGNN,1997-09-01 05:00,ZGNN 010500Z AUTO 14006KT 7SM 32/24 A2977 RMK SLP067 T03200240 IEM_DS3505
ZGNN,1997-09-01 06:00,ZGNN 010600Z AUTO 07006KT 19SM 33/24 A2974 RMK SLP055 T03260238 57020 IEM_DS3505
ZGNN,1997-09-01 07:00,ZGNN 010700Z AUTO 12008KT 7SM 31/25 A2971 RMK SLP046 T03100250 IEM_DS3505
ZGNN,1997-09-01 08:00,ZGNN 010800Z AUTO 14008KT 7SM 32/25 A2968 RMK SLP035 T03200250 IEM_DS3505
ZGNN,1997-09-01 09:00,ZGNN 010900Z AUTO 20004KT 19SM 33/24 A2968 RMK SLP032 T03310244 57023 IEM_DS3505
ZGNN,1997-09-01 10:00,ZGNN 011000Z AUTO 13008KT 6SM 30/25 A2965 RMK SLP026 T03000250 IEM_DS3505
ZGNN,1997-09-01 11:00,ZGNN 011100Z AUTO 14006KT 7SM 29/25 A2968 RMK SLP036 T02900250 IEM_DS3505
ZGNN,1997-09-01 12:00,ZGNN 011200Z AUTO 29002KT 17SM 29/25 A2971 RMK SLP049 T02910252 52016 IEM_DS3505
ZGNN,1997-09-01 13:00,ZGNN 011300Z AUTO 13004KT 7SM 27/24 A2974 RMK SLP057 T02700240 IEM_DS3505
ZGNN,1997-09-01 15:00,ZGNN 011500Z AUTO 00000KT 16SM 27/24 A2976 RMK SLP065 T02710238 52017 IEM_DS3505
ZGNN,1997-09-01 18:00,ZGNN 011800Z AUTO 20002KT 16SM 27/24 A2976 RMK SLP062 T02660240 57003 IEM_DS3505
ZGNN,1997-09-01 21:00,ZGNN 012100Z AUTO 00000KT 16SM 26/24 A2974 RMK SLP057 T02560239 57005 IEM_DS3505
ZGNN,1997-09-01 22:00,ZGNN 012200Z AUTO 00000KT 7SM 25/24 A2974 RMK SLP058 T02500240 IEM_DS3505
ZGNN,1997-09-01 23:00,ZGNN 012300Z AUTO 00000KT 7SM 25/24 A2974 RMK SLP058 T02500240 IEM_DS3505
ZGNN,1997-09-02 00:00,ZGNN 020000Z AUTO 07004KT 17SM 26/24 A2977 RMK SLP068 T02650245 52010 IEM_DS3505
ZGNN,1997-09-02 01:00,ZGNN 020100Z AUTO 16004KT 7SM 28/25 A2980 RMK SLP078 T02800250 IEM_DS3505
ZGNN,1997-09-02 02:00,ZGNN 020200Z AUTO 12004KT 7SM 30/25 A2980 RMK SLP077 T03000250 IEM_DS3505
ZGNN,1997-09-02 03:00,ZGNN 020300Z AUTO 20006KT 19SM 31/25 A2980 RMK SLP074 T03100247 52006 IEM_DS3505
ZGNN,1997-09-02 04:00,ZGNN 020400Z AUTO 00000KT 7SM 32/24 A2977 RMK SLP067 T03200240 IEM_DS3505
ZGNN,1997-09-02 05:00,ZGNN 020500Z AUTO 13006KT 7SM 33/24 A2974 RMK SLP055 T03300240 IEM_DS3505
ZGNN,1997-09-02 06:00,ZGNN 020600Z AUTO 20006KT 19SM 32/24 A2971 RMK SLP046 T03240239 57027 IEM_DS3505
ZGNN,1997-09-02 07:00,ZGNN 020700Z AUTO 12006KT 7SM 33/24 A2968 RMK SLP035 T03300240 IEM_DS3505
ZGNN,1997-09-02 08:00,ZGNN 020800Z AUTO 17016KT 7SM 31/25 A2968 RMK SLP036 T03100250 IEM_DS3505
ZGNN,1997-09-02 09:00,ZGNN 020900Z AUTO 20006KT 19SM 31/24 A2968 RMK SLP037 T03070242 57010 IEM_DS3505
ZGNN,1997-09-02 10:00,ZGNN 021000Z AUTO 25004KT 7SM 29/26 A2971 RMK SLP046 T02900260 IEM_DS3505
ZGNN,1997-09-02 11:00,ZGNN 021100Z AUTO 31002KT 7SM 28/25 A2974 RMK SLP057 T02800250 IEM_DS3505
ZGNN,1997-09-02 12:00,ZGNN 021200Z AUTO 07006KT 19SM 28/25 A2974 RMK SLP066 T02830254 52029 IEM_DS3505
ZGNN,1997-09-02 13:00,ZGNN 021300Z AUTO 34004KT 7SM 27/25 A2980 RMK SLP078 T02700250 IEM_DS3505
ZGNN,1997-09-02 14:00,ZGNN 021400Z AUTO 06006KT 3SM 26/25 A2983 RMK SLP088 T02600250 IEM_DS3505
ZGNN,1997-09-02 15:00,ZGNN 021500Z AUTO 00000KT 9SM 25/23 A2985 RMK SLP094 T02500231 52028 IEM_DS3505
ZGNN,1997-09-02 18:00,ZGNN 021800Z AUTO 00000KT 9SM 25/23 A2979 RMK 60016 SLP075 T02530233 57019 IEM_DS3505
ZGNN,1997-09-02 21:00,ZGNN 022100Z AUTO 00000KT 9SM 25/24 A2977 RMK 70016 SLP074 T02540241 57001 IEM_DS3505
ZGNN,1997-09-02 22:00,ZGNN 022200Z AUTO 19002KT 1 1/2SM 24/24 A2980 RMK SLP079 T02400240 IEM_DS3505
ZGNN,1997-09-02 23:00,ZGNN 022300Z AUTO 00000KT 2SM 24/24 A2980 RMK SLP079 T02400240 IEM_DS3505
ZGNN,1997-09-03 00:00,ZGNN 030000Z AUTO 00000KT 7SM 26/24 A2980 RMK 70016 SLP078 T02610245 52004 IEM_DS3505
ZGNN,1997-09-03 01:00,ZGNN 030100Z AUTO 10002KT 4SM 27/24 A2983 RMK SLP088 T02700240 IEM_DS3505
ZGNN,1997-09-03 02:00,ZGNN 030200Z AUTO 00000KT 5SM 28/24 A2985 RMK SLP094 T02800240 IEM_DS3505
ZGNN,1997-09-03 03:00,ZGNN 030300Z AUTO 18004KT 11SM 30/24 A2985 RMK SLP093 T02990239 52015 IEM_DS3505
ZGNN,1997-09-03 04:00,ZGNN 030400Z AUTO 07008KT 7SM 30/23 A2985 RMK SLP093 T03000230 IEM_DS3505
ZGNN,1997-09-03 05:00,ZGNN 030500Z AUTO 08006KT 7SM 30/23 A2983 RMK SLP087 T03000230 IEM_DS3505
ZGNN,1997-09-03 06:00,ZGNN 030600Z AUTO 04004KT 12SM 31/23 A2980 RMK SLP075 T03140228 57018 IEM_DS3505
ZGNN,1997-09-03 07:00,ZGNN 030700Z AUTO 06004KT 7SM 31/23 A2977 RMK SLP067 T03100230 IEM_DS3505
ZGNN,1997-09-03 08:00,ZGNN 030800Z AUTO 35010KT 7SM 28/24 A2977 RMK SLP068 T02800240 IEM_DS3505
ZGNN,1997-09-03 09:00,ZGNN 030900Z AUTO 34002KT 16SM 30/22 A2977 RMK SLP064 T03030221 57011 IEM_DS3505
ZGNN,1997-09-03 10:00,ZGNN 031000Z AUTO 36004KT 7SM 28/23 A2977 RMK SLP068 T02800230 IEM_DS3505
ZGNN,1997-09-03 11:00,ZGNN 031100Z AUTO 35004KT 7SM 27/24 A2977 RMK SLP068 T02700240 IEM_DS3505
ZGNN,1997-09-03 12:00,ZGNN 031200Z AUTO 07002KT 12SM 28/21 A2980 RMK SLP076 T02840213 52012 IEM_DS3505
ZGNN,1997-09-03 13:00,ZGNN 031300Z AUTO 11006KT 7SM 26/23 A2983 RMK SLP088 T02600230 IEM_DS3505
ZGNN,1997-09-03 15:00,ZGNN 031500Z AUTO 00000KT 12SM 28/22 A2985 RMK SLP096 T02790220 52020 IEM_DS3505
ZGNN,1997-09-03 18:00,ZGNN 031800Z AUTO 00000KT 12SM 27/19 A2984 RMK SLP092 T02670187 57004 IEM_DS3505
ZGNN,1997-09-03 21:00,ZGNN 032100Z AUTO 00000KT 9SM 25/19 A2983 RMK SLP086 T02510187 57006 IEM_DS3505
ZGNN,1997-09-03 22:00,ZGNN 032200Z AUTO 35006KT 6SM 23/21 A2983 RMK SLP089 T02300210 IEM_DS3505
ZGNN,1997-09-03 23:00,ZGNN 032300Z AUTO 36004KT 6SM 24/22 A2985 RMK SLP095 T02400220 IEM_DS3505
ZGNN,1997-09-04 00:00,ZGNN 040000Z AUTO 04002KT 11SM 25/20 A2985 RMK SLP098 T02490205 52012 IEM_DS3505
ZGNN,1997-09-04 01:00,ZGNN 040100Z AUTO 03004KT 6SM 26/21 A2985 RMK SLP095 T02600210 IEM_DS3505
ZGNN,1997-09-04 02:00,ZGNN 040200Z AUTO 06006KT 6SM 28/19 A2988 RMK SLP105 T02800190 IEM_DS3505
ZGNN,1997-09-04 03:00,ZGNN 040300Z AUTO 04004KT 11SM 30/19 A2988 RMK SLP101 T02960189 52003 IEM_DS3505
ZGNN,1997-09-04 04:00,ZGNN 040400Z AUTO 00000KT 6SM 30/21 A2985 RMK SLP093 T03000210 IEM_DS3505
ZGNN,1997-09-04 05:00,ZGNN 040500Z AUTO 01006KT 6SM 31/21 A2983 RMK SLP087 T03100210 IEM_DS3505
ZGNN,1997-09-04 06:00,ZGNN 040600Z AUTO 02004KT 12SM 32/21 A2983 RMK SLP083 T03160208 57018 IEM_DS3505
ZGNN,1997-09-04 07:00,ZGNN 040700Z AUTO 00000KT 7SM 31/19 A2980 RMK SLP077 T03100190 IEM_DS3505
ZGNN,1997-09-04 08:00,ZGNN 040800Z AUTO 34006KT 7SM 31/21 A2977 RMK SLP067 T03100210 IEM_DS3505
ZGNN,1997-09-04 09:00,ZGNN 040900Z AUTO 34004KT 16SM 32/21 A2977 RMK SLP067 T03220210 57016 IEM_DS3505
ZGNN,1997-09-04 10:00,ZGNN 041000Z AUTO 32004KT 6SM 30/22 A2977 RMK SLP067 T03000220 IEM_DS3505
ZGNN,1997-09-04 11:00,ZGNN 041100Z AUTO 00000KT 6SM 29/23 A2980 RMK SLP078 T02900230 IEM_DS3505
ZGNN,1997-09-04 12:00,ZGNN 041200Z AUTO 01004KT 5SM 27/24 A2980 RMK SLP078 T02700240 IEM_DS3505
ZGNN,1997-09-04 13:00,ZGNN 041300Z AUTO 36004KT 5SM 27/24 A2983 RMK SLP088 T02700240 IEM_DS3505
ZGNN,1997-09-04 15:00,ZGNN 041500Z AUTO 11002KT 8SM 28/22 A2982 RMK SLP085 T02850222 52008 IEM_DS3505
ZGNN,1997-09-04 18:00,ZGNN 041800Z AUTO 00000KT 8SM 27/25 A2980 RMK SLP078 T02680247 57007 IEM_DS3505
ZGNN,1997-09-04 21:00,ZGNN 042100Z AUTO 00000KT 7SM 26/24 A2980 RMK SLP077 T02610239 57001 IEM_DS3505
ZGNN,1997-09-04 22:00,ZGNN 042200Z AUTO 00000KT 4SM 24/24 A2983 RMK SLP089 T02400240 IEM_DS3505
ZGNN,1997-09-04 23:00,ZGNN 042300Z AUTO 00000KT 2 1/2SM 25/23 A2983 RMK SLP089 T02500230 IEM_DS3505
ZGNN,1997-09-05 00:00,ZGNN 050000Z AUTO 02004KT 4SM 26/24 A2983 RMK SLP090 T02630240 52013 IEM_DS3505
ZGNN,1997-09-05 01:00,ZGNN 050100Z AUTO 00000KT 2 1/2SM 26/24 A2983 RMK SLP088 T02600240 IEM_DS3505
ZGNN,1997-09-05 02:00,ZGNN 050200Z AUTO 00000KT 4SM 29/24 A2983 RMK SLP088 T02900240 IEM_DS3505
ZGNN,1997-09-05 03:00,ZGNN 050300Z AUTO 00000KT 7SM 30/24 A2985 RMK SLP092 T02970237 52002 IEM_DS3505
ZGNN,1997-09-05 04:00,ZGNN 050400Z AUTO 09002KT 7SM 30/24 A2983 RMK SLP087 T03000240 IEM_DS3505
ZGNN,1997-09-05 05:00,ZGNN 050500Z AUTO 07004KT 7SM 31/23 A2980 RMK SLP077 T03100230 IEM_DS3505
ZGNN,1997-09-05 06:00,ZGNN 050600Z AUTO 04006KT 9SM 31/23 A2977 RMK SLP068 T03070226 57024 IEM_DS3505
ZGNN,1997-09-05 07:00,ZGNN 050700Z AUTO 27006KT 7SM 27/23 A2977 RMK SLP068 T02700230 IEM_DS3505
ZGNN,1997-09-05 09:00,ZGNN 050900Z AUTO 25002KT 7SM 28/24 A2977 RMK SLP062 T02750236 57006 IEM_DS3505
ZGNN,1997-09-05 10:00,ZGNN 051000Z AUTO 00000KT 7SM 26/24 A2974 RMK SLP057 T02600240 IEM_DS3505
ZGNN,1997-09-05 11:00,ZGNN 051100Z AUTO 00000KT 6SM 26/24 A2977 RMK SLP068 T02600240 IEM_DS3505
ZGNN,1997-09-05 12:00,ZGNN 051200Z AUTO 25002KT 5SM 28/24 A2977 RMK SLP069 T02760237 52007 IEM_DS3505
ZGNN,1997-09-05 13:00,ZGNN 051300Z AUTO 00000KT 4SM 25/24 A2980 RMK SLP079 T02500240 IEM_DS3505
ZGNN,1997-09-05 15:00,ZGNN 051500Z AUTO 25002KT 5SM 26/24 A2984 RMK SLP091 T02650245 52022 IEM_DS3505
ZGNN,1997-09-05 18:00,ZGNN 051800Z AUTO 27002KT 5SM 26/24 A2980 RMK SLP079 T02590236 57012 IEM_DS3505
ZGNN,1997-09-05 21:00,ZGNN 052100Z AUTO 00000KT 5SM 25/23 A2980 RMK SLP076 T02520232 57003 IEM_DS3505
ZGNN,1997-09-05 22:00,ZGNN 052200Z AUTO 00000KT 3/8SM 23/23 A2980 RMK SLP079 T02300230 IEM_DS3505
ZGNN,1997-09-06 00:00,ZGNN 060000Z AUTO 27004KT 6SM 25/24 A2983 RMK SLP089 T02530236 52013 IEM_DS3505
ZGNN,1997-09-06 01:00,ZGNN 060100Z AUTO 33004KT 5SM 32/23 A2985 RMK SLP071 T03250231 57024 IEM_DS3505
ZGNN,1997-09-06 03:00,ZGNN 060300Z AUTO 29004KT 6SM 29/24 A2985 RMK SLP095 T02910240 52006 IEM_DS3505
ZGNN,1997-09-06 04:00,ZGNN 060400Z AUTO 33004KT 6SM 30/24 A2983 RMK SLP087 T03000240 IEM_DS3505
ZGNN,1997-09-06 05:00,ZGNN 060500Z AUTO 32002KT 6SM 31/22 A2983 RMK SLP087 T03100220 IEM_DS3505
ZGNN,1997-09-06 06:00,ZGNN 060600Z AUTO 20006KT 5SM 32/23 A2980 RMK SLP071 T03250231 57024 IEM_DS3505
ZGNN,1997-09-06 07:00,ZGNN 060700Z AUTO 32002KT 32/22 A2977 RMK SLP067 T03200220 IEM_DS3505
ZGNN,1997-09-06 08:00,ZGNN 060800Z AUTO 09004KT 33/21 A2974 RMK SLP055 T03300210 IEM_DS3505
ZGNN,1997-09-06 09:00,ZGNN 060900Z AUTO 32002KT 7SM 34/20 A2977 RMK SLP061 T03380204 57009 IEM_DS3505
ZGNN,1997-09-06 10:00,ZGNN 061000Z AUTO 36002KT 6SM 32/23 A2977 RMK SLP067 T03200230 IEM_DS3505
ZGNN,1997-09-06 12:00,ZGNN 061200Z AUTO 00000KT 7SM 30/20 A2979 RMK SLP074 T02990203 52012 IEM_DS3505
ZGNN,1997-09-06 15:00,ZGNN 061500Z AUTO 07002KT 6SM 27/23 A2983 RMK SLP089 T02730232 52015 IEM_DS3505
ZGNN,1997-09-06 18:00,ZGNN 061800Z AUTO 00000KT 5SM 25/23 A2983 RMK SLP087 T02510229 57002 IEM_DS3505
ZGNN,1997-09-06 21:00,ZGNN 062100Z AUTO 09004KT 5SM 24/22 A2983 RMK SLP086 T02420221 57001 IEM_DS3505
ZGNN,1997-09-06 22:00,ZGNN 062200Z AUTO 34002KT 1 1/2SM 22/22 A2983 RMK SLP090 T02200220 IEM_DS3505
ZGNN,1997-09-06 23:00,ZGNN 062300Z AUTO 00000KT 1 1/2SM 22/22 A2985 RMK SLP096 T02200220 IEM_DS3505
ZGNN,1997-09-07 00:00,ZGNN 070000Z AUTO 07002KT 4SM 24/21 A2985 RMK SLP099 T02450209 52013 IEM_DS3505
ZGNN,1997-09-07 01:00,ZGNN 070100Z AUTO 16002KT 2SM 26/23 A2988 RMK SLP106 T02600230 IEM_DS3505
ZGNN,1997-09-07 02:00,ZGNN 070200Z AUTO 00000KT 4SM 28/23 A2988 RMK SLP105 T02800230 IEM_DS3505
ZGNN,1997-09-07 03:00,ZGNN 070300Z AUTO 07002KT 4SM 31/20 A2988 RMK SLP108 T03060205 52009 IEM_DS3505
ZGNN,1997-09-07 04:00,ZGNN 070400Z AUTO 33004KT 6SM 31/22 A2988 RMK SLP104 T03100220 IEM_DS3505
ZGNN,1997-09-07 05:00,ZGNN 070500Z AUTO 02004KT 6SM 33/21 A2985 RMK SLP093 T03300210 IEM_DS3505
ZGNN,1997-09-07 06:00,ZGNN 070600Z AUTO 34004KT 12SM 34/17 A2983 RMK SLP085 T03430174 57022 IEM_DS3505
ZGNN,1997-09-07 07:00,ZGNN 070700Z AUTO 05004KT 7SM 33/17 A2983 RMK SLP087 T03300170 IEM_DS3505
ZGNN,1997-09-07 08:00,ZGNN 070800Z AUTO 05004KT 7SM 34/19 A2980 RMK SLP076 T03400190 IEM_DS3505
ZGNN,1997-09-07 09:00,ZGNN 070900Z AUTO 09004KT 16SM 34/18 A2980 RMK SLP071 T03450185 57014 IEM_DS3505
ZGNN,1997-09-07 10:00,ZGNN 071000Z AUTO 00000KT 6SM 32/21 A2980 RMK SLP077 T03200210 IEM_DS3505
ZGNN,1997-09-07 11:00,ZGNN 071100Z AUTO 00000KT 7SM 31/21 A2983 RMK SLP087 T03100210 IEM_DS3505
ZGNN,1997-09-07 12:00,ZGNN 071200Z AUTO 00000KT 11SM 30/20 A2983 RMK SLP086 T02990202 52014 IEM_DS3505
ZGNN,1997-09-07 13:00,ZGNN 071300Z AUTO 34004KT 6SM 26/24 A2985 RMK SLP095 T02600240 IEM_DS3505
ZGNN,1997-09-07 15:00,ZGNN 071500Z AUTO 04004KT 6SM 27/21 A2988 RMK SLP104 T02740210 52018 IEM_DS3505
ZGNN,1997-09-07 18:00,ZGNN 071800Z AUTO 02004KT 6SM 26/22 A2987 RMK SLP099 T02600223 57004 IEM_DS3505
ZGNN,1997-09-07 21:00,ZGNN 072100Z AUTO 07004KT 6SM 25/23 A2988 RMK SLP105 T02470226 52005 IEM_DS3505
ZGNN,1997-09-07 22:00,ZGNN 072200Z AUTO 00000KT 2SM 24/24 A2988 RMK SLP106 T02400240 IEM_DS3505
ZGNN,1997-09-08 00:00,ZGNN 080000Z AUTO 07002KT 4SM 24/22 A2988 RMK SLP112 T02450223 52007 IEM_DS3505
ZGNN,1997-09-08 01:00,ZGNN 080100Z AUTO 07002KT 2 1/2SM 24/22 A2991 RMK SLP112 T02450223 52010 IEM_DS3505
ZGNN,1997-09-08 02:00,ZGNN 080200Z AUTO 03004KT 6SM 26/23 A2991 RMK SLP116 T02600230 IEM_DS3505
ZGNN,1997-09-08 03:00,ZGNN 080300Z AUTO 16002KT 7SM 30/23 A2994 RMK SLP120 T02990228 52008 IEM_DS3505
ZGNN,1997-09-08 04:00,ZGNN 080400Z AUTO 11006KT 4SM 26/24 A2991 RMK SLP116 T02600240 IEM_DS3505
ZGNN,1997-09-08 05:00,ZGNN 080500Z AUTO 00000KT 7SM 27/24 A2991 RMK SLP115 T02700240 IEM_DS3505
ZGNN,1997-09-08 06:00,ZGNN 080600Z AUTO 09002KT 9SM 29/24 A2988 RMK SLP101 T02900240 57019 IEM_DS3505
ZGNN,1997-09-08 07:00,ZGNN 080700Z AUTO 13008KT 7SM 30/24 A2985 RMK SLP093 T03000240 IEM_DS3505
ZGNN,1997-09-08 08:00,ZGNN 080800Z AUTO 16008KT 7SM 25/23 A2985 RMK SLP095 T02500230 IEM_DS3505
ZGNN,1997-09-08 09:00,ZGNN 080900Z AUTO 07004KT 6SM 25/23 A2985 RMK SLP108 T02530231 52006 IEM_DS3505
ZGNN,1997-09-08 10:00,ZGNN 081000Z AUTO 03004KT 2 1/2SM 25/23 A2988 RMK SLP106 T02500230 IEM_DS3505
ZGNN,1997-09-08 11:00,ZGNN 081100Z AUTO 00000KT 3SM 25/23 A2988 RMK SLP106 T02500230 IEM_DS3505
ZGNN,1997-09-08 12:00,ZGNN 081200Z AUTO 09004KT 9SM 25/24 A2988 RMK 60004 SLP107 T02530236 57001 IEM_DS3505
ZGNN,1997-09-08 13:00,ZGNN 081300Z AUTO 00000KT 4SM 24/24 A2988 RMK SLP106 T02400240 IEM_DS3505
ZGNN,1997-09-08 15:00,ZGNN 081500Z AUTO 04002KT 9SM 25/24 A2991 RMK SLP117 T02470235 52011 IEM_DS3505
ZGNN,1997-09-08 18:00,ZGNN 081800Z AUTO 36002KT 5SM 25/24 A2989 RMK SLP107 T02460236 57010 IEM_DS3505
ZGNN,1997-09-08 21:00,ZGNN 082100Z AUTO 29002KT 5SM 25/23 A2988 RMK 70004 SLP104 T02480230 57004 IEM_DS3505
ZGNN,1997-09-08 23:00,ZGNN 082300Z AUTO 00000KT 4SM 24/23 A2988 RMK SLP106 T02400230 IEM_DS3505
ZGNN,1997-09-09 00:00,ZGNN 090000Z AUTO 00000KT 4SM 25/23 A2991 RMK 70004 SLP117 T02510228 52013 IEM_DS3505
ZGNN,1997-09-09 01:00,ZGNN 090100Z AUTO 00000KT 4SM 25/23 A2991 RMK SLP116 T02500230 IEM_DS3505
ZGNN,1997-09-09 02:00,ZGNN 090200Z AUTO 02004KT 5SM 27/24 A2991 RMK SLP115 T02700240 IEM_DS3505
ZGNN,1997-09-09 03:00,ZGNN 090300Z AUTO 22004KT 5SM 28/23 A2994 RMK SLP122 T02780233 52005 IEM_DS3505
ZGNN,1997-09-09 04:00,ZGNN 090400Z AUTO 11004KT 7SM 28/23 A2991 RMK SLP115 T02800230 IEM_DS3505
ZGNN,1997-09-09 09:00,ZGNN 090900Z AUTO 04004KT 16SM 28/24 A2983 RMK SLP086 T02830239 57012 IEM_DS3505
ZGNN,1997-09-09 10:00,ZGNN 091000Z AUTO 14006KT 7SM 28/23 A2983 RMK SLP088 T02800230 IEM_DS3505
ZGNN,1997-09-09 11:00,ZGNN 091100Z AUTO 13004KT 6SM 26/23 A2985 RMK SLP095 T02600230 IEM_DS3505
ZGNN,1997-09-09 12:00,ZGNN 091200Z AUTO 00000KT 16SM 27/23 A2987 RMK SLP101 T02680229 52014 IEM_DS3505
ZGNN,1997-09-09 13:00,ZGNN 091300Z AUTO 09004KT 7SM 25/23 A2988 RMK SLP106 T02500230 IEM_DS3505
ZGNN,1997-09-09 15:00,ZGNN 091500Z AUTO 07002KT 16SM 26/23 A2993 RMK SLP121 T02570234 52020 IEM_DS3505
ZGNN,1997-09-09 18:00,ZGNN 091800Z AUTO 02002KT 6SM 25/24 A2991 RMK SLP116 T02480235 57004 IEM_DS3505
ZGNN,1997-09-09 21:00,ZGNN 092100Z AUTO 02002KT 12SM 24/24 A2988 RMK SLP112 T02450235 57005 IEM_DS3505
ZGNN,1997-09-09 22:00,ZGNN 092200Z AUTO 02002KT 5SM 24/23 A2991 RMK SLP116 T02400230 IEM_DS3505
ZGNN,1997-09-09 23:00,ZGNN 092300Z AUTO 09002KT 4SM 24/23 A2991 RMK SLP116 T02400230 IEM_DS3505
ZGNN,1997-09-10 00:00,ZGNN 100000Z AUTO 07002KT 11SM 26/24 A2994 RMK SLP130 T02560237 52018 IEM_DS3505
ZGNN,1997-09-10 01:00,ZGNN 100100Z AUTO 16004KT 5SM 25/23 A2997 RMK SLP136 T02500230 IEM_DS3505
ZGNN,1997-09-10 02:00,ZGNN 100200Z AUTO 14002KT 7SM 26/24 A2997 RMK SLP136 T02600240 IEM_DS3505
ZGNN,1997-09-10 03:00,ZGNN 100300Z AUTO 00000KT 7SM 27/24 A2997 RMK SLP136 T02700240 IEM_DS3505
ZGNN,1997-09-10 04:00,ZGNN 100400Z AUTO 19004KT 7SM 28/24 A2994 RMK SLP125 T02800240 IEM_DS3505
ZGNN,1997-09-10 05:00,ZGNN 100500Z AUTO 13006KT 7SM 28/24 A2994 RMK SLP125 T02800240 IEM_DS3505
ZGNN,1997-09-10 06:00,ZGNN 100600Z AUTO 20006KT 16SM 29/23 A2988 RMK SLP112 T02870232 57020 IEM_DS3505
ZGNN,1997-09-10 07:00,ZGNN 100700Z AUTO 21002KT 7SM 30/24 A2985 RMK SLP093 T03000240 IEM_DS3505
ZGNN,1997-09-10 08:00,ZGNN 100800Z AUTO 18002KT 7SM 30/22 A2985 RMK SLP093 T03000220 IEM_DS3505
ZGNN,1997-09-10 09:00,ZGNN 100900Z AUTO 00000KT 16SM 30/24 A2983 RMK SLP093 T03030240 57018 IEM_DS3505
ZGNN,1997-09-10 10:00,ZGNN 101000Z AUTO 15010KT 7SM 28/24 A2985 RMK SLP094 T02800240 IEM_DS3505
ZGNN,1997-09-10 11:00,ZGNN 101100Z AUTO 16008KT 7SM 27/24 A2985 RMK SLP094 T02700240 IEM_DS3505
ZGNN,1997-09-10 12:00,ZGNN 101200Z AUTO 18002KT 12SM 26/23 A2988 RMK SLP108 T02650230 52014 IEM_DS3505
ZGNN,1997-09-10 13:00,ZGNN 101300Z AUTO 11002KT 6SM 25/23 A2991 RMK SLP116 T02500230 IEM_DS3505
ZGNN,1997-09-10 15:00,ZGNN 101500Z AUTO 07002KT 12SM 25/23 A2993 RMK SLP122 T02530231 52014 IEM_DS3505
ZGNN,1997-09-10 18:00,ZGNN 101800Z AUTO 07002KT 9SM 25/24 A2992 RMK SLP120 T02540235 57002 IEM_DS3505
ZGNN,1997-09-10 21:00,ZGNN 102100Z AUTO 04002KT 7SM 25/24 A2991 RMK SLP116 T02500240 IEM_DS3505
ZGNN,1997-09-10 22:00,ZGNN 102200Z AUTO 07004KT 7SM 25/23 A2991 RMK SLP116 T02500230 IEM_DS3505
ZGNN,1997-09-10 23:00,ZGNN 102300Z AUTO 07002KT 7SM 25/24 A2991 RMK SLP116 T02500240 IEM_DS3505
ZGNN,1997-09-11 00:00,ZGNN 110000Z AUTO 09004KT 9SM 26/24 A2994 RMK SLP124 T02550239 52008 IEM_DS3505
ZGNN,1997-09-11 01:00,ZGNN 110100Z AUTO 16002KT 7SM 26/24 A2994 RMK SLP126 T02600240 IEM_DS3505
ZGNN,1997-09-11 02:00,ZGNN 110200Z AUTO 25002KT 7SM 26/24 A2997 RMK SLP136 T02600240 IEM_DS3505
ZGNN,1997-09-11 03:00,ZGNN 110300Z AUTO 11002KT 11SM 28/24 A2997 RMK SLP132 T02770241 52008 IEM_DS3505
ZGNN,1997-09-11 04:00,ZGNN 110400Z AUTO 20006KT 7SM 31/23 A2994 RMK SLP124 T03100230 IEM_DS3505
ZGNN,1997-09-11 05:00,ZGNN 110500Z AUTO 35008KT 7SM 31/23 A2991 RMK SLP114 T03100230 IEM_DS3505
ZGNN,1997-09-11 06:00,ZGNN 110600Z AUTO 11004KT 12SM 31/24 A2988 RMK SLP104 T03080240 57027 IEM_DS3505
ZGNN,1997-09-11 07:00,ZGNN 110700Z AUTO 07004KT 7SM 29/23 A2985 RMK SLP094 T02900230 IEM_DS3505
ZGNN,1997-09-11 08:00,ZGNN 110800Z AUTO 09006KT 7SM 30/23 A2983 RMK SLP087 T03000230 IEM_DS3505
ZGNN,1997-09-11 09:00,ZGNN 110900Z AUTO 20002KT 12SM 31/23 A2983 RMK SLP088 T03060233 57016 IEM_DS3505
ZGNN,1997-09-11 10:00,ZGNN 111000Z AUTO 18004KT 7SM 28/23 A2983 RMK SLP088 T02800230 IEM_DS3505
ZGNN,1997-09-11 11:00,ZGNN 111100Z AUTO 15006KT 7SM 26/23 A2985 RMK SLP095 T02600230 IEM_DS3505
ZGNN,1997-09-11 12:00,ZGNN 111200Z AUTO 18004KT 12SM 27/23 A2985 RMK SLP102 T02690230 52013 IEM_DS3505
ZGNN,1997-09-11 13:00,ZGNN 111300Z AUTO 15004KT 6SM 25/23 A2988 RMK SLP106 T02500230 IEM_DS3505
ZGNN,1997-09-11 15:00,ZGNN 111500Z AUTO 11002KT 12SM 26/23 A2991 RMK SLP117 T02570232 52015 IEM_DS3505
ZGNN,1997-09-11 18:00,ZGNN 111800Z AUTO 02004KT 11SM 25/23 A2991 RMK SLP114 T02470231 57002 IEM_DS3505
ZGNN,1997-09-11 21:00,ZGNN 112100Z AUTO 04004KT 11SM 24/23 A2988 RMK SLP109 T02430228 57005 IEM_DS3505
ZGNN,1997-09-11 22:00,ZGNN 112200Z AUTO 00000KT 6SM 23/23 A2988 RMK SLP107 T02300230 IEM_DS3505
ZGNN,1997-09-11 23:00,ZGNN 112300Z AUTO 00000KT 2 1/2SM 23/23 A2988 RMK SLP107 T02300230 IEM_DS3505
ZGNN,1997-09-12 00:00,ZGNN 120000Z AUTO 07004KT 2 1/2SM 24/24 A2991 RMK SLP116 T02400240 IEM_DS3505
ZGNN,1997-09-12 01:00,ZGNN 120100Z AUTO 00000KT 7SM 25/24 A2994 RMK SLP126 T02500240 IEM_DS3505
ZGNN,1997-09-12 02:00,ZGNN 120200Z AUTO 20004KT 7SM 27/24 A2994 RMK SLP126 T02700240 IEM_DS3505
ZGNN,1997-09-12 03:00,ZGNN 120300Z AUTO 20002KT 12SM 29/23 A2994 RMK SLP120 T02910233 52002 IEM_DS3505
ZGNN,1997-09-12 04:00,ZGNN 120400Z AUTO 17006KT 7SM 30/23 A2991 RMK SLP115 T03000230 IEM_DS3505
ZGNN,1997-09-12 05:00,ZGNN 120500Z AUTO 00000KT 7SM 31/22 A2988 RMK SLP104 T03100220 IEM_DS3505
ZGNN,1997-09-12 06:00,ZGNN 120600Z AUTO 16002KT 16SM 31/23 A2985 RMK SLP096 T03130233 57024 IEM_DS3505
ZGNN,1997-09-12 07:00,ZGNN 120700Z AUTO 15006KT 7SM 32/23 A2983 RMK SLP087 T03200230 IEM_DS3505
ZGNN,1997-09-12 08:00,ZGNN 120800Z AUTO 16006KT 7SM 32/23 A2980 RMK SLP077 T03200230 IEM_DS3505
ZGNN,1997-09-12 09:00,ZGNN 120900Z AUTO 27002KT 16SM 32/23 A2983 RMK SLP081 T03170234 57015 IEM_DS3505
ZGNN,1997-09-12 10:00,ZGNN 121000Z AUTO 00000KT 7SM 24/23 A2983 RMK SLP089 T02400230 IEM_DS3505
ZGNN,1997-09-12 11:00,ZGNN 121100Z AUTO 00000KT 7SM 25/24 A2983 RMK SLP089 T02500240 IEM_DS3505
ZGNN,1997-09-12 12:00,ZGNN 121200Z AUTO 14002KT 12SM 27/24 A2983 RMK 60012 SLP090 T02690242 52008 IEM_DS3505
ZGNN,1997-09-12 13:00,ZGNN 121300Z AUTO 00000KT 6SM 25/24 A2985 RMK SLP095 T02500240 IEM_DS3505
ZGNN,1997-09-12 14:00,ZGNN 121400Z AUTO 00000KT 6SM 25/24 A2988 RMK SLP106 T02500240 IEM_DS3505
ZGNN,1997-09-12 15:00,ZGNN 121500Z AUTO 09002KT 10SM 26/25 A2988 RMK SLP106 T02640247 52017 IEM_DS3505
ZGNN,1997-09-12 18:00,ZGNN 121800Z AUTO 02002KT 10SM 26/24 A2989 RMK SLP107 T02580245 52001 IEM_DS3505
ZGNN,1997-09-12 21:00,ZGNN 122100Z AUTO 00000KT 26/24 A2988 RMK 70012 SLP109 T02550245 52002 IEM_DS3505
ZGNN,1997-09-12 22:00,ZGNN 122200Z AUTO 00000KT 3/8SM 24/24 A2991 RMK SLP116 T02400240 IEM_DS3505
ZGNN,1997-09-12 23:00,ZGNN 122300Z AUTO 00000KT 1/4SM 24/24 A2991 RMK SLP116 T02400240 IEM_DS3505
ZGNN,1997-09-13 00:00,ZGNN 130000Z AUTO 09002KT 6SM 26/25 A2994 RMK 70012 SLP129 T02620248 52019 IEM_DS3505
ZGNN,1997-09-13 01:00,ZGNN 130100Z AUTO 16002KT 5SM 26/25 A2994 RMK SLP126 T02600250 IEM_DS3505
ZGNN,1997-09-13 02:00,ZGNN 130200Z AUTO 00000KT 7SM 28/25 A2994 RMK SLP125 T02800250 IEM_DS3505
ZGNN,1997-09-13 03:00,ZGNN 130300Z AUTO 25002KT 11SM 30/25 A2994 RMK SLP128 T02990248 54000 IEM_DS3505
ZGNN,1997-09-13 04:00,ZGNN 130400Z AUTO 16004KT 7SM 31/23 A2994 RMK SLP124 T03100230 IEM_DS3505
ZGNN,1997-09-13 05:00,ZGNN 130500Z AUTO 19004KT 7SM 32/23 A2991 RMK SLP114 T03200230 IEM_DS3505
ZGNN,1997-09-13 06:00,ZGNN 130600Z AUTO 22006KT 16SM 33/23 A2988 RMK SLP102 T03330228 57026 IEM_DS3505
ZGNN,1997-09-13 07:00,ZGNN 130700Z AUTO 12004KT 7SM 33/23 A2985 RMK SLP093 T03300230 IEM_DS3505
ZGNN,1997-09-13 08:00,ZGNN 130800Z AUTO 14004KT 7SM 33/23 A2983 RMK SLP087 T03300230 IEM_DS3505
ZGNN,1997-09-13 09:00,ZGNN 130900Z AUTO 00000KT 19SM 34/24 A2983 RMK SLP079 T03350236 57022 IEM_DS3505
ZGNN,1997-09-13 10:00,ZGNN 131000Z AUTO 14006KT 6SM 31/24 A2980 RMK SLP077 T03100240 IEM_DS3505
ZGNN,1997-09-13 11:00,ZGNN 131100Z AUTO 16006KT 6SM 30/24 A2983 RMK SLP087 T03000240 IEM_DS3505
ZGNN,1997-09-13 12:00,ZGNN 131200Z AUTO 11002KT 16SM 31/24 A2983 RMK SLP086 T03060242 52006 IEM_DS3505
ZGNN,1997-09-13 13:00,ZGNN 131300Z AUTO 15002KT 6SM 27/25 A2985 RMK SLP094 T02700250 IEM_DS3505
ZGNN,1997-09-13 15:00,ZGNN 131500Z AUTO 18004KT 12SM 28/25 A2988 RMK SLP106 T02780250 52020 IEM_DS3505
ZGNN,1997-09-13 18:00,ZGNN 131800Z AUTO 02002KT 12SM 26/25 A2988 RMK SLP103 T02650251 57003 IEM_DS3505
ZGNN,1997-09-13 21:00,ZGNN 132100Z AUTO 04002KT 7SM 26/25 A2988 RMK SLP105 T02620248 52002 IEM_DS3505
ZGNN,1997-09-13 22:00,ZGNN 132200Z AUTO 00000KT 3SM 24/24 A2988 RMK SLP106 T02400240 IEM_DS3505
ZGNN,1997-09-13 23:00,ZGNN 132300Z AUTO 00000KT 3/8SM 25/24 A2988 RMK SLP106 T02500240 IEM_DS3505
ZGNN,1997-09-14 00:00,ZGNN 140000Z AUTO 02002KT 6SM 27/24 A2991 RMK SLP116 T02660245 52011 IEM_DS3505
ZGNN,1997-09-14 01:00,ZGNN 140100Z AUTO 14002KT 3SM 27/25 A2994 RMK SLP126 T02700250 IEM_DS3505
ZGNN,1997-09-14 02:00,ZGNN 140200Z AUTO 00000KT 7SM 28/25 A2994 RMK SLP125 T02800250 IEM_DS3505
ZGNN,1997-09-14 03:00,ZGNN 140300Z AUTO 20002KT 9SM 30/25 A2994 RMK SLP124 T02950250 52008 IEM_DS3505
ZGNN,1997-09-14 04:00,ZGNN 140400Z AUTO 15004KT 7SM 32/25 A2991 RMK SLP114 T03200250 IEM_DS3505
ZGNN,1997-09-14 05:00,ZGNN 140500Z AUTO 17004KT 7SM 32/25 A2988 RMK SLP104 T03200250 IEM_DS3505
ZGNN,1997-09-14 06:00,ZGNN 140600Z AUTO 27004KT 19SM 34/24 A2985 RMK SLP090 T03360240 57033 IEM_DS3505
ZGNN,1997-09-14 07:00,ZGNN 140700Z AUTO 11704KT 7SM 33/23 A2983 RMK SLP087 T03300230 IEM_DS3505
ZGNN,1997-09-14 08:00,ZGNN 140800Z AUTO 15006KT 7SM 33/24 A2980 RMK SLP076 T03300240 IEM_DS3505
ZGNN,1997-09-14 09:00,ZGNN 140900Z AUTO 25004KT 19SM 33/23 A2977 RMK SLP066 T03330228 57024 IEM_DS3505
ZGNN,1997-09-14 10:00,ZGNN 141000Z AUTO 13004KT 6SM 32/22 A2977 RMK SLP067 T03200220 IEM_DS3505
ZGNN,1997-09-14 11:00,ZGNN 141100Z AUTO 09002KT 6SM 30/22 A2980 RMK SLP077 T03000220 IEM_DS3505
ZGNN,1997-09-14 12:00,ZGNN 141200Z AUTO 00000KT 19SM 31/22 A2983 RMK SLP083 T03080219 52016 IEM_DS3505
ZGNN,1997-09-14 13:00,ZGNN 141300Z AUTO 35002KT 7SM 27/25 A2985 RMK SLP094 T02700250 IEM_DS3505
ZGNN,1997-09-14 15:00,ZGNN 141500Z AUTO 04002KT 17SM 29/22 A2989 RMK SLP107 T02910224 52024 IEM_DS3505
ZGNN,1997-09-14 18:00,ZGNN 141800Z AUTO 34014KT 16SM 27/24 A2988 RMK SLP103 T02720236 57003 IEM_DS3505
ZGNN,1997-09-14 21:00,ZGNN 142100Z AUTO 00000KT 9SM 25/24 A2985 RMK 70024 SLP102 T02490236 57002 IEM_DS3505
ZGNN,1997-09-14 22:00,ZGNN 142200Z AUTO 01002KT 7SM 25/23 A2985 RMK SLP095 T02500230 IEM_DS3505
ZGNN,1997-09-14 23:00,ZGNN 142300Z AUTO 03004KT 7SM 25/23 A2991 RMK SLP116 T02500230 IEM_DS3505
ZGNN,1997-09-15 00:00,ZGNN 150000Z AUTO 04002KT 7SM 25/24 A2991 RMK 60039 70039 SLP125 T02520236 52023 IEM_DS3505
ZGNN,1997-09-15 01:00,ZGNN 150100Z AUTO 03006KT 7SM 25/23 A2994 RMK SLP126 T02500230 IEM_DS3505
ZGNN,1997-09-15 02:00,ZGNN 150200Z AUTO 07006KT 7SM 26/23 A2997 RMK SLP136 T02600230 IEM_DS3505
ZGNN,1997-09-15 03:00,ZGNN 150300Z AUTO 07004KT 9SM 26/23 A2997 RMK SLP140 T02590233 52014 IEM_DS3505
ZGNN,1997-09-15 04:00,ZGNN 150400Z AUTO 02006KT 7SM 26/23 A2997 RMK SLP136 T02600230 IEM_DS3505
ZGNN,1997-09-15 05:00,ZGNN 150500Z AUTO 04004KT 7SM 28/23 A2994 RMK SLP125 T02800230 IEM_DS3505
ZGNN,1997-09-15 06:00,ZGNN 150600Z AUTO 34004KT 19SM 29/22 A2991 RMK 60000 SLP112 T02930223 57027 IEM_DS3505
ZGNN,1997-09-15 07:00,ZGNN 150700Z AUTO 11004KT 7SM 29/23 A2985 RMK SLP094 T02900230 IEM_DS3505
ZGNN,1997-09-15 08:00,ZGNN 150800Z AUTO 12006KT 7SM 29/23 A2985 RMK SLP094 T02900230 IEM_DS3505
ZGNN,1997-09-15 09:00,ZGNN 150900Z AUTO 04004KT 16SM 31/23 A2983 RMK SLP091 T03070226 57021 IEM_DS3505
ZGNN,1997-09-15 10:00,ZGNN 151000Z AUTO 11006KT 7SM 29/23 A2985 RMK SLP094 T02900230 IEM_DS3505
ZGNN,1997-09-15 11:00,ZGNN 151100Z AUTO 05004KT 7SM 28/23 A2985 RMK SLP094 T02800230 IEM_DS3505
ZGNN,1997-09-15 12:00,ZGNN 151200Z AUTO 04004KT 12SM 27/23 A2985 RMK SLP105 T02710227 52013 IEM_DS3505
ZGNN,1997-09-15 13:00,ZGNN 151300Z AUTO 04006KT 7SM 26/23 A2988 RMK SLP106 T02600230 IEM_DS3505
ZGNN,1997-09-15 15:00,ZGNN 151500Z AUTO 00000KT 11SM 26/23 A2994 RMK SLP124 T02580227 52019 IEM_DS3505
ZGNN,1997-09-15 18:00,ZGNN 151800Z AUTO 00000KT 11SM 26/ A2994 RMK SLP124 52001 IEM_DS3505
ZGNN,1997-09-15 21:00,ZGNN 152100Z AUTO 02002KT 11SM 25/22 A2991 RMK 70016 SLP120 T02520221 57004 IEM_DS3505
ZGNN,1997-09-15 22:00,ZGNN 152200Z AUTO 00000KT 7SM 24/22 A2994 RMK SLP126 T02400220 IEM_DS3505
ZGNN,1997-09-15 23:00,ZGNN 152300Z AUTO 04004KT 7SM 24/22 A2994 RMK SLP126 T02400220 IEM_DS3505
ZGNN,1997-09-16 00:00,ZGNN 160000Z AUTO 00000KT 7SM 24/22 A2997 RMK SLP136 T02400220 IEM_DS3505
ZGNN,1997-09-16 01:00,ZGNN 160100Z AUTO 03006KT 7SM 25/20 A3000 RMK SLP146 T02500200 IEM_DS3505
ZGNN,1997-09-16 02:00,ZGNN 160200Z AUTO 12004KT 7SM 27/17 A3000 RMK SLP146 T02700170 IEM_DS3505
ZGNN,1997-09-16 03:00,ZGNN 160300Z AUTO 11004KT 9SM 27/20 A3000 RMK SLP152 T02720201 52013 IEM_DS3505
ZGNN,1997-09-16 04:00,ZGNN 160400Z AUTO 05008KT 7SM 27/20 A3000 RMK SLP146 T02700200 IEM_DS3505
ZGNN,1997-09-16 05:00,ZGNN 160500Z AUTO 10010KT 7SM 28/20 A2997 RMK SLP135 T02800200 IEM_DS3505
ZGNN,1997-09-16 06:00,ZGNN 160600Z AUTO 04004KT 14SM 30/21 A2994 RMK SLP127 T02950212 57024 IEM_DS3505
ZGNN,1997-09-16 07:00,ZGNN 160700Z AUTO 06008KT 6SM 29/21 A2991 RMK SLP115 T02900210 IEM_DS3505
ZGNN,1997-09-16 08:00,ZGNN 160800Z AUTO 06006KT 7SM 30/20 A2991 RMK SLP115 T03000200 IEM_DS3505
ZGNN,1997-09-16 09:00,ZGNN 160900Z AUTO 09004KT 16SM 30/22 A2991 RMK SLP115 T02990215 57012 IEM_DS3505
ZGNN,1997-09-16 10:00,ZGNN 161000Z AUTO 08004KT 7SM 28/22 A2991 RMK SLP115 T02800220 IEM_DS3505
ZGNN,1997-09-16 11:00,ZGNN 161100Z AUTO 00000KT 7SM 27/22 A2994 RMK SLP126 T02700220 IEM_DS3505
ZGNN,1997-09-16 12:00,ZGNN 161200Z AUTO 07004KT 12SM 27/21 A2994 RMK SLP129 T02710213 52013 IEM_DS3505
ZGNN,1997-09-16 13:00,ZGNN 161300Z AUTO 06004KT 7SM 26/21 A2997 RMK SLP136 T02600210 IEM_DS3505
ZGNN,1997-09-16 15:00,ZGNN 161500Z AUTO 07002KT 11SM 26/21 A3002 RMK SLP151 T02590209 52022 IEM_DS3505
ZGNN,1997-09-16 18:00,ZGNN 161800Z AUTO 00000KT 9SM 25/20 A3001 RMK SLP149 T02520203 57002 IEM_DS3505
ZGNN,1997-09-16 21:00,ZGNN 162100Z AUTO 04004KT 9SM 24/20 A3000 RMK SLP146 T02440195 57003 IEM_DS3505
ZGNN,1997-09-16 22:00,ZGNN 162200Z AUTO 09004KT 5SM 23/20 A3000 RMK SLP147 T02300200 IEM_DS3505
ZGNN,1997-09-16 23:00,ZGNN 162300Z AUTO 00000KT 7SM 23/20 A3000 RMK SLP147 T02300200 IEM_DS3505
ZGNN,1997-09-17 00:00,ZGNN 170000Z AUTO 04006KT 12SM 24/19 A3003 RMK SLP157 T02410188 52011 IEM_DS3505
ZGNN,1997-09-17 01:00,ZGNN 170100Z AUTO 07006KT 6SM 25/19 A3003 RMK SLP156 T02500190 IEM_DS3505
ZGNN,1997-09-17 03:00,ZGNN 170300Z AUTO 07004KT 12SM 28/19 A3005 RMK SLP163 T02790188 52006 IEM_DS3505
ZGNN,1997-09-17 04:00,ZGNN 170400Z AUTO 10006KT 7SM 28/20 A3003 RMK SLP155 T02800200 IEM_DS3505
ZGNN,1997-09-17 05:00,ZGNN 170500Z AUTO 08008KT 7SM 29/20 A3000 RMK SLP145 T02900200 IEM_DS3505
ZGNN,1997-09-17 06:00,ZGNN 170600Z AUTO 22002KT 16SM 30/20 A2997 RMK SLP137 T03040204 57025 IEM_DS3505
ZGNN,1997-09-17 08:00,ZGNN 170800Z AUTO 04004KT 6SM 29/21 A2991 RMK SLP115 T02900210 IEM_DS3505
ZGNN,1997-09-17 09:00,ZGNN 170900Z AUTO 20004KT 16SM 30/21 A2991 RMK SLP119 T03030210 57018 IEM_DS3505
ZGNN,1997-09-17 10:00,ZGNN 171000Z AUTO 05004KT 6SM 29/22 A2991 RMK SLP115 T02900220 IEM_DS3505
ZGNN,1997-09-17 11:00,ZGNN 171100Z AUTO 08002KT 6SM 28/23 A2991 RMK SLP115 T02800230 IEM_DS3505
ZGNN,1997-09-17 12:00,ZGNN 171200Z AUTO 07002KT 14SM 28/22 A2994 RMK SLP126 T02790222 52006 IEM_DS3505
ZGNN,1997-09-17 13:00,ZGNN 171300Z AUTO 35004KT 6SM 25/23 A2997 RMK SLP136 T02500230 IEM_DS3505
ZGNN,1997-09-17 15:00,ZGNN 171500Z AUTO 07004KT 12SM 26/22 A3000 RMK SLP146 T02610218 52020 IEM_DS3505
ZGNN,1997-09-17 18:00,ZGNN 171800Z AUTO 00000KT 11SM 25/21 A2999 RMK SLP141 T02520213 57004 IEM_DS3505
ZGNN,1997-09-17 21:00,ZGNN 172100Z AUTO 02002KT 11SM 24/21 A2997 RMK SLP140 T02420213 57002 IEM_DS3505
ZGNN,1997-09-17 22:00,ZGNN 172200Z AUTO 34002KT 4SM 23/22 A2997 RMK SLP137 T02300220 IEM_DS3505
ZGNN,1997-09-17 23:00,ZGNN 172300Z AUTO 00000KT 4SM 23/22 A3000 RMK SLP147 T02300220 IEM_DS3505
ZGNN,1997-09-18 00:00,ZGNN 180000Z AUTO 07004KT 9SM 25/21 A3000 RMK SLP147 T02480209 52007 IEM_DS3505
ZGNN,1997-09-18 01:00,ZGNN 180100Z AUTO 00000KT 5SM 25/22 A3003 RMK SLP156 T02500220 IEM_DS3505
ZGNN,1997-09-18 02:00,ZGNN 180200Z AUTO 09008KT 7SM 27/22 A3003 RMK SLP156 T02700220 IEM_DS3505
ZGNN,1997-09-18 03:00,ZGNN 180300Z AUTO 04004KT 11SM 27/22 A3003 RMK SLP157 T02730215 52010 IEM_DS3505
ZGNN,1997-09-18 04:00,ZGNN 180400Z AUTO 10004KT 7SM 28/22 A3003 RMK SLP155 T02800220 IEM_DS3505
ZGNN,1997-09-18 05:00,ZGNN 180500Z AUTO 06004KT 6SM 29/23 A3000 RMK SLP145 T02900230 IEM_DS3505
ZGNN,1997-09-18 06:00,ZGNN 180600Z AUTO 07004KT 16SM 31/22 A2994 RMK SLP128 T03120220 57028 IEM_DS3505
ZGNN,1997-09-18 07:00,ZGNN 180700Z AUTO 06004KT 7SM 30/22 A2991 RMK SLP115 T03000220 IEM_DS3505
ZGNN,1997-09-18 08:00,ZGNN 180800Z AUTO 11004KT 7SM 30/22 A2991 RMK SLP115 T03000220 IEM_DS3505
ZGNN,1997-09-18 09:00,ZGNN 180900Z AUTO 07004KT 16SM 32/22 A2991 RMK SLP110 T03160222 57018 IEM_DS3505
ZGNN,1997-09-18 10:00,ZGNN 181000Z AUTO 18006KT 7SM 27/22 A2991 RMK SLP115 T02700220 IEM_DS3505
ZGNN,1997-09-18 11:00,ZGNN 181100Z AUTO 00000KT 7SM 27/23 A2991 RMK SLP115 T02700230 IEM_DS3505
ZGNN,1997-09-18 12:00,ZGNN 181200Z AUTO 00000KT 14SM 28/23 A2994 RMK SLP124 T02780233 52013 IEM_DS3505
ZGNN,1997-09-18 13:00,ZGNN 181300Z AUTO 12004KT 7SM 26/23 A2994 RMK SLP126 T02600230 IEM_DS3505
ZGNN,1997-09-18 15:00,ZGNN 181500Z AUTO 09004KT 14SM 27/23 A3000 RMK SLP146 T02700232 52022 IEM_DS3505
ZGNN,1997-09-18 18:00,ZGNN 181800Z AUTO 04004KT 12SM 26/22 A2997 RMK SLP136 T02610215 57009 IEM_DS3505
ZGNN,1997-09-18 21:00,ZGNN 182100Z AUTO 07004KT 11SM 25/21 A2994 RMK SLP133 T02470208 57003 IEM_DS3505
ZGNN,1997-09-18 22:00,ZGNN 182200Z AUTO 08004KT 7SM 24/20 A2997 RMK SLP136 T02400200 IEM_DS3505
ZGNN,1997-09-18 23:00,ZGNN 182300Z AUTO 06008KT 5SM 23/20 A2997 RMK SLP137 T02300200 IEM_DS3505
ZGNN,1997-09-19 00:00,ZGNN 190000Z AUTO 04002KT 9SM 24/20 A3000 RMK SLP144 T02410196 52010 IEM_DS3505
ZGNN,1997-09-19 01:00,ZGNN 190100Z AUTO 09008KT 5SM 24/20 A3000 RMK SLP147 T02400200 IEM_DS3505
ZGNN,1997-09-19 03:00,ZGNN 190300Z AUTO 04004KT 9SM 26/20 A3000 RMK SLP152 T02550203 52008 IEM_DS3505
ZGNN,1997-09-19 04:00,ZGNN 190400Z AUTO 05006KT 7SM 26/21 A3000 RMK SLP146 T02600210 IEM_DS3505
ZGNN,1997-09-19 05:00,ZGNN 190500Z AUTO 08004KT 7SM 26/21 A2997 RMK SLP136 T02600210 IEM_DS3505
ZGNN,1997-09-19 06:00,ZGNN 190600Z AUTO 04002KT 11SM 27/21 A2994 RMK 60001 SLP133 T02660209 57019 IEM_DS3505
ZGNN,1997-09-19 07:00,ZGNN 190700Z AUTO 03006KT 5SM 26/21 A2994 RMK SLP126 T02600210 IEM_DS3505
ZGNN,1997-09-19 08:00,ZGNN 190800Z AUTO 01004KT 5SM 26/21 A2991 RMK SLP116 T02600210 IEM_DS3505
ZGNN,1997-09-19 09:00,ZGNN 190900Z AUTO 04004KT 11SM 25/21 A2991 RMK SLP123 T02530211 57010 IEM_DS3505
ZGNN,1997-09-19 10:00,ZGNN 191000Z AUTO 02006KT 4SM 24/22 A2991 RMK SLP116 T02400220 IEM_DS3505
ZGNN,1997-09-19 11:00,ZGNN 191100Z AUTO 01006KT 4SM 24/21 A2994 RMK SLP126 T02400210 IEM_DS3505
ZGNN,1997-09-19 12:00,ZGNN 191200Z AUTO 04004KT 11SM 24/21 A2997 RMK SLP138 T02440208 52015 IEM_DS3505
ZGNN,1997-09-19 13:00,ZGNN 191300Z AUTO 03004KT 4SM 23/21 A2997 RMK SLP137 T02300210 IEM_DS3505
ZGNN,1997-09-19 15:00,ZGNN 191500Z AUTO 07002KT 10SM 24/21 A3002 RMK SLP153 T02390209 52015 IEM_DS3505
ZGNN,1997-09-19 18:00,ZGNN 191800Z AUTO 34002KT 9SM 23/21 A3001 RMK SLP148 T02340208 57005 IEM_DS3505
ZGNN,1997-09-19 21:00,ZGNN 192100Z AUTO 04006KT 9SM 22/20 A2997 RMK 70002 SLP140 T02190202 57009 IEM_DS3505
ZGNN,1997-09-19 22:00,ZGNN 192200Z AUTO 00000KT 3SM 22/21 A2997 RMK SLP137 T02200210 IEM_DS3505
ZGNN,1997-09-19 23:00,ZGNN 192300Z AUTO 01004KT 1 1/2SM 22/21 A3000 RMK SLP147 T02200210 IEM_DS3505
ZGNN,1997-09-20 00:00,ZGNN 200000Z AUTO 34004KT 9SM 22/20 A3003 RMK 60000 70002 SLP159 T02210195 52019 IEM_DS3505
ZGNN,1997-09-20 01:00,ZGNN 200100Z AUTO 33010KT 2SM 20/19 A3006 RMK SLP168 T02000190 IEM_DS3505
ZGNN,1997-09-20 02:00,ZGNN 200200Z AUTO 36004KT 1 1/2SM 20/19 A3006 RMK SLP168 T02000190 IEM_DS3505
ZGNN,1997-09-20 03:00,ZGNN 200300Z AUTO 32002KT 6SM 20/19 A3009 RMK SLP179 T02020191 52020 IEM_DS3505
ZGNN,1997-09-20 04:00,ZGNN 200400Z AUTO 36008KT 4SM 19/18 A3009 RMK SLP178 T01900180 IEM_DS3505
ZGNN,1997-09-20 05:00,ZGNN 200500Z AUTO 33012KT 7SM 19/18 A3009 RMK SLP178 T01900180 IEM_DS3505
ZGNN,1997-09-20 06:00,ZGNN 200600Z AUTO 34004KT 6SM 20/19 A3006 RMK 60016 SLP173 T01990186 57007 IEM_DS3505
ZGNN,1997-09-20 07:00,ZGNN 200700Z AUTO 02004KT 5SM 19/17 A3006 RMK SLP168 T01900170 IEM_DS3505
ZGNN,1997-09-20 08:00,ZGNN 200800Z AUTO 34006KT 7SM 20/17 A3006 RMK SLP168 T02000170 IEM_DS3505
ZGNN,1997-09-20 09:00,ZGNN 200900Z AUTO 32004KT 9SM 20/18 A3006 RMK SLP167 T02020176 57006 IEM_DS3505
ZGNN,1997-09-20 10:00,ZGNN 201000Z AUTO 03004KT 7SM 20/18 A3006 RMK SLP168 T02000180 IEM_DS3505
ZGNN,1997-09-20 11:00,ZGNN 201100Z AUTO 34008KT 7SM 20/18 A3006 RMK SLP168 T02000180 IEM_DS3505
ZGNN,1997-09-20 12:00,ZGNN 201200Z AUTO 32004KT 12SM 20/17 A3009 RMK 60002 SLP179 T02030169 52012 IEM_DS3505
ZGNN,1997-09-20 13:00,ZGNN 201300Z AUTO 33006KT 7SM 20/18 A3009 RMK SLP178 T02000180 IEM_DS3505
ZGNN,1997-09-20 15:00,ZGNN 201500Z AUTO 34004KT 16SM 20/16 A3012 RMK SLP188 T01970155 57001 IEM_DS3505
ZGNN,1997-09-20 18:00,ZGNN 201800Z AUTO 34004KT 16SM 20/16 A3012 RMK SLP188 T01970155 57001 IEM_DS3505
ZGNN,1997-09-20 21:00,ZGNN 202100Z AUTO 02002KT 12SM 19/15 A3009 RMK 70016 SLP186 T01920151 57002 IEM_DS3505
ZGNN,1997-09-20 22:00,ZGNN 202200Z AUTO 35006KT 7SM 18/15 A3009 RMK SLP179 T01800150 IEM_DS3505
ZGNN,1997-09-20 23:00,ZGNN 202300Z AUTO 34006KT 7SM 18/15 A3012 RMK SLP189 T01800150 IEM_DS3505
ZGNN,1997-09-21 00:00,ZGNN 210000Z AUTO 34002KT 12SM 19/15 A3012 RMK 60002 70020 SLP195 T01870151 52009 IEM_DS3505
ZGNN,1997-09-21 01:00,ZGNN 210100Z AUTO 36008KT 7SM 19/14 A3015 RMK SLP198 T01900140 IEM_DS3505
ZGNN,1997-09-21 02:00,ZGNN 210200Z AUTO 34008KT 7SM 20/16 A3015 RMK SLP198 T02000160 IEM_DS3505
ZGNN,1997-09-21 03:00,ZGNN 210300Z AUTO 36006KT 16SM 20/15 A3015 RMK SLP205 T01990152 52010 IEM_DS3505
ZGNN,1997-09-21 04:00,ZGNN 210400Z AUTO 34008KT 7SM 19/14 A3015 RMK SLP198 T01900140 IEM_DS3505
ZGNN,1997-09-21 05:00,ZGNN 210500Z AUTO 34012KT 7SM 19/14 A3015 RMK SLP198 T01900140 IEM_DS3505
ZGNN,1997-09-21 06:00,ZGNN 210600Z AUTO 34004KT 17SM 20/16 A3012 RMK SLP193 T02000155 57012 IEM_DS3505
ZGNN,1997-09-21 07:00,ZGNN 210700Z AUTO 35006KT 7SM 19/16 A3009 RMK SLP178 T01900160 IEM_DS3505
ZGNN,1997-09-21 08:00,ZGNN 210800Z AUTO 32006KT 7SM 18/14 A3009 RMK SLP179 T01800140 IEM_DS3505
ZGNN,1997-09-21 09:00,ZGNN 210900Z AUTO 34002KT 11SM 19/15 A3009 RMK SLP182 T01920151 57011 IEM_DS3505
ZGNN,1997-09-21 10:00,ZGNN 211000Z AUTO 34006KT 7SM 18/15 A3009 RMK SLP179 T01800150 IEM_DS3505
ZGNN,1997-09-21 11:00,ZGNN 211100Z AUTO 34004KT 7SM 18/15 A3009 RMK SLP179 T01800150 IEM_DS3505
ZGNN,1997-09-21 12:00,ZGNN 211200Z AUTO 32002KT 12SM 19/15 A3012 RMK 60000 SLP190 T01880147 52007 IEM_DS3505
ZGNN,1997-09-21 13:00,ZGNN 211300Z AUTO 35002KT 7SM 18/15 A3012 RMK SLP189 T01800150 IEM_DS3505
ZGNN,1997-09-21 15:00,ZGNN 211500Z AUTO 27004KT 12SM 19/16 A3013 RMK SLP191 T01880156 52002 IEM_DS3505
ZGNN,1997-09-21 18:00,ZGNN 211800Z AUTO 25004KT 12SM 18/16 A3011 RMK SLP185 T01850165 57006 IEM_DS3505
ZGNN,1997-09-21 21:00,ZGNN 212100Z AUTO 22004KT 9SM 18/17 A3009 RMK 70004 SLP181 T01850167 57004 IEM_DS3505
ZGNN,1997-09-21 22:00,ZGNN 212200Z AUTO 00000KT 6SM 17/16 A3012 RMK SLP189 T01700160 IEM_DS3505
ZGNN,1997-09-21 23:00,ZGNN 212300Z AUTO 33004KT 6SM 17/16 A3012 RMK SLP189 T01700160 IEM_DS3505
ZGNN,1997-09-22 00:00,ZGNN 220000Z AUTO 29004KT 7SM 19/16 A3012 RMK 70001 SLP195 T01910163 52014 IEM_DS3505
ZGNN,1997-09-22 01:00,ZGNN 220100Z AUTO 34010KT 6SM 21/14 A3015 RMK SLP198 T02100140 IEM_DS3505
ZGNN,1997-09-22 02:00,ZGNN 220200Z AUTO 05008KT 6SM 23/14 A3012 RMK SLP187 T02300140 IEM_DS3505
ZGNN,1997-09-22 03:00,ZGNN 220300Z AUTO 04004KT 9SM 25/13 A3012 RMK SLP190 T02540131 57005 IEM_DS3505
ZGNN,1997-09-22 04:00,ZGNN 220400Z AUTO 06010KT 6SM 25/12 A3009 RMK SLP177 T02500120 IEM_DS3505
ZGNN,1997-09-22 05:00,ZGNN 220500Z AUTO 05004KT 6SM 26/12 A3006 RMK SLP166 T02600120 IEM_DS3505
ZGNN,1997-09-22 07:00,ZGNN 220700Z AUTO 07006KT 6SM 28/13 A3003 RMK SLP155 T02800130 IEM_DS3505
ZGNN,1997-09-22 08:00,ZGNN 220800Z AUTO 02008KT 6SM 28/14 A3000 RMK SLP145 T02800140 IEM_DS3505
ZGNN,1997-09-22 09:00,ZGNN 220900Z AUTO 09004KT 19SM 28/14 A3000 RMK SLP148 T02790144 57016 IEM_DS3505
ZGNN,1997-09-22 10:00,ZGNN 221000Z AUTO 05008KT 6SM 26/14 A3000 RMK SLP146 T02600140 IEM_DS3505
ZGNN,1997-09-22 11:00,ZGNN 221100Z AUTO 06004KT 6SM 24/16 A3003 RMK SLP157 T02400160 IEM_DS3505
ZGNN,1997-09-22 12:00,ZGNN 221200Z AUTO 00000KT 9SM 25/16 A3003 RMK SLP159 T02480160 52011 IEM_DS3505
ZGNN,1997-09-22 13:00,ZGNN 221300Z AUTO 35004KT 6SM 22/17 A3006 RMK SLP167 T02200170 IEM_DS3505
ZGNN,1997-09-22 15:00,ZGNN 221500Z AUTO 00000KT 9SM 23/17 A3007 RMK SLP169 T02320174 52010 IEM_DS3505
ZGNN,1997-09-22 18:00,ZGNN 221800Z AUTO 00000KT 9SM 23/19 A3005 RMK SLP164 T02290188 57004 IEM_DS3505
ZGNN,1997-09-22 21:00,ZGNN 222100Z AUTO 00000KT 9SM 23/20 A3003 RMK SLP163 T02260197 57001 IEM_DS3505
ZGNN,1997-09-22 22:00,ZGNN 222200Z AUTO 00000KT 7SM 22/17 A3006 RMK SLP167 T02200170 IEM_DS3505
ZGNN,1997-09-22 23:00,ZGNN 222300Z AUTO 07002KT 7SM 22/17 A3006 RMK SLP167 T02200170 IEM_DS3505
ZGNN,1997-09-23 00:00,ZGNN 230000Z AUTO 00000KT 7SM 23/19 A3006 RMK SLP171 T02300188 52007 IEM_DS3505
ZGNN,1997-09-23 01:00,ZGNN 230100Z AUTO 21004KT 6SM 23/19 A3009 RMK SLP177 T02300190 IEM_DS3505
ZGNN,1997-09-23 02:00,ZGNN 230200Z AUTO 34004KT 6SM 26/17 A3006 RMK SLP166 T02600170 IEM_DS3505
ZGNN,1997-09-23 03:00,ZGNN 230300Z AUTO 04006KT 11SM 28/17 A3006 RMK SLP164 T02780170 57006 IEM_DS3505
ZGNN,1997-09-23 04:00,ZGNN 230400Z AUTO 09004KT 6SM 28/18 A3003 RMK SLP155 T02800180 IEM_DS3505
ZGNN,1997-09-23 05:00,ZGNN 230500Z AUTO 34006KT 6SM 29/19 A3000 RMK SLP145 T02900190 IEM_DS3505
ZGNN,1997-09-23 06:00,ZGNN 230600Z AUTO 34002KT 16SM 31/19 A2997 RMK SLP141 T03070186 57023 IEM_DS3505
ZGNN,1997-09-23 07:00,ZGNN 230700Z AUTO 19004KT 7SM 30/19 A2997 RMK SLP135 T03000190 IEM_DS3505
ZGNN,1997-09-23 08:00,ZGNN 230800Z AUTO 09004KT 7SM 30/20 A2994 RMK SLP125 T03000200 IEM_DS3505
ZGNN,1997-09-23 09:00,ZGNN 230900Z AUTO 00000KT 19SM 30/19 A2994 RMK SLP130 T03040190 57011 IEM_DS3505
ZGNN,1997-09-23 10:00,ZGNN 231000Z AUTO 02004KT 7SM 29/20 A2994 RMK SLP125 T02900200 IEM_DS3505
ZGNN,1997-09-23 11:00,ZGNN 231100Z AUTO 00000KT 7SM 28/21 A2997 RMK SLP135 T02800210 IEM_DS3505
ZGNN,1997-09-23 12:00,ZGNN 231200Z AUTO 00000KT 14SM 28/21 A3000 RMK SLP145 T02850212 52015 IEM_DS3505
ZGNN,1997-09-23 15:00,ZGNN 231500Z AUTO 02002KT 12SM 27/21 A3004 RMK SLP160 T02680213 52015 IEM_DS3505
ZGNN,1997-09-23 18:00,ZGNN 231800Z AUTO 00000KT 12SM 26/21 A3001 RMK SLP149 T02590213 57010 IEM_DS3505
ZGNN,1997-09-23 21:00,ZGNN 232100Z AUTO 00000KT 11SM 24/22 A2997 RMK SLP136 T02450223 57014 IEM_DS3505
ZGNN,1997-09-23 22:00,ZGNN 232200Z AUTO 35004KT 4SM 24/23 A2997 RMK SLP136 T02400230 IEM_DS3505
ZGNN,1997-09-23 23:00,ZGNN 232300Z AUTO 00000KT 3SM 24/23 A2997 RMK SLP136 T02400230 IEM_DS3505
ZGNN,1997-09-24 00:00,ZGNN 240000Z AUTO 04002KT 8SM 24/22 A3000 RMK SLP145 T02450215 52009 IEM_DS3505
ZGNN,1997-09-24 01:00,ZGNN 240100Z AUTO 06004KT 2 1/2SM 25/22 A3003 RMK SLP156 T02500220 IEM_DS3505
ZGNN,1997-09-24 02:00,ZGNN 240200Z AUTO 07004KT 7SM 26/22 A3003 RMK SLP156 T02600220 IEM_DS3505
ZGNN,1997-09-24 03:00,ZGNN 240300Z AUTO 04004KT 9SM 27/22 A3003 RMK SLP154 T02710219 52009 IEM_DS3505
ZGNN,1997-09-24 04:00,ZGNN 240400Z AUTO 05004KT 7SM 28/22 A3000 RMK SLP145 T02800220 IEM_DS3505
ZGNN,1997-09-24 05:00,ZGNN 240500Z AUTO 09004KT 7SM 28/22 A2997 RMK SLP135 T02800220 IEM_DS3505
ZGNN,1997-09-24 06:00,ZGNN 240600Z AUTO 07004KT 8SM 27/23 A2997 RMK 60002 SLP135 T02720227 57019 IEM_DS3505
ZGNN,1997-09-24 07:00,ZGNN 240700Z AUTO 34004KT 7SM 27/23 A2994 RMK SLP126 T02700230 IEM_DS3505
ZGNN,1997-09-24 08:00,ZGNN 240800Z AUTO 07004KT 7SM 28/22 A2994 RMK SLP125 T02800220 IEM_DS3505
ZGNN,1997-09-24 09:00,ZGNN 240900Z AUTO 00000KT 14SM 28/22 A2994 RMK SLP128 T02810222 57007 IEM_DS3505
ZGNN,1997-09-24 10:00,ZGNN 241000Z AUTO 23004KT 7SM 24/23 A2997 RMK SLP136 T02400230 IEM_DS3505
ZGNN,1997-09-24 11:00,ZGNN 241100Z AUTO 00000KT 7SM 24/23 A2997 RMK SLP136 T02400230 IEM_DS3505
ZGNN,1997-09-24 12:00,ZGNN 241200Z AUTO 04002KT 7SM 25/23 A3000 RMK 60002 SLP146 T02510231 52018 IEM_DS3505
ZGNN,1997-09-24 13:00,ZGNN 241300Z AUTO 36004KT 7SM 24/23 A3000 RMK SLP147 T02400230 IEM_DS3505
ZGNN,1997-09-24 15:00,ZGNN 241500Z AUTO 00000KT 7SM 24/23 A3004 RMK SLP160 T02440228 52014 IEM_DS3505
ZGNN,1997-09-24 18:00,ZGNN 241800Z AUTO 00000KT 6SM 24/23 A3002 RMK 60004 SLP154 T02410232 57006 IEM_DS3505
ZGNN,1997-09-24 21:00,ZGNN 242100Z AUTO 07004KT 5SM 21/20 A3000 RMK SLP160 T02130205 52005 IEM_DS3505
ZGNN,1997-09-24 22:00,ZGNN 242200Z AUTO 34019KT 7SM 20/19 A3003 RMK SLP158 T02000190 IEM_DS3505
ZGNN,1997-09-24 23:00,ZGNN 242300Z AUTO 35014KT 7SM 20/19 A3006 RMK SLP168 T02000190 IEM_DS3505
ZGNN,1997-09-25 00:00,ZGNN 250000Z AUTO 36006KT 6SM 20/18 A3009 RMK 60047 70055 SLP181 T02000184 52021 IEM_DS3505
ZGNN,1997-09-25 01:00,ZGNN 250100Z AUTO 36014KT 6SM 19/18 A3009 RMK SLP178 T01900180 IEM_DS3505
ZGNN,1997-09-25 02:00,ZGNN 250200Z AUTO 34008KT 7SM 19/18 A3012 RMK SLP188 T01900180 IEM_DS3505
ZGNN,1997-09-25 03:00,ZGNN 250300Z AUTO 34002KT 6SM 20/18 A3015 RMK SLP200 T02000181 52018 IEM_DS3505
ZGNN,1997-09-25 04:00,ZGNN 250400Z AUTO 34008KT 7SM 19/18 A3015 RMK SLP198 T01900180 IEM_DS3505
ZGNN,1997-09-25 05:00,ZGNN 250500Z AUTO 34006KT 4SM 19/18 A3012 RMK SLP188 T01900180 IEM_DS3505
ZGNN,1997-09-25 06:00,ZGNN 250600Z AUTO 02004KT 11SM 21/18 A3009 RMK 60000 SLP177 T02070175 57022 IEM_DS3505
ZGNN,1997-09-25 07:00,ZGNN 250700Z AUTO 35010KT 7SM 20/18 A3006 RMK SLP168 T02000180 IEM_DS3505
ZGNN,1997-09-25 08:00,ZGNN 250800Z AUTO 34006KT 7SM 20/18 A3006 RMK SLP168 T02000180 IEM_DS3505
ZGNN,1997-09-25 09:00,ZGNN 250900Z AUTO 29004KT 14SM 21/17 A3006 RMK SLP171 T02080171 57007 IEM_DS3505
ZGNN,1997-09-25 10:00,ZGNN 251000Z AUTO 36006KT 7SM 19/17 A3006 RMK SLP168 T01900170 IEM_DS3505
ZGNN,1997-09-25 11:00,ZGNN 251100Z AUTO 36004KT 7SM 19/17 A3009 RMK SLP178 T01900170 IEM_DS3505
ZGNN,1997-09-25 12:00,ZGNN 251200Z AUTO 34002KT 11SM 20/16 A3009 RMK SLP183 T02040161 52012 IEM_DS3505
ZGNN,1997-09-25 13:00,ZGNN 251300Z AUTO 35006KT 7SM 19/17 A3012 RMK SLP188 T01900170 IEM_DS3505
ZGNN,1997-09-25 15:00,ZGNN 251500Z AUTO 00000KT 11SM 20/16 A3013 RMK SLP191 T02030162 52008 IEM_DS3505
ZGNN,1997-09-25 18:00,ZGNN 251800Z AUTO 02002KT 9SM 20/16 A3009 RMK SLP179 T02000164 57012 IEM_DS3505
ZGNN,1997-09-25 21:00,ZGNN 252100Z AUTO 00000KT 9SM 20/16 A3006 RMK 70020 SLP169 T01990155 57010 IEM_DS3505
ZGNN,1997-09-25 22:00,ZGNN 252200Z AUTO 33006KT 7SM 19/15 A3006 RMK SLP168 T01900150 IEM_DS3505
ZGNN,1997-09-25 23:00,ZGNN 252300Z AUTO 32004KT 7SM 19/15 A3009 RMK SLP178 T01900150 IEM_DS3505
ZGNN,1997-09-26 00:00,ZGNN 260000Z AUTO 00000KT 12SM 20/16 A3012 RMK SLP190 T01980158 52021 IEM_DS3505
ZGNN,1997-09-26 01:00,ZGNN 260100Z AUTO 33002KT 7SM 18/16 A3015 RMK SLP199 T01800160 IEM_DS3505
ZGNN,1997-09-26 02:00,ZGNN 260200Z AUTO 33006KT 7SM 18/16 A3018 RMK SLP209 T01800160 IEM_DS3505
ZGNN,1997-09-26 03:00,ZGNN 260300Z AUTO 00000KT 16SM 20/16 A3018 RMK SLP209 T01950162 52019 IEM_DS3505
ZGNN,1997-09-26 04:00,ZGNN 260400Z AUTO 34008KT 6SM 18/16 A3018 RMK SLP209 T01800160 IEM_DS3505
ZGNN,1997-09-26 05:00,ZGNN 260500Z AUTO 34008KT 6SM 18/17 A3012 RMK SLP189 T01800170 IEM_DS3505
ZGNN,1997-09-26 06:00,ZGNN 260600Z AUTO 34006KT 12SM 19/17 A3009 RMK 60008 SLP188 T01880167 57021 IEM_DS3505
ZGNN,1997-09-26 07:00,ZGNN 260700Z AUTO 35012KT 7SM 17/16 A3009 RMK SLP179 T01700160 IEM_DS3505
ZGNN,1997-09-26 08:00,ZGNN 260800Z AUTO 36008KT 7SM 17/16 A3009 RMK SLP179 T01700160 IEM_DS3505
ZGNN,1997-09-26 09:00,ZGNN 260900Z AUTO 02006KT 9SM 18/15 A3009 RMK SLP183 T01810149 57005 IEM_DS3505
ZGNN,1997-09-26 10:00,ZGNN 261000Z AUTO 34006KT 7SM 17/15 A3009 RMK SLP179 T01700150 IEM_DS3505
ZGNN,1997-09-26 11:00,ZGNN 261100Z AUTO 36006KT 4SM 16/16 A3012 RMK SLP189 T01600160 IEM_DS3505
ZGNN,1997-09-26 12:00,ZGNN 261200Z AUTO 02004KT 9SM 17/16 A3012 RMK 60008 SLP195 T01670155 52011 IEM_DS3505
ZGNN,1997-09-26 13:00,ZGNN 261300Z AUTO 34004KT 2 1/2SM 16/15 A3015 RMK SLP199 T01600150 IEM_DS3505
ZGNN,1997-09-26 14:00,ZGNN 261400Z AUTO 34006KT 3SM 16/15 A3015 RMK SLP199 T01600150 IEM_DS3505
ZGNN,1997-09-26 15:00,ZGNN 261500Z AUTO 00000KT 9SM 17/15 A3018 RMK SLP208 T01690152 52013 IEM_DS3505
ZGNN,1997-09-26 18:00,ZGNN 261800Z AUTO 36004KT 9SM 17/15 A3014 RMK 60008 SLP196 T01660154 57012 IEM_DS3505
ZGNN,1997-09-26 21:00,ZGNN 262100Z AUTO 02004KT 6SM 17/16 A3009 RMK 70028 SLP184 T01680156 57012 IEM_DS3505
ZGNN,1997-09-26 22:00,ZGNN 262200Z AUTO 33008KT 7SM 16/15 A3009 RMK SLP179 T01600150 IEM_DS3505
ZGNN,1997-09-26 23:00,ZGNN 262300Z AUTO 34006KT 7SM 16/15 A3012 RMK SLP189 T01600150 IEM_DS3505
ZGNN,1997-09-27 00:00,ZGNN 270000Z AUTO 02002KT 4SM 17/16 A3012 RMK 60012 70031 SLP195 T01680158 52011 IEM_DS3505
ZGNN,1997-09-27 01:00,ZGNN 270100Z AUTO 36004KT 4SM 17/16 A3015 RMK SLP199 T01700160 IEM_DS3505
ZGNN,1997-09-27 02:00,ZGNN 270200Z AUTO 33006KT 7SM 17/16 A3015 RMK SLP199 T01700160 IEM_DS3505
ZGNN,1997-09-27 03:00,ZGNN 270300Z AUTO 07002KT 5SM 17/16 A3018 RMK SLP209 T01730160 52014 IEM_DS3505
ZGNN,1997-09-27 04:00,ZGNN 270400Z AUTO 08004KT 2SM 17/16 A3015 RMK SLP199 T01700160 IEM_DS3505
ZGNN,1997-09-27 05:00,ZGNN 270500Z AUTO 36004KT 7SM 17/17 A3012 RMK SLP189 T01700170 IEM_DS3505
ZGNN,1997-09-27 06:00,ZGNN 270600Z AUTO 04002KT 4SM 18/17 A3009 RMK 60008 SLP182 T01790166 57027 IEM_DS3505
ZGNN,1997-09-27 07:00,ZGNN 270700Z AUTO 02006KT 3SM 17/16 A3006 RMK SLP169 T01700160 IEM_DS3505
ZGNN,1997-09-27 08:00,ZGNN 270800Z AUTO 36004KT 4SM 17/16 A3006 RMK SLP169 T01700160 IEM_DS3505
ZGNN,1997-09-27 09:00,ZGNN 270900Z AUTO 00000KT 3SM 17/16 A3009 RMK SLP179 T01720164 57003 IEM_DS3505
ZGNN,1997-09-27 10:00,ZGNN 271000Z AUTO 33004KT 1 1/4SM 17/16 A3009 RMK SLP179 T01700160 IEM_DS3505
ZGNN,1997-09-27 11:00,ZGNN 271100Z AUTO 36002KT 3SM 16/15 A3009 RMK SLP179 T01600150 IEM_DS3505
ZGNN,1997-09-27 12:00,ZGNN 271200Z AUTO 00000KT 9SM 17/16 A3012 RMK 60094 SLP194 T01670159 52015 IEM_DS3505
ZGNN,1997-09-27 13:00,ZGNN 271300Z AUTO 00000KT 4SM 16/15 A3015 RMK SLP199 T01600150 IEM_DS3505
ZGNN,1997-09-27 15:00,ZGNN 271500Z AUTO 00000KT 7SM 16/15 A3016 RMK SLP204 T01630153 52010 IEM_DS3505
ZGNN,1997-09-27 18:00,ZGNN 271800Z AUTO 36002KT 7SM 17/15 A3012 RMK 60008 SLP189 T01670153 57015 IEM_DS3505
ZGNN,1997-09-27 21:00,ZGNN 272100Z AUTO 00000KT 6SM 17/15 A3009 RMK 70106 SLP183 T01680153 57006 IEM_DS3505
ZGNN,1997-09-27 22:00,ZGNN 272200Z AUTO 03002KT 7SM 16/16 A3009 RMK SLP179 T01600160 IEM_DS3505
ZGNN,1997-09-27 23:00,ZGNN 272300Z AUTO 00000KT 2 1/2SM 16/15 A3012 RMK SLP189 T01600150 IEM_DS3505
ZGNN,1997-09-28 00:00,ZGNN 280000Z AUTO 34002KT 9SM 17/15 A3015 RMK 70102 SLP198 T01730153 52015 IEM_DS3505
ZGNN,1997-09-28 01:00,ZGNN 280100Z AUTO 34004KT 7SM 17/16 A3015 RMK SLP199 T01700160 IEM_DS3505
ZGNN,1997-09-28 02:00,ZGNN 280200Z AUTO 33006KT 7SM 18/15 A3015 RMK SLP199 T01800150 IEM_DS3505
ZGNN,1997-09-28 03:00,ZGNN 280300Z AUTO 00000KT 11SM 19/15 A3015 RMK SLP200 T01870153 52002 IEM_DS3505
ZGNN,1997-09-28 04:00,ZGNN 280400Z AUTO 36006KT 7SM 19/15 A3012 RMK SLP188 T01900150 IEM_DS3505
ZGNN,1997-09-28 05:00,ZGNN 280500Z AUTO 03004KT 7SM 19/16 A3012 RMK SLP188 T01900160 IEM_DS3505
ZGNN,1997-09-28 06:00,ZGNN 280600Z AUTO 34002KT 14SM 20/16 A3006 RMK SLP175 T02030158 57024 IEM_DS3505
ZGNN,1997-09-28 07:00,ZGNN 280700Z AUTO 33006KT 7SM 20/16 A3006 RMK SLP168 T02000160 IEM_DS3505
ZGNN,1997-09-28 09:00,ZGNN 280900Z AUTO 07002KT 14SM 20/16 A3003 RMK SLP165 T02030163 57010 IEM_DS3505
ZGNN,1997-09-28 10:00,ZGNN 281000Z AUTO 07004KT 7SM 20/16 A3006 RMK SLP168 T02000160 IEM_DS3505
ZGNN,1997-09-28 11:00,ZGNN 281100Z AUTO 09004KT 7SM 19/17 A3006 RMK SLP168 T01900170 IEM_DS3505
ZGNN,1997-09-28 12:00,ZGNN 281200Z AUTO 00000KT 16SM 20/17 A3006 RMK SLP175 T01960166 52010 IEM_DS3505
ZGNN,1997-09-28 13:00,ZGNN 281300Z AUTO 00000KT 7SM 19/17 A3009 RMK SLP178 T01900170 IEM_DS3505
ZGNN,1997-09-28 15:00,ZGNN 281500Z AUTO 00000KT 14SM 20/17 A3012 RMK SLP187 T01950172 52012 IEM_DS3505
ZGNN,1997-09-28 18:00,ZGNN 281800Z AUTO 00000KT 12SM 19/18 A3009 RMK SLP178 T01930175 57009 IEM_DS3505
ZGNN,1997-09-28 21:00,ZGNN 282100Z AUTO 00000KT 12SM 19/17 A3003 RMK SLP165 T01910171 57013 IEM_DS3505
ZGNN,1997-09-28 22:00,ZGNN 282200Z AUTO 00000KT 7SM 18/17 A3006 RMK SLP168 T01800170 IEM_DS3505
ZGNN,1997-09-28 23:00,ZGNN 282300Z AUTO 00000KT 7SM 18/18 A3006 RMK SLP168 T01800180 IEM_DS3505
ZGNN,1997-09-29 00:00,ZGNN 290000Z AUTO 00000KT 7SM 20/18 A3009 RMK SLP178 T01950181 52013 IEM_DS3505
ZGNN,1997-09-29 01:00,ZGNN 290100Z AUTO 09002KT 7SM 20/18 A3009 RMK SLP178 T02000180 IEM_DS3505
ZGNN,1997-09-29 02:00,ZGNN 290200Z AUTO 09006KT 7SM 21/17 A3012 RMK SLP188 T02100170 IEM_DS3505
ZGNN,1997-09-29 03:00,ZGNN 290300Z AUTO 02002KT 14SM 22/14 A3009 RMK SLP182 T02190145 52004 IEM_DS3505
ZGNN,1997-09-29 04:00,ZGNN 290400Z AUTO 09004KT 6SM 23/16 A3009 RMK SLP177 T02300160 IEM_DS3505
ZGNN,1997-09-29 05:00,ZGNN 290500Z AUTO 01002KT 6SM 24/16 A3003 RMK SLP157 T02400160 IEM_DS3505
ZGNN,1997-09-29 06:00,ZGNN 290600Z AUTO 00000KT 12SM 24/16 A3000 RMK SLP153 T02450158 57028 IEM_DS3505
ZGNN,1997-09-29 07:00,ZGNN 290700Z AUTO 02004KT 7SM 25/17 A2997 RMK SLP136 T02500170 IEM_DS3505
ZGNN,1997-09-29 08:00,ZGNN 290800Z AUTO 29004KT 7SM 25/17 A2997 RMK SLP136 T02500170 IEM_DS3505
ZGNN,1997-09-29 09:00,ZGNN 290900Z AUTO 18002KT 12SM 25/18 A2997 RMK SLP133 T02500181 57020 IEM_DS3505
ZGNN,1997-09-29 10:00,ZGNN 291000Z AUTO 34004KT 6SM 23/18 A2997 RMK SLP137 T02300180 IEM_DS3505
ZGNN,1997-09-29 11:00,ZGNN 291100Z AUTO 35004KT 6SM 22/19 A2997 RMK SLP137 T02200190 IEM_DS3505
ZGNN,1997-09-29 12:00,ZGNN 291200Z AUTO 00000KT 8SM 23/18 A2997 RMK SLP142 T02300183 52009 IEM_DS3505
ZGNN,1997-09-29 13:00,ZGNN 291300Z AUTO 35002KT 6SM 21/19 A3000 RMK SLP147 T02100190 IEM_DS3505
ZGNN,1997-09-29 15:00,ZGNN 291500Z AUTO 00000KT 8SM 22/19 A3001 RMK SLP150 T02190194 52008 IEM_DS3505
ZGNN,1997-09-29 18:00,ZGNN 291800Z AUTO 00000KT 7SM 21/19 A3001 RMK SLP150 T02140190 54000 IEM_DS3505
ZGNN,1997-09-29 21:00,ZGNN 292100Z AUTO 00000KT 7SM 21/20 A3000 RMK SLP145 T02100199 57005 IEM_DS3505
ZGNN,1997-09-29 22:00,ZGNN 292200Z AUTO 01002KT 4SM 20/19 A3000 RMK SLP148 T02000190 IEM_DS3505
ZGNN,1997-09-29 23:00,ZGNN 292300Z AUTO 00000KT 6SM 20/19 A3000 RMK SLP148 T02000190 IEM_DS3505
ZGNN,1997-09-30 00:00,ZGNN 300000Z AUTO 00000KT 7SM 21/20 A3003 RMK SLP157 T02110195 52012 IEM_DS3505
ZGNN,1997-09-30 01:00,ZGNN 300100Z AUTO 06002KT 6SM 22/19 A3003 RMK SLP157 T02200190 IEM_DS3505
ZGNN,1997-09-30 02:00,ZGNN 300200Z AUTO 09004KT 6SM 23/19 A3003 RMK SLP157 T02300190 IEM_DS3505
ZGNN,1997-09-30 03:00,ZGNN 300300Z AUTO 18002KT 9SM 25/20 A3003 RMK SLP158 T02530196 52001 IEM_DS3505
ZGNN,1997-09-30 04:00,ZGNN 300400Z AUTO 04002KT 7SM 27/19 A3003 RMK SLP156 T02700190 IEM_DS3505
ZGNN,1997-09-30 05:00,ZGNN 300500Z AUTO 20004KT 7SM 28/19 A3000 RMK SLP145 T02800190 IEM_DS3505
ZGNN,1997-09-30 06:00,ZGNN 300600Z AUTO 00000KT 12SM 27/19 A2997 RMK SLP131 T02730188 57026 IEM_DS3505
ZGNN,1997-09-30 07:00,ZGNN 300700Z AUTO 00000KT 7SM 28/20 A2994 RMK SLP125 T02800200 IEM_DS3505
ZGNN,1997-09-30 08:00,ZGNN 300800Z AUTO 19004KT 7SM 27/19 A2991 RMK SLP115 T02700190 IEM_DS3505
ZGNN,1997-09-30 09:00,ZGNN 300900Z AUTO 00000KT 12SM 27/20 A2991 RMK SLP117 T02660199 57014 IEM_DS3505
ZGNN,1997-09-30 10:00,ZGNN 301000Z AUTO 15004KT 7SM 26/20 A2991 RMK SLP116 T02600200 IEM_DS3505
ZGNN,1997-09-30 11:00,ZGNN 301100Z AUTO 00000KT 7SM 25/22 A2991 RMK SLP116 T02500220 IEM_DS3505
ZGNN,1997-09-30 12:00,ZGNN 301200Z AUTO 00000KT 10SM 25/22 A2994 RMK SLP127 T02500220 52009 IEM_DS3505
ZGNN,1997-09-30 13:00,ZGNN 301300Z AUTO 34004KT 7SM 24/22 A2994 RMK SLP126 T02400220 IEM_DS3505
ZGNN,1997-09-30 15:00,ZGNN 301500Z AUTO 00000KT 9SM 25/22 A2998 RMK SLP139 T02460218 52013 IEM_DS3505
ZGNN,1997-09-30 18:00,ZGNN 301800Z AUTO 00000KT 8SM 24/22 A2998 RMK SLP138 T02410216 57001 IEM_DS3505
ZGNN,1997-09-30 21:00,ZGNN 302100Z AUTO 00000KT 8SM 24/21 A2997 RMK SLP136 T02350214 57002 IEM_DS3505
ZGNN,1997-09-30 22:00,ZGNN 302200Z AUTO 00000KT 2SM 22/22 A2997 RMK SLP137 T02200220 IEM_DS3505
ZGNN,1997-09-30 23:00,ZGNN 302300Z AUTO 00000KT 1SM 22/22 A3000 RMK SLP147 T02200220 IEM_DS3505
ZGNN,1997-10-01 00:00,ZGNN 010000Z AUTO 02002KT 7SM 24/21 A3000 RMK SLP162 T02360212 52025 IEM_DS3505
ZGNN,1997-10-01 01:00,ZGNN 010100Z AUTO 00000KT 2SM 24/22 A3003 RMK SLP157 T02400220 IEM_DS3505
ZGNN,1997-10-01 02:00,ZGNN 010200Z AUTO 28004KT 5SM 25/21 A3003 RMK SLP156 T02500210 IEM_DS3505
ZGNN,1997-10-01 03:00,ZGNN 010300Z AUTO 00000KT 7SM 26/21 A3003 RMK SLP159 T02650213 57002 IEM_DS3505
ZGNN,1997-10-01 04:00,ZGNN 010400Z AUTO 33004KT 7SM 28/21 A3003 RMK SLP155 T02800210 IEM_DS3505
ZGNN,1997-10-01 05:00,ZGNN 010500Z AUTO 01004KT 7SM 28/21 A3000 RMK SLP145 T02800210 IEM_DS3505
ZGNN,1997-10-01 06:00,ZGNN 010600Z AUTO 36004KT 8SM 29/21 A2996 RMK SLP134 T02890210 57025 IEM_DS3505
ZGNN,1997-10-01 07:00,ZGNN 010700Z AUTO 08002KT 6SM 29/21 A2994 RMK SLP125 T02900210 IEM_DS3505
ZGNN,1997-10-01 08:00,ZGNN 010800Z AUTO 09002KT 7SM 28/22 A2994 RMK SLP125 T02800220 IEM_DS3505
ZGNN,1997-10-01 09:00,ZGNN 010900Z AUTO 07004KT 9SM 29/21 A2991 RMK SLP123 T02860210 57011 IEM_DS3505
ZGNN,1997-10-01 10:00,ZGNN 011000Z AUTO 00000KT 4SM 27/22 A2994 RMK SLP126 T02700220 IEM_DS3505
ZGNN,1997-10-01 11:00,ZGNN 011100Z AUTO 36004KT 4SM 26/23 A2994 RMK SLP126 T02600230 IEM_DS3505
ZGNN,1997-10-01 12:00,ZGNN 011200Z AUTO 00000KT 9SM 27/22 A2994 RMK SLP134 T02690225 52011 IEM_DS3505
ZGNN,1997-10-01 13:00,ZGNN 011300Z AUTO 35004KT 4SM 25/22 A2997 RMK SLP136 T02500220 IEM_DS3505
ZGNN,1997-10-01 15:00,ZGNN 011500Z AUTO 00000KT 9SM 25/22 A3000 RMK SLP145 T02500219 52011 IEM_DS3505
ZGNN,1997-10-01 18:00,ZGNN 011800Z AUTO 00000KT 9SM 23/22 A2999 RMK SLP141 T02310221 57004 IEM_DS3505
ZGNN,1997-10-01 21:00,ZGNN 012100Z AUTO 00000KT 7SM 24/22 A2997 RMK SLP140 T02370225 57001 IEM_DS3505
ZGNN,1997-10-01 22:00,ZGNN 012200Z AUTO 35004KT 5SM 23/22 A2997 RMK SLP137 T02300220 IEM_DS3505
ZGNN,1997-10-01 23:00,ZGNN 012300Z AUTO 00000KT 2SM 23/22 A3000 RMK SLP147 T02300220 IEM_DS3505
ZGNN,1997-10-02 00:00,ZGNN 020000Z AUTO 00000KT 4SM 24/23 A3000 RMK SLP146 T02380226 52006 IEM_DS3505
ZGNN,1997-10-02 01:00,ZGNN 020100Z AUTO 00000KT 1 1/2SM 24/22 A3003 RMK SLP157 T02400220 IEM_DS3505
ZGNN,1997-10-02 02:00,ZGNN 020200Z AUTO 00000KT 2 1/2SM 26/23 A3003 RMK SLP156 T02600230 IEM_DS3505
ZGNN,1997-10-02 03:00,ZGNN 020300Z AUTO 00000KT 5SM 27/22 A3000 RMK SLP153 T02690225 52007 IEM_DS3505
ZGNN,1997-10-02 04:00,ZGNN 020400Z AUTO 12002KT 4SM 27/23 A3000 RMK SLP146 T02700230 IEM_DS3505
ZGNN,1997-10-02 06:00,ZGNN 020600Z AUTO 00000KT 9SM 30/23 A2994 RMK SLP130 T02950233 57023 IEM_DS3505
ZGNN,1997-10-02 07:00,ZGNN 020700Z AUTO 16008KT 7SM 30/23 A2991 RMK SLP115 T03000230 IEM_DS3505
ZGNN,1997-10-02 08:00,ZGNN 020800Z AUTO 15008KT 7SM 29/23 A2991 RMK SLP115 T02900230 IEM_DS3505
ZGNN,1997-10-02 09:00,ZGNN 020900Z AUTO 00000KT 11SM 29/24 A2991 RMK SLP115 T02940235 57015 IEM_DS3505
ZGNN,1997-10-02 10:00,ZGNN 021000Z AUTO 15006KT 6SM 28/23 A2991 RMK SLP115 T02800230 IEM_DS3505
ZGNN,1997-10-02 11:00,ZGNN 021100Z AUTO 14006KT 6SM 26/23 A2991 RMK SLP116 T02600230 IEM_DS3505
ZGNN,1997-10-02 12:00,ZGNN 021200Z AUTO 00000KT 11SM 27/24 A2991 RMK SLP121 T02730242 52006 IEM_DS3505
ZGNN,1997-10-02 13:00,ZGNN 021300Z AUTO 13002KT 6SM 25/23 A2994 RMK SLP126 T02500230 IEM_DS3505
ZGNN,1997-10-02 15:00,ZGNN 021500Z AUTO 00000KT 11SM 26/24 A2999 RMK SLP142 T02570237 52021 IEM_DS3505
ZGNN,1997-10-02 18:00,ZGNN 021800Z AUTO 04002KT 11SM 24/23 A2998 RMK SLP138 T02440232 57004 IEM_DS3505
ZGNN,1997-10-02 21:00,ZGNN 022100Z AUTO 00000KT 7SM 24/23 A2997 RMK SLP139 T02360227 52001 IEM_DS3505
ZGNN,1997-10-02 22:00,ZGNN 022200Z AUTO 00000KT 1 1/2SM 22/21 A2997 RMK SLP137 T02200210 IEM_DS3505
ZGNN,1997-10-02 23:00,ZGNN 022300Z AUTO 00000KT 1 1/2SM 22/21 A3000 RMK SLP147 T02200210 IEM_DS3505
ZGNN,1997-10-03 00:00,ZGNN 030000Z AUTO 02002KT 9SM 24/22 A3003 RMK SLP156 T02400225 52017 IEM_DS3505
ZGNN,1997-10-03 01:00,ZGNN 030100Z AUTO 13002KT 3SM 26/23 A3003 RMK SLP156 T02600230 IEM_DS3505
ZGNN,1997-10-03 02:00,ZGNN 030200Z AUTO 11004KT 6SM 27/23 A3006 RMK SLP166 T02700230 IEM_DS3505
ZGNN,1997-10-03 03:00,ZGNN 030300Z AUTO 04002KT 16SM 29/23 A3003 RMK SLP159 T02870227 52003 IEM_DS3505
ZGNN,1997-10-03 04:00,ZGNN 030400Z AUTO 10004KT 7SM 29/22 A3003 RMK SLP155 T02900220 IEM_DS3505
ZGNN,1997-10-03 05:00,ZGNN 030500Z AUTO 16006KT 7SM 30/22 A3000 RMK SLP145 T03000220 IEM_DS3505
ZGNN,1997-10-03 06:00,ZGNN 030600Z AUTO 32002KT 19SM 31/23 A2997 RMK SLP143 T03110227 57016 IEM_DS3505
ZGNN,1997-10-03 07:00,ZGNN 030700Z AUTO 16002KT 7SM 31/22 A2997 RMK SLP134 T03100220 IEM_DS3505
ZGNN,1997-10-03 08:00,ZGNN 030800Z AUTO 09006KT 7SM 31/22 A2994 RMK SLP124 T03100220 IEM_DS3505
ZGNN,1997-10-03 09:00,ZGNN 030900Z AUTO 20002KT 19SM 31/22 A2994 RMK SLP127 T03120220 57015 IEM_DS3505
ZGNN,1997-10-03 10:00,ZGNN 031000Z AUTO 12004KT 6SM 29/23 A2994 RMK SLP125 T02900230 IEM_DS3505
ZGNN,1997-10-03 11:00,ZGNN 031100Z AUTO 00000KT 6SM 28/24 A2994 RMK SLP125 T02800240 IEM_DS3505
ZGNN,1997-10-03 12:00,ZGNN 031200Z AUTO 00000KT 16SM 28/24 A2997 RMK SLP135 T02790239 52007 IEM_DS3505
ZGNN,1997-10-03 13:00,ZGNN 031300Z AUTO 35004KT 6SM 25/24 A3000 RMK SLP146 T02500240 IEM_DS3505
ZGNN,1997-10-03 15:00,ZGNN 031500Z AUTO 09002KT 12SM 26/24 A3000 RMK SLP146 T02650238 52011 IEM_DS3505
ZGNN,1997-10-03 18:00,ZGNN 031800Z AUTO 00000KT 10SM 26/24 A3000 RMK SLP144 T02560237 57001 IEM_DS3505
ZGNN,1997-10-03 21:00,ZGNN 032100Z AUTO 00000KT 8SM 25/24 A2997 RMK SLP142 T02510235 57002 IEM_DS3505
ZGNN,1997-10-03 22:00,ZGNN 032200Z AUTO 00000KT 7SM 24/24 A3000 RMK SLP147 T02400240 IEM_DS3505
ZGNN,1997-10-03 23:00,ZGNN 032300Z AUTO 00000KT 5SM 24/24 A3000 RMK SLP147 T02400240 IEM_DS3505
ZGNN,1997-10-04 00:00,ZGNN 040000Z AUTO 34002KT 9SM 25/23 A3003 RMK 60012 70012 SLP160 T02500233 52017 IEM_DS3505
ZGNN,1997-10-04 01:00,ZGNN 040100Z AUTO 00000KT 5SM 26/24 A3006 RMK SLP166 T02600240 IEM_DS3505
ZGNN,1997-10-04 02:00,ZGNN 040200Z AUTO 00000KT 7SM 27/24 A3006 RMK SLP166 T02700240 IEM_DS3505
ZGNN,1997-10-04 03:00,ZGNN 040300Z AUTO 04002KT 7SM 28/24 A3006 RMK SLP166 T02850239 52006 IEM_DS3505
ZGNN,1997-10-04 04:00,ZGNN 040400Z AUTO 02006KT 7SM 30/24 A3003 RMK SLP155 T03000240 IEM_DS3505
ZGNN,1997-10-04 05:00,ZGNN 040500Z AUTO 03004KT 7SM 29/24 A3000 RMK SLP145 T02900240 IEM_DS3505
ZGNN,1997-10-04 06:00,ZGNN 040600Z AUTO 07004KT 11SM 30/24 A2997 RMK SLP139 T02980239 57026 IEM_DS3505
ZGNN,1997-10-04 07:00,ZGNN 040700Z AUTO 35006KT 7SM 30/24 A2994 RMK SLP125 T03000240 IEM_DS3505
ZGNN,1997-10-04 08:00,ZGNN 040800Z AUTO 04006KT 7SM 30/25 A2994 RMK SLP125 T03000250 IEM_DS3505
ZGNN,1997-10-04 09:00,ZGNN 040900Z AUTO 04004KT 12SM 29/23 A2991 RMK SLP122 T02910229 57018 IEM_DS3505
ZGNN,1997-10-04 10:00,ZGNN 041000Z AUTO 08014KT 6SM 26/23 A2997 RMK SLP136 T02600230 IEM_DS3505
ZGNN,1997-10-04 11:00,ZGNN 041100Z AUTO 31004KT 7SM 24/23 A2997 RMK SLP136 T02400230 IEM_DS3505
ZGNN,1997-10-04 12:00,ZGNN 041200Z AUTO 09006KT 11SM 27/24 A3000 RMK 60000 SLP146 T02740235 52024 IEM_DS3505
ZGNN,1997-10-04 13:00,ZGNN 041300Z AUTO 36004KT 7SM 24/23 A3003 RMK SLP157 T02400230 IEM_DS3505
ZGNN,1997-10-04 15:00,ZGNN 041500Z AUTO 07004KT 11SM 26/22 A3005 RMK SLP163 T02600217 52017 IEM_DS3505
ZGNN,1997-10-04 18:00,ZGNN 041800Z AUTO 09004KT 11SM 25/20 A3005 RMK SLP161 T02480196 57002 IEM_DS3505
ZGNN,1997-10-04 21:00,ZGNN 042100Z AUTO 07004KT 11SM 24/19 A3003 RMK 70012 SLP160 T02370189 57001 IEM_DS3505
ZGNN,1997-10-04 22:00,ZGNN 042200Z AUTO 04004KT 7SM 22/19 A3003 RMK SLP157 T02200190 IEM_DS3505
ZGNN,1997-10-04 23:00,ZGNN 042300Z AUTO 04008KT 7SM 23/19 A3006 RMK SLP167 T02300190 IEM_DS3505
ZGNN,1997-10-05 00:00,ZGNN 050000Z AUTO 07006KT 12SM 23/19 A3009 RMK 70001 SLP178 T02310187 52017 IEM_DS3505
ZGNN,1997-10-05 01:00,ZGNN 050100Z AUTO 02004KT 7SM 23/19 A3009 RMK SLP177 T02300190 IEM_DS3505
ZGNN,1997-10-05 02:00,ZGNN 050200Z AUTO 03010KT 7SM 23/19 A3012 RMK SLP187 T02300190 IEM_DS3505
ZGNN,1997-10-05 03:00,ZGNN 050300Z AUTO 07004KT 12SM 24/19 A3012 RMK SLP189 T02410191 52011 IEM_DS3505
ZGNN,1997-10-05 04:00,ZGNN 050400Z AUTO 04006KT 7SM 23/20 A3009 RMK SLP177 T02300200 IEM_DS3505
ZGNN,1997-10-05 05:00,ZGNN 050500Z AUTO 36004KT 1 1/4SM 22/20 A3009 RMK SLP177 T02200200 IEM_DS3505
ZGNN,1997-10-05 06:00,ZGNN 050600Z AUTO 36002KT 7SM 23/21 A3006 RMK 60004 SLP165 T02320208 57024 IEM_DS3505
ZGNN,1997-10-05 07:00,ZGNN 050700Z AUTO 01006KT 1 1/4SM 22/21 A3003 RMK SLP157 T02200210 IEM_DS3505
ZGNN,1997-10-05 08:00,ZGNN 050800Z AUTO 33004KT 2 1/2SM 22/21 A3003 RMK SLP157 T02200210 IEM_DS3505
ZGNN,1997-10-05 09:00,ZGNN 050900Z AUTO 34002KT 12SM 23/21 A3003 RMK SLP159 T02340208 57006 IEM_DS3505
ZGNN,1997-10-05 12:00,ZGNN 051200Z AUTO 04004KT 11SM 23/21 A3007 RMK 60002 SLP171 T02280207 52012 IEM_DS3505
ZGNN,1997-10-05 13:00,ZGNN 051300Z AUTO 02002KT 5SM 22/21 A3009 RMK SLP177 T02200210 IEM_DS3505
ZGNN,1997-10-05 15:00,ZGNN 051500Z AUTO 00000KT 11SM 23/19 A3011 RMK SLP185 T02260193 52014 IEM_DS3505
ZGNN,1997-10-05 18:00,ZGNN 051800Z AUTO 00000KT 11SM 22/21 A3010 RMK SLP179 T02250207 57006 IEM_DS3505
ZGNN,1997-10-05 21:00,ZGNN 052100Z AUTO 02002KT 9SM 22/21 A3006 RMK 70012 SLP171 T02230211 57008 IEM_DS3505
ZGNN,1997-10-05 22:00,ZGNN 052200Z AUTO 04002KT 2 1/2SM 21/21 A3006 RMK SLP168 T02100210 IEM_DS3505
ZGNN,1997-10-05 23:00,ZGNN 052300Z AUTO 00000KT 2 1/2SM 21/21 A3009 RMK SLP178 T02100210 IEM_DS3505
ZGNN,1997-10-06 00:00,ZGNN 060000Z AUTO 00000KT 5SM 22/21 A3009 RMK 60008 70016 SLP184 T02230208 52013 IEM_DS3505
ZGNN,1997-10-06 01:00,ZGNN 060100Z AUTO 07002KT 3SM 22/21 A3012 RMK SLP187 T02200210 IEM_DS3505
ZGNN,1997-10-06 02:00,ZGNN 060200Z AUTO 03002KT 3SM 23/21 A3012 RMK SLP187 T02300210 IEM_DS3505
ZGNN,1997-10-06 03:00,ZGNN 060300Z AUTO 00000KT 6SM 24/20 A3012 RMK SLP192 T02370205 52008 IEM_DS3505
ZGNN,1997-10-06 04:00,ZGNN 060400Z AUTO 36004KT 5SM 23/21 A3012 RMK SLP187 T02300210 IEM_DS3505
ZGNN,1997-10-06 05:00,ZGNN 060500Z AUTO 34006KT 5SM 24/21 A3009 RMK SLP177 T02400210 IEM_DS3505
ZGNN,1997-10-06 06:00,ZGNN 060600Z AUTO 22002KT 7SM 27/22 A3006 RMK SLP168 T02660215 57024 IEM_DS3505
ZGNN,1997-10-06 07:00,ZGNN 060700Z AUTO 35006KT 4SM 26/22 A3003 RMK SLP156 T02600220 IEM_DS3505
ZGNN,1997-10-06 08:00,ZGNN 060800Z AUTO 00000KT 4SM 27/22 A3000 RMK SLP146 T02700220 IEM_DS3505
ZGNN,1997-10-06 09:00,ZGNN 060900Z AUTO 22002KT 8SM 28/22 A3000 RMK SLP146 T02770224 57021 IEM_DS3505
ZGNN,1997-10-06 10:00,ZGNN 061000Z AUTO 11002KT 5SM 27/23 A3000 RMK SLP146 T02700230 IEM_DS3505
ZGNN,1997-10-06 11:00,ZGNN 061100Z AUTO 35004KT 4SM 25/23 A3000 RMK SLP146 T02500230 IEM_DS3505
ZGNN,1997-10-06 12:00,ZGNN 061200Z AUTO 27002KT 7SM 26/23 A3003 RMK SLP159 T02610229 52012 IEM_DS3505
ZGNN,1997-10-06 13:00,ZGNN 061300Z AUTO 32006KT 3SM 24/22 A3006 RMK SLP167 T02400220 IEM_DS3505
ZGNN,1997-10-06 15:00,ZGNN 061500Z AUTO 04004KT 8SM 25/23 A3010 RMK SLP179 T02470226 52020 IEM_DS3505
ZGNN,1997-10-06 18:00,ZGNN 061800Z AUTO 00000KT 8SM 24/22 A3008 RMK 60000 SLP174 T02410220 57004 IEM_DS3505
ZGNN,1997-10-06 21:00,ZGNN 062100Z AUTO 00000KT 7SM 24/22 A3006 RMK 70004 SLP169 T02350223 57005 IEM_DS3505
ZGNN,1997-10-06 22:00,ZGNN 062200Z AUTO 00000KT 2 1/2SM 23/22 A3006 RMK SLP167 T02300220 IEM_DS3505
ZGNN,1997-10-06 23:00,ZGNN 062300Z AUTO 00000KT 2 1/2SM 23/22 A3009 RMK SLP177 T02300220 IEM_DS3505
ZGNN,1997-10-07 00:00,ZGNN 070000Z AUTO 00000KT 5SM 24/23 A3012 RMK SLP189 T02400227 52019 IEM_DS3505
ZGNN,1997-10-07 01:00,ZGNN 070100Z AUTO 00000KT 2 1/2SM 24/23 A3015 RMK SLP197 T02400230 IEM_DS3505
ZGNN,1997-10-07 02:00,ZGNN 070200Z AUTO 06004KT 2 1/2SM 25/23 A3015 RMK SLP197 T02500230 IEM_DS3505
ZGNN,1997-10-07 03:00,ZGNN 070300Z AUTO 00000KT 7SM 27/23 A3015 RMK SLP198 T02670226 52009 IEM_DS3505
ZGNN,1997-10-07 04:00,ZGNN 070400Z AUTO 00000KT 4SM 28/23 A3015 RMK SLP196 T02800230 IEM_DS3505
ZGNN,1997-10-07 05:00,ZGNN 070500Z AUTO 00000KT 7SM 30/23 A3012 RMK SLP185 T03000230 IEM_DS3505
ZGNN,1997-10-07 06:00,ZGNN 070600Z AUTO 20002KT 12SM 29/22 A3006 RMK SLP169 T02930223 57028 IEM_DS3505
ZGNN,1997-10-07 07:00,ZGNN 070700Z AUTO 00000KT 7SM 30/22 A3003 RMK SLP155 T03000220 IEM_DS3505
ZGNN,1997-10-07 08:00,ZGNN 070800Z AUTO 22006KT 7SM 31/22 A3003 RMK SLP155 T03100220 IEM_DS3505
ZGNN,1997-10-07 09:00,ZGNN 070900Z AUTO 04004KT 12SM 30/23 A3003 RMK SLP156 T02990230 57013 IEM_DS3505
ZGNN,1997-10-07 10:00,ZGNN 071000Z AUTO 31006KT 1 1/2SM 24/23 A3006 RMK SLP167 T02400230 IEM_DS3505
ZGNN,1997-10-07 11:00,ZGNN 071100Z AUTO 05004KT 7SM RMK IEM_DS3505
ZGNN,1997-10-07 12:00,ZGNN 071200Z AUTO 09002KT 12SM 24/23 A3006 RMK 60016 SLP173 T02450226 52016 IEM_DS3505
ZGNN,1997-10-07 13:00,ZGNN 071300Z AUTO 03004KT 5SM 23/23 A3009 RMK SLP177 T02300230 IEM_DS3505
ZGNN,1997-10-07 15:00,ZGNN 071500Z AUTO 07004KT 11SM 24/22 A3011 RMK SLP185 T02440223 52013 IEM_DS3505
ZGNN,1997-10-07 18:00,ZGNN 071800Z AUTO 07004KT 11SM 24/21 A3010 RMK SLP180 T02370210 57005 IEM_DS3505
ZGNN,1997-10-07 21:00,ZGNN 072100Z AUTO 00000KT 9SM 23/22 A3009 RMK 70016 SLP179 T02290215 57001 IEM_DS3505
ZGNN,1997-10-07 22:00,ZGNN 072200Z AUTO 35004KT 3SM 21/21 A3009 RMK SLP178 T02100210 IEM_DS3505
ZGNN,1997-10-07 23:00,ZGNN 072300Z AUTO 00000KT 2 1/2SM 21/21 A3012 RMK SLP188 T02100210 IEM_DS3505
ZGNN,1997-10-08 00:00,ZGNN 080000Z AUTO 00000KT 6SM 24/21 A3015 RMK 70016 SLP195 T02350211 52015 IEM_DS3505
ZGNN,1997-10-08 02:00,ZGNN 080200Z AUTO 07004KT 4SM 24/22 A3018 RMK SLP207 T02400220 IEM_DS3505
ZGNN,1997-10-08 03:00,ZGNN 080300Z AUTO 11004KT 7SM 26/22 A3018 RMK SLP205 T02650221 52010 IEM_DS3505
ZGNN,1997-10-08 04:00,ZGNN 080400Z AUTO 09004KT 7SM 25/22 A3015 RMK SLP197 T02500220 IEM_DS3505
ZGNN,1997-10-08 05:00,ZGNN 080500Z AUTO 00000KT 7SM 26/23 A3012 RMK SLP186 T02600230 IEM_DS3505
ZGNN,1997-10-08 06:00,ZGNN 080600Z AUTO 18004KT 10SM 28/22 A3009 RMK SLP177 T02750220 57027 IEM_DS3505
ZGNN,1997-10-08 07:00,ZGNN 080700Z AUTO 07004KT 7SM 27/23 A3006 RMK SLP166 T02700230 IEM_DS3505
ZGNN,1997-10-08 08:00,ZGNN 080800Z AUTO 03004KT 7SM 28/23 A3003 RMK SLP155 T02800230 IEM_DS3505
ZGNN,1997-10-08 09:00,ZGNN 080900Z AUTO 00000KT 10SM 28/22 A3003 RMK SLP161 T02850225 57016 IEM_DS3505
ZGNN,1997-10-08 10:00,ZGNN 081000Z AUTO 03004KT 7SM 27/23 A3006 RMK SLP166 T02700230 IEM_DS3505
ZGNN,1997-10-08 11:00,ZGNN 081100Z AUTO 03004KT 7SM 25/23 A3006 RMK SLP166 T02500230 IEM_DS3505
ZGNN,1997-10-08 12:00,ZGNN 081200Z AUTO 07002KT 10SM 26/23 A3006 RMK SLP172 T02600226 52010 IEM_DS3505
ZGNN,1997-10-08 15:00,ZGNN 081500Z AUTO 00000KT 9SM 24/22 A3012 RMK SLP187 T02450218 52015 IEM_DS3505
ZGNN,1997-10-08 18:00,ZGNN 081800Z AUTO 07002KT 7SM 24/22 A3010 RMK SLP180 T02420218 57006 IEM_DS3505
ZGNN,1997-10-08 21:00,ZGNN 082100Z AUTO 00000KT 7SM 24/22 A3006 RMK SLP166 T02360220 57014 IEM_DS3505
ZGNN,1997-10-08 22:00,ZGNN 082200Z AUTO 00000KT 1 1/4SM 22/22 A3006 RMK SLP167 T02200220 IEM_DS3505
ZGNN,1997-10-08 23:00,ZGNN 082300Z AUTO 00000KT 1 1/4SM 22/22 A3006 RMK SLP167 T02200220 IEM_DS3505
ZGNN,1997-10-09 00:00,ZGNN 090000Z AUTO 00000KT 7SM 24/22 A3009 RMK SLP174 T02360221 52007 IEM_DS3505
ZGNN,1997-10-09 02:00,ZGNN 090200Z AUTO 15006KT 7SM 26/23 A3009 RMK SLP176 T02600230 IEM_DS3505
ZGNN,1997-10-09 03:00,ZGNN 090300Z AUTO 22004KT 10SM 28/23 A3006 RMK SLP168 T02790230 57005 IEM_DS3505
ZGNN,1997-10-09 04:00,ZGNN 090400Z AUTO 18004KT 7SM 29/23 A3003 RMK SLP155 T02900230 IEM_DS3505
ZGNN,1997-10-09 05:00,ZGNN 090500Z AUTO 21004KT 7SM 30/23 A3000 RMK SLP145 T03000230 IEM_DS3505
ZGNN,1997-10-09 06:00,ZGNN 090600Z AUTO 20004KT 12SM 31/22 A2997 RMK SLP136 T03100219 57031 IEM_DS3505
ZGNN,1997-10-09 08:00,ZGNN 090800Z AUTO 18004KT 7SM 31/22 A2994 RMK SLP124 T03100220 IEM_DS3505
ZGNN,1997-10-09 09:00,ZGNN 090900Z AUTO 18002KT 14SM 30/22 A2994 RMK SLP123 T03020223 57014 IEM_DS3505
ZGNN,1997-10-09 10:00,ZGNN 091000Z AUTO 15010KT 7SM 28/23 A2994 RMK SLP125 T02800230 IEM_DS3505
ZGNN,1997-10-09 11:00,ZGNN 091100Z AUTO 12004KT 6SM 26/23 A2997 RMK SLP136 T02600230 IEM_DS3505
ZGNN,1997-10-09 12:00,ZGNN 091200Z AUTO 16002KT 12SM 27/22 A2997 RMK SLP139 T02730220 52016 IEM_DS3505
ZGNN,1997-10-09 13:00,ZGNN 091300Z AUTO 00000KT 6SM 25/23 A3000 RMK SLP146 T02500230 IEM_DS3505
ZGNN,1997-10-09 15:00,ZGNN 091500Z AUTO 00000KT 12SM 25/22 A2999 RMK SLP144 T02530224 52005 IEM_DS3505
ZGNN,1997-10-09 18:00,ZGNN 091800Z AUTO 00000KT 9SM 24/22 A2999 RMK SLP144 T02430221 54000 IEM_DS3505
ZGNN,1997-10-09 21:00,ZGNN 092100Z AUTO 07004KT 9SM 24/22 A2997 RMK SLP139 T02400224 57005 IEM_DS3505
ZGNN,1997-10-09 22:00,ZGNN 092200Z AUTO 03004KT 6SM 22/21 A2997 RMK SLP137 T02200210 IEM_DS3505
ZGNN,1997-10-09 23:00,ZGNN 092300Z AUTO 01004KT 7SM 23/22 A3000 RMK SLP147 T02300220 IEM_DS3505
ZGNN,1997-10-10 00:00,ZGNN 100000Z AUTO 04002KT 7SM 24/22 A3000 RMK SLP151 T02390224 52012 IEM_DS3505
ZGNN,1997-10-10 01:00,ZGNN 100100Z AUTO 00000KT 7SM 25/23 A3003 RMK SLP156 T02500230 IEM_DS3505
ZGNN,1997-10-10 02:00,ZGNN 100200Z AUTO 04004KT 7SM 27/22 A3003 RMK SLP156 T02700220 IEM_DS3505
ZGNN,1997-10-10 03:00,ZGNN 100300Z AUTO 27004KT 9SM 28/22 A3003 RMK SLP160 T02810222 52009 IEM_DS3505
ZGNN,1997-10-10 04:00,ZGNN 100400Z AUTO 33004KT 7SM 30/21 A3000 RMK SLP145 T03000210 IEM_DS3505
ZGNN,1997-10-10 05:00,ZGNN 100500Z AUTO 18004KT 7SM 31/20 A2997 RMK SLP134 T03100200 IEM_DS3505
ZGNN,1997-10-10 06:00,ZGNN 100600Z AUTO 20006KT 11SM 31/21 A2994 RMK SLP127 T03080209 57032 IEM_DS3505
ZGNN,1997-10-10 07:00,ZGNN 100700Z AUTO 23002KT 7SM 32/20 A2991 RMK SLP114 T03200200 IEM_DS3505
ZGNN,1997-10-10 08:00,ZGNN 100800Z AUTO 00000KT 7SM 31/21 A2991 RMK SLP114 T03100210 IEM_DS3505
ZGNN,1997-10-10 09:00,ZGNN 100900Z AUTO 00000KT 12SM 31/23 A2990 RMK SLP111 T03070226 57016 IEM_DS3505
ZGNN,1997-10-10 12:00,ZGNN 101200Z AUTO 09002KT 12SM 28/24 A2995 RMK SLP130 T02810235 52018 IEM_DS3505
ZGNN,1997-10-10 15:00,ZGNN 101500Z AUTO 07002KT 12SM 26/24 A2999 RMK SLP141 T02600237 52011 IEM_DS3505
ZGNN,1997-10-10 18:00,ZGNN 101800Z AUTO 07004KT 12SM 26/23 A2998 RMK SLP137 T02550229 57003 IEM_DS3505
ZGNN,1997-10-10 21:00,ZGNN 102100Z AUTO 04002KT 11SM 24/22 A2994 RMK SLP130 T02440222 57007 IEM_DS3505
ZGNN,1997-10-10 22:00,ZGNN 102200Z AUTO 01004KT 7SM 24/22 A2997 RMK SLP136 T02400220 IEM_DS3505
ZGNN,1997-10-10 23:00,ZGNN 102300Z AUTO 04006KT 3SM 25/21 A3000 RMK SLP146 T02500210 IEM_DS3505
ZGNN,1997-10-11 00:00,ZGNN 110000Z AUTO 04002KT 9SM 24/22 A3002 RMK SLP152 T02420218 52021 IEM_DS3505
ZGNN,1997-10-11 02:00,ZGNN 110200Z AUTO 11006KT 7SM 26/23 A3006 RMK SLP166 T02600230 IEM_DS3505
ZGNN,1997-10-11 03:00,ZGNN 110300Z AUTO 22006KT 11SM 29/23 A3006 RMK SLP165 T02860226 52013 IEM_DS3505
ZGNN,1997-10-11 04:00,ZGNN 110400Z AUTO 33006KT 4SM 24/23 A3003 RMK SLP157 T02400230 IEM_DS3505
ZGNN,1997-10-11 05:00,ZGNN 110500Z AUTO 34006KT 7SM 27/24 A3000 RMK SLP146 T02700240 IEM_DS3505
ZGNN,1997-10-11 06:00,ZGNN 110600Z AUTO 29002KT 12SM 28/23 A2997 RMK 60004 SLP135 T02850230 57030 IEM_DS3505
ZGNN,1997-10-11 07:00,ZGNN 110700Z AUTO 33006KT 7SM 28/24 A2994 RMK SLP125 T02800240 IEM_DS3505
ZGNN,1997-10-11 08:00,ZGNN 110800Z AUTO 33004KT 7SM 29/23 A2991 RMK SLP115 T02900230 IEM_DS3505
ZGNN,1997-10-11 09:00,ZGNN 110900Z AUTO 04002KT 16SM 30/21 A2991 RMK SLP118 T02960213 57017 IEM_DS3505
ZGNN,1997-10-11 10:00,ZGNN 111000Z AUTO 04002KT 11SM 25/23 A2994 RMK SLP147 T02530233 57011 IEM_DS3505
ZGNN,1997-10-11 11:00,ZGNN 111100Z AUTO 36004KT 7SM 27/23 A2994 RMK SLP126 T02700230 IEM_DS3505
ZGNN,1997-10-11 12:00,ZGNN 111200Z AUTO 00000KT 12SM 27/24 A2997 RMK SLP139 T02730237 52021 IEM_DS3505
ZGNN,1997-10-11 13:00,ZGNN 111300Z AUTO 04002KT 7SM 25/24 A3000 RMK SLP146 T02500240 IEM_DS3505
ZGNN,1997-10-11 15:00,ZGNN 111500Z AUTO 02004KT 12SM 26/23 A3004 RMK SLP158 T02630232 52019 IEM_DS3505
ZGNN,1997-10-11 18:00,ZGNN 111800Z AUTO 04002KT 11SM 25/23 A3000 RMK SLP147 T02530233 57011 IEM_DS3505
ZGNN,1997-10-11 21:00,ZGNN 112100Z AUTO 09002KT 11SM 24/22 A2997 RMK 70004 SLP143 T02450221 57004 IEM_DS3505
ZGNN,1997-10-11 22:00,ZGNN 112200Z AUTO 00000KT 6SM 24/23 A3000 RMK SLP147 T02400230 IEM_DS3505
ZGNN,1997-10-11 23:00,ZGNN 112300Z AUTO 05002KT 3SM 24/23 A3003 RMK SLP157 T02400230 IEM_DS3505
ZGNN,1997-10-12 00:00,ZGNN 120000Z AUTO 07002KT 10SM 24/22 A3006 RMK 60004 70008 SLP166 T02430221 52023 IEM_DS3505
ZGNN,1997-10-12 01:00,ZGNN 120100Z AUTO 04004KT 4SM 24/22 A3009 RMK SLP177 T02400220 IEM_DS3505
ZGNN,1997-10-12 02:00,ZGNN 120200Z AUTO 02006KT 5SM 26/23 A3009 RMK SLP176 T02600230 IEM_DS3505
ZGNN,1997-10-12 03:00,ZGNN 120300Z AUTO 11004KT 11SM 24/22 A3009 RMK SLP181 T02400224 52014 IEM_DS3505
ZGNN,1997-10-12 04:00,ZGNN 120400Z AUTO 01004KT 6SM 27/23 A3006 RMK SLP166 T02700230 IEM_DS3505
ZGNN,1997-10-12 05:00,ZGNN 120500Z AUTO 02008KT 7SM 28/23 A3003 RMK SLP155 T02800230 IEM_DS3505
ZGNN,1997-10-12 06:00,ZGNN 120600Z AUTO 02004KT 12SM 27/23 A3000 RMK 60024 SLP151 T02720230 57029 IEM_DS3505
ZGNN,1997-10-12 07:00,ZGNN 120700Z AUTO 04008KT 7SM 29/23 A2997 RMK SLP135 T02900230 IEM_DS3505
ZGNN,1997-10-12 08:00,ZGNN 120800Z AUTO 33010KT 7SM 25/22 A2997 RMK SLP136 T02500220 IEM_DS3505
ZGNN,1997-10-12 09:00,ZGNN 120900Z AUTO 34004KT 10SM 26/22 A2997 RMK SLP144 T02550223 57007 IEM_DS3505
ZGNN,1997-10-12 10:00,ZGNN 121000Z AUTO 34004KT 6SM 23/23 A3000 RMK SLP147 T02300230 IEM_DS3505
ZGNN,1997-10-12 11:00,ZGNN 121100Z AUTO 35004KT 4SM 23/22 A3000 RMK SLP147 T02300220 IEM_DS3505
ZGNN,1997-10-12 12:00,ZGNN 121200Z AUTO 02002KT 9SM 23/22 A3003 RMK 60008 SLP165 T02330220 52020 IEM_DS3505
ZGNN,1997-10-12 13:00,ZGNN 121300Z AUTO 32006KT 7SM 22/21 A3006 RMK SLP167 T02200210 IEM_DS3505
ZGNN,1997-10-12 15:00,ZGNN 121500Z AUTO 00000KT 9SM 23/22 A3008 RMK SLP175 T02270215 52010 IEM_DS3505
ZGNN,1997-10-12 18:00,ZGNN 121800Z AUTO 00000KT 9SM 22/21 A3005 RMK 60000 SLP161 T02250211 57013 IEM_DS3505
ZGNN,1997-10-12 21:00,ZGNN 122100Z AUTO 00000KT 9SM 23/21 A3004 RMK 70031 SLP159 T02260208 57003 IEM_DS3505
ZGNN,1997-10-12 22:00,ZGNN 122200Z AUTO 00000KT 7SM 22/21 A3003 RMK SLP157 T02200210 IEM_DS3505
ZGNN,1997-10-12 23:00,ZGNN 122300Z AUTO 00000KT 7SM 21/20 A3006 RMK SLP168 T02100200 IEM_DS3505
ZGNN,1997-10-13 00:00,ZGNN 130000Z AUTO 00000KT 6SM 22/21 A3006 RMK 60000 70028 SLP167 T02240209 52008 IEM_DS3505
ZGNN,1997-10-13 01:00,ZGNN 130100Z AUTO 00000KT 7SM 22/21 A3006 RMK SLP167 T02200210 IEM_DS3505
ZGNN,1997-10-13 02:00,ZGNN 130200Z AUTO 00000KT 7SM 23/21 A3006 RMK SLP167 T02300210 IEM_DS3505
ZGNN,1997-10-13 03:00,ZGNN 130300Z AUTO 00000KT 7SM 24/21 A3006 RMK SLP174 T02420213 52007 IEM_DS3505
ZGNN,1997-10-13 04:00,ZGNN 130400Z AUTO 00000KT 7SM 24/21 A3006 RMK SLP167 T02400210 IEM_DS3505
ZGNN,1997-10-13 05:00,ZGNN 130500Z AUTO 35004KT 4SM 24/21 A3003 RMK SLP157 T02400210 IEM_DS3505
ZGNN,1997-10-13 06:00,ZGNN 130600Z AUTO 00000KT 9SM 26/22 A3000 RMK SLP148 T02570215 57026 IEM_DS3505
ZGNN,1997-10-13 07:00,ZGNN 130700Z AUTO 00000KT 1 1/2SM 25/22 A2997 RMK SLP136 T02500220 IEM_DS3505
ZGNN,1997-10-13 08:00,ZGNN 130800Z AUTO 20004KT 2 1/2SM 25/22 A2994 RMK SLP126 T02500220 IEM_DS3505
ZGNN,1997-10-13 09:00,ZGNN 130900Z AUTO 00000KT 9SM 26/22 A2994 RMK SLP125 T02570218 57022 IEM_DS3505
ZGNN,1997-10-13 10:00,ZGNN 131000Z AUTO 00000KT 3SM 25/22 A2994 RMK SLP126 T02500220 IEM_DS3505
ZGNN,1997-10-13 11:00,ZGNN 131100Z AUTO 00000KT 3SM 24/22 A2994 RMK SLP126 T02400220 IEM_DS3505
ZGNN,1997-10-13 12:00,ZGNN 131200Z AUTO 00000KT 5SM 24/22 A2997 RMK SLP137 T02450224 52011 IEM_DS3505
ZGNN,1997-10-13 13:00,ZGNN 131300Z AUTO 00000KT 2 1/2SM 23/22 A2997 RMK SLP137 T02300220 IEM_DS3505
ZGNN,1997-10-13 15:00,ZGNN 131500Z AUTO 00000KT 7SM 24/22 A3000 RMK SLP148 T02390224 52011 IEM_DS3505
ZGNN,1997-10-13 18:00,ZGNN 131800Z AUTO 04002KT 7SM 24/23 A2997 RMK SLP137 T02370227 57010 IEM_DS3505
ZGNN,1997-10-13 21:00,ZGNN 132100Z AUTO 02002KT 7SM 24/23 A2994 RMK 70000 SLP131 T02370228 57006 IEM_DS3505
ZGNN,1997-10-13 22:00,ZGNN 132200Z AUTO 34006KT 1 1/4SM 23/22 A2994 RMK SLP127 T02300220 IEM_DS3505
ZGNN,1997-10-13 23:00,ZGNN 132300Z AUTO 00000KT 1 1/4SM 23/23 A2997 RMK SLP137 T02300230 IEM_DS3505
ZGNN,1997-10-14 00:00,ZGNN 140000Z AUTO 00000KT 5SM 24/23 A3000 RMK SLP145 T02400230 52013 IEM_DS3505
ZGNN,1997-10-14 01:00,ZGNN 140100Z AUTO 15004KT 1 1/4SM 24/23 A3000 RMK SLP147 T02400230 IEM_DS3505
ZGNN,1997-10-14 02:00,ZGNN 140200Z AUTO 23004KT 2 1/2SM 26/24 A3003 RMK SLP156 T02600240 IEM_DS3505
ZGNN,1997-10-14 03:00,ZGNN 140300Z AUTO 22006KT 7SM 28/24 A3003 RMK SLP151 T02780238 52007 IEM_DS3505
ZGNN,1997-10-14 04:00,ZGNN 140400Z AUTO 26004KT 7SM 28/24 A2997 RMK SLP135 T02800240 IEM_DS3505
ZGNN,1997-10-14 05:00,ZGNN 140500Z AUTO 00000KT 7SM 29/23 A2994 RMK SLP125 T02900230 IEM_DS3505
ZGNN,1997-10-14 06:00,ZGNN 140600Z AUTO 29002KT 11SM 31/23 A2991 RMK SLP112 T03100231 57038 IEM_DS3505
ZGNN,1997-10-14 07:00,ZGNN 140700Z AUTO 01006KT 7SM 30/23 A2988 RMK SLP105 T03000230 IEM_DS3505
ZGNN,1997-10-14 08:00,ZGNN 140800Z AUTO 00000KT 7SM 29/23 A2985 RMK SLP094 T02900230 IEM_DS3505
ZGNN,1997-10-14 09:00,ZGNN 140900Z AUTO 25004KT 16SM 31/21 A2985 RMK SLP093 T03120210 57019 IEM_DS3505
ZGNN,1997-10-14 10:00,ZGNN 141000Z AUTO 00000KT 7SM 26/20 A2988 RMK SLP106 T02600200 IEM_DS3505
ZGNN,1997-10-14 11:00,ZGNN 141100Z AUTO 00000KT 7SM 26/23 A2991 RMK SLP116 T02600230 IEM_DS3505
ZGNN,1997-10-14 12:00,ZGNN 141200Z AUTO 00000KT 7SM 25/23 A2991 RMK SLP116 T02500230 IEM_DS3505
ZGNN,1997-10-14 13:00,ZGNN 141300Z AUTO 04004KT 6SM 25/23 A2994 RMK SLP126 T02500230 IEM_DS3505
ZGNN,1997-10-14 15:00,ZGNN 141500Z AUTO 07004KT 12SM 25/22 A2996 RMK SLP134 T02460219 52016 IEM_DS3505
ZGNN,1997-10-14 18:00,ZGNN 141800Z AUTO 07002KT 12SM 24/22 A2995 RMK SLP128 T02440223 57005 IEM_DS3505
ZGNN,1997-10-14 21:00,ZGNN 142100Z AUTO 09002KT 12SM 24/23 A2991 RMK SLP119 T02400227 57009 IEM_DS3505
ZGNN,1997-10-14 22:00,ZGNN 142200Z AUTO 00000KT 7SM 23/23 A2994 RMK SLP127 T02300230 IEM_DS3505
ZGNN,1997-10-14 23:00,ZGNN 142300Z AUTO 00000KT 7SM 24/23 A2997 RMK SLP136 T02400230 IEM_DS3505
ZGNN,1997-10-15 00:00,ZGNN 150000Z AUTO 07002KT 9SM 25/23 A2997 RMK SLP142 T02500233 52022 IEM_DS3505
ZGNN,1997-10-15 01:00,ZGNN 150100Z AUTO 14004KT 7SM 27/23 A3000 RMK SLP146 T02700230 IEM_DS3505
ZGNN,1997-10-15 02:00,ZGNN 150200Z AUTO 21006KT 7SM 28/23 A3000 RMK SLP145 T02800230 IEM_DS3505
ZGNN,1997-10-15 03:00,ZGNN 150300Z AUTO 27002KT 12SM 28/23 A3000 RMK SLP154 T02840230 52012 IEM_DS3505
ZGNN,1997-10-15 04:00,ZGNN 150400Z AUTO 27004KT 7SM 30/21 A3000 RMK SLP145 T03000210 IEM_DS3505
ZGNN,1997-10-15 05:00,ZGNN 150500Z AUTO 12004KT 7SM 30/22 A2997 RMK SLP135 T03000220 IEM_DS3505
ZGNN,1997-10-15 06:00,ZGNN 150600Z AUTO 02002KT 19SM 30/22 A2991 RMK SLP122 T03000215 57031 IEM_DS3505
ZGNN,1997-10-15 07:00,ZGNN 150700Z AUTO 03004KT 7SM 31/22 A2988 RMK SLP104 T03100220 IEM_DS3505
ZGNN,1997-10-15 08:00,ZGNN 150800Z AUTO 08010KT 7SM 28/23 A2988 RMK SLP105 T02800230 IEM_DS3505
ZGNN,1997-10-15 09:00,ZGNN 150900Z AUTO 09004KT 19SM 30/23 A2988 RMK SLP111 T02950230 57012 IEM_DS3505
ZGNN,1997-10-15 10:00,ZGNN 151000Z AUTO 09006KT 7SM 27/23 A2988 RMK SLP105 T02700230 IEM_DS3505
ZGNN,1997-10-15 11:00,ZGNN 151100Z AUTO 10006KT 7SM 25/23 A2994 RMK SLP126 T02500230 IEM_DS3505
ZGNN,1997-10-15 12:00,ZGNN 151200Z AUTO 11004KT 12SM 26/22 A2997 RMK SLP135 T02600223 52024 IEM_DS3505
ZGNN,1997-10-15 13:00,ZGNN 151300Z AUTO 09004KT 7SM 24/22 A3000 RMK SLP147 T02400220 IEM_DS3505
ZGNN,1997-10-15 15:00,ZGNN 151500Z AUTO 16002KT 12SM 24/22 A3002 RMK SLP153 T02430222 52018 IEM_DS3505
ZGNN,1997-10-15 18:00,ZGNN 151800Z AUTO 00000KT 12SM 24/22 A3000 RMK SLP145 T02350217 57008 IEM_DS3505
ZGNN,1997-10-15 21:00,ZGNN 152100Z AUTO 00000KT 9SM 23/22 A3000 RMK SLP143 T02320222 57002 IEM_DS3505
ZGNN,1997-10-15 22:00,ZGNN 152200Z AUTO 03004KT 7SM 23/22 A3000 RMK SLP147 T02300220 IEM_DS3505
ZGNN,1997-10-15 23:00,ZGNN 152300Z AUTO 07004KT 7SM 23/22 A3003 RMK SLP157 T02300220 IEM_DS3505
ZGNN,1997-10-16 00:00,ZGNN 160000Z AUTO 07002KT 11SM 24/22 A3006 RMK SLP161 T02360218 52018 IEM_DS3505
ZGNN,1997-10-16 01:00,ZGNN 160100Z AUTO 08008KT 7SM 24/22 A3006 RMK SLP167 T02400220 IEM_DS3505
ZGNN,1997-10-16 02:00,ZGNN 160200Z AUTO 06008KT 7SM 26/22 A3006 RMK SLP166 T02600220 IEM_DS3505
ZGNN,1997-10-16 03:00,ZGNN 160300Z AUTO 07004KT 12SM 26/22 A3009 RMK SLP173 T02590224 52011 IEM_DS3505
ZGNN,1997-10-16 04:00,ZGNN 160400Z AUTO 07004KT 7SM 28/22 A3006 RMK SLP166 T02800220 IEM_DS3505
ZGNN,1997-10-16 05:00,ZGNN 160500Z AUTO 06006KT 7SM 29/22 A3003 RMK SLP155 T02900220 IEM_DS3505
ZGNN,1997-10-16 06:00,ZGNN 160600Z AUTO 00000KT 19SM 29/21 A3000 RMK SLP145 T02930210 57027 IEM_DS3505
ZGNN,1997-10-16 07:00,ZGNN 160700Z AUTO 03004KT 7SM 30/22 A2997 RMK SLP135 T03000220 IEM_DS3505
ZGNN,1997-10-16 08:00,ZGNN 160800Z AUTO 34004KT 7SM 29/22 A2994 RMK SLP125 T02900220 IEM_DS3505
ZGNN,1997-10-16 09:00,ZGNN 160900Z AUTO 00000KT 19SM 29/22 A2994 RMK SLP132 T02940219 57013 IEM_DS3505
ZGNN,1997-10-16 10:00,ZGNN 161000Z AUTO 12006KT 7SM 28/22 A2997 RMK SLP135 T02800220 IEM_DS3505
ZGNN,1997-10-16 11:00,ZGNN 161100Z AUTO 16006KT 7SM 26/23 A3000 RMK SLP146 T02600230 IEM_DS3505
ZGNN,1997-10-16 12:00,ZGNN 161200Z AUTO 16002KT 17SM 26/22 A3003 RMK SLP157 T02620225 52025 IEM_DS3505
ZGNN,1997-10-16 13:00,ZGNN 161300Z AUTO 00000KT 6SM 24/23 A3006 RMK SLP167 T02400230 IEM_DS3505
ZGNN,1997-10-16 15:00,ZGNN 161500Z AUTO 00000KT 14SM 25/23 A3007 RMK SLP168 T02500226 52011 IEM_DS3505
ZGNN,1997-10-16 18:00,ZGNN 161800Z AUTO 04002KT 12SM 25/23 A3004 RMK SLP158 T02460228 57010 IEM_DS3505
ZGNN,1997-10-16 21:00,ZGNN 162100Z AUTO 00000KT 11SM 24/23 A3003 RMK SLP155 T02450230 57003 IEM_DS3505
ZGNN,1997-10-16 22:00,ZGNN 162200Z AUTO 00000KT 7SM 23/22 A3003 RMK SLP157 T02300220 IEM_DS3505
ZGNN,1997-10-16 23:00,ZGNN 162300Z AUTO 00000KT 5SM 23/22 A3006 RMK SLP167 T02300220 IEM_DS3505
ZGNN,1997-10-17 00:00,ZGNN 170000Z AUTO 00000KT 7SM 25/22 A3009 RMK SLP177 T02490224 52022 IEM_DS3505
ZGNN,1997-10-17 01:00,ZGNN 170100Z AUTO 00000KT 4SM 25/23 A3009 RMK SLP177 T02500230 IEM_DS3505
ZGNN,1997-10-17 02:00,ZGNN 170200Z AUTO 28002KT 3SM 24/23 A3012 RMK SLP187 T02400230 IEM_DS3505
ZGNN,1997-10-17 03:00,ZGNN 170300Z AUTO 34004KT 10SM 27/23 A3012 RMK SLP187 T02710226 52010 IEM_DS3505
ZGNN,1997-10-17 04:00,ZGNN 170400Z AUTO 07004KT 7SM 29/23 A3009 RMK SLP175 T02900230 IEM_DS3505
ZGNN,1997-10-17 05:00,ZGNN 170500Z AUTO 10004KT 7SM 28/23 A3006 RMK SLP166 T02800230 IEM_DS3505
ZGNN,1997-10-17 06:00,ZGNN 170600Z AUTO 04004KT 14SM 29/22 A3003 RMK SLP152 T02930216 57035 IEM_DS3505
ZGNN,1997-10-17 07:00,ZGNN 170700Z AUTO 11006KT 7SM 26/23 A3003 RMK SLP156 T02600230 IEM_DS3505
ZGNN,1997-10-17 09:00,ZGNN 170900Z AUTO 04004KT 17SM 27/24 A3000 RMK SLP146 T02660239 57006 IEM_DS3505
ZGNN,1997-10-17 10:00,ZGNN 171000Z AUTO 09004KT 6SM 26/22 A3000 RMK SLP146 T02600220 IEM_DS3505
ZGNN,1997-10-17 11:00,ZGNN 171100Z AUTO 00000KT 7SM 25/23 A3003 RMK SLP156 T02500230 IEM_DS3505
ZGNN,1997-10-17 12:00,ZGNN 171200Z AUTO 09002KT 14SM 25/23 A3006 RMK 60012 SLP165 T02500226 52019 IEM_DS3505
ZGNN,1997-10-17 13:00,ZGNN 171300Z AUTO 00000KT 7SM 24/23 A3009 RMK SLP177 T02400230 IEM_DS3505
ZGNN,1997-10-17 15:00,ZGNN 171500Z AUTO 04002KT 12SM 24/22 A3009 RMK SLP176 T02430219 52011 IEM_DS3505
ZGNN,1997-10-17 18:00,ZGNN 171800Z AUTO 00000KT 12SM 24/22 A3007 RMK SLP168 T02390221 57008 IEM_DS3505
ZGNN,1997-10-17 21:00,ZGNN 172100Z AUTO 00000KT 11SM 24/22 A3003 RMK 70012 SLP156 T02380220 57012 IEM_DS3505
ZGNN,1997-10-17 22:00,ZGNN 172200Z AUTO 00000KT 4SM 23/22 A3003 RMK SLP157 T02300220 IEM_DS3505
ZGNN,1997-10-17 23:00,ZGNN 172300Z AUTO 00000KT 4SM 23/22 A3006 RMK SLP167 T02300220 IEM_DS3505
ZGNN,1997-10-18 00:00,ZGNN 180000Z AUTO 00000KT 6SM 24/22 A3006 RMK 70012 SLP170 T02430219 52013 IEM_DS3505
ZGNN,1997-10-18 01:00,ZGNN 180100Z AUTO 02004KT 3SM 24/22 A3009 RMK SLP177 T02400220 IEM_DS3505
ZGNN,1997-10-18 02:00,ZGNN 180200Z AUTO 00000KT 4SM 25/22 A3012 RMK SLP187 T02500220 IEM_DS3505
ZGNN,1997-10-18 03:00,ZGNN 180300Z AUTO 00000KT 8SM 27/22 A3009 RMK SLP179 T02680216 52010 IEM_DS3505
ZGNN,1997-10-18 04:00,ZGNN 180400Z AUTO 00000KT 4SM 27/22 A3006 RMK SLP166 T02700220 IEM_DS3505
ZGNN,1997-10-18 05:00,ZGNN 180500Z AUTO 00000KT 7SM 28/22 A3003 RMK SLP155 T02800220 IEM_DS3505
ZGNN,1997-10-18 06:00,ZGNN 180600Z AUTO 07006KT 11SM 29/22 A3000 RMK SLP149 T02910219 57030 IEM_DS3505
ZGNN,1997-10-18 07:00,ZGNN 180700Z AUTO 30004KT 7SM 29/22 A2997 RMK SLP135 T02900220 IEM_DS3505
ZGNN,1997-10-18 08:00,ZGNN 180800Z AUTO 03008KT 7SM 28/22 A2997 RMK SLP135 T02800220 IEM_DS3505
ZGNN,1997-10-18 09:00,ZGNN 180900Z AUTO 04004KT 12SM 28/22 A2997 RMK SLP133 T02850217 57016 IEM_DS3505
ZGNN,1997-10-18 10:00,ZGNN 181000Z AUTO 35004KT 7SM 27/22 A2997 RMK SLP136 T02700220 IEM_DS3505
ZGNN,1997-10-18 11:00,ZGNN 181100Z AUTO 02002KT 7SM 25/22 A2997 RMK SLP136 T02500220 IEM_DS3505
ZGNN,1997-10-18 12:00,ZGNN 181200Z AUTO 00000KT 12SM 26/23 A3000 RMK SLP143 T02620227 52010 IEM_DS3505
ZGNN,1997-10-18 13:00,ZGNN 181300Z AUTO 36004KT 6SM 24/23 A3000 RMK SLP147 T02400230 IEM_DS3505
ZGNN,1997-10-18 15:00,ZGNN 181500Z AUTO 36002KT 11SM 25/23 A3004 RMK SLP159 T02480226 52016 IEM_DS3505
ZGNN,1997-10-18 18:00,ZGNN 181800Z AUTO 00000KT 9SM 24/22 A3002 RMK SLP151 T02390221 57008 IEM_DS3505
ZGNN,1997-10-18 21:00,ZGNN 182100Z AUTO 00000KT 9SM 23/22 A2997 RMK SLP144 T02310219 57007 IEM_DS3505
ZGNN,1997-10-18 22:00,ZGNN 182200Z AUTO 35004KT 1 1/4SM 22/21 A3000 RMK SLP147 T02200210 IEM_DS3505
ZGNN,1997-10-18 23:00,ZGNN 182300Z AUTO 34004KT 1 1/4SM 22/21 A3003 RMK SLP157 T02200210 IEM_DS3505
ZGNN,1997-10-19 00:00,ZGNN 190000Z AUTO 00000KT 4SM 23/22 A3003 RMK SLP159 T02340221 52015 IEM_DS3505
ZGNN,1997-10-19 01:00,ZGNN 190100Z AUTO 07004KT 1SM 24/23 A3006 RMK SLP167 T02400230 IEM_DS3505
ZGNN,1997-10-19 02:00,ZGNN 190200Z AUTO 00000KT 1 1/4SM 26/23 A3006 RMK SLP166 T02600230 IEM_DS3505
ZGNN,1997-10-19 03:00,ZGNN 190300Z AUTO 09002KT 7SM 28/23 A3003 RMK SLP161 T02790230 52002 IEM_DS3505
ZGNN,1997-10-19 04:00,ZGNN 190400Z AUTO 15008KT 5SM 28/23 A3003 RMK SLP155 T02800230 IEM_DS3505
ZGNN,1997-10-19 05:00,ZGNN 190500Z AUTO 17006KT 7SM 30/23 A3000 RMK SLP145 T03000230 IEM_DS3505
ZGNN,1997-10-19 06:00,ZGNN 190600Z AUTO 20004KT 12SM 30/22 A2994 RMK SLP128 T03020220 57033 IEM_DS3505
ZGNN,1997-10-19 07:00,ZGNN 190700Z AUTO 23004KT 7SM 31/22 A2991 RMK SLP114 T03100220 IEM_DS3505
ZGNN,1997-10-19 08:00,ZGNN 190800Z AUTO 00000KT 7SM 31/22 A2991 RMK SLP114 T03100220 IEM_DS3505
ZGNN,1997-10-19 09:00,ZGNN 190900Z AUTO 00000KT 14SM 30/22 A2991 RMK SLP115 T03030221 57013 IEM_DS3505
ZGNN,1997-10-19 10:00,ZGNN 191000Z AUTO 00000KT 6SM 29/22 A2991 RMK SLP115 T02900220 IEM_DS3505
ZGNN,1997-10-19 11:00,ZGNN 191100Z AUTO 15006KT 7SM 27/23 A2991 RMK SLP115 T02700230 IEM_DS3505
ZGNN,1997-10-19 12:00,ZGNN 191200Z AUTO 00000KT 11SM 28/23 A2994 RMK SLP124 T02790231 52009 IEM_DS3505
ZGNN,1997-10-19 13:00,ZGNN 191300Z AUTO 00000KT 6SM 25/23 A2994 RMK SLP126 T02500230 IEM_DS3505
ZGNN,1997-10-19 14:00,ZGNN 191400Z AUTO 00000KT 6SM 25/23 A2997 RMK SLP136 T02500230 IEM_DS3505
ZGNN,1997-10-19 15:00,ZGNN 191500Z AUTO 00000KT 11SM 26/23 A2997 RMK SLP135 T02580233 52011 IEM_DS3505
ZGNN,1997-10-19 18:00,ZGNN 191800Z AUTO 02002KT 11SM 24/23 A2996 RMK SLP133 T02450230 57002 IEM_DS3505
ZGNN,1997-10-19 21:00,ZGNN 192100Z AUTO 07004KT 6SM 24/23 A2994 RMK SLP131 T02390227 57002 IEM_DS3505
ZGNN,1997-10-19 22:00,ZGNN 192200Z AUTO 00000KT 1SM 22/21 A2997 RMK SLP137 T02200210 IEM_DS3505
ZGNN,1997-10-19 23:00,ZGNN 192300Z AUTO 00000KT 1 1/4SM 22/22 A3000 RMK SLP147 T02200220 IEM_DS3505
ZGNN,1997-10-20 00:00,ZGNN 200000Z AUTO 04002KT 9SM 24/20 A3003 RMK SLP156 T02350198 52025 IEM_DS3505
ZGNN,1997-10-20 01:00,ZGNN 200100Z AUTO 35004KT 7SM RMK IEM_DS3505
ZGNN,1997-10-20 02:00,ZGNN 200200Z AUTO 34006KT 7SM 21/20 A3006 RMK SLP168 T02100200 IEM_DS3505
ZGNN,1997-10-20 03:00,ZGNN 200300Z AUTO 00000KT 10SM 23/21 A3003 RMK SLP160 T02310207 52003 IEM_DS3505
ZGNN,1997-10-20 04:00,ZGNN 200400Z AUTO 32004KT 7SM 23/21 A3003 RMK SLP157 T02300210 IEM_DS3505
ZGNN,1997-10-20 05:00,ZGNN 200500Z AUTO 32006KT 7SM 24/21 A3000 RMK SLP147 T02400210 IEM_DS3505
ZGNN,1997-10-20 06:00,ZGNN 200600Z AUTO 29004KT 9SM 27/21 A2994 RMK 60004 SLP128 T02670210 57031 IEM_DS3505
ZGNN,1997-10-20 07:00,ZGNN 200700Z AUTO 34006KT 7SM 27/21 A2991 RMK SLP115 T02700210 IEM_DS3505
ZGNN,1997-10-20 08:00,ZGNN 200800Z AUTO 33006KT 6SM 27/21 A2991 RMK SLP115 T02700210 IEM_DS3505
ZGNN,1997-10-20 09:00,ZGNN 200900Z AUTO 34004KT 11SM 28/20 A2991 RMK SLP116 T02850204 57012 IEM_DS3505
ZGNN,1997-10-20 11:00,ZGNN 201100Z AUTO 00000KT 6SM 25/22 A2994 RMK SLP126 T02500220 IEM_DS3505
ZGNN,1997-10-20 12:00,ZGNN 201200Z AUTO 25002KT 12SM 26/22 A2994 RMK SLP131 T02590216 52015 IEM_DS3505
ZGNN,1997-10-20 13:00,ZGNN 201300Z AUTO 00000KT 6SM 22/21 A2997 RMK SLP137 T02200210 IEM_DS3505
ZGNN,1997-10-20 15:00,ZGNN 201500Z AUTO 00000KT 9SM 24/22 A2999 RMK SLP141 T02430222 52009 IEM_DS3505
ZGNN,1997-10-20 18:00,ZGNN 201800Z AUTO 00000KT 7SM 23/22 A2995 RMK SLP130 T02290219 57010 IEM_DS3505
ZGNN,1997-10-20 21:00,ZGNN 202100Z AUTO 22004KT 7SM 23/22 A2994 RMK 70004 SLP125 T02280218 57005 IEM_DS3505
ZGNN,1997-10-20 23:00,ZGNN 202300Z AUTO 00000KT 2SM 21/20 A2997 RMK SLP137 T02100200 IEM_DS3505
ZGNN,1997-10-21 00:00,ZGNN 210000Z AUTO 20004KT 6SM 23/21 A2997 RMK 70004 SLP139 T02290214 52014 IEM_DS3505
ZGNN,1997-10-21 01:00,ZGNN 210100Z AUTO 00000KT 4SM 23/22 A3000 RMK SLP147 T02300220 IEM_DS3505
ZGNN,1997-10-21 02:00,ZGNN 210200Z AUTO 33006KT 6SM 26/21 A3000 RMK SLP146 T02600210 IEM_DS3505
ZGNN,1997-10-21 03:00,ZGNN 210300Z AUTO 29004KT 8SM 28/22 A2997 RMK SLP139 T02750216 54000 IEM_DS3505
ZGNN,1997-10-21 04:00,ZGNN 210400Z AUTO 33010KT 7SM 29/21 A2994 RMK SLP125 T02900210 IEM_DS3505
ZGNN,1997-10-21 05:00,ZGNN 210500Z AUTO 31006KT 7SM 30/21 A2991 RMK SLP115 T03000210 IEM_DS3505
ZGNN,1997-10-21 06:00,ZGNN 210600Z AUTO 36004KT 9SM 30/20 A2988 RMK SLP102 T03050203 57036 IEM_DS3505
ZGNN,1997-10-21 07:00,ZGNN 210700Z AUTO 01004KT 7SM 30/20 A2985 RMK SLP093 T03000200 IEM_DS3505
ZGNN,1997-10-21 08:00,ZGNN 210800Z AUTO 33004KT 7SM 30/20 A2985 RMK SLP093 T03000200 IEM_DS3505
ZGNN,1997-10-21 09:00,ZGNN 210900Z AUTO 00000KT 9SM 30/21 A2985 RMK SLP096 T03040211 57006 IEM_DS3505
ZGNN,1997-10-21 10:00,ZGNN 211000Z AUTO 00000KT 7SM 29/21 A2985 RMK SLP094 T02900210 IEM_DS3505
ZGNN,1997-10-21 11:00,ZGNN 211100Z AUTO 36004KT 6SM 25/22 A2985 RMK SLP095 T02500220 IEM_DS3505
ZGNN,1997-10-21 12:00,ZGNN 211200Z AUTO 00000KT 12SM 26/22 A2988 RMK SLP106 T02600215 52009 IEM_DS3505
ZGNN,1997-10-21 13:00,ZGNN 211300Z AUTO 35004KT 6SM 23/21 A2988 RMK SLP107 T02300210 IEM_DS3505
ZGNN,1997-10-21 14:00,ZGNN 211400Z AUTO 36004KT 6SM 23/21 A2988 RMK SLP107 T02300210 IEM_DS3505
ZGNN,1997-10-21 15:00,ZGNN 211500Z AUTO 00000KT 11SM 25/22 A2990 RMK SLP111 T02470223 52005 IEM_DS3505
ZGNN,1997-10-21 18:00,ZGNN 211800Z AUTO 00000KT 11SM 24/22 A2986 RMK SLP097 T02360220 57013 IEM_DS3505
ZGNN,1997-10-21 21:00,ZGNN 212100Z AUTO 00000KT 7SM 23/21 A2985 RMK SLP098 T02270213 52001 IEM_DS3505
ZGNN,1997-10-22 00:00,ZGNN 220000Z AUTO 07002KT 9SM 23/21 A2991 RMK SLP114 T02280213 52015 IEM_DS3505
ZGNN,1997-10-22 03:00,ZGNN 220300Z AUTO 00000KT 9SM 28/23 A2992 RMK SLP118 T02760230 52004 IEM_DS3505
ZGNN,1997-10-22 04:00,ZGNN 220400Z AUTO 23006KT 7SM 30/23 A2988 RMK SLP105 T03000230 IEM_DS3505
ZGNN,1997-10-22 05:00,ZGNN 220500Z AUTO 25004KT 7SM 31/22 A2985 RMK SLP093 T03100220 IEM_DS3505
ZGNN,1997-10-22 06:00,ZGNN 220600Z AUTO 22004KT 12SM 31/23 A2983 RMK SLP091 T03130226 57026 IEM_DS3505
ZGNN,1997-10-22 07:00,ZGNN 220700Z AUTO 26004KT 7SM 32/22 A2980 RMK SLP077 T03200220 IEM_DS3505
ZGNN,1997-10-22 08:00,ZGNN 220800Z AUTO 00000KT 7SM 32/22 A2980 RMK SLP077 T03200220 IEM_DS3505
ZGNN,1997-10-22 09:00,ZGNN 220900Z AUTO 11004KT 12SM 31/23 A2980 RMK SLP078 T03110231 57013 IEM_DS3505
ZGNN,1997-10-22 10:00,ZGNN 221000Z AUTO 12006KT 7SM 28/23 A2980 RMK SLP078 T02800230 IEM_DS3505
ZGNN,1997-10-22 11:00,ZGNN 221100Z AUTO 13004KT 7SM 27/23 A2980 RMK SLP078 T02700230 IEM_DS3505
ZGNN,1997-10-22 12:00,ZGNN 221200Z AUTO 25004KT 11SM 28/22 A2983 RMK SLP089 T02810224 52010 IEM_DS3505
ZGNN,1997-10-22 13:00,ZGNN 221300Z AUTO 00000KT 6SM 25/23 A2985 RMK SLP095 T02500230 IEM_DS3505
ZGNN,1997-10-22 15:00,ZGNN 221500Z AUTO 09002KT 11SM 26/23 A2987 RMK SLP101 T02590230 52013 IEM_DS3505
ZGNN,1997-10-22 18:00,ZGNN 221800Z AUTO 07002KT 10SM 25/23 A2988 RMK SLP103 T02510229 52002 IEM_DS3505
ZGNN,1997-10-22 21:00,ZGNN 222100Z AUTO 07002KT 9SM 24/23 A2988 RMK SLP102 T02440228 57001 IEM_DS3505
ZGNN,1997-10-22 22:00,ZGNN 222200Z AUTO 00000KT 7SM 25/24 A2988 RMK SLP106 T02500240 IEM_DS3505
ZGNN,1997-10-22 23:00,ZGNN 222300Z AUTO 17004KT 7SM 24/23 A2988 RMK SLP106 T02400230 IEM_DS3505
ZGNN,1997-10-23 00:00,ZGNN 230000Z AUTO 00000KT 7SM 25/23 A2991 RMK SLP120 T02500230 52017 IEM_DS3505
ZGNN,1997-10-23 01:00,ZGNN 230100Z AUTO 17006KT 7SM 26/24 A2994 RMK SLP126 T02600240 IEM_DS3505
ZGNN,1997-10-23 02:00,ZGNN 230200Z AUTO 15006KT 7SM 27/23 A2997 RMK SLP136 T02700230 IEM_DS3505
ZGNN,1997-10-23 03:00,ZGNN 230300Z AUTO 00000KT 12SM 28/24 A2994 RMK SLP130 T02840237 52010 IEM_DS3505
ZGNN,1997-10-23 04:00,ZGNN 230400Z AUTO 17004KT 7SM 29/23 A2994 RMK SLP125 T02900230 IEM_DS3505
ZGNN,1997-10-23 05:00,ZGNN 230500Z AUTO 19004KT 7SM 31/22 A2991 RMK SLP114 T03100220 IEM_DS3505
ZGNN,1997-10-23 06:00,ZGNN 230600Z AUTO 20002KT 17SM 32/23 A2988 RMK SLP104 T03150233 57024 IEM_DS3505
ZGNN,1997-10-23 07:00,ZGNN 230700Z AUTO 23004KT 7SM 33/22 A2985 RMK SLP093 T03300220 IEM_DS3505
ZGNN,1997-10-23 08:00,ZGNN 230800Z AUTO 07006KT 7SM 32/22 A2985 RMK SLP093 T03200220 IEM_DS3505
ZGNN,1997-10-23 09:00,ZGNN 230900Z AUTO 00000KT 19SM 32/22 A2985 RMK SLP097 T03150219 57008 IEM_DS3505
ZGNN,1997-10-23 10:00,ZGNN 231000Z AUTO 15006KT 6SM 29/23 A2988 RMK SLP105 T02900230 IEM_DS3505
ZGNN,1997-10-23 11:00,ZGNN 231100Z AUTO 14002KT 6SM 27/24 A2988 RMK SLP105 T02700240 IEM_DS3505
ZGNN,1997-10-23 12:00,ZGNN 231200Z AUTO 00000KT 16SM 28/24 A2991 RMK SLP116 T02840237 52018 IEM_DS3505
ZGNN,1997-10-23 13:00,ZGNN 231300Z AUTO 12002KT 6SM 26/24 A2994 RMK SLP126 T02600240 IEM_DS3505
ZGNN,1997-10-23 15:00,ZGNN 231500Z AUTO 04002KT 12SM 27/23 A2997 RMK SLP136 T02660234 52020 IEM_DS3505
ZGNN,1997-10-23 18:00,ZGNN 231800Z AUTO 04004KT 12SM 26/24 A2996 RMK SLP131 T02580236 57004 IEM_DS3505
ZGNN,1997-10-23 21:00,ZGNN 232100Z AUTO 04002KT 9SM 25/23 A2997 RMK SLP137 T02470231 52006 IEM_DS3505
ZGNN,1997-10-23 22:00,ZGNN 232200Z AUTO 00000KT 4SM 24/23 A3000 RMK SLP147 T02400230 IEM_DS3505
ZGNN,1997-10-23 23:00,ZGNN 232300Z AUTO 00000KT 3SM 24/23 A3000 RMK SLP147 T02400230 IEM_DS3505
ZGNN,1997-10-24 00:00,ZGNN 240000Z AUTO 09004KT 6SM 25/24 A3003 RMK SLP161 T02520236 52023 IEM_DS3505
ZGNN,1997-10-24 01:00,ZGNN 240100Z AUTO 00000KT 2 1/2SM 25/24 A3006 RMK SLP166 T02500240 IEM_DS3505
ZGNN,1997-10-24 02:00,ZGNN 240200Z AUTO 12006KT 5SM 27/24 A3006 RMK SLP166 T02700240 IEM_DS3505
ZGNN,1997-10-24 03:00,ZGNN 240300Z AUTO 14002KT 7SM 29/24 A3006 RMK SLP170 T02930240 52009 IEM_DS3505
ZGNN,1997-10-24 04:00,ZGNN 240400Z AUTO 21006KT 7SM 30/24 A3006 RMK SLP165 T03000240 IEM_DS3505
ZGNN,1997-10-24 05:00,ZGNN 240500Z AUTO 18006KT 7SM 31/23 A3003 RMK SLP155 T03100230 IEM_DS3505
ZGNN,1997-10-24 06:00,ZGNN 240600Z AUTO 20002KT 12SM 30/23 A2997 RMK SLP141 T02990230 57028 IEM_DS3505
ZGNN,1997-10-24 07:00,ZGNN 240700Z AUTO 18010KT 7SM 33/22 A2997 RMK SLP134 T03300220 IEM_DS3505
ZGNN,1997-10-24 08:00,ZGNN 240800Z AUTO 16006KT 7SM 31/22 A2994 RMK SLP124 T03100220 IEM_DS3505
ZGNN,1997-10-24 09:00,ZGNN 240900Z AUTO 14002KT 16SM 32/22 A2997 RMK SLP130 T03180224 57011 IEM_DS3505
ZGNN,1997-10-24 10:00,ZGNN 241000Z AUTO 12006KT 7SM 29/22 A2997 RMK SLP135 T02900220 IEM_DS3505
ZGNN,1997-10-24 11:00,ZGNN 241100Z AUTO 15004KT 6SM 27/22 A2997 RMK SLP136 T02700220 IEM_DS3505
ZGNN,1997-10-24 12:00,ZGNN 241200Z AUTO 20006KT 14SM 28/22 A3000 RMK SLP146 T02830215 52015 IEM_DS3505
ZGNN,1997-10-24 13:00,ZGNN 241300Z AUTO 00000KT 6SM 25/21 A3003 RMK SLP156 T02500210 IEM_DS3505
ZGNN,1997-10-24 15:00,ZGNN 241500Z AUTO 00000KT 12SM 26/22 A3004 RMK SLP159 T02600217 52013 IEM_DS3505
ZGNN,1997-10-24 18:00,ZGNN 241800Z AUTO 02002KT 12SM 25/23 A3003 RMK SLP156 T02460228 57003 IEM_DS3505
ZGNN,1997-10-24 21:00,ZGNN 242100Z AUTO 02004KT 10SM 24/22 A3003 RMK SLP158 T02420224 52002 IEM_DS3505
ZGNN,1997-10-24 22:00,ZGNN 242200Z AUTO 12004KT 4SM 24/23 A3003 RMK SLP157 T02400230 IEM_DS3505
ZGNN,1997-10-24 23:00,ZGNN 242300Z AUTO 12004KT 1 1/4SM 24/24 A3006 RMK SLP167 T02400240 IEM_DS3505
ZGNN,1997-10-25 00:00,ZGNN 250000Z AUTO 07004KT 8SM 24/23 A3009 RMK SLP176 T02430228 52018 IEM_DS3505
ZGNN,1997-10-25 01:00,ZGNN 250100Z AUTO 12008KT 7SM 26/24 A3009 RMK SLP176 T02600240 IEM_DS3505
ZGNN,1997-10-25 02:00,ZGNN 250200Z AUTO 18008KT 7SM 27/23 A3009 RMK SLP176 T02700230 IEM_DS3505
ZGNN,1997-10-25 03:00,ZGNN 250300Z AUTO 22002KT 9SM 29/23 A3009 RMK SLP179 T02860231 52003 IEM_DS3505
ZGNN,1997-10-25 04:00,ZGNN 250400Z AUTO 17010KT 7SM 30/22 A3006 RMK SLP165 T03000220 IEM_DS3505
ZGNN,1997-10-25 06:00,ZGNN 250600Z AUTO 20006KT 14SM 31/22 A3000 RMK SLP146 T03100224 57033 IEM_DS3505
ZGNN,1997-10-25 09:00,ZGNN 250900Z AUTO 25002KT 16SM 30/22 A2997 RMK SLP136 T03030225 57010 IEM_DS3505
ZGNN,1997-10-25 11:00,ZGNN 251100Z AUTO 13006KT 6SM 26/21 A3000 RMK SLP146 T02600210 IEM_DS3505
ZGNN,1997-10-25 12:00,ZGNN 251200Z AUTO 22002KT 16SM 27/21 A3003 RMK SLP155 T02710208 52019 IEM_DS3505
ZGNN,1997-10-25 13:00,ZGNN 251300Z AUTO 00000KT 6SM 25/22 A3006 RMK SLP166 T02500220 IEM_DS3505
ZGNN,1997-10-25 15:00,ZGNN 251500Z AUTO 04002KT 16SM 25/21 A3007 RMK SLP169 T02530214 52014 IEM_DS3505
ZGNN,1997-10-25 18:00,ZGNN 251800Z AUTO 04002KT 12SM 24/22 A3006 RMK T02420220 57002 IEM_DS3505
ZGNN,1997-10-25 21:00,ZGNN 252100Z AUTO 02002KT 9SM 23/22 A3006 RMK SLP170 T02340216 52003 IEM_DS3505
ZGNN,1997-10-25 23:00,ZGNN 252300Z AUTO 00000KT 2 1/2SM 22/21 A3009 RMK SLP177 T02200210 IEM_DS3505
ZGNN,1997-10-26 00:00,ZGNN 260000Z AUTO 02004KT 7SM 24/22 A3012 RMK SLP190 T02350217 52019 IEM_DS3505
ZGNN,1997-10-26 01:00,ZGNN 260100Z AUTO 00000KT 3SM 24/23 A3015 RMK SLP197 T02400230 IEM_DS3505
ZGNN,1997-10-26 02:00,ZGNN 260200Z AUTO 00000KT 5SM 25/23 A3015 RMK SLP197 T02500230 IEM_DS3505
ZGNN,1997-10-26 03:00,ZGNN 260300Z AUTO 16004KT 9SM 28/22 A3015 RMK SLP197 T02790217 52008 IEM_DS3505
ZGNN,1997-10-26 04:00,ZGNN 260400Z AUTO 13008KT 7SM 29/22 A3012 RMK SLP185 T02900220 IEM_DS3505
ZGNN,1997-10-26 05:00,ZGNN 260500Z AUTO 14008KT 7SM 30/20 A3009 RMK SLP175 T03000200 IEM_DS3505
ZGNN,1997-10-26 06:00,ZGNN 260600Z AUTO 09004KT 11SM 30/21 A3006 RMK SLP170 T02990206 57027 IEM_DS3505
ZGNN,1997-10-26 07:00,ZGNN 260700Z AUTO 12006KT 7SM 30/19 A3006 RMK SLP165 T03000190 IEM_DS3505
ZGNN,1997-10-26 08:00,ZGNN 260800Z AUTO 05012KT 7SM 29/19 A3003 RMK SLP155 T02900190 IEM_DS3505
ZGNN,1997-10-26 09:00,ZGNN 260900Z AUTO 04010KT 12SM 24/18 A3006 RMK SLP177 T02380176 52006 IEM_DS3505
ZGNN,1997-10-26 10:00,ZGNN 261000Z AUTO 04010KT 7SM 22/17 A3009 RMK SLP177 T02200170 IEM_DS3505
ZGNN,1997-10-26 11:00,ZGNN 261100Z AUTO 03006KT 7SM 21/15 A3012 RMK SLP188 T02100150 IEM_DS3505
ZGNN,1997-10-26 12:00,ZGNN 261200Z AUTO 04004KT 14SM 19/13 A3018 RMK SLP211 T01920134 52033 IEM_DS3505
ZGNN,1997-10-26 13:00,ZGNN 261300Z AUTO 04010KT 7SM 18/14 A3021 RMK SLP219 T01800140 IEM_DS3505
ZGNN,1997-10-26 15:00,ZGNN 261500Z AUTO 11002KT 14SM 19/13 A3024 RMK SLP229 T01880132 52019 IEM_DS3505
ZGNN,1997-10-26 18:00,ZGNN 261800Z AUTO 04004KT 12SM 18/12 A3025 RMK SLP232 T01810124 52003 IEM_DS3505
ZGNN,1997-10-26 21:00,ZGNN 262100Z AUTO 36004KT 12SM 18/11 A3024 RMK SLP235 T01750110 52002 IEM_DS3505
ZGNN,1997-10-26 22:00,ZGNN 262200Z AUTO 34006KT 7SM 17/12 A3027 RMK SLP240 T01700120 IEM_DS3505
ZGNN,1997-10-26 23:00,ZGNN 262300Z AUTO 34010KT 7SM 16/12 A3030 RMK SLP251 T01600120 IEM_DS3505
ZGNN,1997-10-27 00:00,ZGNN 270000Z AUTO 36006KT 12SM 16/12 A3030 RMK SLP257 T01630119 52021 IEM_DS3505
ZGNN,1997-10-27 01:00,ZGNN 270100Z AUTO 34008KT 7SM 14/13 A3033 RMK SLP262 T01400130 IEM_DS3505
ZGNN,1997-10-27 02:00,ZGNN 270200Z AUTO 01006KT 7SM 17/13 A3033 RMK SLP261 T01700130 IEM_DS3505
ZGNN,1997-10-27 03:00,ZGNN 270300Z AUTO 34006KT 17SM 18/12 A3033 RMK SLP260 T01750117 52003 IEM_DS3505
ZGNN,1997-10-27 04:00,ZGNN 270400Z AUTO 35008KT 7SM 17/12 A3030 RMK SLP251 T01700120 IEM_DS3505
ZGNN,1997-10-27 05:00,ZGNN 270500Z AUTO 33010KT 7SM 17/11 A3027 RMK SLP240 T01700110 IEM_DS3505
ZGNN,1997-10-27 06:00,ZGNN 270600Z AUTO 07002KT 16SM 18/11 A3027 RMK SLP237 T01770113 57023 IEM_DS3505
ZGNN,1997-10-27 07:00,ZGNN 270700Z AUTO 35008KT 7SM 17/12 A3024 RMK SLP229 T01700120 IEM_DS3505
ZGNN,1997-10-27 08:00,ZGNN 270800Z AUTO 34010KT 7SM 17/11 A3024 RMK SLP229 T01700110 IEM_DS3505
ZGNN,1997-10-27 09:00,ZGNN 270900Z AUTO 34004KT 12SM 17/11 A3024 RMK SLP238 T01730112 52001 IEM_DS3505
ZGNN,1997-10-27 10:00,ZGNN 271000Z AUTO 36008KT 7SM 16/11 A3027 RMK SLP241 T01600110 IEM_DS3505
ZGNN,1997-10-27 11:00,ZGNN 271100Z AUTO 35008KT 7SM 16/11 A3027 RMK SLP241 T01600110 IEM_DS3505
ZGNN,1997-10-27 12:00,ZGNN 271200Z AUTO 34008KT 19SM 16/11 A3030 RMK SLP253 T01650111 52014 IEM_DS3505
ZGNN,1997-10-27 13:00,ZGNN 271300Z AUTO 35006KT 7SM 16/11 A3030 RMK SLP251 T01600110 IEM_DS3505
ZGNN,1997-10-27 15:00,ZGNN 271500Z AUTO 00000KT 16SM 16/11 RMK T01650109 52011 IEM_DS3505
ZGNN,1997-10-27 18:00,ZGNN 271800Z AUTO 32002KT 1SM 16/11 A3030 RMK SLP252 T01640112 57012 IEM_DS3505
ZGNN,1997-10-27 21:00,ZGNN 272100Z AUTO 02004KT 12SM 16/10 A3027 RMK SLP247 T01570098 57005 IEM_DS3505
ZGNN,1997-10-27 22:00,ZGNN 272200Z AUTO 00000KT 7SM 15/12 A3027 RMK SLP241 T01500120 IEM_DS3505
ZGNN,1997-10-27 23:00,ZGNN 272300Z AUTO 00000KT 7SM 15/12 A3030 RMK SLP251 T01500120 IEM_DS3505
ZGNN,1997-10-28 00:00,ZGNN 280000Z AUTO 07002KT 19SM 15/10 A3030 RMK SLP258 T01540096 52011 IEM_DS3505
ZGNN,1997-10-28 01:00,ZGNN 280100Z AUTO 01006KT 7SM 16/10 A3033 RMK SLP261 T01600100 IEM_DS3505
ZGNN,1997-10-28 02:00,ZGNN 280200Z AUTO 34008KT 7SM 16/10 A3033 RMK SLP261 T01600100 IEM_DS3505
ZGNN,1997-10-28 03:00,ZGNN 280300Z AUTO 34004KT 19SM 17/10 A3033 RMK SLP266 T01710101 52008 IEM_DS3505
ZGNN,1997-10-28 04:00,ZGNN 280400Z AUTO 33006KT 7SM 18/09 A3030 RMK SLP250 T01800090 IEM_DS3505
ZGNN,1997-10-28 05:00,ZGNN 280500Z AUTO 36010KT 6SM 19/10 A3024 RMK SLP229 T01900100 IEM_DS3505
ZGNN,1997-10-28 06:00,ZGNN 280600Z AUTO 32006KT 19SM 21/10 A3021 RMK SLP224 T02060105 57041 IEM_DS3505
ZGNN,1997-10-28 07:00,ZGNN 280700Z AUTO 35008KT 6SM 21/11 A3018 RMK SLP208 T02100110 IEM_DS3505
ZGNN,1997-10-28 08:00,ZGNN 280800Z AUTO 32006KT 6SM 20/11 A3018 RMK SLP208 T02000110 IEM_DS3505
ZGNN,1997-10-28 09:00,ZGNN 280900Z AUTO 34006KT 19SM 21/11 A3018 RMK SLP213 T02090112 57011 IEM_DS3505
ZGNN,1997-10-28 10:00,ZGNN 281000Z AUTO 02004KT 6SM 19/11 A3018 RMK SLP209 T01900110 IEM_DS3505
ZGNN,1997-10-28 11:00,ZGNN 281100Z AUTO 35002KT 6SM 18/13 A3021 RMK SLP219 T01800130 IEM_DS3505
ZGNN,1997-10-28 12:00,ZGNN 281200Z AUTO 04004KT 14SM 18/11 A3024 RMK SLP231 T01810109 52018 IEM_DS3505
ZGNN,1997-10-28 13:00,ZGNN 281300Z AUTO 00000KT 6SM 16/13 A3027 RMK SLP241 T01600130 IEM_DS3505
ZGNN,1997-10-28 15:00,ZGNN 281500Z AUTO 36004KT 12SM 17/11 A3028 RMK SLP242 T01740107 52011 IEM_DS3505
ZGNN,1997-10-28 18:00,ZGNN 281800Z AUTO 00000KT 12SM 17/12 A3027 RMK SLP238 T01720117 57004 IEM_DS3505
ZGNN,1997-10-28 21:00,ZGNN 282100Z AUTO 00000KT 12SM 17/12 A3027 RMK SLP239 T01720121 52001 IEM_DS3505
ZGNN,1997-10-28 22:00,ZGNN 282200Z AUTO 02004KT 6SM 15/12 A3024 RMK SLP230 T01500120 IEM_DS3505
ZGNN,1997-10-28 23:00,ZGNN 282300Z AUTO 00000KT 6SM 15/13 A3030 RMK SLP251 T01500130 IEM_DS3505
ZGNN,1997-10-29 00:00,ZGNN 290000Z AUTO 04002KT 12SM 17/12 A3030 RMK SLP253 T01740115 52014 IEM_DS3505
ZGNN,1997-10-29 01:00,ZGNN 290100Z AUTO 33008KT 6SM 19/11 A3033 RMK SLP260 T01900110 IEM_DS3505
ZGNN,1997-10-29 02:00,ZGNN 290200Z AUTO 34008KT 6SM 20/11 A3033 RMK SLP260 T02000110 IEM_DS3505
ZGNN,1997-10-29 03:00,ZGNN 290300Z AUTO 04004KT 19SM 22/10 A3033 RMK SLP259 T02160102 52006 IEM_DS3505
ZGNN,1997-10-29 04:00,ZGNN 290400Z AUTO 02004KT 6SM 22/11 A3027 RMK SLP239 T02200110 IEM_DS3505
ZGNN,1997-10-29 05:00,ZGNN 290500Z AUTO 35012KT 6SM 23/11 A3024 RMK SLP228 T02300110 IEM_DS3505
ZGNN,1997-10-29 06:00,ZGNN 290600Z AUTO 34006KT 14SM 24/14 A3021 RMK SLP223 T02450138 57035 IEM_DS3505
ZGNN,1997-10-29 07:00,ZGNN 290700Z AUTO 36010KT 6SM 24/11 A3018 RMK SLP207 T02400110 IEM_DS3505
ZGNN,1997-10-29 08:00,ZGNN 290800Z AUTO 34008KT 6SM 24/11 A3018 RMK SLP207 T02400110 IEM_DS3505
ZGNN,1997-10-29 09:00,ZGNN 290900Z AUTO 32004KT 16SM 25/12 A3018 RMK SLP206 T02500124 57017 IEM_DS3505
ZGNN,1997-10-29 12:00,ZGNN 291200Z AUTO 32006KT 16SM 21/11 A3024 RMK SLP234 T02130108 52027 IEM_DS3505
ZGNN,1997-10-29 13:00,ZGNN 291300Z AUTO 34006KT 6SM 17/13 A3027 RMK SLP240 T01700130 IEM_DS3505
ZGNN,1997-10-29 14:00,ZGNN 291400Z AUTO 34004KT 6SM 17/12 A3030 RMK SLP251 T01700120 IEM_DS3505
ZGNN,1997-10-29 15:00,ZGNN 291500Z AUTO 36006KT 16SM 20/10 A3031 RMK SLP254 T01950102 52020 IEM_DS3505
ZGNN,1997-10-29 18:00,ZGNN 291800Z AUTO 02004KT 12SM 19/10 A3030 RMK SLP248 T01900098 57005 IEM_DS3505
ZGNN,1997-10-29 21:00,ZGNN 292100Z AUTO 36006KT 12SM 18/09 A3027 RMK SLP246 T01830094 57002 IEM_DS3505
ZGNN,1997-10-29 22:00,ZGNN 292200Z AUTO 34008KT 7SM 17/10 A3027 RMK SLP240 T01700100 IEM_DS3505
ZGNN,1997-10-29 23:00,ZGNN 292300Z AUTO 34006KT 7SM 17/10 A3030 RMK SLP251 T01700100 IEM_DS3505
ZGNN,1997-10-30 00:00,ZGNN 300000Z AUTO 34006KT 16SM 18/10 A3033 RMK SLP261 T01810096 52014 IEM_DS3505
ZGNN,1997-10-30 01:00,ZGNN 300100Z AUTO 33008KT 7SM 19/08 A3036 RMK SLP270 T01900080 IEM_DS3505
ZGNN,1997-10-30 02:00,ZGNN 300200Z AUTO 34010KT 6SM 19/07 A3036 RMK SLP270 T01900070 IEM_DS3505
ZGNN,1997-10-30 03:00,ZGNN 300300Z AUTO 02006KT 19SM 21/08 A3036 RMK SLP270 T02130081 52009 IEM_DS3505
ZGNN,1997-10-30 04:00,ZGNN 300400Z AUTO 34004KT 6SM 22/08 A3033 RMK SLP259 T02200080 IEM_DS3505
ZGNN,1997-10-30 05:00,ZGNN 300500Z AUTO 35010KT 6SM 22/08 A3030 RMK SLP249 T02200080 IEM_DS3505
ZGNN,1997-10-30 06:00,ZGNN 300600Z AUTO 34008KT 19SM 24/09 A3024 RMK SLP231 T02380090 57038 IEM_DS3505
ZGNN,1997-10-30 07:00,ZGNN 300700Z AUTO 35010KT 6SM 24/08 A3021 RMK SLP217 T02400080 IEM_DS3505
ZGNN,1997-10-30 08:00,ZGNN 300800Z AUTO 35006KT 6SM 23/09 A3021 RMK SLP217 T02300090 IEM_DS3505
ZGNN,1997-10-30 09:00,ZGNN 300900Z AUTO 34006KT 19SM 24/09 A3021 RMK SLP223 T02350086 57008 IEM_DS3505
ZGNN,1997-10-30 10:00,ZGNN 301000Z AUTO 34006KT 6SM 21/10 A3024 RMK SLP228 T02100100 IEM_DS3505
ZGNN,1997-10-30 11:00,ZGNN 301100Z AUTO 00000KT 6SM 19/11 A3024 RMK SLP229 T01900110 IEM_DS3505
ZGNN,1997-10-30 12:00,ZGNN 301200Z AUTO 04004KT 12SM 21/11 A3027 RMK SLP244 T02080106 52020 IEM_DS3505
ZGNN,1997-10-30 13:00,ZGNN 301300Z AUTO 34006KT 6SM 17/11 A3030 RMK SLP251 T01700110 IEM_DS3505
ZGNN,1997-10-30 15:00,ZGNN 301500Z AUTO 36004KT 12SM 19/08 A3032 RMK SLP256 T01910085 52012 IEM_DS3505
ZGNN,1997-10-30 18:00,ZGNN 301800Z AUTO 34002KT 12SM 18/08 A3030 RMK SLP248 T01820076 57007 IEM_DS3505
ZGNN,1997-10-30 21:00,ZGNN 302100Z AUTO 02002KT 12SM 17/08 A3027 RMK SLP246 T01700077 57003 IEM_DS3505
ZGNN,1997-10-30 22:00,ZGNN 302200Z AUTO 34004KT 6SM 12/08 A3030 RMK SLP252 T01200080 IEM_DS3505
ZGNN,1997-10-30 23:00,ZGNN 302300Z AUTO 36006KT 6SM 15/08 A3030 RMK SLP251 T01500080 IEM_DS3505
ZGNN,1997-10-31 00:00,ZGNN 310000Z AUTO 29002KT 12SM 17/08 A3033 RMK SLP261 T01680079 52015 IEM_DS3505
ZGNN,1997-10-31 01:00,ZGNN 310100Z AUTO 33008KT 6SM 17/06 A3033 RMK SLP261 T01700060 IEM_DS3505
ZGNN,1997-10-31 02:00,ZGNN 310200Z AUTO 34006KT 6SM 19/07 A3033 RMK SLP260 T01900070 IEM_DS3505
ZGNN,1997-10-31 03:00,ZGNN 310300Z AUTO 02002KT 16SM 21/07 A3033 RMK SLP268 T02130073 52007 IEM_DS3505
ZGNN,1997-10-31 04:00,ZGNN 310400Z AUTO 35008KT 6SM 22/06 A3033 RMK SLP259 T02200060 IEM_DS3505
ZGNN,1997-10-31 05:00,ZGNN 310500Z AUTO 02012KT 6SM 23/07 A3027 RMK SLP239 T02300070 IEM_DS3505
ZGNN,1997-10-31 06:00,ZGNN 310600Z AUTO 02002KT 17SM 24/08 A3025 RMK SLP231 T02420083 57036 IEM_DS3505
ZGNN,1997-10-31 07:00,ZGNN 310700Z AUTO 04008KT 6SM 24/07 A3021 RMK SLP217 T02400070 IEM_DS3505
ZGNN,1997-10-31 08:00,ZGNN 310800Z AUTO 04006KT 6SM 24/07 A3021 RMK SLP217 T02400070 IEM_DS3505
ZGNN,1997-10-31 09:00,ZGNN 310900Z AUTO 09006KT 17SM 24/07 A3021 RMK SLP220 T02370070 57011 IEM_DS3505
ZGNN,1997-10-31 10:00,ZGNN 311000Z AUTO 03004KT 6SM 21/10 A3021 RMK SLP218 T02100100 IEM_DS3505
ZGNN,1997-10-31 12:00,ZGNN 311200Z AUTO 00000KT 16SM 20/09 A3024 RMK SLP238 T02040093 52017 IEM_DS3505
ZGNN,1997-10-31 13:00,ZGNN 311300Z AUTO 35004KT 6SM 17/11 A3027 RMK SLP240 T01700110 IEM_DS3505
ZGNN,1997-10-31 15:00,ZGNN 311500Z AUTO 00000KT 12SM 18/10 A3032 RMK SLP255 T01820102 52017 IEM_DS3505
ZGNN,1997-10-31 18:00,ZGNN 311800Z AUTO 00000KT 11SM 17/12 A3031 RMK SLP252 T01700119 57002 IEM_DS3505
ZGNN,1997-10-31 21:00,ZGNN 312100Z AUTO 00000KT 9SM 16/12 A3030 RMK SLP251 T01630119 57004 IEM_DS3505
ZGNN,1997-10-31 22:00,ZGNN 312200Z AUTO 00000KT 6SM 14/11 A3030 RMK SLP251 T01400110 IEM_DS3505
ZGNN,1997-10-31 23:00,ZGNN 312300Z AUTO 35004KT 6SM 14/11 A3033 RMK SLP262 T01400110 IEM_DS3505
ZGNN,1997-11-01 00:00,ZGNN 010000Z AUTO 00000KT 5SM 17/12 A3033 RMK SLP266 T01690118 52017 IEM_DS3505
ZGNN,1997-11-01 01:00,ZGNN 010100Z AUTO 34004KT 6SM 18/09 A3036 RMK SLP270 T01800090 IEM_DS3505
ZGNN,1997-11-01 02:00,ZGNN 010200Z AUTO 01006KT 6SM 20/07 A3036 RMK SLP270 T02000070 IEM_DS3505
ZGNN,1997-11-01 03:00,ZGNN 010300Z AUTO 02006KT 9SM 22/06 A3036 RMK SLP271 T02210061 52005 IEM_DS3505
ZGNN,1997-11-01 04:00,ZGNN 010400Z AUTO 01010KT 6SM 23/06 A3033 RMK SLP259 T02300060 IEM_DS3505
ZGNN,1997-11-01 06:00,ZGNN 010600Z AUTO 07004KT 11SM 24/07 A3027 RMK SLP235 T02430074 57035 IEM_DS3505
ZGNN,1997-11-01 07:00,ZGNN 010700Z AUTO 36006KT 6SM 24/06 A3024 RMK SLP227 T02400060 IEM_DS3505
ZGNN,1997-11-01 08:00,ZGNN 010800Z AUTO 36006KT 6SM 24/06 A3021 RMK SLP217 T02400060 IEM_DS3505
ZGNN,1997-11-01 09:00,ZGNN 010900Z AUTO 04002KT 11SM 24/08 A3021 RMK SLP226 T02390079 57009 IEM_DS3505
ZGNN,1997-11-01 10:00,ZGNN 011000Z AUTO 01004KT 6SM 21/10 A3024 RMK SLP228 T02100100 IEM_DS3505
ZGNN,1997-11-01 11:00,ZGNN 011100Z AUTO 35004KT 6SM 18/12 A3024 RMK SLP229 T01800120 IEM_DS3505
ZGNN,1997-11-01 12:00,ZGNN 011200Z AUTO 00000KT 11SM 20/11 A3027 RMK SLP239 T01960108 52012 IEM_DS3505
ZGNN,1997-11-01 13:00,ZGNN 011300Z AUTO 34004KT 6SM 15/12 A3030 RMK SLP251 T01500120 IEM_DS3505
ZGNN,1997-11-01 14:00,ZGNN 011400Z AUTO 33004KT 6SM 15/11 A3030 RMK SLP251 T01500110 IEM_DS3505
ZGNN,1997-11-01 15:00,ZGNN 011500Z AUTO 00000KT 9SM 18/12 A3031 RMK SLP252 T01750119 52013 IEM_DS3505
ZGNN,1997-11-01 18:00,ZGNN 011800Z AUTO 00000KT 9SM 16/12 A3028 RMK SLP243 T01620116 57009 IEM_DS3505
ZGNN,1997-11-01 21:00,ZGNN 012100Z AUTO 00000KT 8SM 15/12 A3027 RMK SLP238 T01490120 57005 IEM_DS3505
ZGNN,1997-11-01 22:00,ZGNN 012200Z AUTO 00000KT 6SM 12/10 A3027 RMK SLP242 T01200100 IEM_DS3505
ZGNN,1997-11-01 23:00,ZGNN 012300Z AUTO 00000KT 6SM 11/10 A3030 RMK SLP252 T01100100 IEM_DS3505
ZGNN,1997-11-02 00:00,ZGNN 020000Z AUTO 20002KT 6SM 15/12 A3033 RMK SLP260 T01540121 52022 IEM_DS3505
ZGNN,1997-11-02 01:00,ZGNN 020100Z AUTO 35004KT 4SM 16/11 A3033 RMK SLP261 T01600110 IEM_DS3505
ZGNN,1997-11-02 02:00,ZGNN 020200Z AUTO 34004KT 6SM 20/09 A3033 RMK SLP260 T02000090 IEM_DS3505
ZGNN,1997-11-02 03:00,ZGNN 020300Z AUTO 18002KT 7SM 21/09 A3033 RMK SLP264 T02130091 52004 IEM_DS3505
ZGNN,1997-11-02 04:00,ZGNN 020400Z AUTO 05004KT 6SM 23/08 A3030 RMK SLP249 T02300080 IEM_DS3505
ZGNN,1997-11-02 05:00,ZGNN 020500Z AUTO 06002KT 6SM 23/08 A3027 RMK SLP239 T02300080 IEM_DS3505
ZGNN,1997-11-02 06:00,ZGNN 020600Z AUTO 11004KT 11SM 24/08 A3021 RMK SLP224 T02450085 57039 IEM_DS3505
ZGNN,1997-11-02 07:00,ZGNN 020700Z AUTO 03006KT 6SM 24/08 A3018 RMK SLP207 T02400080 IEM_DS3505
ZGNN,1997-11-02 08:00,ZGNN 020800Z AUTO 01002KT 6SM 24/07 A3018 RMK SLP207 T02400070 IEM_DS3505
ZGNN,1997-11-02 09:00,ZGNN 020900Z AUTO 04004KT 11SM 24/09 A3018 RMK SLP206 T02430093 57018 IEM_DS3505
ZGNN,1997-11-02 10:00,ZGNN 021000Z AUTO 33002KT 6SM 21/11 A3018 RMK SLP208 T02100110 IEM_DS3505
ZGNN,1997-11-02 11:00,ZGNN 021100Z AUTO 36006KT 6SM 17/13 A3018 RMK SLP209 T01700130 IEM_DS3505
ZGNN,1997-11-02 12:00,ZGNN 021200Z AUTO 07004KT 10SM 20/10 A3018 RMK SLP213 T02050102 52006 IEM_DS3505
ZGNN,1997-11-02 13:00,ZGNN 021300Z AUTO 35002KT 6SM 16/13 A3021 RMK SLP220 T01600130 IEM_DS3505
ZGNN,1997-11-02 15:00,ZGNN 021500Z AUTO 00000KT 9SM 18/12 A3024 RMK SLP230 T01760122 52017 IEM_DS3505
ZGNN,1997-11-02 18:00,ZGNN 021800Z AUTO 00000KT 9SM 16/13 A3022 RMK SLP223 T01610132 57006 IEM_DS3505
ZGNN,1997-11-02 21:00,ZGNN 022100Z AUTO 00000KT 7SM 15/13 A3021 RMK SLP220 T01540134 57003 IEM_DS3505
ZGNN,1997-11-02 22:00,ZGNN 022200Z AUTO 01004KT 4SM 14/12 A3021 RMK SLP220 T01400120 IEM_DS3505
ZGNN,1997-11-02 23:00,ZGNN 022300Z AUTO 16004KT 3SM 14/13 A3024 RMK SLP230 T01400130 IEM_DS3505
ZGNN,1997-11-03 00:00,ZGNN 030000Z AUTO 00000KT 4SM 17/13 A3027 RMK SLP242 T01700131 52021 IEM_DS3505
ZGNN,1997-11-03 01:00,ZGNN 030100Z AUTO 22002KT 6SM 17/14 A3030 RMK SLP251 T01700140 IEM_DS3505
ZGNN,1997-11-03 03:00,ZGNN 030300Z AUTO 04004KT 7SM 22/10 A3030 RMK SLP247 T02210095 52005 IEM_DS3505
ZGNN,1997-11-03 04:00,ZGNN 030400Z AUTO 02006KT 6SM 24/09 A3027 RMK SLP238 T02400090 IEM_DS3505
ZGNN,1997-11-03 05:00,ZGNN 030500Z AUTO 33010KT 6SM 24/08 A3024 RMK SLP227 T02400080 IEM_DS3505
ZGNN,1997-11-03 06:00,ZGNN 030600Z AUTO 20002KT 12SM 26/10 A3021 RMK SLP215 T02580098 57031 IEM_DS3505
ZGNN,1997-11-03 07:00,ZGNN 030700Z AUTO 34006KT 6SM 25/08 A3018 RMK SLP207 T02500080 IEM_DS3505
ZGNN,1997-11-03 08:00,ZGNN 030800Z AUTO 35010KT 6SM 25/09 A3015 RMK SLP197 T02500090 IEM_DS3505
ZGNN,1997-11-03 09:00,ZGNN 030900Z AUTO 34006KT 15SM 26/11 A3016 RMK SLP200 T02590109 57015 IEM_DS3505
ZGNN,1997-11-03 10:00,ZGNN 031000Z AUTO 00000KT 6SM 23/12 A3018 RMK SLP207 T02300120 IEM_DS3505
ZGNN,1997-11-03 11:00,ZGNN 031100Z AUTO 34004KT 6SM 19/14 A3018 RMK SLP209 T01900140 IEM_DS3505
ZGNN,1997-11-03 12:00,ZGNN 031200Z AUTO 00000KT 14SM 20/14 A3021 RMK SLP221 T02050140 52020 IEM_DS3505
ZGNN,1997-11-03 13:00,ZGNN 031300Z AUTO 32004KT 6SM 16/14 A3024 RMK SLP230 T01600140 IEM_DS3505
ZGNN,1997-11-03 15:00,ZGNN 031500Z AUTO 00000KT 10SM 18/14 A3027 RMK SLP241 T01830145 52020 IEM_DS3505
ZGNN,1997-11-03 18:00,ZGNN 031800Z AUTO 00000KT 9SM 17/14 A3025 RMK SLP232 T01700138 57008 IEM_DS3505
ZGNN,1997-11-03 21:00,ZGNN 032100Z AUTO 00000KT 6SM 16/14 A3024 RMK SLP231 T01620143 57001 IEM_DS3505
ZGNN,1997-11-03 22:00,ZGNN 032200Z AUTO 21004KT 2 1/2SM 13/12 A3024 RMK SLP231 T01300120 IEM_DS3505
ZGNN,1997-11-03 23:00,ZGNN 032300Z AUTO 15004KT 6SM 13/12 A3027 RMK SLP242 T01300120 IEM_DS3505
ZGNN,1997-11-04 00:00,ZGNN 040000Z AUTO 34002KT 6SM 17/14 A3030 RMK SLP255 T01690141 52023 IEM_DS3505
ZGNN,1997-11-04 01:00,ZGNN 040100Z AUTO 35006KT 6SM 20/13 A3033 RMK SLP260 T02000130 IEM_DS3505
ZGNN,1997-11-04 02:00,ZGNN 040200Z AUTO 00000KT 6SM 21/13 A3033 RMK SLP259 T02100130 IEM_DS3505
ZGNN,1997-11-04 03:00,ZGNN 040300Z AUTO 09002KT 7SM 24/11 A3033 RMK SLP264 T02450107 52010 IEM_DS3505
ZGNN,1997-11-04 04:00,ZGNN 040400Z AUTO 33004KT 6SM 25/11 A3033 RMK SLP258 T02500110 IEM_DS3505
ZGNN,1997-11-04 05:00,ZGNN 040500Z AUTO 06006KT 6SM 26/11 A3027 RMK SLP238 T02600110 IEM_DS3505
ZGNN,1997-11-04 06:00,ZGNN 040600Z AUTO 34006KT 16SM 28/11 A3024 RMK SLP227 T02770106 57037 IEM_DS3505
ZGNN,1997-11-04 07:00,ZGNN 040700Z AUTO 33010KT 6SM 27/09 A3021 RMK SLP216 T02700090 IEM_DS3505
ZGNN,1997-11-04 08:00,ZGNN 040800Z AUTO 35010KT 6SM 27/09 A3021 RMK SLP216 T02700090 IEM_DS3505
ZGNN,1997-11-04 09:00,ZGNN 040900Z AUTO 07004KT 16SM 26/09 A3021 RMK SLP217 T02650088 57010 IEM_DS3505
ZGNN,1997-11-04 10:00,ZGNN 041000Z AUTO 03004KT 6SM 23/11 A3021 RMK SLP217 T02300110 IEM_DS3505
ZGNN,1997-11-04 11:00,ZGNN 041100Z AUTO 35004KT 6SM 20/13 A3024 RMK SLP228 T02000130 IEM_DS3505
ZGNN,1997-11-04 12:00,ZGNN 041200Z AUTO 02002KT 12SM 20/11 A3027 RMK SLP237 T02000111 52019 IEM_DS3505
ZGNN,1997-11-04 13:00,ZGNN 041300Z AUTO 00000KT 6SM 16/13 A3027 RMK SLP241 T01600130 IEM_DS3505
ZGNN,1997-11-04 15:00,ZGNN 041500Z AUTO 07002KT 12SM 18/13 A3030 RMK SLP251 T01840131 52015 IEM_DS3505
ZGNN,1997-11-04 18:00,ZGNN 041800Z AUTO 00000KT 12SM 17/13 A3028 RMK SLP241 T01680132 57010 IEM_DS3505
ZGNN,1997-11-04 21:00,ZGNN 042100Z AUTO 00000KT 9SM 16/11 A3027 RMK SLP239 T01600110 57002 IEM_DS3505
ZGNN,1997-11-04 22:00,ZGNN 042200Z AUTO 00000KT 6SM 13/11 A3027 RMK SLP242 T01300110 IEM_DS3505
ZGNN,1997-11-04 23:00,ZGNN 042300Z AUTO 00000KT 6SM 13/10 A3033 RMK SLP262 T01300100 IEM_DS3505
ZGNN,1997-11-05 00:00,ZGNN 050000Z AUTO 04002KT 5SM 17/08 A3033 RMK SLP263 T01710083 52023 IEM_DS3505
ZGNN,1997-11-05 01:00,ZGNN 050100Z AUTO 00000KT 6SM 19/11 A3033 RMK SLP260 T01900110 IEM_DS3505
ZGNN,1997-11-05 02:00,ZGNN 050200Z AUTO 03010KT 6SM 21/06 A3036 RMK SLP269 T02100060 IEM_DS3505
ZGNN,1997-11-05 03:00,ZGNN 050300Z AUTO 04006KT 9SM 23/07 A3033 RMK SLP267 T02320070 52004 IEM_DS3505
ZGNN,1997-11-05 04:00,ZGNN 050400Z AUTO 36012KT 6SM 24/06 A3030 RMK SLP248 T02400060 IEM_DS3505
ZGNN,1997-11-05 05:00,ZGNN 050500Z AUTO 09008KT 6SM 25/05 A3027 RMK SLP238 T02500050 IEM_DS3505
ZGNN,1997-11-05 06:00,ZGNN 050600Z AUTO 09002KT 12SM 25/05 A3024 RMK SLP227 T02500054 57039 IEM_DS3505
ZGNN,1997-11-05 07:00,ZGNN 050700Z AUTO 05006KT 6SM 26/06 A3021 RMK SLP217 T02600060 IEM_DS3505
ZGNN,1997-11-05 08:00,ZGNN 050800Z AUTO 29004KT 6SM 25/06 A3018 RMK SLP207 T02500060 IEM_DS3505
ZGNN,1997-11-05 09:00,ZGNN 050900Z AUTO 07004KT 14SM 25/06 A3018 RMK SLP208 T02460060 57019 IEM_DS3505
ZGNN,1997-11-05 10:00,ZGNN 051000Z AUTO 00000KT 6SM 22/09 A3018 RMK SLP208 T02200090 IEM_DS3505
ZGNN,1997-11-05 11:00,ZGNN 051100Z AUTO 36004KT 6SM 18/12 A3018 RMK SLP209 T01800120 IEM_DS3505
ZGNN,1997-11-05 12:00,ZGNN 051200Z AUTO 00000KT 16SM 20/09 A3021 RMK SLP222 T01950086 52013 IEM_DS3505
ZGNN,1997-11-05 13:00,ZGNN 051300Z AUTO 33004KT 6SM 16/12 A3024 RMK SLP230 T01600120 IEM_DS3505
ZGNN,1997-11-05 15:00,ZGNN 051500Z AUTO 00000KT 14SM 18/09 A3024 RMK SLP230 T01770086 52009 IEM_DS3505
ZGNN,1997-11-05 18:00,ZGNN 051800Z AUTO 02002KT 11SM 16/11 A3022 RMK SLP221 T01610107 57009 IEM_DS3505
ZGNN,1997-11-05 21:00,ZGNN 052100Z AUTO 00000KT 7SM 15/10 A3021 RMK SLP219 T01500105 57002 IEM_DS3505
ZGNN,1997-11-05 22:00,ZGNN 052200Z AUTO 00000KT 6SM 13/10 A3021 RMK SLP220 T01300100 IEM_DS3505
ZGNN,1997-11-05 23:00,ZGNN 052300Z AUTO 02004KT 6SM 13/11 A3024 RMK SLP231 T01300110 IEM_DS3505
ZGNN,1997-11-06 00:00,ZGNN 060000Z AUTO 00000KT 10SM 15/10 A3024 RMK SLP236 T01480098 52016 IEM_DS3505
ZGNN,1997-11-06 01:00,ZGNN 060100Z AUTO 00000KT 6SM 17/11 A3027 RMK SLP240 T01700110 IEM_DS3505
ZGNN,1997-11-06 02:00,ZGNN 060200Z AUTO 03004KT 6SM 20/08 A3030 RMK SLP250 T02000080 IEM_DS3505
ZGNN,1997-11-06 03:00,ZGNN 060300Z AUTO 07004KT 12SM 22/08 A3030 RMK SLP246 T02200079 52010 IEM_DS3505
ZGNN,1997-11-06 04:00,ZGNN 060400Z AUTO 08006KT 6SM 24/07 A3027 RMK SLP238 T02400070 IEM_DS3505
ZGNN,1997-11-06 05:00,ZGNN 060500Z AUTO 07010KT 6SM 24/07 A3024 RMK SLP227 T02400070 IEM_DS3505
ZGNN,1997-11-06 06:00,ZGNN 060600Z AUTO 20002KT 16SM 26/06 A3021 RMK SLP217 T02590058 57028 IEM_DS3505
ZGNN,1997-11-06 07:00,ZGNN 060700Z AUTO 12006KT 6SM 25/06 A3018 RMK SLP207 T02500060 IEM_DS3505
ZGNN,1997-11-06 08:00,ZGNN 060800Z AUTO 11004KT 6SM 25/06 A3018 RMK SLP207 T02500060 IEM_DS3505
ZGNN,1997-11-06 09:00,ZGNN 060900Z AUTO 00000KT 12SM 25/08 A3018 RMK SLP211 T02470078 57006 IEM_DS3505
ZGNN,1997-11-06 10:00,ZGNN 061000Z AUTO 09002KT 7SM 22/13 A3018 RMK SLP208 T02200130 IEM_DS3505
ZGNN,1997-11-06 11:00,ZGNN 061100Z AUTO 36004KT 7SM 20/13 A3021 RMK SLP218 T02000130 IEM_DS3505
ZGNN,1997-11-06 12:00,ZGNN 061200Z AUTO 00000KT 11SM 22/11 A3021 RMK SLP226 T02150113 52014 IEM_DS3505
ZGNN,1997-11-06 13:00,ZGNN 061300Z AUTO 36004KT 7SM 18/13 A3024 RMK SLP229 T01800130 IEM_DS3505
ZGNN,1997-11-06 15:00,ZGNN 061500Z AUTO 00000KT 11SM 19/12 A3027 RMK SLP239 T01940121 52014 IEM_DS3505
ZGNN,1997-11-06 18:00,ZGNN 061800Z AUTO 00000KT 9SM 17/13 A3025 RMK SLP231 T01700129 57008 IEM_DS3505
ZGNN,1997-11-06 21:00,ZGNN 062100Z AUTO 00000KT 9SM 16/12 A3024 RMK SLP231 T01650117 54000 IEM_DS3505
ZGNN,1997-11-06 22:00,ZGNN 062200Z AUTO 00000KT 6SM 14/12 A3024 RMK SLP230 T01400120 IEM_DS3505
ZGNN,1997-11-07 00:00,ZGNN 070000Z AUTO 00000KT 6SM 16/12 A3030 RMK SLP246 T01590125 50015 IEM_DS3505
ZGNN,1997-11-07 01:00,ZGNN 070100Z AUTO 15002KT 5SM 18/14 A3030 RMK SLP250 T01800140 IEM_DS3505
ZGNN,1997-11-07 02:00,ZGNN 070200Z AUTO 33004KT 5SM 21/11 A3030 RMK SLP249 T02100110 IEM_DS3505
ZGNN,1997-11-07 03:00,ZGNN 070300Z AUTO 00000KT 5SM 22/13 A3030 RMK SLP251 T02190126 52006 IEM_DS3505
ZGNN,1997-11-07 04:00,ZGNN 070400Z AUTO 03006KT 6SM 23/09 A3027 RMK SLP239 T02300090 IEM_DS3505
ZGNN,1997-11-07 05:00,ZGNN 070500Z AUTO 10002KT 6SM 24/09 A3024 RMK SLP227 T02400090 IEM_DS3505
ZGNN,1997-11-07 06:00,ZGNN 070600Z AUTO 07004KT 9SM 25/10 A3021 RMK SLP217 T02500101 57034 IEM_DS3505
ZGNN,1997-11-07 07:00,ZGNN 070700Z AUTO 17006KT 6SM 25/08 A3018 RMK SLP207 T02500080 IEM_DS3505
ZGNN,1997-11-07 08:00,ZGNN 070800Z AUTO 15002KT 6SM 25/08 A3018 RMK SLP207 T02500080 IEM_DS3505
ZGNN,1997-11-07 09:00,ZGNN 070900Z AUTO 20004KT 11SM 25/08 A3018 RMK SLP209 T02500083 57008 IEM_DS3505
ZGNN,1997-11-07 10:00,ZGNN 071000Z AUTO 18002KT 6SM 22/12 A3018 RMK SLP208 T02200120 IEM_DS3505
ZGNN,1997-11-07 11:00,ZGNN 071100Z AUTO 33002KT 6SM 20/14 A3021 RMK SLP218 T02000140 IEM_DS3505
ZGNN,1997-11-07 12:00,ZGNN 071200Z AUTO 00000KT 11SM 22/13 A3021 RMK SLP225 T02150130 52015 IEM_DS3505
ZGNN,1997-11-07 13:00,ZGNN 071300Z AUTO 00000KT 6SM 18/14 A3024 RMK SLP229 T01800140 IEM_DS3505
ZGNN,1997-11-07 15:00,ZGNN 071500Z AUTO 00000KT 11SM 20/14 A3024 RMK SLP229 T02030141 52005 IEM_DS3505
ZGNN,1997-11-07 18:00,ZGNN 071800Z AUTO 07002KT 9SM 19/13 A3021 RMK SLP217 T01900132 57012 IEM_DS3505
ZGNN,1997-11-07 21:00,ZGNN 072100Z AUTO 00000KT 9SM 18/12 A3018 RMK SLP212 T01830124 57005 IEM_DS3505
ZGNN,1997-11-07 22:00,ZGNN 072200Z AUTO 13002KT 5SM 16/14 A3018 RMK SLP209 T01600140 IEM_DS3505
ZGNN,1997-11-07 23:00,ZGNN 072300Z AUTO 36004KT 5SM 17/14 A3021 RMK SLP219 T01700140 IEM_DS3505
ZGNN,1997-11-08 00:00,ZGNN 080000Z AUTO 00000KT 7SM 18/13 A3021 RMK SLP217 T01790127 52005 IEM_DS3505
ZGNN,1997-11-08 01:00,ZGNN 080100Z AUTO 00000KT 4SM 18/15 A3021 RMK SLP219 T01800150 IEM_DS3505
ZGNN,1997-11-08 02:00,ZGNN 080200Z AUTO 03004KT 4SM 18/14 A3024 RMK SLP229 T01800140 IEM_DS3505
ZGNN,1997-11-08 03:00,ZGNN 080300Z AUTO 07002KT 5SM 19/14 A3021 RMK SLP222 T01920138 52005 IEM_DS3505
ZGNN,1997-11-08 04:00,ZGNN 080400Z AUTO 02004KT 6SM 21/12 A3018 RMK SLP208 T02100120 IEM_DS3505
ZGNN,1997-11-08 05:00,ZGNN 080500Z AUTO 00000KT 6SM 22/13 A3015 RMK SLP198 T02200130 IEM_DS3505
ZGNN,1997-11-08 06:00,ZGNN 080600Z AUTO 00000KT 11SM 24/14 A3012 RMK SLP192 T02350144 57030 IEM_DS3505
ZGNN,1997-11-08 07:00,ZGNN 080700Z AUTO 35004KT 6SM 23/13 A3009 RMK SLP177 T02300130 IEM_DS3505
ZGNN,1997-11-08 08:00,ZGNN 080800Z AUTO 00000KT 6SM 23/14 A3009 RMK SLP177 T02300140 IEM_DS3505
ZGNN,1997-11-08 09:00,ZGNN 080900Z AUTO 00000KT 11SM 23/14 A3009 RMK SLP182 T02330140 57010 IEM_DS3505
ZGNN,1997-11-08 10:00,ZGNN 081000Z AUTO 00000KT 2 1/2SM 22/16 A3012 RMK SLP187 T02200160 IEM_DS3505
ZGNN,1997-11-08 11:00,ZGNN 081100Z AUTO 35004KT 4SM 20/17 A3012 RMK SLP188 T02000170 IEM_DS3505
ZGNN,1997-11-08 12:00,ZGNN 081200Z AUTO 00000KT 7SM 21/15 A3012 RMK SLP194 T02110154 52012 IEM_DS3505
ZGNN,1997-11-08 13:00,ZGNN 081300Z AUTO 00000KT 4SM 19/17 A3015 RMK SLP198 T01900170 IEM_DS3505
ZGNN,1997-11-08 14:00,ZGNN 081400Z AUTO 35004KT 4SM 19/16 A3015 RMK SLP198 T01900160 IEM_DS3505
ZGNN,1997-11-08 15:00,ZGNN 081500Z AUTO 07002KT 7SM 20/15 A3016 RMK SLP202 T02010150 52008 IEM_DS3505
ZGNN,1997-11-08 18:00,ZGNN 081800Z AUTO 00000KT 6SM 19/15 A3015 RMK SLP198 T01870146 57004 IEM_DS3505
ZGNN,1997-11-08 21:00,ZGNN 082100Z AUTO 02002KT 9SM 18/14 A3012 RMK SLP196 T01800140 57002 IEM_DS3505
ZGNN,1997-11-08 22:00,ZGNN 082200Z AUTO 02004KT 5SM 17/14 A3015 RMK SLP199 T01700140 IEM_DS3505
ZGNN,1997-11-08 23:00,ZGNN 082300Z AUTO 02004KT 3SM 17/14 A3015 RMK SLP199 T01700140 IEM_DS3505
ZGNN,1997-11-09 00:00,ZGNN 090000Z AUTO 00000KT 7SM 18/14 A3018 RMK SLP213 T01830141 52017 IEM_DS3505
ZGNN,1997-11-09 01:00,ZGNN 090100Z AUTO 07004KT 2SM 19/15 A3021 RMK SLP219 T01900150 IEM_DS3505
ZGNN,1997-11-09 02:00,ZGNN 090200Z AUTO 00000KT 2 1/2SM 19/15 A3021 RMK SLP219 T01900150 IEM_DS3505
ZGNN,1997-11-09 03:00,ZGNN 090300Z AUTO 00000KT 9SM 22/15 A3024 RMK SLP220 T02170152 52007 IEM_DS3505
ZGNN,1997-11-09 04:00,ZGNN 090400Z AUTO 08006KT 2SM 19/17 A3018 RMK SLP209 T01900170 IEM_DS3505
ZGNN,1997-11-09 05:00,ZGNN 090500Z AUTO 12006KT 2 1/2SM 22/18 A3015 RMK SLP198 T02200180 IEM_DS3505
ZGNN,1997-11-09 06:00,ZGNN 090600Z AUTO 04002KT 12SM 22/18 A3012 RMK 60002 SLP191 T02170179 57029 IEM_DS3505
ZGNN,1997-11-09 07:00,ZGNN 090700Z AUTO 09004KT 2 1/2SM 23/18 A3009 RMK SLP177 T02300180 IEM_DS3505
ZGNN,1997-11-09 08:00,ZGNN 090800Z AUTO 16004KT 4SM 23/18 A3009 RMK SLP177 T02300180 IEM_DS3505
ZGNN,1997-11-09 09:00,ZGNN 090900Z AUTO 20002KT 14SM 24/17 A3009 RMK SLP179 T02350172 57012 IEM_DS3505
ZGNN,1997-11-09 10:00,ZGNN 091000Z AUTO 12004KT 4SM 21/18 A3009 RMK SLP178 T02100180 IEM_DS3505
ZGNN,1997-11-09 11:00,ZGNN 091100Z AUTO 00000KT 4SM 20/18 A3012 RMK SLP188 T02000180 IEM_DS3505
ZGNN,1997-11-09 12:00,ZGNN 091200Z AUTO 00000KT 12SM 21/18 A3012 RMK SLP196 T02090180 52017 IEM_DS3505
ZGNN,1997-11-09 13:00,ZGNN 091300Z AUTO 00000KT 2 1/2SM 20/18 A3015 RMK SLP198 T02000180 IEM_DS3505
ZGNN,1997-11-09 15:00,ZGNN 091500Z AUTO 00000KT 12SM 21/18 A3017 RMK SLP204 T02070181 52008 IEM_DS3505
ZGNN,1997-11-09 18:00,ZGNN 091800Z AUTO 00000KT 9SM 21/18 A3014 RMK SLP196 T02060185 57008 IEM_DS3505
ZGNN,1997-11-09 21:00,ZGNN 092100Z AUTO 00000KT 9SM 20/18 A3012 RMK 70002 SLP193 T02010182 57003 IEM_DS3505
ZGNN,1997-11-09 22:00,ZGNN 092200Z AUTO 00000KT 2 1/2SM 20/18 A3012 RMK SLP188 T02000180 IEM_DS3505
ZGNN,1997-11-09 23:00,ZGNN 092300Z AUTO 02004KT 2 1/2SM 20/18 A3015 RMK SLP198 T02000180 IEM_DS3505
ZGNN,1997-11-10 00:00,ZGNN 100000Z AUTO 04004KT 7SM 20/18 A3018 RMK 70002 SLP210 T02000181 52017 IEM_DS3505
ZGNN,1997-11-10 01:00,ZGNN 100100Z AUTO 00000KT 2SM 20/18 A3021 RMK SLP218 T02000180 IEM_DS3505
ZGNN,1997-11-10 02:00,ZGNN 100200Z AUTO 00000KT 1 1/4SM 19/18 A3021 RMK SLP219 T01900180 IEM_DS3505
ZGNN,1997-11-10 03:00,ZGNN 100300Z AUTO 07002KT 6SM 20/19 A3021 RMK SLP219 T01990186 52009 IEM_DS3505
ZGNN,1997-11-10 04:00,ZGNN 100400Z AUTO 00000KT 1 1/2SM 20/19 A3018 RMK SLP208 T02000190 IEM_DS3505
ZGNN,1997-11-10 05:00,ZGNN 100500Z AUTO 00000KT 2 1/2SM 20/19 A3015 RMK SLP198 T02000190 IEM_DS3505
ZGNN,1997-11-10 06:00,ZGNN 100600Z AUTO 04002KT 7SM 22/19 A3012 RMK 60004 SLP186 T02210186 57033 IEM_DS3505
ZGNN,1997-11-10 07:00,ZGNN 100700Z AUTO 00000KT 4SM 22/19 A3006 RMK SLP167 T02200190 IEM_DS3505
ZGNN,1997-11-10 09:00,ZGNN 100900Z AUTO 00000KT 7SM 23/19 A3006 RMK SLP175 T02280192 57011 IEM_DS3505
ZGNN,1997-11-10 10:00,ZGNN 101000Z AUTO 00000KT 1 1/4SM 22/20 A3009 RMK SLP177 T02200200 IEM_DS3505
ZGNN,1997-11-10 11:00,ZGNN 101100Z AUTO 00000KT 1 1/4SM 21/20 A3009 RMK SLP178 T02100200 IEM_DS3505
ZGNN,1997-11-10 12:00,ZGNN 101200Z AUTO 00000KT 4SM 22/20 A3012 RMK 60000 SLP186 T02190200 52011 IEM_DS3505
ZGNN,1997-11-10 13:00,ZGNN 101300Z AUTO 00000KT 2SM 21/20 A3012 RMK SLP188 T02100200 IEM_DS3505
ZGNN,1997-11-10 15:00,ZGNN 101500Z AUTO 00000KT 4SM 21/20 A3014 RMK SLP194 T02140197 52008 IEM_DS3505
ZGNN,1997-11-10 18:00,ZGNN 101800Z AUTO 00000KT 3SM 21/20 A3010 RMK SLP180 T02130201 57014 IEM_DS3505
ZGNN,1997-11-10 21:00,ZGNN 102100Z AUTO 00000KT 6SM 22/20 A3009 RMK 70004 SLP150 T02150201 57004 IEM_DS3505
ZGNN,1997-11-10 22:00,ZGNN 102200Z AUTO 16008KT 5SM 21/20 A3006 RMK SLP168 T02100200 IEM_DS3505
ZGNN,1997-11-10 23:00,ZGNN 102300Z AUTO 16004KT 4SM 21/20 A3009 RMK SLP178 T02100200 IEM_DS3505
ZGNN,1997-11-11 00:00,ZGNN 110000Z AUTO 07002KT 6SM 22/20 A3012 RMK 70004 SLP193 T02150200 52017 IEM_DS3505
ZGNN,1997-11-11 01:00,ZGNN 110100Z AUTO 12006KT 7SM 22/21 A3012 RMK SLP187 T02200210 IEM_DS3505
ZGNN,1997-11-11 02:00,ZGNN 110200Z AUTO 16008KT 7SM 24/21 A3012 RMK SLP187 T02400210 IEM_DS3505
ZGNN,1997-11-11 03:00,ZGNN 110300Z AUTO 25004KT 7SM 25/20 A3012 RMK SLP190 T02530204 57002 IEM_DS3505
ZGNN,1997-11-11 04:00,ZGNN 110400Z AUTO 18012KT 7SM 25/20 A3009 RMK SLP177 T02500200 IEM_DS3505
ZGNN,1997-11-11 05:00,ZGNN 110500Z AUTO 17008KT 7SM 25/20 A3009 RMK SLP177 T02500200 IEM_DS3505
ZGNN,1997-11-11 06:00,ZGNN 110600Z AUTO 16004KT 9SM 25/21 A3003 RMK SLP162 T02530209 57028 IEM_DS3505
ZGNN,1997-11-11 07:00,ZGNN 110700Z AUTO 16010KT 7SM 25/20 A3003 RMK SLP156 T02500200 IEM_DS3505
ZGNN,1997-11-11 09:00,ZGNN 110900Z AUTO 18004KT 9SM 26/20 A3002 RMK SLP152 T02610200 57010 IEM_DS3505
ZGNN,1997-11-11 11:00,ZGNN 111100Z AUTO 17004KT 6SM 23/20 A3003 RMK SLP157 T02300200 IEM_DS3505
ZGNN,1997-11-11 12:00,ZGNN 111200Z AUTO 20002KT 9SM 24/19 A3003 RMK SLP162 T02410193 52010 IEM_DS3505
ZGNN,1997-11-11 13:00,ZGNN 111300Z AUTO 18006KT 6SM 22/20 A3003 RMK SLP157 T02200200 IEM_DS3505
ZGNN,1997-11-11 15:00,ZGNN 111500Z AUTO 18002KT 8SM 22/19 A3006 RMK SLP167 T02250194 52005 IEM_DS3505
ZGNN,1997-11-11 18:00,ZGNN 111800Z AUTO 00000KT 7SM 22/20 A3005 RMK SLP164 T02190199 57003 IEM_DS3505
ZGNN,1997-11-11 21:00,ZGNN 112100Z AUTO 00000KT 7SM 22/20 A3003 RMK SLP156 T02180204 57008 IEM_DS3505
ZGNN,1997-11-11 22:00,ZGNN 112200Z AUTO 00000KT 6SM 19/18 A3003 RMK SLP158 T01900180 IEM_DS3505
ZGNN,1997-11-11 23:00,ZGNN 112300Z AUTO 00000KT 1 1/4SM 20/19 A3003 RMK SLP158 T02000190 IEM_DS3505
ZGNN,1997-11-12 00:00,ZGNN 120000Z AUTO 00000KT 6SM 22/21 A3006 RMK SLP170 T02200206 52014 IEM_DS3505
ZGNN,1997-11-12 01:00,ZGNN 120100Z AUTO 00000KT 1 1/4SM 22/21 A3009 RMK SLP177 T02200210 IEM_DS3505
ZGNN,1997-11-12 02:00,ZGNN 120200Z AUTO 12004KT 1 1/2SM 23/21 A3009 RMK SLP177 T02300210 IEM_DS3505
ZGNN,1997-11-12 03:00,ZGNN 120300Z AUTO 07002KT 8SM 24/21 A3009 RMK SLP179 T02420213 52009 IEM_DS3505
ZGNN,1997-11-12 04:00,ZGNN 120400Z AUTO 12008KT 7SM 27/20 A3006 RMK SLP166 T02700200 IEM_DS3505
ZGNN,1997-11-12 05:00,ZGNN 120500Z AUTO 12006KT 7SM 27/20 A3003 RMK SLP156 T02700200 IEM_DS3505
ZGNN,1997-11-12 06:00,ZGNN 120600Z AUTO 25002KT 12SM 27/20 A3000 RMK SLP151 T02670204 57028 IEM_DS3505
ZGNN,1997-11-12 07:00,ZGNN 120700Z AUTO 14012KT 6SM 27/20 A3000 RMK SLP146 T02700200 IEM_DS3505
ZGNN,1997-11-12 08:00,ZGNN 120800Z AUTO 14010KT 6SM 25/20 A3000 RMK SLP146 T02500200 IEM_DS3505
ZGNN,1997-11-12 09:00,ZGNN 120900Z AUTO 20006KT 14SM 25/20 A3000 RMK SLP145 T02540204 57006 IEM_DS3505
ZGNN,1997-11-12 10:00,ZGNN 121000Z AUTO 12004KT 6SM 24/21 A3000 RMK SLP147 T02400210 IEM_DS3505
ZGNN,1997-11-12 11:00,ZGNN 121100Z AUTO 07002KT 12SM 23/21 A3000 RMK SLP159 T02300210 IEM_DS3505
ZGNN,1997-11-12 12:00,ZGNN 121200Z AUTO 07002KT 12SM 24/21 A3003 RMK SLP159 T02430210 52014 IEM_DS3505
ZGNN,1997-11-12 13:00,ZGNN 121300Z AUTO 00000KT 6SM 22/21 A3003 RMK SLP157 T02200210 IEM_DS3505
ZGNN,1997-11-12 14:00,ZGNN 121400Z AUTO 00000KT 6SM 21/20 A3003 RMK SLP158 T02100200 IEM_DS3505
ZGNN,1997-11-12 15:00,ZGNN 121500Z AUTO 00000KT 12SM 23/21 A3005 RMK SLP163 T02280211 52004 IEM_DS3505
ZGNN,1997-11-12 18:00,ZGNN 121800Z AUTO 00000KT 10SM 21/20 A3000 RMK SLP148 T02120204 57015 IEM_DS3505
ZGNN,1997-11-12 21:00,ZGNN 122100Z AUTO 00000KT 10SM 21/20 A2997 RMK SLP145 T02070198 57003 IEM_DS3505
ZGNN,1997-11-12 22:00,ZGNN 122200Z AUTO 00000KT 1 1/2SM 18/18 A3000 RMK SLP148 T01800180 IEM_DS3505
ZGNN,1997-11-12 23:00,ZGNN 122300Z AUTO 00000KT 1SM 18/18 A3000 RMK SLP148 T01800180 IEM_DS3505
ZGNN,1997-11-13 00:00,ZGNN 130000Z AUTO 20002KT 7SM 21/19 A3003 RMK SLP161 T02090193 52015 IEM_DS3505
ZGNN,1997-11-13 01:00,ZGNN 130100Z AUTO 25002KT 5SM 22/20 A3003 RMK SLP157 T02200200 IEM_DS3505
ZGNN,1997-11-13 02:00,ZGNN 130200Z AUTO 24006KT 6SM 25/20 A3006 RMK SLP166 T02500200 IEM_DS3505
ZGNN,1997-11-13 03:00,ZGNN 130300Z AUTO 00000KT 9SM 26/21 A3006 RMK SLP170 T02550213 52010 IEM_DS3505
ZGNN,1997-11-13 04:00,ZGNN 130400Z AUTO 23006KT 7SM 28/21 A3003 RMK SLP155 T02800210 IEM_DS3505
ZGNN,1997-11-13 05:00,ZGNN 130500Z AUTO 19004KT 7SM 30/20 A3000 RMK SLP145 T03000200 IEM_DS3505
ZGNN,1997-11-13 06:00,ZGNN 130600Z AUTO 29004KT 11SM 29/20 A2997 RMK SLP134 T02870199 57035 IEM_DS3505
ZGNN,1997-11-13 07:00,ZGNN 130700Z AUTO 31004KT 7SM 29/19 A2994 RMK SLP125 T02900190 IEM_DS3505
ZGNN,1997-11-13 08:00,ZGNN 130800Z AUTO 00000KT 7SM 29/19 A2991 RMK SLP115 T02900190 IEM_DS3505
ZGNN,1997-11-13 09:00,ZGNN 130900Z AUTO 00000KT 11SM 28/20 A2991 RMK SLP119 T02850201 57015 IEM_DS3505
ZGNN,1997-11-13 10:00,ZGNN 131000Z AUTO 12004KT 7SM 27/21 A2991 RMK SLP115 T02700210 IEM_DS3505
ZGNN,1997-11-13 11:00,ZGNN 131100Z AUTO 14006KT 7SM 24/20 A2994 RMK SLP126 T02400200 IEM_DS3505
ZGNN,1997-11-13 12:00,ZGNN 131200Z AUTO 00000KT 12SM 26/21 A2997 RMK SLP133 T02570209 52013 IEM_DS3505
ZGNN,1997-11-13 13:00,ZGNN 131300Z AUTO 00000KT 6SM 23/21 A2997 RMK SLP137 T02300210 IEM_DS3505
ZGNN,1997-11-13 15:00,ZGNN 131500Z AUTO 09002KT 12SM 24/22 A2999 RMK SLP143 T02360217 52011 IEM_DS3505
ZGNN,1997-11-13 18:00,ZGNN 131800Z AUTO 04004KT 12SM 22/21 A2997 RMK SLP135 T02220211 57008 IEM_DS3505
ZGNN,1997-11-13 21:00,ZGNN 132100Z AUTO 00000KT 22/21 A2994 RMK SLP132 T02170208 57003 IEM_DS3505
ZGNN,1997-11-13 22:00,ZGNN 132200Z AUTO 12004KT 1/4SM 21/20 A2997 RMK SLP137 T02100200 IEM_DS3505
ZGNN,1997-11-13 23:00,ZGNN 132300Z AUTO 14004KT 5SM 21/20 A2997 RMK SLP137 T02100200 IEM_DS3505
ZGNN,1997-11-14 00:00,ZGNN 140000Z AUTO 00000KT 5SM 21/20 A3000 RMK SLP151 T02130202 52018 IEM_DS3505
ZGNN,1997-11-14 01:00,ZGNN 140100Z AUTO 13004KT 7SM 23/21 A3003 RMK SLP157 T02300210 IEM_DS3505
ZGNN,1997-11-14 02:00,ZGNN 140200Z AUTO 00000KT 7SM 25/20 A3003 RMK SLP156 T02500200 IEM_DS3505
ZGNN,1997-11-14 03:00,ZGNN 140300Z AUTO 00000KT 9SM 26/21 A3003 RMK SLP155 T02570212 52005 IEM_DS3505
ZGNN,1997-11-14 04:00,ZGNN 140400Z AUTO 23004KT 7SM 27/19 A3000 RMK SLP146 T02700190 IEM_DS3505
ZGNN,1997-11-14 05:00,ZGNN 140500Z AUTO 15006KT 7SM 28/20 A2994 RMK SLP125 T02800200 IEM_DS3505
ZGNN,1997-11-14 06:00,ZGNN 140600Z AUTO 09004KT 12SM 28/20 A2991 RMK SLP118 T02770203 57037 IEM_DS3505
ZGNN,1997-11-14 07:00,ZGNN 140700Z AUTO 31004KT 7SM 28/20 A2988 RMK SLP105 T02800200 IEM_DS3505
ZGNN,1997-11-14 08:00,ZGNN 140800Z AUTO 00000KT 7SM 28/20 A2988 RMK SLP105 T02800200 IEM_DS3505
ZGNN,1997-11-14 09:00,ZGNN 140900Z AUTO 00000KT 12SM 28/20 A2988 RMK SLP108 T02760202 57010 IEM_DS3505
ZGNN,1997-11-14 10:00,ZGNN 141000Z AUTO 16006KT 7SM 26/20 A2988 RMK SLP106 T02600200 IEM_DS3505
ZGNN,1997-11-14 11:00,ZGNN 141100Z AUTO 19006KT 7SM 25/20 A2991 RMK SLP116 T02500200 IEM_DS3505
ZGNN,1997-11-14 12:00,ZGNN 141200Z AUTO 20002KT 16SM 26/21 A2991 RMK SLP119 T02570206 52010 IEM_DS3505
ZGNN,1997-11-14 13:00,ZGNN 141300Z AUTO 18006KT 6SM 23/20 A2994 RMK SLP127 T02300200 IEM_DS3505
ZGNN,1997-11-14 15:00,ZGNN 141500Z AUTO 07004KT 14SM 23/20 A2994 RMK SLP126 T02340203 52008 IEM_DS3505
ZGNN,1997-11-14 18:00,ZGNN 141800Z AUTO 07002KT 12SM 21/19 A2991 RMK SLP117 T02140191 57009 IEM_DS3505
ZGNN,1997-11-14 21:00,ZGNN 142100Z AUTO 07004KT 12SM 21/19 A2988 RMK SLP115 T02130189 57002 IEM_DS3505
ZGNN,1997-11-14 22:00,ZGNN 142200Z AUTO 06006KT 2SM 21/20 A2988 RMK SLP107 T02100200 IEM_DS3505
ZGNN,1997-11-14 23:00,ZGNN 142300Z AUTO 03004KT 1 1/2SM 20/20 A2991 RMK SLP117 T02000200 IEM_DS3505
ZGNN,1997-11-15 00:00,ZGNN 150000Z AUTO 07002KT 7SM 21/19 A2991 RMK SLP124 T02130193 52008 IEM_DS3505
ZGNN,1997-11-15 01:00,ZGNN 150100Z AUTO 07006KT 2SM 21/20 A2994 RMK SLP127 T02100200 IEM_DS3505
ZGNN,1997-11-15 02:00,ZGNN 150200Z AUTO 00000KT 4SM 23/21 A2994 RMK SLP127 T02300210 IEM_DS3505
ZGNN,1997-11-15 03:00,ZGNN 150300Z AUTO 16002KT 9SM 25/21 A2994 RMK SLP129 T02470211 52006 IEM_DS3505
ZGNN,1997-11-15 05:00,ZGNN 150500Z AUTO 00000KT 7SM 27/20 A2988 RMK SLP105 T02700200 IEM_DS3505
ZGNN,1997-11-15 06:00,ZGNN 150600Z AUTO 00000KT 12SM 27/21 A2985 RMK SLP095 T02690208 57034 IEM_DS3505
ZGNN,1997-11-15 07:00,ZGNN 150700Z AUTO 14008KT 7SM 29/20 A2983 RMK SLP088 T02900200 IEM_DS3505
ZGNN,1997-11-15 08:00,ZGNN 150800Z AUTO 13008KT 7SM 28/20 A2980 RMK SLP078 T02800200 IEM_DS3505
ZGNN,1997-11-15 09:00,ZGNN 150900Z AUTO 20002KT 16SM 28/21 A2983 RMK SLP083 T02820212 57012 IEM_DS3505
ZGNN,1997-11-15 10:00,ZGNN 151000Z AUTO 14010KT 7SM 26/21 A2983 RMK SLP088 T02600210 IEM_DS3505
ZGNN,1997-11-15 11:00,ZGNN 151100Z AUTO 16010KT 7SM 25/21 A2983 RMK SLP089 T02500210 IEM_DS3505
ZGNN,1997-11-15 12:00,ZGNN 151200Z AUTO 00000KT 12SM 25/21 A2985 RMK SLP099 T02530213 52016 IEM_DS3505
ZGNN,1997-11-15 13:00,ZGNN 151300Z AUTO 16006KT 6SM 23/21 A2988 RMK SLP107 T02300210 IEM_DS3505
ZGNN,1997-11-15 15:00,ZGNN 151500Z AUTO 14002KT 12SM 24/22 A2991 RMK SLP115 T02370216 52016 IEM_DS3505
ZGNN,1997-11-15 18:00,ZGNN 151800Z AUTO 00000KT 12SM 23/22 A2990 RMK SLP113 T02310218 57002 IEM_DS3505
ZGNN,1997-11-15 21:00,ZGNN 152100Z AUTO 04004KT 11SM 23/21 A2991 RMK SLP117 T02270212 52004 IEM_DS3505
ZGNN,1997-11-15 22:00,ZGNN 152200Z AUTO 00000KT 4SM 22/21 A2991 RMK SLP117 T02200210 IEM_DS3505
ZGNN,1997-11-15 23:00,ZGNN 152300Z AUTO 00000KT 7SM 22/21 A2994 RMK SLP127 T02200210 IEM_DS3505
ZGNN,1997-11-16 00:00,ZGNN 160000Z AUTO 00000KT 9SM 23/21 A2997 RMK SLP136 T02270213 52017 IEM_DS3505
ZGNN,1997-11-16 01:00,ZGNN 160100Z AUTO 00000KT 7SM 24/22 A2997 RMK SLP136 T02400220 IEM_DS3505
ZGNN,1997-11-16 02:00,ZGNN 160200Z AUTO 00000KT 7SM 26/22 A3000 RMK SLP146 T02600220 IEM_DS3505
ZGNN,1997-11-16 03:00,ZGNN 160300Z AUTO 02004KT 12SM 27/22 A3000 RMK SLP156 T02680216 52021 IEM_DS3505
ZGNN,1997-11-16 04:00,ZGNN 160400Z AUTO 35010KT 7SM 26/23 A3000 RMK SLP146 T02600230 IEM_DS3505
ZGNN,1997-11-16 05:00,ZGNN 160500Z AUTO 34025KT 7SM 21/17 A3003 RMK SLP158 T02100170 IEM_DS3505
ZGNN,1997-11-16 06:00,ZGNN 160600Z AUTO 04006KT 16SM 21/15 A3006 RMK 60000 SLP172 T02110154 52015 IEM_DS3505
ZGNN,1997-11-16 07:00,ZGNN 160700Z AUTO 01012KT 7SM 20/15 A3006 RMK SLP168 T02000150 IEM_DS3505
ZGNN,1997-11-16 08:00,ZGNN 160800Z AUTO 02012KT 7SM 20/15 A3006 RMK SLP168 T02000150 IEM_DS3505
ZGNN,1997-11-16 09:00,ZGNN 160900Z AUTO 07004KT 16SM 21/13 A3006 RMK SLP176 T02140129 52004 IEM_DS3505
ZGNN,1997-11-16 10:00,ZGNN 161000Z AUTO 01012KT 7SM 21/12 A3009 RMK SLP178 T02100120 IEM_DS3505
ZGNN,1997-11-16 11:00,ZGNN 161100Z AUTO 01012KT 7SM 20/12 A3012 RMK SLP188 T02000120 IEM_DS3505
ZGNN,1997-11-16 12:00,ZGNN 161200Z AUTO 04006KT 14SM 20/12 A3015 RMK SLP208 T01960121 52031 IEM_DS3505
ZGNN,1997-11-16 13:00,ZGNN 161300Z AUTO 02006KT 7SM 19/12 A3018 RMK SLP209 T01900120 IEM_DS3505
ZGNN,1997-11-16 15:00,ZGNN 161500Z AUTO 04006KT 14SM 18/10 A3021 RMK SLP219 T01820095 52011 IEM_DS3505
ZGNN,1997-11-16 18:00,ZGNN 161800Z AUTO 04006KT 12SM 17/06 A3021 RMK SLP219 T01730061 57001 IEM_DS3505
ZGNN,1997-11-16 21:00,ZGNN 162100Z AUTO 04008KT 9SM 16/05 A3021 RMK 70000 SLP231 T01600051 52012 IEM_DS3505
ZGNN,1997-11-16 22:00,ZGNN 162200Z AUTO 01006KT 7SM 15/07 A3024 RMK SLP230 T01500070 IEM_DS3505
ZGNN,1997-11-16 23:00,ZGNN 162300Z AUTO 06008KT 7SM 15/04 A3027 RMK SLP241 T01500040 IEM_DS3505
ZGNN,1997-11-17 00:00,ZGNN 170000Z AUTO 07004KT 16SM 14/04 A3030 RMK SLP254 T01440039 52022 IEM_DS3505
ZGNN,1997-11-17 01:00,ZGNN 170100Z AUTO 04008KT 7SM 14/04 A3030 RMK SLP251 T01400040 IEM_DS3505
ZGNN,1997-11-17 02:00,ZGNN 170200Z AUTO 05008KT 6SM 15/05 A3033 RMK SLP261 T01500050 IEM_DS3505
ZGNN,1997-11-17 03:00,ZGNN 170300Z AUTO 04008KT 13SM 16/04 A3030 RMK SLP256 T01610043 52002 IEM_DS3505
ZGNN,1997-11-17 04:00,ZGNN 170400Z AUTO 34010KT 6SM 17/04 A3027 RMK SLP240 T01700040 IEM_DS3505
ZGNN,1997-11-17 05:00,ZGNN 170500Z AUTO 36008KT 6SM 17/04 A3024 RMK SLP229 T01700040 IEM_DS3505
ZGNN,1997-11-17 06:00,ZGNN 170600Z AUTO 07006KT 14SM 17/05 A3021 RMK SLP222 T01740049 57033 IEM_DS3505
ZGNN,1997-11-17 07:00,ZGNN 170700Z AUTO 34010KT 6SM 17/05 A3018 RMK SLP209 T01700050 IEM_DS3505
ZGNN,1997-11-17 08:00,ZGNN 170800Z AUTO 34008KT 6SM 17/05 A3015 RMK SLP199 T01700050 IEM_DS3505
ZGNN,1997-11-17 09:00,ZGNN 170900Z AUTO 07004KT 16SM 18/05 A3015 RMK SLP202 T01750053 57020 IEM_DS3505
ZGNN,1997-11-17 10:00,ZGNN 171000Z AUTO 34006KT 6SM 16/06 A3015 RMK SLP199 T01600060 IEM_DS3505
ZGNN,1997-11-17 11:00,ZGNN 171100Z AUTO 03004KT 6SM 15/07 A3015 RMK SLP200 T01500070 IEM_DS3505
ZGNN,1997-11-17 12:00,ZGNN 171200Z AUTO 07004KT 12SM 16/06 A3018 RMK SLP215 T01550065 52012 IEM_DS3505
ZGNN,1997-11-17 13:00,ZGNN 171300Z AUTO 00000KT 6SM 14/08 A3018 RMK SLP210 T01400080 IEM_DS3505
ZGNN,1997-11-17 15:00,ZGNN 171500Z AUTO 04002KT 12SM 15/05 A3019 RMK SLP215 T01500053 54000 IEM_DS3505
ZGNN,1997-11-17 18:00,ZGNN 171800Z AUTO 36002KT 12SM 15/05 A3017 RMK SLP205 T01470049 57009 IEM_DS3505
ZGNN,1997-11-17 21:00,ZGNN 172100Z AUTO 00000KT 11SM 14/03 A3015 RMK SLP204 T01450032 57001 IEM_DS3505
ZGNN,1997-11-17 22:00,ZGNN 172200Z AUTO 00000KT 6SM 13/07 A3018 RMK SLP210 T01300070 IEM_DS3505
ZGNN,1997-11-17 23:00,ZGNN 172300Z AUTO 00000KT 6SM 13/05 A3018 RMK SLP210 T01300050 IEM_DS3505
ZGNN,1997-11-18 00:00,ZGNN 180000Z AUTO 07004KT 12SM 14/04 A3021 RMK SLP225 T01450038 52020 IEM_DS3505
ZGNN,1997-11-18 01:00,ZGNN 180100Z AUTO 05004KT 7SM 14/04 A3024 RMK SLP230 T01400040 IEM_DS3505
ZGNN,1997-11-18 02:00,ZGNN 180200Z AUTO 03006KT 7SM 15/02 A3024 RMK SLP230 T01500020 IEM_DS3505
ZGNN,1997-11-18 03:00,ZGNN 180300Z AUTO 02004KT 16SM 16/02 A3024 RMK SLP233 T01610023 52008 IEM_DS3505
ZGNN,1997-11-18 04:00,ZGNN 180400Z AUTO 02012KT 7SM 17/01 A3021 RMK SLP219 T01700010 IEM_DS3505
ZGNN,1997-11-18 05:00,ZGNN 180500Z AUTO 35006KT 7SM 17/01 A3018 RMK SLP209 T01700010 IEM_DS3505
ZGNN,1997-11-18 06:00,ZGNN 180600Z AUTO 34004KT 16SM 18/02 A3015 RMK SLP202 T01800019 57030 IEM_DS3505
ZGNN,1997-11-18 07:00,ZGNN 180700Z AUTO 05006KT 7SM 19/03 A3012 RMK SLP188 T01900030 IEM_DS3505
ZGNN,1997-11-18 08:00,ZGNN 180800Z AUTO 03006KT 7SM 19/03 A3012 RMK SLP188 T01900030 IEM_DS3505
ZGNN,1997-11-18 09:00,ZGNN 180900Z AUTO 07004KT 16SM 19/05 A3009 RMK SLP188 T01880050 57014 IEM_DS3505
ZGNN,1997-11-18 12:00,ZGNN 181200Z AUTO 09004KT 12SM 16/04 A3012 RMK SLP201 T01620043 52012 IEM_DS3505
ZGNN,1997-11-18 13:00,ZGNN 181300Z AUTO 06004KT 7SM 15/05 A3015 RMK SLP200 T01500050 IEM_DS3505
ZGNN,1997-11-18 15:00,ZGNN 181500Z AUTO 02002KT 11SM 16/04 A3016 RMK SLP205 T01560045 52004 IEM_DS3505
ZGNN,1997-11-18 18:00,ZGNN 181800Z AUTO 07004KT 11SM 15/06 A3015 RMK SLP198 T01530057 57006 IEM_DS3505
ZGNN,1997-11-18 21:00,ZGNN 182100Z AUTO 04004KT 11SM 15/07 A3012 RMK SLP191 T01510067 57007 IEM_DS3505
ZGNN,1997-11-18 22:00,ZGNN 182200Z AUTO 00000KT 7SM 15/07 A3012 RMK SLP190 T01500070 IEM_DS3505
ZGNN,1997-11-18 23:00,ZGNN 182300Z AUTO 00000KT 7SM 13/10 A3015 RMK SLP200 T01300100 IEM_DS3505
ZGNN,1997-11-19 00:00,ZGNN 190000Z AUTO 04004KT 9SM 15/09 A3018 RMK SLP214 T01490093 52022 IEM_DS3505
ZGNN,1997-11-19 01:00,ZGNN 190100Z AUTO 08006KT 2 1/2SM 12/11 A3021 RMK SLP221 T01200110 IEM_DS3505
ZGNN,1997-11-19 02:00,ZGNN 190200Z AUTO 09004KT 1 1/4SM 12/11 A3021 RMK SLP221 T01200110 IEM_DS3505
ZGNN,1997-11-19 03:00,ZGNN 190300Z AUTO 09004KT 6SM 12/12 A3021 RMK SLP226 T01230115 52012 IEM_DS3505
ZGNN,1997-11-19 04:00,ZGNN 190400Z AUTO 03006KT 1SM 12/12 A3018 RMK SLP211 T01200120 IEM_DS3505
ZGNN,1997-11-19 05:00,ZGNN 190500Z AUTO 03006KT 1SM 12/12 A3015 RMK SLP201 T01200120 IEM_DS3505
ZGNN,1997-11-19 06:00,ZGNN 190600Z AUTO 36002KT 3SM 13/12 A3012 RMK 60008 SLP200 T01270118 57026 IEM_DS3505
ZGNN,1997-11-19 07:00,ZGNN 190700Z AUTO 03004KT 1 1/4SM 13/12 A3012 RMK SLP190 T01300120 IEM_DS3505
ZGNN,1997-11-19 08:00,ZGNN 190800Z AUTO 05004KT 1SM 13/12 A3012 RMK SLP190 T01300120 IEM_DS3505
ZGNN,1997-11-19 09:00,ZGNN 190900Z AUTO 04002KT 4SM 13/12 A3012 RMK SLP194 T01320125 57006 IEM_DS3505
ZGNN,1997-11-19 10:00,ZGNN 191000Z AUTO 00000KT 1SM 13/13 A3012 RMK SLP190 T01300130 IEM_DS3505
ZGNN,1997-11-19 11:00,ZGNN 191100Z AUTO 00000KT 1 1/4SM 13/13 A3015 RMK SLP200 T01300130 IEM_DS3505
ZGNN,1997-11-19 12:00,ZGNN 191200Z AUTO 36002KT 4SM 14/13 A3015 RMK 60008 SLP209 T01350130 52015 IEM_DS3505
ZGNN,1997-11-19 13:00,ZGNN 191300Z AUTO 00000KT 1 1/4SM 13/13 A3015 RMK SLP200 T01300130 IEM_DS3505
ZGNN,1997-11-19 14:00,ZGNN 191400Z AUTO 00000KT 1 1/2SM 13/13 A3015 RMK SLP200 T01300130 IEM_DS3505
ZGNN,1997-11-19 15:00,ZGNN 191500Z AUTO 00000KT 7SM 13/12 A3016 RMK SLP204 T01340123 57005 IEM_DS3505
ZGNN,1997-11-19 18:00,ZGNN 191800Z AUTO 00000KT 6SM 14/12 A3013 RMK 60000 SLP193 T01400124 57011 IEM_DS3505
ZGNN,1997-11-19 21:00,ZGNN 192100Z AUTO 00000KT 7SM 14/13 A3009 RMK SLP187 T01370132 57006 IEM_DS3505
ZGNN,1997-11-19 22:00,ZGNN 192200Z AUTO 00000KT 1SM 13/13 A3012 RMK SLP190 T01300130 IEM_DS3505
ZGNN,1997-11-19 23:00,ZGNN 192300Z AUTO 00000KT 1SM 13/13 A3012 RMK SLP190 T01300130 IEM_DS3505
ZGNN,1997-11-20 00:00,ZGNN 200000Z AUTO 00000KT 6SM 14/13 A3015 RMK 60004 70020 SLP201 T01410132 52014 IEM_DS3505
ZGNN,1997-11-20 01:00,ZGNN 200100Z AUTO 12004KT 1SM 14/14 A3015 RMK SLP200 T01400140 IEM_DS3505
ZGNN,1997-11-20 02:00,ZGNN 200200Z AUTO 00000KT 1 1/4SM 14/14 A3015 RMK SLP200 T01400140 IEM_DS3505
ZGNN,1997-11-20 03:00,ZGNN 200300Z AUTO 00000KT 6SM 15/14 A3015 RMK SLP205 T01480136 52004 IEM_DS3505
ZGNN,1997-11-20 04:00,ZGNN 200400Z AUTO 04004KT 1SM 15/14 A3012 RMK SLP190 T01500140 IEM_DS3505
ZGNN,1997-11-20 05:00,ZGNN 200500Z AUTO 05004KT 1SM 15/14 A3009 RMK SLP179 T01500140 IEM_DS3505
ZGNN,1997-11-20 06:00,ZGNN 200600Z AUTO 00000KT 6SM 16/14 A3006 RMK SLP176 T01590140 57029 IEM_DS3505
ZGNN,1997-11-20 07:00,ZGNN 200700Z AUTO 35006KT 1SM 15/15 A3003 RMK SLP159 T01500150 IEM_DS3505
ZGNN,1997-11-20 08:00,ZGNN 200800Z AUTO 00000KT 1SM 16/15 A3003 RMK SLP159 T01600150 IEM_DS3505
ZGNN,1997-11-20 09:00,ZGNN 200900Z AUTO 00000KT 3SM 17/15 A3003 RMK SLP160 T01710149 57015 IEM_DS3505
ZGNN,1997-11-20 10:00,ZGNN 201000Z AUTO 00000KT 1SM 16/16 A3003 RMK SLP159 T01600160 IEM_DS3505
ZGNN,1997-11-20 11:00,ZGNN 201100Z AUTO 00000KT 1SM 17/16 A3003 RMK SLP159 T01700160 IEM_DS3505
ZGNN,1997-11-20 12:00,ZGNN 201200Z AUTO 00000KT 1 1/4SM 17/16 A3006 RMK SLP168 T01730156 52008 IEM_DS3505
ZGNN,1997-11-20 13:00,ZGNN 201300Z AUTO 00000KT 1SM 16/15 A3006 RMK SLP169 T01600150 IEM_DS3505
ZGNN,1997-11-20 15:00,ZGNN 201500Z AUTO 00000KT 1 1/4SM 17/16 A3007 RMK SLP174 T01690159 52006 IEM_DS3505
ZGNN,1997-11-20 18:00,ZGNN 201800Z AUTO 00000KT 1 1/4SM 18/16 A3007 RMK SLP174 T01750162 54000 IEM_DS3505
ZGNN,1997-11-20 21:00,ZGNN 202100Z AUTO 00000KT 1 1/4SM 18/16 A3003 RMK 70004 SLP164 T01760161 57010 IEM_DS3505
ZGNN,1997-11-20 22:00,ZGNN 202200Z AUTO 00000KT 1/4SM 17/17 A3006 RMK SLP169 T01700170 IEM_DS3505
ZGNN,1997-11-20 23:00,ZGNN 202300Z AUTO 00000KT 1SM 17/17 A3006 RMK SLP169 T01700170 IEM_DS3505
ZGNN,1997-11-21 00:00,ZGNN 210000Z AUTO 00000KT 1 1/4SM 18/17 A3009 RMK SLP180 T01820170 52016 IEM_DS3505
ZGNN,1997-11-21 01:00,ZGNN 210100Z AUTO 00000KT 1/8SM 18/18 A3012 RMK SLP189 T01800180 IEM_DS3505
ZGNN,1997-11-21 02:00,ZGNN 210200Z AUTO 00000KT 1/4SM 19/19 A3012 RMK SLP188 T01900190 IEM_DS3505
ZGNN,1997-11-21 03:00,ZGNN 210300Z AUTO 00000KT 2SM 25/21 A3009 RMK SLP181 T02480206 52002 IEM_DS3505
ZGNN,1997-11-21 04:00,ZGNN 210400Z AUTO 00000KT 6SM 25/20 A3006 RMK SLP166 T02500200 IEM_DS3505
ZGNN,1997-11-21 05:00,ZGNN 210500Z AUTO 12006KT 7SM 28/19 A3003 RMK SLP155 T02800190 IEM_DS3505
ZGNN,1997-11-21 06:00,ZGNN 210600Z AUTO 18004KT 9SM 28/20 A3000 RMK SLP147 T02820197 57033 IEM_DS3505
ZGNN,1997-11-21 07:00,ZGNN 210700Z AUTO 24002KT 7SM 29/20 A2997 RMK SLP135 T02900200 IEM_DS3505
ZGNN,1997-11-21 08:00,ZGNN 210800Z AUTO 21006KT 6SM 30/20 A2994 RMK SLP125 T03000200 IEM_DS3505
ZGNN,1997-11-21 09:00,ZGNN 210900Z AUTO 11002KT 16SM 28/20 A2997 RMK SLP135 T02780203 57012 IEM_DS3505
ZGNN,1997-11-21 10:00,ZGNN 211000Z AUTO 13006KT 6SM 26/21 A2997 RMK SLP136 T02600210 IEM_DS3505
ZGNN,1997-11-21 11:00,ZGNN 211100Z AUTO 14004KT 6SM 24/21 A2997 RMK SLP136 T02400210 IEM_DS3505
ZGNN,1997-11-21 12:00,ZGNN 211200Z AUTO 00000KT 14SM 24/20 A3000 RMK SLP148 T02450202 52013 IEM_DS3505
ZGNN,1997-11-21 13:00,ZGNN 211300Z AUTO 00000KT 6SM 22/20 A3000 RMK SLP147 T02200200 IEM_DS3505
ZGNN,1997-11-21 15:00,ZGNN 211500Z AUTO 00000KT 12SM 23/20 A3002 RMK SLP155 T02320205 52007 IEM_DS3505
ZGNN,1997-11-21 18:00,ZGNN 211800Z AUTO 00000KT 12SM 22/20 A3001 RMK SLP149 T02160204 57005 IEM_DS3505
ZGNN,1997-11-21 21:00,ZGNN 212100Z AUTO 00000KT 12SM 21/20 A3000 RMK SLP148 T02130199 57001 IEM_DS3505
ZGNN,1997-11-21 22:00,ZGNN 212200Z AUTO 07002KT 3SM 20/19 A3000 RMK SLP148 T02000190 IEM_DS3505
ZGNN,1997-11-21 23:00,ZGNN 212300Z AUTO 07004KT 2SM 20/20 A3003 RMK SLP158 T02000200 IEM_DS3505
ZGNN,1997-11-22 00:00,ZGNN 220000Z AUTO 07004KT 9SM 20/18 A3006 RMK SLP169 T02000177 52020 IEM_DS3505
ZGNN,1997-11-22 01:00,ZGNN 220100Z AUTO 06004KT 1 1/4SM 20/19 A3009 RMK SLP178 T02000190 IEM_DS3505
ZGNN,1997-11-22 02:00,ZGNN 220200Z AUTO 07004KT 2 1/2SM 20/19 A3009 RMK SLP178 T02000190 IEM_DS3505
ZGNN,1997-11-22 03:00,ZGNN 220300Z AUTO 07004KT 9SM 20/18 A3009 RMK SLP187 T02000179 52017 IEM_DS3505
ZGNN,1997-11-22 04:00,ZGNN 220400Z AUTO 08006KT 2 1/2SM 21/19 A3009 RMK SLP178 T02100190 IEM_DS3505
ZGNN,1997-11-22 05:00,ZGNN 220500Z AUTO 03004KT 6SM 22/18 A3006 RMK SLP167 T02200180 IEM_DS3505
ZGNN,1997-11-22 06:00,ZGNN 220600Z AUTO 02004KT 11SM 23/19 A3003 RMK SLP156 T02310187 57030 IEM_DS3505
ZGNN,1997-11-22 07:00,ZGNN 220700Z AUTO 03006KT 7SM 25/16 A3000 RMK SLP146 T02500160 IEM_DS3505
ZGNN,1997-11-22 08:00,ZGNN 220800Z AUTO 02006KT 7SM 25/20 A2997 RMK SLP136 T02500200 IEM_DS3505
ZGNN,1997-11-22 09:00,ZGNN 220900Z AUTO 07006KT 12SM 23/18 A2997 RMK SLP143 T02290182 57013 IEM_DS3505
ZGNN,1997-11-22 10:00,ZGNN 221000Z AUTO 08006KT 6SM 23/19 A2997 RMK SLP137 T02300190 IEM_DS3505
ZGNN,1997-11-22 11:00,ZGNN 221100Z AUTO 07008KT 7SM 21/18 A3000 RMK SLP147 T02100180 IEM_DS3505
ZGNN,1997-11-22 12:00,ZGNN 221200Z AUTO 07004KT 9SM 20/16 A3003 RMK SLP163 T01950165 52019 IEM_DS3505
ZGNN,1997-11-22 13:00,ZGNN 221300Z AUTO 08006KT 7SM 20/16 A3003 RMK SLP158 T02000160 IEM_DS3505
ZGNN,1997-11-22 15:00,ZGNN 221500Z AUTO 11002KT 9SM 19/16 A3004 RMK SLP161 T01880156 57002 IEM_DS3505
ZGNN,1997-11-22 18:00,ZGNN 221800Z AUTO 04004KT 9SM 18/15 A3001 RMK SLP150 T01820153 57011 IEM_DS3505
ZGNN,1997-11-22 21:00,ZGNN 222100Z AUTO 07002KT 9SM 18/15 A2999 RMK SLP146 T01810150 57004 IEM_DS3505
ZGNN,1997-11-22 22:00,ZGNN 222200Z AUTO 00000KT 7SM 18/16 A3000 RMK SLP148 T01800160 IEM_DS3505
ZGNN,1997-11-23 00:00,ZGNN 230000Z AUTO 00000KT 7SM 18/16 A3003 RMK SLP161 T01790155 52015 IEM_DS3505
ZGNN,1997-11-23 01:00,ZGNN 230100Z AUTO 05006KT 3SM 18/15 A3003 RMK SLP158 T01800150 IEM_DS3505
ZGNN,1997-11-23 02:00,ZGNN 230200Z AUTO 08008KT 3SM 19/16 A3003 RMK SLP158 T01900160 IEM_DS3505
ZGNN,1997-11-23 03:00,ZGNN 230300Z AUTO 07002KT 9SM 20/16 A3004 RMK SLP161 T01950162 54000 IEM_DS3505
ZGNN,1997-11-23 04:00,ZGNN 230400Z AUTO 07008KT 4SM 20/17 A2997 RMK SLP138 T02000170 IEM_DS3505
ZGNN,1997-11-23 05:00,ZGNN 230500Z AUTO 06004KT 4SM 21/17 A2994 RMK SLP127 T02100170 IEM_DS3505
ZGNN,1997-11-23 06:00,ZGNN 230600Z AUTO 07002KT 7SM 22/17 A2991 RMK SLP119 T02150171 57042 IEM_DS3505
ZGNN,1997-11-23 07:00,ZGNN 230700Z AUTO 11006KT 4SM 23/18 A2988 RMK SLP107 T02300180 IEM_DS3505
ZGNN,1997-11-23 08:00,ZGNN 230800Z AUTO 14006KT 4SM 23/19 A2985 RMK SLP095 T02300190 IEM_DS3505
ZGNN,1997-11-23 09:00,ZGNN 230900Z AUTO 00000KT 7SM 23/18 A2983 RMK SLP097 T02340182 57021 IEM_DS3505
ZGNN,1997-11-23 10:00,ZGNN 231000Z AUTO 13008KT 7SM 24/20 A2983 RMK SLP089 T02400200 IEM_DS3505
ZGNN,1997-11-23 11:00,ZGNN 231100Z AUTO 15008KT 7SM 23/21 A2985 RMK SLP095 T02300210 IEM_DS3505
ZGNN,1997-11-23 12:00,ZGNN 231200Z AUTO 09023KT 7SM 20/17 A2985 RMK SLP105 T02050174 52007 IEM_DS3505
ZGNN,1997-11-23 13:00,ZGNN 231300Z AUTO 14004KT 6SM 21/20 A2988 RMK SLP107 T02100200 IEM_DS3505
ZGNN,1997-11-23 15:00,ZGNN 231500Z AUTO 07004KT 7SM 19/17 A2989 RMK SLP112 T01940171 52007 IEM_DS3505
ZGNN,1997-11-23 18:00,ZGNN 231800Z AUTO 00000KT 7SM 19/17 A2986 RMK SLP101 T01920174 57010 IEM_DS3505
ZGNN,1997-11-23 21:00,ZGNN 232100Z AUTO 07004KT 7SM 19/18 A2980 RMK SLP082 T01930180 57019 IEM_DS3505
ZGNN,1997-11-23 22:00,ZGNN 232200Z AUTO 00000KT 1SM 19/19 A2980 RMK SLP080 T01900190 IEM_DS3505
ZGNN,1997-11-23 23:00,ZGNN 232300Z AUTO 00000KT 1SM 19/18 A2983 RMK SLP091 T01900180 IEM_DS3505
ZGNN,1997-11-24 00:00,ZGNN 240000Z AUTO 00000KT 5SM 20/19 A2983 RMK SLP096 T02020193 52014 IEM_DS3505
ZGNN,1997-11-24 01:00,ZGNN 240100Z AUTO 00000KT 7SM 22/21 A2985 RMK SLP096 T02200210 IEM_DS3505
ZGNN,1997-11-24 02:00,ZGNN 240200Z AUTO 14012KT 7SM 27/22 A2985 RMK SLP094 T02700220 IEM_DS3505
ZGNN,1997-11-24 03:00,ZGNN 240300Z AUTO 27002KT 9SM 25/22 A2985 RMK SLP099 T02540220 52003 IEM_DS3505
ZGNN,1997-11-24 04:00,ZGNN 240400Z AUTO 16010KT 7SM 28/22 A2980 RMK SLP078 T02800220 IEM_DS3505
ZGNN,1997-11-24 05:00,ZGNN 240500Z AUTO 15010KT 7SM 30/21 A2977 RMK SLP067 T03000210 IEM_DS3505
ZGNN,1997-11-24 06:00,ZGNN 240600Z AUTO 16006KT 12SM 28/22 A2974 RMK SLP057 T02810216 57041 IEM_DS3505
ZGNN,1997-11-24 07:00,ZGNN 240700Z AUTO 15014KT 7SM 29/21 A2971 RMK SLP046 T02900210 IEM_DS3505
ZGNN,1997-11-24 08:00,ZGNN 240800Z AUTO 14016G25KT 7SM 29/21 A2968 RMK SLP036 T02900210 IEM_DS3505
ZGNN,1997-11-24 09:00,ZGNN 240900Z AUTO 18004KT 14SM 28/22 A2971 RMK SLP045 T02780218 57012 IEM_DS3505
ZGNN,1997-11-24 10:00,ZGNN 241000Z AUTO 16016KT 7SM 26/21 A2971 RMK SLP047 T02600210 IEM_DS3505
ZGNN,1997-11-24 11:00,ZGNN 241100Z AUTO 15008KT 6SM 24/21 A2974 RMK SLP058 T02400210 IEM_DS3505
ZGNN,1997-11-24 12:00,ZGNN 241200Z AUTO 20006KT 13SM 25/21 A2974 RMK SLP060 T02490213 52015 IEM_DS3505
ZGNN,1997-11-24 13:00,ZGNN 241300Z AUTO 00000KT 6SM 22/21 A2977 RMK SLP069 T02200210 IEM_DS3505
ZGNN,1997-11-24 14:00,ZGNN 241400Z AUTO 00000KT 6SM 22/21 A2977 RMK SLP069 T02200210 IEM_DS3505
ZGNN,1997-11-24 15:00,ZGNN 241500Z AUTO 22004KT 12SM 24/21 A2977 RMK SLP069 T02380211 52009 IEM_DS3505
ZGNN,1997-11-24 18:00,ZGNN 241800Z AUTO 00000KT 12SM 23/21 A2976 RMK SLP065 T02330210 57003 IEM_DS3505
ZGNN,1997-11-24 21:00,ZGNN 242100Z AUTO 00000KT 7SM 21/20 A2975 RMK SLP062 T02100204 57004 IEM_DS3505
ZGNN,1997-11-24 22:00,ZGNN 242200Z AUTO 00000KT 5SM 18/18 A2974 RMK SLP060 T01800180 IEM_DS3505
ZGNN,1997-11-24 23:00,ZGNN 242300Z AUTO 36004KT 2SM 18/18 A2974 RMK SLP060 T01800180 IEM_DS3505
ZGNN,1997-11-25 00:00,ZGNN 250000Z AUTO 00000KT 7SM 21/20 A2977 RMK SLP071 T02120204 52009 IEM_DS3505
ZGNN,1997-11-25 01:00,ZGNN 250100Z AUTO 23006KT 6SM 23/21 A2980 RMK SLP079 T02300210 IEM_DS3505
ZGNN,1997-11-25 02:00,ZGNN 250200Z AUTO 17004KT 6SM 26/21 A2980 RMK SLP078 T02600210 IEM_DS3505
ZGNN,1997-11-25 03:00,ZGNN 250300Z AUTO 00000KT 9SM 27/23 A2980 RMK SLP077 T02740229 52006 IEM_DS3505
ZGNN,1997-11-25 04:00,ZGNN 250400Z AUTO 21006KT 6SM 31/20 A2977 RMK SLP067 T03100200 IEM_DS3505
ZGNN,1997-11-25 05:00,ZGNN 250500Z AUTO 23006KT 6SM 32/19 A2974 RMK SLP056 T03200190 IEM_DS3505
ZGNN,1997-11-25 06:00,ZGNN 250600Z AUTO 29004KT 12SM 31/20 A2971 RMK SLP045 T03070196 57031 IEM_DS3505
ZGNN,1997-11-25 07:00,ZGNN 250700Z AUTO 26008KT 7SM 34/17 A2968 RMK SLP035 T03400170 IEM_DS3505
ZGNN,1997-11-25 08:00,ZGNN 250800Z AUTO 21006KT 7SM 34/15 A2968 RMK SLP035 T03400150 IEM_DS3505
ZGNN,1997-11-25 09:00,ZGNN 250900Z AUTO 00000KT 14SM 31/23 A2971 RMK SLP043 T03130226 57002 IEM_DS3505
ZGNN,1997-11-25 10:00,ZGNN 251000Z AUTO 13006KT 6SM 28/19 A2974 RMK SLP057 T02800190 IEM_DS3505
ZGNN,1997-11-25 11:00,ZGNN 251100Z AUTO 08004KT 6SM 26/21 A2977 RMK SLP068 T02600210 IEM_DS3505
ZGNN,1997-11-25 12:00,ZGNN 251200Z AUTO 00000KT 12SM 26/23 A2980 RMK SLP077 T02650229 52033 IEM_DS3505
ZGNN,1997-11-25 13:00,ZGNN 251300Z AUTO 00000KT 6SM 23/22 A2983 RMK SLP089 T02300220 IEM_DS3505
ZGNN,1997-11-25 15:00,ZGNN 251500Z AUTO 07002KT 12SM 24/22 A2987 RMK SLP101 T02440225 52024 IEM_DS3505
ZGNN,1997-11-25 18:00,ZGNN 251800Z AUTO 07002KT 12SM 23/22 A2987 RMK SLP102 T02260217 52002 IEM_DS3505
ZGNN,1997-11-25 21:00,ZGNN 252100Z AUTO 00000KT 9SM 23/22 A2986 RMK SLP099 T02320222 57003 IEM_DS3505
ZGNN,1997-11-25 22:00,ZGNN 252200Z AUTO 06006KT 1 1/4SM 22/22 A2988 RMK SLP107 T02200220 IEM_DS3505
ZGNN,1997-11-25 23:00,ZGNN 252300Z AUTO 06008KT 5SM 23/22 A2988 RMK SLP107 T02300220 IEM_DS3505
ZGNN,1997-11-26 00:00,ZGNN 260000Z AUTO 04006KT 9SM 22/18 A2994 RMK SLP128 T02230177 52028 IEM_DS3505
ZGNN,1997-11-26 01:00,ZGNN 260100Z AUTO 04006KT 7SM 22/19 A2997 RMK SLP137 T02200190 IEM_DS3505
ZGNN,1997-11-26 02:00,ZGNN 260200Z AUTO 03006KT 7SM 23/16 A2997 RMK SLP137 T02300160 IEM_DS3505
ZGNN,1997-11-26 03:00,ZGNN 260300Z AUTO 07004KT 9SM 24/17 A2997 RMK SLP144 T02390172 52015 IEM_DS3505
ZGNN,1997-11-26 04:00,ZGNN 260400Z AUTO 05010KT 7SM 24/18 A2997 RMK SLP136 T02400180 IEM_DS3505
ZGNN,1997-11-26 05:00,ZGNN 260500Z AUTO 07006KT 7SM 24/18 A2994 RMK SLP126 T02400180 IEM_DS3505
ZGNN,1997-11-26 06:00,ZGNN 260600Z AUTO 04006KT 11SM 25/18 A2991 RMK SLP120 T02490176 57023 IEM_DS3505
ZGNN,1997-11-26 07:00,ZGNN 260700Z AUTO 09008KT 7SM 24/18 A2988 RMK SLP106 T02400180 IEM_DS3505
ZGNN,1997-11-26 09:00,ZGNN 260900Z AUTO 09006KT 12SM 24/18 A2990 RMK SLP112 T02370175 57008 IEM_DS3505
ZGNN,1997-11-26 10:00,ZGNN 261000Z AUTO 07008KT 7SM 22/17 A2991 RMK SLP117 T02200170 IEM_DS3505
ZGNN,1997-11-26 11:00,ZGNN 261100Z AUTO 07006KT 7SM 21/16 A2991 RMK SLP117 T02100160 IEM_DS3505
ZGNN,1997-11-26 12:00,ZGNN 261200Z AUTO 09002KT 11SM 21/16 A2993 RMK SLP124 T02090159 52011 IEM_DS3505
ZGNN,1997-11-26 13:00,ZGNN 261300Z AUTO 09006KT 7SM 20/16 A2994 RMK SLP128 T02000160 IEM_DS3505
ZGNN,1997-11-26 15:00,ZGNN 261500Z AUTO 09002KT 11SM 20/16 A2996 RMK SLP133 T02000155 52009 IEM_DS3505
ZGNN,1997-11-26 18:00,ZGNN 261800Z AUTO 00000KT 9SM 20/16 A2994 RMK SLP128 T01980158 57005 IEM_DS3505
ZGNN,1997-11-26 21:00,ZGNN 262100Z AUTO 07002KT 9SM 20/16 A2991 RMK SLP121 T01970161 57007 IEM_DS3505
ZGNN,1997-11-26 22:00,ZGNN 262200Z AUTO 09004KT 7SM 19/16 A2991 RMK SLP118 T01900160 IEM_DS3505
ZGNN,1997-11-26 23:00,ZGNN 262300Z AUTO 08006KT 7SM 19/16 A2994 RMK SLP128 T01900160 IEM_DS3505
ZGNN,1997-11-27 00:00,ZGNN 270000Z AUTO 09004KT 9SM 20/16 A2994 RMK SLP135 T01970161 52013 IEM_DS3505
ZGNN,1997-11-27 01:00,ZGNN 270100Z AUTO 09004KT 4SM 19/17 A2997 RMK SLP138 T01900170 IEM_DS3505
ZGNN,1997-11-27 02:00,ZGNN 270200Z AUTO 02004KT 4SM 19/17 A3000 RMK SLP148 T01900170 IEM_DS3505
ZGNN,1997-11-27 03:00,ZGNN 270300Z AUTO 22002KT 9SM 21/18 A3000 RMK SLP143 T02110176 52008 IEM_DS3505
ZGNN,1997-11-27 04:00,ZGNN 270400Z AUTO 00000KT 2 1/2SM 21/18 A2997 RMK SLP137 T02100180 IEM_DS3505
ZGNN,1997-11-27 05:00,ZGNN 270500Z AUTO 00000KT 2 1/2SM 22/18 A2991 RMK SLP117 T02200180 IEM_DS3505
ZGNN,1997-11-27 06:00,ZGNN 270600Z AUTO 20002KT 9SM 23/19 A2988 RMK SLP112 T02300188 57030 IEM_DS3505
ZGNN,1997-11-27 07:00,ZGNN 270700Z AUTO 14008KT 5SM 26/21 A2985 RMK SLP095 T02600210 IEM_DS3505
ZGNN,1997-11-27 08:00,ZGNN 270800Z AUTO 13010KT 7SM 27/22 A2983 RMK SLP088 T02700220 IEM_DS3505
ZGNN,1997-11-27 09:00,ZGNN 270900Z AUTO 00000KT 9SM 25/21 A2983 RMK SLP095 T02520212 57017 IEM_DS3505
ZGNN,1997-11-27 10:00,ZGNN 271000Z AUTO 11004KT 7SM 25/22 A2983 RMK SLP089 T02500220 IEM_DS3505
ZGNN,1997-11-27 11:00,ZGNN 271100Z AUTO 16008KT 6SM 24/22 A2985 RMK SLP095 T02400220 IEM_DS3505
ZGNN,1997-11-27 12:00,ZGNN 271200Z AUTO 20002KT 9SM 25/22 A2988 RMK SLP109 T02480221 52014 IEM_DS3505
ZGNN,1997-11-27 13:00,ZGNN 271300Z AUTO 15006KT 6SM 23/22 A2988 RMK SLP107 T02300220 IEM_DS3505
ZGNN,1997-11-27 15:00,ZGNN 271500Z AUTO 00000KT 9SM 23/22 A2991 RMK SLP117 T02290215 52008 IEM_DS3505
ZGNN,1997-11-27 18:00,ZGNN 271800Z AUTO 00000KT 9SM 22/21 A2992 RMK SLP121 T02190211 52004 IEM_DS3505
ZGNN,1997-11-27 21:00,ZGNN 272100Z AUTO 00000KT 7SM 20/20 A2992 RMK SLP121 T02020197 54000 IEM_DS3505
ZGNN,1997-11-27 22:00,ZGNN 272200Z AUTO 00000KT 2 1/2SM 19/19 A2991 RMK SLP118 T01900190 IEM_DS3505
ZGNN,1997-11-27 23:00,ZGNN 272300Z AUTO 35004KT 1/2SM 19/19 A2994 RMK SLP128 T01900190 IEM_DS3505
ZGNN,1997-11-28 00:00,ZGNN 280000Z AUTO 00000KT 9SM 22/22 A2994 RMK SLP132 T02210215 52011 IEM_DS3505
ZGNN,1997-11-28 01:00,ZGNN 280100Z AUTO 36004KT 2SM 22/22 A2997 RMK SLP137 T02200220 IEM_DS3505
ZGNN,1997-11-28 02:00,ZGNN 280200Z AUTO 14004KT 7SM 25/23 A3000 RMK SLP146 T02500230 IEM_DS3505
ZGNN,1997-11-28 03:00,ZGNN 280300Z AUTO 00000KT 11SM 26/23 A3000 RMK SLP144 T02630229 52013 IEM_DS3505
ZGNN,1997-11-28 04:00,ZGNN 280400Z AUTO 24004KT 7SM 28/23 A2994 RMK SLP125 T02800230 IEM_DS3505
ZGNN,1997-11-28 05:00,ZGNN 280500Z AUTO 19006KT 7SM 29/22 A2991 RMK SLP115 T02900220 IEM_DS3505
ZGNN,1997-11-28 06:00,ZGNN 280600Z AUTO 00000KT 12SM 29/22 A2988 RMK SLP110 T02910222 57034 IEM_DS3505
ZGNN,1997-11-28 07:00,ZGNN 280700Z AUTO 16010KT 7SM 30/22 A2985 RMK SLP093 T03000220 IEM_DS3505
ZGNN,1997-11-28 08:00,ZGNN 280800Z AUTO 13010KT 7SM 30/22 A2985 RMK SLP093 T03000220 IEM_DS3505
ZGNN,1997-11-28 09:00,ZGNN 280900Z AUTO 04002KT 14SM 30/22 A2985 RMK SLP099 T02970221 57011 IEM_DS3505
ZGNN,1997-11-28 10:00,ZGNN 281000Z AUTO 15008KT 7SM 27/22 A2988 RMK SLP105 T02700220 IEM_DS3505
ZGNN,1997-11-28 11:00,ZGNN 281100Z AUTO 12004KT 7SM 25/22 A2991 RMK SLP116 T02500220 IEM_DS3505
ZGNN,1997-11-28 12:00,ZGNN 281200Z AUTO 07004KT 12SM 26/23 A2991 RMK SLP125 T02580226 52026 IEM_DS3505
ZGNN,1997-11-28 13:00,ZGNN 281300Z AUTO 11004KT 6SM 24/22 A2994 RMK SLP126 T02400220 IEM_DS3505
ZGNN,1997-11-28 15:00,ZGNN 281500Z AUTO 04006KT 12SM 20/16 A3003 RMK SLP159 T02010159 52033 IEM_DS3505
ZGNN,1997-11-28 18:00,ZGNN 281800Z AUTO 04006KT 12SM 18/14 A3007 RMK SLP169 T01780138 52010 IEM_DS3505
ZGNN,1997-11-28 21:00,ZGNN 282100Z AUTO 04004KT 12SM 17/13 A3009 RMK SLP178 T01710126 52009 IEM_DS3505
ZGNN,1997-11-28 23:00,ZGNN 282300Z AUTO 03004KT 7SM 16/14 A3012 RMK SLP189 T01600140 IEM_DS3505
ZGNN,1997-11-29 00:00,ZGNN 290000Z AUTO 07004KT 19SM 16/11 A3015 RMK SLP205 T01630113 52026 IEM_DS3505
ZGNN,1997-11-29 02:00,ZGNN 290200Z AUTO 04004KT 7SM 16/12 A3021 RMK SLP220 T01600120 IEM_DS3505
ZGNN,1997-11-29 03:00,ZGNN 290300Z AUTO 07004KT 19SM 17/11 A3021 RMK SLP221 T01680109 52015 IEM_DS3505
ZGNN,1997-11-29 04:00,ZGNN 290400Z AUTO 03008KT 7SM 17/11 A3018 RMK SLP209 T01700110 IEM_DS3505
ZGNN,1997-11-29 05:00,ZGNN 290500Z AUTO 01006KT 7SM 17/12 A3015 RMK SLP199 T01700120 IEM_DS3505
ZGNN,1997-11-29 06:00,ZGNN 290600Z AUTO 09004KT 19SM 18/11 A3012 RMK SLP193 T01840111 57028 IEM_DS3505
ZGNN,1997-11-29 07:00,ZGNN 290700Z AUTO 36006KT 7SM 18/12 A3009 RMK SLP179 T01800120 IEM_DS3505
ZGNN,1997-11-29 08:00,ZGNN 290800Z AUTO 03006KT 7SM 18/12 A3009 RMK SLP179 T01800120 IEM_DS3505
ZGNN,1997-11-29 09:00,ZGNN 290900Z AUTO 07004KT 19SM 18/10 A3009 RMK SLP187 T01770100 57006 IEM_DS3505
ZGNN,1997-11-29 10:00,ZGNN 291000Z AUTO 05006KT 7SM 17/11 A3009 RMK SLP179 T01700110 IEM_DS3505
ZGNN,1997-11-29 11:00,ZGNN 291100Z AUTO 05006KT 7SM 16/11 A3012 RMK SLP189 T01600110 IEM_DS3505
ZGNN,1997-11-29 13:00,ZGNN 291300Z AUTO 08006KT 7SM 16/10 A3015 RMK SLP199 T01600100 IEM_DS3505
ZGNN,1997-11-29 15:00,ZGNN 291500Z AUTO 07006KT 14SM 16/09 A3018 RMK SLP208 T01580086 52008 IEM_DS3505
ZGNN,1997-11-29 18:00,ZGNN 291800Z AUTO 09004KT 12SM 16/09 A3016 RMK SLP201 T01580092 57007 IEM_DS3505
ZGNN,1997-11-29 21:00,ZGNN 292100Z AUTO 04004KT 12SM 15/09 A3015 RMK SLP201 T01530089 54000 IEM_DS3505
ZGNN,1997-11-29 22:00,ZGNN 292200Z AUTO 04004KT 7SM 15/09 A3015 RMK SLP200 T01500090 IEM_DS3505
ZGNN,1997-11-29 23:00,ZGNN 292300Z AUTO 06002KT 7SM 15/10 A3015 RMK SLP200 T01500100 IEM_DS3505
ZGNN,1997-11-30 00:00,ZGNN 300000Z AUTO 07004KT 19SM 15/10 A3018 RMK SLP215 T01510095 52013 IEM_DS3505
ZGNN,1997-11-30 01:00,ZGNN 300100Z AUTO 02004KT 7SM 15/10 A3021 RMK SLP220 T01500100 IEM_DS3505
ZGNN,1997-11-30 02:00,ZGNN 300200Z AUTO 06006KT 7SM 15/10 A3021 RMK SLP220 T01500100 IEM_DS3505
ZGNN,1997-11-30 03:00,ZGNN 300300Z AUTO 04004KT 19SM 16/11 A3021 RMK SLP224 T01610107 52009 IEM_DS3505
ZGNN,1997-11-30 04:00,ZGNN 300400Z AUTO 08006KT 7SM 16/11 A3018 RMK SLP209 T01600110 IEM_DS3505
ZGNN,1997-11-30 05:00,ZGNN 300500Z AUTO 07004KT 7SM 16/11 A3015 RMK SLP199 T01600110 IEM_DS3505
ZGNN,1997-11-30 06:00,ZGNN 300600Z AUTO 07002KT 19SM 17/11 A3012 RMK SLP191 T01660113 57032 IEM_DS3505
ZGNN,1997-11-30 07:00,ZGNN 300700Z AUTO 05004KT 7SM 17/11 A3009 RMK SLP179 T01700110 IEM_DS3505
ZGNN,1997-11-30 08:00,ZGNN 300800Z AUTO 09004KT 7SM 17/12 A3006 RMK SLP169 T01700120 IEM_DS3505
ZGNN,1997-11-30 09:00,ZGNN 300900Z AUTO 04004KT 17SM 16/12 A3009 RMK SLP181 T01620118 57010 IEM_DS3505
ZGNN,1997-11-30 10:00,ZGNN 301000Z AUTO 09006KT 7SM 16/11 A3009 RMK SLP179 T01600110 IEM_DS3505
ZGNN,1997-11-30 11:00,ZGNN 301100Z AUTO 07006KT 7SM 15/12 A3009 RMK SLP179 T01500120 IEM_DS3505
ZGNN,1997-11-30 12:00,ZGNN 301200Z AUTO 07004KT 12SM 15/11 A3012 RMK SLP195 T01540111 52013 IEM_DS3505
ZGNN,1997-11-30 13:00,ZGNN 301300Z AUTO 07006KT 6SM 14/11 A3012 RMK SLP190 T01400110 IEM_DS3505
ZGNN,1997-11-30 15:00,ZGNN 301500Z AUTO 04004KT 12SM 15/11 A3014 RMK SLP197 T01530114 52003 IEM_DS3505
ZGNN,1997-11-30 18:00,ZGNN 301800Z AUTO 00000KT 11SM 15/11 A3012 RMK SLP190 T01510114 57007 IEM_DS3505
ZGNN,1997-11-30 21:00,ZGNN 302100Z AUTO 04002KT 10SM 14/12 A3016 RMK 70001 SLP202 T01450125 52011 IEM_DS3505
ZGNN,1997-11-30 22:00,ZGNN 302200Z AUTO 07004KT 2 1/2SM 14/13 A3015 RMK SLP200 T01400130 IEM_DS3505
ZGNN,1997-11-30 23:00,ZGNN 302300Z AUTO 02004KT 1 1/4SM 14/13 A3018 RMK SLP210 T01400130 IEM_DS3505
ZGNN,1997-12-01 00:00,ZGNN 010000Z AUTO 00000KT 7SM 14/12 A3021 RMK 60001 70001 SLP222 T01430125 52020 IEM_DS3505
ZGNN,1997-12-01 01:00,ZGNN 010100Z AUTO 00000KT 1SM 14/13 A3024 RMK SLP230 T01400130 IEM_DS3505
ZGNN,1997-12-01 02:00,ZGNN 010200Z AUTO 03006KT 1SM 14/14 A3027 RMK SLP241 T01400140 IEM_DS3505
ZGNN,1997-12-01 03:00,ZGNN 010300Z AUTO 00000KT 5SM 15/13 A3027 RMK SLP251 T01460133 52029 IEM_DS3505
ZGNN,1997-12-01 04:00,ZGNN 010400Z AUTO 36006KT 7SM 14/13 A3030 RMK SLP251 T01400130 IEM_DS3505
ZGNN,1997-12-01 05:00,ZGNN 010500Z AUTO 01006KT 7SM 14/13 A3027 RMK SLP241 T01400130 IEM_DS3505
ZGNN,1997-12-01 06:00,ZGNN 010600Z AUTO 34004KT 6SM 14/13 A3027 RMK 60016 SLP243 T01440131 57008 IEM_DS3505
ZGNN,1997-12-01 08:00,ZGNN 010800Z AUTO 03006KT 7SM 14/13 A3027 RMK SLP241 T01400130 IEM_DS3505
ZGNN,1997-12-01 09:00,ZGNN 010900Z AUTO 02004KT 11SM 14/12 A3030 RMK SLP256 T01400122 52013 IEM_DS3505
ZGNN,1997-12-01 10:00,ZGNN 011000Z AUTO 01008KT 7SM 13/11 A3033 RMK SLP262 T01300110 IEM_DS3505
ZGNN,1997-12-01 11:00,ZGNN 011100Z AUTO 02006KT 7SM 13/11 A3036 RMK SLP272 T01300110 IEM_DS3505
ZGNN,1997-12-01 12:00,ZGNN 011200Z AUTO 36004KT 12SM 14/09 A3039 RMK 60002 SLP281 T01390090 52024 IEM_DS3505
ZGNN,1997-12-01 13:00,ZGNN 011300Z AUTO 35006KT 7SM 13/09 A3039 RMK SLP282 T01300090 IEM_DS3505
ZGNN,1997-12-01 14:00,ZGNN 011400Z AUTO 03004KT 7SM 13/09 A3039 RMK SLP282 T01300090 IEM_DS3505
ZGNN,1997-12-01 15:00,ZGNN 011500Z AUTO 04004KT 11SM 14/07 A3041 RMK SLP290 T01370074 52009 IEM_DS3505
ZGNN,1997-12-01 18:00,ZGNN 011800Z AUTO 36006KT 11SM 13/06 A3041 RMK SLP288 T01320063 57002 IEM_DS3505
ZGNN,1997-12-01 21:00,ZGNN 012100Z AUTO 34004KT 19SM 12/06 A3039 RMK 70020 SLP282 T01220060 57006 IEM_DS3505
ZGNN,1997-12-01 22:00,ZGNN 012200Z AUTO 36006KT 7SM 11/06 A3036 RMK SLP273 T01100060 IEM_DS3505
ZGNN,1997-12-01 23:00,ZGNN 012300Z AUTO 36008KT 7SM 11/05 A3039 RMK SLP283 T01100050 IEM_DS3505
ZGNN,1997-12-02 00:00,ZGNN 020000Z AUTO 04006KT 19SM 12/05 A3042 RMK 70016 SLP298 T01190051 52016 IEM_DS3505
ZGNN,1997-12-02 01:00,ZGNN 020100Z AUTO 01004KT 7SM 12/06 A3042 RMK SLP292 T01200060 IEM_DS3505
ZGNN,1997-12-02 02:00,ZGNN 020200Z AUTO 34006KT 7SM 12/05 A3042 RMK SLP292 T01200050 IEM_DS3505
ZGNN,1997-12-02 03:00,ZGNN 020300Z AUTO 07004KT 19SM 14/05 A3042 RMK SLP297 T01350051 57001 IEM_DS3505
ZGNN,1997-12-02 04:00,ZGNN 020400Z AUTO 02008KT 7SM 13/05 A3039 RMK SLP282 T01300050 IEM_DS3505
ZGNN,1997-12-02 05:00,ZGNN 020500Z AUTO 04006KT 7SM 14/06 A3036 RMK SLP272 T01400060 IEM_DS3505
ZGNN,1997-12-02 06:00,ZGNN 020600Z AUTO 34004KT 19SM 14/05 A3033 RMK SLP264 T01420050 57033 IEM_DS3505
ZGNN,1997-12-02 07:00,ZGNN 020700Z AUTO 02008KT 7SM 14/06 A3030 RMK SLP251 T01400060 IEM_DS3505
ZGNN,1997-12-02 08:00,ZGNN 020800Z AUTO 02010KT 7SM 14/06 A3030 RMK SLP251 T01400060 IEM_DS3505
ZGNN,1997-12-02 09:00,ZGNN 020900Z AUTO 09004KT 19SM 14/05 A3030 RMK SLP260 T01390054 57004 IEM_DS3505
ZGNN,1997-12-02 10:00,ZGNN 021000Z AUTO 04006KT 7SM 13/06 A3030 RMK SLP252 T01300060 IEM_DS3505
ZGNN,1997-12-02 11:00,ZGNN 021100Z AUTO 05006KT 7SM 12/07 A3033 RMK SLP262 T01200070 IEM_DS3505
ZGNN,1997-12-02 12:00,ZGNN 021200Z AUTO 04002KT 17SM 13/06 A3035 RMK SLP269 T01290056 52009 IEM_DS3505
ZGNN,1997-12-02 13:00,ZGNN 021300Z AUTO 06004KT 7SM 12/07 A3036 RMK SLP272 T01200070 IEM_DS3505
ZGNN,1997-12-02 14:00,ZGNN 021400Z AUTO 04004KT 7SM 12/07 A3036 RMK SLP272 T01200070 IEM_DS3505
ZGNN,1997-12-02 15:00,ZGNN 021500Z AUTO 04004KT 16SM 12/05 A3037 RMK SLP276 T01240053 52007 IEM_DS3505
ZGNN,1997-12-02 18:00,ZGNN 021800Z AUTO 04002KT 12SM 12/05 A3035 RMK SLP268 T01210054 57008 IEM_DS3505
ZGNN,1997-12-02 21:00,ZGNN 022100Z AUTO 04004KT 12SM 12/06 A3033 RMK SLP271 T01150059 52003 IEM_DS3505
ZGNN,1997-12-02 22:00,ZGNN 022200Z AUTO 03006KT 7SM 11/07 A3036 RMK SLP273 T01100070 IEM_DS3505
ZGNN,1997-12-02 23:00,ZGNN 022300Z AUTO 34006KT 7SM 11/06 A3039 RMK SLP283 T01100060 IEM_DS3505
ZGNN,1997-12-03 00:00,ZGNN 030000Z AUTO 34002KT 10SM 11/06 A3039 RMK SLP290 T01090064 52019 IEM_DS3505
ZGNN,1997-12-03 01:00,ZGNN 030100Z AUTO 36008KT 7SM 10/08 A3042 RMK SLP293 T01000080 IEM_DS3505
ZGNN,1997-12-03 02:00,ZGNN 030200Z AUTO 36008KT 4SM 10/07 A3045 RMK SLP303 T01000070 IEM_DS3505
ZGNN,1997-12-03 03:00,ZGNN 030300Z AUTO 02004KT 10SM 10/07 A3045 RMK SLP305 T01010067 52014 IEM_DS3505
ZGNN,1997-12-03 04:00,ZGNN 030400Z AUTO 04004KT 1 1/4SM 09/09 A3042 RMK SLP293 T00900090 IEM_DS3505
ZGNN,1997-12-03 05:00,ZGNN 030500Z AUTO 06006KT 1 1/4SM 09/08 A3039 RMK SLP283 T00900080 IEM_DS3505
ZGNN,1997-12-03 06:00,ZGNN 030600Z AUTO 02004KT 11SM 11/07 A3036 RMK SLP276 T01070069 57029 IEM_DS3505
ZGNN,1997-12-03 07:00,ZGNN 030700Z AUTO 01006KT 3SM 10/08 A3036 RMK SLP273 T01000080 IEM_DS3505
ZGNN,1997-12-03 09:00,ZGNN 030900Z AUTO 07004KT 11SM 11/06 A3033 RMK SLP269 T01080065 57007 IEM_DS3505
ZGNN,1997-12-03 10:00,ZGNN 031000Z AUTO 06004KT 7SM 10/07 A3033 RMK SLP263 T01000070 IEM_DS3505
ZGNN,1997-12-03 11:00,ZGNN 031100Z AUTO 09006KT 7SM 10/07 A3033 RMK SLP263 T01000070 IEM_DS3505
ZGNN,1997-12-03 12:00,ZGNN 031200Z AUTO 07004KT 11SM 10/07 A3036 RMK SLP275 T01020066 52006 IEM_DS3505
ZGNN,1997-12-03 13:00,ZGNN 031300Z AUTO 04002KT 7SM 10/06 A3036 RMK SLP273 T01000060 IEM_DS3505
ZGNN,1997-12-03 15:00,ZGNN 031500Z AUTO 07002KT 9SM 10/06 A3037 RMK SLP277 T01000061 52002 IEM_DS3505
ZGNN,1997-12-03 18:00,ZGNN 031800Z AUTO 00000KT 12SM 10/06 A3034 RMK SLP266 T00980056 57011 IEM_DS3505
ZGNN,1997-12-03 21:00,ZGNN 032100Z AUTO 00000KT 12SM 10/06 A3030 RMK SLP261 T00980061 57005 IEM_DS3505
ZGNN,1997-12-03 22:00,ZGNN 032200Z AUTO 04004KT 7SM 09/06 A3030 RMK SLP253 T00900060 IEM_DS3505
ZGNN,1997-12-03 23:00,ZGNN 032300Z AUTO 04004KT 7SM 09/06 A3030 RMK SLP253 T00900060 IEM_DS3505
ZGNN,1997-12-04 00:00,ZGNN 040000Z AUTO 07002KT 9SM 09/07 A3033 RMK SLP271 T00920073 52010 IEM_DS3505
ZGNN,1997-12-04 01:00,ZGNN 040100Z AUTO 08004KT 1 1/2SM 09/08 A3036 RMK SLP273 T00900080 IEM_DS3505
ZGNN,1997-12-04 02:00,ZGNN 040200Z AUTO 08004KT 1 1/2SM 09/08 A3036 RMK SLP273 T00900080 IEM_DS3505
ZGNN,1997-12-04 03:00,ZGNN 040300Z AUTO 00000KT 7SM 10/08 A3036 RMK SLP275 T00990076 52004 IEM_DS3505
ZGNN,1997-12-04 04:00,ZGNN 040400Z AUTO 04002KT 7SM 10/08 A3030 RMK SLP253 T01000080 IEM_DS3505
ZGNN,1997-12-04 05:00,ZGNN 040500Z AUTO 15002KT 7SM 11/08 A3027 RMK SLP242 T01100080 IEM_DS3505
ZGNN,1997-12-04 06:00,ZGNN 040600Z AUTO 00000KT 9SM 11/08 A3024 RMK SLP239 T01100079 57036 IEM_DS3505
ZGNN,1997-12-04 07:00,ZGNN 040700Z AUTO 07004KT 7SM 11/09 A3021 RMK SLP221 T01100090 IEM_DS3505
ZGNN,1997-12-04 08:00,ZGNN 040800Z AUTO 03002KT 4SM 11/09 A3021 RMK SLP221 T01100090 IEM_DS3505
ZGNN,1997-12-04 09:00,ZGNN 040900Z AUTO 04002KT 8SM 11/08 A3021 RMK SLP231 T01110085 57007 IEM_DS3505
ZGNN,1997-12-04 10:00,ZGNN 041000Z AUTO 09002KT 4SM 11/09 A3024 RMK SLP231 T01100090 IEM_DS3505
ZGNN,1997-12-04 11:00,ZGNN 041100Z AUTO 07002KT 3SM 11/09 A3024 RMK SLP231 T01100090 IEM_DS3505
ZGNN,1997-12-04 12:00,ZGNN 041200Z AUTO 07002KT 7SM 10/09 A3024 RMK SLP241 T01000092 52009 IEM_DS3505
ZGNN,1997-12-04 13:00,ZGNN 041300Z AUTO 07002KT 2 1/2SM 10/09 A3027 RMK SLP243 T01000090 IEM_DS3505
ZGNN,1997-12-04 15:00,ZGNN 041500Z AUTO 00000KT 9SM 11/10 A3027 RMK SLP240 T01090097 57001 IEM_DS3505
ZGNN,1997-12-04 18:00,ZGNN 041800Z AUTO 00000KT 5SM 11/10 A3024 RMK SLP230 T01080100 57009 IEM_DS3505
ZGNN,1997-12-04 21:00,ZGNN 042100Z AUTO 00000KT 5SM 11/10 A3021 RMK 70000 SLP225 T01120100 57005 IEM_DS3505
ZGNN,1997-12-04 22:00,ZGNN 042200Z AUTO 00000KT 1SM 11/10 A3021 RMK SLP221 T01100100 IEM_DS3505
ZGNN,1997-12-04 23:00,ZGNN 042300Z AUTO 10002KT 1 1/4SM 11/10 A3021 RMK SLP221 T01100100 IEM_DS3505
ZGNN,1997-12-05 00:00,ZGNN 050000Z AUTO 00000KT 1 1/4SM 12/11 A3021 RMK 60000 70001 SLP227 T01170107 52002 IEM_DS3505
ZGNN,1997-12-05 01:00,ZGNN 050100Z AUTO 09002KT 2SM 12/11 A3024 RMK SLP231 T01200110 IEM_DS3505
ZGNN,1997-12-05 02:00,ZGNN 050200Z AUTO 06002KT 3SM 12/11 A3024 RMK SLP231 T01200110 IEM_DS3505
ZGNN,1997-12-05 03:00,ZGNN 050300Z AUTO 00000KT 4SM 14/11 A3024 RMK SLP233 T01420110 52006 IEM_DS3505
ZGNN,1997-12-05 04:00,ZGNN 050400Z AUTO 26004KT 4SM 15/12 A3021 RMK SLP220 T01500120 IEM_DS3505
ZGNN,1997-12-05 05:00,ZGNN 050500Z AUTO 00000KT 4SM 17/13 A3015 RMK SLP199 T01700130 IEM_DS3505
ZGNN,1997-12-05 06:00,ZGNN 050600Z AUTO 34002KT 6SM 20/13 A3012 RMK SLP192 T02000132 57040 IEM_DS3505
ZGNN,1997-12-05 07:00,ZGNN 050700Z AUTO 15008KT 7SM 22/15 A3009 RMK SLP177 T02200150 IEM_DS3505
ZGNN,1997-12-05 08:00,ZGNN 050800Z AUTO 18006KT 7SM 21/16 A3009 RMK SLP178 T02100160 IEM_DS3505
ZGNN,1997-12-05 09:00,ZGNN 050900Z AUTO 00000KT 7SM 22/16 A3009 RMK SLP180 T02150161 57011 IEM_DS3505
ZGNN,1997-12-05 10:00,ZGNN 051000Z AUTO 00000KT 7SM 21/17 A3009 RMK SLP178 T02100170 IEM_DS3505
ZGNN,1997-12-05 11:00,ZGNN 051100Z AUTO 00000KT 7SM 20/17 A3009 RMK SLP178 T02000170 IEM_DS3505
ZGNN,1997-12-05 12:00,ZGNN 051200Z AUTO 00000KT 7SM 18/16 A3012 RMK SLP195 T01810159 52014 IEM_DS3505
ZGNN,1997-12-05 13:00,ZGNN 051300Z AUTO 35004KT 7SM 18/16 A3012 RMK SLP189 T01800160 IEM_DS3505
ZGNN,1997-12-05 15:00,ZGNN 051500Z AUTO 00000KT 7SM 18/16 A3015 RMK SLP199 T01800155 52005 IEM_DS3505
ZGNN,1997-12-05 18:00,ZGNN 051800Z AUTO 00000KT 7SM 19/15 A3012 RMK SLP187 T01880154 57011 IEM_DS3505
ZGNN,1997-12-05 21:00,ZGNN 052100Z AUTO 00000KT 7SM 18/16 A3009 RMK 70000 SLP183 T01790162 57004 IEM_DS3505
ZGNN,1997-12-05 22:00,ZGNN 052200Z AUTO 00000KT 2SM 18/17 A3009 RMK SLP179 T01800170 IEM_DS3505
ZGNN,1997-12-05 23:00,ZGNN 052300Z AUTO 00000KT 1 1/4SM 18/17 A3012 RMK SLP189 T01800170 IEM_DS3505
ZGNN,1997-12-06 00:00,ZGNN 060000Z AUTO 00000KT 3SM 18/17 A3012 RMK SLP193 T01770167 52009 IEM_DS3505
ZGNN,1997-12-06 01:00,ZGNN 060100Z AUTO 22004KT 1SM 19/18 A3015 RMK SLP198 T01900180 IEM_DS3505
ZGNN,1997-12-06 02:00,ZGNN 060200Z AUTO 00000KT 1SM 19/18 A3015 RMK SLP198 T01900180 IEM_DS3505
ZGNN,1997-12-06 03:00,ZGNN 060300Z AUTO 00000KT 4SM 20/18 A3012 RMK SLP199 T02010180 52007 IEM_DS3505
ZGNN,1997-12-06 04:00,ZGNN 060400Z AUTO 14004KT 1 1/2SM 23/21 A3009 RMK SLP177 T02300210 IEM_DS3505
ZGNN,1997-12-06 05:00,ZGNN 060500Z AUTO 00000KT 4SM 24/19 A3006 RMK SLP167 T02400190 IEM_DS3505
ZGNN,1997-12-06 06:00,ZGNN 060600Z AUTO 00000KT 9SM 25/20 A3003 RMK SLP156 T02500198 57042 IEM_DS3505
ZGNN,1997-12-06 07:00,ZGNN 060700Z AUTO 19004KT 7SM 26/21 A3000 RMK SLP146 T02600210 IEM_DS3505
ZGNN,1997-12-06 08:00,ZGNN 060800Z AUTO 22004KT 7SM 26/19 A2997 RMK SLP136 T02600190 IEM_DS3505
ZGNN,1997-12-06 09:00,ZGNN 060900Z AUTO 00000KT 11SM 25/20 A2997 RMK SLP138 T02540197 57018 IEM_DS3505
ZGNN,1997-12-06 10:00,ZGNN 061000Z AUTO 00000KT 7SM 24/20 A2997 RMK SLP136 T02400200 IEM_DS3505
ZGNN,1997-12-06 11:00,ZGNN 061100Z AUTO 12004KT 6SM 23/20 A2997 RMK SLP137 T02300200 IEM_DS3505
ZGNN,1997-12-06 12:00,ZGNN 061200Z AUTO 00000KT 9SM 22/20 A3000 RMK SLP149 T02220197 52010 IEM_DS3505
ZGNN,1997-12-06 13:00,ZGNN 061300Z AUTO 00000KT 6SM 20/19 A3000 RMK SLP148 T02000190 IEM_DS3505
ZGNN,1997-12-06 15:00,ZGNN 061500Z AUTO 00000KT 9SM 20/19 A3002 RMK SLP155 T01970187 52006 IEM_DS3505
ZGNN,1997-12-06 18:00,ZGNN 061800Z AUTO 00000KT 9SM 19/19 A3000 RMK SLP147 T01930188 57007 IEM_DS3505
ZGNN,1997-12-06 21:00,ZGNN 062100Z AUTO 09006KT 9SM 18/15 A3000 RMK 70001 SLP151 T01830154 52003 IEM_DS3505
ZGNN,1997-12-06 22:00,ZGNN 062200Z AUTO 07006KT 2 1/2SM 18/18 A3000 RMK SLP148 T01800180 IEM_DS3505
ZGNN,1997-12-06 23:00,ZGNN 062300Z AUTO 05004KT 2 1/2SM 18/18 A3003 RMK SLP158 T01800180 IEM_DS3505
ZGNN,1997-12-07 00:00,ZGNN 070000Z AUTO 07004KT 7SM 17/14 A3006 RMK 60000 70001 SLP174 T01690139 52023 IEM_DS3505
ZGNN,1997-12-07 01:00,ZGNN 070100Z AUTO 06008KT 2 1/2SM 16/15 A3009 RMK SLP179 T01600150 IEM_DS3505
ZGNN,1997-12-07 02:00,ZGNN 070200Z AUTO 05008KT 3SM 15/14 A3015 RMK SLP200 T01500140 IEM_DS3505
ZGNN,1997-12-07 03:00,ZGNN 070300Z AUTO 04006KT 7SM 16/13 A3015 RMK SLP210 T01620130 52035 IEM_DS3505
ZGNN,1997-12-07 04:00,ZGNN 070400Z AUTO 35006KT 5SM 15/14 A3015 RMK SLP200 T01500140 IEM_DS3505
ZGNN,1997-12-07 05:00,ZGNN 070500Z AUTO 35010KT 7SM 15/12 A3015 RMK SLP200 T01500120 IEM_DS3505
ZGNN,1997-12-07 06:00,ZGNN 070600Z AUTO 34004KT 10SM 16/12 A3012 RMK 60000 SLP196 T01590117 57014 IEM_DS3505
ZGNN,1997-12-07 07:00,ZGNN 070700Z AUTO 35012KT 7SM 15/10 A3012 RMK SLP190 T01500100 IEM_DS3505
ZGNN,1997-12-07 08:00,ZGNN 070800Z AUTO 36012KT 7SM 15/09 A3015 RMK SLP200 T01500090 IEM_DS3505
ZGNN,1997-12-07 09:00,ZGNN 070900Z AUTO 34008KT 11SM 15/10 A3015 RMK SLP206 T01510095 52010 IEM_DS3505
ZGNN,1997-12-07 10:00,ZGNN 071000Z AUTO 01008KT 7SM 14/08 A3018 RMK SLP210 T01400080 IEM_DS3505
ZGNN,1997-12-07 11:00,ZGNN 071100Z AUTO 34006KT 7SM 14/08 A3021 RMK SLP220 T01400080 IEM_DS3505
ZGNN,1997-12-07 12:00,ZGNN 071200Z AUTO 02004KT 16SM 14/08 A3024 RMK SLP234 T01410081 52027 IEM_DS3505
ZGNN,1997-12-07 15:00,ZGNN 071500Z AUTO 00000KT 12SM 14/07 A3032 RMK SLP259 T01350071 52025 IEM_DS3505
ZGNN,1997-12-07 18:00,ZGNN 071800Z AUTO 34006KT 12SM 13/05 A3033 RMK SLP261 T01340047 52002 IEM_DS3505
ZGNN,1997-12-07 21:00,ZGNN 072100Z AUTO 36004KT 12SM 13/05 A3030 RMK 70001 SLP260 T01290046 57002 IEM_DS3505
ZGNN,1997-12-07 22:00,ZGNN 072200Z AUTO 34010KT 6SM 12/03 A3030 RMK SLP252 T01200030 IEM_DS3505
ZGNN,1997-12-07 23:00,ZGNN 072300Z AUTO 36006KT 7SM 12/04 A3033 RMK SLP262 T01200040 IEM_DS3505
ZGNN,1997-12-08 00:00,ZGNN 080000Z AUTO 02004KT 11SM 13/03 A3036 RMK 70001 SLP270 T01280031 52010 IEM_DS3505
ZGNN,1997-12-08 01:00,ZGNN 080100Z AUTO 33006KT 7SM 12/05 A3039 RMK SLP282 T01200050 IEM_DS3505
ZGNN,1997-12-08 02:00,ZGNN 080200Z AUTO 34010KT 7SM 13/04 A3039 RMK SLP282 T01300040 IEM_DS3505
ZGNN,1997-12-08 03:00,ZGNN 080300Z AUTO 34004KT 8SM 15/04 A3039 RMK SLP285 T01510040 52015 IEM_DS3505
ZGNN,1997-12-08 04:00,ZGNN 080400Z AUTO 34008KT 6SM 15/03 A3036 RMK SLP271 T01500030 IEM_DS3505
ZGNN,1997-12-08 05:00,ZGNN 080500Z AUTO 34008KT 6SM 16/04 A3030 RMK SLP251 T01600040 IEM_DS3505
ZGNN,1997-12-08 06:00,ZGNN 080600Z AUTO 34008KT 9SM 17/03 A3027 RMK SLP243 T01710032 57041 IEM_DS3505
ZGNN,1997-12-08 07:00,ZGNN 080700Z AUTO 35008KT 6SM 17/03 A3024 RMK SLP229 T01700030 IEM_DS3505
ZGNN,1997-12-08 08:00,ZGNN 080800Z AUTO 34008KT 6SM 16/03 A3024 RMK SLP230 T01600030 IEM_DS3505
ZGNN,1997-12-08 09:00,ZGNN 080900Z AUTO 32004KT 9SM 16/04 A3024 RMK SLP239 T01650038 57004 IEM_DS3505
ZGNN,1997-12-08 10:00,ZGNN 081000Z AUTO 36006KT 6SM 15/03 A3027 RMK SLP241 T01500030 IEM_DS3505
ZGNN,1997-12-08 11:00,ZGNN 081100Z AUTO 01002KT 6SM 13/04 A3027 RMK SLP242 T01300040 IEM_DS3505
ZGNN,1997-12-08 12:00,ZGNN 081200Z AUTO 04002KT 7SM 14/04 A3030 RMK SLP256 T01360039 52016 IEM_DS3505
ZGNN,1997-12-08 15:00,ZGNN 081500Z AUTO 00000KT 7SM 13/06 A3036 RMK SLP272 T01260055 52016 IEM_DS3505
ZGNN,1997-12-08 18:00,ZGNN 081800Z AUTO 04002KT 7SM 13/04 A3034 RMK SLP264 T01260039 57007 IEM_DS3505
ZGNN,1997-12-08 21:00,ZGNN 082100Z AUTO 00000KT 7SM 12/03 A3034 RMK SLP266 T01200034 52001 IEM_DS3505
ZGNN,1997-12-08 22:00,ZGNN 082200Z AUTO 01004KT 6SM 10/07 A3033 RMK SLP263 T01000070 IEM_DS3505
ZGNN,1997-12-08 23:00,ZGNN 082300Z AUTO 35002KT 6SM 09/07 A3036 RMK SLP273 T00900070 IEM_DS3505
ZGNN,1997-12-09 00:00,ZGNN 090000Z AUTO 00000KT 9SM 11/02 A3036 RMK SLP279 T01140023 52013 IEM_DS3505
ZGNN,1997-12-09 01:00,ZGNN 090100Z AUTO 36002KT 6SM 11/06 A3039 RMK SLP283 T01100060 IEM_DS3505
ZGNN,1997-12-09 02:00,ZGNN 090200Z AUTO 05002KT 6SM 12/03 A3042 RMK SLP292 T01200030 IEM_DS3505
ZGNN,1997-12-09 03:00,ZGNN 090300Z AUTO 02008KT 6SM 14/02 A3042 RMK SLP292 T01400020 IEM_DS3505
ZGNN,1997-12-09 04:00,ZGNN 090400Z AUTO 02008KT 6SM 15/00 A3039 RMK SLP281 T01500000 IEM_DS3505
ZGNN,1997-12-09 05:00,ZGNN 090500Z AUTO 35004KT 6SM 15/01 A3033 RMK SLP261 T01500010 IEM_DS3505
ZGNN,1997-12-09 06:00,ZGNN 090600Z AUTO 07004KT 12SM 17/02 A3030 RMK SLP255 T01680021 57039 IEM_DS3505
ZGNN,1997-12-09 07:00,ZGNN 090700Z AUTO 01006KT 6SM 16/02 A3027 RMK SLP241 T01600020 IEM_DS3505
ZGNN,1997-12-09 09:00,ZGNN 090900Z AUTO 04004KT 14SM 16/03 A3027 RMK SLP246 T01630026 57009 IEM_DS3505
ZGNN,1997-12-09 10:00,ZGNN 091000Z AUTO 02004KT 6SM 15/04 A3027 RMK SLP241 T01500040 IEM_DS3505
ZGNN,1997-12-09 11:00,ZGNN 091100Z AUTO 03006KT 6SM 12/04 A3030 RMK SLP252 T01200040 IEM_DS3505
ZGNN,1997-12-09 12:00,ZGNN 091200Z AUTO 07004KT 12SM 13/03 A3030 RMK SLP256 T01310029 52009 IEM_DS3505
ZGNN,1997-12-09 13:00,ZGNN 091300Z AUTO 00000KT 6SM 10/03 A3033 RMK SLP263 T01000030 IEM_DS3505
ZGNN,1997-12-09 15:00,ZGNN 091500Z AUTO 07002KT 11SM 12/00 A3036 RMK SLP272 T01250005 52016 IEM_DS3505
ZGNN,1997-12-09 18:00,ZGNN 091800Z AUTO 02004KT 11SM 12/01 A3034 RMK SLP266 T01180007 57006 IEM_DS3505
ZGNN,1997-12-09 21:00,ZGNN 092100Z AUTO 00000KT 7SM 11/03 A3030 RMK SLP252 T01100030 IEM_DS3505
ZGNN,1997-12-09 22:00,ZGNN 092200Z AUTO 00000KT 7SM 11/03 A3033 RMK SLP262 T01100030 IEM_DS3505
ZGNN,1997-12-09 23:00,ZGNN 092300Z AUTO 00000KT 7SM 11/03 A3033 RMK SLP262 T01100030 IEM_DS3505
ZGNN,1997-12-10 00:00,ZGNN 100000Z AUTO 14004KT 12SM 12/01 A3036 RMK SLP274 T01150009 52017 IEM_DS3505
ZGNN,1997-12-10 01:00,ZGNN 100100Z AUTO 04004KT 7SM 11/01 A3036 RMK SLP273 T01100010 IEM_DS3505
ZGNN,1997-12-10 03:00,ZGNN 100300Z AUTO 02004KT 9SM 12/00 A3039 RMK SLP286 T01200000 52012 IEM_DS3505
ZGNN,1997-12-10 04:00,ZGNN 100400Z AUTO 02004KT 7SM 12/00 A3036 RMK SLP272 T01200000 IEM_DS3505
ZGNN,1997-12-10 05:00,ZGNN 100500Z AUTO 07006KT 7SM 13/01 A3030 RMK SLP252 T01300010 IEM_DS3505
ZGNN,1997-12-10 06:00,ZGNN 100600Z AUTO 09002KT 12SM 14/M01 A3030 RMK SLP251 T01361009 57035 IEM_DS3505
ZGNN,1997-12-10 07:00,ZGNN 100700Z AUTO 35008KT 7SM 12/00 A3027 RMK SLP242 T01200000 IEM_DS3505
ZGNN,1997-12-10 08:00,ZGNN 100800Z AUTO 01004KT 7SM 13/M01 A3027 RMK SLP242 T01301010 IEM_DS3505
ZGNN,1997-12-10 09:00,ZGNN 100900Z AUTO 07004KT 12SM 13/M01 A3027 RMK SLP251 T01331010 54000 IEM_DS3505
ZGNN,1997-12-10 10:00,ZGNN 101000Z AUTO 04006KT 7SM 13/00 A3030 RMK SLP252 T01300000 IEM_DS3505
ZGNN,1997-12-10 11:00,ZGNN 101100Z AUTO 04006KT 7SM 12/01 A3033 RMK SLP262 T01200010 IEM_DS3505
ZGNN,1997-12-10 12:00,ZGNN 101200Z AUTO 02002KT 11SM 12/00 A3033 RMK SLP268 T01200000 52017 IEM_DS3505
ZGNN,1997-12-10 13:00,ZGNN 101300Z AUTO 00000KT 7SM 11/00 A3036 RMK SLP273 T01100000 IEM_DS3505
ZGNN,1997-12-10 15:00,ZGNN 101500Z AUTO 07002KT 10SM 11/00 A3038 RMK SLP278 T01140001 52010 IEM_DS3505
ZGNN,1997-12-10 18:00,ZGNN 101800Z AUTO 36002KT 10SM 11/00 A3035 RMK SLP268 T01090003 57010 IEM_DS3505
ZGNN,1997-12-10 21:00,ZGNN 102100Z AUTO 04002KT 9SM 10/01 A3030 RMK SLP256 T01050007 57012 IEM_DS3505
ZGNN,1997-12-10 22:00,ZGNN 102200Z AUTO 06004KT 6SM 10/03 A3030 RMK SLP253 T01000030 IEM_DS3505
ZGNN,1997-12-11 00:00,ZGNN 110000Z AUTO 09002KT 14SM 10/01 A3036 RMK SLP276 T01040006 52019 IEM_DS3505
ZGNN,1997-12-11 02:00,ZGNN 110200Z AUTO 03006KT 6SM 11/01 A3036 RMK SLP273 T01100010 IEM_DS3505
ZGNN,1997-12-11 03:00,ZGNN 110300Z AUTO 09004KT 16SM 11/M01 A3036 RMK SLP280 T01131007 52004 IEM_DS3505
ZGNN,1997-12-11 04:00,ZGNN 110400Z AUTO 01004KT 6SM 12/00 A3033 RMK SLP262 T01200000 IEM_DS3505
ZGNN,1997-12-11 05:00,ZGNN 110500Z AUTO 34004KT 6SM 12/00 A3030 RMK SLP252 T01200000 IEM_DS3505
ZGNN,1997-12-11 06:00,ZGNN 110600Z AUTO 02004KT 16SM 12/01 A3027 RMK SLP247 T01240007 57032 IEM_DS3505
ZGNN,1997-12-11 07:00,ZGNN 110700Z AUTO 36006KT 6SM 12/00 A3027 RMK SLP242 T01200000 IEM_DS3505
ZGNN,1997-12-11 08:00,ZGNN 110800Z AUTO 02004KT 6SM 12/01 A3024 RMK SLP231 T01200010 IEM_DS3505
ZGNN,1997-12-11 09:00,ZGNN 110900Z AUTO 00000KT 16SM 12/01 A3024 RMK SLP241 T01220013 57006 IEM_DS3505
ZGNN,1997-12-11 10:00,ZGNN 111000Z AUTO 06006KT 6SM 12/02 A3027 RMK SLP242 T01200020 IEM_DS3505
ZGNN,1997-12-11 11:00,ZGNN 111100Z AUTO 06006KT 6SM 11/01 A3027 RMK SLP242 T01100010 IEM_DS3505
ZGNN,1997-12-11 12:00,ZGNN 111200Z AUTO 04004KT 12SM 11/01 A3027 RMK SLP256 T01130009 52014 IEM_DS3505
ZGNN,1997-12-11 14:00,ZGNN 111400Z AUTO 09006KT 6SM 11/02 A3030 RMK SLP252 T01100020 IEM_DS3505
ZGNN,1997-12-11 15:00,ZGNN 111500Z AUTO 04004KT 12SM 11/01 A3032 RMK SLP257 T01090013 52002 IEM_DS3505
ZGNN,1997-12-11 18:00,ZGNN 111800Z AUTO 09002KT 11SM 11/02 A3031 RMK SLP255 T01060024 57002 IEM_DS3505
ZGNN,1997-12-11 21:00,ZGNN 112100Z AUTO 00000KT 11SM 10/03 A3030 RMK SLP255 T01040033 54000 IEM_DS3505
ZGNN,1997-12-11 22:00,ZGNN 112200Z AUTO 04002KT 7SM 10/04 A3030 RMK SLP253 T01000040 IEM_DS3505
ZGNN,1997-12-11 23:00,ZGNN 112300Z AUTO 05002KT 7SM 10/04 A3033 RMK SLP263 T01000040 IEM_DS3505
ZGNN,1997-12-12 00:00,ZGNN 120000Z AUTO 09002KT 12SM 10/02 A3033 RMK SLP273 T01030023 52017 IEM_DS3505
ZGNN,1997-12-12 01:00,ZGNN 120100Z AUTO 03004KT 6SM 10/03 A3036 RMK SLP273 T01000030 IEM_DS3505
ZGNN,1997-12-12 02:00,ZGNN 120200Z AUTO 35004KT 7SM 11/03 A3039 RMK SLP283 T01100030 IEM_DS3505
ZGNN,1997-12-12 03:00,ZGNN 120300Z AUTO 04004KT 12SM 11/02 A3039 RMK SLP286 T01140023 52013 IEM_DS3505
ZGNN,1997-12-12 04:00,ZGNN 120400Z AUTO 03008KT 6SM 11/02 A3036 RMK SLP273 T01100020 IEM_DS3505
ZGNN,1997-12-12 05:00,ZGNN 120500Z AUTO 34006KT 6SM 12/03 A3033 RMK SLP262 T01200030 IEM_DS3505
ZGNN,1997-12-12 06:00,ZGNN 120600Z AUTO 02004KT 16SM 12/04 A3030 RMK SLP257 T01250038 57028 IEM_DS3505
ZGNN,1997-12-12 07:00,ZGNN 120700Z AUTO 02006KT 6SM 12/03 A3027 RMK SLP242 T01200030 IEM_DS3505
ZGNN,1997-12-12 08:00,ZGNN 120800Z AUTO 35006KT 6SM 12/04 A3027 RMK SLP242 T01200040 IEM_DS3505
ZGNN,1997-12-12 09:00,ZGNN 120900Z AUTO 07004KT 16SM 12/04 A3027 RMK SLP251 T01250035 57006 IEM_DS3505
ZGNN,1997-12-12 10:00,ZGNN 121000Z AUTO 02004KT 7SM 12/04 A3030 RMK SLP252 T01200040 IEM_DS3505
ZGNN,1997-12-12 12:00,ZGNN 121200Z AUTO 02004KT 12SM 12/03 A3030 RMK SLP262 T01160034 52010 IEM_DS3505
ZGNN,1997-12-12 13:00,ZGNN 121300Z AUTO 03004KT 7SM 11/04 A3033 RMK SLP262 T01100040 IEM_DS3505
ZGNN,1997-12-12 14:00,ZGNN 121400Z AUTO 07004KT 7SM 11/04 A3033 RMK SLP262 T01100040 IEM_DS3505
ZGNN,1997-12-12 15:00,ZGNN 121500Z AUTO 04002KT 12SM 11/04 A3035 RMK SLP268 T01110039 52007 IEM_DS3505
ZGNN,1997-12-12 18:00,ZGNN 121800Z AUTO 00000KT 11SM 11/04 A3033 RMK SLP263 T01100040 57005 IEM_DS3505
ZGNN,1997-12-12 21:00,ZGNN 122100Z AUTO 00000KT 10SM 10/06 A3030 RMK SLP253 T01000060 57010 IEM_DS3505
ZGNN,1997-12-12 22:00,ZGNN 122200Z AUTO 00000KT 5SM 10/06 A3030 RMK SLP253 T01000060 IEM_DS3505
ZGNN,1997-12-12 23:00,ZGNN 122300Z AUTO 09002KT 4SM 10/07 A3030 RMK SLP253 T01000070 IEM_DS3505
ZGNN,1997-12-13 00:00,ZGNN 130000Z AUTO 00000KT 9SM 11/05 A3033 RMK SLP263 T01120053 52010 IEM_DS3505
ZGNN,1997-12-13 01:00,ZGNN 130100Z AUTO 10002KT 6SM 11/06 A3033 RMK SLP262 T01100060 IEM_DS3505
ZGNN,1997-12-13 03:00,ZGNN 130300Z AUTO 00000KT 9SM 13/05 A3033 RMK SLP269 T01270054 52006 IEM_DS3505
ZGNN,1997-12-13 04:00,ZGNN 130400Z AUTO 33004KT 7SM 14/05 A3030 RMK SLP251 T01400050 IEM_DS3505
ZGNN,1997-12-13 05:00,ZGNN 130500Z AUTO 03004KT 7SM 14/04 A3027 RMK SLP241 T01400040 IEM_DS3505
ZGNN,1997-12-13 06:00,ZGNN 130600Z AUTO 00000KT 9SM 14/04 A3024 RMK SLP237 T01430043 57032 IEM_DS3505
ZGNN,1997-12-13 07:00,ZGNN 130700Z AUTO 00000KT 7SM 14/05 A3021 RMK SLP220 T01400050 IEM_DS3505
ZGNN,1997-12-13 08:00,ZGNN 130800Z AUTO 00000KT 7SM 14/05 A3021 RMK SLP220 T01400050 IEM_DS3505
ZGNN,1997-12-13 09:00,ZGNN 130900Z AUTO 00000KT 9SM 15/06 A3021 RMK SLP222 T01460055 57015 IEM_DS3505
ZGNN,1997-12-13 10:00,ZGNN 131000Z AUTO 00000KT 7SM 14/06 A3021 RMK SLP220 T01400060 IEM_DS3505
ZGNN,1997-12-13 11:00,ZGNN 131100Z AUTO 00000KT 7SM 13/07 A3021 RMK SLP220 T01300070 IEM_DS3505
ZGNN,1997-12-13 12:00,ZGNN 131200Z AUTO 00000KT 9SM 14/06 A3024 RMK SLP232 T01420058 52010 IEM_DS3505
ZGNN,1997-12-13 13:00,ZGNN 131300Z AUTO 00000KT 7SM 13/08 A3024 RMK SLP231 T01300080 IEM_DS3505
ZGNN,1997-12-13 15:00,ZGNN 131500Z AUTO 00000KT 9SM 14/06 A3025 RMK SLP235 T01350064 52003 IEM_DS3505
ZGNN,1997-12-13 18:00,ZGNN 131800Z AUTO 02002KT 9SM 13/07 A3023 RMK SLP226 T01310066 57008 IEM_DS3505
ZGNN,1997-12-13 21:00,ZGNN 132100Z AUTO 00000KT 9SM 13/07 A3018 RMK SLP215 T01280068 57011 IEM_DS3505
ZGNN,1997-12-13 22:00,ZGNN 132200Z AUTO 00000KT 4SM 12/08 A3018 RMK SLP211 T01200080 IEM_DS3505
ZGNN,1997-12-13 23:00,ZGNN 132300Z AUTO 00000KT 4SM 12/08 A3021 RMK SLP221 T01200080 IEM_DS3505
ZGNN,1997-12-14 00:00,ZGNN 140000Z AUTO 04002KT 8SM 13/09 A3024 RMK SLP230 T01290087 52015 IEM_DS3505
ZGNN,1997-12-14 01:00,ZGNN 140100Z AUTO 10004KT 2 1/2SM 12/08 A3024 RMK SLP231 T01200080 IEM_DS3505
ZGNN,1997-12-14 02:00,ZGNN 140200Z AUTO 00000KT 1 1/2SM 12/09 A3027 RMK SLP242 T01200090 IEM_DS3505
ZGNN,1997-12-14 03:00,ZGNN 140300Z AUTO 00000KT 7SM 12/10 A3026 RMK SLP239 T01250104 52008 IEM_DS3505
ZGNN,1997-12-14 04:00,ZGNN 140400Z AUTO 00000KT 1SM 12/11 A3024 RMK SLP231 T01200110 IEM_DS3505
ZGNN,1997-12-14 05:00,ZGNN 140500Z AUTO 00000KT 1SM 12/11 A3021 RMK SLP221 T01200110 IEM_DS3505
ZGNN,1997-12-14 06:00,ZGNN 140600Z AUTO 00000KT 2 1/2SM 12/12 A3018 RMK 60000 SLP212 T01250116 57027 IEM_DS3505
ZGNN,1997-12-14 07:00,ZGNN 140700Z AUTO 00000KT 1SM 12/12 A3015 RMK SLP201 T01200120 IEM_DS3505
ZGNN,1997-12-14 08:00,ZGNN 140800Z AUTO 00000KT 1SM 13/12 A3015 RMK SLP200 T01300120 IEM_DS3505
ZGNN,1997-12-14 09:00,ZGNN 140900Z AUTO 00000KT 1 1/4SM 13/12 A3015 RMK SLP204 T01310118 57007 IEM_DS3505
ZGNN,1997-12-14 10:00,ZGNN 141000Z AUTO 00000KT 1 1/4SM 13/12 A3015 RMK SLP200 T01300120 IEM_DS3505
ZGNN,1997-12-14 11:00,ZGNN 141100Z AUTO 00000KT 1SM 13/12 A3018 RMK SLP210 T01300120 IEM_DS3505
ZGNN,1997-12-14 12:00,ZGNN 141200Z AUTO 00000KT 1 1/4SM 13/12 A3018 RMK 60000 SLP215 T01320123 52011 IEM_DS3505
ZGNN,1997-12-14 13:00,ZGNN 141300Z AUTO 00000KT 1SM 13/12 A3018 RMK SLP210 T01300120 IEM_DS3505
ZGNN,1997-12-14 15:00,ZGNN 141500Z AUTO 00000KT 2SM 14/12 A3024 RMK SLP230 T01360123 52014 IEM_DS3505
ZGNN,1997-12-14 18:00,ZGNN 141800Z AUTO 09004KT 9SM 13/12 A3019 RMK SLP212 T01340119 57017 IEM_DS3505
ZGNN,1997-12-14 21:00,ZGNN 142100Z AUTO 00000KT 7SM 13/12 A3015 RMK 70001 SLP206 T01330116 57006 IEM_DS3505
ZGNN,1997-12-14 22:00,ZGNN 142200Z AUTO 00000KT 2 1/2SM 13/12 A3018 RMK SLP210 T01300120 IEM_DS3505
ZGNN,1997-12-14 23:00,ZGNN 142300Z AUTO 00000KT 2 1/2SM 13/12 A3018 RMK SLP210 T01300120 IEM_DS3505
ZGNN,1997-12-15 00:00,ZGNN 150000Z AUTO 00000KT 6SM 14/12 A3018 RMK 70001 SLP218 T01360117 52012 IEM_DS3505
ZGNN,1997-12-15 01:00,ZGNN 150100Z AUTO 00000KT 1 1/2SM 14/12 A3018 RMK SLP210 T01400120 IEM_DS3505
ZGNN,1997-12-15 03:00,ZGNN 150300Z AUTO 00000KT 6SM 15/12 A3021 RMK SLP228 T01460122 52010 IEM_DS3505
ZGNN,1997-12-15 04:00,ZGNN 150400Z AUTO 01004KT 2SM 15/13 A3021 RMK SLP220 T01500130 IEM_DS3505
ZGNN,1997-12-15 05:00,ZGNN 150500Z AUTO 05002KT 2SM 15/13 A3018 RMK SLP210 T01500130 IEM_DS3505
ZGNN,1997-12-15 06:00,ZGNN 150600Z AUTO 00000KT 3SM 16/13 A3015 RMK SLP202 T01550128 57026 IEM_DS3505
ZGNN,1997-12-15 07:00,ZGNN 150700Z AUTO 36002KT 1 1/4SM 16/14 A3012 RMK SLP189 T01600140 IEM_DS3505
ZGNN,1997-12-15 09:00,ZGNN 150900Z AUTO 00000KT 4SM 17/14 A3009 RMK SLP186 T01710136 57016 IEM_DS3505
ZGNN,1997-12-15 10:00,ZGNN 151000Z AUTO 06004KT 1 1/4SM 16/14 A3009 RMK SLP179 T01600140 IEM_DS3505
ZGNN,1997-12-15 11:00,ZGNN 151100Z AUTO 35008KT 1 1/4SM 16/14 A3009 RMK SLP179 T01600140 IEM_DS3505
ZGNN,1997-12-15 12:00,ZGNN 151200Z AUTO 00000KT 2SM 16/14 A3012 RMK SLP196 T01600139 52010 IEM_DS3505
ZGNN,1997-12-15 13:00,ZGNN 151300Z AUTO 35006KT 1 1/2SM 16/14 A3012 RMK SLP189 T01600140 IEM_DS3505
ZGNN,1997-12-15 15:00,ZGNN 151500Z AUTO 25002KT 2SM 16/14 A3018 RMK SLP208 T01610142 52012 IEM_DS3505
ZGNN,1997-12-15 18:00,ZGNN 151800Z AUTO 07002KT 1 1/2SM 16/14 A3013 RMK SLP193 T01600144 57014 IEM_DS3505
ZGNN,1997-12-15 21:00,ZGNN 152100Z AUTO 00000KT 2SM 16/15 A3009 RMK SLP188 T01620146 57005 IEM_DS3505
ZGNN,1997-12-15 22:00,ZGNN 152200Z AUTO 03002KT 1 1/2SM 17/15 A3012 RMK SLP189 T01700150 IEM_DS3505
ZGNN,1997-12-15 23:00,ZGNN 152300Z AUTO 35004KT 1 1/2SM 17/15 A3012 RMK SLP189 T01700150 IEM_DS3505
ZGNN,1997-12-16 00:00,ZGNN 160000Z AUTO 00000KT 1 1/4SM 17/15 A3012 RMK SLP197 T01670150 52009 IEM_DS3505
ZGNN,1997-12-16 01:00,ZGNN 160100Z AUTO 36004KT 1SM 18/17 A3015 RMK SLP199 T01800170 IEM_DS3505
ZGNN,1997-12-16 02:00,ZGNN 160200Z AUTO 01002KT 1SM 19/18 A3018 RMK SLP209 T01900180 IEM_DS3505
ZGNN,1997-12-16 03:00,ZGNN 160300Z AUTO 00000KT 1SM 19/17 A3018 RMK SLP209 T01940169 52012 IEM_DS3505
ZGNN,1997-12-16 04:00,ZGNN 160400Z AUTO 14006KT 7SM 22/18 A3015 RMK SLP198 T02200180 IEM_DS3505
ZGNN,1997-12-16 06:00,ZGNN 160600Z AUTO 00000KT 5SM 24/19 A3006 RMK SLP167 T02350187 57041 IEM_DS3505
ZGNN,1997-12-16 13:00,ZGNN 161300Z AUTO 16002KT 7SM 21/19 A3006 RMK SLP168 T02100190 IEM_DS3505
ZGNN,1997-12-16 15:00,ZGNN 161500Z AUTO 07002KT 8SM 21/19 A3008 RMK SLP175 T02080186 52010 IEM_DS3505
ZGNN,1997-12-16 21:00,ZGNN 162100Z AUTO 00000KT 7SM 20/18 A3003 RMK SLP170 T01960183 57003 IEM_DS3505
ZGNN,1997-12-16 23:00,ZGNN 162300Z AUTO 14002KT 4SM 20/19 A3009 RMK SLP178 T02000190 IEM_DS3505
ZGNN,1997-12-17 00:00,ZGNN 170000Z AUTO 00000KT 6SM 20/19 A3009 RMK SLP183 T01970186 52013 IEM_DS3505
ZGNN,1997-12-17 03:00,ZGNN 170300Z AUTO 00000KT 5SM 22/20 A3015 RMK SLP195 T02150196 52012 IEM_DS3505
ZGNN,1997-12-17 04:00,ZGNN 170400Z AUTO 12004KT 5SM 23/19 A3012 RMK SLP187 T02300190 IEM_DS3505
ZGNN,1997-12-17 05:00,ZGNN 170500Z AUTO 13006KT 7SM 25/19 A3006 RMK SLP166 T02500190 IEM_DS3505
ZGNN,1997-12-17 06:00,ZGNN 170600Z AUTO 22002KT 7SM 25/20 A3003 RMK SLP161 T02500198 57033 IEM_DS3505
ZGNN,1997-12-17 07:00,ZGNN 170700Z AUTO 04004KT 7SM 25/19 A3000 RMK SLP146 T02500190 IEM_DS3505
ZGNN,1997-12-17 08:00,ZGNN 170800Z AUTO 10006KT 7SM 26/19 A3000 RMK SLP146 T02600190 IEM_DS3505
ZGNN,1997-12-17 09:00,ZGNN 170900Z AUTO 04002KT 9SM 24/20 A2997 RMK SLP146 T02380195 57015 IEM_DS3505
ZGNN,1997-12-17 10:00,ZGNN 171000Z AUTO 14008KT 7SM 24/19 A3000 RMK SLP147 T02400190 IEM_DS3505
ZGNN,1997-12-17 11:00,ZGNN 171100Z AUTO 15004KT 7SM 22/19 A3000 RMK SLP147 T02200190 IEM_DS3505
ZGNN,1997-12-17 12:00,ZGNN 171200Z AUTO 00000KT 7SM 20/18 A3003 RMK SLP161 T02050178 52014 IEM_DS3505
ZGNN,1997-12-17 13:00,ZGNN 171300Z AUTO 12004KT 7SM 21/19 A3003 RMK SLP158 T02100190 IEM_DS3505
ZGNN,1997-12-17 15:00,ZGNN 171500Z AUTO 09004KT 9SM 19/17 A3005 RMK SLP166 T01890168 52005 IEM_DS3505
ZGNN,1997-12-17 18:00,ZGNN 171800Z AUTO 04002KT 9SM 18/16 A3003 RMK SLP157 T01830163 57008 IEM_DS3505
ZGNN,1997-12-17 21:00,ZGNN 172100Z AUTO 00000KT 9SM 18/16 A3000 RMK SLP152 T01820165 57006 IEM_DS3505
ZGNN,1997-12-17 22:00,ZGNN 172200Z AUTO 00000KT 1SM 18/17 A3000 RMK SLP148 T01800170 IEM_DS3505
ZGNN,1997-12-17 23:00,ZGNN 172300Z AUTO 02002KT 1 1/2SM 17/16 A3000 RMK SLP149 T01700160 IEM_DS3505
ZGNN,1997-12-18 00:00,ZGNN 180000Z AUTO 07002KT 6SM 18/16 A3003 RMK SLP160 T01820165 52008 IEM_DS3505
ZGNN,1997-12-18 01:00,ZGNN 180100Z AUTO 02004KT 1SM 18/17 A3003 RMK SLP158 T01800170 IEM_DS3505
ZGNN,1997-12-18 02:00,ZGNN 180200Z AUTO 07004KT 1 1/4SM 20/18 A3006 RMK SLP168 T02000180 IEM_DS3505
ZGNN,1997-12-18 03:00,ZGNN 180300Z AUTO 07004KT 6SM 21/18 A3003 RMK SLP163 T02070181 52003 IEM_DS3505
ZGNN,1997-12-18 04:00,ZGNN 180400Z AUTO 12006KT 7SM 25/19 A3000 RMK SLP146 T02500190 IEM_DS3505
ZGNN,1997-12-18 06:00,ZGNN 180600Z AUTO 00000KT 8SM 24/20 A2997 RMK SLP135 T02430195 57027 IEM_DS3505
ZGNN,1997-12-18 07:00,ZGNN 180700Z AUTO 00000KT 7SM 25/20 A2994 RMK SLP126 T02500200 IEM_DS3505
ZGNN,1997-12-18 08:00,ZGNN 180800Z AUTO 00000KT 7SM 25/21 A2994 RMK SLP126 T02500210 IEM_DS3505
ZGNN,1997-12-18 09:00,ZGNN 180900Z AUTO 00000KT 10SM 24/21 A2997 RMK SLP136 T02420207 52001 IEM_DS3505
ZGNN,1997-12-18 10:00,ZGNN 181000Z AUTO 00000KT 7SM 24/21 A2997 RMK SLP136 T02400210 IEM_DS3505
ZGNN,1997-12-18 11:00,ZGNN 181100Z AUTO 11004KT 7SM 22/20 A2994 RMK SLP127 T02200200 IEM_DS3505
ZGNN,1997-12-18 12:00,ZGNN 181200Z AUTO 14002KT 11SM 23/20 A2997 RMK SLP139 T02280197 52002 IEM_DS3505
ZGNN,1997-12-18 13:00,ZGNN 181300Z AUTO 00000KT 6SM 21/19 A2997 RMK SLP137 T02100190 IEM_DS3505
ZGNN,1997-12-18 14:00,ZGNN 181400Z AUTO 00000KT 6SM 20/19 A2997 RMK SLP138 T02000190 IEM_DS3505
ZGNN,1997-12-18 15:00,ZGNN 181500Z AUTO 27002KT 10SM 21/19 A3000 RMK SLP146 T02110192 52008 IEM_DS3505
ZGNN,1997-12-18 16:00,ZGNN 181600Z AUTO 00000KT 6SM 19/18 A2997 RMK SLP138 T01900180 IEM_DS3505
ZGNN,1997-12-18 18:00,ZGNN 181800Z AUTO 00000KT 9SM 20/19 A2997 RMK SLP138 T02020191 57008 IEM_DS3505
ZGNN,1997-12-18 21:00,ZGNN 182100Z AUTO 00000KT 9SM 20/19 A2994 RMK SLP132 T02010192 57006 IEM_DS3505
ZGNN,1997-12-18 22:00,ZGNN 182200Z AUTO 36004KT 2 1/2SM 19/18 A2997 RMK SLP138 T01900180 IEM_DS3505
ZGNN,1997-12-18 23:00,ZGNN 182300Z AUTO 00000KT 2SM 18/18 A2997 RMK SLP138 T01800180 IEM_DS3505
ZGNN,1997-12-19 00:00,ZGNN 190000Z AUTO 34002KT 5SM 21/20 A3000 RMK SLP150 T02070195 52018 IEM_DS3505
ZGNN,1997-12-19 01:00,ZGNN 190100Z AUTO 36006KT 2SM 20/19 A3000 RMK SLP148 T02000190 IEM_DS3505
ZGNN,1997-12-19 03:00,ZGNN 190300Z AUTO 18002KT 11SM 23/20 A3003 RMK SLP160 T02260201 52010 IEM_DS3505
ZGNN,1997-12-19 04:00,ZGNN 190400Z AUTO 18012KT 7SM 27/19 A3000 RMK SLP146 T02700190 IEM_DS3505
ZGNN,1997-12-19 05:00,ZGNN 190500Z AUTO 20008KT 7SM 28/18 A2994 RMK SLP125 T02800180 IEM_DS3505
ZGNN,1997-12-19 06:00,ZGNN 190600Z AUTO 20002KT 12SM 26/21 A2991 RMK 60071 SLP123 T02620208 57037 IEM_DS3505
ZGNN,1997-12-19 07:00,ZGNN 190700Z AUTO 17010KT 7SM 28/19 A2991 RMK SLP115 T02800190 IEM_DS3505
ZGNN,1997-12-19 08:00,ZGNN 190800Z AUTO 14010KT 7SM 26/20 A2988 RMK SLP106 T02600200 IEM_DS3505
ZGNN,1997-12-19 09:00,ZGNN 190900Z AUTO 14004KT 12SM 26/20 A2991 RMK SLP115 T02600204 57008 IEM_DS3505
ZGNN,1997-12-19 10:00,ZGNN 191000Z AUTO 11004KT 7SM 24/20 A2991 RMK SLP116 T02400200 IEM_DS3505
ZGNN,1997-12-19 11:00,ZGNN 191100Z AUTO 13002KT 7SM 23/19 A2994 RMK SLP127 T02300190 IEM_DS3505
ZGNN,1997-12-19 12:00,ZGNN 191200Z AUTO 02002KT 11SM 23/20 A2994 RMK SLP133 T02270199 52018 IEM_DS3505
ZGNN,1997-12-19 13:00,ZGNN 191300Z AUTO 15004KT 6SM 20/19 A2997 RMK SLP138 T02000190 IEM_DS3505
ZGNN,1997-12-19 14:00,ZGNN 191400Z AUTO 20004KT 6SM 20/17 A2997 RMK SLP138 T02000170 IEM_DS3505
ZGNN,1997-12-19 15:00,ZGNN 191500Z AUTO 00000KT 11SM 21/20 A2997 RMK SLP145 T02110199 52012 IEM_DS3505
ZGNN,1997-12-19 18:00,ZGNN 191800Z AUTO 04002KT 9SM 21/20 A2998 RMK SLP141 T02080197 57004 IEM_DS3505
ZGNN,1997-12-19 21:00,ZGNN 192100Z AUTO 00000KT 7SM 21/20 A2994 RMK 70071 SLP137 T02060195 57004 IEM_DS3505
ZGNN,1997-12-19 22:00,ZGNN 192200Z AUTO 00000KT 3SM 19/19 A2997 RMK SLP138 T01900190 IEM_DS3505
ZGNN,1997-12-19 23:00,ZGNN 192300Z AUTO 00000KT 3SM 19/19 A2997 RMK SLP138 T01900190 IEM_DS3505
ZGNN,1997-12-20 00:00,ZGNN 200000Z AUTO 04002KT 8SM 20/19 A3000 RMK 70071 SLP148 T02050194 52011 IEM_DS3505
ZGNN,1997-12-20 01:00,ZGNN 200100Z AUTO 09004KT 1 1/2SM 20/20 A3003 RMK SLP158 T02000200 IEM_DS3505
ZGNN,1997-12-20 02:00,ZGNN 200200Z AUTO 15004KT 5SM 22/20 A3006 RMK SLP167 T02200200 IEM_DS3505
ZGNN,1997-12-20 03:00,ZGNN 200300Z AUTO 11002KT 9SM 22/20 A3006 RMK SLP166 T02150200 52017 IEM_DS3505
ZGNN,1997-12-20 04:00,ZGNN 200400Z AUTO 15006KT 7SM 23/20 A3000 RMK SLP147 T02300200 IEM_DS3505
ZGNN,1997-12-20 05:00,ZGNN 200500Z AUTO 15006KT 7SM 26/19 A2997 RMK SLP136 T02600190 IEM_DS3505
ZGNN,1997-12-20 06:00,ZGNN 200600Z AUTO 20004KT 11SM 25/20 A2994 RMK 60002 SLP127 T02460199 57038 IEM_DS3505
ZGNN,1997-12-20 07:00,ZGNN 200700Z AUTO 14012KT 7SM 27/19 A2988 RMK SLP105 T02700190 IEM_DS3505
ZGNN,1997-12-20 08:00,ZGNN 200800Z AUTO 16012KT 7SM 26/18 A2988 RMK SLP106 T02600180 IEM_DS3505
ZGNN,1997-12-20 09:00,ZGNN 200900Z AUTO 20006KT 14SM 26/19 A2988 RMK SLP115 T02550190 57012 IEM_DS3505
ZGNN,1997-12-20 10:00,ZGNN 201000Z AUTO 14010KT 7SM 24/19 A2991 RMK SLP116 T02400190 IEM_DS3505
ZGNN,1997-12-20 11:00,ZGNN 201100Z AUTO 13006KT 7SM 22/19 A2991 RMK SLP117 T02200190 IEM_DS3505
ZGNN,1997-12-20 13:00,ZGNN 201300Z AUTO 14006KT 6SM 21/19 A2994 RMK SLP127 T02100190 IEM_DS3505
ZGNN,1997-12-20 15:00,ZGNN 201500Z AUTO 22002KT 12SM 22/19 A2999 RMK SLP142 T02170189 52015 IEM_DS3505
ZGNN,1997-12-20 18:00,ZGNN 201800Z AUTO 00000KT 11SM 21/19 A2997 RMK SLP138 T02110191 57004 IEM_DS3505
ZGNN,1997-12-20 21:00,ZGNN 202100Z AUTO 00000KT 10SM 21/20 A2991 RMK 70002 SLP129 T02120198 57009 IEM_DS3505
ZGNN,1997-12-20 22:00,ZGNN 202200Z AUTO 00000KT 4SM 19/18 A2994 RMK SLP128 T01900180 IEM_DS3505
ZGNN,1997-12-20 23:00,ZGNN 202300Z AUTO 06002KT 4SM 19/18 A2997 RMK SLP138 T01900180 IEM_DS3505
ZGNN,1997-12-21 00:00,ZGNN 210000Z AUTO 00000KT 10SM 21/20 A2997 RMK 70002 SLP143 T02100199 52014 IEM_DS3505
ZGNN,1997-12-21 01:00,ZGNN 210100Z AUTO 10002KT 5SM 21/20 A3000 RMK SLP147 T02100200 IEM_DS3505
ZGNN,1997-12-21 02:00,ZGNN 210200Z AUTO 14006KT 7SM 22/20 A3003 RMK SLP157 T02200200 IEM_DS3505
ZGNN,1997-12-21 03:00,ZGNN 210300Z AUTO 20004KT 11SM 24/20 A3003 RMK SLP161 T02380203 52018 IEM_DS3505
ZGNN,1997-12-21 04:00,ZGNN 210400Z AUTO 13010KT 7SM 27/20 A3000 RMK SLP146 T02700200 IEM_DS3505
ZGNN,1997-12-21 05:00,ZGNN 210500Z AUTO 18010KT 7SM 27/20 A2997 RMK SLP136 T02700200 IEM_DS3505
ZGNN,1997-12-21 06:00,ZGNN 210600Z AUTO 22002KT 12SM 27/20 A2994 RMK SLP123 T02670199 57037 IEM_DS3505
ZGNN,1997-12-21 07:00,ZGNN 210700Z AUTO 13010KT 7SM 23/21 A2991 RMK SLP117 T02300210 IEM_DS3505
ZGNN,1997-12-21 08:00,ZGNN 210800Z AUTO 15008KT 7SM 24/20 A2991 RMK SLP116 T02400200 IEM_DS3505
ZGNN,1997-12-21 09:00,ZGNN 210900Z AUTO 11002KT 12SM 26/20 A2994 RMK SLP127 T02570199 52003 IEM_DS3505
ZGNN,1997-12-21 10:00,ZGNN 211000Z AUTO 15004KT 7SM 23/20 A2997 RMK SLP137 T02300200 IEM_DS3505
ZGNN,1997-12-21 12:00,ZGNN 211200Z AUTO 07004KT 11SM 18/16 A3006 RMK 60028 SLP170 T01760161 52042 IEM_DS3505
ZGNN,1997-12-21 13:00,ZGNN 211300Z AUTO 16008KT 7SM 17/15 A3009 RMK SLP179 T01700150 IEM_DS3505
ZGNN,1997-12-21 14:00,ZGNN 211400Z AUTO 04006KT 7SM 17/15 A3012 RMK SLP189 T01700150 IEM_DS3505
ZGNN,1997-12-21 15:00,ZGNN 211500Z AUTO 02004KT 11SM 18/15 A3012 RMK SLP191 T01760147 52021 IEM_DS3505
ZGNN,1997-12-21 18:00,ZGNN 211800Z AUTO 04004KT 11SM 17/13 A3016 RMK SLP200 T01710134 52009 IEM_DS3505
ZGNN,1997-12-21 21:00,ZGNN 212100Z AUTO 00000KT 10SM 15/13 A3015 RMK 70035 SLP205 T01520130 52005 IEM_DS3505
ZGNN,1997-12-21 22:00,ZGNN 212200Z AUTO 01010KT 7SM 14/13 A3015 RMK SLP200 T01400130 IEM_DS3505
ZGNN,1997-12-21 23:00,ZGNN 212300Z AUTO 33004KT 7SM 14/12 A3021 RMK SLP220 T01400120 IEM_DS3505
ZGNN,1997-12-22 00:00,ZGNN 220000Z AUTO 29002KT 19SM 15/11 A3021 RMK 60008 70035 SLP229 T01470111 52022 IEM_DS3505
ZGNN,1997-12-22 02:00,ZGNN 220200Z AUTO 01004KT 7SM 15/12 A3024 RMK SLP230 T01500120 IEM_DS3505
ZGNN,1997-12-22 03:00,ZGNN 220300Z AUTO 00000KT 19SM 16/11 A3024 RMK SLP235 T01550112 52006 IEM_DS3505
ZGNN,1997-12-22 04:00,ZGNN 220400Z AUTO 31006KT 7SM 15/11 A3024 RMK SLP230 T01500110 IEM_DS3505
ZGNN,1997-12-22 05:00,ZGNN 220500Z AUTO 34004KT 7SM 14/13 A3021 RMK SLP220 T01400130 IEM_DS3505
ZGNN,1997-12-22 06:00,ZGNN 220600Z AUTO 07004KT 16SM 15/11 A3018 RMK 60002 SLP215 T01470109 57020 IEM_DS3505
ZGNN,1997-12-22 07:00,ZGNN 220700Z AUTO 02004KT 7SM 14/12 A3018 RMK SLP210 T01400120 IEM_DS3505
ZGNN,1997-12-22 08:00,ZGNN 220800Z AUTO 00000KT 6SM 13/13 A3018 RMK SLP210 T01300130 IEM_DS3505
ZGNN,1997-12-22 09:00,ZGNN 220900Z AUTO 02002KT 14SM 14/12 A3018 RMK SLP214 T01350116 57001 IEM_DS3505
ZGNN,1997-12-22 10:00,ZGNN 221000Z AUTO 06004KT 7SM 13/11 A3021 RMK SLP220 T01300110 IEM_DS3505
ZGNN,1997-12-22 11:00,ZGNN 221100Z AUTO 05004KT 7SM 13/11 A3024 RMK SLP231 T01300110 IEM_DS3505
ZGNN,1997-12-22 12:00,ZGNN 221200Z AUTO 07004KT 12SM 13/10 A3024 RMK 60008 SLP237 T01340103 52023 IEM_DS3505
ZGNN,1997-12-22 13:00,ZGNN 221300Z AUTO 00000KT 7SM 13/12 A3027 RMK SLP242 T01300120 IEM_DS3505
ZGNN,1997-12-22 15:00,ZGNN 221500Z AUTO 04004KT 12SM 13/09 A3028 RMK SLP245 T01340093 52008 IEM_DS3505
ZGNN,1997-12-22 18:00,ZGNN 221800Z AUTO 00000KT 11SM 13/09 A3026 RMK SLP236 T01330092 57009 IEM_DS3505
ZGNN,1997-12-22 21:00,ZGNN 222100Z AUTO 09002KT 12SM 13/08 A3021 RMK 70008 SLP237 T01270085 54000 IEM_DS3505
ZGNN,1997-12-22 22:00,ZGNN 222200Z AUTO 00000KT 7SM 12/09 A3024 RMK SLP231 T01200090 IEM_DS3505
ZGNN,1997-12-22 23:00,ZGNN 222300Z AUTO 05004KT 7SM 12/08 A3024 RMK SLP231 T01200080 IEM_DS3505
ZGNN,1997-12-23 00:00,ZGNN 230000Z AUTO 00000KT 7SM 12/08 A3027 RMK 70008 SLP243 T01180077 52006 IEM_DS3505
ZGNN,1997-12-23 01:00,ZGNN 230100Z AUTO 08004KT 6SM 13/07 A3027 RMK SLP242 T01300070 IEM_DS3505
ZGNN,1997-12-23 02:00,ZGNN 230200Z AUTO 02004KT 7SM 13/09 A3030 RMK SLP252 T01300090 IEM_DS3505
ZGNN,1997-12-23 03:00,ZGNN 230300Z AUTO 34002KT 16SM 14/08 A3030 RMK SLP253 T01400077 52010 IEM_DS3505
ZGNN,1997-12-23 04:00,ZGNN 230400Z AUTO 36004KT 7SM 15/11 A3027 RMK SLP241 T01500110 IEM_DS3505
ZGNN,1997-12-23 05:00,ZGNN 230500Z AUTO 36004KT 7SM 15/08 A3024 RMK SLP230 T01500080 IEM_DS3505
ZGNN,1997-12-23 06:00,ZGNN 230600Z AUTO 09002KT 16SM 16/09 A3020 RMK SLP217 T01580086 57035 IEM_DS3505
ZGNN,1997-12-23 07:00,ZGNN 230700Z AUTO 32004KT 7SM 16/09 A3018 RMK SLP209 T01600090 IEM_DS3505
ZGNN,1997-12-23 08:00,ZGNN 230800Z AUTO 07002KT 7SM 16/09 A3015 RMK SLP199 T01600090 IEM_DS3505
ZGNN,1997-12-23 09:00,ZGNN 230900Z AUTO 09004KT 16SM 16/08 A3015 RMK SLP207 T01600083 57010 IEM_DS3505
ZGNN,1997-12-23 10:00,ZGNN 231000Z AUTO 05002KT 7SM 15/09 A3015 RMK SLP200 T01500090 IEM_DS3505
ZGNN,1997-12-23 11:00,ZGNN 231100Z AUTO 08008KT 7SM 14/08 A3018 RMK SLP210 T01400080 IEM_DS3505
ZGNN,1997-12-23 12:00,ZGNN 231200Z AUTO 00000KT 12SM 13/08 A3018 RMK SLP219 T01330083 52011 IEM_DS3505
ZGNN,1997-12-23 13:00,ZGNN 231300Z AUTO 07004KT 7SM 12/08 A3021 RMK SLP221 T01200080 IEM_DS3505
ZGNN,1997-12-23 15:00,ZGNN 231500Z AUTO 09004KT 12SM 12/07 A3021 RMK SLP223 T01250071 52005 IEM_DS3505
ZGNN,1997-12-23 18:00,ZGNN 231800Z AUTO 07004KT 12SM 12/07 A3019 RMK SLP214 T01220068 57009 IEM_DS3505
ZGNN,1997-12-23 21:00,ZGNN 232100Z AUTO 07004KT 11SM 12/07 A3015 RMK SLP204 T01170067 57010 IEM_DS3505
ZGNN,1997-12-23 22:00,ZGNN 232200Z AUTO 04002KT 7SM 11/07 A3015 RMK SLP201 T01100070 IEM_DS3505
ZGNN,1997-12-23 23:00,ZGNN 232300Z AUTO 08004KT 7SM 11/07 A3018 RMK SLP211 T01100070 IEM_DS3505
ZGNN,1997-12-24 00:00,ZGNN 240000Z AUTO 07004KT 12SM 12/07 A3018 RMK SLP215 T01190071 52010 IEM_DS3505
ZGNN,1997-12-24 01:00,ZGNN 240100Z AUTO 06004KT 7SM 12/07 A3021 RMK SLP221 T01200070 IEM_DS3505
ZGNN,1997-12-24 02:00,ZGNN 240200Z AUTO 07004KT 7SM 12/07 A3021 RMK SLP221 T01200070 IEM_DS3505
ZGNN,1997-12-24 03:00,ZGNN 240300Z AUTO 11004KT 14SM 12/07 A3021 RMK SLP228 T01250071 52013 IEM_DS3505
ZGNN,1997-12-24 04:00,ZGNN 240400Z AUTO 05006KT 7SM 13/07 A3018 RMK SLP210 T01300070 IEM_DS3505
ZGNN,1997-12-24 05:00,ZGNN 240500Z AUTO 07008KT 7SM 13/07 A3015 RMK SLP200 T01300070 IEM_DS3505
ZGNN,1997-12-24 06:00,ZGNN 240600Z AUTO 34004KT 12SM 13/08 A3012 RMK SLP196 T01310076 57031 IEM_DS3505
ZGNN,1997-12-24 07:00,ZGNN 240700Z AUTO 06006KT 7SM 13/08 A3009 RMK SLP180 T01300080 IEM_DS3505
ZGNN,1997-12-24 08:00,ZGNN 240800Z AUTO 08006KT 7SM 13/08 A3006 RMK SLP170 T01300080 IEM_DS3505
ZGNN,1997-12-24 09:00,ZGNN 240900Z AUTO 09004KT 11SM 12/09 A3006 RMK SLP177 T01250087 57019 IEM_DS3505
ZGNN,1997-12-24 10:00,ZGNN 241000Z AUTO 09008KT 4SM 12/09 A3009 RMK SLP180 T01200090 IEM_DS3505
ZGNN,1997-12-24 11:00,ZGNN 241100Z AUTO 07006KT 2 1/2SM 11/09 A3009 RMK SLP181 T01100090 IEM_DS3505
ZGNN,1997-12-24 12:00,ZGNN 241200Z AUTO 09004KT 2 1/2SM 11/10 A3009 RMK SLP191 T01080098 52013 IEM_DS3505
ZGNN,1997-12-24 13:00,ZGNN 241300Z AUTO 07006KT 2SM 10/10 A3012 RMK SLP191 T01000100 IEM_DS3505
ZGNN,1997-12-24 15:00,ZGNN 241500Z AUTO 07004KT 2 1/2SM 11/10 A3015 RMK SLP201 T01070099 52010 IEM_DS3505
ZGNN,1997-12-24 18:00,ZGNN 241800Z AUTO 07004KT 2 1/2SM 11/10 A3014 RMK 60004 SLP198 T01080102 57003 IEM_DS3505
ZGNN,1997-12-24 21:00,ZGNN 242100Z AUTO 09002KT 2 1/2SM 11/10 A3012 RMK 70008 SLP192 T01090105 57006 IEM_DS3505
ZGNN,1997-12-24 22:00,ZGNN 242200Z AUTO 06006KT 4SM 10/10 A3012 RMK SLP191 T01000100 IEM_DS3505
ZGNN,1997-12-24 23:00,ZGNN 242300Z AUTO 07008KT 4SM 10/10 A3012 RMK SLP191 T01000100 IEM_DS3505
ZGNN,1997-12-25 00:00,ZGNN 250000Z AUTO 09002KT 4SM 11/10 A3015 RMK 60008 70012 SLP211 T01110101 52019 IEM_DS3505
ZGNN,1997-12-25 01:00,ZGNN 250100Z AUTO 06006KT 2SM 11/10 A3018 RMK SLP211 T01100100 IEM_DS3505
ZGNN,1997-12-25 02:00,ZGNN 250200Z AUTO 05006KT 1 1/2SM 11/11 A3021 RMK SLP221 T01100110 IEM_DS3505
ZGNN,1997-12-25 04:00,ZGNN 250400Z AUTO 07006KT 1 1/2SM 11/11 A3018 RMK SLP211 T01100110 IEM_DS3505
ZGNN,1997-12-25 05:00,ZGNN 250500Z AUTO 00000KT 1 1/4SM 11/11 A3015 RMK SLP201 T01100110 IEM_DS3505
ZGNN,1997-12-25 06:00,ZGNN 250600Z AUTO 00000KT 4SM 12/11 A3012 RMK 60000 SLP201 T01180108 57028 IEM_DS3505
ZGNN,1997-12-25 07:00,ZGNN 250700Z AUTO 05008KT 1 1/4SM 12/11 A3012 RMK SLP191 T01200110 IEM_DS3505
ZGNN,1997-12-25 08:00,ZGNN 250800Z AUTO 07006KT 1 1/4SM 12/11 A3009 RMK SLP180 T01200110 IEM_DS3505
ZGNN,1997-12-25 09:00,ZGNN 250900Z AUTO 09004KT 9SM 13/11 A3012 RMK SLP193 T01270110 57008 IEM_DS3505
ZGNN,1997-12-25 10:00,ZGNN 251000Z AUTO 05006KT 2 1/2SM 12/11 A3012 RMK SLP191 T01200110 IEM_DS3505
ZGNN,1997-12-25 11:00,ZGNN 251100Z AUTO 05004KT 2 1/2SM 12/11 A3015 RMK SLP201 T01200110 IEM_DS3505
ZGNN,1997-12-25 12:00,ZGNN 251200Z AUTO 00000KT 7SM 12/11 A3018 RMK SLP213 T01210111 52020 IEM_DS3505
ZGNN,1997-12-25 13:00,ZGNN 251300Z AUTO 08004KT 2 1/2SM 12/11 A3018 RMK SLP211 T01200110 IEM_DS3505
ZGNN,1997-12-25 15:00,ZGNN 251500Z AUTO 00000KT 7SM 12/11 A3021 RMK SLP220 T01240109 52007 IEM_DS3505
ZGNN,1997-12-25 18:00,ZGNN 251800Z AUTO 00000KT 6SM 12/11 A3021 RMK SLP221 T01210111 52001 IEM_DS3505
ZGNN,1997-12-25 21:00,ZGNN 252100Z AUTO 00000KT 6SM 12/12 A3018 RMK 70004 SLP220 T01190117 57001 IEM_DS3505
ZGNN,1997-12-25 22:00,ZGNN 252200Z AUTO 06008KT 1SM 12/12 A3018 RMK SLP211 T01200120 IEM_DS3505
ZGNN,1997-12-25 23:00,ZGNN 252300Z AUTO 00000KT 1SM 11/11 A3021 RMK SLP221 T01100110 IEM_DS3505
ZGNN,1997-12-26 00:00,ZGNN 260000Z AUTO 00000KT 4SM 12/12 A3024 RMK 60002 70002 SLP233 T01200118 52013 IEM_DS3505
ZGNN,1997-12-26 01:00,ZGNN 260100Z AUTO 03006KT 1SM 12/12 A3024 RMK SLP231 T01200120 IEM_DS3505
ZGNN,1997-12-26 02:00,ZGNN 260200Z AUTO 00000KT 1SM 12/12 A3027 RMK SLP242 T01200120 IEM_DS3505
ZGNN,1997-12-26 03:00,ZGNN 260300Z AUTO 00000KT 4SM 12/12 A3027 RMK SLP249 T01240118 52016 IEM_DS3505
ZGNN,1997-12-26 04:00,ZGNN 260400Z AUTO 00000KT 1 1/2SM 13/12 A3024 RMK SLP231 T01300120 IEM_DS3505
ZGNN,1997-12-26 05:00,ZGNN 260500Z AUTO 00000KT 1 1/2SM 13/12 A3021 RMK SLP220 T01300120 IEM_DS3505
ZGNN,1997-12-26 06:00,ZGNN 260600Z AUTO 00000KT 4SM 13/12 A3018 RMK 60004 SLP219 T01280122 57030 IEM_DS3505
ZGNN,1997-12-26 07:00,ZGNN 260700Z AUTO 00000KT 2 1/2SM 13/12 A3018 RMK SLP210 T01300120 IEM_DS3505
ZGNN,1997-12-26 08:00,ZGNN 260800Z AUTO 34006KT 2 1/2SM 13/12 A3018 RMK SLP210 T01300120 IEM_DS3505
ZGNN,1997-12-26 09:00,ZGNN 260900Z AUTO 09002KT 4SM 13/12 A3018 RMK SLP214 T01270116 57005 IEM_DS3505
ZGNN,1997-12-26 10:00,ZGNN 261000Z AUTO 00000KT 1SM 13/12 A3018 RMK SLP210 T01300120 IEM_DS3505
ZGNN,1997-12-26 11:00,ZGNN 261100Z AUTO 00000KT 1SM 12/12 A3018 RMK SLP211 T01200120 IEM_DS3505
ZGNN,1997-12-26 12:00,ZGNN 261200Z AUTO 09002KT 5SM 12/11 A3021 RMK 60002 SLP225 T01250110 52011 IEM_DS3505
ZGNN,1997-12-26 14:00,ZGNN 261400Z AUTO 07004KT 1SM 12/11 A3021 RMK SLP221 T01200110 IEM_DS3505
ZGNN,1997-12-26 15:00,ZGNN 261500Z AUTO 00000KT 4SM 12/11 A3021 RMK SLP233 T01220114 52008 IEM_DS3505
ZGNN,1997-12-26 18:00,ZGNN 261800Z AUTO 00000KT 4SM 12/12 A3021 RMK 60001 SLP221 T01240120 57012 IEM_DS3505
ZGNN,1997-12-26 21:00,ZGNN 262100Z AUTO 00000KT 4SM 12/12 A3018 RMK 70008 SLP217 T01220118 57004 IEM_DS3505
ZGNN,1997-12-26 22:00,ZGNN 262200Z AUTO 00000KT 1SM 12/12 A3018 RMK SLP211 T01200120 IEM_DS3505
ZGNN,1997-12-26 23:00,ZGNN 262300Z AUTO 36004KT 1/2SM 12/12 A3021 RMK SLP221 T01200120 IEM_DS3505
ZGNN,1997-12-27 00:00,ZGNN 270000Z AUTO 00000KT 2 1/2SM 12/12 A3021 RMK 60002 70008 SLP232 T01220120 52015 IEM_DS3505
ZGNN,1997-12-27 01:00,ZGNN 270100Z AUTO 06004KT 1SM 12/12 A3024 RMK SLP231 T01200120 IEM_DS3505
ZGNN,1997-12-27 02:00,ZGNN 270200Z AUTO 00000KT 1 1/4SM 12/12 A3027 RMK SLP242 T01200120 IEM_DS3505
ZGNN,1997-12-27 03:00,ZGNN 270300Z AUTO 00000KT 3SM 13/12 A3027 RMK SLP242 T01300124 52010 IEM_DS3505
ZGNN,1997-12-27 04:00,ZGNN 270400Z AUTO 00000KT 1SM 13/13 A3024 RMK SLP231 T01300130 IEM_DS3505
ZGNN,1997-12-27 06:00,ZGNN 270600Z AUTO 00000KT 1 1/4SM 14/13 A3018 RMK 60000 SLP213 T01380131 57028 IEM_DS3505
ZGNN,1997-12-27 08:00,ZGNN 270800Z AUTO 01004KT 1SM 14/13 A3015 RMK SLP200 T01400130 IEM_DS3505
ZGNN,1997-12-27 09:00,ZGNN 270900Z AUTO 00000KT 2SM 14/13 A3015 RMK SLP207 T01430134 57006 IEM_DS3505
ZGNN,1997-12-27 10:00,ZGNN 271000Z AUTO 00000KT 1SM 14/13 A3015 RMK SLP200 T01400130 IEM_DS3505
ZGNN,1997-12-27 11:00,ZGNN 271100Z AUTO 00000KT 1SM 14/13 A3018 RMK SLP210 T01400130 IEM_DS3505
ZGNN,1997-12-27 12:00,ZGNN 271200Z AUTO 00000KT 5SM 14/14 A3018 RMK SLP216 T01430136 52009 IEM_DS3505
ZGNN,1997-12-27 15:00,ZGNN 271500Z AUTO 00000KT 5SM 14/13 A3020 RMK SLP218 T01430134 52002 IEM_DS3505
ZGNN,1997-12-27 18:00,ZGNN 271800Z AUTO 00000KT 5SM 14/13 A3020 RMK 60000 SLP216 T01410134 57002 IEM_DS3505
ZGNN,1997-12-27 21:00,ZGNN 272100Z AUTO 07004KT 5SM 14/14 A3015 RMK 70004 SLP206 T01420138 57010 IEM_DS3505
ZGNN,1997-12-27 22:00,ZGNN 272200Z AUTO 00000KT 1SM 14/14 A3015 RMK SLP200 T01400140 IEM_DS3505
ZGNN,1997-12-27 23:00,ZGNN 272300Z AUTO 00000KT 1SM 14/14 A3018 RMK SLP210 T01400140 IEM_DS3505
ZGNN,1997-12-28 00:00,ZGNN 280000Z AUTO 00000KT 1 1/4SM 14/14 A3018 RMK 60002 70004 SLP218 T01430139 52012 IEM_DS3505
ZGNN,1997-12-28 01:00,ZGNN 280100Z AUTO 00000KT 1/4SM 14/14 A3021 RMK SLP220 T01400140 IEM_DS3505
ZGNN,1997-12-28 02:00,ZGNN 280200Z AUTO 01004KT 1/4SM 15/14 A3024 RMK SLP230 T01500140 IEM_DS3505
ZGNN,1997-12-28 03:00,ZGNN 280300Z AUTO 00000KT 2 1/2SM 16/15 A3024 RMK SLP228 T01560146 52010 IEM_DS3505
ZGNN,1997-12-28 04:00,ZGNN 280400Z AUTO 03002KT 1/4SM 15/15 A3018 RMK SLP210 T01500150 IEM_DS3505
ZGNN,1997-12-28 05:00,ZGNN 280500Z AUTO 01004KT 1/2SM 16/15 A3015 RMK SLP199 T01600150 IEM_DS3505
ZGNN,1997-12-28 06:00,ZGNN 280600Z AUTO 34002KT 4SM 16/15 A3012 RMK SLP193 T01640152 57035 IEM_DS3505
ZGNN,1997-12-28 07:00,ZGNN 280700Z AUTO 05002KT 3/8SM 17/16 A3009 RMK SLP179 T01700160 IEM_DS3505
ZGNN,1997-12-28 08:00,ZGNN 280800Z AUTO 08004KT 1SM 17/17 A3009 RMK SLP179 T01700170 IEM_DS3505
ZGNN,1997-12-28 09:00,ZGNN 280900Z AUTO 00000KT 4SM 17/16 A3009 RMK SLP181 T01740159 57011 IEM_DS3505
ZGNN,1997-12-28 10:00,ZGNN 281000Z AUTO 00000KT 1SM 18/17 A3009 RMK SLP179 T01800170 IEM_DS3505
ZGNN,1997-12-28 11:00,ZGNN 281100Z AUTO 00000KT 1SM 18/17 A3009 RMK SLP179 T01800170 IEM_DS3505
ZGNN,1997-12-28 12:00,ZGNN 281200Z AUTO 00000KT 2 1/2SM 17/16 A3009 RMK SLP186 T01710161 52005 IEM_DS3505
ZGNN,1997-12-28 13:00,ZGNN 281300Z AUTO 36002KT 1 1/4SM 17/17 A3009 RMK SLP179 T01700170 IEM_DS3505
ZGNN,1997-12-28 15:00,ZGNN 281500Z AUTO 00000KT 1 1/4SM 16/16 A3012 RMK SLP188 T01620157 52002 IEM_DS3505
ZGNN,1997-12-28 18:00,ZGNN 281800Z AUTO 00000KT 4SM 18/17 A3011 RMK SLP187 T01790174 57001 IEM_DS3505
ZGNN,1997-12-28 21:00,ZGNN 282100Z AUTO 00000KT 2 1/2SM 18/17 A3006 RMK SLP177 T01760173 57010 IEM_DS3505
ZGNN,1997-12-28 22:00,ZGNN 282200Z AUTO 00000KT 1 1/4SM 18/18 A3009 RMK SLP179 T01800180 IEM_DS3505
ZGNN,1997-12-28 23:00,ZGNN 282300Z AUTO 00000KT 1SM 18/18 A3009 RMK SLP179 T01800180 IEM_DS3505
ZGNN,1997-12-29 00:00,ZGNN 290000Z AUTO 00000KT 2 1/2SM 18/18 A3009 RMK SLP181 T01800178 52004 IEM_DS3505
ZGNN,1997-12-29 02:00,ZGNN 290200Z AUTO 16010KT 7SM 21/19 A3012 RMK SLP188 T02100190 IEM_DS3505
ZGNN,1997-12-29 03:00,ZGNN 290300Z AUTO 29002KT 7SM 22/20 A3009 RMK SLP185 T02150198 52005 IEM_DS3505
ZGNN,1997-12-29 04:00,ZGNN 290400Z AUTO 14010KT 7SM 24/19 A3006 RMK SLP167 T02400190 IEM_DS3505
ZGNN,1997-12-29 05:00,ZGNN 290500Z AUTO 15010KT 7SM 24/19 A3003 RMK SLP157 T02400190 IEM_DS3505
ZGNN,1997-12-29 06:00,ZGNN 290600Z AUTO 00000KT 8SM 24/20 A3000 RMK SLP148 T02440198 57036 IEM_DS3505
ZGNN,1997-12-29 07:00,ZGNN 290700Z AUTO 15006KT 7SM 26/19 A2997 RMK SLP136 T02600190 IEM_DS3505
ZGNN,1997-12-29 08:00,ZGNN 290800Z AUTO 15008KT 7SM 26/19 A2997 RMK SLP136 T02600190 IEM_DS3505
ZGNN,1997-12-29 09:00,ZGNN 290900Z AUTO 00000KT 11SM 25/20 A2997 RMK SLP136 T02490203 57012 IEM_DS3505
ZGNN,1997-12-29 10:00,ZGNN 291000Z AUTO 15006KT 7SM 24/20 A2997 RMK SLP136 T02400200 IEM_DS3505
ZGNN,1997-12-29 11:00,ZGNN 291100Z AUTO 13004KT 7SM 22/20 A3000 RMK SLP147 T02200200 IEM_DS3505
ZGNN,1997-12-29 12:00,ZGNN 291200Z AUTO 11002KT 14SM 22/20 A3000 RMK SLP153 T02160196 52016 IEM_DS3505
ZGNN,1997-12-29 13:00,ZGNN 291300Z AUTO 11004KT 7SM 21/19 A3003 RMK SLP158 T02100190 IEM_DS3505
ZGNN,1997-12-29 15:00,ZGNN 291500Z AUTO 00000KT 12SM 20/19 A3006 RMK SLP168 T01990188 52015 IEM_DS3505
ZGNN,1997-12-29 18:00,ZGNN 291800Z AUTO 00000KT 12SM 20/19 A3007 RMK SLP169 T02020189 52002 IEM_DS3505
ZGNN,1997-12-29 21:00,ZGNN 292100Z AUTO 00000KT 12SM 20/19 A3006 RMK SLP166 T02000190 57003 IEM_DS3505
ZGNN,1997-12-29 22:00,ZGNN 292200Z AUTO 12004KT 7SM 20/19 A3006 RMK SLP168 T02000190 IEM_DS3505
ZGNN,1997-12-29 23:00,ZGNN 292300Z AUTO 14004KT 7SM 20/19 A3006 RMK SLP168 T02000190 IEM_DS3505
ZGNN,1997-12-30 00:00,ZGNN 300000Z AUTO 07006KT 6SM 17/15 A3009 RMK 60000 SLP185 T01660154 IEM_DS3505
ZGNN,1997-12-30 01:00,ZGNN 300100Z AUTO 06008KT 1 1/4SM 18/17 A3012 RMK SLP189 T01800170 IEM_DS3505
ZGNN,1997-12-30 02:00,ZGNN 300200Z AUTO 06010KT 1 1/4SM 16/16 A3015 RMK SLP199 T01600160 IEM_DS3505
ZGNN,1997-12-30 03:00,ZGNN 300300Z AUTO 04004KT 6SM 16/15 A3015 RMK SLP203 T01590152 52017 IEM_DS3505
ZGNN,1997-12-30 04:00,ZGNN 300400Z AUTO 06006KT 1 1/4SM 16/15 A3012 RMK SLP189 T01600150 IEM_DS3505
ZGNN,1997-12-30 05:00,ZGNN 300500Z AUTO 05006KT 2 1/2SM 16/15 A3009 RMK SLP179 T01600150 IEM_DS3505
ZGNN,1997-12-30 06:00,ZGNN 300600Z AUTO 09002KT 9SM 16/14 A3009 RMK 60008 SLP179 T01590143 57024 IEM_DS3505
ZGNN,1997-12-30 07:00,ZGNN 300700Z AUTO 06006KT 4SM 16/15 A3006 RMK SLP169 T01600150 IEM_DS3505
ZGNN,1997-12-30 08:00,ZGNN 300800Z AUTO 06006KT 6SM 16/15 A3006 RMK SLP169 T01600150 IEM_DS3505
ZGNN,1997-12-30 09:00,ZGNN 300900Z AUTO 07004KT 9SM 16/14 A3006 RMK SLP170 T01610142 57009 IEM_DS3505
ZGNN,1997-12-30 10:00,ZGNN 301000Z AUTO 06006KT 4SM 15/14 A3006 RMK SLP169 T01500140 IEM_DS3505
ZGNN,1997-12-30 11:00,ZGNN 301100Z AUTO 04006KT 2 1/2SM 15/14 A3006 RMK SLP169 T01500140 IEM_DS3505
ZGNN,1997-12-30 12:00,ZGNN 301200Z AUTO 07002KT 7SM 15/14 A3006 RMK SLP178 T01480136 52008 IEM_DS3505
ZGNN,1997-12-30 13:00,ZGNN 301300Z AUTO 04006KT 5SM 14/13 A3009 RMK SLP180 T01400130 IEM_DS3505
ZGNN,1997-12-30 15:00,ZGNN 301500Z AUTO 00000KT 7SM 15/13 A3010 RMK SLP182 T01480132 52004 IEM_DS3505
ZGNN,1997-12-30 18:00,ZGNN 301800Z AUTO 07004KT 7SM 14/13 A3010 RMK SLP183 T01450129 54000 IEM_DS3505
ZGNN,1997-12-30 21:00,ZGNN 302100Z AUTO 00000KT 5SM 14/14 A3006 RMK 70008 SLP173 T01410137 57009 IEM_DS3505
ZGNN,1997-12-30 22:00,ZGNN 302200Z AUTO 10004KT 1SM 13/13 A3006 RMK SLP170 T01300130 IEM_DS3505
ZGNN,1997-12-30 23:00,ZGNN 302300Z AUTO 10004KT 1SM 13/13 A3006 RMK SLP170 T01300130 IEM_DS3505
