station,valid,metar
ZGNN,2015-01-01 00:00,ZGNN 010000Z VRB01MPS 4000 BR NSC 08/08 Q1025 NOSIG
ZGNN,2015-01-01 01:00,ZGNN 010100Z 00000MPS 4000 BR NSC 12/10 Q1026 NOSIG
ZGNN,2015-01-01 02:00,ZGNN 010200Z VRB01MPS 4500 BR NSC 15/11 Q1027 NOSIG
ZGNN,2015-01-01 03:00,ZGNN 010300Z 07004MPS 040V140 8000 NSC 18/06 Q1027 NOSIG
ZGNN,2015-01-01 04:00,ZGNN 010400Z 06004MPS 8000 NSC 18/05 Q1026 NOSIG
ZGNN,2015-01-01 05:00,ZGNN 010500Z 05004MPS 360V080 CAVOK 20/05 Q1025 NOSIG
ZGNN,2015-01-01 06:00,ZGNN 010600Z 07004MPS 360V130 CAVOK 21/05 Q1024 NOSIG
ZGNN,2015-01-01 07:00,ZGNN 010700Z 05003MPS 020V080 CAVOK 21/03 Q1023 NOSIG
ZGNN,2015-01-01 08:00,ZGNN 010800Z 10004MPS 060V150 CAVOK 21/03 Q1023 NOSIG
ZGNN,2015-01-01 09:00,ZGNN 010900Z 06003MPS 040V100 CAVOK 20/05 Q1023 NOSIG
ZGNN,2015-01-01 10:00,ZGNN 011000Z 09003MPS CAVOK 18/06 Q1023 NOSIG
ZGNN,2015-01-01 11:00,ZGNN 011100Z 03002MPS 8000 NSC 16/08 Q1023 NOSIG
ZGNN,2015-01-01 12:00,ZGNN 011200Z 06002MPS 6000 NSC 15/08 Q1024 NOSIG
ZGNN,2015-01-01 13:00,ZGNN 011300Z VRB01MPS 6000 NSC 14/08 Q1025 NOSIG
ZGNN,2015-01-01 14:00,ZGNN 011400Z VRB01MPS 5000 BR NSC 12/08 Q1025 NOSIG
ZGNN,2015-01-01 15:00,ZGNN 011500Z VRB01MPS 6000 NSC 11/08 Q1025 NOSIG
ZGNN,2015-01-01 16:00,ZGNN 011600Z VRB01MPS 6000 NSC 11/07 Q1025 NOSIG
ZGNN,2015-01-01 17:00,ZGNN 011700Z 00000MPS 5000 BR NSC 09/08 Q1025 NOSIG
ZGNN,2015-01-01 18:00,ZGNN 011800Z 00000MPS 5000 BR NSC 08/07 Q1025 NOSIG
ZGNN,2015-01-01 19:00,ZGNN 011900Z 25001MPS 5000 BR NSC 08/07 Q1024 NOSIG
ZGNN,2015-01-01 20:00,ZGNN 012000Z 00000MPS 5000 BR NSC 08/07 Q1024 NOSIG
ZGNN,2015-01-01 21:00,ZGNN 012100Z 36001MPS 5000 BR NSC 08/07 Q1024 NOSIG
ZGNN,2015-01-01 22:00,ZGNN 012200Z 01002MPS 5000 BR NSC 08/06 Q1024 NOSIG
ZGNN,2015-01-01 23:00,ZGNN 012300Z 03003MPS 5000 BR NSC 09/06 Q1024 NOSIG
ZGNN,2015-01-02 00:00,ZGNN 020000Z 03002MPS 5000 BR NSC 08/06 Q1025 NOSIG
ZGNN,2015-01-02 01:00,ZGNN 020100Z 05002MPS 5000 BR NSC 11/06 Q1026 NOSIG
ZGNN,2015-01-02 02:00,ZGNN 020200Z 08002MPS 040V120 5000 HZ NSC 13/05 Q1026 NOSIG
ZGNN,2015-01-02 03:00,ZGNN 020300Z 10003MPS 070V130 7000 NSC 16/05 Q1026 NOSIG
ZGNN,2015-01-02 04:00,ZGNN 020400Z 08003MPS 040V140 7000 NSC 18/04 Q1025 NOSIG
ZGNN,2015-01-02 05:00,ZGNN 020500Z 08002MPS 020V150 7000 NSC 18/05 Q1024 NOSIG
ZGNN,2015-01-02 06:00,ZGNN 020600Z VRB01MPS 8000 NSC 19/06 Q1022 NOSIG
ZGNN,2015-01-02 07:00,ZGNN 020700Z VRB01MPS 8000 NSC 20/06 Q1022 NOSIG
ZGNN,2015-01-02 08:00,ZGNN 020800Z 12003MPS 070V170 CAVOK 20/07 Q1021 NOSIG
ZGNN,2015-01-02 09:00,ZGNN 020900Z 11002MPS 090V150 CAVOK 20/07 Q1021 NOSIG
ZGNN,2015-01-02 10:00,ZGNN 021000Z 12002MPS CAVOK 18/08 Q1021 NOSIG
ZGNN,2015-01-02 11:00,ZGNN 021100Z 15002MPS 7000 NSC 17/08 Q1021 NOSIG
ZGNN,2015-01-02 12:00,ZGNN 021200Z VRB01MPS 6000 NSC 14/09 Q1021 NOSIG
ZGNN,2015-01-02 13:00,ZGNN 021300Z 34002MPS 300V010 6000 NSC 13/09 Q1022 NOSIG
ZGNN,2015-01-02 14:00,ZGNN 021400Z 34001MPS 6000 NSC 12/09 Q1023 NOSIG
ZGNN,2015-01-02 15:00,ZGNN 021500Z VRB01MPS 6000 NSC 12/09 Q1023 NOSIG
ZGNN,2015-01-02 16:00,ZGNN 021600Z VRB01MPS 6000 NSC 12/09 Q1023 NOSIG
ZGNN,2015-01-02 17:00,ZGNN 021700Z VRB01MPS 5000 BR NSC 10/09 Q1023 NOSIG
ZGNN,2015-01-02 18:00,ZGNN 021800Z 03002MPS 5000 BR NSC 10/08 Q1023 NOSIG
ZGNN,2015-01-02 19:00,ZGNN 021900Z 03002MPS 5000 BR NSC 10/09 Q1023 NOSIG
ZGNN,2015-01-02 20:00,ZGNN 022000Z 04002MPS 5000 BR NSC 10/09 Q1022 NOSIG
ZGNN,2015-01-02 21:00,ZGNN 022100Z 05002MPS 5000 BR NSC 10/09 Q1022 NOSIG
ZGNN,2015-01-02 22:00,ZGNN 022200Z 03001MPS 5000 BR NSC 09/08 Q1022 NOSIG
ZGNN,2015-01-02 23:00,ZGNN 022300Z 00000MPS 5000 BR NSC 09/07 Q1023 NOSIG
ZGNN,2015-01-03 00:00,ZGNN 030000Z 00000MPS 3500 BR NSC 09/08 Q1023 NOSIG
ZGNN,2015-01-03 01:00,ZGNN 030100Z VRB01MPS 4000 BR NSC 12/10 Q1024 NOSIG
ZGNN,2015-01-03 02:00,ZGNN 030200Z VRB01MPS 5000 HZ NSC 15/10 Q1024 NOSIG
ZGNN,2015-01-03 03:00,ZGNN 030300Z VRB02MPS 6000 NSC 17/10 Q1024 NOSIG
ZGNN,2015-01-03 04:00,ZGNN 030400Z 13003MPS 110V170 CAVOK 19/11 Q1022 NOSIG
ZGNN,2015-01-03 05:00,ZGNN 030500Z 16004MPS 110V200 CAVOK 20/11 Q1020 NOSIG
ZGNN,2015-01-03 06:00,ZGNN 030600Z 15003MPS 100V180 CAVOK 20/11 Q1019 NOSIG
ZGNN,2015-01-03 07:00,ZGNN 030700Z 13003MPS 100V180 9999 FEW040 21/11 Q1018 NOSIG
ZGNN,2015-01-03 08:00,ZGNN 030800Z 15004MPS 9999 FEW040 21/11 Q1017 NOSIG
ZGNN,2015-01-03 09:00,ZGNN 030900Z 15004MPS 9999 SCT040 20/12 Q1017 NOSIG
ZGNN,2015-01-03 10:00,ZGNN 031000Z 16004MPS 130V190 CAVOK 19/12 Q1017 NOSIG
ZGNN,2015-01-03 11:00,ZGNN 031100Z 16002MPS 100V190 CAVOK 18/12 Q1017 NOSIG
ZGNN,2015-01-03 12:00,ZGNN 031200Z VRB01MPS CAVOK 18/12 Q1017 NOSIG
ZGNN,2015-01-03 13:00,ZGNN 031300Z VRB01MPS CAVOK 17/12 Q1017 NOSIG
ZGNN,2015-01-03 14:00,ZGNN 031400Z VRB01MPS CAVOK 16/12 Q1017 NOSIG
ZGNN,2015-01-03 15:00,ZGNN 031500Z 35001MPS CAVOK 15/12 Q1017 NOSIG
ZGNN,2015-01-03 16:00,ZGNN 031600Z 08001MPS CAVOK 15/12 Q1017 NOSIG
ZGNN,2015-01-03 17:00,ZGNN 031700Z VRB01MPS CAVOK 14/11 Q1017 NOSIG
ZGNN,2015-01-03 18:00,ZGNN 031800Z VRB01MPS 9999 BKN046 15/12 Q1017 NOSIG
ZGNN,2015-01-03 19:00,ZGNN 031900Z VRB01MPS 7000 BKN046 15/12 Q1016 NOSIG
ZGNN,2015-01-03 20:00,ZGNN 032000Z 10001MPS 6000 BKN046 15/13 Q1015 NOSIG
ZGNN,2015-01-03 21:00,ZGNN 032100Z 12002MPS 5000 BR BKN043 15/13 Q1015 NOSIG
ZGNN,2015-01-03 22:00,ZGNN 032200Z 11001MPS 4500 BR FEW010 BKN043 15/13 Q1015 NOSIG
ZGNN,2015-01-03 23:00,ZGNN 032300Z VRB01MPS 4000 BR SCT008 BKN043 15/14 Q1015 NOSIG
ZGNN,2015-01-04 00:00,ZGNN 040000Z 13002MPS 110V180 4000 BR FEW006 SCT009 BKN040 15/14 Q1016 NOSIG
ZGNN,2015-01-04 01:00,ZGNN 040100Z VRB01MPS 5000 BR SCT007 OVC033 15/14 Q1016 NOSIG
ZGNN,2015-01-04 02:00,ZGNN 040200Z 14003MPS 100V160 5000 BR SCT007 OVC033 15/14 Q1017 NOSIG
ZGNN,2015-01-04 03:00,ZGNN 040300Z 15003MPS 110V200 4000 BR SCT006 OVC033 16/15 Q1017 NOSIG
ZGNN,2015-01-04 04:00,ZGNN 040400Z 14004MPS 6000 SCT006 OVC033 17/15 Q1016 NOSIG
ZGNN,2015-01-04 05:00,ZGNN 040500Z 17003MPS 140V200 9999 SCT009 OVC033 17/15 Q1014 NOSIG
ZGNN,2015-01-04 06:00,ZGNN 040600Z 15005MPS 9999 SCT009 OVC033 18/15 Q1013 NOSIG
ZGNN,2015-01-04 07:00,ZGNN 040700Z 15004MPS 120V180 9999 SCT011 OVC033 18/15 Q1012 NOSIG
ZGNN,2015-01-04 08:00,ZGNN 040800Z 15004MPS 9999 SCT011 OVC033 18/15 Q1012 NOSIG
ZGNN,2015-01-04 09:00,ZGNN 040900Z 15004MPS 120V180 9999 SCT009 OVC033 17/15 Q1012 NOSIG
ZGNN,2015-01-04 10:00,ZGNN 041000Z 15002MPS 110V280 6000 SCT008 OVC033 17/16 Q1012 NOSIG
ZGNN,2015-01-04 11:00,ZGNN 041100Z 16003MPS 120V190 5000 BR FEW006 SCT007 OVC033 17/16 Q1012 NOSIG
ZGNN,2015-01-04 12:00,ZGNN 041200Z 16003MPS 120V200 5000 BR FEW005 SCT007 OVC033 17/16 Q1012 NOSIG
ZGNN,2015-01-04 13:00,ZGNN 041300Z VRB01MPS 5000 BR SCT007 OVC033 17/16 Q1013 NOSIG
ZGNN,2015-01-04 14:00,ZGNN 041400Z 00000MPS 5000 BR OVC036 17/16 Q1013 NOSIG
ZGNN,2015-01-04 15:00,ZGNN 041500Z 14002MPS 100V200 5000 BR FEW007 OVC033 17/17 Q1013 NOSIG
ZGNN,2015-01-04 16:00,ZGNN 041600Z 15002MPS 120V190 5000 BR SCT008 OVC033 18/17 Q1012 NOSIG
ZGNN,2015-01-04 17:00,ZGNN 041700Z 16003MPS 130V190 5000 BR SCT008 OVC026 18/17 Q1012 NOSIG
ZGNN,2015-01-04 18:00,ZGNN 041800Z 16002MPS 110V200 5000 BR SCT008 OVC026 18/17 Q1012 NOSIG
ZGNN,2015-01-04 19:00,ZGNN 041900Z 14002MPS 110V200 6000 SCT008 OVC026 18/17 Q1011 NOSIG
ZGNN,2015-01-04 20:00,ZGNN 042000Z 15002MPS 100V190 6000 SCT008 OVC026 18/17 Q1011 NOSIG
ZGNN,2015-01-04 21:00,ZGNN 042100Z 16002MPS 6000 SCT008 OVC026 18/17 Q1011 NOSIG
ZGNN,2015-01-04 22:00,ZGNN 042200Z VRB01MPS 6000 SCT007 OVC026 18/17 Q1011 NOSIG
ZGNN,2015-01-04 23:00,ZGNN 042300Z VRB01MPS 6000 SCT007 OVC026 18/17 Q1011 NOSIG
ZGNN,2015-01-05 00:00,ZGNN 050000Z VRB01MPS 6000 SCT007 OVC026 18/17 Q1012 NOSIG
ZGNN,2015-01-05 01:00,ZGNN 050100Z 16002MPS 130V200 8000 SCT008 OVC026 18/18 Q1013 NOSIG
ZGNN,2015-01-05 02:00,ZGNN 050200Z 16003MPS 7000 SCT008 OVC026 19/18 Q1013 NOSIG
ZGNN,2015-01-05 03:00,ZGNN 050300Z 16003MPS 8000 SCT009 OVC026 20/18 Q1013 NOSIG
ZGNN,2015-01-05 04:00,ZGNN 050400Z 15004MPS 130V190 9999 SCT010 BKN033 20/18 Q1012 NOSIG
ZGNN,2015-01-05 05:00,ZGNN 050500Z 15004MPS 9999 SCT013 BKN033 21/18 Q1011 NOSIG
ZGNN,2015-01-05 06:00,ZGNN 050600Z 15004MPS 9999 SCT013 BKN033 21/18 Q1011 NOSIG
ZGNN,2015-01-05 07:00,ZGNN 050700Z 16004MPS 9999 SCT013 BKN043 21/18 Q1010 NOSIG
ZGNN,2015-01-05 08:00,ZGNN 050800Z 14004MPS 9999 SCT016 BKN043 22/18 Q1010 NOSIG
ZGNN,2015-01-05 09:00,ZGNN 050900Z 15003MPS 120V190 9999 SCT016 BKN043 21/18 Q1010 NOSIG
ZGNN,2015-01-05 10:00,ZGNN 051000Z 14003MPS 9999 SCT010 BKN036 21/18 Q1010 NOSIG
ZGNN,2015-01-05 11:00,ZGNN 051100Z 14004MPS 9999 SCT009 BKN033 20/18 Q1011 NOSIG
ZGNN,2015-01-05 12:00,ZGNN 051200Z 12002MPS 100V170 8000 SCT009 BKN030 20/18 Q1011 NOSIG
ZGNN,2015-01-05 13:00,ZGNN 051300Z VRB01MPS 7000 SCT009 BKN030 20/18 Q1012 NOSIG
ZGNN,2015-01-05 14:00,ZGNN 051400Z 14002MPS 110V210 7000 SCT010 BKN033 20/18 Q1012 NOSIG
ZGNN,2015-01-05 15:00,ZGNN 051500Z VRB01MPS 7000 SCT009 BKN033 19/18 Q1012 NOSIG
ZGNN,2015-01-05 16:00,ZGNN 051600Z 00000MPS 7000 FEW009 BKN033 19/18 Q1012 NOSIG
ZGNN,2015-01-05 17:00,ZGNN 051700Z 00000MPS 6000 BKN040 19/18 Q1012 NOSIG
ZGNN,2015-01-05 18:00,ZGNN 051800Z VRB01MPS 6000 BKN036 19/18 Q1012 NOSIG
ZGNN,2015-01-05 19:00,ZGNN 051900Z 00000MPS 7000 FEW010 BKN036 19/18 Q1013 NOSIG
ZGNN,2015-01-05 20:00,ZGNN 052000Z VRB01MPS 6000 FEW010 BKN036 19/18 Q1013 NOSIG
ZGNN,2015-01-05 21:00,ZGNN 052100Z VRB01MPS 6000 FEW010 OVC036 19/19 Q1013 NOSIG
ZGNN,2015-01-05 22:00,ZGNN 052200Z 07002MPS 4000 BR SCT008 OVC030 19/19 Q1013 NOSIG
ZGNN,2015-01-05 23:00,ZGNN 052300Z 04002MPS 2000 -RA BR FEW002 SCT004 OVC023 19/19 Q1014 NOSIG
ZGNN,2015-01-06 00:00,ZGNN 060000Z 04002MPS 1600 -RA BR SCT002 SCT004 OVC023 19/19 Q1014 BECMG TL0140 4000 BR
ZGNN,2015-01-06 01:00,ZGNN 060100Z 03002MPS 1600 -RA BR SCT002 SCT004 OVC023 19/19 Q1015 NOSIG
ZGNN,2015-01-06 02:00,ZGNN 060200Z 10002MPS 080V140 1600 -RA BR SCT002 SCT004 OVC023 19/19 Q1015 NOSIG
ZGNN,2015-01-06 03:00,ZGNN 060300Z VRB01MPS 2000 -RA BR SCT002 SCT004 OVC023 19/19 Q1015 NOSIG
ZGNN,2015-01-06 04:00,ZGNN 060400Z VRB01MPS 2500 BR FEW004 SCT006 OVC026 20/20 Q1015 BECMG 3500 BR
ZGNN,2015-01-06 05:00,ZGNN 060500Z VRB01MPS 3100 BR FEW004 SCT006 OVC026 20/20 Q1014 NOSIG
ZGNN,2015-01-06 06:00,ZGNN 060600Z VRB01MPS 2500 -RA BR FEW004 SCT006 OVC026 20/20 Q1013 BECMG 3500 BR
ZGNN,2015-01-06 07:00,ZGNN 060700Z 11002MPS 090V150 4000 BR FEW003 SCT006 OVC026 21/20 Q1013 NOSIG
ZGNN,2015-01-06 08:00,ZGNN 060800Z 11002MPS 090V200 6000 FEW003 SCT006 OVC026 21/20 Q1013 NOSIG
ZGNN,2015-01-06 09:00,ZGNN 060900Z VRB01MPS 7000 FEW005 SCT009 OVC026 21/20 Q1013 NOSIG
ZGNN,2015-01-06 10:00,ZGNN 061000Z 34005MPS 3100 -RA BR FEW005 SCT009 OVC026 19/18 Q1014 NOSIG
ZGNN,2015-01-06 11:00,ZGNN 061100Z 36006MPS 7000 -RA SCT005 SCT008 OVC026 16/16 Q1015 NOSIG
ZGNN,2015-01-06 12:00,ZGNN 061200Z 36005MPS 7000 SCT005 SCT008 OVC026 16/15 Q1016 NOSIG
ZGNN,2015-01-06 13:00,ZGNN 061300Z 35005MPS 5000 BR SCT004 SCT007 OVC026 15/15 Q1017 NOSIG
ZGNN,2015-01-06 14:00,ZGNN 061400Z 35003MPS 330V030 5000 BR SCT004 SCT007 OVC026 15/15 Q1018 NOSIG
ZGNN,2015-01-06 15:00,ZGNN 061500Z 35004MPS 8000 SCT007 SCT010 OVC026 15/14 Q1018 NOSIG
ZGNN,2015-01-06 16:00,ZGNN 061600Z 35003MPS 9999 FEW007 SCT013 OVC026 15/14 Q1018 NOSIG
ZGNN,2015-01-06 17:00,ZGNN 061700Z 36003MPS 9999 FEW007 SCT015 OVC026 15/13 Q1019 NOSIG
ZGNN,2015-01-06 18:00,ZGNN 061800Z 36003MPS 9999 FEW008 SCT016 OVC030 15/13 Q1018 NOSIG
ZGNN,2015-01-06 19:00,ZGNN 061900Z 01003MPS 340V040 9999 FEW008 SCT020 OVC030 15/12 Q1019 NOSIG
ZGNN,2015-01-06 20:00,ZGNN 062000Z 36003MPS 9999 SCT020 OVC030 14/12 Q1019 NOSIG
ZGNN,2015-01-06 21:00,ZGNN 062100Z 36004MPS 9999 OVC023 14/11 Q1019 NOSIG
ZGNN,2015-01-06 22:00,ZGNN 062200Z 36004MPS 9999 OVC023 14/11 Q1020 NOSIG
ZGNN,2015-01-06 23:00,ZGNN 062300Z 35003MPS 9999 OVC023 14/11 Q1021 NOSIG
ZGNN,2015-01-07 00:00,ZGNN 070000Z 34004MPS 320V020 7000 OVC023 14/10 Q1022 NOSIG
ZGNN,2015-01-07 01:00,ZGNN 070100Z 35004MPS 6000 OVC023 14/10 Q1023 NOSIG
ZGNN,2015-01-07 02:00,ZGNN 070200Z 35004MPS 7000 OVC026 14/10 Q1024 NOSIG
ZGNN,2015-01-07 03:00,ZGNN 070300Z 35005MPS 7000 OVC026 14/10 Q1024 NOSIG
ZGNN,2015-01-07 04:00,ZGNN 070400Z 36005MPS 330V030 7000 BKN030 15/10 Q1023 NOSIG
ZGNN,2015-01-07 05:00,ZGNN 070500Z 34006MPS 7000 SCT023 OVC036 15/09 Q1022 NOSIG
ZGNN,2015-01-07 06:00,ZGNN 070600Z 36005MPS 7000 SCT023 OVC036 15/09 Q1022 NOSIG
ZGNN,2015-01-07 07:00,ZGNN 070700Z 36004MPS 7000 SCT026 OVC036 15/09 Q1022 NOSIG
ZGNN,2015-01-07 08:00,ZGNN 070800Z 35005MPS 7000 OVC030 15/09 Q1022 NOSIG
ZGNN,2015-01-07 09:00,ZGNN 070900Z 36004MPS 7000 OVC033 15/09 Q1022 NOSIG
ZGNN,2015-01-07 10:00,ZGNN 071000Z 36003MPS 7000 OVC033 15/09 Q1023 NOSIG
ZGNN,2015-01-07 11:00,ZGNN 071100Z 04002MPS 010V070 6000 OVC033 14/09 Q1024 NOSIG
ZGNN,2015-01-07 12:00,ZGNN 071200Z 10002MPS 080V150 6000 OVC030 14/09 Q1025 NOSIG
ZGNN,2015-01-07 13:00,ZGNN 071300Z 06003MPS 6000 OVC033 14/09 Q1025 NOSIG
ZGNN,2015-01-07 14:00,ZGNN 071400Z 05002MPS 020V080 6000 OVC033 14/09 Q1025 NOSIG
ZGNN,2015-01-07 15:00,ZGNN 071500Z 03002MPS 360V060 7000 OVC033 13/08 Q1026 NOSIG
ZGNN,2015-01-07 16:00,ZGNN 071600Z 01002MPS 340V040 7000 OVC033 13/09 Q1026 NOSIG
ZGNN,2015-01-07 17:00,ZGNN 071700Z 04002MPS 7000 OVC033 13/09 Q1026 NOSIG
ZGNN,2015-01-07 18:00,ZGNN 071800Z 03002MPS 7000 OVC036 13/09 Q1025 NOSIG
ZGNN,2015-01-07 19:00,ZGNN 071900Z VRB01MPS 7000 OVC036 13/09 Q1025 NOSIG
ZGNN,2015-01-07 20:00,ZGNN 072000Z 12001MPS 8000 OVC036 13/09 Q1025 NOSIG
ZGNN,2015-01-07 21:00,ZGNN 072100Z 08002MPS 8000 OVC033 13/08 Q1025 NOSIG
ZGNN,2015-01-07 22:00,ZGNN 072200Z 03002MPS 7000 OVC033 13/09 Q1025 NOSIG
ZGNN,2015-01-07 23:00,ZGNN 072300Z 02002MPS 7000 OVC033 13/09 Q1026 NOSIG
ZGNN,2015-01-08 00:00,ZGNN 080000Z 05002MPS 7000 OVC033 13/09 Q1027 NOSIG
ZGNN,2015-01-08 01:00,ZGNN 080100Z 07002MPS 360V150 7000 OVC036 13/08 Q1027 NOSIG
ZGNN,2015-01-08 02:00,ZGNN 080200Z 07003MPS 8000 BKN036 13/08 Q1028 NOSIG
ZGNN,2015-01-08 03:00,ZGNN 080300Z 07003MPS 040V110 7000 BKN036 15/07 Q1028 NOSIG
ZGNN,2015-01-08 04:00,ZGNN 080400Z 07003MPS 040V120 9999 BKN036 16/08 Q1027 NOSIG
ZGNN,2015-01-08 05:00,ZGNN 080500Z 34004MPS 9999 BKN036 16/08 Q1026 NOSIG
ZGNN,2015-01-08 06:00,ZGNN 080600Z 36003MPS 290V030 9999 BKN040 16/08 Q1025 NOSIG
ZGNN,2015-01-08 07:00,ZGNN 080700Z 35004MPS 310V010 9999 BKN040 16/08 Q1025 NOSIG
ZGNN,2015-01-08 08:00,ZGNN 080800Z 34004MPS 9999 BKN040 16/08 Q1025 NOSIG
ZGNN,2015-01-08 09:00,ZGNN 080900Z 34004MPS 9999 OVC040 16/08 Q1025 NOSIG
ZGNN,2015-01-08 10:00,ZGNN 081000Z 34004MPS 9999 OVC040 15/08 Q1026 NOSIG
ZGNN,2015-01-08 11:00,ZGNN 081100Z 34003MPS 9999 OVC040 15/08 Q1026 NOSIG
ZGNN,2015-01-08 12:00,ZGNN 081200Z VRB01MPS 8000 OVC040 14/08 Q1026 NOSIG
ZGNN,2015-01-08 13:00,ZGNN 081300Z 01003MPS 8000 OVC040 14/08 Q1026 NOSIG
ZGNN,2015-01-08 14:00,ZGNN 081400Z 02004MPS 9000 OVC040 15/07 Q1026 NOSIG
ZGNN,2015-01-08 15:00,ZGNN 081500Z VRB01MPS 8000 OVC040 14/08 Q1026 NOSIG
ZGNN,2015-01-08 16:00,ZGNN 081600Z 02002MPS 8000 OVC040 14/08 Q1026 NOSIG
ZGNN,2015-01-08 17:00,ZGNN 081700Z 00000MPS 7000 OVC040 14/08 Q1026 NOSIG
ZGNN,2015-01-08 18:00,ZGNN 081800Z 05002MPS 7000 OVC040 14/08 Q1025 NOSIG
ZGNN,2015-01-08 19:00,ZGNN 081900Z 34001MPS 7000 OVC040 13/09 Q1026 NOSIG
ZGNN,2015-01-08 20:00,ZGNN 082000Z 05002MPS 8000 OVC040 13/07 Q1025 NOSIG
ZGNN,2015-01-08 21:00,ZGNN 082100Z 06002MPS 8000 OVC046 13/06 Q1025 NOSIG
ZGNN,2015-01-08 22:00,ZGNN 082200Z 30001MPS 7000 OVC043 13/09 Q1026 NOSIG
ZGNN,2015-01-08 23:00,ZGNN 082300Z 05002MPS 7000 OVC043 13/08 Q1025 NOSIG
ZGNN,2015-01-09 00:00,ZGNN 090000Z VRB01MPS 8000 OVC043 13/08 Q1026 NOSIG
ZGNN,2015-01-09 01:00,ZGNN 090100Z 03002MPS 7000 OVC046 13/07 Q1027 NOSIG
ZGNN,2015-01-09 02:00,ZGNN 090200Z 06003MPS 030V090 7000 OVC046 14/07 Q1027 NOSIG
ZGNN,2015-01-09 03:00,ZGNN 090300Z 36004MPS 7000 OVC046 15/06 Q1027 NOSIG
ZGNN,2015-01-09 04:00,ZGNN 090400Z 01005MPS 7000 OVC046 15/06 Q1027 NOSIG
ZGNN,2015-01-09 05:00,ZGNN 090500Z 36004MPS 7000 OVC046 15/07 Q1026 NOSIG
ZGNN,2015-01-09 06:00,ZGNN 090600Z 01005MPS 7000 OVC046 14/07 Q1024 NOSIG
ZGNN,2015-01-09 07:00,ZGNN 090700Z 36004MPS 7000 NSC 14/07 Q1025 NOSIG
ZGNN,2015-01-09 08:00,ZGNN 090800Z 35005MPS 7000 NSC 14/07 Q1025 NOSIG
ZGNN,2015-01-09 09:00,ZGNN 090900Z 36006MPS 8000 NSC 13/07 Q1026 NOSIG
ZGNN,2015-01-09 10:00,ZGNN 091000Z 35006MPS 8000 NSC 13/07 Q1026 NOSIG
ZGNN,2015-01-09 11:00,ZGNN 091100Z 36003MPS 7000 NSC 12/09 Q1026 NOSIG
ZGNN,2015-01-09 12:00,ZGNN 091200Z 35003MPS 310V020 6000 NSC 12/09 Q1026 NOSIG
ZGNN,2015-01-09 13:00,ZGNN 091300Z 36005MPS 6000 NSC 11/09 Q1026 NOSIG
ZGNN,2015-01-09 14:00,ZGNN 091400Z 34003MPS 310V010 6000 NSC 11/09 Q1026 NOSIG
ZGNN,2015-01-09 15:00,ZGNN 091500Z 33004MPS 6000 NSC 11/09 Q1026 NOSIG
ZGNN,2015-01-09 16:00,ZGNN 091600Z 34006MPS 8000 FEW010 11/08 Q1026 NOSIG
ZGNN,2015-01-09 17:00,ZGNN 091700Z 34005MPS 9999 -RA FEW010 10/08 Q1026 NOSIG
ZGNN,2015-01-09 18:00,ZGNN 091800Z 35004MPS 320V020 9999 SCT010 10/08 Q1026 NOSIG
ZGNN,2015-01-09 19:00,ZGNN 091900Z 35004MPS 9999 SCT013 10/08 Q1026 NOSIG
ZGNN,2015-01-09 20:00,ZGNN 092000Z 36004MPS 9999 SCT013 10/08 Q1026 NOSIG
ZGNN,2015-01-09 21:00,ZGNN 092100Z 35005MPS 9999 FEW013 10/08 Q1026 NOSIG
ZGNN,2015-01-09 22:00,ZGNN 092200Z 35005MPS 9999 -RA FEW013 10/08 Q1026 NOSIG
ZGNN,2015-01-09 23:00,ZGNN 092300Z 35004MPS 320V020 9999 -RA FEW013 10/08 Q1026 NOSIG
ZGNN,2015-01-10 00:00,ZGNN 100000Z 36004MPS 9999 -RA SCT008 09/09 Q1025 NOSIG
ZGNN,2015-01-10 01:00,ZGNN 100100Z 33003MPS 300V010 9999 -RA SCT007 10/09 Q1026 NOSIG
ZGNN,2015-01-10 02:00,ZGNN 100200Z 02003MPS 9999 -RA SCT009 10/10 Q1027 NOSIG
ZGNN,2015-01-10 03:00,ZGNN 100300Z 36004MPS 9999 -RA SCT009 10/09 Q1027 NOSIG
ZGNN,2015-01-10 04:00,ZGNN 100400Z 35003MPS 320V020 9999 -RA SCT009 SCT011 11/09 Q1027 NOSIG
ZGNN,2015-01-10 05:00,ZGNN 100500Z 36003MPS 9999 -RA SCT010 SCT013 11/09 Q1025 NOSIG
ZGNN,2015-01-10 06:00,ZGNN 100600Z 34003MPS 320V020 9999 -RA SCT010 SCT013 11/09 Q1025 NOSIG
ZGNN,2015-01-10 07:00,ZGNN 100700Z 01003MPS 340V050 9999 -RA SCT010 SCT013 11/10 Q1024 NOSIG
ZGNN,2015-01-10 08:00,ZGNN 100800Z 36003MPS 9999 -RA SCT009 SCT013 11/10 Q1024 NOSIG
ZGNN,2015-01-10 09:00,ZGNN 100900Z 35003MPS 320V020 8000 -RA SCT007 SCT011 11/10 Q1025 NOSIG
ZGNN,2015-01-10 10:00,ZGNN 101000Z 01003MPS 9999 -RA FEW007 SCT011 11/10 Q1024 NOSIG
ZGNN,2015-01-10 11:00,ZGNN 101100Z 35002MPS 320V030 9999 -RA FEW007 SCT010 11/10 Q1025 NOSIG
ZGNN,2015-01-10 12:00,ZGNN 101200Z 01002MPS 9999 -RA FEW007 SCT010 11/10 Q1025 NOSIG
ZGNN,2015-01-10 13:00,ZGNN 101300Z 34002MPS 310V010 6000 -RA SCT010 11/10 Q1026 NOSIG
ZGNN,2015-01-10 14:00,ZGNN 101400Z 02002MPS 7000 -RA FEW005 SCT010 10/10 Q1025 NOSIG
ZGNN,2015-01-10 15:00,ZGNN 101500Z 32002MPS 300V360 7000 -RA FEW007 SCT015 10/10 Q1026 NOSIG
ZGNN,2015-01-10 16:00,ZGNN 101600Z 05002MPS 6000 -RA FEW004 SCT010 OVC046 10/10 Q1025 NOSIG
ZGNN,2015-01-10 17:00,ZGNN 101700Z 03002MPS 5000 -RA BR FEW004 SCT013 10/10 Q1024 NOSIG
ZGNN,2015-01-10 18:00,ZGNN 101800Z 28001MPS 5000 -RA BR FEW004 SCT010 10/10 Q1024 NOSIG
ZGNN,2015-01-10 19:00,ZGNN 101900Z 33001MPS 5000 -RA BR FEW005 SCT010 10/10 Q1024 NOSIG
ZGNN,2015-01-10 20:00,ZGNN 102000Z 02002MPS 5000 -RA BR FEW006 SCT010 OVC040 10/10 Q1023 NOSIG
ZGNN,2015-01-10 21:00,ZGNN 102100Z 32002MPS 8000 -RA FEW007 SCT010 OVC040 10/10 Q1024 NOSIG
ZGNN,2015-01-10 22:00,ZGNN 102200Z 01003MPS 8000 -RA FEW007 SCT010 OVC033 10/10 Q1023 NOSIG
ZGNN,2015-01-10 23:00,ZGNN 102300Z 32002MPS 6000 -RA FEW007 SCT010 OVC033 10/10 Q1025 NOSIG
ZGNN,2015-01-11 00:00,ZGNN 110000Z 36003MPS 7000 -RA SCT010 OVC033 10/10 Q1025 NOSIG
ZGNN,2015-01-11 01:00,ZGNN 110100Z 34002MPS 9000 -RA FEW007 SCT015 OVC036 10/10 Q1025 NOSIG
ZGNN,2015-01-11 02:00,ZGNN 110200Z 34002MPS 300V010 9999 -RA FEW007 SCT013 OVC036 10/10 Q1026 NOSIG
ZGNN,2015-01-11 03:00,ZGNN 110300Z VRB01MPS 9999 -RA FEW004 SCT009 OVC033 10/10 Q1026 NOSIG
ZGNN,2015-01-11 04:00,ZGNN 110400Z 02003MPS 9999 -RA FEW004 SCT009 OVC033 11/10 Q1024 NOSIG
ZGNN,2015-01-11 05:00,ZGNN 110500Z 33002MPS 310V010 9999 -RA FEW006 SCT010 OVC033 10/10 Q1024 NOSIG
ZGNN,2015-01-11 06:00,ZGNN 110600Z VRB01MPS 5000 -RA BR FEW003 SCT009 OVC033 10/10 Q1023 NOSIG
ZGNN,2015-01-11 07:00,ZGNN 110700Z 34002MPS 300V010 9000 -RA FEW005 SCT009 OVC033 11/11 Q1022 NOSIG
ZGNN,2015-01-11 08:00,ZGNN 110800Z 35003MPS 330V030 9000 -RA FEW005 SCT011 OVC033 11/10 Q1022 NOSIG
ZGNN,2015-01-11 09:00,ZGNN 110900Z 36002MPS 9999 -RA FEW005 SCT011 OVC033 11/11 Q1023 NOSIG
ZGNN,2015-01-11 10:00,ZGNN 111000Z 32002MPS 280V350 9999 -RA FEW009 SCT015 OVC033 11/10 Q1023 NOSIG
ZGNN,2015-01-11 11:00,ZGNN 111100Z 33002MPS 280V010 8000 -RA FEW008 SCT015 OVC030 11/10 Q1024 NOSIG
ZGNN,2015-01-11 12:00,ZGNN 111200Z 02003MPS 8000 -RA SCT016 OVC033 11/10 Q1024 NOSIG
ZGNN,2015-01-11 13:00,ZGNN 111300Z 01002MPS 340V040 8000 -RA FEW006 SCT010 OVC033 11/10 Q1025 NOSIG
ZGNN,2015-01-11 14:00,ZGNN 111400Z 36003MPS 9999 -RA FEW008 SCT015 OVC030 11/10 Q1025 NOSIG
ZGNN,2015-01-11 15:00,ZGNN 111500Z 36002MPS 9999 -RA FEW008 SCT015 OVC030 11/10 Q1025 NOSIG
ZGNN,2015-01-11 16:00,ZGNN 111600Z 34002MPS 310V020 9999 -RA FEW009 SCT015 OVC030 11/10 Q1025 NOSIG
ZGNN,2015-01-11 17:00,ZGNN 111700Z 33002MPS 9999 -RA FEW009 SCT015 OVC030 11/10 Q1025 NOSIG
ZGNN,2015-01-11 18:00,ZGNN 111800Z 02002MPS 350V050 9999 -RA FEW007 SCT015 OVC033 11/10 Q1024 NOSIG
ZGNN,2015-01-11 19:00,ZGNN 111900Z 36002MPS 320V040 9999 -RA FEW007 SCT015 OVC033 11/10 Q1024 NOSIG
ZGNN,2015-01-11 20:00,ZGNN 112000Z 34003MPS 9999 -RA SCT015 OVC033 11/10 Q1023 NOSIG
ZGNN,2015-01-11 21:00,ZGNN 112100Z VRB01MPS 9999 -RA SCT011 OVC033 10/10 Q1024 NOSIG
ZGNN,2015-01-11 22:00,ZGNN 112200Z 34003MPS 9999 -RA SCT011 OVC033 11/10 Q1024 NOSIG
ZGNN,2015-01-11 23:00,ZGNN 112300Z 35003MPS 9999 -RA SCT016 OVC033 11/10 Q1024 NOSIG
ZGNN,2015-01-12 00:00,ZGNN 120000Z VRB01MPS 9999 -RA SCT016 OVC033 11/10 Q1025 NOSIG
ZGNN,2015-01-12 01:00,ZGNN 120100Z VRB01MPS 9999 -RA FEW013 SCT026 OVC040 11/10 Q1026 NOSIG
ZGNN,2015-01-12 02:00,ZGNN 120200Z 34003MPS 9999 FEW013 OVC040 11/10 Q1026 NOSIG
ZGNN,2015-01-12 03:00,ZGNN 120300Z 01005MPS 9999 FEW013 SCT026 12/10 Q1026 NOSIG
ZGNN,2015-01-12 04:00,ZGNN 120400Z 36005MPS 9999 SCT016 BKN036 13/10 Q1025 NOSIG
ZGNN,2015-01-12 05:00,ZGNN 120500Z 35005MPS 9999 SCT016 BKN036 13/09 Q1024 NOSIG
ZGNN,2015-01-12 06:00,ZGNN 120600Z 02005MPS 9999 SCT016 BKN036 13/10 Q1023 NOSIG
ZGNN,2015-01-12 07:00,ZGNN 120700Z 01004MPS 9999 SCT016 BKN040 14/10 Q1023 NOSIG
ZGNN,2015-01-12 08:00,ZGNN 120800Z 01005MPS 9999 SCT020 BKN043 14/10 Q1022 NOSIG
ZGNN,2015-01-12 09:00,ZGNN 120900Z 02003MPS 9999 SCT020 OVC043 13/10 Q1023 NOSIG
ZGNN,2015-01-12 10:00,ZGNN 121000Z 02003MPS 9999 SCT033 13/10 Q1023 NOSIG
ZGNN,2015-01-12 11:00,ZGNN 121100Z 02002MPS CAVOK 13/10 Q1023 NOSIG
ZGNN,2015-01-12 12:00,ZGNN 121200Z 02002MPS 340V040 CAVOK 12/10 Q1024 NOSIG
ZGNN,2015-01-12 13:00,ZGNN 121300Z VRB01MPS CAVOK 11/09 Q1025 NOSIG
ZGNN,2015-01-12 14:00,ZGNN 121400Z 00000MPS CAVOK 09/08 Q1025 NOSIG
ZGNN,2015-01-12 15:00,ZGNN 121500Z VRB01MPS 7000 NSC 08/08 Q1025 NOSIG
ZGNN,2015-01-12 16:00,ZGNN 121600Z 00000MPS 7000 BKN026 08/08 Q1025 NOSIG
ZGNN,2015-01-12 17:00,ZGNN 121700Z VRB01MPS 6000 SCT026 08/07 Q1025 NOSIG
ZGNN,2015-01-12 18:00,ZGNN 121800Z 27001MPS 7000 SCT030 07/07 Q1024 NOSIG
ZGNN,2015-01-12 19:00,ZGNN 121900Z 00000MPS 6000 SCT030 07/07 Q1024 NOSIG
ZGNN,2015-01-12 20:00,ZGNN 122000Z 00000MPS 6000 SCT030 06/06 Q1024 NOSIG
ZGNN,2015-01-12 21:00,ZGNN 122100Z VRB01MPS 6000 SCT030 06/06 Q1024 NOSIG
ZGNN,2015-01-12 22:00,ZGNN 122200Z 00000MPS 6000 FEW030 06/06 Q1024 NOSIG
ZGNN,2015-01-12 23:00,ZGNN 122300Z 00000MPS 7000 NSC 06/06 Q1025 NOSIG
ZGNN,2015-01-13 00:00,ZGNN 130000Z 25001MPS CAVOK 06/06 Q1025 NOSIG
ZGNN,2015-01-13 01:00,ZGNN 130100Z VRB01MPS CAVOK 09/09 Q1026 NOSIG
ZGNN,2015-01-13 02:00,ZGNN 130200Z 35004MPS 300V020 CAVOK 12/08 Q1026 NOSIG
ZGNN,2015-01-13 03:00,ZGNN 130300Z 34004MPS CAVOK 14/08 Q1026 NOSIG
ZGNN,2015-01-13 04:00,ZGNN 130400Z 01003MPS 320V050 9999 FEW020 15/08 Q1025 NOSIG
ZGNN,2015-01-13 05:00,ZGNN 130500Z 33003MPS 290V050 9999 FEW030 16/07 Q1023 NOSIG
ZGNN,2015-01-13 06:00,ZGNN 130600Z 35004MPS 320V020 9999 FEW033 16/08 Q1022 NOSIG
ZGNN,2015-01-13 07:00,ZGNN 130700Z 02005MPS 350V050 9999 FEW033 17/08 Q1021 NOSIG
ZGNN,2015-01-13 08:00,ZGNN 130800Z 05004MPS 360V120 CAVOK 17/07 Q1019 NOSIG
ZGNN,2015-01-13 09:00,ZGNN 130900Z 34003MPS 310V040 CAVOK 17/07 Q1021 NOSIG
ZGNN,2015-01-13 10:00,ZGNN 131000Z 33002MPS 300V360 CAVOK 16/08 Q1021 NOSIG
ZGNN,2015-01-13 11:00,ZGNN 131100Z 35003MPS 7000 NSC 12/10 Q1022 NOSIG
ZGNN,2015-01-13 12:00,ZGNN 131200Z 02004MPS 7000 NSC 12/08 Q1022 NOSIG
ZGNN,2015-01-13 13:00,ZGNN 131300Z VRB01MPS 6000 NSC 11/09 Q1023 NOSIG
ZGNN,2015-01-13 14:00,ZGNN 131400Z VRB01MPS 5000 BR NSC 10/09 Q1023 NOSIG
ZGNN,2015-01-13 15:00,ZGNN 131500Z VRB01MPS 5000 BR NSC 10/08 Q1024 NOSIG
ZGNN,2015-01-13 16:00,ZGNN 131600Z VRB01MPS 5000 BR NSC 09/08 Q1024 NOSIG
ZGNN,2015-01-13 17:00,ZGNN 131700Z VRB01MPS 5000 BR NSC 09/07 Q1024 NOSIG
ZGNN,2015-01-13 18:00,ZGNN 131800Z 04001MPS 5000 BR NSC 08/07 Q1024 NOSIG
ZGNN,2015-01-13 19:00,ZGNN 131900Z 34001MPS 5000 BR NSC 07/06 Q1024 NOSIG
ZGNN,2015-01-13 20:00,ZGNN 132000Z 00000MPS 5000 BR NSC 07/06 Q1024 NOSIG
ZGNN,2015-01-13 21:00,ZGNN 132100Z VRB01MPS 5000 BR NSC 06/06 Q1024 NOSIG
ZGNN,2015-01-13 22:00,ZGNN 132200Z 24001MPS 4500 BR NSC 05/05 Q1024 NOSIG
ZGNN,2015-01-13 23:00,ZGNN 132300Z 23001MPS 4000 BR NSC 05/05 Q1025 NOSIG
ZGNN,2015-01-14 00:00,ZGNN 140000Z 26002MPS 240V320 3000 BR NSC 05/05 Q1026 NOSIG
ZGNN,2015-01-14 01:00,ZGNN 140100Z VRB01MPS 3000 BR NSC 08/08 Q1026 NOSIG
ZGNN,2015-01-14 02:00,ZGNN 140200Z VRB01MPS 3500 BR NSC 11/09 Q1027 NOSIG
ZGNN,2015-01-14 03:00,ZGNN 140300Z VRB01MPS 7000 NSC 15/08 Q1027 NOSIG
ZGNN,2015-01-14 04:00,ZGNN 140400Z VRB02MPS CAVOK 15/07 Q1026 NOSIG
ZGNN,2015-01-14 05:00,ZGNN 140500Z 01004MPS 350V050 CAVOK 16/08 Q1024 NOSIG
ZGNN,2015-01-14 06:00,ZGNN 140600Z VRB03MPS CAVOK 17/08 Q1023 NOSIG
ZGNN,2015-01-14 07:00,ZGNN 140700Z 36003MPS 340V050 CAVOK 17/08 Q1022 NOSIG
ZGNN,2015-01-14 08:00,ZGNN 140800Z 01003MPS 320V050 CAVOK 18/09 Q1022 NOSIG
ZGNN,2015-01-14 09:00,ZGNN 140900Z 01003MPS 340V040 CAVOK 17/08 Q1022 NOSIG
ZGNN,2015-01-14 10:00,ZGNN 141000Z 34002MPS CAVOK 16/08 Q1023 NOSIG
ZGNN,2015-01-14 11:00,ZGNN 141100Z 33002MPS 320V020 6000 NSC 14/09 Q1022 NOSIG
ZGNN,2015-01-14 12:00,ZGNN 141200Z 31002MPS 290V360 6000 NSC 12/09 Q1023 NOSIG
ZGNN,2015-01-14 13:00,ZGNN 141300Z 13001MPS 5000 BR NSC 10/09 Q1023 NOSIG
ZGNN,2015-01-14 14:00,ZGNN 141400Z VRB01MPS 5000 BR NSC 09/08 Q1024 NOSIG
ZGNN,2015-01-14 15:00,ZGNN 141500Z VRB01MPS 5000 BR NSC 10/09 Q1024 NOSIG
ZGNN,2015-01-14 16:00,ZGNN 141600Z VRB01MPS 5000 BR NSC 09/08 Q1024 NOSIG
ZGNN,2015-01-14 17:00,ZGNN 141700Z VRB01MPS 5000 BR NSC 08/07 Q1024 NOSIG
ZGNN,2015-01-14 18:00,ZGNN 141800Z 00000MPS 5000 BR NSC 07/07 Q1023 NOSIG
ZGNN,2015-01-14 19:00,ZGNN 141900Z 00000MPS 4500 BR NSC 07/07 Q1023 NOSIG
ZGNN,2015-01-14 20:00,ZGNN 142000Z 19001MPS 4000 BR NSC 05/05 Q1023 NOSIG
ZGNN,2015-01-14 21:00,ZGNN 142100Z 00000MPS 4000 BR NSC 05/05 Q1023 NOSIG
ZGNN,2015-01-14 22:00,ZGNN 142200Z 20001MPS 4000 BR NSC 04/04 Q1023 NOSIG
ZGNN,2015-01-14 23:00,ZGNN 142300Z 00000MPS 3500 R05/0350N PRFG BR NSC 04/04 Q1023 NOSIG
ZGNN,2015-01-15 00:00,ZGNN 150000Z 20001MPS 0500 R05/0275N FG NSC 04/04 Q1024 BECMG TL0050 1500 BR
ZGNN,2015-01-15 01:00,ZGNN 150100Z VRB01MPS 1900 BR NSC 06/06 Q1025 BECMG TL0200 4000 BR
ZGNN,2015-01-15 02:00,ZGNN 150200Z 14002MPS 110V180 3300 BR NSC 10/10 Q1026 NOSIG
ZGNN,2015-01-15 03:00,ZGNN 150300Z VRB01MPS 3500 BR NSC 13/08 Q1025 NOSIG
ZGNN,2015-01-15 04:00,ZGNN 150400Z 12002MPS 030V200 4500 HZ NSC 15/09 Q1024 NOSIG
ZGNN,2015-01-15 05:00,ZGNN 150500Z 07003MPS 030V120 6000 NSC 17/08 Q1023 NOSIG
ZGNN,2015-01-15 06:00,ZGNN 150600Z 10002MPS 030V160 7000 NSC 17/08 Q1022 NOSIG
ZGNN,2015-01-15 07:00,ZGNN 150700Z 16002MPS 110V190 8000 NSC 18/07 Q1021 NOSIG
ZGNN,2015-01-15 08:00,ZGNN 150800Z 06002MPS 340V110 8000 NSC 18/07 Q1020 NOSIG
ZGNN,2015-01-15 09:00,ZGNN 150900Z 09003MPS CAVOK 18/08 Q1020 NOSIG
ZGNN,2015-01-15 10:00,ZGNN 151000Z 10002MPS 060V140 CAVOK 17/08 Q1020 NOSIG
ZGNN,2015-01-15 11:00,ZGNN 151100Z 02002MPS 340V040 6000 NSC 15/09 Q1020 NOSIG
ZGNN,2015-01-15 12:00,ZGNN 151200Z 04002MPS 5000 BR NSC 13/09 Q1021 NOSIG
ZGNN,2015-01-15 13:00,ZGNN 151300Z VRB01MPS 5000 BR NSC 12/09 Q1021 NOSIG
ZGNN,2015-01-15 14:00,ZGNN 151400Z VRB01MPS 4500 BR NSC 11/09 Q1022 NOSIG
ZGNN,2015-01-15 15:00,ZGNN 151500Z VRB01MPS 4500 BR NSC 10/08 Q1023 NOSIG
ZGNN,2015-01-15 16:00,ZGNN 151600Z 03002MPS 4500 BR NSC 09/08 Q1023 NOSIG
ZGNN,2015-01-15 17:00,ZGNN 151700Z 05002MPS 4000 BR NSC 09/08 Q1023 NOSIG
ZGNN,2015-01-15 18:00,ZGNN 151800Z VRB01MPS 5000 BR NSC 09/08 Q1023 NOSIG
ZGNN,2015-01-15 19:00,ZGNN 151900Z 04002MPS 4500 BR NSC 09/08 Q1022 NOSIG
ZGNN,2015-01-15 20:00,ZGNN 152000Z 07001MPS 5000 BR NSC 09/08 Q1022 NOSIG
ZGNN,2015-01-15 21:00,ZGNN 152100Z VRB01MPS 3500 BR NSC 08/08 Q1023 NOSIG
ZGNN,2015-01-15 22:00,ZGNN 152200Z 03001MPS 4000 BR NSC 09/08 Q1023 NOSIG
ZGNN,2015-01-15 23:00,ZGNN 152300Z VRB01MPS 4500 BR NSC 09/08 Q1024 NOSIG
ZGNN,2015-01-16 00:00,ZGNN 160000Z VRB01MPS 3500 BR NSC 08/08 Q1025 NOSIG
ZGNN,2015-01-16 01:00,ZGNN 160100Z VRB01MPS 4000 BR NSC 10/10 Q1025 NOSIG
ZGNN,2015-01-16 02:00,ZGNN 160200Z VRB01MPS 5000 BR NSC 14/10 Q1026 NOSIG
ZGNN,2015-01-16 03:00,ZGNN 160300Z 06003MPS 5000 HZ NSC 15/09 Q1026 NOSIG
ZGNN,2015-01-16 04:00,ZGNN 160400Z 08004MPS 6000 NSC 17/08 Q1025 NOSIG
ZGNN,2015-01-16 05:00,ZGNN 160500Z 08003MPS 060V120 6000 NSC 18/08 Q1024 NOSIG
ZGNN,2015-01-16 06:00,ZGNN 160600Z VRB02MPS 6000 NSC 19/07 Q1023 NOSIG
ZGNN,2015-01-16 07:00,ZGNN 160700Z 02002MPS 320V060 6000 NSC 19/09 Q1022 NOSIG
ZGNN,2015-01-16 08:00,ZGNN 160800Z 35004MPS 320V030 7000 NSC 19/08 Q1022 NOSIG
ZGNN,2015-01-16 09:00,ZGNN 160900Z 36003MPS 320V030 7000 NSC 18/09 Q1022 NOSIG
ZGNN,2015-01-16 10:00,ZGNN 161000Z 31002MPS 290V020 7000 NSC 17/10 Q1022 NOSIG
ZGNN,2015-01-16 11:00,ZGNN 161100Z 35002MPS 7000 NSC 15/10 Q1022 NOSIG
ZGNN,2015-01-16 12:00,ZGNN 161200Z 34002MPS 310V010 6000 NSC 14/10 Q1023 NOSIG
ZGNN,2015-01-16 13:00,ZGNN 161300Z 03002MPS 6000 NSC 13/10 Q1023 NOSIG
ZGNN,2015-01-16 14:00,ZGNN 161400Z 18001MPS 5000 BR NSC 12/10 Q1024 NOSIG
ZGNN,2015-01-16 15:00,ZGNN 161500Z VRB01MPS 5000 BR NSC 12/10 Q1024 NOSIG
ZGNN,2015-01-16 16:00,ZGNN 161600Z 20001MPS 5000 BR NSC 11/10 Q1024 NOSIG
ZGNN,2015-01-16 17:00,ZGNN 161700Z VRB01MPS 5000 BR NSC 10/09 Q1024 NOSIG
ZGNN,2015-01-16 18:00,ZGNN 161800Z 24001MPS 5000 BR NSC 10/09 Q1024 NOSIG
ZGNN,2015-01-16 19:00,ZGNN 161900Z VRB01MPS 4000 BR NSC 10/10 Q1023 NOSIG
ZGNN,2015-01-16 20:00,ZGNN 162000Z 21001MPS 3500 BR NSC 09/09 Q1023 NOSIG
ZGNN,2015-01-16 21:00,ZGNN 162100Z 23001MPS 3100 BR NSC 09/09 Q1023 BECMG TL2250 2100 BR
ZGNN,2015-01-16 22:00,ZGNN 162200Z VRB01MPS 3100 BR NSC 08/08 Q1023 BECMG TL2250 2100 BR
ZGNN,2015-01-16 23:00,ZGNN 162300Z 00000MPS 2800 BR NSC 08/08 Q1024 BECMG TL0040 3500 BR
ZGNN,2015-01-17 00:00,ZGNN 170000Z 00000MPS 2000 BR NSC 08/08 Q1025 BECMG TL0040 3500 BR
ZGNN,2015-01-17 01:00,ZGNN 170100Z 18001MPS 3200 BR NSC 10/10 Q1026 NOSIG
ZGNN,2015-01-17 02:00,ZGNN 170200Z 04002MPS 340V080 4500 HZ NSC 14/09 Q1027 NOSIG
ZGNN,2015-01-17 03:00,ZGNN 170300Z 06005MPS 5000 HZ NSC 16/07 Q1027 NOSIG
ZGNN,2015-01-17 04:00,ZGNN 170400Z 06004MPS 010V080 7000 NSC 17/07 Q1026 NOSIG
ZGNN,2015-01-17 05:00,ZGNN 170500Z 07004MPS 020V110 8000 NSC 18/07 Q1025 NOSIG
ZGNN,2015-01-17 06:00,ZGNN 170600Z VRB02MPS CAVOK 19/07 Q1023 NOSIG
ZGNN,2015-01-17 07:00,ZGNN 170700Z 05002MPS 010V090 CAVOK 20/07 Q1022 NOSIG
ZGNN,2015-01-17 08:00,ZGNN 170800Z VRB02MPS CAVOK 20/07 Q1022 NOSIG
ZGNN,2015-01-17 09:00,ZGNN 170900Z 11003MPS 070V140 CAVOK 19/08 Q1022 NOSIG
ZGNN,2015-01-17 10:00,ZGNN 171000Z 10002MPS CAVOK 18/09 Q1022 NOSIG
ZGNN,2015-01-17 11:00,ZGNN 171100Z 09002MPS 6000 NSC 16/09 Q1023 NOSIG
ZGNN,2015-01-17 12:00,ZGNN 171200Z 03001MPS 6000 NSC 14/09 Q1024 NOSIG
ZGNN,2015-01-17 13:00,ZGNN 171300Z 04002MPS 5000 BR NSC 14/10 Q1024 NOSIG
ZGNN,2015-01-17 14:00,ZGNN 171400Z 02002MPS 5000 BR NSC 13/09 Q1024 NOSIG
ZGNN,2015-01-17 15:00,ZGNN 171500Z VRB01MPS 4500 BR NSC 12/09 Q1024 NOSIG
ZGNN,2015-01-17 16:00,ZGNN 171600Z VRB01MPS 4500 BR NSC 11/09 Q1024 NOSIG
ZGNN,2015-01-17 17:00,ZGNN 171700Z 00000MPS 4500 BR NSC 10/08 Q1024 NOSIG
ZGNN,2015-01-17 18:00,ZGNN 171800Z 04001MPS 4500 BR NSC 10/08 Q1023 NOSIG
ZGNN,2015-01-17 19:00,ZGNN 171900Z 00000MPS 4500 BR NSC 10/08 Q1023 NOSIG
ZGNN,2015-01-17 20:00,ZGNN 172000Z VRB01MPS 4500 BR NSC 10/09 Q1023 NOSIG
ZGNN,2015-01-17 21:00,ZGNN 172100Z 00000MPS 4500 BR NSC 10/09 Q1023 NOSIG
ZGNN,2015-01-17 22:00,ZGNN 172200Z 00000MPS 4500 BR NSC 10/09 Q1023 NOSIG
ZGNN,2015-01-17 23:00,ZGNN 172300Z 13001MPS 4000 BR NSC 10/09 Q1024 NOSIG
ZGNN,2015-01-18 00:00,ZGNN 180000Z 00000MPS 3000 BR NSC 10/09 Q1025 NOSIG
ZGNN,2015-01-18 01:00,ZGNN 180100Z 00000MPS 4000 BR NSC 12/11 Q1026 NOSIG
ZGNN,2015-01-18 02:00,ZGNN 180200Z 00000MPS 3500 HZ NSC 15/10 Q1027 NOSIG
ZGNN,2015-01-18 03:00,ZGNN 180300Z 06003MPS 030V090 4000 HZ NSC 16/09 Q1027 NOSIG
ZGNN,2015-01-18 04:00,ZGNN 180400Z 05004MPS 6000 NSC 19/08 Q1026 NOSIG
ZGNN,2015-01-18 05:00,ZGNN 180500Z 05005MPS 020V080 8000 NSC 20/07 Q1025 NOSIG
ZGNN,2015-01-18 06:00,ZGNN 180600Z 06005MPS 7000 NSC 20/08 Q1024 NOSIG
ZGNN,2015-01-18 07:00,ZGNN 180700Z 06005MPS 8000 NSC 20/07 Q1022 NOSIG
ZGNN,2015-01-18 08:00,ZGNN 180800Z 36003MPS 330V040 6000 NSC 20/08 Q1022 NOSIG
ZGNN,2015-01-18 09:00,ZGNN 180900Z 06003MPS 020V090 6000 NSC 20/08 Q1022 NOSIG
ZGNN,2015-01-18 10:00,ZGNN 181000Z 06004MPS 6000 NSC 19/08 Q1022 NOSIG
ZGNN,2015-01-18 11:00,ZGNN 181100Z 35002MPS 6000 NSC 17/10 Q1023 NOSIG
ZGNN,2015-01-18 12:00,ZGNN 181200Z 02002MPS 5000 HZ NSC 16/09 Q1023 NOSIG
ZGNN,2015-01-18 13:00,ZGNN 181300Z 03002MPS 5000 HZ NSC 15/09 Q1024 NOSIG
ZGNN,2015-01-18 14:00,ZGNN 181400Z 02002MPS 340V040 5000 HZ NSC 15/09 Q1025 NOSIG
ZGNN,2015-01-18 15:00,ZGNN 181500Z 04002MPS 5000 HZ NSC 13/09 Q1025 NOSIG
ZGNN,2015-01-18 16:00,ZGNN 181600Z 06003MPS 5000 BR NSC 13/09 Q1025 NOSIG
ZGNN,2015-01-18 17:00,ZGNN 181700Z 36002MPS 5000 BR NSC 12/09 Q1025 NOSIG
ZGNN,2015-01-18 18:00,ZGNN 181800Z 32002MPS 300V010 4000 BR NSC 12/09 Q1025 NOSIG
ZGNN,2015-01-18 19:00,ZGNN 181900Z 06002MPS 4000 BR NSC 12/09 Q1024 NOSIG
ZGNN,2015-01-18 20:00,ZGNN 182000Z 00000MPS 4000 BR NSC 12/09 Q1024 NOSIG
ZGNN,2015-01-18 21:00,ZGNN 182100Z 02002MPS 5000 BR NSC 13/09 Q1024 NOSIG
ZGNN,2015-01-18 22:00,ZGNN 182200Z 04002MPS 5000 BR NSC 12/09 Q1024 NOSIG
ZGNN,2015-01-18 23:00,ZGNN 182300Z VRB01MPS 4000 BR NSC 12/09 Q1025 NOSIG
ZGNN,2015-01-19 00:00,ZGNN 190000Z VRB01MPS 3500 BR NSC 11/08 Q1025 NOSIG
ZGNN,2015-01-19 01:00,ZGNN 190100Z VRB01MPS 3500 BR NSC 12/10 Q1026 NOSIG
ZGNN,2015-01-19 02:00,ZGNN 190200Z 34003MPS 4000 HZ NSC 14/08 Q1026 NOSIG
ZGNN,2015-01-19 03:00,ZGNN 190300Z 02003MPS 340V050 6000 NSC 15/08 Q1026 NOSIG
ZGNN,2015-01-19 04:00,ZGNN 190400Z 36002MPS 310V040 7000 NSC 17/08 Q1025 NOSIG
ZGNN,2015-01-19 05:00,ZGNN 190500Z VRB01MPS 7000 NSC 18/08 Q1024 NOSIG
ZGNN,2015-01-19 06:00,ZGNN 190600Z VRB02MPS 7000 NSC 19/08 Q1022 NOSIG
ZGNN,2015-01-19 07:00,ZGNN 190700Z 02002MPS 340V070 7000 NSC 19/08 Q1021 NOSIG
ZGNN,2015-01-19 08:00,ZGNN 190800Z 36002MPS 290V060 6000 NSC 19/08 Q1020 NOSIG
ZGNN,2015-01-19 09:00,ZGNN 190900Z 33003MPS 300V010 6000 NSC 19/09 Q1020 NOSIG
ZGNN,2015-01-19 10:00,ZGNN 191000Z 35002MPS 6000 NSC 18/09 Q1020 NOSIG
ZGNN,2015-01-19 11:00,ZGNN 191100Z VRB01MPS 4000 HZ NSC 16/10 Q1020 NOSIG
ZGNN,2015-01-19 12:00,ZGNN 191200Z VRB01MPS 4000 BR NSC 14/10 Q1020 NOSIG
ZGNN,2015-01-19 13:00,ZGNN 191300Z 00000MPS 4000 BR NSC 12/10 Q1021 NOSIG
ZGNN,2015-01-19 14:00,ZGNN 191400Z VRB01MPS 4000 BR NSC 12/10 Q1021 NOSIG
ZGNN,2015-01-19 15:00,ZGNN 191500Z VRB01MPS 3500 BR NSC 12/10 Q1022 NOSIG
ZGNN,2015-01-19 16:00,ZGNN 191600Z 00000MPS 4000 BR NSC 12/10 Q1022 NOSIG
ZGNN,2015-01-19 17:00,ZGNN 191700Z 00000MPS 3500 BR NSC 11/10 Q1021 NOSIG
ZGNN,2015-01-19 18:00,ZGNN 191800Z 00000MPS 3500 BR NSC 11/10 Q1021 NOSIG
ZGNN,2015-01-19 19:00,ZGNN 191900Z 00000MPS 4000 BR NSC 11/10 Q1021 NOSIG
ZGNN,2015-01-19 20:00,ZGNN 192000Z 12002MPS 4000 BR NSC 10/09 Q1020 NOSIG
ZGNN,2015-01-19 21:00,ZGNN 192100Z 00000MPS 4000 BR NSC 10/10 Q1020 NOSIG
ZGNN,2015-01-19 22:00,ZGNN 192200Z VRB01MPS 4000 BR NSC 10/09 Q1020 NOSIG
ZGNN,2015-01-19 23:00,ZGNN 192300Z 04002MPS 4000 BR NSC 11/09 Q1021 NOSIG
ZGNN,2015-01-20 00:00,ZGNN 200000Z 03002MPS 3100 BR NSC 11/10 Q1021 NOSIG
ZGNN,2015-01-20 01:00,ZGNN 200100Z VRB01MPS 3000 BR NSC 13/10 Q1022 NOSIG
ZGNN,2015-01-20 02:00,ZGNN 200200Z VRB01MPS 3000 HZ NSC 15/10 Q1022 NOSIG
ZGNN,2015-01-20 03:00,ZGNN 200300Z VRB01MPS 2500 HZ NSC 16/11 Q1022 BECMG TL0420 4000 BR
ZGNN,2015-01-20 04:00,ZGNN 200400Z 21002MPS 170V250 3000 HZ NSC 18/10 Q1021 NOSIG
ZGNN,2015-01-20 05:00,ZGNN 200500Z VRB02MPS 4000 HZ NSC 20/10 Q1020 NOSIG
ZGNN,2015-01-20 06:00,ZGNN 200600Z VRB02MPS 5000 HZ NSC 21/10 Q1019 NOSIG
ZGNN,2015-01-20 07:00,ZGNN 200700Z 29002MPS 210V340 5000 HZ NSC 21/10 Q1018 NOSIG
ZGNN,2015-01-20 08:00,ZGNN 200800Z VRB01MPS 5000 HZ NSC 21/10 Q1018 NOSIG
ZGNN,2015-01-20 09:00,ZGNN 200900Z 32003MPS 300V010 5000 HZ NSC 19/11 Q1018 NOSIG
ZGNN,2015-01-20 10:00,ZGNN 201000Z 34002MPS 290V020 5000 HZ NSC 18/11 Q1018 NOSIG
ZGNN,2015-01-20 11:00,ZGNN 201100Z VRB01MPS 4000 HZ NSC 18/11 Q1019 NOSIG
ZGNN,2015-01-20 12:00,ZGNN 201200Z 01002MPS 330V030 4000 HZ NSC 17/11 Q1019 NOSIG
ZGNN,2015-01-20 13:00,ZGNN 201300Z 02002MPS 350V070 4000 BR NSC 16/11 Q1020 NOSIG
ZGNN,2015-01-20 14:00,ZGNN 201400Z VRB01MPS 4000 BR NSC 16/12 Q1021 NOSIG
ZGNN,2015-01-20 15:00,ZGNN 201500Z VRB01MPS 4000 BR NSC 15/12 Q1021 NOSIG
ZGNN,2015-01-20 16:00,ZGNN 201600Z 33002MPS 300V010 4000 BR NSC 16/12 Q1021 NOSIG
ZGNN,2015-01-20 17:00,ZGNN 201700Z 21001MPS 4000 BR NSC 16/13 Q1022 NOSIG
ZGNN,2015-01-20 18:00,ZGNN 201800Z 00000MPS 4000 BR NSC 15/13 Q1022 NOSIG
ZGNN,2015-01-20 19:00,ZGNN 201900Z VRB01MPS 3000 BR NSC 15/13 Q1021 NOSIG
ZGNN,2015-01-20 20:00,ZGNN 202000Z 19002MPS 3000 BR NSC 15/13 Q1022 NOSIG
ZGNN,2015-01-20 21:00,ZGNN 202100Z VRB01MPS 2500 BR NSC 14/13 Q1022 NOSIG
ZGNN,2015-01-20 22:00,ZGNN 202200Z 00000MPS 2500 BR NSC 14/13 Q1022 NOSIG
ZGNN,2015-01-20 23:00,ZGNN 202300Z 35001MPS 2500 BR NSC 14/13 Q1023 BECMG TL0040 4000 BR
ZGNN,2015-01-21 00:00,ZGNN 210000Z VRB01MPS 2000 BR NSC 15/13 Q1024 BECMG TL0140 4000 BR
ZGNN,2015-01-21 01:00,ZGNN 210100Z 01001MPS 2000 BR NSC 16/12 Q1024 BECMG TL0140 4000 BR
ZGNN,2015-01-21 02:00,ZGNN 210200Z VRB01MPS 2100 BR NSC 17/13 Q1025 BECMG TL0350 4000 BR
ZGNN,2015-01-21 03:00,ZGNN 210300Z 36002MPS 310V030 2300 HZ NSC 18/12 Q1025 BECMG TL0350 4000 BR
ZGNN,2015-01-21 04:00,ZGNN 210400Z 01004MPS 340V040 3100 HZ NSC 19/12 Q1024 NOSIG
ZGNN,2015-01-21 05:00,ZGNN 210500Z 36002MPS 320V080 4000 HZ NSC 20/11 Q1023 NOSIG
ZGNN,2015-01-21 06:00,ZGNN 210600Z 02002MPS 320V130 4000 HZ NSC 21/12 Q1022 NOSIG
ZGNN,2015-01-21 07:00,ZGNN 210700Z 29002MPS 230V360 4000 HZ NSC 22/11 Q1021 NOSIG
ZGNN,2015-01-21 08:00,ZGNN 210800Z 34004MPS 310V030 4000 HZ NSC 22/09 Q1020 NOSIG
ZGNN,2015-01-21 09:00,ZGNN 210900Z 34003MPS 310V010 5000 HZ NSC 21/10 Q1020 NOSIG
ZGNN,2015-01-21 10:00,ZGNN 211000Z VRB01MPS 5000 HZ NSC 20/10 Q1021 NOSIG
ZGNN,2015-01-21 11:00,ZGNN 211100Z VRB01MPS 4500 HZ NSC 18/12 Q1021 NOSIG
ZGNN,2015-01-21 12:00,ZGNN 211200Z VRB01MPS 4500 BR NSC 15/12 Q1021 NOSIG
ZGNN,2015-01-21 13:00,ZGNN 211300Z VRB01MPS 4500 BR NSC 14/11 Q1022 NOSIG
ZGNN,2015-01-21 14:00,ZGNN 211400Z 00000MPS 4500 BR NSC 13/11 Q1022 NOSIG
ZGNN,2015-01-21 15:00,ZGNN 211500Z VRB01MPS 4500 BR NSC 13/11 Q1022 NOSIG
ZGNN,2015-01-21 16:00,ZGNN 211600Z VRB01MPS 4000 BR NSC 12/11 Q1022 NOSIG
ZGNN,2015-01-21 17:00,ZGNN 211700Z 33001MPS 3500 BR NSC 11/11 Q1022 NOSIG
ZGNN,2015-01-21 18:00,ZGNN 211800Z VRB01MPS 3500 BR NSC 11/10 Q1022 NOSIG
ZGNN,2015-01-21 19:00,ZGNN 211900Z 00000MPS 3500 BR NSC 10/10 Q1022 NOSIG
ZGNN,2015-01-21 20:00,ZGNN 212000Z 00000MPS 3500 BR NSC 10/10 Q1021 NOSIG
ZGNN,2015-01-21 21:00,ZGNN 212100Z 23002MPS 3100 BR NSC 09/08 Q1021 BECMG TL2200 2400 BR
ZGNN,2015-01-21 22:00,ZGNN 212200Z VRB01MPS 1300 R05/0300V0500N MIFG BR FEW013 09/09 Q1021 NOSIG
ZGNN,2015-01-21 23:00,ZGNN 212300Z 00000MPS 1300 R05/P2000 BCFG BR FEW013 08/08 Q1022 TEMPO 0700 FG
ZGNN,2015-01-22 00:00,ZGNN 220000Z VRB01MPS 2000 BR NSC 08/08 Q1022 BECMG 3500 BR
ZGNN,2015-01-22 01:00,ZGNN 220100Z VRB01MPS 2000 R05/1200D BR NSC 10/10 Q1023 BECMG TL0140 4000 BR
ZGNN,2015-01-22 02:00,ZGNN 220200Z VRB01MPS 1800 R05/0900V1200N BR NSC 12/12 Q1024 BECMG TL0340 4000 BR
ZGNN,2015-01-22 03:00,ZGNN 220300Z VRB01MPS 2000 BR NSC 17/12 Q1024 BECMG TL0340 4000 BR
ZGNN,2015-01-22 04:00,ZGNN 220400Z 09002MPS 060V150 2500 HZ NSC 19/11 Q1023 BECMG TL0500 3200 HZ
ZGNN,2015-01-22 05:00,ZGNN 220500Z VRB02MPS 5000 HZ NSC 21/10 Q1021 NOSIG
ZGNN,2015-01-22 06:00,ZGNN 220600Z 36001MPS 7000 NSC 23/09 Q1020 NOSIG
ZGNN,2015-01-22 07:00,ZGNN 220700Z 16002MPS 120V210 CAVOK 23/09 Q1019 NOSIG
ZGNN,2015-01-22 08:00,ZGNN 220800Z 10002MPS 040V140 CAVOK 23/10 Q1018 NOSIG
ZGNN,2015-01-22 09:00,ZGNN 220900Z 13002MPS 090V180 CAVOK 23/10 Q1017 NOSIG
ZGNN,2015-01-22 10:00,ZGNN 221000Z VRB01MPS CAVOK 21/12 Q1017 NOSIG
ZGNN,2015-01-22 11:00,ZGNN 221100Z 11002MPS 6000 NSC 19/12 Q1017 NOSIG
ZGNN,2015-01-22 12:00,ZGNN 221200Z 09002MPS 050V120 6000 NSC 18/11 Q1017 NOSIG
ZGNN,2015-01-22 13:00,ZGNN 221300Z 10002MPS 040V150 6000 NSC 18/10 Q1018 NOSIG
ZGNN,2015-01-22 14:00,ZGNN 221400Z VRB01MPS 6000 NSC 17/10 Q1018 NOSIG
ZGNN,2015-01-22 15:00,ZGNN 221500Z VRB01MPS 6000 NSC 16/10 Q1018 NOSIG
ZGNN,2015-01-22 16:00,ZGNN 221600Z 12002MPS 080V150 6000 NSC 15/09 Q1018 NOSIG
ZGNN,2015-01-22 17:00,ZGNN 221700Z 12002MPS 070V190 6000 NSC 15/09 Q1018 NOSIG
ZGNN,2015-01-22 18:00,ZGNN 221800Z 13002MPS 100V160 6000 NSC 15/09 Q1018 NOSIG
ZGNN,2015-01-22 19:00,ZGNN 221900Z 15002MPS 6000 NSC 14/08 Q1018 NOSIG
ZGNN,2015-01-22 20:00,ZGNN 222000Z VRB01MPS 5000 BR NSC 13/09 Q1018 NOSIG
ZGNN,2015-01-22 21:00,ZGNN 222100Z 08002MPS 5000 BR NSC 14/10 Q1018 NOSIG
ZGNN,2015-01-22 22:00,ZGNN 222200Z 03003MPS 4000 BR NSC 12/10 Q1018 NOSIG
ZGNN,2015-01-22 23:00,ZGNN 222300Z 03003MPS 4000 BR SCT015 12/10 Q1018 NOSIG
ZGNN,2015-01-23 00:00,ZGNN 230000Z 03003MPS 2500 BR SCT013 BKN040 13/12 Q1019 BECMG TL0145 3500 BR
ZGNN,2015-01-23 01:00,ZGNN 230100Z 04002MPS 2500 BR SCT013 BKN040 14/13 Q1020 BECMG TL0240 4000 BR
ZGNN,2015-01-23 02:00,ZGNN 230200Z 14004MPS 120V180 3100 BR SCT010 BKN040 16/14 Q1020 NOSIG
ZGNN,2015-01-23 03:00,ZGNN 230300Z 15005MPS 130V190 4000 BR SCT011 BKN040 17/14 Q1020 NOSIG
ZGNN,2015-01-23 04:00,ZGNN 230400Z 15005MPS 5000 BR SCT016 BKN040 18/14 Q1019 NOSIG
ZGNN,2015-01-23 05:00,ZGNN 230500Z 15005MPS 5000 HZ SCT020 BKN040 20/14 Q1018 NOSIG
ZGNN,2015-01-23 06:00,ZGNN 230600Z 15006MPS 120V180 6000 SCT020 20/14 Q1016 NOSIG
ZGNN,2015-01-23 07:00,ZGNN 230700Z 15007MPS 6000 SCT020 19/14 Q1015 NOSIG
ZGNN,2015-01-23 08:00,ZGNN 230800Z 15005MPS 6000 FEW020 19/13 Q1014 NOSIG
ZGNN,2015-01-23 09:00,ZGNN 230900Z 16005MPS 7000 NSC 19/13 Q1015 NOSIG
ZGNN,2015-01-23 10:00,ZGNN 231000Z 16004MPS 7000 NSC 19/14 Q1014 NOSIG
ZGNN,2015-01-23 11:00,ZGNN 231100Z 16003MPS 6000 NSC 19/13 Q1015 NOSIG
ZGNN,2015-01-23 12:00,ZGNN 231200Z 18002MPS 140V210 6000 NSC 18/13 Q1015 NOSIG
ZGNN,2015-01-23 13:00,ZGNN 231300Z VRB01MPS 6000 NSC 18/13 Q1015 NOSIG
ZGNN,2015-01-23 14:00,ZGNN 231400Z VRB01MPS 6000 NSC 18/12 Q1015 NOSIG
ZGNN,2015-01-23 15:00,ZGNN 231500Z 17004MPS 140V200 6000 NSC 18/13 Q1015 NOSIG
ZGNN,2015-01-23 16:00,ZGNN 231600Z 16005MPS 110V180 6000 NSC 18/14 Q1015 NOSIG
ZGNN,2015-01-23 17:00,ZGNN 231700Z 14003MPS 100V170 6000 FEW013 17/14 Q1016 NOSIG
ZGNN,2015-01-23 18:00,ZGNN 231800Z 14004MPS 6000 SCT013 17/14 Q1016 NOSIG
ZGNN,2015-01-23 19:00,ZGNN 231900Z 14003MPS 8000 SCT013 16/14 Q1015 NOSIG
ZGNN,2015-01-23 20:00,ZGNN 232000Z 15003MPS 120V190 9000 SCT013 17/14 Q1015 NOSIG
ZGNN,2015-01-23 21:00,ZGNN 232100Z 16004MPS 9000 SCT013 17/14 Q1015 NOSIG
ZGNN,2015-01-23 22:00,ZGNN 232200Z 15003MPS 120V180 9000 SCT013 17/15 Q1015 NOSIG
ZGNN,2015-01-23 23:00,ZGNN 232300Z 15003MPS 110V170 9000 SCT013 17/15 Q1015 NOSIG
ZGNN,2015-01-24 00:00,ZGNN 240000Z 15003MPS 9000 SCT013 17/15 Q1016 NOSIG
ZGNN,2015-01-24 01:00,ZGNN 240100Z 11002MPS 8000 SCT011 17/15 Q1016 NOSIG
ZGNN,2015-01-24 02:00,ZGNN 240200Z 15003MPS 110V180 9999 SCT015 18/15 Q1017 NOSIG
ZGNN,2015-01-24 03:00,ZGNN 240300Z 16007MPS 130V190 9999 SCT016 19/15 Q1017 NOSIG
ZGNN,2015-01-24 04:00,ZGNN 240400Z 16006MPS 9999 SCT016 OVC040 19/15 Q1017 NOSIG
ZGNN,2015-01-24 05:00,ZGNN 240500Z 16007MPS 130V190 9999 SCT016 OVC040 20/15 Q1016 NOSIG
ZGNN,2015-01-24 06:00,ZGNN 240600Z 16008MPS 9999 SCT023 BKN040 20/14 Q1014 NOSIG
ZGNN,2015-01-24 07:00,ZGNN 240700Z 17007MPS 9999 FEW023 BKN046 21/15 Q1013 NOSIG
ZGNN,2015-01-24 08:00,ZGNN 240800Z 17008MPS CAVOK 21/14 Q1012 NOSIG
ZGNN,2015-01-24 09:00,ZGNN 240900Z 16007MPS 9999 SCT040 20/14 Q1013 NOSIG
ZGNN,2015-01-24 10:00,ZGNN 241000Z 15005MPS CAVOK 20/14 Q1013 NOSIG
ZGNN,2015-01-24 11:00,ZGNN 241100Z 12003MPS 100V160 CAVOK 19/14 Q1014 NOSIG
ZGNN,2015-01-24 12:00,ZGNN 241200Z 13002MPS 100V160 CAVOK 18/14 Q1014 NOSIG
ZGNN,2015-01-24 13:00,ZGNN 241300Z 13002MPS 100V160 CAVOK 18/14 Q1015 NOSIG
ZGNN,2015-01-24 14:00,ZGNN 241400Z VRB01MPS CAVOK 17/14 Q1015 NOSIG
ZGNN,2015-01-24 15:00,ZGNN 241500Z VRB01MPS 8000 NSC 17/14 Q1016 NOSIG
ZGNN,2015-01-24 16:00,ZGNN 241600Z 09001MPS 8000 NSC 16/14 Q1016 NOSIG
ZGNN,2015-01-24 17:00,ZGNN 241700Z 07001MPS 6000 NSC 16/14 Q1016 NOSIG
ZGNN,2015-01-24 18:00,ZGNN 241800Z 11002MPS 6000 SCT026 17/14 Q1016 NOSIG
ZGNN,2015-01-24 19:00,ZGNN 241900Z 12002MPS 090V150 6000 SCT026 17/15 Q1016 NOSIG
ZGNN,2015-01-24 20:00,ZGNN 242000Z 14004MPS 6000 NSC 17/15 Q1016 NOSIG
ZGNN,2015-01-24 21:00,ZGNN 242100Z 14003MPS 110V180 6000 NSC 17/15 Q1016 NOSIG
ZGNN,2015-01-24 22:00,ZGNN 242200Z 16002MPS 6000 SCT008 16/15 Q1016 NOSIG
ZGNN,2015-01-24 23:00,ZGNN 242300Z 14003MPS 110V170 5000 BR SCT008 17/16 Q1017 NOSIG
ZGNN,2015-01-25 00:00,ZGNN 250000Z 14004MPS 4000 BR SCT009 17/15 Q1018 NOSIG
ZGNN,2015-01-25 01:00,ZGNN 250100Z 15002MPS 110V180 4500 BR SCT009 17/16 Q1018 NOSIG
ZGNN,2015-01-25 02:00,ZGNN 250200Z 16004MPS 6000 SCT010 18/16 Q1019 NOSIG
ZGNN,2015-01-25 03:00,ZGNN 250300Z 15004MPS 130V190 7000 SCT013 19/16 Q1019 NOSIG
ZGNN,2015-01-25 04:00,ZGNN 250400Z 16004MPS 9999 SCT013 20/16 Q1018 NOSIG
ZGNN,2015-01-25 05:00,ZGNN 250500Z 16003MPS 120V200 9999 FEW016 21/16 Q1017 NOSIG
ZGNN,2015-01-25 06:00,ZGNN 250600Z 13003MPS 090V190 9999 FEW020 22/16 Q1016 NOSIG
ZGNN,2015-01-25 07:00,ZGNN 250700Z 11003MPS 070V160 9999 FEW023 22/17 Q1015 NOSIG
ZGNN,2015-01-25 08:00,ZGNN 250800Z 13003MPS 100V160 9999 FEW023 22/16 Q1015 NOSIG
ZGNN,2015-01-25 09:00,ZGNN 250900Z 15003MPS 100V170 9999 FEW023 22/16 Q1015 NOSIG
ZGNN,2015-01-25 10:00,ZGNN 251000Z 14002MPS 100V170 9999 FEW023 21/16 Q1015 NOSIG
ZGNN,2015-01-25 11:00,ZGNN 251100Z 09002MPS 8000 NSC 20/16 Q1016 NOSIG
ZGNN,2015-01-25 12:00,ZGNN 251200Z 11002MPS 090V150 8000 NSC 19/16 Q1016 NOSIG
ZGNN,2015-01-25 13:00,ZGNN 251300Z VRB01MPS 8000 NSC 19/15 Q1017 NOSIG
ZGNN,2015-01-25 14:00,ZGNN 251400Z VRB01MPS 8000 NSC 19/15 Q1017 NOSIG
ZGNN,2015-01-25 15:00,ZGNN 251500Z VRB01MPS 6000 NSC 17/16 Q1017 NOSIG
ZGNN,2015-01-25 16:00,ZGNN 251600Z VRB01MPS 6000 NSC 17/15 Q1017 NOSIG
ZGNN,2015-01-25 17:00,ZGNN 251700Z VRB01MPS 5000 BR NSC 15/14 Q1017 NOSIG
ZGNN,2015-01-25 18:00,ZGNN 251800Z VRB01MPS 4500 BR NSC 14/14 Q1017 NOSIG
ZGNN,2015-01-25 19:00,ZGNN 251900Z 04002MPS 4000 BR NSC 14/14 Q1017 NOSIG
ZGNN,2015-01-25 20:00,ZGNN 252000Z VRB01MPS 5000 BR SCT006 SCT008 15/15 Q1017 NOSIG
ZGNN,2015-01-25 21:00,ZGNN 252100Z 09001MPS 3500 BR SCT006 SCT008 17/17 Q1017 NOSIG
ZGNN,2015-01-25 22:00,ZGNN 252200Z VRB01MPS 3500 BR SCT006 SCT008 17/17 Q1017 NOSIG
ZGNN,2015-01-25 23:00,ZGNN 252300Z VRB01MPS 3500 BR SCT007 17/17 Q1018 NOSIG
ZGNN,2015-01-26 00:00,ZGNN 260000Z 15003MPS 120V180 3500 BR SCT007 BKN040 18/17 Q1019 NOSIG
ZGNN,2015-01-26 01:00,ZGNN 260100Z 13001MPS 3500 BR SCT008 BKN040 18/17 Q1019 NOSIG
ZGNN,2015-01-26 02:00,ZGNN 260200Z 13003MPS 100V190 4000 BR SCT008 BKN040 19/18 Q1019 NOSIG
ZGNN,2015-01-26 03:00,ZGNN 260300Z 13004MPS 6000 SCT008 SCT010 BKN040 19/17 Q1019 NOSIG
ZGNN,2015-01-26 04:00,ZGNN 260400Z 13003MPS 100V170 7000 SCT011 BKN040 20/17 Q1019 NOSIG
ZGNN,2015-01-26 05:00,ZGNN 260500Z 15004MPS 120V190 8000 SCT015 22/17 Q1018 NOSIG
ZGNN,2015-01-26 06:00,ZGNN 260600Z 12004MPS 090V160 7000 SCT020 22/17 Q1016 NOSIG
ZGNN,2015-01-26 07:00,ZGNN 260700Z 12004MPS 090V160 8000 SCT020 23/17 Q1015 NOSIG
ZGNN,2015-01-26 08:00,ZGNN 260800Z 12005MPS 090V160 9999 BKN023 23/17 Q1014 NOSIG
ZGNN,2015-01-26 09:00,ZGNN 260900Z 12005MPS 9999 FEW026 22/16 Q1014 NOSIG
ZGNN,2015-01-26 10:00,ZGNN 261000Z 13005MPS 9999 SCT026 21/16 Q1014 NOSIG
ZGNN,2015-01-26 11:00,ZGNN 261100Z 13004MPS 8000 NSC 20/16 Q1014 NOSIG
ZGNN,2015-01-26 12:00,ZGNN 261200Z 13003MPS 100V190 7000 NSC 19/16 Q1015 NOSIG
ZGNN,2015-01-26 13:00,ZGNN 261300Z 13002MPS 100V190 6000 NSC 18/16 Q1016 NOSIG
ZGNN,2015-01-26 14:00,ZGNN 261400Z 12002MPS 6000 NSC 17/16 Q1016 NOSIG
ZGNN,2015-01-26 15:00,ZGNN 261500Z VRB01MPS 6000 NSC 17/16 Q1016 NOSIG
ZGNN,2015-01-26 16:00,ZGNN 261600Z VRB01MPS 6000 SCT009 17/16 Q1016 NOSIG
ZGNN,2015-01-26 17:00,ZGNN 261700Z 02002MPS 5000 BR SCT009 16/15 Q1016 NOSIG
ZGNN,2015-01-26 18:00,ZGNN 261800Z 01002MPS 5000 BR FEW009 15/15 Q1016 NOSIG
ZGNN,2015-01-26 19:00,ZGNN 261900Z 03002MPS 3500 BR FEW033 15/15 Q1016 NOSIG
ZGNN,2015-01-26 20:00,ZGNN 262000Z 03002MPS 4000 BR NSC 15/15 Q1016 NOSIG
ZGNN,2015-01-26 21:00,ZGNN 262100Z 03002MPS 4000 BR NSC 16/16 Q1016 NOSIG
ZGNN,2015-01-26 22:00,ZGNN 262200Z 03002MPS 4000 BR SCT007 16/16 Q1016 NOSIG
ZGNN,2015-01-26 23:00,ZGNN 262300Z 04002MPS 3000 BR SCT005 16/16 Q1016 NOSIG
ZGNN,2015-01-27 00:00,ZGNN 270000Z VRB01MPS 2000 BR FEW004 SCT007 BKN040 17/17 Q1017 BECMG TL0050 3500 BR
ZGNN,2015-01-27 01:00,ZGNN 270100Z VRB01MPS 2200 BR FEW005 SCT008 BKN040 18/17 Q1017 BECMG TL0245 3500 BR
ZGNN,2015-01-27 02:00,ZGNN 270200Z 14003MPS 110V170 2800 BR FEW005 SCT008 BKN040 18/17 Q1018 BECMG TL0245 3500 BR
ZGNN,2015-01-27 03:00,ZGNN 270300Z 14003MPS 100V170 3500 BR FEW006 SCT009 BKN040 19/18 Q1018 NOSIG
ZGNN,2015-01-27 04:00,ZGNN 270400Z 15003MPS 4000 BR SCT009 BKN040 20/17 Q1018 NOSIG
ZGNN,2015-01-27 05:00,ZGNN 270500Z 16003MPS 110V200 6000 SCT013 BKN040 21/17 Q1016 NOSIG
ZGNN,2015-01-27 06:00,ZGNN 270600Z 14003MPS 110V180 9999 SCT016 22/17 Q1015 NOSIG
ZGNN,2015-01-27 07:00,ZGNN 270700Z 13005MPS 9999 SCT020 22/17 Q1013 NOSIG
ZGNN,2015-01-27 08:00,ZGNN 270800Z 16005MPS 120V180 9999 SCT020 22/17 Q1013 NOSIG
ZGNN,2015-01-27 09:00,ZGNN 270900Z 14005MPS 9999 SCT020 SCT040 22/17 Q1013 NOSIG
ZGNN,2015-01-27 10:00,ZGNN 271000Z 14004MPS CAVOK 20/17 Q1013 NOSIG
ZGNN,2015-01-27 11:00,ZGNN 271100Z 15004MPS 110V190 7000 NSC 20/17 Q1013 NOSIG
ZGNN,2015-01-27 12:00,ZGNN 271200Z 14002MPS 080V180 8000 NSC 19/17 Q1014 NOSIG
ZGNN,2015-01-27 13:00,ZGNN 271300Z 13002MPS 090V160 9000 NSC 19/17 Q1014 NOSIG
ZGNN,2015-01-27 14:00,ZGNN 271400Z 14003MPS 120V180 9000 NSC 19/16 Q1015 NOSIG
ZGNN,2015-01-27 15:00,ZGNN 271500Z 14002MPS 110V180 7000 FEW013 19/17 Q1015 NOSIG
ZGNN,2015-01-27 16:00,ZGNN 271600Z 17002MPS 140V220 7000 SCT011 18/16 Q1015 NOSIG
ZGNN,2015-01-27 17:00,ZGNN 271700Z 14002MPS 090V180 5000 BR SCT011 18/17 Q1015 NOSIG
ZGNN,2015-01-27 18:00,ZGNN 271800Z 14002MPS 110V170 5000 BR SCT009 18/17 Q1014 NOSIG
ZGNN,2015-01-27 19:00,ZGNN 271900Z 14002MPS 100V170 5000 BR SCT009 18/17 Q1014 NOSIG
ZGNN,2015-01-27 20:00,ZGNN 272000Z 17003MPS 5000 BR SCT009 19/17 Q1014 NOSIG
ZGNN,2015-01-27 21:00,ZGNN 272100Z 16003MPS 120V190 5000 BR SCT009 18/17 Q1014 NOSIG
ZGNN,2015-01-27 22:00,ZGNN 272200Z 15004MPS 4000 BR FEW006 SCT009 18/17 Q1014 NOSIG
ZGNN,2015-01-27 23:00,ZGNN 272300Z 15003MPS 5000 BR FEW006 SCT009 18/17 Q1015 NOSIG
ZGNN,2015-01-28 00:00,ZGNN 280000Z 15003MPS 120V180 5000 BR FEW006 SCT009 18/17 Q1015 NOSIG
ZGNN,2015-01-28 01:00,ZGNN 280100Z 16003MPS 130V190 6000 SCT009 OVC040 18/17 Q1016 NOSIG
ZGNN,2015-01-28 02:00,ZGNN 280200Z 16003MPS 130V190 6000 SCT010 OVC040 19/17 Q1017 NOSIG
ZGNN,2015-01-28 03:00,ZGNN 280300Z 15003MPS 110V180 8000 SCT013 OVC040 19/17 Q1017 NOSIG
ZGNN,2015-01-28 04:00,ZGNN 280400Z 15004MPS 120V180 9999 SCT015 OVC040 20/17 Q1016 NOSIG
ZGNN,2015-01-28 05:00,ZGNN 280500Z 15007MPS 9999 SCT016 BKN040 22/17 Q1015 NOSIG
ZGNN,2015-01-28 06:00,ZGNN 280600Z 15006G11MPS 9999 SCT016 21/17 Q1013 NOSIG
ZGNN,2015-01-28 07:00,ZGNN 280700Z 16006MPS 130V190 9999 SCT016 22/17 Q1012 NOSIG
ZGNN,2015-01-28 08:00,ZGNN 280800Z 16008MPS 9999 FEW023 22/16 Q1012 NOSIG
ZGNN,2015-01-28 09:00,ZGNN 280900Z 16006G11MPS 120V190 9999 FEW020 22/17 Q1012 NOSIG
ZGNN,2015-01-28 10:00,ZGNN 281000Z 16006MPS 9999 FEW020 21/17 Q1012 NOSIG
ZGNN,2015-01-28 11:00,ZGNN 281100Z 16005MPS 140V200 9999 FEW020 20/17 Q1013 NOSIG
ZGNN,2015-01-28 12:00,ZGNN 281200Z 16004MPS 9999 FEW020 20/16 Q1013 NOSIG
ZGNN,2015-01-28 13:00,ZGNN 281300Z 16003MPS CAVOK 20/16 Q1014 NOSIG
ZGNN,2015-01-28 14:00,ZGNN 281400Z 17003MPS 130V200 CAVOK 20/16 Q1015 NOSIG
ZGNN,2015-01-28 15:00,ZGNN 281500Z 16004MPS CAVOK 20/17 Q1015 NOSIG
ZGNN,2015-01-28 16:00,ZGNN 281600Z 16005MPS CAVOK 19/17 Q1015 NOSIG
ZGNN,2015-01-28 17:00,ZGNN 281700Z 16004MPS 130V190 6000 NSC 19/17 Q1015 NOSIG
ZGNN,2015-01-28 18:00,ZGNN 281800Z 16002MPS 120V200 6000 NSC 19/17 Q1015 NOSIG
ZGNN,2015-01-28 19:00,ZGNN 281900Z 17003MPS 140V200 6000 SCT010 BKN040 19/17 Q1015 NOSIG
ZGNN,2015-01-28 20:00,ZGNN 282000Z 17003MPS 150V210 7000 SCT010 BKN040 19/17 Q1014 NOSIG
ZGNN,2015-01-28 21:00,ZGNN 282100Z 14003MPS 110V170 6000 SCT009 SCT033 19/17 Q1014 NOSIG
ZGNN,2015-01-28 22:00,ZGNN 282200Z 14003MPS 6000 SCT008 SCT033 19/17 Q1015 NOSIG
ZGNN,2015-01-28 23:00,ZGNN 282300Z 15002MPS 110V170 5000 BR SCT009 SCT033 19/17 Q1015 NOSIG
ZGNN,2015-01-29 00:00,ZGNN 290000Z 13003MPS 5000 BR SCT009 BKN040 18/17 Q1016 NOSIG
ZGNN,2015-01-29 01:00,ZGNN 290100Z 15003MPS 120V180 6000 SCT009 OVC040 19/17 Q1017 NOSIG
ZGNN,2015-01-29 02:00,ZGNN 290200Z 15003MPS 6000 SCT011 OVC040 19/17 Q1018 NOSIG
ZGNN,2015-01-29 03:00,ZGNN 290300Z 15004MPS 130V190 7000 SCT013 OVC040 19/17 Q1019 NOSIG
ZGNN,2015-01-29 04:00,ZGNN 290400Z 15004MPS 110V180 8000 SCT015 BKN040 20/17 Q1018 NOSIG
ZGNN,2015-01-29 05:00,ZGNN 290500Z 15006MPS 9999 SCT016 BKN040 21/16 Q1017 NOSIG
ZGNN,2015-01-29 06:00,ZGNN 290600Z 13006MPS 9999 BKN020 BKN040 21/17 Q1016 NOSIG
ZGNN,2015-01-29 07:00,ZGNN 290700Z 14005MPS 110V170 9999 SCT020 BKN046 22/17 Q1016 NOSIG
ZGNN,2015-01-29 08:00,ZGNN 290800Z 16005MPS 130V190 9999 SCT020 BKN046 21/17 Q1016 NOSIG
ZGNN,2015-01-29 09:00,ZGNN 290900Z 15005MPS 120V180 9999 SCT020 BKN046 21/16 Q1016 NOSIG
ZGNN,2015-01-29 10:00,ZGNN 291000Z 14003MPS 9999 SCT020 21/17 Q1017 NOSIG
ZGNN,2015-01-29 11:00,ZGNN 291100Z 09005MPS 9999 SCT020 15/12 Q1018 NOSIG
ZGNN,2015-01-29 12:00,ZGNN 291200Z 07007MPS 9999 SCT016 13/10 Q1019 NOSIG
ZGNN,2015-01-29 13:00,ZGNN 291300Z 08005MPS 9999 SCT013 12/09 Q1020 NOSIG
ZGNN,2015-01-29 14:00,ZGNN 291400Z 08004MPS 9999 SCT013 12/09 Q1021 NOSIG
ZGNN,2015-01-29 15:00,ZGNN 291500Z 09003MPS 050V130 9999 SCT013 12/09 Q1021 NOSIG
ZGNN,2015-01-29 16:00,ZGNN 291600Z 06003MPS 020V090 9999 SCT013 11/09 Q1021 NOSIG
ZGNN,2015-01-29 17:00,ZGNN 291700Z 04005MPS 9999 SCT011 11/08 Q1022 NOSIG
ZGNN,2015-01-29 18:00,ZGNN 291800Z 06004MPS 6000 FEW007 SCT011 10/09 Q1021 NOSIG
ZGNN,2015-01-29 19:00,ZGNN 291900Z 07004MPS 3500 -RA BR FEW004 SCT006 OVC033 09/09 Q1021 NOSIG
ZGNN,2015-01-29 20:00,ZGNN 292000Z 08004MPS 3000 -RA BR SCT004 SCT006 OVC026 09/09 Q1021 NOSIG
ZGNN,2015-01-29 21:00,ZGNN 292100Z 08004MPS 3500 -RA BR SCT004 SCT006 OVC023 09/09 Q1021 NOSIG
ZGNN,2015-01-29 22:00,ZGNN 292200Z 08004MPS 3000 -RA BR SCT003 SCT005 OVC023 08/08 Q1022 NOSIG
ZGNN,2015-01-29 23:00,ZGNN 292300Z 06004MPS 3000 -RA BR SCT003 SCT005 OVC023 08/08 Q1023 NOSIG
ZGNN,2015-01-30 00:00,ZGNN 300000Z 08004MPS 060V120 2200 -RA BR SCT003 SCT005 OVC023 08/08 Q1024 BECMG TL0150 3500 BR
ZGNN,2015-01-30 01:00,ZGNN 300100Z 07004MPS 2800 BR FEW004 SCT007 OVC023 08/08 Q1025 BECMG TL0150 3500 BR
ZGNN,2015-01-30 02:00,ZGNN 300200Z 07004MPS 050V110 3500 BR FEW005 SCT008 OVC023 08/07 Q1025 NOSIG
ZGNN,2015-01-30 03:00,ZGNN 300300Z 06004MPS 6000 FEW006 SCT009 OVC023 08/07 Q1026 NOSIG
ZGNN,2015-01-30 04:00,ZGNN 300400Z 07003MPS 030V120 4000 BR FEW006 SCT009 OVC023 08/07 Q1026 NOSIG
ZGNN,2015-01-30 05:00,ZGNN 300500Z 07003MPS 030V090 5000 BR FEW006 SCT009 OVC023 08/07 Q1025 NOSIG
ZGNN,2015-01-30 06:00,ZGNN 300600Z 07003MPS 050V120 5000 BR FEW008 SCT010 OVC023 09/07 Q1024 NOSIG
ZGNN,2015-01-30 07:00,ZGNN 300700Z 06003MPS 6000 FEW009 SCT011 OVC023 09/07 Q1023 NOSIG
ZGNN,2015-01-30 08:00,ZGNN 300800Z 08004MPS 050V150 5000 BR FEW009 SCT011 OVC023 08/07 Q1023 NOSIG
ZGNN,2015-01-30 09:00,ZGNN 300900Z 09004MPS 070V140 3100 BR FEW004 SCT006 OVC023 08/07 Q1023 BECMG TL1000 2200 -RA BR
ZGNN,2015-01-30 10:00,ZGNN 301000Z 07004MPS 2800 BR FEW004 SCT006 OVC023 08/07 Q1024 BECMG TL1100 3200 -RA BR
ZGNN,2015-01-30 11:00,ZGNN 301100Z 06004MPS 4000 BR FEW006 SCT009 OVC023 08/07 Q1024 NOSIG
ZGNN,2015-01-30 12:00,ZGNN 301200Z 07005MPS 040V110 5000 BR FEW005 SCT008 OVC023 08/06 Q1025 NOSIG
ZGNN,2015-01-30 13:00,ZGNN 301300Z 07003MPS 040V100 5000 BR FEW006 SCT010 OVC023 08/07 Q1025 NOSIG
ZGNN,2015-01-30 14:00,ZGNN 301400Z 08003MPS 6000 SCT009 OVC023 08/06 Q1025 NOSIG
ZGNN,2015-01-30 15:00,ZGNN 301500Z 06003MPS 7000 SCT010 OVC023 08/06 Q1026 NOSIG
ZGNN,2015-01-30 16:00,ZGNN 301600Z 05003MPS 020V080 6000 SCT010 OVC023 08/06 Q1026 NOSIG
ZGNN,2015-01-30 17:00,ZGNN 301700Z 05003MPS 4000 BR FEW005 SCT009 OVC023 07/06 Q1026 NOSIG
ZGNN,2015-01-30 18:00,ZGNN 301800Z 05002MPS 2300 -DZ BR FEW002 SCT007 OVC023 07/07 Q1026 NOSIG
ZGNN,2015-01-30 19:00,ZGNN 301900Z 08003MPS 2500 -DZ BR FEW002 SCT003 OVC023 07/07 Q1025 NOSIG
ZGNN,2015-01-30 20:00,ZGNN 302000Z 08003MPS 2500 -DZ BR FEW002 SCT003 OVC023 07/07 Q1025 NOSIG
ZGNN,2015-01-30 21:00,ZGNN 302100Z 07003MPS 2600 -DZ BR FEW002 SCT003 OVC023 07/07 Q1025 NOSIG
ZGNN,2015-01-30 22:00,ZGNN 302200Z 07004MPS 2700 -DZ BR FEW002 SCT003 OVC023 07/07 Q1025 NOSIG
ZGNN,2015-01-30 23:00,ZGNN 302300Z 06004MPS 2800 -DZ BR FEW002 SCT004 OVC023 07/07 Q1026 NOSIG
ZGNN,2015-01-31 00:00,ZGNN 310000Z 05004MPS 2600 -DZ BR FEW002 SCT004 OVC023 07/07 Q1027 NOSIG
ZGNN,2015-01-31 01:00,ZGNN 310100Z 06004MPS 040V130 2200 -DZ BR FEW002 SCT004 OVC023 07/07 Q1028 NOSIG
ZGNN,2015-01-31 02:00,ZGNN 310200Z 09003MPS 2600 -DZ BR FEW002 SCT004 OVC023 07/07 Q1029 BECMG TL0320 3500 -RA BR
ZGNN,2015-01-31 03:00,ZGNN 310300Z 08004MPS 3100 -DZ BR FEW002 SCT004 OVC023 07/07 Q1029 NOSIG
ZGNN,2015-01-31 04:00,ZGNN 310400Z 06003MPS 030V100 3100 -DZ BR FEW003 SCT005 OVC026 07/07 Q1029 NOSIG
ZGNN,2015-01-31 05:00,ZGNN 310500Z 05004MPS 3100 -DZ BR FEW003 SCT005 OVC026 07/07 Q1028 NOSIG
ZGNN,2015-01-31 06:00,ZGNN 310600Z 06003MPS 3100 -DZ BR FEW003 SCT005 OVC026 07/07 Q1027 NOSIG
ZGNN,2015-01-31 07:00,ZGNN 310700Z 05003MPS 020V110 3100 -DZ BR FEW003 SCT005 OVC026 07/07 Q1026 NOSIG
ZGNN,2015-01-31 08:00,ZGNN 310800Z 05003MPS 1800 -RA BR FEW003 SCT005 OVC026 08/08 Q1026 NOSIG
ZGNN,2015-01-31 09:00,ZGNN 310900Z 05003MPS 2800 -RA BR FEW004 SCT006 OVC026 07/07 Q1026 NOSIG
ZGNN,2015-01-31 10:00,ZGNN 311000Z 06003MPS 2500 -RA BR FEW003 SCT005 OVC026 07/07 Q1026 NOSIG
ZGNN,2015-01-31 11:00,ZGNN 311100Z 03003MPS 2800 -RA BR FEW003 SCT005 OVC026 07/07 Q1027 BECMG TL1200 3200 -DZ BR
ZGNN,2015-01-31 12:00,ZGNN 311200Z 04003MPS 3100 -RA BR FEW003 SCT005 OVC026 07/07 Q1027 NOSIG
ZGNN,2015-01-31 13:00,ZGNN 311300Z 03002MPS 360V060 3100 -RA BR SCT003 SCT005 OVC026 07/07 Q1028 BECMG TL1340 2000 -RA BR
ZGNN,2015-01-31 14:00,ZGNN 311400Z 07003MPS 2200 -RA BR SCT003 SCT005 OVC026 07/07 Q1028 NOSIG
ZGNN,2015-01-31 15:00,ZGNN 311500Z 06002MPS 010V090 2500 -RA BR SCT002 SCT004 OVC023 07/07 Q1028 NOSIG
ZGNN,2015-01-31 16:00,ZGNN 311600Z 03002MPS 2800 -RA BR FEW002 SCT005 OVC023 07/07 Q1028 NOSIG
ZGNN,2015-01-31 17:00,ZGNN 311700Z 02002MPS 340V050 2800 -RA BR FEW002 SCT005 OVC023 07/07 Q1028 NOSIG
ZGNN,2015-01-31 18:00,ZGNN 311800Z 07002MPS 2500 -RA BR SCT002 SCT004 OVC023 07/07 Q1027 NOSIG
ZGNN,2015-01-31 19:00,ZGNN 311900Z 08003MPS 2700 -RA BR SCT002 SCT004 OVC023 07/07 Q1027 NOSIG
ZGNN,2015-01-31 20:00,ZGNN 312000Z 04003MPS 2500 -RA BR SCT002 SCT004 OVC023 07/07 Q1027 NOSIG
ZGNN,2015-01-31 21:00,ZGNN 312100Z 03002MPS 2500 -RA BR SCT002 SCT004 OVC023 07/07 Q1027 NOSIG
ZGNN,2015-01-31 22:00,ZGNN 312200Z 09002MPS 2100 -RA BR SCT002 SCT004 OVC023 07/07 Q1027 NOSIG
ZGNN,2015-01-31 23:00,ZGNN 312300Z 05003MPS 2500 -RA BR SCT002 SCT004 OVC023 07/07 Q1027 NOSIG
ZGNN,2015-02-01 00:00,ZGNN 010000Z 04003MPS 2400 -RA BR SCT002 SCT004 OVC023 07/07 Q1028 NOSIG
ZGNN,2015-02-01 01:00,ZGNN 010100Z 05002MPS 020V090 1800 -RA BR SCT002 SCT004 OVC023 07/07 Q1029 NOSIG
ZGNN,2015-02-01 02:00,ZGNN 010200Z 36003MPS 2000 -RA BR FEW002 SCT005 OVC023 07/07 Q1030 NOSIG
ZGNN,2015-02-01 03:00,ZGNN 010300Z 02003MPS 2500 -RA BR FEW003 SCT004 OVC023 08/08 Q1030 NOSIG
ZGNN,2015-02-01 04:00,ZGNN 010400Z 02003MPS 340V040 1800 -RA BR FEW003 SCT004 OVC023 07/07 Q1029 NOSIG
ZGNN,2015-02-01 05:00,ZGNN 010500Z 36003MPS 330V040 5000 BR FEW004 SCT007 OVC023 08/07 Q1028 NOSIG
ZGNN,2015-02-01 06:00,ZGNN 010600Z 36003MPS 3500 BR FEW005 SCT007 OVC023 07/07 Q1027 NOSIG
ZGNN,2015-02-01 07:00,ZGNN 010700Z 03003MPS 5000 BR FEW006 SCT008 OVC023 08/07 Q1026 NOSIG
ZGNN,2015-02-01 08:00,ZGNN 010800Z 03003MPS 5000 BR SCT008 OVC023 08/07 Q1025 NOSIG
ZGNN,2015-02-01 09:00,ZGNN 010900Z 04003MPS 4000 BR SCT007 OVC023 08/07 Q1025 NOSIG
ZGNN,2015-02-01 10:00,ZGNN 011000Z 36003MPS 2800 -DZ BR FEW006 SCT008 OVC023 08/08 Q1026 BECMG 3500 BR
ZGNN,2015-02-01 11:00,ZGNN 011100Z 01002MPS 4000 BR SCT009 OVC023 08/08 Q1026 NOSIG
ZGNN,2015-02-01 12:00,ZGNN 011200Z 35003MPS 4000 BR FEW006 SCT009 OVC023 08/08 Q1027 NOSIG
ZGNN,2015-02-01 13:00,ZGNN 011300Z 02002MPS 3200 -RA BR FEW004 SCT009 OVC023 08/08 Q1027 NOSIG
ZGNN,2015-02-01 14:00,ZGNN 011400Z 34002MPS 4000 BR FEW005 SCT008 OVC023 08/08 Q1027 NOSIG
ZGNN,2015-02-01 15:00,ZGNN 011500Z 35002MPS 4500 BR FEW005 SCT008 OVC023 08/08 Q1027 NOSIG
ZGNN,2015-02-01 16:00,ZGNN 011600Z 35002MPS 4000 -RA BR SCT005 SCT007 OVC023 08/08 Q1027 NOSIG
ZGNN,2015-02-01 17:00,ZGNN 011700Z VRB01MPS 2500 -RA BR FEW003 SCT005 OVC023 08/08 Q1027 NOSIG
ZGNN,2015-02-01 18:00,ZGNN 011800Z 02002MPS 2800 -RA BR FEW003 SCT007 OVC023 08/08 Q1027 NOSIG
ZGNN,2015-02-01 19:00,ZGNN 011900Z 06002MPS 4000 -RA BR FEW003 SCT007 OVC023 08/08 Q1026 NOSIG
ZGNN,2015-02-01 20:00,ZGNN 012000Z 03001MPS 4000 -RA BR FEW002 SCT006 OVC023 08/08 Q1026 NOSIG
ZGNN,2015-02-01 21:00,ZGNN 012100Z 34002MPS 5000 BR FEW005 SCT007 OVC023 08/08 Q1025 NOSIG
ZGNN,2015-02-01 22:00,ZGNN 012200Z 36002MPS 4000 BR FEW002 SCT005 OVC023 08/08 Q1026 NOSIG
ZGNN,2015-02-01 23:00,ZGNN 012300Z 01003MPS 3000 BR FEW002 SCT004 OVC030 08/08 Q1026 NOSIG
ZGNN,2015-02-02 00:00,ZGNN 020000Z 03003MPS 1800 BR FEW002 SCT004 OVC030 08/08 Q1027 BECMG TL0150 3500 BR
ZGNN,2015-02-02 01:00,ZGNN 020100Z 02002MPS 2000 BR FEW003 SCT004 OVC030 09/09 Q1027 NOSIG
ZGNN,2015-02-02 02:00,ZGNN 020200Z 02002MPS 2800 BR FEW004 SCT006 OVC030 09/09 Q1028 BECMG TL0300 3300 BR
ZGNN,2015-02-02 03:00,ZGNN 020300Z 10003MPS 060V130 4500 BR FEW007 SCT011 OVC030 10/08 Q1028 NOSIG
ZGNN,2015-02-02 04:00,ZGNN 020400Z 03002MPS 360V070 4000 BR FEW008 SCT011 OVC030 10/09 Q1027 NOSIG
ZGNN,2015-02-02 05:00,ZGNN 020500Z 31002MPS 270V010 3500 BR FEW008 SCT011 OVC030 10/09 Q1026 NOSIG
ZGNN,2015-02-02 06:00,ZGNN 020600Z VRB01MPS 3000 BR FEW006 SCT009 OVC026 11/09 Q1025 BECMG TL0700 2500 BR
ZGNN,2015-02-02 07:00,ZGNN 020700Z 36001MPS 2800 BR FEW006 SCT009 OVC026 11/09 Q1024 BECMG TL0800 3300 BR
ZGNN,2015-02-02 08:00,ZGNN 020800Z 35002MPS 3000 BR FEW006 SCT008 OVC026 11/10 Q1024 NOSIG
ZGNN,2015-02-02 09:00,ZGNN 020900Z 36002MPS 3000 BR FEW006 SCT008 OVC026 11/10 Q1023 NOSIG
ZGNN,2015-02-02 10:00,ZGNN 021000Z 02001MPS 3000 BR FEW006 SCT008 OVC026 11/10 Q1023 BECMG TL1100 2500 BR
ZGNN,2015-02-02 11:00,ZGNN 021100Z VRB01MPS 2800 BR FEW006 SCT008 OVC026 11/10 Q1024 NOSIG
ZGNN,2015-02-02 12:00,ZGNN 021200Z 00000MPS 2800 BR FEW006 SCT008 OVC026 11/10 Q1024 NOSIG
ZGNN,2015-02-02 13:00,ZGNN 021300Z VRB01MPS 2800 BR SCT007 BKN026 11/10 Q1024 BECMG TL1400 3400 BR
ZGNN,2015-02-02 14:00,ZGNN 021400Z VRB01MPS 3000 BR SCT011 OVC026 11/10 Q1025 NOSIG
ZGNN,2015-02-02 15:00,ZGNN 021500Z VRB01MPS 3500 BR SCT011 OVC026 11/10 Q1025 NOSIG
ZGNN,2015-02-02 16:00,ZGNN 021600Z VRB01MPS 4000 BR FEW013 OVC026 12/10 Q1025 NOSIG
ZGNN,2015-02-02 17:00,ZGNN 021700Z 06002MPS 3200 BR FEW013 OVC026 11/10 Q1025 NOSIG
ZGNN,2015-02-02 18:00,ZGNN 021800Z 04002MPS 3200 BR FEW013 OVC030 11/10 Q1025 NOSIG
ZGNN,2015-02-02 19:00,ZGNN 021900Z 03001MPS 3200 BR SCT020 OVC030 11/11 Q1025 NOSIG
ZGNN,2015-02-02 20:00,ZGNN 022000Z 04001MPS 3100 BR FEW009 SCT016 OVC030 11/11 Q1024 NOSIG
ZGNN,2015-02-02 21:00,ZGNN 022100Z 05002MPS 3000 BR FEW007 SCT016 OVC030 11/11 Q1024 BECMG TL2200 2500 BR
ZGNN,2015-02-02 22:00,ZGNN 022200Z 04002MPS 2500 BR FEW005 SCT016 OVC030 11/11 Q1024 NOSIG
ZGNN,2015-02-02 23:00,ZGNN 022300Z 05002MPS 2500 BR SCT005 BKN030 11/11 Q1025 NOSIG
ZGNN,2015-02-03 00:00,ZGNN 030000Z 05002MPS 1800 BR FEW003 SCT005 BKN030 11/11 Q1025 NOSIG
ZGNN,2015-02-03 01:00,ZGNN 030100Z 06002MPS 340V150 1300 R05/1800N -DZ BR FEW003 SCT005 OVC026 11/11 Q1026 BECMG TL0220 2000 BR
ZGNN,2015-02-03 02:00,ZGNN 030200Z VRB01MPS 1000 R05/1300N -DZ BR SCT002 SCT004 OVC026 12/12 Q1027 NOSIG
ZGNN,2015-02-03 03:00,ZGNN 030300Z 02002MPS 1300 R05/1600N -DZ BR FEW002 SCT004 OVC026 12/12 Q1027 BECMG TL0420 1800 BR
ZGNN,2015-02-03 04:00,ZGNN 030400Z 05002MPS 010V070 1300 R05/1500N -DZ BR FEW002 SCT004 OVC026 12/12 Q1026 BECMG TL0540 1800 -DZ BR
ZGNN,2015-02-03 05:00,ZGNN 030500Z 02003MPS 1300 R05/1400N -DZ BR SCT002 SCT004 OVC026 12/12 Q1025 NOSIG
ZGNN,2015-02-03 06:00,ZGNN 030600Z 04003MPS 1400 R05/1600N -DZ BR SCT002 SCT004 OVC026 13/13 Q1024 NOSIG
ZGNN,2015-02-03 07:00,ZGNN 030700Z 06003MPS 1800 -DZ BR SCT003 SCT006 OVC026 13/13 Q1024 NOSIG
ZGNN,2015-02-03 08:00,ZGNN 030800Z 03003MPS 2500 BR SCT004 SCT006 OVC026 13/13 Q1023 NOSIG
ZGNN,2015-02-03 09:00,ZGNN 030900Z 05005MPS 4000 BR SCT005 SCT009 OVC026 13/12 Q1023 NOSIG
ZGNN,2015-02-03 10:00,ZGNN 031000Z 04004MPS 4000 BR SCT005 SCT009 OVC026 12/12 Q1023 NOSIG
ZGNN,2015-02-03 11:00,ZGNN 031100Z 05004MPS 7000 SCT006 SCT009 OVC026 12/12 Q1024 NOSIG
ZGNN,2015-02-03 12:00,ZGNN 031200Z 06003MPS 020V140 5000 -DZ BR SCT003 SCT005 OVC026 12/12 Q1024 NOSIG
ZGNN,2015-02-03 13:00,ZGNN 031300Z 05004MPS 7000 -DZ FEW004 SCT009 OVC026 11/11 Q1025 NOSIG
ZGNN,2015-02-03 14:00,ZGNN 031400Z 04004MPS 5000 -DZ BR FEW003 SCT006 OVC026 11/11 Q1025 NOSIG
ZGNN,2015-02-03 15:00,ZGNN 031500Z 06004MPS 3300 -DZ BR FEW002 SCT004 OVC026 11/11 Q1026 NOSIG
ZGNN,2015-02-03 16:00,ZGNN 031600Z 06003MPS 3100 -DZ BR SCT002 SCT003 OVC023 11/11 Q1026 BECMG TL1640 2300 -DZ BR
ZGNN,2015-02-03 17:00,ZGNN 031700Z 05003MPS 2800 -DZ BR SCT002 SCT003 OVC023 11/11 Q1026 NOSIG
ZGNN,2015-02-03 18:00,ZGNN 031800Z 04003MPS 2800 -DZ BR SCT002 SCT003 OVC023 11/11 Q1025 NOSIG
ZGNN,2015-02-03 19:00,ZGNN 031900Z 06003MPS 040V100 2500 -DZ BR SCT002 SCT003 OVC023 10/10 Q1025 NOSIG
ZGNN,2015-02-03 20:00,ZGNN 032000Z 07002MPS 2500 -DZ BR SCT002 SCT003 OVC023 10/10 Q1025 NOSIG
ZGNN,2015-02-03 21:00,ZGNN 032100Z 09002MPS 3100 -DZ BR SCT002 SCT003 OVC023 10/10 Q1025 BECMG TL2220 3500 -RA BR
ZGNN,2015-02-03 22:00,ZGNN 032200Z 08002MPS 3100 -RA BR SCT002 SCT003 OVC023 09/09 Q1025 NOSIG
ZGNN,2015-02-03 23:00,ZGNN 032300Z VRB01MPS 3500 -RA BR SCT002 SCT003 OVC023 10/10 Q1025 NOSIG
ZGNN,2015-02-04 00:00,ZGNN 040000Z 04002MPS 350V070 3500 -RA BR SCT003 SCT005 OVC023 10/10 Q1026 NOSIG
ZGNN,2015-02-04 01:00,ZGNN 040100Z 34004MPS 5000 -RA BR SCT004 SCT007 OVC023 10/10 Q1027 NOSIG
ZGNN,2015-02-04 02:00,ZGNN 040200Z 35004MPS 7000 -RA SCT007 SCT010 OVC023 10/10 Q1028 NOSIG
ZGNN,2015-02-04 03:00,ZGNN 040300Z 35003MPS 6000 -RA SCT005 SCT010 OVC023 10/10 Q1029 NOSIG
ZGNN,2015-02-04 04:00,ZGNN 040400Z 35003MPS 6000 -RA FEW004 SCT009 OVC023 09/09 Q1028 NOSIG
ZGNN,2015-02-04 05:00,ZGNN 040500Z 35003MPS 320V030 6000 -RA FEW005 SCT009 OVC023 09/09 Q1027 NOSIG
ZGNN,2015-02-04 06:00,ZGNN 040600Z 36004MPS 8000 FEW007 SCT011 OVC023 10/09 Q1026 NOSIG
ZGNN,2015-02-04 07:00,ZGNN 040700Z 36003MPS 9999 SCT010 OVC023 10/09 Q1026 NOSIG
ZGNN,2015-02-04 08:00,ZGNN 040800Z 35004MPS 9999 FEW010 SCT016 OVC026 10/09 Q1025 NOSIG
ZGNN,2015-02-04 09:00,ZGNN 040900Z 36004MPS 9999 SCT013 OVC026 10/08 Q1025 NOSIG
ZGNN,2015-02-04 10:00,ZGNN 041000Z 36003MPS 9999 SCT020 OVC040 10/08 Q1025 NOSIG
ZGNN,2015-02-04 11:00,ZGNN 041100Z 11002MPS 090V160 9999 SCT020 OVC040 09/08 Q1026 NOSIG
ZGNN,2015-02-04 12:00,ZGNN 041200Z 12002MPS 090V180 9999 FEW020 OVC040 09/08 Q1026 NOSIG
ZGNN,2015-02-04 13:00,ZGNN 041300Z 11001MPS 9999 FEW020 OVC040 09/08 Q1027 NOSIG
ZGNN,2015-02-04 14:00,ZGNN 041400Z VRB01MPS 9999 OVC043 09/07 Q1027 NOSIG
ZGNN,2015-02-04 15:00,ZGNN 041500Z VRB01MPS 9999 OVC043 10/08 Q1027 NOSIG
ZGNN,2015-02-04 16:00,ZGNN 041600Z VRB01MPS 9999 OVC040 10/08 Q1027 NOSIG
ZGNN,2015-02-04 17:00,ZGNN 041700Z VRB01MPS 9999 OVC040 10/07 Q1027 NOSIG
ZGNN,2015-02-04 18:00,ZGNN 041800Z 32001MPS 9999 OVC040 09/08 Q1026 NOSIG
ZGNN,2015-02-04 19:00,ZGNN 041900Z VRB01MPS 7000 OVC040 09/08 Q1026 NOSIG
ZGNN,2015-02-04 20:00,ZGNN 042000Z VRB01MPS 7000 OVC040 10/08 Q1026 NOSIG
ZGNN,2015-02-04 21:00,ZGNN 042100Z VRB01MPS 7000 OVC040 10/08 Q1026 NOSIG
ZGNN,2015-02-04 22:00,ZGNN 042200Z 36002MPS 7000 OVC040 10/08 Q1026 NOSIG
ZGNN,2015-02-04 23:00,ZGNN 042300Z 01003MPS 6000 BKN040 10/06 Q1027 NOSIG
ZGNN,2015-02-05 00:00,ZGNN 050000Z 03002MPS 360V070 6000 OVC043 10/06 Q1028 NOSIG
ZGNN,2015-02-05 01:00,ZGNN 050100Z 36002MPS 330V040 5000 BR FEW010 OVC043 10/07 Q1029 NOSIG
ZGNN,2015-02-05 02:00,ZGNN 050200Z VRB01MPS 4500 BR SCT010 OVC040 09/08 Q1029 NOSIG
ZGNN,2015-02-05 03:00,ZGNN 050300Z 34002MPS 320V030 5000 BR OVC033 10/06 Q1030 NOSIG
ZGNN,2015-02-05 04:00,ZGNN 050400Z 35005MPS 6000 FEW016 OVC040 10/05 Q1030 NOSIG
ZGNN,2015-02-05 05:00,ZGNN 050500Z 02006MPS 6000 FEW016 OVC046 10/04 Q1029 NOSIG
ZGNN,2015-02-05 06:00,ZGNN 050600Z 02005MPS 6000 FEW020 OVC046 10/05 Q1028 NOSIG
ZGNN,2015-02-05 07:00,ZGNN 050700Z 36003MPS 6000 FEW020 OVC046 10/05 Q1027 NOSIG
ZGNN,2015-02-05 08:00,ZGNN 050800Z 02002MPS 340V060 5000 HZ FEW020 10/05 Q1026 NOSIG
ZGNN,2015-02-05 09:00,ZGNN 050900Z 02003MPS 5000 HZ FEW020 10/05 Q1026 NOSIG
ZGNN,2015-02-05 10:00,ZGNN 051000Z 10002MPS 080V170 5000 HZ NSC 10/06 Q1026 NOSIG
ZGNN,2015-02-05 11:00,ZGNN 051100Z 08003MPS 060V130 5000 HZ NSC 10/05 Q1026 NOSIG
ZGNN,2015-02-05 12:00,ZGNN 051200Z 09002MPS 040V140 4000 BR NSC 09/05 Q1027 NOSIG
ZGNN,2015-02-05 13:00,ZGNN 051300Z VRB01MPS 4000 BR NSC 09/05 Q1028 NOSIG
ZGNN,2015-02-05 14:00,ZGNN 051400Z VRB01MPS 4000 BR NSC 09/06 Q1028 NOSIG
ZGNN,2015-02-05 15:00,ZGNN 051500Z VRB01MPS 4500 HZ NSC 09/05 Q1028 NOSIG
ZGNN,2015-02-05 16:00,ZGNN 051600Z 34001MPS 4000 BR NSC 09/06 Q1028 NOSIG
ZGNN,2015-02-05 17:00,ZGNN 051700Z VRB01MPS 4000 BR NSC 09/07 Q1027 NOSIG
ZGNN,2015-02-05 18:00,ZGNN 051800Z VRB01MPS 4000 BR NSC 09/07 Q1027 NOSIG
ZGNN,2015-02-05 19:00,ZGNN 051900Z 27002MPS 4000 BR NSC 08/07 Q1026 NOSIG
ZGNN,2015-02-05 20:00,ZGNN 052000Z 30001MPS 4000 BR NSC 07/05 Q1026 NOSIG
ZGNN,2015-02-05 21:00,ZGNN 052100Z 20001MPS 4000 BR NSC 06/05 Q1025 NOSIG
ZGNN,2015-02-05 22:00,ZGNN 052200Z 26001MPS 3500 BR NSC 06/05 Q1026 NOSIG
ZGNN,2015-02-05 23:00,ZGNN 052300Z 00000MPS 3500 BR NSC 06/06 Q1026 NOSIG
ZGNN,2015-02-06 00:00,ZGNN 060000Z 00000MPS 3100 BR NSC 07/06 Q1027 NOSIG
ZGNN,2015-02-06 01:00,ZGNN 060100Z VRB01MPS 3000 BR NSC 08/07 Q1028 NOSIG
ZGNN,2015-02-06 02:00,ZGNN 060200Z VRB01MPS 4000 HZ NSC 09/05 Q1028 NOSIG
ZGNN,2015-02-06 03:00,ZGNN 060300Z VRB01MPS 5000 HZ NSC 12/02 Q1028 NOSIG
ZGNN,2015-02-06 04:00,ZGNN 060400Z 11002MPS 050V170 5000 HZ NSC 13/01 Q1027 NOSIG
ZGNN,2015-02-06 05:00,ZGNN 060500Z 04002MPS 330V090 6000 NSC 14/00 Q1026 NOSIG
ZGNN,2015-02-06 06:00,ZGNN 060600Z VRB02MPS 7000 NSC 16/01 Q1024 NOSIG
ZGNN,2015-02-06 07:00,ZGNN 060700Z 10002MPS 040V170 8000 NSC 16/M01 Q1022 NOSIG
ZGNN,2015-02-06 08:00,ZGNN 060800Z VRB01MPS 8000 NSC 16/M00 Q1021 NOSIG
ZGNN,2015-02-06 09:00,ZGNN 060900Z VRB01MPS 7000 NSC 16/00 Q1021 NOSIG
ZGNN,2015-02-06 10:00,ZGNN 061000Z 13002MPS 100V180 7000 NSC 15/02 Q1021 NOSIG
ZGNN,2015-02-06 11:00,ZGNN 061100Z 10002MPS 090V170 7000 NSC 14/04 Q1020 NOSIG
ZGNN,2015-02-06 12:00,ZGNN 061200Z 01002MPS 330V050 6000 NSC 13/05 Q1021 NOSIG
ZGNN,2015-02-06 13:00,ZGNN 061300Z 06002MPS 030V170 5000 HZ NSC 13/07 Q1021 NOSIG
ZGNN,2015-02-06 14:00,ZGNN 061400Z 07002MPS 030V140 6000 NSC 13/04 Q1022 NOSIG
ZGNN,2015-02-06 15:00,ZGNN 061500Z 09003MPS 050V200 6000 NSC 13/05 Q1021 NOSIG
ZGNN,2015-02-06 16:00,ZGNN 061600Z 10003MPS 080V160 5000 HZ NSC 12/06 Q1021 NOSIG
ZGNN,2015-02-06 17:00,ZGNN 061700Z 06002MPS 020V080 5000 HZ NSC 12/06 Q1021 NOSIG
ZGNN,2015-02-06 18:00,ZGNN 061800Z 07004MPS 5000 HZ NSC 12/06 Q1021 NOSIG
ZGNN,2015-02-06 19:00,ZGNN 061900Z 08004MPS 5000 HZ NSC 12/05 Q1020 NOSIG
ZGNN,2015-02-06 20:00,ZGNN 062000Z 07004MPS 5000 HZ BKN026 11/06 Q1020 NOSIG
ZGNN,2015-02-06 21:00,ZGNN 062100Z 06003MPS 5000 HZ BKN026 11/05 Q1020 NOSIG
ZGNN,2015-02-06 22:00,ZGNN 062200Z 06003MPS 5000 HZ BKN023 11/05 Q1020 NOSIG
ZGNN,2015-02-06 23:00,ZGNN 062300Z 07003MPS 5000 HZ BKN023 11/05 Q1021 NOSIG
ZGNN,2015-02-07 00:00,ZGNN 070000Z 04002MPS 020V080 4000 HZ BKN020 11/06 Q1022 NOSIG
ZGNN,2015-02-07 01:00,ZGNN 070100Z 07003MPS 4000 HZ BKN020 12/05 Q1023 NOSIG
ZGNN,2015-02-07 02:00,ZGNN 070200Z 09003MPS 070V140 3500 HZ SCT016 BKN023 12/07 Q1024 NOSIG
ZGNN,2015-02-07 03:00,ZGNN 070300Z 09005MPS 2000 BR SCT016 OVC023 11/08 Q1024 NOSIG
ZGNN,2015-02-07 04:00,ZGNN 070400Z 06003MPS 1800 BR FEW007 SCT016 OVC023 10/08 Q1024 NOSIG
ZGNN,2015-02-07 05:00,ZGNN 070500Z 06003MPS 030V090 1600 -DZ BR FEW005 SCT009 OVC023 10/09 Q1023 NOSIG
ZGNN,2015-02-07 06:00,ZGNN 070600Z 10002MPS 080V140 2000 BR FEW009 OVC033 11/08 Q1022 NOSIG
ZGNN,2015-02-07 07:00,ZGNN 070700Z VRB01MPS 2000 BR FEW010 OVC033 12/09 Q1022 NOSIG
ZGNN,2015-02-07 08:00,ZGNN 070800Z 05004MPS 1800 BR FEW010 OVC033 11/09 Q1022 NOSIG
ZGNN,2015-02-07 09:00,ZGNN 070900Z 05003MPS 010V090 1800 BR FEW010 OVC033 11/09 Q1022 NOSIG
ZGNN,2015-02-07 10:00,ZGNN 071000Z 05003MPS 1700 BR FEW010 OVC030 11/09 Q1022 NOSIG
ZGNN,2015-02-07 11:00,ZGNN 071100Z 35002MPS 320V020 2500 BR FEW010 OVC030 11/09 Q1023 NOSIG
ZGNN,2015-02-07 12:00,ZGNN 071200Z VRB01MPS 2500 BR OVC030 11/09 Q1023 BECMG TL1340 3200 BR
ZGNN,2015-02-07 13:00,ZGNN 071300Z 29002MPS 260V350 2800 BR OVC030 12/09 Q1024 BECMG TL1420 3200 BR
ZGNN,2015-02-07 14:00,ZGNN 071400Z VRB01MPS 3200 BR OVC036 12/09 Q1025 NOSIG
ZGNN,2015-02-07 15:00,ZGNN 071500Z 04002MPS 360V060 3200 BR OVC036 12/09 Q1025 NOSIG
ZGNN,2015-02-07 16:00,ZGNN 071600Z 21001MPS 3200 BR OVC036 11/10 Q1026 BECMG TL1720 2300 BR
ZGNN,2015-02-07 17:00,ZGNN 071700Z 18001MPS 2500 BR OVC036 11/10 Q1026 NOSIG
ZGNN,2015-02-07 18:00,ZGNN 071800Z 18001MPS 2000 BR OVC036 11/10 Q1026 NOSIG
ZGNN,2015-02-07 19:00,ZGNN 071900Z 23001MPS 2000 BR OVC036 11/10 Q1025 NOSIG
ZGNN,2015-02-07 20:00,ZGNN 072000Z VRB01MPS 2000 BR OVC036 11/10 Q1025 NOSIG
ZGNN,2015-02-07 21:00,ZGNN 072100Z 02001MPS 2500 BR NSC 10/09 Q1025 NOSIG
ZGNN,2015-02-07 22:00,ZGNN 072200Z VRB01MPS 2500 BR NSC 10/09 Q1025 NOSIG
ZGNN,2015-02-07 23:00,ZGNN 072300Z VRB01MPS 2800 BR NSC 09/08 Q1026 BECMG TL0040 3500 BR
ZGNN,2015-02-08 00:00,ZGNN 080000Z VRB01MPS 2000 BR NSC 08/08 Q1026 BECMG TL0130 3500 BR
ZGNN,2015-02-08 01:00,ZGNN 080100Z VRB01MPS 1700 R05/1200V1300N BR NSC 10/10 Q1026 BECMG TL0150 3500 BR
ZGNN,2015-02-08 02:00,ZGNN 080200Z VRB01MPS 3100 HZ NSC 14/07 Q1027 NOSIG
ZGNN,2015-02-08 03:00,ZGNN 080300Z 09002MPS 360V160 5000 HZ NSC 15/04 Q1027 NOSIG
ZGNN,2015-02-08 04:00,ZGNN 080400Z 07003MPS 030V140 7000 NSC 17/03 Q1026 NOSIG
ZGNN,2015-02-08 05:00,ZGNN 080500Z 36003MPS 260V060 7000 NSC 17/02 Q1025 NOSIG
ZGNN,2015-02-08 06:00,ZGNN 080600Z 01003MPS 320V070 8000 NSC 18/03 Q1023 NOSIG
ZGNN,2015-02-08 07:00,ZGNN 080700Z 10002MPS 060V130 CAVOK 18/01 Q1022 NOSIG
ZGNN,2015-02-08 08:00,ZGNN 080800Z 07003MPS 010V120 CAVOK 18/02 Q1021 NOSIG
ZGNN,2015-02-08 09:00,ZGNN 080900Z 05003MPS CAVOK 18/02 Q1021 NOSIG
ZGNN,2015-02-08 10:00,ZGNN 081000Z 07003MPS CAVOK 17/02 Q1021 NOSIG
ZGNN,2015-02-08 11:00,ZGNN 081100Z 07002MPS 7000 NSC 15/04 Q1022 NOSIG
ZGNN,2015-02-08 12:00,ZGNN 081200Z 05003MPS 6000 NSC 14/05 Q1022 NOSIG
ZGNN,2015-02-08 13:00,ZGNN 081300Z 02002MPS 350V060 6000 NSC 13/06 Q1023 NOSIG
ZGNN,2015-02-08 14:00,ZGNN 081400Z VRB01MPS 5000 HZ NSC 11/07 Q1023 NOSIG
ZGNN,2015-02-08 15:00,ZGNN 081500Z 36001MPS 5000 HZ NSC 11/06 Q1024 NOSIG
ZGNN,2015-02-08 16:00,ZGNN 081600Z 06001MPS 5000 HZ NSC 12/07 Q1024 NOSIG
ZGNN,2015-02-08 17:00,ZGNN 081700Z VRB01MPS 5000 HZ NSC 12/07 Q1024 NOSIG
ZGNN,2015-02-08 18:00,ZGNN 081800Z 35001MPS 5000 HZ NSC 12/07 Q1024 NOSIG
ZGNN,2015-02-08 19:00,ZGNN 081900Z VRB01MPS 6000 NSC 13/08 Q1023 NOSIG
ZGNN,2015-02-08 20:00,ZGNN 082000Z VRB01MPS 5000 BR NSC 12/09 Q1023 NOSIG
ZGNN,2015-02-08 21:00,ZGNN 082100Z 21001MPS 5000 BR NSC 12/09 Q1023 NOSIG
ZGNN,2015-02-08 22:00,ZGNN 082200Z 25001MPS 5000 BR NSC 12/09 Q1023 NOSIG
ZGNN,2015-02-08 23:00,ZGNN 082300Z 08003MPS 6000 NSC 13/04 Q1024 NOSIG
ZGNN,2015-02-09 00:00,ZGNN 090000Z 10002MPS 060V170 5000 HZ NSC 13/05 Q1025 NOSIG
ZGNN,2015-02-09 01:00,ZGNN 090100Z 08003MPS 040V140 5000 HZ NSC 13/04 Q1025 NOSIG
ZGNN,2015-02-09 02:00,ZGNN 090200Z 11003MPS 090V150 5000 HZ NSC 13/04 Q1026 NOSIG
ZGNN,2015-02-09 03:00,ZGNN 090300Z 11002MPS 070V180 6000 NSC 14/05 Q1026 NOSIG
ZGNN,2015-02-09 04:00,ZGNN 090400Z 08003MPS 040V140 6000 NSC 15/05 Q1026 NOSIG
ZGNN,2015-02-09 05:00,ZGNN 090500Z 09003MPS 060V160 7000 NSC 16/05 Q1025 NOSIG
ZGNN,2015-02-09 06:00,ZGNN 090600Z 12002MPS 070V160 8000 NSC 17/06 Q1024 NOSIG
ZGNN,2015-02-09 07:00,ZGNN 090700Z 11002MPS 080V140 7000 NSC 17/04 Q1023 NOSIG
ZGNN,2015-02-09 08:00,ZGNN 090800Z 12002MPS 080V180 7000 NSC 18/05 Q1022 NOSIG
ZGNN,2015-02-09 09:00,ZGNN 090900Z VRB02MPS 7000 NSC 17/06 Q1022 NOSIG
ZGNN,2015-02-09 10:00,ZGNN 091000Z 04002MPS 020V080 7000 NSC 17/06 Q1022 NOSIG
ZGNN,2015-02-09 11:00,ZGNN 091100Z 36002MPS 5000 HZ NSC 16/08 Q1022 NOSIG
ZGNN,2015-02-09 12:00,ZGNN 091200Z VRB01MPS 5000 HZ NSC 15/08 Q1022 NOSIG
ZGNN,2015-02-09 13:00,ZGNN 091300Z VRB01MPS 5000 HZ NSC 15/09 Q1023 NOSIG
ZGNN,2015-02-09 14:00,ZGNN 091400Z 05002MPS 5000 HZ NSC 14/09 Q1023 NOSIG
ZGNN,2015-02-09 15:00,ZGNN 091500Z 05001MPS 5000 HZ NSC 15/08 Q1023 NOSIG
ZGNN,2015-02-09 16:00,ZGNN 091600Z 05002MPS 5000 HZ NSC 15/07 Q1023 NOSIG
ZGNN,2015-02-09 17:00,ZGNN 091700Z 05002MPS 5000 HZ NSC 14/07 Q1023 NOSIG
ZGNN,2015-02-09 18:00,ZGNN 091800Z 07003MPS 5000 HZ NSC 15/06 Q1022 NOSIG
ZGNN,2015-02-09 19:00,ZGNN 091900Z VRB01MPS 6000 NSC 14/06 Q1021 NOSIG
ZGNN,2015-02-09 20:00,ZGNN 092000Z VRB01MPS 6000 SCT023 BKN040 14/05 Q1021 NOSIG
ZGNN,2015-02-09 21:00,ZGNN 092100Z 08002MPS 5000 HZ SCT023 BKN036 14/06 Q1021 NOSIG
ZGNN,2015-02-09 22:00,ZGNN 092200Z 08003MPS 060V120 5000 HZ SCT023 BKN036 14/06 Q1021 NOSIG
ZGNN,2015-02-09 23:00,ZGNN 092300Z 09003MPS 5000 HZ SCT023 BKN033 14/05 Q1022 NOSIG
ZGNN,2015-02-10 00:00,ZGNN 100000Z 09003MPS 5000 HZ SCT023 BKN036 14/05 Q1022 NOSIG
ZGNN,2015-02-10 01:00,ZGNN 100100Z 09003MPS 070V160 5000 HZ SCT020 OVC040 13/05 Q1023 NOSIG
ZGNN,2015-02-10 02:00,ZGNN 100200Z 09003MPS 060V180 5000 HZ SCT020 OVC040 13/05 Q1023 NOSIG
ZGNN,2015-02-10 03:00,ZGNN 100300Z 08003MPS 030V120 5000 HZ FEW020 OVC040 14/05 Q1023 NOSIG
ZGNN,2015-02-10 04:00,ZGNN 100400Z 08003MPS 5000 HZ FEW020 OVC040 14/06 Q1022 NOSIG
ZGNN,2015-02-10 05:00,ZGNN 100500Z 09003MPS 4000 HZ FEW020 OVC036 14/07 Q1020 NOSIG
ZGNN,2015-02-10 06:00,ZGNN 100600Z 08003MPS 4000 HZ SCT020 OVC033 14/07 Q1019 NOSIG
ZGNN,2015-02-10 07:00,ZGNN 100700Z 09003MPS 050V190 4000 HZ SCT016 OVC033 15/07 Q1018 NOSIG
ZGNN,2015-02-10 08:00,ZGNN 100800Z 06003MPS 4000 HZ SCT020 OVC033 15/08 Q1017 NOSIG
ZGNN,2015-02-10 09:00,ZGNN 100900Z 08004MPS 3500 HZ SCT020 OVC033 15/08 Q1017 BECMG TL1050 2500 BR
ZGNN,2015-02-10 10:00,ZGNN 101000Z 06004MPS 2900 HZ SCT020 OVC033 14/07 Q1017 BECMG TL1050 3500 HZ
ZGNN,2015-02-10 11:00,ZGNN 101100Z 05004MPS 4000 HZ SCT020 OVC033 14/07 Q1017 NOSIG
ZGNN,2015-02-10 12:00,ZGNN 101200Z 06003MPS 020V120 4500 HZ SCT020 OVC033 14/06 Q1018 NOSIG
ZGNN,2015-02-10 13:00,ZGNN 101300Z 07002MPS 350V120 4500 HZ SCT020 OVC040 14/07 Q1018 NOSIG
ZGNN,2015-02-10 14:00,ZGNN 101400Z 05004MPS 4000 HZ SCT020 OVC040 13/07 Q1019 NOSIG
ZGNN,2015-02-10 15:00,ZGNN 101500Z 04002MPS 4000 HZ SCT020 OVC040 13/07 Q1019 NOSIG
ZGNN,2015-02-10 16:00,ZGNN 101600Z 04002MPS 4000 HZ SCT020 OVC040 13/07 Q1019 NOSIG
ZGNN,2015-02-10 17:00,ZGNN 101700Z 05002MPS 4000 HZ SCT020 OVC040 13/08 Q1019 NOSIG
ZGNN,2015-02-10 18:00,ZGNN 101800Z 04003MPS 3100 BR SCT020 OVC040 13/10 Q1019 NOSIG
ZGNN,2015-02-10 19:00,ZGNN 101900Z 01003MPS 3100 BR SCT020 OVC040 13/11 Q1018 BECMG TL1940 2500 BR
ZGNN,2015-02-10 20:00,ZGNN 102000Z 02003MPS 2500 BR SCT020 OVC040 12/10 Q1018 NOSIG
ZGNN,2015-02-10 21:00,ZGNN 102100Z 35003MPS 2000 -RA BR SCT013 OVC033 12/10 Q1018 BECMG TL2240 1400 BR
ZGNN,2015-02-10 22:00,ZGNN 102200Z 36004MPS 1700 -RA BR FEW005 SCT013 OVC030 11/10 Q1019 NOSIG
ZGNN,2015-02-10 23:00,ZGNN 102300Z 36003MPS 1700 -RA BR SCT004 SCT009 OVC030 10/10 Q1020 NOSIG
ZGNN,2015-02-11 00:00,ZGNN 110000Z 01003MPS 1600 -RA BR SCT004 SCT007 OVC030 10/10 Q1021 BECMG TL0040 1200 -RA BR
ZGNN,2015-02-11 01:00,ZGNN 110100Z 01002MPS 1700 -RA BR SCT004 SCT007 OVC030 10/10 Q1022 NOSIG
ZGNN,2015-02-11 02:00,ZGNN 110200Z 35003MPS 1600 R05/1400N -RA BR SCT004 SCT007 OVC030 10/10 Q1022 BECMG TL0240 1200 -RA BR
ZGNN,2015-02-11 03:00,ZGNN 110300Z 35002MPS 320V020 1600 -RA BR FEW003 SCT006 OVC030 11/11 Q1023 NOSIG
ZGNN,2015-02-11 04:00,ZGNN 110400Z 33002MPS 300V010 2000 -RA BR FEW004 SCT006 OVC030 11/11 Q1022 NOSIG
ZGNN,2015-02-11 05:00,ZGNN 110500Z 35002MPS 2800 BR FEW006 SCT009 OVC030 11/11 Q1021 BECMG TL0600 3200 BR
ZGNN,2015-02-11 06:00,ZGNN 110600Z 34002MPS 310V010 5000 BR SCT010 OVC030 12/10 Q1020 NOSIG
ZGNN,2015-02-11 07:00,ZGNN 110700Z 36003MPS 330V030 6000 FEW010 BKN026 13/11 Q1019 NOSIG
ZGNN,2015-02-11 08:00,ZGNN 110800Z 02003MPS 7000 SCT013 OVC026 13/10 Q1019 NOSIG
ZGNN,2015-02-11 09:00,ZGNN 110900Z 02002MPS 350V050 6000 SCT016 OVC030 13/10 Q1019 NOSIG
ZGNN,2015-02-11 10:00,ZGNN 111000Z 36002MPS 6000 SCT016 13/10 Q1019 NOSIG
ZGNN,2015-02-11 11:00,ZGNN 111100Z VRB01MPS 5000 BR NSC 13/11 Q1020 NOSIG
ZGNN,2015-02-11 12:00,ZGNN 111200Z VRB01MPS 5000 BR NSC 13/11 Q1020 NOSIG
ZGNN,2015-02-11 13:00,ZGNN 111300Z VRB01MPS 5000 BR NSC 12/11 Q1020 NOSIG
ZGNN,2015-02-11 14:00,ZGNN 111400Z VRB01MPS 4000 BR NSC 12/11 Q1021 NOSIG
ZGNN,2015-02-11 15:00,ZGNN 111500Z VRB01MPS 3500 BR NSC 10/10 Q1021 BECMG TL1630 2500 BR
ZGNN,2015-02-11 16:00,ZGNN 111600Z VRB01MPS 3500 BR NSC 09/09 Q1021 BECMG TL1700 2500 BR
ZGNN,2015-02-11 17:00,ZGNN 111700Z VRB01MPS 2900 BR NSC 09/09 Q1020 BECMG TL1800 3500 BR
ZGNN,2015-02-11 18:00,ZGNN 111800Z VRB01MPS 3200 BR NSC 08/08 Q1020 NOSIG
ZGNN,2015-02-11 19:00,ZGNN 111900Z 00000MPS 0900 R23/0750N FG NSC 08/08 Q1020 NOSIG
ZGNN,2015-02-11 20:00,ZGNN 112000Z VRB01MPS 0900 R23/0325V0400D FG FEW002 07/07 Q1020 NOSIG
ZGNN,2015-02-11 21:00,ZGNN 112100Z 22001MPS 0800 R23/0550V0800U FG SCT002 07/07 Q1019 NOSIG
ZGNN,2015-02-11 22:00,ZGNN 112200Z VRB01MPS 0400 R23/0350V0500N FG SCT002 07/07 Q1019 BECMG TL2340 1100 BR
ZGNN,2015-02-11 23:00,ZGNN 112300Z 00000MPS 0300 R23/0325V0450N FG SCT002 07/07 Q1020 BECMG TL2350 0600 FG
ZGNN,2015-02-12 00:00,ZGNN 120000Z 03001MPS 0200 R05/0300N FG VV002 07/07 Q1020 BECMG TL0150 0800 FG
ZGNN,2015-02-12 01:00,ZGNN 120100Z VRB01MPS 0700 R05/1300U FG SCT001 09/09 Q1021 BECMG TL0120 0800 FG
ZGNN,2015-02-12 02:00,ZGNN 120200Z VRB01MPS 2500 BR FEW003 11/11 Q1021 BECMG TL0300 3500 BR
ZGNN,2015-02-12 03:00,ZGNN 120300Z VRB01MPS 3300 BR FEW010 13/13 Q1021 NOSIG
ZGNN,2015-02-12 04:00,ZGNN 120400Z VRB01MPS 5000 HZ FEW013 17/11 Q1020 NOSIG
ZGNN,2015-02-12 05:00,ZGNN 120500Z 06002MPS 360V150 7000 NSC 18/09 Q1019 NOSIG
ZGNN,2015-02-12 06:00,ZGNN 120600Z 06002MPS 020V100 7000 NSC 19/10 Q1018 NOSIG
ZGNN,2015-02-12 07:00,ZGNN 120700Z VRB02MPS 7000 NSC 20/09 Q1016 NOSIG
ZGNN,2015-02-12 08:00,ZGNN 120800Z VRB01MPS 7000 NSC 20/09 Q1015 NOSIG
ZGNN,2015-02-12 09:00,ZGNN 120900Z 11002MPS 090V180 7000 NSC 19/11 Q1015 NOSIG
ZGNN,2015-02-12 10:00,ZGNN 121000Z 09002MPS 070V150 7000 NSC 19/09 Q1015 NOSIG
ZGNN,2015-02-12 11:00,ZGNN 121100Z 08003MPS 040V180 5000 HZ NSC 18/08 Q1015 NOSIG
ZGNN,2015-02-12 12:00,ZGNN 121200Z VRB01MPS 5000 HZ NSC 15/10 Q1015 NOSIG
ZGNN,2015-02-12 13:00,ZGNN 121300Z VRB01MPS 5000 BR NSC 14/10 Q1016 NOSIG
ZGNN,2015-02-12 14:00,ZGNN 121400Z VRB01MPS 4500 BR NSC 13/11 Q1016 NOSIG
ZGNN,2015-02-12 15:00,ZGNN 121500Z VRB01MPS 4500 BR NSC 12/10 Q1017 NOSIG
ZGNN,2015-02-12 16:00,ZGNN 121600Z 01002MPS 4500 BR NSC 12/10 Q1017 NOSIG
ZGNN,2015-02-12 17:00,ZGNN 121700Z VRB01MPS 4500 BR SCT046 12/10 Q1016 NOSIG
ZGNN,2015-02-12 18:00,ZGNN 121800Z VRB01MPS 4000 BR SCT046 11/10 Q1016 NOSIG
ZGNN,2015-02-12 19:00,ZGNN 121900Z 06002MPS 4000 BR BKN046 13/11 Q1015 NOSIG
ZGNN,2015-02-12 20:00,ZGNN 122000Z 03001MPS 4000 BR BKN046 13/12 Q1015 NOSIG
ZGNN,2015-02-12 21:00,ZGNN 122100Z 04001MPS 4000 BR BKN046 13/12 Q1015 NOSIG
ZGNN,2015-02-12 22:00,ZGNN 122200Z 04002MPS 4000 BR BKN040 14/12 Q1015 NOSIG
ZGNN,2015-02-12 23:00,ZGNN 122300Z 03002MPS 4000 BR BKN040 14/12 Q1015 NOSIG
ZGNN,2015-02-13 00:00,ZGNN 130000Z 03002MPS 3200 BR OVC036 14/12 Q1016 NOSIG
ZGNN,2015-02-13 01:00,ZGNN 130100Z 05002MPS 3200 BR OVC036 15/13 Q1017 NOSIG
ZGNN,2015-02-13 02:00,ZGNN 130200Z 04002MPS 3200 BR SCT016 OVC036 15/13 Q1018 NOSIG
ZGNN,2015-02-13 03:00,ZGNN 130300Z VRB02MPS 3200 BR SCT016 OVC036 16/13 Q1018 NOSIG
ZGNN,2015-02-13 04:00,ZGNN 130400Z 14002MPS 070V230 3500 BR SCT023 OVC040 17/13 Q1018 NOSIG
ZGNN,2015-02-13 05:00,ZGNN 130500Z 13003MPS 110V180 4000 BR SCT023 OVC040 18/13 Q1017 NOSIG
ZGNN,2015-02-13 06:00,ZGNN 130600Z 14003MPS 4500 BR SCT020 OVC036 17/14 Q1016 NOSIG
ZGNN,2015-02-13 07:00,ZGNN 130700Z 13003MPS 110V180 4000 BR SCT020 OVC036 17/13 Q1015 NOSIG
ZGNN,2015-02-13 08:00,ZGNN 130800Z 13002MPS 3100 BR SCT013 OVC036 17/13 Q1015 NOSIG
ZGNN,2015-02-13 09:00,ZGNN 130900Z 15002MPS 130V200 3100 BR SCT013 OVC036 16/14 Q1015 BECMG TL0940 2500 BR
ZGNN,2015-02-13 10:00,ZGNN 131000Z VRB01MPS 2500 BR SCT023 OVC040 16/14 Q1015 NOSIG
ZGNN,2015-02-13 11:00,ZGNN 131100Z 00000MPS 2800 BR SCT026 OVC040 16/14 Q1015 NOSIG
ZGNN,2015-02-13 12:00,ZGNN 131200Z 04002MPS 2500 BR SCT026 OVC040 16/13 Q1016 NOSIG
ZGNN,2015-02-13 13:00,ZGNN 131300Z VRB01MPS 2500 BR SCT026 OVC040 16/14 Q1016 NOSIG
ZGNN,2015-02-13 14:00,ZGNN 131400Z VRB01MPS 2600 BR SCT023 OVC040 16/14 Q1017 NOSIG
ZGNN,2015-02-13 15:00,ZGNN 131500Z 02002MPS 2500 BR FEW016 OVC040 16/14 Q1017 NOSIG
ZGNN,2015-02-13 16:00,ZGNN 131600Z VRB01MPS 2500 BR SCT016 OVC040 16/14 Q1016 NOSIG
ZGNN,2015-02-13 17:00,ZGNN 131700Z 09001MPS 2500 BR SCT015 OVC040 16/14 Q1015 NOSIG
ZGNN,2015-02-13 18:00,ZGNN 131800Z 07001MPS 2400 BR FEW015 16/14 Q1015 NOSIG
ZGNN,2015-02-13 19:00,ZGNN 131900Z 05002MPS 2000 BR SCT016 OVC040 15/14 Q1014 NOSIG
ZGNN,2015-02-13 20:00,ZGNN 132000Z 06001MPS 2000 BR SCT016 OVC040 15/14 Q1014 NOSIG
ZGNN,2015-02-13 21:00,ZGNN 132100Z 09002MPS 2000 BR SCT016 OVC040 15/14 Q1013 NOSIG
ZGNN,2015-02-13 22:00,ZGNN 132200Z 10001MPS 2000 BR SCT013 OVC033 15/14 Q1013 NOSIG
ZGNN,2015-02-13 23:00,ZGNN 132300Z 10002MPS 2100 BR SCT013 OVC033 16/14 Q1014 NOSIG
ZGNN,2015-02-14 00:00,ZGNN 140000Z 12004MPS 1600 R05/1400N -RA BR SCT005 SCT007 OVC026 15/15 Q1014 NOSIG
ZGNN,2015-02-14 01:00,ZGNN 140100Z 14003MPS 1800 -RA BR SCT004 SCT007 OVC026 16/16 Q1015 NOSIG
ZGNN,2015-02-14 02:00,ZGNN 140200Z 15002MPS 120V190 2800 -RA BR SCT004 SCT007 OVC026 16/16 Q1016 BECMG TL0340 3200 -RA BR
ZGNN,2015-02-14 03:00,ZGNN 140300Z 14004MPS 3500 -RA BR SCT005 SCT008 OVC026 17/17 Q1016 NOSIG
ZGNN,2015-02-14 04:00,ZGNN 140400Z 11003MPS 080V180 5000 -RA BR FEW004 SCT008 OVC026 17/17 Q1015 NOSIG
ZGNN,2015-02-14 05:00,ZGNN 140500Z 15003MPS 120V190 5000 -RA BR SCT007 OVC030 17/17 Q1014 NOSIG
ZGNN,2015-02-14 06:00,ZGNN 140600Z 14003MPS 120V180 4000 -RA BR SCT007 OVC026 17/17 Q1013 NOSIG
ZGNN,2015-02-14 07:00,ZGNN 140700Z 13003MPS 100V170 4000 -RA BR SCT007 OVC026 17/17 Q1013 NOSIG
ZGNN,2015-02-14 08:00,ZGNN 140800Z 15004MPS 120V190 5000 -RA BR SCT007 OVC026 17/17 Q1012 NOSIG
ZGNN,2015-02-14 09:00,ZGNN 140900Z 15003MPS 7000 -RA SCT009 OVC026 17/17 Q1012 NOSIG
ZGNN,2015-02-14 10:00,ZGNN 141000Z 15003MPS 120V210 7000 -RA SCT009 OVC026 17/16 Q1012 NOSIG
ZGNN,2015-02-14 11:00,ZGNN 141100Z VRB01MPS 6000 -RA SCT010 OVC033 17/16 Q1012 NOSIG
ZGNN,2015-02-14 12:00,ZGNN 141200Z 12002MPS 090V180 6000 FEW013 16/16 Q1013 NOSIG
ZGNN,2015-02-14 13:00,ZGNN 141300Z VRB01MPS 4000 BR SCT010 17/16 Q1014 NOSIG
ZGNN,2015-02-14 14:00,ZGNN 141400Z 36001MPS 3100 BR SCT008 16/15 Q1015 BECMG TL1530 2500 BR
ZGNN,2015-02-14 15:00,ZGNN 141500Z VRB01MPS 2800 BR SCT008 16/16 Q1014 NOSIG
ZGNN,2015-02-14 16:00,ZGNN 141600Z VRB01MPS 2800 BR SCT007 16/16 Q1015 NOSIG
ZGNN,2015-02-14 17:00,ZGNN 141700Z VRB01MPS 2000 BR SCT007 16/16 Q1015 BECMG TL1840 1300 BR
ZGNN,2015-02-14 18:00,ZGNN 141800Z VRB01MPS 2500 BR SCT007 17/17 Q1014 NOSIG
ZGNN,2015-02-14 19:00,ZGNN 141900Z 00000MPS 2000 BR SCT006 17/17 Q1014 NOSIG
ZGNN,2015-02-14 20:00,ZGNN 142000Z VRB01MPS 2500 BR SCT005 17/17 Q1014 NOSIG
ZGNN,2015-02-14 21:00,ZGNN 142100Z 15003MPS 2000 BR FEW005 SCT009 17/17 Q1014 NOSIG
ZGNN,2015-02-14 22:00,ZGNN 142200Z 15002MPS 2000 BR FEW003 SCT006 17/17 Q1014 NOSIG
ZGNN,2015-02-14 23:00,ZGNN 142300Z 16002MPS 2500 BR FEW005 SCT008 17/17 Q1014 BECMG TL0030 3500 BR
ZGNN,2015-02-15 00:00,ZGNN 150000Z 15003MPS 120V180 2800 BR FEW005 SCT007 18/18 Q1015 BECMG TL0130 4000 BR
ZGNN,2015-02-15 01:00,ZGNN 150100Z 14002MPS 110V180 3200 BR FEW006 SCT009 18/18 Q1016 NOSIG
ZGNN,2015-02-15 02:00,ZGNN 150200Z 16003MPS 120V190 4500 BR FEW006 SCT009 19/18 Q1017 NOSIG
ZGNN,2015-02-15 03:00,ZGNN 150300Z 14004MPS 110V180 6000 SCT010 BKN040 20/18 Q1017 NOSIG
ZGNN,2015-02-15 04:00,ZGNN 150400Z 12003MPS 080V180 6000 SCT013 BKN040 21/18 Q1016 NOSIG
ZGNN,2015-02-15 05:00,ZGNN 150500Z 10003MPS 070V160 6000 SCT015 BKN040 22/18 Q1015 NOSIG
ZGNN,2015-02-15 06:00,ZGNN 150600Z 10002MPS 040V130 6000 SCT016 SCT040 23/19 Q1014 NOSIG
ZGNN,2015-02-15 07:00,ZGNN 150700Z 09003MPS 050V130 7000 SCT016 SCT040 23/19 Q1013 NOSIG
ZGNN,2015-02-15 08:00,ZGNN 150800Z 06003MPS 8000 SCT020 SCT040 24/19 Q1013 NOSIG
ZGNN,2015-02-15 09:00,ZGNN 150900Z 05004MPS 020V100 7000 SCT023 SCT040 24/19 Q1013 NOSIG
ZGNN,2015-02-15 10:00,ZGNN 151000Z 07004MPS 8000 SCT033 23/19 Q1013 NOSIG
ZGNN,2015-02-15 11:00,ZGNN 151100Z 07003MPS 7000 SCT030 22/19 Q1014 NOSIG
ZGNN,2015-02-15 12:00,ZGNN 151200Z 08003MPS 020V120 6000 SCT026 21/18 Q1014 NOSIG
ZGNN,2015-02-15 13:00,ZGNN 151300Z 06003MPS 030V140 6000 SCT023 20/18 Q1016 NOSIG
ZGNN,2015-02-15 14:00,ZGNN 151400Z VRB01MPS 5000 BR SCT023 20/18 Q1016 NOSIG
ZGNN,2015-02-15 15:00,ZGNN 151500Z VRB01MPS 4000 BR FEW023 18/17 Q1017 NOSIG
ZGNN,2015-02-15 16:00,ZGNN 151600Z 02002MPS 4000 BR NSC 17/17 Q1017 BECMG TL1750 2500 BR
ZGNN,2015-02-15 17:00,ZGNN 151700Z 03002MPS 3500 BR NSC 18/18 Q1017 BECMG TL1800 2500 BR
ZGNN,2015-02-15 18:00,ZGNN 151800Z 01001MPS 2800 BR FEW043 17/17 Q1017 NOSIG
ZGNN,2015-02-15 19:00,ZGNN 151900Z 02001MPS 2800 BR FEW043 17/17 Q1016 NOSIG
ZGNN,2015-02-15 20:00,ZGNN 152000Z 02001MPS 4000 BR SCT013 17/17 Q1016 NOSIG
ZGNN,2015-02-15 21:00,ZGNN 152100Z 03003MPS 3500 BR SCT013 17/17 Q1016 NOSIG
ZGNN,2015-02-15 22:00,ZGNN 152200Z 05002MPS 2200 BR PRFG SCT013 16/16 Q1017 NOSIG
ZGNN,2015-02-15 23:00,ZGNN 152300Z 03002MPS 2500 BR SCT013 17/17 Q1017 BECMG TL0040 4000 BR
ZGNN,2015-02-16 00:00,ZGNN 160000Z VRB01MPS 2200 BR SCT016 17/17 Q1018 BECMG TL0040 4000 BR
ZGNN,2015-02-16 01:00,ZGNN 160100Z VRB01MPS 2800 BR SCT020 18/18 Q1019 BECMG TL0200 4000 BR
ZGNN,2015-02-16 02:00,ZGNN 160200Z VRB01MPS 3200 BR FEW010 SCT020 OVC040 18/18 Q1020 NOSIG
ZGNN,2015-02-16 03:00,ZGNN 160300Z 10002MPS 060V200 3500 BR FEW013 BKN033 20/18 Q1019 NOSIG
ZGNN,2015-02-16 04:00,ZGNN 160400Z VRB01MPS 6000 FEW040 23/18 Q1019 NOSIG
ZGNN,2015-02-16 05:00,ZGNN 160500Z VRB01MPS 8000 FEW020 24/18 Q1017 NOSIG
ZGNN,2015-02-16 06:00,ZGNN 160600Z VRB01MPS 9999 FEW026 24/18 Q1016 NOSIG
ZGNN,2015-02-16 07:00,ZGNN 160700Z VRB01MPS 9999 FEW033 25/17 Q1015 NOSIG
ZGNN,2015-02-16 08:00,ZGNN 160800Z VRB01MPS 9999 FEW033 26/17 Q1014 NOSIG
ZGNN,2015-02-16 09:00,ZGNN 160900Z VRB01MPS 9999 FEW040 25/17 Q1013 NOSIG
ZGNN,2015-02-16 10:00,ZGNN 161000Z 13002MPS 120V180 CAVOK 24/17 Q1013 NOSIG
ZGNN,2015-02-16 11:00,ZGNN 161100Z VRB01MPS CAVOK 23/17 Q1014 NOSIG
ZGNN,2015-02-16 12:00,ZGNN 161200Z 15003MPS 120V180 CAVOK 23/18 Q1014 NOSIG
ZGNN,2015-02-16 13:00,ZGNN 161300Z 18002MPS 110V210 6000 NSC 21/18 Q1015 NOSIG
ZGNN,2015-02-16 14:00,ZGNN 161400Z 15002MPS 100V190 6000 NSC 20/18 Q1015 NOSIG
ZGNN,2015-02-16 15:00,ZGNN 161500Z VRB01MPS 6000 NSC 20/18 Q1016 NOSIG
ZGNN,2015-02-16 16:00,ZGNN 161600Z VRB01MPS 6000 NSC 18/17 Q1016 NOSIG
ZGNN,2015-02-16 17:00,ZGNN 161700Z 02002MPS 5000 BR NSC 18/17 Q1016 NOSIG
ZGNN,2015-02-16 18:00,ZGNN 161800Z 35001MPS 5000 BR NSC 18/17 Q1015 NOSIG
ZGNN,2015-02-16 19:00,ZGNN 161900Z 02002MPS 5000 BR SCT043 18/17 Q1015 NOSIG
ZGNN,2015-02-16 20:00,ZGNN 162000Z VRB01MPS 4000 BR SCT030 BKN043 18/17 Q1015 NOSIG
ZGNN,2015-02-16 21:00,ZGNN 162100Z VRB01MPS 4000 BR FEW033 17/17 Q1014 BECMG 2500 BR
ZGNN,2015-02-16 22:00,ZGNN 162200Z 26001MPS 3500 BR BKN036 17/17 Q1015 BECMG 2500 BR
ZGNN,2015-02-16 23:00,ZGNN 162300Z 00000MPS 4500 BR BKN043 17/16 Q1015 BECMG 2500 BR
ZGNN,2015-02-17 00:00,ZGNN 170000Z VRB01MPS 2500 BR BKN043 17/17 Q1016 BECMG 3500 BR
ZGNN,2015-02-17 01:00,ZGNN 170100Z VRB01MPS 3100 BR NSC 18/17 Q1016 NOSIG
ZGNN,2015-02-17 02:00,ZGNN 170200Z VRB01MPS 4000 BR NSC 19/18 Q1017 NOSIG
ZGNN,2015-02-17 03:00,ZGNN 170300Z 16002MPS 120V200 5000 BR NSC 21/18 Q1017 NOSIG
ZGNN,2015-02-17 04:00,ZGNN 170400Z VRB02MPS 6000 FEW016 22/18 Q1016 NOSIG
ZGNN,2015-02-17 05:00,ZGNN 170500Z 16003MPS 090V200 7000 FEW016 24/18 Q1015 NOSIG
ZGNN,2015-02-17 06:00,ZGNN 170600Z 10002MPS 010V170 9999 FEW023 24/17 Q1014 NOSIG
ZGNN,2015-02-17 07:00,ZGNN 170700Z 14002MPS 080V200 9999 SCT033 25/17 Q1013 NOSIG
ZGNN,2015-02-17 08:00,ZGNN 170800Z 09003MPS 040V180 9999 FEW023 25/18 Q1013 NOSIG
ZGNN,2015-02-17 09:00,ZGNN 170900Z 13004MPS 9999 FEW023 25/17 Q1012 NOSIG
ZGNN,2015-02-17 10:00,ZGNN 171000Z 15004MPS CAVOK 24/17 Q1013 NOSIG
ZGNN,2015-02-17 11:00,ZGNN 171100Z 15003MPS CAVOK 22/17 Q1013 NOSIG
ZGNN,2015-02-17 12:00,ZGNN 171200Z 15002MPS 110V180 6000 SCT043 21/17 Q1014 NOSIG
ZGNN,2015-02-17 13:00,ZGNN 171300Z VRB01MPS 6000 SCT043 21/17 Q1015 NOSIG
ZGNN,2015-02-17 14:00,ZGNN 171400Z VRB01MPS 6000 NSC 20/17 Q1015 NOSIG
ZGNN,2015-02-17 15:00,ZGNN 171500Z VRB01MPS 8000 NSC 19/16 Q1016 NOSIG
ZGNN,2015-02-17 16:00,ZGNN 171600Z VRB01MPS 7000 NSC 19/16 Q1015 NOSIG
ZGNN,2015-02-17 17:00,ZGNN 171700Z VRB01MPS 6000 NSC 19/17 Q1015 NOSIG
ZGNN,2015-02-17 18:00,ZGNN 171800Z 00000MPS 6000 NSC 18/17 Q1015 NOSIG
ZGNN,2015-02-17 19:00,ZGNN 171900Z 13002MPS 5000 BR NSC 18/16 Q1015 NOSIG
ZGNN,2015-02-17 20:00,ZGNN 172000Z VRB01MPS 5000 BR NSC 17/16 Q1015 NOSIG
ZGNN,2015-02-17 21:00,ZGNN 172100Z 11001MPS 5000 BR NSC 17/16 Q1015 NOSIG
ZGNN,2015-02-17 22:00,ZGNN 172200Z VRB01MPS 4000 BR NSC 17/17 Q1015 NOSIG
ZGNN,2015-02-17 23:00,ZGNN 172300Z VRB01MPS 4000 BR NSC 16/16 Q1016 NOSIG
ZGNN,2015-02-18 00:00,ZGNN 180000Z 10001MPS 3100 BR SCT007 18/18 Q1017 NOSIG
ZGNN,2015-02-18 01:00,ZGNN 180100Z 14003MPS 110V180 3500 BR SCT010 19/18 Q1017 NOSIG
ZGNN,2015-02-18 02:00,ZGNN 180200Z 15003MPS 120V180 5000 BR SCT011 20/18 Q1018 NOSIG
ZGNN,2015-02-18 03:00,ZGNN 180300Z 15004MPS 120V180 8000 SCT015 21/18 Q1018 NOSIG
ZGNN,2015-02-18 04:00,ZGNN 180400Z 15005MPS 110V190 7000 SCT016 23/18 Q1017 NOSIG
ZGNN,2015-02-18 05:00,ZGNN 180500Z 14005MPS 7000 SCT016 23/18 Q1016 NOSIG
ZGNN,2015-02-18 06:00,ZGNN 180600Z 14005MPS 7000 SCT016 22/18 Q1015 NOSIG
ZGNN,2015-02-18 07:00,ZGNN 180700Z 14004MPS 7000 SCT016 22/19 Q1015 NOSIG
ZGNN,2015-02-18 08:00,ZGNN 180800Z 14004MPS 110V180 7000 SCT015 22/18 Q1014 NOSIG
ZGNN,2015-02-18 09:00,ZGNN 180900Z 15004MPS 7000 SCT015 21/18 Q1014 NOSIG
ZGNN,2015-02-18 10:00,ZGNN 181000Z 15004MPS 7000 SCT036 21/18 Q1014 NOSIG
ZGNN,2015-02-18 11:00,ZGNN 181100Z 13002MPS 090V150 6000 FEW013 SCT036 21/18 Q1015 NOSIG
ZGNN,2015-02-18 12:00,ZGNN 181200Z 16003MPS 6000 FEW010 20/18 Q1015 NOSIG
ZGNN,2015-02-18 13:00,ZGNN 181300Z 15002MPS 110V220 5000 BR FEW013 SCT043 20/18 Q1016 NOSIG
ZGNN,2015-02-18 14:00,ZGNN 181400Z 00000MPS 5000 BR NSC 19/18 Q1016 NOSIG
ZGNN,2015-02-18 15:00,ZGNN 181500Z 28002MPS 5000 BR FEW010 19/18 Q1017 NOSIG
ZGNN,2015-02-18 16:00,ZGNN 181600Z VRB01MPS 5000 BR SCT010 20/19 Q1017 NOSIG
ZGNN,2015-02-18 17:00,ZGNN 181700Z VRB01MPS 3000 BR SCT013 19/18 Q1017 BECMG TL1830 2500 BR
ZGNN,2015-02-18 18:00,ZGNN 181800Z 15002MPS 130V200 4000 BR NSC 19/18 Q1016 NOSIG
ZGNN,2015-02-18 19:00,ZGNN 181900Z 16003MPS 5000 BR FEW013 20/18 Q1016 NOSIG
ZGNN,2015-02-18 20:00,ZGNN 182000Z 14004MPS 5000 BR FEW010 19/18 Q1016 NOSIG
ZGNN,2015-02-18 21:00,ZGNN 182100Z 15003MPS 120V190 4000 BR SCT010 19/18 Q1016 NOSIG
ZGNN,2015-02-18 22:00,ZGNN 182200Z 15004MPS 4500 BR SCT010 19/18 Q1016 NOSIG
ZGNN,2015-02-18 23:00,ZGNN 182300Z 15002MPS 120V180 4000 BR SCT010 19/18 Q1017 NOSIG
ZGNN,2015-02-19 00:00,ZGNN 190000Z 15004MPS 4000 BR SCT008 19/18 Q1017 NOSIG
ZGNN,2015-02-19 01:00,ZGNN 190100Z 16003MPS 130V190 4000 BR FEW007 SCT009 19/18 Q1018 NOSIG
ZGNN,2015-02-19 02:00,ZGNN 190200Z 15004MPS 4000 BR FEW007 SCT009 20/18 Q1018 NOSIG
ZGNN,2015-02-19 03:00,ZGNN 190300Z 15003MPS 120V180 3200 BR FEW006 SCT008 OVC033 20/19 Q1018 NOSIG
ZGNN,2015-02-19 04:00,ZGNN 190400Z 15004MPS 120V180 4000 BR SCT008 OVC033 20/19 Q1018 NOSIG
ZGNN,2015-02-19 05:00,ZGNN 190500Z 16005MPS 4000 BR SCT010 OVC033 21/19 Q1017 NOSIG
ZGNN,2015-02-19 06:00,ZGNN 190600Z 17005MPS 4000 BR SCT010 OVC033 20/19 Q1016 NOSIG
ZGNN,2015-02-19 07:00,ZGNN 190700Z 16004MPS 3100 -RA BR SCT008 OVC033 20/19 Q1015 NOSIG
ZGNN,2015-02-19 08:00,ZGNN 190800Z 13003G08MPS 100V170 6000 SCT013 BKN040 21/20 Q1015 NOSIG
ZGNN,2015-02-19 09:00,ZGNN 190900Z 15005MPS 9999 FEW016 BKN043 22/19 Q1014 NOSIG
ZGNN,2015-02-19 10:00,ZGNN 191000Z 16006MPS 7000 FEW016 22/19 Q1014 NOSIG
ZGNN,2015-02-19 11:00,ZGNN 191100Z 17006MPS 140V210 5000 BR FEW016 21/19 Q1014 NOSIG
ZGNN,2015-02-19 12:00,ZGNN 191200Z 17003MPS 5000 BR SCT015 21/19 Q1015 NOSIG
ZGNN,2015-02-19 13:00,ZGNN 191300Z 18004MPS 5000 BR SCT015 21/19 Q1015 NOSIG
ZGNN,2015-02-19 14:00,ZGNN 191400Z 18005MPS 6000 SCT013 BKN033 21/19 Q1016 NOSIG
ZGNN,2015-02-19 15:00,ZGNN 191500Z 18004MPS 150V210 6000 SCT013 BKN033 21/19 Q1016 NOSIG
ZGNN,2015-02-19 16:00,ZGNN 191600Z 16004MPS 130V190 6000 SCT011 BKN033 20/19 Q1016 NOSIG
ZGNN,2015-02-19 17:00,ZGNN 191700Z 16003MPS 6000 SCT011 BKN033 20/19 Q1016 NOSIG
ZGNN,2015-02-19 18:00,ZGNN 191800Z 15003MPS 7000 SCT011 BKN033 20/18 Q1016 NOSIG
ZGNN,2015-02-19 19:00,ZGNN 191900Z 14004MPS 6000 SCT010 BKN033 20/19 Q1015 NOSIG
ZGNN,2015-02-19 20:00,ZGNN 192000Z 16004MPS 7000 SCT010 BKN033 20/19 Q1015 NOSIG
ZGNN,2015-02-19 21:00,ZGNN 192100Z 13002MPS 7000 SCT010 BKN033 20/18 Q1015 NOSIG
ZGNN,2015-02-19 22:00,ZGNN 192200Z 15004MPS 6000 SCT010 BKN033 20/18 Q1015 NOSIG
ZGNN,2015-02-19 23:00,ZGNN 192300Z 14004MPS 6000 SCT010 BKN033 19/19 Q1015 NOSIG
ZGNN,2015-02-20 00:00,ZGNN 200000Z 12003MPS 4000 BR SCT005 SCT008 OVC033 19/19 Q1016 NOSIG
ZGNN,2015-02-20 01:00,ZGNN 200100Z 15004MPS 5000 BR FEW006 SCT008 OVC033 20/19 Q1016 NOSIG
ZGNN,2015-02-20 02:00,ZGNN 200200Z 15003MPS 5000 BR FEW005 SCT007 OVC033 20/19 Q1017 NOSIG
ZGNN,2015-02-20 03:00,ZGNN 200300Z 15005MPS 6000 FEW005 SCT008 OVC033 20/19 Q1017 NOSIG
ZGNN,2015-02-20 04:00,ZGNN 200400Z 15006MPS 8000 SCT011 OVC033 21/19 Q1016 NOSIG
ZGNN,2015-02-20 05:00,ZGNN 200500Z 15007MPS 9999 SCT013 SCT033 23/20 Q1015 NOSIG
ZGNN,2015-02-20 06:00,ZGNN 200600Z 15008MPS 120V180 9999 SCT015 BKN043 23/19 Q1013 NOSIG
ZGNN,2015-02-20 07:00,ZGNN 200700Z 15008MPS 9999 SCT015 24/19 Q1012 NOSIG
ZGNN,2015-02-20 08:00,ZGNN 200800Z 15008MPS 9999 SCT015 23/19 Q1012 NOSIG
ZGNN,2015-02-20 09:00,ZGNN 200900Z 15007MPS 9999 FEW015 22/19 Q1011 NOSIG
ZGNN,2015-02-20 10:00,ZGNN 201000Z 15006MPS 120V180 7000 FEW001 22/19 Q1011 NOSIG
ZGNN,2015-02-20 11:00,ZGNN 201100Z 15004MPS 110V190 7000 SCT013 22/19 Q1012 NOSIG
ZGNN,2015-02-20 12:00,ZGNN 201200Z 16004MPS 7000 FEW013 21/19 Q1012 NOSIG
ZGNN,2015-02-20 13:00,ZGNN 201300Z 16002MPS 120V190 6000 FEW013 21/19 Q1013 NOSIG
ZGNN,2015-02-20 14:00,ZGNN 201400Z 15003MPS 6000 NSC 20/19 Q1013 NOSIG
ZGNN,2015-02-20 15:00,ZGNN 201500Z VRB01MPS 6000 SCT033 20/19 Q1014 NOSIG
ZGNN,2015-02-20 16:00,ZGNN 201600Z 15004MPS 6000 SCT036 20/19 Q1014 NOSIG
ZGNN,2015-02-20 17:00,ZGNN 201700Z 14003MPS 6000 NSC 19/18 Q1013 NOSIG
ZGNN,2015-02-20 18:00,ZGNN 201800Z 32001MPS 5000 BR FEW008 SCT040 18/18 Q1014 NOSIG
ZGNN,2015-02-20 19:00,ZGNN 201900Z VRB01MPS 5000 BR SCT007 18/18 Q1013 NOSIG
ZGNN,2015-02-20 20:00,ZGNN 202000Z VRB01MPS 4000 BR SCT006 19/19 Q1012 NOSIG
ZGNN,2015-02-20 21:00,ZGNN 202100Z 35001MPS 4000 BR SCT006 19/19 Q1012 NOSIG
ZGNN,2015-02-20 22:00,ZGNN 202200Z VRB01MPS 4000 BR SCT006 19/19 Q1012 NOSIG
ZGNN,2015-02-20 23:00,ZGNN 202300Z VRB01MPS 4000 BR SCT006 19/19 Q1012 NOSIG
ZGNN,2015-02-21 00:00,ZGNN 210000Z 14002MPS 110V170 3200 BR SCT006 OVC043 19/19 Q1013 NOSIG
ZGNN,2015-02-21 01:00,ZGNN 210100Z 18002MPS 150V210 3500 BR SCT007 OVC043 20/19 Q1014 NOSIG
ZGNN,2015-02-21 02:00,ZGNN 210200Z 18002MPS 140V220 5000 BR SCT008 BKN043 21/19 Q1014 NOSIG
ZGNN,2015-02-21 03:00,ZGNN 210300Z 15002MPS 110V180 6000 SCT010 BKN043 23/20 Q1014 NOSIG
ZGNN,2015-02-21 04:00,ZGNN 210400Z 13003MPS 070V210 8000 SCT016 BKN046 25/19 Q1013 NOSIG
ZGNN,2015-02-21 05:00,ZGNN 210500Z VRB01MPS 9999 SCT023 BKN046 25/19 Q1012 NOSIG
ZGNN,2015-02-21 06:00,ZGNN 210600Z VRB02MPS 9999 SCT026 SCT043 27/20 Q1011 NOSIG
ZGNN,2015-02-21 07:00,ZGNN 210700Z 13003MPS 100V170 9999 SCT026 SCT043 26/19 Q1010 NOSIG
ZGNN,2015-02-21 08:00,ZGNN 210800Z 15004MPS 090V190 9999 SCT026 27/19 Q1009 NOSIG
ZGNN,2015-02-21 09:00,ZGNN 210900Z 14007MPS 9999 SCT026 26/20 Q1009 NOSIG
ZGNN,2015-02-21 10:00,ZGNN 211000Z 13004MPS 9999 FEW026 25/20 Q1010 NOSIG
ZGNN,2015-02-21 11:00,ZGNN 211100Z 14003MPS 080V170 9999 SCT040 24/20 Q1010 NOSIG
ZGNN,2015-02-21 12:00,ZGNN 211200Z 14002MPS 9999 SCT040 23/20 Q1011 NOSIG
ZGNN,2015-02-21 13:00,ZGNN 211300Z VRB02MPS 9999 SCT040 22/20 Q1012 NOSIG
ZGNN,2015-02-21 14:00,ZGNN 211400Z 13002MPS 100V160 8000 FEW010 21/20 Q1012 NOSIG
ZGNN,2015-02-21 15:00,ZGNN 211500Z 00000MPS 7000 FEW009 20/19 Q1013 NOSIG
ZGNN,2015-02-21 16:00,ZGNN 211600Z VRB01MPS 6000 SCT008 20/20 Q1013 NOSIG
ZGNN,2015-02-21 17:00,ZGNN 211700Z 00000MPS 6000 SCT006 20/20 Q1013 NOSIG
ZGNN,2015-02-21 18:00,ZGNN 211800Z VRB01MPS 6000 SCT006 20/20 Q1013 NOSIG
ZGNN,2015-02-21 19:00,ZGNN 211900Z VRB01MPS 5000 BR FEW005 SCT006 20/20 Q1013 NOSIG
ZGNN,2015-02-21 20:00,ZGNN 212000Z VRB01MPS 5000 BR SCT006 20/19 Q1013 NOSIG
ZGNN,2015-02-21 21:00,ZGNN 212100Z 03002MPS 4000 BR SCT006 20/19 Q1013 NOSIG
ZGNN,2015-02-21 22:00,ZGNN 212200Z 11002MPS 080V150 4000 BR SCT006 19/19 Q1013 NOSIG
ZGNN,2015-02-21 23:00,ZGNN 212300Z 36001MPS 4000 BR SCT004 20/20 Q1013 NOSIG
ZGNN,2015-02-22 00:00,ZGNN 220000Z VRB01MPS 3500 BR FEW004 SCT006 20/20 Q1014 NOSIG
ZGNN,2015-02-22 01:00,ZGNN 220100Z VRB01MPS 3200 BR FEW004 SCT006 OVC036 21/20 Q1014 NOSIG
ZGNN,2015-02-22 02:00,ZGNN 220200Z VRB01MPS 3500 BR SCT006 OVC036 21/20 Q1015 NOSIG
ZGNN,2015-02-22 03:00,ZGNN 220300Z 15003MPS 7000 SCT008 BKN040 22/21 Q1015 NOSIG
ZGNN,2015-02-22 04:00,ZGNN 220400Z 15006MPS 9999 SCT010 OVC040 24/21 Q1014 NOSIG
ZGNN,2015-02-22 05:00,ZGNN 220500Z 16004MPS 130V190 9999 SCT015 OVC043 24/20 Q1014 NOSIG
ZGNN,2015-02-22 06:00,ZGNN 220600Z 15005MPS 120V180 9999 SCT020 25/20 Q1012 NOSIG
ZGNN,2015-02-22 07:00,ZGNN 220700Z 14005MPS 120V180 9999 SCT020 26/21 Q1011 NOSIG
ZGNN,2015-02-22 08:00,ZGNN 220800Z 15004MPS 120V180 9999 SCT026 26/20 Q1010 NOSIG
ZGNN,2015-02-22 09:00,ZGNN 220900Z 13004MPS 9999 SCT026 26/21 Q1010 NOSIG
ZGNN,2015-02-22 10:00,ZGNN 221000Z 14005MPS 9999 FEW026 25/21 Q1010 NOSIG
ZGNN,2015-02-22 11:00,ZGNN 221100Z 13003MPS 9999 FEW033 24/21 Q1011 NOSIG
ZGNN,2015-02-22 12:00,ZGNN 221200Z 13003MPS 100V160 9999 SCT013 BKN040 23/21 Q1012 NOSIG
ZGNN,2015-02-22 13:00,ZGNN 221300Z 10003MPS 9999 SCT009 BKN040 22/21 Q1012 NOSIG
ZGNN,2015-02-22 14:00,ZGNN 221400Z 11002MPS 070V170 9999 SCT009 BKN040 22/21 Q1013 NOSIG
ZGNN,2015-02-22 15:00,ZGNN 221500Z 12002MPS 100V190 9999 SCT008 BKN040 22/21 Q1013 NOSIG
ZGNN,2015-02-22 16:00,ZGNN 221600Z 15002MPS 110V190 9999 SCT008 BKN040 21/20 Q1013 NOSIG
ZGNN,2015-02-22 17:00,ZGNN 221700Z 10002MPS 080V140 9999 SCT008 BKN040 21/20 Q1013 NOSIG
ZGNN,2015-02-22 18:00,ZGNN 221800Z 08002MPS 9999 SCT008 BKN040 21/20 Q1013 NOSIG
ZGNN,2015-02-22 19:00,ZGNN 221900Z 07002MPS 8000 SCT008 BKN040 21/20 Q1013 NOSIG
ZGNN,2015-02-22 20:00,ZGNN 222000Z 06002MPS 7000 FEW008 21/20 Q1012 NOSIG
ZGNN,2015-02-22 21:00,ZGNN 222100Z 04002MPS 010V070 5000 BR SCT030 21/20 Q1012 NOSIG
ZGNN,2015-02-22 22:00,ZGNN 222200Z 04002MPS 360V060 5000 BR SCT026 20/20 Q1012 NOSIG
ZGNN,2015-02-22 23:00,ZGNN 222300Z 04002MPS 5000 BR SCT010 BKN036 21/20 Q1012 NOSIG
ZGNN,2015-02-23 00:00,ZGNN 230000Z VRB01MPS 5000 BR FEW005 SCT007 BKN040 21/21 Q1013 NOSIG
ZGNN,2015-02-23 01:00,ZGNN 230100Z 13002MPS 100V200 6000 FEW005 SCT007 BKN040 21/21 Q1014 NOSIG
ZGNN,2015-02-23 02:00,ZGNN 230200Z 16004MPS 110V180 7000 SCT007 BKN040 22/21 Q1014 NOSIG
ZGNN,2015-02-23 03:00,ZGNN 230300Z 14005MPS 9999 SCT013 BKN040 24/20 Q1013 NOSIG
ZGNN,2015-02-23 04:00,ZGNN 230400Z 16005MPS 130V200 9999 SCT013 BKN040 25/20 Q1012 NOSIG
ZGNN,2015-02-23 05:00,ZGNN 230500Z 16005MPS 9999 SCT020 BKN040 26/20 Q1011 NOSIG
ZGNN,2015-02-23 06:00,ZGNN 230600Z 14005MPS 100V180 9999 SCT023 BKN040 26/20 Q1010 NOSIG
ZGNN,2015-02-23 07:00,ZGNN 230700Z 14006MPS 9999 SCT026 BKN040 27/20 Q1008 NOSIG
ZGNN,2015-02-23 08:00,ZGNN 230800Z 14006MPS 110V180 9999 SCT026 28/20 Q1007 NOSIG
ZGNN,2015-02-23 09:00,ZGNN 230900Z 13006MPS 9999 FEW026 SCT040 27/21 Q1008 NOSIG
ZGNN,2015-02-23 10:00,ZGNN 231000Z 12005MPS 9999 SCT040 25/21 Q1008 NOSIG
ZGNN,2015-02-23 11:00,ZGNN 231100Z 12003MPS 9999 FEW040 24/21 Q1009 NOSIG
ZGNN,2015-02-23 12:00,ZGNN 231200Z 11003MPS CAVOK 23/21 Q1010 NOSIG
ZGNN,2015-02-23 13:00,ZGNN 231300Z 15004MPS CAVOK 22/20 Q1010 NOSIG
ZGNN,2015-02-23 14:00,ZGNN 231400Z VRB01MPS 9999 SCT009 21/20 Q1011 NOSIG
ZGNN,2015-02-23 15:00,ZGNN 231500Z 08002MPS 040V100 9999 FEW010 21/20 Q1012 NOSIG
ZGNN,2015-02-23 16:00,ZGNN 231600Z VRB01MPS 9999 FEW010 21/20 Q1012 NOSIG
ZGNN,2015-02-23 17:00,ZGNN 231700Z 04002MPS 7000 SCT008 21/21 Q1012 NOSIG
ZGNN,2015-02-23 18:00,ZGNN 231800Z VRB01MPS 7000 SCT008 21/21 Q1012 NOSIG
ZGNN,2015-02-23 19:00,ZGNN 231900Z VRB01MPS 7000 FEW006 SCT007 21/21 Q1011 NOSIG
ZGNN,2015-02-23 20:00,ZGNN 232000Z VRB01MPS 7000 FEW006 SCT007 21/20 Q1011 NOSIG
ZGNN,2015-02-23 21:00,ZGNN 232100Z VRB01MPS 9999 FEW006 SCT008 21/20 Q1011 NOSIG
ZGNN,2015-02-23 22:00,ZGNN 232200Z VRB01MPS 9999 FEW006 SCT008 21/20 Q1011 NOSIG
ZGNN,2015-02-23 23:00,ZGNN 232300Z 18002MPS 9999 SCT007 SCT033 21/20 Q1012 NOSIG
ZGNN,2015-02-24 00:00,ZGNN 240000Z 16001MPS 9999 SCT006 SCT033 21/20 Q1012 NOSIG
ZGNN,2015-02-24 01:00,ZGNN 240100Z 00000MPS 6000 SCT005 BKN046 21/20 Q1013 NOSIG
ZGNN,2015-02-24 02:00,ZGNN 240200Z 11002MPS 5000 BR FEW005 23/21 Q1013 NOSIG
ZGNN,2015-02-24 03:00,ZGNN 240300Z 13002MPS 060V180 9999 FEW015 25/20 Q1013 NOSIG
ZGNN,2015-02-24 04:00,ZGNN 240400Z 12003MPS 080V160 9999 SCT023 26/19 Q1011 NOSIG
ZGNN,2015-02-24 05:00,ZGNN 240500Z VRB03MPS 9999 BKN030 27/19 Q1010 NOSIG
ZGNN,2015-02-24 06:00,ZGNN 240600Z VRB01MPS 9999 BKN030 27/20 Q1008 NOSIG
ZGNN,2015-02-24 07:00,ZGNN 240700Z 04002MPS 330V110 9999 SCT030 28/20 Q1007 NOSIG
ZGNN,2015-02-24 08:00,ZGNN 240800Z 17006MPS 9999 FEW030TCU SCT030 28/19 Q1006 NOSIG
ZGNN,2015-02-24 09:00,ZGNN 240900Z 15006MPS 9999 SCT030 27/20 Q1006 NOSIG
ZGNN,2015-02-24 10:00,ZGNN 241000Z 15006MPS CAVOK 26/20 Q1006 NOSIG
ZGNN,2015-02-24 11:00,ZGNN 241100Z 16005MPS 9999 FEW040 24/20 Q1007 NOSIG
ZGNN,2015-02-24 12:00,ZGNN 241200Z 16003MPS CAVOK 23/20 Q1007 NOSIG
ZGNN,2015-02-24 13:00,ZGNN 241300Z 14002MPS CAVOK 22/20 Q1008 NOSIG
ZGNN,2015-02-24 14:00,ZGNN 241400Z 16001MPS CAVOK 21/20 Q1008 NOSIG
ZGNN,2015-02-24 15:00,ZGNN 241500Z 16002MPS 120V200 9999 FEW010 21/20 Q1008 NOSIG
ZGNN,2015-02-24 16:00,ZGNN 241600Z 16003MPS 9999 FEW010 21/20 Q1009 NOSIG
ZGNN,2015-02-24 17:00,ZGNN 241700Z 16003MPS 9999 FEW010 21/20 Q1009 NOSIG
ZGNN,2015-02-24 18:00,ZGNN 241800Z VRB01MPS 8000 NSC 19/19 Q1009 NOSIG
ZGNN,2015-02-24 19:00,ZGNN 241900Z 02002MPS 7000 NSC 19/19 Q1009 NOSIG
ZGNN,2015-02-24 20:00,ZGNN 242000Z 03003MPS 6000 NSC 19/19 Q1009 NOSIG
ZGNN,2015-02-24 21:00,ZGNN 242100Z 01003MPS 5000 BR NSC 19/19 Q1009 NOSIG
ZGNN,2015-02-24 22:00,ZGNN 242200Z 15003MPS 5000 BR FEW040 19/19 Q1009 NOSIG
ZGNN,2015-02-24 23:00,ZGNN 242300Z 02002MPS 4000 BR FEW004 19/19 Q1010 NOSIG
ZGNN,2015-02-25 00:00,ZGNN 250000Z VRB01MPS 3500 BR NSC 19/19 Q1010 NOSIG
ZGNN,2015-02-25 01:00,ZGNN 250100Z 08002MPS 040V210 5000 BR FEW008 21/20 Q1011 NOSIG
ZGNN,2015-02-25 02:00,ZGNN 250200Z 15003MPS 110V200 9999 SCT011 24/21 Q1011 NOSIG
ZGNN,2015-02-25 03:00,ZGNN 250300Z 15003MPS 120V190 9999 SCT020 26/20 Q1011 NOSIG
ZGNN,2015-02-25 04:00,ZGNN 250400Z 20003MPS 140V250 9999 SCT026 28/20 Q1010 NOSIG
ZGNN,2015-02-25 05:00,ZGNN 250500Z 18004MPS 140V240 9999 SCT030 29/19 Q1009 NOSIG
ZGNN,2015-02-25 06:00,ZGNN 250600Z 20005MPS 9999 SCT033 30/18 Q1007 NOSIG
ZGNN,2015-02-25 07:00,ZGNN 250700Z 19004MPS 160V220 9999 SCT033 31/16 Q1006 NOSIG
ZGNN,2015-02-25 08:00,ZGNN 250800Z 19005MPS 160V220 9999 SCT033 31/16 Q1005 NOSIG
ZGNN,2015-02-25 09:00,ZGNN 250900Z 14007MPS 9999 FEW033 29/19 Q1005 NOSIG
ZGNN,2015-02-25 10:00,ZGNN 251000Z 15007MPS 9999 FEW033 27/20 Q1005 BECMG TL1140 15003MPS
ZGNN,2015-02-25 11:00,ZGNN 251100Z 15006MPS CAVOK 25/20 Q1006 NOSIG
ZGNN,2015-02-25 12:00,ZGNN 251200Z 15004MPS 120V180 CAVOK 24/20 Q1007 NOSIG
ZGNN,2015-02-25 13:00,ZGNN 251300Z 15003MPS 120V180 CAVOK 23/20 Q1008 NOSIG
ZGNN,2015-02-25 14:00,ZGNN 251400Z 14003MPS CAVOK 22/20 Q1009 NOSIG
ZGNN,2015-02-25 15:00,ZGNN 251500Z 17002MPS 100V230 CAVOK 22/20 Q1009 NOSIG
ZGNN,2015-02-25 16:00,ZGNN 251600Z 00000MPS CAVOK 22/19 Q1009 NOSIG
ZGNN,2015-02-25 17:00,ZGNN 251700Z 00000MPS CAVOK 21/19 Q1009 NOSIG
ZGNN,2015-02-25 18:00,ZGNN 251800Z VRB01MPS CAVOK 19/18 Q1009 NOSIG
ZGNN,2015-02-25 19:00,ZGNN 251900Z 35002MPS CAVOK 19/18 Q1010 NOSIG
ZGNN,2015-02-25 20:00,ZGNN 252000Z VRB01MPS CAVOK 19/19 Q1010 NOSIG
ZGNN,2015-02-25 21:00,ZGNN 252100Z 03002MPS CAVOK 19/19 Q1010 NOSIG
ZGNN,2015-02-25 22:00,ZGNN 252200Z VRB01MPS 6000 NSC 19/19 Q1010 NOSIG
ZGNN,2015-02-25 23:00,ZGNN 252300Z 00000MPS 5000 BR FEW002 19/19 Q1011 NOSIG
ZGNN,2015-02-26 00:00,ZGNN 260000Z VRB01MPS 1600 BR SCT002 20/20 Q1012 BECMG TL0120 4000 BR
ZGNN,2015-02-26 01:00,ZGNN 260100Z VRB01MPS 0400 R05/0300V0400D FG FEW001 SCT002 20/20 Q1012 BECMG TL0200 2000 BR
ZGNN,2015-02-26 02:00,ZGNN 260200Z 12004MPS 090V160 2800 BR SCT002 21/21 Q1012 BECMG TL0240 5000 BR
ZGNN,2015-02-26 03:00,ZGNN 260300Z 12003MPS 090V170 9999 FEW010 SCT026 24/20 Q1012 NOSIG
ZGNN,2015-02-26 04:00,ZGNN 260400Z VRB01MPS 9999 SCT020 27/20 Q1011 NOSIG
ZGNN,2015-02-26 05:00,ZGNN 260500Z 20003MPS 150V250 9999 BKN030 27/19 Q1010 NOSIG
ZGNN,2015-02-26 06:00,ZGNN 260600Z 17003MPS 130V240 9999 SCT033 29/20 Q1008 NOSIG
ZGNN,2015-02-26 07:00,ZGNN 260700Z VRB02MPS 9999 SCT040 30/20 Q1007 NOSIG
ZGNN,2015-02-26 08:00,ZGNN 260800Z 16005MPS CAVOK 29/19 Q1006 NOSIG
ZGNN,2015-02-26 09:00,ZGNN 260900Z 14005MPS 110V180 CAVOK 29/19 Q1006 NOSIG
ZGNN,2015-02-26 10:00,ZGNN 261000Z 15007MPS CAVOK 28/20 Q1006 NOSIG
ZGNN,2015-02-26 11:00,ZGNN 261100Z 15006MPS CAVOK 26/20 Q1006 NOSIG
ZGNN,2015-02-26 12:00,ZGNN 261200Z 15004MPS CAVOK 25/20 Q1007 NOSIG
ZGNN,2015-02-26 13:00,ZGNN 261300Z 14004MPS CAVOK 23/20 Q1008 NOSIG
ZGNN,2015-02-26 14:00,ZGNN 261400Z 14005MPS CAVOK 23/20 Q1009 NOSIG
ZGNN,2015-02-26 15:00,ZGNN 261500Z VRB01MPS CAVOK 22/20 Q1010 NOSIG
ZGNN,2015-02-26 16:00,ZGNN 261600Z 18003MPS 160V220 CAVOK 22/19 Q1010 NOSIG
ZGNN,2015-02-26 17:00,ZGNN 261700Z 26002MPS 200V300 CAVOK 21/18 Q1010 NOSIG
ZGNN,2015-02-26 18:00,ZGNN 261800Z 30002MPS 9999 SCT036 20/19 Q1010 NOSIG
ZGNN,2015-02-26 19:00,ZGNN 261900Z 03003MPS 9999 BKN033 21/19 Q1009 NOSIG
ZGNN,2015-02-26 20:00,ZGNN 262000Z 09002MPS 9999 BKN033 21/19 Q1009 NOSIG
ZGNN,2015-02-26 21:00,ZGNN 262100Z 05002MPS 9999 BKN030 21/19 Q1009 NOSIG
ZGNN,2015-02-26 22:00,ZGNN 262200Z 09002MPS 7000 BKN026 22/20 Q1009 NOSIG
ZGNN,2015-02-26 23:00,ZGNN 262300Z VRB01MPS 8000 FEW011 BKN026 22/20 Q1010 NOSIG
ZGNN,2015-02-27 00:00,ZGNN 270000Z 14002MPS 9999 FEW011 BKN026 22/20 Q1011 NOSIG
ZGNN,2015-02-27 01:00,ZGNN 270100Z 14004MPS 9999 SCT011 BKN026 23/21 Q1011 NOSIG
ZGNN,2015-02-27 02:00,ZGNN 270200Z 14005MPS 100V170 9999 SCT013 BKN026 25/21 Q1012 NOSIG
ZGNN,2015-02-27 03:00,ZGNN 270300Z 16005MPS 9999 SCT015 BKN026 26/21 Q1012 NOSIG
ZGNN,2015-02-27 04:00,ZGNN 270400Z 14005MPS 100V160 9999 SCT020 SCT036 26/21 Q1011 NOSIG
ZGNN,2015-02-27 05:00,ZGNN 270500Z 15005MPS 110V190 9999 SCT023 SCT040 28/21 Q1010 NOSIG
ZGNN,2015-02-27 06:00,ZGNN 270600Z 15006MPS 120V180 9999 SCT026 29/21 Q1008 NOSIG
ZGNN,2015-02-27 07:00,ZGNN 270700Z 15008MPS 9999 SCT030 29/21 Q1007 NOSIG
ZGNN,2015-02-27 08:00,ZGNN 270800Z 16007MPS 9999 FEW030 29/21 Q1007 NOSIG
ZGNN,2015-02-27 09:00,ZGNN 270900Z 15009MPS 9999 FEW030 28/21 Q1007 NOSIG
ZGNN,2015-02-27 10:00,ZGNN 271000Z 15007MPS 9999 FEW030 26/21 Q1007 NOSIG
ZGNN,2015-02-27 11:00,ZGNN 271100Z 16007MPS CAVOK 25/20 Q1008 NOSIG
ZGNN,2015-02-27 12:00,ZGNN 271200Z 16006MPS CAVOK 24/20 Q1009 NOSIG
ZGNN,2015-02-27 13:00,ZGNN 271300Z 17003MPS CAVOK 23/20 Q1010 NOSIG
ZGNN,2015-02-27 14:00,ZGNN 271400Z 18003MPS CAVOK 23/19 Q1010 NOSIG
ZGNN,2015-02-27 15:00,ZGNN 271500Z 19002MPS 140V270 CAVOK 22/19 Q1011 NOSIG
ZGNN,2015-02-27 16:00,ZGNN 271600Z 18002MPS CAVOK 22/19 Q1011 NOSIG
ZGNN,2015-02-27 17:00,ZGNN 271700Z 21002MPS 190V250 CAVOK 21/19 Q1011 NOSIG
ZGNN,2015-02-27 18:00,ZGNN 271800Z VRB01MPS CAVOK 21/19 Q1011 NOSIG
ZGNN,2015-02-27 19:00,ZGNN 271900Z VRB01MPS 9999 FEW033 21/20 Q1011 NOSIG
ZGNN,2015-02-27 20:00,ZGNN 272000Z VRB01MPS 7000 FEW033 21/20 Q1011 NOSIG
ZGNN,2015-02-27 21:00,ZGNN 272100Z 09001MPS 5000 BR NSC 21/20 Q1011 NOSIG
ZGNN,2015-02-27 22:00,ZGNN 272200Z 07001MPS 5000 BR FEW010 20/20 Q1012 NOSIG
ZGNN,2015-02-27 23:00,ZGNN 272300Z VRB01MPS 5000 BR SCT006 21/21 Q1013 NOSIG
ZGNN,2015-02-28 00:00,ZGNN 280000Z 00000MPS 4000 BR SCT006 SCT040 21/21 Q1014 NOSIG
ZGNN,2015-02-28 01:00,ZGNN 280100Z VRB01MPS 5000 BR FEW009 BKN043 22/21 Q1014 NOSIG
ZGNN,2015-02-28 02:00,ZGNN 280200Z 15003MPS 100V190 9999 SCT011 SCT043 25/21 Q1015 NOSIG
ZGNN,2015-02-28 03:00,ZGNN 280300Z 16004MPS 9999 SCT020 SCT043 26/20 Q1015 NOSIG
ZGNN,2015-02-28 04:00,ZGNN 280400Z 18004MPS 110V220 9999 SCT023 SCT043 27/20 Q1014 NOSIG
ZGNN,2015-02-28 05:00,ZGNN 280500Z 18003MPS 140V250 9999 SCT026 SCT043 28/20 Q1013 NOSIG
ZGNN,2015-02-28 06:00,ZGNN 280600Z 14004MPS 090V190 9999 SCT033 28/19 Q1012 NOSIG
ZGNN,2015-02-28 07:00,ZGNN 280700Z 13005MPS 100V160 9999 SCT033 29/20 Q1010 NOSIG
ZGNN,2015-02-28 08:00,ZGNN 280800Z 14006MPS 9999 FEW033 29/21 Q1010 NOSIG
ZGNN,2015-02-28 09:00,ZGNN 280900Z 14006MPS 9999 FEW033 28/21 Q1010 NOSIG
ZGNN,2015-02-28 10:00,ZGNN 281000Z 14006MPS CAVOK 27/21 Q1011 NOSIG
ZGNN,2015-02-28 11:00,ZGNN 281100Z 12004MPS CAVOK 25/21 Q1012 NOSIG
ZGNN,2015-02-28 12:00,ZGNN 281200Z 13004MPS CAVOK 24/21 Q1013 NOSIG
ZGNN,2015-02-28 13:00,ZGNN 281300Z 12004MPS 080V180 CAVOK 24/20 Q1014 NOSIG
ZGNN,2015-02-28 14:00,ZGNN 281400Z 09004MPS 9999 SCT020 BKN040 24/20 Q1015 NOSIG
ZGNN,2015-02-28 15:00,ZGNN 281500Z 07006MPS 030V120 9999 BKN026 21/16 Q1017 NOSIG
ZGNN,2015-02-28 16:00,ZGNN 281600Z 04009MPS 9999 OVC026 18/14 Q1018 NOSIG
ZGNN,2015-02-28 17:00,ZGNN 281700Z 06007MPS 9999 -RA OVC023 17/13 Q1019 NOSIG
ZGNN,2015-02-28 18:00,ZGNN 281800Z 06005MPS 9999 OVC023 16/12 Q1020 NOSIG
ZGNN,2015-02-28 19:00,ZGNN 281900Z 07005MPS 9999 -RA OVC020 14/12 Q1020 NOSIG
ZGNN,2015-02-28 20:00,ZGNN 282000Z 07005MPS 9999 -RA FEW010 OVC020 13/12 Q1021 NOSIG
ZGNN,2015-02-28 21:00,ZGNN 282100Z 07004MPS 6000 FEW004 SCT007 OVC023 12/12 Q1021 NOSIG
ZGNN,2015-02-28 22:00,ZGNN 282200Z 35005MPS 9999 FEW010 OVC023 13/10 Q1022 NOSIG
ZGNN,2015-02-28 23:00,ZGNN 282300Z 35005MPS 9999 FEW013 OVC023 12/10 Q1023 NOSIG
ZGNN,2015-03-01 00:00,ZGNN 010000Z 35004MPS 9999 SCT020 BKN030 12/09 Q1024 NOSIG
ZGNN,2015-03-01 01:00,ZGNN 010100Z 35005MPS 9999 SCT023 OVC040 13/09 Q1025 NOSIG
ZGNN,2015-03-01 02:00,ZGNN 010200Z 35004MPS 320V020 9999 SCT023 OVC040 13/08 Q1025 NOSIG
ZGNN,2015-03-01 03:00,ZGNN 010300Z 35005MPS 9999 SCT023 OVC040 14/08 Q1025 NOSIG
ZGNN,2015-03-01 04:00,ZGNN 010400Z 32003MPS 250V020 9999 SCT023 BKN040 15/08 Q1024 NOSIG
ZGNN,2015-03-01 05:00,ZGNN 010500Z VRB04MPS 9999 SCT023 BKN040 16/08 Q1023 NOSIG
ZGNN,2015-03-01 06:00,ZGNN 010600Z 36004MPS 320V050 9999 SCT030 BKN043 16/08 Q1022 NOSIG
ZGNN,2015-03-01 07:00,ZGNN 010700Z 36003MPS 300V040 9999 SCT030 BKN043 16/09 Q1021 NOSIG
ZGNN,2015-03-01 08:00,ZGNN 010800Z 36003MPS 330V040 9999 OVC036 17/08 Q1019 NOSIG
ZGNN,2015-03-01 09:00,ZGNN 010900Z 36003MPS 330V030 9999 OVC033 17/08 Q1019 NOSIG
ZGNN,2015-03-01 10:00,ZGNN 011000Z 11003MPS 080V160 9999 OVC033 16/09 Q1018 NOSIG
ZGNN,2015-03-01 11:00,ZGNN 011100Z 09004MPS 9999 OVC033 15/08 Q1019 NOSIG
ZGNN,2015-03-01 12:00,ZGNN 011200Z 09004MPS 9999 OVC030 15/08 Q1019 NOSIG
ZGNN,2015-03-01 13:00,ZGNN 011300Z 09005MPS 9999 OVC030 14/07 Q1020 NOSIG
ZGNN,2015-03-01 14:00,ZGNN 011400Z 07005MPS 9999 OVC030 14/07 Q1020 NOSIG
ZGNN,2015-03-01 15:00,ZGNN 011500Z 07005MPS 030V130 9999 OVC030 14/07 Q1020 NOSIG
ZGNN,2015-03-01 16:00,ZGNN 011600Z 08004MPS 9999 SCT023 OVC033 14/07 Q1020 NOSIG
ZGNN,2015-03-01 17:00,ZGNN 011700Z 08005MPS 9999 SCT023 OVC033 13/07 Q1020 NOSIG
ZGNN,2015-03-01 18:00,ZGNN 011800Z 09004MPS 9999 SCT023 OVC033 13/06 Q1019 NOSIG
ZGNN,2015-03-01 19:00,ZGNN 011900Z 10002MPS 9999 OVC026 13/06 Q1018 NOSIG
ZGNN,2015-03-01 20:00,ZGNN 012000Z 09003MPS 9999 OVC026 13/06 Q1018 NOSIG
ZGNN,2015-03-01 21:00,ZGNN 012100Z 10004MPS 9999 OVC026 12/06 Q1017 NOSIG
ZGNN,2015-03-01 22:00,ZGNN 012200Z 09003MPS 9999 SCT016 OVC030 12/06 Q1017 NOSIG
ZGNN,2015-03-01 23:00,ZGNN 012300Z 08004MPS 7000 SCT016 OVC030 12/07 Q1018 NOSIG
ZGNN,2015-03-02 00:00,ZGNN 020000Z 07004MPS 040V100 9999 SCT016 OVC030 12/07 Q1018 NOSIG
ZGNN,2015-03-02 01:00,ZGNN 020100Z 08003MPS 050V120 9999 SCT016 OVC030 12/08 Q1018 NOSIG
ZGNN,2015-03-02 02:00,ZGNN 020200Z 10002MPS 060V160 8000 SCT015 OVC030 12/08 Q1019 NOSIG
ZGNN,2015-03-02 03:00,ZGNN 020300Z VRB02MPS 7000 SCT013 OVC030 13/10 Q1018 NOSIG
ZGNN,2015-03-02 04:00,ZGNN 020400Z 10002MPS 030V180 6000 FEW010 SCT013 OVC030 13/10 Q1016 NOSIG
ZGNN,2015-03-02 05:00,ZGNN 020500Z VRB01MPS 4500 BR FEW009 SCT011 OVC030 13/11 Q1015 NOSIG
ZGNN,2015-03-02 06:00,ZGNN 020600Z VRB01MPS 4500 BR FEW009 SCT011 OVC026 13/11 Q1013 NOSIG
ZGNN,2015-03-02 07:00,ZGNN 020700Z 09002MPS 050V120 4500 BR FEW009 SCT011 OVC026 14/12 Q1012 NOSIG
ZGNN,2015-03-02 08:00,ZGNN 020800Z 09003MPS 4500 BR FEW009 SCT011 OVC026 15/12 Q1010 NOSIG
ZGNN,2015-03-02 09:00,ZGNN 020900Z 09003MPS 5000 BR FEW008 SCT010 OVC026 15/14 Q1009 NOSIG
ZGNN,2015-03-02 10:00,ZGNN 021000Z 08002MPS 040V110 4000 BR FEW005 SCT010 OVC026 15/14 Q1008 NOSIG
ZGNN,2015-03-02 11:00,ZGNN 021100Z 10002MPS 070V140 2500 BR FEW003 SCT005 OVC026 16/15 Q1008 NOSIG
ZGNN,2015-03-02 12:00,ZGNN 021200Z 05003MPS 030V090 2500 BR SCT003 SCT004 OVC026 15/15 Q1009 NOSIG
ZGNN,2015-03-02 13:00,ZGNN 021300Z 05003MPS 030V100 2800 BR SCT002 SCT003 OVC026 15/14 Q1009 NOSIG
ZGNN,2015-03-02 14:00,ZGNN 021400Z 04003MPS 2800 BR SCT003 SCT005 OVC026 14/14 Q1009 NOSIG
ZGNN,2015-03-02 15:00,ZGNN 021500Z 03002MPS 2800 BR SCT003 SCT005 OVC026 14/14 Q1009 NOSIG
ZGNN,2015-03-02 16:00,ZGNN 021600Z 04003MPS 2800 BR SCT003 SCT005 OVC026 15/14 Q1009 NOSIG
ZGNN,2015-03-02 17:00,ZGNN 021700Z 05003MPS 2500 BR SCT002 SCT003 OVC026 14/14 Q1009 NOSIG
ZGNN,2015-03-02 18:00,ZGNN 021800Z 03003MPS 2000 BR SCT001 SCT003 OVC026 14/14 Q1009 NOSIG
ZGNN,2015-03-02 19:00,ZGNN 021900Z 04003MPS 2000 BR SCT002 SCT003 OVC023 15/15 Q1009 NOSIG
ZGNN,2015-03-02 20:00,ZGNN 022000Z 05003MPS 2000 BR SCT002 SCT003 OVC023 15/15 Q1008 NOSIG
ZGNN,2015-03-02 21:00,ZGNN 022100Z 04003MPS 2000 BR SCT002 SCT003 OVC023 16/16 Q1009 NOSIG
ZGNN,2015-03-02 22:00,ZGNN 022200Z 01003MPS 2200 BR SCT002 SCT003 OVC023 16/16 Q1010 NOSIG
ZGNN,2015-03-02 23:00,ZGNN 022300Z 36003MPS 1700 BR SCT001 SCT003 OVC023 16/16 Q1011 TEMPO 1200 -RA BR
ZGNN,2015-03-03 00:00,ZGNN 030000Z 36005MPS 320V020 1400 R05/P2000 -RA BR SCT002 SCT004 OVC020 16/16 Q1013 BECMG 1700 -RA BR
ZGNN,2015-03-03 01:00,ZGNN 030100Z 36007MPS 330V030 9999 FEW007 SCT011 OVC023 13/12 Q1015 NOSIG
ZGNN,2015-03-03 02:00,ZGNN 030200Z 01006MPS 9999 FEW010 SCT020 OVC030 14/12 Q1016 NOSIG
ZGNN,2015-03-03 03:00,ZGNN 030300Z 36006MPS 9999 FEW016 OVC026 15/11 Q1017 NOSIG
ZGNN,2015-03-03 04:00,ZGNN 030400Z 36005MPS 9999 SCT020 OVC036 15/10 Q1016 NOSIG
ZGNN,2015-03-03 05:00,ZGNN 030500Z 36006MPS 9999 SCT020 OVC036 16/10 Q1015 NOSIG
ZGNN,2015-03-03 06:00,ZGNN 030600Z 34005MPS 9999 SCT020 BKN040 17/10 Q1014 NOSIG
ZGNN,2015-03-03 07:00,ZGNN 030700Z 01005MPS 9999 FEW023 18/11 Q1013 NOSIG
ZGNN,2015-03-03 08:00,ZGNN 030800Z 36004MPS 330V030 9999 FEW026 19/11 Q1012 NOSIG
ZGNN,2015-03-03 09:00,ZGNN 030900Z 02004MPS 340V050 CAVOK 19/11 Q1011 NOSIG
ZGNN,2015-03-03 10:00,ZGNN 031000Z 02004MPS 9999 SCT033 19/11 Q1011 NOSIG
ZGNN,2015-03-03 11:00,ZGNN 031100Z 07005MPS 9999 BKN033 18/11 Q1012 NOSIG
ZGNN,2015-03-03 12:00,ZGNN 031200Z 08006MPS CAVOK 17/11 Q1012 NOSIG
ZGNN,2015-03-03 13:00,ZGNN 031300Z 07005MPS CAVOK 17/10 Q1013 NOSIG
ZGNN,2015-03-03 14:00,ZGNN 031400Z 07004MPS 040V100 CAVOK 16/11 Q1013 NOSIG
ZGNN,2015-03-03 15:00,ZGNN 031500Z 07004MPS CAVOK 16/10 Q1014 NOSIG
ZGNN,2015-03-03 16:00,ZGNN 031600Z 06005MPS CAVOK 15/09 Q1014 NOSIG
ZGNN,2015-03-03 17:00,ZGNN 031700Z 07005MPS CAVOK 15/08 Q1014 NOSIG
ZGNN,2015-03-03 18:00,ZGNN 031800Z 07005MPS CAVOK 15/08 Q1013 NOSIG
ZGNN,2015-03-03 19:00,ZGNN 031900Z 09003MPS CAVOK 14/09 Q1013 NOSIG
ZGNN,2015-03-03 20:00,ZGNN 032000Z 10003MPS 9999 BKN040 14/09 Q1013 NOSIG
ZGNN,2015-03-03 21:00,ZGNN 032100Z 09002MPS 070V130 9999 BKN040 14/09 Q1013 NOSIG
ZGNN,2015-03-03 22:00,ZGNN 032200Z 09002MPS 9999 BKN040 14/08 Q1013 NOSIG
ZGNN,2015-03-03 23:00,ZGNN 032300Z 05003MPS 9999 BKN040 14/09 Q1014 NOSIG
ZGNN,2015-03-04 00:00,ZGNN 040000Z 05003MPS 020V080 9999 SCT023 OVC040 14/09 Q1015 NOSIG
ZGNN,2015-03-04 01:00,ZGNN 040100Z 06004MPS 9999 SCT023 OVC040 14/08 Q1016 NOSIG
ZGNN,2015-03-04 02:00,ZGNN 040200Z 05002MPS 020V090 9999 SCT023 OVC040 15/09 Q1017 NOSIG
ZGNN,2015-03-04 03:00,ZGNN 040300Z 05003MPS 9999 SCT023 OVC040 15/09 Q1017 NOSIG
ZGNN,2015-03-04 04:00,ZGNN 040400Z 07004MPS 9999 BKN020 OVC040 15/09 Q1016 NOSIG
ZGNN,2015-03-04 05:00,ZGNN 040500Z 06003MPS 9999 BKN020 OVC040 15/10 Q1015 NOSIG
ZGNN,2015-03-04 06:00,ZGNN 040600Z 08003MPS 060V130 9999 BKN020 15/10 Q1014 NOSIG
ZGNN,2015-03-04 07:00,ZGNN 040700Z 06003MPS 030V120 9999 BKN020 15/10 Q1013 NOSIG
ZGNN,2015-03-04 08:00,ZGNN 040800Z 10004MPS 9999 BKN016 15/11 Q1012 NOSIG
ZGNN,2015-03-04 09:00,ZGNN 040900Z 08003MPS 050V120 7000 SCT013 SCT016 14/11 Q1012 NOSIG
ZGNN,2015-03-04 10:00,ZGNN 041000Z 07003MPS 040V100 4000 -DZ BR SCT009 SCT013 OVC040 13/11 Q1013 NOSIG
ZGNN,2015-03-04 11:00,ZGNN 041100Z 09003MPS 4000 -DZ BR SCT008 SCT011 OVC040 13/12 Q1013 NOSIG
ZGNN,2015-03-04 12:00,ZGNN 041200Z 10003MPS 4000 BR SCT008 SCT011 OVC040 13/11 Q1013 NOSIG
ZGNN,2015-03-04 13:00,ZGNN 041300Z 10003MPS 5000 BR FEW008 SCT010 OVC033 13/11 Q1014 NOSIG
ZGNN,2015-03-04 14:00,ZGNN 041400Z 09003MPS 340V140 5000 BR FEW008 SCT010 OVC033 13/11 Q1014 NOSIG
ZGNN,2015-03-04 15:00,ZGNN 041500Z 06004MPS 5000 BR FEW006 SCT008 OVC033 13/11 Q1014 NOSIG
ZGNN,2015-03-04 16:00,ZGNN 041600Z 08003MPS 050V120 3200 -DZ BR SCT003 SCT005 OVC033 12/12 Q1015 BECMG TL1700 2500 BR
ZGNN,2015-03-04 17:00,ZGNN 041700Z 08003MPS 2900 -DZ BR SCT003 SCT005 OVC033 12/12 Q1014 BECMG TL1800 3200 BR
ZGNN,2015-03-04 18:00,ZGNN 041800Z 06004MPS 3500 -DZ BR SCT003 SCT005 OVC033 12/12 Q1014 NOSIG
ZGNN,2015-03-04 19:00,ZGNN 041900Z 05003MPS 3500 -DZ BR FEW002 SCT004 OVC033 12/12 Q1013 NOSIG
ZGNN,2015-03-04 20:00,ZGNN 042000Z 04002MPS 3500 -DZ BR FEW002 SCT004 OVC033 12/12 Q1013 NOSIG
ZGNN,2015-03-04 21:00,ZGNN 042100Z 06003MPS 4500 -DZ BR FEW002 SCT004 OVC033 12/12 Q1013 NOSIG
ZGNN,2015-03-04 22:00,ZGNN 042200Z 05003MPS 3500 -DZ BR FEW002 SCT004 OVC033 12/12 Q1014 BECMG TL2300 2500 BR
ZGNN,2015-03-04 23:00,ZGNN 042300Z 08002MPS 2800 -DZ BR FEW002 SCT004 OVC033 13/13 Q1014 BECMG 3500 BR
ZGNN,2015-03-05 00:00,ZGNN 050000Z 10002MPS 060V160 7000 FEW003 SCT004 OVC033 12/12 Q1014 NOSIG
ZGNN,2015-03-05 01:00,ZGNN 050100Z 05002MPS 7000 FEW003 SCT005 OVC033 13/13 Q1015 NOSIG
ZGNN,2015-03-05 02:00,ZGNN 050200Z 04002MPS 3500 BR SCT003 SCT005 OVC033 13/13 Q1016 NOSIG
ZGNN,2015-03-05 03:00,ZGNN 050300Z 03002MPS 350V050 3500 -DZ BR SCT004 SCT007 OVC033 13/13 Q1017 NOSIG
ZGNN,2015-03-05 04:00,ZGNN 050400Z 04002MPS 3000 -DZ BR FEW002 SCT006 OVC033 13/13 Q1016 NOSIG
ZGNN,2015-03-05 05:00,ZGNN 050500Z 10002MPS 080V150 4000 BR FEW003 SCT006 OVC033 13/13 Q1015 NOSIG
ZGNN,2015-03-05 06:00,ZGNN 050600Z 07002MPS 050V140 2500 -DZ BR FEW003 SCT006 OVC033 14/14 Q1014 BECMG TL0740 3500 BR
ZGNN,2015-03-05 07:00,ZGNN 050700Z 06003MPS 5000 BR FEW004 SCT007 OVC033 14/13 Q1013 NOSIG
ZGNN,2015-03-05 08:00,ZGNN 050800Z 06003MPS 030V150 6000 FEW005 SCT008 OVC033 14/13 Q1013 NOSIG
ZGNN,2015-03-05 09:00,ZGNN 050900Z 06003MPS 7000 SCT005 OVC033 14/13 Q1012 NOSIG
ZGNN,2015-03-05 10:00,ZGNN 051000Z 05003MPS 020V090 6000 FEW003 SCT005 OVC033 14/13 Q1013 NOSIG
ZGNN,2015-03-05 11:00,ZGNN 051100Z 06004MPS 4500 -DZ BR FEW003 SCT005 OVC033 13/13 Q1013 NOSIG
ZGNN,2015-03-05 12:00,ZGNN 051200Z 04003MPS 4000 -DZ BR FEW003 SCT005 OVC033 13/13 Q1014 NOSIG
ZGNN,2015-03-05 13:00,ZGNN 051300Z 05004MPS 3500 -DZ BR FEW003 SCT005 OVC033 13/13 Q1015 NOSIG
ZGNN,2015-03-05 14:00,ZGNN 051400Z 04004MPS 3200 -DZ BR FEW003 SCT005 OVC030 13/13 Q1016 NOSIG
ZGNN,2015-03-05 15:00,ZGNN 051500Z 04004MPS 4000 -DZ BR SCT003 SCT005 OVC030 13/13 Q1016 NOSIG
ZGNN,2015-03-05 16:00,ZGNN 051600Z 04003MPS 3200 -DZ BR FEW002 SCT004 OVC030 12/12 Q1016 NOSIG
ZGNN,2015-03-05 17:00,ZGNN 051700Z 04003MPS 3500 -DZ BR FEW002 SCT004 OVC030 12/12 Q1016 NOSIG
ZGNN,2015-03-05 18:00,ZGNN 051800Z 05003MPS 3500 -DZ BR FEW002 SCT004 OVC030 12/12 Q1016 NOSIG
ZGNN,2015-03-05 19:00,ZGNN 051900Z 02003MPS 8000 -RA FEW004 SCT010 OVC030 12/12 Q1016 NOSIG
ZGNN,2015-03-05 20:00,ZGNN 052000Z 02004MPS 8000 -RA FEW003 SCT008 OVC030 12/12 Q1016 NOSIG
ZGNN,2015-03-05 21:00,ZGNN 052100Z 01003MPS 8000 -RA SCT008 OVC030 11/11 Q1016 NOSIG
ZGNN,2015-03-05 22:00,ZGNN 052200Z 34004MPS 9999 -RA SCT008 OVC030 11/11 Q1017 NOSIG
ZGNN,2015-03-05 23:00,ZGNN 052300Z 35003MPS 9999 -RA FEW005 SCT008 OVC030 11/11 Q1018 NOSIG
ZGNN,2015-03-06 00:00,ZGNN 060000Z 34003MPS 6000 -DZ FEW005 SCT008 OVC030 11/11 Q1019 NOSIG
ZGNN,2015-03-06 01:00,ZGNN 060100Z 36003MPS 4000 -DZ BR FEW004 SCT007 OVC030 11/11 Q1020 NOSIG
ZGNN,2015-03-06 02:00,ZGNN 060200Z 36004MPS 5000 -DZ BR FEW004 SCT007 OVC030 11/11 Q1020 NOSIG
ZGNN,2015-03-06 03:00,ZGNN 060300Z 36003MPS 8000 FEW005 SCT009 OVC030 11/11 Q1020 NOSIG
ZGNN,2015-03-06 04:00,ZGNN 060400Z 35003MPS 8000 FEW006 SCT009 OVC030 12/11 Q1020 NOSIG
ZGNN,2015-03-06 05:00,ZGNN 060500Z 01004MPS 9999 SCT008 OVC030 12/11 Q1019 NOSIG
ZGNN,2015-03-06 06:00,ZGNN 060600Z 36004MPS 9999 SCT009 OVC033 12/11 Q1018 NOSIG
ZGNN,2015-03-06 07:00,ZGNN 060700Z 01004MPS 9999 SCT011 OVC033 13/10 Q1017 NOSIG
ZGNN,2015-03-06 08:00,ZGNN 060800Z 01004MPS 9999 SCT013 OVC033 13/10 Q1016 NOSIG
ZGNN,2015-03-06 09:00,ZGNN 060900Z 02003MPS 350V050 8000 SCT013 OVC033 13/10 Q1016 NOSIG
ZGNN,2015-03-06 10:00,ZGNN 061000Z 06003MPS 9999 SCT011 OVC033 13/11 Q1015 NOSIG
ZGNN,2015-03-06 11:00,ZGNN 061100Z 04003MPS 9999 SCT013 OVC033 12/10 Q1016 NOSIG
ZGNN,2015-03-06 12:00,ZGNN 061200Z 05003MPS 9999 SCT013 OVC030 12/10 Q1017 NOSIG
ZGNN,2015-03-06 13:00,ZGNN 061300Z 06003MPS 9999 SCT016 OVC030 12/09 Q1017 NOSIG
ZGNN,2015-03-06 14:00,ZGNN 061400Z 04003MPS 9999 SCT016 OVC030 12/09 Q1018 NOSIG
ZGNN,2015-03-06 15:00,ZGNN 061500Z 05003MPS 9999 SCT013 OVC030 12/09 Q1018 NOSIG
ZGNN,2015-03-06 16:00,ZGNN 061600Z 05003MPS 9999 SCT011 OVC030 11/09 Q1019 NOSIG
ZGNN,2015-03-06 17:00,ZGNN 061700Z 05003MPS 5000 -DZ BR FEW007 SCT009 OVC030 11/10 Q1019 NOSIG
ZGNN,2015-03-06 18:00,ZGNN 061800Z 05002MPS 4500 -RA BR FEW005 SCT007 OVC030 11/10 Q1018 NOSIG
ZGNN,2015-03-06 19:00,ZGNN 061900Z 05002MPS 4000 -RA BR FEW004 SCT007 OVC030 11/11 Q1018 NOSIG
ZGNN,2015-03-06 20:00,ZGNN 062000Z 04002MPS 3500 -RA BR FEW004 SCT007 OVC030 11/11 Q1018 NOSIG
ZGNN,2015-03-06 21:00,ZGNN 062100Z 02002MPS 340V050 5000 -RA BR SCT003 SCT007 OVC026 11/11 Q1017 NOSIG
ZGNN,2015-03-06 22:00,ZGNN 062200Z 09002MPS 4000 -RA BR SCT003 SCT007 OVC026 10/10 Q1018 NOSIG
ZGNN,2015-03-06 23:00,ZGNN 062300Z 10002MPS 4500 BR SCT003 SCT007 OVC026 10/10 Q1018 NOSIG
ZGNN,2015-03-07 00:00,ZGNN 070000Z 11002MPS 3200 -DZ BR SCT003 SCT006 OVC026 10/10 Q1019 NOSIG
ZGNN,2015-03-07 01:00,ZGNN 070100Z 10003MPS 080V160 3100 -RA BR FEW002 SCT003 OVC026 10/10 Q1019 NOSIG
ZGNN,2015-03-07 02:00,ZGNN 070200Z VRB01MPS 4000 -RA BR FEW002 SCT003 OVC026 10/10 Q1020 NOSIG
ZGNN,2015-03-07 03:00,ZGNN 070300Z 06002MPS 030V110 3100 -RA BR SCT003 SCT004 OVC026 11/11 Q1020 NOSIG
ZGNN,2015-03-07 04:00,ZGNN 070400Z VRB01MPS 4000 -RA BR SCT003 SCT005 OVC026 11/11 Q1019 NOSIG
ZGNN,2015-03-07 05:00,ZGNN 070500Z 03002MPS 350V090 4000 BR SCT003 SCT005 OVC026 12/11 Q1018 NOSIG
ZGNN,2015-03-07 06:00,ZGNN 070600Z 06002MPS 3200 BR SCT003 SCT005 OVC026 12/12 Q1017 NOSIG
ZGNN,2015-03-07 07:00,ZGNN 070700Z 03002MPS 4000 BR SCT005 SCT008 OVC026 12/11 Q1016 NOSIG
ZGNN,2015-03-07 08:00,ZGNN 070800Z 02002MPS 330V070 4500 BR SCT005 SCT008 OVC026 12/11 Q1015 NOSIG
ZGNN,2015-03-07 09:00,ZGNN 070900Z 03002MPS 360V060 2000 -DZ BR FEW003 SCT005 OVC026 12/12 Q1015 NOSIG
ZGNN,2015-03-07 10:00,ZGNN 071000Z 07002MPS 2100 -DZ BR FEW002 SCT004 OVC026 12/12 Q1015 NOSIG
ZGNN,2015-03-07 11:00,ZGNN 071100Z 10002MPS 2500 -DZ BR FEW002 SCT004 OVC026 12/12 Q1015 BECMG TL1210 3500 BR
ZGNN,2015-03-07 12:00,ZGNN 071200Z 10002MPS 090V160 5000 -DZ BR FEW002 SCT005 OVC026 12/12 Q1015 NOSIG
ZGNN,2015-03-07 13:00,ZGNN 071300Z 10002MPS 080V150 5000 -DZ BR FEW003 SCT005 OVC026 12/12 Q1016 NOSIG
ZGNN,2015-03-07 14:00,ZGNN 071400Z 09002MPS 050V120 4000 -DZ BR FEW003 SCT005 OVC026 12/12 Q1016 NOSIG
ZGNN,2015-03-07 15:00,ZGNN 071500Z 11002MPS 090V180 3100 -DZ BR FEW001 SCT002 OVC026 12/12 Q1016 NOSIG
ZGNN,2015-03-07 16:00,ZGNN 071600Z 05002MPS 3100 -DZ BR FEW001 SCT002 OVC026 11/11 Q1016 BECMG TL1640 2000 -DZ BR
ZGNN,2015-03-07 17:00,ZGNN 071700Z 05002MPS 2500 -DZ BR FEW001 SCT002 OVC026 12/12 Q1016 NOSIG
ZGNN,2015-03-07 18:00,ZGNN 071800Z 06002MPS 2500 -DZ BR FEW001 SCT002 OVC026 12/12 Q1015 NOSIG
ZGNN,2015-03-07 19:00,ZGNN 071900Z 05002MPS 2500 -DZ BR FEW001 SCT002 OVC026 11/11 Q1015 NOSIG
ZGNN,2015-03-07 20:00,ZGNN 072000Z 04002MPS 2800 -DZ BR FEW002 SCT004 OVC026 11/11 Q1015 BECMG TL2040 3500 BR
ZGNN,2015-03-07 21:00,ZGNN 072100Z 04002MPS 3200 -DZ BR FEW002 SCT004 OVC026 12/12 Q1014 BECMG TL2140 2300 BR
ZGNN,2015-03-07 22:00,ZGNN 072200Z VRB01MPS 2200 -DZ BR SCT002 SCT003 OVC026 12/12 Q1015 NOSIG
ZGNN,2015-03-07 23:00,ZGNN 072300Z VRB01MPS 1600 -DZ BR SCT002 SCT003 OVC026 12/12 Q1016 NOSIG
ZGNN,2015-03-08 00:00,ZGNN 080000Z VRB01MPS 1100 R05/P2000 -DZ BR FEW001 SCT003 OVC026 12/12 Q1016 BECMG TL0040 1600 -DZ BR
ZGNN,2015-03-08 01:00,ZGNN 080100Z 04002MPS 340V060 1400 R05/P2000 -DZ BR FEW001 SCT003 OVC026 12/12 Q1017 NOSIG
ZGNN,2015-03-08 02:00,ZGNN 080200Z 03002MPS 340V060 1400 R05/P2000 -DZ BR FEW001 SCT003 OVC026 13/13 Q1017 NOSIG
ZGNN,2015-03-08 03:00,ZGNN 080300Z 07002MPS 2800 BR FEW002 SCT004 OVC026 13/13 Q1018 NOSIG
ZGNN,2015-03-08 04:00,ZGNN 080400Z VRB01MPS 3500 BR FEW003 SCT006 OVC026 14/14 Q1017 NOSIG
ZGNN,2015-03-08 05:00,ZGNN 080500Z VRB01MPS 4000 BR FEW004 SCT006 OVC026 15/15 Q1016 NOSIG
ZGNN,2015-03-08 06:00,ZGNN 080600Z VRB01MPS 3200 BR SCT006 OVC026 16/15 Q1015 NOSIG
ZGNN,2015-03-08 07:00,ZGNN 080700Z 05002MPS 4000 BR SCT006 OVC026 16/15 Q1014 NOSIG
ZGNN,2015-03-08 08:00,ZGNN 080800Z 03003MPS 3100 -DZ BR FEW004 SCT005 OVC026 16/16 Q1014 BECMG TL0900 2500 BR
ZGNN,2015-03-08 09:00,ZGNN 080900Z 01003MPS 1600 -RA BR FEW002 SCT004 OVC026 16/16 Q1014 TEMPO 1200 -RA BR
ZGNN,2015-03-08 10:00,ZGNN 081000Z 02002MPS 1200 R05/1900U -RA BR SCT002 SCT004 OVC026 16/16 Q1014 NOSIG
ZGNN,2015-03-08 11:00,ZGNN 081100Z 04002MPS 1700 -RA BR FEW001 SCT003 OVC026 16/16 Q1015 NOSIG
ZGNN,2015-03-08 12:00,ZGNN 081200Z 04003MPS 1700 -RA BR FEW001 SCT003 OVC026 16/16 Q1016 NOSIG
ZGNN,2015-03-08 13:00,ZGNN 081300Z 01003MPS 2500 -RA BR FEW002 SCT004 OVC026 16/16 Q1017 NOSIG
ZGNN,2015-03-08 14:00,ZGNN 081400Z 02002MPS 2800 -RA BR SCT003 SCT005 OVC026 16/16 Q1017 NOSIG
ZGNN,2015-03-08 15:00,ZGNN 081500Z 05004MPS 2800 -RA BR FEW002 SCT004 OVC026 16/16 Q1018 BECMG TL1600 3500 -RA BR
ZGNN,2015-03-08 16:00,ZGNN 081600Z 07002MPS 040V110 3500 -RA BR FEW002 SCT004 OVC026 15/15 Q1018 NOSIG
ZGNN,2015-03-08 17:00,ZGNN 081700Z 10002MPS 5000 -RA BR FEW002 SCT004 OVC026 15/15 Q1018 NOSIG
ZGNN,2015-03-08 18:00,ZGNN 081800Z 06002MPS 4000 -RA BR SCT002 SCT004 OVC026 15/15 Q1018 NOSIG
ZGNN,2015-03-08 19:00,ZGNN 081900Z 36002MPS 3200 -RA BR FEW001 SCT006 OVC026 15/15 Q1017 NOSIG
ZGNN,2015-03-08 20:00,ZGNN 082000Z 36002MPS 2700 BR SCT001 SCT003 OVC026 15/15 Q1017 NOSIG
ZGNN,2015-03-08 21:00,ZGNN 082100Z 35002MPS 2700 BR FEW001 SCT003 OVC026 14/14 Q1017 NOSIG
ZGNN,2015-03-08 22:00,ZGNN 082200Z 35002MPS 2800 BR FEW001 SCT003 OVC026 14/14 Q1018 BECMG TL2300 4000 BR
ZGNN,2015-03-08 23:00,ZGNN 082300Z 36002MPS 5000 BR FEW003 SCT005 OVC026 14/14 Q1018 NOSIG
ZGNN,2015-03-09 00:00,ZGNN 090000Z 01002MPS 5000 BR FEW003 SCT005 OVC026 15/15 Q1019 NOSIG
ZGNN,2015-03-09 01:00,ZGNN 090100Z 35002MPS 2800 BR FEW002 SCT005 OVC026 15/15 Q1020 BECMG TL0240 3500 BR
ZGNN,2015-03-09 02:00,ZGNN 090200Z 35002MPS 330V030 3000 BR FEW002 SCT005 OVC026 15/15 Q1020 NOSIG
ZGNN,2015-03-09 03:00,ZGNN 090300Z 01002MPS 330V040 3500 BR FEW003 SCT005 OVC026 15/15 Q1020 NOSIG
ZGNN,2015-03-09 04:00,ZGNN 090400Z 02002MPS 3500 -DZ BR FEW003 SCT005 OVC026 16/16 Q1020 NOSIG
ZGNN,2015-03-09 05:00,ZGNN 090500Z 02002MPS 3500 -DZ BR FEW003 SCT005 OVC026 16/16 Q1019 NOSIG
ZGNN,2015-03-09 06:00,ZGNN 090600Z 36002MPS 4000 -DZ BR FEW003 SCT005 OVC026 16/16 Q1018 NOSIG
ZGNN,2015-03-09 07:00,ZGNN 090700Z 01002MPS 340V040 2000 -DZ BR FEW002 SCT004 OVC026 16/16 Q1017 NOSIG
ZGNN,2015-03-09 08:00,ZGNN 090800Z 03002MPS 1700 -DZ BR SCT002 SCT004 OVC026 16/16 Q1017 NOSIG
ZGNN,2015-03-09 09:00,ZGNN 090900Z 05003MPS 1700 -RA BR SCT002 SCT004 OVC026 16/16 Q1017 NOSIG
ZGNN,2015-03-09 10:00,ZGNN 091000Z 04003MPS 2000 -DZ BR SCT002 SCT005 OVC026 16/16 Q1017 NOSIG
ZGNN,2015-03-09 11:00,ZGNN 091100Z 04004MPS 2500 BR SCT002 SCT005 OVC026 16/16 Q1018 BECMG TL1200 3500 -RA BR
ZGNN,2015-03-09 12:00,ZGNN 091200Z 04003MPS 2500 BR SCT002 SCT005 OVC026 16/16 Q1018 NOSIG
ZGNN,2015-03-09 13:00,ZGNN 091300Z 04003MPS 1700 -RA BR SCT002 SCT004 OVC023 15/15 Q1019 NOSIG
ZGNN,2015-03-09 14:00,ZGNN 091400Z 04003MPS 2500 -RA BR SCT002 SCT005 OVC023 15/15 Q1020 NOSIG
ZGNN,2015-03-09 15:00,ZGNN 091500Z 04003MPS 5000 BR FEW005 SCT010 OVC026 15/15 Q1020 NOSIG
ZGNN,2015-03-09 16:00,ZGNN 091600Z 04002MPS 6000 SCT010 OVC030 15/15 Q1020 NOSIG
ZGNN,2015-03-09 17:00,ZGNN 091700Z 04002MPS 3200 -RA BR SCT011 OVC026 15/15 Q1020 NOSIG
ZGNN,2015-03-09 18:00,ZGNN 091800Z 05003MPS 2000 -RA BR SCT004 SCT009 OVC023 15/15 Q1020 NOSIG
ZGNN,2015-03-09 19:00,ZGNN 091900Z 05004MPS 2000 -RA BR FEW002 SCT004 OVC026 14/14 Q1020 NOSIG
ZGNN,2015-03-09 20:00,ZGNN 092000Z 07003MPS 2000 -RA BR FEW002 SCT004 OVC026 14/14 Q1019 NOSIG
ZGNN,2015-03-09 21:00,ZGNN 092100Z 05002MPS 2000 -RA BR FEW002 SCT004 OVC026 14/14 Q1019 NOSIG
ZGNN,2015-03-09 22:00,ZGNN 092200Z 06002MPS 2000 -RA BR FEW002 SCT004 OVC026 14/14 Q1020 NOSIG
ZGNN,2015-03-09 23:00,ZGNN 092300Z 08002MPS 2000 -RA BR FEW002 SCT004 OVC026 14/14 Q1020 NOSIG
ZGNN,2015-03-10 00:00,ZGNN 100000Z 08004MPS 1800 -RA BR FEW002 SCT004 OVC026 14/14 Q1021 NOSIG
ZGNN,2015-03-10 01:00,ZGNN 100100Z 06003MPS 1800 -RA BR FEW002 SCT004 OVC026 14/14 Q1022 NOSIG
ZGNN,2015-03-10 02:00,ZGNN 100200Z 06004MPS 2500 -RA BR FEW003 SCT004 OVC026 14/14 Q1022 NOSIG
ZGNN,2015-03-10 03:00,ZGNN 100300Z 06004MPS 030V120 2000 -RA BR FEW002 SCT004 OVC026 14/14 Q1022 NOSIG
ZGNN,2015-03-10 04:00,ZGNN 100400Z 05003MPS 2300 -RA BR FEW002 SCT004 OVC026 14/14 Q1022 NOSIG
ZGNN,2015-03-10 05:00,ZGNN 100500Z 06004MPS 2300 -RA BR FEW002 SCT004 OVC026 14/14 Q1021 NOSIG
ZGNN,2015-03-10 06:00,ZGNN 100600Z 06003MPS 2700 -RA BR FEW002 SCT004 OVC026 14/14 Q1020 NOSIG
ZGNN,2015-03-10 07:00,ZGNN 100700Z 08002MPS 2700 -RA BR SCT003 SCT005 OVC026 14/14 Q1020 NOSIG
ZGNN,2015-03-10 08:00,ZGNN 100800Z 08004MPS 2800 -RA BR SCT003 SCT005 OVC026 14/14 Q1019 NOSIG
ZGNN,2015-03-10 09:00,ZGNN 100900Z 07003MPS 040V100 2800 -RA BR SCT003 SCT005 OVC026 14/14 Q1019 NOSIG
ZGNN,2015-03-10 10:00,ZGNN 101000Z 08003MPS 2800 -RA BR FEW003 SCT005 OVC026 14/14 Q1019 BECMG TL1045 3500 -RA BR
ZGNN,2015-03-10 11:00,ZGNN 101100Z 05002MPS 4000 -RA BR FEW002 SCT004 OVC026 14/14 Q1019 NOSIG
ZGNN,2015-03-10 12:00,ZGNN 101200Z 03003MPS 3200 -RA BR SCT002 SCT004 OVC026 13/13 Q1020 BECMG TL1240 2500 -RA BR
ZGNN,2015-03-10 13:00,ZGNN 101300Z 03002MPS 2800 -RA BR SCT002 SCT004 OVC026 13/13 Q1020 NOSIG
ZGNN,2015-03-10 14:00,ZGNN 101400Z 07003MPS 2900 -RA BR FEW003 SCT005 OVC026 13/13 Q1021 BECMG TL1520 3500 -RA BR
ZGNN,2015-03-10 15:00,ZGNN 101500Z 05003MPS 030V090 4000 -RA BR FEW003 SCT005 OVC030 13/13 Q1021 NOSIG
ZGNN,2015-03-10 16:00,ZGNN 101600Z 06003MPS 4000 -RA BR FEW003 SCT006 OVC030 13/13 Q1021 NOSIG
ZGNN,2015-03-10 17:00,ZGNN 101700Z 06003MPS 3500 -RA BR FEW003 SCT006 OVC030 13/13 Q1021 NOSIG
ZGNN,2015-03-10 18:00,ZGNN 101800Z 03002MPS 4000 -RA BR FEW002 SCT006 OVC030 13/13 Q1021 NOSIG
ZGNN,2015-03-10 19:00,ZGNN 101900Z 05003MPS 3500 -RA BR FEW002 SCT004 OVC026 13/13 Q1020 NOSIG
ZGNN,2015-03-10 20:00,ZGNN 102000Z 05003MPS 3200 -RA BR SCT002 SCT004 OVC026 13/13 Q1020 BECMG TL2120 2500 -RA BR
ZGNN,2015-03-10 21:00,ZGNN 102100Z 06002MPS 2500 -RA BR SCT002 SCT004 OVC026 13/13 Q1020 NOSIG
ZGNN,2015-03-10 22:00,ZGNN 102200Z 07002MPS 2800 -RA BR SCT002 SCT004 OVC026 13/13 Q1020 NOSIG
ZGNN,2015-03-10 23:00,ZGNN 102300Z 05002MPS 2800 -RA BR SCT002 SCT004 OVC026 13/13 Q1021 NOSIG
ZGNN,2015-03-11 00:00,ZGNN 110000Z 05002MPS 2500 -RA BR SCT002 SCT004 OVC026 13/13 Q1022 NOSIG
ZGNN,2015-03-11 01:00,ZGNN 110100Z 01002MPS 2900 -RA BR FEW002 SCT004 OVC026 13/13 Q1023 BECMG TL0200 3200 BR
ZGNN,2015-03-11 02:00,ZGNN 110200Z 36002MPS 330V030 4500 -RA BR FEW003 SCT006 OVC026 13/13 Q1024 NOSIG
ZGNN,2015-03-11 03:00,ZGNN 110300Z 36003MPS 3500 -RA BR FEW003 SCT006 OVC026 13/13 Q1024 NOSIG
ZGNN,2015-03-11 04:00,ZGNN 110400Z 36003MPS 5000 -RA BR FEW003 SCT006 OVC026 13/13 Q1024 NOSIG
ZGNN,2015-03-11 05:00,ZGNN 110500Z 36004MPS 7000 -RA FEW003 SCT006 OVC026 13/13 Q1023 NOSIG
ZGNN,2015-03-11 06:00,ZGNN 110600Z 35003MPS 5000 -RA BR FEW005 SCT009 OVC026 13/13 Q1022 NOSIG
ZGNN,2015-03-11 07:00,ZGNN 110700Z 36003MPS 6000 -RA FEW005 SCT010 OVC026 13/13 Q1021 NOSIG
ZGNN,2015-03-11 08:00,ZGNN 110800Z 36003MPS 8000 -RA FEW005 SCT010 OVC026 13/13 Q1020 NOSIG
ZGNN,2015-03-11 09:00,ZGNN 110900Z 36003MPS 330V030 8000 -RA FEW008 SCT013 OVC026 13/13 Q1020 NOSIG
ZGNN,2015-03-11 10:00,ZGNN 111000Z 02003MPS 8000 -RA FEW005 SCT008 OVC026 14/13 Q1021 NOSIG
ZGNN,2015-03-11 11:00,ZGNN 111100Z 08004MPS 9999 FEW005 SCT008 OVC026 13/12 Q1021 NOSIG
ZGNN,2015-03-11 12:00,ZGNN 111200Z 05003MPS 9999 FEW005 SCT011 OVC026 13/12 Q1022 NOSIG
ZGNN,2015-03-11 13:00,ZGNN 111300Z 02003MPS 9999 FEW007 SCT013 OVC030 13/12 Q1023 NOSIG
ZGNN,2015-03-11 14:00,ZGNN 111400Z 04003MPS 5000 -RA BR FEW007 SCT013 OVC033 13/12 Q1024 NOSIG
ZGNN,2015-03-11 15:00,ZGNN 111500Z 04003MPS 3500 -RA BR FEW003 SCT008 OVC033 12/12 Q1024 BECMG TL1640 2800 -RA BR
ZGNN,2015-03-11 16:00,ZGNN 111600Z 04002MPS 3500 -RA BR FEW002 SCT007 OVC030 12/12 Q1024 BECMG TL1720 2800 -RA BR
ZGNN,2015-03-11 17:00,ZGNN 111700Z 05003MPS 2900 -RA BR FEW002 SCT006 OVC030 12/12 Q1024 BECMG TL1800 3500 -RA BR
ZGNN,2015-03-11 18:00,ZGNN 111800Z 06002MPS 4000 -RA BR FEW004 SCT008 OVC030 12/12 Q1023 NOSIG
ZGNN,2015-03-11 19:00,ZGNN 111900Z 03002MPS 4000 -RA BR FEW003 SCT006 OVC026 12/12 Q1022 NOSIG
ZGNN,2015-03-11 20:00,ZGNN 112000Z 34003MPS 5000 -RA BR FEW004 SCT008 OVC026 12/12 Q1022 NOSIG
ZGNN,2015-03-11 21:00,ZGNN 112100Z 33003MPS 8000 FEW005 SCT007 OVC026 12/12 Q1022 NOSIG
ZGNN,2015-03-11 22:00,ZGNN 112200Z 34003MPS 9999 FEW008 SCT013 OVC030 12/11 Q1022 NOSIG
ZGNN,2015-03-11 23:00,ZGNN 112300Z 02002MPS 9999 SCT015 OVC030 12/11 Q1022 NOSIG
ZGNN,2015-03-12 00:00,ZGNN 120000Z VRB01MPS 9999 SCT015 OVC030 12/11 Q1023 NOSIG
ZGNN,2015-03-12 01:00,ZGNN 120100Z VRB01MPS 9999 SCT015 OVC033 12/11 Q1023 NOSIG
ZGNN,2015-03-12 02:00,ZGNN 120200Z VRB01MPS 9999 FEW016 OVC040 13/11 Q1024 NOSIG
ZGNN,2015-03-12 03:00,ZGNN 120300Z VRB01MPS 9999 FEW016 BKN040 15/12 Q1023 NOSIG
ZGNN,2015-03-12 04:00,ZGNN 120400Z VRB01MPS 9999 SCT020 BKN040 17/11 Q1022 NOSIG
ZGNN,2015-03-12 05:00,ZGNN 120500Z 06002MPS 020V090 9999 SCT023 BKN040 16/11 Q1020 NOSIG
ZGNN,2015-03-12 06:00,ZGNN 120600Z VRB01MPS 9999 SCT020 BKN040 16/11 Q1019 NOSIG
ZGNN,2015-03-12 07:00,ZGNN 120700Z 35002MPS 290V060 9999 SCT020 BKN040 16/12 Q1018 NOSIG
ZGNN,2015-03-12 08:00,ZGNN 120800Z 36002MPS 300V040 9999 SCT020 BKN040 16/12 Q1018 NOSIG
ZGNN,2015-03-12 09:00,ZGNN 120900Z VRB01MPS 9999 SCT020 BKN040 16/12 Q1017 NOSIG
ZGNN,2015-03-12 10:00,ZGNN 121000Z VRB02MPS 9999 SCT016 BKN040 16/13 Q1017 NOSIG
ZGNN,2015-03-12 11:00,ZGNN 121100Z 11002MPS 6000 SCT015 OVC040 15/13 Q1017 NOSIG
ZGNN,2015-03-12 12:00,ZGNN 121200Z 10002MPS 080V190 7000 SCT015 OVC040 15/13 Q1018 NOSIG
ZGNN,2015-03-12 13:00,ZGNN 121300Z 10004MPS 8000 SCT013 OVC040 14/12 Q1018 NOSIG
ZGNN,2015-03-12 14:00,ZGNN 121400Z 09003MPS 6000 FEW009 SCT013 OVC040 14/12 Q1019 NOSIG
ZGNN,2015-03-12 15:00,ZGNN 121500Z 08004MPS 5000 -DZ BR FEW006 SCT011 OVC030 13/12 Q1019 NOSIG
ZGNN,2015-03-12 16:00,ZGNN 121600Z 08003MPS 4000 -DZ BR FEW005 SCT010 OVC030 13/12 Q1019 NOSIG
ZGNN,2015-03-12 17:00,ZGNN 121700Z 09002MPS 3100 -RA BR SCT004 SCT008 OVC026 13/13 Q1018 BECMG TL1840 2500 -RA BR
ZGNN,2015-03-12 18:00,ZGNN 121800Z 06003MPS 2800 -RA BR FEW003 SCT005 OVC026 13/13 Q1017 NOSIG
ZGNN,2015-03-12 19:00,ZGNN 121900Z 04003MPS 2800 BR FEW003 SCT005 OVC026 13/13 Q1017 NOSIG
ZGNN,2015-03-12 20:00,ZGNN 122000Z 04002MPS 2100 -RA BR SCT002 SCT004 OVC026 13/13 Q1016 NOSIG
ZGNN,2015-03-12 21:00,ZGNN 122100Z 07002MPS 2500 -RA BR SCT002 SCT004 OVC026 13/13 Q1016 NOSIG
ZGNN,2015-03-12 22:00,ZGNN 122200Z 09001MPS 2800 -RA BR SCT002 SCT004 OVC026 13/13 Q1016 BECMG TL2240 4000 -RA BR
ZGNN,2015-03-12 23:00,ZGNN 122300Z 11001MPS 3500 -RA BR FEW002 SCT004 OVC026 13/13 Q1016 NOSIG
ZGNN,2015-03-13 00:00,ZGNN 130000Z VRB01MPS 4000 -RA BR FEW002 SCT004 OVC026 13/13 Q1017 NOSIG
ZGNN,2015-03-13 01:00,ZGNN 130100Z VRB01MPS 6000 -DZ FEW003 SCT004 OVC026 13/13 Q1017 NOSIG
ZGNN,2015-03-13 02:00,ZGNN 130200Z 02002MPS 350V050 7000 -DZ FEW003 SCT004 OVC026 14/14 Q1018 NOSIG
ZGNN,2015-03-13 03:00,ZGNN 130300Z 06003MPS 3500 -DZ BR FEW002 SCT003 OVC026 14/14 Q1018 BECMG TL0340 2300 -DZ BR
ZGNN,2015-03-13 04:00,ZGNN 130400Z 04003MPS 2500 -DZ BR FEW002 SCT003 OVC026 14/14 Q1017 NOSIG
ZGNN,2015-03-13 05:00,ZGNN 130500Z 04002MPS 010V070 2800 -DZ BR FEW002 SCT003 OVC026 15/15 Q1016 BECMG TL0600 3500 BR
ZGNN,2015-03-13 06:00,ZGNN 130600Z 02002MPS 350V050 3500 -DZ BR SCT003 OVC026 15/15 Q1015 NOSIG
ZGNN,2015-03-13 07:00,ZGNN 130700Z 05002MPS 3500 -DZ BR SCT003 SCT005 OVC026 15/15 Q1014 NOSIG
ZGNN,2015-03-13 08:00,ZGNN 130800Z 05003MPS 3100 -DZ BR FEW002 SCT004 OVC026 15/15 Q1013 NOSIG
ZGNN,2015-03-13 09:00,ZGNN 130900Z 04003MPS 3100 -DZ BR FEW002 SCT004 OVC026 15/15 Q1013 BECMG TL1020 2500 -DZ BR
ZGNN,2015-03-13 10:00,ZGNN 131000Z 06003MPS 3100 -DZ BR FEW002 SCT004 OVC026 15/15 Q1014 NOSIG
ZGNN,2015-03-13 11:00,ZGNN 131100Z 08003MPS 7000 -DZ FEW002 SCT004 OVC026 15/15 Q1014 NOSIG
ZGNN,2015-03-13 12:00,ZGNN 131200Z 09003MPS 9000 FEW004 SCT013 OVC033 15/15 Q1015 NOSIG
ZGNN,2015-03-13 13:00,ZGNN 131300Z 07003MPS 040V120 9000 FEW004 SCT013 OVC033 15/15 Q1016 NOSIG
ZGNN,2015-03-13 14:00,ZGNN 131400Z 07002MPS 350V120 6000 FEW003 SCT006 OVC033 15/15 Q1016 NOSIG
ZGNN,2015-03-13 15:00,ZGNN 131500Z 08002MPS 4000 -RA BR FEW003 SCT005 OVC026 15/15 Q1016 NOSIG
ZGNN,2015-03-13 16:00,ZGNN 131600Z VRB01MPS 4000 -RA BR FEW002 SCT003 OVC026 15/15 Q1016 NOSIG
ZGNN,2015-03-13 17:00,ZGNN 131700Z 06002MPS 4000 -RA BR FEW002 SCT003 OVC026 15/15 Q1016 NOSIG
ZGNN,2015-03-13 18:00,ZGNN 131800Z 05003MPS 5000 -RA BR FEW002 SCT003 OVC026 15/15 Q1015 NOSIG
ZGNN,2015-03-13 19:00,ZGNN 131900Z 03002MPS 4000 -RA BR FEW002 SCT003 OVC026 15/15 Q1015 NOSIG
ZGNN,2015-03-13 20:00,ZGNN 132000Z VRB01MPS 3500 -RA BR FEW002 SCT003 OVC026 15/15 Q1014 BECMG TL2140 2500 BR
ZGNN,2015-03-13 21:00,ZGNN 132100Z 02002MPS 3500 -RA BR FEW002 SCT003 OVC026 15/15 Q1014 BECMG TL2200 2800 BR
ZGNN,2015-03-13 22:00,ZGNN 132200Z 03002MPS 2800 -RA BR FEW002 SCT003 OVC026 16/16 Q1015 BECMG TL2300 4000 BR
ZGNN,2015-03-13 23:00,ZGNN 132300Z 04003MPS 3500 BR FEW002 SCT003 OVC026 16/16 Q1015 NOSIG
ZGNN,2015-03-14 00:00,ZGNN 140000Z 03003MPS 2800 BR FEW002 SCT003 OVC026 16/16 Q1016 BECMG TL0140 3500 BR
ZGNN,2015-03-14 01:00,ZGNN 140100Z 05003MPS 2800 BR FEW002 SCT003 OVC026 16/16 Q1017 BECMG TL0140 3500 BR
ZGNN,2015-03-14 02:00,ZGNN 140200Z 04002MPS 4500 BR FEW002 SCT003 OVC026 17/17 Q1017 NOSIG
ZGNN,2015-03-14 03:00,ZGNN 140300Z VRB02MPS 3200 BR FEW002 SCT003 OVC026 18/18 Q1017 NOSIG
ZGNN,2015-03-14 04:00,ZGNN 140400Z VRB01MPS 5000 BR SCT005 SCT008 OVC026 21/20 Q1016 NOSIG
ZGNN,2015-03-14 05:00,ZGNN 140500Z 14003MPS 110V170 6000 SCT008 OVC026 22/21 Q1014 NOSIG
ZGNN,2015-03-14 06:00,ZGNN 140600Z 16004MPS 6000 SCT009 OVC030 23/21 Q1013 NOSIG
ZGNN,2015-03-14 07:00,ZGNN 140700Z 16004MPS 6000 SCT010 OVC030 23/21 Q1012 NOSIG
ZGNN,2015-03-14 08:00,ZGNN 140800Z 14003MPS 120V180 6000 SCT010 OVC030 23/21 Q1011 NOSIG
ZGNN,2015-03-14 09:00,ZGNN 140900Z 15003MPS 120V180 6000 SCT009 OVC030 23/22 Q1012 NOSIG
ZGNN,2015-03-14 10:00,ZGNN 141000Z 16004MPS 6000 SCT009 OVC030 23/21 Q1012 NOSIG
ZGNN,2015-03-14 11:00,ZGNN 141100Z 16002MPS 090V220 6000 SCT011 OVC030 23/21 Q1012 NOSIG
ZGNN,2015-03-14 12:00,ZGNN 141200Z VRB01MPS 6000 SCT013 OVC033 22/21 Q1013 NOSIG
ZGNN,2015-03-14 13:00,ZGNN 141300Z VRB01MPS 6000 SCT023 BKN040 22/21 Q1013 NOSIG
ZGNN,2015-03-14 14:00,ZGNN 141400Z 11002MPS 060V160 7000 SCT023 BKN040 22/21 Q1013 NOSIG
ZGNN,2015-03-14 15:00,ZGNN 141500Z 15002MPS 110V180 6000 SCT023 BKN040 22/21 Q1014 NOSIG
ZGNN,2015-03-14 16:00,ZGNN 141600Z 00000MPS 6000 FEW008 SCT020 BKN036 22/21 Q1014 NOSIG
ZGNN,2015-03-14 17:00,ZGNN 141700Z 14003MPS 4000 BR BKN036 22/22 Q1013 NOSIG
ZGNN,2015-03-14 18:00,ZGNN 141800Z 00000MPS 4000 BR FEW008 22/21 Q1013 NOSIG
ZGNN,2015-03-14 19:00,ZGNN 141900Z 00000MPS 3200 BR FEW007 21/21 Q1012 BECMG TL2020 2500 BR
ZGNN,2015-03-14 20:00,ZGNN 142000Z VRB01MPS 2500 BR SCT006 21/21 Q1012 NOSIG
ZGNN,2015-03-14 21:00,ZGNN 142100Z VRB01MPS 2700 BR SCT005 21/21 Q1012 NOSIG
ZGNN,2015-03-14 22:00,ZGNN 142200Z VRB01MPS 2400 BR SCT006 21/21 Q1012 NOSIG
ZGNN,2015-03-14 23:00,ZGNN 142300Z 03002MPS 2400 BR SCT006 21/21 Q1013 BECMG TL0050 3500 BR
ZGNN,2015-03-15 00:00,ZGNN 150000Z 03002MPS 1600 BR SCT008 21/21 Q1013 BECMG TL0140 3500 BR
ZGNN,2015-03-15 01:00,ZGNN 150100Z 10002MPS 080V140 2800 BR SCT008 23/22 Q1014 BECMG TL0220 4000 BR
ZGNN,2015-03-15 02:00,ZGNN 150200Z 15002MPS 5000 BR SCT009 24/22 Q1014 NOSIG
ZGNN,2015-03-15 03:00,ZGNN 150300Z 14003MPS 110V180 7000 SCT011 25/22 Q1014 NOSIG
ZGNN,2015-03-15 04:00,ZGNN 150400Z 14004MPS 110V200 9999 SCT013 BKN043 26/23 Q1013 NOSIG
ZGNN,2015-03-15 05:00,ZGNN 150500Z 13003MPS 090V180 9999 SCT016 BKN043 27/22 Q1011 NOSIG
ZGNN,2015-03-15 06:00,ZGNN 150600Z 12004MPS 100V160 9999 SCT020 BKN043 27/23 Q1010 NOSIG
ZGNN,2015-03-15 07:00,ZGNN 150700Z 13005MPS 9999 SCT026 BKN043 27/23 Q1009 NOSIG
ZGNN,2015-03-15 08:00,ZGNN 150800Z 13004MPS 110V170 9999 SCT026 BKN043 27/22 Q1008 NOSIG
ZGNN,2015-03-15 09:00,ZGNN 150900Z 13005MPS 9999 SCT026 BKN043 27/22 Q1008 NOSIG
ZGNN,2015-03-15 10:00,ZGNN 151000Z 13005MPS 9999 SCT026 BKN043 26/22 Q1008 NOSIG
ZGNN,2015-03-15 11:00,ZGNN 151100Z 15004MPS 9999 BKN036 24/22 Q1009 NOSIG
ZGNN,2015-03-15 12:00,ZGNN 151200Z 09002MPS 030V190 9999 BKN046 24/22 Q1010 NOSIG
ZGNN,2015-03-15 13:00,ZGNN 151300Z 09002MPS 070V150 7000 FEW011 23/22 Q1011 NOSIG
ZGNN,2015-03-15 14:00,ZGNN 151400Z 09002MPS 070V140 6000 NSC 23/22 Q1012 NOSIG
ZGNN,2015-03-15 15:00,ZGNN 151500Z VRB01MPS 5000 BR NSC 22/22 Q1012 NOSIG
ZGNN,2015-03-15 16:00,ZGNN 151600Z VRB01MPS 4000 BR NSC 22/21 Q1012 NOSIG
ZGNN,2015-03-15 18:00,ZGNN 151800Z 33001MPS 2300 BR FEW033 20/20 Q1012 NOSIG
ZGNN,2015-03-15 19:00,ZGNN 151900Z 02003MPS 2000 BR FEW013 20/20 Q1011 NOSIG
ZGNN,2015-03-15 20:00,ZGNN 152000Z 04001MPS 3000 BR NSC 20/20 Q1011 NOSIG
ZGNN,2015-03-15 21:00,ZGNN 152100Z 03002MPS 3100 BR NSC 21/21 Q1012 NOSIG
ZGNN,2015-03-15 22:00,ZGNN 152200Z 03002MPS 3100 BR BKN030 21/21 Q1012 TEMPO 2000 BR
ZGNN,2015-03-15 23:00,ZGNN 152300Z 01002MPS 2500 BR BKN046 21/21 Q1013 NOSIG
ZGNN,2015-03-16 00:00,ZGNN 160000Z 02002MPS 3100 BR BKN046 21/21 Q1013 BECMG 4000 BR
ZGNN,2015-03-16 01:00,ZGNN 160100Z VRB01MPS 5000 BR SCT036 22/22 Q1014 NOSIG
ZGNN,2015-03-16 02:00,ZGNN 160200Z 16002MPS 120V220 9999 BKN040 24/22 Q1014 NOSIG
ZGNN,2015-03-16 03:00,ZGNN 160300Z 15004MPS 110V180 CAVOK 26/22 Q1014 NOSIG
ZGNN,2015-03-16 04:00,ZGNN 160400Z 15003MPS 120V190 9999 FEW020 27/22 Q1013 NOSIG
ZGNN,2015-03-16 05:00,ZGNN 160500Z 13005MPS 110V180 9999 SCT023 27/22 Q1012 NOSIG
ZGNN,2015-03-16 06:00,ZGNN 160600Z 14006MPS 9999 FEW026 28/22 Q1010 NOSIG
ZGNN,2015-03-16 07:00,ZGNN 160700Z 15005MPS 130V190 9999 FEW026 28/21 Q1009 NOSIG
ZGNN,2015-03-16 08:00,ZGNN 160800Z 16005MPS 120V190 9999 FEW023 28/22 Q1008 NOSIG
ZGNN,2015-03-16 09:00,ZGNN 160900Z 14006MPS 9999 FEW020 28/22 Q1008 NOSIG
ZGNN,2015-03-16 10:00,ZGNN 161000Z 15004MPS 9999 FEW020 27/22 Q1008 NOSIG
ZGNN,2015-03-16 11:00,ZGNN 161100Z 13004MPS 9999 SCT040 25/21 Q1008 NOSIG
ZGNN,2015-03-16 12:00,ZGNN 161200Z 15005MPS CAVOK 24/21 Q1008 NOSIG
ZGNN,2015-03-16 13:00,ZGNN 161300Z 15005MPS CAVOK 24/21 Q1009 NOSIG
ZGNN,2015-03-16 14:00,ZGNN 161400Z 17002MPS 130V200 CAVOK 23/21 Q1009 NOSIG
ZGNN,2015-03-16 15:00,ZGNN 161500Z 00000MPS CAVOK 22/21 Q1010 NOSIG
ZGNN,2015-03-16 16:00,ZGNN 161600Z VRB01MPS 7000 SCT033 21/20 Q1010 NOSIG
ZGNN,2015-03-16 17:00,ZGNN 161700Z 34002MPS 6000 SCT030 20/20 Q1009 NOSIG
ZGNN,2015-03-16 18:00,ZGNN 161800Z VRB01MPS 6000 SCT030 21/21 Q1008 NOSIG
ZGNN,2015-03-16 19:00,ZGNN 161900Z 35001MPS 6000 SCT026 22/21 Q1008 NOSIG
ZGNN,2015-03-16 20:00,ZGNN 162000Z 01002MPS 5000 BR FEW030 SCT043 21/21 Q1007 NOSIG
ZGNN,2015-03-16 21:00,ZGNN 162100Z 12002MPS 7000 BKN043 22/21 Q1007 NOSIG
ZGNN,2015-03-16 22:00,ZGNN 162200Z 02002MPS 340V060 6000 BKN040 22/21 Q1007 NOSIG
ZGNN,2015-03-16 23:00,ZGNN 162300Z 04003MPS 5000 BR NSC 21/20 Q1008 NOSIG
ZGNN,2015-03-17 00:00,ZGNN 170000Z 05002MPS 020V080 5000 BR FEW036 21/21 Q1009 NOSIG
ZGNN,2015-03-17 01:00,ZGNN 170100Z VRB01MPS 6000 NSC 24/22 Q1009 NOSIG
ZGNN,2015-03-17 02:00,ZGNN 170200Z 16003MPS 110V200 9999 FEW015 SCT030 26/22 Q1009 NOSIG
ZGNN,2015-03-17 03:00,ZGNN 170300Z 16004MPS 130V190 9999 SCT020 27/22 Q1009 NOSIG
ZGNN,2015-03-17 04:00,ZGNN 170400Z 18003MPS 150V230 9999 SCT026 28/22 Q1008 NOSIG
ZGNN,2015-03-17 05:00,ZGNN 170500Z 19003MPS 150V230 9999 SCT030 30/22 Q1007 NOSIG
ZGNN,2015-03-17 06:00,ZGNN 170600Z 13005MPS 090V170 9999 SCT030 30/23 Q1005 NOSIG
ZGNN,2015-03-17 07:00,ZGNN 170700Z 12006MPS 9999 FEW030 31/23 Q1004 NOSIG
ZGNN,2015-03-17 08:00,ZGNN 170800Z 14007MPS CAVOK 30/22 Q1003 NOSIG
ZGNN,2015-03-17 09:00,ZGNN 170900Z 15007MPS CAVOK 29/22 Q1003 NOSIG
ZGNN,2015-03-17 10:00,ZGNN 171000Z 15006MPS 120V180 CAVOK 27/22 Q1003 NOSIG
ZGNN,2015-03-17 11:00,ZGNN 171100Z 15004MPS 120V180 CAVOK 26/22 Q1003 NOSIG
ZGNN,2015-03-17 12:00,ZGNN 171200Z 15004MPS CAVOK 25/22 Q1004 NOSIG
ZGNN,2015-03-17 13:00,ZGNN 171300Z 14003MPS 030V180 CAVOK 24/22 Q1005 NOSIG
ZGNN,2015-03-17 14:00,ZGNN 171400Z 15003MPS 120V180 CAVOK 23/22 Q1006 NOSIG
ZGNN,2015-03-17 15:00,ZGNN 171500Z VRB01MPS 7000 NSC 23/22 Q1006 NOSIG
ZGNN,2015-03-17 16:00,ZGNN 171600Z 35001MPS 6000 NSC 22/21 Q1006 NOSIG
ZGNN,2015-03-17 17:00,ZGNN 171700Z VRB01MPS 6000 NSC 21/21 Q1006 NOSIG
ZGNN,2015-03-17 18:00,ZGNN 171800Z VRB01MPS 6000 NSC 21/21 Q1006 NOSIG
ZGNN,2015-03-17 19:00,ZGNN 171900Z VRB01MPS 5000 BR NSC 20/20 Q1005 NOSIG
ZGNN,2015-03-17 20:00,ZGNN 172000Z VRB01MPS 3300 BR NSC 20/20 Q1005 NOSIG
ZGNN,2015-03-17 21:00,ZGNN 172100Z VRB01MPS 4000 BR NSC 20/20 Q1004 NOSIG
ZGNN,2015-03-17 22:00,ZGNN 172200Z VRB01MPS 4500 BR NSC 20/20 Q1005 NOSIG
ZGNN,2015-03-17 23:00,ZGNN 172300Z 36002MPS 3500 BR SCT023 20/20 Q1006 NOSIG
ZGNN,2015-03-18 00:00,ZGNN 180000Z 01001MPS 3200 BR FEW023 22/22 Q1007 NOSIG
ZGNN,2015-03-18 01:00,ZGNN 180100Z VRB01MPS 4500 BR NSC 23/22 Q1008 NOSIG
ZGNN,2015-03-18 02:00,ZGNN 180200Z VRB01MPS 6000 NSC 26/22 Q1008 NOSIG
ZGNN,2015-03-18 03:00,ZGNN 180300Z VRB01MPS 9999 FEW020 28/22 Q1008 NOSIG
ZGNN,2015-03-18 04:00,ZGNN 180400Z VRB02MPS 9999 FEW026 29/22 Q1008 NOSIG
ZGNN,2015-03-18 05:00,ZGNN 180500Z VRB02MPS CAVOK 30/21 Q1006 NOSIG
ZGNN,2015-03-18 06:00,ZGNN 180600Z 16002MPS 100V240 CAVOK 32/22 Q1005 NOSIG
ZGNN,2015-03-18 07:00,ZGNN 180700Z 15003MPS 070V230 CAVOK 32/22 Q1004 NOSIG
ZGNN,2015-03-18 08:00,ZGNN 180800Z 14006MPS 100V170 CAVOK 32/22 Q1003 NOSIG
ZGNN,2015-03-18 09:00,ZGNN 180900Z 13007MPS 100V160 CAVOK 30/23 Q1003 NOSIG
ZGNN,2015-03-18 10:00,ZGNN 181000Z 14006MPS CAVOK 29/23 Q1004 NOSIG
ZGNN,2015-03-18 11:00,ZGNN 181100Z 12005MPS CAVOK 27/23 Q1004 NOSIG
ZGNN,2015-03-18 12:00,ZGNN 181200Z 12003MPS 090V170 8000 NSC 26/23 Q1005 NOSIG
ZGNN,2015-03-18 13:00,ZGNN 181300Z 11003MPS 8000 SCT013 SCT026 25/22 Q1007 NOSIG
ZGNN,2015-03-18 14:00,ZGNN 181400Z 12004MPS 080V170 7000 SCT013 SCT026 25/22 Q1008 NOSIG
ZGNN,2015-03-18 15:00,ZGNN 181500Z 10004MPS 7000 SCT008 SCT026 24/22 Q1008 NOSIG
ZGNN,2015-03-18 16:00,ZGNN 181600Z 10003MPS 6000 SCT008 SCT026 24/22 Q1008 NOSIG
ZGNN,2015-03-18 17:00,ZGNN 181700Z 12002MPS 6000 SCT011 SCT026 23/22 Q1008 NOSIG
ZGNN,2015-03-18 18:00,ZGNN 181800Z 11002MPS 070V130 6000 SCT009 SCT026 23/22 Q1008 NOSIG
ZGNN,2015-03-18 19:00,ZGNN 181900Z 13002MPS 5000 BR FEW007 SCT009 BKN026 23/22 Q1008 NOSIG
ZGNN,2015-03-18 20:00,ZGNN 182000Z VRB01MPS 5000 BR SCT008 BKN026 23/22 Q1008 NOSIG
ZGNN,2015-03-18 21:00,ZGNN 182100Z VRB01MPS 5000 BR SCT008 BKN040 22/22 Q1008 NOSIG
ZGNN,2015-03-18 22:00,ZGNN 182200Z 34001MPS 5000 BR SCT008 BKN040 22/21 Q1009 NOSIG
ZGNN,2015-03-18 23:00,ZGNN 182300Z VRB01MPS 5000 BR FEW006 BKN040 22/21 Q1010 NOSIG
ZGNN,2015-03-19 00:00,ZGNN 190000Z VRB01MPS 3500 BR NSC 22/22 Q1010 NOSIG
ZGNN,2015-03-19 01:00,ZGNN 190100Z VRB01MPS 3500 BR FEW004 23/22 Q1011 NOSIG
ZGNN,2015-03-19 02:00,ZGNN 190200Z 14003MPS 120V180 6000 FEW010 25/22 Q1012 NOSIG
ZGNN,2015-03-19 03:00,ZGNN 190300Z VRB02MPS 8000 FEW015 27/22 Q1012 NOSIG
ZGNN,2015-03-19 04:00,ZGNN 190400Z VRB02MPS 8000 FEW020 28/22 Q1011 NOSIG
ZGNN,2015-03-19 05:00,ZGNN 190500Z VRB01MPS 9999 SCT023 29/22 Q1010 NOSIG
ZGNN,2015-03-19 06:00,ZGNN 190600Z 20002MPS 160V260 9999 SCT026 30/21 Q1008 NOSIG
ZGNN,2015-03-19 07:00,ZGNN 190700Z 16003MPS 120V200 9999 SCT026 31/22 Q1007 NOSIG
ZGNN,2015-03-19 08:00,ZGNN 190800Z 15004MPS 9999 FEW030 31/22 Q1006 NOSIG
ZGNN,2015-03-19 09:00,ZGNN 190900Z 13005MPS CAVOK 31/22 Q1006 NOSIG
ZGNN,2015-03-19 10:00,ZGNN 191000Z 14005MPS CAVOK 30/22 Q1006 NOSIG
ZGNN,2015-03-19 11:00,ZGNN 191100Z 15005MPS 110V170 CAVOK 28/21 Q1006 NOSIG
ZGNN,2015-03-19 12:00,ZGNN 191200Z 14003MPS 120V180 CAVOK 27/21 Q1007 NOSIG
ZGNN,2015-03-19 13:00,ZGNN 191300Z 14003MPS 100V190 CAVOK 26/21 Q1009 NOSIG
ZGNN,2015-03-19 14:00,ZGNN 191400Z 16002MPS 120V190 CAVOK 26/20 Q1010 NOSIG
ZGNN,2015-03-19 15:00,ZGNN 191500Z 17003MPS 120V200 CAVOK 25/19 Q1011 NOSIG
ZGNN,2015-03-19 16:00,ZGNN 191600Z VRB01MPS CAVOK 24/20 Q1011 NOSIG
ZGNN,2015-03-19 17:00,ZGNN 191700Z 12002MPS 090V160 6000 FEW015 24/21 Q1011 NOSIG
ZGNN,2015-03-19 18:00,ZGNN 191800Z 14003MPS 100V160 6000 SCT013 23/22 Q1011 NOSIG
ZGNN,2015-03-19 19:00,ZGNN 191900Z VRB01MPS 5000 BR SCT010 23/22 Q1011 NOSIG
ZGNN,2015-03-19 20:00,ZGNN 192000Z VRB01MPS 5000 BR SCT009 SCT030 23/22 Q1011 NOSIG
ZGNN,2015-03-19 21:00,ZGNN 192100Z VRB01MPS 5000 BR SCT009 SCT023 23/22 Q1011 NOSIG
ZGNN,2015-03-19 22:00,ZGNN 192200Z 11001MPS 4000 BR SCT008 SCT023 22/21 Q1012 NOSIG
ZGNN,2015-03-19 23:00,ZGNN 192300Z 12001MPS 3100 BR SCT006 22/22 Q1012 BECMG TL0020 2500 BR
ZGNN,2015-03-20 00:00,ZGNN 200000Z VRB01MPS 2000 BR FEW004 SCT006 22/22 Q1013 BECMG TL0140 4000 BR
ZGNN,2015-03-20 01:00,ZGNN 200100Z VRB01MPS 2600 BR FEW004 SCT006 23/23 Q1014 BECMG TL0140 4000 BR
ZGNN,2015-03-20 02:00,ZGNN 200200Z 14003MPS 080V180 4500 BR SCT009 25/22 Q1015 NOSIG
ZGNN,2015-03-20 03:00,ZGNN 200300Z 13002MPS 080V160 6000 SCT015 SCT046 26/22 Q1015 NOSIG
ZGNN,2015-03-20 04:00,ZGNN 200400Z 08002MPS 030V140 9999 SCT016 BKN046 28/22 Q1014 NOSIG
ZGNN,2015-03-20 05:00,ZGNN 200500Z 07003MPS 030V090 9999 SCT030 BKN043 28/21 Q1014 NOSIG
ZGNN,2015-03-20 06:00,ZGNN 200600Z 08003MPS 060V120 9999 SCT030 BKN043 28/21 Q1012 NOSIG
ZGNN,2015-03-20 07:00,ZGNN 200700Z 12003MPS 080V140 9999 SCT033 BKN043 29/21 Q1011 NOSIG
ZGNN,2015-03-20 08:00,ZGNN 200800Z 08004MPS 040V100 9999 BKN040 29/20 Q1011 NOSIG
ZGNN,2015-03-20 09:00,ZGNN 200900Z 07004MPS 9999 OVC043 29/20 Q1011 NOSIG
ZGNN,2015-03-20 10:00,ZGNN 201000Z 09003MPS 9999 BKN040 28/21 Q1011 NOSIG
ZGNN,2015-03-20 11:00,ZGNN 201100Z 09002MPS 060V120 9999 BKN046 27/20 Q1012 NOSIG
ZGNN,2015-03-20 12:00,ZGNN 201200Z 13002MPS 110V190 CAVOK 27/20 Q1013 NOSIG
ZGNN,2015-03-20 13:00,ZGNN 201300Z 13003MPS 100V180 7000 SCT020 26/22 Q1014 NOSIG
ZGNN,2015-03-20 14:00,ZGNN 201400Z 15005MPS 8000 SCT020 26/22 Q1015 NOSIG
ZGNN,2015-03-20 15:00,ZGNN 201500Z 13004MPS 9000 NSC 25/22 Q1016 NOSIG
ZGNN,2015-03-20 16:00,ZGNN 201600Z 15003MPS 9999 BKN040 25/21 Q1016 NOSIG
ZGNN,2015-03-20 17:00,ZGNN 201700Z 14002MPS 100V170 9999 BKN040 24/21 Q1016 NOSIG
ZGNN,2015-03-20 18:00,ZGNN 201800Z 10002MPS 9999 SCT020 BKN040 24/21 Q1016 NOSIG
ZGNN,2015-03-20 19:00,ZGNN 201900Z 08005MPS 6000 SCT015 BKN040 23/20 Q1016 NOSIG
ZGNN,2015-03-20 20:00,ZGNN 202000Z 06004MPS 5000 BR SCT015 BKN040 22/19 Q1016 NOSIG
ZGNN,2015-03-20 21:00,ZGNN 202100Z 08004MPS 5000 BR SCT016 BKN046 21/19 Q1016 NOSIG
ZGNN,2015-03-20 22:00,ZGNN 202200Z 04004MPS 5000 BR SCT016 BKN046 21/18 Q1017 NOSIG
ZGNN,2015-03-20 23:00,ZGNN 202300Z 04005MPS 6000 SCT016 BKN046 20/18 Q1018 NOSIG
ZGNN,2015-03-21 00:00,ZGNN 210000Z 05005MPS 6000 SCT016 OVC046 20/17 Q1019 NOSIG
ZGNN,2015-03-21 01:00,ZGNN 210100Z 06004MPS 6000 FEW015 OVC046 20/17 Q1020 NOSIG
ZGNN,2015-03-21 02:00,ZGNN 210200Z 08004MPS 020V110 8000 SCT015 OVC046 20/16 Q1020 NOSIG
ZGNN,2015-03-21 03:00,ZGNN 210300Z 05004MPS 7000 SCT015 20/16 Q1021 NOSIG
ZGNN,2015-03-21 04:00,ZGNN 210400Z 08003MPS 050V120 9999 SCT016 20/16 Q1021 NOSIG
ZGNN,2015-03-21 05:00,ZGNN 210500Z 34004MPS 9999 SCT020 21/16 Q1020 NOSIG
ZGNN,2015-03-21 06:00,ZGNN 210600Z 02002MPS 330V060 8000 SCT020 21/16 Q1019 NOSIG
ZGNN,2015-03-21 07:00,ZGNN 210700Z 36003MPS 330V060 8000 SCT020 OVC033 22/17 Q1018 NOSIG
ZGNN,2015-03-21 08:00,ZGNN 210800Z 03003MPS 340V070 8000 SCT023 OVC036 22/16 Q1017 NOSIG
ZGNN,2015-03-21 09:00,ZGNN 210900Z 08002MPS 040V140 8000 FEW023 OVC036 23/16 Q1016 NOSIG
ZGNN,2015-03-21 10:00,ZGNN 211000Z 11002MPS 080V140 7000 FEW040 22/17 Q1016 NOSIG
ZGNN,2015-03-21 11:00,ZGNN 211100Z 12003MPS 8000 SCT026 22/17 Q1017 NOSIG
ZGNN,2015-03-21 12:00,ZGNN 211200Z 07002MPS 040V100 9999 SCT033 22/16 Q1017 NOSIG
ZGNN,2015-03-21 13:00,ZGNN 211300Z 07002MPS 040V100 9999 BKN033 21/16 Q1018 NOSIG
ZGNN,2015-03-21 14:00,ZGNN 211400Z 10001MPS 9999 BKN033 20/16 Q1018 NOSIG
ZGNN,2015-03-21 15:00,ZGNN 211500Z VRB01MPS 9999 BKN033 20/15 Q1019 NOSIG
ZGNN,2015-03-21 16:00,ZGNN 211600Z 05002MPS CAVOK 19/16 Q1018 NOSIG
ZGNN,2015-03-21 17:00,ZGNN 211700Z 04001MPS 7000 NSC 19/16 Q1018 NOSIG
ZGNN,2015-03-21 18:00,ZGNN 211800Z 08002MPS 6000 NSC 19/15 Q1017 NOSIG
ZGNN,2015-03-21 19:00,ZGNN 211900Z 00000MPS 6000 NSC 18/16 Q1017 NOSIG
ZGNN,2015-03-21 20:00,ZGNN 212000Z 28002MPS 260V320 5000 BR NSC 18/16 Q1017 NOSIG
ZGNN,2015-03-21 21:00,ZGNN 212100Z 11001MPS 5000 BR NSC 17/15 Q1016 NOSIG
ZGNN,2015-03-21 22:00,ZGNN 212200Z 27001MPS 4500 BR NSC 17/15 Q1017 NOSIG
ZGNN,2015-03-21 23:00,ZGNN 212300Z 00000MPS 4000 BR NSC 16/15 Q1018 NOSIG
ZGNN,2015-03-22 00:00,ZGNN 220000Z VRB01MPS 4500 BR BKN033 17/16 Q1018 NOSIG
ZGNN,2015-03-22 01:00,ZGNN 220100Z VRB01MPS 4000 BR SCT033 BKN046 19/16 Q1019 NOSIG
ZGNN,2015-03-22 02:00,ZGNN 220200Z 07002MPS 020V120 6000 BKN046 21/16 Q1019 NOSIG
ZGNN,2015-03-22 03:00,ZGNN 220300Z 09002MPS 020V190 9999 FEW036 BKN046 23/16 Q1019 NOSIG
ZGNN,2015-03-22 04:00,ZGNN 220400Z 10003MPS 060V230 9999 BKN036 24/16 Q1018 NOSIG
ZGNN,2015-03-22 05:00,ZGNN 220500Z VRB01MPS 9999 BKN030 25/17 Q1017 NOSIG
ZGNN,2015-03-22 06:00,ZGNN 220600Z 12003MPS 030V190 9999 SCT046 25/17 Q1015 NOSIG
ZGNN,2015-03-22 07:00,ZGNN 220700Z 12004MPS 9999 SCT030 SCT046 26/18 Q1014 NOSIG
ZGNN,2015-03-22 08:00,ZGNN 220800Z 13004MPS 080V160 9999 SCT030 SCT046 26/19 Q1013 NOSIG
ZGNN,2015-03-22 09:00,ZGNN 220900Z 14005MPS 9999 SCT030 26/19 Q1012 NOSIG
ZGNN,2015-03-22 10:00,ZGNN 221000Z 16004MPS 9999 FEW033 25/19 Q1012 NOSIG
ZGNN,2015-03-22 11:00,ZGNN 221100Z 16004MPS 8000 FEW033 24/19 Q1013 NOSIG
ZGNN,2015-03-22 12:00,ZGNN 221200Z 17002MPS 140V200 8000 NSC 23/19 Q1014 NOSIG
ZGNN,2015-03-22 13:00,ZGNN 221300Z 22002MPS CAVOK 22/19 Q1015 NOSIG
ZGNN,2015-03-22 14:00,ZGNN 221400Z 19001MPS CAVOK 22/19 Q1016 NOSIG
ZGNN,2015-03-22 15:00,ZGNN 221500Z VRB01MPS 7000 NSC 22/19 Q1015 NOSIG
ZGNN,2015-03-22 16:00,ZGNN 221600Z 15002MPS 6000 BKN036 21/19 Q1015 NOSIG
ZGNN,2015-03-22 17:00,ZGNN 221700Z 14002MPS 6000 BKN040 21/19 Q1015 NOSIG
ZGNN,2015-03-22 18:00,ZGNN 221800Z VRB01MPS 6000 NSC 21/19 Q1015 NOSIG
ZGNN,2015-03-22 19:00,ZGNN 221900Z 31001MPS 5000 BR SCT040 21/19 Q1015 NOSIG
ZGNN,2015-03-22 20:00,ZGNN 222000Z VRB01MPS 4000 BR SCT040 21/20 Q1015 NOSIG
ZGNN,2015-03-22 21:00,ZGNN 222100Z 02001MPS 4000 BR SCT013 20/19 Q1015 NOSIG
ZGNN,2015-03-22 22:00,ZGNN 222200Z 07002MPS 4500 BR NSC 21/20 Q1015 NOSIG
ZGNN,2015-03-22 23:00,ZGNN 222300Z 08002MPS 3200 BR FEW020 21/20 Q1016 NOSIG
ZGNN,2015-03-23 00:00,ZGNN 230000Z 06002MPS 030V100 3200 BR SCT011 22/21 Q1017 NOSIG
ZGNN,2015-03-23 01:00,ZGNN 230100Z 13004MPS 2000 -RA BR SCT008 BKN040 22/21 Q1017 NOSIG
ZGNN,2015-03-23 02:00,ZGNN 230200Z 14003MPS 2500 BR FEW005 SCT008 OVC040 22/21 Q1018 BECMG TL0300 4000 BR
ZGNN,2015-03-23 03:00,ZGNN 230300Z 15004MPS 6000 FEW007 SCT011 OVC040 23/20 Q1018 NOSIG
ZGNN,2015-03-23 04:00,ZGNN 230400Z 15004MPS 7000 FEW007 SCT011 OVC040 23/20 Q1018 NOSIG
ZGNN,2015-03-23 05:00,ZGNN 230500Z 14002MPS 100V180 7000 SCT016 OVC040 24/20 Q1017 NOSIG
ZGNN,2015-03-23 06:00,ZGNN 230600Z 11002MPS 080V150 7000 SCT016 OVC046 24/20 Q1017 NOSIG
ZGNN,2015-03-23 07:00,ZGNN 230700Z 09002MPS 7000 FEW016 SCT026 OVC043 24/21 Q1016 NOSIG
ZGNN,2015-03-23 08:00,ZGNN 230800Z 11002MPS 7000 FEW016 SCT026 OVC040 24/21 Q1016 NOSIG
ZGNN,2015-03-23 09:00,ZGNN 230900Z 06004MPS 030V090 1700 -RA BR FEW005 SCT010 FEW026CB OVC026 22/21 Q1016 BECMG TL1030 3500 BR
ZGNN,2015-03-23 10:00,ZGNN 231000Z 06006MPS 3100 -RA BR FEW003 SCT005 OVC026 19/19 Q1017 BECMG TL1120 2500 BR
ZGNN,2015-03-23 11:00,ZGNN 231100Z 06005MPS 2900 -RA BR FEW003 SCT005 OVC026 19/19 Q1018 BECMG TL1220 4000 BR
ZGNN,2015-03-23 12:00,ZGNN 231200Z 05005MPS 4000 -RA BR FEW004 SCT006 OVC026 18/18 Q1018 NOSIG
ZGNN,2015-03-23 13:00,ZGNN 231300Z 05004MPS 3100 -RA BR FEW004 SCT006 OVC026 18/18 Q1020 NOSIG
ZGNN,2015-03-23 14:00,ZGNN 231400Z 04005MPS 4000 -RA BR FEW004 SCT010 OVC030 18/18 Q1020 NOSIG
ZGNN,2015-03-23 15:00,ZGNN 231500Z 03004MPS 4000 -RA BR FEW005 SCT010 OVC030 18/17 Q1021 NOSIG
ZGNN,2015-03-23 16:00,ZGNN 231600Z VRB01MPS 4000 -RA BR FEW005 SCT010 OVC026 18/17 Q1021 NOSIG
ZGNN,2015-03-23 17:00,ZGNN 231700Z VRB01MPS 3200 -RA BR FEW002 SCT004 OVC026 18/18 Q1021 NOSIG
ZGNN,2015-03-23 18:00,ZGNN 231800Z 34003MPS 5000 -RA BR FEW005 SCT008 OVC026 18/18 Q1021 NOSIG
ZGNN,2015-03-23 19:00,ZGNN 231900Z 36003MPS 7000 -RA FEW007 SCT015 OVC026 18/18 Q1020 NOSIG
ZGNN,2015-03-23 20:00,ZGNN 232000Z 03002MPS 5000 -RA BR FEW006 SCT009 OVC026 18/18 Q1019 NOSIG
ZGNN,2015-03-23 21:00,ZGNN 232100Z 33002MPS 6000 FEW004 SCT010 OVC026 18/18 Q1020 NOSIG
ZGNN,2015-03-23 22:00,ZGNN 232200Z 11003MPS 2900 -RA BR SCT015 OVC023 18/18 Q1019 BECMG TL2320 4000 BR
ZGNN,2015-03-23 23:00,ZGNN 232300Z 02002MPS 8000 -RA FEW006 SCT008 OVC023 18/18 Q1021 NOSIG
ZGNN,2015-03-24 00:00,ZGNN 240000Z 35002MPS 4000 -RA BR FEW006 SCT009 OVC030 18/17 Q1022 NOSIG
ZGNN,2015-03-24 01:00,ZGNN 240100Z 02002MPS 340V050 3200 -RA BR FEW003 SCT006 OVC030 17/17 Q1022 NOSIG
ZGNN,2015-03-24 02:00,ZGNN 240200Z 02002MPS 350V050 2700 -RA BR FEW003 SCT007 OVC030 18/18 Q1023 BECMG 3500 BR
ZGNN,2015-03-24 03:00,ZGNN 240300Z VRB02MPS 3500 -RA BR FEW003 SCT006 OVC030 18/18 Q1023 NOSIG
ZGNN,2015-03-24 04:00,ZGNN 240400Z 06004MPS 3500 -RA BR FEW004 SCT007 OVC030 17/17 Q1023 NOSIG
ZGNN,2015-03-24 05:00,ZGNN 240500Z 05004MPS 6000 -RA FEW005 SCT009 OVC030 17/17 Q1023 NOSIG
ZGNN,2015-03-24 06:00,ZGNN 240600Z 05005MPS 4000 -RA BR FEW004 SCT007 OVC030 17/17 Q1022 NOSIG
ZGNN,2015-03-24 07:00,ZGNN 240700Z 04003MPS 5000 -RA BR SCT004 SCT007 OVC030 17/17 Q1022 NOSIG
ZGNN,2015-03-24 08:00,ZGNN 240800Z 02002MPS 2400 -RA BR FEW003 SCT005 OVC026 17/17 Q1022 TEMPO 1200 SHRA FEW003 SCT007 FEW023CB OVC026
ZGNN,2015-03-24 09:00,ZGNN 240900Z 02003MPS 2800 -RA BR FEW003 SCT005 OVC026 17/17 Q1022 NOSIG
ZGNN,2015-03-24 10:00,ZGNN 241000Z 06003MPS 5000 -RA BR FEW004 SCT008 OVC026 17/17 Q1022 NOSIG
ZGNN,2015-03-24 11:00,ZGNN 241100Z 10003MPS 6000 -RA FEW005 SCT010 OVC026 17/17 Q1022 NOSIG
ZGNN,2015-03-24 12:00,ZGNN 241200Z 08004MPS 020V160 5000 -RA BR FEW006 SCT010 OVC033 17/16 Q1022 NOSIG
ZGNN,2015-03-24 13:00,ZGNN 241300Z 01003MPS 8000 -RA SCT009 SCT016 OVC033 17/16 Q1023 NOSIG
ZGNN,2015-03-24 14:00,ZGNN 241400Z 02003MPS 9999 SCT010 SCT020 OVC033 17/16 Q1024 NOSIG
ZGNN,2015-03-24 15:00,ZGNN 241500Z 01002MPS 7000 SCT009 OVC023 17/16 Q1024 NOSIG
ZGNN,2015-03-24 16:00,ZGNN 241600Z 36001MPS 7000 OVC023 17/16 Q1024 NOSIG
ZGNN,2015-03-24 17:00,ZGNN 241700Z 03003MPS 6000 FEW009 OVC026 17/16 Q1024 NOSIG
ZGNN,2015-03-24 18:00,ZGNN 241800Z 02002MPS 4200 -RA BR FEW005 SCT015 OVC026 16/16 Q1023 NOSIG
ZGNN,2015-03-24 19:00,ZGNN 241900Z 02001MPS 4000 -RA BR FEW002 SCT005 OVC026 16/16 Q1023 NOSIG
ZGNN,2015-03-24 20:00,ZGNN 242000Z 03001MPS 4000 -RA BR FEW003 SCT006 OVC026 16/16 Q1023 NOSIG
ZGNN,2015-03-24 21:00,ZGNN 242100Z 05003MPS 4000 -RA BR FEW003 SCT007 OVC026 16/16 Q1023 NOSIG
ZGNN,2015-03-24 22:00,ZGNN 242200Z 06002MPS 4000 -RA BR FEW003 SCT007 OVC026 16/16 Q1023 NOSIG
ZGNN,2015-03-24 23:00,ZGNN 242300Z 07002MPS 3500 -RA BR FEW004 SCT007 OVC026 16/16 Q1023 NOSIG
ZGNN,2015-03-25 00:00,ZGNN 250000Z 10002MPS 080V160 3500 -RA BR SCT004 SCT007 OVC026 16/16 Q1024 NOSIG
ZGNN,2015-03-25 01:00,ZGNN 250100Z 06003MPS 5000 -RA BR FEW004 SCT007 OVC026 16/16 Q1025 NOSIG
ZGNN,2015-03-25 02:00,ZGNN 250200Z 04004MPS 2500 -RA BR FEW003 SCT005 OVC026 16/16 Q1025 BECMG TL0340 3100 -RA BR
ZGNN,2015-03-25 03:00,ZGNN 250300Z 05003MPS 020V090 7000 -RA FEW004 SCT008 OVC026 17/16 Q1025 NOSIG
ZGNN,2015-03-25 04:00,ZGNN 250400Z 04003MPS 010V070 7000 FEW007 SCT010 OVC030 17/16 Q1024 NOSIG
ZGNN,2015-03-25 05:00,ZGNN 250500Z 04003MPS 7000 FEW007 SCT010 OVC030 17/16 Q1024 NOSIG
ZGNN,2015-03-25 06:00,ZGNN 250600Z 03003MPS 350V060 7000 SCT008 OVC030 17/16 Q1024 NOSIG
ZGNN,2015-03-25 07:00,ZGNN 250700Z 03003MPS 7000 SCT008 OVC030 18/16 Q1022 NOSIG
ZGNN,2015-03-25 08:00,ZGNN 250800Z 05003MPS 010V090 7000 SCT011 OVC030 18/16 Q1022 NOSIG
ZGNN,2015-03-25 09:00,ZGNN 250900Z 04002MPS 010V070 6000 SCT011 OVC030 18/16 Q1022 NOSIG
ZGNN,2015-03-25 10:00,ZGNN 251000Z 35003MPS 6000 SCT013 OVC033 18/16 Q1022 NOSIG
ZGNN,2015-03-25 11:00,ZGNN 251100Z 36002MPS 5000 BR SCT013 OVC033 18/16 Q1023 NOSIG
ZGNN,2015-03-25 12:00,ZGNN 251200Z 02002MPS 350V050 6000 SCT013 OVC033 18/16 Q1023 NOSIG
ZGNN,2015-03-25 13:00,ZGNN 251300Z 03002MPS 6000 SCT013 OVC033 18/16 Q1023 NOSIG
ZGNN,2015-03-25 14:00,ZGNN 251400Z 08002MPS 040V120 6000 SCT013 OVC033 18/16 Q1024 NOSIG
ZGNN,2015-03-25 15:00,ZGNN 251500Z VRB01MPS 5000 BR SCT010 OVC033 17/16 Q1024 NOSIG
ZGNN,2015-03-25 16:00,ZGNN 251600Z VRB01MPS 5000 BR SCT010 OVC033 17/16 Q1024 NOSIG
ZGNN,2015-03-25 17:00,ZGNN 251700Z 02003MPS 5000 BR SCT010 OVC033 17/16 Q1023 NOSIG
ZGNN,2015-03-25 18:00,ZGNN 251800Z 05002MPS 2500 -RA BR SCT010 OVC030 17/16 Q1023 NOSIG
ZGNN,2015-03-25 19:00,ZGNN 251900Z 02002MPS 2500 -RA BR FEW008 SCT013 OVC030 17/16 Q1022 BECMG TL2010 3500 BR
ZGNN,2015-03-25 20:00,ZGNN 252000Z 01002MPS 3100 -RA BR FEW008 SCT013 OVC030 17/16 Q1022 NOSIG
ZGNN,2015-03-25 21:00,ZGNN 252100Z 02002MPS 3100 BR FEW008 SCT013 OVC030 17/16 Q1022 BECMG TL2210 2500 BR
ZGNN,2015-03-25 22:00,ZGNN 252200Z 05002MPS 2800 BR FEW008 SCT013 OVC026 17/17 Q1023 NOSIG
ZGNN,2015-03-25 23:00,ZGNN 252300Z 08001MPS 2000 BR FEW008 SCT013 OVC033 17/17 Q1023 BECMG TL0040 3500 BR
ZGNN,2015-03-26 00:00,ZGNN 260000Z 07002MPS 010V160 2800 BR SCT008 OVC033 17/16 Q1024 BECMG TL0120 3500 BR
ZGNN,2015-03-26 01:00,ZGNN 260100Z 05003MPS 3500 BR FEW007 SCT008 OVC033 17/16 Q1025 NOSIG
ZGNN,2015-03-26 02:00,ZGNN 260200Z 05002MPS 3200 BR FEW007 SCT008 OVC033 18/17 Q1025 NOSIG
ZGNN,2015-03-26 03:00,ZGNN 260300Z 08003MPS 030V110 4000 BR SCT008 OVC033 19/17 Q1025 NOSIG
ZGNN,2015-03-26 04:00,ZGNN 260400Z VRB01MPS 4000 BR SCT009 OVC033 19/17 Q1025 NOSIG
ZGNN,2015-03-26 05:00,ZGNN 260500Z 10002MPS 060V140 4500 BR SCT010 OVC033 20/18 Q1024 NOSIG
ZGNN,2015-03-26 06:00,ZGNN 260600Z 12002MPS 090V200 4500 BR SCT010 OVC033 20/18 Q1023 NOSIG
ZGNN,2015-03-26 07:00,ZGNN 260700Z VRB01MPS 4500 BR SCT010 OVC033 20/18 Q1022 NOSIG
ZGNN,2015-03-26 08:00,ZGNN 260800Z VRB01MPS 4500 BR SCT015 OVC033 21/18 Q1022 NOSIG
ZGNN,2015-03-26 09:00,ZGNN 260900Z 10001MPS 4500 BR SCT015 OVC033 21/18 Q1022 NOSIG
ZGNN,2015-03-26 10:00,ZGNN 261000Z 12001MPS 4500 BR SCT015 OVC033 21/18 Q1022 NOSIG
ZGNN,2015-03-26 11:00,ZGNN 261100Z 14002MPS 3500 BR SCT015 20/18 Q1022 NOSIG
ZGNN,2015-03-26 12:00,ZGNN 261200Z 19001MPS 3500 BR FEW015 20/18 Q1022 NOSIG
ZGNN,2015-03-26 13:00,ZGNN 261300Z VRB01MPS 3500 BR FEW016 19/18 Q1023 NOSIG
ZGNN,2015-03-26 14:00,ZGNN 261400Z VRB01MPS 3500 BR FEW016 19/18 Q1023 NOSIG
ZGNN,2015-03-26 15:00,ZGNN 261500Z VRB01MPS 3200 BR SCT030 19/18 Q1024 NOSIG
ZGNN,2015-03-26 16:00,ZGNN 261600Z 04001MPS 3200 BR NSC 19/19 Q1023 BECMG TL1650 2500 BR
ZGNN,2015-03-26 17:00,ZGNN 261700Z 35001MPS 2800 BR NSC 19/19 Q1023 NOSIG
ZGNN,2015-03-26 18:00,ZGNN 261800Z VRB01MPS 2800 -RA BR BKN016 19/19 Q1022 NOSIG
ZGNN,2015-03-26 19:00,ZGNN 261900Z VRB01MPS 2800 -DZ BR BKN016 BKN033 19/19 Q1021 NOSIG
ZGNN,2015-03-26 20:00,ZGNN 262000Z 05001MPS 1800 -DZ BR SCT010 OVC023 19/19 Q1021 NOSIG
ZGNN,2015-03-26 21:00,ZGNN 262100Z 04001MPS 2000 -DZ BR SCT010 OVC023 19/19 Q1021 NOSIG
ZGNN,2015-03-26 22:00,ZGNN 262200Z 02001MPS 2000 -DZ BR FEW005 SCT009 OVC023 19/19 Q1021 NOSIG
ZGNN,2015-03-26 23:00,ZGNN 262300Z 05001MPS 1800 BR FEW005 SCT008 OVC023 19/19 Q1022 NOSIG
ZGNN,2015-03-27 00:00,ZGNN 270000Z VRB01MPS 1400 R05/P2000 -RA BR FEW003 SCT005 OVC023 19/19 Q1023 BECMG TL0120 2500 BR
ZGNN,2015-03-27 01:00,ZGNN 270100Z VRB01MPS 1200 R05/1600D -RA BR FEW003 SCT006 OVC023 19/19 Q1024 BECMG TL0230 2000 BR
ZGNN,2015-03-27 02:00,ZGNN 270200Z 07002MPS 040V100 1000 R05/1000V1300U -RA BR FEW002 SCT006 OVC023 19/19 Q1024 NOSIG
ZGNN,2015-03-27 03:00,ZGNN 270300Z 10002MPS 080V160 1600 -RA BR FEW003 SCT006 OVC023 19/19 Q1024 NOSIG
ZGNN,2015-03-27 04:00,ZGNN 270400Z VRB01MPS 2500 BR SCT005 SCT008 OVC026 20/20 Q1023 BECMG 3500 BR
ZGNN,2015-03-27 05:00,ZGNN 270500Z VRB01MPS 3100 BR SCT008 OVC030 21/20 Q1022 NOSIG
ZGNN,2015-03-27 06:00,ZGNN 270600Z VRB01MPS 4000 BR SCT016 OVC033 22/20 Q1021 NOSIG
ZGNN,2015-03-27 07:00,ZGNN 270700Z VRB01MPS 4500 BR SCT016 OVC033 23/19 Q1020 NOSIG
ZGNN,2015-03-27 08:00,ZGNN 270800Z VRB01MPS 5000 BR FEW016 OVC040 23/20 Q1019 NOSIG
ZGNN,2015-03-27 09:00,ZGNN 270900Z VRB01MPS 6000 OVC046 23/19 Q1019 NOSIG
ZGNN,2015-03-27 10:00,ZGNN 271000Z VRB01MPS 6000 NSC 23/19 Q1019 NOSIG
ZGNN,2015-03-27 11:00,ZGNN 271100Z 03002MPS 350V070 4500 BR NSC 22/20 Q1019 NOSIG
ZGNN,2015-03-27 12:00,ZGNN 271200Z 34002MPS 300V020 3500 BR NSC 21/20 Q1019 NOSIG
ZGNN,2015-03-27 13:00,ZGNN 271300Z 35003MPS 3200 BR NSC 21/20 Q1020 NOSIG
ZGNN,2015-03-27 14:00,ZGNN 271400Z 06001MPS 3000 BR NSC 21/20 Q1020 NOSIG
ZGNN,2015-03-27 15:00,ZGNN 271500Z VRB01MPS 3000 BR NSC 21/20 Q1020 BECMG TL1600 2700 BR
ZGNN,2015-03-27 16:00,ZGNN 271600Z VRB01MPS 2500 BR FEW016 20/20 Q1020 NOSIG
ZGNN,2015-03-27 17:00,ZGNN 271700Z 01003MPS 2500 BR NSC 20/20 Q1019 NOSIG
ZGNN,2015-03-27 18:00,ZGNN 271800Z VRB01MPS 2500 BR NSC 21/20 Q1019 NOSIG
ZGNN,2015-03-27 19:00,ZGNN 271900Z VRB01MPS 2000 BR NSC 20/20 Q1018 NOSIG
ZGNN,2015-03-27 20:00,ZGNN 272000Z VRB01MPS 2000 BR NSC 20/20 Q1017 NOSIG
ZGNN,2015-03-27 21:00,ZGNN 272100Z 01002MPS 1700 BR NSC 19/19 Q1017 NOSIG
ZGNN,2015-03-27 22:00,ZGNN 272200Z 21001MPS 1600 BR NSC 19/19 Q1018 TEMPO 1000 BR
ZGNN,2015-03-27 23:00,ZGNN 272300Z 24002MPS 1200 R05/1600N BR NSC 19/19 Q1018 TEMPO 0600 FG
ZGNN,2015-03-28 00:00,ZGNN 280000Z 36001MPS 1200 R05/1600N BR OVC046 20/20 Q1019 TEMPO 0600 FG
ZGNN,2015-03-28 01:00,ZGNN 280100Z 17002MPS 1200 R05/1500N BR SCT026 OVC040 20/20 Q1019 BECMG TL0220 2000 BR
ZGNN,2015-03-28 02:00,ZGNN 280200Z VRB01MPS 2500 BR FEW008 SCT013 OVC033 21/20 Q1020 BECMG TL0300 3500 BR
ZGNN,2015-03-28 03:00,ZGNN 280300Z 18004MPS 140V200 6000 SCT013 OVC033 23/20 Q1019 NOSIG
ZGNN,2015-03-28 04:00,ZGNN 280400Z 17005MPS 8000 SCT015 BKN043 24/19 Q1019 NOSIG
ZGNN,2015-03-28 05:00,ZGNN 280500Z 19003MPS 150V220 9999 SCT020 BKN043 24/19 Q1018 NOSIG
ZGNN,2015-03-28 06:00,ZGNN 280600Z 18003MPS 140V200 9999 SCT023 BKN043 25/19 Q1016 NOSIG
ZGNN,2015-03-28 07:00,ZGNN 280700Z 15003MPS 080V220 9999 SCT023 BKN043 25/20 Q1015 NOSIG
ZGNN,2015-03-28 08:00,ZGNN 280800Z 14003MPS 110V170 9999 SCT023 SCT043 26/19 Q1014 NOSIG
ZGNN,2015-03-28 09:00,ZGNN 280900Z 15004MPS 9999 FEW023 BKN046 25/20 Q1014 NOSIG
ZGNN,2015-03-28 10:00,ZGNN 281000Z 15004MPS 120V180 CAVOK 25/20 Q1014 NOSIG
ZGNN,2015-03-28 11:00,ZGNN 281100Z 15002MPS CAVOK 24/20 Q1014 NOSIG
ZGNN,2015-03-28 12:00,ZGNN 281200Z 14003MPS CAVOK 23/19 Q1014 NOSIG
ZGNN,2015-03-28 13:00,ZGNN 281300Z 16003MPS CAVOK 22/19 Q1014 NOSIG
ZGNN,2015-03-28 14:00,ZGNN 281400Z 14001MPS CAVOK 22/18 Q1015 NOSIG
ZGNN,2015-03-28 15:00,ZGNN 281500Z VRB01MPS CAVOK 22/18 Q1015 NOSIG
ZGNN,2015-03-28 16:00,ZGNN 281600Z 32001MPS CAVOK 19/18 Q1015 NOSIG
ZGNN,2015-03-28 17:00,ZGNN 281700Z 02002MPS CAVOK 19/18 Q1015 NOSIG
ZGNN,2015-03-28 18:00,ZGNN 281800Z 03001MPS CAVOK 20/19 Q1015 NOSIG
ZGNN,2015-03-28 19:00,ZGNN 281900Z VRB01MPS CAVOK 20/19 Q1015 NOSIG
ZGNN,2015-03-28 20:00,ZGNN 282000Z VRB01MPS 8000 BKN046 20/19 Q1014 NOSIG
ZGNN,2015-03-28 21:00,ZGNN 282100Z 15001MPS 8000 NSC 21/20 Q1014 NOSIG
ZGNN,2015-03-28 22:00,ZGNN 282200Z 15002MPS 110V190 6000 SCT009 BKN043 21/20 Q1014 NOSIG
ZGNN,2015-03-28 23:00,ZGNN 282300Z 15002MPS 5000 BR SCT009 BKN043 21/20 Q1015 NOSIG
ZGNN,2015-03-29 00:00,ZGNN 290000Z 13002MPS 100V180 5000 BR SCT009 BKN043 22/20 Q1015 NOSIG
ZGNN,2015-03-29 01:00,ZGNN 290100Z 14003MPS 6000 SCT009 BKN043 22/21 Q1016 NOSIG
ZGNN,2015-03-29 02:00,ZGNN 290200Z 13003MPS 110V170 6000 SCT009 BKN043 23/21 Q1016 NOSIG
ZGNN,2015-03-29 03:00,ZGNN 290300Z 14004MPS 8000 SCT011 BKN043 24/21 Q1015 NOSIG
ZGNN,2015-03-29 04:00,ZGNN 290400Z 16005MPS 120V190 9999 SCT015 BKN043 26/21 Q1015 NOSIG
ZGNN,2015-03-29 05:00,ZGNN 290500Z 15006MPS 9999 SCT016 26/21 Q1013 NOSIG
ZGNN,2015-03-29 06:00,ZGNN 290600Z 14006MPS 9999 SCT023 26/21 Q1012 NOSIG
ZGNN,2015-03-29 07:00,ZGNN 290700Z 15004MPS 110V180 9999 FEW010 SCT023 27/21 Q1011 NOSIG
ZGNN,2015-03-29 08:00,ZGNN 290800Z 16005MPS 9999 BKN026 27/21 Q1010 NOSIG
ZGNN,2015-03-29 09:00,ZGNN 290900Z 16005MPS 9999 SCT040 27/21 Q1010 NOSIG
ZGNN,2015-03-29 10:00,ZGNN 291000Z 15004MPS 9999 SCT023 BKN040 26/21 Q1010 NOSIG
ZGNN,2015-03-29 11:00,ZGNN 291100Z 14003MPS 9999 SCT023 BKN040 25/21 Q1011 NOSIG
ZGNN,2015-03-29 12:00,ZGNN 291200Z 14003MPS 9999 FEW046 24/21 Q1011 NOSIG
ZGNN,2015-03-29 13:00,ZGNN 291300Z 16004MPS CAVOK 23/21 Q1012 NOSIG
ZGNN,2015-03-29 14:00,ZGNN 291400Z 15004MPS CAVOK 22/21 Q1012 NOSIG
ZGNN,2015-03-29 15:00,ZGNN 291500Z VRB01MPS CAVOK 22/21 Q1012 NOSIG
ZGNN,2015-03-29 16:00,ZGNN 291600Z VRB01MPS CAVOK 22/21 Q1012 NOSIG
ZGNN,2015-03-29 17:00,ZGNN 291700Z 18001MPS CAVOK 22/21 Q1013 NOSIG
ZGNN,2015-03-29 18:00,ZGNN 291800Z 13002MPS 9999 FEW009 SCT036 22/21 Q1012 NOSIG
ZGNN,2015-03-29 19:00,ZGNN 291900Z 14002MPS 7000 NSC 22/21 Q1012 NOSIG
ZGNN,2015-03-29 20:00,ZGNN 292000Z 16003MPS 130V190 7000 NSC 22/21 Q1011 NOSIG
ZGNN,2015-03-29 21:00,ZGNN 292100Z 18002MPS 120V220 7000 NSC 22/20 Q1011 NOSIG
ZGNN,2015-03-29 22:00,ZGNN 292200Z 18002MPS 6000 SCT009 22/21 Q1012 NOSIG
ZGNN,2015-03-29 23:00,ZGNN 292300Z VRB01MPS 5000 BR SCT009 22/21 Q1012 NOSIG
ZGNN,2015-03-30 00:00,ZGNN 300000Z VRB01MPS 6000 SCT009 23/21 Q1013 NOSIG
ZGNN,2015-03-30 01:00,ZGNN 300100Z 14004MPS 9999 SCT010 BKN046 23/21 Q1013 NOSIG
ZGNN,2015-03-30 02:00,ZGNN 300200Z 16005MPS 9999 SCT013 25/22 Q1014 NOSIG
ZGNN,2015-03-30 03:00,ZGNN 300300Z 18005MPS 140V200 9999 SCT016 26/22 Q1014 NOSIG
ZGNN,2015-03-30 04:00,ZGNN 300400Z 17005MPS 9999 SCT016 27/21 Q1013 NOSIG
ZGNN,2015-03-30 05:00,ZGNN 300500Z 16004MPS 120V180 9999 SCT023 27/22 Q1012 NOSIG
ZGNN,2015-03-30 06:00,ZGNN 300600Z 15005MPS 9999 SCT023 28/22 Q1011 NOSIG
ZGNN,2015-03-30 07:00,ZGNN 300700Z 16006MPS 9999 SCT023 27/22 Q1009 NOSIG
ZGNN,2015-03-30 08:00,ZGNN 300800Z 14006MPS 120V180 9999 SCT023 28/22 Q1008 NOSIG
ZGNN,2015-03-30 09:00,ZGNN 300900Z 15006MPS 9999 SCT030 28/22 Q1008 NOSIG
ZGNN,2015-03-30 10:00,ZGNN 301000Z 15005MPS 9999 SCT033 27/22 Q1008 NOSIG
ZGNN,2015-03-30 11:00,ZGNN 301100Z 16006MPS CAVOK 26/22 Q1008 NOSIG
ZGNN,2015-03-30 12:00,ZGNN 301200Z 15005MPS CAVOK 25/22 Q1009 NOSIG
ZGNN,2015-03-30 13:00,ZGNN 301300Z 16003MPS 130V200 CAVOK 24/22 Q1010 NOSIG
ZGNN,2015-03-30 14:00,ZGNN 301400Z 16003MPS CAVOK 24/22 Q1011 NOSIG
ZGNN,2015-03-30 15:00,ZGNN 301500Z 15004MPS CAVOK 23/22 Q1011 NOSIG
ZGNN,2015-03-30 16:00,ZGNN 301600Z 16003MPS 9999 SCT033 23/21 Q1011 NOSIG
ZGNN,2015-03-30 17:00,ZGNN 301700Z 18003MPS 140V200 9999 SCT033 24/21 Q1011 NOSIG
ZGNN,2015-03-30 18:00,ZGNN 301800Z 16003MPS 9999 BKN046 24/21 Q1010 NOSIG
ZGNN,2015-03-30 19:00,ZGNN 301900Z 13003MPS CAVOK 23/21 Q1010 NOSIG
ZGNN,2015-03-30 20:00,ZGNN 302000Z 13002MPS CAVOK 21/20 Q1010 NOSIG
ZGNN,2015-03-30 21:00,ZGNN 302100Z 16002MPS CAVOK 21/21 Q1009 NOSIG
ZGNN,2015-03-30 22:00,ZGNN 302200Z 20003MPS 180V240 CAVOK 22/21 Q1009 NOSIG
ZGNN,2015-03-30 23:00,ZGNN 302300Z VRB01MPS 9999 SCT040 21/20 Q1011 NOSIG
ZGNN,2015-03-31 00:00,ZGNN 310000Z 14002MPS 120V180 CAVOK 23/21 Q1011 NOSIG
ZGNN,2015-03-31 01:00,ZGNN 310100Z 16004MPS CAVOK 25/21 Q1011 NOSIG
ZGNN,2015-03-31 02:00,ZGNN 310200Z 15005MPS 120V180 9999 FEW040 27/21 Q1011 NOSIG
ZGNN,2015-03-31 03:00,ZGNN 310300Z 17004MPS 130V190 9999 SCT023 BKN040 27/22 Q1011 NOSIG
ZGNN,2015-03-31 04:00,ZGNN 310400Z 15004MPS 120V190 9999 SCT023 BKN040 28/23 Q1010 NOSIG
ZGNN,2015-03-31 05:00,ZGNN 310500Z 17004MPS 120V230 9999 SCT023 BKN040 29/23 Q1009 NOSIG
ZGNN,2015-03-31 06:00,ZGNN 310600Z 17005MPS 140V200 9999 SCT026 SCT040 31/22 Q1007 NOSIG
ZGNN,2015-03-31 07:00,ZGNN 310700Z 18005MPS 150V210 9999 SCT026 SCT040 31/21 Q1006 NOSIG
ZGNN,2015-03-31 08:00,ZGNN 310800Z 17006MPS 9999 SCT026 SCT043 31/20 Q1005 NOSIG
ZGNN,2015-03-31 09:00,ZGNN 310900Z 16005MPS 9999 FEW026 30/22 Q1005 NOSIG
ZGNN,2015-03-31 10:00,ZGNN 311000Z 15007MPS CAVOK 28/22 Q1006 NOSIG
ZGNN,2015-03-31 11:00,ZGNN 311100Z 15006MPS CAVOK 26/22 Q1006 NOSIG
ZGNN,2015-03-31 12:00,ZGNN 311200Z 16006MPS CAVOK 25/22 Q1007 NOSIG
ZGNN,2015-03-31 13:00,ZGNN 311300Z 16004MPS CAVOK 25/22 Q1008 NOSIG
ZGNN,2015-03-31 14:00,ZGNN 311400Z 15004MPS CAVOK 24/22 Q1008 NOSIG
ZGNN,2015-03-31 15:00,ZGNN 311500Z 17004MPS CAVOK 24/22 Q1009 NOSIG
ZGNN,2015-03-31 16:00,ZGNN 311600Z 15002MPS 120V200 CAVOK 23/21 Q1009 NOSIG
ZGNN,2015-03-31 17:00,ZGNN 311700Z VRB01MPS CAVOK 23/21 Q1008 NOSIG
ZGNN,2015-03-31 18:00,ZGNN 311800Z 36002MPS CAVOK 22/21 Q1008 NOSIG
ZGNN,2015-03-31 19:00,ZGNN 311900Z VRB01MPS CAVOK 22/21 Q1007 NOSIG
ZGNN,2015-03-31 20:00,ZGNN 312000Z VRB01MPS CAVOK 22/21 Q1007 NOSIG
ZGNN,2015-03-31 21:00,ZGNN 312100Z 01003MPS CAVOK 22/21 Q1008 NOSIG
ZGNN,2015-03-31 22:00,ZGNN 312200Z 04002MPS CAVOK 22/21 Q1008 NOSIG
ZGNN,2015-03-31 23:00,ZGNN 312300Z 02002MPS CAVOK 22/21 Q1008 NOSIG
ZGNN,2015-04-01 00:00,ZGNN 010000Z 04002MPS CAVOK 23/21 Q1009 NOSIG
ZGNN,2015-04-01 01:00,ZGNN 010100Z VRB01MPS CAVOK 24/21 Q1009 NOSIG
ZGNN,2015-04-01 02:00,ZGNN 010200Z 19002MPS 150V230 CAVOK 26/21 Q1010 NOSIG
ZGNN,2015-04-01 03:00,ZGNN 010300Z 20003MPS 170V240 CAVOK 28/20 Q1009 NOSIG
ZGNN,2015-04-01 04:00,ZGNN 010400Z 22005MPS 200V260 9999 FEW020 30/21 Q1008 NOSIG
ZGNN,2015-04-01 05:00,ZGNN 010500Z VRB02MPS 9999 FEW023 SCT036 31/21 Q1007 NOSIG
ZGNN,2015-04-01 06:00,ZGNN 010600Z 16004MPS 100V220 9999 FEW023 SCT043 32/22 Q1006 NOSIG
ZGNN,2015-04-01 07:00,ZGNN 010700Z 15006MPS 9999 FEW023 31/22 Q1004 NOSIG
ZGNN,2015-04-01 08:00,ZGNN 010800Z 14008MPS 9999 FEW026 30/23 Q1004 NOSIG
ZGNN,2015-04-01 09:00,ZGNN 010900Z 14008MPS 9999 FEW026 29/23 Q1003 NOSIG
ZGNN,2015-04-01 10:00,ZGNN 011000Z 14008MPS 9999 FEW026 29/22 Q1003 NOSIG
ZGNN,2015-04-01 11:00,ZGNN 011100Z 15005MPS CAVOK 27/22 Q1004 NOSIG
ZGNN,2015-04-01 12:00,ZGNN 011200Z 16004MPS CAVOK 26/22 Q1004 NOSIG
ZGNN,2015-04-01 13:00,ZGNN 011300Z 12002MPS CAVOK 25/22 Q1005 NOSIG
ZGNN,2015-04-01 14:00,ZGNN 011400Z 14004MPS CAVOK 24/22 Q1005 NOSIG
ZGNN,2015-04-01 15:00,ZGNN 011500Z 16003MPS CAVOK 24/22 Q1005 NOSIG
ZGNN,2015-04-01 16:00,ZGNN 011600Z VRB01MPS 8000 NSC 23/22 Q1005 NOSIG
ZGNN,2015-04-01 17:00,ZGNN 011700Z VRB01MPS 7000 NSC 23/22 Q1005 NOSIG
ZGNN,2015-04-01 18:00,ZGNN 011800Z 36002MPS 330V040 7000 NSC 22/22 Q1005 NOSIG
ZGNN,2015-04-01 19:00,ZGNN 011900Z 34002MPS 5000 BR NSC 22/22 Q1004 NOSIG
ZGNN,2015-04-01 20:00,ZGNN 012000Z 02002MPS 6000 SCT033 22/22 Q1004 NOSIG
ZGNN,2015-04-01 21:00,ZGNN 012100Z 04002MPS 6000 BKN033 23/22 Q1004 NOSIG
ZGNN,2015-04-01 22:00,ZGNN 012200Z 04001MPS 6000 BKN033 23/22 Q1004 NOSIG
ZGNN,2015-04-01 23:00,ZGNN 012300Z 00000MPS 6000 NSC 22/22 Q1005 NOSIG
ZGNN,2015-04-02 00:00,ZGNN 020000Z VRB01MPS 8000 NSC 24/23 Q1005 NOSIG
ZGNN,2015-04-02 01:00,ZGNN 020100Z 17003MPS CAVOK 26/23 Q1005 NOSIG
ZGNN,2015-04-02 02:00,ZGNN 020200Z 19003MPS 160V220 CAVOK 28/23 Q1005 NOSIG
ZGNN,2015-04-02 03:00,ZGNN 020300Z 18004MPS 150V220 CAVOK 29/22 Q1005 NOSIG
ZGNN,2015-04-02 04:00,ZGNN 020400Z VRB03MPS CAVOK 31/22 Q1004 NOSIG
ZGNN,2015-04-02 05:00,ZGNN 020500Z 22005MPS 190V260 CAVOK 33/20 Q1003 NOSIG
ZGNN,2015-04-02 06:00,ZGNN 020600Z 20006MPS CAVOK 34/19 Q1001 NOSIG
ZGNN,2015-04-02 07:00,ZGNN 020700Z 14004MPS 100V180 CAVOK 33/23 Q1000 NOSIG
ZGNN,2015-04-02 08:00,ZGNN 020800Z 13006MPS CAVOK 32/23 Q0999 NOSIG
ZGNN,2015-04-02 09:00,ZGNN 020900Z 16006MPS CAVOK 31/23 Q0999 NOSIG
ZGNN,2015-04-02 10:00,ZGNN 021000Z 16005MPS CAVOK 30/23 Q0999 NOSIG
ZGNN,2015-04-02 11:00,ZGNN 021100Z 17004MPS CAVOK 29/23 Q0999 NOSIG
ZGNN,2015-04-02 12:00,ZGNN 021200Z 16003MPS CAVOK 27/23 Q1000 NOSIG
ZGNN,2015-04-02 13:00,ZGNN 021300Z 12002MPS CAVOK 25/23 Q1001 NOSIG
ZGNN,2015-04-02 14:00,ZGNN 021400Z 13003MPS 8000 NSC 25/23 Q1001 NOSIG
ZGNN,2015-04-02 15:00,ZGNN 021500Z VRB01MPS 8000 NSC 25/23 Q1002 NOSIG
ZGNN,2015-04-02 16:00,ZGNN 021600Z VRB01MPS 6000 NSC 24/22 Q1002 NOSIG
ZGNN,2015-04-02 17:00,ZGNN 021700Z 35001MPS 7000 NSC 23/22 Q1001 NOSIG
ZGNN,2015-04-02 18:00,ZGNN 021800Z 34001MPS 7000 NSC 23/22 Q1001 NOSIG
ZGNN,2015-04-02 19:00,ZGNN 021900Z 33002MPS 7000 NSC 22/21 Q1001 NOSIG
ZGNN,2015-04-02 20:00,ZGNN 022000Z VRB01MPS 7000 NSC 22/22 Q1001 NOSIG
ZGNN,2015-04-02 21:00,ZGNN 022100Z 28002MPS 240V310 7000 NSC 21/21 Q1001 NOSIG
ZGNN,2015-04-02 22:00,ZGNN 022200Z VRB01MPS 7000 NSC 21/21 Q1001 NOSIG
ZGNN,2015-04-02 23:00,ZGNN 022300Z 32002MPS CAVOK 21/21 Q1002 NOSIG
ZGNN,2015-04-03 00:00,ZGNN 030000Z VRB01MPS CAVOK 23/22 Q1003 NOSIG
ZGNN,2015-04-03 01:00,ZGNN 030100Z VRB01MPS 5000 BR NSC 25/23 Q1003 NOSIG
ZGNN,2015-04-03 02:00,ZGNN 030200Z VRB01MPS CAVOK 28/23 Q1003 NOSIG
ZGNN,2015-04-03 03:00,ZGNN 030300Z VRB01MPS CAVOK 30/23 Q1003 NOSIG
ZGNN,2015-04-03 04:00,ZGNN 030400Z 16003MPS 110V220 CAVOK 32/22 Q1003 NOSIG
ZGNN,2015-04-03 05:00,ZGNN 030500Z 16004MPS 100V200 CAVOK 33/23 Q1001 NOSIG
ZGNN,2015-04-03 06:00,ZGNN 030600Z 15005MPS 110V180 CAVOK 33/23 Q1000 NOSIG
ZGNN,2015-04-03 07:00,ZGNN 030700Z 14007MPS CAVOK 33/22 Q0999 NOSIG
ZGNN,2015-04-03 08:00,ZGNN 030800Z 16007MPS CAVOK 33/23 Q0998 NOSIG
ZGNN,2015-04-03 09:00,ZGNN 030900Z 16006MPS 110V180 CAVOK 32/23 Q0997 NOSIG
ZGNN,2015-04-03 10:00,ZGNN 031000Z 16005MPS CAVOK 30/23 Q0998 NOSIG
ZGNN,2015-04-03 11:00,ZGNN 031100Z 15003MPS 110V180 CAVOK 29/23 Q0999 NOSIG
ZGNN,2015-04-03 12:00,ZGNN 031200Z 14003MPS 110V170 CAVOK 27/23 Q1000 NOSIG
ZGNN,2015-04-03 13:00,ZGNN 031300Z VRB01MPS CAVOK 26/23 Q1001 NOSIG
ZGNN,2015-04-03 14:00,ZGNN 031400Z 15002MPS CAVOK 26/23 Q1002 NOSIG
ZGNN,2015-04-03 15:00,ZGNN 031500Z 13002MPS CAVOK 25/23 Q1002 NOSIG
ZGNN,2015-04-03 16:00,ZGNN 031600Z VRB01MPS CAVOK 25/23 Q1002 NOSIG
ZGNN,2015-04-03 17:00,ZGNN 031700Z 12003MPS CAVOK 24/22 Q1002 NOSIG
ZGNN,2015-04-03 18:00,ZGNN 031800Z 09002MPS CAVOK 25/22 Q1001 NOSIG
ZGNN,2015-04-03 19:00,ZGNN 031900Z VRB01MPS CAVOK 24/21 Q1001 NOSIG
ZGNN,2015-04-03 20:00,ZGNN 032000Z VRB01MPS 7000 NSC 23/21 Q1001 NOSIG
ZGNN,2015-04-03 21:00,ZGNN 032100Z 30002MPS 7000 NSC 23/22 Q1001 NOSIG
ZGNN,2015-04-03 22:00,ZGNN 032200Z VRB01MPS 6000 NSC 22/21 Q1002 NOSIG
ZGNN,2015-04-03 23:00,ZGNN 032300Z 36002MPS CAVOK 22/21 Q1003 NOSIG
ZGNN,2015-04-04 00:00,ZGNN 040000Z 03002MPS CAVOK 24/22 Q1004 NOSIG
ZGNN,2015-04-04 01:00,ZGNN 040100Z 15002MPS 110V180 CAVOK 27/23 Q1004 NOSIG
ZGNN,2015-04-04 02:00,ZGNN 040200Z 15002MPS 100V200 CAVOK 28/23 Q1005 NOSIG
ZGNN,2015-04-04 03:00,ZGNN 040300Z 16004MPS 130V190 CAVOK 30/23 Q1005 NOSIG
ZGNN,2015-04-04 04:00,ZGNN 040400Z 15004MPS 120V190 CAVOK 32/22 Q1004 NOSIG
ZGNN,2015-04-04 05:00,ZGNN 040500Z 14005MPS 110V180 9999 FEW026 33/23 Q1003 NOSIG
ZGNN,2015-04-04 06:00,ZGNN 040600Z 14007MPS 100V180 CAVOK 34/22 Q1002 NOSIG
ZGNN,2015-04-04 07:00,ZGNN 040700Z 15007MPS 120V180 CAVOK 34/22 Q1001 NOSIG
ZGNN,2015-04-04 08:00,ZGNN 040800Z 15009MPS CAVOK 33/22 Q1001 NOSIG
ZGNN,2015-04-04 09:00,ZGNN 040900Z 15008MPS CAVOK 32/22 Q1001 NOSIG
ZGNN,2015-04-04 10:00,ZGNN 041000Z 15005MPS CAVOK 31/22 Q1001 NOSIG
ZGNN,2015-04-04 11:00,ZGNN 041100Z 16004MPS CAVOK 29/22 Q1002 NOSIG
ZGNN,2015-04-04 12:00,ZGNN 041200Z 16002MPS 110V190 CAVOK 27/22 Q1004 NOSIG
ZGNN,2015-04-04 13:00,ZGNN 041300Z 14002MPS 110V180 CAVOK 26/22 Q1005 NOSIG
ZGNN,2015-04-04 14:00,ZGNN 041400Z VRB01MPS CAVOK 25/23 Q1006 NOSIG
ZGNN,2015-04-04 15:00,ZGNN 041500Z 14002MPS CAVOK 25/22 Q1006 NOSIG
ZGNN,2015-04-04 16:00,ZGNN 041600Z 08001MPS CAVOK 25/22 Q1006 NOSIG
ZGNN,2015-04-04 17:00,ZGNN 041700Z 13002MPS CAVOK 24/22 Q1006 NOSIG
ZGNN,2015-04-04 18:00,ZGNN 041800Z 10001MPS CAVOK 24/22 Q1006 NOSIG
ZGNN,2015-04-04 19:00,ZGNN 041900Z 11002MPS 080V140 CAVOK 24/22 Q1005 NOSIG
ZGNN,2015-04-04 20:00,ZGNN 042000Z VRB01MPS CAVOK 24/22 Q1006 NOSIG
ZGNN,2015-04-04 21:00,ZGNN 042100Z 25002MPS 200V280 CAVOK 23/22 Q1006 NOSIG
ZGNN,2015-04-04 22:00,ZGNN 042200Z VRB01MPS CAVOK 23/22 Q1007 NOSIG
ZGNN,2015-04-04 23:00,ZGNN 042300Z VRB01MPS CAVOK 23/22 Q1007 NOSIG
ZGNN,2015-04-05 00:00,ZGNN 050000Z VRB01MPS CAVOK 25/23 Q1009 NOSIG
ZGNN,2015-04-05 01:00,ZGNN 050100Z 12002MPS CAVOK 27/23 Q1009 NOSIG
ZGNN,2015-04-05 02:00,ZGNN 050200Z 17004MPS 130V200 9999 SCT016 28/23 Q1009 NOSIG
ZGNN,2015-04-05 03:00,ZGNN 050300Z 15003MPS 110V200 9999 SCT023 29/23 Q1009 NOSIG
ZGNN,2015-04-05 04:00,ZGNN 050400Z VRB03MPS 9999 SCT026 30/22 Q1009 NOSIG
ZGNN,2015-04-05 05:00,ZGNN 050500Z 14004MPS 110V180 9999 SCT030 31/23 Q1008 NOSIG
ZGNN,2015-04-05 06:00,ZGNN 050600Z 13006MPS 9999 SCT030 31/24 Q1007 NOSIG
ZGNN,2015-04-05 07:00,ZGNN 050700Z 14006MPS 110V170 9999 FEW030 32/23 Q1006 NOSIG
ZGNN,2015-04-05 08:00,ZGNN 050800Z 14007MPS 9999 FEW033 32/24 Q1005 NOSIG
ZGNN,2015-04-05 09:00,ZGNN 050900Z 14006MPS 100V160 CAVOK 31/24 Q1005 NOSIG
ZGNN,2015-04-05 10:00,ZGNN 051000Z 14006MPS 9999 FEW023 30/23 Q1005 NOSIG
ZGNN,2015-04-05 11:00,ZGNN 051100Z 14005MPS 110V170 9999 FEW023 28/24 Q1006 NOSIG
ZGNN,2015-04-05 12:00,ZGNN 051200Z 14003MPS 110V170 9999 SCT016 27/23 Q1007 NOSIG
ZGNN,2015-04-05 13:00,ZGNN 051300Z 14003MPS 9999 SCT016 26/23 Q1008 NOSIG
ZGNN,2015-04-05 14:00,ZGNN 051400Z 14004MPS 9999 SCT016 26/23 Q1009 NOSIG
ZGNN,2015-04-05 15:00,ZGNN 051500Z 14002MPS 100V180 CAVOK 26/23 Q1009 NOSIG
ZGNN,2015-04-05 16:00,ZGNN 051600Z 18002MPS 150V210 9999 SCT015 26/23 Q1009 NOSIG
ZGNN,2015-04-05 17:00,ZGNN 051700Z 15004MPS 7000 SCT013 25/23 Q1009 NOSIG
ZGNN,2015-04-05 18:00,ZGNN 051800Z 14002MPS 7000 SCT013 25/23 Q1009 NOSIG
ZGNN,2015-04-05 19:00,ZGNN 051900Z VRB01MPS 8000 SCT013 25/23 Q1009 NOSIG
ZGNN,2015-04-05 20:00,ZGNN 052000Z 12002MPS 7000 SCT010 25/23 Q1008 NOSIG
ZGNN,2015-04-05 21:00,ZGNN 052100Z 09002MPS 050V130 8000 FEW010 SCT040 25/23 Q1009 NOSIG
ZGNN,2015-04-05 22:00,ZGNN 052200Z VRB01MPS 7000 FEW010 SCT040 24/22 Q1010 NOSIG
ZGNN,2015-04-05 23:00,ZGNN 052300Z VRB01MPS 7000 FEW010 24/23 Q1010 NOSIG
ZGNN,2015-04-06 00:00,ZGNN 060000Z VRB01MPS 7000 SCT010 25/23 Q1011 NOSIG
ZGNN,2015-04-06 01:00,ZGNN 060100Z 14002MPS 120V190 7000 SCT010 25/23 Q1012 NOSIG
ZGNN,2015-04-06 02:00,ZGNN 060200Z 16003MPS 120V200 8000 SCT011 26/23 Q1012 NOSIG
ZGNN,2015-04-06 03:00,ZGNN 060300Z 14003MPS 080V200 8000 SCT015 28/23 Q1012 NOSIG
ZGNN,2015-04-06 04:00,ZGNN 060400Z 12004MPS 090V170 9999 SCT018 28/23 Q1011 NOSIG
ZGNN,2015-04-06 05:00,ZGNN 060500Z 14003MPS 110V190 9999 SCT023 29/23 Q1010 NOSIG
ZGNN,2015-04-06 06:00,ZGNN 060600Z 14004MPS 9999 SCT023 29/22 Q1009 NOSIG
ZGNN,2015-04-06 07:00,ZGNN 060700Z 14005MPS 110V170 9999 SCT026 29/23 Q1008 NOSIG
ZGNN,2015-04-06 08:00,ZGNN 060800Z 16006MPS 9999 SCT023 BKN040 29/23 Q1007 NOSIG
ZGNN,2015-04-06 09:00,ZGNN 060900Z 16005MPS 120V190 9999 SCT023 BKN040 29/23 Q1008 NOSIG
ZGNN,2015-04-06 10:00,ZGNN 061000Z 14004MPS 9999 SCT023 BKN036 28/23 Q1008 NOSIG
ZGNN,2015-04-06 11:00,ZGNN 061100Z 17002MPS 9999 SCT020 BKN036 27/23 Q1009 NOSIG
ZGNN,2015-04-06 12:00,ZGNN 061200Z 15003MPS 120V190 9999 FEW020 BKN033 26/22 Q1010 NOSIG
ZGNN,2015-04-06 13:00,ZGNN 061300Z 13003MPS 100V160 9999 FEW020 BKN033 26/23 Q1010 NOSIG
ZGNN,2015-04-06 14:00,ZGNN 061400Z 15004MPS 130V190 9999 BKN033 26/22 Q1011 NOSIG
ZGNN,2015-04-06 15:00,ZGNN 061500Z VRB01MPS 9999 BKN033 25/22 Q1012 NOSIG
ZGNN,2015-04-06 16:00,ZGNN 061600Z VRB01MPS 9999 BKN033 25/22 Q1012 NOSIG
ZGNN,2015-04-06 17:00,ZGNN 061700Z 10002MPS 9999 BKN033 25/22 Q1012 NOSIG
ZGNN,2015-04-06 18:00,ZGNN 061800Z 10003MPS 9999 BKN033 25/22 Q1011 NOSIG
ZGNN,2015-04-06 19:00,ZGNN 061900Z 12003MPS 8000 BKN033 25/22 Q1011 NOSIG
ZGNN,2015-04-06 20:00,ZGNN 062000Z VRB01MPS 7000 BKN033 24/23 Q1011 NOSIG
ZGNN,2015-04-06 21:00,ZGNN 062100Z 00000MPS 5000 BR SCT033 24/23 Q1011 NOSIG
ZGNN,2015-04-06 22:00,ZGNN 062200Z VRB01MPS 5000 BR SCT009 24/23 Q1011 NOSIG
ZGNN,2015-04-06 23:00,ZGNN 062300Z 12001MPS 5000 BR SCT009 24/23 Q1012 NOSIG
ZGNN,2015-04-07 00:00,ZGNN 070000Z 11003MPS 4000 BR SCT008 OVC040 24/23 Q1013 NOSIG
ZGNN,2015-04-07 01:00,ZGNN 070100Z 06006MPS 4000 -TSRA BR SCT008 SCT023CB BKN033 22/20 Q1015 BECMG TL0220 -SHRA SCT013 FEW026CB OVC030
ZGNN,2015-04-07 02:00,ZGNN 070200Z 07004MPS 040V110 3100 -TSRA BR SCT013 FEW023CB BKN033 20/20 Q1015 RESHRA BECMG TL0240 -SHRA SCT013 FEW026CB OVC030
ZGNN,2015-04-07 03:00,ZGNN 070300Z 08004MPS 040V120 5000 BR SCT007 OVC033 20/19 Q1016 RETS NOSIG
ZGNN,2015-04-07 04:00,ZGNN 070400Z 03006MPS 9999 SCT008 FEW023CB OVC033 19/18 Q1016 NOSIG
ZGNN,2015-04-07 05:00,ZGNN 070500Z 06005MPS 9999 -RA SCT013 OVC033 19/18 Q1016 NOSIG
ZGNN,2015-04-07 06:00,ZGNN 070600Z 03004MPS 5000 -RA BR FEW008 SCT011 OVC033 19/18 Q1016 NOSIG
ZGNN,2015-04-07 07:00,ZGNN 070700Z 05004MPS 1900 -RA BR SCT004 SCT006 OVC023 18/18 Q1016 NOSIG
ZGNN,2015-04-07 08:00,ZGNN 070800Z 06005MPS 2100 -RA BR SCT003 SCT005 OVC023 18/18 Q1015 NOSIG
ZGNN,2015-04-07 09:00,ZGNN 070900Z 06006MPS 2800 -RA BR SCT004 SCT006 OVC023 18/18 Q1015 NOSIG
ZGNN,2015-04-07 10:00,ZGNN 071000Z 05003MPS 010V080 2600 -RA BR SCT003 OVC023 17/17 Q1016 NOSIG
ZGNN,2015-04-07 11:00,ZGNN 071100Z 04004MPS 3100 -RA BR SCT004 OVC023 17/17 Q1017 NOSIG
ZGNN,2015-04-07 12:00,ZGNN 071200Z 02004MPS 4000 -RA BR SCT005 OVC023 17/17 Q1018 NOSIG
ZGNN,2015-04-07 13:00,ZGNN 071300Z 35004MPS 9000 -RA SCT010 OVC026 17/16 Q1019 NOSIG
ZGNN,2015-04-07 14:00,ZGNN 071400Z 35004MPS 9999 OVC030 17/15 Q1020 NOSIG
ZGNN,2015-04-07 15:00,ZGNN 071500Z 35004MPS 9999 OVC033 17/15 Q1020 NOSIG
ZGNN,2015-04-07 16:00,ZGNN 071600Z 36003MPS 9999 OVC033 17/14 Q1020 NOSIG
ZGNN,2015-04-07 17:00,ZGNN 071700Z 34004MPS 9999 OVC033 17/14 Q1020 NOSIG
ZGNN,2015-04-07 18:00,ZGNN 071800Z 35005MPS 9999 OVC033 16/13 Q1020 NOSIG
ZGNN,2015-04-07 19:00,ZGNN 071900Z 35005MPS 9999 OVC026 16/13 Q1019 NOSIG
ZGNN,2015-04-07 20:00,ZGNN 072000Z 02003MPS 9999 OVC026 16/13 Q1019 NOSIG
ZGNN,2015-04-07 21:00,ZGNN 072100Z 36003MPS 9999 OVC026 15/13 Q1019 NOSIG
ZGNN,2015-04-07 22:00,ZGNN 072200Z 01004MPS 9999 OVC026 15/12 Q1020 NOSIG
ZGNN,2015-04-07 23:00,ZGNN 072300Z 02003MPS 9999 OVC023 15/12 Q1021 NOSIG
ZGNN,2015-04-08 00:00,ZGNN 080000Z 01003MPS 9999 OVC033 16/12 Q1021 NOSIG
ZGNN,2015-04-08 01:00,ZGNN 080100Z 36003MPS 330V040 9999 FEW016 OVC030 16/12 Q1022 NOSIG
ZGNN,2015-04-08 02:00,ZGNN 080200Z 09002MPS 020V180 9999 SCT020 OVC026 16/12 Q1022 NOSIG
ZGNN,2015-04-08 03:00,ZGNN 080300Z 03004MPS 9999 SCT023 OVC033 16/11 Q1022 NOSIG
ZGNN,2015-04-08 04:00,ZGNN 080400Z 01003MPS 330V060 9999 SCT023 OVC036 18/12 Q1021 NOSIG
ZGNN,2015-04-08 05:00,ZGNN 080500Z 01004MPS 330V050 9999 SCT026 OVC036 17/11 Q1021 NOSIG
ZGNN,2015-04-08 06:00,ZGNN 080600Z 01003MPS 340V070 9999 SCT026 OVC036 17/12 Q1020 NOSIG
ZGNN,2015-04-08 07:00,ZGNN 080700Z 01004MPS 9999 SCT026 OVC036 17/11 Q1019 NOSIG
ZGNN,2015-04-08 08:00,ZGNN 080800Z 08003MPS 9999 SCT023 OVC036 16/11 Q1018 NOSIG
ZGNN,2015-04-08 09:00,ZGNN 080900Z 10004MPS 9999 SCT023 OVC036 16/11 Q1017 NOSIG
ZGNN,2015-04-08 10:00,ZGNN 081000Z 09003MPS 060V150 9999 SCT023 OVC036 16/11 Q1018 NOSIG
ZGNN,2015-04-08 11:00,ZGNN 081100Z 07004MPS 050V110 9999 OVC033 16/11 Q1018 NOSIG
ZGNN,2015-04-08 12:00,ZGNN 081200Z 09003MPS 070V160 9999 OVC026 15/11 Q1019 NOSIG
ZGNN,2015-04-08 13:00,ZGNN 081300Z 09003MPS 060V150 9999 OVC026 15/11 Q1019 NOSIG
ZGNN,2015-04-08 14:00,ZGNN 081400Z 08004MPS 9999 SCT016 OVC026 15/11 Q1019 NOSIG
ZGNN,2015-04-08 15:00,ZGNN 081500Z 06004MPS 7000 SCT016 OVC026 15/11 Q1019 NOSIG
ZGNN,2015-04-08 16:00,ZGNN 081600Z 08003MPS 5000 -DZ BR FEW010 SCT016 OVC026 14/12 Q1019 NOSIG
ZGNN,2015-04-08 17:00,ZGNN 081700Z 04003MPS 4000 -DZ BR FEW005 SCT010 OVC026 13/13 Q1019 NOSIG
ZGNN,2015-04-08 18:00,ZGNN 081800Z 06004MPS 4500 -DZ BR FEW005 SCT015 OVC026 13/12 Q1019 NOSIG
ZGNN,2015-04-08 19:00,ZGNN 081900Z 07003MPS 4000 BR FEW005 SCT013 OVC026 13/13 Q1018 NOSIG
ZGNN,2015-04-08 20:00,ZGNN 082000Z 04002MPS 010V070 5000 BR SCT007 SCT013 OVC026 13/12 Q1018 NOSIG
ZGNN,2015-04-08 21:00,ZGNN 082100Z 05002MPS 3200 -DZ BR FEW003 SCT005 OVC026 13/13 Q1017 TEMPO 2500 -RA BR
ZGNN,2015-04-08 22:00,ZGNN 082200Z 07003MPS 2800 -DZ BR SCT003 SCT005 OVC026 13/13 Q1018 NOSIG
ZGNN,2015-04-08 23:00,ZGNN 082300Z 06002MPS 2900 -DZ BR FEW003 SCT010 OVC026 13/13 Q1018 BECMG TL2350 4000 BR
ZGNN,2015-04-09 00:00,ZGNN 090000Z 11002MPS 070V130 3200 -DZ BR FEW003 SCT006 OVC026 13/13 Q1019 NOSIG
ZGNN,2015-04-09 01:00,ZGNN 090100Z 08002MPS 2200 -DZ BR FEW003 SCT006 OVC026 13/13 Q1019 NOSIG
ZGNN,2015-04-09 02:00,ZGNN 090200Z 10002MPS 070V130 3500 -DZ BR FEW003 SCT006 OVC026 14/14 Q1020 NOSIG
ZGNN,2015-04-09 03:00,ZGNN 090300Z 04004MPS 6000 -DZ FEW007 SCT015 OVC026 14/13 Q1020 NOSIG
ZGNN,2015-04-09 04:00,ZGNN 090400Z 04003MPS 6000 -DZ FEW007 SCT013 OVC026 14/14 Q1020 NOSIG
ZGNN,2015-04-09 05:00,ZGNN 090500Z 06004MPS 6000 -DZ FEW007 SCT013 OVC026 14/14 Q1019 NOSIG
ZGNN,2015-04-09 06:00,ZGNN 090600Z 07002MPS 4000 -DZ BR FEW007 SCT010 OVC026 14/14 Q1019 NOSIG
ZGNN,2015-04-09 07:00,ZGNN 090700Z 04003MPS 2500 -RA BR FEW002 SCT003 OVC023 14/14 Q1018 NOSIG
ZGNN,2015-04-09 08:00,ZGNN 090800Z 02003MPS 2500 -RA BR FEW003 SCT008 OVC023 14/14 Q1017 BECMG TL0920 3500 BR
ZGNN,2015-04-09 09:00,ZGNN 090900Z 03004MPS 3500 -RA BR FEW003 SCT008 OVC023 14/14 Q1017 NOSIG
ZGNN,2015-04-09 10:00,ZGNN 091000Z 08004MPS 3200 -RA BR FEW003 SCT008 OVC023 14/14 Q1017 NOSIG
ZGNN,2015-04-09 11:00,ZGNN 091100Z 08003MPS 040V120 4500 -RA BR FEW003 SCT006 OVC023 14/14 Q1018 NOSIG
ZGNN,2015-04-09 12:00,ZGNN 091200Z 08003MPS 040V110 4500 -RA BR FEW003 SCT008 OVC023 13/13 Q1018 NOSIG
ZGNN,2015-04-09 13:00,ZGNN 091300Z 06003MPS 020V100 4000 -RA BR FEW003 SCT008 OVC023 14/14 Q1019 NOSIG
ZGNN,2015-04-09 14:00,ZGNN 091400Z 05003MPS 6000 -RA FEW005 SCT013 OVC023 13/13 Q1020 NOSIG
ZGNN,2015-04-09 15:00,ZGNN 091500Z 06002MPS 030V100 5000 -RA BR FEW005 SCT013 OVC023 13/13 Q1020 NOSIG
ZGNN,2015-04-09 16:00,ZGNN 091600Z 06002MPS 4000 -RA BR FEW005 SCT013 OVC026 13/13 Q1020 NOSIG
ZGNN,2015-04-09 17:00,ZGNN 091700Z VRB01MPS 5000 -RA BR FEW003 SCT006 OVC026 13/13 Q1019 NOSIG
ZGNN,2015-04-09 18:00,ZGNN 091800Z VRB01MPS 5000 -RA BR FEW003 SCT006 OVC026 14/14 Q1019 NOSIG
ZGNN,2015-04-09 19:00,ZGNN 091900Z 34002MPS 300V360 5000 -RA BR FEW003 SCT006 OVC026 14/14 Q1020 NOSIG
ZGNN,2015-04-09 20:00,ZGNN 092000Z 35002MPS 7000 -RA FEW007 SCT010 OVC026 14/14 Q1019 NOSIG
ZGNN,2015-04-09 21:00,ZGNN 092100Z 34003MPS 9999 -RA FEW007 SCT010 OVC026 13/13 Q1020 NOSIG
ZGNN,2015-04-09 22:00,ZGNN 092200Z 35003MPS 9999 -RA FEW007 SCT010 OVC026 13/13 Q1020 NOSIG
ZGNN,2015-04-09 23:00,ZGNN 092300Z 01003MPS 9999 SCT008 OVC026 13/13 Q1020 NOSIG
ZGNN,2015-04-10 00:00,ZGNN 100000Z 33002MPS 9999 SCT013 OVC026 14/13 Q1021 NOSIG
ZGNN,2015-04-10 01:00,ZGNN 100100Z 34003MPS 9999 SCT013 OVC030 14/13 Q1022 NOSIG
ZGNN,2015-04-10 02:00,ZGNN 100200Z 01004MPS 9999 SCT009 OVC033 15/13 Q1021 NOSIG
ZGNN,2015-04-10 03:00,ZGNN 100300Z 03003MPS 360V060 9999 SCT009 OVC033 16/12 Q1021 NOSIG
ZGNN,2015-04-10 04:00,ZGNN 100400Z 03004MPS 360V060 9999 SCT020 OVC040 17/13 Q1020 NOSIG
ZGNN,2015-04-10 05:00,ZGNN 100500Z 34003MPS 300V020 9999 SCT020 OVC040 17/13 Q1020 NOSIG
ZGNN,2015-04-10 06:00,ZGNN 100600Z 33002MPS 300V010 9999 SCT020 BKN040 17/13 Q1019 NOSIG
ZGNN,2015-04-10 07:00,ZGNN 100700Z VRB01MPS 9999 SCT040 18/13 Q1018 NOSIG
ZGNN,2015-04-10 08:00,ZGNN 100800Z VRB01MPS 9999 SCT026 18/13 Q1018 NOSIG
ZGNN,2015-04-10 09:00,ZGNN 100900Z 04002MPS 010V070 9999 SCT030 18/13 Q1018 NOSIG
ZGNN,2015-04-10 10:00,ZGNN 101000Z 04003MPS 9999 -RA FEW016 SCT030 17/14 Q1018 NOSIG
ZGNN,2015-04-10 11:00,ZGNN 101100Z 06002MPS 030V100 9999 -RA SCT020 OVC033 17/15 Q1018 NOSIG
ZGNN,2015-04-10 12:00,ZGNN 101200Z 05002MPS 7000 -RA SCT026 OVC040 16/14 Q1019 NOSIG
ZGNN,2015-04-10 13:00,ZGNN 101300Z 07002MPS 6000 -RA SCT020 OVC040 16/15 Q1019 NOSIG
ZGNN,2015-04-10 14:00,ZGNN 101400Z 09002MPS 6000 -RA FEW020 15/15 Q1019 NOSIG
ZGNN,2015-04-10 15:00,ZGNN 101500Z 10002MPS 060V160 5000 -RA BR FEW020 15/14 Q1019 NOSIG
ZGNN,2015-04-10 16:00,ZGNN 101600Z 09003MPS 5000 -RA BR FEW020 15/14 Q1019 NOSIG
ZGNN,2015-04-10 17:00,ZGNN 101700Z 04002MPS 010V070 5000 BR FEW020 15/14 Q1019 NOSIG
ZGNN,2015-04-10 18:00,ZGNN 101800Z 35001MPS 5000 BR FEW020 OVC046 15/14 Q1019 NOSIG
ZGNN,2015-04-10 19:00,ZGNN 101900Z 33002MPS 300V020 5000 BR FEW020 OVC046 15/14 Q1019 NOSIG
ZGNN,2015-04-10 20:00,ZGNN 102000Z 00000MPS 5000 BR BKN046 15/14 Q1018 NOSIG
ZGNN,2015-04-10 21:00,ZGNN 102100Z 28002MPS 5000 BR BKN046 15/14 Q1018 NOSIG
ZGNN,2015-04-10 22:00,ZGNN 102200Z VRB01MPS 4500 BR BKN046 15/14 Q1019 NOSIG
ZGNN,2015-04-10 23:00,ZGNN 102300Z 23001MPS 4000 BR OVC046 15/14 Q1020 NOSIG
ZGNN,2015-04-11 00:00,ZGNN 110000Z VRB01MPS 3500 BR NSC 15/14 Q1020 NOSIG
ZGNN,2015-04-11 01:00,ZGNN 110100Z VRB01MPS 3500 BR FEW013 16/15 Q1021 NOSIG
ZGNN,2015-04-11 02:00,ZGNN 110200Z 00000MPS 4500 BR SCT013 17/15 Q1021 NOSIG
ZGNN,2015-04-11 03:00,ZGNN 110300Z VRB01MPS 7000 FEW016 OVC033 18/15 Q1021 NOSIG
ZGNN,2015-04-11 04:00,ZGNN 110400Z VRB01MPS 6000 SCT023 BKN033 19/14 Q1021 NOSIG
ZGNN,2015-04-11 05:00,ZGNN 110500Z 06002MPS 020V130 6000 FEW023 SCT033 20/14 Q1020 NOSIG
ZGNN,2015-04-11 06:00,ZGNN 110600Z 06003MPS 020V100 7000 SCT030 BKN046 21/13 Q1019 NOSIG
ZGNN,2015-04-11 07:00,ZGNN 110700Z 03002MPS 340V100 7000 BKN033 22/13 Q1018 NOSIG
ZGNN,2015-04-11 08:00,ZGNN 110800Z 36003MPS 320V060 8000 BKN033 22/14 Q1018 NOSIG
ZGNN,2015-04-11 09:00,ZGNN 110900Z 02003MPS 350V050 8000 FEW036 22/14 Q1018 NOSIG
ZGNN,2015-04-11 10:00,ZGNN 111000Z 04002MPS 8000 NSC 22/14 Q1018 NOSIG
ZGNN,2015-04-11 11:00,ZGNN 111100Z VRB01MPS 7000 NSC 21/14 Q1019 NOSIG
ZGNN,2015-04-11 12:00,ZGNN 111200Z 06005MPS 8000 NSC 20/13 Q1019 NOSIG
ZGNN,2015-04-11 13:00,ZGNN 111300Z 05002MPS 030V100 8000 NSC 19/12 Q1020 NOSIG
ZGNN,2015-04-11 14:00,ZGNN 111400Z VRB01MPS 7000 NSC 18/13 Q1021 NOSIG
ZGNN,2015-04-11 15:00,ZGNN 111500Z 02001MPS 7000 NSC 18/14 Q1021 NOSIG
ZGNN,2015-04-11 16:00,ZGNN 111600Z VRB01MPS 6000 NSC 18/14 Q1022 NOSIG
ZGNN,2015-04-11 17:00,ZGNN 111700Z 35001MPS 6000 NSC 18/14 Q1021 NOSIG
ZGNN,2015-04-11 18:00,ZGNN 111800Z 34001MPS 8000 NSC 18/13 Q1021 NOSIG
ZGNN,2015-04-11 19:00,ZGNN 111900Z 35002MPS 7000 NSC 17/14 Q1021 NOSIG
ZGNN,2015-04-11 20:00,ZGNN 112000Z 01002MPS 7000 NSC 17/13 Q1020 NOSIG
ZGNN,2015-04-11 21:00,ZGNN 112100Z 18002MPS 6000 NSC 16/14 Q1021 NOSIG
ZGNN,2015-04-11 22:00,ZGNN 112200Z VRB01MPS 5000 BR NSC 16/15 Q1021 NOSIG
ZGNN,2015-04-11 23:00,ZGNN 112300Z VRB01G07MPS 6000 NSC 16/15 Q1022 NOSIG
ZGNN,2015-04-12 00:00,ZGNN 120000Z VRB01MPS 6000 NSC 17/15 Q1023 NOSIG
ZGNN,2015-04-12 01:00,ZGNN 120100Z VRB01MPS 8000 NSC 21/14 Q1023 NOSIG
ZGNN,2015-04-12 02:00,ZGNN 120200Z 02005MPS 330V050 CAVOK 22/12 Q1023 NOSIG
ZGNN,2015-04-12 03:00,ZGNN 120300Z 36005MPS 340V050 CAVOK 23/13 Q1023 NOSIG
ZGNN,2015-04-12 04:00,ZGNN 120400Z 33006MPS 300V360 CAVOK 25/11 Q1023 NOSIG
ZGNN,2015-04-12 05:00,ZGNN 120500Z 02007MPS 9999 FEW026 26/09 Q1022 NOSIG
ZGNN,2015-04-12 06:00,ZGNN 120600Z 36004MPS 310V120 9999 FEW026 27/10 Q1021 NOSIG
ZGNN,2015-04-12 07:00,ZGNN 120700Z 01006MPS 340V050 CAVOK 27/09 Q1020 NOSIG
ZGNN,2015-04-12 08:00,ZGNN 120800Z 02005MPS 340V070 CAVOK 27/07 Q1019 NOSIG
ZGNN,2015-04-12 09:00,ZGNN 120900Z 01004MPS 310V040 CAVOK 27/08 Q1019 NOSIG
ZGNN,2015-04-12 10:00,ZGNN 121000Z 34003G17MPS 310V080 CAVOK 27/09 Q1019 NOSIG
ZGNN,2015-04-12 11:00,ZGNN 121100Z 33002MPS 300V020 CAVOK 25/10 Q1019 NOSIG
ZGNN,2015-04-12 12:00,ZGNN 121200Z 34002MPS CAVOK 21/14 Q1020 NOSIG
ZGNN,2015-04-12 13:00,ZGNN 121300Z 00000MPS CAVOK 20/13 Q1021 NOSIG
ZGNN,2015-04-12 14:00,ZGNN 121400Z 00000MPS CAVOK 18/14 Q1021 NOSIG
ZGNN,2015-04-12 15:00,ZGNN 121500Z VRB01MPS CAVOK 17/14 Q1022 NOSIG
ZGNN,2015-04-12 16:00,ZGNN 121600Z VRB01MPS CAVOK 16/13 Q1021 NOSIG
ZGNN,2015-04-12 17:00,ZGNN 121700Z VRB01MPS CAVOK 16/12 Q1021 NOSIG
ZGNN,2015-04-12 18:00,ZGNN 121800Z VRB01MPS CAVOK 15/13 Q1021 NOSIG
ZGNN,2015-04-12 19:00,ZGNN 121900Z 27001MPS CAVOK 15/12 Q1021 NOSIG
ZGNN,2015-04-12 20:00,ZGNN 122000Z VRB01MPS 7000 NSC 14/13 Q1020 NOSIG
ZGNN,2015-04-12 21:00,ZGNN 122100Z 22002MPS 5000 BR NSC 13/12 Q1020 NOSIG
ZGNN,2015-04-12 22:00,ZGNN 122200Z 05001MPS 6000 NSC 14/13 Q1021 NOSIG
ZGNN,2015-04-12 23:00,ZGNN 122300Z VRB01MPS CAVOK 14/13 Q1021 NOSIG
ZGNN,2015-04-13 00:00,ZGNN 130000Z 00000MPS CAVOK 17/14 Q1022 NOSIG
ZGNN,2015-04-13 01:00,ZGNN 130100Z VRB01MPS 7000 NSC 19/14 Q1022 NOSIG
ZGNN,2015-04-13 02:00,ZGNN 130200Z VRB01MPS CAVOK 23/13 Q1023 NOSIG
ZGNN,2015-04-13 03:00,ZGNN 130300Z VRB01MPS CAVOK 25/13 Q1023 NOSIG
ZGNN,2015-04-13 04:00,ZGNN 130400Z VRB02MPS CAVOK 27/13 Q1022 NOSIG
ZGNN,2015-04-13 05:00,ZGNN 130500Z VRB01MPS CAVOK 28/12 Q1021 NOSIG
ZGNN,2015-04-13 06:00,ZGNN 130600Z 35003MPS 290V030 CAVOK 29/10 Q1019 NOSIG
ZGNN,2015-04-13 07:00,ZGNN 130700Z 26002MPS 180V300 CAVOK 29/08 Q1018 NOSIG
ZGNN,2015-04-13 08:00,ZGNN 130800Z VRB02MPS CAVOK 30/06 Q1017 NOSIG
ZGNN,2015-04-13 09:00,ZGNN 130900Z 30002MPS 240V350 CAVOK 30/08 Q1017 NOSIG
ZGNN,2015-04-13 10:00,ZGNN 131000Z VRB01MPS CAVOK 30/08 Q1016 NOSIG
ZGNN,2015-04-13 11:00,ZGNN 131100Z 15002MPS CAVOK 26/11 Q1017 NOSIG
ZGNN,2015-04-13 12:00,ZGNN 131200Z VRB01MPS CAVOK 24/14 Q1017 NOSIG
ZGNN,2015-04-13 13:00,ZGNN 131300Z VRB01MPS 8000 NSC 21/14 Q1018 NOSIG
ZGNN,2015-04-13 14:00,ZGNN 131400Z 06002MPS 030V100 7000 NSC 20/15 Q1018 NOSIG
ZGNN,2015-04-13 15:00,ZGNN 131500Z VRB01MPS 6000 NSC 19/14 Q1019 NOSIG
ZGNN,2015-04-13 16:00,ZGNN 131600Z VRB01MPS 6000 NSC 18/13 Q1019 NOSIG
ZGNN,2015-04-13 17:00,ZGNN 131700Z VRB01MPS 8000 NSC 18/13 Q1018 NOSIG
ZGNN,2015-04-13 18:00,ZGNN 131800Z 26003MPS 8000 NSC 16/13 Q1018 NOSIG
ZGNN,2015-04-13 19:00,ZGNN 131900Z VRB01MPS 8000 NSC 16/13 Q1018 NOSIG
ZGNN,2015-04-13 20:00,ZGNN 132000Z 35001MPS 8000 NSC 15/13 Q1017 NOSIG
ZGNN,2015-04-13 21:00,ZGNN 132100Z VRB01MPS 8000 NSC 15/14 Q1017 NOSIG
ZGNN,2015-04-13 22:00,ZGNN 132200Z VRB01MPS 6000 NSC 15/14 Q1018 NOSIG
ZGNN,2015-04-13 23:00,ZGNN 132300Z 00000MPS CAVOK 15/13 Q1019 NOSIG
ZGNN,2015-04-14 00:00,ZGNN 140000Z VRB01MPS CAVOK 18/14 Q1020 NOSIG
ZGNN,2015-04-14 01:00,ZGNN 140100Z VRB01MPS CAVOK 21/15 Q1020 NOSIG
ZGNN,2015-04-14 02:00,ZGNN 140200Z VRB01MPS CAVOK 23/15 Q1020 NOSIG
ZGNN,2015-04-14 03:00,ZGNN 140300Z VRB01MPS CAVOK 26/14 Q1020 NOSIG
ZGNN,2015-04-14 04:00,ZGNN 140400Z VRB02MPS CAVOK 28/14 Q1019 NOSIG
ZGNN,2015-04-14 05:00,ZGNN 140500Z 15004MPS 110V190 CAVOK 29/10 Q1018 NOSIG
ZGNN,2015-04-14 06:00,ZGNN 140600Z 14005MPS 110V190 CAVOK 30/09 Q1016 NOSIG
ZGNN,2015-04-14 07:00,ZGNN 140700Z 14006MPS 100V170 CAVOK 29/11 Q1015 NOSIG
ZGNN,2015-04-14 08:00,ZGNN 140800Z 14006G11MPS 110V180 CAVOK 29/12 Q1014 NOSIG
ZGNN,2015-04-14 09:00,ZGNN 140900Z 15007MPS 120V180 CAVOK 28/10 Q1013 NOSIG
ZGNN,2015-04-14 10:00,ZGNN 141000Z 16006MPS CAVOK 26/11 Q1013 NOSIG
ZGNN,2015-04-14 11:00,ZGNN 141100Z 15005MPS CAVOK 24/10 Q1014 NOSIG
ZGNN,2015-04-14 12:00,ZGNN 141200Z 15003MPS 080V180 CAVOK 23/11 Q1014 NOSIG
ZGNN,2015-04-14 13:00,ZGNN 141300Z 16003MPS CAVOK 22/12 Q1015 NOSIG
ZGNN,2015-04-14 14:00,ZGNN 141400Z 17002MPS 140V200 CAVOK 21/13 Q1015 NOSIG
ZGNN,2015-04-14 15:00,ZGNN 141500Z VRB01MPS CAVOK 21/12 Q1016 NOSIG
ZGNN,2015-04-14 16:00,ZGNN 141600Z VRB01MPS CAVOK 18/14 Q1015 NOSIG
ZGNN,2015-04-14 17:00,ZGNN 141700Z VRB01MPS CAVOK 17/13 Q1015 NOSIG
ZGNN,2015-04-14 18:00,ZGNN 141800Z VRB01MPS CAVOK 17/14 Q1015 NOSIG
ZGNN,2015-04-14 19:00,ZGNN 141900Z 01001MPS 6000 NSC 16/13 Q1014 NOSIG
ZGNN,2015-04-14 20:00,ZGNN 142000Z 03002MPS 6000 NSC 16/13 Q1013 NOSIG
ZGNN,2015-04-14 21:00,ZGNN 142100Z VRB01MPS 6000 NSC 16/13 Q1013 NOSIG
ZGNN,2015-04-14 22:00,ZGNN 142200Z VRB01MPS 6000 NSC 15/13 Q1013 NOSIG
ZGNN,2015-04-14 23:00,ZGNN 142300Z 35001MPS 5000 BR NSC 16/14 Q1014 NOSIG
ZGNN,2015-04-15 00:00,ZGNN 150000Z VRB01MPS 4000 BR NSC 18/16 Q1015 NOSIG
ZGNN,2015-04-15 01:00,ZGNN 150100Z VRB01MPS 5000 HZ NSC 21/16 Q1015 NOSIG
ZGNN,2015-04-15 02:00,ZGNN 150200Z VRB01MPS 7000 NSC 23/15 Q1016 NOSIG
ZGNN,2015-04-15 03:00,ZGNN 150300Z 12002MPS 070V160 CAVOK 24/14 Q1015 NOSIG
ZGNN,2015-04-15 04:00,ZGNN 150400Z 14004MPS 100V220 CAVOK 26/14 Q1015 NOSIG
ZGNN,2015-04-15 05:00,ZGNN 150500Z 14004MPS 110V170 CAVOK 27/14 Q1014 NOSIG
ZGNN,2015-04-15 06:00,ZGNN 150600Z 14004MPS 050V180 CAVOK 28/14 Q1013 NOSIG
ZGNN,2015-04-15 07:00,ZGNN 150700Z 15003MPS 100V210 CAVOK 28/16 Q1012 NOSIG
ZGNN,2015-04-15 08:00,ZGNN 150800Z 12005MPS 080V160 CAVOK 29/17 Q1011 NOSIG
ZGNN,2015-04-15 09:00,ZGNN 150900Z 13006MPS 090V150 CAVOK 28/18 Q1011 NOSIG
ZGNN,2015-04-15 10:00,ZGNN 151000Z 14006MPS CAVOK 27/18 Q1011 NOSIG
ZGNN,2015-04-15 11:00,ZGNN 151100Z 13005MPS CAVOK 25/19 Q1011 NOSIG
ZGNN,2015-04-15 12:00,ZGNN 151200Z 12003MPS 8000 NSC 24/19 Q1012 NOSIG
ZGNN,2015-04-15 13:00,ZGNN 151300Z 13002MPS 100V160 8000 NSC 23/19 Q1013 NOSIG
ZGNN,2015-04-15 14:00,ZGNN 151400Z 10001MPS 7000 NSC 22/19 Q1014 NOSIG
ZGNN,2015-04-15 15:00,ZGNN 151500Z VRB01MPS 6000 NSC 22/19 Q1015 NOSIG
ZGNN,2015-04-15 16:00,ZGNN 151600Z VRB01MPS 6000 NSC 21/19 Q1015 NOSIG
ZGNN,2015-04-15 17:00,ZGNN 151700Z 26001MPS 5000 BR NSC 20/18 Q1014 NOSIG
ZGNN,2015-04-15 18:00,ZGNN 151800Z 35001MPS 4000 BR NSC 19/18 Q1014 NOSIG
ZGNN,2015-04-15 19:00,ZGNN 151900Z 03002MPS 4500 BR NSC 19/19 Q1014 NOSIG
ZGNN,2015-04-15 20:00,ZGNN 152000Z 03001MPS 4000 BR NSC 19/18 Q1014 NOSIG
ZGNN,2015-04-15 21:00,ZGNN 152100Z VRB01MPS 4000 BR NSC 18/17 Q1014 NOSIG
ZGNN,2015-04-15 22:00,ZGNN 152200Z 00000MPS 4000 BR NSC 18/17 Q1014 NOSIG
ZGNN,2015-04-15 23:00,ZGNN 152300Z 00000MPS 2500 BR NSC 18/18 Q1015 BECMG 3500 BR
ZGNN,2015-04-16 00:00,ZGNN 160000Z VRB01MPS 1100 R05/1100U BR FEW013 SCT040 19/19 Q1016 BECMG TL0040 2500 BR
ZGNN,2015-04-16 01:00,ZGNN 160100Z 13002MPS 100V180 1600 BR SCT002 SCT004 20/19 Q1017 BECMG TL0200 4000 BR
ZGNN,2015-04-16 02:00,ZGNN 160200Z VRB01MPS 3100 BR NSC 23/20 Q1017 NOSIG
ZGNN,2015-04-16 03:00,ZGNN 160300Z VRB01MPS 7000 NSC 26/17 Q1017 NOSIG
ZGNN,2015-04-16 04:00,ZGNN 160400Z VRB02MPS CAVOK 28/15 Q1016 NOSIG
ZGNN,2015-04-16 05:00,ZGNN 160500Z VRB02MPS CAVOK 29/11 Q1014 NOSIG
ZGNN,2015-04-16 06:00,ZGNN 160600Z 14003MPS 080V200 CAVOK 30/09 Q1013 NOSIG
ZGNN,2015-04-16 07:00,ZGNN 160700Z 14004MPS 090V180 CAVOK 30/11 Q1012 NOSIG
ZGNN,2015-04-16 08:00,ZGNN 160800Z 15002G07MPS 090V210 CAVOK 31/14 Q1011 NOSIG
ZGNN,2015-04-16 09:00,ZGNN 160900Z 15005MPS 120V190 CAVOK 30/17 Q1010 NOSIG
ZGNN,2015-04-16 10:00,ZGNN 161000Z 14006MPS CAVOK 28/17 Q1010 NOSIG
ZGNN,2015-04-16 11:00,ZGNN 161100Z 13005MPS CAVOK 26/18 Q1010 NOSIG
ZGNN,2015-04-16 12:00,ZGNN 161200Z 13003MPS 090V170 CAVOK 25/19 Q1011 NOSIG
ZGNN,2015-04-16 13:00,ZGNN 161300Z 13003MPS CAVOK 23/19 Q1011 NOSIG
ZGNN,2015-04-16 14:00,ZGNN 161400Z 14002MPS CAVOK 22/20 Q1012 NOSIG
ZGNN,2015-04-16 15:00,ZGNN 161500Z 15002MPS 130V200 CAVOK 22/20 Q1012 NOSIG
ZGNN,2015-04-16 16:00,ZGNN 161600Z VRB01MPS CAVOK 21/20 Q1012 NOSIG
ZGNN,2015-04-16 17:00,ZGNN 161700Z 00000MPS 8000 NSC 21/20 Q1011 NOSIG
ZGNN,2015-04-16 18:00,ZGNN 161800Z VRB01MPS 7000 NSC 21/20 Q1011 NOSIG
ZGNN,2015-04-16 19:00,ZGNN 161900Z 34001MPS 7000 NSC 20/19 Q1010 NOSIG
ZGNN,2015-04-16 20:00,ZGNN 162000Z VRB01MPS 6000 NSC 20/19 Q1010 NOSIG
ZGNN,2015-04-16 21:00,ZGNN 162100Z 12001MPS 4000 BR NSC 19/19 Q1010 NOSIG
ZGNN,2015-04-16 22:00,ZGNN 162200Z VRB01MPS 4000 BR NSC 19/19 Q1010 NOSIG
ZGNN,2015-04-16 23:00,ZGNN 162300Z 00000MPS 4000 BR NSC 19/19 Q1010 NOSIG
ZGNN,2015-04-17 00:00,ZGNN 170000Z VRB01MPS 4000 BR SCT006 BKN033 20/20 Q1010 NOSIG
ZGNN,2015-04-17 01:00,ZGNN 170100Z 15003MPS 120V200 7000 SCT008 BKN033 22/20 Q1011 NOSIG
ZGNN,2015-04-17 02:00,ZGNN 170200Z 17002MPS 130V210 9999 FEW016 24/19 Q1011 NOSIG
ZGNN,2015-04-17 03:00,ZGNN 170300Z 16003MPS 110V210 9999 FEW023 26/17 Q1010 NOSIG
ZGNN,2015-04-17 04:00,ZGNN 170400Z 16004MPS 090V210 9999 FEW023 SCT033 27/17 Q1009 NOSIG
ZGNN,2015-04-17 05:00,ZGNN 170500Z 15004MPS 090V180 9999 SCT023 BKN036 28/19 Q1008 NOSIG
ZGNN,2015-04-17 06:00,ZGNN 170600Z 14006MPS 9999 SCT023 BKN036 28/19 Q1006 NOSIG
ZGNN,2015-04-17 07:00,ZGNN 170700Z 14007MPS 9999 FEW026 BKN040 28/20 Q1005 NOSIG
ZGNN,2015-04-17 08:00,ZGNN 170800Z 16007MPS 9999 FEW040 28/20 Q1004 NOSIG
ZGNN,2015-04-17 09:00,ZGNN 170900Z 15009MPS 9999 FEW046 27/20 Q1003 NOSIG
ZGNN,2015-04-17 10:00,ZGNN 171000Z 15007MPS CAVOK 26/20 Q1003 NOSIG
ZGNN,2015-04-17 11:00,ZGNN 171100Z 16006MPS CAVOK 25/21 Q1004 NOSIG
ZGNN,2015-04-17 12:00,ZGNN 171200Z 15005MPS CAVOK 24/21 Q1005 NOSIG
ZGNN,2015-04-17 13:00,ZGNN 171300Z 16004MPS 9999 BKN033 24/21 Q1006 NOSIG
ZGNN,2015-04-17 14:00,ZGNN 171400Z 15005MPS CAVOK 24/21 Q1006 NOSIG
ZGNN,2015-04-17 15:00,ZGNN 171500Z 15004MPS CAVOK 23/21 Q1006 NOSIG
ZGNN,2015-04-17 16:00,ZGNN 171600Z 14003MPS CAVOK 23/21 Q1006 NOSIG
ZGNN,2015-04-17 17:00,ZGNN 171700Z VRB01MPS CAVOK 23/21 Q1006 NOSIG
ZGNN,2015-04-17 18:00,ZGNN 171800Z 10001MPS 8000 NSC 22/20 Q1005 NOSIG
ZGNN,2015-04-17 19:00,ZGNN 171900Z VRB01MPS 6000 NSC 22/20 Q1005 NOSIG
ZGNN,2015-04-17 20:00,ZGNN 172000Z 03002MPS 6000 NSC 22/20 Q1004 NOSIG
ZGNN,2015-04-17 21:00,ZGNN 172100Z 02003MPS 6000 NSC 22/20 Q1005 NOSIG
ZGNN,2015-04-17 22:00,ZGNN 172200Z 03002MPS 5000 BR FEW036 22/20 Q1005 NOSIG
ZGNN,2015-04-17 23:00,ZGNN 172300Z 02001MPS 5000 BR FEW036 22/21 Q1006 NOSIG
ZGNN,2015-04-18 00:00,ZGNN 180000Z VRB01MPS 5000 BR NSC 23/21 Q1006 NOSIG
ZGNN,2015-04-18 01:00,ZGNN 180100Z VRB01MPS 5000 BR NSC 25/22 Q1007 NOSIG
ZGNN,2015-04-18 02:00,ZGNN 180200Z 16002MPS 120V220 CAVOK 28/22 Q1007 NOSIG
ZGNN,2015-04-18 03:00,ZGNN 180300Z 20003MPS 150V260 9999 FEW030 30/22 Q1007 NOSIG
ZGNN,2015-04-18 04:00,ZGNN 180400Z 19003MPS 160V220 9999 FEW030 31/22 Q1006 NOSIG
ZGNN,2015-04-18 05:00,ZGNN 180500Z 19005MPS 140V220 9999 FEW030 33/22 Q1005 NOSIG
ZGNN,2015-04-18 06:00,ZGNN 180600Z 18005G10MPS 130V220 9999 SCT030 34/23 Q1003 NOSIG
ZGNN,2015-04-18 07:00,ZGNN 180700Z 14006MPS 9999 FEW030 33/24 Q1002 NOSIG
ZGNN,2015-04-18 08:00,ZGNN 180800Z 14007MPS 9999 FEW030 33/24 Q1001 NOSIG
ZGNN,2015-04-18 09:00,ZGNN 180900Z 15007MPS CAVOK 32/23 Q1001 NOSIG
ZGNN,2015-04-18 10:00,ZGNN 181000Z 15006MPS CAVOK 30/23 Q1001 NOSIG
ZGNN,2015-04-18 11:00,ZGNN 181100Z 15005MPS CAVOK 28/23 Q1001 NOSIG
ZGNN,2015-04-18 12:00,ZGNN 181200Z 16002MPS 120V190 8000 NSC 27/23 Q1002 NOSIG
ZGNN,2015-04-18 13:00,ZGNN 181300Z 19003MPS 150V210 8000 NSC 26/23 Q1003 NOSIG
ZGNN,2015-04-18 14:00,ZGNN 181400Z VRB01MPS 7000 NSC 26/23 Q1004 NOSIG
ZGNN,2015-04-18 15:00,ZGNN 181500Z VRB01MPS 6000 NSC 25/23 Q1004 NOSIG
ZGNN,2015-04-18 16:00,ZGNN 181600Z 09002MPS 5000 BR NSC 25/23 Q1004 NOSIG
ZGNN,2015-04-18 17:00,ZGNN 181700Z 07003MPS 5000 BR NSC 25/23 Q1004 NOSIG
ZGNN,2015-04-18 18:00,ZGNN 181800Z 05002MPS 020V080 5000 BR NSC 25/23 Q1004 NOSIG
ZGNN,2015-04-18 19:00,ZGNN 181900Z 03002MPS 5000 BR NSC 24/23 Q1003 NOSIG
ZGNN,2015-04-18 20:00,ZGNN 182000Z 04001MPS 5000 BR NSC 24/22 Q1003 NOSIG
ZGNN,2015-04-18 21:00,ZGNN 182100Z 02002MPS 320V090 5000 BR NSC 23/22 Q1004 NOSIG
ZGNN,2015-04-18 22:00,ZGNN 182200Z VRB01MPS 5000 BR NSC 23/22 Q1004 NOSIG
ZGNN,2015-04-18 23:00,ZGNN 182300Z 01002MPS 3500 BR NSC 23/22 Q1005 NOSIG
ZGNN,2015-04-19 00:00,ZGNN 190000Z VRB01MPS 3500 BR NSC 25/23 Q1006 NOSIG
ZGNN,2015-04-19 01:00,ZGNN 190100Z VRB01MPS 4000 BR NSC 27/23 Q1006 NOSIG
ZGNN,2015-04-19 02:00,ZGNN 190200Z 20002MPS 140V240 6000 NSC 29/23 Q1006 NOSIG
ZGNN,2015-04-19 03:00,ZGNN 190300Z VRB01MPS 8000 NSC 31/23 Q1006 NOSIG
ZGNN,2015-04-19 04:00,ZGNN 190400Z 20002MPS 130V300 CAVOK 32/23 Q1006 NOSIG
ZGNN,2015-04-19 05:00,ZGNN 190500Z 20003MPS 160V250 CAVOK 34/23 Q1005 NOSIG
ZGNN,2015-04-19 06:00,ZGNN 190600Z 18003MPS 140V250 CAVOK 36/22 Q1003 NOSIG
ZGNN,2015-04-19 07:00,ZGNN 190700Z 21003MPS 180V240 CAVOK 38/21 Q1002 NOSIG
ZGNN,2015-04-19 08:00,ZGNN 190800Z 13007MPS CAVOK 36/24 Q1001 NOSIG
ZGNN,2015-04-19 09:00,ZGNN 190900Z 14006MPS 100V160 CAVOK 34/25 Q1001 NOSIG
ZGNN,2015-04-19 10:00,ZGNN 191000Z 13004MPS 090V160 CAVOK 32/25 Q1001 NOSIG
ZGNN,2015-04-19 11:00,ZGNN 191100Z 14004MPS CAVOK 30/25 Q1001 NOSIG
ZGNN,2015-04-19 12:00,ZGNN 191200Z 15002MPS CAVOK 29/25 Q1002 NOSIG
ZGNN,2015-04-19 13:00,ZGNN 191300Z 19002MPS CAVOK 28/24 Q1003 NOSIG
ZGNN,2015-04-19 14:00,ZGNN 191400Z 11002MPS 7000 NSC 27/25 Q1004 NOSIG
ZGNN,2015-04-19 15:00,ZGNN 191500Z 14001MPS 7000 NSC 26/24 Q1004 NOSIG
ZGNN,2015-04-19 16:00,ZGNN 191600Z 29002MPS 6000 NSC 26/24 Q1004 NOSIG
ZGNN,2015-04-19 17:00,ZGNN 191700Z 04002MPS 6000 NSC 26/24 Q1004 NOSIG
ZGNN,2015-04-19 18:00,ZGNN 191800Z 11002MPS 6000 NSC 26/24 Q1004 NOSIG
ZGNN,2015-04-19 19:00,ZGNN 191900Z 00000MPS 6000 NSC 25/24 Q1003 NOSIG
ZGNN,2015-04-19 20:00,ZGNN 192000Z 05002MPS 6000 NSC 25/24 Q1003 NOSIG
ZGNN,2015-04-19 21:00,ZGNN 192100Z 05005MPS 6000 NSC 25/24 Q1004 NOSIG
ZGNN,2015-04-19 22:00,ZGNN 192200Z 05004MPS 020V080 6000 FEW033CB 26/24 Q1005 NOSIG
ZGNN,2015-04-19 23:00,ZGNN 192300Z 05003MPS 6000 FEW010 25/24 Q1007 NOSIG
ZGNN,2015-04-20 00:00,ZGNN 200000Z 08004MPS 060V170 9999 -SHRA FEW013 FEW026CB BKN026 26/23 Q1008 NOSIG
ZGNN,2015-04-20 01:00,ZGNN 200100Z 06005MPS 9999 FEW013 OVC026 25/20 Q1009 NOSIG
ZGNN,2015-04-20 02:00,ZGNN 200200Z 07004MPS 050V110 9999 OVC033 25/19 Q1009 NOSIG
ZGNN,2015-04-20 03:00,ZGNN 200300Z 06003MPS 020V080 9999 OVC033 25/19 Q1010 NOSIG
ZGNN,2015-04-20 04:00,ZGNN 200400Z 36006MPS 9999 OVC026 26/19 Q1010 NOSIG
ZGNN,2015-04-20 05:00,ZGNN 200500Z 01007MPS 9999 OVC030 26/18 Q1009 NOSIG
ZGNN,2015-04-20 06:00,ZGNN 200600Z 01005MPS 340V040 9999 BKN033 28/18 Q1008 NOSIG
ZGNN,2015-04-20 07:00,ZGNN 200700Z 01005MPS 340V040 9999 BKN033 27/19 Q1008 NOSIG
ZGNN,2015-04-20 08:00,ZGNN 200800Z 03006MPS 9999 BKN033 28/18 Q1008 NOSIG
ZGNN,2015-04-20 09:00,ZGNN 200900Z 03006MPS 9999 BKN040 27/18 Q1008 NOSIG
ZGNN,2015-04-20 10:00,ZGNN 201000Z 02005MPS CAVOK 27/17 Q1008 NOSIG
ZGNN,2015-04-20 11:00,ZGNN 201100Z 08005MPS CAVOK 25/16 Q1008 NOSIG
ZGNN,2015-04-20 12:00,ZGNN 201200Z 06004MPS CAVOK 25/16 Q1009 NOSIG
ZGNN,2015-04-20 13:00,ZGNN 201300Z 06007MPS CAVOK 24/15 Q1010 NOSIG
ZGNN,2015-04-20 14:00,ZGNN 201400Z 07005MPS CAVOK 23/15 Q1011 NOSIG
ZGNN,2015-04-20 15:00,ZGNN 201500Z 08003MPS 050V130 CAVOK 22/15 Q1012 NOSIG
ZGNN,2015-04-20 16:00,ZGNN 201600Z 07004MPS CAVOK 22/15 Q1012 NOSIG
ZGNN,2015-04-20 17:00,ZGNN 201700Z 05003MPS CAVOK 21/15 Q1012 NOSIG
ZGNN,2015-04-20 18:00,ZGNN 201800Z 04003MPS CAVOK 20/15 Q1012 NOSIG
ZGNN,2015-04-20 19:00,ZGNN 201900Z VRB01MPS CAVOK 20/15 Q1012 NOSIG
ZGNN,2015-04-20 20:00,ZGNN 202000Z VRB01MPS CAVOK 18/16 Q1012 NOSIG
ZGNN,2015-04-20 21:00,ZGNN 202100Z 36002MPS CAVOK 18/15 Q1012 NOSIG
ZGNN,2015-04-20 22:00,ZGNN 202200Z 35001MPS CAVOK 17/15 Q1013 NOSIG
ZGNN,2015-04-20 23:00,ZGNN 202300Z VRB01MPS CAVOK 18/15 Q1015 NOSIG
ZGNN,2015-04-21 00:00,ZGNN 210000Z VRB01MPS CAVOK 20/14 Q1016 NOSIG
ZGNN,2015-04-21 01:00,ZGNN 210100Z 06003MPS 030V090 CAVOK 21/14 Q1016 NOSIG
ZGNN,2015-04-21 02:00,ZGNN 210200Z 04003MPS 340V110 CAVOK 23/14 Q1016 NOSIG
ZGNN,2015-04-21 03:00,ZGNN 210300Z 03003MPS 330V110 CAVOK 24/14 Q1016 NOSIG
ZGNN,2015-04-21 04:00,ZGNN 210400Z 04002MPS 300V110 CAVOK 26/14 Q1015 NOSIG
ZGNN,2015-04-21 05:00,ZGNN 210500Z VRB01MPS CAVOK 27/13 Q1014 NOSIG
ZGNN,2015-04-21 06:00,ZGNN 210600Z 08004MPS 020V130 CAVOK 28/13 Q1013 NOSIG
ZGNN,2015-04-21 07:00,ZGNN 210700Z 07004MPS 040V110 CAVOK 28/13 Q1012 NOSIG
ZGNN,2015-04-21 08:00,ZGNN 210800Z VRB02MPS CAVOK 29/13 Q1012 NOSIG
ZGNN,2015-04-21 09:00,ZGNN 210900Z 07004MPS 030V120 CAVOK 28/13 Q1011 NOSIG
ZGNN,2015-04-21 10:00,ZGNN 211000Z 07005MPS CAVOK 28/13 Q1011 NOSIG
ZGNN,2015-04-21 11:00,ZGNN 211100Z 06005MPS CAVOK 27/13 Q1012 NOSIG
ZGNN,2015-04-21 12:00,ZGNN 211200Z 09003MPS 060V150 CAVOK 26/13 Q1013 NOSIG
ZGNN,2015-04-21 13:00,ZGNN 211300Z 07005MPS 040V120 CAVOK 26/11 Q1014 NOSIG
ZGNN,2015-04-21 14:00,ZGNN 211400Z 09003MPS 060V140 CAVOK 24/13 Q1015 NOSIG
ZGNN,2015-04-21 15:00,ZGNN 211500Z 05004MPS CAVOK 24/11 Q1015 NOSIG
ZGNN,2015-04-21 16:00,ZGNN 211600Z 10002MPS 070V130 CAVOK 23/12 Q1015 NOSIG
ZGNN,2015-04-21 17:00,ZGNN 211700Z 06004MPS CAVOK 24/12 Q1014 NOSIG
ZGNN,2015-04-21 18:00,ZGNN 211800Z 04003MPS CAVOK 23/12 Q1014 NOSIG
ZGNN,2015-04-21 19:00,ZGNN 211900Z 05003MPS CAVOK 23/12 Q1014 NOSIG
ZGNN,2015-04-21 20:00,ZGNN 212000Z 02002MPS CAVOK 23/13 Q1014 NOSIG
ZGNN,2015-04-21 21:00,ZGNN 212100Z 29004MPS 4000 TSRA SCT010 FEW026CB BKN033 18/17 Q1017 BECMG TL2130 -RA
ZGNN,2015-04-21 22:00,ZGNN 212200Z 32001MPS 5000 -RA BKN046 18/17 Q1017 RETSRA NOSIG
ZGNN,2015-04-21 23:00,ZGNN 212300Z 10002MPS CAVOK 18/17 Q1016 NOSIG
ZGNN,2015-04-22 00:00,ZGNN 220000Z 05002MPS 6000 NSC 18/17 Q1016 NOSIG
ZGNN,2015-04-22 01:00,ZGNN 220100Z VRB01MPS 6000 NSC 20/18 Q1018 NOSIG
ZGNN,2015-04-22 02:00,ZGNN 220200Z VRB01MPS 7000 SCT043 20/18 Q1018 NOSIG
ZGNN,2015-04-22 03:00,ZGNN 220300Z 01002MPS 310V070 7000 SCT043 21/18 Q1018 NOSIG
ZGNN,2015-04-22 04:00,ZGNN 220400Z 04004MPS 020V100 9999 OVC043 22/16 Q1018 NOSIG
ZGNN,2015-04-22 05:00,ZGNN 220500Z 03004MPS 350V050 9999 OVC040 22/15 Q1018 NOSIG
ZGNN,2015-04-22 06:00,ZGNN 220600Z 03003MPS 9999 OVC040 23/15 Q1017 NOSIG
ZGNN,2015-04-22 07:00,ZGNN 220700Z 05003MPS 9999 OVC040 23/15 Q1016 NOSIG
ZGNN,2015-04-22 08:00,ZGNN 220800Z 04003MPS 9999 OVC040 23/15 Q1016 NOSIG
ZGNN,2015-04-22 09:00,ZGNN 220900Z 02003MPS 9999 OVC040 23/15 Q1016 NOSIG
ZGNN,2015-04-22 10:00,ZGNN 221000Z 01002MPS 330V030 9999 OVC033 23/16 Q1016 NOSIG
ZGNN,2015-04-22 11:00,ZGNN 221100Z 03004MPS 9999 FEW016 OVC033 22/16 Q1016 NOSIG
ZGNN,2015-04-22 12:00,ZGNN 221200Z 08002MPS 360V170 9999 FEW016 OVC033 22/15 Q1017 NOSIG
ZGNN,2015-04-22 13:00,ZGNN 221300Z 05004MPS 7000 FEW016 OVC033 22/15 Q1017 NOSIG
ZGNN,2015-04-22 14:00,ZGNN 221400Z 04003MPS 7000 -RA FEW016 OVC033 21/15 Q1018 NOSIG
ZGNN,2015-04-22 15:00,ZGNN 221500Z 06007MPS 7000 -RA FEW016 OVC033 20/15 Q1019 NOSIG
ZGNN,2015-04-22 16:00,ZGNN 221600Z 04004MPS 7000 -RA FEW016 OVC033 19/15 Q1019 NOSIG
ZGNN,2015-04-22 17:00,ZGNN 221700Z 02002MPS 7000 FEW016 OVC033 20/15 Q1019 NOSIG
ZGNN,2015-04-22 18:00,ZGNN 221800Z 04001MPS 7000 OVC033 20/15 Q1018 NOSIG
ZGNN,2015-04-22 19:00,ZGNN 221900Z VRB01MPS 6000 OVC033 19/16 Q1018 NOSIG
ZGNN,2015-04-22 20:00,ZGNN 222000Z VRB01MPS 6000 OVC033 19/16 Q1018 NOSIG
ZGNN,2015-04-22 21:00,ZGNN 222100Z 32001MPS 6000 OVC033 19/16 Q1018 NOSIG
ZGNN,2015-04-22 22:00,ZGNN 222200Z VRB01MPS 6000 OVC033 19/15 Q1018 NOSIG
ZGNN,2015-04-22 23:00,ZGNN 222300Z 01002MPS 7000 OVC033 19/15 Q1018 NOSIG
ZGNN,2015-04-23 00:00,ZGNN 230000Z 33002MPS 310V020 6000 OVC033 19/15 Q1019 NOSIG
ZGNN,2015-04-23 01:00,ZGNN 230100Z 03003MPS 6000 OVC030 20/15 Q1019 NOSIG
ZGNN,2015-04-23 02:00,ZGNN 230200Z 02002MPS 340V080 6000 OVC030 21/15 Q1020 NOSIG
ZGNN,2015-04-23 03:00,ZGNN 230300Z 34002MPS 290V020 6000 OVC026 21/15 Q1020 NOSIG
ZGNN,2015-04-23 04:00,ZGNN 230400Z 03002MPS 330V070 6000 OVC026 21/15 Q1020 NOSIG
ZGNN,2015-04-23 05:00,ZGNN 230500Z 33003MPS 310V010 9999 OVC026 21/15 Q1020 NOSIG
ZGNN,2015-04-23 06:00,ZGNN 230600Z 34003MPS 310V010 9999 OVC030 21/15 Q1019 NOSIG
ZGNN,2015-04-23 07:00,ZGNN 230700Z 01003MPS 330V030 7000 NSC 22/15 Q1018 NOSIG
ZGNN,2015-04-23 08:00,ZGNN 230800Z 35003MPS 320V030 7000 SCT026 22/16 Q1017 NOSIG
ZGNN,2015-04-23 09:00,ZGNN 230900Z 35004MPS 7000 OVC033 22/15 Q1017 NOSIG
ZGNN,2015-04-23 10:00,ZGNN 231000Z 35004MPS 6000 OVC030 21/16 Q1017 NOSIG
ZGNN,2015-04-23 11:00,ZGNN 231100Z 34003MPS 310V030 6000 OVC030 21/16 Q1017 NOSIG
ZGNN,2015-04-23 12:00,ZGNN 231200Z 34002MPS 310V020 6000 OVC030 21/16 Q1018 NOSIG
ZGNN,2015-04-23 13:00,ZGNN 231300Z 34002MPS 6000 OVC026 20/16 Q1019 NOSIG
ZGNN,2015-04-23 14:00,ZGNN 231400Z 35002MPS 6000 OVC023 20/16 Q1019 NOSIG
ZGNN,2015-04-23 15:00,ZGNN 231500Z 33002MPS 6000 OVC026 20/16 Q1020 NOSIG
ZGNN,2015-04-23 16:00,ZGNN 231600Z 31002MPS 6000 OVC026 20/16 Q1020 NOSIG
ZGNN,2015-04-23 17:00,ZGNN 231700Z 33003MPS 6000 OVC026 19/16 Q1019 NOSIG
ZGNN,2015-04-23 18:00,ZGNN 231800Z 34003MPS 6000 OVC030 19/16 Q1019 NOSIG
ZGNN,2015-04-23 19:00,ZGNN 231900Z 36002MPS 6000 OVC026 19/16 Q1018 NOSIG
ZGNN,2015-04-23 20:00,ZGNN 232000Z 35002MPS 310V010 6000 OVC030 19/16 Q1018 NOSIG
ZGNN,2015-04-23 21:00,ZGNN 232100Z 35003MPS 6000 OVC030 19/17 Q1018 NOSIG
ZGNN,2015-04-23 22:00,ZGNN 232200Z 34003MPS 6000 OVC026 19/17 Q1018 NOSIG
ZGNN,2015-04-23 23:00,ZGNN 232300Z 36003MPS 5000 BR OVC026 19/17 Q1019 NOSIG
ZGNN,2015-04-24 00:00,ZGNN 240000Z VRB01MPS 5000 BR OVC026 19/17 Q1019 NOSIG
ZGNN,2015-04-24 01:00,ZGNN 240100Z VRB01MPS 6000 OVC026 21/17 Q1020 NOSIG
ZGNN,2015-04-24 02:00,ZGNN 240200Z 34002MPS 290V010 5000 BR OVC026 21/17 Q1020 NOSIG
ZGNN,2015-04-24 03:00,ZGNN 240300Z 02002MPS 310V080 5000 BR FEW016 BKN026 22/17 Q1020 NOSIG
ZGNN,2015-04-24 04:00,ZGNN 240400Z 35004MPS 320V020 6000 FEW016 BKN026 23/18 Q1020 NOSIG
ZGNN,2015-04-24 05:00,ZGNN 240500Z 34003MPS 320V020 6000 FEW020 BKN030 22/18 Q1019 NOSIG
ZGNN,2015-04-24 06:00,ZGNN 240600Z 36003MPS 320V030 6000 SCT020 BKN030 23/18 Q1018 NOSIG
ZGNN,2015-04-24 07:00,ZGNN 240700Z 34003MPS 5000 HZ SCT020 BKN030 23/18 Q1018 NOSIG
ZGNN,2015-04-24 08:00,ZGNN 240800Z 34002MPS 5000 HZ SCT026 BKN036 23/18 Q1017 NOSIG
ZGNN,2015-04-24 09:00,ZGNN 240900Z 34005MPS 4000 HZ SCT020 BKN033 23/18 Q1017 NOSIG
ZGNN,2015-04-24 10:00,ZGNN 241000Z 35005MPS 5000 HZ OVC026 23/18 Q1017 NOSIG
ZGNN,2015-04-24 11:00,ZGNN 241100Z 34003MPS 320V020 6000 OVC030 22/17 Q1018 NOSIG
ZGNN,2015-04-24 12:00,ZGNN 241200Z 35003MPS 320V020 7000 OVC033 22/17 Q1018 NOSIG
ZGNN,2015-04-24 13:00,ZGNN 241300Z 36002MPS 330V040 7000 OVC033 22/17 Q1019 NOSIG
ZGNN,2015-04-24 14:00,ZGNN 241400Z 34002MPS 310V010 8000 OVC030 22/17 Q1019 NOSIG
ZGNN,2015-04-24 15:00,ZGNN 241500Z 36002MPS 330V030 7000 OVC030 22/17 Q1020 NOSIG
ZGNN,2015-04-24 16:00,ZGNN 241600Z 03002MPS 360V070 8000 NSC 21/17 Q1019 NOSIG
ZGNN,2015-04-24 17:00,ZGNN 241700Z VRB01MPS 7000 BKN033 21/17 Q1019 NOSIG
ZGNN,2015-04-24 18:00,ZGNN 241800Z 17001MPS 6000 BKN033 20/18 Q1019 NOSIG
ZGNN,2015-04-24 19:00,ZGNN 241900Z 29002MPS 6000 BKN033 20/18 Q1018 NOSIG
ZGNN,2015-04-24 20:00,ZGNN 242000Z 36002MPS 6000 BKN033 21/17 Q1018 NOSIG
ZGNN,2015-04-24 21:00,ZGNN 242100Z VRB01MPS 7000 BKN033 21/17 Q1018 NOSIG
ZGNN,2015-04-24 22:00,ZGNN 242200Z 03001MPS 7000 SCT033 20/17 Q1018 NOSIG
ZGNN,2015-04-24 23:00,ZGNN 242300Z VRB01MPS 9999 SCT033 20/17 Q1019 NOSIG
ZGNN,2015-04-25 00:00,ZGNN 250000Z 35002MPS CAVOK 21/16 Q1019 NOSIG
ZGNN,2015-04-25 01:00,ZGNN 250100Z 36003MPS 330V030 CAVOK 23/16 Q1019 NOSIG
ZGNN,2015-04-25 02:00,ZGNN 250200Z 01003MPS 330V050 CAVOK 24/16 Q1019 NOSIG
ZGNN,2015-04-25 03:00,ZGNN 250300Z 02003MPS 330V060 CAVOK 25/16 Q1020 NOSIG
ZGNN,2015-04-25 04:00,ZGNN 250400Z 34003MPS 280V070 CAVOK 26/16 Q1019 NOSIG
ZGNN,2015-04-25 05:00,ZGNN 250500Z 33003MPS 280V040 CAVOK 28/16 Q1018 NOSIG
ZGNN,2015-04-25 06:00,ZGNN 250600Z 36003MPS 320V040 CAVOK 28/16 Q1017 NOSIG
ZGNN,2015-04-25 07:00,ZGNN 250700Z 34004MPS 300V360 CAVOK 29/16 Q1016 NOSIG
ZGNN,2015-04-25 08:00,ZGNN 250800Z 35004MPS 320V030 CAVOK 29/15 Q1015 NOSIG
ZGNN,2015-04-25 09:00,ZGNN 250900Z 31003MPS 290V010 CAVOK 29/15 Q1015 NOSIG
ZGNN,2015-04-25 10:00,ZGNN 251000Z 33003MPS CAVOK 28/15 Q1015 NOSIG
ZGNN,2015-04-25 11:00,ZGNN 251100Z VRB01MPS CAVOK 27/16 Q1015 NOSIG
ZGNN,2015-04-25 12:00,ZGNN 251200Z 27002MPS 160V330 CAVOK 25/17 Q1015 NOSIG
ZGNN,2015-04-25 13:00,ZGNN 251300Z 32001MPS CAVOK 23/18 Q1016 NOSIG
ZGNN,2015-04-25 14:00,ZGNN 251400Z 02003MPS CAVOK 24/18 Q1017 NOSIG
ZGNN,2015-04-25 15:00,ZGNN 251500Z 10002MPS 060V160 CAVOK 24/18 Q1017 NOSIG
ZGNN,2015-04-25 16:00,ZGNN 251600Z 32001MPS CAVOK 22/18 Q1017 NOSIG
ZGNN,2015-04-25 17:00,ZGNN 251700Z 00000MPS 8000 NSC 22/18 Q1017 NOSIG
ZGNN,2015-04-25 18:00,ZGNN 251800Z 24001MPS 8000 NSC 21/19 Q1016 NOSIG
ZGNN,2015-04-25 19:00,ZGNN 251900Z 00000MPS 9000 NSC 20/18 Q1016 NOSIG
ZGNN,2015-04-25 20:00,ZGNN 252000Z 00000MPS 9000 NSC 20/18 Q1016 NOSIG
ZGNN,2015-04-25 21:00,ZGNN 252100Z VRB01MPS 8000 NSC 19/18 Q1016 NOSIG
ZGNN,2015-04-25 22:00,ZGNN 252200Z 13001MPS 8000 NSC 19/18 Q1016 NOSIG
ZGNN,2015-04-25 23:00,ZGNN 252300Z VRB01MPS 8000 NSC 20/18 Q1017 NOSIG
ZGNN,2015-04-26 00:00,ZGNN 260000Z VRB01MPS 7000 SCT013 22/18 Q1018 NOSIG
ZGNN,2015-04-26 01:00,ZGNN 260100Z VRB01MPS 7000 SCT013 BKN040 24/19 Q1018 NOSIG
ZGNN,2015-04-26 02:00,ZGNN 260200Z 12002MPS 080V180 6000 FEW013 BKN040 25/21 Q1018 NOSIG
ZGNN,2015-04-26 03:00,ZGNN 260300Z 13003MPS 080V170 6000 FEW013 BKN040 26/21 Q1018 NOSIG
ZGNN,2015-04-26 04:00,ZGNN 260400Z VRB02MPS 6000 FEW023 BKN040 28/21 Q1017 NOSIG
ZGNN,2015-04-26 05:00,ZGNN 260500Z 12002MPS 080V210 6000 SCT026 29/21 Q1016 NOSIG
ZGNN,2015-04-26 06:00,ZGNN 260600Z VRB01MPS 7000 SCT033 30/20 Q1015 NOSIG
ZGNN,2015-04-26 07:00,ZGNN 260700Z 18003MPS 9999 FEW023 BKN040 29/20 Q1014 NOSIG
ZGNN,2015-04-26 08:00,ZGNN 260800Z 16003MPS 130V190 9999 FEW023 BKN046 30/19 Q1013 NOSIG
ZGNN,2015-04-26 09:00,ZGNN 260900Z 14002MPS 100V180 9999 FEW026 SCT046 30/20 Q1013 NOSIG
ZGNN,2015-04-26 10:00,ZGNN 261000Z 16005MPS CAVOK 28/21 Q1013 NOSIG
ZGNN,2015-04-26 11:00,ZGNN 261100Z 16003MPS CAVOK 28/21 Q1013 NOSIG
ZGNN,2015-04-26 12:00,ZGNN 261200Z 14003MPS 120V190 CAVOK 26/21 Q1013 NOSIG
ZGNN,2015-04-26 13:00,ZGNN 261300Z 14002MPS 120V180 7000 NSC 26/21 Q1014 NOSIG
ZGNN,2015-04-26 14:00,ZGNN 261400Z 16002MPS 140V200 7000 NSC 25/21 Q1014 NOSIG
ZGNN,2015-04-26 15:00,ZGNN 261500Z 21002MPS 7000 NSC 25/21 Q1015 NOSIG
ZGNN,2015-04-26 16:00,ZGNN 261600Z 21002MPS 180V250 6000 NSC 24/21 Q1015 NOSIG
ZGNN,2015-04-26 17:00,ZGNN 261700Z 15001MPS 6000 NSC 23/21 Q1014 NOSIG
ZGNN,2015-04-26 18:00,ZGNN 261800Z VRB01MPS 6000 NSC 23/21 Q1013 NOSIG
ZGNN,2015-04-26 19:00,ZGNN 261900Z VRB01MPS 5000 BR NSC 22/21 Q1013 NOSIG
ZGNN,2015-04-26 20:00,ZGNN 262000Z 11001MPS 5000 BR NSC 22/21 Q1013 NOSIG
ZGNN,2015-04-26 21:00,ZGNN 262100Z VRB01MPS 5000 BR NSC 22/21 Q1013 NOSIG
ZGNN,2015-04-26 22:00,ZGNN 262200Z VRB01MPS 5000 BR NSC 22/20 Q1013 NOSIG
ZGNN,2015-04-26 23:00,ZGNN 262300Z VRB01MPS 5000 BR NSC 22/20 Q1014 NOSIG
ZGNN,2015-04-27 00:00,ZGNN 270000Z VRB01MPS 5000 BR NSC 23/21 Q1014 NOSIG
ZGNN,2015-04-27 01:00,ZGNN 270100Z 18002MPS 120V220 5000 BR NSC 24/21 Q1015 NOSIG
ZGNN,2015-04-27 02:00,ZGNN 270200Z 17004MPS 5000 BR FEW013 25/22 Q1015 NOSIG
ZGNN,2015-04-27 03:00,ZGNN 270300Z 15003MPS 120V200 6000 FEW020 27/21 Q1015 NOSIG
ZGNN,2015-04-27 04:00,ZGNN 270400Z VRB02MPS 9999 SCT023 28/21 Q1014 NOSIG
ZGNN,2015-04-27 05:00,ZGNN 270500Z 14003MPS 100V190 9999 SCT026 29/21 Q1013 NOSIG
ZGNN,2015-04-27 06:00,ZGNN 270600Z 15004MPS 9999 FEW026 29/21 Q1012 NOSIG
ZGNN,2015-04-27 07:00,ZGNN 270700Z 15005MPS 100V180 9999 FEW026 29/21 Q1011 NOSIG
ZGNN,2015-04-27 08:00,ZGNN 270800Z 14004MPS 100V170 9999 FEW026 29/22 Q1010 NOSIG
ZGNN,2015-04-27 09:00,ZGNN 270900Z 16004MPS CAVOK 29/22 Q1010 NOSIG
ZGNN,2015-04-27 10:00,ZGNN 271000Z 14004MPS 9999 SCT046 28/22 Q1010 NOSIG
ZGNN,2015-04-27 11:00,ZGNN 271100Z 14004MPS CAVOK 27/22 Q1010 NOSIG
ZGNN,2015-04-27 12:00,ZGNN 271200Z 14003MPS 110V170 CAVOK 26/22 Q1010 NOSIG
ZGNN,2015-04-27 13:00,ZGNN 271300Z 12002MPS 070V190 CAVOK 25/21 Q1011 NOSIG
ZGNN,2015-04-27 14:00,ZGNN 271400Z VRB01MPS CAVOK 25/21 Q1012 NOSIG
ZGNN,2015-04-27 15:00,ZGNN 271500Z 18002MPS 160V230 8000 NSC 24/22 Q1012 NOSIG
ZGNN,2015-04-27 16:00,ZGNN 271600Z VRB01MPS 8000 NSC 24/21 Q1012 NOSIG
ZGNN,2015-04-27 17:00,ZGNN 271700Z 17001MPS 7000 NSC 23/21 Q1011 NOSIG
ZGNN,2015-04-27 18:00,ZGNN 271800Z VRB01MPS 6000 NSC 23/21 Q1011 NOSIG
ZGNN,2015-04-27 19:00,ZGNN 271900Z 32001MPS 6000 NSC 22/21 Q1010 NOSIG
ZGNN,2015-04-27 20:00,ZGNN 272000Z VRB01MPS 5000 BR NSC 22/21 Q1010 NOSIG
ZGNN,2015-04-27 21:00,ZGNN 272100Z 12002MPS 5000 BR NSC 22/21 Q1010 NOSIG
ZGNN,2015-04-27 22:00,ZGNN 272200Z 00000MPS 5000 BR NSC 22/21 Q1010 NOSIG
ZGNN,2015-04-27 23:00,ZGNN 272300Z 12002MPS 4000 BR NSC 23/21 Q1011 NOSIG
ZGNN,2015-04-28 00:00,ZGNN 280000Z VRB01MPS 4000 BR SCT007 23/22 Q1011 NOSIG
ZGNN,2015-04-28 01:00,ZGNN 280100Z 16002MPS 130V190 6000 SCT009 25/22 Q1012 NOSIG
ZGNN,2015-04-28 02:00,ZGNN 280200Z 19002MPS 100V230 7000 SCT013 26/22 Q1013 NOSIG
ZGNN,2015-04-28 03:00,ZGNN 280300Z VRB01MPS 9999 SCT020 29/22 Q1012 NOSIG
ZGNN,2015-04-28 04:00,ZGNN 280400Z VRB02MPS 9999 BKN046 30/20 Q1011 NOSIG
ZGNN,2015-04-28 05:00,ZGNN 280500Z 23003MPS 200V260 9999 BKN046 30/20 Q1011 NOSIG
ZGNN,2015-04-28 06:00,ZGNN 280600Z 15003MPS 100V170 9999 BKN046 30/21 Q1010 NOSIG
ZGNN,2015-04-28 07:00,ZGNN 280700Z VRB03G16MPS 9999 SCT046 32/21 Q1009 NOSIG
ZGNN,2015-04-28 08:00,ZGNN 280800Z 14004MPS 120V180 9999 SCT046 31/21 Q1008 NOSIG
ZGNN,2015-04-28 09:00,ZGNN 280900Z 14004MPS 100V180 CAVOK 31/21 Q1007 NOSIG
ZGNN,2015-04-28 10:00,ZGNN 281000Z 15004MPS 130V190 CAVOK 31/22 Q1007 NOSIG
ZGNN,2015-04-28 11:00,ZGNN 281100Z 14005MPS 110V170 CAVOK 29/22 Q1008 NOSIG
ZGNN,2015-04-28 12:00,ZGNN 281200Z 12003MPS 100V170 CAVOK 27/22 Q1008 NOSIG
ZGNN,2015-04-28 13:00,ZGNN 281300Z 14003MPS 120V190 CAVOK 26/22 Q1009 NOSIG
ZGNN,2015-04-28 14:00,ZGNN 281400Z 11002MPS 080V160 CAVOK 25/22 Q1009 NOSIG
ZGNN,2015-04-28 15:00,ZGNN 281500Z 13003MPS 110V170 CAVOK 25/22 Q1010 NOSIG
ZGNN,2015-04-28 16:00,ZGNN 281600Z 08002MPS CAVOK 25/23 Q1011 NOSIG
ZGNN,2015-04-28 17:00,ZGNN 281700Z 09002MPS CAVOK 24/22 Q1011 NOSIG
ZGNN,2015-04-28 18:00,ZGNN 281800Z 00000MPS CAVOK 24/22 Q1010 NOSIG
ZGNN,2015-04-28 19:00,ZGNN 281900Z 34002MPS CAVOK 23/22 Q1009 NOSIG
ZGNN,2015-04-28 20:00,ZGNN 282000Z VRB01MPS CAVOK 23/22 Q1009 NOSIG
ZGNN,2015-04-28 21:00,ZGNN 282100Z 22001MPS 7000 NSC 23/22 Q1009 NOSIG
ZGNN,2015-04-28 22:00,ZGNN 282200Z 04001MPS 5000 BR FEW006 23/23 Q1010 NOSIG
ZGNN,2015-04-28 23:00,ZGNN 282300Z 08002MPS 5000 BR FEW009 24/23 Q1011 NOSIG
ZGNN,2015-04-29 00:00,ZGNN 290000Z 15002MPS 090V180 5000 BR FEW007 24/23 Q1011 NOSIG
ZGNN,2015-04-29 01:00,ZGNN 290100Z 17002MPS 130V200 9999 FEW009 26/23 Q1011 NOSIG
ZGNN,2015-04-29 02:00,ZGNN 290200Z VRB02MPS 9999 FEW013 27/23 Q1012 NOSIG
ZGNN,2015-04-29 03:00,ZGNN 290300Z VRB01MPS 9999 FEW020 29/22 Q1012 NOSIG
ZGNN,2015-04-29 04:00,ZGNN 290400Z VRB01MPS 9999 FEW023 30/22 Q1012 NOSIG
ZGNN,2015-04-29 05:00,ZGNN 290500Z 12002MPS 080V210 9999 FEW023 30/23 Q1011 NOSIG
ZGNN,2015-04-29 06:00,ZGNN 290600Z VRB03MPS 9999 FEW026 32/22 Q1010 NOSIG
ZGNN,2015-04-29 07:00,ZGNN 290700Z 13002MPS 080V190 9999 FEW030 31/22 Q1009 NOSIG
ZGNN,2015-04-29 08:00,ZGNN 290800Z VRB02G12MPS 9999 FEW033 32/22 Q1008 NOSIG
ZGNN,2015-04-29 09:00,ZGNN 290900Z 12004MPS 090V150 9999 FEW033 32/22 Q1007 NOSIG
ZGNN,2015-04-29 10:00,ZGNN 291000Z 12004MPS 9999 FEW033 31/23 Q1007 NOSIG
ZGNN,2015-04-29 11:00,ZGNN 291100Z 10003MPS CAVOK 30/23 Q1007 NOSIG
ZGNN,2015-04-29 12:00,ZGNN 291200Z 15004MPS CAVOK 28/23 Q1008 NOSIG
ZGNN,2015-04-29 13:00,ZGNN 291300Z 14003MPS CAVOK 28/24 Q1009 NOSIG
ZGNN,2015-04-29 14:00,ZGNN 291400Z 10004MPS CAVOK 27/24 Q1010 NOSIG
ZGNN,2015-04-29 15:00,ZGNN 291500Z 16003MPS 060V230 9999 SCT013 26/24 Q1011 NOSIG
ZGNN,2015-04-29 16:00,ZGNN 291600Z 14005MPS 9999 SCT011 26/24 Q1010 NOSIG
ZGNN,2015-04-29 17:00,ZGNN 291700Z VRB01MPS 9999 SCT011 26/24 Q1010 NOSIG
ZGNN,2015-04-29 18:00,ZGNN 291800Z VRB01MPS 9999 FEW011 25/24 Q1009 NOSIG
ZGNN,2015-04-29 19:00,ZGNN 291900Z 12001MPS CAVOK 25/24 Q1008 NOSIG
ZGNN,2015-04-29 20:00,ZGNN 292000Z 09002MPS 8000 FEW010 25/24 Q1009 NOSIG
ZGNN,2015-04-29 21:00,ZGNN 292100Z 08002MPS 8000 SCT008 25/24 Q1009 NOSIG
ZGNN,2015-04-29 22:00,ZGNN 292200Z 05002MPS 6000 FEW008 24/24 Q1009 NOSIG
ZGNN,2015-04-29 23:00,ZGNN 292300Z 09002MPS 6000 FEW006 25/24 Q1010 NOSIG
ZGNN,2015-04-30 00:00,ZGNN 300000Z 10003MPS 080V170 6000 FEW006 SCT040 25/24 Q1010 NOSIG
ZGNN,2015-04-30 01:00,ZGNN 300100Z 10002MPS 070V150 9999 SCT011 27/24 Q1011 NOSIG
ZGNN,2015-04-30 02:00,ZGNN 300200Z 12003MPS 080V160 9999 SCT016 SCT040 29/23 Q1011 NOSIG
ZGNN,2015-04-30 03:00,ZGNN 300300Z 12004MPS 080V180 9999 SCT026 SCT043 31/23 Q1011 NOSIG
ZGNN,2015-04-30 04:00,ZGNN 300400Z 16003MPS 100V220 9999 SCT026 SCT046 31/23 Q1010 NOSIG
ZGNN,2015-04-30 05:00,ZGNN 300500Z 14004MPS 110V210 9999 SCT030 32/23 Q1009 NOSIG
ZGNN,2015-04-30 06:00,ZGNN 300600Z 15005MPS 9999 -SHRA FEW030TCU SCT030 31/24 Q1008 NOSIG
ZGNN,2015-04-30 07:00,ZGNN 300700Z 13005G12MPS 090V180 9999 TS FEW030CB SCT030 30/25 Q1006 BECMG TL0740 NSW
ZGNN,2015-04-30 08:00,ZGNN 300800Z 15005MPS 120V180 9999 -TSRA FEW030CB SCT030 29/23 Q1006 BECMG TL0820 TSRA SCT015 FEW030CB BKN033
ZGNN,2015-04-30 09:00,ZGNN 300900Z 12005MPS 9999 -TSRA FEW026 FEW030CB 23/23 Q1007 RESHRA BECMG TL0940 NSW
ZGNN,2015-04-30 10:00,ZGNN 301000Z 09003MPS 060V120 CAVOK 23/23 Q1007 RETS NOSIG
ZGNN,2015-04-30 11:00,ZGNN 301100Z 13002MPS 110V170 9999 FEW023 24/23 Q1007 NOSIG
ZGNN,2015-04-30 12:00,ZGNN 301200Z VRB01MPS 9999 FEW013 24/23 Q1007 NOSIG
ZGNN,2015-04-30 13:00,ZGNN 301300Z VRB01MPS CAVOK 23/23 Q1007 NOSIG
ZGNN,2015-04-30 14:00,ZGNN 301400Z 02002MPS 350V060 CAVOK 23/23 Q1008 NOSIG
ZGNN,2015-04-30 15:00,ZGNN 301500Z VRB01MPS CAVOK 23/23 Q1009 NOSIG
ZGNN,2015-04-30 16:00,ZGNN 301600Z 35002MPS CAVOK 23/23 Q1008 NOSIG
ZGNN,2015-04-30 17:00,ZGNN 301700Z 03002MPS 360V060 8000 NSC 23/23 Q1008 NOSIG
ZGNN,2015-04-30 18:00,ZGNN 301800Z 04001MPS 7000 NSC 23/23 Q1007 NOSIG
ZGNN,2015-04-30 19:00,ZGNN 301900Z VRB01MPS 6000 NSC 23/23 Q1006 NOSIG
ZGNN,2015-04-30 20:00,ZGNN 302000Z VRB01MPS 6000 NSC 23/23 Q1007 NOSIG
ZGNN,2015-04-30 21:00,ZGNN 302100Z 28001MPS 4000 BR NSC 23/23 Q1007 NOSIG
ZGNN,2015-04-30 22:00,ZGNN 302200Z 15001MPS 3500 BR NSC 22/22 Q1007 NOSIG
ZGNN,2015-04-30 23:00,ZGNN 302300Z 00000MPS 2200 BR FEW002 23/23 Q1007 BECMG TL2340 4000 BR
ZGNN,2015-05-01 00:00,ZGNN 010000Z VRB01MPS 4000 BR NSC 25/24 Q1007 NOSIG
ZGNN,2015-05-01 01:00,ZGNN 010100Z 18002MPS 120V210 CAVOK 27/24 Q1008 NOSIG
ZGNN,2015-05-01 02:00,ZGNN 010200Z 18002MPS 130V240 9999 FEW016 29/24 Q1007 NOSIG
ZGNN,2015-05-01 03:00,ZGNN 010300Z 21003MPS 160V240 9999 SCT023 30/24 Q1007 NOSIG
ZGNN,2015-05-01 04:00,ZGNN 010400Z 21003MPS 150V260 9999 SCT026 31/24 Q1006 NOSIG
ZGNN,2015-05-01 05:00,ZGNN 010500Z 21005MPS 180V250 9999 SCT030 33/23 Q1005 NOSIG
ZGNN,2015-05-01 06:00,ZGNN 010600Z 18006G12MPS 150V210 9999 SHRA FEW033CB SCT033 32/24 Q1004 NOSIG
ZGNN,2015-05-01 07:00,ZGNN 010700Z 13004MPS 100V160 9999 SCT033 31/26 Q1003 RESHRA NOSIG
ZGNN,2015-05-01 08:00,ZGNN 010800Z 14006MPS 9999 SCT033 31/24 Q1002 NOSIG
ZGNN,2015-05-01 09:00,ZGNN 010900Z 16007MPS 9999 FEW033 31/23 Q1002 NOSIG
ZGNN,2015-05-01 10:00,ZGNN 011000Z 16006MPS 9999 FEW033 30/23 Q1002 NOSIG
ZGNN,2015-05-01 11:00,ZGNN 011100Z 15004MPS 9999 SCT036 29/24 Q1003 NOSIG
ZGNN,2015-05-01 12:00,ZGNN 011200Z 15004MPS CAVOK 28/24 Q1003 NOSIG
ZGNN,2015-05-01 13:00,ZGNN 011300Z 16003MPS CAVOK 27/24 Q1005 NOSIG
ZGNN,2015-05-01 14:00,ZGNN 011400Z VRB01MPS CAVOK 26/24 Q1006 NOSIG
ZGNN,2015-05-01 15:00,ZGNN 011500Z VRB01MPS CAVOK 26/24 Q1006 NOSIG
ZGNN,2015-05-01 16:00,ZGNN 011600Z VRB01MPS CAVOK 25/24 Q1007 NOSIG
ZGNN,2015-05-01 17:00,ZGNN 011700Z VRB01MPS CAVOK 25/24 Q1006 NOSIG
ZGNN,2015-05-01 18:00,ZGNN 011800Z VRB01MPS CAVOK 25/24 Q1005 NOSIG
ZGNN,2015-05-01 19:00,ZGNN 011900Z 09002MPS CAVOK 25/24 Q1005 NOSIG
ZGNN,2015-05-01 20:00,ZGNN 012000Z VRB01MPS 8000 NSC 24/24 Q1005 NOSIG
ZGNN,2015-05-01 21:00,ZGNN 012100Z 36001MPS 6000 NSC 24/24 Q1006 NOSIG
ZGNN,2015-05-01 22:00,ZGNN 012200Z VRB01MPS 6000 NSC 23/23 Q1006 NOSIG
ZGNN,2015-05-01 23:00,ZGNN 012300Z 04002MPS 330V090 5000 BR NSC 24/24 Q1007 NOSIG
ZGNN,2015-05-02 00:00,ZGNN 020000Z 10002MPS 080V140 5000 BR NSC 26/24 Q1007 NOSIG
ZGNN,2015-05-02 01:00,ZGNN 020100Z VRB01MPS 9999 BKN033 28/24 Q1008 NOSIG
ZGNN,2015-05-02 02:00,ZGNN 020200Z 14002MPS 030V180 9999 BKN030 29/24 Q1008 NOSIG
ZGNN,2015-05-02 03:00,ZGNN 020300Z 12002MPS 070V200 9999 BKN030 31/24 Q1008 NOSIG
ZGNN,2015-05-02 04:00,ZGNN 020400Z VRB01MPS 9999 BKN030 32/24 Q1007 NOSIG
ZGNN,2015-05-02 05:00,ZGNN 020500Z VRB01MPS 9999 BKN033 32/24 Q1006 NOSIG
ZGNN,2015-05-02 06:00,ZGNN 020600Z 14002MPS 090V200 9999 BKN036 33/23 Q1006 NOSIG
ZGNN,2015-05-02 07:00,ZGNN 020700Z VRB02MPS 9999 SCT036 34/23 Q1005 NOSIG
ZGNN,2015-05-02 08:00,ZGNN 020800Z 09004MPS 060V150 9999 SCT036 34/24 Q1004 NOSIG
ZGNN,2015-05-02 09:00,ZGNN 020900Z 11004MPS 080V140 9999 SCT036 32/25 Q1004 NOSIG
ZGNN,2015-05-02 10:00,ZGNN 021000Z 14005MPS 090V190 9999 SCT033 31/25 Q1004 NOSIG
ZGNN,2015-05-02 11:00,ZGNN 021100Z 13004MPS 9999 FEW030CB 29/25 Q1004 NOSIG
ZGNN,2015-05-02 12:00,ZGNN 021200Z 13003MPS 100V160 CAVOK 28/25 Q1005 NOSIG
ZGNN,2015-05-02 13:00,ZGNN 021300Z 13003MPS CAVOK 28/25 Q1006 NOSIG
ZGNN,2015-05-02 14:00,ZGNN 021400Z 12003MPS CAVOK 27/25 Q1007 NOSIG
ZGNN,2015-05-02 15:00,ZGNN 021500Z VRB01MPS CAVOK 26/25 Q1007 NOSIG
ZGNN,2015-05-02 16:00,ZGNN 021600Z 10002MPS CAVOK 26/25 Q1007 NOSIG
ZGNN,2015-05-02 17:00,ZGNN 021700Z 10001MPS 6000 BKN010 26/25 Q1007 NOSIG
ZGNN,2015-05-02 18:00,ZGNN 021800Z 07003MPS 7000 BKN010 26/25 Q1007 NOSIG
ZGNN,2015-05-02 19:00,ZGNN 021900Z 11002MPS 6000 BKN008 26/25 Q1006 NOSIG
ZGNN,2015-05-02 20:00,ZGNN 022000Z 10002MPS 6000 SCT008 26/25 Q1006 NOSIG
ZGNN,2015-05-02 21:00,ZGNN 022100Z 14002MPS 6000 SCT007 26/25 Q1006 NOSIG
ZGNN,2015-05-02 22:00,ZGNN 022200Z 15001MPS 6000 SCT007 SCT010 26/25 Q1007 NOSIG
ZGNN,2015-05-02 23:00,ZGNN 022300Z VRB01MPS 6000 SCT007 SCT010 26/25 Q1007 NOSIG
ZGNN,2015-05-03 00:00,ZGNN 030000Z 11002MPS 080V170 6000 SCT009 27/25 Q1008 NOSIG
ZGNN,2015-05-03 01:00,ZGNN 030100Z 15002MPS 110V200 9999 SCT010 28/25 Q1009 NOSIG
ZGNN,2015-05-03 02:00,ZGNN 030200Z 15002MPS 110V180 9999 SCT013 30/26 Q1009 NOSIG
ZGNN,2015-05-03 03:00,ZGNN 030300Z 19002MPS 160V220 9999 SCT020 30/25 Q1008 NOSIG
ZGNN,2015-05-03 04:00,ZGNN 030400Z 17003MPS 130V200 9999 SCT026 BKN040 32/25 Q1008 NOSIG
ZGNN,2015-05-03 05:00,ZGNN 030500Z 15003MPS 110V250 9999 SCT026 BKN040 32/24 Q1007 NOSIG
ZGNN,2015-05-03 06:00,ZGNN 030600Z 14004MPS 9999 FEW026 BKN040 33/24 Q1006 NOSIG
ZGNN,2015-05-03 07:00,ZGNN 030700Z 16004MPS 9999 FEW026 SCT040 33/24 Q1005 NOSIG
ZGNN,2015-05-03 08:00,ZGNN 030800Z 12006MPS 9999 FEW026 33/25 Q1004 NOSIG
ZGNN,2015-05-03 09:00,ZGNN 030900Z 12006MPS 9999 FEW026 33/24 Q1004 NOSIG
ZGNN,2015-05-03 10:00,ZGNN 031000Z 12006MPS 9999 FEW020 31/25 Q1004 NOSIG
ZGNN,2015-05-03 11:00,ZGNN 031100Z 13005MPS 090V170 CAVOK 30/25 Q1004 NOSIG
ZGNN,2015-05-03 12:00,ZGNN 031200Z 14004MPS 100V180 CAVOK 29/25 Q1005 NOSIG
ZGNN,2015-05-03 13:00,ZGNN 031300Z 14003MPS CAVOK 28/25 Q1006 NOSIG
ZGNN,2015-05-03 14:00,ZGNN 031400Z 13003MPS 100V180 CAVOK 27/25 Q1006 NOSIG
ZGNN,2015-05-03 15:00,ZGNN 031500Z 14002MPS 100V180 CAVOK 27/24 Q1007 NOSIG
ZGNN,2015-05-03 16:00,ZGNN 031600Z 12002MPS 090V150 CAVOK 26/24 Q1008 NOSIG
ZGNN,2015-05-03 17:00,ZGNN 031700Z 10002MPS 9999 FEW011 26/24 Q1007 NOSIG
ZGNN,2015-05-03 18:00,ZGNN 031800Z 09001MPS CAVOK 26/24 Q1007 NOSIG
ZGNN,2015-05-03 19:00,ZGNN 031900Z 12001MPS CAVOK 25/24 Q1007 NOSIG
ZGNN,2015-05-03 20:00,ZGNN 032000Z VRB01MPS CAVOK 25/24 Q1007 NOSIG
ZGNN,2015-05-03 21:00,ZGNN 032100Z 05002MPS CAVOK 25/24 Q1007 NOSIG
ZGNN,2015-05-03 22:00,ZGNN 032200Z 05002MPS 020V090 CAVOK 25/24 Q1007 NOSIG
ZGNN,2015-05-03 23:00,ZGNN 032300Z 01002MPS CAVOK 25/24 Q1008 NOSIG
ZGNN,2015-05-04 00:00,ZGNN 040000Z 02002MPS 9999 FEW033 26/24 Q1009 NOSIG
ZGNN,2015-05-04 01:00,ZGNN 040100Z VRB01MPS 9999 FEW010 BKN043 27/24 Q1010 NOSIG
ZGNN,2015-05-04 02:00,ZGNN 040200Z 19002MPS 9999 BKN043 27/24 Q1010 NOSIG
ZGNN,2015-05-04 03:00,ZGNN 040300Z VRB01MPS 9999 FEW016 29/24 Q1010 NOSIG
ZGNN,2015-05-04 04:00,ZGNN 040400Z VRB01MPS 9999 BKN036 31/24 Q1010 NOSIG
ZGNN,2015-05-04 05:00,ZGNN 040500Z 25002MPS 160V320 CAVOK 32/25 Q1009 NOSIG
ZGNN,2015-05-04 06:00,ZGNN 040600Z 18003MPS 130V220 9999 SCT033 32/25 Q1008 NOSIG
ZGNN,2015-05-04 07:00,ZGNN 040700Z 13003MPS 080V170 9999 SCT030 33/25 Q1007 NOSIG
ZGNN,2015-05-04 08:00,ZGNN 040800Z VRB02MPS 9999 FEW030CB SCT036 32/24 Q1006 NOSIG
ZGNN,2015-05-04 09:00,ZGNN 040900Z 02005MPS 9999 FEW030CB BKN033 28/23 Q1006 NOSIG
ZGNN,2015-05-04 10:00,ZGNN 041000Z 02005MPS 9999 FEW043 29/24 Q1006 NOSIG
ZGNN,2015-05-04 11:00,ZGNN 041100Z 02004G12MPS 9999 SCT030 28/25 Q1007 NOSIG
ZGNN,2015-05-04 12:00,ZGNN 041200Z 07006MPS 9999 SCT016 BKN043 27/23 Q1008 NOSIG
ZGNN,2015-05-04 13:00,ZGNN 041300Z 07004MPS 9999 SCT020 BKN043 26/23 Q1009 NOSIG
ZGNN,2015-05-04 14:00,ZGNN 041400Z 06005MPS 050V170 9999 SCT020 BKN043 26/22 Q1010 NOSIG
ZGNN,2015-05-04 15:00,ZGNN 041500Z 06005MPS 030V100 9999 SCT020 BKN036 26/22 Q1010 NOSIG
ZGNN,2015-05-04 16:00,ZGNN 041600Z 05002MPS 9999 FEW020 BKN033 25/22 Q1010 NOSIG
ZGNN,2015-05-04 17:00,ZGNN 041700Z 09002MPS 050V120 9999 SCT033 25/21 Q1010 NOSIG
ZGNN,2015-05-04 18:00,ZGNN 041800Z 08004MPS 9999 BKN033 25/20 Q1010 NOSIG
ZGNN,2015-05-04 19:00,ZGNN 041900Z 07003MPS 9999 BKN036 24/20 Q1009 NOSIG
ZGNN,2015-05-04 20:00,ZGNN 042000Z VRB01MPS 9999 BKN040 24/20 Q1009 NOSIG
ZGNN,2015-05-04 21:00,ZGNN 042100Z 07003MPS 9999 BKN040 24/20 Q1008 NOSIG
ZGNN,2015-05-04 22:00,ZGNN 042200Z VRB01MPS 9999 BKN033 23/20 Q1008 NOSIG
ZGNN,2015-05-04 23:00,ZGNN 042300Z 10002MPS 060V130 9999 OVC026 23/20 Q1009 NOSIG
ZGNN,2015-05-05 00:00,ZGNN 050000Z 08003MPS 9999 OVC026 24/20 Q1009 NOSIG
ZGNN,2015-05-05 01:00,ZGNN 050100Z 09003MPS 050V120 9999 OVC023 24/19 Q1010 NOSIG
ZGNN,2015-05-05 02:00,ZGNN 050200Z 06003MPS 020V140 9999 OVC020 24/19 Q1009 NOSIG
ZGNN,2015-05-05 03:00,ZGNN 050300Z 04002MPS 350V060 9999 -SHRA OVC020 FEW026CB 23/20 Q1010 NOSIG
ZGNN,2015-05-05 04:00,ZGNN 050400Z 02003MPS 9999 OVC020 24/21 Q1009 NOSIG
ZGNN,2015-05-05 05:00,ZGNN 050500Z 04003MPS 360V090 9999 OVC020 25/20 Q1008 NOSIG
ZGNN,2015-05-05 06:00,ZGNN 050600Z 05002MPS 340V090 9999 OVC020 26/21 Q1007 NOSIG
ZGNN,2015-05-05 07:00,ZGNN 050700Z VRB01MPS 9999 SCT020 27/21 Q1005 NOSIG
ZGNN,2015-05-05 08:00,ZGNN 050800Z VRB02MPS CAVOK 28/22 Q1004 NOSIG
ZGNN,2015-05-05 09:00,ZGNN 050900Z 11002MPS 070V180 CAVOK 28/22 Q1003 NOSIG
ZGNN,2015-05-05 10:00,ZGNN 051000Z 13003MPS 090V160 CAVOK 28/23 Q1003 NOSIG
ZGNN,2015-05-05 11:00,ZGNN 051100Z 08003MPS CAVOK 28/23 Q1003 NOSIG
ZGNN,2015-05-05 12:00,ZGNN 051200Z 06004MPS 030V150 7000 NSC 27/23 Q1003 NOSIG
ZGNN,2015-05-05 13:00,ZGNN 051300Z 03004MPS 6000 NSC 25/22 Q1004 NOSIG
ZGNN,2015-05-05 14:00,ZGNN 051400Z 02003MPS 6000 NSC 25/23 Q1004 NOSIG
ZGNN,2015-05-05 15:00,ZGNN 051500Z 03003MPS 6000 NSC 25/23 Q1005 NOSIG
ZGNN,2015-05-05 16:00,ZGNN 051600Z 02003MPS 6000 NSC 25/23 Q1006 NOSIG
ZGNN,2015-05-05 17:00,ZGNN 051700Z 04003MPS 5000 BR NSC 24/23 Q1005 NOSIG
ZGNN,2015-05-05 18:00,ZGNN 051800Z 04002MPS 4000 BR NSC 24/23 Q1005 NOSIG
ZGNN,2015-05-05 19:00,ZGNN 051900Z 05003MPS 5000 BR NSC 24/23 Q1005 NOSIG
ZGNN,2015-05-05 20:00,ZGNN 052000Z 03003MPS 4000 BR BKN046 24/23 Q1004 NOSIG
ZGNN,2015-05-05 21:00,ZGNN 052100Z 05003MPS 4000 BR BKN040 24/23 Q1004 NOSIG
ZGNN,2015-05-05 22:00,ZGNN 052200Z 03002MPS 4000 BR BKN036 25/23 Q1005 NOSIG
ZGNN,2015-05-05 23:00,ZGNN 052300Z 02002MPS 4000 BR BKN036 25/23 Q1005 NOSIG
ZGNN,2015-05-06 00:00,ZGNN 060000Z 04003MPS 5000 BR NSC 26/24 Q1005 NOSIG
ZGNN,2015-05-06 01:00,ZGNN 060100Z 02002MPS 320V060 6000 SCT010 BKN033 27/24 Q1006 NOSIG
ZGNN,2015-05-06 02:00,ZGNN 060200Z 12002MPS 060V190 6000 FEW013 29/25 Q1006 NOSIG
ZGNN,2015-05-06 03:00,ZGNN 060300Z VRB02MPS 9999 FEW020 31/25 Q1006 NOSIG
ZGNN,2015-05-06 04:00,ZGNN 060400Z 21004MPS 9999 SCT026 32/24 Q1006 NOSIG
ZGNN,2015-05-06 05:00,ZGNN 060500Z 20003MPS 150V250 9999 FEW033CB SCT033 SCT043 32/24 Q1005 NOSIG
ZGNN,2015-05-06 06:00,ZGNN 060600Z 17003MPS 140V200 9999 FEW033CB SCT033 SCT043 32/25 Q1004 NOSIG
ZGNN,2015-05-06 07:00,ZGNN 060700Z 04005MPS 9999 FEW033CB SCT033 SCT043 32/25 Q1003 NOSIG
ZGNN,2015-05-06 08:00,ZGNN 060800Z 06005MPS 9999 FEW033TCU SCT033 SCT043 32/24 Q1003 NOSIG
ZGNN,2015-05-06 09:00,ZGNN 060900Z 08004MPS 050V150 9999 FEW043 32/26 Q1002 NOSIG
ZGNN,2015-05-06 10:00,ZGNN 061000Z 08004MPS 9999 FEW033 32/25 Q1003 NOSIG
ZGNN,2015-05-06 11:00,ZGNN 061100Z 10003MPS 9999 FEW033 31/25 Q1003 NOSIG
ZGNN,2015-05-06 12:00,ZGNN 061200Z 08004MPS 020V110 9999 SCT033 30/25 Q1004 NOSIG
ZGNN,2015-05-06 13:00,ZGNN 061300Z 08005MPS 060V120 6000 NSC 28/24 Q1005 NOSIG
ZGNN,2015-05-06 14:00,ZGNN 061400Z 08005MPS 060V120 4000 BR SCT033 27/23 Q1006 NOSIG
ZGNN,2015-05-06 15:00,ZGNN 061500Z 06004MPS 040V120 4000 BR SCT016 SCT033 27/23 Q1007 NOSIG
ZGNN,2015-05-06 16:00,ZGNN 061600Z 08003MPS 4000 BR SCT016 SCT033 26/23 Q1007 NOSIG
ZGNN,2015-05-06 17:00,ZGNN 061700Z 08002MPS 4000 BR SCT016 BKN033 26/23 Q1007 NOSIG
ZGNN,2015-05-06 18:00,ZGNN 061800Z 08004MPS 4000 BR SCT016 BKN033 26/23 Q1007 NOSIG
ZGNN,2015-05-06 19:00,ZGNN 061900Z 09004MPS 4000 BR SCT015 BKN026 26/23 Q1006 NOSIG
ZGNN,2015-05-06 20:00,ZGNN 062000Z 08003MPS 4000 BR SCT016 BKN026 25/23 Q1006 NOSIG
ZGNN,2015-05-06 21:00,ZGNN 062100Z 07003MPS 3500 BR FEW009 SCT013 BKN026 25/23 Q1007 NOSIG
ZGNN,2015-05-06 22:00,ZGNN 062200Z 08002MPS 050V140 3500 BR SCT008 BKN026 25/23 Q1007 NOSIG
ZGNN,2015-05-06 23:00,ZGNN 062300Z 06002MPS 3200 BR SCT007 SCT013 BKN026 25/24 Q1008 NOSIG
ZGNN,2015-05-07 00:00,ZGNN 070000Z 09003MPS 2500 BR SCT006 SCT010 BKN026 25/24 Q1008 BECMG 4000 BR
ZGNN,2015-05-07 01:00,ZGNN 070100Z 10002MPS 060V160 2800 BR SCT007 BKN026 26/24 Q1008 BECMG TL0240 4000 BR
ZGNN,2015-05-07 02:00,ZGNN 070200Z 05002MPS 350V160 3200 BR SCT009 BKN026 27/25 Q1009 NOSIG
ZGNN,2015-05-07 03:00,ZGNN 070300Z 16004MPS 130V190 9999 SCT016 BKN030 29/24 Q1009 NOSIG
ZGNN,2015-05-07 04:00,ZGNN 070400Z 14005MPS 9999 SCT020 BKN033 29/24 Q1008 NOSIG
ZGNN,2015-05-07 05:00,ZGNN 070500Z 16003MPS 130V190 9999 SCT023 SCT033 31/24 Q1007 NOSIG
ZGNN,2015-05-07 06:00,ZGNN 070600Z 12004MPS 090V160 9999 SCT026 SCT033 31/25 Q1006 NOSIG
ZGNN,2015-05-07 07:00,ZGNN 070700Z 12004MPS 090V150 9999 SCT026 SCT033 32/25 Q1005 NOSIG
ZGNN,2015-05-07 08:00,ZGNN 070800Z 12004MPS 090V150 9999 FEW030CB SCT030 SCT036 32/25 Q1004 NOSIG
ZGNN,2015-05-07 09:00,ZGNN 070900Z 14004MPS 9999 -SHRA FEW030CB SCT030 BKN036 30/25 Q1004 NOSIG
ZGNN,2015-05-07 10:00,ZGNN 071000Z 14004MPS 100V180 9999 TS SCT023 FEW030CB 30/25 Q1003 RESHRA BECMG TL1040 NSW
ZGNN,2015-05-07 11:00,ZGNN 071100Z 15005MPS 9999 FEW026 30/25 Q1003 RETS NOSIG
ZGNN,2015-05-07 12:00,ZGNN 071200Z 14005MPS CAVOK 29/24 Q1004 NOSIG
ZGNN,2015-05-07 13:00,ZGNN 071300Z 15003MPS CAVOK 28/24 Q1005 NOSIG
ZGNN,2015-05-07 14:00,ZGNN 071400Z 12002MPS 090V190 CAVOK 28/24 Q1006 NOSIG
ZGNN,2015-05-07 15:00,ZGNN 071500Z 14003MPS 100V180 9999 SCT016 27/25 Q1007 NOSIG
ZGNN,2015-05-07 16:00,ZGNN 071600Z 17003MPS 140V210 9999 SCT016 27/25 Q1007 NOSIG
ZGNN,2015-05-07 17:00,ZGNN 071700Z 14002MPS 120V180 9999 SCT013 27/25 Q1006 NOSIG
ZGNN,2015-05-07 18:00,ZGNN 071800Z 11002MPS 6000 SCT013 26/25 Q1006 NOSIG
ZGNN,2015-05-07 19:00,ZGNN 071900Z 09002MPS 030V120 6000 FEW009 26/25 Q1005 NOSIG
ZGNN,2015-05-07 20:00,ZGNN 072000Z VRB01MPS 5000 BR FEW009 26/25 Q1005 NOSIG
ZGNN,2015-05-07 21:00,ZGNN 072100Z VRB01MPS 5000 BR BKN040 26/25 Q1005 NOSIG
ZGNN,2015-05-07 22:00,ZGNN 072200Z VRB01MPS 8000 SCT040 26/25 Q1005 NOSIG
ZGNN,2015-05-07 23:00,ZGNN 072300Z VRB01MPS 9999 SCT030 26/25 Q1005 NOSIG
ZGNN,2015-05-08 00:00,ZGNN 080000Z 20003MPS CAVOK 28/25 Q1005 NOSIG
ZGNN,2015-05-08 01:00,ZGNN 080100Z 20004MPS CAVOK 30/25 Q1006 NOSIG
ZGNN,2015-05-08 02:00,ZGNN 080200Z 21004MPS 9999 FEW026 31/25 Q1006 NOSIG
ZGNN,2015-05-08 03:00,ZGNN 080300Z 19005MPS 160V220 9999 SCT026 SCT043 31/24 Q1005 NOSIG
ZGNN,2015-05-08 04:00,ZGNN 080400Z 19005MPS 9999 SCT030 SCT043 32/24 Q1004 NOSIG
ZGNN,2015-05-08 05:00,ZGNN 080500Z 18003MPS 150V210 9999 SCT030 SCT043 33/23 Q1004 NOSIG
ZGNN,2015-05-08 06:00,ZGNN 080600Z 13005MPS 9999 FEW030 SCT043 34/25 Q1003 NOSIG
ZGNN,2015-05-08 07:00,ZGNN 080700Z 15005MPS 9999 FEW020 FEW030TCU SCT043 33/26 Q1002 NOSIG
ZGNN,2015-05-08 08:00,ZGNN 080800Z 13005MPS 100V160 9999 FEW020 SCT046 34/25 Q1002 NOSIG
ZGNN,2015-05-08 09:00,ZGNN 080900Z 36008G14MPS 330V080 9999 FEW020 FEW026CB SCT030 30/21 Q1003 BECMG TL0930 -TSRA
ZGNN,2015-05-08 10:00,ZGNN 081000Z 05005MPS 9999 -TSRA FEW026CB SCT026 26/24 Q1004 BECMG TL1030 TSRA
ZGNN,2015-05-08 11:00,ZGNN 081100Z 09003MPS 030V160 9999 FEW026 25/23 Q1004 RETS NOSIG
ZGNN,2015-05-08 12:00,ZGNN 081200Z 02004MPS 9999 FEW030 25/23 Q1004 NOSIG
ZGNN,2015-05-08 13:00,ZGNN 081300Z 02006G11MPS 8000 -TSRA SCT010 FEW023CB SCT023 BKN040 25/23 Q1007 BECMG TL1420 NSW
ZGNN,2015-05-08 14:00,ZGNN 081400Z 30004MPS 280V350 6000 FEW013 SCT026 BKN040 24/24 Q1007 RETS NOSIG
ZGNN,2015-05-08 15:00,ZGNN 081500Z VRB01MPS 5000 -SHRA BR FEW013 OVC040 24/24 Q1008 NOSIG
ZGNN,2015-05-08 16:00,ZGNN 081600Z 35003MPS 6000 -SHRA FEW013 OVC046 24/23 Q1007 NOSIG
ZGNN,2015-05-08 17:00,ZGNN 081700Z 36001MPS 6000 SCT016 OVC046 24/23 Q1007 NOSIG
ZGNN,2015-05-08 18:00,ZGNN 081800Z VRB01MPS 6000 SCT016 OVC046 24/23 Q1007 NOSIG
ZGNN,2015-05-08 19:00,ZGNN 081900Z 33002MPS 310V010 5000 BR SCT006 OVC046 23/23 Q1007 NOSIG
ZGNN,2015-05-08 20:00,ZGNN 082000Z 31001MPS 4500 -RA BR SCT011 OVC033 24/23 Q1007 NOSIG
ZGNN,2015-05-08 21:00,ZGNN 082100Z VRB01MPS 4000 -TSRA BR SCT011 FEW026CB OVC033 24/23 Q1007 BECMG TL2200 NSW
ZGNN,2015-05-08 22:00,ZGNN 082200Z 21003MPS 3200 -TSRA BR SCT009 FEW026CB OVC033 24/23 Q1008 BECMG TL2330 NSW
ZGNN,2015-05-08 23:00,ZGNN 082300Z 27002MPS 210V320 3100 -SHRA BR FEW003 SCT009 FEW026CB OVC033 23/23 Q1008 RETS NOSIG
ZGNN,2015-05-09 00:00,ZGNN 090000Z 03002MPS 3300 -RA BR SCT013 OVC046 24/24 Q1008 NOSIG
ZGNN,2015-05-09 01:00,ZGNN 090100Z 11002MPS 3100 BR FEW004 SCT009 OVC033 24/24 Q1008 NOSIG
ZGNN,2015-05-09 02:00,ZGNN 090200Z 36002MPS 330V030 4000 BR FEW006 SCT013 OVC033 25/24 Q1010 NOSIG
ZGNN,2015-05-09 03:00,ZGNN 090300Z 32003MPS 300V360 4500 -RA BR FEW010 SCT016 OVC033 24/23 Q1010 NOSIG
ZGNN,2015-05-09 04:00,ZGNN 090400Z VRB01MPS 6000 -SHRA SCT016 FEW030CB BKN030 24/23 Q1010 NOSIG
ZGNN,2015-05-09 05:00,ZGNN 090500Z 03002MPS 340V070 6000 -RA FEW008 25/24 Q1009 NOSIG
ZGNN,2015-05-09 06:00,ZGNN 090600Z 03003MPS 360V070 6000 FEW010 27/24 Q1008 NOSIG
ZGNN,2015-05-09 07:00,ZGNN 090700Z 06003MPS 030V090 6000 FEW015 27/24 Q1006 NOSIG
ZGNN,2015-05-09 08:00,ZGNN 090800Z VRB01MPS 6000 FEW016 27/23 Q1006 NOSIG
ZGNN,2015-05-09 09:00,ZGNN 090900Z VRB01MPS 6000 FEW016 27/24 Q1006 NOSIG
ZGNN,2015-05-09 10:00,ZGNN 091000Z VRB01MPS 5000 BR NSC 27/24 Q1005 NOSIG
ZGNN,2015-05-09 11:00,ZGNN 091100Z 00000MPS 4000 BR NSC 27/24 Q1006 NOSIG
ZGNN,2015-05-09 12:00,ZGNN 091200Z 36002MPS 340V040 4000 BR NSC 26/24 Q1006 NOSIG
ZGNN,2015-05-09 13:00,ZGNN 091300Z VRB01MPS 3500 BR FEW016 25/24 Q1007 NOSIG
ZGNN,2015-05-09 14:00,ZGNN 091400Z VRB01MPS 3500 BR SCT015 25/24 Q1008 NOSIG
ZGNN,2015-05-09 15:00,ZGNN 091500Z 13002MPS 110V180 4000 BR SCT016 25/24 Q1009 NOSIG
ZGNN,2015-05-09 16:00,ZGNN 091600Z 09001MPS 3500 BR SCT026 24/24 Q1009 NOSIG
ZGNN,2015-05-09 17:00,ZGNN 091700Z 10002MPS 4000 BR FEW015 SCT026 25/24 Q1009 NOSIG
ZGNN,2015-05-09 18:00,ZGNN 091800Z 09002MPS 4000 BR SCT026 24/23 Q1008 NOSIG
ZGNN,2015-05-09 19:00,ZGNN 091900Z 04001MPS 3500 BR NSC 24/23 Q1007 BECMG TL2040 2500 BR
ZGNN,2015-05-09 20:00,ZGNN 092000Z 07001MPS 4000 BR SCT010 24/24 Q1007 NOSIG
ZGNN,2015-05-09 21:00,ZGNN 092100Z 06001MPS 3500 BR FEW005 SCT008 24/24 Q1007 NOSIG
ZGNN,2015-05-09 22:00,ZGNN 092200Z VRB01MPS 3200 BR FEW005 SCT008 OVC033 24/24 Q1007 BECMG TL2240 2500 BR
ZGNN,2015-05-09 23:00,ZGNN 092300Z VRB01MPS 2600 BR FEW006 SCT008 OVC033 24/24 Q1007 BECMG TL2350 3500 BR
ZGNN,2015-05-10 00:00,ZGNN 100000Z 00000MPS 4000 BR FEW006 SCT010 BKN040 25/24 Q1008 NOSIG
ZGNN,2015-05-10 01:00,ZGNN 100100Z VRB01MPS 5000 BR FEW013 BKN040 26/23 Q1009 NOSIG
ZGNN,2015-05-10 02:00,ZGNN 100200Z 14003MPS 110V180 6000 FEW013 OVC033 26/23 Q1008 NOSIG
ZGNN,2015-05-10 03:00,ZGNN 100300Z 16002MPS 110V210 6000 FEW013 OVC033 27/23 Q1008 NOSIG
ZGNN,2015-05-10 04:00,ZGNN 100400Z 23001MPS 9999 SCT016 BKN040 28/23 Q1008 NOSIG
ZGNN,2015-05-10 05:00,ZGNN 100500Z VRB02MPS 9999 SCT020 BKN043 30/24 Q1007 NOSIG
ZGNN,2015-05-10 06:00,ZGNN 100600Z VRB02MPS 9999 SCT023 BKN046 30/24 Q1006 NOSIG
ZGNN,2015-05-10 07:00,ZGNN 100700Z 12002MPS 070V160 9999 SCT026 31/24 Q1005 NOSIG
ZGNN,2015-05-10 08:00,ZGNN 100800Z 12002MPS 090V160 9999 BKN026 31/24 Q1004 NOSIG
ZGNN,2015-05-10 09:00,ZGNN 100900Z 14002MPS 120V190 9999 BKN026 31/24 Q1004 NOSIG
ZGNN,2015-05-10 10:00,ZGNN 101000Z 15004MPS 9999 SCT026 29/24 Q1004 NOSIG
ZGNN,2015-05-10 11:00,ZGNN 101100Z 15003MPS 130V190 9999 FEW016 28/25 Q1005 NOSIG
ZGNN,2015-05-10 12:00,ZGNN 101200Z 16005MPS CAVOK 28/24 Q1005 NOSIG
ZGNN,2015-05-10 13:00,ZGNN 101300Z 16005MPS 120V190 CAVOK 27/24 Q1006 NOSIG
ZGNN,2015-05-10 14:00,ZGNN 101400Z 16005MPS 130V190 CAVOK 27/24 Q1006 NOSIG
ZGNN,2015-05-10 15:00,ZGNN 101500Z 17003MPS 140V210 9999 FEW016 27/24 Q1007 NOSIG
ZGNN,2015-05-10 16:00,ZGNN 101600Z 14002MPS 110V190 9999 SCT016 27/24 Q1008 NOSIG
ZGNN,2015-05-10 17:00,ZGNN 101700Z 10002MPS 9999 FEW016 26/24 Q1008 NOSIG
ZGNN,2015-05-10 18:00,ZGNN 101800Z 12002MPS CAVOK 26/24 Q1007 NOSIG
ZGNN,2015-05-10 19:00,ZGNN 101900Z 10001MPS CAVOK 25/24 Q1007 NOSIG
ZGNN,2015-05-10 20:00,ZGNN 102000Z 09002MPS CAVOK 25/24 Q1007 NOSIG
ZGNN,2015-05-10 21:00,ZGNN 102100Z 00000MPS 7000 SCT010 25/24 Q1007 BECMG TL2210 -TSRA
ZGNN,2015-05-10 22:00,ZGNN 102200Z VRB01MPS 7000 -SHRA SCT008 FEW030CB BKN046 25/25 Q1008 NOSIG
ZGNN,2015-05-10 23:00,ZGNN 102300Z VRB01MPS 5000 -SHRA BR NSC 25/25 Q1009 NOSIG
ZGNN,2015-05-11 00:00,ZGNN 110000Z 20002MPS 150V230 9999 FEW013 26/24 Q1009 NOSIG
ZGNN,2015-05-11 01:00,ZGNN 110100Z VRB01MPS 9999 FEW009 27/24 Q1009 NOSIG
ZGNN,2015-05-11 02:00,ZGNN 110200Z VRB01MPS 9999 SCT015 28/24 Q1010 NOSIG
ZGNN,2015-05-11 03:00,ZGNN 110300Z VRB01MPS 9999 FEW020 30/24 Q1010 NOSIG
ZGNN,2015-05-11 04:00,ZGNN 110400Z VRB01MPS 9999 FEW026 31/24 Q1009 NOSIG
ZGNN,2015-05-11 05:00,ZGNN 110500Z 13002MPS 9999 SCT026 32/23 Q1008 NOSIG
ZGNN,2015-05-11 06:00,ZGNN 110600Z VRB02MPS 9999 SCT033 32/24 Q1007 NOSIG
ZGNN,2015-05-11 07:00,ZGNN 110700Z VRB01MPS 9999 BKN033 33/24 Q1007 NOSIG
ZGNN,2015-05-11 08:00,ZGNN 110800Z 22002MPS 140V280 9999 FEW026CB SCT033 33/23 Q1006 NOSIG
ZGNN,2015-05-11 09:00,ZGNN 110900Z VRB01MPS 9999 SCT020 FEW026CB SCT040 32/24 Q1006 BECMG TL0930 TSRA
ZGNN,2015-05-11 10:00,ZGNN 111000Z 36005MPS 330V030 8000 -TSRA SCT020 FEW026CB BKN040 24/23 Q1007 BECMG TL1030 NSW
ZGNN,2015-05-11 11:00,ZGNN 111100Z 06004MPS 360V100 9999 SCT009 SCT033 26/24 Q1009 RETSRA NOSIG
ZGNN,2015-05-11 12:00,ZGNN 111200Z 07003MPS 030V100 9999 SCT013 25/23 Q1010 NOSIG
ZGNN,2015-05-11 13:00,ZGNN 111300Z 05005MPS 9999 FEW013 25/22 Q1011 NOSIG
ZGNN,2015-05-11 14:00,ZGNN 111400Z 05004MPS 9999 FEW013 25/20 Q1012 NOSIG
ZGNN,2015-05-11 15:00,ZGNN 111500Z 07006MPS 9999 FEW013 25/19 Q1013 NOSIG
ZGNN,2015-05-11 16:00,ZGNN 111600Z 05006MPS 9999 FEW013 24/19 Q1013 NOSIG
ZGNN,2015-05-11 17:00,ZGNN 111700Z 06004MPS 9999 SCT033 24/18 Q1013 NOSIG
ZGNN,2015-05-11 18:00,ZGNN 111800Z 07004MPS 9999 SCT036 23/18 Q1012 NOSIG
ZGNN,2015-05-11 19:00,ZGNN 111900Z 06004MPS 9999 SCT040 22/17 Q1012 NOSIG
ZGNN,2015-05-11 20:00,ZGNN 112000Z 07003MPS 9999 SCT040 22/16 Q1012 NOSIG
ZGNN,2015-05-11 21:00,ZGNN 112100Z 05003MPS 9999 SCT040 21/17 Q1012 NOSIG
ZGNN,2015-05-11 22:00,ZGNN 112200Z 05003MPS CAVOK 21/17 Q1013 NOSIG
ZGNN,2015-05-11 23:00,ZGNN 112300Z VRB01MPS CAVOK 21/17 Q1014 NOSIG
ZGNN,2015-05-12 00:00,ZGNN 120000Z 05002MPS 020V080 CAVOK 22/17 Q1014 NOSIG
ZGNN,2015-05-12 01:00,ZGNN 120100Z 03002MPS 340V070 CAVOK 24/18 Q1014 NOSIG
ZGNN,2015-05-12 02:00,ZGNN 120200Z 36002MPS 300V060 9999 SCT046 25/18 Q1014 NOSIG
ZGNN,2015-05-12 03:00,ZGNN 120300Z VRB01MPS 9999 SCT026 26/18 Q1014 NOSIG
ZGNN,2015-05-12 04:00,ZGNN 120400Z VRB01MPS 9999 BKN040 27/18 Q1013 NOSIG
ZGNN,2015-05-12 05:00,ZGNN 120500Z 15003MPS 110V200 9999 BKN036 27/18 Q1013 NOSIG
ZGNN,2015-05-12 06:00,ZGNN 120600Z 12003MPS 070V180 9999 BKN033 27/19 Q1012 NOSIG
ZGNN,2015-05-12 07:00,ZGNN 120700Z 14003MPS 100V160 9999 BKN033 28/19 Q1010 NOSIG
ZGNN,2015-05-12 08:00,ZGNN 120800Z 14003MPS 9999 BKN030 27/19 Q1010 NOSIG
ZGNN,2015-05-12 09:00,ZGNN 120900Z 12003MPS 090V150 9999 SCT030 SCT043 27/19 Q1010 NOSIG
ZGNN,2015-05-12 10:00,ZGNN 121000Z 10004MPS 9999 SCT030 26/19 Q1009 NOSIG
ZGNN,2015-05-12 11:00,ZGNN 121100Z 12004MPS 9999 BKN023 25/19 Q1009 NOSIG
ZGNN,2015-05-12 12:00,ZGNN 121200Z 11003MPS 9999 BKN020 25/19 Q1010 NOSIG
ZGNN,2015-05-12 13:00,ZGNN 121300Z 11002MPS 9999 BKN020 24/19 Q1011 NOSIG
ZGNN,2015-05-12 14:00,ZGNN 121400Z 11002MPS 9999 BKN020 24/19 Q1012 NOSIG
ZGNN,2015-05-12 15:00,ZGNN 121500Z 11002MPS 090V170 9999 BKN016 OVC023 24/20 Q1012 NOSIG
ZGNN,2015-05-12 16:00,ZGNN 121600Z 12001MPS 9999 BKN016 OVC023 24/20 Q1012 NOSIG
ZGNN,2015-05-12 17:00,ZGNN 121700Z VRB01MPS 9999 SCT015 OVC023 24/20 Q1011 NOSIG
ZGNN,2015-05-12 18:00,ZGNN 121800Z 15001MPS 9999 SCT013 OVC023 24/21 Q1010 NOSIG
ZGNN,2015-05-12 19:00,ZGNN 121900Z VRB01MPS 9999 SCT013 OVC023 24/21 Q1010 NOSIG
ZGNN,2015-05-12 20:00,ZGNN 122000Z VRB01MPS 9999 SCT011 OVC023 23/21 Q1009 NOSIG
ZGNN,2015-05-12 21:00,ZGNN 122100Z VRB01MPS 9999 FEW011 BKN046 23/21 Q1010 NOSIG
ZGNN,2015-05-12 22:00,ZGNN 122200Z VRB01MPS 8000 FEW010 23/22 Q1010 NOSIG
ZGNN,2015-05-12 23:00,ZGNN 122300Z 02002MPS 7000 FEW010 23/22 Q1011 NOSIG
ZGNN,2015-05-13 00:00,ZGNN 130000Z 10002MPS 060V120 6000 FEW010 24/22 Q1011 NOSIG
ZGNN,2015-05-13 01:00,ZGNN 130100Z VRB01MPS 6000 FEW009 26/23 Q1011 NOSIG
ZGNN,2015-05-13 02:00,ZGNN 130200Z VRB01MPS 6000 SCT011 28/24 Q1010 NOSIG
ZGNN,2015-05-13 03:00,ZGNN 130300Z 15002MPS 110V200 8000 SCT016 29/24 Q1010 NOSIG
ZGNN,2015-05-13 04:00,ZGNN 130400Z 13002MPS 090V180 9999 SCT020 30/25 Q1009 NOSIG
ZGNN,2015-05-13 05:00,ZGNN 130500Z 18004MPS 120V210 9999 FEW023 SCT033 31/24 Q1008 NOSIG
ZGNN,2015-05-13 06:00,ZGNN 130600Z 18004MPS 9999 SCT026 31/24 Q1007 NOSIG
ZGNN,2015-05-13 07:00,ZGNN 130700Z 16004MPS 120V180 9999 SCT026 BKN043 31/24 Q1006 NOSIG
ZGNN,2015-05-13 08:00,ZGNN 130800Z 15005MPS 9999 SCT026 31/25 Q1006 NOSIG
ZGNN,2015-05-13 09:00,ZGNN 130900Z 15006MPS 9999 FEW030CB SCT030 30/25 Q1005 NOSIG
ZGNN,2015-05-13 10:00,ZGNN 131000Z 15007MPS 9999 FEW026 29/25 Q1005 NOSIG
ZGNN,2015-05-13 11:00,ZGNN 131100Z 16005MPS CAVOK 28/24 Q1005 NOSIG
ZGNN,2015-05-13 12:00,ZGNN 131200Z 16003MPS CAVOK 27/24 Q1006 NOSIG
ZGNN,2015-05-13 13:00,ZGNN 131300Z 16003MPS CAVOK 27/23 Q1007 NOSIG
ZGNN,2015-05-13 14:00,ZGNN 131400Z VRB01MPS CAVOK 26/23 Q1008 NOSIG
ZGNN,2015-05-13 15:00,ZGNN 131500Z 12002MPS CAVOK 26/24 Q1008 NOSIG
ZGNN,2015-05-13 16:00,ZGNN 131600Z 13002MPS CAVOK 25/24 Q1008 NOSIG
ZGNN,2015-05-13 17:00,ZGNN 131700Z 14002MPS CAVOK 26/24 Q1007 NOSIG
ZGNN,2015-05-13 18:00,ZGNN 131800Z 15002MPS 120V180 CAVOK 26/25 Q1007 NOSIG
ZGNN,2015-05-13 19:00,ZGNN 131900Z 00000MPS 9999 FEW036 26/24 Q1007 NOSIG
ZGNN,2015-05-13 20:00,ZGNN 132000Z 14002MPS 9999 SCT036 26/25 Q1007 NOSIG
ZGNN,2015-05-13 21:00,ZGNN 132100Z 15003MPS 9999 SCT043 26/23 Q1007 NOSIG
ZGNN,2015-05-13 22:00,ZGNN 132200Z 14002MPS 9999 BKN043 26/24 Q1007 NOSIG
ZGNN,2015-05-13 23:00,ZGNN 132300Z 15003MPS 9999 BKN033 27/24 Q1008 NOSIG
ZGNN,2015-05-14 00:00,ZGNN 140000Z 15004MPS 9999 SCT033 27/24 Q1008 NOSIG
ZGNN,2015-05-14 01:00,ZGNN 140100Z 15004MPS 9999 SCT033 29/25 Q1009 NOSIG
ZGNN,2015-05-14 02:00,ZGNN 140200Z 15004MPS 120V180 9999 BKN040 29/25 Q1009 NOSIG
ZGNN,2015-05-14 03:00,ZGNN 140300Z 15004MPS 130V190 9999 BKN040 29/25 Q1009 NOSIG
ZGNN,2015-05-14 04:00,ZGNN 140400Z 16004MPS 9999 SCT023 SCT040 31/25 Q1009 NOSIG
ZGNN,2015-05-14 05:00,ZGNN 140500Z 15005MPS 9999 -SHRA SCT026 FEW030TCU SCT040 31/25 Q1008 NOSIG
ZGNN,2015-05-14 06:00,ZGNN 140600Z 16005MPS 9999 SCT026 FEW030TCU SCT040 32/25 Q1007 NOSIG
ZGNN,2015-05-14 07:00,ZGNN 140700Z 15006G11MPS 9999 FEW026 FEW030TCU 32/25 Q1006 NOSIG
ZGNN,2015-05-14 08:00,ZGNN 140800Z 15006MPS 9999 SCT026 32/25 Q1005 NOSIG
ZGNN,2015-05-14 09:00,ZGNN 140900Z 16008MPS 9999 FEW026 31/25 Q1005 NOSIG
ZGNN,2015-05-14 10:00,ZGNN 141000Z 15006MPS 9999 FEW040 30/25 Q1005 NOSIG
ZGNN,2015-05-14 11:00,ZGNN 141100Z 15006MPS CAVOK 29/25 Q1005 NOSIG
ZGNN,2015-05-14 12:00,ZGNN 141200Z 16005MPS CAVOK 28/25 Q1006 NOSIG
ZGNN,2015-05-14 13:00,ZGNN 141300Z 16005MPS CAVOK 28/25 Q1007 NOSIG
ZGNN,2015-05-14 14:00,ZGNN 141400Z 15002MPS CAVOK 27/25 Q1008 NOSIG
ZGNN,2015-05-14 15:00,ZGNN 141500Z 14001MPS CAVOK 27/25 Q1008 NOSIG
ZGNN,2015-05-14 16:00,ZGNN 141600Z 15002MPS CAVOK 26/25 Q1008 NOSIG
ZGNN,2015-05-14 17:00,ZGNN 141700Z 10002MPS CAVOK 26/25 Q1008 NOSIG
ZGNN,2015-05-14 18:00,ZGNN 141800Z VRB01MPS CAVOK 26/25 Q1008 NOSIG
ZGNN,2015-05-14 19:00,ZGNN 141900Z VRB01MPS 9999 FEW040 26/24 Q1007 NOSIG
ZGNN,2015-05-14 20:00,ZGNN 142000Z VRB01MPS 9999 SCT036 26/24 Q1007 NOSIG
ZGNN,2015-05-14 21:00,ZGNN 142100Z 14001MPS 9999 FEW036 26/24 Q1007 NOSIG
ZGNN,2015-05-14 22:00,ZGNN 142200Z 14002MPS 110V190 CAVOK 26/25 Q1007 NOSIG
ZGNN,2015-05-14 23:00,ZGNN 142300Z 15003MPS CAVOK 27/25 Q1008 NOSIG
ZGNN,2015-05-15 00:00,ZGNN 150000Z 16003MPS CAVOK 28/25 Q1009 NOSIG
ZGNN,2015-05-15 01:00,ZGNN 150100Z 17004MPS 140V200 CAVOK 29/25 Q1009 NOSIG
ZGNN,2015-05-15 02:00,ZGNN 150200Z 17004MPS 9999 FEW033 30/25 Q1009 NOSIG
ZGNN,2015-05-15 03:00,ZGNN 150300Z 16003MPS 120V180 9999 BKN023 31/25 Q1009 NOSIG
ZGNN,2015-05-15 04:00,ZGNN 150400Z 15004MPS 120V190 9999 BKN023 32/25 Q1008 NOSIG
ZGNN,2015-05-15 05:00,ZGNN 150500Z 15005MPS 9999 SCT023 SCT040 31/25 Q1007 NOSIG
ZGNN,2015-05-15 06:00,ZGNN 150600Z 15004MPS 120V180 9999 SCT023 SCT040 31/26 Q1006 NOSIG
ZGNN,2015-05-15 07:00,ZGNN 150700Z 14006MPS 9999 SCT026 FEW030TCU SCT040 31/25 Q1005 NOSIG
ZGNN,2015-05-15 08:00,ZGNN 150800Z 14006MPS 9999 FEW026 FEW030TCU SCT040 32/25 Q1004 NOSIG
ZGNN,2015-05-15 09:00,ZGNN 150900Z 15006MPS 9999 FEW026 FEW030TCU 32/25 Q1004 NOSIG
ZGNN,2015-05-15 10:00,ZGNN 151000Z 15005MPS 9999 SCT026 FEW030CB 31/25 Q1004 NOSIG
ZGNN,2015-05-15 11:00,ZGNN 151100Z 30006MPS 240V010 9999 -TSRA SCT016 FEW030CB 29/23 Q1005 NOSIG
ZGNN,2015-05-15 12:00,ZGNN 151200Z 04005MPS 9999 FEW020 FEW030CB 25/22 Q1006 RETS NOSIG
ZGNN,2015-05-15 13:00,ZGNN 151300Z 01004MPS 340V040 9999 FEW026CB BKN033 25/22 Q1008 NOSIG
ZGNN,2015-05-15 14:00,ZGNN 151400Z 07005MPS 9999 FEW026CB BKN033 25/22 Q1009 NOSIG
ZGNN,2015-05-15 15:00,ZGNN 151500Z 03005MPS 9999 FEW026CB BKN033 25/23 Q1010 NOSIG
ZGNN,2015-05-15 16:00,ZGNN 151600Z 30005MPS 6000 TSRA FEW010 SCT020 FEW026CB BKN033 24/23 Q1010 NOSIG
ZGNN,2015-05-15 17:00,ZGNN 151700Z 12003MPS 9999 -TSRA FEW006 FEW026CB BKN033 23/23 Q1009 RESHRA NOSIG
ZGNN,2015-05-15 18:00,ZGNN 151800Z 29002MPS 260V340 8000 -TSRA FEW005 SCT010 FEW026CB BKN033 23/23 Q1009 NOSIG
ZGNN,2015-05-15 19:00,ZGNN 151900Z 32002MPS 280V360 8000 -SHRA SCT010 FEW026CB 23/23 Q1008 RETS BECMG TL2020 TSRA
ZGNN,2015-05-15 20:00,ZGNN 152000Z 01002MPS 320V050 9999 -SHRA SCT010 FEW026CB 23/23 Q1008 BECMG TL2050 TSRA
ZGNN,2015-05-15 21:00,ZGNN 152100Z VRB01MPS 6000 -TSRA SCT006 FEW026CB BKN043 23/23 Q1009 NOSIG
ZGNN,2015-05-15 22:00,ZGNN 152200Z 03003MPS 6000 -TSRA SCT006 FEW026CB BKN043 23/23 Q1008 BECMG TL2230 -SHRA
ZGNN,2015-05-15 23:00,ZGNN 152300Z 23001MPS 9999 SCT010 FEW026CB BKN043 23/23 Q1010 RETS NOSIG
ZGNN,2015-05-16 00:00,ZGNN 160000Z VRB01MPS 9999 -RA SCT010 23/23 Q1010 NOSIG
ZGNN,2015-05-16 01:00,ZGNN 160100Z 18001MPS 6000 -RA FEW003 SCT008 OVC040 23/23 Q1010 NOSIG
ZGNN,2015-05-16 02:00,ZGNN 160200Z 04003MPS 6000 -RA FEW005 SCT009 OVC040 24/23 Q1010 NOSIG
ZGNN,2015-05-16 03:00,ZGNN 160300Z 33002MPS 300V010 8000 FEW008 SCT016 OVC043 24/23 Q1010 NOSIG
ZGNN,2015-05-16 04:00,ZGNN 160400Z VRB01MPS 9999 SCT016 OVC043 26/22 Q1010 NOSIG
ZGNN,2015-05-16 05:00,ZGNN 160500Z 15002MPS 120V200 9999 FEW015 SCT020 BKN043 26/23 Q1009 NOSIG
ZGNN,2015-05-16 06:00,ZGNN 160600Z 09002MPS 040V160 9999 SCT020 27/23 Q1008 NOSIG
ZGNN,2015-05-16 07:00,ZGNN 160700Z 10002MPS 040V150 9999 SCT020 27/23 Q1007 NOSIG
ZGNN,2015-05-16 08:00,ZGNN 160800Z 06002MPS 030V110 9999 SCT020 28/23 Q1006 NOSIG
ZGNN,2015-05-16 09:00,ZGNN 160900Z 08002MPS 030V130 9999 SCT020 28/23 Q1006 NOSIG
ZGNN,2015-05-16 10:00,ZGNN 161000Z 13003MPS 100V160 9999 SCT020 27/23 Q1006 NOSIG
ZGNN,2015-05-16 11:00,ZGNN 161100Z 14003MPS 120V190 9999 FEW016 26/23 Q1006 NOSIG
ZGNN,2015-05-16 12:00,ZGNN 161200Z VRB01MPS CAVOK 25/23 Q1007 NOSIG
ZGNN,2015-05-16 13:00,ZGNN 161300Z 18002MPS 160V240 CAVOK 25/23 Q1007 NOSIG
ZGNN,2015-05-16 14:00,ZGNN 161400Z 20001MPS CAVOK 24/23 Q1008 NOSIG
ZGNN,2015-05-16 15:00,ZGNN 161500Z 24002MPS CAVOK 24/23 Q1009 NOSIG
ZGNN,2015-05-16 16:00,ZGNN 161600Z 27001MPS CAVOK 24/23 Q1009 NOSIG
ZGNN,2015-05-16 17:00,ZGNN 161700Z VRB01MPS CAVOK 23/22 Q1008 NOSIG
ZGNN,2015-05-16 18:00,ZGNN 161800Z 05003MPS CAVOK 23/22 Q1007 NOSIG
ZGNN,2015-05-16 19:00,ZGNN 161900Z 04003MPS 6000 NSC 23/22 Q1006 NOSIG
ZGNN,2015-05-16 20:00,ZGNN 162000Z 03002MPS 6000 NSC 23/22 Q1006 NOSIG
ZGNN,2015-05-16 21:00,ZGNN 162100Z 06002MPS 6000 NSC 23/22 Q1006 NOSIG
ZGNN,2015-05-16 22:00,ZGNN 162200Z 26001MPS 5000 BR FEW010 22/22 Q1007 NOSIG
ZGNN,2015-05-16 23:00,ZGNN 162300Z VRB01MPS 4000 BR NSC 23/23 Q1007 NOSIG
ZGNN,2015-05-17 00:00,ZGNN 170000Z VRB01MPS 5000 BR FEW006 SCT009 OVC033 24/23 Q1007 NOSIG
ZGNN,2015-05-17 01:00,ZGNN 170100Z 17002MPS 100V210 5000 BR FEW006 SCT010 BKN033 25/23 Q1007 NOSIG
ZGNN,2015-05-17 02:00,ZGNN 170200Z VRB01MPS 6000 SCT010 BKN033 26/23 Q1008 NOSIG
ZGNN,2015-05-17 03:00,ZGNN 170300Z 10002MPS 070V150 8000 SCT016 28/23 Q1007 NOSIG
ZGNN,2015-05-17 04:00,ZGNN 170400Z VRB01MPS 9999 FEW033 30/23 Q1006 NOSIG
ZGNN,2015-05-17 05:00,ZGNN 170500Z VRB02MPS 9999 SCT026 BKN040 31/23 Q1006 NOSIG
ZGNN,2015-05-17 06:00,ZGNN 170600Z 19002MPS 160V220 9999 SCT026 BKN040 30/23 Q1005 NOSIG
ZGNN,2015-05-17 07:00,ZGNN 170700Z 13003MPS 100V160 9999 SCT030 30/24 Q1004 NOSIG
ZGNN,2015-05-17 08:00,ZGNN 170800Z 13004MPS 090V160 9999 FEW030 31/25 Q1003 NOSIG
ZGNN,2015-05-17 09:00,ZGNN 170900Z 14003MPS 9999 SCT026 31/25 Q1003 NOSIG
ZGNN,2015-05-17 10:00,ZGNN 171000Z 15003MPS 9999 FEW023 30/25 Q1003 NOSIG
ZGNN,2015-05-17 11:00,ZGNN 171100Z 15004MPS CAVOK 29/25 Q1003 NOSIG
ZGNN,2015-05-17 12:00,ZGNN 171200Z 15003MPS CAVOK 28/25 Q1003 NOSIG
ZGNN,2015-05-17 13:00,ZGNN 171300Z 16004MPS CAVOK 27/25 Q1004 NOSIG
ZGNN,2015-05-17 14:00,ZGNN 171400Z 15003MPS 130V190 CAVOK 27/25 Q1005 NOSIG
ZGNN,2015-05-17 15:00,ZGNN 171500Z VRB01MPS 7000 NSC 27/25 Q1005 NOSIG
ZGNN,2015-05-17 16:00,ZGNN 171600Z 14002MPS 110V170 6000 NSC 26/25 Q1005 NOSIG
ZGNN,2015-05-17 17:00,ZGNN 171700Z VRB01MPS 7000 NSC 26/25 Q1005 NOSIG
ZGNN,2015-05-17 18:00,ZGNN 171800Z VRB01MPS 8000 NSC 26/25 Q1005 NOSIG
ZGNN,2015-05-17 19:00,ZGNN 171900Z 13002MPS 090V170 9000 SCT046 26/25 Q1004 NOSIG
ZGNN,2015-05-17 20:00,ZGNN 172000Z 15002MPS 9000 SCT046 26/25 Q1004 NOSIG
ZGNN,2015-05-17 21:00,ZGNN 172100Z VRB01MPS 7000 NSC 26/25 Q1004 NOSIG
ZGNN,2015-05-17 22:00,ZGNN 172200Z VRB01MPS 6000 NSC 26/25 Q1004 NOSIG
ZGNN,2015-05-17 23:00,ZGNN 172300Z VRB01MPS 6000 FEW010 26/26 Q1004 NOSIG
ZGNN,2015-05-18 00:00,ZGNN 180000Z 16002MPS 130V200 9999 SCT013 28/26 Q1005 NOSIG
ZGNN,2015-05-18 01:00,ZGNN 180100Z 16003MPS 120V200 9999 SCT013 29/26 Q1005 NOSIG
ZGNN,2015-05-18 02:00,ZGNN 180200Z 17002MPS 130V210 9999 BKN016 30/26 Q1005 NOSIG
ZGNN,2015-05-18 03:00,ZGNN 180300Z 16002MPS 110V220 9999 BKN020 31/26 Q1005 NOSIG
ZGNN,2015-05-18 04:00,ZGNN 180400Z 15002MPS 090V200 9999 BKN030 SCT040 32/26 Q1005 NOSIG
ZGNN,2015-05-18 05:00,ZGNN 180500Z 14003MPS 100V210 9999 SCT026 BKN040 32/26 Q1005 NOSIG
ZGNN,2015-05-18 06:00,ZGNN 180600Z 14004MPS 110V180 9999 SCT023 BKN040 31/26 Q1004 NOSIG
ZGNN,2015-05-18 07:00,ZGNN 180700Z 16005MPS 9999 SCT023 FEW026CB SCT040 32/26 Q1003 NOSIG
ZGNN,2015-05-18 08:00,ZGNN 180800Z 16004MPS 130V190 9999 FEW023 FEW026CB 33/26 Q1002 NOSIG
ZGNN,2015-05-18 09:00,ZGNN 180900Z 15004MPS 9999 FEW026 32/26 Q1002 NOSIG
ZGNN,2015-05-18 10:00,ZGNN 181000Z 14004MPS 9999 FEW026 31/26 Q1002 NOSIG
ZGNN,2015-05-18 11:00,ZGNN 181100Z 15004MPS 9999 SCT036 30/26 Q1002 NOSIG
ZGNN,2015-05-18 12:00,ZGNN 181200Z 14003MPS 120V190 9999 SCT036 29/26 Q1003 NOSIG
ZGNN,2015-05-18 13:00,ZGNN 181300Z 14002MPS 110V170 9999 FEW036 28/26 Q1004 NOSIG
ZGNN,2015-05-18 14:00,ZGNN 181400Z VRB01MPS 9999 FEW036 28/26 Q1005 NOSIG
ZGNN,2015-05-18 15:00,ZGNN 181500Z VRB01MPS 9999 FEW036 27/25 Q1005 NOSIG
ZGNN,2015-05-18 16:00,ZGNN 181600Z VRB01MPS 9999 FEW036 27/26 Q1005 NOSIG
ZGNN,2015-05-18 17:00,ZGNN 181700Z 11001MPS CAVOK 27/25 Q1005 NOSIG
ZGNN,2015-05-18 18:00,ZGNN 181800Z 03002MPS CAVOK 26/25 Q1004 NOSIG
ZGNN,2015-05-18 19:00,ZGNN 181900Z 06002MPS CAVOK 26/25 Q1004 NOSIG
ZGNN,2015-05-18 20:00,ZGNN 182000Z 06002MPS CAVOK 26/25 Q1004 NOSIG
ZGNN,2015-05-18 21:00,ZGNN 182100Z 05002MPS 6000 NSC 26/25 Q1004 NOSIG
ZGNN,2015-05-18 22:00,ZGNN 182200Z 05001MPS 5000 BR NSC 26/25 Q1005 NOSIG
ZGNN,2015-05-18 23:00,ZGNN 182300Z 04001MPS 5000 BR NSC 26/25 Q1005 NOSIG
ZGNN,2015-05-19 00:00,ZGNN 190000Z 02002MPS 5000 BR NSC 26/25 Q1006 NOSIG
ZGNN,2015-05-19 01:00,ZGNN 190100Z 04001MPS 8000 NSC 27/25 Q1006 NOSIG
ZGNN,2015-05-19 02:00,ZGNN 190200Z 05002MPS 020V080 8000 NSC 29/26 Q1006 NOSIG
ZGNN,2015-05-19 03:00,ZGNN 190300Z VRB01MPS 9999 FEW020 32/25 Q1006 NOSIG
ZGNN,2015-05-19 04:00,ZGNN 190400Z 13002MPS 090V210 9999 SCT023 32/25 Q1005 NOSIG
ZGNN,2015-05-19 05:00,ZGNN 190500Z 17003MPS 110V230 9999 SCT026 33/25 Q1004 NOSIG
ZGNN,2015-05-19 06:00,ZGNN 190600Z 16003MPS 110V200 9999 SCT026 33/25 Q1003 NOSIG
ZGNN,2015-05-19 07:00,ZGNN 190700Z 15004MPS 100V200 9999 SCT026 33/26 Q1003 NOSIG
ZGNN,2015-05-19 08:00,ZGNN 190800Z 13005MPS 9999 SCT026 33/27 Q1002 NOSIG
ZGNN,2015-05-19 09:00,ZGNN 190900Z 14005MPS 9999 SCT026 32/26 Q1001 NOSIG
ZGNN,2015-05-19 10:00,ZGNN 191000Z 14005MPS 110V180 9999 TS SCT023 FEW026CB 31/26 Q1001 BECMG TL1120 22005G10MPS TSRA
ZGNN,2015-05-19 11:00,ZGNN 191100Z 16003MPS 120V190 9999 -TSRA SCT016 FEW026CB SCT040 30/26 Q1002 BECMG TL1220 NSW
ZGNN,2015-05-19 12:00,ZGNN 191200Z 14002MPS 100V170 9999 SCT016 SCT040 28/27 Q1002 RETS NOSIG
ZGNN,2015-05-19 13:00,ZGNN 191300Z VRB01MPS 9999 SCT015 SCT040 28/26 Q1003 NOSIG
ZGNN,2015-05-19 14:00,ZGNN 191400Z 13001MPS 9999 FEW015 28/26 Q1004 NOSIG
ZGNN,2015-05-19 15:00,ZGNN 191500Z 13002MPS 110V180 9999 FEW009 27/26 Q1004 NOSIG
ZGNN,2015-05-19 16:00,ZGNN 191600Z VRB01MPS 9999 SCT009 27/26 Q1004 NOSIG
ZGNN,2015-05-19 17:00,ZGNN 191700Z 17001MPS 9999 SCT008 27/26 Q1004 NOSIG
ZGNN,2015-05-19 18:00,ZGNN 191800Z VRB01MPS 9999 SCT007 26/26 Q1003 NOSIG
ZGNN,2015-05-19 19:00,ZGNN 191900Z VRB01MPS 9999 FEW007 26/26 Q1003 NOSIG
ZGNN,2015-05-19 20:00,ZGNN 192000Z 09002MPS CAVOK 26/26 Q1003 NOSIG
ZGNN,2015-05-19 21:00,ZGNN 192100Z 09001MPS CAVOK 26/25 Q1003 NOSIG
ZGNN,2015-05-19 22:00,ZGNN 192200Z VRB01MPS CAVOK 26/25 Q1003 NOSIG
ZGNN,2015-05-19 23:00,ZGNN 192300Z VRB01MPS 9999 FEW009 26/26 Q1004 NOSIG
ZGNN,2015-05-20 00:00,ZGNN 200000Z 12001MPS 9999 FEW010 27/26 Q1004 NOSIG
ZGNN,2015-05-20 01:00,ZGNN 200100Z 01003MPS 9999 SCT010 28/26 Q1005 NOSIG
ZGNN,2015-05-20 02:00,ZGNN 200200Z VRB01MPS CAVOK 29/26 Q1005 NOSIG
ZGNN,2015-05-20 03:00,ZGNN 200300Z VRB01MPS 9999 FEW013 31/26 Q1005 NOSIG
ZGNN,2015-05-20 04:00,ZGNN 200400Z 01005MPS 9999 FEW026CB SCT026 31/25 Q1005 NOSIG
ZGNN,2015-05-20 05:00,ZGNN 200500Z 01006MPS 9999 FEW026CB SCT026 27/23 Q1005 BECMG TL0610 01011MPS TSRA
ZGNN,2015-05-20 06:00,ZGNN 200600Z 33003MPS 290V030 9999 -SHRA FEW013 FEW030CB SCT030 29/24 Q1004 BECMG TL0620 36011MPS -TSRA
ZGNN,2015-05-20 07:00,ZGNN 200700Z 02004MPS 290V050 9999 -SHRA FEW010 FEW030CB SCT030 26/24 Q1003 NOSIG
ZGNN,2015-05-20 08:00,ZGNN 200800Z 05005MPS 9999 SCT013 BKN033 26/23 Q1003 NOSIG
ZGNN,2015-05-20 09:00,ZGNN 200900Z 07003MPS 040V140 9999 FEW013 SCT033 27/24 Q1004 NOSIG
ZGNN,2015-05-20 10:00,ZGNN 201000Z 11003MPS 080V140 9999 SCT016 26/24 Q1004 NOSIG
ZGNN,2015-05-20 11:00,ZGNN 201100Z 14003MPS 120V190 9999 -SHRA SCT015 FEW030CB 25/24 Q1005 NOSIG
ZGNN,2015-05-20 12:00,ZGNN 201200Z VRB01MPS 9999 -SHRA SCT011 FEW030CB 25/24 Q1006 NOSIG
ZGNN,2015-05-20 13:00,ZGNN 201300Z VRB01MPS 9999 -SHRA FEW010 FEW030CB BKN043 25/24 Q1006 NOSIG
ZGNN,2015-05-20 14:00,ZGNN 201400Z VRB01MPS 9999 -SHRA FEW008 FEW030CB BKN043 25/24 Q1007 NOSIG
ZGNN,2015-05-20 15:00,ZGNN 201500Z VRB01MPS 9999 -SHRA FEW008 FEW030CB BKN043 25/24 Q1007 NOSIG
ZGNN,2015-05-20 16:00,ZGNN 201600Z 35001MPS 9999 -SHRA FEW008 FEW030CB 24/24 Q1006 NOSIG
ZGNN,2015-05-20 17:00,ZGNN 201700Z 02002MPS 9999 FEW008 24/24 Q1006 NOSIG
ZGNN,2015-05-20 18:00,ZGNN 201800Z 07002MPS 7000 -RA SCT008 OVC043 24/24 Q1007 NOSIG
ZGNN,2015-05-20 19:00,ZGNN 201900Z VRB01MPS 6000 FEW006 SCT010 OVC043 24/24 Q1006 NOSIG
ZGNN,2015-05-20 20:00,ZGNN 202000Z 25002MPS 5000 BR FEW006 SCT010 OVC040 24/24 Q1007 NOSIG
ZGNN,2015-05-20 21:00,ZGNN 202100Z VRB01MPS 5000 BR FEW006 SCT016 OVC040 24/24 Q1007 NOSIG
ZGNN,2015-05-20 22:00,ZGNN 202200Z VRB01MPS 4500 BR FEW040 24/24 Q1007 NOSIG
ZGNN,2015-05-20 23:00,ZGNN 202300Z 24001MPS 3200 -RA BR FEW004 SCT011 24/24 Q1007 NOSIG
ZGNN,2015-05-21 00:00,ZGNN 210000Z VRB01MPS 4000 BR FEW006 25/25 Q1007 NOSIG
ZGNN,2015-05-21 01:00,ZGNN 210100Z VRB01MPS 6000 SCT008 27/24 Q1008 NOSIG
ZGNN,2015-05-21 02:00,ZGNN 210200Z 11002MPS 090V190 9999 SCT013 27/24 Q1008 NOSIG
ZGNN,2015-05-21 03:00,ZGNN 210300Z 11003MPS 070V170 9999 SCT013 BKN046 29/25 Q1008 NOSIG
ZGNN,2015-05-21 04:00,ZGNN 210400Z 05003MPS 010V070 9999 SCT016 BKN046 29/24 Q1008 NOSIG
ZGNN,2015-05-21 05:00,ZGNN 210500Z 12003MPS 080V160 9999 SCT020 BKN036 29/25 Q1007 NOSIG
ZGNN,2015-05-21 06:00,ZGNN 210600Z 14003MPS 100V200 9999 SCT020 SCT036 31/24 Q1006 NOSIG
ZGNN,2015-05-21 07:00,ZGNN 210700Z 10003MPS 070V150 9999 SCT023 SCT036 31/24 Q1005 NOSIG
ZGNN,2015-05-21 08:00,ZGNN 210800Z 10004MPS 9999 SCT023 30/24 Q1005 NOSIG
ZGNN,2015-05-21 09:00,ZGNN 210900Z 07003MPS 030V110 9999 SCT026 31/24 Q1004 NOSIG
ZGNN,2015-05-21 10:00,ZGNN 211000Z 12003MPS 090V180 9999 SCT026 31/24 Q1005 NOSIG
ZGNN,2015-05-21 11:00,ZGNN 211100Z 10003MPS 080V150 CAVOK 30/24 Q1005 NOSIG
ZGNN,2015-05-21 12:00,ZGNN 211200Z 10002MPS 9999 FEW026 29/25 Q1006 NOSIG
ZGNN,2015-05-21 13:00,ZGNN 211300Z 09002MPS 070V140 9999 SCT026 29/25 Q1006 NOSIG
ZGNN,2015-05-21 14:00,ZGNN 211400Z VRB01MPS CAVOK 28/25 Q1007 NOSIG
ZGNN,2015-05-21 15:00,ZGNN 211500Z 09001MPS CAVOK 27/25 Q1007 NOSIG
ZGNN,2015-05-21 16:00,ZGNN 211600Z 03002MPS 9999 SCT020 27/25 Q1007 NOSIG
ZGNN,2015-05-21 17:00,ZGNN 211700Z 11001MPS 9999 SCT020 27/25 Q1007 NOSIG
ZGNN,2015-05-21 18:00,ZGNN 211800Z 05001MPS 9999 SCT013 27/25 Q1006 NOSIG
ZGNN,2015-05-21 19:00,ZGNN 211900Z 04002MPS 9999 SCT010 27/25 Q1006 NOSIG
ZGNN,2015-05-21 20:00,ZGNN 212000Z VRB01MPS 7000 SCT008 FEW026CB BKN040 27/25 Q1006 BECMG TL2020 -TSRA
ZGNN,2015-05-21 21:00,ZGNN 212100Z 25003MPS 180V280 5000 -SHRA BR SCT006 FEW026CB BKN033 26/26 Q1006 RETS NOSIG
ZGNN,2015-05-21 22:00,ZGNN 212200Z VRB01MPS 5000 -RA BR SCT006 BKN033 25/25 Q1005 NOSIG
ZGNN,2015-05-21 23:00,ZGNN 212300Z 09002MPS 4000 -RA BR SCT006 BKN033 25/25 Q1005 NOSIG
ZGNN,2015-05-22 00:00,ZGNN 220000Z 09002MPS 060V160 6000 SCT005 26/26 Q1006 NOSIG
ZGNN,2015-05-22 01:00,ZGNN 220100Z 13002MPS 090V220 9999 FEW009 SCT016 27/27 Q1006 NOSIG
ZGNN,2015-05-22 02:00,ZGNN 220200Z 16003MPS 120V200 9999 R05/1100V1200N FEW011 SCT016 28/26 Q1006 NOSIG
ZGNN,2015-05-22 03:00,ZGNN 220300Z 16003MPS 130V190 9999 SCT016 30/26 Q1006 NOSIG
ZGNN,2015-05-22 04:00,ZGNN 220400Z 14002MPS 100V180 9999 SCT016 30/26 Q1006 NOSIG
ZGNN,2015-05-22 05:00,ZGNN 220500Z VRB01MPS 9999 SCT020 33/26 Q1005 NOSIG
ZGNN,2015-05-22 06:00,ZGNN 220600Z VRB01MPS 9999 SCT023 SCT040 33/26 Q1004 NOSIG
ZGNN,2015-05-22 07:00,ZGNN 220700Z 03002MPS 340V060 9999 SCT026 FEW030CB SCT040 33/26 Q1003 NOSIG
ZGNN,2015-05-22 08:00,ZGNN 220800Z VRB01MPS 9999 SCT026 FEW030CB 33/25 Q1003 NOSIG
ZGNN,2015-05-22 09:00,ZGNN 220900Z 16005MPS 130V190 2000 +TSRA SCT013 SCT030CB 26/25 Q1002 BECMG TL0920 NSW
ZGNN,2015-05-22 10:00,ZGNN 221000Z 15003MPS 090V200 CAVOK 28/26 Q1002 RETSRA NOSIG
ZGNN,2015-05-22 11:00,ZGNN 221100Z 10002MPS 080V160 9999 SCT009 28/27 Q1002 NOSIG
ZGNN,2015-05-22 12:00,ZGNN 221200Z 12002MPS 090V180 9999 SCT008 28/27 Q1003 NOSIG
ZGNN,2015-05-22 13:00,ZGNN 221300Z 14002MPS 120V180 8000 SCT008 SCT016 28/27 Q1004 NOSIG
ZGNN,2015-05-22 14:00,ZGNN 221400Z VRB01MPS 7000 SCT008 SCT016 28/27 Q1004 NOSIG
ZGNN,2015-05-22 15:00,ZGNN 221500Z 11002MPS 6000 SCT008 SCT016 28/27 Q1004 NOSIG
ZGNN,2015-05-22 16:00,ZGNN 221600Z 13002MPS 100V180 6000 SCT008 SCT016 28/27 Q1005 NOSIG
ZGNN,2015-05-22 17:00,ZGNN 221700Z 11002MPS 070V150 6000 SCT008 SCT016 27/27 Q1004 NOSIG
ZGNN,2015-05-22 18:00,ZGNN 221800Z 16001MPS 7000 SCT008 27/27 Q1003 NOSIG
ZGNN,2015-05-22 19:00,ZGNN 221900Z VRB01MPS 9000 FEW008 FEW026CB 27/27 Q1003 BECMG TL1930 TSRA
ZGNN,2015-05-22 20:00,ZGNN 222000Z 23007MPS 3200 TSRA BR SCT008 SCT026CB BKN036 24/23 Q1003 BECMG TL2045 24004MPS -TSRA
ZGNN,2015-05-22 21:00,ZGNN 222100Z VRB01MPS 9999 -SHRA FEW008 FEW026CB 24/24 Q1004 RETSRA BECMG TL2115 SHRA
ZGNN,2015-05-22 22:00,ZGNN 222200Z 10002MPS 9999 -RA FEW008 24/24 Q1004 NOSIG
ZGNN,2015-05-22 23:00,ZGNN 222300Z 12001MPS 9999 FEW013 24/24 Q1005 NOSIG
ZGNN,2015-05-23 00:00,ZGNN 230000Z VRB01MPS 9999 FEW013 BKN046 24/24 Q1005 NOSIG
ZGNN,2015-05-23 01:00,ZGNN 230100Z VRB01MPS 9999 FEW023 26/25 Q1005 NOSIG
ZGNN,2015-05-23 02:00,ZGNN 230200Z 34002MPS 310V020 9999 FEW007 SCT020 27/25 Q1005 NOSIG
ZGNN,2015-05-23 03:00,ZGNN 230300Z 36004MPS 9999 FEW008 SCT020 26/25 Q1006 NOSIG
ZGNN,2015-05-23 04:00,ZGNN 230400Z 36004MPS 320V020 9999 FEW010 SCT016 28/24 Q1005 NOSIG
ZGNN,2015-05-23 05:00,ZGNN 230500Z 35006MPS 9999 FEW013 SCT020 28/24 Q1005 NOSIG
ZGNN,2015-05-23 06:00,ZGNN 230600Z 34006MPS 320V020 9999 FEW008 SCT013 BKN040 25/24 Q1005 NOSIG
ZGNN,2015-05-23 07:00,ZGNN 230700Z 35005MPS 9999 SCT013 BKN040 26/23 Q1004 NOSIG
ZGNN,2015-05-23 08:00,ZGNN 230800Z 34005MPS 9999 SCT015 OVC040 26/23 Q1005 NOSIG
ZGNN,2015-05-23 09:00,ZGNN 230900Z 36003MPS 330V060 9999 FEW015 26/23 Q1004 NOSIG
ZGNN,2015-05-23 10:00,ZGNN 231000Z 33004MPS 9999 SCT015 24/23 Q1004 NOSIG
ZGNN,2015-05-23 11:00,ZGNN 231100Z 34002MPS 300V040 9999 -SHRA FEW013 OVC040 24/22 Q1005 NOSIG
ZGNN,2015-05-23 12:00,ZGNN 231200Z 35002MPS 310V030 9999 -SHRA FEW013 BKN036 24/22 Q1006 NOSIG
ZGNN,2015-05-23 13:00,ZGNN 231300Z 33002MPS 290V360 9999 FEW016 BKN036 24/22 Q1007 NOSIG
ZGNN,2015-05-23 14:00,ZGNN 231400Z 34002MPS 310V030 9999 BKN036 24/22 Q1007 NOSIG
ZGNN,2015-05-23 15:00,ZGNN 231500Z 33003MPS 320V020 9999 BKN040 24/21 Q1008 NOSIG
ZGNN,2015-05-23 16:00,ZGNN 231600Z 33001MPS 9999 BKN040 24/21 Q1007 NOSIG
ZGNN,2015-05-23 17:00,ZGNN 231700Z VRB01MPS 9999 BKN040 24/21 Q1007 NOSIG
ZGNN,2015-05-23 18:00,ZGNN 231800Z 33002MPS 300V360 9999 BKN040 24/21 Q1007 NOSIG
ZGNN,2015-05-23 19:00,ZGNN 231900Z 34002MPS 320V020 9999 BKN043 24/21 Q1007 NOSIG
ZGNN,2015-05-23 20:00,ZGNN 232000Z 35002MPS CAVOK 23/21 Q1006 NOSIG
ZGNN,2015-05-23 21:00,ZGNN 232100Z 32002MPS CAVOK 23/21 Q1007 NOSIG
ZGNN,2015-05-23 22:00,ZGNN 232200Z VRB01MPS 9999 OVC043 23/21 Q1007 NOSIG
ZGNN,2015-05-23 23:00,ZGNN 232300Z VRB01MPS 9999 BKN046 23/21 Q1007 NOSIG
ZGNN,2015-05-24 00:00,ZGNN 240000Z VRB01MPS 9999 FEW016 BKN040 23/21 Q1008 NOSIG
ZGNN,2015-05-24 01:00,ZGNN 240100Z VRB01MPS 9999 FEW009 24/22 Q1008 NOSIG
ZGNN,2015-05-24 02:00,ZGNN 240200Z 02002MPS 300V090 9999 SCT013 26/22 Q1008 NOSIG
ZGNN,2015-05-24 03:00,ZGNN 240300Z 36002MPS 330V030 9999 SCT015 26/22 Q1008 NOSIG
ZGNN,2015-05-24 04:00,ZGNN 240400Z VRB01MPS 9999 SCT020 27/22 Q1008 NOSIG
ZGNN,2015-05-24 05:00,ZGNN 240500Z VRB01MPS 9999 SCT020 27/22 Q1007 NOSIG
ZGNN,2015-05-24 06:00,ZGNN 240600Z VRB01MPS 9999 SCT020 28/22 Q1006 NOSIG
ZGNN,2015-05-24 07:00,ZGNN 240700Z VRB01MPS 9999 SCT023 29/23 Q1006 NOSIG
ZGNN,2015-05-24 08:00,ZGNN 240800Z VRB01MPS 9999 SCT023 28/23 Q1005 NOSIG
ZGNN,2015-05-24 09:00,ZGNN 240900Z 03003MPS 360V080 9999 SCT023 BKN046 28/23 Q1004 NOSIG
ZGNN,2015-05-24 10:00,ZGNN 241000Z 05003MPS 030V160 7000 FEW023 BKN040 28/23 Q1005 NOSIG
ZGNN,2015-05-24 11:00,ZGNN 241100Z 08002MPS 6000 FEW023 BKN040 27/23 Q1006 NOSIG
ZGNN,2015-05-24 12:00,ZGNN 241200Z 08002MPS 6000 BKN040 27/23 Q1006 NOSIG
ZGNN,2015-05-24 13:00,ZGNN 241300Z 06003MPS 6000 BKN040 27/23 Q1006 NOSIG
ZGNN,2015-05-24 14:00,ZGNN 241400Z 06002MPS 020V120 6000 FEW033 26/23 Q1007 NOSIG
ZGNN,2015-05-24 15:00,ZGNN 241500Z 09002MPS 7000 SCT030 26/23 Q1007 NOSIG
ZGNN,2015-05-24 16:00,ZGNN 241600Z VRB01MPS 8000 SCT030 26/24 Q1007 NOSIG
ZGNN,2015-05-24 17:00,ZGNN 241700Z VRB01MPS 8000 SCT020 26/23 Q1006 NOSIG
ZGNN,2015-05-24 18:00,ZGNN 241800Z 08001MPS 8000 SCT020 26/23 Q1006 NOSIG
ZGNN,2015-05-24 19:00,ZGNN 241900Z 05002MPS 7000 -RA SCT020 OVC043 25/23 Q1005 NOSIG
ZGNN,2015-05-24 20:00,ZGNN 242000Z 05003MPS 5000 -RA BR SCT020 OVC043 25/24 Q1005 NOSIG
ZGNN,2015-05-24 21:00,ZGNN 242100Z 04002MPS 5000 -RA BR SCT020 OVC043 25/24 Q1005 NOSIG
ZGNN,2015-05-24 22:00,ZGNN 242200Z 04003MPS 5000 BR SCT020 OVC043 24/24 Q1005 NOSIG
ZGNN,2015-05-24 23:00,ZGNN 242300Z 05003MPS 4000 BR SCT020 OVC043 24/23 Q1005 NOSIG
ZGNN,2015-05-25 00:00,ZGNN 250000Z 04003MPS 6000 SCT013 OVC033 25/23 Q1006 NOSIG
ZGNN,2015-05-25 01:00,ZGNN 250100Z 04003MPS 6000 SCT010 OVC033 25/23 Q1006 NOSIG
ZGNN,2015-05-25 02:00,ZGNN 250200Z 06002MPS 030V090 6000 SCT010 OVC033 26/24 Q1007 NOSIG
ZGNN,2015-05-25 03:00,ZGNN 250300Z VRB02MPS 6000 SCT010 OVC033 27/24 Q1006 NOSIG
ZGNN,2015-05-25 04:00,ZGNN 250400Z VRB01MPS 5000 BR SCT010 OVC033 28/24 Q1006 NOSIG
ZGNN,2015-05-25 05:00,ZGNN 250500Z 06003MPS 040V120 5000 BR SCT013 OVC033 28/25 Q1005 NOSIG
ZGNN,2015-05-25 06:00,ZGNN 250600Z 07002MPS 010V130 6000 SCT015 OVC033 30/25 Q1004 NOSIG
ZGNN,2015-05-25 07:00,ZGNN 250700Z 06002MPS 360V120 6000 SCT020 BKN033 31/25 Q1003 NOSIG
ZGNN,2015-05-25 08:00,ZGNN 250800Z VRB01MPS 7000 SCT023 SCT033 32/25 Q1003 NOSIG
ZGNN,2015-05-25 09:00,ZGNN 250900Z 03002MPS 320V110 7000 SCT026 FEW030CB 32/25 Q1002 NOSIG
ZGNN,2015-05-25 10:00,ZGNN 251000Z 08004MPS 050V170 8000 SCT020 31/26 Q1002 NOSIG
ZGNN,2015-05-25 11:00,ZGNN 251100Z 10004MPS 9999 SCT026 29/26 Q1003 NOSIG
ZGNN,2015-05-25 12:00,ZGNN 251200Z 09004MPS 060V120 9999 SCT015 SCT026 28/26 Q1004 NOSIG
ZGNN,2015-05-25 13:00,ZGNN 251300Z 09003MPS 070V170 9999 SCT010 28/26 Q1004 NOSIG
ZGNN,2015-05-25 14:00,ZGNN 251400Z 10002MPS 070V130 9999 SCT010 28/27 Q1005 NOSIG
ZGNN,2015-05-25 15:00,ZGNN 251500Z VRB01MPS 8000 SCT010 28/27 Q1005 NOSIG
ZGNN,2015-05-25 16:00,ZGNN 251600Z 12001MPS 9000 SCT009 28/27 Q1006 NOSIG
ZGNN,2015-05-25 17:00,ZGNN 251700Z VRB01MPS 9999 SCT009 27/27 Q1006 NOSIG
ZGNN,2015-05-25 18:00,ZGNN 251800Z 10002MPS 9999 SCT009 27/26 Q1005 NOSIG
ZGNN,2015-05-25 19:00,ZGNN 251900Z 08002MPS 050V110 8000 SCT010 27/26 Q1005 NOSIG
ZGNN,2015-05-25 20:00,ZGNN 252000Z 08001MPS 7000 SCT013 27/26 Q1004 NOSIG
ZGNN,2015-05-25 21:00,ZGNN 252100Z VRB01MPS 6000 NSC 27/26 Q1005 NOSIG
ZGNN,2015-05-25 22:00,ZGNN 252200Z 03002MPS 4000 BR FEW009 26/26 Q1005 NOSIG
ZGNN,2015-05-25 23:00,ZGNN 252300Z VRB01MPS 5000 BR SCT009 27/27 Q1006 NOSIG
ZGNN,2015-05-26 00:00,ZGNN 260000Z 17003MPS 140V200 9999 FEW010 29/27 Q1006 NOSIG
ZGNN,2015-05-26 01:00,ZGNN 260100Z 15004MPS 9999 SCT013 30/27 Q1006 NOSIG
ZGNN,2015-05-26 02:00,ZGNN 260200Z 18004MPS 9999 SCT016 32/26 Q1006 NOSIG
ZGNN,2015-05-26 03:00,ZGNN 260300Z 15002MPS 080V210 9999 SCT023 SCT033 32/26 Q1006 NOSIG
ZGNN,2015-05-26 04:00,ZGNN 260400Z 14003MPS 080V180 9999 SCT026 33/27 Q1005 NOSIG
ZGNN,2015-05-26 05:00,ZGNN 260500Z 15003MPS 100V200 9999 SCT033 34/26 Q1004 NOSIG
ZGNN,2015-05-26 06:00,ZGNN 260600Z 16003MPS 9999 SCT036 34/26 Q1003 NOSIG
ZGNN,2015-05-26 07:00,ZGNN 260700Z 16005MPS 9999 SCT036 34/27 Q1002 NOSIG
ZGNN,2015-05-26 08:00,ZGNN 260800Z 16005MPS 9999 FEW036 34/26 Q1002 NOSIG
ZGNN,2015-05-26 09:00,ZGNN 260900Z 14006MPS CAVOK 34/27 Q1001 NOSIG
ZGNN,2015-05-26 10:00,ZGNN 261000Z 15005MPS 120V180 CAVOK 33/27 Q1001 NOSIG
ZGNN,2015-05-26 11:00,ZGNN 261100Z 14005MPS CAVOK 31/27 Q1001 NOSIG
ZGNN,2015-05-26 12:00,ZGNN 261200Z 14005MPS 110V180 CAVOK 30/26 Q1003 NOSIG
ZGNN,2015-05-26 13:00,ZGNN 261300Z 15004MPS CAVOK 29/26 Q1004 NOSIG
ZGNN,2015-05-26 14:00,ZGNN 261400Z 14002MPS 090V220 CAVOK 29/26 Q1004 NOSIG
ZGNN,2015-05-26 15:00,ZGNN 261500Z VRB01MPS CAVOK 28/26 Q1005 NOSIG
ZGNN,2015-05-26 16:00,ZGNN 261600Z VRB01MPS CAVOK 28/26 Q1005 NOSIG
ZGNN,2015-05-26 17:00,ZGNN 261700Z 00000MPS CAVOK 27/26 Q1004 NOSIG
ZGNN,2015-05-26 18:00,ZGNN 261800Z 10001MPS CAVOK 27/26 Q1004 NOSIG
ZGNN,2015-05-26 19:00,ZGNN 261900Z 08001MPS CAVOK 27/26 Q1003 NOSIG
ZGNN,2015-05-26 20:00,ZGNN 262000Z 04002MPS CAVOK 27/25 Q1003 NOSIG
ZGNN,2015-05-26 21:00,ZGNN 262100Z 05002MPS CAVOK 26/25 Q1004 NOSIG
ZGNN,2015-05-26 22:00,ZGNN 262200Z 02002MPS CAVOK 26/25 Q1004 NOSIG
ZGNN,2015-05-26 23:00,ZGNN 262300Z 03002MPS CAVOK 27/26 Q1005 NOSIG
ZGNN,2015-05-27 00:00,ZGNN 270000Z VRB01MPS CAVOK 29/26 Q1005 NOSIG
ZGNN,2015-05-27 01:00,ZGNN 270100Z 17004MPS CAVOK 31/26 Q1005 NOSIG
ZGNN,2015-05-27 02:00,ZGNN 270200Z 16004MPS CAVOK 32/26 Q1005 NOSIG
ZGNN,2015-05-27 03:00,ZGNN 270300Z 14004MPS 9999 SCT020 33/27 Q1004 NOSIG
ZGNN,2015-05-27 04:00,ZGNN 270400Z 15003MPS 100V180 9999 SCT023 33/27 Q1004 NOSIG
ZGNN,2015-05-27 05:00,ZGNN 270500Z 14003MPS 100V210 9999 SCT026 33/26 Q1003 NOSIG
ZGNN,2015-05-27 06:00,ZGNN 270600Z 14004MPS 9999 SCT030 33/27 Q1002 NOSIG
ZGNN,2015-05-27 07:00,ZGNN 270700Z 14004MPS 120V180 9999 SCT033 35/28 Q1001 NOSIG
ZGNN,2015-05-27 08:00,ZGNN 270800Z 14005MPS 9999 SCT033 34/27 Q1001 NOSIG
ZGNN,2015-05-27 09:00,ZGNN 270900Z 15006MPS 9999 FEW030 34/27 Q1000 NOSIG
ZGNN,2015-05-27 10:00,ZGNN 271000Z 14005MPS 9999 FEW030 32/27 Q1000 NOSIG
ZGNN,2015-05-27 11:00,ZGNN 271100Z 14005MPS CAVOK 31/27 Q1001 NOSIG
ZGNN,2015-05-27 12:00,ZGNN 271200Z 16004MPS 130V200 CAVOK 30/26 Q1001 NOSIG
ZGNN,2015-05-27 13:00,ZGNN 271300Z 15003MPS 120V200 CAVOK 29/26 Q1002 NOSIG
ZGNN,2015-05-27 14:00,ZGNN 271400Z 15003MPS CAVOK 29/26 Q1002 NOSIG
ZGNN,2015-05-27 15:00,ZGNN 271500Z 14002MPS 120V180 CAVOK 28/26 Q1003 NOSIG
ZGNN,2015-05-27 16:00,ZGNN 271600Z VRB01MPS CAVOK 28/26 Q1003 NOSIG
ZGNN,2015-05-27 17:00,ZGNN 271700Z 00000MPS CAVOK 27/26 Q1002 NOSIG
ZGNN,2015-05-27 18:00,ZGNN 271800Z VRB01MPS CAVOK 27/26 Q1002 NOSIG
ZGNN,2015-05-27 19:00,ZGNN 271900Z 09002MPS CAVOK 27/26 Q1001 NOSIG
ZGNN,2015-05-27 20:00,ZGNN 272000Z 03003MPS CAVOK 27/26 Q1001 NOSIG
ZGNN,2015-05-27 21:00,ZGNN 272100Z 06003MPS CAVOK 27/25 Q1001 NOSIG
ZGNN,2015-05-27 22:00,ZGNN 272200Z 07002MPS CAVOK 26/26 Q1001 NOSIG
ZGNN,2015-05-27 23:00,ZGNN 272300Z VRB01MPS CAVOK 28/26 Q1002 NOSIG
ZGNN,2015-05-28 00:00,ZGNN 280000Z 14002MPS 110V180 9999 FEW010 30/27 Q1002 NOSIG
ZGNN,2015-05-28 01:00,ZGNN 280100Z 15004MPS 120V180 9999 SCT015 31/27 Q1003 NOSIG
ZGNN,2015-05-28 02:00,ZGNN 280200Z 18003MPS 120V230 9999 SCT016 32/26 Q1003 NOSIG
ZGNN,2015-05-28 03:00,ZGNN 280300Z 16003MPS 120V210 9999 SCT023 33/27 Q1002 NOSIG
ZGNN,2015-05-28 04:00,ZGNN 280400Z 14003MPS 100V190 9999 SCT023 34/26 Q1002 NOSIG
ZGNN,2015-05-28 05:00,ZGNN 280500Z 14004MPS 090V170 9999 SCT026 34/27 Q1001 NOSIG
ZGNN,2015-05-28 06:00,ZGNN 280600Z 14006MPS 120V180 9999 SCT030 35/27 Q1000 NOSIG
ZGNN,2015-05-28 07:00,ZGNN 280700Z 15005MPS 9999 SCT030 35/27 Q0999 NOSIG
ZGNN,2015-05-28 08:00,ZGNN 280800Z 13006MPS 9999 SCT030 35/27 Q0999 NOSIG
ZGNN,2015-05-28 09:00,ZGNN 280900Z 14006MPS 9999 SCT026 34/27 Q0999 NOSIG
ZGNN,2015-05-28 10:00,ZGNN 281000Z 14005MPS 9999 SCT026 32/27 Q0999 NOSIG
ZGNN,2015-05-28 11:00,ZGNN 281100Z VRB01G06MPS 9999 SCT040 32/27 Q1000 NOSIG
ZGNN,2015-05-28 12:00,ZGNN 281200Z 14004MPS 110V180 CAVOK 30/26 Q1000 NOSIG
ZGNN,2015-05-28 13:00,ZGNN 281300Z 15003MPS CAVOK 30/26 Q1001 NOSIG
ZGNN,2015-05-28 14:00,ZGNN 281400Z 15002MPS 120V180 CAVOK 29/27 Q1001 NOSIG
ZGNN,2015-05-28 15:00,ZGNN 281500Z VRB01MPS CAVOK 29/26 Q1002 NOSIG
ZGNN,2015-05-28 16:00,ZGNN 281600Z VRB01MPS CAVOK 28/26 Q1002 NOSIG
ZGNN,2015-05-28 17:00,ZGNN 281700Z 12001MPS CAVOK 28/26 Q1001 NOSIG
ZGNN,2015-05-28 18:00,ZGNN 281800Z VRB01MPS CAVOK 28/26 Q1001 NOSIG
ZGNN,2015-05-28 19:00,ZGNN 281900Z 09001MPS CAVOK 28/25 Q1001 NOSIG
ZGNN,2015-05-28 20:00,ZGNN 282000Z 13002MPS CAVOK 27/25 Q1001 NOSIG
ZGNN,2015-05-28 21:00,ZGNN 282100Z 14002MPS CAVOK 27/25 Q1001 NOSIG
ZGNN,2015-05-28 22:00,ZGNN 282200Z VRB01MPS CAVOK 28/26 Q1001 NOSIG
ZGNN,2015-05-28 23:00,ZGNN 282300Z 12002MPS 090V150 CAVOK 28/26 Q1002 NOSIG
ZGNN,2015-05-29 00:00,ZGNN 290000Z 15002MPS 120V180 CAVOK 30/26 Q1003 NOSIG
ZGNN,2015-05-29 01:00,ZGNN 290100Z 16002MPS 120V210 CAVOK 32/27 Q1003 NOSIG
ZGNN,2015-05-29 02:00,ZGNN 290200Z 15002MPS 070V230 9999 FEW020 33/27 Q1003 NOSIG
ZGNN,2015-05-29 03:00,ZGNN 290300Z 14002MPS 090V230 9999 SCT026 35/27 Q1003 NOSIG
ZGNN,2015-05-29 04:00,ZGNN 290400Z 16004MPS 120V200 9999 SCT030 34/26 Q1003 NOSIG
ZGNN,2015-05-29 05:00,ZGNN 290500Z 14004MPS 100V180 9999 SCT030 35/26 Q1002 NOSIG
ZGNN,2015-05-29 06:00,ZGNN 290600Z 14005MPS 100V170 9999 SCT030 36/27 Q1001 NOSIG
ZGNN,2015-05-29 07:00,ZGNN 290700Z 14006MPS 9999 SCT030 35/27 Q1001 NOSIG
ZGNN,2015-05-29 08:00,ZGNN 290800Z 14007MPS 110V170 9999 SCT030 35/27 Q1000 NOSIG
ZGNN,2015-05-29 09:00,ZGNN 290900Z 14006MPS 9999 SCT030 35/27 Q1000 NOSIG
ZGNN,2015-05-29 10:00,ZGNN 291000Z 13005MPS 9999 FEW030 33/27 Q1000 NOSIG
ZGNN,2015-05-29 11:00,ZGNN 291100Z 14004MPS 120V180 9999 FEW030 32/26 Q1001 NOSIG
ZGNN,2015-05-29 12:00,ZGNN 291200Z 13003MPS CAVOK 31/26 Q1002 NOSIG
ZGNN,2015-05-29 13:00,ZGNN 291300Z 15003MPS CAVOK 30/26 Q1003 NOSIG
ZGNN,2015-05-29 14:00,ZGNN 291400Z VRB01MPS CAVOK 30/26 Q1004 NOSIG
ZGNN,2015-05-29 15:00,ZGNN 291500Z 11002MPS CAVOK 29/26 Q1004 NOSIG
ZGNN,2015-05-29 16:00,ZGNN 291600Z 10002MPS 080V200 CAVOK 29/26 Q1005 NOSIG
ZGNN,2015-05-29 17:00,ZGNN 291700Z 10001MPS CAVOK 29/26 Q1005 NOSIG
ZGNN,2015-05-29 18:00,ZGNN 291800Z 04003MPS CAVOK 28/26 Q1005 NOSIG
ZGNN,2015-05-29 19:00,ZGNN 291900Z 07002MPS CAVOK 28/26 Q1004 NOSIG
ZGNN,2015-05-29 20:00,ZGNN 292000Z 05003MPS 9999 FEW026CB 28/26 Q1005 NOSIG
ZGNN,2015-05-29 21:00,ZGNN 292100Z 04002MPS CAVOK 27/26 Q1005 NOSIG
ZGNN,2015-05-29 22:00,ZGNN 292200Z 04003MPS CAVOK 28/26 Q1005 NOSIG
ZGNN,2015-05-29 23:00,ZGNN 292300Z 04004MPS CAVOK 28/26 Q1006 NOSIG
ZGNN,2015-05-30 00:00,ZGNN 300000Z 09002MPS CAVOK 28/26 Q1006 NOSIG
ZGNN,2015-05-30 01:00,ZGNN 300100Z VRB01MPS CAVOK 32/26 Q1006 NOSIG
ZGNN,2015-05-30 02:00,ZGNN 300200Z VRB01MPS 9999 FEW016 34/26 Q1006 NOSIG
ZGNN,2015-05-30 03:00,ZGNN 300300Z 16002MPS 110V260 9999 FEW026 34/26 Q1006 NOSIG
ZGNN,2015-05-30 04:00,ZGNN 300400Z VRB01MPS 9999 SCT030 36/25 Q1006 NOSIG
ZGNN,2015-05-30 05:00,ZGNN 300500Z 02001MPS 9999 SCT033 35/25 Q1005 NOSIG
ZGNN,2015-05-30 06:00,ZGNN 300600Z 28002MPS 9999 SCT033 36/25 Q1004 NOSIG
ZGNN,2015-05-30 07:00,ZGNN 300700Z 30002MPS 230V030 9999 SCT033 37/24 Q1003 NOSIG
ZGNN,2015-05-30 08:00,ZGNN 300800Z 36002MPS 310V070 9999 SCT033 37/25 Q1002 NOSIG
ZGNN,2015-05-30 09:00,ZGNN 300900Z 06003MPS 350V130 9999 FEW033 35/25 Q1002 NOSIG
ZGNN,2015-05-30 10:00,ZGNN 301000Z 12003MPS 080V140 9999 SCT033 35/27 Q1002 NOSIG
ZGNN,2015-05-30 11:00,ZGNN 301100Z 08004MPS 040V160 9999 -TSRA FEW026CB SCT026 BKN046 33/26 Q1003 BECMG TL1200 TSRA
ZGNN,2015-05-30 12:00,ZGNN 301200Z 08004MPS 030V120 8000 TSRA SCT026CB SCT026 OVC040 25/24 Q1006 BECMG TL1240 -TSRA
ZGNN,2015-05-30 13:00,ZGNN 301300Z 25002MPS 210V300 9999 FEW013 25/25 Q1005 RETSRA BECMG TL1420 TSRA
ZGNN,2015-05-30 14:00,ZGNN 301400Z VRB01MPS CAVOK 25/25 Q1006 NOSIG
ZGNN,2015-05-30 15:00,ZGNN 301500Z 10002MPS CAVOK 25/24 Q1007 NOSIG
ZGNN,2015-05-30 16:00,ZGNN 301600Z VRB01MPS CAVOK 26/25 Q1006 NOSIG
ZGNN,2015-05-30 17:00,ZGNN 301700Z 34001MPS 9999 FEW026 25/24 Q1006 NOSIG
ZGNN,2015-05-30 18:00,ZGNN 301800Z 12001MPS 9999 FEW016 26/25 Q1005 NOSIG
ZGNN,2015-05-30 19:00,ZGNN 301900Z 05002MPS 9999 SCT013 BKN030 26/24 Q1005 NOSIG
ZGNN,2015-05-30 20:00,ZGNN 302000Z 06002MPS 9999 SCT010 OVC030 26/23 Q1004 NOSIG
ZGNN,2015-05-30 21:00,ZGNN 302100Z 08001MPS 9999 SCT010 FEW030CB BKN030 26/23 Q1006 BECMG TL2130 -TSRA
ZGNN,2015-05-30 22:00,ZGNN 302200Z 06003MPS 030V090 9999 TS SCT013 FEW030CB BKN030 26/24 Q1006 BECMG TL2230 NSW
ZGNN,2015-05-30 23:00,ZGNN 302300Z VRB02MPS 9999 -TSRA SCT013 FEW030CB BKN030 25/24 Q1007 BECMG TL2350 NSW
ZGNN,2015-05-31 00:00,ZGNN 310000Z VRB01MPS 9999 -SHRA SCT013 FEW030CB BKN030 25/25 Q1007 RETS NOSIG
ZGNN,2015-05-31 01:00,ZGNN 310100Z 05003MPS 9999 FEW005 SCT013 OVC033 26/25 Q1007 NOSIG
ZGNN,2015-05-31 02:00,ZGNN 310200Z 03003MPS 7000 FEW005 SCT013 27/26 Q1007 NOSIG
ZGNN,2015-05-31 03:00,ZGNN 310300Z 12002MPS 080V190 9999 SCT016 29/26 Q1007 NOSIG
ZGNN,2015-05-31 04:00,ZGNN 310400Z 14003MPS 100V190 9999 SCT016 30/26 Q1005 NOSIG
ZGNN,2015-05-31 05:00,ZGNN 310500Z 15003MPS 120V190 9999 SCT016 29/26 Q1005 NOSIG
ZGNN,2015-05-31 06:00,ZGNN 310600Z 17002MPS 9999 SCT016 30/26 Q1004 NOSIG
ZGNN,2015-05-31 07:00,ZGNN 310700Z VRB01MPS 9999 FEW016 31/26 Q1003 NOSIG
ZGNN,2015-05-31 08:00,ZGNN 310800Z 16002MPS 120V190 9999 FEW020 31/26 Q1003 NOSIG
ZGNN,2015-05-31 09:00,ZGNN 310900Z 14004MPS 9999 FEW020 31/26 Q1002 NOSIG
ZGNN,2015-05-31 10:00,ZGNN 311000Z 12003MPS 9999 SCT020 30/26 Q1002 NOSIG
ZGNN,2015-05-31 11:00,ZGNN 311100Z 12003MPS 080V160 9999 SCT016 SCT036 30/27 Q1002 NOSIG
ZGNN,2015-05-31 12:00,ZGNN 311200Z 13003MPS 100V160 9999 FEW016 BKN033 29/27 Q1003 NOSIG
ZGNN,2015-05-31 13:00,ZGNN 311300Z 14003MPS 100V180 9999 FEW016 28/26 Q1003 NOSIG
ZGNN,2015-05-31 14:00,ZGNN 311400Z 15002MPS 110V180 9999 FEW016 28/26 Q1004 NOSIG
ZGNN,2015-05-31 15:00,ZGNN 311500Z 15003MPS 120V180 9999 FEW016 28/26 Q1005 NOSIG
ZGNN,2015-05-31 16:00,ZGNN 311600Z 16002MPS 140V200 CAVOK 28/26 Q1005 NOSIG
ZGNN,2015-05-31 17:00,ZGNN 311700Z 11002MPS CAVOK 27/26 Q1004 NOSIG
ZGNN,2015-05-31 18:00,ZGNN 311800Z 08002MPS 9999 SCT013 27/26 Q1004 NOSIG
ZGNN,2015-05-31 19:00,ZGNN 311900Z 10002MPS CAVOK 27/26 Q1003 NOSIG
ZGNN,2015-05-31 20:00,ZGNN 312000Z 03003MPS 9999 SCT010 26/26 Q1003 NOSIG
ZGNN,2015-05-31 21:00,ZGNN 312100Z 08002MPS 6000 SCT010 26/26 Q1003 NOSIG
ZGNN,2015-05-31 22:00,ZGNN 312200Z VRB01MPS 6000 SCT010 27/26 Q1003 NOSIG
ZGNN,2015-05-31 23:00,ZGNN 312300Z VRB01MPS 7000 FEW013 27/26 Q1004 NOSIG
ZGNN,2015-06-01 00:00,ZGNN 010000Z 14003MPS 9999 FEW013 29/27 Q1004 NOSIG
ZGNN,2015-06-01 01:00,ZGNN 010100Z 16004MPS 130V190 9999 SCT013 30/26 Q1004 NOSIG
ZGNN,2015-06-01 02:00,ZGNN 010200Z 16004MPS 120V200 9999 SCT023 32/27 Q1004 NOSIG
ZGNN,2015-06-01 03:00,ZGNN 010300Z 17003MPS 130V200 9999 BKN026 33/27 Q1004 NOSIG
ZGNN,2015-06-01 04:00,ZGNN 010400Z 14003MPS 120V190 9999 BKN030 33/27 Q1004 NOSIG
ZGNN,2015-06-01 05:00,ZGNN 010500Z 18004MPS 140V210 9999 BKN040 35/25 Q1003 NOSIG
ZGNN,2015-06-01 06:00,ZGNN 010600Z 15003MPS 120V190 9999 BKN040 35/26 Q1002 NOSIG
ZGNN,2015-06-01 07:00,ZGNN 010700Z 16004MPS 120V190 9999 BKN040 35/27 Q1001 NOSIG
ZGNN,2015-06-01 08:00,ZGNN 010800Z 15006MPS 9999 SCT040 35/27 Q1001 NOSIG
ZGNN,2015-06-01 09:00,ZGNN 010900Z 14005MPS 9999 FEW040 34/27 Q1000 NOSIG
ZGNN,2015-06-01 10:00,ZGNN 011000Z 14006MPS 9999 FEW040 33/27 Q1001 NOSIG
ZGNN,2015-06-01 11:00,ZGNN 011100Z 16005MPS CAVOK 32/26 Q1001 NOSIG
ZGNN,2015-06-01 12:00,ZGNN 011200Z 16005MPS CAVOK 31/26 Q1002 NOSIG
ZGNN,2015-06-01 13:00,ZGNN 011300Z 15005MPS CAVOK 30/26 Q1002 NOSIG
ZGNN,2015-06-01 14:00,ZGNN 011400Z 17004MPS 140V210 CAVOK 30/26 Q1004 NOSIG
ZGNN,2015-06-01 15:00,ZGNN 011500Z 19002MPS 160V220 CAVOK 29/26 Q1005 NOSIG
ZGNN,2015-06-01 16:00,ZGNN 011600Z 15002MPS CAVOK 28/27 Q1005 NOSIG
ZGNN,2015-06-01 17:00,ZGNN 011700Z 16002MPS CAVOK 28/27 Q1005 NOSIG
ZGNN,2015-06-01 18:00,ZGNN 011800Z 14002MPS CAVOK 28/26 Q1004 NOSIG
ZGNN,2015-06-01 19:00,ZGNN 011900Z 15002MPS CAVOK 28/26 Q1003 NOSIG
ZGNN,2015-06-01 20:00,ZGNN 012000Z VRB01MPS CAVOK 28/26 Q1004 NOSIG
ZGNN,2015-06-01 21:00,ZGNN 012100Z 16003MPS CAVOK 28/25 Q1004 NOSIG
ZGNN,2015-06-01 22:00,ZGNN 012200Z 15002MPS CAVOK 27/25 Q1004 NOSIG
ZGNN,2015-06-01 23:00,ZGNN 012300Z 10001MPS CAVOK 28/26 Q1005 NOSIG
ZGNN,2015-06-02 00:00,ZGNN 020000Z 17002MPS CAVOK 29/26 Q1006 NOSIG
ZGNN,2015-06-02 01:00,ZGNN 020100Z 18002MPS 9999 SCT043 30/26 Q1006 NOSIG
ZGNN,2015-06-02 02:00,ZGNN 020200Z 20004MPS 9999 SCT026 32/25 Q1006 NOSIG
ZGNN,2015-06-02 03:00,ZGNN 020300Z 17003MPS 130V210 9999 SCT026 SCT040 33/26 Q1006 NOSIG
ZGNN,2015-06-02 04:00,ZGNN 020400Z 17004MPS 9999 SCT026 SCT040 34/24 Q1005 NOSIG
ZGNN,2015-06-02 05:00,ZGNN 020500Z 17004MPS 140V200 9999 SCT026 SCT040 34/25 Q1005 NOSIG
ZGNN,2015-06-02 06:00,ZGNN 020600Z 15006MPS 9999 SCT030 SCT043 33/26 Q1004 NOSIG
ZGNN,2015-06-02 07:00,ZGNN 020700Z 17006MPS 140V200 9999 FEW030TCU SCT030 SCT043 35/25 Q1003 NOSIG
ZGNN,2015-06-02 08:00,ZGNN 020800Z 16006MPS 9999 FEW026 FEW030TCU SCT046 33/25 Q1002 NOSIG
ZGNN,2015-06-02 09:00,ZGNN 020900Z 15005MPS 9999 FEW026 33/26 Q1003 NOSIG
ZGNN,2015-06-02 10:00,ZGNN 021000Z 15004MPS 9999 FEW026 31/26 Q1003 NOSIG
ZGNN,2015-06-02 11:00,ZGNN 021100Z 15005MPS 9999 FEW026 30/26 Q1004 NOSIG
ZGNN,2015-06-02 12:00,ZGNN 021200Z 15004MPS CAVOK 30/26 Q1004 NOSIG
ZGNN,2015-06-02 13:00,ZGNN 021300Z 15003MPS 120V180 CAVOK 29/26 Q1005 NOSIG
ZGNN,2015-06-02 14:00,ZGNN 021400Z 15002MPS CAVOK 29/26 Q1005 NOSIG
ZGNN,2015-06-02 15:00,ZGNN 021500Z 16003MPS 9999 SCT015 29/26 Q1006 NOSIG
ZGNN,2015-06-02 16:00,ZGNN 021600Z 16002MPS 110V200 CAVOK 28/26 Q1006 NOSIG
ZGNN,2015-06-02 17:00,ZGNN 021700Z 14001MPS CAVOK 28/26 Q1006 NOSIG
ZGNN,2015-06-02 18:00,ZGNN 021800Z 12001MPS CAVOK 28/26 Q1006 NOSIG
ZGNN,2015-06-02 19:00,ZGNN 021900Z 18001MPS CAVOK 28/26 Q1006 NOSIG
ZGNN,2015-06-02 20:00,ZGNN 022000Z 35001MPS CAVOK 27/26 Q1006 NOSIG
ZGNN,2015-06-02 21:00,ZGNN 022100Z 09002MPS CAVOK 27/26 Q1006 NOSIG
ZGNN,2015-06-02 22:00,ZGNN 022200Z VRB01MPS 9999 FEW046 27/26 Q1007 NOSIG
ZGNN,2015-06-02 23:00,ZGNN 022300Z 09002MPS 060V130 9999 FEW008 SCT046 28/26 Q1008 NOSIG
ZGNN,2015-06-03 00:00,ZGNN 030000Z 10003MPS 060V140 9999 SCT010 29/26 Q1008 NOSIG
ZGNN,2015-06-03 01:00,ZGNN 030100Z 11003MPS 070V190 9999 FEW016 31/26 Q1008 NOSIG
ZGNN,2015-06-03 02:00,ZGNN 030200Z 16003MPS 130V200 9999 SCT020 32/26 Q1009 NOSIG
ZGNN,2015-06-03 03:00,ZGNN 030300Z 15004MPS 110V190 9999 SCT023 32/26 Q1008 NOSIG
ZGNN,2015-06-03 04:00,ZGNN 030400Z 17003MPS 130V200 9999 SCT026 34/25 Q1008 NOSIG
ZGNN,2015-06-03 05:00,ZGNN 030500Z 15004MPS 100V190 9999 SCT030 35/25 Q1007 NOSIG
ZGNN,2015-06-03 06:00,ZGNN 030600Z 32002MPS 240V360 9999 TSRA FEW030CB SCT030 28/26 Q1007 BECMG TL0615 NSW
ZGNN,2015-06-03 07:00,ZGNN 030700Z VRB01MPS 9999 SCT030 32/26 Q1006 RETSRA NOSIG
ZGNN,2015-06-03 08:00,ZGNN 030800Z 14004MPS 9999 FEW030 31/26 Q1005 NOSIG
ZGNN,2015-06-03 09:00,ZGNN 030900Z 15003MPS 090V180 9999 FEW033 30/25 Q1005 NOSIG
ZGNN,2015-06-03 10:00,ZGNN 031000Z 14002MPS 110V200 CAVOK 30/23 Q1006 NOSIG
ZGNN,2015-06-03 11:00,ZGNN 031100Z 14002MPS 120V180 CAVOK 29/25 Q1006 NOSIG
ZGNN,2015-06-03 12:00,ZGNN 031200Z VRB01MPS CAVOK 28/26 Q1007 NOSIG
ZGNN,2015-06-03 13:00,ZGNN 031300Z VRB01MPS CAVOK 28/26 Q1007 NOSIG
ZGNN,2015-06-03 14:00,ZGNN 031400Z 17002MPS 140V200 CAVOK 28/26 Q1007 NOSIG
ZGNN,2015-06-03 15:00,ZGNN 031500Z 12001MPS CAVOK 28/26 Q1008 NOSIG
ZGNN,2015-06-03 16:00,ZGNN 031600Z VRB01MPS CAVOK 28/26 Q1008 NOSIG
ZGNN,2015-06-03 17:00,ZGNN 031700Z 14002MPS CAVOK 27/26 Q1007 NOSIG
ZGNN,2015-06-03 18:00,ZGNN 031800Z VRB01MPS CAVOK 28/26 Q1007 NOSIG
ZGNN,2015-06-03 19:00,ZGNN 031900Z VRB01MPS CAVOK 27/26 Q1007 NOSIG
ZGNN,2015-06-03 20:00,ZGNN 032000Z 09001MPS CAVOK 27/26 Q1007 NOSIG
ZGNN,2015-06-03 21:00,ZGNN 032100Z 08001MPS CAVOK 27/26 Q1007 NOSIG
ZGNN,2015-06-03 22:00,ZGNN 032200Z 10001MPS 8000 FEW009 27/26 Q1008 NOSIG
ZGNN,2015-06-03 23:00,ZGNN 032300Z 09001MPS 9999 FEW010 27/26 Q1008 NOSIG
ZGNN,2015-06-04 00:00,ZGNN 040000Z 12002MPS 100V180 9999 FEW010 29/27 Q1008 NOSIG
ZGNN,2015-06-04 01:00,ZGNN 040100Z VRB01MPS 9999 SCT016 31/26 Q1009 NOSIG
ZGNN,2015-06-04 02:00,ZGNN 040200Z 14002MPS 080V210 9999 SCT020 32/26 Q1008 NOSIG
ZGNN,2015-06-04 03:00,ZGNN 040300Z 19003MPS 130V240 9999 SCT026 32/25 Q1008 NOSIG
ZGNN,2015-06-04 04:00,ZGNN 040400Z 16003MPS 120V200 9999 SCT030 34/25 Q1008 NOSIG
ZGNN,2015-06-04 05:00,ZGNN 040500Z 16003MPS 130V200 9999 SCT030 34/25 Q1007 NOSIG
ZGNN,2015-06-04 06:00,ZGNN 040600Z 16004MPS 130V200 9999 SCT030 FEW033TCU 34/25 Q1006 NOSIG
ZGNN,2015-06-04 07:00,ZGNN 040700Z 16004MPS 130V190 9999 SCT030 FEW033TCU 35/25 Q1005 NOSIG
ZGNN,2015-06-04 08:00,ZGNN 040800Z 16005MPS 9999 SCT030 FEW033TCU 35/25 Q1005 NOSIG
ZGNN,2015-06-04 09:00,ZGNN 040900Z 16005MPS 9999 FEW030 FEW033TCU 34/25 Q1004 NOSIG
ZGNN,2015-06-04 10:00,ZGNN 041000Z 15005MPS 9999 FEW030 33/25 Q1004 NOSIG
ZGNN,2015-06-04 11:00,ZGNN 041100Z 15005MPS 9999 FEW030 32/25 Q1004 NOSIG
ZGNN,2015-06-04 12:00,ZGNN 041200Z 16004MPS 9999 TS FEW026CB SCT026 SCT046 31/26 Q1005 NOSIG
ZGNN,2015-06-04 13:00,ZGNN 041300Z 17002MPS 130V190 9999 SCT046 30/26 Q1006 RETS NOSIG
ZGNN,2015-06-04 14:00,ZGNN 041400Z 16002MPS 120V190 9999 -RA BKN046 29/26 Q1006 NOSIG
ZGNN,2015-06-04 15:00,ZGNN 041500Z VRB01MPS CAVOK 29/26 Q1006 NOSIG
ZGNN,2015-06-04 16:00,ZGNN 041600Z VRB01MPS CAVOK 28/26 Q1007 BECMG TL1620 -TSRA
ZGNN,2015-06-04 17:00,ZGNN 041700Z 01004MPS 330V040 9999 TS SCT015 FEW023CB SCT023 26/24 Q1007 BECMG TL1740 -SHRA
ZGNN,2015-06-04 18:00,ZGNN 041800Z 06004MPS 9999 TS SCT015 FEW023CB SCT023 26/24 Q1007 NOSIG
ZGNN,2015-06-04 19:00,ZGNN 041900Z 36004MPS 9999 TS SCT015 FEW023CB 25/23 Q1007 BECMG TL1940 TSRA
ZGNN,2015-06-04 20:00,ZGNN 042000Z 32002MPS 9999 SCT009 FEW023CB 25/24 Q1008 RETS BECMG TL2040 -TSRA
ZGNN,2015-06-04 21:00,ZGNN 042100Z 35002MPS 9999 SCT009 FEW023CB 25/23 Q1007 NOSIG
ZGNN,2015-06-04 22:00,ZGNN 042200Z 34003MPS 9999 SCT009 24/23 Q1008 NOSIG
ZGNN,2015-06-04 23:00,ZGNN 042300Z 34002MPS 300V020 9999 SCT008 24/23 Q1008 NOSIG
ZGNN,2015-06-05 00:00,ZGNN 050000Z 34002MPS 310V010 9999 SCT009 25/23 Q1008 BECMG TL0040 SHRA
ZGNN,2015-06-05 01:00,ZGNN 050100Z 01003MPS 9999 SCT008 25/23 Q1008 BECMG TL0140 TSRA
ZGNN,2015-06-05 02:00,ZGNN 050200Z 34002MPS 210V020 9999 -SHRA SCT010 FEW030CB BKN040 25/24 Q1009 BECMG TL0250 TSRA
ZGNN,2015-06-05 03:00,ZGNN 050300Z 29003MPS 9999 -TSRA SCT010 FEW030CB BKN040 25/24 Q1009 BECMG TL0310 TSRA
ZGNN,2015-06-05 04:00,ZGNN 050400Z 36003MPS 9999 -SHRA FEW004 SCT010 FEW030CB 25/24 Q1009 RETSRA NOSIG
ZGNN,2015-06-05 05:00,ZGNN 050500Z 34003MPS 310V020 9999 -SHRA FEW006 SCT013 FEW030CB 25/24 Q1009 NOSIG
ZGNN,2015-06-05 06:00,ZGNN 050600Z VRB01MPS 9999 -SHRA FEW008 SCT013 FEW030CB 26/24 Q1008 NOSIG
ZGNN,2015-06-05 07:00,ZGNN 050700Z VRB01MPS 9999 -SHRA FEW008 SCT013 FEW030CB BKN030 26/25 Q1008 NOSIG
ZGNN,2015-06-05 08:00,ZGNN 050800Z 01003MPS 9999 FEW010 26/24 Q1006 NOSIG
ZGNN,2015-06-05 09:00,ZGNN 050900Z 02002MPS 320V060 9999 FEW010 26/24 Q1005 NOSIG
ZGNN,2015-06-05 10:00,ZGNN 051000Z 12002MPS 9999 SCT013 26/25 Q1005 NOSIG
ZGNN,2015-06-05 11:00,ZGNN 051100Z 14001MPS 7000 FEW013 SCT026 26/24 Q1006 NOSIG
ZGNN,2015-06-05 12:00,ZGNN 051200Z VRB01MPS 9999 FEW013 26/25 Q1006 NOSIG
ZGNN,2015-06-05 13:00,ZGNN 051300Z VRB01MPS 9999 SCT010 26/24 Q1007 NOSIG
ZGNN,2015-06-05 14:00,ZGNN 051400Z 15001MPS CAVOK 25/24 Q1007 NOSIG
ZGNN,2015-06-05 15:00,ZGNN 051500Z VRB01MPS 8000 NSC 25/24 Q1008 NOSIG
ZGNN,2015-06-05 16:00,ZGNN 051600Z VRB01MPS CAVOK 25/24 Q1007 NOSIG
ZGNN,2015-06-05 17:00,ZGNN 051700Z VRB01MPS CAVOK 25/24 Q1007 NOSIG
ZGNN,2015-06-05 18:00,ZGNN 051800Z VRB01MPS 6000 NSC 24/24 Q1007 NOSIG
ZGNN,2015-06-05 19:00,ZGNN 051900Z 36001MPS 5000 BR NSC 24/24 Q1006 NOSIG
ZGNN,2015-06-05 20:00,ZGNN 052000Z 04001MPS 5000 BR NSC 24/24 Q1006 NOSIG
ZGNN,2015-06-05 21:00,ZGNN 052100Z 05001MPS 5000 BR NSC 24/24 Q1006 NOSIG
ZGNN,2015-06-05 22:00,ZGNN 052200Z VRB01MPS 5000 BR BKN023 24/24 Q1006 NOSIG
ZGNN,2015-06-05 23:00,ZGNN 052300Z VRB01MPS 5000 BR SCT020 25/24 Q1007 NOSIG
ZGNN,2015-06-06 00:00,ZGNN 060000Z VRB01MPS 6000 BKN020 26/24 Q1007 NOSIG
ZGNN,2015-06-06 01:00,ZGNN 060100Z 13002MPS 080V180 7000 FEW010 28/24 Q1007 NOSIG
ZGNN,2015-06-06 02:00,ZGNN 060200Z 14003MPS 110V180 9999 SCT015 27/24 Q1007 NOSIG
ZGNN,2015-06-06 03:00,ZGNN 060300Z 14002MPS 100V180 9999 SCT015 28/24 Q1007 NOSIG
ZGNN,2015-06-06 04:00,ZGNN 060400Z 18002MPS 100V210 9999 SCT016 29/25 Q1007 NOSIG
ZGNN,2015-06-06 05:00,ZGNN 060500Z 23003MPS 9999 SCT016 28/25 Q1007 NOSIG
ZGNN,2015-06-06 06:00,ZGNN 060600Z VRB01MPS 9999 SCT020 31/25 Q1005 NOSIG
ZGNN,2015-06-06 07:00,ZGNN 060700Z 21002MPS 170V290 9999 SCT026 32/25 Q1005 NOSIG
ZGNN,2015-06-06 08:00,ZGNN 060800Z VRB02MPS 9999 SCT030 33/25 Q1004 NOSIG
ZGNN,2015-06-06 09:00,ZGNN 060900Z 25002MPS 190V290 9999 SCT030 32/25 Q1003 NOSIG
ZGNN,2015-06-06 10:00,ZGNN 061000Z 14002MPS 9999 FEW011 SCT033 31/25 Q1003 NOSIG
ZGNN,2015-06-06 11:00,ZGNN 061100Z 14004MPS 9999 FEW010 SCT026 30/25 Q1004 NOSIG
ZGNN,2015-06-06 12:00,ZGNN 061200Z 15003MPS 9999 SCT026 29/24 Q1004 NOSIG
ZGNN,2015-06-06 13:00,ZGNN 061300Z 16004MPS CAVOK 28/25 Q1005 NOSIG
ZGNN,2015-06-06 14:00,ZGNN 061400Z 17003MPS 140V200 CAVOK 28/25 Q1006 NOSIG
ZGNN,2015-06-06 15:00,ZGNN 061500Z 16003MPS CAVOK 28/25 Q1006 NOSIG
ZGNN,2015-06-06 16:00,ZGNN 061600Z 14003MPS CAVOK 27/25 Q1006 NOSIG
ZGNN,2015-06-06 17:00,ZGNN 061700Z 13002MPS CAVOK 27/25 Q1006 NOSIG
ZGNN,2015-06-06 18:00,ZGNN 061800Z 15004MPS 9999 SCT013 27/25 Q1005 NOSIG
ZGNN,2015-06-06 19:00,ZGNN 061900Z 15004MPS 9999 FEW013 27/25 Q1005 NOSIG
ZGNN,2015-06-06 20:00,ZGNN 062000Z 16002MPS 140V200 9999 FEW013 26/25 Q1005 NOSIG
ZGNN,2015-06-06 21:00,ZGNN 062100Z 13003MPS 9999 FEW013 26/24 Q1005 NOSIG
ZGNN,2015-06-06 22:00,ZGNN 062200Z 11002MPS 9999 SCT010 OVC040 25/24 Q1006 NOSIG
ZGNN,2015-06-06 23:00,ZGNN 062300Z 14002MPS 100V180 9999 SCT010 OVC046 25/24 Q1006 NOSIG
ZGNN,2015-06-07 00:00,ZGNN 070000Z 16004MPS 110V200 9999 SCT010 BKN046 26/24 Q1006 NOSIG
ZGNN,2015-06-07 01:00,ZGNN 070100Z 16004MPS 9999 SCT009 27/25 Q1006 NOSIG
ZGNN,2015-06-07 02:00,ZGNN 070200Z 15003MPS 110V200 9999 FEW013 28/25 Q1006 NOSIG
ZGNN,2015-06-07 03:00,ZGNN 070300Z 13004MPS 100V180 9999 FEW016 30/25 Q1006 NOSIG
ZGNN,2015-06-07 04:00,ZGNN 070400Z 14003MPS 100V170 9999 FEW015 SCT036 30/26 Q1006 NOSIG
ZGNN,2015-06-07 05:00,ZGNN 070500Z 15005MPS 100V170 9999 SCT016 30/26 Q1006 NOSIG
ZGNN,2015-06-07 06:00,ZGNN 070600Z 16005MPS 9999 FEW016 FEW030CB SCT046 31/24 Q1005 NOSIG
ZGNN,2015-06-07 07:00,ZGNN 070700Z 16005MPS 9999 FEW016 FEW030CB SCT043 31/24 Q1004 NOSIG
ZGNN,2015-06-07 08:00,ZGNN 070800Z 15005MPS 9999 FEW013 30/25 Q1004 NOSIG
ZGNN,2015-06-07 09:00,ZGNN 070900Z 17004MPS CAVOK 30/25 Q1004 NOSIG
ZGNN,2015-06-07 10:00,ZGNN 071000Z 13003MPS CAVOK 29/25 Q1003 NOSIG
ZGNN,2015-06-07 11:00,ZGNN 071100Z 14004MPS CAVOK 28/25 Q1004 NOSIG
ZGNN,2015-06-07 12:00,ZGNN 071200Z 13003MPS 110V180 CAVOK 27/25 Q1005 NOSIG
ZGNN,2015-06-07 13:00,ZGNN 071300Z VRB01MPS CAVOK 26/25 Q1005 NOSIG
ZGNN,2015-06-07 14:00,ZGNN 071400Z 00000MPS CAVOK 26/25 Q1006 NOSIG
ZGNN,2015-06-07 15:00,ZGNN 071500Z 16002MPS CAVOK 26/25 Q1006 NOSIG
ZGNN,2015-06-07 16:00,ZGNN 071600Z 16001MPS CAVOK 26/25 Q1006 NOSIG
ZGNN,2015-06-07 17:00,ZGNN 071700Z 10001MPS CAVOK 26/25 Q1005 NOSIG
ZGNN,2015-06-07 18:00,ZGNN 071800Z VRB01MPS 9999 SCT007 26/25 Q1005 NOSIG
ZGNN,2015-06-07 19:00,ZGNN 071900Z VRB01MPS 9999 SCT009 26/25 Q1005 NOSIG
ZGNN,2015-06-07 20:00,ZGNN 072000Z VRB01MPS 9999 FEW010 26/25 Q1005 NOSIG
ZGNN,2015-06-07 21:00,ZGNN 072100Z VRB01MPS 9999 SCT009 26/25 Q1005 NOSIG
ZGNN,2015-06-07 22:00,ZGNN 072200Z VRB01MPS 9999 SCT008 26/25 Q1005 NOSIG
ZGNN,2015-06-07 23:00,ZGNN 072300Z 11002MPS 080V150 9999 SCT008 26/25 Q1006 NOSIG
ZGNN,2015-06-08 00:00,ZGNN 080000Z 14003MPS 9999 SCT009 27/25 Q1006 NOSIG
ZGNN,2015-06-08 01:00,ZGNN 080100Z 14003MPS 110V180 9999 SCT009 27/25 Q1006 NOSIG
ZGNN,2015-06-08 02:00,ZGNN 080200Z 17003MPS 9999 SCT011 28/25 Q1006 NOSIG
ZGNN,2015-06-08 03:00,ZGNN 080300Z 17002MPS 140V240 9999 SCT013 29/25 Q1006 NOSIG
ZGNN,2015-06-08 04:00,ZGNN 080400Z 15005MPS 9999 SCT013 29/25 Q1006 NOSIG
ZGNN,2015-06-08 05:00,ZGNN 080500Z 14005MPS 120V190 9999 FEW013 30/25 Q1005 NOSIG
ZGNN,2015-06-08 06:00,ZGNN 080600Z 15005MPS 120V190 9999 SCT016 BKN040 30/25 Q1005 NOSIG
ZGNN,2015-06-08 07:00,ZGNN 080700Z 16005MPS 9999 TS SCT016 FEW030CB BKN040 29/25 Q1004 BECMG TL0820 NSW
ZGNN,2015-06-08 08:00,ZGNN 080800Z 15003MPS 130V200 9999 SCT015 SCT040 27/24 Q1004 RETS NOSIG
ZGNN,2015-06-08 09:00,ZGNN 080900Z 15003MPS 9999 SCT040 28/24 Q1004 NOSIG
ZGNN,2015-06-08 10:00,ZGNN 081000Z 12002MPS 100V180 9999 SCT040 28/24 Q1004 NOSIG
ZGNN,2015-06-08 11:00,ZGNN 081100Z 11002MPS 080V160 9999 SCT040 27/24 Q1004 NOSIG
ZGNN,2015-06-08 12:00,ZGNN 081200Z 08002MPS 9999 BKN043 27/24 Q1005 NOSIG
ZGNN,2015-06-08 13:00,ZGNN 081300Z 09002MPS 9999 BKN043 27/24 Q1005 NOSIG
ZGNN,2015-06-08 14:00,ZGNN 081400Z VRB01MPS 9999 BKN036 27/24 Q1006 NOSIG
ZGNN,2015-06-08 15:00,ZGNN 081500Z 14001MPS 9999 SCT009 BKN036 27/25 Q1007 NOSIG
ZGNN,2015-06-08 16:00,ZGNN 081600Z 13002MPS 9999 SCT009 BKN036 26/25 Q1007 NOSIG
ZGNN,2015-06-08 17:00,ZGNN 081700Z 13001MPS 9999 SCT007 BKN036 26/25 Q1006 NOSIG
ZGNN,2015-06-08 18:00,ZGNN 081800Z VRB01MPS 8000 SCT005 BKN036 26/25 Q1006 NOSIG
ZGNN,2015-06-08 19:00,ZGNN 081900Z VRB01MPS 8000 SCT005 BKN036 26/25 Q1005 NOSIG
ZGNN,2015-06-08 20:00,ZGNN 082000Z VRB01MPS 7000 FEW005 SCT036 25/25 Q1005 NOSIG
ZGNN,2015-06-08 21:00,ZGNN 082100Z VRB01MPS 6000 FEW005 SCT009 BKN036 25/25 Q1005 NOSIG
ZGNN,2015-06-08 22:00,ZGNN 082200Z 05002MPS 6000 FEW005 SCT010 26/25 Q1005 NOSIG
ZGNN,2015-06-08 23:00,ZGNN 082300Z 01002MPS 5000 BR FEW006 SCT013 26/25 Q1006 NOSIG
ZGNN,2015-06-09 00:00,ZGNN 090000Z 04002MPS 5000 BR FEW008 27/25 Q1006 NOSIG
ZGNN,2015-06-09 01:00,ZGNN 090100Z 12002MPS 060V160 9999 SCT010 28/25 Q1006 NOSIG
ZGNN,2015-06-09 02:00,ZGNN 090200Z VRB02MPS 9999 SCT013 30/25 Q1006 NOSIG
ZGNN,2015-06-09 03:00,ZGNN 090300Z VRB01MPS 9999 SCT016 BKN040 30/25 Q1006 NOSIG
ZGNN,2015-06-09 04:00,ZGNN 090400Z VRB01MPS 9999 SCT016 BKN040 32/25 Q1005 NOSIG
ZGNN,2015-06-09 05:00,ZGNN 090500Z 23002MPS 160V290 9999 SCT020 BKN043 32/25 Q1005 NOSIG
ZGNN,2015-06-09 06:00,ZGNN 090600Z 35003MPS 320V040 9999 SCT023 BKN043 33/26 Q1004 NOSIG
ZGNN,2015-06-09 07:00,ZGNN 090700Z 36003MPS 320V040 9999 SCT023 FEW026TCU SCT043 33/26 Q1003 NOSIG
ZGNN,2015-06-09 08:00,ZGNN 090800Z 13005G10MPS 080V170 9999 FEW015 SCT023 FEW026CB BKN033 29/25 Q1003 BECMG TSRA
ZGNN,2015-06-09 09:00,ZGNN 090900Z 33001MPS 9999 -TSRA SCT023 FEW026CB 25/25 Q1003 RESHRA BECMG TL0930 NSW
ZGNN,2015-06-09 10:00,ZGNN 091000Z VRB01MPS 9999 -SHRA FEW016 FEW030CB 25/25 Q1003 RETS NOSIG
ZGNN,2015-06-09 11:00,ZGNN 091100Z VRB01MPS 9999 -RA FEW013 25/25 Q1003 NOSIG
ZGNN,2015-06-09 12:00,ZGNN 091200Z 11001MPS 9999 FEW010 25/25 Q1004 NOSIG
ZGNN,2015-06-09 13:00,ZGNN 091300Z 05003MPS CAVOK 26/25 Q1004 NOSIG
ZGNN,2015-06-09 14:00,ZGNN 091400Z 05002MPS 6000 NSC 26/26 Q1005 NOSIG
ZGNN,2015-06-09 15:00,ZGNN 091500Z 03002MPS 6000 NSC 26/26 Q1005 NOSIG
ZGNN,2015-06-09 16:00,ZGNN 091600Z 04002MPS 6000 NSC 26/26 Q1005 NOSIG
ZGNN,2015-06-09 17:00,ZGNN 091700Z 00000MPS 6000 FEW009 26/26 Q1005 NOSIG
ZGNN,2015-06-09 18:00,ZGNN 091800Z 04002MPS 5000 BR FEW003 SCT005 26/26 Q1004 NOSIG
ZGNN,2015-06-09 19:00,ZGNN 091900Z 36001MPS 2500 BR SCT002 SCT003 26/26 Q1004 NOSIG
ZGNN,2015-06-09 20:00,ZGNN 092000Z 04002MPS 2500 BR SCT002 SCT003 26/26 Q1004 NOSIG
ZGNN,2015-06-09 21:00,ZGNN 092100Z VRB01MPS 2500 BR SCT002 SCT003 26/26 Q1004 BECMG TL2220 4000 BR
ZGNN,2015-06-09 22:00,ZGNN 092200Z 04002MPS 4000 BR SCT003 26/26 Q1005 NOSIG
ZGNN,2015-06-09 23:00,ZGNN 092300Z 04001MPS 3500 BR FEW005 26/26 Q1005 NOSIG
ZGNN,2015-06-10 00:00,ZGNN 100000Z VRB01MPS 9999 FEW005 28/27 Q1005 NOSIG
ZGNN,2015-06-10 01:00,ZGNN 100100Z 18002MPS 150V220 CAVOK 29/27 Q1005 NOSIG
ZGNN,2015-06-10 02:00,ZGNN 100200Z 16003MPS 130V190 9999 FEW020 30/27 Q1005 NOSIG
ZGNN,2015-06-10 03:00,ZGNN 100300Z VRB02MPS 9999 SCT020 31/26 Q1005 NOSIG
ZGNN,2015-06-10 04:00,ZGNN 100400Z 18003MPS 140V210 9999 SCT023 33/27 Q1004 NOSIG
ZGNN,2015-06-10 05:00,ZGNN 100500Z 15004MPS 110V190 9999 SCT030 33/26 Q1003 NOSIG
ZGNN,2015-06-10 06:00,ZGNN 100600Z 16005MPS 130V190 9999 SCT030 FEW033TCU 33/26 Q1003 NOSIG
ZGNN,2015-06-10 07:00,ZGNN 100700Z 16006MPS 9999 SCT030 FEW033CB 33/26 Q1001 TEMPO -TSRA
ZGNN,2015-06-10 08:00,ZGNN 100800Z 01002MPS 340V150 9999 -TSRA SCT016 FEW033CB 29/26 Q1002 RESHRA BECMG TL0840 NSW
ZGNN,2015-06-10 09:00,ZGNN 100900Z 11002MPS 080V170 9999 SCT023 FEW033CB 30/27 Q1002 RETS NOSIG
ZGNN,2015-06-10 10:00,ZGNN 101000Z 13003MPS 110V170 9999 FEW023 29/27 Q1001 RETS NOSIG
ZGNN,2015-06-10 11:00,ZGNN 101100Z 15002MPS 120V190 9999 FEW023 29/27 Q1002 NOSIG
ZGNN,2015-06-10 12:00,ZGNN 101200Z VRB01MPS CAVOK 29/27 Q1002 NOSIG
ZGNN,2015-06-10 13:00,ZGNN 101300Z 15002MPS 110V190 CAVOK 29/27 Q1003 NOSIG
ZGNN,2015-06-10 14:00,ZGNN 101400Z VRB01MPS CAVOK 29/27 Q1004 NOSIG
ZGNN,2015-06-10 15:00,ZGNN 101500Z 18001MPS CAVOK 28/27 Q1004 NOSIG
ZGNN,2015-06-10 16:00,ZGNN 101600Z VRB01MPS CAVOK 28/27 Q1005 NOSIG
ZGNN,2015-06-10 17:00,ZGNN 101700Z VRB01MPS CAVOK 27/27 Q1005 NOSIG
ZGNN,2015-06-10 18:00,ZGNN 101800Z 08001MPS CAVOK 28/27 Q1004 NOSIG
ZGNN,2015-06-10 19:00,ZGNN 101900Z 06002MPS CAVOK 27/27 Q1004 NOSIG
ZGNN,2015-06-10 20:00,ZGNN 102000Z 02002MPS 6000 NSC 27/26 Q1004 NOSIG
ZGNN,2015-06-10 21:00,ZGNN 102100Z 34002MPS 7000 NSC 27/26 Q1005 NOSIG
ZGNN,2015-06-10 22:00,ZGNN 102200Z VRB01MPS 7000 NSC 27/26 Q1005 NOSIG
ZGNN,2015-06-10 23:00,ZGNN 102300Z VRB01MPS 6000 FEW030CB 27/27 Q1006 BECMG TL2330 TSRA
ZGNN,2015-06-11 00:00,ZGNN 110000Z 33007MPS 9999 -SHRA SCT009 FEW030CB BKN046 25/24 Q1007 BECMG TSRA
ZGNN,2015-06-11 01:00,ZGNN 110100Z 02005MPS 350V050 9999 -SHRA FEW009 FEW030CB BKN040 24/23 Q1008 RESHRA NOSIG
ZGNN,2015-06-11 02:00,ZGNN 110200Z 36004MPS 9999 FEW009 SCT033 24/24 Q1008 NOSIG
ZGNN,2015-06-11 03:00,ZGNN 110300Z 32003MPS 290V350 9999 FEW011 26/24 Q1008 NOSIG
ZGNN,2015-06-11 04:00,ZGNN 110400Z 02003MPS 9999 SCT010 26/24 Q1008 NOSIG
ZGNN,2015-06-11 05:00,ZGNN 110500Z 05002MPS 9999 SCT013 26/24 Q1008 NOSIG
ZGNN,2015-06-11 06:00,ZGNN 110600Z 06002MPS 020V170 9999 FEW010 SCT016 27/24 Q1007 NOSIG
ZGNN,2015-06-11 07:00,ZGNN 110700Z 34002MPS 290V040 9999 SCT016 28/24 Q1007 NOSIG
ZGNN,2015-06-11 08:00,ZGNN 110800Z 05002MPS 010V100 9999 SCT016 28/24 Q1006 NOSIG
ZGNN,2015-06-11 09:00,ZGNN 110900Z 03002MPS 360V060 9999 SCT013 28/24 Q1006 NOSIG
ZGNN,2015-06-11 10:00,ZGNN 111000Z 06002MPS 9999 FEW013 28/24 Q1006 NOSIG
ZGNN,2015-06-11 11:00,ZGNN 111100Z 10003MPS 070V130 CAVOK 27/25 Q1006 NOSIG
ZGNN,2015-06-11 12:00,ZGNN 111200Z 10002MPS 9999 SCT043 26/24 Q1007 NOSIG
ZGNN,2015-06-11 13:00,ZGNN 111300Z 16002MPS 9999 SCT043 26/24 Q1009 NOSIG
ZGNN,2015-06-11 14:00,ZGNN 111400Z 12001MPS CAVOK 26/24 Q1009 NOSIG
ZGNN,2015-06-11 15:00,ZGNN 111500Z VRB01MPS CAVOK 26/24 Q1009 NOSIG
ZGNN,2015-06-11 16:00,ZGNN 111600Z 08003MPS CAVOK 25/24 Q1009 NOSIG
ZGNN,2015-06-11 17:00,ZGNN 111700Z 09002MPS 9999 SCT009 25/24 Q1008 NOSIG
ZGNN,2015-06-11 18:00,ZGNN 111800Z VRB01MPS 9999 SCT009 25/24 Q1008 NOSIG
ZGNN,2015-06-11 19:00,ZGNN 111900Z 10002MPS 9999 FEW009 24/23 Q1007 NOSIG
ZGNN,2015-06-11 20:00,ZGNN 112000Z 11001MPS 7000 NSC 24/24 Q1007 NOSIG
ZGNN,2015-06-11 21:00,ZGNN 112100Z VRB01MPS 5000 BR FEW016 24/24 Q1007 NOSIG
ZGNN,2015-06-11 22:00,ZGNN 112200Z VRB01MPS 6000 FEW015 24/24 Q1007 NOSIG
ZGNN,2015-06-11 23:00,ZGNN 112300Z 00000MPS 6000 SCT013 25/24 Q1008 NOSIG
ZGNN,2015-06-12 00:00,ZGNN 120000Z VRB01MPS 6000 SCT010 FEW030CB BKN040 25/24 Q1009 NOSIG
ZGNN,2015-06-12 01:00,ZGNN 120100Z VRB01MPS 9999 SCT009 BKN040 26/24 Q1009 NOSIG
ZGNN,2015-06-12 02:00,ZGNN 120200Z VRB01MPS 9999 SCT010 BKN040 28/25 Q1009 NOSIG
ZGNN,2015-06-12 03:00,ZGNN 120300Z VRB02MPS 9999 SCT013 BKN040 29/24 Q1008 NOSIG
ZGNN,2015-06-12 04:00,ZGNN 120400Z VRB02MPS 9999 FEW016 30/24 Q1008 NOSIG
ZGNN,2015-06-12 05:00,ZGNN 120500Z 24003MPS 200V280 9999 SCT026 31/25 Q1007 NOSIG
ZGNN,2015-06-12 06:00,ZGNN 120600Z 21004MPS 150V260 9999 SCT026 32/25 Q1006 NOSIG
ZGNN,2015-06-12 07:00,ZGNN 120700Z 22006MPS 9999 SCT026 33/23 Q1005 NOSIG
ZGNN,2015-06-12 08:00,ZGNN 120800Z 21006G11MPS 180V240 9999 SCT026 33/22 Q1005 NOSIG
ZGNN,2015-06-12 09:00,ZGNN 120900Z 23005MPS 9999 SCT030 33/21 Q1004 NOSIG
ZGNN,2015-06-12 10:00,ZGNN 121000Z 26002MPS 9999 SCT030 32/23 Q1004 NOSIG
ZGNN,2015-06-12 11:00,ZGNN 121100Z 15003MPS 9999 FEW026 30/25 Q1004 NOSIG
ZGNN,2015-06-12 12:00,ZGNN 121200Z 15002MPS CAVOK 29/25 Q1005 NOSIG
ZGNN,2015-06-12 13:00,ZGNN 121300Z VRB01MPS CAVOK 28/25 Q1006 NOSIG
ZGNN,2015-06-12 14:00,ZGNN 121400Z VRB01MPS CAVOK 28/25 Q1006 NOSIG
ZGNN,2015-06-12 15:00,ZGNN 121500Z VRB01MPS CAVOK 27/25 Q1007 NOSIG
ZGNN,2015-06-12 16:00,ZGNN 121600Z 15001MPS CAVOK 27/25 Q1007 NOSIG
ZGNN,2015-06-12 17:00,ZGNN 121700Z VRB01MPS CAVOK 27/25 Q1006 NOSIG
ZGNN,2015-06-12 18:00,ZGNN 121800Z VRB01MPS CAVOK 26/25 Q1006 NOSIG
ZGNN,2015-06-12 19:00,ZGNN 121900Z VRB01MPS CAVOK 26/26 Q1005 NOSIG
ZGNN,2015-06-12 20:00,ZGNN 122000Z VRB01MPS CAVOK 26/26 Q1005 NOSIG
ZGNN,2015-06-12 21:00,ZGNN 122100Z 00000MPS CAVOK 26/26 Q1005 NOSIG
ZGNN,2015-06-12 22:00,ZGNN 122200Z 36001MPS CAVOK 26/26 Q1005 NOSIG
ZGNN,2015-06-12 23:00,ZGNN 122300Z VRB01MPS CAVOK 27/26 Q1005 NOSIG
ZGNN,2015-06-13 00:00,ZGNN 130000Z VRB01MPS CAVOK 28/27 Q1006 NOSIG
ZGNN,2015-06-13 01:00,ZGNN 130100Z 19002MPS 150V220 CAVOK 28/26 Q1006 NOSIG
ZGNN,2015-06-13 02:00,ZGNN 130200Z 17002MPS 140V210 CAVOK 29/26 Q1006 NOSIG
ZGNN,2015-06-13 03:00,ZGNN 130300Z 15003MPS 130V190 9999 FEW016 30/25 Q1006 NOSIG
ZGNN,2015-06-13 04:00,ZGNN 130400Z 16003MPS 100V240 9999 SCT033 31/25 Q1006 NOSIG
ZGNN,2015-06-13 05:00,ZGNN 130500Z 16004MPS 9999 FEW023 BKN033 32/25 Q1005 NOSIG
ZGNN,2015-06-13 06:00,ZGNN 130600Z 18003MPS 140V210 9999 SCT030 BKN040 32/26 Q1004 NOSIG
ZGNN,2015-06-13 07:00,ZGNN 130700Z 17003MPS 130V210 9999 FEW020 32/26 Q1003 NOSIG
ZGNN,2015-06-13 08:00,ZGNN 130800Z 16002MPS 100V200 9999 -TSRA FEW020 FEW030CB 30/28 Q1003 BECMG TL0840 NSW
ZGNN,2015-06-13 09:00,ZGNN 130900Z 13003MPS 090V160 CAVOK 30/27 Q1002 RETS NOSIG
ZGNN,2015-06-13 10:00,ZGNN 131000Z 15004MPS 9999 FEW016 30/27 Q1002 NOSIG
ZGNN,2015-06-13 11:00,ZGNN 131100Z 15004MPS 9999 FEW016 30/26 Q1002 NOSIG
ZGNN,2015-06-13 12:00,ZGNN 131200Z 15003MPS 130V190 9999 FEW016 29/27 Q1003 NOSIG
ZGNN,2015-06-13 13:00,ZGNN 131300Z 16004MPS 130V190 9999 FEW016 29/26 Q1004 NOSIG
ZGNN,2015-06-13 14:00,ZGNN 131400Z 16003MPS 120V200 9999 FEW016 29/27 Q1004 NOSIG
ZGNN,2015-06-13 15:00,ZGNN 131500Z 16002MPS 9999 FEW016 28/27 Q1005 NOSIG
ZGNN,2015-06-13 16:00,ZGNN 131600Z 16002MPS 120V200 9999 FEW016 28/26 Q1004 NOSIG
ZGNN,2015-06-13 17:00,ZGNN 131700Z 13002MPS 9999 FEW016 27/26 Q1004 NOSIG
ZGNN,2015-06-13 18:00,ZGNN 131800Z VRB01MPS 9999 FEW016 27/26 Q1004 NOSIG
ZGNN,2015-06-13 19:00,ZGNN 131900Z VRB01MPS CAVOK 27/26 Q1003 NOSIG
ZGNN,2015-06-13 20:00,ZGNN 132000Z VRB01MPS CAVOK 27/26 Q1004 NOSIG
ZGNN,2015-06-13 21:00,ZGNN 132100Z VRB01MPS CAVOK 27/26 Q1005 NOSIG
ZGNN,2015-06-13 22:00,ZGNN 132200Z 35001MPS 9999 -SHRA NSC 27/26 Q1005 NOSIG
ZGNN,2015-06-13 23:00,ZGNN 132300Z 33001MPS 8000 -SHRA NSC 27/26 Q1006 NOSIG
ZGNN,2015-06-14 00:00,ZGNN 140000Z 12001MPS 9999 -SHRA NSC 27/26 Q1006 NOSIG
ZGNN,2015-06-14 01:00,ZGNN 140100Z 10002MPS 070V140 9999 -RA NSC 27/25 Q1006 NOSIG
ZGNN,2015-06-14 02:00,ZGNN 140200Z VRB01MPS 9999 -RA NSC 28/26 Q1007 NOSIG
ZGNN,2015-06-14 03:00,ZGNN 140300Z VRB01MPS 9999 FEW015 29/26 Q1007 NOSIG
ZGNN,2015-06-14 04:00,ZGNN 140400Z 16003MPS 9999 SCT016 30/26 Q1006 NOSIG
ZGNN,2015-06-14 05:00,ZGNN 140500Z 14002MPS 100V180 9999 SCT016 BKN040 31/26 Q1006 NOSIG
ZGNN,2015-06-14 06:00,ZGNN 140600Z 13004MPS 100V160 9999 SCT020 BKN040 31/26 Q1006 NOSIG
ZGNN,2015-06-14 07:00,ZGNN 140700Z 13004MPS 9999 SCT023 32/26 Q1005 NOSIG
ZGNN,2015-06-14 08:00,ZGNN 140800Z 15004MPS 9999 SCT023 31/25 Q1004 NOSIG
ZGNN,2015-06-14 09:00,ZGNN 140900Z 13005MPS 9999 SCT023 31/26 Q1003 NOSIG
ZGNN,2015-06-14 10:00,ZGNN 141000Z 15004MPS 9999 SCT023 30/25 Q1004 NOSIG
ZGNN,2015-06-14 11:00,ZGNN 141100Z 14003MPS 100V160 CAVOK 30/25 Q1004 NOSIG
ZGNN,2015-06-14 12:00,ZGNN 141200Z 15003MPS 120V190 CAVOK 29/24 Q1005 NOSIG
ZGNN,2015-06-14 13:00,ZGNN 141300Z VRB01MPS CAVOK 28/25 Q1005 NOSIG
ZGNN,2015-06-14 14:00,ZGNN 141400Z VRB01MPS CAVOK 28/25 Q1005 NOSIG
ZGNN,2015-06-14 15:00,ZGNN 141500Z 14004MPS CAVOK 28/25 Q1007 NOSIG
ZGNN,2015-06-14 16:00,ZGNN 141600Z 14003MPS 120V180 CAVOK 28/25 Q1007 NOSIG
ZGNN,2015-06-14 17:00,ZGNN 141700Z 14003MPS 110V170 CAVOK 27/25 Q1007 NOSIG
ZGNN,2015-06-14 18:00,ZGNN 141800Z 18001MPS CAVOK 27/25 Q1007 NOSIG
ZGNN,2015-06-14 19:00,ZGNN 141900Z VRB01MPS CAVOK 27/25 Q1007 NOSIG
ZGNN,2015-06-14 20:00,ZGNN 142000Z VRB01MPS CAVOK 27/25 Q1007 NOSIG
ZGNN,2015-06-14 21:00,ZGNN 142100Z VRB01MPS CAVOK 26/25 Q1006 NOSIG
ZGNN,2015-06-14 22:00,ZGNN 142200Z VRB01MPS CAVOK 26/25 Q1006 NOSIG
ZGNN,2015-06-14 23:00,ZGNN 142300Z 03002MPS CAVOK 26/26 Q1007 NOSIG
ZGNN,2015-06-15 00:00,ZGNN 150000Z VRB01MPS CAVOK 28/26 Q1008 NOSIG
ZGNN,2015-06-15 01:00,ZGNN 150100Z VRB01MPS 9999 FEW010 29/26 Q1008 NOSIG
ZGNN,2015-06-15 02:00,ZGNN 150200Z 16002MPS 120V200 9999 SCT020 31/25 Q1009 NOSIG
ZGNN,2015-06-15 03:00,ZGNN 150300Z 25002MPS 220V280 9999 SCT023 32/24 Q1008 NOSIG
ZGNN,2015-06-15 04:00,ZGNN 150400Z 19003MPS 150V230 9999 SCT030 33/24 Q1008 NOSIG
ZGNN,2015-06-15 05:00,ZGNN 150500Z 17003MPS 140V250 9999 FEW033 34/23 Q1007 NOSIG
ZGNN,2015-06-15 06:00,ZGNN 150600Z 18003MPS 120V230 9999 SCT036 35/21 Q1006 NOSIG
ZGNN,2015-06-15 07:00,ZGNN 150700Z 20005MPS 9999 SCT036 35/21 Q1005 NOSIG
ZGNN,2015-06-15 08:00,ZGNN 150800Z 14004MPS 9999 SCT036 33/24 Q1004 NOSIG
ZGNN,2015-06-15 09:00,ZGNN 150900Z 14005MPS 9999 FEW036 34/24 Q1004 NOSIG
ZGNN,2015-06-15 10:00,ZGNN 151000Z 15006MPS 9999 FEW036 33/24 Q1004 NOSIG
ZGNN,2015-06-15 11:00,ZGNN 151100Z 16006MPS 9999 FEW033 31/23 Q1005 NOSIG
ZGNN,2015-06-15 12:00,ZGNN 151200Z 15002MPS 120V230 CAVOK 30/24 Q1006 NOSIG
ZGNN,2015-06-15 13:00,ZGNN 151300Z 17002MPS 130V210 CAVOK 29/24 Q1007 NOSIG
ZGNN,2015-06-15 14:00,ZGNN 151400Z 16002MPS CAVOK 28/24 Q1007 NOSIG
ZGNN,2015-06-15 15:00,ZGNN 151500Z 14002MPS CAVOK 27/24 Q1008 NOSIG
ZGNN,2015-06-15 16:00,ZGNN 151600Z 18002MPS 150V220 CAVOK 27/25 Q1008 NOSIG
ZGNN,2015-06-15 17:00,ZGNN 151700Z VRB01MPS CAVOK 27/25 Q1007 NOSIG
ZGNN,2015-06-15 18:00,ZGNN 151800Z VRB01MPS CAVOK 27/25 Q1007 NOSIG
ZGNN,2015-06-15 19:00,ZGNN 151900Z 00000MPS CAVOK 26/25 Q1007 NOSIG
ZGNN,2015-06-15 20:00,ZGNN 152000Z 00000MPS CAVOK 26/24 Q1006 NOSIG
ZGNN,2015-06-15 21:00,ZGNN 152100Z 10001MPS CAVOK 26/25 Q1007 NOSIG
ZGNN,2015-06-15 22:00,ZGNN 152200Z 03002MPS CAVOK 26/25 Q1007 NOSIG
ZGNN,2015-06-15 23:00,ZGNN 152300Z 03002MPS CAVOK 26/25 Q1008 NOSIG
ZGNN,2015-06-16 00:00,ZGNN 160000Z VRB01MPS 9999 FEW006 28/26 Q1008 NOSIG
ZGNN,2015-06-16 01:00,ZGNN 160100Z 15002MPS 100V180 9999 SCT010 29/26 Q1008 NOSIG
ZGNN,2015-06-16 02:00,ZGNN 160200Z 14002MPS 080V210 9999 SCT023 31/25 Q1008 NOSIG
ZGNN,2015-06-16 03:00,ZGNN 160300Z 17002MPS 110V240 9999 SCT026 32/24 Q1008 NOSIG
ZGNN,2015-06-16 04:00,ZGNN 160400Z 18004MPS 140V220 9999 SCT030 33/24 Q1007 NOSIG
ZGNN,2015-06-16 05:00,ZGNN 160500Z 18005MPS 140V220 9999 SCT030 34/23 Q1006 NOSIG
ZGNN,2015-06-16 06:00,ZGNN 160600Z 17003MPS 140V210 9999 SCT030 FEW033TCU 34/24 Q1006 NOSIG
ZGNN,2015-06-16 07:00,ZGNN 160700Z 15005MPS 120V190 9999 SCT030 FEW033TCU 33/25 Q1005 NOSIG
ZGNN,2015-06-16 08:00,ZGNN 160800Z 16006MPS 110V180 9999 SCT030 FEW033CB 33/23 Q1004 NOSIG
ZGNN,2015-06-16 09:00,ZGNN 160900Z 19005MPS 140V260 9999 SCT030 FEW033TCU 32/24 Q1003 NOSIG
ZGNN,2015-06-16 10:00,ZGNN 161000Z 14003MPS 100V180 9999 FEW030 32/24 Q1003 NOSIG
ZGNN,2015-06-16 11:00,ZGNN 161100Z 16004MPS CAVOK 31/24 Q1003 NOSIG
ZGNN,2015-06-16 12:00,ZGNN 161200Z 16004MPS CAVOK 30/24 Q1004 NOSIG
ZGNN,2015-06-16 13:00,ZGNN 161300Z 17003MPS 140V200 CAVOK 29/24 Q1004 NOSIG
ZGNN,2015-06-16 14:00,ZGNN 161400Z 17002MPS CAVOK 28/24 Q1005 NOSIG
ZGNN,2015-06-16 15:00,ZGNN 161500Z 16001MPS CAVOK 27/24 Q1005 NOSIG
ZGNN,2015-06-16 16:00,ZGNN 161600Z 22001MPS CAVOK 26/24 Q1005 NOSIG
ZGNN,2015-06-16 17:00,ZGNN 161700Z 24002MPS 150V280 CAVOK 26/24 Q1005 NOSIG
ZGNN,2015-06-16 18:00,ZGNN 161800Z 00000MPS CAVOK 26/24 Q1005 NOSIG
ZGNN,2015-06-16 19:00,ZGNN 161900Z 26001MPS CAVOK 25/24 Q1005 NOSIG
ZGNN,2015-06-16 20:00,ZGNN 162000Z VRB01MPS CAVOK 25/24 Q1005 NOSIG
ZGNN,2015-06-16 21:00,ZGNN 162100Z 32001MPS CAVOK 24/23 Q1005 NOSIG
ZGNN,2015-06-16 22:00,ZGNN 162200Z 03002MPS CAVOK 24/23 Q1005 NOSIG
ZGNN,2015-06-16 23:00,ZGNN 162300Z VRB01MPS CAVOK 27/24 Q1005 NOSIG
ZGNN,2015-06-17 00:00,ZGNN 170000Z VRB01MPS CAVOK 28/23 Q1006 NOSIG
ZGNN,2015-06-17 01:00,ZGNN 170100Z VRB01MPS CAVOK 31/23 Q1006 NOSIG
ZGNN,2015-06-17 02:00,ZGNN 170200Z 19002MPS 110V270 9999 FEW026 31/23 Q1006 NOSIG
ZGNN,2015-06-17 03:00,ZGNN 170300Z 22002MPS 160V280 9999 SCT030 32/23 Q1005 NOSIG
ZGNN,2015-06-17 04:00,ZGNN 170400Z VRB02MPS 9999 FEW033 33/23 Q1005 NOSIG
ZGNN,2015-06-17 05:00,ZGNN 170500Z VRB01MPS 9999 SCT036 33/23 Q1004 NOSIG
ZGNN,2015-06-17 06:00,ZGNN 170600Z 22003MPS 180V260 9999 SCT036 35/23 Q1003 NOSIG
ZGNN,2015-06-17 07:00,ZGNN 170700Z 22002MPS 180V260 9999 SCT036 35/23 Q1002 NOSIG
ZGNN,2015-06-17 08:00,ZGNN 170800Z 13002MPS 100V160 9999 SCT036 35/24 Q1002 NOSIG
ZGNN,2015-06-17 09:00,ZGNN 170900Z 14004MPS 9999 SCT036 34/25 Q1001 NOSIG
ZGNN,2015-06-17 10:00,ZGNN 171000Z 16005MPS 9999 FEW040 32/25 Q1001 NOSIG
ZGNN,2015-06-17 11:00,ZGNN 171100Z 15005MPS CAVOK 32/24 Q1001 NOSIG
ZGNN,2015-06-17 12:00,ZGNN 171200Z 13002MPS 070V170 9999 SCT046 30/25 Q1001 NOSIG
ZGNN,2015-06-17 13:00,ZGNN 171300Z 15003MPS 120V180 CAVOK 29/25 Q1002 NOSIG
ZGNN,2015-06-17 14:00,ZGNN 171400Z VRB01MPS CAVOK 29/25 Q1003 NOSIG
ZGNN,2015-06-17 15:00,ZGNN 171500Z VRB01MPS CAVOK 28/25 Q1003 NOSIG
ZGNN,2015-06-17 16:00,ZGNN 171600Z 14002MPS 110V180 CAVOK 27/26 Q1004 NOSIG
ZGNN,2015-06-17 17:00,ZGNN 171700Z VRB01MPS CAVOK 27/25 Q1003 NOSIG
ZGNN,2015-06-17 18:00,ZGNN 171800Z 20002MPS 180V240 CAVOK 27/25 Q1003 NOSIG
ZGNN,2015-06-17 19:00,ZGNN 171900Z VRB01MPS CAVOK 27/25 Q1004 NOSIG
ZGNN,2015-06-17 20:00,ZGNN 172000Z VRB01MPS CAVOK 26/25 Q1004 NOSIG
ZGNN,2015-06-17 21:00,ZGNN 172100Z 02001MPS CAVOK 26/25 Q1004 NOSIG
ZGNN,2015-06-17 22:00,ZGNN 172200Z 09001MPS CAVOK 26/25 Q1004 NOSIG
ZGNN,2015-06-17 23:00,ZGNN 172300Z VRB01MPS CAVOK 26/25 Q1004 NOSIG
ZGNN,2015-06-18 00:00,ZGNN 180000Z VRB01MPS CAVOK 28/25 Q1005 NOSIG
ZGNN,2015-06-18 01:00,ZGNN 180100Z VRB01MPS CAVOK 30/25 Q1005 NOSIG
ZGNN,2015-06-18 02:00,ZGNN 180200Z 19003MPS 170V230 CAVOK 31/24 Q1005 NOSIG
ZGNN,2015-06-18 03:00,ZGNN 180300Z 17003MPS 140V220 9999 FEW030 32/24 Q1005 NOSIG
ZGNN,2015-06-18 04:00,ZGNN 180400Z VRB02MPS 9999 FEW030 33/23 Q1005 NOSIG
ZGNN,2015-06-18 05:00,ZGNN 180500Z 18002MPS 150V240 9999 FEW030 34/24 Q1004 NOSIG
ZGNN,2015-06-18 06:00,ZGNN 180600Z VRB01MPS 9999 SCT030 35/23 Q1003 NOSIG
ZGNN,2015-06-18 07:00,ZGNN 180700Z 32002MPS 240V050 9999 SCT030 36/24 Q1003 NOSIG
ZGNN,2015-06-18 08:00,ZGNN 180800Z VRB01MPS 9999 SCT030 36/23 Q1002 NOSIG
ZGNN,2015-06-18 09:00,ZGNN 180900Z 11003MPS 9999 SCT030 34/24 Q1001 NOSIG
ZGNN,2015-06-18 10:00,ZGNN 181000Z 12004MPS 9999 SCT030 33/25 Q1001 NOSIG
ZGNN,2015-06-18 11:00,ZGNN 181100Z 12003MPS 090V160 9999 SCT033 32/26 Q1002 NOSIG
ZGNN,2015-06-18 12:00,ZGNN 181200Z 15003MPS 9999 SCT040 31/26 Q1003 NOSIG
ZGNN,2015-06-18 13:00,ZGNN 181300Z 15003MPS 110V200 CAVOK 30/26 Q1004 NOSIG
ZGNN,2015-06-18 14:00,ZGNN 181400Z 14002MPS 110V190 CAVOK 29/26 Q1004 NOSIG
ZGNN,2015-06-18 15:00,ZGNN 181500Z VRB01MPS CAVOK 28/26 Q1005 NOSIG
ZGNN,2015-06-18 16:00,ZGNN 181600Z VRB01MPS CAVOK 28/26 Q1005 NOSIG
ZGNN,2015-06-18 17:00,ZGNN 181700Z 11002MPS CAVOK 28/26 Q1005 NOSIG
ZGNN,2015-06-18 18:00,ZGNN 181800Z VRB01MPS CAVOK 28/26 Q1005 NOSIG
ZGNN,2015-06-18 19:00,ZGNN 181900Z 08002MPS CAVOK 27/26 Q1004 NOSIG
ZGNN,2015-06-18 20:00,ZGNN 182000Z 12002MPS 100V180 9999 FEW010 27/26 Q1004 NOSIG
ZGNN,2015-06-18 21:00,ZGNN 182100Z 10001MPS CAVOK 27/26 Q1004 NOSIG
ZGNN,2015-06-18 22:00,ZGNN 182200Z VRB01MPS CAVOK 26/26 Q1005 NOSIG
ZGNN,2015-06-18 23:00,ZGNN 182300Z 10001MPS 9999 FEW010 27/26 Q1006 NOSIG
ZGNN,2015-06-19 00:00,ZGNN 190000Z 15002MPS 120V180 9999 FEW013 28/26 Q1006 NOSIG
ZGNN,2015-06-19 01:00,ZGNN 190100Z 18003MPS 140V220 9999 FEW013 30/25 Q1006 NOSIG
ZGNN,2015-06-19 02:00,ZGNN 190200Z 20002MPS 150V230 9999 FEW016 31/24 Q1006 NOSIG
ZGNN,2015-06-19 03:00,ZGNN 190300Z 24002MPS 170V290 9999 FEW020 33/23 Q1006 NOSIG
ZGNN,2015-06-19 04:00,ZGNN 190400Z VRB02MPS 9999 SCT033 34/22 Q1006 NOSIG
ZGNN,2015-06-19 05:00,ZGNN 190500Z 18003MPS 150V210 9999 SCT040 35/23 Q1005 NOSIG
ZGNN,2015-06-19 06:00,ZGNN 190600Z VRB01MPS 9999 SCT040 36/23 Q1005 NOSIG
ZGNN,2015-06-19 07:00,ZGNN 190700Z VRB01MPS 9999 SCT046 35/23 Q1004 NOSIG
ZGNN,2015-06-19 08:00,ZGNN 190800Z 12003MPS 090V160 9999 SCT046 35/24 Q1004 NOSIG
ZGNN,2015-06-19 09:00,ZGNN 190900Z 10003MPS 080V150 9999 SCT046 35/24 Q1003 NOSIG
ZGNN,2015-06-19 10:00,ZGNN 191000Z 14003MPS 9999 SCT036 34/25 Q1003 NOSIG
ZGNN,2015-06-19 11:00,ZGNN 191100Z 16003MPS 9999 FEW033 33/25 Q1003 NOSIG
ZGNN,2015-06-19 12:00,ZGNN 191200Z 15003MPS 9999 FEW033 31/25 Q1004 NOSIG
ZGNN,2015-06-19 13:00,ZGNN 191300Z 16003MPS CAVOK 31/24 Q1004 NOSIG
ZGNN,2015-06-19 14:00,ZGNN 191400Z 15001MPS CAVOK 30/25 Q1005 NOSIG
ZGNN,2015-06-19 15:00,ZGNN 191500Z VRB01MPS CAVOK 29/25 Q1006 NOSIG
ZGNN,2015-06-19 16:00,ZGNN 191600Z VRB01MPS CAVOK 28/25 Q1006 NOSIG
ZGNN,2015-06-19 17:00,ZGNN 191700Z VRB01MPS CAVOK 28/25 Q1006 NOSIG
ZGNN,2015-06-19 18:00,ZGNN 191800Z 12001MPS CAVOK 27/25 Q1005 NOSIG
ZGNN,2015-06-19 19:00,ZGNN 191900Z VRB01MPS CAVOK 27/25 Q1005 NOSIG
ZGNN,2015-06-19 20:00,ZGNN 192000Z 00000MPS CAVOK 27/25 Q1005 NOSIG
ZGNN,2015-06-19 21:00,ZGNN 192100Z 03002MPS CAVOK 26/25 Q1005 NOSIG
ZGNN,2015-06-19 22:00,ZGNN 192200Z VRB01MPS CAVOK 26/25 Q1005 NOSIG
ZGNN,2015-06-19 23:00,ZGNN 192300Z 11001MPS CAVOK 27/26 Q1006 NOSIG
ZGNN,2015-06-20 00:00,ZGNN 200000Z 12002MPS 090V200 9999 FEW040 28/26 Q1007 NOSIG
ZGNN,2015-06-20 01:00,ZGNN 200100Z 12003MPS 070V180 9999 FEW013 30/25 Q1007 NOSIG
ZGNN,2015-06-20 02:00,ZGNN 200200Z 16005MPS 120V180 9999 SCT023 32/25 Q1007 NOSIG
ZGNN,2015-06-20 03:00,ZGNN 200300Z 16004MPS 120V200 9999 SCT026 33/24 Q1007 NOSIG
ZGNN,2015-06-20 04:00,ZGNN 200400Z 16003MPS 120V220 9999 SCT033 34/25 Q1006 NOSIG
ZGNN,2015-06-20 05:00,ZGNN 200500Z 16003MPS 090V210 9999 SCT036 34/24 Q1005 NOSIG
ZGNN,2015-06-20 06:00,ZGNN 200600Z 15003MPS 050V200 9999 SCT036 35/24 Q1004 NOSIG
ZGNN,2015-06-20 07:00,ZGNN 200700Z 18003MPS 140V200 9999 BKN040 34/23 Q1004 NOSIG
ZGNN,2015-06-20 08:00,ZGNN 200800Z 21003MPS 130V270 9999 FEW033TCU BKN040 34/25 Q1003 NOSIG
ZGNN,2015-06-20 09:00,ZGNN 200900Z 17004MPS 140V200 9999 SCT040 35/23 Q1002 NOSIG
ZGNN,2015-06-20 10:00,ZGNN 201000Z 17004MPS 9999 SCT040 34/24 Q1002 NOSIG
ZGNN,2015-06-20 11:00,ZGNN 201100Z 15004MPS CAVOK 33/24 Q1002 NOSIG
ZGNN,2015-06-20 12:00,ZGNN 201200Z 14002MPS CAVOK 32/25 Q1003 NOSIG
ZGNN,2015-06-20 13:00,ZGNN 201300Z VRB01MPS CAVOK 31/24 Q1004 NOSIG
ZGNN,2015-06-20 14:00,ZGNN 201400Z 15002MPS 120V180 CAVOK 30/25 Q1004 NOSIG
ZGNN,2015-06-20 15:00,ZGNN 201500Z 13002MPS 090V180 CAVOK 29/25 Q1005 NOSIG
ZGNN,2015-06-20 16:00,ZGNN 201600Z VRB01MPS CAVOK 29/25 Q1005 NOSIG
ZGNN,2015-06-20 17:00,ZGNN 201700Z 12001MPS CAVOK 28/25 Q1005 NOSIG
ZGNN,2015-06-20 18:00,ZGNN 201800Z 12002MPS CAVOK 27/25 Q1005 NOSIG
ZGNN,2015-06-20 19:00,ZGNN 201900Z 13002MPS CAVOK 27/25 Q1004 NOSIG
ZGNN,2015-06-20 20:00,ZGNN 202000Z VRB01MPS 9999 FEW020 27/25 Q1004 NOSIG
ZGNN,2015-06-20 21:00,ZGNN 202100Z 14001MPS 9999 SCT013 27/25 Q1005 NOSIG
ZGNN,2015-06-20 22:00,ZGNN 202200Z 14002MPS 9999 FEW011 27/26 Q1005 NOSIG
ZGNN,2015-06-20 23:00,ZGNN 202300Z 12002MPS 9999 FEW011 28/26 Q1005 NOSIG
ZGNN,2015-06-21 00:00,ZGNN 210000Z 13002MPS 100V200 9999 FEW010 29/26 Q1005 NOSIG
ZGNN,2015-06-21 01:00,ZGNN 210100Z 15003MPS 100V210 9999 SCT015 30/25 Q1005 NOSIG
ZGNN,2015-06-21 02:00,ZGNN 210200Z 16003MPS 120V190 9999 SCT020 31/25 Q1005 NOSIG
ZGNN,2015-06-21 03:00,ZGNN 210300Z 15004MPS 090V210 9999 SCT026 32/24 Q1006 NOSIG
ZGNN,2015-06-21 04:00,ZGNN 210400Z 14003MPS 030V190 9999 SCT026 33/24 Q1005 NOSIG
ZGNN,2015-06-21 05:00,ZGNN 210500Z 15003MPS 090V200 9999 SCT026 34/23 Q1004 NOSIG
ZGNN,2015-06-21 06:00,ZGNN 210600Z VRB02MPS 9999 SCT030 35/22 Q1003 NOSIG
ZGNN,2015-06-21 07:00,ZGNN 210700Z VRB01MPS 9999 SCT030 35/22 Q1002 NOSIG
ZGNN,2015-06-21 08:00,ZGNN 210800Z 10002MPS 060V140 9999 SCT033 36/22 Q1001 NOSIG
ZGNN,2015-06-21 09:00,ZGNN 210900Z 11003MPS 9999 SCT033 34/22 Q1001 NOSIG
ZGNN,2015-06-21 10:00,ZGNN 211000Z 11003MPS 9999 FEW033 34/22 Q1001 NOSIG
ZGNN,2015-06-21 11:00,ZGNN 211100Z 10002MPS 080V160 CAVOK 33/23 Q1001 NOSIG
ZGNN,2015-06-21 12:00,ZGNN 211200Z 09003MPS 070V160 CAVOK 32/23 Q1001 NOSIG
ZGNN,2015-06-21 13:00,ZGNN 211300Z 08002MPS 060V140 CAVOK 32/24 Q1002 NOSIG
ZGNN,2015-06-21 14:00,ZGNN 211400Z 14003MPS 9999 BKN043 30/25 Q1003 NOSIG
ZGNN,2015-06-21 15:00,ZGNN 211500Z 17002MPS 120V210 9999 SCT043 29/25 Q1004 NOSIG
ZGNN,2015-06-21 16:00,ZGNN 211600Z 16003MPS 9999 BKN036 29/24 Q1004 NOSIG
ZGNN,2015-06-21 17:00,ZGNN 211700Z 14001MPS CAVOK 28/24 Q1003 NOSIG
ZGNN,2015-06-21 18:00,ZGNN 211800Z VRB01MPS 9999 FEW036 28/25 Q1003 NOSIG
ZGNN,2015-06-21 19:00,ZGNN 211900Z 00000MPS 9999 SCT033 28/25 Q1003 NOSIG
ZGNN,2015-06-21 20:00,ZGNN 212000Z 34002MPS 310V030 9999 SCT033 27/25 Q1002 NOSIG
ZGNN,2015-06-21 21:00,ZGNN 212100Z 10001MPS 9999 SCT033 27/25 Q1002 NOSIG
ZGNN,2015-06-21 22:00,ZGNN 212200Z 34001MPS 9999 SCT040 27/25 Q1002 NOSIG
ZGNN,2015-06-21 23:00,ZGNN 212300Z 28001MPS 9999 SCT040 27/25 Q1003 NOSIG
ZGNN,2015-06-22 00:00,ZGNN 220000Z VRB01MPS 9999 FEW033 30/24 Q1003 NOSIG
ZGNN,2015-06-22 01:00,ZGNN 220100Z 06002MPS 010V100 9999 FEW020 31/25 Q1003 NOSIG
ZGNN,2015-06-22 02:00,ZGNN 220200Z 05003MPS 340V120 9999 SCT023 32/25 Q1002 NOSIG
ZGNN,2015-06-22 03:00,ZGNN 220300Z 07002MPS 030V110 9999 BKN026 31/24 Q1002 NOSIG
ZGNN,2015-06-22 04:00,ZGNN 220400Z 07003MPS 360V100 9999 BKN026 FEW030TCU 32/24 Q1002 NOSIG
ZGNN,2015-06-22 05:00,ZGNN 220500Z 04003MPS 330V100 9999 SCT026 FEW030TCU 34/24 Q1001 NOSIG
ZGNN,2015-06-22 06:00,ZGNN 220600Z 06004MPS 020V100 9999 SCT030 FEW033TCU 33/23 Q1000 NOSIG
ZGNN,2015-06-22 07:00,ZGNN 220700Z 06005MPS 030V110 9999 SCT030 FEW033TCU 34/23 Q1000 NOSIG
ZGNN,2015-06-22 08:00,ZGNN 220800Z 10003MPS 030V120 9999 SCT030 FEW033TCU 33/23 Q0999 NOSIG
ZGNN,2015-06-22 09:00,ZGNN 220900Z 02003MPS 350V110 9999 SCT030 34/23 Q0999 NOSIG
ZGNN,2015-06-22 10:00,ZGNN 221000Z 36004MPS 9999 FEW030 34/24 Q0999 NOSIG
ZGNN,2015-06-22 11:00,ZGNN 221100Z 05004MPS 9999 FEW033 33/23 Q0999 NOSIG
ZGNN,2015-06-22 12:00,ZGNN 221200Z 09003MPS 040V180 9999 FEW033 32/24 Q0999 NOSIG
ZGNN,2015-06-22 13:00,ZGNN 221300Z 12002MPS 9999 SCT040 31/24 Q1000 NOSIG
ZGNN,2015-06-22 14:00,ZGNN 221400Z 11002MPS 080V170 CAVOK 31/25 Q1000 NOSIG
ZGNN,2015-06-22 15:00,ZGNN 221500Z 09003MPS 9999 FEW033 30/25 Q1001 NOSIG
ZGNN,2015-06-22 16:00,ZGNN 221600Z 09004MPS CAVOK 30/25 Q1001 NOSIG
ZGNN,2015-06-22 17:00,ZGNN 221700Z 08004MPS CAVOK 30/25 Q1001 NOSIG
ZGNN,2015-06-22 18:00,ZGNN 221800Z 06004MPS CAVOK 29/24 Q1000 NOSIG
ZGNN,2015-06-22 19:00,ZGNN 221900Z 06004MPS CAVOK 28/24 Q1000 NOSIG
ZGNN,2015-06-22 20:00,ZGNN 222000Z 03004MPS CAVOK 28/24 Q1000 NOSIG
ZGNN,2015-06-22 21:00,ZGNN 222100Z 04003MPS CAVOK 28/24 Q1000 NOSIG
ZGNN,2015-06-22 22:00,ZGNN 222200Z 06004MPS 9999 BKN040 28/24 Q1000 NOSIG
ZGNN,2015-06-22 23:00,ZGNN 222300Z 06003MPS 020V090 9999 BKN040 28/24 Q1001 NOSIG
ZGNN,2015-06-23 00:00,ZGNN 230000Z 05005MPS CAVOK 30/24 Q1001 NOSIG
ZGNN,2015-06-23 01:00,ZGNN 230100Z 05006MPS 9999 FEW020 31/23 Q1001 NOSIG
ZGNN,2015-06-23 02:00,ZGNN 230200Z 04006MPS 9999 SCT026 31/23 Q1001 NOSIG
ZGNN,2015-06-23 03:00,ZGNN 230300Z 05006MPS 030V090 9999 SCT026 BKN043 31/23 Q1001 NOSIG
ZGNN,2015-06-23 04:00,ZGNN 230400Z 04006MPS 9999 SCT030 BKN043 32/23 Q1000 NOSIG
ZGNN,2015-06-23 05:00,ZGNN 230500Z 05006MPS 9999 SCT033 BKN043 32/23 Q0999 NOSIG
ZGNN,2015-06-23 06:00,ZGNN 230600Z 04007MPS 9999 SCT033 BKN043 34/24 Q0998 NOSIG
ZGNN,2015-06-23 07:00,ZGNN 230700Z 07006MPS 9999 FEW033CB SCT033 BKN043 31/24 Q0998 NOSIG
ZGNN,2015-06-23 08:00,ZGNN 230800Z 07007MPS 040V100 9999 FEW030CB SCT030 BKN043 32/24 Q0998 NOSIG
ZGNN,2015-06-23 09:00,ZGNN 230900Z 09005MPS 9999 SCT030 BKN043 32/25 Q0997 NOSIG
ZGNN,2015-06-23 10:00,ZGNN 231000Z 06008MPS 9999 FEW030CB FEW030 31/25 Q0997 NOSIG
ZGNN,2015-06-23 11:00,ZGNN 231100Z 06006MPS 9999 FEW030 30/24 Q0998 NOSIG
ZGNN,2015-06-23 12:00,ZGNN 231200Z 06006MPS 030V090 9999 BKN040 30/25 Q0999 NOSIG
ZGNN,2015-06-23 13:00,ZGNN 231300Z 08004MPS 9999 FEW033 29/25 Q0999 NOSIG
ZGNN,2015-06-23 14:00,ZGNN 231400Z 07005MPS 9999 FEW033 29/24 Q1000 NOSIG
ZGNN,2015-06-23 15:00,ZGNN 231500Z 06005MPS 9999 SCT030 29/24 Q1000 NOSIG
ZGNN,2015-06-23 16:00,ZGNN 231600Z 06005MPS 9999 SCT020 BKN043 28/24 Q1000 NOSIG
ZGNN,2015-06-23 17:00,ZGNN 231700Z 08004MPS 9999 SCT016 BKN040 27/25 Q1000 NOSIG
ZGNN,2015-06-23 18:00,ZGNN 231800Z 06006MPS 9999 SCT020 BKN040 27/24 Q0999 NOSIG
ZGNN,2015-06-23 19:00,ZGNN 231900Z 08004MPS 9999 -RA SCT011 BKN033 27/25 Q0999 NOSIG
ZGNN,2015-06-23 20:00,ZGNN 232000Z 08004MPS 4000 -SHRA BR FEW004 SCT013 FEW033CB BKN033 26/25 Q0999 NOSIG
ZGNN,2015-06-23 21:00,ZGNN 232100Z 08003MPS 8000 -RA FEW005 SCT016 BKN033 26/25 Q0999 NOSIG
ZGNN,2015-06-23 22:00,ZGNN 232200Z 08004MPS 9000 FEW006 SCT016 BKN033 26/25 Q1000 NOSIG
ZGNN,2015-06-23 23:00,ZGNN 232300Z 07004MPS 8000 FEW008 SCT020 BKN033 26/25 Q1000 NOSIG
ZGNN,2015-06-24 00:00,ZGNN 240000Z 07005MPS 9999 -SHRA SCT010 FEW033CB BKN033 26/25 Q1001 NOSIG
ZGNN,2015-06-24 01:00,ZGNN 240100Z 07004MPS 040V110 9999 SCT013 27/25 Q1001 NOSIG
ZGNN,2015-06-24 02:00,ZGNN 240200Z 09006MPS 9999 SCT015 BKN040 29/25 Q1001 NOSIG
ZGNN,2015-06-24 03:00,ZGNN 240300Z 09006MPS 9999 FEW016 SCT026 29/25 Q1001 NOSIG
ZGNN,2015-06-24 04:00,ZGNN 240400Z 09005MPS 9999 FEW026TCU SCT026 30/24 Q1000 BECMG TL0410 TSRA
ZGNN,2015-06-24 05:00,ZGNN 240500Z 10003MPS 9999 -SHRA FEW023CB SCT023 BKN040 27/25 Q1000 NOSIG
ZGNN,2015-06-24 06:00,ZGNN 240600Z 07005MPS 040V120 9999 FEW026 SCT046 30/27 Q0999 NOSIG
ZGNN,2015-06-24 07:00,ZGNN 240700Z 14008G14MPS 2200 R05/1400D -SHRA SCT010 FEW023CB SCT023 BKN040 26/25 Q0999 BECMG TL0730 7000 NSW
ZGNN,2015-06-24 08:00,ZGNN 240800Z 12007MPS 9999 -SHRA FEW010 FEW023CB SCT023 BKN040 27/25 Q0999 NOSIG
ZGNN,2015-06-24 09:00,ZGNN 240900Z 11005MPS 080V150 9999 FEW013 SCT023 27/25 Q0998 NOSIG
ZGNN,2015-06-24 10:00,ZGNN 241000Z 12006MPS 9999 SCT016 SCT040 27/25 Q0998 NOSIG
ZGNN,2015-06-24 11:00,ZGNN 241100Z 13006MPS 5000 -SHRA FEW010 SCT020 FEW030CB BKN040 27/25 Q0999 NOSIG
ZGNN,2015-06-24 12:00,ZGNN 241200Z 11004MPS 090V150 9999 FEW010 SCT020 27/25 Q0999 NOSIG
ZGNN,2015-06-24 13:00,ZGNN 241300Z 11005MPS 9999 FEW010 SCT020 26/24 Q1000 NOSIG
ZGNN,2015-06-24 14:00,ZGNN 241400Z 13007G12MPS 100V160 9999 FEW010 SCT016 BKN040 28/24 Q1000 NOSIG
ZGNN,2015-06-24 15:00,ZGNN 241500Z 13004MPS 9999 FEW010 SCT016 BKN040 26/25 Q1001 NOSIG
ZGNN,2015-06-24 16:00,ZGNN 241600Z 12005MPS 9999 FEW013 SCT040 26/24 Q1001 NOSIG
ZGNN,2015-06-24 17:00,ZGNN 241700Z 10003MPS 060V130 9999 SCT013 BKN040 27/25 Q1001 NOSIG
ZGNN,2015-06-24 18:00,ZGNN 241800Z 09004MPS 9999 SCT013 BKN040 27/25 Q1000 NOSIG
ZGNN,2015-06-24 19:00,ZGNN 241900Z 13003MPS 9999 SCT016 BKN040 27/25 Q1000 NOSIG
ZGNN,2015-06-24 20:00,ZGNN 242000Z 12005MPS 9999 SCT016 BKN040 27/25 Q1000 NOSIG
ZGNN,2015-06-24 21:00,ZGNN 242100Z 11004MPS 9999 SCT016 BKN040 27/25 Q1000 NOSIG
ZGNN,2015-06-24 22:00,ZGNN 242200Z 13005MPS 9999 SCT016 BKN040 27/25 Q1000 NOSIG
ZGNN,2015-06-24 23:00,ZGNN 242300Z 13005MPS 9999 SCT013 BKN043 27/25 Q1001 NOSIG
ZGNN,2015-06-25 00:00,ZGNN 250000Z 15004MPS 9999 -RA SCT013 OVC040 27/25 Q1001 NOSIG
ZGNN,2015-06-25 01:00,ZGNN 250100Z 15002MPS 130V190 6000 -RA SCT013 OVC036 27/25 Q1002 NOSIG
ZGNN,2015-06-25 02:00,ZGNN 250200Z 15003MPS 120V180 9999 SCT016 OVC040 28/26 Q1002 NOSIG
ZGNN,2015-06-25 03:00,ZGNN 250300Z 16003MPS 130V210 9999 -SHRA SCT015 BKN040 28/26 Q1002 NOSIG
ZGNN,2015-06-25 04:00,ZGNN 250400Z 15005MPS 9999 SCT016 BKN040 30/26 Q1001 NOSIG
ZGNN,2015-06-25 05:00,ZGNN 250500Z 16006G11MPS 9999 SCT020 BKN043 31/26 Q1001 NOSIG
ZGNN,2015-06-25 06:00,ZGNN 250600Z 16006G11MPS 9999 FEW026 29/25 Q1001 NOSIG
ZGNN,2015-06-25 07:00,ZGNN 250700Z 15007MPS 9999 FEW026 31/26 Q1000 NOSIG
ZGNN,2015-06-25 08:00,ZGNN 250800Z 16007MPS 9999 FEW026 31/26 Q1000 NOSIG
ZGNN,2015-06-25 09:00,ZGNN 250900Z 16006MPS 9999 FEW026 30/26 Q1000 NOSIG
ZGNN,2015-06-25 10:00,ZGNN 251000Z 15005MPS 9999 SCT013 30/25 Q1000 NOSIG
ZGNN,2015-06-25 11:00,ZGNN 251100Z 16005MPS 110V180 9999 FEW016 30/25 Q1000 NOSIG
ZGNN,2015-06-25 12:00,ZGNN 251200Z 15004MPS CAVOK 29/25 Q1001 NOSIG
ZGNN,2015-06-25 13:00,ZGNN 251300Z 15004MPS CAVOK 28/25 Q1001 NOSIG
ZGNN,2015-06-25 14:00,ZGNN 251400Z 14004MPS CAVOK 28/25 Q1002 NOSIG
ZGNN,2015-06-25 15:00,ZGNN 251500Z 15004MPS CAVOK 28/25 Q1002 NOSIG
ZGNN,2015-06-25 16:00,ZGNN 251600Z 16002MPS 120V180 CAVOK 27/25 Q1002 NOSIG
ZGNN,2015-06-25 17:00,ZGNN 251700Z 15002MPS 110V180 CAVOK 27/25 Q1002 NOSIG
ZGNN,2015-06-25 18:00,ZGNN 251800Z 14002MPS CAVOK 27/25 Q1002 NOSIG
ZGNN,2015-06-25 19:00,ZGNN 251900Z VRB01MPS CAVOK 27/25 Q1002 NOSIG
ZGNN,2015-06-25 20:00,ZGNN 252000Z 15002MPS CAVOK 26/25 Q1002 NOSIG
ZGNN,2015-06-25 21:00,ZGNN 252100Z 12002MPS CAVOK 26/25 Q1002 NOSIG
ZGNN,2015-06-25 22:00,ZGNN 252200Z 14001MPS CAVOK 26/25 Q1002 NOSIG
ZGNN,2015-06-25 23:00,ZGNN 252300Z VRB01MPS CAVOK 27/25 Q1003 NOSIG
ZGNN,2015-06-26 00:00,ZGNN 260000Z 13003MPS 090V170 CAVOK 29/26 Q1003 NOSIG
ZGNN,2015-06-26 01:00,ZGNN 260100Z 15005MPS 120V190 9999 FEW010 30/25 Q1003 NOSIG
ZGNN,2015-06-26 02:00,ZGNN 260200Z 16004MPS 130V200 9999 SCT020 31/26 Q1003 NOSIG
ZGNN,2015-06-26 03:00,ZGNN 260300Z 14004MPS 9999 SCT023 32/26 Q1003 NOSIG
ZGNN,2015-06-26 04:00,ZGNN 260400Z 16004MPS 9999 BKN030 33/25 Q1003 NOSIG
ZGNN,2015-06-26 05:00,ZGNN 260500Z 15005MPS 120V180 9999 BKN033 34/26 Q1002 NOSIG
ZGNN,2015-06-26 06:00,ZGNN 260600Z 16006MPS 120V180 9999 FEW033TCU SCT040 33/26 Q1001 NOSIG
ZGNN,2015-06-26 07:00,ZGNN 260700Z 15005MPS 120V190 9999 -SHRA FEW033CB SCT040 32/26 Q1001 NOSIG
ZGNN,2015-06-26 08:00,ZGNN 260800Z 14007MPS 9999 FEW033TCU 33/26 Q1000 NOSIG
ZGNN,2015-06-26 09:00,ZGNN 260900Z 16007MPS 9999 FEW040 33/26 Q1000 NOSIG
ZGNN,2015-06-26 10:00,ZGNN 261000Z 15006MPS 9999 FEW040 32/26 Q1000 NOSIG
ZGNN,2015-06-26 11:00,ZGNN 261100Z 16005MPS 9999 FEW033 31/26 Q1001 NOSIG
ZGNN,2015-06-26 12:00,ZGNN 261200Z 16005MPS 140V200 CAVOK 30/26 Q1002 NOSIG
ZGNN,2015-06-26 13:00,ZGNN 261300Z 16004MPS 120V190 CAVOK 29/25 Q1003 NOSIG
ZGNN,2015-06-26 14:00,ZGNN 261400Z 18003MPS 140V210 CAVOK 29/25 Q1003 NOSIG
ZGNN,2015-06-26 15:00,ZGNN 261500Z 16002MPS CAVOK 28/26 Q1004 NOSIG
ZGNN,2015-06-26 16:00,ZGNN 261600Z 15003MPS CAVOK 28/26 Q1004 NOSIG
ZGNN,2015-06-26 17:00,ZGNN 261700Z 14003MPS 120V180 CAVOK 27/25 Q1004 NOSIG
ZGNN,2015-06-26 18:00,ZGNN 261800Z 13003MPS CAVOK 27/25 Q1004 NOSIG
ZGNN,2015-06-26 19:00,ZGNN 261900Z 14002MPS CAVOK 27/25 Q1004 NOSIG
ZGNN,2015-06-26 20:00,ZGNN 262000Z 13002MPS CAVOK 26/25 Q1004 NOSIG
ZGNN,2015-06-26 21:00,ZGNN 262100Z 15002MPS CAVOK 27/25 Q1004 NOSIG
ZGNN,2015-06-26 22:00,ZGNN 262200Z 13002MPS CAVOK 27/25 Q1004 NOSIG
ZGNN,2015-06-26 23:00,ZGNN 262300Z 15002MPS 9999 FEW030TCU 28/26 Q1004 NOSIG
ZGNN,2015-06-27 00:00,ZGNN 270000Z 16004MPS CAVOK 29/26 Q1005 NOSIG
ZGNN,2015-06-27 01:00,ZGNN 270100Z 16004MPS 9999 SCT013 31/26 Q1006 NOSIG
ZGNN,2015-06-27 02:00,ZGNN 270200Z 16004MPS 120V190 9999 SCT016 32/26 Q1006 NOSIG
ZGNN,2015-06-27 03:00,ZGNN 270300Z 17004MPS 140V210 9999 SCT026 33/25 Q1005 NOSIG
ZGNN,2015-06-27 04:00,ZGNN 270400Z 17003MPS 140V220 9999 SCT030 34/26 Q1005 NOSIG
ZGNN,2015-06-27 05:00,ZGNN 270500Z 16005MPS 130V190 9999 BKN033 34/26 Q1005 NOSIG
ZGNN,2015-06-27 06:00,ZGNN 270600Z 16006MPS 9999 SCT033 34/26 Q1004 NOSIG
ZGNN,2015-06-27 07:00,ZGNN 270700Z 14006MPS 9999 SCT033 35/26 Q1004 NOSIG
ZGNN,2015-06-27 08:00,ZGNN 270800Z 14007MPS 120V180 9999 SCT033 34/26 Q1003 NOSIG
ZGNN,2015-06-27 09:00,ZGNN 270900Z 16006MPS 9999 SCT033 33/26 Q1003 NOSIG
ZGNN,2015-06-27 10:00,ZGNN 271000Z 16005MPS 9999 SCT033 32/26 Q1003 NOSIG
ZGNN,2015-06-27 11:00,ZGNN 271100Z 15006MPS 9999 FEW033 32/26 Q1004 NOSIG
ZGNN,2015-06-27 12:00,ZGNN 271200Z 16004MPS CAVOK 30/26 Q1004 NOSIG
ZGNN,2015-06-27 13:00,ZGNN 271300Z 15002MPS 110V200 CAVOK 29/26 Q1005 NOSIG
ZGNN,2015-06-27 14:00,ZGNN 271400Z VRB01MPS CAVOK 29/26 Q1006 NOSIG
ZGNN,2015-06-27 15:00,ZGNN 271500Z 16003MPS CAVOK 28/25 Q1007 NOSIG
ZGNN,2015-06-27 16:00,ZGNN 271600Z VRB01MPS CAVOK 28/25 Q1007 NOSIG
ZGNN,2015-06-27 17:00,ZGNN 271700Z VRB01MPS CAVOK 27/25 Q1007 NOSIG
ZGNN,2015-06-27 18:00,ZGNN 271800Z 13002MPS CAVOK 27/25 Q1006 NOSIG
ZGNN,2015-06-27 19:00,ZGNN 271900Z 12002MPS CAVOK 26/25 Q1006 NOSIG
ZGNN,2015-06-27 20:00,ZGNN 272000Z 10002MPS CAVOK 27/25 Q1006 NOSIG
ZGNN,2015-06-27 21:00,ZGNN 272100Z VRB01MPS CAVOK 27/25 Q1007 NOSIG
ZGNN,2015-06-27 22:00,ZGNN 272200Z 05002MPS CAVOK 26/25 Q1007 NOSIG
ZGNN,2015-06-27 23:00,ZGNN 272300Z 08002MPS 040V100 CAVOK 27/25 Q1008 NOSIG
ZGNN,2015-06-28 00:00,ZGNN 280000Z 12002MPS 080V160 9999 SCT009 29/26 Q1008 NOSIG
ZGNN,2015-06-28 01:00,ZGNN 280100Z 16003MPS 140V200 9999 SCT020 30/26 Q1008 NOSIG
ZGNN,2015-06-28 02:00,ZGNN 280200Z 16002MPS 120V210 9999 FEW023 31/26 Q1008 NOSIG
ZGNN,2015-06-28 03:00,ZGNN 280300Z 14003MPS 100V220 9999 FEW023 33/25 Q1008 NOSIG
ZGNN,2015-06-28 04:00,ZGNN 280400Z 16004MPS 110V190 9999 FEW026 34/26 Q1007 NOSIG
ZGNN,2015-06-28 05:00,ZGNN 280500Z 15004MPS 110V190 9999 FEW033 34/25 Q1007 NOSIG
ZGNN,2015-06-28 06:00,ZGNN 280600Z 14005MPS 100V180 9999 FEW033 35/26 Q1006 NOSIG
ZGNN,2015-06-28 07:00,ZGNN 280700Z 16004MPS 130V190 9999 SCT036 35/26 Q1005 NOSIG
ZGNN,2015-06-28 08:00,ZGNN 280800Z 16006MPS 9999 FEW036CB FEW036 35/26 Q1004 NOSIG
ZGNN,2015-06-28 09:00,ZGNN 280900Z 16006MPS 9999 FEW033 34/26 Q1004 NOSIG
ZGNN,2015-06-28 10:00,ZGNN 281000Z 16005MPS 9999 SCT026 32/26 Q1004 NOSIG
ZGNN,2015-06-28 11:00,ZGNN 281100Z 16004MPS CAVOK 32/26 Q1005 NOSIG
ZGNN,2015-06-28 12:00,ZGNN 281200Z 14004MPS 100V200 9999 FEW020 30/26 Q1005 NOSIG
ZGNN,2015-06-28 13:00,ZGNN 281300Z 15003MPS 110V200 CAVOK 29/26 Q1006 NOSIG
ZGNN,2015-06-28 14:00,ZGNN 281400Z 15003MPS 120V180 CAVOK 29/26 Q1006 NOSIG
ZGNN,2015-06-28 15:00,ZGNN 281500Z 16003MPS 110V180 CAVOK 29/26 Q1007 NOSIG
ZGNN,2015-06-28 16:00,ZGNN 281600Z 16002MPS 120V200 CAVOK 28/26 Q1007 NOSIG
ZGNN,2015-06-28 17:00,ZGNN 281700Z 16002MPS CAVOK 28/26 Q1006 NOSIG
ZGNN,2015-06-28 18:00,ZGNN 281800Z 16001MPS CAVOK 28/26 Q1006 NOSIG
ZGNN,2015-06-28 19:00,ZGNN 281900Z VRB01MPS CAVOK 27/25 Q1005 NOSIG
ZGNN,2015-06-28 20:00,ZGNN 282000Z 15002MPS CAVOK 27/25 Q1006 NOSIG
ZGNN,2015-06-28 21:00,ZGNN 282100Z VRB01MPS CAVOK 27/25 Q1006 NOSIG
ZGNN,2015-06-28 22:00,ZGNN 282200Z 10001MPS CAVOK 27/25 Q1006 NOSIG
ZGNN,2015-06-28 23:00,ZGNN 282300Z VRB01MPS CAVOK 28/25 Q1007 NOSIG
ZGNN,2015-06-29 00:00,ZGNN 290000Z 16004MPS CAVOK 29/25 Q1007 NOSIG
ZGNN,2015-06-29 01:00,ZGNN 290100Z 16003MPS 130V190 CAVOK 31/25 Q1007 NOSIG
ZGNN,2015-06-29 02:00,ZGNN 290200Z 15004MPS 120V190 9999 FEW023 32/26 Q1007 NOSIG
ZGNN,2015-06-29 03:00,ZGNN 290300Z 16004MPS 110V200 9999 FEW023 33/26 Q1006 NOSIG
ZGNN,2015-06-29 04:00,ZGNN 290400Z 15005MPS 120V190 9999 SCT026 34/26 Q1005 NOSIG
ZGNN,2015-06-29 05:00,ZGNN 290500Z 16004MPS 110V200 9999 SCT030 35/26 Q1004 NOSIG
ZGNN,2015-06-29 06:00,ZGNN 290600Z 16005MPS 120V190 9999 SCT030 35/26 Q1003 NOSIG
ZGNN,2015-06-29 07:00,ZGNN 290700Z 14006MPS 9999 SCT030 35/26 Q1002 NOSIG
ZGNN,2015-06-29 08:00,ZGNN 290800Z 16006MPS 9999 SCT033 35/26 Q1001 NOSIG
ZGNN,2015-06-29 09:00,ZGNN 290900Z 15005MPS 130V190 9999 SCT033 35/27 Q1001 NOSIG
ZGNN,2015-06-29 10:00,ZGNN 291000Z 15007MPS 9999 SCT033 34/26 Q1001 NOSIG
ZGNN,2015-06-29 11:00,ZGNN 291100Z 15006MPS CAVOK 33/26 Q1001 NOSIG
ZGNN,2015-06-29 12:00,ZGNN 291200Z 15005MPS 120V180 CAVOK 31/26 Q1003 NOSIG
ZGNN,2015-06-29 13:00,ZGNN 291300Z 14002MPS 100V190 CAVOK 30/26 Q1004 NOSIG
ZGNN,2015-06-29 14:00,ZGNN 291400Z 15003MPS 130V190 CAVOK 30/26 Q1004 NOSIG
ZGNN,2015-06-29 15:00,ZGNN 291500Z 16003MPS 130V190 CAVOK 29/26 Q1004 NOSIG
ZGNN,2015-06-29 16:00,ZGNN 291600Z 16002MPS 120V200 CAVOK 29/26 Q1004 NOSIG
ZGNN,2015-06-29 17:00,ZGNN 291700Z 16002MPS CAVOK 28/26 Q1004 NOSIG
ZGNN,2015-06-29 18:00,ZGNN 291800Z 16002MPS CAVOK 28/26 Q1003 NOSIG
ZGNN,2015-06-29 19:00,ZGNN 291900Z 15002MPS CAVOK 28/26 Q1003 NOSIG
ZGNN,2015-06-29 20:00,ZGNN 292000Z VRB01MPS CAVOK 28/26 Q1003 NOSIG
ZGNN,2015-06-29 21:00,ZGNN 292100Z VRB01MPS CAVOK 28/25 Q1003 NOSIG
ZGNN,2015-06-29 22:00,ZGNN 292200Z 05001MPS CAVOK 27/25 Q1003 NOSIG
ZGNN,2015-06-29 23:00,ZGNN 292300Z 03002MPS CAVOK 28/26 Q1004 NOSIG
ZGNN,2015-06-30 00:00,ZGNN 300000Z 11003MPS 090V160 CAVOK 30/26 Q1004 NOSIG
ZGNN,2015-06-30 01:00,ZGNN 300100Z 13003MPS 110V180 CAVOK 31/26 Q1004 NOSIG
ZGNN,2015-06-30 02:00,ZGNN 300200Z 15003MPS 090V210 CAVOK 33/25 Q1004 NOSIG
ZGNN,2015-06-30 03:00,ZGNN 300300Z VRB02MPS 9999 FEW026 34/26 Q1004 NOSIG
ZGNN,2015-06-30 04:00,ZGNN 300400Z 18003MPS 140V260 9999 SCT030 35/25 Q1003 NOSIG
ZGNN,2015-06-30 05:00,ZGNN 300500Z 15004MPS 090V190 9999 SCT030 35/25 Q1002 NOSIG
ZGNN,2015-06-30 06:00,ZGNN 300600Z 14004MPS 090V230 9999 SCT033 36/27 Q1001 NOSIG
ZGNN,2015-06-30 07:00,ZGNN 300700Z 13006MPS 9999 SCT033 36/26 Q1000 NOSIG
ZGNN,2015-06-30 08:00,ZGNN 300800Z 15006MPS 110V180 9999 SCT033 36/26 Q1000 NOSIG
ZGNN,2015-06-30 09:00,ZGNN 300900Z 13006MPS 100V160 9999 SCT033 36/27 Q1000 NOSIG
ZGNN,2015-06-30 10:00,ZGNN 301000Z 14006MPS 9999 FEW033 34/26 Q1000 NOSIG
ZGNN,2015-06-30 11:00,ZGNN 301100Z 14003MPS 100V170 CAVOK 33/26 Q1000 NOSIG
ZGNN,2015-06-30 12:00,ZGNN 301200Z 14002MPS 100V200 CAVOK 32/26 Q1001 NOSIG
ZGNN,2015-06-30 13:00,ZGNN 301300Z 15003MPS CAVOK 31/26 Q1002 NOSIG
ZGNN,2015-06-30 14:00,ZGNN 301400Z 15002MPS CAVOK 30/26 Q1002 NOSIG
ZGNN,2015-06-30 15:00,ZGNN 301500Z VRB01MPS CAVOK 29/26 Q1003 NOSIG
ZGNN,2015-06-30 16:00,ZGNN 301600Z 15002MPS 120V190 CAVOK 29/26 Q1002 NOSIG
ZGNN,2015-06-30 17:00,ZGNN 301700Z VRB01MPS CAVOK 28/26 Q1002 NOSIG
ZGNN,2015-06-30 18:00,ZGNN 301800Z 12002MPS CAVOK 28/26 Q1002 NOSIG
ZGNN,2015-06-30 19:00,ZGNN 301900Z 10002MPS CAVOK 28/26 Q1001 NOSIG
ZGNN,2015-06-30 20:00,ZGNN 302000Z 12001MPS CAVOK 28/26 Q1001 NOSIG
ZGNN,2015-06-30 21:00,ZGNN 302100Z VRB01MPS CAVOK 28/26 Q1001 NOSIG
ZGNN,2015-06-30 22:00,ZGNN 302200Z VRB01MPS CAVOK 28/26 Q1002 NOSIG
ZGNN,2015-06-30 23:00,ZGNN 302300Z VRB01MPS CAVOK 28/26 Q1002 NOSIG
ZGNN,2015-07-01 00:00,ZGNN 010000Z 14002MPS CAVOK 30/26 Q1002 NOSIG
ZGNN,2015-07-01 01:00,ZGNN 010100Z 17002MPS 120V210 CAVOK 31/26 Q1003 NOSIG
ZGNN,2015-07-01 02:00,ZGNN 010200Z 14002MPS 050V200 CAVOK 33/26 Q1002 NOSIG
ZGNN,2015-07-01 03:00,ZGNN 010300Z VRB01MPS CAVOK 35/26 Q1002 NOSIG
ZGNN,2015-07-01 04:00,ZGNN 010400Z 16002MPS 090V250 CAVOK 36/25 Q1002 NOSIG
ZGNN,2015-07-01 05:00,ZGNN 010500Z 22004MPS 160V250 9999 FEW026 36/24 Q1001 NOSIG
ZGNN,2015-07-01 06:00,ZGNN 010600Z 14004MPS 110V180 9999 SCT026 36/25 Q1000 NOSIG
ZGNN,2015-07-01 07:00,ZGNN 010700Z 17002MPS 120V200 9999 SCT026 37/26 Q0999 NOSIG
ZGNN,2015-07-01 08:00,ZGNN 010800Z 15004MPS 120V180 9999 SCT026 36/26 Q0999 NOSIG
ZGNN,2015-07-01 09:00,ZGNN 010900Z 13004MPS 100V160 9999 SCT026 36/27 Q0998 NOSIG
ZGNN,2015-07-01 10:00,ZGNN 011000Z 14005MPS 9999 FEW030 34/27 Q0998 NOSIG
ZGNN,2015-07-01 11:00,ZGNN 011100Z 15004MPS 120V180 CAVOK 33/27 Q0999 NOSIG
ZGNN,2015-07-01 12:00,ZGNN 011200Z 14004MPS CAVOK 32/27 Q1000 NOSIG
ZGNN,2015-07-01 13:00,ZGNN 011300Z 14002MPS 120V190 CAVOK 31/27 Q1000 NOSIG
ZGNN,2015-07-01 14:00,ZGNN 011400Z 12002MPS 080V160 CAVOK 30/27 Q1001 NOSIG
ZGNN,2015-07-01 15:00,ZGNN 011500Z 13002MPS 100V160 CAVOK 30/27 Q1002 NOSIG
ZGNN,2015-07-01 16:00,ZGNN 011600Z 13002MPS CAVOK 29/27 Q1002 NOSIG
ZGNN,2015-07-01 17:00,ZGNN 011700Z 12002MPS CAVOK 29/27 Q1001 NOSIG
ZGNN,2015-07-01 18:00,ZGNN 011800Z VRB01MPS CAVOK 29/27 Q1000 NOSIG
ZGNN,2015-07-01 19:00,ZGNN 011900Z 12001MPS CAVOK 28/27 Q1000 NOSIG
ZGNN,2015-07-01 20:00,ZGNN 012000Z 14001MPS CAVOK 28/27 Q1000 NOSIG
ZGNN,2015-07-01 21:00,ZGNN 012100Z VRB01MPS CAVOK 28/27 Q1000 NOSIG
ZGNN,2015-07-01 22:00,ZGNN 012200Z 00000MPS CAVOK 28/27 Q1000 NOSIG
ZGNN,2015-07-01 23:00,ZGNN 012300Z VRB01MPS CAVOK 29/27 Q1000 NOSIG
ZGNN,2015-07-02 00:00,ZGNN 020000Z VRB01MPS CAVOK 31/26 Q1001 NOSIG
ZGNN,2015-07-02 01:00,ZGNN 020100Z 15002MPS 100V210 CAVOK 31/26 Q1001 NOSIG
ZGNN,2015-07-02 02:00,ZGNN 020200Z 14002MPS 090V180 CAVOK 32/27 Q1001 NOSIG
ZGNN,2015-07-02 03:00,ZGNN 020300Z 11002MPS 040V160 CAVOK 33/26 Q1001 NOSIG
ZGNN,2015-07-02 04:00,ZGNN 020400Z VRB02MPS CAVOK 35/27 Q1000 NOSIG
ZGNN,2015-07-02 05:00,ZGNN 020500Z VRB01MPS 9999 FEW040 36/26 Q1000 NOSIG
ZGNN,2015-07-02 06:00,ZGNN 020600Z VRB01MPS 9999 FEW040 37/25 Q0999 NOSIG
ZGNN,2015-07-02 07:00,ZGNN 020700Z 11002MPS 080V150 9999 SCT040 36/25 Q0998 NOSIG
ZGNN,2015-07-02 08:00,ZGNN 020800Z 14004MPS 100V180 9999 SCT040 36/27 Q0998 NOSIG
ZGNN,2015-07-02 09:00,ZGNN 020900Z 14006MPS 9999 FEW030CB SCT030 34/28 Q0998 NOSIG
ZGNN,2015-07-02 10:00,ZGNN 021000Z 15004MPS 120V180 9999 FEW030CB SCT030 32/25 Q0998 NOSIG
ZGNN,2015-07-02 11:00,ZGNN 021100Z 14003MPS 110V170 9999 SCT033 32/28 Q0998 NOSIG
ZGNN,2015-07-02 12:00,ZGNN 021200Z 13002MPS 100V200 9999 FEW033 31/27 Q0999 NOSIG
ZGNN,2015-07-02 13:00,ZGNN 021300Z 12002MPS 090V150 9999 FEW033 31/27 Q1000 NOSIG
ZGNN,2015-07-02 14:00,ZGNN 021400Z 14002MPS 120V190 9999 FEW033 30/27 Q1001 NOSIG
ZGNN,2015-07-02 15:00,ZGNN 021500Z 14003MPS 9999 SCT013 30/27 Q1001 NOSIG
ZGNN,2015-07-02 16:00,ZGNN 021600Z 12002MPS 9999 SCT013 30/27 Q1001 NOSIG
ZGNN,2015-07-02 17:00,ZGNN 021700Z VRB01MPS 9999 SCT009 29/27 Q1000 NOSIG
ZGNN,2015-07-02 18:00,ZGNN 021800Z 12002MPS 9999 SCT008 29/27 Q1000 NOSIG
ZGNN,2015-07-02 19:00,ZGNN 021900Z 14002MPS 9999 SCT009 29/27 Q1000 NOSIG
ZGNN,2015-07-02 20:00,ZGNN 022000Z VRB01MPS 9999 SCT009 29/27 Q0999 NOSIG
ZGNN,2015-07-02 21:00,ZGNN 022100Z 10001MPS CAVOK 28/27 Q0999 NOSIG
ZGNN,2015-07-02 22:00,ZGNN 022200Z 04002MPS 020V090 8000 NSC 28/27 Q0999 NOSIG
ZGNN,2015-07-02 23:00,ZGNN 022300Z 08002MPS CAVOK 29/27 Q1000 NOSIG
ZGNN,2015-07-03 00:00,ZGNN 030000Z 12003MPS 090V160 9999 SCT011 30/27 Q1000 NOSIG
ZGNN,2015-07-03 01:00,ZGNN 030100Z 14003MPS 9999 SCT013 31/27 Q1001 NOSIG
ZGNN,2015-07-03 02:00,ZGNN 030200Z 16003MPS 130V200 9999 FEW016 32/27 Q1001 NOSIG
ZGNN,2015-07-03 03:00,ZGNN 030300Z VRB02MPS 9999 FEW020 35/26 Q1001 NOSIG
ZGNN,2015-07-03 04:00,ZGNN 030400Z 14002MPS 090V200 9999 SCT030 36/25 Q1000 NOSIG
ZGNN,2015-07-03 05:00,ZGNN 030500Z VRB02MPS 9999 SCT030 SCT046 36/25 Q0999 NOSIG
ZGNN,2015-07-03 06:00,ZGNN 030600Z 17003MPS 090V220 9999 SCT030 FEW033TCU 37/25 Q0999 NOSIG
ZGNN,2015-07-03 07:00,ZGNN 030700Z 14004MPS 100V200 9999 SCT030 FEW033TCU 36/25 Q0998 NOSIG
ZGNN,2015-07-03 08:00,ZGNN 030800Z 14006MPS 120V180 9999 SCT030 FEW033TCU 35/27 Q0998 NOSIG
ZGNN,2015-07-03 09:00,ZGNN 030900Z 15005MPS 120V180 9999 SCT030 FEW033TCU 34/27 Q0997 NOSIG
ZGNN,2015-07-03 10:00,ZGNN 031000Z 15003MPS 9999 FEW033TCU FEW033 33/27 Q0997 NOSIG
ZGNN,2015-07-03 11:00,ZGNN 031100Z 01005MPS 9999 FEW026CB SCT026 32/26 Q0999 NOSIG
ZGNN,2015-07-03 12:00,ZGNN 031200Z 02003MPS 9999 SCT026 31/25 Q0999 NOSIG
ZGNN,2015-07-03 13:00,ZGNN 031300Z 05002MPS 340V110 9999 FEW026 31/25 Q1000 NOSIG
ZGNN,2015-07-03 14:00,ZGNN 031400Z VRB01MPS CAVOK 30/26 Q1000 NOSIG
ZGNN,2015-07-03 15:00,ZGNN 031500Z 15002MPS CAVOK 30/26 Q1000 NOSIG
ZGNN,2015-07-03 16:00,ZGNN 031600Z 31002MPS 260V050 CAVOK 29/27 Q1001 NOSIG
ZGNN,2015-07-03 17:00,ZGNN 031700Z 00000MPS 9999 FEW023 28/26 Q1001 NOSIG
ZGNN,2015-07-03 18:00,ZGNN 031800Z 22002MPS 180V280 9999 FEW016 28/26 Q1001 NOSIG
ZGNN,2015-07-03 19:00,ZGNN 031900Z 36001MPS CAVOK 28/25 Q1000 NOSIG
ZGNN,2015-07-03 20:00,ZGNN 032000Z 34001MPS 9999 SCT015 28/26 Q1000 NOSIG
ZGNN,2015-07-03 21:00,ZGNN 032100Z 21002MPS 9999 SCT009 28/25 Q1000 NOSIG
ZGNN,2015-07-03 22:00,ZGNN 032200Z 22001MPS 9999 SCT011 27/25 Q1000 NOSIG
ZGNN,2015-07-03 23:00,ZGNN 032300Z VRB01MPS 9999 BKN046 28/26 Q1000 NOSIG
ZGNN,2015-07-04 00:00,ZGNN 040000Z 35003MPS 9999 FEW007 SCT009 28/26 Q1001 NOSIG
ZGNN,2015-07-04 01:00,ZGNN 040100Z 34003MPS 310V010 6000 SCT010 OVC040 28/25 Q1002 NOSIG
ZGNN,2015-07-04 02:00,ZGNN 040200Z 36004MPS 330V030 9999 FEW013 28/25 Q1002 NOSIG
ZGNN,2015-07-04 03:00,ZGNN 040300Z 36006MPS 9999 FEW013 28/24 Q1002 NOSIG
ZGNN,2015-07-04 04:00,ZGNN 040400Z 36006MPS 9999 SCT016 FEW033CB BKN043 27/24 Q1002 NOSIG
ZGNN,2015-07-04 05:00,ZGNN 040500Z 01003MPS 9999 SCT020 OVC040 27/24 Q1002 NOSIG
ZGNN,2015-07-04 06:00,ZGNN 040600Z 03003MPS 360V070 9999 FEW010 SCT020 OVC040 28/24 Q1002 NOSIG
ZGNN,2015-07-04 07:00,ZGNN 040700Z VRB01MPS 9999 TS SCT023 FEW033CB BKN040 28/25 Q1002 BECMG TL0800 NSW
ZGNN,2015-07-04 08:00,ZGNN 040800Z 33003MPS 9999 SCT015 FEW033CB BKN040 28/25 Q1001 RETS NOSIG
ZGNN,2015-07-04 09:00,ZGNN 040900Z 34003MPS 310V020 9999 TS SCT020 FEW033CB BKN040 28/25 Q1001 BECMG TL1000 NSW
ZGNN,2015-07-04 10:00,ZGNN 041000Z 35005MPS 9999 SCT020 BKN040 28/25 Q1001 RETS NOSIG
ZGNN,2015-07-04 11:00,ZGNN 041100Z 36003MPS 9999 SCT013 OVC040 28/25 Q1001 NOSIG
ZGNN,2015-07-04 12:00,ZGNN 041200Z 35003MPS 320V020 9999 SCT016 OVC040 27/25 Q1002 NOSIG
ZGNN,2015-07-04 13:00,ZGNN 041300Z 34003MPS 9999 SCT016 OVC040 27/25 Q1003 NOSIG
ZGNN,2015-07-04 14:00,ZGNN 041400Z 02003MPS 350V060 9999 -RA SCT013 OVC040 26/25 Q1004 NOSIG
ZGNN,2015-07-04 15:00,ZGNN 041500Z 35003MPS 9999 -RA SCT010 OVC040 25/24 Q1005 NOSIG
ZGNN,2015-07-04 16:00,ZGNN 041600Z 36005MPS 9999 -RA SCT010 OVC040 24/23 Q1005 NOSIG
ZGNN,2015-07-04 17:00,ZGNN 041700Z 35005MPS 9999 -RA SCT010 OVC040 24/23 Q1005 NOSIG
ZGNN,2015-07-04 18:00,ZGNN 041800Z 35005MPS 9999 -RA SCT020 OVC046 24/22 Q1004 NOSIG
ZGNN,2015-07-04 19:00,ZGNN 041900Z 35005MPS 9999 SCT023 OVC040 24/22 Q1004 NOSIG
ZGNN,2015-07-04 20:00,ZGNN 042000Z 35004MPS 9999 -RA SCT020 OVC033 23/22 Q1004 NOSIG
ZGNN,2015-07-04 21:00,ZGNN 042100Z 35004MPS 9999 -RA SCT020 OVC033 23/21 Q1005 NOSIG
ZGNN,2015-07-04 22:00,ZGNN 042200Z 36004MPS 9999 -RA SCT020 OVC033 23/21 Q1005 NOSIG
ZGNN,2015-07-04 23:00,ZGNN 042300Z 36005MPS 9999 FEW010 SCT020 OVC033 23/21 Q1005 NOSIG
ZGNN,2015-07-05 00:00,ZGNN 050000Z 34003MPS 310V010 9999 FEW010 SCT020 BKN033 23/21 Q1006 NOSIG
ZGNN,2015-07-05 01:00,ZGNN 050100Z 02003MPS 9999 BKN033 24/21 Q1006 NOSIG
ZGNN,2015-07-05 02:00,ZGNN 050200Z 34004MPS 9999 SCT023 OVC033 25/21 Q1006 NOSIG
ZGNN,2015-07-05 03:00,ZGNN 050300Z 35003MPS 9999 -RA SCT023 OVC033 24/22 Q1006 NOSIG
ZGNN,2015-07-05 04:00,ZGNN 050400Z 34004MPS 320V030 9999 SCT023 BKN033 26/21 Q1006 NOSIG
ZGNN,2015-07-05 05:00,ZGNN 050500Z 36004MPS 330V030 9999 SCT020 BKN033 26/21 Q1005 NOSIG
ZGNN,2015-07-05 06:00,ZGNN 050600Z 35003MPS 9999 SCT020 BKN033 26/21 Q1005 NOSIG
ZGNN,2015-07-05 07:00,ZGNN 050700Z 34004MPS 310V010 9999 SCT020 BKN033 26/21 Q1004 NOSIG
ZGNN,2015-07-05 08:00,ZGNN 050800Z 32004MPS 9999 SCT020 BKN033 26/21 Q1004 NOSIG
ZGNN,2015-07-05 09:00,ZGNN 050900Z 33004MPS 9999 -RA SCT020 OVC033 26/22 Q1004 NOSIG
ZGNN,2015-07-05 10:00,ZGNN 051000Z 34005MPS 9999 FEW020 OVC030 26/22 Q1004 NOSIG
ZGNN,2015-07-05 11:00,ZGNN 051100Z 01004MPS 340V040 9999 FEW016 OVC026 26/21 Q1005 NOSIG
ZGNN,2015-07-05 12:00,ZGNN 051200Z 01003MPS 9999 OVC026 25/22 Q1005 NOSIG
ZGNN,2015-07-05 13:00,ZGNN 051300Z 33002MPS 300V020 9999 OVC030 25/22 Q1006 NOSIG
ZGNN,2015-07-05 14:00,ZGNN 051400Z 34002MPS 9999 OVC040 25/21 Q1006 NOSIG
ZGNN,2015-07-05 15:00,ZGNN 051500Z 32002MPS 290V010 9999 OVC040 25/21 Q1007 NOSIG
ZGNN,2015-07-05 16:00,ZGNN 051600Z 00000MPS 9999 OVC040 25/21 Q1007 NOSIG
ZGNN,2015-07-05 18:00,ZGNN 051800Z 34002MPS CAVOK 24/21 Q1005 NOSIG
ZGNN,2015-07-05 19:00,ZGNN 051900Z 33002MPS 290V350 9999 SCT033 24/21 Q1005 NOSIG
ZGNN,2015-07-05 20:00,ZGNN 052000Z 34003MPS 9999 SCT033 24/21 Q1005 NOSIG
ZGNN,2015-07-05 21:00,ZGNN 052100Z 34002MPS 9999 SCT033 24/21 Q1005 NOSIG
ZGNN,2015-07-05 22:00,ZGNN 052200Z 36002MPS 320V020 9999 SCT033 24/21 Q1005 NOSIG
ZGNN,2015-07-05 23:00,ZGNN 052300Z 36003MPS 9999 SCT033 24/21 Q1005 NOSIG
ZGNN,2015-07-06 00:00,ZGNN 060000Z 36002MPS 9999 FEW033 25/21 Q1005 NOSIG
ZGNN,2015-07-06 01:00,ZGNN 060100Z 35003MPS 320V020 9999 FEW033 26/21 Q1006 NOSIG
ZGNN,2015-07-06 02:00,ZGNN 060200Z 35005MPS 9999 SCT016 27/20 Q1006 NOSIG
ZGNN,2015-07-06 03:00,ZGNN 060300Z 01004MPS 340V040 9999 SCT026 BKN043 28/20 Q1005 NOSIG
ZGNN,2015-07-06 04:00,ZGNN 060400Z 34004MPS 300V010 9999 SCT026 29/20 Q1005 NOSIG
ZGNN,2015-07-06 05:00,ZGNN 060500Z 02003MPS 350V080 9999 SCT030 29/21 Q1005 NOSIG
ZGNN,2015-07-06 06:00,ZGNN 060600Z 36004MPS 9999 SCT030 28/21 Q1004 NOSIG
ZGNN,2015-07-06 07:00,ZGNN 060700Z 34005MPS 9999 FEW030 29/21 Q1004 NOSIG
ZGNN,2015-07-06 08:00,ZGNN 060800Z 35005MPS 9999 FEW033 28/21 Q1004 NOSIG
ZGNN,2015-07-06 09:00,ZGNN 060900Z 01003MPS 340V040 CAVOK 29/21 Q1003 NOSIG
ZGNN,2015-07-06 10:00,ZGNN 061000Z 03005MPS 9999 FEW033 29/21 Q1003 NOSIG
ZGNN,2015-07-06 11:00,ZGNN 061100Z 02004MPS 9999 FEW033 29/20 Q1003 NOSIG
ZGNN,2015-07-06 12:00,ZGNN 061200Z 01002MPS 9999 BKN046 28/20 Q1004 NOSIG
ZGNN,2015-07-06 13:00,ZGNN 061300Z VRB02MPS 9999 BKN046 28/20 Q1005 NOSIG
ZGNN,2015-07-06 14:00,ZGNN 061400Z 04003MPS CAVOK 27/21 Q1005 NOSIG
ZGNN,2015-07-06 15:00,ZGNN 061500Z 36002MPS CAVOK 26/21 Q1005 NOSIG
ZGNN,2015-07-06 16:00,ZGNN 061600Z 34002MPS CAVOK 26/20 Q1005 NOSIG
ZGNN,2015-07-06 17:00,ZGNN 061700Z VRB01MPS CAVOK 25/21 Q1005 NOSIG
ZGNN,2015-07-06 18:00,ZGNN 061800Z 31002MPS CAVOK 24/20 Q1004 NOSIG
ZGNN,2015-07-06 19:00,ZGNN 061900Z VRB01MPS CAVOK 24/20 Q1003 NOSIG
ZGNN,2015-07-06 20:00,ZGNN 062000Z 36003MPS CAVOK 24/20 Q1003 NOSIG
ZGNN,2015-07-06 21:00,ZGNN 062100Z 36003MPS CAVOK 24/20 Q1004 NOSIG
ZGNN,2015-07-06 22:00,ZGNN 062200Z 35002MPS CAVOK 23/20 Q1004 NOSIG
ZGNN,2015-07-06 23:00,ZGNN 062300Z 34002MPS CAVOK 24/20 Q1005 NOSIG
ZGNN,2015-07-07 00:00,ZGNN 070000Z 01003MPS CAVOK 25/20 Q1005 NOSIG
ZGNN,2015-07-07 01:00,ZGNN 070100Z 35005MPS CAVOK 27/20 Q1006 NOSIG
ZGNN,2015-07-07 02:00,ZGNN 070200Z 35005MPS 9999 FEW023 28/19 Q1006 NOSIG
ZGNN,2015-07-07 03:00,ZGNN 070300Z 36005MPS 330V040 9999 FEW030 29/19 Q1005 NOSIG
ZGNN,2015-07-07 04:00,ZGNN 070400Z 36005MPS 330V030 9999 FEW030 30/19 Q1005 NOSIG
ZGNN,2015-07-07 05:00,ZGNN 070500Z 36004MPS 330V050 9999 SCT030 31/19 Q1004 NOSIG
ZGNN,2015-07-07 06:00,ZGNN 070600Z 02005MPS 350V050 9999 SCT030 31/19 Q1003 NOSIG
ZGNN,2015-07-07 07:00,ZGNN 070700Z 36005MPS 320V050 9999 SCT030 31/19 Q1003 NOSIG
ZGNN,2015-07-07 08:00,ZGNN 070800Z 05005MPS 9999 SCT030 32/17 Q1003 NOSIG
ZGNN,2015-07-07 09:00,ZGNN 070900Z 36005MPS 330V040 9999 FEW030 33/17 Q1002 NOSIG
ZGNN,2015-07-07 10:00,ZGNN 071000Z 36004MPS 330V030 9999 FEW033 32/17 Q1002 NOSIG
ZGNN,2015-07-07 11:00,ZGNN 071100Z 34002MPS CAVOK 31/18 Q1003 NOSIG
ZGNN,2015-07-07 12:00,ZGNN 071200Z 02002MPS 340V050 CAVOK 29/18 Q1003 NOSIG
ZGNN,2015-07-07 13:00,ZGNN 071300Z VRB01MPS CAVOK 28/19 Q1004 NOSIG
ZGNN,2015-07-07 14:00,ZGNN 071400Z VRB01MPS CAVOK 25/20 Q1004 NOSIG
ZGNN,2015-07-07 15:00,ZGNN 071500Z VRB01MPS CAVOK 25/20 Q1005 NOSIG
ZGNN,2015-07-07 16:00,ZGNN 071600Z VRB01MPS CAVOK 25/19 Q1005 NOSIG
ZGNN,2015-07-07 17:00,ZGNN 071700Z VRB01MPS CAVOK 23/19 Q1005 NOSIG
ZGNN,2015-07-07 18:00,ZGNN 071800Z 34001MPS CAVOK 24/19 Q1005 NOSIG
ZGNN,2015-07-07 19:00,ZGNN 071900Z 00000MPS CAVOK 23/20 Q1004 NOSIG
ZGNN,2015-07-07 20:00,ZGNN 072000Z VRB01MPS CAVOK 23/20 Q1004 NOSIG
ZGNN,2015-07-07 21:00,ZGNN 072100Z 21001MPS CAVOK 22/20 Q1005 NOSIG
ZGNN,2015-07-07 22:00,ZGNN 072200Z VRB01MPS CAVOK 22/20 Q1005 NOSIG
ZGNN,2015-07-07 23:00,ZGNN 072300Z VRB01MPS CAVOK 22/20 Q1005 NOSIG
ZGNN,2015-07-08 00:00,ZGNN 080000Z 00000MPS CAVOK 25/20 Q1006 NOSIG
ZGNN,2015-07-08 01:00,ZGNN 080100Z 01003MPS 330V060 CAVOK 28/18 Q1006 NOSIG
ZGNN,2015-07-08 02:00,ZGNN 080200Z 36006MPS CAVOK 29/18 Q1005 NOSIG
ZGNN,2015-07-08 03:00,ZGNN 080300Z 03006MPS 9999 FEW026 30/17 Q1005 NOSIG
ZGNN,2015-07-08 04:00,ZGNN 080400Z 36006MPS 320V030 9999 FEW030 30/16 Q1005 NOSIG
ZGNN,2015-07-08 05:00,ZGNN 080500Z 02006MPS 350V050 9999 FEW030 30/17 Q1005 NOSIG
ZGNN,2015-07-08 06:00,ZGNN 080600Z 36006MPS CAVOK 30/16 Q1004 NOSIG
ZGNN,2015-07-08 07:00,ZGNN 080700Z 01006MPS 330V040 9999 FEW033 30/16 Q1004 NOSIG
ZGNN,2015-07-08 08:00,ZGNN 080800Z 03007MPS 9999 FEW033 31/16 Q1003 NOSIG
ZGNN,2015-07-08 09:00,ZGNN 080900Z 36005MPS 9999 FEW033 31/16 Q1003 NOSIG
ZGNN,2015-07-08 10:00,ZGNN 081000Z 01005MPS 340V040 CAVOK 30/16 Q1003 NOSIG
ZGNN,2015-07-08 11:00,ZGNN 081100Z 02004MPS CAVOK 29/17 Q1003 NOSIG
ZGNN,2015-07-08 12:00,ZGNN 081200Z 02003MPS CAVOK 28/17 Q1004 NOSIG
ZGNN,2015-07-08 13:00,ZGNN 081300Z 36002MPS CAVOK 27/18 Q1004 NOSIG
ZGNN,2015-07-08 14:00,ZGNN 081400Z 36003MPS CAVOK 26/19 Q1004 NOSIG
ZGNN,2015-07-08 15:00,ZGNN 081500Z 00000MPS CAVOK 25/18 Q1005 NOSIG
ZGNN,2015-07-08 16:00,ZGNN 081600Z 01002MPS CAVOK 25/18 Q1005 NOSIG
ZGNN,2015-07-08 17:00,ZGNN 081700Z 00000MPS CAVOK 25/19 Q1005 NOSIG
ZGNN,2015-07-08 18:00,ZGNN 081800Z VRB01MPS CAVOK 24/18 Q1005 NOSIG
ZGNN,2015-07-08 19:00,ZGNN 081900Z 29001MPS CAVOK 22/19 Q1004 NOSIG
ZGNN,2015-07-08 20:00,ZGNN 082000Z 25001MPS CAVOK 22/19 Q1004 NOSIG
ZGNN,2015-07-08 21:00,ZGNN 082100Z 32002MPS 280V340 CAVOK 22/19 Q1004 NOSIG
ZGNN,2015-07-08 22:00,ZGNN 082200Z 34002MPS CAVOK 24/18 Q1004 NOSIG
ZGNN,2015-07-08 23:00,ZGNN 082300Z 00000MPS CAVOK 23/19 Q1005 NOSIG
ZGNN,2015-07-09 00:00,ZGNN 090000Z 34002MPS 310V010 CAVOK 26/19 Q1005 NOSIG
ZGNN,2015-07-09 01:00,ZGNN 090100Z 34004MPS 9999 BKN043 27/19 Q1005 NOSIG
ZGNN,2015-07-09 02:00,ZGNN 090200Z 36006MPS 320V030 9999 BKN046 29/19 Q1005 NOSIG
ZGNN,2015-07-09 03:00,ZGNN 090300Z 35005MPS 9999 FEW020 SCT046 30/19 Q1004 NOSIG
ZGNN,2015-07-09 04:00,ZGNN 090400Z 35005MPS 320V020 9999 BKN040 29/19 Q1004 NOSIG
ZGNN,2015-07-09 05:00,ZGNN 090500Z 34006MPS 300V040 9999 BKN040 31/19 Q1003 NOSIG
ZGNN,2015-07-09 06:00,ZGNN 090600Z 36005MPS 310V040 9999 BKN040 32/19 Q1002 NOSIG
ZGNN,2015-07-09 07:00,ZGNN 090700Z 36006MPS 330V030 9999 BKN040 32/19 Q1001 NOSIG
ZGNN,2015-07-09 08:00,ZGNN 090800Z 36005MPS 9999 BKN046 31/20 Q1001 NOSIG
ZGNN,2015-07-09 09:00,ZGNN 090900Z 36005MPS 9999 BKN046 31/20 Q1001 NOSIG
ZGNN,2015-07-09 10:00,ZGNN 091000Z 02005MPS 9999 BKN046 31/20 Q1001 NOSIG
ZGNN,2015-07-09 11:00,ZGNN 091100Z 36004MPS 9999 BKN046 30/20 Q1002 NOSIG
ZGNN,2015-07-09 12:00,ZGNN 091200Z 01004MPS 9999 BKN046 30/20 Q1003 NOSIG
ZGNN,2015-07-09 13:00,ZGNN 091300Z 36004MPS 9999 BKN046 29/19 Q1004 NOSIG
ZGNN,2015-07-09 14:00,ZGNN 091400Z 36004MPS CAVOK 29/19 Q1004 NOSIG
ZGNN,2015-07-09 15:00,ZGNN 091500Z 35005MPS CAVOK 29/19 Q1004 NOSIG
ZGNN,2015-07-09 16:00,ZGNN 091600Z 35004MPS CAVOK 28/19 Q1004 NOSIG
ZGNN,2015-07-09 17:00,ZGNN 091700Z 35004MPS CAVOK 28/19 Q1004 NOSIG
ZGNN,2015-07-09 18:00,ZGNN 091800Z 35004MPS CAVOK 28/19 Q1003 NOSIG
ZGNN,2015-07-09 19:00,ZGNN 091900Z 35005MPS CAVOK 28/19 Q1003 NOSIG
ZGNN,2015-07-09 20:00,ZGNN 092000Z 35004MPS CAVOK 28/19 Q1002 NOSIG
ZGNN,2015-07-09 21:00,ZGNN 092100Z 35004MPS CAVOK 28/19 Q1002 NOSIG
ZGNN,2015-07-09 22:00,ZGNN 092200Z 36005MPS CAVOK 27/19 Q1003 NOSIG
ZGNN,2015-07-09 23:00,ZGNN 092300Z 34004MPS CAVOK 26/20 Q1004 NOSIG
ZGNN,2015-07-10 00:00,ZGNN 100000Z 33003MPS 8000 FEW033 25/21 Q1004 NOSIG
ZGNN,2015-07-10 01:00,ZGNN 100100Z 35005MPS 8000 FEW033 26/20 Q1004 NOSIG
ZGNN,2015-07-10 02:00,ZGNN 100200Z 36006MPS 8000 FEW033 27/20 Q1004 NOSIG
ZGNN,2015-07-10 03:00,ZGNN 100300Z 36008MPS 320V020 8000 NSC 28/20 Q1004 NOSIG
ZGNN,2015-07-10 04:00,ZGNN 100400Z 36008MPS 8000 FEW026 27/21 Q1004 NOSIG
ZGNN,2015-07-10 05:00,ZGNN 100500Z 34005MPS 310V010 6000 FEW026 25/22 Q1004 NOSIG
ZGNN,2015-07-10 06:00,ZGNN 100600Z 35007MPS 320V020 8000 FEW023 26/21 Q1003 NOSIG
ZGNN,2015-07-10 07:00,ZGNN 100700Z 36004MPS 4000 -RA BR SCT011 OVC043 25/23 Q1003 NOSIG
ZGNN,2015-07-10 08:00,ZGNN 100800Z 35004MPS 330V030 4000 -RA BR FEW007 SCT010 OVC036 24/23 Q1003 NOSIG
ZGNN,2015-07-10 09:00,ZGNN 100900Z 35006MPS 4000 -RA BR FEW007 SCT010 OVC036 24/23 Q1003 NOSIG
ZGNN,2015-07-10 10:00,ZGNN 101000Z 35006MPS 4000 -RA BR FEW007 SCT010 OVC036 24/23 Q1003 NOSIG
ZGNN,2015-07-10 11:00,ZGNN 101100Z 35005MPS 4500 -RA BR FEW008 SCT013 OVC036 24/23 Q1003 NOSIG
ZGNN,2015-07-10 12:00,ZGNN 101200Z 36004MPS 5000 -RA BR FEW010 OVC036 24/23 Q1004 NOSIG
ZGNN,2015-07-10 13:00,ZGNN 101300Z 36005MPS 5000 -RA BR FEW010 OVC036 24/23 Q1004 NOSIG
ZGNN,2015-07-10 14:00,ZGNN 101400Z 01004MPS 7000 OVC036 24/23 Q1004 NOSIG
ZGNN,2015-07-10 15:00,ZGNN 101500Z 01005MPS 7000 OVC043 25/23 Q1005 NOSIG
ZGNN,2015-07-10 16:00,ZGNN 101600Z 36004MPS 7000 OVC043 24/23 Q1004 NOSIG
ZGNN,2015-07-10 17:00,ZGNN 101700Z 36003MPS 7000 OVC043 24/23 Q1004 NOSIG
ZGNN,2015-07-10 18:00,ZGNN 101800Z 36004MPS 7000 NSC 24/23 Q1004 NOSIG
ZGNN,2015-07-10 19:00,ZGNN 101900Z 35004MPS 7000 NSC 24/22 Q1003 NOSIG
ZGNN,2015-07-10 20:00,ZGNN 102000Z 34002MPS 8000 NSC 24/22 Q1003 NOSIG
ZGNN,2015-07-10 21:00,ZGNN 102100Z VRB01MPS 8000 NSC 24/22 Q1003 NOSIG
ZGNN,2015-07-10 22:00,ZGNN 102200Z VRB01MPS 6000 NSC 24/22 Q1003 NOSIG
ZGNN,2015-07-10 23:00,ZGNN 102300Z VRB01MPS 8000 NSC 25/22 Q1004 NOSIG
ZGNN,2015-07-11 00:00,ZGNN 110000Z VRB01MPS 8000 NSC 25/23 Q1004 NOSIG
ZGNN,2015-07-11 01:00,ZGNN 110100Z 35003MPS 320V020 CAVOK 28/23 Q1005 NOSIG
ZGNN,2015-07-11 02:00,ZGNN 110200Z 35004MPS 320V020 CAVOK 28/22 Q1005 NOSIG
ZGNN,2015-07-11 03:00,ZGNN 110300Z 35004MPS 300V030 9999 FEW026 30/23 Q1005 NOSIG
ZGNN,2015-07-11 04:00,ZGNN 110400Z 01004MPS 330V050 9999 FEW026 30/23 Q1004 NOSIG
ZGNN,2015-07-11 05:00,ZGNN 110500Z 02004MPS 320V050 9999 SCT026 32/23 Q1003 NOSIG
ZGNN,2015-07-11 06:00,ZGNN 110600Z 35004MPS 330V030 9999 SCT030 32/23 Q1003 NOSIG
ZGNN,2015-07-11 07:00,ZGNN 110700Z 35005MPS 310V030 9999 SCT033 32/23 Q1002 NOSIG
ZGNN,2015-07-11 08:00,ZGNN 110800Z 35004MPS 300V030 9999 SCT033 34/23 Q1001 NOSIG
ZGNN,2015-07-11 09:00,ZGNN 110900Z 36004MPS 320V040 9999 FEW036 34/22 Q1001 NOSIG
ZGNN,2015-07-11 10:00,ZGNN 111000Z 36004MPS 9999 FEW033 33/22 Q1001 NOSIG
ZGNN,2015-07-11 11:00,ZGNN 111100Z 34003MPS 9999 FEW033 32/23 Q1001 NOSIG
ZGNN,2015-07-11 12:00,ZGNN 111200Z VRB01MPS 9999 FEW033 31/24 Q1002 NOSIG
ZGNN,2015-07-11 13:00,ZGNN 111300Z 00000MPS CAVOK 30/24 Q1002 NOSIG
ZGNN,2015-07-11 14:00,ZGNN 111400Z VRB01MPS CAVOK 28/25 Q1003 NOSIG
ZGNN,2015-07-11 15:00,ZGNN 111500Z VRB01MPS CAVOK 28/24 Q1003 NOSIG
ZGNN,2015-07-11 16:00,ZGNN 111600Z 28001MPS CAVOK 27/24 Q1003 NOSIG
ZGNN,2015-07-11 17:00,ZGNN 111700Z VRB01MPS CAVOK 26/24 Q1003 NOSIG
ZGNN,2015-07-11 18:00,ZGNN 111800Z 00000MPS CAVOK 25/24 Q1002 NOSIG
ZGNN,2015-07-11 19:00,ZGNN 111900Z 00000MPS CAVOK 26/24 Q1002 NOSIG
ZGNN,2015-07-11 20:00,ZGNN 112000Z 22001MPS CAVOK 25/24 Q1002 NOSIG
ZGNN,2015-07-11 21:00,ZGNN 112100Z VRB01MPS CAVOK 25/24 Q1002 NOSIG
ZGNN,2015-07-11 22:00,ZGNN 112200Z 00000MPS 8000 NSC 25/24 Q1002 NOSIG
ZGNN,2015-07-11 23:00,ZGNN 112300Z 17001MPS CAVOK 25/24 Q1002 NOSIG
ZGNN,2015-07-12 00:00,ZGNN 120000Z VRB01MPS CAVOK 27/24 Q1003 NOSIG
ZGNN,2015-07-12 01:00,ZGNN 120100Z VRB02MPS CAVOK 31/24 Q1004 NOSIG
ZGNN,2015-07-12 02:00,ZGNN 120200Z 31002MPS 270V360 CAVOK 32/24 Q1003 NOSIG
ZGNN,2015-07-12 03:00,ZGNN 120300Z 02003MPS 320V060 9999 SCT033 33/23 Q1003 NOSIG
ZGNN,2015-07-12 04:00,ZGNN 120400Z VRB02MPS 9999 SCT033 34/23 Q1003 NOSIG
ZGNN,2015-07-12 05:00,ZGNN 120500Z VRB02G07MPS 9999 SCT033 35/23 Q1002 NOSIG
ZGNN,2015-07-12 06:00,ZGNN 120600Z VRB02MPS 9999 SCT033 35/22 Q1001 NOSIG
ZGNN,2015-07-12 07:00,ZGNN 120700Z 03002MPS 340V060 9999 SCT033 34/22 Q1000 NOSIG
ZGNN,2015-07-12 08:00,ZGNN 120800Z VRB02MPS 9999 SCT033 36/22 Q1000 NOSIG
ZGNN,2015-07-12 09:00,ZGNN 120900Z 04002MPS 9999 SCT033 34/23 Q1000 NOSIG
ZGNN,2015-07-12 10:00,ZGNN 121000Z 03003MPS 9999 SCT033 34/23 Q1000 NOSIG
ZGNN,2015-07-12 11:00,ZGNN 121100Z VRB02MPS CAVOK 34/24 Q1000 NOSIG
ZGNN,2015-07-12 12:00,ZGNN 121200Z VRB01MPS CAVOK 32/24 Q1001 NOSIG
ZGNN,2015-07-12 13:00,ZGNN 121300Z 04002MPS CAVOK 31/25 Q1001 NOSIG
ZGNN,2015-07-12 14:00,ZGNN 121400Z VRB01MPS 7000 NSC 30/25 Q1002 NOSIG
ZGNN,2015-07-12 15:00,ZGNN 121500Z 00000MPS 6000 NSC 29/25 Q1003 NOSIG
ZGNN,2015-07-12 16:00,ZGNN 121600Z VRB01MPS 6000 NSC 28/25 Q1003 NOSIG
ZGNN,2015-07-12 17:00,ZGNN 121700Z VRB01MPS 6000 NSC 28/25 Q1003 NOSIG
ZGNN,2015-07-12 18:00,ZGNN 121800Z 33001MPS 6000 NSC 27/25 Q1002 NOSIG
ZGNN,2015-07-12 19:00,ZGNN 121900Z 30001MPS 5000 BR NSC 27/25 Q1002 NOSIG
ZGNN,2015-07-12 20:00,ZGNN 122000Z 00000MPS 5000 BR NSC 27/25 Q1002 NOSIG
ZGNN,2015-07-12 21:00,ZGNN 122100Z 04002MPS 5000 BR NSC 27/25 Q1002 NOSIG
ZGNN,2015-07-12 22:00,ZGNN 122200Z VRB01MPS 5000 BR NSC 27/25 Q1003 NOSIG
ZGNN,2015-07-12 23:00,ZGNN 122300Z VRB01MPS 3500 BR NSC 27/25 Q1003 NOSIG
ZGNN,2015-07-13 00:00,ZGNN 130000Z 03001MPS 4000 BR NSC 28/26 Q1004 NOSIG
ZGNN,2015-07-13 01:00,ZGNN 130100Z VRB01MPS 4500 BR FEW030TCU 29/26 Q1004 NOSIG
ZGNN,2015-07-13 02:00,ZGNN 130200Z 19003MPS 140V220 5000 BR FEW030TCU 29/26 Q1004 NOSIG
ZGNN,2015-07-13 03:00,ZGNN 130300Z 30002MPS 220V360 7000 NSC 32/26 Q1004 NOSIG
ZGNN,2015-07-13 04:00,ZGNN 130400Z VRB01MPS CAVOK 33/26 Q1003 NOSIG
ZGNN,2015-07-13 05:00,ZGNN 130500Z 30002MPS 240V040 CAVOK 36/25 Q1003 NOSIG
ZGNN,2015-07-13 06:00,ZGNN 130600Z VRB02MPS 9999 FEW033 35/24 Q1002 NOSIG
ZGNN,2015-07-13 07:00,ZGNN 130700Z VRB02MPS 9999 SCT033 35/24 Q1001 NOSIG
ZGNN,2015-07-13 08:00,ZGNN 130800Z 13002MPS 070V200 9999 SCT033 36/24 Q1000 NOSIG
ZGNN,2015-07-13 09:00,ZGNN 130900Z 06003MPS 340V120 9999 -SHRA SCT026 35/24 Q0999 NOSIG
ZGNN,2015-07-13 10:00,ZGNN 131000Z 05005MPS 9999 FEW026 SCT043 33/25 Q0999 NOSIG
ZGNN,2015-07-13 11:00,ZGNN 131100Z 02003MPS CAVOK 33/23 Q1000 NOSIG
ZGNN,2015-07-13 12:00,ZGNN 131200Z 12002MPS 100V180 CAVOK 31/24 Q1000 NOSIG
ZGNN,2015-07-13 13:00,ZGNN 131300Z VRB01MPS 7000 NSC 30/25 Q1001 NOSIG
ZGNN,2015-07-13 14:00,ZGNN 131400Z VRB01MPS 7000 NSC 29/26 Q1002 NOSIG
ZGNN,2015-07-13 15:00,ZGNN 131500Z 36002MPS 330V040 6000 NSC 29/26 Q1002 NOSIG
ZGNN,2015-07-13 16:00,ZGNN 131600Z VRB01MPS 6000 NSC 28/25 Q1002 NOSIG
ZGNN,2015-07-13 17:00,ZGNN 131700Z 00000MPS 6000 NSC 28/26 Q1002 NOSIG
ZGNN,2015-07-13 18:00,ZGNN 131800Z 00000MPS 5000 BR NSC 28/26 Q1002 NOSIG
ZGNN,2015-07-13 19:00,ZGNN 131900Z VRB01MPS 5000 BR NSC 27/26 Q1002 NOSIG
ZGNN,2015-07-13 20:00,ZGNN 132000Z VRB01MPS 6000 NSC 28/26 Q1002 NOSIG
ZGNN,2015-07-13 21:00,ZGNN 132100Z VRB01MPS 6000 NSC 27/26 Q1002 NOSIG
ZGNN,2015-07-13 22:00,ZGNN 132200Z 00000MPS 6000 NSC 27/25 Q1002 NOSIG
ZGNN,2015-07-13 23:00,ZGNN 132300Z 06001MPS 5000 BR NSC 27/26 Q1002 NOSIG
ZGNN,2015-07-14 00:00,ZGNN 140000Z 10002MPS 070V190 4000 BR NSC 29/26 Q1003 NOSIG
ZGNN,2015-07-14 01:00,ZGNN 140100Z VRB01MPS 5000 HZ NSC 31/26 Q1003 NOSIG
ZGNN,2015-07-14 02:00,ZGNN 140200Z VRB01MPS 8000 NSC 32/25 Q1003 NOSIG
ZGNN,2015-07-14 03:00,ZGNN 140300Z VRB01MPS CAVOK 33/24 Q1003 NOSIG
ZGNN,2015-07-14 04:00,ZGNN 140400Z 26002MPS 9999 SCT023 34/24 Q1002 NOSIG
ZGNN,2015-07-14 05:00,ZGNN 140500Z 25002MPS 170V330 9999 SCT030 35/24 Q1002 NOSIG
ZGNN,2015-07-14 06:00,ZGNN 140600Z VRB02MPS 9999 FEW033 35/24 Q1001 NOSIG
ZGNN,2015-07-14 07:00,ZGNN 140700Z VRB01MPS 9999 FEW036 36/23 Q1000 NOSIG
ZGNN,2015-07-14 08:00,ZGNN 140800Z 14002MPS 070V210 9999 FEW036 35/24 Q0999 NOSIG
ZGNN,2015-07-14 09:00,ZGNN 140900Z 17003MPS 140V200 9999 FEW036 36/24 Q0998 NOSIG
ZGNN,2015-07-14 10:00,ZGNN 141000Z 15003MPS 110V170 9999 FEW040 35/24 Q0998 NOSIG
ZGNN,2015-07-14 11:00,ZGNN 141100Z 15003MPS CAVOK 34/24 Q0999 NOSIG
ZGNN,2015-07-14 12:00,ZGNN 141200Z 17002MPS 140V200 CAVOK 33/25 Q0999 NOSIG
ZGNN,2015-07-14 13:00,ZGNN 141300Z 17002MPS CAVOK 32/26 Q1001 NOSIG
ZGNN,2015-07-14 14:00,ZGNN 141400Z VRB01MPS CAVOK 31/26 Q1001 NOSIG
ZGNN,2015-07-14 15:00,ZGNN 141500Z VRB01MPS 9999 SCT043 30/26 Q1001 NOSIG
ZGNN,2015-07-14 16:00,ZGNN 141600Z VRB01MPS CAVOK 29/26 Q1001 NOSIG
ZGNN,2015-07-14 17:00,ZGNN 141700Z 14001MPS CAVOK 29/26 Q1001 NOSIG
ZGNN,2015-07-14 18:00,ZGNN 141800Z 00000MPS 8000 NSC 28/26 Q1001 NOSIG
ZGNN,2015-07-14 19:00,ZGNN 141900Z VRB01MPS 8000 NSC 28/25 Q1000 NOSIG
ZGNN,2015-07-14 20:00,ZGNN 142000Z 13001MPS 7000 NSC 27/25 Q1000 NOSIG
ZGNN,2015-07-14 21:00,ZGNN 142100Z VRB01MPS 5000 BR NSC 27/25 Q1000 NOSIG
ZGNN,2015-07-14 22:00,ZGNN 142200Z 34001MPS 5000 BR NSC 27/25 Q1001 NOSIG
ZGNN,2015-07-14 23:00,ZGNN 142300Z 12001MPS 4500 BR NSC 27/25 Q1001 NOSIG
ZGNN,2015-07-15 00:00,ZGNN 150000Z VRB01MPS 6000 NSC 28/26 Q1001 NOSIG
ZGNN,2015-07-15 01:00,ZGNN 150100Z VRB01MPS 7000 NSC 30/25 Q1001 NOSIG
ZGNN,2015-07-15 02:00,ZGNN 150200Z 26003MPS 210V290 CAVOK 31/24 Q1002 NOSIG
ZGNN,2015-07-15 03:00,ZGNN 150300Z VRB02MPS 9999 FEW026 33/25 Q1001 NOSIG
ZGNN,2015-07-15 04:00,ZGNN 150400Z VRB01MPS 9999 FEW030 34/24 Q1001 NOSIG
ZGNN,2015-07-15 05:00,ZGNN 150500Z 21002MPS 160V290 9999 BKN040 34/23 Q1000 NOSIG
ZGNN,2015-07-15 06:00,ZGNN 150600Z VRB02MPS 9999 SCT040 35/23 Q0999 NOSIG
ZGNN,2015-07-15 07:00,ZGNN 150700Z 15004MPS 110V210 9999 SCT040 35/23 Q0999 NOSIG
ZGNN,2015-07-15 08:00,ZGNN 150800Z 15003MPS 110V210 9999 SCT040 35/23 Q0998 NOSIG
ZGNN,2015-07-15 09:00,ZGNN 150900Z 16003MPS 130V200 9999 SCT040 35/23 Q0998 NOSIG
ZGNN,2015-07-15 10:00,ZGNN 151000Z 16004MPS 130V190 CAVOK 34/24 Q0998 NOSIG
ZGNN,2015-07-15 11:00,ZGNN 151100Z 15003MPS CAVOK 33/25 Q0998 NOSIG
ZGNN,2015-07-15 12:00,ZGNN 151200Z 16003MPS 140V200 CAVOK 31/26 Q0999 NOSIG
ZGNN,2015-07-15 13:00,ZGNN 151300Z 16002MPS 140V200 CAVOK 30/26 Q1000 NOSIG
ZGNN,2015-07-15 14:00,ZGNN 151400Z VRB01MPS CAVOK 30/26 Q1001 NOSIG
ZGNN,2015-07-15 15:00,ZGNN 151500Z 00000MPS CAVOK 29/26 Q1001 NOSIG
ZGNN,2015-07-15 16:00,ZGNN 151600Z 12001MPS CAVOK 29/26 Q1001 NOSIG
ZGNN,2015-07-15 17:00,ZGNN 151700Z 32002MPS 9999 SCT011 28/26 Q1001 NOSIG
ZGNN,2015-07-15 18:00,ZGNN 151800Z 33002MPS 290V050 9999 SCT015 FEW026CB 28/26 Q1001 BECMG TL1830 TSRA
ZGNN,2015-07-15 19:00,ZGNN 151900Z 31002MPS 280V340 9999 SCT015 FEW026CB 28/24 Q1000 NOSIG
ZGNN,2015-07-15 20:00,ZGNN 152000Z 27003MPS 8000 -SHRA SCT016 FEW026CB BKN033 27/25 Q1001 NOSIG
ZGNN,2015-07-15 21:00,ZGNN 152100Z 24003MPS 9999 FEW020 FEW026CB 25/23 Q1000 NOSIG
ZGNN,2015-07-15 22:00,ZGNN 152200Z 32001MPS 9999 -SHRA FEW020 FEW026CB 26/24 Q1001 NOSIG
ZGNN,2015-07-15 23:00,ZGNN 152300Z VRB01MPS 9999 -TSRA FEW009 FEW026CB SCT033 25/24 Q1001 BECMG TL0020 NSW
ZGNN,2015-07-16 00:00,ZGNN 160000Z 29002MPS 260V350 9999 -TSRA FEW009 FEW026CB SCT033 25/24 Q1002 BECMG TL0020 NSW
ZGNN,2015-07-16 01:00,ZGNN 160100Z VRB01MPS 9999 -RA FEW009 SCT033 26/25 Q1002 NOSIG
ZGNN,2015-07-16 02:00,ZGNN 160200Z 23003MPS 200V300 9000 FEW005 SCT008 BKN033 26/25 Q1001 NOSIG
ZGNN,2015-07-16 03:00,ZGNN 160300Z VRB01MPS 9999 FEW010 SCT016 28/25 Q1001 NOSIG
ZGNN,2015-07-16 04:00,ZGNN 160400Z 19001MPS 9999 FEW010 BKN016 OVC040 28/25 Q1001 NOSIG
ZGNN,2015-07-16 05:00,ZGNN 160500Z VRB02MPS 9999 SCT020 30/25 Q1000 NOSIG
ZGNN,2015-07-16 06:00,ZGNN 160600Z VRB02MPS 9999 SCT023 32/24 Q1000 NOSIG
ZGNN,2015-07-16 07:00,ZGNN 160700Z 01003MPS 9999 SCT026 33/23 Q0999 NOSIG
ZGNN,2015-07-16 08:00,ZGNN 160800Z 34002MPS 280V050 9999 FEW030 33/24 Q0999 NOSIG
ZGNN,2015-07-16 09:00,ZGNN 160900Z 33003MPS 270V020 9999 FEW033 34/23 Q0998 NOSIG
ZGNN,2015-07-16 10:00,ZGNN 161000Z 32003MPS 270V360 9999 SCT043 34/23 Q0998 NOSIG
ZGNN,2015-07-16 11:00,ZGNN 161100Z 34002MPS 280V030 CAVOK 33/22 Q0999 NOSIG
ZGNN,2015-07-16 12:00,ZGNN 161200Z VRB01G06MPS CAVOK 31/25 Q0999 NOSIG
ZGNN,2015-07-16 13:00,ZGNN 161300Z 20001MPS CAVOK 30/25 Q1000 NOSIG
ZGNN,2015-07-16 14:00,ZGNN 161400Z 29002MPS CAVOK 29/25 Q1001 NOSIG
ZGNN,2015-07-16 15:00,ZGNN 161500Z VRB01MPS CAVOK 28/25 Q1002 NOSIG
ZGNN,2015-07-16 16:00,ZGNN 161600Z VRB01MPS CAVOK 28/25 Q1002 NOSIG
ZGNN,2015-07-16 17:00,ZGNN 161700Z 36002MPS CAVOK 27/25 Q1001 NOSIG
ZGNN,2015-07-16 18:00,ZGNN 161800Z VRB01MPS CAVOK 28/25 Q1001 NOSIG
ZGNN,2015-07-16 19:00,ZGNN 161900Z 04002MPS CAVOK 27/25 Q1001 NOSIG
ZGNN,2015-07-16 20:00,ZGNN 162000Z VRB01MPS CAVOK 27/25 Q1001 NOSIG
ZGNN,2015-07-16 21:00,ZGNN 162100Z 04002MPS CAVOK 27/25 Q1001 NOSIG
ZGNN,2015-07-16 22:00,ZGNN 162200Z VRB01MPS 7000 NSC 27/25 Q1001 NOSIG
ZGNN,2015-07-16 23:00,ZGNN 162300Z VRB01MPS 5000 BR FEW030TCU BKN036 27/26 Q1002 NOSIG
ZGNN,2015-07-17 00:00,ZGNN 170000Z VRB01MPS 5000 -SHRA BR FEW030TCU BKN036 27/26 Q1002 NOSIG
ZGNN,2015-07-17 01:00,ZGNN 170100Z 24002MPS 4000 -SHRA BR FEW013 FEW030CB BKN030 27/26 Q1003 BECMG TL0120 2000 TSRA
ZGNN,2015-07-17 02:00,ZGNN 170200Z 31004MPS 280V360 5000 -TSRA BR FEW006 SCT013 FEW030CB BKN030 25/24 Q1004 RESHRA BECMG TL0210 2000 TSRA
ZGNN,2015-07-17 03:00,ZGNN 170300Z 35005MPS 4000 -TSRA BR SCT013 FEW030CB BKN030 25/24 Q1004 RESHRA BECMG TL0320 -SHRA
ZGNN,2015-07-17 04:00,ZGNN 170400Z 33002MPS 290V010 8000 -SHRA FEW016 25/24 Q1003 RETS NOSIG
ZGNN,2015-07-17 05:00,ZGNN 170500Z VRB01MPS 9999 -SHRA NSC 25/24 Q1003 NOSIG
ZGNN,2015-07-17 06:00,ZGNN 170600Z VRB01MPS 9999 FEW020 26/24 Q1002 NOSIG
ZGNN,2015-07-17 07:00,ZGNN 170700Z 31002MPS 280V010 9999 FEW016 28/25 Q1001 NOSIG
ZGNN,2015-07-17 08:00,ZGNN 170800Z VRB01MPS 9999 FEW016 28/25 Q1001 NOSIG
ZGNN,2015-07-17 09:00,ZGNN 170900Z VRB01MPS 9999 FEW013 29/25 Q1001 NOSIG
ZGNN,2015-07-17 10:00,ZGNN 171000Z VRB01MPS CAVOK 29/25 Q1001 NOSIG
ZGNN,2015-07-17 11:00,ZGNN 171100Z VRB01MPS CAVOK 29/25 Q1001 NOSIG
ZGNN,2015-07-17 12:00,ZGNN 171200Z 30002MPS 280V360 CAVOK 28/25 Q1002 NOSIG
ZGNN,2015-07-17 13:00,ZGNN 171300Z VRB01MPS CAVOK 27/25 Q1002 NOSIG
ZGNN,2015-07-17 14:00,ZGNN 171400Z 24002MPS CAVOK 26/25 Q1003 NOSIG
ZGNN,2015-07-17 15:00,ZGNN 171500Z 26002MPS 230V300 CAVOK 26/24 Q1003 NOSIG
ZGNN,2015-07-17 16:00,ZGNN 171600Z VRB01MPS CAVOK 26/25 Q1003 NOSIG
ZGNN,2015-07-17 17:00,ZGNN 171700Z 00000MPS 7000 NSC 25/25 Q1003 NOSIG
ZGNN,2015-07-17 18:00,ZGNN 171800Z 26001MPS 5000 BR NSC 26/25 Q1003 NOSIG
ZGNN,2015-07-17 19:00,ZGNN 171900Z VRB01MPS 6000 SCT040 25/24 Q1002 NOSIG
ZGNN,2015-07-17 20:00,ZGNN 172000Z 03002MPS 6000 NSC 25/24 Q1002 NOSIG
ZGNN,2015-07-17 21:00,ZGNN 172100Z 06002MPS 6000 NSC 25/24 Q1002 NOSIG
ZGNN,2015-07-17 22:00,ZGNN 172200Z VRB01MPS 7000 NSC 25/24 Q1002 NOSIG
ZGNN,2015-07-17 23:00,ZGNN 172300Z 28002MPS 1800 R05/0300V0400N PRFG BR NSC 25/24 Q1003 BECMG TL2340 3100 BR
ZGNN,2015-07-18 00:00,ZGNN 180000Z 24001MPS 5000 BR FEW002 25/25 Q1004 NOSIG
ZGNN,2015-07-18 01:00,ZGNN 180100Z VRB01MPS 6000 NSC 28/25 Q1004 NOSIG
ZGNN,2015-07-18 02:00,ZGNN 180200Z 04003MPS 340V090 9999 FEW016 31/24 Q1004 NOSIG
ZGNN,2015-07-18 03:00,ZGNN 180300Z 05003MPS 020V090 9999 SCT026 32/24 Q1003 NOSIG
ZGNN,2015-07-18 04:00,ZGNN 180400Z 07003MPS 020V100 9999 SCT026 32/23 Q1003 NOSIG
ZGNN,2015-07-18 05:00,ZGNN 180500Z VRB02MPS 9999 SCT030 33/23 Q1002 NOSIG
ZGNN,2015-07-18 06:00,ZGNN 180600Z 02003MPS 330V060 9999 SCT030 33/24 Q1002 NOSIG
ZGNN,2015-07-18 07:00,ZGNN 180700Z 02003MPS 340V080 9999 SCT030 33/24 Q1001 NOSIG
ZGNN,2015-07-18 08:00,ZGNN 180800Z 11002MPS 010V180 9999 SCT030 34/23 Q1000 NOSIG
ZGNN,2015-07-18 09:00,ZGNN 180900Z 33002MPS 250V020 9999 SCT030 34/23 Q1000 NOSIG
ZGNN,2015-07-18 10:00,ZGNN 181000Z 08002MPS 030V190 9999 FEW030 33/23 Q1000 NOSIG
ZGNN,2015-07-18 11:00,ZGNN 181100Z 10003MPS 9999 FEW046 32/23 Q1001 NOSIG
ZGNN,2015-07-18 12:00,ZGNN 181200Z 09002MPS 070V140 8000 NSC 32/23 Q1001 NOSIG
ZGNN,2015-07-18 13:00,ZGNN 181300Z 08002MPS 6000 NSC 30/24 Q1001 NOSIG
ZGNN,2015-07-18 14:00,ZGNN 181400Z 02002MPS 5000 HZ NSC 29/24 Q1002 NOSIG
ZGNN,2015-07-18 15:00,ZGNN 181500Z 35001MPS 5000 HZ NSC 29/24 Q1003 NOSIG
ZGNN,2015-07-18 16:00,ZGNN 181600Z VRB01MPS 5000 BR NSC 28/24 Q1003 NOSIG
ZGNN,2015-07-18 17:00,ZGNN 181700Z VRB01MPS 5000 BR NSC 27/24 Q1003 NOSIG
ZGNN,2015-07-18 18:00,ZGNN 181800Z 33001MPS 5000 BR NSC 27/23 Q1002 NOSIG
ZGNN,2015-07-18 19:00,ZGNN 181900Z VRB01MPS 5000 BR NSC 26/24 Q1002 NOSIG
ZGNN,2015-07-18 20:00,ZGNN 182000Z VRB01MPS 4000 BR NSC 26/24 Q1001 NOSIG
ZGNN,2015-07-18 21:00,ZGNN 182100Z 30001MPS 3200 BR NSC 26/24 Q1002 NOSIG
ZGNN,2015-07-18 22:00,ZGNN 182200Z VRB01MPS 3200 BR NSC 26/23 Q1002 NOSIG
ZGNN,2015-07-18 23:00,ZGNN 182300Z 21001MPS 3100 BR NSC 26/24 Q1003 NOSIG
ZGNN,2015-07-19 00:00,ZGNN 190000Z VRB01MPS 3500 BR NSC 28/24 Q1003 NOSIG
ZGNN,2015-07-19 01:00,ZGNN 190100Z 05002MPS 010V090 6000 NSC 30/24 Q1004 NOSIG
ZGNN,2015-07-19 02:00,ZGNN 190200Z 07003MPS 010V100 6000 NSC 31/24 Q1004 NOSIG
ZGNN,2015-07-19 03:00,ZGNN 190300Z 06004MPS 030V090 9999 SCT026 32/24 Q1003 NOSIG
ZGNN,2015-07-19 04:00,ZGNN 190400Z 06004MPS 040V120 9999 SCT026 33/24 Q1003 NOSIG
ZGNN,2015-07-19 05:00,ZGNN 190500Z 07003MPS 030V150 9999 SCT026 33/24 Q1002 NOSIG
ZGNN,2015-07-19 06:00,ZGNN 190600Z 05005MPS 020V110 9999 SCT026 SCT043 33/23 Q1002 NOSIG
ZGNN,2015-07-19 07:00,ZGNN 190700Z 06005MPS 7000 SCT026 BKN043 33/24 Q1001 NOSIG
ZGNN,2015-07-19 08:00,ZGNN 190800Z 06005MPS 020V090 9999 FEW043 33/23 Q1001 NOSIG
ZGNN,2015-07-19 09:00,ZGNN 190900Z 06005MPS 030V100 CAVOK 33/23 Q1001 NOSIG
ZGNN,2015-07-19 10:00,ZGNN 191000Z 06005MPS CAVOK 32/23 Q1001 NOSIG
ZGNN,2015-07-19 11:00,ZGNN 191100Z 11002MPS 100V160 CAVOK 31/24 Q1001 NOSIG
ZGNN,2015-07-19 12:00,ZGNN 191200Z 11002MPS 080V160 CAVOK 30/23 Q1002 NOSIG
ZGNN,2015-07-19 13:00,ZGNN 191300Z 11002MPS 090V180 CAVOK 30/23 Q1003 NOSIG
ZGNN,2015-07-19 14:00,ZGNN 191400Z VRB01MPS CAVOK 29/23 Q1003 NOSIG
ZGNN,2015-07-19 15:00,ZGNN 191500Z 12001MPS CAVOK 29/23 Q1004 NOSIG
ZGNN,2015-07-19 16:00,ZGNN 191600Z 34001MPS 6000 NSC 27/23 Q1004 NOSIG
ZGNN,2015-07-19 17:00,ZGNN 191700Z 25001MPS 6000 NSC 28/24 Q1003 NOSIG
ZGNN,2015-07-19 18:00,ZGNN 191800Z VRB01MPS 6000 NSC 27/24 Q1003 NOSIG
ZGNN,2015-07-19 19:00,ZGNN 191900Z 34001MPS 6000 NSC 26/24 Q1003 NOSIG
ZGNN,2015-07-19 20:00,ZGNN 192000Z 25002MPS 6000 NSC 26/24 Q1003 NOSIG
ZGNN,2015-07-19 21:00,ZGNN 192100Z 33001MPS 6000 NSC 26/23 Q1003 NOSIG
ZGNN,2015-07-19 22:00,ZGNN 192200Z VRB01MPS 6000 NSC 26/24 Q1003 NOSIG
ZGNN,2015-07-19 23:00,ZGNN 192300Z 27001MPS 8000 NSC 26/24 Q1003 NOSIG
ZGNN,2015-07-20 00:00,ZGNN 200000Z 23002MPS 8000 NSC 27/24 Q1003 NOSIG
ZGNN,2015-07-20 01:00,ZGNN 200100Z 23002MPS 200V280 6000 NSC 30/24 Q1003 NOSIG
ZGNN,2015-07-20 02:00,ZGNN 200200Z VRB01MPS 7000 NSC 32/24 Q1003 NOSIG
ZGNN,2015-07-20 03:00,ZGNN 200300Z 09001MPS 9999 FEW023 34/24 Q1003 NOSIG
ZGNN,2015-07-20 04:00,ZGNN 200400Z VRB02MPS 9999 SCT033 34/23 Q1003 NOSIG
ZGNN,2015-07-20 05:00,ZGNN 200500Z 02002MPS 9999 SCT033 34/23 Q1003 NOSIG
ZGNN,2015-07-20 06:00,ZGNN 200600Z VRB02MPS 9999 FEW036 35/24 Q1002 NOSIG
ZGNN,2015-07-20 07:00,ZGNN 200700Z VRB02MPS 9999 FEW036 35/23 Q1001 NOSIG
ZGNN,2015-07-20 08:00,ZGNN 200800Z VRB01MPS 9999 FEW036 35/23 Q1001 NOSIG
ZGNN,2015-07-20 09:00,ZGNN 200900Z VRB01MPS 9999 FEW036 36/23 Q1001 NOSIG
ZGNN,2015-07-20 10:00,ZGNN 201000Z 34003MPS 290V010 9999 FEW033TCU 35/23 Q1001 NOSIG
ZGNN,2015-07-20 11:00,ZGNN 201100Z 31002MPS 290V010 CAVOK 34/24 Q1001 NOSIG
ZGNN,2015-07-20 12:00,ZGNN 201200Z 24005MPS 9999 FEW033CB FEW033 31/24 Q1002 NOSIG
ZGNN,2015-07-20 13:00,ZGNN 201300Z 22005MPS 9999 -TSRA FEW016 FEW026CB 28/25 Q1003 BECMG TL1330 NSW
ZGNN,2015-07-20 14:00,ZGNN 201400Z 22004MPS 180V250 7000 FEW007 FEW026CB 26/25 Q1004 RETS NOSIG
ZGNN,2015-07-20 15:00,ZGNN 201500Z 22002MPS 200V260 7000 FEW010 FEW026CB 26/25 Q1005 NOSIG
ZGNN,2015-07-20 16:00,ZGNN 201600Z 14005MPS 5000 -SHRA BR FEW016 FEW026CB BKN043 26/25 Q1005 NOSIG
ZGNN,2015-07-20 17:00,ZGNN 201700Z 14003MPS 5000 BR FEW005 FEW026CB BKN043 26/25 Q1005 NOSIG
ZGNN,2015-07-20 18:00,ZGNN 201800Z VRB01MPS 6000 FEW005 FEW026CB BKN043 26/25 Q1005 NOSIG
ZGNN,2015-07-20 19:00,ZGNN 201900Z 29002MPS 6000 FEW016 26/25 Q1004 NOSIG
ZGNN,2015-07-20 20:00,ZGNN 202000Z VRB01MPS 6000 NSC 26/25 Q1004 NOSIG
ZGNN,2015-07-20 21:00,ZGNN 202100Z 10001MPS 4000 BR NSC 26/25 Q1005 NOSIG
ZGNN,2015-07-20 22:00,ZGNN 202200Z 19001MPS 5000 BR NSC 26/25 Q1005 NOSIG
ZGNN,2015-07-20 23:00,ZGNN 202300Z 23002MPS 3100 BR FEW003 26/25 Q1005 NOSIG
ZGNN,2015-07-21 00:00,ZGNN 210000Z 26002MPS 230V310 4500 BR NSC 26/25 Q1006 NOSIG
ZGNN,2015-07-21 01:00,ZGNN 210100Z VRB01MPS 5000 BR NSC 28/26 Q1006 NOSIG
ZGNN,2015-07-21 02:00,ZGNN 210200Z 23003MPS 200V270 6000 FEW013 30/26 Q1006 NOSIG
ZGNN,2015-07-21 03:00,ZGNN 210300Z 22003MPS 180V280 6000 FEW020 31/26 Q1006 NOSIG
ZGNN,2015-07-21 04:00,ZGNN 210400Z 27003MPS 210V330 6000 FEW020 32/25 Q1006 NOSIG
ZGNN,2015-07-21 05:00,ZGNN 210500Z 25003MPS 220V290 8000 SCT026 33/24 Q1006 NOSIG
ZGNN,2015-07-21 06:00,ZGNN 210600Z 22004MPS 190V250 9999 SCT030 33/24 Q1005 NOSIG
ZGNN,2015-07-21 07:00,ZGNN 210700Z 20004MPS 9999 SCT030 34/25 Q1004 NOSIG
ZGNN,2015-07-21 08:00,ZGNN 210800Z 15004MPS 9999 SCT030 FEW033CB 31/26 Q1005 BECMG TL0920 -TSRA
ZGNN,2015-07-21 09:00,ZGNN 210900Z 21003MPS 180V240 9999 -SHRA SCT026 FEW030CB 28/26 Q1005 NOSIG
ZGNN,2015-07-21 10:00,ZGNN 211000Z 16002MPS 9999 SCT023 28/26 Q1005 NOSIG
ZGNN,2015-07-21 11:00,ZGNN 211100Z VRB01MPS CAVOK 29/26 Q1005 NOSIG
ZGNN,2015-07-21 12:00,ZGNN 211200Z 15002MPS CAVOK 28/26 Q1005 NOSIG
ZGNN,2015-07-21 13:00,ZGNN 211300Z VRB01MPS CAVOK 28/26 Q1006 NOSIG
ZGNN,2015-07-21 14:00,ZGNN 211400Z VRB01MPS CAVOK 28/26 Q1007 NOSIG
ZGNN,2015-07-21 15:00,ZGNN 211500Z 00000MPS CAVOK 28/26 Q1007 NOSIG
ZGNN,2015-07-21 16:00,ZGNN 211600Z 00000MPS CAVOK 27/26 Q1007 NOSIG
ZGNN,2015-07-21 17:00,ZGNN 211700Z 00000MPS CAVOK 27/26 Q1007 NOSIG
ZGNN,2015-07-21 18:00,ZGNN 211800Z VRB01MPS CAVOK 27/26 Q1006 NOSIG
ZGNN,2015-07-21 19:00,ZGNN 211900Z 35001MPS CAVOK 27/26 Q1006 NOSIG
ZGNN,2015-07-21 20:00,ZGNN 212000Z 00000MPS CAVOK 27/26 Q1005 NOSIG
ZGNN,2015-07-21 21:00,ZGNN 212100Z 34001MPS CAVOK 27/25 Q1005 NOSIG
ZGNN,2015-07-21 22:00,ZGNN 212200Z VRB01MPS CAVOK 27/25 Q1005 NOSIG
ZGNN,2015-07-21 23:00,ZGNN 212300Z VRB01MPS CAVOK 27/25 Q1006 NOSIG
ZGNN,2015-07-22 00:00,ZGNN 220000Z 09002MPS CAVOK 27/25 Q1006 NOSIG
ZGNN,2015-07-22 01:00,ZGNN 220100Z 15002MPS 100V200 CAVOK 28/26 Q1006 NOSIG
ZGNN,2015-07-22 02:00,ZGNN 220200Z VRB01MPS CAVOK 30/26 Q1007 NOSIG
ZGNN,2015-07-22 03:00,ZGNN 220300Z 24002MPS 160V300 9999 FEW026 32/26 Q1006 NOSIG
ZGNN,2015-07-22 04:00,ZGNN 220400Z VRB02MPS 9999 SCT026 32/25 Q1006 NOSIG
ZGNN,2015-07-22 05:00,ZGNN 220500Z 18003MPS 140V250 9999 SCT033 33/25 Q1005 NOSIG
ZGNN,2015-07-22 06:00,ZGNN 220600Z 15002MPS 100V210 9999 SCT033 33/26 Q1004 NOSIG
ZGNN,2015-07-22 07:00,ZGNN 220700Z 19004MPS 150V210 9999 SCT033 34/25 Q1003 NOSIG
ZGNN,2015-07-22 08:00,ZGNN 220800Z 15004MPS 9999 SCT036 33/26 Q1002 NOSIG
ZGNN,2015-07-22 09:00,ZGNN 220900Z 15006MPS 9999 SCT036 32/26 Q1002 NOSIG
ZGNN,2015-07-22 10:00,ZGNN 221000Z 15005G10MPS 120V180 9999 SCT036 31/26 Q1002 NOSIG
ZGNN,2015-07-22 11:00,ZGNN 221100Z 15004MPS 110V180 9999 SCT036 30/26 Q1003 NOSIG
ZGNN,2015-07-22 12:00,ZGNN 221200Z 15004MPS 110V170 9999 SCT040 29/25 Q1003 NOSIG
ZGNN,2015-07-22 13:00,ZGNN 221300Z 15003MPS 9999 SCT046 29/25 Q1004 NOSIG
ZGNN,2015-07-22 14:00,ZGNN 221400Z 15003MPS CAVOK 28/25 Q1005 NOSIG
ZGNN,2015-07-22 15:00,ZGNN 221500Z 15002MPS CAVOK 28/25 Q1005 NOSIG
ZGNN,2015-07-22 16:00,ZGNN 221600Z VRB01MPS CAVOK 28/25 Q1005 NOSIG
ZGNN,2015-07-22 17:00,ZGNN 221700Z VRB01MPS CAVOK 28/25 Q1004 NOSIG
ZGNN,2015-07-22 18:00,ZGNN 221800Z 17001MPS CAVOK 28/25 Q1004 NOSIG
ZGNN,2015-07-22 19:00,ZGNN 221900Z 16002MPS 140V200 CAVOK 27/25 Q1003 NOSIG
ZGNN,2015-07-22 20:00,ZGNN 222000Z 00000MPS CAVOK 27/25 Q1003 NOSIG
ZGNN,2015-07-22 21:00,ZGNN 222100Z 00000MPS CAVOK 27/25 Q1004 NOSIG
ZGNN,2015-07-22 22:00,ZGNN 222200Z 00000MPS CAVOK 27/25 Q1004 NOSIG
ZGNN,2015-07-22 23:00,ZGNN 222300Z 13001MPS CAVOK 27/25 Q1004 NOSIG
ZGNN,2015-07-23 00:00,ZGNN 230000Z VRB01MPS CAVOK 27/26 Q1004 NOSIG
ZGNN,2015-07-23 01:00,ZGNN 230100Z VRB01MPS CAVOK 28/26 Q1005 NOSIG
ZGNN,2015-07-23 02:00,ZGNN 230200Z 35002MPS 9999 SCT013 BKN040 28/26 Q1005 BECMG TL0320 -TSRA
ZGNN,2015-07-23 03:00,ZGNN 230300Z 33007MPS 9999 SCT013 BKN040 27/23 Q1006 BECMG TL0320 -TSRA
ZGNN,2015-07-23 04:00,ZGNN 230400Z 28004MPS 260V340 6000 -SHRA SCT010 FEW033CB BKN033 25/24 Q1006 TEMPO TSRA
ZGNN,2015-07-23 05:00,ZGNN 230500Z 29004MPS 260V330 6000 SHRA FEW010 FEW033CB 24/23 Q1005 NOSIG
ZGNN,2015-07-23 06:00,ZGNN 230600Z 03002MPS 360V070 9999 -RA FEW013 25/23 Q1004 RESHRA NOSIG
ZGNN,2015-07-23 07:00,ZGNN 230700Z 15002MPS 130V200 9999 -RA FEW013 25/24 Q1004 NOSIG
ZGNN,2015-07-23 08:00,ZGNN 230800Z 11002MPS 090V160 9999 -RA FEW006 SCT013 25/24 Q1004 NOSIG
ZGNN,2015-07-23 09:00,ZGNN 230900Z 12001MPS 9999 FEW005 SCT013 24/23 Q1004 NOSIG
ZGNN,2015-07-23 10:00,ZGNN 231000Z 11002MPS 9999 FEW005 SCT010 OVC043 25/24 Q1004 NOSIG
ZGNN,2015-07-23 11:00,ZGNN 231100Z 13001MPS 9999 FEW006 SCT010 OVC043 25/23 Q1005 NOSIG
ZGNN,2015-07-23 12:00,ZGNN 231200Z VRB01MPS 9999 SCT007 OVC043 25/23 Q1005 NOSIG
ZGNN,2015-07-23 13:00,ZGNN 231300Z VRB01MPS 9999 -RA FEW005 SCT010 OVC030 25/24 Q1006 NOSIG
ZGNN,2015-07-23 14:00,ZGNN 231400Z VRB01MPS 9999 -SHRA FEW004 SCT010 FEW026CB BKN026 24/23 Q1006 RESHRA NOSIG
ZGNN,2015-07-23 15:00,ZGNN 231500Z 03002MPS 360V070 9999 -SHRA FEW004 SCT009 FEW026CB BKN026 24/23 Q1007 RESHRA NOSIG
ZGNN,2015-07-23 16:00,ZGNN 231600Z 02002MPS 9999 FEW004 SCT026 24/23 Q1006 NOSIG
ZGNN,2015-07-23 17:00,ZGNN 231700Z 02001MPS 9999 FEW006 24/23 Q1005 NOSIG
ZGNN,2015-07-23 18:00,ZGNN 231800Z 14001MPS 7000 FEW002 SCT023 24/23 Q1005 NOSIG
ZGNN,2015-07-23 19:00,ZGNN 231900Z VRB01MPS 8000 -SHRA FEW002 BKN023 FEW026CB 24/23 Q1004 NOSIG
ZGNN,2015-07-23 20:00,ZGNN 232000Z 33001MPS 9999 FEW003 SCT006 BKN023 FEW026CB 24/23 Q1004 NOSIG
ZGNN,2015-07-23 21:00,ZGNN 232100Z VRB01MPS 9999 FEW003 OVC026 24/23 Q1004 NOSIG
ZGNN,2015-07-23 22:00,ZGNN 232200Z 05001MPS 9999 -SHRA FEW004 BKN023 FEW026CB 24/23 Q1004 NOSIG
ZGNN,2015-07-23 23:00,ZGNN 232300Z 18001MPS 5000 -SHRA FEW004 SCT010 FEW023CB BKN023 24/23 Q1005 NOSIG
ZGNN,2015-07-24 00:00,ZGNN 240000Z VRB01MPS 6000 -SHRA FEW004 SCT010 FEW023CB BKN023 25/24 Q1005 NOSIG
ZGNN,2015-07-24 01:00,ZGNN 240100Z VRB01MPS 9999 -SHRA SCT007 OVC026 25/24 Q1006 NOSIG
ZGNN,2015-07-24 02:00,ZGNN 240200Z VRB01MPS 9999 SCT006 OVC026 26/24 Q1006 NOSIG
ZGNN,2015-07-24 03:00,ZGNN 240300Z 20003MPS 9999 SCT010 BKN033 27/25 Q1006 NOSIG
ZGNN,2015-07-24 04:00,ZGNN 240400Z 20002MPS 170V250 9999 SCT010 OVC033 27/25 Q1005 NOSIG
ZGNN,2015-07-24 05:00,ZGNN 240500Z 22003MPS 9999 SCT013 BKN033 28/25 Q1005 NOSIG
ZGNN,2015-07-24 06:00,ZGNN 240600Z 19004MPS 9999 SCT013 BKN033 28/25 Q1004 NOSIG
ZGNN,2015-07-24 07:00,ZGNN 240700Z 19003MPS 9999 SCT015 28/25 Q1003 NOSIG
ZGNN,2015-07-24 08:00,ZGNN 240800Z 17003MPS 130V200 9999 FEW015 FEW026CB 29/25 Q1003 NOSIG
ZGNN,2015-07-24 09:00,ZGNN 240900Z 26004MPS 210V290 2500 TSRA SCT010 FEW026CB BKN033 25/24 Q1003 BECMG TL0920 6000 NSW
ZGNN,2015-07-24 10:00,ZGNN 241000Z 18001MPS 9999 -SHRA FEW004 SCT010 FEW026CB 25/24 Q1003 NOSIG
ZGNN,2015-07-24 11:00,ZGNN 241100Z 05002MPS 9999 -SHRA FEW004 SCT010 FEW026CB 25/24 Q1004 NOSIG
ZGNN,2015-07-24 12:00,ZGNN 241200Z VRB01MPS 6000 SCT004 FEW026CB 25/25 Q1004 NOSIG
ZGNN,2015-07-24 13:00,ZGNN 241300Z VRB01MPS 7000 SCT005 BKN040 25/24 Q1005 NOSIG
ZGNN,2015-07-24 14:00,ZGNN 241400Z VRB01MPS 8000 -SHRA SCT005 25/24 Q1005 NOSIG
ZGNN,2015-07-24 15:00,ZGNN 241500Z 12001MPS 7000 -SHRA SCT005 25/24 Q1005 NOSIG
ZGNN,2015-07-24 16:00,ZGNN 241600Z 00000MPS 8000 -SHRA SCT005 25/25 Q1005 NOSIG
ZGNN,2015-07-24 17:00,ZGNN 241700Z VRB01MPS 4000 -SHRA BR FEW003 SCT004 25/25 Q1005 NOSIG
ZGNN,2015-07-24 18:00,ZGNN 241800Z 01002MPS 3200 -SHRA BR SCT003 SCT004 OVC040 25/25 Q1004 NOSIG
ZGNN,2015-07-24 19:00,ZGNN 241900Z 00000MPS 3200 -RA BR FEW002 SCT004 OVC040 25/25 Q1004 BECMG TL2000 2500 BR
ZGNN,2015-07-24 20:00,ZGNN 242000Z VRB01MPS 2800 BR FEW002 SCT004 OVC040 25/25 Q1003 BECMG TL2100 4000 BR
ZGNN,2015-07-24 21:00,ZGNN 242100Z 19001MPS 3200 BR SCT004 OVC040 25/25 Q1003 NOSIG
ZGNN,2015-07-24 22:00,ZGNN 242200Z 23001MPS 3200 BR FEW003 SCT004 25/25 Q1003 NOSIG
ZGNN,2015-07-24 23:00,ZGNN 242300Z 18001MPS 3200 BR FEW003 SCT008 25/25 Q1004 NOSIG
ZGNN,2015-07-25 00:00,ZGNN 250000Z VRB01MPS 4000 BR SCT005 26/25 Q1004 NOSIG
ZGNN,2015-07-25 01:00,ZGNN 250100Z 34002MPS 290V020 8000 SCT009 27/25 Q1005 NOSIG
ZGNN,2015-07-25 02:00,ZGNN 250200Z 34002MPS 280V030 9000 SCT011 28/25 Q1005 NOSIG
ZGNN,2015-07-25 03:00,ZGNN 250300Z VRB01MPS 9999 SCT013 BKN040 28/25 Q1005 NOSIG
ZGNN,2015-07-25 04:00,ZGNN 250400Z VRB01MPS 9999 SCT016 BKN040 29/25 Q1004 NOSIG
ZGNN,2015-07-25 05:00,ZGNN 250500Z 26002MPS 180V340 9999 SCT023 BKN040 30/24 Q1003 NOSIG
ZGNN,2015-07-25 06:00,ZGNN 250600Z 15002MPS 090V240 9999 SCT026 31/25 Q1003 NOSIG
ZGNN,2015-07-25 07:00,ZGNN 250700Z 13003MPS 9999 FEW016 SCT026 30/26 Q1002 NOSIG
ZGNN,2015-07-25 08:00,ZGNN 250800Z 17003MPS 130V200 9999 FEW016 SCT026 30/26 Q1002 NOSIG
ZGNN,2015-07-25 09:00,ZGNN 250900Z 17004MPS 9999 FEW016 SCT026 29/25 Q1002 NOSIG
ZGNN,2015-07-25 10:00,ZGNN 251000Z 15004MPS 120V180 9999 SCT015 28/25 Q1002 NOSIG
ZGNN,2015-07-25 11:00,ZGNN 251100Z VRB01MPS 9999 FEW015 28/24 Q1003 NOSIG
ZGNN,2015-07-25 12:00,ZGNN 251200Z 16002MPS 140V210 9999 SCT015 27/25 Q1004 NOSIG
ZGNN,2015-07-25 13:00,ZGNN 251300Z VRB01MPS 9999 SCT015 26/24 Q1004 NOSIG
ZGNN,2015-07-25 14:00,ZGNN 251400Z 11001MPS 9999 SCT010 26/25 Q1004 NOSIG
ZGNN,2015-07-25 15:00,ZGNN 251500Z VRB01MPS 9999 SCT010 26/25 Q1005 NOSIG
ZGNN,2015-07-25 16:00,ZGNN 251600Z VRB01MPS 9999 SCT009 26/24 Q1005 NOSIG
ZGNN,2015-07-25 17:00,ZGNN 251700Z VRB01MPS 9999 SCT009 26/24 Q1004 NOSIG
ZGNN,2015-07-25 18:00,ZGNN 251800Z 19001MPS 7000 SCT008 26/25 Q1004 NOSIG
ZGNN,2015-07-25 19:00,ZGNN 251900Z 19001MPS 6000 SCT007 BKN036 26/25 Q1004 NOSIG
ZGNN,2015-07-25 20:00,ZGNN 252000Z 30001MPS 5000 BR FEW005 SCT007 BKN033 26/25 Q1003 NOSIG
ZGNN,2015-07-25 21:00,ZGNN 252100Z 23002MPS 8000 FEW007 SCT015 BKN033 26/24 Q1003 NOSIG
ZGNN,2015-07-25 22:00,ZGNN 252200Z VRB01MPS 8000 FEW010 SCT020 BKN033 25/24 Q1004 NOSIG
ZGNN,2015-07-25 23:00,ZGNN 252300Z VRB01MPS 6000 FEW006 BKN040 25/25 Q1004 NOSIG
ZGNN,2015-07-26 00:00,ZGNN 260000Z VRB01MPS 7000 FEW007 26/24 Q1004 NOSIG
ZGNN,2015-07-26 01:00,ZGNN 260100Z 15002MPS 8000 SCT007 OVC040 26/24 Q1005 NOSIG
ZGNN,2015-07-26 02:00,ZGNN 260200Z VRB01MPS 9000 SCT010 OVC040 27/24 Q1005 NOSIG
ZGNN,2015-07-26 03:00,ZGNN 260300Z VRB01MPS 9999 SCT013 BKN043 29/25 Q1005 NOSIG
ZGNN,2015-07-26 04:00,ZGNN 260400Z 15002MPS 070V200 9999 FEW013 SCT026 BKN046 29/25 Q1005 NOSIG
ZGNN,2015-07-26 05:00,ZGNN 260500Z 15002MPS 100V210 9999 FEW016 SCT026 30/25 Q1004 NOSIG
ZGNN,2015-07-26 06:00,ZGNN 260600Z 17002MPS 140V200 9999 FEW016 FEW026CB 29/25 Q1004 NOSIG
ZGNN,2015-07-26 07:00,ZGNN 260700Z 33004MPS 270V020 7000 TSRA SCT016 SCT026CB BKN040 27/25 Q1004 BECMG TL0820 NSW
ZGNN,2015-07-26 08:00,ZGNN 260800Z 08003MPS 7000 -TSRA FEW013 FEW030CB 25/24 Q1004 RESHRA BECMG TL0820 NSW
ZGNN,2015-07-26 09:00,ZGNN 260900Z 12002MPS 090V180 9999 FEW004 SCT013 25/24 Q1004 NOSIG
ZGNN,2015-07-26 10:00,ZGNN 261000Z VRB01MPS 9999 FEW006 SCT013 26/24 Q1004 NOSIG
ZGNN,2015-07-26 11:00,ZGNN 261100Z 14002MPS 9999 SCT006 26/24 Q1005 NOSIG
ZGNN,2015-07-26 12:00,ZGNN 261200Z 10002MPS 9999 FEW010 26/24 Q1005 NOSIG
ZGNN,2015-07-26 13:00,ZGNN 261300Z 14002MPS CAVOK 25/23 Q1006 NOSIG
ZGNN,2015-07-26 14:00,ZGNN 261400Z 14002MPS 9999 SCT016 25/24 Q1006 NOSIG
ZGNN,2015-07-26 15:00,ZGNN 261500Z 00000MPS 9999 FEW020 25/24 Q1007 NOSIG
ZGNN,2015-07-26 16:00,ZGNN 261600Z VRB01MPS CAVOK 25/24 Q1007 NOSIG
ZGNN,2015-07-26 17:00,ZGNN 261700Z 10001MPS 9999 SCT010 25/24 Q1006 NOSIG
ZGNN,2015-07-26 18:00,ZGNN 261800Z 10002MPS 9999 SCT008 26/24 Q1006 NOSIG
ZGNN,2015-07-26 19:00,ZGNN 261900Z VRB01MPS 9999 SCT007 25/24 Q1005 NOSIG
ZGNN,2015-07-26 20:00,ZGNN 262000Z 15002MPS 9999 FEW006 SCT011 25/24 Q1005 NOSIG
ZGNN,2015-07-26 21:00,ZGNN 262100Z 14003MPS 9999 -RA SCT007 25/24 Q1004 NOSIG
ZGNN,2015-07-26 22:00,ZGNN 262200Z VRB01MPS 9999 -RA FEW005 SCT011 BKN043 25/24 Q1005 NOSIG
ZGNN,2015-07-26 23:00,ZGNN 262300Z 15003MPS 9999 FEW004 SCT009 OVC043 25/24 Q1005 NOSIG
ZGNN,2015-07-27 00:00,ZGNN 270000Z 15003MPS 6000 -RA FEW005 SCT015 FEW026CB BKN040 24/24 Q1005 BECMG TL0030 2000 SHRA
ZGNN,2015-07-27 01:00,ZGNN 270100Z 16003MPS 130V190 9999 -RA FEW005 SCT015 FEW026CB 25/24 Q1006 NOSIG
ZGNN,2015-07-27 02:00,ZGNN 270200Z 15003MPS 9999 -SHRA FEW005 SCT015 FEW026CB BKN043 25/24 Q1006 NOSIG
ZGNN,2015-07-27 03:00,ZGNN 270300Z 12003MPS 090V160 7000 -SHRA FEW005 SCT010 FEW026CB BKN043 25/24 Q1007 RESHRA NOSIG
ZGNN,2015-07-27 04:00,ZGNN 270400Z 18003MPS 9999 -SHRA FEW005 SCT008 FEW026CB BKN036 24/24 Q1006 NOSIG
ZGNN,2015-07-27 05:00,ZGNN 270500Z 14004MPS 9999 -SHRA FEW005 SCT008 FEW026CB BKN036 25/24 Q1005 NOSIG
ZGNN,2015-07-27 06:00,ZGNN 270600Z 13003MPS 9999 FEW007 SCT010 FEW026CB BKN036 26/24 Q1005 NOSIG
ZGNN,2015-07-27 07:00,ZGNN 270700Z 14003MPS 110V170 9999 FEW009 SCT013 BKN043 27/24 Q1005 NOSIG
ZGNN,2015-07-27 08:00,ZGNN 270800Z 17003MPS 120V200 9999 SCT013 28/24 Q1004 NOSIG
ZGNN,2015-07-27 09:00,ZGNN 270900Z 12003MPS 9999 -SHRA FEW009 SCT013 FEW026CB 27/25 Q1004 NOSIG
ZGNN,2015-07-27 10:00,ZGNN 271000Z 13004MPS 9999 FEW009 SCT013 FEW026CB 26/24 Q1005 NOSIG
ZGNN,2015-07-27 11:00,ZGNN 271100Z 14003MPS 9999 SCT010 FEW026CB SCT033 25/24 Q1005 NOSIG
ZGNN,2015-07-27 12:00,ZGNN 271200Z 13002MPS 9999 FEW010 SCT033 25/23 Q1006 NOSIG
ZGNN,2015-07-27 13:00,ZGNN 271300Z 13002MPS 9999 FEW010 25/23 Q1007 NOSIG
ZGNN,2015-07-27 14:00,ZGNN 271400Z 14002MPS 100V180 9999 FEW010 SCT033 25/24 Q1007 NOSIG
ZGNN,2015-07-27 15:00,ZGNN 271500Z 13002MPS 9999 FEW010 SCT033 25/23 Q1008 NOSIG
ZGNN,2015-07-27 16:00,ZGNN 271600Z 12002MPS 9999 SCT010 25/24 Q1008 NOSIG
ZGNN,2015-07-27 17:00,ZGNN 271700Z 11002MPS 9999 SCT009 25/24 Q1007 NOSIG
ZGNN,2015-07-27 18:00,ZGNN 271800Z 10002MPS 060V140 9999 SCT009 25/24 Q1007 NOSIG
ZGNN,2015-07-27 19:00,ZGNN 271900Z 09003MPS 9999 SCT009 25/24 Q1006 NOSIG
ZGNN,2015-07-27 20:00,ZGNN 272000Z 08003MPS 9999 -SHRA FEW007 SCT010 FEW026CB BKN040 25/24 Q1006 NOSIG
ZGNN,2015-07-27 21:00,ZGNN 272100Z 06003MPS 5000 -SHRA FEW004 SCT007 FEW026CB BKN033 24/24 Q1006 NOSIG
ZGNN,2015-07-27 22:00,ZGNN 272200Z 18002MPS 150V220 6000 -SHRA FEW005 SCT008 FEW026CB BKN033 24/23 Q1006 BECMG TL2300 SHRA
ZGNN,2015-07-27 23:00,ZGNN 272300Z VRB01MPS 9999 -SHRA FEW004 SCT008 FEW026CB BKN040 24/23 Q1006 NOSIG
ZGNN,2015-07-28 00:00,ZGNN 280000Z 10003MPS 070V140 9999 -SHRA FEW004 SCT007 FEW026CB BKN040 24/23 Q1007 NOSIG
ZGNN,2015-07-28 01:00,ZGNN 280100Z 10003MPS 070V160 5000 -SHRA BR FEW004 SCT008 FEW026CB BKN040 24/23 Q1007 NOSIG
ZGNN,2015-07-28 02:00,ZGNN 280200Z 03002MPS 7000 -SHRA FEW004 SCT007 FEW026CB BKN033 24/23 Q1008 NOSIG
ZGNN,2015-07-28 03:00,ZGNN 280300Z 19002MPS 170V230 7000 -SHRA FEW004 SCT010 FEW026CB BKN033 24/23 Q1008 NOSIG
ZGNN,2015-07-28 04:00,ZGNN 280400Z 16002MPS 9000 -SHRA FEW004 SCT010 FEW026CB BKN040 25/24 Q1008 NOSIG
ZGNN,2015-07-28 05:00,ZGNN 280500Z 14004MPS 120V180 9999 -SHRA FEW007 SCT013 FEW026CB BKN040 25/24 Q1008 NOSIG
ZGNN,2015-07-28 06:00,ZGNN 280600Z 14004MPS 9999 -SHRA FEW007 SCT013 FEW026CB BKN040 25/24 Q1007 NOSIG
ZGNN,2015-07-28 07:00,ZGNN 280700Z 13003MPS 9999 -SHRA FEW007 SCT013 FEW026CB BKN040 25/24 Q1007 NOSIG
ZGNN,2015-07-28 08:00,ZGNN 280800Z 14002MPS 100V180 9999 -SHRA FEW007 SCT013 FEW026CB BKN040 25/24 Q1006 NOSIG
ZGNN,2015-07-28 09:00,ZGNN 280900Z 13002MPS 100V160 9999 FEW007 SCT013 FEW026CB 24/23 Q1007 NOSIG
ZGNN,2015-07-28 10:00,ZGNN 281000Z 13002MPS 100V190 9999 FEW008 SCT013 24/23 Q1007 NOSIG
ZGNN,2015-07-28 11:00,ZGNN 281100Z 12002MPS 100V160 9999 FEW008 SCT013 24/23 Q1007 NOSIG
ZGNN,2015-07-28 12:00,ZGNN 281200Z 09002MPS 040V160 9999 FEW009 SCT015 24/23 Q1008 NOSIG
ZGNN,2015-07-28 13:00,ZGNN 281300Z 10002MPS 070V150 9999 FEW009 SCT015 BKN030 24/23 Q1008 NOSIG
ZGNN,2015-07-28 14:00,ZGNN 281400Z 08003MPS 9999 FEW008 SCT013 BKN030 25/24 Q1008 NOSIG
ZGNN,2015-07-28 15:00,ZGNN 281500Z 07004MPS 5000 -RA BR FEW005 SCT008 OVC030 24/23 Q1009 NOSIG
ZGNN,2015-07-28 16:00,ZGNN 281600Z 04002MPS 010V070 4000 -RA BR SCT004 SCT007 OVC030 24/23 Q1009 NOSIG
ZGNN,2015-07-28 17:00,ZGNN 281700Z 15002MPS 9999 FEW005 SCT010 OVC030 24/24 Q1008 NOSIG
ZGNN,2015-07-28 18:00,ZGNN 281800Z 10001MPS 9999 FEW004 SCT008 OVC030 24/24 Q1008 NOSIG
ZGNN,2015-07-28 19:00,ZGNN 281900Z 12001MPS 6000 -RA FEW004 SCT008 OVC030 24/24 Q1007 NOSIG
ZGNN,2015-07-28 20:00,ZGNN 282000Z VRB01MPS 9000 -RA FEW004 SCT008 OVC030 24/24 Q1007 NOSIG
ZGNN,2015-07-28 21:00,ZGNN 282100Z 15002MPS 9999 -RA FEW006 SCT009 OVC030 24/24 Q1007 NOSIG
ZGNN,2015-07-28 22:00,ZGNN 282200Z 11002MPS 9999 -RA FEW006 SCT009 OVC030 24/24 Q1007 NOSIG
ZGNN,2015-07-28 23:00,ZGNN 282300Z 10002MPS 070V130 9999 -RA FEW006 SCT009 OVC036 24/23 Q1008 NOSIG
ZGNN,2015-07-29 00:00,ZGNN 290000Z 10003MPS 9999 FEW006 SCT009 24/23 Q1008 NOSIG
ZGNN,2015-07-29 01:00,ZGNN 290100Z 09003MPS 9999 FEW006 SCT009 25/24 Q1008 NOSIG
ZGNN,2015-07-29 02:00,ZGNN 290200Z 11003MPS 9999 -RA FEW007 SCT013 25/24 Q1008 NOSIG
ZGNN,2015-07-29 03:00,ZGNN 290300Z 14004MPS 9999 -SHRA FEW007 SCT015 25/24 Q1008 NOSIG
ZGNN,2015-07-29 04:00,ZGNN 290400Z 14003MPS 100V180 9999 -SHRA FEW007 SCT011 FEW026CB 25/24 Q1008 NOSIG
ZGNN,2015-07-29 05:00,ZGNN 290500Z 13004MPS 110V170 9999 FEW009 SCT013 26/24 Q1007 NOSIG
ZGNN,2015-07-29 06:00,ZGNN 290600Z 16003MPS 120V210 9999 FEW013 SCT018 27/24 Q1007 NOSIG
ZGNN,2015-07-29 07:00,ZGNN 290700Z 14003MPS 110V180 9999 FEW015 SCT020 28/24 Q1006 NOSIG
ZGNN,2015-07-29 08:00,ZGNN 290800Z 13005MPS 9999 FEW016 SCT023 28/24 Q1006 NOSIG
ZGNN,2015-07-29 09:00,ZGNN 290900Z 14004MPS 9999 FEW015 SCT020 27/24 Q1005 NOSIG
ZGNN,2015-07-29 10:00,ZGNN 291000Z 14004MPS 110V200 9999 FEW010 SCT020 27/24 Q1005 NOSIG
ZGNN,2015-07-29 11:00,ZGNN 291100Z 14003MPS 110V190 9999 FEW009 SCT020 26/24 Q1006 NOSIG
ZGNN,2015-07-29 12:00,ZGNN 291200Z 12002MPS 090V170 9999 FEW010 SCT020 26/24 Q1006 NOSIG
ZGNN,2015-07-29 13:00,ZGNN 291300Z 13002MPS CAVOK 25/24 Q1007 NOSIG
ZGNN,2015-07-29 14:00,ZGNN 291400Z VRB02MPS 9999 FEW010 25/24 Q1008 NOSIG
ZGNN,2015-07-29 15:00,ZGNN 291500Z VRB01MPS 9999 FEW010 25/24 Q1008 NOSIG
ZGNN,2015-07-29 16:00,ZGNN 291600Z 12002MPS 090V150 9999 FEW008 25/24 Q1009 NOSIG
ZGNN,2015-07-29 17:00,ZGNN 291700Z 12002MPS 9999 FEW008 SCT040 25/24 Q1008 NOSIG
ZGNN,2015-07-29 18:00,ZGNN 291800Z 14001MPS 9999 FEW008 25/24 Q1008 NOSIG
ZGNN,2015-07-29 19:00,ZGNN 291900Z 13002MPS 9999 SCT008 25/24 Q1007 NOSIG
ZGNN,2015-07-29 20:00,ZGNN 292000Z 11002MPS 9999 SCT008 25/23 Q1007 NOSIG
ZGNN,2015-07-29 21:00,ZGNN 292100Z 11002MPS 9999 SCT008 24/23 Q1007 NOSIG
ZGNN,2015-07-29 22:00,ZGNN 292200Z VRB01MPS 9999 SCT008 24/23 Q1007 NOSIG
ZGNN,2015-07-29 23:00,ZGNN 292300Z 08002MPS 9999 FEW007 SCT010 25/23 Q1007 NOSIG
ZGNN,2015-07-30 00:00,ZGNN 300000Z 12002MPS 090V180 9999 FEW008 SCT011 25/24 Q1008 NOSIG
ZGNN,2015-07-30 01:00,ZGNN 300100Z 12003MPS 090V200 9999 SCT011 26/24 Q1008 NOSIG
ZGNN,2015-07-30 02:00,ZGNN 300200Z 13004MPS 090V180 9999 SCT016 28/24 Q1008 NOSIG
ZGNN,2015-07-30 03:00,ZGNN 300300Z 11005MPS 080V160 9999 -SHRA SCT013 BKN040 26/24 Q1008 NOSIG
ZGNN,2015-07-30 04:00,ZGNN 300400Z 13005MPS 090V160 9999 SCT013 BKN040 27/23 Q1008 NOSIG
ZGNN,2015-07-30 05:00,ZGNN 300500Z 10006MPS 080V140 9999 BKN016 FEW026TCU BKN040 28/24 Q1007 NOSIG
ZGNN,2015-07-30 06:00,ZGNN 300600Z 12007MPS 9999 FEW010 BKN016 FEW026TCU BKN040 26/24 Q1007 NOSIG
ZGNN,2015-07-30 07:00,ZGNN 300700Z 13005MPS 9999 -SHRA FEW009 SCT016 FEW026TCU BKN040 26/24 Q1007 NOSIG
ZGNN,2015-07-30 08:00,ZGNN 300800Z 11004MPS 9999 -SHRA FEW009 SCT015 FEW026TCU BKN040 26/24 Q1006 NOSIG
ZGNN,2015-07-30 09:00,ZGNN 300900Z 11004MPS 9999 -SHRA FEW009 SCT015 FEW026TCU BKN040 25/24 Q1006 NOSIG
ZGNN,2015-07-30 10:00,ZGNN 301000Z 11004MPS 090V180 9999 SCT006 BKN040 26/24 Q1006 NOSIG
ZGNN,2015-07-30 11:00,ZGNN 301100Z 12004MPS 9999 SCT010 BKN040 25/24 Q1006 NOSIG
ZGNN,2015-07-30 12:00,ZGNN 301200Z 14005G10MPS 110V190 9999 SCT010 BKN043 25/24 Q1007 NOSIG
ZGNN,2015-07-30 13:00,ZGNN 301300Z 13004MPS 9999 SCT010 BKN043 25/24 Q1008 NOSIG
ZGNN,2015-07-30 14:00,ZGNN 301400Z 10003MPS 080V140 9999 SCT010 BKN043 25/24 Q1008 NOSIG
ZGNN,2015-07-30 15:00,ZGNN 301500Z 13002MPS 9999 SCT010 25/23 Q1009 NOSIG
ZGNN,2015-07-30 16:00,ZGNN 301600Z 10002MPS 9999 SCT010 25/24 Q1009 NOSIG
ZGNN,2015-07-30 17:00,ZGNN 301700Z 09002MPS 070V150 9999 SCT010 25/24 Q1009 NOSIG
ZGNN,2015-07-30 18:00,ZGNN 301800Z 09002MPS 9999 SCT010 25/24 Q1008 NOSIG
ZGNN,2015-07-30 19:00,ZGNN 301900Z 10002MPS 9999 SCT010 25/24 Q1007 NOSIG
ZGNN,2015-07-30 20:00,ZGNN 302000Z 07002MPS 9999 FEW005 SCT010 25/24 Q1007 NOSIG
ZGNN,2015-07-30 21:00,ZGNN 302100Z 08003MPS 9999 -RA SCT006 24/24 Q1007 NOSIG
ZGNN,2015-07-30 22:00,ZGNN 302200Z 08003MPS 9999 SCT006 24/23 Q1007 NOSIG
ZGNN,2015-07-30 23:00,ZGNN 302300Z 08003MPS 9999 SCT006 24/23 Q1007 NOSIG
ZGNN,2015-07-31 00:00,ZGNN 310000Z 09003MPS 9999 SCT006 25/23 Q1008 NOSIG
ZGNN,2015-07-31 01:00,ZGNN 310100Z 11004MPS 080V140 9999 SCT008 25/24 Q1008 NOSIG
ZGNN,2015-07-31 02:00,ZGNN 310200Z 12005MPS 9999 SCT009 26/24 Q1008 NOSIG
ZGNN,2015-07-31 03:00,ZGNN 310300Z 13004MPS 110V170 9999 SCT010 BKN043 26/24 Q1009 NOSIG
ZGNN,2015-07-31 04:00,ZGNN 310400Z 14005MPS 110V180 9999 BKN016 BKN040 28/24 Q1009 NOSIG
ZGNN,2015-07-31 05:00,ZGNN 310500Z 13006MPS 9999 BKN016 BKN040 27/24 Q1008 NOSIG
ZGNN,2015-07-31 06:00,ZGNN 310600Z 12003MPS 100V170 9999 BKN015 BKN040 27/24 Q1008 NOSIG
ZGNN,2015-07-31 07:00,ZGNN 310700Z 13006MPS 100V160 9999 BKN016 28/24 Q1007 NOSIG
ZGNN,2015-07-31 08:00,ZGNN 310800Z 13006MPS 9999 BKN020 27/24 Q1007 NOSIG
ZGNN,2015-07-31 09:00,ZGNN 310900Z 14004MPS 9999 BKN020 27/23 Q1006 NOSIG
ZGNN,2015-07-31 10:00,ZGNN 311000Z 14005MPS 9999 SCT016 SCT040 26/24 Q1007 NOSIG
ZGNN,2015-07-31 11:00,ZGNN 311100Z 13004MPS 090V160 9999 SCT013 SCT040 26/23 Q1007 NOSIG
ZGNN,2015-07-31 12:00,ZGNN 311200Z 12004MPS 080V170 9999 -RA SCT011 SCT040 25/24 Q1008 NOSIG
ZGNN,2015-07-31 13:00,ZGNN 311300Z 11003MPS 090V160 9999 -RA SCT011 SCT040 25/24 Q1008 NOSIG
ZGNN,2015-07-31 14:00,ZGNN 311400Z 09003MPS 9999 FEW009 SCT011 25/24 Q1008 NOSIG
ZGNN,2015-07-31 15:00,ZGNN 311500Z 09003MPS 9999 FEW008 SCT011 25/24 Q1009 NOSIG
ZGNN,2015-07-31 16:00,ZGNN 311600Z 11002MPS 9999 SCT015 25/24 Q1009 NOSIG
ZGNN,2015-07-31 17:00,ZGNN 311700Z 10003MPS 9999 FEW009 SCT013 25/24 Q1009 NOSIG
ZGNN,2015-07-31 18:00,ZGNN 311800Z 10003MPS 9999 FEW009 SCT013 25/23 Q1008 NOSIG
ZGNN,2015-07-31 19:00,ZGNN 311900Z 10003MPS 9999 FEW006 SCT013 24/23 Q1008 NOSIG
ZGNN,2015-07-31 20:00,ZGNN 312000Z 10003MPS 9999 FEW006 SCT013 25/23 Q1008 NOSIG
ZGNN,2015-07-31 21:00,ZGNN 312100Z 09003MPS 9999 FEW007 SCT013 BKN033 24/23 Q1008 NOSIG
ZGNN,2015-07-31 22:00,ZGNN 312200Z 07003MPS 9999 FEW007 SCT013 BKN033 24/23 Q1008 NOSIG
ZGNN,2015-07-31 23:00,ZGNN 312300Z 08003MPS 9999 FEW006 SCT010 BKN033 24/23 Q1009 NOSIG
ZGNN,2015-08-01 00:00,ZGNN 010000Z 10004MPS 9999 FEW007 SCT013 OVC033 25/24 Q1009 NOSIG
ZGNN,2015-08-01 01:00,ZGNN 010100Z 12003MPS 090V150 6000 -RA FEW005 SCT008 OVC030 25/24 Q1009 NOSIG
ZGNN,2015-08-01 02:00,ZGNN 010200Z 13003MPS 090V170 9999 -RA FEW005 SCT008 BKN040 26/24 Q1010 NOSIG
ZGNN,2015-08-01 03:00,ZGNN 010300Z 12003MPS 090V160 7000 -RA FEW005 SCT008 OVC040 25/24 Q1010 NOSIG
ZGNN,2015-08-01 04:00,ZGNN 010400Z 14004MPS 100V160 9999 -RA FEW005 SCT011 OVC040 26/24 Q1010 NOSIG
ZGNN,2015-08-01 05:00,ZGNN 010500Z 13005G10MPS 100V160 9999 FEW010 SCT020 OVC040 27/24 Q1010 NOSIG
ZGNN,2015-08-01 06:00,ZGNN 010600Z 14005MPS 9999 -SHRA FEW009 SCT015 FEW030CB BKN040 26/24 Q1009 NOSIG
ZGNN,2015-08-01 07:00,ZGNN 010700Z 14005MPS 110V170 9999 FEW010 SCT018 BKN040 26/23 Q1009 NOSIG
ZGNN,2015-08-01 08:00,ZGNN 010800Z 14003MPS 120V190 9999 FEW010 SCT018 26/24 Q1008 NOSIG
ZGNN,2015-08-01 09:00,ZGNN 010900Z 14004MPS 9999 FEW009 SCT016 27/23 Q1008 NOSIG
ZGNN,2015-08-01 10:00,ZGNN 011000Z 12002MPS 080V210 9999 SCT016 27/23 Q1008 NOSIG
ZGNN,2015-08-01 11:00,ZGNN 011100Z 14002MPS 100V190 9999 FEW016 27/24 Q1008 NOSIG
ZGNN,2015-08-01 12:00,ZGNN 011200Z 11002MPS 090V180 9999 FEW016 25/24 Q1009 NOSIG
ZGNN,2015-08-01 13:00,ZGNN 011300Z 10001MPS CAVOK 25/23 Q1010 NOSIG
ZGNN,2015-08-01 14:00,ZGNN 011400Z VRB01MPS CAVOK 26/23 Q1010 NOSIG
ZGNN,2015-08-01 15:00,ZGNN 011500Z 08002MPS 9999 SCT016 25/23 Q1011 NOSIG
ZGNN,2015-08-01 16:00,ZGNN 011600Z 06002MPS 030V120 9999 SCT020 25/23 Q1010 NOSIG
ZGNN,2015-08-01 17:00,ZGNN 011700Z 08003MPS 6000 -RA FEW008 SCT015 25/24 Q1010 NOSIG
ZGNN,2015-08-01 18:00,ZGNN 011800Z 09002MPS 050V140 7000 -RA FEW004 SCT007 OVC033 24/24 Q1010 NOSIG
ZGNN,2015-08-01 19:00,ZGNN 011900Z 08002MPS 9999 FEW004 SCT007 24/23 Q1010 NOSIG
ZGNN,2015-08-01 20:00,ZGNN 012000Z 08002MPS 9999 -RA FEW006 SCT011 24/23 Q1009 NOSIG
ZGNN,2015-08-01 21:00,ZGNN 012100Z 07003MPS 9999 FEW007 SCT015 24/24 Q1010 NOSIG
ZGNN,2015-08-01 22:00,ZGNN 012200Z 07003MPS 9999 FEW005 24/23 Q1010 NOSIG
ZGNN,2015-08-01 23:00,ZGNN 012300Z 07004MPS 9999 FEW005 SCT026 24/23 Q1010 NOSIG
ZGNN,2015-08-02 00:00,ZGNN 020000Z 08003MPS 9999 FEW005 SCT009 25/24 Q1010 NOSIG
ZGNN,2015-08-02 01:00,ZGNN 020100Z 10003MPS 060V150 9999 -RA FEW006 SCT009 OVC033 25/24 Q1011 NOSIG
ZGNN,2015-08-02 02:00,ZGNN 020200Z 10003MPS 060V160 9999 -RA FEW007 SCT011 OVC033 26/24 Q1011 NOSIG
ZGNN,2015-08-02 03:00,ZGNN 020300Z 16003MPS 120V230 9999 SCT011 BKN033 27/25 Q1011 NOSIG
ZGNN,2015-08-02 04:00,ZGNN 020400Z 15005MPS 9999 SCT016 BKN040 28/24 Q1011 NOSIG
ZGNN,2015-08-02 05:00,ZGNN 020500Z 15004MPS 120V180 9999 SCT020 BKN040 29/24 Q1011 NOSIG
ZGNN,2015-08-02 06:00,ZGNN 020600Z 15004MPS 130V190 9999 SCT023 BKN040 29/24 Q1010 NOSIG
ZGNN,2015-08-02 07:00,ZGNN 020700Z 17003MPS 9999 SCT023 BKN040 28/24 Q1010 NOSIG
ZGNN,2015-08-02 08:00,ZGNN 020800Z 21003MPS 9999 SCT023 27/24 Q1010 NOSIG
ZGNN,2015-08-02 09:00,ZGNN 020900Z 19002MPS 9999 SCT023 27/25 Q1010 NOSIG
ZGNN,2015-08-02 10:00,ZGNN 021000Z 16002MPS 120V180 9999 FEW013 SCT030 27/24 Q1009 NOSIG
ZGNN,2015-08-02 11:00,ZGNN 021100Z 15002MPS 9999 SCT030 26/23 Q1010 NOSIG
ZGNN,2015-08-02 12:00,ZGNN 021200Z 14002MPS 9999 FEW030 25/23 Q1010 NOSIG
ZGNN,2015-08-02 13:00,ZGNN 021300Z 14001MPS CAVOK 25/24 Q1010 NOSIG
ZGNN,2015-08-02 14:00,ZGNN 021400Z 19001MPS CAVOK 25/24 Q1010 NOSIG
ZGNN,2015-08-02 15:00,ZGNN 021500Z VRB01MPS CAVOK 25/23 Q1011 NOSIG
ZGNN,2015-08-02 16:00,ZGNN 021600Z VRB01MPS CAVOK 25/24 Q1011 NOSIG
ZGNN,2015-08-02 17:00,ZGNN 021700Z 11001MPS CAVOK 25/24 Q1011 NOSIG
ZGNN,2015-08-02 18:00,ZGNN 021800Z VRB01MPS CAVOK 25/23 Q1011 NOSIG
ZGNN,2015-08-02 19:00,ZGNN 021900Z VRB01MPS CAVOK 25/23 Q1010 NOSIG
ZGNN,2015-08-02 20:00,ZGNN 022000Z 06002MPS CAVOK 25/23 Q1010 NOSIG
ZGNN,2015-08-02 21:00,ZGNN 022100Z 06002MPS CAVOK 24/23 Q1010 NOSIG
ZGNN,2015-08-02 22:00,ZGNN 022200Z 08001MPS CAVOK 24/23 Q1010 NOSIG
ZGNN,2015-08-02 23:00,ZGNN 022300Z VRB01MPS CAVOK 25/23 Q1011 NOSIG
ZGNN,2015-08-03 00:00,ZGNN 030000Z VRB01MPS 9999 -RA NSC 25/23 Q1011 NOSIG
ZGNN,2015-08-03 01:00,ZGNN 030100Z 23002MPS 190V260 9999 -RA FEW008 25/23 Q1011 NOSIG
ZGNN,2015-08-03 02:00,ZGNN 030200Z VRB01MPS 9999 -RA FEW008 SCT013 26/24 Q1012 NOSIG
ZGNN,2015-08-03 03:00,ZGNN 030300Z VRB01MPS 9999 -RA SCT008 BKN026 25/24 Q1012 NOSIG
ZGNN,2015-08-03 04:00,ZGNN 030400Z VRB01MPS 8000 -RA SCT008 OVC040 26/24 Q1012 NOSIG
ZGNN,2015-08-03 05:00,ZGNN 030500Z 30002MPS 280V340 1500 +SHRA BR FEW005 FEW026CB BKN026 25/24 Q1012 BECMG TL0530 6000 -SHRA
ZGNN,2015-08-03 06:00,ZGNN 030600Z VRB01MPS 9999 -SHRA FEW008 SCT023 26/24 Q1011 RESHRA NOSIG
ZGNN,2015-08-03 07:00,ZGNN 030700Z VRB01MPS 9999 -SHRA FEW007 SCT023 26/24 Q1010 NOSIG
ZGNN,2015-08-03 08:00,ZGNN 030800Z VRB01MPS 9999 -RA FEW005 SCT010 26/25 Q1010 NOSIG
ZGNN,2015-08-03 09:00,ZGNN 030900Z VRB01MPS 9999 -RA FEW007 SCT013 26/24 Q1009 NOSIG
ZGNN,2015-08-03 10:00,ZGNN 031000Z VRB01MPS 9999 -RA FEW007 SCT013 26/24 Q1009 NOSIG
ZGNN,2015-08-03 11:00,ZGNN 031100Z 13001MPS 9999 -RA FEW007 SCT013 25/24 Q1009 NOSIG
ZGNN,2015-08-03 12:00,ZGNN 031200Z VRB01MPS 9999 -RA FEW009 25/24 Q1009 NOSIG
ZGNN,2015-08-03 13:00,ZGNN 031300Z VRB01MPS 8000 NSC 25/24 Q1009 NOSIG
ZGNN,2015-08-03 14:00,ZGNN 031400Z VRB01MPS 7000 FEW004 25/24 Q1009 NOSIG
ZGNN,2015-08-03 15:00,ZGNN 031500Z 36001MPS 6000 FEW003 24/24 Q1010 NOSIG
ZGNN,2015-08-03 16:00,ZGNN 031600Z 02002MPS 6000 FEW004 24/24 Q1010 NOSIG
ZGNN,2015-08-03 18:00,ZGNN 031800Z 08001MPS 6000 NSC 24/24 Q1010 NOSIG
ZGNN,2015-08-03 19:00,ZGNN 031900Z 06001MPS 5000 -RA BR NSC 24/24 Q1009 NOSIG
ZGNN,2015-08-03 20:00,ZGNN 032000Z 04001MPS 5000 -RA BR FEW004 24/24 Q1009 NOSIG
ZGNN,2015-08-03 21:00,ZGNN 032100Z 03002MPS 4000 BR FEW003 SCT004 24/24 Q1009 NOSIG
ZGNN,2015-08-03 22:00,ZGNN 032200Z 05002MPS 4000 -RA BR FEW003 24/23 Q1009 NOSIG
ZGNN,2015-08-03 23:00,ZGNN 032300Z 07001MPS 4500 -RA BR FEW004 24/23 Q1010 NOSIG
ZGNN,2015-08-04 00:00,ZGNN 040000Z VRB01MPS 5000 -RA BR FEW003 24/24 Q1010 NOSIG
ZGNN,2015-08-04 01:00,ZGNN 040100Z VRB01MPS 3500 -RA BR FEW003 25/24 Q1010 NOSIG
ZGNN,2015-08-04 02:00,ZGNN 040200Z VRB01MPS 5000 -RA BR FEW003 SCT007 25/24 Q1010 NOSIG
ZGNN,2015-08-04 03:00,ZGNN 040300Z 14002MPS 100V200 8000 -RA SCT007 26/24 Q1010 NOSIG
ZGNN,2015-08-04 04:00,ZGNN 040400Z VRB01MPS 9999 SCT008 27/24 Q1010 NOSIG
ZGNN,2015-08-04 05:00,ZGNN 040500Z 18003MPS 140V200 9999 SCT013 27/24 Q1009 NOSIG
ZGNN,2015-08-04 06:00,ZGNN 040600Z 16003MPS 130V200 9999 FEW013 SCT023 29/24 Q1009 NOSIG
ZGNN,2015-08-04 07:00,ZGNN 040700Z 17003MPS 130V200 9999 SCT023 28/24 Q1008 NOSIG
ZGNN,2015-08-04 08:00,ZGNN 040800Z 17004MPS 140V200 9999 SCT023 29/23 Q1007 NOSIG
ZGNN,2015-08-04 09:00,ZGNN 040900Z 16003MPS 9999 FEW023 29/23 Q1007 NOSIG
ZGNN,2015-08-04 10:00,ZGNN 041000Z 15003MPS CAVOK 28/23 Q1006 NOSIG
ZGNN,2015-08-04 11:00,ZGNN 041100Z VRB01MPS CAVOK 28/24 Q1006 NOSIG
ZGNN,2015-08-04 12:00,ZGNN 041200Z VRB01MPS CAVOK 27/24 Q1006 NOSIG
ZGNN,2015-08-04 13:00,ZGNN 041300Z VRB01MPS CAVOK 26/24 Q1007 NOSIG
ZGNN,2015-08-04 14:00,ZGNN 041400Z VRB01MPS CAVOK 26/24 Q1007 NOSIG
ZGNN,2015-08-04 15:00,ZGNN 041500Z 32001MPS 7000 NSC 25/24 Q1008 NOSIG
ZGNN,2015-08-04 16:00,ZGNN 041600Z VRB01MPS 7000 NSC 25/24 Q1008 NOSIG
ZGNN,2015-08-04 17:00,ZGNN 041700Z VRB01MPS 5000 BR NSC 25/24 Q1008 NOSIG
ZGNN,2015-08-04 18:00,ZGNN 041800Z 36001MPS 5000 -RA BR FEW006 25/24 Q1008 NOSIG
ZGNN,2015-08-04 19:00,ZGNN 041900Z VRB01MPS 5000 -RA BR FEW006 25/24 Q1007 NOSIG
ZGNN,2015-08-04 20:00,ZGNN 042000Z 11001MPS 4000 -RA BR FEW004 25/24 Q1007 NOSIG
ZGNN,2015-08-04 21:00,ZGNN 042100Z VRB01MPS 4000 -RA BR FEW004 25/24 Q1007 NOSIG
ZGNN,2015-08-04 22:00,ZGNN 042200Z 01001MPS 5000 BR FEW004 25/24 Q1007 NOSIG
ZGNN,2015-08-04 23:00,ZGNN 042300Z VRB01MPS 2800 -RA BR FEW004 25/24 Q1007 BECMG TL0020 4000
ZGNN,2015-08-05 00:00,ZGNN 050000Z VRB01MPS 4000 BR FEW005 25/24 Q1008 NOSIG
ZGNN,2015-08-05 01:00,ZGNN 050100Z VRB01MPS 3100 BR FEW005 26/24 Q1008 NOSIG
ZGNN,2015-08-05 02:00,ZGNN 050200Z VRB01MPS 7000 FEW008 27/24 Q1008 NOSIG
ZGNN,2015-08-05 03:00,ZGNN 050300Z 18002MPS 140V220 9999 FEW011 27/24 Q1008 NOSIG
ZGNN,2015-08-05 04:00,ZGNN 050400Z 14003MPS 080V190 9999 SCT020 29/24 Q1008 NOSIG
ZGNN,2015-08-05 05:00,ZGNN 050500Z 15002MPS 100V200 9999 SCT023 30/24 Q1007 NOSIG
ZGNN,2015-08-05 06:00,ZGNN 050600Z 12004MPS 090V160 9999 SCT026 30/24 Q1006 NOSIG
ZGNN,2015-08-05 07:00,ZGNN 050700Z 14004MPS 110V170 9999 FEW026CB SCT026 31/24 Q1005 NOSIG
ZGNN,2015-08-05 08:00,ZGNN 050800Z 15003MPS 120V190 9999 FEW030 31/24 Q1004 NOSIG
ZGNN,2015-08-05 09:00,ZGNN 050900Z 13003MPS 100V180 9999 FEW030 31/24 Q1004 NOSIG
ZGNN,2015-08-05 10:00,ZGNN 051000Z 12002MPS 090V180 9999 FEW030 30/24 Q1003 NOSIG
ZGNN,2015-08-05 11:00,ZGNN 051100Z VRB01MPS CAVOK 29/25 Q1004 NOSIG
ZGNN,2015-08-05 12:00,ZGNN 051200Z 13002MPS 090V210 CAVOK 28/25 Q1004 NOSIG
ZGNN,2015-08-05 13:00,ZGNN 051300Z VRB01MPS CAVOK 27/25 Q1005 NOSIG
ZGNN,2015-08-05 14:00,ZGNN 051400Z VRB01MPS CAVOK 27/25 Q1005 NOSIG
ZGNN,2015-08-05 15:00,ZGNN 051500Z VRB01MPS CAVOK 26/25 Q1006 NOSIG
ZGNN,2015-08-05 16:00,ZGNN 051600Z VRB01MPS CAVOK 27/24 Q1006 NOSIG
ZGNN,2015-08-05 17:00,ZGNN 051700Z 10001MPS CAVOK 26/24 Q1006 NOSIG
ZGNN,2015-08-05 18:00,ZGNN 051800Z VRB01MPS CAVOK 26/24 Q1006 NOSIG
ZGNN,2015-08-05 19:00,ZGNN 051900Z VRB01MPS CAVOK 26/24 Q1005 NOSIG
ZGNN,2015-08-05 20:00,ZGNN 052000Z 03002MPS CAVOK 25/24 Q1005 NOSIG
ZGNN,2015-08-05 21:00,ZGNN 052100Z 05002MPS 7000 NSC 25/24 Q1005 NOSIG
ZGNN,2015-08-05 22:00,ZGNN 052200Z 00000MPS 8000 NSC 25/24 Q1006 NOSIG
ZGNN,2015-08-05 23:00,ZGNN 052300Z 00000MPS CAVOK 25/24 Q1006 NOSIG
ZGNN,2015-08-06 00:00,ZGNN 060000Z VRB01MPS CAVOK 26/24 Q1006 NOSIG
ZGNN,2015-08-06 01:00,ZGNN 060100Z 06002MPS 360V150 5000 BR NSC 28/24 Q1007 NOSIG
ZGNN,2015-08-06 02:00,ZGNN 060200Z VRB02MPS 9999 FEW013 29/24 Q1007 NOSIG
ZGNN,2015-08-06 03:00,ZGNN 060300Z 13003MPS 100V180 9999 FEW016 30/25 Q1007 NOSIG
ZGNN,2015-08-06 04:00,ZGNN 060400Z VRB02MPS 9999 SCT020 31/24 Q1007 NOSIG
ZGNN,2015-08-06 05:00,ZGNN 060500Z 12002MPS 060V200 9999 SCT030 32/23 Q1006 NOSIG
ZGNN,2015-08-06 06:00,ZGNN 060600Z 11002MPS 020V180 9999 SCT030 FEW033CB 33/23 Q1005 NOSIG
ZGNN,2015-08-06 07:00,ZGNN 060700Z 22003MPS 180V240 9999 SCT030 FEW033TCU 31/24 Q1005 NOSIG
ZGNN,2015-08-06 08:00,ZGNN 060800Z VRB01MPS 9999 FEW030 FEW033TCU 32/23 Q1004 NOSIG
ZGNN,2015-08-06 09:00,ZGNN 060900Z VRB01MPS 9999 FEW030 33/23 Q1004 NOSIG
ZGNN,2015-08-06 10:00,ZGNN 061000Z 10002MPS 060V140 CAVOK 32/23 Q1004 NOSIG
ZGNN,2015-08-06 11:00,ZGNN 061100Z 15002MPS 130V220 CAVOK 31/25 Q1004 NOSIG
ZGNN,2015-08-06 12:00,ZGNN 061200Z 14002MPS 120V180 CAVOK 29/25 Q1004 NOSIG
ZGNN,2015-08-06 13:00,ZGNN 061300Z VRB01MPS CAVOK 29/25 Q1005 NOSIG
ZGNN,2015-08-06 14:00,ZGNN 061400Z VRB01MPS CAVOK 28/25 Q1006 NOSIG
ZGNN,2015-08-06 15:00,ZGNN 061500Z 27002MPS 240V350 CAVOK 27/25 Q1006 NOSIG
ZGNN,2015-08-06 16:00,ZGNN 061600Z 27001MPS CAVOK 27/25 Q1007 NOSIG
ZGNN,2015-08-06 17:00,ZGNN 061700Z 00000MPS CAVOK 27/25 Q1006 NOSIG
ZGNN,2015-08-06 18:00,ZGNN 061800Z VRB01MPS CAVOK 26/25 Q1006 NOSIG
ZGNN,2015-08-06 19:00,ZGNN 061900Z VRB01MPS CAVOK 26/24 Q1006 NOSIG
ZGNN,2015-08-06 20:00,ZGNN 062000Z VRB01MPS CAVOK 25/24 Q1006 NOSIG
ZGNN,2015-08-06 21:00,ZGNN 062100Z 25001MPS 7000 NSC 25/24 Q1006 NOSIG
ZGNN,2015-08-06 22:00,ZGNN 062200Z 14001MPS 7000 NSC 25/24 Q1006 NOSIG
ZGNN,2015-08-06 23:00,ZGNN 062300Z VRB01MPS 7000 NSC 25/24 Q1007 NOSIG
ZGNN,2015-08-07 00:00,ZGNN 070000Z VRB01MPS 7000 NSC 26/25 Q1008 NOSIG
ZGNN,2015-08-07 01:00,ZGNN 070100Z VRB01MPS 7000 NSC 29/25 Q1008 NOSIG
ZGNN,2015-08-07 02:00,ZGNN 070200Z VRB01MPS 7000 NSC 31/25 Q1008 NOSIG
ZGNN,2015-08-07 03:00,ZGNN 070300Z 17002MPS 080V250 9999 FEW023 32/26 Q1007 NOSIG
ZGNN,2015-08-07 04:00,ZGNN 070400Z VRB01MPS 9999 SCT026 33/25 Q1007 NOSIG
ZGNN,2015-08-07 05:00,ZGNN 070500Z VRB02MPS 9999 SCT030 33/25 Q1006 NOSIG
ZGNN,2015-08-07 06:00,ZGNN 070600Z 34003MPS 300V360 9999 SCT033 33/25 Q1006 NOSIG
ZGNN,2015-08-07 07:00,ZGNN 070700Z 33002MPS 270V030 9999 FEW036 35/24 Q1005 NOSIG
ZGNN,2015-08-07 08:00,ZGNN 070800Z 04005MPS 9999 -SHRA FEW030TCU FEW030 30/26 Q1004 NOSIG
ZGNN,2015-08-07 09:00,ZGNN 070900Z 35002MPS 320V040 CAVOK 33/24 Q1003 NOSIG
ZGNN,2015-08-07 10:00,ZGNN 071000Z VRB01MPS CAVOK 33/24 Q1003 NOSIG
ZGNN,2015-08-07 11:00,ZGNN 071100Z VRB01MPS 8000 NSC 31/24 Q1003 NOSIG
ZGNN,2015-08-07 12:00,ZGNN 071200Z 28002MPS 240V320 6000 NSC 30/25 Q1004 NOSIG
ZGNN,2015-08-07 13:00,ZGNN 071300Z VRB01MPS 6000 NSC 29/25 Q1004 NOSIG
ZGNN,2015-08-07 14:00,ZGNN 071400Z VRB01MPS 5000 BR NSC 28/25 Q1005 NOSIG
ZGNN,2015-08-07 15:00,ZGNN 071500Z 27002MPS 5000 BR NSC 27/25 Q1006 NOSIG
ZGNN,2015-08-07 16:00,ZGNN 071600Z 27001MPS 5000 BR NSC 27/25 Q1006 NOSIG
ZGNN,2015-08-07 17:00,ZGNN 071700Z 00000MPS 6000 NSC 27/25 Q1006 NOSIG
ZGNN,2015-08-07 18:00,ZGNN 071800Z VRB01MPS 6000 NSC 26/25 Q1005 NOSIG
ZGNN,2015-08-07 19:00,ZGNN 071900Z 21001MPS 5000 BR NSC 26/24 Q1004 NOSIG
ZGNN,2015-08-07 20:00,ZGNN 072000Z 00000MPS 5000 BR NSC 25/24 Q1004 NOSIG
ZGNN,2015-08-07 21:00,ZGNN 072100Z 00000MPS 5000 BR NSC 25/24 Q1004 NOSIG
ZGNN,2015-08-07 22:00,ZGNN 072200Z VRB01MPS 4000 BR NSC 25/24 Q1004 NOSIG
ZGNN,2015-08-07 23:00,ZGNN 072300Z 21001MPS 2500 BR NSC 25/24 Q1004 BECMG TL0000 4000 BR
ZGNN,2015-08-08 00:00,ZGNN 080000Z VRB01MPS 3500 BR NSC 27/25 Q1005 NOSIG
ZGNN,2015-08-08 01:00,ZGNN 080100Z VRB01MPS 7000 NSC 30/25 Q1005 NOSIG
ZGNN,2015-08-08 02:00,ZGNN 080200Z 33002MPS 260V030 CAVOK 31/25 Q1005 NOSIG
ZGNN,2015-08-08 03:00,ZGNN 080300Z 01003MPS 310V040 CAVOK 32/25 Q1005 NOSIG
ZGNN,2015-08-08 04:00,ZGNN 080400Z 01002MPS 330V060 CAVOK 33/26 Q1004 NOSIG
ZGNN,2015-08-08 05:00,ZGNN 080500Z 02003MPS 330V060 9999 FEW030 34/25 Q1004 NOSIG
ZGNN,2015-08-08 06:00,ZGNN 080600Z 35004MPS 320V020 9999 FEW030 35/24 Q1003 NOSIG
ZGNN,2015-08-08 07:00,ZGNN 080700Z 32003MPS 280V030 9999 FEW030 35/24 Q1002 NOSIG
ZGNN,2015-08-08 08:00,ZGNN 080800Z 33003MPS 290V030 9999 FEW030 36/25 Q1001 NOSIG
ZGNN,2015-08-08 09:00,ZGNN 080900Z 34003MPS 290V030 9999 FEW030 36/24 Q1000 NOSIG
ZGNN,2015-08-08 10:00,ZGNN 081000Z 04004MPS CAVOK 33/25 Q1000 NOSIG
ZGNN,2015-08-08 11:00,ZGNN 081100Z 04002MPS CAVOK 32/23 Q1001 NOSIG
ZGNN,2015-08-08 12:00,ZGNN 081200Z VRB01MPS CAVOK 31/24 Q1001 NOSIG
ZGNN,2015-08-08 13:00,ZGNN 081300Z VRB01MPS CAVOK 30/24 Q1002 NOSIG
ZGNN,2015-08-08 14:00,ZGNN 081400Z VRB01MPS CAVOK 30/26 Q1002 NOSIG
ZGNN,2015-08-08 15:00,ZGNN 081500Z 28002MPS 250V320 CAVOK 29/25 Q1002 NOSIG
ZGNN,2015-08-08 16:00,ZGNN 081600Z VRB01MPS CAVOK 28/25 Q1002 NOSIG
ZGNN,2015-08-08 17:00,ZGNN 081700Z VRB01MPS CAVOK 27/25 Q1002 NOSIG
ZGNN,2015-08-08 18:00,ZGNN 081800Z VRB01MPS CAVOK 28/23 Q1002 NOSIG
ZGNN,2015-08-08 19:00,ZGNN 081900Z VRB01MPS CAVOK 27/23 Q1001 NOSIG
ZGNN,2015-08-08 20:00,ZGNN 082000Z VRB01MPS CAVOK 27/24 Q1001 NOSIG
ZGNN,2015-08-08 21:00,ZGNN 082100Z VRB01MPS CAVOK 27/24 Q1001 NOSIG
ZGNN,2015-08-08 22:00,ZGNN 082200Z 33002MPS 300V360 CAVOK 27/23 Q1001 NOSIG
ZGNN,2015-08-08 23:00,ZGNN 082300Z VRB01MPS CAVOK 27/24 Q1002 NOSIG
ZGNN,2015-08-09 00:00,ZGNN 090000Z 32002MPS 280V020 CAVOK 29/24 Q1002 NOSIG
ZGNN,2015-08-09 01:00,ZGNN 090100Z 32003MPS 290V360 CAVOK 31/24 Q1002 NOSIG
ZGNN,2015-08-09 02:00,ZGNN 090200Z 34003MPS 240V030 CAVOK 32/24 Q1003 NOSIG
ZGNN,2015-08-09 03:00,ZGNN 090300Z 33003MPS 290V360 CAVOK 33/25 Q1003 NOSIG
ZGNN,2015-08-09 04:00,ZGNN 090400Z 35003MPS 320V020 CAVOK 33/24 Q1002 NOSIG
ZGNN,2015-08-09 05:00,ZGNN 090500Z 32004MPS 270V020 CAVOK 34/25 Q1002 NOSIG
ZGNN,2015-08-09 06:00,ZGNN 090600Z 36003MPS 310V060 9999 FEW026 35/23 Q1001 NOSIG
ZGNN,2015-08-09 07:00,ZGNN 090700Z 36004MPS 320V030 9999 FEW033 35/23 Q1000 NOSIG
ZGNN,2015-08-09 08:00,ZGNN 090800Z 35003MPS 300V030 9999 FEW033 35/23 Q1000 NOSIG
ZGNN,2015-08-09 09:00,ZGNN 090900Z 32003MPS 280V360 9999 FEW033 36/23 Q0999 NOSIG
ZGNN,2015-08-09 10:00,ZGNN 091000Z 31003MPS 280V350 CAVOK 35/23 Q0999 NOSIG
ZGNN,2015-08-09 11:00,ZGNN 091100Z 32002MPS 280V020 CAVOK 33/24 Q1000 NOSIG
ZGNN,2015-08-09 12:00,ZGNN 091200Z 30002MPS 270V340 CAVOK 32/25 Q1000 NOSIG
ZGNN,2015-08-09 13:00,ZGNN 091300Z 29003MPS 230V350 CAVOK 31/24 Q1001 NOSIG
ZGNN,2015-08-09 14:00,ZGNN 091400Z VRB01MPS CAVOK 29/25 Q1002 NOSIG
ZGNN,2015-08-09 15:00,ZGNN 091500Z VRB01MPS CAVOK 29/26 Q1003 NOSIG
ZGNN,2015-08-09 16:00,ZGNN 091600Z VRB01MPS CAVOK 29/25 Q1003 NOSIG
ZGNN,2015-08-09 17:00,ZGNN 091700Z VRB01MPS 7000 NSC 28/25 Q1003 NOSIG
ZGNN,2015-08-09 18:00,ZGNN 091800Z VRB01MPS 8000 NSC 28/25 Q1002 NOSIG
ZGNN,2015-08-09 19:00,ZGNN 091900Z 31004MPS 280V360 6000 -SHRA SCT009 FEW030CB 27/25 Q1003 NOSIG
ZGNN,2015-08-09 20:00,ZGNN 092000Z 34002MPS 300V030 7000 -SHRA SCT009 FEW030CB 28/26 Q1003 NOSIG
ZGNN,2015-08-09 21:00,ZGNN 092100Z VRB01MPS 6000 NSC 27/26 Q1003 NOSIG
ZGNN,2015-08-09 22:00,ZGNN 092200Z 25002MPS 6000 NSC 26/25 Q1003 NOSIG
ZGNN,2015-08-09 23:00,ZGNN 092300Z 26002MPS 8000 NSC 26/25 Q1004 NOSIG
ZGNN,2015-08-10 00:00,ZGNN 100000Z 25002MPS 6000 NSC 28/25 Q1005 NOSIG
ZGNN,2015-08-10 01:00,ZGNN 100100Z VRB01MPS CAVOK 30/25 Q1005 NOSIG
ZGNN,2015-08-10 02:00,ZGNN 100200Z 33003MPS 280V020 CAVOK 32/25 Q1006 NOSIG
ZGNN,2015-08-10 03:00,ZGNN 100300Z 35003MPS 310V020 CAVOK 33/24 Q1005 NOSIG
ZGNN,2015-08-10 04:00,ZGNN 100400Z 03003MPS 360V090 9999 FEW026 34/24 Q1005 NOSIG
ZGNN,2015-08-10 05:00,ZGNN 100500Z VRB02MPS 9999 FEW033 35/24 Q1004 NOSIG
ZGNN,2015-08-10 06:00,ZGNN 100600Z VRB02MPS 9999 FEW036 35/25 Q1004 NOSIG
ZGNN,2015-08-10 07:00,ZGNN 100700Z 36003MPS 330V060 9999 FEW036 35/23 Q1003 NOSIG
ZGNN,2015-08-10 08:00,ZGNN 100800Z 36003MPS 320V040 9999 FEW036 35/22 Q1003 NOSIG
ZGNN,2015-08-10 09:00,ZGNN 100900Z 02003MPS 9999 FEW036 35/23 Q1002 NOSIG
ZGNN,2015-08-10 10:00,ZGNN 101000Z 14002MPS CAVOK 34/25 Q1002 NOSIG
ZGNN,2015-08-10 11:00,ZGNN 101100Z 10002MPS 040V190 CAVOK 33/24 Q1003 NOSIG
ZGNN,2015-08-10 12:00,ZGNN 101200Z VRB01MPS CAVOK 32/24 Q1004 NOSIG
ZGNN,2015-08-10 13:00,ZGNN 101300Z VRB01MPS 8000 NSC 31/26 Q1004 NOSIG
ZGNN,2015-08-10 14:00,ZGNN 101400Z 05002MPS 020V110 8000 NSC 30/26 Q1005 NOSIG
ZGNN,2015-08-10 15:00,ZGNN 101500Z VRB01MPS 8000 NSC 30/26 Q1006 NOSIG
ZGNN,2015-08-10 16:00,ZGNN 101600Z VRB01MPS 7000 NSC 29/26 Q1007 NOSIG
ZGNN,2015-08-10 17:00,ZGNN 101700Z 21001MPS 6000 NSC 28/26 Q1007 NOSIG
ZGNN,2015-08-10 18:00,ZGNN 101800Z 15001MPS 5000 BR NSC 28/26 Q1007 NOSIG
ZGNN,2015-08-10 19:00,ZGNN 101900Z VRB01MPS 5000 BR NSC 28/26 Q1006 NOSIG
ZGNN,2015-08-10 20:00,ZGNN 102000Z 13001MPS 4000 BR NSC 28/26 Q1006 NOSIG
ZGNN,2015-08-10 21:00,ZGNN 102100Z 00000MPS 5000 BR NSC 28/26 Q1006 NOSIG
ZGNN,2015-08-10 22:00,ZGNN 102200Z VRB01MPS 3500 BR SCT006 BKN040 27/26 Q1006 BECMG TL2240 2500 BR
ZGNN,2015-08-10 23:00,ZGNN 102300Z VRB01MPS 2500 BR SCT006 BKN040 27/26 Q1007 BECMG TL0030 4000
ZGNN,2015-08-11 00:00,ZGNN 110000Z VRB01MPS 3200 BR SCT008 BKN040 28/26 Q1007 NOSIG
ZGNN,2015-08-11 01:00,ZGNN 110100Z 13002MPS 080V190 3500 BR SCT010 29/27 Q1008 NOSIG
ZGNN,2015-08-11 02:00,ZGNN 110200Z VRB01MPS 4100 BR SCT013 31/27 Q1008 NOSIG
ZGNN,2015-08-11 03:00,ZGNN 110300Z 08002MPS 040V170 9999 FEW020 32/27 Q1008 NOSIG
ZGNN,2015-08-11 04:00,ZGNN 110400Z VRB01MPS 7000 SCT023 34/27 Q1007 NOSIG
ZGNN,2015-08-11 05:00,ZGNN 110500Z VRB02MPS 9999 SCT033 34/25 Q1007 NOSIG
ZGNN,2015-08-11 06:00,ZGNN 110600Z 19003MPS 120V280 9999 SCT040 34/25 Q1006 NOSIG
ZGNN,2015-08-11 07:00,ZGNN 110700Z 27002MPS 240V300 9999 SCT040 34/25 Q1005 NOSIG
ZGNN,2015-08-11 08:00,ZGNN 110800Z 06002MPS 360V090 9999 FEW030CB SCT040 34/24 Q1004 NOSIG
ZGNN,2015-08-11 09:00,ZGNN 110900Z 32002MPS 270V010 9999 SCT040 33/25 Q1004 NOSIG
ZGNN,2015-08-11 10:00,ZGNN 111000Z 07002MPS 340V150 9999 FEW040 34/25 Q1004 NOSIG
ZGNN,2015-08-11 11:00,ZGNN 111100Z 16003MPS CAVOK 30/24 Q1005 NOSIG
ZGNN,2015-08-11 12:00,ZGNN 111200Z VRB01MPS CAVOK 29/25 Q1005 NOSIG
ZGNN,2015-08-11 13:00,ZGNN 111300Z VRB01MPS CAVOK 29/25 Q1006 NOSIG
ZGNN,2015-08-11 14:00,ZGNN 111400Z VRB01MPS CAVOK 28/24 Q1007 NOSIG
ZGNN,2015-08-11 15:00,ZGNN 111500Z 13002MPS 120V190 CAVOK 27/25 Q1008 NOSIG
ZGNN,2015-08-11 16:00,ZGNN 111600Z 12001MPS CAVOK 27/25 Q1007 NOSIG
ZGNN,2015-08-11 17:00,ZGNN 111700Z VRB01MPS CAVOK 27/24 Q1007 NOSIG
ZGNN,2015-08-11 18:00,ZGNN 111800Z VRB01MPS CAVOK 27/25 Q1007 NOSIG
ZGNN,2015-08-11 19:00,ZGNN 111900Z 13001MPS 6000 NSC 26/25 Q1007 NOSIG
ZGNN,2015-08-11 20:00,ZGNN 112000Z VRB01MPS 6000 NSC 26/25 Q1006 NOSIG
ZGNN,2015-08-11 21:00,ZGNN 112100Z 13002MPS 5000 BR NSC 26/25 Q1007 NOSIG
ZGNN,2015-08-11 22:00,ZGNN 112200Z VRB01MPS 5000 BR NSC 26/25 Q1007 NOSIG
ZGNN,2015-08-11 23:00,ZGNN 112300Z 11001MPS 4000 BR NSC 26/25 Q1007 NOSIG
ZGNN,2015-08-12 00:00,ZGNN 120000Z VRB01MPS 4000 BR NSC 27/25 Q1008 NOSIG
ZGNN,2015-08-12 01:00,ZGNN 120100Z VRB01MPS 6000 SCT036 28/25 Q1008 NOSIG
ZGNN,2015-08-12 02:00,ZGNN 120200Z 22002MPS 160V280 7000 NSC 30/26 Q1008 NOSIG
ZGNN,2015-08-12 03:00,ZGNN 120300Z 23003MPS 170V280 8000 FEW020 32/26 Q1008 NOSIG
ZGNN,2015-08-12 04:00,ZGNN 120400Z VRB01MPS 9999 SCT026 33/25 Q1008 NOSIG
ZGNN,2015-08-12 05:00,ZGNN 120500Z 18003MPS 110V260 9999 SCT033 34/25 Q1007 NOSIG
ZGNN,2015-08-12 06:00,ZGNN 120600Z VRB02MPS 9999 SCT040 35/25 Q1006 NOSIG
ZGNN,2015-08-12 07:00,ZGNN 120700Z 14002MPS 100V200 9999 BKN040 34/25 Q1005 NOSIG
ZGNN,2015-08-12 08:00,ZGNN 120800Z 12003MPS 070V170 9999 SCT040 35/24 Q1004 NOSIG
ZGNN,2015-08-12 09:00,ZGNN 120900Z 15005MPS 120V190 9999 FEW040 34/24 Q1004 NOSIG
ZGNN,2015-08-12 10:00,ZGNN 121000Z 14005MPS 110V170 9999 FEW030 33/26 Q1004 NOSIG
ZGNN,2015-08-12 11:00,ZGNN 121100Z 16003MPS 9999 FEW030 32/25 Q1005 NOSIG
ZGNN,2015-08-12 12:00,ZGNN 121200Z 16003MPS 130V190 9999 FEW030 30/24 Q1006 NOSIG
ZGNN,2015-08-12 13:00,ZGNN 121300Z 16003MPS CAVOK 30/24 Q1006 NOSIG
ZGNN,2015-08-12 14:00,ZGNN 121400Z 14002MPS 110V170 CAVOK 29/25 Q1007 NOSIG
ZGNN,2015-08-12 15:00,ZGNN 121500Z 16002MPS CAVOK 28/25 Q1008 NOSIG
ZGNN,2015-08-12 16:00,ZGNN 121600Z VRB01MPS CAVOK 27/25 Q1008 NOSIG
ZGNN,2015-08-12 17:00,ZGNN 121700Z VRB01MPS CAVOK 27/25 Q1007 NOSIG
ZGNN,2015-08-12 18:00,ZGNN 121800Z VRB01MPS CAVOK 27/25 Q1007 NOSIG
ZGNN,2015-08-12 19:00,ZGNN 121900Z VRB01MPS CAVOK 27/25 Q1007 NOSIG
ZGNN,2015-08-12 20:00,ZGNN 122000Z VRB01MPS CAVOK 27/24 Q1007 NOSIG
ZGNN,2015-08-12 21:00,ZGNN 122100Z 36001MPS CAVOK 26/24 Q1006 NOSIG
ZGNN,2015-08-12 22:00,ZGNN 122200Z 15001MPS CAVOK 25/24 Q1007 NOSIG
ZGNN,2015-08-12 23:00,ZGNN 122300Z VRB01MPS CAVOK 26/25 Q1007 NOSIG
ZGNN,2015-08-13 00:00,ZGNN 130000Z VRB01MPS CAVOK 27/24 Q1007 NOSIG
ZGNN,2015-08-13 01:00,ZGNN 130100Z VRB01MPS CAVOK 29/25 Q1008 NOSIG
ZGNN,2015-08-13 02:00,ZGNN 130200Z 23002MPS 180V280 CAVOK 30/24 Q1008 NOSIG
ZGNN,2015-08-13 03:00,ZGNN 130300Z 12002MPS 070V220 CAVOK 32/24 Q1008 NOSIG
ZGNN,2015-08-13 04:00,ZGNN 130400Z VRB02MPS 9999 FEW030 33/24 Q1007 NOSIG
ZGNN,2015-08-13 05:00,ZGNN 130500Z 13002MPS 060V190 9999 SCT030 33/25 Q1007 NOSIG
ZGNN,2015-08-13 06:00,ZGNN 130600Z 15002MPS 090V210 9999 SCT030 34/24 Q1006 NOSIG
ZGNN,2015-08-13 07:00,ZGNN 130700Z 15003MPS 110V190 9999 SCT033 33/24 Q1005 NOSIG
ZGNN,2015-08-13 08:00,ZGNN 130800Z 16002MPS 110V200 9999 FEW033 33/24 Q1004 NOSIG
ZGNN,2015-08-13 09:00,ZGNN 130900Z 16003MPS 120V200 9999 FEW033CB FEW033 33/24 Q1003 NOSIG
ZGNN,2015-08-13 10:00,ZGNN 131000Z 21005MPS 9999 TS FEW033CB FEW033 30/24 Q1004 BECMG TL1100 NSW
ZGNN,2015-08-13 11:00,ZGNN 131100Z VRB01MPS CAVOK 29/25 Q1004 RETS NOSIG
ZGNN,2015-08-13 12:00,ZGNN 131200Z 17002MPS CAVOK 29/26 Q1005 NOSIG
ZGNN,2015-08-13 13:00,ZGNN 131300Z 16003MPS CAVOK 29/25 Q1006 NOSIG
ZGNN,2015-08-13 14:00,ZGNN 131400Z 16002MPS 130V190 CAVOK 28/25 Q1006 NOSIG
ZGNN,2015-08-13 15:00,ZGNN 131500Z 15002MPS 100V180 CAVOK 28/25 Q1007 NOSIG
ZGNN,2015-08-13 16:00,ZGNN 131600Z 16001MPS CAVOK 28/25 Q1006 NOSIG
ZGNN,2015-08-13 17:00,ZGNN 131700Z 00000MPS CAVOK 27/25 Q1006 NOSIG
ZGNN,2015-08-13 18:00,ZGNN 131800Z VRB01MPS CAVOK 27/25 Q1006 NOSIG
ZGNN,2015-08-13 19:00,ZGNN 131900Z 26001MPS CAVOK 27/25 Q1006 NOSIG
ZGNN,2015-08-13 20:00,ZGNN 132000Z 10001MPS CAVOK 26/25 Q1005 NOSIG
ZGNN,2015-08-13 21:00,ZGNN 132100Z 09001MPS CAVOK 26/25 Q1005 NOSIG
ZGNN,2015-08-13 22:00,ZGNN 132200Z 10001MPS CAVOK 26/25 Q1005 NOSIG
ZGNN,2015-08-13 23:00,ZGNN 132300Z 04002MPS CAVOK 27/25 Q1006 NOSIG
ZGNN,2015-08-14 00:00,ZGNN 140000Z 00000MPS 9999 FEW020 SCT043 28/25 Q1007 NOSIG
ZGNN,2015-08-14 01:00,ZGNN 140100Z VRB01MPS CAVOK 29/26 Q1007 NOSIG
ZGNN,2015-08-14 02:00,ZGNN 140200Z VRB01MPS CAVOK 30/26 Q1007 NOSIG
ZGNN,2015-08-14 03:00,ZGNN 140300Z VRB01MPS 9999 FEW020 32/25 Q1006 NOSIG
ZGNN,2015-08-14 04:00,ZGNN 140400Z 22002MPS 160V290 9999 FEW030 33/25 Q1006 NOSIG
ZGNN,2015-08-14 05:00,ZGNN 140500Z 19002MPS 140V260 9999 SCT030 33/25 Q1005 NOSIG
ZGNN,2015-08-14 06:00,ZGNN 140600Z 19003MPS 160V310 9999 SCT030 35/24 Q1004 NOSIG
ZGNN,2015-08-14 07:00,ZGNN 140700Z 15004MPS 110V180 9999 SCT030 34/25 Q1003 NOSIG
ZGNN,2015-08-14 08:00,ZGNN 140800Z 17004MPS 130V210 6000 TSRA FEW023CB SCT023 SCT040 30/28 Q1002 BECMG TL0850 -TSRA
ZGNN,2015-08-14 09:00,ZGNN 140900Z 10003MPS 080V140 6000 -TSRA FEW023CB FEW023 23/23 Q1004 RESHRA BECMG TL0955 NSW
ZGNN,2015-08-14 10:00,ZGNN 141000Z 00000MPS 9999 -SHRA FEW013 FEW030CB 24/23 Q1004 RETS NOSIG
ZGNN,2015-08-14 11:00,ZGNN 141100Z VRB01MPS 9999 -SHRA FEW030CB 24/24 Q1004 RETS NOSIG
ZGNN,2015-08-14 12:00,ZGNN 141200Z 03002MPS 350V070 9999 -RA FEW020 25/24 Q1005 NOSIG
ZGNN,2015-08-14 13:00,ZGNN 141300Z 02002MPS 9999 FEW020 25/24 Q1006 NOSIG
ZGNN,2015-08-14 14:00,ZGNN 141400Z VRB01MPS 9999 FEW010 25/25 Q1006 NOSIG
ZGNN,2015-08-14 15:00,ZGNN 141500Z 36002MPS 9999 FEW007 SCT010 26/25 Q1006 NOSIG
ZGNN,2015-08-14 16:00,ZGNN 141600Z 03002MPS 360V070 9999 SCT007 SCT010 26/26 Q1006 NOSIG
ZGNN,2015-08-14 17:00,ZGNN 141700Z 05002MPS 8000 NSC 27/26 Q1006 NOSIG
ZGNN,2015-08-14 18:00,ZGNN 141800Z 03002MPS 7000 NSC 26/26 Q1006 NOSIG
ZGNN,2015-08-14 19:00,ZGNN 141900Z 04002MPS 8000 NSC 27/26 Q1006 NOSIG
ZGNN,2015-08-14 20:00,ZGNN 142000Z 04001MPS 8000 NSC 26/25 Q1005 NOSIG
ZGNN,2015-08-14 21:00,ZGNN 142100Z 34001MPS 8000 NSC 26/25 Q1005 NOSIG
ZGNN,2015-08-14 22:00,ZGNN 142200Z 04001MPS 8000 FEW033 26/25 Q1005 NOSIG
ZGNN,2015-08-14 23:00,ZGNN 142300Z 04001MPS CAVOK 26/25 Q1006 NOSIG
ZGNN,2015-08-15 00:00,ZGNN 150000Z VRB01MPS CAVOK 28/26 Q1006 NOSIG
ZGNN,2015-08-15 01:00,ZGNN 150100Z VRB01MPS CAVOK 29/26 Q1007 NOSIG
ZGNN,2015-08-15 02:00,ZGNN 150200Z VRB01MPS 9999 FEW013 30/26 Q1006 NOSIG
ZGNN,2015-08-15 03:00,ZGNN 150300Z VRB01MPS 9999 FEW016 31/27 Q1007 NOSIG
ZGNN,2015-08-15 04:00,ZGNN 150400Z 14002MPS 090V180 9999 SCT016 32/27 Q1006 NOSIG
ZGNN,2015-08-15 05:00,ZGNN 150500Z 14002MPS 100V210 9999 SCT020 33/26 Q1006 NOSIG
ZGNN,2015-08-15 06:00,ZGNN 150600Z VRB02MPS 9999 SCT026 FEW030TCU 33/27 Q1005 NOSIG
ZGNN,2015-08-15 07:00,ZGNN 150700Z 16002MPS 120V190 9999 SCT020 FEW026TCU 32/26 Q1004 NOSIG
ZGNN,2015-08-15 08:00,ZGNN 150800Z 15003MPS 120V180 9999 SCT023 32/27 Q1004 NOSIG
ZGNN,2015-08-15 09:00,ZGNN 150900Z 15004MPS 9999 SCT023 31/27 Q1004 NOSIG
ZGNN,2015-08-15 10:00,ZGNN 151000Z 15005MPS 120V180 9999 FEW030 30/26 Q1004 NOSIG
ZGNN,2015-08-15 11:00,ZGNN 151100Z 15004MPS 120V180 CAVOK 30/27 Q1005 NOSIG
ZGNN,2015-08-15 12:00,ZGNN 151200Z 15003MPS 120V180 CAVOK 29/26 Q1005 NOSIG
ZGNN,2015-08-15 13:00,ZGNN 151300Z 16002MPS 110V180 CAVOK 28/26 Q1005 NOSIG
ZGNN,2015-08-15 14:00,ZGNN 151400Z VRB01MPS CAVOK 28/26 Q1006 NOSIG
ZGNN,2015-08-15 15:00,ZGNN 151500Z 15001MPS CAVOK 28/26 Q1006 NOSIG
ZGNN,2015-08-15 16:00,ZGNN 151600Z VRB01MPS CAVOK 28/26 Q1007 NOSIG
ZGNN,2015-08-15 17:00,ZGNN 151700Z VRB01MPS CAVOK 27/26 Q1007 NOSIG
ZGNN,2015-08-15 18:00,ZGNN 151800Z VRB01MPS CAVOK 27/26 Q1006 NOSIG
ZGNN,2015-08-15 19:00,ZGNN 151900Z 00000MPS CAVOK 27/25 Q1006 NOSIG
ZGNN,2015-08-15 20:00,ZGNN 152000Z 10001MPS CAVOK 27/25 Q1005 NOSIG
ZGNN,2015-08-15 21:00,ZGNN 152100Z VRB01MPS CAVOK 27/25 Q1005 NOSIG
ZGNN,2015-08-15 22:00,ZGNN 152200Z 02002MPS CAVOK 27/25 Q1006 NOSIG
ZGNN,2015-08-15 23:00,ZGNN 152300Z 05002MPS CAVOK 27/25 Q1006 NOSIG
ZGNN,2015-08-16 00:00,ZGNN 160000Z VRB01MPS CAVOK 29/26 Q1006 NOSIG
ZGNN,2015-08-16 01:00,ZGNN 160100Z 16002MPS 130V220 9999 FEW013 31/26 Q1007 NOSIG
ZGNN,2015-08-16 02:00,ZGNN 160200Z 14002MPS 100V180 9999 FEW020 32/26 Q1007 NOSIG
ZGNN,2015-08-16 03:00,ZGNN 160300Z 14004MPS 110V170 9999 SCT023 33/26 Q1007 NOSIG
ZGNN,2015-08-16 04:00,ZGNN 160400Z 10002MPS 020V160 9999 SCT026 33/26 Q1006 NOSIG
ZGNN,2015-08-16 05:00,ZGNN 160500Z 12003MPS 090V190 9999 SCT033 35/26 Q1005 NOSIG
ZGNN,2015-08-16 06:00,ZGNN 160600Z 14004MPS 110V170 9999 -SHRA FEW030TCU SCT030 34/26 Q1005 NOSIG
ZGNN,2015-08-16 07:00,ZGNN 160700Z 14004MPS 110V170 9999 FEW030CB FEW030 33/26 Q1004 NOSIG
ZGNN,2015-08-16 08:00,ZGNN 160800Z 36006MPS 9999 TSRA FEW030CB FEW030 29/26 Q1003 BECMG TL0830 -SHRA
ZGNN,2015-08-16 09:00,ZGNN 160900Z 02004G09MPS 320V060 9999 -TSRA FEW010 FEW026CB 29/25 Q1004 RESHRA BECMG TL1000 -SHRA
ZGNN,2015-08-16 10:00,ZGNN 161000Z 01003MPS 9999 -TSRA FEW010 FEW026CB 28/27 Q1004 BECMG TL1015 TSRA
ZGNN,2015-08-16 11:00,ZGNN 161100Z 08002MPS 020V180 9999 -SHRA FEW013 29/27 Q1004 RETSRA NOSIG
ZGNN,2015-08-16 12:00,ZGNN 161200Z 12002MPS 090V200 CAVOK 29/27 Q1004 NOSIG
ZGNN,2015-08-16 13:00,ZGNN 161300Z VRB01MPS CAVOK 29/26 Q1005 NOSIG
ZGNN,2015-08-16 14:00,ZGNN 161400Z VRB01MPS CAVOK 28/26 Q1006 NOSIG
ZGNN,2015-08-16 15:00,ZGNN 161500Z VRB01MPS CAVOK 28/26 Q1007 NOSIG
ZGNN,2015-08-16 16:00,ZGNN 161600Z VRB01MPS CAVOK 28/26 Q1006 NOSIG
ZGNN,2015-08-16 17:00,ZGNN 161700Z 11001MPS CAVOK 27/26 Q1006 NOSIG
ZGNN,2015-08-16 18:00,ZGNN 161800Z VRB01MPS CAVOK 27/26 Q1006 NOSIG
ZGNN,2015-08-16 19:00,ZGNN 161900Z VRB01MPS CAVOK 27/26 Q1005 NOSIG
ZGNN,2015-08-16 20:00,ZGNN 162000Z 10001MPS CAVOK 27/26 Q1005 NOSIG
ZGNN,2015-08-16 21:00,ZGNN 162100Z 10001MPS CAVOK 27/26 Q1005 NOSIG
ZGNN,2015-08-16 22:00,ZGNN 162200Z 10002MPS CAVOK 27/26 Q1005 NOSIG
ZGNN,2015-08-16 23:00,ZGNN 162300Z VRB01MPS CAVOK 27/25 Q1005 NOSIG
ZGNN,2015-08-17 00:00,ZGNN 170000Z 14002MPS CAVOK 29/26 Q1006 NOSIG
ZGNN,2015-08-17 01:00,ZGNN 170100Z 15003MPS CAVOK 30/26 Q1006 NOSIG
ZGNN,2015-08-17 02:00,ZGNN 170200Z 14003MPS 110V170 9999 FEW013 32/26 Q1006 NOSIG
ZGNN,2015-08-17 03:00,ZGNN 170300Z 16003MPS 130V190 9999 SCT023 33/26 Q1006 NOSIG
ZGNN,2015-08-17 04:00,ZGNN 170400Z 16004MPS 120V190 9999 BKN026 33/27 Q1006 NOSIG
ZGNN,2015-08-17 05:00,ZGNN 170500Z 16004MPS 130V200 9999 FEW030TCU SCT033 35/27 Q1005 NOSIG
ZGNN,2015-08-17 06:00,ZGNN 170600Z 14005MPS 9999 TS FEW030CB SCT040 35/27 Q1004 BECMG NSW
ZGNN,2015-08-17 07:00,ZGNN 170700Z VRB01MPS 9999 TS SCT026 FEW030CB 30/26 Q1004 RESHRA BECMG TL0740 NSW
ZGNN,2015-08-17 08:00,ZGNN 170800Z VRB03MPS 9999 -SHRA FEW030CB FEW030 30/27 Q1003 RETS NOSIG
ZGNN,2015-08-17 09:00,ZGNN 170900Z 14004MPS 9999 FEW030 32/26 Q1003 NOSIG
ZGNN,2015-08-17 10:00,ZGNN 171000Z 14004MPS CAVOK 31/27 Q1003 NOSIG
ZGNN,2015-08-17 11:00,ZGNN 171100Z 15005MPS CAVOK 30/26 Q1003 NOSIG
ZGNN,2015-08-17 12:00,ZGNN 171200Z 15004MPS 120V180 CAVOK 30/25 Q1004 NOSIG
ZGNN,2015-08-17 13:00,ZGNN 171300Z 14002MPS 110V180 CAVOK 29/26 Q1005 NOSIG
ZGNN,2015-08-17 14:00,ZGNN 171400Z VRB01MPS CAVOK 28/26 Q1006 NOSIG
ZGNN,2015-08-17 15:00,ZGNN 171500Z VRB01MPS CAVOK 28/26 Q1006 NOSIG
ZGNN,2015-08-17 16:00,ZGNN 171600Z 15002MPS CAVOK 28/26 Q1006 NOSIG
ZGNN,2015-08-17 17:00,ZGNN 171700Z VRB01MPS CAVOK 27/26 Q1006 NOSIG
ZGNN,2015-08-17 18:00,ZGNN 171800Z 09001MPS CAVOK 27/26 Q1006 NOSIG
ZGNN,2015-08-17 19:00,ZGNN 171900Z 12001MPS CAVOK 27/26 Q1006 NOSIG
ZGNN,2015-08-17 20:00,ZGNN 172000Z VRB01MPS CAVOK 27/26 Q1005 NOSIG
ZGNN,2015-08-17 21:00,ZGNN 172100Z VRB01MPS CAVOK 27/25 Q1005 NOSIG
ZGNN,2015-08-17 22:00,ZGNN 172200Z 13002MPS CAVOK 27/25 Q1005 NOSIG
ZGNN,2015-08-17 23:00,ZGNN 172300Z 15002MPS 9999 FEW030TCU 27/26 Q1006 NOSIG
ZGNN,2015-08-18 00:00,ZGNN 180000Z 16002MPS 110V200 9999 FEW030TCU 28/26 Q1006 NOSIG
ZGNN,2015-08-18 01:00,ZGNN 180100Z 15005MPS 9999 FEW010 30/27 Q1006 NOSIG
ZGNN,2015-08-18 02:00,ZGNN 180200Z 15004MPS 9999 FEW015 31/25 Q1006 NOSIG
ZGNN,2015-08-18 03:00,ZGNN 180300Z 15005MPS 120V180 9999 SCT020 32/26 Q1006 NOSIG
ZGNN,2015-08-18 04:00,ZGNN 180400Z 16004MPS 130V190 9999 BKN023 33/27 Q1006 NOSIG
ZGNN,2015-08-18 05:00,ZGNN 180500Z 16004MPS 130V190 9999 BKN026 34/26 Q1005 NOSIG
ZGNN,2015-08-18 06:00,ZGNN 180600Z 16004MPS 130V190 9999 TS FEW033CB BKN033 34/26 Q1004 BECMG TL0700 NSW
ZGNN,2015-08-18 07:00,ZGNN 180700Z 13003MPS 100V160 9999 FEW033CB SCT033 34/26 Q1003 RETS NOSIG
ZGNN,2015-08-18 08:00,ZGNN 180800Z 15005MPS 120V180 9999 FEW033CB SCT033 34/26 Q1003 NOSIG
ZGNN,2015-08-18 09:00,ZGNN 180900Z 15004MPS 120V180 9999 FEW033CB FEW033 33/26 Q1002 NOSIG
ZGNN,2015-08-18 10:00,ZGNN 181000Z 14004MPS 9999 FEW033 32/26 Q1003 NOSIG
ZGNN,2015-08-18 11:00,ZGNN 181100Z 14004MPS 9999 FEW033 31/26 Q1003 NOSIG
ZGNN,2015-08-18 12:00,ZGNN 181200Z 14004MPS CAVOK 30/26 Q1004 NOSIG
ZGNN,2015-08-18 13:00,ZGNN 181300Z 15003MPS 100V190 CAVOK 29/26 Q1004 NOSIG
ZGNN,2015-08-18 14:00,ZGNN 181400Z 14002MPS 100V170 CAVOK 29/26 Q1005 NOSIG
ZGNN,2015-08-18 15:00,ZGNN 181500Z 13002MPS 120V180 CAVOK 28/26 Q1006 NOSIG
ZGNN,2015-08-18 16:00,ZGNN 181600Z 12002MPS CAVOK 28/26 Q1006 NOSIG
ZGNN,2015-08-18 17:00,ZGNN 181700Z VRB01MPS CAVOK 28/26 Q1006 NOSIG
ZGNN,2015-08-18 18:00,ZGNN 181800Z VRB01MPS 9999 FEW013 28/26 Q1005 NOSIG
ZGNN,2015-08-18 19:00,ZGNN 181900Z 12003MPS CAVOK 28/26 Q1005 NOSIG
ZGNN,2015-08-18 20:00,ZGNN 182000Z 11003MPS CAVOK 27/26 Q1005 NOSIG
ZGNN,2015-08-18 21:00,ZGNN 182100Z 09002MPS CAVOK 27/26 Q1005 NOSIG
ZGNN,2015-08-18 22:00,ZGNN 182200Z VRB01MPS 9999 SCT010 27/26 Q1005 NOSIG
ZGNN,2015-08-18 23:00,ZGNN 182300Z VRB01MPS 9999 SCT010 28/26 Q1006 NOSIG
ZGNN,2015-08-19 00:00,ZGNN 190000Z 09002MPS 060V130 9999 SCT010 29/26 Q1007 NOSIG
ZGNN,2015-08-19 01:00,ZGNN 190100Z 16003MPS 130V190 9999 SCT013 30/26 Q1007 NOSIG
ZGNN,2015-08-19 02:00,ZGNN 190200Z 18003MPS 140V220 9999 SCT015 31/26 Q1008 TEMPO TSRA
ZGNN,2015-08-19 03:00,ZGNN 190300Z 24004MPS 9999 FEW023 30/25 Q1007 NOSIG
ZGNN,2015-08-19 04:00,ZGNN 190400Z 17002MPS 130V230 9999 FEW023 32/24 Q1007 NOSIG
ZGNN,2015-08-19 05:00,ZGNN 190500Z VRB02MPS 9999 FEW023 32/24 Q1007 NOSIG
ZGNN,2015-08-19 06:00,ZGNN 190600Z 14002MPS 110V200 9999 FEW026 33/25 Q1007 NOSIG
ZGNN,2015-08-19 07:00,ZGNN 190700Z 27001MPS 9999 FEW030 34/25 Q1006 NOSIG
ZGNN,2015-08-19 08:00,ZGNN 190800Z VRB01MPS 9999 FEW030CB FEW030 35/25 Q1005 NOSIG
ZGNN,2015-08-19 09:00,ZGNN 190900Z VRB01MPS 9999 FEW033 35/25 Q1005 NOSIG
ZGNN,2015-08-19 10:00,ZGNN 191000Z 07002MPS 040V110 9999 FEW033TCU FEW033 33/26 Q1005 NOSIG
ZGNN,2015-08-19 11:00,ZGNN 191100Z 33006MPS 8000 SHRA FEW016 FEW030CB 28/27 Q1006 BECMG TL1120 -SHRA
ZGNN,2015-08-19 12:00,ZGNN 191200Z VRB03MPS 9999 -SHRA FEW023 FEW030CB 27/26 Q1006 RESHRA NOSIG
ZGNN,2015-08-19 13:00,ZGNN 191300Z 35006MPS 9999 BKN033 27/24 Q1007 NOSIG
ZGNN,2015-08-19 14:00,ZGNN 191400Z 01005MPS 9999 SCT033 27/24 Q1008 NOSIG
ZGNN,2015-08-19 15:00,ZGNN 191500Z 33003MPS 290V020 9999 SCT033 27/24 Q1008 NOSIG
ZGNN,2015-08-19 16:00,ZGNN 191600Z 03002MPS 340V070 9999 FEW033 27/24 Q1008 NOSIG
ZGNN,2015-08-19 17:00,ZGNN 191700Z 32003MPS 280V020 9999 FEW033 27/24 Q1008 NOSIG
ZGNN,2015-08-19 18:00,ZGNN 191800Z 32002MPS 290V010 9999 BKN033 26/24 Q1008 NOSIG
ZGNN,2015-08-19 19:00,ZGNN 191900Z 34002MPS 300V020 9999 BKN033 26/23 Q1008 NOSIG
ZGNN,2015-08-19 20:00,ZGNN 192000Z VRB01MPS 9999 FEW033 26/24 Q1008 NOSIG
ZGNN,2015-08-19 21:00,ZGNN 192100Z VRB01MPS 9999 FEW036 26/24 Q1009 NOSIG
ZGNN,2015-08-19 22:00,ZGNN 192200Z VRB01MPS 9999 SCT036 26/23 Q1009 NOSIG
ZGNN,2015-08-19 23:00,ZGNN 192300Z VRB01MPS CAVOK 26/23 Q1009 NOSIG
ZGNN,2015-08-20 00:00,ZGNN 200000Z 33003MPS 290V020 CAVOK 28/24 Q1010 NOSIG
ZGNN,2015-08-20 01:00,ZGNN 200100Z 34002MPS 280V020 9999 SCT040 29/24 Q1010 NOSIG
ZGNN,2015-08-20 02:00,ZGNN 200200Z 32004MPS 290V010 9999 FEW023 SCT046 30/24 Q1010 NOSIG
ZGNN,2015-08-20 03:00,ZGNN 200300Z 33004MPS 9999 FEW023 30/24 Q1010 NOSIG
ZGNN,2015-08-20 04:00,ZGNN 200400Z 36003MPS 310V040 9999 SCT026 31/24 Q1009 NOSIG
ZGNN,2015-08-20 05:00,ZGNN 200500Z 34003MPS 310V020 9999 SCT026 32/25 Q1008 NOSIG
ZGNN,2015-08-20 06:00,ZGNN 200600Z 35004MPS 9999 SCT026 32/24 Q1007 NOSIG
ZGNN,2015-08-20 07:00,ZGNN 200700Z 33003MPS 290V020 9999 SCT026 33/24 Q1007 NOSIG
ZGNN,2015-08-20 08:00,ZGNN 200800Z 32003MPS 280V360 9999 FEW030 33/24 Q1007 NOSIG
ZGNN,2015-08-20 09:00,ZGNN 200900Z 33003MPS 9999 FEW030 33/24 Q1006 NOSIG
ZGNN,2015-08-20 10:00,ZGNN 201000Z 36004MPS 9999 FEW030 32/24 Q1006 NOSIG
ZGNN,2015-08-20 11:00,ZGNN 201100Z 34003MPS CAVOK 30/24 Q1006 NOSIG
ZGNN,2015-08-20 12:00,ZGNN 201200Z 35003MPS CAVOK 29/24 Q1007 NOSIG
ZGNN,2015-08-20 13:00,ZGNN 201300Z 33002MPS 300V010 CAVOK 29/23 Q1008 NOSIG
ZGNN,2015-08-20 14:00,ZGNN 201400Z VRB01MPS CAVOK 29/23 Q1008 NOSIG
ZGNN,2015-08-20 15:00,ZGNN 201500Z 35001MPS CAVOK 28/23 Q1008 NOSIG
ZGNN,2015-08-20 16:00,ZGNN 201600Z 33002MPS CAVOK 28/23 Q1008 NOSIG
ZGNN,2015-08-20 17:00,ZGNN 201700Z 13001MPS CAVOK 26/25 Q1008 NOSIG
ZGNN,2015-08-20 18:00,ZGNN 201800Z 35001MPS CAVOK 28/23 Q1008 NOSIG
ZGNN,2015-08-20 19:00,ZGNN 201900Z 36002MPS CAVOK 28/23 Q1007 NOSIG
ZGNN,2015-08-20 20:00,ZGNN 202000Z 26002MPS CAVOK 27/24 Q1007 NOSIG
ZGNN,2015-08-20 21:00,ZGNN 202100Z 29002MPS CAVOK 26/23 Q1007 NOSIG
ZGNN,2015-08-20 22:00,ZGNN 202200Z 29002MPS CAVOK 26/23 Q1007 NOSIG
ZGNN,2015-08-20 23:00,ZGNN 202300Z 34001MPS CAVOK 26/23 Q1007 NOSIG
ZGNN,2015-08-21 00:00,ZGNN 210000Z 33002MPS CAVOK 28/24 Q1007 NOSIG
ZGNN,2015-08-21 01:00,ZGNN 210100Z 32002MPS 280V360 CAVOK 30/24 Q1007 NOSIG
ZGNN,2015-08-21 02:00,ZGNN 210200Z 36004MPS 310V030 9999 FEW023 30/23 Q1008 NOSIG
ZGNN,2015-08-21 03:00,ZGNN 210300Z 01005MPS 9999 SCT030 31/23 Q1007 NOSIG
ZGNN,2015-08-21 04:00,ZGNN 210400Z 34003MPS 300V020 9999 SCT030 32/24 Q1007 NOSIG
ZGNN,2015-08-21 05:00,ZGNN 210500Z 32003MPS 260V030 9999 SCT030 34/23 Q1006 NOSIG
ZGNN,2015-08-21 06:00,ZGNN 210600Z 34004MPS 300V020 9999 SCT033 34/22 Q1005 NOSIG
ZGNN,2015-08-21 07:00,ZGNN 210700Z 35005MPS 9999 FEW033 33/23 Q1004 NOSIG
ZGNN,2015-08-21 08:00,ZGNN 210800Z 34004MPS 310V020 9999 FEW033 34/22 Q1004 NOSIG
ZGNN,2015-08-21 09:00,ZGNN 210900Z 33004MPS 310V010 CAVOK 34/22 Q1003 NOSIG
ZGNN,2015-08-21 10:00,ZGNN 211000Z 35003MPS 330V030 CAVOK 32/22 Q1003 NOSIG
ZGNN,2015-08-21 11:00,ZGNN 211100Z 34002MPS CAVOK 31/23 Q1003 NOSIG
ZGNN,2015-08-21 12:00,ZGNN 211200Z 02002MPS CAVOK 30/23 Q1004 NOSIG
ZGNN,2015-08-21 13:00,ZGNN 211300Z VRB01MPS CAVOK 30/24 Q1004 NOSIG
ZGNN,2015-08-21 14:00,ZGNN 211400Z VRB01MPS CAVOK 28/24 Q1005 NOSIG
ZGNN,2015-08-21 15:00,ZGNN 211500Z VRB01MPS CAVOK 28/24 Q1005 NOSIG
ZGNN,2015-08-21 16:00,ZGNN 211600Z 26002MPS CAVOK 27/23 Q1005 NOSIG
ZGNN,2015-08-21 17:00,ZGNN 211700Z VRB01MPS CAVOK 26/24 Q1005 NOSIG
ZGNN,2015-08-21 18:00,ZGNN 211800Z 27001MPS CAVOK 26/23 Q1005 NOSIG
ZGNN,2015-08-21 19:00,ZGNN 211900Z 25001MPS CAVOK 26/24 Q1004 NOSIG
ZGNN,2015-08-21 20:00,ZGNN 212000Z 25001MPS CAVOK 26/23 Q1004 NOSIG
ZGNN,2015-08-21 21:00,ZGNN 212100Z VRB01MPS CAVOK 26/24 Q1004 NOSIG
ZGNN,2015-08-21 22:00,ZGNN 212200Z VRB01MPS CAVOK 26/24 Q1004 NOSIG
ZGNN,2015-08-21 23:00,ZGNN 212300Z VRB01MPS CAVOK 26/24 Q1004 NOSIG
ZGNN,2015-08-22 00:00,ZGNN 220000Z VRB01MPS CAVOK 28/24 Q1005 NOSIG
ZGNN,2015-08-22 01:00,ZGNN 220100Z VRB01MPS CAVOK 29/24 Q1005 NOSIG
ZGNN,2015-08-22 02:00,ZGNN 220200Z 34002MPS 280V040 CAVOK 31/23 Q1005 NOSIG
ZGNN,2015-08-22 03:00,ZGNN 220300Z 34004MPS CAVOK 32/23 Q1005 NOSIG
ZGNN,2015-08-22 04:00,ZGNN 220400Z 36004MPS 310V030 9999 FEW023 33/23 Q1004 NOSIG
ZGNN,2015-08-22 05:00,ZGNN 220500Z 35005MPS 320V020 9999 SCT030 34/22 Q1003 NOSIG
ZGNN,2015-08-22 06:00,ZGNN 220600Z 33003MPS 290V040 9999 SCT030 35/21 Q1002 NOSIG
ZGNN,2015-08-22 07:00,ZGNN 220700Z 02005MPS 340V040 9999 FEW030 35/20 Q1001 NOSIG
ZGNN,2015-08-22 08:00,ZGNN 220800Z 01005MPS 340V050 9999 FEW030 35/17 Q1001 NOSIG
ZGNN,2015-08-22 09:00,ZGNN 220900Z 02004MPS 9999 FEW030 35/17 Q1001 NOSIG
ZGNN,2015-08-22 10:00,ZGNN 221000Z 03003MPS CAVOK 34/18 Q1001 NOSIG
ZGNN,2015-08-22 11:00,ZGNN 221100Z 35002MPS 330V030 CAVOK 32/20 Q1001 NOSIG
ZGNN,2015-08-22 12:00,ZGNN 221200Z 02002MPS 340V060 CAVOK 31/21 Q1002 NOSIG
ZGNN,2015-08-22 13:00,ZGNN 221300Z 01001MPS CAVOK 30/22 Q1003 NOSIG
ZGNN,2015-08-22 14:00,ZGNN 221400Z VRB01MPS CAVOK 28/23 Q1003 NOSIG
ZGNN,2015-08-22 15:00,ZGNN 221500Z VRB01MPS 9000 NSC 27/23 Q1003 NOSIG
ZGNN,2015-08-22 16:00,ZGNN 221600Z VRB01MPS 8000 NSC 26/22 Q1003 NOSIG
ZGNN,2015-08-22 17:00,ZGNN 221700Z VRB01MPS 8000 NSC 26/23 Q1003 NOSIG
ZGNN,2015-08-22 18:00,ZGNN 221800Z 27002MPS 260V340 7000 NSC 25/22 Q1003 NOSIG
ZGNN,2015-08-22 19:00,ZGNN 221900Z 00000MPS 7000 NSC 25/23 Q1002 NOSIG
ZGNN,2015-08-22 20:00,ZGNN 222000Z 25001MPS 7000 NSC 25/22 Q1003 NOSIG
ZGNN,2015-08-22 21:00,ZGNN 222100Z 22001MPS 7000 NSC 24/22 Q1003 NOSIG
ZGNN,2015-08-22 22:00,ZGNN 222200Z 20001MPS 7000 NSC 24/22 Q1003 NOSIG
ZGNN,2015-08-22 23:00,ZGNN 222300Z 23001MPS 7000 NSC 24/22 Q1004 NOSIG
ZGNN,2015-08-23 00:00,ZGNN 230000Z VRB01MPS 6000 NSC 26/23 Q1004 NOSIG
ZGNN,2015-08-23 01:00,ZGNN 230100Z VRB01MPS 7000 NSC 29/24 Q1005 NOSIG
ZGNN,2015-08-23 02:00,ZGNN 230200Z 35002MPS 280V090 CAVOK 31/23 Q1005 NOSIG
ZGNN,2015-08-23 03:00,ZGNN 230300Z 35002MPS 300V030 CAVOK 33/22 Q1004 NOSIG
ZGNN,2015-08-23 04:00,ZGNN 230400Z 02003MPS 340V060 CAVOK 33/21 Q1004 NOSIG
ZGNN,2015-08-23 05:00,ZGNN 230500Z 35003MPS 290V050 CAVOK 34/21 Q1003 NOSIG
ZGNN,2015-08-23 06:00,ZGNN 230600Z 02003MPS CAVOK 34/20 Q1002 NOSIG
ZGNN,2015-08-23 07:00,ZGNN 230700Z 36003MPS 300V040 CAVOK 35/20 Q1001 NOSIG
ZGNN,2015-08-23 08:00,ZGNN 230800Z 36004MPS CAVOK 35/18 Q1001 NOSIG
ZGNN,2015-08-23 09:00,ZGNN 230900Z 04003MPS 350V080 CAVOK 35/17 Q1001 NOSIG
ZGNN,2015-08-23 10:00,ZGNN 231000Z 02003MPS CAVOK 35/16 Q1001 NOSIG
ZGNN,2015-08-23 11:00,ZGNN 231100Z 34002MPS CAVOK 32/21 Q1001 NOSIG
ZGNN,2015-08-23 12:00,ZGNN 231200Z 02003MPS CAVOK 31/20 Q1002 NOSIG
ZGNN,2015-08-23 13:00,ZGNN 231300Z VRB01MPS CAVOK 29/22 Q1003 NOSIG
ZGNN,2015-08-23 14:00,ZGNN 231400Z 00000MPS CAVOK 28/22 Q1004 NOSIG
ZGNN,2015-08-23 15:00,ZGNN 231500Z VRB01MPS 8000 NSC 27/23 Q1004 NOSIG
ZGNN,2015-08-23 16:00,ZGNN 231600Z VRB01MPS 7000 NSC 26/22 Q1004 NOSIG
ZGNN,2015-08-23 17:00,ZGNN 231700Z 00000MPS 6000 NSC 26/22 Q1004 NOSIG
ZGNN,2015-08-23 18:00,ZGNN 231800Z 00000MPS 6000 NSC 25/23 Q1004 NOSIG
ZGNN,2015-08-23 19:00,ZGNN 231900Z 26001MPS 6000 NSC 24/22 Q1003 NOSIG
ZGNN,2015-08-23 20:00,ZGNN 232000Z 28001MPS 6000 NSC 24/22 Q1003 NOSIG
ZGNN,2015-08-23 21:00,ZGNN 232100Z 00000MPS 6000 NSC 24/22 Q1004 NOSIG
ZGNN,2015-08-23 22:00,ZGNN 232200Z 05001MPS 7000 NSC 24/22 Q1004 NOSIG
ZGNN,2015-08-23 23:00,ZGNN 232300Z 28001MPS 6000 NSC 24/22 Q1004 NOSIG
ZGNN,2015-08-24 00:00,ZGNN 240000Z VRB01MPS 6000 NSC 26/23 Q1005 NOSIG
ZGNN,2015-08-24 01:00,ZGNN 240100Z VRB01MPS 5000 BR NSC 28/24 Q1006 NOSIG
ZGNN,2015-08-24 02:00,ZGNN 240200Z VRB01MPS CAVOK 32/24 Q1006 NOSIG
ZGNN,2015-08-24 03:00,ZGNN 240300Z 08002MPS 360V140 CAVOK 33/20 Q1005 NOSIG
ZGNN,2015-08-24 04:00,ZGNN 240400Z 05003MPS 350V120 CAVOK 34/20 Q1005 NOSIG
ZGNN,2015-08-24 05:00,ZGNN 240500Z VRB02MPS CAVOK 34/19 Q1004 NOSIG
ZGNN,2015-08-24 06:00,ZGNN 240600Z 34003MPS 270V030 CAVOK 35/19 Q1004 NOSIG
ZGNN,2015-08-24 07:00,ZGNN 240700Z 34003MPS 280V020 CAVOK 35/18 Q1003 NOSIG
ZGNN,2015-08-24 08:00,ZGNN 240800Z 01002MPS 320V110 CAVOK 36/19 Q1002 NOSIG
ZGNN,2015-08-24 09:00,ZGNN 240900Z 36003MPS 330V040 CAVOK 34/20 Q1002 NOSIG
ZGNN,2015-08-24 10:00,ZGNN 241000Z 33002MPS CAVOK 34/20 Q1002 NOSIG
ZGNN,2015-08-24 11:00,ZGNN 241100Z 03002MPS 330V090 CAVOK 32/22 Q1002 NOSIG
ZGNN,2015-08-24 12:00,ZGNN 241200Z 09004MPS 080V140 CAVOK 31/20 Q1003 NOSIG
ZGNN,2015-08-24 13:00,ZGNN 241300Z 09002MPS CAVOK 30/21 Q1004 NOSIG
ZGNN,2015-08-24 14:00,ZGNN 241400Z VRB01MPS CAVOK 30/21 Q1005 NOSIG
ZGNN,2015-08-24 15:00,ZGNN 241500Z VRB01MPS CAVOK 29/23 Q1006 NOSIG
ZGNN,2015-08-24 16:00,ZGNN 241600Z 00000MPS 6000 NSC 28/23 Q1005 NOSIG
ZGNN,2015-08-24 17:00,ZGNN 241700Z VRB01MPS 7000 NSC 27/23 Q1005 NOSIG
ZGNN,2015-08-24 18:00,ZGNN 241800Z 00000MPS 6000 NSC 27/23 Q1005 NOSIG
ZGNN,2015-08-24 19:00,ZGNN 241900Z 28001MPS 6000 NSC 26/23 Q1005 NOSIG
ZGNN,2015-08-24 20:00,ZGNN 242000Z 34001MPS 7000 NSC 26/22 Q1004 NOSIG
ZGNN,2015-08-24 21:00,ZGNN 242100Z 34001MPS 7000 NSC 25/22 Q1005 NOSIG
ZGNN,2015-08-24 22:00,ZGNN 242200Z 00000MPS 7000 NSC 25/23 Q1005 NOSIG
ZGNN,2015-08-24 23:00,ZGNN 242300Z 00000MPS CAVOK 25/23 Q1005 NOSIG
ZGNN,2015-08-25 00:00,ZGNN 250000Z 05002MPS CAVOK 27/22 Q1006 NOSIG
ZGNN,2015-08-25 01:00,ZGNN 250100Z 04003MPS 7000 NSC 30/22 Q1006 NOSIG
ZGNN,2015-08-25 02:00,ZGNN 250200Z 09003MPS 060V120 8000 NSC 31/22 Q1006 NOSIG
ZGNN,2015-08-25 03:00,ZGNN 250300Z 09002MPS 020V140 CAVOK 33/21 Q1007 NOSIG
ZGNN,2015-08-25 04:00,ZGNN 250400Z VRB02MPS CAVOK 33/21 Q1006 NOSIG
ZGNN,2015-08-25 05:00,ZGNN 250500Z 12002MPS 030V180 CAVOK 34/22 Q1006 NOSIG
ZGNN,2015-08-25 06:00,ZGNN 250600Z 15003MPS 090V190 9999 FEW030 35/20 Q1005 NOSIG
ZGNN,2015-08-25 07:00,ZGNN 250700Z VRB02MPS 9999 FEW033 35/21 Q1004 NOSIG
ZGNN,2015-08-25 08:00,ZGNN 250800Z 15003MPS 100V200 CAVOK 35/21 Q1004 NOSIG
ZGNN,2015-08-25 09:00,ZGNN 250900Z 11002MPS 080V150 CAVOK 35/20 Q1004 NOSIG
ZGNN,2015-08-25 10:00,ZGNN 251000Z 10003MPS 050V110 CAVOK 34/21 Q1003 NOSIG
ZGNN,2015-08-25 11:00,ZGNN 251100Z 08004MPS CAVOK 33/22 Q1004 NOSIG
ZGNN,2015-08-25 12:00,ZGNN 251200Z 09003MPS 080V140 CAVOK 32/23 Q1005 NOSIG
ZGNN,2015-08-25 13:00,ZGNN 251300Z 10002MPS 8000 NSC 30/24 Q1006 NOSIG
ZGNN,2015-08-25 14:00,ZGNN 251400Z 08003MPS 8000 NSC 30/23 Q1007 NOSIG
ZGNN,2015-08-25 15:00,ZGNN 251500Z VRB01MPS 7000 NSC 29/24 Q1007 NOSIG
ZGNN,2015-08-25 16:00,ZGNN 251600Z 07003MPS 030V090 7000 NSC 30/23 Q1007 NOSIG
ZGNN,2015-08-25 17:00,ZGNN 251700Z 10001MPS 7000 NSC 29/24 Q1007 NOSIG
ZGNN,2015-08-25 18:00,ZGNN 251800Z 00000MPS 6000 NSC 28/24 Q1007 NOSIG
ZGNN,2015-08-25 19:00,ZGNN 251900Z 00000MPS 6000 NSC 28/25 Q1007 NOSIG
ZGNN,2015-08-25 20:00,ZGNN 252000Z 11002MPS 5000 BR NSC 28/25 Q1007 NOSIG
ZGNN,2015-08-25 21:00,ZGNN 252100Z VRB01MPS 5000 BR NSC 28/25 Q1007 NOSIG
ZGNN,2015-08-25 22:00,ZGNN 252200Z 08002MPS 5000 BR NSC 27/25 Q1007 NOSIG
ZGNN,2015-08-25 23:00,ZGNN 252300Z VRB01MPS 5000 BR NSC 27/25 Q1007 NOSIG
ZGNN,2015-08-26 00:00,ZGNN 260000Z VRB01MPS 5000 BR NSC 28/25 Q1008 NOSIG
ZGNN,2015-08-26 01:00,ZGNN 260100Z 08003MPS 4000 BR NSC 29/25 Q1009 NOSIG
ZGNN,2015-08-26 02:00,ZGNN 260200Z 12002MPS 090V160 4500 BR SCT015 30/26 Q1009 NOSIG
ZGNN,2015-08-26 03:00,ZGNN 260300Z VRB01MPS 5000 HZ SCT016 31/25 Q1009 NOSIG
ZGNN,2015-08-26 04:00,ZGNN 260400Z 14002MPS 090V210 8000 SCT020 32/25 Q1008 NOSIG
ZGNN,2015-08-26 05:00,ZGNN 260500Z 11002MPS 080V160 8000 SCT026 32/25 Q1008 NOSIG
ZGNN,2015-08-26 06:00,ZGNN 260600Z VRB02MPS 9999 FEW030 33/24 Q1007 NOSIG
ZGNN,2015-08-26 07:00,ZGNN 260700Z 08002MPS 020V130 9999 SCT030 33/23 Q1006 NOSIG
ZGNN,2015-08-26 08:00,ZGNN 260800Z 10003MPS 070V150 9999 SCT030 33/21 Q1006 NOSIG
ZGNN,2015-08-26 09:00,ZGNN 260900Z 12003MPS CAVOK 33/23 Q1006 NOSIG
ZGNN,2015-08-26 10:00,ZGNN 261000Z 23005MPS 9999 FEW030TCU 30/23 Q1006 NOSIG
ZGNN,2015-08-26 11:00,ZGNN 261100Z 27003MPS 7000 NSC 29/24 Q1006 NOSIG
ZGNN,2015-08-26 12:00,ZGNN 261200Z VRB01MPS 7000 NSC 28/24 Q1007 NOSIG
ZGNN,2015-08-26 13:00,ZGNN 261300Z 20001MPS 6000 NSC 28/24 Q1008 NOSIG
ZGNN,2015-08-26 14:00,ZGNN 261400Z VRB01MPS 5000 BR NSC 27/24 Q1008 NOSIG
ZGNN,2015-08-26 15:00,ZGNN 261500Z 28002MPS 5000 BR NSC 27/25 Q1009 NOSIG
ZGNN,2015-08-26 16:00,ZGNN 261600Z VRB01MPS 5000 BR NSC 27/25 Q1008 NOSIG
ZGNN,2015-08-26 17:00,ZGNN 261700Z VRB01MPS 5000 BR NSC 26/25 Q1008 NOSIG
ZGNN,2015-08-26 18:00,ZGNN 261800Z 05002MPS 5000 BR BKN043 27/24 Q1008 NOSIG
ZGNN,2015-08-26 19:00,ZGNN 261900Z 12002MPS 060V140 5000 BR BKN043 27/25 Q1007 NOSIG
ZGNN,2015-08-26 20:00,ZGNN 262000Z 00000MPS 5000 BR NSC 27/24 Q1008 NOSIG
ZGNN,2015-08-26 21:00,ZGNN 262100Z 07002MPS 5000 BR NSC 27/24 Q1007 NOSIG
ZGNN,2015-08-26 22:00,ZGNN 262200Z 05002MPS 4000 BR FEW016 26/24 Q1007 NOSIG
ZGNN,2015-08-26 23:00,ZGNN 262300Z 04002MPS 3100 BR FEW010 26/24 Q1008 NOSIG
ZGNN,2015-08-27 00:00,ZGNN 270000Z 10002MPS 070V140 3100 BR SCT013 27/24 Q1009 NOSIG
ZGNN,2015-08-27 01:00,ZGNN 270100Z 11002MPS 080V190 4000 BR SCT013 29/25 Q1009 NOSIG
ZGNN,2015-08-27 02:00,ZGNN 270200Z 18002MPS 150V210 5000 BR SCT016 29/25 Q1009 NOSIG
ZGNN,2015-08-27 03:00,ZGNN 270300Z 15002MPS 090V200 7000 SCT020 31/25 Q1009 NOSIG
ZGNN,2015-08-27 04:00,ZGNN 270400Z VRB01MPS 9999 SCT026 32/25 Q1008 NOSIG
ZGNN,2015-08-27 05:00,ZGNN 270500Z 19002MPS 130V300 9999 SCT030 34/23 Q1007 NOSIG
ZGNN,2015-08-27 06:00,ZGNN 270600Z 13002MPS 090V180 9999 SCT033 33/23 Q1006 NOSIG
ZGNN,2015-08-27 07:00,ZGNN 270700Z 14002MPS 100V190 9999 SCT033 33/23 Q1005 NOSIG
ZGNN,2015-08-27 08:00,ZGNN 270800Z 22003MPS 9999 FEW030CB SCT033 32/25 Q1005 NOSIG
ZGNN,2015-08-27 09:00,ZGNN 270900Z 19002MPS 9999 SCT040 32/24 Q1005 NOSIG
ZGNN,2015-08-27 10:00,ZGNN 271000Z 14002MPS 9999 FEW033CB SCT040 32/24 Q1005 NOSIG
ZGNN,2015-08-27 11:00,ZGNN 271100Z 14002MPS 110V170 CAVOK 30/23 Q1005 NOSIG
ZGNN,2015-08-27 12:00,ZGNN 271200Z 13002MPS 110V180 8000 NSC 29/24 Q1006 NOSIG
ZGNN,2015-08-27 13:00,ZGNN 271300Z 10002MPS 7000 NSC 29/24 Q1007 NOSIG
ZGNN,2015-08-27 14:00,ZGNN 271400Z 12002MPS 100V170 7000 NSC 28/25 Q1007 NOSIG
ZGNN,2015-08-27 15:00,ZGNN 271500Z 09002MPS 060V140 7000 NSC 28/25 Q1007 NOSIG
ZGNN,2015-08-27 16:00,ZGNN 271600Z 14001MPS 6000 NSC 27/25 Q1007 NOSIG
ZGNN,2015-08-27 17:00,ZGNN 271700Z 08002MPS 020V120 6000 NSC 27/25 Q1007 NOSIG
ZGNN,2015-08-27 18:00,ZGNN 271800Z VRB01MPS 6000 FEW011 27/24 Q1007 NOSIG
ZGNN,2015-08-27 19:00,ZGNN 271900Z 10001MPS 6000 NSC 27/25 Q1006 NOSIG
ZGNN,2015-08-27 20:00,ZGNN 272000Z 06002MPS 030V090 5000 BR NSC 26/25 Q1005 NOSIG
ZGNN,2015-08-27 21:00,ZGNN 272100Z VRB01MPS 5000 BR FEW007 SCT009 26/25 Q1005 NOSIG
ZGNN,2015-08-27 22:00,ZGNN 272200Z VRB01MPS 5000 BR FEW007 SCT009 26/25 Q1006 NOSIG
ZGNN,2015-08-27 23:00,ZGNN 272300Z VRB01MPS 4000 BR FEW007 SCT009 27/25 Q1006 NOSIG
ZGNN,2015-08-28 00:00,ZGNN 280000Z VRB01MPS 4000 BR FEW007 SCT009 27/25 Q1006 NOSIG
ZGNN,2015-08-28 01:00,ZGNN 280100Z VRB01MPS 6000 SCT010 28/25 Q1006 NOSIG
ZGNN,2015-08-28 02:00,ZGNN 280200Z VRB01MPS 9999 FEW013 29/25 Q1006 NOSIG
ZGNN,2015-08-28 03:00,ZGNN 280300Z 12002MPS 090V200 9999 SCT013 29/25 Q1006 NOSIG
ZGNN,2015-08-28 04:00,ZGNN 280400Z VRB02MPS 9999 SCT016 30/25 Q1006 NOSIG
ZGNN,2015-08-28 05:00,ZGNN 280500Z 09001MPS 9999 SCT020 31/24 Q1005 NOSIG
ZGNN,2015-08-28 06:00,ZGNN 280600Z VRB01MPS 9999 FEW026 31/24 Q1005 NOSIG
ZGNN,2015-08-28 07:00,ZGNN 280700Z VRB01MPS 9999 FEW026 31/24 Q1004 NOSIG
ZGNN,2015-08-28 08:00,ZGNN 280800Z 04002MPS 330V070 9999 FEW026 31/24 Q1004 NOSIG
ZGNN,2015-08-28 09:00,ZGNN 280900Z VRB02MPS CAVOK 31/24 Q1004 NOSIG
ZGNN,2015-08-28 10:00,ZGNN 281000Z 11001MPS 9999 FEW030 30/24 Q1004 NOSIG
ZGNN,2015-08-28 11:00,ZGNN 281100Z VRB01MPS CAVOK 30/25 Q1004 NOSIG
ZGNN,2015-08-28 12:00,ZGNN 281200Z 17002MPS 9999 FEW020 29/25 Q1004 NOSIG
ZGNN,2015-08-28 13:00,ZGNN 281300Z 15002MPS 120V180 9999 FEW020 28/26 Q1005 NOSIG
ZGNN,2015-08-28 14:00,ZGNN 281400Z 15002MPS 120V200 9999 FEW013 28/26 Q1006 NOSIG
ZGNN,2015-08-28 15:00,ZGNN 281500Z 14001MPS CAVOK 27/25 Q1006 NOSIG
ZGNN,2015-08-28 16:00,ZGNN 281600Z VRB01MPS CAVOK 27/25 Q1005 NOSIG
ZGNN,2015-08-28 17:00,ZGNN 281700Z VRB01MPS CAVOK 27/25 Q1005 NOSIG
ZGNN,2015-08-28 18:00,ZGNN 281800Z 09002MPS CAVOK 27/25 Q1005 NOSIG
ZGNN,2015-08-28 19:00,ZGNN 281900Z 09002MPS 9999 SCT008 27/25 Q1004 NOSIG
ZGNN,2015-08-28 20:00,ZGNN 282000Z 08002MPS 9999 SCT010 27/25 Q1004 NOSIG
ZGNN,2015-08-28 21:00,ZGNN 282100Z VRB01MPS 9999 SCT008 27/25 Q1004 NOSIG
ZGNN,2015-08-28 22:00,ZGNN 282200Z 11002MPS 9999 SCT008 27/25 Q1004 NOSIG
ZGNN,2015-08-28 23:00,ZGNN 282300Z 05002MPS 9999 FEW008 26/25 Q1004 NOSIG
ZGNN,2015-08-29 00:00,ZGNN 290000Z 07003MPS 040V140 9999 FEW010 27/25 Q1005 NOSIG
ZGNN,2015-08-29 01:00,ZGNN 290100Z 08003MPS 050V140 9999 SCT009 27/25 Q1006 NOSIG
ZGNN,2015-08-29 02:00,ZGNN 290200Z 07003MPS 040V130 9999 SCT010 28/24 Q1006 NOSIG
ZGNN,2015-08-29 03:00,ZGNN 290300Z VRB02MPS 9999 SCT016 28/25 Q1006 NOSIG
ZGNN,2015-08-29 04:00,ZGNN 290400Z 10002MPS 070V130 9999 SCT015 29/25 Q1006 NOSIG
ZGNN,2015-08-29 05:00,ZGNN 290500Z VRB02MPS 9999 SCT016 30/25 Q1005 NOSIG
ZGNN,2015-08-29 06:00,ZGNN 290600Z 10003MPS 060V160 9999 SCT016 31/25 Q1004 NOSIG
ZGNN,2015-08-29 07:00,ZGNN 290700Z 10003MPS 080V170 9999 SCT020 FEW026CB 30/25 Q1004 NOSIG
ZGNN,2015-08-29 08:00,ZGNN 290800Z 05006MPS 2500 TSRA BR SCT010 SCT026CB 25/25 Q1003 BECMG TL0900 -TSRA
ZGNN,2015-08-29 09:00,ZGNN 290900Z 05003MPS 030V100 8000 -TSRA SCT015 FEW026CB BKN043 25/25 Q1004 RESHRA BECMG -SHRA
ZGNN,2015-08-29 10:00,ZGNN 291000Z VRB01MPS 9999 -SHRA FEW004 SCT015 25/24 Q1004 RETS NOSIG
ZGNN,2015-08-29 11:00,ZGNN 291100Z 08002MPS 040V140 9999 -SHRA FEW005 SCT023 25/24 Q1005 NOSIG
ZGNN,2015-08-29 12:00,ZGNN 291200Z 05003MPS 9999 -SHRA FEW006 FEW026CB 25/24 Q1005 NOSIG
ZGNN,2015-08-29 13:00,ZGNN 291300Z 08002MPS 050V130 7000 -SHRA FEW005 SCT008 25/24 Q1006 NOSIG
ZGNN,2015-08-29 14:00,ZGNN 291400Z 05004MPS 9999 -SHRA FEW004 SCT009 FEW026CB 25/24 Q1007 NOSIG
ZGNN,2015-08-29 15:00,ZGNN 291500Z 05003MPS 7000 -SHRA FEW006 SCT013 FEW026CB 24/24 Q1007 NOSIG
ZGNN,2015-08-29 16:00,ZGNN 291600Z 05003MPS 8000 -SHRA FEW008 SCT023 24/24 Q1007 NOSIG
ZGNN,2015-08-29 17:00,ZGNN 291700Z 36003MPS 9999 SCT008 24/23 Q1006 NOSIG
ZGNN,2015-08-29 18:00,ZGNN 291800Z 01003MPS 9999 SCT015 24/23 Q1006 NOSIG
ZGNN,2015-08-29 19:00,ZGNN 291900Z 01002MPS 9999 SCT013 24/23 Q1006 NOSIG
ZGNN,2015-08-29 20:00,ZGNN 292000Z 35003MPS 9999 -RA FEW008 SCT013 24/23 Q1006 NOSIG
ZGNN,2015-08-29 21:00,ZGNN 292100Z 35002MPS 320V020 9999 -RA FEW008 SCT013 23/22 Q1006 NOSIG
ZGNN,2015-08-29 22:00,ZGNN 292200Z 36003MPS 9999 FEW007 SCT013 23/22 Q1006 NOSIG
ZGNN,2015-08-29 23:00,ZGNN 292300Z 35003MPS 9999 -RA FEW007 SCT013 23/22 Q1006 NOSIG
ZGNN,2015-08-30 00:00,ZGNN 300000Z 36003MPS 6000 -RA FEW007 SCT013 23/22 Q1007 NOSIG
ZGNN,2015-08-30 01:00,ZGNN 300100Z 36003MPS 9999 -RA FEW010 SCT020 23/22 Q1007 NOSIG
ZGNN,2015-08-30 02:00,ZGNN 300200Z 36003MPS 330V030 9999 -RA FEW005 SCT013 24/23 Q1008 NOSIG
ZGNN,2015-08-30 03:00,ZGNN 300300Z 35003MPS 9999 -RA FEW007 SCT016 24/23 Q1008 NOSIG
ZGNN,2015-08-30 04:00,ZGNN 300400Z 01003MPS 9999 FEW007 SCT016 24/23 Q1008 NOSIG
ZGNN,2015-08-30 05:00,ZGNN 300500Z 35003MPS 320V020 9999 FEW007 SCT011 25/23 Q1007 NOSIG
ZGNN,2015-08-30 06:00,ZGNN 300600Z 36003MPS 9999 FEW007 SCT011 25/23 Q1007 NOSIG
ZGNN,2015-08-30 07:00,ZGNN 300700Z 01004MPS 9999 -RA FEW007 SCT013 25/23 Q1006 NOSIG
ZGNN,2015-08-30 08:00,ZGNN 300800Z 02003MPS 350V050 9999 -RA FEW007 SCT013 25/23 Q1006 NOSIG
ZGNN,2015-08-30 09:00,ZGNN 300900Z 01004MPS 9999 -RA FEW007 SCT013 25/23 Q1005 NOSIG
ZGNN,2015-08-30 10:00,ZGNN 301000Z 02004MPS 9999 FEW007 SCT013 25/23 Q1005 NOSIG
ZGNN,2015-08-30 11:00,ZGNN 301100Z 05004MPS 9999 FEW007 SCT020 24/23 Q1006 NOSIG
ZGNN,2015-08-30 12:00,ZGNN 301200Z 05003MPS 9999 SCT008 24/23 Q1006 NOSIG
ZGNN,2015-08-30 13:00,ZGNN 301300Z 04004MPS 9999 SCT026 24/23 Q1007 NOSIG
ZGNN,2015-08-30 14:00,ZGNN 301400Z 05003MPS 9999 SCT030 24/23 Q1008 NOSIG
ZGNN,2015-08-30 15:00,ZGNN 301500Z 02003MPS 8000 -RA SCT010 SCT030 24/23 Q1008 NOSIG
ZGNN,2015-08-30 16:00,ZGNN 301600Z 34002MPS 300V010 9999 SCT008 SCT030 24/23 Q1008 NOSIG
ZGNN,2015-08-30 17:00,ZGNN 301700Z 36002MPS 340V040 9999 FEW007 SCT030 24/23 Q1007 NOSIG
ZGNN,2015-08-30 18:00,ZGNN 301800Z 36002MPS 9999 -RA FEW007 SCT016 BKN040 24/23 Q1007 NOSIG
ZGNN,2015-08-30 19:00,ZGNN 301900Z 34002MPS 9999 -RA FEW005 SCT013 OVC040 24/23 Q1006 NOSIG
ZGNN,2015-08-30 20:00,ZGNN 302000Z 36002MPS 330V040 9999 -RA FEW005 SCT013 OVC040 24/23 Q1006 NOSIG
ZGNN,2015-08-30 21:00,ZGNN 302100Z 36002MPS 9999 -RA FEW005 SCT010 OVC033 24/23 Q1006 NOSIG
ZGNN,2015-08-30 22:00,ZGNN 302200Z 35003MPS 5000 -RA BR FEW004 SCT010 OVC033 23/23 Q1006 NOSIG
ZGNN,2015-08-30 23:00,ZGNN 302300Z 36003MPS 6000 -RA FEW004 SCT010 OVC033 24/23 Q1006 NOSIG
ZGNN,2015-08-31 00:00,ZGNN 310000Z 36002MPS 6000 FEW004 SCT015 OVC033 24/23 Q1007 NOSIG
ZGNN,2015-08-31 01:00,ZGNN 310100Z 36004MPS 8000 FEW006 SCT011 OVC026 24/23 Q1007 NOSIG
ZGNN,2015-08-31 02:00,ZGNN 310200Z 01003MPS 8000 FEW010 SCT016 OVC033 25/23 Q1007 NOSIG
ZGNN,2015-08-31 03:00,ZGNN 310300Z 01003MPS 2200 -RA BR FEW006 SCT010 OVC026 25/24 Q1008 BECMG 6000
ZGNN,2015-08-31 04:00,ZGNN 310400Z 06002MPS 2800 -RA BR FEW005 SCT010 OVC026 25/24 Q1007 BECMG TL0540 5000 BR
ZGNN,2015-08-31 05:00,ZGNN 310500Z 01004MPS 5000 -RA BR FEW005 SCT010 OVC030 25/24 Q1007 NOSIG
ZGNN,2015-08-31 06:00,ZGNN 310600Z 02003MPS 340V040 9999 FEW010 OVC026 26/24 Q1007 NOSIG
ZGNN,2015-08-31 07:00,ZGNN 310700Z 01003MPS 9999 -RA FEW010 SCT016 OVC026 26/24 Q1006 NOSIG
ZGNN,2015-08-31 08:00,ZGNN 310800Z 04003MPS 9999 -RA FEW010 SCT016 OVC026 25/24 Q1005 NOSIG
ZGNN,2015-08-31 09:00,ZGNN 310900Z 02004MPS 9999 FEW016 BKN030 27/23 Q1005 NOSIG
ZGNN,2015-08-31 10:00,ZGNN 311000Z 02004MPS 9999 FEW016 BKN033 27/23 Q1005 NOSIG
ZGNN,2015-08-31 11:00,ZGNN 311100Z 03003MPS 9999 FEW016 BKN030 26/23 Q1005 NOSIG
ZGNN,2015-08-31 12:00,ZGNN 311200Z 01002MPS 9999 FEW016 BKN036 26/23 Q1006 NOSIG
ZGNN,2015-08-31 13:00,ZGNN 311300Z 01002MPS 9999 BKN040 25/23 Q1006 NOSIG
ZGNN,2015-08-31 14:00,ZGNN 311400Z 02001MPS 9999 BKN046 25/23 Q1007 NOSIG
ZGNN,2015-08-31 15:00,ZGNN 311500Z 02002MPS 340V040 9999 BKN046 26/23 Q1007 NOSIG
ZGNN,2015-08-31 16:00,ZGNN 311600Z VRB01MPS CAVOK 25/23 Q1007 NOSIG
ZGNN,2015-08-31 17:00,ZGNN 311700Z 35001MPS CAVOK 25/23 Q1007 NOSIG
ZGNN,2015-08-31 18:00,ZGNN 311800Z 01002MPS 9999 SCT015 OVC033 25/23 Q1006 NOSIG
ZGNN,2015-08-31 19:00,ZGNN 311900Z 35002MPS 6000 -RA FEW026 24/23 Q1006 NOSIG
ZGNN,2015-08-31 20:00,ZGNN 312000Z 01003MPS 8000 -RA FEW016 SCT026 24/23 Q1005 NOSIG
ZGNN,2015-08-31 21:00,ZGNN 312100Z 34003MPS 7000 SCT026 OVC040 24/23 Q1005 NOSIG
ZGNN,2015-08-31 22:00,ZGNN 312200Z 32002MPS 250V360 8000 FEW026 OVC040 25/23 Q1005 NOSIG
ZGNN,2015-08-31 23:00,ZGNN 312300Z 33001MPS 6000 SCT026 25/23 Q1005 NOSIG
ZGNN,2015-09-01 00:00,ZGNN 010000Z 34003MPS 6000 SCT026 25/23 Q1005 NOSIG
ZGNN,2015-09-01 01:00,ZGNN 010100Z 36003MPS 3500 -SHRA BR FEW013 FEW026CB BKN040 25/24 Q1006 NOSIG
ZGNN,2015-09-01 02:00,ZGNN 010200Z 33004MPS 300V360 3500 -SHRA BR FEW013 FEW026CB BKN040 24/24 Q1006 NOSIG
ZGNN,2015-09-01 03:00,ZGNN 010300Z 35004MPS 6000 -RA SCT010 SCT030 BKN043 25/24 Q1006 NOSIG
ZGNN,2015-09-01 04:00,ZGNN 010400Z 35004MPS 6000 -RA FEW005 SCT010 OVC043 25/24 Q1006 NOSIG
ZGNN,2015-09-01 05:00,ZGNN 010500Z 36004MPS 3500 -RA BR FEW005 SCT010 OVC040 25/24 Q1006 NOSIG
ZGNN,2015-09-01 06:00,ZGNN 010600Z 35005MPS 8000 -RA FEW010 SCT023 OVC043 25/24 Q1005 NOSIG
ZGNN,2015-09-01 07:00,ZGNN 010700Z 35003MPS 7000 -RA FEW010 SCT023 OVC040 26/24 Q1005 NOSIG
ZGNN,2015-09-01 08:00,ZGNN 010800Z 36004MPS 8000 -RA FEW010 FEW026CB OVC040 26/25 Q1005 NOSIG
ZGNN,2015-09-01 09:00,ZGNN 010900Z 01002MPS 340V040 9999 FEW010 SCT026 27/25 Q1004 NOSIG
ZGNN,2015-09-01 10:00,ZGNN 011000Z 01002MPS 330V050 9999 FEW013 SCT033 27/24 Q1004 NOSIG
ZGNN,2015-09-01 11:00,ZGNN 011100Z 02003MPS 9999 SCT033 27/24 Q1005 NOSIG
ZGNN,2015-09-01 12:00,ZGNN 011200Z 07002MPS 030V150 7000 FEW010 SCT026 26/25 Q1005 NOSIG
ZGNN,2015-09-01 13:00,ZGNN 011300Z 03002MPS 9999 FEW020 SCT033 26/24 Q1006 NOSIG
ZGNN,2015-09-01 14:00,ZGNN 011400Z 03002MPS 9999 FEW020 SCT033 26/24 Q1007 NOSIG
ZGNN,2015-09-01 15:00,ZGNN 011500Z 35002MPS 9999 SCT013 BKN040 26/24 Q1007 NOSIG
ZGNN,2015-09-01 16:00,ZGNN 011600Z 03005MPS 9999 SCT010 BKN040 25/24 Q1007 NOSIG
ZGNN,2015-09-01 17:00,ZGNN 011700Z 02004MPS 3200 -SHRA BR FEW004 SCT007 BKN033 25/24 Q1007 NOSIG
ZGNN,2015-09-01 18:00,ZGNN 011800Z 04004MPS 4000 -SHRA BR FEW005 SCT007 BKN033 25/24 Q1007 NOSIG
ZGNN,2015-09-01 19:00,ZGNN 011900Z 06003MPS 3500 -SHRA BR FEW005 SCT008 FEW023CB BKN033 25/24 Q1006 NOSIG
ZGNN,2015-09-01 20:00,ZGNN 012000Z 06005MPS 6000 -SHRA FEW005 SCT008 SCT023CB BKN033 25/24 Q1006 NOSIG
ZGNN,2015-09-01 21:00,ZGNN 012100Z 07005MPS 7000 FEW006 SCT009 BKN040 25/24 Q1006 NOSIG
ZGNN,2015-09-01 22:00,ZGNN 012200Z 08004MPS 7000 FEW005 SCT008 BKN043 25/24 Q1006 NOSIG
ZGNN,2015-09-01 23:00,ZGNN 012300Z 08004MPS 8000 FEW010 25/24 Q1006 NOSIG
ZGNN,2015-09-02 00:00,ZGNN 020000Z 09002MPS 060V120 8000 FEW010 25/24 Q1007 NOSIG
ZGNN,2015-09-02 01:00,ZGNN 020100Z 10002MPS 9999 SCT013 OVC040 25/24 Q1008 NOSIG
ZGNN,2015-09-02 02:00,ZGNN 020200Z 11004MPS 080V150 9999 SCT010 OVC040 26/24 Q1008 NOSIG
ZGNN,2015-09-02 03:00,ZGNN 020300Z 10002MPS 9999 SCT010 OVC040 26/25 Q1008 NOSIG
ZGNN,2015-09-02 04:00,ZGNN 020400Z 10003MPS 080V180 9999 SCT011 BKN040 27/24 Q1008 NOSIG
ZGNN,2015-09-02 05:00,ZGNN 020500Z 09003MPS 070V170 9999 -RA SCT011 BKN040 27/25 Q1007 NOSIG
ZGNN,2015-09-02 06:00,ZGNN 020600Z 14002MPS 110V190 9999 -RA SCT013 BKN043 26/25 Q1007 NOSIG
ZGNN,2015-09-02 07:00,ZGNN 020700Z 08002MPS 040V100 9999 -RA SCT013 BKN043 26/24 Q1006 NOSIG
ZGNN,2015-09-02 08:00,ZGNN 020800Z VRB01MPS 9999 SCT013 FEW026CB BKN043 27/25 Q1006 BECMG TL0820 TSRA
ZGNN,2015-09-02 09:00,ZGNN 020900Z VRB01MPS 9999 -SHRA FEW013 FEW026CB BKN043 26/25 Q1006 RESHRA NOSIG
ZGNN,2015-09-02 10:00,ZGNN 021000Z 08002MPS 050V110 9999 FEW030 27/25 Q1006 NOSIG
ZGNN,2015-09-02 11:00,ZGNN 021100Z 08004MPS 060V120 9999 FEW007 SCT013 BKN046 26/25 Q1007 NOSIG
ZGNN,2015-09-02 12:00,ZGNN 021200Z 08003MPS 9999 SCT007 SCT013 BKN046 26/25 Q1008 NOSIG
ZGNN,2015-09-02 13:00,ZGNN 021300Z 08003MPS 050V110 9999 SCT010 BKN046 26/25 Q1008 NOSIG
ZGNN,2015-09-02 14:00,ZGNN 021400Z 08003MPS 9999 SCT010 BKN046 26/24 Q1009 NOSIG
ZGNN,2015-09-02 15:00,ZGNN 021500Z 11003MPS 9999 SCT010 BKN046 26/24 Q1010 NOSIG
ZGNN,2015-09-02 16:00,ZGNN 021600Z 09002MPS 9999 FEW013 25/24 Q1009 NOSIG
ZGNN,2015-09-02 17:00,ZGNN 021700Z 09002MPS 060V120 9999 SCT013 25/24 Q1009 NOSIG
ZGNN,2015-09-02 18:00,ZGNN 021800Z 08002MPS 9999 SCT013 25/24 Q1009 NOSIG
ZGNN,2015-09-02 19:00,ZGNN 021900Z 05003MPS 9999 SCT011 25/24 Q1009 NOSIG
ZGNN,2015-09-02 20:00,ZGNN 022000Z 08002MPS 9999 SCT011 25/24 Q1009 NOSIG
ZGNN,2015-09-02 21:00,ZGNN 022100Z 07002MPS 9999 SCT011 25/24 Q1009 NOSIG
ZGNN,2015-09-02 22:00,ZGNN 022200Z 05003MPS 9999 SCT011 25/24 Q1009 BECMG SHRA
ZGNN,2015-09-02 23:00,ZGNN 022300Z 09003MPS 060V120 9000 -SHRA SCT007 FEW030CB 25/24 Q1010 BECMG SHRA
ZGNN,2015-09-03 00:00,ZGNN 030000Z VRB01MPS 9999 FEW007 FEW030CB 25/24 Q1010 RESHRA NOSIG
ZGNN,2015-09-03 01:00,ZGNN 030100Z 14002MPS 110V180 9999 FEW008 FEW030CB SCT033 26/24 Q1011 NOSIG
ZGNN,2015-09-03 02:00,ZGNN 030200Z 12002MPS 090V150 9999 -SHRA FEW013 FEW030CB SCT033 27/24 Q1011 NOSIG
ZGNN,2015-09-03 03:00,ZGNN 030300Z 11003MPS 080V140 9999 FEW009 SCT015 FEW030CB 27/25 Q1011 NOSIG
ZGNN,2015-09-03 04:00,ZGNN 030400Z 12004MPS 100V170 9999 SCT013 FEW030CB 28/25 Q1011 NOSIG
ZGNN,2015-09-03 05:00,ZGNN 030500Z 15003MPS 090V200 9999 SCT016 30/26 Q1010 NOSIG
ZGNN,2015-09-03 06:00,ZGNN 030600Z 15005MPS 120V180 9999 SCT023 29/24 Q1010 NOSIG
ZGNN,2015-09-03 07:00,ZGNN 030700Z 14005MPS 9999 SCT020 28/24 Q1009 NOSIG
ZGNN,2015-09-03 08:00,ZGNN 030800Z 16004MPS 130V190 9999 SCT016 28/24 Q1009 NOSIG
ZGNN,2015-09-03 09:00,ZGNN 030900Z 14003MPS 110V180 9999 -RA FEW013 27/24 Q1009 NOSIG
ZGNN,2015-09-03 10:00,ZGNN 031000Z 15003MPS 120V180 9999 -RA FEW013 26/24 Q1010 NOSIG
ZGNN,2015-09-03 11:00,ZGNN 031100Z 11003MPS 9999 FEW013 26/24 Q1010 NOSIG
ZGNN,2015-09-03 12:00,ZGNN 031200Z 10002MPS 080V140 9999 FEW013 26/24 Q1011 NOSIG
ZGNN,2015-09-03 13:00,ZGNN 031300Z 11002MPS 9999 FEW013 25/24 Q1011 NOSIG
ZGNN,2015-09-03 14:00,ZGNN 031400Z 10002MPS 080V140 9999 FEW013 25/24 Q1012 NOSIG
ZGNN,2015-09-03 15:00,ZGNN 031500Z 10002MPS 060V170 9999 FEW010 SCT040 25/24 Q1012 NOSIG
ZGNN,2015-09-03 16:00,ZGNN 031600Z 13002MPS 9999 FEW007 SCT010 25/24 Q1012 NOSIG
ZGNN,2015-09-03 17:00,ZGNN 031700Z 10002MPS 080V140 9999 FEW005 SCT010 25/24 Q1012 NOSIG
ZGNN,2015-09-03 18:00,ZGNN 031800Z 04002MPS 9999 FEW005 SCT010 25/24 Q1012 NOSIG
ZGNN,2015-09-03 19:00,ZGNN 031900Z 08002MPS 9999 FEW007 SCT010 25/24 Q1011 NOSIG
ZGNN,2015-09-03 20:00,ZGNN 032000Z 08002MPS 9999 FEW007 25/24 Q1011 NOSIG
ZGNN,2015-09-03 21:00,ZGNN 032100Z 10001MPS 9999 SCT007 25/24 Q1011 NOSIG
ZGNN,2015-09-03 22:00,ZGNN 032200Z VRB01MPS 9999 SCT007 25/24 Q1012 NOSIG
ZGNN,2015-09-03 23:00,ZGNN 032300Z VRB01MPS 9999 FEW008 SCT011 25/24 Q1012 NOSIG
ZGNN,2015-09-04 00:00,ZGNN 040000Z VRB01MPS 9999 FEW008 SCT011 26/24 Q1012 NOSIG
ZGNN,2015-09-04 01:00,ZGNN 040100Z 11002MPS 080V160 9999 FEW008 SCT011 27/24 Q1013 NOSIG
ZGNN,2015-09-04 02:00,ZGNN 040200Z 12002MPS 080V180 9999 SCT010 27/25 Q1013 NOSIG
ZGNN,2015-09-04 03:00,ZGNN 040300Z 14003MPS 120V180 9999 SCT013 29/25 Q1013 NOSIG
ZGNN,2015-09-04 04:00,ZGNN 040400Z 16004MPS 110V190 9999 SCT023 30/25 Q1012 NOSIG
ZGNN,2015-09-04 05:00,ZGNN 040500Z 15004MPS 120V180 9999 SCT026 30/25 Q1012 NOSIG
ZGNN,2015-09-04 06:00,ZGNN 040600Z 18004MPS 140V220 9999 SCT026 30/24 Q1012 NOSIG
ZGNN,2015-09-04 07:00,ZGNN 040700Z 20004MPS 160V220 9999 SCT026 31/24 Q1010 NOSIG
ZGNN,2015-09-04 08:00,ZGNN 040800Z 18003MPS 140V200 9999 SCT026 31/24 Q1010 NOSIG
ZGNN,2015-09-04 09:00,ZGNN 040900Z 18003MPS 130V230 9999 FEW026 30/24 Q1009 NOSIG
ZGNN,2015-09-04 10:00,ZGNN 041000Z 13004MPS 9999 FEW026 29/25 Q1010 NOSIG
ZGNN,2015-09-04 11:00,ZGNN 041100Z 15003MPS CAVOK 28/25 Q1010 NOSIG
ZGNN,2015-09-04 12:00,ZGNN 041200Z 14001MPS CAVOK 27/25 Q1011 NOSIG
ZGNN,2015-09-04 13:00,ZGNN 041300Z 17001MPS CAVOK 27/25 Q1011 NOSIG
ZGNN,2015-09-04 14:00,ZGNN 041400Z 11001MPS CAVOK 26/25 Q1012 NOSIG
ZGNN,2015-09-04 15:00,ZGNN 041500Z VRB01MPS CAVOK 26/24 Q1012 NOSIG
ZGNN,2015-09-04 16:00,ZGNN 041600Z VRB01MPS CAVOK 26/24 Q1012 NOSIG
ZGNN,2015-09-04 17:00,ZGNN 041700Z VRB01MPS CAVOK 25/24 Q1012 NOSIG
ZGNN,2015-09-04 18:00,ZGNN 041800Z VRB01MPS 9999 FEW010 25/24 Q1012 NOSIG
ZGNN,2015-09-04 19:00,ZGNN 041900Z VRB01MPS CAVOK 25/24 Q1011 NOSIG
ZGNN,2015-09-04 20:00,ZGNN 042000Z VRB01MPS CAVOK 25/24 Q1011 NOSIG
ZGNN,2015-09-04 21:00,ZGNN 042100Z 35001MPS CAVOK 25/24 Q1011 NOSIG
ZGNN,2015-09-04 22:00,ZGNN 042200Z 03002MPS CAVOK 25/24 Q1011 NOSIG
ZGNN,2015-09-04 23:00,ZGNN 042300Z 05002MPS 6000 NSC 25/24 Q1011 NOSIG
ZGNN,2015-09-05 00:00,ZGNN 050000Z 08002MPS 030V140 9999 FEW016 27/25 Q1012 NOSIG
ZGNN,2015-09-05 01:00,ZGNN 050100Z 11002MPS 080V160 9999 SCT007 27/25 Q1012 NOSIG
ZGNN,2015-09-05 02:00,ZGNN 050200Z 11002MPS 090V160 9999 SCT011 29/25 Q1012 NOSIG
ZGNN,2015-09-05 03:00,ZGNN 050300Z 15002MPS 050V200 9999 SCT015 31/25 Q1012 NOSIG
ZGNN,2015-09-05 04:00,ZGNN 050400Z 14002MPS 080V200 9999 SCT023 31/25 Q1011 NOSIG
ZGNN,2015-09-05 05:00,ZGNN 050500Z VRB02MPS 9999 SCT026 32/26 Q1010 NOSIG
ZGNN,2015-09-05 06:00,ZGNN 050600Z VRB01MPS 9999 SCT030 34/25 Q1009 NOSIG
ZGNN,2015-09-05 07:00,ZGNN 050700Z 14003MPS 100V210 9999 BKN030 33/26 Q1008 NOSIG
ZGNN,2015-09-05 08:00,ZGNN 050800Z 15004MPS 120V180 9999 FEW030 33/26 Q1007 NOSIG
ZGNN,2015-09-05 09:00,ZGNN 050900Z 14005MPS 9999 FEW030 31/25 Q1007 NOSIG
ZGNN,2015-09-05 10:00,ZGNN 051000Z 15005MPS 120V180 9999 SCT030 30/25 Q1007 NOSIG
ZGNN,2015-09-05 11:00,ZGNN 051100Z 14003MPS 9999 FEW040 29/25 Q1007 NOSIG
ZGNN,2015-09-05 12:00,ZGNN 051200Z 15002MPS 120V200 CAVOK 28/25 Q1007 NOSIG
ZGNN,2015-09-05 13:00,ZGNN 051300Z 14003MPS 120V180 CAVOK 27/25 Q1008 NOSIG
ZGNN,2015-09-05 14:00,ZGNN 051400Z 14002MPS CAVOK 27/25 Q1009 NOSIG
ZGNN,2015-09-05 15:00,ZGNN 051500Z VRB01MPS CAVOK 27/25 Q1010 NOSIG
ZGNN,2015-09-05 16:00,ZGNN 051600Z 00000MPS CAVOK 27/25 Q1010 NOSIG
ZGNN,2015-09-05 17:00,ZGNN 051700Z VRB01MPS CAVOK 26/25 Q1009 NOSIG
ZGNN,2015-09-05 18:00,ZGNN 051800Z VRB01MPS CAVOK 26/25 Q1008 NOSIG
ZGNN,2015-09-05 19:00,ZGNN 051900Z VRB01MPS CAVOK 26/25 Q1008 NOSIG
ZGNN,2015-09-05 20:00,ZGNN 052000Z 28001MPS CAVOK 26/25 Q1008 NOSIG
ZGNN,2015-09-05 21:00,ZGNN 052100Z VRB01MPS CAVOK 25/25 Q1008 NOSIG
ZGNN,2015-09-05 22:00,ZGNN 052200Z 00000MPS CAVOK 25/24 Q1008 NOSIG
ZGNN,2015-09-05 23:00,ZGNN 052300Z VRB01MPS CAVOK 26/25 Q1009 NOSIG
ZGNN,2015-09-06 00:00,ZGNN 060000Z 00000MPS CAVOK 28/25 Q1009 NOSIG
ZGNN,2015-09-06 01:00,ZGNN 060100Z VRB01MPS CAVOK 28/25 Q1010 NOSIG
ZGNN,2015-09-06 02:00,ZGNN 060200Z 01002MPS 330V040 CAVOK 29/25 Q1010 NOSIG
ZGNN,2015-09-06 03:00,ZGNN 060300Z VRB02MPS CAVOK 31/25 Q1010 NOSIG
ZGNN,2015-09-06 04:00,ZGNN 060400Z VRB01MPS 9999 SCT023 32/25 Q1009 NOSIG
ZGNN,2015-09-06 05:00,ZGNN 060500Z 19002MPS 110V260 9999 SCT026 32/25 Q1008 NOSIG
ZGNN,2015-09-06 06:00,ZGNN 060600Z 18002MPS 090V260 9999 SCT026 33/25 Q1006 NOSIG
ZGNN,2015-09-06 07:00,ZGNN 060700Z VRB01MPS 9999 SCT030 34/26 Q1005 NOSIG
ZGNN,2015-09-06 08:00,ZGNN 060800Z 19002MPS 160V220 9999 SCT030 34/24 Q1005 NOSIG
ZGNN,2015-09-06 09:00,ZGNN 060900Z 18001MPS 9999 FEW030 34/25 Q1004 NOSIG
ZGNN,2015-09-06 10:00,ZGNN 061000Z 00000MPS CAVOK 33/25 Q1004 NOSIG
ZGNN,2015-09-06 11:00,ZGNN 061100Z 15002MPS CAVOK 31/27 Q1004 NOSIG
ZGNN,2015-09-06 12:00,ZGNN 061200Z 14003MPS CAVOK 30/27 Q1005 NOSIG
ZGNN,2015-09-06 13:00,ZGNN 061300Z VRB01MPS CAVOK 29/27 Q1006 NOSIG
ZGNN,2015-09-06 14:00,ZGNN 061400Z VRB01MPS CAVOK 28/27 Q1007 NOSIG
ZGNN,2015-09-06 15:00,ZGNN 061500Z VRB01MPS 9999 FEW009 28/26 Q1007 NOSIG
ZGNN,2015-09-06 16:00,ZGNN 061600Z VRB01MPS 9999 SCT009 28/26 Q1007 NOSIG
ZGNN,2015-09-06 17:00,ZGNN 061700Z VRB01MPS 9999 SCT007 28/26 Q1007 NOSIG
ZGNN,2015-09-06 18:00,ZGNN 061800Z VRB01MPS 9999 SCT006 28/26 Q1006 NOSIG
ZGNN,2015-09-06 19:00,ZGNN 061900Z 10001MPS 9999 SCT005 27/26 Q1005 NOSIG
ZGNN,2015-09-06 20:00,ZGNN 062000Z 11001MPS 8000 SCT005 27/26 Q1005 NOSIG
ZGNN,2015-09-06 21:00,ZGNN 062100Z VRB01MPS 7000 SCT005 27/26 Q1006 NOSIG
ZGNN,2015-09-06 22:00,ZGNN 062200Z VRB01MPS 7000 SCT006 27/26 Q1006 NOSIG
ZGNN,2015-09-06 23:00,ZGNN 062300Z 11001MPS 7000 SCT008 27/26 Q1006 NOSIG
ZGNN,2015-09-07 00:00,ZGNN 070000Z VRB01MPS 6000 SCT006 28/26 Q1007 NOSIG
ZGNN,2015-09-07 01:00,ZGNN 070100Z 35003MPS 9999 SCT008 SCT026 27/24 Q1007 NOSIG
ZGNN,2015-09-07 02:00,ZGNN 070200Z 35002MPS 320V020 9999 -RA SCT026 27/24 Q1007 NOSIG
ZGNN,2015-09-07 03:00,ZGNN 070300Z 34003MPS 9999 -RA SCT010 SCT026 26/24 Q1007 NOSIG
ZGNN,2015-09-07 04:00,ZGNN 070400Z 36003MPS 330V030 9999 -RA SCT010 SCT026 26/24 Q1007 NOSIG
ZGNN,2015-09-07 05:00,ZGNN 070500Z 02003MPS 9999 SCT013 SCT026 27/25 Q1007 NOSIG
ZGNN,2015-09-07 06:00,ZGNN 070600Z 04003MPS 9999 SCT013 SCT026 28/25 Q1006 NOSIG
ZGNN,2015-09-07 07:00,ZGNN 070700Z 04004MPS 9999 FEW030 29/25 Q1006 NOSIG
ZGNN,2015-09-07 08:00,ZGNN 070800Z 03003MPS 020V080 9999 FEW015 SCT030 29/25 Q1006 NOSIG
ZGNN,2015-09-07 09:00,ZGNN 070900Z 06003MPS 9999 FEW033 29/26 Q1005 NOSIG
ZGNN,2015-09-07 10:00,ZGNN 071000Z 07004MPS 9999 SCT015 SCT026 29/25 Q1006 NOSIG
ZGNN,2015-09-07 11:00,ZGNN 071100Z 09003MPS 9999 FEW010 28/26 Q1006 NOSIG
ZGNN,2015-09-07 12:00,ZGNN 071200Z 09004MPS 060V140 9999 FEW010 27/24 Q1007 NOSIG
ZGNN,2015-09-07 13:00,ZGNN 071300Z 09003MPS 070V170 9999 SCT030 26/24 Q1008 NOSIG
ZGNN,2015-09-07 14:00,ZGNN 071400Z 09003MPS 9999 SCT016 26/24 Q1008 NOSIG
ZGNN,2015-09-07 15:00,ZGNN 071500Z 09002MPS 9999 SCT011 SCT030 26/24 Q1009 NOSIG
ZGNN,2015-09-07 16:00,ZGNN 071600Z 08003MPS 050V110 9999 SCT013 SCT026 26/24 Q1009 NOSIG
ZGNN,2015-09-07 17:00,ZGNN 071700Z 09003MPS 9999 SCT008 SCT026 26/24 Q1008 NOSIG
ZGNN,2015-09-07 18:00,ZGNN 071800Z 07003MPS 9999 SCT008 SCT026 26/24 Q1008 NOSIG
ZGNN,2015-09-07 19:00,ZGNN 071900Z 09004MPS 8000 FEW008 SCT026 26/24 Q1007 NOSIG
ZGNN,2015-09-07 20:00,ZGNN 072000Z 08003MPS 8000 SCT009 SCT026 25/24 Q1007 NOSIG
ZGNN,2015-09-07 21:00,ZGNN 072100Z 10003MPS 7000 FEW005 SCT008 FEW026CB 25/23 Q1007 NOSIG
ZGNN,2015-09-07 22:00,ZGNN 072200Z VRB01MPS 9999 FEW006 SCT023 24/23 Q1007 NOSIG
ZGNN,2015-09-07 23:00,ZGNN 072300Z 10002MPS 070V130 9999 FEW007 SCT023 24/23 Q1008 NOSIG
ZGNN,2015-09-08 00:00,ZGNN 080000Z 08003MPS 050V140 9999 FEW006 SCT015 25/23 Q1008 NOSIG
ZGNN,2015-09-08 01:00,ZGNN 080100Z 08003MPS 9999 FEW008 SCT013 OVC046 25/23 Q1009 NOSIG
ZGNN,2015-09-08 02:00,ZGNN 080200Z 09004MPS 040V150 9999 FEW008 SCT013 OVC046 25/23 Q1009 NOSIG
ZGNN,2015-09-08 03:00,ZGNN 080300Z 08004MPS 9999 SCT010 OVC046 26/23 Q1009 NOSIG
ZGNN,2015-09-08 04:00,ZGNN 080400Z 08005MPS 060V190 9999 SCT009 OVC046 27/24 Q1009 NOSIG
ZGNN,2015-09-08 05:00,ZGNN 080500Z 08004MPS 050V110 9999 SCT009 OVC046 27/24 Q1008 NOSIG
ZGNN,2015-09-08 06:00,ZGNN 080600Z 06003MPS 030V100 9999 SCT009 OVC046 26/24 Q1008 NOSIG
ZGNN,2015-09-08 07:00,ZGNN 080700Z 07005MPS 9999 SCT009 OVC046 27/24 Q1007 NOSIG
ZGNN,2015-09-08 08:00,ZGNN 080800Z 09004MPS 9999 SCT011 FEW030CB OVC046 27/24 Q1007 NOSIG
ZGNN,2015-09-08 09:00,ZGNN 080900Z 09003MPS 9999 SCT011 BKN046 27/24 Q1007 NOSIG
ZGNN,2015-09-08 10:00,ZGNN 081000Z 07003MPS CAVOK 27/24 Q1007 NOSIG
ZGNN,2015-09-08 11:00,ZGNN 081100Z 04004MPS CAVOK 27/24 Q1007 NOSIG
ZGNN,2015-09-08 12:00,ZGNN 081200Z 06004MPS 020V110 9999 FEW013 27/24 Q1008 NOSIG
ZGNN,2015-09-08 13:00,ZGNN 081300Z 09004MPS 9999 FEW013 26/24 Q1009 NOSIG
ZGNN,2015-09-08 14:00,ZGNN 081400Z 09004MPS 9999 SCT010 26/24 Q1011 NOSIG
ZGNN,2015-09-08 15:00,ZGNN 081500Z 08003MPS 060V120 9999 SCT010 26/24 Q1011 NOSIG
ZGNN,2015-09-08 16:00,ZGNN 081600Z 07004MPS 9999 SCT010 25/24 Q1011 NOSIG
ZGNN,2015-09-08 17:00,ZGNN 081700Z 09002MPS 9999 SCT010 25/24 Q1011 NOSIG
ZGNN,2015-09-08 18:00,ZGNN 081800Z VRB01MPS 9999 SCT010 25/24 Q1010 NOSIG
ZGNN,2015-09-08 19:00,ZGNN 081900Z 08003MPS 6000 SCT007 25/24 Q1010 NOSIG
ZGNN,2015-09-08 20:00,ZGNN 082000Z 07003MPS 7000 SCT007 25/24 Q1010 NOSIG
ZGNN,2015-09-08 21:00,ZGNN 082100Z 07003MPS 9000 SCT007 25/24 Q1010 NOSIG
ZGNN,2015-09-08 22:00,ZGNN 082200Z 09002MPS 7000 SCT016 25/24 Q1010 NOSIG
ZGNN,2015-09-08 23:00,ZGNN 082300Z 08003MPS 8000 SCT015 25/24 Q1011 NOSIG
ZGNN,2015-09-09 00:00,ZGNN 090000Z 07004MPS 9000 SCT015 26/24 Q1011 NOSIG
ZGNN,2015-09-09 01:00,ZGNN 090100Z 08003MPS 060V120 9999 FEW015 27/24 Q1012 NOSIG
ZGNN,2015-09-09 02:00,ZGNN 090200Z 08004MPS 9999 SCT015 27/24 Q1012 NOSIG
ZGNN,2015-09-09 03:00,ZGNN 090300Z 10003MPS 070V150 9999 SCT015 29/25 Q1012 NOSIG
ZGNN,2015-09-09 04:00,ZGNN 090400Z 11003MPS 090V170 9999 SCT020 30/25 Q1012 NOSIG
ZGNN,2015-09-09 05:00,ZGNN 090500Z 10003MPS 070V140 9999 FEW023 FEW030CB 31/25 Q1011 NOSIG
ZGNN,2015-09-09 06:00,ZGNN 090600Z 27004MPS 9999 SCT023 FEW030CB 29/26 Q1010 NOSIG
ZGNN,2015-09-09 07:00,ZGNN 090700Z 28002MPS 250V040 9999 FEW030TCU SCT030 33/25 Q1010 NOSIG
ZGNN,2015-09-09 08:00,ZGNN 090800Z 08002MPS 030V110 9999 FEW030TCU SCT030 32/25 Q1009 NOSIG
ZGNN,2015-09-09 09:00,ZGNN 090900Z 03003MPS 330V080 5000 -SHRA FEW030CB SCT030 26/24 Q1009 RESHRA NOSIG
ZGNN,2015-09-09 10:00,ZGNN 091000Z 10002MPS 080V170 6000 TSRA FEW013 FEW026CB SCT026 25/24 Q1010 BECMG TL1020 NSW
ZGNN,2015-09-09 11:00,ZGNN 091100Z VRB01MPS 9999 FEW013 SCT030 26/24 Q1011 RETSRA NOSIG
ZGNN,2015-09-09 12:00,ZGNN 091200Z 10002MPS 070V200 7000 FEW013 26/25 Q1012 NOSIG
ZGNN,2015-09-09 13:00,ZGNN 091300Z 07002MPS 020V120 9999 FEW013 26/25 Q1013 NOSIG
ZGNN,2015-09-09 14:00,ZGNN 091400Z 04002MPS 9999 BKN026 26/25 Q1013 NOSIG
ZGNN,2015-09-09 15:00,ZGNN 091500Z 04002MPS 010V070 7000 SCT026 26/24 Q1014 NOSIG
ZGNN,2015-09-09 16:00,ZGNN 091600Z 03002MPS 7000 SCT026 26/24 Q1013 NOSIG
ZGNN,2015-09-09 17:00,ZGNN 091700Z 03002MPS 7000 SCT026 25/24 Q1013 NOSIG
ZGNN,2015-09-09 18:00,ZGNN 091800Z 13001MPS 5000 BR NSC 25/24 Q1013 NOSIG
ZGNN,2015-09-09 19:00,ZGNN 091900Z 31001MPS 5000 BR NSC 25/24 Q1013 NOSIG
ZGNN,2015-09-09 20:00,ZGNN 092000Z 25001MPS 6000 NSC 25/24 Q1013 NOSIG
ZGNN,2015-09-09 21:00,ZGNN 092100Z 29001MPS 6000 NSC 25/24 Q1013 NOSIG
ZGNN,2015-09-09 22:00,ZGNN 092200Z 24001MPS 6000 NSC 25/24 Q1013 NOSIG
ZGNN,2015-09-09 23:00,ZGNN 092300Z 00000MPS 5000 BR NSC 25/24 Q1014 NOSIG
ZGNN,2015-09-10 00:00,ZGNN 100000Z 06001MPS 5000 BR NSC 26/25 Q1014 NOSIG
ZGNN,2015-09-10 01:00,ZGNN 100100Z VRB01MPS 5000 BR FEW006 27/25 Q1015 NOSIG
ZGNN,2015-09-10 02:00,ZGNN 100200Z 13002MPS 080V190 8000 SCT023 29/24 Q1015 NOSIG
ZGNN,2015-09-10 03:00,ZGNN 100300Z VRB01MPS 9999 FEW015 29/24 Q1015 NOSIG
ZGNN,2015-09-10 04:00,ZGNN 100400Z 11002MPS 030V200 9999 FEW020 30/24 Q1015 NOSIG
ZGNN,2015-09-10 05:00,ZGNN 100500Z 13002MPS 100V180 9999 FEW020 29/24 Q1014 NOSIG
ZGNN,2015-09-10 06:00,ZGNN 100600Z VRB01MPS CAVOK 30/24 Q1013 NOSIG
ZGNN,2015-09-10 07:00,ZGNN 100700Z VRB01MPS CAVOK 30/24 Q1012 NOSIG
ZGNN,2015-09-10 08:00,ZGNN 100800Z 05002MPS 020V080 CAVOK 31/23 Q1011 NOSIG
ZGNN,2015-09-10 09:00,ZGNN 100900Z 13002MPS 080V200 9999 FEW026TCU 31/23 Q1010 NOSIG
ZGNN,2015-09-10 10:00,ZGNN 101000Z 13002MPS 090V170 9999 FEW026TCU 31/24 Q1010 NOSIG
ZGNN,2015-09-10 11:00,ZGNN 101100Z 12002MPS CAVOK 29/25 Q1010 NOSIG
ZGNN,2015-09-10 12:00,ZGNN 101200Z 11002MPS CAVOK 28/25 Q1011 NOSIG
ZGNN,2015-09-10 13:00,ZGNN 101300Z VRB01MPS 8000 NSC 28/24 Q1011 NOSIG
ZGNN,2015-09-10 14:00,ZGNN 101400Z 07002MPS 040V100 7000 NSC 27/25 Q1012 NOSIG
ZGNN,2015-09-10 15:00,ZGNN 101500Z VRB01MPS 6000 NSC 27/24 Q1012 NOSIG
ZGNN,2015-09-10 16:00,ZGNN 101600Z 04002MPS 6000 NSC 26/24 Q1012 NOSIG
ZGNN,2015-09-10 17:00,ZGNN 101700Z VRB01MPS 6000 FEW026 26/24 Q1012 NOSIG
ZGNN,2015-09-10 18:00,ZGNN 101800Z VRB01MPS 6000 NSC 26/24 Q1012 NOSIG
ZGNN,2015-09-10 19:00,ZGNN 101900Z VRB01MPS 5000 BR NSC 26/24 Q1011 NOSIG
ZGNN,2015-09-10 20:00,ZGNN 102000Z 35001MPS 5000 BR NSC 25/24 Q1011 NOSIG
ZGNN,2015-09-10 21:00,ZGNN 102100Z 02002MPS 5000 BR NSC 26/24 Q1011 NOSIG
ZGNN,2015-09-10 22:00,ZGNN 102200Z VRB01MPS 5000 BR NSC 25/24 Q1011 NOSIG
ZGNN,2015-09-10 23:00,ZGNN 102300Z 03001MPS 4000 BR NSC 25/24 Q1011 NOSIG
ZGNN,2015-09-11 00:00,ZGNN 110000Z 00000MPS 4500 BR NSC 27/25 Q1012 NOSIG
ZGNN,2015-09-11 01:00,ZGNN 110100Z VRB01MPS 5000 BR SCT008 27/25 Q1013 NOSIG
ZGNN,2015-09-11 02:00,ZGNN 110200Z VRB01MPS 5000 BR SCT009 28/25 Q1013 NOSIG
ZGNN,2015-09-11 03:00,ZGNN 110300Z VRB01MPS 7000 SCT015 31/25 Q1012 NOSIG
ZGNN,2015-09-11 04:00,ZGNN 110400Z VRB01MPS 8000 FEW023 31/25 Q1012 NOSIG
ZGNN,2015-09-11 05:00,ZGNN 110500Z VRB02MPS 8000 FEW023 32/25 Q1011 NOSIG
ZGNN,2015-09-11 06:00,ZGNN 110600Z 26003MPS 230V310 9999 FEW030 31/25 Q1010 NOSIG
ZGNN,2015-09-11 07:00,ZGNN 110700Z 30002MPS 260V340 9999 FEW033 32/25 Q1009 NOSIG
ZGNN,2015-09-11 08:00,ZGNN 110800Z VRB01MPS 9999 FEW033 32/24 Q1008 NOSIG
ZGNN,2015-09-11 09:00,ZGNN 110900Z VRB01MPS CAVOK 33/24 Q1008 NOSIG
ZGNN,2015-09-11 10:00,ZGNN 111000Z VRB01MPS CAVOK 32/24 Q1008 NOSIG
ZGNN,2015-09-11 11:00,ZGNN 111100Z 12002MPS CAVOK 30/25 Q1008 NOSIG
ZGNN,2015-09-11 12:00,ZGNN 111200Z 12002MPS 100V180 8000 NSC 29/26 Q1008 NOSIG
ZGNN,2015-09-11 13:00,ZGNN 111300Z 13002MPS 6000 NSC 28/26 Q1010 NOSIG
ZGNN,2015-09-11 14:00,ZGNN 111400Z 14002MPS 090V170 7000 NSC 27/25 Q1011 NOSIG
ZGNN,2015-09-11 15:00,ZGNN 111500Z VRB01MPS 7000 NSC 27/24 Q1011 NOSIG
ZGNN,2015-09-11 16:00,ZGNN 111600Z VRB01MPS 6000 NSC 27/25 Q1011 NOSIG
ZGNN,2015-09-11 17:00,ZGNN 111700Z 11001MPS 6000 NSC 27/25 Q1011 NOSIG
ZGNN,2015-09-11 18:00,ZGNN 111800Z VRB01MPS 5000 BR NSC 26/25 Q1011 NOSIG
ZGNN,2015-09-11 19:00,ZGNN 111900Z VRB01MPS 4500 BR SCT010 26/25 Q1010 NOSIG
ZGNN,2015-09-11 20:00,ZGNN 112000Z 10001MPS 5000 BR SCT010 26/25 Q1010 NOSIG
ZGNN,2015-09-11 21:00,ZGNN 112100Z 12001MPS 5000 BR SCT010 26/25 Q1010 NOSIG
ZGNN,2015-09-11 22:00,ZGNN 112200Z 12001MPS 5000 BR SCT010 26/24 Q1011 NOSIG
ZGNN,2015-09-11 23:00,ZGNN 112300Z VRB01MPS 5000 BR SCT010 BKN040 26/24 Q1011 NOSIG
ZGNN,2015-09-12 00:00,ZGNN 120000Z VRB01MPS 5000 BR SCT010 BKN033 26/25 Q1012 NOSIG
ZGNN,2015-09-12 01:00,ZGNN 120100Z VRB01MPS 4000 BR SCT007 OVC033 27/25 Q1012 BECMG TL0220 TSRA
ZGNN,2015-09-12 02:00,ZGNN 120200Z 34008G14MPS 300V360 9999 -SHRA SCT008 FEW026CB BKN033 25/22 Q1013 BECMG TSRA
ZGNN,2015-09-12 03:00,ZGNN 120300Z 35009MPS 9999 SCT009 FEW026CB BKN040 24/22 Q1013 NOSIG
ZGNN,2015-09-12 04:00,ZGNN 120400Z 34005MPS 310V010 9999 SCT009 FEW026CB 24/22 Q1013 NOSIG
ZGNN,2015-09-12 05:00,ZGNN 120500Z 32005MPS 290V360 9999 SCT010 BKN040 24/22 Q1013 NOSIG
ZGNN,2015-09-12 06:00,ZGNN 120600Z 35006MPS 320V030 9999 SCT013 OVC046 25/21 Q1013 NOSIG
ZGNN,2015-09-12 07:00,ZGNN 120700Z 34005MPS 300V010 9999 SCT015 25/21 Q1013 NOSIG
ZGNN,2015-09-12 08:00,ZGNN 120800Z 33006MPS 9999 FEW010 SCT016 24/21 Q1012 NOSIG
ZGNN,2015-09-12 09:00,ZGNN 120900Z 35005MPS 330V030 9999 FEW010 SCT023 24/21 Q1012 NOSIG
ZGNN,2015-09-12 10:00,ZGNN 121000Z 36005MPS 9999 FEW010 SCT023 24/21 Q1013 NOSIG
ZGNN,2015-09-12 11:00,ZGNN 121100Z 36006MPS 9999 SCT026 24/20 Q1013 NOSIG
ZGNN,2015-09-12 12:00,ZGNN 121200Z 35004MPS 9999 SCT023 23/21 Q1014 NOSIG
ZGNN,2015-09-12 13:00,ZGNN 121300Z 36004MPS 9999 SCT030 BKN046 23/20 Q1015 NOSIG
ZGNN,2015-09-12 14:00,ZGNN 121400Z 36003MPS 9999 SCT033 23/20 Q1016 NOSIG
ZGNN,2015-09-12 15:00,ZGNN 121500Z 35004MPS 9999 SCT033 23/20 Q1016 NOSIG
ZGNN,2015-09-12 16:00,ZGNN 121600Z 35003MPS 9999 SCT033 23/20 Q1016 NOSIG
ZGNN,2015-09-12 17:00,ZGNN 121700Z 35004MPS 9999 SCT030 23/19 Q1016 NOSIG
ZGNN,2015-09-12 18:00,ZGNN 121800Z 36005MPS 9999 SCT030 23/19 Q1016 NOSIG
ZGNN,2015-09-12 19:00,ZGNN 121900Z 34003MPS 9999 SCT033 22/19 Q1015 NOSIG
ZGNN,2015-09-12 20:00,ZGNN 122000Z 34003MPS 9999 SCT033 22/19 Q1015 NOSIG
ZGNN,2015-09-12 21:00,ZGNN 122100Z 34004MPS 9999 SCT036 21/19 Q1015 NOSIG
ZGNN,2015-09-12 22:00,ZGNN 122200Z 35004MPS 9999 SCT040 21/19 Q1015 NOSIG
ZGNN,2015-09-12 23:00,ZGNN 122300Z 34004MPS 9999 SCT043 21/18 Q1016 NOSIG
ZGNN,2015-09-13 00:00,ZGNN 130000Z 34004MPS CAVOK 21/18 Q1017 NOSIG
ZGNN,2015-09-13 01:00,ZGNN 130100Z 34004MPS CAVOK 22/19 Q1017 NOSIG
ZGNN,2015-09-13 02:00,ZGNN 130200Z 33005MPS 9999 FEW015 24/19 Q1018 NOSIG
ZGNN,2015-09-13 03:00,ZGNN 130300Z 36005MPS 320V030 9999 FEW020 25/19 Q1017 NOSIG
ZGNN,2015-09-13 04:00,ZGNN 130400Z 36005MPS 330V030 9999 SCT023 26/19 Q1017 NOSIG
ZGNN,2015-09-13 05:00,ZGNN 130500Z 33005MPS 280V020 9999 SCT023 25/19 Q1016 NOSIG
ZGNN,2015-09-13 06:00,ZGNN 130600Z 34005MPS 290V020 9999 SCT023 25/20 Q1015 NOSIG
ZGNN,2015-09-13 07:00,ZGNN 130700Z 33005MPS 300V010 9999 SCT023 26/20 Q1014 NOSIG
ZGNN,2015-09-13 08:00,ZGNN 130800Z 32005MPS 290V010 9999 SCT023 BKN040 25/20 Q1014 NOSIG
ZGNN,2015-09-13 09:00,ZGNN 130900Z 34005MPS 9999 FEW020 24/19 Q1014 NOSIG
ZGNN,2015-09-13 10:00,ZGNN 131000Z 33003MPS CAVOK 24/19 Q1014 NOSIG
ZGNN,2015-09-13 11:00,ZGNN 131100Z 35003MPS CAVOK 23/19 Q1014 NOSIG
ZGNN,2015-09-13 12:00,ZGNN 131200Z 34002MPS 300V020 CAVOK 23/20 Q1014 NOSIG
ZGNN,2015-09-13 13:00,ZGNN 131300Z 35002MPS 320V030 CAVOK 23/19 Q1015 NOSIG
ZGNN,2015-09-13 14:00,ZGNN 131400Z 35002MPS 320V020 CAVOK 23/19 Q1016 NOSIG
ZGNN,2015-09-13 15:00,ZGNN 131500Z 34003MPS CAVOK 22/18 Q1016 NOSIG
ZGNN,2015-09-13 16:00,ZGNN 131600Z VRB01MPS 9999 BKN036 22/19 Q1016 NOSIG
ZGNN,2015-09-13 17:00,ZGNN 131700Z 33003MPS 300V360 9999 SCT036 22/19 Q1015 NOSIG
ZGNN,2015-09-13 18:00,ZGNN 131800Z 32003MPS CAVOK 22/18 Q1015 NOSIG
ZGNN,2015-09-13 19:00,ZGNN 131900Z 33003MPS 310V010 CAVOK 22/18 Q1014 NOSIG
ZGNN,2015-09-13 20:00,ZGNN 132000Z 34003MPS CAVOK 22/18 Q1014 NOSIG
ZGNN,2015-09-13 21:00,ZGNN 132100Z 35002MPS 320V020 9999 SCT033 22/18 Q1013 NOSIG
ZGNN,2015-09-13 22:00,ZGNN 132200Z 34002MPS 9999 SCT033 21/18 Q1014 NOSIG
ZGNN,2015-09-13 23:00,ZGNN 132300Z 33003MPS 9999 SCT033 21/18 Q1014 NOSIG
ZGNN,2015-09-14 00:00,ZGNN 140000Z VRB01MPS 9999 SCT033 22/18 Q1015 NOSIG
ZGNN,2015-09-14 01:00,ZGNN 140100Z 35002MPS 320V080 9999 OVC036 23/19 Q1015 NOSIG
ZGNN,2015-09-14 02:00,ZGNN 140200Z 36003MPS 340V040 9999 BKN040 24/20 Q1015 NOSIG
ZGNN,2015-09-14 03:00,ZGNN 140300Z 33003MPS 300V010 CAVOK 26/19 Q1015 NOSIG
ZGNN,2015-09-14 04:00,ZGNN 140400Z 34003MPS 300V030 CAVOK 26/21 Q1014 NOSIG
ZGNN,2015-09-14 05:00,ZGNN 140500Z 34004MPS 310V010 CAVOK 28/21 Q1014 NOSIG
ZGNN,2015-09-14 06:00,ZGNN 140600Z VRB03MPS CAVOK 29/21 Q1012 NOSIG
ZGNN,2015-09-14 07:00,ZGNN 140700Z 34004MPS 310V020 CAVOK 29/21 Q1011 NOSIG
ZGNN,2015-09-14 08:00,ZGNN 140800Z 34003MPS 300V020 9999 FEW033 29/21 Q1011 NOSIG
ZGNN,2015-09-14 09:00,ZGNN 140900Z 36003MPS 320V020 CAVOK 28/21 Q1010 NOSIG
ZGNN,2015-09-14 10:00,ZGNN 141000Z 35004MPS CAVOK 28/21 Q1010 NOSIG
ZGNN,2015-09-14 11:00,ZGNN 141100Z 36003MPS CAVOK 26/21 Q1011 NOSIG
ZGNN,2015-09-14 12:00,ZGNN 141200Z 35003MPS CAVOK 25/21 Q1011 NOSIG
ZGNN,2015-09-14 13:00,ZGNN 141300Z 36004MPS CAVOK 25/21 Q1012 NOSIG
ZGNN,2015-09-14 14:00,ZGNN 141400Z 36003MPS CAVOK 25/21 Q1013 NOSIG
ZGNN,2015-09-14 15:00,ZGNN 141500Z 01002MPS CAVOK 25/21 Q1013 NOSIG
ZGNN,2015-09-14 16:00,ZGNN 141600Z VRB01MPS CAVOK 24/21 Q1013 NOSIG
ZGNN,2015-09-14 17:00,ZGNN 141700Z VRB01MPS 6000 NSC 23/21 Q1012 NOSIG
ZGNN,2015-09-14 18:00,ZGNN 141800Z VRB01MPS 6000 NSC 23/21 Q1012 NOSIG
ZGNN,2015-09-14 19:00,ZGNN 141900Z 36003MPS 7000 NSC 24/20 Q1011 NOSIG
ZGNN,2015-09-14 20:00,ZGNN 142000Z 03003MPS 360V060 7000 NSC 23/20 Q1011 NOSIG
ZGNN,2015-09-14 21:00,ZGNN 142100Z 35002MPS 310V020 7000 NSC 23/20 Q1011 NOSIG
ZGNN,2015-09-14 22:00,ZGNN 142200Z 03003MPS 7000 NSC 22/20 Q1012 NOSIG
ZGNN,2015-09-14 23:00,ZGNN 142300Z 00000MPS 7000 NSC 22/20 Q1012 NOSIG
ZGNN,2015-09-15 00:00,ZGNN 150000Z VRB01MPS 7000 NSC 23/20 Q1013 NOSIG
ZGNN,2015-09-15 01:00,ZGNN 150100Z 01002MPS 7000 NSC 24/20 Q1013 NOSIG
ZGNN,2015-09-15 02:00,ZGNN 150200Z VRB01MPS 8000 NSC 27/21 Q1013 NOSIG
ZGNN,2015-09-15 03:00,ZGNN 150300Z 03003MPS 010V070 CAVOK 29/21 Q1013 NOSIG
ZGNN,2015-09-15 04:00,ZGNN 150400Z 04006MPS 020V080 CAVOK 29/20 Q1013 NOSIG
ZGNN,2015-09-15 05:00,ZGNN 150500Z 03007MPS CAVOK 30/20 Q1012 NOSIG
ZGNN,2015-09-15 06:00,ZGNN 150600Z 04006MPS CAVOK 30/21 Q1011 NOSIG
ZGNN,2015-09-15 07:00,ZGNN 150700Z 04005MPS 010V070 CAVOK 31/21 Q1010 NOSIG
ZGNN,2015-09-15 08:00,ZGNN 150800Z 08004MPS 050V110 9999 FEW033 31/21 Q1010 NOSIG
ZGNN,2015-09-15 09:00,ZGNN 150900Z 05005MPS CAVOK 31/21 Q1009 NOSIG
ZGNN,2015-09-15 10:00,ZGNN 151000Z 05005MPS CAVOK 30/21 Q1009 NOSIG
ZGNN,2015-09-15 11:00,ZGNN 151100Z 08004MPS CAVOK 29/21 Q1010 NOSIG
ZGNN,2015-09-15 12:00,ZGNN 151200Z 05003MPS CAVOK 28/21 Q1010 NOSIG
ZGNN,2015-09-15 13:00,ZGNN 151300Z 04003MPS CAVOK 27/21 Q1011 NOSIG
ZGNN,2015-09-15 14:00,ZGNN 151400Z 34002MPS 300V010 CAVOK 26/22 Q1012 NOSIG
ZGNN,2015-09-15 15:00,ZGNN 151500Z 02003MPS CAVOK 27/21 Q1012 NOSIG
ZGNN,2015-09-15 16:00,ZGNN 151600Z VRB01MPS CAVOK 27/21 Q1011 NOSIG
ZGNN,2015-09-15 17:00,ZGNN 151700Z VRB01MPS CAVOK 26/21 Q1011 NOSIG
ZGNN,2015-09-15 18:00,ZGNN 151800Z VRB01MPS CAVOK 26/21 Q1010 NOSIG
ZGNN,2015-09-15 19:00,ZGNN 151900Z 02002MPS CAVOK 25/20 Q1010 NOSIG
ZGNN,2015-09-15 20:00,ZGNN 152000Z 03002MPS CAVOK 25/21 Q1010 NOSIG
ZGNN,2015-09-15 21:00,ZGNN 152100Z VRB01MPS CAVOK 24/21 Q1010 NOSIG
ZGNN,2015-09-15 22:00,ZGNN 152200Z 06002MPS CAVOK 24/21 Q1011 NOSIG
ZGNN,2015-09-15 23:00,ZGNN 152300Z 04002MPS CAVOK 24/21 Q1011 NOSIG
ZGNN,2015-09-16 00:00,ZGNN 160000Z 02002MPS CAVOK 25/21 Q1012 NOSIG
ZGNN,2015-09-16 01:00,ZGNN 160100Z 02004MPS CAVOK 27/21 Q1012 NOSIG
ZGNN,2015-09-16 02:00,ZGNN 160200Z 04006MPS CAVOK 28/20 Q1012 NOSIG
ZGNN,2015-09-16 03:00,ZGNN 160300Z 05007MPS CAVOK 30/20 Q1012 NOSIG
ZGNN,2015-09-16 04:00,ZGNN 160400Z 05006MPS CAVOK 29/20 Q1012 NOSIG
ZGNN,2015-09-16 05:00,ZGNN 160500Z 06005MPS CAVOK 29/21 Q1011 NOSIG
ZGNN,2015-09-16 06:00,ZGNN 160600Z 04005MPS CAVOK 29/21 Q1010 NOSIG
ZGNN,2015-09-16 07:00,ZGNN 160700Z 36002MPS 340V050 9999 BKN046 28/21 Q1010 NOSIG
ZGNN,2015-09-16 08:00,ZGNN 160800Z VRB01MPS 6000 FEW013 FEW026CB BKN040 26/23 Q1010 NOSIG
ZGNN,2015-09-16 09:00,ZGNN 160900Z VRB01MPS 5000 BR SCT040 26/23 Q1010 NOSIG
ZGNN,2015-09-16 10:00,ZGNN 161000Z 08002MPS 050V110 6000 -RA SCT036 26/23 Q1010 NOSIG
ZGNN,2015-09-16 11:00,ZGNN 161100Z VRB01MPS 5000 BR SCT036 26/24 Q1011 NOSIG
ZGNN,2015-09-16 12:00,ZGNN 161200Z 11003MPS 070V170 3500 -SHRA BR FEW013 FEW026CB BKN040 25/24 Q1012 NOSIG
ZGNN,2015-09-16 13:00,ZGNN 161300Z 07003MPS 030V110 5000 -SHRA BR SCT026 25/23 Q1012 NOSIG
ZGNN,2015-09-16 14:00,ZGNN 161400Z 04003MPS 4000 BR FEW010 SCT030 24/23 Q1013 NOSIG
ZGNN,2015-09-16 15:00,ZGNN 161500Z 04001MPS 4000 BR SCT030 25/23 Q1013 NOSIG
ZGNN,2015-09-16 16:00,ZGNN 161600Z 05003MPS 4000 BR SCT026 25/23 Q1013 NOSIG
ZGNN,2015-09-16 17:00,ZGNN 161700Z 05003MPS 4000 BR SCT026 25/23 Q1013 NOSIG
ZGNN,2015-09-16 18:00,ZGNN 161800Z 04002MPS 4500 BR SCT026 25/23 Q1013 NOSIG
ZGNN,2015-09-16 19:00,ZGNN 161900Z 06003MPS 4500 BR SCT026 25/23 Q1012 NOSIG
ZGNN,2015-09-16 20:00,ZGNN 162000Z 04002MPS 4500 BR SCT026 25/23 Q1012 NOSIG
ZGNN,2015-09-16 21:00,ZGNN 162100Z 03003MPS 4500 BR SCT026 24/23 Q1012 NOSIG
ZGNN,2015-09-16 22:00,ZGNN 162200Z 05003MPS 4000 BR NSC 24/23 Q1013 NOSIG
ZGNN,2015-09-16 23:00,ZGNN 162300Z 09001MPS 3500 BR NSC 24/23 Q1013 NOSIG
ZGNN,2015-09-17 00:00,ZGNN 170000Z 04002MPS 4000 BR NSC 25/23 Q1014 NOSIG
ZGNN,2015-09-17 01:00,ZGNN 170100Z 09004MPS 060V120 6000 NSC 27/24 Q1014 NOSIG
ZGNN,2015-09-17 02:00,ZGNN 170200Z 08004MPS 040V140 9999 BKN040 28/24 Q1015 NOSIG
ZGNN,2015-09-17 03:00,ZGNN 170300Z 08003MPS 050V160 9999 SCT020 SCT040 29/24 Q1015 NOSIG
ZGNN,2015-09-17 04:00,ZGNN 170400Z 09005MPS 070V140 9999 SCT023 30/23 Q1015 NOSIG
ZGNN,2015-09-17 05:00,ZGNN 170500Z 10005MPS 080V160 9999 SCT026 30/24 Q1013 NOSIG
ZGNN,2015-09-17 06:00,ZGNN 170600Z VRB03MPS 9999 SCT026 31/24 Q1013 NOSIG
ZGNN,2015-09-17 07:00,ZGNN 170700Z 11003MPS 080V150 9999 SCT026 31/24 Q1012 NOSIG
ZGNN,2015-09-17 08:00,ZGNN 170800Z 08004MPS 9999 SCT026 30/24 Q1012 NOSIG
ZGNN,2015-09-17 09:00,ZGNN 170900Z 08004MPS 050V110 9999 SCT026 30/24 Q1012 BECMG TL0920 -TSRA
ZGNN,2015-09-17 10:00,ZGNN 171000Z 15003MPS 9999 SCT026 FEW030CB 27/23 Q1013 NOSIG
ZGNN,2015-09-17 11:00,ZGNN 171100Z 23002MPS 180V260 9999 SCT030 26/23 Q1013 NOSIG
ZGNN,2015-09-17 12:00,ZGNN 171200Z 11002MPS 090V160 CAVOK 26/24 Q1014 NOSIG
ZGNN,2015-09-17 13:00,ZGNN 171300Z 09002MPS CAVOK 26/24 Q1014 NOSIG
ZGNN,2015-09-17 14:00,ZGNN 171400Z VRB01MPS 9999 FEW030 26/24 Q1015 NOSIG
ZGNN,2015-09-17 15:00,ZGNN 171500Z VRB01MPS 9999 FEW030 26/24 Q1015 NOSIG
ZGNN,2015-09-17 16:00,ZGNN 171600Z VRB01MPS CAVOK 26/24 Q1015 NOSIG
ZGNN,2015-09-17 17:00,ZGNN 171700Z VRB01MPS CAVOK 26/24 Q1015 NOSIG
ZGNN,2015-09-17 18:00,ZGNN 171800Z VRB01MPS CAVOK 25/24 Q1015 NOSIG
ZGNN,2015-09-17 19:00,ZGNN 171900Z 01001MPS 9999 FEW016 25/24 Q1014 NOSIG
ZGNN,2015-09-17 20:00,ZGNN 172000Z 07002MPS 9999 FEW016 25/23 Q1014 NOSIG
ZGNN,2015-09-17 21:00,ZGNN 172100Z 09002MPS 9999 SCT016 25/24 Q1014 NOSIG
ZGNN,2015-09-17 22:00,ZGNN 172200Z 04003MPS 9999 FEW016 SCT040 25/23 Q1014 NOSIG
ZGNN,2015-09-17 23:00,ZGNN 172300Z 05002MPS 9999 FEW016 SCT040 25/24 Q1015 NOSIG
ZGNN,2015-09-18 00:00,ZGNN 180000Z 07002MPS 040V100 9999 FEW016 SCT040 27/24 Q1015 NOSIG
ZGNN,2015-09-18 01:00,ZGNN 180100Z 13003MPS 100V160 9999 SCT016 27/24 Q1016 NOSIG
ZGNN,2015-09-18 02:00,ZGNN 180200Z 12003MPS 090V180 9999 SCT015 BKN043 28/25 Q1016 NOSIG
ZGNN,2015-09-18 03:00,ZGNN 180300Z 16003MPS 9999 -SHRA SCT020 FEW026TCU BKN043 29/25 Q1016 NOSIG
ZGNN,2015-09-18 04:00,ZGNN 180400Z 19002MPS 150V240 9999 SCT020 FEW026TCU BKN043 29/26 Q1016 NOSIG
ZGNN,2015-09-18 05:00,ZGNN 180500Z 19003MPS 150V220 9999 SCT023 FEW026TCU 30/25 Q1015 NOSIG
ZGNN,2015-09-18 06:00,ZGNN 180600Z 16003MPS 9999 -SHRA BKN026 FEW030TCU 30/25 Q1014 NOSIG
ZGNN,2015-09-18 07:00,ZGNN 180700Z 20006MPS 9999 -SHRA BKN026 FEW030TCU 28/24 Q1013 BECMG TL0720 TSRA
ZGNN,2015-09-18 08:00,ZGNN 180800Z 19002MPS 160V230 9999 SCT026 FEW030TCU 31/25 Q1013 NOSIG
ZGNN,2015-09-18 09:00,ZGNN 180900Z 16002MPS 9999 FEW026 FEW030TCU 30/25 Q1012 NOSIG
ZGNN,2015-09-18 10:00,ZGNN 181000Z 24002MPS CAVOK 29/26 Q1012 NOSIG
ZGNN,2015-09-18 11:00,ZGNN 181100Z 15002MPS 120V180 CAVOK 29/25 Q1013 NOSIG
ZGNN,2015-09-18 12:00,ZGNN 181200Z 15001MPS 9999 TS FEW030CB BKN043 28/25 Q1014 BECMG TL1300 NSW
ZGNN,2015-09-18 13:00,ZGNN 181300Z 25002MPS 9999 FEW043 27/25 Q1014 RETS NOSIG
ZGNN,2015-09-18 14:00,ZGNN 181400Z 29002MPS CAVOK 27/25 Q1014 NOSIG
ZGNN,2015-09-18 15:00,ZGNN 181500Z 17001MPS CAVOK 26/25 Q1014 NOSIG
ZGNN,2015-09-18 16:00,ZGNN 181600Z 26001MPS CAVOK 26/25 Q1014 NOSIG
ZGNN,2015-09-18 17:00,ZGNN 181700Z 32001MPS CAVOK 25/24 Q1014 NOSIG
ZGNN,2015-09-18 18:00,ZGNN 181800Z 22001MPS 7000 NSC 25/24 Q1014 NOSIG
ZGNN,2015-09-18 19:00,ZGNN 181900Z 00000MPS 1100 R23/1500D BR SCT002 SCT003 25/24 Q1013 NOSIG
ZGNN,2015-09-18 20:00,ZGNN 182000Z 32001MPS 1100 R05/1100U BR FEW001 SCT002 25/24 Q1013 NOSIG
ZGNN,2015-09-18 21:00,ZGNN 182100Z 00000MPS 4000 BR FEW002 24/24 Q1013 NOSIG
ZGNN,2015-09-18 22:00,ZGNN 182200Z 00000MPS 3100 BR FEW003 24/24 Q1013 NOSIG
ZGNN,2015-09-18 23:00,ZGNN 182300Z VRB01MPS 2000 BR SCT002 24/24 Q1013 BECMG TL0030 3500 BR
ZGNN,2015-09-19 00:00,ZGNN 190000Z VRB01MPS 2000 BR FEW001 SCT002 25/24 Q1014 BECMG TL0100 3500 BR
ZGNN,2015-09-19 01:00,ZGNN 190100Z VRB01MPS 6000 SCT005 26/25 Q1014 NOSIG
ZGNN,2015-09-19 02:00,ZGNN 190200Z 20002MPS 160V240 9999 SCT020 29/25 Q1014 NOSIG
ZGNN,2015-09-19 03:00,ZGNN 190300Z 27002MPS 200V330 9999 SCT020 30/24 Q1014 NOSIG
ZGNN,2015-09-19 04:00,ZGNN 190400Z 22003MPS 200V260 9999 SCT023 31/24 Q1013 NOSIG
ZGNN,2015-09-19 05:00,ZGNN 190500Z 19002MPS 140V250 9999 SCT026 32/24 Q1012 NOSIG
ZGNN,2015-09-19 06:00,ZGNN 190600Z VRB01MPS 9999 FEW026TCU FEW026 SCT043 32/24 Q1011 NOSIG
ZGNN,2015-09-19 07:00,ZGNN 190700Z 24001MPS 9999 -SHRA FEW030CB FEW030 SCT046 30/24 Q1010 NOSIG
ZGNN,2015-09-19 08:00,ZGNN 190800Z VRB01MPS 9999 FEW030 32/24 Q1009 NOSIG
ZGNN,2015-09-19 09:00,ZGNN 190900Z 15002MPS 120V180 9999 FEW033 31/25 Q1008 NOSIG
ZGNN,2015-09-19 10:00,ZGNN 191000Z 14002MPS 110V170 CAVOK 31/25 Q1008 NOSIG
ZGNN,2015-09-19 11:00,ZGNN 191100Z 11001MPS 9999 SCT033 29/25 Q1009 NOSIG
ZGNN,2015-09-19 12:00,ZGNN 191200Z 15002MPS CAVOK 29/25 Q1009 NOSIG
ZGNN,2015-09-19 13:00,ZGNN 191300Z VRB01MPS CAVOK 28/25 Q1009 NOSIG
ZGNN,2015-09-19 14:00,ZGNN 191400Z 13001MPS CAVOK 27/25 Q1010 NOSIG
ZGNN,2015-09-19 15:00,ZGNN 191500Z VRB01MPS CAVOK 27/25 Q1010 NOSIG
ZGNN,2015-09-19 16:00,ZGNN 191600Z 00000MPS 9999 FEW020 26/25 Q1010 NOSIG
ZGNN,2015-09-19 17:00,ZGNN 191700Z 00000MPS CAVOK 26/25 Q1010 NOSIG
ZGNN,2015-09-19 18:00,ZGNN 191800Z VRB01MPS 9999 FEW008 26/25 Q1009 NOSIG
ZGNN,2015-09-19 19:00,ZGNN 191900Z 00000MPS 9999 FEW006 26/25 Q1009 NOSIG
ZGNN,2015-09-19 20:00,ZGNN 192000Z 28001MPS 9999 FEW006 26/25 Q1009 NOSIG
ZGNN,2015-09-19 21:00,ZGNN 192100Z 00000MPS CAVOK 26/25 Q1008 NOSIG
ZGNN,2015-09-19 22:00,ZGNN 192200Z VRB01MPS CAVOK 25/25 Q1009 NOSIG
ZGNN,2015-09-19 23:00,ZGNN 192300Z 11001MPS 8000 FEW005 SCT040 26/25 Q1009 NOSIG
ZGNN,2015-09-20 00:00,ZGNN 200000Z VRB01MPS 7000 FEW005 SCT040 26/25 Q1009 NOSIG
ZGNN,2015-09-20 01:00,ZGNN 200100Z VRB01MPS 7000 SCT005 SCT040 26/25 Q1010 NOSIG
ZGNN,2015-09-20 02:00,ZGNN 200200Z 24002MPS 7000 SCT005 SCT040 27/25 Q1010 NOSIG
ZGNN,2015-09-20 03:00,ZGNN 200300Z 23002MPS 200V270 8000 FEW006 SCT040 27/26 Q1010 NOSIG
ZGNN,2015-09-20 04:00,ZGNN 200400Z 02002MPS 340V050 8000 SCT015 OVC040 27/26 Q1010 NOSIG
ZGNN,2015-09-20 05:00,ZGNN 200500Z 34004MPS 310V010 9999 -SHRA SCT016 FEW040CB BKN040 26/24 Q1010 BECMG TL0515 SHRA
ZGNN,2015-09-20 06:00,ZGNN 200600Z 01003MPS 330V040 9999 -SHRA SCT016 FEW040CB BKN040 24/23 Q1009 NOSIG
ZGNN,2015-09-20 07:00,ZGNN 200700Z 36003MPS 9999 -SHRA SCT016 FEW040CB BKN040 25/23 Q1008 NOSIG
ZGNN,2015-09-20 08:00,ZGNN 200800Z 02003MPS 340V040 9999 SCT016 OVC040 25/23 Q1007 NOSIG
ZGNN,2015-09-20 09:00,ZGNN 200900Z 03003MPS 9999 SCT010 OVC040 25/23 Q1008 NOSIG
ZGNN,2015-09-20 10:00,ZGNN 201000Z 03002MPS 9999 SCT010 OVC040 25/23 Q1008 NOSIG
ZGNN,2015-09-20 11:00,ZGNN 201100Z 10003MPS 080V140 9999 FEW007 SCT011 OVC040 25/24 Q1008 NOSIG
ZGNN,2015-09-20 12:00,ZGNN 201200Z 10003MPS 070V140 9999 FEW008 SCT015 24/23 Q1009 NOSIG
ZGNN,2015-09-20 13:00,ZGNN 201300Z 08003MPS 9999 FEW008 SCT015 24/22 Q1010 NOSIG
ZGNN,2015-09-20 14:00,ZGNN 201400Z 07003MPS 9999 FEW008 SCT026 24/22 Q1010 NOSIG
ZGNN,2015-09-20 15:00,ZGNN 201500Z 11002MPS 090V160 9999 FEW008 24/22 Q1010 NOSIG
ZGNN,2015-09-20 16:00,ZGNN 201600Z VRB01MPS 9999 FEW008 SCT040 23/22 Q1010 NOSIG
ZGNN,2015-09-20 17:00,ZGNN 201700Z VRB01MPS 9999 FEW010 23/21 Q1010 NOSIG
ZGNN,2015-09-20 18:00,ZGNN 201800Z VRB01MPS 9999 -RA FEW013 23/22 Q1009 NOSIG
ZGNN,2015-09-20 19:00,ZGNN 201900Z VRB01MPS 9999 OVC040 23/22 Q1009 NOSIG
ZGNN,2015-09-20 20:00,ZGNN 202000Z 17001MPS 9999 -RA OVC040 23/22 Q1008 NOSIG
ZGNN,2015-09-20 21:00,ZGNN 202100Z 00000MPS 9999 -RA OVC040 23/22 Q1008 NOSIG
ZGNN,2015-09-20 22:00,ZGNN 202200Z 15001MPS 9999 -RA OVC040 23/21 Q1009 NOSIG
ZGNN,2015-09-20 23:00,ZGNN 202300Z VRB01MPS 9999 FEW010 OVC040 23/21 Q1009 NOSIG
ZGNN,2015-09-21 00:00,ZGNN 210000Z 09002MPS 9999 FEW010 OVC040 23/21 Q1009 BECMG TL0115 SHRA
ZGNN,2015-09-21 01:00,ZGNN 210100Z 02002MPS 9999 -RA FEW010 OVC033 23/21 Q1010 NOSIG
ZGNN,2015-09-21 02:00,ZGNN 210200Z 06002MPS 020V100 9999 FEW015 FEW030TCU OVC033 24/21 Q1010 NOSIG
ZGNN,2015-09-21 03:00,ZGNN 210300Z 06003MPS 330V110 9999 -SHRA SCT015 FEW030TCU OVC033 24/21 Q1010 NOSIG
ZGNN,2015-09-21 04:00,ZGNN 210400Z 36003MPS 330V030 4000 -SHRA SCT016 FEW030TCU OVC033 23/21 Q1010 NOSIG
ZGNN,2015-09-21 05:00,ZGNN 210500Z 03003MPS 2500 -SHRA FEW009 SCT015 FEW030CB OVC033 22/21 Q1009 RESHRA BECMG TL0540 4000 -SHRA
ZGNN,2015-09-21 06:00,ZGNN 210600Z 02003MPS 4000 -SHRA BR FEW005 SCT013 FEW033CB OVC033 22/22 Q1008 NOSIG
ZGNN,2015-09-21 07:00,ZGNN 210700Z 01004MPS 5000 -SHRA BR FEW004 SCT013 FEW033CB OVC033 22/21 Q1007 NOSIG
ZGNN,2015-09-21 08:00,ZGNN 210800Z 02004MPS 8000 -SHRA FEW004 SCT013 FEW033CB OVC033 22/22 Q1007 NOSIG
ZGNN,2015-09-21 09:00,ZGNN 210900Z 01002MPS 330V030 9999 -RA SCT016 OVC030 23/22 Q1007 NOSIG
ZGNN,2015-09-21 10:00,ZGNN 211000Z 02002MPS 9999 -RA FEW013 OVC030 23/22 Q1007 NOSIG
ZGNN,2015-09-21 11:00,ZGNN 211100Z 02003MPS 7000 SCT009 OVC030 23/22 Q1007 NOSIG
ZGNN,2015-09-21 12:00,ZGNN 211200Z 01002MPS 7000 FEW010 OVC026 23/22 Q1008 NOSIG
ZGNN,2015-09-21 13:00,ZGNN 211300Z 02002MPS 7000 FEW015 BKN040 23/22 Q1008 NOSIG
ZGNN,2015-09-21 14:00,ZGNN 211400Z 03002MPS 6000 SCT013 BKN040 23/22 Q1009 NOSIG
ZGNN,2015-09-21 15:00,ZGNN 211500Z VRB01MPS 6000 FEW011 SCT023 BKN040 23/22 Q1009 NOSIG
ZGNN,2015-09-21 16:00,ZGNN 211600Z VRB01MPS 6000 FEW011 SCT020 BKN040 23/22 Q1008 NOSIG
ZGNN,2015-09-21 17:00,ZGNN 211700Z VRB01MPS 7000 SCT015 BKN040 23/22 Q1008 NOSIG
ZGNN,2015-09-21 18:00,ZGNN 211800Z 03002MPS 6000 SCT013 BKN040 23/22 Q1007 NOSIG
ZGNN,2015-09-21 19:00,ZGNN 211900Z 05003MPS 6000 SCT013 OVC040 23/22 Q1007 NOSIG
ZGNN,2015-09-21 20:00,ZGNN 212000Z 04003MPS 6000 SCT010 OVC033 23/22 Q1008 NOSIG
ZGNN,2015-09-21 21:00,ZGNN 212100Z 04003MPS 5000 BR SCT010 OVC030 23/22 Q1008 NOSIG
ZGNN,2015-09-21 22:00,ZGNN 212200Z 05003MPS 5000 -RA BR SCT008 OVC026 23/22 Q1008 NOSIG
ZGNN,2015-09-21 23:00,ZGNN 212300Z 04003MPS 3100 -RA BR FEW003 SCT006 OVC023 23/22 Q1008 BECMG TL2340 2500 -RA BR
ZGNN,2015-09-22 00:00,ZGNN 220000Z 06002MPS 030V110 4000 BR FEW004 SCT006 OVC026 23/23 Q1009 NOSIG
ZGNN,2015-09-22 01:00,ZGNN 220100Z 10002MPS 080V180 2500 BR FEW003 SCT005 OVC026 24/23 Q1010 BECMG TL0220 3500 BR
ZGNN,2015-09-22 02:00,ZGNN 220200Z 09002MPS 050V170 4500 BR FEW005 SCT007 OVC026 24/23 Q1010 NOSIG
ZGNN,2015-09-22 03:00,ZGNN 220300Z 11002MPS 040V170 8000 SCT008 OVC026 25/23 Q1009 NOSIG
ZGNN,2015-09-22 04:00,ZGNN 220400Z VRB01MPS 9999 SCT009 OVC030 26/24 Q1009 NOSIG
ZGNN,2015-09-22 05:00,ZGNN 220500Z VRB01MPS 9999 SCT011 OVC033 27/24 Q1009 NOSIG
ZGNN,2015-09-22 06:00,ZGNN 220600Z VRB01MPS 9999 FEW013 SCT033 28/24 Q1008 NOSIG
ZGNN,2015-09-22 07:00,ZGNN 220700Z VRB01MPS 9999 FEW016 SCT030 27/25 Q1007 NOSIG
ZGNN,2015-09-22 08:00,ZGNN 220800Z VRB02MPS 9999 FEW016 29/25 Q1007 NOSIG
ZGNN,2015-09-22 09:00,ZGNN 220900Z 04004MPS 9999 FEW016 FEW026TCU 28/25 Q1007 NOSIG
ZGNN,2015-09-22 10:00,ZGNN 221000Z 13003MPS 100V160 9999 FEW016 28/25 Q1007 NOSIG
ZGNN,2015-09-22 11:00,ZGNN 221100Z VRB01MPS 9999 FEW040 27/24 Q1007 NOSIG
ZGNN,2015-09-22 12:00,ZGNN 221200Z VRB01MPS 7000 -SHRA SCT026 BKN046 27/25 Q1008 NOSIG
ZGNN,2015-09-22 13:00,ZGNN 221300Z 09003MPS 070V130 7000 FEW006 SCT010 OVC043 26/25 Q1009 NOSIG
ZGNN,2015-09-22 14:00,ZGNN 221400Z 07002MPS 040V100 6000 -SHRA FEW007 SCT023 OVC043 26/25 Q1010 NOSIG
ZGNN,2015-09-22 15:00,ZGNN 221500Z VRB02MPS 9999 -SHRA FEW007 SCT013 26/25 Q1010 RESHRA NOSIG
ZGNN,2015-09-22 16:00,ZGNN 221600Z 08002MPS 9999 FEW023 25/24 Q1010 NOSIG
ZGNN,2015-09-22 17:00,ZGNN 221700Z 06002MPS 9999 FEW007 SCT013 25/24 Q1010 NOSIG
ZGNN,2015-09-22 18:00,ZGNN 221800Z 00000MPS 5000 -SHRA BR FEW004 SCT013 25/24 Q1009 RESHRA NOSIG
ZGNN,2015-09-22 19:00,ZGNN 221900Z 00000MPS 5000 -SHRA BR FEW004 SCT007 OVC040 25/24 Q1008 BECMG TL1920 SHRA
ZGNN,2015-09-22 20:00,ZGNN 222000Z 14003MPS 110V180 2500 SHRA BR FEW004 SCT013 FEW030CB BKN040 25/24 Q1008 NOSIG
ZGNN,2015-09-22 21:00,ZGNN 222100Z VRB01MPS 9999 -SHRA SCT016 OVC040 25/24 Q1009 RESHRA NOSIG
ZGNN,2015-09-22 22:00,ZGNN 222200Z 09002MPS 040V180 9999 FEW004 SCT009 BKN040 25/24 Q1009 NOSIG
ZGNN,2015-09-22 23:00,ZGNN 222300Z 00000MPS 9999 SCT040 25/24 Q1009 NOSIG
ZGNN,2015-09-23 00:00,ZGNN 230000Z 18001MPS 9999 SCT026 25/24 Q1010 NOSIG
ZGNN,2015-09-23 01:00,ZGNN 230100Z VRB01MPS 9999 FEW005 25/24 Q1011 NOSIG
ZGNN,2015-09-23 02:00,ZGNN 230200Z 12002MPS 040V210 9999 SCT009 27/25 Q1011 NOSIG
ZGNN,2015-09-23 03:00,ZGNN 230300Z 13003MPS 080V190 9999 SCT015 29/25 Q1010 NOSIG
ZGNN,2015-09-23 04:00,ZGNN 230400Z 11003MPS 080V160 9999 SCT016 29/25 Q1010 NOSIG
ZGNN,2015-09-23 05:00,ZGNN 230500Z 13002MPS 080V220 9999 SCT023 30/25 Q1009 NOSIG
ZGNN,2015-09-23 06:00,ZGNN 230600Z 14003MPS 100V160 9999 SCT023 30/25 Q1008 NOSIG
ZGNN,2015-09-23 07:00,ZGNN 230700Z 10002MPS 070V180 9999 SCT026 29/25 Q1007 NOSIG
ZGNN,2015-09-23 08:00,ZGNN 230800Z VRB01MPS 9999 SCT026 31/26 Q1006 NOSIG
ZGNN,2015-09-23 09:00,ZGNN 230900Z 12003MPS 9999 -SHRA FEW026TCU SCT026 30/26 Q1006 NOSIG
ZGNN,2015-09-23 10:00,ZGNN 231000Z 16002MPS 120V200 9999 FEW030TCU FEW040 30/25 Q1005 NOSIG
ZGNN,2015-09-23 11:00,ZGNN 231100Z 13002MPS 110V170 9999 FEW040 28/25 Q1005 NOSIG
ZGNN,2015-09-23 12:00,ZGNN 231200Z VRB01MPS 9999 FEW040 28/25 Q1006 NOSIG
ZGNN,2015-09-23 13:00,ZGNN 231300Z VRB01MPS CAVOK 27/25 Q1007 NOSIG
ZGNN,2015-09-23 14:00,ZGNN 231400Z VRB01MPS CAVOK 26/24 Q1007 NOSIG
ZGNN,2015-09-23 15:00,ZGNN 231500Z VRB01MPS CAVOK 26/24 Q1007 NOSIG
ZGNN,2015-09-23 16:00,ZGNN 231600Z VRB01MPS CAVOK 25/24 Q1007 NOSIG
ZGNN,2015-09-23 17:00,ZGNN 231700Z VRB01MPS CAVOK 24/24 Q1007 NOSIG
ZGNN,2015-09-23 18:00,ZGNN 231800Z VRB01MPS CAVOK 24/23 Q1007 NOSIG
ZGNN,2015-09-23 19:00,ZGNN 231900Z 02001MPS 8000 NSC 24/23 Q1006 NOSIG
ZGNN,2015-09-23 20:00,ZGNN 232000Z VRB01MPS 6000 NSC 24/23 Q1006 NOSIG
ZGNN,2015-09-23 21:00,ZGNN 232100Z 35001MPS 5000 BR NSC 24/23 Q1006 NOSIG
ZGNN,2015-09-23 22:00,ZGNN 232200Z VRB01MPS 5000 BR FEW005 24/24 Q1006 NOSIG
ZGNN,2015-09-23 23:00,ZGNN 232300Z 02001MPS 4500 BR SCT004 25/24 Q1007 NOSIG
ZGNN,2015-09-24 00:00,ZGNN 240000Z VRB01MPS 6000 FEW005 SCT010 26/25 Q1008 NOSIG
ZGNN,2015-09-24 01:00,ZGNN 240100Z 13002MPS 9999 FEW006 SCT010 28/25 Q1008 NOSIG
ZGNN,2015-09-24 02:00,ZGNN 240200Z 16003MPS 120V210 9999 FEW013 SCT020 29/25 Q1008 NOSIG
ZGNN,2015-09-24 03:00,ZGNN 240300Z 17002MPS 120V210 9999 BKN020 29/25 Q1007 NOSIG
ZGNN,2015-09-24 04:00,ZGNN 240400Z 16002MPS 090V200 9999 SCT023 30/25 Q1007 NOSIG
ZGNN,2015-09-24 05:00,ZGNN 240500Z 15002MPS 110V190 9999 SCT023 33/26 Q1005 NOSIG
ZGNN,2015-09-24 06:00,ZGNN 240600Z 15003MPS 110V200 9999 SCT030 33/26 Q1004 NOSIG
ZGNN,2015-09-24 07:00,ZGNN 240700Z 16004MPS 9999 SCT030 32/26 Q1003 NOSIG
ZGNN,2015-09-24 08:00,ZGNN 240800Z 16004MPS 9999 FEW030TCU SCT030 31/25 Q1003 NOSIG
ZGNN,2015-09-24 09:00,ZGNN 240900Z 14005MPS 9999 FEW030TCU FEW030 31/25 Q1003 NOSIG
ZGNN,2015-09-24 10:00,ZGNN 241000Z 15005MPS 9999 FEW026 FEW030TCU 30/25 Q1003 NOSIG
ZGNN,2015-09-24 11:00,ZGNN 241100Z 14004MPS 9999 FEW030TCU 29/25 Q1003 NOSIG
ZGNN,2015-09-24 12:00,ZGNN 241200Z 15002MPS 110V220 9999 SCT040 28/25 Q1004 NOSIG
ZGNN,2015-09-24 13:00,ZGNN 241300Z VRB01MPS CAVOK 28/25 Q1005 NOSIG
ZGNN,2015-09-24 14:00,ZGNN 241400Z VRB01MPS CAVOK 27/25 Q1005 NOSIG
ZGNN,2015-09-24 15:00,ZGNN 241500Z VRB01MPS CAVOK 27/25 Q1005 NOSIG
ZGNN,2015-09-24 16:00,ZGNN 241600Z VRB01MPS CAVOK 27/25 Q1005 NOSIG
ZGNN,2015-09-24 17:00,ZGNN 241700Z 23002MPS CAVOK 26/25 Q1005 NOSIG
ZGNN,2015-09-24 18:00,ZGNN 241800Z VRB01MPS CAVOK 26/25 Q1005 NOSIG
ZGNN,2015-09-24 19:00,ZGNN 241900Z 34001MPS CAVOK 25/24 Q1005 NOSIG
ZGNN,2015-09-24 20:00,ZGNN 242000Z 36001MPS 9999 FEW007 25/24 Q1004 NOSIG
ZGNN,2015-09-24 21:00,ZGNN 242100Z 01001MPS CAVOK 25/24 Q1004 NOSIG
ZGNN,2015-09-24 22:00,ZGNN 242200Z VRB01MPS CAVOK 26/25 Q1004 NOSIG
ZGNN,2015-09-24 23:00,ZGNN 242300Z VRB01MPS CAVOK 26/25 Q1005 NOSIG
ZGNN,2015-09-25 00:00,ZGNN 250000Z VRB01MPS CAVOK 28/25 Q1005 NOSIG
ZGNN,2015-09-25 01:00,ZGNN 250100Z VRB01MPS 9999 FEW016 29/25 Q1006 NOSIG
ZGNN,2015-09-25 02:00,ZGNN 250200Z VRB01MPS 9999 FEW020 31/25 Q1006 NOSIG
ZGNN,2015-09-25 03:00,ZGNN 250300Z VRB01MPS 9999 FEW023 32/25 Q1006 NOSIG
ZGNN,2015-09-25 04:00,ZGNN 250400Z VRB01MPS 9999 SCT026 33/25 Q1005 NOSIG
ZGNN,2015-09-25 05:00,ZGNN 250500Z VRB02MPS 9999 BKN033 33/24 Q1005 NOSIG
ZGNN,2015-09-25 06:00,ZGNN 250600Z VRB02MPS 9999 FEW030TCU BKN033 34/25 Q1003 NOSIG
ZGNN,2015-09-25 07:00,ZGNN 250700Z 35002MPS 280V080 9999 BKN033 35/25 Q1002 NOSIG
ZGNN,2015-09-25 08:00,ZGNN 250800Z 31002MPS 260V010 9999 FEW033CB SCT033 35/25 Q1002 NOSIG
ZGNN,2015-09-25 09:00,ZGNN 250900Z 12003MPS 9999 SCT036 32/26 Q1002 NOSIG
ZGNN,2015-09-25 10:00,ZGNN 251000Z 12003MPS 9999 FEW030CB 31/27 Q1002 NOSIG
ZGNN,2015-09-25 11:00,ZGNN 251100Z 11002MPS 090V180 9999 FEW026 30/27 Q1003 NOSIG
ZGNN,2015-09-25 12:00,ZGNN 251200Z 10002MPS 090V180 CAVOK 29/27 Q1003 NOSIG
ZGNN,2015-09-25 13:00,ZGNN 251300Z 10002MPS 080V180 CAVOK 29/27 Q1005 NOSIG
ZGNN,2015-09-25 14:00,ZGNN 251400Z VRB01MPS CAVOK 28/27 Q1005 NOSIG
ZGNN,2015-09-25 15:00,ZGNN 251500Z VRB01MPS 9999 FEW020 FEW030CB 28/27 Q1005 NOSIG
ZGNN,2015-09-25 16:00,ZGNN 251600Z VRB01MPS 9999 FEW010 SCT020 28/26 Q1006 NOSIG
ZGNN,2015-09-25 17:00,ZGNN 251700Z 04002MPS 010V080 9999 FEW009 SCT013 28/26 Q1006 NOSIG
ZGNN,2015-09-25 18:00,ZGNN 251800Z 07003MPS 9999 SCT011 28/26 Q1006 NOSIG
ZGNN,2015-09-25 19:00,ZGNN 251900Z 02003MPS 9999 FEW011 28/26 Q1006 NOSIG
ZGNN,2015-09-25 20:00,ZGNN 252000Z 04003MPS 9999 FEW013 26/25 Q1005 NOSIG
ZGNN,2015-09-25 21:00,ZGNN 252100Z 35003MPS 9999 FEW006 SCT010 27/25 Q1006 NOSIG
ZGNN,2015-09-25 22:00,ZGNN 252200Z 03002MPS 360V080 8000 FEW007 SCT015 BKN033 26/25 Q1006 NOSIG
ZGNN,2015-09-25 23:00,ZGNN 252300Z 36003MPS 8000 SCT009 SCT016 FEW026CB BKN033 26/25 Q1007 NOSIG
ZGNN,2015-09-26 00:00,ZGNN 260000Z 04004MPS 9999 SCT009 FEW030CB BKN030 26/24 Q1008 NOSIG
ZGNN,2015-09-26 01:00,ZGNN 260100Z 03004MPS 9999 SCT010 OVC040 26/23 Q1009 NOSIG
ZGNN,2015-09-26 02:00,ZGNN 260200Z 06003MPS 040V100 9999 SCT013 OVC040 26/24 Q1010 NOSIG
ZGNN,2015-09-26 03:00,ZGNN 260300Z 06004MPS 9999 SCT016 BKN040 27/24 Q1010 NOSIG
ZGNN,2015-09-26 04:00,ZGNN 260400Z 05003MPS 020V080 9999 SCT016 BKN040 28/24 Q1009 NOSIG
ZGNN,2015-09-26 05:00,ZGNN 260500Z 02004MPS 360V070 9999 SCT016 BKN040 28/24 Q1008 NOSIG
ZGNN,2015-09-26 06:00,ZGNN 260600Z 34002MPS 300V020 9999 SCT016 BKN040 29/24 Q1008 NOSIG
ZGNN,2015-09-26 07:00,ZGNN 260700Z 01003MPS 330V050 9999 FEW016 29/24 Q1007 NOSIG
ZGNN,2015-09-26 08:00,ZGNN 260800Z 33002MPS 290V030 9999 FEW016 31/25 Q1006 NOSIG
ZGNN,2015-09-26 09:00,ZGNN 260900Z 35004MPS 9999 FEW023 29/24 Q1006 NOSIG
ZGNN,2015-09-26 10:00,ZGNN 261000Z 35004MPS CAVOK 28/24 Q1006 NOSIG
ZGNN,2015-09-26 11:00,ZGNN 261100Z 01004MPS 340V040 9999 FEW020 27/24 Q1007 NOSIG
ZGNN,2015-09-26 12:00,ZGNN 261200Z 35003MPS 320V020 9999 FEW020 27/24 Q1008 NOSIG
ZGNN,2015-09-26 13:00,ZGNN 261300Z 36003MPS 9999 SCT020 27/24 Q1008 NOSIG
ZGNN,2015-09-26 14:00,ZGNN 261400Z 02004MPS 350V060 9999 SCT020 26/24 Q1009 NOSIG
ZGNN,2015-09-26 15:00,ZGNN 261500Z 07003MPS 040V100 9999 SCT016 26/23 Q1010 NOSIG
ZGNN,2015-09-26 16:00,ZGNN 261600Z 05002MPS 9999 FEW016 26/23 Q1010 NOSIG
ZGNN,2015-09-26 17:00,ZGNN 261700Z 11002MPS 9999 SCT013 26/23 Q1010 NOSIG
ZGNN,2015-09-26 18:00,ZGNN 261800Z 03002MPS 9999 SCT013 26/23 Q1009 NOSIG
ZGNN,2015-09-26 19:00,ZGNN 261900Z VRB01MPS 9999 SCT009 25/23 Q1009 NOSIG
ZGNN,2015-09-26 20:00,ZGNN 262000Z VRB01MPS 9999 SCT015 25/23 Q1009 NOSIG
ZGNN,2015-09-26 21:00,ZGNN 262100Z 35002MPS 9999 SCT015 25/23 Q1010 NOSIG
ZGNN,2015-09-26 22:00,ZGNN 262200Z 35002MPS 9999 SCT015 25/23 Q1010 NOSIG
ZGNN,2015-09-26 23:00,ZGNN 262300Z 35002MPS 9999 SCT016 25/23 Q1010 NOSIG
ZGNN,2015-09-27 00:00,ZGNN 270000Z 01002MPS 9999 SCT016 25/23 Q1011 NOSIG
ZGNN,2015-09-27 01:00,ZGNN 270100Z 05002MPS 340V100 9999 FEW013 27/23 Q1012 NOSIG
ZGNN,2015-09-27 02:00,ZGNN 270200Z VRB01MPS 9999 FEW016 28/23 Q1012 NOSIG
ZGNN,2015-09-27 03:00,ZGNN 270300Z VRB02MPS 9999 SCT020 29/24 Q1011 NOSIG
ZGNN,2015-09-27 04:00,ZGNN 270400Z VRB01MPS 9999 SCT023 30/24 Q1011 NOSIG
ZGNN,2015-09-27 05:00,ZGNN 270500Z 22002MPS 160V250 9999 SCT026 29/24 Q1010 NOSIG
ZGNN,2015-09-27 06:00,ZGNN 270600Z 25001MPS 9999 SCT026 30/24 Q1009 NOSIG
ZGNN,2015-09-27 07:00,ZGNN 270700Z VRB01MPS 9999 FEW026 32/25 Q1008 NOSIG
ZGNN,2015-09-27 08:00,ZGNN 270800Z 32002MPS 270V040 9999 FEW030 31/24 Q1007 NOSIG
ZGNN,2015-09-27 09:00,ZGNN 270900Z 30002MPS 9999 FEW030 31/24 Q1007 NOSIG
ZGNN,2015-09-27 10:00,ZGNN 271000Z 35002MPS 9999 FEW030 30/24 Q1007 NOSIG
ZGNN,2015-09-27 11:00,ZGNN 271100Z 33002MPS 300V010 9999 FEW026 29/25 Q1007 NOSIG
ZGNN,2015-09-27 12:00,ZGNN 271200Z VRB01MPS CAVOK 28/25 Q1007 NOSIG
ZGNN,2015-09-27 13:00,ZGNN 271300Z VRB01MPS CAVOK 27/25 Q1008 NOSIG
ZGNN,2015-09-27 14:00,ZGNN 271400Z VRB01MPS CAVOK 26/25 Q1009 NOSIG
ZGNN,2015-09-27 15:00,ZGNN 271500Z VRB01MPS CAVOK 26/24 Q1009 NOSIG
ZGNN,2015-09-27 16:00,ZGNN 271600Z 00000MPS 9999 FEW026 26/24 Q1009 NOSIG
ZGNN,2015-09-27 17:00,ZGNN 271700Z 25001MPS 7000 SCT026 25/24 Q1009 NOSIG
ZGNN,2015-09-27 18:00,ZGNN 271800Z VRB01MPS 7000 NSC 25/24 Q1009 NOSIG
ZGNN,2015-09-27 19:00,ZGNN 271900Z 31001MPS 7000 NSC 25/24 Q1009 NOSIG
ZGNN,2015-09-27 20:00,ZGNN 272000Z VRB01MPS 6000 NSC 25/24 Q1009 NOSIG
ZGNN,2015-09-27 21:00,ZGNN 272100Z 04002MPS 6000 NSC 25/24 Q1009 NOSIG
ZGNN,2015-09-27 22:00,ZGNN 272200Z VRB01MPS 5000 BR SCT026 BKN043 25/24 Q1010 NOSIG
ZGNN,2015-09-27 23:00,ZGNN 272300Z VRB01MPS 6000 NSC 25/24 Q1010 NOSIG
ZGNN,2015-09-28 00:00,ZGNN 280000Z VRB01MPS 6000 NSC 26/25 Q1011 NOSIG
ZGNN,2015-09-28 01:00,ZGNN 280100Z VRB01MPS 6000 NSC 29/25 Q1011 NOSIG
ZGNN,2015-09-28 02:00,ZGNN 280200Z 11002MPS 080V180 9999 FEW020 30/25 Q1011 NOSIG
ZGNN,2015-09-28 03:00,ZGNN 280300Z 08002MPS 020V190 9999 SCT023 31/25 Q1011 NOSIG
ZGNN,2015-09-28 04:00,ZGNN 280400Z 13002MPS 050V190 9999 SCT026 BKN040 31/24 Q1010 NOSIG
ZGNN,2015-09-28 05:00,ZGNN 280500Z VRB01MPS 9999 SCT030 SCT040 32/24 Q1009 NOSIG
ZGNN,2015-09-28 06:00,ZGNN 280600Z VRB01MPS 9999 SCT033 34/25 Q1008 NOSIG
ZGNN,2015-09-28 07:00,ZGNN 280700Z 26002MPS 230V310 9999 SCT036 33/24 Q1007 NOSIG
ZGNN,2015-09-28 08:00,ZGNN 280800Z 02002MPS 290V080 9999 SCT033 33/25 Q1007 NOSIG
ZGNN,2015-09-28 09:00,ZGNN 280900Z 32002MPS 290V010 9999 FEW033 34/23 Q1006 NOSIG
ZGNN,2015-09-28 10:00,ZGNN 281000Z VRB01MPS CAVOK 32/24 Q1006 NOSIG
ZGNN,2015-09-28 11:00,ZGNN 281100Z VRB01MPS CAVOK 31/25 Q1007 NOSIG
ZGNN,2015-09-28 12:00,ZGNN 281200Z 35001MPS 8000 NSC 29/26 Q1007 NOSIG
ZGNN,2015-09-28 13:00,ZGNN 281300Z 04001MPS 8000 FEW036 29/25 Q1008 NOSIG
ZGNN,2015-09-28 14:00,ZGNN 281400Z VRB02MPS 8000 NSC 29/25 Q1009 NOSIG
ZGNN,2015-09-28 15:00,ZGNN 281500Z VRB01MPS 8000 NSC 28/25 Q1009 NOSIG
ZGNN,2015-09-28 16:00,ZGNN 281600Z 02001MPS 8000 NSC 28/24 Q1009 NOSIG
ZGNN,2015-09-28 17:00,ZGNN 281700Z 00000MPS 6000 NSC 27/25 Q1009 NOSIG
ZGNN,2015-09-28 18:00,ZGNN 281800Z 27001MPS 6000 NSC 26/24 Q1009 NOSIG
ZGNN,2015-09-28 19:00,ZGNN 281900Z 24001MPS 6000 NSC 26/24 Q1009 NOSIG
ZGNN,2015-09-28 20:00,ZGNN 282000Z 28001MPS 6000 NSC 25/24 Q1009 NOSIG
ZGNN,2015-09-28 21:00,ZGNN 282100Z 32001MPS 5000 BR NSC 25/23 Q1008 NOSIG
ZGNN,2015-09-28 22:00,ZGNN 282200Z VRB01MPS 6000 NSC 25/23 Q1009 NOSIG
ZGNN,2015-09-28 23:00,ZGNN 282300Z VRB01MPS 5000 BR NSC 25/24 Q1009 NOSIG
ZGNN,2015-09-29 00:00,ZGNN 290000Z VRB01MPS 5000 BR BKN040 25/25 Q1010 NOSIG
ZGNN,2015-09-29 01:00,ZGNN 290100Z 00000MPS 5000 BR FEW033 28/25 Q1011 NOSIG
ZGNN,2015-09-29 02:00,ZGNN 290200Z VRB01MPS 6000 SCT020 29/24 Q1011 NOSIG
ZGNN,2015-09-29 03:00,ZGNN 290300Z VRB01MPS 8000 SCT026 BKN040 30/23 Q1011 NOSIG
ZGNN,2015-09-29 04:00,ZGNN 290400Z 02002MPS 310V070 9999 BKN040 31/22 Q1010 NOSIG
ZGNN,2015-09-29 05:00,ZGNN 290500Z 36002MPS 310V060 9999 SCT040 32/23 Q1009 NOSIG
ZGNN,2015-09-29 06:00,ZGNN 290600Z 35003MPS 300V030 9999 SCT026 32/23 Q1008 NOSIG
ZGNN,2015-09-29 07:00,ZGNN 290700Z 32003MPS 300V360 9999 SCT033 33/24 Q1007 NOSIG
ZGNN,2015-09-29 08:00,ZGNN 290800Z 33004MPS 300V360 9999 FEW033 33/23 Q1007 NOSIG
ZGNN,2015-09-29 09:00,ZGNN 290900Z 36003MPS 330V030 CAVOK 32/22 Q1007 NOSIG
ZGNN,2015-09-29 10:00,ZGNN 291000Z 34002MPS 300V020 CAVOK 31/23 Q1007 NOSIG
ZGNN,2015-09-29 11:00,ZGNN 291100Z 01001MPS CAVOK 29/24 Q1007 NOSIG
ZGNN,2015-09-29 12:00,ZGNN 291200Z 04003MPS CAVOK 29/24 Q1008 NOSIG
ZGNN,2015-09-29 13:00,ZGNN 291300Z 06002MPS 030V110 CAVOK 28/23 Q1009 NOSIG
ZGNN,2015-09-29 14:00,ZGNN 291400Z VRB01MPS 8000 NSC 27/23 Q1010 NOSIG
ZGNN,2015-09-29 15:00,ZGNN 291500Z VRB01MPS 7000 NSC 25/23 Q1010 NOSIG
ZGNN,2015-09-29 16:00,ZGNN 291600Z 34001MPS 6000 NSC 25/23 Q1010 NOSIG
ZGNN,2015-09-29 17:00,ZGNN 291700Z 27002MPS 6000 NSC 24/23 Q1010 NOSIG
ZGNN,2015-09-29 18:00,ZGNN 291800Z 25002MPS 6000 NSC 24/23 Q1010 NOSIG
ZGNN,2015-09-29 19:00,ZGNN 291900Z VRB01MPS 6000 NSC 24/22 Q1010 NOSIG
ZGNN,2015-09-29 20:00,ZGNN 292000Z 31001MPS 6000 NSC 24/22 Q1010 NOSIG
ZGNN,2015-09-29 21:00,ZGNN 292100Z VRB01MPS 6000 NSC 24/23 Q1010 NOSIG
ZGNN,2015-09-29 22:00,ZGNN 292200Z VRB01MPS 6000 NSC 24/23 Q1011 NOSIG
ZGNN,2015-09-29 23:00,ZGNN 292300Z 00000MPS 6000 NSC 25/23 Q1012 NOSIG
ZGNN,2015-09-30 00:00,ZGNN 300000Z VRB01MPS 7000 NSC 25/24 Q1012 NOSIG
ZGNN,2015-09-30 01:00,ZGNN 300100Z 35002MPS 290V020 CAVOK 29/23 Q1013 NOSIG
ZGNN,2015-09-30 02:00,ZGNN 300200Z 01003MPS CAVOK 30/23 Q1013 NOSIG
ZGNN,2015-09-30 03:00,ZGNN 300300Z 05004MPS 020V080 CAVOK 31/22 Q1013 NOSIG
ZGNN,2015-09-30 04:00,ZGNN 300400Z 03003MPS 320V070 9999 FEW023 32/22 Q1012 NOSIG
ZGNN,2015-09-30 05:00,ZGNN 300500Z 04002MPS 320V110 9999 FEW026 32/22 Q1011 NOSIG
ZGNN,2015-09-30 06:00,ZGNN 300600Z 04002MPS 320V090 9999 SCT030 32/22 Q1010 NOSIG
ZGNN,2015-09-30 07:00,ZGNN 300700Z VRB01MPS 9999 FEW030 33/22 Q1010 NOSIG
ZGNN,2015-09-30 08:00,ZGNN 300800Z 11002MPS 060V150 9999 FEW030 32/22 Q1010 NOSIG
ZGNN,2015-09-30 09:00,ZGNN 300900Z 11003MPS 9999 FEW030 SCT043 32/23 Q1010 NOSIG
ZGNN,2015-09-30 10:00,ZGNN 301000Z 13002MPS 110V170 CAVOK 30/24 Q1010 NOSIG
ZGNN,2015-09-30 11:00,ZGNN 301100Z 10002MPS CAVOK 30/23 Q1011 NOSIG
ZGNN,2015-09-30 12:00,ZGNN 301200Z 07002MPS 020V130 CAVOK 29/23 Q1011 NOSIG
ZGNN,2015-09-30 13:00,ZGNN 301300Z 01001MPS 7000 NSC 28/24 Q1012 NOSIG
ZGNN,2015-09-30 14:00,ZGNN 301400Z 03002MPS 7000 NSC 28/23 Q1012 NOSIG
ZGNN,2015-09-30 15:00,ZGNN 301500Z VRB01MPS 6000 NSC 27/23 Q1013 NOSIG
ZGNN,2015-09-30 16:00,ZGNN 301600Z VRB01MPS 6000 NSC 26/23 Q1013 NOSIG
ZGNN,2015-09-30 17:00,ZGNN 301700Z 00000MPS 6000 NSC 26/23 Q1013 NOSIG
ZGNN,2015-09-30 18:00,ZGNN 301800Z 02001MPS 5000 BR NSC 25/23 Q1013 NOSIG
ZGNN,2015-09-30 19:00,ZGNN 301900Z 04002MPS 5000 BR NSC 26/23 Q1013 NOSIG
ZGNN,2015-09-30 20:00,ZGNN 302000Z VRB01MPS 5000 BR NSC 25/23 Q1013 NOSIG
ZGNN,2015-09-30 21:00,ZGNN 302100Z 03002MPS 5000 BR NSC 25/23 Q1013 NOSIG
ZGNN,2015-09-30 22:00,ZGNN 302200Z 02002MPS 5000 BR NSC 26/23 Q1014 NOSIG
ZGNN,2015-09-30 23:00,ZGNN 302300Z 03002MPS 5000 BR NSC 26/23 Q1014 NOSIG
ZGNN,2015-10-01 00:00,ZGNN 010000Z 03002MPS 4000 BR NSC 27/23 Q1015 NOSIG
ZGNN,2015-10-01 01:00,ZGNN 010100Z 06003MPS 020V100 6000 NSC 28/23 Q1015 NOSIG
ZGNN,2015-10-01 02:00,ZGNN 010200Z 04002MPS 330V110 6000 NSC 29/24 Q1015 NOSIG
ZGNN,2015-10-01 03:00,ZGNN 010300Z VRB01MPS 7000 FEW026 31/24 Q1015 NOSIG
ZGNN,2015-10-01 04:00,ZGNN 010400Z 34003MPS 310V010 7000 BKN026 31/25 Q1015 NOSIG
ZGNN,2015-10-01 05:00,ZGNN 010500Z VRB03MPS 7000 BKN030 31/24 Q1014 NOSIG
ZGNN,2015-10-01 06:00,ZGNN 010600Z 01004MPS 340V040 7000 SCT033 32/24 Q1013 NOSIG
ZGNN,2015-10-01 07:00,ZGNN 010700Z 36004MPS 8000 NSC 31/23 Q1012 NOSIG
ZGNN,2015-10-01 08:00,ZGNN 010800Z 36002MPS 330V060 8000 NSC 32/24 Q1011 NOSIG
ZGNN,2015-10-01 09:00,ZGNN 010900Z 04005MPS CAVOK 31/23 Q1012 NOSIG
ZGNN,2015-10-01 10:00,ZGNN 011000Z 04005MPS CAVOK 31/23 Q1012 NOSIG
ZGNN,2015-10-01 11:00,ZGNN 011100Z 05003MPS CAVOK 29/23 Q1012 NOSIG
ZGNN,2015-10-01 12:00,ZGNN 011200Z 05004MPS 7000 NSC 29/23 Q1013 NOSIG
ZGNN,2015-10-01 13:00,ZGNN 011300Z 06006MPS CAVOK 29/21 Q1014 NOSIG
ZGNN,2015-10-01 14:00,ZGNN 011400Z 05004MPS CAVOK 28/22 Q1015 NOSIG
ZGNN,2015-10-01 15:00,ZGNN 011500Z 05004MPS CAVOK 27/21 Q1015 NOSIG
ZGNN,2015-10-01 16:00,ZGNN 011600Z 06004MPS CAVOK 27/21 Q1015 NOSIG
ZGNN,2015-10-01 17:00,ZGNN 011700Z 04003MPS CAVOK 26/20 Q1014 NOSIG
ZGNN,2015-10-01 18:00,ZGNN 011800Z 04002MPS CAVOK 25/20 Q1014 NOSIG
ZGNN,2015-10-01 19:00,ZGNN 011900Z 04002MPS 9999 BKN046 25/20 Q1014 NOSIG
ZGNN,2015-10-01 20:00,ZGNN 012000Z VRB01MPS 9999 BKN046 25/21 Q1014 NOSIG
ZGNN,2015-10-01 21:00,ZGNN 012100Z VRB01MPS 8000 NSC 24/20 Q1014 NOSIG
ZGNN,2015-10-01 22:00,ZGNN 012200Z 05002MPS 360V090 8000 NSC 24/20 Q1014 NOSIG
ZGNN,2015-10-01 23:00,ZGNN 012300Z 08001MPS 6000 NSC 23/21 Q1014 NOSIG
ZGNN,2015-10-02 00:00,ZGNN 020000Z 06002MPS CAVOK 24/19 Q1015 NOSIG
ZGNN,2015-10-02 01:00,ZGNN 020100Z 05002MPS 360V130 CAVOK 25/19 Q1015 NOSIG
ZGNN,2015-10-02 02:00,ZGNN 020200Z 04002MPS 340V070 CAVOK 26/19 Q1015 NOSIG
ZGNN,2015-10-02 03:00,ZGNN 020300Z 01002MPS 290V070 CAVOK 28/19 Q1015 NOSIG
ZGNN,2015-10-02 04:00,ZGNN 020400Z VRB02MPS CAVOK 28/19 Q1015 NOSIG
ZGNN,2015-10-02 05:00,ZGNN 020500Z VRB01MPS CAVOK 29/19 Q1014 NOSIG
ZGNN,2015-10-02 06:00,ZGNN 020600Z 08001MPS CAVOK 29/19 Q1013 NOSIG
ZGNN,2015-10-02 07:00,ZGNN 020700Z 33002MPS 270V050 CAVOK 31/19 Q1012 NOSIG
ZGNN,2015-10-02 08:00,ZGNN 020800Z 03002MPS 330V060 CAVOK 30/20 Q1011 NOSIG
ZGNN,2015-10-02 09:00,ZGNN 020900Z 02003MPS CAVOK 30/20 Q1011 NOSIG
ZGNN,2015-10-02 10:00,ZGNN 021000Z 06002MPS 340V120 CAVOK 29/20 Q1011 NOSIG
ZGNN,2015-10-02 11:00,ZGNN 021100Z 10002MPS CAVOK 27/21 Q1012 NOSIG
ZGNN,2015-10-02 12:00,ZGNN 021200Z 11002MPS 080V160 CAVOK 27/21 Q1012 NOSIG
ZGNN,2015-10-02 13:00,ZGNN 021300Z VRB01MPS CAVOK 26/21 Q1013 NOSIG
ZGNN,2015-10-02 14:00,ZGNN 021400Z VRB01MPS CAVOK 25/21 Q1014 NOSIG
ZGNN,2015-10-02 15:00,ZGNN 021500Z VRB01MPS CAVOK 25/21 Q1013 NOSIG
ZGNN,2015-10-02 16:00,ZGNN 021600Z 36002MPS CAVOK 24/21 Q1013 NOSIG
ZGNN,2015-10-02 17:00,ZGNN 021700Z 01001MPS CAVOK 24/21 Q1013 NOSIG
ZGNN,2015-10-02 18:00,ZGNN 021800Z 00000MPS CAVOK 23/21 Q1013 NOSIG
ZGNN,2015-10-02 19:00,ZGNN 021900Z 00000MPS 7000 NSC 23/21 Q1013 NOSIG
ZGNN,2015-10-02 20:00,ZGNN 022000Z 14001MPS 6000 NSC 23/21 Q1013 NOSIG
ZGNN,2015-10-02 21:00,ZGNN 022100Z VRB01MPS 6000 FEW036 23/21 Q1013 NOSIG
ZGNN,2015-10-02 22:00,ZGNN 022200Z 03002MPS 6000 FEW036 23/21 Q1013 NOSIG
ZGNN,2015-10-02 23:00,ZGNN 022300Z 24002MPS 4000 BR NSC 22/21 Q1013 NOSIG
ZGNN,2015-10-03 00:00,ZGNN 030000Z VRB01MPS 5000 BR NSC 24/22 Q1014 NOSIG
ZGNN,2015-10-03 01:00,ZGNN 030100Z 02002MPS 350V050 7000 NSC 26/21 Q1014 NOSIG
ZGNN,2015-10-03 02:00,ZGNN 030200Z 06003MPS 010V160 8000 NSC 28/22 Q1015 NOSIG
ZGNN,2015-10-03 03:00,ZGNN 030300Z 06003MPS 010V110 8000 FEW020 SCT040 29/21 Q1015 NOSIG
ZGNN,2015-10-03 04:00,ZGNN 030400Z 04004MPS 020V080 9999 FEW023 30/21 Q1014 NOSIG
ZGNN,2015-10-03 05:00,ZGNN 030500Z 02003MPS 320V060 9999 FEW026 31/22 Q1013 NOSIG
ZGNN,2015-10-03 06:00,ZGNN 030600Z 35004MPS 310V030 9999 SCT033 32/21 Q1012 NOSIG
ZGNN,2015-10-03 07:00,ZGNN 030700Z 01004MPS 330V050 9999 FEW033 31/22 Q1011 NOSIG
ZGNN,2015-10-03 08:00,ZGNN 030800Z 01004MPS 340V040 9999 FEW033 31/22 Q1011 NOSIG
ZGNN,2015-10-03 09:00,ZGNN 030900Z 03004MPS CAVOK 30/21 Q1011 NOSIG
ZGNN,2015-10-03 10:00,ZGNN 031000Z 04003MPS CAVOK 30/21 Q1011 NOSIG
ZGNN,2015-10-03 11:00,ZGNN 031100Z 34002MPS 310V020 CAVOK 28/22 Q1011 NOSIG
ZGNN,2015-10-03 12:00,ZGNN 031200Z 01003MPS CAVOK 28/21 Q1012 NOSIG
ZGNN,2015-10-03 13:00,ZGNN 031300Z 02002MPS CAVOK 27/21 Q1013 NOSIG
ZGNN,2015-10-03 14:00,ZGNN 031400Z 35003MPS 320V020 CAVOK 26/21 Q1013 NOSIG
ZGNN,2015-10-03 15:00,ZGNN 031500Z 36002MPS CAVOK 27/21 Q1013 NOSIG
ZGNN,2015-10-03 16:00,ZGNN 031600Z 36003MPS CAVOK 27/21 Q1013 NOSIG
ZGNN,2015-10-03 17:00,ZGNN 031700Z 35004MPS CAVOK 27/20 Q1012 NOSIG
ZGNN,2015-10-03 18:00,ZGNN 031800Z 35004MPS CAVOK 27/21 Q1012 NOSIG
ZGNN,2015-10-03 19:00,ZGNN 031900Z 35005MPS CAVOK 26/21 Q1012 NOSIG
ZGNN,2015-10-03 20:00,ZGNN 032000Z 01004MPS CAVOK 26/21 Q1012 NOSIG
ZGNN,2015-10-03 21:00,ZGNN 032100Z 36004MPS CAVOK 27/20 Q1011 NOSIG
ZGNN,2015-10-03 22:00,ZGNN 032200Z 35005MPS CAVOK 26/20 Q1011 NOSIG
ZGNN,2015-10-03 23:00,ZGNN 032300Z 36004MPS CAVOK 26/21 Q1012 NOSIG
ZGNN,2015-10-04 00:00,ZGNN 040000Z 36005MPS CAVOK 26/21 Q1012 NOSIG
ZGNN,2015-10-04 01:00,ZGNN 040100Z 36005MPS CAVOK 26/21 Q1013 NOSIG
ZGNN,2015-10-04 02:00,ZGNN 040200Z 36007MPS CAVOK 27/21 Q1013 NOSIG
ZGNN,2015-10-04 03:00,ZGNN 040300Z 35006MPS 330V040 CAVOK 27/21 Q1012 NOSIG
ZGNN,2015-10-04 04:00,ZGNN 040400Z 36007MPS CAVOK 28/21 Q1011 NOSIG
ZGNN,2015-10-04 05:00,ZGNN 040500Z 36006MPS 320V020 CAVOK 29/21 Q1010 NOSIG
ZGNN,2015-10-04 06:00,ZGNN 040600Z 36007G13MPS 330V030 CAVOK 28/21 Q1009 NOSIG
ZGNN,2015-10-04 07:00,ZGNN 040700Z 36006MPS 9999 -RA SCT040 28/21 Q1008 NOSIG
ZGNN,2015-10-04 08:00,ZGNN 040800Z 35007G12MPS 9999 SCT040 27/21 Q1007 NOSIG
ZGNN,2015-10-04 09:00,ZGNN 040900Z 35009G14MPS 9999 SCT040 27/21 Q1007 NOSIG
ZGNN,2015-10-04 10:00,ZGNN 041000Z 35007MPS 9999 -SHRA FEW040CB BKN040 25/22 Q1007 NOSIG
ZGNN,2015-10-04 11:00,ZGNN 041100Z 34010MPS 7000 -SHRA FEW040CB BKN040 23/21 Q1006 NOSIG
ZGNN,2015-10-04 12:00,ZGNN 041200Z 34010G15MPS 8000 -SHRA FEW040CB BKN040 23/21 Q1006 NOSIG
ZGNN,2015-10-04 13:00,ZGNN 041300Z 34009MPS 5000 SHRA FEW040CB BKN040 22/21 Q1006 NOSIG
ZGNN,2015-10-04 14:00,ZGNN 041400Z 34011G16MPS 7000 -SHRA SCT010 FEW040CB BKN040 22/21 Q1006 NOSIG
ZGNN,2015-10-04 15:00,ZGNN 041500Z 34012MPS 8000 -SHRA SCT013 FEW040CB BKN040 22/21 Q1006 NOSIG
ZGNN,2015-10-04 16:00,ZGNN 041600Z 33012G17MPS 7000 -SHRA SCT013 FEW040CB BKN040 22/20 Q1005 NOSIG
ZGNN,2015-10-04 17:00,ZGNN 041700Z 33010MPS 7000 -RA FEW013 OVC040 22/20 Q1006 NOSIG
ZGNN,2015-10-04 18:00,ZGNN 041800Z 33009G15MPS 7000 -RA FEW013 OVC040 21/20 Q1006 NOSIG
ZGNN,2015-10-04 19:00,ZGNN 041900Z 32008MPS 7000 -RA FEW008 SCT013 OVC040 21/20 Q1006 NOSIG
ZGNN,2015-10-04 20:00,ZGNN 042000Z 31006MPS 7000 -RA FEW008 SCT013 OVC040 21/20 Q1007 NOSIG
ZGNN,2015-10-04 21:00,ZGNN 042100Z 26003MPS 6000 -RA FEW008 SCT013 OVC040 21/20 Q1008 NOSIG
ZGNN,2015-10-04 22:00,ZGNN 042200Z 24003MPS 6000 -RA FEW008 SCT013 OVC040 21/20 Q1009 NOSIG
ZGNN,2015-10-04 23:00,ZGNN 042300Z 26003MPS 6000 -RA FEW007 SCT010 OVC040 21/20 Q1010 NOSIG
ZGNN,2015-10-05 00:00,ZGNN 050000Z 27002MPS 230V330 9999 FEW007 SCT010 OVC040 21/20 Q1011 NOSIG
ZGNN,2015-10-05 01:00,ZGNN 050100Z VRB01MPS 9999 -RA FEW007 SCT010 OVC040 21/20 Q1012 NOSIG
ZGNN,2015-10-05 02:00,ZGNN 050200Z VRB01MPS 9999 FEW007 SCT010 OVC040 22/21 Q1013 NOSIG
ZGNN,2015-10-05 03:00,ZGNN 050300Z 32002MPS 270V350 9999 FEW008 SCT011 OVC043 22/20 Q1013 NOSIG
ZGNN,2015-10-05 04:00,ZGNN 050400Z 32003MPS 290V360 9999 SCT010 OVC043 22/20 Q1013 NOSIG
ZGNN,2015-10-05 05:00,ZGNN 050500Z 33004MPS 9999 FEW009 SCT015 OVC043 23/21 Q1012 NOSIG
ZGNN,2015-10-05 06:00,ZGNN 050600Z 33003MPS 280V010 9999 FEW009 SCT016 BKN033 23/21 Q1012 NOSIG
ZGNN,2015-10-05 07:00,ZGNN 050700Z 35004MPS 320V020 9999 SCT015 BKN033 23/20 Q1011 NOSIG
ZGNN,2015-10-05 08:00,ZGNN 050800Z 36003MPS 320V030 9999 SCT013 BKN033 24/20 Q1011 NOSIG
ZGNN,2015-10-05 09:00,ZGNN 050900Z 33004MPS 300V010 9999 SCT020 24/20 Q1011 NOSIG
ZGNN,2015-10-05 10:00,ZGNN 051000Z 33003MPS 280V020 9999 FEW016 SCT033 23/20 Q1012 NOSIG
ZGNN,2015-10-05 11:00,ZGNN 051100Z 01002MPS 330V040 9999 FEW013 SCT030 22/20 Q1012 NOSIG
ZGNN,2015-10-05 12:00,ZGNN 051200Z 35002MPS 320V020 9999 FEW020 22/20 Q1013 NOSIG
ZGNN,2015-10-05 13:00,ZGNN 051300Z 32002MPS 270V010 9999 FEW033 21/20 Q1014 NOSIG
ZGNN,2015-10-05 14:00,ZGNN 051400Z VRB01MPS 9999 FEW010 SCT026 21/20 Q1014 NOSIG
ZGNN,2015-10-05 15:00,ZGNN 051500Z VRB01MPS 9999 FEW011 SCT026 21/20 Q1015 NOSIG
ZGNN,2015-10-05 16:00,ZGNN 051600Z VRB01MPS CAVOK 21/20 Q1015 NOSIG
ZGNN,2015-10-05 17:00,ZGNN 051700Z 26002MPS CAVOK 20/19 Q1014 NOSIG
ZGNN,2015-10-05 18:00,ZGNN 051800Z 27001MPS CAVOK 20/19 Q1014 NOSIG
ZGNN,2015-10-05 19:00,ZGNN 051900Z 26001MPS CAVOK 20/19 Q1014 NOSIG
ZGNN,2015-10-05 20:00,ZGNN 052000Z 26001MPS CAVOK 19/19 Q1013 NOSIG
ZGNN,2015-10-05 21:00,ZGNN 052100Z VRB01MPS CAVOK 19/19 Q1014 NOSIG
ZGNN,2015-10-05 22:00,ZGNN 052200Z VRB01MPS 9999 SCT023 19/19 Q1014 NOSIG
ZGNN,2015-10-05 23:00,ZGNN 052300Z 14001MPS CAVOK 19/19 Q1014 NOSIG
ZGNN,2015-10-06 00:00,ZGNN 060000Z VRB01MPS CAVOK 21/20 Q1015 NOSIG
ZGNN,2015-10-06 01:00,ZGNN 060100Z 30002MPS 240V360 9999 FEW013 25/19 Q1015 NOSIG
ZGNN,2015-10-06 02:00,ZGNN 060200Z 32002MPS 240V040 9999 SCT020 26/19 Q1015 NOSIG
ZGNN,2015-10-06 03:00,ZGNN 060300Z 03002MPS 300V080 9999 SCT026 26/20 Q1015 NOSIG
ZGNN,2015-10-06 04:00,ZGNN 060400Z VRB01MPS 9999 SCT030 28/20 Q1015 NOSIG
ZGNN,2015-10-06 05:00,ZGNN 060500Z 27002MPS 230V340 9999 BKN030 27/19 Q1014 NOSIG
ZGNN,2015-10-06 06:00,ZGNN 060600Z 35002MPS 310V030 9999 BKN033 27/20 Q1013 NOSIG
ZGNN,2015-10-06 07:00,ZGNN 060700Z 35003MPS 330V130 9999 SCT033 28/20 Q1012 NOSIG
ZGNN,2015-10-06 08:00,ZGNN 060800Z 32002MPS 280V360 9999 SCT033 29/20 Q1011 NOSIG
ZGNN,2015-10-06 09:00,ZGNN 060900Z 33002MPS 300V360 9999 FEW033 29/20 Q1011 NOSIG
ZGNN,2015-10-06 10:00,ZGNN 061000Z 06002MPS 010V100 9999 FEW033 27/20 Q1011 NOSIG
ZGNN,2015-10-06 11:00,ZGNN 061100Z 08003MPS 060V140 CAVOK 26/20 Q1012 NOSIG
ZGNN,2015-10-06 12:00,ZGNN 061200Z 05003MPS 030V100 CAVOK 25/21 Q1012 NOSIG
ZGNN,2015-10-06 13:00,ZGNN 061300Z 03003MPS CAVOK 24/20 Q1013 NOSIG
ZGNN,2015-10-06 14:00,ZGNN 061400Z 02002MPS CAVOK 24/20 Q1013 NOSIG
ZGNN,2015-10-06 15:00,ZGNN 061500Z 00000MPS CAVOK 23/20 Q1014 NOSIG
ZGNN,2015-10-06 16:00,ZGNN 061600Z VRB01MPS CAVOK 22/20 Q1014 NOSIG
ZGNN,2015-10-06 17:00,ZGNN 061700Z 00000MPS CAVOK 22/20 Q1013 NOSIG
ZGNN,2015-10-06 18:00,ZGNN 061800Z VRB01MPS CAVOK 22/21 Q1013 NOSIG
ZGNN,2015-10-06 19:00,ZGNN 061900Z 01001MPS CAVOK 23/21 Q1013 NOSIG
ZGNN,2015-10-06 20:00,ZGNN 062000Z 05002MPS CAVOK 23/21 Q1013 NOSIG
ZGNN,2015-10-06 21:00,ZGNN 062100Z 34001MPS CAVOK 23/21 Q1013 NOSIG
ZGNN,2015-10-06 22:00,ZGNN 062200Z 25001MPS 7000 NSC 22/21 Q1013 NOSIG
ZGNN,2015-10-06 23:00,ZGNN 062300Z 00000MPS CAVOK 22/21 Q1014 NOSIG
ZGNN,2015-10-07 00:00,ZGNN 070000Z VRB01MPS CAVOK 23/22 Q1014 NOSIG
ZGNN,2015-10-07 01:00,ZGNN 070100Z VRB01MPS CAVOK 26/22 Q1015 NOSIG
ZGNN,2015-10-07 02:00,ZGNN 070200Z 06001MPS CAVOK 27/21 Q1015 NOSIG
ZGNN,2015-10-07 03:00,ZGNN 070300Z VRB02MPS 9999 FEW023 29/21 Q1015 NOSIG
ZGNN,2015-10-07 04:00,ZGNN 070400Z 30002MPS 200V350 9999 FEW026 30/21 Q1014 NOSIG
ZGNN,2015-10-07 05:00,ZGNN 070500Z 01002MPS 280V090 9999 FEW033 31/21 Q1013 NOSIG
ZGNN,2015-10-07 06:00,ZGNN 070600Z 27002MPS 180V350 9999 SCT040 31/21 Q1012 NOSIG
ZGNN,2015-10-07 07:00,ZGNN 070700Z 34003MPS 9999 SCT043 31/23 Q1011 NOSIG
ZGNN,2015-10-07 08:00,ZGNN 070800Z 33002MPS 270V360 CAVOK 31/22 Q1011 NOSIG
ZGNN,2015-10-07 09:00,ZGNN 070900Z 36004MPS 320V030 CAVOK 30/22 Q1011 NOSIG
ZGNN,2015-10-07 10:00,ZGNN 071000Z 34003MPS CAVOK 29/22 Q1011 NOSIG
ZGNN,2015-10-07 11:00,ZGNN 071100Z 34004MPS CAVOK 27/22 Q1012 NOSIG
ZGNN,2015-10-07 12:00,ZGNN 071200Z 36003MPS CAVOK 27/22 Q1013 NOSIG
ZGNN,2015-10-07 13:00,ZGNN 071300Z 01002MPS CAVOK 26/21 Q1014 NOSIG
ZGNN,2015-10-07 14:00,ZGNN 071400Z 05001MPS CAVOK 25/22 Q1014 NOSIG
ZGNN,2015-10-07 15:00,ZGNN 071500Z VRB01MPS CAVOK 25/22 Q1014 NOSIG
ZGNN,2015-10-07 16:00,ZGNN 071600Z 34002MPS 320V020 CAVOK 25/21 Q1014 NOSIG
ZGNN,2015-10-07 17:00,ZGNN 071700Z 34003MPS 9999 BKN043 25/21 Q1013 NOSIG
ZGNN,2015-10-07 18:00,ZGNN 071800Z VRB01MPS CAVOK 25/21 Q1013 NOSIG
ZGNN,2015-10-07 19:00,ZGNN 071900Z VRB01MPS 9999 BKN043 25/21 Q1013 NOSIG
ZGNN,2015-10-07 20:00,ZGNN 072000Z VRB01MPS CAVOK 25/21 Q1012 NOSIG
ZGNN,2015-10-07 21:00,ZGNN 072100Z 33002MPS 310V010 CAVOK 25/21 Q1012 NOSIG
ZGNN,2015-10-07 22:00,ZGNN 072200Z VRB01MPS CAVOK 24/21 Q1012 NOSIG
ZGNN,2015-10-07 23:00,ZGNN 072300Z 32002MPS CAVOK 24/21 Q1013 NOSIG
ZGNN,2015-10-08 00:00,ZGNN 080000Z VRB01MPS CAVOK 25/21 Q1013 NOSIG
ZGNN,2015-10-08 01:00,ZGNN 080100Z VRB01MPS CAVOK 28/22 Q1014 NOSIG
ZGNN,2015-10-08 02:00,ZGNN 080200Z VRB01MPS CAVOK 29/21 Q1014 NOSIG
ZGNN,2015-10-08 03:00,ZGNN 080300Z 34002MPS 280V030 9999 SCT030 29/22 Q1014 NOSIG
ZGNN,2015-10-08 04:00,ZGNN 080400Z 34003MPS 9999 FEW030 28/22 Q1014 NOSIG
ZGNN,2015-10-08 05:00,ZGNN 080500Z 36003MPS 330V040 9999 FEW026 29/22 Q1013 NOSIG
ZGNN,2015-10-08 06:00,ZGNN 080600Z 36004MPS 9999 FEW026 28/22 Q1012 NOSIG
ZGNN,2015-10-08 07:00,ZGNN 080700Z 35003MPS 310V040 CAVOK 28/23 Q1011 NOSIG
ZGNN,2015-10-08 08:00,ZGNN 080800Z 34004MPS CAVOK 28/23 Q1011 NOSIG
ZGNN,2015-10-08 09:00,ZGNN 080900Z 35003MPS CAVOK 27/22 Q1011 NOSIG
ZGNN,2015-10-08 10:00,ZGNN 081000Z 34004MPS 310V010 CAVOK 26/22 Q1012 NOSIG
ZGNN,2015-10-08 11:00,ZGNN 081100Z 35003MPS CAVOK 26/22 Q1012 NOSIG
ZGNN,2015-10-08 12:00,ZGNN 081200Z 35003MPS CAVOK 25/22 Q1013 NOSIG
ZGNN,2015-10-08 13:00,ZGNN 081300Z 33002MPS 300V360 CAVOK 25/22 Q1013 NOSIG
ZGNN,2015-10-08 14:00,ZGNN 081400Z VRB01MPS CAVOK 25/22 Q1014 NOSIG
ZGNN,2015-10-08 15:00,ZGNN 081500Z VRB01MPS CAVOK 25/22 Q1014 NOSIG
ZGNN,2015-10-08 16:00,ZGNN 081600Z 33002MPS CAVOK 24/22 Q1013 NOSIG
ZGNN,2015-10-08 17:00,ZGNN 081700Z VRB01MPS CAVOK 24/21 Q1013 NOSIG
ZGNN,2015-10-08 18:00,ZGNN 081800Z VRB01MPS CAVOK 24/21 Q1013 NOSIG
ZGNN,2015-10-08 19:00,ZGNN 081900Z VRB01MPS CAVOK 24/21 Q1012 NOSIG
ZGNN,2015-10-08 20:00,ZGNN 082000Z VRB01MPS CAVOK 24/21 Q1012 NOSIG
ZGNN,2015-10-08 21:00,ZGNN 082100Z 04002MPS CAVOK 24/21 Q1012 NOSIG
ZGNN,2015-10-08 22:00,ZGNN 082200Z 36002MPS CAVOK 24/21 Q1012 NOSIG
ZGNN,2015-10-08 23:00,ZGNN 082300Z VRB01MPS CAVOK 24/21 Q1013 NOSIG
ZGNN,2015-10-09 00:00,ZGNN 090000Z 06004MPS CAVOK 24/18 Q1014 NOSIG
ZGNN,2015-10-09 01:00,ZGNN 090100Z 05004MPS 9999 OVC046 24/18 Q1015 NOSIG
ZGNN,2015-10-09 02:00,ZGNN 090200Z 05005MPS CAVOK 24/17 Q1015 NOSIG
ZGNN,2015-10-09 03:00,ZGNN 090300Z 05004MPS CAVOK 25/18 Q1015 NOSIG
ZGNN,2015-10-09 04:00,ZGNN 090400Z 04004MPS CAVOK 25/17 Q1015 NOSIG
ZGNN,2015-10-09 05:00,ZGNN 090500Z 04003MPS 010V070 CAVOK 25/17 Q1014 NOSIG
ZGNN,2015-10-09 06:00,ZGNN 090600Z 04002MPS CAVOK 25/18 Q1013 NOSIG
ZGNN,2015-10-09 07:00,ZGNN 090700Z 02003MPS 350V050 CAVOK 25/17 Q1013 NOSIG
ZGNN,2015-10-09 08:00,ZGNN 090800Z 34004MPS 320V020 9999 SCT033 24/18 Q1012 NOSIG
ZGNN,2015-10-09 09:00,ZGNN 090900Z 34005MPS 9999 SCT033 23/18 Q1013 NOSIG
ZGNN,2015-10-09 10:00,ZGNN 091000Z 35005MPS CAVOK 23/18 Q1013 NOSIG
ZGNN,2015-10-09 11:00,ZGNN 091100Z 36004MPS CAVOK 22/17 Q1013 NOSIG
ZGNN,2015-10-09 12:00,ZGNN 091200Z 35003MPS 320V020 CAVOK 22/17 Q1014 NOSIG
ZGNN,2015-10-09 13:00,ZGNN 091300Z 34004MPS CAVOK 21/17 Q1015 NOSIG
ZGNN,2015-10-09 14:00,ZGNN 091400Z 35003MPS 320V030 CAVOK 21/17 Q1016 NOSIG
ZGNN,2015-10-09 15:00,ZGNN 091500Z 34003MPS CAVOK 20/17 Q1015 NOSIG
ZGNN,2015-10-09 16:00,ZGNN 091600Z 33004MPS CAVOK 20/17 Q1015 NOSIG
ZGNN,2015-10-09 17:00,ZGNN 091700Z 34003MPS CAVOK 20/17 Q1015 NOSIG
ZGNN,2015-10-09 18:00,ZGNN 091800Z 34002MPS 320V020 9999 -RA OVC043 20/18 Q1015 NOSIG
ZGNN,2015-10-09 19:00,ZGNN 091900Z 35004MPS 9999 OVC043 20/17 Q1014 NOSIG
ZGNN,2015-10-09 20:00,ZGNN 092000Z 36003MPS 7000 OVC043 20/17 Q1014 NOSIG
ZGNN,2015-10-09 21:00,ZGNN 092100Z 36004MPS 7000 OVC043 20/17 Q1014 NOSIG
ZGNN,2015-10-09 22:00,ZGNN 092200Z 34004MPS 7000 OVC043 20/17 Q1014 NOSIG
ZGNN,2015-10-09 23:00,ZGNN 092300Z 34003MPS 6000 SCT026 19/18 Q1015 NOSIG
ZGNN,2015-10-10 00:00,ZGNN 100000Z 36004MPS 4000 -RA BR FEW013 SCT026 19/18 Q1016 NOSIG
ZGNN,2015-10-10 01:00,ZGNN 100100Z 35004MPS 6000 -RA FEW009 OVC026 19/18 Q1017 NOSIG
ZGNN,2015-10-10 02:00,ZGNN 100200Z 36004MPS 7000 -RA FEW009 OVC026 18/17 Q1018 NOSIG
ZGNN,2015-10-10 03:00,ZGNN 100300Z 36003MPS 8000 -RA FEW007 SCT010 OVC026 19/18 Q1018 NOSIG
ZGNN,2015-10-10 04:00,ZGNN 100400Z 36003MPS 7000 -RA FEW006 SCT010 OVC026 19/18 Q1018 NOSIG
ZGNN,2015-10-10 05:00,ZGNN 100500Z 36003MPS 8000 -RA FEW007 SCT010 OVC026 18/17 Q1017 NOSIG
ZGNN,2015-10-10 06:00,ZGNN 100600Z 35005MPS 8000 -RA FEW007 SCT011 OVC026 19/18 Q1016 NOSIG
ZGNN,2015-10-10 07:00,ZGNN 100700Z 01004MPS 7000 -RA FEW005 SCT009 OVC026 18/17 Q1016 NOSIG
ZGNN,2015-10-10 08:00,ZGNN 100800Z 35004MPS 9999 -RA FEW006 SCT009 OVC026 18/17 Q1016 NOSIG
ZGNN,2015-10-10 09:00,ZGNN 100900Z 36004MPS 6000 -RA FEW006 SCT009 OVC026 18/17 Q1017 NOSIG
ZGNN,2015-10-10 10:00,ZGNN 101000Z 02004MPS 9999 -RA SCT010 SCT026 18/17 Q1017 NOSIG
ZGNN,2015-10-10 11:00,ZGNN 101100Z 35004MPS 9999 -RA SCT010 SCT026 18/16 Q1018 NOSIG
ZGNN,2015-10-10 12:00,ZGNN 101200Z 34003MPS 320V020 6000 -SHRA SCT010 FEW026CB SCT026 17/17 Q1019 NOSIG
ZGNN,2015-10-10 13:00,ZGNN 101300Z 35003MPS 9999 -RA FEW010 SCT026 17/17 Q1020 NOSIG
ZGNN,2015-10-10 14:00,ZGNN 101400Z 02002MPS 9999 -RA FEW015 SCT026 17/17 Q1020 NOSIG
ZGNN,2015-10-10 15:00,ZGNN 101500Z 36002MPS 9999 FEW015 17/16 Q1020 NOSIG
ZGNN,2015-10-10 16:00,ZGNN 101600Z 36003MPS 9999 SCT040 18/17 Q1020 NOSIG
ZGNN,2015-10-10 17:00,ZGNN 101700Z 36002MPS 9999 OVC026 18/16 Q1020 NOSIG
ZGNN,2015-10-10 18:00,ZGNN 101800Z 01002MPS 9999 OVC026 18/16 Q1019 NOSIG
ZGNN,2015-10-10 19:00,ZGNN 101900Z 01003MPS 340V040 9999 OVC030 18/16 Q1019 NOSIG
ZGNN,2015-10-10 20:00,ZGNN 102000Z 34001MPS 9999 OVC036 18/17 Q1019 NOSIG
ZGNN,2015-10-10 21:00,ZGNN 102100Z 32001MPS CAVOK 18/16 Q1019 NOSIG
ZGNN,2015-10-10 22:00,ZGNN 102200Z VRB01MPS CAVOK 18/16 Q1019 NOSIG
ZGNN,2015-10-10 23:00,ZGNN 102300Z 01002MPS CAVOK 18/16 Q1020 NOSIG
ZGNN,2015-10-11 00:00,ZGNN 110000Z 36003MPS CAVOK 19/16 Q1020 NOSIG
ZGNN,2015-10-11 01:00,ZGNN 110100Z 34003MPS 310V020 CAVOK 20/17 Q1021 NOSIG
ZGNN,2015-10-11 02:00,ZGNN 110200Z 36004MPS 320V030 CAVOK 21/17 Q1022 NOSIG
ZGNN,2015-10-11 03:00,ZGNN 110300Z 02005MPS 340V040 CAVOK 22/17 Q1022 NOSIG
ZGNN,2015-10-11 04:00,ZGNN 110400Z 01004MPS 340V040 9999 FEW030 23/16 Q1021 NOSIG
ZGNN,2015-10-11 05:00,ZGNN 110500Z 06004MPS 020V090 9999 FEW030 24/15 Q1020 NOSIG
ZGNN,2015-10-11 06:00,ZGNN 110600Z 34005MPS 310V020 9999 FEW030 25/17 Q1019 NOSIG
ZGNN,2015-10-11 07:00,ZGNN 110700Z 01005MPS 9999 FEW033 25/15 Q1019 NOSIG
ZGNN,2015-10-11 08:00,ZGNN 110800Z 34004MPS 300V020 CAVOK 25/16 Q1019 NOSIG
ZGNN,2015-10-11 09:00,ZGNN 110900Z 36004MPS CAVOK 24/14 Q1019 NOSIG
ZGNN,2015-10-11 10:00,ZGNN 111000Z 35002MPS 330V030 CAVOK 22/17 Q1020 NOSIG
ZGNN,2015-10-11 11:00,ZGNN 111100Z 36002MPS CAVOK 22/17 Q1020 NOSIG
ZGNN,2015-10-11 12:00,ZGNN 111200Z 02002MPS 340V040 CAVOK 21/17 Q1020 NOSIG
ZGNN,2015-10-11 13:00,ZGNN 111300Z VRB01MPS CAVOK 21/17 Q1021 NOSIG
ZGNN,2015-10-11 14:00,ZGNN 111400Z VRB01MPS CAVOK 20/17 Q1021 NOSIG
ZGNN,2015-10-11 15:00,ZGNN 111500Z 00000MPS CAVOK 19/17 Q1021 NOSIG
ZGNN,2015-10-11 16:00,ZGNN 111600Z VRB01MPS CAVOK 18/16 Q1021 NOSIG
ZGNN,2015-10-11 17:00,ZGNN 111700Z VRB01MPS CAVOK 18/17 Q1020 NOSIG
ZGNN,2015-10-11 18:00,ZGNN 111800Z VRB01MPS CAVOK 18/17 Q1020 NOSIG
ZGNN,2015-10-11 19:00,ZGNN 111900Z VRB01MPS CAVOK 18/17 Q1019 NOSIG
ZGNN,2015-10-11 20:00,ZGNN 112000Z 00000MPS CAVOK 18/17 Q1019 NOSIG
ZGNN,2015-10-11 21:00,ZGNN 112100Z 19001MPS CAVOK 18/17 Q1019 NOSIG
ZGNN,2015-10-11 22:00,ZGNN 112200Z VRB01MPS CAVOK 18/17 Q1020 NOSIG
ZGNN,2015-10-11 23:00,ZGNN 112300Z VRB01MPS CAVOK 18/17 Q1020 NOSIG
ZGNN,2015-10-12 00:00,ZGNN 120000Z VRB01MPS CAVOK 19/18 Q1021 NOSIG
ZGNN,2015-10-12 01:00,ZGNN 120100Z VRB01MPS CAVOK 21/17 Q1021 NOSIG
ZGNN,2015-10-12 02:00,ZGNN 120200Z 35003MPS 320V020 CAVOK 22/15 Q1022 NOSIG
ZGNN,2015-10-12 03:00,ZGNN 120300Z 35004MPS 320V020 CAVOK 24/14 Q1022 NOSIG
ZGNN,2015-10-12 04:00,ZGNN 120400Z 34003MPS 320V020 CAVOK 24/14 Q1021 NOSIG
ZGNN,2015-10-12 05:00,ZGNN 120500Z 34004MPS CAVOK 24/15 Q1020 NOSIG
ZGNN,2015-10-12 06:00,ZGNN 120600Z 34003MPS CAVOK 24/15 Q1020 NOSIG
ZGNN,2015-10-12 07:00,ZGNN 120700Z 33003MPS 300V010 9999 FEW043 24/16 Q1019 NOSIG
ZGNN,2015-10-12 08:00,ZGNN 120800Z 34003MPS 310V020 9999 FEW043 24/16 Q1019 NOSIG
ZGNN,2015-10-12 09:00,ZGNN 120900Z 34002MPS 310V020 9999 FEW043 23/15 Q1019 NOSIG
ZGNN,2015-10-12 10:00,ZGNN 121000Z 34002MPS CAVOK 22/16 Q1019 NOSIG
ZGNN,2015-10-12 11:00,ZGNN 121100Z 35002MPS 320V020 CAVOK 22/16 Q1019 NOSIG
ZGNN,2015-10-12 12:00,ZGNN 121200Z 36002MPS CAVOK 21/16 Q1020 NOSIG
ZGNN,2015-10-12 13:00,ZGNN 121300Z 33002MPS 300V010 CAVOK 21/15 Q1021 NOSIG
ZGNN,2015-10-12 14:00,ZGNN 121400Z 01002MPS CAVOK 21/15 Q1021 NOSIG
ZGNN,2015-10-12 15:00,ZGNN 121500Z 00000MPS CAVOK 21/16 Q1021 NOSIG
ZGNN,2015-10-12 16:00,ZGNN 121600Z 21002MPS CAVOK 21/17 Q1021 NOSIG
ZGNN,2015-10-12 17:00,ZGNN 121700Z VRB01MPS CAVOK 20/17 Q1021 NOSIG
ZGNN,2015-10-12 18:00,ZGNN 121800Z VRB01MPS CAVOK 20/17 Q1020 NOSIG
ZGNN,2015-10-12 19:00,ZGNN 121900Z VRB01MPS CAVOK 20/17 Q1020 NOSIG
ZGNN,2015-10-12 20:00,ZGNN 122000Z 20001MPS CAVOK 20/18 Q1019 NOSIG
ZGNN,2015-10-12 21:00,ZGNN 122100Z VRB01MPS CAVOK 20/18 Q1019 NOSIG
ZGNN,2015-10-12 22:00,ZGNN 122200Z 00000MPS CAVOK 20/18 Q1020 NOSIG
ZGNN,2015-10-12 23:00,ZGNN 122300Z VRB01MPS CAVOK 20/17 Q1020 NOSIG
ZGNN,2015-10-13 00:00,ZGNN 130000Z VRB01MPS CAVOK 21/17 Q1020 NOSIG
ZGNN,2015-10-13 01:00,ZGNN 130100Z VRB01MPS CAVOK 22/17 Q1021 NOSIG
ZGNN,2015-10-13 02:00,ZGNN 130200Z 33002MPS 270V030 CAVOK 23/16 Q1022 NOSIG
ZGNN,2015-10-13 03:00,ZGNN 130300Z 36002MPS 320V060 CAVOK 24/17 Q1021 NOSIG
ZGNN,2015-10-13 04:00,ZGNN 130400Z 35002MPS 300V040 CAVOK 25/16 Q1021 NOSIG
ZGNN,2015-10-13 05:00,ZGNN 130500Z 03002MPS 350V110 CAVOK 25/16 Q1020 NOSIG
ZGNN,2015-10-13 06:00,ZGNN 130600Z VRB01MPS CAVOK 26/16 Q1019 NOSIG
ZGNN,2015-10-13 07:00,ZGNN 130700Z 05002MPS 350V110 CAVOK 26/14 Q1019 NOSIG
ZGNN,2015-10-13 08:00,ZGNN 130800Z 04002MPS 010V070 CAVOK 26/13 Q1018 NOSIG
ZGNN,2015-10-13 09:00,ZGNN 130900Z 34002MPS 320V020 CAVOK 25/17 Q1018 NOSIG
ZGNN,2015-10-13 10:00,ZGNN 131000Z 33002MPS CAVOK 24/18 Q1018 NOSIG
ZGNN,2015-10-13 11:00,ZGNN 131100Z 33002MPS 300V020 CAVOK 23/17 Q1019 NOSIG
ZGNN,2015-10-13 12:00,ZGNN 131200Z VRB01MPS CAVOK 23/15 Q1019 NOSIG
ZGNN,2015-10-13 13:00,ZGNN 131300Z VRB01MPS CAVOK 23/17 Q1020 NOSIG
ZGNN,2015-10-13 14:00,ZGNN 131400Z 32002MPS 300V010 CAVOK 23/16 Q1021 NOSIG
ZGNN,2015-10-13 15:00,ZGNN 131500Z 34002MPS 310V020 CAVOK 23/17 Q1020 NOSIG
ZGNN,2015-10-13 16:00,ZGNN 131600Z 00000MPS CAVOK 23/17 Q1020 NOSIG
ZGNN,2015-10-13 17:00,ZGNN 131700Z VRB01MPS CAVOK 22/17 Q1019 NOSIG
ZGNN,2015-10-13 18:00,ZGNN 131800Z 34002MPS CAVOK 22/17 Q1019 NOSIG
ZGNN,2015-10-13 19:00,ZGNN 131900Z VRB01MPS CAVOK 22/16 Q1019 NOSIG
ZGNN,2015-10-13 20:00,ZGNN 132000Z VRB01MPS CAVOK 22/16 Q1018 NOSIG
ZGNN,2015-10-13 21:00,ZGNN 132100Z VRB01MPS CAVOK 22/16 Q1018 NOSIG
ZGNN,2015-10-13 22:00,ZGNN 132200Z 34003MPS CAVOK 21/16 Q1019 NOSIG
ZGNN,2015-10-13 23:00,ZGNN 132300Z 34002MPS CAVOK 21/16 Q1019 NOSIG
ZGNN,2015-10-14 00:00,ZGNN 140000Z 33003MPS 310V010 CAVOK 22/16 Q1020 NOSIG
ZGNN,2015-10-14 01:00,ZGNN 140100Z 34003MPS CAVOK 22/17 Q1021 NOSIG
ZGNN,2015-10-14 02:00,ZGNN 140200Z 34003MPS 300V010 CAVOK 23/17 Q1021 NOSIG
ZGNN,2015-10-14 03:00,ZGNN 140300Z 33002MPS 290V030 CAVOK 26/17 Q1021 NOSIG
ZGNN,2015-10-14 04:00,ZGNN 140400Z 03003MPS 340V070 CAVOK 26/16 Q1020 NOSIG
ZGNN,2015-10-14 05:00,ZGNN 140500Z 36002MPS 310V070 CAVOK 27/17 Q1019 NOSIG
ZGNN,2015-10-14 06:00,ZGNN 140600Z 35002MPS 300V040 CAVOK 28/17 Q1018 NOSIG
ZGNN,2015-10-14 07:00,ZGNN 140700Z 35002MPS 310V050 CAVOK 28/16 Q1017 NOSIG
ZGNN,2015-10-14 08:00,ZGNN 140800Z VRB01MPS CAVOK 28/16 Q1016 NOSIG
ZGNN,2015-10-14 09:00,ZGNN 140900Z 35002MPS 330V050 CAVOK 28/17 Q1016 NOSIG
ZGNN,2015-10-14 10:00,ZGNN 141000Z 35002MPS 320V040 CAVOK 27/16 Q1016 NOSIG
ZGNN,2015-10-14 11:00,ZGNN 141100Z VRB01MPS CAVOK 25/18 Q1016 NOSIG
ZGNN,2015-10-14 12:00,ZGNN 141200Z VRB01MPS CAVOK 23/18 Q1017 NOSIG
ZGNN,2015-10-14 13:00,ZGNN 141300Z 00000MPS CAVOK 22/18 Q1017 NOSIG
ZGNN,2015-10-14 14:00,ZGNN 141400Z VRB01MPS CAVOK 22/18 Q1018 NOSIG
ZGNN,2015-10-14 15:00,ZGNN 141500Z VRB01MPS CAVOK 21/18 Q1017 NOSIG
ZGNN,2015-10-14 16:00,ZGNN 141600Z 00000MPS CAVOK 21/18 Q1017 NOSIG
ZGNN,2015-10-14 17:00,ZGNN 141700Z VRB01MPS CAVOK 20/18 Q1017 NOSIG
ZGNN,2015-10-14 18:00,ZGNN 141800Z 00000MPS CAVOK 20/18 Q1017 NOSIG
ZGNN,2015-10-14 19:00,ZGNN 141900Z VRB01MPS CAVOK 19/18 Q1016 NOSIG
ZGNN,2015-10-14 20:00,ZGNN 142000Z 00000MPS CAVOK 19/18 Q1016 NOSIG
ZGNN,2015-10-14 21:00,ZGNN 142100Z 26001MPS CAVOK 19/18 Q1016 NOSIG
ZGNN,2015-10-14 22:00,ZGNN 142200Z 22002MPS 6000 NSC 18/18 Q1016 NOSIG
ZGNN,2015-10-14 23:00,ZGNN 142300Z 14001MPS 8000 NSC 18/18 Q1017 NOSIG
ZGNN,2015-10-15 00:00,ZGNN 150000Z 21001MPS CAVOK 20/19 Q1017 NOSIG
ZGNN,2015-10-15 01:00,ZGNN 150100Z 33003MPS 300V360 CAVOK 24/18 Q1018 NOSIG
ZGNN,2015-10-15 02:00,ZGNN 150200Z VRB01MPS CAVOK 26/19 Q1018 NOSIG
ZGNN,2015-10-15 03:00,ZGNN 150300Z 36002MPS 330V040 CAVOK 27/19 Q1018 NOSIG
ZGNN,2015-10-15 04:00,ZGNN 150400Z 36002MPS 280V060 CAVOK 28/19 Q1017 NOSIG
ZGNN,2015-10-15 05:00,ZGNN 150500Z 35004MPS 320V040 9999 FEW023 29/18 Q1016 NOSIG
ZGNN,2015-10-15 06:00,ZGNN 150600Z 01003MPS 320V090 9999 FEW023 29/18 Q1015 NOSIG
ZGNN,2015-10-15 07:00,ZGNN 150700Z VRB01MPS 9999 FEW023 30/18 Q1014 NOSIG
ZGNN,2015-10-15 08:00,ZGNN 150800Z 31002MPS 240V030 CAVOK 30/18 Q1014 NOSIG
ZGNN,2015-10-15 09:00,ZGNN 150900Z 32002MPS 280V360 CAVOK 30/17 Q1014 NOSIG
ZGNN,2015-10-15 10:00,ZGNN 151000Z 34002MPS 320V030 CAVOK 28/17 Q1014 NOSIG
ZGNN,2015-10-15 11:00,ZGNN 151100Z VRB01MPS CAVOK 26/19 Q1014 NOSIG
ZGNN,2015-10-15 12:00,ZGNN 151200Z 01002MPS 340V040 CAVOK 24/20 Q1015 NOSIG
ZGNN,2015-10-15 13:00,ZGNN 151300Z VRB01MPS CAVOK 23/19 Q1016 NOSIG
ZGNN,2015-10-15 14:00,ZGNN 151400Z 03002MPS 360V070 CAVOK 22/20 Q1017 NOSIG
ZGNN,2015-10-15 15:00,ZGNN 151500Z VRB01MPS CAVOK 23/19 Q1016 NOSIG
ZGNN,2015-10-15 16:00,ZGNN 151600Z 00000MPS CAVOK 22/19 Q1016 NOSIG
ZGNN,2015-10-15 17:00,ZGNN 151700Z 00000MPS CAVOK 21/19 Q1016 NOSIG
ZGNN,2015-10-15 18:00,ZGNN 151800Z 23001MPS CAVOK 20/19 Q1015 NOSIG
ZGNN,2015-10-15 19:00,ZGNN 151900Z 00000MPS CAVOK 20/18 Q1015 NOSIG
ZGNN,2015-10-15 20:00,ZGNN 152000Z 21001MPS CAVOK 20/19 Q1015 NOSIG
ZGNN,2015-10-15 21:00,ZGNN 152100Z 19001MPS 7000 NSC 20/19 Q1015 NOSIG
ZGNN,2015-10-15 22:00,ZGNN 152200Z 00000MPS 8000 NSC 19/18 Q1015 NOSIG
ZGNN,2015-10-15 23:00,ZGNN 152300Z VRB01MPS 6000 NSC 19/18 Q1016 NOSIG
ZGNN,2015-10-16 00:00,ZGNN 160000Z 23002MPS 5000 BR NSC 20/19 Q1016 NOSIG
ZGNN,2015-10-16 01:00,ZGNN 160100Z VRB01MPS 6000 NSC 23/20 Q1017 NOSIG
ZGNN,2015-10-16 02:00,ZGNN 160200Z 01002MPS 320V060 CAVOK 26/20 Q1017 NOSIG
ZGNN,2015-10-16 03:00,ZGNN 160300Z 36003MPS 330V050 CAVOK 28/20 Q1017 NOSIG
ZGNN,2015-10-16 04:00,ZGNN 160400Z 36002MPS 320V040 CAVOK 29/19 Q1016 NOSIG
ZGNN,2015-10-16 05:00,ZGNN 160500Z 07002MPS 360V130 CAVOK 29/19 Q1015 NOSIG
ZGNN,2015-10-16 06:00,ZGNN 160600Z 36003MPS 320V070 9999 FEW030 30/19 Q1014 NOSIG
ZGNN,2015-10-16 07:00,ZGNN 160700Z 34002MPS 300V020 CAVOK 30/20 Q1013 NOSIG
ZGNN,2015-10-16 08:00,ZGNN 160800Z 17002MPS 130V210 CAVOK 30/20 Q1013 NOSIG
ZGNN,2015-10-16 09:00,ZGNN 160900Z 33003MPS CAVOK 30/20 Q1013 NOSIG
ZGNN,2015-10-16 10:00,ZGNN 161000Z 34002MPS 330V030 CAVOK 28/21 Q1013 NOSIG
ZGNN,2015-10-16 11:00,ZGNN 161100Z VRB01MPS CAVOK 26/21 Q1013 NOSIG
ZGNN,2015-10-16 12:00,ZGNN 161200Z VRB01MPS 6000 NSC 25/21 Q1014 NOSIG
ZGNN,2015-10-16 13:00,ZGNN 161300Z VRB01MPS 5000 BR NSC 24/21 Q1015 NOSIG
ZGNN,2015-10-16 14:00,ZGNN 161400Z VRB01MPS 5000 BR NSC 23/21 Q1015 NOSIG
ZGNN,2015-10-16 15:00,ZGNN 161500Z VRB01MPS 5000 BR NSC 22/20 Q1015 NOSIG
ZGNN,2015-10-16 16:00,ZGNN 161600Z 00000MPS 5000 BR NSC 21/20 Q1015 NOSIG
ZGNN,2015-10-16 17:00,ZGNN 161700Z 30001MPS 5000 BR NSC 21/19 Q1015 NOSIG
ZGNN,2015-10-16 18:00,ZGNN 161800Z 00000MPS 6000 NSC 20/18 Q1014 NOSIG
ZGNN,2015-10-16 19:00,ZGNN 161900Z VRB01MPS 5000 BR NSC 20/18 Q1014 NOSIG
ZGNN,2015-10-16 20:00,ZGNN 162000Z 00000MPS 6000 NSC 20/18 Q1014 NOSIG
ZGNN,2015-10-16 21:00,ZGNN 162100Z VRB01MPS 6000 NSC 19/18 Q1014 NOSIG
ZGNN,2015-10-16 22:00,ZGNN 162200Z 24002MPS 5000 R05/0275V0450D PRFG BR NSC 18/18 Q1015 NOSIG
ZGNN,2015-10-16 23:00,ZGNN 162300Z 21001MPS 4000 BR NSC 18/17 Q1015 NOSIG
ZGNN,2015-10-17 00:00,ZGNN 170000Z VRB01MPS 4000 BR NSC 20/19 Q1016 NOSIG
ZGNN,2015-10-17 01:00,ZGNN 170100Z VRB01MPS 4000 BR NSC 22/20 Q1017 NOSIG
ZGNN,2015-10-17 02:00,ZGNN 170200Z VRB01MPS 7000 NSC 26/21 Q1017 NOSIG
ZGNN,2015-10-17 03:00,ZGNN 170300Z 07002MPS 020V120 8000 NSC 28/20 Q1017 NOSIG
ZGNN,2015-10-17 04:00,ZGNN 170400Z 05002MPS 350V130 CAVOK 29/19 Q1016 NOSIG
ZGNN,2015-10-17 05:00,ZGNN 170500Z 03002MPS 310V100 9999 FEW026 30/18 Q1014 NOSIG
ZGNN,2015-10-17 06:00,ZGNN 170600Z 04003MPS 360V090 9999 FEW026 31/16 Q1013 NOSIG
ZGNN,2015-10-17 07:00,ZGNN 170700Z 05003MPS 360V080 CAVOK 31/17 Q1013 NOSIG
ZGNN,2015-10-17 08:00,ZGNN 170800Z 07002MPS 010V160 CAVOK 31/16 Q1012 NOSIG
ZGNN,2015-10-17 09:00,ZGNN 170900Z 10003MPS 080V150 CAVOK 30/17 Q1012 NOSIG
ZGNN,2015-10-17 10:00,ZGNN 171000Z 10002MPS 090V150 CAVOK 28/17 Q1013 NOSIG
ZGNN,2015-10-17 11:00,ZGNN 171100Z VRB01MPS CAVOK 26/19 Q1013 NOSIG
ZGNN,2015-10-17 12:00,ZGNN 171200Z VRB01MPS CAVOK 24/19 Q1013 NOSIG
ZGNN,2015-10-17 13:00,ZGNN 171300Z VRB01MPS CAVOK 23/18 Q1014 NOSIG
ZGNN,2015-10-17 14:00,ZGNN 171400Z 00000MPS CAVOK 21/18 Q1014 NOSIG
ZGNN,2015-10-17 15:00,ZGNN 171500Z VRB01MPS CAVOK 21/18 Q1015 NOSIG
ZGNN,2015-10-17 16:00,ZGNN 171600Z VRB01MPS 7000 NSC 20/18 Q1015 NOSIG
ZGNN,2015-10-17 17:00,ZGNN 171700Z 16001MPS 7000 NSC 19/18 Q1014 NOSIG
ZGNN,2015-10-17 18:00,ZGNN 171800Z 27001MPS 6000 NSC 19/17 Q1014 NOSIG
ZGNN,2015-10-17 19:00,ZGNN 171900Z VRB01MPS 6000 NSC 18/17 Q1014 NOSIG
ZGNN,2015-10-17 20:00,ZGNN 172000Z VRB01MPS 6000 NSC 18/17 Q1014 NOSIG
ZGNN,2015-10-17 21:00,ZGNN 172100Z 22001MPS 4000 BR NSC 18/17 Q1014 NOSIG
ZGNN,2015-10-17 22:00,ZGNN 172200Z 21001MPS 5000 BR NSC 18/17 Q1014 NOSIG
ZGNN,2015-10-17 23:00,ZGNN 172300Z 23001MPS 4000 BR NSC 17/16 Q1015 NOSIG
ZGNN,2015-10-18 00:00,ZGNN 180000Z VRB01MPS 3500 BR NSC 18/18 Q1015 NOSIG
ZGNN,2015-10-18 01:00,ZGNN 180100Z VRB01MPS 5000 BR NSC 21/19 Q1016 NOSIG
ZGNN,2015-10-18 02:00,ZGNN 180200Z VRB01MPS 6000 NSC 25/20 Q1017 NOSIG
ZGNN,2015-10-18 03:00,ZGNN 180300Z VRB01MPS CAVOK 29/18 Q1016 NOSIG
ZGNN,2015-10-18 04:00,ZGNN 180400Z 35003MPS 320V020 CAVOK 30/17 Q1015 NOSIG
ZGNN,2015-10-18 05:00,ZGNN 180500Z 35003MPS 310V040 CAVOK 30/17 Q1014 NOSIG
ZGNN,2015-10-18 06:00,ZGNN 180600Z 01003MPS 280V090 CAVOK 30/16 Q1013 NOSIG
ZGNN,2015-10-18 07:00,ZGNN 180700Z 34003MPS 280V030 CAVOK 31/17 Q1012 NOSIG
ZGNN,2015-10-18 08:00,ZGNN 180800Z 02003MPS 320V080 CAVOK 30/17 Q1012 NOSIG
ZGNN,2015-10-18 09:00,ZGNN 180900Z 33002MPS 290V020 CAVOK 30/18 Q1012 NOSIG
ZGNN,2015-10-18 10:00,ZGNN 181000Z VRB02MPS CAVOK 29/17 Q1012 NOSIG
ZGNN,2015-10-18 11:00,ZGNN 181100Z VRB01MPS CAVOK 27/18 Q1013 NOSIG
ZGNN,2015-10-18 12:00,ZGNN 181200Z VRB01MPS 7000 NSC 24/20 Q1014 NOSIG
ZGNN,2015-10-18 13:00,ZGNN 181300Z 00000MPS 7000 NSC 23/19 Q1014 NOSIG
ZGNN,2015-10-18 14:00,ZGNN 181400Z VRB01MPS 8000 NSC 22/18 Q1015 NOSIG
ZGNN,2015-10-18 15:00,ZGNN 181500Z 00000MPS 8000 NSC 21/18 Q1014 NOSIG
ZGNN,2015-10-18 16:00,ZGNN 181600Z 29001MPS 7000 NSC 20/18 Q1014 NOSIG
ZGNN,2015-10-18 17:00,ZGNN 181700Z 27001MPS 7000 NSC 20/18 Q1014 NOSIG
ZGNN,2015-10-18 18:00,ZGNN 181800Z 20001MPS 6000 NSC 19/18 Q1013 NOSIG
ZGNN,2015-10-18 19:00,ZGNN 181900Z VRB01MPS 6000 NSC 19/17 Q1013 NOSIG
ZGNN,2015-10-18 20:00,ZGNN 182000Z VRB01MPS 6000 NSC 18/17 Q1013 NOSIG
ZGNN,2015-10-18 21:00,ZGNN 182100Z 24001MPS 5000 BR NSC 19/18 Q1013 NOSIG
ZGNN,2015-10-18 22:00,ZGNN 182200Z VRB01MPS 6000 NSC 18/17 Q1013 NOSIG
ZGNN,2015-10-18 23:00,ZGNN 182300Z 23001MPS 5000 BR NSC 17/17 Q1014 NOSIG
ZGNN,2015-10-19 00:00,ZGNN 190000Z VRB01MPS 4000 BR NSC 19/18 Q1014 NOSIG
ZGNN,2015-10-19 01:00,ZGNN 190100Z VRB01MPS 5000 BR NSC 21/19 Q1015 NOSIG
ZGNN,2015-10-19 02:00,ZGNN 190200Z VRB01MPS 7000 NSC 25/20 Q1015 NOSIG
ZGNN,2015-10-19 03:00,ZGNN 190300Z VRB02MPS CAVOK 28/18 Q1014 NOSIG
ZGNN,2015-10-19 04:00,ZGNN 190400Z 05002MPS 320V110 CAVOK 29/18 Q1013 NOSIG
ZGNN,2015-10-19 05:00,ZGNN 190500Z 36003MPS 320V060 CAVOK 30/16 Q1012 NOSIG
ZGNN,2015-10-19 06:00,ZGNN 190600Z 35003MPS 290V030 CAVOK 31/18 Q1011 NOSIG
ZGNN,2015-10-19 07:00,ZGNN 190700Z 31003MPS 280V360 CAVOK 31/18 Q1010 NOSIG
ZGNN,2015-10-19 08:00,ZGNN 190800Z 36003MPS 310V040 CAVOK 31/18 Q1010 NOSIG
ZGNN,2015-10-19 09:00,ZGNN 190900Z 02002MPS 320V070 CAVOK 30/18 Q1009 NOSIG
ZGNN,2015-10-19 10:00,ZGNN 191000Z 01002MPS 330V030 CAVOK 29/18 Q1009 NOSIG
ZGNN,2015-10-19 11:00,ZGNN 191100Z 31002MPS 270V350 7000 NSC 26/20 Q1010 NOSIG
ZGNN,2015-10-19 12:00,ZGNN 191200Z VRB01MPS 6000 NSC 25/20 Q1010 NOSIG
ZGNN,2015-10-19 13:00,ZGNN 191300Z 34001MPS 6000 NSC 23/20 Q1011 NOSIG
ZGNN,2015-10-19 14:00,ZGNN 191400Z VRB01MPS 6000 NSC 23/20 Q1012 NOSIG
ZGNN,2015-10-19 15:00,ZGNN 191500Z VRB01MPS 6000 NSC 22/19 Q1011 NOSIG
ZGNN,2015-10-19 16:00,ZGNN 191600Z VRB01MPS 6000 NSC 22/19 Q1011 NOSIG
ZGNN,2015-10-19 17:00,ZGNN 191700Z 00000MPS 5000 BR NSC 21/20 Q1011 NOSIG
ZGNN,2015-10-19 18:00,ZGNN 191800Z 27001MPS 5000 BR NSC 21/19 Q1011 NOSIG
ZGNN,2015-10-19 19:00,ZGNN 191900Z VRB01MPS 5000 BR NSC 20/18 Q1010 NOSIG
ZGNN,2015-10-19 20:00,ZGNN 192000Z 00000MPS 5000 BR NSC 20/18 Q1010 NOSIG
ZGNN,2015-10-19 21:00,ZGNN 192100Z 21001MPS 5000 BR NSC 19/18 Q1010 NOSIG
ZGNN,2015-10-19 22:00,ZGNN 192200Z VRB01MPS 4000 BR NSC 19/18 Q1011 NOSIG
ZGNN,2015-10-19 23:00,ZGNN 192300Z VRB01MPS 3500 BR NSC 19/18 Q1011 NOSIG
ZGNN,2015-10-20 00:00,ZGNN 200000Z VRB01MPS 3100 BR NSC 20/19 Q1012 NOSIG
ZGNN,2015-10-20 01:00,ZGNN 200100Z VRB01MPS 4000 BR NSC 23/20 Q1013 NOSIG
ZGNN,2015-10-20 02:00,ZGNN 200200Z VRB01MPS 5000 HZ NSC 26/20 Q1013 NOSIG
ZGNN,2015-10-20 03:00,ZGNN 200300Z VRB01MPS 6000 NSC 29/19 Q1013 NOSIG
ZGNN,2015-10-20 04:00,ZGNN 200400Z VRB01MPS 7000 NSC 29/19 Q1012 NOSIG
ZGNN,2015-10-20 05:00,ZGNN 200500Z 01003MPS 320V050 CAVOK 30/17 Q1010 NOSIG
ZGNN,2015-10-20 06:00,ZGNN 200600Z 02003MPS 340V060 CAVOK 30/17 Q1009 NOSIG
ZGNN,2015-10-20 07:00,ZGNN 200700Z 33003MPS 300V020 CAVOK 31/17 Q1008 NOSIG
ZGNN,2015-10-20 08:00,ZGNN 200800Z 36003MPS 330V030 CAVOK 30/15 Q1008 NOSIG
ZGNN,2015-10-20 09:00,ZGNN 200900Z 36002MPS 330V030 CAVOK 30/16 Q1008 NOSIG
ZGNN,2015-10-20 10:00,ZGNN 201000Z 32002MPS 300V020 CAVOK 28/17 Q1008 NOSIG
ZGNN,2015-10-20 11:00,ZGNN 201100Z VRB01MPS 8000 NSC 25/18 Q1008 NOSIG
ZGNN,2015-10-20 12:00,ZGNN 201200Z 04002MPS 010V080 6000 NSC 25/20 Q1009 NOSIG
ZGNN,2015-10-20 13:00,ZGNN 201300Z VRB01MPS 6000 NSC 25/19 Q1010 NOSIG
ZGNN,2015-10-20 14:00,ZGNN 201400Z VRB01MPS 6000 NSC 23/19 Q1011 NOSIG
ZGNN,2015-10-20 15:00,ZGNN 201500Z VRB01MPS 6000 NSC 22/18 Q1011 NOSIG
ZGNN,2015-10-20 16:00,ZGNN 201600Z VRB01MPS 6000 NSC 21/18 Q1011 NOSIG
ZGNN,2015-10-20 17:00,ZGNN 201700Z 00000MPS 6000 NSC 20/18 Q1011 NOSIG
ZGNN,2015-10-20 18:00,ZGNN 201800Z 00000MPS 6000 NSC 20/18 Q1011 NOSIG
ZGNN,2015-10-20 19:00,ZGNN 201900Z 25001MPS 5000 BR NSC 19/17 Q1010 NOSIG
ZGNN,2015-10-20 20:00,ZGNN 202000Z VRB01MPS 5000 BR NSC 18/17 Q1010 NOSIG
ZGNN,2015-10-20 21:00,ZGNN 202100Z 03001MPS 5000 BR NSC 19/16 Q1011 NOSIG
ZGNN,2015-10-20 22:00,ZGNN 202200Z 00000MPS 5000 BR NSC 18/16 Q1011 NOSIG
ZGNN,2015-10-20 23:00,ZGNN 202300Z 25001MPS 3500 BR NSC 17/16 Q1012 NOSIG
ZGNN,2015-10-21 00:00,ZGNN 210000Z VRB01MPS 3500 BR NSC 19/18 Q1013 NOSIG
ZGNN,2015-10-21 01:00,ZGNN 210100Z VRB01MPS 3500 BR NSC 21/19 Q1013 NOSIG
ZGNN,2015-10-21 02:00,ZGNN 210200Z VRB01MPS 4500 HZ NSC 25/19 Q1014 NOSIG
ZGNN,2015-10-21 03:00,ZGNN 210300Z 07002MPS 030V140 8000 NSC 27/17 Q1013 NOSIG
ZGNN,2015-10-21 04:00,ZGNN 210400Z 05003MPS 020V080 8000 NSC 29/16 Q1013 NOSIG
ZGNN,2015-10-21 05:00,ZGNN 210500Z 04002MPS 300V110 8000 NSC 30/16 Q1012 NOSIG
ZGNN,2015-10-21 06:00,ZGNN 210600Z 32002MPS 270V020 8000 NSC 31/15 Q1011 NOSIG
ZGNN,2015-10-21 07:00,ZGNN 210700Z 35002MPS 290V030 CAVOK 31/15 Q1010 NOSIG
ZGNN,2015-10-21 08:00,ZGNN 210800Z 33002MPS 260V010 CAVOK 31/15 Q1010 NOSIG
ZGNN,2015-10-21 09:00,ZGNN 210900Z 13002MPS 060V190 CAVOK 30/16 Q1010 NOSIG
ZGNN,2015-10-21 10:00,ZGNN 211000Z 13002MPS 120V180 CAVOK 27/19 Q1010 NOSIG
ZGNN,2015-10-21 11:00,ZGNN 211100Z VRB01MPS CAVOK 26/19 Q1010 NOSIG
ZGNN,2015-10-21 12:00,ZGNN 211200Z 01002MPS 340V040 6000 NSC 24/20 Q1011 NOSIG
ZGNN,2015-10-21 13:00,ZGNN 211300Z 04002MPS 010V070 6000 NSC 23/18 Q1012 NOSIG
ZGNN,2015-10-21 14:00,ZGNN 211400Z VRB01MPS 6000 NSC 22/18 Q1013 NOSIG
ZGNN,2015-10-21 15:00,ZGNN 211500Z VRB01MPS 6000 NSC 22/18 Q1013 NOSIG
ZGNN,2015-10-21 16:00,ZGNN 211600Z VRB01MPS 6000 NSC 21/18 Q1013 NOSIG
ZGNN,2015-10-21 17:00,ZGNN 211700Z 00000MPS 6000 NSC 20/17 Q1013 NOSIG
ZGNN,2015-10-21 18:00,ZGNN 211800Z VRB01MPS 6000 NSC 20/17 Q1013 NOSIG
ZGNN,2015-10-21 19:00,ZGNN 211900Z VRB01MPS 6000 NSC 20/17 Q1012 NOSIG
ZGNN,2015-10-21 20:00,ZGNN 212000Z 08001MPS 5000 BR NSC 19/18 Q1012 NOSIG
ZGNN,2015-10-21 21:00,ZGNN 212100Z VRB01MPS 5000 BR NSC 19/18 Q1013 NOSIG
ZGNN,2015-10-21 22:00,ZGNN 212200Z 24001MPS 4000 BR NSC 18/17 Q1013 NOSIG
ZGNN,2015-10-21 23:00,ZGNN 212300Z VRB01MPS 3500 BR NSC 19/18 Q1014 NOSIG
ZGNN,2015-10-22 00:00,ZGNN 220000Z VRB01MPS 3200 BR NSC 20/18 Q1015 NOSIG
ZGNN,2015-10-22 01:00,ZGNN 220100Z VRB01MPS 3500 BR NSC 22/19 Q1015 NOSIG
ZGNN,2015-10-22 02:00,ZGNN 220200Z VRB01MPS 4000 HZ NSC 25/18 Q1016 NOSIG
ZGNN,2015-10-22 03:00,ZGNN 220300Z 06002MPS 360V090 5000 HZ NSC 27/18 Q1015 NOSIG
ZGNN,2015-10-22 04:00,ZGNN 220400Z 08002MPS 010V160 CAVOK 29/17 Q1015 NOSIG
ZGNN,2015-10-22 05:00,ZGNN 220500Z 06003MPS 360V170 CAVOK 29/17 Q1013 NOSIG
ZGNN,2015-10-22 06:00,ZGNN 220600Z 09003MPS 050V150 CAVOK 30/16 Q1012 NOSIG
ZGNN,2015-10-22 07:00,ZGNN 220700Z 04003MPS 340V080 9999 FEW033 30/16 Q1012 NOSIG
ZGNN,2015-10-22 08:00,ZGNN 220800Z VRB02MPS CAVOK 30/17 Q1011 NOSIG
ZGNN,2015-10-22 09:00,ZGNN 220900Z VRB01MPS CAVOK 30/17 Q1011 NOSIG
ZGNN,2015-10-22 10:00,ZGNN 221000Z 13002MPS CAVOK 27/19 Q1012 NOSIG
ZGNN,2015-10-22 11:00,ZGNN 221100Z 00000MPS CAVOK 26/19 Q1012 NOSIG
ZGNN,2015-10-22 12:00,ZGNN 221200Z VRB01MPS 6000 NSC 24/19 Q1013 NOSIG
ZGNN,2015-10-22 13:00,ZGNN 221300Z VRB01MPS 6000 NSC 22/19 Q1014 NOSIG
ZGNN,2015-10-22 14:00,ZGNN 221400Z 00000MPS 5000 BR NSC 22/19 Q1014 NOSIG
ZGNN,2015-10-22 15:00,ZGNN 221500Z VRB01MPS 5000 BR NSC 21/19 Q1014 NOSIG
ZGNN,2015-10-22 16:00,ZGNN 221600Z VRB01MPS 5000 BR NSC 20/18 Q1014 NOSIG
ZGNN,2015-10-22 17:00,ZGNN 221700Z 27001MPS 5000 BR NSC 19/18 Q1014 NOSIG
ZGNN,2015-10-22 18:00,ZGNN 221800Z 00000MPS 5000 BR NSC 19/18 Q1013 NOSIG
ZGNN,2015-10-22 19:00,ZGNN 221900Z 24001MPS 7000 NSC 19/17 Q1013 NOSIG
ZGNN,2015-10-22 20:00,ZGNN 222000Z 26001MPS 6000 NSC 18/17 Q1013 NOSIG
ZGNN,2015-10-22 21:00,ZGNN 222100Z 24001MPS 5000 BR NSC 18/17 Q1013 NOSIG
ZGNN,2015-10-22 22:00,ZGNN 222200Z 22001MPS 5000 BR NSC 18/17 Q1014 NOSIG
ZGNN,2015-10-22 23:00,ZGNN 222300Z 20001MPS 4000 BR NSC 18/17 Q1015 NOSIG
ZGNN,2015-10-23 00:00,ZGNN 230000Z 25001MPS 4000 BR NSC 19/18 Q1015 NOSIG
ZGNN,2015-10-23 01:00,ZGNN 230100Z VRB01MPS 4000 BR NSC 22/19 Q1016 NOSIG
ZGNN,2015-10-23 02:00,ZGNN 230200Z VRB01MPS 6000 NSC 26/20 Q1016 NOSIG
ZGNN,2015-10-23 03:00,ZGNN 230300Z 10002MPS 360V150 8000 NSC 28/19 Q1016 NOSIG
ZGNN,2015-10-23 04:00,ZGNN 230400Z VRB02MPS 8000 FEW026 29/18 Q1015 NOSIG
ZGNN,2015-10-23 05:00,ZGNN 230500Z VRB01MPS 9999 FEW030 30/18 Q1013 NOSIG
ZGNN,2015-10-23 06:00,ZGNN 230600Z VRB02MPS 9999 FEW033 31/17 Q1012 NOSIG
ZGNN,2015-10-23 07:00,ZGNN 230700Z VRB01MPS 9999 FEW033 31/18 Q1012 NOSIG
ZGNN,2015-10-23 08:00,ZGNN 230800Z VRB02MPS 9999 FEW033 31/17 Q1011 NOSIG
ZGNN,2015-10-23 09:00,ZGNN 230900Z 15003MPS CAVOK 30/18 Q1012 NOSIG
ZGNN,2015-10-23 10:00,ZGNN 231000Z 11002MPS 100V160 CAVOK 28/19 Q1012 NOSIG
ZGNN,2015-10-23 11:00,ZGNN 231100Z VRB01MPS 6000 NSC 26/19 Q1012 NOSIG
ZGNN,2015-10-23 12:00,ZGNN 231200Z 36002MPS 320V040 6000 NSC 25/20 Q1013 NOSIG
ZGNN,2015-10-23 13:00,ZGNN 231300Z VRB01MPS 6000 NSC 24/20 Q1014 NOSIG
ZGNN,2015-10-23 14:00,ZGNN 231400Z VRB01MPS 6000 NSC 23/20 Q1014 NOSIG
ZGNN,2015-10-23 15:00,ZGNN 231500Z VRB01MPS 6000 NSC 22/20 Q1014 NOSIG
ZGNN,2015-10-23 16:00,ZGNN 231600Z VRB01MPS 6000 NSC 22/19 Q1014 NOSIG
ZGNN,2015-10-23 17:00,ZGNN 231700Z 03001MPS 6000 NSC 21/19 Q1014 NOSIG
ZGNN,2015-10-23 18:00,ZGNN 231800Z 00000MPS 6000 NSC 20/18 Q1013 NOSIG
ZGNN,2015-10-23 19:00,ZGNN 231900Z 00000MPS 5000 BR NSC 20/18 Q1013 NOSIG
ZGNN,2015-10-23 20:00,ZGNN 232000Z 00000MPS 5000 BR NSC 19/18 Q1013 NOSIG
ZGNN,2015-10-23 21:00,ZGNN 232100Z 00000MPS 5000 BR NSC 19/18 Q1014 NOSIG
ZGNN,2015-10-23 22:00,ZGNN 232200Z VRB01MPS 4500 BR NSC 19/18 Q1014 BECMG TL2340 2500 BR
ZGNN,2015-10-23 23:00,ZGNN 232300Z 23001MPS 3200 BR NSC 18/18 Q1015 BECMG TL2350 2500 BR
ZGNN,2015-10-24 00:00,ZGNN 240000Z 00000MPS 2800 BR NSC 20/19 Q1016 BECMG TL0120 3500 BR
ZGNN,2015-10-24 01:00,ZGNN 240100Z 21002MPS 180V240 3500 BR NSC 22/20 Q1017 NOSIG
ZGNN,2015-10-24 02:00,ZGNN 240200Z VRB01MPS 4500 BR NSC 25/21 Q1017 NOSIG
ZGNN,2015-10-24 03:00,ZGNN 240300Z VRB01MPS 5000 HZ NSC 28/20 Q1017 NOSIG
ZGNN,2015-10-24 04:00,ZGNN 240400Z VRB01MPS CAVOK 30/19 Q1016 NOSIG
ZGNN,2015-10-24 05:00,ZGNN 240500Z 21002MPS 140V280 9999 FEW026 31/18 Q1015 NOSIG
ZGNN,2015-10-24 06:00,ZGNN 240600Z 19002MPS 100V240 9999 FEW026 31/18 Q1014 NOSIG
ZGNN,2015-10-24 07:00,ZGNN 240700Z 13003MPS 090V170 9999 SCT026 31/19 Q1013 NOSIG
ZGNN,2015-10-24 08:00,ZGNN 240800Z 14002MPS 070V200 9999 SCT033 31/19 Q1012 NOSIG
ZGNN,2015-10-24 09:00,ZGNN 240900Z 13002MPS CAVOK 30/19 Q1013 NOSIG
ZGNN,2015-10-24 10:00,ZGNN 241000Z 13002MPS CAVOK 28/20 Q1013 NOSIG
ZGNN,2015-10-24 11:00,ZGNN 241100Z 12001MPS 7000 NSC 27/21 Q1014 NOSIG
ZGNN,2015-10-24 12:00,ZGNN 241200Z 12002MPS 070V200 6000 NSC 27/20 Q1014 NOSIG
ZGNN,2015-10-24 13:00,ZGNN 241300Z VRB01MPS 6000 NSC 26/20 Q1015 NOSIG
ZGNN,2015-10-24 14:00,ZGNN 241400Z 00000MPS 5000 BR NSC 24/20 Q1016 NOSIG
ZGNN,2015-10-24 15:00,ZGNN 241500Z VRB01MPS 5000 BR NSC 23/20 Q1016 NOSIG
ZGNN,2015-10-24 16:00,ZGNN 241600Z VRB01MPS 5000 BR NSC 23/20 Q1016 NOSIG
ZGNN,2015-10-24 17:00,ZGNN 241700Z VRB01MPS 4500 BR NSC 22/20 Q1016 NOSIG
ZGNN,2015-10-24 18:00,ZGNN 241800Z 00000MPS 4500 BR NSC 21/20 Q1015 NOSIG
ZGNN,2015-10-24 19:00,ZGNN 241900Z VRB01MPS 5000 BR NSC 22/20 Q1015 NOSIG
ZGNN,2015-10-24 20:00,ZGNN 242000Z VRB01MPS 5000 BR NSC 21/20 Q1015 NOSIG
ZGNN,2015-10-24 21:00,ZGNN 242100Z 32001MPS 4600 BR NSC 21/20 Q1015 NOSIG
ZGNN,2015-10-24 22:00,ZGNN 242200Z 00000MPS 4000 BR NSC 21/19 Q1016 NOSIG
ZGNN,2015-10-24 23:00,ZGNN 242300Z VRB01MPS 3100 BR NSC 21/20 Q1016 NOSIG
ZGNN,2015-10-25 00:00,ZGNN 250000Z 03001MPS 4000 BR NSC 22/20 Q1017 NOSIG
ZGNN,2015-10-25 01:00,ZGNN 250100Z VRB01MPS 4000 BR NSC 24/21 Q1018 NOSIG
ZGNN,2015-10-25 02:00,ZGNN 250200Z VRB01MPS 6000 NSC 26/21 Q1018 NOSIG
ZGNN,2015-10-25 03:00,ZGNN 250300Z VRB01MPS 6000 NSC 28/21 Q1018 NOSIG
ZGNN,2015-10-25 04:00,ZGNN 250400Z 21002MPS 170V260 6000 NSC 28/21 Q1017 NOSIG
ZGNN,2015-10-25 05:00,ZGNN 250500Z 25003MPS 160V310 7000 NSC 29/21 Q1016 NOSIG
ZGNN,2015-10-25 06:00,ZGNN 250600Z 23002MPS 180V260 CAVOK 29/20 Q1015 NOSIG
ZGNN,2015-10-25 07:00,ZGNN 250700Z 25002MPS 190V280 CAVOK 30/20 Q1014 NOSIG
ZGNN,2015-10-25 08:00,ZGNN 250800Z 27002MPS 220V340 9999 FEW040 30/20 Q1014 NOSIG
ZGNN,2015-10-25 09:00,ZGNN 250900Z 13002MPS 080V200 CAVOK 29/21 Q1014 NOSIG
ZGNN,2015-10-25 10:00,ZGNN 251000Z 15001MPS CAVOK 28/22 Q1014 NOSIG
ZGNN,2015-10-25 11:00,ZGNN 251100Z VRB01MPS 7000 NSC 26/22 Q1015 NOSIG
ZGNN,2015-10-25 12:00,ZGNN 251200Z VRB01MPS 6000 NSC 26/22 Q1015 NOSIG
ZGNN,2015-10-25 13:00,ZGNN 251300Z VRB01MPS 5000 BR NSC 25/22 Q1016 NOSIG
ZGNN,2015-10-25 14:00,ZGNN 251400Z 05001MPS 5000 BR NSC 24/22 Q1017 NOSIG
ZGNN,2015-10-25 15:00,ZGNN 251500Z VRB01MPS 5000 BR NSC 23/22 Q1017 NOSIG
ZGNN,2015-10-25 16:00,ZGNN 251600Z 10001MPS 5000 BR NSC 24/22 Q1017 NOSIG
ZGNN,2015-10-25 17:00,ZGNN 251700Z 00000MPS 5000 BR NSC 23/21 Q1016 NOSIG
ZGNN,2015-10-25 18:00,ZGNN 251800Z VRB01MPS 5000 BR NSC 23/22 Q1016 NOSIG
ZGNN,2015-10-25 19:00,ZGNN 251900Z 06001MPS 5000 BR NSC 23/21 Q1015 NOSIG
ZGNN,2015-10-25 20:00,ZGNN 252000Z 32002MPS 4000 BR NSC 22/21 Q1015 NOSIG
ZGNN,2015-10-25 21:00,ZGNN 252100Z VRB01MPS 4000 BR NSC 22/21 Q1015 NOSIG
ZGNN,2015-10-25 22:00,ZGNN 252200Z VRB01MPS 4000 BR NSC 21/20 Q1015 NOSIG
ZGNN,2015-10-25 23:00,ZGNN 252300Z 04001MPS 4000 BR NSC 22/21 Q1016 NOSIG
ZGNN,2015-10-26 00:00,ZGNN 260000Z 05001MPS 3500 BR SCT010 23/22 Q1017 NOSIG
ZGNN,2015-10-26 01:00,ZGNN 260100Z 06002MPS 030V120 5000 BR SCT013 25/23 Q1017 NOSIG
ZGNN,2015-10-26 02:00,ZGNN 260200Z VRB01MPS 9999 SCT013 26/23 Q1018 NOSIG
ZGNN,2015-10-26 03:00,ZGNN 260300Z 16002MPS 120V200 9999 SCT016 27/23 Q1017 NOSIG
ZGNN,2015-10-26 04:00,ZGNN 260400Z 15003MPS 110V190 9999 SCT020 28/22 Q1016 NOSIG
ZGNN,2015-10-26 05:00,ZGNN 260500Z VRB01MPS 9999 -SHRA FEW023TCU SCT023 28/22 Q1015 NOSIG
ZGNN,2015-10-26 06:00,ZGNN 260600Z 07002MPS 350V100 9999 FEW026TCU SCT026 29/22 Q1014 NOSIG
ZGNN,2015-10-26 07:00,ZGNN 260700Z 10003MPS 080V140 9999 SCT026 29/23 Q1013 NOSIG
ZGNN,2015-10-26 08:00,ZGNN 260800Z 15004MPS 9999 SCT026 29/22 Q1013 NOSIG
ZGNN,2015-10-26 09:00,ZGNN 260900Z 15005MPS 9999 FEW026 28/22 Q1013 NOSIG
ZGNN,2015-10-26 10:00,ZGNN 261000Z 17002MPS 140V200 9999 FEW026 27/23 Q1014 NOSIG
ZGNN,2015-10-26 11:00,ZGNN 261100Z 16002MPS 100V210 9999 SCT026 26/22 Q1014 NOSIG
ZGNN,2015-10-26 12:00,ZGNN 261200Z 15002MPS 9999 SCT026 26/22 Q1015 NOSIG
ZGNN,2015-10-26 13:00,ZGNN 261300Z 09002MPS 080V180 CAVOK 25/22 Q1016 NOSIG
ZGNN,2015-10-26 14:00,ZGNN 261400Z 04002MPS CAVOK 24/22 Q1016 NOSIG
ZGNN,2015-10-26 15:00,ZGNN 261500Z VRB01MPS CAVOK 24/22 Q1016 NOSIG
ZGNN,2015-10-26 16:00,ZGNN 261600Z 02002MPS CAVOK 24/22 Q1016 NOSIG
ZGNN,2015-10-26 17:00,ZGNN 261700Z VRB01MPS CAVOK 23/21 Q1016 NOSIG
ZGNN,2015-10-26 18:00,ZGNN 261800Z 06001MPS CAVOK 23/22 Q1016 NOSIG
ZGNN,2015-10-26 19:00,ZGNN 261900Z 01001MPS 7000 NSC 22/21 Q1015 NOSIG
ZGNN,2015-10-26 20:00,ZGNN 262000Z 04001MPS 6000 NSC 23/22 Q1015 NOSIG
ZGNN,2015-10-26 21:00,ZGNN 262100Z 04002MPS 6000 FEW007 23/22 Q1015 NOSIG
ZGNN,2015-10-26 22:00,ZGNN 262200Z 04002MPS 5000 BR FEW007 23/22 Q1015 NOSIG
ZGNN,2015-10-26 23:00,ZGNN 262300Z 05002MPS 4000 BR FEW007 23/22 Q1016 NOSIG
ZGNN,2015-10-27 00:00,ZGNN 270000Z VRB01MPS 4500 BR FEW007 24/23 Q1017 NOSIG
ZGNN,2015-10-27 01:00,ZGNN 270100Z VRB01MPS 4500 BR FEW007 SCT010 BKN033 25/23 Q1017 NOSIG
ZGNN,2015-10-27 02:00,ZGNN 270200Z 22002MPS 170V270 8000 SCT011 BKN033 26/22 Q1017 NOSIG
ZGNN,2015-10-27 03:00,ZGNN 270300Z 20001MPS 9999 SCT015 BKN033 27/23 Q1017 NOSIG
ZGNN,2015-10-27 04:00,ZGNN 270400Z VRB01MPS 9999 SCT020 BKN033 29/22 Q1016 NOSIG
ZGNN,2015-10-27 05:00,ZGNN 270500Z 05001MPS 9999 SCT023 30/22 Q1015 NOSIG
ZGNN,2015-10-27 06:00,ZGNN 270600Z VRB02MPS 9999 SCT030 30/22 Q1014 NOSIG
ZGNN,2015-10-27 07:00,ZGNN 270700Z 06002MPS 9999 SCT030 30/22 Q1013 NOSIG
ZGNN,2015-10-27 08:00,ZGNN 270800Z VRB01MPS 9999 SCT030 30/22 Q1013 NOSIG
ZGNN,2015-10-27 09:00,ZGNN 270900Z 10002MPS 060V150 9999 FEW030 30/22 Q1013 NOSIG
ZGNN,2015-10-27 10:00,ZGNN 271000Z 11002MPS 090V160 9999 FEW040 29/22 Q1013 NOSIG
ZGNN,2015-10-27 11:00,ZGNN 271100Z 18003MPS 140V200 CAVOK 28/22 Q1013 NOSIG
ZGNN,2015-10-27 12:00,ZGNN 271200Z VRB01MPS CAVOK 26/23 Q1014 NOSIG
ZGNN,2015-10-27 13:00,ZGNN 271300Z VRB01MPS 7000 NSC 26/23 Q1014 NOSIG
ZGNN,2015-10-27 14:00,ZGNN 271400Z 00000MPS 6000 NSC 25/22 Q1015 NOSIG
ZGNN,2015-10-27 15:00,ZGNN 271500Z 00000MPS 6000 NSC 25/23 Q1015 NOSIG
ZGNN,2015-10-27 16:00,ZGNN 271600Z VRB01MPS 6000 NSC 24/23 Q1015 NOSIG
ZGNN,2015-10-27 17:00,ZGNN 271700Z 10001MPS 6000 NSC 24/22 Q1015 NOSIG
ZGNN,2015-10-27 18:00,ZGNN 271800Z VRB01MPS 6000 NSC 24/22 Q1015 NOSIG
ZGNN,2015-10-27 19:00,ZGNN 271900Z 36001MPS 5000 BR NSC 23/21 Q1015 NOSIG
ZGNN,2015-10-27 20:00,ZGNN 272000Z VRB01MPS 5000 BR NSC 23/21 Q1015 NOSIG
ZGNN,2015-10-27 21:00,ZGNN 272100Z 01001MPS 5000 BR NSC 22/21 Q1015 NOSIG
ZGNN,2015-10-27 22:00,ZGNN 272200Z 03001MPS 5000 BR NSC 22/21 Q1015 NOSIG
ZGNN,2015-10-27 23:00,ZGNN 272300Z 35001MPS 4000 BR NSC 22/21 Q1016 NOSIG
ZGNN,2015-10-28 00:00,ZGNN 280000Z 00000MPS 3300 BR SCT003 24/23 Q1017 NOSIG
ZGNN,2015-10-28 01:00,ZGNN 280100Z 00000MPS 4500 BR SCT006 25/24 Q1017 NOSIG
ZGNN,2015-10-28 02:00,ZGNN 280200Z 21002MPS 180V260 5000 BR FEW006 SCT008 26/23 Q1018 NOSIG
ZGNN,2015-10-28 03:00,ZGNN 280300Z VRB01MPS 9999 FEW015 27/23 Q1018 NOSIG
ZGNN,2015-10-28 04:00,ZGNN 280400Z 15002MPS 090V180 9999 FEW020 29/22 Q1017 NOSIG
ZGNN,2015-10-28 05:00,ZGNN 280500Z 10002MPS 360V170 9999 FEW026 31/22 Q1016 NOSIG
ZGNN,2015-10-28 06:00,ZGNN 280600Z 10003MPS 360V160 9999 FEW033 31/21 Q1014 NOSIG
ZGNN,2015-10-28 07:00,ZGNN 280700Z 15003MPS 100V190 9999 FEW033 32/22 Q1013 NOSIG
ZGNN,2015-10-28 08:00,ZGNN 280800Z 15004MPS 9999 SCT033 30/23 Q1013 NOSIG
ZGNN,2015-10-28 09:00,ZGNN 280900Z 14004MPS 110V180 9999 FEW033 29/24 Q1013 NOSIG
ZGNN,2015-10-28 10:00,ZGNN 281000Z 14003MPS 9999 FEW030 28/24 Q1013 NOSIG
ZGNN,2015-10-28 11:00,ZGNN 281100Z VRB01MPS CAVOK 27/24 Q1014 NOSIG
ZGNN,2015-10-28 12:00,ZGNN 281200Z VRB01MPS CAVOK 26/23 Q1014 NOSIG
ZGNN,2015-10-28 13:00,ZGNN 281300Z 14002MPS CAVOK 26/23 Q1015 NOSIG
ZGNN,2015-10-28 14:00,ZGNN 281400Z VRB01MPS CAVOK 25/23 Q1015 NOSIG
ZGNN,2015-10-28 15:00,ZGNN 281500Z VRB01MPS 7000 FEW009 25/23 Q1015 NOSIG
ZGNN,2015-10-28 16:00,ZGNN 281600Z 16003MPS 120V180 5000 BR SCT009 25/23 Q1015 NOSIG
ZGNN,2015-10-28 17:00,ZGNN 281700Z 18002MPS 5000 BR SCT009 25/23 Q1015 NOSIG
ZGNN,2015-10-28 18:00,ZGNN 281800Z VRB01MPS 5000 BR SCT008 SCT011 25/23 Q1015 NOSIG
ZGNN,2015-10-28 19:00,ZGNN 281900Z 12001MPS 6000 SCT010 SCT013 25/23 Q1015 NOSIG
ZGNN,2015-10-28 20:00,ZGNN 282000Z 00000MPS 7000 FEW010 SCT013 BKN033 25/23 Q1015 NOSIG
ZGNN,2015-10-28 21:00,ZGNN 282100Z 32001MPS 6000 FEW010 SCT013 BKN033 25/23 Q1015 NOSIG
ZGNN,2015-10-28 22:00,ZGNN 282200Z 04001MPS 7000 SCT011 SCT033 25/24 Q1016 NOSIG
ZGNN,2015-10-28 23:00,ZGNN 282300Z 10002MPS 8000 FEW015 SCT040 24/23 Q1016 NOSIG
ZGNN,2015-10-29 00:00,ZGNN 290000Z VRB01MPS 9999 FEW010 SCT015 BKN040 25/24 Q1017 NOSIG
ZGNN,2015-10-29 01:00,ZGNN 290100Z VRB01MPS 9999 FEW013 OVC033 25/24 Q1018 NOSIG
ZGNN,2015-10-29 02:00,ZGNN 290200Z 20002MPS 140V230 9999 FEW013 FEW023TCU BKN033 27/24 Q1018 NOSIG
ZGNN,2015-10-29 03:00,ZGNN 290300Z 16004MPS 130V210 9999 FEW023TCU SCT023 28/23 Q1018 NOSIG
ZGNN,2015-10-29 04:00,ZGNN 290400Z 14003MPS 120V180 9999 SCT023 29/23 Q1017 NOSIG
ZGNN,2015-10-29 05:00,ZGNN 290500Z 19004MPS 150V220 9999 SCT020 FEW026CB BKN040 29/24 Q1016 RESHRA NOSIG
ZGNN,2015-10-29 06:00,ZGNN 290600Z 17004MPS 130V210 9999 FEW020 BKN040 29/23 Q1015 NOSIG
ZGNN,2015-10-29 07:00,ZGNN 290700Z 17003MPS 140V200 9999 -SHRA SCT023 FEW026TCU BKN040 29/24 Q1015 NOSIG
ZGNN,2015-10-29 08:00,ZGNN 290800Z 16004MPS 9999 FEW026TCU SCT040 29/23 Q1015 NOSIG
ZGNN,2015-10-29 09:00,ZGNN 290900Z 16004MPS 9999 FEW026TCU 28/23 Q1014 NOSIG
ZGNN,2015-10-29 10:00,ZGNN 291000Z 16004MPS CAVOK 27/23 Q1014 NOSIG
ZGNN,2015-10-29 11:00,ZGNN 291100Z 14002MPS CAVOK 26/22 Q1015 NOSIG
ZGNN,2015-10-29 12:00,ZGNN 291200Z 14002MPS 100V160 CAVOK 25/22 Q1015 NOSIG
ZGNN,2015-10-29 13:00,ZGNN 291300Z VRB01MPS CAVOK 25/23 Q1016 NOSIG
ZGNN,2015-10-29 14:00,ZGNN 291400Z 16002MPS CAVOK 25/23 Q1016 NOSIG
ZGNN,2015-10-29 15:00,ZGNN 291500Z 18001MPS CAVOK 25/23 Q1017 NOSIG
ZGNN,2015-10-29 16:00,ZGNN 291600Z 15002MPS 110V190 CAVOK 25/23 Q1017 NOSIG
ZGNN,2015-10-29 17:00,ZGNN 291700Z VRB01MPS CAVOK 25/23 Q1017 NOSIG
ZGNN,2015-10-29 18:00,ZGNN 291800Z 14002MPS 8000 FEW013 24/23 Q1016 NOSIG
ZGNN,2015-10-29 19:00,ZGNN 291900Z 00000MPS 7000 SCT013 24/23 Q1016 NOSIG
ZGNN,2015-10-29 20:00,ZGNN 292000Z VRB01MPS 8000 SCT013 24/23 Q1016 NOSIG
ZGNN,2015-10-29 21:00,ZGNN 292100Z VRB01MPS 8000 NSC 24/23 Q1016 NOSIG
ZGNN,2015-10-29 22:00,ZGNN 292200Z VRB01MPS 7000 NSC 24/22 Q1016 NOSIG
ZGNN,2015-10-29 23:00,ZGNN 292300Z 05002MPS 6000 FEW008 24/23 Q1017 NOSIG
ZGNN,2015-10-30 00:00,ZGNN 300000Z 10002MPS 6000 FEW009 25/23 Q1018 NOSIG
ZGNN,2015-10-30 01:00,ZGNN 300100Z VRB01MPS 9000 SCT009 25/23 Q1018 NOSIG
ZGNN,2015-10-30 02:00,ZGNN 300200Z 14002MPS 100V170 9999 SCT013 SCT033 26/23 Q1019 NOSIG
ZGNN,2015-10-30 03:00,ZGNN 300300Z VRB01MPS 9999 SCT016 SCT033 28/23 Q1018 NOSIG
ZGNN,2015-10-30 04:00,ZGNN 300400Z 34002MPS 290V080 9999 SCT026 28/23 Q1017 NOSIG
ZGNN,2015-10-30 05:00,ZGNN 300500Z 04003MPS 9999 SCT026 29/23 Q1017 NOSIG
ZGNN,2015-10-30 06:00,ZGNN 300600Z 07004MPS 9999 SCT026 29/22 Q1015 NOSIG
ZGNN,2015-10-30 07:00,ZGNN 300700Z 07003MPS 030V110 9999 SCT033 30/22 Q1015 NOSIG
ZGNN,2015-10-30 08:00,ZGNN 300800Z 07005MPS 040V110 9999 SCT033 30/22 Q1014 NOSIG
ZGNN,2015-10-30 09:00,ZGNN 300900Z 05007MPS 9999 FEW033 27/22 Q1015 NOSIG
ZGNN,2015-10-30 10:00,ZGNN 301000Z 05007MPS 9999 FEW030 FEW033CB 24/20 Q1016 NOSIG
ZGNN,2015-10-30 11:00,ZGNN 301100Z 04007MPS 9999 SCT016 BKN040 22/18 Q1018 NOSIG
ZGNN,2015-10-30 12:00,ZGNN 301200Z 06007MPS 9999 BKN030 22/17 Q1019 NOSIG
ZGNN,2015-10-30 13:00,ZGNN 301300Z 08005MPS 9999 BKN030 21/17 Q1020 NOSIG
ZGNN,2015-10-30 14:00,ZGNN 301400Z 05004MPS 030V090 9999 BKN026 21/17 Q1020 NOSIG
ZGNN,2015-10-30 15:00,ZGNN 301500Z 08003MPS 9999 BKN023 20/17 Q1020 NOSIG
ZGNN,2015-10-30 16:00,ZGNN 301600Z 06003MPS 020V100 9999 BKN023 20/17 Q1021 NOSIG
ZGNN,2015-10-30 17:00,ZGNN 301700Z 05004MPS 9999 SCT016 OVC023 20/16 Q1020 NOSIG
ZGNN,2015-10-30 18:00,ZGNN 301800Z 06003MPS 9999 OVC020 20/16 Q1020 NOSIG
ZGNN,2015-10-30 19:00,ZGNN 301900Z 07004MPS 9999 BKN020 OVC033 20/16 Q1020 NOSIG
ZGNN,2015-10-30 20:00,ZGNN 302000Z 03002MPS 9999 BKN020 OVC033 19/16 Q1020 NOSIG
ZGNN,2015-10-30 21:00,ZGNN 302100Z 03002MPS 9999 BKN016 OVC033 19/16 Q1021 NOSIG
ZGNN,2015-10-30 22:00,ZGNN 302200Z 04003MPS 9999 SCT006 SCT010 OVC030 18/17 Q1021 NOSIG
ZGNN,2015-10-30 23:00,ZGNN 302300Z 06003MPS 9999 SCT006 SCT010 OVC030 18/16 Q1022 NOSIG
ZGNN,2015-10-31 00:00,ZGNN 310000Z 02003MPS 8000 -RA SCT006 SCT010 OVC026 18/17 Q1023 NOSIG
ZGNN,2015-10-31 01:00,ZGNN 310100Z 04003MPS 4000 -RA BR SCT005 SCT007 OVC026 18/17 Q1023 NOSIG
ZGNN,2015-10-31 02:00,ZGNN 310200Z 35003MPS 9999 FEW007 SCT009 OVC026 19/17 Q1024 NOSIG
ZGNN,2015-10-31 03:00,ZGNN 310300Z 36003MPS 6000 -RA FEW007 SCT009 OVC026 18/17 Q1024 NOSIG
ZGNN,2015-10-31 04:00,ZGNN 310400Z 36004MPS 330V030 7000 FEW007 SCT009 OVC026 19/16 Q1024 NOSIG
ZGNN,2015-10-31 05:00,ZGNN 310500Z 35004MPS 9999 SCT010 OVC030 19/16 Q1023 NOSIG
ZGNN,2015-10-31 06:00,ZGNN 310600Z 35004MPS 9999 SCT010 OVC030 19/16 Q1022 NOSIG
ZGNN,2015-10-31 07:00,ZGNN 310700Z 36004MPS 9999 -RA FEW008 SCT011 OVC026 18/17 Q1022 NOSIG
ZGNN,2015-10-31 08:00,ZGNN 310800Z 35003MPS 9999 -RA FEW008 SCT011 OVC026 18/16 Q1022 NOSIG
ZGNN,2015-10-31 09:00,ZGNN 310900Z 36004MPS 9999 -RA FEW008 SCT011 OVC026 18/16 Q1022 NOSIG
ZGNN,2015-10-31 10:00,ZGNN 311000Z 35004MPS 9999 -RA FEW008 SCT011 OVC026 17/16 Q1023 NOSIG
ZGNN,2015-10-31 11:00,ZGNN 311100Z 34004MPS 9999 -RA FEW008 SCT011 OVC026 17/15 Q1023 NOSIG
ZGNN,2015-10-31 12:00,ZGNN 311200Z 35004MPS 9999 SCT015 OVC030 17/15 Q1024 NOSIG
ZGNN,2015-10-31 13:00,ZGNN 311300Z 35004MPS 9999 FEW015 OVC026 17/15 Q1024 NOSIG
ZGNN,2015-10-31 14:00,ZGNN 311400Z 35004MPS 9999 OVC026 17/15 Q1025 NOSIG
ZGNN,2015-10-31 15:00,ZGNN 311500Z 36004MPS 9999 OVC026 18/15 Q1025 NOSIG
ZGNN,2015-10-31 16:00,ZGNN 311600Z 35003MPS 9999 OVC033 18/15 Q1025 NOSIG
ZGNN,2015-10-31 17:00,ZGNN 311700Z 35003MPS 9999 OVC033 18/14 Q1025 NOSIG
ZGNN,2015-10-31 18:00,ZGNN 311800Z 35003MPS 320V020 9999 OVC033 17/14 Q1025 NOSIG
ZGNN,2015-10-31 19:00,ZGNN 311900Z 34004MPS 9999 OVC033 17/14 Q1024 NOSIG
ZGNN,2015-10-31 20:00,ZGNN 312000Z 34004MPS 9999 OVC030 17/14 Q1024 NOSIG
ZGNN,2015-10-31 21:00,ZGNN 312100Z 36005MPS 330V030 9999 OVC026 17/14 Q1024 NOSIG
ZGNN,2015-10-31 22:00,ZGNN 312200Z 35005MPS 9999 OVC026 17/14 Q1025 NOSIG
ZGNN,2015-10-31 23:00,ZGNN 312300Z 35004MPS 9999 OVC033 17/13 Q1026 NOSIG
ZGNN,2015-11-01 05:00,ZGNN 010500Z 36004MPS 320V030 9999 FEW016 SCT026 19/14 Q1025 NOSIG
ZGNN,2015-11-01 06:00,ZGNN 010600Z 35004MPS 320V030 9999 SCT020 20/14 Q1024 NOSIG
ZGNN,2015-11-01 07:00,ZGNN 010700Z 34005MPS 9999 SCT020 19/14 Q1024 NOSIG
ZGNN,2015-11-01 08:00,ZGNN 010800Z 36005MPS 9999 SCT023 19/13 Q1023 NOSIG
ZGNN,2015-11-01 09:00,ZGNN 010900Z 35004MPS 320V020 9999 FEW023 19/14 Q1023 NOSIG
ZGNN,2015-11-01 10:00,ZGNN 011000Z 35003MPS CAVOK 18/13 Q1023 NOSIG
ZGNN,2015-11-01 11:00,ZGNN 011100Z 34002MPS 300V010 CAVOK 17/13 Q1024 NOSIG
ZGNN,2015-11-01 12:00,ZGNN 011200Z 35002MPS 330V030 CAVOK 17/13 Q1024 NOSIG
ZGNN,2015-11-01 13:00,ZGNN 011300Z 35002MPS 320V020 CAVOK 17/13 Q1025 NOSIG
ZGNN,2015-11-01 14:00,ZGNN 011400Z 01002MPS CAVOK 17/14 Q1025 NOSIG
ZGNN,2015-11-01 15:00,ZGNN 011500Z VRB01MPS CAVOK 16/13 Q1025 NOSIG
ZGNN,2015-11-01 16:00,ZGNN 011600Z VRB01MPS CAVOK 16/14 Q1024 NOSIG
ZGNN,2015-11-01 17:00,ZGNN 011700Z 00000MPS CAVOK 16/14 Q1024 NOSIG
ZGNN,2015-11-01 18:00,ZGNN 011800Z 30001MPS CAVOK 15/14 Q1024 NOSIG
ZGNN,2015-11-01 19:00,ZGNN 011900Z VRB01MPS CAVOK 15/13 Q1023 NOSIG
ZGNN,2015-11-01 20:00,ZGNN 012000Z 00000MPS CAVOK 15/14 Q1023 NOSIG
ZGNN,2015-11-01 21:00,ZGNN 012100Z 00000MPS 8000 NSC 14/14 Q1023 NOSIG
ZGNN,2015-11-01 22:00,ZGNN 012200Z VRB01MPS 8000 NSC 14/14 Q1023 NOSIG
ZGNN,2015-11-01 23:00,ZGNN 012300Z 00000MPS 6000 NSC 14/14 Q1023 NOSIG
ZGNN,2015-11-02 00:00,ZGNN 020000Z VRB01MPS 7000 NSC 16/15 Q1024 NOSIG
ZGNN,2015-11-02 01:00,ZGNN 020100Z VRB01MPS 8000 NSC 18/14 Q1024 NOSIG
ZGNN,2015-11-02 02:00,ZGNN 020200Z VRB02MPS 9999 FEW020 19/13 Q1024 NOSIG
ZGNN,2015-11-02 03:00,ZGNN 020300Z 03003MPS 360V060 CAVOK 21/13 Q1023 NOSIG
ZGNN,2015-11-02 04:00,ZGNN 020400Z 34003MPS 290V060 CAVOK 23/12 Q1022 NOSIG
ZGNN,2015-11-02 05:00,ZGNN 020500Z 04002MPS 340V110 CAVOK 23/12 Q1021 NOSIG
ZGNN,2015-11-02 06:00,ZGNN 020600Z 36002MPS CAVOK 23/13 Q1020 NOSIG
ZGNN,2015-11-02 07:00,ZGNN 020700Z 34003MPS 260V030 CAVOK 24/12 Q1019 NOSIG
ZGNN,2015-11-02 08:00,ZGNN 020800Z 36003MPS 330V040 CAVOK 24/12 Q1019 NOSIG
ZGNN,2015-11-02 09:00,ZGNN 020900Z 35003MPS CAVOK 23/13 Q1019 NOSIG
ZGNN,2015-11-02 10:00,ZGNN 021000Z 33003MPS CAVOK 21/14 Q1019 NOSIG
ZGNN,2015-11-02 11:00,ZGNN 021100Z 03002MPS CAVOK 21/14 Q1020 NOSIG
ZGNN,2015-11-02 12:00,ZGNN 021200Z VRB02MPS CAVOK 20/14 Q1021 NOSIG
ZGNN,2015-11-02 13:00,ZGNN 021300Z 07002MPS CAVOK 19/13 Q1021 NOSIG
ZGNN,2015-11-02 14:00,ZGNN 021400Z 07002MPS 030V160 CAVOK 19/14 Q1021 NOSIG
ZGNN,2015-11-02 15:00,ZGNN 021500Z 04002MPS CAVOK 18/14 Q1021 NOSIG
ZGNN,2015-11-02 16:00,ZGNN 021600Z 04002MPS CAVOK 18/13 Q1021 NOSIG
ZGNN,2015-11-02 17:00,ZGNN 021700Z VRB01MPS CAVOK 17/14 Q1020 NOSIG
ZGNN,2015-11-02 18:00,ZGNN 021800Z VRB01MPS CAVOK 17/15 Q1020 NOSIG
ZGNN,2015-11-02 19:00,ZGNN 021900Z VRB01MPS 7000 NSC 16/15 Q1020 NOSIG
ZGNN,2015-11-02 20:00,ZGNN 022000Z 00000MPS 7000 NSC 17/15 Q1019 NOSIG
ZGNN,2015-11-02 21:00,ZGNN 022100Z VRB01MPS 7000 NSC 17/15 Q1019 NOSIG
ZGNN,2015-11-02 22:00,ZGNN 022200Z 00000MPS 8000 NSC 17/15 Q1020 NOSIG
ZGNN,2015-11-02 23:00,ZGNN 022300Z 21001MPS 8000 BKN040 16/15 Q1020 NOSIG
ZGNN,2015-11-03 00:00,ZGNN 030000Z VRB01MPS 8000 NSC 18/15 Q1021 NOSIG
ZGNN,2015-11-03 01:00,ZGNN 030100Z VRB01MPS 6000 SCT036 19/16 Q1021 NOSIG
ZGNN,2015-11-03 02:00,ZGNN 030200Z 08002MPS 050V110 9999 BKN040 20/13 Q1022 NOSIG
ZGNN,2015-11-03 03:00,ZGNN 030300Z 05002MPS 320V090 9999 BKN033 22/14 Q1021 NOSIG
ZGNN,2015-11-03 04:00,ZGNN 030400Z 06003MPS 030V100 9999 BKN036 23/14 Q1020 NOSIG
ZGNN,2015-11-03 05:00,ZGNN 030500Z 02003MPS 320V090 9999 FEW030 24/14 Q1019 NOSIG
ZGNN,2015-11-03 06:00,ZGNN 030600Z VRB01MPS 9999 BKN046 24/15 Q1018 NOSIG
ZGNN,2015-11-03 07:00,ZGNN 030700Z 11002MPS 020V190 9999 FEW030 24/16 Q1017 NOSIG
ZGNN,2015-11-03 08:00,ZGNN 030800Z 04004MPS 020V120 CAVOK 24/16 Q1017 NOSIG
ZGNN,2015-11-03 09:00,ZGNN 030900Z 05003MPS CAVOK 23/16 Q1017 NOSIG
ZGNN,2015-11-03 10:00,ZGNN 031000Z 08002MPS 9999 BKN040 23/16 Q1018 NOSIG
ZGNN,2015-11-03 11:00,ZGNN 031100Z 07003MPS 030V120 9999 BKN043 23/16 Q1018 NOSIG
ZGNN,2015-11-03 12:00,ZGNN 031200Z 05002MPS 7000 NSC 21/17 Q1018 NOSIG
ZGNN,2015-11-03 13:00,ZGNN 031300Z 04002MPS 010V070 6000 NSC 21/17 Q1018 NOSIG
ZGNN,2015-11-03 14:00,ZGNN 031400Z 01003MPS 6000 NSC 21/17 Q1019 NOSIG
ZGNN,2015-11-03 15:00,ZGNN 031500Z 05002MPS 020V100 6000 NSC 21/16 Q1019 NOSIG
ZGNN,2015-11-03 16:00,ZGNN 031600Z VRB01MPS 6000 NSC 20/17 Q1019 NOSIG
ZGNN,2015-11-03 17:00,ZGNN 031700Z 09001MPS 6000 NSC 20/16 Q1019 NOSIG
ZGNN,2015-11-03 18:00,ZGNN 031800Z VRB01MPS 6000 NSC 20/16 Q1019 NOSIG
ZGNN,2015-11-03 19:00,ZGNN 031900Z 28001MPS 6000 NSC 19/17 Q1019 NOSIG
ZGNN,2015-11-03 20:00,ZGNN 032000Z 08002MPS 7000 OVC033 20/16 Q1018 NOSIG
ZGNN,2015-11-03 21:00,ZGNN 032100Z 04003MPS 6000 OVC030 20/16 Q1018 NOSIG
ZGNN,2015-11-03 22:00,ZGNN 032200Z 08002MPS 7000 BKN026 19/16 Q1018 NOSIG
ZGNN,2015-11-03 23:00,ZGNN 032300Z 05003MPS CAVOK 19/16 Q1019 NOSIG
ZGNN,2015-11-04 00:00,ZGNN 040000Z 06003MPS 9999 SCT030 20/16 Q1019 NOSIG
ZGNN,2015-11-04 01:00,ZGNN 040100Z 07003MPS 9999 SCT030 21/16 Q1020 NOSIG
ZGNN,2015-11-04 02:00,ZGNN 040200Z 06003MPS 9999 SCT023 22/17 Q1020 NOSIG
ZGNN,2015-11-04 03:00,ZGNN 040300Z 08003MPS 050V110 8000 SCT023 23/17 Q1019 NOSIG
ZGNN,2015-11-04 04:00,ZGNN 040400Z 09003MPS 030V170 CAVOK 25/18 Q1018 NOSIG
ZGNN,2015-11-04 05:00,ZGNN 040500Z 13003MPS 070V170 9999 SCT030 26/18 Q1017 NOSIG
ZGNN,2015-11-04 06:00,ZGNN 040600Z 35005MPS 9999 SCT030 24/18 Q1017 NOSIG
ZGNN,2015-11-04 07:00,ZGNN 040700Z 36004MPS 9999 SCT030 25/18 Q1016 NOSIG
ZGNN,2015-11-04 08:00,ZGNN 040800Z 06004MPS 9999 SCT033 26/18 Q1016 NOSIG
ZGNN,2015-11-04 09:00,ZGNN 040900Z 05003MPS 9999 FEW040 25/19 Q1016 NOSIG
ZGNN,2015-11-04 10:00,ZGNN 041000Z 06004MPS CAVOK 25/18 Q1016 NOSIG
ZGNN,2015-11-04 11:00,ZGNN 041100Z 03002MPS 7000 NSC 23/19 Q1016 NOSIG
ZGNN,2015-11-04 12:00,ZGNN 041200Z 36002MPS 330V040 6000 NSC 22/19 Q1017 NOSIG
ZGNN,2015-11-04 13:00,ZGNN 041300Z 01001MPS 6000 NSC 22/19 Q1017 NOSIG
ZGNN,2015-11-04 14:00,ZGNN 041400Z 04002MPS 6000 NSC 21/18 Q1017 NOSIG
ZGNN,2015-11-04 15:00,ZGNN 041500Z 03002MPS 5000 BR NSC 21/19 Q1018 NOSIG
ZGNN,2015-11-04 16:00,ZGNN 041600Z VRB01MPS 5000 BR SCT033 20/18 Q1018 NOSIG
ZGNN,2015-11-04 17:00,ZGNN 041700Z 00000MPS 5000 BR SCT030 20/19 Q1017 NOSIG
ZGNN,2015-11-04 18:00,ZGNN 041800Z VRB01MPS 4000 BR SCT030 20/19 Q1017 NOSIG
ZGNN,2015-11-04 19:00,ZGNN 041900Z 06002MPS 030V090 4000 BR NSC 20/19 Q1016 NOSIG
ZGNN,2015-11-04 20:00,ZGNN 042000Z 07003MPS 5000 BR FEW023 20/18 Q1016 NOSIG
ZGNN,2015-11-04 21:00,ZGNN 042100Z 03002MPS 4000 BR SCT020 20/18 Q1016 NOSIG
ZGNN,2015-11-04 22:00,ZGNN 042200Z 03002MPS 4000 BR FEW013 SCT020 20/18 Q1017 NOSIG
ZGNN,2015-11-04 23:00,ZGNN 042300Z 06002MPS 4000 BR FEW013 SCT020 20/18 Q1017 NOSIG
ZGNN,2015-11-05 00:00,ZGNN 050000Z 09002MPS 4000 BR NSC 21/18 Q1017 NOSIG
ZGNN,2015-11-05 01:00,ZGNN 050100Z VRB01MPS 4000 BR SCT013 22/18 Q1018 NOSIG
ZGNN,2015-11-05 02:00,ZGNN 050200Z 09002MPS 070V130 5000 BR SCT013 22/18 Q1018 NOSIG
ZGNN,2015-11-05 03:00,ZGNN 050300Z 09002MPS 030V130 5000 BR FEW013 24/20 Q1018 NOSIG
ZGNN,2015-11-05 04:00,ZGNN 050400Z 10002MPS 050V150 6000 NSC 26/20 Q1016 NOSIG
ZGNN,2015-11-05 05:00,ZGNN 050500Z 14004MPS 080V180 9999 SCT026 28/21 Q1015 NOSIG
ZGNN,2015-11-05 06:00,ZGNN 050600Z 20004MPS 170V230 9999 SCT026 28/21 Q1014 NOSIG
ZGNN,2015-11-05 07:00,ZGNN 050700Z 15003MPS 110V180 9999 SCT030 29/21 Q1012 NOSIG
ZGNN,2015-11-05 08:00,ZGNN 050800Z 15004MPS 9999 SCT030 29/21 Q1012 NOSIG
ZGNN,2015-11-05 09:00,ZGNN 050900Z 15003MPS 9999 SCT040 28/21 Q1012 NOSIG
ZGNN,2015-11-05 10:00,ZGNN 051000Z 15002MPS 110V180 CAVOK 27/21 Q1013 NOSIG
ZGNN,2015-11-05 11:00,ZGNN 051100Z 15002MPS 130V190 CAVOK 26/21 Q1013 NOSIG
ZGNN,2015-11-05 12:00,ZGNN 051200Z 15002MPS 110V200 8000 NSC 25/21 Q1014 NOSIG
ZGNN,2015-11-05 13:00,ZGNN 051300Z 19003MPS 160V220 9999 SCT043 25/21 Q1015 NOSIG
ZGNN,2015-11-05 14:00,ZGNN 051400Z VRB01MPS CAVOK 24/21 Q1015 NOSIG
ZGNN,2015-11-05 15:00,ZGNN 051500Z VRB01MPS CAVOK 24/21 Q1015 NOSIG
ZGNN,2015-11-05 16:00,ZGNN 051600Z VRB01MPS 6000 NSC 23/20 Q1014 NOSIG
ZGNN,2015-11-05 17:00,ZGNN 051700Z VRB01MPS 5000 BR SCT013 23/21 Q1014 NOSIG
ZGNN,2015-11-05 18:00,ZGNN 051800Z VRB01MPS 4500 BR SCT011 22/21 Q1014 NOSIG
ZGNN,2015-11-05 19:00,ZGNN 051900Z VRB01MPS 4500 BR FEW013 23/21 Q1014 NOSIG
ZGNN,2015-11-05 20:00,ZGNN 052000Z VRB01MPS 4500 BR NSC 23/22 Q1013 NOSIG
ZGNN,2015-11-05 21:00,ZGNN 052100Z 01001MPS 4500 BR NSC 23/22 Q1013 NOSIG
ZGNN,2015-11-05 22:00,ZGNN 052200Z 33001MPS 4500 BR FEW009 23/22 Q1013 NOSIG
ZGNN,2015-11-05 23:00,ZGNN 052300Z 04001MPS 4000 BR SCT010 23/22 Q1014 NOSIG
ZGNN,2015-11-06 00:00,ZGNN 060000Z VRB01MPS 3100 BR SCT010 23/22 Q1015 NOSIG
ZGNN,2015-11-06 01:00,ZGNN 060100Z VRB01MPS 5000 BR SCT007 SCT009 25/23 Q1015 NOSIG
ZGNN,2015-11-06 02:00,ZGNN 060200Z 17002MPS 120V260 9999 SCT016 26/22 Q1016 NOSIG
ZGNN,2015-11-06 03:00,ZGNN 060300Z 16002MPS 140V200 9999 SCT020 28/22 Q1016 NOSIG
ZGNN,2015-11-06 04:00,ZGNN 060400Z 17002MPS 130V210 9999 SCT023 28/22 Q1015 NOSIG
ZGNN,2015-11-06 05:00,ZGNN 060500Z 16003MPS 130V200 9999 FEW023 28/22 Q1014 NOSIG
ZGNN,2015-11-06 06:00,ZGNN 060600Z 20003MPS 160V240 9999 SCT023 30/22 Q1012 NOSIG
ZGNN,2015-11-06 07:00,ZGNN 060700Z 16004MPS 140V200 9999 SCT026 29/22 Q1012 NOSIG
ZGNN,2015-11-06 08:00,ZGNN 060800Z 16003MPS 130V200 9999 -RA SCT023 28/23 Q1011 NOSIG
ZGNN,2015-11-06 09:00,ZGNN 060900Z 18004MPS 9999 -SHRA SCT023 FEW026TCU 26/24 Q1012 NOSIG
ZGNN,2015-11-06 10:00,ZGNN 061000Z 14002MPS CAVOK 25/22 Q1012 NOSIG
ZGNN,2015-11-06 11:00,ZGNN 061100Z VRB01MPS CAVOK 25/23 Q1013 NOSIG
ZGNN,2015-11-06 12:00,ZGNN 061200Z 14002MPS 110V200 CAVOK 25/23 Q1013 NOSIG
ZGNN,2015-11-06 13:00,ZGNN 061300Z VRB01MPS CAVOK 25/23 Q1014 NOSIG
ZGNN,2015-11-06 14:00,ZGNN 061400Z VRB01MPS 9999 FEW013 24/23 Q1014 NOSIG
ZGNN,2015-11-06 15:00,ZGNN 061500Z 16001MPS 9999 SCT011 SCT015 25/23 Q1015 NOSIG
ZGNN,2015-11-06 16:00,ZGNN 061600Z VRB01MPS 9999 SCT011 SCT015 24/23 Q1014 NOSIG
ZGNN,2015-11-06 17:00,ZGNN 061700Z VRB01MPS 9999 SCT010 BKN030 25/23 Q1014 NOSIG
ZGNN,2015-11-06 18:00,ZGNN 061800Z 16001MPS 9999 FEW010 24/23 Q1014 NOSIG
ZGNN,2015-11-06 19:00,ZGNN 061900Z VRB01MPS 7000 FEW010 24/23 Q1014 NOSIG
ZGNN,2015-11-06 20:00,ZGNN 062000Z VRB01MPS 6000 FEW015 SCT033 24/23 Q1013 NOSIG
ZGNN,2015-11-06 21:00,ZGNN 062100Z VRB01MPS 5000 BR BKN033 24/23 Q1014 NOSIG
ZGNN,2015-11-06 22:00,ZGNN 062200Z 15001MPS 5000 -RA BR SCT015 BKN033 24/23 Q1014 NOSIG
ZGNN,2015-11-06 23:00,ZGNN 062300Z VRB01MPS 6000 SCT008 BKN033 24/24 Q1015 NOSIG
ZGNN,2015-11-07 00:00,ZGNN 070000Z 14001MPS 7000 SCT008 OVC033 25/24 Q1016 NOSIG
ZGNN,2015-11-07 01:00,ZGNN 070100Z 13003MPS 6000 SCT009 OVC033 25/24 Q1016 NOSIG
ZGNN,2015-11-07 02:00,ZGNN 070200Z 14003MPS 8000 FEW007 SCT013 BKN033 25/24 Q1017 NOSIG
ZGNN,2015-11-07 03:00,ZGNN 070300Z 16004MPS 8000 -SHRA SCT008 FEW026CB BKN033 24/23 Q1017 BECMG TL0310 2500 SHRA
ZGNN,2015-11-07 04:00,ZGNN 070400Z VRB01MPS 9999 -SHRA FEW008 FEW026CB 24/23 Q1016 RESHRA NOSIG
ZGNN,2015-11-07 05:00,ZGNN 070500Z VRB01MPS 9999 FEW010 SCT026 25/23 Q1015 NOSIG
ZGNN,2015-11-07 06:00,ZGNN 070600Z VRB01MPS 9999 SCT010 SCT026 26/23 Q1014 NOSIG
ZGNN,2015-11-07 07:00,ZGNN 070700Z 15003MPS 9999 FEW010 SCT026 26/23 Q1013 NOSIG
ZGNN,2015-11-07 08:00,ZGNN 070800Z 15003MPS 9999 -SHRA FEW010 SCT023 26/24 Q1013 NOSIG
ZGNN,2015-11-07 09:00,ZGNN 070900Z 15003MPS 110V180 9999 FEW008 25/24 Q1013 NOSIG
ZGNN,2015-11-07 10:00,ZGNN 071000Z 15002MPS 110V210 8000 FEW008 25/24 Q1014 NOSIG
ZGNN,2015-11-07 11:00,ZGNN 071100Z VRB01MPS 6000 FEW007 SCT009 BKN040 25/24 Q1014 NOSIG
ZGNN,2015-11-07 12:00,ZGNN 071200Z VRB01MPS 7000 SCT040 25/24 Q1015 NOSIG
ZGNN,2015-11-07 13:00,ZGNN 071300Z VRB01MPS 7000 SCT013 BKN046 24/23 Q1016 NOSIG
ZGNN,2015-11-07 14:00,ZGNN 071400Z VRB01MPS 6000 SCT046 24/23 Q1016 NOSIG
ZGNN,2015-11-07 15:00,ZGNN 071500Z VRB01MPS 5000 BR NSC 24/23 Q1016 NOSIG
ZGNN,2015-11-07 16:00,ZGNN 071600Z VRB01MPS 5000 BR FEW005 SCT009 BKN033 24/23 Q1016 NOSIG
ZGNN,2015-11-07 17:00,ZGNN 071700Z VRB01MPS 5000 BR FEW007 24/23 Q1016 NOSIG
ZGNN,2015-11-07 18:00,ZGNN 071800Z 00000MPS 4000 BR FEW006 24/23 Q1015 NOSIG
ZGNN,2015-11-07 19:00,ZGNN 071900Z VRB01MPS 3500 BR FEW004 SCT006 24/23 Q1015 NOSIG
ZGNN,2015-11-07 20:00,ZGNN 072000Z VRB01MPS 3300 BR FEW003 SCT006 24/23 Q1015 NOSIG
ZGNN,2015-11-07 21:00,ZGNN 072100Z 00000MPS 3500 BR FEW003 SCT006 24/24 Q1015 NOSIG
ZGNN,2015-11-07 22:00,ZGNN 072200Z 00000MPS 4000 BR FEW003 SCT006 24/24 Q1015 NOSIG
ZGNN,2015-11-07 23:00,ZGNN 072300Z VRB01MPS 3500 BR FEW006 24/24 Q1016 NOSIG
ZGNN,2015-11-08 00:00,ZGNN 080000Z 00000MPS 3500 -RA BR FEW006 24/24 Q1017 NOSIG
ZGNN,2015-11-08 01:00,ZGNN 080100Z VRB01MPS 4000 -RA BR SCT008 25/24 Q1018 NOSIG
ZGNN,2015-11-08 02:00,ZGNN 080200Z VRB01MPS 4000 -RA BR SCT003 OVC040 25/24 Q1018 NOSIG
ZGNN,2015-11-08 03:00,ZGNN 080300Z 18002MPS 150V240 6000 -RA SCT005 OVC040 26/25 Q1018 NOSIG
ZGNN,2015-11-08 04:00,ZGNN 080400Z VRB01MPS 9000 -RA SCT007 OVC040 26/25 Q1017 NOSIG
ZGNN,2015-11-08 05:00,ZGNN 080500Z 19002MPS 9999 -RA SCT010 OVC040 27/25 Q1016 NOSIG
ZGNN,2015-11-08 06:00,ZGNN 080600Z 17002MPS 9999 -RA SCT013 27/24 Q1015 NOSIG
ZGNN,2015-11-08 07:00,ZGNN 080700Z VRB01MPS 9999 SCT013 27/24 Q1014 NOSIG
ZGNN,2015-11-08 08:00,ZGNN 080800Z 16002MPS 9999 SCT013 27/24 Q1014 NOSIG
ZGNN,2015-11-08 09:00,ZGNN 080900Z 15002MPS 120V180 9999 FEW013 FEW026TCU 27/24 Q1014 NOSIG
ZGNN,2015-11-08 10:00,ZGNN 081000Z VRB01MPS 9999 SCT026 26/24 Q1014 NOSIG
ZGNN,2015-11-08 11:00,ZGNN 081100Z 14001MPS 9999 FEW026 25/24 Q1014 NOSIG
ZGNN,2015-11-08 12:00,ZGNN 081200Z VRB01MPS 6000 FEW026 25/24 Q1015 NOSIG
ZGNN,2015-11-08 13:00,ZGNN 081300Z 33002MPS 5000 BR NSC 24/23 Q1016 NOSIG
ZGNN,2015-11-08 14:00,ZGNN 081400Z 00000MPS 5000 BR NSC 24/23 Q1016 NOSIG
ZGNN,2015-11-08 15:00,ZGNN 081500Z 02001MPS 5000 BR NSC 23/23 Q1016 NOSIG
ZGNN,2015-11-08 16:00,ZGNN 081600Z VRB01MPS 5000 BR NSC 23/23 Q1016 NOSIG
ZGNN,2015-11-08 17:00,ZGNN 081700Z 00000MPS 4000 BR NSC 23/23 Q1016 NOSIG
ZGNN,2015-11-08 18:00,ZGNN 081800Z 00000MPS 3100 R05/0800V0900N BR FEW002 23/23 Q1016 NOSIG
ZGNN,2015-11-08 19:00,ZGNN 081900Z VRB01MPS 3100 BR SCT001 23/23 Q1015 NOSIG
ZGNN,2015-11-08 20:00,ZGNN 082000Z 36001MPS 0400 R05/0500N FG VV001 23/23 Q1015 NOSIG
ZGNN,2015-11-08 21:00,ZGNN 082100Z 06001MPS 1800 BR SCT001 24/24 Q1015 NOSIG
ZGNN,2015-11-08 22:00,ZGNN 082200Z VRB01MPS 2800 BR SCT003 24/23 Q1015 BECMG TL2300 3500
ZGNN,2015-11-08 23:00,ZGNN 082300Z 11001MPS 3500 BR FEW002 SCT003 24/24 Q1016 NOSIG
ZGNN,2015-11-09 00:00,ZGNN 090000Z 09003MPS 2400 BR SCT002 SCT003 OVC026 24/23 Q1017 BECMG 3300
ZGNN,2015-11-09 01:00,ZGNN 090100Z 09004MPS 080V150 2500 BR SCT002 SCT003 OVC026 23/22 Q1018 BECMG TL0220 3300
ZGNN,2015-11-09 02:00,ZGNN 090200Z 08005MPS 7000 SCT006 OVC033 22/21 Q1018 BECMG TL0220 3300
ZGNN,2015-11-09 03:00,ZGNN 090300Z 09004MPS 050V140 9999 SCT009 OVC033 22/20 Q1019 NOSIG
ZGNN,2015-11-09 04:00,ZGNN 090400Z 04003MPS 9999 -RA SCT009 OVC033 22/20 Q1018 NOSIG
ZGNN,2015-11-09 05:00,ZGNN 090500Z 07003MPS 030V110 9999 SCT010 OVC033 22/20 Q1018 NOSIG
ZGNN,2015-11-09 06:00,ZGNN 090600Z 04005MPS 9999 -RA SCT016 OVC033 21/19 Q1017 NOSIG
ZGNN,2015-11-09 07:00,ZGNN 090700Z 06004MPS 9999 -RA FEW007 SCT016 OVC033 20/19 Q1016 NOSIG
ZGNN,2015-11-09 08:00,ZGNN 090800Z 06004MPS 9999 SCT008 OVC026 20/19 Q1016 NOSIG
ZGNN,2015-11-09 09:00,ZGNN 090900Z 08003MPS 9999 -RA SCT009 OVC026 20/19 Q1016 NOSIG
ZGNN,2015-11-09 10:00,ZGNN 091000Z 04004MPS 4000 -RA BR FEW004 SCT008 OVC026 19/19 Q1016 NOSIG
ZGNN,2015-11-09 11:00,ZGNN 091100Z 04002MPS 6000 -RA FEW003 SCT008 OVC026 19/18 Q1016 NOSIG
ZGNN,2015-11-09 12:00,ZGNN 091200Z 07002MPS 030V140 9999 SCT007 SCT026 19/18 Q1017 NOSIG
ZGNN,2015-11-09 13:00,ZGNN 091300Z 06002MPS 9999 SCT007 SCT026 19/18 Q1017 NOSIG
ZGNN,2015-11-09 14:00,ZGNN 091400Z VRB01MPS 9999 SCT007 19/18 Q1018 NOSIG
ZGNN,2015-11-09 15:00,ZGNN 091500Z VRB01MPS 9999 -RA SCT016 19/18 Q1018 NOSIG
ZGNN,2015-11-09 16:00,ZGNN 091600Z 01001MPS 7000 -RA SCT016 OVC040 19/18 Q1018 NOSIG
ZGNN,2015-11-09 17:00,ZGNN 091700Z 03002MPS 6000 FEW016 OVC033 19/18 Q1018 NOSIG
ZGNN,2015-11-09 18:00,ZGNN 091800Z 07002MPS 7000 FEW016 OVC030 19/18 Q1017 NOSIG
ZGNN,2015-11-09 19:00,ZGNN 091900Z 08002MPS 040V110 5000 -RA BR FEW008 SCT016 OVC030 19/18 Q1017 NOSIG
ZGNN,2015-11-09 20:00,ZGNN 092000Z 05003MPS 5000 -RA BR FEW008 SCT016 OVC030 18/18 Q1016 NOSIG
ZGNN,2015-11-09 21:00,ZGNN 092100Z 06002MPS 5000 BR BKN016 OVC030 18/18 Q1017 NOSIG
ZGNN,2015-11-09 22:00,ZGNN 092200Z 05002MPS 5000 BR BKN016 OVC030 18/18 Q1017 NOSIG
ZGNN,2015-11-09 23:00,ZGNN 092300Z 05002MPS 5000 BR SCT016 OVC030 19/18 Q1017 NOSIG
ZGNN,2015-11-10 00:00,ZGNN 100000Z 05003MPS 6000 FEW008 SCT016 OVC030 19/18 Q1018 NOSIG
ZGNN,2015-11-10 01:00,ZGNN 100100Z 07003MPS 8000 FEW009 SCT016 OVC030 19/17 Q1018 NOSIG
ZGNN,2015-11-10 02:00,ZGNN 100200Z 07003MPS 8000 SCT013 OVC033 20/18 Q1019 NOSIG
ZGNN,2015-11-10 03:00,ZGNN 100300Z 08003MPS 060V120 9999 SCT013 OVC033 20/18 Q1018 NOSIG
ZGNN,2015-11-10 04:00,ZGNN 100400Z 08003MPS 030V150 9999 SCT013 OVC033 21/18 Q1018 NOSIG
ZGNN,2015-11-10 05:00,ZGNN 100500Z 09002MPS 070V150 7000 SCT011 OVC033 20/18 Q1017 NOSIG
ZGNN,2015-11-10 06:00,ZGNN 100600Z 07003MPS 6000 SCT011 OVC033 21/19 Q1015 NOSIG
ZGNN,2015-11-10 07:00,ZGNN 100700Z 09003MPS 080V150 8000 SCT011 OVC033 21/18 Q1015 NOSIG
ZGNN,2015-11-10 08:00,ZGNN 100800Z 05003MPS 8000 SCT011 OVC033 21/18 Q1015 NOSIG
ZGNN,2015-11-10 09:00,ZGNN 100900Z 04003MPS 7000 SCT013 OVC033 20/18 Q1015 NOSIG
ZGNN,2015-11-10 10:00,ZGNN 101000Z 10002MPS 070V190 7000 SCT010 OVC033 20/18 Q1015 NOSIG
ZGNN,2015-11-10 11:00,ZGNN 101100Z 09003MPS 040V160 7000 SCT013 OVC033 20/18 Q1015 NOSIG
ZGNN,2015-11-10 12:00,ZGNN 101200Z 09002MPS 050V200 7000 SCT013 OVC033 20/18 Q1016 NOSIG
ZGNN,2015-11-10 13:00,ZGNN 101300Z 09004MPS 6000 SCT010 OVC030 20/18 Q1016 NOSIG
ZGNN,2015-11-10 14:00,ZGNN 101400Z 07003MPS 030V100 5000 BR SCT010 OVC030 19/18 Q1017 NOSIG
ZGNN,2015-11-10 15:00,ZGNN 101500Z 08004MPS 5000 BR SCT010 OVC030 19/18 Q1017 NOSIG
ZGNN,2015-11-10 16:00,ZGNN 101600Z 08002MPS 6000 SCT010 OVC030 19/18 Q1017 NOSIG
ZGNN,2015-11-10 17:00,ZGNN 101700Z 09003MPS 6000 SCT010 OVC030 19/18 Q1016 NOSIG
ZGNN,2015-11-10 18:00,ZGNN 101800Z 07003MPS 6000 SCT009 OVC030 19/17 Q1016 NOSIG
ZGNN,2015-11-10 19:00,ZGNN 101900Z 07003MPS 6000 SCT009 OVC030 19/17 Q1016 NOSIG
ZGNN,2015-11-10 20:00,ZGNN 102000Z 10002MPS 5000 BR SCT009 OVC030 19/18 Q1016 NOSIG
ZGNN,2015-11-10 21:00,ZGNN 102100Z 05002MPS 5000 BR SCT008 OVC030 19/18 Q1016 NOSIG
ZGNN,2015-11-10 22:00,ZGNN 102200Z 08002MPS 5000 BR FEW007 SCT009 OVC030 19/18 Q1016 NOSIG
ZGNN,2015-11-10 23:00,ZGNN 102300Z 04002MPS 4000 BR FEW007 SCT009 OVC030 19/18 Q1016 NOSIG
ZGNN,2015-11-11 00:00,ZGNN 110000Z 04002MPS 020V090 3500 BR FEW007 SCT009 OVC030 19/18 Q1017 NOSIG
ZGNN,2015-11-11 01:00,ZGNN 110100Z 09002MPS 060V120 4000 BR FEW007 SCT009 OVC030 19/18 Q1017 NOSIG
ZGNN,2015-11-11 02:00,ZGNN 110200Z 07003MPS 040V100 5000 BR FEW007 SCT009 OVC030 20/18 Q1018 NOSIG
ZGNN,2015-11-11 03:00,ZGNN 110300Z 09003MPS 060V140 5000 BR FEW007 SCT009 OVC030 20/18 Q1018 NOSIG
ZGNN,2015-11-11 04:00,ZGNN 110400Z 09002MPS 060V130 5000 BR SCT009 OVC030 20/18 Q1017 NOSIG
ZGNN,2015-11-11 05:00,ZGNN 110500Z 05002MPS 4000 BR SCT009 OVC030 20/19 Q1016 NOSIG
ZGNN,2015-11-11 06:00,ZGNN 110600Z 06004MPS 3100 -RA BR SCT006 SCT008 OVC026 20/19 Q1015 NOSIG
ZGNN,2015-11-11 07:00,ZGNN 110700Z 05003MPS 030V120 4000 BR FEW008 SCT010 OVC026 21/19 Q1014 NOSIG
ZGNN,2015-11-11 08:00,ZGNN 110800Z 07003MPS 5000 BR FEW008 SCT010 OVC026 21/19 Q1014 NOSIG
ZGNN,2015-11-11 09:00,ZGNN 110900Z 07004MPS 5000 BR FEW008 SCT010 OVC026 21/19 Q1014 NOSIG
ZGNN,2015-11-11 10:00,ZGNN 111000Z 08004MPS 060V120 5000 BR FEW008 SCT010 OVC026 20/19 Q1014 NOSIG
ZGNN,2015-11-11 11:00,ZGNN 111100Z 06004MPS 6000 FEW008 SCT010 OVC030 20/19 Q1015 NOSIG
ZGNN,2015-11-11 12:00,ZGNN 111200Z 08004MPS 050V110 7000 -RA FEW009 SCT011 OVC030 20/18 Q1015 NOSIG
ZGNN,2015-11-11 13:00,ZGNN 111300Z 07003MPS 8000 FEW009 SCT011 OVC030 19/18 Q1016 NOSIG
ZGNN,2015-11-11 14:00,ZGNN 111400Z 06002MPS 360V120 9000 FEW009 SCT011 OVC030 19/18 Q1016 NOSIG
ZGNN,2015-11-11 15:00,ZGNN 111500Z 08002MPS 9999 FEW007 SCT009 OVC030 19/18 Q1017 NOSIG
ZGNN,2015-11-11 16:00,ZGNN 111600Z VRB01MPS 9999 FEW006 SCT008 OVC026 19/18 Q1017 NOSIG
ZGNN,2015-11-11 17:00,ZGNN 111700Z 07003MPS 6000 -RA FEW004 SCT005 OVC023 19/18 Q1017 NOSIG
ZGNN,2015-11-11 18:00,ZGNN 111800Z 04003MPS 6000 -RA FEW003 SCT005 OVC023 19/18 Q1016 NOSIG
ZGNN,2015-11-11 19:00,ZGNN 111900Z 04004MPS 9000 SCT005 OVC030 18/18 Q1016 NOSIG
ZGNN,2015-11-11 20:00,ZGNN 112000Z 05003MPS 9999 SCT008 OVC030 18/18 Q1016 NOSIG
ZGNN,2015-11-11 21:00,ZGNN 112100Z 04002MPS 9999 SCT008 OVC030 18/18 Q1016 NOSIG
ZGNN,2015-11-11 22:00,ZGNN 112200Z 08002MPS 9999 SCT006 OVC030 18/18 Q1016 NOSIG
ZGNN,2015-11-11 23:00,ZGNN 112300Z 07003MPS 6000 -RA FEW003 SCT006 OVC026 18/17 Q1016 NOSIG
ZGNN,2015-11-12 00:00,ZGNN 120000Z 05003MPS 9999 FEW003 SCT006 OVC026 18/17 Q1017 NOSIG
ZGNN,2015-11-12 01:00,ZGNN 120100Z 06003MPS 9999 FEW006 SCT013 OVC026 18/17 Q1018 NOSIG
ZGNN,2015-11-12 02:00,ZGNN 120200Z 06002MPS 360V100 9999 FEW007 SCT013 OVC026 19/17 Q1018 NOSIG
ZGNN,2015-11-12 03:00,ZGNN 120300Z 06003MPS 020V100 9999 SCT010 OVC030 19/17 Q1018 NOSIG
ZGNN,2015-11-12 04:00,ZGNN 120400Z 06004MPS 9999 SCT010 OVC030 20/17 Q1017 NOSIG
ZGNN,2015-11-12 05:00,ZGNN 120500Z 05004MPS 9999 SCT010 OVC030 20/17 Q1017 NOSIG
ZGNN,2015-11-12 06:00,ZGNN 120600Z 02003MPS 9999 SCT010 OVC030 20/17 Q1017 NOSIG
ZGNN,2015-11-12 07:00,ZGNN 120700Z 36003MPS 1800 -DZ BR FEW003 SCT007 OVC026 19/18 Q1016 BECMG TL0850 3100 BR
ZGNN,2015-11-12 08:00,ZGNN 120800Z 36004MPS 9999 FEW005 SCT008 OVC030 18/17 Q1016 NOSIG
ZGNN,2015-11-12 09:00,ZGNN 120900Z 03004MPS 9999 FEW005 SCT008 OVC030 18/17 Q1016 NOSIG
ZGNN,2015-11-12 10:00,ZGNN 121000Z 04003MPS 9999 SCT009 OVC026 18/17 Q1016 NOSIG
ZGNN,2015-11-12 11:00,ZGNN 121100Z 09003MPS 9999 SCT008 OVC026 18/17 Q1017 NOSIG
ZGNN,2015-11-12 12:00,ZGNN 121200Z 07004MPS 9999 FEW010 OVC033 17/15 Q1017 NOSIG
ZGNN,2015-11-12 13:00,ZGNN 121300Z 03002MPS 9999 SCT009 OVC033 17/16 Q1018 NOSIG
ZGNN,2015-11-12 14:00,ZGNN 121400Z 03002MPS 9999 SCT009 OVC033 17/16 Q1018 NOSIG
ZGNN,2015-11-12 15:00,ZGNN 121500Z 02002MPS 350V050 9999 SCT009 OVC026 17/16 Q1018 NOSIG
ZGNN,2015-11-12 16:00,ZGNN 121600Z 05002MPS 9999 SCT011 OVC026 17/16 Q1018 NOSIG
ZGNN,2015-11-12 17:00,ZGNN 121700Z 05003MPS 9999 -RA SCT011 OVC026 17/16 Q1017 NOSIG
ZGNN,2015-11-12 18:00,ZGNN 121800Z 09002MPS 9999 -RA FEW004 SCT008 OVC026 17/16 Q1017 NOSIG
ZGNN,2015-11-12 19:00,ZGNN 121900Z 08003MPS 9999 -RA FEW004 SCT008 OVC026 16/16 Q1017 NOSIG
ZGNN,2015-11-12 20:00,ZGNN 122000Z 06002MPS 9999 -RA FEW004 SCT008 OVC026 16/16 Q1017 NOSIG
ZGNN,2015-11-12 21:00,ZGNN 122100Z 08003MPS 7000 -RA FEW004 SCT008 OVC026 16/16 Q1016 NOSIG
ZGNN,2015-11-12 22:00,ZGNN 122200Z 08002MPS 7000 -RA FEW004 SCT008 OVC026 16/16 Q1017 NOSIG
ZGNN,2015-11-12 23:00,ZGNN 122300Z VRB01MPS 9999 -RA FEW004 SCT008 OVC026 15/15 Q1017 NOSIG
ZGNN,2015-11-13 00:00,ZGNN 130000Z VRB01MPS 9999 -RA FEW004 SCT008 OVC026 15/15 Q1018 NOSIG
ZGNN,2015-11-13 01:00,ZGNN 130100Z 35004MPS 320V020 9999 -SHRA FEW004 SCT007 FEW026CB OVC030 16/16 Q1019 NOSIG
ZGNN,2015-11-13 02:00,ZGNN 130200Z 02002MPS 8000 -SHRA SCT007 FEW026CB BKN030 16/16 Q1019 NOSIG
ZGNN,2015-11-13 03:00,ZGNN 130300Z VRB01MPS 6000 -SHRA FEW004 SCT009 OVC040 16/16 Q1019 NOSIG
ZGNN,2015-11-13 04:00,ZGNN 130400Z 34002MPS 300V020 9999 -RA FEW004 SCT009 OVC040 17/16 Q1018 NOSIG
ZGNN,2015-11-13 05:00,ZGNN 130500Z 05002MPS 330V090 9999 FEW005 SCT009 OVC040 17/16 Q1018 NOSIG
ZGNN,2015-11-13 06:00,ZGNN 130600Z 34002MPS 280V020 9999 -RA FEW006 SCT009 OVC033 18/16 Q1017 NOSIG
ZGNN,2015-11-13 07:00,ZGNN 130700Z VRB01MPS 9999 FEW007 SCT010 OVC033 18/16 Q1016 NOSIG
ZGNN,2015-11-13 08:00,ZGNN 130800Z VRB01MPS 9999 SCT010 OVC033 18/16 Q1016 NOSIG
ZGNN,2015-11-13 09:00,ZGNN 130900Z 02002MPS 340V060 9999 SCT010 OVC040 18/16 Q1016 NOSIG
ZGNN,2015-11-13 10:00,ZGNN 131000Z 36002MPS 330V030 9999 SCT010 OVC040 18/16 Q1016 NOSIG
ZGNN,2015-11-13 11:00,ZGNN 131100Z 05003MPS 4000 -RA BR FEW006 SCT010 OVC033 17/16 Q1016 NOSIG
ZGNN,2015-11-13 12:00,ZGNN 131200Z 08004MPS 5000 BR FEW003 SCT006 OVC030 16/16 Q1016 NOSIG
ZGNN,2015-11-13 13:00,ZGNN 131300Z 02002MPS 9999 FEW007 SCT013 OVC033 17/16 Q1017 NOSIG
ZGNN,2015-11-13 14:00,ZGNN 131400Z VRB01MPS 9999 FEW007 SCT013 OVC033 16/16 Q1018 NOSIG
ZGNN,2015-11-13 15:00,ZGNN 131500Z 09002MPS 7000 FEW007 SCT013 OVC033 16/15 Q1018 NOSIG
ZGNN,2015-11-13 16:00,ZGNN 131600Z 11002MPS 090V180 7000 FEW006 SCT009 OVC033 16/15 Q1018 NOSIG
ZGNN,2015-11-13 17:00,ZGNN 131700Z VRB01MPS 5000 -RA BR FEW006 SCT009 OVC033 16/15 Q1017 NOSIG
ZGNN,2015-11-13 18:00,ZGNN 131800Z 03001MPS 7000 FEW004 SCT013 OVC033 16/15 Q1017 NOSIG
ZGNN,2015-11-13 19:00,ZGNN 131900Z VRB01MPS 6000 FEW004 SCT010 OVC040 16/15 Q1017 NOSIG
ZGNN,2015-11-13 20:00,ZGNN 132000Z 07001MPS 8000 FEW005 SCT010 OVC040 16/15 Q1016 NOSIG
ZGNN,2015-11-13 21:00,ZGNN 132100Z 00000MPS 8000 FEW005 SCT010 OVC040 16/15 Q1016 NOSIG
ZGNN,2015-11-13 22:00,ZGNN 132200Z 13001MPS 3500 BR FEW004 SCT010 OVC040 16/15 Q1016 NOSIG
ZGNN,2015-11-13 23:00,ZGNN 132300Z 09001MPS 1800 -DZ BR FEW002 SCT006 OVC030 15/15 Q1016 BECMG TL0040 3500 BR
ZGNN,2015-11-14 00:00,ZGNN 140000Z 05002MPS 3200 BR FEW002 SCT006 OVC030 16/16 Q1017 NOSIG
ZGNN,2015-11-14 01:00,ZGNN 140100Z 04002MPS 6000 SCT004 SCT013 OVC030 17/16 Q1017 NOSIG
ZGNN,2015-11-14 02:00,ZGNN 140200Z 07002MPS 040V100 9999 SCT010 OVC030 18/16 Q1018 NOSIG
ZGNN,2015-11-14 03:00,ZGNN 140300Z 06003MPS 9999 SCT010 OVC030 19/16 Q1017 NOSIG
ZGNN,2015-11-14 04:00,ZGNN 140400Z 06003MPS 030V090 9999 SCT013 OVC030 19/16 Q1016 NOSIG
ZGNN,2015-11-14 05:00,ZGNN 140500Z VRB01MPS 9999 SCT015 OVC030 20/16 Q1015 NOSIG
ZGNN,2015-11-14 06:00,ZGNN 140600Z VRB01MPS 9999 SCT016 BKN036 21/17 Q1014 NOSIG
ZGNN,2015-11-14 07:00,ZGNN 140700Z 02002MPS 340V070 9999 SCT016 BKN036 21/17 Q1013 NOSIG
ZGNN,2015-11-14 08:00,ZGNN 140800Z 07002MPS 360V120 9999 SCT016 BKN036 21/17 Q1013 NOSIG
ZGNN,2015-11-14 09:00,ZGNN 140900Z VRB01MPS 9999 SCT016 22/18 Q1012 NOSIG
ZGNN,2015-11-14 10:00,ZGNN 141000Z VRB01MPS 9999 FEW020 21/18 Q1012 NOSIG
ZGNN,2015-11-14 11:00,ZGNN 141100Z VRB01MPS 9999 SCT013 20/18 Q1013 NOSIG
ZGNN,2015-11-14 12:00,ZGNN 141200Z 10003MPS 080V150 9999 SCT016 20/18 Q1013 NOSIG
ZGNN,2015-11-14 13:00,ZGNN 141300Z 10002MPS 080V150 9999 SCT016 20/18 Q1014 NOSIG
ZGNN,2015-11-14 14:00,ZGNN 141400Z VRB01MPS 9999 SCT016 19/18 Q1014 NOSIG
ZGNN,2015-11-14 15:00,ZGNN 141500Z 06001MPS 7000 SCT013 19/18 Q1014 NOSIG
ZGNN,2015-11-14 16:00,ZGNN 141600Z 08002MPS 6000 SCT010 OVC040 19/18 Q1014 NOSIG
ZGNN,2015-11-14 17:00,ZGNN 141700Z 09002MPS 5000 BR SCT010 OVC040 19/18 Q1014 NOSIG
ZGNN,2015-11-14 18:00,ZGNN 141800Z 07002MPS 5000 BR SCT013 OVC040 19/18 Q1013 NOSIG
ZGNN,2015-11-14 19:00,ZGNN 141900Z 04002MPS 5000 BR SCT013 OVC040 19/18 Q1013 NOSIG
ZGNN,2015-11-14 20:00,ZGNN 142000Z 06002MPS 5000 BR SCT010 OVC040 19/18 Q1012 NOSIG
ZGNN,2015-11-14 21:00,ZGNN 142100Z 05002MPS 4500 BR FEW007 SCT010 OVC030 19/18 Q1012 NOSIG
ZGNN,2015-11-14 22:00,ZGNN 142200Z VRB01MPS 4500 BR FEW005 SCT007 OVC023 19/18 Q1012 NOSIG
ZGNN,2015-11-14 23:00,ZGNN 142300Z VRB01MPS 3100 BR FEW003 SCT004 OVC020 19/18 Q1013 BECMG TL2350 2200 BR
ZGNN,2015-11-15 00:00,ZGNN 150000Z 03003MPS 1700 BR FEW002 SCT003 OVC020 19/19 Q1014 BECMG TL0150 3500 BR
ZGNN,2015-11-15 01:00,ZGNN 150100Z 06002MPS 2800 BR FEW003 SCT004 OVC023 20/19 Q1014 BECMG TL0150 3500 BR
ZGNN,2015-11-15 02:00,ZGNN 150200Z VRB01MPS 3500 BR FEW003 SCT005 OVC023 22/20 Q1015 NOSIG
ZGNN,2015-11-15 03:00,ZGNN 150300Z VRB01MPS 4000 BR FEW005 SCT007 OVC023 23/21 Q1015 NOSIG
ZGNN,2015-11-15 04:00,ZGNN 150400Z VRB01MPS 5000 BR SCT009 BKN026 25/21 Q1014 NOSIG
ZGNN,2015-11-15 05:00,ZGNN 150500Z 11002MPS 050V190 6000 SCT013 BKN030 26/23 Q1012 NOSIG
ZGNN,2015-11-15 06:00,ZGNN 150600Z 10003MPS 070V160 9999 FEW013 BKN030 27/23 Q1011 NOSIG
ZGNN,2015-11-15 07:00,ZGNN 150700Z 13005MPS 100V180 9999 FEW016 BKN030 28/23 Q1011 NOSIG
ZGNN,2015-11-15 08:00,ZGNN 150800Z 14005MPS 9999 FEW020 SCT033 27/22 Q1010 NOSIG
ZGNN,2015-11-15 09:00,ZGNN 150900Z 14004MPS 110V170 9999 FEW016 SCT033 27/23 Q1010 NOSIG
ZGNN,2015-11-15 10:00,ZGNN 151000Z 13003MPS 090V150 9999 SCT016 25/23 Q1010 NOSIG
ZGNN,2015-11-15 11:00,ZGNN 151100Z 13002MPS 9999 FEW015 24/23 Q1010 NOSIG
ZGNN,2015-11-15 12:00,ZGNN 151200Z VRB01MPS 9999 FEW013 24/23 Q1011 NOSIG
ZGNN,2015-11-15 13:00,ZGNN 151300Z VRB01MPS 9999 FEW010 24/23 Q1012 NOSIG
ZGNN,2015-11-15 14:00,ZGNN 151400Z VRB01MPS 9999 FEW011 24/22 Q1012 NOSIG
ZGNN,2015-11-15 15:00,ZGNN 151500Z 11002MPS 080V160 9999 -SHRA FEW010 FEW030CB 23/22 Q1012 NOSIG
ZGNN,2015-11-15 16:00,ZGNN 151600Z VRB01MPS 8000 FEW010 23/23 Q1012 NOSIG
ZGNN,2015-11-15 17:00,ZGNN 151700Z VRB01MPS 7000 FEW010 23/23 Q1012 NOSIG
ZGNN,2015-11-15 18:00,ZGNN 151800Z VRB01MPS 6000 FEW010 23/23 Q1011 NOSIG
ZGNN,2015-11-15 19:00,ZGNN 151900Z 14002MPS 5000 BR FEW007 23/23 Q1011 NOSIG
ZGNN,2015-11-15 20:00,ZGNN 152000Z 15003MPS 6000 FEW009 BKN033 23/23 Q1011 NOSIG
ZGNN,2015-11-15 21:00,ZGNN 152100Z 14002MPS 110V180 6000 FEW006 SCT009 BKN033 23/23 Q1010 NOSIG
ZGNN,2015-11-15 22:00,ZGNN 152200Z VRB01MPS 6000 FEW006 SCT009 BKN033 23/23 Q1011 NOSIG
ZGNN,2015-11-15 23:00,ZGNN 152300Z VRB01MPS 7000 FEW006 SCT008 BKN033 23/23 Q1011 NOSIG
ZGNN,2015-11-16 00:00,ZGNN 160000Z 14002MPS 110V170 8000 SCT010 24/23 Q1012 NOSIG
ZGNN,2015-11-16 01:00,ZGNN 160100Z 14003MPS 110V180 9999 FEW006 BKN033 25/23 Q1012 NOSIG
ZGNN,2015-11-16 02:00,ZGNN 160200Z 16004MPS 9999 SCT013 27/23 Q1013 NOSIG
ZGNN,2015-11-16 03:00,ZGNN 160300Z 15005MPS 120V200 9999 SCT016 28/23 Q1012 NOSIG
ZGNN,2015-11-16 04:00,ZGNN 160400Z 15004MPS 100V180 9999 BKN023 29/23 Q1011 NOSIG
ZGNN,2015-11-16 05:00,ZGNN 160500Z 16004MPS 120V180 9999 BKN023 29/23 Q1010 NOSIG
ZGNN,2015-11-16 06:00,ZGNN 160600Z 16006MPS 130V190 9999 SCT023 29/23 Q1008 NOSIG
ZGNN,2015-11-16 07:00,ZGNN 160700Z VRB02G07MPS 9999 -SHRA SCT023 SCT046 26/24 Q1008 NOSIG
ZGNN,2015-11-16 08:00,ZGNN 160800Z 15005MPS 9999 SCT023 28/24 Q1007 NOSIG
ZGNN,2015-11-16 09:00,ZGNN 160900Z 16006G11MPS 9999 SCT023 27/23 Q1007 NOSIG
ZGNN,2015-11-16 10:00,ZGNN 161000Z 16005MPS 9999 FEW023 26/23 Q1007 NOSIG
ZGNN,2015-11-16 11:00,ZGNN 161100Z 16004MPS 9999 FEW040 25/23 Q1008 NOSIG
ZGNN,2015-11-16 12:00,ZGNN 161200Z 15003MPS 9999 FEW010 25/23 Q1009 NOSIG
ZGNN,2015-11-16 13:00,ZGNN 161300Z 14002MPS 9999 FEW010 24/23 Q1009 NOSIG
ZGNN,2015-11-16 14:00,ZGNN 161400Z 14002MPS 110V180 CAVOK 24/23 Q1010 NOSIG
ZGNN,2015-11-16 15:00,ZGNN 161500Z 16002MPS 130V200 CAVOK 25/23 Q1010 NOSIG
ZGNN,2015-11-16 16:00,ZGNN 161600Z 20001MPS CAVOK 23/22 Q1010 NOSIG
ZGNN,2015-11-16 17:00,ZGNN 161700Z 23002MPS CAVOK 23/22 Q1010 NOSIG
ZGNN,2015-11-16 18:00,ZGNN 161800Z 25001MPS CAVOK 22/21 Q1010 NOSIG
ZGNN,2015-11-16 19:00,ZGNN 161900Z 01001MPS CAVOK 21/21 Q1010 NOSIG
ZGNN,2015-11-16 20:00,ZGNN 162000Z 04002MPS 6000 NSC 21/21 Q1010 NOSIG
ZGNN,2015-11-16 21:00,ZGNN 162100Z 04002MPS 5000 BR NSC 21/21 Q1010 NOSIG
ZGNN,2015-11-16 22:00,ZGNN 162200Z 08001MPS 6000 NSC 22/22 Q1010 NOSIG
ZGNN,2015-11-16 23:00,ZGNN 162300Z VRB01MPS 9999 FEW013 22/22 Q1011 NOSIG
ZGNN,2015-11-17 00:00,ZGNN 170000Z VRB01MPS 9999 FEW016 24/23 Q1011 NOSIG
ZGNN,2015-11-17 01:00,ZGNN 170100Z 16002MPS 140V200 9999 FEW010 26/24 Q1012 NOSIG
ZGNN,2015-11-17 02:00,ZGNN 170200Z 17004MPS 9999 FEW015 28/24 Q1012 NOSIG
ZGNN,2015-11-17 03:00,ZGNN 170300Z 16004MPS 130V190 9999 FEW020 29/24 Q1012 NOSIG
ZGNN,2015-11-17 04:00,ZGNN 170400Z 16005MPS 120V190 9999 SCT026 29/23 Q1011 NOSIG
ZGNN,2015-11-17 05:00,ZGNN 170500Z 18004MPS 140V210 9999 SCT030 31/23 Q1010 NOSIG
ZGNN,2015-11-17 06:00,ZGNN 170600Z 17005MPS 140V200 9999 SCT033 32/22 Q1009 NOSIG
ZGNN,2015-11-17 07:00,ZGNN 170700Z 15005MPS 9999 SCT040 31/24 Q1008 NOSIG
ZGNN,2015-11-17 08:00,ZGNN 170800Z 14005MPS 9999 FEW040 30/24 Q1008 NOSIG
ZGNN,2015-11-17 09:00,ZGNN 170900Z 15005MPS 120V180 9999 FEW040 29/24 Q1008 NOSIG
ZGNN,2015-11-17 10:00,ZGNN 171000Z 16005MPS 120V180 9999 FEW040 28/24 Q1009 NOSIG
ZGNN,2015-11-17 11:00,ZGNN 171100Z 16003MPS 130V200 CAVOK 26/23 Q1010 NOSIG
ZGNN,2015-11-17 12:00,ZGNN 171200Z VRB01MPS CAVOK 26/23 Q1011 NOSIG
ZGNN,2015-11-17 13:00,ZGNN 171300Z VRB01MPS 9999 FEW010 25/24 Q1011 NOSIG
ZGNN,2015-11-17 14:00,ZGNN 171400Z VRB01MPS 9999 FEW010 25/23 Q1012 NOSIG
ZGNN,2015-11-17 15:00,ZGNN 171500Z VRB01MPS 9999 FEW009 24/23 Q1012 NOSIG
ZGNN,2015-11-17 16:00,ZGNN 171600Z VRB01MPS 9999 FEW009 24/23 Q1012 NOSIG
ZGNN,2015-11-17 17:00,ZGNN 171700Z 09002MPS 060V120 8000 SCT009 24/23 Q1012 NOSIG
ZGNN,2015-11-17 18:00,ZGNN 171800Z VRB01MPS 8000 SCT009 24/23 Q1013 NOSIG
ZGNN,2015-11-17 19:00,ZGNN 171900Z VRB01MPS 8000 SCT009 24/23 Q1013 NOSIG
ZGNN,2015-11-17 20:00,ZGNN 172000Z 00000MPS 8000 SCT009 24/23 Q1013 NOSIG
ZGNN,2015-11-17 21:00,ZGNN 172100Z 04002MPS 6000 SCT009 24/23 Q1013 NOSIG
ZGNN,2015-11-17 22:00,ZGNN 172200Z 04002MPS 5000 BR FEW007 SCT009 24/23 Q1014 NOSIG
ZGNN,2015-11-17 23:00,ZGNN 172300Z 09002MPS 5000 BR SCT009 BKN026 24/23 Q1015 NOSIG
ZGNN,2015-11-18 00:00,ZGNN 180000Z VRB01MPS 5000 BR SCT009 BKN026 24/23 Q1016 NOSIG
ZGNN,2015-11-18 01:00,ZGNN 180100Z VRB01MPS 5000 BR FEW006 SCT009 BKN026 25/24 Q1016 NOSIG
ZGNN,2015-11-18 02:00,ZGNN 180200Z 15002MPS 110V190 9999 SCT009 SCT026 26/24 Q1017 NOSIG
ZGNN,2015-11-18 03:00,ZGNN 180300Z 17002MPS 120V200 9999 SCT015 SCT026 28/24 Q1017 NOSIG
ZGNN,2015-11-18 04:00,ZGNN 180400Z 15002MPS 050V190 9999 SCT020 SCT040 30/23 Q1016 NOSIG
ZGNN,2015-11-18 05:00,ZGNN 180500Z 11003MPS 040V140 9999 SCT026 30/23 Q1015 NOSIG
ZGNN,2015-11-18 06:00,ZGNN 180600Z 10002MPS 050V180 9999 SCT030 31/22 Q1014 NOSIG
ZGNN,2015-11-18 07:00,ZGNN 180700Z 15003MPS 090V180 9999 SCT030 30/22 Q1013 NOSIG
ZGNN,2015-11-18 08:00,ZGNN 180800Z 13003MPS 090V160 9999 SCT030 31/22 Q1013 NOSIG
ZGNN,2015-11-18 09:00,ZGNN 180900Z 11003MPS 090V150 9999 SCT030 29/23 Q1013 NOSIG
ZGNN,2015-11-18 10:00,ZGNN 181000Z 15002MPS 130V190 9999 SCT040 28/23 Q1014 NOSIG
ZGNN,2015-11-18 11:00,ZGNN 181100Z 16002MPS CAVOK 27/23 Q1014 NOSIG
ZGNN,2015-11-18 12:00,ZGNN 181200Z VRB01MPS CAVOK 26/23 Q1015 NOSIG
ZGNN,2015-11-18 13:00,ZGNN 181300Z VRB01MPS CAVOK 25/23 Q1016 NOSIG
ZGNN,2015-11-18 14:00,ZGNN 181400Z VRB01MPS CAVOK 25/22 Q1016 NOSIG
ZGNN,2015-11-18 15:00,ZGNN 181500Z 13002MPS 120V180 CAVOK 24/22 Q1016 NOSIG
ZGNN,2015-11-18 16:00,ZGNN 181600Z VRB01MPS CAVOK 24/23 Q1016 NOSIG
ZGNN,2015-11-18 17:00,ZGNN 181700Z 35001MPS 6000 NSC 22/22 Q1016 NOSIG
ZGNN,2015-11-18 18:00,ZGNN 181800Z VRB01MPS 6000 NSC 22/22 Q1016 NOSIG
ZGNN,2015-11-18 19:00,ZGNN 181900Z 05002MPS 6000 NSC 23/22 Q1016 NOSIG
ZGNN,2015-11-18 20:00,ZGNN 182000Z 04003MPS 5000 BR NSC 22/22 Q1016 NOSIG
ZGNN,2015-11-18 21:00,ZGNN 182100Z 05002MPS 5000 BR NSC 22/22 Q1016 NOSIG
ZGNN,2015-11-18 22:00,ZGNN 182200Z 08002MPS 4000 BR NSC 23/22 Q1016 NOSIG
ZGNN,2015-11-18 23:00,ZGNN 182300Z 02002MPS 3500 BR FEW005 SCT009 22/22 Q1016 NOSIG
ZGNN,2015-11-19 00:00,ZGNN 190000Z 08002MPS 4000 BR FEW006 SCT009 23/23 Q1017 NOSIG
ZGNN,2015-11-19 01:00,ZGNN 190100Z 06003MPS 4000 BR FEW005 SCT009 24/23 Q1017 NOSIG
ZGNN,2015-11-19 02:00,ZGNN 190200Z 06003MPS 4500 BR FEW006 BKN033 24/23 Q1018 NOSIG
ZGNN,2015-11-19 03:00,ZGNN 190300Z 07003MPS 020V100 7000 SCT013 BKN033 25/23 Q1018 NOSIG
ZGNN,2015-11-19 04:00,ZGNN 190400Z 09002MPS 360V170 9999 FEW013 BKN033 27/23 Q1017 NOSIG
ZGNN,2015-11-19 05:00,ZGNN 190500Z 10002MPS 060V180 9999 SCT020 28/23 Q1015 NOSIG
ZGNN,2015-11-19 06:00,ZGNN 190600Z 14003MPS 110V170 9999 -SHRA FEW015 FEW026CB SCT026 28/22 Q1014 NOSIG
ZGNN,2015-11-19 07:00,ZGNN 190700Z VRB01MPS 9999 SCT026 29/23 Q1013 NOSIG
ZGNN,2015-11-19 08:00,ZGNN 190800Z 10003MPS 060V140 9999 SCT030 29/22 Q1013 NOSIG
ZGNN,2015-11-19 09:00,ZGNN 190900Z 12002MPS 100V170 9999 FEW030 SCT040 28/23 Q1013 NOSIG
ZGNN,2015-11-19 10:00,ZGNN 191000Z VRB01MPS 9999 FEW030 SCT040 27/22 Q1014 NOSIG
ZGNN,2015-11-19 11:00,ZGNN 191100Z 10002MPS CAVOK 26/22 Q1014 NOSIG
ZGNN,2015-11-19 12:00,ZGNN 191200Z 16002MPS 130V200 CAVOK 26/22 Q1015 NOSIG
ZGNN,2015-11-19 13:00,ZGNN 191300Z VRB01MPS CAVOK 25/21 Q1016 NOSIG
ZGNN,2015-11-19 14:00,ZGNN 191400Z 00000MPS CAVOK 24/21 Q1016 NOSIG
ZGNN,2015-11-19 15:00,ZGNN 191500Z 06001MPS CAVOK 23/21 Q1016 NOSIG
ZGNN,2015-11-19 16:00,ZGNN 191600Z 04002MPS CAVOK 23/21 Q1016 NOSIG
ZGNN,2015-11-19 17:00,ZGNN 191700Z 04002MPS 340V070 CAVOK 23/21 Q1016 NOSIG
ZGNN,2015-11-19 18:00,ZGNN 191800Z VRB01MPS 8000 NSC 22/21 Q1016 NOSIG
ZGNN,2015-11-19 19:00,ZGNN 191900Z 03002MPS 7000 NSC 22/21 Q1015 NOSIG
ZGNN,2015-11-19 20:00,ZGNN 192000Z 03001MPS 5000 BR NSC 22/21 Q1015 NOSIG
ZGNN,2015-11-19 21:00,ZGNN 192100Z VRB01MPS 5000 BR NSC 22/21 Q1015 NOSIG
ZGNN,2015-11-19 22:00,ZGNN 192200Z 00000MPS 5000 BR FEW011 22/21 Q1015 NOSIG
ZGNN,2015-11-19 23:00,ZGNN 192300Z 06002MPS 4000 BR NSC 21/21 Q1016 NOSIG
ZGNN,2015-11-20 00:00,ZGNN 200000Z 09001MPS 5000 BR NSC 23/22 Q1016 NOSIG
ZGNN,2015-11-20 01:00,ZGNN 200100Z 08002MPS 030V120 6000 SCT013 BKN030 25/23 Q1017 NOSIG
ZGNN,2015-11-20 02:00,ZGNN 200200Z 12003MPS 9999 SCT015 BKN030 25/23 Q1017 NOSIG
ZGNN,2015-11-20 03:00,ZGNN 200300Z 15004MPS 110V180 9999 SCT015 BKN033 26/22 Q1017 NOSIG
ZGNN,2015-11-20 04:00,ZGNN 200400Z 14005MPS 100V170 9999 SCT020 FEW026TCU SCT040 27/22 Q1016 NOSIG
ZGNN,2015-11-20 05:00,ZGNN 200500Z 13003MPS 110V180 9999 SCT020 FEW026TCU SCT046 27/22 Q1015 NOSIG
ZGNN,2015-11-20 06:00,ZGNN 200600Z 14004MPS 9999 SCT020 FEW026TCU 27/22 Q1013 NOSIG
ZGNN,2015-11-20 07:00,ZGNN 200700Z VRB01MPS 9999 FEW020 FEW026CB BKN036 26/22 Q1013 NOSIG
ZGNN,2015-11-20 08:00,ZGNN 200800Z 33010G17MPS 1900 +TSRA SCT013 SCT026CB BKN036 21/20 Q1014 BECMG TL0830 5000 -SHRA
ZGNN,2015-11-20 09:00,ZGNN 200900Z 35006MPS 5000 TSRA SCT013 SCT026CB BKN036 20/20 Q1015 BECMG TL0930 -SHRA
ZGNN,2015-11-20 10:00,ZGNN 201000Z 02004MPS 9999 -SHRA FEW010 FEW026CB SCT026 21/20 Q1015 RETSRA NOSIG
ZGNN,2015-11-20 11:00,ZGNN 201100Z 05003MPS 9999 -TSRA FEW010 FEW026CB SCT026 21/20 Q1016 RESHRA BECMG TL1200 NSW
ZGNN,2015-11-20 12:00,ZGNN 201200Z 11004MPS 5000 -SHRA BR FEW005 FEW026CB SCT026 21/20 Q1015 RETS NOSIG
ZGNN,2015-11-20 13:00,ZGNN 201300Z 09003MPS 360V170 9999 FEW009 SCT033 21/20 Q1017 NOSIG
ZGNN,2015-11-20 14:00,ZGNN 201400Z 10002MPS 070V170 9999 FEW009 SCT030 21/20 Q1017 NOSIG
ZGNN,2015-11-20 15:00,ZGNN 201500Z VRB01MPS 9999 FEW007 SCT030 20/20 Q1017 NOSIG
ZGNN,2015-11-20 16:00,ZGNN 201600Z VRB01MPS 9999 FEW009 20/20 Q1018 NOSIG
ZGNN,2015-11-20 17:00,ZGNN 201700Z 06003MPS 9999 SCT009 20/20 Q1018 NOSIG
ZGNN,2015-11-20 18:00,ZGNN 201800Z 07004MPS 9999 SCT009 BKN030 20/19 Q1017 NOSIG
ZGNN,2015-11-20 19:00,ZGNN 201900Z 05003MPS 8000 SCT008 BKN030 20/19 Q1017 NOSIG
ZGNN,2015-11-20 20:00,ZGNN 202000Z 06003MPS 8000 SCT008 BKN030 20/19 Q1017 NOSIG
ZGNN,2015-11-20 21:00,ZGNN 202100Z 04003MPS 9000 SCT008 BKN030 20/19 Q1017 NOSIG
ZGNN,2015-11-20 22:00,ZGNN 202200Z 05002MPS 9999 FEW011 BKN030 20/19 Q1018 NOSIG
ZGNN,2015-11-20 23:00,ZGNN 202300Z 04003MPS 9999 FEW011 BKN030 19/19 Q1018 NOSIG
ZGNN,2015-11-21 00:00,ZGNN 210000Z 02002MPS 9999 FEW011 BKN040 20/19 Q1019 NOSIG
ZGNN,2015-11-21 01:00,ZGNN 210100Z 06002MPS 030V100 9999 SCT040 21/19 Q1020 NOSIG
ZGNN,2015-11-21 02:00,ZGNN 210200Z 06003MPS 030V090 9999 SCT016 SCT046 21/18 Q1020 NOSIG
ZGNN,2015-11-21 03:00,ZGNN 210300Z 06003MPS 020V110 9999 SCT016 24/19 Q1019 NOSIG
ZGNN,2015-11-21 04:00,ZGNN 210400Z 09002MPS 340V140 9999 SCT020 25/19 Q1019 NOSIG
ZGNN,2015-11-21 05:00,ZGNN 210500Z 06002MPS 340V090 9999 SCT023 26/20 Q1017 NOSIG
ZGNN,2015-11-21 06:00,ZGNN 210600Z VRB02MPS 9999 SCT023 26/19 Q1016 NOSIG
ZGNN,2015-11-21 07:00,ZGNN 210700Z 07002MPS 020V130 9999 SCT026 26/20 Q1015 NOSIG
ZGNN,2015-11-21 08:00,ZGNN 210800Z 02002MPS 320V100 9999 SCT026 26/20 Q1015 NOSIG
ZGNN,2015-11-21 09:00,ZGNN 210900Z 10002MPS 080V160 9999 SCT030 26/20 Q1015 NOSIG
ZGNN,2015-11-21 10:00,ZGNN 211000Z 09002MPS 070V140 9999 FEW026 SCT040 25/20 Q1015 NOSIG
ZGNN,2015-11-21 11:00,ZGNN 211100Z 09003MPS 060V140 9999 FEW040 24/20 Q1015 NOSIG
ZGNN,2015-11-21 12:00,ZGNN 211200Z 07003MPS CAVOK 23/20 Q1016 NOSIG
ZGNN,2015-11-21 13:00,ZGNN 211300Z 05002MPS CAVOK 22/20 Q1017 NOSIG
ZGNN,2015-11-21 14:00,ZGNN 211400Z 06002MPS 9999 SCT033 22/20 Q1017 NOSIG
ZGNN,2015-11-21 15:00,ZGNN 211500Z 06002MPS 9999 SCT030 22/20 Q1017 NOSIG
ZGNN,2015-11-21 16:00,ZGNN 211600Z 07003MPS 9999 SCT026 22/20 Q1017 NOSIG
ZGNN,2015-11-21 17:00,ZGNN 211700Z 07002MPS 9999 SCT026 22/20 Q1017 NOSIG
ZGNN,2015-11-21 18:00,ZGNN 211800Z 04002MPS 9999 SCT023 SCT033 21/20 Q1016 NOSIG
ZGNN,2015-11-21 19:00,ZGNN 211900Z 08002MPS 9999 SCT020 SCT040 21/20 Q1016 NOSIG
ZGNN,2015-11-21 20:00,ZGNN 212000Z 07001MPS 9999 SCT020 SCT040 21/20 Q1016 NOSIG
ZGNN,2015-11-21 21:00,ZGNN 212100Z 07003MPS 9999 SCT020 21/20 Q1016 NOSIG
ZGNN,2015-11-21 22:00,ZGNN 212200Z VRB01MPS 9999 SCT020 21/20 Q1017 NOSIG
ZGNN,2015-11-21 23:00,ZGNN 212300Z VRB01MPS 7000 SCT020 BKN040 21/20 Q1017 NOSIG
ZGNN,2015-11-22 00:00,ZGNN 220000Z VRB01MPS 6000 BKN033 21/20 Q1018 NOSIG
ZGNN,2015-11-22 01:00,ZGNN 220100Z VRB02MPS 7000 FEW013 SCT030 23/20 Q1018 NOSIG
ZGNN,2015-11-22 02:00,ZGNN 220200Z VRB03MPS 9999 FEW013 SCT030 24/21 Q1019 NOSIG
ZGNN,2015-11-22 03:00,ZGNN 220300Z 08002MPS 030V140 9999 FEW016 SCT030 25/21 Q1019 NOSIG
ZGNN,2015-11-22 04:00,ZGNN 220400Z 10003MPS 060V160 9999 FEW020 SCT040 26/21 Q1018 NOSIG
ZGNN,2015-11-22 05:00,ZGNN 220500Z 10002MPS 040V160 9999 SCT026 SCT040 28/21 Q1017 NOSIG
ZGNN,2015-11-22 06:00,ZGNN 220600Z 16002MPS 110V210 9999 SCT026 SCT040 28/21 Q1016 NOSIG
ZGNN,2015-11-22 07:00,ZGNN 220700Z 11002MPS 050V150 9999 SCT030 SCT040 28/21 Q1015 NOSIG
ZGNN,2015-11-22 08:00,ZGNN 220800Z VRB01MPS 9999 FEW030 27/20 Q1015 NOSIG
ZGNN,2015-11-22 09:00,ZGNN 220900Z 10003MPS 070V130 9999 SCT040 27/21 Q1015 NOSIG
ZGNN,2015-11-22 10:00,ZGNN 221000Z 05002MPS 9999 SCT040 26/21 Q1015 NOSIG
ZGNN,2015-11-22 11:00,ZGNN 221100Z VRB01MPS 9999 SCT033 25/22 Q1016 NOSIG
ZGNN,2015-11-22 12:00,ZGNN 221200Z VRB01MPS 8000 SCT033 25/22 Q1017 NOSIG
ZGNN,2015-11-22 13:00,ZGNN 221300Z 34001MPS 7000 SCT033 24/22 Q1018 NOSIG
ZGNN,2015-11-22 14:00,ZGNN 221400Z 08003MPS 7000 NSC 24/21 Q1018 NOSIG
ZGNN,2015-11-22 15:00,ZGNN 221500Z 08002MPS 7000 SCT033 23/21 Q1018 NOSIG
ZGNN,2015-11-22 16:00,ZGNN 221600Z 09002MPS 060V150 7000 SCT030 23/20 Q1018 NOSIG
ZGNN,2015-11-22 17:00,ZGNN 221700Z VRB01MPS 7000 SCT030 23/20 Q1018 NOSIG
ZGNN,2015-11-22 18:00,ZGNN 221800Z 07002MPS 7000 FEW026 23/20 Q1017 NOSIG
ZGNN,2015-11-22 19:00,ZGNN 221900Z 04002MPS 6000 BKN040 22/20 Q1017 NOSIG
ZGNN,2015-11-22 20:00,ZGNN 222000Z 04002MPS 5000 BR NSC 22/20 Q1017 NOSIG
ZGNN,2015-11-22 21:00,ZGNN 222100Z 03002MPS 5000 BR FEW020 21/20 Q1017 NOSIG
ZGNN,2015-11-22 22:00,ZGNN 222200Z 03003MPS 5000 BR SCT013 21/20 Q1017 NOSIG
ZGNN,2015-11-22 23:00,ZGNN 222300Z 10002MPS 6000 SCT016 22/21 Q1018 NOSIG
ZGNN,2015-11-23 00:00,ZGNN 230000Z VRB01MPS 6000 SCT016 22/21 Q1018 NOSIG
ZGNN,2015-11-23 01:00,ZGNN 230100Z 08003MPS 8000 FEW016 23/21 Q1019 NOSIG
ZGNN,2015-11-23 02:00,ZGNN 230200Z 07003MPS 040V100 8000 FEW013 25/21 Q1019 NOSIG
ZGNN,2015-11-23 03:00,ZGNN 230300Z 09002MPS 040V140 8000 SCT015 26/21 Q1019 NOSIG
ZGNN,2015-11-23 04:00,ZGNN 230400Z 07002MPS 360V110 9999 SCT023 27/21 Q1018 NOSIG
ZGNN,2015-11-23 05:00,ZGNN 230500Z VRB02MPS 9999 SCT026 28/20 Q1017 NOSIG
ZGNN,2015-11-23 06:00,ZGNN 230600Z 06002MPS 010V110 9999 SCT030 28/20 Q1016 NOSIG
ZGNN,2015-11-23 07:00,ZGNN 230700Z 12002MPS 090V180 9999 FEW030 28/21 Q1015 NOSIG
ZGNN,2015-11-23 08:00,ZGNN 230800Z 13002MPS 100V190 9999 FEW030 29/20 Q1014 NOSIG
ZGNN,2015-11-23 09:00,ZGNN 230900Z 12002MPS 100V160 CAVOK 28/20 Q1014 NOSIG
ZGNN,2015-11-23 10:00,ZGNN 231000Z 13002MPS 110V220 CAVOK 26/21 Q1014 NOSIG
ZGNN,2015-11-23 11:00,ZGNN 231100Z 14002MPS 050V220 7000 NSC 25/21 Q1014 NOSIG
ZGNN,2015-11-23 12:00,ZGNN 231200Z VRB01MPS 5000 BR NSC 24/22 Q1015 NOSIG
ZGNN,2015-11-23 13:00,ZGNN 231300Z VRB01MPS 6000 SCT030 24/21 Q1016 NOSIG
ZGNN,2015-11-23 14:00,ZGNN 231400Z VRB01MPS 4500 BR NSC 23/21 Q1016 NOSIG
ZGNN,2015-11-23 15:00,ZGNN 231500Z 13001MPS 5000 BR NSC 22/21 Q1016 NOSIG
ZGNN,2015-11-23 16:00,ZGNN 231600Z 00000MPS 4500 BR NSC 22/21 Q1016 NOSIG
ZGNN,2015-11-23 17:00,ZGNN 231700Z 16001MPS 4000 BR NSC 22/21 Q1015 NOSIG
ZGNN,2015-11-23 18:00,ZGNN 231800Z 34001MPS 3500 BR NSC 21/20 Q1015 NOSIG
ZGNN,2015-11-23 19:00,ZGNN 231900Z VRB01MPS 4000 BR NSC 22/21 Q1015 NOSIG
ZGNN,2015-11-23 20:00,ZGNN 232000Z 01001MPS 3000 BR NSC 21/20 Q1015 NOSIG
ZGNN,2015-11-23 21:00,ZGNN 232100Z 08002MPS 3000 BR NSC 21/20 Q1015 NOSIG
ZGNN,2015-11-23 22:00,ZGNN 232200Z VRB01MPS 3000 BR NSC 21/21 Q1015 BECMG TL2300 2000 BR
ZGNN,2015-11-23 23:00,ZGNN 232300Z 28002MPS 2100 BR SCT003 SCT005 OVC030 21/21 Q1016 BECMG TL0100 3500 BR
ZGNN,2015-11-24 00:00,ZGNN 240000Z VRB01MPS 2000 BR SCT003 SCT005 OVC030 22/21 Q1017 BECMG TL0100 3500 BR
ZGNN,2015-11-24 01:00,ZGNN 240100Z VRB01MPS 2200 BR SCT006 OVC030 22/22 Q1017 BECMG TL0240 3500 BR
ZGNN,2015-11-24 02:00,ZGNN 240200Z 13004MPS 4000 BR SCT010 25/22 Q1018 NOSIG
ZGNN,2015-11-24 03:00,ZGNN 240300Z 13004MPS 090V160 8000 FEW020 26/21 Q1018 NOSIG
ZGNN,2015-11-24 04:00,ZGNN 240400Z 14004MPS 110V180 9999 FEW023 27/20 Q1017 NOSIG
ZGNN,2015-11-24 05:00,ZGNN 240500Z 14003MPS 100V240 9999 SCT026 27/19 Q1016 NOSIG
ZGNN,2015-11-24 06:00,ZGNN 240600Z 15003MPS 080V210 9999 SCT030 28/20 Q1015 NOSIG
ZGNN,2015-11-24 07:00,ZGNN 240700Z 16003MPS 9999 FEW030 28/20 Q1014 NOSIG
ZGNN,2015-11-24 08:00,ZGNN 240800Z 13003MPS 110V170 9999 FEW030 28/20 Q1014 NOSIG
ZGNN,2015-11-24 09:00,ZGNN 240900Z 14003MPS 120V180 CAVOK 27/20 Q1014 NOSIG
ZGNN,2015-11-24 10:00,ZGNN 241000Z 12002MPS 100V190 CAVOK 26/21 Q1014 NOSIG
ZGNN,2015-11-24 11:00,ZGNN 241100Z 16002MPS 7000 NSC 25/21 Q1015 NOSIG
ZGNN,2015-11-24 12:00,ZGNN 241200Z VRB01MPS 7000 NSC 25/21 Q1015 NOSIG
ZGNN,2015-11-24 13:00,ZGNN 241300Z 10002MPS 080V150 7000 NSC 24/20 Q1016 NOSIG
ZGNN,2015-11-24 14:00,ZGNN 241400Z 11002MPS 100V160 6000 NSC 24/20 Q1017 NOSIG
ZGNN,2015-11-24 15:00,ZGNN 241500Z 09002MPS 070V140 5000 BR NSC 23/21 Q1017 NOSIG
ZGNN,2015-11-24 16:00,ZGNN 241600Z 08002MPS 4500 BR NSC 23/21 Q1017 NOSIG
ZGNN,2015-11-24 17:00,ZGNN 241700Z 08001MPS 5000 BR NSC 22/21 Q1017 NOSIG
ZGNN,2015-11-24 18:00,ZGNN 241800Z 07003MPS 4000 BR NSC 22/21 Q1017 NOSIG
ZGNN,2015-11-24 19:00,ZGNN 241900Z 07004MPS 3500 BR SCT013 22/21 Q1017 NOSIG
ZGNN,2015-11-24 20:00,ZGNN 242000Z 06003MPS 4000 BR SCT013 22/20 Q1017 NOSIG
ZGNN,2015-11-24 21:00,ZGNN 242100Z 09004MPS 3200 -RA BR SCT013 22/20 Q1017 NOSIG
ZGNN,2015-11-24 22:00,ZGNN 242200Z 08007MPS 3100 -RA BR FEW005 SCT011 19/18 Q1018 NOSIG
ZGNN,2015-11-24 23:00,ZGNN 242300Z 06008MPS 9999 -RA SCT013 OVC033 16/14 Q1020 NOSIG
ZGNN,2015-11-25 00:00,ZGNN 250000Z 05005MPS 9999 SCT013 OVC026 15/14 Q1021 NOSIG
ZGNN,2015-11-25 01:00,ZGNN 250100Z 07005MPS 9999 SCT010 OVC033 15/13 Q1022 NOSIG
ZGNN,2015-11-25 02:00,ZGNN 250200Z 06005MPS 9999 FEW010 OVC033 14/13 Q1023 NOSIG
ZGNN,2015-11-25 03:00,ZGNN 250300Z 06005MPS 9999 SCT033 14/13 Q1023 NOSIG
ZGNN,2015-11-25 04:00,ZGNN 250400Z 36005MPS 9999 FEW010 OVC033 14/13 Q1023 NOSIG
ZGNN,2015-11-25 05:00,ZGNN 250500Z 36006MPS 9999 -RA FEW010 OVC030 14/12 Q1022 NOSIG
ZGNN,2015-11-25 06:00,ZGNN 250600Z 36005MPS 9999 SCT015 OVC033 14/11 Q1022 NOSIG
ZGNN,2015-11-25 07:00,ZGNN 250700Z 36005MPS 9999 SCT015 OVC033 14/10 Q1022 NOSIG
ZGNN,2015-11-25 08:00,ZGNN 250800Z 01006MPS 9999 SCT020 OVC040 14/10 Q1022 NOSIG
ZGNN,2015-11-25 09:00,ZGNN 250900Z 01005MPS 340V040 9999 SCT020 OVC040 14/10 Q1022 NOSIG
ZGNN,2015-11-25 10:00,ZGNN 251000Z 35005MPS 9999 SCT026 14/10 Q1023 NOSIG
ZGNN,2015-11-25 11:00,ZGNN 251100Z 35004MPS 9999 SCT033 14/10 Q1023 NOSIG
ZGNN,2015-11-25 12:00,ZGNN 251200Z 36004MPS 9999 SCT046 14/10 Q1023 NOSIG
ZGNN,2015-11-25 13:00,ZGNN 251300Z 35004MPS CAVOK 14/10 Q1024 NOSIG
ZGNN,2015-11-25 14:00,ZGNN 251400Z 35004MPS CAVOK 13/10 Q1024 NOSIG
ZGNN,2015-11-25 15:00,ZGNN 251500Z 35003MPS CAVOK 13/09 Q1024 NOSIG
ZGNN,2015-11-25 16:00,ZGNN 251600Z 36004MPS CAVOK 13/09 Q1024 NOSIG
ZGNN,2015-11-25 17:00,ZGNN 251700Z 36004MPS CAVOK 13/09 Q1024 NOSIG
ZGNN,2015-11-25 18:00,ZGNN 251800Z VRB01MPS CAVOK 12/10 Q1024 NOSIG
ZGNN,2015-11-25 19:00,ZGNN 251900Z 04002MPS 360V060 CAVOK 12/10 Q1024 NOSIG
ZGNN,2015-11-25 20:00,ZGNN 252000Z 02002MPS 330V040 CAVOK 12/09 Q1024 NOSIG
ZGNN,2015-11-25 21:00,ZGNN 252100Z 36002MPS 310V060 CAVOK 12/09 Q1024 NOSIG
ZGNN,2015-11-25 22:00,ZGNN 252200Z 34002MPS CAVOK 11/09 Q1024 NOSIG
ZGNN,2015-11-25 23:00,ZGNN 252300Z VRB01MPS CAVOK 11/09 Q1024 NOSIG
ZGNN,2015-11-26 00:00,ZGNN 260000Z 35002MPS 310V020 CAVOK 12/08 Q1024 NOSIG
ZGNN,2015-11-26 01:00,ZGNN 260100Z 36004MPS CAVOK 13/08 Q1025 NOSIG
ZGNN,2015-11-26 02:00,ZGNN 260200Z 01005MPS CAVOK 14/08 Q1026 NOSIG
ZGNN,2015-11-26 03:00,ZGNN 260300Z 01005MPS 330V040 CAVOK 16/07 Q1025 NOSIG
ZGNN,2015-11-26 04:00,ZGNN 260400Z 02005MPS 350V050 CAVOK 16/05 Q1024 NOSIG
ZGNN,2015-11-26 05:00,ZGNN 260500Z 02005MPS 350V050 CAVOK 18/05 Q1023 NOSIG
ZGNN,2015-11-26 06:00,ZGNN 260600Z 03004MPS 360V060 CAVOK 19/06 Q1021 NOSIG
ZGNN,2015-11-26 07:00,ZGNN 260700Z 05004MPS 020V090 CAVOK 19/05 Q1020 NOSIG
ZGNN,2015-11-26 08:00,ZGNN 260800Z 01004MPS 330V060 CAVOK 20/06 Q1020 NOSIG
ZGNN,2015-11-26 09:00,ZGNN 260900Z 02004MPS CAVOK 19/06 Q1021 NOSIG
ZGNN,2015-11-26 10:00,ZGNN 261000Z 06003MPS 030V140 CAVOK 18/06 Q1021 NOSIG
ZGNN,2015-11-26 11:00,ZGNN 261100Z 06004MPS CAVOK 18/06 Q1022 NOSIG
ZGNN,2015-11-26 12:00,ZGNN 261200Z 08003MPS 020V130 CAVOK 18/07 Q1022 NOSIG
ZGNN,2015-11-26 13:00,ZGNN 261300Z 07003MPS 040V100 CAVOK 17/07 Q1022 NOSIG
ZGNN,2015-11-26 14:00,ZGNN 261400Z 04003MPS CAVOK 16/08 Q1023 NOSIG
ZGNN,2015-11-26 15:00,ZGNN 261500Z 04003MPS CAVOK 16/07 Q1022 NOSIG
ZGNN,2015-11-26 16:00,ZGNN 261600Z 03002MPS CAVOK 15/08 Q1022 NOSIG
ZGNN,2015-11-26 17:00,ZGNN 261700Z 03002MPS CAVOK 14/09 Q1022 NOSIG
ZGNN,2015-11-26 18:00,ZGNN 261800Z 04002MPS CAVOK 15/08 Q1022 NOSIG
ZGNN,2015-11-26 19:00,ZGNN 261900Z 01002MPS 9999 BKN046 15/09 Q1022 NOSIG
ZGNN,2015-11-26 20:00,ZGNN 262000Z 03002MPS 9999 BKN046 15/09 Q1022 NOSIG
ZGNN,2015-11-26 21:00,ZGNN 262100Z VRB01MPS CAVOK 15/10 Q1022 NOSIG
ZGNN,2015-11-26 22:00,ZGNN 262200Z 04002MPS 010V080 CAVOK 15/08 Q1022 NOSIG
ZGNN,2015-11-26 23:00,ZGNN 262300Z 04003MPS CAVOK 15/08 Q1022 NOSIG
ZGNN,2015-11-27 00:00,ZGNN 270000Z 04003MPS CAVOK 15/08 Q1023 NOSIG
ZGNN,2015-11-27 01:00,ZGNN 270100Z 08003MPS 9999 OVC046 15/07 Q1023 NOSIG
ZGNN,2015-11-27 02:00,ZGNN 270200Z 06004MPS 9999 OVC046 15/07 Q1024 NOSIG
ZGNN,2015-11-27 03:00,ZGNN 270300Z 06005MPS 030V100 9999 OVC043 15/07 Q1024 NOSIG
ZGNN,2015-11-27 04:00,ZGNN 270400Z 06004MPS 020V100 9999 BKN043 17/07 Q1023 NOSIG
ZGNN,2015-11-27 05:00,ZGNN 270500Z 06002MPS 360V090 9999 BKN046 17/07 Q1022 NOSIG
ZGNN,2015-11-27 06:00,ZGNN 270600Z 36002MPS 290V040 CAVOK 17/08 Q1021 NOSIG
ZGNN,2015-11-27 07:00,ZGNN 270700Z 06003MPS 020V090 CAVOK 17/08 Q1020 NOSIG
ZGNN,2015-11-27 08:00,ZGNN 270800Z 05003MPS 340V070 CAVOK 17/08 Q1020 NOSIG
ZGNN,2015-11-27 09:00,ZGNN 270900Z 07003MPS 030V100 CAVOK 17/08 Q1020 NOSIG
ZGNN,2015-11-27 10:00,ZGNN 271000Z 02002MPS CAVOK 17/09 Q1020 NOSIG
ZGNN,2015-11-27 11:00,ZGNN 271100Z 33002MPS 300V360 9999 OVC036 16/11 Q1021 NOSIG
ZGNN,2015-11-27 12:00,ZGNN 271200Z 35003MPS 9999 OVC036 16/11 Q1022 NOSIG
ZGNN,2015-11-27 13:00,ZGNN 271300Z VRB01MPS 9999 SCT036 16/11 Q1022 NOSIG
ZGNN,2015-11-27 14:00,ZGNN 271400Z 03002MPS 9999 SCT036 16/11 Q1022 NOSIG
ZGNN,2015-11-27 15:00,ZGNN 271500Z 02002MPS 9999 FEW036 16/11 Q1023 NOSIG
ZGNN,2015-11-27 16:00,ZGNN 271600Z 09002MPS 070V140 9999 FEW036 16/11 Q1022 NOSIG
ZGNN,2015-11-27 17:00,ZGNN 271700Z 10002MPS 9999 FEW036 16/11 Q1022 NOSIG
ZGNN,2015-11-27 18:00,ZGNN 271800Z 07002MPS 9999 FEW036 16/10 Q1022 NOSIG
ZGNN,2015-11-27 19:00,ZGNN 271900Z 01002MPS 7000 SCT030 15/11 Q1022 NOSIG
ZGNN,2015-11-27 20:00,ZGNN 272000Z 04002MPS 9999 SCT030 15/10 Q1021 NOSIG
ZGNN,2015-11-27 21:00,ZGNN 272100Z 03002MPS 9999 SCT030 15/10 Q1021 NOSIG
ZGNN,2015-11-27 22:00,ZGNN 272200Z 03002MPS 9999 SCT030 15/10 Q1021 NOSIG
ZGNN,2015-11-27 23:00,ZGNN 272300Z 04002MPS 9999 SCT030 15/10 Q1022 NOSIG
ZGNN,2015-11-28 00:00,ZGNN 280000Z VRB01MPS 9999 OVC026 16/11 Q1023 NOSIG
ZGNN,2015-11-28 01:00,ZGNN 280100Z 05002MPS 020V080 9999 OVC026 16/12 Q1023 NOSIG
ZGNN,2015-11-28 02:00,ZGNN 280200Z 07002MPS 040V120 9999 BKN023 17/11 Q1024 NOSIG
ZGNN,2015-11-28 03:00,ZGNN 280300Z 06003MPS 9999 BKN026 17/11 Q1024 NOSIG
ZGNN,2015-11-28 04:00,ZGNN 280400Z 05003MPS 020V080 9999 SCT023 OVC033 17/11 Q1023 NOSIG
ZGNN,2015-11-28 05:00,ZGNN 280500Z 05003MPS 020V080 9999 SCT023 OVC033 18/11 Q1022 NOSIG
ZGNN,2015-11-28 06:00,ZGNN 280600Z 05003MPS 360V070 9999 SCT023 OVC033 18/11 Q1021 NOSIG
ZGNN,2015-11-28 07:00,ZGNN 280700Z 06003MPS 010V120 9999 SCT023 OVC033 18/11 Q1020 NOSIG
ZGNN,2015-11-28 08:00,ZGNN 280800Z 36002MPS 330V040 9999 SCT023 OVC033 18/12 Q1020 NOSIG
ZGNN,2015-11-28 09:00,ZGNN 280900Z 02004MPS 9999 SCT023 OVC033 18/12 Q1021 NOSIG
ZGNN,2015-11-28 10:00,ZGNN 281000Z 04002MPS 010V080 8000 SCT023 18/12 Q1021 NOSIG
ZGNN,2015-11-28 11:00,ZGNN 281100Z 09003MPS 040V180 7000 SCT023 18/13 Q1021 NOSIG
ZGNN,2015-11-28 12:00,ZGNN 281200Z 36002MPS 7000 SCT023 17/13 Q1022 NOSIG
ZGNN,2015-11-28 13:00,ZGNN 281300Z VRB01MPS 5000 BR SCT023 17/13 Q1022 NOSIG
ZGNN,2015-11-28 14:00,ZGNN 281400Z 09002MPS 6000 SCT023 17/13 Q1022 NOSIG
ZGNN,2015-11-28 15:00,ZGNN 281500Z 04002MPS 6000 SCT023 17/13 Q1022 NOSIG
ZGNN,2015-11-28 16:00,ZGNN 281600Z 05003MPS 6000 SCT023 17/13 Q1023 NOSIG
ZGNN,2015-11-28 17:00,ZGNN 281700Z 03003MPS 6000 SCT023 17/13 Q1023 NOSIG
ZGNN,2015-11-28 18:00,ZGNN 281800Z 02004MPS 6000 SCT023 17/14 Q1023 NOSIG
ZGNN,2015-11-28 19:00,ZGNN 281900Z 01003MPS 5000 BR SCT020 17/14 Q1023 NOSIG
ZGNN,2015-11-28 20:00,ZGNN 282000Z 02004MPS 5000 BR SCT020 OVC033 16/14 Q1023 NOSIG
ZGNN,2015-11-28 21:00,ZGNN 282100Z 02002MPS 3200 -RA BR SCT010 OVC033 15/14 Q1023 NOSIG
ZGNN,2015-11-28 22:00,ZGNN 282200Z 36002MPS 3600 -RA BR SCT010 OVC033 15/14 Q1024 NOSIG
ZGNN,2015-11-28 23:00,ZGNN 282300Z 36002MPS 6000 SCT008 OVC030 15/14 Q1024 NOSIG
ZGNN,2015-11-29 00:00,ZGNN 290000Z 34003MPS 9000 SCT008 OVC026 15/14 Q1025 NOSIG
ZGNN,2015-11-29 01:00,ZGNN 290100Z 34003MPS 9999 SCT007 OVC026 15/14 Q1025 NOSIG
ZGNN,2015-11-29 02:00,ZGNN 290200Z 35003MPS 9999 SCT009 OVC030 15/14 Q1026 NOSIG
ZGNN,2015-11-29 03:00,ZGNN 290300Z 32003MPS 300V010 9999 SCT009 OVC030 16/14 Q1026 NOSIG
ZGNN,2015-11-29 04:00,ZGNN 290400Z 36003MPS 310V030 9999 SCT013 OVC040 17/14 Q1025 NOSIG
ZGNN,2015-11-29 05:00,ZGNN 290500Z 36004MPS 9999 SCT016 OVC040 17/14 Q1024 NOSIG
ZGNN,2015-11-29 06:00,ZGNN 290600Z 35004MPS 9999 SCT016 OVC040 16/14 Q1022 NOSIG
ZGNN,2015-11-29 07:00,ZGNN 290700Z 36003MPS 9999 SCT016 OVC040 17/14 Q1022 NOSIG
ZGNN,2015-11-29 08:00,ZGNN 290800Z 36002MPS 320V030 9999 FEW016 OVC040 18/14 Q1021 NOSIG
ZGNN,2015-11-29 09:00,ZGNN 290900Z 36002MPS 330V030 9999 FEW016 OVC040 18/14 Q1021 NOSIG
ZGNN,2015-11-29 10:00,ZGNN 291000Z 03002MPS 9999 SCT016 OVC040 17/14 Q1021 NOSIG
ZGNN,2015-11-29 11:00,ZGNN 291100Z VRB01MPS 9999 SCT016 17/14 Q1022 NOSIG
ZGNN,2015-11-29 12:00,ZGNN 291200Z VRB01MPS 7000 SCT016 17/15 Q1022 NOSIG
ZGNN,2015-11-29 13:00,ZGNN 291300Z VRB01MPS 8000 FEW016 17/15 Q1022 NOSIG
ZGNN,2015-11-29 14:00,ZGNN 291400Z VRB01MPS CAVOK 17/14 Q1022 NOSIG
ZGNN,2015-11-29 15:00,ZGNN 291500Z VRB01MPS 9999 BKN040 17/15 Q1022 NOSIG
ZGNN,2015-11-29 16:00,ZGNN 291600Z 00000MPS 9999 BKN036 16/15 Q1022 NOSIG
ZGNN,2015-11-29 17:00,ZGNN 291700Z 09001MPS 9999 BKN033 16/14 Q1022 NOSIG
ZGNN,2015-11-29 18:00,ZGNN 291800Z 05001MPS 9999 BKN033 16/14 Q1021 NOSIG
ZGNN,2015-11-29 19:00,ZGNN 291900Z VRB01MPS 9999 BKN033 16/15 Q1021 NOSIG
ZGNN,2015-11-29 20:00,ZGNN 292000Z VRB01MPS 9999 BKN033 16/15 Q1021 NOSIG
ZGNN,2015-11-29 21:00,ZGNN 292100Z 20001MPS 7000 NSC 16/15 Q1021 NOSIG
ZGNN,2015-11-29 22:00,ZGNN 292200Z 00000MPS 7000 BKN033 16/15 Q1021 NOSIG
ZGNN,2015-11-29 23:00,ZGNN 292300Z 00000MPS 6000 OVC033 16/15 Q1021 NOSIG
ZGNN,2015-11-30 00:00,ZGNN 300000Z VRB01MPS 9999 FEW013 BKN040 16/15 Q1021 NOSIG
ZGNN,2015-11-30 01:00,ZGNN 300100Z VRB01MPS 9999 FEW016 17/15 Q1022 NOSIG
ZGNN,2015-11-30 02:00,ZGNN 300200Z VRB01MPS 9999 FEW016 17/15 Q1022 NOSIG
ZGNN,2015-11-30 03:00,ZGNN 300300Z VRB01MPS CAVOK 18/14 Q1022 NOSIG
ZGNN,2015-11-30 04:00,ZGNN 300400Z VRB01MPS 9999 SCT026 19/14 Q1021 NOSIG
ZGNN,2015-11-30 05:00,ZGNN 300500Z 08002MPS 040V160 9999 SCT026 19/13 Q1019 NOSIG
ZGNN,2015-11-30 06:00,ZGNN 300600Z VRB01MPS 9999 SCT026 20/14 Q1018 NOSIG
ZGNN,2015-11-30 07:00,ZGNN 300700Z VRB01MPS 9999 SCT023 20/14 Q1017 NOSIG
ZGNN,2015-11-30 08:00,ZGNN 300800Z 10002MPS 050V140 CAVOK 20/15 Q1016 NOSIG
ZGNN,2015-11-30 09:00,ZGNN 300900Z VRB01MPS 9999 SCT023 20/15 Q1016 NOSIG
ZGNN,2015-11-30 10:00,ZGNN 301000Z VRB01MPS 9999 OVC026 20/15 Q1016 NOSIG
ZGNN,2015-11-30 11:00,ZGNN 301100Z 10002MPS 060V140 9999 BKN040 20/15 Q1016 NOSIG
ZGNN,2015-11-30 12:00,ZGNN 301200Z 11002MPS 090V180 9999 BKN033 19/15 Q1017 NOSIG
ZGNN,2015-11-30 13:00,ZGNN 301300Z 08003MPS 9999 FEW020 19/15 Q1017 NOSIG
ZGNN,2015-11-30 14:00,ZGNN 301400Z VRB01MPS 9999 FEW020 19/15 Q1017 NOSIG
ZGNN,2015-11-30 15:00,ZGNN 301500Z 08002MPS 050V170 9999 FEW020 19/15 Q1017 NOSIG
ZGNN,2015-11-30 16:00,ZGNN 301600Z 08003MPS 050V150 9999 SCT020 OVC040 19/15 Q1017 NOSIG
ZGNN,2015-11-30 17:00,ZGNN 301700Z 08003MPS 7000 SCT020 OVC040 18/15 Q1017 NOSIG
ZGNN,2015-11-30 18:00,ZGNN 301800Z 06003MPS 6000 SCT020 OVC040 18/15 Q1017 NOSIG
ZGNN,2015-11-30 19:00,ZGNN 301900Z 05003MPS 6000 SCT020 OVC040 18/16 Q1016 NOSIG
ZGNN,2015-11-30 20:00,ZGNN 302000Z 07003MPS 6000 SCT013 OVC033 18/16 Q1015 NOSIG
ZGNN,2015-11-30 21:00,ZGNN 302100Z 07002MPS 7000 SCT011 OVC033 18/16 Q1016 NOSIG
ZGNN,2015-11-30 22:00,ZGNN 302200Z 08002MPS 050V110 7000 SCT010 OVC033 18/16 Q1016 NOSIG
ZGNN,2015-11-30 23:00,ZGNN 302300Z 05002MPS 6000 SCT009 OVC033 18/16 Q1016 NOSIG
ZGNN,2015-12-01 00:00,ZGNN 010000Z 08002MPS 6000 SCT009 OVC033 18/17 Q1017 NOSIG
ZGNN,2015-12-01 01:00,ZGNN 010100Z 07002MPS 040V100 7000 SCT009 OVC033 19/17 Q1017 NOSIG
ZGNN,2015-12-01 02:00,ZGNN 010200Z 06002MPS 7000 SCT009 OVC033 19/17 Q1017 NOSIG
ZGNN,2015-12-01 03:00,ZGNN 010300Z VRB01MPS 5000 BR FEW010 OVC033 20/17 Q1017 NOSIG
ZGNN,2015-12-01 04:00,ZGNN 010400Z VRB01MPS 4500 BR FEW010 OVC033 21/18 Q1016 NOSIG
ZGNN,2015-12-01 05:00,ZGNN 010500Z 11002MPS 060V160 5000 BR SCT011 OVC033 22/19 Q1015 NOSIG
ZGNN,2015-12-01 06:00,ZGNN 010600Z 09003MPS 5000 BR SCT010 OVC033 22/20 Q1013 NOSIG
ZGNN,2015-12-01 07:00,ZGNN 010700Z 12002MPS 070V180 4000 BR SCT010 OVC033 23/20 Q1013 NOSIG
ZGNN,2015-12-01 08:00,ZGNN 010800Z 11002MPS 070V140 4000 BR SCT010 23/20 Q1012 NOSIG
ZGNN,2015-12-01 09:00,ZGNN 010900Z 09002MPS 030V150 4500 BR SCT010 OVC040 23/21 Q1013 NOSIG
ZGNN,2015-12-01 10:00,ZGNN 011000Z VRB01MPS 4500 BR SCT013 OVC040 23/21 Q1013 NOSIG
ZGNN,2015-12-01 11:00,ZGNN 011100Z 14003MPS 100V180 5000 BR SCT010 OVC033 23/21 Q1013 NOSIG
ZGNN,2015-12-01 12:00,ZGNN 011200Z 14003MPS 100V210 7000 SCT010 OVC033 23/21 Q1014 NOSIG
ZGNN,2015-12-01 13:00,ZGNN 011300Z VRB01MPS 7000 SCT010 OVC033 22/21 Q1014 NOSIG
ZGNN,2015-12-01 14:00,ZGNN 011400Z VRB01MPS 6000 OVC040 22/21 Q1015 NOSIG
ZGNN,2015-12-01 15:00,ZGNN 011500Z 13002MPS 6000 SCT010 OVC040 22/21 Q1015 NOSIG
ZGNN,2015-12-01 16:00,ZGNN 011600Z 13002MPS 110V170 6000 SCT010 OVC040 22/21 Q1015 NOSIG
ZGNN,2015-12-01 17:00,ZGNN 011700Z 14002MPS 5000 BR FEW009 OVC040 22/21 Q1015 NOSIG
ZGNN,2015-12-01 18:00,ZGNN 011800Z 12002MPS 5000 BR OVC040 22/21 Q1015 NOSIG
ZGNN,2015-12-01 19:00,ZGNN 011900Z 10002MPS 6000 NSC 22/21 Q1014 NOSIG
ZGNN,2015-12-01 20:00,ZGNN 012000Z 00000MPS 6000 FEW010 22/21 Q1014 NOSIG
ZGNN,2015-12-01 21:00,ZGNN 012100Z VRB01MPS 6000 FEW010 22/21 Q1014 NOSIG
ZGNN,2015-12-01 22:00,ZGNN 012200Z 01001MPS 5000 BR FEW008 22/21 Q1015 NOSIG
ZGNN,2015-12-01 23:00,ZGNN 012300Z 05002MPS 5000 BR SCT008 21/21 Q1016 NOSIG
ZGNN,2015-12-02 00:00,ZGNN 020000Z 02002MPS 3200 BR SCT008 22/21 Q1016 NOSIG
ZGNN,2015-12-02 01:00,ZGNN 020100Z 05003MPS 4000 BR SCT008 OVC040 22/21 Q1017 NOSIG
ZGNN,2015-12-02 02:00,ZGNN 020200Z 07002MPS 4000 BR SCT010 OVC040 23/21 Q1017 NOSIG
ZGNN,2015-12-02 03:00,ZGNN 020300Z 07002MPS 030V110 4500 BR SCT013 OVC040 24/22 Q1017 NOSIG
ZGNN,2015-12-02 04:00,ZGNN 020400Z 01002MPS 7000 SCT013 OVC040 24/22 Q1017 NOSIG
ZGNN,2015-12-02 05:00,ZGNN 020500Z 07003MPS 6000 SCT013 BKN043 24/22 Q1016 NOSIG
ZGNN,2015-12-02 06:00,ZGNN 020600Z 04005MPS 3300 -SHRA BR SCT010 FEW026CB OVC036 24/22 Q1015 NOSIG
ZGNN,2015-12-02 07:00,ZGNN 020700Z 07007MPS 3500 -SHRA BR SCT004 FEW026CB OVC043 19/19 Q1015 RESHRA NOSIG
ZGNN,2015-12-02 08:00,ZGNN 020800Z 04005MPS 4000 -SHRA BR SCT004 FEW026CB OVC033 18/18 Q1016 NOSIG
ZGNN,2015-12-02 09:00,ZGNN 020900Z 08004MPS 4500 -RA BR SCT005 OVC033 17/17 Q1017 NOSIG
ZGNN,2015-12-02 10:00,ZGNN 021000Z 01005MPS 340V040 4000 -RA BR FEW004 SCT007 OVC033 17/16 Q1019 NOSIG
ZGNN,2015-12-02 11:00,ZGNN 021100Z 05004MPS 4000 -RA BR FEW005 SCT007 OVC033 16/16 Q1019 NOSIG
ZGNN,2015-12-02 12:00,ZGNN 021200Z 08004MPS 6000 -RA FEW005 SCT007 OVC033 15/15 Q1020 NOSIG
ZGNN,2015-12-02 13:00,ZGNN 021300Z 06003MPS 9999 SCT010 OVC033 16/14 Q1021 NOSIG
ZGNN,2015-12-02 14:00,ZGNN 021400Z 04002MPS 9999 FEW020 16/15 Q1021 NOSIG
ZGNN,2015-12-02 15:00,ZGNN 021500Z VRB01MPS 9999 SCT040 16/15 Q1021 NOSIG
ZGNN,2015-12-02 16:00,ZGNN 021600Z VRB01MPS 9999 BKN043 16/14 Q1021 NOSIG
ZGNN,2015-12-02 17:00,ZGNN 021700Z 35002MPS 9999 BKN043 16/13 Q1021 NOSIG
ZGNN,2015-12-02 18:00,ZGNN 021800Z 01002MPS 9999 BKN043 16/13 Q1021 NOSIG
ZGNN,2015-12-02 19:00,ZGNN 021900Z 36003MPS CAVOK 16/13 Q1020 NOSIG
ZGNN,2015-12-02 20:00,ZGNN 022000Z 36003MPS 9999 SCT026 15/13 Q1020 NOSIG
ZGNN,2015-12-02 21:00,ZGNN 022100Z 03002MPS 360V060 9999 BKN046 15/13 Q1020 NOSIG
ZGNN,2015-12-02 22:00,ZGNN 022200Z 36003MPS 9999 BKN046 15/12 Q1021 NOSIG
ZGNN,2015-12-02 23:00,ZGNN 022300Z 01002MPS 9999 BKN046 15/12 Q1021 NOSIG
ZGNN,2015-12-03 00:00,ZGNN 030000Z 36002MPS CAVOK 15/12 Q1022 NOSIG
ZGNN,2015-12-03 01:00,ZGNN 030100Z 36003MPS 9999 FEW013 16/12 Q1023 NOSIG
ZGNN,2015-12-03 02:00,ZGNN 030200Z 35004MPS 9999 FEW016 SCT040 17/12 Q1023 NOSIG
ZGNN,2015-12-03 03:00,ZGNN 030300Z 36003MPS 9999 FEW016 17/11 Q1023 NOSIG
ZGNN,2015-12-03 04:00,ZGNN 030400Z 02003MPS 340V060 9999 FEW020 17/11 Q1022 NOSIG
ZGNN,2015-12-03 05:00,ZGNN 030500Z 35002MPS 300V080 9999 FEW020 18/11 Q1021 NOSIG
ZGNN,2015-12-03 06:00,ZGNN 030600Z 35003MPS 310V050 9999 FEW026 19/11 Q1020 NOSIG
ZGNN,2015-12-03 07:00,ZGNN 030700Z 01003MPS 330V030 9999 FEW026 18/11 Q1019 NOSIG
ZGNN,2015-12-03 08:00,ZGNN 030800Z 36003MPS CAVOK 18/12 Q1019 NOSIG
ZGNN,2015-12-03 09:00,ZGNN 030900Z 34003MPS CAVOK 18/12 Q1019 NOSIG
ZGNN,2015-12-03 10:00,ZGNN 031000Z 35002MPS CAVOK 17/12 Q1020 NOSIG
ZGNN,2015-12-03 11:00,ZGNN 031100Z 01002MPS 340V040 9999 -RA BKN046 17/12 Q1021 NOSIG
ZGNN,2015-12-03 12:00,ZGNN 031200Z 34002MPS 310V010 9999 BKN043 16/13 Q1021 NOSIG
ZGNN,2015-12-03 13:00,ZGNN 031300Z 35004MPS 7000 -RA FEW026 OVC040 15/14 Q1022 NOSIG
ZGNN,2015-12-03 14:00,ZGNN 031400Z 36003MPS 6000 FEW026 OVC040 15/14 Q1022 NOSIG
ZGNN,2015-12-03 15:00,ZGNN 031500Z VRB01MPS 6000 OVC036 15/14 Q1022 NOSIG
ZGNN,2015-12-03 16:00,ZGNN 031600Z 01002MPS 6000 OVC030 15/14 Q1021 NOSIG
ZGNN,2015-12-03 17:00,ZGNN 031700Z 05005MPS 7000 OVC030 15/13 Q1021 NOSIG
ZGNN,2015-12-03 18:00,ZGNN 031800Z 03002MPS 350V060 7000 OVC030 15/13 Q1021 NOSIG
ZGNN,2015-12-03 19:00,ZGNN 031900Z 01002MPS 6000 OVC030 15/14 Q1020 NOSIG
ZGNN,2015-12-03 20:00,ZGNN 032000Z 35002MPS 5000 -RA BR OVC026 15/14 Q1021 NOSIG
ZGNN,2015-12-03 21:00,ZGNN 032100Z 04003MPS 5000 -RA BR OVC026 15/14 Q1021 NOSIG
ZGNN,2015-12-03 22:00,ZGNN 032200Z 04001MPS 6000 OVC026 15/14 Q1021 NOSIG
ZGNN,2015-12-03 23:00,ZGNN 032300Z VRB01MPS 5000 -RA BR SCT010 OVC023 15/14 Q1022 NOSIG
ZGNN,2015-12-04 00:00,ZGNN 040000Z 01003MPS 3500 -RA BR FEW007 SCT010 OVC023 14/14 Q1022 NOSIG
ZGNN,2015-12-04 01:00,ZGNN 040100Z 03003MPS 3200 -RA BR FEW009 SCT013 OVC023 14/14 Q1023 NOSIG
ZGNN,2015-12-04 02:00,ZGNN 040200Z 06003MPS 3000 -RA BR FEW005 SCT009 OVC023 14/14 Q1024 NOSIG
ZGNN,2015-12-04 03:00,ZGNN 040300Z 07003MPS 040V100 2800 -RA BR FEW005 SCT009 OVC023 14/14 Q1024 BECMG TL0450 3500 BR
ZGNN,2015-12-04 04:00,ZGNN 040400Z 07002MPS 030V160 2000 -RA BR FEW004 SCT009 OVC023 14/13 Q1023 BECMG TL0520 3500 BR
ZGNN,2015-12-04 05:00,ZGNN 040500Z 06004MPS 4000 -RA BR FEW004 SCT010 OVC023 13/13 Q1022 NOSIG
ZGNN,2015-12-04 06:00,ZGNN 040600Z 06002MPS 040V100 5000 BR FEW004 SCT010 OVC023 14/13 Q1021 NOSIG
ZGNN,2015-12-04 07:00,ZGNN 040700Z 06003MPS 3200 -RA BR SCT004 SCT008 OVC023 13/13 Q1020 NOSIG
ZGNN,2015-12-04 08:00,ZGNN 040800Z 04003MPS 3200 -RA BR SCT004 SCT008 OVC023 13/13 Q1020 NOSIG
ZGNN,2015-12-04 09:00,ZGNN 040900Z 05003MPS 6000 -RA SCT004 SCT009 OVC023 13/13 Q1020 NOSIG
ZGNN,2015-12-04 10:00,ZGNN 041000Z 05003MPS 5000 -RA BR FEW004 SCT009 OVC023 13/13 Q1020 NOSIG
ZGNN,2015-12-04 11:00,ZGNN 041100Z 05003MPS 6000 -RA FEW004 SCT009 OVC023 13/12 Q1021 NOSIG
ZGNN,2015-12-04 12:00,ZGNN 041200Z 02004MPS 6000 -RA FEW004 SCT008 OVC023 13/12 Q1022 NOSIG
ZGNN,2015-12-04 13:00,ZGNN 041300Z 04003MPS 7000 -RA FEW004 SCT010 OVC026 12/12 Q1021 NOSIG
ZGNN,2015-12-04 14:00,ZGNN 041400Z 03002MPS 8000 -RA FEW004 SCT010 OVC026 12/12 Q1021 NOSIG
ZGNN,2015-12-04 15:00,ZGNN 041500Z 08003MPS 8000 -RA FEW004 SCT008 OVC026 12/12 Q1021 NOSIG
ZGNN,2015-12-04 16:00,ZGNN 041600Z 06003MPS 9999 FEW005 SCT009 OVC026 12/11 Q1021 NOSIG
ZGNN,2015-12-04 17:00,ZGNN 041700Z 05003MPS 8000 -RA FEW005 SCT009 OVC026 12/11 Q1020 NOSIG
ZGNN,2015-12-04 18:00,ZGNN 041800Z 03002MPS 350V050 5000 -RA BR FEW004 SCT008 OVC026 12/12 Q1020 NOSIG
ZGNN,2015-12-04 19:00,ZGNN 041900Z 34003MPS 9000 -RA FEW004 SCT008 OVC026 12/11 Q1020 NOSIG
ZGNN,2015-12-04 20:00,ZGNN 042000Z 35006MPS 9999 -RA FEW005 SCT009 OVC026 12/11 Q1020 NOSIG
ZGNN,2015-12-04 21:00,ZGNN 042100Z 01003MPS 340V040 9999 -RA FEW009 OVC033 12/11 Q1020 NOSIG
ZGNN,2015-12-04 22:00,ZGNN 042200Z VRB01MPS 5000 -SHRA FEW009 FEW033CB BKN033 11/11 Q1020 NOSIG
ZGNN,2015-12-04 23:00,ZGNN 042300Z 25002MPS 4500 -RA BR FEW009 OVC033 11/11 Q1021 NOSIG
ZGNN,2015-12-05 00:00,ZGNN 050000Z 04002MPS 010V070 8000 -RA FEW008 SCT033 12/11 Q1021 NOSIG
ZGNN,2015-12-05 01:00,ZGNN 050100Z VRB01MPS 9999 -RA SCT004 OVC033 12/12 Q1022 NOSIG
ZGNN,2015-12-05 02:00,ZGNN 050200Z 06002MPS 030V090 9999 -RA SCT005 OVC033 12/11 Q1022 NOSIG
ZGNN,2015-12-05 03:00,ZGNN 050300Z 07003MPS 9999 -RA SCT005 OVC033 12/12 Q1021 NOSIG
ZGNN,2015-12-05 04:00,ZGNN 050400Z 04002MPS 9999 -RA FEW005 SCT009 OVC033 12/12 Q1020 NOSIG
ZGNN,2015-12-05 05:00,ZGNN 050500Z 02002MPS 9999 -RA SCT009 OVC033 13/12 Q1020 NOSIG
ZGNN,2015-12-05 06:00,ZGNN 050600Z 36003MPS 7000 -RA FEW007 SCT009 OVC033 13/12 Q1019 NOSIG
ZGNN,2015-12-05 07:00,ZGNN 050700Z 36003MPS 320V030 9999 -RA SCT009 OVC033 13/12 Q1019 NOSIG
ZGNN,2015-12-05 08:00,ZGNN 050800Z 02003MPS 9999 SCT011 BKN040 13/12 Q1020 NOSIG
ZGNN,2015-12-05 09:00,ZGNN 050900Z 36003MPS 9999 SCT013 BKN040 13/12 Q1021 NOSIG
ZGNN,2015-12-05 10:00,ZGNN 051000Z 02003MPS 9999 SCT015 BKN040 14/12 Q1022 NOSIG
ZGNN,2015-12-05 11:00,ZGNN 051100Z 03002MPS 9999 SCT020 13/12 Q1022 NOSIG
ZGNN,2015-12-05 12:00,ZGNN 051200Z 02003MPS 9999 SCT036 13/12 Q1023 NOSIG
ZGNN,2015-12-05 13:00,ZGNN 051300Z 36002MPS 9999 SCT023 13/12 Q1024 NOSIG
ZGNN,2015-12-05 14:00,ZGNN 051400Z 02002MPS 9999 BKN023 13/12 Q1025 NOSIG
ZGNN,2015-12-05 15:00,ZGNN 051500Z 36002MPS 9999 BKN023 14/12 Q1025 NOSIG
ZGNN,2015-12-05 16:00,ZGNN 051600Z 01003MPS 9999 BKN020 13/12 Q1025 NOSIG
ZGNN,2015-12-05 17:00,ZGNN 051700Z 36003MPS 9999 BKN020 13/11 Q1025 NOSIG
ZGNN,2015-12-05 18:00,ZGNN 051800Z 01002MPS 9999 BKN023 13/11 Q1025 NOSIG
ZGNN,2015-12-05 19:00,ZGNN 051900Z 07002MPS 9999 BKN026 13/11 Q1025 NOSIG
ZGNN,2015-12-05 20:00,ZGNN 052000Z 03001MPS 9999 BKN026 13/11 Q1024 NOSIG
ZGNN,2015-12-05 21:00,ZGNN 052100Z 05003MPS 9999 SCT016 BKN040 12/10 Q1025 NOSIG
ZGNN,2015-12-05 22:00,ZGNN 052200Z 05004MPS 9999 SCT016 BKN040 12/09 Q1025 NOSIG
ZGNN,2015-12-05 23:00,ZGNN 052300Z 01002MPS 9999 SCT016 BKN040 11/10 Q1026 NOSIG
ZGNN,2015-12-06 00:00,ZGNN 060000Z VRB01MPS 9999 FEW033 11/11 Q1026 NOSIG
ZGNN,2015-12-06 01:00,ZGNN 060100Z 01003MPS 9999 BKN040 13/10 Q1027 NOSIG
ZGNN,2015-12-06 02:00,ZGNN 060200Z 36005MPS 9999 SCT026 BKN040 13/08 Q1027 NOSIG
ZGNN,2015-12-06 03:00,ZGNN 060300Z 35006MPS 9999 BKN033 14/08 Q1027 NOSIG
ZGNN,2015-12-06 04:00,ZGNN 060400Z 36005MPS 9999 BKN033 15/08 Q1026 NOSIG
ZGNN,2015-12-06 05:00,ZGNN 060500Z 36005G10MPS 290V030 9999 BKN033 15/08 Q1025 NOSIG
ZGNN,2015-12-06 06:00,ZGNN 060600Z 35006MPS 320V020 9999 BKN033 15/08 Q1024 NOSIG
ZGNN,2015-12-06 07:00,ZGNN 060700Z 36005MPS 9999 BKN033 15/08 Q1023 NOSIG
ZGNN,2015-12-06 08:00,ZGNN 060800Z 36006MPS 9999 BKN033 15/08 Q1023 NOSIG
ZGNN,2015-12-06 09:00,ZGNN 060900Z 02005MPS 9999 BKN033 15/08 Q1023 NOSIG
ZGNN,2015-12-06 10:00,ZGNN 061000Z 02004MPS 9999 BKN033 14/08 Q1024 NOSIG
ZGNN,2015-12-06 11:00,ZGNN 061100Z 01003MPS 9999 BKN036 14/08 Q1024 NOSIG
ZGNN,2015-12-06 12:00,ZGNN 061200Z 10002MPS 080V160 9999 BKN036 12/09 Q1025 NOSIG
ZGNN,2015-12-06 13:00,ZGNN 061300Z 04003MPS 9999 SCT040 11/09 Q1025 NOSIG
ZGNN,2015-12-06 14:00,ZGNN 061400Z 03002MPS 9999 FEW040 11/08 Q1026 NOSIG
ZGNN,2015-12-06 15:00,ZGNN 061500Z 26001MPS CAVOK 10/09 Q1026 NOSIG
ZGNN,2015-12-06 16:00,ZGNN 061600Z VRB01MPS CAVOK 09/08 Q1026 NOSIG
ZGNN,2015-12-06 17:00,ZGNN 061700Z 32001MPS CAVOK 08/08 Q1026 NOSIG
ZGNN,2015-12-06 18:00,ZGNN 061800Z 24001MPS CAVOK 08/08 Q1026 NOSIG
ZGNN,2015-12-06 19:00,ZGNN 061900Z 26001MPS CAVOK 07/07 Q1025 NOSIG
ZGNN,2015-12-06 20:00,ZGNN 062000Z 00000MPS CAVOK 08/07 Q1025 NOSIG
ZGNN,2015-12-06 21:00,ZGNN 062100Z 22001MPS 7000 SCT030 08/07 Q1025 NOSIG
ZGNN,2015-12-06 22:00,ZGNN 062200Z VRB01MPS 8000 SCT030 08/08 Q1026 NOSIG
ZGNN,2015-12-06 23:00,ZGNN 062300Z 22001MPS 8000 BKN026 09/08 Q1026 NOSIG
ZGNN,2015-12-07 00:00,ZGNN 070000Z VRB01MPS 9999 OVC026 09/09 Q1027 NOSIG
ZGNN,2015-12-07 01:00,ZGNN 070100Z 05002MPS 9999 FEW010 OVC026 10/09 Q1027 NOSIG
ZGNN,2015-12-07 02:00,ZGNN 070200Z VRB01MPS 9999 FEW009 SCT013 OVC026 11/09 Q1027 NOSIG
ZGNN,2015-12-07 03:00,ZGNN 070300Z 12003MPS 9999 FEW009 SCT013 BKN026 11/08 Q1027 NOSIG
ZGNN,2015-12-07 04:00,ZGNN 070400Z 06002MPS 030V110 9999 SCT015 BKN030 12/07 Q1026 NOSIG
ZGNN,2015-12-07 05:00,ZGNN 070500Z 05002MPS 310V100 9999 SCT016 BKN030 13/08 Q1025 NOSIG
ZGNN,2015-12-07 06:00,ZGNN 070600Z 02003MPS 350V050 9999 FEW016 BKN030 13/08 Q1024 NOSIG
ZGNN,2015-12-07 07:00,ZGNN 070700Z 02003MPS 360V060 9999 BKN030 14/08 Q1023 NOSIG
ZGNN,2015-12-07 08:00,ZGNN 070800Z 06003MPS 020V120 9999 FEW016 SCT030 14/07 Q1023 NOSIG
ZGNN,2015-12-07 09:00,ZGNN 070900Z 09004MPS CAVOK 13/07 Q1023 NOSIG
ZGNN,2015-12-07 10:00,ZGNN 071000Z 10003MPS CAVOK 12/08 Q1023 NOSIG
ZGNN,2015-12-07 11:00,ZGNN 071100Z 09004MPS 070V140 CAVOK 11/07 Q1024 NOSIG
ZGNN,2015-12-07 12:00,ZGNN 071200Z 08003MPS CAVOK 10/07 Q1025 NOSIG
ZGNN,2015-12-07 13:00,ZGNN 071300Z 08003MPS CAVOK 09/07 Q1025 NOSIG
ZGNN,2015-12-07 14:00,ZGNN 071400Z 10002MPS 050V160 CAVOK 09/07 Q1026 NOSIG
ZGNN,2015-12-07 15:00,ZGNN 071500Z 09002MPS CAVOK 08/06 Q1026 NOSIG
ZGNN,2015-12-07 16:00,ZGNN 071600Z VRB01MPS CAVOK 08/06 Q1026 NOSIG
ZGNN,2015-12-07 17:00,ZGNN 071700Z 06002MPS CAVOK 08/06 Q1025 NOSIG
ZGNN,2015-12-07 18:00,ZGNN 071800Z VRB01MPS CAVOK 08/06 Q1025 NOSIG
ZGNN,2015-12-07 19:00,ZGNN 071900Z VRB01MPS 8000 NSC 07/06 Q1025 NOSIG
ZGNN,2015-12-07 20:00,ZGNN 072000Z 02002MPS 8000 NSC 08/06 Q1024 NOSIG
ZGNN,2015-12-07 21:00,ZGNN 072100Z VRB01MPS 8000 NSC 08/07 Q1024 NOSIG
ZGNN,2015-12-07 22:00,ZGNN 072200Z VRB01MPS 7000 SCT023 08/08 Q1025 NOSIG
ZGNN,2015-12-07 23:00,ZGNN 072300Z 12002MPS 6000 BKN023 08/08 Q1025 NOSIG
ZGNN,2015-12-08 00:00,ZGNN 080000Z VRB01MPS 5000 -RA BR FEW008 BKN023 09/08 Q1025 NOSIG
ZGNN,2015-12-08 01:00,ZGNN 080100Z 33002MPS 300V010 6000 SCT026 OVC040 10/08 Q1026 NOSIG
ZGNN,2015-12-08 02:00,ZGNN 080200Z 01002MPS 6000 FEW010 BKN040 10/09 Q1026 NOSIG
ZGNN,2015-12-08 03:00,ZGNN 080300Z 02003MPS 7000 SCT013 12/09 Q1026 NOSIG
ZGNN,2015-12-08 04:00,ZGNN 080400Z VRB01MPS 8000 SCT015 12/09 Q1025 NOSIG
ZGNN,2015-12-08 05:00,ZGNN 080500Z 30002MPS 250V010 8000 SCT015 13/09 Q1024 NOSIG
ZGNN,2015-12-08 06:00,ZGNN 080600Z 36002MPS 6000 SCT015 13/10 Q1023 NOSIG
ZGNN,2015-12-08 07:00,ZGNN 080700Z 33002MPS 300V010 6000 SCT016 OVC040 13/09 Q1022 NOSIG
ZGNN,2015-12-08 08:00,ZGNN 080800Z 01002MPS 330V050 6000 SCT016 OVC040 13/09 Q1022 NOSIG
ZGNN,2015-12-08 09:00,ZGNN 080900Z 04002MPS 5000 BR SCT020 OVC040 13/09 Q1022 NOSIG
ZGNN,2015-12-08 10:00,ZGNN 081000Z 03002MPS 350V070 4000 -RA BR SCT033 13/10 Q1022 NOSIG
ZGNN,2015-12-08 11:00,ZGNN 081100Z 11002MPS 080V170 4000 -RA BR SCT033 12/11 Q1022 NOSIG
ZGNN,2015-12-08 12:00,ZGNN 081200Z 10002MPS 4500 -RA BR SCT013 OVC040 12/11 Q1023 NOSIG
ZGNN,2015-12-08 13:00,ZGNN 081300Z 10002MPS 080V170 4000 -RA BR FEW006 SCT010 OVC033 12/11 Q1023 NOSIG
ZGNN,2015-12-08 14:00,ZGNN 081400Z 08002MPS 4000 -RA BR SCT006 OVC033 11/11 Q1023 NOSIG
ZGNN,2015-12-08 15:00,ZGNN 081500Z 02002MPS 340V050 5000 BR SCT008 OVC033 11/11 Q1024 NOSIG
ZGNN,2015-12-08 16:00,ZGNN 081600Z VRB01MPS 5000 BR FEW008 OVC033 11/10 Q1024 NOSIG
ZGNN,2015-12-08 17:00,ZGNN 081700Z VRB01MPS 5000 -RA BR SCT008 OVC033 11/11 Q1023 NOSIG
ZGNN,2015-12-08 18:00,ZGNN 081800Z 34002MPS 5000 -RA BR SCT008 OVC033 11/11 Q1022 NOSIG
ZGNN,2015-12-08 19:00,ZGNN 081900Z 00000MPS 5000 -RA BR SCT008 OVC033 11/11 Q1022 NOSIG
ZGNN,2015-12-08 20:00,ZGNN 082000Z 00000MPS 5000 BR SCT007 OVC033 12/11 Q1021 NOSIG
ZGNN,2015-12-08 21:00,ZGNN 082100Z VRB01MPS 4500 BR SCT007 OVC033 12/11 Q1021 NOSIG
ZGNN,2015-12-08 22:00,ZGNN 082200Z 28001MPS 4000 BR SCT007 OVC033 12/11 Q1021 NOSIG
ZGNN,2015-12-08 23:00,ZGNN 082300Z 00000MPS 4000 BR SCT007 OVC033 12/11 Q1021 NOSIG
ZGNN,2015-12-09 00:00,ZGNN 090000Z 35002MPS 320V020 3200 BR SCT006 OVC026 12/11 Q1021 NOSIG
ZGNN,2015-12-09 01:00,ZGNN 090100Z 36002MPS 3600 BR SCT006 OVC026 12/11 Q1021 NOSIG
ZGNN,2015-12-09 02:00,ZGNN 090200Z 33002MPS 5000 BR SCT008 OVC033 13/12 Q1021 NOSIG
ZGNN,2015-12-09 03:00,ZGNN 090300Z 34003MPS 300V030 7000 SCT010 OVC030 14/12 Q1021 NOSIG
ZGNN,2015-12-09 04:00,ZGNN 090400Z 36003MPS 330V040 8000 SCT011 OVC030 14/12 Q1020 NOSIG
ZGNN,2015-12-09 05:00,ZGNN 090500Z 34003MPS 8000 FEW011 SCT015 OVC030 15/12 Q1019 NOSIG
ZGNN,2015-12-09 06:00,ZGNN 090600Z 36002MPS 330V040 9000 SCT015 OVC030 15/12 Q1018 NOSIG
ZGNN,2015-12-09 07:00,ZGNN 090700Z 01004MPS 9000 SCT015 OVC030 15/12 Q1017 NOSIG
ZGNN,2015-12-09 08:00,ZGNN 090800Z 02003MPS 8000 SCT015 OVC030 15/12 Q1016 NOSIG
ZGNN,2015-12-09 09:00,ZGNN 090900Z 04003MPS 8000 SCT013 OVC030 14/12 Q1017 NOSIG
ZGNN,2015-12-09 10:00,ZGNN 091000Z 05002MPS 6000 SCT013 OVC030 14/12 Q1017 NOSIG
ZGNN,2015-12-09 11:00,ZGNN 091100Z 04002MPS 360V060 5000 BR SCT013 OVC030 14/12 Q1017 NOSIG
ZGNN,2015-12-09 12:00,ZGNN 091200Z 33002MPS 300V020 4000 -RA BR FEW007 SCT011 OVC030 14/13 Q1018 NOSIG
ZGNN,2015-12-09 13:00,ZGNN 091300Z 36002MPS 340V040 4000 -RA BR FEW007 SCT011 OVC030 14/13 Q1018 NOSIG
ZGNN,2015-12-09 14:00,ZGNN 091400Z 35002MPS 320V020 4000 -RA BR FEW006 SCT010 OVC030 14/13 Q1019 NOSIG
ZGNN,2015-12-09 15:00,ZGNN 091500Z 32002MPS 290V350 6000 FEW005 SCT009 OVC026 14/13 Q1019 NOSIG
ZGNN,2015-12-09 16:00,ZGNN 091600Z 35002MPS 320V030 8000 FEW007 SCT013 OVC026 14/12 Q1019 NOSIG
ZGNN,2015-12-09 17:00,ZGNN 091700Z 35002MPS 9999 FEW007 SCT013 OVC026 13/12 Q1018 NOSIG
ZGNN,2015-12-09 18:00,ZGNN 091800Z 35002MPS 330V030 7000 -RA FEW006 SCT010 OVC026 13/12 Q1018 NOSIG
ZGNN,2015-12-09 19:00,ZGNN 091900Z 30001MPS 7000 -RA FEW006 SCT008 OVC026 13/13 Q1018 NOSIG
ZGNN,2015-12-09 20:00,ZGNN 092000Z 36002MPS 8000 FEW006 SCT008 OVC023 13/12 Q1018 NOSIG
ZGNN,2015-12-09 21:00,ZGNN 092100Z 36002MPS 330V030 8000 FEW005 SCT007 OVC023 13/12 Q1018 NOSIG
ZGNN,2015-12-09 22:00,ZGNN 092200Z 35002MPS 320V020 8000 FEW005 SCT007 OVC023 13/12 Q1018 NOSIG
ZGNN,2015-12-09 23:00,ZGNN 092300Z 36002MPS 8000 FEW004 SCT006 OVC023 13/12 Q1019 NOSIG
ZGNN,2015-12-10 00:00,ZGNN 100000Z 01002MPS 8000 FEW005 SCT007 OVC023 13/12 Q1019 NOSIG
ZGNN,2015-12-10 01:00,ZGNN 100100Z 02002MPS 350V050 8000 FEW005 SCT009 OVC023 13/12 Q1020 NOSIG
ZGNN,2015-12-10 02:00,ZGNN 100200Z VRB01MPS 7000 FEW006 SCT009 OVC023 14/12 Q1020 NOSIG
ZGNN,2015-12-10 03:00,ZGNN 100300Z VRB01MPS 7000 SCT009 OVC023 15/12 Q1020 NOSIG
ZGNN,2015-12-10 04:00,ZGNN 100400Z 00000MPS 9000 SCT010 OVC033 15/13 Q1020 NOSIG
ZGNN,2015-12-10 05:00,ZGNN 100500Z VRB01MPS 9999 SCT013 OVC033 16/13 Q1019 NOSIG
ZGNN,2015-12-10 06:00,ZGNN 100600Z VRB01MPS 9999 SCT013 OVC033 16/13 Q1018 NOSIG
ZGNN,2015-12-10 07:00,ZGNN 100700Z 00000MPS 9999 SCT013 OVC040 16/13 Q1017 NOSIG
ZGNN,2015-12-10 08:00,ZGNN 100800Z 13002MPS 100V190 9999 SCT015 OVC043 16/13 Q1016 NOSIG
ZGNN,2015-12-10 09:00,ZGNN 100900Z 03002MPS 360V060 9999 FEW015 BKN043 16/13 Q1016 NOSIG
ZGNN,2015-12-10 10:00,ZGNN 101000Z 02002MPS 360V060 9999 FEW015 BKN043 16/13 Q1016 NOSIG
ZGNN,2015-12-10 11:00,ZGNN 101100Z 03002MPS 9999 FEW015 BKN043 16/13 Q1017 NOSIG
ZGNN,2015-12-10 12:00,ZGNN 101200Z VRB01MPS 9999 BKN046 16/14 Q1017 NOSIG
ZGNN,2015-12-10 13:00,ZGNN 101300Z VRB01MPS 8000 BKN046 15/14 Q1017 NOSIG
ZGNN,2015-12-10 14:00,ZGNN 101400Z 01002MPS 6000 NSC 15/13 Q1017 NOSIG
ZGNN,2015-12-10 15:00,ZGNN 101500Z 06002MPS 7000 NSC 15/13 Q1017 NOSIG
ZGNN,2015-12-10 16:00,ZGNN 101600Z 12002MPS 100V180 3500 BR FEW013 14/13 Q1017 NOSIG
ZGNN,2015-12-10 17:00,ZGNN 101700Z 10002MPS 4500 BR NSC 14/13 Q1017 NOSIG
ZGNN,2015-12-10 18:00,ZGNN 101800Z 08003MPS 7000 NSC 14/12 Q1017 NOSIG
ZGNN,2015-12-10 19:00,ZGNN 101900Z 03002MPS 6000 NSC 13/12 Q1017 NOSIG
ZGNN,2015-12-10 20:00,ZGNN 102000Z 04003MPS 8000 NSC 14/12 Q1016 NOSIG
ZGNN,2015-12-10 21:00,ZGNN 102100Z VRB01MPS 7000 NSC 14/12 Q1016 NOSIG
ZGNN,2015-12-10 22:00,ZGNN 102200Z 24002MPS 7000 NSC 14/13 Q1017 NOSIG
ZGNN,2015-12-10 23:00,ZGNN 102300Z 16001MPS 7000 NSC 13/12 Q1017 NOSIG
ZGNN,2015-12-11 00:00,ZGNN 110000Z 00000MPS 6000 NSC 13/13 Q1017 NOSIG
ZGNN,2015-12-11 01:00,ZGNN 110100Z 05002MPS 8000 SCT016 14/12 Q1018 NOSIG
ZGNN,2015-12-11 02:00,ZGNN 110200Z 05003MPS 7000 SCT016 14/12 Q1018 NOSIG
ZGNN,2015-12-11 03:00,ZGNN 110300Z 05004MPS 8000 SCT015 15/12 Q1019 NOSIG
ZGNN,2015-12-11 04:00,ZGNN 110400Z 06004MPS 9999 FEW020 15/11 Q1018 NOSIG
ZGNN,2015-12-11 05:00,ZGNN 110500Z 06003MPS 9999 FEW020 OVC040 15/12 Q1017 NOSIG
ZGNN,2015-12-11 06:00,ZGNN 110600Z 04003MPS 9999 FEW020 OVC033 15/12 Q1016 NOSIG
ZGNN,2015-12-11 07:00,ZGNN 110700Z 06003MPS 8000 FEW016 OVC033 15/12 Q1015 NOSIG
ZGNN,2015-12-11 08:00,ZGNN 110800Z 05003MPS 8000 FEW016 OVC033 15/12 Q1014 NOSIG
ZGNN,2015-12-11 09:00,ZGNN 110900Z 09004MPS 8000 FEW016 OVC033 15/12 Q1014 NOSIG
ZGNN,2015-12-11 10:00,ZGNN 111000Z 09004MPS 5000 BR SCT011 OVC030 14/12 Q1014 NOSIG
ZGNN,2015-12-11 11:00,ZGNN 111100Z 09003MPS 060V140 6000 SCT009 SCT011 OVC026 14/12 Q1015 NOSIG
ZGNN,2015-12-11 12:00,ZGNN 111200Z 08002MPS 050V140 6000 SCT009 SCT011 OVC026 14/12 Q1015 NOSIG
ZGNN,2015-12-11 13:00,ZGNN 111300Z 08003MPS 5000 BR SCT009 SCT011 OVC026 14/12 Q1016 NOSIG
ZGNN,2015-12-11 14:00,ZGNN 111400Z 08004MPS 060V150 6000 SCT009 SCT011 OVC026 14/12 Q1016 NOSIG
ZGNN,2015-12-11 15:00,ZGNN 111500Z 08002MPS 4500 BR SCT006 SCT008 OVC023 13/13 Q1017 NOSIG
ZGNN,2015-12-11 16:00,ZGNN 111600Z 10002MPS 3400 BR SCT006 SCT008 OVC023 13/13 Q1016 NOSIG
ZGNN,2015-12-11 17:00,ZGNN 111700Z 04002MPS 3200 BR SCT003 SCT006 OVC020 13/13 Q1016 BECMG TL1830 2500 BR
ZGNN,2015-12-11 18:00,ZGNN 111800Z 08002MPS 2800 -DZ BR SCT003 SCT006 OVC020 13/13 Q1015 NOSIG
ZGNN,2015-12-11 19:00,ZGNN 111900Z 07002MPS 2800 -RA BR SCT004 SCT007 OVC026 13/13 Q1015 BECMG TL1940 3200 BR
ZGNN,2015-12-11 20:00,ZGNN 112000Z 09002MPS 070V150 3500 BR SCT004 SCT007 OVC026 13/13 Q1014 NOSIG
ZGNN,2015-12-11 21:00,ZGNN 112100Z 07003MPS 4000 BR FEW004 SCT007 OVC026 13/12 Q1014 NOSIG
ZGNN,2015-12-11 22:00,ZGNN 112200Z 08003MPS 3500 BR FEW004 SCT007 OVC026 13/12 Q1014 NOSIG
ZGNN,2015-12-11 23:00,ZGNN 112300Z 08004MPS 4000 BR SCT005 OVC026 13/12 Q1014 NOSIG
ZGNN,2015-12-12 00:00,ZGNN 120000Z 08003MPS 2800 BR FEW005 SCT007 OVC026 13/13 Q1015 BECMG TL0130 3500 BR
ZGNN,2015-12-12 01:00,ZGNN 120100Z 09002MPS 050V150 1800 -DZ BR FEW003 SCT005 OVC026 13/13 Q1015 NOSIG
ZGNN,2015-12-12 02:00,ZGNN 120200Z 08003MPS 1600 -DZ BR FEW003 SCT005 OVC026 13/13 Q1016 NOSIG
ZGNN,2015-12-12 03:00,ZGNN 120300Z 09002MPS 2000 -DZ BR FEW003 SCT005 OVC026 14/13 Q1016 NOSIG
ZGNN,2015-12-12 04:00,ZGNN 120400Z 09002MPS 060V140 2300 -DZ BR FEW003 SCT004 OVC026 14/14 Q1015 BECMG TL0540 3500 BR
ZGNN,2015-12-12 05:00,ZGNN 120500Z VRB01MPS 2000 -DZ BR FEW003 SCT004 OVC026 15/14 Q1014 NOSIG
ZGNN,2015-12-12 06:00,ZGNN 120600Z 08002MPS 040V110 1800 -DZ BR FEW003 SCT004 OVC026 15/14 Q1012 NOSIG
ZGNN,2015-12-12 07:00,ZGNN 120700Z VRB01MPS 2200 BR FEW003 SCT004 OVC026 15/14 Q1012 NOSIG
ZGNN,2015-12-12 08:00,ZGNN 120800Z 05003MPS 1500 BR FEW002 SCT003 OVC026 15/14 Q1011 BECMG TL0900 1300 BR
ZGNN,2015-12-12 09:00,ZGNN 120900Z 05003MPS 1100 R05/1600N -DZ BR FEW001 SCT003 OVC026 15/14 Q1011 NOSIG
ZGNN,2015-12-12 10:00,ZGNN 121000Z 04004MPS 1200 R05/P2000 -DZ BR SCT002 SCT003 OVC023 14/14 Q1012 NOSIG
ZGNN,2015-12-12 11:00,ZGNN 121100Z 03003MPS 1800 -DZ BR SCT002 SCT003 OVC023 14/14 Q1012 NOSIG
ZGNN,2015-12-12 12:00,ZGNN 121200Z 05003MPS 030V140 2000 -DZ BR SCT002 SCT003 OVC023 14/14 Q1013 NOSIG
ZGNN,2015-12-12 13:00,ZGNN 121300Z 08002MPS 040V110 2500 BR FEW002 SCT003 OVC023 14/14 Q1013 NOSIG
ZGNN,2015-12-12 14:00,ZGNN 121400Z 06002MPS 2200 -DZ BR SCT002 SCT003 OVC023 14/14 Q1014 NOSIG
ZGNN,2015-12-12 15:00,ZGNN 121500Z 08002MPS 2000 -DZ BR SCT002 SCT003 OVC023 14/14 Q1014 NOSIG
ZGNN,2015-12-12 16:00,ZGNN 121600Z 06002MPS 1600 -RA BR SCT002 SCT003 OVC023 14/14 Q1014 NOSIG
ZGNN,2015-12-12 17:00,ZGNN 121700Z 09002MPS 1600 -RA BR SCT001 SCT003 OVC023 14/14 Q1014 NOSIG
ZGNN,2015-12-12 18:00,ZGNN 121800Z 08002MPS 1600 -RA BR SCT001 SCT003 OVC023 14/14 Q1014 NOSIG
ZGNN,2015-12-12 19:00,ZGNN 121900Z 06003MPS 1600 -RA BR SCT001 SCT003 OVC023 14/14 Q1014 NOSIG
ZGNN,2015-12-12 20:00,ZGNN 122000Z 05003MPS 1500 R05/1200V1400N -RA BR SCT001 SCT003 OVC023 14/14 Q1013 NOSIG
ZGNN,2015-12-12 21:00,ZGNN 122100Z 06003MPS 1500 -RA BR SCT001 SCT003 OVC023 14/14 Q1013 NOSIG
ZGNN,2015-12-12 22:00,ZGNN 122200Z 05002MPS 1500 -RA BR SCT001 SCT003 OVC023 14/14 Q1014 NOSIG
ZGNN,2015-12-12 23:00,ZGNN 122300Z 04002MPS 1600 -RA BR SCT001 SCT003 OVC023 14/14 Q1014 NOSIG
ZGNN,2015-12-13 00:00,ZGNN 130000Z 06003MPS 1500 -RA BR SCT001 SCT003 OVC023 14/14 Q1015 NOSIG
ZGNN,2015-12-13 01:00,ZGNN 130100Z 07002MPS 1000 R05/1700N -RA BR SCT001 SCT003 OVC023 14/14 Q1016 NOSIG
ZGNN,2015-12-13 02:00,ZGNN 130200Z 05003MPS 1400 R05/1900N -DZ BR SCT002 SCT004 OVC023 15/15 Q1017 BECMG TL0320 1600 BR
ZGNN,2015-12-13 03:00,ZGNN 130300Z 06003MPS 2000 -DZ BR FEW002 SCT005 OVC023 15/15 Q1017 NOSIG
ZGNN,2015-12-13 04:00,ZGNN 130400Z 05003MPS 1500 -DZ BR SCT002 SCT004 OVC023 15/15 Q1016 NOSIG
ZGNN,2015-12-13 05:00,ZGNN 130500Z 04002MPS 1500 -DZ BR SCT002 SCT004 OVC023 15/15 Q1016 NOSIG
ZGNN,2015-12-13 06:00,ZGNN 130600Z 03003MPS 1400 R05/1700N -DZ BR SCT002 SCT004 OVC023 16/16 Q1015 BECMG 1600 -DZ BR
ZGNN,2015-12-13 07:00,ZGNN 130700Z 03003MPS 1600 -DZ BR FEW002 SCT004 OVC023 16/15 Q1014 NOSIG
ZGNN,2015-12-13 08:00,ZGNN 130800Z 02003MPS 1400 R05/1800N -DZ BR FEW002 SCT004 OVC023 15/15 Q1014 NOSIG
ZGNN,2015-12-13 09:00,ZGNN 130900Z 02003MPS 1500 -DZ BR SCT002 SCT004 OVC023 15/15 Q1015 NOSIG
ZGNN,2015-12-13 10:00,ZGNN 131000Z 03003MPS 1800 -DZ BR SCT002 SCT004 OVC023 15/15 Q1015 NOSIG
ZGNN,2015-12-13 11:00,ZGNN 131100Z 07004MPS 2400 -DZ BR SCT002 SCT004 OVC023 15/15 Q1016 NOSIG
ZGNN,2015-12-13 12:00,ZGNN 131200Z 05004MPS 2400 -DZ BR FEW002 SCT004 OVC023 14/14 Q1017 NOSIG
ZGNN,2015-12-13 13:00,ZGNN 131300Z 05003MPS 030V090 2500 -DZ BR FEW002 SCT005 OVC023 14/14 Q1018 NOSIG
ZGNN,2015-12-13 14:00,ZGNN 131400Z 05003MPS 2000 -RA BR SCT002 SCT004 OVC023 14/14 Q1019 NOSIG
ZGNN,2015-12-13 15:00,ZGNN 131500Z 04002MPS 010V070 2700 -RA BR FEW002 SCT005 OVC023 14/14 Q1019 NOSIG
ZGNN,2015-12-13 16:00,ZGNN 131600Z 05001MPS 5000 BR SCT010 OVC023 14/14 Q1019 NOSIG
ZGNN,2015-12-13 17:00,ZGNN 131700Z VRB01MPS 7000 OVC023 14/14 Q1019 NOSIG
ZGNN,2015-12-13 18:00,ZGNN 131800Z VRB01MPS 9999 OVC023 14/13 Q1019 NOSIG
ZGNN,2015-12-13 19:00,ZGNN 131900Z 03002MPS 9999 OVC026 14/13 Q1018 NOSIG
ZGNN,2015-12-13 20:00,ZGNN 132000Z 02002MPS 9999 OVC023 14/13 Q1018 NOSIG
ZGNN,2015-12-13 21:00,ZGNN 132100Z 36002MPS 330V040 9999 OVC023 14/12 Q1018 NOSIG
ZGNN,2015-12-13 22:00,ZGNN 132200Z 36002MPS 330V030 9999 OVC023 14/12 Q1018 NOSIG
ZGNN,2015-12-13 23:00,ZGNN 132300Z 01003MPS 9999 -RA FEW015 OVC023 14/12 Q1019 NOSIG
ZGNN,2015-12-14 00:00,ZGNN 140000Z 01002MPS 9999 FEW013 OVC023 14/12 Q1020 NOSIG
ZGNN,2015-12-14 01:00,ZGNN 140100Z 05003MPS 010V090 9999 FEW023 14/12 Q1020 NOSIG
ZGNN,2015-12-14 02:00,ZGNN 140200Z VRB01MPS 9999 FEW016 14/12 Q1021 NOSIG
ZGNN,2015-12-14 03:00,ZGNN 140300Z 36004MPS 9999 SCT020 15/11 Q1021 NOSIG
ZGNN,2015-12-14 04:00,ZGNN 140400Z 36005MPS 330V030 9999 SCT020 16/11 Q1020 NOSIG
ZGNN,2015-12-14 05:00,ZGNN 140500Z 36003MPS 320V040 9999 SCT020 17/11 Q1019 NOSIG
ZGNN,2015-12-14 06:00,ZGNN 140600Z 01004MPS 340V040 9999 SCT023 17/11 Q1018 NOSIG
ZGNN,2015-12-14 07:00,ZGNN 140700Z 02003MPS 9999 SCT023 OVC033 16/11 Q1017 NOSIG
ZGNN,2015-12-14 08:00,ZGNN 140800Z 36003MPS 9999 SCT023 OVC033 17/12 Q1017 NOSIG
ZGNN,2015-12-14 09:00,ZGNN 140900Z 36004MPS 330V030 9999 SCT023 OVC033 17/12 Q1017 NOSIG
ZGNN,2015-12-14 10:00,ZGNN 141000Z 36002MPS 9999 SCT030 16/12 Q1017 NOSIG
ZGNN,2015-12-14 11:00,ZGNN 141100Z 08004MPS 060V120 9999 SCT023 16/12 Q1018 NOSIG
ZGNN,2015-12-14 12:00,ZGNN 141200Z 09004MPS 060V120 9999 SCT023 15/11 Q1019 NOSIG
ZGNN,2015-12-14 13:00,ZGNN 141300Z 08003MPS 9999 SCT023 14/11 Q1019 NOSIG
ZGNN,2015-12-14 14:00,ZGNN 141400Z 05003MPS 9999 SCT026 14/10 Q1020 NOSIG
ZGNN,2015-12-14 15:00,ZGNN 141500Z 06003MPS 9999 SCT026 14/10 Q1020 NOSIG
ZGNN,2015-12-14 16:00,ZGNN 141600Z 03002MPS 9999 SCT026 14/10 Q1020 NOSIG
ZGNN,2015-12-14 17:00,ZGNN 141700Z 06003MPS 9999 BKN030 14/10 Q1020 NOSIG
ZGNN,2015-12-14 18:00,ZGNN 141800Z 02002MPS 9999 BKN030 14/10 Q1020 NOSIG
ZGNN,2015-12-14 19:00,ZGNN 141900Z 05002MPS 9999 BKN030 14/11 Q1020 NOSIG
ZGNN,2015-12-14 20:00,ZGNN 142000Z 02001MPS 9999 BKN030 14/11 Q1020 NOSIG
ZGNN,2015-12-14 21:00,ZGNN 142100Z 02002MPS 9999 BKN030 14/10 Q1020 NOSIG
ZGNN,2015-12-14 22:00,ZGNN 142200Z 01002MPS 9999 SCT016 BKN030 14/10 Q1020 NOSIG
ZGNN,2015-12-14 23:00,ZGNN 142300Z 01003MPS 9999 BKN030 14/11 Q1021 NOSIG
ZGNN,2015-12-15 00:00,ZGNN 150000Z 36002MPS 9999 BKN030 14/10 Q1022 NOSIG
ZGNN,2015-12-15 01:00,ZGNN 150100Z 36003MPS 330V030 9999 SCT010 OVC030 14/10 Q1023 NOSIG
ZGNN,2015-12-15 02:00,ZGNN 150200Z 01003MPS 9999 -RA SCT010 OVC030 13/11 Q1024 NOSIG
ZGNN,2015-12-15 03:00,ZGNN 150300Z 02004MPS 9999 FEW011 OVC033 14/11 Q1024 NOSIG
ZGNN,2015-12-15 04:00,ZGNN 150400Z 01003MPS 9999 SCT015 OVC030 14/10 Q1023 NOSIG
ZGNN,2015-12-15 05:00,ZGNN 150500Z 08002MPS 010V120 9999 SCT018 OVC026 14/10 Q1023 NOSIG
ZGNN,2015-12-15 06:00,ZGNN 150600Z 36006MPS 9999 SCT020 OVC030 15/10 Q1021 NOSIG
ZGNN,2015-12-15 07:00,ZGNN 150700Z 35005MPS 320V020 9999 SCT023 OVC040 15/10 Q1021 NOSIG
ZGNN,2015-12-15 08:00,ZGNN 150800Z 34006MPS 9999 SCT020 OVC040 14/10 Q1021 NOSIG
ZGNN,2015-12-15 09:00,ZGNN 150900Z 35005MPS 9999 SCT033 14/09 Q1022 NOSIG
ZGNN,2015-12-15 10:00,ZGNN 151000Z 34004MPS 9999 SCT033 13/09 Q1023 NOSIG
ZGNN,2015-12-15 11:00,ZGNN 151100Z 35003MPS 320V020 9999 SCT033 13/08 Q1023 NOSIG
ZGNN,2015-12-15 12:00,ZGNN 151200Z 01003MPS 9999 SCT033 13/08 Q1023 NOSIG
ZGNN,2015-12-15 13:00,ZGNN 151300Z 35004MPS 9999 SCT033 13/09 Q1025 NOSIG
ZGNN,2015-12-15 14:00,ZGNN 151400Z 01003MPS 9999 FEW033 13/08 Q1025 NOSIG
ZGNN,2015-12-15 15:00,ZGNN 151500Z 35003MPS 9999 SCT033 13/08 Q1026 NOSIG
ZGNN,2015-12-15 16:00,ZGNN 151600Z 36003MPS 9999 SCT033 13/08 Q1026 NOSIG
ZGNN,2015-12-15 17:00,ZGNN 151700Z 36004MPS 9999 SCT033 13/08 Q1026 NOSIG
ZGNN,2015-12-15 18:00,ZGNN 151800Z 36004MPS 9999 SCT030 13/08 Q1026 NOSIG
ZGNN,2015-12-15 19:00,ZGNN 151900Z 36004MPS CAVOK 12/07 Q1026 NOSIG
ZGNN,2015-12-15 20:00,ZGNN 152000Z 35004MPS CAVOK 12/06 Q1026 NOSIG
ZGNN,2015-12-15 21:00,ZGNN 152100Z 35004MPS CAVOK 12/06 Q1026 NOSIG
ZGNN,2015-12-15 22:00,ZGNN 152200Z 36004MPS CAVOK 12/05 Q1026 NOSIG
ZGNN,2015-12-15 23:00,ZGNN 152300Z 36004MPS CAVOK 12/05 Q1027 NOSIG
ZGNN,2015-12-16 00:00,ZGNN 160000Z 02004MPS CAVOK 12/06 Q1027 NOSIG
ZGNN,2015-12-16 01:00,ZGNN 160100Z 36006MPS CAVOK 12/05 Q1028 NOSIG
ZGNN,2015-12-16 02:00,ZGNN 160200Z 01005MPS CAVOK 13/05 Q1028 NOSIG
ZGNN,2015-12-16 03:00,ZGNN 160300Z 36006MPS 9999 FEW013 14/04 Q1028 NOSIG
ZGNN,2015-12-16 04:00,ZGNN 160400Z 01006MPS 330V040 9999 FEW015 15/04 Q1027 NOSIG
ZGNN,2015-12-16 05:00,ZGNN 160500Z 01005MPS CAVOK 15/03 Q1026 NOSIG
ZGNN,2015-12-16 06:00,ZGNN 160600Z 34006MPS 310V010 CAVOK 16/04 Q1025 NOSIG
ZGNN,2015-12-16 07:00,ZGNN 160700Z 35005MPS 320V020 CAVOK 15/04 Q1025 NOSIG
ZGNN,2015-12-16 08:00,ZGNN 160800Z 34006MPS CAVOK 13/04 Q1025 NOSIG
ZGNN,2015-12-16 09:00,ZGNN 160900Z 35005MPS CAVOK 13/04 Q1025 NOSIG
ZGNN,2015-12-16 10:00,ZGNN 161000Z 36005MPS CAVOK 12/03 Q1027 NOSIG
ZGNN,2015-12-16 11:00,ZGNN 161100Z 36003MPS CAVOK 12/04 Q1028 NOSIG
ZGNN,2015-12-16 12:00,ZGNN 161200Z 35002MPS 330V030 CAVOK 12/04 Q1028 NOSIG
ZGNN,2015-12-16 13:00,ZGNN 161300Z 34002MPS 310V020 CAVOK 11/05 Q1029 NOSIG
ZGNN,2015-12-16 14:00,ZGNN 161400Z 35003MPS 330V030 9999 -RA NSC 11/06 Q1029 NOSIG
ZGNN,2015-12-16 15:00,ZGNN 161500Z 36002MPS 330V030 CAVOK 11/06 Q1029 NOSIG
ZGNN,2015-12-16 16:00,ZGNN 161600Z 35003MPS CAVOK 11/06 Q1029 NOSIG
ZGNN,2015-12-16 17:00,ZGNN 161700Z 35003MPS CAVOK 11/06 Q1029 NOSIG
ZGNN,2015-12-16 18:00,ZGNN 161800Z 35004MPS CAVOK 11/06 Q1029 NOSIG
ZGNN,2015-12-16 19:00,ZGNN 161900Z 35003MPS CAVOK 11/06 Q1028 NOSIG
ZGNN,2015-12-16 20:00,ZGNN 162000Z 34003MPS CAVOK 11/06 Q1028 NOSIG
ZGNN,2015-12-16 21:00,ZGNN 162100Z 35003MPS CAVOK 11/06 Q1028 NOSIG
ZGNN,2015-12-16 22:00,ZGNN 162200Z 35003MPS CAVOK 11/05 Q1028 NOSIG
ZGNN,2015-12-16 23:00,ZGNN 162300Z 36003MPS CAVOK 11/05 Q1028 NOSIG
ZGNN,2015-12-17 00:00,ZGNN 170000Z 36003MPS CAVOK 11/05 Q1029 NOSIG
ZGNN,2015-12-17 01:00,ZGNN 170100Z 35003MPS CAVOK 12/05 Q1029 NOSIG
ZGNN,2015-12-17 02:00,ZGNN 170200Z 36003MPS CAVOK 12/04 Q1030 NOSIG
ZGNN,2015-12-17 03:00,ZGNN 170300Z 36005MPS 9999 FEW013 13/03 Q1030 NOSIG
ZGNN,2015-12-17 04:00,ZGNN 170400Z 36004MPS 320V040 CAVOK 15/03 Q1029 NOSIG
ZGNN,2015-12-17 05:00,ZGNN 170500Z 04003MPS 340V140 CAVOK 15/02 Q1027 NOSIG
ZGNN,2015-12-17 06:00,ZGNN 170600Z 02003MPS 300V110 9999 FEW023 16/04 Q1026 NOSIG
ZGNN,2015-12-17 07:00,ZGNN 170700Z VRB02MPS 9999 FEW023 16/04 Q1025 NOSIG
ZGNN,2015-12-17 08:00,ZGNN 170800Z 02004MPS CAVOK 16/03 Q1025 NOSIG
ZGNN,2015-12-17 09:00,ZGNN 170900Z 36003MPS CAVOK 15/03 Q1024 NOSIG
ZGNN,2015-12-17 10:00,ZGNN 171000Z 09003MPS 060V170 CAVOK 14/03 Q1025 NOSIG
ZGNN,2015-12-17 11:00,ZGNN 171100Z 07003MPS 010V110 CAVOK 14/02 Q1025 NOSIG
ZGNN,2015-12-17 12:00,ZGNN 171200Z 09003MPS 040V120 CAVOK 13/02 Q1026 NOSIG
ZGNN,2015-12-17 13:00,ZGNN 171300Z 05003MPS CAVOK 11/02 Q1026 NOSIG
ZGNN,2015-12-17 14:00,ZGNN 171400Z VRB01MPS CAVOK 11/02 Q1026 NOSIG
ZGNN,2015-12-17 15:00,ZGNN 171500Z VRB01MPS CAVOK 11/02 Q1027 NOSIG
ZGNN,2015-12-17 16:00,ZGNN 171600Z VRB01MPS CAVOK 11/01 Q1027 NOSIG
ZGNN,2015-12-17 17:00,ZGNN 171700Z 04002MPS CAVOK 10/04 Q1027 NOSIG
ZGNN,2015-12-17 18:00,ZGNN 171800Z 04002MPS CAVOK 10/04 Q1026 NOSIG
ZGNN,2015-12-17 19:00,ZGNN 171900Z 04001MPS CAVOK 10/03 Q1026 NOSIG
ZGNN,2015-12-17 20:00,ZGNN 172000Z 03001MPS CAVOK 10/03 Q1026 NOSIG
ZGNN,2015-12-17 21:00,ZGNN 172100Z 35001MPS CAVOK 11/04 Q1026 NOSIG
ZGNN,2015-12-17 22:00,ZGNN 172200Z 05002MPS CAVOK 10/04 Q1026 NOSIG
ZGNN,2015-12-17 23:00,ZGNN 172300Z 04003MPS CAVOK 10/02 Q1026 NOSIG
ZGNN,2015-12-18 00:00,ZGNN 180000Z VRB01MPS CAVOK 10/02 Q1027 NOSIG
ZGNN,2015-12-18 01:00,ZGNN 180100Z 04002MPS CAVOK 11/01 Q1028 NOSIG
ZGNN,2015-12-18 02:00,ZGNN 180200Z 07004MPS CAVOK 12/00 Q1028 NOSIG
ZGNN,2015-12-18 03:00,ZGNN 180300Z 07004MPS CAVOK 13/M00 Q1028 NOSIG
ZGNN,2015-12-18 04:00,ZGNN 180400Z 06004MPS 010V110 CAVOK 14/M01 Q1027 NOSIG
ZGNN,2015-12-18 05:00,ZGNN 180500Z 06003MPS 030V100 CAVOK 15/00 Q1026 NOSIG
ZGNN,2015-12-18 06:00,ZGNN 180600Z 04002MPS 330V090 CAVOK 16/02 Q1025 NOSIG
ZGNN,2015-12-18 07:00,ZGNN 180700Z 04002MPS 310V090 CAVOK 17/01 Q1024 NOSIG
ZGNN,2015-12-18 08:00,ZGNN 180800Z VRB01MPS CAVOK 16/01 Q1023 NOSIG
ZGNN,2015-12-18 09:00,ZGNN 180900Z 05003MPS 010V070 CAVOK 15/02 Q1024 NOSIG
ZGNN,2015-12-18 10:00,ZGNN 181000Z 01003MPS CAVOK 15/04 Q1024 NOSIG
ZGNN,2015-12-18 11:00,ZGNN 181100Z 02002MPS CAVOK 14/05 Q1025 NOSIG
ZGNN,2015-12-18 12:00,ZGNN 181200Z 08004MPS 040V130 CAVOK 14/03 Q1025 NOSIG
ZGNN,2015-12-18 13:00,ZGNN 181300Z 06003MPS CAVOK 14/04 Q1026 NOSIG
ZGNN,2015-12-18 14:00,ZGNN 181400Z 09003MPS 070V130 CAVOK 13/04 Q1026 NOSIG
ZGNN,2015-12-18 15:00,ZGNN 181500Z 09002MPS 9999 OVC043 13/03 Q1026 NOSIG
ZGNN,2015-12-18 16:00,ZGNN 181600Z 02002MPS 9999 OVC043 13/03 Q1026 NOSIG
ZGNN,2015-12-18 17:00,ZGNN 181700Z 03002MPS 9999 OVC043 13/03 Q1026 NOSIG
ZGNN,2015-12-18 18:00,ZGNN 181800Z 05002MPS 9999 OVC043 13/04 Q1026 NOSIG
ZGNN,2015-12-18 19:00,ZGNN 181900Z 05003MPS 9999 OVC043 13/04 Q1026 NOSIG
ZGNN,2015-12-18 20:00,ZGNN 182000Z 03002MPS 9999 OVC043 12/04 Q1025 NOSIG
ZGNN,2015-12-18 21:00,ZGNN 182100Z 06001MPS 9999 OVC040 12/05 Q1025 NOSIG
ZGNN,2015-12-18 22:00,ZGNN 182200Z 08002MPS 9999 OVC033 12/05 Q1025 NOSIG
ZGNN,2015-12-18 23:00,ZGNN 182300Z 08003MPS 9999 OVC033 12/03 Q1025 NOSIG
ZGNN,2015-12-19 00:00,ZGNN 190000Z 06003MPS 010V160 9999 OVC033 12/03 Q1026 NOSIG
ZGNN,2015-12-19 01:00,ZGNN 190100Z 04003MPS 9999 OVC033 12/04 Q1026 NOSIG
ZGNN,2015-12-19 02:00,ZGNN 190200Z 04003MPS 9999 OVC033 13/03 Q1027 NOSIG
ZGNN,2015-12-19 03:00,ZGNN 190300Z 04003MPS 010V070 9999 OVC033 13/03 Q1027 NOSIG
ZGNN,2015-12-19 04:00,ZGNN 190400Z 03002MPS 9999 OVC033 13/04 Q1027 NOSIG
ZGNN,2015-12-19 05:00,ZGNN 190500Z 35003MPS 320V040 9999 OVC033 14/05 Q1026 NOSIG
ZGNN,2015-12-19 06:00,ZGNN 190600Z 06002MPS 020V130 9999 SCT033 15/05 Q1024 NOSIG
ZGNN,2015-12-19 07:00,ZGNN 190700Z 01003MPS 9999 BKN033 15/05 Q1023 NOSIG
ZGNN,2015-12-19 08:00,ZGNN 190800Z 03003MPS 360V060 9999 BKN033 15/05 Q1023 NOSIG
ZGNN,2015-12-19 09:00,ZGNN 190900Z 06002MPS 030V120 9999 BKN033 15/05 Q1024 NOSIG
ZGNN,2015-12-19 10:00,ZGNN 191000Z 10002MPS 8000 OVC033 15/06 Q1024 NOSIG
ZGNN,2015-12-19 11:00,ZGNN 191100Z 09003MPS 080V140 7000 OVC033 14/06 Q1024 NOSIG
ZGNN,2015-12-19 12:00,ZGNN 191200Z 06002MPS 360V120 8000 OVC033 15/06 Q1025 NOSIG
ZGNN,2015-12-19 13:00,ZGNN 191300Z 11002MPS 100V180 8000 OVC040 14/07 Q1025 NOSIG
ZGNN,2015-12-19 14:00,ZGNN 191400Z 09002MPS 060V140 8000 OVC040 14/06 Q1025 NOSIG
ZGNN,2015-12-19 15:00,ZGNN 191500Z 06003MPS 8000 OVC040 14/06 Q1025 NOSIG
ZGNN,2015-12-19 16:00,ZGNN 191600Z 03002MPS 8000 BKN040 13/07 Q1025 NOSIG
ZGNN,2015-12-19 17:00,ZGNN 191700Z 27001MPS 7000 NSC 12/09 Q1025 NOSIG
ZGNN,2015-12-19 18:00,ZGNN 191800Z VRB01MPS 7000 NSC 12/09 Q1025 NOSIG
ZGNN,2015-12-19 19:00,ZGNN 191900Z VRB01MPS 7000 NSC 12/09 Q1024 NOSIG
ZGNN,2015-12-19 20:00,ZGNN 192000Z 02002MPS 7000 NSC 13/09 Q1024 NOSIG
ZGNN,2015-12-19 21:00,ZGNN 192100Z 06002MPS 7000 NSC 13/08 Q1023 NOSIG
ZGNN,2015-12-19 22:00,ZGNN 192200Z VRB01MPS 7000 NSC 12/10 Q1024 NOSIG
ZGNN,2015-12-19 23:00,ZGNN 192300Z VRB01MPS 7000 NSC 12/09 Q1024 NOSIG
ZGNN,2015-12-20 00:00,ZGNN 200000Z VRB01MPS 6000 NSC 12/09 Q1024 NOSIG
ZGNN,2015-12-20 01:00,ZGNN 200100Z 36002MPS 8000 NSC 13/08 Q1025 NOSIG
ZGNN,2015-12-20 02:00,ZGNN 200200Z 04002MPS 340V080 8000 NSC 14/08 Q1025 NOSIG
ZGNN,2015-12-20 03:00,ZGNN 200300Z 36003MPS 7000 NSC 15/09 Q1025 NOSIG
ZGNN,2015-12-20 04:00,ZGNN 200400Z VRB02MPS 7000 NSC 16/09 Q1024 NOSIG
ZGNN,2015-12-20 05:00,ZGNN 200500Z 06002MPS 340V110 6000 NSC 17/08 Q1023 NOSIG
ZGNN,2015-12-20 06:00,ZGNN 200600Z 08002MPS 040V160 6000 NSC 18/09 Q1021 NOSIG
ZGNN,2015-12-20 07:00,ZGNN 200700Z 06003MPS 360V130 6000 NSC 19/09 Q1020 NOSIG
ZGNN,2015-12-20 08:00,ZGNN 200800Z 05003MPS 010V090 5000 HZ NSC 18/09 Q1020 NOSIG
ZGNN,2015-12-20 09:00,ZGNN 200900Z 06003MPS 030V110 5000 HZ NSC 18/09 Q1020 NOSIG
ZGNN,2015-12-20 10:00,ZGNN 201000Z 06002MPS 040V130 6000 NSC 17/09 Q1020 NOSIG
ZGNN,2015-12-20 11:00,ZGNN 201100Z 01002MPS 340V050 5000 HZ NSC 16/11 Q1021 NOSIG
ZGNN,2015-12-20 12:00,ZGNN 201200Z 09002MPS 040V150 5000 HZ NSC 15/10 Q1022 NOSIG
ZGNN,2015-12-20 13:00,ZGNN 201300Z 07002MPS 040V100 5000 HZ NSC 14/09 Q1022 NOSIG
ZGNN,2015-12-20 14:00,ZGNN 201400Z 09002MPS 060V120 6000 NSC 13/09 Q1023 NOSIG
ZGNN,2015-12-20 15:00,ZGNN 201500Z 05002MPS 5000 BR NSC 12/09 Q1022 NOSIG
ZGNN,2015-12-20 16:00,ZGNN 201600Z 01002MPS 4000 BR NSC 11/09 Q1022 NOSIG
ZGNN,2015-12-20 17:00,ZGNN 201700Z VRB01MPS 4500 BR NSC 10/09 Q1022 NOSIG
ZGNN,2015-12-20 18:00,ZGNN 201800Z 35001MPS 4000 BR NSC 10/09 Q1021 NOSIG
ZGNN,2015-12-20 19:00,ZGNN 201900Z VRB01MPS 4000 BR NSC 09/09 Q1021 NOSIG
ZGNN,2015-12-20 20:00,ZGNN 202000Z 14001MPS 4000 BR NSC 09/08 Q1021 NOSIG
ZGNN,2015-12-20 21:00,ZGNN 202100Z 19001MPS 4000 BR NSC 09/08 Q1021 NOSIG
ZGNN,2015-12-20 22:00,ZGNN 202200Z 26002MPS 3100 BR NSC 09/08 Q1021 BECMG TL2240 2500 BR
ZGNN,2015-12-20 23:00,ZGNN 202300Z 00000MPS 2800 BR NSC 09/08 Q1021 BECMG TL0020 3500 BR
ZGNN,2015-12-21 00:00,ZGNN 210000Z 00000MPS 3100 BR NSC 09/08 Q1022 NOSIG
ZGNN,2015-12-21 01:00,ZGNN 210100Z VRB01MPS 3100 BR NSC 11/10 Q1023 NOSIG
ZGNN,2015-12-21 02:00,ZGNN 210200Z VRB01MPS 3100 BR NSC 14/10 Q1023 NOSIG
ZGNN,2015-12-21 03:00,ZGNN 210300Z VRB01MPS 3500 HZ NSC 16/11 Q1023 NOSIG
ZGNN,2015-12-21 04:00,ZGNN 210400Z VRB01MPS 7000 NSC 19/11 Q1022 NOSIG
ZGNN,2015-12-21 05:00,ZGNN 210500Z VRB01MPS 7000 NSC 21/12 Q1021 NOSIG
ZGNN,2015-12-21 06:00,ZGNN 210600Z VRB01MPS 8000 NSC 22/12 Q1019 NOSIG
ZGNN,2015-12-21 07:00,ZGNN 210700Z VRB01MPS CAVOK 23/13 Q1018 NOSIG
ZGNN,2015-12-21 08:00,ZGNN 210800Z 11002MPS 080V150 CAVOK 22/14 Q1018 NOSIG
ZGNN,2015-12-21 09:00,ZGNN 210900Z 11003MPS 090V190 CAVOK 21/14 Q1018 NOSIG
ZGNN,2015-12-21 10:00,ZGNN 211000Z 11002MPS CAVOK 20/14 Q1018 NOSIG
ZGNN,2015-12-21 11:00,ZGNN 211100Z 14002MPS 6000 NSC 20/15 Q1019 NOSIG
ZGNN,2015-12-21 12:00,ZGNN 211200Z 14003MPS 100V180 6000 NSC 19/14 Q1019 NOSIG
ZGNN,2015-12-21 13:00,ZGNN 211300Z 14002MPS 100V170 5000 -RA BR FEW015 19/15 Q1020 NOSIG
ZGNN,2015-12-21 14:00,ZGNN 211400Z 13002MPS 100V200 5000 -RA BR FEW015 18/15 Q1021 NOSIG
ZGNN,2015-12-21 15:00,ZGNN 211500Z 00000MPS 5000 BR NSC 18/15 Q1021 NOSIG
ZGNN,2015-12-21 16:00,ZGNN 211600Z 07002MPS 5000 BR NSC 18/15 Q1020 NOSIG
ZGNN,2015-12-21 17:00,ZGNN 211700Z VRB01MPS 5000 BR OVC046 17/15 Q1020 NOSIG
ZGNN,2015-12-21 18:00,ZGNN 211800Z 02001MPS 4000 -RA BR FEW033 OVC046 17/16 Q1020 NOSIG
ZGNN,2015-12-21 19:00,ZGNN 211900Z 05001MPS 4000 -RA BR OVC030 17/16 Q1020 NOSIG
ZGNN,2015-12-21 20:00,ZGNN 212000Z 05002MPS 3500 -RA BR FEW003 SCT007 OVC030 16/16 Q1019 NOSIG
ZGNN,2015-12-21 21:00,ZGNN 212100Z 10001MPS 3100 -RA BR FEW003 SCT005 OVC026 16/16 Q1019 NOSIG
ZGNN,2015-12-21 22:00,ZGNN 212200Z VRB01MPS 3000 -RA BR FEW003 SCT005 OVC026 16/16 Q1019 NOSIG
ZGNN,2015-12-21 23:00,ZGNN 212300Z 00000MPS 2000 -RA BR FEW004 SCT007 OVC026 16/16 Q1020 NOSIG
ZGNN,2015-12-22 00:00,ZGNN 220000Z VRB01MPS 1200 R05/1500N -RA BR FEW002 SCT004 OVC023 16/16 Q1020 BECMG 1600 BR
ZGNN,2015-12-22 01:00,ZGNN 220100Z VRB01MPS 1000 R05/1000V1400U -RA BR FEW002 SCT003 OVC023 17/16 Q1021 BECMG TL0220 1600 -RA BR
ZGNN,2015-12-22 02:00,ZGNN 220200Z VRB01MPS 1200 R05/1500U -RA BR FEW002 SCT003 OVC023 17/17 Q1022 RERA BECMG TL0300 1600 -RA BR
ZGNN,2015-12-22 03:00,ZGNN 220300Z VRB01MPS 1500 -RA BR FEW002 SCT004 OVC023 17/17 Q1022 BECMG TL0445 3500 BR
ZGNN,2015-12-22 04:00,ZGNN 220400Z VRB01MPS 1600 -RA BR SCT005 SCT010 OVC023 18/17 Q1021 NOSIG
ZGNN,2015-12-22 05:00,ZGNN 220500Z 14001MPS 1200 R05/1400D -RA BR FEW002 SCT005 OVC023 18/17 Q1020 NOSIG
ZGNN,2015-12-22 06:00,ZGNN 220600Z 09002MPS 060V120 1300 R05/1300U -RA BR FEW003 SCT005 OVC023 18/18 Q1019 NOSIG
ZGNN,2015-12-22 07:00,ZGNN 220700Z 11002MPS 080V170 1600 -RA BR FEW003 SCT008 OVC023 18/18 Q1018 NOSIG
ZGNN,2015-12-22 08:00,ZGNN 220800Z VRB01MPS 2500 BR FEW004 SCT008 OVC026 18/18 Q1017 BECMG TL0900 3300 BR
ZGNN,2015-12-22 09:00,ZGNN 220900Z 12002MPS 090V200 3500 BR SCT007 OVC026 19/18 Q1017 NOSIG
ZGNN,2015-12-22 10:00,ZGNN 221000Z 09002MPS 3500 BR SCT006 OVC026 18/18 Q1017 NOSIG
ZGNN,2015-12-22 11:00,ZGNN 221100Z 05003MPS 020V110 4000 BR FEW003 SCT005 OVC026 18/17 Q1017 NOSIG
ZGNN,2015-12-22 12:00,ZGNN 221200Z 04003MPS 4000 BR SCT006 OVC026 18/17 Q1018 NOSIG
ZGNN,2015-12-22 13:00,ZGNN 221300Z 02001MPS 4000 BR SCT005 OVC026 18/17 Q1019 NOSIG
ZGNN,2015-12-22 14:00,ZGNN 221400Z 02002MPS 3200 BR FEW003 SCT005 OVC026 18/17 Q1019 NOSIG
ZGNN,2015-12-22 15:00,ZGNN 221500Z 07002MPS 4000 BR FEW002 SCT003 OVC026 18/17 Q1019 NOSIG
ZGNN,2015-12-22 16:00,ZGNN 221600Z 08002MPS 3600 -RA BR FEW002 SCT003 OVC026 18/17 Q1019 NOSIG
ZGNN,2015-12-22 17:00,ZGNN 221700Z 07002MPS 3200 -RA BR SCT002 SCT003 OVC026 17/17 Q1019 NOSIG
ZGNN,2015-12-22 18:00,ZGNN 221800Z 09001MPS 3100 BR SCT002 SCT003 OVC026 17/17 Q1018 BECMG TL1900 2500 -RA BR
ZGNN,2015-12-22 19:00,ZGNN 221900Z 05001MPS 2500 -DZ BR FEW001 SCT003 OVC026 17/17 Q1017 NOSIG
ZGNN,2015-12-22 20:00,ZGNN 222000Z 06002MPS 2500 -DZ BR FEW001 SCT003 OVC026 17/17 Q1017 NOSIG
ZGNN,2015-12-22 21:00,ZGNN 222100Z 05001MPS 2500 -DZ BR SCT002 SCT004 OVC026 17/17 Q1017 NOSIG
ZGNN,2015-12-22 22:00,ZGNN 222200Z 04002MPS 2800 BR SCT002 SCT004 OVC026 17/17 Q1017 NOSIG
ZGNN,2015-12-22 23:00,ZGNN 222300Z 06002MPS 1800 BR SCT001 SCT003 OVC026 17/17 Q1017 NOSIG
ZGNN,2015-12-23 00:00,ZGNN 230000Z 07002MPS 0800 R05/P2000 FG SCT001 SCT003 OVC026 17/17 Q1017 BECMG 2000 BR
ZGNN,2015-12-23 01:00,ZGNN 230100Z 06001MPS 2500 BR SCT001 SCT002 OVC026 17/17 Q1018 BECMG TL0230 3500 BR
ZGNN,2015-12-23 02:00,ZGNN 230200Z VRB01MPS 2500 BR FEW001 SCT002 OVC026 18/18 Q1018 BECMG TL0330 3500 BR
ZGNN,2015-12-23 03:00,ZGNN 230300Z VRB01MPS 1700 R05/1000V1400N BR FEW001 BKN002 OVC026 18/18 Q1018 NOSIG
ZGNN,2015-12-23 04:00,ZGNN 230400Z VRB01MPS 1200 R05/1500N BR FEW001 SCT002 OVC026 19/19 Q1017 BECMG TL0440 1600 BR
ZGNN,2015-12-23 05:00,ZGNN 230500Z VRB01MPS 2800 BR FEW003 SCT004 OVC026 20/20 Q1016 BECMG TL0540 3500 BR
ZGNN,2015-12-23 06:00,ZGNN 230600Z VRB01MPS 4000 BR FEW005 SCT010 OVC026 21/20 Q1014 NOSIG
ZGNN,2015-12-23 07:00,ZGNN 230700Z 15002MPS 090V180 6000 FEW005 SCT010 OVC026 22/21 Q1013 NOSIG
ZGNN,2015-12-23 08:00,ZGNN 230800Z 12002MPS 6000 FEW005 SCT010 OVC026 21/21 Q1013 NOSIG
ZGNN,2015-12-23 09:00,ZGNN 230900Z 11002MPS 090V160 4000 BR FEW004 SCT007 OVC026 21/21 Q1013 BECMG TL1030 2000 -DZ BR
ZGNN,2015-12-23 10:00,ZGNN 231000Z VRB01MPS 3500 BR SCT004 SCT006 OVC026 21/21 Q1013 BECMG TL1120 2500 BR
ZGNN,2015-12-23 11:00,ZGNN 231100Z VRB01MPS 4000 BR SCT006 SCT007 OVC026 21/21 Q1013 NOSIG
ZGNN,2015-12-23 12:00,ZGNN 231200Z 13002MPS 110V180 4500 BR SCT009 SCT011 OVC026 21/21 Q1013 NOSIG
ZGNN,2015-12-23 13:00,ZGNN 231300Z VRB01MPS 5000 BR SCT009 SCT011 OVC026 21/21 Q1014 NOSIG
ZGNN,2015-12-23 14:00,ZGNN 231400Z 14002MPS 6000 SCT009 SCT011 OVC026 21/21 Q1014 NOSIG
ZGNN,2015-12-23 15:00,ZGNN 231500Z VRB01MPS 5000 BR SCT009 SCT013 OVC026 21/20 Q1015 NOSIG
ZGNN,2015-12-23 16:00,ZGNN 231600Z VRB01MPS 4500 BR SCT009 SCT013 BKN026 21/20 Q1015 NOSIG
ZGNN,2015-12-23 17:00,ZGNN 231700Z 00000MPS 4000 BR SCT009 BKN026 20/20 Q1014 NOSIG
ZGNN,2015-12-23 18:00,ZGNN 231800Z VRB01MPS 2000 PRFG BR FEW003 SCT026 20/19 Q1014 BECMG TL1900 1200 BR
ZGNN,2015-12-23 19:00,ZGNN 231900Z 00000MPS 1400 R05/0700D BR FEW002 SCT004 BKN026 20/20 Q1014 BECMG TL2000 2000 BR
ZGNN,2015-12-23 20:00,ZGNN 232000Z VRB01MPS 1600 R05/0550N PRFG BR SCT002 SCT003 BKN026 20/20 Q1014 BECMG 0800 FG
ZGNN,2015-12-23 21:00,ZGNN 232100Z 11001MPS 0400 R05/0400N FG SCT001 SCT002 OVC020 20/20 Q1014 NOSIG
ZGNN,2015-12-23 22:00,ZGNN 232200Z VRB01MPS 0600 R05/0500N FG SCT001 SCT002 OVC020 20/20 Q1014 BECMG 0800 FG
ZGNN,2015-12-23 23:00,ZGNN 232300Z 01001MPS 0600 R05/0550V0800U FG FEW001 SCT002 BKN026 20/20 Q1015 BECMG 0800 FG
ZGNN,2015-12-24 00:00,ZGNN 240000Z 00000MPS 0700 R05/0450D FG FEW002 SCT007 BKN026 20/20 Q1016 BECMG TL0120 1200 BR
ZGNN,2015-12-24 01:00,ZGNN 240100Z VRB01MPS 1400 R05/1700N BR FEW001 SCT003 BKN023 20/20 Q1017 BECMG TL0150 1600 BR
ZGNN,2015-12-24 02:00,ZGNN 240200Z VRB01MPS 2200 BR SCT003 SCT005 OVC023 21/21 Q1017 BECMG 3100 BR
ZGNN,2015-12-24 03:00,ZGNN 240300Z VRB01MPS 3000 BR FEW004 SCT006 BKN026 22/21 Q1018 NOSIG
ZGNN,2015-12-24 04:00,ZGNN 240400Z 09002MPS 020V120 4000 BR FEW006 SCT016 24/21 Q1017 NOSIG
ZGNN,2015-12-24 05:00,ZGNN 240500Z 03002MPS 350V060 8000 BKN015 SCT033 25/21 Q1016 NOSIG
ZGNN,2015-12-24 06:00,ZGNN 240600Z 36004MPS 330V050 8000 SCT015 SCT033 25/21 Q1015 NOSIG
ZGNN,2015-12-24 07:00,ZGNN 240700Z 36003MPS 8000 SCT016 26/21 Q1015 NOSIG
ZGNN,2015-12-24 08:00,ZGNN 240800Z 07007MPS 8000 SCT016 SCT033 23/20 Q1015 NOSIG
ZGNN,2015-12-24 09:00,ZGNN 240900Z 06008MPS 9999 SCT015 BKN033 21/17 Q1016 NOSIG
ZGNN,2015-12-24 10:00,ZGNN 241000Z 04007MPS 9999 SCT016 OVC033 18/15 Q1018 NOSIG
ZGNN,2015-12-24 11:00,ZGNN 241100Z 07006MPS 9999 SCT016 OVC033 17/14 Q1019 NOSIG
ZGNN,2015-12-24 12:00,ZGNN 241200Z 08004MPS 050V120 9999 SCT016 OVC033 17/13 Q1020 NOSIG
ZGNN,2015-12-24 13:00,ZGNN 241300Z 07003MPS 9999 SCT016 OVC033 17/13 Q1021 NOSIG
ZGNN,2015-12-24 14:00,ZGNN 241400Z 08004MPS 9999 FEW016 OVC033 16/12 Q1022 NOSIG
ZGNN,2015-12-24 15:00,ZGNN 241500Z 08004MPS 9999 SCT016 OVC033 16/12 Q1022 NOSIG
ZGNN,2015-12-24 16:00,ZGNN 241600Z 09003MPS 050V120 9999 SCT020 OVC033 16/11 Q1022 NOSIG
ZGNN,2015-12-24 17:00,ZGNN 241700Z VRB01MPS 9999 SCT020 OVC033 15/11 Q1023 NOSIG
ZGNN,2015-12-24 18:00,ZGNN 241800Z 36005MPS 330V030 9999 FEW020 OVC033 15/10 Q1023 NOSIG
ZGNN,2015-12-24 19:00,ZGNN 241900Z 01006MPS 9999 FEW020 OVC033 15/09 Q1023 NOSIG
ZGNN,2015-12-24 20:00,ZGNN 242000Z 01005MPS 9999 FEW020 OVC033 14/08 Q1023 NOSIG
ZGNN,2015-12-24 21:00,ZGNN 242100Z 01005MPS 9999 FEW020 OVC033 14/08 Q1023 NOSIG
ZGNN,2015-12-24 22:00,ZGNN 242200Z 02005MPS 9999 OVC033 14/07 Q1023 NOSIG
ZGNN,2015-12-24 23:00,ZGNN 242300Z 02005MPS 9999 OVC040 14/07 Q1024 NOSIG
ZGNN,2015-12-25 00:00,ZGNN 250000Z 01005MPS 9999 BKN040 14/07 Q1025 NOSIG
ZGNN,2015-12-25 01:00,ZGNN 250100Z 02006MPS CAVOK 14/07 Q1025 NOSIG
ZGNN,2015-12-25 02:00,ZGNN 250200Z 01005MPS CAVOK 16/07 Q1026 NOSIG
ZGNN,2015-12-25 03:00,ZGNN 250300Z 01005MPS 340V040 CAVOK 15/07 Q1026 NOSIG
ZGNN,2015-12-25 04:00,ZGNN 250400Z 35006MPS CAVOK 16/07 Q1025 NOSIG
ZGNN,2015-12-25 05:00,ZGNN 250500Z 35005MPS CAVOK 17/07 Q1024 NOSIG
ZGNN,2015-12-25 06:00,ZGNN 250600Z 35005MPS CAVOK 16/07 Q1023 NOSIG
ZGNN,2015-12-25 07:00,ZGNN 250700Z 35005MPS 330V030 CAVOK 17/07 Q1022 NOSIG
ZGNN,2015-12-25 08:00,ZGNN 250800Z 36005MPS CAVOK 16/07 Q1022 NOSIG
ZGNN,2015-12-25 09:00,ZGNN 250900Z 01004MPS 340V040 CAVOK 16/07 Q1022 NOSIG
ZGNN,2015-12-25 10:00,ZGNN 251000Z 02003MPS CAVOK 16/08 Q1022 NOSIG
ZGNN,2015-12-25 11:00,ZGNN 251100Z 01002MPS 320V060 CAVOK 15/08 Q1023 NOSIG
ZGNN,2015-12-25 12:00,ZGNN 251200Z 11002MPS 090V200 CAVOK 14/10 Q1024 NOSIG
ZGNN,2015-12-25 13:00,ZGNN 251300Z 03002MPS 9999 -RA BKN046 14/09 Q1024 NOSIG
ZGNN,2015-12-25 14:00,ZGNN 251400Z 36002MPS 330V030 7000 -RA BKN046 13/11 Q1024 NOSIG
ZGNN,2015-12-25 15:00,ZGNN 251500Z 35004MPS 7000 -RA FEW033 BKN046 12/10 Q1024 NOSIG
ZGNN,2015-12-25 16:00,ZGNN 251600Z 34003MPS 4500 -RA BR SCT033 BKN046 11/10 Q1024 NOSIG
ZGNN,2015-12-25 17:00,ZGNN 251700Z 03004MPS 3500 -RA BR SCT020 OVC040 11/10 Q1023 NOSIG
ZGNN,2015-12-25 18:00,ZGNN 251800Z 02002MPS 4000 -RA BR FEW005 SCT007 OVC040 11/11 Q1023 NOSIG
ZGNN,2015-12-25 19:00,ZGNN 251900Z 01002MPS 3800 -RA BR FEW005 SCT007 OVC040 11/11 Q1022 NOSIG
ZGNN,2015-12-25 20:00,ZGNN 252000Z 03002MPS 340V060 4000 -RA BR FEW005 SCT016 OVC040 11/11 Q1022 NOSIG
ZGNN,2015-12-25 21:00,ZGNN 252100Z VRB01MPS 3500 -RA BR FEW005 SCT009 OVC040 11/11 Q1021 NOSIG
ZGNN,2015-12-25 22:00,ZGNN 252200Z 04002MPS 3500 -RA BR FEW003 SCT008 OVC030 11/11 Q1021 NOSIG
ZGNN,2015-12-25 23:00,ZGNN 252300Z 33002MPS 3500 -RA BR FEW004 SCT008 OVC030 11/11 Q1022 NOSIG
ZGNN,2015-12-26 00:00,ZGNN 260000Z 03002MPS 4200 -RA BR FEW003 SCT009 OVC030 11/11 Q1022 NOSIG
ZGNN,2015-12-26 01:00,ZGNN 260100Z 05004MPS 6000 -RA FEW003 SCT008 OVC033 12/11 Q1022 NOSIG
ZGNN,2015-12-26 02:00,ZGNN 260200Z 06003MPS 6000 FEW005 SCT010 OVC033 12/11 Q1023 NOSIG
ZGNN,2015-12-26 03:00,ZGNN 260300Z 07004MPS 8000 SCT010 OVC033 12/11 Q1023 NOSIG
ZGNN,2015-12-26 04:00,ZGNN 260400Z 04003MPS 9000 -RA SCT015 OVC033 12/10 Q1023 NOSIG
ZGNN,2015-12-26 05:00,ZGNN 260500Z 09002MPS 6000 -RA SCT008 OVC033 12/11 Q1021 NOSIG
ZGNN,2015-12-26 06:00,ZGNN 260600Z VRB01MPS 6000 -RA FEW008 SCT011 OVC033 12/11 Q1021 NOSIG
ZGNN,2015-12-26 07:00,ZGNN 260700Z VRB01MPS 4000 -RA BR FEW008 SCT011 OVC033 12/11 Q1020 NOSIG
ZGNN,2015-12-26 08:00,ZGNN 260800Z VRB01MPS 4000 -RA BR FEW006 SCT011 OVC033 12/11 Q1020 NOSIG
ZGNN,2015-12-26 09:00,ZGNN 260900Z VRB01MPS 5000 -RA BR FEW006 SCT011 OVC033 12/11 Q1021 NOSIG
ZGNN,2015-12-26 10:00,ZGNN 261000Z VRB01MPS 4500 -RA BR FEW005 SCT010 OVC033 12/12 Q1020 NOSIG
ZGNN,2015-12-26 11:00,ZGNN 261100Z 01001MPS 5000 -RA BR FEW005 SCT011 OVC033 12/12 Q1021 NOSIG
ZGNN,2015-12-26 12:00,ZGNN 261200Z VRB01MPS 5000 BR SCT013 OVC033 12/12 Q1021 NOSIG
ZGNN,2015-12-26 13:00,ZGNN 261300Z VRB01MPS 6000 FEW005 SCT010 OVC033 12/12 Q1022 NOSIG
ZGNN,2015-12-26 14:00,ZGNN 261400Z VRB01MPS 4000 BR FEW005 SCT010 OVC033 13/12 Q1023 NOSIG
ZGNN,2015-12-26 15:00,ZGNN 261500Z 03002MPS 4000 BR FEW005 SCT010 OVC033 12/12 Q1023 NOSIG
ZGNN,2015-12-26 16:00,ZGNN 261600Z VRB01MPS 4000 BR FEW005 SCT010 OVC033 13/12 Q1024 NOSIG
ZGNN,2015-12-26 17:00,ZGNN 261700Z 33001MPS 3500 BR FEW005 SCT010 OVC030 13/12 Q1024 NOSIG
ZGNN,2015-12-26 18:00,ZGNN 261800Z VRB01MPS 3100 -DZ BR FEW004 SCT010 OVC030 12/12 Q1024 BECMG TL1830 2500 BR
ZGNN,2015-12-26 19:00,ZGNN 261900Z VRB01MPS 2600 -DZ BR FEW003 SCT008 OVC026 12/12 Q1024 NOSIG
ZGNN,2015-12-26 20:00,ZGNN 262000Z 00000MPS 2800 -DZ BR FEW003 SCT008 OVC026 12/12 Q1024 NOSIG
ZGNN,2015-12-26 21:00,ZGNN 262100Z 00000MPS 2800 -DZ BR FEW003 SCT008 OVC026 12/12 Q1023 NOSIG
ZGNN,2015-12-26 22:00,ZGNN 262200Z 34002MPS 2800 -DZ BR SCT003 SCT005 OVC023 12/12 Q1024 NOSIG
ZGNN,2015-12-26 23:00,ZGNN 262300Z 35002MPS 5000 BR SCT015 OVC030 13/12 Q1024 NOSIG
ZGNN,2015-12-27 00:00,ZGNN 270000Z 32001MPS 4000 BR SCT015 OVC030 13/12 Q1025 NOSIG
ZGNN,2015-12-27 01:00,ZGNN 270100Z 36002MPS 330V030 4000 BR SCT015 OVC030 13/12 Q1025 NOSIG
ZGNN,2015-12-27 02:00,ZGNN 270200Z 35003MPS 310V010 6000 SCT010 14/12 Q1026 NOSIG
ZGNN,2015-12-27 03:00,ZGNN 270300Z VRB02MPS 8000 FEW011 17/12 Q1026 NOSIG
ZGNN,2015-12-27 04:00,ZGNN 270400Z 04002MPS 010V080 9999 FEW020 18/11 Q1025 NOSIG
ZGNN,2015-12-27 05:00,ZGNN 270500Z 10002MPS 060V190 9999 FEW023 18/11 Q1023 NOSIG
ZGNN,2015-12-27 06:00,ZGNN 270600Z 08002MPS 360V140 9999 FEW026 19/10 Q1021 NOSIG
ZGNN,2015-12-27 07:00,ZGNN 270700Z 08002MPS 360V170 9999 FEW026 19/11 Q1021 NOSIG
ZGNN,2015-12-27 08:00,ZGNN 270800Z 06002MPS 020V100 9999 FEW026 19/10 Q1021 NOSIG
ZGNN,2015-12-27 09:00,ZGNN 270900Z VRB01MPS CAVOK 19/11 Q1021 NOSIG
ZGNN,2015-12-27 10:00,ZGNN 271000Z 36002MPS CAVOK 17/12 Q1022 NOSIG
ZGNN,2015-12-27 11:00,ZGNN 271100Z 34002MPS 7000 NSC 16/12 Q1023 NOSIG
ZGNN,2015-12-27 12:00,ZGNN 271200Z 08002MPS 040V110 7000 NSC 15/12 Q1024 NOSIG
ZGNN,2015-12-27 13:00,ZGNN 271300Z 05002MPS 5000 BR NSC 15/12 Q1025 NOSIG
ZGNN,2015-12-27 14:00,ZGNN 271400Z 09002MPS 040V140 5000 BR NSC 15/11 Q1026 NOSIG
ZGNN,2015-12-27 15:00,ZGNN 271500Z 04003MPS 4000 BR NSC 13/12 Q1026 NOSIG
ZGNN,2015-12-27 16:00,ZGNN 271600Z 04002MPS 4000 BR SCT046 14/12 Q1026 NOSIG
ZGNN,2015-12-27 17:00,ZGNN 271700Z 05002MPS 5000 BR BKN046 14/12 Q1026 NOSIG
ZGNN,2015-12-27 18:00,ZGNN 271800Z 05004MPS 5000 BR NSC 14/11 Q1026 NOSIG
ZGNN,2015-12-27 19:00,ZGNN 271900Z VRB01MPS 5000 BR NSC 13/11 Q1025 NOSIG
ZGNN,2015-12-27 20:00,ZGNN 272000Z 26002MPS 5000 BR NSC 12/11 Q1026 NOSIG
ZGNN,2015-12-27 21:00,ZGNN 272100Z VRB01MPS 5000 BR BKN036 13/12 Q1026 NOSIG
ZGNN,2015-12-27 22:00,ZGNN 272200Z VRB01MPS 5000 BR BKN040 13/12 Q1026 NOSIG
ZGNN,2015-12-27 23:00,ZGNN 272300Z 00000MPS 5000 BR NSC 13/12 Q1027 NOSIG
ZGNN,2015-12-28 00:00,ZGNN 280000Z VRB01MPS 3500 BR NSC 13/13 Q1028 NOSIG
ZGNN,2015-12-28 01:00,ZGNN 280100Z 05003MPS 4000 BR NSC 14/13 Q1028 NOSIG
ZGNN,2015-12-28 02:00,ZGNN 280200Z 07004MPS 8000 NSC 15/10 Q1028 NOSIG
ZGNN,2015-12-28 03:00,ZGNN 280300Z 06004MPS 7000 NSC 16/10 Q1029 NOSIG
ZGNN,2015-12-28 04:00,ZGNN 280400Z 07003MPS 7000 NSC 16/10 Q1028 NOSIG
ZGNN,2015-12-28 05:00,ZGNN 280500Z 07004MPS 6000 NSC 17/10 Q1027 NOSIG
ZGNN,2015-12-28 06:00,ZGNN 280600Z 06004MPS 030V090 7000 SCT033 18/11 Q1025 NOSIG
ZGNN,2015-12-28 07:00,ZGNN 280700Z 09003MPS 070V140 9999 SCT033 18/11 Q1025 NOSIG
ZGNN,2015-12-28 08:00,ZGNN 280800Z 10003MPS 9999 FEW033 17/11 Q1024 NOSIG
ZGNN,2015-12-28 09:00,ZGNN 280900Z 05003MPS 9999 FEW033 17/11 Q1024 NOSIG
ZGNN,2015-12-28 10:00,ZGNN 281000Z 10003MPS 080V140 6000 NSC 17/12 Q1024 NOSIG
ZGNN,2015-12-28 11:00,ZGNN 281100Z 03002MPS 6000 SCT033 16/12 Q1025 NOSIG
ZGNN,2015-12-28 12:00,ZGNN 281200Z 07003MPS 040V120 5000 HZ SCT033 16/11 Q1025 NOSIG
ZGNN,2015-12-28 13:00,ZGNN 281300Z VRB01MPS 5000 BR SCT026 OVC043 15/11 Q1026 NOSIG
ZGNN,2015-12-28 14:00,ZGNN 281400Z 07003MPS 020V140 3500 -RA BR SCT016 OVC030 14/13 Q1027 NOSIG
ZGNN,2015-12-28 15:00,ZGNN 281500Z 04003MPS 2000 -RA BR FEW002 SCT005 OVC023 13/13 Q1027 NOSIG
ZGNN,2015-12-28 16:00,ZGNN 281600Z 03005MPS 2300 -RA BR FEW002 SCT005 OVC023 13/13 Q1027 NOSIG
ZGNN,2015-12-28 17:00,ZGNN 281700Z 06003MPS 2000 -RA BR FEW002 SCT005 OVC023 13/13 Q1027 NOSIG
ZGNN,2015-12-28 18:00,ZGNN 281800Z 06002MPS 2500 -RA BR FEW002 SCT005 OVC023 13/13 Q1027 NOSIG
ZGNN,2015-12-28 19:00,ZGNN 281900Z 05003MPS 2800 BR SCT008 OVC023 13/13 Q1026 NOSIG
ZGNN,2015-12-28 20:00,ZGNN 282000Z 05004MPS 2500 BR FEW005 SCT008 OVC023 13/13 Q1026 NOSIG
ZGNN,2015-12-28 21:00,ZGNN 282100Z 04002MPS 2800 -RA BR FEW005 SCT008 OVC023 13/12 Q1026 NOSIG
ZGNN,2015-12-28 22:00,ZGNN 282200Z 05003MPS 2800 -RA BR FEW008 SCT013 OVC023 13/13 Q1026 NOSIG
ZGNN,2015-12-28 23:00,ZGNN 282300Z 04002MPS 2200 -RA BR FEW002 SCT006 OVC023 13/13 Q1026 NOSIG
ZGNN,2015-12-29 00:00,ZGNN 290000Z VRB01MPS 1600 -RA BR FEW002 SCT004 OVC023 13/13 Q1027 NOSIG
ZGNN,2015-12-29 01:00,ZGNN 290100Z 06004MPS 4000 -RA BR FEW002 SCT004 OVC023 13/13 Q1028 NOSIG
ZGNN,2015-12-29 02:00,ZGNN 290200Z 06004MPS 4000 -RA BR FEW004 SCT005 OVC023 13/12 Q1028 NOSIG
ZGNN,2015-12-29 03:00,ZGNN 290300Z 05005MPS 5000 -RA BR FEW004 SCT005 OVC023 12/12 Q1028 NOSIG
ZGNN,2015-12-29 04:00,ZGNN 290400Z 05005MPS 6000 -RA FEW004 SCT007 OVC026 12/11 Q1028 NOSIG
ZGNN,2015-12-29 05:00,ZGNN 290500Z 04004MPS 3500 -RA BR FEW004 SCT006 OVC026 12/11 Q1027 NOSIG
ZGNN,2015-12-29 06:00,ZGNN 290600Z 06003MPS 3500 -RA BR FEW004 SCT009 OVC026 12/12 Q1025 NOSIG
ZGNN,2015-12-29 07:00,ZGNN 290700Z 05003MPS 3200 -RA BR FEW005 SCT010 OVC026 12/11 Q1025 NOSIG
ZGNN,2015-12-29 08:00,ZGNN 290800Z 05003MPS 3200 -RA BR FEW004 SCT009 OVC026 12/12 Q1025 NOSIG
ZGNN,2015-12-29 09:00,ZGNN 290900Z 06002MPS 2800 -RA BR FEW004 SCT007 OVC026 12/12 Q1025 BECMG TL1020 3200 -RA BR
ZGNN,2015-12-29 10:00,ZGNN 291000Z 03002MPS 330V060 4000 -RA BR FEW003 SCT005 OVC023 12/12 Q1026 NOSIG
ZGNN,2015-12-29 11:00,ZGNN 291100Z 01002MPS 340V110 8000 -RA FEW006 SCT010 OVC026 12/11 Q1026 NOSIG
ZGNN,2015-12-29 12:00,ZGNN 291200Z 02002MPS 6000 -RA FEW004 SCT007 OVC026 12/11 Q1027 NOSIG
ZGNN,2015-12-29 13:00,ZGNN 291300Z 10002MPS 6000 -RA FEW003 SCT005 OVC023 12/12 Q1027 NOSIG
ZGNN,2015-12-29 14:00,ZGNN 291400Z 08003MPS 9000 -RA FEW004 SCT009 OVC023 11/11 Q1027 NOSIG
ZGNN,2015-12-29 15:00,ZGNN 291500Z 05004MPS 9999 -RA FEW007 SCT013 OVC026 11/11 Q1027 NOSIG
ZGNN,2015-12-29 16:00,ZGNN 291600Z 05003MPS 9999 -RA FEW007 SCT011 OVC026 11/10 Q1027 NOSIG
ZGNN,2015-12-29 17:00,ZGNN 291700Z 05002MPS 7000 -RA FEW006 SCT007 OVC026 11/11 Q1027 NOSIG
ZGNN,2015-12-29 18:00,ZGNN 291800Z VRB01MPS 6000 -RA FEW006 SCT009 OVC026 11/11 Q1027 NOSIG
ZGNN,2015-12-29 19:00,ZGNN 291900Z 35004MPS 8000 -RA FEW006 SCT009 OVC026 11/11 Q1027 NOSIG
ZGNN,2015-12-29 20:00,ZGNN 292000Z 01004MPS 9999 -RA FEW009 SCT013 OVC026 11/10 Q1026 NOSIG
ZGNN,2015-12-29 21:00,ZGNN 292100Z 36003MPS 9999 -RA FEW009 SCT013 OVC026 11/10 Q1027 NOSIG
ZGNN,2015-12-29 22:00,ZGNN 292200Z 36003MPS 9999 -RA SCT013 OVC026 11/10 Q1027 NOSIG
ZGNN,2015-12-29 23:00,ZGNN 292300Z 34002MPS 9999 -RA SCT013 OVC026 11/10 Q1027 NOSIG
ZGNN,2015-12-30 00:00,ZGNN 300000Z 36002MPS 320V130 9999 -RA SCT016 OVC033 11/10 Q1028 NOSIG
ZGNN,2015-12-30 01:00,ZGNN 300100Z 36003MPS 330V030 9999 SCT013 OVC033 11/10 Q1028 NOSIG
ZGNN,2015-12-30 02:00,ZGNN 300200Z 36002MPS 9999 -RA SCT013 OVC030 11/11 Q1029 NOSIG
ZGNN,2015-12-30 03:00,ZGNN 300300Z 36002MPS 330V030 9999 -RA SCT010 OVC030 12/11 Q1029 NOSIG
ZGNN,2015-12-30 04:00,ZGNN 300400Z 01003MPS 320V030 9999 SCT010 OVC030 12/11 Q1028 NOSIG
ZGNN,2015-12-30 05:00,ZGNN 300500Z 35003MPS 320V020 9999 -RA SCT010 OVC030 12/11 Q1027 NOSIG
ZGNN,2015-12-30 06:00,ZGNN 300600Z 36003MPS 330V030 9999 -RA SCT010 OVC030 12/11 Q1027 NOSIG
ZGNN,2015-12-30 07:00,ZGNN 300700Z 36003MPS 9999 -RA SCT010 OVC030 12/11 Q1026 NOSIG
ZGNN,2015-12-30 08:00,ZGNN 300800Z 36003MPS 6000 -RA SCT008 OVC030 12/11 Q1026 NOSIG
ZGNN,2015-12-30 09:00,ZGNN 300900Z 36003MPS 6000 -RA FEW006 SCT008 OVC030 12/11 Q1026 NOSIG
ZGNN,2015-12-30 10:00,ZGNN 301000Z 35003MPS 9000 -RA SCT010 OVC030 11/11 Q1027 NOSIG
ZGNN,2015-12-30 11:00,ZGNN 301100Z 35003MPS 6000 -RA SCT010 OVC030 11/11 Q1027 NOSIG
ZGNN,2015-12-30 12:00,ZGNN 301200Z 36003MPS 8000 -RA SCT010 OVC030 11/11 Q1028 NOSIG
ZGNN,2015-12-30 13:00,ZGNN 301300Z 01002MPS 330V030 9000 -RA SCT010 OVC030 11/11 Q1028 NOSIG
ZGNN,2015-12-30 14:00,ZGNN 301400Z 01002MPS 330V040 5000 -RA BR SCT010 OVC030 11/11 Q1029 NOSIG
ZGNN,2015-12-30 15:00,ZGNN 301500Z 35003MPS 7000 -RA SCT010 OVC030 11/11 Q1029 NOSIG
ZGNN,2015-12-30 16:00,ZGNN 301600Z 33003MPS 7000 -RA SCT010 OVC030 11/11 Q1029 NOSIG
ZGNN,2015-12-30 17:00,ZGNN 301700Z 35003MPS 9000 -RA SCT008 OVC030 11/11 Q1029 NOSIG
ZGNN,2015-12-30 18:00,ZGNN 301800Z 35002MPS 9000 -RA SCT010 OVC030 11/10 Q1029 NOSIG
ZGNN,2015-12-30 19:00,ZGNN 301900Z 35002MPS 8000 -RA SCT010 OVC026 11/10 Q1028 NOSIG
ZGNN,2015-12-30 20:00,ZGNN 302000Z 34003MPS 7000 -RA FEW010 OVC026 11/10 Q1028 NOSIG
ZGNN,2015-12-30 21:00,ZGNN 302100Z 35002MPS 7000 -RA FEW010 OVC026 11/10 Q1028 NOSIG
ZGNN,2015-12-30 22:00,ZGNN 302200Z 36002MPS 7000 -RA FEW010 OVC026 11/10 Q1028 NOSIG
ZGNN,2015-12-30 23:00,ZGNN 302300Z VRB01MPS 6000 FEW015 OVC026 11/10 Q1029 NOSIG
