station,valid,metar
ZGGG,2002-01-01 00:00,ZGGG 010000Z AUTO 00000KT 6SM 12/10 A3021 RMK SLP234 T01190095 52019 IEM_DS3505
ZGGG,2002-01-01 01:00,ZGGG 010100Z AUTO 02004KT 1 1/2SM 14/09 A3024 RMK T01400090 IEM_DS3505
ZGGG,2002-01-01 02:00,ZGGG 010200Z AUTO 04006KT 1 1/2SM 16/09 A3024 RMK T01600090 IEM_DS3505
ZGGG,2002-01-01 03:00,ZGGG 010300Z AUTO 34004KT 6SM 20/09 A3021 RMK SLP233 T01980092 54000 IEM_DS3505
ZGGG,2002-01-01 04:00,ZGGG 010400Z AUTO 02008KT 2 1/2SM 19/08 A3021 RMK T01900080 IEM_DS3505
ZGGG,2002-01-01 05:00,ZGGG 010500Z AUTO 36008KT 3SM 21/08 A3018 RMK T02100080 IEM_DS3505
ZGGG,2002-01-01 06:00,ZGGG 010600Z AUTO 34006KT 7SM 23/08 A3015 RMK SLP207 T02260085 57026 IEM_DS3505
ZGGG,2002-01-01 07:00,ZGGG 010700Z AUTO 01006KT 22/08 A3012 RMK T02200080 IEM_DS3505
ZGGG,2002-01-01 08:00,ZGGG 010800Z AUTO 35004KT 22/07 A3012 RMK T02200070 IEM_DS3505
ZGGG,2002-01-01 09:00,ZGGG 010900Z AUTO 34004KT 7SM 21/08 A3015 RMK SLP208 T02140078 52001 IEM_DS3505
ZGGG,2002-01-01 10:00,ZGGG 011000Z AUTO 36004KT 3SM 21/07 A3015 RMK T02100070 IEM_DS3505
ZGGG,2002-01-01 11:00,ZGGG 011100Z AUTO 05004KT 3SM 18/09 A3018 RMK T01800090 IEM_DS3505
ZGGG,2002-01-01 13:00,ZGGG 011300Z AUTO 05004KT 3SM 16/09 A3021 RMK T01600090 IEM_DS3505
ZGGG,2002-01-01 14:00,ZGGG 011400Z AUTO 04006KT 14/08 A3021 RMK T01400080 IEM_DS3505
ZGGG,2002-01-01 15:00,ZGGG 011500Z AUTO 00000KT 9SM 14/08 A3024 RMK SLP237 T01440084 52010 IEM_DS3505
ZGGG,2002-01-01 16:00,ZGGG 011600Z AUTO 03006KT 3SM 13/08 A3024 RMK T01300080 IEM_DS3505
ZGGG,2002-01-01 17:00,ZGGG 011700Z AUTO 36006KT 16/07 A3027 RMK T01600070 IEM_DS3505
ZGGG,2002-01-01 18:00,ZGGG 011800Z AUTO 00000KT 7SM 15/05 A3027 RMK SLP251 T01530054 52014 IEM_DS3505
ZGGG,2002-01-01 19:00,ZGGG 011900Z AUTO 04006KT 4SM 12/07 A3027 RMK T01200070 IEM_DS3505
ZGGG,2002-01-01 20:00,ZGGG 012000Z AUTO 04008KT 12/06 A3027 RMK T01200060 IEM_DS3505
ZGGG,2002-01-01 21:00,ZGGG 012100Z AUTO 07002KT 8SM 13/03 A3030 RMK SLP257 T01340027 52006 IEM_DS3505
ZGGG,2002-01-01 22:00,ZGGG 012200Z AUTO 03004KT 5SM 11/03 A3030 RMK T01100030 IEM_DS3505
ZGGG,2002-01-01 23:00,ZGGG 012300Z AUTO 5SM 12/03 A3033 RMK T01200030 IEM_DS3505
ZGGG,2002-01-02 00:00,ZGGG 020000Z AUTO 00000KT 10SM 11/05 A3036 RMK SLP278 T01080048 52020 IEM_DS3505
ZGGG,2002-01-02 01:00,ZGGG 020100Z AUTO 03004KT 3SM 14/04 A3036 RMK T01400040 IEM_DS3505
ZGGG,2002-01-02 02:00,ZGGG 020200Z AUTO 02008KT 11SM 16/01 A3039 RMK T01600010 IEM_DS3505
ZGGG,2002-01-02 03:00,ZGGG 020300Z AUTO 07006KT 11SM 18/M01 A3039 RMK SLP288 T01811010 52010 IEM_DS3505
ZGGG,2002-01-02 04:00,ZGGG 020400Z AUTO 03010KT 5SM 19/M01 A3036 RMK T01901010 IEM_DS3505
ZGGG,2002-01-02 05:00,ZGGG 020500Z AUTO 02008KT 6SM 21/M02 A3033 RMK T02101020 IEM_DS3505
ZGGG,2002-01-02 06:00,ZGGG 020600Z AUTO 34004KT 14SM 22/00 A3030 RMK SLP259 T02180003 57028 IEM_DS3505
ZGGG,2002-01-02 07:00,ZGGG 020700Z AUTO 01008KT 6SM 21/M02 A3027 RMK T02101020 IEM_DS3505
ZGGG,2002-01-02 08:00,ZGGG 020800Z AUTO 01008KT 6SM 21/M02 A3030 RMK T02101020 IEM_DS3505
ZGGG,2002-01-02 09:00,ZGGG 020900Z AUTO 36004KT 12SM 20/00 A3030 RMK SLP259 T02050000 54000 IEM_DS3505
ZGGG,2002-01-02 10:00,ZGGG 021000Z AUTO 01008KT 6SM 19/M03 A3030 RMK T01901030 IEM_DS3505
ZGGG,2002-01-02 11:00,ZGGG 021100Z AUTO 04004KT 6SM 17/01 A3033 RMK T01700010 IEM_DS3505
ZGGG,2002-01-02 12:00,ZGGG 021200Z AUTO 34004KT 10SM 15/02 A3036 RMK SLP279 T01470025 52019 IEM_DS3505
ZGGG,2002-01-02 13:00,ZGGG 021300Z AUTO 05004KT 14/02 A3036 RMK T01400020 IEM_DS3505
ZGGG,2002-01-02 14:00,ZGGG 021400Z AUTO 04008KT 6SM 14/00 A3036 RMK T01400000 IEM_DS3505
ZGGG,2002-01-02 15:00,ZGGG 021500Z AUTO 34002KT 10SM 13/01 A3033 RMK SLP275 T01340012 57004 IEM_DS3505
ZGGG,2002-01-02 16:00,ZGGG 021600Z AUTO 05008KT 6SM 12/02 A3033 RMK T01200020 IEM_DS3505
ZGGG,2002-01-02 17:00,ZGGG 021700Z AUTO 02006KT 6SM 13/00 A3033 RMK T01300000 IEM_DS3505
ZGGG,2002-01-02 18:00,ZGGG 021800Z AUTO 34002KT 7SM 11/01 A3033 RMK SLP269 T01080011 57005 IEM_DS3505
ZGGG,2002-01-02 19:00,ZGGG 021900Z AUTO 6SM 12/M01 A3033 RMK T01201010 IEM_DS3505
ZGGG,2002-01-02 20:00,ZGGG 022000Z AUTO 6SM 11/M01 A3030 RMK T01101010 IEM_DS3505
ZGGG,2002-01-02 21:00,ZGGG 022100Z AUTO 34004KT 7SM 10/01 A3030 RMK SLP266 T00960010 57004 IEM_DS3505
ZGGG,2002-01-02 22:00,ZGGG 022200Z AUTO 01002KT 6SM 12/M01 A3033 RMK T01201010 IEM_DS3505
ZGGG,2002-01-02 23:00,ZGGG 022300Z AUTO 6SM 09/01 A3033 RMK T00900010 IEM_DS3505
ZGGG,2002-01-03 00:00,ZGGG 030000Z AUTO 02002KT 9SM 09/03 A3036 RMK SLP282 T00890033 52016 IEM_DS3505
ZGGG,2002-01-03 01:00,ZGGG 030100Z AUTO 03006KT 14/01 A3036 RMK T01400010 IEM_DS3505
ZGGG,2002-01-03 02:00,ZGGG 030200Z AUTO 03006KT 5SM 16/00 A3039 RMK T01600000 IEM_DS3505
ZGGG,2002-01-03 03:00,ZGGG 030300Z AUTO 02004KT 12SM 18/M02 A3036 RMK SLP280 T01821020 57002 IEM_DS3505
ZGGG,2002-01-03 04:00,ZGGG 030400Z AUTO 36004KT 6SM 18/M01 A3033 RMK T01801010 IEM_DS3505
ZGGG,2002-01-03 05:00,ZGGG 030500Z AUTO 34004KT 6SM 19/M01 A3030 RMK T01901010 IEM_DS3505
ZGGG,2002-01-03 06:00,ZGGG 030600Z AUTO 36004KT 12SM 21/00 A3024 RMK SLP245 T02080002 57034 IEM_DS3505
ZGGG,2002-01-03 07:00,ZGGG 030700Z AUTO 01004KT 6SM 20/01 A3024 RMK T02000010 IEM_DS3505
ZGGG,2002-01-03 08:00,ZGGG 030800Z AUTO 35004KT 6SM 21/M01 A3024 RMK T02101010 IEM_DS3505
ZGGG,2002-01-03 09:00,ZGGG 030900Z AUTO 34002KT 10SM 20/03 A3024 RMK SLP242 T01980026 57004 IEM_DS3505
ZGGG,2002-01-03 10:00,ZGGG 031000Z AUTO 3SM 18/02 A3024 RMK T01800020 IEM_DS3505
ZGGG,2002-01-03 11:00,ZGGG 031100Z AUTO 09002KT 16/02 A3027 RMK T01600020 IEM_DS3505
ZGGG,2002-01-03 12:00,ZGGG 031200Z AUTO 00000KT 9SM 13/06 A3030 RMK SLP257 T01300065 52015 IEM_DS3505
ZGGG,2002-01-03 13:00,ZGGG 031300Z AUTO 3SM 14/04 A3030 RMK T01400040 IEM_DS3505
ZGGG,2002-01-03 14:00,ZGGG 031400Z AUTO 09002KT 3SM 13/03 A3030 RMK T01300030 IEM_DS3505
ZGGG,2002-01-03 16:00,ZGGG 031600Z AUTO 3SM 12/05 A3030 RMK T01200050 IEM_DS3505
ZGGG,2002-01-03 17:00,ZGGG 031700Z AUTO 3SM 12/04 A3030 RMK T01200040 IEM_DS3505
ZGGG,2002-01-03 18:00,ZGGG 031800Z AUTO 00000KT 9SM 09/06 A3027 RMK SLP257 T00910056 57006 IEM_DS3505
ZGGG,2002-01-03 20:00,ZGGG 032000Z AUTO 3SM 10/05 A3027 RMK T01000050 IEM_DS3505
ZGGG,2002-01-03 21:00,ZGGG 032100Z AUTO 00000KT 3SM 08/06 A3027 RMK SLP255 T00840055 57002 IEM_DS3505
ZGGG,2002-01-03 22:00,ZGGG 032200Z AUTO 2SM 10/06 A3030 RMK T01000060 IEM_DS3505
ZGGG,2002-01-03 23:00,ZGGG 032300Z AUTO 05002KT 2SM 08/06 A3033 RMK T00800060 IEM_DS3505
ZGGG,2002-01-04 00:00,ZGGG 040000Z AUTO 00000KT 2 1/2SM 08/07 A3033 RMK SLP275 T00830066 52019 IEM_DS3505
ZGGG,2002-01-04 01:00,ZGGG 040100Z AUTO 07004KT 1 1/4SM 12/07 A3033 RMK T01200070 IEM_DS3505
ZGGG,2002-01-04 02:00,ZGGG 040200Z AUTO 03004KT 2SM 14/06 A3033 RMK T01400060 IEM_DS3505
ZGGG,2002-01-04 03:00,ZGGG 040300Z AUTO 16002KT 2 1/2SM 18/05 A3033 RMK SLP270 T01840052 57004 IEM_DS3505
ZGGG,2002-01-04 04:00,ZGGG 040400Z AUTO 36004KT 3SM 18/02 A3030 RMK T01800020 IEM_DS3505
ZGGG,2002-01-04 05:00,ZGGG 040500Z AUTO 01008KT 6SM 20/M03 A3027 RMK T02001030 IEM_DS3505
ZGGG,2002-01-04 06:00,ZGGG 040600Z AUTO 34002KT 11SM 21/03 A3024 RMK SLP237 T02110026 57033 IEM_DS3505
ZGGG,2002-01-04 07:00,ZGGG 040700Z AUTO 01004KT 6SM 21/00 A3021 RMK T02100000 IEM_DS3505
ZGGG,2002-01-04 08:00,ZGGG 040800Z AUTO 32002KT 6SM 22/01 A3021 RMK T02200010 IEM_DS3505
ZGGG,2002-01-04 09:00,ZGGG 040900Z AUTO 25002KT 11SM 22/04 A3021 RMK SLP229 T02170040 57007 IEM_DS3505
ZGGG,2002-01-04 10:00,ZGGG 041000Z AUTO 3SM 19/04 A3021 RMK T01900040 IEM_DS3505
ZGGG,2002-01-04 11:00,ZGGG 041100Z AUTO 17/03 A3021 RMK T01700030 IEM_DS3505
ZGGG,2002-01-04 12:00,ZGGG 041200Z AUTO 00000KT 9SM 14/07 A3024 RMK SLP242 T01390074 52012 IEM_DS3505
ZGGG,2002-01-04 13:00,ZGGG 041300Z AUTO 3SM 14/04 A3024 RMK T01400040 IEM_DS3505
ZGGG,2002-01-04 14:00,ZGGG 041400Z AUTO 3SM 14/04 A3024 RMK T01400040 IEM_DS3505
ZGGG,2002-01-04 15:00,ZGGG 041500Z AUTO 00000KT 6SM 12/08 A3024 RMK SLP246 T01160077 52004 IEM_DS3505
ZGGG,2002-01-04 16:00,ZGGG 041600Z AUTO 2 1/2SM 13/04 A3024 RMK T01300040 IEM_DS3505
ZGGG,2002-01-04 17:00,ZGGG 041700Z AUTO 2 1/2SM 12/05 A3024 RMK T01200050 IEM_DS3505
ZGGG,2002-01-04 18:00,ZGGG 041800Z AUTO 00000KT 3SM 10/07 A3021 RMK SLP237 T00990069 57008 IEM_DS3505
ZGGG,2002-01-04 19:00,ZGGG 041900Z AUTO 2SM 11/05 A3021 RMK T01100050 IEM_DS3505
ZGGG,2002-01-04 20:00,ZGGG 042000Z AUTO 2 1/2SM 11/05 A3021 RMK T01100050 IEM_DS3505
ZGGG,2002-01-04 21:00,ZGGG 042100Z AUTO 00000KT 2 1/2SM 09/06 A3021 RMK SLP231 T00900064 57006 IEM_DS3505
ZGGG,2002-01-04 22:00,ZGGG 042200Z AUTO 2 1/2SM 09/05 A3021 RMK T00900050 IEM_DS3505
ZGGG,2002-01-04 23:00,ZGGG 042300Z AUTO 2SM 10/06 A3024 RMK T01000060 IEM_DS3505
ZGGG,2002-01-05 00:00,ZGGG 050000Z AUTO 00000KT 4SM 09/06 A3024 RMK SLP245 T00890065 52013 IEM_DS3505
ZGGG,2002-01-05 01:00,ZGGG 050100Z AUTO 07004KT 1 1/2SM 12/07 A3024 RMK T01200070 IEM_DS3505
ZGGG,2002-01-05 02:00,ZGGG 050200Z AUTO 04004KT 2SM 16/07 A3027 RMK T01600070 IEM_DS3505
ZGGG,2002-01-05 03:00,ZGGG 050300Z AUTO 27002KT 4SM 20/06 A3024 RMK SLP238 T01960056 57006 IEM_DS3505
ZGGG,2002-01-05 04:00,ZGGG 050400Z AUTO 01004KT 3SM 19/04 A3021 RMK T01900040 IEM_DS3505
ZGGG,2002-01-05 05:00,ZGGG 050500Z AUTO 01004KT 21/04 A3015 RMK T02100040 IEM_DS3505
ZGGG,2002-01-05 06:00,ZGGG 050600Z AUTO 00000KT 7SM 24/05 A3012 RMK SLP202 T02440047 57036 IEM_DS3505
ZGGG,2002-01-05 07:00,ZGGG 050700Z AUTO 24004KT 23/03 A3009 RMK T02300030 IEM_DS3505
ZGGG,2002-01-05 08:00,ZGGG 050800Z AUTO 31004KT 23/03 A3009 RMK T02300030 IEM_DS3505
ZGGG,2002-01-05 09:00,ZGGG 050900Z AUTO 18002KT 5SM 22/09 A3009 RMK SLP196 T02150087 57006 IEM_DS3505
ZGGG,2002-01-05 10:00,ZGGG 051000Z AUTO 15004KT 2SM 21/06 A3012 RMK T02100060 IEM_DS3505
ZGGG,2002-01-05 11:00,ZGGG 051100Z AUTO 2 1/2SM 18/08 A3012 RMK T01800080 IEM_DS3505
ZGGG,2002-01-05 12:00,ZGGG 051200Z AUTO 00000KT 4SM 15/10 A3015 RMK SLP214 T01480100 52017 IEM_DS3505
ZGGG,2002-01-05 13:00,ZGGG 051300Z AUTO 2 1/2SM 16/08 A3015 RMK T01600080 IEM_DS3505
ZGGG,2002-01-05 14:00,ZGGG 051400Z AUTO 2 1/2SM 16/08 A3015 RMK T01600080 IEM_DS3505
ZGGG,2002-01-05 15:00,ZGGG 051500Z AUTO 00000KT 4SM 13/09 A3018 RMK SLP219 T01260092 52006 IEM_DS3505
ZGGG,2002-01-05 16:00,ZGGG 051600Z AUTO 1 1/2SM 14/08 A3018 RMK T01400080 IEM_DS3505
ZGGG,2002-01-05 17:00,ZGGG 051700Z AUTO 1 1/2SM 14/08 A3018 RMK T01400080 IEM_DS3505
ZGGG,2002-01-05 18:00,ZGGG 051800Z AUTO 00000KT 2 1/2SM 11/09 A3015 RMK SLP216 T01110089 57003 IEM_DS3505
ZGGG,2002-01-05 19:00,ZGGG 051900Z AUTO 2SM 13/08 A3015 RMK T01300080 IEM_DS3505
ZGGG,2002-01-05 20:00,ZGGG 052000Z AUTO 2SM 12/08 A3018 RMK T01200080 IEM_DS3505
ZGGG,2002-01-05 21:00,ZGGG 052100Z AUTO 00000KT 1 1/4SM 10/08 A3018 RMK SLP217 T01000084 52001 IEM_DS3505
ZGGG,2002-01-05 22:00,ZGGG 052200Z AUTO 2SM 11/07 A3018 RMK T01100070 IEM_DS3505
ZGGG,2002-01-05 23:00,ZGGG 052300Z AUTO 1 1/2SM 11/07 A3021 RMK T01100070 IEM_DS3505
ZGGG,2002-01-06 00:00,ZGGG 060000Z AUTO 00000KT 4SM 10/08 A3024 RMK SLP244 T00980084 52026 IEM_DS3505
ZGGG,2002-01-06 01:00,ZGGG 060100Z AUTO 05004KT 1SM 13/09 A3027 RMK T01300090 IEM_DS3505
ZGGG,2002-01-06 02:00,ZGGG 060200Z AUTO 1SM 17/08 A3027 RMK T01700080 IEM_DS3505
ZGGG,2002-01-06 03:00,ZGGG 060300Z AUTO 16004KT 6SM 21/04 A3027 RMK SLP248 T02080037 52005 IEM_DS3505
ZGGG,2002-01-06 04:00,ZGGG 060400Z AUTO 35002KT 2SM 21/07 A3024 RMK T02100070 IEM_DS3505
ZGGG,2002-01-06 05:00,ZGGG 060500Z AUTO 32002KT 2SM 22/07 A3018 RMK T02200070 IEM_DS3505
ZGGG,2002-01-06 06:00,ZGGG 060600Z AUTO 27004KT 8SM 25/04 A3015 RMK SLP217 T02460040 57031 IEM_DS3505
ZGGG,2002-01-06 07:00,ZGGG 060700Z AUTO 3SM 23/05 A3012 RMK T02300050 IEM_DS3505
ZGGG,2002-01-06 08:00,ZGGG 060800Z AUTO 33002KT 2SM 23/08 A3015 RMK T02300080 IEM_DS3505
ZGGG,2002-01-06 09:00,ZGGG 060900Z AUTO 00000KT 6SM 22/07 A3015 RMK SLP213 T02220071 57004 IEM_DS3505
ZGGG,2002-01-06 10:00,ZGGG 061000Z AUTO 1 1/4SM 19/11 A3018 RMK T01900110 IEM_DS3505
ZGGG,2002-01-06 11:00,ZGGG 061100Z AUTO 2 1/2SM 18/10 A3018 RMK T01800100 IEM_DS3505
ZGGG,2002-01-06 12:00,ZGGG 061200Z AUTO 00000KT 3SM 16/11 A3021 RMK SLP230 T01570106 52016 IEM_DS3505
ZGGG,2002-01-06 13:00,ZGGG 061300Z AUTO 2 1/2SM 16/09 A3021 RMK T01600090 IEM_DS3505
ZGGG,2002-01-06 14:00,ZGGG 061400Z AUTO 2 1/2SM 16/08 A3024 RMK T01600080 IEM_DS3505
ZGGG,2002-01-06 15:00,ZGGG 061500Z AUTO 00000KT 3SM 14/10 RMK SLP238 T01410101 52009 IEM_DS3505
ZGGG,2002-01-06 16:00,ZGGG 061600Z AUTO 06002KT 2 1/2SM 14/08 A3021 RMK T01400080 IEM_DS3505
ZGGG,2002-01-06 17:00,ZGGG 061700Z AUTO 2SM 14/08 A3021 RMK T01400080 IEM_DS3505
ZGGG,2002-01-06 18:00,ZGGG 061800Z AUTO 00000KT 2SM 13/10 A3021 RMK SLP231 T01270096 57007 IEM_DS3505
ZGGG,2002-01-06 19:00,ZGGG 061900Z AUTO 2SM 13/08 A3021 RMK T01300080 IEM_DS3505
ZGGG,2002-01-06 20:00,ZGGG 062000Z AUTO 2SM 13/08 A3021 RMK T01300080 IEM_DS3505
ZGGG,2002-01-06 21:00,ZGGG 062100Z AUTO 00000KT 2 1/2SM 11/09 A3021 RMK SLP232 T01120088 52001 IEM_DS3505
ZGGG,2002-01-06 22:00,ZGGG 062200Z AUTO 05004KT 1 1/4SM 12/08 A3021 RMK T01200080 IEM_DS3505
ZGGG,2002-01-06 23:00,ZGGG 062300Z AUTO 1 1/4SM 12/08 A3024 RMK T01200080 IEM_DS3505
ZGGG,2002-01-07 00:00,ZGGG 070000Z AUTO 00000KT 5SM 12/09 A3027 RMK SLP249 T01150093 52016 IEM_DS3505
ZGGG,2002-01-07 01:00,ZGGG 070100Z AUTO 04004KT 1SM 14/09 A3030 RMK T01400090 IEM_DS3505
ZGGG,2002-01-07 02:00,ZGGG 070200Z AUTO 36004KT 1 1/4SM 17/09 A3030 RMK T01700090 IEM_DS3505
ZGGG,2002-01-07 03:00,ZGGG 070300Z AUTO 32004KT 5SM 20/08 A3030 RMK SLP255 T02000085 52007 IEM_DS3505
ZGGG,2002-01-07 04:00,ZGGG 070400Z AUTO 02008KT 2 1/2SM 21/08 A3027 RMK T02100080 IEM_DS3505
ZGGG,2002-01-07 05:00,ZGGG 070500Z AUTO 02008KT 3SM 22/08 A3024 RMK T02200080 IEM_DS3505
ZGGG,2002-01-07 06:00,ZGGG 070600Z AUTO 09002KT 7SM 24/08 A3021 RMK SLP230 T02370083 57025 IEM_DS3505
ZGGG,2002-01-07 07:00,ZGGG 070700Z AUTO 02006KT 3SM 23/08 A3018 RMK T02300080 IEM_DS3505
ZGGG,2002-01-07 08:00,ZGGG 070800Z AUTO 35006KT 23/08 A3018 RMK T02300080 IEM_DS3505
ZGGG,2002-01-07 09:00,ZGGG 070900Z AUTO 34002KT 7SM 23/10 A3018 RMK SLP225 T02260097 57005 IEM_DS3505
ZGGG,2002-01-07 10:00,ZGGG 071000Z AUTO 05002KT 3SM 21/09 A3021 RMK T02100090 IEM_DS3505
ZGGG,2002-01-07 11:00,ZGGG 071100Z AUTO 08002KT 3SM 18/09 A3021 RMK T01800090 IEM_DS3505
ZGGG,2002-01-07 12:00,ZGGG 071200Z AUTO 00000KT 7SM 16/10 A3024 RMK SLP244 T01630098 52018 IEM_DS3505
ZGGG,2002-01-07 13:00,ZGGG 071300Z AUTO 03004KT 3SM 17/09 A3027 RMK T01700090 IEM_DS3505
ZGGG,2002-01-07 14:00,ZGGG 071400Z AUTO 03006KT 3SM 17/09 A3027 RMK T01700090 IEM_DS3505
ZGGG,2002-01-07 15:00,ZGGG 071500Z AUTO 04002KT 7SM 15/09 A3027 RMK SLP252 T01470090 52009 IEM_DS3505
ZGGG,2002-01-07 16:00,ZGGG 071600Z AUTO 15/08 A3027 RMK T01500080 IEM_DS3505
ZGGG,2002-01-07 17:00,ZGGG 071700Z AUTO 04002KT 14/08 A3027 RMK T01400080 IEM_DS3505
ZGGG,2002-01-07 18:00,ZGGG 071800Z AUTO 00000KT 6SM 13/08 A3027 RMK SLP248 T01320082 57004 IEM_DS3505
ZGGG,2002-01-07 19:00,ZGGG 071900Z AUTO 05004KT 13/07 A3027 RMK T01300070 IEM_DS3505
ZGGG,2002-01-07 20:00,ZGGG 072000Z AUTO 01004KT 5SM 13/07 A3027 RMK T01300070 IEM_DS3505
ZGGG,2002-01-07 21:00,ZGGG 072100Z AUTO 36002KT 7SM 11/08 A3027 RMK SLP250 T01130082 52002 IEM_DS3505
ZGGG,2002-01-07 22:00,ZGGG 072200Z AUTO 05004KT 4SM 11/06 A3027 RMK T01100060 IEM_DS3505
ZGGG,2002-01-07 23:00,ZGGG 072300Z AUTO 04004KT 12/05 A3030 RMK T01200050 IEM_DS3505
ZGGG,2002-01-08 00:00,ZGGG 080000Z AUTO 00000KT 8SM 11/07 A3033 RMK SLP269 T01120068 52018 IEM_DS3505
ZGGG,2002-01-08 01:00,ZGGG 080100Z AUTO 01002KT 16/06 A3036 RMK T01600060 IEM_DS3505
ZGGG,2002-01-08 02:00,ZGGG 080200Z AUTO 01004KT 8SM 17/03 A3036 RMK T01700030 IEM_DS3505
ZGGG,2002-01-08 03:00,ZGGG 080300Z AUTO 04004KT 8SM 19/04 A3036 RMK SLP278 T01940044 52010 IEM_DS3505
ZGGG,2002-01-08 04:00,ZGGG 080400Z AUTO 36006KT 19/04 A3033 RMK T01900040 IEM_DS3505
ZGGG,2002-01-08 05:00,ZGGG 080500Z AUTO 01004KT 21/05 A3030 RMK T02100050 IEM_DS3505
ZGGG,2002-01-08 06:00,ZGGG 080600Z AUTO 27004KT 8SM 23/05 A3027 RMK SLP247 T02260046 57031 IEM_DS3505
ZGGG,2002-01-08 07:00,ZGGG 080700Z AUTO 36006KT 22/04 A3024 RMK T02200040 IEM_DS3505
ZGGG,2002-01-08 08:00,ZGGG 080800Z AUTO 01004KT 22/03 A3024 RMK T02200030 IEM_DS3505
ZGGG,2002-01-08 09:00,ZGGG 080900Z AUTO 34004KT 9SM 21/05 A3021 RMK SLP235 T02120052 57012 IEM_DS3505
ZGGG,2002-01-08 10:00,ZGGG 081000Z AUTO 10002KT 3SM 19/06 A3024 RMK T01900060 IEM_DS3505
ZGGG,2002-01-08 11:00,ZGGG 081100Z AUTO 3SM 17/06 A3024 RMK T01700060 IEM_DS3505
ZGGG,2002-01-08 12:00,ZGGG 081200Z AUTO 00000KT 8SM 15/09 A3027 RMK SLP253 T01470086 52017 IEM_DS3505
ZGGG,2002-01-08 13:00,ZGGG 081300Z AUTO 07002KT 3SM 16/06 A3030 RMK T01600060 IEM_DS3505
ZGGG,2002-01-08 14:00,ZGGG 081400Z AUTO 3SM 15/06 A3030 RMK T01500060 IEM_DS3505
ZGGG,2002-01-08 15:00,ZGGG 081500Z AUTO 00000KT 7SM 13/08 A3030 RMK SLP261 T01300084 52009 IEM_DS3505
ZGGG,2002-01-08 16:00,ZGGG 081600Z AUTO 07002KT 3SM 13/07 A3030 RMK T01300070 IEM_DS3505
ZGGG,2002-01-08 17:00,ZGGG 081700Z AUTO 05002KT 3SM 12/07 A3030 RMK T01200070 IEM_DS3505
ZGGG,2002-01-08 18:00,ZGGG 081800Z AUTO 00000KT 3SM 12/07 A3030 RMK SLP261 T01150073 IEM_DS3505
ZGGG,2002-01-08 19:00,ZGGG 081900Z AUTO 22004KT 2 1/2SM 14/08 A3027 RMK T01400080 IEM_DS3505
ZGGG,2002-01-08 20:00,ZGGG 082000Z AUTO 2 1/2SM 13/08 A3027 RMK T01300080 IEM_DS3505
ZGGG,2002-01-08 21:00,ZGGG 082100Z AUTO 00000KT 4SM 10/08 A3030 RMK SLP261 T01010078 57001 IEM_DS3505
ZGGG,2002-01-08 22:00,ZGGG 082200Z AUTO 02002KT 2 1/2SM 11/08 A3030 RMK T01100080 IEM_DS3505
ZGGG,2002-01-08 23:00,ZGGG 082300Z AUTO 05002KT 2SM 12/08 A3033 RMK T01200080 IEM_DS3505
ZGGG,2002-01-09 00:00,ZGGG 090000Z AUTO 00000KT 6SM 11/09 A3033 RMK SLP272 T01090091 52011 IEM_DS3505
ZGGG,2002-01-09 01:00,ZGGG 090100Z AUTO 07002KT 1 1/4SM 14/10 A3033 RMK T01400100 IEM_DS3505
ZGGG,2002-01-09 02:00,ZGGG 090200Z AUTO 1 1/2SM 16/11 A3036 RMK T01600110 IEM_DS3505
ZGGG,2002-01-09 03:00,ZGGG 090300Z AUTO 09004KT 7SM 18/11 A3033 RMK SLP270 T01810107 57002 IEM_DS3505
ZGGG,2002-01-09 04:00,ZGGG 090400Z AUTO 16004KT 3SM 19/10 A3030 RMK T01900100 IEM_DS3505
ZGGG,2002-01-09 05:00,ZGGG 090500Z AUTO 19004KT 2 1/2SM 20/09 A3024 RMK T02000090 IEM_DS3505
ZGGG,2002-01-09 06:00,ZGGG 090600Z AUTO 22004KT 7SM 21/09 A3021 RMK SLP232 T02140093 57037 IEM_DS3505
ZGGG,2002-01-09 07:00,ZGGG 090700Z AUTO 23006KT 3SM 21/07 A3018 RMK T02100070 IEM_DS3505
ZGGG,2002-01-09 08:00,ZGGG 090800Z AUTO 21004KT 3SM 21/07 A3018 RMK T02100070 IEM_DS3505
ZGGG,2002-01-09 09:00,ZGGG 090900Z AUTO 22002KT 6SM 21/09 A3018 RMK SLP217 T02100090 57015 IEM_DS3505
ZGGG,2002-01-09 10:00,ZGGG 091000Z AUTO 14004KT 2 1/2SM 19/08 A3015 RMK T01900080 IEM_DS3505
ZGGG,2002-01-09 11:00,ZGGG 091100Z AUTO 19002KT 3SM 17/09 A3018 RMK T01700090 IEM_DS3505
ZGGG,2002-01-09 12:00,ZGGG 091200Z AUTO 16004KT 6SM 17/11 A3018 RMK SLP230 T01710106 52012 IEM_DS3505
ZGGG,2002-01-09 13:00,ZGGG 091300Z AUTO 16004KT 3SM 17/11 A3021 RMK T01700110 IEM_DS3505
ZGGG,2002-01-09 14:00,ZGGG 091400Z AUTO 16004KT 3SM 17/11 A3024 RMK T01700110 IEM_DS3505
ZGGG,2002-01-09 15:00,ZGGG 091500Z AUTO 09002KT 7SM 15/11 A3024 RMK SLP240 T01510112 52011 IEM_DS3505
ZGGG,2002-01-09 16:00,ZGGG 091600Z AUTO 16006KT 3SM 16/11 A3024 RMK T01600110 IEM_DS3505
ZGGG,2002-01-09 17:00,ZGGG 091700Z AUTO 16002KT 4SM 16/11 A3021 RMK T01600110 IEM_DS3505
ZGGG,2002-01-09 18:00,ZGGG 091800Z AUTO 09002KT 4SM 13/11 A3021 RMK SLP233 T01280109 57007 IEM_DS3505
ZGGG,2002-01-09 19:00,ZGGG 091900Z AUTO 05002KT 3SM 12/10 A3021 RMK T01200100 IEM_DS3505
ZGGG,2002-01-09 20:00,ZGGG 092000Z AUTO 06002KT 2SM 13/11 A3021 RMK T01300110 IEM_DS3505
ZGGG,2002-01-09 21:00,ZGGG 092100Z AUTO 00000KT 4SM 12/10 A3018 RMK SLP225 T01150103 57008 IEM_DS3505
ZGGG,2002-01-09 22:00,ZGGG 092200Z AUTO 1 1/4SM 12/10 A3021 RMK T01200100 IEM_DS3505
ZGGG,2002-01-09 23:00,ZGGG 092300Z AUTO 2SM 12/11 A3021 RMK T01200110 IEM_DS3505
ZGGG,2002-01-10 00:00,ZGGG 100000Z AUTO 00000KT 6SM 12/10 A3021 RMK SLP235 T01150105 52009 IEM_DS3505
ZGGG,2002-01-10 01:00,ZGGG 100100Z AUTO 07002KT 1 1/4SM 14/12 A3024 RMK T01400120 IEM_DS3505
ZGGG,2002-01-10 02:00,ZGGG 100200Z AUTO 17002KT 1 1/2SM 17/11 A3024 RMK T01700110 IEM_DS3505
ZGGG,2002-01-10 03:00,ZGGG 100300Z AUTO 00000KT 5SM 18/11 A3021 RMK SLP233 T01840108 57001 IEM_DS3505
ZGGG,2002-01-10 04:00,ZGGG 100400Z AUTO 11002KT 2 1/2SM 19/12 A3018 RMK T01900120 IEM_DS3505
ZGGG,2002-01-10 05:00,ZGGG 100500Z AUTO 23004KT 2SM 21/13 A3015 RMK T02100130 IEM_DS3505
ZGGG,2002-01-10 06:00,ZGGG 100600Z AUTO 20004KT 4SM 22/12 A3012 RMK SLP199 T02200125 57034 IEM_DS3505
ZGGG,2002-01-10 07:00,ZGGG 100700Z AUTO 25004KT 2 1/2SM 22/13 A3009 RMK T02200130 IEM_DS3505
ZGGG,2002-01-10 08:00,ZGGG 100800Z AUTO 17004KT 2SM 22/12 A3006 RMK T02200120 IEM_DS3505
ZGGG,2002-01-10 09:00,ZGGG 100900Z AUTO 18002KT 4SM 22/13 A3006 RMK SLP186 T02150130 57013 IEM_DS3505
ZGGG,2002-01-10 10:00,ZGGG 101000Z AUTO 2SM 21/13 A3009 RMK T02100130 IEM_DS3505
ZGGG,2002-01-10 11:00,ZGGG 101100Z AUTO 2 1/2SM 18/13 A3009 RMK T01800130 IEM_DS3505
ZGGG,2002-01-10 12:00,ZGGG 101200Z AUTO 32002KT 3SM 17/13 RMK SLP204 T01660134 52017 IEM_DS3505
ZGGG,2002-01-10 14:00,ZGGG 101400Z AUTO 2SM 16/13 A3012 RMK T01600130 IEM_DS3505
ZGGG,2002-01-10 15:00,ZGGG 101500Z AUTO 14002KT 3SM 15/13 A3012 RMK SLP200 T01510129 57003 IEM_DS3505
ZGGG,2002-01-10 16:00,ZGGG 101600Z AUTO 1 1/2SM 17/13 A3009 RMK T01700130 IEM_DS3505
ZGGG,2002-01-10 17:00,ZGGG 101700Z AUTO 19004KT 1 1/4SM 17/14 A3006 RMK T01700140 IEM_DS3505
ZGGG,2002-01-10 18:00,ZGGG 101800Z AUTO 00000KT 1 1/4SM 15/13 A3006 RMK SLP184 T01490131 57016 IEM_DS3505
ZGGG,2002-01-10 19:00,ZGGG 101900Z AUTO 1 1/2SM 16/14 A3006 RMK T01600140 IEM_DS3505
ZGGG,2002-01-10 20:00,ZGGG 102000Z AUTO 02004KT 1 1/4SM 14/13 A3009 RMK T01400130 IEM_DS3505
ZGGG,2002-01-10 21:00,ZGGG 102100Z AUTO 00000KT 1SM 14/13 A3006 RMK SLP183 T01400129 57001 IEM_DS3505
ZGGG,2002-01-10 22:00,ZGGG 102200Z AUTO 12002KT 1SM 14/13 A3009 RMK T01400130 IEM_DS3505
ZGGG,2002-01-10 23:00,ZGGG 102300Z AUTO 1SM 15/14 A3009 RMK T01500140 IEM_DS3505
ZGGG,2002-01-11 00:00,ZGGG 110000Z AUTO 00000KT 1 1/4SM 13/13 A3009 RMK SLP197 T01340129 52014 IEM_DS3505
ZGGG,2002-01-11 01:00,ZGGG 110100Z AUTO 1SM 17/15 A3012 RMK T01700150 IEM_DS3505
ZGGG,2002-01-11 02:00,ZGGG 110200Z AUTO 13002KT 1SM 19/16 A3012 RMK T01900160 IEM_DS3505
ZGGG,2002-01-11 03:00,ZGGG 110300Z AUTO 00000KT 1 1/2SM 20/15 A3012 RMK SLP203 T02010152 52006 IEM_DS3505
ZGGG,2002-01-11 04:00,ZGGG 110400Z AUTO 28004KT 1SM 21/14 A3009 RMK T02100140 IEM_DS3505
ZGGG,2002-01-11 05:00,ZGGG 110500Z AUTO 29002KT 1SM 22/14 A3003 RMK T02200140 IEM_DS3505
ZGGG,2002-01-11 06:00,ZGGG 110600Z AUTO 20004KT 1SM 24/16 A3000 RMK SLP162 T02430160 57040 IEM_DS3505
ZGGG,2002-01-11 07:00,ZGGG 110700Z AUTO 34004KT 1SM 24/14 A2997 RMK T02400140 IEM_DS3505
ZGGG,2002-01-11 08:00,ZGGG 110800Z AUTO 34004KT 2 1/2SM 24/13 A2997 RMK T02400130 IEM_DS3505
ZGGG,2002-01-11 09:00,ZGGG 110900Z AUTO 00000KT 1 1/2SM 23/16 A2997 RMK SLP153 T02330155 57009 IEM_DS3505
ZGGG,2002-01-11 10:00,ZGGG 111000Z AUTO 17004KT 1SM 22/15 A3000 RMK T02200150 IEM_DS3505
ZGGG,2002-01-11 11:00,ZGGG 111100Z AUTO 18004KT 1 1/4SM 22/16 A3000 RMK T02200160 IEM_DS3505
ZGGG,2002-01-11 12:00,ZGGG 111200Z AUTO 00000KT 2 1/2SM 19/16 A3003 RMK SLP174 T01930163 52020 IEM_DS3505
ZGGG,2002-01-11 13:00,ZGGG 111300Z AUTO 1SM 20/16 A3003 RMK T02000160 IEM_DS3505
ZGGG,2002-01-11 14:00,ZGGG 111400Z AUTO 1SM 19/16 A3006 RMK T01900160 IEM_DS3505
ZGGG,2002-01-11 15:00,ZGGG 111500Z AUTO 00000KT 2 1/2SM 18/16 A3006 RMK SLP184 T01830161 52010 IEM_DS3505
ZGGG,2002-01-11 16:00,ZGGG 111600Z AUTO 17006KT 1 1/4SM 19/16 A3006 RMK T01900160 IEM_DS3505
ZGGG,2002-01-11 17:00,ZGGG 111700Z AUTO 18004KT 1 1/4SM 19/16 A3006 RMK T01900160 IEM_DS3505
ZGGG,2002-01-11 18:00,ZGGG 111800Z AUTO 09004KT 1SM 17/16 A3006 RMK SLP184 T01700156 52001 IEM_DS3505
ZGGG,2002-01-11 19:00,ZGGG 111900Z AUTO 03002KT 1 1/4SM 18/16 A3006 RMK T01800160 IEM_DS3505
ZGGG,2002-01-11 20:00,ZGGG 112000Z AUTO 15004KT 1 1/2SM 18/15 A3006 RMK T01800150 IEM_DS3505
ZGGG,2002-01-11 21:00,ZGGG 112100Z AUTO 00000KT 1 1/4SM 17/15 A3006 RMK SLP178 T01660147 57006 IEM_DS3505
ZGGG,2002-01-11 22:00,ZGGG 112200Z AUTO 15002KT 1 1/2SM 17/14 A3006 RMK T01700140 IEM_DS3505
ZGGG,2002-01-11 23:00,ZGGG 112300Z AUTO 13002KT 1 1/2SM 17/15 A3006 RMK T01700150 IEM_DS3505
ZGGG,2002-01-12 00:00,ZGGG 120000Z AUTO 00000KT 1SM 15/14 A3009 RMK SLP192 T01540145 52013 IEM_DS3505
ZGGG,2002-01-12 01:00,ZGGG 120100Z AUTO 07002KT 1SM 18/15 A3009 RMK T01800150 IEM_DS3505
ZGGG,2002-01-12 02:00,ZGGG 120200Z AUTO 13004KT 1SM 19/15 A3012 RMK T01900150 IEM_DS3505
ZGGG,2002-01-12 03:00,ZGGG 120300Z AUTO 11004KT 1 1/2SM 22/16 A3012 RMK SLP199 T02160156 52008 IEM_DS3505
ZGGG,2002-01-12 04:00,ZGGG 120400Z AUTO 15006KT 2SM 23/16 A3009 RMK T02300160 IEM_DS3505
ZGGG,2002-01-12 05:00,ZGGG 120500Z AUTO 22004KT 23/14 A3006 RMK T02300140 IEM_DS3505
ZGGG,2002-01-12 06:00,ZGGG 120600Z AUTO 00000KT 7SM 25/14 A3003 RMK SLP168 T02520139 57031 IEM_DS3505
ZGGG,2002-01-12 07:00,ZGGG 120700Z AUTO 17008KT 25/14 A3000 RMK T02500140 IEM_DS3505
ZGGG,2002-01-12 08:00,ZGGG 120800Z AUTO 17006KT 6SM 24/14 A3000 RMK T02400140 IEM_DS3505
ZGGG,2002-01-12 09:00,ZGGG 120900Z AUTO 16004KT 7SM 24/15 A3000 RMK SLP164 T02440147 57004 IEM_DS3505
ZGGG,2002-01-12 10:00,ZGGG 121000Z AUTO 13004KT 23/15 A3000 RMK T02300150 IEM_DS3505
ZGGG,2002-01-12 11:00,ZGGG 121100Z AUTO 14004KT 22/15 A3003 RMK T02200150 IEM_DS3505
ZGGG,2002-01-12 12:00,ZGGG 121200Z AUTO 09002KT 7SM 20/15 A3003 RMK SLP176 T02020153 52011 IEM_DS3505
ZGGG,2002-01-12 13:00,ZGGG 121300Z AUTO 14002KT 21/15 A3003 RMK T02100150 IEM_DS3505
ZGGG,2002-01-12 14:00,ZGGG 121400Z AUTO 18002KT 21/15 A3006 RMK T02100150 IEM_DS3505
ZGGG,2002-01-12 15:00,ZGGG 121500Z AUTO 00000KT 5SM 19/16 A3006 RMK SLP181 T01900158 52006 IEM_DS3505
ZGGG,2002-01-12 16:00,ZGGG 121600Z AUTO 28002KT 3SM 20/15 A3006 RMK T02000150 IEM_DS3505
ZGGG,2002-01-12 17:00,ZGGG 121700Z AUTO 2 1/2SM 19/15 A3006 RMK T01900150 IEM_DS3505
ZGGG,2002-01-12 18:00,ZGGG 121800Z AUTO 00000KT 2SM 18/16 A3003 RMK SLP175 T01780158 57006 IEM_DS3505
ZGGG,2002-01-12 21:00,ZGGG 122100Z AUTO 00000KT 2SM 17/16 A3003 RMK SLP172 T01680156 57003 IEM_DS3505
ZGGG,2002-01-12 23:00,ZGGG 122300Z AUTO 1 1/4SM 17/15 A3003 RMK T01700150 IEM_DS3505
ZGGG,2002-01-13 00:00,ZGGG 130000Z AUTO 00000KT 3SM 17/16 A3006 RMK SLP185 T01670157 52012 IEM_DS3505
ZGGG,2002-01-13 01:00,ZGGG 130100Z AUTO 16002KT 1 1/2SM 21/16 A3009 RMK T02100160 IEM_DS3505
ZGGG,2002-01-13 02:00,ZGGG 130200Z AUTO 14004KT 3SM 22/16 A3009 RMK T02200160 IEM_DS3505
ZGGG,2002-01-13 03:00,ZGGG 130300Z AUTO 09006KT 7SM 24/16 A3009 RMK SLP190 T02350165 52006 IEM_DS3505
ZGGG,2002-01-13 04:00,ZGGG 130400Z AUTO 14004KT 3SM 24/17 A3006 RMK T02400170 IEM_DS3505
ZGGG,2002-01-13 05:00,ZGGG 130500Z AUTO 17008KT 24/17 A3003 RMK T02400170 IEM_DS3505
ZGGG,2002-01-13 06:00,ZGGG 130600Z AUTO 18004KT 7SM 25/16 A3000 RMK SLP166 T02520165 57024 IEM_DS3505
ZGGG,2002-01-13 07:00,ZGGG 130700Z AUTO 21008KT 26/17 A3000 RMK T02600170 IEM_DS3505
ZGGG,2002-01-13 08:00,ZGGG 130800Z AUTO 20004KT 25/16 A2997 RMK T02500160 IEM_DS3505
ZGGG,2002-01-13 09:00,ZGGG 130900Z AUTO 18004KT 9SM 25/16 A3000 RMK SLP158 T02520163 57008 IEM_DS3505
ZGGG,2002-01-13 10:00,ZGGG 131000Z AUTO 12004KT 6SM 24/16 A3000 RMK T02400160 IEM_DS3505
ZGGG,2002-01-13 11:00,ZGGG 131100Z AUTO 15004KT 6SM 23/16 A3000 RMK T02300160 IEM_DS3505
ZGGG,2002-01-13 12:00,ZGGG 131200Z AUTO 14002KT 9SM 23/17 A3000 RMK SLP167 T02290167 52009 IEM_DS3505
ZGGG,2002-01-13 13:00,ZGGG 131300Z AUTO 16004KT 7SM 23/17 A3003 RMK T02300170 IEM_DS3505
ZGGG,2002-01-13 14:00,ZGGG 131400Z AUTO 17006KT 7SM 22/16 A3003 RMK T02200160 IEM_DS3505
ZGGG,2002-01-13 15:00,ZGGG 131500Z AUTO 09002KT 7SM 20/17 A3000 RMK SLP167 T02020169 54000 IEM_DS3505
ZGGG,2002-01-13 16:00,ZGGG 131600Z AUTO 16004KT 7SM 21/17 A3000 RMK T02100170 IEM_DS3505
ZGGG,2002-01-13 17:00,ZGGG 131700Z AUTO 18004KT 7SM 21/17 A3000 RMK T02100170 IEM_DS3505
ZGGG,2002-01-13 18:00,ZGGG 131800Z AUTO 00000KT 6SM 19/17 A3000 RMK SLP161 T01880170 57006 IEM_DS3505
ZGGG,2002-01-13 19:00,ZGGG 131900Z AUTO 7SM 19/17 A3000 RMK T01900170 IEM_DS3505
ZGGG,2002-01-13 20:00,ZGGG 132000Z AUTO 05004KT 4SM 18/16 A2997 RMK T01800160 IEM_DS3505
ZGGG,2002-01-13 21:00,ZGGG 132100Z AUTO 00000KT 6SM 18/17 A2997 RMK SLP154 T01780166 57007 IEM_DS3505
ZGGG,2002-01-13 22:00,ZGGG 132200Z AUTO 3SM 18/17 A2997 RMK T01800170 IEM_DS3505
ZGGG,2002-01-13 23:00,ZGGG 132300Z AUTO 2 1/2SM 18/16 A2997 RMK T01800160 IEM_DS3505
ZGGG,2002-01-14 00:00,ZGGG 140000Z AUTO 00000KT 7SM 18/17 A3000 RMK SLP161 T01800168 52007 IEM_DS3505
ZGGG,2002-01-14 01:00,ZGGG 140100Z AUTO 01002KT 1 1/4SM 19/17 A3003 RMK T01900170 IEM_DS3505
ZGGG,2002-01-14 02:00,ZGGG 140200Z AUTO 2 1/2SM 21/17 A3003 RMK T02100170 IEM_DS3505
ZGGG,2002-01-14 03:00,ZGGG 140300Z AUTO 11006KT 7SM 21/17 A3003 RMK SLP170 T02140168 52009 IEM_DS3505
ZGGG,2002-01-14 04:00,ZGGG 140400Z AUTO 16004KT 2SM 21/18 A3000 RMK T02100180 IEM_DS3505
ZGGG,2002-01-14 05:00,ZGGG 140500Z AUTO 10002KT 1SM 20/19 A2997 RMK T02000190 IEM_DS3505
ZGGG,2002-01-14 06:00,ZGGG 140600Z AUTO 09002KT 1SM 20/19 A2997 RMK 60003 SLP149 T02000189 57021 IEM_DS3505
ZGGG,2002-01-14 07:00,ZGGG 140700Z AUTO 05004KT 1SM 19/19 A2994 RMK T01900190 IEM_DS3505
ZGGG,2002-01-14 08:00,ZGGG 140800Z AUTO 05006KT 1SM 19/19 A2994 RMK T01900190 IEM_DS3505
ZGGG,2002-01-14 09:00,ZGGG 140900Z AUTO 00000KT 1SM 20/19 A2994 RMK SLP142 T02010190 57007 IEM_DS3505
ZGGG,2002-01-14 10:00,ZGGG 141000Z AUTO 04004KT 1 1/4SM 19/19 A2994 RMK T01900190 IEM_DS3505
ZGGG,2002-01-14 11:00,ZGGG 141100Z AUTO 36004KT 1 1/4SM 20/20 A2994 RMK T02000200 IEM_DS3505
ZGGG,2002-01-14 12:00,ZGGG 141200Z AUTO 00000KT 2 1/2SM 20/19 A2994 RMK 60008 SLP146 T01980188 52004 IEM_DS3505
ZGGG,2002-01-14 13:00,ZGGG 141300Z AUTO 04004KT 1SM 19/19 A2994 RMK T01900190 IEM_DS3505
ZGGG,2002-01-14 14:00,ZGGG 141400Z AUTO 04006KT 1 1/4SM 19/19 A2994 RMK T01900190 IEM_DS3505
ZGGG,2002-01-14 15:00,ZGGG 141500Z AUTO 00000KT 4SM 20/19 A2997 RMK SLP147 T01970189 52001 IEM_DS3505
ZGGG,2002-01-14 16:00,ZGGG 141600Z AUTO 02004KT 1 1/4SM 19/19 A2994 RMK T01900190 IEM_DS3505
ZGGG,2002-01-14 17:00,ZGGG 141700Z AUTO 1 1/4SM 19/19 A2994 RMK T01900190 IEM_DS3505
ZGGG,2002-01-14 18:00,ZGGG 141800Z AUTO 00000KT 4SM 20/19 A2994 RMK 60003 SLP143 T01960190 57004 IEM_DS3505
ZGGG,2002-01-14 19:00,ZGGG 141900Z AUTO 1SM 19/19 A2994 RMK T01900190 IEM_DS3505
ZGGG,2002-01-14 20:00,ZGGG 142000Z AUTO 08004KT 1/2SM 19/19 A2991 RMK T01900190 IEM_DS3505
ZGGG,2002-01-14 21:00,ZGGG 142100Z AUTO 00000KT 1 1/4SM 19/19 A2994 RMK 70019 SLP138 T01940188 57005 IEM_DS3505
ZGGG,2002-01-14 22:00,ZGGG 142200Z AUTO 1/2SM 19/19 A2994 RMK T01900190 IEM_DS3505
ZGGG,2002-01-14 23:00,ZGGG 142300Z AUTO 18004KT 1SM 19/19 A2997 RMK T01900190 IEM_DS3505
ZGGG,2002-01-15 00:00,ZGGG 150000Z AUTO 14004KT 1SM 19/19 A2997 RMK 60004 SLP152 T01940189 52014 IEM_DS3505
ZGGG,2002-01-15 01:00,ZGGG 150100Z AUTO 18004KT 1 1/4SM 20/20 A3000 RMK T02000200 IEM_DS3505
ZGGG,2002-01-15 02:00,ZGGG 150200Z AUTO 18006KT 1 1/4SM 20/19 A3000 RMK T02000190 IEM_DS3505
ZGGG,2002-01-15 03:00,ZGGG 150300Z AUTO 00000KT 1 1/4SM 20/19 A3000 RMK SLP160 T02030189 52008 IEM_DS3505
ZGGG,2002-01-15 04:00,ZGGG 150400Z AUTO 17004KT 1SM 20/19 A2997 RMK T02000190 IEM_DS3505
ZGGG,2002-01-15 05:00,ZGGG 150500Z AUTO 18004KT 1SM 20/20 A2994 RMK T02000200 IEM_DS3505
ZGGG,2002-01-15 06:00,ZGGG 150600Z AUTO 22002KT 2 1/2SM 20/19 A2991 RMK 60001 SLP132 T02040193 57028 IEM_DS3505
ZGGG,2002-01-15 07:00,ZGGG 150700Z AUTO 19004KT 1SM 21/20 A2988 RMK T02100200 IEM_DS3505
ZGGG,2002-01-15 08:00,ZGGG 150800Z AUTO 17006KT 1SM 21/20 A2988 RMK T02100200 IEM_DS3505
ZGGG,2002-01-15 09:00,ZGGG 150900Z AUTO 09002KT 1 1/4SM 21/19 A2991 RMK SLP130 T02120193 57002 IEM_DS3505
ZGGG,2002-01-15 10:00,ZGGG 151000Z AUTO 13002KT 1SM 21/20 A2991 RMK T02100200 IEM_DS3505
ZGGG,2002-01-15 11:00,ZGGG 151100Z AUTO 15002KT 2SM 21/20 A2991 RMK T02100200 IEM_DS3505
ZGGG,2002-01-15 12:00,ZGGG 151200Z AUTO 09004KT 1 1/2SM 21/20 A2994 RMK 60003 SLP139 T02070196 52009 IEM_DS3505
ZGGG,2002-01-15 13:00,ZGGG 151300Z AUTO 16004KT 2 1/2SM 21/20 A2994 RMK T02100200 IEM_DS3505
ZGGG,2002-01-15 14:00,ZGGG 151400Z AUTO 16006KT 2 1/2SM 21/20 A2994 RMK T02100200 IEM_DS3505
ZGGG,2002-01-15 15:00,ZGGG 151500Z AUTO 11002KT 1SM 21/20 A2994 RMK SLP147 T02060197 52008 IEM_DS3505
ZGGG,2002-01-15 16:00,ZGGG 151600Z AUTO 16006KT 2SM 21/21 A2994 RMK T02100210 IEM_DS3505
ZGGG,2002-01-15 17:00,ZGGG 151700Z AUTO 17006KT 2SM 21/20 A2997 RMK T02100200 IEM_DS3505
ZGGG,2002-01-15 18:00,ZGGG 151800Z AUTO 07002KT 1 1/4SM 20/19 RMK 60003 SLP147 T02010193 54000 IEM_DS3505
ZGGG,2002-01-15 20:00,ZGGG 152000Z AUTO 17006KT 2SM 20/20 A2994 RMK T02000200 IEM_DS3505
ZGGG,2002-01-15 21:00,ZGGG 152100Z AUTO 00000KT 1SM 20/19 A2994 RMK 70002 SLP145 T01970191 57002 IEM_DS3505
ZGGG,2002-01-15 22:00,ZGGG 152200Z AUTO 1 1/2SM 20/20 A2997 RMK T02000200 IEM_DS3505
ZGGG,2002-01-15 23:00,ZGGG 152300Z AUTO 1 1/4SM 20/20 A2997 RMK T02000200 IEM_DS3505
ZGGG,2002-01-16 00:00,ZGGG 160000Z AUTO 00000KT 1SM 20/19 A2997 RMK 70001 SLP157 T01990194 52012 IEM_DS3505
ZGGG,2002-01-16 01:00,ZGGG 160100Z AUTO 16002KT 1 1/2SM 21/21 A3000 RMK T02100210 IEM_DS3505
ZGGG,2002-01-16 02:00,ZGGG 160200Z AUTO 2SM 21/19 A3003 RMK T02100190 IEM_DS3505
ZGGG,2002-01-16 03:00,ZGGG 160300Z AUTO 20004KT 4SM 24/19 A3000 RMK SLP164 T02380191 52007 IEM_DS3505
ZGGG,2002-01-16 04:00,ZGGG 160400Z AUTO 24004KT 1 1/2SM 24/19 A2997 RMK T02400190 IEM_DS3505
ZGGG,2002-01-16 05:00,ZGGG 160500Z AUTO 24004KT 2SM 24/18 A2994 RMK T02400180 IEM_DS3505
ZGGG,2002-01-16 06:00,ZGGG 160600Z AUTO 34004KT 6SM 26/18 A2991 RMK SLP133 T02610185 57031 IEM_DS3505
ZGGG,2002-01-16 07:00,ZGGG 160700Z AUTO 34002KT 3SM 25/17 A2988 RMK T02500170 IEM_DS3505
ZGGG,2002-01-16 08:00,ZGGG 160800Z AUTO 32002KT 3SM 25/17 A2988 RMK T02500170 IEM_DS3505
ZGGG,2002-01-16 09:00,ZGGG 160900Z AUTO 00000KT 9SM 25/18 A2988 RMK SLP124 T02500181 57009 IEM_DS3505
ZGGG,2002-01-16 10:00,ZGGG 161000Z AUTO 25/17 A2988 RMK T02500170 IEM_DS3505
ZGGG,2002-01-16 11:00,ZGGG 161100Z AUTO 4SM 21/17 A2991 RMK T02100170 IEM_DS3505
ZGGG,2002-01-16 12:00,ZGGG 161200Z AUTO 00000KT 8SM 21/18 A2991 RMK SLP136 T02060184 52012 IEM_DS3505
ZGGG,2002-01-16 13:00,ZGGG 161300Z AUTO 4SM 21/17 A2994 RMK T02100170 IEM_DS3505
ZGGG,2002-01-16 14:00,ZGGG 161400Z AUTO 4SM 20/17 A2994 RMK T02000170 IEM_DS3505
ZGGG,2002-01-16 15:00,ZGGG 161500Z AUTO 00000KT 6SM 19/18 A2991 RMK SLP138 T01900175 52002 IEM_DS3505
ZGGG,2002-01-16 16:00,ZGGG 161600Z AUTO 17004KT 2SM 21/18 A2991 RMK T02100180 IEM_DS3505
ZGGG,2002-01-16 17:00,ZGGG 161700Z AUTO 20004KT 2SM 21/18 A2991 RMK T02100180 IEM_DS3505
ZGGG,2002-01-16 18:00,ZGGG 161800Z AUTO 00000KT 2SM 18/17 A2991 RMK SLP137 T01820174 57001 IEM_DS3505
ZGGG,2002-01-16 19:00,ZGGG 161900Z AUTO 2 1/2SM 20/19 A2991 RMK T02000190 IEM_DS3505
ZGGG,2002-01-16 20:00,ZGGG 162000Z AUTO 2SM 19/18 A2991 RMK T01900180 IEM_DS3505
ZGGG,2002-01-16 21:00,ZGGG 162100Z AUTO 00000KT 1 1/2SM 17/17 A2991 RMK SLP133 T01740171 57004 IEM_DS3505
ZGGG,2002-01-16 22:00,ZGGG 162200Z AUTO 1 1/4SM 17/17 A2991 RMK T01700170 IEM_DS3505
ZGGG,2002-01-16 23:00,ZGGG 162300Z AUTO 1 1/4SM 17/17 A2994 RMK T01700170 IEM_DS3505
ZGGG,2002-01-17 00:00,ZGGG 170000Z AUTO 14002KT 1/4SM 18/18 A2994 RMK SLP143 T01840181 52010 IEM_DS3505
ZGGG,2002-01-17 01:00,ZGGG 170100Z AUTO 3/8SM 19/19 A2997 RMK T01900190 IEM_DS3505
ZGGG,2002-01-17 02:00,ZGGG 170200Z AUTO 09002KT 1SM 19/19 A2997 RMK T01900190 IEM_DS3505
ZGGG,2002-01-17 03:00,ZGGG 170300Z AUTO 14004KT 1 1/4SM 20/19 A2997 RMK SLP155 T01980188 52012 IEM_DS3505
ZGGG,2002-01-17 04:00,ZGGG 170400Z AUTO 07004KT 1SM 22/19 A2994 RMK T02200190 IEM_DS3505
ZGGG,2002-01-17 05:00,ZGGG 170500Z AUTO 1SM 23/19 A2991 RMK T02300190 IEM_DS3505
ZGGG,2002-01-17 06:00,ZGGG 170600Z AUTO 18004KT 4SM 25/18 A2985 RMK SLP117 T02510182 57038 IEM_DS3505
ZGGG,2002-01-17 07:00,ZGGG 170700Z AUTO 16008KT 2 1/2SM 26/17 A2983 RMK T02600170 IEM_DS3505
ZGGG,2002-01-17 08:00,ZGGG 170800Z AUTO 19008KT 26/17 A2983 RMK T02600170 IEM_DS3505
ZGGG,2002-01-17 09:00,ZGGG 170900Z AUTO 16006KT 7SM 25/18 A2983 RMK SLP109 T02540178 57008 IEM_DS3505
ZGGG,2002-01-17 10:00,ZGGG 171000Z AUTO 16008KT 24/17 A2983 RMK T02400170 IEM_DS3505
ZGGG,2002-01-17 11:00,ZGGG 171100Z AUTO 16012KT 5SM 23/17 A2985 RMK T02300170 IEM_DS3505
ZGGG,2002-01-17 12:00,ZGGG 171200Z AUTO 14004KT 8SM 21/18 A2985 RMK SLP121 T02080179 52012 IEM_DS3505
ZGGG,2002-01-17 13:00,ZGGG 171300Z AUTO 15008KT 6SM 21/18 A2988 RMK T02100180 IEM_DS3505
ZGGG,2002-01-17 14:00,ZGGG 171400Z AUTO 17008KT 7SM 21/18 A2991 RMK T02100180 IEM_DS3505
ZGGG,2002-01-17 15:00,ZGGG 171500Z AUTO 14002KT 7SM 20/18 A2991 RMK SLP132 T01990180 52011 IEM_DS3505
ZGGG,2002-01-17 16:00,ZGGG 171600Z AUTO 16010KT 4SM 21/18 A2991 RMK T02100180 IEM_DS3505
ZGGG,2002-01-17 17:00,ZGGG 171700Z AUTO 16008KT 2 1/2SM 21/18 A2991 RMK T02100180 IEM_DS3505
ZGGG,2002-01-17 18:00,ZGGG 171800Z AUTO 11004KT 2 1/2SM 20/18 A2988 RMK SLP125 T01970179 57007 IEM_DS3505
ZGGG,2002-01-17 19:00,ZGGG 171900Z AUTO 2SM 20/17 A2988 RMK T02000170 IEM_DS3505
ZGGG,2002-01-17 20:00,ZGGG 172000Z AUTO 12002KT 2 1/2SM 19/17 A2988 RMK T01900170 IEM_DS3505
ZGGG,2002-01-17 21:00,ZGGG 172100Z AUTO 14004KT 1 1/2SM 19/18 A2988 RMK SLP126 T01920176 52001 IEM_DS3505
ZGGG,2002-01-17 22:00,ZGGG 172200Z AUTO 03002KT 2 1/2SM 19/17 A2988 RMK T01900170 IEM_DS3505
ZGGG,2002-01-17 23:00,ZGGG 172300Z AUTO 13004KT 2 1/2SM 19/17 A2991 RMK T01900170 IEM_DS3505
ZGGG,2002-01-18 00:00,ZGGG 180000Z AUTO 14004KT 1 1/2SM 19/18 A2994 RMK SLP141 T01910175 52015 IEM_DS3505
ZGGG,2002-01-18 01:00,ZGGG 180100Z AUTO 16006KT 2SM 21/18 A2994 RMK T02100180 IEM_DS3505
ZGGG,2002-01-18 02:00,ZGGG 180200Z AUTO 16006KT 2 1/2SM 21/17 A2997 RMK T02100170 IEM_DS3505
ZGGG,2002-01-18 03:00,ZGGG 180300Z AUTO 16006KT 3SM 21/17 A2997 RMK SLP151 T02140174 52010 IEM_DS3505
ZGGG,2002-01-18 04:00,ZGGG 180400Z AUTO 15004KT 2 1/2SM 22/18 A2994 RMK T02200180 IEM_DS3505
ZGGG,2002-01-18 05:00,ZGGG 180500Z AUTO 02008KT 1 1/4SM 19/17 A2994 RMK T01900170 IEM_DS3505
ZGGG,2002-01-18 06:00,ZGGG 180600Z AUTO 32004KT 2SM 19/16 A2991 RMK 60000 SLP132 T01890162 57019 IEM_DS3505
ZGGG,2002-01-18 07:00,ZGGG 180700Z AUTO 01010KT 4SM 17/13 A2991 RMK T01700130 IEM_DS3505
ZGGG,2002-01-18 08:00,ZGGG 180800Z AUTO 36010KT 4SM 16/13 A2991 RMK T01600130 IEM_DS3505
ZGGG,2002-01-18 09:00,ZGGG 180900Z AUTO 34008KT 9SM 16/13 A2994 RMK SLP139 T01560129 52006 IEM_DS3505
ZGGG,2002-01-18 10:00,ZGGG 181000Z AUTO 36012KT 3SM 13/11 A2994 RMK T01300110 IEM_DS3505
ZGGG,2002-01-18 11:00,ZGGG 181100Z AUTO 36010KT 4SM 13/11 A2997 RMK T01300110 IEM_DS3505
ZGGG,2002-01-18 12:00,ZGGG 181200Z AUTO 36008KT 10SM 14/11 A2997 RMK 60001 SLP154 T01360114 52015 IEM_DS3505
ZGGG,2002-01-18 13:00,ZGGG 181300Z AUTO 36012KT 7SM 12/09 A3000 RMK T01200090 IEM_DS3505
ZGGG,2002-01-18 14:00,ZGGG 181400Z AUTO 36010KT 3SM 12/11 A3003 RMK T01200110 IEM_DS3505
ZGGG,2002-01-18 15:00,ZGGG 181500Z AUTO 34008KT 11SM 12/10 A3006 RMK SLP176 T01170101 52022 IEM_DS3505
ZGGG,2002-01-18 16:00,ZGGG 181600Z AUTO 36010KT 7SM 11/09 A3006 RMK T01100090 IEM_DS3505
ZGGG,2002-01-18 17:00,ZGGG 181700Z AUTO 36010KT 7SM 11/09 A3006 RMK T01100090 IEM_DS3505
ZGGG,2002-01-18 18:00,ZGGG 181800Z AUTO 02004KT 11SM 11/09 A3006 RMK 60004 SLP184 T01140092 52008 IEM_DS3505
ZGGG,2002-01-18 19:00,ZGGG 181900Z AUTO 03010KT 7SM 12/08 A3006 RMK T01200080 IEM_DS3505
ZGGG,2002-01-18 20:00,ZGGG 182000Z AUTO 01010KT 7SM 12/07 A3009 RMK T01200070 IEM_DS3505
ZGGG,2002-01-18 21:00,ZGGG 182100Z AUTO 34004KT 10SM 11/08 A3009 RMK 70007 SLP190 T01100077 52005 IEM_DS3505
ZGGG,2002-01-18 22:00,ZGGG 182200Z AUTO 04012KT 7SM 11/07 A3009 RMK T01100070 IEM_DS3505
ZGGG,2002-01-18 23:00,ZGGG 182300Z AUTO 03012KT 7SM 11/07 A3012 RMK T01100070 IEM_DS3505
ZGGG,2002-01-19 00:00,ZGGG 190000Z AUTO 34002KT 10SM 11/08 A3012 RMK 60003 SLP206 T01080075 52016 IEM_DS3505
ZGGG,2002-01-19 01:00,ZGGG 190100Z AUTO 01008KT 7SM 11/06 A3015 RMK T01100060 IEM_DS3505
ZGGG,2002-01-19 02:00,ZGGG 190200Z AUTO 04008KT 7SM 11/06 A3018 RMK T01100060 IEM_DS3505
ZGGG,2002-01-19 03:00,ZGGG 190300Z AUTO 29004KT 9SM 12/07 A3018 RMK SLP215 T01170071 52009 IEM_DS3505
ZGGG,2002-01-19 04:00,ZGGG 190400Z AUTO 04010KT 7SM 12/07 A3015 RMK T01200070 IEM_DS3505
ZGGG,2002-01-19 05:00,ZGGG 190500Z AUTO 04010KT 7SM 12/07 A3012 RMK T01200070 IEM_DS3505
ZGGG,2002-01-19 06:00,ZGGG 190600Z AUTO 02006KT 9SM 12/08 A3009 RMK 60003 SLP192 T01210080 57023 IEM_DS3505
ZGGG,2002-01-19 07:00,ZGGG 190700Z AUTO 04008KT 7SM 12/08 A3009 RMK T01200080 IEM_DS3505
ZGGG,2002-01-19 08:00,ZGGG 190800Z AUTO 36006KT 7SM 12/07 A3006 RMK T01200070 IEM_DS3505
ZGGG,2002-01-19 09:00,ZGGG 190900Z AUTO 02004KT 9SM 12/08 A3006 RMK SLP187 T01210083 57005 IEM_DS3505
ZGGG,2002-01-19 10:00,ZGGG 191000Z AUTO 04010KT 4SM 12/07 A3009 RMK T01200070 IEM_DS3505
ZGGG,2002-01-19 11:00,ZGGG 191100Z AUTO 04012KT 7SM 12/07 A3009 RMK T01200070 IEM_DS3505
ZGGG,2002-01-19 12:00,ZGGG 191200Z AUTO 02004KT 9SM 12/08 A3012 RMK SLP199 T01150080 52012 IEM_DS3505
ZGGG,2002-01-19 13:00,ZGGG 191300Z AUTO 03012KT 5SM 11/08 A3012 RMK T01100080 IEM_DS3505
ZGGG,2002-01-19 14:00,ZGGG 191400Z AUTO 03008KT 4SM 11/08 A3015 RMK T01100080 IEM_DS3505
ZGGG,2002-01-19 15:00,ZGGG 191500Z AUTO 02004KT 4SM 10/09 A3015 RMK SLP208 T01050089 52009 IEM_DS3505
ZGGG,2002-01-19 16:00,ZGGG 191600Z AUTO 01008KT 2 1/2SM 11/09 A3015 RMK T01100090 IEM_DS3505
ZGGG,2002-01-19 17:00,ZGGG 191700Z AUTO 01008KT 2 1/2SM 10/08 A3015 RMK T01000080 IEM_DS3505
ZGGG,2002-01-19 18:00,ZGGG 191800Z AUTO 34004KT 7SM 10/09 A3015 RMK 60003 SLP212 T01010089 52004 IEM_DS3505
ZGGG,2002-01-19 19:00,ZGGG 191900Z AUTO 04010KT 7SM 10/08 A3015 RMK T01000080 IEM_DS3505
ZGGG,2002-01-19 20:00,ZGGG 192000Z AUTO 02010KT 7SM 10/07 A3015 RMK T01000070 IEM_DS3505
ZGGG,2002-01-19 21:00,ZGGG 192100Z AUTO 32004KT 8SM 10/08 A3015 RMK 70003 SLP216 T00990082 52004 IEM_DS3505
ZGGG,2002-01-19 22:00,ZGGG 192200Z AUTO 01008KT 7SM 10/07 A3018 RMK T01000070 IEM_DS3505
ZGGG,2002-01-19 23:00,ZGGG 192300Z AUTO 01008KT 7SM 10/07 A3018 RMK T01000070 IEM_DS3505
ZGGG,2002-01-20 00:00,ZGGG 200000Z AUTO 36006KT 9SM 10/08 A3021 RMK 70003 SLP226 T00980075 52010 IEM_DS3505
ZGGG,2002-01-20 01:00,ZGGG 200100Z AUTO 36006KT 4SM 10/07 A3024 RMK T01000070 IEM_DS3505
ZGGG,2002-01-20 02:00,ZGGG 200200Z AUTO 4SM 11/07 A3024 RMK T01100070 IEM_DS3505
ZGGG,2002-01-20 03:00,ZGGG 200300Z AUTO 02004KT 11SM 11/06 A3024 RMK SLP237 T01100065 52011 IEM_DS3505
ZGGG,2002-01-20 04:00,ZGGG 200400Z AUTO 36010KT 5SM 11/06 A3021 RMK T01100060 IEM_DS3505
ZGGG,2002-01-20 05:00,ZGGG 200500Z AUTO 36010KT 7SM 11/06 A3021 RMK T01100060 IEM_DS3505
ZGGG,2002-01-20 06:00,ZGGG 200600Z AUTO 32006KT 9SM 11/07 A3018 RMK 60003 SLP220 T01080068 57017 IEM_DS3505
ZGGG,2002-01-20 07:00,ZGGG 200700Z AUTO 01010KT 5SM 11/06 A3018 RMK T01100060 IEM_DS3505
ZGGG,2002-01-20 08:00,ZGGG 200800Z AUTO 36010KT 5SM 10/06 A3018 RMK T01000060 IEM_DS3505
ZGGG,2002-01-20 09:00,ZGGG 200900Z AUTO 02006KT 10SM 10/06 A3021 RMK SLP226 T01020063 52006 IEM_DS3505
ZGGG,2002-01-20 10:00,ZGGG 201000Z AUTO 36010KT 5SM 10/06 A3021 RMK T01000060 IEM_DS3505
ZGGG,2002-01-20 11:00,ZGGG 201100Z AUTO 01010KT 7SM 10/05 A3024 RMK T01000050 IEM_DS3505
ZGGG,2002-01-20 12:00,ZGGG 201200Z AUTO 02008KT 11SM 10/05 A3027 RMK SLP246 T00960049 52019 IEM_DS3505
ZGGG,2002-01-20 13:00,ZGGG 201300Z AUTO 36008KT 7SM 09/04 A3027 RMK T00900040 IEM_DS3505
ZGGG,2002-01-20 14:00,ZGGG 201400Z AUTO 36008KT 7SM 09/04 A3030 RMK T00900040 IEM_DS3505
ZGGG,2002-01-20 15:00,ZGGG 201500Z AUTO 36008KT 12SM 08/04 A3030 RMK SLP261 T00840045 52015 IEM_DS3505
ZGGG,2002-01-20 16:00,ZGGG 201600Z AUTO 36008KT 6SM 08/03 A3030 RMK T00800030 IEM_DS3505
ZGGG,2002-01-20 17:00,ZGGG 201700Z AUTO 36008KT 7SM 09/03 A3030 RMK T00900030 IEM_DS3505
ZGGG,2002-01-20 18:00,ZGGG 201800Z AUTO 36006KT 11SM 09/03 A3030 RMK SLP255 T00860032 57006 IEM_DS3505
ZGGG,2002-01-20 19:00,ZGGG 201900Z AUTO 36006KT 7SM 09/03 A3027 RMK T00900030 IEM_DS3505
ZGGG,2002-01-20 20:00,ZGGG 202000Z AUTO 36008KT 7SM 09/03 A3027 RMK T00900030 IEM_DS3505
ZGGG,2002-01-20 21:00,ZGGG 202100Z AUTO 36008KT 12SM 08/02 A3027 RMK 70003 SLP250 T00760020 57005 IEM_DS3505
ZGGG,2002-01-20 22:00,ZGGG 202200Z AUTO 02010KT 6SM 08/02 A3027 RMK T00800020 IEM_DS3505
ZGGG,2002-01-20 23:00,ZGGG 202300Z AUTO 01008KT 6SM 07/01 A3030 RMK T00700010 IEM_DS3505
ZGGG,2002-01-21 00:00,ZGGG 210000Z AUTO 02004KT 14SM 07/01 A3030 RMK 70003 SLP261 T00710008 52011 IEM_DS3505
ZGGG,2002-01-21 01:00,ZGGG 210100Z AUTO 36008KT 6SM 08/01 A3033 RMK T00800010 IEM_DS3505
ZGGG,2002-01-21 02:00,ZGGG 210200Z AUTO 02012KT 6SM 10/00 A3033 RMK T01000000 IEM_DS3505
ZGGG,2002-01-21 03:00,ZGGG 210300Z AUTO 36006KT 9SM 11/01 A3033 RMK SLP268 T01140011 52007 IEM_DS3505
ZGGG,2002-01-21 04:00,ZGGG 210400Z AUTO 02014KT 6SM 12/00 A3027 RMK T01200000 IEM_DS3505
ZGGG,2002-01-21 05:00,ZGGG 210500Z AUTO 03016KT 6SM 13/M01 A3024 RMK T01301010 IEM_DS3505
ZGGG,2002-01-21 06:00,ZGGG 210600Z AUTO 02008KT 12SM 14/01 A3021 RMK SLP227 T01440011 57040 IEM_DS3505
ZGGG,2002-01-21 07:00,ZGGG 210700Z AUTO 03014KT 6SM 15/00 A3018 RMK T01500000 IEM_DS3505
ZGGG,2002-01-21 08:00,ZGGG 210800Z AUTO 02010KT 6SM 16/01 A3015 RMK T01600010 IEM_DS3505
ZGGG,2002-01-21 09:00,ZGGG 210900Z AUTO 36004KT 14SM 15/03 A3015 RMK SLP216 T01510026 57011 IEM_DS3505
ZGGG,2002-01-21 10:00,ZGGG 211000Z AUTO 02010KT 6SM 14/01 A3018 RMK T01400010 IEM_DS3505
ZGGG,2002-01-21 11:00,ZGGG 211100Z AUTO 36006KT 6SM 13/02 A3018 RMK T01300020 IEM_DS3505
ZGGG,2002-01-21 12:00,ZGGG 211200Z AUTO 34004KT 11SM 12/04 A3021 RMK SLP230 T01170036 52013 IEM_DS3505
ZGGG,2002-01-21 13:00,ZGGG 211300Z AUTO 03008KT 6SM 11/03 A3024 RMK T01100030 IEM_DS3505
ZGGG,2002-01-21 14:00,ZGGG 211400Z AUTO 04006KT 5SM 10/03 A3024 RMK T01000030 IEM_DS3505
ZGGG,2002-01-21 15:00,ZGGG 211500Z AUTO 11002KT 11SM 11/01 A3024 RMK SLP245 T01070010 52016 IEM_DS3505
ZGGG,2002-01-21 16:00,ZGGG 211600Z AUTO 04008KT 6SM 10/00 A3027 RMK T01000000 IEM_DS3505
ZGGG,2002-01-21 17:00,ZGGG 211700Z AUTO 05008KT 6SM 09/M01 A3024 RMK T00901010 IEM_DS3505
ZGGG,2002-01-21 18:00,ZGGG 211800Z AUTO 02004KT 11SM 10/00 A3027 RMK SLP245 T01010001 54000 IEM_DS3505
ZGGG,2002-01-21 19:00,ZGGG 211900Z AUTO 02008KT 6SM 09/M01 A3024 RMK T00901010 IEM_DS3505
ZGGG,2002-01-21 20:00,ZGGG 212000Z AUTO 02008KT 6SM 10/M01 A3024 RMK T01001010 IEM_DS3505
ZGGG,2002-01-21 21:00,ZGGG 212100Z AUTO 34002KT 10SM 10/M01 A3024 RMK SLP241 T00951014 57004 IEM_DS3505
ZGGG,2002-01-21 22:00,ZGGG 212200Z AUTO 01006KT 6SM 09/M01 A3027 RMK T00901010 IEM_DS3505
ZGGG,2002-01-21 23:00,ZGGG 212300Z AUTO 03006KT 6SM 08/M01 A3027 RMK T00801010 IEM_DS3505
ZGGG,2002-01-22 00:00,ZGGG 220000Z AUTO 34004KT 11SM 09/00 A3030 RMK SLP261 T00910000 52019 IEM_DS3505
ZGGG,2002-01-22 01:00,ZGGG 220100Z AUTO 03008KT 6SM 10/M01 A3033 RMK T01001010 IEM_DS3505
ZGGG,2002-01-22 02:00,ZGGG 220200Z AUTO 04010KT 6SM 11/M01 A3033 RMK T01101010 IEM_DS3505
ZGGG,2002-01-22 03:00,ZGGG 220300Z AUTO 02004KT 10SM 12/00 A3030 RMK SLP264 T01250001 52004 IEM_DS3505
ZGGG,2002-01-22 04:00,ZGGG 220400Z AUTO 03010KT 6SM 12/M02 A3030 RMK T01201020 IEM_DS3505
ZGGG,2002-01-22 05:00,ZGGG 220500Z AUTO 03008KT 6SM 13/M02 A3024 RMK T01301020 IEM_DS3505
ZGGG,2002-01-22 06:00,ZGGG 220600Z AUTO 11004KT 12SM 15/M00 A3021 RMK SLP231 T01511005 57033 IEM_DS3505
ZGGG,2002-01-22 07:00,ZGGG 220700Z AUTO 01006KT 6SM 15/M03 A3018 RMK T01501030 IEM_DS3505
ZGGG,2002-01-22 08:00,ZGGG 220800Z AUTO 03006KT 6SM 16/M02 A3018 RMK T01601020 IEM_DS3505
ZGGG,2002-01-22 09:00,ZGGG 220900Z AUTO 34004KT 14SM 16/01 A3018 RMK SLP223 T01570013 57008 IEM_DS3505
ZGGG,2002-01-22 10:00,ZGGG 221000Z AUTO 08004KT 6SM 14/M03 A3021 RMK T01401030 IEM_DS3505
ZGGG,2002-01-22 11:00,ZGGG 221100Z AUTO 04002KT 6SM 13/M02 A3021 RMK T01301020 IEM_DS3505
ZGGG,2002-01-22 12:00,ZGGG 221200Z AUTO 34002KT 11SM 13/01 A3021 RMK SLP236 T01270011 52013 IEM_DS3505
ZGGG,2002-01-22 13:00,ZGGG 221300Z AUTO 04006KT 6SM 13/00 A3024 RMK T01300000 IEM_DS3505
ZGGG,2002-01-22 14:00,ZGGG 221400Z AUTO 04006KT 6SM 12/01 A3024 RMK T01200010 IEM_DS3505
ZGGG,2002-01-22 15:00,ZGGG 221500Z AUTO 34002KT 11SM 11/02 A3027 RMK SLP247 T01100023 52011 IEM_DS3505
ZGGG,2002-01-22 16:00,ZGGG 221600Z AUTO 04006KT 6SM 09/01 A3027 RMK T00900010 IEM_DS3505
ZGGG,2002-01-22 17:00,ZGGG 221700Z AUTO 03006KT 6SM 10/01 A3027 RMK T01000010 IEM_DS3505
ZGGG,2002-01-22 18:00,ZGGG 221800Z AUTO 00000KT 11SM 10/02 A3024 RMK SLP247 T01030023 54000 IEM_DS3505
ZGGG,2002-01-22 19:00,ZGGG 221900Z AUTO 01006KT 6SM 11/00 A3024 RMK T01100000 IEM_DS3505
ZGGG,2002-01-22 20:00,ZGGG 222000Z AUTO 03006KT 6SM 09/01 A3024 RMK T00900010 IEM_DS3505
ZGGG,2002-01-22 21:00,ZGGG 222100Z AUTO 02002KT 10SM 10/01 A3024 RMK SLP239 T01020006 57008 IEM_DS3505
ZGGG,2002-01-22 22:00,ZGGG 222200Z AUTO 03004KT 6SM 11/M02 A3024 RMK T01101020 IEM_DS3505
ZGGG,2002-01-22 23:00,ZGGG 222300Z AUTO 04008KT 6SM 10/M01 A3027 RMK T01001010 IEM_DS3505
ZGGG,2002-01-23 00:00,ZGGG 230000Z AUTO 34004KT 11SM 11/01 A3030 RMK SLP259 T01060012 52020 IEM_DS3505
ZGGG,2002-01-23 01:00,ZGGG 230100Z AUTO 04010KT 6SM 11/M02 A3030 RMK T01101020 IEM_DS3505
ZGGG,2002-01-23 02:00,ZGGG 230200Z AUTO 03010KT 6SM 12/M02 A3033 RMK T01201020 IEM_DS3505
ZGGG,2002-01-23 03:00,ZGGG 230300Z AUTO 02004KT 11SM 13/M00 A3033 RMK SLP267 T01291003 52008 IEM_DS3505
ZGGG,2002-01-23 04:00,ZGGG 230400Z AUTO 02008KT 7SM 13/M01 A3030 RMK T01301010 IEM_DS3505
ZGGG,2002-01-23 05:00,ZGGG 230500Z AUTO 36008KT 7SM 13/M02 A3027 RMK T01301020 IEM_DS3505
ZGGG,2002-01-23 06:00,ZGGG 230600Z AUTO 34006KT 10SM 15/02 A3024 RMK SLP237 T01540021 57030 IEM_DS3505
ZGGG,2002-01-23 07:00,ZGGG 230700Z AUTO 35006KT 7SM 13/M01 A3021 RMK T01301010 IEM_DS3505
ZGGG,2002-01-23 08:00,ZGGG 230800Z AUTO 36008KT 7SM 13/M01 A3021 RMK T01301010 IEM_DS3505
ZGGG,2002-01-23 09:00,ZGGG 230900Z AUTO 34006KT 9SM 13/03 A3021 RMK SLP228 T01280031 57009 IEM_DS3505
ZGGG,2002-01-23 10:00,ZGGG 231000Z AUTO 01008KT 13/00 A3021 RMK T01300000 IEM_DS3505
ZGGG,2002-01-23 11:00,ZGGG 231100Z AUTO 36008KT 5SM 12/01 A3021 RMK T01200010 IEM_DS3505
ZGGG,2002-01-23 12:00,ZGGG 231200Z AUTO 34008KT 8SM 12/02 A3021 RMK 60003 SLP232 T01220022 52004 IEM_DS3505
ZGGG,2002-01-23 13:00,ZGGG 231300Z AUTO 36008KT 5SM 12/02 A3021 RMK T01200020 IEM_DS3505
ZGGG,2002-01-23 14:00,ZGGG 231400Z AUTO 36006KT 5SM 12/03 A3024 RMK T01200030 IEM_DS3505
ZGGG,2002-01-23 15:00,ZGGG 231500Z AUTO 34004KT 9SM 12/04 A3024 RMK SLP237 T01150038 52005 IEM_DS3505
ZGGG,2002-01-23 16:00,ZGGG 231600Z AUTO 36004KT 6SM 12/03 A3024 RMK T01200030 IEM_DS3505
ZGGG,2002-01-23 17:00,ZGGG 231700Z AUTO 01006KT 6SM 12/03 A3021 RMK T01200030 IEM_DS3505
ZGGG,2002-01-23 18:00,ZGGG 231800Z AUTO 00000KT 7SM 11/05 A3018 RMK SLP227 T01130049 57010 IEM_DS3505
ZGGG,2002-01-23 19:00,ZGGG 231900Z AUTO 02006KT 6SM 12/03 A3018 RMK T01200030 IEM_DS3505
ZGGG,2002-01-23 20:00,ZGGG 232000Z AUTO 02006KT 6SM 12/04 A3018 RMK T01200040 IEM_DS3505
ZGGG,2002-01-23 21:00,ZGGG 232100Z AUTO 07002KT 8SM 12/07 A3015 RMK 70003 SLP211 T01160068 57016 IEM_DS3505
ZGGG,2002-01-23 22:00,ZGGG 232200Z AUTO 04004KT 6SM 11/04 A3015 RMK T01100040 IEM_DS3505
ZGGG,2002-01-23 23:00,ZGGG 232300Z AUTO 33006KT 12/04 A3018 RMK T01200040 IEM_DS3505
ZGGG,2002-01-24 00:00,ZGGG 240000Z AUTO 02004KT 9SM 12/07 RMK 70003 SLP221 T01250073 52010 IEM_DS3505
ZGGG,2002-01-24 01:00,ZGGG 240100Z AUTO 03002KT 12/05 A3018 RMK T01200050 IEM_DS3505
ZGGG,2002-01-24 02:00,ZGGG 240200Z AUTO 02006KT 7SM 12/04 A3018 RMK T01200040 IEM_DS3505
ZGGG,2002-01-24 03:00,ZGGG 240300Z AUTO 34006KT 7SM 12/05 A3021 RMK SLP230 T01250051 52009 IEM_DS3505
ZGGG,2002-01-24 04:00,ZGGG 240400Z AUTO 03008KT 12/04 A3018 RMK T01200040 IEM_DS3505
ZGGG,2002-01-24 05:00,ZGGG 240500Z AUTO 02008KT 3SM 13/04 A3015 RMK T01300040 IEM_DS3505
ZGGG,2002-01-24 06:00,ZGGG 240600Z AUTO 34004KT 8SM 14/05 A3012 RMK SLP197 T01360053 57033 IEM_DS3505
ZGGG,2002-01-24 07:00,ZGGG 240700Z AUTO 04010KT 13/04 A3009 RMK T01300040 IEM_DS3505
ZGGG,2002-01-24 08:00,ZGGG 240800Z AUTO 36008KT 13/04 A3009 RMK T01300040 IEM_DS3505
ZGGG,2002-01-24 09:00,ZGGG 240900Z AUTO 34004KT 6SM 13/06 A3009 RMK SLP188 T01330059 57009 IEM_DS3505
ZGGG,2002-01-24 10:00,ZGGG 241000Z AUTO 01008KT 3SM 12/04 A3009 RMK T01200040 IEM_DS3505
ZGGG,2002-01-24 11:00,ZGGG 241100Z AUTO 02006KT 12/05 A3006 RMK T01200050 IEM_DS3505
ZGGG,2002-01-24 12:00,ZGGG 241200Z AUTO 32004KT 5SM 13/07 A3009 RMK SLP194 T01260070 52006 IEM_DS3505
ZGGG,2002-01-24 13:00,ZGGG 241300Z AUTO 02008KT 4SM 12/06 A3009 RMK T01200060 IEM_DS3505
ZGGG,2002-01-24 14:00,ZGGG 241400Z AUTO 01006KT 3SM 11/07 A3009 RMK T01100070 IEM_DS3505
ZGGG,2002-01-24 15:00,ZGGG 241500Z AUTO 36004KT 8SM 12/08 A3009 RMK SLP192 T01160084 57002 IEM_DS3505
ZGGG,2002-01-24 16:00,ZGGG 241600Z AUTO 02004KT 4SM 11/07 A3009 RMK T01100070 IEM_DS3505
ZGGG,2002-01-24 17:00,ZGGG 241700Z AUTO 04004KT 4SM 11/07 A3009 RMK T01100070 IEM_DS3505
ZGGG,2002-01-24 18:00,ZGGG 241800Z AUTO 34004KT 2 1/2SM 11/09 A3006 RMK 60000 SLP186 T01110089 57006 IEM_DS3505
ZGGG,2002-01-24 19:00,ZGGG 241900Z AUTO 36006KT 3SM 11/08 A3006 RMK T01100080 IEM_DS3505
ZGGG,2002-01-24 20:00,ZGGG 242000Z AUTO 02006KT 4SM 11/08 A3003 RMK T01100080 IEM_DS3505
ZGGG,2002-01-24 21:00,ZGGG 242100Z AUTO 32002KT 4SM 11/09 A3003 RMK 70000 SLP168 T01090087 57018 IEM_DS3505
ZGGG,2002-01-24 22:00,ZGGG 242200Z AUTO 01006KT 4SM 11/08 A3003 RMK T01100080 IEM_DS3505
ZGGG,2002-01-24 23:00,ZGGG 242300Z AUTO 01006KT 3SM 11/08 A3003 RMK T01100080 IEM_DS3505
ZGGG,2002-01-25 00:00,ZGGG 250000Z AUTO 34002KT 4SM 11/09 A3006 RMK 70000 SLP177 T01100090 52009 IEM_DS3505
ZGGG,2002-01-25 01:00,ZGGG 250100Z AUTO 36006KT 3SM 11/08 A3006 RMK T01100080 IEM_DS3505
ZGGG,2002-01-25 02:00,ZGGG 250200Z AUTO 02006KT 3SM 11/08 A3006 RMK T01100080 IEM_DS3505
ZGGG,2002-01-25 03:00,ZGGG 250300Z AUTO 34004KT 7SM 12/09 A3009 RMK SLP186 T01210093 52009 IEM_DS3505
ZGGG,2002-01-25 04:00,ZGGG 250400Z AUTO 36006KT 2 1/2SM 11/08 A3006 RMK T01100080 IEM_DS3505
ZGGG,2002-01-25 05:00,ZGGG 250500Z AUTO 02008KT 1SM 11/09 A3003 RMK T01100090 IEM_DS3505
ZGGG,2002-01-25 06:00,ZGGG 250600Z AUTO 32004KT 1 1/4SM 11/10 A3000 RMK 60003 SLP160 T01070095 57026 IEM_DS3505
ZGGG,2002-01-25 07:00,ZGGG 250700Z AUTO 36010KT 2SM 10/09 A3000 RMK T01000090 IEM_DS3505
ZGGG,2002-01-25 08:00,ZGGG 250800Z AUTO 36008KT 3SM 10/09 A3000 RMK T01000090 IEM_DS3505
ZGGG,2002-01-25 09:00,ZGGG 250900Z AUTO 34006KT 1 1/2SM 10/09 A3000 RMK SLP161 T00990089 52001 IEM_DS3505
ZGGG,2002-01-25 10:00,ZGGG 251000Z AUTO 36006KT 1 1/2SM 10/09 A3003 RMK T01000090 IEM_DS3505
ZGGG,2002-01-25 11:00,ZGGG 251100Z AUTO 33006KT 4SM 10/09 A3003 RMK T01000090 IEM_DS3505
ZGGG,2002-01-25 12:00,ZGGG 251200Z AUTO 32006KT 9SM 10/10 A3003 RMK 60028 SLP174 T01010095 52013 IEM_DS3505
ZGGG,2002-01-25 13:00,ZGGG 251300Z AUTO 36004KT 7SM 11/09 A3006 RMK T01100090 IEM_DS3505
ZGGG,2002-01-25 14:00,ZGGG 251400Z AUTO 35006KT 3SM 10/09 A3009 RMK T01000090 IEM_DS3505
ZGGG,2002-01-25 15:00,ZGGG 251500Z AUTO 36006KT 9SM 10/09 A3009 RMK SLP191 T00980092 52017 IEM_DS3505
ZGGG,2002-01-25 16:00,ZGGG 251600Z AUTO 36006KT 7SM 10/08 A3009 RMK T01000080 IEM_DS3505
ZGGG,2002-01-25 17:00,ZGGG 251700Z AUTO 36006KT 7SM 10/07 A3009 RMK T01000070 IEM_DS3505
ZGGG,2002-01-25 18:00,ZGGG 251800Z AUTO 34002KT 12SM 10/08 A3009 RMK 60002 SLP190 T00970085 57001 IEM_DS3505
ZGGG,2002-01-25 19:00,ZGGG 251900Z AUTO 01010KT 7SM 10/07 A3006 RMK T01000070 IEM_DS3505
ZGGG,2002-01-25 20:00,ZGGG 252000Z AUTO 36010KT 7SM 09/06 A3006 RMK T00900060 IEM_DS3505
ZGGG,2002-01-25 21:00,ZGGG 252100Z AUTO 34006KT 11SM 09/08 A3009 RMK 70032 SLP186 T00910078 57004 IEM_DS3505
ZGGG,2002-01-25 22:00,ZGGG 252200Z AUTO 36008KT 7SM 09/06 A3009 RMK T00900060 IEM_DS3505
ZGGG,2002-01-25 23:00,ZGGG 252300Z AUTO 36008KT 7SM 09/06 A3012 RMK T00900060 IEM_DS3505
ZGGG,2002-01-26 00:00,ZGGG 260000Z AUTO 29002KT 11SM 09/08 A3012 RMK 60004 SLP204 T00940075 52018 IEM_DS3505
ZGGG,2002-01-26 01:00,ZGGG 260100Z AUTO 36010KT 7SM 09/06 A3015 RMK T00900060 IEM_DS3505
ZGGG,2002-01-26 02:00,ZGGG 260200Z AUTO 36006KT 2 1/2SM 08/07 A3021 RMK T00800070 IEM_DS3505
ZGGG,2002-01-26 03:00,ZGGG 260300Z AUTO 34006KT 6SM 09/08 A3021 RMK SLP228 T00870081 52023 IEM_DS3505
ZGGG,2002-01-26 04:00,ZGGG 260400Z AUTO 02010KT 4SM 09/07 A3015 RMK T00900070 IEM_DS3505
ZGGG,2002-01-26 05:00,ZGGG 260500Z AUTO 35006KT 7SM 10/07 A3015 RMK T01000070 IEM_DS3505
ZGGG,2002-01-26 06:00,ZGGG 260600Z AUTO 04004KT 12SM 11/08 A3012 RMK 60031 SLP192 T01060075 57035 IEM_DS3505
ZGGG,2002-01-26 07:00,ZGGG 260700Z AUTO 36008KT 7SM 12/07 A3009 RMK T01200070 IEM_DS3505
ZGGG,2002-01-26 08:00,ZGGG 260800Z AUTO 36008KT 7SM 12/06 A3009 RMK T01200060 IEM_DS3505
ZGGG,2002-01-26 09:00,ZGGG 260900Z AUTO 02006KT 14SM 12/07 A3009 RMK SLP189 T01250071 57003 IEM_DS3505
ZGGG,2002-01-26 10:00,ZGGG 261000Z AUTO 03010KT 6SM 12/06 A3009 RMK T01200060 IEM_DS3505
ZGGG,2002-01-26 11:00,ZGGG 261100Z AUTO 01010KT 6SM 12/05 A3012 RMK T01200050 IEM_DS3505
ZGGG,2002-01-26 12:00,ZGGG 261200Z AUTO 02004KT 11SM 11/07 A3015 RMK 60003 SLP213 T01090067 52024 IEM_DS3505
ZGGG,2002-01-26 13:00,ZGGG 261300Z AUTO 01008KT 7SM 11/06 A3015 RMK T01100060 IEM_DS3505
ZGGG,2002-01-26 14:00,ZGGG 261400Z AUTO 02008KT 7SM 10/06 A3015 RMK T01000060 IEM_DS3505
ZGGG,2002-01-26 15:00,ZGGG 261500Z AUTO 02006KT 12SM 10/06 A3015 RMK SLP212 T00970065 57001 IEM_DS3505
ZGGG,2002-01-26 16:00,ZGGG 261600Z AUTO 01006KT 7SM 10/06 A3015 RMK T01000060 IEM_DS3505
ZGGG,2002-01-26 17:00,ZGGG 261700Z AUTO 36006KT 4SM 09/07 A3018 RMK T00900070 IEM_DS3505
ZGGG,2002-01-26 18:00,ZGGG 261800Z AUTO 34004KT 8SM 08/07 A3018 RMK 60012 SLP219 T00850072 52007 IEM_DS3505
ZGGG,2002-01-26 19:00,ZGGG 261900Z AUTO 01010KT 3SM 08/07 A3018 RMK T00800070 IEM_DS3505
ZGGG,2002-01-26 20:00,ZGGG 262000Z AUTO 04010KT 3SM 08/07 A3018 RMK T00800070 IEM_DS3505
ZGGG,2002-01-26 21:00,ZGGG 262100Z AUTO 34004KT 9SM 07/06 A3018 RMK 70069 SLP220 T00740063 52001 IEM_DS3505
ZGGG,2002-01-26 22:00,ZGGG 262200Z AUTO 03006KT 7SM 08/07 A3018 RMK T00800070 IEM_DS3505
ZGGG,2002-01-26 23:00,ZGGG 262300Z AUTO 04008KT 7SM 08/06 A3021 RMK T00800060 IEM_DS3505
ZGGG,2002-01-27 00:00,ZGGG 270000Z AUTO 36004KT 11SM 08/06 A3021 RMK 60028 SLP232 T00770064 52011 IEM_DS3505
ZGGG,2002-01-27 02:00,ZGGG 270200Z AUTO 36006KT 4SM 08/06 A3027 RMK T00800060 IEM_DS3505
ZGGG,2002-01-27 03:00,ZGGG 270300Z AUTO 34004KT 7SM 08/07 A3027 RMK SLP248 T00820071 52016 IEM_DS3505
ZGGG,2002-01-27 04:00,ZGGG 270400Z AUTO 01008KT 5SM 08/06 A3024 RMK T00800060 IEM_DS3505
ZGGG,2002-01-27 05:00,ZGGG 270500Z AUTO 02010KT 7SM 09/06 A3021 RMK T00900060 IEM_DS3505
ZGGG,2002-01-27 06:00,ZGGG 270600Z AUTO 32002KT 9SM 09/07 A3018 RMK 60008 SLP222 T00890067 57026 IEM_DS3505
ZGGG,2002-01-27 07:00,ZGGG 270700Z AUTO 03010KT 7SM 09/06 A3015 RMK T00900060 IEM_DS3505
ZGGG,2002-01-27 08:00,ZGGG 270800Z AUTO 01006KT 5SM 09/06 A3018 RMK T00900060 IEM_DS3505
ZGGG,2002-01-27 09:00,ZGGG 270900Z AUTO 32002KT 6SM 09/07 A3018 RMK SLP225 T00860071 52003 IEM_DS3505
ZGGG,2002-01-27 10:00,ZGGG 271000Z AUTO 01008KT 3SM 08/06 A3021 RMK T00800060 IEM_DS3505
ZGGG,2002-01-27 11:00,ZGGG 271100Z AUTO 01008KT 2SM 08/07 A3021 RMK T00800070 IEM_DS3505
ZGGG,2002-01-27 12:00,ZGGG 271200Z AUTO 32002KT 3SM 08/07 A3024 RMK 60012 SLP240 T00790073 52015 IEM_DS3505
ZGGG,2002-01-27 13:00,ZGGG 271300Z AUTO 01008KT 4SM 08/07 A3024 RMK T00800070 IEM_DS3505
ZGGG,2002-01-27 14:00,ZGGG 271400Z AUTO 01006KT 3SM 08/07 A3027 RMK T00800070 IEM_DS3505
ZGGG,2002-01-27 15:00,ZGGG 271500Z AUTO 34004KT 3SM 08/07 A3027 RMK SLP247 T00790070 52007 IEM_DS3505
ZGGG,2002-01-27 16:00,ZGGG 271600Z AUTO 03008KT 7SM 08/07 A3024 RMK T00800070 IEM_DS3505
ZGGG,2002-01-27 17:00,ZGGG 271700Z AUTO 36006KT 2 1/2SM 08/07 A3027 RMK T00800070 IEM_DS3505
ZGGG,2002-01-27 18:00,ZGGG 271800Z AUTO 36004KT 4SM 08/07 A3024 RMK 60008 SLP239 T00770073 57008 IEM_DS3505
ZGGG,2002-01-27 19:00,ZGGG 271900Z AUTO 36006KT 4SM 08/07 A3024 RMK T00800070 IEM_DS3505
ZGGG,2002-01-27 20:00,ZGGG 272000Z AUTO 36006KT 5SM 08/07 A3024 RMK T00800070 IEM_DS3505
ZGGG,2002-01-27 21:00,ZGGG 272100Z AUTO 02006KT 8SM 08/06 A3021 RMK 70037 SLP237 T00760063 57002 IEM_DS3505
ZGGG,2002-01-27 22:00,ZGGG 272200Z AUTO 36006KT 3SM 08/07 A3024 RMK T00800070 IEM_DS3505
ZGGG,2002-01-27 23:00,ZGGG 272300Z AUTO 36006KT 7SM 08/07 A3027 RMK T00800070 IEM_DS3505
ZGGG,2002-01-28 00:00,ZGGG 280000Z AUTO 34006KT 9SM 08/07 A3027 RMK 60008 SLP258 T00790066 52021 IEM_DS3505
ZGGG,2002-01-28 01:00,ZGGG 280100Z AUTO 36004KT 3SM 08/07 A3030 RMK T00800070 IEM_DS3505
ZGGG,2002-01-28 02:00,ZGGG 280200Z AUTO 36006KT 4SM 08/07 A3033 RMK T00800070 IEM_DS3505
ZGGG,2002-01-28 03:00,ZGGG 280300Z AUTO 02004KT 7SM 08/07 RMK SLP272 T00840071 52014 IEM_DS3505
ZGGG,2002-01-28 04:00,ZGGG 280400Z AUTO 36006KT 7SM 09/07 A3033 RMK T00900070 IEM_DS3505
ZGGG,2002-01-28 05:00,ZGGG 280500Z AUTO 35006KT 7SM 09/07 A3030 RMK T00900070 IEM_DS3505
ZGGG,2002-01-28 06:00,ZGGG 280600Z AUTO 07002KT 9SM 09/08 A3027 RMK 60004 SLP251 T00930078 57021 IEM_DS3505
ZGGG,2002-01-28 07:00,ZGGG 280700Z AUTO 01008KT 7SM 11/07 A3027 RMK T01100070 IEM_DS3505
ZGGG,2002-01-28 08:00,ZGGG 280800Z AUTO 02008KT 7SM 11/06 A3027 RMK T01100060 IEM_DS3505
ZGGG,2002-01-28 09:00,ZGGG 280900Z AUTO 34006KT 11SM 11/08 A3027 RMK SLP253 T01090076 52002 IEM_DS3505
ZGGG,2002-01-28 10:00,ZGGG 281000Z AUTO 01006KT 6SM 12/07 A3027 RMK T01200070 IEM_DS3505
ZGGG,2002-01-28 11:00,ZGGG 281100Z AUTO 36004KT 6SM 12/07 A3030 RMK T01200070 IEM_DS3505
ZGGG,2002-01-28 12:00,ZGGG 281200Z AUTO 04002KT 10SM 11/07 A3030 RMK 60003 SLP263 T01090069 52010 IEM_DS3505
ZGGG,2002-01-28 13:00,ZGGG 281300Z AUTO 01008KT 6SM 12/07 A3030 RMK T01200070 IEM_DS3505
ZGGG,2002-01-28 14:00,ZGGG 281400Z AUTO 36004KT 6SM 11/06 A3033 RMK T01100060 IEM_DS3505
ZGGG,2002-01-28 15:00,ZGGG 281500Z AUTO 34006KT 10SM 11/06 A3036 RMK SLP276 T01080061 52013 IEM_DS3505
ZGGG,2002-01-28 16:00,ZGGG 281600Z AUTO 02008KT 6SM 11/04 A3036 RMK T01100040 IEM_DS3505
ZGGG,2002-01-28 17:00,ZGGG 281700Z AUTO 01004KT 6SM 11/05 A3036 RMK T01100050 IEM_DS3505
ZGGG,2002-01-28 18:00,ZGGG 281800Z AUTO 36006KT 8SM 10/05 A3036 RMK SLP276 T01040053 54000 IEM_DS3505
ZGGG,2002-01-28 19:00,ZGGG 281900Z AUTO 01006KT 6SM 11/04 A3033 RMK T01100040 IEM_DS3505
ZGGG,2002-01-28 20:00,ZGGG 282000Z AUTO 36006KT 6SM 11/04 A3033 RMK T01100040 IEM_DS3505
ZGGG,2002-01-28 21:00,ZGGG 282100Z AUTO 02004KT 7SM 10/04 A3030 RMK 70008 SLP265 T01010045 57011 IEM_DS3505
ZGGG,2002-01-28 22:00,ZGGG 282200Z AUTO 01006KT 6SM 11/03 A3033 RMK T01100030 IEM_DS3505
ZGGG,2002-01-28 23:00,ZGGG 282300Z AUTO 01002KT 6SM 10/03 A3033 RMK T01000030 IEM_DS3505
ZGGG,2002-01-29 00:00,ZGGG 290000Z AUTO 02004KT 9SM 10/05 A3036 RMK 70004 SLP279 T00990050 52014 IEM_DS3505
ZGGG,2002-01-29 01:00,ZGGG 290100Z AUTO 36006KT 5SM 11/02 A3039 RMK T01100020 IEM_DS3505
ZGGG,2002-01-29 02:00,ZGGG 290200Z AUTO 02008KT 6SM 12/02 A3039 RMK T01200020 IEM_DS3505
ZGGG,2002-01-29 03:00,ZGGG 290300Z AUTO 04004KT 10SM 12/03 A3039 RMK SLP288 T01230029 52010 IEM_DS3505
ZGGG,2002-01-29 04:00,ZGGG 290400Z AUTO 03008KT 6SM 14/02 A3036 RMK T01400020 IEM_DS3505
ZGGG,2002-01-29 05:00,ZGGG 290500Z AUTO 01006KT 6SM 15/02 A3033 RMK T01500020 IEM_DS3505
ZGGG,2002-01-29 06:00,ZGGG 290600Z AUTO 02004KT 11SM 16/05 A3030 RMK SLP256 T01600047 57032 IEM_DS3505
ZGGG,2002-01-29 07:00,ZGGG 290700Z AUTO 36006KT 6SM 16/03 A3027 RMK T01600030 IEM_DS3505
ZGGG,2002-01-29 08:00,ZGGG 290800Z AUTO 02008KT 6SM 16/01 A3027 RMK T01600010 IEM_DS3505
ZGGG,2002-01-29 09:00,ZGGG 290900Z AUTO 02004KT 9SM 16/04 A3027 RMK SLP250 T01550043 57006 IEM_DS3505
ZGGG,2002-01-29 10:00,ZGGG 291000Z AUTO 02006KT 6SM 14/02 A3027 RMK T01400020 IEM_DS3505
ZGGG,2002-01-29 11:00,ZGGG 291100Z AUTO 02004KT 5SM 14/04 A3027 RMK T01400040 IEM_DS3505
ZGGG,2002-01-29 12:00,ZGGG 291200Z AUTO 02002KT 9SM 13/06 A3030 RMK SLP260 T01330061 52010 IEM_DS3505
ZGGG,2002-01-29 13:00,ZGGG 291300Z AUTO 03006KT 14/04 A3030 RMK T01400040 IEM_DS3505
ZGGG,2002-01-29 14:00,ZGGG 291400Z AUTO 01004KT 14/04 A3033 RMK T01400040 IEM_DS3505
ZGGG,2002-01-29 15:00,ZGGG 291500Z AUTO 36002KT 11SM 13/06 A3033 RMK SLP268 T01310059 52008 IEM_DS3505
ZGGG,2002-01-29 16:00,ZGGG 291600Z AUTO 04006KT 13/06 A3033 RMK T01300060 IEM_DS3505
ZGGG,2002-01-29 17:00,ZGGG 291700Z AUTO 03004KT 12/06 A3033 RMK T01200060 IEM_DS3505
ZGGG,2002-01-29 18:00,ZGGG 291800Z AUTO 09002KT 9SM 13/06 A3033 RMK SLP267 T01310056 57001 IEM_DS3505
ZGGG,2002-01-29 19:00,ZGGG 291900Z AUTO 02002KT 5SM 13/06 A3030 RMK T01300060 IEM_DS3505
ZGGG,2002-01-29 20:00,ZGGG 292000Z AUTO 02006KT 5SM 13/05 A3030 RMK T01300050 IEM_DS3505
ZGGG,2002-01-29 21:00,ZGGG 292100Z AUTO 09002KT 9SM 12/07 A3030 RMK SLP257 T01170071 57010 IEM_DS3505
ZGGG,2002-01-29 22:00,ZGGG 292200Z AUTO 04002KT 5SM 12/05 A3030 RMK T01200050 IEM_DS3505
ZGGG,2002-01-29 23:00,ZGGG 292300Z AUTO 05004KT 6SM 12/06 A3033 RMK T01200060 IEM_DS3505
ZGGG,2002-01-30 00:00,ZGGG 300000Z AUTO 00000KT 9SM 12/06 A3033 RMK SLP272 T01220065 52015 IEM_DS3505
ZGGG,2002-01-30 01:00,ZGGG 300100Z AUTO 02006KT 5SM 13/04 A3036 RMK T01300040 IEM_DS3505
ZGGG,2002-01-30 02:00,ZGGG 300200Z AUTO 02006KT 5SM 13/03 A3036 RMK T01300030 IEM_DS3505
ZGGG,2002-01-30 03:00,ZGGG 300300Z AUTO 36004KT 10SM 15/06 A3033 RMK SLP276 T01490056 52004 IEM_DS3505
ZGGG,2002-01-30 04:00,ZGGG 300400Z AUTO 36006KT 16/04 A3033 RMK T01600040 IEM_DS3505
ZGGG,2002-01-30 05:00,ZGGG 300500Z AUTO 01004KT 16/04 A3030 RMK T01600040 IEM_DS3505
ZGGG,2002-01-30 06:00,ZGGG 300600Z AUTO 34004KT 11SM 17/05 A3027 RMK SLP251 T01730052 57025 IEM_DS3505
ZGGG,2002-01-30 07:00,ZGGG 300700Z AUTO 36006KT 5SM 17/03 A3024 RMK T01700030 IEM_DS3505
ZGGG,2002-01-30 08:00,ZGGG 300800Z AUTO 03006KT 17/03 A3024 RMK T01700030 IEM_DS3505
ZGGG,2002-01-30 09:00,ZGGG 300900Z AUTO 36006KT 8SM 17/06 A3024 RMK SLP239 T01720059 57012 IEM_DS3505
ZGGG,2002-01-30 10:00,ZGGG 301000Z AUTO 35002KT 17/02 A3024 RMK T01700020 IEM_DS3505
ZGGG,2002-01-30 11:00,ZGGG 301100Z AUTO 32002KT 16/04 A3024 RMK T01600040 IEM_DS3505
ZGGG,2002-01-30 12:00,ZGGG 301200Z AUTO 36002KT 8SM 13/07 A3027 RMK SLP250 T01290071 52011 IEM_DS3505
ZGGG,2002-01-30 13:00,ZGGG 301300Z AUTO 03006KT 3SM 14/05 A3027 RMK T01400050 IEM_DS3505
ZGGG,2002-01-30 14:00,ZGGG 301400Z AUTO 05004KT 13/06 A3027 RMK T01300060 IEM_DS3505
ZGGG,2002-01-30 15:00,ZGGG 301500Z AUTO 00000KT 8SM 12/06 A3027 RMK SLP251 T01160063 52001 IEM_DS3505
ZGGG,2002-01-30 16:00,ZGGG 301600Z AUTO 04006KT 2 1/2SM 13/06 A3027 RMK T01300060 IEM_DS3505
ZGGG,2002-01-30 17:00,ZGGG 301700Z AUTO 04008KT 2 1/2SM 13/07 A3027 RMK T01300070 IEM_DS3505
ZGGG,2002-01-30 18:00,ZGGG 301800Z AUTO 36002KT 7SM 13/07 A3027 RMK SLP251 T01290066 54000 IEM_DS3505
ZGGG,2002-01-30 19:00,ZGGG 301900Z AUTO 03006KT 14/05 A3027 RMK T01400050 IEM_DS3505
ZGGG,2002-01-30 20:00,ZGGG 302000Z AUTO 04006KT 13/06 A3027 RMK T01300060 IEM_DS3505
ZGGG,2002-01-30 21:00,ZGGG 302100Z AUTO 00000KT 7SM 12/08 A3027 RMK SLP249 T01250078 57002 IEM_DS3505
ZGGG,2002-01-30 22:00,ZGGG 302200Z AUTO 04004KT 13/06 A3027 RMK T01300060 IEM_DS3505
ZGGG,2002-01-30 23:00,ZGGG 302300Z AUTO 04004KT 12/06 A3027 RMK T01200060 IEM_DS3505
ZGGG,2002-01-31 00:00,ZGGG 310000Z AUTO 00000KT 7SM 12/07 A3030 RMK SLP258 T01180074 52009 IEM_DS3505
ZGGG,2002-01-31 01:00,ZGGG 310100Z AUTO 08004KT 3SM 15/06 A3030 RMK T01500060 IEM_DS3505
ZGGG,2002-01-31 02:00,ZGGG 310200Z AUTO 13006KT 3SM 16/06 A3030 RMK T01600060 IEM_DS3505
ZGGG,2002-01-31 03:00,ZGGG 310300Z AUTO 14006KT 6SM 18/06 A3030 RMK SLP263 T01760065 52005 IEM_DS3505
ZGGG,2002-01-31 04:00,ZGGG 310400Z AUTO 15006KT 3SM 18/06 A3027 RMK T01800060 IEM_DS3505
ZGGG,2002-01-31 05:00,ZGGG 310500Z AUTO 16006KT 2 1/2SM 19/07 A3024 RMK T01900070 IEM_DS3505
ZGGG,2002-01-31 06:00,ZGGG 310600Z AUTO 18004KT 5SM 20/09 A3021 RMK SLP228 T02020086 57034 IEM_DS3505
ZGGG,2002-01-31 07:00,ZGGG 310700Z AUTO 19006KT 2 1/2SM 19/08 A3018 RMK T01900080 IEM_DS3505
ZGGG,2002-01-31 08:00,ZGGG 310800Z AUTO 16004KT 2 1/2SM 19/08 A3018 RMK T01900080 IEM_DS3505
ZGGG,2002-01-31 09:00,ZGGG 310900Z AUTO 16004KT 4SM 19/09 A3018 RMK SLP218 T01900094 57010 IEM_DS3505
ZGGG,2002-01-31 10:00,ZGGG 311000Z AUTO 14002KT 2 1/2SM 19/09 A3018 RMK T01900090 IEM_DS3505
ZGGG,2002-01-31 11:00,ZGGG 311100Z AUTO 13002KT 2 1/2SM 18/09 A3018 RMK T01800090 IEM_DS3505
ZGGG,2002-01-31 12:00,ZGGG 311200Z AUTO 02006KT 2 1/2SM 18/08 A3021 RMK T01800080 IEM_DS3505
ZGGG,2002-01-31 13:00,ZGGG 311300Z AUTO 01006KT 17/07 A3024 RMK T01700070 IEM_DS3505
ZGGG,2002-01-31 14:00,ZGGG 311400Z AUTO 01006KT 16/05 A3024 RMK T01600050 IEM_DS3505
ZGGG,2002-01-31 15:00,ZGGG 311500Z AUTO 36004KT 6SM 15/07 A3024 RMK SLP239 T01520073 52008 IEM_DS3505
ZGGG,2002-01-31 16:00,ZGGG 311600Z AUTO 01006KT 14/04 A3024 RMK T01400040 IEM_DS3505
ZGGG,2002-01-31 17:00,ZGGG 311700Z AUTO 36006KT 14/04 A3024 RMK T01400040 IEM_DS3505
ZGGG,2002-01-31 18:00,ZGGG 311800Z AUTO 34006KT 7SM 14/05 A3024 RMK SLP236 T01390048 57003 IEM_DS3505
ZGGG,2002-01-31 19:00,ZGGG 311900Z AUTO 36008KT 13/04 A3024 RMK T01300040 IEM_DS3505
ZGGG,2002-01-31 20:00,ZGGG 312000Z AUTO 36006KT 13/05 A3021 RMK T01300050 IEM_DS3505
ZGGG,2002-01-31 21:00,ZGGG 312100Z AUTO 02004KT 7SM 13/05 A3021 RMK SLP231 T01280050 57005 IEM_DS3505
ZGGG,2002-01-31 22:00,ZGGG 312200Z AUTO 04010KT 13/04 A3021 RMK T01300040 IEM_DS3505
ZGGG,2002-01-31 23:00,ZGGG 312300Z AUTO 03010KT 12/04 A3027 RMK T01200040 IEM_DS3505
ZGGG,2002-02-01 00:00,ZGGG 010000Z AUTO 36004KT 7SM 12/06 A3027 RMK SLP250 T01180055 52018 IEM_DS3505
ZGGG,2002-02-01 01:00,ZGGG 010100Z AUTO 01010KT 3SM 12/05 A3030 RMK T01200050 IEM_DS3505
ZGGG,2002-02-01 02:00,ZGGG 010200Z AUTO 01010KT 3SM 12/06 A3033 RMK T01200060 IEM_DS3505
ZGGG,2002-02-01 03:00,ZGGG 010300Z AUTO 32006KT 6SM 12/06 A3033 RMK SLP267 T01170057 52017 IEM_DS3505
ZGGG,2002-02-01 04:00,ZGGG 010400Z AUTO 01012KT 3SM 11/06 A3033 RMK T01100060 IEM_DS3505
ZGGG,2002-02-01 05:00,ZGGG 010500Z AUTO 36010KT 5SM 11/06 A3030 RMK T01100060 IEM_DS3505
ZGGG,2002-02-01 06:00,ZGGG 010600Z AUTO 36006KT 9SM 10/06 A3027 RMK 60003 SLP250 T01020061 57017 IEM_DS3505
ZGGG,2002-02-01 07:00,ZGGG 010700Z AUTO 01012KT 5SM 09/07 A3027 RMK T00900070 IEM_DS3505
ZGGG,2002-02-01 08:00,ZGGG 010800Z AUTO 02008KT 4SM 09/07 A3024 RMK T00900070 IEM_DS3505
ZGGG,2002-02-01 09:00,ZGGG 010900Z AUTO 34004KT 11SM 09/07 A3024 RMK SLP245 T00910070 57005 IEM_DS3505
ZGGG,2002-02-01 10:00,ZGGG 011000Z AUTO 01008KT 4SM 09/07 A3027 RMK T00900070 IEM_DS3505
ZGGG,2002-02-01 11:00,ZGGG 011100Z AUTO 36008KT 7SM 09/07 A3027 RMK T00900070 IEM_DS3505
ZGGG,2002-02-01 12:00,ZGGG 011200Z AUTO 11006KT 11SM 09/06 A3030 RMK 60002 SLP256 T00910065 52011 IEM_DS3505
ZGGG,2002-02-01 13:00,ZGGG 011300Z AUTO 36010KT 5SM 09/06 A3030 RMK T00900060 IEM_DS3505
ZGGG,2002-02-01 14:00,ZGGG 011400Z AUTO 36008KT 5SM 09/06 A3030 RMK T00900060 IEM_DS3505
ZGGG,2002-02-01 15:00,ZGGG 011500Z AUTO 36004KT 9SM 08/06 A3030 RMK SLP265 T00840064 52008 IEM_DS3505
ZGGG,2002-02-01 16:00,ZGGG 011600Z AUTO 01008KT 5SM 08/06 A3030 RMK T00800060 IEM_DS3505
ZGGG,2002-02-01 17:00,ZGGG 011700Z AUTO 36008KT 5SM 09/06 A3030 RMK T00900060 IEM_DS3505
ZGGG,2002-02-01 18:00,ZGGG 011800Z AUTO 34004KT 9SM 08/06 A3030 RMK 60008 SLP264 T00820062 57001 IEM_DS3505
ZGGG,2002-02-01 19:00,ZGGG 011900Z AUTO 01006KT 5SM 08/06 A3030 RMK T00800060 IEM_DS3505
ZGGG,2002-02-01 20:00,ZGGG 012000Z AUTO 36006KT 5SM 08/04 A3030 RMK T00800040 IEM_DS3505
ZGGG,2002-02-01 21:00,ZGGG 012100Z AUTO 36004KT 10SM 08/05 A3027 RMK 70015 SLP256 T00770047 57008 IEM_DS3505
ZGGG,2002-02-01 22:00,ZGGG 012200Z AUTO 36008KT 7SM 09/04 A3027 RMK T00900040 IEM_DS3505
ZGGG,2002-02-01 23:00,ZGGG 012300Z AUTO 36004KT 7SM 09/04 A3030 RMK T00900040 IEM_DS3505
ZGGG,2002-02-02 00:00,ZGGG 020000Z AUTO 34004KT 11SM 08/04 A3030 RMK 60004 SLP266 T00760039 52010 IEM_DS3505
ZGGG,2002-02-02 01:00,ZGGG 020100Z AUTO 01004KT 5SM 09/02 A3033 RMK T00900020 IEM_DS3505
ZGGG,2002-02-02 02:00,ZGGG 020200Z AUTO 36008KT 6SM 10/01 A3033 RMK T01000010 IEM_DS3505
ZGGG,2002-02-02 03:00,ZGGG 020300Z AUTO 34006KT 11SM 13/03 A3033 RMK SLP270 T01280028 52004 IEM_DS3505
ZGGG,2002-02-02 04:00,ZGGG 020400Z AUTO 04008KT 6SM 13/01 A3030 RMK T01300010 IEM_DS3505
ZGGG,2002-02-02 05:00,ZGGG 020500Z AUTO 03008KT 6SM 14/00 A3027 RMK T01400000 IEM_DS3505
ZGGG,2002-02-02 06:00,ZGGG 020600Z AUTO 34004KT 12SM 16/02 A3024 RMK SLP237 T01610025 57032 IEM_DS3505
ZGGG,2002-02-02 07:00,ZGGG 020700Z AUTO 36006KT 6SM 16/00 A3021 RMK T01600000 IEM_DS3505
ZGGG,2002-02-02 08:00,ZGGG 020800Z AUTO 36006KT 6SM 16/00 A3018 RMK T01600000 IEM_DS3505
ZGGG,2002-02-02 09:00,ZGGG 020900Z AUTO 36004KT 12SM 16/03 A3018 RMK SLP223 T01640033 57014 IEM_DS3505
ZGGG,2002-02-02 10:00,ZGGG 021000Z AUTO 02006KT 6SM 16/01 A3018 RMK T01600010 IEM_DS3505
ZGGG,2002-02-02 11:00,ZGGG 021100Z AUTO 07004KT 6SM 14/03 A3018 RMK T01400030 IEM_DS3505
ZGGG,2002-02-02 12:00,ZGGG 021200Z AUTO 00000KT 9SM 12/06 A3021 RMK SLP234 T01200060 52011 IEM_DS3505
ZGGG,2002-02-02 13:00,ZGGG 021300Z AUTO 6SM 13/04 A3024 RMK T01300040 IEM_DS3505
ZGGG,2002-02-02 14:00,ZGGG 021400Z AUTO 6SM 12/04 A3024 RMK T01200040 IEM_DS3505
ZGGG,2002-02-02 15:00,ZGGG 021500Z AUTO 04002KT 11SM 11/08 A3024 RMK SLP239 T01110076 52005 IEM_DS3505
ZGGG,2002-02-02 16:00,ZGGG 021600Z AUTO 5SM 11/06 A3021 RMK T01100060 IEM_DS3505
ZGGG,2002-02-02 17:00,ZGGG 021700Z AUTO 07002KT 13/05 A3024 RMK T01300050 IEM_DS3505
ZGGG,2002-02-02 18:00,ZGGG 021800Z AUTO 00000KT 9SM 12/07 A3021 RMK SLP233 T01180072 57006 IEM_DS3505
ZGGG,2002-02-02 19:00,ZGGG 021900Z AUTO 04004KT 4SM 12/07 A3021 RMK T01200070 IEM_DS3505
ZGGG,2002-02-02 20:00,ZGGG 022000Z AUTO 05004KT 5SM 11/06 A3018 RMK T01100060 IEM_DS3505
ZGGG,2002-02-02 21:00,ZGGG 022100Z AUTO 00000KT 9SM 12/04 A3018 RMK SLP226 T01150044 57007 IEM_DS3505
ZGGG,2002-02-02 22:00,ZGGG 022200Z AUTO 04004KT 6SM 12/03 A3021 RMK T01200030 IEM_DS3505
ZGGG,2002-02-02 23:00,ZGGG 022300Z AUTO 7SM 12/03 A3021 RMK T01200030 IEM_DS3505
ZGGG,2002-02-03 00:00,ZGGG 030000Z AUTO 36002KT 8SM 11/06 A3024 RMK 60003 SLP240 T01130059 52014 IEM_DS3505
ZGGG,2002-02-03 01:00,ZGGG 030100Z AUTO 05004KT 4SM 11/06 A3024 RMK T01100060 IEM_DS3505
ZGGG,2002-02-03 02:00,ZGGG 030200Z AUTO 04004KT 4SM 12/05 A3024 RMK T01200050 IEM_DS3505
ZGGG,2002-02-03 03:00,ZGGG 030300Z AUTO 09006KT 10SM 13/06 A3024 RMK SLP239 T01340055 57001 IEM_DS3505
ZGGG,2002-02-03 04:00,ZGGG 030400Z AUTO 04004KT 13/06 A3021 RMK T01300060 IEM_DS3505
ZGGG,2002-02-03 05:00,ZGGG 030500Z AUTO 36006KT 4SM 13/06 A3018 RMK T01300060 IEM_DS3505
ZGGG,2002-02-03 06:00,ZGGG 030600Z AUTO 07004KT 9SM 14/07 A3015 RMK 60000 SLP213 T01410074 57026 IEM_DS3505
ZGGG,2002-02-03 07:00,ZGGG 030700Z AUTO 01004KT 3SM 13/08 A3015 RMK T01300080 IEM_DS3505
ZGGG,2002-02-03 08:00,ZGGG 030800Z AUTO 03006KT 3SM 14/07 A3012 RMK T01400070 IEM_DS3505
ZGGG,2002-02-03 09:00,ZGGG 030900Z AUTO 34004KT 9SM 14/08 A3012 RMK SLP203 T01450079 57010 IEM_DS3505
ZGGG,2002-02-03 10:00,ZGGG 031000Z AUTO 02004KT 3SM 13/08 A3012 RMK T01300080 IEM_DS3505
ZGGG,2002-02-03 11:00,ZGGG 031100Z AUTO 03006KT 4SM 13/08 A3012 RMK T01300080 IEM_DS3505
ZGGG,2002-02-03 12:00,ZGGG 031200Z AUTO 09002KT 10SM 14/09 A3015 RMK 60003 SLP206 T01360086 52003 IEM_DS3505
ZGGG,2002-02-03 13:00,ZGGG 031300Z AUTO 3SM 13/08 A3015 RMK T01300080 IEM_DS3505
ZGGG,2002-02-03 14:00,ZGGG 031400Z AUTO 3SM 13/08 A3015 RMK T01300080 IEM_DS3505
ZGGG,2002-02-03 15:00,ZGGG 031500Z AUTO 09004KT 10SM 14/09 A3015 RMK SLP213 T01370087 52007 IEM_DS3505
ZGGG,2002-02-03 16:00,ZGGG 031600Z AUTO 14/08 A3015 RMK T01400080 IEM_DS3505
ZGGG,2002-02-03 17:00,ZGGG 031700Z AUTO 5SM 14/08 A3015 RMK T01400080 IEM_DS3505
ZGGG,2002-02-03 18:00,ZGGG 031800Z AUTO 09002KT 9SM 13/09 A3015 RMK SLP207 T01330094 57006 IEM_DS3505
ZGGG,2002-02-03 19:00,ZGGG 031900Z AUTO 04004KT 4SM 13/09 A3012 RMK T01300090 IEM_DS3505
ZGGG,2002-02-03 20:00,ZGGG 032000Z AUTO 04006KT 4SM 13/08 A3012 RMK T01300080 IEM_DS3505
ZGGG,2002-02-03 21:00,ZGGG 032100Z AUTO 07002KT 9SM 13/10 A3012 RMK 70000 SLP202 T01310096 57005 IEM_DS3505
ZGGG,2002-02-03 22:00,ZGGG 032200Z AUTO 03006KT 4SM 12/07 A3012 RMK T01200070 IEM_DS3505
ZGGG,2002-02-03 23:00,ZGGG 032300Z AUTO 36004KT 2 1/2SM 13/08 A3015 RMK T01300080 IEM_DS3505
ZGGG,2002-02-04 00:00,ZGGG 040000Z AUTO 36002KT 7SM 13/09 A3015 RMK 70000 SLP215 T01310089 52013 IEM_DS3505
ZGGG,2002-02-04 01:00,ZGGG 040100Z AUTO 04008KT 3SM 13/08 A3015 RMK T01300080 IEM_DS3505
ZGGG,2002-02-04 02:00,ZGGG 040200Z AUTO 3SM 13/07 A3018 RMK T01300070 IEM_DS3505
ZGGG,2002-02-04 03:00,ZGGG 040300Z AUTO 34002KT 6SM 15/09 A3018 RMK SLP217 T01480087 52002 IEM_DS3505
ZGGG,2002-02-04 04:00,ZGGG 040400Z AUTO 01004KT 2 1/2SM 13/08 A3015 RMK T01300080 IEM_DS3505
ZGGG,2002-02-04 05:00,ZGGG 040500Z AUTO 01006KT 2 1/2SM 14/08 A3012 RMK T01400080 IEM_DS3505
ZGGG,2002-02-04 06:00,ZGGG 040600Z AUTO 34004KT 6SM 15/10 A3009 RMK 60003 SLP187 T01500096 57029 IEM_DS3505
ZGGG,2002-02-04 07:00,ZGGG 040700Z AUTO 01004KT 2 1/2SM 14/09 A3006 RMK T01400090 IEM_DS3505
ZGGG,2002-02-04 08:00,ZGGG 040800Z AUTO 01006KT 2 1/2SM 14/09 A3006 RMK T01400090 IEM_DS3505
ZGGG,2002-02-04 09:00,ZGGG 040900Z AUTO 34004KT 3SM 14/10 A3006 RMK SLP185 T01430101 57003 IEM_DS3505
ZGGG,2002-02-04 10:00,ZGGG 041000Z AUTO 36006KT 2 1/2SM 14/08 A3009 RMK T01400080 IEM_DS3505
ZGGG,2002-02-04 11:00,ZGGG 041100Z AUTO 01006KT 2 1/2SM 14/09 A3009 RMK T01400090 IEM_DS3505
ZGGG,2002-02-04 12:00,ZGGG 041200Z AUTO 34006KT 4SM 13/10 A3012 RMK SLP197 T01300099 52012 IEM_DS3505
ZGGG,2002-02-04 13:00,ZGGG 041300Z AUTO 36008KT 4SM 13/09 A3012 RMK T01300090 IEM_DS3505
ZGGG,2002-02-04 14:00,ZGGG 041400Z AUTO 01008KT 7SM 13/09 A3015 RMK T01300090 IEM_DS3505
ZGGG,2002-02-04 15:00,ZGGG 041500Z AUTO 32004KT 7SM 12/10 A3015 RMK SLP209 T01250100 52012 IEM_DS3505
ZGGG,2002-02-04 16:00,ZGGG 041600Z AUTO 01006KT 3SM 12/10 A3015 RMK T01200100 IEM_DS3505
ZGGG,2002-02-04 17:00,ZGGG 041700Z AUTO 01006KT 7SM 12/10 A3012 RMK T01200100 IEM_DS3505
ZGGG,2002-02-04 18:00,ZGGG 041800Z AUTO 34006KT 7SM 12/10 A3012 RMK 60003 SLP200 T01250104 57009 IEM_DS3505
ZGGG,2002-02-04 19:00,ZGGG 041900Z AUTO 36006KT 7SM 12/09 A3012 RMK T01200090 IEM_DS3505
ZGGG,2002-02-04 20:00,ZGGG 042000Z AUTO 36010KT 7SM 12/09 A3012 RMK T01200090 IEM_DS3505
ZGGG,2002-02-04 21:00,ZGGG 042100Z AUTO 00000KT 6SM 12/10 A3009 RMK 70003 SLP195 T01210102 57005 IEM_DS3505
ZGGG,2002-02-04 22:00,ZGGG 042200Z AUTO 36006KT 7SM 12/09 A3012 RMK T01200090 IEM_DS3505
ZGGG,2002-02-04 23:00,ZGGG 042300Z AUTO 36006KT 4SM 12/09 A3015 RMK T01200090 IEM_DS3505
ZGGG,2002-02-05 00:00,ZGGG 050000Z AUTO 34002KT 5SM 11/10 A3015 RMK 60004 SLP212 T01130103 52017 IEM_DS3505
ZGGG,2002-02-05 01:00,ZGGG 050100Z AUTO 36006KT 4SM 11/09 A3018 RMK T01100090 IEM_DS3505
ZGGG,2002-02-05 02:00,ZGGG 050200Z AUTO 36008KT 7SM 12/08 A3021 RMK T01200080 IEM_DS3505
ZGGG,2002-02-05 03:00,ZGGG 050300Z AUTO 02004KT 7SM 13/10 A3018 RMK SLP225 T01290104 52013 IEM_DS3505
ZGGG,2002-02-05 04:00,ZGGG 050400Z AUTO 36006KT 7SM 13/09 A3018 RMK T01300090 IEM_DS3505
ZGGG,2002-02-05 05:00,ZGGG 050500Z AUTO 02008KT 7SM 14/09 A3015 RMK T01400090 IEM_DS3505
ZGGG,2002-02-05 06:00,ZGGG 050600Z AUTO 34006KT 12SM 15/10 A3012 RMK 60000 SLP201 T01520096 57024 IEM_DS3505
ZGGG,2002-02-05 07:00,ZGGG 050700Z AUTO 36010KT 7SM 16/09 A3009 RMK T01600090 IEM_DS3505
ZGGG,2002-02-05 08:00,ZGGG 050800Z AUTO 02008KT 7SM 17/10 A3006 RMK T01700100 IEM_DS3505
ZGGG,2002-02-05 09:00,ZGGG 050900Z AUTO 34004KT 14SM 17/10 A3009 RMK SLP187 T01660095 57013 IEM_DS3505
ZGGG,2002-02-05 10:00,ZGGG 051000Z AUTO 03008KT 6SM 16/08 A3009 RMK T01600080 IEM_DS3505
ZGGG,2002-02-05 11:00,ZGGG 051100Z AUTO 02006KT 6SM 15/08 A3009 RMK T01500080 IEM_DS3505
ZGGG,2002-02-05 12:00,ZGGG 051200Z AUTO 04004KT 11SM 14/09 A3012 RMK SLP202 T01350092 52014 IEM_DS3505
ZGGG,2002-02-05 13:00,ZGGG 051300Z AUTO 03008KT 6SM 13/08 A3012 RMK T01300080 IEM_DS3505
ZGGG,2002-02-05 14:00,ZGGG 051400Z AUTO 03008KT 6SM 13/08 A3015 RMK T01300080 IEM_DS3505
ZGGG,2002-02-05 15:00,ZGGG 051500Z AUTO 00000KT 10SM 12/09 A3015 RMK SLP207 T01220088 52005 IEM_DS3505
ZGGG,2002-02-05 16:00,ZGGG 051600Z AUTO 02006KT 6SM 12/07 A3012 RMK T01200070 IEM_DS3505
ZGGG,2002-02-05 17:00,ZGGG 051700Z AUTO 01006KT 6SM 12/07 A3012 RMK T01200070 IEM_DS3505
ZGGG,2002-02-05 18:00,ZGGG 051800Z AUTO 34002KT 9SM 12/08 A3009 RMK SLP195 T01150085 57012 IEM_DS3505
ZGGG,2002-02-05 19:00,ZGGG 051900Z AUTO 01006KT 7SM 12/07 A3009 RMK T01200070 IEM_DS3505
ZGGG,2002-02-05 20:00,ZGGG 052000Z AUTO 01006KT 7SM 12/07 A3009 RMK T01200070 IEM_DS3505
ZGGG,2002-02-05 21:00,ZGGG 052100Z AUTO 00000KT 9SM 12/08 A3009 RMK 70006 SLP186 T01170085 57008 IEM_DS3505
ZGGG,2002-02-05 22:00,ZGGG 052200Z AUTO 00000KT 7SM 12/07 A3009 RMK T01200070 IEM_DS3505
ZGGG,2002-02-05 23:00,ZGGG 052300Z AUTO 05004KT 7SM 12/07 A3009 RMK T01200070 IEM_DS3505
ZGGG,2002-02-06 00:00,ZGGG 060000Z AUTO 00000KT 10SM 12/09 A3012 RMK 70000 SLP200 T01230089 52013 IEM_DS3505
ZGGG,2002-02-06 01:00,ZGGG 060100Z AUTO 06006KT 5SM 12/07 A3012 RMK T01200070 IEM_DS3505
ZGGG,2002-02-06 02:00,ZGGG 060200Z AUTO 04006KT 4SM 12/07 A3015 RMK T01200070 IEM_DS3505
ZGGG,2002-02-06 03:00,ZGGG 060300Z AUTO 14004KT 9SM 14/09 A3015 RMK SLP205 T01360091 52005 IEM_DS3505
ZGGG,2002-02-06 04:00,ZGGG 060400Z AUTO 02006KT 4SM 13/08 A3012 RMK T01300080 IEM_DS3505
ZGGG,2002-02-06 05:00,ZGGG 060500Z AUTO 36004KT 3SM 13/09 A3009 RMK T01300090 IEM_DS3505
ZGGG,2002-02-06 06:00,ZGGG 060600Z AUTO 00000KT 7SM 14/10 A3006 RMK 60003 SLP179 T01350100 57026 IEM_DS3505
ZGGG,2002-02-06 07:00,ZGGG 060700Z AUTO 04006KT 3SM 13/09 A3003 RMK T01300090 IEM_DS3505
ZGGG,2002-02-06 08:00,ZGGG 060800Z AUTO 03006KT 2 1/2SM 12/09 A3000 RMK T01200090 IEM_DS3505
ZGGG,2002-02-06 09:00,ZGGG 060900Z AUTO 00000KT 6SM 13/10 A3000 RMK SLP164 T01340105 57015 IEM_DS3505
ZGGG,2002-02-06 10:00,ZGGG 061000Z AUTO 36006KT 1 1/4SM 12/10 A3003 RMK T01200100 IEM_DS3505
ZGGG,2002-02-06 11:00,ZGGG 061100Z AUTO 05006KT 2SM 12/11 A3003 RMK T01200110 IEM_DS3505
ZGGG,2002-02-06 12:00,ZGGG 061200Z AUTO 00000KT 6SM 13/11 A3003 RMK 60003 SLP171 T01280109 52007 IEM_DS3505
ZGGG,2002-02-06 13:00,ZGGG 061300Z AUTO 02004KT 2 1/2SM 12/10 A3006 RMK T01200100 IEM_DS3505
ZGGG,2002-02-06 14:00,ZGGG 061400Z AUTO 02004KT 2 1/2SM 12/10 A3009 RMK T01200100 IEM_DS3505
ZGGG,2002-02-06 15:00,ZGGG 061500Z AUTO 00000KT 6SM 13/11 A3006 RMK SLP186 T01290112 52015 IEM_DS3505
ZGGG,2002-02-06 16:00,ZGGG 061600Z AUTO 34002KT 2 1/2SM 13/11 A3009 RMK T01300110 IEM_DS3505
ZGGG,2002-02-06 17:00,ZGGG 061700Z AUTO 36004KT 2 1/2SM 12/10 A3006 RMK T01200100 IEM_DS3505
ZGGG,2002-02-06 18:00,ZGGG 061800Z AUTO 34002KT 6SM 13/11 A3006 RMK SLP180 T01280111 57006 IEM_DS3505
ZGGG,2002-02-06 19:00,ZGGG 061900Z AUTO 03006KT 2 1/2SM 12/10 A3003 RMK T01200100 IEM_DS3505
ZGGG,2002-02-06 20:00,ZGGG 062000Z AUTO 01004KT 2 1/2SM 12/11 A3003 RMK T01200110 IEM_DS3505
ZGGG,2002-02-06 21:00,ZGGG 062100Z AUTO 34002KT 6SM 13/11 A3003 RMK 70003 SLP173 T01260111 57007 IEM_DS3505
ZGGG,2002-02-06 22:00,ZGGG 062200Z AUTO 01006KT 3SM 13/11 A3006 RMK T01300110 IEM_DS3505
ZGGG,2002-02-06 23:00,ZGGG 062300Z AUTO 01006KT 3SM 13/11 A3006 RMK T01300110 IEM_DS3505
ZGGG,2002-02-07 00:00,ZGGG 070000Z AUTO 34002KT 7SM 13/11 A3009 RMK 70003 SLP186 T01300113 52013 IEM_DS3505
ZGGG,2002-02-07 01:00,ZGGG 070100Z AUTO 01006KT 2SM 13/11 A3009 RMK T01300110 IEM_DS3505
ZGGG,2002-02-07 02:00,ZGGG 070200Z AUTO 36004KT 1 1/2SM 13/11 A3012 RMK T01300110 IEM_DS3505
ZGGG,2002-02-07 03:00,ZGGG 070300Z AUTO 00000KT 5SM 15/12 A3009 RMK SLP192 T01490120 52006 IEM_DS3505
ZGGG,2002-02-07 04:00,ZGGG 070400Z AUTO 36004KT 2SM 14/12 A3009 RMK T01400120 IEM_DS3505
ZGGG,2002-02-07 05:00,ZGGG 070500Z AUTO 34004KT 2 1/2SM 15/12 A3006 RMK T01500120 IEM_DS3505
ZGGG,2002-02-07 06:00,ZGGG 070600Z AUTO 09004KT 6SM 18/13 A3003 RMK SLP166 T01760134 57025 IEM_DS3505
ZGGG,2002-02-07 07:00,ZGGG 070700Z AUTO 33004KT 1 1/2SM 15/12 A3000 RMK T01500120 IEM_DS3505
ZGGG,2002-02-07 08:00,ZGGG 070800Z AUTO 33006KT 1 1/2SM 15/13 A3000 RMK T01500130 IEM_DS3505
ZGGG,2002-02-07 09:00,ZGGG 070900Z AUTO 34004KT 4SM 16/13 A3000 RMK SLP159 T01580131 57007 IEM_DS3505
ZGGG,2002-02-07 10:00,ZGGG 071000Z AUTO 01004KT 1 1/2SM 15/12 A3000 RMK T01500120 IEM_DS3505
ZGGG,2002-02-07 11:00,ZGGG 071100Z AUTO 34004KT 2 1/2SM 15/13 A3003 RMK T01500130 IEM_DS3505
ZGGG,2002-02-07 12:00,ZGGG 071200Z AUTO 02002KT 4SM 15/13 A3003 RMK SLP175 T01510129 52016 IEM_DS3505
ZGGG,2002-02-07 13:00,ZGGG 071300Z AUTO 01004KT 3SM 15/12 A3006 RMK T01500120 IEM_DS3505
ZGGG,2002-02-07 14:00,ZGGG 071400Z AUTO 36002KT 3SM 14/12 A3006 RMK T01400120 IEM_DS3505
ZGGG,2002-02-07 15:00,ZGGG 071500Z AUTO 34002KT 4SM 15/13 A3009 RMK SLP186 T01490129 52011 IEM_DS3505
ZGGG,2002-02-07 16:00,ZGGG 071600Z AUTO 01002KT 4SM 14/12 A3009 RMK T01400120 IEM_DS3505
ZGGG,2002-02-07 17:00,ZGGG 071700Z AUTO 00000KT 4SM 14/12 A3009 RMK T01400120 IEM_DS3505
ZGGG,2002-02-07 18:00,ZGGG 071800Z AUTO 27002KT 4SM 15/13 A3009 RMK SLP189 T01470129 52003 IEM_DS3505
ZGGG,2002-02-07 19:00,ZGGG 071900Z AUTO 00000KT 4SM 14/12 A3006 RMK T01400120 IEM_DS3505
ZGGG,2002-02-07 20:00,ZGGG 072000Z AUTO 00000KT 4SM 14/12 A3006 RMK T01400120 IEM_DS3505
ZGGG,2002-02-07 21:00,ZGGG 072100Z AUTO 00000KT 5SM 15/13 A3006 RMK SLP181 T01470131 57008 IEM_DS3505
ZGGG,2002-02-07 22:00,ZGGG 072200Z AUTO 00000KT 4SM 14/12 A3006 RMK T01400120 IEM_DS3505
ZGGG,2002-02-07 23:00,ZGGG 072300Z AUTO 04004KT 4SM 14/13 A3009 RMK T01400130 IEM_DS3505
ZGGG,2002-02-08 00:00,ZGGG 080000Z AUTO 00000KT 5SM 15/13 A3012 RMK SLP196 T01500132 52015 IEM_DS3505
ZGGG,2002-02-08 01:00,ZGGG 080100Z AUTO 00000KT 2 1/2SM 15/12 A3012 RMK T01500120 IEM_DS3505
ZGGG,2002-02-08 02:00,ZGGG 080200Z AUTO 31004KT 2 1/2SM 16/13 A3012 RMK T01600130 IEM_DS3505
ZGGG,2002-02-08 03:00,ZGGG 080300Z AUTO 11004KT 6SM 18/14 A3012 RMK SLP205 T01780138 52009 IEM_DS3505
ZGGG,2002-02-08 04:00,ZGGG 080400Z AUTO 34002KT 2 1/2SM 18/13 A3012 RMK T01800130 IEM_DS3505
ZGGG,2002-02-08 05:00,ZGGG 080500Z AUTO 27004KT 2 1/2SM 18/13 A3009 RMK T01800130 IEM_DS3505
ZGGG,2002-02-08 06:00,ZGGG 080600Z AUTO 00000KT 6SM 20/14 A3006 RMK SLP176 T01960143 57029 IEM_DS3505
ZGGG,2002-02-08 07:00,ZGGG 080700Z AUTO 33004KT 2SM 19/14 A3003 RMK T01900140 IEM_DS3505
ZGGG,2002-02-08 08:00,ZGGG 080800Z AUTO 34004KT 2SM 19/14 A3003 RMK T01900140 IEM_DS3505
ZGGG,2002-02-08 09:00,ZGGG 080900Z AUTO 32004KT 4SM 19/15 A3003 RMK SLP169 T01940148 57007 IEM_DS3505
ZGGG,2002-02-08 10:00,ZGGG 081000Z AUTO 34004KT 1 1/4SM 18/14 A3003 RMK T01800140 IEM_DS3505
ZGGG,2002-02-08 11:00,ZGGG 081100Z AUTO 34004KT 2 1/2SM 18/14 A3003 RMK T01800140 IEM_DS3505
ZGGG,2002-02-08 12:00,ZGGG 081200Z AUTO 34004KT 3SM 18/15 A3006 RMK SLP175 T01780149 52006 IEM_DS3505
ZGGG,2002-02-08 13:00,ZGGG 081300Z AUTO 36004KT 1 1/2SM 17/14 A3006 RMK T01700140 IEM_DS3505
ZGGG,2002-02-08 14:00,ZGGG 081400Z AUTO 36004KT 1 1/2SM 17/14 A3006 RMK T01700140 IEM_DS3505
ZGGG,2002-02-08 15:00,ZGGG 081500Z AUTO 34004KT 6SM 17/15 A3009 RMK SLP186 T01690148 52011 IEM_DS3505
ZGGG,2002-02-08 16:00,ZGGG 081600Z AUTO 02006KT 3SM 17/14 A3006 RMK T01700140 IEM_DS3505
ZGGG,2002-02-08 17:00,ZGGG 081700Z AUTO 36006KT 4SM 16/13 A3006 RMK T01600130 IEM_DS3505
ZGGG,2002-02-08 18:00,ZGGG 081800Z AUTO 34004KT 5SM 16/14 A3006 RMK SLP182 T01610144 57004 IEM_DS3505
ZGGG,2002-02-08 19:00,ZGGG 081900Z AUTO 36006KT 5SM 16/14 A3006 RMK T01600140 IEM_DS3505
ZGGG,2002-02-08 20:00,ZGGG 082000Z AUTO 36004KT 5SM 16/14 A3006 RMK T01600140 IEM_DS3505
ZGGG,2002-02-08 21:00,ZGGG 082100Z AUTO 34004KT 6SM 16/14 A3006 RMK SLP174 T01570139 57008 IEM_DS3505
ZGGG,2002-02-08 22:00,ZGGG 082200Z AUTO 01006KT 5SM 16/13 A3006 RMK T01600130 IEM_DS3505
ZGGG,2002-02-08 23:00,ZGGG 082300Z AUTO 02004KT 7SM 16/13 A3006 RMK T01600130 IEM_DS3505
ZGGG,2002-02-09 00:00,ZGGG 090000Z AUTO 09002KT 7SM 16/14 A3009 RMK SLP186 T01600144 52012 IEM_DS3505
ZGGG,2002-02-09 01:00,ZGGG 090100Z AUTO 01008KT 5SM 16/13 A3009 RMK T01600130 IEM_DS3505
ZGGG,2002-02-09 02:00,ZGGG 090200Z AUTO 01006KT 5SM 17/13 A3009 RMK T01700130 IEM_DS3505
ZGGG,2002-02-09 03:00,ZGGG 090300Z AUTO 29002KT 7SM 19/15 A3009 RMK SLP190 T01880152 52004 IEM_DS3505
ZGGG,2002-02-09 04:00,ZGGG 090400Z AUTO 36004KT 4SM 18/13 A3006 RMK T01800130 IEM_DS3505
ZGGG,2002-02-09 05:00,ZGGG 090500Z AUTO 00000KT 3SM 19/14 A3003 RMK T01900140 IEM_DS3505
ZGGG,2002-02-09 06:00,ZGGG 090600Z AUTO 32002KT 3SM 21/16 A3000 RMK SLP158 T02060160 57032 IEM_DS3505
ZGGG,2002-02-09 07:00,ZGGG 090700Z AUTO 33006KT 3SM 19/14 A2997 RMK T01900140 IEM_DS3505
ZGGG,2002-02-09 08:00,ZGGG 090800Z AUTO 35006KT 3SM 19/14 A2997 RMK T01900140 IEM_DS3505
ZGGG,2002-02-09 09:00,ZGGG 090900Z AUTO 32004KT 6SM 19/15 A2997 RMK SLP151 T01910152 57007 IEM_DS3505
ZGGG,2002-02-09 10:00,ZGGG 091000Z AUTO 01004KT 3SM 18/14 A2997 RMK T01800140 IEM_DS3505
ZGGG,2002-02-09 11:00,ZGGG 091100Z AUTO 03006KT 4SM 18/14 A2997 RMK T01800140 IEM_DS3505
ZGGG,2002-02-09 12:00,ZGGG 091200Z AUTO 36002KT 7SM 18/15 A3000 RMK SLP164 T01800153 52013 IEM_DS3505
ZGGG,2002-02-09 13:00,ZGGG 091300Z AUTO 02006KT 3SM 18/14 A3003 RMK T01800140 IEM_DS3505
ZGGG,2002-02-09 14:00,ZGGG 091400Z AUTO 08002KT 3SM 18/14 A3003 RMK T01800140 IEM_DS3505
ZGGG,2002-02-09 15:00,ZGGG 091500Z AUTO 00000KT 6SM 17/15 A3003 RMK SLP174 T01660154 52010 IEM_DS3505
ZGGG,2002-02-09 16:00,ZGGG 091600Z AUTO 00000KT 3SM 17/14 A3006 RMK T01700140 IEM_DS3505
ZGGG,2002-02-09 17:00,ZGGG 091700Z AUTO 00000KT 3SM 17/15 A3003 RMK T01700150 IEM_DS3505
ZGGG,2002-02-09 18:00,ZGGG 091800Z AUTO 00000KT 5SM 17/16 A3003 RMK SLP175 T01720158 52001 IEM_DS3505
ZGGG,2002-02-09 19:00,ZGGG 091900Z AUTO 00000KT 3SM 17/15 A3003 RMK T01700150 IEM_DS3505
ZGGG,2002-02-09 20:00,ZGGG 092000Z AUTO 03008KT 4SM 17/14 A3006 RMK T01700140 IEM_DS3505
ZGGG,2002-02-09 21:00,ZGGG 092100Z AUTO 34004KT 4SM 16/15 A3006 RMK 70003 SLP181 T01610147 52006 IEM_DS3505
ZGGG,2002-02-09 22:00,ZGGG 092200Z AUTO 01010KT 2SM 15/14 A3009 RMK T01500140 IEM_DS3505
ZGGG,2002-02-09 23:00,ZGGG 092300Z AUTO 36010KT 5SM 14/12 A3012 RMK T01400120 IEM_DS3505
ZGGG,2002-02-10 00:00,ZGGG 100000Z AUTO 34006KT 11SM 15/12 A3015 RMK 60003 SLP207 T01460122 52026 IEM_DS3505
ZGGG,2002-02-10 01:00,ZGGG 100100Z AUTO 36010KT 7SM 14/11 A3018 RMK T01400110 IEM_DS3505
ZGGG,2002-02-10 02:00,ZGGG 100200Z AUTO 36008KT 7SM 14/11 A3021 RMK T01400110 IEM_DS3505
ZGGG,2002-02-10 03:00,ZGGG 100300Z AUTO 04004KT 12SM 14/10 A3021 RMK SLP233 T01440104 52026 IEM_DS3505
ZGGG,2002-02-10 05:00,ZGGG 100500Z AUTO 01008KT 7SM 15/08 A3018 RMK T01500080 IEM_DS3505
ZGGG,2002-02-10 06:00,ZGGG 100600Z AUTO 34006KT 14SM 15/08 A3018 RMK 60003 SLP214 T01520085 57019 IEM_DS3505
ZGGG,2002-02-10 07:00,ZGGG 100700Z AUTO 01010KT 7SM 15/07 A3015 RMK T01500070 IEM_DS3505
ZGGG,2002-02-10 08:00,ZGGG 100800Z AUTO 36008KT 7SM 15/08 A3015 RMK T01500080 IEM_DS3505
ZGGG,2002-02-10 09:00,ZGGG 100900Z AUTO 02004KT 11SM 15/07 A3015 RMK SLP213 T01510072 57001 IEM_DS3505
ZGGG,2002-02-10 10:00,ZGGG 101000Z AUTO 36008KT 15/08 A3018 RMK T01500080 IEM_DS3505
ZGGG,2002-02-10 11:00,ZGGG 101100Z AUTO 36008KT 6SM 14/07 A3018 RMK T01400070 IEM_DS3505
ZGGG,2002-02-10 12:00,ZGGG 101200Z AUTO 02004KT 9SM 14/07 A3021 RMK SLP231 T01430071 52017 IEM_DS3505
ZGGG,2002-02-10 13:00,ZGGG 101300Z AUTO 36008KT 6SM 14/08 A3024 RMK T01400080 IEM_DS3505
ZGGG,2002-02-10 14:00,ZGGG 101400Z AUTO 36006KT 6SM 14/08 A3024 RMK T01400080 IEM_DS3505
ZGGG,2002-02-10 15:00,ZGGG 101500Z AUTO 32004KT 10SM 14/09 A3024 RMK SLP243 T01380093 52012 IEM_DS3505
ZGGG,2002-02-10 16:00,ZGGG 101600Z AUTO 35004KT 6SM 14/08 A3027 RMK T01400080 IEM_DS3505
ZGGG,2002-02-10 17:00,ZGGG 101700Z AUTO 36006KT 6SM 14/08 A3027 RMK T01400080 IEM_DS3505
ZGGG,2002-02-10 18:00,ZGGG 101800Z AUTO 34004KT 9SM 14/09 A3027 RMK SLP245 T01350087 52002 IEM_DS3505
ZGGG,2002-02-10 19:00,ZGGG 101900Z AUTO 36006KT 6SM 13/07 A3024 RMK T01300070 IEM_DS3505
ZGGG,2002-02-10 20:00,ZGGG 102000Z AUTO 02008KT 6SM 14/06 A3024 RMK T01400060 IEM_DS3505
ZGGG,2002-02-10 21:00,ZGGG 102100Z AUTO 02006KT 7SM 13/04 A3024 RMK 70003 SLP239 T01310043 57006 IEM_DS3505
ZGGG,2002-02-10 22:00,ZGGG 102200Z AUTO 03006KT 6SM 12/03 A3024 RMK T01200030 IEM_DS3505
ZGGG,2002-02-10 23:00,ZGGG 102300Z AUTO 03006KT 11/03 A3027 RMK T01100030 IEM_DS3505
ZGGG,2002-02-11 00:00,ZGGG 110000Z AUTO 00000KT 7SM 11/05 A3027 RMK 70003 SLP250 T01080053 52011 IEM_DS3505
ZGGG,2002-02-11 01:00,ZGGG 110100Z AUTO 02008KT 13/02 A3030 RMK T01300020 IEM_DS3505
ZGGG,2002-02-11 02:00,ZGGG 110200Z AUTO 02010KT 9SM 14/00 A3030 RMK T01400000 IEM_DS3505
ZGGG,2002-02-11 03:00,ZGGG 110300Z AUTO 02006KT 9SM 17/01 A3030 RMK SLP255 T01680011 52005 IEM_DS3505
ZGGG,2002-02-11 04:00,ZGGG 110400Z AUTO 36006KT 17/01 A3027 RMK T01700010 IEM_DS3505
ZGGG,2002-02-11 05:00,ZGGG 110500Z AUTO 01004KT 18/02 A3021 RMK T01800020 IEM_DS3505
ZGGG,2002-02-11 06:00,ZGGG 110600Z AUTO 34002KT 10SM 21/04 A3018 RMK SLP220 T02070035 57034 IEM_DS3505
ZGGG,2002-02-11 07:00,ZGGG 110700Z AUTO 33004KT 19/03 A3015 RMK T01900030 IEM_DS3505
ZGGG,2002-02-11 08:00,ZGGG 110800Z AUTO 30004KT 20/02 A3015 RMK T02000020 IEM_DS3505
ZGGG,2002-02-11 09:00,ZGGG 110900Z AUTO 29004KT 9SM 21/05 RMK SLP213 T02080049 57007 IEM_DS3505
ZGGG,2002-02-11 10:00,ZGGG 111000Z AUTO 34004KT 5SM 19/02 A3018 RMK T01900020 IEM_DS3505
ZGGG,2002-02-11 12:00,ZGGG 111200Z AUTO 00000KT 8SM 15/08 A3021 RMK SLP227 T01490081 52013 IEM_DS3505
ZGGG,2002-02-11 13:00,ZGGG 111300Z AUTO 00000KT 5SM 14/05 A3021 RMK T01400050 IEM_DS3505
ZGGG,2002-02-11 14:00,ZGGG 111400Z AUTO 14004KT 16/07 A3024 RMK T01600070 IEM_DS3505
ZGGG,2002-02-11 15:00,ZGGG 111500Z AUTO 07002KT 7SM 14/10 A3024 RMK SLP244 T01390100 52017 IEM_DS3505
ZGGG,2002-02-11 16:00,ZGGG 111600Z AUTO 18004KT 3SM 16/10 A3024 RMK T01600100 IEM_DS3505
ZGGG,2002-02-11 17:00,ZGGG 111700Z AUTO 17004KT 3SM 16/11 A3027 RMK T01600110 IEM_DS3505
ZGGG,2002-02-11 18:00,ZGGG 111800Z AUTO 00000KT 4SM 13/11 A3024 RMK SLP243 T01330110 54000 IEM_DS3505
ZGGG,2002-02-11 19:00,ZGGG 111900Z AUTO 13002KT 2 1/2SM 14/10 A3024 RMK T01400100 IEM_DS3505
ZGGG,2002-02-11 20:00,ZGGG 112000Z AUTO 12002KT 2 1/2SM 14/09 A3024 RMK T01400090 IEM_DS3505
ZGGG,2002-02-11 21:00,ZGGG 112100Z AUTO 00000KT 4SM 14/11 A3021 RMK SLP235 T01350108 57008 IEM_DS3505
ZGGG,2002-02-11 22:00,ZGGG 112200Z AUTO 09002KT 4SM 14/09 A3021 RMK T01400090 IEM_DS3505
ZGGG,2002-02-11 23:00,ZGGG 112300Z AUTO 13002KT 14/08 A3024 RMK T01400080 IEM_DS3505
ZGGG,2002-02-12 00:00,ZGGG 120000Z AUTO 00000KT 9SM 14/10 A3024 RMK SLP243 T01350100 52007 IEM_DS3505
ZGGG,2002-02-12 01:00,ZGGG 120100Z AUTO 00000KT 5SM 16/07 A3027 RMK T01600070 IEM_DS3505
ZGGG,2002-02-12 02:00,ZGGG 120200Z AUTO 15002KT 11SM 16/07 A3027 RMK T01600070 IEM_DS3505
ZGGG,2002-02-12 03:00,ZGGG 120300Z AUTO 11002KT 11SM 17/07 A3027 RMK SLP252 T01690073 52009 IEM_DS3505
ZGGG,2002-02-12 04:00,ZGGG 120400Z AUTO 19004KT 6SM 19/04 A3024 RMK T01900040 IEM_DS3505
ZGGG,2002-02-12 05:00,ZGGG 120500Z AUTO 23004KT 6SM 19/04 A3021 RMK T01900040 IEM_DS3505
ZGGG,2002-02-12 06:00,ZGGG 120600Z AUTO 34002KT 13SM 20/06 A3018 RMK SLP220 T02010055 57031 IEM_DS3505
ZGGG,2002-02-12 07:00,ZGGG 120700Z AUTO 29004KT 20/07 A3015 RMK T02000070 IEM_DS3505
ZGGG,2002-02-12 08:00,ZGGG 120800Z AUTO 33004KT 3SM 20/08 A3015 RMK T02000080 IEM_DS3505
ZGGG,2002-02-12 09:00,ZGGG 120900Z AUTO 34004KT 9SM 20/08 A3015 RMK SLP209 T02020083 57011 IEM_DS3505
ZGGG,2002-02-12 10:00,ZGGG 121000Z AUTO 34004KT 3SM 19/08 A3015 RMK T01900080 IEM_DS3505
ZGGG,2002-02-12 11:00,ZGGG 121100Z AUTO 33004KT 19/09 A3015 RMK T01900090 IEM_DS3505
ZGGG,2002-02-12 12:00,ZGGG 121200Z AUTO 00000KT 8SM 18/11 A3015 RMK SLP208 T01780110 57001 IEM_DS3505
ZGGG,2002-02-12 13:00,ZGGG 121300Z AUTO 00000KT 17/09 A3015 RMK T01700090 IEM_DS3505
ZGGG,2002-02-12 14:00,ZGGG 121400Z AUTO 00000KT 3SM 14/09 A3015 RMK T01400090 IEM_DS3505
ZGGG,2002-02-12 15:00,ZGGG 121500Z AUTO 00000KT 7SM 15/11 A3015 RMK SLP210 T01470113 52002 IEM_DS3505
ZGGG,2002-02-12 16:00,ZGGG 121600Z AUTO 09002KT 3SM 14/10 A3015 RMK T01400100 IEM_DS3505
ZGGG,2002-02-12 17:00,ZGGG 121700Z AUTO 00000KT 2 1/2SM 15/10 A3012 RMK T01500100 IEM_DS3505
ZGGG,2002-02-12 18:00,ZGGG 121800Z AUTO 00000KT 4SM 14/11 A3012 RMK SLP206 T01430111 57004 IEM_DS3505
ZGGG,2002-02-12 19:00,ZGGG 121900Z AUTO 18002KT 3SM 16/11 A3012 RMK T01600110 IEM_DS3505
ZGGG,2002-02-12 20:00,ZGGG 122000Z AUTO 00000KT 3SM 16/10 A3012 RMK T01600100 IEM_DS3505
ZGGG,2002-02-12 21:00,ZGGG 122100Z AUTO 14002KT 4SM 15/12 A3012 RMK SLP201 T01470115 57005 IEM_DS3505
ZGGG,2002-02-12 22:00,ZGGG 122200Z AUTO 15004KT 2 1/2SM 16/11 A3012 RMK T01600110 IEM_DS3505
ZGGG,2002-02-12 23:00,ZGGG 122300Z AUTO 17004KT 2 1/2SM 16/12 A3015 RMK T01600120 IEM_DS3505
ZGGG,2002-02-13 00:00,ZGGG 130000Z AUTO 00000KT 4SM 15/12 A3015 RMK SLP215 T01500123 52014 IEM_DS3505
ZGGG,2002-02-13 01:00,ZGGG 130100Z AUTO 15004KT 2SM 17/12 A3018 RMK T01700120 IEM_DS3505
ZGGG,2002-02-13 02:00,ZGGG 130200Z AUTO 18006KT 2 1/2SM 18/11 A3018 RMK T01800110 IEM_DS3505
ZGGG,2002-02-13 03:00,ZGGG 130300Z AUTO 14004KT 4SM 19/11 A3018 RMK SLP221 T01910113 52006 IEM_DS3505
ZGGG,2002-02-13 04:00,ZGGG 130400Z AUTO 18006KT 3SM 21/11 A3015 RMK T02100110 IEM_DS3505
ZGGG,2002-02-13 05:00,ZGGG 130500Z AUTO 20008KT 22/09 A3012 RMK T02200090 IEM_DS3505
ZGGG,2002-02-13 06:00,ZGGG 130600Z AUTO 22006KT 6SM 23/11 A3009 RMK SLP191 T02320108 57030 IEM_DS3505
ZGGG,2002-02-13 07:00,ZGGG 130700Z AUTO 17006KT 23/12 A3006 RMK T02300120 IEM_DS3505
ZGGG,2002-02-13 08:00,ZGGG 130800Z AUTO 18006KT 23/12 A3003 RMK T02300120 IEM_DS3505
ZGGG,2002-02-13 09:00,ZGGG 130900Z AUTO 14006KT 7SM 23/13 A3006 RMK SLP179 T02330129 57012 IEM_DS3505
ZGGG,2002-02-13 11:00,ZGGG 131100Z AUTO 13004KT 5SM 21/13 A3006 RMK T02100130 IEM_DS3505
ZGGG,2002-02-13 12:00,ZGGG 131200Z AUTO 16004KT 7SM 20/14 A3009 RMK SLP194 T01960143 52015 IEM_DS3505
ZGGG,2002-02-13 13:00,ZGGG 131300Z AUTO 17008KT 5SM 19/14 A3012 RMK T01900140 IEM_DS3505
ZGGG,2002-02-13 14:00,ZGGG 131400Z AUTO 18006KT 6SM 19/14 A3012 RMK T01900140 IEM_DS3505
ZGGG,2002-02-13 15:00,ZGGG 131500Z AUTO 11002KT 9SM 17/15 A3015 RMK SLP209 T01730147 52015 IEM_DS3505
ZGGG,2002-02-13 16:00,ZGGG 131600Z AUTO 20004KT 4SM 18/14 A3015 RMK T01800140 IEM_DS3505
ZGGG,2002-02-13 17:00,ZGGG 131700Z AUTO 00000KT 3SM 17/14 A3015 RMK T01700140 IEM_DS3505
ZGGG,2002-02-13 18:00,ZGGG 131800Z AUTO 00000KT 5SM 15/14 A3015 RMK SLP212 T01520138 52003 IEM_DS3505
ZGGG,2002-02-13 19:00,ZGGG 131900Z AUTO 08002KT 2 1/2SM 16/13 A3015 RMK T01600130 IEM_DS3505
ZGGG,2002-02-13 20:00,ZGGG 132000Z AUTO 00000KT 2 1/2SM 16/14 A3015 RMK T01600140 IEM_DS3505
ZGGG,2002-02-13 21:00,ZGGG 132100Z AUTO 00000KT 2SM 14/13 A3015 RMK SLP211 T01430132 57001 IEM_DS3505
ZGGG,2002-02-13 22:00,ZGGG 132200Z AUTO 20002KT 3SM 16/12 A3015 RMK T01600120 IEM_DS3505
ZGGG,2002-02-13 23:00,ZGGG 132300Z AUTO 17002KT 4SM 16/11 A3018 RMK T01600110 IEM_DS3505
ZGGG,2002-02-14 00:00,ZGGG 140000Z AUTO 11002KT 6SM 14/13 A3021 RMK SLP232 T01440128 52021 IEM_DS3505
ZGGG,2002-02-14 01:00,ZGGG 140100Z AUTO 00000KT 18/11 A3021 RMK T01800110 IEM_DS3505
ZGGG,2002-02-14 02:00,ZGGG 140200Z AUTO 16004KT 8SM 19/09 A3024 RMK T01900090 IEM_DS3505
ZGGG,2002-02-14 03:00,ZGGG 140300Z AUTO 11004KT 8SM 22/06 A3024 RMK SLP242 T02150063 52010 IEM_DS3505
ZGGG,2002-02-14 04:00,ZGGG 140400Z AUTO 18006KT 5SM 22/09 A3021 RMK T02200090 IEM_DS3505
ZGGG,2002-02-14 05:00,ZGGG 140500Z AUTO 24004KT 23/10 A3018 RMK T02300100 IEM_DS3505
ZGGG,2002-02-14 06:00,ZGGG 140600Z AUTO 27004KT 11SM 25/10 A3015 RMK SLP215 T02500098 57027 IEM_DS3505
ZGGG,2002-02-14 07:00,ZGGG 140700Z AUTO 20006KT 25/11 A3012 RMK T02500110 IEM_DS3505
ZGGG,2002-02-14 08:00,ZGGG 140800Z AUTO 18006KT 6SM 25/08 A3012 RMK T02500080 IEM_DS3505
ZGGG,2002-02-14 09:00,ZGGG 140900Z AUTO 16004KT 11SM 26/11 A3012 RMK SLP202 T02550110 57012 IEM_DS3505
ZGGG,2002-02-14 10:00,ZGGG 141000Z AUTO 16004KT 6SM 23/10 A3012 RMK T02300100 IEM_DS3505
ZGGG,2002-02-14 11:00,ZGGG 141100Z AUTO 14004KT 6SM 21/12 A3015 RMK T02100120 IEM_DS3505
ZGGG,2002-02-14 12:00,ZGGG 141200Z AUTO 11004KT 10SM 20/12 A3015 RMK SLP217 T02030125 52014 IEM_DS3505
ZGGG,2002-02-14 13:00,ZGGG 141300Z AUTO 15004KT 6SM 21/12 A3018 RMK T02100120 IEM_DS3505
ZGGG,2002-02-14 14:00,ZGGG 141400Z AUTO 16004KT 6SM 20/12 A3021 RMK T02000120 IEM_DS3505
ZGGG,2002-02-14 15:00,ZGGG 141500Z AUTO 00000KT 11SM 18/14 A3021 RMK SLP232 T01750136 52015 IEM_DS3505
ZGGG,2002-02-14 16:00,ZGGG 141600Z AUTO 19006KT 6SM 19/13 A3021 RMK T01900130 IEM_DS3505
ZGGG,2002-02-14 17:00,ZGGG 141700Z AUTO 20004KT 6SM 18/13 A3021 RMK T01800130 IEM_DS3505
ZGGG,2002-02-14 18:00,ZGGG 141800Z AUTO 22004KT 6SM 18/13 A3021 RMK T01800130 IEM_DS3505
ZGGG,2002-02-14 19:00,ZGGG 141900Z AUTO 16004KT 6SM 17/12 A3021 RMK T01700120 IEM_DS3505
ZGGG,2002-02-14 20:00,ZGGG 142000Z AUTO 00000KT 6SM 16/13 A3021 RMK T01600130 IEM_DS3505
ZGGG,2002-02-14 21:00,ZGGG 142100Z AUTO 00000KT 6SM 14/13 A3021 RMK SLP225 T01450127 57004 IEM_DS3505
ZGGG,2002-02-14 22:00,ZGGG 142200Z AUTO 00000KT 4SM 14/12 A3021 RMK T01400120 IEM_DS3505
ZGGG,2002-02-14 23:00,ZGGG 142300Z AUTO 00000KT 3SM 15/13 A3024 RMK T01500130 IEM_DS3505
ZGGG,2002-02-15 00:00,ZGGG 150000Z AUTO 00000KT 6SM 14/13 A3024 RMK SLP242 T01450132 52017 IEM_DS3505
ZGGG,2002-02-15 01:00,ZGGG 150100Z AUTO 05006KT 2 1/2SM 17/13 A3027 RMK T01700130 IEM_DS3505
ZGGG,2002-02-15 02:00,ZGGG 150200Z AUTO 09002KT 3SM 19/13 A3027 RMK T01900130 IEM_DS3505
ZGGG,2002-02-15 03:00,ZGGG 150300Z AUTO 14004KT 6SM 21/14 A3027 RMK SLP251 T02120140 52009 IEM_DS3505
ZGGG,2002-02-15 04:00,ZGGG 150400Z AUTO 05004KT 3SM 21/13 A3027 RMK T02100130 IEM_DS3505
ZGGG,2002-02-15 05:00,ZGGG 150500Z AUTO 34004KT 3SM 22/13 A3021 RMK T02200130 IEM_DS3505
ZGGG,2002-02-15 06:00,ZGGG 150600Z AUTO 36004KT 7SM 23/14 A3018 RMK SLP223 T02340141 57028 IEM_DS3505
ZGGG,2002-02-15 07:00,ZGGG 150700Z AUTO 32002KT 2 1/2SM 22/13 A3015 RMK T02200130 IEM_DS3505
ZGGG,2002-02-15 08:00,ZGGG 150800Z AUTO 33004KT 2 1/2SM 23/14 A3015 RMK T02300140 IEM_DS3505
ZGGG,2002-02-15 09:00,ZGGG 150900Z AUTO 32002KT 6SM 23/14 A3015 RMK SLP213 T02310141 57010 IEM_DS3505
ZGGG,2002-02-15 10:00,ZGGG 151000Z AUTO 36004KT 3SM 22/13 A3015 RMK T02200130 IEM_DS3505
ZGGG,2002-02-15 11:00,ZGGG 151100Z AUTO 07004KT 22/14 A3018 RMK T02200140 IEM_DS3505
ZGGG,2002-02-15 12:00,ZGGG 151200Z AUTO 00000KT 6SM 20/15 A3018 RMK SLP223 T01950151 52010 IEM_DS3505
ZGGG,2002-02-15 13:00,ZGGG 151300Z AUTO 09004KT 3SM 20/14 A3021 RMK T02000140 IEM_DS3505
ZGGG,2002-02-15 14:00,ZGGG 151400Z AUTO 00000KT 19/13 A3021 RMK T01900130 IEM_DS3505
ZGGG,2002-02-15 15:00,ZGGG 151500Z AUTO 09004KT 7SM 18/15 A3021 RMK SLP229 T01800153 52006 IEM_DS3505
ZGGG,2002-02-15 16:00,ZGGG 151600Z AUTO 14008KT 2 1/2SM 18/14 A3021 RMK T01800140 IEM_DS3505
ZGGG,2002-02-15 17:00,ZGGG 151700Z AUTO 15006KT 3SM 18/14 A3021 RMK T01800140 IEM_DS3505
ZGGG,2002-02-15 18:00,ZGGG 151800Z AUTO 09002KT 7SM 17/15 A3018 RMK SLP223 T01710149 57006 IEM_DS3505
ZGGG,2002-02-15 19:00,ZGGG 151900Z AUTO 17004KT 2 1/2SM 18/14 A3018 RMK T01800140 IEM_DS3505
ZGGG,2002-02-15 20:00,ZGGG 152000Z AUTO 12002KT 2 1/2SM 17/13 A3018 RMK T01700130 IEM_DS3505
ZGGG,2002-02-15 21:00,ZGGG 152100Z AUTO 09002KT 6SM 16/14 A3018 RMK SLP218 T01620139 57005 IEM_DS3505
ZGGG,2002-02-15 22:00,ZGGG 152200Z AUTO 09004KT 4SM 17/13 A3018 RMK T01700130 IEM_DS3505
ZGGG,2002-02-15 23:00,ZGGG 152300Z AUTO 08002KT 2 1/2SM 16/13 A3021 RMK T01600130 IEM_DS3505
ZGGG,2002-02-16 00:00,ZGGG 160000Z AUTO 09002KT 5SM 16/14 A3024 RMK SLP240 T01580139 52022 IEM_DS3505
ZGGG,2002-02-16 01:00,ZGGG 160100Z AUTO 09004KT 2SM 17/13 A3024 RMK T01700130 IEM_DS3505
ZGGG,2002-02-16 02:00,ZGGG 160200Z AUTO 00000KT 2SM 18/13 A3024 RMK T01800130 IEM_DS3505
ZGGG,2002-02-16 03:00,ZGGG 160300Z AUTO 20004KT 4SM 18/14 A3024 RMK SLP243 T01840141 52003 IEM_DS3505
ZGGG,2002-02-16 04:00,ZGGG 160400Z AUTO 14004KT 2SM 18/13 A3024 RMK T01800130 IEM_DS3505
ZGGG,2002-02-16 05:00,ZGGG 160500Z AUTO 03004KT 2SM 19/13 A3018 RMK T01900130 IEM_DS3505
ZGGG,2002-02-16 06:00,ZGGG 160600Z AUTO 18002KT 6SM 22/14 A3015 RMK SLP209 T02150136 57034 IEM_DS3505
ZGGG,2002-02-16 07:00,ZGGG 160700Z AUTO 23002KT 2SM 22/13 A3012 RMK T02200130 IEM_DS3505
ZGGG,2002-02-16 08:00,ZGGG 160800Z AUTO 36004KT 1 1/2SM 22/13 A3012 RMK T02200130 IEM_DS3505
ZGGG,2002-02-16 09:00,ZGGG 160900Z AUTO 36004KT 6SM 23/15 A3012 RMK SLP195 T02270146 57014 IEM_DS3505
ZGGG,2002-02-16 10:00,ZGGG 161000Z AUTO 31004KT 1 1/4SM 22/13 A3012 RMK T02200130 IEM_DS3505
ZGGG,2002-02-16 11:00,ZGGG 161100Z AUTO 32002KT 2SM 21/13 A3012 RMK T02100130 IEM_DS3505
ZGGG,2002-02-16 12:00,ZGGG 161200Z AUTO 00000KT 4SM 18/15 A3015 RMK SLP209 T01850151 52014 IEM_DS3505
ZGGG,2002-02-16 13:00,ZGGG 161300Z AUTO 00000KT 1 1/2SM 18/13 A3015 RMK T01800130 IEM_DS3505
ZGGG,2002-02-16 14:00,ZGGG 161400Z AUTO 00000KT 1 1/2SM 18/14 A3015 RMK T01800140 IEM_DS3505
ZGGG,2002-02-16 15:00,ZGGG 161500Z AUTO 00000KT 4SM 17/15 A3018 RMK SLP218 T01660149 52009 IEM_DS3505
ZGGG,2002-02-16 16:00,ZGGG 161600Z AUTO 00000KT 2SM 17/14 A3018 RMK T01700140 IEM_DS3505
ZGGG,2002-02-16 17:00,ZGGG 161700Z AUTO 00000KT 1 1/2SM 17/14 A3018 RMK T01700140 IEM_DS3505
ZGGG,2002-02-16 18:00,ZGGG 161800Z AUTO 00000KT 1 1/4SM 16/15 A3018 RMK SLP217 T01620148 57001 IEM_DS3505
ZGGG,2002-02-16 19:00,ZGGG 161900Z AUTO 00000KT 1 1/2SM 17/14 A3015 RMK T01700140 IEM_DS3505
ZGGG,2002-02-16 20:00,ZGGG 162000Z AUTO 00000KT 1 1/4SM 17/14 A3015 RMK T01700140 IEM_DS3505
ZGGG,2002-02-16 21:00,ZGGG 162100Z AUTO 00000KT 1 1/4SM 16/15 A3015 RMK SLP209 T01590147 57008 IEM_DS3505
ZGGG,2002-02-16 22:00,ZGGG 162200Z AUTO 00000KT 1SM 15/13 A3015 RMK T01500130 IEM_DS3505
ZGGG,2002-02-16 23:00,ZGGG 162300Z AUTO 00000KT 1SM 16/13 A3018 RMK T01600130 IEM_DS3505
ZGGG,2002-02-17 00:00,ZGGG 170000Z AUTO 00000KT 1 1/4SM 16/15 A3021 RMK SLP225 T01560149 52016 IEM_DS3505
ZGGG,2002-02-17 01:00,ZGGG 170100Z AUTO 00000KT 1SM 18/14 A3021 RMK T01800140 IEM_DS3505
ZGGG,2002-02-17 02:00,ZGGG 170200Z AUTO 00000KT 1SM 21/14 A3021 RMK T02100140 IEM_DS3505
ZGGG,2002-02-17 04:00,ZGGG 170400Z AUTO 33004KT 1 1/2SM 22/14 A3021 RMK T02200140 IEM_DS3505
ZGGG,2002-02-17 05:00,ZGGG 170500Z AUTO 32006KT 2 1/2SM 24/13 A3015 RMK T02400130 IEM_DS3505
ZGGG,2002-02-17 06:00,ZGGG 170600Z AUTO 25004KT 4SM 26/15 A3012 RMK SLP198 T02570150 57033 IEM_DS3505
ZGGG,2002-02-17 07:00,ZGGG 170700Z AUTO 29006KT 26/12 A3009 RMK T02600120 IEM_DS3505
ZGGG,2002-02-17 08:00,ZGGG 170800Z AUTO 30004KT 5SM 26/12 A3009 RMK T02600120 IEM_DS3505
ZGGG,2002-02-17 09:00,ZGGG 170900Z AUTO 34004KT 7SM 26/14 RMK SLP188 T02580137 57010 IEM_DS3505
ZGGG,2002-02-17 10:00,ZGGG 171000Z AUTO 00000KT 6SM 25/11 A3009 RMK T02500110 IEM_DS3505
ZGGG,2002-02-17 11:00,ZGGG 171100Z AUTO 00000KT 6SM 24/12 A3009 RMK T02400120 IEM_DS3505
ZGGG,2002-02-17 12:00,ZGGG 171200Z AUTO 00000KT 9SM 20/15 A3012 RMK SLP199 T02020150 52010 IEM_DS3505
ZGGG,2002-02-17 13:00,ZGGG 171300Z AUTO 09002KT 6SM 21/13 A3012 RMK T02100130 IEM_DS3505
ZGGG,2002-02-17 14:00,ZGGG 171400Z AUTO 00000KT 6SM 21/13 A3012 RMK T02100130 IEM_DS3505
ZGGG,2002-02-17 15:00,ZGGG 171500Z AUTO 00000KT 7SM 18/15 A3015 RMK SLP205 T01800149 52007 IEM_DS3505
ZGGG,2002-02-17 16:00,ZGGG 171600Z AUTO 00000KT 19/13 A3015 RMK T01900130 IEM_DS3505
ZGGG,2002-02-17 17:00,ZGGG 171700Z AUTO 00000KT 19/13 A3015 RMK T01900130 IEM_DS3505
ZGGG,2002-02-17 18:00,ZGGG 171800Z AUTO 00000KT 2SM 17/15 A3015 RMK SLP206 T01670146 52001 IEM_DS3505
ZGGG,2002-02-17 19:00,ZGGG 171900Z AUTO 00000KT 3SM 18/13 A3012 RMK T01800130 IEM_DS3505
ZGGG,2002-02-17 20:00,ZGGG 172000Z AUTO 00000KT 4SM 19/14 A3015 RMK T01900140 IEM_DS3505
ZGGG,2002-02-17 21:00,ZGGG 172100Z AUTO 00000KT 2 1/2SM 17/15 A3012 RMK SLP206 T01730149 54000 IEM_DS3505
ZGGG,2002-02-17 22:00,ZGGG 172200Z AUTO 00000KT 2SM 18/14 A3015 RMK T01800140 IEM_DS3505
ZGGG,2002-02-17 23:00,ZGGG 172300Z AUTO 00000KT 1 1/2SM 18/14 A3018 RMK T01800140 IEM_DS3505
ZGGG,2002-02-18 00:00,ZGGG 180000Z AUTO 00000KT 4SM 17/15 A3021 RMK SLP229 T01730154 52022 IEM_DS3505
ZGGG,2002-02-18 01:00,ZGGG 180100Z AUTO 00000KT 1 1/4SM 20/15 A3021 RMK T02000150 IEM_DS3505
ZGGG,2002-02-18 02:00,ZGGG 180200Z AUTO 00000KT 1SM 21/16 A3024 RMK T02100160 IEM_DS3505
ZGGG,2002-02-18 03:00,ZGGG 180300Z AUTO 14002KT 2SM 23/16 A3024 RMK SLP240 T02260156 52011 IEM_DS3505
ZGGG,2002-02-18 04:00,ZGGG 180400Z AUTO 13004KT 2SM 24/14 A3021 RMK T02400140 IEM_DS3505
ZGGG,2002-02-18 05:00,ZGGG 180500Z AUTO 13004KT 2SM 25/15 A3021 RMK T02500150 IEM_DS3505
ZGGG,2002-02-18 06:00,ZGGG 180600Z AUTO 14002KT 2 1/2SM 26/15 A3018 RMK SLP219 T02600151 57020 IEM_DS3505
ZGGG,2002-02-18 07:00,ZGGG 180700Z AUTO 19006KT 1 1/2SM 24/16 A3015 RMK T02400160 IEM_DS3505
ZGGG,2002-02-18 08:00,ZGGG 180800Z AUTO 16006KT 3SM 24/16 A3015 RMK T02400160 IEM_DS3505
ZGGG,2002-02-18 09:00,ZGGG 180900Z AUTO 22004KT 7SM 24/15 A3015 RMK SLP215 T02420149 57004 IEM_DS3505
ZGGG,2002-02-18 10:00,ZGGG 181000Z AUTO 17006KT 6SM 24/14 A3018 RMK T02400140 IEM_DS3505
ZGGG,2002-02-18 11:00,ZGGG 181100Z AUTO 16008KT 6SM 23/13 A3018 RMK T02300130 IEM_DS3505
ZGGG,2002-02-18 12:00,ZGGG 181200Z AUTO 20004KT 9SM 22/12 A3021 RMK SLP235 T02150125 52019 IEM_DS3505
ZGGG,2002-02-18 13:00,ZGGG 181300Z AUTO 17010KT 6SM 21/11 A3021 RMK T02100110 IEM_DS3505
ZGGG,2002-02-18 14:00,ZGGG 181400Z AUTO 20006KT 6SM 21/12 A3024 RMK T02100120 IEM_DS3505
ZGGG,2002-02-18 15:00,ZGGG 181500Z AUTO 16004KT 9SM 20/13 A3024 RMK SLP244 T02030129 52010 IEM_DS3505
ZGGG,2002-02-18 16:00,ZGGG 181600Z AUTO 18004KT 6SM 20/11 A3024 RMK T02000110 IEM_DS3505
ZGGG,2002-02-18 17:00,ZGGG 181700Z AUTO 16004KT 6SM 19/11 A3024 RMK T01900110 IEM_DS3505
ZGGG,2002-02-18 18:00,ZGGG 181800Z AUTO 00000KT 8SM 19/14 A3024 RMK SLP241 T01870136 57003 IEM_DS3505
ZGGG,2002-02-18 19:00,ZGGG 181900Z AUTO 00000KT 6SM 18/12 A3024 RMK T01800120 IEM_DS3505
ZGGG,2002-02-18 20:00,ZGGG 182000Z AUTO 04002KT 6SM 18/13 A3021 RMK T01800130 IEM_DS3505
ZGGG,2002-02-18 21:00,ZGGG 182100Z AUTO 07002KT 7SM 17/14 A3021 RMK SLP235 T01740137 57007 IEM_DS3505
ZGGG,2002-02-18 22:00,ZGGG 182200Z AUTO 07002KT 5SM 17/13 A3024 RMK T01700130 IEM_DS3505
ZGGG,2002-02-18 23:00,ZGGG 182300Z AUTO 04002KT 4SM 17/13 A3024 RMK T01700130 IEM_DS3505
ZGGG,2002-02-19 00:00,ZGGG 190000Z AUTO 00000KT 7SM 17/13 A3027 RMK SLP255 T01730134 52020 IEM_DS3505
ZGGG,2002-02-19 01:00,ZGGG 190100Z AUTO 00000KT 3SM 19/12 A3030 RMK T01900120 IEM_DS3505
ZGGG,2002-02-19 02:00,ZGGG 190200Z AUTO 00000KT 3SM 21/12 A3030 RMK T02100120 IEM_DS3505
ZGGG,2002-02-19 03:00,ZGGG 190300Z AUTO 18004KT 8SM 23/12 A3030 RMK SLP263 T02290117 52008 IEM_DS3505
ZGGG,2002-02-19 04:00,ZGGG 190400Z AUTO 19006KT 23/11 A3027 RMK T02300110 IEM_DS3505
ZGGG,2002-02-19 05:00,ZGGG 190500Z AUTO 12006KT 24/09 A3024 RMK T02400090 IEM_DS3505
ZGGG,2002-02-19 06:00,ZGGG 190600Z AUTO 16002KT 9SM 25/12 A3021 RMK SLP236 T02520115 57026 IEM_DS3505
ZGGG,2002-02-19 07:00,ZGGG 190700Z AUTO 17008KT 3SM 25/11 A3021 RMK T02500110 IEM_DS3505
ZGGG,2002-02-19 08:00,ZGGG 190800Z AUTO 17006KT 3SM 26/11 A3018 RMK T02600110 IEM_DS3505
ZGGG,2002-02-19 09:00,ZGGG 190900Z AUTO 16004KT 9SM 25/12 A3021 RMK SLP228 T02480123 57008 IEM_DS3505
ZGGG,2002-02-19 10:00,ZGGG 191000Z AUTO 21008KT 3SM 24/11 A3021 RMK T02400110 IEM_DS3505
ZGGG,2002-02-19 11:00,ZGGG 191100Z AUTO 16004KT 23/11 A3024 RMK T02300110 IEM_DS3505
ZGGG,2002-02-19 12:00,ZGGG 191200Z AUTO 14004KT 9SM 23/12 A3024 RMK SLP247 T02270121 52018 IEM_DS3505
ZGGG,2002-02-19 13:00,ZGGG 191300Z AUTO 17004KT 5SM 22/11 A3027 RMK T02200110 IEM_DS3505
ZGGG,2002-02-19 14:00,ZGGG 191400Z AUTO 16006KT 21/13 A3030 RMK T02100130 IEM_DS3505
ZGGG,2002-02-19 15:00,ZGGG 191500Z AUTO 16002KT 8SM 20/14 A3030 RMK SLP266 T01980139 52019 IEM_DS3505
ZGGG,2002-02-19 16:00,ZGGG 191600Z AUTO 20004KT 3SM 19/13 A3030 RMK T01900130 IEM_DS3505
ZGGG,2002-02-19 17:00,ZGGG 191700Z AUTO 17004KT 2 1/2SM 19/14 A3030 RMK T01900140 IEM_DS3505
ZGGG,2002-02-19 18:00,ZGGG 191800Z AUTO 16004KT 6SM 18/13 A3030 RMK SLP264 T01820134 57001 IEM_DS3505
ZGGG,2002-02-19 19:00,ZGGG 191900Z AUTO 15004KT 4SM 18/13 A3030 RMK T01800130 IEM_DS3505
ZGGG,2002-02-19 20:00,ZGGG 192000Z AUTO 16006KT 4SM 18/13 A3030 RMK T01800130 IEM_DS3505
ZGGG,2002-02-19 21:00,ZGGG 192100Z AUTO 18004KT 4SM 17/12 A3030 RMK SLP259 T01720123 57006 IEM_DS3505
ZGGG,2002-02-19 22:00,ZGGG 192200Z AUTO 20002KT 4SM 17/12 A3030 RMK T01700120 IEM_DS3505
ZGGG,2002-02-19 23:00,ZGGG 192300Z AUTO 15004KT 4SM 17/12 A3030 RMK T01700120 IEM_DS3505
ZGGG,2002-02-20 00:00,ZGGG 200000Z AUTO 14004KT 6SM 17/12 A3033 RMK SLP273 T01720121 52014 IEM_DS3505
ZGGG,2002-02-20 01:00,ZGGG 200100Z AUTO 17004KT 3SM 18/11 A3036 RMK T01800110 IEM_DS3505
ZGGG,2002-02-20 02:00,ZGGG 200200Z AUTO 08004KT 3SM 18/12 A3036 RMK T01800120 IEM_DS3505
ZGGG,2002-02-20 03:00,ZGGG 200300Z AUTO 14002KT 5SM 19/12 A3036 RMK SLP278 T01900124 52005 IEM_DS3505
ZGGG,2002-02-20 04:00,ZGGG 200400Z AUTO 20002KT 2 1/2SM 19/12 A3033 RMK T01900120 IEM_DS3505
ZGGG,2002-02-20 05:00,ZGGG 200500Z AUTO 04004KT 2 1/2SM 21/11 A3030 RMK T02100110 IEM_DS3505
ZGGG,2002-02-20 06:00,ZGGG 200600Z AUTO 14004KT 4SM 21/13 A3027 RMK SLP247 T02090128 57031 IEM_DS3505
ZGGG,2002-02-20 07:00,ZGGG 200700Z AUTO 01004KT 2 1/2SM 21/12 A3024 RMK T02100120 IEM_DS3505
ZGGG,2002-02-20 08:00,ZGGG 200800Z AUTO 33004KT 2 1/2SM 21/13 A3021 RMK T02100130 IEM_DS3505
ZGGG,2002-02-20 09:00,ZGGG 200900Z AUTO 18004KT 6SM 22/12 A3021 RMK SLP229 T02210116 57018 IEM_DS3505
ZGGG,2002-02-20 10:00,ZGGG 201000Z AUTO 06006KT 2 1/2SM 21/13 A3021 RMK T02100130 IEM_DS3505
ZGGG,2002-02-20 11:00,ZGGG 201100Z AUTO 09004KT 3SM 20/13 A3021 RMK T02000130 IEM_DS3505
ZGGG,2002-02-20 12:00,ZGGG 201200Z AUTO 16004KT 6SM 19/11 A3024 RMK SLP240 T01930109 52011 IEM_DS3505
ZGGG,2002-02-20 13:00,ZGGG 201300Z AUTO 16004KT 6SM 19/11 A3024 RMK T01900110 IEM_DS3505
ZGGG,2002-02-20 14:00,ZGGG 201400Z AUTO 15004KT 7SM 19/12 A3027 RMK T01900120 IEM_DS3505
ZGGG,2002-02-20 15:00,ZGGG 201500Z AUTO 20004KT 11SM 18/13 A3027 RMK SLP256 T01810133 52016 IEM_DS3505
ZGGG,2002-02-20 16:00,ZGGG 201600Z AUTO 20004KT 7SM 18/13 A3027 RMK T01800130 IEM_DS3505
ZGGG,2002-02-20 17:00,ZGGG 201700Z AUTO 17004KT 7SM 18/13 A3027 RMK T01800130 IEM_DS3505
ZGGG,2002-02-20 18:00,ZGGG 201800Z AUTO 20002KT 7SM 17/13 A3024 RMK SLP246 T01700127 57010 IEM_DS3505
ZGGG,2002-02-20 19:00,ZGGG 201900Z AUTO 14002KT 7SM 17/12 A3024 RMK T01700120 IEM_DS3505
ZGGG,2002-02-20 20:00,ZGGG 202000Z AUTO 00000KT 7SM 17/12 A3024 RMK T01700120 IEM_DS3505
ZGGG,2002-02-20 21:00,ZGGG 202100Z AUTO 00000KT 6SM 16/13 A3024 RMK SLP239 T01610132 57007 IEM_DS3505
ZGGG,2002-02-20 22:00,ZGGG 202200Z AUTO 06004KT 7SM 17/12 A3024 RMK T01700120 IEM_DS3505
ZGGG,2002-02-20 23:00,ZGGG 202300Z AUTO 03004KT 7SM 17/12 A3024 RMK T01700120 IEM_DS3505
ZGGG,2002-02-21 00:00,ZGGG 210000Z AUTO 09002KT 9SM 17/13 A3024 RMK SLP247 T01660128 52008 IEM_DS3505
ZGGG,2002-02-21 01:00,ZGGG 210100Z AUTO 04002KT 5SM 19/11 A3027 RMK T01900110 IEM_DS3505
ZGGG,2002-02-21 02:00,ZGGG 210200Z AUTO 00000KT 5SM 20/11 A3027 RMK T02000110 IEM_DS3505
ZGGG,2002-02-21 03:00,ZGGG 210300Z AUTO 16006KT 7SM 22/12 A3027 RMK SLP248 T02170121 52001 IEM_DS3505
ZGGG,2002-02-21 04:00,ZGGG 210400Z AUTO 16008KT 22/13 A3024 RMK T02200130 IEM_DS3505
ZGGG,2002-02-21 05:00,ZGGG 210500Z AUTO 15008KT 23/13 A3021 RMK T02300130 IEM_DS3505
ZGGG,2002-02-21 06:00,ZGGG 210600Z 20005MPS 150V230 6000 BKN028 24/13 Q1021 NOSIG
ZGGG,2002-02-21 07:00,ZGGG 210700Z 17004MPS 140V200 7000 BKN028 24/13 Q1021 NOSIG
ZGGG,2002-02-21 08:00,ZGGG 210800Z 15004MPS 120V200 8000 BKN033 24/14 Q1020 NOSIG
ZGGG,2002-02-21 09:00,ZGGG 210900Z 21003MPS 150V220 CAVOK 24/13 Q1021 NOSIG
ZGGG,2002-02-21 10:00,ZGGG 211000Z 16003MPS CAVOK 23/13 Q1021 NOSIG
ZGGG,2002-02-21 11:00,ZGGG 211100Z 16003MPS CAVOK 23/14 Q1021 NOSIG
ZGGG,2002-02-21 12:00,ZGGG 211200Z 17004MPS CAVOK 22/14 Q1021 NOSIG
ZGGG,2002-02-21 13:00,ZGGG 211300Z AUTO 16008KT 6SM 22/14 A3018 RMK T02200140 IEM_DS3505
ZGGG,2002-02-21 14:00,ZGGG 211400Z AUTO 16008KT 6SM 21/14 A3021 RMK T02100140 IEM_DS3505
ZGGG,2002-02-21 15:00,ZGGG 211500Z AUTO 14004KT 9SM 20/16 A3021 RMK SLP229 T01970155 52012 IEM_DS3505
ZGGG,2002-02-21 16:00,ZGGG 211600Z AUTO 17004KT 6SM 19/14 A3021 RMK T01900140 IEM_DS3505
ZGGG,2002-02-21 17:00,ZGGG 211700Z AUTO 16004KT 4SM 19/14 A3021 RMK T01900140 IEM_DS3505
ZGGG,2002-02-21 18:00,ZGGG 211800Z AUTO 09002KT 8SM 18/15 A3021 RMK SLP226 T01830154 57003 IEM_DS3505
ZGGG,2002-02-21 19:00,ZGGG 211900Z AUTO 00000KT 6SM 19/14 A3018 RMK T01900140 IEM_DS3505
ZGGG,2002-02-21 20:00,ZGGG 212000Z AUTO 00000KT 6SM 18/14 A3018 RMK T01800140 IEM_DS3505
ZGGG,2002-02-21 21:00,ZGGG 212100Z AUTO 00000KT 7SM 16/15 A3018 RMK SLP224 T01650149 57003 IEM_DS3505
ZGGG,2002-02-21 22:00,ZGGG 212200Z AUTO 00000KT 4SM 17/14 A3021 RMK T01700140 IEM_DS3505
ZGGG,2002-02-21 23:00,ZGGG 212300Z AUTO 00000KT 4SM 17/14 A3021 RMK T01700140 IEM_DS3505
ZGGG,2002-02-22 00:00,ZGGG 220000Z AUTO 00000KT 7SM 17/16 A3024 RMK SLP242 T01710156 52018 IEM_DS3505
ZGGG,2002-02-22 01:00,ZGGG 220100Z AUTO 08004KT 2 1/2SM 19/16 A3024 RMK T01900160 IEM_DS3505
ZGGG,2002-02-22 02:00,ZGGG 220200Z AUTO 14004KT 2 1/2SM 19/15 A3027 RMK T01900150 IEM_DS3505
ZGGG,2002-02-22 03:00,ZGGG 220300Z AUTO 18004KT 2 1/2SM 21/16 A3024 RMK SLP246 T02100157 52004 IEM_DS3505
ZGGG,2002-02-22 04:00,ZGGG 220400Z AUTO 20004KT 23/14 A3021 RMK T02300140 IEM_DS3505
ZGGG,2002-02-22 05:00,ZGGG 220500Z AUTO 22004KT 24/14 A3018 RMK T02400140 IEM_DS3505
ZGGG,2002-02-22 06:00,ZGGG 220600Z AUTO 11004KT 5SM 25/15 A3015 RMK SLP209 T02520153 57036 IEM_DS3505
ZGGG,2002-02-22 07:00,ZGGG 220700Z AUTO 21008KT 25/14 A3012 RMK T02500140 IEM_DS3505
ZGGG,2002-02-22 08:00,ZGGG 220800Z AUTO 21006KT 25/13 A3009 RMK T02500130 IEM_DS3505
ZGGG,2002-02-22 09:00,ZGGG 220900Z AUTO 16004KT 10SM 26/13 A3009 RMK SLP193 T02570133 57016 IEM_DS3505
ZGGG,2002-02-22 10:00,ZGGG 221000Z AUTO 16006KT 5SM 24/13 A3009 RMK T02400130 IEM_DS3505
ZGGG,2002-02-22 11:00,ZGGG 221100Z AUTO 15006KT 6SM 24/13 A3009 RMK T02400130 IEM_DS3505
ZGGG,2002-02-22 12:00,ZGGG 221200Z AUTO 14004KT 10SM 22/14 A3012 RMK SLP203 T02250144 52009 IEM_DS3505
ZGGG,2002-02-22 13:00,ZGGG 221300Z AUTO 15004KT 6SM 22/13 A3015 RMK T02200130 IEM_DS3505
ZGGG,2002-02-22 14:00,ZGGG 221400Z AUTO 15006KT 6SM 22/14 A3015 RMK T02200140 IEM_DS3505
ZGGG,2002-02-22 15:00,ZGGG 221500Z AUTO 11002KT 9SM 20/14 A3015 RMK SLP212 T02030145 52010 IEM_DS3505
ZGGG,2002-02-22 16:00,ZGGG 221600Z AUTO 17004KT 6SM 20/14 A3015 RMK T02000140 IEM_DS3505
ZGGG,2002-02-22 17:00,ZGGG 221700Z AUTO 17004KT 6SM 20/14 A3015 RMK T02000140 IEM_DS3505
ZGGG,2002-02-22 18:00,ZGGG 221800Z AUTO 11002KT 7SM 18/15 A3012 RMK SLP203 T01840150 57009 IEM_DS3505
ZGGG,2002-02-22 19:00,ZGGG 221900Z AUTO 17002KT 6SM 19/16 A3012 RMK T01900160 IEM_DS3505
ZGGG,2002-02-22 20:00,ZGGG 222000Z AUTO 17004KT 6SM 19/16 A3009 RMK T01900160 IEM_DS3505
ZGGG,2002-02-22 21:00,ZGGG 222100Z AUTO 09002KT 6SM 18/16 A3012 RMK SLP199 T01770158 57004 IEM_DS3505
ZGGG,2002-02-22 22:00,ZGGG 222200Z AUTO 17004KT 3SM 19/16 A3009 RMK T01900160 IEM_DS3505
ZGGG,2002-02-22 23:00,ZGGG 222300Z AUTO 13004KT 2 1/2SM 19/16 A3012 RMK T01900160 IEM_DS3505
ZGGG,2002-02-23 00:00,ZGGG 230000Z AUTO 16004KT 3SM 18/17 A3015 RMK SLP207 T01850167 52008 IEM_DS3505
ZGGG,2002-02-23 01:00,ZGGG 230100Z AUTO 17004KT 2 1/2SM 20/16 A3015 RMK T02000160 IEM_DS3505
ZGGG,2002-02-23 02:00,ZGGG 230200Z AUTO 17004KT 3SM 21/16 A3015 RMK T02100160 IEM_DS3505
ZGGG,2002-02-23 03:00,ZGGG 230300Z AUTO 00000KT 9SM 21/16 A3015 RMK SLP216 T02110163 52009 IEM_DS3505
ZGGG,2002-02-23 04:00,ZGGG 230400Z AUTO 33002KT 3SM 22/16 A3012 RMK T02200160 IEM_DS3505
ZGGG,2002-02-23 05:00,ZGGG 230500Z AUTO 00000KT 3SM 23/16 A3012 RMK T02300160 IEM_DS3505
ZGGG,2002-02-23 06:00,ZGGG 230600Z AUTO 18004KT 9SM 25/16 A3006 RMK SLP183 T02510158 57033 IEM_DS3505
ZGGG,2002-02-23 07:00,ZGGG 230700Z AUTO 00000KT 3SM 24/14 A3003 RMK T02400140 IEM_DS3505
ZGGG,2002-02-23 08:00,ZGGG 230800Z AUTO 35004KT 2 1/2SM 24/15 A3003 RMK T02400150 IEM_DS3505
ZGGG,2002-02-23 09:00,ZGGG 230900Z AUTO 34004KT 8SM 24/16 A3003 RMK SLP176 T02370162 57007 IEM_DS3505
ZGGG,2002-02-23 10:00,ZGGG 231000Z AUTO 36004KT 2 1/2SM 23/15 A3006 RMK T02300150 IEM_DS3505
ZGGG,2002-02-23 11:00,ZGGG 231100Z AUTO 36008KT 22/15 A3006 RMK T02200150 IEM_DS3505
ZGGG,2002-02-23 12:00,ZGGG 231200Z AUTO 36006KT 7SM 21/16 A3009 RMK SLP190 T02140159 52014 IEM_DS3505
ZGGG,2002-02-23 13:00,ZGGG 231300Z AUTO 36008KT 21/14 A3012 RMK T02100140 IEM_DS3505
ZGGG,2002-02-23 14:00,ZGGG 231400Z AUTO 01008KT 20/14 A3012 RMK T02000140 IEM_DS3505
ZGGG,2002-02-23 15:00,ZGGG 231500Z AUTO 36006KT 9SM 20/15 A3012 RMK SLP203 T02000153 52013 IEM_DS3505
ZGGG,2002-02-23 16:00,ZGGG 231600Z AUTO 01008KT 6SM 19/14 A3015 RMK T01900140 IEM_DS3505
ZGGG,2002-02-23 17:00,ZGGG 231700Z AUTO 36008KT 6SM 19/13 A3015 RMK T01900130 IEM_DS3505
ZGGG,2002-02-23 18:00,ZGGG 231800Z AUTO 34006KT 10SM 19/14 A3012 RMK SLP202 T01880139 57001 IEM_DS3505
ZGGG,2002-02-23 19:00,ZGGG 231900Z AUTO 36008KT 7SM 18/12 A3012 RMK T01800120 IEM_DS3505
ZGGG,2002-02-23 20:00,ZGGG 232000Z AUTO 36006KT 6SM 18/12 A3012 RMK T01800120 IEM_DS3505
ZGGG,2002-02-23 21:00,ZGGG 232100Z AUTO 02004KT 8SM 17/13 A3015 RMK SLP204 T01740129 52002 IEM_DS3505
ZGGG,2002-02-23 22:00,ZGGG 232200Z AUTO 36008KT 6SM 17/11 A3015 RMK T01700110 IEM_DS3505
ZGGG,2002-02-23 23:00,ZGGG 232300Z AUTO 36008KT 6SM 17/11 A3018 RMK T01700110 IEM_DS3505
ZGGG,2002-02-24 00:00,ZGGG 240000Z AUTO 34006KT 11SM 17/12 A3018 RMK SLP225 T01720123 52020 IEM_DS3505
ZGGG,2002-02-24 01:00,ZGGG 240100Z AUTO 01008KT 7SM 18/12 A3021 RMK T01800120 IEM_DS3505
ZGGG,2002-02-24 02:00,ZGGG 240200Z AUTO 03010KT 7SM 18/12 A3021 RMK T01800120 IEM_DS3505
ZGGG,2002-02-24 03:00,ZGGG 240300Z AUTO 34004KT 11SM 19/13 A3021 RMK SLP235 T01900130 52010 IEM_DS3505
ZGGG,2002-02-24 04:00,ZGGG 240400Z AUTO 03006KT 6SM 20/12 A3018 RMK T02000120 IEM_DS3505
ZGGG,2002-02-24 05:00,ZGGG 240500Z AUTO 35006KT 6SM 22/13 A3015 RMK T02200130 IEM_DS3505
ZGGG,2002-02-24 06:00,ZGGG 240600Z AUTO 04006KT 11SM 24/14 A3012 RMK SLP198 T02420139 57036 IEM_DS3505
ZGGG,2002-02-24 07:00,ZGGG 240700Z AUTO 35004KT 6SM 23/13 A3006 RMK T02300130 IEM_DS3505
ZGGG,2002-02-24 08:00,ZGGG 240800Z AUTO 35004KT 7SM 24/13 A3006 RMK T02400130 IEM_DS3505
ZGGG,2002-02-24 09:00,ZGGG 240900Z AUTO 16002KT 10SM 24/14 A3006 RMK SLP179 T02390143 57019 IEM_DS3505
ZGGG,2002-02-24 10:00,ZGGG 241000Z AUTO 28004KT 23/13 A3006 RMK T02300130 IEM_DS3505
ZGGG,2002-02-24 11:00,ZGGG 241100Z AUTO 29002KT 7SM 22/13 A3006 RMK T02200130 IEM_DS3505
ZGGG,2002-02-24 12:00,ZGGG 241200Z AUTO 09002KT 9SM 22/15 A3009 RMK SLP187 T02240152 52008 IEM_DS3505
ZGGG,2002-02-24 13:00,ZGGG 241300Z AUTO 32002KT 5SM 21/13 A3009 RMK T02100130 IEM_DS3505
ZGGG,2002-02-24 14:00,ZGGG 241400Z AUTO 15002KT 5SM 21/14 A3012 RMK T02100140 IEM_DS3505
ZGGG,2002-02-24 15:00,ZGGG 241500Z AUTO 18006KT 7SM 20/16 A3012 RMK SLP205 T02010161 52017 IEM_DS3505
ZGGG,2002-02-24 16:00,ZGGG 241600Z AUTO 15006KT 2 1/2SM 20/15 A3012 RMK T02000150 IEM_DS3505
ZGGG,2002-02-24 17:00,ZGGG 241700Z AUTO 16008KT 2 1/2SM 19/15 A3012 RMK T01900150 IEM_DS3505
ZGGG,2002-02-24 18:00,ZGGG 241800Z AUTO 14004KT 5SM 19/15 A3012 RMK SLP201 T01940153 57003 IEM_DS3505
ZGGG,2002-02-24 19:00,ZGGG 241900Z AUTO 17006KT 2 1/2SM 19/15 A3012 RMK T01900150 IEM_DS3505
ZGGG,2002-02-24 20:00,ZGGG 242000Z AUTO 14004KT 2 1/2SM 19/15 A3012 RMK T01900150 IEM_DS3505
ZGGG,2002-02-24 21:00,ZGGG 242100Z AUTO 12004KT 2 1/2SM 19/14 A3012 RMK T01900140 IEM_DS3505
ZGGG,2002-02-24 22:00,ZGGG 242200Z AUTO 11004KT 2 1/2SM 19/15 A3015 RMK T01900150 IEM_DS3505
ZGGG,2002-02-24 23:00,ZGGG 242300Z AUTO 14004KT 3SM 18/14 A3015 RMK T01800140 IEM_DS3505
ZGGG,2002-02-25 00:00,ZGGG 250000Z AUTO 09004KT 5SM 18/14 A3018 RMK 60003 SLP222 T01800144 52015 IEM_DS3505
ZGGG,2002-02-25 01:00,ZGGG 250100Z AUTO 11006KT 3SM 18/14 A3018 RMK T01800140 IEM_DS3505
ZGGG,2002-02-25 02:00,ZGGG 250200Z AUTO 12004KT 3SM 19/13 A3021 RMK T01900130 IEM_DS3505
ZGGG,2002-02-25 03:00,ZGGG 250300Z AUTO 18006KT 7SM 21/14 A3021 RMK SLP228 T02080139 52006 IEM_DS3505
ZGGG,2002-02-25 04:00,ZGGG 250400Z AUTO 16008KT 22/13 A3015 RMK T02200130 IEM_DS3505
ZGGG,2002-02-25 05:00,ZGGG 250500Z AUTO 16006KT 23/13 A3012 RMK T02300130 IEM_DS3505
ZGGG,2002-02-25 06:00,ZGGG 250600Z AUTO 16004KT 8SM 24/13 A3009 RMK SLP191 T02400134 57036 IEM_DS3505
ZGGG,2002-02-25 07:00,ZGGG 250700Z AUTO 17006KT 24/13 A3006 RMK T02400130 IEM_DS3505
ZGGG,2002-02-25 08:00,ZGGG 250800Z AUTO 17006KT 24/13 A3003 RMK T02400130 IEM_DS3505
ZGGG,2002-02-25 09:00,ZGGG 250900Z AUTO 14004KT 9SM 24/14 A3003 RMK SLP177 T02390145 57014 IEM_DS3505
ZGGG,2002-02-25 10:00,ZGGG 251000Z AUTO 15004KT 23/14 A3006 RMK T02300140 IEM_DS3505
ZGGG,2002-02-25 11:00,ZGGG 251100Z AUTO 14004KT 3SM 22/14 A3006 RMK T02200140 IEM_DS3505
ZGGG,2002-02-25 12:00,ZGGG 251200Z AUTO 11004KT 10SM 22/15 A3009 RMK SLP191 T02160151 52014 IEM_DS3505
ZGGG,2002-02-25 13:00,ZGGG 251300Z AUTO 16006KT 22/15 A3009 RMK T02200150 IEM_DS3505
ZGGG,2002-02-25 14:00,ZGGG 251400Z AUTO 17006KT 21/15 A3009 RMK T02100150 IEM_DS3505
ZGGG,2002-02-25 15:00,ZGGG 251500Z AUTO 18004KT 9SM 20/16 A3012 RMK SLP201 T02020155 52010 IEM_DS3505
ZGGG,2002-02-25 16:00,ZGGG 251600Z AUTO 17004KT 4SM 19/15 A3012 RMK T01900150 IEM_DS3505
ZGGG,2002-02-25 17:00,ZGGG 251700Z AUTO 20004KT 4SM 19/15 A3012 RMK T01900150 IEM_DS3505
ZGGG,2002-02-25 18:00,ZGGG 251800Z AUTO 11004KT 9SM 19/15 A3012 RMK SLP200 T01920153 57001 IEM_DS3505
ZGGG,2002-02-25 19:00,ZGGG 251900Z AUTO 16004KT 4SM 19/14 A3009 RMK T01900140 IEM_DS3505
ZGGG,2002-02-25 20:00,ZGGG 252000Z AUTO 11002KT 4SM 19/15 A3009 RMK T01900150 IEM_DS3505
ZGGG,2002-02-25 21:00,ZGGG 252100Z AUTO 09004KT 7SM 17/15 A3009 RMK 70003 SLP191 T01740152 57009 IEM_DS3505
ZGGG,2002-02-25 22:00,ZGGG 252200Z AUTO 12002KT 4SM 18/14 A3009 RMK T01800140 IEM_DS3505
ZGGG,2002-02-25 23:00,ZGGG 252300Z AUTO 00000KT 3SM 18/14 A3012 RMK T01800140 IEM_DS3505
ZGGG,2002-02-26 00:00,ZGGG 260000Z AUTO 07002KT 4SM 18/16 A3012 RMK SLP205 T01820158 52013 IEM_DS3505
ZGGG,2002-02-26 01:00,ZGGG 260100Z AUTO 18004KT 3SM 20/14 A3015 RMK T02000140 IEM_DS3505
ZGGG,2002-02-26 02:00,ZGGG 260200Z AUTO 22006KT 5SM 21/15 A3015 RMK T02100150 IEM_DS3505
ZGGG,2002-02-26 03:00,ZGGG 260300Z AUTO 16006KT 5SM 23/16 A3012 RMK SLP204 T02320160 54000 IEM_DS3505
ZGGG,2002-02-26 04:00,ZGGG 260400Z AUTO 20006KT 5SM 23/15 A3009 RMK T02300150 IEM_DS3505
ZGGG,2002-02-26 05:00,ZGGG 260500Z AUTO 16006KT 25/15 A3006 RMK T02500150 IEM_DS3505
ZGGG,2002-02-26 06:00,ZGGG 260600Z AUTO 29004KT 9SM 26/15 A3003 RMK SLP175 T02580153 57029 IEM_DS3505
ZGGG,2002-02-26 07:00,ZGGG 260700Z AUTO 16008KT 26/15 A3000 RMK T02600150 IEM_DS3505
ZGGG,2002-02-26 08:00,ZGGG 260800Z AUTO 17010KT 26/14 A3000 RMK T02600140 IEM_DS3505
ZGGG,2002-02-26 09:00,ZGGG 260900Z AUTO 14006KT 7SM 25/17 A2997 RMK SLP158 T02500172 57017 IEM_DS3505
ZGGG,2002-02-26 10:00,ZGGG 261000Z AUTO 15008KT 6SM 24/16 A3000 RMK T02400160 IEM_DS3505
ZGGG,2002-02-26 11:00,ZGGG 261100Z AUTO 15008KT 6SM 23/16 A3000 RMK T02300160 IEM_DS3505
ZGGG,2002-02-26 12:00,ZGGG 261200Z AUTO 18006KT 8SM 22/16 A3000 RMK SLP165 T02210164 52007 IEM_DS3505
ZGGG,2002-02-26 13:00,ZGGG 261300Z AUTO 16008KT 6SM 22/16 A3003 RMK T02200160 IEM_DS3505
ZGGG,2002-02-26 14:00,ZGGG 261400Z AUTO 16006KT 6SM 21/17 A3003 RMK T02100170 IEM_DS3505
ZGGG,2002-02-26 15:00,ZGGG 261500Z AUTO 16002KT 8SM 20/17 A3000 RMK SLP167 T02010172 52002 IEM_DS3505
ZGGG,2002-02-26 16:00,ZGGG 261600Z AUTO 18006KT 4SM 20/16 A3000 RMK T02000160 IEM_DS3505
ZGGG,2002-02-26 17:00,ZGGG 261700Z AUTO 20006KT 4SM 20/16 A3000 RMK T02000160 IEM_DS3505
ZGGG,2002-02-26 18:00,ZGGG 261800Z AUTO 16004KT 7SM 20/17 A3000 RMK SLP162 T02000171 57005 IEM_DS3505
ZGGG,2002-02-26 19:00,ZGGG 261900Z AUTO 22006KT 7SM 21/16 A3000 RMK T02100160 IEM_DS3505
ZGGG,2002-02-26 20:00,ZGGG 262000Z AUTO 16004KT 7SM 21/16 A2997 RMK T02100160 IEM_DS3505
ZGGG,2002-02-26 21:00,ZGGG 262100Z AUTO 09002KT 6SM 20/17 A3000 RMK SLP159 T02000174 57003 IEM_DS3505
ZGGG,2002-02-26 22:00,ZGGG 262200Z AUTO 00000KT 4SM 21/17 A3000 RMK T02100170 IEM_DS3505
ZGGG,2002-02-26 23:00,ZGGG 262300Z AUTO 11002KT 3SM 20/17 A3003 RMK T02000170 IEM_DS3505
ZGGG,2002-02-27 00:00,ZGGG 270000Z AUTO 11004KT 2 1/2SM 20/18 A3003 RMK SLP174 T01980179 52015 IEM_DS3505
ZGGG,2002-02-27 01:00,ZGGG 270100Z AUTO 13002KT 1 1/2SM 21/17 A3006 RMK T02100170 IEM_DS3505
ZGGG,2002-02-27 02:00,ZGGG 270200Z AUTO 14006KT 2SM 21/17 A3006 RMK T02100170 IEM_DS3505
ZGGG,2002-02-27 03:00,ZGGG 270300Z AUTO 09004KT 4SM 22/17 A3009 RMK SLP188 T02160171 52014 IEM_DS3505
ZGGG,2002-02-27 04:00,ZGGG 270400Z AUTO 10004KT 2 1/2SM 22/16 A3006 RMK T02200160 IEM_DS3505
ZGGG,2002-02-27 05:00,ZGGG 270500Z AUTO 14008KT 3SM 23/16 A3003 RMK T02300160 IEM_DS3505
ZGGG,2002-02-27 06:00,ZGGG 270600Z AUTO 16006KT 7SM 24/17 A2997 RMK SLP155 T02400166 57033 IEM_DS3505
ZGGG,2002-02-27 07:00,ZGGG 270700Z AUTO 17008KT 25/16 A2994 RMK T02500160 IEM_DS3505
ZGGG,2002-02-27 08:00,ZGGG 270800Z AUTO 17010KT 25/15 A2994 RMK T02500150 IEM_DS3505
ZGGG,2002-02-27 09:00,ZGGG 270900Z AUTO 14004KT 10SM 25/15 A2991 RMK SLP138 T02490152 57017 IEM_DS3505
ZGGG,2002-02-27 10:00,ZGGG 271000Z AUTO 17006KT 6SM 24/14 A2994 RMK T02400140 IEM_DS3505
ZGGG,2002-02-27 11:00,ZGGG 271100Z AUTO 17006KT 6SM 23/14 A2994 RMK T02300140 IEM_DS3505
ZGGG,2002-02-27 12:00,ZGGG 271200Z AUTO 18004KT 9SM 22/16 A2997 RMK SLP150 T02240158 52012 IEM_DS3505
ZGGG,2002-02-27 13:00,ZGGG 271300Z AUTO 17006KT 6SM 22/15 A2997 RMK T02200150 IEM_DS3505
ZGGG,2002-02-27 14:00,ZGGG 271400Z AUTO 16004KT 6SM 22/16 A3000 RMK T02200160 IEM_DS3505
ZGGG,2002-02-27 15:00,ZGGG 271500Z AUTO 00000KT 9SM 20/16 A3000 RMK SLP160 T01980162 52010 IEM_DS3505
ZGGG,2002-02-27 16:00,ZGGG 271600Z AUTO 00000KT 6SM 21/16 A3000 RMK T02100160 IEM_DS3505
ZGGG,2002-02-27 17:00,ZGGG 271700Z AUTO 00000KT 6SM 21/16 A3000 RMK T02100160 IEM_DS3505
ZGGG,2002-02-27 18:00,ZGGG 271800Z AUTO 09002KT 7SM 18/16 A2997 RMK SLP156 T01800162 57004 IEM_DS3505
ZGGG,2002-02-27 20:00,ZGGG 272000Z AUTO 00000KT 4SM 19/16 A2997 RMK T01900160 IEM_DS3505
ZGGG,2002-02-27 21:00,ZGGG 272100Z AUTO 09002KT 2 1/2SM 17/16 A2997 RMK SLP153 T01710159 57003 IEM_DS3505
ZGGG,2002-02-27 22:00,ZGGG 272200Z AUTO 00000KT 3SM 19/16 A3000 RMK T01900160 IEM_DS3505
ZGGG,2002-02-27 23:00,ZGGG 272300Z AUTO 00000KT 2SM 18/16 A3003 RMK T01800160 IEM_DS3505
ZGGG,2002-02-28 00:00,ZGGG 280000Z AUTO 09004KT 1SM 19/17 A3003 RMK SLP176 T01860171 52023 IEM_DS3505
ZGGG,2002-02-28 01:00,ZGGG 280100Z AUTO 19002KT 1SM 21/17 A3006 RMK T02100170 IEM_DS3505
ZGGG,2002-02-28 02:00,ZGGG 280200Z AUTO 19006KT 1 1/4SM 21/16 A3006 RMK T02100160 IEM_DS3505
ZGGG,2002-02-28 03:00,ZGGG 280300Z AUTO 18004KT 2SM 23/17 A3006 RMK SLP186 T02260173 52010 IEM_DS3505
ZGGG,2002-02-28 04:00,ZGGG 280400Z AUTO 16004KT 2 1/2SM 23/17 A3006 RMK T02300170 IEM_DS3505
ZGGG,2002-02-28 05:00,ZGGG 280500Z AUTO 17004KT 2 1/2SM 24/16 A3003 RMK T02400160 IEM_DS3505
ZGGG,2002-02-28 06:00,ZGGG 280600Z AUTO 18004KT 7SM 26/17 A3000 RMK SLP157 T02560166 57029 IEM_DS3505
ZGGG,2002-02-28 07:00,ZGGG 280700Z AUTO 16006KT 26/15 A2994 RMK T02600150 IEM_DS3505
ZGGG,2002-02-28 08:00,ZGGG 280800Z AUTO 15008KT 26/15 A2994 RMK T02600150 IEM_DS3505
ZGGG,2002-02-28 09:00,ZGGG 280900Z AUTO 18004KT 9SM 26/15 A2994 RMK SLP144 T02620154 57013 IEM_DS3505
ZGGG,2002-02-28 10:00,ZGGG 281000Z AUTO 16004KT 25/15 A2994 RMK T02500150 IEM_DS3505
ZGGG,2002-02-28 11:00,ZGGG 281100Z AUTO 17006KT 6SM 24/15 A2994 RMK T02400150 IEM_DS3505
ZGGG,2002-02-28 12:00,ZGGG 281200Z AUTO 18004KT 9SM 24/16 A2997 RMK SLP151 T02360165 52007 IEM_DS3505
ZGGG,2002-02-28 13:00,ZGGG 281300Z AUTO 16002KT 6SM 23/16 A2997 RMK T02300160 IEM_DS3505
ZGGG,2002-02-28 14:00,ZGGG 281400Z AUTO 16004KT 6SM 22/16 A3000 RMK T02200160 IEM_DS3505
ZGGG,2002-02-28 15:00,ZGGG 281500Z AUTO 07002KT 8SM 21/18 A3000 RMK SLP161 T02060175 52010 IEM_DS3505
ZGGG,2002-02-28 16:00,ZGGG 281600Z AUTO 00000KT 6SM 21/16 A3000 RMK T02100160 IEM_DS3505
ZGGG,2002-02-28 17:00,ZGGG 281700Z AUTO 00000KT 6SM 21/17 A3000 RMK T02100170 IEM_DS3505
ZGGG,2002-02-28 18:00,ZGGG 281800Z AUTO 00000KT 7SM 19/17 A3000 RMK SLP158 T01900174 57003 IEM_DS3505
ZGGG,2002-02-28 19:00,ZGGG 281900Z AUTO 00000KT 4SM 18/16 A2997 RMK T01800160 IEM_DS3505
ZGGG,2002-02-28 20:00,ZGGG 282000Z AUTO 00000KT 4SM 19/16 A3000 RMK T01900160 IEM_DS3505
ZGGG,2002-02-28 21:00,ZGGG 282100Z AUTO 00000KT 5SM 20/18 A3000 RMK SLP162 T02010182 52004 IEM_DS3505
ZGGG,2002-02-28 22:00,ZGGG 282200Z AUTO 00000KT 3SM 21/18 A3003 RMK T02100180 IEM_DS3505
ZGGG,2002-02-28 23:00,ZGGG 282300Z AUTO 00000KT 3SM 21/18 A3003 RMK T02100180 IEM_DS3505
ZGGG,2002-03-01 00:00,ZGGG 010000Z AUTO 09002KT 2SM 20/18 A3006 RMK SLP183 T02040185 52021 IEM_DS3505
ZGGG,2002-03-01 01:00,ZGGG 010100Z AUTO 10004KT 2SM 22/18 A3009 RMK T02200180 IEM_DS3505
ZGGG,2002-03-01 02:00,ZGGG 010200Z AUTO 11006KT 2 1/2SM 23/18 A3009 RMK T02300180 IEM_DS3505
ZGGG,2002-03-01 03:00,ZGGG 010300Z AUTO 16004KT 6SM 24/18 A3009 RMK SLP191 T02430178 52008 IEM_DS3505
ZGGG,2002-03-01 04:00,ZGGG 010400Z AUTO 14006KT 3SM 24/17 A3006 RMK T02400170 IEM_DS3505
ZGGG,2002-03-01 05:00,ZGGG 010500Z AUTO 16006KT 24/17 A3003 RMK T02400170 IEM_DS3505
ZGGG,2002-03-01 06:00,ZGGG 010600Z AUTO 20008KT 11SM 26/16 A3000 RMK SLP163 T02570158 57028 IEM_DS3505
ZGGG,2002-03-01 07:00,ZGGG 010700Z AUTO 17008KT 5SM 26/17 A2997 RMK T02600170 IEM_DS3505
ZGGG,2002-03-01 08:00,ZGGG 010800Z AUTO 16008KT 6SM 26/14 A2994 RMK T02600140 IEM_DS3505
ZGGG,2002-03-01 09:00,ZGGG 010900Z AUTO 20008KT 12SM 26/16 A2997 RMK SLP149 T02640157 57014 IEM_DS3505
ZGGG,2002-03-01 10:00,ZGGG 011000Z AUTO 15006KT 6SM 25/14 A2997 RMK T02500140 IEM_DS3505
ZGGG,2002-03-01 11:00,ZGGG 011100Z AUTO 17006KT 6SM 24/16 A2997 RMK T02400160 IEM_DS3505
ZGGG,2002-03-01 12:00,ZGGG 011200Z AUTO 16006KT 12SM 23/17 A3000 RMK SLP160 T02330174 52011 IEM_DS3505
ZGGG,2002-03-01 13:00,ZGGG 011300Z AUTO 16006KT 6SM 23/17 A3000 RMK T02300170 IEM_DS3505
ZGGG,2002-03-01 14:00,ZGGG 011400Z AUTO 16006KT 6SM 22/17 A3000 RMK T02200170 IEM_DS3505
ZGGG,2002-03-01 15:00,ZGGG 011500Z AUTO 18004KT 9SM 21/18 A3000 RMK SLP166 T02130176 52006 IEM_DS3505
ZGGG,2002-03-01 16:00,ZGGG 011600Z AUTO 16004KT 6SM 21/17 A3000 RMK T02100170 IEM_DS3505
ZGGG,2002-03-01 17:00,ZGGG 011700Z AUTO 16004KT 6SM 21/17 A3000 RMK T02100170 IEM_DS3505
ZGGG,2002-03-01 18:00,ZGGG 011800Z AUTO 07002KT 5SM 20/18 A3000 RMK SLP160 T01980179 57006 IEM_DS3505
ZGGG,2002-03-01 19:00,ZGGG 011900Z AUTO 00000KT 6SM 19/16 A3000 RMK T01900160 IEM_DS3505
ZGGG,2002-03-01 20:00,ZGGG 012000Z AUTO 00000KT 4SM 18/17 A2997 RMK T01800170 IEM_DS3505
ZGGG,2002-03-01 21:00,ZGGG 012100Z AUTO 00000KT 2SM 18/17 A2997 RMK SLP157 T01850172 57003 IEM_DS3505
ZGGG,2002-03-01 22:00,ZGGG 012200Z AUTO 07002KT 3SM 18/17 A3000 RMK T01800170 IEM_DS3505
ZGGG,2002-03-01 23:00,ZGGG 012300Z AUTO 00000KT 2SM 19/17 A3006 RMK T01900170 IEM_DS3505
ZGGG,2002-03-02 00:00,ZGGG 020000Z AUTO 07002KT 6SM 19/17 A3006 RMK SLP184 T01920174 52027 IEM_DS3505
ZGGG,2002-03-02 01:00,ZGGG 020100Z AUTO 03002KT 2 1/2SM 21/17 A3009 RMK T02100170 IEM_DS3505
ZGGG,2002-03-02 02:00,ZGGG 020200Z AUTO 34002KT 2 1/2SM 22/17 A3009 RMK T02200170 IEM_DS3505
ZGGG,2002-03-02 03:00,ZGGG 020300Z AUTO 11002KT 9SM 24/17 A3009 RMK SLP191 T02350171 52007 IEM_DS3505
ZGGG,2002-03-02 04:00,ZGGG 020400Z AUTO 08002KT 1 1/4SM 23/17 A3006 RMK T02300170 IEM_DS3505
ZGGG,2002-03-02 05:00,ZGGG 020500Z AUTO 15006KT 3SM 24/16 A3003 RMK T02400160 IEM_DS3505
ZGGG,2002-03-02 06:00,ZGGG 020600Z AUTO 14006KT 10SM 26/16 A3000 RMK SLP159 T02600159 57032 IEM_DS3505
ZGGG,2002-03-02 07:00,ZGGG 020700Z AUTO 14006KT 3SM 26/15 A2997 RMK T02600150 IEM_DS3505
ZGGG,2002-03-02 08:00,ZGGG 020800Z AUTO 16006KT 3SM 26/16 A2994 RMK T02600160 IEM_DS3505
ZGGG,2002-03-02 09:00,ZGGG 020900Z AUTO 16002KT 11SM 26/16 A2994 RMK SLP144 T02560158 57015 IEM_DS3505
ZGGG,2002-03-02 10:00,ZGGG 021000Z AUTO 15004KT 25/16 A2994 RMK T02500160 IEM_DS3505
ZGGG,2002-03-02 11:00,ZGGG 021100Z AUTO 14004KT 24/16 A2997 RMK T02400160 IEM_DS3505
ZGGG,2002-03-02 12:00,ZGGG 021200Z AUTO 00000KT 9SM 22/17 A2997 RMK SLP154 T02250174 52010 IEM_DS3505
ZGGG,2002-03-02 13:00,ZGGG 021300Z AUTO 00000KT 23/17 A3000 RMK T02300170 IEM_DS3505
ZGGG,2002-03-02 14:00,ZGGG 021400Z AUTO 00000KT 23/17 A3000 RMK T02300170 IEM_DS3505
ZGGG,2002-03-02 15:00,ZGGG 021500Z AUTO 00000KT 7SM 21/18 A3000 RMK SLP165 T02100178 52011 IEM_DS3505
ZGGG,2002-03-02 16:00,ZGGG 021600Z AUTO 00000KT 4SM 22/17 A3000 RMK T02200170 IEM_DS3505
ZGGG,2002-03-02 17:00,ZGGG 021700Z AUTO 00000KT 3SM 21/17 A3000 RMK T02100170 IEM_DS3505
ZGGG,2002-03-02 18:00,ZGGG 021800Z AUTO 00000KT 2 1/2SM 19/17 A3000 RMK SLP163 T01930173 57002 IEM_DS3505
ZGGG,2002-03-02 19:00,ZGGG 021900Z AUTO 00000KT 3SM 19/17 A3000 RMK T01900170 IEM_DS3505
ZGGG,2002-03-02 20:00,ZGGG 022000Z AUTO 00000KT 3SM 19/17 A3000 RMK T01900170 IEM_DS3505
ZGGG,2002-03-02 21:00,ZGGG 022100Z AUTO 00000KT 2 1/2SM 19/18 A3000 RMK SLP162 T01930175 57001 IEM_DS3505
ZGGG,2002-03-02 22:00,ZGGG 022200Z AUTO 00000KT 2 1/2SM 19/17 A3000 RMK T01900170 IEM_DS3505
ZGGG,2002-03-02 23:00,ZGGG 022300Z AUTO 00000KT 2SM 19/17 A3003 RMK T01900170 IEM_DS3505
ZGGG,2002-03-03 00:00,ZGGG 030000Z AUTO 00000KT 4SM 20/18 A3006 RMK SLP178 T01980182 52016 IEM_DS3505
ZGGG,2002-03-03 01:00,ZGGG 030100Z AUTO 00000KT 1 1/4SM 22/18 A3006 RMK T02200180 IEM_DS3505
ZGGG,2002-03-03 02:00,ZGGG 030200Z AUTO 17006KT 1 1/4SM 22/17 A3009 RMK T02200170 IEM_DS3505
ZGGG,2002-03-03 03:00,ZGGG 030300Z AUTO 14006KT 2SM 24/18 A3006 RMK SLP186 T02390184 52008 IEM_DS3505
ZGGG,2002-03-03 04:00,ZGGG 030400Z AUTO 17008KT 2SM 25/17 A3003 RMK T02500170 IEM_DS3505
ZGGG,2002-03-03 05:00,ZGGG 030500Z AUTO 15006KT 2SM 26/17 A3000 RMK T02600170 IEM_DS3505
ZGGG,2002-03-03 06:00,ZGGG 030600Z AUTO 20006KT 5SM 27/17 A2997 RMK SLP156 T02660172 57030 IEM_DS3505
ZGGG,2002-03-03 07:00,ZGGG 030700Z AUTO 20008KT 5SM 27/16 A2994 RMK T02700160 IEM_DS3505
ZGGG,2002-03-03 08:00,ZGGG 030800Z AUTO 21008KT 5SM 27/16 A2994 RMK T02700160 IEM_DS3505
ZGGG,2002-03-03 09:00,ZGGG 030900Z AUTO 16006KT 7SM 26/16 A2994 RMK SLP144 T02610155 57012 IEM_DS3505
ZGGG,2002-03-03 10:00,ZGGG 031000Z AUTO 16008KT 5SM 25/13 A2994 RMK T02500130 IEM_DS3505
ZGGG,2002-03-03 11:00,ZGGG 031100Z AUTO 16006KT 5SM 24/14 A2997 RMK T02400140 IEM_DS3505
ZGGG,2002-03-03 12:00,ZGGG 031200Z AUTO 18008KT 7SM 22/17 A3000 RMK SLP163 T02230168 52019 IEM_DS3505
ZGGG,2002-03-03 13:00,ZGGG 031300Z AUTO 16006KT 6SM 22/16 A3000 RMK T02200160 IEM_DS3505
ZGGG,2002-03-03 14:00,ZGGG 031400Z AUTO 17008KT 7SM 21/17 A3006 RMK T02100170 IEM_DS3505
ZGGG,2002-03-03 15:00,ZGGG 031500Z AUTO 20006KT 9SM 20/17 A3006 RMK SLP179 T02050167 52016 IEM_DS3505
ZGGG,2002-03-03 16:00,ZGGG 031600Z AUTO 17012KT 6SM 21/16 A3006 RMK T02100160 IEM_DS3505
ZGGG,2002-03-03 17:00,ZGGG 031700Z AUTO 15010KT 6SM 21/16 A3003 RMK T02100160 IEM_DS3505
ZGGG,2002-03-03 18:00,ZGGG 031800Z AUTO 11006KT 8SM 20/16 A3003 RMK SLP176 T02010161 57003 IEM_DS3505
ZGGG,2002-03-03 19:00,ZGGG 031900Z AUTO 09004KT 6SM 20/16 A3003 RMK T02000160 IEM_DS3505
ZGGG,2002-03-03 20:00,ZGGG 032000Z AUTO 13002KT 6SM 20/16 A3003 RMK T02000160 IEM_DS3505
ZGGG,2002-03-03 21:00,ZGGG 032100Z AUTO 14002KT 7SM 20/16 A3003 RMK SLP170 T01960165 57006 IEM_DS3505
ZGGG,2002-03-03 22:00,ZGGG 032200Z AUTO 36002KT 4SM 19/16 A3003 RMK T01900160 IEM_DS3505
ZGGG,2002-03-03 23:00,ZGGG 032300Z AUTO 00000KT 3SM 19/16 A3006 RMK T01900160 IEM_DS3505
ZGGG,2002-03-04 00:00,ZGGG 040000Z AUTO 11004KT 7SM 20/17 A3006 RMK SLP183 T01970166 52013 IEM_DS3505
ZGGG,2002-03-04 01:00,ZGGG 040100Z AUTO 15006KT 3SM 21/16 A3009 RMK T02100160 IEM_DS3505
ZGGG,2002-03-04 02:00,ZGGG 040200Z AUTO 15004KT 7SM 22/16 A3009 RMK T02200160 IEM_DS3505
ZGGG,2002-03-04 03:00,ZGGG 040300Z AUTO 16006KT 7SM 23/16 A3006 RMK SLP187 T02310160 52004 IEM_DS3505
ZGGG,2002-03-04 04:00,ZGGG 040400Z AUTO 19008KT 5SM 24/16 A3003 RMK T02400160 IEM_DS3505
ZGGG,2002-03-04 05:00,ZGGG 040500Z AUTO 21010KT 25/16 A3003 RMK T02500160 IEM_DS3505
ZGGG,2002-03-04 06:00,ZGGG 040600Z AUTO 00000KT 7SM 24/16 A2997 RMK SLP156 T02420164 57031 IEM_DS3505
ZGGG,2002-03-04 07:00,ZGGG 040700Z AUTO 18006KT 24/17 A2994 RMK T02400170 IEM_DS3505
ZGGG,2002-03-04 08:00,ZGGG 040800Z AUTO 17006KT 25/17 A2994 RMK T02500170 IEM_DS3505
ZGGG,2002-03-04 09:00,ZGGG 040900Z AUTO 22006KT 8SM 25/17 A2994 RMK SLP139 T02520169 57017 IEM_DS3505
ZGGG,2002-03-04 10:00,ZGGG 041000Z AUTO 21008KT 24/16 A2994 RMK T02400160 IEM_DS3505
ZGGG,2002-03-04 11:00,ZGGG 041100Z AUTO 17006KT 23/16 A2994 RMK T02300160 IEM_DS3505
ZGGG,2002-03-04 12:00,ZGGG 041200Z AUTO 18002KT 9SM 23/17 A2997 RMK SLP153 T02330168 52014 IEM_DS3505
ZGGG,2002-03-04 13:00,ZGGG 041300Z AUTO 20008KT 23/17 A3000 RMK T02300170 IEM_DS3505
ZGGG,2002-03-04 14:00,ZGGG 041400Z AUTO 21008KT 6SM 22/16 A3000 RMK T02200160 IEM_DS3505
ZGGG,2002-03-04 15:00,ZGGG 041500Z AUTO 14002KT 9SM 22/18 A3000 RMK SLP164 T02230175 52011 IEM_DS3505
ZGGG,2002-03-04 16:00,ZGGG 041600Z AUTO 17008KT 6SM 22/16 A3000 RMK T02200160 IEM_DS3505
ZGGG,2002-03-04 17:00,ZGGG 041700Z AUTO 6SM 22/16 A3000 RMK T02200160 IEM_DS3505
ZGGG,2002-03-04 18:00,ZGGG 041800Z AUTO 11002KT 7SM 21/17 A2997 RMK SLP156 T02100169 57008 IEM_DS3505
ZGGG,2002-03-04 19:00,ZGGG 041900Z AUTO 19004KT 6SM 21/16 A2997 RMK T02100160 IEM_DS3505
ZGGG,2002-03-04 20:00,ZGGG 042000Z AUTO 17004KT 4SM 21/16 A2997 RMK T02100160 IEM_DS3505
ZGGG,2002-03-04 21:00,ZGGG 042100Z AUTO 00000KT 5SM 19/17 A2997 RMK SLP147 T01940171 57009 IEM_DS3505
ZGGG,2002-03-04 22:00,ZGGG 042200Z AUTO 12002KT 2 1/2SM 19/16 A2997 RMK T01900160 IEM_DS3505
ZGGG,2002-03-04 23:00,ZGGG 042300Z AUTO 00000KT 2SM 20/17 A2997 RMK T02000170 IEM_DS3505
ZGGG,2002-03-05 00:00,ZGGG 050000Z AUTO 36002KT 2SM 20/18 A3003 RMK SLP169 T01970176 52022 IEM_DS3505
ZGGG,2002-03-05 01:00,ZGGG 050100Z AUTO 02002KT 1 1/2SM 21/17 A3003 RMK T02100170 IEM_DS3505
ZGGG,2002-03-05 02:00,ZGGG 050200Z AUTO 04004KT 1 1/2SM 22/17 A3003 RMK T02200170 IEM_DS3505
ZGGG,2002-03-05 03:00,ZGGG 050300Z AUTO 32006KT 3SM 24/18 A3006 RMK SLP176 T02450175 52007 IEM_DS3505
ZGGG,2002-03-05 04:00,ZGGG 050400Z AUTO 36010KT 2 1/2SM 22/14 A3003 RMK T02200140 IEM_DS3505
ZGGG,2002-03-05 05:00,ZGGG 050500Z AUTO 03016KT 18/11 A3006 RMK T01800110 IEM_DS3505
ZGGG,2002-03-05 06:00,ZGGG 050600Z AUTO 36008KT 9SM 17/10 A3006 RMK SLP173 T01700100 57004 IEM_DS3505
ZGGG,2002-03-05 07:00,ZGGG 050700Z AUTO 36014G25KT 7SM 14/08 A3003 RMK T01400080 IEM_DS3505
ZGGG,2002-03-05 08:00,ZGGG 050800Z AUTO 01016G25KT 6SM 14/08 A3006 RMK T01400080 IEM_DS3505
ZGGG,2002-03-05 09:00,ZGGG 050900Z AUTO 36010G23KT 10SM 14/08 A3006 RMK SLP182 T01390083 52009 IEM_DS3505
ZGGG,2002-03-05 10:00,ZGGG 051000Z AUTO 36014G23KT 7SM 13/07 A3009 RMK T01300070 IEM_DS3505
ZGGG,2002-03-05 11:00,ZGGG 051100Z AUTO 36016KT 7SM 12/06 A3009 RMK T01200060 IEM_DS3505
ZGGG,2002-03-05 12:00,ZGGG 051200Z AUTO 02002KT 10SM 13/08 A3012 RMK SLP201 T01260077 52019 IEM_DS3505
ZGGG,2002-03-05 13:00,ZGGG 051300Z AUTO 36010KT 6SM 12/06 A3015 RMK T01200060 IEM_DS3505
ZGGG,2002-03-05 14:00,ZGGG 051400Z AUTO 36010KT 6SM 12/06 A3018 RMK T01200060 IEM_DS3505
ZGGG,2002-03-05 15:00,ZGGG 051500Z AUTO 02006KT 11SM 11/06 A3018 RMK SLP220 T01140063 52019 IEM_DS3505
ZGGG,2002-03-05 16:00,ZGGG 051600Z AUTO 36010KT 6SM 12/05 A3018 RMK T01200050 IEM_DS3505
ZGGG,2002-03-05 17:00,ZGGG 051700Z AUTO 36008KT 6SM 12/06 A3021 RMK T01200060 IEM_DS3505
ZGGG,2002-03-05 18:00,ZGGG 051800Z AUTO 36006KT 9SM 12/06 A3018 RMK SLP221 T01220063 54000 IEM_DS3505
ZGGG,2002-03-05 19:00,ZGGG 051900Z AUTO 02010KT 6SM 12/05 A3018 RMK T01200050 IEM_DS3505
ZGGG,2002-03-05 20:00,ZGGG 052000Z AUTO 01012KT 6SM 12/05 A3018 RMK T01200050 IEM_DS3505
ZGGG,2002-03-05 21:00,ZGGG 052100Z AUTO 36004KT 13SM 11/04 A3018 RMK SLP216 T01090042 57005 IEM_DS3505
ZGGG,2002-03-05 22:00,ZGGG 052200Z AUTO 01012KT 6SM 12/03 A3018 RMK T01200030 IEM_DS3505
ZGGG,2002-03-05 23:00,ZGGG 052300Z AUTO 01012KT 6SM 11/02 A3021 RMK T01100020 IEM_DS3505
ZGGG,2002-03-06 00:00,ZGGG 060000Z AUTO 07006KT 12SM 12/02 A3027 RMK SLP246 T01180023 52030 IEM_DS3505
ZGGG,2002-03-06 01:00,ZGGG 060100Z AUTO 01012KT 6SM 12/03 A3027 RMK T01200030 IEM_DS3505
ZGGG,2002-03-06 02:00,ZGGG 060200Z AUTO 03017KT 6SM 14/01 A3027 RMK T01400010 IEM_DS3505
ZGGG,2002-03-06 03:00,ZGGG 060300Z AUTO 04008KT 14SM 16/01 A3027 RMK SLP247 T01590009 52001 IEM_DS3505
ZGGG,2002-03-06 04:00,ZGGG 060400Z AUTO 03014KT 6SM 17/M01 A3024 RMK T01701010 IEM_DS3505
ZGGG,2002-03-06 05:00,ZGGG 060500Z AUTO 03014KT 6SM 17/M01 A3021 RMK T01701010 IEM_DS3505
ZGGG,2002-03-06 06:00,ZGGG 060600Z AUTO 34006KT 15SM 18/M01 A3018 RMK SLP215 T01821007 57031 IEM_DS3505
ZGGG,2002-03-06 07:00,ZGGG 060700Z AUTO 01012KT 6SM 18/M02 A3015 RMK T01801020 IEM_DS3505
ZGGG,2002-03-06 08:00,ZGGG 060800Z AUTO 01012KT 6SM 18/M03 A3012 RMK T01801030 IEM_DS3505
ZGGG,2002-03-06 09:00,ZGGG 060900Z AUTO 09006KT 13SM 19/01 A3012 RMK SLP205 T01870010 57010 IEM_DS3505
ZGGG,2002-03-06 10:00,ZGGG 061000Z AUTO 36008KT 6SM 17/01 A3015 RMK T01700010 IEM_DS3505
ZGGG,2002-03-06 11:00,ZGGG 061100Z AUTO 36006KT 6SM 17/00 A3015 RMK T01700000 IEM_DS3505
ZGGG,2002-03-06 12:00,ZGGG 061200Z AUTO 34008KT 12SM 16/03 A3018 RMK SLP218 T01620027 52012 IEM_DS3505
ZGGG,2002-03-06 13:00,ZGGG 061300Z AUTO 01006KT 6SM 17/00 A3021 RMK T01700000 IEM_DS3505
ZGGG,2002-03-06 14:00,ZGGG 061400Z AUTO 01008KT 6SM 17/01 A3021 RMK T01700010 IEM_DS3505
ZGGG,2002-03-06 15:00,ZGGG 061500Z AUTO 34006KT 12SM 15/03 A3021 RMK SLP231 T01530032 52014 IEM_DS3505
ZGGG,2002-03-06 16:00,ZGGG 061600Z AUTO 04006KT 6SM 13/03 A3021 RMK T01300030 IEM_DS3505
ZGGG,2002-03-06 17:00,ZGGG 061700Z AUTO 02006KT 6SM 14/03 A3021 RMK T01400030 IEM_DS3505
ZGGG,2002-03-06 18:00,ZGGG 061800Z AUTO 34002KT 9SM 13/03 A3018 RMK SLP225 T01280031 57006 IEM_DS3505
ZGGG,2002-03-06 19:00,ZGGG 061900Z AUTO 05006KT 6SM 11/03 A3018 RMK T01100030 IEM_DS3505
ZGGG,2002-03-06 20:00,ZGGG 062000Z AUTO 06004KT 6SM 12/01 A3018 RMK T01200010 IEM_DS3505
ZGGG,2002-03-06 21:00,ZGGG 062100Z AUTO 00000KT 8SM 10/02 A3018 RMK SLP219 T01040018 57007 IEM_DS3505
ZGGG,2002-03-06 22:00,ZGGG 062200Z AUTO 04010KT 6SM 09/02 A3018 RMK T00900020 IEM_DS3505
ZGGG,2002-03-06 23:00,ZGGG 062300Z AUTO 02008KT 6SM 12/00 A3021 RMK T01200000 IEM_DS3505
ZGGG,2002-03-07 00:00,ZGGG 070000Z AUTO 36004KT 11SM 13/01 A3021 RMK SLP236 T01260006 52017 IEM_DS3505
ZGGG,2002-03-07 01:00,ZGGG 070100Z AUTO 02006KT 6SM 14/M01 A3027 RMK T01401010 IEM_DS3505
ZGGG,2002-03-07 02:00,ZGGG 070200Z AUTO 02010KT 6SM 16/M02 A3027 RMK T01601020 IEM_DS3505
ZGGG,2002-03-07 03:00,ZGGG 070300Z AUTO 14004KT 12SM 19/M02 A3024 RMK SLP241 T01861019 52006 IEM_DS3505
ZGGG,2002-03-07 04:00,ZGGG 070400Z AUTO 01004KT 6SM 19/M02 A3024 RMK T01901020 IEM_DS3505
ZGGG,2002-03-07 05:00,ZGGG 070500Z AUTO 36004KT 6SM 21/M03 A3018 RMK T02101030 IEM_DS3505
ZGGG,2002-03-07 06:00,ZGGG 070600Z AUTO 07002KT 14SM 23/M02 A3015 RMK SLP214 T02291022 57027 IEM_DS3505
ZGGG,2002-03-07 07:00,ZGGG 070700Z AUTO 32004KT 6SM 22/M04 A3012 RMK T02201040 IEM_DS3505
ZGGG,2002-03-07 08:00,ZGGG 070800Z AUTO 26006KT 6SM 22/M04 A3012 RMK T02201040 IEM_DS3505
ZGGG,2002-03-07 09:00,ZGGG 070900Z AUTO 27002KT 12SM 22/01 A3012 RMK SLP202 T02220012 57012 IEM_DS3505
ZGGG,2002-03-07 10:00,ZGGG 071000Z AUTO 29002KT 6SM 22/M04 A3015 RMK T02201040 IEM_DS3505
ZGGG,2002-03-07 11:00,ZGGG 071100Z AUTO 22004KT 6SM 21/M02 A3015 RMK T02101020 IEM_DS3505
ZGGG,2002-03-07 12:00,ZGGG 071200Z AUTO 29002KT 10SM 20/03 A3018 RMK SLP221 T01970034 52019 IEM_DS3505
ZGGG,2002-03-07 13:00,ZGGG 071300Z AUTO 16004KT 19/01 A3018 RMK T01900010 IEM_DS3505
ZGGG,2002-03-07 14:00,ZGGG 071400Z AUTO 00000KT 18/03 A3018 RMK T01800030 IEM_DS3505
ZGGG,2002-03-07 15:00,ZGGG 071500Z AUTO 09004KT 9SM 18/07 A3018 RMK SLP227 T01770066 52006 IEM_DS3505
ZGGG,2002-03-07 16:00,ZGGG 071600Z AUTO 00000KT 18/05 A3021 RMK T01800050 IEM_DS3505
ZGGG,2002-03-07 17:00,ZGGG 071700Z AUTO 00000KT 18/04 A3021 RMK T01800040 IEM_DS3505
ZGGG,2002-03-07 18:00,ZGGG 071800Z AUTO 00000KT 9SM 15/09 A3021 RMK SLP226 T01540092 57001 IEM_DS3505
ZGGG,2002-03-07 19:00,ZGGG 071900Z AUTO 00000KT 14/07 A3021 RMK T01400070 IEM_DS3505
ZGGG,2002-03-07 20:00,ZGGG 072000Z AUTO 00000KT 15/07 A3018 RMK T01500070 IEM_DS3505
ZGGG,2002-03-07 21:00,ZGGG 072100Z AUTO 07002KT 9SM 13/09 A3018 RMK SLP224 T01290091 57002 IEM_DS3505
ZGGG,2002-03-07 22:00,ZGGG 072200Z AUTO 00000KT 2 1/2SM 12/07 A3021 RMK T01200070 IEM_DS3505
ZGGG,2002-03-07 23:00,ZGGG 072300Z AUTO 00000KT 2SM 12/06 A3024 RMK T01200060 IEM_DS3505
ZGGG,2002-03-08 00:00,ZGGG 080000Z AUTO 00000KT 7SM 14/10 A3024 RMK SLP243 T01400095 52019 IEM_DS3505
ZGGG,2002-03-08 01:00,ZGGG 080100Z AUTO 03004KT 2SM 18/08 A3027 RMK T01800080 IEM_DS3505
ZGGG,2002-03-08 02:00,ZGGG 080200Z AUTO 15002KT 3SM 20/04 A3027 RMK T02000040 IEM_DS3505
ZGGG,2002-03-08 03:00,ZGGG 080300Z AUTO 11006KT 9SM 22/05 A3027 RMK SLP249 T02200054 52006 IEM_DS3505
ZGGG,2002-03-08 04:00,ZGGG 080400Z AUTO 03004KT 24/03 A3024 RMK T02400030 IEM_DS3505
ZGGG,2002-03-08 05:00,ZGGG 080500Z AUTO 13008KT 5SM 25/M02 A3021 RMK T02501020 IEM_DS3505
ZGGG,2002-03-08 06:00,ZGGG 080600Z AUTO 16006KT 11SM 25/02 A3018 RMK SLP222 T02540022 57027 IEM_DS3505
ZGGG,2002-03-08 07:00,ZGGG 080700Z AUTO 11008KT 25/01 A3015 RMK T02500010 IEM_DS3505
ZGGG,2002-03-08 08:00,ZGGG 080800Z AUTO 16006KT 5SM 25/01 A3015 RMK T02500010 IEM_DS3505
ZGGG,2002-03-08 09:00,ZGGG 080900Z AUTO 22006KT 10SM 23/04 A3015 RMK SLP212 T02340041 57010 IEM_DS3505
ZGGG,2002-03-08 10:00,ZGGG 081000Z AUTO 17010KT 6SM 22/00 A3015 RMK T02200000 IEM_DS3505
ZGGG,2002-03-08 11:00,ZGGG 081100Z AUTO 16008KT 6SM 22/01 A3018 RMK T02200010 IEM_DS3505
ZGGG,2002-03-08 12:00,ZGGG 081200Z AUTO 14002KT 10SM 21/06 A3021 RMK SLP232 T02100058 52020 IEM_DS3505
ZGGG,2002-03-08 13:00,ZGGG 081300Z AUTO 21006KT 7SM 20/05 A3024 RMK T02000050 IEM_DS3505
ZGGG,2002-03-08 14:00,ZGGG 081400Z AUTO 00000KT 6SM 20/04 A3024 RMK T02000040 IEM_DS3505
ZGGG,2002-03-08 15:00,ZGGG 081500Z AUTO 00000KT 9SM 20/09 A3024 RMK SLP243 T01990086 52011 IEM_DS3505
ZGGG,2002-03-08 16:00,ZGGG 081600Z AUTO 00000KT 6SM 17/09 A3024 RMK T01700090 IEM_DS3505
ZGGG,2002-03-08 17:00,ZGGG 081700Z AUTO 01004KT 6SM 18/09 A3024 RMK T01800090 IEM_DS3505
ZGGG,2002-03-08 18:00,ZGGG 081800Z AUTO 09002KT 8SM 19/10 A3021 RMK SLP231 T01860098 57011 IEM_DS3505
ZGGG,2002-03-08 19:00,ZGGG 081900Z AUTO 00000KT 6SM 18/09 A3021 RMK T01800090 IEM_DS3505
ZGGG,2002-03-08 20:00,ZGGG 082000Z AUTO 05004KT 18/10 A3018 RMK T01800100 IEM_DS3505
ZGGG,2002-03-08 21:00,ZGGG 082100Z AUTO 00000KT 8SM 18/09 A3018 RMK SLP220 T01800092 57011 IEM_DS3505
ZGGG,2002-03-08 22:00,ZGGG 082200Z AUTO 02006KT 6SM 18/06 A3018 RMK T01800060 IEM_DS3505
ZGGG,2002-03-08 23:00,ZGGG 082300Z AUTO 03006KT 7SM 17/07 A3021 RMK T01700070 IEM_DS3505
ZGGG,2002-03-09 00:00,ZGGG 090000Z AUTO 00000KT 9SM 18/09 A3021 RMK SLP236 T01790089 52015 IEM_DS3505
ZGGG,2002-03-09 01:00,ZGGG 090100Z AUTO 06004KT 18/07 A3024 RMK T01800070 IEM_DS3505
ZGGG,2002-03-09 02:00,ZGGG 090200Z AUTO 03002KT 10SM 20/06 A3024 RMK T02000060 IEM_DS3505
ZGGG,2002-03-09 03:00,ZGGG 090300Z AUTO 14006KT 10SM 22/08 A3024 RMK SLP238 T02150076 52002 IEM_DS3505
ZGGG,2002-03-09 04:00,ZGGG 090400Z AUTO 28004KT 21/08 A3021 RMK T02100080 IEM_DS3505
ZGGG,2002-03-09 05:00,ZGGG 090500Z AUTO 27002KT 3SM 21/07 A3018 RMK T02100070 IEM_DS3505
ZGGG,2002-03-09 06:00,ZGGG 090600Z AUTO 16006KT 7SM 22/09 A3015 RMK SLP211 T02180089 57026 IEM_DS3505
ZGGG,2002-03-09 07:00,ZGGG 090700Z AUTO 17002KT 22/09 A3012 RMK T02200090 IEM_DS3505
ZGGG,2002-03-09 08:00,ZGGG 090800Z AUTO 14004KT 23/12 A3012 RMK T02300120 IEM_DS3505
ZGGG,2002-03-09 09:00,ZGGG 090900Z AUTO 14004KT 9SM 23/12 A3012 RMK SLP198 T02260125 57013 IEM_DS3505
ZGGG,2002-03-09 10:00,ZGGG 091000Z AUTO 14004KT 22/12 A3012 RMK T02200120 IEM_DS3505
ZGGG,2002-03-09 11:00,ZGGG 091100Z AUTO 16002KT 5SM 22/13 A3012 RMK T02200130 IEM_DS3505
ZGGG,2002-03-09 12:00,ZGGG 091200Z AUTO 11004KT 9SM 21/14 A3012 RMK SLP206 T02130143 52007 IEM_DS3505
ZGGG,2002-03-09 13:00,ZGGG 091300Z AUTO 00000KT 5SM 22/13 A3015 RMK T02200130 IEM_DS3505
ZGGG,2002-03-09 14:00,ZGGG 091400Z AUTO 16002KT 5SM 21/13 A3015 RMK T02100130 IEM_DS3505
ZGGG,2002-03-09 15:00,ZGGG 091500Z AUTO 11002KT 9SM 21/15 A3018 RMK SLP217 T02070150 52012 IEM_DS3505
ZGGG,2002-03-09 16:00,ZGGG 091600Z AUTO 00000KT 7SM 21/14 A3015 RMK T02100140 IEM_DS3505
ZGGG,2002-03-09 17:00,ZGGG 091700Z AUTO 00000KT 20/14 A3015 RMK T02000140 IEM_DS3505
ZGGG,2002-03-09 18:00,ZGGG 091800Z AUTO 09004KT 8SM 19/16 A3015 RMK SLP212 T01940155 57005 IEM_DS3505
ZGGG,2002-03-09 19:00,ZGGG 091900Z AUTO 00000KT 4SM 19/14 A3015 RMK T01900140 IEM_DS3505
ZGGG,2002-03-09 20:00,ZGGG 092000Z AUTO 00000KT 4SM 19/14 A3012 RMK T01900140 IEM_DS3505
ZGGG,2002-03-09 21:00,ZGGG 092100Z AUTO 00000KT 8SM 17/15 A3012 RMK SLP203 T01740154 57009 IEM_DS3505
ZGGG,2002-03-09 22:00,ZGGG 092200Z AUTO 00000KT 4SM 18/14 A3012 RMK T01800140 IEM_DS3505
ZGGG,2002-03-09 23:00,ZGGG 092300Z AUTO 00000KT 2 1/2SM 18/14 A3015 RMK T01800140 IEM_DS3505
ZGGG,2002-03-10 00:00,ZGGG 100000Z AUTO 00000KT 9SM 19/16 A3018 RMK SLP219 T01920158 52015 IEM_DS3505
ZGGG,2002-03-10 01:00,ZGGG 100100Z AUTO 12006KT 5SM 21/14 A3018 RMK T02100140 IEM_DS3505
ZGGG,2002-03-10 02:00,ZGGG 100200Z AUTO 12006KT 6SM 23/15 A3018 RMK T02300150 IEM_DS3505
ZGGG,2002-03-10 03:00,ZGGG 100300Z AUTO 09006KT 9SM 24/16 A3015 RMK SLP216 T02410157 57002 IEM_DS3505
ZGGG,2002-03-10 04:00,ZGGG 100400Z AUTO 14006KT 7SM 24/14 A3012 RMK T02400140 IEM_DS3505
ZGGG,2002-03-10 05:00,ZGGG 100500Z AUTO 15006KT 7SM 25/14 A3009 RMK T02500140 IEM_DS3505
ZGGG,2002-03-10 06:00,ZGGG 100600Z AUTO 14002KT 10SM 25/13 RMK SLP186 T02530134 57030 IEM_DS3505
ZGGG,2002-03-10 08:00,ZGGG 100800Z AUTO 17008KT 7SM 26/13 A3003 RMK T02600130 IEM_DS3505
ZGGG,2002-03-10 09:00,ZGGG 100900Z AUTO 11006KT 9SM 26/14 A3003 RMK SLP169 T02580137 57017 IEM_DS3505
ZGGG,2002-03-10 10:00,ZGGG 101000Z AUTO 15008KT 7SM 25/13 A3003 RMK T02500130 IEM_DS3505
ZGGG,2002-03-10 11:00,ZGGG 101100Z AUTO 17008KT 6SM 24/14 A3003 RMK T02400140 IEM_DS3505
ZGGG,2002-03-10 12:00,ZGGG 101200Z AUTO 16004KT 9SM 23/16 A3006 RMK SLP180 T02270158 52011 IEM_DS3505
ZGGG,2002-03-10 13:00,ZGGG 101300Z AUTO 17010KT 6SM 22/15 A3006 RMK T02200150 IEM_DS3505
ZGGG,2002-03-10 14:00,ZGGG 101400Z AUTO 16006KT 6SM 22/16 A3009 RMK T02200160 IEM_DS3505
ZGGG,2002-03-10 15:00,ZGGG 101500Z AUTO 22004KT 9SM 21/17 A3012 RMK SLP201 T02120171 52021 IEM_DS3505
ZGGG,2002-03-10 16:00,ZGGG 101600Z AUTO 17004KT 4SM 21/17 A3012 RMK T02100170 IEM_DS3505
ZGGG,2002-03-10 17:00,ZGGG 101700Z AUTO 11002KT 3SM 20/17 A3012 RMK T02000170 IEM_DS3505
ZGGG,2002-03-10 18:00,ZGGG 101800Z AUTO 07002KT 2SM 20/18 A3012 RMK 60004 SLP198 T01990185 57003 IEM_DS3505
ZGGG,2002-03-10 19:00,ZGGG 101900Z AUTO 02004KT 3SM 19/18 A3009 RMK T01900180 IEM_DS3505
ZGGG,2002-03-10 20:00,ZGGG 102000Z AUTO 11004KT 4SM 19/18 A3009 RMK T01900180 IEM_DS3505
ZGGG,2002-03-10 21:00,ZGGG 102100Z AUTO 11004KT 4SM 18/17 A3006 RMK 70015 SLP185 T01830172 57013 IEM_DS3505
ZGGG,2002-03-10 22:00,ZGGG 102200Z AUTO 13006KT 5SM 18/17 A3006 RMK T01800170 IEM_DS3505
ZGGG,2002-03-10 23:00,ZGGG 102300Z AUTO 00000KT 4SM 19/17 A3009 RMK T01900170 IEM_DS3505
ZGGG,2002-03-11 00:00,ZGGG 110000Z AUTO 11002KT 7SM 19/17 A3009 RMK 60016 SLP198 T01860173 52013 IEM_DS3505
ZGGG,2002-03-11 01:00,ZGGG 110100Z AUTO 00000KT 2 1/2SM 20/17 A3012 RMK T02000170 IEM_DS3505
ZGGG,2002-03-11 02:00,ZGGG 110200Z AUTO 00000KT 3SM 22/17 A3012 RMK T02200170 IEM_DS3505
ZGGG,2002-03-11 03:00,ZGGG 110300Z AUTO 14006KT 6SM 23/17 A3012 RMK SLP204 T02320174 52006 IEM_DS3505
ZGGG,2002-03-11 04:00,ZGGG 110400Z AUTO 20006KT 3SM 24/16 A3009 RMK T02400160 IEM_DS3505
ZGGG,2002-03-11 05:00,ZGGG 110500Z AUTO 19004KT 3SM 24/16 A3006 RMK T02400160 IEM_DS3505
ZGGG,2002-03-11 06:00,ZGGG 110600Z AUTO 27004KT 9SM 25/16 A3003 RMK SLP178 T02540160 57026 IEM_DS3505
ZGGG,2002-03-11 07:00,ZGGG 110700Z AUTO 00000KT 25/14 A3003 RMK T02500140 IEM_DS3505
ZGGG,2002-03-11 08:00,ZGGG 110800Z AUTO 33004KT 3SM 24/16 A3000 RMK T02400160 IEM_DS3505
ZGGG,2002-03-11 09:00,ZGGG 110900Z AUTO 34002KT 6SM 24/17 A3000 RMK SLP168 T02390172 57010 IEM_DS3505
ZGGG,2002-03-11 10:00,ZGGG 111000Z AUTO 02002KT 2SM 24/17 A3003 RMK T02400170 IEM_DS3505
ZGGG,2002-03-11 11:00,ZGGG 111100Z AUTO 09004KT 2 1/2SM 23/17 A3003 RMK T02300170 IEM_DS3505
ZGGG,2002-03-11 12:00,ZGGG 111200Z AUTO 25002KT 7SM 22/18 A3006 RMK 60003 SLP179 T02220177 52011 IEM_DS3505
ZGGG,2002-03-11 13:00,ZGGG 111300Z AUTO 00000KT 3SM 22/17 A3006 RMK T02200170 IEM_DS3505
ZGGG,2002-03-11 14:00,ZGGG 111400Z AUTO 04002KT 4SM 21/17 A3009 RMK T02100170 IEM_DS3505
ZGGG,2002-03-11 15:00,ZGGG 111500Z AUTO 00000KT 6SM 20/18 A3009 RMK SLP192 T02010178 52013 IEM_DS3505
ZGGG,2002-03-11 16:00,ZGGG 111600Z AUTO 00000KT 3SM 21/17 A3009 RMK T02100170 IEM_DS3505
ZGGG,2002-03-11 17:00,ZGGG 111700Z AUTO 00000KT 3SM 20/17 A3009 RMK T02000170 IEM_DS3505
ZGGG,2002-03-11 18:00,ZGGG 111800Z AUTO 00000KT 4SM 19/18 A3009 RMK SLP188 T01940178 57004 IEM_DS3505
ZGGG,2002-03-11 19:00,ZGGG 111900Z AUTO 00000KT 2 1/2SM 19/17 A3006 RMK T01900170 IEM_DS3505
ZGGG,2002-03-11 20:00,ZGGG 112000Z AUTO 06002KT 2 1/2SM 19/18 A3006 RMK T01900180 IEM_DS3505
ZGGG,2002-03-11 21:00,ZGGG 112100Z AUTO 00000KT 4SM 18/18 A3006 RMK 70005 SLP183 T01850175 57005 IEM_DS3505
ZGGG,2002-03-11 22:00,ZGGG 112200Z AUTO 00000KT 2 1/2SM 19/17 A3006 RMK T01900170 IEM_DS3505
ZGGG,2002-03-11 23:00,ZGGG 112300Z AUTO 14002KT 1 1/4SM 19/17 A3009 RMK T01900170 IEM_DS3505
ZGGG,2002-03-12 00:00,ZGGG 120000Z AUTO 14002KT 2 1/2SM 20/18 A3009 RMK 70003 SLP196 T01960175 52013 IEM_DS3505
ZGGG,2002-03-12 01:00,ZGGG 120100Z AUTO 00000KT 2 1/2SM 21/17 A3012 RMK T02100170 IEM_DS3505
ZGGG,2002-03-12 02:00,ZGGG 120200Z AUTO 15004KT 2 1/2SM 22/16 A3012 RMK T02200160 IEM_DS3505
ZGGG,2002-03-12 03:00,ZGGG 120300Z AUTO 14004KT 6SM 24/18 A3012 RMK SLP197 T02400176 52001 IEM_DS3505
ZGGG,2002-03-12 04:00,ZGGG 120400Z AUTO 20006KT 25/16 A3006 RMK T02500160 IEM_DS3505
ZGGG,2002-03-12 05:00,ZGGG 120500Z AUTO 16008KT 26/16 A3003 RMK T02600160 IEM_DS3505
ZGGG,2002-03-12 06:00,ZGGG 120600Z AUTO 16006KT 9SM 26/15 A3000 RMK SLP165 T02640153 57032 IEM_DS3505
ZGGG,2002-03-12 07:00,ZGGG 120700Z AUTO 19010KT 5SM 26/16 A2997 RMK T02600160 IEM_DS3505
ZGGG,2002-03-12 08:00,ZGGG 120800Z AUTO 21010KT 5SM 25/16 A2997 RMK T02500160 IEM_DS3505
ZGGG,2002-03-12 09:00,ZGGG 120900Z AUTO 20004KT 10SM 25/17 A2997 RMK SLP151 T02500166 57014 IEM_DS3505
ZGGG,2002-03-12 10:00,ZGGG 121000Z AUTO 18006KT 6SM 24/16 A2997 RMK T02400160 IEM_DS3505
ZGGG,2002-03-12 11:00,ZGGG 121100Z AUTO 16006KT 6SM 24/16 A2997 RMK T02400160 IEM_DS3505
ZGGG,2002-03-12 12:00,ZGGG 121200Z AUTO 16004KT 9SM 23/17 A3000 RMK SLP160 T02340168 52009 IEM_DS3505
ZGGG,2002-03-12 13:00,ZGGG 121300Z AUTO 15004KT 6SM 23/15 A3000 RMK T02300150 IEM_DS3505
ZGGG,2002-03-12 14:00,ZGGG 121400Z AUTO 16004KT 6SM 23/16 A3003 RMK T02300160 IEM_DS3505
ZGGG,2002-03-12 15:00,ZGGG 121500Z AUTO 11002KT 9SM 22/18 A3006 RMK SLP181 T02190176 52021 IEM_DS3505
ZGGG,2002-03-12 16:00,ZGGG 121600Z AUTO 17004KT 6SM 22/17 A3006 RMK T02200170 IEM_DS3505
ZGGG,2002-03-12 17:00,ZGGG 121700Z AUTO 19006KT 6SM 22/17 A3006 RMK T02200170 IEM_DS3505
ZGGG,2002-03-12 18:00,ZGGG 121800Z AUTO 16002KT 5SM 21/18 A3003 RMK SLP168 T02120178 57013 IEM_DS3505
ZGGG,2002-03-12 19:00,ZGGG 121900Z AUTO 15008KT 5SM 21/18 A3000 RMK T02100180 IEM_DS3505
ZGGG,2002-03-12 20:00,ZGGG 122000Z AUTO 13004KT 4SM 21/18 A3000 RMK T02100180 IEM_DS3505
ZGGG,2002-03-12 21:00,ZGGG 122100Z AUTO 14006KT 2SM 21/19 A2997 RMK 70003 SLP152 T02070186 57016 IEM_DS3505
ZGGG,2002-03-12 22:00,ZGGG 122200Z AUTO 15002KT 2 1/2SM 21/18 A3000 RMK T02100180 IEM_DS3505
ZGGG,2002-03-12 23:00,ZGGG 122300Z AUTO 13006KT 1 1/2SM 21/18 A3000 RMK T02100180 IEM_DS3505
ZGGG,2002-03-13 00:00,ZGGG 130000Z AUTO 14004KT 2SM 20/18 A3000 RMK 60000 SLP168 T02010185 52016 IEM_DS3505
ZGGG,2002-03-13 01:00,ZGGG 130100Z AUTO 12006KT 1 1/4SM 21/18 A3000 RMK T02100180 IEM_DS3505
ZGGG,2002-03-13 02:00,ZGGG 130200Z AUTO 13006KT 1 1/2SM 22/18 A3003 RMK T02200180 IEM_DS3505
ZGGG,2002-03-13 03:00,ZGGG 130300Z AUTO 18004KT 3SM 22/18 A3000 RMK SLP166 T02220184 57002 IEM_DS3505
ZGGG,2002-03-13 04:00,ZGGG 130400Z AUTO 18008KT 3SM 23/18 A3000 RMK T02300180 IEM_DS3505
ZGGG,2002-03-13 05:00,ZGGG 130500Z AUTO 18008KT 3SM 22/18 A2997 RMK T02200180 IEM_DS3505
ZGGG,2002-03-13 06:00,ZGGG 130600Z AUTO 16004KT 6SM 23/20 A2991 RMK 60003 SLP137 T02320195 57029 IEM_DS3505
ZGGG,2002-03-13 07:00,ZGGG 130700Z AUTO 19008KT 3SM 24/19 A2991 RMK T02400190 IEM_DS3505
ZGGG,2002-03-13 08:00,ZGGG 130800Z AUTO 16006KT 4SM 24/19 A2988 RMK T02400190 IEM_DS3505
ZGGG,2002-03-13 09:00,ZGGG 130900Z AUTO 14006KT 8SM 24/19 A2988 RMK SLP127 T02380191 57010 IEM_DS3505
ZGGG,2002-03-13 10:00,ZGGG 131000Z AUTO 16006KT 4SM 23/18 A2988 RMK T02300180 IEM_DS3505
ZGGG,2002-03-13 11:00,ZGGG 131100Z AUTO 16006KT 5SM 23/19 A2988 RMK T02300190 IEM_DS3505
ZGGG,2002-03-13 12:00,ZGGG 131200Z AUTO 18004KT 7SM 23/19 A2991 RMK SLP134 T02260193 52007 IEM_DS3505
ZGGG,2002-03-13 13:00,ZGGG 131300Z AUTO 15006KT 4SM 22/19 A2991 RMK T02200190 IEM_DS3505
ZGGG,2002-03-13 14:00,ZGGG 131400Z AUTO 15006KT 4SM 22/19 A2994 RMK T02200190 IEM_DS3505
ZGGG,2002-03-13 15:00,ZGGG 131500Z AUTO 16006KT 7SM 22/20 A2994 RMK SLP145 T02220196 52011 IEM_DS3505
ZGGG,2002-03-13 16:00,ZGGG 131600Z AUTO 16006KT 4SM 22/19 A2994 RMK T02200190 IEM_DS3505
ZGGG,2002-03-13 17:00,ZGGG 131700Z AUTO 16006KT 4SM 22/18 A2994 RMK T02200180 IEM_DS3505
ZGGG,2002-03-13 18:00,ZGGG 131800Z AUTO 09004KT 6SM 22/19 A2994 RMK SLP140 T02150193 57005 IEM_DS3505
ZGGG,2002-03-13 19:00,ZGGG 131900Z AUTO 07004KT 4SM 21/18 A2991 RMK T02100180 IEM_DS3505
ZGGG,2002-03-13 20:00,ZGGG 132000Z AUTO 00000KT 2 1/2SM 21/19 A2991 RMK T02100190 IEM_DS3505
ZGGG,2002-03-13 21:00,ZGGG 132100Z AUTO 11004KT 1 1/4SM 21/20 A2991 RMK 70009 SLP133 T02060195 57007 IEM_DS3505
ZGGG,2002-03-13 22:00,ZGGG 132200Z AUTO 12004KT 1 1/2SM 20/19 A2991 RMK T02000190 IEM_DS3505
ZGGG,2002-03-13 23:00,ZGGG 132300Z AUTO 12004KT 1 1/4SM 21/19 A2991 RMK T02100190 IEM_DS3505
ZGGG,2002-03-14 00:00,ZGGG 140000Z AUTO 14006KT 1SM 20/19 RMK 60008 SLP137 T02000194 52004 IEM_DS3505
ZGGG,2002-03-14 01:00,ZGGG 140100Z AUTO 12002KT 1SM 21/19 A2994 RMK T02100190 IEM_DS3505
ZGGG,2002-03-14 02:00,ZGGG 140200Z AUTO 16008KT 1SM 21/20 A2994 RMK T02100200 IEM_DS3505
ZGGG,2002-03-14 03:00,ZGGG 140300Z AUTO 14006KT 1 1/4SM 22/20 A2994 RMK SLP145 T02160202 52008 IEM_DS3505
ZGGG,2002-03-14 04:00,ZGGG 140400Z AUTO 16004KT 1 1/2SM 22/20 A2994 RMK T02200200 IEM_DS3505
ZGGG,2002-03-14 05:00,ZGGG 140500Z AUTO 16002KT 1 1/2SM 22/19 A2991 RMK T02200190 IEM_DS3505
ZGGG,2002-03-14 06:00,ZGGG 140600Z AUTO 09004KT 4SM 23/20 A2988 RMK 60004 SLP122 T02260205 57023 IEM_DS3505
ZGGG,2002-03-14 07:00,ZGGG 140700Z AUTO 16002KT 2 1/2SM 23/20 A2985 RMK T02300200 IEM_DS3505
ZGGG,2002-03-14 08:00,ZGGG 140800Z AUTO 17004KT 2SM 23/19 A2983 RMK T02300190 IEM_DS3505
ZGGG,2002-03-14 09:00,ZGGG 140900Z AUTO 14004KT 6SM 23/20 A2983 RMK SLP110 T02300198 57012 IEM_DS3505
ZGGG,2002-03-14 10:00,ZGGG 141000Z AUTO 16004KT 3SM 23/19 A2985 RMK T02300190 IEM_DS3505
ZGGG,2002-03-14 11:00,ZGGG 141100Z AUTO 16004KT 5SM 23/19 A2985 RMK T02300190 IEM_DS3505
ZGGG,2002-03-14 12:00,ZGGG 141200Z AUTO 14002KT 9SM 23/20 A2988 RMK 60003 SLP120 T02260198 52010 IEM_DS3505
ZGGG,2002-03-14 13:00,ZGGG 141300Z AUTO 15004KT 5SM 22/19 A2988 RMK T02200190 IEM_DS3505
ZGGG,2002-03-14 14:00,ZGGG 141400Z AUTO 15004KT 4SM 22/20 A2991 RMK T02200200 IEM_DS3505
ZGGG,2002-03-14 15:00,ZGGG 141500Z AUTO 11002KT 8SM 22/20 A2991 RMK SLP132 T02190205 52012 IEM_DS3505
ZGGG,2002-03-14 16:00,ZGGG 141600Z AUTO 17004KT 2 1/2SM 22/21 A2991 RMK T02200210 IEM_DS3505
ZGGG,2002-03-14 17:00,ZGGG 141700Z AUTO 17002KT 2 1/2SM 22/21 A2988 RMK T02200210 IEM_DS3505
ZGGG,2002-03-14 18:00,ZGGG 141800Z AUTO 11002KT 6SM 22/21 A2988 RMK 60008 SLP120 T02160208 57012 IEM_DS3505
ZGGG,2002-03-14 19:00,ZGGG 141900Z AUTO 17004KT 2 1/2SM 22/21 A2985 RMK T02200210 IEM_DS3505
ZGGG,2002-03-14 20:00,ZGGG 142000Z AUTO 00000KT 2SM 22/21 A2985 RMK T02200210 IEM_DS3505
ZGGG,2002-03-14 21:00,ZGGG 142100Z AUTO 04002KT 1SM 21/21 A2985 RMK 70015 SLP114 T02140208 57006 IEM_DS3505
ZGGG,2002-03-14 22:00,ZGGG 142200Z AUTO 00000KT 1 1/4SM 22/22 A2985 RMK T02200220 IEM_DS3505
ZGGG,2002-03-14 23:00,ZGGG 142300Z AUTO 00000KT 1 1/4SM 22/22 A2988 RMK T02200220 IEM_DS3505
ZGGG,2002-03-15 00:00,ZGGG 150000Z AUTO 11002KT 1SM 22/21 A2988 RMK 60008 SLP126 T02150210 52012 IEM_DS3505
ZGGG,2002-03-15 01:00,ZGGG 150100Z AUTO 15006KT 1 1/2SM 22/22 A2988 RMK T02200220 IEM_DS3505
ZGGG,2002-03-15 02:00,ZGGG 150200Z AUTO 16006KT 1 1/2SM 23/22 A2991 RMK T02300220 IEM_DS3505
ZGGG,2002-03-15 03:00,ZGGG 150300Z AUTO 16002KT 1 1/2SM 23/22 A2988 RMK SLP128 T02260217 52002 IEM_DS3505
ZGGG,2002-03-15 04:00,ZGGG 150400Z AUTO 16006KT 2SM 24/23 A2985 RMK T02400230 IEM_DS3505
ZGGG,2002-03-15 05:00,ZGGG 150500Z AUTO 18004KT 2 1/2SM 24/23 A2985 RMK T02400230 IEM_DS3505
ZGGG,2002-03-15 06:00,ZGGG 150600Z AUTO 09002KT 2 1/2SM 24/22 A2983 RMK 60003 SLP100 T02420221 57027 IEM_DS3505
ZGGG,2002-03-15 07:00,ZGGG 150700Z AUTO 19006KT 4SM 26/21 A2977 RMK T02600210 IEM_DS3505
ZGGG,2002-03-15 08:00,ZGGG 150800Z AUTO 17006KT 4SM 26/21 A2977 RMK T02600210 IEM_DS3505
ZGGG,2002-03-15 09:00,ZGGG 150900Z AUTO 09004KT 7SM 24/22 A2977 RMK SLP088 T02440219 57012 IEM_DS3505
ZGGG,2002-03-15 10:00,ZGGG 151000Z AUTO 19002KT 2 1/2SM 24/22 A2980 RMK T02400220 IEM_DS3505
ZGGG,2002-03-15 11:00,ZGGG 151100Z AUTO 14002KT 3SM 23/23 A2980 RMK T02300230 IEM_DS3505
ZGGG,2002-03-15 12:00,ZGGG 151200Z AUTO 11004KT 5SM 23/22 A2983 RMK 60003 SLP105 T02320222 52016 IEM_DS3505
ZGGG,2002-03-15 13:00,ZGGG 151300Z AUTO 17006KT 3SM 24/23 A2985 RMK T02400230 IEM_DS3505
ZGGG,2002-03-15 14:00,ZGGG 151400Z AUTO 17004KT 3SM 24/23 A2985 RMK T02400230 IEM_DS3505
ZGGG,2002-03-15 15:00,ZGGG 151500Z AUTO 11002KT 3SM 23/22 A2985 RMK SLP117 T02300221 52012 IEM_DS3505
ZGGG,2002-03-15 16:00,ZGGG 151600Z AUTO 00000KT 4SM 23/22 A2988 RMK T02300220 IEM_DS3505
ZGGG,2002-03-15 17:00,ZGGG 151700Z AUTO 00000KT 4SM 24/22 A2988 RMK T02400220 IEM_DS3505
ZGGG,2002-03-15 18:00,ZGGG 151800Z AUTO 34002KT 2SM 23/22 A2988 RMK 60002 SLP115 T02280222 57001 IEM_DS3505
ZGGG,2002-03-15 19:00,ZGGG 151900Z AUTO 01010KT 7SM 21/17 A2988 RMK T02100170 IEM_DS3505
ZGGG,2002-03-15 20:00,ZGGG 152000Z AUTO 36006KT 5SM 19/17 A2988 RMK T01900170 IEM_DS3505
ZGGG,2002-03-15 21:00,ZGGG 152100Z AUTO 34006KT 9SM 20/18 A2985 RMK 70010 SLP116 T01970176 54000 IEM_DS3505
ZGGG,2002-03-15 22:00,ZGGG 152200Z AUTO 02006KT 7SM 19/17 A2988 RMK T01900170 IEM_DS3505
ZGGG,2002-03-15 23:00,ZGGG 152300Z AUTO 36006KT 7SM 19/17 A2991 RMK T01900170 IEM_DS3505
ZGGG,2002-03-16 00:00,ZGGG 160000Z AUTO 34004KT 11SM 20/17 A2994 RMK 60002 SLP137 T01960173 52021 IEM_DS3505
ZGGG,2002-03-16 01:00,ZGGG 160100Z AUTO 36008KT 7SM 19/16 A2994 RMK T01900160 IEM_DS3505
ZGGG,2002-03-16 02:00,ZGGG 160200Z AUTO 03010KT 7SM 20/16 A2997 RMK T02000160 IEM_DS3505
ZGGG,2002-03-16 03:00,ZGGG 160300Z AUTO 04004KT 9SM 20/17 A2997 RMK SLP149 T02020169 52012 IEM_DS3505
ZGGG,2002-03-16 04:00,ZGGG 160400Z AUTO 03006KT 7SM 21/17 A2994 RMK T02100170 IEM_DS3505
ZGGG,2002-03-16 05:00,ZGGG 160500Z AUTO 01006KT 7SM 22/17 A2994 RMK T02200170 IEM_DS3505
ZGGG,2002-03-16 06:00,ZGGG 160600Z AUTO 11002KT 14SM 22/17 A2991 RMK 60003 SLP131 T02240171 57018 IEM_DS3505
ZGGG,2002-03-16 07:00,ZGGG 160700Z AUTO 35006KT 7SM 22/16 A2988 RMK T02200160 IEM_DS3505
ZGGG,2002-03-16 08:00,ZGGG 160800Z AUTO 04008KT 7SM 22/16 A2988 RMK T02200160 IEM_DS3505
ZGGG,2002-03-16 09:00,ZGGG 160900Z AUTO 11002KT 12SM 22/17 A2988 RMK SLP123 T02220174 57008 IEM_DS3505
ZGGG,2002-03-16 10:00,ZGGG 161000Z AUTO 05006KT 7SM 21/16 A2988 RMK T02100160 IEM_DS3505
ZGGG,2002-03-16 11:00,ZGGG 161100Z AUTO 11006KT 4SM 21/17 A2991 RMK T02100170 IEM_DS3505
ZGGG,2002-03-16 12:00,ZGGG 161200Z AUTO 00000KT 1SM 19/18 A2994 RMK 60000 SLP146 T01910183 52023 IEM_DS3505
ZGGG,2002-03-16 13:00,ZGGG 161300Z AUTO 05006KT 1 1/4SM 19/19 A2997 RMK T01900190 IEM_DS3505
ZGGG,2002-03-16 14:00,ZGGG 161400Z AUTO 05006KT 1 1/2SM 19/19 A3000 RMK T01900190 IEM_DS3505
ZGGG,2002-03-16 15:00,ZGGG 161500Z AUTO 02002KT 1SM 19/18 A3000 RMK SLP164 T01860180 52018 IEM_DS3505
ZGGG,2002-03-16 16:00,ZGGG 161600Z AUTO 01002KT 1SM 18/18 A3003 RMK T01800180 IEM_DS3505
ZGGG,2002-03-16 17:00,ZGGG 161700Z AUTO 04004KT 1SM 18/18 A3000 RMK T01800180 IEM_DS3505
ZGGG,2002-03-16 18:00,ZGGG 161800Z AUTO 36004KT 1SM 18/18 A3000 RMK 60008 SLP165 T01840181 52001 IEM_DS3505
ZGGG,2002-03-16 19:00,ZGGG 161900Z AUTO 36006KT 1 1/4SM 18/18 A3000 RMK T01800180 IEM_DS3505
ZGGG,2002-03-16 20:00,ZGGG 162000Z AUTO 36006KT 1 1/4SM 17/17 A3000 RMK T01700170 IEM_DS3505
ZGGG,2002-03-16 21:00,ZGGG 162100Z AUTO 36004KT 4SM 18/18 A3000 RMK 70011 SLP160 T01800177 57005 IEM_DS3505
ZGGG,2002-03-16 22:00,ZGGG 162200Z AUTO 03008KT 3SM 17/17 A3000 RMK T01700170 IEM_DS3505
ZGGG,2002-03-16 23:00,ZGGG 162300Z AUTO 04006KT 4SM 17/17 A3003 RMK T01700170 IEM_DS3505
ZGGG,2002-03-17 00:00,ZGGG 170000Z AUTO 32004KT 6SM 18/17 A3009 RMK 60003 SLP187 T01820174 52026 IEM_DS3505
ZGGG,2002-03-17 01:00,ZGGG 170100Z AUTO 01006KT 3SM 18/17 A3009 RMK T01800170 IEM_DS3505
ZGGG,2002-03-17 02:00,ZGGG 170200Z AUTO 02008KT 3SM 18/17 A3012 RMK T01800170 IEM_DS3505
ZGGG,2002-03-17 03:00,ZGGG 170300Z AUTO 02006KT 7SM 18/17 A3015 RMK SLP206 T01830168 52019 IEM_DS3505
ZGGG,2002-03-17 04:00,ZGGG 170400Z AUTO 01010KT 3SM 19/16 A3012 RMK T01900160 IEM_DS3505
ZGGG,2002-03-17 05:00,ZGGG 170500Z AUTO 02010KT 4SM 19/16 A3012 RMK T01900160 IEM_DS3505
ZGGG,2002-03-17 06:00,ZGGG 170600Z AUTO 34006KT 8SM 19/16 A3009 RMK 60003 SLP194 T01870158 57012 IEM_DS3505
ZGGG,2002-03-17 07:00,ZGGG 170700Z AUTO 02010KT 5SM 19/15 A3006 RMK T01900150 IEM_DS3505
ZGGG,2002-03-17 08:00,ZGGG 170800Z AUTO 36006KT 5SM 19/14 A3006 RMK T01900140 IEM_DS3505
ZGGG,2002-03-17 09:00,ZGGG 170900Z AUTO 36002KT 8SM 19/15 A3006 RMK SLP186 T01860152 57008 IEM_DS3505
ZGGG,2002-03-17 10:00,ZGGG 171000Z AUTO 36008KT 5SM 18/14 A3009 RMK T01800140 IEM_DS3505
ZGGG,2002-03-17 11:00,ZGGG 171100Z AUTO 36008KT 5SM 18/14 A3012 RMK T01800140 IEM_DS3505
ZGGG,2002-03-17 12:00,ZGGG 171200Z AUTO 04002KT 10SM 18/14 A3012 RMK SLP206 T01830143 52020 IEM_DS3505
ZGGG,2002-03-17 13:00,ZGGG 171300Z AUTO 36006KT 7SM 19/14 A3015 RMK T01900140 IEM_DS3505
ZGGG,2002-03-17 14:00,ZGGG 171400Z AUTO 36006KT 7SM 18/13 A3018 RMK T01800130 IEM_DS3505
ZGGG,2002-03-17 15:00,ZGGG 171500Z AUTO 34004KT 9SM 18/14 A3021 RMK SLP228 T01770144 52022 IEM_DS3505
ZGGG,2002-03-17 16:00,ZGGG 171600Z AUTO 02004KT 7SM 17/14 A3018 RMK T01700140 IEM_DS3505
ZGGG,2002-03-17 17:00,ZGGG 171700Z AUTO 03004KT 4SM 17/14 A3018 RMK T01700140 IEM_DS3505
ZGGG,2002-03-17 18:00,ZGGG 171800Z AUTO 02004KT 8SM 17/15 A3021 RMK 60003 SLP225 T01660147 57003 IEM_DS3505
ZGGG,2002-03-17 19:00,ZGGG 171900Z AUTO 04006KT 4SM 17/14 A3015 RMK T01700140 IEM_DS3505
ZGGG,2002-03-17 20:00,ZGGG 172000Z AUTO 01004KT 4SM 17/14 A3015 RMK T01700140 IEM_DS3505
ZGGG,2002-03-17 21:00,ZGGG 172100Z AUTO 34006KT 7SM 16/14 A3021 RMK 70003 SLP226 T01640141 52001 IEM_DS3505
ZGGG,2002-03-17 22:00,ZGGG 172200Z AUTO 36008KT 5SM 17/13 A3021 RMK T01700130 IEM_DS3505
ZGGG,2002-03-17 23:00,ZGGG 172300Z AUTO 09004KT 5SM 16/13 A3018 RMK T01600130 IEM_DS3505
ZGGG,2002-03-18 00:00,ZGGG 180000Z AUTO 29002KT 9SM 16/13 A3024 RMK 60003 SLP240 T01640134 52014 IEM_DS3505
ZGGG,2002-03-18 01:00,ZGGG 180100Z AUTO 03006KT 5SM 17/13 A3024 RMK T01700130 IEM_DS3505
ZGGG,2002-03-18 02:00,ZGGG 180200Z AUTO 12002KT 5SM 18/13 A3027 RMK T01800130 IEM_DS3505
ZGGG,2002-03-18 03:00,ZGGG 180300Z AUTO 04002KT 7SM 18/15 A3027 RMK SLP249 T01840150 52009 IEM_DS3505
ZGGG,2002-03-18 04:00,ZGGG 180400Z AUTO 36008KT 2 1/2SM 17/14 A3027 RMK T01700140 IEM_DS3505
ZGGG,2002-03-18 05:00,ZGGG 180500Z AUTO 02010KT 4SM 18/15 A3021 RMK T01800150 IEM_DS3505
ZGGG,2002-03-18 06:00,ZGGG 180600Z AUTO 32004KT 9SM 18/15 A3021 RMK 60002 SLP229 T01820151 57020 IEM_DS3505
ZGGG,2002-03-18 07:00,ZGGG 180700Z AUTO 04008KT 5SM 17/14 A3018 RMK T01700140 IEM_DS3505
ZGGG,2002-03-18 08:00,ZGGG 180800Z AUTO 01004KT 4SM 18/14 A3015 RMK T01800140 IEM_DS3505
ZGGG,2002-03-18 09:00,ZGGG 180900Z AUTO 34002KT 8SM 18/15 A3018 RMK SLP220 T01780149 57009 IEM_DS3505
ZGGG,2002-03-18 10:00,ZGGG 181000Z AUTO 03006KT 4SM 18/14 A3018 RMK T01800140 IEM_DS3505
ZGGG,2002-03-18 11:00,ZGGG 181100Z AUTO 36004KT 3SM 17/14 A3018 RMK T01700140 IEM_DS3505
ZGGG,2002-03-18 12:00,ZGGG 181200Z AUTO 07002KT 7SM 17/15 A3018 RMK 60008 SLP223 T01690152 52003 IEM_DS3505
ZGGG,2002-03-18 13:00,ZGGG 181300Z AUTO 08004KT 2 1/2SM 17/15 A3021 RMK T01700150 IEM_DS3505
ZGGG,2002-03-18 14:00,ZGGG 181400Z AUTO 08006KT 3SM 17/16 A3018 RMK T01700160 IEM_DS3505
ZGGG,2002-03-18 15:00,ZGGG 181500Z AUTO 00000KT 5SM 16/16 A3021 RMK SLP231 T01630158 52008 IEM_DS3505
ZGGG,2002-03-18 16:00,ZGGG 181600Z AUTO 00000KT 2 1/2SM 17/16 A3021 RMK T01700160 IEM_DS3505
ZGGG,2002-03-18 17:00,ZGGG 181700Z AUTO 00000KT 2 1/2SM 17/16 A3021 RMK T01700160 IEM_DS3505
ZGGG,2002-03-18 18:00,ZGGG 181800Z AUTO 00000KT 3SM 17/17 A3018 RMK T01700170 IEM_DS3505
ZGGG,2002-03-18 19:00,ZGGG 181900Z AUTO 01002KT 2 1/2SM 17/17 A3018 RMK T01700170 IEM_DS3505
ZGGG,2002-03-18 20:00,ZGGG 182000Z AUTO 04006KT 2SM 17/17 A3015 RMK T01700170 IEM_DS3505
ZGGG,2002-03-18 21:00,ZGGG 182100Z AUTO 00000KT 3SM 17/16 A3015 RMK 70017 SLP216 T01660159 57007 IEM_DS3505
ZGGG,2002-03-18 22:00,ZGGG 182200Z AUTO 17004KT 2 1/2SM 17/16 A3015 RMK T01700160 IEM_DS3505
ZGGG,2002-03-18 23:00,ZGGG 182300Z AUTO 36002KT 2SM 17/16 A3021 RMK T01700160 IEM_DS3505
ZGGG,2002-03-19 00:00,ZGGG 190000Z AUTO 00000KT 4SM 18/16 A3021 RMK 70017 SLP232 T01760164 52016 IEM_DS3505
ZGGG,2002-03-19 01:00,ZGGG 190100Z AUTO 08002KT 1 1/2SM 18/16 A3021 RMK T01800160 IEM_DS3505
ZGGG,2002-03-19 02:00,ZGGG 190200Z AUTO 30002KT 1 1/2SM 19/17 A3021 RMK T01900170 IEM_DS3505
ZGGG,2002-03-19 03:00,ZGGG 190300Z AUTO 18004KT 5SM 22/16 A3018 RMK SLP224 T02220157 57008 IEM_DS3505
ZGGG,2002-03-19 04:00,ZGGG 190400Z AUTO 15004KT 2 1/2SM 23/14 A3015 RMK T02300140 IEM_DS3505
ZGGG,2002-03-19 05:00,ZGGG 190500Z AUTO 22006KT 2 1/2SM 24/13 A3012 RMK T02400130 IEM_DS3505
ZGGG,2002-03-19 06:00,ZGGG 190600Z AUTO 29002KT 7SM 25/13 A3009 RMK SLP192 T02530132 57031 IEM_DS3505
ZGGG,2002-03-19 07:00,ZGGG 190700Z AUTO 29002KT 2SM 26/15 A3006 RMK T02600150 IEM_DS3505
ZGGG,2002-03-19 08:00,ZGGG 190800Z AUTO 34004KT 1 1/4SM 26/16 A3006 RMK T02600160 IEM_DS3505
ZGGG,2002-03-19 09:00,ZGGG 190900Z AUTO 25002KT 6SM 26/16 A3003 RMK SLP177 T02640160 57015 IEM_DS3505
ZGGG,2002-03-19 10:00,ZGGG 191000Z AUTO 36002KT 1 1/4SM 25/16 A3006 RMK T02500160 IEM_DS3505
ZGGG,2002-03-19 11:00,ZGGG 191100Z AUTO 09002KT 2SM 23/17 A3006 RMK T02300170 IEM_DS3505
ZGGG,2002-03-19 12:00,ZGGG 191200Z AUTO 00000KT 5SM 23/18 A3006 RMK SLP186 T02280180 52009 IEM_DS3505
ZGGG,2002-03-19 13:00,ZGGG 191300Z AUTO 13002KT 2SM 22/17 A3006 RMK T02200170 IEM_DS3505
ZGGG,2002-03-19 14:00,ZGGG 191400Z AUTO 00000KT 2SM 23/16 A3009 RMK T02300160 IEM_DS3505
ZGGG,2002-03-19 15:00,ZGGG 191500Z AUTO 00000KT 4SM 21/18 A3009 RMK SLP190 T02100181 52004 IEM_DS3505
ZGGG,2002-03-19 16:00,ZGGG 191600Z AUTO 18002KT 2 1/2SM 22/17 A3006 RMK T02200170 IEM_DS3505
ZGGG,2002-03-19 17:00,ZGGG 191700Z AUTO 18004KT 2 1/2SM 21/17 RMK T02100170 IEM_DS3505
ZGGG,2002-03-19 18:00,ZGGG 191800Z AUTO 00000KT 3SM 20/18 A3003 RMK SLP174 T02010178 57016 IEM_DS3505
ZGGG,2002-03-19 19:00,ZGGG 191900Z AUTO 00000KT 2 1/2SM 20/17 A3003 RMK T02000170 IEM_DS3505
ZGGG,2002-03-19 20:00,ZGGG 192000Z AUTO 00000KT 2 1/2SM 20/17 A3000 RMK T02000170 IEM_DS3505
ZGGG,2002-03-19 21:00,ZGGG 192100Z AUTO 00000KT 1SM 19/18 A3000 RMK SLP165 T01880177 57009 IEM_DS3505
ZGGG,2002-03-19 22:00,ZGGG 192200Z AUTO 16004KT 2SM 20/18 A3003 RMK T02000180 IEM_DS3505
ZGGG,2002-03-19 23:00,ZGGG 192300Z AUTO 15002KT 1 1/4SM 19/17 A3003 RMK T01900170 IEM_DS3505
ZGGG,2002-03-20 00:00,ZGGG 200000Z AUTO 14002KT 1SM 20/18 A3006 RMK SLP182 T01970183 52017 IEM_DS3505
ZGGG,2002-03-20 01:00,ZGGG 200100Z AUTO 16004KT 1 1/2SM 22/18 A3006 RMK T02200180 IEM_DS3505
ZGGG,2002-03-20 02:00,ZGGG 200200Z AUTO 18006KT 1 1/4SM 22/18 A3009 RMK T02200180 IEM_DS3505
ZGGG,2002-03-20 03:00,ZGGG 200300Z AUTO 18004KT 2SM 22/19 A3006 RMK SLP187 T02220187 52005 IEM_DS3505
ZGGG,2002-03-20 04:00,ZGGG 200400Z AUTO 16006KT 1 1/4SM 23/18 A3003 RMK T02300180 IEM_DS3505
ZGGG,2002-03-20 05:00,ZGGG 200500Z AUTO 19006KT 1 1/2SM 24/18 A3000 RMK T02400180 IEM_DS3505
ZGGG,2002-03-20 06:00,ZGGG 200600Z AUTO 14006KT 4SM 26/19 A2997 RMK SLP151 T02610188 57036 IEM_DS3505
ZGGG,2002-03-20 07:00,ZGGG 200700Z AUTO 16008KT 3SM 27/18 A2994 RMK T02700180 IEM_DS3505
ZGGG,2002-03-20 08:00,ZGGG 200800Z AUTO 14008KT 3SM 27/18 A2991 RMK T02700180 IEM_DS3505
ZGGG,2002-03-20 09:00,ZGGG 200900Z AUTO 16006KT 8SM 26/18 A2991 RMK SLP131 T02630183 57020 IEM_DS3505
ZGGG,2002-03-20 10:00,ZGGG 201000Z AUTO 15006KT 3SM 26/18 A2991 RMK T02600180 IEM_DS3505
ZGGG,2002-03-20 11:00,ZGGG 201100Z AUTO 15004KT 3SM 24/17 A2991 RMK T02400170 IEM_DS3505
ZGGG,2002-03-20 12:00,ZGGG 201200Z AUTO 07004KT 7SM 23/18 A2994 RMK SLP144 T02310182 52013 IEM_DS3505
ZGGG,2002-03-20 13:00,ZGGG 201300Z AUTO 16006KT 6SM 23/17 A2997 RMK T02300170 IEM_DS3505
ZGGG,2002-03-20 14:00,ZGGG 201400Z AUTO 16006KT 6SM 23/17 A2997 RMK T02300170 IEM_DS3505
ZGGG,2002-03-20 15:00,ZGGG 201500Z AUTO 09002KT 9SM 21/18 A2997 RMK SLP153 T02080181 52009 IEM_DS3505
ZGGG,2002-03-20 16:00,ZGGG 201600Z AUTO 36002KT 4SM 22/17 A2997 RMK T02200170 IEM_DS3505
ZGGG,2002-03-20 17:00,ZGGG 201700Z AUTO 00000KT 4SM 20/17 A2997 RMK T02000170 IEM_DS3505
ZGGG,2002-03-20 18:00,ZGGG 201800Z AUTO 00000KT 7SM 19/18 A2994 RMK SLP149 T01940180 57004 IEM_DS3505
ZGGG,2002-03-20 19:00,ZGGG 201900Z AUTO 00000KT 4SM 21/18 A2994 RMK T02100180 IEM_DS3505
ZGGG,2002-03-20 20:00,ZGGG 202000Z AUTO 01002KT 4SM 21/18 A2991 RMK T02100180 IEM_DS3505
ZGGG,2002-03-20 21:00,ZGGG 202100Z AUTO 00000KT 6SM 19/18 A2991 RMK SLP137 T01910178 57012 IEM_DS3505
ZGGG,2002-03-20 22:00,ZGGG 202200Z AUTO 00000KT 4SM 19/17 A2994 RMK T01900170 IEM_DS3505
ZGGG,2002-03-20 23:00,ZGGG 202300Z AUTO 00000KT 1 1/2SM 20/18 A2994 RMK T02000180 IEM_DS3505
ZGGG,2002-03-21 00:00,ZGGG 210000Z AUTO 00000KT 1 1/2SM 20/18 A2997 RMK SLP149 T01990181 52012 IEM_DS3505
ZGGG,2002-03-21 01:00,ZGGG 210100Z AUTO 19004KT 1 1/4SM 22/18 A2997 RMK T02200180 IEM_DS3505
ZGGG,2002-03-21 02:00,ZGGG 210200Z AUTO 16006KT 1 1/2SM 24/18 A2994 RMK T02400180 IEM_DS3505
ZGGG,2002-03-21 03:00,ZGGG 210300Z AUTO 29002KT 3SM 25/19 A2994 RMK SLP143 T02530188 57006 IEM_DS3505
ZGGG,2002-03-21 04:00,ZGGG 210400Z AUTO 20008KT 2 1/2SM 26/18 A2991 RMK T02600180 IEM_DS3505
ZGGG,2002-03-21 05:00,ZGGG 210500Z AUTO 19008KT 2 1/2SM 26/18 A2988 RMK T02600180 IEM_DS3505
ZGGG,2002-03-21 06:00,ZGGG 210600Z AUTO 20004KT 7SM 27/18 A2983 RMK SLP108 T02700181 57034 IEM_DS3505
ZGGG,2002-03-21 07:00,ZGGG 210700Z AUTO 20008KT 3SM 27/18 A2980 RMK T02700180 IEM_DS3505
ZGGG,2002-03-21 08:00,ZGGG 210800Z AUTO 18008KT 27/18 A2977 RMK T02700180 IEM_DS3505
ZGGG,2002-03-21 09:00,ZGGG 210900Z AUTO 18004KT 8SM 27/19 A2977 RMK SLP085 T02720191 57023 IEM_DS3505
ZGGG,2002-03-21 10:00,ZGGG 211000Z AUTO 19008KT 26/17 A2977 RMK T02600170 IEM_DS3505
ZGGG,2002-03-21 11:00,ZGGG 211100Z AUTO 17006KT 26/17 A2977 RMK T02600170 IEM_DS3505
ZGGG,2002-03-21 12:00,ZGGG 211200Z AUTO 16006KT 9SM 24/19 A2980 RMK SLP093 T02420189 52007 IEM_DS3505
ZGGG,2002-03-21 13:00,ZGGG 211300Z AUTO 16006KT 5SM 24/18 A2980 RMK T02400180 IEM_DS3505
ZGGG,2002-03-21 14:00,ZGGG 211400Z AUTO 16008KT 6SM 23/18 A2980 RMK T02300180 IEM_DS3505
ZGGG,2002-03-21 15:00,ZGGG 211500Z AUTO 18004KT 9SM 22/19 A2980 RMK SLP094 T02230189 52002 IEM_DS3505
ZGGG,2002-03-21 16:00,ZGGG 211600Z AUTO 16004KT 6SM 22/18 A2983 RMK T02200180 IEM_DS3505
ZGGG,2002-03-21 17:00,ZGGG 211700Z AUTO 17006KT 6SM 22/19 A2980 RMK T02200190 IEM_DS3505
ZGGG,2002-03-21 18:00,ZGGG 211800Z AUTO 14002KT 8SM 21/19 A2980 RMK SLP091 T02110191 57003 IEM_DS3505
ZGGG,2002-03-21 19:00,ZGGG 211900Z AUTO 17004KT 4SM 22/19 A2977 RMK T02200190 IEM_DS3505
ZGGG,2002-03-21 20:00,ZGGG 212000Z AUTO 19004KT 4SM 21/19 A2977 RMK T02100190 IEM_DS3505
ZGGG,2002-03-21 21:00,ZGGG 212100Z AUTO 00000KT 4SM 20/19 A2980 RMK SLP091 T02000189 54000 IEM_DS3505
ZGGG,2002-03-21 22:00,ZGGG 212200Z AUTO 00000KT 3SM 21/19 A2980 RMK T02100190 IEM_DS3505
ZGGG,2002-03-21 23:00,ZGGG 212300Z AUTO 00000KT 2 1/2SM 22/19 A2983 RMK T02200190 IEM_DS3505
ZGGG,2002-03-22 00:00,ZGGG 220000Z AUTO 11002KT 5SM 22/20 A2985 RMK SLP111 T02160196 52019 IEM_DS3505
ZGGG,2002-03-22 01:00,ZGGG 220100Z AUTO 12004KT 2SM 23/19 A2985 RMK T02300190 IEM_DS3505
ZGGG,2002-03-22 02:00,ZGGG 220200Z AUTO 16004KT 2 1/2SM 23/19 A2985 RMK T02300190 IEM_DS3505
ZGGG,2002-03-22 03:00,ZGGG 220300Z AUTO 16004KT 5SM 24/20 A2985 RMK SLP110 T02430197 54000 IEM_DS3505
ZGGG,2002-03-22 04:00,ZGGG 220400Z AUTO 16006KT 3SM 24/20 A2983 RMK T02400200 IEM_DS3505
ZGGG,2002-03-22 05:00,ZGGG 220500Z AUTO 17004KT 3SM 24/19 A2983 RMK T02400190 IEM_DS3505
ZGGG,2002-03-22 06:00,ZGGG 220600Z AUTO 14002KT 5SM 24/20 A2980 RMK 60003 SLP095 T02360204 57016 IEM_DS3505
ZGGG,2002-03-22 07:00,ZGGG 220700Z AUTO 00000KT 1 1/4SM 23/22 RMK T02300220 IEM_DS3505
ZGGG,2002-03-22 08:00,ZGGG 220800Z AUTO 08002KT 3SM 24/21 A2977 RMK T02400210 IEM_DS3505
ZGGG,2002-03-22 09:00,ZGGG 220900Z AUTO 11004KT 2 1/2SM 24/21 A2977 RMK SLP082 T02400211 57013 IEM_DS3505
ZGGG,2002-03-22 10:00,ZGGG 221000Z AUTO 15004KT 2 1/2SM 24/21 A2977 RMK T02400210 IEM_DS3505
ZGGG,2002-03-22 11:00,ZGGG 221100Z AUTO 16004KT 4SM 23/21 A2980 RMK T02300210 IEM_DS3505
ZGGG,2002-03-22 12:00,ZGGG 221200Z AUTO 14006KT 4SM 23/21 A2983 RMK 60000 SLP104 T02310208 52022 IEM_DS3505
ZGGG,2002-03-22 13:00,ZGGG 221300Z AUTO 00000KT 4SM 23/21 A2985 RMK T02300210 IEM_DS3505
ZGGG,2002-03-22 14:00,ZGGG 221400Z AUTO 00000KT 4SM 23/21 A2985 RMK T02300210 IEM_DS3505
ZGGG,2002-03-22 15:00,ZGGG 221500Z AUTO 00000KT 4SM 23/21 A2988 RMK SLP119 T02280208 52016 IEM_DS3505
ZGGG,2002-03-22 16:00,ZGGG 221600Z AUTO 01010KT 4SM 19/16 A2991 RMK T01900160 IEM_DS3505
ZGGG,2002-03-22 17:00,ZGGG 221700Z AUTO 02008KT 4SM 19/16 A2988 RMK T01900160 IEM_DS3505
ZGGG,2002-03-22 18:00,ZGGG 221800Z AUTO 02006KT 8SM 19/15 A2988 RMK 60003 SLP124 T01880149 52004 IEM_DS3505
ZGGG,2002-03-22 19:00,ZGGG 221900Z AUTO 02014KT 7SM 18/13 A2988 RMK T01800130 IEM_DS3505
ZGGG,2002-03-22 20:00,ZGGG 222000Z AUTO 02010KT 7SM 18/12 A2988 RMK T01800120 IEM_DS3505
ZGGG,2002-03-22 21:00,ZGGG 222100Z AUTO 02004KT 9SM 18/13 A2988 RMK 70001 SLP121 T01770131 57003 IEM_DS3505
ZGGG,2002-03-22 22:00,ZGGG 222200Z AUTO 01010KT 7SM 17/11 A2991 RMK T01700110 IEM_DS3505
ZGGG,2002-03-22 23:00,ZGGG 222300Z AUTO 03008KT 7SM 17/11 A2994 RMK T01700110 IEM_DS3505
ZGGG,2002-03-23 00:00,ZGGG 230000Z AUTO 04006KT 11SM 17/12 A2994 RMK 70001 SLP143 T01720119 52022 IEM_DS3505
ZGGG,2002-03-23 01:00,ZGGG 230100Z AUTO 04010KT 7SM 18/11 A2997 RMK T01800110 IEM_DS3505
ZGGG,2002-03-23 02:00,ZGGG 230200Z AUTO 04006KT 7SM 17/11 A2997 RMK T01700110 IEM_DS3505
ZGGG,2002-03-23 03:00,ZGGG 230300Z AUTO 09006KT 10SM 18/13 A2997 RMK SLP152 T01810132 52009 IEM_DS3505
ZGGG,2002-03-23 04:00,ZGGG 230400Z AUTO 04004KT 4SM 17/13 A2994 RMK T01700130 IEM_DS3505
ZGGG,2002-03-23 05:00,ZGGG 230500Z AUTO 03004KT 4SM 18/14 A2991 RMK T01800140 IEM_DS3505
ZGGG,2002-03-23 06:00,ZGGG 230600Z AUTO 07004KT 11SM 18/15 A2988 RMK 60003 SLP128 T01850151 57024 IEM_DS3505
ZGGG,2002-03-23 07:00,ZGGG 230700Z AUTO 03004KT 3SM 18/14 A2985 RMK T01800140 IEM_DS3505
ZGGG,2002-03-23 08:00,ZGGG 230800Z AUTO 06004KT 3SM 19/15 A2983 RMK T01900150 IEM_DS3505
ZGGG,2002-03-23 09:00,ZGGG 230900Z AUTO 02004KT 1 1/2SM 18/15 A2985 RMK SLP115 T01820153 57013 IEM_DS3505
ZGGG,2002-03-23 10:00,ZGGG 231000Z AUTO 08004KT 2SM 17/15 A2985 RMK T01700150 IEM_DS3505
ZGGG,2002-03-23 11:00,ZGGG 231100Z AUTO 11002KT 3SM 18/16 A2985 RMK T01800160 IEM_DS3505
ZGGG,2002-03-23 12:00,ZGGG 231200Z AUTO 07004KT 2SM 18/16 A2988 RMK 60003 SLP124 T01750160 52008 IEM_DS3505
ZGGG,2002-03-23 13:00,ZGGG 231300Z AUTO 08006KT 1 1/2SM 17/16 A2988 RMK T01700160 IEM_DS3505
ZGGG,2002-03-23 14:00,ZGGG 231400Z AUTO 10004KT 1 1/2SM 17/17 A2991 RMK T01700170 IEM_DS3505
ZGGG,2002-03-23 15:00,ZGGG 231500Z AUTO 14004KT 1 1/2SM 17/16 A2991 RMK SLP133 T01730165 52009 IEM_DS3505
ZGGG,2002-03-23 16:00,ZGGG 231600Z AUTO 00000KT 2SM 18/17 A2991 RMK T01800170 IEM_DS3505
ZGGG,2002-03-23 17:00,ZGGG 231700Z AUTO 01004KT 1 1/4SM 17/17 A2988 RMK T01700170 IEM_DS3505
ZGGG,2002-03-23 18:00,ZGGG 231800Z AUTO 14002KT 1 1/4SM 18/17 A2985 RMK 60002 SLP115 T01750168 57017 IEM_DS3505
ZGGG,2002-03-23 19:00,ZGGG 231900Z AUTO 03006KT 1 1/4SM 17/17 A2985 RMK T01700170 IEM_DS3505
ZGGG,2002-03-23 20:00,ZGGG 232000Z AUTO 36002KT 1 1/2SM 17/17 A2983 RMK T01700170 IEM_DS3505
ZGGG,2002-03-23 21:00,ZGGG 232100Z AUTO 00000KT 2SM 18/17 A2983 RMK 70003 SLP106 T01760169 57009 IEM_DS3505
ZGGG,2002-03-23 23:30,ZGGG 232330Z AUTO 36004KT 1 1/4SM 17/17 A2988 RMK T01700170 IEM_DS3505
ZGGG,2002-03-24 00:00,ZGGG 240000Z AUTO 09004KT 2SM 18/17 RMK 60024 SLP123 T01800173 52017 IEM_DS3505
ZGGG,2002-03-24 01:30,ZGGG 240130Z AUTO 02004KT 1SM 17/17 A2991 RMK T01700170 IEM_DS3505
ZGGG,2002-03-24 02:00,ZGGG 240200Z AUTO 01006KT 1 1/4SM 17/17 A2991 RMK T01700170 IEM_DS3505
ZGGG,2002-03-24 03:00,ZGGG 240300Z AUTO 36004KT 2SM 18/17 A2991 RMK SLP136 T01750170 52012 IEM_DS3505
ZGGG,2002-03-24 04:00,ZGGG 240400Z AUTO 03004KT 1 1/4SM 17/17 A2991 RMK T01700170 IEM_DS3505
ZGGG,2002-03-24 05:00,ZGGG 240500Z AUTO 35004KT 2 1/2SM 17/17 A2988 RMK T01700170 IEM_DS3505
ZGGG,2002-03-24 06:00,ZGGG 240600Z AUTO 36004KT 2 1/2SM 18/17 RMK 60146 SLP117 T01810174 57018 IEM_DS3505
ZGGG,2002-03-24 07:00,ZGGG 240700Z AUTO 01008KT 2 1/2SM 17/17 A2985 RMK T01700170 IEM_DS3505
ZGGG,2002-03-24 08:00,ZGGG 240800Z AUTO 05008KT 3SM 17/17 A2985 RMK T01700170 IEM_DS3505
ZGGG,2002-03-24 09:00,ZGGG 240900Z AUTO 00000KT 7SM 18/17 A2985 RMK SLP112 T01770174 57005 IEM_DS3505
ZGGG,2002-03-24 10:00,ZGGG 241000Z AUTO 13004KT 2 1/2SM 18/18 A2985 RMK T01800180 IEM_DS3505
ZGGG,2002-03-24 11:00,ZGGG 241100Z AUTO 12008KT 3SM 18/18 A2985 RMK T01800180 IEM_DS3505
ZGGG,2002-03-24 12:00,ZGGG 241200Z AUTO 09002KT 1 1/2SM 18/18 A2985 RMK 60079 SLP119 T01810176 52007 IEM_DS3505
ZGGG,2002-03-24 13:00,ZGGG 241300Z AUTO 36006KT 1 1/2SM 18/18 A2991 RMK T01800180 IEM_DS3505
ZGGG,2002-03-24 14:00,ZGGG 241400Z AUTO 36006KT 5SM 17/17 A2994 RMK T01700170 IEM_DS3505
ZGGG,2002-03-24 15:00,ZGGG 241500Z AUTO 34006KT 4SM 16/16 A2994 RMK SLP143 T01640157 52023 IEM_DS3505
ZGGG,2002-03-24 16:00,ZGGG 241600Z AUTO 01008KT 7SM 16/15 A2997 RMK T01600150 IEM_DS3505
ZGGG,2002-03-24 17:00,ZGGG 241700Z AUTO 36008KT 7SM 15/14 A2994 RMK T01500140 IEM_DS3505
ZGGG,2002-03-24 18:00,ZGGG 241800Z AUTO 34004KT 4SM 15/15 A2994 RMK 60008 SLP136 T01530146 57007 IEM_DS3505
ZGGG,2002-03-24 19:00,ZGGG 241900Z AUTO 36008KT 7SM 15/14 A2991 RMK T01500140 IEM_DS3505
ZGGG,2002-03-24 20:00,ZGGG 242000Z AUTO 36006KT 7SM 16/14 A2988 RMK T01600140 IEM_DS3505
ZGGG,2002-03-24 21:00,ZGGG 242100Z AUTO 32004KT 8SM 15/14 A2988 RMK 70255 SLP126 T01510137 57010 IEM_DS3505
ZGGG,2002-03-24 22:00,ZGGG 242200Z AUTO 36006KT 7SM 15/14 A2991 RMK T01500140 IEM_DS3505
ZGGG,2002-03-24 23:00,ZGGG 242300Z AUTO 01004KT 5SM 15/13 A2994 RMK T01500130 IEM_DS3505
ZGGG,2002-03-25 00:00,ZGGG 250000Z AUTO 34004KT 10SM 15/13 A2997 RMK 70231 SLP152 T01520134 52026 IEM_DS3505
ZGGG,2002-03-25 01:00,ZGGG 250100Z AUTO 36006KT 5SM 16/13 A3000 RMK T01600130 IEM_DS3505
ZGGG,2002-03-25 02:00,ZGGG 250200Z AUTO 03008KT 4SM 16/13 A3000 RMK T01600130 IEM_DS3505
ZGGG,2002-03-25 03:00,ZGGG 250300Z AUTO 32004KT 12SM 18/15 RMK SLP161 T01750146 52009 IEM_DS3505
ZGGG,2002-03-25 04:00,ZGGG 250400Z AUTO 04006KT 4SM 18/14 A3000 RMK T01800140 IEM_DS3505
ZGGG,2002-03-25 05:00,ZGGG 250500Z AUTO 03006KT 4SM 19/14 A2994 RMK T01900140 IEM_DS3505
ZGGG,2002-03-25 06:00,ZGGG 250600Z AUTO 11002KT 9SM 22/16 A2991 RMK 60003 SLP135 T02150159 57025 IEM_DS3505
ZGGG,2002-03-25 07:00,ZGGG 250700Z AUTO 29004KT 3SM 21/16 A2988 RMK T02100160 IEM_DS3505
ZGGG,2002-03-25 08:00,ZGGG 250800Z AUTO 29004KT 2 1/2SM 21/16 A2988 RMK T02100160 IEM_DS3505
ZGGG,2002-03-25 09:00,ZGGG 250900Z AUTO 34002KT 7SM 22/17 A2988 RMK SLP120 T02150168 57015 IEM_DS3505
ZGGG,2002-03-25 12:00,ZGGG 251200Z AUTO 00000KT 7SM 20/17 RMK SLP128 T02020173 52007 IEM_DS3505
ZGGG,2002-03-25 14:00,ZGGG 251400Z AUTO 00000KT 2 1/2SM 20/17 A2994 RMK T02000170 IEM_DS3505
ZGGG,2002-03-25 15:00,ZGGG 251500Z AUTO 00000KT 6SM 19/18 A2991 RMK SLP135 T01940178 52008 IEM_DS3505
ZGGG,2002-03-25 16:00,ZGGG 251600Z AUTO 00000KT 3SM 19/17 A2991 RMK T01900170 IEM_DS3505
ZGGG,2002-03-25 17:00,ZGGG 251700Z AUTO 00000KT 2 1/2SM 19/18 A2991 RMK T01900180 IEM_DS3505
ZGGG,2002-03-25 18:00,ZGGG 251800Z AUTO 11002KT 6SM 20/18 A2988 RMK SLP124 T01980182 57011 IEM_DS3505
ZGGG,2002-03-25 19:00,ZGGG 251900Z AUTO 19004KT 1 1/2SM 19/18 A2985 RMK T01900180 IEM_DS3505
ZGGG,2002-03-25 20:00,ZGGG 252000Z AUTO 00000KT 1 1/2SM 19/18 A2985 RMK T01900180 IEM_DS3505
ZGGG,2002-03-25 21:00,ZGGG 252100Z AUTO 07002KT 4SM 20/18 A2985 RMK 70003 SLP118 T01980185 57006 IEM_DS3505
ZGGG,2002-03-25 22:00,ZGGG 252200Z AUTO 00000KT 1 1/4SM 19/19 A2988 RMK T01900190 IEM_DS3505
ZGGG,2002-03-25 23:00,ZGGG 252300Z AUTO 15006KT 1SM 20/19 A2988 RMK T02000190 IEM_DS3505
ZGGG,2002-03-26 00:00,ZGGG 260000Z AUTO 02002KT 1 1/4SM 20/19 A2991 RMK 70003 SLP134 T02020186 52016 IEM_DS3505
ZGGG,2002-03-26 01:00,ZGGG 260100Z AUTO 10004KT 1SM 21/18 A2991 RMK T02100180 IEM_DS3505
ZGGG,2002-03-26 02:00,ZGGG 260200Z AUTO 06004KT 1 1/2SM 22/18 A2994 RMK T02200180 IEM_DS3505
ZGGG,2002-03-26 03:00,ZGGG 260300Z AUTO 11004KT 4SM 23/19 A2991 RMK SLP134 T02260188 54000 IEM_DS3505
ZGGG,2002-03-26 04:00,ZGGG 260400Z AUTO 17006KT 1 1/2SM 23/19 A2991 RMK T02300190 IEM_DS3505
ZGGG,2002-03-26 05:00,ZGGG 260500Z AUTO 16004KT 1 1/4SM 23/19 A2988 RMK T02300190 IEM_DS3505
ZGGG,2002-03-26 06:00,ZGGG 260600Z AUTO 11002KT 5SM 24/20 A2985 RMK SLP115 T02400197 57019 IEM_DS3505
ZGGG,2002-03-26 09:00,ZGGG 260900Z AUTO 22002KT 6SM 24/20 RMK SLP101 T02400203 57014 IEM_DS3505
ZGGG,2002-03-26 12:00,ZGGG 261200Z AUTO 14002KT 6SM 23/20 RMK SLP109 T02280204 52008 IEM_DS3505
ZGGG,2002-03-26 15:00,ZGGG 261500Z AUTO 09004KT 6SM 22/20 RMK SLP125 T02250205 52016 IEM_DS3505
ZGGG,2002-03-26 18:00,ZGGG 261800Z AUTO 11002KT 2SM 22/20 RMK 60003 SLP121 T02190202 57004 IEM_DS3505
ZGGG,2002-03-26 21:00,ZGGG 262100Z AUTO 00000KT 1 1/4SM 22/20 RMK 70003 SLP114 T02170203 57007 IEM_DS3505
ZGGG,2002-03-27 00:00,ZGGG 270000Z AUTO 04004KT 2SM 22/20 RMK 70003 SLP131 T02200203 52017 IEM_DS3505
ZGGG,2002-03-27 01:30,ZGGG 270130Z AUTO 17002KT 1SM 23/21 A2994 RMK T02300210 IEM_DS3505
ZGGG,2002-03-27 02:00,ZGGG 270200Z AUTO 16004KT 1SM 23/22 A2994 RMK T02300220 IEM_DS3505
ZGGG,2002-03-27 03:00,ZGGG 270300Z AUTO 18002KT 2 1/2SM 24/21 A2994 RMK SLP140 T02390212 52009 IEM_DS3505
ZGGG,2002-03-27 04:00,ZGGG 270400Z AUTO 17004KT 1SM 24/22 A2991 RMK T02400220 IEM_DS3505
ZGGG,2002-03-27 05:00,ZGGG 270500Z AUTO 18004KT 1SM 25/22 A2988 RMK T02500220 IEM_DS3505
ZGGG,2002-03-27 06:00,ZGGG 270600Z AUTO 00000KT 2 1/2SM 25/22 A2985 RMK SLP116 T02520216 57023 IEM_DS3505
ZGGG,2002-03-27 07:00,ZGGG 270700Z AUTO 17008KT 1SM 26/22 A2983 RMK T02600220 IEM_DS3505
ZGGG,2002-03-27 08:00,ZGGG 270800Z AUTO 16006KT 1 1/2SM 27/22 A2980 RMK T02700220 IEM_DS3505
ZGGG,2002-03-27 09:00,ZGGG 270900Z AUTO 11004KT 5SM 27/22 A2980 RMK SLP096 T02660223 57020 IEM_DS3505
ZGGG,2002-03-27 10:00,ZGGG 271000Z AUTO 15006KT 2SM 26/22 A2980 RMK T02600220 IEM_DS3505
ZGGG,2002-03-27 11:00,ZGGG 271100Z AUTO 15006KT 2SM 25/22 A2980 RMK T02500220 IEM_DS3505
ZGGG,2002-03-27 12:00,ZGGG 271200Z AUTO 11004KT 6SM 24/23 A2983 RMK SLP108 T02440226 52012 IEM_DS3505
ZGGG,2002-03-27 13:00,ZGGG 271300Z AUTO 16006KT 3SM 24/23 A2985 RMK T02400230 IEM_DS3505
ZGGG,2002-03-27 14:00,ZGGG 271400Z AUTO 17006KT 3SM 24/23 A2988 RMK T02400230 IEM_DS3505
ZGGG,2002-03-27 15:00,ZGGG 271500Z AUTO 14004KT 2SM 24/22 A2988 RMK SLP127 T02410225 52019 IEM_DS3505
ZGGG,2002-03-27 16:00,ZGGG 271600Z AUTO 16006KT 3SM 24/23 A2988 RMK T02400230 IEM_DS3505
ZGGG,2002-03-27 17:00,ZGGG 271700Z AUTO 16006KT 3SM 24/23 A2988 RMK T02400230 IEM_DS3505
ZGGG,2002-03-27 18:00,ZGGG 271800Z AUTO 16002KT 1 1/2SM 24/22 A2985 RMK SLP117 T02370224 57010 IEM_DS3505
ZGGG,2002-03-27 19:00,ZGGG 271900Z AUTO 15006KT 2 1/2SM 24/23 A2985 RMK T02400230 IEM_DS3505
ZGGG,2002-03-27 20:00,ZGGG 272000Z AUTO 16004KT 3SM 24/23 A2983 RMK T02400230 IEM_DS3505
ZGGG,2002-03-27 21:00,ZGGG 272100Z AUTO 11002KT 1 1/2SM 24/22 A2983 RMK SLP107 T02350222 57010 IEM_DS3505
ZGGG,2002-03-27 22:00,ZGGG 272200Z AUTO 16006KT 2 1/2SM 23/23 A2985 RMK T02300230 IEM_DS3505
ZGGG,2002-03-27 23:00,ZGGG 272300Z AUTO 17006KT 1 1/2SM 24/23 A2988 RMK T02400230 IEM_DS3505
ZGGG,2002-03-28 00:00,ZGGG 280000Z AUTO 11002KT 1 1/2SM 24/22 A2988 RMK 60003 SLP125 T02370225 52018 IEM_DS3505
ZGGG,2002-03-28 01:00,ZGGG 280100Z AUTO 16008KT 2 1/2SM 24/23 A2991 RMK T02400230 IEM_DS3505
ZGGG,2002-03-28 02:00,ZGGG 280200Z AUTO 17010KT 3SM 26/23 A2991 RMK T02600230 IEM_DS3505
ZGGG,2002-03-28 03:00,ZGGG 280300Z AUTO 14006KT 7SM 26/23 A2991 RMK SLP131 T02610232 52006 IEM_DS3505
ZGGG,2002-03-28 04:00,ZGGG 280400Z AUTO 15008KT 3SM 27/23 A2988 RMK T02700230 IEM_DS3505
ZGGG,2002-03-28 05:00,ZGGG 280500Z AUTO 17010KT 3SM 26/23 A2988 RMK T02600230 IEM_DS3505
ZGGG,2002-03-28 06:00,ZGGG 280600Z AUTO 16008KT 7SM 27/23 A2983 RMK 60003 SLP107 T02720228 57024 IEM_DS3505
ZGGG,2002-03-28 07:00,ZGGG 280700Z AUTO 14010KT 4SM 27/22 A2980 RMK T02700220 IEM_DS3505
ZGGG,2002-03-28 08:00,ZGGG 280800Z AUTO 15008KT 3SM 27/23 A2980 RMK T02700230 IEM_DS3505
ZGGG,2002-03-28 09:00,ZGGG 280900Z AUTO 16010KT 3SM 26/22 A2980 RMK T02600220 IEM_DS3505
ZGGG,2002-03-28 10:00,ZGGG 281000Z AUTO 16008KT 4SM 26/22 A2980 RMK T02600220 IEM_DS3505
ZGGG,2002-03-28 11:00,ZGGG 281100Z AUTO 16008KT 4SM 26/23 A2980 RMK T02600230 IEM_DS3505
ZGGG,2002-03-28 12:00,ZGGG 281200Z AUTO 18004KT 7SM 25/22 A2983 RMK SLP103 T02480224 52011 IEM_DS3505
ZGGG,2002-03-28 13:00,ZGGG 281300Z AUTO 17008KT 4SM 25/23 A2985 RMK T02500230 IEM_DS3505
ZGGG,2002-03-28 14:00,ZGGG 281400Z AUTO 17006KT 4SM 25/23 A2985 RMK T02500230 IEM_DS3505
ZGGG,2002-03-28 15:00,ZGGG 281500Z AUTO 16004KT 8SM 24/23 A2988 RMK SLP118 T02450226 52015 IEM_DS3505
ZGGG,2002-03-28 16:00,ZGGG 281600Z AUTO 17004KT 4SM 25/23 A2985 RMK T02500230 IEM_DS3505
ZGGG,2002-03-28 17:00,ZGGG 281700Z AUTO 17004KT 4SM 24/23 A2985 RMK T02400230 IEM_DS3505
ZGGG,2002-03-28 18:00,ZGGG 281800Z AUTO 14002KT 7SM 24/22 A2985 RMK SLP111 T02400225 57007 IEM_DS3505
ZGGG,2002-03-28 19:00,ZGGG 281900Z AUTO 17004KT 2 1/2SM 24/23 A2983 RMK T02400230 IEM_DS3505
ZGGG,2002-03-28 20:00,ZGGG 282000Z AUTO 17004KT 2 1/2SM 24/23 A2983 RMK T02400230 IEM_DS3505
ZGGG,2002-03-28 21:00,ZGGG 282100Z AUTO 14004KT 4SM 24/22 A2983 RMK 70003 SLP102 T02380225 57009 IEM_DS3505
ZGGG,2002-03-28 22:00,ZGGG 282200Z AUTO 19002KT 2SM 24/23 A2985 RMK T02400230 IEM_DS3505
ZGGG,2002-03-28 23:00,ZGGG 282300Z AUTO 18004KT 1 1/4SM 24/23 A2988 RMK T02400230 IEM_DS3505
ZGGG,2002-03-29 00:00,ZGGG 290000Z AUTO 00000KT 2SM 24/23 A2988 RMK 60003 SLP124 T02420229 52022 IEM_DS3505
ZGGG,2002-03-29 01:00,ZGGG 290100Z AUTO 00000KT 1 1/2SM 25/23 A2991 RMK T02500230 IEM_DS3505
ZGGG,2002-03-29 02:00,ZGGG 290200Z AUTO 02006KT 2SM 23/21 A2991 RMK T02300210 IEM_DS3505
ZGGG,2002-03-29 03:00,ZGGG 290300Z AUTO 32006KT 1 1/2SM 24/21 RMK SLP133 T02380211 52009 IEM_DS3505
ZGGG,2002-03-29 04:00,ZGGG 290400Z AUTO 01008KT 3SM 22/19 A2991 RMK T02200190 IEM_DS3505
ZGGG,2002-03-29 05:00,ZGGG 290500Z AUTO 01010KT 4SM 22/18 A2991 RMK T02200180 IEM_DS3505
ZGGG,2002-03-29 06:00,ZGGG 290600Z AUTO 34004KT 5SM 20/19 A2988 RMK 60012 SLP123 T02040188 57011 IEM_DS3505
ZGGG,2002-03-29 07:00,ZGGG 290700Z AUTO 36010KT 5SM 21/17 A2988 RMK T02100170 IEM_DS3505
ZGGG,2002-03-29 08:00,ZGGG 290800Z AUTO 35008KT 4SM 21/17 A2985 RMK T02100170 IEM_DS3505
ZGGG,2002-03-29 09:00,ZGGG 290900Z AUTO 34004KT 5SM 20/19 A2985 RMK 60012 SLP123 T02040188 57011 IEM_DS3505
ZGGG,2002-03-29 10:00,ZGGG 291000Z AUTO 36006KT 4SM 21/17 A2988 RMK T02100170 IEM_DS3505
ZGGG,2002-03-29 11:00,ZGGG 291100Z AUTO 36004KT 5SM 21/17 A2988 RMK T02100170 IEM_DS3505
ZGGG,2002-03-29 12:00,ZGGG 291200Z AUTO 32002KT 7SM 20/18 A2988 RMK 60012 SLP127 T02030177 52013 IEM_DS3505
ZGGG,2002-03-29 13:00,ZGGG 291300Z AUTO 36006KT 5SM 21/17 A2991 RMK T02100170 IEM_DS3505
ZGGG,2002-03-29 14:00,ZGGG 291400Z AUTO 36006KT 7SM 21/17 A2994 RMK T02100170 IEM_DS3505
ZGGG,2002-03-29 15:00,ZGGG 291500Z AUTO 02002KT 8SM 20/18 A2994 RMK SLP143 T02020176 52016 IEM_DS3505
ZGGG,2002-03-29 16:00,ZGGG 291600Z AUTO 00000KT 7SM 21/17 A2994 RMK T02100170 IEM_DS3505
ZGGG,2002-03-29 17:00,ZGGG 291700Z AUTO 36006KT 7SM 21/17 A2994 RMK T02100170 IEM_DS3505
ZGGG,2002-03-29 18:00,ZGGG 291800Z AUTO 02002KT 8SM 20/18 A2991 RMK 60003 SLP136 T01960175 57007 IEM_DS3505
ZGGG,2002-03-29 19:00,ZGGG 291900Z AUTO 00000KT 7SM 20/17 A2991 RMK T02000170 IEM_DS3505
ZGGG,2002-03-29 20:00,ZGGG 292000Z AUTO 00000KT 7SM 20/16 A2991 RMK T02000160 IEM_DS3505
ZGGG,2002-03-29 21:00,ZGGG 292100Z AUTO 00000KT 8SM 20/17 A2991 RMK 70029 SLP134 T01970174 57002 IEM_DS3505
ZGGG,2002-03-29 22:00,ZGGG 292200Z AUTO 00000KT 7SM 19/17 A2991 RMK T01900170 IEM_DS3505
ZGGG,2002-03-29 23:00,ZGGG 292300Z AUTO 36004KT 7SM 20/16 A2994 RMK T02000160 IEM_DS3505
ZGGG,2002-03-30 00:00,ZGGG 300000Z AUTO 02002KT 9SM 20/18 A2994 RMK 70029 SLP144 T01990176 52010 IEM_DS3505
ZGGG,2002-03-30 01:00,ZGGG 300100Z AUTO 01006KT 7SM 21/16 A2997 RMK T02100160 IEM_DS3505
ZGGG,2002-03-30 02:00,ZGGG 300200Z AUTO 02006KT 7SM 22/17 A2997 RMK T02200170 IEM_DS3505
ZGGG,2002-03-30 03:00,ZGGG 300300Z AUTO 29002KT 9SM 23/17 A2997 RMK SLP152 T02320173 52008 IEM_DS3505
ZGGG,2002-03-30 04:00,ZGGG 300400Z AUTO 02006KT 7SM 23/17 A2997 RMK T02300170 IEM_DS3505
ZGGG,2002-03-30 05:00,ZGGG 300500Z AUTO 04006KT 7SM 24/18 A2994 RMK T02400180 IEM_DS3505
ZGGG,2002-03-30 06:00,ZGGG 300600Z AUTO 09002KT 14SM 26/18 A2991 RMK SLP137 T02610178 57015 IEM_DS3505
ZGGG,2002-03-30 07:00,ZGGG 300700Z AUTO 36004KT 7SM 26/16 A2991 RMK T02600160 IEM_DS3505
ZGGG,2002-03-30 08:00,ZGGG 300800Z AUTO 29006KT 6SM 26/15 A2991 RMK T02600150 IEM_DS3505
ZGGG,2002-03-30 09:00,ZGGG 300900Z AUTO 18002KT 12SM 26/18 A2991 RMK SLP134 T02620175 57003 IEM_DS3505
ZGGG,2002-03-30 10:00,ZGGG 301000Z AUTO 00000KT 7SM 26/16 A2991 RMK T02600160 IEM_DS3505
ZGGG,2002-03-30 11:00,ZGGG 301100Z AUTO 33004KT 26/16 A2991 RMK T02600160 IEM_DS3505
ZGGG,2002-03-30 12:00,ZGGG 301200Z AUTO 00000KT 9SM 24/20 A2994 RMK SLP144 T02350200 52010 IEM_DS3505
ZGGG,2002-03-30 13:00,ZGGG 301300Z AUTO 12004KT 3SM 23/19 A2994 RMK T02300190 IEM_DS3505
ZGGG,2002-03-30 14:00,ZGGG 301400Z AUTO 12004KT 3SM 23/20 A2994 RMK T02300200 IEM_DS3505
ZGGG,2002-03-30 15:00,ZGGG 301500Z AUTO 00000KT 10SM 22/20 A2997 RMK SLP155 T02180198 52011 IEM_DS3505
ZGGG,2002-03-30 16:00,ZGGG 301600Z AUTO 00000KT 2 1/2SM 22/19 A3000 RMK T02200190 IEM_DS3505
ZGGG,2002-03-30 17:00,ZGGG 301700Z AUTO 00000KT 2SM 22/19 A2997 RMK T02200190 IEM_DS3505
ZGGG,2002-03-30 18:00,ZGGG 301800Z AUTO 00000KT 6SM 21/19 A2994 RMK SLP144 T02120192 57011 IEM_DS3505
ZGGG,2002-03-30 19:00,ZGGG 301900Z AUTO 08004KT 2 1/2SM 21/18 A2994 RMK T02100180 IEM_DS3505
ZGGG,2002-03-30 20:00,ZGGG 302000Z AUTO 00000KT 2 1/2SM 21/19 A2994 RMK T02100190 IEM_DS3505
ZGGG,2002-03-30 21:00,ZGGG 302100Z AUTO 00000KT 7SM 21/19 A2994 RMK SLP140 T02060192 57004 IEM_DS3505
ZGGG,2002-03-30 22:00,ZGGG 302200Z AUTO 00000KT 3SM 21/19 A2994 RMK T02100190 IEM_DS3505
ZGGG,2002-03-30 23:00,ZGGG 302300Z AUTO 00000KT 2 1/2SM 21/19 A2997 RMK T02100190 IEM_DS3505
ZGGG,2002-03-31 00:00,ZGGG 310000Z AUTO 04002KT 5SM 21/20 A3000 RMK SLP160 T02120200 52020 IEM_DS3505
ZGGG,2002-03-31 01:00,ZGGG 310100Z AUTO 00000KT 2SM 23/19 A3000 RMK T02300190 IEM_DS3505
ZGGG,2002-03-31 02:00,ZGGG 310200Z AUTO 35002KT 2 1/2SM 24/18 A3003 RMK T02400180 IEM_DS3505
ZGGG,2002-03-31 03:00,ZGGG 310300Z AUTO 07002KT 8SM 24/16 A3003 RMK SLP174 T02350160 52014 IEM_DS3505
ZGGG,2002-03-31 04:00,ZGGG 310400Z AUTO 04006KT 3SM 24/17 A3003 RMK T02400170 IEM_DS3505
ZGGG,2002-03-31 05:00,ZGGG 310500Z AUTO 05004KT 3SM 24/17 A3000 RMK T02400170 IEM_DS3505
ZGGG,2002-03-31 06:00,ZGGG 310600Z AUTO 00000KT 9SM 24/16 A3000 RMK 60003 SLP161 T02390161 57013 IEM_DS3505
ZGGG,2002-03-31 07:00,ZGGG 310700Z AUTO 13004KT 24/16 A2997 RMK T02400160 IEM_DS3505
ZGGG,2002-03-31 08:00,ZGGG 310800Z AUTO 15006KT 2SM 24/18 A2994 RMK T02400180 IEM_DS3505
ZGGG,2002-03-31 09:00,ZGGG 310900Z AUTO 11002KT 2 1/2SM 24/19 A2997 RMK SLP148 T02380193 57013 IEM_DS3505
ZGGG,2002-03-31 10:00,ZGGG 311000Z AUTO 00000KT 1SM 23/19 A2994 RMK T02300190 IEM_DS3505
ZGGG,2002-03-31 11:00,ZGGG 311100Z AUTO 19006KT RMK IEM_DS3505
ZGGG,2002-03-31 12:00,ZGGG 311200Z AUTO 16004KT 2 1/2SM 22/20 A3000 RMK 60003 SLP159 T02220197 52011 IEM_DS3505
ZGGG,2002-03-31 13:00,ZGGG 311300Z AUTO 16004KT 2SM 22/19 A3000 RMK T02200190 IEM_DS3505
ZGGG,2002-03-31 14:00,ZGGG 311400Z AUTO 20002KT 3SM 22/19 A3000 RMK T02200190 IEM_DS3505
ZGGG,2002-03-31 15:00,ZGGG 311500Z AUTO 09002KT 2 1/2SM 22/19 A3003 RMK SLP168 T02190194 52009 IEM_DS3505
ZGGG,2002-03-31 16:00,ZGGG 311600Z AUTO 13002KT 3SM 22/19 A3003 RMK T02200190 IEM_DS3505
ZGGG,2002-03-31 17:00,ZGGG 311700Z AUTO 00000KT 2SM 22/19 A3000 RMK T02200190 IEM_DS3505
ZGGG,2002-03-31 18:00,ZGGG 311800Z AUTO 00000KT 1SM 21/20 A3000 RMK 60003 SLP164 T02120198 57004 IEM_DS3505
ZGGG,2002-03-31 19:00,ZGGG 311900Z AUTO 07002KT 2SM 22/19 A3000 RMK T02200190 IEM_DS3505
ZGGG,2002-03-31 20:00,ZGGG 312000Z AUTO 09002KT 2 1/2SM 21/19 A3000 RMK T02100190 IEM_DS3505
ZGGG,2002-03-31 21:00,ZGGG 312100Z AUTO 09002KT 2 1/2SM 21/19 A3000 RMK 70003 SLP159 T02070186 57005 IEM_DS3505
ZGGG,2002-03-31 22:00,ZGGG 312200Z AUTO 00000KT 4SM 21/18 A3000 RMK T02100180 IEM_DS3505
ZGGG,2002-03-31 23:00,ZGGG 312300Z AUTO 00000KT 1 1/2SM 21/18 A3003 RMK T02100180 IEM_DS3505
ZGGG,2002-04-01 00:00,ZGGG 010000Z AUTO 09004KT 4SM 21/18 A3003 RMK 60003 SLP175 T02120185 52016 IEM_DS3505
ZGGG,2002-04-01 01:00,ZGGG 010100Z AUTO 13002KT 2 1/2SM 22/17 A3006 RMK T02200170 IEM_DS3505
ZGGG,2002-04-01 02:00,ZGGG 010200Z AUTO 12004KT 3SM 23/18 A3006 RMK T02300180 IEM_DS3505
ZGGG,2002-04-01 03:00,ZGGG 010300Z AUTO 09006KT 7SM 25/17 A3006 RMK SLP181 T02470174 52006 IEM_DS3505
ZGGG,2002-04-01 04:00,ZGGG 010400Z AUTO 18006KT 2SM 26/18 A3003 RMK T02600180 IEM_DS3505
ZGGG,2002-04-01 05:00,ZGGG 010500Z AUTO 15006KT 2SM 26/19 A3003 RMK T02600190 IEM_DS3505
ZGGG,2002-04-01 06:00,ZGGG 010600Z AUTO 20002KT 6SM 27/20 A2997 RMK SLP159 T02670195 57022 IEM_DS3505
ZGGG,2002-04-01 07:00,ZGGG 010700Z AUTO 15004KT 2 1/2SM 28/20 A2994 RMK T02800200 IEM_DS3505
ZGGG,2002-04-01 08:00,ZGGG 010800Z AUTO 17004KT 2 1/2SM 28/20 A2994 RMK T02800200 IEM_DS3505
ZGGG,2002-04-01 09:00,ZGGG 010900Z AUTO 16004KT 6SM 27/21 A2991 RMK SLP137 T02740211 57021 IEM_DS3505
ZGGG,2002-04-01 10:00,ZGGG 011000Z AUTO 13004KT 3SM 27/20 A2994 RMK T02700200 IEM_DS3505
ZGGG,2002-04-01 11:00,ZGGG 011100Z AUTO 13004KT 2 1/2SM 26/21 A2994 RMK T02600210 IEM_DS3505
ZGGG,2002-04-01 12:00,ZGGG 011200Z AUTO 16004KT 7SM 25/22 A2994 RMK SLP145 T02540215 52007 IEM_DS3505
ZGGG,2002-04-01 13:00,ZGGG 011300Z AUTO 18006KT 4SM 25/21 A2997 RMK T02500210 IEM_DS3505
ZGGG,2002-04-01 14:00,ZGGG 011400Z AUTO 18008KT 6SM 24/21 A2997 RMK T02400210 IEM_DS3505
ZGGG,2002-04-01 15:00,ZGGG 011500Z AUTO 16002KT 6SM 24/21 A2997 RMK SLP157 T02360213 52012 IEM_DS3505
ZGGG,2002-04-01 16:00,ZGGG 011600Z AUTO 18006KT 3SM 24/21 A2997 RMK T02400210 IEM_DS3505
ZGGG,2002-04-01 17:00,ZGGG 011700Z AUTO 18004KT 2 1/2SM 23/21 A2997 RMK T02300210 IEM_DS3505
ZGGG,2002-04-01 18:00,ZGGG 011800Z AUTO 25004KT 6SM 23/21 A2997 RMK SLP151 T02290211 57005 IEM_DS3505
ZGGG,2002-04-01 19:00,ZGGG 011900Z AUTO 18006KT 2SM 23/21 A2994 RMK T02300210 IEM_DS3505
ZGGG,2002-04-01 21:00,ZGGG 012100Z AUTO 00000KT 3SM 23/21 A2994 RMK SLP145 T02270210 57006 IEM_DS3505
ZGGG,2002-04-01 22:00,ZGGG 012200Z AUTO 00000KT 2 1/2SM 23/21 A2997 RMK T02300210 IEM_DS3505
ZGGG,2002-04-01 23:00,ZGGG 012300Z AUTO 15002KT 1 1/4SM 23/21 A2997 RMK T02300210 IEM_DS3505
ZGGG,2002-04-02 00:00,ZGGG 020000Z AUTO 14004KT 1 1/4SM 23/21 A2997 RMK SLP156 T02310213 52010 IEM_DS3505
ZGGG,2002-04-02 01:00,ZGGG 020100Z AUTO 17006KT 1SM 24/22 A2997 RMK T02400220 IEM_DS3505
ZGGG,2002-04-02 02:00,ZGGG 020200Z AUTO 17008KT 2SM 26/21 A2997 RMK T02600210 IEM_DS3505
ZGGG,2002-04-02 03:00,ZGGG 020300Z AUTO 16002KT 5SM 26/22 A2997 RMK SLP155 T02640216 54000 IEM_DS3505
ZGGG,2002-04-02 04:00,ZGGG 020400Z AUTO 21008KT 2 1/2SM 28/21 A2997 RMK T02800210 IEM_DS3505
ZGGG,2002-04-02 05:00,ZGGG 020500Z AUTO 19010KT 2 1/2SM 28/22 A2991 RMK T02800220 IEM_DS3505
ZGGG,2002-04-02 06:00,ZGGG 020600Z AUTO 16004KT 7SM 29/22 A2991 RMK SLP128 T02910222 57027 IEM_DS3505
ZGGG,2002-04-02 07:00,ZGGG 020700Z AUTO 18008KT 29/21 A2988 RMK T02900210 IEM_DS3505
ZGGG,2002-04-02 08:00,ZGGG 020800Z AUTO 20008KT 29/21 A2985 RMK T02900210 IEM_DS3505
ZGGG,2002-04-02 09:00,ZGGG 020900Z AUTO 16004KT 7SM 28/23 A2983 RMK SLP105 T02840229 57023 IEM_DS3505
ZGGG,2002-04-02 10:00,ZGGG 021000Z AUTO 16006KT 28/21 A2983 RMK T02800210 IEM_DS3505
ZGGG,2002-04-02 11:00,ZGGG 021100Z AUTO 15006KT 2 1/2SM 27/23 A2985 RMK T02700230 IEM_DS3505
ZGGG,2002-04-02 12:00,ZGGG 021200Z AUTO 11004KT 6SM 26/23 A2985 RMK SLP113 T02560233 52008 IEM_DS3505
ZGGG,2002-04-02 13:00,ZGGG 021300Z AUTO 16006KT 4SM 26/22 A2988 RMK T02600220 IEM_DS3505
ZGGG,2002-04-02 14:00,ZGGG 021400Z AUTO 16008KT 7SM 26/22 A2988 RMK T02600220 IEM_DS3505
ZGGG,2002-04-02 15:00,ZGGG 021500Z AUTO 14004KT 8SM 25/22 A2988 RMK SLP122 T02470225 52009 IEM_DS3505
ZGGG,2002-04-02 16:00,ZGGG 021600Z AUTO 17006KT 4SM 25/22 A2988 RMK T02500220 IEM_DS3505
ZGGG,2002-04-02 17:00,ZGGG 021700Z AUTO 18008KT 2SM 25/22 A2985 RMK T02500220 IEM_DS3505
ZGGG,2002-04-02 18:00,ZGGG 021800Z AUTO 18004KT 6SM 24/23 A2985 RMK SLP109 T02450226 57013 IEM_DS3505
ZGGG,2002-04-02 19:00,ZGGG 021900Z AUTO 20006KT 4SM 24/22 A2983 RMK T02400220 IEM_DS3505
ZGGG,2002-04-02 20:00,ZGGG 022000Z AUTO 17004KT 4SM 24/22 A2983 RMK T02400220 IEM_DS3505
ZGGG,2002-04-02 21:00,ZGGG 022100Z AUTO 16002KT 4SM 24/23 A2983 RMK SLP102 T02390226 57007 IEM_DS3505
ZGGG,2002-04-02 22:00,ZGGG 022200Z AUTO 16004KT 2 1/2SM 24/23 A2983 RMK T02400230 IEM_DS3505
ZGGG,2002-04-02 23:00,ZGGG 022300Z AUTO 00000KT 2 1/2SM 24/23 A2985 RMK T02400230 IEM_DS3505
ZGGG,2002-04-03 00:00,ZGGG 030000Z AUTO 14004KT 3SM 24/23 A2988 RMK SLP118 T02440226 52016 IEM_DS3505
ZGGG,2002-04-03 01:00,ZGGG 030100Z AUTO 17006KT 2 1/2SM 26/23 A2988 RMK T02600230 IEM_DS3505
ZGGG,2002-04-03 02:00,ZGGG 030200Z AUTO 17008KT 3SM 26/22 A2988 RMK T02600220 IEM_DS3505
ZGGG,2002-04-03 03:00,ZGGG 030300Z AUTO 16004KT 6SM 28/23 A2988 RMK SLP120 T02810230 52002 IEM_DS3505
ZGGG,2002-04-03 04:00,ZGGG 030400Z AUTO 21010KT 3SM 28/22 A2985 RMK T02800220 IEM_DS3505
ZGGG,2002-04-03 05:00,ZGGG 030500Z AUTO 21008KT 29/22 A2983 RMK T02900220 IEM_DS3505
ZGGG,2002-04-03 06:00,ZGGG 030600Z AUTO 25006KT 8SM 30/23 A2980 RMK SLP093 T03020227 57027 IEM_DS3505
ZGGG,2002-04-03 07:00,ZGGG 030700Z AUTO 18008KT 29/22 A2977 RMK T02900220 IEM_DS3505
ZGGG,2002-04-03 08:00,ZGGG 030800Z AUTO 17008KT 29/22 A2974 RMK T02900220 IEM_DS3505
ZGGG,2002-04-03 09:00,ZGGG 030900Z AUTO 14004KT 7SM 29/24 A2974 RMK SLP078 T02860236 57015 IEM_DS3505
ZGGG,2002-04-03 10:00,ZGGG 031000Z AUTO 15008KT 3SM 28/23 A2974 RMK T02800230 IEM_DS3505
ZGGG,2002-04-03 11:00,ZGGG 031100Z AUTO 15008KT 3SM 28/23 A2974 RMK T02800230 IEM_DS3505
ZGGG,2002-04-03 12:00,ZGGG 031200Z AUTO 20004KT 8SM 27/23 A2977 RMK SLP084 T02720227 52006 IEM_DS3505
ZGGG,2002-04-03 13:00,ZGGG 031300Z AUTO 16006KT 7SM 27/22 A2980 RMK T02700220 IEM_DS3505
ZGGG,2002-04-03 14:00,ZGGG 031400Z AUTO 17008KT 7SM 26/22 A2980 RMK T02600220 IEM_DS3505
ZGGG,2002-04-03 15:00,ZGGG 031500Z AUTO 14004KT 8SM 25/23 A2980 RMK SLP096 T02540228 52012 IEM_DS3505
ZGGG,2002-04-03 16:00,ZGGG 031600Z AUTO 17006KT 6SM 26/22 A2980 RMK T02600220 IEM_DS3505
ZGGG,2002-04-03 17:00,ZGGG 031700Z AUTO 17004KT 7SM 25/22 A2980 RMK T02500220 IEM_DS3505
ZGGG,2002-04-03 18:00,ZGGG 031800Z AUTO 14004KT 6SM 25/22 A2977 RMK SLP089 T02460225 57007 IEM_DS3505
ZGGG,2002-04-03 19:00,ZGGG 031900Z AUTO 16006KT 4SM 24/22 A2977 RMK T02400220 IEM_DS3505
ZGGG,2002-04-03 20:00,ZGGG 032000Z AUTO 17004KT 4SM 24/23 A2974 RMK T02400230 IEM_DS3505
ZGGG,2002-04-03 21:00,ZGGG 032100Z AUTO 14004KT 5SM 24/22 A2974 RMK SLP078 T02380225 57011 IEM_DS3505
ZGGG,2002-04-03 22:00,ZGGG 032200Z AUTO 16004KT 3SM 24/22 A2977 RMK T02400220 IEM_DS3505
ZGGG,2002-04-03 23:00,ZGGG 032300Z AUTO 16006KT 3SM 24/23 A2980 RMK T02400230 IEM_DS3505
ZGGG,2002-04-04 00:00,ZGGG 040000Z AUTO 16004KT 3SM 25/23 A2983 RMK SLP102 T02460227 52024 IEM_DS3505
ZGGG,2002-04-04 01:00,ZGGG 040100Z AUTO 16006KT 2 1/2SM 26/23 A2985 RMK T02600230 IEM_DS3505
ZGGG,2002-04-04 02:00,ZGGG 040200Z AUTO 16004KT 2 1/2SM 26/23 A2985 RMK T02600230 IEM_DS3505
ZGGG,2002-04-04 03:00,ZGGG 040300Z AUTO 20004KT 7SM 26/22 A2985 RMK SLP110 T02590222 52008 IEM_DS3505
ZGGG,2002-04-04 04:00,ZGGG 040400Z AUTO 16006KT 4SM 27/22 A2983 RMK T02700220 IEM_DS3505
ZGGG,2002-04-04 05:00,ZGGG 040500Z AUTO 16008KT 4SM 27/22 A2980 RMK T02700220 IEM_DS3505
ZGGG,2002-04-04 06:00,ZGGG 040600Z AUTO 14006KT 9SM 27/23 A2977 RMK 60003 SLP089 T02700228 57021 IEM_DS3505
ZGGG,2002-04-04 07:00,ZGGG 040700Z AUTO 14008KT 5SM 27/23 A2977 RMK T02700230 IEM_DS3505
ZGGG,2002-04-04 08:00,ZGGG 040800Z AUTO 15012KT 5SM 27/23 A2974 RMK T02700230 IEM_DS3505
ZGGG,2002-04-04 09:00,ZGGG 040900Z AUTO 14006KT 9SM 27/22 A2974 RMK SLP076 T02670221 57013 IEM_DS3505
ZGGG,2002-04-04 10:00,ZGGG 041000Z AUTO 15012KT 7SM 27/22 A2974 RMK T02700220 IEM_DS3505
ZGGG,2002-04-04 11:00,ZGGG 041100Z AUTO 16010KT 5SM 26/22 A2974 RMK T02600220 IEM_DS3505
ZGGG,2002-04-04 12:00,ZGGG 041200Z AUTO 14006KT 9SM 25/22 A2977 RMK SLP087 T02540218 52011 IEM_DS3505
ZGGG,2002-04-04 13:00,ZGGG 041300Z AUTO 15008KT 7SM 26/22 A2980 RMK T02600220 IEM_DS3505
ZGGG,2002-04-04 14:00,ZGGG 041400Z AUTO 16008KT 7SM 26/22 A2983 RMK T02600220 IEM_DS3505
ZGGG,2002-04-04 15:00,ZGGG 041500Z AUTO 14006KT 11SM 25/22 A2983 RMK SLP105 T02490224 52018 IEM_DS3505
ZGGG,2002-04-04 16:00,ZGGG 041600Z AUTO 16010KT 7SM 25/22 A2983 RMK T02500220 IEM_DS3505
ZGGG,2002-04-04 17:00,ZGGG 041700Z AUTO 15010KT 7SM 25/22 A2980 RMK T02500220 IEM_DS3505
ZGGG,2002-04-04 18:00,ZGGG 041800Z AUTO 14004KT 9SM 25/22 A2980 RMK SLP096 T02480223 57009 IEM_DS3505
ZGGG,2002-04-04 19:00,ZGGG 041900Z AUTO 16008KT 7SM 24/22 A2980 RMK T02400220 IEM_DS3505
ZGGG,2002-04-04 20:00,ZGGG 042000Z AUTO 15006KT 5SM 24/22 A2977 RMK T02400220 IEM_DS3505
ZGGG,2002-04-04 21:00,ZGGG 042100Z AUTO 14006KT 8SM 24/22 A2977 RMK 70003 SLP087 T02440220 57009 IEM_DS3505
ZGGG,2002-04-04 22:00,ZGGG 042200Z AUTO 16006KT 4SM 24/22 A2980 RMK T02400220 IEM_DS3505
ZGGG,2002-04-04 23:00,ZGGG 042300Z AUTO 15008KT 4SM 24/22 A2980 RMK T02400220 IEM_DS3505
ZGGG,2002-04-05 00:00,ZGGG 050000Z AUTO 16006KT 9SM 25/22 A2983 RMK 70003 SLP105 T02480220 52018 IEM_DS3505
ZGGG,2002-04-05 01:00,ZGGG 050100Z AUTO 15010KT 4SM 26/22 A2983 RMK T02600220 IEM_DS3505
ZGGG,2002-04-05 02:00,ZGGG 050200Z AUTO 16010KT 5SM 27/21 A2985 RMK T02700210 IEM_DS3505
ZGGG,2002-04-05 03:00,ZGGG 050300Z AUTO 16008KT 10SM 27/21 A2983 RMK SLP107 T02730212 52002 IEM_DS3505
ZGGG,2002-04-05 04:00,ZGGG 050400Z AUTO 18014G23KT 7SM 29/20 A2983 RMK T02900200 IEM_DS3505
ZGGG,2002-04-05 05:00,ZGGG 050500Z AUTO 19016KT 1SM RMK IEM_DS3505
ZGGG,2002-04-05 06:00,ZGGG 050600Z AUTO 22006KT 11SM 28/20 A2977 RMK SLP086 T02840201 57021 IEM_DS3505
ZGGG,2002-04-05 07:00,ZGGG 050700Z AUTO 16010KT 7SM 28/19 A2977 RMK T02800190 IEM_DS3505
ZGGG,2002-04-05 08:00,ZGGG 050800Z AUTO 17014KT 7SM 28/19 A2974 RMK T02800190 IEM_DS3505
ZGGG,2002-04-05 09:00,ZGGG 050900Z AUTO 18008KT 13SM 28/20 A2974 RMK SLP075 T02830202 57011 IEM_DS3505
ZGGG,2002-04-05 10:00,ZGGG 051000Z AUTO 16010KT 7SM 28/19 A2974 RMK T02800190 IEM_DS3505
ZGGG,2002-04-05 11:00,ZGGG 051100Z AUTO 17008KT 7SM 27/20 A2974 RMK T02700200 IEM_DS3505
ZGGG,2002-04-05 12:00,ZGGG 051200Z AUTO 16008KT 11SM 26/20 A2977 RMK SLP083 T02630202 52008 IEM_DS3505
ZGGG,2002-04-05 13:00,ZGGG 051300Z AUTO 16008KT 7SM 26/21 A2980 RMK T02600210 IEM_DS3505
ZGGG,2002-04-05 14:00,ZGGG 051400Z AUTO 16008KT 7SM 26/21 A2980 RMK T02600210 IEM_DS3505
ZGGG,2002-04-05 15:00,ZGGG 051500Z AUTO 14006KT 12SM 25/21 A2980 RMK SLP099 T02510212 52016 IEM_DS3505
ZGGG,2002-04-05 16:00,ZGGG 051600Z AUTO 16006KT 7SM 25/21 A2980 RMK T02500210 IEM_DS3505
ZGGG,2002-04-05 17:00,ZGGG 051700Z AUTO 00000KT 7SM 25/21 A2983 RMK T02500210 IEM_DS3505
ZGGG,2002-04-05 18:00,ZGGG 051800Z AUTO 07002KT 10SM 25/22 A2980 RMK SLP095 T02490219 57004 IEM_DS3505
ZGGG,2002-04-05 19:00,ZGGG 051900Z AUTO 15006KT 7SM 25/22 A2980 RMK T02500220 IEM_DS3505
ZGGG,2002-04-05 20:00,ZGGG 052000Z AUTO 14008KT 5SM 24/22 A2974 RMK T02400220 IEM_DS3505
ZGGG,2002-04-05 21:00,ZGGG 052100Z AUTO 11004KT 7SM 24/22 A2977 RMK 70003 SLP084 T02420224 57011 IEM_DS3505
ZGGG,2002-04-05 22:00,ZGGG 052200Z AUTO 17006KT 4SM 24/22 A2980 RMK T02400220 IEM_DS3505
ZGGG,2002-04-05 23:00,ZGGG 052300Z AUTO 16006KT 4SM 24/22 A2983 RMK T02400220 IEM_DS3505
ZGGG,2002-04-06 00:00,ZGGG 060000Z AUTO 29004KT 6SM 20/19 A2985 RMK 60067 SLP118 T02010193 52033 IEM_DS3505
ZGGG,2002-04-06 01:00,ZGGG 060100Z AUTO 03004KT 7SM 21/19 A2983 RMK T02100190 IEM_DS3505
ZGGG,2002-04-06 02:00,ZGGG 060200Z AUTO 16006KT 2 1/2SM 23/19 A2985 RMK T02300190 IEM_DS3505
ZGGG,2002-04-06 03:00,ZGGG 060300Z AUTO 18002KT 6SM 24/19 A2988 RMK SLP118 T02400194 52001 IEM_DS3505
ZGGG,2002-04-06 04:00,ZGGG 060400Z AUTO 13006KT 2 1/2SM 26/20 A2985 RMK T02600200 IEM_DS3505
ZGGG,2002-04-06 05:00,ZGGG 060500Z AUTO 15006KT 2 1/2SM 26/19 A2985 RMK T02600190 IEM_DS3505
ZGGG,2002-04-06 06:00,ZGGG 060600Z AUTO 14004KT 9SM 27/19 A2983 RMK 60000 SLP104 T02680191 57014 IEM_DS3505
ZGGG,2002-04-06 07:00,ZGGG 060700Z AUTO 17004KT 28/18 A2980 RMK T02800180 IEM_DS3505
ZGGG,2002-04-06 08:00,ZGGG 060800Z AUTO 16006KT 3SM 28/19 A2980 RMK T02800190 IEM_DS3505
ZGGG,2002-04-06 09:00,ZGGG 060900Z AUTO 14006KT 7SM 27/23 A2980 RMK SLP093 T02740229 57011 IEM_DS3505
ZGGG,2002-04-06 10:00,ZGGG 061000Z AUTO 12008KT 4SM 27/23 A2980 RMK T02700230 IEM_DS3505
ZGGG,2002-04-06 11:00,ZGGG 061100Z AUTO 13008KT 4SM 27/23 A2980 RMK T02700230 IEM_DS3505
ZGGG,2002-04-06 12:00,ZGGG 061200Z AUTO 14006KT 7SM 26/23 A2983 RMK SLP104 T02610230 52011 IEM_DS3505
ZGGG,2002-04-06 13:00,ZGGG 061300Z AUTO 14008KT 4SM 26/23 A2985 RMK T02600230 IEM_DS3505
ZGGG,2002-04-06 14:00,ZGGG 061400Z AUTO 15006KT 4SM 25/22 A2985 RMK T02500220 IEM_DS3505
ZGGG,2002-04-06 15:00,ZGGG 061500Z AUTO 14004KT 7SM 25/23 A2988 RMK SLP120 T02470228 52016 IEM_DS3505
ZGGG,2002-04-06 16:00,ZGGG 061600Z AUTO 16006KT 7SM 25/23 A2988 RMK T02500230 IEM_DS3505
ZGGG,2002-04-06 17:00,ZGGG 061700Z AUTO 16006KT 7SM 25/23 A2985 RMK T02500230 IEM_DS3505
ZGGG,2002-04-06 18:00,ZGGG 061800Z AUTO 14004KT 7SM 25/23 A2985 RMK SLP110 T02480230 57010 IEM_DS3505
ZGGG,2002-04-06 19:00,ZGGG 061900Z AUTO 16006KT 7SM 25/23 A2983 RMK T02500230 IEM_DS3505
ZGGG,2002-04-06 20:00,ZGGG 062000Z AUTO 16006KT 7SM 25/23 A2983 RMK T02500230 IEM_DS3505
ZGGG,2002-04-06 21:00,ZGGG 062100Z AUTO 14002KT 6SM 25/23 A2983 RMK 70066 SLP109 T02460230 57001 IEM_DS3505
ZGGG,2002-04-06 22:00,ZGGG 062200Z AUTO 14008KT 7SM 24/22 A2985 RMK T02400220 IEM_DS3505
ZGGG,2002-04-06 23:00,ZGGG 062300Z AUTO 15006KT 4SM 24/23 A2988 RMK T02400230 IEM_DS3505
ZGGG,2002-04-07 00:00,ZGGG 070000Z AUTO 14004KT 4SM 25/23 A2991 RMK 70001 SLP132 T02490228 52023 IEM_DS3505
ZGGG,2002-04-07 01:00,ZGGG 070100Z AUTO 15006KT 7SM 26/22 A2991 RMK T02600220 IEM_DS3505
ZGGG,2002-04-07 02:00,ZGGG 070200Z AUTO 15008KT 7SM 27/21 A2991 RMK T02700210 IEM_DS3505
ZGGG,2002-04-07 03:00,ZGGG 070300Z AUTO 14008KT 11SM 28/21 A2991 RMK SLP131 T02810214 57001 IEM_DS3505
ZGGG,2002-04-07 04:00,ZGGG 070400Z AUTO 16010KT 7SM 28/19 A2988 RMK T02800190 IEM_DS3505
ZGGG,2002-04-07 05:00,ZGGG 070500Z AUTO 18010KT 7SM 29/20 A2985 RMK T02900200 IEM_DS3505
ZGGG,2002-04-07 06:00,ZGGG 070600Z AUTO 16006KT 12SM 29/23 A2983 RMK SLP110 T02920227 57021 IEM_DS3505
ZGGG,2002-04-07 07:00,ZGGG 070700Z AUTO 15008KT 7SM 29/22 A2983 RMK T02900220 IEM_DS3505
ZGGG,2002-04-07 08:00,ZGGG 070800Z AUTO 14006KT 7SM 29/22 A2980 RMK T02900220 IEM_DS3505
ZGGG,2002-04-07 09:00,ZGGG 070900Z AUTO 11008KT 11SM 28/23 A2977 RMK SLP091 T02800229 57019 IEM_DS3505
ZGGG,2002-04-07 10:00,ZGGG 071000Z AUTO 13008KT 7SM 27/23 A2980 RMK T02700230 IEM_DS3505
ZGGG,2002-04-07 11:00,ZGGG 071100Z AUTO 14006KT 5SM 27/23 A2980 RMK T02700230 IEM_DS3505
ZGGG,2002-04-07 12:00,ZGGG 071200Z AUTO 16006KT 10SM 26/23 A2983 RMK SLP101 T02610232 52010 IEM_DS3505
ZGGG,2002-04-07 13:00,ZGGG 071300Z AUTO 15006KT 7SM 27/22 A2985 RMK T02700220 IEM_DS3505
ZGGG,2002-04-07 14:00,ZGGG 071400Z AUTO 16006KT 7SM 26/22 A2985 RMK T02600220 IEM_DS3505
ZGGG,2002-04-07 15:00,ZGGG 071500Z AUTO 14004KT 9SM 25/22 A2988 RMK SLP120 T02500225 52019 IEM_DS3505
ZGGG,2002-04-07 16:00,ZGGG 071600Z AUTO 15006KT 7SM 26/22 A2988 RMK T02600220 IEM_DS3505
ZGGG,2002-04-07 17:00,ZGGG 071700Z AUTO 14004KT 7SM 25/22 A2988 RMK T02500220 IEM_DS3505
ZGGG,2002-04-07 18:00,ZGGG 071800Z AUTO 00000KT 9SM 24/23 A2985 RMK SLP119 T02430227 57001 IEM_DS3505
ZGGG,2002-04-07 19:00,ZGGG 071900Z AUTO 04004KT 7SM 24/22 A2985 RMK T02400220 IEM_DS3505
ZGGG,2002-04-07 20:00,ZGGG 072000Z AUTO 00000KT 7SM 24/22 A2985 RMK T02400220 IEM_DS3505
ZGGG,2002-04-07 21:00,ZGGG 072100Z AUTO 14002KT 4SM 24/23 A2985 RMK SLP112 T02360227 57007 IEM_DS3505
ZGGG,2002-04-07 22:00,ZGGG 072200Z AUTO 17004KT 4SM 24/23 A2985 RMK T02400230 IEM_DS3505
ZGGG,2002-04-07 23:00,ZGGG 072300Z AUTO 15006KT 2 1/2SM 24/23 A2988 RMK T02400230 IEM_DS3505
ZGGG,2002-04-08 00:00,ZGGG 080000Z AUTO 11002KT 2 1/2SM 25/23 A2991 RMK SLP129 T02470234 52017 IEM_DS3505
ZGGG,2002-04-08 01:00,ZGGG 080100Z AUTO 16006KT 4SM 26/22 A2991 RMK T02600220 IEM_DS3505
ZGGG,2002-04-08 02:00,ZGGG 080200Z AUTO 12004KT 5SM 27/21 A2991 RMK T02700210 IEM_DS3505
ZGGG,2002-04-08 03:00,ZGGG 080300Z AUTO 20002KT 9SM 28/23 A2991 RMK SLP134 T02840226 52005 IEM_DS3505
ZGGG,2002-04-08 04:00,ZGGG 080400Z AUTO 17008KT 29/21 A2988 RMK T02900210 IEM_DS3505
ZGGG,2002-04-08 05:00,ZGGG 080500Z AUTO 20008KT 7SM 29/21 A2985 RMK T02900210 IEM_DS3505
ZGGG,2002-04-08 06:00,ZGGG 080600Z AUTO 18004KT 11SM 30/21 A2983 RMK SLP107 T02980212 57027 IEM_DS3505
ZGGG,2002-04-08 07:00,ZGGG 080700Z AUTO 20004KT 7SM 29/21 A2983 RMK T02900210 IEM_DS3505
ZGGG,2002-04-08 08:00,ZGGG 080800Z AUTO 15006KT 7SM 29/22 A2980 RMK T02900220 IEM_DS3505
ZGGG,2002-04-08 09:00,ZGGG 080900Z AUTO 16004KT 12SM 28/23 A2980 RMK SLP097 T02850227 57010 IEM_DS3505
ZGGG,2002-04-08 10:00,ZGGG 081000Z AUTO 14006KT 7SM 27/22 A2980 RMK T02700220 IEM_DS3505
ZGGG,2002-04-08 11:00,ZGGG 081100Z AUTO 14006KT 4SM 27/23 A2983 RMK T02700230 IEM_DS3505
ZGGG,2002-04-08 12:00,ZGGG 081200Z AUTO 14006KT 9SM 26/23 A2985 RMK SLP113 T02620233 52016 IEM_DS3505
ZGGG,2002-04-08 13:00,ZGGG 081300Z AUTO 17006KT 6SM 27/23 A2985 RMK T02700230 IEM_DS3505
ZGGG,2002-04-08 14:00,ZGGG 081400Z AUTO 16006KT 7SM 26/22 A2988 RMK T02600220 IEM_DS3505
ZGGG,2002-04-08 15:00,ZGGG 081500Z AUTO 14004KT 9SM 25/23 A2988 RMK SLP126 T02540228 52013 IEM_DS3505
ZGGG,2002-04-08 16:00,ZGGG 081600Z AUTO 18004KT 6SM 26/22 A2988 RMK T02600220 IEM_DS3505
ZGGG,2002-04-08 17:00,ZGGG 081700Z AUTO 10002KT 4SM 25/22 A2988 RMK T02500220 IEM_DS3505
ZGGG,2002-04-08 18:00,ZGGG 081800Z AUTO 07002KT 5SM 25/23 A2988 RMK SLP125 T02460228 57001 IEM_DS3505
ZGGG,2002-04-08 19:00,ZGGG 081900Z AUTO 00000KT 4SM 25/22 A2988 RMK T02500220 IEM_DS3505
ZGGG,2002-04-08 20:00,ZGGG 082000Z AUTO 02008KT 4SM 24/23 A2985 RMK T02400230 IEM_DS3505
ZGGG,2002-04-08 21:00,ZGGG 082100Z AUTO 34004KT 7SM 23/19 A2988 RMK SLP117 T02260188 57008 IEM_DS3505
ZGGG,2002-04-08 22:00,ZGGG 082200Z AUTO 36008KT 5SM 21/17 A2988 RMK T02100170 IEM_DS3505
ZGGG,2002-04-08 23:00,ZGGG 082300Z AUTO 03012KT 7SM 21/17 A2988 RMK T02100170 IEM_DS3505
ZGGG,2002-04-09 00:00,ZGGG 090000Z AUTO 32006KT 9SM 21/17 A2994 RMK SLP140 T02120173 52022 IEM_DS3505
ZGGG,2002-04-09 01:00,ZGGG 090100Z AUTO 03012KT 7SM 21/16 A2994 RMK T02100160 IEM_DS3505
ZGGG,2002-04-09 03:00,ZGGG 090300Z AUTO 34002KT 11SM 22/18 A2997 RMK SLP147 T02250175 52007 IEM_DS3505
ZGGG,2002-04-09 04:00,ZGGG 090400Z AUTO 04010KT 7SM 22/16 A2994 RMK T02200160 IEM_DS3505
ZGGG,2002-04-09 05:00,ZGGG 090500Z AUTO 02010KT 7SM 22/16 A2994 RMK T02200160 IEM_DS3505
ZGGG,2002-04-09 06:00,ZGGG 090600Z AUTO 36006KT 11SM 22/17 A2991 RMK SLP127 T02220170 57020 IEM_DS3505
ZGGG,2002-04-09 07:00,ZGGG 090700Z AUTO 01008KT 7SM 21/15 A2988 RMK T02100150 IEM_DS3505
ZGGG,2002-04-09 08:00,ZGGG 090800Z AUTO 02008KT 7SM 21/16 A2988 RMK T02100160 IEM_DS3505
ZGGG,2002-04-09 09:00,ZGGG 090900Z AUTO 02004KT 10SM 21/16 A2988 RMK SLP122 T02070164 57005 IEM_DS3505
ZGGG,2002-04-09 10:00,ZGGG 091000Z AUTO 36008KT 4SM 19/15 A2988 RMK T01900150 IEM_DS3505
ZGGG,2002-04-09 11:00,ZGGG 091100Z AUTO 03010KT 7SM 18/15 A2991 RMK T01800150 IEM_DS3505
ZGGG,2002-04-09 12:00,ZGGG 091200Z AUTO 34004KT 9SM 19/16 A2991 RMK SLP133 T01880160 52011 IEM_DS3505
ZGGG,2002-04-09 13:00,ZGGG 091300Z AUTO 02012KT 7SM 18/15 A2994 RMK T01800150 IEM_DS3505
ZGGG,2002-04-09 14:00,ZGGG 091400Z AUTO 03010KT 7SM 18/14 A2997 RMK T01800140 IEM_DS3505
ZGGG,2002-04-09 16:00,ZGGG 091600Z AUTO 02010KT 7SM 17/14 A2997 RMK T01700140 IEM_DS3505
ZGGG,2002-04-09 17:00,ZGGG 091700Z AUTO 03010KT 7SM 17/14 A2994 RMK T01700140 IEM_DS3505
ZGGG,2002-04-09 18:00,ZGGG 091800Z AUTO 32004KT 4SM 17/16 A2994 RMK 60003 SLP144 T01680160 57006 IEM_DS3505
ZGGG,2002-04-09 19:00,ZGGG 091900Z AUTO 04010KT 4SM 16/15 A2991 RMK T01600150 IEM_DS3505
ZGGG,2002-04-09 20:00,ZGGG 092000Z AUTO 04008KT 7SM 16/14 A2991 RMK T01600140 IEM_DS3505
ZGGG,2002-04-09 21:00,ZGGG 092100Z AUTO 29002KT 5SM 16/16 A2991 RMK 70003 SLP130 T01630158 57014 IEM_DS3505
ZGGG,2002-04-09 22:00,ZGGG 092200Z AUTO 36004KT 4SM 16/16 A2991 RMK T01600160 IEM_DS3505
ZGGG,2002-04-09 23:00,ZGGG 092300Z AUTO 04006KT 1 1/4SM 16/16 A2991 RMK T01600160 IEM_DS3505
ZGGG,2002-04-10 00:00,ZGGG 100000Z AUTO 02002KT 3SM 17/16 A2994 RMK 60000 SLP141 T01720164 52010 IEM_DS3505
ZGGG,2002-04-10 01:00,ZGGG 100100Z AUTO 04006KT 1SM 17/16 A2997 RMK T01700160 IEM_DS3505
ZGGG,2002-04-10 02:00,ZGGG 100200Z AUTO 35004KT 1SM 17/16 A3000 RMK T01700160 IEM_DS3505
ZGGG,2002-04-10 03:00,ZGGG 100300Z AUTO 36004KT 2SM 17/16 A2997 RMK SLP155 T01700163 52014 IEM_DS3505
ZGGG,2002-04-10 04:00,ZGGG 100400Z AUTO 01008KT 2SM 17/17 A2997 RMK T01700170 IEM_DS3505
ZGGG,2002-04-10 05:00,ZGGG 100500Z AUTO 01008KT 1 1/4SM 17/17 A2997 RMK T01700170 IEM_DS3505
ZGGG,2002-04-10 06:00,ZGGG 100600Z AUTO 34004KT 2 1/2SM 17/16 A2997 RMK 60002 SLP147 T01720162 57008 IEM_DS3505
ZGGG,2002-04-10 07:00,ZGGG 100700Z AUTO 01010KT 2 1/2SM 16/15 A2994 RMK T01600150 IEM_DS3505
ZGGG,2002-04-10 08:00,ZGGG 100800Z AUTO 36010KT 3SM 16/15 A2994 RMK T01600150 IEM_DS3505
ZGGG,2002-04-10 09:00,ZGGG 100900Z AUTO 22002KT 6SM A2994 RMK SLP101 57014 IEM_DS3505
ZGGG,2002-04-10 10:00,ZGGG 101000Z AUTO 01010KT 7SM 16/14 A2994 RMK T01600140 IEM_DS3505
ZGGG,2002-04-10 11:00,ZGGG 101100Z AUTO 36010KT 5SM 16/13 A2997 RMK T01600130 IEM_DS3505
ZGGG,2002-04-10 12:00,ZGGG 101200Z AUTO 02006KT 11SM 16/14 A3000 RMK 60000 SLP157 T01580137 52015 IEM_DS3505
ZGGG,2002-04-10 13:00,ZGGG 101300Z AUTO 01010KT 5SM 16/13 A3000 RMK T01600130 IEM_DS3505
ZGGG,2002-04-10 14:00,ZGGG 101400Z AUTO 36010KT 7SM 15/13 A3006 RMK T01500130 IEM_DS3505
ZGGG,2002-04-10 15:00,ZGGG 101500Z AUTO 34006KT 9SM 15/13 A3009 RMK SLP184 T01510133 52027 IEM_DS3505
ZGGG,2002-04-10 16:00,ZGGG 101600Z AUTO 36008KT 7SM 14/13 A3009 RMK T01400130 IEM_DS3505
ZGGG,2002-04-10 17:00,ZGGG 101700Z AUTO 36012KT 7SM 14/12 A3009 RMK T01400120 IEM_DS3505
ZGGG,2002-04-10 18:00,ZGGG 101800Z AUTO 04004KT 7SM 14/12 A3009 RMK 60008 SLP188 T01380123 52004 IEM_DS3505
ZGGG,2002-04-10 19:00,ZGGG 101900Z AUTO 36008KT 7SM 14/11 A3006 RMK T01400110 IEM_DS3505
ZGGG,2002-04-10 20:00,ZGGG 102000Z AUTO 01008KT 7SM 14/11 A3003 RMK T01400110 IEM_DS3505
ZGGG,2002-04-10 21:00,ZGGG 102100Z AUTO 34004KT 11SM 14/12 A3006 RMK 70022 SLP181 T01350116 57007 IEM_DS3505
ZGGG,2002-04-10 22:00,ZGGG 102200Z AUTO 36006KT 7SM 14/11 A3006 RMK T01400110 IEM_DS3505
ZGGG,2002-04-10 23:00,ZGGG 102300Z AUTO 36006KT 7SM 14/11 A3009 RMK T01400110 IEM_DS3505
ZGGG,2002-04-11 00:00,ZGGG 110000Z AUTO 04006KT 14SM 14/11 A3012 RMK 60012 SLP199 T01420112 52018 IEM_DS3505
ZGGG,2002-04-11 01:00,ZGGG 110100Z AUTO 36008KT 7SM 14/11 A3015 RMK T01400110 IEM_DS3505
ZGGG,2002-04-11 02:00,ZGGG 110200Z AUTO 36008KT 7SM 14/10 A3015 RMK T01400100 IEM_DS3505
ZGGG,2002-04-11 03:00,ZGGG 110300Z AUTO 36006KT 16SM 15/11 A3015 RMK SLP209 T01490107 52010 IEM_DS3505
ZGGG,2002-04-11 04:00,ZGGG 110400Z AUTO 01010KT 7SM 14/11 A3015 RMK T01400110 IEM_DS3505
ZGGG,2002-04-11 05:00,ZGGG 110500Z AUTO 01008KT 7SM 14/11 A3012 RMK T01400110 IEM_DS3505
ZGGG,2002-04-11 09:00,ZGGG 110900Z AUTO 36004KT 7SM 15/13 RMK SLP191 T01480128 57010 IEM_DS3505
ZGGG,2002-04-11 10:00,ZGGG 111000Z AUTO 04006KT 6SM 16/12 A3009 RMK T01600120 IEM_DS3505
ZGGG,2002-04-11 11:00,ZGGG 111100Z AUTO 06004KT 6SM 16/13 A3009 RMK T01600130 IEM_DS3505
ZGGG,2002-04-11 12:00,ZGGG 111200Z AUTO 00000KT 9SM 15/14 A3012 RMK 60020 SLP199 T01510135 52008 IEM_DS3505
ZGGG,2002-04-11 13:00,ZGGG 111300Z AUTO 06002KT 6SM 16/12 A3012 RMK T01600120 IEM_DS3505
ZGGG,2002-04-11 14:00,ZGGG 111400Z AUTO 08002KT 6SM 14/12 A3015 RMK T01400120 IEM_DS3505
ZGGG,2002-04-11 15:00,ZGGG 111500Z AUTO 34002KT 11SM 14/13 A3015 RMK SLP211 T01370128 52011 IEM_DS3505
ZGGG,2002-04-11 16:00,ZGGG 111600Z AUTO 00000KT 6SM 14/12 A3015 RMK T01400120 IEM_DS3505
ZGGG,2002-04-11 17:00,ZGGG 111700Z AUTO 00000KT 4SM 13/12 A3012 RMK T01300120 IEM_DS3505
ZGGG,2002-04-11 18:00,ZGGG 111800Z AUTO 34002KT 8SM 13/12 A3012 RMK SLP198 T01270120 57013 IEM_DS3505
ZGGG,2002-04-11 19:00,ZGGG 111900Z AUTO 00000KT 4SM 13/11 A3009 RMK T01300110 IEM_DS3505
ZGGG,2002-04-11 20:00,ZGGG 112000Z AUTO 00000KT 4SM 12/11 A3009 RMK T01200110 IEM_DS3505
ZGGG,2002-04-11 21:00,ZGGG 112100Z AUTO 00000KT 8SM 12/11 A3009 RMK 70036 SLP193 T01180110 57005 IEM_DS3505
ZGGG,2002-04-11 22:00,ZGGG 112200Z AUTO 00000KT 4SM 12/11 A3012 RMK T01200110 IEM_DS3505
ZGGG,2002-04-11 23:00,ZGGG 112300Z AUTO 00000KT 3SM 12/11 A3012 RMK T01200110 IEM_DS3505
ZGGG,2002-04-12 00:00,ZGGG 120000Z AUTO 34002KT 10SM 15/10 A3015 RMK 70035 SLP212 T01470103 52020 IEM_DS3505
ZGGG,2002-04-12 01:00,ZGGG 120100Z AUTO 01006KT 6SM 16/09 A3018 RMK T01600090 IEM_DS3505
ZGGG,2002-04-12 02:00,ZGGG 120200Z AUTO 02008KT 6SM 18/09 A3018 RMK T01800090 IEM_DS3505
ZGGG,2002-04-12 03:00,ZGGG 120300Z AUTO 32004KT 14SM 20/09 A3018 RMK SLP218 T02040091 52006 IEM_DS3505
ZGGG,2002-04-12 04:00,ZGGG 120400Z AUTO 01008KT 6SM 21/09 A3015 RMK T02100090 IEM_DS3505
ZGGG,2002-04-12 05:00,ZGGG 120500Z AUTO 01008KT 6SM 22/09 A3012 RMK T02200090 IEM_DS3505
ZGGG,2002-04-12 06:00,ZGGG 120600Z AUTO 00000KT 16SM 24/10 A3009 RMK SLP189 T02390102 57029 IEM_DS3505
ZGGG,2002-04-12 07:00,ZGGG 120700Z AUTO 01006KT 6SM 24/08 A3006 RMK T02400080 IEM_DS3505
ZGGG,2002-04-12 08:00,ZGGG 120800Z AUTO 01006KT 6SM 24/08 A3003 RMK T02400080 IEM_DS3505
ZGGG,2002-04-12 09:00,ZGGG 120900Z AUTO 14004KT 14SM 25/11 A3003 RMK SLP170 T02500113 57019 IEM_DS3505
ZGGG,2002-04-12 10:00,ZGGG 121000Z AUTO 33004KT 6SM 24/09 A3003 RMK T02400090 IEM_DS3505
ZGGG,2002-04-12 11:00,ZGGG 121100Z AUTO 14004KT 6SM 23/11 A3006 RMK T02300110 IEM_DS3505
ZGGG,2002-04-12 12:00,ZGGG 121200Z AUTO 00000KT 11SM 20/13 A3006 RMK SLP189 T02000134 52019 IEM_DS3505
ZGGG,2002-04-12 13:00,ZGGG 121300Z AUTO 15004KT 22/12 A3009 RMK T02200120 IEM_DS3505
ZGGG,2002-04-12 14:00,ZGGG 121400Z AUTO 12002KT 19/12 A3009 RMK T01900120 IEM_DS3505
ZGGG,2002-04-12 15:00,ZGGG 121500Z AUTO 00000KT 7SM 17/15 A3009 RMK SLP194 T01700146 52005 IEM_DS3505
ZGGG,2002-04-12 16:00,ZGGG 121600Z AUTO 00000KT 3SM 19/13 A3009 RMK T01900130 IEM_DS3505
ZGGG,2002-04-12 17:00,ZGGG 121700Z AUTO 00000KT 2 1/2SM 18/13 A3006 RMK T01800130 IEM_DS3505
ZGGG,2002-04-12 18:00,ZGGG 121800Z AUTO 00000KT 2SM 16/14 A3006 RMK SLP180 T01600144 57013 IEM_DS3505
ZGGG,2002-04-12 19:00,ZGGG 121900Z AUTO 06002KT 2 1/2SM 17/14 A3003 RMK T01700140 IEM_DS3505
ZGGG,2002-04-12 20:00,ZGGG 122000Z AUTO 00000KT 2 1/2SM 17/13 A3003 RMK T01700130 IEM_DS3505
ZGGG,2002-04-12 21:00,ZGGG 122100Z AUTO 00000KT 2SM 15/14 A3003 RMK SLP169 T01510140 57011 IEM_DS3505
ZGGG,2002-04-12 22:00,ZGGG 122200Z AUTO 00000KT 2SM 16/13 A3003 RMK T01600130 IEM_DS3505
ZGGG,2002-04-12 23:00,ZGGG 122300Z AUTO 00000KT 1 1/2SM 17/14 A3003 RMK T01700140 IEM_DS3505
ZGGG,2002-04-13 00:00,ZGGG 130000Z AUTO 04002KT 3SM 18/15 A3006 RMK SLP183 T01780152 52013 IEM_DS3505
ZGGG,2002-04-13 01:00,ZGGG 130100Z AUTO 15004KT 1 1/4SM 21/16 A3006 RMK T02100160 IEM_DS3505
ZGGG,2002-04-13 02:00,ZGGG 130200Z AUTO 11004KT 1 1/4SM 22/16 A3006 RMK T02200160 IEM_DS3505
ZGGG,2002-04-13 03:00,ZGGG 130300Z AUTO 14004KT 2 1/2SM 24/16 A3006 RMK SLP183 T02390157 52001 IEM_DS3505
ZGGG,2002-04-13 04:00,ZGGG 130400Z AUTO 17004KT 2 1/2SM 26/13 A3003 RMK T02600130 IEM_DS3505
ZGGG,2002-04-13 05:00,ZGGG 130500Z AUTO 22008KT 26/11 A3000 RMK T02600110 IEM_DS3505
ZGGG,2002-04-13 06:00,ZGGG 130600Z AUTO 20004KT 7SM 27/14 A2997 RMK SLP154 T02660139 57029 IEM_DS3505
ZGGG,2002-04-13 07:00,ZGGG 130700Z AUTO 16004KT 27/12 A2994 RMK T02700120 IEM_DS3505
ZGGG,2002-04-13 08:00,ZGGG 130800Z AUTO 18008KT 3SM 27/13 A2991 RMK T02700130 IEM_DS3505
ZGGG,2002-04-13 09:00,ZGGG 130900Z AUTO 22006KT 8SM 26/14 A2991 RMK SLP133 T02650140 57021 IEM_DS3505
ZGGG,2002-04-13 10:00,ZGGG 131000Z AUTO 17006KT 6SM 26/13 A2991 RMK T02600130 IEM_DS3505
ZGGG,2002-04-13 12:00,ZGGG 131200Z AUTO 14004KT 9SM 24/15 A2994 RMK SLP143 T02370147 52010 IEM_DS3505
ZGGG,2002-04-13 13:00,ZGGG 131300Z AUTO 18008KT 6SM 24/11 A2997 RMK T02400110 IEM_DS3505
ZGGG,2002-04-13 14:00,ZGGG 131400Z AUTO 17008KT 6SM 23/11 A2997 RMK T02300110 IEM_DS3505
ZGGG,2002-04-13 15:00,ZGGG 131500Z AUTO 11002KT 9SM 21/14 A2997 RMK SLP151 T02110137 52008 IEM_DS3505
ZGGG,2002-04-13 16:00,ZGGG 131600Z AUTO 19004KT 6SM 22/13 A2997 RMK T02200130 IEM_DS3505
ZGGG,2002-04-13 17:00,ZGGG 131700Z AUTO 19004KT 6SM 21/13 A2994 RMK T02100130 IEM_DS3505
ZGGG,2002-04-13 18:00,ZGGG 131800Z AUTO 14004KT 7SM 20/14 A2994 RMK SLP140 T02010145 57011 IEM_DS3505
ZGGG,2002-04-13 19:00,ZGGG 131900Z AUTO 00000KT 6SM 21/14 A2991 RMK T02100140 IEM_DS3505
ZGGG,2002-04-13 20:00,ZGGG 132000Z AUTO 00000KT 6SM 20/14 A2988 RMK T02000140 IEM_DS3505
ZGGG,2002-04-13 21:00,ZGGG 132100Z AUTO 16002KT 6SM 18/14 A2988 RMK SLP128 T01800140 57012 IEM_DS3505
ZGGG,2002-04-13 22:00,ZGGG 132200Z AUTO 15004KT 5SM 19/14 A2988 RMK T01900140 IEM_DS3505
ZGGG,2002-04-13 23:00,ZGGG 132300Z AUTO 00000KT 2SM 19/14 A2991 RMK T01900140 IEM_DS3505
ZGGG,2002-04-14 00:00,ZGGG 140000Z AUTO 11006KT 4SM 20/15 A2991 RMK SLP138 T02030153 52010 IEM_DS3505
ZGGG,2002-04-14 01:00,ZGGG 140100Z AUTO 16004KT 2 1/2SM 22/16 A2994 RMK T02200160 IEM_DS3505
ZGGG,2002-04-14 02:00,ZGGG 140200Z AUTO 21006KT 2SM 24/17 A2994 RMK T02400170 IEM_DS3505
ZGGG,2002-04-14 03:00,ZGGG 140300Z AUTO 20004KT 6SM 25/18 A2994 RMK SLP144 T02500183 52006 IEM_DS3505
ZGGG,2002-04-14 04:00,ZGGG 140400Z AUTO 20004KT 3SM 25/17 A2994 RMK T02500170 IEM_DS3505
ZGGG,2002-04-14 05:00,ZGGG 140500Z AUTO 13002KT 3SM 26/17 A2991 RMK T02600170 IEM_DS3505
ZGGG,2002-04-14 06:00,ZGGG 140600Z AUTO 14004KT 7SM 26/19 A2988 RMK SLP121 T02620191 57023 IEM_DS3505
ZGGG,2002-04-14 07:00,ZGGG 140700Z AUTO 16006KT 3SM 27/18 A2985 RMK T02700180 IEM_DS3505
ZGGG,2002-04-14 08:00,ZGGG 140800Z AUTO 15006KT 2 1/2SM 26/18 A2983 RMK T02600180 IEM_DS3505
ZGGG,2002-04-14 09:00,ZGGG 140900Z AUTO 14002KT 5SM 26/20 A2983 RMK SLP105 T02600199 57016 IEM_DS3505
ZGGG,2002-04-14 10:00,ZGGG 141000Z AUTO 15006KT 3SM 26/19 A2983 RMK T02600190 IEM_DS3505
ZGGG,2002-04-14 11:00,ZGGG 141100Z AUTO 15006KT 3SM 26/19 A2983 RMK T02600190 IEM_DS3505
ZGGG,2002-04-14 12:00,ZGGG 141200Z AUTO 16006KT 8SM 25/20 A2985 RMK SLP116 T02490200 52011 IEM_DS3505
ZGGG,2002-04-14 13:00,ZGGG 141300Z AUTO 16008KT 4SM 24/20 A2985 RMK T02400200 IEM_DS3505
ZGGG,2002-04-14 14:00,ZGGG 141400Z AUTO 17008KT 4SM 24/21 A2988 RMK T02400210 IEM_DS3505
ZGGG,2002-04-14 15:00,ZGGG 141500Z AUTO 11004KT 7SM 23/21 A2988 RMK SLP125 T02330210 52010 IEM_DS3505
ZGGG,2002-04-14 16:00,ZGGG 141600Z AUTO 16004KT 4SM 23/20 A2988 RMK T02300200 IEM_DS3505
ZGGG,2002-04-14 17:00,ZGGG 141700Z AUTO 17004KT 2 1/2SM 23/21 A2988 RMK T02300210 IEM_DS3505
ZGGG,2002-04-14 18:00,ZGGG 141800Z AUTO 14006KT 9SM 23/22 A2988 RMK SLP119 T02310216 57006 IEM_DS3505
ZGGG,2002-04-14 19:00,ZGGG 141900Z AUTO 18006KT 2 1/2SM 23/21 A2985 RMK T02300210 IEM_DS3505
ZGGG,2002-04-14 20:00,ZGGG 142000Z AUTO 18004KT 2 1/2SM 23/21 A2988 RMK T02300210 IEM_DS3505
ZGGG,2002-04-14 21:00,ZGGG 142100Z AUTO 16006KT 3SM 23/21 A2988 RMK T02300210 IEM_DS3505
ZGGG,2002-04-14 22:00,ZGGG 142200Z AUTO 16006KT 2 1/2SM 23/22 A2988 RMK T02300220 IEM_DS3505
ZGGG,2002-04-14 23:00,ZGGG 142300Z AUTO 15006KT 1 1/2SM 23/21 A2991 RMK T02300210 IEM_DS3505
ZGGG,2002-04-15 00:00,ZGGG 150000Z AUTO 11004KT 2SM 23/21 A2991 RMK SLP138 T02340211 52017 IEM_DS3505
ZGGG,2002-04-15 01:00,ZGGG 150100Z AUTO 15008KT 1 1/2SM 25/21 A2994 RMK T02500210 IEM_DS3505
ZGGG,2002-04-15 02:00,ZGGG 150200Z AUTO 14008KT 1 1/2SM 25/21 A2994 RMK T02500210 IEM_DS3505
ZGGG,2002-04-15 03:00,ZGGG 150300Z AUTO 14010KT 5SM 27/22 A2994 RMK SLP142 T02690217 52004 IEM_DS3505
ZGGG,2002-04-15 04:00,ZGGG 150400Z AUTO 15008KT 3SM 27/21 A2991 RMK T02700210 IEM_DS3505
ZGGG,2002-04-15 05:00,ZGGG 150500Z AUTO 17010KT 3SM 28/21 A2988 RMK T02800210 IEM_DS3505
ZGGG,2002-04-15 06:00,ZGGG 150600Z AUTO 14006KT 9SM 29/21 A2985 RMK SLP117 T02860212 57025 IEM_DS3505
ZGGG,2002-04-15 07:00,ZGGG 150700Z AUTO 16010KT 29/21 A2985 RMK T02900210 IEM_DS3505
ZGGG,2002-04-15 08:00,ZGGG 150800Z AUTO 17012KT 29/22 A2983 RMK T02900220 IEM_DS3505
ZGGG,2002-04-15 09:00,ZGGG 150900Z AUTO 16006KT 11SM 28/22 A2983 RMK SLP104 T02820223 57013 IEM_DS3505
ZGGG,2002-04-15 10:00,ZGGG 151000Z AUTO 15008KT 28/22 A2983 RMK T02800220 IEM_DS3505
ZGGG,2002-04-15 11:00,ZGGG 151100Z AUTO 15010KT 4SM 27/22 A2983 RMK T02700220 IEM_DS3505
ZGGG,2002-04-15 12:00,ZGGG 151200Z AUTO 14008KT 11SM 26/22 A2980 RMK SLP095 T02580223 57009 IEM_DS3505
ZGGG,2002-04-15 13:00,ZGGG 151300Z AUTO 16010KT 7SM 25/22 A2985 RMK T02500220 IEM_DS3505
ZGGG,2002-04-15 14:00,ZGGG 151400Z AUTO 17006KT 5SM 26/22 A2988 RMK T02600220 IEM_DS3505
ZGGG,2002-04-15 15:00,ZGGG 151500Z AUTO 16004KT 9SM 25/22 A2991 RMK SLP135 T02510223 52040 IEM_DS3505
ZGGG,2002-04-15 16:00,ZGGG 151600Z AUTO 13006KT 4SM 25/22 A2988 RMK T02500220 IEM_DS3505
ZGGG,2002-04-15 17:00,ZGGG 151700Z AUTO 15010KT 4SM 25/22 A2988 RMK T02500220 IEM_DS3505
ZGGG,2002-04-15 18:00,ZGGG 151800Z AUTO 17008KT 5SM 24/22 A2988 RMK T02400220 IEM_DS3505
ZGGG,2002-04-15 19:00,ZGGG 151900Z AUTO 15006KT 4SM 24/22 A2985 RMK T02400220 IEM_DS3505
ZGGG,2002-04-15 20:00,ZGGG 152000Z AUTO 16008KT 4SM 24/22 A2985 RMK T02400220 IEM_DS3505
ZGGG,2002-04-15 21:00,ZGGG 152100Z AUTO 14004KT 6SM 24/22 A2988 RMK 70003 SLP122 T02370224 52001 IEM_DS3505
ZGGG,2002-04-15 22:00,ZGGG 152200Z AUTO 15004KT 4SM 24/22 A2988 RMK T02400220 IEM_DS3505
ZGGG,2002-04-15 23:00,ZGGG 152300Z AUTO 15004KT 2 1/2SM 24/22 A2991 RMK T02400220 IEM_DS3505
ZGGG,2002-04-16 00:00,ZGGG 160000Z AUTO 09004KT 3SM 24/22 A2991 RMK 70003 SLP139 T02430221 52017 IEM_DS3505
ZGGG,2002-04-16 02:00,ZGGG 160200Z AUTO 15008KT 3SM 26/22 A2994 RMK T02600220 IEM_DS3505
ZGGG,2002-04-16 03:00,ZGGG 160300Z AUTO 14006KT 6SM 26/22 A2994 RMK SLP144 T02620222 52005 IEM_DS3505
ZGGG,2002-04-16 04:00,ZGGG 160400Z AUTO 14006KT 4SM 27/22 A2994 RMK T02700220 IEM_DS3505
ZGGG,2002-04-16 05:00,ZGGG 160500Z AUTO 16010KT 28/22 A2991 RMK T02800220 IEM_DS3505
ZGGG,2002-04-16 06:00,ZGGG 160600Z AUTO 16006KT 8SM 29/22 A2985 RMK SLP120 T02890223 57024 IEM_DS3505
ZGGG,2002-04-16 07:00,ZGGG 160700Z AUTO 16010KT 28/22 A2985 RMK T02800220 IEM_DS3505
ZGGG,2002-04-16 08:00,ZGGG 160800Z AUTO 15010KT 28/22 A2985 RMK T02800220 IEM_DS3505
ZGGG,2002-04-16 09:00,ZGGG 160900Z AUTO 16006KT 9SM 28/23 A2985 RMK SLP115 T02750227 57005 IEM_DS3505
ZGGG,2002-04-16 10:00,ZGGG 161000Z AUTO 15008KT 7SM 27/22 A2985 RMK T02700220 IEM_DS3505
ZGGG,2002-04-16 11:00,ZGGG 161100Z AUTO 15006KT 7SM 27/22 A2988 RMK T02700220 IEM_DS3505
ZGGG,2002-04-16 12:00,ZGGG 161200Z AUTO 14004KT 9SM 26/22 A2988 RMK SLP127 T02610223 52012 IEM_DS3505
ZGGG,2002-04-16 13:00,ZGGG 161300Z AUTO 15006KT 6SM 26/22 A2991 RMK T02600220 IEM_DS3505
ZGGG,2002-04-16 14:00,ZGGG 161400Z AUTO 16004KT 5SM 26/22 A2994 RMK T02600220 IEM_DS3505
ZGGG,2002-04-16 15:00,ZGGG 161500Z AUTO 09002KT 9SM 25/23 A2994 RMK SLP144 T02470226 52017 IEM_DS3505
ZGGG,2002-04-16 16:00,ZGGG 161600Z AUTO 00000KT 4SM 25/22 A2994 RMK T02500220 IEM_DS3505
ZGGG,2002-04-16 17:00,ZGGG 161700Z AUTO 18002KT 4SM 25/22 A2994 RMK T02500220 IEM_DS3505
ZGGG,2002-04-16 18:00,ZGGG 161800Z AUTO 14002KT 7SM 24/22 A2991 RMK SLP137 T02400225 57007 IEM_DS3505
ZGGG,2002-04-16 19:00,ZGGG 161900Z AUTO 00000KT 4SM 24/22 A2991 RMK T02400220 IEM_DS3505
ZGGG,2002-04-16 20:00,ZGGG 162000Z AUTO 00000KT 4SM 24/22 A2988 RMK T02400220 IEM_DS3505
ZGGG,2002-04-16 21:00,ZGGG 162100Z AUTO 11002KT 7SM 24/22 A2988 RMK SLP121 T02360221 57016 IEM_DS3505
ZGGG,2002-04-16 22:00,ZGGG 162200Z AUTO 00000KT 3SM 24/22 A2988 RMK T02400220 IEM_DS3505
ZGGG,2002-04-16 23:00,ZGGG 162300Z AUTO 00000KT 2 1/2SM 24/22 A2991 RMK T02400220 IEM_DS3505
ZGGG,2002-04-17 00:00,ZGGG 170000Z AUTO 09002KT 6SM 25/22 A2994 RMK SLP144 T02520225 52023 IEM_DS3505
ZGGG,2002-04-17 01:00,ZGGG 170100Z AUTO 15004KT 2 1/2SM 26/22 A2997 RMK T02600220 IEM_DS3505
ZGGG,2002-04-17 02:00,ZGGG 170200Z AUTO 16004KT 3SM 27/22 A2997 RMK T02700220 IEM_DS3505
ZGGG,2002-04-17 03:00,ZGGG 170300Z AUTO 18002KT 4SM 28/23 A2994 RMK SLP145 T02820228 52001 IEM_DS3505
ZGGG,2002-04-17 04:00,ZGGG 170400Z AUTO 22002KT 3SM 28/21 A2994 RMK T02800210 IEM_DS3505
ZGGG,2002-04-17 05:00,ZGGG 170500Z AUTO 25002KT 3SM 29/21 A2991 RMK T02900210 IEM_DS3505
ZGGG,2002-04-17 06:00,ZGGG 170600Z AUTO 18004KT 6SM 30/22 A2988 RMK SLP120 T03050215 57025 IEM_DS3505
ZGGG,2002-04-17 07:00,ZGGG 170700Z AUTO 16006KT 31/21 A2985 RMK T03100210 IEM_DS3505
ZGGG,2002-04-17 08:00,ZGGG 170800Z AUTO 16006KT 7SM 31/20 A2983 RMK T03100200 IEM_DS3505
ZGGG,2002-04-17 09:00,ZGGG 170900Z AUTO 14006KT 6SM 30/22 A2983 RMK SLP105 T02990217 57015 IEM_DS3505
ZGGG,2002-04-17 10:00,ZGGG 171000Z AUTO 14006KT 3SM 29/22 A2983 RMK T02900220 IEM_DS3505
ZGGG,2002-04-17 11:00,ZGGG 171100Z AUTO 15006KT 3SM 28/21 A2983 RMK T02800210 IEM_DS3505
ZGGG,2002-04-17 12:00,ZGGG 171200Z AUTO 14002KT 9SM 28/19 A2985 RMK SLP113 T02760188 52008 IEM_DS3505
ZGGG,2002-04-17 13:00,ZGGG 171300Z AUTO 16006KT 6SM 28/19 A2985 RMK T02800190 IEM_DS3505
ZGGG,2002-04-17 14:00,ZGGG 171400Z AUTO 17006KT 6SM 27/20 A2988 RMK T02700200 IEM_DS3505
ZGGG,2002-04-17 15:00,ZGGG 171500Z AUTO 09002KT 8SM 25/22 A2991 RMK SLP132 T02530216 52019 IEM_DS3505
ZGGG,2002-04-17 16:00,ZGGG 171600Z AUTO 15006KT 4SM 26/22 A2991 RMK T02600220 IEM_DS3505
ZGGG,2002-04-17 17:00,ZGGG 171700Z AUTO 16008KT 4SM 26/23 A2994 RMK T02600230 IEM_DS3505
ZGGG,2002-04-17 18:00,ZGGG 171800Z AUTO 17010KT 4SM 25/22 A2991 RMK T02500220 IEM_DS3505
ZGGG,2002-04-17 19:00,ZGGG 171900Z AUTO 16006KT 4SM 25/22 A2991 RMK T02500220 IEM_DS3505
ZGGG,2002-04-17 20:00,ZGGG 172000Z AUTO 16006KT 4SM 25/22 A2991 RMK T02500220 IEM_DS3505
ZGGG,2002-04-17 21:00,ZGGG 172100Z AUTO 11002KT 4SM 24/22 A2991 RMK SLP137 T02450220 52006 IEM_DS3505
ZGGG,2002-04-17 22:00,ZGGG 172200Z AUTO 15004KT 4SM 24/21 A2994 RMK T02400210 IEM_DS3505
ZGGG,2002-04-17 23:00,ZGGG 172300Z AUTO 10002KT 2 1/2SM 24/21 A2997 RMK T02400210 IEM_DS3505
ZGGG,2002-04-18 00:00,ZGGG 180000Z AUTO 09004KT 6SM 25/21 A2997 RMK SLP157 T02470212 52020 IEM_DS3505
ZGGG,2002-04-18 01:00,ZGGG 180100Z AUTO 17006KT 3SM 26/21 A3000 RMK T02600210 IEM_DS3505
ZGGG,2002-04-18 02:00,ZGGG 180200Z AUTO 15008KT 3SM 27/21 A3000 RMK T02700210 IEM_DS3505
ZGGG,2002-04-18 03:00,ZGGG 180300Z AUTO 14006KT 11SM 28/21 A3000 RMK SLP165 T02800208 52008 IEM_DS3505
ZGGG,2002-04-18 04:00,ZGGG 180400Z AUTO 32014KT 2 1/2SM 22/18 A3006 RMK T02200180 IEM_DS3505
ZGGG,2002-04-18 05:00,ZGGG 180500Z AUTO 01010KT 3SM 21/19 A3000 RMK T02100190 IEM_DS3505
ZGGG,2002-04-18 06:00,ZGGG 180600Z AUTO 34006KT 9SM 23/20 A2997 RMK 60004 SLP151 T02280195 57015 IEM_DS3505
ZGGG,2002-04-18 07:00,ZGGG 180700Z AUTO 01010KT 4SM 22/18 A2997 RMK T02200180 IEM_DS3505
ZGGG,2002-04-18 08:00,ZGGG 180800Z AUTO 36010KT 7SM 21/17 A2997 RMK T02100170 IEM_DS3505
ZGGG,2002-04-18 09:00,ZGGG 180900Z AUTO 34004KT 9SM 22/18 A2994 RMK SLP143 T02160179 57008 IEM_DS3505
ZGGG,2002-04-18 10:00,ZGGG 181000Z AUTO 01008KT 6SM 21/17 A2994 RMK T02100170 IEM_DS3505
ZGGG,2002-04-18 11:00,ZGGG 181100Z AUTO 36008KT 7SM 21/16 A2997 RMK T02100160 IEM_DS3505
ZGGG,2002-04-18 12:00,ZGGG 181200Z AUTO 34006KT 9SM 20/17 A2997 RMK SLP154 T02010167 52011 IEM_DS3505
ZGGG,2002-04-18 13:00,ZGGG 181300Z AUTO 01008KT 7SM 20/16 A3000 RMK T02000160 IEM_DS3505
ZGGG,2002-04-18 14:00,ZGGG 181400Z AUTO 36006KT 7SM 19/16 A3003 RMK T01900160 IEM_DS3505
ZGGG,2002-04-18 15:00,ZGGG 181500Z AUTO 34004KT 10SM 20/17 RMK SLP173 T01980167 52019 IEM_DS3505
ZGGG,2002-04-18 16:00,ZGGG 181600Z AUTO 02008KT 7SM 19/15 A3006 RMK T01900150 IEM_DS3505
ZGGG,2002-04-18 17:00,ZGGG 181700Z AUTO 04008KT 3SM 18/16 A3003 RMK T01800160 IEM_DS3505
ZGGG,2002-04-18 18:00,ZGGG 181800Z AUTO 04006KT 5SM 18/17 A3000 RMK T01800170 IEM_DS3505
ZGGG,2002-04-18 19:00,ZGGG 181900Z AUTO 05006KT 7SM 18/17 A3000 RMK T01800170 IEM_DS3505
ZGGG,2002-04-18 20:00,ZGGG 182000Z AUTO 04008KT 7SM 18/16 A3000 RMK T01800160 IEM_DS3505
ZGGG,2002-04-18 21:00,ZGGG 182100Z AUTO 36004KT 2 1/2SM 18/17 A3000 RMK 70006 SLP164 T01750168 52002 IEM_DS3505
ZGGG,2002-04-18 22:00,ZGGG 182200Z AUTO 04004KT 1 1/4SM 17/17 A3003 RMK T01700170 IEM_DS3505
ZGGG,2002-04-18 23:00,ZGGG 182300Z AUTO 04006KT 1 1/4SM 18/18 A3003 RMK T01800180 IEM_DS3505
ZGGG,2002-04-19 00:00,ZGGG 190000Z AUTO 34002KT 1 1/4SM 19/18 A3006 RMK 60003 SLP182 T01870181 52018 IEM_DS3505
ZGGG,2002-04-19 01:00,ZGGG 190100Z AUTO 05006KT 1SM 18/17 A3009 RMK T01800170 IEM_DS3505
ZGGG,2002-04-19 02:00,ZGGG 190200Z AUTO 08004KT 2SM 19/19 A3009 RMK T01900190 IEM_DS3505
ZGGG,2002-04-19 03:00,ZGGG 190300Z AUTO 16004KT 4SM 22/20 A3006 RMK SLP182 T02200201 54000 IEM_DS3505
ZGGG,2002-04-19 04:00,ZGGG 190400Z AUTO 16006KT 2 1/2SM 25/20 A3003 RMK T02500200 IEM_DS3505
ZGGG,2002-04-19 05:00,ZGGG 190500Z AUTO 15008KT 2SM 26/20 A3000 RMK T02600200 IEM_DS3505
ZGGG,2002-04-19 06:00,ZGGG 190600Z AUTO 14006KT 5SM 27/21 A2997 RMK 60001 SLP159 T02660206 57023 IEM_DS3505
ZGGG,2002-04-19 07:00,ZGGG 190700Z AUTO 15008KT 2 1/2SM 27/20 A2994 RMK T02700200 IEM_DS3505
ZGGG,2002-04-19 08:00,ZGGG 190800Z AUTO 17006KT 3SM 27/20 A2994 RMK T02700200 IEM_DS3505
ZGGG,2002-04-19 09:00,ZGGG 190900Z AUTO 18004KT 7SM 27/21 A2994 RMK SLP138 T02680208 57021 IEM_DS3505
ZGGG,2002-04-19 10:00,ZGGG 191000Z AUTO 10004KT 1 1/2SM 25/21 A2994 RMK T02500210 IEM_DS3505
ZGGG,2002-04-19 11:00,ZGGG 191100Z AUTO 17004KT 26/20 A2994 RMK T02600200 IEM_DS3505
ZGGG,2002-04-19 12:00,ZGGG 191200Z AUTO 14004KT 7SM 25/21 A2994 RMK SLP144 T02510206 52006 IEM_DS3505
ZGGG,2002-04-19 13:00,ZGGG 191300Z AUTO 17008KT 6SM 24/20 A2994 RMK T02400200 IEM_DS3505
ZGGG,2002-04-19 14:00,ZGGG 191400Z AUTO 18008KT 7SM 24/20 A2997 RMK T02400200 IEM_DS3505
ZGGG,2002-04-19 15:00,ZGGG 191500Z AUTO 18002KT 8SM 24/21 A2997 RMK SLP158 T02390207 52014 IEM_DS3505
ZGGG,2002-04-19 16:00,ZGGG 191600Z AUTO 17004KT 7SM 24/21 A2997 RMK T02400210 IEM_DS3505
ZGGG,2002-04-19 17:00,ZGGG 191700Z AUTO 17008KT 7SM 24/21 A2997 RMK T02400210 IEM_DS3505
ZGGG,2002-04-19 18:00,ZGGG 191800Z AUTO 14002KT 6SM 23/21 A2994 RMK SLP146 T02340210 57011 IEM_DS3505
ZGGG,2002-04-19 19:00,ZGGG 191900Z AUTO 17006KT 7SM 23/21 A2994 RMK T02300210 IEM_DS3505
ZGGG,2002-04-19 20:00,ZGGG 192000Z AUTO 14008KT 4SM 23/21 A2991 RMK T02300210 IEM_DS3505
ZGGG,2002-04-19 21:00,ZGGG 192100Z AUTO 14004KT 2 1/2SM 23/21 A2991 RMK 70004 SLP137 T02280210 57009 IEM_DS3505
ZGGG,2002-04-19 22:00,ZGGG 192200Z AUTO 00000KT 2 1/2SM 23/21 A2994 RMK T02300210 IEM_DS3505
ZGGG,2002-04-19 23:00,ZGGG 192300Z AUTO 17004KT 2SM 23/21 A2997 RMK T02300210 IEM_DS3505
ZGGG,2002-04-20 00:00,ZGGG 200000Z AUTO 11004KT 4SM 23/21 A2997 RMK 70001 SLP152 T02320208 52014 IEM_DS3505
ZGGG,2002-04-20 01:00,ZGGG 200100Z AUTO 17008KT 2 1/2SM 25/21 A2997 RMK T02500210 IEM_DS3505
ZGGG,2002-04-20 02:00,ZGGG 200200Z AUTO 16006KT 2 1/2SM 26/21 A2997 RMK T02600210 IEM_DS3505
ZGGG,2002-04-20 03:00,ZGGG 200300Z AUTO 20004KT 7SM 27/21 A2997 RMK SLP148 T02700213 57003 IEM_DS3505
ZGGG,2002-04-20 04:00,ZGGG 200400Z AUTO 18008KT 27/21 A2994 RMK T02700210 IEM_DS3505
ZGGG,2002-04-20 05:00,ZGGG 200500Z AUTO 21010KT 28/21 A2991 RMK T02800210 IEM_DS3505
ZGGG,2002-04-20 06:00,ZGGG 200600Z AUTO 18006KT 9SM 29/21 A2988 RMK SLP120 T02910214 57028 IEM_DS3505
ZGGG,2002-04-20 07:00,ZGGG 200700Z AUTO 19010KT 7SM 29/20 A2985 RMK T02900200 IEM_DS3505
ZGGG,2002-04-20 08:00,ZGGG 200800Z AUTO 20010KT 7SM 29/20 A2983 RMK T02900200 IEM_DS3505
ZGGG,2002-04-20 09:00,ZGGG 200900Z AUTO 22006KT 11SM 30/21 A2980 RMK SLP097 T03020214 57023 IEM_DS3505
ZGGG,2002-04-20 10:00,ZGGG 201000Z AUTO 21008KT 6SM 29/21 A2980 RMK T02900210 IEM_DS3505
ZGGG,2002-04-20 11:00,ZGGG 201100Z AUTO 17006KT 7SM 28/21 A2983 RMK T02800210 IEM_DS3505
ZGGG,2002-04-20 12:00,ZGGG 201200Z AUTO 16006KT 7SM 27/23 A2983 RMK SLP109 T02730229 52012 IEM_DS3505
ZGGG,2002-04-20 13:00,ZGGG 201300Z AUTO 17006KT 6SM 27/21 A2985 RMK T02700210 IEM_DS3505
ZGGG,2002-04-20 14:00,ZGGG 201400Z AUTO 17006KT 6SM 26/21 A2985 RMK T02600210 IEM_DS3505
ZGGG,2002-04-20 15:00,ZGGG 201500Z AUTO 00000KT 9SM 26/22 A2988 RMK SLP125 T02550219 52016 IEM_DS3505
ZGGG,2002-04-20 16:00,ZGGG 201600Z AUTO 14002KT 6SM 26/22 A2988 RMK T02600220 IEM_DS3505
ZGGG,2002-04-20 17:00,ZGGG 201700Z AUTO 18004KT 6SM 25/22 A2985 RMK T02500220 IEM_DS3505
ZGGG,2002-04-20 18:00,ZGGG 201800Z AUTO 14004KT 5SM 24/22 A2983 RMK SLP110 T02430222 57015 IEM_DS3505
ZGGG,2002-04-20 19:00,ZGGG 201900Z AUTO 16006KT 6SM 24/22 A2983 RMK T02400220 IEM_DS3505
ZGGG,2002-04-20 20:00,ZGGG 202000Z AUTO 00000KT 3SM 24/22 A2983 RMK T02400220 IEM_DS3505
ZGGG,2002-04-20 21:00,ZGGG 202100Z AUTO 00000KT 4SM 24/22 A2983 RMK SLP106 T02410222 57004 IEM_DS3505
ZGGG,2002-04-20 22:00,ZGGG 202200Z AUTO 17004KT 3SM 24/22 A2983 RMK T02400220 IEM_DS3505
ZGGG,2002-04-20 23:00,ZGGG 202300Z AUTO 18004KT 2 1/2SM 24/22 A2985 RMK T02400220 IEM_DS3505
ZGGG,2002-04-21 00:00,ZGGG 210000Z AUTO 14004KT 2SM 25/22 A2988 RMK SLP122 T02500223 52016 IEM_DS3505
ZGGG,2002-04-21 01:00,ZGGG 210100Z AUTO 16008KT 3SM 26/22 A2988 RMK T02600220 IEM_DS3505
ZGGG,2002-04-21 02:00,ZGGG 210200Z AUTO 22006KT 3SM 27/22 A2988 RMK T02700220 IEM_DS3505
ZGGG,2002-04-21 03:00,ZGGG 210300Z AUTO 25006KT 7SM 29/23 A2988 RMK SLP124 T02870226 52002 IEM_DS3505
ZGGG,2002-04-21 04:00,ZGGG 210400Z AUTO 21008KT 5SM 29/21 A2985 RMK T02900210 IEM_DS3505
ZGGG,2002-04-21 05:00,ZGGG 210500Z AUTO 20008KT 29/20 A2983 RMK T02900200 IEM_DS3505
ZGGG,2002-04-21 06:00,ZGGG 210600Z AUTO 18004KT 9SM 30/22 A2980 RMK SLP095 T02980220 57029 IEM_DS3505
ZGGG,2002-04-21 07:00,ZGGG 210700Z AUTO 15008KT 31/21 A2977 RMK T03100210 IEM_DS3505
ZGGG,2002-04-21 08:00,ZGGG 210800Z AUTO 13008KT 29/22 A2977 RMK T02900220 IEM_DS3505
ZGGG,2002-04-21 09:00,ZGGG 210900Z AUTO 18006KT 8SM 29/23 A2977 RMK SLP082 T02890228 57013 IEM_DS3505
ZGGG,2002-04-21 10:00,ZGGG 211000Z AUTO 15008KT 7SM 29/23 A2977 RMK T02900230 IEM_DS3505
ZGGG,2002-04-21 11:00,ZGGG 211100Z AUTO 14006KT 6SM 28/22 A2977 RMK T02800220 IEM_DS3505
ZGGG,2002-04-21 12:00,ZGGG 211200Z AUTO 14004KT 9SM 27/23 A2980 RMK SLP096 T02660227 52014 IEM_DS3505
ZGGG,2002-04-21 13:00,ZGGG 211300Z AUTO 15006KT 6SM 27/22 A2983 RMK T02700220 IEM_DS3505
ZGGG,2002-04-21 14:00,ZGGG 211400Z AUTO 16010KT 6SM 27/23 A2983 RMK T02700230 IEM_DS3505
ZGGG,2002-04-21 15:00,ZGGG 211500Z AUTO 14004KT 9SM 26/23 A2985 RMK T02580232 IEM_DS3505
ZGGG,2002-04-21 16:00,ZGGG 211600Z AUTO 17006KT 7SM 26/22 A2985 RMK T02600220 IEM_DS3505
ZGGG,2002-04-21 17:00,ZGGG 211700Z AUTO 16004KT 6SM 25/22 A2983 RMK T02500220 IEM_DS3505
ZGGG,2002-04-21 18:00,ZGGG 211800Z AUTO 16006KT 8SM 25/22 A2983 RMK SLP101 T02460225 57009 IEM_DS3505
ZGGG,2002-04-21 19:00,ZGGG 211900Z AUTO 15006KT 7SM 25/22 A2980 RMK T02500220 IEM_DS3505
ZGGG,2002-04-21 20:00,ZGGG 212000Z AUTO 15004KT 5SM 25/22 A2980 RMK T02500220 IEM_DS3505
ZGGG,2002-04-21 21:00,ZGGG 212100Z AUTO 14004KT 6SM 24/22 A2983 RMK SLP104 T02430222 52003 IEM_DS3505
ZGGG,2002-04-21 22:00,ZGGG 212200Z AUTO 16002KT 4SM 24/22 A2983 RMK T02400220 IEM_DS3505
ZGGG,2002-04-21 23:00,ZGGG 212300Z AUTO 00000KT 3SM 25/22 A2985 RMK T02500220 IEM_DS3505
ZGGG,2002-04-22 00:00,ZGGG 220000Z AUTO 16004KT 6SM 26/22 A2988 RMK SLP122 T02590221 52018 IEM_DS3505
ZGGG,2002-04-22 01:00,ZGGG 220100Z AUTO 17006KT 4SM 27/22 A2988 RMK T02700220 IEM_DS3505
ZGGG,2002-04-22 02:00,ZGGG 220200Z AUTO 18006KT 4SM 27/22 A2988 RMK T02700220 IEM_DS3505
ZGGG,2002-04-22 03:00,ZGGG 220300Z AUTO 16004KT 10SM 28/22 A2988 RMK SLP125 T02830221 52003 IEM_DS3505
ZGGG,2002-04-22 04:00,ZGGG 220400Z AUTO 23008KT 5SM 29/21 A2985 RMK T02900210 IEM_DS3505
ZGGG,2002-04-22 05:00,ZGGG 220500Z AUTO 21010KT 7SM 31/20 A2985 RMK T03100200 IEM_DS3505
ZGGG,2002-04-22 06:00,ZGGG 220600Z AUTO 20006KT 10SM 31/21 A2983 RMK SLP100 T03100209 57025 IEM_DS3505
ZGGG,2002-04-22 07:00,ZGGG 220700Z AUTO 18008KT 7SM 32/21 A2980 RMK T03200210 IEM_DS3505
ZGGG,2002-04-22 08:00,ZGGG 220800Z AUTO 14008KT 7SM 31/22 A2977 RMK T03100220 IEM_DS3505
ZGGG,2002-04-22 09:00,ZGGG 220900Z AUTO 18006KT 9SM 30/23 A2977 RMK SLP086 T03000228 57014 IEM_DS3505
ZGGG,2002-04-22 10:00,ZGGG 221000Z AUTO 13006KT 7SM 29/23 A2977 RMK T02900230 IEM_DS3505
ZGGG,2002-04-22 11:00,ZGGG 221100Z AUTO 14008KT 7SM 28/23 A2980 RMK T02800230 IEM_DS3505
ZGGG,2002-04-22 12:00,ZGGG 221200Z AUTO 18006KT 11SM 27/23 A2983 RMK SLP103 T02710232 52017 IEM_DS3505
ZGGG,2002-04-22 13:00,ZGGG 221300Z AUTO 15008KT 6SM 27/22 A2983 RMK T02700220 IEM_DS3505
ZGGG,2002-04-22 14:00,ZGGG 221400Z AUTO 15006KT 7SM 27/23 A2985 RMK T02700230 IEM_DS3505
ZGGG,2002-04-22 15:00,ZGGG 221500Z AUTO 14004KT 10SM 26/23 A2988 RMK SLP122 T02600231 52019 IEM_DS3505
ZGGG,2002-04-22 16:00,ZGGG 221600Z AUTO 15004KT 7SM 26/23 A2988 RMK T02600230 IEM_DS3505
ZGGG,2002-04-22 17:00,ZGGG 221700Z AUTO 16006KT 7SM 26/22 A2988 RMK T02600220 IEM_DS3505
ZGGG,2002-04-22 18:00,ZGGG 221800Z AUTO 18004KT 6SM 26/24 A2988 RMK SLP118 T02550235 57004 IEM_DS3505
ZGGG,2002-04-22 19:00,ZGGG 221900Z AUTO 16002KT 7SM 25/23 A2985 RMK T02500230 IEM_DS3505
ZGGG,2002-04-22 20:00,ZGGG 222000Z AUTO 16004KT 7SM 26/23 A2985 RMK T02600230 IEM_DS3505
ZGGG,2002-04-22 21:00,ZGGG 222100Z AUTO 14004KT 6SM 25/23 A2988 RMK SLP122 T02500233 52004 IEM_DS3505
ZGGG,2002-04-22 22:00,ZGGG 222200Z AUTO 17006KT 4SM 25/23 A2988 RMK T02500230 IEM_DS3505
ZGGG,2002-04-22 23:00,ZGGG 222300Z AUTO 15004KT 3SM 26/23 A2991 RMK T02600230 IEM_DS3505
ZGGG,2002-04-23 00:00,ZGGG 230000Z AUTO 25002KT 2 1/2SM 26/23 A2994 RMK SLP142 T02550230 52020 IEM_DS3505
ZGGG,2002-04-23 01:00,ZGGG 230100Z AUTO 15006KT 2 1/2SM 27/23 A2994 RMK T02700230 IEM_DS3505
ZGGG,2002-04-23 02:30,ZGGG 230230Z AUTO 17004KT 3SM 29/22 A2997 RMK T02900220 IEM_DS3505
ZGGG,2002-04-23 03:00,ZGGG 230300Z AUTO 18004KT 3SM 30/23 A2997 RMK SLP150 T02990230 52008 IEM_DS3505
ZGGG,2002-04-23 04:00,ZGGG 230400Z AUTO 15004KT 31/21 A2994 RMK T03100210 IEM_DS3505
ZGGG,2002-04-23 05:00,ZGGG 230500Z AUTO 27004KT 7SM 32/21 A2991 RMK T03200210 IEM_DS3505
ZGGG,2002-04-23 06:00,ZGGG 230600Z AUTO 16002KT 7SM 32/22 A2988 RMK SLP126 T03170219 57024 IEM_DS3505
ZGGG,2002-04-23 07:00,ZGGG 230700Z AUTO 36004KT 5SM 32/21 A2985 RMK T03200210 IEM_DS3505
ZGGG,2002-04-23 08:00,ZGGG 230800Z AUTO 13004KT 32/22 A2983 RMK T03200220 IEM_DS3505
ZGGG,2002-04-23 09:00,ZGGG 230900Z AUTO 16002KT 7SM 32/22 A2983 RMK SLP104 T03190225 57022 IEM_DS3505
ZGGG,2002-04-23 10:00,ZGGG 231000Z AUTO 16006KT 32/22 A2983 RMK T03200220 IEM_DS3505
ZGGG,2002-04-23 11:00,ZGGG 231100Z AUTO 15006KT 31/22 A2983 RMK T03100220 IEM_DS3505
ZGGG,2002-04-23 12:00,ZGGG 231200Z AUTO 20002KT 9SM 29/23 A2985 RMK SLP116 T02930231 52012 IEM_DS3505
ZGGG,2002-04-23 13:00,ZGGG 231300Z AUTO 17006KT 6SM 29/23 A2985 RMK T02900230 IEM_DS3505
ZGGG,2002-04-23 14:00,ZGGG 231400Z AUTO 17006KT 6SM 28/23 A2988 RMK T02800230 IEM_DS3505
ZGGG,2002-04-23 15:00,ZGGG 231500Z AUTO 20004KT 10SM 27/23 A2988 RMK SLP124 T02730232 52008 IEM_DS3505
ZGGG,2002-04-23 16:00,ZGGG 231600Z AUTO 16006KT 7SM 27/23 A2988 RMK T02700230 IEM_DS3505
ZGGG,2002-04-23 17:00,ZGGG 231700Z AUTO 17008KT 7SM 27/23 A2988 RMK T02700230 IEM_DS3505
ZGGG,2002-04-23 18:00,ZGGG 231800Z AUTO 14002KT 9SM 26/23 A2985 RMK SLP119 T02590233 57005 IEM_DS3505
ZGGG,2002-04-23 19:00,ZGGG 231900Z AUTO 16004KT 7SM 26/22 A2985 RMK T02600220 IEM_DS3505
ZGGG,2002-04-23 20:00,ZGGG 232000Z AUTO 14004KT 7SM 26/23 A2985 RMK T02600230 IEM_DS3505
ZGGG,2002-04-23 21:00,ZGGG 232100Z AUTO 14002KT 8SM 26/23 A2985 RMK SLP115 T02600232 57004 IEM_DS3505
ZGGG,2002-04-23 22:00,ZGGG 232200Z AUTO 00000KT 7SM 26/22 A2988 RMK T02600220 IEM_DS3505
ZGGG,2002-04-23 23:00,ZGGG 232300Z AUTO 17004KT 7SM 26/22 A2988 RMK T02600220 IEM_DS3505
ZGGG,2002-04-24 00:00,ZGGG 240000Z AUTO 00000KT 7SM 27/23 A2988 RMK SLP126 T02680233 52011 IEM_DS3505
ZGGG,2002-04-24 01:00,ZGGG 240100Z AUTO 17004KT 5SM 28/22 A2991 RMK T02800220 IEM_DS3505
ZGGG,2002-04-24 02:00,ZGGG 240200Z AUTO 27004KT 5SM 29/22 A2991 RMK T02900220 IEM_DS3505
ZGGG,2002-04-24 03:00,ZGGG 240300Z AUTO 20002KT 9SM 31/23 A2991 RMK SLP132 T03110227 52006 IEM_DS3505
ZGGG,2002-04-24 04:00,ZGGG 240400Z AUTO 27004KT 3SM 31/22 A2988 RMK T03100220 IEM_DS3505
ZGGG,2002-04-24 05:00,ZGGG 240500Z AUTO 23004KT 32/21 A2985 RMK T03200210 IEM_DS3505
ZGGG,2002-04-24 06:00,ZGGG 240600Z AUTO 25004KT 9SM 33/22 A2983 RMK SLP109 T03270218 57022 IEM_DS3505
ZGGG,2002-04-24 07:00,ZGGG 240700Z AUTO 19006KT 32/22 A2983 RMK T03200220 IEM_DS3505
ZGGG,2002-04-24 08:00,ZGGG 240800Z AUTO 17006KT 33/20 A2980 RMK T03300200 IEM_DS3505
ZGGG,2002-04-24 09:00,ZGGG 240900Z AUTO 11004KT 11SM 32/21 A2980 RMK SLP094 T03210209 57015 IEM_DS3505
ZGGG,2002-04-24 10:00,ZGGG 241000Z AUTO 16006KT 32/19 A2980 RMK T03200190 IEM_DS3505
ZGGG,2002-04-24 11:00,ZGGG 241100Z AUTO 15004KT 31/21 A2983 RMK T03100210 IEM_DS3505
ZGGG,2002-04-24 12:00,ZGGG 241200Z AUTO 14006KT 10SM 29/23 A2985 RMK SLP114 T02880230 52019 IEM_DS3505
ZGGG,2002-04-24 13:00,ZGGG 241300Z AUTO 14006KT 4SM 28/23 A2988 RMK T02800230 IEM_DS3505
ZGGG,2002-04-24 14:00,ZGGG 241400Z AUTO 16008KT 6SM 27/23 A2991 RMK T02700230 IEM_DS3505
ZGGG,2002-04-24 15:00,ZGGG 241500Z AUTO 18004KT 11SM 27/23 A2991 RMK SLP137 T02660228 52023 IEM_DS3505
ZGGG,2002-04-24 16:00,ZGGG 241600Z AUTO 00000KT 6SM 27/22 A2994 RMK T02700220 IEM_DS3505
ZGGG,2002-04-24 17:00,ZGGG 241700Z AUTO 17002KT 7SM 27/22 A2994 RMK T02700220 IEM_DS3505
ZGGG,2002-04-24 18:00,ZGGG 241800Z AUTO 20004KT 8SM 26/23 A2991 RMK SLP133 T02640232 57004 IEM_DS3505
ZGGG,2002-04-24 19:00,ZGGG 241900Z AUTO 17004KT 7SM 27/22 A2991 RMK T02700220 IEM_DS3505
ZGGG,2002-04-24 20:00,ZGGG 242000Z AUTO 14002KT 7SM 27/22 A2988 RMK T02700220 IEM_DS3505
ZGGG,2002-04-24 21:00,ZGGG 242100Z AUTO 07002KT 7SM 25/23 A2991 RMK SLP128 T02530227 57005 IEM_DS3505
ZGGG,2002-04-24 22:00,ZGGG 242200Z AUTO 00000KT 4SM 26/22 A2991 RMK T02600220 IEM_DS3505
ZGGG,2002-04-24 23:00,ZGGG 242300Z AUTO 00000KT 4SM 26/22 A2991 RMK T02600220 IEM_DS3505
ZGGG,2002-04-25 00:00,ZGGG 250000Z AUTO 11006KT 9SM 26/22 RMK SLP144 T02600218 52016 IEM_DS3505
ZGGG,2002-04-25 01:00,ZGGG 250100Z AUTO 15006KT 5SM 27/21 A2997 RMK T02700210 IEM_DS3505
ZGGG,2002-04-25 02:00,ZGGG 250200Z AUTO 15008KT 5SM 27/21 A2997 RMK T02700210 IEM_DS3505
ZGGG,2002-04-25 03:00,ZGGG 250300Z AUTO 16008KT 9SM 27/21 A2997 RMK SLP154 T02720211 52010 IEM_DS3505
ZGGG,2002-04-25 04:00,ZGGG 250400Z AUTO 16008KT 7SM 28/21 A2994 RMK T02800210 IEM_DS3505
ZGGG,2002-04-25 05:00,ZGGG 250500Z AUTO 15008KT 7SM 28/21 A2994 RMK T02800210 IEM_DS3505
ZGGG,2002-04-25 06:00,ZGGG 250600Z AUTO 16006KT 11SM 29/21 A2991 RMK SLP133 T02870208 57021 IEM_DS3505
ZGGG,2002-04-25 07:00,ZGGG 250700Z AUTO 15008KT 7SM 28/20 A2988 RMK T02800200 IEM_DS3505
ZGGG,2002-04-25 08:00,ZGGG 250800Z AUTO 16010KT 7SM 28/20 A2988 RMK T02800200 IEM_DS3505
ZGGG,2002-04-25 09:00,ZGGG 250900Z AUTO 16004KT 11SM 27/20 A2988 RMK SLP122 T02730204 57011 IEM_DS3505
ZGGG,2002-04-25 10:00,ZGGG 251000Z AUTO 13004KT 7SM 27/20 A2988 RMK T02700200 IEM_DS3505
ZGGG,2002-04-25 11:00,ZGGG 251100Z AUTO 16006KT 7SM 27/21 A2988 RMK T02700210 IEM_DS3505
ZGGG,2002-04-25 12:00,ZGGG 251200Z AUTO 18004KT 10SM 26/20 A2991 RMK SLP133 T02590203 52011 IEM_DS3505
ZGGG,2002-04-25 13:00,ZGGG 251300Z AUTO 19006KT 7SM 26/20 A2994 RMK T02600200 IEM_DS3505
ZGGG,2002-04-25 14:00,ZGGG 251400Z AUTO 36004KT 3SM 24/20 A2997 RMK T02400200 IEM_DS3505
ZGGG,2002-04-25 15:00,ZGGG 251500Z AUTO 20004KT 11SM 25/20 A2997 RMK SLP152 T02510204 52019 IEM_DS3505
ZGGG,2002-04-25 16:00,ZGGG 251600Z AUTO 03004KT 4SM 23/20 A2997 RMK T02300200 IEM_DS3505
ZGGG,2002-04-25 17:00,ZGGG 251700Z AUTO 15008KT 4SM 24/19 A2994 RMK T02400190 IEM_DS3505
ZGGG,2002-04-25 18:00,ZGGG 251800Z AUTO 14006KT 8SM 24/20 A2994 RMK SLP142 T02420197 57010 IEM_DS3505
ZGGG,2002-04-25 19:00,ZGGG 251900Z AUTO 15004KT 3SM 24/20 A2991 RMK T02400200 IEM_DS3505
ZGGG,2002-04-25 20:00,ZGGG 252000Z AUTO 11006KT 3SM 24/19 A2991 RMK T02400190 IEM_DS3505
ZGGG,2002-04-25 21:00,ZGGG 252100Z AUTO 14006KT 7SM 24/20 A2991 RMK 70003 SLP135 T02350196 57007 IEM_DS3505
ZGGG,2002-04-25 22:00,ZGGG 252200Z AUTO 15004KT 4SM 23/19 A2997 RMK T02300190 IEM_DS3505
ZGGG,2002-04-25 23:00,ZGGG 252300Z AUTO 00000KT 4SM 23/18 A2997 RMK T02300180 IEM_DS3505
ZGGG,2002-04-26 00:00,ZGGG 260000Z AUTO 11006KT 9SM 24/19 A3000 RMK 60003 SLP160 T02350190 52025 IEM_DS3505
ZGGG,2002-04-26 01:00,ZGGG 260100Z AUTO 12008KT 4SM 24/19 A3000 RMK T02400190 IEM_DS3505
ZGGG,2002-04-26 02:00,ZGGG 260200Z AUTO 12008KT 4SM 24/19 A3000 RMK T02400190 IEM_DS3505
ZGGG,2002-04-26 03:00,ZGGG 260300Z AUTO 14008KT 8SM 24/19 A3000 RMK SLP160 T02420192 54000 IEM_DS3505
ZGGG,2002-04-26 04:00,ZGGG 260400Z AUTO 13008KT 25/19 A3000 RMK T02500190 IEM_DS3505
ZGGG,2002-04-26 05:00,ZGGG 260500Z AUTO 11006KT 26/19 A2997 RMK T02600190 IEM_DS3505
ZGGG,2002-04-26 06:00,ZGGG 260600Z AUTO 18006KT 9SM 26/19 A2994 RMK SLP140 T02620194 57020 IEM_DS3505
ZGGG,2002-04-26 07:00,ZGGG 260700Z AUTO 17008KT 3SM 26/19 A2994 RMK T02600190 IEM_DS3505
ZGGG,2002-04-26 08:00,ZGGG 260800Z AUTO 15006KT 3SM 26/19 A2988 RMK T02600190 IEM_DS3505
ZGGG,2002-04-26 09:00,ZGGG 260900Z AUTO 16002KT 9SM 26/20 A2988 RMK SLP123 T02640200 57017 IEM_DS3505
ZGGG,2002-04-26 10:00,ZGGG 261000Z AUTO 16006KT 5SM 26/19 A2988 RMK T02600190 IEM_DS3505
ZGGG,2002-04-26 11:00,ZGGG 261100Z AUTO 15006KT 26/19 A2991 RMK T02600190 IEM_DS3505
ZGGG,2002-04-26 12:00,ZGGG 261200Z AUTO 00000KT 8SM 26/20 A2991 RMK SLP137 T02560201 52014 IEM_DS3505
ZGGG,2002-04-26 13:00,ZGGG 261300Z AUTO 15010KT 7SM 25/19 A2994 RMK T02500190 IEM_DS3505
ZGGG,2002-04-26 14:00,ZGGG 261400Z AUTO 15006KT 6SM 24/19 A2997 RMK T02400190 IEM_DS3505
ZGGG,2002-04-26 15:00,ZGGG 261500Z AUTO 14006KT 10SM 24/20 A2997 RMK SLP152 T02400195 52014 IEM_DS3505
ZGGG,2002-04-26 16:00,ZGGG 261600Z AUTO 15004KT 6SM 24/19 A2994 RMK T02400190 IEM_DS3505
ZGGG,2002-04-26 17:00,ZGGG 261700Z AUTO 15004KT 6SM 23/18 A2994 RMK T02300180 IEM_DS3505
ZGGG,2002-04-26 18:00,ZGGG 261800Z AUTO 09004KT 9SM 23/19 A2991 RMK SLP138 T02300189 57013 IEM_DS3505
ZGGG,2002-04-26 19:00,ZGGG 261900Z AUTO 12004KT 7SM 23/18 A2991 RMK T02300180 IEM_DS3505
ZGGG,2002-04-26 20:00,ZGGG 262000Z AUTO 11004KT 7SM 23/19 A2991 RMK T02300190 IEM_DS3505
ZGGG,2002-04-26 21:00,ZGGG 262100Z AUTO 09006KT 8SM 23/19 A2991 RMK 70003 SLP133 T02280191 57005 IEM_DS3505
ZGGG,2002-04-26 22:00,ZGGG 262200Z AUTO 11006KT 7SM 23/19 A2991 RMK T02300190 IEM_DS3505
ZGGG,2002-04-26 23:00,ZGGG 262300Z AUTO 13004KT 4SM 23/18 A2994 RMK T02300180 IEM_DS3505
ZGGG,2002-04-27 00:00,ZGGG 270000Z AUTO 14004KT 5SM 23/19 A2997 RMK SLP151 T02300194 52018 IEM_DS3505
ZGGG,2002-04-27 01:00,ZGGG 270100Z AUTO 12008KT 25/19 A2997 RMK T02500190 IEM_DS3505
ZGGG,2002-04-27 02:00,ZGGG 270200Z AUTO 15010KT 26/19 A3000 RMK T02600190 IEM_DS3505
ZGGG,2002-04-27 03:00,ZGGG 270300Z AUTO 16004KT 9SM 26/19 A2997 RMK SLP158 T02590193 52007 IEM_DS3505
ZGGG,2002-04-27 04:00,ZGGG 270400Z AUTO 14010KT 27/19 A2997 RMK T02700190 IEM_DS3505
ZGGG,2002-04-27 05:00,ZGGG 270500Z AUTO 17010KT 7SM 27/19 A2994 RMK T02700190 IEM_DS3505
ZGGG,2002-04-27 06:00,ZGGG 270600Z AUTO 14006KT 9SM 28/20 RMK SLP134 T02760199 57024 IEM_DS3505
ZGGG,2002-04-27 07:00,ZGGG 270700Z AUTO 15008KT 7SM 28/19 A2991 RMK T02800190 IEM_DS3505
ZGGG,2002-04-27 08:00,ZGGG 270800Z AUTO 16008KT 7SM 28/19 A2988 RMK T02800190 IEM_DS3505
ZGGG,2002-04-27 09:00,ZGGG 270900Z AUTO 16004KT 11SM 28/20 A2985 RMK SLP119 T02760197 57015 IEM_DS3505
ZGGG,2002-04-27 10:00,ZGGG 271000Z AUTO 16008KT 6SM 27/19 A2985 RMK T02700190 IEM_DS3505
ZGGG,2002-04-27 11:00,ZGGG 271100Z AUTO 16008KT 6SM 27/19 A2988 RMK T02700190 IEM_DS3505
ZGGG,2002-04-27 12:00,ZGGG 271200Z AUTO 16006KT 9SM 26/21 A2988 RMK SLP125 T02600206 52006 IEM_DS3505
ZGGG,2002-04-27 13:00,ZGGG 271300Z AUTO 15008KT 6SM 25/20 A2991 RMK T02500200 IEM_DS3505
ZGGG,2002-04-27 14:00,ZGGG 271400Z AUTO 16006KT 6SM 25/21 A2991 RMK T02500210 IEM_DS3505
ZGGG,2002-04-27 15:00,ZGGG 271500Z AUTO 18002KT 9SM 24/20 A2994 RMK SLP140 T02440204 52015 IEM_DS3505
ZGGG,2002-04-27 16:00,ZGGG 271600Z AUTO 16006KT 7SM 24/20 A2991 RMK T02400200 IEM_DS3505
ZGGG,2002-04-27 17:00,ZGGG 271700Z AUTO 16006KT 7SM 24/19 A2991 RMK T02400190 IEM_DS3505
ZGGG,2002-04-27 18:00,ZGGG 271800Z AUTO 16004KT 7SM 24/20 A2991 RMK SLP132 T02380200 57008 IEM_DS3505
ZGGG,2002-04-27 19:00,ZGGG 271900Z AUTO 11002KT 7SM 23/19 A2991 RMK T02300190 IEM_DS3505
ZGGG,2002-04-27 20:00,ZGGG 272000Z AUTO 12004KT 6SM 23/19 A2988 RMK T02300190 IEM_DS3505
ZGGG,2002-04-27 21:00,ZGGG 272100Z AUTO 09002KT 6SM 23/20 A2991 RMK SLP132 T02290200 54000 IEM_DS3505
ZGGG,2002-04-27 22:00,ZGGG 272200Z AUTO 11004KT 4SM 23/19 A2994 RMK T02300190 IEM_DS3505
ZGGG,2002-04-27 22:15,ZGGG 272215Z 280024 12003MPS 6000 BKN030 TEMPO 0312 FEW030CB BKN030
ZGGG,2002-04-27 23:00,ZGGG 272300Z AUTO 12008KT 4SM 23/19 A2994 RMK T02300190 IEM_DS3505
ZGGG,2002-04-28 00:00,ZGGG 280000Z AUTO 11004KT 4SM 24/20 A2997 RMK SLP151 T02390201 52019 IEM_DS3505
ZGGG,2002-04-28 01:00,ZGGG 280100Z AUTO 13006KT 25/19 A2997 RMK T02500190 IEM_DS3505
ZGGG,2002-04-28 02:00,ZGGG 280200Z AUTO 14008KT 6SM 27/19 A2997 RMK T02700190 IEM_DS3505
ZGGG,2002-04-28 03:00,ZGGG 280300Z AUTO 11004KT 9SM 27/20 A2997 RMK SLP153 T02690202 52002 IEM_DS3505
ZGGG,2002-04-28 04:00,ZGGG 280400Z AUTO 14008KT 29/20 A2994 RMK T02900200 IEM_DS3505
ZGGG,2002-04-28 05:00,ZGGG 280500Z AUTO 14008KT 7SM 29/19 A2991 RMK T02900190 IEM_DS3505
ZGGG,2002-04-28 06:00,ZGGG 280600Z AUTO 16004KT 11SM 30/19 A2988 RMK SLP130 T03000190 57023 IEM_DS3505
ZGGG,2002-04-28 07:00,ZGGG 280700Z AUTO 15008KT 7SM 31/19 A2985 RMK T03100190 IEM_DS3505
ZGGG,2002-04-28 08:00,ZGGG 280800Z AUTO 16008KT 7SM 31/18 A2985 RMK T03100180 IEM_DS3505
ZGGG,2002-04-28 09:00,ZGGG 280900Z AUTO 16008KT 11SM 30/20 A2983 RMK SLP107 T02980198 57023 IEM_DS3505
ZGGG,2002-04-28 10:00,ZGGG 281000Z AUTO 16010KT 6SM 29/19 A2983 RMK T02900190 IEM_DS3505
ZGGG,2002-04-28 11:00,ZGGG 281100Z AUTO 15008KT 6SM 28/19 A2985 RMK T02800190 IEM_DS3505
ZGGG,2002-04-28 12:00,ZGGG 281200Z AUTO 22004KT 9SM 27/21 A2985 RMK SLP115 T02680208 52008 IEM_DS3505
ZGGG,2002-04-28 13:00,ZGGG 281300Z AUTO 17010KT 6SM 26/20 A2988 RMK T02600200 IEM_DS3505
ZGGG,2002-04-28 14:00,ZGGG 281400Z AUTO 18008KT 6SM 26/20 A2988 RMK T02600200 IEM_DS3505
ZGGG,2002-04-28 15:00,ZGGG 281500Z AUTO 18004KT 9SM 25/21 A2991 RMK SLP129 T02510214 52014 IEM_DS3505
ZGGG,2002-04-28 16:00,ZGGG 281600Z AUTO 16006KT 6SM 25/21 A2991 RMK T02500210 IEM_DS3505
ZGGG,2002-04-28 17:00,ZGGG 281700Z AUTO 16008KT 7SM 25/21 A2988 RMK T02500210 IEM_DS3505
ZGGG,2002-04-28 18:00,ZGGG 281800Z AUTO 14004KT 8SM 24/21 A2988 RMK SLP123 T02430210 57006 IEM_DS3505
ZGGG,2002-04-28 19:00,ZGGG 281900Z AUTO 15004KT 4SM 24/21 A2988 RMK T02400210 IEM_DS3505
ZGGG,2002-04-28 20:00,ZGGG 282000Z AUTO 10002KT 4SM 24/21 A2988 RMK T02400210 IEM_DS3505
ZGGG,2002-04-28 21:00,ZGGG 282100Z AUTO 00000KT 6SM 24/21 A2988 RMK SLP122 T02360209 57001 IEM_DS3505
ZGGG,2002-04-28 22:00,ZGGG 282200Z AUTO 10004KT 4SM 24/21 A2988 RMK T02400210 IEM_DS3505
ZGGG,2002-04-28 23:00,ZGGG 282300Z AUTO 10002KT 3SM 24/21 A2988 RMK T02400210 IEM_DS3505
ZGGG,2002-04-29 00:00,ZGGG 290000Z AUTO 14004KT 7SM 25/21 A2991 RMK SLP135 T02490208 52013 IEM_DS3505
ZGGG,2002-04-29 01:00,ZGGG 290100Z AUTO 09004KT 3SM 25/21 A2994 RMK T02500210 IEM_DS3505
ZGGG,2002-04-29 02:00,ZGGG 290200Z AUTO 10004KT 4SM 26/21 A2994 RMK T02600210 IEM_DS3505
ZGGG,2002-04-29 03:00,ZGGG 290300Z AUTO 14006KT 6SM 28/21 A2991 RMK SLP138 T02770208 52003 IEM_DS3505
ZGGG,2002-04-29 04:00,ZGGG 290400Z AUTO 13006KT 29/21 A2991 RMK T02900210 IEM_DS3505
ZGGG,2002-04-29 05:00,ZGGG 290500Z AUTO 17006KT 28/21 A2988 RMK T02800210 IEM_DS3505
ZGGG,2002-04-29 06:00,ZGGG 290600Z AUTO 14006KT 6SM 29/21 A2985 RMK SLP114 T02880207 57024 IEM_DS3505
ZGGG,2002-04-29 07:00,ZGGG 290700Z AUTO 17006KT 5SM 30/21 A2983 RMK T03000210 IEM_DS3505
ZGGG,2002-04-29 08:00,ZGGG 290800Z AUTO 16006KT 7SM 30/20 A2980 RMK T03000200 IEM_DS3505
ZGGG,2002-04-29 09:00,ZGGG 290900Z AUTO 18004KT 8SM 30/20 A2980 RMK SLP091 T02980199 57023 IEM_DS3505
ZGGG,2002-04-29 10:00,ZGGG 291000Z AUTO 17006KT 6SM 29/19 A2980 RMK T02900190 IEM_DS3505
ZGGG,2002-04-29 11:00,ZGGG 291100Z AUTO 17006KT 6SM 28/21 A2980 RMK T02800210 IEM_DS3505
ZGGG,2002-04-29 12:00,ZGGG 291200Z AUTO 00000KT 9SM 28/21 A2983 RMK SLP102 T02780214 52011 IEM_DS3505
ZGGG,2002-04-29 13:00,ZGGG 291300Z AUTO 17006KT 7SM 27/21 A2985 RMK T02700210 IEM_DS3505
ZGGG,2002-04-29 14:00,ZGGG 291400Z AUTO 17006KT 7SM 27/22 A2985 RMK T02700220 IEM_DS3505
ZGGG,2002-04-29 15:00,ZGGG 291500Z AUTO 18002KT 11SM 26/22 A2985 RMK SLP116 T02630223 52014 IEM_DS3505
ZGGG,2002-04-29 16:00,ZGGG 291600Z AUTO 17006KT 7SM 26/22 A2985 RMK T02600220 IEM_DS3505
ZGGG,2002-04-29 17:00,ZGGG 291700Z AUTO 16006KT 7SM 26/22 A2985 RMK T02600220 IEM_DS3505
ZGGG,2002-04-29 18:00,ZGGG 291800Z AUTO 00000KT 7SM 26/23 A2985 RMK SLP114 T02560228 57002 IEM_DS3505
ZGGG,2002-04-29 19:00,ZGGG 291900Z AUTO 14006KT 4SM 26/22 A2983 RMK T02600220 IEM_DS3505
ZGGG,2002-04-29 20:00,ZGGG 292000Z AUTO 16004KT 4SM 25/22 A2983 RMK T02500220 IEM_DS3505
ZGGG,2002-04-29 21:00,ZGGG 292100Z AUTO 00000KT 7SM 25/22 A2985 RMK SLP111 T02470220 57003 IEM_DS3505
ZGGG,2002-04-29 22:00,ZGGG 292200Z AUTO 12004KT 3SM 25/22 A2985 RMK T02500220 IEM_DS3505
ZGGG,2002-04-29 23:00,ZGGG 292300Z AUTO 12004KT 2 1/2SM 25/22 A2985 RMK T02500220 IEM_DS3505
ZGGG,2002-04-30 00:00,ZGGG 300000Z AUTO 11004KT 6SM 26/22 A2988 RMK SLP124 T02550224 52013 IEM_DS3505
ZGGG,2002-04-30 01:00,ZGGG 300100Z AUTO 14006KT 4SM 27/22 A2988 RMK T02700220 IEM_DS3505
ZGGG,2002-04-30 02:00,ZGGG 300200Z AUTO 16008KT 28/22 A2988 RMK T02800220 IEM_DS3505
ZGGG,2002-04-30 03:00,ZGGG 300300Z AUTO 16006KT 11SM 29/22 A2988 RMK T02900220 IEM_DS3505
ZGGG,2002-04-30 04:00,ZGGG 300400Z AUTO 16006KT 30/21 A2985 RMK T03000210 IEM_DS3505
ZGGG,2002-04-30 05:00,ZGGG 300500Z AUTO 16008KT 31/21 A2983 RMK T03100210 IEM_DS3505
ZGGG,2002-04-30 06:00,ZGGG 300600Z AUTO 16008KT 12SM 31/22 A2980 RMK SLP098 T03100218 57025 IEM_DS3505
ZGGG,2002-04-30 07:00,ZGGG 300700Z AUTO 17008KT 7SM 31/22 A2980 RMK T03100220 IEM_DS3505
ZGGG,2002-04-30 08:00,ZGGG 300800Z AUTO 15008KT 7SM 31/22 A2977 RMK T03100220 IEM_DS3505
ZGGG,2002-04-30 09:00,ZGGG 300900Z AUTO 18006KT 14SM 30/21 A2974 RMK SLP081 T03040213 57017 IEM_DS3505
ZGGG,2002-04-30 10:00,ZGGG 301000Z AUTO 15006KT 7SM 30/22 A2974 RMK T03000220 IEM_DS3505
ZGGG,2002-04-30 11:00,ZGGG 301100Z AUTO 16008KT 6SM 29/21 A2977 RMK T02900210 IEM_DS3505
ZGGG,2002-04-30 12:00,ZGGG 301200Z AUTO 14006KT 12SM 28/23 A2977 RMK SLP085 T02820227 52004 IEM_DS3505
ZGGG,2002-04-30 13:00,ZGGG 301300Z AUTO 15006KT 6SM 28/23 A2980 RMK T02800230 IEM_DS3505
ZGGG,2002-04-30 14:00,ZGGG 301400Z AUTO 15006KT 6SM 27/23 A2980 RMK T02700230 IEM_DS3505
ZGGG,2002-04-30 15:00,ZGGG 301500Z AUTO 16004KT 11SM 26/23 A2980 RMK SLP098 T02640229 52013 IEM_DS3505
ZGGG,2002-04-30 16:00,ZGGG 301600Z AUTO 17006KT 6SM 26/22 A2983 RMK T02600220 IEM_DS3505
ZGGG,2002-04-30 17:00,ZGGG 301700Z AUTO 16006KT 6SM 26/22 A2980 RMK T02600220 IEM_DS3505
ZGGG,2002-04-30 18:00,ZGGG 301800Z AUTO 00000KT 8SM 25/23 A2980 RMK SLP094 T02520229 57004 IEM_DS3505
ZGGG,2002-04-30 19:00,ZGGG 301900Z AUTO 13004KT 7SM 26/22 A2980 RMK T02600220 IEM_DS3505
ZGGG,2002-04-30 20:00,ZGGG 302000Z AUTO 12002KT 7SM 26/22 A2980 RMK T02600220 IEM_DS3505
ZGGG,2002-04-30 21:00,ZGGG 302100Z AUTO 00000KT 7SM 25/23 A2980 RMK SLP094 T02460227 54000 IEM_DS3505
ZGGG,2002-04-30 22:00,ZGGG 302200Z AUTO 15004KT 4SM 25/22 A2980 RMK T02500220 IEM_DS3505
ZGGG,2002-04-30 23:00,ZGGG 302300Z AUTO 16004KT 4SM 26/22 A2983 RMK T02600220 IEM_DS3505
ZGGG,2002-05-01 00:00,ZGGG 010000Z AUTO 09004KT 7SM 26/23 A2985 RMK SLP115 T02620230 52021 IEM_DS3505
ZGGG,2002-05-01 01:00,ZGGG 010100Z AUTO 12004KT 3SM 27/22 A2988 RMK T02700220 IEM_DS3505
ZGGG,2002-05-01 02:00,ZGGG 010200Z AUTO 15006KT 28/22 A2988 RMK T02800220 IEM_DS3505
ZGGG,2002-05-01 03:00,ZGGG 010300Z AUTO 25004KT 9SM 29/22 A2988 RMK SLP121 T02880217 52006 IEM_DS3505
ZGGG,2002-05-01 04:00,ZGGG 010400Z AUTO 16006KT 7SM 30/21 A2985 RMK T03000210 IEM_DS3505
ZGGG,2002-05-01 05:00,ZGGG 010500Z AUTO 20010KT 7SM 31/21 A2983 RMK T03100210 IEM_DS3505
ZGGG,2002-05-01 06:00,ZGGG 010600Z AUTO 25004KT 11SM 31/22 A2980 RMK SLP099 T03140217 57022 IEM_DS3505
ZGGG,2002-05-01 07:00,ZGGG 010700Z AUTO 14008KT 7SM 32/20 A2977 RMK T03200200 IEM_DS3505
ZGGG,2002-05-01 08:00,ZGGG 010800Z AUTO 16006KT 7SM 31/20 A2977 RMK T03100200 IEM_DS3505
ZGGG,2002-05-01 09:00,ZGGG 010900Z AUTO 14006KT 13SM 31/20 A2974 RMK SLP081 T03120205 57018 IEM_DS3505
ZGGG,2002-05-01 10:00,ZGGG 011000Z AUTO 16008KT 6SM 31/20 A2977 RMK T03100200 IEM_DS3505
ZGGG,2002-05-01 11:00,ZGGG 011100Z AUTO 16008KT 6SM 30/21 A2977 RMK T03000210 IEM_DS3505
ZGGG,2002-05-01 12:00,ZGGG 011200Z AUTO 14004KT 12SM 28/21 A2980 RMK SLP097 T02850209 52016 IEM_DS3505
ZGGG,2002-05-01 13:00,ZGGG 011300Z AUTO 14006KT 6SM 28/22 A2983 RMK T02800220 IEM_DS3505
ZGGG,2002-05-01 14:00,ZGGG 011400Z AUTO 16006KT 6SM 27/22 A2983 RMK T02700220 IEM_DS3505
ZGGG,2002-05-01 15:00,ZGGG 011500Z AUTO 14004KT 11SM 27/21 A2983 RMK SLP109 T02660211 52012 IEM_DS3505
ZGGG,2002-05-01 16:00,ZGGG 011600Z AUTO 16006KT 6SM 27/20 A2983 RMK T02700200 IEM_DS3505
ZGGG,2002-05-01 17:00,ZGGG 011700Z AUTO 16004KT 6SM 27/21 A2983 RMK T02700210 IEM_DS3505
ZGGG,2002-05-01 18:00,ZGGG 011800Z AUTO 16006KT 9SM 26/22 A2983 RMK SLP108 T02550216 57001 IEM_DS3505
ZGGG,2002-05-01 19:00,ZGGG 011900Z AUTO 14006KT 7SM 26/21 A2983 RMK T02600210 IEM_DS3505
ZGGG,2002-05-01 20:00,ZGGG 012000Z AUTO 16006KT 7SM 26/21 A2985 RMK T02600210 IEM_DS3505
ZGGG,2002-05-01 21:00,ZGGG 012100Z AUTO 18004KT 9SM 25/22 A2985 RMK SLP115 T02510223 52007 IEM_DS3505
ZGGG,2002-05-01 22:00,ZGGG 012200Z AUTO 18002KT 7SM 25/21 A2988 RMK T02500210 IEM_DS3505
ZGGG,2002-05-01 23:00,ZGGG 012300Z AUTO 16004KT 7SM 26/22 A2991 RMK T02600220 IEM_DS3505
ZGGG,2002-05-02 00:00,ZGGG 020000Z AUTO 07004KT 8SM 27/22 A2994 RMK SLP141 T02670220 52026 IEM_DS3505
ZGGG,2002-05-02 01:00,ZGGG 020100Z AUTO 14004KT 7SM 28/21 A2994 RMK T02800210 IEM_DS3505
ZGGG,2002-05-02 02:00,ZGGG 020200Z AUTO 13004KT 7SM 29/21 A2994 RMK T02900210 IEM_DS3505
ZGGG,2002-05-02 03:00,ZGGG 020300Z AUTO 09004KT 10SM 29/21 A2994 RMK SLP141 T02940211 54000 IEM_DS3505
ZGGG,2002-05-02 04:00,ZGGG 020400Z AUTO 17006KT 7SM 30/20 A2991 RMK T03000200 IEM_DS3505
ZGGG,2002-05-02 05:00,ZGGG 020500Z AUTO 14004KT 7SM 31/20 A2988 RMK T03100200 IEM_DS3505
ZGGG,2002-05-02 06:00,ZGGG 020600Z AUTO 18004KT 12SM 31/21 A2985 RMK SLP115 T03140207 57026 IEM_DS3505
ZGGG,2002-05-02 07:00,ZGGG 020700Z AUTO 12004KT 7SM 32/20 A2983 RMK T03200200 IEM_DS3505
ZGGG,2002-05-02 08:00,ZGGG 020800Z AUTO 15006KT 7SM 32/20 A2983 RMK T03200200 IEM_DS3505
ZGGG,2002-05-02 09:00,ZGGG 020900Z AUTO 14004KT 11SM 32/20 A2983 RMK SLP101 T03220205 57014 IEM_DS3505
ZGGG,2002-05-02 10:00,ZGGG 021000Z AUTO 15006KT 7SM 32/19 A2980 RMK T03200190 IEM_DS3505
ZGGG,2002-05-02 11:00,ZGGG 021100Z AUTO 16006KT 31/21 A2983 RMK T03100210 IEM_DS3505
ZGGG,2002-05-02 12:00,ZGGG 021200Z AUTO 16008KT 10SM 29/22 A2985 RMK SLP112 T02910216 52011 IEM_DS3505
ZGGG,2002-05-02 13:00,ZGGG 021300Z AUTO 16006KT 6SM 29/21 A2988 RMK T02900210 IEM_DS3505
ZGGG,2002-05-02 14:00,ZGGG 021400Z AUTO 16008KT 6SM 28/21 A2988 RMK T02800210 IEM_DS3505
ZGGG,2002-05-02 15:00,ZGGG 021500Z AUTO 20002KT 11SM 27/22 A2991 RMK SLP132 T02730221 52020 IEM_DS3505
ZGGG,2002-05-02 16:00,ZGGG 021600Z AUTO 17008KT 6SM 27/21 A2988 RMK T02700210 IEM_DS3505
ZGGG,2002-05-02 17:00,ZGGG 021700Z AUTO 17006KT 7SM 27/22 A2988 RMK T02700220 IEM_DS3505
ZGGG,2002-05-02 18:00,ZGGG 021800Z AUTO 00000KT 10SM 26/23 A2988 RMK SLP127 T02610232 57005 IEM_DS3505
ZGGG,2002-05-02 19:00,ZGGG 021900Z AUTO 12004KT 7SM 26/22 A2988 RMK T02600220 IEM_DS3505
ZGGG,2002-05-02 20:00,ZGGG 022000Z AUTO 16004KT 7SM 26/22 A2988 RMK T02600220 IEM_DS3505
ZGGG,2002-05-02 21:00,ZGGG 022100Z AUTO 00000KT 8SM 24/22 A2988 RMK SLP124 T02450224 57003 IEM_DS3505
ZGGG,2002-05-02 22:00,ZGGG 022200Z AUTO 00000KT 4SM 25/22 A2991 RMK T02500220 IEM_DS3505
ZGGG,2002-05-02 23:00,ZGGG 022300Z AUTO 07004KT 3SM 25/22 A2994 RMK T02500220 IEM_DS3505
ZGGG,2002-05-03 00:00,ZGGG 030000Z AUTO 14004KT 6SM 27/22 A2997 RMK SLP151 T02680225 52027 IEM_DS3505
ZGGG,2002-05-03 01:00,ZGGG 030100Z AUTO 13006KT 3SM 28/22 A2994 RMK T02800220 IEM_DS3505
ZGGG,2002-05-03 02:00,ZGGG 030200Z AUTO 11008KT 5SM 29/21 A2997 RMK T02900210 IEM_DS3505
ZGGG,2002-05-03 03:00,ZGGG 030300Z AUTO 20004KT 9SM 30/21 A2994 RMK SLP146 T03020207 57005 IEM_DS3505
ZGGG,2002-05-03 04:00,ZGGG 030400Z AUTO 17006KT 7SM 31/19 A2994 RMK T03100190 IEM_DS3505
ZGGG,2002-05-03 05:00,ZGGG 030500Z AUTO 16006KT 7SM 32/19 A2991 RMK T03200190 IEM_DS3505
ZGGG,2002-05-03 06:00,ZGGG 030600Z AUTO 16004KT 9SM 32/20 A2988 RMK SLP124 T03160195 57022 IEM_DS3505
ZGGG,2002-05-03 07:00,ZGGG 030700Z AUTO 18004KT 7SM 33/18 A2985 RMK T03300180 IEM_DS3505
ZGGG,2002-05-03 08:00,ZGGG 030800Z AUTO 21006KT 7SM 33/18 A2985 RMK T03300180 IEM_DS3505
ZGGG,2002-05-03 09:00,ZGGG 030900Z AUTO 14006KT 10SM 32/20 A2983 RMK SLP105 T03230202 57019 IEM_DS3505
ZGGG,2002-05-03 10:00,ZGGG 031000Z AUTO 16006KT 6SM 32/18 A2983 RMK T03200180 IEM_DS3505
ZGGG,2002-05-03 11:00,ZGGG 031100Z AUTO 16006KT 6SM 31/19 A2983 RMK T03100190 IEM_DS3505
ZGGG,2002-05-03 12:00,ZGGG 031200Z AUTO 18006KT 8SM 29/20 A2985 RMK SLP115 T02940197 52010 IEM_DS3505
ZGGG,2002-05-03 13:00,ZGGG 031300Z AUTO 15006KT 6SM 29/19 A2988 RMK T02900190 IEM_DS3505
ZGGG,2002-05-03 14:00,ZGGG 031400Z AUTO 15004KT 6SM 28/21 A2988 RMK T02800210 IEM_DS3505
ZGGG,2002-05-03 15:00,ZGGG 031500Z AUTO 18006KT 11SM 27/22 A2991 RMK SLP132 T02720219 52017 IEM_DS3505
ZGGG,2002-05-03 16:00,ZGGG 031600Z AUTO 15004KT 6SM 27/21 A2991 RMK T02700210 IEM_DS3505
ZGGG,2002-05-03 17:00,ZGGG 031700Z AUTO 17006KT 6SM 27/22 A2991 RMK T02700220 IEM_DS3505
ZGGG,2002-05-03 18:00,ZGGG 031800Z AUTO 00000KT 9SM 26/22 A2991 RMK SLP129 T02580224 57003 IEM_DS3505
ZGGG,2002-05-03 19:00,ZGGG 031900Z AUTO 00000KT 6SM 26/21 A2988 RMK T02600210 IEM_DS3505
ZGGG,2002-05-03 20:00,ZGGG 032000Z AUTO 00000KT 6SM 26/21 A2988 RMK T02600210 IEM_DS3505
ZGGG,2002-05-03 21:00,ZGGG 032100Z AUTO 00000KT 7SM 24/22 A2991 RMK SLP130 T02410219 52001 IEM_DS3505
ZGGG,2002-05-03 22:00,ZGGG 032200Z AUTO 00000KT 6SM 24/21 A2991 RMK T02400210 IEM_DS3505
ZGGG,2002-05-03 23:00,ZGGG 032300Z AUTO 05002KT 4SM 25/22 A2994 RMK T02500220 IEM_DS3505
ZGGG,2002-05-04 00:00,ZGGG 040000Z AUTO 09002KT 8SM 27/22 A2994 RMK SLP146 T02700220 52016 IEM_DS3505
ZGGG,2002-05-04 01:00,ZGGG 040100Z AUTO 13004KT 7SM 28/21 A2997 RMK T02800210 IEM_DS3505
ZGGG,2002-05-04 02:00,ZGGG 040200Z AUTO 16004KT 7SM 29/21 A2997 RMK T02900210 IEM_DS3505
ZGGG,2002-05-04 03:00,ZGGG 040300Z AUTO 18002KT 9SM 30/21 A2994 RMK SLP144 T02960211 57002 IEM_DS3505
ZGGG,2002-05-04 04:00,ZGGG 040400Z AUTO 16006KT 7SM 31/20 A2991 RMK T03100200 IEM_DS3505
ZGGG,2002-05-04 05:00,ZGGG 040500Z AUTO 17008KT 7SM 31/19 A2988 RMK T03100190 IEM_DS3505
ZGGG,2002-05-04 06:00,ZGGG 040600Z AUTO 18006KT 9SM 32/20 A2985 RMK SLP113 T03200204 57031 IEM_DS3505
ZGGG,2002-05-04 07:00,ZGGG 040700Z AUTO 19008KT 7SM 33/19 A2983 RMK T03300190 IEM_DS3505
ZGGG,2002-05-04 08:00,ZGGG 040800Z AUTO 16006KT 7SM 32/19 A2980 RMK T03200190 IEM_DS3505
ZGGG,2002-05-04 09:00,ZGGG 040900Z AUTO 20006KT 9SM 32/20 A2980 RMK SLP099 T03170204 57014 IEM_DS3505
ZGGG,2002-05-04 10:00,ZGGG 041000Z AUTO 16008KT 6SM 31/19 A2980 RMK T03100190 IEM_DS3505
ZGGG,2002-05-04 11:00,ZGGG 041100Z AUTO 16008KT 6SM 30/19 A2983 RMK T03000190 IEM_DS3505
ZGGG,2002-05-04 12:00,ZGGG 041200Z AUTO 16006KT 12SM 29/21 A2985 RMK SLP111 T02880206 52012 IEM_DS3505
ZGGG,2002-05-04 13:00,ZGGG 041300Z AUTO 16006KT 6SM 29/19 A2985 RMK T02900190 IEM_DS3505
ZGGG,2002-05-04 14:00,ZGGG 041400Z AUTO 16008KT 6SM 28/21 A2988 RMK T02800210 IEM_DS3505
ZGGG,2002-05-04 15:00,ZGGG 041500Z AUTO 16006KT 9SM 27/22 A2988 RMK SLP126 T02710219 52015 IEM_DS3505
ZGGG,2002-05-04 16:00,ZGGG 041600Z AUTO 14004KT 6SM 27/21 A2988 RMK T02700210 IEM_DS3505
ZGGG,2002-05-04 17:00,ZGGG 041700Z AUTO 11004KT 6SM 27/21 A2988 RMK T02700210 IEM_DS3505
ZGGG,2002-05-04 18:00,ZGGG 041800Z AUTO 09002KT 9SM 25/22 A2988 RMK SLP121 T02510215 57005 IEM_DS3505
ZGGG,2002-05-04 19:00,ZGGG 041900Z AUTO 09004KT 6SM 25/21 A2985 RMK T02500210 IEM_DS3505
ZGGG,2002-05-04 20:00,ZGGG 042000Z AUTO 02004KT 6SM 24/21 A2985 RMK T02400210 IEM_DS3505
ZGGG,2002-05-04 21:00,ZGGG 042100Z AUTO 00000KT 6SM 24/21 A2988 RMK SLP121 T02380214 54000 IEM_DS3505
ZGGG,2002-05-04 22:00,ZGGG 042200Z AUTO 00000KT 4SM 24/21 A2988 RMK T02400210 IEM_DS3505
ZGGG,2002-05-04 23:00,ZGGG 042300Z AUTO 04004KT 5SM 24/21 A2988 RMK T02400210 IEM_DS3505
ZGGG,2002-05-05 00:00,ZGGG 050000Z AUTO 09006KT 7SM 26/22 A2991 RMK SLP132 T02620217 52011 IEM_DS3505
ZGGG,2002-05-05 01:00,ZGGG 050100Z AUTO 10006KT 5SM 27/21 A2991 RMK T02700210 IEM_DS3505
ZGGG,2002-05-05 02:00,ZGGG 050200Z AUTO 11008KT 5SM 28/20 A2991 RMK T02800200 IEM_DS3505
ZGGG,2002-05-05 03:00,ZGGG 050300Z AUTO 14006KT 10SM 30/21 A2991 RMK SLP128 T03000211 57004 IEM_DS3505
ZGGG,2002-05-05 04:00,ZGGG 050400Z AUTO 17008KT 7SM 32/19 A2988 RMK T03200190 IEM_DS3505
ZGGG,2002-05-05 05:00,ZGGG 050500Z AUTO 16010KT 7SM 32/19 A2985 RMK T03200190 IEM_DS3505
ZGGG,2002-05-05 06:00,ZGGG 050600Z AUTO 18004KT 11SM 31/21 A2983 RMK SLP101 T03080209 57027 IEM_DS3505
ZGGG,2002-05-05 07:00,ZGGG 050700Z AUTO 16008KT 7SM 30/19 A2980 RMK T03000190 IEM_DS3505
ZGGG,2002-05-05 08:00,ZGGG 050800Z AUTO 21012KT 7SM 29/21 A2980 RMK T02900210 IEM_DS3505
ZGGG,2002-05-05 09:00,ZGGG 050900Z AUTO 20006KT 11SM 30/21 A2977 RMK SLP087 T02970206 57014 IEM_DS3505
ZGGG,2002-05-05 10:00,ZGGG 051000Z AUTO 22008KT 5SM 28/21 A2980 RMK T02800210 IEM_DS3505
ZGGG,2002-05-05 11:00,ZGGG 051100Z AUTO 21008KT 27/21 A2980 RMK T02700210 IEM_DS3505
ZGGG,2002-05-05 12:00,ZGGG 051200Z AUTO 16002KT 9SM 28/21 A2980 RMK SLP095 T02770210 52008 IEM_DS3505
ZGGG,2002-05-05 13:00,ZGGG 051300Z AUTO 15004KT 6SM 27/21 A2983 RMK T02700210 IEM_DS3505
ZGGG,2002-05-05 14:00,ZGGG 051400Z AUTO 17006KT 6SM 27/21 A2983 RMK T02700210 IEM_DS3505
ZGGG,2002-05-05 15:00,ZGGG 051500Z AUTO 20002KT 10SM 26/22 A2983 RMK SLP107 T02620217 52012 IEM_DS3505
ZGGG,2002-05-05 16:00,ZGGG 051600Z AUTO 16006KT 6SM 26/21 A2983 RMK T02600210 IEM_DS3505
ZGGG,2002-05-05 17:00,ZGGG 051700Z AUTO 16006KT 7SM 26/21 A2983 RMK T02600210 IEM_DS3505
ZGGG,2002-05-05 18:00,ZGGG 051800Z AUTO 00000KT 8SM 25/21 A2983 RMK SLP100 T02480210 57007 IEM_DS3505
ZGGG,2002-05-05 19:00,ZGGG 051900Z AUTO 06004KT 4SM 24/21 A2983 RMK T02400210 IEM_DS3505
ZGGG,2002-05-05 20:00,ZGGG 052000Z AUTO 00000KT 4SM 24/21 A2983 RMK T02400210 IEM_DS3505
ZGGG,2002-05-05 21:00,ZGGG 052100Z AUTO 07002KT 8SM 24/21 A2983 RMK SLP105 T02370214 52005 IEM_DS3505
ZGGG,2002-05-05 22:00,ZGGG 052200Z AUTO 05004KT 4SM 24/21 A2983 RMK T02400210 IEM_DS3505
ZGGG,2002-05-05 23:00,ZGGG 052300Z AUTO 04004KT 4SM 24/21 A2985 RMK T02400210 IEM_DS3505
ZGGG,2002-05-06 00:00,ZGGG 060000Z AUTO 00000KT 9SM 25/22 A2988 RMK SLP123 T02530217 52018 IEM_DS3505
ZGGG,2002-05-06 01:00,ZGGG 060100Z AUTO 10006KT 27/21 A2988 RMK T02700210 IEM_DS3505
ZGGG,2002-05-06 02:00,ZGGG 060200Z AUTO 13004KT 28/21 A2988 RMK T02800210 IEM_DS3505
ZGGG,2002-05-06 03:00,ZGGG 060300Z AUTO 14004KT 9SM 29/21 A2988 RMK SLP123 T02940214 54000 IEM_DS3505
ZGGG,2002-05-06 04:00,ZGGG 060400Z AUTO 18006KT 29/21 A2985 RMK T02900210 IEM_DS3505
ZGGG,2002-05-06 05:00,ZGGG 060500Z AUTO 16006KT 31/21 A2983 RMK T03100210 IEM_DS3505
ZGGG,2002-05-06 06:00,ZGGG 060600Z AUTO 14006KT 11SM 32/21 A2980 RMK SLP093 T03200209 57030 IEM_DS3505
ZGGG,2002-05-06 07:00,ZGGG 060700Z AUTO 17006KT 7SM 32/20 A2977 RMK T03200200 IEM_DS3505
ZGGG,2002-05-06 08:00,ZGGG 060800Z AUTO 16006KT 7SM 31/21 A2977 RMK T03100210 IEM_DS3505
ZGGG,2002-05-06 09:00,ZGGG 060900Z AUTO 18008KT 11SM 31/22 A2974 RMK SLP080 T03060221 57013 IEM_DS3505
ZGGG,2002-05-06 10:00,ZGGG 061000Z AUTO 17008KT 7SM 30/19 A2974 RMK T03000190 IEM_DS3505
ZGGG,2002-05-06 11:00,ZGGG 061100Z AUTO 17006KT 7SM 29/21 A2977 RMK T02900210 IEM_DS3505
ZGGG,2002-05-06 12:00,ZGGG 061200Z AUTO 16004KT 9SM 28/22 A2977 RMK SLP090 T02810216 52010 IEM_DS3505
ZGGG,2002-05-06 13:00,ZGGG 061300Z AUTO 16006KT 7SM 28/21 A2980 RMK T02800210 IEM_DS3505
ZGGG,2002-05-06 14:00,ZGGG 061400Z AUTO 16006KT 6SM 27/22 A2983 RMK T02700220 IEM_DS3505
ZGGG,2002-05-06 15:00,ZGGG 061500Z AUTO 00000KT 10SM 27/22 A2983 RMK SLP103 T02660220 52013 IEM_DS3505
ZGGG,2002-05-06 16:00,ZGGG 061600Z AUTO 17004KT 6SM 27/21 A2983 RMK T02700210 IEM_DS3505
ZGGG,2002-05-06 17:00,ZGGG 061700Z AUTO 14002KT 6SM 26/21 A2980 RMK T02600210 IEM_DS3505
ZGGG,2002-05-06 18:00,ZGGG 061800Z AUTO 00000KT 9SM 26/22 A2980 RMK SLP098 T02590222 57004 IEM_DS3505
ZGGG,2002-05-06 19:00,ZGGG 061900Z AUTO 12002KT 6SM 26/22 A2980 RMK T02600220 IEM_DS3505
ZGGG,2002-05-06 20:00,ZGGG 062000Z AUTO 00000KT 6SM 26/22 A2980 RMK T02600220 IEM_DS3505
ZGGG,2002-05-06 21:00,ZGGG 062100Z AUTO 00000KT 9SM 24/23 A2983 RMK SLP102 T02450227 52003 IEM_DS3505
ZGGG,2002-05-06 22:00,ZGGG 062200Z AUTO 00000KT 7SM 26/22 A2983 RMK T02600220 IEM_DS3505
ZGGG,2002-05-06 23:00,ZGGG 062300Z AUTO 00000KT 7SM 26/22 A2985 RMK T02600220 IEM_DS3505
ZGGG,2002-05-07 00:00,ZGGG 070000Z AUTO 09002KT 6SM 26/23 A2985 RMK SLP116 T02640230 52014 IEM_DS3505
ZGGG,2002-05-07 01:00,ZGGG 070100Z AUTO 15004KT 7SM 28/22 A2988 RMK T02800220 IEM_DS3505
ZGGG,2002-05-07 02:00,ZGGG 070200Z AUTO 20004KT 5SM 29/21 A2988 RMK T02900210 IEM_DS3505
ZGGG,2002-05-07 03:00,ZGGG 070300Z AUTO 25002KT 9SM 30/22 A2985 RMK SLP117 T03040222 52001 IEM_DS3505
ZGGG,2002-05-07 04:00,ZGGG 070400Z AUTO 16004KT 31/21 A2983 RMK T03100210 IEM_DS3505
ZGGG,2002-05-07 05:00,ZGGG 070500Z AUTO 12004KT 32/21 A2980 RMK T03200210 IEM_DS3505
ZGGG,2002-05-07 06:00,ZGGG 070600Z AUTO 14006KT 11SM 33/22 A2977 RMK SLP088 T03310219 57028 IEM_DS3505
ZGGG,2002-05-07 07:00,ZGGG 070700Z AUTO 21008KT 32/21 A2977 RMK T03200210 IEM_DS3505
ZGGG,2002-05-07 08:00,ZGGG 070800Z AUTO 15004KT 7SM 33/20 A2974 RMK T03300200 IEM_DS3505
ZGGG,2002-05-07 09:00,ZGGG 070900Z AUTO 18004KT 16SM 34/21 A2971 RMK SLP070 T03360206 57018 IEM_DS3505
ZGGG,2002-05-07 10:00,ZGGG 071000Z AUTO 17006KT 6SM 32/17 A2974 RMK T03200170 IEM_DS3505
ZGGG,2002-05-07 11:00,ZGGG 071100Z AUTO 16006KT 6SM 31/19 A2974 RMK T03100190 IEM_DS3505
ZGGG,2002-05-07 12:00,ZGGG 071200Z AUTO 20002KT 10SM 30/21 A2977 RMK SLP083 T02960208 52012 IEM_DS3505
ZGGG,2002-05-07 13:00,ZGGG 071300Z AUTO 15004KT 6SM 29/21 A2980 RMK T02900210 IEM_DS3505
ZGGG,2002-05-07 14:00,ZGGG 071400Z AUTO 14006KT 6SM 29/22 A2983 RMK T02900220 IEM_DS3505
ZGGG,2002-05-07 15:00,ZGGG 071500Z AUTO 16002KT 10SM 28/22 A2983 RMK SLP103 T02800220 52021 IEM_DS3505
ZGGG,2002-05-07 16:00,ZGGG 071600Z AUTO 21008KT 7SM 28/20 A2985 RMK T02800200 IEM_DS3505
ZGGG,2002-05-07 17:00,ZGGG 071700Z AUTO 19006KT 7SM 27/21 A2983 RMK T02700210 IEM_DS3505
ZGGG,2002-05-07 18:00,ZGGG 071800Z AUTO 18002KT 9SM 27/22 A2983 RMK SLP095 T02670220 57008 IEM_DS3505
ZGGG,2002-05-07 19:00,ZGGG 071900Z AUTO 00000KT 7SM 26/21 A2980 RMK T02600210 IEM_DS3505
ZGGG,2002-05-07 20:00,ZGGG 072000Z AUTO 14002KT 6SM 26/22 A2983 RMK T02600220 IEM_DS3505
ZGGG,2002-05-07 21:00,ZGGG 072100Z AUTO 14002KT 9SM 26/23 A2983 RMK SLP097 T02570226 52002 IEM_DS3505
ZGGG,2002-05-07 22:00,ZGGG 072200Z AUTO 15004KT 7SM 26/22 A2985 RMK T02600220 IEM_DS3505
ZGGG,2002-05-07 23:00,ZGGG 072300Z AUTO 14002KT 7SM 27/22 A2985 RMK T02700220 IEM_DS3505
ZGGG,2002-05-08 00:00,ZGGG 080000Z AUTO 16004KT 9SM 28/23 A2988 RMK SLP121 T02750231 52023 IEM_DS3505
ZGGG,2002-05-08 01:00,ZGGG 080100Z AUTO 14006KT 7SM 28/22 A2988 RMK T02800220 IEM_DS3505
ZGGG,2002-05-08 02:00,ZGGG 080200Z AUTO 16006KT 5SM 29/21 A2991 RMK T02900210 IEM_DS3505
ZGGG,2002-05-08 03:00,ZGGG 080300Z AUTO 11006KT 9SM 30/21 A2988 RMK SLP124 T03020207 52003 IEM_DS3505
ZGGG,2002-05-08 04:00,ZGGG 080400Z AUTO 16010KT 7SM 31/21 A2988 RMK T03100210 IEM_DS3505
ZGGG,2002-05-08 05:00,ZGGG 080500Z AUTO 16008KT 7SM 32/18 A2985 RMK T03200180 IEM_DS3505
ZGGG,2002-05-08 06:00,ZGGG 080600Z AUTO 20006KT 10SM 32/19 A2983 RMK SLP104 T03180194 57019 IEM_DS3505
ZGGG,2002-05-08 07:00,ZGGG 080700Z AUTO 14008KT 7SM 33/12 A2983 RMK T03300120 IEM_DS3505
ZGGG,2002-05-08 08:00,ZGGG 080800Z AUTO 15012KT 7SM 32/15 A2980 RMK T03200150 IEM_DS3505
ZGGG,2002-05-08 09:00,ZGGG 080900Z AUTO 20006KT 11SM 32/19 A2980 RMK SLP093 T03160186 57011 IEM_DS3505
ZGGG,2002-05-08 10:00,ZGGG 081000Z AUTO 17010KT 6SM 31/18 A2983 RMK T03100180 IEM_DS3505
ZGGG,2002-05-08 11:00,ZGGG 081100Z AUTO 17008KT 6SM 30/19 A2983 RMK T03000190 IEM_DS3505
ZGGG,2002-05-08 12:00,ZGGG 081200Z AUTO 16006KT 11SM 29/22 A2985 RMK SLP110 T02880216 52016 IEM_DS3505
ZGGG,2002-05-08 13:00,ZGGG 081300Z AUTO 17006KT 6SM 28/21 A2988 RMK T02800210 IEM_DS3505
ZGGG,2002-05-08 14:00,ZGGG 081400Z AUTO 18008KT 6SM 28/21 A2988 RMK T02800210 IEM_DS3505
ZGGG,2002-05-08 15:00,ZGGG 081500Z AUTO 16004KT 11SM 27/22 A2988 RMK SLP124 T02740219 52014 IEM_DS3505
ZGGG,2002-05-08 16:00,ZGGG 081600Z AUTO 16008KT 6SM 27/22 A2988 RMK T02700220 IEM_DS3505
ZGGG,2002-05-08 17:00,ZGGG 081700Z AUTO 14006KT 7SM 27/22 A2985 RMK T02700220 IEM_DS3505
ZGGG,2002-05-08 18:00,ZGGG 081800Z AUTO 09002KT 9SM 26/22 A2985 RMK SLP111 T02640221 57012 IEM_DS3505
ZGGG,2002-05-08 20:00,ZGGG 082000Z AUTO 12004KT 7SM 27/22 A2983 RMK T02700220 IEM_DS3505
ZGGG,2002-05-08 21:00,ZGGG 082100Z AUTO 11006KT 9SM 26/23 A2985 RMK SLP105 T02630226 57006 IEM_DS3505
ZGGG,2002-05-08 22:00,ZGGG 082200Z AUTO 12002KT 7SM 27/22 A2985 RMK T02700220 IEM_DS3505
ZGGG,2002-05-08 23:00,ZGGG 082300Z AUTO 12002KT 7SM 27/22 A2988 RMK T02700220 IEM_DS3505
ZGGG,2002-05-09 00:00,ZGGG 090000Z AUTO 14004KT 7SM 27/23 A2991 RMK SLP128 T02680230 52022 IEM_DS3505
ZGGG,2002-05-09 01:00,ZGGG 090100Z AUTO 13006KT 5SM 27/23 A2991 RMK T02700230 IEM_DS3505
ZGGG,2002-05-09 02:00,ZGGG 090200Z AUTO 16006KT 5SM 27/23 A2991 RMK T02700230 IEM_DS3505
ZGGG,2002-05-09 03:00,ZGGG 090300Z AUTO 11004KT 8SM 28/24 A2991 RMK SLP127 T02820239 57001 IEM_DS3505
ZGGG,2002-05-09 04:00,ZGGG 090400Z AUTO 16012KT 7SM 27/22 A2988 RMK T02700220 IEM_DS3505
ZGGG,2002-05-09 05:00,ZGGG 090500Z AUTO 17010KT 4SM 28/23 A2988 RMK T02800230 IEM_DS3505
ZGGG,2002-05-09 06:00,ZGGG 090600Z AUTO 16006KT 11SM 27/24 A2985 RMK 60039 SLP110 T02700240 57017 IEM_DS3505
ZGGG,2002-05-09 07:00,ZGGG 090700Z AUTO 15010KT 7SM 28/22 A2983 RMK T02800220 IEM_DS3505
ZGGG,2002-05-09 08:00,ZGGG 090800Z AUTO 12008KT 3SM 28/23 A2980 RMK T02800230 IEM_DS3505
ZGGG,2002-05-09 09:00,ZGGG 090900Z AUTO 09002KT 6SM 25/24 A2980 RMK SLP088 T02510239 57022 IEM_DS3505
ZGGG,2002-05-09 10:00,ZGGG 091000Z AUTO 00000KT 2 1/2SM 25/24 A2980 RMK T02500240 IEM_DS3505
ZGGG,2002-05-09 11:00,ZGGG 091100Z AUTO 21004KT 2 1/2SM 25/24 A2983 RMK T02500240 IEM_DS3505
ZGGG,2002-05-09 12:00,ZGGG 091200Z AUTO 00000KT 5SM 25/24 A2983 RMK 60039 SLP101 T02510242 52013 IEM_DS3505
ZGGG,2002-05-09 13:00,ZGGG 091300Z AUTO 00000KT 4SM 26/24 A2985 RMK T02600240 IEM_DS3505
ZGGG,2002-05-09 14:00,ZGGG 091400Z AUTO 15004KT 7SM 26/23 A2985 RMK T02600230 IEM_DS3505
ZGGG,2002-05-09 15:00,ZGGG 091500Z AUTO 14004KT 9SM 25/24 A2988 RMK SLP122 T02480236 52021 IEM_DS3505
ZGGG,2002-05-09 16:00,ZGGG 091600Z AUTO 17004KT 7SM 26/24 A2988 RMK T02600240 IEM_DS3505
ZGGG,2002-05-09 17:00,ZGGG 091700Z AUTO 17004KT 7SM 26/23 A2985 RMK T02600230 IEM_DS3505
ZGGG,2002-05-09 18:00,ZGGG 091800Z AUTO 00000KT 4SM 24/24 A2985 RMK 60004 SLP109 T02450236 57013 IEM_DS3505
ZGGG,2002-05-09 19:00,ZGGG 091900Z AUTO 00000KT 4SM 26/24 A2983 RMK T02600240 IEM_DS3505
ZGGG,2002-05-09 20:00,ZGGG 092000Z AUTO 00000KT 3SM 25/23 A2980 RMK T02500230 IEM_DS3505
ZGGG,2002-05-09 21:00,ZGGG 092100Z AUTO 00000KT 1 1/4SM 24/24 A2983 RMK 70084 SLP101 T02440238 57008 IEM_DS3505
ZGGG,2002-05-09 22:00,ZGGG 092200Z AUTO 00000KT 2SM 25/24 A2983 RMK T02500240 IEM_DS3505
ZGGG,2002-05-09 23:00,ZGGG 092300Z AUTO 00000KT 1SM 25/24 A2985 RMK T02500240 IEM_DS3505
ZGGG,2002-05-10 00:00,ZGGG 100000Z AUTO 09004KT 1SM 25/24 A2985 RMK 60004 SLP110 T02470240 52009 IEM_DS3505
ZGGG,2002-05-10 01:00,ZGGG 100100Z AUTO 00000KT 1SM 25/24 A2988 RMK T02500240 IEM_DS3505
ZGGG,2002-05-10 02:00,ZGGG 100200Z AUTO 32004KT 1SM 25/25 A2988 RMK T02500250 IEM_DS3505
ZGGG,2002-05-10 03:00,ZGGG 100300Z AUTO 34002KT 1 1/4SM 26/24 A2988 RMK SLP120 T02560242 52010 IEM_DS3505
ZGGG,2002-05-10 04:00,ZGGG 100400Z AUTO 02004KT 1SM 26/24 A2985 RMK T02600240 IEM_DS3505
ZGGG,2002-05-10 05:00,ZGGG 100500Z AUTO 05006KT 1SM 27/25 A2985 RMK T02700250 IEM_DS3505
ZGGG,2002-05-10 06:00,ZGGG 100600Z AUTO 32004KT 2SM 27/24 A2985 RMK 60031 SLP107 T02740244 57013 IEM_DS3505
ZGGG,2002-05-10 07:00,ZGGG 100700Z AUTO 35006KT 2 1/2SM 27/23 A2983 RMK T02700230 IEM_DS3505
ZGGG,2002-05-10 08:00,ZGGG 100800Z AUTO 36006KT 4SM 26/22 A2980 RMK T02600220 IEM_DS3505
ZGGG,2002-05-10 09:00,ZGGG 100900Z AUTO 36002KT 9SM 27/24 A2980 RMK SLP086 T02670235 57021 IEM_DS3505
ZGGG,2002-05-10 10:00,ZGGG 101000Z AUTO 01008KT 4SM 25/21 A2980 RMK T02500210 IEM_DS3505
ZGGG,2002-05-10 11:00,ZGGG 101100Z AUTO 01008KT 4SM 25/22 A2980 RMK T02500220 IEM_DS3505
ZGGG,2002-05-10 12:00,ZGGG 101200Z AUTO 34004KT 9SM 24/22 A2983 RMK 60003 SLP098 T02420220 52012 IEM_DS3505
ZGGG,2002-05-10 13:00,ZGGG 101300Z AUTO 36008KT 4SM 23/20 A2985 RMK T02300200 IEM_DS3505
ZGGG,2002-05-10 14:00,ZGGG 101400Z AUTO 02008KT 7SM 23/20 A2985 RMK T02300200 IEM_DS3505
ZGGG,2002-05-10 15:00,ZGGG 101500Z AUTO 34004KT 8SM 23/21 A2985 RMK SLP111 T02340213 52013 IEM_DS3505
ZGGG,2002-05-10 16:00,ZGGG 101600Z AUTO 36008KT 7SM 23/19 A2985 RMK T02300190 IEM_DS3505
ZGGG,2002-05-10 17:00,ZGGG 101700Z AUTO 36006KT 7SM 23/19 A2985 RMK T02300190 IEM_DS3505
ZGGG,2002-05-10 18:00,ZGGG 101800Z AUTO 36002KT 6SM 22/21 A2985 RMK 60067 SLP105 T02180209 57006 IEM_DS3505
ZGGG,2002-05-10 19:00,ZGGG 101900Z AUTO 31006KT 1 1/4SM 22/20 A2985 RMK T02200200 IEM_DS3505
ZGGG,2002-05-10 20:00,ZGGG 102000Z AUTO 36004KT 3SM 22/20 A2983 RMK T02200200 IEM_DS3505
ZGGG,2002-05-10 21:00,ZGGG 102100Z AUTO 02002KT 5SM 21/20 A2983 RMK 70124 SLP099 T02130204 57006 IEM_DS3505
ZGGG,2002-05-10 22:00,ZGGG 102200Z AUTO 01006KT 7SM 22/20 A2983 RMK T02200200 IEM_DS3505
ZGGG,2002-05-10 23:00,ZGGG 102300Z AUTO 36006KT 7SM 22/19 A2985 RMK T02200190 IEM_DS3505
ZGGG,2002-05-11 00:00,ZGGG 110000Z AUTO 34004KT 11SM 22/21 A2988 RMK 60024 SLP116 T02230206 52017 IEM_DS3505
ZGGG,2002-05-11 01:00,ZGGG 110100Z AUTO 36006KT 7SM 23/21 A2988 RMK T02300210 IEM_DS3505
ZGGG,2002-05-11 02:00,ZGGG 110200Z AUTO 03008KT 7SM 24/20 A2988 RMK T02400200 IEM_DS3505
ZGGG,2002-05-11 03:00,ZGGG 110300Z AUTO 32004KT 11SM 27/21 A2988 RMK SLP121 T02680214 52005 IEM_DS3505
ZGGG,2002-05-11 04:00,ZGGG 110400Z AUTO 36004KT 27/21 A2988 RMK T02700210 IEM_DS3505
ZGGG,2002-05-11 05:00,ZGGG 110500Z AUTO 01004KT 27/21 A2988 RMK T02700210 IEM_DS3505
ZGGG,2002-05-11 06:00,ZGGG 110600Z AUTO 32004KT 10SM 29/22 A2985 RMK SLP105 T02860218 57016 IEM_DS3505
ZGGG,2002-05-11 07:00,ZGGG 110700Z AUTO 01004KT 28/21 A2983 RMK T02800210 IEM_DS3505
ZGGG,2002-05-11 08:00,ZGGG 110800Z AUTO 36004KT 5SM 28/21 A2983 RMK T02800210 IEM_DS3505
ZGGG,2002-05-11 09:00,ZGGG 110900Z AUTO 02004KT 9SM 28/22 A2980 RMK SLP095 T02820220 57010 IEM_DS3505
ZGGG,2002-05-11 10:00,ZGGG 111000Z AUTO 35006KT 7SM 28/20 A2983 RMK T02800200 IEM_DS3505
ZGGG,2002-05-11 11:00,ZGGG 111100Z AUTO 01006KT 6SM 28/20 A2983 RMK T02800200 IEM_DS3505
ZGGG,2002-05-11 12:00,ZGGG 111200Z AUTO 07002KT 9SM 27/22 A2985 RMK SLP115 T02680216 52020 IEM_DS3505
ZGGG,2002-05-11 13:00,ZGGG 111300Z AUTO 05008KT 6SM 26/21 A2988 RMK T02600210 IEM_DS3505
ZGGG,2002-05-11 14:00,ZGGG 111400Z AUTO 05006KT 6SM 26/21 A2991 RMK T02600210 IEM_DS3505
ZGGG,2002-05-11 15:00,ZGGG 111500Z AUTO 36002KT 10SM 26/22 A2991 RMK SLP129 T02550215 52014 IEM_DS3505
ZGGG,2002-05-11 16:00,ZGGG 111600Z AUTO 36004KT 6SM 26/21 A2991 RMK T02600210 IEM_DS3505
ZGGG,2002-05-11 17:00,ZGGG 111700Z AUTO 03008KT 4SM 24/21 A2988 RMK T02400210 IEM_DS3505
ZGGG,2002-05-11 18:00,ZGGG 111800Z AUTO 00000KT 7SM 24/21 A2988 RMK SLP120 T02380214 57009 IEM_DS3505
ZGGG,2002-05-11 19:00,ZGGG 111900Z AUTO 05004KT 4SM 23/21 A2988 RMK T02300210 IEM_DS3505
ZGGG,2002-05-11 20:00,ZGGG 112000Z AUTO 05004KT 4SM 23/21 A2988 RMK T02300210 IEM_DS3505
ZGGG,2002-05-11 21:00,ZGGG 112100Z AUTO 00000KT 9SM 24/21 A2988 RMK 70002 T02400210 52004 IEM_DS3505
ZGGG,2002-05-11 22:00,ZGGG 112200Z AUTO 04004KT 4SM 23/21 A2991 RMK T02300210 IEM_DS3505
ZGGG,2002-05-11 23:00,ZGGG 112300Z AUTO 04004KT 4SM 24/21 A2991 RMK T02400210 IEM_DS3505
ZGGG,2002-05-12 00:00,ZGGG 120000Z AUTO 00000KT 11SM 26/21 A2991 RMK SLP134 T02590214 52010 IEM_DS3505
ZGGG,2002-05-12 01:00,ZGGG 120100Z AUTO 00000KT 6SM 26/21 A2994 RMK T02600210 IEM_DS3505
ZGGG,2002-05-12 02:00,ZGGG 120200Z AUTO 01004KT 4SM 27/22 A2994 RMK T02700220 IEM_DS3505
ZGGG,2002-05-12 03:00,ZGGG 120300Z AUTO 00000KT 10SM 29/23 A2994 RMK SLP137 T02900227 52003 IEM_DS3505
ZGGG,2002-05-12 04:00,ZGGG 120400Z AUTO 36002KT 29/23 A2991 RMK T02900230 IEM_DS3505
ZGGG,2002-05-12 05:00,ZGGG 120500Z AUTO 00000KT 30/22 A2988 RMK T03000220 IEM_DS3505
ZGGG,2002-05-12 06:00,ZGGG 120600Z AUTO 14004KT 7SM 31/23 A2985 RMK T03090226 57021 IEM_DS3505
ZGGG,2002-05-12 07:00,ZGGG 120700Z AUTO 19004KT 2 1/2SM 31/22 A2985 RMK T03100220 IEM_DS3505
ZGGG,2002-05-12 08:00,ZGGG 120800Z AUTO 19004KT 2 1/2SM 31/22 A2983 RMK T03100220 IEM_DS3505
ZGGG,2002-05-12 09:00,ZGGG 120900Z AUTO 16008KT 5SM 28/23 A2983 RMK SLP105 T02780229 57011 IEM_DS3505
ZGGG,2002-05-12 10:00,ZGGG 121000Z AUTO 15010KT 1SM 26/24 A2983 RMK T02600240 IEM_DS3505
ZGGG,2002-05-12 11:00,ZGGG 121100Z AUTO 13010KT 2 1/2SM 26/24 A2983 RMK T02600240 IEM_DS3505
ZGGG,2002-05-12 12:00,ZGGG 121200Z AUTO 11004KT 2SM 25/24 A2985 RMK 60067 SLP114 T02510242 52009 IEM_DS3505
ZGGG,2002-05-12 13:00,ZGGG 121300Z AUTO 13008KT 3SM 26/24 A2988 RMK T02600240 IEM_DS3505
ZGGG,2002-05-12 14:00,ZGGG 121400Z AUTO 13010KT 3SM 26/24 A2988 RMK T02600240 IEM_DS3505
ZGGG,2002-05-12 15:00,ZGGG 121500Z AUTO 14002KT 2SM 25/24 RMK SLP129 T02530243 52015 IEM_DS3505
ZGGG,2002-05-12 19:00,ZGGG 121900Z AUTO 13004KT 3SM 26/24 A2985 RMK T02600240 IEM_DS3505
ZGGG,2002-05-12 20:00,ZGGG 122000Z AUTO 13008KT 3SM 26/24 A2985 RMK T02600240 IEM_DS3505
ZGGG,2002-05-12 21:00,ZGGG 122100Z AUTO 14006KT 2SM 25/24 A2985 RMK 70067 SLP113 T02490236 57008 IEM_DS3505
ZGGG,2002-05-12 22:00,ZGGG 122200Z AUTO 13006KT 3SM 25/23 A2985 RMK T02500230 IEM_DS3505
ZGGG,2002-05-12 23:00,ZGGG 122300Z AUTO 14006KT 2 1/2SM 25/23 A2988 RMK T02500230 IEM_DS3505
ZGGG,2002-05-13 00:00,ZGGG 130000Z AUTO 14004KT 7SM 25/23 A2988 RMK 60000 SLP123 T02530227 52010 IEM_DS3505
ZGGG,2002-05-13 01:00,ZGGG 130100Z AUTO 14008KT 3SM 27/23 A2988 RMK T02700230 IEM_DS3505
ZGGG,2002-05-13 02:00,ZGGG 130200Z AUTO 13008KT 3SM 27/23 A2988 RMK T02700230 IEM_DS3505
ZGGG,2002-05-13 03:00,ZGGG 130300Z AUTO 11006KT 6SM 27/24 A2988 RMK SLP122 T02700235 57001 IEM_DS3505
ZGGG,2002-05-13 04:00,ZGGG 130400Z AUTO 12008KT 3SM 28/23 A2985 RMK T02800230 IEM_DS3505
ZGGG,2002-05-13 05:00,ZGGG 130500Z AUTO 13008KT 4SM 28/23 A2985 RMK T02800230 IEM_DS3505
ZGGG,2002-05-13 06:00,ZGGG 130600Z AUTO 18008KT 9SM 30/23 A2983 RMK 60003 SLP102 T02960233 57020 IEM_DS3505
ZGGG,2002-05-13 07:00,ZGGG 130700Z AUTO 16012KT 7SM 30/23 A2980 RMK T03000230 IEM_DS3505
ZGGG,2002-05-13 08:00,ZGGG 130800Z AUTO 15012KT 7SM 30/23 A2980 RMK T03000230 IEM_DS3505
ZGGG,2002-05-13 09:00,ZGGG 130900Z AUTO 14006KT 11SM 30/23 A2980 RMK SLP090 T02950232 57012 IEM_DS3505
ZGGG,2002-05-13 10:00,ZGGG 131000Z AUTO 16012KT 7SM 29/23 A2980 RMK T02900230 IEM_DS3505
ZGGG,2002-05-13 11:00,ZGGG 131100Z AUTO 15010KT 7SM 28/23 A2980 RMK T02800230 IEM_DS3505
ZGGG,2002-05-13 12:00,ZGGG 131200Z AUTO 16008KT 11SM 27/24 A2983 RMK SLP100 T02730237 52010 IEM_DS3505
ZGGG,2002-05-13 13:00,ZGGG 131300Z AUTO 16014KT 7SM 27/23 A2985 RMK T02700230 IEM_DS3505
ZGGG,2002-05-13 14:00,ZGGG 131400Z AUTO 16008KT 7SM 27/23 A2985 RMK T02700230 IEM_DS3505
ZGGG,2002-05-13 15:00,ZGGG 131500Z AUTO 16006KT 10SM 27/24 A2985 RMK SLP115 T02670243 52015 IEM_DS3505
ZGGG,2002-05-13 16:00,ZGGG 131600Z AUTO 17006KT 7SM 27/23 A2985 RMK T02700230 IEM_DS3505
ZGGG,2002-05-13 17:00,ZGGG 131700Z AUTO 16006KT 7SM 27/23 A2985 RMK T02700230 IEM_DS3505
ZGGG,2002-05-13 18:00,ZGGG 131800Z AUTO 16006KT 8SM 26/24 A2983 RMK SLP101 T02630236 57014 IEM_DS3505
ZGGG,2002-05-13 19:00,ZGGG 131900Z AUTO 15010KT 7SM 26/23 A2980 RMK T02600230 IEM_DS3505
ZGGG,2002-05-13 20:00,ZGGG 132000Z AUTO 16008KT 7SM 26/22 A2977 RMK T02600220 IEM_DS3505
ZGGG,2002-05-13 21:00,ZGGG 132100Z AUTO 16006KT 8SM 26/24 A2980 RMK 70000 SLP088 T02620236 57013 IEM_DS3505
ZGGG,2002-05-13 22:00,ZGGG 132200Z AUTO 15008KT 7SM 26/23 A2977 RMK T02600230 IEM_DS3505
ZGGG,2002-05-13 23:00,ZGGG 132300Z AUTO 16008KT 4SM 27/24 A2977 RMK T02700240 IEM_DS3505
ZGGG,2002-05-14 00:00,ZGGG 140000Z AUTO 16006KT 9SM 27/25 RMK 70003 SLP087 T02730246 57001 IEM_DS3505
ZGGG,2002-05-14 03:00,ZGGG 140300Z AUTO 00000KT 10SM 28/26 A2977 RMK SLP081 T02800256 57006 IEM_DS3505
ZGGG,2002-05-14 04:00,ZGGG 140400Z AUTO 19012KT 7SM 31/24 A2974 RMK T03100240 IEM_DS3505
ZGGG,2002-05-14 05:00,ZGGG 140500Z AUTO 25010G21KT 2 1/2SM 27/25 A2977 RMK T02700250 IEM_DS3505
ZGGG,2002-05-14 06:00,ZGGG 140600Z AUTO 16002KT 12SM 26/25 A2974 RMK 60114 SLP068 T02580248 57013 IEM_DS3505
ZGGG,2002-05-14 07:00,ZGGG 140700Z AUTO 36010KT 1 1/2SM 22/22 A2977 RMK T02200220 IEM_DS3505
ZGGG,2002-05-14 08:00,ZGGG 140800Z AUTO 35006KT 5SM 21/21 A2974 RMK T02100210 IEM_DS3505
ZGGG,2002-05-14 09:00,ZGGG 140900Z AUTO 34006KT 7SM 21/20 A2977 RMK SLP077 T02140205 52009 IEM_DS3505
ZGGG,2002-05-14 10:00,ZGGG 141000Z AUTO 35006KT 4SM 21/21 A2977 RMK T02100210 IEM_DS3505
ZGGG,2002-05-14 11:00,ZGGG 141100Z AUTO 35004KT 4SM 21/21 A2977 RMK T02100210 IEM_DS3505
ZGGG,2002-05-14 12:00,ZGGG 141200Z AUTO 00000KT 7SM 22/21 A2980 RMK 60150 SLP089 T02170208 52012 IEM_DS3505
ZGGG,2002-05-14 13:00,ZGGG 141300Z AUTO 10004KT 5SM 22/21 A2980 RMK T02200210 IEM_DS3505
ZGGG,2002-05-14 14:00,ZGGG 141400Z AUTO 33004KT 4SM 23/21 A2980 RMK T02300210 IEM_DS3505
ZGGG,2002-05-14 15:00,ZGGG 141500Z AUTO 00000KT 10SM 22/21 A2983 RMK SLP100 T02180209 52011 IEM_DS3505
ZGGG,2002-05-14 16:00,ZGGG 141600Z AUTO 00000KT 2 1/2SM 23/21 A2983 RMK T02300210 IEM_DS3505
ZGGG,2002-05-14 18:00,ZGGG 141800Z AUTO 34002KT 7SM 22/21 RMK 60008 SLP092 T02220213 57008 IEM_DS3505
ZGGG,2002-05-14 21:00,ZGGG 142100Z AUTO 32002KT 8SM 22/21 RMK 70267 SLP088 T02150206 57005 IEM_DS3505
ZGGG,2002-05-14 23:00,ZGGG 142300Z AUTO 34006KT 1SM 22/22 A2983 RMK T02200220 IEM_DS3505
ZGGG,2002-05-15 00:00,ZGGG 150000Z AUTO 32006KT 7SM 22/20 A2983 RMK 70267 SLP102 T02240204 52014 IEM_DS3505
ZGGG,2002-05-15 01:00,ZGGG 150100Z AUTO 02006KT 4SM 24/21 A2985 RMK T02400210 IEM_DS3505
ZGGG,2002-05-15 02:00,ZGGG 150200Z AUTO 02004KT 4SM 24/21 A2983 RMK T02400210 IEM_DS3505
ZGGG,2002-05-15 03:00,ZGGG 150300Z AUTO 32004KT 9SM 27/21 A2983 RMK SLP100 T02740211 57001 IEM_DS3505
ZGGG,2002-05-15 04:00,ZGGG 150400Z AUTO 04006KT 7SM 27/19 A2983 RMK T02700190 IEM_DS3505
ZGGG,2002-05-15 05:00,ZGGG 150500Z AUTO 28004KT 6SM 28/21 A2980 RMK T02800210 IEM_DS3505
ZGGG,2002-05-15 06:00,ZGGG 150600Z AUTO 22004KT 11SM 30/21 A2977 RMK SLP084 T03040213 57016 IEM_DS3505
ZGGG,2002-05-15 07:00,ZGGG 150700Z AUTO 32006KT 7SM 30/19 A2977 RMK T03000190 IEM_DS3505
ZGGG,2002-05-15 08:00,ZGGG 150800Z AUTO 04004KT 6SM 30/17 A2977 RMK T03000170 IEM_DS3505
ZGGG,2002-05-15 09:00,ZGGG 150900Z AUTO 32002KT 12SM 30/19 A2974 RMK SLP076 T03000194 57008 IEM_DS3505
ZGGG,2002-05-15 10:00,ZGGG 151000Z AUTO 31002KT 6SM 29/19 A2974 RMK T02900190 IEM_DS3505
ZGGG,2002-05-15 11:00,ZGGG 151100Z AUTO 11002KT 5SM 28/20 A2974 RMK T02800200 IEM_DS3505
ZGGG,2002-05-15 12:00,ZGGG 151200Z AUTO 07002KT 9SM 27/22 A2977 RMK SLP079 T02660222 52003 IEM_DS3505
ZGGG,2002-05-15 13:00,ZGGG 151300Z AUTO 11002KT 6SM 26/20 A2977 RMK T02600200 IEM_DS3505
ZGGG,2002-05-15 14:00,ZGGG 151400Z AUTO 07004KT 6SM 27/20 A2977 RMK T02700200 IEM_DS3505
ZGGG,2002-05-15 15:00,ZGGG 151500Z AUTO 00000KT 9SM 26/22 A2980 RMK SLP086 T02550221 52007 IEM_DS3505
ZGGG,2002-05-15 16:00,ZGGG 151600Z AUTO 19006KT 2 1/2SM 27/21 A2980 RMK T02700210 IEM_DS3505
ZGGG,2002-05-15 17:00,ZGGG 151700Z AUTO 00000KT 1 1/2SM 27/22 A2977 RMK T02700220 IEM_DS3505
ZGGG,2002-05-15 18:00,ZGGG 151800Z AUTO 00000KT 2 1/2SM 25/22 A2977 RMK SLP084 T02500225 57002 IEM_DS3505
ZGGG,2002-05-15 19:00,ZGGG 151900Z AUTO 12002KT 2SM 26/22 A2977 RMK T02600220 IEM_DS3505
ZGGG,2002-05-15 20:00,ZGGG 152000Z AUTO 00000KT 2SM 26/22 A2977 RMK T02600220 IEM_DS3505
ZGGG,2002-05-15 21:00,ZGGG 152100Z AUTO 00000KT 1 1/4SM 24/22 A2980 RMK SLP087 T02450224 52003 IEM_DS3505
ZGGG,2002-05-15 22:00,ZGGG 152200Z AUTO 00000KT 2SM 24/22 A2980 RMK T02400220 IEM_DS3505
ZGGG,2002-05-15 23:00,ZGGG 152300Z AUTO 00000KT 1SM 26/23 A2983 RMK T02600230 IEM_DS3505
ZGGG,2002-05-16 00:00,ZGGG 160000Z AUTO 00000KT 1 1/4SM 25/23 A2983 RMK 60003 SLP099 T02500230 52012 IEM_DS3505
ZGGG,2002-05-16 01:00,ZGGG 160100Z AUTO 14004KT 1SM 26/22 A2983 RMK T02600220 IEM_DS3505
ZGGG,2002-05-16 02:00,ZGGG 160200Z AUTO 03002KT 1SM 27/22 A2983 RMK T02700220 IEM_DS3505
ZGGG,2002-05-16 03:00,ZGGG 160300Z AUTO 14004KT 5SM 28/22 A2983 RMK SLP102 T02850217 52003 IEM_DS3505
ZGGG,2002-05-16 04:00,ZGGG 160400Z AUTO 14004KT 3SM 29/21 A2983 RMK T02900210 IEM_DS3505
ZGGG,2002-05-16 05:00,ZGGG 160500Z AUTO 12006KT 29/20 A2980 RMK T02900200 IEM_DS3505
ZGGG,2002-05-16 06:00,ZGGG 160600Z AUTO 04004KT 9SM 29/21 A2977 RMK 60003 SLP079 T02870210 57023 IEM_DS3505
ZGGG,2002-05-16 07:00,ZGGG 160700Z AUTO 10006KT 28/21 A2974 RMK T02800210 IEM_DS3505
ZGGG,2002-05-16 08:00,ZGGG 160800Z AUTO 07004KT 5SM 28/21 A2974 RMK T02800210 IEM_DS3505
ZGGG,2002-05-16 09:00,ZGGG 160900Z AUTO 07004KT 9SM 29/22 A2971 RMK SLP063 T02860217 57016 IEM_DS3505
ZGGG,2002-05-16 10:00,ZGGG 161000Z AUTO 11004KT 28/21 A2971 RMK T02800210 IEM_DS3505
ZGGG,2002-05-16 11:00,ZGGG 161100Z AUTO 10002KT 4SM 28/21 A2974 RMK T02800210 IEM_DS3505
ZGGG,2002-05-16 12:00,ZGGG 161200Z AUTO 00000KT 4SM 26/24 A2977 RMK 60035 SLP083 T02560236 52020 IEM_DS3505
ZGGG,2002-05-16 13:00,ZGGG 161300Z AUTO 36006KT 1 1/4SM 22/21 A2983 RMK T02200210 IEM_DS3505
ZGGG,2002-05-16 14:00,ZGGG 161400Z AUTO 14006KT 7SM 23/20 A2980 RMK T02300200 IEM_DS3505
ZGGG,2002-05-16 15:00,ZGGG 161500Z AUTO 14002KT 7SM 22/21 A2983 RMK SLP104 T02230214 52021 IEM_DS3505
ZGGG,2002-05-16 16:00,ZGGG 161600Z AUTO 14006KT 7SM 23/21 A2980 RMK T02300210 IEM_DS3505
ZGGG,2002-05-16 17:00,ZGGG 161700Z AUTO 12004KT 4SM 23/21 A2980 RMK T02300210 IEM_DS3505
ZGGG,2002-05-16 18:00,ZGGG 161800Z AUTO 00000KT 6SM 22/21 A2980 RMK 60020 SLP092 T02240212 57012 IEM_DS3505
ZGGG,2002-05-16 19:00,ZGGG 161900Z AUTO 09002KT 4SM 23/21 A2977 RMK T02300210 IEM_DS3505
ZGGG,2002-05-16 20:00,ZGGG 162000Z AUTO 00000KT 4SM 23/21 A2977 RMK T02300210 IEM_DS3505
ZGGG,2002-05-16 21:00,ZGGG 162100Z AUTO 00000KT 5SM 22/21 A2977 RMK 70053 SLP083 T02200209 57009 IEM_DS3505
ZGGG,2002-05-16 22:00,ZGGG 162200Z AUTO 00000KT 2 1/2SM 23/21 A2980 RMK T02300210 IEM_DS3505
ZGGG,2002-05-16 23:00,ZGGG 162300Z AUTO 04004KT 2SM 23/21 A2980 RMK T02300210 IEM_DS3505
ZGGG,2002-05-17 00:00,ZGGG 170000Z AUTO 00000KT 4SM 23/21 A2980 RMK 60002 SLP095 T02280213 52012 IEM_DS3505
ZGGG,2002-05-17 01:00,ZGGG 170100Z AUTO 06002KT 3SM 24/21 A2983 RMK T02400210 IEM_DS3505
ZGGG,2002-05-17 02:00,ZGGG 170200Z AUTO 00000KT 4SM 24/21 A2983 RMK T02400210 IEM_DS3505
ZGGG,2002-05-17 03:00,ZGGG 170300Z AUTO 14002KT 8SM 26/21 A2980 RMK SLP097 T02570214 52002 IEM_DS3505
ZGGG,2002-05-17 04:00,ZGGG 170400Z AUTO 00000KT 4SM 26/21 A2980 RMK T02600210 IEM_DS3505
ZGGG,2002-05-17 05:00,ZGGG 170500Z AUTO 00000KT 4SM 26/21 A2980 RMK T02600210 IEM_DS3505
ZGGG,2002-05-17 06:00,ZGGG 170600Z AUTO 00000KT 9SM 28/21 A2977 RMK SLP080 T02750214 57017 IEM_DS3505
ZGGG,2002-05-17 07:00,ZGGG 170700Z AUTO 10004KT 4SM 27/22 A2974 RMK T02700220 IEM_DS3505
ZGGG,2002-05-17 08:00,ZGGG 170800Z AUTO 09006KT 27/21 A2971 RMK T02700210 IEM_DS3505
ZGGG,2002-05-17 09:00,ZGGG 170900Z AUTO 00000KT 8SM 28/22 A2971 RMK SLP064 T02770220 57016 IEM_DS3505
ZGGG,2002-05-17 10:00,ZGGG 171000Z AUTO 13004KT 2 1/2SM 27/21 A2971 RMK T02700210 IEM_DS3505
ZGGG,2002-05-17 11:00,ZGGG 171100Z AUTO 00000KT 2 1/2SM 27/21 A2974 RMK T02700210 IEM_DS3505
ZGGG,2002-05-17 12:00,ZGGG 171200Z AUTO 00000KT 7SM 25/22 A2974 RMK SLP074 T02520222 52010 IEM_DS3505
ZGGG,2002-05-17 13:00,ZGGG 171300Z AUTO 00000KT 2SM 25/22 A2977 RMK T02500220 IEM_DS3505
ZGGG,2002-05-17 14:00,ZGGG 171400Z AUTO 00000KT 2SM 25/21 A2980 RMK T02500210 IEM_DS3505
ZGGG,2002-05-17 15:00,ZGGG 171500Z AUTO 00000KT 6SM 24/23 A2980 RMK SLP093 T02420227 52019 IEM_DS3505
ZGGG,2002-05-17 16:00,ZGGG 171600Z AUTO 15002KT 2SM 25/22 A2980 RMK T02500220 IEM_DS3505
ZGGG,2002-05-17 17:00,ZGGG 171700Z AUTO 00000KT 2SM 24/22 A2980 RMK T02400220 IEM_DS3505
ZGGG,2002-05-17 18:00,ZGGG 171800Z AUTO 00000KT 5SM 24/23 A2980 RMK SLP087 T02360227 57006 IEM_DS3505
ZGGG,2002-05-17 19:00,ZGGG 171900Z AUTO 00000KT 1 1/2SM 24/23 A2977 RMK T02400230 IEM_DS3505
ZGGG,2002-05-17 20:00,ZGGG 172000Z AUTO 00000KT 1 1/4SM 23/23 A2977 RMK T02300230 IEM_DS3505
ZGGG,2002-05-17 21:00,ZGGG 172100Z AUTO 00000KT 1 1/4SM 23/22 A2980 RMK SLP084 T02340225 57003 IEM_DS3505
ZGGG,2002-05-17 22:00,ZGGG 172200Z AUTO 00000KT 1SM 23/23 A2980 RMK T02300230 IEM_DS3505
ZGGG,2002-05-17 23:00,ZGGG 172300Z AUTO 00000KT 1SM 24/23 A2980 RMK T02400230 IEM_DS3505
ZGGG,2002-05-18 00:00,ZGGG 180000Z AUTO 00000KT 2SM 25/23 A2983 RMK SLP096 T02490230 52012 IEM_DS3505
ZGGG,2002-05-18 01:00,ZGGG 180100Z AUTO 10004KT 2 1/2SM 26/22 A2983 RMK T02600220 IEM_DS3505
ZGGG,2002-05-18 02:00,ZGGG 180200Z AUTO 10004KT 3SM 28/22 A2980 RMK T02800220 IEM_DS3505
ZGGG,2002-05-18 03:00,ZGGG 180300Z AUTO 14006KT 4SM 28/22 A2980 RMK SLP090 T02820217 57006 IEM_DS3505
ZGGG,2002-05-18 04:00,ZGGG 180400Z AUTO 13008KT 3SM 29/22 A2977 RMK T02900220 IEM_DS3505
ZGGG,2002-05-18 05:00,ZGGG 180500Z AUTO 15006KT 3SM 28/22 A2977 RMK T02800220 IEM_DS3505
ZGGG,2002-05-18 06:00,ZGGG 180600Z AUTO 14004KT 6SM 28/22 A2974 RMK 60003 SLP074 T02760222 57016 IEM_DS3505
ZGGG,2002-05-18 07:00,ZGGG 180700Z AUTO 16006KT 3SM 28/22 A2974 RMK T02800220 IEM_DS3505
ZGGG,2002-05-18 08:00,ZGGG 180800Z AUTO 15006KT 4SM 27/22 A2971 RMK T02700220 IEM_DS3505
ZGGG,2002-05-18 09:00,ZGGG 180900Z AUTO 14006KT 7SM 27/22 A2971 RMK SLP062 T02720219 57012 IEM_DS3505
ZGGG,2002-05-18 10:00,ZGGG 181000Z AUTO 12006KT 27/21 A2971 RMK T02700210 IEM_DS3505
ZGGG,2002-05-18 11:00,ZGGG 181100Z AUTO 12006KT 4SM 27/22 A2971 RMK T02700220 IEM_DS3505
ZGGG,2002-05-18 12:00,ZGGG 181200Z AUTO 14002KT 7SM 26/22 A2971 RMK SLP067 T02620222 52005 IEM_DS3505
ZGGG,2002-05-18 13:00,ZGGG 181300Z AUTO 10004KT 6SM 26/22 A2974 RMK T02600220 IEM_DS3505
ZGGG,2002-05-18 14:00,ZGGG 181400Z AUTO 09004KT 4SM 26/22 A2974 RMK T02600220 IEM_DS3505
ZGGG,2002-05-18 15:00,ZGGG 181500Z AUTO 11002KT 7SM 25/23 A2974 RMK SLP075 T02520226 52008 IEM_DS3505
ZGGG,2002-05-18 16:00,ZGGG 181600Z AUTO 09004KT 3SM 25/22 A2974 RMK T02500220 IEM_DS3505
ZGGG,2002-05-18 17:00,ZGGG 181700Z AUTO 07004KT 4SM 25/22 A2974 RMK T02500220 IEM_DS3505
ZGGG,2002-05-18 18:00,ZGGG 181800Z AUTO 09002KT 2 1/2SM 24/23 A2971 RMK SLP062 T02410226 57013 IEM_DS3505
ZGGG,2002-05-18 19:00,ZGGG 181900Z AUTO 04004KT 3SM 24/23 A2971 RMK T02400230 IEM_DS3505
ZGGG,2002-05-18 20:00,ZGGG 182000Z AUTO 00000KT 3SM 24/23 A2971 RMK T02400230 IEM_DS3505
ZGGG,2002-05-18 21:00,ZGGG 182100Z AUTO 14002KT 1 1/2SM 24/23 A2968 RMK 70003 SLP056 T02390226 57006 IEM_DS3505
ZGGG,2002-05-18 22:00,ZGGG 182200Z AUTO 00000KT 2 1/2SM 24/23 A2971 RMK T02400230 IEM_DS3505
ZGGG,2002-05-18 23:00,ZGGG 182300Z AUTO 03004KT 2SM 24/23 A2971 RMK T02400230 IEM_DS3505
ZGGG,2002-05-19 00:00,ZGGG 190000Z AUTO 07002KT 1 1/2SM 25/23 A2971 RMK 60003 SLP068 T02460228 52012 IEM_DS3505
ZGGG,2002-05-19 01:00,ZGGG 190100Z AUTO 00000KT 1 1/2SM 25/23 A2974 RMK T02500230 IEM_DS3505
ZGGG,2002-05-19 02:00,ZGGG 190200Z AUTO 00000KT 1 1/2SM 26/23 A2971 RMK T02600230 IEM_DS3505
ZGGG,2002-05-19 03:00,ZGGG 190300Z AUTO 11002KT 2 1/2SM 27/23 A2971 RMK SLP064 T02660234 57004 IEM_DS3505
ZGGG,2002-05-19 04:00,ZGGG 190400Z AUTO 16004KT 2 1/2SM 27/23 A2971 RMK T02700230 IEM_DS3505
ZGGG,2002-05-19 05:00,ZGGG 190500Z AUTO 20002KT 2 1/2SM 27/23 A2968 RMK T02700230 IEM_DS3505
ZGGG,2002-05-19 06:00,ZGGG 190600Z AUTO 36002KT 5SM 29/24 A2965 RMK 60003 SLP044 T02860243 57020 IEM_DS3505
ZGGG,2002-05-19 07:00,ZGGG 190700Z AUTO 00000KT 2 1/2SM 29/23 A2962 RMK T02900230 IEM_DS3505
ZGGG,2002-05-19 08:00,ZGGG 190800Z AUTO 03004KT 2 1/2SM 29/22 A2962 RMK T02900220 IEM_DS3505
ZGGG,2002-05-19 09:00,ZGGG 190900Z AUTO 09002KT 5SM 30/24 A2962 RMK SLP030 T02980238 57013 IEM_DS3505
ZGGG,2002-05-19 10:00,ZGGG 191000Z AUTO 17012KT 2SM 26/23 A2965 RMK T02600230 IEM_DS3505
ZGGG,2002-05-19 11:00,ZGGG 191100Z AUTO 20004KT 2SM 26/24 A2965 RMK T02600240 IEM_DS3505
ZGGG,2002-05-19 12:00,ZGGG 191200Z AUTO 04002KT 3SM 25/24 A2968 RMK 60098 SLP051 T02480239 52020 IEM_DS3505
ZGGG,2002-05-19 13:00,ZGGG 191300Z AUTO 13004KT 2 1/2SM 26/24 A2968 RMK T02600240 IEM_DS3505
ZGGG,2002-05-19 14:00,ZGGG 191400Z AUTO 12004KT 2 1/2SM 26/24 A2968 RMK T02600240 IEM_DS3505
ZGGG,2002-05-19 15:00,ZGGG 191500Z AUTO 00000KT 2SM 25/25 A2968 RMK SLP052 T02520246 52001 IEM_DS3505
ZGGG,2002-05-19 16:00,ZGGG 191600Z AUTO 14004KT 3SM 26/24 A2968 RMK T02600240 IEM_DS3505
ZGGG,2002-05-19 17:00,ZGGG 191700Z AUTO 16004KT 3SM 26/24 A2968 RMK T02600240 IEM_DS3505
ZGGG,2002-05-19 18:00,ZGGG 191800Z AUTO 11002KT 1SM 25/24 A2965 RMK 60003 SLP043 T02510245 57009 IEM_DS3505
ZGGG,2002-05-19 19:00,ZGGG 191900Z AUTO 13004KT 2SM 26/24 A2965 RMK T02600240 IEM_DS3505
ZGGG,2002-05-19 20:00,ZGGG 192000Z AUTO 14004KT 2 1/2SM 26/24 A2965 RMK T02600240 IEM_DS3505
ZGGG,2002-05-19 21:00,ZGGG 192100Z AUTO 09002KT 2 1/2SM 25/24 A2965 RMK 70102 SLP040 T02510244 57002 IEM_DS3505
ZGGG,2002-05-19 22:00,ZGGG 192200Z AUTO 14004KT 2SM 26/24 A2965 RMK T02600240 IEM_DS3505
ZGGG,2002-05-19 23:00,ZGGG 192300Z AUTO 14006KT 1 1/4SM 26/24 A2968 RMK T02600240 IEM_DS3505
ZGGG,2002-05-20 00:00,ZGGG 200000Z AUTO 11002KT 3SM 26/25 A2968 RMK 60002 SLP051 T02570250 52010 IEM_DS3505
ZGGG,2002-05-20 01:00,ZGGG 200100Z AUTO 15006KT 2SM 27/24 A2968 RMK T02700240 IEM_DS3505
ZGGG,2002-05-20 02:00,ZGGG 200200Z AUTO 14006KT 2SM 27/24 A2968 RMK T02700240 IEM_DS3505
ZGGG,2002-05-20 03:00,ZGGG 200300Z AUTO 14006KT 1 1/2SM 28/25 A2965 RMK SLP044 T02810250 57007 IEM_DS3505
ZGGG,2002-05-20 04:00,ZGGG 200400Z AUTO 16004KT 1SM 27/25 A2965 RMK T02700250 IEM_DS3505
ZGGG,2002-05-20 05:00,ZGGG 200500Z AUTO 14008KT 5SM 26/26 A2962 RMK T02600260 IEM_DS3505
ZGGG,2002-05-20 06:00,ZGGG 200600Z AUTO 14004KT 5SM 27/25 A2959 RMK 60177 SLP025 T02720252 57019 IEM_DS3505
ZGGG,2002-05-20 07:00,ZGGG 200700Z AUTO 16008KT 1 1/4SM 26/26 A2959 RMK T02600260 IEM_DS3505
ZGGG,2002-05-20 08:00,ZGGG 200800Z AUTO 15010KT 2 1/2SM 26/25 A2959 RMK T02600250 IEM_DS3505
ZGGG,2002-05-20 09:00,ZGGG 200900Z AUTO 16004KT 2SM 26/25 A2956 RMK SLP015 T02590249 57010 IEM_DS3505
ZGGG,2002-05-20 10:00,ZGGG 201000Z AUTO 15012KT 2 1/2SM 26/26 A2956 RMK T02600260 IEM_DS3505
ZGGG,2002-05-20 11:00,ZGGG 201100Z AUTO 15008KT 2SM 26/25 A2959 RMK T02600250 IEM_DS3505
ZGGG,2002-05-20 12:00,ZGGG 201200Z AUTO 14004KT 1 1/4SM 26/25 A2959 RMK 60031 SLP028 T02580249 52013 IEM_DS3505
ZGGG,2002-05-20 13:00,ZGGG 201300Z AUTO 13010KT 2 1/2SM 26/25 A2962 RMK T02600250 IEM_DS3505
ZGGG,2002-05-20 14:00,ZGGG 201400Z AUTO 13010KT 3SM RMK IEM_DS3505
ZGGG,2002-05-20 15:00,ZGGG 201500Z AUTO 09004KT 1SM 26/24 A2962 RMK SLP037 T02560245 52010 IEM_DS3505
ZGGG,2002-05-20 17:00,ZGGG 201700Z AUTO 00000KT 2 1/2SM 25/25 A2962 RMK T02500250 IEM_DS3505
ZGGG,2002-05-20 18:00,ZGGG 201800Z AUTO 14002KT 1SM 25/25 A2962 RMK 60051 SLP031 T02520246 57007 IEM_DS3505
ZGGG,2002-05-20 19:00,ZGGG 201900Z AUTO 15008KT 2 1/2SM 25/25 A2959 RMK T02500250 IEM_DS3505
ZGGG,2002-05-20 20:00,ZGGG 202000Z AUTO 16010KT 3SM 25/25 A2959 RMK T02500250 IEM_DS3505
ZGGG,2002-05-20 21:00,ZGGG 202100Z AUTO 14002KT 1 1/4SM 25/25 A2959 RMK 70304 SLP020 T02530249 57011 IEM_DS3505
ZGGG,2002-05-20 22:00,ZGGG 202200Z AUTO 14008KT 1 1/2SM 26/26 A2959 RMK T02600260 IEM_DS3505
ZGGG,2002-05-20 23:00,ZGGG 202300Z AUTO 34004KT 1SM 26/26 A2962 RMK T02600260 IEM_DS3505
ZGGG,2002-05-21 00:00,ZGGG 210000Z AUTO 27008KT 1SM 26/25 A2965 RMK 60118 SLP031 T02590253 52011 IEM_DS3505
ZGGG,2002-05-21 01:00,ZGGG 210100Z AUTO 17002KT 7SM 25/25 A2965 RMK T02500250 IEM_DS3505
ZGGG,2002-05-21 02:00,ZGGG 210200Z AUTO 00000KT 3SM 26/26 A2965 RMK T02600260 IEM_DS3505
ZGGG,2002-05-21 03:00,ZGGG 210300Z AUTO 18004KT 1 1/2SM 28/26 A2965 RMK SLP043 T02750265 52012 IEM_DS3505
ZGGG,2002-05-21 04:00,ZGGG 210400Z AUTO 15006KT 3SM 29/27 A2965 RMK T02900270 IEM_DS3505
ZGGG,2002-05-21 05:00,ZGGG 210500Z AUTO 16006KT 3SM 30/26 A2962 RMK T03000260 IEM_DS3505
ZGGG,2002-05-21 06:00,ZGGG 210600Z AUTO 18006KT 10SM 30/26 A2959 RMK 60146 SLP024 T03040255 57018 IEM_DS3505
ZGGG,2002-05-21 07:00,ZGGG 210700Z AUTO 16008KT 7SM 31/25 A2956 RMK T03100250 IEM_DS3505
ZGGG,2002-05-21 08:00,ZGGG 210800Z AUTO 16010KT 7SM 32/26 A2956 RMK T03200260 IEM_DS3505
ZGGG,2002-05-21 09:00,ZGGG 210900Z AUTO 18004KT 11SM 31/26 A2956 RMK SLP011 T03110255 57013 IEM_DS3505
ZGGG,2002-05-21 10:00,ZGGG 211000Z AUTO 16008KT 7SM 31/25 A2956 RMK T03100250 IEM_DS3505
ZGGG,2002-05-21 11:00,ZGGG 211100Z AUTO 15008KT 7SM 29/27 A2956 RMK T02900270 IEM_DS3505
ZGGG,2002-05-21 12:00,ZGGG 211200Z AUTO 14004KT 9SM 28/26 A2962 RMK SLP033 T02850264 52022 IEM_DS3505
ZGGG,2002-05-21 13:00,ZGGG 211300Z AUTO 15008KT 4SM 28/27 A2962 RMK T02800270 IEM_DS3505
ZGGG,2002-05-21 14:00,ZGGG 211400Z AUTO 15008KT 4SM 28/27 A2965 RMK T02800270 IEM_DS3505
ZGGG,2002-05-21 15:00,ZGGG 211500Z AUTO 14006KT 6SM 28/26 A2965 RMK SLP039 T02780264 52006 IEM_DS3505
ZGGG,2002-05-21 16:00,ZGGG 211600Z AUTO 17006KT 4SM 28/27 A2968 RMK T02800270 IEM_DS3505
ZGGG,2002-05-21 17:00,ZGGG 211700Z AUTO 16006KT 4SM 28/27 A2965 RMK T02800270 IEM_DS3505
ZGGG,2002-05-21 18:00,ZGGG 211800Z AUTO 16004KT 2 1/2SM 28/26 A2962 RMK SLP036 T02760262 57003 IEM_DS3505
ZGGG,2002-05-21 19:00,ZGGG 211900Z AUTO 16004KT 4SM 28/27 A2965 RMK T02800270 IEM_DS3505
ZGGG,2002-05-21 20:00,ZGGG 212000Z AUTO 18002KT 4SM 27/26 A2965 RMK T02700260 IEM_DS3505
ZGGG,2002-05-21 21:00,ZGGG 212100Z AUTO 00000KT 2 1/2SM 27/26 A2965 RMK SLP040 T02700260 52004 IEM_DS3505
ZGGG,2002-05-21 22:00,ZGGG 212200Z AUTO 06004KT 5SM 26/25 A2965 RMK T02600250 IEM_DS3505
ZGGG,2002-05-21 23:00,ZGGG 212300Z AUTO 02004KT 4SM 26/25 A2968 RMK T02600250 IEM_DS3505
ZGGG,2002-05-22 00:00,ZGGG 220000Z AUTO 36004KT 9SM 26/24 A2971 RMK 60003 SLP056 T02640244 52016 IEM_DS3505
ZGGG,2002-05-22 01:00,ZGGG 220100Z AUTO 36004KT 3SM 26/25 A2971 RMK T02600250 IEM_DS3505
ZGGG,2002-05-22 02:00,ZGGG 220200Z AUTO 03008KT 3SM 27/25 A2971 RMK T02700250 IEM_DS3505
ZGGG,2002-05-22 03:00,ZGGG 220300Z AUTO 32004KT 7SM 29/25 A2974 RMK SLP066 T02930252 52010 IEM_DS3505
ZGGG,2002-05-22 04:00,ZGGG 220400Z AUTO 02008KT 5SM 28/24 A2971 RMK T02800240 IEM_DS3505
ZGGG,2002-05-22 05:00,ZGGG 220500Z AUTO 36006KT 7SM 29/23 A2971 RMK T02900230 IEM_DS3505
ZGGG,2002-05-22 06:00,ZGGG 220600Z AUTO 36008KT 12SM 30/24 A2968 RMK 60003 SLP051 T03040242 57015 IEM_DS3505
ZGGG,2002-05-22 07:00,ZGGG 220700Z AUTO 01010KT 7SM 29/23 A2968 RMK T02900230 IEM_DS3505
ZGGG,2002-05-22 08:00,ZGGG 220800Z AUTO 01008KT 6SM 29/23 A2968 RMK T02900230 IEM_DS3505
ZGGG,2002-05-22 09:00,ZGGG 220900Z AUTO 34006KT 14SM 30/23 A2965 RMK SLP045 T02960230 57006 IEM_DS3505
ZGGG,2002-05-22 10:00,ZGGG 221000Z AUTO 02010KT 6SM 29/22 A2968 RMK T02900220 IEM_DS3505
ZGGG,2002-05-22 11:00,ZGGG 221100Z AUTO 01008KT 7SM 28/21 A2971 RMK T02800210 IEM_DS3505
ZGGG,2002-05-22 12:00,ZGGG 221200Z AUTO 34004KT 11SM 27/22 A2974 RMK SLP070 T02680218 52024 IEM_DS3505
ZGGG,2002-05-22 13:00,ZGGG 221300Z AUTO 36010KT 6SM 27/21 A2977 RMK T02700210 IEM_DS3505
ZGGG,2002-05-22 14:00,ZGGG 221400Z AUTO 36008KT 6SM 26/20 A2977 RMK T02600200 IEM_DS3505
ZGGG,2002-05-22 15:00,ZGGG 221500Z AUTO 36002KT 12SM 26/21 A2980 RMK SLP088 T02580207 52018 IEM_DS3505
ZGGG,2002-05-22 16:00,ZGGG 221600Z AUTO 36008KT 6SM 26/19 A2980 RMK T02600190 IEM_DS3505
ZGGG,2002-05-22 17:00,ZGGG 221700Z AUTO 36008KT 6SM 25/18 A2980 RMK T02500180 IEM_DS3505
ZGGG,2002-05-22 18:00,ZGGG 221800Z AUTO 32004KT 11SM 25/19 A2980 RMK SLP085 T02460194 57003 IEM_DS3505
ZGGG,2002-05-22 19:00,ZGGG 221900Z AUTO 36010KT 6SM 24/18 A2980 RMK T02400180 IEM_DS3505
ZGGG,2002-05-22 20:00,ZGGG 222000Z AUTO 36010KT 6SM 24/18 A2980 RMK T02400180 IEM_DS3505
ZGGG,2002-05-22 21:00,ZGGG 222100Z AUTO 36006KT 9SM 23/18 A2980 RMK 70003 SLP088 T02340180 52003 IEM_DS3505
ZGGG,2002-05-22 22:00,ZGGG 222200Z AUTO 36008KT 6SM 23/17 A2983 RMK T02300170 IEM_DS3505
ZGGG,2002-05-22 23:00,ZGGG 222300Z AUTO 36008KT 5SM 23/17 A2985 RMK T02300170 IEM_DS3505
ZGGG,2002-05-23 00:00,ZGGG 230000Z AUTO 34010KT 11SM 24/18 A2985 RMK 70003 SLP108 T02420182 52020 IEM_DS3505
ZGGG,2002-05-23 01:00,ZGGG 230100Z AUTO 36008KT 24/17 A2988 RMK T02400170 IEM_DS3505
ZGGG,2002-05-23 02:00,ZGGG 230200Z AUTO 36010KT 24/17 A2988 RMK T02400170 IEM_DS3505
ZGGG,2002-05-23 03:00,ZGGG 230300Z AUTO 07006KT 15SM 28/19 A2988 RMK SLP111 T02760193 52003 IEM_DS3505
ZGGG,2002-05-23 04:00,ZGGG 230400Z AUTO 04006KT 6SM 27/19 A2985 RMK T02700190 IEM_DS3505
ZGGG,2002-05-23 05:00,ZGGG 230500Z AUTO 35006KT 6SM 28/18 A2983 RMK T02800180 IEM_DS3505
ZGGG,2002-05-23 06:00,ZGGG 230600Z AUTO 34004KT 16SM 30/20 A2980 RMK SLP091 T02960196 57020 IEM_DS3505
ZGGG,2002-05-23 07:00,ZGGG 230700Z AUTO 01006KT 6SM 29/19 A2980 RMK T02900190 IEM_DS3505
ZGGG,2002-05-23 08:00,ZGGG 230800Z AUTO 35006KT 6SM 29/19 A2977 RMK T02900190 IEM_DS3505
ZGGG,2002-05-23 09:00,ZGGG 230900Z AUTO 34006KT 10SM 30/21 A2977 RMK SLP077 T02990207 57014 IEM_DS3505
ZGGG,2002-05-23 10:00,ZGGG 231000Z AUTO 01008KT 6SM 29/19 A2977 RMK T02900190 IEM_DS3505
ZGGG,2002-05-23 11:00,ZGGG 231100Z AUTO 04010KT 6SM 28/20 A2980 RMK T02800200 IEM_DS3505
ZGGG,2002-05-23 12:00,ZGGG 231200Z AUTO 36004KT 12SM 28/20 A2983 RMK SLP098 T02810201 52021 IEM_DS3505
ZGGG,2002-05-23 14:00,ZGGG 231400Z AUTO 04010KT 6SM 27/19 A2988 RMK T02700190 IEM_DS3505
ZGGG,2002-05-23 15:00,ZGGG 231500Z AUTO 02002KT 9SM 27/20 A2991 RMK SLP126 T02690202 52028 IEM_DS3505
ZGGG,2002-05-23 16:00,ZGGG 231600Z AUTO 04010KT 7SM 26/19 A2991 RMK T02600190 IEM_DS3505
ZGGG,2002-05-23 17:00,ZGGG 231700Z AUTO 04010KT 6SM 26/19 A2991 RMK T02600190 IEM_DS3505
ZGGG,2002-05-23 18:00,ZGGG 231800Z AUTO 04004KT 9SM 26/20 A2988 RMK SLP124 T02550197 57002 IEM_DS3505
ZGGG,2002-05-23 19:00,ZGGG 231900Z AUTO 02008KT 6SM 25/18 A2985 RMK T02500180 IEM_DS3505
ZGGG,2002-05-23 20:00,ZGGG 232000Z AUTO 05008KT 6SM 24/18 A2988 RMK T02400180 IEM_DS3505
ZGGG,2002-05-23 21:00,ZGGG 232100Z AUTO 02004KT 8SM 24/18 A2988 RMK SLP118 T02420182 57006 IEM_DS3505
ZGGG,2002-05-23 22:00,ZGGG 232200Z AUTO 04008KT 6SM 24/18 A2988 RMK T02400180 IEM_DS3505
ZGGG,2002-05-23 23:00,ZGGG 232300Z AUTO 04008KT 5SM 23/17 A2991 RMK T02300170 IEM_DS3505
ZGGG,2002-05-24 00:00,ZGGG 240000Z AUTO 36004KT 9SM 24/17 A2994 RMK SLP135 T02430174 52017 IEM_DS3505
ZGGG,2002-05-24 01:00,ZGGG 240100Z AUTO 04008KT 6SM 24/17 A2994 RMK T02400170 IEM_DS3505
ZGGG,2002-05-24 02:00,ZGGG 240200Z AUTO 01004KT 6SM 26/17 A2994 RMK T02600170 IEM_DS3505
ZGGG,2002-05-24 03:00,ZGGG 240300Z AUTO 04004KT 10SM 27/18 A2994 RMK SLP137 T02740184 52002 IEM_DS3505
ZGGG,2002-05-24 04:00,ZGGG 240400Z AUTO 02006KT 6SM 27/18 A2991 RMK T02700180 IEM_DS3505
ZGGG,2002-05-24 05:00,ZGGG 240500Z AUTO 01006KT 6SM 28/17 A2991 RMK T02800170 IEM_DS3505
ZGGG,2002-05-24 06:00,ZGGG 240600Z AUTO 34004KT 11SM 30/19 A2988 RMK SLP116 T02980188 57021 IEM_DS3505
ZGGG,2002-05-24 07:00,ZGGG 240700Z AUTO 36006KT 6SM 29/17 A2985 RMK T02900170 IEM_DS3505
ZGGG,2002-05-24 08:00,ZGGG 240800Z AUTO 03008KT 6SM 29/18 A2983 RMK T02900180 IEM_DS3505
ZGGG,2002-05-24 09:00,ZGGG 240900Z AUTO 36004KT 10SM 29/18 A2983 RMK SLP100 T02910185 57016 IEM_DS3505
ZGGG,2002-05-24 10:00,ZGGG 241000Z AUTO 02008KT 6SM 28/18 A2983 RMK T02800180 IEM_DS3505
ZGGG,2002-05-24 11:00,ZGGG 241100Z AUTO 03008KT 6SM 28/18 A2985 RMK T02800180 IEM_DS3505
ZGGG,2002-05-24 12:00,ZGGG 241200Z AUTO 04004KT 10SM 28/19 A2988 RMK SLP116 T02770188 52016 IEM_DS3505
ZGGG,2002-05-24 13:00,ZGGG 241300Z AUTO 05008KT 6SM 28/19 A2988 RMK T02800190 IEM_DS3505
ZGGG,2002-05-24 14:00,ZGGG 241400Z AUTO 04008KT 6SM 27/18 A2991 RMK T02700180 IEM_DS3505
ZGGG,2002-05-24 15:00,ZGGG 241500Z AUTO 00000KT 9SM 27/19 A2991 RMK SLP129 T02690187 52013 IEM_DS3505
ZGGG,2002-05-24 16:00,ZGGG 241600Z AUTO 05002KT 6SM 27/18 A2991 RMK T02700180 IEM_DS3505
ZGGG,2002-05-24 17:00,ZGGG 241700Z AUTO 09004KT 6SM 26/18 A2988 RMK T02600180 IEM_DS3505
ZGGG,2002-05-24 18:00,ZGGG 241800Z AUTO 11002KT 9SM 26/19 A2988 RMK SLP115 T02560191 57014 IEM_DS3505
ZGGG,2002-05-24 19:00,ZGGG 241900Z AUTO 07004KT 6SM 26/19 A2985 RMK T02600190 IEM_DS3505
ZGGG,2002-05-24 20:00,ZGGG 242000Z AUTO 04004KT 6SM 25/19 A2985 RMK T02500190 IEM_DS3505
ZGGG,2002-05-24 21:00,ZGGG 242100Z AUTO 00000KT 9SM 25/20 A2985 RMK SLP112 T02530203 57003 IEM_DS3505
ZGGG,2002-05-24 22:00,ZGGG 242200Z AUTO 04006KT 6SM 25/20 A2988 RMK T02500200 IEM_DS3505
ZGGG,2002-05-24 23:00,ZGGG 242300Z AUTO 05004KT 6SM 25/20 A2988 RMK T02500200 IEM_DS3505
ZGGG,2002-05-25 00:00,ZGGG 250000Z AUTO 07006KT 9SM 26/20 A2991 RMK SLP127 T02610197 52015 IEM_DS3505
ZGGG,2002-05-25 01:00,ZGGG 250100Z AUTO 04006KT 5SM 26/19 A2991 RMK T02600190 IEM_DS3505
ZGGG,2002-05-25 02:00,ZGGG 250200Z AUTO 02008KT 5SM 27/18 A2991 RMK T02700180 IEM_DS3505
ZGGG,2002-05-25 03:00,ZGGG 250300Z AUTO 07004KT 9SM 28/19 A2991 RMK SLP134 T02780192 52007 IEM_DS3505
ZGGG,2002-05-25 04:00,ZGGG 250400Z AUTO 01008KT 6SM 27/17 A2991 RMK T02700170 IEM_DS3505
ZGGG,2002-05-25 05:00,ZGGG 250500Z AUTO 36006KT 6SM 27/17 A2991 RMK T02700170 IEM_DS3505
ZGGG,2002-05-25 06:00,ZGGG 250600Z AUTO 29002KT 11SM 28/19 A2988 RMK SLP118 T02800188 57016 IEM_DS3505
ZGGG,2002-05-25 07:00,ZGGG 250700Z AUTO 02006KT 6SM 27/17 A2985 RMK T02700170 IEM_DS3505
ZGGG,2002-05-25 08:00,ZGGG 250800Z AUTO 34004KT 4SM 26/17 A2985 RMK T02600170 IEM_DS3505
ZGGG,2002-05-25 09:00,ZGGG 250900Z AUTO 25002KT 10SM 25/21 A2985 RMK SLP106 T02490208 57012 IEM_DS3505
ZGGG,2002-05-25 10:00,ZGGG 251000Z AUTO 24004KT 26/18 A2985 RMK T02600180 IEM_DS3505
ZGGG,2002-05-25 11:00,ZGGG 251100Z AUTO 24004KT 2SM 26/20 A2988 RMK T02600200 IEM_DS3505
ZGGG,2002-05-25 12:00,ZGGG 251200Z AUTO 00000KT 9SM 25/20 A2988 RMK 60002 SLP115 T02480204 52009 IEM_DS3505
ZGGG,2002-05-25 13:00,ZGGG 251300Z AUTO 27004KT 3SM 25/19 A2988 RMK T02500190 IEM_DS3505
ZGGG,2002-05-25 14:00,ZGGG 251400Z AUTO 28002KT 2 1/2SM 24/19 A2988 RMK T02400190 IEM_DS3505
ZGGG,2002-05-25 15:00,ZGGG 251500Z AUTO 32002KT 7SM 24/20 A2991 RMK SLP124 T02440200 52009 IEM_DS3505
ZGGG,2002-05-25 16:00,ZGGG 251600Z AUTO 00000KT 3SM 24/19 A2988 RMK T02400190 IEM_DS3505
ZGGG,2002-05-25 17:00,ZGGG 251700Z AUTO 02002KT 3SM 24/19 A2985 RMK T02400190 IEM_DS3505
ZGGG,2002-05-25 18:00,ZGGG 251800Z AUTO 34002KT 7SM 24/20 A2985 RMK SLP110 T02370197 57014 IEM_DS3505
ZGGG,2002-05-25 19:00,ZGGG 251900Z AUTO 06002KT 4SM 23/19 A2985 RMK T02300190 IEM_DS3505
ZGGG,2002-05-25 20:00,ZGGG 252000Z AUTO 00000KT 3SM 23/19 A2983 RMK T02300190 IEM_DS3505
ZGGG,2002-05-25 21:00,ZGGG 252100Z AUTO 34002KT 4SM 24/20 A2983 RMK 70002 SLP106 T02380200 57004 IEM_DS3505
ZGGG,2002-05-25 22:00,ZGGG 252200Z AUTO 00000KT 2SM 23/20 A2985 RMK T02300200 IEM_DS3505
ZGGG,2002-05-25 23:00,ZGGG 252300Z AUTO 06004KT 2SM 24/20 A2985 RMK T02400200 IEM_DS3505
ZGGG,2002-05-26 00:00,ZGGG 260000Z AUTO 00000KT 8SM 25/21 A2988 RMK 70002 SLP121 T02510210 52015 IEM_DS3505
ZGGG,2002-05-26 01:00,ZGGG 260100Z AUTO 05004KT 5SM 26/20 A2988 RMK T02600200 IEM_DS3505
ZGGG,2002-05-26 02:00,ZGGG 260200Z AUTO 05008KT 5SM 27/20 A2988 RMK T02700200 IEM_DS3505
ZGGG,2002-05-26 03:00,ZGGG 260300Z AUTO 07006KT 11SM 29/20 A2988 RMK SLP119 T02940204 57002 IEM_DS3505
ZGGG,2002-05-26 04:00,ZGGG 260400Z AUTO 01006KT 7SM 29/18 A2985 RMK T02900180 IEM_DS3505
ZGGG,2002-05-26 05:00,ZGGG 260500Z AUTO 05002KT 7SM 29/18 A2983 RMK T02900180 IEM_DS3505
ZGGG,2002-05-26 06:00,ZGGG 260600Z AUTO 22002KT 12SM 31/19 A2983 RMK SLP099 T03120189 57020 IEM_DS3505
ZGGG,2002-05-26 07:00,ZGGG 260700Z AUTO 04002KT 7SM 30/18 A2980 RMK T03000180 IEM_DS3505
ZGGG,2002-05-26 08:00,ZGGG 260800Z AUTO 07002KT 7SM 31/18 A2980 RMK T03100180 IEM_DS3505
ZGGG,2002-05-26 09:00,ZGGG 260900Z AUTO 00000KT 12SM 31/20 A2977 RMK SLP087 T03060198 57012 IEM_DS3505
ZGGG,2002-05-26 10:00,ZGGG 261000Z AUTO 05006KT 7SM 31/17 A2980 RMK T03100170 IEM_DS3505
ZGGG,2002-05-26 11:00,ZGGG 261100Z AUTO 11004KT 6SM 30/17 A2980 RMK T03000170 IEM_DS3505
ZGGG,2002-05-26 12:00,ZGGG 261200Z AUTO 00000KT 10SM 27/20 A2980 RMK SLP095 T02740201 52008 IEM_DS3505
ZGGG,2002-05-26 13:00,ZGGG 261300Z AUTO 15004KT 3SM 28/19 A2983 RMK T02800190 IEM_DS3505
ZGGG,2002-05-26 14:00,ZGGG 261400Z AUTO 16006KT 2SM 28/21 A2983 RMK T02800210 IEM_DS3505
ZGGG,2002-05-26 15:00,ZGGG 261500Z AUTO 14002KT 9SM 26/21 A2985 RMK SLP111 T02620208 52016 IEM_DS3505
ZGGG,2002-05-26 16:00,ZGGG 261600Z AUTO 17004KT 6SM 27/17 A2985 RMK T02700170 IEM_DS3505
ZGGG,2002-05-26 17:00,ZGGG 261700Z AUTO 17002KT 6SM 27/16 A2985 RMK T02700160 IEM_DS3505
ZGGG,2002-05-26 18:00,ZGGG 261800Z AUTO 00000KT 8SM 25/20 A2985 RMK SLP107 T02460199 57004 IEM_DS3505
ZGGG,2002-05-26 19:00,ZGGG 261900Z AUTO 00000KT 25/18 A2983 RMK T02500180 IEM_DS3505
ZGGG,2002-05-26 20:00,ZGGG 262000Z AUTO 00000KT 25/18 A2983 RMK T02500180 IEM_DS3505
ZGGG,2002-05-26 21:00,ZGGG 262100Z AUTO 07002KT 7SM 23/19 A2983 RMK SLP097 T02270193 57010 IEM_DS3505
ZGGG,2002-05-26 22:00,ZGGG 262200Z AUTO 06002KT 3SM 23/17 A2983 RMK T02300170 IEM_DS3505
ZGGG,2002-05-26 23:00,ZGGG 262300Z AUTO 00000KT 24/17 A2985 RMK T02400170 IEM_DS3505
ZGGG,2002-05-27 00:00,ZGGG 270000Z AUTO 36002KT 9SM 27/17 A2985 RMK SLP109 T02680166 52012 IEM_DS3505
ZGGG,2002-05-27 01:00,ZGGG 270100Z AUTO 01006KT 27/16 A2985 RMK T02700160 IEM_DS3505
ZGGG,2002-05-27 02:00,ZGGG 270200Z AUTO 05002KT 5SM 29/13 A2985 RMK T02900130 IEM_DS3505
ZGGG,2002-05-27 03:00,ZGGG 270300Z AUTO 07002KT 10SM 31/14 A2985 RMK SLP108 T03080135 57001 IEM_DS3505
ZGGG,2002-05-27 04:00,ZGGG 270400Z AUTO 08004KT 6SM 31/14 A2983 RMK T03100140 IEM_DS3505
ZGGG,2002-05-27 05:00,ZGGG 270500Z AUTO 06006KT 6SM 32/15 A2983 RMK T03200150 IEM_DS3505
ZGGG,2002-05-27 06:00,ZGGG 270600Z AUTO 09006KT 14SM 33/14 A2980 RMK SLP088 T03280142 57019 IEM_DS3505
ZGGG,2002-05-27 07:00,ZGGG 270700Z AUTO 14006KT 6SM 33/13 A2977 RMK T03300130 IEM_DS3505
ZGGG,2002-05-27 08:00,ZGGG 270800Z AUTO 12006KT 6SM 33/13 A2977 RMK T03300130 IEM_DS3505
ZGGG,2002-05-27 09:00,ZGGG 270900Z AUTO 09004KT 12SM 33/15 A2974 RMK SLP078 T03270151 57011 IEM_DS3505
ZGGG,2002-05-27 11:00,ZGGG 271100Z AUTO 09006KT 5SM 31/13 A2977 RMK T03100130 IEM_DS3505
ZGGG,2002-05-27 12:00,ZGGG 271200Z AUTO 16004KT 11SM 29/19 A2980 RMK SLP089 T02910190 52011 IEM_DS3505
ZGGG,2002-05-27 13:00,ZGGG 271300Z AUTO 16008KT 6SM 29/18 A2983 RMK T02900180 IEM_DS3505
ZGGG,2002-05-27 14:00,ZGGG 271400Z AUTO 15008KT 6SM 28/19 A2983 RMK T02800190 IEM_DS3505
ZGGG,2002-05-27 15:00,ZGGG 271500Z AUTO 14006KT 9SM 27/19 A2983 RMK SLP104 T02740191 52016 IEM_DS3505
ZGGG,2002-05-27 16:00,ZGGG 271600Z AUTO 14006KT 6SM 27/20 A2983 RMK T02700200 IEM_DS3505
ZGGG,2002-05-27 17:00,ZGGG 271700Z AUTO 21002KT 27/20 A2983 RMK T02700200 IEM_DS3505
ZGGG,2002-05-27 18:00,ZGGG 271800Z AUTO 00000KT 7SM 26/21 A2983 RMK SLP097 T02550212 57007 IEM_DS3505
ZGGG,2002-05-27 19:00,ZGGG 271900Z AUTO 04004KT 4SM 25/21 A2983 RMK T02500210 IEM_DS3505
ZGGG,2002-05-27 20:00,ZGGG 272000Z AUTO 03004KT 4SM 24/21 A2983 RMK T02400210 IEM_DS3505
ZGGG,2002-05-27 21:00,ZGGG 272100Z AUTO 00000KT 6SM 24/21 A2983 RMK T02400210 57001 IEM_DS3505
ZGGG,2002-05-27 22:00,ZGGG 272200Z AUTO 02004KT 3SM 24/20 A2983 RMK T02400200 IEM_DS3505
ZGGG,2002-05-27 23:00,ZGGG 272300Z AUTO 06004KT 3SM 24/21 A2983 RMK T02400210 IEM_DS3505
ZGGG,2002-05-28 00:00,ZGGG 280000Z AUTO 09004KT 8SM 27/20 A2985 RMK SLP108 T02680203 52011 IEM_DS3505
ZGGG,2002-05-28 01:00,ZGGG 280100Z AUTO 07004KT 3SM 27/20 A2985 RMK T02700200 IEM_DS3505
ZGGG,2002-05-28 02:00,ZGGG 280200Z AUTO 11006KT 29/19 A2985 RMK T02900190 IEM_DS3505
ZGGG,2002-05-28 03:00,ZGGG 280300Z AUTO 07006KT 11SM 30/19 A2983 RMK SLP106 T03020189 57002 IEM_DS3505
ZGGG,2002-05-28 04:00,ZGGG 280400Z AUTO 12006KT 5SM 31/18 A2983 RMK T03100180 IEM_DS3505
ZGGG,2002-05-28 05:00,ZGGG 280500Z AUTO 10006KT 5SM 32/19 A2980 RMK T03200190 IEM_DS3505
ZGGG,2002-05-28 06:00,ZGGG 280600Z AUTO 14006KT 10SM 32/19 A2977 RMK SLP085 T03210187 57020 IEM_DS3505
ZGGG,2002-05-28 07:00,ZGGG 280700Z AUTO 11006KT 5SM 32/19 A2977 RMK T03200190 IEM_DS3505
ZGGG,2002-05-28 08:00,ZGGG 280800Z AUTO 14006KT 5SM 32/19 A2974 RMK T03200190 IEM_DS3505
ZGGG,2002-05-28 09:00,ZGGG 280900Z AUTO 09002KT 9SM 32/20 A2974 RMK SLP069 T03200204 57016 IEM_DS3505
ZGGG,2002-05-28 10:00,ZGGG 281000Z AUTO 09006KT 31/19 A2974 RMK T03100190 IEM_DS3505
ZGGG,2002-05-28 11:00,ZGGG 281100Z AUTO 17006KT 31/21 A2974 RMK T03100210 IEM_DS3505
ZGGG,2002-05-28 12:00,ZGGG 281200Z AUTO 16004KT 9SM 29/22 A2977 RMK SLP081 T02900221 52011 IEM_DS3505
ZGGG,2002-05-28 13:00,ZGGG 281300Z AUTO 16006KT 6SM 29/22 A2980 RMK T02900220 IEM_DS3505
ZGGG,2002-05-28 14:00,ZGGG 281400Z AUTO 16008KT 6SM 28/22 A2980 RMK T02800220 IEM_DS3505
ZGGG,2002-05-28 15:00,ZGGG 281500Z AUTO 20002KT 9SM 28/22 A2983 RMK SLP101 T02760223 52021 IEM_DS3505
ZGGG,2002-05-28 16:00,ZGGG 281600Z AUTO 16004KT 6SM 27/21 A2983 RMK T02700210 IEM_DS3505
ZGGG,2002-05-28 17:00,ZGGG 281700Z AUTO 21002KT 6SM 27/21 A2983 RMK T02700210 IEM_DS3505
ZGGG,2002-05-28 18:00,ZGGG 281800Z AUTO 00000KT 7SM 26/22 A2980 RMK SLP092 T02650218 57009 IEM_DS3505
ZGGG,2002-05-28 19:00,ZGGG 281900Z AUTO 14002KT 6SM 26/21 A2980 RMK T02600210 IEM_DS3505
ZGGG,2002-05-28 20:00,ZGGG 282000Z AUTO 13002KT 6SM 26/22 A2977 RMK T02600220 IEM_DS3505
ZGGG,2002-05-28 21:00,ZGGG 282100Z AUTO 00000KT 9SM 25/22 A2977 RMK SLP086 T02540221 57006 IEM_DS3505
ZGGG,2002-05-28 22:00,ZGGG 282200Z AUTO 00000KT 5SM 25/21 A2980 RMK T02500210 IEM_DS3505
ZGGG,2002-05-28 23:00,ZGGG 282300Z AUTO 05002KT 5SM 25/21 A2980 RMK T02500210 IEM_DS3505
ZGGG,2002-05-29 00:00,ZGGG 290000Z AUTO 00000KT 7SM 28/22 A2980 RMK SLP096 T02760225 52009 IEM_DS3505
ZGGG,2002-05-29 01:00,ZGGG 290100Z AUTO 15004KT 28/21 A2983 RMK T02800210 IEM_DS3505
ZGGG,2002-05-29 02:00,ZGGG 290200Z AUTO 16004KT 29/21 A2983 RMK T02900210 IEM_DS3505
ZGGG,2002-05-29 03:00,ZGGG 290300Z AUTO 25002KT 8SM 31/22 A2980 RMK SLP094 T03100216 57001 IEM_DS3505
ZGGG,2002-05-29 04:00,ZGGG 290400Z AUTO 15004KT 3SM 30/21 A2980 RMK T03000210 IEM_DS3505
ZGGG,2002-05-29 05:00,ZGGG 290500Z AUTO 16004KT 3SM 31/21 A2977 RMK T03100210 IEM_DS3505
ZGGG,2002-05-29 06:00,ZGGG 290600Z AUTO 20002KT 6SM 32/22 A2974 RMK SLP073 T03250215 57021 IEM_DS3505
ZGGG,2002-05-29 07:00,ZGGG 290700Z AUTO 12004KT 33/22 A2971 RMK T03300220 IEM_DS3505
ZGGG,2002-05-29 08:00,ZGGG 290800Z AUTO 14006KT 3SM 33/21 A2971 RMK T03300210 IEM_DS3505
ZGGG,2002-05-29 09:00,ZGGG 290900Z AUTO 16002KT 7SM 32/22 A2968 RMK SLP055 T03240219 57018 IEM_DS3505
ZGGG,2002-05-29 10:00,ZGGG 291000Z AUTO 13006KT 3SM 32/21 A2968 RMK T03200210 IEM_DS3505
ZGGG,2002-05-29 11:00,ZGGG 291100Z AUTO 15006KT 3SM 32/21 A2968 RMK T03200210 IEM_DS3505
ZGGG,2002-05-29 12:00,ZGGG 291200Z AUTO 16004KT 7SM 30/22 A2971 RMK SLP060 T03050222 52005 IEM_DS3505
ZGGG,2002-05-29 13:00,ZGGG 291300Z AUTO 17008KT 30/23 A2971 RMK T03000230 IEM_DS3505
ZGGG,2002-05-29 15:00,ZGGG 291500Z AUTO 18002KT 11SM 28/23 A2977 RMK SLP083 T02840227 52023 IEM_DS3505
ZGGG,2002-05-29 16:00,ZGGG 291600Z AUTO 18008KT 6SM 28/22 A2977 RMK T02800220 IEM_DS3505
ZGGG,2002-05-29 17:00,ZGGG 291700Z AUTO 20008KT 6SM 28/23 A2974 RMK T02800230 IEM_DS3505
ZGGG,2002-05-29 18:00,ZGGG 291800Z AUTO 18004KT 9SM 28/24 A2974 RMK SLP069 T02750235 57014 IEM_DS3505
ZGGG,2002-05-29 19:00,ZGGG 291900Z AUTO 21008KT 7SM 27/23 A2971 RMK T02700230 IEM_DS3505
ZGGG,2002-05-29 20:00,ZGGG 292000Z AUTO 20010KT 7SM 27/23 A2971 RMK T02700230 IEM_DS3505
ZGGG,2002-05-29 21:00,ZGGG 292100Z AUTO 22004KT 9SM 27/23 A2971 RMK SLP065 T02700234 57004 IEM_DS3505
ZGGG,2002-05-29 22:00,ZGGG 292200Z AUTO 20008KT 7SM 27/23 A2974 RMK T02700230 IEM_DS3505
ZGGG,2002-05-29 23:00,ZGGG 292300Z AUTO 21008KT 6SM 27/23 A2974 RMK T02700230 IEM_DS3505
ZGGG,2002-05-30 00:00,ZGGG 300000Z AUTO 18004KT 7SM 28/24 A2974 RMK SLP072 T02780241 52007 IEM_DS3505
ZGGG,2002-05-30 01:00,ZGGG 300100Z AUTO 20006KT 4SM 28/23 A2974 RMK T02800230 IEM_DS3505
ZGGG,2002-05-30 02:00,ZGGG 300200Z AUTO 22008KT 4SM 29/24 A2977 RMK T02900240 IEM_DS3505
ZGGG,2002-05-30 03:00,ZGGG 300300Z AUTO 27002KT 7SM 30/24 A2974 RMK SLP073 T03020245 52001 IEM_DS3505
ZGGG,2002-05-30 04:00,ZGGG 300400Z AUTO 22008KT 31/23 A2974 RMK T03100230 IEM_DS3505
ZGGG,2002-05-30 06:00,ZGGG 300600Z AUTO 32006KT 10SM 33/24 A2968 RMK SLP052 T03260244 57021 IEM_DS3505
ZGGG,2002-05-30 07:00,ZGGG 300700Z AUTO 33004KT 5SM 31/23 A2968 RMK T03100230 IEM_DS3505
ZGGG,2002-05-30 08:00,ZGGG 300800Z AUTO 26004KT 5SM 31/22 A2965 RMK T03100220 IEM_DS3505
ZGGG,2002-05-30 09:00,ZGGG 300900Z AUTO 20002KT 9SM 29/26 A2968 RMK SLP049 T02880259 57003 IEM_DS3505
ZGGG,2002-05-30 10:00,ZGGG 301000Z AUTO 22008KT 4SM 27/23 A2968 RMK T02700230 IEM_DS3505
ZGGG,2002-05-30 11:00,ZGGG 301100Z AUTO 22006KT 3SM 27/23 A2968 RMK T02700230 IEM_DS3505
ZGGG,2002-05-30 12:00,ZGGG 301200Z AUTO 25002KT 10SM 27/24 A2971 RMK 60002 SLP058 T02720240 52009 IEM_DS3505
ZGGG,2002-05-30 13:00,ZGGG 301300Z AUTO 23006KT 4SM 27/23 A2974 RMK T02700230 IEM_DS3505
ZGGG,2002-05-30 14:00,ZGGG 301400Z AUTO 27004KT 4SM 27/23 A2974 RMK T02700230 IEM_DS3505
ZGGG,2002-05-30 15:00,ZGGG 301500Z AUTO 32002KT 8SM 26/24 A2974 RMK SLP072 T02650238 52014 IEM_DS3505
ZGGG,2002-05-30 16:00,ZGGG 301600Z AUTO 26002KT 4SM 27/23 A2974 RMK T02700230 IEM_DS3505
ZGGG,2002-05-30 17:00,ZGGG 301700Z AUTO 00000KT 3SM 26/23 A2971 RMK T02600230 IEM_DS3505
ZGGG,2002-05-30 18:00,ZGGG 301800Z AUTO 00000KT 7SM 26/24 A2971 RMK SLP062 T02610235 57010 IEM_DS3505
ZGGG,2002-05-30 19:00,ZGGG 301900Z AUTO 26004KT 3SM 26/23 A2971 RMK T02600230 IEM_DS3505
ZGGG,2002-05-30 20:00,ZGGG 302000Z AUTO 00000KT 3SM 26/23 A2968 RMK T02600230 IEM_DS3505
ZGGG,2002-05-30 21:00,ZGGG 302100Z AUTO 36002KT 6SM 26/23 A2968 RMK 70002 SLP054 T02570231 57009 IEM_DS3505
ZGGG,2002-05-30 22:00,ZGGG 302200Z AUTO 31002KT 2 1/2SM 26/23 A2971 RMK T02600230 IEM_DS3505
ZGGG,2002-05-30 23:00,ZGGG 302300Z AUTO 25004KT 2SM 26/23 A2971 RMK T02600230 IEM_DS3505
ZGGG,2002-05-31 00:00,ZGGG 310000Z AUTO 32002KT 3SM 27/24 A2971 RMK 70002 SLP062 T02720236 52008 IEM_DS3505
ZGGG,2002-05-31 01:00,ZGGG 310100Z AUTO 00000KT 2SM 27/23 A2971 RMK T02700230 IEM_DS3505
ZGGG,2002-05-31 02:00,ZGGG 310200Z AUTO 01004KT 3SM 29/23 A2971 RMK T02900230 IEM_DS3505
ZGGG,2002-05-31 03:00,ZGGG 310300Z AUTO 36006KT 7SM 31/22 A2971 RMK SLP056 T03080225 57005 IEM_DS3505
ZGGG,2002-05-31 04:00,ZGGG 310400Z AUTO 33002KT 5SM 31/22 A2971 RMK T03100220 IEM_DS3505
ZGGG,2002-05-31 05:00,ZGGG 310500Z AUTO 23004KT 5SM 32/22 A2968 RMK T03200220 IEM_DS3505
ZGGG,2002-05-31 06:00,ZGGG 310600Z AUTO 34002KT 9SM 32/22 A2965 RMK SLP041 T03220217 57015 IEM_DS3505
ZGGG,2002-05-31 07:00,ZGGG 310700Z AUTO 33004KT 7SM 32/21 A2962 RMK T03200210 IEM_DS3505
ZGGG,2002-05-31 08:00,ZGGG 310800Z AUTO 01006KT 7SM 32/20 A2962 RMK T03200200 IEM_DS3505
ZGGG,2002-05-31 09:00,ZGGG 310900Z AUTO 27004KT 10SM 33/21 A2962 RMK SLP033 T03290208 57008 IEM_DS3505
ZGGG,2002-05-31 10:00,ZGGG 311000Z AUTO 35004KT 6SM 32/19 A2962 RMK T03200190 IEM_DS3505
ZGGG,2002-05-31 11:00,ZGGG 311100Z AUTO 33002KT 6SM 32/18 A2962 RMK T03200180 IEM_DS3505
ZGGG,2002-05-31 12:00,ZGGG 311200Z AUTO 16004KT 9SM 30/24 A2962 RMK SLP036 T02990244 52003 IEM_DS3505
ZGGG,2002-05-31 13:00,ZGGG 311300Z AUTO 16004KT 5SM 29/24 A2965 RMK T02900240 IEM_DS3505
ZGGG,2002-05-31 14:00,ZGGG 311400Z AUTO 17006KT 6SM 29/23 A2968 RMK T02900230 IEM_DS3505
ZGGG,2002-05-31 15:00,ZGGG 311500Z AUTO 00000KT 8SM 28/25 A2968 RMK SLP049 T02800246 52013 IEM_DS3505
ZGGG,2002-05-31 16:00,ZGGG 311600Z AUTO 17004KT 6SM 28/24 A2968 RMK T02800240 IEM_DS3505
ZGGG,2002-05-31 17:00,ZGGG 311700Z AUTO 14004KT 4SM 27/24 A2968 RMK T02700240 IEM_DS3505
ZGGG,2002-05-31 18:00,ZGGG 311800Z AUTO 00000KT 7SM 26/24 A2965 RMK SLP044 T02640245 57005 IEM_DS3505
ZGGG,2002-05-31 19:00,ZGGG 311900Z AUTO 00000KT 3SM 27/24 A2965 RMK T02700240 IEM_DS3505
ZGGG,2002-05-31 20:00,ZGGG 312000Z AUTO 00000KT 3SM 26/24 A2965 RMK T02600240 IEM_DS3505
ZGGG,2002-05-31 21:00,ZGGG 312100Z AUTO 07002KT 2SM 26/25 A2968 RMK SLP048 T02590248 52004 IEM_DS3505
ZGGG,2002-05-31 22:00,ZGGG 312200Z AUTO 06002KT 2SM 26/24 A2968 RMK T02600240 IEM_DS3505
ZGGG,2002-05-31 23:00,ZGGG 312300Z AUTO 06002KT 1 1/2SM 26/25 A2968 RMK T02600250 IEM_DS3505
ZGGG,2002-06-01 00:00,ZGGG 010000Z AUTO 36002KT 1 1/2SM 28/25 A2968 RMK SLP054 T02810247 52006 IEM_DS3505
ZGGG,2002-06-01 01:00,ZGGG 010100Z AUTO 00000KT 2SM 28/24 A2968 RMK T02800240 IEM_DS3505
ZGGG,2002-06-01 02:00,ZGGG 010200Z AUTO 33004KT 2SM 30/24 A2968 RMK T03000240 IEM_DS3505
ZGGG,2002-06-01 03:00,ZGGG 010300Z AUTO 11006KT 6SM 32/22 A2965 RMK SLP044 T03170223 57010 IEM_DS3505
ZGGG,2002-06-01 04:00,ZGGG 010400Z AUTO 15004KT 3SM 32/22 A2965 RMK T03200220 IEM_DS3505
ZGGG,2002-06-01 05:00,ZGGG 010500Z AUTO 20004KT 3SM 32/23 A2962 RMK T03200230 IEM_DS3505
ZGGG,2002-06-01 06:00,ZGGG 010600Z AUTO 25004KT 11SM 34/22 A2959 RMK SLP026 T03350224 57018 IEM_DS3505
ZGGG,2002-06-01 07:00,ZGGG 010700Z AUTO 13004KT 3SM 33/21 A2959 RMK T03300210 IEM_DS3505
ZGGG,2002-06-01 08:00,ZGGG 010800Z AUTO 16004KT 3SM 34/21 A2959 RMK T03400210 IEM_DS3505
ZGGG,2002-06-01 09:00,ZGGG 010900Z AUTO 00000KT 10SM 33/23 A2956 RMK SLP013 T03310226 57013 IEM_DS3505
ZGGG,2002-06-01 10:00,ZGGG 011000Z AUTO 17008KT 3SM 32/22 A2956 RMK T03200220 IEM_DS3505
ZGGG,2002-06-01 11:00,ZGGG 011100Z AUTO 20010KT 3SM 30/23 A2959 RMK T03000230 IEM_DS3505
ZGGG,2002-06-01 12:00,ZGGG 011200Z AUTO 20006KT 9SM 29/24 A2962 RMK SLP032 T02900242 52019 IEM_DS3505
ZGGG,2002-06-01 13:00,ZGGG 011300Z AUTO 19010KT 4SM 28/23 A2965 RMK T02800230 IEM_DS3505
ZGGG,2002-06-01 14:00,ZGGG 011400Z AUTO 17008KT 4SM 28/23 A2965 RMK T02800230 IEM_DS3505
ZGGG,2002-06-01 15:00,ZGGG 011500Z AUTO 14006KT 8SM 28/25 A2968 RMK SLP050 T02820247 52018 IEM_DS3505
ZGGG,2002-06-01 16:00,ZGGG 011600Z AUTO 15006KT 4SM 28/24 A2968 RMK T02800240 IEM_DS3505
ZGGG,2002-06-01 17:00,ZGGG 011700Z AUTO 15004KT 3SM 28/24 A2968 RMK T02800240 IEM_DS3505
ZGGG,2002-06-01 18:00,ZGGG 011800Z AUTO 09002KT 3SM 28/24 A2965 RMK SLP039 T02760245 57011 IEM_DS3505
ZGGG,2002-06-01 19:00,ZGGG 011900Z AUTO 11006KT 2 1/2SM 27/23 A2962 RMK T02700230 IEM_DS3505
ZGGG,2002-06-01 20:00,ZGGG 012000Z AUTO 11004KT 2 1/2SM 27/23 A2962 RMK T02700230 IEM_DS3505
ZGGG,2002-06-01 21:00,ZGGG 012100Z AUTO 09002KT 1 1/4SM 26/24 A2965 RMK SLP039 T02650244 54000 IEM_DS3505
ZGGG,2002-06-01 22:00,ZGGG 012200Z AUTO 09004KT 2SM 27/24 A2965 RMK T02700240 IEM_DS3505
ZGGG,2002-06-01 23:00,ZGGG 012300Z AUTO 10002KT 1 1/2SM 26/24 A2968 RMK T02600240 IEM_DS3505
ZGGG,2002-06-02 00:00,ZGGG 020000Z AUTO 09002KT 5SM 27/24 A2968 RMK SLP054 T02670238 52015 IEM_DS3505
ZGGG,2002-06-02 01:00,ZGGG 020100Z AUTO 10008KT 2 1/2SM 28/23 A2968 RMK T02800230 IEM_DS3505
ZGGG,2002-06-02 02:00,ZGGG 020200Z AUTO 09004KT 3SM 28/23 A2971 RMK T02800230 IEM_DS3505
ZGGG,2002-06-02 03:00,ZGGG 020300Z AUTO 09004KT 7SM 29/23 A2971 RMK SLP058 T02890234 52004 IEM_DS3505
ZGGG,2002-06-02 04:00,ZGGG 020400Z AUTO 07004KT 4SM 28/23 A2968 RMK T02800230 IEM_DS3505
ZGGG,2002-06-02 05:00,ZGGG 020500Z AUTO 09002KT 29/23 A2968 RMK T02900230 IEM_DS3505
ZGGG,2002-06-02 06:00,ZGGG 020600Z AUTO 16004KT 5SM 29/23 A2965 RMK 60003 SLP046 T02940234 57012 IEM_DS3505
ZGGG,2002-06-02 07:00,ZGGG 020700Z AUTO 15006KT 1 1/4SM 24/24 A2965 RMK T02400240 IEM_DS3505
ZGGG,2002-06-02 08:00,ZGGG 020800Z AUTO 21004KT 2 1/2SM 25/25 A2965 RMK T02500250 IEM_DS3505
ZGGG,2002-06-02 09:00,ZGGG 020900Z AUTO 18004KT 4SM 26/24 A2965 RMK SLP041 T02640244 57006 IEM_DS3505
ZGGG,2002-06-02 10:00,ZGGG 021000Z AUTO 16004KT 4SM 27/24 A2965 RMK T02700240 IEM_DS3505
ZGGG,2002-06-02 11:00,ZGGG 021100Z AUTO 17004KT 4SM 27/24 A2965 RMK T02700240 IEM_DS3505
ZGGG,2002-06-02 12:00,ZGGG 021200Z AUTO 16002KT 8SM 26/24 A2968 RMK 60142 SLP051 T02630236 52010 IEM_DS3505
ZGGG,2002-06-02 13:00,ZGGG 021300Z AUTO 00000KT 6SM 26/22 A2968 RMK T02600220 IEM_DS3505
ZGGG,2002-06-02 14:00,ZGGG 021400Z AUTO 00000KT 6SM 26/22 A2968 RMK T02600220 IEM_DS3505
ZGGG,2002-06-02 15:00,ZGGG 021500Z AUTO 00000KT 8SM 24/23 A2971 RMK SLP059 T02430231 52008 IEM_DS3505
ZGGG,2002-06-02 16:00,ZGGG 021600Z AUTO 00000KT 6SM 24/24 A2971 RMK T02400240 IEM_DS3505
ZGGG,2002-06-02 17:00,ZGGG 021700Z AUTO 00000KT 4SM A2971 RMK IEM_DS3505
ZGGG,2002-06-02 18:00,ZGGG 021800Z AUTO 04002KT 6SM 24/23 A2968 RMK SLP054 T02450233 57005 IEM_DS3505
ZGGG,2002-06-02 19:00,ZGGG 021900Z AUTO 00000KT 3SM 24/24 A2968 RMK T02400240 IEM_DS3505
ZGGG,2002-06-02 20:00,ZGGG 022000Z AUTO 00000KT 2 1/2SM 24/24 A2968 RMK T02400240 IEM_DS3505
ZGGG,2002-06-02 21:00,ZGGG 022100Z AUTO 04002KT 6SM 24/22 A2968 RMK 70141 SLP051 T02440225 57003 IEM_DS3505
ZGGG,2002-06-02 22:00,ZGGG 022200Z AUTO 04004KT 3SM 24/22 A2968 RMK T02400220 IEM_DS3505
ZGGG,2002-06-02 23:00,ZGGG 022300Z AUTO 03002KT 4SM 25/22 A2971 RMK T02500220 IEM_DS3505
ZGGG,2002-06-03 00:00,ZGGG 030000Z AUTO 11004KT 8SM 27/21 A2971 RMK 70141 SLP060 T02660214 52009 IEM_DS3505
ZGGG,2002-06-03 01:00,ZGGG 030100Z AUTO 11006KT 6SM 28/21 A2974 RMK T02800210 IEM_DS3505
ZGGG,2002-06-03 02:00,ZGGG 030200Z AUTO 09006KT 6SM 29/21 A2971 RMK T02900210 IEM_DS3505
ZGGG,2002-06-03 03:00,ZGGG 030300Z AUTO 09006KT 9SM 31/22 A2971 RMK SLP063 T03060222 52003 IEM_DS3505
ZGGG,2002-06-03 04:00,ZGGG 030400Z AUTO 13006KT 7SM 31/21 A2971 RMK T03100210 IEM_DS3505
ZGGG,2002-06-03 05:00,ZGGG 030500Z AUTO 10006KT 7SM 31/21 A2968 RMK T03100210 IEM_DS3505
ZGGG,2002-06-03 06:00,ZGGG 030600Z AUTO 14006KT 11SM 32/21 A2968 RMK SLP047 T03180207 57015 IEM_DS3505
ZGGG,2002-06-03 07:00,ZGGG 030700Z AUTO 09008KT 7SM 32/21 A2965 RMK T03200210 IEM_DS3505
ZGGG,2002-06-03 08:00,ZGGG 030800Z AUTO 10006KT 7SM 32/20 A2962 RMK T03200200 IEM_DS3505
ZGGG,2002-06-03 09:00,ZGGG 030900Z AUTO 11004KT 11SM 32/21 A2962 RMK SLP031 T03190206 57016 IEM_DS3505
ZGGG,2002-06-03 10:00,ZGGG 031000Z AUTO 16006KT 3SM 31/22 A2962 RMK T03100220 IEM_DS3505
ZGGG,2002-06-03 11:00,ZGGG 031100Z AUTO 15006KT 29/22 A2965 RMK T02900220 IEM_DS3505
ZGGG,2002-06-03 12:00,ZGGG 031200Z AUTO 18004KT 10SM 28/22 A2968 RMK SLP044 T02830222 52013 IEM_DS3505
ZGGG,2002-06-03 13:00,ZGGG 031300Z AUTO 16004KT 6SM 28/22 A2968 RMK T02800220 IEM_DS3505
ZGGG,2002-06-03 14:00,ZGGG 031400Z AUTO 16006KT 6SM 28/22 A2968 RMK T02800220 IEM_DS3505
ZGGG,2002-06-03 15:00,ZGGG 031500Z AUTO 20004KT 9SM 27/22 A2971 RMK SLP060 T02720221 52016 IEM_DS3505
ZGGG,2002-06-03 16:00,ZGGG 031600Z AUTO 15006KT 6SM 27/19 A2971 RMK T02700190 IEM_DS3505
ZGGG,2002-06-03 17:00,ZGGG 031700Z AUTO 14008KT 6SM 27/19 A2971 RMK T02700190 IEM_DS3505
ZGGG,2002-06-03 18:00,ZGGG 031800Z AUTO 11002KT 8SM 26/20 A2971 RMK SLP057 T02560195 57003 IEM_DS3505
ZGGG,2002-06-03 19:00,ZGGG 031900Z AUTO 14008KT 6SM 26/19 A2968 RMK T02600190 IEM_DS3505
ZGGG,2002-06-03 20:00,ZGGG 032000Z AUTO 12004KT 6SM 26/20 A2971 RMK T02600200 IEM_DS3505
ZGGG,2002-06-03 21:00,ZGGG 032100Z AUTO 00000KT 7SM 24/21 A2971 RMK SLP056 T02440211 57001 IEM_DS3505
ZGGG,2002-06-03 22:00,ZGGG 032200Z AUTO 05004KT 4SM 24/21 A2971 RMK T02400210 IEM_DS3505
ZGGG,2002-06-03 23:00,ZGGG 032300Z AUTO 03004KT 4SM 25/21 A2971 RMK T02500210 IEM_DS3505
ZGGG,2002-06-04 00:00,ZGGG 040000Z AUTO 11004KT 10SM 27/21 A2974 RMK SLP065 T02720212 52009 IEM_DS3505
ZGGG,2002-06-04 01:00,ZGGG 040100Z AUTO 08006KT 6SM 28/20 A2974 RMK T02800200 IEM_DS3505
ZGGG,2002-06-04 02:00,ZGGG 040200Z AUTO 05006KT 6SM 29/20 A2974 RMK T02900200 IEM_DS3505
ZGGG,2002-06-04 03:00,ZGGG 040300Z AUTO 14006KT 12SM 31/21 A2971 RMK SLP062 T03080211 57003 IEM_DS3505
ZGGG,2002-06-04 04:00,ZGGG 040400Z AUTO 06008KT 7SM 32/19 A2971 RMK T03200190 IEM_DS3505
ZGGG,2002-06-04 05:00,ZGGG 040500Z AUTO 13008KT 7SM 33/18 A2968 RMK T03300180 IEM_DS3505
ZGGG,2002-06-04 06:00,ZGGG 040600Z AUTO 14008KT 11SM 33/18 A2965 RMK SLP046 T03280183 57016 IEM_DS3505
ZGGG,2002-06-04 07:00,ZGGG 040700Z AUTO 12006KT 7SM 33/18 A2965 RMK T03300180 IEM_DS3505
ZGGG,2002-06-04 08:00,ZGGG 040800Z AUTO 10004KT 6SM 33/19 A2962 RMK T03300190 IEM_DS3505
ZGGG,2002-06-04 09:00,ZGGG 040900Z AUTO 18004KT 10SM 33/21 A2962 RMK SLP034 T03300213 57012 IEM_DS3505
ZGGG,2002-06-04 11:00,ZGGG 041100Z AUTO 16008KT 5SM 31/22 A2965 RMK T03100220 IEM_DS3505
ZGGG,2002-06-04 12:00,ZGGG 041200Z AUTO 18006KT 10SM 29/23 A2968 RMK SLP049 T02920231 52015 IEM_DS3505
ZGGG,2002-06-04 13:00,ZGGG 041300Z AUTO 17008KT 6SM 29/23 A2968 RMK T02900230 IEM_DS3505
ZGGG,2002-06-04 14:00,ZGGG 041400Z AUTO 16008KT 6SM 28/22 A2971 RMK T02800220 IEM_DS3505
ZGGG,2002-06-04 15:00,ZGGG 041500Z AUTO 14008KT 11SM 28/23 A2974 RMK SLP069 T02800232 52020 IEM_DS3505
ZGGG,2002-06-04 16:00,ZGGG 041600Z AUTO 14004KT 6SM 28/22 A2971 RMK T02800220 IEM_DS3505
ZGGG,2002-06-04 17:00,ZGGG 041700Z AUTO 10002KT 6SM 28/23 A2971 RMK T02800230 IEM_DS3505
ZGGG,2002-06-04 18:00,ZGGG 041800Z AUTO 07004KT 9SM 27/23 A2971 RMK SLP056 T02660234 57013 IEM_DS3505
ZGGG,2002-06-04 19:00,ZGGG 041900Z AUTO 00000KT 6SM 26/22 A2968 RMK T02600220 IEM_DS3505
ZGGG,2002-06-04 20:00,ZGGG 042000Z AUTO 04004KT 4SM 26/23 A2968 RMK T02600230 IEM_DS3505
ZGGG,2002-06-04 21:00,ZGGG 042100Z AUTO 09004KT 8SM 26/23 A2968 RMK SLP053 T02580232 57003 IEM_DS3505
ZGGG,2002-06-04 22:00,ZGGG 042200Z AUTO 04004KT 4SM 25/23 A2971 RMK T02500230 IEM_DS3505
ZGGG,2002-06-04 23:00,ZGGG 042300Z AUTO 04004KT 4SM 26/23 A2971 RMK T02600230 IEM_DS3505
ZGGG,2002-06-05 00:00,ZGGG 050000Z AUTO 04006KT 11SM 28/23 A2974 RMK SLP068 T02830229 52015 IEM_DS3505
ZGGG,2002-06-05 01:00,ZGGG 050100Z AUTO 12006KT 7SM 29/23 A2974 RMK T02900230 IEM_DS3505
ZGGG,2002-06-05 02:00,ZGGG 050200Z AUTO 13008KT 7SM 31/22 A2974 RMK T03100220 IEM_DS3505
ZGGG,2002-06-05 03:00,ZGGG 050300Z AUTO 14006KT 12SM 31/22 A2974 RMK SLP067 T03120225 57001 IEM_DS3505
ZGGG,2002-06-05 04:00,ZGGG 050400Z AUTO 10004KT 7SM 31/22 A2971 RMK T03100220 IEM_DS3505
ZGGG,2002-06-05 05:00,ZGGG 050500Z AUTO 10008KT 7SM 33/22 A2968 RMK T03300220 IEM_DS3505
ZGGG,2002-06-05 06:00,ZGGG 050600Z AUTO 09002KT 14SM 34/22 A2965 RMK SLP043 T03360220 57024 IEM_DS3505
ZGGG,2002-06-05 07:00,ZGGG 050700Z AUTO 09006KT 7SM 33/21 A2962 RMK T03300210 IEM_DS3505
ZGGG,2002-06-05 08:00,ZGGG 050800Z AUTO 15006KT 7SM 33/22 A2962 RMK T03300220 IEM_DS3505
ZGGG,2002-06-05 09:00,ZGGG 050900Z AUTO 20006KT 11SM 32/23 A2962 RMK SLP030 T03200234 57013 IEM_DS3505
ZGGG,2002-06-05 10:00,ZGGG 051000Z AUTO 15010KT 5SM 31/22 A2962 RMK T03100220 IEM_DS3505
ZGGG,2002-06-05 11:00,ZGGG 051100Z AUTO 00000KT 8SM 31/22 A2962 RMK SLP049 T03100220 IEM_DS3505
ZGGG,2002-06-05 12:00,ZGGG 051200Z AUTO 14006KT 9SM 30/22 A2965 RMK SLP041 T02990222 52011 IEM_DS3505
ZGGG,2002-06-05 13:00,ZGGG 051300Z AUTO 15006KT 6SM 29/22 A2965 RMK T02900220 IEM_DS3505
ZGGG,2002-06-05 14:00,ZGGG 051400Z AUTO 00000KT 6SM 29/22 A2968 RMK T02900220 IEM_DS3505
ZGGG,2002-06-05 15:00,ZGGG 051500Z AUTO 14002KT 9SM 28/23 A2968 RMK SLP055 T02820227 52014 IEM_DS3505
ZGGG,2002-06-05 16:00,ZGGG 051600Z AUTO 13002KT 6SM 28/22 A2971 RMK T02800220 IEM_DS3505
ZGGG,2002-06-05 17:00,ZGGG 051700Z AUTO 06002KT 6SM 27/22 A2968 RMK T02700220 IEM_DS3505
ZGGG,2002-06-05 18:00,ZGGG 051800Z AUTO 00000KT 8SM 27/23 A2968 RMK SLP049 T02680233 57006 IEM_DS3505
ZGGG,2002-06-05 19:00,ZGGG 051900Z AUTO 03004KT 6SM 26/22 A2965 RMK T02600220 IEM_DS3505
ZGGG,2002-06-05 20:00,ZGGG 052000Z AUTO 06002KT 6SM 26/22 A2968 RMK T02600220 IEM_DS3505
ZGGG,2002-06-05 21:00,ZGGG 052100Z AUTO 36002KT 7SM 26/23 A2968 RMK SLP047 T02580226 57002 IEM_DS3505
ZGGG,2002-06-05 22:00,ZGGG 052200Z AUTO 04006KT 6SM 25/22 A2968 RMK T02500220 IEM_DS3505
ZGGG,2002-06-05 23:00,ZGGG 052300Z AUTO 05004KT 7SM 27/23 A2971 RMK T02700230 IEM_DS3505
ZGGG,2002-06-06 00:00,ZGGG 060000Z AUTO 14004KT 11SM 29/22 A2971 RMK SLP059 T02940224 52012 IEM_DS3505
ZGGG,2002-06-06 01:00,ZGGG 060100Z AUTO 07004KT 7SM 29/22 A2971 RMK T02900220 IEM_DS3505
ZGGG,2002-06-06 02:00,ZGGG 060200Z AUTO 10008KT 7SM 31/22 A2971 RMK T03100220 IEM_DS3505
ZGGG,2002-06-06 03:00,ZGGG 060300Z AUTO 11004KT 14SM 32/23 A2971 RMK SLP058 T03170226 57001 IEM_DS3505
ZGGG,2002-06-06 04:00,ZGGG 060400Z AUTO 25002KT 7SM 32/22 A2968 RMK T03200220 IEM_DS3505
ZGGG,2002-06-06 05:00,ZGGG 060500Z AUTO 10004KT 7SM 32/22 A2968 RMK T03200220 IEM_DS3505
ZGGG,2002-06-06 06:00,ZGGG 060600Z AUTO 36002KT 13SM 33/22 A2965 RMK SLP041 T03260222 57017 IEM_DS3505
ZGGG,2002-06-06 07:00,ZGGG 060700Z AUTO 09002KT 7SM 32/22 A2962 RMK T03200220 IEM_DS3505
ZGGG,2002-06-06 08:00,ZGGG 060800Z AUTO 00000KT 7SM 33/21 A2959 RMK T03300210 IEM_DS3505
ZGGG,2002-06-06 09:00,ZGGG 060900Z AUTO 14004KT 13SM 33/22 A2959 RMK SLP015 T03290217 57026 IEM_DS3505
ZGGG,2002-06-06 10:00,ZGGG 061000Z AUTO 11004KT 7SM 33/21 A2959 RMK T03300210 IEM_DS3505
ZGGG,2002-06-06 11:00,ZGGG 061100Z AUTO 08004KT 7SM 32/21 A2959 RMK T03200210 IEM_DS3505
ZGGG,2002-06-06 12:00,ZGGG 061200Z AUTO 14004KT 12SM 29/24 A2965 RMK 60003 SLP038 T02940244 52023 IEM_DS3505
ZGGG,2002-06-06 13:00,ZGGG 061300Z AUTO 17008KT 7SM 29/23 A2968 RMK T02900230 IEM_DS3505
ZGGG,2002-06-06 14:00,ZGGG 061400Z AUTO 17008KT 7SM 29/24 A2968 RMK T02900240 IEM_DS3505
ZGGG,2002-06-06 15:00,ZGGG 061500Z AUTO 16008KT 11SM 28/24 A2968 RMK SLP054 T02820239 52016 IEM_DS3505
ZGGG,2002-06-06 16:00,ZGGG 061600Z AUTO 18006KT 6SM 28/23 A2968 RMK T02800230 IEM_DS3505
ZGGG,2002-06-06 17:00,ZGGG 061700Z AUTO 14004KT 6SM 28/23 A2968 RMK T02800230 IEM_DS3505
ZGGG,2002-06-06 18:00,ZGGG 061800Z AUTO 18004KT 10SM 28/24 A2968 RMK SLP047 T02760236 57007 IEM_DS3505
ZGGG,2002-06-06 19:00,ZGGG 061900Z AUTO 17004KT 6SM 28/23 A2968 RMK T02800230 IEM_DS3505
ZGGG,2002-06-06 20:00,ZGGG 062000Z AUTO 15004KT 6SM 27/22 A2965 RMK T02700220 IEM_DS3505
ZGGG,2002-06-06 21:00,ZGGG 062100Z AUTO 18004KT 8SM 27/23 A2968 RMK 70003 SLP051 T02740230 52004 IEM_DS3505
ZGGG,2002-06-06 22:00,ZGGG 062200Z AUTO 13004KT 4SM 27/23 A2968 RMK T02700230 IEM_DS3505
ZGGG,2002-06-06 23:00,ZGGG 062300Z AUTO 13002KT 4SM 27/23 A2971 RMK T02700230 IEM_DS3505
ZGGG,2002-06-07 00:00,ZGGG 070000Z AUTO 09002KT 9SM 28/24 A2971 RMK 70003 SLP061 T02850245 52010 IEM_DS3505
ZGGG,2002-06-07 01:00,ZGGG 070100Z AUTO 20006KT 29/23 A2971 RMK T02900230 IEM_DS3505
ZGGG,2002-06-07 02:00,ZGGG 070200Z AUTO 20004KT 29/23 A2971 RMK T02900230 IEM_DS3505
ZGGG,2002-06-07 03:00,ZGGG 070300Z AUTO 18004KT 8SM 31/23 A2971 RMK SLP063 T03110234 52002 IEM_DS3505
ZGGG,2002-06-07 04:00,ZGGG 070400Z AUTO 26004KT 5SM 32/22 A2971 RMK T03200220 IEM_DS3505
ZGGG,2002-06-07 05:00,ZGGG 070500Z AUTO 10004KT 32/23 A2968 RMK T03200230 IEM_DS3505
ZGGG,2002-06-07 06:00,ZGGG 070600Z AUTO 18002KT 9SM 33/22 A2965 RMK SLP041 T03330225 57022 IEM_DS3505
ZGGG,2002-06-07 07:00,ZGGG 070700Z AUTO 20004KT 33/23 A2962 RMK T03300230 IEM_DS3505
ZGGG,2002-06-07 08:00,ZGGG 070800Z AUTO 17006KT 33/23 A2959 RMK T03300230 IEM_DS3505
ZGGG,2002-06-07 09:00,ZGGG 070900Z AUTO 18004KT 7SM 33/23 A2959 RMK SLP020 T03300227 57021 IEM_DS3505
ZGGG,2002-06-07 10:00,ZGGG 071000Z AUTO 17006KT 33/23 A2959 RMK T03300230 IEM_DS3505
ZGGG,2002-06-07 11:00,ZGGG 071100Z AUTO 16006KT 32/22 A2959 RMK T03200220 IEM_DS3505
ZGGG,2002-06-07 12:00,ZGGG 071200Z AUTO 14004KT 9SM 31/24 A2965 RMK SLP040 T03060242 52020 IEM_DS3505
ZGGG,2002-06-07 13:00,ZGGG 071300Z AUTO 21012KT 6SM 29/23 A2968 RMK T02900230 IEM_DS3505
ZGGG,2002-06-07 14:00,ZGGG 071400Z AUTO 16008KT 7SM 29/23 A2968 RMK T02900230 IEM_DS3505
ZGGG,2002-06-07 15:00,ZGGG 071500Z AUTO 16008KT 9SM 29/22 A2971 RMK SLP062 T02860225 52022 IEM_DS3505
ZGGG,2002-06-07 16:00,ZGGG 071600Z AUTO 16006KT 6SM 28/23 A2971 RMK T02800230 IEM_DS3505
ZGGG,2002-06-07 17:00,ZGGG 071700Z AUTO 17006KT 6SM 28/23 A2968 RMK T02800230 IEM_DS3505
ZGGG,2002-06-07 18:00,ZGGG 071800Z AUTO 14006KT 9SM 28/24 A2968 RMK SLP053 T02780235 57009 IEM_DS3505
ZGGG,2002-06-07 19:00,ZGGG 071900Z AUTO 16004KT 7SM 28/23 A2968 RMK T02800230 IEM_DS3505
ZGGG,2002-06-07 20:00,ZGGG 072000Z AUTO 16004KT 5SM 27/23 A2968 RMK T02700230 IEM_DS3505
ZGGG,2002-06-07 21:00,ZGGG 072100Z AUTO 16004KT 8SM 27/24 A2968 RMK SLP047 T02740240 57006 IEM_DS3505
ZGGG,2002-06-07 22:00,ZGGG 072200Z AUTO 15002KT 4SM 27/23 A2968 RMK T02700230 IEM_DS3505
ZGGG,2002-06-07 23:00,ZGGG 072300Z AUTO 12004KT 4SM 28/23 A2971 RMK T02800230 IEM_DS3505
ZGGG,2002-06-08 00:00,ZGGG 080000Z AUTO 16002KT 9SM 29/24 A2971 RMK SLP061 T02900239 52014 IEM_DS3505
ZGGG,2002-06-08 01:00,ZGGG 080100Z AUTO 21004KT 7SM 29/23 A2971 RMK T02900230 IEM_DS3505
ZGGG,2002-06-08 02:00,ZGGG 080200Z AUTO 16004KT 7SM 31/23 A2971 RMK T03100230 IEM_DS3505
ZGGG,2002-06-08 03:00,ZGGG 080300Z AUTO 14002KT 11SM 31/24 A2971 RMK SLP063 T03120235 52002 IEM_DS3505
ZGGG,2002-06-08 04:00,ZGGG 080400Z AUTO 12006KT 7SM 32/23 A2971 RMK T03200230 IEM_DS3505
ZGGG,2002-06-08 05:00,ZGGG 080500Z AUTO 16006KT 4SM 30/24 A2968 RMK T03000240 IEM_DS3505
ZGGG,2002-06-08 06:00,ZGGG 080600Z AUTO 22004KT 12SM 33/22 A2965 RMK SLP041 T03330222 57022 IEM_DS3505
ZGGG,2002-06-08 07:00,ZGGG 080700Z AUTO 20010KT 7SM 34/22 A2962 RMK T03400220 IEM_DS3505
ZGGG,2002-06-08 08:00,ZGGG 080800Z AUTO 19012KT 7SM 34/21 A2959 RMK T03400210 IEM_DS3505
ZGGG,2002-06-08 09:00,ZGGG 080900Z AUTO 18006KT 11SM 33/22 A2959 RMK SLP027 T03300220 57014 IEM_DS3505
ZGGG,2002-06-08 10:00,ZGGG 081000Z AUTO 16010KT 7SM 33/22 A2962 RMK T03300220 IEM_DS3505
ZGGG,2002-06-08 11:00,ZGGG 081100Z AUTO 16006KT 7SM 31/23 A2965 RMK T03100230 IEM_DS3505
ZGGG,2002-06-08 12:00,ZGGG 081200Z AUTO 16006KT 10SM 30/24 A2968 RMK SLP052 T02980244 52025 IEM_DS3505
ZGGG,2002-06-08 13:00,ZGGG 081300Z AUTO 17006KT 7SM 29/22 A2971 RMK T02900220 IEM_DS3505
ZGGG,2002-06-08 14:00,ZGGG 081400Z AUTO 18008KT 7SM 29/22 A2974 RMK T02900220 IEM_DS3505
ZGGG,2002-06-08 15:00,ZGGG 081500Z AUTO 16006KT 12SM 28/24 A2971 RMK SLP066 T02820245 52014 IEM_DS3505
ZGGG,2002-06-08 16:00,ZGGG 081600Z AUTO 13004KT 6SM 28/23 A2971 RMK T02800230 IEM_DS3505
ZGGG,2002-06-08 17:00,ZGGG 081700Z AUTO 15008KT 7SM 28/23 A2971 RMK T02800230 IEM_DS3505
ZGGG,2002-06-08 18:00,ZGGG 081800Z AUTO 18004KT 9SM 28/24 A2968 RMK SLP052 T02760245 57014 IEM_DS3505
ZGGG,2002-06-08 19:00,ZGGG 081900Z AUTO 16008KT 7SM 28/24 A2968 RMK T02800240 IEM_DS3505
ZGGG,2002-06-08 20:00,ZGGG 082000Z AUTO 14006KT 7SM 27/23 A2968 RMK T02700230 IEM_DS3505
ZGGG,2002-06-08 21:00,ZGGG 082100Z AUTO 09002KT 9SM 27/24 A2968 RMK SLP055 T02680239 52003 IEM_DS3505
ZGGG,2002-06-08 22:00,ZGGG 082200Z AUTO 11006KT 3SM 26/23 A2971 RMK T02600230 IEM_DS3505
ZGGG,2002-06-09 00:00,ZGGG 090000Z AUTO 14004KT 7SM 28/25 A2971 RMK SLP068 T02810247 52013 IEM_DS3505
ZGGG,2002-06-09 01:00,ZGGG 090100Z AUTO 14006KT 29/23 A2974 RMK T02900230 IEM_DS3505
ZGGG,2002-06-09 02:00,ZGGG 090200Z AUTO 15008KT 7SM 30/23 A2974 RMK T03000230 IEM_DS3505
ZGGG,2002-06-09 03:00,ZGGG 090300Z AUTO 16004KT 8SM 30/24 A2971 RMK SLP065 T03010237 57003 IEM_DS3505
ZGGG,2002-06-09 04:00,ZGGG 090400Z AUTO 20008KT 2SM 26/24 A2971 RMK T02600240 IEM_DS3505
ZGGG,2002-06-09 05:00,ZGGG 090500Z AUTO 17008KT 5SM 26/26 A2971 RMK T02600260 IEM_DS3505
ZGGG,2002-06-09 06:00,ZGGG 090600Z AUTO 18006KT 11SM 28/24 A2968 RMK 60000 SLP056 T02830242 57009 IEM_DS3505
ZGGG,2002-06-09 07:00,ZGGG 090700Z AUTO 13004KT 7SM 28/24 A2968 RMK T02800240 IEM_DS3505
ZGGG,2002-06-09 08:00,ZGGG 090800Z AUTO 15008KT 7SM 29/25 A2965 RMK T02900250 IEM_DS3505
ZGGG,2002-06-09 09:00,ZGGG 090900Z AUTO 20006KT 13SM 29/24 A2965 RMK SLP040 T02900242 57016 IEM_DS3505
ZGGG,2002-06-09 10:00,ZGGG 091000Z AUTO 17006KT 7SM 28/24 A2965 RMK T02800240 IEM_DS3505
ZGGG,2002-06-09 11:00,ZGGG 091100Z AUTO 20004KT 7SM 28/24 A2965 RMK T02800240 IEM_DS3505
ZGGG,2002-06-09 12:00,ZGGG 091200Z AUTO 16004KT 9SM 26/23 A2968 RMK SLP057 T02580233 52016 IEM_DS3505
ZGGG,2002-06-09 13:00,ZGGG 091300Z AUTO 14008KT 3SM 26/24 A2971 RMK T02600240 IEM_DS3505
ZGGG,2002-06-09 14:00,ZGGG 091400Z AUTO 18006KT 3SM 26/24 A2974 RMK T02600240 IEM_DS3505
ZGGG,2002-06-09 15:00,ZGGG 091500Z AUTO 16004KT 9SM 26/23 A2974 RMK SLP069 T02580229 52013 IEM_DS3505
ZGGG,2002-06-09 16:00,ZGGG 091600Z AUTO 00000KT 6SM 26/23 A2971 RMK T02600230 IEM_DS3505
ZGGG,2002-06-09 17:00,ZGGG 091700Z AUTO 06004KT 7SM 26/23 A2968 RMK T02600230 IEM_DS3505
ZGGG,2002-06-09 18:00,ZGGG 091800Z AUTO 00000KT 7SM 25/24 A2968 RMK SLP051 T02520236 57019 IEM_DS3505
ZGGG,2002-06-09 19:00,ZGGG 091900Z AUTO 21006KT 5SM 26/24 A2968 RMK T02600240 IEM_DS3505
ZGGG,2002-06-09 20:00,ZGGG 092000Z AUTO 09004KT 4SM 26/24 A2968 RMK T02600240 IEM_DS3505
ZGGG,2002-06-09 21:00,ZGGG 092100Z AUTO 07002KT 7SM 25/24 A2968 RMK 70002 SLP049 T02520238 57002 IEM_DS3505
ZGGG,2002-06-09 22:00,ZGGG 092200Z AUTO 10004KT 2 1/2SM 25/24 A2968 RMK T02500240 IEM_DS3505
ZGGG,2002-06-09 23:00,ZGGG 092300Z AUTO 08004KT 2 1/2SM 24/24 A2971 RMK T02400240 IEM_DS3505
ZGGG,2002-06-10 00:00,ZGGG 100000Z AUTO 14002KT 5SM 26/24 A2971 RMK 60043 SLP060 T02560245 52011 IEM_DS3505
ZGGG,2002-06-10 01:00,ZGGG 100100Z AUTO 12004KT 1 1/2SM 26/25 A2971 RMK T02600250 IEM_DS3505
ZGGG,2002-06-10 02:00,ZGGG 100200Z AUTO 00000KT 1 1/4SM 27/25 A2974 RMK T02700250 IEM_DS3505
ZGGG,2002-06-10 03:00,ZGGG 100300Z AUTO 14006KT 6SM 28/25 A2974 RMK SLP067 T02830248 52007 IEM_DS3505
ZGGG,2002-06-10 04:00,ZGGG 100400Z AUTO 15006KT 4SM 29/24 A2971 RMK T02900240 IEM_DS3505
ZGGG,2002-06-10 05:00,ZGGG 100500Z AUTO 18010KT 31/24 A2968 RMK T03100240 IEM_DS3505
ZGGG,2002-06-10 06:00,ZGGG 100600Z AUTO 14004KT 8SM 31/25 A2965 RMK SLP043 T03060248 57023 IEM_DS3505
ZGGG,2002-06-10 07:00,ZGGG 100700Z AUTO 17008KT 31/24 A2962 RMK T03100240 IEM_DS3505
ZGGG,2002-06-10 08:00,ZGGG 100800Z AUTO 19008KT 7SM 31/24 A2962 RMK T03100240 IEM_DS3505
ZGGG,2002-06-10 09:00,ZGGG 100900Z AUTO 00000KT 8SM 28/26 A2965 RMK SLP033 T02790255 57011 IEM_DS3505
ZGGG,2002-06-10 10:00,ZGGG 101000Z AUTO 26006G16KT 1/2SM 25/25 A2965 RMK T02500250 IEM_DS3505
ZGGG,2002-06-10 11:00,ZGGG 101100Z AUTO 17004KT 7SM 25/25 A2968 RMK T02500250 IEM_DS3505
ZGGG,2002-06-10 12:00,ZGGG 101200Z AUTO 04004KT 10SM 25/24 A2968 RMK 60087 SLP050 T02540245 52017 IEM_DS3505
ZGGG,2002-06-10 13:00,ZGGG 101300Z AUTO 00000KT 7SM 26/26 A2971 RMK T02600260 IEM_DS3505
ZGGG,2002-06-10 14:00,ZGGG 101400Z AUTO 11004KT 7SM 26/26 A2971 RMK T02600260 IEM_DS3505
ZGGG,2002-06-10 15:00,ZGGG 101500Z AUTO 00000KT 7SM 26/25 A2974 RMK SLP067 T02600252 52017 IEM_DS3505
ZGGG,2002-06-10 16:00,ZGGG 101600Z AUTO 00000KT 7SM 27/26 A2974 RMK T02700260 IEM_DS3505
ZGGG,2002-06-10 17:00,ZGGG 101700Z AUTO 05004KT 4SM 26/26 A2971 RMK T02600260 IEM_DS3505
ZGGG,2002-06-10 18:00,ZGGG 101800Z AUTO 14004KT 5SM 26/25 A2971 RMK 60000 SLP056 T02600252 57010 IEM_DS3505
ZGGG,2002-06-10 20:00,ZGGG 102000Z AUTO 16002KT 2SM 27/26 A2968 RMK T02700260 IEM_DS3505
ZGGG,2002-06-10 21:00,ZGGG 102100Z AUTO 07002KT 3SM 26/25 A2971 RMK 70128 SLP057 T02580249 54000 IEM_DS3505
ZGGG,2002-06-10 22:00,ZGGG 102200Z AUTO 15002KT 2SM 27/26 A2971 RMK T02700260 IEM_DS3505
ZGGG,2002-06-10 23:00,ZGGG 102300Z AUTO 00000KT 2SM 27/27 A2974 RMK T02700270 IEM_DS3505
ZGGG,2002-06-11 00:00,ZGGG 110000Z AUTO 00000KT 4SM 27/26 A2974 RMK 60003 SLP068 T02690259 52011 IEM_DS3505
ZGGG,2002-06-11 01:00,ZGGG 110100Z AUTO 00000KT 2 1/2SM 27/26 A2974 RMK T02700260 IEM_DS3505
ZGGG,2002-06-11 02:00,ZGGG 110200Z AUTO 22002KT 2 1/2SM 27/26 A2974 RMK T02700260 IEM_DS3505
ZGGG,2002-06-11 03:00,ZGGG 110300Z AUTO 00000KT 2 1/2SM 27/25 A2974 RMK SLP069 T02690253 52001 IEM_DS3505
ZGGG,2002-06-11 04:00,ZGGG 110400Z AUTO 35004KT 2 1/2SM 27/26 A2974 RMK T02700260 IEM_DS3505
ZGGG,2002-06-11 05:00,ZGGG 110500Z AUTO 00000KT 2 1/2SM 29/26 A2971 RMK T02900260 IEM_DS3505
ZGGG,2002-06-11 06:00,ZGGG 110600Z AUTO 14006KT 6SM 29/25 A2971 RMK 60035 SLP061 T02880253 57008 IEM_DS3505
ZGGG,2002-06-11 07:00,ZGGG 110700Z AUTO 08004KT 4SM 24/24 A2971 RMK T02400240 IEM_DS3505
ZGGG,2002-06-11 08:00,ZGGG 110800Z AUTO 19002KT 3SM 25/25 A2971 RMK T02500250 IEM_DS3505
ZGGG,2002-06-11 09:00,ZGGG 110900Z AUTO 00000KT 6SM 25/24 A2968 RMK SLP055 T02480239 57006 IEM_DS3505
ZGGG,2002-06-11 10:00,ZGGG 111000Z AUTO 14002KT 4SM 26/26 A2968 RMK T02600260 IEM_DS3505
ZGGG,2002-06-11 12:00,ZGGG 111200Z AUTO 25002KT 3SM 25/24 RMK 60150 SLP071 T02520245 52016 IEM_DS3505
ZGGG,2002-06-11 12:30,ZGGG 111230Z AUTO 16006KT 4SM 25/24 A2974 RMK T02500240 IEM_DS3505
ZGGG,2002-06-11 13:00,ZGGG 111300Z AUTO 16004KT 4SM 26/25 A2974 RMK T02600250 IEM_DS3505
ZGGG,2002-06-11 14:00,ZGGG 111400Z AUTO 00000KT 7SM 25/24 A2974 RMK T02500240 IEM_DS3505
ZGGG,2002-06-11 15:00,ZGGG 111500Z AUTO 0SM A2974 RMK 70005 IEM_DS3505
ZGGG,2002-06-11 16:00,ZGGG 111600Z AUTO 03004KT 7SM 25/25 A2974 RMK T02500250 IEM_DS3505
ZGGG,2002-06-11 17:00,ZGGG 111700Z AUTO 20004KT 7SM 25/24 A2977 RMK T02500240 IEM_DS3505
ZGGG,2002-06-11 18:00,ZGGG 111800Z AUTO 00000KT 6SM 25/24 A2974 RMK 60016 SLP072 T02490242 57004 IEM_DS3505
ZGGG,2002-06-11 19:00,ZGGG 111900Z AUTO 16002KT 2 1/2SM 25/24 A2974 RMK T02500240 IEM_DS3505
ZGGG,2002-06-11 20:00,ZGGG 112000Z AUTO 00000KT 2 1/2SM 25/24 A2974 RMK T02500240 IEM_DS3505
ZGGG,2002-06-11 21:00,ZGGG 112100Z AUTO 00000KT 1SM 25/24 A2974 RMK 70199 SLP070 T02470241 57002 IEM_DS3505
ZGGG,2002-06-11 22:00,ZGGG 112200Z AUTO 15002KT 2SM 25/25 A2974 RMK T02500250 IEM_DS3505
ZGGG,2002-06-12 00:00,ZGGG 120000Z AUTO 00000KT 1 1/4SM 26/25 A2977 RMK 60002 SLP083 T02560247 52013 IEM_DS3505
ZGGG,2002-06-12 01:00,ZGGG 120100Z AUTO 16004KT 2SM 27/26 A2977 RMK T02700260 IEM_DS3505
ZGGG,2002-06-12 02:00,ZGGG 120200Z AUTO 17006KT 3SM 27/24 A2980 RMK T02700240 IEM_DS3505
ZGGG,2002-06-12 03:00,ZGGG 120300Z AUTO 16002KT 7SM 27/25 A2977 RMK SLP084 T02740253 52001 IEM_DS3505
ZGGG,2002-06-12 04:00,ZGGG 120400Z AUTO 21006KT 5SM 28/25 A2977 RMK T02800250 IEM_DS3505
ZGGG,2002-06-12 05:00,ZGGG 120500Z AUTO 19006KT 4SM 29/24 A2977 RMK T02900240 IEM_DS3505
ZGGG,2002-06-12 06:00,ZGGG 120600Z AUTO 18002KT 7SM 29/25 A2977 RMK 60001 SLP079 T02930249 57005 IEM_DS3505
ZGGG,2002-06-12 09:00,ZGGG 120900Z AUTO 34004KT 7SM 29/25 A2974 RMK SLP065 T02930252 57014 IEM_DS3505
ZGGG,2002-06-12 11:00,ZGGG 121100Z AUTO 00000KT 4SM 26/25 A2974 RMK T02600250 IEM_DS3505
ZGGG,2002-06-12 12:00,ZGGG 121200Z AUTO 00000KT 10SM 25/24 A2977 RMK 60039 SLP081 T02540245 52016 IEM_DS3505
ZGGG,2002-06-12 13:00,ZGGG 121300Z AUTO 28004KT 7SM 26/25 A2977 RMK T02600250 IEM_DS3505
ZGGG,2002-06-12 14:00,ZGGG 121400Z AUTO 02006KT 2 1/2SM 26/26 A2983 RMK T02600260 IEM_DS3505
ZGGG,2002-06-12 15:00,ZGGG 121500Z AUTO 04002KT 7SM 24/24 A2983 RMK SLP095 T02450238 52014 IEM_DS3505
ZGGG,2002-06-12 16:00,ZGGG 121600Z AUTO 03006KT 2 1/2SM 25/25 A2980 RMK T02500250 IEM_DS3505
ZGGG,2002-06-12 17:00,ZGGG 121700Z AUTO 05002KT 3SM 24/24 A2980 RMK T02400240 IEM_DS3505
ZGGG,2002-06-12 18:00,ZGGG 121800Z AUTO 16002KT 7SM 24/23 A2977 RMK 60094 SLP083 T02400234 57012 IEM_DS3505
ZGGG,2002-06-12 19:00,ZGGG 121900Z AUTO 20004KT 7SM 24/24 A2977 RMK T02400240 IEM_DS3505
ZGGG,2002-06-12 20:00,ZGGG 122000Z AUTO 00000KT 7SM 24/24 A2977 RMK T02400240 IEM_DS3505
ZGGG,2002-06-12 21:00,ZGGG 122100Z AUTO 00000KT 3SM 24/23 A2977 RMK 70138 SLP076 T02390232 57007 IEM_DS3505
ZGGG,2002-06-12 22:00,ZGGG 122200Z AUTO 23004KT 2 1/2SM 24/24 A2977 RMK T02400240 IEM_DS3505
ZGGG,2002-06-12 23:00,ZGGG 122300Z AUTO 14002KT 1 1/2SM 25/24 A2974 RMK T02500240 IEM_DS3505
ZGGG,2002-06-13 00:00,ZGGG 130000Z AUTO 11002KT 6SM 25/24 A2977 RMK 60002 SLP081 T02490236 52005 IEM_DS3505
ZGGG,2002-06-13 01:00,ZGGG 130100Z AUTO 20004KT 1 1/4SM 25/24 A2977 RMK T02500240 IEM_DS3505
ZGGG,2002-06-13 02:00,ZGGG 130200Z AUTO 01002KT 1 1/2SM 27/26 A2977 RMK T02700260 IEM_DS3505
ZGGG,2002-06-13 03:00,ZGGG 130300Z AUTO 04002KT 4SM 29/26 A2977 RMK SLP077 T02890260 57004 IEM_DS3505
ZGGG,2002-06-13 04:00,ZGGG 130400Z AUTO 19004KT 1 1/2SM 31/26 A2974 RMK T03100260 IEM_DS3505
ZGGG,2002-06-13 05:00,ZGGG 130500Z AUTO 21010KT 7SM 31/24 A2974 RMK T03100240 IEM_DS3505
ZGGG,2002-06-13 06:00,ZGGG 130600Z AUTO 18006KT 11SM 31/25 A2974 RMK 60003 SLP062 T03090252 57015 IEM_DS3505
ZGGG,2002-06-13 07:00,ZGGG 130700Z AUTO 00000KT 7SM 29/26 A2971 RMK T02900260 IEM_DS3505
ZGGG,2002-06-13 08:00,ZGGG 130800Z AUTO 36008KT 4SM 24/23 A2971 RMK T02400230 IEM_DS3505
ZGGG,2002-06-13 09:00,ZGGG 130900Z AUTO 09002KT 10SM 26/26 A2971 RMK SLP062 T02640256 54000 IEM_DS3505
ZGGG,2002-06-13 10:00,ZGGG 131000Z AUTO 15002KT 7SM 26/24 A2971 RMK T02600240 IEM_DS3505
ZGGG,2002-06-13 11:00,ZGGG 131100Z AUTO 15004KT 4SM 27/26 A2971 RMK T02700260 IEM_DS3505
ZGGG,2002-06-13 12:00,ZGGG 131200Z AUTO 00000KT 10SM 25/24 A2971 RMK 60142 SLP066 T02540245 52004 IEM_DS3505
ZGGG,2002-06-13 13:00,ZGGG 131300Z AUTO 00000KT 4SM 27/26 A2974 RMK T02700260 IEM_DS3505
ZGGG,2002-06-13 14:00,ZGGG 131400Z AUTO 16004KT 4SM 27/26 A2977 RMK T02700260 IEM_DS3505
ZGGG,2002-06-13 15:00,ZGGG 131500Z AUTO 00000KT 9SM 26/26 A2977 RMK SLP084 T02610257 52018 IEM_DS3505
ZGGG,2002-06-13 16:00,ZGGG 131600Z AUTO 17004KT 4SM 27/26 A2977 RMK T02700260 IEM_DS3505
ZGGG,2002-06-13 17:00,ZGGG 131700Z AUTO 16004KT 4SM 27/26 A2974 RMK T02700260 IEM_DS3505
ZGGG,2002-06-13 18:00,ZGGG 131800Z AUTO 11002KT 8SM 26/25 A2974 RMK SLP068 T02610253 57015 IEM_DS3505
ZGGG,2002-06-13 19:00,ZGGG 131900Z AUTO 17004KT 4SM 27/26 A2974 RMK T02700260 IEM_DS3505
ZGGG,2002-06-13 20:00,ZGGG 132000Z AUTO 16004KT 7SM 27/26 A2974 RMK T02700260 IEM_DS3505
ZGGG,2002-06-13 21:00,ZGGG 132100Z AUTO 00000KT 4SM 26/25 A2974 RMK 70143 SLP072 T02560250 52003 IEM_DS3505
ZGGG,2002-06-13 22:00,ZGGG 132200Z AUTO 16004KT 7SM 26/26 A2974 RMK T02600260 IEM_DS3505
ZGGG,2002-06-13 23:00,ZGGG 132300Z AUTO 16004KT 7SM 27/26 A2977 RMK T02700260 IEM_DS3505
ZGGG,2002-06-14 04:00,ZGGG 140400Z AUTO 18010KT 7SM 32/24 A2974 RMK T03200240 IEM_DS3505
ZGGG,2002-06-14 05:00,ZGGG 140500Z AUTO 19010KT 7SM 32/24 A2971 RMK T03200240 IEM_DS3505
ZGGG,2002-06-14 06:00,ZGGG 140600Z AUTO 22006KT 14SM 32/25 A2971 RMK SLP057 T03200247 57018 IEM_DS3505
ZGGG,2002-06-14 07:00,ZGGG 140700Z AUTO 17008KT 7SM 32/24 A2968 RMK T03200240 IEM_DS3505
ZGGG,2002-06-14 08:00,ZGGG 140800Z AUTO 17010KT 7SM 32/24 A2965 RMK T03200240 IEM_DS3505
ZGGG,2002-06-14 09:00,ZGGG 140900Z AUTO 18006KT 14SM 31/23 A2965 RMK SLP042 T03140234 57015 IEM_DS3505
ZGGG,2002-06-14 10:00,ZGGG 141000Z AUTO 17012KT 7SM 31/23 A2965 RMK T03100230 IEM_DS3505
ZGGG,2002-06-14 11:00,ZGGG 141100Z AUTO 18010KT 7SM 30/23 A2968 RMK T03000230 IEM_DS3505
ZGGG,2002-06-14 12:00,ZGGG 141200Z AUTO 20004KT 14SM 29/24 A2968 RMK 60003 SLP054 T02930236 52012 IEM_DS3505
ZGGG,2002-06-14 14:00,ZGGG 141400Z AUTO 17008KT 7SM 28/23 A2971 RMK T02800230 IEM_DS3505
ZGGG,2002-06-14 15:00,ZGGG 141500Z AUTO 18006KT 12SM 28/24 A2974 RMK SLP067 T02790243 52013 IEM_DS3505
ZGGG,2002-06-14 16:00,ZGGG 141600Z AUTO 17006KT 7SM 28/24 A2974 RMK T02800240 IEM_DS3505
ZGGG,2002-06-14 17:00,ZGGG 141700Z AUTO 20010KT 6SM 28/24 A2971 RMK T02800240 IEM_DS3505
ZGGG,2002-06-14 18:00,ZGGG 141800Z AUTO 18004KT 9SM 27/25 A2971 RMK SLP059 T02740247 57008 IEM_DS3505
ZGGG,2002-06-14 19:00,ZGGG 141900Z AUTO 17004KT 6SM 27/24 A2971 RMK T02700240 IEM_DS3505
ZGGG,2002-06-14 20:00,ZGGG 142000Z AUTO 18004KT 6SM 27/24 A2968 RMK T02700240 IEM_DS3505
ZGGG,2002-06-14 21:00,ZGGG 142100Z AUTO 00000KT 10SM 27/25 A2971 RMK 70003 SLP059 T02710250 54000 IEM_DS3505
ZGGG,2002-06-14 22:00,ZGGG 142200Z AUTO 00000KT 4SM 27/24 A2971 RMK T02700240 IEM_DS3505
ZGGG,2002-06-14 23:00,ZGGG 142300Z AUTO 00000KT 4SM 28/25 A2974 RMK T02800250 IEM_DS3505
ZGGG,2002-06-15 00:00,ZGGG 150000Z AUTO 14004KT 7SM 29/26 A2974 RMK 70003 SLP071 T02860255 52012 IEM_DS3505
ZGGG,2002-06-15 01:00,ZGGG 150100Z AUTO 20008KT 7SM 29/24 A2974 RMK T02900240 IEM_DS3505
ZGGG,2002-06-15 02:00,ZGGG 150200Z AUTO 20010KT 7SM 31/24 A2974 RMK T03100240 IEM_DS3505
ZGGG,2002-06-15 03:00,ZGGG 150300Z AUTO 18006KT 11SM 32/24 A2971 RMK SLP065 T03180245 57006 IEM_DS3505
ZGGG,2002-06-15 04:00,ZGGG 150400Z AUTO 22012KT 7SM 31/24 A2971 RMK T03100240 IEM_DS3505
ZGGG,2002-06-15 05:00,ZGGG 150500Z AUTO 23012KT 7SM 31/23 A2971 RMK T03100230 IEM_DS3505
ZGGG,2002-06-15 06:00,ZGGG 150600Z AUTO 22004KT 15SM 31/24 A2971 RMK SLP056 T03100239 57009 IEM_DS3505
ZGGG,2002-06-15 07:00,ZGGG 150700Z AUTO 18010KT 6SM 31/23 A2968 RMK T03100230 IEM_DS3505
ZGGG,2002-06-15 08:00,ZGGG 150800Z AUTO 17008KT 7SM 31/23 A2968 RMK T03100230 IEM_DS3505
ZGGG,2002-06-15 09:00,ZGGG 150900Z AUTO 14008KT 14SM 31/24 A2965 RMK SLP044 T03080243 57012 IEM_DS3505
ZGGG,2002-06-15 10:00,ZGGG 151000Z AUTO 17008KT 7SM 31/24 A2968 RMK T03100240 IEM_DS3505
ZGGG,2002-06-15 11:00,ZGGG 151100Z AUTO 17008KT 7SM 31/24 A2968 RMK T03100240 IEM_DS3505
ZGGG,2002-06-15 12:00,ZGGG 151200Z AUTO 14004KT 13SM 30/24 A2971 RMK SLP060 T03000240 52016 IEM_DS3505
ZGGG,2002-06-15 13:00,ZGGG 151300Z AUTO 16010KT 7SM 29/24 A2971 RMK T02900240 IEM_DS3505
ZGGG,2002-06-15 14:00,ZGGG 151400Z AUTO 17008KT 7SM 29/24 A2971 RMK T02900240 IEM_DS3505
ZGGG,2002-06-15 15:00,ZGGG 151500Z AUTO 16006KT 11SM 28/25 A2971 RMK SLP066 T02830251 52006 IEM_DS3505
ZGGG,2002-06-15 16:00,ZGGG 151600Z AUTO 16008KT 7SM 28/25 A2974 RMK T02800250 IEM_DS3505
ZGGG,2002-06-15 18:00,ZGGG 151800Z AUTO 17006KT 7SM 28/25 A2971 RMK T02800250 IEM_DS3505
ZGGG,2002-06-15 20:00,ZGGG 152000Z AUTO 17006KT 7SM 28/24 A2971 RMK T02800240 IEM_DS3505
ZGGG,2002-06-15 21:00,ZGGG 152100Z AUTO 16002KT 9SM 27/25 A2971 RMK SLP062 T02740251 52003 IEM_DS3505
ZGGG,2002-06-15 22:00,ZGGG 152200Z AUTO 17006KT 7SM 28/25 A2971 RMK T02800250 IEM_DS3505
ZGGG,2002-06-15 23:00,ZGGG 152300Z AUTO 16004KT 7SM 28/24 A2974 RMK T02800240 IEM_DS3505
ZGGG,2002-06-16 00:00,ZGGG 160000Z AUTO 18004KT 11SM 28/25 A2974 RMK SLP068 T02850253 52006 IEM_DS3505
ZGGG,2002-06-16 01:00,ZGGG 160100Z AUTO 19006KT 7SM 29/24 A2974 RMK T02900240 IEM_DS3505
ZGGG,2002-06-16 02:00,ZGGG 160200Z AUTO 21010KT 7SM 29/24 A2974 RMK T02900240 IEM_DS3505
ZGGG,2002-06-16 03:00,ZGGG 160300Z AUTO 16004KT 12SM 30/24 A2974 RMK SLP071 T03020242 52003 IEM_DS3505
ZGGG,2002-06-16 04:00,ZGGG 160400Z AUTO 20010KT 7SM 31/23 A2974 RMK T03100230 IEM_DS3505
ZGGG,2002-06-16 05:00,ZGGG 160500Z AUTO 21010KT 7SM 32/23 A2971 RMK T03200230 IEM_DS3505
ZGGG,2002-06-16 06:00,ZGGG 160600Z AUTO 22006KT 14SM 32/23 A2968 RMK SLP055 T03220233 57016 IEM_DS3505
ZGGG,2002-06-16 07:00,ZGGG 160700Z AUTO 20010KT 7SM 32/23 A2968 RMK T03200230 IEM_DS3505
ZGGG,2002-06-16 08:00,ZGGG 160800Z AUTO 16006KT 7SM 32/23 A2965 RMK T03200230 IEM_DS3505
ZGGG,2002-06-16 09:00,ZGGG 160900Z AUTO 18004KT 13SM 32/24 A2965 RMK SLP049 T03220243 57006 IEM_DS3505
ZGGG,2002-06-16 10:00,ZGGG 161000Z AUTO 17008KT 7SM 32/24 A2965 RMK T03200240 IEM_DS3505
ZGGG,2002-06-16 11:00,ZGGG 161100Z AUTO 20012KT 7SM 31/24 A2968 RMK T03100240 IEM_DS3505
ZGGG,2002-06-16 12:00,ZGGG 161200Z AUTO 18004KT 12SM 30/25 A2971 RMK SLP062 T03020250 52013 IEM_DS3505
ZGGG,2002-06-16 13:00,ZGGG 161300Z AUTO 20008KT 7SM 29/23 A2974 RMK T02900230 IEM_DS3505
ZGGG,2002-06-16 14:00,ZGGG 161400Z AUTO 20008KT 7SM 29/24 A2974 RMK T02900240 IEM_DS3505
ZGGG,2002-06-16 15:00,ZGGG 161500Z AUTO 00000KT 12SM 29/25 A2974 RMK SLP073 T02920250 52011 IEM_DS3505
ZGGG,2002-06-16 16:00,ZGGG 161600Z AUTO 21006KT 7SM 29/24 A2974 RMK T02900240 IEM_DS3505
ZGGG,2002-06-16 17:00,ZGGG 161700Z AUTO 22008KT 7SM 29/25 A2974 RMK T02900250 IEM_DS3505
ZGGG,2002-06-16 18:00,ZGGG 161800Z AUTO 14004KT 10SM 28/26 A2971 RMK SLP063 T02850256 57010 IEM_DS3505
ZGGG,2002-06-16 19:00,ZGGG 161900Z AUTO 21010KT 7SM 28/25 A2971 RMK T02800250 IEM_DS3505
ZGGG,2002-06-16 20:00,ZGGG 162000Z AUTO 21010KT 7SM 28/25 A2971 RMK T02800250 IEM_DS3505
ZGGG,2002-06-16 21:00,ZGGG 162100Z AUTO 18002KT 10SM 28/25 A2971 RMK SLP060 T02820252 57003 IEM_DS3505
ZGGG,2002-06-16 22:00,ZGGG 162200Z AUTO 21008KT 7SM 28/24 A2971 RMK T02800240 IEM_DS3505
ZGGG,2002-06-16 23:00,ZGGG 162300Z AUTO 17006KT 7SM 28/24 A2974 RMK T02800240 IEM_DS3505
ZGGG,2002-06-17 00:00,ZGGG 170000Z AUTO 16002KT 9SM 29/25 A2974 RMK SLP070 T02920251 52010 IEM_DS3505
ZGGG,2002-06-17 01:00,ZGGG 170100Z AUTO 22010KT 7SM 29/24 A2974 RMK T02900240 IEM_DS3505
ZGGG,2002-06-17 02:00,ZGGG 170200Z AUTO 20010KT 7SM 30/24 A2974 RMK T03000240 IEM_DS3505
ZGGG,2002-06-17 03:00,ZGGG 170300Z AUTO 21012KT 7SM 31/24 A2974 RMK T03100240 IEM_DS3505
ZGGG,2002-06-17 04:00,ZGGG 170400Z AUTO 18010KT 7SM 32/24 A2971 RMK T03200240 IEM_DS3505
ZGGG,2002-06-17 05:00,ZGGG 170500Z AUTO 20010KT 7SM 31/23 A2971 RMK T03100230 IEM_DS3505
ZGGG,2002-06-17 06:00,ZGGG 170600Z AUTO 18004KT 10SM 31/25 A2968 RMK 60000 SLP053 T03090252 57015 IEM_DS3505
ZGGG,2002-06-17 07:00,ZGGG 170700Z AUTO 20010KT 7SM 32/23 A2965 RMK T03200230 IEM_DS3505
ZGGG,2002-06-17 08:00,ZGGG 170800Z AUTO 21012KT 7SM 31/23 A2965 RMK T03100230 IEM_DS3505
ZGGG,2002-06-17 09:00,ZGGG 170900Z AUTO 27002KT 9SM 29/25 A2968 RMK SLP049 T02930249 57004 IEM_DS3505
ZGGG,2002-06-17 10:00,ZGGG 171000Z AUTO 33006KT 4SM 27/24 A2971 RMK T02700240 IEM_DS3505
ZGGG,2002-06-17 11:00,ZGGG 171100Z AUTO 01004KT 7SM 26/22 A2971 RMK T02600220 IEM_DS3505
ZGGG,2002-06-17 12:00,ZGGG 171200Z AUTO 36004KT 8SM 26/23 A2971 RMK 60000 SLP063 T02640232 52014 IEM_DS3505
ZGGG,2002-06-17 13:00,ZGGG 171300Z AUTO 09004KT 6SM 26/22 A2974 RMK T02600220 IEM_DS3505
ZGGG,2002-06-17 14:00,ZGGG 171400Z AUTO 00000KT 6SM 27/22 A2977 RMK T02700220 IEM_DS3505
ZGGG,2002-06-17 15:00,ZGGG 171500Z AUTO 00000KT 9SM 26/24 A2974 RMK SLP075 T02620236 52012 IEM_DS3505
ZGGG,2002-06-17 16:00,ZGGG 171600Z AUTO 00000KT 6SM 27/23 A2974 RMK T02700230 IEM_DS3505
ZGGG,2002-06-17 17:00,ZGGG 171700Z AUTO 17002KT 4SM 27/24 A2974 RMK T02700240 IEM_DS3505
ZGGG,2002-06-17 18:00,ZGGG 171800Z AUTO 09004KT 7SM 26/24 A2974 RMK SLP066 T02630243 57009 IEM_DS3505
ZGGG,2002-06-17 19:00,ZGGG 171900Z AUTO 16004KT 5SM 28/25 A2974 RMK T02800250 IEM_DS3505
ZGGG,2002-06-17 20:00,ZGGG 172000Z AUTO 17006KT 6SM 28/26 A2971 RMK T02800260 IEM_DS3505
ZGGG,2002-06-17 21:00,ZGGG 172100Z AUTO 14004KT 9SM 28/26 A2971 RMK 70001 SLP059 T02760255 57007 IEM_DS3505
ZGGG,2002-06-17 22:00,ZGGG 172200Z AUTO 17004KT 7SM 28/25 A2971 RMK T02800250 IEM_DS3505
ZGGG,2002-06-17 23:00,ZGGG 172300Z AUTO 16006KT 7SM 28/24 A2974 RMK T02800240 IEM_DS3505
ZGGG,2002-06-18 00:00,ZGGG 180000Z AUTO 16006KT 7SM 28/25 A2974 RMK 60003 SLP071 T02810254 52011 IEM_DS3505
ZGGG,2002-06-18 01:00,ZGGG 180100Z AUTO 17008KT 7SM 29/25 A2974 RMK T02900250 IEM_DS3505
ZGGG,2002-06-18 02:00,ZGGG 180200Z AUTO 18010KT 7SM 30/24 A2974 RMK T03000240 IEM_DS3505
ZGGG,2002-06-18 03:00,ZGGG 180300Z AUTO 22006KT 14SM 31/24 A2974 RMK SLP069 T03080243 57001 IEM_DS3505
ZGGG,2002-06-18 04:00,ZGGG 180400Z AUTO 17010KT 7SM 32/24 A2974 RMK T03200240 IEM_DS3505
ZGGG,2002-06-18 05:00,ZGGG 180500Z AUTO 20012KT 7SM 31/25 A2971 RMK T03100250 IEM_DS3505
ZGGG,2002-06-18 06:00,ZGGG 180600Z AUTO 18006KT 16SM 31/25 A2971 RMK 60003 SLP055 T03140246 57014 IEM_DS3505
ZGGG,2002-06-18 07:00,ZGGG 180700Z AUTO 00000KT 5SM 29/26 A2968 RMK T02900260 IEM_DS3505
ZGGG,2002-06-18 08:00,ZGGG 180800Z AUTO 17008KT 7SM 31/24 A2965 RMK T03100240 IEM_DS3505
ZGGG,2002-06-18 09:00,ZGGG 180900Z AUTO 16006KT 12SM 31/24 A2965 RMK SLP042 T03070243 57013 IEM_DS3505
ZGGG,2002-06-18 10:00,ZGGG 181000Z AUTO 16008KT 7SM 31/24 A2965 RMK T03100240 IEM_DS3505
ZGGG,2002-06-18 12:00,ZGGG 181200Z AUTO 14004KT 12SM 29/25 RMK 60003 SLP057 T02930248 52015 IEM_DS3505
ZGGG,2002-06-18 13:00,ZGGG 181300Z AUTO 16006KT 7SM 29/24 A2971 RMK T02900240 IEM_DS3505
ZGGG,2002-06-18 15:00,ZGGG 181500Z AUTO 16006KT 11SM 28/25 RMK SLP077 T02820250 52020 IEM_DS3505
ZGGG,2002-06-19 00:00,ZGGG 190000Z AUTO 18006KT 11SM 28/25 A2974 RMK 60003 SLP075 T02830248 52010 IEM_DS3505
ZGGG,2002-06-19 01:00,ZGGG 190100Z AUTO 18008KT 7SM 29/24 A2974 RMK T02900240 IEM_DS3505
ZGGG,2002-06-19 02:00,ZGGG 190200Z AUTO 19010KT 7SM 29/24 A2974 RMK T02900240 IEM_DS3505
ZGGG,2002-06-19 03:00,ZGGG 190300Z AUTO 14008KT 12SM 31/24 A2971 RMK SLP063 T03100245 57012 IEM_DS3505
ZGGG,2002-06-19 04:00,ZGGG 190400Z AUTO 21012KT 7SM 31/24 A2971 RMK T03100240 IEM_DS3505
ZGGG,2002-06-19 05:00,ZGGG 190500Z AUTO 17012KT 7SM 32/24 A2968 RMK T03200240 IEM_DS3505
ZGGG,2002-06-19 06:00,ZGGG 190600Z AUTO 14008KT 15SM 31/25 A2965 RMK 60000 SLP043 T03120247 57020 IEM_DS3505
ZGGG,2002-06-19 07:00,ZGGG 190700Z AUTO 16010KT 7SM 32/25 A2965 RMK T03200250 IEM_DS3505
ZGGG,2002-06-19 09:00,ZGGG 190900Z AUTO 14006KT 13SM 30/25 A2965 RMK SLP036 T02970251 57007 IEM_DS3505
ZGGG,2002-06-19 10:00,ZGGG 191000Z AUTO 17010KT 7SM 30/24 A2965 RMK T03000240 IEM_DS3505
ZGGG,2002-06-19 11:00,ZGGG 191100Z AUTO 17010KT 7SM 29/24 A2965 RMK T02900240 IEM_DS3505
ZGGG,2002-06-19 12:00,ZGGG 191200Z AUTO 16008KT 12SM 29/25 A2965 RMK 60008 SLP046 T02890248 52010 IEM_DS3505
ZGGG,2002-06-19 14:00,ZGGG 191400Z AUTO 16008KT 7SM 28/24 A2971 RMK T02800240 IEM_DS3505
ZGGG,2002-06-19 15:00,ZGGG 191500Z AUTO 14006KT 11SM 28/25 A2968 RMK SLP057 T02800250 52011 IEM_DS3505
ZGGG,2002-06-19 16:00,ZGGG 191600Z AUTO 14006KT 7SM 28/25 A2968 RMK T02800250 IEM_DS3505
ZGGG,2002-06-20 01:00,ZGGG 200100Z AUTO 16006KT 7SM 28/25 A2971 RMK T02800250 IEM_DS3505
ZGGG,2002-06-20 02:00,ZGGG 200200Z AUTO 15006KT 7SM 29/24 A2971 RMK T02900240 IEM_DS3505
ZGGG,2002-06-20 03:00,ZGGG 200300Z AUTO 14006KT 14SM 31/25 A2971 RMK SLP060 T03080252 52002 IEM_DS3505
ZGGG,2002-06-20 04:00,ZGGG 200400Z AUTO 15010KT 7SM 32/25 A2968 RMK T03200250 IEM_DS3505
ZGGG,2002-06-20 06:00,ZGGG 200600Z AUTO 18008KT 14SM 32/25 RMK SLP040 T03220252 57020 IEM_DS3505
ZGGG,2002-06-20 07:00,ZGGG 200700Z AUTO 13008KT 7SM 32/25 A2962 RMK T03200250 IEM_DS3505
ZGGG,2002-06-20 08:00,ZGGG 200800Z AUTO 15008KT 7SM 32/24 A2962 RMK T03200240 IEM_DS3505
ZGGG,2002-06-20 09:00,ZGGG 200900Z AUTO 14004KT 12SM 31/26 A2962 RMK SLP033 T03130259 57007 IEM_DS3505
ZGGG,2002-06-20 10:00,ZGGG 201000Z AUTO 14008KT 7SM 31/26 A2962 RMK T03100260 IEM_DS3505
ZGGG,2002-06-20 11:00,ZGGG 201100Z AUTO 14010KT 7SM 30/25 A2962 RMK T03000250 IEM_DS3505
ZGGG,2002-06-20 12:00,ZGGG 201200Z AUTO 14008KT 11SM 29/26 A2965 RMK SLP038 T02920256 52005 IEM_DS3505
ZGGG,2002-06-20 13:00,ZGGG 201300Z AUTO 16010KT 7SM 29/25 A2968 RMK T02900250 IEM_DS3505
ZGGG,2002-06-20 14:00,ZGGG 201400Z AUTO 15006KT 7SM 29/25 A2971 RMK T02900250 IEM_DS3505
ZGGG,2002-06-20 15:00,ZGGG 201500Z AUTO 14006KT 12SM 28/26 A2971 RMK SLP056 T02850256 52018 IEM_DS3505
ZGGG,2002-06-20 16:00,ZGGG 201600Z AUTO 15008KT 7SM 28/24 A2968 RMK T02800240 IEM_DS3505
ZGGG,2002-06-20 17:00,ZGGG 201700Z AUTO 16006KT 6SM 28/25 A2968 RMK T02800250 IEM_DS3505
ZGGG,2002-06-20 18:00,ZGGG 201800Z AUTO 14004KT 9SM 28/26 A2968 RMK SLP047 T02780256 57009 IEM_DS3505
ZGGG,2002-06-20 19:00,ZGGG 201900Z AUTO 15004KT 6SM 28/25 A2968 RMK T02800250 IEM_DS3505
ZGGG,2002-06-20 20:00,ZGGG 202000Z AUTO 15004KT 6SM 28/25 A2968 RMK T02800250 IEM_DS3505
ZGGG,2002-06-20 21:00,ZGGG 202100Z AUTO 16004KT 8SM 28/26 A2968 RMK 70003 SLP053 T02770256 52006 IEM_DS3505
ZGGG,2002-06-20 22:00,ZGGG 202200Z AUTO 15004KT 7SM 28/26 A2968 RMK T02800260 IEM_DS3505
ZGGG,2002-06-20 23:00,ZGGG 202300Z AUTO 13004KT 7SM 28/24 A2971 RMK T02800240 IEM_DS3505
ZGGG,2002-06-21 00:00,ZGGG 210000Z AUTO 15006KT 7SM 28/25 A2971 RMK T02800250 IEM_DS3505
ZGGG,2002-06-21 01:00,ZGGG 210100Z AUTO 15006KT 7SM 28/26 A2971 RMK T02800260 IEM_DS3505
ZGGG,2002-06-21 02:00,ZGGG 210200Z AUTO 18008KT 7SM 30/25 A2971 RMK T03000250 IEM_DS3505
ZGGG,2002-06-21 03:00,ZGGG 210300Z AUTO 16008KT 7SM 31/24 A2971 RMK T03100240 IEM_DS3505
ZGGG,2002-06-21 04:00,ZGGG 210400Z AUTO 19008KT 7SM 32/24 A2968 RMK T03200240 IEM_DS3505
ZGGG,2002-06-21 05:00,ZGGG 210500Z AUTO 14006KT 7SM 32/25 A2968 RMK T03200250 IEM_DS3505
ZGGG,2002-06-21 06:00,ZGGG 210600Z AUTO 20006KT 14SM 32/26 A2965 RMK 60003 SLP042 T03160258 57017 IEM_DS3505
ZGGG,2002-06-21 09:00,ZGGG 210900Z AUTO 18006KT 15SM 32/24 RMK SLP030 T03220237 57012 IEM_DS3505
ZGGG,2002-06-21 13:00,ZGGG 211300Z AUTO 15010KT 7SM 29/25 A2971 RMK T02900250 IEM_DS3505
ZGGG,2002-06-21 14:00,ZGGG 211400Z AUTO 15008KT 7SM 29/25 A2971 RMK T02900250 IEM_DS3505
ZGGG,2002-06-21 15:00,ZGGG 211500Z AUTO 16008KT 12SM 29/25 A2974 RMK SLP066 T02870247 52013 IEM_DS3505
ZGGG,2002-06-21 16:00,ZGGG 211600Z AUTO 15006KT 7SM 29/24 A2974 RMK T02900240 IEM_DS3505
ZGGG,2002-06-21 17:00,ZGGG 211700Z AUTO 14004KT 7SM 28/24 A2974 RMK T02800240 IEM_DS3505
ZGGG,2002-06-21 18:00,ZGGG 211800Z AUTO 00000KT 9SM 27/25 A2974 RMK SLP066 T02700247 54000 IEM_DS3505
ZGGG,2002-06-21 19:00,ZGGG 211900Z AUTO 12004KT 7SM 28/25 A2974 RMK T02800250 IEM_DS3505
ZGGG,2002-06-21 20:00,ZGGG 212000Z AUTO 00000KT 7SM 28/24 A2974 RMK T02800240 IEM_DS3505
ZGGG,2002-06-21 21:00,ZGGG 212100Z AUTO 00000KT 7SM 27/25 A2974 RMK 70003 SLP069 T02720249 52003 IEM_DS3505
ZGGG,2002-06-21 22:00,ZGGG 212200Z AUTO 10004KT 4SM 27/24 A2974 RMK T02700240 IEM_DS3505
ZGGG,2002-06-21 23:00,ZGGG 212300Z AUTO 09002KT 3SM 28/25 A2977 RMK T02800250 IEM_DS3505
ZGGG,2002-06-22 00:00,ZGGG 220000Z AUTO 00000KT 8SM 27/25 A2977 RMK 70003 SLP079 T02740254 52010 IEM_DS3505
ZGGG,2002-06-22 01:00,ZGGG 220100Z AUTO 10004KT 4SM 29/26 A2977 RMK T02900260 IEM_DS3505
ZGGG,2002-06-22 02:00,ZGGG 220200Z AUTO 14006KT 31/24 A2977 RMK T03100240 IEM_DS3505
ZGGG,2002-06-22 03:00,ZGGG 220300Z AUTO 14004KT 9SM 32/24 A2977 RMK SLP080 T03240239 52001 IEM_DS3505
ZGGG,2002-06-22 04:00,ZGGG 220400Z AUTO 18006KT 7SM 33/24 A2974 RMK T03300240 IEM_DS3505
ZGGG,2002-06-22 05:00,ZGGG 220500Z AUTO 17008KT 7SM 33/23 A2971 RMK T03300230 IEM_DS3505
ZGGG,2002-06-22 06:00,ZGGG 220600Z AUTO 09004KT 12SM 34/24 A2971 RMK SLP061 T03390242 57019 IEM_DS3505
ZGGG,2002-06-22 07:00,ZGGG 220700Z AUTO 14006KT 7SM 34/22 A2968 RMK T03400220 IEM_DS3505
ZGGG,2002-06-22 08:00,ZGGG 220800Z AUTO 15010KT 7SM 34/24 A2971 RMK T03400240 IEM_DS3505
ZGGG,2002-06-22 09:00,ZGGG 220900Z AUTO 11006KT 14SM 30/25 A2971 RMK SLP062 T02980247 52001 IEM_DS3505
ZGGG,2002-06-22 10:00,ZGGG 221000Z AUTO 15010KT 7SM 30/24 A2971 RMK T03000240 IEM_DS3505
ZGGG,2002-06-22 11:00,ZGGG 221100Z AUTO 14008KT 7SM 30/24 A2974 RMK T03000240 IEM_DS3505
ZGGG,2002-06-22 12:00,ZGGG 221200Z AUTO 14006KT 14SM 30/25 RMK SLP074 T02960248 52012 IEM_DS3505
ZGGG,2002-06-22 13:00,ZGGG 221300Z AUTO 15006KT 6SM 29/24 A2977 RMK T02900240 IEM_DS3505
ZGGG,2002-06-22 14:00,ZGGG 221400Z AUTO 15006KT 6SM 29/24 A2977 RMK T02900240 IEM_DS3505
ZGGG,2002-06-22 15:00,ZGGG 221500Z AUTO 09002KT 12SM 28/25 A2980 RMK SLP089 T02840252 52015 IEM_DS3505
ZGGG,2002-06-22 16:00,ZGGG 221600Z AUTO 13006KT 7SM 29/24 A2980 RMK T02900240 IEM_DS3505
ZGGG,2002-06-22 17:00,ZGGG 221700Z AUTO 12004KT 7SM 29/24 A2980 RMK T02900240 IEM_DS3505
ZGGG,2002-06-22 18:00,ZGGG 221800Z AUTO 09002KT 9SM 28/25 A2980 RMK SLP086 T02760253 57003 IEM_DS3505
ZGGG,2002-06-22 19:00,ZGGG 221900Z AUTO 10004KT 7SM 28/24 A2977 RMK T02800240 IEM_DS3505
ZGGG,2002-06-22 20:00,ZGGG 222000Z AUTO 09004KT 4SM 27/24 A2977 RMK T02700240 IEM_DS3505
ZGGG,2002-06-22 21:00,ZGGG 222100Z AUTO 09002KT 9SM 27/25 A2977 RMK SLP081 T02740253 57005 IEM_DS3505
ZGGG,2002-06-22 22:00,ZGGG 222200Z AUTO 06002KT 4SM 27/24 A2977 RMK T02700240 IEM_DS3505
ZGGG,2002-06-22 23:00,ZGGG 222300Z AUTO 05004KT 5SM 27/24 A2980 RMK T02700240 IEM_DS3505
ZGGG,2002-06-23 00:00,ZGGG 230000Z AUTO 18004KT 6SM 27/26 A2980 RMK 60063 SLP093 T02670259 52011 IEM_DS3505
ZGGG,2002-06-23 01:00,ZGGG 230100Z AUTO 00000KT 7SM 27/26 A2983 RMK T02700260 IEM_DS3505
ZGGG,2002-06-23 02:00,ZGGG 230200Z AUTO 14004KT 5SM 28/26 A2983 RMK T02800260 IEM_DS3505
ZGGG,2002-06-23 03:00,ZGGG 230300Z AUTO 14004KT 10SM 30/27 A2983 RMK SLP098 T03020269 52006 IEM_DS3505
ZGGG,2002-06-23 04:00,ZGGG 230400Z AUTO 13008KT 7SM 29/24 A2980 RMK T02900240 IEM_DS3505
ZGGG,2002-06-23 05:00,ZGGG 230500Z AUTO 14008KT 7SM 32/26 A2980 RMK T03200260 IEM_DS3505
ZGGG,2002-06-23 06:00,ZGGG 230600Z AUTO 14008KT 19SM 32/25 A2977 RMK 60059 SLP082 T03220248 57016 IEM_DS3505
ZGGG,2002-06-23 07:00,ZGGG 230700Z AUTO 23012KT 1 1/4SM 28/26 A2980 RMK T02800260 IEM_DS3505
ZGGG,2002-06-23 08:00,ZGGG 230800Z AUTO 21006KT 7SM 29/26 A2977 RMK T02900260 IEM_DS3505
ZGGG,2002-06-23 09:00,ZGGG 230900Z AUTO 00000KT 16SM 30/26 A2977 RMK SLP081 T03040260 57001 IEM_DS3505
ZGGG,2002-06-23 11:00,ZGGG 231100Z AUTO 16006KT 7SM 28/27 A2977 RMK T02800270 IEM_DS3505
ZGGG,2002-06-23 12:00,ZGGG 231200Z AUTO 14006KT 12SM 28/25 A2977 RMK 60001 SLP087 T02840253 52005 IEM_DS3505
ZGGG,2002-06-23 13:00,ZGGG 231300Z AUTO 14008KT 6SM 28/26 A2980 RMK T02800260 IEM_DS3505
ZGGG,2002-06-23 14:00,ZGGG 231400Z AUTO 15004KT 7SM 28/25 A2980 RMK T02800250 IEM_DS3505
ZGGG,2002-06-23 15:00,ZGGG 231500Z AUTO 16004KT 14SM 28/25 A2980 RMK SLP093 T02810254 52007 IEM_DS3505
ZGGG,2002-06-23 16:00,ZGGG 231600Z AUTO 15008KT 7SM 28/26 A2980 RMK T02800260 IEM_DS3505
ZGGG,2002-06-23 17:00,ZGGG 231700Z AUTO 16006KT 7SM 28/26 A2980 RMK T02800260 IEM_DS3505
ZGGG,2002-06-23 18:00,ZGGG 231800Z AUTO 14006KT 11SM 28/26 A2977 RMK SLP082 T02810260 57011 IEM_DS3505
ZGGG,2002-06-23 19:00,ZGGG 231900Z AUTO 15008KT 7SM 28/26 A2977 RMK T02800260 IEM_DS3505
ZGGG,2002-06-23 20:00,ZGGG 232000Z AUTO 16008KT 7SM 28/26 A2977 RMK T02800260 IEM_DS3505
ZGGG,2002-06-23 21:00,ZGGG 232100Z AUTO 18004KT 10SM 28/26 A2977 RMK 70120 SLP081 T02770257 57001 IEM_DS3505
ZGGG,2002-06-23 22:00,ZGGG 232200Z AUTO 16004KT 7SM 28/26 A2980 RMK T02800260 IEM_DS3505
ZGGG,2002-06-23 23:00,ZGGG 232300Z AUTO 16004KT 5SM 28/25 A2980 RMK T02800250 IEM_DS3505
ZGGG,2002-06-24 00:00,ZGGG 240000Z AUTO 14002KT 7SM 26/25 A2983 RMK 60020 SLP100 T02620251 52018 IEM_DS3505
ZGGG,2002-06-24 01:00,ZGGG 240100Z AUTO 18004KT 7SM 27/26 A2983 RMK T02700260 IEM_DS3505
ZGGG,2002-06-24 02:00,ZGGG 240200Z AUTO 17004KT 7SM 29/26 A2983 RMK T02900260 IEM_DS3505
ZGGG,2002-06-24 03:00,ZGGG 240300Z AUTO 09004KT 9SM 30/26 A2983 RMK SLP100 T02980259 52001 IEM_DS3505
ZGGG,2002-06-24 05:00,ZGGG 240500Z AUTO 20006KT 7SM 31/24 A2980 RMK T03100240 IEM_DS3505
ZGGG,2002-06-24 06:00,ZGGG 240600Z AUTO 18002KT 14SM 31/25 A2980 RMK 60002 SLP085 T03140248 57015 IEM_DS3505
ZGGG,2002-06-24 07:00,ZGGG 240700Z AUTO 16008KT 7SM 31/24 A2977 RMK T03100240 IEM_DS3505
ZGGG,2002-06-24 08:00,ZGGG 240800Z AUTO 16004KT 6SM 32/24 A2974 RMK T03200240 IEM_DS3505
ZGGG,2002-06-24 09:00,ZGGG 240900Z AUTO 14004KT 12SM 32/25 A2971 RMK SLP064 T03200248 57021 IEM_DS3505
ZGGG,2002-06-24 10:00,ZGGG 241000Z AUTO 14004KT 7SM 32/25 A2971 RMK T03200250 IEM_DS3505
ZGGG,2002-06-24 10:30,ZGGG 241030Z AUTO 13006KT 6SM 31/25 A2971 RMK T03100250 IEM_DS3505
ZGGG,2002-06-24 11:00,ZGGG 241100Z AUTO 13004KT 7SM 31/26 A2971 RMK T03100260 IEM_DS3505
ZGGG,2002-06-24 12:00,ZGGG 241200Z AUTO 09002KT 11SM 30/26 A2974 RMK SLP069 T02960257 52005 IEM_DS3505
ZGGG,2002-06-24 13:00,ZGGG 241300Z AUTO 15006KT RMK IEM_DS3505
ZGGG,2002-06-24 15:00,ZGGG 241500Z AUTO 16002KT 11SM 28/25 A2980 RMK SLP087 T02850254 52018 IEM_DS3505
ZGGG,2002-06-24 16:00,ZGGG 241600Z AUTO 16004KT 6SM 29/25 A2983 RMK T02900250 IEM_DS3505
ZGGG,2002-06-24 17:00,ZGGG 241700Z AUTO 17006KT 6SM 29/25 A2980 RMK T02900250 IEM_DS3505
ZGGG,2002-06-24 18:00,ZGGG 241800Z AUTO 14002KT 10SM 28/26 A2980 RMK SLP091 T02770255 52004 IEM_DS3505
ZGGG,2002-06-24 19:00,ZGGG 241900Z AUTO 17004KT 7SM 28/26 A2980 RMK T02800260 IEM_DS3505
ZGGG,2002-06-24 20:00,ZGGG 242000Z AUTO 14004KT 7SM 28/26 A2980 RMK T02800260 IEM_DS3505
ZGGG,2002-06-24 21:00,ZGGG 242100Z AUTO 00000KT 8SM 27/26 A2980 RMK 70021 SLP087 T02680255 57004 IEM_DS3505
ZGGG,2002-06-24 22:00,ZGGG 242200Z AUTO 15006KT 7SM 28/26 A2980 RMK T02800260 IEM_DS3505
ZGGG,2002-06-24 23:00,ZGGG 242300Z AUTO 16004KT 7SM 28/26 A2980 RMK T02800260 IEM_DS3505
ZGGG,2002-06-25 00:00,ZGGG 250000Z AUTO 22004KT 7SM 29/26 A2980 RMK 70002 SLP093 T02900256 52006 IEM_DS3505
ZGGG,2002-06-25 01:00,ZGGG 250100Z AUTO 16006KT 7SM 30/25 A2980 RMK T03000250 IEM_DS3505
ZGGG,2002-06-25 02:00,ZGGG 250200Z AUTO 21008KT 7SM 31/24 A2980 RMK T03100240 IEM_DS3505
ZGGG,2002-06-25 03:00,ZGGG 250300Z AUTO 16004KT 11SM 33/26 A2980 RMK SLP091 T03270255 57002 IEM_DS3505
ZGGG,2002-06-25 04:00,ZGGG 250400Z AUTO 22006KT 7SM 33/23 A2980 RMK T03300230 IEM_DS3505
ZGGG,2002-06-25 05:00,ZGGG 250500Z AUTO 17008KT 7SM 33/23 A2977 RMK T03300230 IEM_DS3505
ZGGG,2002-06-25 06:00,ZGGG 250600Z AUTO 25004KT 12SM 34/24 A2977 RMK SLP074 T03370243 57017 IEM_DS3505
ZGGG,2002-06-25 07:00,ZGGG 250700Z AUTO 22006KT 7SM 33/24 A2974 RMK T03300240 IEM_DS3505
ZGGG,2002-06-25 08:00,ZGGG 250800Z AUTO 21004KT 7SM 34/24 A2971 RMK T03400240 IEM_DS3505
ZGGG,2002-06-25 09:00,ZGGG 250900Z AUTO 14006KT 10SM 33/26 A2971 RMK SLP063 T03310259 57011 IEM_DS3505
ZGGG,2002-06-25 10:00,ZGGG 251000Z AUTO 14006KT 7SM 32/26 A2974 RMK T03200260 IEM_DS3505
ZGGG,2002-06-25 11:00,ZGGG 251100Z AUTO 13006KT 7SM 32/26 A2977 RMK T03200260 IEM_DS3505
ZGGG,2002-06-25 12:00,ZGGG 251200Z AUTO 14004KT 10SM 31/26 A2977 RMK SLP081 T03100260 52018 IEM_DS3505
ZGGG,2002-06-25 13:00,ZGGG 251300Z AUTO 14006KT 7SM 31/24 A2980 RMK T03100240 IEM_DS3505
ZGGG,2002-06-25 14:00,ZGGG 251400Z AUTO 16006KT 6SM 31/24 A2983 RMK T03100240 IEM_DS3505
ZGGG,2002-06-25 15:00,ZGGG 251500Z AUTO 14004KT 9SM 30/25 A2983 RMK SLP100 T02950251 52019 IEM_DS3505
ZGGG,2002-06-25 16:00,ZGGG 251600Z AUTO 16006KT 6SM 29/24 A2983 RMK T02900240 IEM_DS3505
ZGGG,2002-06-25 17:00,ZGGG 251700Z AUTO 16008KT 6SM 29/24 A2980 RMK T02900240 IEM_DS3505
ZGGG,2002-06-25 18:00,ZGGG 251800Z AUTO 14004KT 9SM 28/25 A2980 RMK SLP094 T02820254 57006 IEM_DS3505
ZGGG,2002-06-25 19:00,ZGGG 251900Z AUTO 17006KT 7SM 28/25 A2980 RMK T02800250 IEM_DS3505
ZGGG,2002-06-25 20:00,ZGGG 252000Z AUTO 21010KT 7SM 28/25 A2980 RMK T02800250 IEM_DS3505
ZGGG,2002-06-25 21:00,ZGGG 252100Z AUTO 00000KT 10SM 28/26 A2980 RMK SLP091 T02820255 57003 IEM_DS3505
ZGGG,2002-06-25 22:00,ZGGG 252200Z AUTO 21006KT 7SM 28/24 A2980 RMK T02800240 IEM_DS3505
ZGGG,2002-06-25 23:00,ZGGG 252300Z AUTO 00000KT 7SM 28/24 A2983 RMK T02800240 IEM_DS3505
ZGGG,2002-06-26 00:00,ZGGG 260000Z AUTO 27002KT 7SM 30/26 A2983 RMK SLP100 T02980262 52009 IEM_DS3505
ZGGG,2002-06-26 01:00,ZGGG 260100Z AUTO 23006KT 7SM 30/24 A2983 RMK T03000240 IEM_DS3505
ZGGG,2002-06-26 02:00,ZGGG 260200Z AUTO 22008KT 7SM 31/24 A2983 RMK T03100240 IEM_DS3505
ZGGG,2002-06-26 03:00,ZGGG 260300Z AUTO 14004KT 11SM 33/25 A2983 RMK SLP099 T03280248 57001 IEM_DS3505
ZGGG,2002-06-26 04:00,ZGGG 260400Z AUTO 24004KT 7SM 33/24 A2983 RMK T03300240 IEM_DS3505
ZGGG,2002-06-26 05:00,ZGGG 260500Z AUTO 17006KT 7SM 33/23 A2980 RMK T03300230 IEM_DS3505
ZGGG,2002-06-26 06:00,ZGGG 260600Z AUTO 27004KT 12SM 34/23 A2977 RMK SLP085 T03450234 57014 IEM_DS3505
ZGGG,2002-06-26 07:00,ZGGG 260700Z AUTO 14006KT 7SM 35/21 A2974 RMK T03500210 IEM_DS3505
ZGGG,2002-06-26 08:00,ZGGG 260800Z AUTO 14006KT 7SM 36/23 A2974 RMK T03600230 IEM_DS3505
ZGGG,2002-06-26 09:00,ZGGG 260900Z AUTO 14006KT 10SM 34/25 A2974 RMK SLP070 T03410249 57015 IEM_DS3505
ZGGG,2002-06-26 10:00,ZGGG 261000Z AUTO 15010KT 7SM 34/24 A2974 RMK T03400240 IEM_DS3505
ZGGG,2002-06-26 11:00,ZGGG 261100Z AUTO 16008KT 7SM 33/24 A2977 RMK T03300240 IEM_DS3505
ZGGG,2002-06-26 12:00,ZGGG 261200Z AUTO 14008KT 9SM 31/26 A2980 RMK SLP089 T03130256 52019 IEM_DS3505
ZGGG,2002-06-26 13:00,ZGGG 261300Z AUTO 17010KT 7SM 31/24 A2980 RMK T03100240 IEM_DS3505
ZGGG,2002-06-26 14:00,ZGGG 261400Z AUTO 18008KT 6SM 30/24 A2983 RMK T03000240 IEM_DS3505
ZGGG,2002-06-26 15:00,ZGGG 261500Z AUTO 14004KT 9SM 30/25 A2983 RMK SLP099 T02960252 52010 IEM_DS3505
ZGGG,2002-06-26 16:00,ZGGG 261600Z AUTO 16004KT 7SM 29/24 A2983 RMK T02900240 IEM_DS3505
ZGGG,2002-06-26 17:00,ZGGG 261700Z AUTO 17004KT 7SM 29/24 A2983 RMK T02900240 IEM_DS3505
ZGGG,2002-06-26 18:00,ZGGG 261800Z AUTO 14004KT 8SM 29/25 A2983 RMK SLP097 T02880254 57002 IEM_DS3505
ZGGG,2002-06-26 19:00,ZGGG 261900Z AUTO 17004KT 7SM 29/24 A2980 RMK T02900240 IEM_DS3505
ZGGG,2002-06-26 20:00,ZGGG 262000Z AUTO 15004KT 7SM 29/25 A2980 RMK T02900250 IEM_DS3505
ZGGG,2002-06-26 21:00,ZGGG 262100Z AUTO 14002KT 7SM 28/25 RMK SLP092 T02830253 57005 IEM_DS3505
ZGGG,2002-06-26 22:00,ZGGG 262200Z AUTO 21006KT 7SM 28/24 A2980 RMK T02800240 IEM_DS3505
ZGGG,2002-06-26 23:00,ZGGG 262300Z AUTO 11002KT 7SM 28/24 A2983 RMK T02800240 IEM_DS3505
ZGGG,2002-06-27 00:00,ZGGG 270000Z AUTO 16004KT 7SM 29/26 A2983 RMK SLP103 T02940255 52011 IEM_DS3505
ZGGG,2002-06-27 01:00,ZGGG 270100Z AUTO 22004KT 7SM 29/24 A2985 RMK T02900240 IEM_DS3505
ZGGG,2002-06-27 02:00,ZGGG 270200Z AUTO 23008KT 7SM 31/24 A2983 RMK T03100240 IEM_DS3505
ZGGG,2002-06-27 03:00,ZGGG 270300Z AUTO 25006KT 10SM 33/25 A2983 RMK SLP099 T03310250 57004 IEM_DS3505
ZGGG,2002-06-27 04:00,ZGGG 270400Z AUTO 20008KT 7SM 33/24 A2980 RMK T03300240 IEM_DS3505
ZGGG,2002-06-27 05:00,ZGGG 270500Z AUTO 21008KT 7SM 34/23 A2980 RMK T03400230 IEM_DS3505
ZGGG,2002-06-27 06:00,ZGGG 270600Z AUTO 14006KT 11SM 34/24 A2977 RMK SLP083 T03400244 57016 IEM_DS3505
ZGGG,2002-06-27 07:00,ZGGG 270700Z AUTO 16008KT 7SM 34/23 A2977 RMK T03400230 IEM_DS3505
ZGGG,2002-06-27 08:00,ZGGG 270800Z AUTO 15008KT 7SM 33/24 A2974 RMK T03300240 IEM_DS3505
ZGGG,2002-06-27 09:00,ZGGG 270900Z AUTO 14004KT 9SM 33/26 A2974 RMK SLP069 T03270259 57014 IEM_DS3505
ZGGG,2002-06-27 10:00,ZGGG 271000Z AUTO 15008KT 7SM 33/25 A2974 RMK T03300250 IEM_DS3505
ZGGG,2002-06-27 11:00,ZGGG 271100Z AUTO 16008KT 7SM 33/24 A2974 RMK T03300240 IEM_DS3505
ZGGG,2002-06-27 12:00,ZGGG 271200Z AUTO 14004KT 10SM 31/25 A2977 RMK SLP077 T03110254 52008 IEM_DS3505
ZGGG,2002-06-27 13:00,ZGGG 271300Z AUTO 17008KT 6SM 31/24 A2980 RMK T03100240 IEM_DS3505
ZGGG,2002-06-27 14:00,ZGGG 271400Z AUTO 17008KT 6SM 30/23 A2980 RMK T03000230 IEM_DS3505
ZGGG,2002-06-27 15:00,ZGGG 271500Z AUTO 25004KT 10SM 29/25 A2983 RMK SLP101 T02920247 52024 IEM_DS3505
ZGGG,2002-06-27 16:00,ZGGG 271600Z AUTO 17006KT 7SM 29/24 A2983 RMK T02900240 IEM_DS3505
ZGGG,2002-06-27 17:00,ZGGG 271700Z AUTO 20008KT 7SM 29/24 A2980 RMK T02900240 IEM_DS3505
ZGGG,2002-06-27 18:00,ZGGG 271800Z AUTO 14004KT 10SM 28/25 A2980 RMK SLP096 T02850251 57005 IEM_DS3505
ZGGG,2002-06-27 19:00,ZGGG 271900Z AUTO 21010KT 7SM 28/24 A2983 RMK T02800240 IEM_DS3505
ZGGG,2002-06-27 20:00,ZGGG 272000Z AUTO 21006KT 7SM 28/24 A2983 RMK T02800240 IEM_DS3505
ZGGG,2002-06-27 21:00,ZGGG 272100Z AUTO 20002KT 9SM 28/24 A2983 RMK SLP097 T02820245 52001 IEM_DS3505
ZGGG,2002-06-27 22:00,ZGGG 272200Z AUTO 21008KT 7SM 28/24 A2980 RMK T02800240 IEM_DS3505
ZGGG,2002-06-27 23:00,ZGGG 272300Z AUTO 21008KT 7SM 28/24 A2983 RMK T02800240 IEM_DS3505
ZGGG,2002-06-28 00:00,ZGGG 280000Z AUTO 25002KT 12SM 30/25 A2983 RMK SLP102 T02970252 52005 IEM_DS3505
ZGGG,2002-06-28 01:00,ZGGG 280100Z AUTO 21010KT 7SM 29/24 A2983 RMK T02900240 IEM_DS3505
ZGGG,2002-06-28 02:00,ZGGG 280200Z AUTO 20010KT 7SM 31/24 A2983 RMK T03100240 IEM_DS3505
ZGGG,2002-06-28 03:00,ZGGG 280300Z AUTO 27004KT 11SM 32/24 A2983 RMK SLP100 T03230244 57002 IEM_DS3505
ZGGG,2002-06-28 04:00,ZGGG 280400Z AUTO 23008KT 7SM 32/23 A2980 RMK T03200230 IEM_DS3505
ZGGG,2002-06-28 05:00,ZGGG 280500Z AUTO 24006KT 7SM 33/23 A2980 RMK T03300230 IEM_DS3505
ZGGG,2002-06-28 06:00,ZGGG 280600Z AUTO 22004KT 11SM 33/24 A2977 RMK SLP083 T03320243 57017 IEM_DS3505
ZGGG,2002-06-28 07:00,ZGGG 280700Z AUTO 16006KT RMK IEM_DS3505
ZGGG,2002-06-28 08:00,ZGGG 280800Z AUTO 15006KT 7SM 34/23 A2971 RMK T03400230 IEM_DS3505
ZGGG,2002-06-28 09:00,ZGGG 280900Z AUTO 18004KT 11SM 33/24 A2971 RMK SLP063 T03330236 57020 IEM_DS3505
ZGGG,2002-06-28 10:00,ZGGG 281000Z AUTO 13006KT 7SM 33/24 A2971 RMK T03300240 IEM_DS3505
ZGGG,2002-06-28 11:00,ZGGG 281100Z AUTO 13004KT 7SM 33/22 A2971 RMK T03300220 IEM_DS3505
ZGGG,2002-06-28 12:00,ZGGG 281200Z AUTO 16004KT 9SM 31/26 A2974 RMK SLP073 T03120262 52010 IEM_DS3505
ZGGG,2002-06-28 13:00,ZGGG 281300Z AUTO 17008KT 6SM 31/24 A2974 RMK T03100240 IEM_DS3505
ZGGG,2002-06-28 14:00,ZGGG 281400Z AUTO 16006KT 6SM 31/24 A2977 RMK T03100240 IEM_DS3505
ZGGG,2002-06-28 15:00,ZGGG 281500Z AUTO 16006KT 9SM 30/26 A2980 RMK SLP088 T02980258 52015 IEM_DS3505
ZGGG,2002-06-28 16:00,ZGGG 281600Z AUTO 18010KT 7SM 29/24 A2980 RMK T02900240 IEM_DS3505
ZGGG,2002-06-28 17:00,ZGGG 281700Z AUTO 21012KT 7SM 29/24 A2977 RMK T02900240 IEM_DS3505
ZGGG,2002-06-28 18:00,ZGGG 281800Z AUTO 20004KT 8SM 29/25 A2977 RMK SLP084 T02910247 57004 IEM_DS3505
ZGGG,2002-06-28 19:00,ZGGG 281900Z AUTO 21010KT 6SM 28/24 A2980 RMK T02800240 IEM_DS3505
ZGGG,2002-06-28 20:00,ZGGG 282000Z AUTO 20010KT 7SM 28/24 A2977 RMK T02800240 IEM_DS3505
ZGGG,2002-06-28 21:00,ZGGG 282100Z AUTO 14004KT 8SM 28/25 A2977 RMK SLP081 T02840247 57003 IEM_DS3505
ZGGG,2002-06-28 22:00,ZGGG 282200Z AUTO 19006KT 7SM 28/24 A2977 RMK T02800240 IEM_DS3505
ZGGG,2002-06-28 23:00,ZGGG 282300Z AUTO 16006KT 7SM 28/24 A2977 RMK T02800240 IEM_DS3505
ZGGG,2002-06-29 00:00,ZGGG 290000Z AUTO 00000KT 7SM 29/25 A2980 RMK SLP086 T02940253 52005 IEM_DS3505
ZGGG,2002-06-29 01:00,ZGGG 290100Z AUTO 20008KT 7SM 30/24 A2980 RMK T03000240 IEM_DS3505
ZGGG,2002-06-29 02:00,ZGGG 290200Z AUTO 20008KT 7SM 31/24 A2977 RMK T03100240 IEM_DS3505
ZGGG,2002-06-29 03:00,ZGGG 290300Z AUTO 16006KT 11SM 33/24 A2977 RMK SLP084 T03270244 57002 IEM_DS3505
ZGGG,2002-06-29 04:00,ZGGG 290400Z AUTO 22010KT 7SM 33/24 A2977 RMK T03300240 IEM_DS3505
ZGGG,2002-06-29 05:00,ZGGG 290500Z AUTO 21010KT RMK IEM_DS3505
ZGGG,2002-06-29 06:00,ZGGG 290600Z AUTO 22006KT 12SM 34/23 A2968 RMK SLP057 T03420231 57027 IEM_DS3505
ZGGG,2002-06-29 07:00,ZGGG 290700Z AUTO 19010KT 7SM 35/23 A2968 RMK T03500230 IEM_DS3505
ZGGG,2002-06-29 08:00,ZGGG 290800Z AUTO 20010KT 7SM 34/23 A2965 RMK T03400230 IEM_DS3505
ZGGG,2002-06-29 09:00,ZGGG 290900Z AUTO 22006KT 13SM 33/24 A2965 RMK SLP041 T03330240 57016 IEM_DS3505
ZGGG,2002-06-29 10:00,ZGGG 291000Z AUTO 16008KT 7SM 33/23 A2965 RMK T03300230 IEM_DS3505
ZGGG,2002-06-29 11:00,ZGGG 291100Z AUTO 16006KT 7SM 32/24 A2965 RMK T03200240 IEM_DS3505
ZGGG,2002-06-29 12:00,ZGGG 291200Z AUTO 14002KT 9SM 31/25 A2968 RMK SLP052 T03130250 52011 IEM_DS3505
ZGGG,2002-06-29 13:00,ZGGG 291300Z AUTO 16006KT 6SM 31/24 A2968 RMK T03100240 IEM_DS3505
ZGGG,2002-06-29 14:00,ZGGG 291400Z AUTO 19008KT 6SM 31/24 A2971 RMK T03100240 IEM_DS3505
ZGGG,2002-06-29 15:00,ZGGG 291500Z AUTO 18004KT 9SM 30/25 A2974 RMK SLP068 T03010247 52016 IEM_DS3505
ZGGG,2002-06-29 16:00,ZGGG 291600Z AUTO 19006KT 7SM 30/24 A2974 RMK T03000240 IEM_DS3505
ZGGG,2002-06-29 17:00,ZGGG 291700Z AUTO 21010KT 7SM 29/23 A2971 RMK T02900230 IEM_DS3505
ZGGG,2002-06-29 18:00,ZGGG 291800Z AUTO 18002KT 7SM 29/25 A2971 RMK SLP056 T02880254 57012 IEM_DS3505
ZGGG,2002-06-29 19:00,ZGGG 291900Z AUTO 18006KT 7SM 29/24 A2968 RMK T02900240 IEM_DS3505
ZGGG,2002-06-29 20:00,ZGGG 292000Z AUTO 18006KT 7SM 29/24 A2968 RMK T02900240 IEM_DS3505
ZGGG,2002-06-29 21:00,ZGGG 292100Z AUTO 14004KT 7SM 28/26 A2968 RMK SLP052 T02850257 57004 IEM_DS3505
ZGGG,2002-06-29 22:00,ZGGG 292200Z AUTO 20010KT 7SM 29/25 A2968 RMK T02900250 IEM_DS3505
ZGGG,2002-06-29 23:00,ZGGG 292300Z AUTO 19006KT 7SM 29/25 A2968 RMK T02900250 IEM_DS3505
ZGGG,2002-06-30 00:00,ZGGG 300000Z AUTO 14004KT 7SM 29/26 A2971 RMK SLP057 T02900261 52005 IEM_DS3505
ZGGG,2002-06-30 00:30,ZGGG 300030Z AUTO 20010KT 7SM 29/24 A2971 RMK T02900240 IEM_DS3505
ZGGG,2002-06-30 01:00,ZGGG 300100Z AUTO 22010KT 7SM 30/24 A2971 RMK T03000240 IEM_DS3505
ZGGG,2002-06-30 01:30,ZGGG 300130Z AUTO 22012KT 7SM 31/24 A2971 RMK T03100240 IEM_DS3505
ZGGG,2002-06-30 02:00,ZGGG 300200Z AUTO 22010KT 7SM 31/24 A2971 RMK T03100240 IEM_DS3505
ZGGG,2002-06-30 03:00,ZGGG 300300Z AUTO 22004KT 8SM 32/25 A2968 RMK SLP052 T03170248 57005 IEM_DS3505
ZGGG,2002-06-30 04:00,ZGGG 300400Z AUTO 25004KT 7SM 31/25 A2968 RMK T03100250 IEM_DS3505
ZGGG,2002-06-30 05:00,ZGGG 300500Z AUTO 23008KT 2SM 32/25 A2968 RMK T03200250 IEM_DS3505
ZGGG,2002-06-30 06:00,ZGGG 300600Z AUTO 22002KT 11SM 26/24 A2968 RMK 60035 SLP050 T02560245 57002 IEM_DS3505
ZGGG,2002-06-30 07:00,ZGGG 300700Z AUTO 26002KT 4SM 25/25 A2965 RMK T02500250 IEM_DS3505
ZGGG,2002-06-30 08:00,ZGGG 300800Z AUTO 10004KT 4SM 26/25 A2965 RMK T02600250 IEM_DS3505
ZGGG,2002-06-30 09:00,ZGGG 300900Z AUTO 00000KT 7SM 27/25 A2965 RMK SLP042 T02740254 57008 IEM_DS3505
ZGGG,2002-06-30 10:00,ZGGG 301000Z AUTO 03006KT 3SM 27/26 A2965 RMK T02700260 IEM_DS3505
ZGGG,2002-06-30 11:00,ZGGG 301100Z AUTO 05004KT 3SM 27/26 A2965 RMK T02700260 IEM_DS3505
ZGGG,2002-06-30 12:00,ZGGG 301200Z AUTO 09004KT 7SM 27/25 A2965 RMK 60002 SLP045 T02660253 52003 IEM_DS3505
ZGGG,2002-06-30 13:00,ZGGG 301300Z AUTO 16002KT 4SM 27/26 A2968 RMK T02700260 IEM_DS3505
ZGGG,2002-06-30 14:00,ZGGG 301400Z AUTO 00000KT 4SM 27/25 A2968 RMK T02700250 IEM_DS3505
ZGGG,2002-06-30 15:00,ZGGG 301500Z AUTO 00000KT 6SM 26/25 A2971 RMK SLP056 T02620248 52011 IEM_DS3505
ZGGG,2002-06-30 16:00,ZGGG 301600Z AUTO 08004KT 2 1/2SM 27/25 A2968 RMK T02700250 IEM_DS3505
ZGGG,2002-06-30 17:00,ZGGG 301700Z AUTO 00000KT 2 1/2SM 27/25 A2965 RMK T02700250 IEM_DS3505
ZGGG,2002-06-30 18:00,ZGGG 301800Z AUTO 14002KT 4SM 26/24 A2965 RMK 60003 SLP043 T02600243 57014 IEM_DS3505
ZGGG,2002-06-30 19:00,ZGGG 301900Z AUTO 16006KT 2 1/2SM 27/25 A2962 RMK T02700250 IEM_DS3505
ZGGG,2002-06-30 20:00,ZGGG 302000Z AUTO 13004KT 3SM 27/26 A2962 RMK T02700260 IEM_DS3505
ZGGG,2002-06-30 21:00,ZGGG 302100Z AUTO 14004KT 2SM 26/24 A2962 RMK 70036 SLP038 T02590243 57005 IEM_DS3505
ZGGG,2002-06-30 22:00,ZGGG 302200Z AUTO 14006KT 2 1/2SM 27/26 A2965 RMK T02700260 IEM_DS3505
ZGGG,2002-06-30 23:00,ZGGG 302300Z AUTO 15008KT 2SM 27/26 A2965 RMK T02700260 IEM_DS3505
ZGGG,2002-07-01 00:00,ZGGG 010000Z AUTO 09004KT 2 1/2SM 27/25 A2965 RMK 70036 SLP046 T02690252 52008 IEM_DS3505
ZGGG,2002-07-01 01:00,ZGGG 010100Z AUTO 16006KT 4SM 28/25 A2965 RMK T02800250 IEM_DS3505
ZGGG,2002-07-01 02:00,ZGGG 010200Z AUTO 16006KT 7SM 29/25 A2968 RMK T02900250 IEM_DS3505
ZGGG,2002-07-01 03:00,ZGGG 010300Z AUTO 16006KT 9SM 30/25 A2968 RMK SLP050 T02960253 52005 IEM_DS3505
ZGGG,2002-07-01 04:00,ZGGG 010400Z AUTO 16006KT 7SM 29/24 A2968 RMK T02900240 IEM_DS3505
ZGGG,2002-07-01 05:00,ZGGG 010500Z AUTO 22004KT 7SM 29/25 A2968 RMK T02900250 IEM_DS3505
ZGGG,2002-07-01 06:00,ZGGG 010600Z AUTO 00000KT 6SM 27/26 A2965 RMK 60043 SLP049 T02710260 57002 IEM_DS3505
ZGGG,2002-07-01 07:00,ZGGG 010700Z AUTO 03002KT 7SM 28/24 A2968 RMK T02800240 IEM_DS3505
ZGGG,2002-07-01 08:00,ZGGG 010800Z AUTO 06004KT 7SM 27/25 A2965 RMK T02700250 IEM_DS3505
ZGGG,2002-07-01 09:00,ZGGG 010900Z AUTO 00000KT 8SM 28/26 A2968 RMK SLP049 T02780256 54000 IEM_DS3505
ZGGG,2002-07-01 10:00,ZGGG 011000Z AUTO 14008KT 4SM 24/24 A2968 RMK T02400240 IEM_DS3505
ZGGG,2002-07-01 11:00,ZGGG 011100Z AUTO 16002KT 4SM 23/23 A2968 RMK T02300230 IEM_DS3505
ZGGG,2002-07-01 12:00,ZGGG 011200Z AUTO 11002KT 9SM 24/23 A2968 RMK 60071 SLP056 T02440232 52007 IEM_DS3505
ZGGG,2002-07-01 13:00,ZGGG 011300Z AUTO 20004KT 7SM 25/24 A2971 RMK T02500240 IEM_DS3505
ZGGG,2002-07-01 14:00,ZGGG 011400Z AUTO 00000KT 7SM 25/24 A2971 RMK T02500240 IEM_DS3505
ZGGG,2002-07-01 15:00,ZGGG 011500Z AUTO 00000KT 9SM 24/23 A2974 RMK SLP063 T02440234 52007 IEM_DS3505
ZGGG,2002-07-01 16:00,ZGGG 011600Z AUTO 00000KT 4SM 24/24 A2974 RMK T02400240 IEM_DS3505
ZGGG,2002-07-01 17:00,ZGGG 011700Z AUTO 00000KT 7SM 25/24 A2971 RMK T02500240 IEM_DS3505
ZGGG,2002-07-01 18:00,ZGGG 011800Z AUTO 00000KT 6SM 24/24 A2968 RMK 60016 SLP054 T02430237 57009 IEM_DS3505
ZGGG,2002-07-01 19:00,ZGGG 011900Z AUTO 00000KT 3SM 24/24 A2968 RMK T02400240 IEM_DS3505
ZGGG,2002-07-01 20:00,ZGGG 012000Z AUTO 00000KT 2 1/2SM 25/25 A2968 RMK T02500250 IEM_DS3505
ZGGG,2002-07-01 21:00,ZGGG 012100Z AUTO 00000KT 5SM 25/24 A2968 RMK 70129 SLP054 T02480242 54000 IEM_DS3505
ZGGG,2002-07-01 22:00,ZGGG 012200Z AUTO 00000KT 1 1/4SM 25/25 A2971 RMK T02500250 IEM_DS3505
ZGGG,2002-07-01 23:00,ZGGG 012300Z AUTO 00000KT 1 1/4SM 26/26 A2971 RMK T02600260 IEM_DS3505
ZGGG,2002-07-02 00:00,ZGGG 020000Z AUTO 00000KT 4SM 26/26 A2971 RMK 60002 SLP060 T02620255 52006 IEM_DS3505
ZGGG,2002-07-02 01:00,ZGGG 020100Z AUTO 00000KT 1SM 27/26 A2971 RMK T02700260 IEM_DS3505
ZGGG,2002-07-02 02:00,ZGGG 020200Z AUTO 00000KT 1SM 27/26 A2974 RMK T02700260 IEM_DS3505
ZGGG,2002-07-02 03:00,ZGGG 020300Z AUTO 00000KT 1 1/2SM 28/27 A2974 RMK SLP071 T02770267 52011 IEM_DS3505
ZGGG,2002-07-02 05:00,ZGGG 020500Z AUTO 16004KT 2 1/2SM 28/26 A2974 RMK T02800260 IEM_DS3505
ZGGG,2002-07-02 06:00,ZGGG 020600Z AUTO 20002KT 11SM 26/24 A2971 RMK 60008 SLP065 T02640244 57006 IEM_DS3505
ZGGG,2002-07-02 07:00,ZGGG 020700Z AUTO 17006KT 5SM 27/24 A2971 RMK T02700240 IEM_DS3505
ZGGG,2002-07-02 08:00,ZGGG 020800Z AUTO 20004KT 4SM 27/23 A2971 RMK T02700230 IEM_DS3505
ZGGG,2002-07-02 09:00,ZGGG 020900Z AUTO 18002KT 10SM 27/24 A2971 RMK SLP064 T02720243 57001 IEM_DS3505
ZGGG,2002-07-02 10:00,ZGGG 021000Z AUTO 15004KT 4SM 27/25 A2971 RMK T02700250 IEM_DS3505
ZGGG,2002-07-02 11:00,ZGGG 021100Z AUTO 11002KT 4SM 27/25 A2971 RMK T02700250 IEM_DS3505
ZGGG,2002-07-02 12:00,ZGGG 021200Z AUTO 11002KT 9SM 26/25 RMK 60008 SLP068 T02600249 52004 IEM_DS3505
ZGGG,2002-07-02 13:00,ZGGG 021300Z AUTO 00000KT 4SM RMK IEM_DS3505
ZGGG,2002-07-02 14:00,ZGGG 021400Z AUTO 21002KT 5SM 26/25 A2974 RMK T02600250 IEM_DS3505
ZGGG,2002-07-02 15:00,ZGGG 021500Z AUTO 00000KT 7SM 25/24 A2977 RMK SLP078 T02520245 52010 IEM_DS3505
ZGGG,2002-07-02 16:00,ZGGG 021600Z AUTO 15002KT 6SM 26/24 A2977 RMK T02600240 IEM_DS3505
ZGGG,2002-07-02 17:00,ZGGG 021700Z AUTO 06002KT 6SM 26/24 A2974 RMK T02600240 IEM_DS3505
ZGGG,2002-07-02 18:00,ZGGG 021800Z AUTO 00000KT 7SM 25/24 A2971 RMK 60000 SLP066 T02510242 57012 IEM_DS3505
ZGGG,2002-07-02 19:00,ZGGG 021900Z AUTO 00000KT 6SM 26/24 A2971 RMK T02600240 IEM_DS3505
ZGGG,2002-07-02 20:00,ZGGG 022000Z AUTO 03004KT 2SM 24/24 A2971 RMK T02400240 IEM_DS3505
ZGGG,2002-07-02 21:00,ZGGG 022100Z AUTO 00000KT 4SM 25/24 A2971 RMK 70013 SLP059 T02470241 57007 IEM_DS3505
ZGGG,2002-07-02 22:00,ZGGG 022200Z AUTO 01002KT 2SM 24/24 A2971 RMK T02400240 IEM_DS3505
ZGGG,2002-07-02 23:00,ZGGG 022300Z AUTO 03002KT 2 1/2SM 26/25 A2971 RMK T02600250 IEM_DS3505
ZGGG,2002-07-03 00:00,ZGGG 030000Z AUTO 00000KT 7SM 28/24 A2974 RMK 70013 SLP066 T02760245 52007 IEM_DS3505
ZGGG,2002-07-03 01:00,ZGGG 030100Z AUTO 33002KT 3SM 28/24 A2974 RMK T02800240 IEM_DS3505
ZGGG,2002-07-03 02:00,ZGGG 030200Z AUTO 00000KT 3SM 29/24 A2971 RMK T02900240 IEM_DS3505
ZGGG,2002-07-03 03:00,ZGGG 030300Z AUTO 00000KT 11SM 31/24 A2971 RMK SLP063 T03060244 57002 IEM_DS3505
ZGGG,2002-07-03 04:00,ZGGG 030400Z AUTO 33002KT 3SM 30/24 A2971 RMK T03000240 IEM_DS3505
ZGGG,2002-07-03 05:00,ZGGG 030500Z AUTO 36002KT 32/25 A2968 RMK T03200250 IEM_DS3505
ZGGG,2002-07-03 06:00,ZGGG 030600Z AUTO 02004KT 10SM 32/25 A2965 RMK SLP039 T03190250 57024 IEM_DS3505
ZGGG,2002-07-03 07:00,ZGGG 030700Z AUTO 03006KT 32/24 A2962 RMK T03200240 IEM_DS3505
ZGGG,2002-07-03 08:00,ZGGG 030800Z AUTO 05006KT 1 1/4SM 25/25 A2965 RMK T02500250 IEM_DS3505
ZGGG,2002-07-03 09:00,ZGGG 030900Z AUTO 00000KT 8SM 26/25 A2965 RMK SLP037 T02560249 57003 IEM_DS3505
ZGGG,2002-07-03 10:00,ZGGG 031000Z AUTO 06002KT 2 1/2SM 26/26 A2962 RMK T02600260 IEM_DS3505
ZGGG,2002-07-03 11:00,ZGGG 031100Z AUTO 02004KT 2 1/2SM 26/25 A2965 RMK T02600250 IEM_DS3505
ZGGG,2002-07-03 12:00,ZGGG 031200Z AUTO 00000KT 3SM 26/25 A2965 RMK 60157 SLP044 T02600252 52007 IEM_DS3505
ZGGG,2002-07-03 13:00,ZGGG 031300Z AUTO 00000KT 2SM 26/25 A2968 RMK T02600250 IEM_DS3505
ZGGG,2002-07-03 14:00,ZGGG 031400Z AUTO 00000KT 1 1/2SM 26/26 A2968 RMK T02600260 IEM_DS3505
ZGGG,2002-07-03 15:00,ZGGG 031500Z AUTO 34002KT 2 1/2SM 26/25 A2968 RMK SLP053 T02590252 52010 IEM_DS3505
ZGGG,2002-07-03 16:00,ZGGG 031600Z AUTO 00000KT 1 1/4SM 26/26 A2968 RMK T02600260 IEM_DS3505
ZGGG,2002-07-03 17:00,ZGGG 031700Z AUTO 00000KT 1SM 26/26 A2965 RMK T02600260 IEM_DS3505
ZGGG,2002-07-03 18:00,ZGGG 031800Z AUTO 00000KT 1SM 26/25 A2962 RMK 60000 SLP032 T02550249 57021 IEM_DS3505
ZGGG,2002-07-03 19:00,ZGGG 031900Z AUTO 00000KT 1SM 25/25 A2962 RMK T02500250 IEM_DS3505
ZGGG,2002-07-03 20:00,ZGGG 032000Z AUTO 00000KT 1 1/2SM 26/26 A2962 RMK T02600260 IEM_DS3505
ZGGG,2002-07-03 21:00,ZGGG 032100Z AUTO 36002KT 1SM 25/25 A2962 RMK 70159 SLP030 T02520246 57003 IEM_DS3505
ZGGG,2002-07-03 22:00,ZGGG 032200Z AUTO 00000KT 1SM 26/26 A2962 RMK T02600260 IEM_DS3505
ZGGG,2002-07-03 23:00,ZGGG 032300Z AUTO 00000KT 1SM 26/26 A2962 RMK T02600260 IEM_DS3505
ZGGG,2002-07-04 00:00,ZGGG 040000Z AUTO 00000KT 3SM 28/25 A2965 RMK 70159 SLP036 T02800249 52007 IEM_DS3505
ZGGG,2002-07-04 01:00,ZGGG 040100Z AUTO 00000KT 2SM 28/24 A2962 RMK T02800240 IEM_DS3505
ZGGG,2002-07-04 02:00,ZGGG 040200Z AUTO 00000KT 3SM 29/24 A2962 RMK T02900240 IEM_DS3505
ZGGG,2002-07-04 03:00,ZGGG 040300Z AUTO 34004KT 11SM 31/24 A2962 RMK SLP033 T03140240 57003 IEM_DS3505
ZGGG,2002-07-04 04:00,ZGGG 040400Z AUTO 00000KT 7SM 31/24 A2959 RMK T03100240 IEM_DS3505
ZGGG,2002-07-04 05:00,ZGGG 040500Z AUTO 00000KT 7SM 32/24 A2959 RMK T03200240 IEM_DS3505
ZGGG,2002-07-04 06:00,ZGGG 040600Z AUTO 25002KT 12SM 34/24 A2956 RMK SLP008 T03370240 57025 IEM_DS3505
ZGGG,2002-07-04 07:00,ZGGG 040700Z AUTO 00000KT 7SM 33/24 A2953 RMK T03300240 IEM_DS3505
ZGGG,2002-07-04 08:00,ZGGG 040800Z AUTO 00000KT 7SM 33/23 A2950 RMK T03300230 IEM_DS3505
ZGGG,2002-07-04 09:00,ZGGG 040900Z AUTO 00000KT 11SM 33/26 A2950 RMK SLP990 T03280260 57018 IEM_DS3505
ZGGG,2002-07-04 10:00,ZGGG 041000Z AUTO 00000KT 4SM 33/24 A2950 RMK T03300240 IEM_DS3505
ZGGG,2002-07-04 11:00,ZGGG 041100Z AUTO 21008KT 2SM 32/25 A2950 RMK T03200250 IEM_DS3505
ZGGG,2002-07-04 12:00,ZGGG 041200Z AUTO 25002KT 7SM 30/25 A2953 RMK SLP007 T03030253 52017 IEM_DS3505
ZGGG,2002-07-04 13:00,ZGGG 041300Z AUTO 18006KT 3SM 30/24 A2956 RMK T03000240 IEM_DS3505
ZGGG,2002-07-04 14:00,ZGGG 041400Z AUTO 17006KT 3SM 30/25 A2956 RMK T03000250 IEM_DS3505
ZGGG,2002-07-04 15:00,ZGGG 041500Z AUTO 21006KT 4SM 29/25 A2956 RMK T02900250 IEM_DS3505
ZGGG,2002-07-04 16:00,ZGGG 041600Z AUTO 20002KT 6SM 29/24 A2956 RMK T02900240 IEM_DS3505
ZGGG,2002-07-04 18:00,ZGGG 041800Z AUTO 00000KT 6SM 28/26 A2956 RMK SLP009 T02780256 57007 IEM_DS3505
ZGGG,2002-07-04 19:00,ZGGG 041900Z AUTO 00000KT 4SM 27/25 A2953 RMK T02700250 IEM_DS3505
ZGGG,2002-07-04 20:00,ZGGG 042000Z AUTO 00000KT 2 1/2SM 28/25 A2953 RMK T02800250 IEM_DS3505
ZGGG,2002-07-04 21:00,ZGGG 042100Z AUTO 00000KT 6SM 27/26 A2953 RMK SLP000 T02700256 57009 IEM_DS3505
ZGGG,2002-07-04 22:00,ZGGG 042200Z AUTO 00000KT 2 1/2SM 27/25 A2956 RMK T02700250 IEM_DS3505
ZGGG,2002-07-04 23:00,ZGGG 042300Z AUTO 00000KT 1 1/2SM 28/26 A2956 RMK T02800260 IEM_DS3505
ZGGG,2002-07-05 00:00,ZGGG 050000Z AUTO 07002KT 5SM 29/26 A2959 RMK SLP018 T02910262 52018 IEM_DS3505
ZGGG,2002-07-05 01:00,ZGGG 050100Z AUTO 00000KT 1 1/2SM 30/26 A2959 RMK T03000260 IEM_DS3505
ZGGG,2002-07-05 02:00,ZGGG 050200Z AUTO 00000KT 2SM 31/26 A2959 RMK T03100260 IEM_DS3505
ZGGG,2002-07-05 03:00,ZGGG 050300Z AUTO 04004KT 6SM 34/26 A2959 RMK SLP020 T03360262 52002 IEM_DS3505
ZGGG,2002-07-05 04:00,ZGGG 050400Z AUTO 00000KT 3SM 33/26 A2956 RMK T03300260 IEM_DS3505
ZGGG,2002-07-05 05:00,ZGGG 050500Z AUTO 00000KT 34/26 A2953 RMK T03400260 IEM_DS3505
ZGGG,2002-07-05 06:00,ZGGG 050600Z AUTO 14004KT 11SM 36/25 A2950 RMK SLP000 T03550254 57020 IEM_DS3505
ZGGG,2002-07-05 07:00,ZGGG 050700Z AUTO 00000KT 35/26 A2950 RMK T03500260 IEM_DS3505
ZGGG,2002-07-05 09:00,ZGGG 050900Z AUTO 27004KT 9SM 33/25 A2947 RMK SLP984 T03290246 57016 IEM_DS3505
ZGGG,2002-07-05 10:00,ZGGG 051000Z AUTO 33008KT 3SM 26/25 A2950 RMK T02600250 IEM_DS3505
ZGGG,2002-07-05 11:00,ZGGG 051100Z AUTO 22006KT 3SM 26/26 A2953 RMK T02600260 IEM_DS3505
ZGGG,2002-07-05 12:00,ZGGG 051200Z AUTO 14004KT 7SM 26/25 RMK 60063 SLP024 T02550248 52040 IEM_DS3505
ZGGG,2002-07-05 13:00,ZGGG 051300Z AUTO 35002KT 3SM 26/25 A2959 RMK T02600250 IEM_DS3505
ZGGG,2002-07-05 14:00,ZGGG 051400Z AUTO 10004KT 3SM 26/25 A2959 RMK T02600250 IEM_DS3505
ZGGG,2002-07-05 15:00,ZGGG 051500Z AUTO 00000KT 7SM 27/26 A2959 RMK SLP023 T02660255 57001 IEM_DS3505
ZGGG,2002-07-05 16:00,ZGGG 051600Z AUTO 07004KT 3SM 27/26 A2959 RMK T02700260 IEM_DS3505
ZGGG,2002-07-05 17:00,ZGGG 051700Z AUTO 00000KT 3SM 27/26 A2959 RMK T02700260 IEM_DS3505
ZGGG,2002-07-05 18:00,ZGGG 051800Z AUTO 00000KT 4SM 26/25 A2956 RMK 60012 SLP015 T02630253 57008 IEM_DS3505
ZGGG,2002-07-05 19:00,ZGGG 051900Z AUTO 07002KT 2 1/2SM 26/26 A2956 RMK T02600260 IEM_DS3505
ZGGG,2002-07-05 20:00,ZGGG 052000Z AUTO 00000KT 2 1/2SM 26/26 A2953 RMK T02600260 IEM_DS3505
ZGGG,2002-07-05 21:00,ZGGG 052100Z AUTO 00000KT 7SM 26/25 A2953 RMK 70074 SLP002 T02610250 57013 IEM_DS3505
ZGGG,2002-07-05 22:00,ZGGG 052200Z AUTO 05006KT 2 1/2SM 26/26 A2953 RMK T02600260 IEM_DS3505
ZGGG,2002-07-05 23:00,ZGGG 052300Z AUTO 04006KT 1 1/2SM 26/26 A2956 RMK T02600260 IEM_DS3505
ZGGG,2002-07-06 00:00,ZGGG 060000Z AUTO 00000KT 7SM 28/25 A2956 RMK 70074 SLP016 T02790249 52014 IEM_DS3505
ZGGG,2002-07-06 01:00,ZGGG 060100Z AUTO 02004KT 2 1/2SM 29/25 A2959 RMK T02900250 IEM_DS3505
ZGGG,2002-07-06 02:00,ZGGG 060200Z AUTO 00000KT 3SM 30/26 A2959 RMK T03000260 IEM_DS3505
ZGGG,2002-07-06 03:00,ZGGG 060300Z AUTO 07004KT 6SM 31/26 A2959 RMK SLP019 T03140259 52003 IEM_DS3505
ZGGG,2002-07-06 04:00,ZGGG 060400Z AUTO 11002KT 32/26 A2956 RMK T03200260 IEM_DS3505
ZGGG,2002-07-06 05:00,ZGGG 060500Z AUTO 06004KT 4SM RMK IEM_DS3505
ZGGG,2002-07-06 06:00,ZGGG 060600Z AUTO 00000KT 9SM 34/26 A2950 RMK SLP989 T03420255 57030 IEM_DS3505
ZGGG,2002-07-06 07:00,ZGGG 060700Z AUTO 13002KT 7SM 34/24 A2947 RMK T03400240 IEM_DS3505
ZGGG,2002-07-06 08:00,ZGGG 060800Z AUTO 15006KT 3SM 34/25 A2944 RMK T03400250 IEM_DS3505
ZGGG,2002-07-06 09:00,ZGGG 060900Z AUTO 14004KT 7SM 32/26 A2947 RMK SLP977 T03200255 57012 IEM_DS3505
ZGGG,2002-07-06 10:00,ZGGG 061000Z AUTO 17004KT 3SM 31/24 A2947 RMK T03100240 IEM_DS3505
ZGGG,2002-07-06 11:00,ZGGG 061100Z AUTO 22008KT 3SM 30/24 A2950 RMK T03000240 IEM_DS3505
ZGGG,2002-07-06 12:00,ZGGG 061200Z AUTO 02010G25KT 6SM 29/24 A2956 RMK SLP007 T02940240 52030 IEM_DS3505
ZGGG,2002-07-06 13:00,ZGGG 061300Z AUTO 04008KT 2SM 25/25 A2956 RMK T02500250 IEM_DS3505
ZGGG,2002-07-06 15:00,ZGGG 061500Z AUTO 36002KT 10SM 26/24 A2956 RMK SLP016 T02580245 52009 IEM_DS3505
ZGGG,2002-07-06 16:00,ZGGG 061600Z AUTO 04008KT 4SM 25/25 A2956 RMK T02500250 IEM_DS3505
ZGGG,2002-07-06 17:00,ZGGG 061700Z AUTO 02006KT 4SM 25/25 A2956 RMK T02500250 IEM_DS3505
ZGGG,2002-07-06 18:00,ZGGG 061800Z AUTO 00000KT 9SM 26/24 A2953 RMK 60004 SLP002 T02580244 57014 IEM_DS3505
ZGGG,2002-07-06 19:00,ZGGG 061900Z AUTO 04008KT 4SM 25/25 A2953 RMK T02500250 IEM_DS3505
ZGGG,2002-07-06 20:00,ZGGG 062000Z AUTO 02006KT 4SM 26/25 A2953 RMK T02600250 IEM_DS3505
ZGGG,2002-07-06 21:00,ZGGG 062100Z AUTO 00000KT 7SM 26/24 A2950 RMK 70005 SLP994 T02550241 57008 IEM_DS3505
ZGGG,2002-07-06 22:00,ZGGG 062200Z AUTO 01006KT 6SM 26/24 A2953 RMK T02600240 IEM_DS3505
ZGGG,2002-07-06 23:00,ZGGG 062300Z AUTO 02008KT 4SM 26/25 A2953 RMK T02600250 IEM_DS3505
ZGGG,2002-07-07 00:00,ZGGG 070000Z AUTO 36004KT 11SM 27/24 A2953 RMK 70005 SLP998 T02700240 52004 IEM_DS3505
ZGGG,2002-07-07 01:00,ZGGG 070100Z AUTO 02006KT 4SM 27/24 A2953 RMK T02700240 IEM_DS3505
ZGGG,2002-07-07 02:00,ZGGG 070200Z AUTO 01004KT 4SM 28/24 A2953 RMK T02800240 IEM_DS3505
ZGGG,2002-07-07 03:00,ZGGG 070300Z AUTO 29002KT 11SM 30/25 A2953 RMK SLP000 T03040246 52002 IEM_DS3505
ZGGG,2002-07-07 04:00,ZGGG 070400Z AUTO 06002KT 7SM 31/24 A2953 RMK T03100240 IEM_DS3505
ZGGG,2002-07-07 05:00,ZGGG 070500Z AUTO 00000KT 7SM 31/24 A2950 RMK T03100240 IEM_DS3505
ZGGG,2002-07-07 06:00,ZGGG 070600Z AUTO 32002KT 11SM 33/25 A2944 RMK SLP975 T03280253 57025 IEM_DS3505
ZGGG,2002-07-07 07:00,ZGGG 070700Z AUTO 36004KT 7SM 32/25 A2944 RMK T03200250 IEM_DS3505
ZGGG,2002-07-07 08:00,ZGGG 070800Z AUTO 35004KT 7SM 33/26 A2941 RMK T03300260 IEM_DS3505
ZGGG,2002-07-07 09:00,ZGGG 070900Z AUTO 09006KT 11SM 33/26 A2941 RMK SLP963 T03260260 57012 IEM_DS3505
ZGGG,2002-07-07 10:00,ZGGG 071000Z AUTO 14008KT 7SM 28/25 A2941 RMK T02800250 IEM_DS3505
ZGGG,2002-07-07 11:00,ZGGG 071100Z AUTO 21006KT 7SM 28/24 A2944 RMK T02800240 IEM_DS3505
ZGGG,2002-07-07 12:00,ZGGG 071200Z AUTO 00000KT 9SM 28/25 A2950 RMK 60003 SLP987 T02780253 52024 IEM_DS3505
ZGGG,2002-07-07 13:00,ZGGG 071300Z AUTO 36008KT 4SM RMK IEM_DS3505
ZGGG,2002-07-07 14:00,ZGGG 071400Z AUTO 04010KT 4SM 26/26 A2953 RMK T02600260 IEM_DS3505
ZGGG,2002-07-07 15:00,ZGGG 071500Z AUTO 00000KT 13SM 26/25 A2953 RMK SLP995 T02570246 52008 IEM_DS3505
ZGGG,2002-07-07 16:00,ZGGG 071600Z AUTO 06006KT 4SM 26/26 A2953 RMK T02600260 IEM_DS3505
ZGGG,2002-07-07 17:00,ZGGG 071700Z AUTO 04006KT 5SM 26/26 A2950 RMK T02600260 IEM_DS3505
ZGGG,2002-07-07 18:00,ZGGG 071800Z AUTO 34002KT 11SM 26/24 A2947 RMK 60071 SLP983 T02560243 57012 IEM_DS3505
ZGGG,2002-07-07 19:00,ZGGG 071900Z AUTO 05006KT 6SM 26/25 A2947 RMK T02600250 IEM_DS3505
ZGGG,2002-07-07 20:00,ZGGG 072000Z AUTO 04006KT 6SM 26/24 A2947 RMK T02600240 IEM_DS3505
ZGGG,2002-07-07 21:00,ZGGG 072100Z AUTO 36002KT 10SM 26/24 A2947 RMK 70072 SLP980 T02580244 57003 IEM_DS3505
ZGGG,2002-07-07 22:00,ZGGG 072200Z AUTO 04004KT 6SM 26/24 A2947 RMK T02600240 IEM_DS3505
ZGGG,2002-07-07 23:00,ZGGG 072300Z AUTO 01006KT 6SM 27/24 A2950 RMK T02700240 IEM_DS3505
ZGGG,2002-07-08 00:00,ZGGG 080000Z AUTO 36004KT 11SM 27/24 A2950 RMK 70072 SLP993 T02740243 52013 IEM_DS3505
ZGGG,2002-07-08 01:00,ZGGG 080100Z AUTO 02006KT 7SM 28/24 A2953 RMK T02800240 IEM_DS3505
ZGGG,2002-07-08 02:00,ZGGG 080200Z AUTO 02004KT 7SM 27/24 A2953 RMK T02700240 IEM_DS3505
ZGGG,2002-07-08 03:00,ZGGG 080300Z AUTO 36004KT 12SM 29/24 A2953 RMK SLP999 T02890244 52006 IEM_DS3505
ZGGG,2002-07-08 04:00,ZGGG 080400Z AUTO 02008KT 7SM 30/24 A2953 RMK T03000240 IEM_DS3505
ZGGG,2002-07-08 05:00,ZGGG 080500Z AUTO 03008KT 7SM 31/24 A2950 RMK T03100240 IEM_DS3505
ZGGG,2002-07-08 06:00,ZGGG 080600Z AUTO 00000KT 16SM 32/24 A2947 RMK 60003 SLP978 T03170242 57021 IEM_DS3505
ZGGG,2002-07-08 07:00,ZGGG 080700Z AUTO 03008KT 7SM 33/24 A2944 RMK T03300240 IEM_DS3505
ZGGG,2002-07-08 08:00,ZGGG 080800Z AUTO 36006KT 7SM 31/24 A2944 RMK T03100240 IEM_DS3505
ZGGG,2002-07-08 09:00,ZGGG 080900Z AUTO 32004KT 17SM 28/24 A2944 RMK SLP969 T02770244 57009 IEM_DS3505
ZGGG,2002-07-08 10:00,ZGGG 081000Z AUTO 36010KT 7SM 28/23 A2944 RMK T02800230 IEM_DS3505
ZGGG,2002-07-08 11:00,ZGGG 081100Z AUTO 02010KT 7SM 29/23 A2944 RMK T02900230 IEM_DS3505
ZGGG,2002-07-08 12:00,ZGGG 081200Z AUTO 36006KT 13SM 28/23 A2947 RMK 60002 SLP983 T02780230 52014 IEM_DS3505
ZGGG,2002-07-08 13:00,ZGGG 081300Z AUTO 01008KT 7SM 28/23 A2947 RMK T02800230 IEM_DS3505
ZGGG,2002-07-08 14:00,ZGGG 081400Z AUTO 36008KT 6SM 28/23 A2950 RMK T02800230 IEM_DS3505
ZGGG,2002-07-08 15:00,ZGGG 081500Z AUTO 36002KT 12SM 27/24 A2950 RMK SLP995 T02680235 52012 IEM_DS3505
ZGGG,2002-07-08 16:00,ZGGG 081600Z AUTO 36004KT 6SM 27/23 A2950 RMK T02700230 IEM_DS3505
ZGGG,2002-07-08 17:00,ZGGG 081700Z AUTO 36006KT 6SM 27/23 A2947 RMK T02700230 IEM_DS3505
ZGGG,2002-07-08 18:00,ZGGG 081800Z AUTO 32002KT 9SM 26/24 A2947 RMK SLP982 T02630239 57013 IEM_DS3505
ZGGG,2002-07-08 19:00,ZGGG 081900Z AUTO 34004KT 6SM 27/24 A2947 RMK T02700240 IEM_DS3505
ZGGG,2002-07-08 20:00,ZGGG 082000Z AUTO 35004KT 6SM 27/24 A2944 RMK T02700240 IEM_DS3505
ZGGG,2002-07-08 21:00,ZGGG 082100Z AUTO 34004KT 9SM 26/24 A2944 RMK 70002 SLP968 T02620236 57014 IEM_DS3505
ZGGG,2002-07-08 22:00,ZGGG 082200Z AUTO 35002KT 5SM 26/23 A2944 RMK T02600230 IEM_DS3505
ZGGG,2002-07-08 23:00,ZGGG 082300Z AUTO 36004KT 3SM 27/23 A2947 RMK T02700230 IEM_DS3505
ZGGG,2002-07-09 00:00,ZGGG 090000Z AUTO 32004KT 9SM 28/24 A2947 RMK 70002 SLP984 T02850239 52016 IEM_DS3505
ZGGG,2002-07-09 01:00,ZGGG 090100Z AUTO 35006KT 29/23 A2950 RMK T02900230 IEM_DS3505
ZGGG,2002-07-09 02:00,ZGGG 090200Z AUTO 35008KT 29/22 A2950 RMK T02900220 IEM_DS3505
ZGGG,2002-07-09 03:00,ZGGG 090300Z AUTO 36004KT 9SM 32/23 A2947 RMK SLP984 T03150230 54000 IEM_DS3505
ZGGG,2002-07-09 04:00,ZGGG 090400Z AUTO 36008KT 32/23 A2947 RMK T03200230 IEM_DS3505
ZGGG,2002-07-09 05:00,ZGGG 090500Z AUTO 01010KT 7SM 32/22 A2944 RMK T03200220 IEM_DS3505
ZGGG,2002-07-09 06:00,ZGGG 090600Z AUTO 34008KT 13SM 33/23 A2944 RMK SLP971 T03320226 57013 IEM_DS3505
ZGGG,2002-07-09 07:00,ZGGG 090700Z AUTO 36008KT 7SM 33/22 A2944 RMK T03300220 IEM_DS3505
ZGGG,2002-07-09 08:00,ZGGG 090800Z AUTO 01010KT 7SM 33/21 A2944 RMK T03300210 IEM_DS3505
ZGGG,2002-07-09 09:00,ZGGG 090900Z AUTO 02004KT 11SM 32/21 A2944 RMK SLP968 T03180214 57003 IEM_DS3505
ZGGG,2002-07-09 10:00,ZGGG 091000Z AUTO 02010KT 32/22 A2944 RMK T03200220 IEM_DS3505
ZGGG,2002-07-09 11:00,ZGGG 091100Z AUTO 02008KT 32/21 A2944 RMK T03200210 IEM_DS3505
ZGGG,2002-07-09 12:00,ZGGG 091200Z AUTO 02004KT 9SM 30/21 A2947 RMK SLP980 T03010209 52012 IEM_DS3505
ZGGG,2002-07-09 13:00,ZGGG 091300Z AUTO 03008KT 31/21 A2947 RMK T03100210 IEM_DS3505
ZGGG,2002-07-09 14:00,ZGGG 091400Z AUTO 06004KT 29/22 A2950 RMK T02900220 IEM_DS3505
ZGGG,2002-07-09 15:00,ZGGG 091500Z AUTO 00000KT 11SM 28/22 A2950 RMK SLP990 T02780222 52010 IEM_DS3505
ZGGG,2002-07-09 16:00,ZGGG 091600Z AUTO 1/8SM A2950 RMK IEM_DS3505
ZGGG,2002-07-09 17:00,ZGGG 091700Z AUTO 1/8SM A2950 RMK IEM_DS3505
ZGGG,2002-07-09 18:00,ZGGG 091800Z AUTO 02002KT 9SM 28/22 A2947 RMK SLP982 T02790216 57008 IEM_DS3505
ZGGG,2002-07-09 19:00,ZGGG 091900Z AUTO 06006KT 4SM 27/22 A2947 RMK T02700220 IEM_DS3505
ZGGG,2002-07-09 20:00,ZGGG 092000Z AUTO 07002KT 27/21 A2947 RMK T02700210 IEM_DS3505
ZGGG,2002-07-09 21:00,ZGGG 092100Z AUTO 00000KT 7SM 26/22 A2947 RMK SLP984 T02620225 52002 IEM_DS3505
ZGGG,2002-07-09 22:00,ZGGG 092200Z AUTO 04006KT 4SM 26/22 A2950 RMK T02600220 IEM_DS3505
ZGGG,2002-07-09 23:00,ZGGG 092300Z AUTO 03006KT 5SM 27/22 A2950 RMK T02700220 IEM_DS3505
ZGGG,2002-07-10 00:00,ZGGG 100000Z AUTO 32004KT 10SM 29/23 A2950 RMK SLP995 T02870229 52011 IEM_DS3505
ZGGG,2002-07-10 01:00,ZGGG 100100Z AUTO 36006KT 5SM 29/23 A2953 RMK T02900230 IEM_DS3505
ZGGG,2002-07-10 02:00,ZGGG 100200Z AUTO 36006KT 5SM 30/23 A2953 RMK T03000230 IEM_DS3505
ZGGG,2002-07-10 03:00,ZGGG 100300Z AUTO 32004KT 10SM 32/23 A2953 RMK SLP001 T03190229 52006 IEM_DS3505
ZGGG,2002-07-10 04:00,ZGGG 100400Z AUTO 05006KT 31/22 A2950 RMK T03100220 IEM_DS3505
ZGGG,2002-07-10 05:00,ZGGG 100500Z AUTO 03006KT 7SM 32/22 A2950 RMK T03200220 IEM_DS3505
ZGGG,2002-07-10 06:00,ZGGG 100600Z AUTO 32004KT 14SM 33/23 A2947 RMK SLP986 T03340231 57015 IEM_DS3505
ZGGG,2002-07-10 07:00,ZGGG 100700Z AUTO 35006KT 7SM 33/22 A2947 RMK T03300220 IEM_DS3505
ZGGG,2002-07-10 08:00,ZGGG 100800Z AUTO 34004KT 7SM 33/22 A2944 RMK T03300220 IEM_DS3505
ZGGG,2002-07-10 09:00,ZGGG 100900Z AUTO 36004KT 11SM 34/23 A2944 RMK SLP974 T03360227 57012 IEM_DS3505
ZGGG,2002-07-10 10:00,ZGGG 101000Z AUTO 01004KT 7SM 33/22 A2944 RMK T03300220 IEM_DS3505
ZGGG,2002-07-10 11:00,ZGGG 101100Z AUTO 02006KT 6SM 32/21 A2947 RMK T03200210 IEM_DS3505
ZGGG,2002-07-10 12:00,ZGGG 101200Z AUTO 09002KT 10SM 31/24 A2947 RMK SLP988 T03090236 52014 IEM_DS3505
ZGGG,2002-07-10 13:00,ZGGG 101300Z AUTO 06004KT 6SM 31/22 A2950 RMK T03100220 IEM_DS3505
ZGGG,2002-07-10 14:00,ZGGG 101400Z AUTO 08004KT 6SM 30/22 A2953 RMK T03000220 IEM_DS3505
ZGGG,2002-07-10 15:00,ZGGG 101500Z AUTO 07004KT 9SM 29/23 A2953 RMK SLP003 T02880233 52015 IEM_DS3505
ZGGG,2002-07-10 16:00,ZGGG 101600Z AUTO 00000KT 6SM 29/22 A2953 RMK T02900220 IEM_DS3505
ZGGG,2002-07-10 17:00,ZGGG 101700Z AUTO 00000KT 6SM 29/23 A2953 RMK T02900230 IEM_DS3505
ZGGG,2002-07-10 18:00,ZGGG 101800Z AUTO 00000KT 7SM 28/24 A2953 RMK SLP001 T02780238 57002 IEM_DS3505
ZGGG,2002-07-10 19:00,ZGGG 101900Z AUTO 00000KT 3SM 28/23 A2950 RMK T02800230 IEM_DS3505
ZGGG,2002-07-10 20:00,ZGGG 102000Z AUTO 00000KT 3SM 28/24 A2953 RMK T02800240 IEM_DS3505
ZGGG,2002-07-10 21:00,ZGGG 102100Z AUTO 00000KT 8SM 27/24 A2953 RMK SLP001 T02740243 54000 IEM_DS3505
ZGGG,2002-07-10 22:00,ZGGG 102200Z AUTO 06002KT 2 1/2SM 27/24 A2956 RMK T02700240 IEM_DS3505
ZGGG,2002-07-10 23:00,ZGGG 102300Z AUTO 00000KT 3SM 28/24 A2956 RMK T02800240 IEM_DS3505
ZGGG,2002-07-11 00:00,ZGGG 110000Z AUTO 00000KT 7SM 29/24 A2956 RMK SLP012 T02860243 52011 IEM_DS3505
ZGGG,2002-07-11 01:00,ZGGG 110100Z AUTO 30004KT 1 1/2SM 30/24 A2956 RMK T03000240 IEM_DS3505
ZGGG,2002-07-11 02:00,ZGGG 110200Z AUTO 00000KT 1 1/2SM 31/24 A2956 RMK T03100240 IEM_DS3505
ZGGG,2002-07-11 03:00,ZGGG 110300Z AUTO 24004KT 2SM 32/24 A2956 RMK T03200240 IEM_DS3505
ZGGG,2002-07-11 04:00,ZGGG 110400Z AUTO 27004KT 2SM 33/24 A2953 RMK T03300240 IEM_DS3505
ZGGG,2002-07-11 05:00,ZGGG 110500Z AUTO 36004KT 2 1/2SM 34/23 A2953 RMK T03400230 IEM_DS3505
ZGGG,2002-07-11 06:00,ZGGG 110600Z AUTO 18002KT 2 1/2SM 31/25 A2950 RMK 60003 SLP996 T03120249 57012 IEM_DS3505
ZGGG,2002-07-11 07:00,ZGGG 110700Z AUTO 14004KT 1 1/4SM 32/25 A2950 RMK T03200250 IEM_DS3505
ZGGG,2002-07-11 08:00,ZGGG 110800Z AUTO 15004KT 1 1/4SM 34/24 A2947 RMK T03400240 IEM_DS3505
ZGGG,2002-07-11 09:00,ZGGG 110900Z AUTO 11004KT 2 1/2SM 33/25 A2947 RMK SLP982 T03300247 57014 IEM_DS3505
ZGGG,2002-07-11 10:00,ZGGG 111000Z AUTO 14004KT 2SM 33/24 A2947 RMK T03300240 IEM_DS3505
ZGGG,2002-07-11 11:00,ZGGG 111100Z AUTO 16006KT 1 1/2SM 32/24 A2950 RMK T03200240 IEM_DS3505
ZGGG,2002-07-11 12:00,ZGGG 111200Z AUTO 00000KT 2SM 31/25 A2950 RMK SLP995 T03080252 52013 IEM_DS3505
ZGGG,2002-07-11 13:00,ZGGG 111300Z AUTO 16008KT 2 1/2SM 31/24 A2953 RMK T03100240 IEM_DS3505
ZGGG,2002-07-11 14:00,ZGGG 111400Z AUTO 18006KT 3SM 31/25 A2956 RMK T03100250 IEM_DS3505
ZGGG,2002-07-11 15:00,ZGGG 111500Z AUTO 1/8SM A2959 RMK 70024 IEM_DS3505
ZGGG,2002-07-11 16:00,ZGGG 111600Z AUTO 21008KT 2 1/2SM 30/26 A2959 RMK T03000260 IEM_DS3505
ZGGG,2002-07-11 17:00,ZGGG 111700Z AUTO 16004KT 2 1/2SM 29/24 A2956 RMK T02900240 IEM_DS3505
ZGGG,2002-07-11 18:00,ZGGG 111800Z AUTO 00000KT 4SM 28/27 A2956 RMK SLP013 T02850266 57006 IEM_DS3505
ZGGG,2002-07-11 19:00,ZGGG 111900Z AUTO 22008KT 3SM 29/24 A2956 RMK T02900240 IEM_DS3505
ZGGG,2002-07-11 20:00,ZGGG 112000Z AUTO 14004KT 3SM 28/24 A2956 RMK T02800240 IEM_DS3505
ZGGG,2002-07-11 21:00,ZGGG 112100Z AUTO 00000KT 7SM 28/25 A2956 RMK 70003 SLP010 T02750251 57003 IEM_DS3505
ZGGG,2002-07-11 22:00,ZGGG 112200Z AUTO 00000KT 2 1/2SM 28/24 A2956 RMK T02800240 IEM_DS3505
ZGGG,2002-07-11 23:00,ZGGG 112300Z AUTO 16002KT 2 1/2SM 28/24 A2959 RMK T02800240 IEM_DS3505
ZGGG,2002-07-12 00:00,ZGGG 120000Z AUTO 16002KT 6SM 29/26 A2959 RMK 70003 SLP021 T02920256 52011 IEM_DS3505
ZGGG,2002-07-12 01:00,ZGGG 120100Z AUTO 16004KT 3SM 30/25 A2959 RMK T03000250 IEM_DS3505
ZGGG,2002-07-12 02:00,ZGGG 120200Z AUTO 14004KT 3SM 31/24 A2959 RMK T03100240 IEM_DS3505
ZGGG,2002-07-12 03:00,ZGGG 120300Z AUTO 36002KT 7SM 32/25 A2959 RMK SLP022 T03250253 52001 IEM_DS3505
ZGGG,2002-07-12 04:00,ZGGG 120400Z AUTO 32002KT 2SM 33/24 A2959 RMK T03300240 IEM_DS3505
ZGGG,2002-07-12 05:00,ZGGG 120500Z AUTO 36004KT 2 1/2SM 33/23 A2956 RMK T03300230 IEM_DS3505
ZGGG,2002-07-12 06:00,ZGGG 120600Z AUTO 14006KT 7SM 33/25 A2953 RMK SLP006 T03330249 57016 IEM_DS3505
ZGGG,2002-07-12 07:00,ZGGG 120700Z AUTO 15002KT 2 1/2SM 34/24 A2950 RMK T03400240 IEM_DS3505
ZGGG,2002-07-12 08:00,ZGGG 120800Z AUTO 00000KT 2 1/2SM 34/23 A2950 RMK T03400230 IEM_DS3505
ZGGG,2002-07-12 09:00,ZGGG 120900Z AUTO 18004KT 7SM 34/24 A2947 RMK SLP987 T03420244 57019 IEM_DS3505
ZGGG,2002-07-12 10:00,ZGGG 121000Z AUTO 00000KT 2 1/2SM 34/23 A2950 RMK T03400230 IEM_DS3505
ZGGG,2002-07-12 11:00,ZGGG 121100Z AUTO 15004KT 2SM 33/23 A2950 RMK T03300230 IEM_DS3505
ZGGG,2002-07-12 12:00,ZGGG 121200Z AUTO 16006KT 6SM 32/26 A2953 RMK SLP004 T03180257 52017 IEM_DS3505
ZGGG,2002-07-12 13:00,ZGGG 121300Z AUTO 16006KT 3SM 32/25 A2956 RMK T03200250 IEM_DS3505
ZGGG,2002-07-12 14:00,ZGGG 121400Z AUTO 16006KT 4SM 31/26 A2956 RMK T03100260 IEM_DS3505
ZGGG,2002-07-12 15:00,ZGGG 121500Z AUTO 16004KT 7SM 30/26 A2956 RMK SLP015 T03040264 52011 IEM_DS3505
ZGGG,2002-07-12 16:00,ZGGG 121600Z AUTO 18008KT 5SM 30/25 A2959 RMK T03000250 IEM_DS3505
ZGGG,2002-07-12 17:00,ZGGG 121700Z AUTO 20006KT 5SM 29/25 A2959 RMK T02900250 IEM_DS3505
ZGGG,2002-07-12 18:00,ZGGG 121800Z AUTO 22004KT 7SM 29/26 A2956 RMK SLP012 T02940255 57003 IEM_DS3505
ZGGG,2002-07-12 19:00,ZGGG 121900Z AUTO 20006KT 4SM 29/25 A2956 RMK T02900250 IEM_DS3505
ZGGG,2002-07-12 20:00,ZGGG 122000Z AUTO 15004KT 5SM 28/25 A2956 RMK T02800250 IEM_DS3505
ZGGG,2002-07-12 21:00,ZGGG 122100Z AUTO 00000KT 7SM 28/26 A2956 RMK SLP010 T02780256 57002 IEM_DS3505
ZGGG,2002-07-12 22:00,ZGGG 122200Z AUTO 00000KT 4SM 28/25 A2956 RMK T02800250 IEM_DS3505
ZGGG,2002-07-12 23:00,ZGGG 122300Z AUTO 00000KT 4SM 29/25 A2956 RMK T02900250 IEM_DS3505
ZGGG,2002-07-13 00:00,ZGGG 130000Z AUTO 07002KT 7SM 30/26 A2959 RMK SLP018 T02950259 52008 IEM_DS3505
ZGGG,2002-07-13 01:00,ZGGG 130100Z AUTO 13004KT 4SM 30/25 A2959 RMK T03000250 IEM_DS3505
ZGGG,2002-07-13 02:00,ZGGG 130200Z AUTO 08004KT 4SM 31/26 A2956 RMK T03100260 IEM_DS3505
ZGGG,2002-07-13 03:00,ZGGG 130300Z AUTO 09002KT 6SM 33/26 A2956 RMK SLP012 T03260257 57006 IEM_DS3505
ZGGG,2002-07-13 04:00,ZGGG 130400Z AUTO 09002KT 3SM 33/26 A2956 RMK T03300260 IEM_DS3505
ZGGG,2002-07-13 05:00,ZGGG 130500Z AUTO 15004KT 3SM 33/25 A2953 RMK T03300250 IEM_DS3505
ZGGG,2002-07-13 06:00,ZGGG 130600Z AUTO 02004KT 9SM 35/24 A2950 RMK SLP990 T03500237 57021 IEM_DS3505
ZGGG,2002-07-13 07:00,ZGGG 130700Z AUTO 00000KT 3SM 35/23 A2947 RMK T03500230 IEM_DS3505
ZGGG,2002-07-13 08:00,ZGGG 130800Z AUTO 00000KT 3SM 35/24 A2947 RMK T03500240 IEM_DS3505
ZGGG,2002-07-13 09:00,ZGGG 130900Z AUTO 18002KT 7SM 34/25 A2947 RMK SLP980 T03450246 57011 IEM_DS3505
ZGGG,2002-07-13 10:00,ZGGG 131000Z AUTO 17006KT 34/23 A2947 RMK T03400230 IEM_DS3505
ZGGG,2002-07-13 11:00,ZGGG 131100Z AUTO 17006KT 5SM 34/20 A2950 RMK T03400200 IEM_DS3505
ZGGG,2002-07-13 12:00,ZGGG 131200Z AUTO 14006KT 7SM 33/24 A2950 RMK SLP997 T03270241 52017 IEM_DS3505
ZGGG,2002-07-13 13:00,ZGGG 131300Z AUTO 14006KT 6SM 32/26 A2953 RMK T03200260 IEM_DS3505
ZGGG,2002-07-13 14:00,ZGGG 131400Z AUTO 17010KT 6SM 32/25 A2956 RMK T03200250 IEM_DS3505
ZGGG,2002-07-13 15:00,ZGGG 131500Z AUTO 14002KT 7SM 31/26 A2956 RMK SLP011 T03060265 52014 IEM_DS3505
ZGGG,2002-07-13 16:00,ZGGG 131600Z AUTO 16004KT 6SM 31/25 A2956 RMK T03100250 IEM_DS3505
ZGGG,2002-07-13 17:00,ZGGG 131700Z AUTO 00000KT 6SM 30/24 A2956 RMK T03000240 IEM_DS3505
ZGGG,2002-07-13 18:00,ZGGG 131800Z AUTO 00000KT 7SM 29/26 A2956 RMK SLP009 T02930264 57001 IEM_DS3505
ZGGG,2002-07-13 19:00,ZGGG 131900Z AUTO 10002KT 7SM 29/26 A2956 RMK T02900260 IEM_DS3505
ZGGG,2002-07-13 20:00,ZGGG 132000Z AUTO 00000KT 4SM 29/26 A2953 RMK T02900260 IEM_DS3505
ZGGG,2002-07-13 21:00,ZGGG 132100Z AUTO 07002KT 7SM 28/26 A2953 RMK SLP002 T02830264 57008 IEM_DS3505
ZGGG,2002-07-13 22:00,ZGGG 132200Z AUTO 00000KT 3SM 28/26 A2953 RMK T02800260 IEM_DS3505
ZGGG,2002-07-13 23:00,ZGGG 132300Z AUTO 08004KT 2 1/2SM 29/26 A2953 RMK T02900260 IEM_DS3505
ZGGG,2002-07-14 00:00,ZGGG 140000Z AUTO 02002KT 8SM 30/27 A2953 RMK SLP003 T03040267 52001 IEM_DS3505
ZGGG,2002-07-14 01:00,ZGGG 140100Z AUTO 03006KT 3SM 31/26 A2953 RMK T03100260 IEM_DS3505
ZGGG,2002-07-14 02:00,ZGGG 140200Z AUTO 06004KT 3SM 32/26 A2953 RMK T03200260 IEM_DS3505
ZGGG,2002-07-14 03:00,ZGGG 140300Z AUTO 18004KT 9SM 34/25 A2953 RMK SLP003 T03360254 52001 IEM_DS3505
ZGGG,2002-07-14 04:00,ZGGG 140400Z AUTO 12006KT 5SM 34/24 A2953 RMK T03400240 IEM_DS3505
ZGGG,2002-07-14 05:00,ZGGG 140500Z AUTO 08006KT 5SM 35/24 A2950 RMK T03500240 IEM_DS3505
ZGGG,2002-07-14 06:00,ZGGG 140600Z AUTO 14002KT 9SM 36/25 A2950 RMK SLP983 T03600249 57020 IEM_DS3505
ZGGG,2002-07-14 07:00,ZGGG 140700Z AUTO 08004KT 36/25 A2947 RMK T03600250 IEM_DS3505
ZGGG,2002-07-14 08:00,ZGGG 140800Z AUTO 09006KT 3SM 36/23 A2944 RMK T03600230 IEM_DS3505
ZGGG,2002-07-14 09:00,ZGGG 140900Z AUTO 22006KT 7SM 34/26 A2944 RMK SLP975 T03410263 57008 IEM_DS3505
ZGGG,2002-07-14 10:00,ZGGG 141000Z AUTO 19006KT 33/25 A2947 RMK T03300250 IEM_DS3505
ZGGG,2002-07-14 11:00,ZGGG 141100Z AUTO 12004KT 2SM 32/25 A2950 RMK T03200250 IEM_DS3505
ZGGG,2002-07-14 12:00,ZGGG 141200Z AUTO 09010KT 7SM 32/26 A2953 RMK 60003 SLP005 T03150255 52029 IEM_DS3505
ZGGG,2002-07-14 14:00,ZGGG 141400Z AUTO 09002KT 6SM 27/24 A2956 RMK T02700240 IEM_DS3505
ZGGG,2002-07-14 15:00,ZGGG 141500Z AUTO 00000KT 9SM 27/25 A2959 RMK SLP017 T02700252 52012 IEM_DS3505
ZGGG,2002-07-14 16:00,ZGGG 141600Z AUTO 14002KT 7SM 29/25 A2959 RMK T02900250 IEM_DS3505
ZGGG,2002-07-14 17:00,ZGGG 141700Z AUTO 15002KT 6SM 29/26 A2959 RMK T02900260 IEM_DS3505
ZGGG,2002-07-14 18:00,ZGGG 141800Z AUTO 11002KT 7SM 28/25 A2956 RMK 60031 SLP018 T02750254 52001 IEM_DS3505
ZGGG,2002-07-14 19:00,ZGGG 141900Z AUTO 04002KT 4SM 28/26 A2956 RMK T02800260 IEM_DS3505
ZGGG,2002-07-14 20:00,ZGGG 142000Z AUTO 04002KT 4SM 28/26 A2956 RMK T02800260 IEM_DS3505
ZGGG,2002-07-14 21:00,ZGGG 142100Z AUTO 00000KT 6SM 27/26 A2956 RMK 70032 SLP013 T02730260 57005 IEM_DS3505
ZGGG,2002-07-14 22:00,ZGGG 142200Z AUTO 00000KT 3SM 28/26 A2956 RMK T02800260 IEM_DS3505
ZGGG,2002-07-14 23:00,ZGGG 142300Z AUTO 00000KT 3SM 28/26 A2959 RMK T02800260 IEM_DS3505
ZGGG,2002-07-15 00:00,ZGGG 150000Z AUTO 14004KT 7SM 29/26 A2959 RMK 70032 SLP019 T02920257 52006 IEM_DS3505
ZGGG,2002-07-15 01:00,ZGGG 150100Z AUTO 10004KT 31/25 A2959 RMK T03100250 IEM_DS3505
ZGGG,2002-07-15 02:00,ZGGG 150200Z AUTO 09004KT 32/25 A2959 RMK T03200250 IEM_DS3505
ZGGG,2002-07-15 03:00,ZGGG 150300Z AUTO 07006KT 9SM 33/25 RMK SLP024 T03270247 52005 IEM_DS3505
ZGGG,2002-07-15 04:00,ZGGG 150400Z AUTO 07006KT 7SM 34/23 A2956 RMK T03400230 IEM_DS3505
ZGGG,2002-07-15 05:00,ZGGG 150500Z AUTO 10006KT 7SM 34/24 A2956 RMK T03400240 IEM_DS3505
ZGGG,2002-07-15 06:00,ZGGG 150600Z AUTO 04004KT 11SM 35/23 RMK SLP008 T03500232 57016 IEM_DS3505
ZGGG,2002-07-15 07:00,ZGGG 150700Z AUTO 1SM RMK IEM_DS3505
ZGGG,2002-07-15 08:00,ZGGG 150800Z AUTO 12006KT 7SM 36/21 A2950 RMK T03600210 IEM_DS3505
ZGGG,2002-07-15 09:00,ZGGG 150900Z AUTO 18010KT 11SM 34/24 RMK SLP996 T03450238 57012 IEM_DS3505
ZGGG,2002-07-15 10:00,ZGGG 151000Z AUTO 1SM RMK IEM_DS3505
ZGGG,2002-07-15 11:00,ZGGG 151100Z AUTO 16008KT 6SM 33/24 A2956 RMK T03300240 IEM_DS3505
ZGGG,2002-07-15 12:00,ZGGG 151200Z AUTO 14006KT 11SM 31/24 A2956 RMK SLP017 T03140242 52021 IEM_DS3505
ZGGG,2002-07-15 13:00,ZGGG 151300Z AUTO 1SM RMK IEM_DS3505
ZGGG,2002-07-15 14:00,ZGGG 151400Z AUTO 1SM RMK IEM_DS3505
ZGGG,2002-07-15 15:00,ZGGG 151500Z AUTO 14004KT 10SM 30/24 RMK SLP035 T03020236 52018 IEM_DS3505
ZGGG,2002-07-15 16:00,ZGGG 151600Z AUTO 1SM RMK IEM_DS3505
ZGGG,2002-07-15 17:00,ZGGG 151700Z AUTO 10004KT 6SM 29/24 A2962 RMK T02900240 IEM_DS3505
ZGGG,2002-07-15 18:00,ZGGG 151800Z AUTO 00000KT 10SM 29/25 A2959 RMK SLP023 T02860249 57012 IEM_DS3505
ZGGG,2002-07-15 19:00,ZGGG 151900Z AUTO 06006KT 7SM 28/24 A2959 RMK T02800240 IEM_DS3505
ZGGG,2002-07-15 20:00,ZGGG 152000Z AUTO 05004KT 7SM 28/24 A2959 RMK T02800240 IEM_DS3505
ZGGG,2002-07-15 21:00,ZGGG 152100Z AUTO 07002KT 11SM 28/25 A2959 RMK 70000 SLP019 T02780251 57004 IEM_DS3505
ZGGG,2002-07-15 22:00,ZGGG 152200Z AUTO 06004KT 7SM 28/24 A2959 RMK T02800240 IEM_DS3505
ZGGG,2002-07-15 23:00,ZGGG 152300Z AUTO 05004KT 7SM 28/24 A2959 RMK T02800240 IEM_DS3505
ZGGG,2002-07-16 00:00,ZGGG 160000Z AUTO 09006KT 10SM 28/25 A2962 RMK 60000 SLP031 T02810248 52012 IEM_DS3505
ZGGG,2002-07-16 01:00,ZGGG 160100Z AUTO 04008KT 7SM 28/24 A2962 RMK T02800240 IEM_DS3505
ZGGG,2002-07-16 02:00,ZGGG 160200Z AUTO 07004KT 7SM 30/24 A2962 RMK T03000240 IEM_DS3505
ZGGG,2002-07-16 03:00,ZGGG 160300Z AUTO 18002KT 11SM 31/25 A2962 RMK SLP032 T03110248 52001 IEM_DS3505
ZGGG,2002-07-16 04:00,ZGGG 160400Z AUTO 13006KT 31/24 A2959 RMK T03100240 IEM_DS3505
ZGGG,2002-07-16 05:00,ZGGG 160500Z AUTO 11008KT 31/25 A2959 RMK T03100250 IEM_DS3505
ZGGG,2002-07-16 06:00,ZGGG 160600Z AUTO 16004KT 7SM 28/25 A2959 RMK 60000 SLP022 T02800253 57010 IEM_DS3505
ZGGG,2002-07-16 07:00,ZGGG 160700Z AUTO 19006KT 5SM 28/24 A2959 RMK T02800240 IEM_DS3505
ZGGG,2002-07-16 08:00,ZGGG 160800Z AUTO 20016KT 7SM 27/24 A2959 RMK T02700240 IEM_DS3505
ZGGG,2002-07-16 09:00,ZGGG 160900Z AUTO 22004KT 9SM 27/25 A2959 RMK SLP016 T02690254 57006 IEM_DS3505
ZGGG,2002-07-16 10:00,ZGGG 161000Z AUTO 21010KT 7SM 27/24 A2959 RMK T02700240 IEM_DS3505
ZGGG,2002-07-16 11:00,ZGGG 161100Z AUTO 20006KT 7SM 28/24 A2959 RMK T02800240 IEM_DS3505
ZGGG,2002-07-16 12:00,ZGGG 161200Z AUTO 16004KT 11SM 28/24 A2962 RMK 60008 SLP030 T02770241 52014 IEM_DS3505
ZGGG,2002-07-16 13:00,ZGGG 161300Z AUTO 16006KT 7SM 28/23 A2962 RMK T02800230 IEM_DS3505
ZGGG,2002-07-16 14:00,ZGGG 161400Z AUTO 15006KT 7SM 28/23 A2965 RMK T02800230 IEM_DS3505
ZGGG,2002-07-16 15:00,ZGGG 161500Z AUTO 16004KT 12SM 28/25 A2965 RMK SLP043 T02760248 52013 IEM_DS3505
ZGGG,2002-07-16 16:00,ZGGG 161600Z AUTO 16006KT 7SM 28/24 A2968 RMK T02800240 IEM_DS3505
ZGGG,2002-07-16 17:00,ZGGG 161700Z AUTO 16006KT 7SM 27/23 A2965 RMK T02700230 IEM_DS3505
ZGGG,2002-07-16 18:00,ZGGG 161800Z AUTO 16004KT 11SM 27/24 A2962 RMK SLP033 T02720245 57010 IEM_DS3505
ZGGG,2002-07-16 19:00,ZGGG 161900Z AUTO 21010KT 7SM 27/24 A2962 RMK T02700240 IEM_DS3505
ZGGG,2002-07-16 20:00,ZGGG 162000Z AUTO 21008KT 7SM 27/23 A2965 RMK T02700230 IEM_DS3505
ZGGG,2002-07-16 21:00,ZGGG 162100Z AUTO 20004KT 11SM 27/24 A2965 RMK 70010 SLP041 T02740243 52008 IEM_DS3505
ZGGG,2002-07-16 22:00,ZGGG 162200Z AUTO 20008KT 6SM 27/24 A2965 RMK T02700240 IEM_DS3505
ZGGG,2002-07-16 23:00,ZGGG 162300Z AUTO 21006KT 7SM 27/24 A2968 RMK T02700240 IEM_DS3505
ZGGG,2002-07-17 00:00,ZGGG 170000Z AUTO 22004KT 12SM 27/25 A2968 RMK 60004 SLP049 T02720254 52008 IEM_DS3505
ZGGG,2002-07-17 01:00,ZGGG 170100Z AUTO 20008KT 7SM 29/24 A2968 RMK T02900240 IEM_DS3505
ZGGG,2002-07-17 02:00,ZGGG 170200Z AUTO 7SM 30/24 A2968 RMK T03000240 IEM_DS3505
ZGGG,2002-07-17 03:00,ZGGG 170300Z AUTO 22002KT 11SM 31/25 A2965 RMK SLP046 T03070252 57003 IEM_DS3505
ZGGG,2002-07-17 04:00,ZGGG 170400Z AUTO 21017KT 1SM 25/24 A2968 RMK T02500240 IEM_DS3505
ZGGG,2002-07-17 05:00,ZGGG 170500Z AUTO 17004KT 7SM 26/26 A2965 RMK T02600260 IEM_DS3505
ZGGG,2002-07-17 06:00,ZGGG 170600Z AUTO 22002KT 8SM 31/26 A2962 RMK 60063 SLP033 T03080261 57013 IEM_DS3505
ZGGG,2002-07-17 07:00,ZGGG 170700Z AUTO 23006KT 6SM 32/25 A2962 RMK T03200250 IEM_DS3505
ZGGG,2002-07-17 08:00,ZGGG 170800Z AUTO 19010KT 7SM 32/24 A2959 RMK T03200240 IEM_DS3505
ZGGG,2002-07-17 09:00,ZGGG 170900Z AUTO 18006KT 12SM 31/25 A2959 RMK T03120252 IEM_DS3505
ZGGG,2002-07-17 10:00,ZGGG 171000Z AUTO 15006KT 7SM 32/24 A2959 RMK T03200240 IEM_DS3505
ZGGG,2002-07-17 11:00,ZGGG 171100Z AUTO 31004KT 3SM 25/25 A2962 RMK T02500250 IEM_DS3505
ZGGG,2002-07-17 12:00,ZGGG 171200Z AUTO 00000KT 12SM 25/24 A2962 RMK 60075 SLP035 T02530243 52018 IEM_DS3505
ZGGG,2002-07-17 13:00,ZGGG 171300Z AUTO 00000KT 7SM 27/26 A2965 RMK T02700260 IEM_DS3505
ZGGG,2002-07-17 14:00,ZGGG 171400Z AUTO 15004KT 4SM 28/26 A2965 RMK T02800260 IEM_DS3505
ZGGG,2002-07-17 15:00,ZGGG 171500Z AUTO 00000KT 9SM 26/26 A2965 RMK SLP042 T02640257 52008 IEM_DS3505
ZGGG,2002-07-17 16:00,ZGGG 171600Z AUTO 20004KT 6SM 28/26 A2965 RMK T02800260 IEM_DS3505
ZGGG,2002-07-17 17:00,ZGGG 171700Z AUTO 18004KT 6SM 28/26 A2962 RMK T02800260 IEM_DS3505
ZGGG,2002-07-17 18:00,ZGGG 171800Z AUTO 00000KT 8SM 27/26 A2962 RMK 60004 SLP031 T02670260 57011 IEM_DS3505
ZGGG,2002-07-17 19:00,ZGGG 171900Z AUTO 17008KT 6SM 28/26 A2959 RMK T02800260 IEM_DS3505
ZGGG,2002-07-17 20:00,ZGGG 172000Z AUTO 00000KT 8SM 28/26 A2959 RMK 60000 SLP030 T02780260 52012 IEM_DS3505
ZGGG,2002-07-17 21:00,ZGGG 172100Z AUTO 16004KT 8SM 28/26 A2959 RMK 70145 SLP023 T02760262 57008 IEM_DS3505
ZGGG,2002-07-17 22:00,ZGGG 172200Z AUTO 17004KT 7SM 28/26 A2959 RMK T02800260 IEM_DS3505
ZGGG,2002-07-17 23:00,ZGGG 172300Z AUTO 18006KT 4SM 28/26 A2962 RMK T02800260 IEM_DS3505
ZGGG,2002-07-18 00:00,ZGGG 180000Z AUTO 18006KT 9SM 28/26 A2962 RMK 60003 SLP033 T02840265 52010 IEM_DS3505
ZGGG,2002-07-18 01:00,ZGGG 180100Z AUTO 20008KT 7SM 29/24 A2965 RMK T02900240 IEM_DS3505
ZGGG,2002-07-18 02:00,ZGGG 180200Z AUTO 21010KT 7SM 29/24 A2965 RMK T02900240 IEM_DS3505
ZGGG,2002-07-18 03:00,ZGGG 180300Z AUTO 22004KT 12SM 30/25 A2962 RMK SLP035 T03030248 52002 IEM_DS3505
ZGGG,2002-07-18 04:00,ZGGG 180400Z AUTO 20014KT 7SM 31/24 A2962 RMK T03100240 IEM_DS3505
ZGGG,2002-07-18 05:00,ZGGG 180500Z AUTO 22014KT 7SM 31/24 A2962 RMK T03100240 IEM_DS3505
ZGGG,2002-07-18 06:00,ZGGG 180600Z AUTO 16002KT 10SM 30/24 A2962 RMK 60003 SLP027 T02980243 57008 IEM_DS3505
ZGGG,2002-07-18 07:00,ZGGG 180700Z AUTO 00000KT 3SM 28/26 A2962 RMK T02800260 IEM_DS3505
ZGGG,2002-07-18 08:00,ZGGG 180800Z AUTO 00000KT 2 1/2SM 28/26 A2959 RMK T02800260 IEM_DS3505
ZGGG,2002-07-18 09:00,ZGGG 180900Z AUTO 00000KT 9SM 28/26 A2959 RMK SLP018 T02830259 57009 IEM_DS3505
ZGGG,2002-07-18 10:00,ZGGG 181000Z AUTO 00000KT 2 1/2SM 28/26 A2959 RMK T02800260 IEM_DS3505
ZGGG,2002-07-18 11:00,ZGGG 181100Z AUTO 00000KT 2 1/2SM 27/26 A2959 RMK T02700260 IEM_DS3505
ZGGG,2002-07-18 12:00,ZGGG 181200Z AUTO 10004KT 2 1/2SM 27/26 A2962 RMK T02700260 IEM_DS3505
ZGGG,2002-07-18 13:00,ZGGG 181300Z AUTO 20002KT 4SM 28/26 A2962 RMK T02800260 IEM_DS3505
ZGGG,2002-07-18 14:00,ZGGG 181400Z AUTO 18004KT 7SM 28/24 A2965 RMK T02800240 IEM_DS3505
ZGGG,2002-07-18 15:00,ZGGG 181500Z AUTO 14002KT 10SM 28/26 A2965 RMK SLP044 T02830256 52014 IEM_DS3505
ZGGG,2002-07-18 16:00,ZGGG 181600Z AUTO 20008KT 7SM 28/25 A2965 RMK T02800250 IEM_DS3505
ZGGG,2002-07-18 17:00,ZGGG 181700Z AUTO 18006KT 7SM 28/25 A2962 RMK T02800250 IEM_DS3505
ZGGG,2002-07-18 18:00,ZGGG 181800Z AUTO 00000KT 8SM 28/26 A2962 RMK 60000 SLP031 T02790257 57013 IEM_DS3505
ZGGG,2002-07-18 19:00,ZGGG 181900Z AUTO 16004KT 4SM 27/26 A2959 RMK T02700260 IEM_DS3505
ZGGG,2002-07-18 20:00,ZGGG 182000Z AUTO 20004KT 4SM 27/26 A2959 RMK T02700260 IEM_DS3505
ZGGG,2002-07-18 21:00,ZGGG 182100Z AUTO 00000KT 8SM 27/26 A2962 RMK 70045 SLP026 T02700259 57005 IEM_DS3505
ZGGG,2002-07-18 22:00,ZGGG 182200Z AUTO 20006KT 4SM 27/26 A2962 RMK T02700260 IEM_DS3505
ZGGG,2002-07-18 23:00,ZGGG 182300Z AUTO 16004KT 4SM 27/25 A2965 RMK T02700250 IEM_DS3505
ZGGG,2002-07-19 00:00,ZGGG 190000Z AUTO 00000KT 7SM 27/26 A2968 RMK 60055 SLP047 T02670260 52021 IEM_DS3505
ZGGG,2002-07-19 01:00,ZGGG 190100Z AUTO 04004KT 4SM 27/26 A2971 RMK T02700260 IEM_DS3505
ZGGG,2002-07-19 02:00,ZGGG 190200Z AUTO 12004KT 4SM 27/26 A2968 RMK T02700260 IEM_DS3505
ZGGG,2002-07-19 03:00,ZGGG 190300Z AUTO 00000KT 6SM 27/26 A2971 RMK SLP061 T02720264 52014 IEM_DS3505
ZGGG,2002-07-19 04:00,ZGGG 190400Z AUTO 04002KT 2 1/2SM 28/27 A2968 RMK T02800270 IEM_DS3505
ZGGG,2002-07-19 05:00,ZGGG 190500Z AUTO 14004KT 2 1/2SM 29/27 A2968 RMK T02900270 IEM_DS3505
ZGGG,2002-07-19 06:00,ZGGG 190600Z AUTO 14004KT 7SM 29/26 A2965 RMK 60012 SLP042 T02870258 57019 IEM_DS3505
ZGGG,2002-07-19 07:00,ZGGG 190700Z AUTO 15004KT 2 1/2SM 29/26 A2965 RMK T02900260 IEM_DS3505
ZGGG,2002-07-19 08:00,ZGGG 190800Z AUTO 14004KT 2SM 29/26 A2962 RMK T02900260 IEM_DS3505
ZGGG,2002-07-19 09:00,ZGGG 190900Z AUTO 14004KT 9SM 29/27 A2962 RMK SLP036 T02940271 57006 IEM_DS3505
ZGGG,2002-07-19 10:00,ZGGG 191000Z AUTO 15002KT 5SM 30/24 A2965 RMK T03000240 IEM_DS3505
ZGGG,2002-07-19 11:00,ZGGG 191100Z AUTO 16006KT 5SM 29/25 A2965 RMK T02900250 IEM_DS3505
ZGGG,2002-07-19 12:00,ZGGG 191200Z AUTO 14004KT 7SM 29/26 A2968 RMK 60008 SLP054 T02870255 52018 IEM_DS3505
ZGGG,2002-07-19 13:00,ZGGG 191300Z AUTO 16008KT 7SM 29/26 A2971 RMK T02900260 IEM_DS3505
ZGGG,2002-07-19 14:00,ZGGG 191400Z AUTO 16008KT 7SM 29/26 A2971 RMK T02900260 IEM_DS3505
ZGGG,2002-07-19 15:00,ZGGG 191500Z AUTO 16002KT 9SM 28/26 A2971 RMK SLP067 T02840260 52013 IEM_DS3505
ZGGG,2002-07-19 16:00,ZGGG 191600Z AUTO 17004KT 7SM 29/26 A2974 RMK T02900260 IEM_DS3505
ZGGG,2002-07-19 17:00,ZGGG 191700Z AUTO 16004KT 4SM 28/26 A2971 RMK T02800260 IEM_DS3505
ZGGG,2002-07-19 18:00,ZGGG 191800Z AUTO 14004KT 8SM 28/26 A2971 RMK 60004 SLP064 T02750264 57003 IEM_DS3505
ZGGG,2002-07-19 19:00,ZGGG 191900Z AUTO 16004KT 4SM 27/26 A2971 RMK T02700260 IEM_DS3505
ZGGG,2002-07-19 20:00,ZGGG 192000Z AUTO 00000KT 4SM 27/26 A2968 RMK T02700260 IEM_DS3505
ZGGG,2002-07-19 21:00,ZGGG 192100Z AUTO 14004KT 5SM 27/26 RMK 70037 SLP053 T02720264 57011 IEM_DS3505
ZGGG,2002-07-19 22:00,ZGGG 192200Z AUTO 16008KT 4SM 28/27 A2968 RMK T02800270 IEM_DS3505
ZGGG,2002-07-19 23:00,ZGGG 192300Z AUTO 16008KT 4SM 28/26 A2971 RMK T02800260 IEM_DS3505
ZGGG,2002-07-20 00:00,ZGGG 200000Z AUTO 16004KT 5SM 27/26 A2971 RMK 60003 SLP065 T02710257 52012 IEM_DS3505
ZGGG,2002-07-20 01:00,ZGGG 200100Z AUTO 15008KT 3SM 27/26 A2974 RMK T02700260 IEM_DS3505
ZGGG,2002-07-20 02:00,ZGGG 200200Z AUTO 17006KT 3SM 27/26 A2974 RMK T02700260 IEM_DS3505
ZGGG,2002-07-20 03:00,ZGGG 200300Z AUTO 16004KT 4SM 27/26 A2977 RMK SLP076 T02720261 52010 IEM_DS3505
ZGGG,2002-07-20 04:00,ZGGG 200400Z AUTO 20010KT 3SM 26/25 A2977 RMK T02600250 IEM_DS3505
ZGGG,2002-07-20 06:00,ZGGG 200600Z AUTO 16004KT 9SM 27/25 A2974 RMK 60028 SLP074 T02690253 57002 IEM_DS3505
ZGGG,2002-07-20 07:00,ZGGG 200700Z AUTO 16002KT 4SM 27/25 A2974 RMK T02700250 IEM_DS3505
ZGGG,2002-07-20 08:00,ZGGG 200800Z AUTO 07002KT 3SM 27/26 A2974 RMK T02700260 IEM_DS3505
ZGGG,2002-07-20 09:00,ZGGG 200900Z AUTO 11006KT 6SM 27/25 A2971 RMK SLP067 T02660249 57007 IEM_DS3505
ZGGG,2002-07-20 10:00,ZGGG 201000Z AUTO 11004KT 2 1/2SM 27/25 A2974 RMK T02700250 IEM_DS3505
ZGGG,2002-07-20 11:00,ZGGG 201100Z AUTO 10004KT 2SM 26/24 A2974 RMK T02600240 IEM_DS3505
ZGGG,2002-07-20 12:00,ZGGG 201200Z AUTO 14004KT 6SM 26/24 A2977 RMK 60001 SLP080 T02570244 52013 IEM_DS3505
ZGGG,2002-07-20 13:00,ZGGG 201300Z AUTO 13006KT 4SM 26/24 A2977 RMK T02600240 IEM_DS3505
ZGGG,2002-07-20 14:00,ZGGG 201400Z AUTO 12006KT 4SM 26/24 A2980 RMK T02600240 IEM_DS3505
ZGGG,2002-07-20 15:00,ZGGG 201500Z AUTO 11004KT 7SM 25/24 A2980 RMK SLP089 T02540240 52009 IEM_DS3505
ZGGG,2002-07-20 16:00,ZGGG 201600Z AUTO 12006KT 4SM 26/24 A2980 RMK T02600240 IEM_DS3505
ZGGG,2002-07-20 17:00,ZGGG 201700Z AUTO 11006KT 3SM 26/24 A2977 RMK T02600240 IEM_DS3505
ZGGG,2002-07-20 18:00,ZGGG 201800Z AUTO 09004KT 2 1/2SM 25/24 A2977 RMK SLP081 T02520240 57008 IEM_DS3505
ZGGG,2002-07-20 19:00,ZGGG 201900Z AUTO 11006KT 3SM 26/25 A2974 RMK T02600250 IEM_DS3505
ZGGG,2002-07-20 20:00,ZGGG 202000Z AUTO 12004KT 3SM 26/25 A2974 RMK T02600250 IEM_DS3505
ZGGG,2002-07-20 21:00,ZGGG 202100Z AUTO 14002KT 4SM 25/24 A2974 RMK 70028 SLP075 T02530243 57006 IEM_DS3505
ZGGG,2002-07-20 22:00,ZGGG 202200Z AUTO 12008KT 3SM 26/24 A2977 RMK T02600240 IEM_DS3505
ZGGG,2002-07-20 23:00,ZGGG 202300Z AUTO 12006KT 3SM 26/25 A2977 RMK T02600250 IEM_DS3505
ZGGG,2002-07-21 00:00,ZGGG 210000Z AUTO 11004KT 3SM 27/25 A2977 RMK 60003 SLP084 T02670251 52009 IEM_DS3505
ZGGG,2002-07-21 01:00,ZGGG 210100Z AUTO 14008KT 3SM 29/26 A2977 RMK T02900260 IEM_DS3505
ZGGG,2002-07-21 02:00,ZGGG 210200Z AUTO 14008KT 3SM 30/25 A2977 RMK T03000250 IEM_DS3505
ZGGG,2002-07-21 03:00,ZGGG 210300Z AUTO 18006KT 10SM 31/25 A2977 RMK SLP078 T03080252 57005 IEM_DS3505
ZGGG,2002-07-21 04:00,ZGGG 210400Z AUTO 22016G33KT 4SM 27/22 A2980 RMK T02700220 IEM_DS3505
ZGGG,2002-07-21 05:00,ZGGG 210500Z AUTO 15008KT 7SM 24/23 A2977 RMK T02400230 IEM_DS3505
ZGGG,2002-07-21 06:00,ZGGG 210600Z AUTO 25004KT 12SM 28/24 A2974 RMK 60035 SLP065 T02760245 57014 IEM_DS3505
ZGGG,2002-07-21 07:00,ZGGG 210700Z AUTO 18004KT 7SM 29/23 A2971 RMK T02900230 IEM_DS3505
ZGGG,2002-07-21 08:00,ZGGG 210800Z AUTO 19008KT 7SM 30/24 A2971 RMK T03000240 IEM_DS3505
ZGGG,2002-07-21 09:00,ZGGG 210900Z AUTO 18004KT 11SM 30/25 A2971 RMK SLP057 T03040248 57007 IEM_DS3505
ZGGG,2002-07-21 10:00,ZGGG 211000Z AUTO 16004KT 4SM 30/25 A2971 RMK T03000250 IEM_DS3505
ZGGG,2002-07-21 11:00,ZGGG 211100Z AUTO 28002KT 3SM 28/27 A2971 RMK T02800270 IEM_DS3505
ZGGG,2002-07-21 12:00,ZGGG 211200Z AUTO 18002KT 11SM 28/26 A2974 RMK 60000 SLP067 T02790257 52009 IEM_DS3505
ZGGG,2002-07-21 13:00,ZGGG 211300Z AUTO 00000KT 7SM 27/26 A2977 RMK T02700260 IEM_DS3505
ZGGG,2002-07-21 14:00,ZGGG 211400Z AUTO 16006KT 7SM 27/25 A2977 RMK T02700250 IEM_DS3505
ZGGG,2002-07-21 15:00,ZGGG 211500Z AUTO 14002KT 10SM 28/25 A2977 RMK SLP082 T02750254 52016 IEM_DS3505
ZGGG,2002-07-21 16:00,ZGGG 211600Z AUTO 14004KT 7SM 27/26 A2977 RMK T02700260 IEM_DS3505
ZGGG,2002-07-21 17:00,ZGGG 211700Z AUTO 15006KT 7SM 27/26 A2974 RMK T02700260 IEM_DS3505
ZGGG,2002-07-21 18:00,ZGGG 211800Z AUTO 16002KT 9SM 27/25 A2974 RMK SLP072 T02720252 57011 IEM_DS3505
ZGGG,2002-07-21 19:00,ZGGG 211900Z AUTO 16004KT 7SM 27/25 A2974 RMK T02700250 IEM_DS3505
ZGGG,2002-07-21 20:00,ZGGG 212000Z AUTO 15006KT 7SM 27/25 A2971 RMK T02700250 IEM_DS3505
ZGGG,2002-07-21 21:00,ZGGG 212100Z AUTO 11004KT 5SM 26/25 A2971 RMK 70035 SLP066 T02650252 57005 IEM_DS3505
ZGGG,2002-07-21 22:00,ZGGG 212200Z AUTO 12006KT 3SM 27/25 A2971 RMK T02700250 IEM_DS3505
ZGGG,2002-07-21 23:00,ZGGG 212300Z AUTO 12006KT 2 1/2SM 27/25 A2974 RMK T02700250 IEM_DS3505
ZGGG,2002-07-22 00:00,ZGGG 220000Z AUTO 11002KT 4SM 27/25 RMK 60000 SLP070 T02730253 52003 IEM_DS3505
ZGGG,2002-07-22 01:00,ZGGG 220100Z AUTO 13006KT 4SM 29/25 A2974 RMK T02900250 IEM_DS3505
ZGGG,2002-07-22 02:00,ZGGG 220200Z AUTO 14006KT 31/25 A2971 RMK T03100250 IEM_DS3505
ZGGG,2002-07-22 03:00,ZGGG 220300Z AUTO 18002KT 9SM 29/25 A2971 RMK SLP065 T02940247 57004 IEM_DS3505
ZGGG,2002-07-22 04:00,ZGGG 220400Z AUTO 15004KT 5SM 28/25 A2971 RMK T02800250 IEM_DS3505
ZGGG,2002-07-22 05:00,ZGGG 220500Z AUTO 16010KT 7SM 30/25 A2971 RMK T03000250 IEM_DS3505
ZGGG,2002-07-22 06:00,ZGGG 220600Z AUTO 16006KT 11SM 30/24 A2968 RMK 60003 SLP052 T02970245 57013 IEM_DS3505
ZGGG,2002-07-22 07:00,ZGGG 220700Z AUTO 16010KT 3SM 29/24 A2968 RMK T02900240 IEM_DS3505
ZGGG,2002-07-22 08:00,ZGGG 220800Z AUTO 00000KT 7SM 25/25 A2968 RMK T02500250 IEM_DS3505
ZGGG,2002-07-22 09:00,ZGGG 220900Z AUTO 09002KT 9SM 26/25 A2965 RMK SLP048 T02630250 57005 IEM_DS3505
ZGGG,2002-07-22 10:00,ZGGG 221000Z AUTO 15010KT 7SM 28/26 A2965 RMK T02800260 IEM_DS3505
ZGGG,2002-07-22 11:00,ZGGG 221100Z AUTO 14008KT 7SM 28/25 A2968 RMK T02800250 IEM_DS3505
ZGGG,2002-07-22 12:00,ZGGG 221200Z AUTO 14004KT 10SM 28/25 A2971 RMK 60024 SLP055 T02780248 52008 IEM_DS3505
ZGGG,2002-07-22 13:00,ZGGG 221300Z AUTO 14006KT 7SM 27/25 A2971 RMK T02700250 IEM_DS3505
ZGGG,2002-07-22 14:00,ZGGG 221400Z AUTO 14008KT 7SM 27/25 A2974 RMK T02700250 IEM_DS3505
ZGGG,2002-07-22 15:00,ZGGG 221500Z AUTO 11002KT 9SM 27/26 A2974 RMK SLP069 T02720255 52014 IEM_DS3505
ZGGG,2002-07-22 16:00,ZGGG 221600Z AUTO 15008KT 6SM 27/25 A2974 RMK T02700250 IEM_DS3505
ZGGG,2002-07-22 17:00,ZGGG 221700Z AUTO 15008KT 6SM 27/25 A2971 RMK T02700250 IEM_DS3505
ZGGG,2002-07-22 18:00,ZGGG 221800Z AUTO 00000KT 8SM 26/24 A2971 RMK SLP058 T02580242 57011 IEM_DS3505
ZGGG,2002-07-22 19:00,ZGGG 221900Z AUTO 16004KT 3SM 26/24 A2971 RMK T02600240 IEM_DS3505
ZGGG,2002-07-22 20:00,ZGGG 222000Z AUTO 13004KT 3SM 27/25 A2968 RMK T02700250 IEM_DS3505
ZGGG,2002-07-22 21:00,ZGGG 222100Z AUTO 11004KT 4SM 26/24 A2968 RMK 70022 SLP053 T02580239 57006 IEM_DS3505
ZGGG,2002-07-22 22:00,ZGGG 222200Z AUTO 12004KT 2 1/2SM 26/24 A2968 RMK T02600240 IEM_DS3505
ZGGG,2002-07-22 23:00,ZGGG 222300Z AUTO 12004KT 3SM 27/24 A2968 RMK T02700240 IEM_DS3505
ZGGG,2002-07-23 00:00,ZGGG 230000Z AUTO 14006KT 6SM 27/24 A2968 RMK 70022 SLP053 T02710245 52001 IEM_DS3505
ZGGG,2002-07-23 01:00,ZGGG 230100Z AUTO 12006KT 3SM 28/24 A2968 RMK T02800240 IEM_DS3505
ZGGG,2002-07-23 02:00,ZGGG 230200Z AUTO 14008KT 4SM 28/24 A2968 RMK T02800240 IEM_DS3505
ZGGG,2002-07-23 03:00,ZGGG 230300Z AUTO 16006KT 10SM 29/25 A2968 RMK SLP057 T02880248 52004 IEM_DS3505
ZGGG,2002-07-23 04:00,ZGGG 230400Z AUTO 17008KT 7SM 31/24 A2968 RMK T03100240 IEM_DS3505
ZGGG,2002-07-23 05:00,ZGGG 230500Z AUTO 15008KT 7SM 32/24 A2965 RMK T03200240 IEM_DS3505
ZGGG,2002-07-23 06:00,ZGGG 230600Z AUTO 14004KT 11SM 28/24 A2965 RMK 60002 SLP044 T02800235 57014 IEM_DS3505
ZGGG,2002-07-23 07:00,ZGGG 230700Z AUTO 15010KT 6SM 31/24 A2962 RMK T03100240 IEM_DS3505
ZGGG,2002-07-23 08:00,ZGGG 230800Z AUTO 12008KT 7SM 31/26 A2962 RMK T03100260 IEM_DS3505
ZGGG,2002-07-23 09:00,ZGGG 230900Z AUTO 14006KT 10SM 30/26 A2962 RMK SLP031 T03050255 57012 IEM_DS3505
ZGGG,2002-07-23 10:00,ZGGG 231000Z AUTO 14008KT 7SM 30/25 A2962 RMK T03000250 IEM_DS3505
ZGGG,2002-07-23 11:00,ZGGG 231100Z AUTO 14008KT 7SM 29/24 A2962 RMK T02900240 IEM_DS3505
ZGGG,2002-07-23 12:00,ZGGG 231200Z AUTO 16006KT 9SM 29/25 A2965 RMK SLP043 T02880247 52012 IEM_DS3505
ZGGG,2002-07-23 13:00,ZGGG 231300Z AUTO 14008KT 7SM 29/25 A2968 RMK T02900250 IEM_DS3505
ZGGG,2002-07-23 14:00,ZGGG 231400Z AUTO 16008KT 6SM 29/23 A2968 RMK T02900230 IEM_DS3505
ZGGG,2002-07-23 15:00,ZGGG 231500Z AUTO 14006KT 11SM 28/24 A2971 RMK SLP057 T02790243 52014 IEM_DS3505
ZGGG,2002-07-23 16:00,ZGGG 231600Z AUTO 15008KT 6SM 28/24 A2971 RMK T02800240 IEM_DS3505
ZGGG,2002-07-23 17:00,ZGGG 231700Z AUTO 15004KT 6SM 27/24 A2968 RMK T02700240 IEM_DS3505
ZGGG,2002-07-23 18:00,ZGGG 231800Z AUTO 14006KT 9SM 28/25 A2968 RMK SLP050 T02770247 57007 IEM_DS3505
ZGGG,2002-07-23 19:00,ZGGG 231900Z AUTO 14004KT 7SM 27/24 A2965 RMK T02700240 IEM_DS3505
ZGGG,2002-07-23 20:00,ZGGG 232000Z AUTO 12006KT 7SM 27/24 A2965 RMK T02700240 IEM_DS3505
ZGGG,2002-07-23 21:00,ZGGG 232100Z AUTO 14004KT 9SM 26/24 A2965 RMK 70002 SLP044 T02600241 57006 IEM_DS3505
ZGGG,2002-07-23 22:00,ZGGG 232200Z AUTO 15004KT 1 1/4SM 27/24 A2968 RMK T02700240 IEM_DS3505
ZGGG,2002-07-23 23:00,ZGGG 232300Z AUTO 09004KT 2 1/2SM 26/25 A2968 RMK T02600250 IEM_DS3505
ZGGG,2002-07-24 00:00,ZGGG 240000Z AUTO 13004KT 2 1/2SM 27/26 A2968 RMK T02700260 IEM_DS3505
ZGGG,2002-07-24 01:00,ZGGG 240100Z AUTO 10006KT 3SM 27/25 A2971 RMK T02700250 IEM_DS3505
ZGGG,2002-07-24 02:00,ZGGG 240200Z AUTO 17006KT 30/24 A2968 RMK T03000240 IEM_DS3505
ZGGG,2002-07-24 03:00,ZGGG 240300Z AUTO 14002KT 9SM 30/26 A2968 RMK SLP051 T02970258 57004 IEM_DS3505
ZGGG,2002-07-24 04:00,ZGGG 240400Z AUTO 13006KT 7SM 31/24 A2968 RMK T03100240 IEM_DS3505
ZGGG,2002-07-24 05:00,ZGGG 240500Z AUTO 15010KT 7SM 31/24 A2965 RMK T03100240 IEM_DS3505
ZGGG,2002-07-24 06:00,ZGGG 240600Z AUTO 16006KT 16SM 31/24 A2965 RMK 60000 SLP038 T03060238 57013 IEM_DS3505
ZGGG,2002-07-24 07:00,ZGGG 240700Z AUTO 12006KT 7SM 32/24 A2962 RMK T03200240 IEM_DS3505
ZGGG,2002-07-24 08:00,ZGGG 240800Z AUTO 16008KT 7SM 33/23 A2959 RMK T03300230 IEM_DS3505
ZGGG,2002-07-24 09:00,ZGGG 240900Z AUTO 14004KT 16SM 32/24 A2959 RMK SLP027 T03210245 57011 IEM_DS3505
ZGGG,2002-07-24 10:00,ZGGG 241000Z AUTO 15006KT 7SM 32/24 A2959 RMK T03200240 IEM_DS3505
ZGGG,2002-07-24 11:00,ZGGG 241100Z AUTO 16010KT 7SM 30/24 A2962 RMK T03000240 IEM_DS3505
ZGGG,2002-07-24 12:00,ZGGG 241200Z AUTO 14006KT 11SM 29/25 A2965 RMK SLP037 T02920248 52010 IEM_DS3505
ZGGG,2002-07-24 13:00,ZGGG 241300Z AUTO 16008KT 7SM 29/26 A2965 RMK T02900260 IEM_DS3505
ZGGG,2002-07-24 14:00,ZGGG 241400Z AUTO 15006KT 7SM 28/26 A2968 RMK T02800260 IEM_DS3505
ZGGG,2002-07-24 15:00,ZGGG 241500Z AUTO 14006KT 7SM 28/26 A2968 RMK T02800260 IEM_DS3505
ZGGG,2002-07-24 16:00,ZGGG 241600Z AUTO 15006KT 7SM 28/26 A2968 RMK T02800260 IEM_DS3505
ZGGG,2002-07-24 17:00,ZGGG 241700Z AUTO 15006KT 7SM 28/26 A2968 RMK T02800260 IEM_DS3505
ZGGG,2002-07-24 18:00,ZGGG 241800Z AUTO 18004KT 9SM 28/26 A2965 RMK SLP041 T02800258 57012 IEM_DS3505
ZGGG,2002-07-24 19:00,ZGGG 241900Z AUTO 16008KT 7SM 28/26 A2962 RMK T02800260 IEM_DS3505
ZGGG,2002-07-24 20:00,ZGGG 242000Z AUTO 15004KT 7SM 28/26 A2962 RMK T02800260 IEM_DS3505
ZGGG,2002-07-24 21:00,ZGGG 242100Z AUTO 16002KT 8SM 27/26 A2962 RMK 70003 SLP027 T02700256 57014 IEM_DS3505
ZGGG,2002-07-24 22:00,ZGGG 242200Z AUTO 15004KT 4SM 28/26 A2962 RMK T02800260 IEM_DS3505
ZGGG,2002-07-24 23:00,ZGGG 242300Z AUTO 15006KT 3SM A2962 RMK IEM_DS3505
ZGGG,2002-07-25 00:00,ZGGG 250000Z AUTO 09002KT 7SM 28/26 A2962 RMK 70000 SLP032 T02800261 52005 IEM_DS3505
ZGGG,2002-07-25 02:00,ZGGG 250200Z AUTO 14004KT 4SM 30/25 A2962 RMK T03000250 IEM_DS3505
ZGGG,2002-07-25 03:00,ZGGG 250300Z AUTO 18004KT 9SM 31/25 A2962 RMK SLP031 T03140253 57001 IEM_DS3505
ZGGG,2002-07-25 04:00,ZGGG 250400Z AUTO 18006KT 7SM 32/25 A2959 RMK T03200250 IEM_DS3505
ZGGG,2002-07-25 05:00,ZGGG 250500Z AUTO 21006KT 7SM 32/24 A2956 RMK T03200240 IEM_DS3505
ZGGG,2002-07-25 06:00,ZGGG 250600Z AUTO 14006KT 10SM 32/26 A2956 RMK 60003 SLP008 T03240258 57023 IEM_DS3505
ZGGG,2002-07-25 07:00,ZGGG 250700Z AUTO 15010KT 4SM 29/25 A2956 RMK T02900250 IEM_DS3505
ZGGG,2002-07-25 08:00,ZGGG 250800Z AUTO 19008KT 7SM 28/24 A2956 RMK T02800240 IEM_DS3505
ZGGG,2002-07-25 09:00,ZGGG 250900Z AUTO 00000KT 11SM 26/25 A2953 RMK SLP001 T02640253 57007 IEM_DS3505
ZGGG,2002-07-25 10:00,ZGGG 251000Z AUTO 05006KT 6SM 27/24 A2953 RMK T02700240 IEM_DS3505
ZGGG,2002-07-25 11:00,ZGGG 251100Z AUTO 13002KT 6SM 28/24 A2953 RMK T02800240 IEM_DS3505
ZGGG,2002-07-25 12:00,ZGGG 251200Z AUTO 00000KT 9SM 26/25 A2956 RMK 60114 SLP016 T02610251 52015 IEM_DS3505
ZGGG,2002-07-25 13:00,ZGGG 251300Z AUTO 00000KT 7SM 28/24 A2956 RMK T02800240 IEM_DS3505
ZGGG,2002-07-25 14:00,ZGGG 251400Z AUTO 15004KT 6SM 27/24 A2959 RMK T02700240 IEM_DS3505
ZGGG,2002-07-25 15:00,ZGGG 251500Z AUTO 09002KT 9SM 26/25 A2959 RMK SLP019 T02600249 52003 IEM_DS3505
ZGGG,2002-07-25 16:00,ZGGG 251600Z AUTO 18004KT 4SM 27/24 A2956 RMK T02700240 IEM_DS3505
ZGGG,2002-07-25 17:00,ZGGG 251700Z AUTO 15002KT 4SM 27/24 A2956 RMK T02700240 IEM_DS3505
ZGGG,2002-07-25 18:00,ZGGG 251800Z AUTO 11002KT 4SM 26/25 A2953 RMK SLP006 T02610251 57013 IEM_DS3505
ZGGG,2002-07-25 19:00,ZGGG 251900Z AUTO 00000KT 3SM 27/24 A2953 RMK T02700240 IEM_DS3505
ZGGG,2002-07-25 20:00,ZGGG 252000Z AUTO 20002KT 2 1/2SM 27/25 A2953 RMK T02700250 IEM_DS3505
ZGGG,2002-07-25 21:00,ZGGG 252100Z AUTO 00000KT 1 1/2SM 26/26 A2953 RMK 70117 SLP003 T02620255 57003 IEM_DS3505
ZGGG,2002-07-25 22:00,ZGGG 252200Z AUTO 17006KT 4SM 27/24 A2953 RMK T02700240 IEM_DS3505
ZGGG,2002-07-25 23:00,ZGGG 252300Z AUTO 19006KT 7SM 27/24 A2956 RMK T02700240 IEM_DS3505
ZGGG,2002-07-26 00:00,ZGGG 260000Z AUTO 11004KT 4SM 26/25 A2956 RMK 60008 SLP011 T02640254 52008 IEM_DS3505
ZGGG,2002-07-26 01:00,ZGGG 260100Z AUTO 15008KT 4SM 27/24 A2956 RMK T02700240 IEM_DS3505
ZGGG,2002-07-26 02:00,ZGGG 260200Z AUTO 17006KT 5SM 27/24 A2956 RMK T02700240 IEM_DS3505
ZGGG,2002-07-26 03:00,ZGGG 260300Z AUTO 09002KT 6SM 27/25 A2953 RMK SLP009 T02740254 57002 IEM_DS3505
ZGGG,2002-07-26 04:00,ZGGG 260400Z AUTO 16006KT 3SM 29/25 A2953 RMK T02900250 IEM_DS3505
ZGGG,2002-07-26 05:00,ZGGG 260500Z AUTO 16010KT 7SM 28/24 A2953 RMK T02800240 IEM_DS3505
ZGGG,2002-07-26 06:00,ZGGG 260600Z AUTO 14004KT 9SM 26/25 A2953 RMK 60003 SLP008 T02640247 57001 IEM_DS3505
ZGGG,2002-07-26 07:00,ZGGG 260700Z AUTO 15008KT 4SM 27/25 A2953 RMK T02700250 IEM_DS3505
ZGGG,2002-07-26 08:00,ZGGG 260800Z AUTO 16006KT 3SM 27/25 A2950 RMK T02700250 IEM_DS3505
ZGGG,2002-07-26 09:00,ZGGG 260900Z AUTO 11002KT 5SM 26/25 A2950 RMK SLP000 T02640253 57008 IEM_DS3505
ZGGG,2002-07-26 10:00,ZGGG 261000Z AUTO 14002KT 2 1/2SM 27/25 A2953 RMK T02700250 IEM_DS3505
ZGGG,2002-07-26 11:00,ZGGG 261100Z AUTO 18006KT 3SM 27/25 A2953 RMK T02700250 IEM_DS3505
ZGGG,2002-07-26 12:00,ZGGG 261200Z AUTO 14004KT 4SM 26/26 A2956 RMK 60001 SLP011 T02640256 52011 IEM_DS3505
ZGGG,2002-07-26 13:00,ZGGG 261300Z AUTO 16004KT 4SM 27/25 A2956 RMK T02700250 IEM_DS3505
ZGGG,2002-07-26 14:00,ZGGG 261400Z AUTO 17006KT 4SM 27/26 A2959 RMK T02700260 IEM_DS3505
ZGGG,2002-07-26 15:00,ZGGG 261500Z AUTO 00000KT 8SM 26/25 A2962 RMK SLP029 T02620251 52018 IEM_DS3505
ZGGG,2002-07-26 16:00,ZGGG 261600Z AUTO 15002KT 5SM 27/24 A2959 RMK T02700240 IEM_DS3505
ZGGG,2002-07-26 17:00,ZGGG 261700Z AUTO 14002KT 4SM 27/24 A2959 RMK T02700240 IEM_DS3505
ZGGG,2002-07-26 18:00,ZGGG 261800Z AUTO 14002KT 2SM 26/25 A2959 RMK 60003 SLP023 T02580252 57007 IEM_DS3505
ZGGG,2002-07-26 19:00,ZGGG 261900Z AUTO 16002KT 2 1/2SM 27/25 A2959 RMK T02700250 IEM_DS3505
ZGGG,2002-07-26 20:00,ZGGG 262000Z AUTO 00000KT 1 1/2SM 27/26 A2959 RMK T02700260 IEM_DS3505
ZGGG,2002-07-26 21:00,ZGGG 262100Z AUTO 14002KT 2SM 26/25 A2959 RMK 70009 SLP020 T02550248 57003 IEM_DS3505
ZGGG,2002-07-26 22:00,ZGGG 262200Z AUTO 00000KT 1 1/2SM 26/25 A2959 RMK T02600250 IEM_DS3505
ZGGG,2002-07-26 23:00,ZGGG 262300Z AUTO 11006KT 1 1/4SM 26/25 A2962 RMK T02600250 IEM_DS3505
ZGGG,2002-07-27 00:00,ZGGG 270000Z AUTO 11004KT 2SM 26/25 A2962 RMK 70001 SLP034 T02650251 52014 IEM_DS3505
ZGGG,2002-07-27 06:00,ZGGG 270600Z AUTO 14006KT 5SM 29/26 A2962 RMK SLP032 T02910256 57010 IEM_DS3505
ZGGG,2002-07-27 08:00,ZGGG 270800Z AUTO 20006KT 1SM 26/24 A2965 RMK T02600240 IEM_DS3505
ZGGG,2002-07-27 09:00,ZGGG 270900Z AUTO 22004KT 3SM 26/25 A2965 RMK SLP042 T02570250 52009 IEM_DS3505
ZGGG,2002-07-27 10:00,ZGGG 271000Z AUTO 00000KT 2 1/2SM 24/24 A2965 RMK T02400240 IEM_DS3505
ZGGG,2002-07-27 11:00,ZGGG 271100Z AUTO 00000KT 2 1/2SM 25/25 A2968 RMK T02500250 IEM_DS3505
ZGGG,2002-07-27 12:00,ZGGG 271200Z AUTO 00000KT 4SM 25/25 A2971 RMK 60157 SLP056 T02540248 52014 IEM_DS3505
ZGGG,2002-07-27 13:00,ZGGG 271300Z AUTO 04004KT 2 1/2SM 25/25 A2971 RMK T02500250 IEM_DS3505
ZGGG,2002-07-27 14:00,ZGGG 271400Z AUTO 05004KT 3SM 26/25 A2971 RMK T02600250 IEM_DS3505
ZGGG,2002-07-27 15:00,ZGGG 271500Z AUTO 00000KT 9SM 26/25 A2974 RMK SLP063 T02560250 52007 IEM_DS3505
ZGGG,2002-07-27 16:00,ZGGG 271600Z AUTO 06004KT 2 1/2SM 26/26 A2971 RMK T02600260 IEM_DS3505
ZGGG,2002-07-27 17:00,ZGGG 271700Z AUTO 06004KT 5SM 26/25 A2971 RMK T02600250 IEM_DS3505
ZGGG,2002-07-27 18:00,ZGGG 271800Z AUTO 00000KT 9SM 25/25 A2971 RMK 60008 SLP058 T02540248 57005 IEM_DS3505
ZGGG,2002-07-27 19:00,ZGGG 271900Z AUTO 03004KT 5SM 26/25 A2971 RMK T02600250 IEM_DS3505
ZGGG,2002-07-27 20:00,ZGGG 272000Z AUTO 00000KT 7SM 26/26 A2971 RMK T02600260 IEM_DS3505
ZGGG,2002-07-27 21:00,ZGGG 272100Z AUTO 00000KT 7SM 25/25 A2971 RMK 70163 SLP062 T02540248 52004 IEM_DS3505
ZGGG,2002-07-27 22:00,ZGGG 272200Z AUTO 07004KT 3SM 26/26 A2971 RMK T02600260 IEM_DS3505
ZGGG,2002-07-27 23:00,ZGGG 272300Z AUTO 01004KT 4SM 26/26 A2974 RMK T02600260 IEM_DS3505
ZGGG,2002-07-28 00:00,ZGGG 280000Z AUTO 04002KT 11SM 28/26 A2974 RMK 70163 SLP073 T02830256 52011 IEM_DS3505
ZGGG,2002-07-28 01:00,ZGGG 280100Z AUTO 10006KT 7SM 29/24 A2974 RMK T02900240 IEM_DS3505
ZGGG,2002-07-28 02:00,ZGGG 280200Z AUTO 09004KT 7SM 29/24 A2974 RMK T02900240 IEM_DS3505
ZGGG,2002-07-28 03:00,ZGGG 280300Z AUTO 09008KT 16SM 31/25 A2974 RMK SLP070 T03090252 57002 IEM_DS3505
ZGGG,2002-07-28 04:00,ZGGG 280400Z AUTO 13006KT 7SM 32/24 A2974 RMK T03200240 IEM_DS3505
ZGGG,2002-07-28 05:00,ZGGG 280500Z AUTO 12008G21KT 7SM 31/24 A2974 RMK T03100240 IEM_DS3505
ZGGG,2002-07-28 06:00,ZGGG 280600Z AUTO 09004KT 15SM 29/25 A2971 RMK 60000 SLP061 T02930246 57010 IEM_DS3505
ZGGG,2002-07-28 07:00,ZGGG 280700Z AUTO 12006KT 7SM 31/24 A2968 RMK T03100240 IEM_DS3505
ZGGG,2002-07-28 08:00,ZGGG 280800Z AUTO 10004KT 7SM 32/24 A2968 RMK T03200240 IEM_DS3505
ZGGG,2002-07-28 09:00,ZGGG 280900Z AUTO 14006KT 7SM 32/25 A2965 RMK SLP043 T03220254 57017 IEM_DS3505
ZGGG,2002-07-28 10:00,ZGGG 281000Z AUTO 17008KT 7SM 31/24 A2965 RMK T03100240 IEM_DS3505
ZGGG,2002-07-28 11:00,ZGGG 281100Z AUTO 12004KT 7SM 30/24 A2968 RMK T03000240 IEM_DS3505
ZGGG,2002-07-28 12:00,ZGGG 281200Z AUTO 00000KT 11SM 28/26 A2971 RMK 60004 SLP062 T02780261 52019 IEM_DS3505
ZGGG,2002-07-28 13:00,ZGGG 281300Z AUTO 13004KT 6SM 29/24 A2974 RMK T02900240 IEM_DS3505
ZGGG,2002-07-28 14:00,ZGGG 281400Z AUTO 00000KT 6SM 28/24 A2974 RMK T02800240 IEM_DS3505
ZGGG,2002-07-28 15:00,ZGGG 281500Z AUTO 09002KT 11SM 27/24 A2977 RMK SLP078 T02730245 52016 IEM_DS3505
ZGGG,2002-07-28 16:00,ZGGG 281600Z AUTO 10006KT 6SM 28/23 A2977 RMK T02800230 IEM_DS3505
ZGGG,2002-07-28 17:00,ZGGG 281700Z AUTO 10004KT 6SM 27/24 A2974 RMK T02700240 IEM_DS3505
ZGGG,2002-07-28 18:00,ZGGG 281800Z AUTO 00000KT 10SM 27/24 A2974 RMK SLP068 T02670237 57010 IEM_DS3505
ZGGG,2002-07-28 19:00,ZGGG 281900Z AUTO 09006KT 6SM 27/24 A2974 RMK T02700240 IEM_DS3505
ZGGG,2002-07-28 20:00,ZGGG 282000Z AUTO 11004KT 6SM 25/24 A2974 RMK T02500240 IEM_DS3505
ZGGG,2002-07-28 21:00,ZGGG 282100Z AUTO 07004KT 7SM 25/24 A2974 RMK 70009 SLP064 T02500241 57004 IEM_DS3505
ZGGG,2002-07-28 22:00,ZGGG 282200Z AUTO 06002KT 6SM 25/24 A2974 RMK T02500240 IEM_DS3505
ZGGG,2002-07-28 23:00,ZGGG 282300Z AUTO 02004KT 6SM 26/23 A2974 RMK T02600230 IEM_DS3505
ZGGG,2002-07-29 00:00,ZGGG 290000Z AUTO 14004KT 9SM 27/24 A2974 RMK 60004 SLP068 T02670240 52003 IEM_DS3505
ZGGG,2002-07-29 01:00,ZGGG 290100Z AUTO 09004KT 6SM 28/23 A2974 RMK T02800230 IEM_DS3505
ZGGG,2002-07-29 02:00,ZGGG 290200Z AUTO 09004KT 7SM 28/23 A2974 RMK T02800230 IEM_DS3505
ZGGG,2002-07-29 03:00,ZGGG 290300Z AUTO 14006KT 9SM 29/24 A2974 RMK SLP072 T02900235 52005 IEM_DS3505
ZGGG,2002-07-29 04:00,ZGGG 290400Z AUTO 12008KT 7SM 31/23 A2974 RMK T03100230 IEM_DS3505
ZGGG,2002-07-29 05:00,ZGGG 290500Z AUTO 12008KT 7SM 31/23 A2971 RMK T03100230 IEM_DS3505
ZGGG,2002-07-29 06:00,ZGGG 290600Z AUTO 14008KT 12SM 31/24 A2971 RMK SLP056 T03120243 57016 IEM_DS3505
ZGGG,2002-07-29 07:00,ZGGG 290700Z AUTO 19017KT 1SM 26/24 A2974 RMK T02600240 IEM_DS3505
ZGGG,2002-07-29 08:00,ZGGG 290800Z AUTO 14008KT 5SM 26/24 A2971 RMK T02600240 IEM_DS3505
ZGGG,2002-07-29 09:00,ZGGG 290900Z AUTO 09002KT 7SM 25/24 RMK SLP056 T02520242 57001 IEM_DS3505
ZGGG,2002-07-29 10:00,ZGGG 291000Z AUTO 11004KT 7SM 26/23 A2971 RMK T02600230 IEM_DS3505
ZGGG,2002-07-29 12:00,ZGGG 291200Z AUTO 16004KT 10SM 26/24 A2971 RMK 60024 SLP066 T02550242 52010 IEM_DS3505
ZGGG,2002-07-29 13:00,ZGGG 291300Z AUTO 13006KT 7SM 26/23 A2974 RMK T02600230 IEM_DS3505
ZGGG,2002-07-29 14:00,ZGGG 291400Z AUTO 09004KT 6SM 26/23 A2974 RMK T02600230 IEM_DS3505
ZGGG,2002-07-29 15:00,ZGGG 291500Z AUTO 1/8SM A2974 RMK 70009 IEM_DS3505
ZGGG,2002-07-29 16:00,ZGGG 291600Z AUTO 10006KT 4SM 26/24 A2974 RMK T02600240 IEM_DS3505
ZGGG,2002-07-29 17:00,ZGGG 291700Z AUTO 12004KT 4SM 26/24 A2974 RMK T02600240 IEM_DS3505
ZGGG,2002-07-29 18:00,ZGGG 291800Z AUTO 14006KT 8SM 26/24 A2974 RMK SLP065 T02600243 57009 IEM_DS3505
ZGGG,2002-07-29 19:00,ZGGG 291900Z AUTO 12006KT 5SM 26/24 A2971 RMK T02600240 IEM_DS3505
ZGGG,2002-07-29 21:00,ZGGG 292100Z AUTO 12004KT 4SM 26/24 A2971 RMK T02600240 IEM_DS3505
ZGGG,2002-07-29 22:00,ZGGG 292200Z AUTO 10006KT 5SM 26/24 A2971 RMK T02600240 IEM_DS3505
ZGGG,2002-07-30 00:00,ZGGG 300000Z AUTO 09004KT 8SM 27/25 RMK 60003 SLP070 T02710247 52008 IEM_DS3505
ZGGG,2002-07-30 01:00,ZGGG 300100Z AUTO 13006KT 7SM 28/24 A2977 RMK T02800240 IEM_DS3505
ZGGG,2002-07-30 02:00,ZGGG 300200Z AUTO 14006KT 7SM 29/24 A2977 RMK T02900240 IEM_DS3505
ZGGG,2002-07-30 03:00,ZGGG 300300Z AUTO 11006KT 1 1/2SM 26/24 A2977 RMK SLP082 T02570244 52012 IEM_DS3505
ZGGG,2002-07-30 04:00,ZGGG 300400Z AUTO 16004KT 4SM 27/25 A2977 RMK T02700250 IEM_DS3505
ZGGG,2002-07-30 05:00,ZGGG 300500Z AUTO 17002KT 4SM 28/25 A2974 RMK T02800250 IEM_DS3505
ZGGG,2002-07-30 06:00,ZGGG 300600Z AUTO 14008KT 10SM 31/26 A2974 RMK 60035 SLP068 T03070258 57013 IEM_DS3505
ZGGG,2002-07-30 07:00,ZGGG 300700Z AUTO 16008KT 5SM 29/24 A2971 RMK T02900240 IEM_DS3505
ZGGG,2002-07-30 08:00,ZGGG 300800Z AUTO 21008KT 4SM 26/25 A2971 RMK T02600250 IEM_DS3505
ZGGG,2002-07-30 09:00,ZGGG 300900Z AUTO 14004KT 9SM 28/26 A2968 RMK SLP058 T02770259 57011 IEM_DS3505
ZGGG,2002-07-30 10:00,ZGGG 301000Z AUTO 10004KT 7SM 27/26 A2968 RMK T02700260 IEM_DS3505
ZGGG,2002-07-30 11:00,ZGGG 301100Z AUTO 10004KT 3SM 27/26 A2971 RMK T02700260 IEM_DS3505
ZGGG,2002-07-30 12:00,ZGGG 301200Z AUTO 00000KT 8SM 27/25 A2971 RMK 60004 SLP065 T02700253 52007 IEM_DS3505
ZGGG,2002-07-30 13:00,ZGGG 301300Z AUTO 09004KT 4SM 27/26 A2974 RMK T02700260 IEM_DS3505
ZGGG,2002-07-30 14:00,ZGGG 301400Z AUTO 12004KT 4SM 27/25 A2977 RMK T02700250 IEM_DS3505
ZGGG,2002-07-30 15:00,ZGGG 301500Z AUTO 00000KT 9SM 27/25 A2977 RMK SLP076 T02660252 52011 IEM_DS3505
ZGGG,2002-07-30 16:00,ZGGG 301600Z AUTO 12006KT 4SM 27/24 A2974 RMK T02700240 IEM_DS3505
ZGGG,2002-07-30 17:00,ZGGG 301700Z AUTO 00000KT 4SM 27/24 A2974 RMK T02700240 IEM_DS3505
ZGGG,2002-07-30 18:00,ZGGG 301800Z AUTO 07004KT 6SM 26/25 A2974 RMK SLP066 T02620251 57009 IEM_DS3505
ZGGG,2002-07-30 19:00,ZGGG 301900Z AUTO 11006KT 4SM 26/24 A2971 RMK T02600240 IEM_DS3505
ZGGG,2002-07-30 20:00,ZGGG 302000Z AUTO 10006KT 4SM 26/24 A2971 RMK T02600240 IEM_DS3505
ZGGG,2002-07-30 21:00,ZGGG 302100Z AUTO 14004KT 8SM 26/24 A2971 RMK 70041 SLP060 T02560243 57007 IEM_DS3505
ZGGG,2002-07-30 22:00,ZGGG 302200Z AUTO 00000KT 5SM 26/24 A2971 RMK T02600240 IEM_DS3505
ZGGG,2002-07-30 23:00,ZGGG 302300Z AUTO 35002KT 5SM 26/24 A2974 RMK T02600240 IEM_DS3505
ZGGG,2002-07-31 00:00,ZGGG 310000Z AUTO 09004KT 11SM 28/25 A2974 RMK 70041 SLP070 T02830248 52010 IEM_DS3505
ZGGG,2002-07-31 01:00,ZGGG 310100Z AUTO 12004KT 4SM 28/25 A2974 RMK T02800250 IEM_DS3505
ZGGG,2002-07-31 02:00,ZGGG 310200Z AUTO 13004KT 5SM 29/25 A2974 RMK T02900250 IEM_DS3505
ZGGG,2002-07-31 03:00,ZGGG 310300Z AUTO 18004KT 1 1/2SM 26/25 A2977 RMK SLP080 T02590249 52010 IEM_DS3505
ZGGG,2002-07-31 05:00,ZGGG 310500Z AUTO 05004KT 3SM 26/26 A2974 RMK T02600260 IEM_DS3505
ZGGG,2002-07-31 06:00,ZGGG 310600Z AUTO 18004KT 9SM 31/26 A2971 RMK 60098 SLP066 T03060262 57013 IEM_DS3505
ZGGG,2002-07-31 07:00,ZGGG 310700Z AUTO 35002KT 5SM 28/26 A2971 RMK T02800260 IEM_DS3505
ZGGG,2002-07-31 08:00,ZGGG 310800Z AUTO 02004KT 4SM 26/24 A2971 RMK T02600240 IEM_DS3505
ZGGG,2002-07-31 09:00,ZGGG 310900Z AUTO 00000KT 5SM 25/24 A2971 RMK SLP060 T02540245 57007 IEM_DS3505
ZGGG,2002-07-31 10:00,ZGGG 311000Z AUTO 00000KT 3SM 26/24 A2968 RMK T02600240 IEM_DS3505
ZGGG,2002-07-31 11:00,ZGGG 311100Z AUTO 08002KT RMK IEM_DS3505
ZGGG,2002-07-31 12:00,ZGGG 311200Z AUTO 00000KT 5SM 25/24 A2971 RMK 60008 SLP066 T02520243 52006 IEM_DS3505
ZGGG,2002-07-31 13:00,ZGGG 311300Z AUTO 08002KT 4SM 26/24 A2974 RMK T02600240 IEM_DS3505
ZGGG,2002-07-31 14:00,ZGGG 311400Z AUTO 06004KT 4SM 25/24 A2977 RMK T02500240 IEM_DS3505
ZGGG,2002-07-31 15:00,ZGGG 311500Z AUTO 00000KT 9SM 25/24 A2974 RMK SLP077 T02460240 52011 IEM_DS3505
ZGGG,2002-07-31 16:00,ZGGG 311600Z AUTO 05004KT 4SM 24/24 A2974 RMK T02400240 IEM_DS3505
ZGGG,2002-07-31 17:00,ZGGG 311700Z AUTO 03004KT 4SM 24/24 A2974 RMK T02400240 IEM_DS3505
ZGGG,2002-07-31 18:00,ZGGG 311800Z AUTO 00000KT 7SM 24/24 A2971 RMK SLP065 T02430237 57012 IEM_DS3505
ZGGG,2002-07-31 19:00,ZGGG 311900Z AUTO 34004KT 3SM 24/24 A2971 RMK T02400240 IEM_DS3505
ZGGG,2002-07-31 20:00,ZGGG 312000Z AUTO 07004KT 2 1/2SM 24/24 A2968 RMK T02400240 IEM_DS3505
ZGGG,2002-07-31 21:00,ZGGG 312100Z AUTO 00000KT 6SM 24/24 A2968 RMK 70106 SLP054 T02400236 57011 IEM_DS3505
ZGGG,2002-07-31 22:00,ZGGG 312200Z AUTO 00000KT 1 1/2SM 24/24 A2971 RMK T02400240 IEM_DS3505
ZGGG,2002-07-31 23:00,ZGGG 312300Z AUTO 00000KT 1SM 24/24 A2974 RMK T02400240 IEM_DS3505
ZGGG,2002-08-01 00:00,ZGGG 010000Z AUTO 36004KT 7SM 26/24 A2974 RMK 70106 SLP067 T02610245 52013 IEM_DS3505
ZGGG,2002-08-01 01:00,ZGGG 010100Z AUTO 00000KT 1SM 27/25 A2974 RMK T02700250 IEM_DS3505
ZGGG,2002-08-01 02:00,ZGGG 010200Z AUTO 03006KT 1SM 28/25 A2974 RMK T02800250 IEM_DS3505
ZGGG,2002-08-01 03:00,ZGGG 010300Z AUTO 09002KT 5SM 31/26 A2974 RMK SLP069 T03070255 52002 IEM_DS3505
ZGGG,2002-08-01 04:00,ZGGG 010400Z AUTO 30004KT 2 1/2SM 31/24 A2971 RMK T03100240 IEM_DS3505
ZGGG,2002-08-01 05:00,ZGGG 010500Z AUTO 34004KT 32/24 A2971 RMK T03200240 IEM_DS3505
ZGGG,2002-08-01 06:00,ZGGG 010600Z AUTO 00000KT 6SM 34/24 A2968 RMK SLP044 T03360243 57024 IEM_DS3505
ZGGG,2002-08-01 07:00,ZGGG 010700Z AUTO 31004KT 7SM 33/23 A2962 RMK T03300230 IEM_DS3505
ZGGG,2002-08-01 08:00,ZGGG 010800Z AUTO 36004KT 7SM 34/23 A2962 RMK T03400230 IEM_DS3505
ZGGG,2002-08-01 09:00,ZGGG 010900Z AUTO 34006KT 11SM 35/24 A2959 RMK SLP024 T03460244 57020 IEM_DS3505
ZGGG,2002-08-01 10:00,ZGGG 011000Z AUTO 31004KT 6SM 34/23 A2959 RMK T03400230 IEM_DS3505
ZGGG,2002-08-01 11:00,ZGGG 011100Z AUTO 26004KT 6SM 33/23 A2959 RMK T03300230 IEM_DS3505
ZGGG,2002-08-01 12:00,ZGGG 011200Z AUTO 00000KT 11SM 30/25 A2962 RMK SLP034 T03020252 52010 IEM_DS3505
ZGGG,2002-08-01 13:00,ZGGG 011300Z AUTO 00000KT 6SM 31/24 A2965 RMK T03100240 IEM_DS3505
ZGGG,2002-08-01 14:00,ZGGG 011400Z AUTO 00000KT 6SM 29/24 A2965 RMK T02900240 IEM_DS3505
ZGGG,2002-08-01 15:00,ZGGG 011500Z AUTO 00000KT 8SM 29/26 A2968 RMK SLP045 T02930264 52011 IEM_DS3505
ZGGG,2002-08-01 16:00,ZGGG 011600Z AUTO 08002KT 4SM 29/24 A2965 RMK T02900240 IEM_DS3505
ZGGG,2002-08-01 17:00,ZGGG 011700Z AUTO 14012KT 4SM 26/23 A2968 RMK T02600230 IEM_DS3505
ZGGG,2002-08-01 18:00,ZGGG 011800Z AUTO 00000KT 8SM 25/24 A2968 RMK 60008 SLP049 T02490237 52004 IEM_DS3505
ZGGG,2002-08-01 19:00,ZGGG 011900Z AUTO 00000KT 7SM 27/23 A2965 RMK T02700230 IEM_DS3505
ZGGG,2002-08-01 20:00,ZGGG 012000Z AUTO 00000KT 7SM 26/24 A2965 RMK T02600240 IEM_DS3505
ZGGG,2002-08-01 21:00,ZGGG 012100Z AUTO 00000KT 8SM 25/24 RMK 70037 SLP045 T02510241 57004 IEM_DS3505
ZGGG,2002-08-01 22:00,ZGGG 012200Z AUTO 00000KT 5SM 26/24 A2965 RMK T02600240 IEM_DS3505
ZGGG,2002-08-01 23:00,ZGGG 012300Z AUTO 05004KT 3SM 27/24 A2965 RMK T02700240 IEM_DS3505
ZGGG,2002-08-02 00:00,ZGGG 020000Z AUTO 00000KT 9SM 28/24 A2965 RMK 60031 SLP046 T02780244 52001 IEM_DS3505
ZGGG,2002-08-02 01:00,ZGGG 020100Z AUTO 06006KT 4SM 29/24 A2968 RMK T02900240 IEM_DS3505
ZGGG,2002-08-02 02:00,ZGGG 020200Z AUTO 05004KT 3SM 31/25 A2968 RMK T03100250 IEM_DS3505
ZGGG,2002-08-02 03:00,ZGGG 020300Z AUTO 09002KT 6SM 32/26 A2968 RMK SLP047 T03160262 52001 IEM_DS3505
ZGGG,2002-08-02 04:00,ZGGG 020400Z AUTO 04004KT 33/26 A2965 RMK T03300260 IEM_DS3505
ZGGG,2002-08-02 05:00,ZGGG 020500Z AUTO 06004KT 7SM 34/26 A2962 RMK T03400260 IEM_DS3505
ZGGG,2002-08-02 06:00,ZGGG 020600Z AUTO 09002KT 10SM 34/25 A2959 RMK SLP020 T03440252 57027 IEM_DS3505
ZGGG,2002-08-02 06:30,ZGGG 020630Z AUTO 36004KT 7SM 34/25 A2956 RMK T03400250 IEM_DS3505
ZGGG,2002-08-02 07:00,ZGGG 020700Z AUTO 05008KT 5SM 33/24 A2956 RMK T03300240 IEM_DS3505
ZGGG,2002-08-02 08:00,ZGGG 020800Z AUTO 20002KT 5SM 33/25 A2953 RMK T03300250 IEM_DS3505
ZGGG,2002-08-02 09:00,ZGGG 020900Z AUTO 22002KT 9SM 33/25 A2953 RMK SLP003 T03300251 57017 IEM_DS3505
ZGGG,2002-08-02 10:00,ZGGG 021000Z AUTO 17004KT 33/24 A2953 RMK T03300240 IEM_DS3505
ZGGG,2002-08-02 11:00,ZGGG 021100Z AUTO 29004KT 7SM 29/25 A2959 RMK T02900250 IEM_DS3505
ZGGG,2002-08-02 12:00,ZGGG 021200Z AUTO 00000KT 11SM 26/25 A2959 RMK 60071 SLP016 T02620252 52013 IEM_DS3505
ZGGG,2002-08-02 13:00,ZGGG 021300Z AUTO 13004KT 7SM 28/25 A2962 RMK T02800250 IEM_DS3505
ZGGG,2002-08-02 14:00,ZGGG 021400Z AUTO 18002KT 4SM 28/26 A2962 RMK T02800260 IEM_DS3505
ZGGG,2002-08-02 15:00,ZGGG 021500Z AUTO 00000KT 11SM 27/26 A2962 RMK SLP031 T02690258 52015 IEM_DS3505
ZGGG,2002-08-02 16:00,ZGGG 021600Z AUTO 00000KT 3SM 28/25 A2962 RMK T02800250 IEM_DS3505
ZGGG,2002-08-02 17:00,ZGGG 021700Z AUTO 09002KT 3SM 28/25 A2959 RMK T02800250 IEM_DS3505
ZGGG,2002-08-02 18:00,ZGGG 021800Z AUTO 00000KT 9SM 27/26 A2956 RMK 60000 SLP014 T02700260 57017 IEM_DS3505
ZGGG,2002-08-02 19:00,ZGGG 021900Z AUTO 34004KT 3SM 28/24 A2956 RMK T02800240 IEM_DS3505
ZGGG,2002-08-02 20:00,ZGGG 022000Z AUTO 00000KT 2 1/2SM 28/24 A2956 RMK T02800240 IEM_DS3505
ZGGG,2002-08-02 21:00,ZGGG 022100Z AUTO 00000KT 5SM 27/26 A2956 RMK 70070 SLP008 T02690259 57006 IEM_DS3505
ZGGG,2002-08-02 22:00,ZGGG 022200Z AUTO 09004KT 2SM 27/25 A2956 RMK T02700250 IEM_DS3505
ZGGG,2002-08-02 23:00,ZGGG 022300Z AUTO 07004KT 1 1/2SM 27/26 A2956 RMK T02700260 IEM_DS3505
ZGGG,2002-08-03 00:00,ZGGG 030000Z AUTO 34002KT 2 1/2SM 27/26 A2959 RMK 70070 SLP016 T02740263 52008 IEM_DS3505
ZGGG,2002-08-03 01:00,ZGGG 030100Z AUTO 01006KT 3SM 29/24 A2959 RMK T02900240 IEM_DS3505
ZGGG,2002-08-03 02:00,ZGGG 030200Z AUTO 04006KT 4SM 29/25 A2959 RMK T02900250 IEM_DS3505
ZGGG,2002-08-03 03:00,ZGGG 030300Z AUTO 04002KT 7SM 30/26 A2959 RMK SLP022 T02950262 52006 IEM_DS3505
ZGGG,2002-08-03 04:00,ZGGG 030400Z AUTO 04008KT 4SM 31/26 A2956 RMK T03100260 IEM_DS3505
ZGGG,2002-08-03 05:00,ZGGG 030500Z AUTO 01006KT 32/25 A2953 RMK T03200250 IEM_DS3505
ZGGG,2002-08-03 06:00,ZGGG 030600Z AUTO 34004KT 10SM 31/26 A2950 RMK 60001 SLP999 T03090259 57023 IEM_DS3505
ZGGG,2002-08-03 07:00,ZGGG 030700Z AUTO 08004KT 4SM 27/26 A2950 RMK T02700260 IEM_DS3505
ZGGG,2002-08-03 08:00,ZGGG 030800Z AUTO 04004KT 3SM 28/26 A2950 RMK T02800260 IEM_DS3505
ZGGG,2002-08-03 09:00,ZGGG 030900Z AUTO 34002KT 10SM 28/27 A2947 RMK SLP987 T02840266 57012 IEM_DS3505
ZGGG,2002-08-03 10:00,ZGGG 031000Z AUTO 36004KT 2 1/2SM 28/26 A2950 RMK T02800260 IEM_DS3505
ZGGG,2002-08-03 11:00,ZGGG 031100Z AUTO 32004KT 2 1/2SM 28/26 A2950 RMK T02800260 IEM_DS3505
ZGGG,2002-08-03 12:00,ZGGG 031200Z AUTO 00000KT 8SM 28/26 A2953 RMK 60118 SLP000 T02750260 52013 IEM_DS3505
ZGGG,2002-08-03 13:00,ZGGG 031300Z AUTO 22002KT 3SM 27/26 A2953 RMK T02700260 IEM_DS3505
ZGGG,2002-08-03 14:00,ZGGG 031400Z AUTO 14002KT 2 1/2SM 27/26 A2953 RMK T02700260 IEM_DS3505
ZGGG,2002-08-03 15:00,ZGGG 031500Z AUTO 00000KT 8SM 27/26 A2953 RMK SLP003 T02660259 52003 IEM_DS3505
ZGGG,2002-08-03 16:00,ZGGG 031600Z AUTO 34004KT 2SM 27/26 A2953 RMK T02700260 IEM_DS3505
ZGGG,2002-08-03 17:00,ZGGG 031700Z AUTO 36006KT 3SM 27/26 A2950 RMK T02700260 IEM_DS3505
ZGGG,2002-08-03 18:00,ZGGG 031800Z AUTO 36006KT 9SM 26/25 A2947 RMK 60016 SLP984 T02640250 57019 IEM_DS3505
ZGGG,2002-08-03 19:00,ZGGG 031900Z AUTO 02004KT 7SM 27/24 A2947 RMK T02700240 IEM_DS3505
ZGGG,2002-08-03 20:00,ZGGG 032000Z AUTO 01006KT 6SM 27/24 A2947 RMK T02700240 IEM_DS3505
ZGGG,2002-08-03 21:00,ZGGG 032100Z AUTO 04006KT 11SM 26/24 A2944 RMK 70135 SLP970 T02620241 57014 IEM_DS3505
ZGGG,2002-08-03 22:00,ZGGG 032200Z AUTO 36006KT 6SM 27/24 A2944 RMK T02700240 IEM_DS3505
ZGGG,2002-08-03 23:00,ZGGG 032300Z AUTO 35006KT 6SM 27/24 A2947 RMK T02700240 IEM_DS3505
ZGGG,2002-08-04 00:00,ZGGG 040000Z AUTO 34006KT 12SM 27/24 A2947 RMK 70135 SLP977 T02720244 52007 IEM_DS3505
ZGGG,2002-08-04 01:00,ZGGG 040100Z AUTO 36008KT 4SM 28/24 A2947 RMK T02800240 IEM_DS3505
ZGGG,2002-08-04 02:00,ZGGG 040200Z AUTO 01008KT 7SM 30/24 A2944 RMK T03000240 IEM_DS3505
ZGGG,2002-08-04 03:00,ZGGG 040300Z AUTO 36004KT 12SM 32/24 A2944 RMK SLP966 T03150243 57011 IEM_DS3505
ZGGG,2002-08-04 04:00,ZGGG 040400Z AUTO 03012KT 7SM 32/24 A2941 RMK T03200240 IEM_DS3505
ZGGG,2002-08-04 05:00,ZGGG 040500Z AUTO 01012KT 7SM 32/24 A2941 RMK T03200240 IEM_DS3505
ZGGG,2002-08-04 06:00,ZGGG 040600Z AUTO 02006KT 16SM 33/25 A2938 RMK 60003 SLP947 T03260246 57019 IEM_DS3505
ZGGG,2002-08-04 07:00,ZGGG 040700Z AUTO 02012KT 7SM 33/24 A2935 RMK T03300240 IEM_DS3505
ZGGG,2002-08-04 08:00,ZGGG 040800Z AUTO 02014KT 7SM 33/23 A2932 RMK T03300230 IEM_DS3505
ZGGG,2002-08-04 09:00,ZGGG 040900Z AUTO 02004KT 16SM 30/25 A2932 RMK SLP931 T03000251 57016 IEM_DS3505
ZGGG,2002-08-04 10:00,ZGGG 041000Z AUTO 04008KT 7SM 31/25 A2932 RMK T03100250 IEM_DS3505
ZGGG,2002-08-04 11:00,ZGGG 041100Z AUTO 03012KT 7SM 31/24 A2932 RMK T03100240 IEM_DS3505
ZGGG,2002-08-04 12:00,ZGGG 041200Z AUTO 02006KT 16SM 30/23 A2935 RMK 60001 SLP938 T02990232 52007 IEM_DS3505
ZGGG,2002-08-04 13:00,ZGGG 041300Z AUTO 02010KT 6SM 29/23 A2938 RMK T02900230 IEM_DS3505
ZGGG,2002-08-04 14:00,ZGGG 041400Z AUTO 02006KT 6SM 28/23 A2938 RMK T02800230 IEM_DS3505
ZGGG,2002-08-04 15:00,ZGGG 041500Z AUTO 34002KT 14SM 28/23 A2938 RMK SLP952 T02800232 IEM_DS3505
ZGGG,2002-08-04 16:00,ZGGG 041600Z AUTO 34004KT 6SM 28/23 A2938 RMK T02800230 IEM_DS3505
ZGGG,2002-08-04 17:00,ZGGG 041700Z AUTO 36008KT 6SM 28/23 A2938 RMK T02800230 IEM_DS3505
ZGGG,2002-08-04 18:00,ZGGG 041800Z AUTO 36006KT 6SM 28/23 A2935 RMK T02800230 IEM_DS3505
ZGGG,2002-08-04 19:00,ZGGG 041900Z AUTO 36006KT 6SM 28/23 A2932 RMK T02800230 IEM_DS3505
ZGGG,2002-08-04 20:00,ZGGG 042000Z AUTO 36006KT 6SM 28/23 A2932 RMK T02800230 IEM_DS3505
ZGGG,2002-08-04 21:00,ZGGG 042100Z AUTO 34004KT 11SM 27/24 A2932 RMK 70001 SLP930 T02690236 57008 IEM_DS3505
ZGGG,2002-08-04 22:00,ZGGG 042200Z AUTO 36006KT 6SM 28/23 A2932 RMK T02800230 IEM_DS3505
ZGGG,2002-08-04 23:00,ZGGG 042300Z AUTO 35006KT 6SM 28/23 A2935 RMK T02800230 IEM_DS3505
ZGGG,2002-08-05 00:00,ZGGG 050000Z AUTO 32004KT 14SM 28/24 A2935 RMK 70001 SLP945 T02780235 52015 IEM_DS3505
ZGGG,2002-08-05 01:00,ZGGG 050100Z AUTO 34008KT 6SM 29/23 A2938 RMK T02900230 IEM_DS3505
ZGGG,2002-08-05 02:00,ZGGG 050200Z AUTO 36010KT 6SM 29/22 A2938 RMK T02900220 IEM_DS3505
ZGGG,2002-08-05 03:00,ZGGG 050300Z AUTO 32006KT 14SM 30/24 A2938 RMK SLP952 T03000237 52007 IEM_DS3505
ZGGG,2002-08-05 04:00,ZGGG 050400Z AUTO 36010KT 7SM 31/22 A2938 RMK T03100220 IEM_DS3505
ZGGG,2002-08-05 05:00,ZGGG 050500Z AUTO 02008KT 7SM 29/23 A2938 RMK T02900230 IEM_DS3505
ZGGG,2002-08-05 05:30,ZGGG 050530Z AUTO 02004KT 7SM 29/23 A2935 RMK T02900230 IEM_DS3505
ZGGG,2002-08-05 06:00,ZGGG 050600Z AUTO 02004KT 7SM 30/23 A2935 RMK T03000230 IEM_DS3505
ZGGG,2002-08-05 07:00,ZGGG 050700Z AUTO 36008KT 7SM 32/22 A2932 RMK T03200220 IEM_DS3505
ZGGG,2002-08-05 08:00,ZGGG 050800Z AUTO 36004KT 6SM 32/22 A2932 RMK T03200220 IEM_DS3505
ZGGG,2002-08-05 09:00,ZGGG 050900Z AUTO 00000KT 16SM 32/25 A2935 RMK SLP940 T03220246 54000 IEM_DS3505
ZGGG,2002-08-05 10:00,ZGGG 051000Z AUTO 26006KT 1SM 29/24 A2938 RMK T02900240 IEM_DS3505
ZGGG,2002-08-05 11:00,ZGGG 051100Z AUTO 00000KT 1 1/4SM RMK IEM_DS3505
ZGGG,2002-08-05 12:00,ZGGG 051200Z AUTO 27004KT 1SM 25/24 A2944 RMK 60201 SLP970 T02490240 52030 IEM_DS3505
ZGGG,2002-08-05 13:00,ZGGG 051300Z AUTO 00000KT 3SM 26/24 A2947 RMK T02600240 IEM_DS3505
ZGGG,2002-08-05 14:00,ZGGG 051400Z AUTO 20004KT 3SM 26/25 A2947 RMK T02600250 IEM_DS3505
ZGGG,2002-08-05 15:00,ZGGG 051500Z AUTO 00000KT 9SM 26/25 RMK SLP986 T02600253 52016 IEM_DS3505
ZGGG,2002-08-05 16:00,ZGGG 051600Z AUTO 21006KT 4SM 27/25 A2950 RMK T02700250 IEM_DS3505
ZGGG,2002-08-05 17:00,ZGGG 051700Z AUTO 20006KT 4SM 26/25 A2950 RMK T02600250 IEM_DS3505
ZGGG,2002-08-05 18:00,ZGGG 051800Z AUTO 27002KT 8SM 26/25 A2947 RMK 60028 SLP983 T02590248 57003 IEM_DS3505
ZGGG,2002-08-05 19:00,ZGGG 051900Z AUTO 20006KT 4SM 26/25 A2944 RMK T02600250 IEM_DS3505
ZGGG,2002-08-05 20:00,ZGGG 052000Z AUTO 20008KT 3SM 26/25 A2947 RMK T02600250 IEM_DS3505
ZGGG,2002-08-05 21:00,ZGGG 052100Z AUTO 27004KT 9SM 26/25 RMK 70246 SLP975 T02620248 57008 IEM_DS3505
ZGGG,2002-08-05 23:00,ZGGG 052300Z AUTO 24006KT 3SM 26/24 A2950 RMK T02600240 IEM_DS3505
ZGGG,2002-08-06 00:00,ZGGG 060000Z AUTO 25002KT 9SM 26/24 A2950 RMK 60020 SLP997 T02560245 52021 IEM_DS3505
ZGGG,2002-08-06 01:00,ZGGG 060100Z AUTO 22006KT 3SM 26/25 A2953 RMK T02600250 IEM_DS3505
ZGGG,2002-08-06 02:00,ZGGG 060200Z AUTO 18006KT 4SM 27/24 A2953 RMK T02700240 IEM_DS3505
ZGGG,2002-08-06 03:00,ZGGG 060300Z AUTO 22004KT 6SM 28/25 A2956 RMK SLP006 T02800252 52010 IEM_DS3505
ZGGG,2002-08-06 04:00,ZGGG 060400Z AUTO 25008KT 7SM 28/24 A2953 RMK T02800240 IEM_DS3505
ZGGG,2002-08-06 05:00,ZGGG 060500Z AUTO 19008KT 4SM 27/24 A2953 RMK T02700240 IEM_DS3505
ZGGG,2002-08-06 06:00,ZGGG 060600Z AUTO 18006KT 9SM 27/24 A2953 RMK 60003 SLP001 T02740243 57005 IEM_DS3505
ZGGG,2002-08-06 07:00,ZGGG 060700Z AUTO 18010KT 4SM 28/24 A2953 RMK T02800240 IEM_DS3505
ZGGG,2002-08-06 08:00,ZGGG 060800Z AUTO 20008KT 4SM 29/24 A2950 RMK T02900240 IEM_DS3505
ZGGG,2002-08-06 09:00,ZGGG 060900Z AUTO 18004KT 7SM 29/25 A2953 RMK SLP997 T02860249 57004 IEM_DS3505
ZGGG,2002-08-06 10:00,ZGGG 061000Z AUTO 16006KT 4SM 28/25 A2953 RMK T02800250 IEM_DS3505
ZGGG,2002-08-06 11:00,ZGGG 061100Z AUTO 17006KT 7SM 28/24 A2953 RMK T02800240 IEM_DS3505
ZGGG,2002-08-06 12:00,ZGGG 061200Z AUTO 16002KT 9SM 27/25 A2956 RMK 60003 SLP010 T02720249 52013 IEM_DS3505
ZGGG,2002-08-06 13:00,ZGGG 061300Z AUTO 16006KT 4SM 27/24 A2959 RMK T02700240 IEM_DS3505
ZGGG,2002-08-06 14:00,ZGGG 061400Z AUTO 18004KT 7SM 27/24 A2962 RMK T02700240 IEM_DS3505
ZGGG,2002-08-06 15:00,ZGGG 061500Z AUTO 00000KT 8SM 27/25 A2965 RMK SLP037 T02720254 52027 IEM_DS3505
ZGGG,2002-08-06 16:00,ZGGG 061600Z AUTO 17006KT 7SM 27/24 A2962 RMK T02700240 IEM_DS3505
ZGGG,2002-08-06 17:00,ZGGG 061700Z AUTO 17006KT 7SM 27/25 A2962 RMK T02700250 IEM_DS3505
ZGGG,2002-08-06 18:00,ZGGG 061800Z AUTO 14002KT 7SM 27/25 A2962 RMK SLP028 T02680254 57009 IEM_DS3505
ZGGG,2002-08-06 19:00,ZGGG 061900Z AUTO 19004KT 7SM 27/24 A2959 RMK T02700240 IEM_DS3505
ZGGG,2002-08-06 20:00,ZGGG 062000Z AUTO 17006KT 7SM 27/24 A2959 RMK T02700240 IEM_DS3505
ZGGG,2002-08-06 21:00,ZGGG 062100Z AUTO 00000KT 4SM 27/26 A2959 RMK 70006 SLP022 T02660255 57006 IEM_DS3505
ZGGG,2002-08-06 22:00,ZGGG 062200Z AUTO 17004KT 7SM 27/25 A2959 RMK T02700250 IEM_DS3505
ZGGG,2002-08-06 23:00,ZGGG 062300Z AUTO 18004KT 4SM 27/25 A2959 RMK T02700250 IEM_DS3505
ZGGG,2002-08-07 00:00,ZGGG 070000Z AUTO 16002KT 6SM 27/26 A2962 RMK 70003 SLP027 T02740256 52005 IEM_DS3505
ZGGG,2002-08-07 01:00,ZGGG 070100Z AUTO 21008KT 4SM 28/25 A2962 RMK T02800250 IEM_DS3505
ZGGG,2002-08-07 02:00,ZGGG 070200Z AUTO 22008KT 4SM 29/24 A2962 RMK T02900240 IEM_DS3505
ZGGG,2002-08-07 03:00,ZGGG 070300Z AUTO 16004KT 11SM 30/25 A2962 RMK SLP035 T02960250 52008 IEM_DS3505
ZGGG,2002-08-07 04:00,ZGGG 070400Z AUTO 20006KT 4SM 29/24 A2962 RMK T02900240 IEM_DS3505
ZGGG,2002-08-07 05:00,ZGGG 070500Z AUTO 23006KT 7SM 30/24 A2962 RMK T03000240 IEM_DS3505
ZGGG,2002-08-07 06:00,ZGGG 070600Z AUTO 22002KT 9SM 32/25 A2959 RMK SLP021 T03150254 57014 IEM_DS3505
ZGGG,2002-08-07 07:00,ZGGG 070700Z AUTO 32004KT 7SM 31/24 A2956 RMK T03100240 IEM_DS3505
ZGGG,2002-08-07 08:00,ZGGG 070800Z AUTO 31004KT 5SM 31/24 A2953 RMK T03100240 IEM_DS3505
ZGGG,2002-08-07 09:00,ZGGG 070900Z AUTO 14006KT 9SM 28/25 A2956 RMK SLP016 T02840250 57005 IEM_DS3505
ZGGG,2002-08-07 11:00,ZGGG 071100Z AUTO 18008KT 4SM 27/25 A2962 RMK T02700250 IEM_DS3505
ZGGG,2002-08-07 12:00,ZGGG 071200Z AUTO 16002KT 7SM 26/24 A2962 RMK 60008 SLP034 T02590245 52017 IEM_DS3505
ZGGG,2002-08-07 13:00,ZGGG 071300Z AUTO 17002KT 6SM 26/24 A2965 RMK T02600240 IEM_DS3505
ZGGG,2002-08-07 14:00,ZGGG 071400Z AUTO 18004KT 6SM 26/23 A2965 RMK T02600230 IEM_DS3505
ZGGG,2002-08-07 15:00,ZGGG 071500Z AUTO 00000KT 9SM 26/25 A2965 RMK SLP044 T02570247 52011 IEM_DS3505
ZGGG,2002-08-07 16:00,ZGGG 071600Z AUTO 20004KT 6SM 27/24 A2965 RMK T02700240 IEM_DS3505
ZGGG,2002-08-07 17:00,ZGGG 071700Z AUTO 19004KT 6SM 27/24 A2965 RMK T02700240 IEM_DS3505
ZGGG,2002-08-07 18:00,ZGGG 071800Z AUTO 00000KT 2 1/2SM 26/25 A2965 RMK 60000 SLP037 T02580249 57007 IEM_DS3505
ZGGG,2002-08-07 19:00,ZGGG 071900Z AUTO 18004KT 4SM 27/26 A2962 RMK T02700260 IEM_DS3505
ZGGG,2002-08-07 20:00,ZGGG 072000Z AUTO 17004KT 4SM 27/24 A2962 RMK T02700240 IEM_DS3505
ZGGG,2002-08-07 21:00,ZGGG 072100Z AUTO 00000KT 2 1/2SM 26/25 A2962 RMK 70008 SLP032 T02590253 57005 IEM_DS3505
ZGGG,2002-08-07 22:00,ZGGG 072200Z AUTO 00000KT 4SM 27/25 A2962 RMK T02700250 IEM_DS3505
ZGGG,2002-08-07 23:00,ZGGG 072300Z AUTO 00000KT 3SM 27/25 A2965 RMK T02700250 IEM_DS3505
ZGGG,2002-08-08 00:00,ZGGG 080000Z AUTO 00000KT 6SM 27/26 A2965 RMK 70008 SLP042 T02710258 52009 IEM_DS3505
ZGGG,2002-08-08 01:00,ZGGG 080100Z AUTO 21006KT 4SM 28/25 A2968 RMK T02800250 IEM_DS3505
ZGGG,2002-08-08 02:00,ZGGG 080200Z AUTO 23004KT 4SM 29/25 A2965 RMK T02900250 IEM_DS3505
ZGGG,2002-08-08 03:00,ZGGG 080300Z AUTO 22004KT 6SM 30/26 A2965 RMK SLP044 T02980259 52003 IEM_DS3505
ZGGG,2002-08-08 04:00,ZGGG 080400Z AUTO 22004KT 30/24 A2965 RMK T03000240 IEM_DS3505
ZGGG,2002-08-08 05:00,ZGGG 080500Z AUTO 24004KT 31/24 A2962 RMK T03100240 IEM_DS3505
ZGGG,2002-08-08 06:00,ZGGG 080600Z AUTO 34004KT 8SM 30/26 A2959 RMK 60000 SLP023 T03030257 57021 IEM_DS3505
ZGGG,2002-08-08 07:00,ZGGG 080700Z AUTO 23010KT 2SM 27/26 A2959 RMK T02700260 IEM_DS3505
ZGGG,2002-08-08 08:00,ZGGG 080800Z AUTO 28004KT 2SM 26/25 A2962 RMK T02600250 IEM_DS3505
ZGGG,2002-08-08 09:00,ZGGG 080900Z AUTO 00000KT 4SM 26/25 A2962 RMK SLP028 T02610251 52004 IEM_DS3505
ZGGG,2002-08-08 10:00,ZGGG 081000Z AUTO 00000KT 3SM 26/25 A2962 RMK T02600250 IEM_DS3505
ZGGG,2002-08-08 11:00,ZGGG 081100Z AUTO 09002KT 2SM 26/26 A2965 RMK T02600260 IEM_DS3505
ZGGG,2002-08-08 12:00,ZGGG 081200Z AUTO 11004KT 4SM 26/25 A2965 RMK 60039 SLP042 T02550248 52014 IEM_DS3505
ZGGG,2002-08-08 13:00,ZGGG 081300Z AUTO 00000KT 3SM 26/25 A2968 RMK T02600250 IEM_DS3505
ZGGG,2002-08-08 14:00,ZGGG 081400Z AUTO 10002KT 3SM 26/25 A2968 RMK T02600250 IEM_DS3505
ZGGG,2002-08-08 15:00,ZGGG 081500Z AUTO 14002KT 6SM 25/25 A2968 RMK SLP053 T02530246 52012 IEM_DS3505
ZGGG,2002-08-08 16:00,ZGGG 081600Z AUTO 28004KT 1 1/2SM 24/24 A2971 RMK T02400240 IEM_DS3505
ZGGG,2002-08-08 17:00,ZGGG 081700Z AUTO 14002KT 2 1/2SM 24/24 A2968 RMK T02400240 IEM_DS3505
ZGGG,2002-08-08 18:00,ZGGG 081800Z AUTO 00000KT 5SM 25/24 A2968 RMK 60083 SLP043 T02480242 57010 IEM_DS3505
ZGGG,2002-08-08 19:00,ZGGG 081900Z AUTO 04002KT 3SM 25/25 A2965 RMK T02500250 IEM_DS3505
ZGGG,2002-08-08 20:00,ZGGG 082000Z AUTO 06002KT 4SM 25/25 A2965 RMK T02500250 IEM_DS3505
ZGGG,2002-08-08 21:00,ZGGG 082100Z AUTO 00000KT 2 1/2SM 25/24 A2965 RMK 70132 SLP039 T02480242 57005 IEM_DS3505
ZGGG,2002-08-08 22:00,ZGGG 082200Z AUTO 06004KT 3SM 25/25 A2965 RMK T02500250 IEM_DS3505
ZGGG,2002-08-08 23:00,ZGGG 082300Z AUTO 00000KT 2SM 25/25 A2968 RMK T02500250 IEM_DS3505
ZGGG,2002-08-09 00:00,ZGGG 090000Z AUTO 11002KT 1 1/2SM 26/25 A2968 RMK 60016 SLP049 T02550249 52010 IEM_DS3505
ZGGG,2002-08-09 01:00,ZGGG 090100Z AUTO 10004KT 1 1/2SM 26/25 A2971 RMK T02600250 IEM_DS3505
ZGGG,2002-08-09 02:00,ZGGG 090200Z AUTO 11002KT 1 1/2SM 26/26 A2968 RMK T02600260 IEM_DS3505
ZGGG,2002-08-09 03:00,ZGGG 090300Z AUTO 14004KT 7SM 26/25 A2971 RMK SLP055 T02620248 52006 IEM_DS3505
ZGGG,2002-08-09 04:00,ZGGG 090400Z AUTO 15004KT 5SM 27/24 A2968 RMK T02700240 IEM_DS3505
ZGGG,2002-08-09 05:00,ZGGG 090500Z AUTO 15004KT 4SM 27/24 A2968 RMK T02700240 IEM_DS3505
ZGGG,2002-08-09 06:00,ZGGG 090600Z AUTO 14006KT 7SM 28/24 A2965 RMK 60004 SLP043 T02760245 57012 IEM_DS3505
ZGGG,2002-08-09 07:00,ZGGG 090700Z AUTO 13004KT 3SM 28/24 A2965 RMK T02800240 IEM_DS3505
ZGGG,2002-08-09 08:00,ZGGG 090800Z AUTO 12006KT 4SM 28/24 A2962 RMK T02800240 IEM_DS3505
ZGGG,2002-08-09 09:00,ZGGG 090900Z AUTO 18004KT 7SM 29/25 A2962 RMK SLP031 T02860246 57011 IEM_DS3505
ZGGG,2002-08-09 10:00,ZGGG 091000Z AUTO 16008KT 4SM 28/24 A2965 RMK T02800240 IEM_DS3505
ZGGG,2002-08-09 11:00,ZGGG 091100Z AUTO 23012G23KT 1SM RMK IEM_DS3505
ZGGG,2002-08-09 12:00,ZGGG 091200Z AUTO 00000KT 11SM 25/23 A2968 RMK 60000 SLP048 T02490233 52016 IEM_DS3505
ZGGG,2002-08-09 13:00,ZGGG 091300Z AUTO 20002KT 4SM 25/24 A2971 RMK T02500240 IEM_DS3505
ZGGG,2002-08-09 14:00,ZGGG 091400Z AUTO 17004KT 3SM 25/24 A2974 RMK T02500240 IEM_DS3505
ZGGG,2002-08-09 15:00,ZGGG 091500Z AUTO 00000KT 7SM 25/24 A2974 RMK SLP068 T02520242 52020 IEM_DS3505
ZGGG,2002-08-09 16:00,ZGGG 091600Z AUTO 00000KT 2 1/2SM 25/24 A2974 RMK T02500240 IEM_DS3505
ZGGG,2002-08-09 17:00,ZGGG 091700Z AUTO 00000KT 2 1/2SM 25/24 A2974 RMK T02500240 IEM_DS3505
ZGGG,2002-08-09 18:00,ZGGG 091800Z AUTO 00000KT 6SM 25/24 A2971 RMK 60001 SLP061 T02520243 57007 IEM_DS3505
ZGGG,2002-08-09 19:00,ZGGG 091900Z AUTO 00000KT 2 1/2SM 25/24 A2971 RMK T02500240 IEM_DS3505
ZGGG,2002-08-09 20:00,ZGGG 092000Z AUTO 36004KT 3SM 25/23 A2971 RMK T02500230 IEM_DS3505
ZGGG,2002-08-09 21:00,ZGGG 092100Z AUTO 00000KT 2SM 25/24 A2971 RMK 70013 SLP061 T02500238 54000 IEM_DS3505
ZGGG,2002-08-09 22:00,ZGGG 092200Z AUTO 02004KT 3SM 24/24 A2971 RMK T02400240 IEM_DS3505
ZGGG,2002-08-09 23:00,ZGGG 092300Z AUTO 05006KT 4SM 24/24 A2974 RMK T02400240 IEM_DS3505
ZGGG,2002-08-10 00:00,ZGGG 100000Z AUTO 36006KT 7SM 25/24 A2974 RMK 60004 SLP073 T02470237 52012 IEM_DS3505
ZGGG,2002-08-10 01:00,ZGGG 100100Z AUTO 03006KT 5SM 25/24 A2977 RMK T02500240 IEM_DS3505
ZGGG,2002-08-10 02:00,ZGGG 100200Z AUTO 03006KT 4SM 26/24 A2977 RMK T02600240 IEM_DS3505
ZGGG,2002-08-10 03:00,ZGGG 100300Z AUTO 00000KT 7SM 27/25 A2977 RMK SLP082 T02720248 52009 IEM_DS3505
ZGGG,2002-08-10 04:00,ZGGG 100400Z AUTO 02006KT 3SM 26/24 A2977 RMK T02600240 IEM_DS3505
ZGGG,2002-08-10 05:00,ZGGG 100500Z AUTO 03004KT 5SM 28/24 A2977 RMK T02800240 IEM_DS3505
ZGGG,2002-08-10 06:00,ZGGG 100600Z AUTO 32004KT 9SM 30/25 A2974 RMK 60002 SLP070 T03000246 57012 IEM_DS3505
ZGGG,2002-08-10 07:00,ZGGG 100700Z AUTO 01006KT 7SM 29/23 A2974 RMK T02900230 IEM_DS3505
ZGGG,2002-08-10 08:00,ZGGG 100800Z AUTO 03006KT 29/23 A2971 RMK T02900230 IEM_DS3505
ZGGG,2002-08-10 09:00,ZGGG 100900Z AUTO 00000KT 9SM 26/24 A2974 RMK SLP069 T02640244 57001 IEM_DS3505
ZGGG,2002-08-10 10:00,ZGGG 101000Z AUTO 09004KT 1 1/2SM 25/24 A2977 RMK T02500240 IEM_DS3505
ZGGG,2002-08-10 11:00,ZGGG 101100Z AUTO 05002KT 2 1/2SM 25/24 A2977 RMK T02500240 IEM_DS3505
ZGGG,2002-08-10 12:00,ZGGG 101200Z AUTO 02002KT 2 1/2SM 26/25 RMK 60059 SLP086 T02550246 52017 IEM_DS3505
ZGGG,2002-08-10 13:00,ZGGG 101300Z AUTO 04006KT 5SM 25/24 A2980 RMK T02500240 IEM_DS3505
ZGGG,2002-08-10 14:00,ZGGG 101400Z AUTO 05004KT 7SM 25/24 A2983 RMK T02500240 IEM_DS3505
ZGGG,2002-08-10 15:00,ZGGG 101500Z AUTO 07002KT 8SM 25/24 A2983 RMK SLP095 T02510242 52009 IEM_DS3505
ZGGG,2002-08-10 16:00,ZGGG 101600Z AUTO 00000KT 7SM 26/24 A2983 RMK T02600240 IEM_DS3505
ZGGG,2002-08-10 17:00,ZGGG 101700Z AUTO 00000KT 3SM 25/24 A2983 RMK T02500240 IEM_DS3505
ZGGG,2002-08-10 18:00,ZGGG 101800Z AUTO 00000KT 7SM 25/24 A2980 RMK 60008 SLP090 T02500241 57005 IEM_DS3505
ZGGG,2002-08-10 19:00,ZGGG 101900Z AUTO 04004KT 4SM 25/25 A2980 RMK T02500250 IEM_DS3505
ZGGG,2002-08-10 20:00,ZGGG 102000Z AUTO 04004KT 5SM 25/25 A2980 RMK T02500250 IEM_DS3505
ZGGG,2002-08-10 21:00,ZGGG 102100Z AUTO 00000KT 9SM 24/23 A2980 RMK 70072 SLP092 T02400233 52002 IEM_DS3505
ZGGG,2002-08-10 22:00,ZGGG 102200Z AUTO 04004KT 7SM 24/24 A2983 RMK T02400240 IEM_DS3505
ZGGG,2002-08-10 23:00,ZGGG 102300Z AUTO 05006KT 5SM 24/24 A2983 RMK T02400240 IEM_DS3505
ZGGG,2002-08-11 00:00,ZGGG 110000Z AUTO 07002KT 12SM 26/23 RMK 70068 SLP105 T02600228 52013 IEM_DS3505
ZGGG,2002-08-11 03:00,ZGGG 110300Z AUTO 14004KT 11SM 29/24 A2985 RMK SLP110 T02940243 52005 IEM_DS3505
ZGGG,2002-08-11 04:00,ZGGG 110400Z AUTO 06002KT 7SM 28/23 A2985 RMK T02800230 IEM_DS3505
ZGGG,2002-08-11 05:00,ZGGG 110500Z AUTO 04004KT 7SM 29/24 A2983 RMK T02900240 IEM_DS3505
ZGGG,2002-08-11 06:00,ZGGG 110600Z AUTO 09004KT 11SM 31/24 A2983 RMK SLP096 T03100239 57014 IEM_DS3505
ZGGG,2002-08-11 07:00,ZGGG 110700Z AUTO 05006KT 7SM 31/24 A2980 RMK T03100240 IEM_DS3505
ZGGG,2002-08-11 08:00,ZGGG 110800Z AUTO 04008KT 7SM 31/25 A2977 RMK T03100250 IEM_DS3505
ZGGG,2002-08-11 09:00,ZGGG 110900Z AUTO 22004KT 6SM 29/25 A2980 RMK SLP087 T02860249 57009 IEM_DS3505
ZGGG,2002-08-11 10:00,ZGGG 111000Z AUTO 32004KT 3SM 28/24 A2980 RMK T02800240 IEM_DS3505
ZGGG,2002-08-11 11:00,ZGGG 111100Z AUTO 36002KT 2SM 27/24 A2980 RMK T02700240 IEM_DS3505
ZGGG,2002-08-11 12:00,ZGGG 111200Z AUTO 00000KT 7SM 27/25 A2983 RMK 60020 SLP099 T02680254 52012 IEM_DS3505
ZGGG,2002-08-11 13:00,ZGGG 111300Z AUTO 04004KT 2 1/2SM 27/24 A2985 RMK T02700240 IEM_DS3505
ZGGG,2002-08-11 14:00,ZGGG 111400Z AUTO 04006KT 2 1/2SM 26/25 A2985 RMK T02600250 IEM_DS3505
ZGGG,2002-08-11 15:00,ZGGG 111500Z AUTO 03004KT 3SM 26/24 A2985 RMK T02600240 IEM_DS3505
ZGGG,2002-08-11 16:00,ZGGG 111600Z AUTO 00000KT 3SM 26/24 A2985 RMK T02600240 IEM_DS3505
ZGGG,2002-08-11 17:00,ZGGG 111700Z AUTO 00000KT 3SM 26/24 A2985 RMK T02600240 IEM_DS3505
ZGGG,2002-08-11 18:00,ZGGG 111800Z AUTO 00000KT 6SM 26/25 A2985 RMK SLP104 T02590248 57002 IEM_DS3505
ZGGG,2002-08-11 19:00,ZGGG 111900Z AUTO 00000KT 3SM 26/24 A2983 RMK T02600240 IEM_DS3505
ZGGG,2002-08-11 20:00,ZGGG 112000Z AUTO 00000KT 2 1/2SM 26/25 A2983 RMK T02600250 IEM_DS3505
ZGGG,2002-08-11 21:00,ZGGG 112100Z AUTO 00000KT 4SM 25/24 A2983 RMK 70018 SLP101 T02510244 57003 IEM_DS3505
ZGGG,2002-08-11 22:00,ZGGG 112200Z AUTO 04002KT 2 1/2SM 25/25 A2983 RMK T02500250 IEM_DS3505
ZGGG,2002-08-11 23:00,ZGGG 112300Z AUTO 00000KT 1 1/2SM 25/25 A2983 RMK T02500250 IEM_DS3505
ZGGG,2002-08-12 00:00,ZGGG 120000Z AUTO 09002KT 7SM 27/24 A2985 RMK 70018 SLP110 T02710244 52009 IEM_DS3505
ZGGG,2002-08-12 01:00,ZGGG 120100Z AUTO 05004KT 4SM 27/24 A2985 RMK T02700240 IEM_DS3505
ZGGG,2002-08-12 02:00,ZGGG 120200Z AUTO 07004KT 7SM 28/24 A2985 RMK T02800240 IEM_DS3505
ZGGG,2002-08-12 03:00,ZGGG 120300Z AUTO 09002KT 10SM 29/25 A2985 RMK SLP114 T02940246 52004 IEM_DS3505
ZGGG,2002-08-12 04:00,ZGGG 120400Z AUTO 09004KT 7SM 31/24 A2985 RMK T03100240 IEM_DS3505
ZGGG,2002-08-12 05:00,ZGGG 120500Z AUTO 11004KT 7SM 31/23 A2983 RMK T03100230 IEM_DS3505
ZGGG,2002-08-12 06:00,ZGGG 120600Z AUTO 07004KT 11SM 32/24 A2980 RMK SLP094 T03160244 57019 IEM_DS3505
ZGGG,2002-08-12 07:00,ZGGG 120700Z AUTO 10004KT 7SM 32/24 A2980 RMK T03200240 IEM_DS3505
ZGGG,2002-08-12 08:00,ZGGG 120800Z AUTO 11002KT 7SM 33/23 A2977 RMK T03300230 IEM_DS3505
ZGGG,2002-08-12 09:00,ZGGG 120900Z AUTO 14004KT 7SM 30/25 A2977 RMK SLP082 T03030250 57013 IEM_DS3505
ZGGG,2002-08-12 10:00,ZGGG 121000Z AUTO 17008KT 30/23 A2977 RMK T03000230 IEM_DS3505
ZGGG,2002-08-12 11:00,ZGGG 121100Z AUTO 16008KT 3SM 30/24 A2980 RMK T03000240 IEM_DS3505
ZGGG,2002-08-12 12:00,ZGGG 121200Z AUTO 14004KT 7SM 29/25 A2980 RMK 60003 SLP095 T02880250 52013 IEM_DS3505
ZGGG,2002-08-12 13:00,ZGGG 121300Z AUTO 15006KT 7SM 29/24 A2983 RMK T02900240 IEM_DS3505
ZGGG,2002-08-12 14:00,ZGGG 121400Z AUTO 17004KT 7SM 29/23 A2985 RMK T02900230 IEM_DS3505
ZGGG,2002-08-12 15:00,ZGGG 121500Z AUTO 00000KT 11SM 28/24 A2985 RMK SLP112 T02770243 52017 IEM_DS3505
ZGGG,2002-08-12 16:00,ZGGG 121600Z AUTO 13002KT 6SM 28/23 A2985 RMK T02800230 IEM_DS3505
ZGGG,2002-08-12 17:00,ZGGG 121700Z AUTO 19002KT 7SM 28/23 A2983 RMK T02800230 IEM_DS3505
ZGGG,2002-08-12 18:00,ZGGG 121800Z AUTO 00000KT 9SM 27/25 A2983 RMK SLP099 T02700247 57012 IEM_DS3505
ZGGG,2002-08-12 19:00,ZGGG 121900Z AUTO 00000KT 6SM 27/24 A2983 RMK T02700240 IEM_DS3505
ZGGG,2002-08-12 20:00,ZGGG 122000Z AUTO 00000KT 5SM 26/24 A2980 RMK T02600240 IEM_DS3505
ZGGG,2002-08-12 21:00,ZGGG 122100Z AUTO 00000KT 9SM 26/25 A2980 RMK 70003 SLP091 T02600249 57009 IEM_DS3505
ZGGG,2002-08-12 22:00,ZGGG 122200Z AUTO 00000KT 4SM 26/24 A2980 RMK T02600240 IEM_DS3505
ZGGG,2002-08-13 00:00,ZGGG 130000Z AUTO 00000KT 9SM 27/25 A2983 RMK 70003 SLP095 T02700249 52004 IEM_DS3505
ZGGG,2002-08-13 01:00,ZGGG 130100Z AUTO 04002KT 4SM 28/24 A2983 RMK T02800240 IEM_DS3505
ZGGG,2002-08-13 02:00,ZGGG 130200Z AUTO 04004KT 4SM 29/24 A2983 RMK T02900240 IEM_DS3505
ZGGG,2002-08-13 03:00,ZGGG 130300Z AUTO 14002KT 7SM 30/25 A2980 RMK SLP095 T02990251 52001 IEM_DS3505
ZGGG,2002-08-13 04:00,ZGGG 130400Z AUTO 05004KT 31/24 A2980 RMK T03100240 IEM_DS3505
ZGGG,2002-08-13 05:00,ZGGG 130500Z AUTO 31002KT 32/24 A2977 RMK T03200240 IEM_DS3505
ZGGG,2002-08-13 06:00,ZGGG 130600Z AUTO 14004KT 8SM 33/24 A2974 RMK SLP075 T03300236 57020 IEM_DS3505
ZGGG,2002-08-13 07:00,ZGGG 130700Z AUTO 21004KT 33/23 A2974 RMK T03300230 IEM_DS3505
ZGGG,2002-08-13 08:00,ZGGG 130800Z AUTO 30006KT 2 1/2SM 31/24 A2971 RMK T03100240 IEM_DS3505
ZGGG,2002-08-13 09:00,ZGGG 130900Z AUTO 27004KT 3SM 32/25 A2971 RMK SLP058 T03250254 57017 IEM_DS3505
ZGGG,2002-08-13 10:00,ZGGG 131000Z AUTO 31004KT 2 1/2SM 32/24 A2971 RMK T03200240 IEM_DS3505
ZGGG,2002-08-13 11:00,ZGGG 131100Z AUTO 35002KT 2SM 32/23 A2971 RMK T03200230 IEM_DS3505
ZGGG,2002-08-13 12:00,ZGGG 131200Z AUTO 16002KT 7SM 30/25 A2974 RMK SLP071 T03030254 52013 IEM_DS3505
ZGGG,2002-08-13 13:00,ZGGG 131300Z AUTO 13004KT 30/23 A2977 RMK T03000230 IEM_DS3505
ZGGG,2002-08-13 14:00,ZGGG 131400Z AUTO 16004KT 6SM 30/23 A2977 RMK T03000230 IEM_DS3505
ZGGG,2002-08-13 15:00,ZGGG 131500Z AUTO 00000KT 7SM 28/25 A2977 RMK SLP083 T02810248 52012 IEM_DS3505
ZGGG,2002-08-13 16:00,ZGGG 131600Z AUTO 20006KT 5SM 29/24 A2980 RMK T02900240 IEM_DS3505
ZGGG,2002-08-13 17:00,ZGGG 131700Z AUTO 19006KT 4SM 28/24 A2977 RMK T02800240 IEM_DS3505
ZGGG,2002-08-13 18:00,ZGGG 131800Z AUTO 16004KT 7SM 28/25 A2977 RMK SLP077 T02790251 57006 IEM_DS3505
ZGGG,2002-08-13 19:00,ZGGG 131900Z AUTO 20006KT 5SM 28/24 A2977 RMK T02800240 IEM_DS3505
ZGGG,2002-08-13 20:00,ZGGG 132000Z AUTO 03002KT 4SM 28/24 A2974 RMK T02800240 IEM_DS3505
ZGGG,2002-08-13 21:00,ZGGG 132100Z AUTO 04002KT 7SM 27/25 A2974 RMK SLP071 T02680252 57006 IEM_DS3505
ZGGG,2002-08-13 22:00,ZGGG 132200Z AUTO 04004KT 4SM 27/25 A2977 RMK T02700250 IEM_DS3505
ZGGG,2002-08-13 22:30,ZGGG 132230Z AUTO 00000KT 2 1/2SM 27/25 A2977 RMK T02700250 IEM_DS3505
ZGGG,2002-08-13 23:00,ZGGG 132300Z AUTO 00000KT 2 1/2SM 27/25 A2977 RMK T02700250 IEM_DS3505
ZGGG,2002-08-14 00:00,ZGGG 140000Z AUTO 00000KT 7SM 27/25 A2977 RMK SLP078 T02720252 52007 IEM_DS3505
ZGGG,2002-08-14 01:00,ZGGG 140100Z AUTO 08004KT 3SM 28/24 A2977 RMK T02800240 IEM_DS3505
ZGGG,2002-08-14 02:00,ZGGG 140200Z AUTO 08002KT 2SM 29/25 A2977 RMK T02900250 IEM_DS3505
ZGGG,2002-08-14 03:00,ZGGG 140300Z AUTO 00000KT 6SM 30/25 A2977 RMK SLP073 T02970252 57005 IEM_DS3505
ZGGG,2002-08-14 04:00,ZGGG 140400Z AUTO 00000KT 2 1/2SM 30/25 A2974 RMK T03000250 IEM_DS3505
ZGGG,2002-08-14 05:00,ZGGG 140500Z AUTO 33004KT 3SM 31/24 A2968 RMK T03100240 IEM_DS3505
ZGGG,2002-08-14 06:00,ZGGG 140600Z AUTO 00000KT 9SM 32/25 A2968 RMK SLP048 T03230252 57025 IEM_DS3505
ZGGG,2002-08-14 07:00,ZGGG 140700Z AUTO 30004KT 3SM 33/24 A2965 RMK T03300240 IEM_DS3505
ZGGG,2002-08-14 08:00,ZGGG 140800Z AUTO 15002KT 3SM 33/23 A2965 RMK T03300230 IEM_DS3505
ZGGG,2002-08-14 09:00,ZGGG 140900Z AUTO 00000KT 8SM 30/26 A2965 RMK SLP041 T03050258 57007 IEM_DS3505
ZGGG,2002-08-14 10:00,ZGGG 141000Z AUTO 17004KT 2SM 30/23 A2965 RMK T03000230 IEM_DS3505
ZGGG,2002-08-14 11:00,ZGGG 141100Z AUTO 14004KT 2SM 30/24 A2965 RMK T03000240 IEM_DS3505
ZGGG,2002-08-14 12:00,ZGGG 141200Z AUTO 00000KT 6SM 29/26 A2968 RMK SLP052 T02910263 52011 IEM_DS3505
ZGGG,2002-08-14 13:00,ZGGG 141300Z AUTO 20008KT 3SM 31/24 A2968 RMK T03100240 IEM_DS3505
ZGGG,2002-08-14 14:00,ZGGG 141400Z AUTO 21006KT 3SM 29/25 A2971 RMK T02900250 IEM_DS3505
ZGGG,2002-08-14 15:00,ZGGG 141500Z AUTO 00000KT 8SM 29/26 A2971 RMK SLP064 T02860255 52012 IEM_DS3505
ZGGG,2002-08-14 16:00,ZGGG 141600Z AUTO 20004KT 7SM 29/23 A2971 RMK T02900230 IEM_DS3505
ZGGG,2002-08-14 17:00,ZGGG 141700Z AUTO 08004KT 7SM 29/24 A2971 RMK T02900240 IEM_DS3505
ZGGG,2002-08-14 18:00,ZGGG 141800Z AUTO 00000KT 7SM 28/25 A2971 RMK SLP056 T02780251 57008 IEM_DS3505
ZGGG,2002-08-14 19:00,ZGGG 141900Z AUTO 03004KT 3SM 26/24 A2968 RMK T02600240 IEM_DS3505
ZGGG,2002-08-14 20:00,ZGGG 142000Z AUTO 03004KT 3SM 26/24 A2968 RMK T02600240 IEM_DS3505
ZGGG,2002-08-14 21:00,ZGGG 142100Z AUTO 00000KT 7SM 27/25 A2968 RMK SLP048 T02690249 57008 IEM_DS3505
ZGGG,2002-08-14 22:00,ZGGG 142200Z AUTO 01002KT 3SM 26/24 A2968 RMK T02600240 IEM_DS3505
ZGGG,2002-08-14 23:00,ZGGG 142300Z AUTO 36002KT 3SM 26/24 A2971 RMK T02600240 IEM_DS3505
ZGGG,2002-08-15 00:00,ZGGG 150000Z AUTO 36004KT 7SM 28/25 A2971 RMK SLP059 T02810247 52011 IEM_DS3505
ZGGG,2002-08-15 01:00,ZGGG 150100Z AUTO 02006KT 4SM 28/24 A2971 RMK T02800240 IEM_DS3505
ZGGG,2002-08-15 02:00,ZGGG 150200Z AUTO 01006KT 4SM 29/24 A2971 RMK T02900240 IEM_DS3505
ZGGG,2002-08-15 03:00,ZGGG 150300Z AUTO 36002KT 9SM 31/24 A2971 RMK SLP054 T03140243 57005 IEM_DS3505
ZGGG,2002-08-15 04:00,ZGGG 150400Z AUTO 01006KT 30/23 A2968 RMK T03000230 IEM_DS3505
ZGGG,2002-08-15 05:00,ZGGG 150500Z AUTO 06004KT 31/24 A2965 RMK T03100240 IEM_DS3505
ZGGG,2002-08-15 06:00,ZGGG 150600Z AUTO 00000KT 9SM 33/24 A2962 RMK SLP034 T03300238 57020 IEM_DS3505
ZGGG,2002-08-15 07:00,ZGGG 150700Z AUTO 17004KT 33/24 A2962 RMK T03300240 IEM_DS3505
ZGGG,2002-08-15 08:00,ZGGG 150800Z AUTO 32004KT 33/24 A2959 RMK T03300240 IEM_DS3505
ZGGG,2002-08-15 09:00,ZGGG 150900Z AUTO 18002KT 7SM 31/24 A2959 RMK SLP019 T03140240 57015 IEM_DS3505
ZGGG,2002-08-15 10:00,ZGGG 151000Z AUTO 33006KT 4SM 27/24 A2959 RMK T02700240 IEM_DS3505
ZGGG,2002-08-15 11:00,ZGGG 151100Z AUTO 09002KT 2SM 28/25 A2962 RMK T02800250 IEM_DS3505
ZGGG,2002-08-15 12:00,ZGGG 151200Z AUTO 00000KT 8SM 30/24 A2962 RMK 60002 SLP034 T03020239 52015 IEM_DS3505
ZGGG,2002-08-15 13:00,ZGGG 151300Z AUTO 11004KT 7SM 29/23 A2965 RMK T02900230 IEM_DS3505
ZGGG,2002-08-15 14:00,ZGGG 151400Z AUTO 15002KT 7SM 29/23 A2968 RMK T02900230 IEM_DS3505
ZGGG,2002-08-15 15:00,ZGGG 151500Z AUTO 00000KT 9SM 28/24 A2968 RMK SLP049 T02810240 52015 IEM_DS3505
ZGGG,2002-08-15 16:00,ZGGG 151600Z AUTO 13004KT 6SM 28/23 A2965 RMK T02800230 IEM_DS3505
ZGGG,2002-08-15 17:00,ZGGG 151700Z AUTO 15002KT 6SM 28/23 A2965 RMK T02800230 IEM_DS3505
ZGGG,2002-08-15 18:00,ZGGG 151800Z AUTO 07002KT 9SM 27/24 A2965 RMK SLP038 T02700241 57011 IEM_DS3505
ZGGG,2002-08-15 19:00,ZGGG 151900Z AUTO 06002KT 6SM 27/23 A2962 RMK T02700230 IEM_DS3505
ZGGG,2002-08-15 20:00,ZGGG 152000Z AUTO 04002KT 6SM 27/23 A2962 RMK T02700230 IEM_DS3505
ZGGG,2002-08-15 21:00,ZGGG 152100Z AUTO 00000KT 8SM 26/24 A2962 RMK 70002 SLP032 T02610242 57006 IEM_DS3505
ZGGG,2002-08-15 22:00,ZGGG 152200Z AUTO 04004KT 5SM 25/23 A2962 RMK T02500230 IEM_DS3505
ZGGG,2002-08-15 23:00,ZGGG 152300Z AUTO 00000KT 4SM 26/24 A2965 RMK T02600240 IEM_DS3505
ZGGG,2002-08-16 00:00,ZGGG 160000Z AUTO 09002KT 9SM 29/24 A2965 RMK 70002 SLP043 T02900239 52011 IEM_DS3505
ZGGG,2002-08-16 01:00,ZGGG 160100Z AUTO 10008KT 7SM 30/22 A2965 RMK T03000220 IEM_DS3505
ZGGG,2002-08-16 02:00,ZGGG 160200Z AUTO 09004KT 7SM 31/23 A2965 RMK T03100230 IEM_DS3505
ZGGG,2002-08-16 03:00,ZGGG 160300Z AUTO 16002KT 15SM 32/24 A2965 RMK SLP039 T03200238 57004 IEM_DS3505
ZGGG,2002-08-16 04:00,ZGGG 160400Z AUTO 10004KT 7SM 32/23 A2965 RMK T03200230 IEM_DS3505
ZGGG,2002-08-16 05:00,ZGGG 160500Z AUTO 12004KT 7SM 33/23 A2962 RMK T03300230 IEM_DS3505
ZGGG,2002-08-16 06:00,ZGGG 160600Z AUTO 00000KT 14SM 34/23 A2959 RMK SLP022 T03360227 57017 IEM_DS3505
ZGGG,2002-08-16 07:00,ZGGG 160700Z AUTO 05006KT 7SM 33/23 A2956 RMK T03300230 IEM_DS3505
ZGGG,2002-08-16 08:00,ZGGG 160800Z AUTO 06004KT 7SM 33/23 A2956 RMK T03300230 IEM_DS3505
ZGGG,2002-08-16 09:00,ZGGG 160900Z AUTO 20004KT 11SM 34/24 A2956 RMK SLP007 T03380239 57015 IEM_DS3505
ZGGG,2002-08-16 11:00,ZGGG 161100Z AUTO 15004KT 7SM 28/24 A2959 RMK T02800240 IEM_DS3505
ZGGG,2002-08-16 12:00,ZGGG 161200Z AUTO 00000KT 10SM 26/25 A2962 RMK 60008 SLP026 T02640248 52019 IEM_DS3505
ZGGG,2002-08-16 13:00,ZGGG 161300Z AUTO 06006KT 7SM 27/24 A2965 RMK T02700240 IEM_DS3505
ZGGG,2002-08-16 14:00,ZGGG 161400Z AUTO 05008KT 6SM 27/24 A2965 RMK T02700240 IEM_DS3505
ZGGG,2002-08-16 15:00,ZGGG 161500Z AUTO 00000KT 9SM 27/24 A2968 RMK SLP048 T02660243 52022 IEM_DS3505
ZGGG,2002-08-16 16:00,ZGGG 161600Z AUTO 05006KT 6SM 26/23 A2965 RMK T02600230 IEM_DS3505
ZGGG,2002-08-16 17:00,ZGGG 161700Z AUTO 04004KT 6SM 26/23 A2965 RMK T02600230 IEM_DS3505
ZGGG,2002-08-16 18:00,ZGGG 161800Z AUTO 02002KT 8SM 26/24 A2962 RMK SLP036 T02580235 57012 IEM_DS3505
ZGGG,2002-08-16 19:00,ZGGG 161900Z AUTO 04008KT 6SM 25/23 A2962 RMK T02500230 IEM_DS3505
ZGGG,2002-08-16 20:00,ZGGG 162000Z AUTO 04006KT 6SM 25/23 A2962 RMK T02500230 IEM_DS3505
ZGGG,2002-08-16 21:00,ZGGG 162100Z AUTO 36002KT 7SM 25/23 A2962 RMK 70008 SLP031 T02540234 57005 IEM_DS3505
ZGGG,2002-08-16 22:00,ZGGG 162200Z AUTO 01006KT 6SM 26/23 A2962 RMK T02600230 IEM_DS3505
ZGGG,2002-08-16 23:00,ZGGG 162300Z AUTO 02006KT 6SM 26/23 A2965 RMK T02600230 IEM_DS3505
ZGGG,2002-08-17 00:00,ZGGG 170000Z AUTO 04002KT 11SM 27/24 A2965 RMK 70008 SLP039 T02740237 52008 IEM_DS3505
ZGGG,2002-08-17 01:00,ZGGG 170100Z AUTO 36008KT 6SM 28/23 A2965 RMK T02800230 IEM_DS3505
ZGGG,2002-08-17 02:00,ZGGG 170200Z AUTO 02008KT 7SM 29/23 A2968 RMK T02900230 IEM_DS3505
ZGGG,2002-08-17 03:00,ZGGG 170300Z AUTO 09004KT 11SM 31/24 A2968 RMK SLP047 T03080235 52008 IEM_DS3505
ZGGG,2002-08-17 04:00,ZGGG 170400Z AUTO 04006KT 7SM 31/24 A2965 RMK T03100240 IEM_DS3505
ZGGG,2002-08-17 05:00,ZGGG 170500Z AUTO 03010KT 7SM 31/23 A2962 RMK T03100230 IEM_DS3505
ZGGG,2002-08-17 06:00,ZGGG 170600Z AUTO 04006KT 11SM 33/24 A2962 RMK SLP028 T03310236 57019 IEM_DS3505
ZGGG,2002-08-17 07:00,ZGGG 170700Z AUTO 02010KT 7SM 32/24 A2959 RMK T03200240 IEM_DS3505
ZGGG,2002-08-17 08:00,ZGGG 170800Z AUTO 03008KT 7SM 32/24 A2959 RMK T03200240 IEM_DS3505
ZGGG,2002-08-17 09:00,ZGGG 170900Z AUTO 36006KT 11SM 32/25 A2956 RMK SLP015 T03230247 57013 IEM_DS3505
ZGGG,2002-08-17 10:00,ZGGG 171000Z AUTO 02010KT 7SM 32/24 A2959 RMK T03200240 IEM_DS3505
ZGGG,2002-08-17 11:00,ZGGG 171100Z AUTO 03004KT 4SM 25/24 A2962 RMK T02500240 IEM_DS3505
ZGGG,2002-08-17 12:00,ZGGG 171200Z AUTO 11008KT 7SM 27/23 A2965 RMK T02700230 IEM_DS3505
ZGGG,2002-08-17 13:00,ZGGG 171300Z AUTO 04010KT 7SM 27/24 A2968 RMK T02700240 IEM_DS3505
ZGGG,2002-08-17 14:00,ZGGG 171400Z AUTO 04004KT 7SM 26/24 A2968 RMK T02600240 IEM_DS3505
ZGGG,2002-08-17 15:00,ZGGG 171500Z AUTO 00000KT 9SM 26/24 A2968 RMK SLP051 T02640243 52012 IEM_DS3505
ZGGG,2002-08-17 16:00,ZGGG 171600Z AUTO 36002KT 7SM 27/24 A2968 RMK T02700240 IEM_DS3505
ZGGG,2002-08-17 17:00,ZGGG 171700Z AUTO 04004KT 4SM 26/24 A2968 RMK T02600240 IEM_DS3505
ZGGG,2002-08-17 18:00,ZGGG 171800Z AUTO 36004KT 9SM 27/24 A2965 RMK SLP043 T02700238 57008 IEM_DS3505
ZGGG,2002-08-17 19:00,ZGGG 171900Z AUTO 04006KT 7SM 26/24 A2965 RMK T02600240 IEM_DS3505
ZGGG,2002-08-17 20:00,ZGGG 172000Z AUTO 04008KT 6SM 26/23 A2965 RMK T02600230 IEM_DS3505
ZGGG,2002-08-17 21:00,ZGGG 172100Z AUTO 00000KT 9SM 26/24 A2965 RMK 70035 SLP035 T02620238 57008 IEM_DS3505
ZGGG,2002-08-17 22:00,ZGGG 172200Z AUTO 05006KT 7SM 26/23 A2965 RMK T02600230 IEM_DS3505
ZGGG,2002-08-17 23:00,ZGGG 172300Z AUTO 04006KT 6SM 26/23 A2965 RMK T02600230 IEM_DS3505
ZGGG,2002-08-18 00:00,ZGGG 180000Z AUTO 04004KT 9SM 28/24 A2968 RMK 70035 SLP045 T02810236 52010 IEM_DS3505
ZGGG,2002-08-18 01:00,ZGGG 180100Z AUTO 04010KT 6SM 28/23 A2968 RMK T02800230 IEM_DS3505
ZGGG,2002-08-18 02:00,ZGGG 180200Z AUTO 03010KT 6SM 29/24 A2968 RMK T02900240 IEM_DS3505
ZGGG,2002-08-18 03:00,ZGGG 180300Z AUTO 04008KT 11SM 29/24 A2968 RMK SLP051 T02930236 52006 IEM_DS3505
ZGGG,2002-08-18 04:00,ZGGG 180400Z AUTO 06008KT 7SM 29/24 A2965 RMK T02900240 IEM_DS3505
ZGGG,2002-08-18 05:00,ZGGG 180500Z AUTO 06010KT 7SM 30/24 A2962 RMK T03000240 IEM_DS3505
ZGGG,2002-08-18 06:00,ZGGG 180600Z AUTO 07008KT 10SM 29/24 A2962 RMK 60003 SLP036 T02940235 57015 IEM_DS3505
ZGGG,2002-08-18 07:00,ZGGG 180700Z AUTO 07006KT 5SM 28/23 A2962 RMK T02800230 IEM_DS3505
ZGGG,2002-08-18 08:00,ZGGG 180800Z AUTO 11006KT 1 1/2SM 26/24 A2962 RMK T02600240 IEM_DS3505
ZGGG,2002-08-18 09:00,ZGGG 180900Z AUTO 07010KT 7SM 25/24 A2962 RMK SLP034 T02540238 57003 IEM_DS3505
ZGGG,2002-08-18 10:00,ZGGG 181000Z AUTO 04012KT 5SM 24/24 A2962 RMK T02400240 IEM_DS3505
ZGGG,2002-08-18 11:00,ZGGG 181100Z AUTO 05008KT 4SM 25/24 A2965 RMK T02500240 IEM_DS3505
ZGGG,2002-08-18 12:00,ZGGG 181200Z AUTO 02004KT 12SM 25/24 A2965 RMK 60055 SLP038 T02520235 52004 IEM_DS3505
ZGGG,2002-08-18 13:00,ZGGG 181300Z AUTO 04010KT 4SM 24/24 A2965 RMK T02400240 IEM_DS3505
ZGGG,2002-08-18 14:00,ZGGG 181400Z AUTO 05006KT 7SM 24/24 A2968 RMK T02400240 IEM_DS3505
ZGGG,2002-08-18 15:00,ZGGG 181500Z AUTO 07004KT 11SM 25/24 A2965 RMK SLP042 T02520235 52005 IEM_DS3505
ZGGG,2002-08-18 18:00,ZGGG 181800Z AUTO 04004KT 7SM 24/23 RMK 60083 SLP033 T02410234 57009 IEM_DS3505
ZGGG,2002-08-18 21:00,ZGGG 182100Z AUTO 07002KT 7SM 24/24 RMK 70143 SLP028 T02450235 57006 IEM_DS3505
ZGGG,2002-08-19 00:00,ZGGG 190000Z AUTO 09004KT 11SM 26/24 RMK 60008 SLP033 T02610239 52005 IEM_DS3505
ZGGG,2002-08-19 03:00,ZGGG 190300Z AUTO 07004KT 10SM 27/25 A2965 RMK SLP038 T02680254 52005 IEM_DS3505
ZGGG,2002-08-19 04:00,ZGGG 190400Z AUTO 10008KT 7SM 28/24 A2962 RMK T02800240 IEM_DS3505
ZGGG,2002-08-19 05:00,ZGGG 190500Z AUTO 10010KT 7SM 29/25 A2959 RMK T02900250 IEM_DS3505
ZGGG,2002-08-19 06:00,ZGGG 190600Z AUTO 14008KT 8SM 28/25 RMK 60016 SLP021 T02820251 57017 IEM_DS3505
ZGGG,2002-08-19 07:00,ZGGG 190700Z AUTO 14010KT 6SM 29/23 A2956 RMK T02900230 IEM_DS3505
ZGGG,2002-08-19 08:00,ZGGG 190800Z AUTO 12010KT 7SM 28/24 A2956 RMK T02800240 IEM_DS3505
ZGGG,2002-08-19 09:00,ZGGG 190900Z AUTO 14010G19KT 11SM 28/25 A2956 RMK SLP009 T02840247 57011 IEM_DS3505
ZGGG,2002-08-19 10:00,ZGGG 191000Z AUTO 10012G23KT 7SM 28/24 A2956 RMK T02800240 IEM_DS3505
ZGGG,2002-08-19 11:00,ZGGG 191100Z AUTO 10010KT 7SM 28/24 A2959 RMK T02800240 IEM_DS3505
ZGGG,2002-08-19 12:00,ZGGG 191200Z AUTO 09006KT 9SM 28/24 A2959 RMK 60001 SLP025 T02780242 52016 IEM_DS3505
ZGGG,2002-08-19 13:00,ZGGG 191300Z AUTO 10010KT 5SM 27/24 A2962 RMK T02700240 IEM_DS3505
ZGGG,2002-08-19 14:00,ZGGG 191400Z AUTO 12008KT 7SM 27/24 A2965 RMK T02700240 IEM_DS3505
ZGGG,2002-08-19 15:00,ZGGG 191500Z AUTO 14010KT 9SM 26/24 A2965 RMK SLP044 T02640245 52018 IEM_DS3505
ZGGG,2002-08-19 16:00,ZGGG 191600Z AUTO 10008KT 7SM 26/24 A2965 RMK T02600240 IEM_DS3505
ZGGG,2002-08-19 17:00,ZGGG 191700Z AUTO 11010KT 7SM 27/24 A2965 RMK T02700240 IEM_DS3505
ZGGG,2002-08-19 18:00,ZGGG 191800Z AUTO 09006KT 8SM 26/24 A2962 RMK 60002 SLP032 T02620245 57011 IEM_DS3505
ZGGG,2002-08-19 19:00,ZGGG 191900Z AUTO 11008KT 4SM 27/24 A2962 RMK T02700240 IEM_DS3505
ZGGG,2002-08-19 20:00,ZGGG 192000Z AUTO 20006KT 4SM 26/24 A2962 RMK T02600240 IEM_DS3505
ZGGG,2002-08-19 21:00,ZGGG 192100Z AUTO 14006KT 9SM 27/23 A2965 RMK 70020 SLP041 T02690234 52009 IEM_DS3505
ZGGG,2002-08-19 22:00,ZGGG 192200Z AUTO 23004KT 5SM 26/25 A2965 RMK T02600250 IEM_DS3505
ZGGG,2002-08-19 23:00,ZGGG 192300Z AUTO 13008KT 2 1/2SM 25/24 A2971 RMK T02500240 IEM_DS3505
ZGGG,2002-08-20 00:00,ZGGG 200000Z AUTO 14006KT 5SM 26/25 A2971 RMK 60020 SLP067 T02570248 52025 IEM_DS3505
ZGGG,2002-08-20 01:00,ZGGG 200100Z AUTO 13008KT 7SM 27/26 A2974 RMK T02700260 IEM_DS3505
ZGGG,2002-08-20 02:00,ZGGG 200200Z AUTO 11008KT 4SM 27/25 A2977 RMK T02700250 IEM_DS3505
ZGGG,2002-08-20 03:00,ZGGG 200300Z AUTO 11002KT 6SM 27/26 A2977 RMK SLP077 T02660258 52010 IEM_DS3505
ZGGG,2002-08-20 04:00,ZGGG 200400Z AUTO 14006KT 4SM 28/26 A2977 RMK T02800260 IEM_DS3505
ZGGG,2002-08-20 05:00,ZGGG 200500Z AUTO 14006KT 7SM 27/26 A2977 RMK T02700260 IEM_DS3505
ZGGG,2002-08-20 06:00,ZGGG 200600Z AUTO 14006KT 6SM 26/25 RMK 60118 SLP076 T02640250 57001 IEM_DS3505
ZGGG,2002-08-20 07:00,ZGGG 200700Z AUTO 14010KT 7SM 30/25 A2974 RMK T03000250 IEM_DS3505
ZGGG,2002-08-20 08:00,ZGGG 200800Z AUTO 13008KT 7SM 31/24 A2974 RMK T03100240 IEM_DS3505
ZGGG,2002-08-20 09:00,ZGGG 200900Z AUTO 14006KT 9SM 30/25 A2974 RMK SLP073 T03000248 57002 IEM_DS3505
ZGGG,2002-08-20 10:00,ZGGG 201000Z AUTO 09008KT 7SM 30/25 A2974 RMK T03000250 IEM_DS3505
ZGGG,2002-08-20 11:00,ZGGG 201100Z AUTO 14008KT 7SM 29/24 A2977 RMK T02900240 IEM_DS3505
ZGGG,2002-08-20 12:00,ZGGG 201200Z AUTO 14002KT 8SM 28/26 A2980 RMK 60003 SLP091 T02760261 52017 IEM_DS3505
ZGGG,2002-08-20 13:00,ZGGG 201300Z AUTO 12004KT 7SM 27/26 A2983 RMK T02700260 IEM_DS3505
ZGGG,2002-08-20 14:00,ZGGG 201400Z AUTO 11004KT 7SM 27/25 A2985 RMK T02700250 IEM_DS3505
ZGGG,2002-08-20 15:00,ZGGG 201500Z AUTO 09002KT 8SM 26/25 A2985 RMK SLP106 T02640254 52015 IEM_DS3505
ZGGG,2002-08-20 16:00,ZGGG 201600Z AUTO 12006KT 7SM 27/25 A2985 RMK T02700250 IEM_DS3505
ZGGG,2002-08-20 17:00,ZGGG 201700Z AUTO 12004KT 6SM 27/25 A2985 RMK T02700250 IEM_DS3505
ZGGG,2002-08-20 18:00,ZGGG 201800Z AUTO 11004KT 9SM 26/25 A2983 RMK 60012 SLP099 T02620251 57007 IEM_DS3505
ZGGG,2002-08-20 19:00,ZGGG 201900Z AUTO 12004KT 4SM 26/25 A2983 RMK T02600250 IEM_DS3505
ZGGG,2002-08-20 20:00,ZGGG 202000Z AUTO 11004KT 4SM 26/25 A2983 RMK T02600250 IEM_DS3505
ZGGG,2002-08-20 21:00,ZGGG 202100Z AUTO 00000KT 9SM 25/25 A2985 RMK 70150 SLP105 T02540247 52006 IEM_DS3505
ZGGG,2002-08-20 22:00,ZGGG 202200Z AUTO 04006KT 7SM 26/24 A2985 RMK T02600240 IEM_DS3505
ZGGG,2002-08-20 23:00,ZGGG 202300Z AUTO 00000KT 7SM 26/24 A2985 RMK T02600240 IEM_DS3505
ZGGG,2002-08-21 00:00,ZGGG 210000Z AUTO 11002KT 10SM 28/25 A2988 RMK 70131 SLP117 T02800250 52012 IEM_DS3505
ZGGG,2002-08-21 01:00,ZGGG 210100Z AUTO 12004KT 7SM 29/24 A2988 RMK T02900240 IEM_DS3505
ZGGG,2002-08-21 02:00,ZGGG 210200Z AUTO 10006KT 7SM 29/24 A2988 RMK T02900240 IEM_DS3505
ZGGG,2002-08-21 03:00,ZGGG 210300Z AUTO 11006KT 10SM 30/25 A2991 RMK SLP126 T03040248 52009 IEM_DS3505
ZGGG,2002-08-21 04:00,ZGGG 210400Z AUTO 12006KT 7SM 31/24 A2988 RMK T03100240 IEM_DS3505
ZGGG,2002-08-21 05:00,ZGGG 210500Z AUTO 12006KT 7SM 32/24 A2985 RMK T03200240 IEM_DS3505
ZGGG,2002-08-21 06:00,ZGGG 210600Z AUTO 11004KT 7SM 31/25 A2985 RMK 60000 SLP110 T03140251 57016 IEM_DS3505
ZGGG,2002-08-21 07:00,ZGGG 210700Z AUTO 26004KT 4SM 28/24 A2985 RMK T02800240 IEM_DS3505
ZGGG,2002-08-21 08:00,ZGGG 210800Z AUTO 28006KT 2SM 31/26 A2983 RMK T03100260 IEM_DS3505
ZGGG,2002-08-21 09:00,ZGGG 210900Z AUTO 18002KT 7SM 32/25 A2983 RMK SLP094 T03220249 57015 IEM_DS3505
ZGGG,2002-08-21 10:00,ZGGG 211000Z AUTO 31004KT 2SM 31/26 A2983 RMK T03100260 IEM_DS3505
ZGGG,2002-08-21 11:00,ZGGG 211100Z AUTO 29004KT 1 1/2SM 29/25 A2983 RMK T02900250 IEM_DS3505
ZGGG,2002-08-21 13:00,ZGGG 211300Z AUTO 04002KT 3SM 29/26 A2988 RMK T02900260 IEM_DS3505
ZGGG,2002-08-21 14:00,ZGGG 211400Z AUTO 11002KT 3SM 28/26 A2988 RMK T02800260 IEM_DS3505
ZGGG,2002-08-21 15:00,ZGGG 211500Z AUTO 14002KT 11SM 28/25 A2988 RMK SLP120 T02810247 52013 IEM_DS3505
ZGGG,2002-08-21 16:00,ZGGG 211600Z AUTO 00000KT 7SM 28/24 A2988 RMK T02800240 IEM_DS3505
ZGGG,2002-08-21 17:00,ZGGG 211700Z AUTO 08002KT 6SM 28/24 A2988 RMK T02800240 IEM_DS3505
ZGGG,2002-08-21 18:00,ZGGG 211800Z AUTO 00000KT 7SM 27/25 A2985 RMK SLP112 T02690252 57007 IEM_DS3505
ZGGG,2002-08-21 19:00,ZGGG 211900Z AUTO 00000KT 6SM 28/24 A2985 RMK T02800240 IEM_DS3505
ZGGG,2002-08-21 20:00,ZGGG 212000Z AUTO 00000KT 4SM 26/25 A2985 RMK T02600250 IEM_DS3505
ZGGG,2002-08-21 21:00,ZGGG 212100Z AUTO 00000KT 6SM 26/25 A2985 RMK 70000 SLP112 T02620252 54000 IEM_DS3505
ZGGG,2002-08-21 22:00,ZGGG 212200Z AUTO 00000KT 3SM 26/25 A2988 RMK T02600250 IEM_DS3505
ZGGG,2002-08-21 23:00,ZGGG 212300Z AUTO 00000KT 3SM 26/26 A2988 RMK T02600260 IEM_DS3505
ZGGG,2002-08-22 00:00,ZGGG 220000Z AUTO 00000KT 5SM 28/26 A2991 RMK 70000 SLP128 T02820257 52015 IEM_DS3505
ZGGG,2002-08-22 01:00,ZGGG 220100Z AUTO 26002KT 3SM 28/24 A2991 RMK T02800240 IEM_DS3505
ZGGG,2002-08-22 02:00,ZGGG 220200Z AUTO 36004KT 4SM 29/24 A2991 RMK T02900240 IEM_DS3505
ZGGG,2002-08-22 03:00,ZGGG 220300Z AUTO 32002KT 6SM 31/25 A2991 RMK SLP125 T03140246 57002 IEM_DS3505
ZGGG,2002-08-22 04:00,ZGGG 220400Z AUTO 35004KT 2 1/2SM 32/24 A2991 RMK T03200240 IEM_DS3505
ZGGG,2002-08-22 05:00,ZGGG 220500Z AUTO 25004KT 2 1/2SM 32/24 A2988 RMK T03200240 IEM_DS3505
ZGGG,2002-08-22 06:00,ZGGG 220600Z AUTO 00000KT 7SM 33/25 A2985 RMK SLP105 T03260254 57020 IEM_DS3505
ZGGG,2002-08-22 07:00,ZGGG 220700Z AUTO 29004KT 2 1/2SM 32/24 A2983 RMK T03200240 IEM_DS3505
ZGGG,2002-08-22 08:00,ZGGG 220800Z AUTO 31004KT 2 1/2SM 33/24 A2980 RMK T03300240 IEM_DS3505
ZGGG,2002-08-22 09:00,ZGGG 220900Z AUTO 27002KT 5SM 33/24 A2980 RMK SLP085 T03320245 57020 IEM_DS3505
ZGGG,2002-08-22 10:00,ZGGG 221000Z AUTO 30004KT 3SM 32/23 A2980 RMK T03200230 IEM_DS3505
ZGGG,2002-08-22 11:00,ZGGG 221100Z AUTO 35002KT 3SM 32/24 A2980 RMK T03200240 IEM_DS3505
ZGGG,2002-08-22 12:00,ZGGG 221200Z AUTO 00000KT 6SM 30/26 A2983 RMK SLP096 T02980259 52011 IEM_DS3505
ZGGG,2002-08-22 13:00,ZGGG 221300Z AUTO 12002KT 30/24 A2985 RMK T03000240 IEM_DS3505
ZGGG,2002-08-22 14:00,ZGGG 221400Z AUTO 17004KT 30/24 A2985 RMK T03000240 IEM_DS3505
ZGGG,2002-08-22 15:00,ZGGG 221500Z AUTO 00000KT 6SM 29/26 A2985 RMK SLP113 T02870262 52017 IEM_DS3505
ZGGG,2002-08-22 16:00,ZGGG 221600Z AUTO 17006KT 6SM 29/25 A2985 RMK T02900250 IEM_DS3505
ZGGG,2002-08-22 17:00,ZGGG 221700Z AUTO 18006KT 4SM 28/24 A2985 RMK T02800240 IEM_DS3505
ZGGG,2002-08-22 18:00,ZGGG 221800Z AUTO 00000KT 6SM 28/26 A2985 RMK SLP107 T02790255 57006 IEM_DS3505
ZGGG,2002-08-22 19:00,ZGGG 221900Z AUTO 17004KT 5SM 28/24 A2983 RMK T02800240 IEM_DS3505
ZGGG,2002-08-22 20:00,ZGGG 222000Z AUTO 13002KT 4SM 27/24 A2983 RMK T02700240 IEM_DS3505
ZGGG,2002-08-22 21:00,ZGGG 222100Z AUTO 00000KT 5SM 27/26 A2985 RMK SLP107 T02720255 54000 IEM_DS3505
ZGGG,2002-08-22 22:00,ZGGG 222200Z AUTO 00000KT 4SM 27/25 A2985 RMK T02700250 IEM_DS3505
ZGGG,2002-08-22 23:00,ZGGG 222300Z AUTO 00000KT 3SM 27/25 A2988 RMK T02700250 IEM_DS3505
ZGGG,2002-08-23 00:00,ZGGG 230000Z AUTO 16002KT 4SM 28/25 A2988 RMK SLP120 T02820254 52012 IEM_DS3505
ZGGG,2002-08-23 01:00,ZGGG 230100Z AUTO 19004KT 3SM 29/25 A2988 RMK T02900250 IEM_DS3505
ZGGG,2002-08-23 02:00,ZGGG 230200Z AUTO 29004KT 3SM 29/24 A2991 RMK T02900240 IEM_DS3505
ZGGG,2002-08-23 03:00,ZGGG 230300Z AUTO 22002KT 7SM 32/26 A2988 RMK SLP123 T03180258 52004 IEM_DS3505
ZGGG,2002-08-23 04:00,ZGGG 230400Z AUTO 22004KT 3SM 32/24 A2988 RMK T03200240 IEM_DS3505
ZGGG,2002-08-23 05:00,ZGGG 230500Z AUTO 24004KT 33/24 A2985 RMK T03300240 IEM_DS3505
ZGGG,2002-08-23 06:00,ZGGG 230600Z AUTO 27002KT 7SM 32/24 A2983 RMK 60003 SLP104 T03230242 57019 IEM_DS3505
ZGGG,2002-08-23 07:00,ZGGG 230700Z AUTO 09002KT 3SM 33/25 A2983 RMK T03300250 IEM_DS3505
ZGGG,2002-08-23 08:00,ZGGG 230800Z AUTO 15004KT 3SM 33/24 A2980 RMK T03300240 IEM_DS3505
ZGGG,2002-08-23 09:00,ZGGG 230900Z AUTO 27004KT 7SM 34/25 A2980 RMK SLP088 T03360248 57016 IEM_DS3505
ZGGG,2002-08-23 10:00,ZGGG 231000Z AUTO 18004KT 3SM 33/24 A2980 RMK T03300240 IEM_DS3505
ZGGG,2002-08-23 11:00,ZGGG 231100Z AUTO 00000KT 3SM 32/24 A2980 RMK T03200240 IEM_DS3505
ZGGG,2002-08-23 12:00,ZGGG 231200Z AUTO 18006KT 7SM 30/25 A2983 RMK SLP096 T03030254 52008 IEM_DS3505
ZGGG,2002-08-23 13:00,ZGGG 231300Z AUTO 00000KT 6SM 30/23 A2983 RMK T03000230 IEM_DS3505
ZGGG,2002-08-23 14:00,ZGGG 231400Z AUTO 00000KT 6SM 30/23 A2985 RMK T03000230 IEM_DS3505
ZGGG,2002-08-23 15:00,ZGGG 231500Z AUTO 14004KT 7SM 29/24 A2985 RMK SLP110 T02900243 52014 IEM_DS3505
ZGGG,2002-08-23 16:00,ZGGG 231600Z AUTO 00000KT 6SM 29/23 A2985 RMK T02900230 IEM_DS3505
ZGGG,2002-08-23 17:00,ZGGG 231700Z AUTO 00000KT 6SM 28/24 A2985 RMK T02800240 IEM_DS3505
ZGGG,2002-08-23 18:00,ZGGG 231800Z AUTO 14004KT 7SM 28/24 A2983 RMK SLP104 T02780241 57006 IEM_DS3505
ZGGG,2002-08-23 19:00,ZGGG 231900Z AUTO 00000KT 6SM 27/23 A2985 RMK T02700230 IEM_DS3505
ZGGG,2002-08-23 20:00,ZGGG 232000Z AUTO 00000KT 6SM 27/23 A2983 RMK T02700230 IEM_DS3505
ZGGG,2002-08-23 21:00,ZGGG 232100Z AUTO 16002KT 7SM 26/24 RMK 70003 SLP106 T02630241 52002 IEM_DS3505
ZGGG,2002-08-23 22:00,ZGGG 232200Z AUTO 00000KT 4SM 27/23 A2985 RMK T02700230 IEM_DS3505
ZGGG,2002-08-23 23:00,ZGGG 232300Z AUTO 00000KT 4SM 27/23 A2988 RMK T02700230 IEM_DS3505
ZGGG,2002-08-24 00:00,ZGGG 240000Z AUTO 22004KT 9SM 28/24 A2988 RMK 70003 SLP118 T02840240 52012 IEM_DS3505
ZGGG,2002-08-24 01:00,ZGGG 240100Z AUTO 21004KT 3SM 29/23 A2988 RMK T02900230 IEM_DS3505
ZGGG,2002-08-24 02:00,ZGGG 240200Z AUTO 00000KT 30/22 A2988 RMK T03000220 IEM_DS3505
ZGGG,2002-08-24 03:00,ZGGG 240300Z AUTO 00000KT 11SM 32/22 A2988 RMK SLP120 T03180225 52002 IEM_DS3505
ZGGG,2002-08-24 04:00,ZGGG 240400Z AUTO 27002KT 5SM 32/21 A2985 RMK T03200210 IEM_DS3505
ZGGG,2002-08-24 05:00,ZGGG 240500Z AUTO 00000KT 5SM 33/22 A2985 RMK T03300220 IEM_DS3505
ZGGG,2002-08-24 06:00,ZGGG 240600Z AUTO 25002KT 9SM 34/22 A2983 RMK SLP101 T03400221 57019 IEM_DS3505
ZGGG,2002-08-24 07:00,ZGGG 240700Z AUTO 00000KT 33/21 A2980 RMK T03300210 IEM_DS3505
ZGGG,2002-08-24 08:00,ZGGG 240800Z AUTO 00000KT 5SM 34/22 A2980 RMK T03400220 IEM_DS3505
ZGGG,2002-08-24 09:00,ZGGG 240900Z AUTO 14004KT 10SM 34/21 A2977 RMK SLP086 T03360213 57015 IEM_DS3505
ZGGG,2002-08-24 10:00,ZGGG 241000Z AUTO 00000KT 33/20 A2977 RMK T03300200 IEM_DS3505
ZGGG,2002-08-24 11:00,ZGGG 241100Z AUTO 16002KT 32/20 A2977 RMK T03200200 IEM_DS3505
ZGGG,2002-08-24 12:00,ZGGG 241200Z AUTO 14004KT 10SM 30/25 A2977 RMK SLP087 T03010247 52001 IEM_DS3505
ZGGG,2002-08-24 13:00,ZGGG 241300Z AUTO 00000KT 6SM 30/24 A2980 RMK T03000240 IEM_DS3505
ZGGG,2002-08-24 14:00,ZGGG 241400Z AUTO 00000KT 6SM 29/24 A2980 RMK T02900240 IEM_DS3505
ZGGG,2002-08-24 15:00,ZGGG 241500Z AUTO 14004KT 9SM 29/25 A2980 RMK SLP092 T02890248 52005 IEM_DS3505
ZGGG,2002-08-24 16:00,ZGGG 241600Z AUTO 20004KT 6SM 29/24 A2980 RMK T02900240 IEM_DS3505
ZGGG,2002-08-24 17:00,ZGGG 241700Z AUTO 19004KT 6SM 28/24 A2980 RMK T02800240 IEM_DS3505
ZGGG,2002-08-24 18:00,ZGGG 241800Z AUTO 22002KT 9SM 28/24 A2980 RMK SLP088 T02800240 57004 IEM_DS3505
ZGGG,2002-08-24 19:00,ZGGG 241900Z AUTO 00000KT 6SM 28/24 A2980 RMK T02800240 IEM_DS3505
ZGGG,2002-08-24 20:00,ZGGG 242000Z AUTO 00000KT 6SM 27/23 A2980 RMK T02700230 IEM_DS3505
ZGGG,2002-08-24 21:00,ZGGG 242100Z AUTO 22002KT 9SM 27/24 A2980 RMK SLP092 T02690236 52004 IEM_DS3505
ZGGG,2002-08-24 22:00,ZGGG 242200Z AUTO 00000KT 6SM 27/24 A2983 RMK T02700240 IEM_DS3505
ZGGG,2002-08-24 23:00,ZGGG 242300Z AUTO 00000KT 6SM 27/23 A2983 RMK T02700230 IEM_DS3505
ZGGG,2002-08-25 00:00,ZGGG 250000Z AUTO 14004KT 9SM 28/25 A2983 RMK SLP102 T02840246 52010 IEM_DS3505
ZGGG,2002-08-25 01:00,ZGGG 250100Z AUTO 00000KT 7SM 29/23 A2983 RMK T02900230 IEM_DS3505
ZGGG,2002-08-25 02:00,ZGGG 250200Z AUTO 00000KT 7SM 30/23 A2983 RMK T03000230 IEM_DS3505
ZGGG,2002-08-25 03:00,ZGGG 250300Z AUTO 07004KT 8SM 32/24 A2983 RMK SLP100 T03190235 57002 IEM_DS3505
ZGGG,2002-08-25 04:00,ZGGG 250400Z AUTO 00000KT 7SM 32/23 A2980 RMK T03200230 IEM_DS3505
ZGGG,2002-08-25 05:00,ZGGG 250500Z AUTO 00000KT 32/23 A2977 RMK T03200230 IEM_DS3505
ZGGG,2002-08-25 06:00,ZGGG 250600Z AUTO 25004KT 7SM 34/24 A2974 RMK SLP075 T03400235 57025 IEM_DS3505
ZGGG,2002-08-25 07:00,ZGGG 250700Z AUTO 00000KT 5SM 34/23 A2971 RMK T03400230 IEM_DS3505
ZGGG,2002-08-25 08:00,ZGGG 250800Z AUTO 00000KT 5SM 34/22 A2971 RMK T03400220 IEM_DS3505
ZGGG,2002-08-25 09:00,ZGGG 250900Z AUTO 14006KT 9SM 33/23 A2968 RMK SLP056 T03290227 57019 IEM_DS3505
ZGGG,2002-08-25 10:00,ZGGG 251000Z AUTO 00000KT 6SM 34/22 A2968 RMK T03400220 IEM_DS3505
ZGGG,2002-08-25 12:00,ZGGG 251200Z AUTO 14006KT 10SM 31/25 A2971 RMK SLP066 T03060247 52010 IEM_DS3505
ZGGG,2002-08-25 13:00,ZGGG 251300Z AUTO 00000KT 6SM 31/24 A2974 RMK T03100240 IEM_DS3505
ZGGG,2002-08-25 14:00,ZGGG 251400Z AUTO 16002KT 6SM 30/25 A2977 RMK T03000250 IEM_DS3505
ZGGG,2002-08-25 15:00,ZGGG 251500Z AUTO 16004KT 10SM 29/26 A2977 RMK SLP085 T02900256 52019 IEM_DS3505
ZGGG,2002-08-25 16:00,ZGGG 251600Z AUTO 00000KT 6SM 29/25 A2980 RMK T02900250 IEM_DS3505
ZGGG,2002-08-25 17:00,ZGGG 251700Z AUTO 20004KT 6SM 29/25 A2977 RMK T02900250 IEM_DS3505
ZGGG,2002-08-25 18:00,ZGGG 251800Z AUTO 25002KT 9SM 28/25 A2977 RMK SLP082 T02830249 57003 IEM_DS3505
ZGGG,2002-08-25 19:00,ZGGG 251900Z AUTO 21002KT 6SM 28/24 A2977 RMK T02800240 IEM_DS3505
ZGGG,2002-08-25 20:00,ZGGG 252000Z AUTO 00000KT 6SM 27/23 A2977 RMK T02700230 IEM_DS3505
ZGGG,2002-08-25 21:00,ZGGG 252100Z AUTO 16004KT 9SM 27/25 A2974 RMK SLP075 T02740247 57007 IEM_DS3505
ZGGG,2002-08-25 22:00,ZGGG 252200Z AUTO 00000KT 7SM 28/24 A2977 RMK T02800240 IEM_DS3505
ZGGG,2002-08-25 23:00,ZGGG 252300Z AUTO 00000KT 4SM 28/24 A2977 RMK T02800240 IEM_DS3505
ZGGG,2002-08-26 00:00,ZGGG 260000Z AUTO 22002KT 10SM 29/25 A2977 RMK SLP083 T02900254 52008 IEM_DS3505
ZGGG,2002-08-26 01:00,ZGGG 260100Z AUTO 00000KT 4SM 29/24 A2980 RMK T02900240 IEM_DS3505
ZGGG,2002-08-26 02:00,ZGGG 260200Z AUTO 27002KT 4SM 29/24 A2980 RMK T02900240 IEM_DS3505
ZGGG,2002-08-26 03:00,ZGGG 260300Z AUTO 32002KT 7SM 31/25 A2980 RMK SLP087 T03120253 52004 IEM_DS3505
ZGGG,2002-08-26 04:00,ZGGG 260400Z AUTO 00000KT 32/25 A2977 RMK T03200250 IEM_DS3505
ZGGG,2002-08-26 05:00,ZGGG 260500Z AUTO 00000KT 33/24 A2974 RMK T03300240 IEM_DS3505
ZGGG,2002-08-26 06:00,ZGGG 260600Z AUTO 32004KT 9SM 34/25 A2971 RMK SLP060 T03420247 57027 IEM_DS3505
ZGGG,2002-08-26 07:00,ZGGG 260700Z AUTO 00000KT 34/24 A2968 RMK T03400240 IEM_DS3505
ZGGG,2002-08-26 08:00,ZGGG 260800Z AUTO 00000KT 7SM 34/23 A2968 RMK T03400230 IEM_DS3505
ZGGG,2002-08-26 09:00,ZGGG 260900Z AUTO 25002KT 10SM 35/25 A2965 RMK SLP042 T03480248 57018 IEM_DS3505
ZGGG,2002-08-26 10:00,ZGGG 261000Z AUTO 00000KT 7SM 34/23 A2965 RMK T03400230 IEM_DS3505
ZGGG,2002-08-26 11:00,ZGGG 261100Z AUTO 00000KT 7SM 33/23 A2965 RMK T03300230 IEM_DS3505
ZGGG,2002-08-26 12:00,ZGGG 261200Z AUTO 14004KT 7SM 31/26 A2968 RMK SLP053 T03080261 52011 IEM_DS3505
ZGGG,2002-08-26 13:00,ZGGG 261300Z AUTO 00000KT 4SM 31/26 A2968 RMK T03100260 IEM_DS3505
ZGGG,2002-08-26 14:00,ZGGG 261400Z AUTO 00000KT 6SM 31/26 A2971 RMK T03100260 IEM_DS3505
ZGGG,2002-08-26 15:00,ZGGG 261500Z AUTO 11002KT 8SM 29/27 A2971 RMK SLP065 T02900267 52012 IEM_DS3505
ZGGG,2002-08-26 16:00,ZGGG 261600Z AUTO 00000KT 6SM 30/26 A2971 RMK T03000260 IEM_DS3505
ZGGG,2002-08-26 17:00,ZGGG 261700Z AUTO 00000KT 6SM 29/26 A2971 RMK T02900260 IEM_DS3505
ZGGG,2002-08-26 18:00,ZGGG 261800Z AUTO 16002KT 7SM 28/27 A2971 RMK SLP066 T02850267 52001 IEM_DS3505
ZGGG,2002-08-26 19:00,ZGGG 261900Z AUTO 20008KT 7SM 29/25 A2971 RMK T02900250 IEM_DS3505
ZGGG,2002-08-26 20:00,ZGGG 262000Z AUTO 21008KT 7SM 29/26 A2971 RMK T02900260 IEM_DS3505
ZGGG,2002-08-26 21:00,ZGGG 262100Z AUTO 16004KT 7SM 28/26 A2971 RMK SLP064 T02840265 57002 IEM_DS3505
ZGGG,2002-08-26 22:00,ZGGG 262200Z AUTO 21008KT 7SM 28/25 A2974 RMK T02800250 IEM_DS3505
ZGGG,2002-08-26 23:00,ZGGG 262300Z AUTO 20006KT 5SM 28/25 A2974 RMK T02800250 IEM_DS3505
ZGGG,2002-08-27 00:00,ZGGG 270000Z AUTO 22002KT 7SM 29/26 A2977 RMK SLP076 T02930261 52012 IEM_DS3505
ZGGG,2002-08-27 01:00,ZGGG 270100Z AUTO 21006KT 4SM 30/25 A2977 RMK T03000250 IEM_DS3505
ZGGG,2002-08-27 02:00,ZGGG 270200Z AUTO 20008KT 31/25 A2977 RMK T03100250 IEM_DS3505
ZGGG,2002-08-27 03:00,ZGGG 270300Z AUTO 18006KT 8SM 33/26 A2974 RMK SLP074 T03260264 57002 IEM_DS3505
ZGGG,2002-08-27 04:00,ZGGG 270400Z AUTO 31006KT 4SM 31/26 A2974 RMK T03100260 IEM_DS3505
ZGGG,2002-08-27 05:00,ZGGG 270500Z AUTO 04006KT 31/25 A2971 RMK T03100250 IEM_DS3505
ZGGG,2002-08-27 06:00,ZGGG 270600Z AUTO 32002KT 8SM 32/26 A2971 RMK SLP055 T03220255 57019 IEM_DS3505
ZGGG,2002-08-27 07:00,ZGGG 270700Z AUTO 35010KT 5SM A2977 RMK IEM_DS3505
ZGGG,2002-08-27 08:00,ZGGG 270800Z AUTO 04010KT 7SM 24/21 A2974 RMK T02400210 IEM_DS3505
ZGGG,2002-08-27 09:00,ZGGG 270900Z AUTO 34006KT 12SM 25/22 A2971 RMK SLP057 T02490222 52001 IEM_DS3505
ZGGG,2002-08-27 10:00,ZGGG 271000Z AUTO 01004KT 7SM 26/21 A2971 RMK T02600210 IEM_DS3505
ZGGG,2002-08-27 11:00,ZGGG 271100Z AUTO 01004KT 5SM 26/21 A2974 RMK T02600210 IEM_DS3505
ZGGG,2002-08-27 12:00,ZGGG 271200Z AUTO 00000KT 12SM 25/22 A2977 RMK 60079 SLP071 T02520222 52014 IEM_DS3505
ZGGG,2002-08-27 13:00,ZGGG 271300Z AUTO 36004KT 6SM 26/21 A2977 RMK T02600210 IEM_DS3505
ZGGG,2002-08-27 14:00,ZGGG 271400Z AUTO 05002KT 6SM 25/22 A2980 RMK T02500220 IEM_DS3505
ZGGG,2002-08-27 15:00,ZGGG 271500Z AUTO 00000KT 12SM 24/23 A2980 RMK SLP090 T02450226 52020 IEM_DS3505
ZGGG,2002-08-27 16:00,ZGGG 271600Z AUTO 00000KT 3SM 24/22 A2980 RMK T02400220 IEM_DS3505
ZGGG,2002-08-27 17:00,ZGGG 271700Z AUTO 09004KT 3SM 24/23 A2977 RMK T02400230 IEM_DS3505
ZGGG,2002-08-27 18:00,ZGGG 271800Z AUTO 00000KT 11SM 24/23 A2977 RMK SLP081 T02420227 57009 IEM_DS3505
ZGGG,2002-08-27 19:00,ZGGG 271900Z AUTO 00000KT 3SM 24/23 A2977 RMK T02400230 IEM_DS3505
ZGGG,2002-08-27 21:00,ZGGG 272100Z AUTO 34004KT 7SM 24/23 A2980 RMK 70080 SLP085 T02390227 52003 IEM_DS3505
ZGGG,2002-08-27 22:00,ZGGG 272200Z AUTO 05006KT 2 1/2SM 23/23 A2980 RMK T02300230 IEM_DS3505
ZGGG,2002-08-27 23:00,ZGGG 272300Z AUTO 07004KT 1 1/2SM 24/24 A2980 RMK T02400240 IEM_DS3505
ZGGG,2002-08-28 00:00,ZGGG 280000Z AUTO 00000KT 9SM 26/22 A2983 RMK 70080 SLP096 T02640224 52011 IEM_DS3505
ZGGG,2002-08-28 01:00,ZGGG 280100Z AUTO 33004KT 2 1/2SM 26/22 A2983 RMK T02600220 IEM_DS3505
ZGGG,2002-08-28 02:00,ZGGG 280200Z AUTO 03006KT 28/22 A2983 RMK T02800220 IEM_DS3505
ZGGG,2002-08-28 03:00,ZGGG 280300Z AUTO 36004KT 9SM 30/22 A2983 RMK SLP094 T03020225 57002 IEM_DS3505
ZGGG,2002-08-28 05:00,ZGGG 280500Z AUTO 33006KT 31/23 A2980 RMK T03100230 IEM_DS3505
ZGGG,2002-08-28 06:00,ZGGG 280600Z AUTO 32004KT 9SM 34/24 A2977 RMK SLP080 T03360237 57013 IEM_DS3505
ZGGG,2002-08-28 07:00,ZGGG 280700Z AUTO 32006KT 6SM 33/23 A2974 RMK T03300230 IEM_DS3505
ZGGG,2002-08-28 08:00,ZGGG 280800Z AUTO 30006KT 6SM 33/22 A2971 RMK T03300220 IEM_DS3505
ZGGG,2002-08-28 09:00,ZGGG 280900Z AUTO 00000KT 10SM 34/22 A2974 RMK SLP065 T03360220 57015 IEM_DS3505
ZGGG,2002-08-28 10:00,ZGGG 281000Z AUTO 28004KT 7SM 33/22 A2974 RMK T03300220 IEM_DS3505
ZGGG,2002-08-28 11:00,ZGGG 281100Z AUTO 29006KT 31/22 A2977 RMK T03100220 IEM_DS3505
ZGGG,2002-08-28 12:00,ZGGG 281200Z AUTO 27004KT 8SM 30/23 A2977 RMK 60003 SLP081 T02960233 52015 IEM_DS3505
ZGGG,2002-08-28 13:00,ZGGG 281300Z AUTO 28004KT 6SM 29/22 A2980 RMK T02900220 IEM_DS3505
ZGGG,2002-08-28 14:00,ZGGG 281400Z AUTO 27004KT 6SM 29/22 A2980 RMK T02900220 IEM_DS3505
ZGGG,2002-08-28 15:00,ZGGG 281500Z AUTO 32002KT 10SM 28/22 A2980 RMK SLP091 T02810221 52011 IEM_DS3505
ZGGG,2002-08-28 16:00,ZGGG 281600Z AUTO 24004KT 28/22 A2980 RMK T02800220 IEM_DS3505
ZGGG,2002-08-28 17:00,ZGGG 281700Z AUTO 26002KT 4SM 27/22 A2980 RMK T02700220 IEM_DS3505
ZGGG,2002-08-28 18:00,ZGGG 281800Z AUTO 27002KT 9SM 27/23 A2977 RMK SLP082 T02730226 57009 IEM_DS3505
ZGGG,2002-08-28 19:00,ZGGG 281900Z AUTO 00000KT 4SM 27/22 A2977 RMK T02700220 IEM_DS3505
ZGGG,2002-08-28 20:00,ZGGG 282000Z AUTO 00000KT 4SM 27/22 A2977 RMK T02700220 IEM_DS3505
ZGGG,2002-08-28 21:00,ZGGG 282100Z AUTO 00000KT 9SM 26/23 A2977 RMK 70003 SLP082 T02580227 54000 IEM_DS3505
ZGGG,2002-08-28 22:00,ZGGG 282200Z AUTO 27004KT 3SM 26/22 A2980 RMK T02600220 IEM_DS3505
ZGGG,2002-08-28 23:00,ZGGG 282300Z AUTO 28002KT 2SM 26/23 A2980 RMK T02600230 IEM_DS3505
ZGGG,2002-08-29 00:00,ZGGG 290000Z AUTO 32002KT 9SM 28/22 A2983 RMK 70003 SLP094 T02810222 52012 IEM_DS3505
ZGGG,2002-08-29 01:00,ZGGG 290100Z AUTO 28002KT 3SM 29/23 A2983 RMK T02900230 IEM_DS3505
ZGGG,2002-08-29 02:00,ZGGG 290200Z AUTO 34006KT 3SM 29/23 A2983 RMK T02900230 IEM_DS3505
ZGGG,2002-08-29 03:00,ZGGG 290300Z AUTO 29004KT 8SM 32/23 A2983 RMK SLP092 T03210232 57002 IEM_DS3505
ZGGG,2002-08-29 04:00,ZGGG 290400Z AUTO 31006KT 5SM 32/22 A2980 RMK T03200220 IEM_DS3505
ZGGG,2002-08-29 05:00,ZGGG 290500Z AUTO 31006KT 6SM 32/22 A2977 RMK T03200220 IEM_DS3505
ZGGG,2002-08-29 06:00,ZGGG 290600Z AUTO 27004KT 12SM 34/22 A2974 RMK SLP074 T03380219 57018 IEM_DS3505
ZGGG,2002-08-29 07:00,ZGGG 290700Z AUTO 26006KT 7SM 34/21 A2974 RMK T03400210 IEM_DS3505
ZGGG,2002-08-29 08:00,ZGGG 290800Z AUTO 30006KT 7SM 34/20 A2971 RMK T03400200 IEM_DS3505
ZGGG,2002-08-29 09:00,ZGGG 290900Z AUTO 27006KT 11SM 35/21 A2971 RMK SLP058 T03480211 57016 IEM_DS3505
ZGGG,2002-08-29 10:00,ZGGG 291000Z AUTO 31004KT 7SM 33/22 A2971 RMK T03300220 IEM_DS3505
ZGGG,2002-08-29 11:00,ZGGG 291100Z AUTO 30004KT 6SM 33/22 A2971 RMK T03300220 IEM_DS3505
ZGGG,2002-08-29 12:00,ZGGG 291200Z AUTO 00000KT 9SM 31/24 A2971 RMK SLP062 T03080238 52004 IEM_DS3505
ZGGG,2002-08-29 13:00,ZGGG 291300Z AUTO 05002KT 6SM 31/23 A2971 RMK T03100230 IEM_DS3505
ZGGG,2002-08-29 14:00,ZGGG 291400Z AUTO 06004KT 6SM 29/23 A2974 RMK T02900230 IEM_DS3505
ZGGG,2002-08-29 15:00,ZGGG 291500Z AUTO 00000KT 8SM 29/26 A2974 RMK SLP072 T02900255 52010 IEM_DS3505
ZGGG,2002-08-29 16:00,ZGGG 291600Z AUTO 31004KT 29/23 A2974 RMK T02900230 IEM_DS3505
ZGGG,2002-08-29 18:00,ZGGG 291800Z AUTO 00000KT 8SM 28/24 A2974 RMK SLP068 T02820238 57004 IEM_DS3505
ZGGG,2002-08-29 19:00,ZGGG 291900Z AUTO 33004KT 6SM 28/22 A2974 RMK T02800220 IEM_DS3505
ZGGG,2002-08-29 20:00,ZGGG 292000Z AUTO 33004KT 6SM 28/23 A2971 RMK T02800230 IEM_DS3505
ZGGG,2002-08-29 21:00,ZGGG 292100Z AUTO 00000KT 7SM 27/23 A2974 RMK SLP066 T02710232 57002 IEM_DS3505
ZGGG,2002-08-29 22:00,ZGGG 292200Z AUTO 35004KT 3SM 27/22 A2974 RMK T02700220 IEM_DS3505
ZGGG,2002-08-29 23:00,ZGGG 292300Z AUTO 34004KT 3SM 27/23 A2974 RMK T02700230 IEM_DS3505
ZGGG,2002-08-30 00:00,ZGGG 300000Z AUTO 34006KT 10SM 28/24 A2977 RMK SLP077 T02780235 52011 IEM_DS3505
ZGGG,2002-08-30 01:00,ZGGG 300100Z AUTO 36006KT 29/22 A2977 RMK T02900220 IEM_DS3505
ZGGG,2002-08-30 02:00,ZGGG 300200Z AUTO 03008KT 31/23 A2977 RMK T03100230 IEM_DS3505
ZGGG,2002-08-30 03:00,ZGGG 300300Z AUTO 02004KT 9SM 32/23 A2977 RMK SLP079 T03230231 52002 IEM_DS3505
ZGGG,2002-08-30 04:00,ZGGG 300400Z AUTO 04008KT 5SM 33/22 A2974 RMK T03300220 IEM_DS3505
ZGGG,2002-08-30 05:00,ZGGG 300500Z AUTO 02008KT 5SM 33/21 A2971 RMK T03300210 IEM_DS3505
ZGGG,2002-08-30 06:00,ZGGG 300600Z AUTO 02004KT 9SM 34/20 A2971 RMK SLP057 T03410205 57022 IEM_DS3505
ZGGG,2002-08-30 07:00,ZGGG 300700Z AUTO 34006KT 7SM 34/21 A2968 RMK T03400210 IEM_DS3505
ZGGG,2002-08-30 08:00,ZGGG 300800Z AUTO 34006KT 7SM 34/19 A2965 RMK T03400190 IEM_DS3505
ZGGG,2002-08-30 09:00,ZGGG 300900Z AUTO 29002KT 9SM 35/21 A2965 RMK SLP042 T03460208 57015 IEM_DS3505
ZGGG,2002-08-30 10:00,ZGGG 301000Z AUTO 33006KT 6SM 33/17 A2965 RMK T03300170 IEM_DS3505
ZGGG,2002-08-30 11:00,ZGGG 301100Z AUTO 33004KT 33/18 A2965 RMK T03300180 IEM_DS3505
ZGGG,2002-08-30 12:00,ZGGG 301200Z AUTO 00000KT 8SM 30/22 A2968 RMK SLP053 T02960215 52011 IEM_DS3505
ZGGG,2002-08-30 13:00,ZGGG 301300Z AUTO 10004KT 29/21 A2971 RMK T02900210 IEM_DS3505
ZGGG,2002-08-30 14:00,ZGGG 301400Z AUTO 07002KT 29/21 A2971 RMK T02900210 IEM_DS3505
ZGGG,2002-08-30 15:00,ZGGG 301500Z AUTO 00000KT 8SM 28/24 A2971 RMK SLP062 T02800240 52009 IEM_DS3505
ZGGG,2002-08-30 16:00,ZGGG 301600Z AUTO 10002KT 3SM 28/21 A2971 RMK T02800210 IEM_DS3505
ZGGG,2002-08-30 17:00,ZGGG 301700Z AUTO 08002KT 3SM 28/21 A2971 RMK T02800210 IEM_DS3505
ZGGG,2002-08-30 18:00,ZGGG 301800Z AUTO 00000KT 7SM 27/23 A2971 RMK SLP054 T02680227 57008 IEM_DS3505
ZGGG,2002-08-30 19:00,ZGGG 301900Z AUTO 04004KT 3SM 27/22 A2968 RMK T02700220 IEM_DS3505
ZGGG,2002-08-30 20:00,ZGGG 302000Z AUTO 05006KT 3SM 26/21 A2968 RMK T02600210 IEM_DS3505
ZGGG,2002-08-30 21:00,ZGGG 302100Z AUTO 00000KT 8SM 26/22 A2971 RMK SLP056 T02610223 52002 IEM_DS3505
ZGGG,2002-08-30 22:00,ZGGG 302200Z AUTO 05006KT 3SM 26/22 A2971 RMK T02600220 IEM_DS3505
ZGGG,2002-08-30 23:00,ZGGG 302300Z AUTO 04006KT 2SM 26/21 A2974 RMK T02600210 IEM_DS3505
ZGGG,2002-08-31 00:00,ZGGG 310000Z AUTO 00000KT 9SM 28/21 A2974 RMK SLP070 T02840214 52014 IEM_DS3505
ZGGG,2002-08-31 01:00,ZGGG 310100Z AUTO 05006KT 2 1/2SM 29/21 A2977 RMK T02900210 IEM_DS3505
ZGGG,2002-08-31 02:00,ZGGG 310200Z AUTO 02008KT 3SM 31/21 A2977 RMK T03100210 IEM_DS3505
ZGGG,2002-08-31 03:00,ZGGG 310300Z AUTO 04004KT 12SM 33/20 A2977 RMK SLP081 T03320205 52011 IEM_DS3505
ZGGG,2002-08-31 04:00,ZGGG 310400Z AUTO 08008KT 5SM 33/18 A2977 RMK T03300180 IEM_DS3505
ZGGG,2002-08-31 05:00,ZGGG 310500Z AUTO 01006KT 5SM 33/18 A2974 RMK T03300180 IEM_DS3505
ZGGG,2002-08-31 06:00,ZGGG 310600Z AUTO 34004KT 14SM 34/20 A2971 RMK SLP060 T03410196 57021 IEM_DS3505
ZGGG,2002-08-31 07:00,ZGGG 310700Z AUTO 07004KT 5SM 34/19 A2968 RMK T03400190 IEM_DS3505
ZGGG,2002-08-31 08:00,ZGGG 310800Z AUTO 36006KT 5SM 34/17 A2968 RMK T03400170 IEM_DS3505
ZGGG,2002-08-31 09:00,ZGGG 310900Z AUTO 09004KT 12SM 34/19 A2968 RMK SLP050 T03380194 57010 IEM_DS3505
ZGGG,2002-08-31 10:00,ZGGG 311000Z AUTO 32006KT 33/19 A2968 RMK T03300190 IEM_DS3505
ZGGG,2002-08-31 11:00,ZGGG 311100Z AUTO 35004KT 3SM 33/19 A2968 RMK T03300190 IEM_DS3505
ZGGG,2002-08-31 12:00,ZGGG 311200Z AUTO 00000KT 9SM 30/22 RMK SLP060 T02960220 52010 IEM_DS3505
ZGGG,2002-08-31 13:00,ZGGG 311300Z AUTO 08004KT 29/20 A2971 RMK T02900200 IEM_DS3505
ZGGG,2002-08-31 14:00,ZGGG 311400Z AUTO 10004KT 29/21 A2974 RMK T02900210 IEM_DS3505
ZGGG,2002-08-31 15:00,ZGGG 311500Z AUTO 07002KT 9SM 28/23 A2974 RMK SLP072 T02780230 52012 IEM_DS3505
ZGGG,2002-08-31 16:00,ZGGG 311600Z AUTO 12004KT 2 1/2SM 28/24 A2974 RMK T02800240 IEM_DS3505
ZGGG,2002-08-31 17:00,ZGGG 311700Z AUTO 13002KT 2 1/2SM 29/25 A2974 RMK T02900250 IEM_DS3505
ZGGG,2002-08-31 18:00,ZGGG 311800Z AUTO 00000KT 7SM 27/25 A2974 RMK SLP068 T02740251 57004 IEM_DS3505
ZGGG,2002-08-31 19:00,ZGGG 311900Z AUTO 00000KT 2 1/2SM 28/24 A2974 RMK T02800240 IEM_DS3505
ZGGG,2002-08-31 20:00,ZGGG 312000Z AUTO 32004KT 2SM 28/24 A2974 RMK T02800240 IEM_DS3505
ZGGG,2002-08-31 21:00,ZGGG 312100Z AUTO 00000KT 8SM 27/25 A2974 RMK SLP073 T02700253 52005 IEM_DS3505
ZGGG,2002-08-31 22:00,ZGGG 312200Z AUTO 07004KT 1 1/2SM 26/24 A2977 RMK T02600240 IEM_DS3505
ZGGG,2002-08-31 23:00,ZGGG 312300Z AUTO 00000KT 1 1/4SM 27/24 A2977 RMK T02700240 IEM_DS3505
ZGGG,2002-09-01 00:00,ZGGG 010000Z AUTO 04002KT 4SM 28/25 A2980 RMK SLP088 T02820254 52015 IEM_DS3505
ZGGG,2002-09-01 02:00,ZGGG 010200Z AUTO 02004KT 1 1/2SM 30/23 A2983 RMK T03000230 IEM_DS3505
ZGGG,2002-09-01 03:00,ZGGG 010300Z AUTO 00000KT 2SM 31/25 A2983 RMK SLP097 T03100248 52009 IEM_DS3505
ZGGG,2002-09-01 04:00,ZGGG 010400Z AUTO 32004KT 3SM 33/22 A2980 RMK T03300220 IEM_DS3505
ZGGG,2002-09-01 05:00,ZGGG 010500Z AUTO 35004KT 3SM 33/21 A2980 RMK T03300210 IEM_DS3505
ZGGG,2002-09-01 06:00,ZGGG 010600Z AUTO 32002KT 6SM 35/22 A2977 RMK SLP079 T03490221 57018 IEM_DS3505
ZGGG,2002-09-01 07:00,ZGGG 010700Z AUTO 27006KT 34/21 A2974 RMK T03400210 IEM_DS3505
ZGGG,2002-09-01 08:00,ZGGG 010800Z AUTO 33004KT 34/19 A2974 RMK T03400190 IEM_DS3505
ZGGG,2002-09-01 09:00,ZGGG 010900Z AUTO 00000KT 7SM 35/22 A2974 RMK SLP071 T03460222 57008 IEM_DS3505
ZGGG,2002-09-01 10:00,ZGGG 011000Z AUTO 30004KT 33/19 A2974 RMK T03300190 IEM_DS3505
ZGGG,2002-09-01 11:00,ZGGG 011100Z AUTO 34002KT 33/21 A2977 RMK T03300210 IEM_DS3505
ZGGG,2002-09-01 12:00,ZGGG 011200Z AUTO 09002KT 7SM 31/25 A2977 RMK SLP086 T03090253 52015 IEM_DS3505
ZGGG,2002-09-01 13:00,ZGGG 011300Z AUTO 14006KT 31/23 A2980 RMK T03100230 IEM_DS3505
ZGGG,2002-09-01 14:00,ZGGG 011400Z AUTO 14006KT 31/23 A2983 RMK T03100230 IEM_DS3505
ZGGG,2002-09-01 15:00,ZGGG 011500Z AUTO 00000KT 7SM 29/23 A2983 RMK SLP100 T02920231 52014 IEM_DS3505
ZGGG,2002-09-01 16:00,ZGGG 011600Z AUTO 14004KT 3SM 29/22 A2983 RMK T02900220 IEM_DS3505
ZGGG,2002-09-01 17:00,ZGGG 011700Z AUTO 16002KT 3SM 29/23 A2983 RMK T02900230 IEM_DS3505
ZGGG,2002-09-01 18:00,ZGGG 011800Z AUTO 00000KT 7SM 28/24 A2983 RMK SLP098 T02850244 57002 IEM_DS3505
ZGGG,2002-09-01 19:00,ZGGG 011900Z AUTO 20004KT 3SM 29/24 A2980 RMK T02900240 IEM_DS3505
ZGGG,2002-09-01 20:00,ZGGG 012000Z AUTO 00000KT 3SM 28/23 A2983 RMK T02800230 IEM_DS3505
ZGGG,2002-09-01 21:00,ZGGG 012100Z AUTO 00000KT 6SM 28/25 A2983 RMK SLP098 T02780250 54000 IEM_DS3505
ZGGG,2002-09-01 22:00,ZGGG 012200Z AUTO 00000KT 4SM 28/24 A2985 RMK T02800240 IEM_DS3505
ZGGG,2002-09-01 23:00,ZGGG 012300Z AUTO 14004KT 3SM 28/24 A2985 RMK T02800240 IEM_DS3505
ZGGG,2002-09-02 00:00,ZGGG 020000Z AUTO 11002KT 6SM 29/25 A2985 RMK SLP112 T02870253 52014 IEM_DS3505
ZGGG,2002-09-02 01:00,ZGGG 020100Z AUTO 25004KT 3SM 29/23 A2988 RMK T02900230 IEM_DS3505
ZGGG,2002-09-02 02:00,ZGGG 020200Z AUTO 24004KT 3SM 31/23 A2988 RMK T03100230 IEM_DS3505
ZGGG,2002-09-02 03:00,ZGGG 020300Z AUTO 22004KT 9SM 32/23 A2985 RMK SLP111 T03240227 57001 IEM_DS3505
ZGGG,2002-09-02 04:00,ZGGG 020400Z AUTO 26004KT 3SM 32/23 A2985 RMK T03200230 IEM_DS3505
ZGGG,2002-09-02 05:00,ZGGG 020500Z AUTO 18004KT 3SM 32/22 A2983 RMK T03200220 IEM_DS3505
ZGGG,2002-09-02 06:00,ZGGG 020600Z AUTO 14002KT 7SM 33/24 A2980 RMK SLP088 T03290243 57023 IEM_DS3505
ZGGG,2002-09-02 07:00,ZGGG 020700Z AUTO 13004KT 2 1/2SM 32/23 A2977 RMK T03200230 IEM_DS3505
ZGGG,2002-09-02 08:00,ZGGG 020800Z AUTO 14006KT 2 1/2SM 33/23 A2977 RMK T03300230 IEM_DS3505
ZGGG,2002-09-02 09:00,ZGGG 020900Z AUTO 14004KT 7SM 33/24 A2974 RMK SLP076 T03300239 57012 IEM_DS3505
ZGGG,2002-09-02 10:00,ZGGG 021000Z AUTO 19004KT 3SM 32/22 A2977 RMK T03200220 IEM_DS3505
ZGGG,2002-09-02 11:00,ZGGG 021100Z AUTO 16004KT 3SM 32/22 A2977 RMK T03200220 IEM_DS3505
ZGGG,2002-09-02 12:00,ZGGG 021200Z AUTO 00000KT 7SM 30/22 RMK SLP091 T03000223 52015 IEM_DS3505
ZGGG,2002-09-02 13:00,ZGGG 021300Z AUTO 12004KT 29/23 A2983 RMK T02900230 IEM_DS3505
ZGGG,2002-09-02 15:00,ZGGG 021500Z AUTO 07002KT 7SM 28/24 A2985 RMK SLP109 T02810238 52018 IEM_DS3505
ZGGG,2002-09-02 16:00,ZGGG 021600Z AUTO 16006KT 4SM 29/24 A2985 RMK T02900240 IEM_DS3505
ZGGG,2002-09-02 17:00,ZGGG 021700Z AUTO 16006KT 5SM 28/24 A2983 RMK T02800240 IEM_DS3505
ZGGG,2002-09-02 18:00,ZGGG 021800Z AUTO 00000KT 6SM 27/23 A2983 RMK SLP102 T02680233 57007 IEM_DS3505
ZGGG,2002-09-02 19:00,ZGGG 021900Z AUTO 00000KT 4SM 28/24 A2983 RMK T02800240 IEM_DS3505
ZGGG,2002-09-02 20:00,ZGGG 022000Z AUTO 03002KT 4SM 27/23 A2983 RMK T02700230 IEM_DS3505
ZGGG,2002-09-02 21:00,ZGGG 022100Z AUTO 07004KT 5SM 26/24 A2985 RMK SLP105 T02610235 52003 IEM_DS3505
ZGGG,2002-09-02 22:00,ZGGG 022200Z AUTO 03004KT 4SM 27/22 A2985 RMK T02700220 IEM_DS3505
ZGGG,2002-09-02 23:00,ZGGG 022300Z AUTO 01004KT 2 1/2SM 27/22 A2988 RMK T02700220 IEM_DS3505
ZGGG,2002-09-03 00:00,ZGGG 030000Z AUTO 14004KT 6SM 27/23 A2988 RMK SLP121 T02680233 52015 IEM_DS3505
ZGGG,2002-09-03 01:00,ZGGG 030100Z AUTO 10004KT 3SM 28/23 A2988 RMK T02800230 IEM_DS3505
ZGGG,2002-09-03 02:00,ZGGG 030200Z AUTO 14004KT 3SM 29/23 A2988 RMK T02900230 IEM_DS3505
ZGGG,2002-09-03 03:00,ZGGG 030300Z AUTO 14004KT 8SM 30/24 A2988 RMK SLP119 T03050241 57001 IEM_DS3505
ZGGG,2002-09-03 04:00,ZGGG 030400Z AUTO 22004KT 2 1/2SM 30/23 A2985 RMK T03000230 IEM_DS3505
ZGGG,2002-09-03 05:00,ZGGG 030500Z AUTO 24004KT 2 1/2SM 31/23 A2983 RMK T03100230 IEM_DS3505
ZGGG,2002-09-03 06:00,ZGGG 030600Z AUTO 36004KT 6SM 30/25 A2983 RMK SLP097 T03050250 57022 IEM_DS3505
ZGGG,2002-09-03 07:00,ZGGG 030700Z AUTO 07008KT 4SM A2983 RMK IEM_DS3505
ZGGG,2002-09-03 08:00,ZGGG 030800Z AUTO 01002KT 4SM 25/21 A2980 RMK T02500210 IEM_DS3505
ZGGG,2002-09-03 09:00,ZGGG 030900Z AUTO 14006KT 7SM 26/21 A2980 RMK SLP090 T02580213 57008 IEM_DS3505
ZGGG,2002-09-03 10:00,ZGGG 031000Z AUTO 16008KT 2 1/2SM 26/22 A2980 RMK T02600220 IEM_DS3505
ZGGG,2002-09-03 11:00,ZGGG 031100Z AUTO 06004KT 3SM 26/21 A2980 RMK T02600210 IEM_DS3505
ZGGG,2002-09-03 12:00,ZGGG 031200Z AUTO 00000KT 6SM 25/22 A2983 RMK SLP099 T02510220 52009 IEM_DS3505
ZGGG,2002-09-03 13:00,ZGGG 031300Z AUTO 05004KT 3SM 25/21 A2985 RMK T02500210 IEM_DS3505
ZGGG,2002-09-03 14:00,ZGGG 031400Z AUTO 09004KT 2 1/2SM 24/22 A2985 RMK T02400220 IEM_DS3505
ZGGG,2002-09-03 15:00,ZGGG 031500Z AUTO 36004KT 9SM 25/22 A2985 RMK SLP108 T02480221 52009 IEM_DS3505
ZGGG,2002-09-03 16:00,ZGGG 031600Z AUTO 07004KT 2SM 24/22 A2983 RMK T02400220 IEM_DS3505
ZGGG,2002-09-03 17:00,ZGGG 031700Z AUTO 04004KT 2SM 24/22 A2983 RMK T02400220 IEM_DS3505
ZGGG,2002-09-03 18:00,ZGGG 031800Z AUTO 00000KT 7SM 24/22 A2983 RMK SLP099 T02400219 57009 IEM_DS3505
ZGGG,2002-09-03 19:00,ZGGG 031900Z AUTO 00000KT 2SM 24/21 A2983 RMK T02400210 IEM_DS3505
ZGGG,2002-09-03 20:00,ZGGG 032000Z AUTO 00000KT 2SM 24/22 A2983 RMK T02400220 IEM_DS3505
ZGGG,2002-09-03 21:00,ZGGG 032100Z AUTO 00000KT 7SM 23/22 A2983 RMK 70000 SLP098 T02330218 57001 IEM_DS3505
ZGGG,2002-09-03 22:00,ZGGG 032200Z AUTO 00000KT 2SM 23/22 A2983 RMK T02300220 IEM_DS3505
ZGGG,2002-09-03 23:00,ZGGG 032300Z AUTO 00000KT 1SM 23/22 A2985 RMK T02300220 IEM_DS3505
ZGGG,2002-09-04 00:00,ZGGG 040000Z AUTO 32002KT 7SM 26/22 A2985 RMK 70000 SLP111 T02560224 52013 IEM_DS3505
ZGGG,2002-09-04 01:00,ZGGG 040100Z AUTO 02004KT 1 1/2SM 26/22 A2988 RMK T02600220 IEM_DS3505
ZGGG,2002-09-04 02:00,ZGGG 040200Z AUTO 05004KT 2SM 28/22 A2988 RMK T02800220 IEM_DS3505
ZGGG,2002-09-04 03:00,ZGGG 040300Z AUTO 07004KT 8SM 31/23 A2985 RMK SLP109 T03080230 57002 IEM_DS3505
ZGGG,2002-09-04 04:00,ZGGG 040400Z AUTO 06004KT 2 1/2SM 31/23 A2983 RMK T03100230 IEM_DS3505
ZGGG,2002-09-04 05:00,ZGGG 040500Z AUTO 08002KT 3SM 32/22 A2983 RMK T03200220 IEM_DS3505
ZGGG,2002-09-04 06:00,ZGGG 040600Z AUTO 14004KT 9SM 33/22 RMK SLP087 T03300216 57021 IEM_DS3505
ZGGG,2002-09-04 07:00,ZGGG 040700Z AUTO 02004KT 33/22 A2977 RMK T03300220 IEM_DS3505
ZGGG,2002-09-04 08:00,ZGGG 040800Z AUTO 11002KT 5SM 32/21 A2974 RMK T03200210 IEM_DS3505
ZGGG,2002-09-04 09:00,ZGGG 040900Z AUTO 09004KT 8SM 32/22 A2974 RMK SLP071 T03240216 57016 IEM_DS3505
ZGGG,2002-09-04 10:00,ZGGG 041000Z AUTO 08002KT 32/21 A2974 RMK T03200210 IEM_DS3505
ZGGG,2002-09-04 11:00,ZGGG 041100Z AUTO 06006KT 29/21 A2977 RMK T02900210 IEM_DS3505
ZGGG,2002-09-04 12:00,ZGGG 041200Z AUTO 00000KT 9SM 29/22 A2977 RMK SLP085 T02880219 52013 IEM_DS3505
ZGGG,2002-09-04 13:00,ZGGG 041300Z AUTO 00000KT 6SM 28/21 A2980 RMK T02800210 IEM_DS3505
ZGGG,2002-09-04 14:00,ZGGG 041400Z AUTO 13002KT 28/21 A2980 RMK T02800210 IEM_DS3505
ZGGG,2002-09-04 15:00,ZGGG 041500Z AUTO 07004KT 8SM 27/23 A2980 RMK SLP094 T02740234 52010 IEM_DS3505
ZGGG,2002-09-04 16:00,ZGGG 041600Z AUTO 00000KT 2 1/2SM 28/23 A2983 RMK T02800230 IEM_DS3505
ZGGG,2002-09-04 18:00,ZGGG 041800Z AUTO 00000KT 4SM 27/24 A2980 RMK SLP088 T02660237 57006 IEM_DS3505
ZGGG,2002-09-04 19:00,ZGGG 041900Z AUTO 00000KT 1 1/2SM 26/23 A2977 RMK T02600230 IEM_DS3505
ZGGG,2002-09-04 20:00,ZGGG 042000Z AUTO 00000KT 1 1/2SM 26/24 A2977 RMK T02600240 IEM_DS3505
ZGGG,2002-09-04 21:00,ZGGG 042100Z AUTO 00000KT 2 1/2SM 26/24 A2977 RMK SLP085 T02600238 57003 IEM_DS3505
ZGGG,2002-09-04 22:00,ZGGG 042200Z AUTO 00000KT 1 1/2SM 26/24 A2980 RMK T02600240 IEM_DS3505
ZGGG,2002-09-04 23:00,ZGGG 042300Z AUTO 06002KT 1SM 25/23 A2980 RMK T02500230 IEM_DS3505
ZGGG,2002-09-05 00:00,ZGGG 050000Z AUTO 00000KT 2SM 27/24 A2983 RMK SLP097 T02720242 52011 IEM_DS3505
ZGGG,2002-09-05 01:00,ZGGG 050100Z AUTO 35004KT 1 1/4SM 28/23 A2983 RMK T02800230 IEM_DS3505
ZGGG,2002-09-05 02:00,ZGGG 050200Z AUTO 34004KT 1 1/2SM 29/23 A2983 RMK T02900230 IEM_DS3505
ZGGG,2002-09-05 03:00,ZGGG 050300Z AUTO 32006KT 7SM 31/22 A2983 RMK SLP097 T03140221 52001 IEM_DS3505
ZGGG,2002-09-05 04:00,ZGGG 050400Z AUTO 35006KT 32/22 A2980 RMK T03200220 IEM_DS3505
ZGGG,2002-09-05 05:00,ZGGG 050500Z AUTO 32006KT 3SM 32/22 A2977 RMK T03200220 IEM_DS3505
ZGGG,2002-09-05 06:00,ZGGG 050600Z AUTO 32006KT 9SM 34/23 A2974 RMK SLP074 T03400227 57023 IEM_DS3505
ZGGG,2002-09-05 07:00,ZGGG 050700Z AUTO 02006KT 34/22 A2971 RMK T03400220 IEM_DS3505
ZGGG,2002-09-05 08:00,ZGGG 050800Z AUTO 01006KT 33/21 A2971 RMK T03300210 IEM_DS3505
ZGGG,2002-09-05 09:00,ZGGG 050900Z AUTO 04006KT 8SM 34/22 RMK SLP058 T03380219 57016 IEM_DS3505
ZGGG,2002-09-05 10:00,ZGGG 051000Z AUTO 09004KT 32/22 A2968 RMK T03200220 IEM_DS3505
ZGGG,2002-09-05 11:00,ZGGG 051100Z AUTO 3SM 31/22 A2971 RMK T03100220 IEM_DS3505
ZGGG,2002-09-05 12:00,ZGGG 051200Z AUTO 00000KT 8SM 29/24 A2974 RMK SLP069 T02940237 52011 IEM_DS3505
ZGGG,2002-09-05 13:00,ZGGG 051300Z AUTO 13004KT 3SM 30/23 A2974 RMK T03000230 IEM_DS3505
ZGGG,2002-09-05 14:00,ZGGG 051400Z AUTO 00000KT 3SM 28/23 A2977 RMK T02800230 IEM_DS3505
ZGGG,2002-09-05 17:00,ZGGG 051700Z AUTO 00000KT 2 1/2SM 27/23 A2977 RMK T02700230 IEM_DS3505
ZGGG,2002-09-05 18:00,ZGGG 051800Z AUTO 00000KT 2 1/2SM 28/24 A2977 RMK T02800240 IEM_DS3505
ZGGG,2002-09-05 19:00,ZGGG 051900Z AUTO 00000KT 2SM 26/23 A2974 RMK T02600230 IEM_DS3505
ZGGG,2002-09-05 21:00,ZGGG 052100Z AUTO 34002KT 8SM 27/22 RMK SLP073 T02680221 57002 IEM_DS3505
ZGGG,2002-09-05 22:00,ZGGG 052200Z AUTO 04004KT 2 1/2SM 26/23 A2977 RMK T02600230 IEM_DS3505
ZGGG,2002-09-05 23:00,ZGGG 052300Z AUTO 03004KT 2SM 26/22 A2977 RMK T02600220 IEM_DS3505
ZGGG,2002-09-06 00:00,ZGGG 060000Z AUTO 32004KT 6SM 28/22 A2980 RMK SLP087 T02770220 52014 IEM_DS3505
ZGGG,2002-09-06 01:00,ZGGG 060100Z AUTO 36006KT 2SM 29/22 A2980 RMK T02900220 IEM_DS3505
ZGGG,2002-09-06 02:00,ZGGG 060200Z AUTO 01008KT 2 1/2SM 30/22 A2980 RMK T03000220 IEM_DS3505
ZGGG,2002-09-06 03:00,ZGGG 060300Z AUTO 34008KT 7SM 32/22 A2980 RMK SLP086 T03170216 57001 IEM_DS3505
ZGGG,2002-09-06 04:00,ZGGG 060400Z AUTO 36012KT 3SM 32/22 A2977 RMK T03200220 IEM_DS3505
ZGGG,2002-09-06 05:00,ZGGG 060500Z AUTO 01010KT 3SM 32/21 A2974 RMK T03200210 IEM_DS3505
ZGGG,2002-09-06 06:00,ZGGG 060600Z AUTO 04008KT 8SM 33/22 A2971 RMK SLP060 T03340216 57026 IEM_DS3505
ZGGG,2002-09-06 07:00,ZGGG 060700Z AUTO 01010KT 3SM 34/21 A2968 RMK T03400210 IEM_DS3505
ZGGG,2002-09-06 10:00,ZGGG 061000Z AUTO 36006KT 3SM 32/21 A2965 RMK T03200210 IEM_DS3505
ZGGG,2002-09-06 11:00,ZGGG 061100Z AUTO 36006KT 3SM 32/21 A2965 RMK T03200210 IEM_DS3505
ZGGG,2002-09-06 12:00,ZGGG 061200Z AUTO 00000KT 7SM 30/22 A2968 RMK SLP052 T03040218 52008 IEM_DS3505
ZGGG,2002-09-06 13:00,ZGGG 061300Z AUTO 08006KT 3SM 29/22 A2968 RMK T02900220 IEM_DS3505
ZGGG,2002-09-06 14:00,ZGGG 061400Z AUTO 06006KT 2 1/2SM 28/22 A2971 RMK T02800220 IEM_DS3505
ZGGG,2002-09-06 15:00,ZGGG 061500Z AUTO 36004KT 7SM 29/20 A2971 RMK SLP062 T02880201 52010 IEM_DS3505
ZGGG,2002-09-06 16:00,ZGGG 061600Z AUTO 06006KT 3SM 27/19 A2974 RMK T02700190 IEM_DS3505
ZGGG,2002-09-06 17:00,ZGGG 061700Z AUTO 02008KT 28/20 A2971 RMK T02800200 IEM_DS3505
ZGGG,2002-09-06 18:00,ZGGG 061800Z AUTO 36002KT 8SM 28/18 A2971 RMK SLP061 T02780182 57001 IEM_DS3505
ZGGG,2002-09-06 19:00,ZGGG 061900Z AUTO 05006KT 3SM 25/19 A2971 RMK T02500190 IEM_DS3505
ZGGG,2002-09-06 20:00,ZGGG 062000Z AUTO 02008KT 26/18 A2971 RMK T02600180 IEM_DS3505
ZGGG,2002-09-06 21:00,ZGGG 062100Z AUTO 34004KT 8SM 26/17 A2971 RMK SLP063 T02650173 52002 IEM_DS3505
ZGGG,2002-09-06 22:00,ZGGG 062200Z AUTO 36008KT 4SM 26/18 A2974 RMK T02600180 IEM_DS3505
ZGGG,2002-09-06 23:00,ZGGG 062300Z AUTO 03008KT 2 1/2SM 25/18 A2974 RMK T02500180 IEM_DS3505
ZGGG,2002-09-07 00:00,ZGGG 070000Z AUTO 02008KT 9SM 27/17 A2977 RMK SLP075 T02660173 52012 IEM_DS3505
ZGGG,2002-09-07 01:00,ZGGG 070100Z AUTO 02014KT 6SM 28/14 A2977 RMK T02800140 IEM_DS3505
ZGGG,2002-09-07 02:00,ZGGG 070200Z AUTO 03016KT 6SM 28/14 A2977 RMK T02800140 IEM_DS3505
ZGGG,2002-09-07 03:00,ZGGG 070300Z AUTO 04006KT 9SM 30/16 A2974 RMK SLP073 T02960163 57002 IEM_DS3505
ZGGG,2002-09-07 04:00,ZGGG 070400Z AUTO 03016KT 6SM 30/17 A2974 RMK T03000170 IEM_DS3505
ZGGG,2002-09-07 05:00,ZGGG 070500Z AUTO 02012KT 6SM 31/18 A2971 RMK T03100180 IEM_DS3505
ZGGG,2002-09-07 06:00,ZGGG 070600Z AUTO 02004KT 8SM 32/18 A2968 RMK SLP050 T03200184 57023 IEM_DS3505
ZGGG,2002-09-07 07:00,ZGGG 070700Z AUTO 36010KT 6SM 33/16 A2965 RMK T03300160 IEM_DS3505
ZGGG,2002-09-07 09:00,ZGGG 070900Z AUTO 04004KT 8SM 32/17 RMK SLP033 T03210174 57017 IEM_DS3505
ZGGG,2002-09-07 10:00,ZGGG 071000Z AUTO 01010KT 32/17 A2962 RMK T03200170 IEM_DS3505
ZGGG,2002-09-07 11:00,ZGGG 071100Z AUTO 02008KT 3SM 31/17 A2965 RMK T03100170 IEM_DS3505
ZGGG,2002-09-07 12:00,ZGGG 071200Z AUTO 36002KT 9SM 29/18 A2965 RMK SLP047 T02910183 52014 IEM_DS3505
ZGGG,2002-09-07 13:00,ZGGG 071300Z AUTO 36006KT 29/19 A2968 RMK T02900190 IEM_DS3505
ZGGG,2002-09-07 14:00,ZGGG 071400Z AUTO 36006KT 28/19 A2968 RMK T02800190 IEM_DS3505
ZGGG,2002-09-07 15:00,ZGGG 071500Z AUTO 34004KT 9SM 27/19 A2971 RMK SLP056 T02710189 52009 IEM_DS3505
ZGGG,2002-09-07 16:00,ZGGG 071600Z AUTO 36008KT 5SM 27/17 A2971 RMK T02700170 IEM_DS3505
ZGGG,2002-09-07 17:00,ZGGG 071700Z AUTO 01008KT 6SM 26/17 A2971 RMK T02600170 IEM_DS3505
ZGGG,2002-09-07 18:00,ZGGG 071800Z AUTO 36002KT 8SM 25/16 A2968 RMK SLP052 T02470159 57004 IEM_DS3505
ZGGG,2002-09-07 19:00,ZGGG 071900Z AUTO 35006KT 6SM 25/16 A2968 RMK T02500160 IEM_DS3505
ZGGG,2002-09-07 20:00,ZGGG 072000Z AUTO 34004KT 5SM 24/17 A2968 RMK T02400170 IEM_DS3505
ZGGG,2002-09-07 21:00,ZGGG 072100Z AUTO 34004KT 8SM 24/17 A2971 RMK SLP054 T02400169 52002 IEM_DS3505
ZGGG,2002-09-07 22:00,ZGGG 072200Z AUTO 36006KT 4SM 24/17 A2971 RMK T02400170 IEM_DS3505
ZGGG,2002-09-07 23:00,ZGGG 072300Z AUTO 35004KT 3SM 24/17 A2971 RMK T02400170 IEM_DS3505
ZGGG,2002-09-08 00:00,ZGGG 080000Z AUTO 32002KT 7SM 25/17 A2974 RMK SLP070 T02520174 52015 IEM_DS3505
ZGGG,2002-09-08 02:00,ZGGG 080200Z AUTO 36006KT 27/17 A2977 RMK T02700170 IEM_DS3505
ZGGG,2002-09-08 03:00,ZGGG 080300Z AUTO 27002KT 12SM 29/18 A2974 RMK SLP074 T02880179 52005 IEM_DS3505
ZGGG,2002-09-08 04:00,ZGGG 080400Z AUTO 02010KT 5SM 29/17 A2974 RMK T02900170 IEM_DS3505
ZGGG,2002-09-08 05:00,ZGGG 080500Z AUTO 01008KT 5SM 30/17 A2971 RMK T03000170 IEM_DS3505
ZGGG,2002-09-08 06:00,ZGGG 080600Z AUTO 36006KT 14SM 32/19 A2968 RMK SLP057 T03180189 57017 IEM_DS3505
ZGGG,2002-09-08 07:00,ZGGG 080700Z AUTO 02010KT 6SM 32/18 A2968 RMK T03200180 IEM_DS3505
ZGGG,2002-09-08 08:00,ZGGG 080800Z AUTO 36010KT 6SM 32/18 A2968 RMK T03200180 IEM_DS3505
ZGGG,2002-09-08 09:00,ZGGG 080900Z AUTO 04006KT 14SM 32/19 A2968 RMK SLP047 T03150191 57010 IEM_DS3505
ZGGG,2002-09-08 10:00,ZGGG 081000Z AUTO 04014KT 6SM 29/17 A2968 RMK T02900170 IEM_DS3505
ZGGG,2002-09-08 11:00,ZGGG 081100Z AUTO 04012KT 6SM 28/18 A2971 RMK T02800180 IEM_DS3505
ZGGG,2002-09-08 12:00,ZGGG 081200Z AUTO 36006KT 12SM 28/18 A2971 RMK SLP065 T02850185 52017 IEM_DS3505
ZGGG,2002-09-08 14:00,ZGGG 081400Z AUTO 04008KT 6SM 27/19 A2977 RMK T02700190 IEM_DS3505
ZGGG,2002-09-08 15:00,ZGGG 081500Z AUTO 36006KT 11SM 27/18 A2977 RMK SLP079 T02720182 52014 IEM_DS3505
ZGGG,2002-09-08 16:00,ZGGG 081600Z AUTO 04008KT 6SM 25/18 A2977 RMK T02500180 IEM_DS3505
ZGGG,2002-09-08 17:00,ZGGG 081700Z AUTO 01008KT 6SM 26/18 A2977 RMK T02600180 IEM_DS3505
ZGGG,2002-09-08 18:00,ZGGG 081800Z AUTO 34006KT 10SM 26/18 A2977 RMK SLP076 T02560184 57002 IEM_DS3505
ZGGG,2002-09-08 19:00,ZGGG 081900Z AUTO 36008KT 6SM 25/18 A2974 RMK T02500180 IEM_DS3505
ZGGG,2002-09-08 20:00,ZGGG 082000Z AUTO 04008KT 6SM 24/18 A2974 RMK T02400180 IEM_DS3505
ZGGG,2002-09-08 21:00,ZGGG 082100Z AUTO 36002KT 9SM 24/19 A2974 RMK SLP071 T02440188 57005 IEM_DS3505
ZGGG,2002-09-08 22:00,ZGGG 082200Z AUTO 05008KT 6SM 23/18 A2977 RMK T02300180 IEM_DS3505
ZGGG,2002-09-08 23:00,ZGGG 082300Z AUTO 04008KT 6SM 23/19 A2977 RMK T02300190 IEM_DS3505
ZGGG,2002-09-09 00:00,ZGGG 090000Z AUTO 02002KT 9SM 26/20 A2977 RMK SLP083 T02560195 52011 IEM_DS3505
ZGGG,2002-09-09 01:00,ZGGG 090100Z AUTO 02008KT 6SM 27/19 A2980 RMK T02700190 IEM_DS3505
ZGGG,2002-09-09 02:00,ZGGG 090200Z AUTO 02006KT 6SM 28/19 A2980 RMK T02800190 IEM_DS3505
ZGGG,2002-09-09 03:00,ZGGG 090300Z AUTO 00000KT 10SM 31/21 A2977 RMK SLP083 T03090213 52001 IEM_DS3505
ZGGG,2002-09-09 04:00,ZGGG 090400Z AUTO 36006KT 6SM 30/20 A2977 RMK T03000200 IEM_DS3505
ZGGG,2002-09-09 05:00,ZGGG 090500Z AUTO 36006KT 31/21 A2974 RMK T03100210 IEM_DS3505
ZGGG,2002-09-09 06:00,ZGGG 090600Z AUTO 00000KT 13SM 33/21 A2971 RMK SLP062 T03270214 57021 IEM_DS3505
ZGGG,2002-09-09 07:00,ZGGG 090700Z AUTO 01006KT 32/20 A2971 RMK T03200200 IEM_DS3505
ZGGG,2002-09-09 08:00,ZGGG 090800Z AUTO 05006KT 5SM 32/19 A2968 RMK T03200190 IEM_DS3505
ZGGG,2002-09-09 09:00,ZGGG 090900Z AUTO 07002KT 13SM 32/22 A2968 RMK SLP053 T03200215 57009 IEM_DS3505
ZGGG,2002-09-09 10:00,ZGGG 091000Z AUTO 08004KT 31/21 A2968 RMK T03100210 IEM_DS3505
ZGGG,2002-09-09 11:00,ZGGG 091100Z AUTO 09004KT 30/21 A2971 RMK T03000210 IEM_DS3505
ZGGG,2002-09-09 12:00,ZGGG 091200Z AUTO 00000KT 11SM 29/24 A2971 RMK SLP065 T02920235 52011 IEM_DS3505
ZGGG,2002-09-09 13:00,ZGGG 091300Z AUTO 08004KT 6SM 29/21 A2974 RMK T02900210 IEM_DS3505
ZGGG,2002-09-09 14:00,ZGGG 091400Z AUTO 07004KT 6SM 28/21 A2974 RMK T02800210 IEM_DS3505
ZGGG,2002-09-09 15:00,ZGGG 091500Z AUTO 00000KT 8SM 28/24 A2977 RMK SLP078 T02780236 52014 IEM_DS3505
ZGGG,2002-09-09 16:00,ZGGG 091600Z AUTO 05004KT 4SM 27/22 A2977 RMK T02700220 IEM_DS3505
ZGGG,2002-09-09 17:00,ZGGG 091700Z AUTO 05006KT 4SM 27/22 A2974 RMK T02700220 IEM_DS3505
ZGGG,2002-09-09 18:00,ZGGG 091800Z AUTO 00000KT 7SM 27/23 A2974 RMK SLP066 T02710227 57012 IEM_DS3505
ZGGG,2002-09-09 19:00,ZGGG 091900Z AUTO 05006KT 4SM 26/22 A2971 RMK T02600220 IEM_DS3505
ZGGG,2002-09-09 20:00,ZGGG 092000Z AUTO 03006KT 4SM 26/22 A2971 RMK T02600220 IEM_DS3505
ZGGG,2002-09-09 21:00,ZGGG 092100Z AUTO 32002KT 8SM 27/22 A2971 RMK SLP060 T02720224 57006 IEM_DS3505
ZGGG,2002-09-09 22:00,ZGGG 092200Z AUTO 03008KT 4SM 27/22 A2974 RMK T02700220 IEM_DS3505
ZGGG,2002-09-09 23:00,ZGGG 092300Z AUTO 03006KT 3SM 27/22 A2974 RMK T02700220 IEM_DS3505
ZGGG,2002-09-10 00:00,ZGGG 100000Z AUTO 34006KT 9SM 27/22 A2974 RMK SLP072 T02740215 52012 IEM_DS3505
ZGGG,2002-09-10 01:00,ZGGG 100100Z AUTO 01008KT 3SM 29/21 A2974 RMK T02900210 IEM_DS3505
ZGGG,2002-09-10 02:00,ZGGG 100200Z AUTO 36010KT 29/21 A2977 RMK T02900210 IEM_DS3505
ZGGG,2002-09-10 03:00,ZGGG 100300Z AUTO 36006KT 9SM 30/22 A2974 RMK SLP070 T03050225 57002 IEM_DS3505
ZGGG,2002-09-10 04:00,ZGGG 100400Z AUTO 04012KT 5SM 31/21 A2971 RMK T03100210 IEM_DS3505
ZGGG,2002-09-10 05:00,ZGGG 100500Z AUTO 03008KT 5SM 33/22 A2971 RMK T03300220 IEM_DS3505
ZGGG,2002-09-10 06:00,ZGGG 100600Z AUTO 32006KT 11SM 34/24 A2968 RMK SLP046 T03380236 57024 IEM_DS3505
ZGGG,2002-09-10 07:00,ZGGG 100700Z AUTO 35006KT 5SM 33/22 A2965 RMK T03300220 IEM_DS3505
ZGGG,2002-09-10 08:00,ZGGG 100800Z AUTO 35008KT 7SM 33/22 A2965 RMK T03300220 IEM_DS3505
ZGGG,2002-09-10 09:00,ZGGG 100900Z AUTO 32004KT 6SM 28/26 A2965 RMK SLP043 T02800259 57003 IEM_DS3505
ZGGG,2002-09-10 10:00,ZGGG 101000Z AUTO 00000KT 3SM 26/26 A2965 RMK T02600260 IEM_DS3505
ZGGG,2002-09-10 11:00,ZGGG 101100Z AUTO 03002KT 4SM 29/25 A2965 RMK T02900250 IEM_DS3505
ZGGG,2002-09-10 12:00,ZGGG 101200Z AUTO 00000KT 7SM 28/26 A2968 RMK 60035 SLP047 T02750258 52004 IEM_DS3505
ZGGG,2002-09-10 13:00,ZGGG 101300Z AUTO 05004KT 4SM 28/24 A2968 RMK T02800240 IEM_DS3505
ZGGG,2002-09-10 14:00,ZGGG 101400Z AUTO 05002KT 3SM 28/24 A2968 RMK T02800240 IEM_DS3505
ZGGG,2002-09-10 15:00,ZGGG 101500Z AUTO 02002KT 10SM 27/24 A2971 RMK SLP058 T02740243 52011 IEM_DS3505
ZGGG,2002-09-10 16:00,ZGGG 101600Z AUTO 07006KT 4SM 28/24 A2968 RMK T02800240 IEM_DS3505
ZGGG,2002-09-10 17:00,ZGGG 101700Z AUTO 12004KT 6SM 28/23 A2971 RMK T02800230 IEM_DS3505
ZGGG,2002-09-10 18:00,ZGGG 101800Z AUTO 00000KT 8SM 27/24 A2968 RMK SLP051 T02710242 57007 IEM_DS3505
ZGGG,2002-09-10 19:00,ZGGG 101900Z AUTO 07004KT 4SM 27/24 A2968 RMK T02700240 IEM_DS3505
ZGGG,2002-09-10 20:00,ZGGG 102000Z AUTO 04006KT 7SM 27/23 A2965 RMK T02700230 IEM_DS3505
ZGGG,2002-09-10 21:00,ZGGG 102100Z AUTO 04004KT 8SM 27/23 A2965 RMK 70034 SLP043 T02720230 57008 IEM_DS3505
ZGGG,2002-09-10 22:00,ZGGG 102200Z AUTO 05006KT 6SM 27/22 A2965 RMK T02700220 IEM_DS3505
ZGGG,2002-09-10 23:00,ZGGG 102300Z AUTO 04008KT 7SM 27/22 A2968 RMK T02700220 IEM_DS3505
ZGGG,2002-09-11 00:00,ZGGG 110000Z AUTO 04006KT 13SM 29/22 A2968 RMK 70034 SLP051 T02900223 52008 IEM_DS3505
ZGGG,2002-09-11 01:00,ZGGG 110100Z AUTO 05012KT 7SM 29/23 A2971 RMK T02900230 IEM_DS3505
ZGGG,2002-09-11 02:00,ZGGG 110200Z AUTO 06014KT 7SM 30/22 A2971 RMK T03000220 IEM_DS3505
ZGGG,2002-09-11 03:00,ZGGG 110300Z AUTO 04008KT 16SM 30/22 A2971 RMK SLP058 T02960225 52007 IEM_DS3505
ZGGG,2002-09-11 04:00,ZGGG 110400Z AUTO 06016G25KT 7SM 30/21 A2968 RMK T03000210 IEM_DS3505
ZGGG,2002-09-11 05:00,ZGGG 110500Z AUTO 11010G19KT 1 1/4SM 29/23 A2971 RMK T02900230 IEM_DS3505
ZGGG,2002-09-11 06:00,ZGGG 110600Z AUTO 09010KT 5SM 26/24 RMK 60067 SLP053 T02560245 57006 IEM_DS3505
ZGGG,2002-09-11 07:00,ZGGG 110700Z AUTO 07014KT 7SM 25/24 A2965 RMK T02500240 IEM_DS3505
ZGGG,2002-09-11 08:00,ZGGG 110800Z AUTO 09012G21KT 7SM 28/22 A2965 RMK T02800220 IEM_DS3505
ZGGG,2002-09-11 09:00,ZGGG 110900Z AUTO 09006KT 14SM 28/22 A2965 RMK SLP041 T02820220 57011 IEM_DS3505
ZGGG,2002-09-11 10:00,ZGGG 111000Z AUTO 08010KT 7SM 28/21 A2968 RMK T02800210 IEM_DS3505
ZGGG,2002-09-11 11:00,ZGGG 111100Z AUTO 07012KT 7SM 27/20 A2968 RMK T02700200 IEM_DS3505
ZGGG,2002-09-11 12:00,ZGGG 111200Z AUTO 09006KT 10SM 26/21 A2974 RMK 60003 SLP069 T02630214 52027 IEM_DS3505
ZGGG,2002-09-11 13:00,ZGGG 111300Z AUTO 06012KT 7SM 23/23 A2971 RMK T02300230 IEM_DS3505
ZGGG,2002-09-11 14:00,ZGGG 111400Z AUTO 06014KT 7SM 24/23 A2974 RMK T02400230 IEM_DS3505
ZGGG,2002-09-11 15:00,ZGGG 111500Z AUTO 09006KT 9SM 25/22 A2974 RMK SLP073 T02470220 52004 IEM_DS3505
ZGGG,2002-09-11 16:00,ZGGG 111600Z AUTO 06012KT 7SM 25/21 A2974 RMK T02500210 IEM_DS3505
ZGGG,2002-09-11 18:00,ZGGG 111800Z AUTO 09004KT 8SM 25/23 A2971 RMK 60016 SLP057 T02490230 57016 IEM_DS3505
ZGGG,2002-09-11 19:00,ZGGG 111900Z AUTO 06008KT 7SM 24/23 A2971 RMK T02400230 IEM_DS3505
ZGGG,2002-09-11 20:00,ZGGG 112000Z AUTO 08012KT 7SM 26/23 A2971 RMK T02600230 IEM_DS3505
ZGGG,2002-09-11 21:00,ZGGG 112100Z AUTO 09004G23KT 7SM 25/24 A2971 RMK 70085 SLP063 T02540235 52006 IEM_DS3505
ZGGG,2002-09-11 22:00,ZGGG 112200Z AUTO 08014KT 7SM 26/23 A2971 RMK T02600230 IEM_DS3505
ZGGG,2002-09-11 23:00,ZGGG 112300Z AUTO 09012KT 5SM 25/23 A2974 RMK T02500230 IEM_DS3505
ZGGG,2002-09-12 00:00,ZGGG 120000Z AUTO 09008KT 11SM 25/24 A2977 RMK 60012 70094 SLP079 T02510238 52016 IEM_DS3505
ZGGG,2002-09-12 01:00,ZGGG 120100Z AUTO 10006KT 3SM 23/23 A2980 RMK T02300230 IEM_DS3505
ZGGG,2002-09-12 02:00,ZGGG 120200Z AUTO 14006KT 3SM 24/24 A2980 RMK T02400240 IEM_DS3505
ZGGG,2002-09-12 02:30,ZGGG 120230Z AUTO 10008KT 2 1/2SM 24/24 A2980 RMK T02400240 IEM_DS3505
ZGGG,2002-09-12 03:00,ZGGG 120300Z AUTO 22004KT 2 1/2SM 25/24 A2983 RMK SLP095 T02530243 52016 IEM_DS3505
ZGGG,2002-09-12 05:30,ZGGG 120530Z AUTO 13008KT 5SM 23/23 A2980 RMK T02300230 IEM_DS3505
ZGGG,2002-09-12 06:00,ZGGG 120600Z AUTO 11004KT 9SM 24/23 A2977 RMK 60299 SLP085 T02410228 57010 IEM_DS3505
ZGGG,2002-09-12 07:00,ZGGG 120700Z AUTO 09006KT 5SM 25/22 A2977 RMK T02500220 IEM_DS3505
ZGGG,2002-09-12 08:00,ZGGG 120800Z AUTO 10008KT 7SM 26/21 A2977 RMK T02600210 IEM_DS3505
ZGGG,2002-09-12 09:00,ZGGG 120900Z AUTO 14006KT 11SM 26/21 A2977 RMK SLP084 T02560211 57001 IEM_DS3505
ZGGG,2002-09-12 10:00,ZGGG 121000Z AUTO 08008KT 6SM 26/21 A2977 RMK T02600210 IEM_DS3505
ZGGG,2002-09-12 11:00,ZGGG 121100Z AUTO 09008KT 6SM 25/22 A2980 RMK T02500220 IEM_DS3505
ZGGG,2002-09-12 12:00,ZGGG 121200Z AUTO 09006KT 9SM 25/23 A2980 RMK SLP096 T02480226 52012 IEM_DS3505
ZGGG,2002-09-12 13:00,ZGGG 121300Z AUTO 09008KT 6SM 25/22 A2983 RMK T02500220 IEM_DS3505
ZGGG,2002-09-12 14:00,ZGGG 121400Z AUTO 11004KT 6SM 25/21 A2985 RMK T02500210 IEM_DS3505
ZGGG,2002-09-12 15:00,ZGGG 121500Z AUTO 09004KT 12SM 24/21 A2985 RMK SLP107 T02440212 52011 IEM_DS3505
ZGGG,2002-09-12 16:00,ZGGG 121600Z AUTO 12002KT 6SM 25/21 A2985 RMK T02500210 IEM_DS3505
ZGGG,2002-09-12 17:00,ZGGG 121700Z AUTO 10004KT 6SM 25/21 A2983 RMK T02500210 IEM_DS3505
ZGGG,2002-09-12 18:00,ZGGG 121800Z AUTO 09002KT 12SM 24/22 A2983 RMK SLP099 T02420220 57008 IEM_DS3505
ZGGG,2002-09-12 19:00,ZGGG 121900Z AUTO 11006KT 6SM 25/22 A2980 RMK T02500220 IEM_DS3505
ZGGG,2002-09-12 20:00,ZGGG 122000Z AUTO 11006KT 7SM 25/22 A2980 RMK T02500220 IEM_DS3505
ZGGG,2002-09-12 21:00,ZGGG 122100Z AUTO 11002KT 11SM 25/22 A2980 RMK 70308 SLP095 T02460221 57004 IEM_DS3505
ZGGG,2002-09-12 22:00,ZGGG 122200Z AUTO 11004KT 7SM 25/22 A2980 RMK T02500220 IEM_DS3505
ZGGG,2002-09-12 23:00,ZGGG 122300Z AUTO 11004KT 7SM 25/21 A2983 RMK T02500210 IEM_DS3505
ZGGG,2002-09-13 00:00,ZGGG 130000Z AUTO 07002KT 14SM 25/23 A2983 RMK 70300 SLP105 T02510226 52010 IEM_DS3505
ZGGG,2002-09-13 01:00,ZGGG 130100Z AUTO 11006KT 7SM 27/22 A2985 RMK T02700220 IEM_DS3505
ZGGG,2002-09-13 02:00,ZGGG 130200Z AUTO 13008KT 7SM 28/22 A2985 RMK T02800220 IEM_DS3505
ZGGG,2002-09-13 03:00,ZGGG 130300Z AUTO 09006KT 11SM 28/23 RMK SLP107 T02830228 52002 IEM_DS3505
ZGGG,2002-09-13 04:00,ZGGG 130400Z AUTO 11006KT 7SM 28/22 A2983 RMK T02800220 IEM_DS3505
ZGGG,2002-09-13 05:00,ZGGG 130500Z AUTO 06006G21KT 2SM 27/23 A2980 RMK T02700230 IEM_DS3505
ZGGG,2002-09-13 06:00,ZGGG 130600Z AUTO 00000KT 10SM 24/23 A2980 RMK 60079 SLP093 T02450232 57014 IEM_DS3505
ZGGG,2002-09-13 07:00,ZGGG 130700Z AUTO 13004KT 7SM 24/24 A2977 RMK T02400240 IEM_DS3505
ZGGG,2002-09-13 08:00,ZGGG 130800Z AUTO 14004KT 7SM 25/24 A2977 RMK T02500240 IEM_DS3505
ZGGG,2002-09-13 09:00,ZGGG 130900Z AUTO 00000KT 8SM 26/24 A2977 RMK SLP079 T02550241 57014 IEM_DS3505
ZGGG,2002-09-13 10:00,ZGGG 131000Z AUTO 15004KT 4SM 27/23 A2977 RMK T02700230 IEM_DS3505
ZGGG,2002-09-13 11:00,ZGGG 131100Z AUTO 15004KT 4SM 26/23 A2977 RMK T02600230 IEM_DS3505
ZGGG,2002-09-13 12:00,ZGGG 131200Z AUTO 00000KT 8SM 25/24 A2980 RMK SLP090 T02480236 52011 IEM_DS3505
ZGGG,2002-09-13 13:00,ZGGG 131300Z AUTO 00000KT 4SM 26/24 A2980 RMK T02600240 IEM_DS3505
ZGGG,2002-09-13 14:00,ZGGG 131400Z AUTO 06004KT 3SM 25/24 A2983 RMK T02500240 IEM_DS3505
ZGGG,2002-09-13 15:00,ZGGG 131500Z AUTO 00000KT 9SM 25/24 A2980 RMK SLP092 T02490239 52002 IEM_DS3505
ZGGG,2002-09-13 16:00,ZGGG 131600Z AUTO 04004KT 4SM 25/24 A2980 RMK T02500240 IEM_DS3505
ZGGG,2002-09-13 17:00,ZGGG 131700Z AUTO 00000KT 3SM 25/24 A2980 RMK T02500240 IEM_DS3505
ZGGG,2002-09-13 18:00,ZGGG 131800Z AUTO 00000KT 7SM 24/24 A2977 RMK SLP084 T02420235 57008 IEM_DS3505
ZGGG,2002-09-13 19:00,ZGGG 131900Z AUTO 05006KT 2 1/2SM 24/24 A2977 RMK T02400240 IEM_DS3505
ZGGG,2002-09-13 20:00,ZGGG 132000Z AUTO 36002KT 3SM 25/24 A2977 RMK T02500240 IEM_DS3505
ZGGG,2002-09-13 21:00,ZGGG 132100Z AUTO 00000KT 7SM 24/24 A2977 RMK 70078 SLP081 T02430236 57003 IEM_DS3505
ZGGG,2002-09-13 22:00,ZGGG 132200Z AUTO 15004KT 2SM 24/24 A2977 RMK T02400240 IEM_DS3505
ZGGG,2002-09-13 23:00,ZGGG 132300Z AUTO 12002KT 2 1/2SM 24/24 A2977 RMK T02400240 IEM_DS3505
ZGGG,2002-09-14 00:00,ZGGG 140000Z AUTO 09002KT 6SM 24/24 A2980 RMK 60020 70098 SLP090 T02430239 52009 IEM_DS3505
ZGGG,2002-09-14 01:00,ZGGG 140100Z AUTO 12008KT 2 1/2SM 26/24 A2980 RMK T02600240 IEM_DS3505
ZGGG,2002-09-14 02:00,ZGGG 140200Z AUTO 11006KT 2 1/2SM 26/24 A2980 RMK T02600240 IEM_DS3505
ZGGG,2002-09-14 03:00,ZGGG 140300Z AUTO 14004KT 4SM 26/25 A2980 RMK SLP092 T02630247 52002 IEM_DS3505
ZGGG,2002-09-14 04:00,ZGGG 140400Z AUTO 11006KT 4SM 28/23 A2977 RMK T02800230 IEM_DS3505
ZGGG,2002-09-14 05:00,ZGGG 140500Z AUTO 13006KT 4SM 29/24 A2974 RMK T02900240 IEM_DS3505
ZGGG,2002-09-14 06:00,ZGGG 140600Z AUTO 14004KT 8SM 26/24 A2974 RMK SLP071 T02640240 57021 IEM_DS3505
ZGGG,2002-09-14 07:00,ZGGG 140700Z AUTO 14006KT 7SM 28/24 A2971 RMK T02800240 IEM_DS3505
ZGGG,2002-09-14 08:00,ZGGG 140800Z AUTO 13008KT 7SM 28/24 A2968 RMK T02800240 IEM_DS3505
ZGGG,2002-09-14 09:00,ZGGG 140900Z AUTO 18004KT 9SM 28/24 A2971 RMK SLP061 T02800243 57010 IEM_DS3505
ZGGG,2002-09-14 10:00,ZGGG 141000Z AUTO 14006KT 3SM 27/24 A2971 RMK T02700240 IEM_DS3505
ZGGG,2002-09-14 11:00,ZGGG 141100Z AUTO 16006KT 4SM 27/24 A2971 RMK T02700240 IEM_DS3505
ZGGG,2002-09-14 12:00,ZGGG 141200Z AUTO 18006KT 9SM 27/24 A2974 RMK SLP071 T02680242 52010 IEM_DS3505
ZGGG,2002-09-14 13:00,ZGGG 141300Z AUTO 16006KT 7SM 27/24 A2977 RMK T02700240 IEM_DS3505
ZGGG,2002-09-14 14:00,ZGGG 141400Z AUTO 00000KT 7SM 27/24 A2977 RMK T02700240 IEM_DS3505
ZGGG,2002-09-14 15:00,ZGGG 141500Z AUTO 00000KT 8SM 26/25 A2977 RMK SLP078 T02600246 52007 IEM_DS3505
ZGGG,2002-09-14 16:00,ZGGG 141600Z AUTO 08004KT 7SM 26/23 A2977 RMK T02600230 IEM_DS3505
ZGGG,2002-09-14 17:00,ZGGG 141700Z AUTO 09006KT 4SM 26/24 A2974 RMK T02600240 IEM_DS3505
ZGGG,2002-09-14 18:00,ZGGG 141800Z AUTO 09004KT 6SM 25/24 A2974 RMK SLP069 T02540240 57009 IEM_DS3505
ZGGG,2002-09-14 19:00,ZGGG 141900Z AUTO 04004KT 7SM 26/24 A2971 RMK T02600240 IEM_DS3505
ZGGG,2002-09-14 20:00,ZGGG 142000Z AUTO 02006KT 7SM 26/24 A2971 RMK T02600240 IEM_DS3505
ZGGG,2002-09-14 21:00,ZGGG 142100Z AUTO 04004KT 6SM 25/24 A2971 RMK 70021 SLP058 T02520238 57011 IEM_DS3505
ZGGG,2002-09-14 22:00,ZGGG 142200Z AUTO 03004KT 2 1/2SM 25/24 A2971 RMK T02500240 IEM_DS3505
ZGGG,2002-09-14 23:00,ZGGG 142300Z AUTO 05008KT 5SM 24/24 A2971 RMK T02400240 IEM_DS3505
ZGGG,2002-09-15 00:00,ZGGG 150000Z AUTO 09004KT 7SM 25/24 A2974 RMK 60012 70011 SLP071 T02490239 52013 IEM_DS3505
ZGGG,2002-09-15 01:00,ZGGG 150100Z AUTO 04008KT 3SM 24/24 A2974 RMK T02400240 IEM_DS3505
ZGGG,2002-09-15 02:00,ZGGG 150200Z AUTO 02008KT 2 1/2SM 24/24 A2977 RMK T02400240 IEM_DS3505
ZGGG,2002-09-15 03:00,ZGGG 150300Z AUTO 07004KT 9SM 26/24 A2974 RMK SLP076 T02600241 52005 IEM_DS3505
ZGGG,2002-09-15 05:00,ZGGG 150500Z AUTO 03010KT 3SM 25/24 A2971 RMK T02500240 IEM_DS3505
ZGGG,2002-09-15 06:00,ZGGG 150600Z AUTO 09004KT 11SM 27/24 A2971 RMK 60001 SLP058 T02660245 57018 IEM_DS3505
ZGGG,2002-09-15 07:00,ZGGG 150700Z AUTO 03010KT 2SM 24/23 A2968 RMK T02400230 IEM_DS3505
ZGGG,2002-09-15 08:00,ZGGG 150800Z AUTO 01008KT 3SM 24/23 A2968 RMK T02400230 IEM_DS3505
ZGGG,2002-09-15 09:00,ZGGG 150900Z AUTO 36006KT 9SM 24/23 A2968 RMK SLP052 T02450232 57006 IEM_DS3505
ZGGG,2002-09-15 10:00,ZGGG 151000Z AUTO 03010KT 2 1/2SM 23/23 A2971 RMK T02300230 IEM_DS3505
ZGGG,2002-09-15 11:00,ZGGG 151100Z AUTO 04012KT 3SM 22/22 A2971 RMK T02200220 IEM_DS3505
ZGGG,2002-09-15 12:00,ZGGG 151200Z AUTO 36004KT 9SM 23/22 A2971 RMK 60035 SLP062 T02310221 52010 IEM_DS3505
ZGGG,2002-09-15 13:00,ZGGG 151300Z AUTO 03014KT 7SM 22/22 A2974 RMK T02200220 IEM_DS3505
ZGGG,2002-09-15 14:00,ZGGG 151400Z AUTO 03014KT 7SM 22/22 A2974 RMK T02200220 IEM_DS3505
ZGGG,2002-09-15 15:00,ZGGG 151500Z AUTO 36004KT 10SM 23/21 A2977 RMK SLP075 T02290211 52013 IEM_DS3505
ZGGG,2002-09-15 16:00,ZGGG 151600Z AUTO 02012KT 7SM 22/22 A2974 RMK T02200220 IEM_DS3505
ZGGG,2002-09-15 17:00,ZGGG 151700Z AUTO 03012KT 4SM 21/21 A2974 RMK T02100210 IEM_DS3505
ZGGG,2002-09-15 18:00,ZGGG 151800Z AUTO 02004KT 8SM 22/21 A2974 RMK 60016 SLP064 T02220211 57011 IEM_DS3505
ZGGG,2002-09-15 19:00,ZGGG 151900Z AUTO 03014KT 7SM 21/21 A2971 RMK T02100210 IEM_DS3505
ZGGG,2002-09-15 20:00,ZGGG 152000Z AUTO 03014KT 3SM 21/21 A2971 RMK T02100210 IEM_DS3505
ZGGG,2002-09-15 21:00,ZGGG 152100Z AUTO 36006KT 6SM 22/20 A2971 RMK 70076 SLP061 T02160204 57003 IEM_DS3505
ZGGG,2002-09-15 22:00,ZGGG 152200Z AUTO 03014KT 7SM 20/20 A2974 RMK T02000200 IEM_DS3505
ZGGG,2002-09-15 23:00,ZGGG 152300Z AUTO 03012KT 7SM 21/21 A2977 RMK T02100210 IEM_DS3505
ZGGG,2002-09-16 00:00,ZGGG 160000Z AUTO 02004KT 12SM 22/20 A2977 RMK 60020 70068 SLP082 T02200202 52021 IEM_DS3505
ZGGG,2002-09-16 01:00,ZGGG 160100Z AUTO 03014KT 7SM 22/20 A2980 RMK T02200200 IEM_DS3505
ZGGG,2002-09-16 02:00,ZGGG 160200Z AUTO 02012KT 7SM 23/20 A2980 RMK T02300200 IEM_DS3505
ZGGG,2002-09-16 03:00,ZGGG 160300Z AUTO 02006KT 11SM 25/21 A2980 RMK SLP087 T02460210 52005 IEM_DS3505
ZGGG,2002-09-16 04:00,ZGGG 160400Z AUTO 03008KT 4SM 23/21 A2980 RMK T02300210 IEM_DS3505
ZGGG,2002-09-16 05:00,ZGGG 160500Z AUTO 03014KT 5SM 23/21 A2977 RMK T02300210 IEM_DS3505
ZGGG,2002-09-16 06:00,ZGGG 160600Z AUTO 34004KT 7SM 23/21 A2977 RMK 60004 SLP075 T02300212 57012 IEM_DS3505
ZGGG,2002-09-16 07:00,ZGGG 160700Z AUTO 01010KT 4SM 23/21 A2974 RMK T02300210 IEM_DS3505
ZGGG,2002-09-16 08:00,ZGGG 160800Z AUTO 02012KT 7SM 24/21 A2974 RMK T02400210 IEM_DS3505
ZGGG,2002-09-16 09:00,ZGGG 160900Z AUTO 04004KT 7SM 24/21 A2974 RMK SLP072 T02420214 57003 IEM_DS3505
ZGGG,2002-09-16 10:00,ZGGG 161000Z AUTO 02010KT 7SM 24/19 A2977 RMK T02400190 IEM_DS3505
ZGGG,2002-09-16 11:00,ZGGG 161100Z AUTO 02010KT 7SM 23/19 A2977 RMK T02300190 IEM_DS3505
ZGGG,2002-09-16 12:00,ZGGG 161200Z AUTO 02004KT 10SM 23/20 A2977 RMK 60004 SLP083 T02300201 52011 IEM_DS3505
ZGGG,2002-09-16 13:00,ZGGG 161300Z AUTO 01008KT 7SM 23/19 A2980 RMK T02300190 IEM_DS3505
ZGGG,2002-09-16 14:00,ZGGG 161400Z AUTO 03010KT 7SM 23/19 A2983 RMK T02300190 IEM_DS3505
ZGGG,2002-09-16 15:00,ZGGG 161500Z AUTO 02004KT 9SM 23/20 A2983 RMK SLP096 T02300196 52013 IEM_DS3505
ZGGG,2002-09-16 16:00,ZGGG 161600Z AUTO 02008KT 7SM 23/19 A2983 RMK T02300190 IEM_DS3505
ZGGG,2002-09-16 17:00,ZGGG 161700Z AUTO 02008KT 7SM 23/19 A2980 RMK T02300190 IEM_DS3505
ZGGG,2002-09-16 18:00,ZGGG 161800Z AUTO 02004KT 9SM 23/19 A2980 RMK SLP086 T02280194 57010 IEM_DS3505
ZGGG,2002-09-16 19:00,ZGGG 161900Z AUTO 02008KT 5SM 22/19 A2977 RMK T02200190 IEM_DS3505
ZGGG,2002-09-16 20:00,ZGGG 162000Z AUTO 01008KT 5SM 22/19 A2977 RMK T02200190 IEM_DS3505
ZGGG,2002-09-16 21:00,ZGGG 162100Z AUTO 34002KT 7SM 21/20 A2977 RMK 70022 SLP082 T02140199 57004 IEM_DS3505
ZGGG,2002-09-16 22:00,ZGGG 162200Z AUTO 01006KT 5SM 21/19 A2980 RMK T02100190 IEM_DS3505
ZGGG,2002-09-16 23:00,ZGGG 162300Z AUTO 01008KT 4SM 21/19 A2983 RMK T02100190 IEM_DS3505
ZGGG,2002-09-17 00:00,ZGGG 170000Z AUTO 00000KT 8SM 22/20 A2983 RMK 60012 70022 SLP100 T02170202 52017 IEM_DS3505
ZGGG,2002-09-17 01:00,ZGGG 170100Z AUTO 02008KT 4SM 22/19 A2985 RMK T02200190 IEM_DS3505
ZGGG,2002-09-17 02:00,ZGGG 170200Z AUTO 02008KT 4SM 23/20 A2985 RMK T02300200 IEM_DS3505
ZGGG,2002-09-17 03:00,ZGGG 170300Z AUTO 36004KT 9SM 24/22 A2983 RMK SLP102 T02400216 52003 IEM_DS3505
ZGGG,2002-09-17 04:00,ZGGG 170400Z AUTO 01006KT 4SM 24/21 A2983 RMK T02400210 IEM_DS3505
ZGGG,2002-09-17 05:00,ZGGG 170500Z AUTO 36004KT 3SM 24/21 A2983 RMK T02400210 IEM_DS3505
ZGGG,2002-09-17 06:00,ZGGG 170600Z AUTO 00000KT 6SM 24/22 A2980 RMK 60008 SLP091 T02400222 57011 IEM_DS3505
ZGGG,2002-09-17 07:00,ZGGG 170700Z AUTO 01006KT 4SM 24/22 A2980 RMK T02400220 IEM_DS3505
ZGGG,2002-09-17 08:00,ZGGG 170800Z AUTO 02010KT 4SM 24/22 A2980 RMK T02400220 IEM_DS3505
ZGGG,2002-09-17 09:00,ZGGG 170900Z AUTO 04004KT 9SM 24/22 A2983 RMK SLP098 T02370221 52006 IEM_DS3505
ZGGG,2002-09-17 10:00,ZGGG 171000Z AUTO 04004KT 2 1/2SM 23/22 A2983 RMK T02300220 IEM_DS3505
ZGGG,2002-09-17 11:00,ZGGG 171100Z AUTO 01006KT 3SM 23/22 A2985 RMK T02300220 IEM_DS3505
ZGGG,2002-09-17 12:00,ZGGG 171200Z AUTO 04002KT 7SM 23/22 A2988 RMK 60016 SLP117 T02320223 52019 IEM_DS3505
ZGGG,2002-09-17 13:00,ZGGG 171300Z AUTO 01006KT 4SM 23/22 A2988 RMK T02300220 IEM_DS3505
ZGGG,2002-09-17 14:00,ZGGG 171400Z AUTO 04006KT 5SM 23/22 A2991 RMK T02300220 IEM_DS3505
ZGGG,2002-09-17 15:00,ZGGG 171500Z AUTO 00000KT 9SM 23/22 A2991 RMK SLP132 T02300223 52015 IEM_DS3505
ZGGG,2002-09-17 16:00,ZGGG 171600Z AUTO 01004KT 4SM 23/22 A2991 RMK T02300220 IEM_DS3505
ZGGG,2002-09-17 17:00,ZGGG 171700Z AUTO 36006KT 4SM 23/22 A2991 RMK T02300220 IEM_DS3505
ZGGG,2002-09-17 18:00,ZGGG 171800Z AUTO 00000KT 7SM 23/22 A2991 RMK 60012 SLP125 T02280222 57007 IEM_DS3505
ZGGG,2002-09-17 19:00,ZGGG 171900Z AUTO 01006KT 4SM 23/22 A2988 RMK T02300220 IEM_DS3505
ZGGG,2002-09-17 20:00,ZGGG 172000Z AUTO 01006KT 4SM 23/22 A2988 RMK T02300220 IEM_DS3505
ZGGG,2002-09-17 21:00,ZGGG 172100Z AUTO 00000KT 7SM 22/22 A2988 RMK 70033 SLP120 T02240216 57005 IEM_DS3505
ZGGG,2002-09-17 22:00,ZGGG 172200Z AUTO 36004KT 7SM 23/21 A2991 RMK T02300210 IEM_DS3505
ZGGG,2002-09-17 23:00,ZGGG 172300Z AUTO 01006KT 6SM 23/21 A2991 RMK T02300210 IEM_DS3505
ZGGG,2002-09-18 00:00,ZGGG 180000Z AUTO 34004KT 11SM 24/22 A2994 RMK 70032 SLP140 T02360218 52020 IEM_DS3505
ZGGG,2002-09-18 02:00,ZGGG 180200Z AUTO 02006KT 7SM 26/22 A2997 RMK T02600220 IEM_DS3505
ZGGG,2002-09-18 03:00,ZGGG 180300Z AUTO 36004KT 16SM 28/23 A2994 RMK SLP140 T02760226 52001 IEM_DS3505
ZGGG,2002-09-18 04:00,ZGGG 180400Z AUTO 03008KT 7SM 29/22 A2994 RMK T02900220 IEM_DS3505
ZGGG,2002-09-18 05:00,ZGGG 180500Z AUTO 03010KT 7SM 30/22 A2991 RMK T03000220 IEM_DS3505
ZGGG,2002-09-18 06:00,ZGGG 180600Z AUTO 36004KT 17SM 31/24 A2988 RMK SLP117 T03070237 57023 IEM_DS3505
ZGGG,2002-09-18 07:00,ZGGG 180700Z AUTO 03008KT 7SM 31/22 A2988 RMK T03100220 IEM_DS3505
ZGGG,2002-09-18 08:00,ZGGG 180800Z AUTO 03008KT 7SM 32/22 A2985 RMK T03200220 IEM_DS3505
ZGGG,2002-09-18 09:00,ZGGG 180900Z AUTO 36002KT 15SM 31/24 A2985 RMK SLP112 T03090242 57005 IEM_DS3505
ZGGG,2002-09-18 10:00,ZGGG 181000Z AUTO 02008KT 7SM 31/22 A2988 RMK T03100220 IEM_DS3505
ZGGG,2002-09-18 11:00,ZGGG 181100Z AUTO 05006KT 7SM 28/22 A2991 RMK T02800220 IEM_DS3505
ZGGG,2002-09-18 12:00,ZGGG 181200Z AUTO 36004KT 14SM 28/23 A2991 RMK SLP128 T02790228 52016 IEM_DS3505
ZGGG,2002-09-18 13:00,ZGGG 181300Z AUTO 02008KT 6SM 28/22 A2994 RMK T02800220 IEM_DS3505
ZGGG,2002-09-18 14:00,ZGGG 181400Z AUTO 04008KT 6SM 27/23 A2997 RMK T02700230 IEM_DS3505
ZGGG,2002-09-18 15:00,ZGGG 181500Z AUTO 02002KT 12SM 26/22 A2997 RMK SLP145 T02620222 52017 IEM_DS3505
ZGGG,2002-09-18 16:00,ZGGG 181600Z AUTO 04008KT 6SM 26/22 A2997 RMK T02600220 IEM_DS3505
ZGGG,2002-09-18 17:00,ZGGG 181700Z AUTO 04006KT 6SM 25/22 A2994 RMK T02500220 IEM_DS3505
ZGGG,2002-09-18 18:00,ZGGG 181800Z AUTO 00000KT 10SM 25/22 A2994 RMK SLP140 T02480224 57005 IEM_DS3505
ZGGG,2002-09-18 19:00,ZGGG 181900Z AUTO 05006KT 6SM 24/22 A2994 RMK T02400220 IEM_DS3505
ZGGG,2002-09-18 20:00,ZGGG 182000Z AUTO 04006KT 6SM 24/21 A2994 RMK T02400210 IEM_DS3505
ZGGG,2002-09-18 21:00,ZGGG 182100Z AUTO 36002KT 9SM 24/22 A2994 RMK SLP136 T02400219 57004 IEM_DS3505
ZGGG,2002-09-18 22:00,ZGGG 182200Z AUTO 03008KT 6SM 24/21 A2994 RMK T02400210 IEM_DS3505
ZGGG,2002-09-18 23:00,ZGGG 182300Z AUTO 04008KT 6SM 24/21 A2997 RMK T02400210 IEM_DS3505
ZGGG,2002-09-19 00:00,ZGGG 190000Z AUTO 36004KT 12SM 26/22 A2997 RMK SLP146 T02580219 52010 IEM_DS3505
ZGGG,2002-09-19 01:00,ZGGG 190100Z AUTO 03010KT 6SM 28/22 A2997 RMK T02800220 IEM_DS3505
ZGGG,2002-09-19 02:00,ZGGG 190200Z AUTO 03008KT 6SM 28/22 A2997 RMK T02800220 IEM_DS3505
ZGGG,2002-09-19 03:00,ZGGG 190300Z AUTO 04004KT 14SM 30/23 A2997 RMK SLP148 T03010230 52002 IEM_DS3505
ZGGG,2002-09-19 04:00,ZGGG 190400Z AUTO 01006KT 7SM 31/22 A2994 RMK T03100220 IEM_DS3505
ZGGG,2002-09-19 05:00,ZGGG 190500Z AUTO 06006KT 7SM 32/22 A2994 RMK T03200220 IEM_DS3505
ZGGG,2002-09-19 06:00,ZGGG 190600Z AUTO 07004KT 16SM 32/22 A2991 RMK SLP128 T03240219 57020 IEM_DS3505
ZGGG,2002-09-19 07:00,ZGGG 190700Z AUTO 01008KT 7SM 32/23 A2988 RMK T03200230 IEM_DS3505
ZGGG,2002-09-19 08:00,ZGGG 190800Z AUTO 36006KT 7SM 32/22 A2988 RMK T03200220 IEM_DS3505
ZGGG,2002-09-19 09:00,ZGGG 190900Z AUTO 09002KT 16SM 32/22 A2988 RMK SLP118 T03150215 57010 IEM_DS3505
ZGGG,2002-09-19 10:00,ZGGG 191000Z AUTO 36006KT 7SM 31/23 A2988 RMK T03100230 IEM_DS3505
ZGGG,2002-09-19 11:00,ZGGG 191100Z AUTO 01006KT 7SM 30/22 A2988 RMK T03000220 IEM_DS3505
ZGGG,2002-09-19 12:00,ZGGG 191200Z AUTO 02002KT 12SM 29/23 A2991 RMK SLP127 T02940229 52009 IEM_DS3505
ZGGG,2002-09-19 13:00,ZGGG 191300Z AUTO 11004KT 6SM 28/23 A2994 RMK T02800230 IEM_DS3505
ZGGG,2002-09-19 14:00,ZGGG 191400Z AUTO 09002KT 6SM 28/23 A2994 RMK T02800230 IEM_DS3505
ZGGG,2002-09-19 15:00,ZGGG 191500Z AUTO 16002KT 10SM 28/24 A2994 RMK SLP143 T02750241 52016 IEM_DS3505
ZGGG,2002-09-19 16:00,ZGGG 191600Z AUTO 13002KT 4SM 27/23 A2994 RMK T02700230 IEM_DS3505
ZGGG,2002-09-19 17:00,ZGGG 191700Z AUTO 08002KT 3SM 26/23 A2994 RMK T02600230 IEM_DS3505
ZGGG,2002-09-19 18:00,ZGGG 191800Z AUTO 07002KT 7SM 27/24 A2994 RMK SLP137 T02660239 57006 IEM_DS3505
ZGGG,2002-09-19 19:00,ZGGG 191900Z AUTO 07004KT 4SM 26/24 A2994 RMK T02600240 IEM_DS3505
ZGGG,2002-09-19 20:00,ZGGG 192000Z AUTO 00000KT 4SM 27/23 A2991 RMK T02700230 IEM_DS3505
ZGGG,2002-09-19 21:00,ZGGG 192100Z AUTO 00000KT 7SM 26/24 A2991 RMK SLP131 T02580239 57006 IEM_DS3505
ZGGG,2002-09-19 22:00,ZGGG 192200Z AUTO 00000KT 3SM 26/23 A2994 RMK T02600230 IEM_DS3505
ZGGG,2002-09-19 23:00,ZGGG 192300Z AUTO 06004KT 2 1/2SM 25/23 A2994 RMK T02500230 IEM_DS3505
ZGGG,2002-09-20 00:00,ZGGG 200000Z AUTO 00000KT 9SM 28/24 RMK SLP143 T02760236 52012 IEM_DS3505
ZGGG,2002-09-20 01:00,ZGGG 200100Z AUTO 04006KT 6SM 29/23 A2997 RMK T02900230 IEM_DS3505
ZGGG,2002-09-20 02:00,ZGGG 200200Z AUTO 36006KT 7SM 29/22 A2997 RMK T02900220 IEM_DS3505
ZGGG,2002-09-20 03:00,ZGGG 200300Z AUTO 04004KT 11SM 31/23 A2994 RMK SLP144 T03120228 52001 IEM_DS3505
ZGGG,2002-09-20 04:00,ZGGG 200400Z AUTO 04006KT 7SM 31/22 A2994 RMK T03100220 IEM_DS3505
ZGGG,2002-09-20 05:00,ZGGG 200500Z AUTO 09004KT 7SM 31/22 A2991 RMK T03100220 IEM_DS3505
ZGGG,2002-09-20 06:00,ZGGG 200600Z AUTO 14006KT 14SM 32/23 A2988 RMK SLP120 T03200228 57023 IEM_DS3505
ZGGG,2002-09-20 07:00,ZGGG 200700Z AUTO 13006KT 7SM 32/22 A2985 RMK T03200220 IEM_DS3505
ZGGG,2002-09-20 08:00,ZGGG 200800Z AUTO 08004KT 7SM 32/22 A2985 RMK T03200220 IEM_DS3505
ZGGG,2002-09-20 09:00,ZGGG 200900Z AUTO 07002KT 12SM 33/22 A2985 RMK SLP107 T03300221 57013 IEM_DS3505
ZGGG,2002-09-20 10:00,ZGGG 201000Z AUTO 06008KT 7SM 30/22 A2985 RMK T03000220 IEM_DS3505
ZGGG,2002-09-20 11:00,ZGGG 201100Z AUTO 28002KT 7SM 30/22 A2985 RMK T03000220 IEM_DS3505
ZGGG,2002-09-20 12:00,ZGGG 201200Z AUTO 14004KT 11SM 30/24 A2988 RMK SLP120 T03000237 52012 IEM_DS3505
ZGGG,2002-09-20 13:00,ZGGG 201300Z AUTO 06002KT 7SM 29/23 A2991 RMK T02900230 IEM_DS3505
ZGGG,2002-09-20 14:00,ZGGG 201400Z AUTO 13004KT 29/23 A2991 RMK T02900230 IEM_DS3505
ZGGG,2002-09-20 15:00,ZGGG 201500Z AUTO 11002KT 9SM 28/24 A2991 RMK SLP133 T02770243 52013 IEM_DS3505
ZGGG,2002-09-20 16:00,ZGGG 201600Z AUTO 13002KT 3SM 28/23 A2991 RMK T02800230 IEM_DS3505
ZGGG,2002-09-20 17:00,ZGGG 201700Z AUTO 12004KT 3SM 27/23 A2991 RMK T02700230 IEM_DS3505
ZGGG,2002-09-20 18:00,ZGGG 201800Z AUTO 09002KT 7SM 26/24 A2988 RMK SLP126 T02630237 57007 IEM_DS3505
ZGGG,2002-09-20 20:00,ZGGG 202000Z AUTO 16002KT 4SM 27/22 A2988 RMK T02700220 IEM_DS3505
ZGGG,2002-09-20 21:00,ZGGG 202100Z AUTO 04002KT 6SM 26/24 A2988 RMK SLP117 T02580235 57008 IEM_DS3505
ZGGG,2002-09-20 22:00,ZGGG 202200Z AUTO 05002KT 4SM 25/23 A2988 RMK T02500230 IEM_DS3505
ZGGG,2002-09-20 23:00,ZGGG 202300Z AUTO 07004KT 2SM 26/23 A2991 RMK T02600230 IEM_DS3505
ZGGG,2002-09-21 00:00,ZGGG 210000Z AUTO 00000KT 4SM 27/24 A2991 RMK SLP132 T02680239 52014 IEM_DS3505
ZGGG,2002-09-21 01:00,ZGGG 210100Z AUTO 04006KT 3SM 28/22 A2991 RMK T02800220 IEM_DS3505
ZGGG,2002-09-21 02:00,ZGGG 210200Z AUTO 04006KT 30/23 A2994 RMK T03000230 IEM_DS3505
ZGGG,2002-09-21 03:00,ZGGG 210300Z AUTO 36004KT 8SM 31/23 A2991 RMK SLP135 T03060233 52003 IEM_DS3505
ZGGG,2002-09-21 04:00,ZGGG 210400Z AUTO 08004KT 31/23 A2991 RMK T03100230 IEM_DS3505
ZGGG,2002-09-21 05:00,ZGGG 210500Z AUTO 04006KT 32/22 A2988 RMK T03200220 IEM_DS3505
ZGGG,2002-09-21 06:00,ZGGG 210600Z AUTO 07002KT 8SM 32/23 A2985 RMK SLP109 T03170231 57025 IEM_DS3505
ZGGG,2002-09-21 07:00,ZGGG 210700Z AUTO 07006KT 5SM 32/22 A2983 RMK T03200220 IEM_DS3505
ZGGG,2002-09-21 08:00,ZGGG 210800Z AUTO 06008KT 32/23 A2983 RMK T03200230 IEM_DS3505
ZGGG,2002-09-21 09:00,ZGGG 210900Z AUTO 04002KT 9SM 32/23 A2980 RMK SLP097 T03180230 57012 IEM_DS3505
ZGGG,2002-09-21 10:00,ZGGG 211000Z AUTO 08002KT 6SM 31/22 A2983 RMK T03100220 IEM_DS3505
ZGGG,2002-09-21 11:00,ZGGG 211100Z AUTO 07004KT 5SM 30/23 A2983 RMK T03000230 IEM_DS3505
ZGGG,2002-09-21 12:00,ZGGG 211200Z AUTO 04002KT 11SM 30/24 A2985 RMK SLP112 T02970235 52014 IEM_DS3505
ZGGG,2002-09-21 13:00,ZGGG 211300Z AUTO 07004KT 5SM 29/22 A2988 RMK T02900220 IEM_DS3505
ZGGG,2002-09-21 14:00,ZGGG 211400Z AUTO 05006KT 6SM 29/22 A2991 RMK T02900220 IEM_DS3505
ZGGG,2002-09-21 15:00,ZGGG 211500Z AUTO 00000KT 9SM 28/25 A2991 RMK SLP130 T02810248 52018 IEM_DS3505
ZGGG,2002-09-21 16:00,ZGGG 211600Z AUTO 13004KT 2SM 27/24 A2991 RMK T02700240 IEM_DS3505
ZGGG,2002-09-21 17:00,ZGGG 211700Z AUTO 13004KT 2 1/2SM 27/24 A2991 RMK T02700240 IEM_DS3505
ZGGG,2002-09-21 18:00,ZGGG 211800Z AUTO 00000KT 9SM 27/24 A2988 RMK SLP123 T02680244 57007 IEM_DS3505
ZGGG,2002-09-21 19:00,ZGGG 211900Z AUTO 06002KT 3SM 26/24 A2988 RMK T02600240 IEM_DS3505
ZGGG,2002-09-21 20:00,ZGGG 212000Z AUTO 05004KT 3SM 26/24 A2988 RMK T02600240 IEM_DS3505
ZGGG,2002-09-21 21:00,ZGGG 212100Z AUTO 07004KT 7SM 26/24 A2991 RMK SLP124 T02610241 52001 IEM_DS3505
ZGGG,2002-09-21 22:00,ZGGG 212200Z AUTO 04008KT 4SM 25/20 A2991 RMK T02500200 IEM_DS3505
ZGGG,2002-09-21 23:00,ZGGG 212300Z AUTO 04008KT 26/20 A2991 RMK T02600200 IEM_DS3505
ZGGG,2002-09-22 00:00,ZGGG 220000Z AUTO 04004KT 9SM 27/20 A2994 RMK SLP141 T02660196 52017 IEM_DS3505
ZGGG,2002-09-22 01:00,ZGGG 220100Z AUTO 05012KT 27/19 A2997 RMK T02700190 IEM_DS3505
ZGGG,2002-09-22 02:00,ZGGG 220200Z AUTO 05012KT 28/19 A2997 RMK T02800190 IEM_DS3505
ZGGG,2002-09-22 03:00,ZGGG 220300Z AUTO 04006KT 9SM 30/19 A2997 RMK SLP143 T02980191 52002 IEM_DS3505
ZGGG,2002-09-22 04:00,ZGGG 220400Z AUTO 06010KT 6SM 30/17 A2994 RMK T03000170 IEM_DS3505
ZGGG,2002-09-22 05:00,ZGGG 220500Z AUTO 08006KT 6SM 30/18 A2991 RMK T03000180 IEM_DS3505
ZGGG,2002-09-22 06:00,ZGGG 220600Z AUTO 04006KT 11SM 31/19 A2991 RMK SLP124 T03100188 57019 IEM_DS3505
ZGGG,2002-09-22 07:00,ZGGG 220700Z AUTO 03008KT 6SM 31/16 A2988 RMK T03100160 IEM_DS3505
ZGGG,2002-09-22 08:00,ZGGG 220800Z AUTO 06008KT 6SM 31/17 A2988 RMK T03100170 IEM_DS3505
ZGGG,2002-09-22 09:00,ZGGG 220900Z AUTO 07002KT 9SM 30/21 A2988 RMK SLP117 T03020207 57007 IEM_DS3505
ZGGG,2002-09-22 10:00,ZGGG 221000Z AUTO 08004KT 6SM 29/17 A2988 RMK T02900170 IEM_DS3505
ZGGG,2002-09-22 11:00,ZGGG 221100Z AUTO 01006KT 6SM 29/18 A2988 RMK T02900180 IEM_DS3505
ZGGG,2002-09-22 12:00,ZGGG 221200Z AUTO 04002KT 8SM 28/20 A2991 RMK SLP131 T02810204 52014 IEM_DS3505
ZGGG,2002-09-22 13:00,ZGGG 221300Z AUTO 01008KT 6SM 28/19 A2994 RMK T02800190 IEM_DS3505
ZGGG,2002-09-22 14:00,ZGGG 221400Z AUTO 02010KT 27/19 A2997 RMK T02700190 IEM_DS3505
ZGGG,2002-09-22 15:00,ZGGG 221500Z AUTO 36006KT 9SM 27/18 A2997 RMK SLP145 T02690182 52014 IEM_DS3505
ZGGG,2002-09-22 16:00,ZGGG 221600Z AUTO 03010KT 6SM 26/18 A2997 RMK T02600180 IEM_DS3505
ZGGG,2002-09-22 17:00,ZGGG 221700Z AUTO 02010KT 6SM 26/18 A2997 RMK T02600180 IEM_DS3505
ZGGG,2002-09-22 18:00,ZGGG 221800Z AUTO 36004KT 7SM 25/18 A2997 RMK SLP144 T02460176 57001 IEM_DS3505
ZGGG,2002-09-22 19:00,ZGGG 221900Z AUTO 03010KT 6SM 24/17 A2994 RMK T02400170 IEM_DS3505
ZGGG,2002-09-22 20:00,ZGGG 222000Z AUTO 04012KT 23/17 A2994 RMK T02300170 IEM_DS3505
ZGGG,2002-09-22 21:00,ZGGG 222100Z AUTO 36004KT 8SM 24/17 A2994 RMK SLP143 T02360170 57001 IEM_DS3505
ZGGG,2002-09-22 22:00,ZGGG 222200Z AUTO 02008KT 3SM 23/16 A2997 RMK T02300160 IEM_DS3505
ZGGG,2002-09-22 23:00,ZGGG 222300Z AUTO 04012KT 23/16 A2997 RMK T02300160 IEM_DS3505
ZGGG,2002-09-23 00:00,ZGGG 230000Z AUTO 04004KT 9SM 23/17 A3000 RMK SLP160 T02330170 52017 IEM_DS3505
ZGGG,2002-09-23 01:00,ZGGG 230100Z AUTO 01010KT 24/16 A3003 RMK T02400160 IEM_DS3505
ZGGG,2002-09-23 02:00,ZGGG 230200Z AUTO 02010KT 24/16 A3003 RMK T02400160 IEM_DS3505
ZGGG,2002-09-23 03:00,ZGGG 230300Z AUTO 11004KT 8SM 26/18 A3003 RMK SLP165 T02620184 52005 IEM_DS3505
ZGGG,2002-09-23 04:00,ZGGG 230400Z AUTO 01006KT 27/17 A3000 RMK T02700170 IEM_DS3505
ZGGG,2002-09-23 05:00,ZGGG 230500Z AUTO 36006KT 27/17 A2997 RMK T02700170 IEM_DS3505
ZGGG,2002-09-23 06:00,ZGGG 230600Z AUTO 11004KT 7SM 29/19 A2994 RMK SLP138 T02920191 57027 IEM_DS3505
ZGGG,2002-09-23 07:00,ZGGG 230700Z AUTO 04006KT 29/18 A2991 RMK T02900180 IEM_DS3505
ZGGG,2002-09-23 08:00,ZGGG 230800Z AUTO 06006KT 28/18 A2991 RMK T02800180 IEM_DS3505
ZGGG,2002-09-23 09:00,ZGGG 230900Z AUTO 34002KT 9SM 29/20 A2991 RMK SLP135 T02860198 57003 IEM_DS3505
ZGGG,2002-09-23 10:00,ZGGG 231000Z AUTO 06006KT 27/18 A2994 RMK T02700180 IEM_DS3505
ZGGG,2002-09-23 11:00,ZGGG 231100Z AUTO 08004KT 5SM 27/18 A2994 RMK T02700180 IEM_DS3505
ZGGG,2002-09-23 12:00,ZGGG 231200Z AUTO 04002KT 9SM 27/21 A2994 RMK SLP144 T02720206 52009 IEM_DS3505
ZGGG,2002-09-23 13:00,ZGGG 231300Z AUTO 04010KT 5SM 27/18 A2997 RMK T02700180 IEM_DS3505
ZGGG,2002-09-23 14:00,ZGGG 231400Z AUTO 05008KT 5SM 26/18 A2997 RMK T02600180 IEM_DS3505
ZGGG,2002-09-23 15:00,ZGGG 231500Z AUTO 36004KT 9SM 25/19 A2997 RMK SLP147 T02520193 52003 IEM_DS3505
ZGGG,2002-09-23 16:00,ZGGG 231600Z AUTO 04006KT 6SM 24/18 A2997 RMK T02400180 IEM_DS3505
ZGGG,2002-09-23 17:00,ZGGG 231700Z AUTO 04008KT 6SM 24/18 A2997 RMK T02400180 IEM_DS3505
ZGGG,2002-09-23 18:00,ZGGG 231800Z AUTO 09004KT 8SM 24/18 A2994 RMK SLP142 T02420184 57005 IEM_DS3505
ZGGG,2002-09-23 19:00,ZGGG 231900Z AUTO 04008KT 7SM 24/17 A2994 RMK T02400170 IEM_DS3505
ZGGG,2002-09-23 20:00,ZGGG 232000Z AUTO 04010KT 5SM 23/17 A2994 RMK T02300170 IEM_DS3505
ZGGG,2002-09-23 21:00,ZGGG 232100Z AUTO 04002KT 9SM 24/18 A2997 RMK SLP142 T02400183 54000 IEM_DS3505
ZGGG,2002-09-23 22:00,ZGGG 232200Z AUTO 02006KT 4SM 24/17 A2997 RMK T02400170 IEM_DS3505
ZGGG,2002-09-23 23:00,ZGGG 232300Z AUTO 05006KT 23/17 A2997 RMK T02300170 IEM_DS3505
ZGGG,2002-09-24 00:00,ZGGG 240000Z AUTO 07002KT 9SM 24/19 A3000 RMK SLP156 T02410188 52014 IEM_DS3505
ZGGG,2002-09-24 01:00,ZGGG 240100Z AUTO 04008KT 24/17 A3000 RMK T02400170 IEM_DS3505
ZGGG,2002-09-24 02:00,ZGGG 240200Z AUTO 01006KT 25/18 A3000 RMK T02500180 IEM_DS3505
ZGGG,2002-09-24 03:00,ZGGG 240300Z AUTO 36006KT 7SM 26/20 A3000 RMK SLP152 T02650196 57004 IEM_DS3505
ZGGG,2002-09-24 04:00,ZGGG 240400Z AUTO 02008KT 3SM 26/18 A2997 RMK T02600180 IEM_DS3505
ZGGG,2002-09-24 05:00,ZGGG 240500Z AUTO 07006KT RMK IEM_DS3505
ZGGG,2002-09-24 06:00,ZGGG 240600Z AUTO 14004KT 7SM 29/20 A2991 RMK SLP131 T02880202 57021 IEM_DS3505
ZGGG,2002-09-24 07:00,ZGGG 240700Z AUTO 06006KT 3SM 28/21 A2991 RMK T02800210 IEM_DS3505
ZGGG,2002-09-24 08:00,ZGGG 240800Z AUTO 10006KT 3SM 28/20 A2991 RMK T02800200 IEM_DS3505
ZGGG,2002-09-24 09:00,ZGGG 240900Z AUTO 07004KT 8SM 27/21 A2991 RMK SLP133 T02700207 52002 IEM_DS3505
ZGGG,2002-09-24 10:00,ZGGG 241000Z AUTO 10004KT 3SM 26/19 A2994 RMK T02600190 IEM_DS3505
ZGGG,2002-09-24 11:00,ZGGG 241100Z AUTO 13004KT 26/19 A2994 RMK T02600190 IEM_DS3505
ZGGG,2002-09-24 12:00,ZGGG 241200Z AUTO 14004KT 6SM 24/23 A2997 RMK 60003 SLP148 T02450227 52015 IEM_DS3505
ZGGG,2002-09-24 13:00,ZGGG 241300Z AUTO 14004KT 2SM 24/22 A3000 RMK T02400220 IEM_DS3505
ZGGG,2002-09-24 14:00,ZGGG 241400Z AUTO 15006KT 2SM 24/22 A3000 RMK T02400220 IEM_DS3505
ZGGG,2002-09-24 15:00,ZGGG 241500Z AUTO 14002KT 4SM 23/22 A3000 RMK SLP157 T02310222 52009 IEM_DS3505
ZGGG,2002-09-24 16:00,ZGGG 241600Z AUTO 12002KT 1 1/2SM 23/22 A3000 RMK T02300220 IEM_DS3505
ZGGG,2002-09-24 17:00,ZGGG 241700Z AUTO 12004KT 2 1/2SM 23/22 A2997 RMK T02300220 IEM_DS3505
ZGGG,2002-09-24 18:00,ZGGG 241800Z AUTO 04002KT 6SM 23/22 A2997 RMK 60020 SLP144 T02270220 57013 IEM_DS3505
ZGGG,2002-09-24 19:00,ZGGG 241900Z AUTO 07004KT 4SM 23/21 A2994 RMK T02300210 IEM_DS3505
ZGGG,2002-09-24 20:00,ZGGG 242000Z AUTO 07002KT 3SM 23/22 A2994 RMK T02300220 IEM_DS3505
ZGGG,2002-09-24 21:00,ZGGG 242100Z AUTO 04002KT 4SM 23/22 A2994 RMK 70022 SLP140 T02300216 57004 IEM_DS3505
ZGGG,2002-09-24 22:00,ZGGG 242200Z AUTO 05006KT 2 1/2SM 23/22 A2997 RMK T02300220 IEM_DS3505
ZGGG,2002-09-24 23:00,ZGGG 242300Z AUTO 03006KT 1 1/4SM 23/22 A2997 RMK T02300220 IEM_DS3505
ZGGG,2002-09-25 00:00,ZGGG 250000Z AUTO 04004KT 2 1/2SM 23/22 A2997 RMK 70023 SLP153 T02320223 52012 IEM_DS3505
ZGGG,2002-09-25 01:00,ZGGG 250100Z AUTO 03008KT 1 1/4SM 24/22 A3000 RMK T02400220 IEM_DS3505
ZGGG,2002-09-25 02:00,ZGGG 250200Z AUTO 04008KT 1 1/4SM 24/22 A3000 RMK T02400220 IEM_DS3505
ZGGG,2002-09-25 03:00,ZGGG 250300Z AUTO 04004KT 7SM 24/22 A3000 RMK SLP160 T02450223 52007 IEM_DS3505
ZGGG,2002-09-25 04:00,ZGGG 250400Z AUTO 05008KT 2 1/2SM 24/21 A3000 RMK T02400210 IEM_DS3505
ZGGG,2002-09-25 05:00,ZGGG 250500Z AUTO 05006KT 3SM 25/21 A2994 RMK T02500210 IEM_DS3505
ZGGG,2002-09-25 06:00,ZGGG 250600Z AUTO 07002KT 9SM 25/22 A2994 RMK SLP138 T02530220 57021 IEM_DS3505
ZGGG,2002-09-25 07:00,ZGGG 250700Z AUTO 05006KT 4SM 26/22 A2991 RMK T02600220 IEM_DS3505
ZGGG,2002-09-25 08:00,ZGGG 250800Z AUTO 08004KT 7SM 26/22 A2991 RMK T02600220 IEM_DS3505
ZGGG,2002-09-25 09:00,ZGGG 250900Z AUTO 07004KT 10SM 25/22 A2994 RMK SLP134 T02490224 57004 IEM_DS3505
ZGGG,2002-09-25 10:00,ZGGG 251000Z AUTO 06002KT 3SM 24/22 A2994 RMK T02400220 IEM_DS3505
ZGGG,2002-09-25 11:00,ZGGG 251100Z AUTO 06004KT 7SM 24/22 A2994 RMK T02400220 IEM_DS3505
ZGGG,2002-09-25 12:00,ZGGG 251200Z AUTO 04004KT 11SM 23/22 A2994 RMK 60028 SLP144 T02330217 52009 IEM_DS3505
ZGGG,2002-09-25 13:00,ZGGG 251300Z AUTO 06006KT 7SM 24/21 A2997 RMK T02400210 IEM_DS3505
ZGGG,2002-09-25 14:00,ZGGG 251400Z AUTO 05004KT 7SM 24/21 A3000 RMK T02400210 IEM_DS3505
ZGGG,2002-09-25 15:00,ZGGG 251500Z AUTO 04002KT 11SM 23/22 A2997 RMK SLP152 T02320217 52008 IEM_DS3505
ZGGG,2002-09-25 16:00,ZGGG 251600Z AUTO 08004KT 4SM 23/21 A2997 RMK T02300210 IEM_DS3505
ZGGG,2002-09-25 17:00,ZGGG 251700Z AUTO 05006KT 4SM 23/21 A2997 RMK T02300210 IEM_DS3505
ZGGG,2002-09-25 18:00,ZGGG 251800Z AUTO 00000KT 10SM 23/21 A2994 RMK 60001 SLP142 T02310214 57009 IEM_DS3505
ZGGG,2002-09-25 19:00,ZGGG 251900Z AUTO 03006KT 7SM 23/21 A2994 RMK T02300210 IEM_DS3505
ZGGG,2002-09-25 20:00,ZGGG 252000Z AUTO 04006KT 7SM 23/21 A2994 RMK T02300210 IEM_DS3505
ZGGG,2002-09-25 21:00,ZGGG 252100Z AUTO 04002KT 9SM 23/21 A2994 RMK 70031 SLP140 T02270212 57003 IEM_DS3505
ZGGG,2002-09-25 22:00,ZGGG 252200Z AUTO 05004KT 5SM 23/21 A2994 RMK T02300210 IEM_DS3505
ZGGG,2002-09-25 23:00,ZGGG 252300Z AUTO 06004KT 7SM 23/21 A2994 RMK T02300210 IEM_DS3505
ZGGG,2002-09-26 00:00,ZGGG 260000Z AUTO 00000KT 9SM 23/21 A2997 RMK 70030 SLP149 T02330212 52009 IEM_DS3505
ZGGG,2002-09-26 01:00,ZGGG 260100Z AUTO 05006KT 5SM 24/21 A2997 RMK T02400210 IEM_DS3505
ZGGG,2002-09-26 02:00,ZGGG 260200Z AUTO 04006KT 5SM 25/21 A2997 RMK T02500210 IEM_DS3505
ZGGG,2002-09-26 03:00,ZGGG 260300Z AUTO 00000KT 10SM 27/22 A2997 RMK SLP148 T02680218 54000 IEM_DS3505
ZGGG,2002-09-26 04:00,ZGGG 260400Z AUTO 11004KT 7SM 27/21 A2994 RMK T02700210 IEM_DS3505
ZGGG,2002-09-26 05:00,ZGGG 260500Z AUTO 00000KT 7SM 27/22 A2991 RMK T02700220 IEM_DS3505
ZGGG,2002-09-26 06:00,ZGGG 260600Z AUTO 00000KT 9SM 28/23 A2988 RMK SLP122 T02820228 57026 IEM_DS3505
ZGGG,2002-09-26 07:00,ZGGG 260700Z AUTO 08002KT 7SM 28/22 A2988 RMK T02800220 IEM_DS3505
ZGGG,2002-09-26 08:00,ZGGG 260800Z AUTO 09006KT 29/23 A2985 RMK T02900230 IEM_DS3505
ZGGG,2002-09-26 09:00,ZGGG 260900Z AUTO 11002KT 7SM 29/24 A2988 RMK SLP115 T02870238 57007 IEM_DS3505
ZGGG,2002-09-26 10:00,ZGGG 261000Z AUTO 14002KT 2SM 28/23 A2988 RMK T02800230 IEM_DS3505
ZGGG,2002-09-26 11:00,ZGGG 261100Z AUTO 00000KT 3SM 27/23 A2988 RMK T02700230 IEM_DS3505
ZGGG,2002-09-26 12:00,ZGGG 261200Z AUTO 00000KT 7SM 27/24 A2991 RMK SLP133 T02700244 52018 IEM_DS3505
ZGGG,2002-09-26 13:00,ZGGG 261300Z AUTO 19006KT 4SM 27/23 A2994 RMK T02700230 IEM_DS3505
ZGGG,2002-09-26 14:00,ZGGG 261400Z AUTO 16002KT 4SM 27/23 A2994 RMK T02700230 IEM_DS3505
ZGGG,2002-09-26 15:00,ZGGG 261500Z AUTO 14002KT 4SM 27/23 A2994 RMK T02700230 IEM_DS3505
ZGGG,2002-09-26 16:00,ZGGG 261600Z AUTO 15002KT 4SM 26/23 A2994 RMK T02600230 IEM_DS3505
ZGGG,2002-09-26 17:00,ZGGG 261700Z AUTO 10002KT 4SM 26/23 A2991 RMK T02600230 IEM_DS3505
ZGGG,2002-09-26 18:00,ZGGG 261800Z AUTO 09002KT 3SM 26/24 A2991 RMK SLP130 T02550239 57011 IEM_DS3505
ZGGG,2002-09-26 19:00,ZGGG 261900Z AUTO 12004KT 2 1/2SM 25/23 A2991 RMK T02500230 IEM_DS3505
ZGGG,2002-09-26 20:00,ZGGG 262000Z AUTO 12004KT 2 1/2SM 25/23 A2988 RMK T02500230 IEM_DS3505
ZGGG,2002-09-26 21:00,ZGGG 262100Z AUTO 07002KT 2SM 25/24 A2988 RMK 70000 SLP123 T02500238 57007 IEM_DS3505
ZGGG,2002-09-26 22:00,ZGGG 262200Z AUTO 11004KT 2SM 25/23 A2991 RMK T02500230 IEM_DS3505
ZGGG,2002-09-26 23:00,ZGGG 262300Z AUTO 13004KT 2SM 25/23 A2991 RMK T02500230 IEM_DS3505
ZGGG,2002-09-27 00:00,ZGGG 270000Z AUTO 14004KT 5SM 26/24 A2994 RMK 60002 70002 SLP134 T02550238 52011 IEM_DS3505
ZGGG,2002-09-27 01:00,ZGGG 270100Z AUTO 15006KT 2 1/2SM 27/24 A2994 RMK T02700240 IEM_DS3505
ZGGG,2002-09-27 02:00,ZGGG 270200Z AUTO 14004KT 4SM 27/23 A2994 RMK T02700230 IEM_DS3505
ZGGG,2002-09-27 03:00,ZGGG 270300Z AUTO 14006KT 7SM 29/24 A2991 RMK SLP136 T02880241 52002 IEM_DS3505
ZGGG,2002-09-27 04:00,ZGGG 270400Z AUTO 15008KT 7SM 29/23 A2991 RMK T02900230 IEM_DS3505
ZGGG,2002-09-27 05:00,ZGGG 270500Z AUTO 15010KT 5SM 28/24 A2988 RMK T02800240 IEM_DS3505
ZGGG,2002-09-27 06:00,ZGGG 270600Z AUTO 14008KT 12SM 30/24 A2985 RMK SLP112 T03000240 57024 IEM_DS3505
ZGGG,2002-09-27 07:00,ZGGG 270700Z AUTO 32004KT 2SM 26/24 A2985 RMK T02600240 IEM_DS3505
ZGGG,2002-09-27 08:00,ZGGG 270800Z AUTO 06006KT 4SM 26/24 A2985 RMK T02600240 IEM_DS3505
ZGGG,2002-09-27 09:00,ZGGG 270900Z AUTO 34004KT 10SM 27/25 A2985 RMK SLP112 T02680247 54000 IEM_DS3505
ZGGG,2002-09-27 10:00,ZGGG 271000Z AUTO 04010KT 1 1/4SM 24/23 A2988 RMK T02400230 IEM_DS3505
ZGGG,2002-09-27 11:00,ZGGG 271100Z AUTO 04008KT 3SM 24/24 A2988 RMK T02400240 IEM_DS3505
ZGGG,2002-09-27 12:00,ZGGG 271200Z AUTO 36004KT 9SM 25/24 A2991 RMK 60094 SLP126 T02490242 52014 IEM_DS3505
ZGGG,2002-09-27 13:00,ZGGG 271300Z AUTO 04004KT 2 1/2SM 24/24 A2994 RMK T02400240 IEM_DS3505
ZGGG,2002-09-27 15:00,ZGGG 271500Z AUTO 32004KT 9SM 23/22 A2994 RMK SLP139 T02280222 52013 IEM_DS3505
ZGGG,2002-09-27 16:00,ZGGG 271600Z AUTO 03010KT 7SM 22/22 A2994 RMK T02200220 IEM_DS3505
ZGGG,2002-09-27 17:00,ZGGG 271700Z AUTO 03010KT 7SM 22/22 A2991 RMK T02200220 IEM_DS3505
ZGGG,2002-09-27 18:00,ZGGG 271800Z AUTO 36004KT 8SM 22/22 A2991 RMK 60177 SLP132 T02240218 57007 IEM_DS3505
ZGGG,2002-09-27 19:00,ZGGG 271900Z AUTO 01008KT 7SM 21/21 A2991 RMK T02100210 IEM_DS3505
ZGGG,2002-09-27 20:00,ZGGG 272000Z AUTO 02006KT 2SM 21/21 A2991 RMK T02100210 IEM_DS3505
ZGGG,2002-09-27 21:00,ZGGG 272100Z AUTO 00000KT 5SM 22/21 A2991 RMK 70288 SLP132 T02190213 54000 IEM_DS3505
ZGGG,2002-09-27 22:00,ZGGG 272200Z AUTO 02006KT 7SM 21/21 A2994 RMK T02100210 IEM_DS3505
ZGGG,2002-09-27 23:00,ZGGG 272300Z AUTO 04010KT 4SM 21/21 A2994 RMK T02100210 IEM_DS3505
ZGGG,2002-09-28 00:00,ZGGG 280000Z AUTO 34004KT 1 1/4SM 21/21 RMK 60083 70355 SLP150 T02120207 52017 IEM_DS3505
ZGGG,2002-09-28 02:00,ZGGG 280200Z AUTO 03010KT 5SM 21/21 A3000 RMK T02100210 IEM_DS3505
ZGGG,2002-09-28 03:00,ZGGG 280300Z AUTO 36002KT 10SM 22/21 A3000 RMK SLP154 T02250211 52004 IEM_DS3505
ZGGG,2002-09-28 04:00,ZGGG 280400Z AUTO 02010KT 7SM 21/21 A2997 RMK T02100210 IEM_DS3505
ZGGG,2002-09-28 05:00,ZGGG 280500Z AUTO 03010KT 3SM 21/21 A2997 RMK T02100210 IEM_DS3505
ZGGG,2002-09-28 06:00,ZGGG 280600Z AUTO 32004KT 7SM 22/21 A2994 RMK 60031 SLP141 T02170211 57013 IEM_DS3505
ZGGG,2002-09-28 07:00,ZGGG 280700Z AUTO 01010KT 7SM 21/21 A2994 RMK T02100210 IEM_DS3505
ZGGG,2002-09-28 08:00,ZGGG 280800Z AUTO 02010KT 7SM 21/21 A2994 RMK T02100210 IEM_DS3505
ZGGG,2002-09-28 09:00,ZGGG 280900Z AUTO 03010KT 4SM 21/21 A2994 RMK T02100210 IEM_DS3505
ZGGG,2002-09-28 12:00,ZGGG 281200Z AUTO 36004KT 10SM 21/20 A2997 RMK 60008 SLP147 T02140205 52008 IEM_DS3505
ZGGG,2002-09-28 13:00,ZGGG 281300Z AUTO 02010KT 7SM 21/21 A2997 RMK T02100210 IEM_DS3505
ZGGG,2002-09-28 14:00,ZGGG 281400Z AUTO 03010KT 7SM 21/21 A2997 RMK T02100210 IEM_DS3505
ZGGG,2002-09-28 15:00,ZGGG 281500Z AUTO 36002KT 9SM 21/20 A2997 RMK SLP152 T02120203 52005 IEM_DS3505
ZGGG,2002-09-28 16:00,ZGGG 281600Z AUTO 02006KT 4SM 21/21 A3000 RMK T02100210 IEM_DS3505
ZGGG,2002-09-28 17:00,ZGGG 281700Z AUTO 03008KT 5SM 21/21 A2997 RMK T02100210 IEM_DS3505
ZGGG,2002-09-28 18:00,ZGGG 281800Z AUTO 32004KT 7SM 21/20 A2997 RMK 60020 SLP145 T02080202 57007 IEM_DS3505
ZGGG,2002-09-28 19:00,ZGGG 281900Z AUTO 01006KT 7SM 21/20 A2994 RMK T02100200 IEM_DS3505
ZGGG,2002-09-28 20:00,ZGGG 282000Z AUTO 02008KT 7SM 21/20 A2994 RMK T02100200 IEM_DS3505
ZGGG,2002-09-28 21:00,ZGGG 282100Z AUTO 34004KT 10SM 20/20 A2994 RMK 70131 SLP137 T02050197 57008 IEM_DS3505
ZGGG,2002-09-28 22:00,ZGGG 282200Z AUTO 01006KT 7SM 21/19 A2994 RMK T02100190 IEM_DS3505
ZGGG,2002-09-28 23:00,ZGGG 282300Z AUTO 01006KT 7SM 21/19 A2997 RMK T02100190 IEM_DS3505
ZGGG,2002-09-29 00:00,ZGGG 290000Z AUTO 34004KT 7SM 21/20 A2997 RMK 70062 SLP150 T02080199 52013 IEM_DS3505
ZGGG,2002-09-29 01:00,ZGGG 290100Z AUTO 02006KT 5SM 22/20 A3000 RMK T02200200 IEM_DS3505
ZGGG,2002-09-29 02:00,ZGGG 290200Z AUTO 36006KT 5SM 22/19 A3000 RMK T02200190 IEM_DS3505
ZGGG,2002-09-29 03:00,ZGGG 290300Z AUTO 36004KT 10SM 22/20 A2997 RMK SLP150 T02220205 54000 IEM_DS3505
ZGGG,2002-09-29 04:00,ZGGG 290400Z AUTO 02010KT 7SM 22/20 A2997 RMK T02200200 IEM_DS3505
ZGGG,2002-09-29 05:00,ZGGG 290500Z AUTO 03010KT 7SM 23/20 A2994 RMK T02300200 IEM_DS3505
ZGGG,2002-09-29 06:00,ZGGG 290600Z AUTO 36004KT 9SM 23/21 A2994 RMK SLP133 T02310208 57017 IEM_DS3505
ZGGG,2002-09-29 07:00,ZGGG 290700Z AUTO 01008KT 7SM 22/19 A2991 RMK T02200190 IEM_DS3505
ZGGG,2002-09-29 08:00,ZGGG 290800Z AUTO 01008KT 4SM 22/20 A2991 RMK T02200200 IEM_DS3505
ZGGG,2002-09-29 09:00,ZGGG 290900Z AUTO 32002KT 7SM 22/20 A2994 RMK SLP130 T02160204 57003 IEM_DS3505
ZGGG,2002-09-29 10:00,ZGGG 291000Z AUTO 35006KT 2 1/2SM 21/20 A2994 RMK T02100200 IEM_DS3505
ZGGG,2002-09-29 11:00,ZGGG 291100Z AUTO 35004KT 2SM 20/20 A2994 RMK T02000200 IEM_DS3505
ZGGG,2002-09-29 12:00,ZGGG 291200Z AUTO 34002KT 6SM 21/20 A2997 RMK 60028 SLP148 T02090203 52018 IEM_DS3505
ZGGG,2002-09-29 13:00,ZGGG 291300Z AUTO 01008KT 4SM 20/20 A2997 RMK T02000200 IEM_DS3505
ZGGG,2002-09-29 14:00,ZGGG 291400Z AUTO 02008KT 3SM 20/20 A3000 RMK T02000200 IEM_DS3505
ZGGG,2002-09-29 15:00,ZGGG 291500Z AUTO 34004KT 7SM 21/20 A2997 RMK SLP149 T02080202 52001 IEM_DS3505
ZGGG,2002-09-29 16:00,ZGGG 291600Z AUTO 02006KT 7SM 20/20 A2997 RMK T02000200 IEM_DS3505
ZGGG,2002-09-29 17:00,ZGGG 291700Z AUTO 02006KT 6SM 20/20 A2997 RMK T02000200 IEM_DS3505
ZGGG,2002-09-29 18:00,ZGGG 291800Z AUTO 32002KT 7SM 21/20 A2994 RMK 60016 SLP141 T02070202 57008 IEM_DS3505
ZGGG,2002-09-29 19:00,ZGGG 291900Z AUTO 02006KT 7SM 21/21 A2994 RMK T02100210 IEM_DS3505
ZGGG,2002-09-29 20:00,ZGGG 292000Z AUTO 02006KT 7SM 21/21 A2994 RMK T02100210 IEM_DS3505
ZGGG,2002-09-29 21:00,ZGGG 292100Z AUTO 32004KT 5SM 21/20 A2994 RMK 70044 SLP138 T02060200 57003 IEM_DS3505
ZGGG,2002-09-29 22:00,ZGGG 292200Z AUTO 36006KT 7SM 21/21 A2994 RMK T02100210 IEM_DS3505
ZGGG,2002-09-29 23:00,ZGGG 292300Z AUTO 01006KT 5SM 21/20 A2994 RMK T02100200 IEM_DS3505
ZGGG,2002-09-30 00:00,ZGGG 300000Z AUTO 36002KT 9SM 21/20 A2997 RMK 70044 SLP150 T02120204 52012 IEM_DS3505
ZGGG,2002-09-30 01:00,ZGGG 300100Z AUTO 01006KT 5SM 22/20 A2997 RMK T02200200 IEM_DS3505
ZGGG,2002-09-30 02:00,ZGGG 300200Z AUTO 02006KT 7SM 22/21 A3000 RMK T02200210 IEM_DS3505
ZGGG,2002-09-30 03:00,ZGGG 300300Z AUTO 04004KT 11SM 23/21 A2997 RMK SLP151 T02340210 52001 IEM_DS3505
ZGGG,2002-09-30 04:00,ZGGG 300400Z AUTO 02008KT 5SM 23/21 A2997 RMK T02300210 IEM_DS3505
ZGGG,2002-09-30 05:00,ZGGG 300500Z AUTO 04008KT 3SM 23/21 A2994 RMK T02300210 IEM_DS3505
ZGGG,2002-09-30 06:00,ZGGG 300600Z AUTO 02002KT 6SM 24/22 A2991 RMK SLP135 T02360217 57016 IEM_DS3505
ZGGG,2002-09-30 07:00,ZGGG 300700Z AUTO 04008KT 3SM 23/21 A2991 RMK T02300210 IEM_DS3505
ZGGG,2002-09-30 08:00,ZGGG 300800Z AUTO 01008KT 3SM 23/21 A2991 RMK T02300210 IEM_DS3505
ZGGG,2002-09-30 09:00,ZGGG 300900Z AUTO 02002KT 5SM 23/21 A2991 RMK SLP132 T02270213 57003 IEM_DS3505
ZGGG,2002-09-30 10:00,ZGGG 301000Z AUTO 02006KT 4SM 22/21 A2991 RMK T02200210 IEM_DS3505
ZGGG,2002-09-30 11:00,ZGGG 301100Z AUTO 36006KT 4SM 22/21 A2994 RMK T02200210 IEM_DS3505
ZGGG,2002-09-30 12:00,ZGGG 301200Z AUTO 34004KT 9SM 22/21 A2994 RMK 60008 SLP141 T02220210 52009 IEM_DS3505
ZGGG,2002-09-30 13:00,ZGGG 301300Z AUTO 36006KT 4SM 22/21 A2997 RMK T02200210 IEM_DS3505
ZGGG,2002-09-30 14:00,ZGGG 301400Z AUTO 01006KT 7SM 22/21 A2997 RMK T02200210 IEM_DS3505
ZGGG,2002-09-30 15:00,ZGGG 301500Z AUTO 32004KT 9SM 22/20 A2997 RMK SLP149 T02170205 52008 IEM_DS3505
ZGGG,2002-09-30 16:00,ZGGG 301600Z AUTO 36004KT 7SM 22/21 A2997 RMK T02200210 IEM_DS3505
ZGGG,2002-09-30 17:00,ZGGG 301700Z AUTO 35004KT 4SM 22/21 A2994 RMK T02200210 IEM_DS3505
ZGGG,2002-09-30 18:00,ZGGG 301800Z AUTO 32002KT 9SM 22/20 A2994 RMK SLP141 T02160202 57008 IEM_DS3505
ZGGG,2002-09-30 19:00,ZGGG 301900Z AUTO 35004KT 5SM 22/21 A2994 RMK T02200210 IEM_DS3505
ZGGG,2002-09-30 20:00,ZGGG 302000Z AUTO 01004KT 4SM 22/21 A2994 RMK T02200210 IEM_DS3505
ZGGG,2002-09-30 20:30,ZGGG 302030Z AUTO 01004KT 4SM 22/21 A2994 RMK T02200210 IEM_DS3505
ZGGG,2002-09-30 21:00,ZGGG 302100Z AUTO 34004KT 8SM 22/20 A2991 RMK 70007 SLP133 T02160202 57008 IEM_DS3505
ZGGG,2002-09-30 21:30,ZGGG 302130Z AUTO 02006KT 4SM 22/21 A2994 RMK T02200210 IEM_DS3505
ZGGG,2002-09-30 22:00,ZGGG 302200Z AUTO 01004KT 4SM 22/21 A2994 RMK T02200210 IEM_DS3505
ZGGG,2002-09-30 23:00,ZGGG 302300Z AUTO 01006KT 2 1/2SM 22/21 A2994 RMK T02200210 IEM_DS3505
ZGGG,2002-10-01 00:00,ZGGG 010000Z AUTO 32004KT 9SM 22/20 A2997 RMK 70007 SLP146 T02200202 52013 IEM_DS3505
ZGGG,2002-10-01 01:00,ZGGG 010100Z AUTO 01006KT 3SM 22/21 A3000 RMK T02200210 IEM_DS3505
ZGGG,2002-10-01 02:00,ZGGG 010200Z AUTO 02008KT 4SM 22/20 A3000 RMK T02200200 IEM_DS3505
ZGGG,2002-10-01 03:00,ZGGG 010300Z AUTO 04004KT 9SM 24/21 A3000 RMK SLP152 T02350209 52006 IEM_DS3505
ZGGG,2002-10-01 04:00,ZGGG 010400Z AUTO 02010KT 3SM 22/21 A2997 RMK T02200210 IEM_DS3505
ZGGG,2002-10-01 05:00,ZGGG 010500Z AUTO 03008KT 5SM 23/21 A2994 RMK T02300210 IEM_DS3505
ZGGG,2002-10-01 06:00,ZGGG 010600Z AUTO 00000KT 11SM 24/21 A2991 RMK SLP132 T02400210 57020 IEM_DS3505
ZGGG,2002-10-01 07:00,ZGGG 010700Z AUTO 36004KT 4SM 23/21 A2991 RMK T02300210 IEM_DS3505
ZGGG,2002-10-01 08:00,ZGGG 010800Z AUTO 33004KT 5SM 23/21 A2991 RMK T02300210 IEM_DS3505
ZGGG,2002-10-01 09:00,ZGGG 010900Z AUTO 34002KT 9SM 24/21 A2991 RMK SLP130 T02390213 57002 IEM_DS3505
ZGGG,2002-10-01 10:00,ZGGG 011000Z AUTO 09002KT 4SM 24/21 A2991 RMK T02400210 IEM_DS3505
ZGGG,2002-10-01 11:00,ZGGG 011100Z AUTO 08002KT 5SM 24/22 A2994 RMK T02400220 IEM_DS3505
ZGGG,2002-10-01 12:00,ZGGG 011200Z AUTO 00000KT 9SM 23/22 A2994 RMK SLP139 T02340218 52009 IEM_DS3505
ZGGG,2002-10-01 13:00,ZGGG 011300Z AUTO 11002KT 4SM 23/21 A2994 RMK T02300210 IEM_DS3505
ZGGG,2002-10-01 14:00,ZGGG 011400Z AUTO 10002KT 3SM 23/21 A2994 RMK T02300210 IEM_DS3505
ZGGG,2002-10-01 15:00,ZGGG 011500Z AUTO 00000KT 9SM 23/22 A2994 RMK SLP140 T02300215 52001 IEM_DS3505
ZGGG,2002-10-01 16:00,ZGGG 011600Z AUTO 00000KT 2 1/2SM 22/21 A2994 RMK T02200210 IEM_DS3505
ZGGG,2002-10-01 17:00,ZGGG 011700Z AUTO 03002KT 2SM 22/22 A2994 RMK T02200220 IEM_DS3505
ZGGG,2002-10-01 18:00,ZGGG 011800Z AUTO 34002KT 5SM 22/21 A2994 RMK SLP137 T02180210 57003 IEM_DS3505
ZGGG,2002-10-01 19:00,ZGGG 011900Z AUTO 36004KT 1 1/2SM 22/22 A2994 RMK T02200220 IEM_DS3505
ZGGG,2002-10-01 20:00,ZGGG 012000Z AUTO 36004KT 1 1/4SM 22/22 A2991 RMK T02200220 IEM_DS3505
ZGGG,2002-10-01 21:00,ZGGG 012100Z AUTO 00000KT 4SM 22/21 A2991 RMK SLP133 T02150207 57004 IEM_DS3505
ZGGG,2002-10-01 22:00,ZGGG 012200Z AUTO 00000KT 1SM 22/22 A2994 RMK T02200220 IEM_DS3505
ZGGG,2002-10-01 23:00,ZGGG 012300Z AUTO 35004KT 1SM 22/22 A2994 RMK T02200220 IEM_DS3505
ZGGG,2002-10-02 00:00,ZGGG 020000Z AUTO 36004KT 7SM 22/21 A2997 RMK SLP152 T02220210 52019 IEM_DS3505
ZGGG,2002-10-02 01:00,ZGGG 020100Z AUTO 36004KT 2 1/2SM 23/22 A3000 RMK T02300220 IEM_DS3505
ZGGG,2002-10-02 02:00,ZGGG 020200Z AUTO 36004KT 3SM 24/21 A3000 RMK T02400210 IEM_DS3505
ZGGG,2002-10-02 03:00,ZGGG 020300Z AUTO 36004KT 9SM 27/21 A2997 RMK SLP148 T02670208 57003 IEM_DS3505
ZGGG,2002-10-02 04:00,ZGGG 020400Z AUTO 02006KT 3SM 28/21 A2994 RMK T02800210 IEM_DS3505
ZGGG,2002-10-02 05:00,ZGGG 020500Z AUTO 35004KT 29/21 A2991 RMK T02900210 IEM_DS3505
ZGGG,2002-10-02 06:00,ZGGG 020600Z AUTO 18006KT 12SM 30/20 A2988 RMK SLP123 T03020196 57025 IEM_DS3505
ZGGG,2002-10-02 07:00,ZGGG 020700Z AUTO 07002KT 7SM 29/19 A2988 RMK T02900190 IEM_DS3505
ZGGG,2002-10-02 08:00,ZGGG 020800Z AUTO 21004KT 7SM 29/19 A2988 RMK T02900190 IEM_DS3505
ZGGG,2002-10-02 09:00,ZGGG 020900Z AUTO 14004KT 10SM 29/21 A2988 RMK SLP119 T02920209 57004 IEM_DS3505
ZGGG,2002-10-02 10:00,ZGGG 021000Z AUTO 11004KT 5SM 28/20 A2988 RMK T02800200 IEM_DS3505
ZGGG,2002-10-02 11:00,ZGGG 021100Z AUTO 10004KT 6SM 28/20 A2988 RMK T02800200 IEM_DS3505
ZGGG,2002-10-02 12:00,ZGGG 021200Z AUTO 14006KT 9SM 27/22 A2991 RMK SLP131 T02660215 52012 IEM_DS3505
ZGGG,2002-10-02 13:00,ZGGG 021300Z AUTO 00000KT 3SM 26/22 A2994 RMK T02600220 IEM_DS3505
ZGGG,2002-10-02 14:00,ZGGG 021400Z AUTO 16004KT 3SM 26/22 A2994 RMK T02600220 IEM_DS3505
ZGGG,2002-10-02 15:00,ZGGG 021500Z AUTO 00000KT 9SM 24/22 A2994 RMK SLP142 T02450220 52011 IEM_DS3505
ZGGG,2002-10-02 16:00,ZGGG 021600Z AUTO 15002KT 3SM 25/21 A2994 RMK T02500210 IEM_DS3505
ZGGG,2002-10-02 17:00,ZGGG 021700Z AUTO 00000KT 3SM 24/21 A2994 RMK T02400210 IEM_DS3505
ZGGG,2002-10-02 18:00,ZGGG 021800Z AUTO 00000KT 7SM 23/22 A2994 RMK SLP138 T02330217 57004 IEM_DS3505
ZGGG,2002-10-02 19:00,ZGGG 021900Z AUTO 00000KT 2 1/2SM 23/21 A2991 RMK T02300210 IEM_DS3505
ZGGG,2002-10-02 20:00,ZGGG 022000Z AUTO 10002KT 2 1/2SM 23/21 A2991 RMK T02300210 IEM_DS3505
ZGGG,2002-10-02 21:00,ZGGG 022100Z AUTO 00000KT 7SM 22/21 A2994 RMK SLP135 T02250213 57003 IEM_DS3505
ZGGG,2002-10-02 22:00,ZGGG 022200Z AUTO 05006KT 1 1/2SM 23/22 A2994 RMK T02300220 IEM_DS3505
ZGGG,2002-10-02 23:00,ZGGG 022300Z AUTO 03004KT 1 1/4SM 23/22 A2997 RMK T02300220 IEM_DS3505
ZGGG,2002-10-03 00:00,ZGGG 030000Z AUTO 00000KT 8SM 24/21 A2997 RMK SLP153 T02370213 52018 IEM_DS3505
ZGGG,2002-10-03 01:00,ZGGG 030100Z AUTO 03002KT 4SM 26/21 A3000 RMK T02600210 IEM_DS3505
ZGGG,2002-10-03 02:00,ZGGG 030200Z AUTO 09004KT 27/21 A3000 RMK T02700210 IEM_DS3505
ZGGG,2002-10-03 03:00,ZGGG 030300Z AUTO 36002KT 7SM 27/20 A3000 RMK SLP159 T02710203 52006 IEM_DS3505
ZGGG,2002-10-03 04:00,ZGGG 030400Z AUTO 04004KT 3SM 27/20 A2997 RMK T02700200 IEM_DS3505
ZGGG,2002-10-03 05:00,ZGGG 030500Z AUTO 13002KT 5SM 28/17 A2997 RMK T02800170 IEM_DS3505
ZGGG,2002-10-03 06:00,ZGGG 030600Z AUTO 07004KT 9SM 29/18 A2994 RMK SLP139 T02900183 57020 IEM_DS3505
ZGGG,2002-10-03 07:00,ZGGG 030700Z AUTO 10004KT 6SM 29/18 A2991 RMK T02900180 IEM_DS3505
ZGGG,2002-10-03 08:00,ZGGG 030800Z AUTO 10004KT 6SM 29/17 A2991 RMK T02900170 IEM_DS3505
ZGGG,2002-10-03 09:00,ZGGG 030900Z AUTO 09002KT 7SM 29/18 A2991 RMK SLP132 T02860180 57007 IEM_DS3505
ZGGG,2002-10-03 10:00,ZGGG 031000Z AUTO 08004KT 27/17 A2994 RMK T02700170 IEM_DS3505
ZGGG,2002-10-03 12:00,ZGGG 031200Z AUTO 00000KT 7SM 26/21 A2997 RMK SLP147 T02620211 52015 IEM_DS3505
ZGGG,2002-10-03 13:00,ZGGG 031300Z AUTO 13002KT 5SM 27/17 A2997 RMK T02700170 IEM_DS3505
ZGGG,2002-10-03 14:00,ZGGG 031400Z AUTO 14002KT 27/16 A3000 RMK T02700160 IEM_DS3505
ZGGG,2002-10-03 15:00,ZGGG 031500Z AUTO 00000KT 7SM 25/20 A3000 RMK SLP154 T02490200 52007 IEM_DS3505
ZGGG,2002-10-03 16:00,ZGGG 031600Z AUTO 09002KT 3SM 25/18 A3000 RMK T02500180 IEM_DS3505
ZGGG,2002-10-03 17:00,ZGGG 031700Z AUTO 12002KT 3SM 25/19 A2997 RMK T02500190 IEM_DS3505
ZGGG,2002-10-03 18:00,ZGGG 031800Z AUTO 00000KT 5SM 24/20 A2997 RMK SLP148 T02400197 57006 IEM_DS3505
ZGGG,2002-10-03 19:00,ZGGG 031900Z AUTO 08002KT 3SM 24/18 A2997 RMK T02400180 IEM_DS3505
ZGGG,2002-10-03 20:00,ZGGG 032000Z AUTO 10002KT 3SM 24/19 A2994 RMK T02400190 IEM_DS3505
ZGGG,2002-10-03 21:00,ZGGG 032100Z AUTO 04002KT 4SM 24/20 A2997 RMK SLP143 T02360199 57005 IEM_DS3505
ZGGG,2002-10-03 22:00,ZGGG 032200Z AUTO 07002KT 3SM 24/20 A2997 RMK T02400200 IEM_DS3505
ZGGG,2002-10-03 23:00,ZGGG 032300Z AUTO 09002KT 2 1/2SM 24/19 A3000 RMK T02400190 IEM_DS3505
ZGGG,2002-10-04 00:00,ZGGG 040000Z AUTO 00000KT 7SM 24/20 A3000 RMK SLP159 T02450204 52016 IEM_DS3505
ZGGG,2002-10-04 01:00,ZGGG 040100Z AUTO 10002KT 2 1/2SM 27/19 A3000 RMK T02700190 IEM_DS3505
ZGGG,2002-10-04 02:00,ZGGG 040200Z AUTO 10004KT 27/18 A3003 RMK T02700180 IEM_DS3505
ZGGG,2002-10-04 03:00,ZGGG 040300Z AUTO 14002KT 9SM 28/18 A3003 RMK SLP166 T02800184 52007 IEM_DS3505
ZGGG,2002-10-04 04:00,ZGGG 040400Z AUTO 15004KT 29/17 A3000 RMK T02900170 IEM_DS3505
ZGGG,2002-10-04 05:00,ZGGG 040500Z AUTO 15004KT 30/19 A2997 RMK T03000190 IEM_DS3505
ZGGG,2002-10-04 06:00,ZGGG 040600Z AUTO 00000KT 10SM 31/20 A2991 RMK SLP136 T03080200 57030 IEM_DS3505
ZGGG,2002-10-04 07:00,ZGGG 040700Z AUTO 16002KT 31/19 A2988 RMK T03100190 IEM_DS3505
ZGGG,2002-10-04 08:00,ZGGG 040800Z AUTO 08004KT 31/19 A2988 RMK T03100190 IEM_DS3505
ZGGG,2002-10-04 09:00,ZGGG 040900Z AUTO 09004KT 10SM 30/22 A2988 RMK SLP118 T03020217 57018 IEM_DS3505
ZGGG,2002-10-04 10:00,ZGGG 041000Z AUTO 09004KT 29/21 A2988 RMK T02900210 IEM_DS3505
ZGGG,2002-10-04 11:00,ZGGG 041100Z AUTO 06002KT 5SM 28/21 A2988 RMK T02800210 IEM_DS3505
ZGGG,2002-10-04 12:00,ZGGG 041200Z AUTO 00000KT 9SM 27/22 A2991 RMK SLP134 T02720225 52016 IEM_DS3505
ZGGG,2002-10-04 13:00,ZGGG 041300Z AUTO 15004KT 3SM 28/21 A2994 RMK T02800210 IEM_DS3505
ZGGG,2002-10-04 14:00,ZGGG 041400Z AUTO 16002KT 2 1/2SM 27/22 A2997 RMK T02700220 IEM_DS3505
ZGGG,2002-10-04 15:00,ZGGG 041500Z AUTO 18004KT 8SM 27/24 A2994 RMK SLP144 T02680236 52010 IEM_DS3505
ZGGG,2002-10-04 16:00,ZGGG 041600Z AUTO 16004KT 3SM 27/22 A2994 RMK T02700220 IEM_DS3505
ZGGG,2002-10-04 17:00,ZGGG 041700Z AUTO 17004KT 3SM 26/22 A2994 RMK T02600220 IEM_DS3505
ZGGG,2002-10-04 18:00,ZGGG 041800Z AUTO 00000KT 5SM 25/23 A2994 RMK SLP138 T02540234 57006 IEM_DS3505
ZGGG,2002-10-04 19:00,ZGGG 041900Z AUTO 00000KT 3SM 26/23 A2994 RMK T02600230 IEM_DS3505
ZGGG,2002-10-04 20:00,ZGGG 042000Z AUTO 02002KT 2 1/2SM 25/23 A2991 RMK T02500230 IEM_DS3505
ZGGG,2002-10-04 21:00,ZGGG 042100Z AUTO 00000KT 3SM 25/23 A2991 RMK SLP131 T02500232 57007 IEM_DS3505
ZGGG,2002-10-04 22:00,ZGGG 042200Z AUTO 00000KT 2 1/2SM 25/23 A2991 RMK T02500230 IEM_DS3505
ZGGG,2002-10-04 23:00,ZGGG 042300Z AUTO 06002KT 1 1/2SM 24/23 A2991 RMK T02400230 IEM_DS3505
ZGGG,2002-10-05 00:00,ZGGG 050000Z AUTO 00000KT 3SM 25/23 A2994 RMK SLP140 T02530233 52009 IEM_DS3505
ZGGG,2002-10-05 01:00,ZGGG 050100Z AUTO 14002KT 2SM 27/22 A2997 RMK T02700220 IEM_DS3505
ZGGG,2002-10-05 02:00,ZGGG 050200Z AUTO 12004KT 2 1/2SM 28/22 A2997 RMK T02800220 IEM_DS3505
ZGGG,2002-10-05 03:00,ZGGG 050300Z AUTO 09004KT 7SM 29/23 A2997 RMK SLP147 T02870227 52007 IEM_DS3505
ZGGG,2002-10-05 04:00,ZGGG 050400Z AUTO 15004KT 3SM 29/22 A2994 RMK T02900220 IEM_DS3505
ZGGG,2002-10-05 05:00,ZGGG 050500Z AUTO 14004KT 3SM 29/21 A2991 RMK T02900210 IEM_DS3505
ZGGG,2002-10-05 06:00,ZGGG 050600Z AUTO 16004KT 7SM 30/22 A2988 RMK SLP119 T03020215 57028 IEM_DS3505
ZGGG,2002-10-05 07:00,ZGGG 050700Z AUTO 15006KT 3SM 30/21 A2985 RMK T03000210 IEM_DS3505
ZGGG,2002-10-05 08:00,ZGGG 050800Z AUTO 16006KT 31/21 A2985 RMK T03100210 IEM_DS3505
ZGGG,2002-10-05 09:00,ZGGG 050900Z AUTO 18004KT 7SM 30/22 A2985 RMK SLP114 T02960218 57005 IEM_DS3505
ZGGG,2002-10-05 10:00,ZGGG 051000Z AUTO 18006KT 3SM 29/21 A2988 RMK T02900210 IEM_DS3505
ZGGG,2002-10-05 11:00,ZGGG 051100Z AUTO 19008KT 4SM 28/22 A2988 RMK T02800220 IEM_DS3505
ZGGG,2002-10-05 12:00,ZGGG 051200Z AUTO 25004KT 7SM 27/24 A2991 RMK SLP132 T02700237 52018 IEM_DS3505
ZGGG,2002-10-05 13:00,ZGGG 051300Z AUTO 28004KT 1 1/2SM 26/24 A2994 RMK T02600240 IEM_DS3505
ZGGG,2002-10-05 14:00,ZGGG 051400Z AUTO 00000KT 2SM 26/24 A2994 RMK T02600240 IEM_DS3505
ZGGG,2002-10-05 15:00,ZGGG 051500Z AUTO 00000KT 7SM 26/24 A2994 RMK SLP134 T02620239 52002 IEM_DS3505
ZGGG,2002-10-05 16:00,ZGGG 051600Z AUTO 02004KT 2SM 25/22 A2991 RMK T02500220 IEM_DS3505
ZGGG,2002-10-05 17:00,ZGGG 051700Z AUTO 00000KT 2 1/2SM 25/22 A2994 RMK T02500220 IEM_DS3505
ZGGG,2002-10-05 18:00,ZGGG 051800Z AUTO 32002KT 6SM 25/23 A2991 RMK SLP129 T02520232 57005 IEM_DS3505
ZGGG,2002-10-05 19:00,ZGGG 051900Z AUTO 00000KT 2SM 25/23 A2991 RMK T02500230 IEM_DS3505
ZGGG,2002-10-05 20:00,ZGGG 052000Z AUTO 36008KT 3SM 24/22 A2991 RMK T02400220 IEM_DS3505
ZGGG,2002-10-05 21:00,ZGGG 052100Z AUTO 32006KT 11SM 22/20 A2991 RMK 70002 SLP126 T02220200 57003 IEM_DS3505
ZGGG,2002-10-05 22:00,ZGGG 052200Z AUTO 36012KT 5SM 21/19 A2994 RMK T02100190 IEM_DS3505
ZGGG,2002-10-05 23:00,ZGGG 052300Z AUTO 36008KT 4SM 21/20 A2997 RMK T02100200 IEM_DS3505
ZGGG,2002-10-06 00:00,ZGGG 060000Z AUTO 34006KT 9SM 21/19 A3000 RMK 60020 70020 SLP160 T02080192 52033 IEM_DS3505
ZGGG,2002-10-06 02:00,ZGGG 060200Z AUTO 03016KT 7SM 21/17 A3006 RMK T02100170 IEM_DS3505
ZGGG,2002-10-06 03:00,ZGGG 060300Z AUTO 36006KT 11SM 21/17 A3006 RMK SLP174 T02070169 52014 IEM_DS3505
ZGGG,2002-10-06 04:00,ZGGG 060400Z AUTO 02014KT RMK IEM_DS3505
ZGGG,2002-10-06 05:00,ZGGG 060500Z AUTO 03014KT 7SM 23/15 A3003 RMK T02300150 IEM_DS3505
ZGGG,2002-10-06 06:00,ZGGG 060600Z AUTO 04004KT 11SM 24/16 RMK 60004 SLP152 T02350160 57021 IEM_DS3505
ZGGG,2002-10-06 07:00,ZGGG 060700Z AUTO 02010KT 6SM 23/14 A2997 RMK T02300140 IEM_DS3505
ZGGG,2002-10-06 08:00,ZGGG 060800Z AUTO 03010KT 6SM 24/14 A2994 RMK T02400140 IEM_DS3505
ZGGG,2002-10-06 09:00,ZGGG 060900Z AUTO 04006KT 10SM 25/14 A2994 RMK SLP139 T02460142 57014 IEM_DS3505
ZGGG,2002-10-06 10:00,ZGGG 061000Z AUTO 05006KT 6SM 23/13 A2994 RMK T02300130 IEM_DS3505
ZGGG,2002-10-06 12:00,ZGGG 061200Z AUTO 02002KT 12SM 22/14 A3000 RMK 60000 SLP154 T02150136 52015 IEM_DS3505
ZGGG,2002-10-06 13:00,ZGGG 061300Z AUTO 04006KT 6SM 22/12 A3000 RMK T02200120 IEM_DS3505
ZGGG,2002-10-06 14:00,ZGGG 061400Z AUTO 01004KT 6SM 22/13 A3003 RMK T02200130 IEM_DS3505
ZGGG,2002-10-06 15:00,ZGGG 061500Z AUTO 00000KT 11SM 20/13 A3003 RMK SLP166 T01950134 52012 IEM_DS3505
ZGGG,2002-10-06 16:00,ZGGG 061600Z AUTO 05004KT 6SM 19/13 A3003 RMK T01900130 IEM_DS3505
ZGGG,2002-10-06 17:00,ZGGG 061700Z AUTO 06004KT 6SM 19/13 A3003 RMK T01900130 IEM_DS3505
ZGGG,2002-10-06 18:00,ZGGG 061800Z AUTO 34002KT 9SM 19/13 A3003 RMK SLP167 T01890129 52001 IEM_DS3505
ZGGG,2002-10-06 19:00,ZGGG 061900Z AUTO 36006KT 6SM 21/11 A3003 RMK T02100110 IEM_DS3505
ZGGG,2002-10-06 20:00,ZGGG 062000Z AUTO 05006KT 6SM 18/13 A3000 RMK T01800130 IEM_DS3505
ZGGG,2002-10-06 21:00,ZGGG 062100Z AUTO 32004KT 9SM 20/12 A3003 RMK 70023 SLP165 T02000122 57002 IEM_DS3505
ZGGG,2002-10-06 22:00,ZGGG 062200Z AUTO 05004KT 6SM 18/14 A3003 RMK T01800140 IEM_DS3505
ZGGG,2002-10-06 23:00,ZGGG 062300Z AUTO 36006KT 20/12 A3003 RMK T02000120 IEM_DS3505
ZGGG,2002-10-07 00:00,ZGGG 070000Z AUTO 02004KT 7SM 21/13 A3006 RMK 70004 SLP181 T02100130 52016 IEM_DS3505
ZGGG,2002-10-07 01:00,ZGGG 070100Z AUTO 03006KT 22/13 A3009 RMK T02200130 IEM_DS3505
ZGGG,2002-10-07 02:00,ZGGG 070200Z AUTO 5SM 22/12 A3009 RMK T02200120 IEM_DS3505
ZGGG,2002-10-07 03:00,ZGGG 070300Z AUTO 04006KT 11SM 25/12 A3009 RMK SLP187 T02480119 52006 IEM_DS3505
ZGGG,2002-10-07 04:00,ZGGG 070400Z AUTO 06006KT 25/12 A3006 RMK T02500120 IEM_DS3505
ZGGG,2002-10-07 05:00,ZGGG 070500Z AUTO 08004KT 5SM 26/11 A3003 RMK T02600110 IEM_DS3505
ZGGG,2002-10-07 06:00,ZGGG 070600Z AUTO 04004KT 10SM 27/11 A3000 RMK SLP157 T02720114 57030 IEM_DS3505
ZGGG,2002-10-07 07:00,ZGGG 070700Z AUTO 36008KT 5SM 27/09 A2997 RMK T02700090 IEM_DS3505
ZGGG,2002-10-07 08:00,ZGGG 070800Z AUTO 03014KT 5SM 27/09 A2997 RMK T02700090 IEM_DS3505
ZGGG,2002-10-07 09:00,ZGGG 070900Z AUTO 34002KT 11SM 27/12 A3000 RMK SLP158 T02660121 52001 IEM_DS3505
ZGGG,2002-10-07 10:00,ZGGG 071000Z AUTO 01004KT 26/10 A3000 RMK T02600100 IEM_DS3505
ZGGG,2002-10-07 11:00,ZGGG 071100Z AUTO 08004KT 24/12 A3003 RMK T02400120 IEM_DS3505
ZGGG,2002-10-07 13:00,ZGGG 071300Z AUTO 06004KT 6SM 22/12 A3006 RMK T02200120 IEM_DS3505
ZGGG,2002-10-07 14:00,ZGGG 071400Z AUTO 05004KT 6SM 21/13 A3009 RMK T02100130 IEM_DS3505
ZGGG,2002-10-07 15:00,ZGGG 071500Z AUTO 02002KT 11SM 20/14 A3009 RMK SLP189 T01960139 52013 IEM_DS3505
ZGGG,2002-10-07 16:00,ZGGG 071600Z AUTO 36004KT 6SM 21/11 A3009 RMK T02100110 IEM_DS3505
ZGGG,2002-10-07 17:00,ZGGG 071700Z AUTO 04006KT 6SM 19/12 A3009 RMK T01900120 IEM_DS3505
ZGGG,2002-10-07 18:00,ZGGG 071800Z AUTO 04004KT 8SM 20/10 A3009 RMK SLP188 T02040103 57001 IEM_DS3505
ZGGG,2002-10-07 19:00,ZGGG 071900Z AUTO 03004KT 6SM 17/11 A3009 RMK T01700110 IEM_DS3505
ZGGG,2002-10-07 20:00,ZGGG 072000Z AUTO 04004KT 6SM 18/11 A3006 RMK T01800110 IEM_DS3505
ZGGG,2002-10-07 21:00,ZGGG 072100Z AUTO 34004KT 9SM 19/09 A3009 RMK SLP184 T01870090 57004 IEM_DS3505
ZGGG,2002-10-07 22:00,ZGGG 072200Z AUTO 04004KT 6SM 16/10 A3009 RMK T01600100 IEM_DS3505
ZGGG,2002-10-07 23:00,ZGGG 072300Z AUTO 05004KT 6SM 16/09 A3012 RMK T01600090 IEM_DS3505
ZGGG,2002-10-08 00:00,ZGGG 080000Z AUTO 36006KT 10SM 21/08 A3012 RMK SLP202 T02080079 52018 IEM_DS3505
ZGGG,2002-10-08 01:00,ZGGG 080100Z AUTO 04008KT 5SM 21/09 A3015 RMK T02100090 IEM_DS3505
ZGGG,2002-10-08 02:00,ZGGG 080200Z AUTO 03012KT 5SM 24/08 A3015 RMK T02400080 IEM_DS3505
ZGGG,2002-10-08 03:00,ZGGG 080300Z AUTO 36006KT 13SM 25/07 A3012 RMK SLP200 T02460071 57002 IEM_DS3505
ZGGG,2002-10-08 04:00,ZGGG 080400Z AUTO 04017KT 6SM 26/05 A3009 RMK T02600050 IEM_DS3505
ZGGG,2002-10-08 05:00,ZGGG 080500Z AUTO 02012KT 6SM 27/04 A3009 RMK T02700040 IEM_DS3505
ZGGG,2002-10-08 06:00,ZGGG 080600Z AUTO 36006KT 16SM 28/06 A3006 RMK SLP175 T02750060 57025 IEM_DS3505
ZGGG,2002-10-08 07:00,ZGGG 080700Z AUTO 02012KT 6SM 28/04 A3003 RMK T02800040 IEM_DS3505
ZGGG,2002-10-08 08:00,ZGGG 080800Z AUTO 03014KT 6SM 28/04 A3000 RMK T02800040 IEM_DS3505
ZGGG,2002-10-08 09:00,ZGGG 080900Z AUTO 04004KT 16SM 27/08 A3003 RMK SLP165 T02740081 57010 IEM_DS3505
ZGGG,2002-10-08 10:00,ZGGG 081000Z AUTO 36008KT 6SM 26/08 A3003 RMK T02600080 IEM_DS3505
ZGGG,2002-10-08 11:00,ZGGG 081100Z AUTO 02008KT 6SM 25/08 A3003 RMK T02500080 IEM_DS3505
ZGGG,2002-10-08 12:00,ZGGG 081200Z AUTO 04002KT 9SM 23/11 A3006 RMK SLP180 T02280110 52015 IEM_DS3505
ZGGG,2002-10-08 13:00,ZGGG 081300Z AUTO 03006KT 6SM 22/11 A3009 RMK T02200110 IEM_DS3505
ZGGG,2002-10-08 14:00,ZGGG 081400Z AUTO 04008KT 6SM 21/09 A3009 RMK T02100090 IEM_DS3505
ZGGG,2002-10-08 15:00,ZGGG 081500Z AUTO 36004KT 10SM 22/08 A3012 RMK SLP192 T02150077 52012 IEM_DS3505
ZGGG,2002-10-08 16:00,ZGGG 081600Z AUTO 02006KT 6SM 20/07 A3012 RMK T02000070 IEM_DS3505
ZGGG,2002-10-08 17:00,ZGGG 081700Z AUTO 03008KT 6SM 19/08 A3009 RMK T01900080 IEM_DS3505
ZGGG,2002-10-08 18:00,ZGGG 081800Z AUTO 36004KT 8SM 21/07 A3006 RMK SLP178 T02060074 57014 IEM_DS3505
ZGGG,2002-10-08 19:00,ZGGG 081900Z AUTO 03010KT 6SM 18/08 A3006 RMK T01800080 IEM_DS3505
ZGGG,2002-10-08 20:00,ZGGG 082000Z AUTO 04010KT 6SM 17/08 A3006 RMK T01700080 IEM_DS3505
ZGGG,2002-10-08 21:00,ZGGG 082100Z AUTO 09004KT 9SM 20/07 A3006 RMK SLP182 T02000073 52004 IEM_DS3505
ZGGG,2002-10-08 22:00,ZGGG 082200Z AUTO 03008KT 6SM 17/07 A3009 RMK T01700070 IEM_DS3505
ZGGG,2002-10-08 23:00,ZGGG 082300Z AUTO 03010KT 6SM 18/07 A3012 RMK T01800070 IEM_DS3505
ZGGG,2002-10-09 00:00,ZGGG 090000Z AUTO 00000KT 11SM 21/10 A3012 RMK SLP203 T02070095 52021 IEM_DS3505
ZGGG,2002-10-09 01:00,ZGGG 090100Z AUTO 03012KT 6SM 22/07 A3015 RMK T02200070 IEM_DS3505
ZGGG,2002-10-09 02:00,ZGGG 090200Z AUTO 02012KT 6SM 23/08 A3015 RMK T02300080 IEM_DS3505
ZGGG,2002-10-09 03:00,ZGGG 090300Z AUTO 32006KT 13SM 25/09 A3015 RMK SLP206 T02470086 52003 IEM_DS3505
ZGGG,2002-10-09 04:00,ZGGG 090400Z AUTO 04010KT 6SM 25/08 A3009 RMK T02500080 IEM_DS3505
ZGGG,2002-10-09 05:00,ZGGG 090500Z AUTO 36008KT 6SM 26/08 A3006 RMK T02600080 IEM_DS3505
ZGGG,2002-10-09 06:00,ZGGG 090600Z AUTO 36006KT 16SM 27/08 A3003 RMK SLP173 T02730085 57033 IEM_DS3505
ZGGG,2002-10-09 07:00,ZGGG 090700Z AUTO 02008KT 6SM 28/07 A3000 RMK T02800070 IEM_DS3505
ZGGG,2002-10-09 08:00,ZGGG 090800Z AUTO 03006KT 6SM 27/08 A3000 RMK T02700080 IEM_DS3505
ZGGG,2002-10-09 09:00,ZGGG 090900Z AUTO 36006KT 15SM 27/09 A3003 RMK SLP166 T02720094 57007 IEM_DS3505
ZGGG,2002-10-09 10:00,ZGGG 091000Z AUTO 36006KT 6SM 26/07 A3003 RMK T02600070 IEM_DS3505
ZGGG,2002-10-09 11:00,ZGGG 091100Z AUTO 08004KT 6SM 23/11 A3003 RMK T02300110 IEM_DS3505
ZGGG,2002-10-09 12:00,ZGGG 091200Z AUTO 36002KT 12SM 22/12 A3006 RMK SLP180 T02220122 52014 IEM_DS3505
ZGGG,2002-10-09 13:00,ZGGG 091300Z AUTO 05006KT 6SM 22/11 A3006 RMK T02200110 IEM_DS3505
ZGGG,2002-10-09 14:00,ZGGG 091400Z AUTO 05006KT 6SM 19/12 A3009 RMK T01900120 IEM_DS3505
ZGGG,2002-10-09 15:00,ZGGG 091500Z AUTO 34002KT 12SM 20/13 A3009 RMK SLP185 T02040131 52005 IEM_DS3505
ZGGG,2002-10-09 16:00,ZGGG 091600Z AUTO 05008KT 6SM 19/12 A3006 RMK T01900120 IEM_DS3505
ZGGG,2002-10-09 17:00,ZGGG 091700Z AUTO 03008KT 6SM 20/11 A3006 RMK T02000110 IEM_DS3505
ZGGG,2002-10-09 18:00,ZGGG 091800Z AUTO 00000KT 11SM 18/12 A3006 RMK SLP178 T01840125 57007 IEM_DS3505
ZGGG,2002-10-09 19:00,ZGGG 091900Z AUTO 02006KT 6SM 20/10 A3006 RMK T02000100 IEM_DS3505
ZGGG,2002-10-09 20:00,ZGGG 092000Z AUTO 03008KT 6SM 18/10 A3006 RMK T01800100 IEM_DS3505
ZGGG,2002-10-09 21:00,ZGGG 092100Z AUTO 00000KT 9SM 17/12 A3006 RMK SLP176 T01720121 57002 IEM_DS3505
ZGGG,2002-10-09 22:00,ZGGG 092200Z AUTO 03008KT 6SM 18/11 A3009 RMK T01800110 IEM_DS3505
ZGGG,2002-10-09 23:00,ZGGG 092300Z AUTO 02006KT 6SM 18/10 A3009 RMK T01800100 IEM_DS3505
ZGGG,2002-10-10 00:00,ZGGG 100000Z AUTO 34004KT 9SM 20/11 A3009 RMK SLP193 T02050113 52017 IEM_DS3505
ZGGG,2002-10-10 02:00,ZGGG 100200Z AUTO 01008KT 6SM 23/10 A3012 RMK T02300100 IEM_DS3505
ZGGG,2002-10-10 03:00,ZGGG 100300Z AUTO 36006KT 10SM 26/12 A3012 RMK SLP193 T02600122 54000 IEM_DS3505
ZGGG,2002-10-10 04:00,ZGGG 100400Z AUTO 01008KT 5SM 26/12 A3009 RMK T02600120 IEM_DS3505
ZGGG,2002-10-10 05:00,ZGGG 100500Z AUTO 32008KT 5SM 27/11 A3006 RMK T02700110 IEM_DS3505
ZGGG,2002-10-10 06:00,ZGGG 100600Z AUTO 04006KT 11SM 29/13 A3000 RMK SLP161 T02900133 57032 IEM_DS3505
ZGGG,2002-10-10 07:00,ZGGG 100700Z AUTO 35006KT 6SM 28/11 A2997 RMK T02800110 IEM_DS3505
ZGGG,2002-10-10 08:00,ZGGG 100800Z AUTO 30006KT 6SM 28/09 A2997 RMK T02800090 IEM_DS3505
ZGGG,2002-10-10 09:00,ZGGG 100900Z AUTO 36006KT 12SM 28/10 A2997 RMK SLP148 T02800096 57013 IEM_DS3505
ZGGG,2002-10-10 10:00,ZGGG 101000Z AUTO 32004KT 6SM 27/08 A2997 RMK T02700080 IEM_DS3505
ZGGG,2002-10-10 11:00,ZGGG 101100Z AUTO 05004KT 6SM 24/12 A2997 RMK T02400120 IEM_DS3505
ZGGG,2002-10-10 12:00,ZGGG 101200Z AUTO 04002KT 11SM 22/14 A3000 RMK SLP157 T02220140 52009 IEM_DS3505
ZGGG,2002-10-10 13:00,ZGGG 101300Z AUTO 04004KT 6SM 23/11 A3003 RMK T02300110 IEM_DS3505
ZGGG,2002-10-10 14:00,ZGGG 101400Z AUTO 02002KT 6SM 22/12 A3003 RMK T02200120 IEM_DS3505
ZGGG,2002-10-10 15:00,ZGGG 101500Z AUTO 00000KT 11SM 20/14 A3003 RMK SLP167 T02030145 52010 IEM_DS3505
ZGGG,2002-10-10 16:00,ZGGG 101600Z AUTO 36004KT 6SM 19/13 A3000 RMK T01900130 IEM_DS3505
ZGGG,2002-10-10 17:00,ZGGG 101700Z AUTO 01006KT 6SM 18/13 A3000 RMK T01800130 IEM_DS3505
ZGGG,2002-10-10 18:00,ZGGG 101800Z AUTO 00000KT 9SM 20/14 A2997 RMK SLP154 T01950142 57013 IEM_DS3505
ZGGG,2002-10-10 19:00,ZGGG 101900Z AUTO 04002KT 6SM 19/14 A2997 RMK T01900140 IEM_DS3505
ZGGG,2002-10-10 20:00,ZGGG 102000Z AUTO 01004KT 6SM 18/13 A2997 RMK T01800130 IEM_DS3505
ZGGG,2002-10-10 21:00,ZGGG 102100Z AUTO 00000KT 9SM 19/15 A2997 RMK SLP148 T01860152 57006 IEM_DS3505
ZGGG,2002-10-10 22:00,ZGGG 102200Z AUTO 36006KT 6SM 18/13 A2997 RMK T01800130 IEM_DS3505
ZGGG,2002-10-10 23:00,ZGGG 102300Z AUTO 36006KT 4SM 18/13 A3000 RMK T01800130 IEM_DS3505
ZGGG,2002-10-11 00:00,ZGGG 110000Z AUTO 32002KT 10SM 21/15 A3000 RMK SLP159 T02120150 52011 IEM_DS3505
ZGGG,2002-10-11 01:00,ZGGG 110100Z AUTO 34006KT 5SM 23/13 A3000 RMK T02300130 IEM_DS3505
ZGGG,2002-10-11 03:00,ZGGG 110300Z AUTO 29006KT 11SM 27/15 A3000 RMK SLP157 T02710148 57002 IEM_DS3505
ZGGG,2002-10-11 04:00,ZGGG 110400Z AUTO 34006KT 5SM 27/13 A2997 RMK T02700130 IEM_DS3505
ZGGG,2002-10-11 05:00,ZGGG 110500Z AUTO 01006KT 5SM 28/12 A2994 RMK T02800120 IEM_DS3505
ZGGG,2002-10-11 06:00,ZGGG 110600Z AUTO 32004KT 14SM 30/15 A2991 RMK SLP125 T02960150 57031 IEM_DS3505
ZGGG,2002-10-11 07:00,ZGGG 110700Z AUTO 36006KT 5SM 29/13 A2988 RMK T02900130 IEM_DS3505
ZGGG,2002-10-11 08:00,ZGGG 110800Z AUTO 29004KT 5SM 29/13 A2985 RMK T02900130 IEM_DS3505
ZGGG,2002-10-11 09:00,ZGGG 110900Z AUTO 34002KT 12SM 29/15 A2985 RMK SLP114 T02900148 57011 IEM_DS3505
ZGGG,2002-10-11 10:00,ZGGG 111000Z AUTO 06002KT 5SM 27/14 A2985 RMK T02700140 IEM_DS3505
ZGGG,2002-10-11 11:00,ZGGG 111100Z AUTO 05002KT 5SM 26/14 A2988 RMK T02600140 IEM_DS3505
ZGGG,2002-10-11 12:00,ZGGG 111200Z AUTO 07002KT 11SM 24/18 RMK SLP122 T02420182 52007 IEM_DS3505
ZGGG,2002-10-11 15:00,ZGGG 111500Z AUTO 34002KT 10SM 23/17 RMK SLP124 T02310173 52003 IEM_DS3505
ZGGG,2002-10-11 18:00,ZGGG 111800Z AUTO 00000KT 9SM 22/17 RMK SLP118 T02190174 57006 IEM_DS3505
ZGGG,2002-10-11 21:00,ZGGG 112100Z AUTO 00000KT 8SM 21/17 RMK SLP121 T02120173 52003 IEM_DS3505
ZGGG,2002-10-12 00:00,ZGGG 120000Z AUTO 36004KT 10SM 23/17 A2994 RMK SLP137 T02310166 52015 IEM_DS3505
ZGGG,2002-10-12 01:00,ZGGG 120100Z AUTO 35008KT 5SM 24/16 A2994 RMK T02400160 IEM_DS3505
ZGGG,2002-10-12 02:00,ZGGG 120200Z AUTO 36008KT 3SM 26/17 A2994 RMK T02600170 IEM_DS3505
ZGGG,2002-10-12 03:00,ZGGG 120300Z AUTO 09004KT 11SM 29/18 A2991 RMK SLP135 T02940181 57001 IEM_DS3505
ZGGG,2002-10-12 04:00,ZGGG 120400Z AUTO 36008KT 29/17 A2991 RMK T02900170 IEM_DS3505
ZGGG,2002-10-12 05:00,ZGGG 120500Z AUTO 32006KT 29/18 A2988 RMK T02900180 IEM_DS3505
ZGGG,2002-10-12 06:00,ZGGG 120600Z AUTO 02004KT 11SM 31/19 A2985 RMK SLP114 T03140191 57021 IEM_DS3505
ZGGG,2002-10-12 07:00,ZGGG 120700Z AUTO 34004KT 6SM 31/18 A2985 RMK T03100180 IEM_DS3505
ZGGG,2002-10-12 07:30,ZGGG 120730Z AUTO 35006KT 7SM 31/18 A2985 RMK T03100180 IEM_DS3505
ZGGG,2002-10-12 08:00,ZGGG 120800Z AUTO 01006KT 7SM 31/18 A2985 RMK T03100180 IEM_DS3505
ZGGG,2002-10-12 09:00,ZGGG 120900Z AUTO 04002KT 11SM 31/20 A2985 RMK SLP112 T03090201 57002 IEM_DS3505
ZGGG,2002-10-12 10:00,ZGGG 121000Z AUTO 06004KT 6SM 29/19 A2985 RMK T02900190 IEM_DS3505
ZGGG,2002-10-12 11:00,ZGGG 121100Z AUTO 36002KT 29/19 A2985 RMK T02900190 IEM_DS3505
ZGGG,2002-10-12 12:00,ZGGG 121200Z AUTO 00000KT 9SM 27/21 RMK SLP121 T02720214 52009 IEM_DS3505
ZGGG,2002-10-12 13:00,ZGGG 121300Z AUTO 05004KT 27/19 A2988 RMK T02700190 IEM_DS3505
ZGGG,2002-10-12 14:00,ZGGG 121400Z AUTO 03002KT 27/19 A2991 RMK T02700190 IEM_DS3505
ZGGG,2002-10-12 15:00,ZGGG 121500Z AUTO 00000KT 11SM 27/22 A2991 RMK SLP124 T02660217 52003 IEM_DS3505
ZGGG,2002-10-12 16:00,ZGGG 121600Z AUTO 01004KT 26/20 A2988 RMK T02600200 IEM_DS3505
ZGGG,2002-10-12 17:00,ZGGG 121700Z AUTO 02006KT 26/19 A2988 RMK T02600190 IEM_DS3505
ZGGG,2002-10-12 18:00,ZGGG 121800Z AUTO 00000KT 10SM 26/20 A2988 RMK SLP116 T02560198 57008 IEM_DS3505
ZGGG,2002-10-12 19:00,ZGGG 121900Z AUTO 36004KT 5SM 25/18 A2985 RMK T02500180 IEM_DS3505
ZGGG,2002-10-12 20:00,ZGGG 122000Z AUTO 31004KT 6SM 27/18 A2985 RMK T02700180 IEM_DS3505
ZGGG,2002-10-12 21:00,ZGGG 122100Z AUTO 00000KT 8SM 25/19 A2988 RMK SLP118 T02540187 52002 IEM_DS3505
ZGGG,2002-10-12 22:00,ZGGG 122200Z AUTO 01006KT 6SM 24/18 A2988 RMK T02400180 IEM_DS3505
ZGGG,2002-10-12 23:00,ZGGG 122300Z AUTO 36006KT 6SM 24/18 A2991 RMK T02400180 IEM_DS3505
ZGGG,2002-10-13 00:00,ZGGG 130000Z AUTO 02002KT 9SM 26/19 RMK SLP137 T02550186 52019 IEM_DS3505
ZGGG,2002-10-13 01:00,ZGGG 130100Z AUTO 01006KT 27/17 A2994 RMK T02700170 IEM_DS3505
ZGGG,2002-10-13 02:00,ZGGG 130200Z AUTO 36008KT 27/17 A2997 RMK T02700170 IEM_DS3505
ZGGG,2002-10-13 03:00,ZGGG 130300Z AUTO 34006KT 9SM 28/19 A2997 RMK SLP142 T02760193 52005 IEM_DS3505
ZGGG,2002-10-13 04:00,ZGGG 130400Z AUTO 36006KT 5SM 29/18 A2994 RMK T02900180 IEM_DS3505
ZGGG,2002-10-13 05:00,ZGGG 130500Z AUTO 36006KT 5SM 29/18 A2991 RMK T02900180 IEM_DS3505
ZGGG,2002-10-13 06:00,ZGGG 130600Z AUTO 14004KT 9SM 30/19 A2988 RMK SLP123 T02990191 57019 IEM_DS3505
ZGGG,2002-10-13 07:00,ZGGG 130700Z AUTO 36006KT 5SM 29/18 A2988 RMK T02900180 IEM_DS3505
ZGGG,2002-10-13 08:00,ZGGG 130800Z AUTO 36006KT 5SM 30/18 A2988 RMK T03000180 IEM_DS3505
ZGGG,2002-10-13 09:00,ZGGG 130900Z AUTO 09002KT 10SM 30/20 A2988 RMK SLP118 T02980204 57005 IEM_DS3505
ZGGG,2002-10-13 10:00,ZGGG 131000Z AUTO 06004KT 29/19 A2988 RMK T02900190 IEM_DS3505
ZGGG,2002-10-13 11:00,ZGGG 131100Z AUTO 04004KT 5SM 28/19 A2991 RMK T02800190 IEM_DS3505
ZGGG,2002-10-13 12:00,ZGGG 131200Z AUTO 00000KT 10SM 27/22 A2991 RMK SLP133 T02710222 52015 IEM_DS3505
ZGGG,2002-10-13 13:00,ZGGG 131300Z AUTO 00000KT 27/19 A2994 RMK T02700190 IEM_DS3505
ZGGG,2002-10-13 14:00,ZGGG 131400Z AUTO 02002KT 26/19 A2994 RMK T02600190 IEM_DS3505
ZGGG,2002-10-13 15:00,ZGGG 131500Z AUTO 00000KT 9SM 25/22 A2994 RMK SLP144 T02470217 52011 IEM_DS3505
ZGGG,2002-10-13 16:00,ZGGG 131600Z AUTO 00000KT 27/20 A2994 RMK T02700200 IEM_DS3505
ZGGG,2002-10-13 17:00,ZGGG 131700Z AUTO 05002KT 26/20 A2994 RMK T02600200 IEM_DS3505
ZGGG,2002-10-13 18:00,ZGGG 131800Z AUTO 00000KT 8SM 25/21 A2994 RMK SLP138 T02470212 57006 IEM_DS3505
ZGGG,2002-10-13 19:00,ZGGG 131900Z AUTO 00000KT 3SM 25/20 A2991 RMK T02500200 IEM_DS3505
ZGGG,2002-10-13 20:00,ZGGG 132000Z AUTO 02002KT 3SM 24/21 A2991 RMK T02400210 IEM_DS3505
ZGGG,2002-10-13 21:00,ZGGG 132100Z AUTO 00000KT 6SM 24/21 A2994 RMK SLP138 T02350212 54000 IEM_DS3505
ZGGG,2002-10-13 22:00,ZGGG 132200Z AUTO 36004KT 3SM 23/21 A2994 RMK T02300210 IEM_DS3505
ZGGG,2002-10-13 23:00,ZGGG 132300Z AUTO 02004KT 2SM 24/21 A2997 RMK T02400210 IEM_DS3505
ZGGG,2002-10-14 00:00,ZGGG 140000Z AUTO 04002KT 3SM 25/22 A3000 RMK SLP156 T02500223 52018 IEM_DS3505
ZGGG,2002-10-14 01:00,ZGGG 140100Z AUTO 01004KT 2 1/2SM 27/21 A3000 RMK T02700210 IEM_DS3505
ZGGG,2002-10-14 02:00,ZGGG 140200Z AUTO 01004KT 3SM 28/20 A3000 RMK T02800200 IEM_DS3505
ZGGG,2002-10-14 03:00,ZGGG 140300Z AUTO 20004KT 6SM 29/20 A3000 RMK SLP160 T02930199 52004 IEM_DS3505
ZGGG,2002-10-14 04:00,ZGGG 140400Z AUTO 09004KT 29/19 A2997 RMK T02900190 IEM_DS3505
ZGGG,2002-10-14 05:00,ZGGG 140500Z AUTO 12004KT 31/19 A2994 RMK T03100190 IEM_DS3505
ZGGG,2002-10-14 06:00,ZGGG 140600Z AUTO 09004KT 7SM 31/20 A2991 RMK SLP133 T03140197 57027 IEM_DS3505
ZGGG,2002-10-14 07:00,ZGGG 140700Z AUTO 08004KT 31/19 A2991 RMK T03100190 IEM_DS3505
ZGGG,2002-10-14 08:00,ZGGG 140800Z AUTO 02004KT 31/19 A2991 RMK T03100190 IEM_DS3505
ZGGG,2002-10-14 09:00,ZGGG 140900Z AUTO 04004KT 31/20 A2991 RMK T03100200 IEM_DS3505
ZGGG,2002-10-14 10:00,ZGGG 141000Z AUTO 06004KT 29/21 A2991 RMK T02900210 IEM_DS3505
ZGGG,2002-10-14 11:00,ZGGG 141100Z AUTO 08004KT 29/21 A2994 RMK T02900210 IEM_DS3505
ZGGG,2002-10-14 12:00,ZGGG 141200Z AUTO 14002KT 9SM 28/21 A2994 RMK SLP146 T02850209 52015 IEM_DS3505
ZGGG,2002-10-14 13:00,ZGGG 141300Z AUTO 13006KT 29/20 A2997 RMK T02900200 IEM_DS3505
ZGGG,2002-10-14 14:00,ZGGG 141400Z AUTO 17004KT 6SM 28/19 A3000 RMK T02800190 IEM_DS3505
ZGGG,2002-10-14 14:30,ZGGG 141430Z AUTO 16004KT 6SM 28/19 A3000 RMK T02800190 IEM_DS3505
ZGGG,2002-10-14 15:00,ZGGG 141500Z AUTO 14004KT 9SM 27/20 A3000 RMK SLP157 T02660204 52011 IEM_DS3505
ZGGG,2002-10-14 15:30,ZGGG 141530Z AUTO 17004KT 6SM 27/20 A2997 RMK T02700200 IEM_DS3505
ZGGG,2002-10-14 16:00,ZGGG 141600Z AUTO 15004KT 5SM 26/21 A2997 RMK T02600210 IEM_DS3505
ZGGG,2002-10-14 17:00,ZGGG 141700Z AUTO 00000KT 4SM 26/21 A2997 RMK T02600210 IEM_DS3505
ZGGG,2002-10-14 18:00,ZGGG 141800Z AUTO 04002KT 7SM 25/22 A2997 RMK SLP148 T02480217 57009 IEM_DS3505
ZGGG,2002-10-14 19:00,ZGGG 141900Z AUTO 00000KT 4SM 24/21 A2997 RMK T02400210 IEM_DS3505
ZGGG,2002-10-14 20:00,ZGGG 142000Z AUTO 00000KT 4SM 24/21 A2994 RMK T02400210 IEM_DS3505
ZGGG,2002-10-14 21:00,ZGGG 142100Z AUTO 00000KT 7SM 24/22 A2997 RMK SLP149 T02390215 52001 IEM_DS3505
ZGGG,2002-10-14 22:00,ZGGG 142200Z AUTO 00000KT 4SM 23/21 A2997 RMK T02300210 IEM_DS3505
ZGGG,2002-10-14 23:00,ZGGG 142300Z AUTO 00000KT 2 1/2SM 23/21 A3000 RMK T02300210 IEM_DS3505
ZGGG,2002-10-15 00:00,ZGGG 150000Z AUTO 07004KT 6SM 25/22 A3003 RMK SLP166 T02500217 52017 IEM_DS3505
ZGGG,2002-10-15 01:00,ZGGG 150100Z AUTO 04002KT 2SM 27/21 A3003 RMK T02700210 IEM_DS3505
ZGGG,2002-10-15 02:00,ZGGG 150200Z AUTO 01002KT 2 1/2SM 28/21 A3003 RMK T02800210 IEM_DS3505
ZGGG,2002-10-15 03:00,ZGGG 150300Z AUTO 04004KT 7SM 30/22 A3003 RMK SLP169 T03020220 52003 IEM_DS3505
ZGGG,2002-10-15 04:00,ZGGG 150400Z AUTO 01004KT 3SM 31/21 A3000 RMK T03100210 IEM_DS3505
ZGGG,2002-10-15 05:00,ZGGG 150500Z AUTO 03006KT 3SM 31/21 A2997 RMK T03100210 IEM_DS3505
ZGGG,2002-10-15 06:00,ZGGG 150600Z AUTO 09004KT 10SM 32/22 A2994 RMK SLP144 T03200216 57025 IEM_DS3505
ZGGG,2002-10-15 07:00,ZGGG 150700Z AUTO 04006KT 31/21 A2994 RMK T03100210 IEM_DS3505
ZGGG,2002-10-15 08:00,ZGGG 150800Z AUTO 11004KT 3SM 31/21 A2991 RMK T03100210 IEM_DS3505
ZGGG,2002-10-15 09:00,ZGGG 150900Z AUTO 05002KT 3SM 31/21 A2991 RMK T03100210 IEM_DS3505
ZGGG,2002-10-15 10:00,ZGGG 151000Z AUTO 06002KT 2 1/2SM 29/21 A2994 RMK T02900210 IEM_DS3505
ZGGG,2002-10-15 11:00,ZGGG 151100Z AUTO 13004KT 2 1/2SM 29/22 A2994 RMK T02900220 IEM_DS3505
ZGGG,2002-10-15 12:00,ZGGG 151200Z AUTO 14004KT 7SM 28/22 A2997 RMK SLP154 T02850219 52019 IEM_DS3505
ZGGG,2002-10-15 13:00,ZGGG 151300Z AUTO 17006KT 28/21 A3000 RMK T02800210 IEM_DS3505
ZGGG,2002-10-15 14:00,ZGGG 151400Z AUTO 17006KT 4SM 27/22 A3000 RMK T02700220 IEM_DS3505
ZGGG,2002-10-15 15:00,ZGGG 151500Z AUTO 14002KT 7SM 27/22 A3000 RMK SLP164 T02680219 52010 IEM_DS3505
ZGGG,2002-10-15 16:00,ZGGG 151600Z AUTO 20004KT 27/21 A3000 RMK T02700210 IEM_DS3505
ZGGG,2002-10-15 17:00,ZGGG 151700Z AUTO 14002KT 27/21 A3000 RMK T02700210 IEM_DS3505
ZGGG,2002-10-15 18:00,ZGGG 151800Z AUTO 14002KT 7SM 26/23 A3000 RMK SLP158 T02580226 57006 IEM_DS3505
ZGGG,2002-10-15 19:00,ZGGG 151900Z AUTO 00000KT 4SM 26/22 A2997 RMK T02600220 IEM_DS3505
ZGGG,2002-10-15 20:00,ZGGG 152000Z AUTO 00000KT 4SM 25/22 A2997 RMK T02500220 IEM_DS3505
ZGGG,2002-10-15 21:00,ZGGG 152100Z AUTO 00000KT 6SM 25/23 A2997 RMK SLP151 T02470226 57007 IEM_DS3505
ZGGG,2002-10-15 22:00,ZGGG 152200Z AUTO 05004KT 2 1/2SM 24/22 A2997 RMK T02400220 IEM_DS3505
ZGGG,2002-10-15 23:00,ZGGG 152300Z AUTO 00000KT 2 1/2SM 24/22 A3000 RMK T02400220 IEM_DS3505
ZGGG,2002-10-16 00:00,ZGGG 160000Z AUTO 14004KT 3SM 25/22 A3000 RMK SLP165 T02500223 52014 IEM_DS3505
ZGGG,2002-10-16 01:00,ZGGG 160100Z AUTO 14006KT 2 1/2SM 26/21 A3003 RMK T02600210 IEM_DS3505
ZGGG,2002-10-16 02:00,ZGGG 160200Z AUTO 16006KT 27/21 A3003 RMK T02700210 IEM_DS3505
ZGGG,2002-10-16 03:00,ZGGG 160300Z AUTO 09004KT 9SM 29/21 A3000 RMK SLP164 T02890213 57001 IEM_DS3505
ZGGG,2002-10-16 04:00,ZGGG 160400Z AUTO 16008KT 3SM 29/21 A2997 RMK T02900210 IEM_DS3505
ZGGG,2002-10-16 05:00,ZGGG 160500Z AUTO 14004KT 29/20 A2994 RMK T02900200 IEM_DS3505
ZGGG,2002-10-16 06:00,ZGGG 160600Z AUTO 14004KT 13SM 30/20 A2991 RMK SLP136 T03010198 57028 IEM_DS3505
ZGGG,2002-10-16 07:00,ZGGG 160700Z AUTO 13006KT 7SM 30/19 A2991 RMK T03000190 IEM_DS3505
ZGGG,2002-10-16 09:00,ZGGG 160900Z AUTO 14004KT 14SM 30/19 A2991 RMK SLP129 T03010193 57007 IEM_DS3505
ZGGG,2002-10-16 10:00,ZGGG 161000Z AUTO 16006KT 6SM 29/18 A2991 RMK T02900180 IEM_DS3505
ZGGG,2002-10-16 11:00,ZGGG 161100Z AUTO 14004KT 6SM 29/19 A2991 RMK T02900190 IEM_DS3505
ZGGG,2002-10-16 12:00,ZGGG 161200Z AUTO 18006KT 11SM 28/21 A2991 RMK SLP136 T02780209 52007 IEM_DS3505
ZGGG,2002-10-16 13:00,ZGGG 161300Z AUTO 16004KT 6SM 27/20 A2994 RMK T02700200 IEM_DS3505
ZGGG,2002-10-16 14:00,ZGGG 161400Z AUTO 15006KT 6SM 27/21 A2994 RMK T02700210 IEM_DS3505
ZGGG,2002-10-16 15:00,ZGGG 161500Z AUTO 16002KT 10SM 27/22 A2994 RMK SLP144 T02700223 52008 IEM_DS3505
ZGGG,2002-10-16 16:00,ZGGG 161600Z AUTO 16006KT 6SM 27/21 A2994 RMK T02700210 IEM_DS3505
ZGGG,2002-10-16 17:00,ZGGG 161700Z AUTO 15006KT 6SM 27/21 A2991 RMK T02700210 IEM_DS3505
ZGGG,2002-10-16 18:00,ZGGG 161800Z AUTO 16004KT 8SM 26/22 A2991 RMK SLP129 T02620217 57015 IEM_DS3505
ZGGG,2002-10-16 19:00,ZGGG 161900Z AUTO 15006KT 6SM 26/22 A2988 RMK T02600220 IEM_DS3505
ZGGG,2002-10-16 20:00,ZGGG 162000Z AUTO 17004KT 6SM 26/22 A2988 RMK T02600220 IEM_DS3505
ZGGG,2002-10-16 21:00,ZGGG 162100Z AUTO 11002KT 8SM 25/22 A2988 RMK SLP122 T02510218 57007 IEM_DS3505
ZGGG,2002-10-16 22:00,ZGGG 162200Z AUTO 17004KT 4SM 26/22 A2988 RMK T02600220 IEM_DS3505
ZGGG,2002-10-16 23:00,ZGGG 162300Z AUTO 16004KT 3SM 26/22 A2988 RMK T02600220 IEM_DS3505
ZGGG,2002-10-17 00:00,ZGGG 170000Z AUTO 09004KT 6SM 25/23 A2991 RMK SLP126 T02520226 52004 IEM_DS3505
ZGGG,2002-10-17 01:00,ZGGG 170100Z AUTO 12002KT 2 1/2SM 26/22 A2991 RMK T02600220 IEM_DS3505
ZGGG,2002-10-17 02:00,ZGGG 170200Z AUTO 14004KT 2 1/2SM 27/23 A2991 RMK T02700230 IEM_DS3505
ZGGG,2002-10-17 05:00,ZGGG 170500Z AUTO 16010KT 7SM 28/22 A2983 RMK T02800220 IEM_DS3505
ZGGG,2002-10-17 06:00,ZGGG 170600Z AUTO 14006KT 12SM 29/23 A2983 RMK 60002 SLP101 T02940230 57032 IEM_DS3505
ZGGG,2002-10-17 08:00,ZGGG 170800Z AUTO 19012KT 7SM 28/21 A2980 RMK T02800210 IEM_DS3505
ZGGG,2002-10-17 09:00,ZGGG 170900Z AUTO 14006KT 11SM 28/22 A2980 RMK SLP093 T02820222 57008 IEM_DS3505
ZGGG,2002-10-17 10:00,ZGGG 171000Z AUTO 15006KT 3SM 28/22 A2980 RMK T02800220 IEM_DS3505
ZGGG,2002-10-17 11:00,ZGGG 171100Z AUTO 15008KT 7SM 27/23 A2983 RMK T02700230 IEM_DS3505
ZGGG,2002-10-17 12:00,ZGGG 171200Z AUTO 16006KT 9SM 27/23 A2983 RMK SLP103 T02700232 52010 IEM_DS3505
ZGGG,2002-10-17 13:00,ZGGG 171300Z AUTO 17008KT 7SM 27/23 A2985 RMK T02700230 IEM_DS3505
ZGGG,2002-10-17 14:00,ZGGG 171400Z AUTO 17010KT 7SM 27/22 A2985 RMK T02700220 IEM_DS3505
ZGGG,2002-10-17 15:00,ZGGG 171500Z AUTO 14006KT 11SM 26/23 A2985 RMK SLP114 T02640227 52011 IEM_DS3505
ZGGG,2002-10-17 16:00,ZGGG 171600Z AUTO 15004KT 7SM 26/22 A2985 RMK T02600220 IEM_DS3505
ZGGG,2002-10-17 17:00,ZGGG 171700Z AUTO 17004KT 7SM 26/22 A2983 RMK T02600220 IEM_DS3505
ZGGG,2002-10-17 18:00,ZGGG 171800Z AUTO 16004KT 10SM 26/23 A2983 RMK SLP101 T02560230 57013 IEM_DS3505
ZGGG,2002-10-17 19:00,ZGGG 171900Z AUTO 00000KT 7SM 26/23 A2983 RMK T02600230 IEM_DS3505
ZGGG,2002-10-17 20:00,ZGGG 172000Z AUTO 21002KT 7SM 25/22 A2980 RMK T02500220 IEM_DS3505
ZGGG,2002-10-17 21:00,ZGGG 172100Z AUTO 11002KT 9SM 25/23 A2980 RMK SLP096 T02500231 57005 IEM_DS3505
ZGGG,2002-10-17 22:00,ZGGG 172200Z AUTO 14002KT 7SM 25/23 A2983 RMK T02500230 IEM_DS3505
ZGGG,2002-10-17 23:00,ZGGG 172300Z AUTO 15004KT 4SM 26/23 A2985 RMK T02600230 IEM_DS3505
ZGGG,2002-10-18 00:00,ZGGG 180000Z AUTO 14002KT 6SM 26/24 A2985 RMK 70002 SLP114 T02570237 52018 IEM_DS3505
ZGGG,2002-10-18 01:00,ZGGG 180100Z AUTO 15006KT 2 1/2SM 27/23 A2988 RMK T02700230 IEM_DS3505
ZGGG,2002-10-18 02:00,ZGGG 180200Z AUTO 18006KT 2 1/2SM 28/23 A2988 RMK T02800230 IEM_DS3505
ZGGG,2002-10-18 03:00,ZGGG 180300Z AUTO 32004KT 7SM 29/23 A2985 RMK SLP114 T02920234 54000 IEM_DS3505
ZGGG,2002-10-18 04:00,ZGGG 180400Z AUTO 25004KT 3SM 29/23 A2983 RMK T02900230 IEM_DS3505
ZGGG,2002-10-18 05:00,ZGGG 180500Z AUTO 25006KT 31/22 A2980 RMK T03100220 IEM_DS3505
ZGGG,2002-10-18 06:00,ZGGG 180600Z AUTO 27004KT 11SM 32/23 RMK SLP086 T03210227 57027 IEM_DS3505
ZGGG,2002-10-18 07:00,ZGGG 180700Z AUTO 17008KT 31/22 A2974 RMK T03100220 IEM_DS3505
ZGGG,2002-10-18 08:00,ZGGG 180800Z AUTO 15006KT 5SM 31/22 A2977 RMK T03100220 IEM_DS3505
ZGGG,2002-10-18 09:00,ZGGG 180900Z AUTO 20004KT 11SM 30/23 A2977 RMK SLP082 T03020227 57005 IEM_DS3505
ZGGG,2002-10-18 10:00,ZGGG 181000Z AUTO 17006KT 29/23 A2977 RMK T02900230 IEM_DS3505
ZGGG,2002-10-18 11:00,ZGGG 181100Z AUTO 13002KT 7SM 28/23 A2980 RMK T02800230 IEM_DS3505
ZGGG,2002-10-18 12:00,ZGGG 181200Z AUTO 14002KT 9SM 28/24 A2980 RMK SLP096 T02800237 52014 IEM_DS3505
ZGGG,2002-10-18 13:00,ZGGG 181300Z AUTO 31010KT 7SM 27/22 A2983 RMK T02700220 IEM_DS3505
ZGGG,2002-10-18 14:00,ZGGG 181400Z AUTO 11002KT 2 1/2SM 22/22 A2988 RMK T02200220 IEM_DS3505
ZGGG,2002-10-18 15:00,ZGGG 181500Z AUTO 34002KT 12SM 24/23 A2985 RMK SLP112 T02420229 IEM_DS3505
ZGGG,2002-10-18 16:00,ZGGG 181600Z AUTO 06002KT 6SM 24/23 A2985 RMK T02400230 IEM_DS3505
ZGGG,2002-10-18 17:00,ZGGG 181700Z AUTO 02004KT 4SM 24/24 A2983 RMK T02400240 IEM_DS3505
ZGGG,2002-10-18 18:00,ZGGG 181800Z AUTO 32004KT 12SM 24/23 A2983 RMK 60102 SLP103 T02450227 57009 IEM_DS3505
ZGGG,2002-10-18 19:00,ZGGG 181900Z AUTO 04004KT 5SM 24/23 A2983 RMK T02400230 IEM_DS3505
ZGGG,2002-10-18 20:00,ZGGG 182000Z AUTO 06004KT 7SM 24/23 A2983 RMK T02400230 IEM_DS3505
ZGGG,2002-10-18 21:00,ZGGG 182100Z AUTO 00000KT 9SM 24/23 A2983 RMK 70102 SLP101 T02450230 57002 IEM_DS3505
ZGGG,2002-10-18 22:00,ZGGG 182200Z AUTO 02004KT 4SM 24/22 A2983 RMK T02400220 IEM_DS3505
ZGGG,2002-10-18 23:00,ZGGG 182300Z AUTO 00000KT 3SM 24/23 A2985 RMK T02400230 IEM_DS3505
ZGGG,2002-10-19 00:00,ZGGG 190000Z AUTO 07004KT 8SM 25/23 A2988 RMK 70102 SLP118 T02520229 52017 IEM_DS3505
ZGGG,2002-10-19 01:00,ZGGG 190100Z AUTO 01004KT 4SM 26/22 A2988 RMK T02600220 IEM_DS3505
ZGGG,2002-10-19 02:00,ZGGG 190200Z AUTO 08004KT 5SM 27/22 A2988 RMK T02700220 IEM_DS3505
ZGGG,2002-10-19 03:00,ZGGG 190300Z AUTO 09002KT 8SM 28/23 A2988 RMK SLP121 T02750230 52003 IEM_DS3505
ZGGG,2002-10-19 04:00,ZGGG 190400Z AUTO 07004KT 3SM 28/23 A2985 RMK T02800230 IEM_DS3505
ZGGG,2002-10-19 05:00,ZGGG 190500Z AUTO 32004KT 2 1/2SM 28/23 A2985 RMK T02800230 IEM_DS3505
ZGGG,2002-10-19 06:00,ZGGG 190600Z AUTO 04002KT 7SM 29/23 A2983 RMK SLP097 T02930229 57024 IEM_DS3505
ZGGG,2002-10-19 07:00,ZGGG 190700Z AUTO 05002KT 2 1/2SM 29/23 A2980 RMK T02900230 IEM_DS3505
ZGGG,2002-10-19 08:00,ZGGG 190800Z AUTO 01004KT 2 1/2SM 29/23 A2977 RMK T02900230 IEM_DS3505
ZGGG,2002-10-19 09:00,ZGGG 190900Z AUTO 00000KT 7SM 29/24 A2980 RMK SLP088 T02940235 57009 IEM_DS3505
ZGGG,2002-10-19 10:00,ZGGG 191000Z AUTO 04004KT 2 1/2SM 28/23 A2980 RMK T02800230 IEM_DS3505
ZGGG,2002-10-19 11:00,ZGGG 191100Z AUTO 04004KT 3SM 28/24 A2983 RMK T02800240 IEM_DS3505
ZGGG,2002-10-19 12:00,ZGGG 191200Z AUTO 00000KT 7SM 28/24 A2983 RMK SLP105 T02790242 52017 IEM_DS3505
ZGGG,2002-10-19 13:00,ZGGG 191300Z AUTO 13004KT 5SM 28/24 A2985 RMK T02800240 IEM_DS3505
ZGGG,2002-10-19 14:00,ZGGG 191400Z AUTO 10004KT 7SM 27/23 A2985 RMK T02700230 IEM_DS3505
ZGGG,2002-10-19 15:00,ZGGG 191500Z AUTO 11002KT 8SM 27/24 A2985 RMK SLP114 T02710245 52009 IEM_DS3505
ZGGG,2002-10-19 16:00,ZGGG 191600Z AUTO 11006KT 7SM 27/23 A2985 RMK T02700230 IEM_DS3505
ZGGG,2002-10-19 17:00,ZGGG 191700Z AUTO 12006KT 7SM 27/24 A2985 RMK T02700240 IEM_DS3505
ZGGG,2002-10-19 18:00,ZGGG 191800Z AUTO 14006KT 9SM 26/24 RMK SLP105 T02620236 57009 IEM_DS3505
ZGGG,2002-10-19 19:00,ZGGG 191900Z AUTO 12006KT 7SM 26/23 A2983 RMK T02600230 IEM_DS3505
ZGGG,2002-10-19 20:00,ZGGG 192000Z AUTO 14006KT 7SM 26/23 A2983 RMK T02600230 IEM_DS3505
ZGGG,2002-10-19 21:00,ZGGG 192100Z AUTO 14004KT 9SM 26/24 A2985 RMK SLP107 T02580235 52002 IEM_DS3505
ZGGG,2002-10-19 22:00,ZGGG 192200Z AUTO 16008KT 7SM 26/23 A2985 RMK T02600230 IEM_DS3505
ZGGG,2002-10-19 23:00,ZGGG 192300Z AUTO 16004KT 7SM 26/23 A2988 RMK T02600230 IEM_DS3505
ZGGG,2002-10-20 00:00,ZGGG 200000Z AUTO 18002KT 9SM 26/24 A2991 RMK SLP125 T02630238 52018 IEM_DS3505
ZGGG,2002-10-20 01:00,ZGGG 200100Z AUTO 18008KT 5SM 27/23 A2991 RMK T02700230 IEM_DS3505
ZGGG,2002-10-20 02:00,ZGGG 200200Z AUTO 16006KT 6SM 28/23 A2991 RMK T02800230 IEM_DS3505
ZGGG,2002-10-20 03:00,ZGGG 200300Z AUTO 14004KT 9SM 29/23 A2991 RMK SLP127 T02890234 52002 IEM_DS3505
ZGGG,2002-10-20 04:00,ZGGG 200400Z AUTO 20008KT 7SM 29/22 A2988 RMK T02900220 IEM_DS3505
ZGGG,2002-10-20 05:00,ZGGG 200500Z AUTO 22008KT 7SM 29/22 A2985 RMK T02900220 IEM_DS3505
ZGGG,2002-10-20 06:00,ZGGG 200600Z AUTO 20004KT 10SM 29/24 A2983 RMK SLP102 T02870237 57025 IEM_DS3505
ZGGG,2002-10-20 07:00,ZGGG 200700Z AUTO 18006KT 7SM 29/23 A2980 RMK T02900230 IEM_DS3505
ZGGG,2002-10-20 08:00,ZGGG 200800Z AUTO 20008KT 7SM 29/23 A2983 RMK T02900230 IEM_DS3505
ZGGG,2002-10-20 09:00,ZGGG 200900Z AUTO 18004KT 9SM 29/23 A2983 RMK SLP100 T02880232 57002 IEM_DS3505
ZGGG,2002-10-20 10:00,ZGGG 201000Z AUTO 21008KT 7SM 28/22 A2983 RMK T02800220 IEM_DS3505
ZGGG,2002-10-20 11:00,ZGGG 201100Z AUTO 21008KT 7SM 28/22 A2983 RMK T02800220 IEM_DS3505
ZGGG,2002-10-20 12:00,ZGGG 201200Z AUTO 00000KT 9SM 28/23 A2985 RMK 60000 SLP111 T02760231 52011 IEM_DS3505
ZGGG,2002-10-20 13:00,ZGGG 201300Z AUTO 21008KT 7SM 27/23 A2988 RMK T02700230 IEM_DS3505
ZGGG,2002-10-20 14:00,ZGGG 201400Z AUTO 21006KT 7SM 27/23 A2988 RMK T02700230 IEM_DS3505
ZGGG,2002-10-20 15:00,ZGGG 201500Z AUTO 00000KT 8SM 26/25 A2988 RMK SLP123 T02640247 52012 IEM_DS3505
ZGGG,2002-10-20 16:00,ZGGG 201600Z AUTO 01008KT 7SM 22/20 A2991 RMK T02200200 IEM_DS3505
ZGGG,2002-10-20 17:00,ZGGG 201700Z AUTO 01012KT 7SM 22/19 A2991 RMK T02200190 IEM_DS3505
ZGGG,2002-10-20 18:00,ZGGG 201800Z AUTO 36006KT 9SM 22/20 A2991 RMK 60035 SLP125 T02200195 52002 IEM_DS3505
ZGGG,2002-10-20 19:00,ZGGG 201900Z AUTO 36010KT 7SM 22/18 A2991 RMK T02200180 IEM_DS3505
ZGGG,2002-10-20 20:00,ZGGG 202000Z AUTO 33008KT 7SM 21/17 A2991 RMK T02100170 IEM_DS3505
ZGGG,2002-10-20 21:00,ZGGG 202100Z AUTO 02004KT 10SM 21/17 A2994 RMK 70037 SLP138 T02120168 52013 IEM_DS3505
ZGGG,2002-10-20 22:00,ZGGG 202200Z AUTO 35010KT 7SM 21/16 A2994 RMK T02100160 IEM_DS3505
ZGGG,2002-10-20 23:00,ZGGG 202300Z AUTO 35008KT 7SM 21/16 A2997 RMK T02100160 IEM_DS3505
ZGGG,2002-10-21 00:00,ZGGG 210000Z AUTO 02004KT 14SM 21/16 A3000 RMK 70037 SLP155 T02130162 52017 IEM_DS3505
ZGGG,2002-10-21 01:00,ZGGG 210100Z AUTO 35010KT 7SM 22/15 A3000 RMK T02200150 IEM_DS3505
ZGGG,2002-10-21 02:00,ZGGG 210200Z AUTO 36010KT 7SM 22/15 A3003 RMK T02200150 IEM_DS3505
ZGGG,2002-10-21 03:00,ZGGG 210300Z AUTO 04004KT 17SM 23/16 A3000 RMK SLP159 T02280163 52004 IEM_DS3505
ZGGG,2002-10-21 04:00,ZGGG 210400Z AUTO 36010KT 7SM 22/16 A3000 RMK T02200160 IEM_DS3505
ZGGG,2002-10-21 05:00,ZGGG 210500Z AUTO 01010KT 7SM 23/16 A2997 RMK T02300160 IEM_DS3505
ZGGG,2002-10-21 06:00,ZGGG 210600Z AUTO 36004KT 12SM 23/17 RMK SLP140 T02310166 57020 IEM_DS3505
ZGGG,2002-10-21 07:00,ZGGG 210700Z AUTO 35006KT 7SM 23/16 A2994 RMK T02300160 IEM_DS3505
ZGGG,2002-10-21 08:00,ZGGG 210800Z AUTO 33006KT 7SM 22/16 A2994 RMK T02200160 IEM_DS3505
ZGGG,2002-10-21 09:00,ZGGG 210900Z AUTO 32006KT 14SM 22/17 A2994 RMK SLP142 T02210169 52002 IEM_DS3505
ZGGG,2002-10-21 10:00,ZGGG 211000Z AUTO 34010KT 7SM 22/16 A2994 RMK T02200160 IEM_DS3505
ZGGG,2002-10-21 11:00,ZGGG 211100Z AUTO 34006KT 7SM 22/16 A2997 RMK T02200160 IEM_DS3505
ZGGG,2002-10-21 12:00,ZGGG 211200Z AUTO 34004KT 13SM 21/16 A3000 RMK SLP155 T02140161 52013 IEM_DS3505
ZGGG,2002-10-21 13:00,ZGGG 211300Z AUTO 35008KT 7SM 22/15 A3000 RMK T02200150 IEM_DS3505
ZGGG,2002-10-21 14:00,ZGGG 211400Z AUTO 36008KT 7SM 21/15 A3000 RMK T02100150 IEM_DS3505
ZGGG,2002-10-21 15:00,ZGGG 211500Z AUTO 02002KT 11SM 21/16 A3000 RMK SLP161 T02110162 52006 IEM_DS3505
ZGGG,2002-10-21 16:00,ZGGG 211600Z AUTO 04008KT 7SM 20/16 A3000 RMK T02000160 IEM_DS3505
ZGGG,2002-10-21 17:00,ZGGG 211700Z AUTO 36008KT 4SM 18/16 A3000 RMK T01800160 IEM_DS3505
ZGGG,2002-10-21 18:00,ZGGG 211800Z AUTO 36004KT 5SM 18/17 A3000 RMK 60004 SLP159 T01830170 57002 IEM_DS3505
ZGGG,2002-10-21 19:00,ZGGG 211900Z AUTO 01012KT 7SM 18/16 A3000 RMK T01800160 IEM_DS3505
ZGGG,2002-10-21 20:00,ZGGG 212000Z AUTO 35010KT 2 1/2SM 17/16 A3000 RMK T01700160 IEM_DS3505
ZGGG,2002-10-21 21:00,ZGGG 212100Z AUTO 34004KT 4SM 18/17 A3000 RMK 70009 SLP158 T01750167 57001 IEM_DS3505
ZGGG,2002-10-21 22:00,ZGGG 212200Z AUTO 34006KT 3SM 17/17 A3000 RMK T01700170 IEM_DS3505
ZGGG,2002-10-21 23:00,ZGGG 212300Z AUTO 34008KT 2 1/2SM 17/16 A3003 RMK T01700160 IEM_DS3505
ZGGG,2002-10-22 00:00,ZGGG 220000Z AUTO 36004KT 6SM 17/16 A3003 RMK 60051 70059 SLP175 T01700165 52017 IEM_DS3505
ZGGG,2002-10-22 02:00,ZGGG 220200Z AUTO 36010KT 7SM 18/16 A3006 RMK T01800160 IEM_DS3505
ZGGG,2002-10-22 03:00,ZGGG 220300Z AUTO 04002KT 13SM 20/18 A3003 RMK SLP171 T02020178 57004 IEM_DS3505
ZGGG,2002-10-22 04:00,ZGGG 220400Z AUTO 36006KT 7SM 20/17 A3003 RMK T02000170 IEM_DS3505
ZGGG,2002-10-22 05:00,ZGGG 220500Z AUTO 36008KT 7SM 20/17 A3000 RMK T02000170 IEM_DS3505
ZGGG,2002-10-22 06:00,ZGGG 220600Z AUTO 00000KT 9SM 21/18 A2997 RMK 60001 SLP146 T02070180 57025 IEM_DS3505
ZGGG,2002-10-22 07:00,ZGGG 220700Z AUTO 01006KT 7SM 21/17 A2994 RMK T02100170 IEM_DS3505
ZGGG,2002-10-22 09:00,ZGGG 220900Z AUTO 34004KT 8SM 20/18 RMK SLP146 T02040178 54000 IEM_DS3505
ZGGG,2002-10-22 10:00,ZGGG 221000Z AUTO 34008KT 2 1/2SM 19/17 A2997 RMK T01900170 IEM_DS3505
ZGGG,2002-10-22 11:00,ZGGG 221100Z AUTO 34008KT 3SM 18/17 A2997 RMK T01800170 IEM_DS3505
ZGGG,2002-10-22 12:00,ZGGG 221200Z AUTO 34006KT 6SM 18/17 A3000 RMK 60008 SLP156 T01840174 52009 IEM_DS3505
ZGGG,2002-10-22 13:00,ZGGG 221300Z AUTO 34008KT 4SM 18/17 A3000 RMK T01800170 IEM_DS3505
ZGGG,2002-10-22 14:00,ZGGG 221400Z AUTO 34008KT 2 1/2SM 18/17 A3003 RMK T01800170 IEM_DS3505
ZGGG,2002-10-22 15:00,ZGGG 221500Z AUTO 32006KT 4SM 18/17 A3003 RMK SLP170 T01760169 52014 IEM_DS3505
ZGGG,2002-10-22 16:00,ZGGG 221600Z AUTO 34008KT 3SM 17/17 A3003 RMK T01700170 IEM_DS3505
ZGGG,2002-10-22 17:00,ZGGG 221700Z AUTO 35010KT 2SM 17/17 A3003 RMK T01700170 IEM_DS3505
ZGGG,2002-10-22 18:00,ZGGG 221800Z AUTO 04004KT 2 1/2SM 17/16 A3003 RMK 60047 SLP165 T01720165 57004 IEM_DS3505
ZGGG,2002-10-22 19:00,ZGGG 221900Z AUTO 34008KT 4SM 17/16 A3003 RMK T01700160 IEM_DS3505
ZGGG,2002-10-22 20:00,ZGGG 222000Z AUTO 34008KT 1 1/2SM 17/17 A3003 RMK T01700170 IEM_DS3505
ZGGG,2002-10-22 21:00,ZGGG 222100Z AUTO 32004KT 2 1/2SM 16/16 A3003 RMK 70169 SLP166 T01650160 54000 IEM_DS3505
ZGGG,2002-10-22 22:00,ZGGG 222200Z AUTO 33006KT 4SM 17/17 A3003 RMK T01700170 IEM_DS3505
ZGGG,2002-10-22 23:00,ZGGG 222300Z AUTO 36006KT 7SM 17/16 A3006 RMK T01700160 IEM_DS3505
ZGGG,2002-10-23 00:00,ZGGG 230000Z AUTO 34006KT 12SM 16/15 A3009 RMK 60094 70149 SLP185 T01640154 52019 IEM_DS3505
ZGGG,2002-10-23 01:00,ZGGG 230100Z AUTO 33010KT 7SM 17/14 A3009 RMK T01700140 IEM_DS3505
ZGGG,2002-10-23 02:00,ZGGG 230200Z AUTO 35010KT 7SM 18/14 A3009 RMK T01800140 IEM_DS3505
ZGGG,2002-10-23 03:00,ZGGG 230300Z AUTO 34004KT 16SM 18/15 A3009 RMK SLP194 T01790146 52009 IEM_DS3505
ZGGG,2002-10-23 04:00,ZGGG 230400Z AUTO 35012KT 7SM 19/14 A3009 RMK T01900140 IEM_DS3505
ZGGG,2002-10-23 05:00,ZGGG 230500Z AUTO 33008KT 7SM 20/14 A3006 RMK T02000140 IEM_DS3505
ZGGG,2002-10-23 06:00,ZGGG 230600Z AUTO 04004KT 14SM 20/15 A3003 RMK SLP174 T01990148 57020 IEM_DS3505
ZGGG,2002-10-23 08:00,ZGGG 230800Z AUTO 35010KT 6SM 21/13 A3000 RMK T02100130 IEM_DS3505
ZGGG,2002-10-23 09:00,ZGGG 230900Z AUTO 02004KT 19SM 20/14 A3000 RMK SLP162 T02030141 57012 IEM_DS3505
ZGGG,2002-10-23 10:00,ZGGG 231000Z AUTO 34010KT 6SM 20/13 A3000 RMK T02000130 IEM_DS3505
ZGGG,2002-10-23 11:00,ZGGG 231100Z AUTO 35008KT 6SM 19/14 A3003 RMK T01900140 IEM_DS3505
ZGGG,2002-10-23 12:00,ZGGG 231200Z AUTO 36004KT 14SM 18/14 A3003 RMK SLP176 T01820135 52014 IEM_DS3505
ZGGG,2002-10-23 13:00,ZGGG 231300Z AUTO 34008KT 6SM 18/13 A3006 RMK T01800130 IEM_DS3505
ZGGG,2002-10-23 14:00,ZGGG 231400Z AUTO 34004KT 6SM 18/13 A3006 RMK T01800130 IEM_DS3505
ZGGG,2002-10-23 15:00,ZGGG 231500Z AUTO 02004KT 14SM 17/13 A3006 RMK SLP183 T01700129 IEM_DS3505
ZGGG,2002-10-23 16:00,ZGGG 231600Z AUTO 02006KT 6SM 16/13 A3009 RMK T01600130 IEM_DS3505
ZGGG,2002-10-23 17:00,ZGGG 231700Z AUTO 01006KT 6SM 16/13 A3006 RMK T01600130 IEM_DS3505
ZGGG,2002-10-23 18:00,ZGGG 231800Z AUTO 04002KT 11SM 16/13 A3006 RMK SLP183 T01600126 54000 IEM_DS3505
ZGGG,2002-10-23 19:00,ZGGG 231900Z AUTO 35006KT 6SM 17/12 A3006 RMK T01700120 IEM_DS3505
ZGGG,2002-10-23 20:00,ZGGG 232000Z AUTO 36008KT 6SM 16/12 A3009 RMK T01600120 IEM_DS3505
ZGGG,2002-10-23 21:00,ZGGG 232100Z AUTO 36004KT 9SM 16/12 A3009 RMK 70030 SLP185 T01580116 52002 IEM_DS3505
ZGGG,2002-10-23 22:00,ZGGG 232200Z AUTO 02004KT 6SM 16/12 A3009 RMK T01600120 IEM_DS3505
ZGGG,2002-10-23 23:00,ZGGG 232300Z AUTO 35006KT 6SM 16/11 A3012 RMK T01600110 IEM_DS3505
ZGGG,2002-10-24 00:00,ZGGG 240000Z AUTO 36004KT 11SM 17/11 A3012 RMK 70000 SLP199 T01670109 52014 IEM_DS3505
ZGGG,2002-10-24 02:00,ZGGG 240200Z AUTO 35008KT 6SM 19/11 A3015 RMK T01900110 IEM_DS3505
ZGGG,2002-10-24 03:00,ZGGG 240300Z AUTO 36006KT 12SM 20/12 A3012 RMK SLP200 T02000122 52001 IEM_DS3505
ZGGG,2002-10-24 04:00,ZGGG 240400Z AUTO 36008KT 6SM 21/12 A3009 RMK T02100120 IEM_DS3505
ZGGG,2002-10-24 05:00,ZGGG 240500Z AUTO 35006KT 6SM 22/13 A3006 RMK T02200130 IEM_DS3505
ZGGG,2002-10-24 06:00,ZGGG 240600Z AUTO 34002KT 14SM 24/14 A3003 RMK SLP166 T02360143 57033 IEM_DS3505
ZGGG,2002-10-24 07:00,ZGGG 240700Z AUTO 35004KT 6SM 23/13 A3000 RMK T02300130 IEM_DS3505
ZGGG,2002-10-24 08:00,ZGGG 240800Z AUTO 33004KT 6SM 23/14 A3000 RMK T02300140 IEM_DS3505
ZGGG,2002-10-24 09:00,ZGGG 240900Z AUTO 27002KT 11SM 24/16 A3000 RMK SLP156 T02420155 57010 IEM_DS3505
ZGGG,2002-10-24 10:00,ZGGG 241000Z AUTO 31004KT 6SM 23/14 A3000 RMK T02300140 IEM_DS3505
ZGGG,2002-10-24 11:00,ZGGG 241100Z AUTO 32006KT 6SM 22/15 A3000 RMK T02200150 IEM_DS3505
ZGGG,2002-10-24 12:00,ZGGG 241200Z AUTO 34004KT 11SM 21/16 A3003 RMK SLP172 T02100155 52015 IEM_DS3505
ZGGG,2002-10-24 13:00,ZGGG 241300Z AUTO 33006KT 6SM 21/14 A3006 RMK T02100140 IEM_DS3505
ZGGG,2002-10-24 14:00,ZGGG 241400Z AUTO 36006KT 6SM 19/14 A3006 RMK T01900140 IEM_DS3505
ZGGG,2002-10-24 15:00,ZGGG 241500Z AUTO 00000KT 11SM 19/16 A3006 RMK SLP177 T01900160 52006 IEM_DS3505
ZGGG,2002-10-24 16:00,ZGGG 241600Z AUTO 35004KT 7SM 19/15 A3006 RMK T01900150 IEM_DS3505
ZGGG,2002-10-24 17:00,ZGGG 241700Z AUTO 34006KT 5SM 20/14 A3006 RMK T02000140 IEM_DS3505
ZGGG,2002-10-24 18:00,ZGGG 241800Z AUTO 34004KT 11SM 20/16 A3006 RMK SLP179 T01960159 52002 IEM_DS3505
ZGGG,2002-10-24 19:00,ZGGG 241900Z AUTO 35006KT 5SM 20/15 A3006 RMK T02000150 IEM_DS3505
ZGGG,2002-10-24 20:00,ZGGG 242000Z AUTO 35006KT 7SM 19/14 A3006 RMK T01900140 IEM_DS3505
ZGGG,2002-10-24 21:00,ZGGG 242100Z AUTO 34006KT 9SM 19/16 A3009 RMK SLP181 T01940157 52002 IEM_DS3505
ZGGG,2002-10-24 22:00,ZGGG 242200Z AUTO 35006KT 7SM 19/15 A3009 RMK T01900150 IEM_DS3505
ZGGG,2002-10-24 23:00,ZGGG 242300Z AUTO 34006KT 5SM 19/14 A3012 RMK T01900140 IEM_DS3505
ZGGG,2002-10-25 00:00,ZGGG 250000Z AUTO 00000KT 10SM 20/16 A3012 RMK SLP201 T02010161 52020 IEM_DS3505
ZGGG,2002-10-25 02:00,ZGGG 250200Z AUTO 36006KT 5SM 22/16 A3015 RMK T02200160 IEM_DS3505
ZGGG,2002-10-25 03:00,ZGGG 250300Z AUTO 34002KT 10SM 24/17 A3012 RMK SLP201 T02360172 54000 IEM_DS3505
ZGGG,2002-10-25 04:00,ZGGG 250400Z AUTO 34004KT 6SM 23/16 A3012 RMK T02300160 IEM_DS3505
ZGGG,2002-10-25 05:00,ZGGG 250500Z AUTO 32004KT 5SM 24/17 A3009 RMK T02400170 IEM_DS3505
ZGGG,2002-10-25 06:00,ZGGG 250600Z AUTO 14004KT 11SM 27/18 A3003 RMK SLP172 T02680178 57029 IEM_DS3505
ZGGG,2002-10-25 07:00,ZGGG 250700Z AUTO 33004KT 27/18 A3003 RMK T02700180 IEM_DS3505
ZGGG,2002-10-25 08:00,ZGGG 250800Z AUTO 36004KT 5SM 27/18 A3000 RMK T02700180 IEM_DS3505
ZGGG,2002-10-25 09:00,ZGGG 250900Z AUTO 36004KT 11SM 27/19 A3003 RMK SLP167 T02680193 57005 IEM_DS3505
ZGGG,2002-10-25 11:00,ZGGG 251100Z AUTO 34002KT 5SM 24/18 A3006 RMK T02400180 IEM_DS3505
ZGGG,2002-10-25 12:00,ZGGG 251200Z AUTO 00000KT 11SM 24/19 A3006 RMK SLP186 T02350191 52019 IEM_DS3505
ZGGG,2002-10-25 13:00,ZGGG 251300Z AUTO 03002KT 24/18 A3009 RMK T02400180 IEM_DS3505
ZGGG,2002-10-25 15:00,ZGGG 251500Z AUTO 00000KT 10SM 23/20 A3012 RMK SLP197 T02260198 52011 IEM_DS3505
ZGGG,2002-10-25 18:00,ZGGG 251800Z AUTO 36004KT 9SM 22/19 RMK SLP184 T02200189 57013 IEM_DS3505
ZGGG,2002-10-25 21:00,ZGGG 252100Z AUTO 00000KT 8SM 21/19 A3006 RMK SLP182 T02130186 57002 IEM_DS3505
ZGGG,2002-10-25 22:00,ZGGG 252200Z AUTO 35006KT 6SM 22/17 A3009 RMK T02200170 IEM_DS3505
ZGGG,2002-10-26 00:00,ZGGG 260000Z AUTO 36004KT 9SM 22/16 A3012 RMK SLP198 T02210156 52016 IEM_DS3505
ZGGG,2002-10-26 17:00,ZGGG 261700Z AUTO 35008KT 6SM 19/09 A3009 RMK T01900090 IEM_DS3505
ZGGG,2002-10-26 18:00,ZGGG 261800Z AUTO 32004KT 9SM 19/11 A3009 RMK SLP181 T01890108 57009 IEM_DS3505
ZGGG,2002-10-26 19:00,ZGGG 261900Z AUTO 36010KT 6SM 19/11 A3006 RMK T01900110 IEM_DS3505
ZGGG,2002-10-26 20:00,ZGGG 262000Z AUTO 36008KT 19/09 A3006 RMK T01900090 IEM_DS3505
ZGGG,2002-10-26 21:00,ZGGG 262100Z AUTO 32002KT 9SM 19/11 A3003 RMK SLP172 T01900109 57009 IEM_DS3505
ZGGG,2002-10-26 22:00,ZGGG 262200Z AUTO 01008KT 6SM 19/11 A3003 RMK T01900110 IEM_DS3505
ZGGG,2002-10-26 23:00,ZGGG 262300Z AUTO 36006KT 6SM 19/11 A3006 RMK T01900110 IEM_DS3505
ZGGG,2002-10-27 00:00,ZGGG 270000Z AUTO 32002KT 9SM 19/12 A3006 RMK SLP183 T01940125 52011 IEM_DS3505
ZGGG,2002-10-27 01:00,ZGGG 270100Z AUTO 03006KT 6SM 21/12 A3009 RMK T02100120 IEM_DS3505
ZGGG,2002-10-27 02:00,ZGGG 270200Z AUTO 35004KT 6SM 22/12 A3006 RMK T02200120 IEM_DS3505
ZGGG,2002-10-27 03:00,ZGGG 270300Z AUTO 09004KT 11SM 23/14 A3006 RMK SLP180 T02260143 57003 IEM_DS3505
ZGGG,2002-10-27 07:00,ZGGG 270700Z AUTO 04002KT 7SM 25/16 A2997 RMK T02500160 IEM_DS3505
ZGGG,2002-10-27 09:00,ZGGG 270900Z AUTO 04004KT 10SM 25/17 A2997 RMK SLP151 T02470168 57004 IEM_DS3505
ZGGG,2002-10-27 10:00,ZGGG 271000Z AUTO 03006KT 23/16 A2997 RMK T02300160 IEM_DS3505
ZGGG,2002-10-27 11:00,ZGGG 271100Z AUTO 02006KT 6SM 23/16 A2997 RMK T02300160 IEM_DS3505
ZGGG,2002-10-27 12:00,ZGGG 271200Z AUTO 00000KT 9SM 23/18 A3000 RMK SLP158 T02300176 52007 IEM_DS3505
ZGGG,2002-10-27 13:00,ZGGG 271300Z AUTO 01002KT 7SM 23/16 A3000 RMK T02300160 IEM_DS3505
ZGGG,2002-10-27 14:00,ZGGG 271400Z AUTO 36004KT 4SM 22/17 A3000 RMK T02200170 IEM_DS3505
ZGGG,2002-10-27 15:00,ZGGG 271500Z AUTO 00000KT 9SM 22/18 A3000 RMK SLP162 T02210178 52004 IEM_DS3505
ZGGG,2002-10-27 16:00,ZGGG 271600Z AUTO 01006KT 4SM 22/17 A3000 RMK T02200170 IEM_DS3505
ZGGG,2002-10-27 18:00,ZGGG 271800Z AUTO 00000KT 7SM 22/18 RMK SLP151 T02200177 57011 IEM_DS3505
ZGGG,2002-10-27 21:00,ZGGG 272100Z AUTO 14002KT 7SM 22/18 RMK SLP146 T02180181 57005 IEM_DS3505
ZGGG,2002-10-28 00:00,ZGGG 280000Z AUTO 09002KT 6SM 22/18 A3000 RMK SLP159 T02180185 52013 IEM_DS3505
ZGGG,2002-10-28 01:00,ZGGG 280100Z AUTO 09004KT 2 1/2SM 22/18 A3000 RMK T02200180 IEM_DS3505
ZGGG,2002-10-28 02:00,ZGGG 280200Z AUTO 12004KT 2 1/2SM 23/18 A3000 RMK T02300180 IEM_DS3505
ZGGG,2002-10-28 03:00,ZGGG 280300Z AUTO 09004KT 5SM 24/19 A2997 RMK SLP153 T02380186 57006 IEM_DS3505
ZGGG,2002-10-28 04:00,ZGGG 280400Z AUTO 14004KT 2SM 25/18 A2997 RMK T02500180 IEM_DS3505
ZGGG,2002-10-28 06:00,ZGGG 280600Z AUTO 00000KT 4SM 26/20 A2991 RMK SLP131 T02570201 57021 IEM_DS3505
ZGGG,2002-10-28 07:00,ZGGG 280700Z AUTO 32004KT 1 1/2SM 24/19 A2991 RMK T02400190 IEM_DS3505
ZGGG,2002-10-28 08:00,ZGGG 280800Z AUTO 28004KT 1 1/2SM 24/19 A2991 RMK T02400190 IEM_DS3505
ZGGG,2002-10-28 09:00,ZGGG 280900Z AUTO 36002KT 2 1/2SM 24/20 A2991 RMK SLP128 T02430203 57004 IEM_DS3505
ZGGG,2002-10-28 10:00,ZGGG 281000Z AUTO 35002KT 1 1/2SM 24/19 A2991 RMK T02400190 IEM_DS3505
ZGGG,2002-10-28 11:00,ZGGG 281100Z AUTO 30004KT 2SM 24/19 A2991 RMK T02400190 IEM_DS3505
ZGGG,2002-10-28 12:00,ZGGG 281200Z AUTO 00000KT 2SM 24/21 A2994 RMK SLP140 T02390212 52012 IEM_DS3505
ZGGG,2002-10-28 13:00,ZGGG 281300Z AUTO 05004KT 2SM 23/20 A2997 RMK T02300200 IEM_DS3505
ZGGG,2002-10-28 14:00,ZGGG 281400Z AUTO 04002KT 2SM 23/20 A2997 RMK T02300200 IEM_DS3505
ZGGG,2002-10-28 15:00,ZGGG 281500Z AUTO 11004KT 7SM 24/20 A2994 RMK SLP142 T02400203 52002 IEM_DS3505
ZGGG,2002-10-28 16:00,ZGGG 281600Z AUTO 08004KT 3SM 24/20 A2994 RMK T02400200 IEM_DS3505
ZGGG,2002-10-28 17:00,ZGGG 281700Z AUTO 10004KT 4SM 24/19 A2994 RMK T02400190 IEM_DS3505
ZGGG,2002-10-28 18:00,ZGGG 281800Z AUTO 09002KT 4SM 24/20 A2991 RMK SLP132 T02370202 57009 IEM_DS3505
ZGGG,2002-10-28 19:00,ZGGG 281900Z AUTO 07002KT 4SM 23/20 A2991 RMK T02300200 IEM_DS3505
ZGGG,2002-10-28 20:00,ZGGG 282000Z AUTO 07004KT 4SM 23/20 A2991 RMK T02300200 IEM_DS3505
ZGGG,2002-10-28 21:00,ZGGG 282100Z AUTO 09004KT 5SM 23/20 A2991 RMK SLP126 T02300199 57006 IEM_DS3505
ZGGG,2002-10-28 22:00,ZGGG 282200Z AUTO 08004KT 4SM 23/19 A2991 RMK T02300190 IEM_DS3505
ZGGG,2002-10-28 23:00,ZGGG 282300Z AUTO 08006KT 4SM 23/19 A2991 RMK T02300190 IEM_DS3505
ZGGG,2002-10-29 00:00,ZGGG 290000Z AUTO 14006KT 6SM 23/20 A2994 RMK 60000 SLP138 T02340197 52011 IEM_DS3505
ZGGG,2002-10-29 01:00,ZGGG 290100Z AUTO 08006KT 3SM 24/19 A2994 RMK T02400190 IEM_DS3505
ZGGG,2002-10-29 02:00,ZGGG 290200Z AUTO 10006KT 3SM 26/20 A2994 RMK T02600200 IEM_DS3505
ZGGG,2002-10-29 03:00,ZGGG 290300Z AUTO 14006KT 6SM 26/21 A2994 RMK SLP136 T02640208 57001 IEM_DS3505
ZGGG,2002-10-29 04:00,ZGGG 290400Z AUTO 13008KT 2 1/2SM 27/21 A2991 RMK T02700210 IEM_DS3505
ZGGG,2002-10-29 05:00,ZGGG 290500Z AUTO 14006KT 2 1/2SM 26/21 A2991 RMK T02600210 IEM_DS3505
ZGGG,2002-10-29 06:00,ZGGG 290600Z AUTO 07002KT 2 1/2SM 25/22 A2988 RMK SLP121 T02480221 57015 IEM_DS3505
ZGGG,2002-10-29 07:00,ZGGG 290700Z AUTO 32002KT 1SM 24/22 A2988 RMK T02400220 IEM_DS3505
ZGGG,2002-10-29 08:00,ZGGG 290800Z AUTO 02004KT 1SM 23/22 A2988 RMK T02300220 IEM_DS3505
ZGGG,2002-10-29 09:00,ZGGG 290900Z AUTO 34002KT 2SM 24/23 A2988 RMK SLP122 T02390227 52001 IEM_DS3505
ZGGG,2002-10-29 10:00,ZGGG 291000Z AUTO 01012KT 2 1/2SM 20/19 A2991 RMK T02000190 IEM_DS3505
ZGGG,2002-10-29 11:00,ZGGG 291100Z AUTO 35008KT 5SM 20/19 A2991 RMK T02000190 IEM_DS3505
ZGGG,2002-10-29 12:00,ZGGG 291200Z AUTO 34004KT 2 1/2SM 21/20 A2994 RMK 60024 SLP134 T02100201 52011 IEM_DS3505
ZGGG,2002-10-29 13:00,ZGGG 291300Z AUTO 35008KT 7SM 20/18 A2994 RMK T02000180 IEM_DS3505
ZGGG,2002-10-29 14:00,ZGGG 291400Z AUTO 35010KT 7SM 20/18 A2994 RMK T02000180 IEM_DS3505
ZGGG,2002-10-29 15:00,ZGGG 291500Z AUTO 32002KT 2 1/2SM 20/20 A2997 RMK SLP144 T02040195 52010 IEM_DS3505
ZGGG,2002-10-29 17:00,ZGGG 291700Z AUTO 35008KT 5SM 19/18 A2994 RMK T01900180 IEM_DS3505
ZGGG,2002-10-29 18:00,ZGGG 291800Z AUTO 27002KT 2 1/2SM 20/20 A2994 RMK 60008 SLP137 T02050197 57007 IEM_DS3505
ZGGG,2002-10-29 19:00,ZGGG 291900Z AUTO 34008KT 5SM 19/18 A2994 RMK T01900180 IEM_DS3505
ZGGG,2002-10-29 20:00,ZGGG 292000Z AUTO 36006KT 4SM 19/18 A2994 RMK T01900180 IEM_DS3505
ZGGG,2002-10-29 21:00,ZGGG 292100Z AUTO 34002KT 2 1/2SM 20/19 A2991 RMK 70054 SLP130 T01960190 57007 IEM_DS3505
ZGGG,2002-10-29 22:00,ZGGG 292200Z AUTO 32006KT 7SM 19/18 A2994 RMK T01900180 IEM_DS3505
ZGGG,2002-10-29 23:00,ZGGG 292300Z AUTO 36008KT 3SM 19/18 A2997 RMK T01900180 IEM_DS3505
ZGGG,2002-10-30 00:00,ZGGG 300000Z AUTO 34006KT 2 1/2SM 19/19 A2997 RMK 60020 70055 SLP150 T01940186 52020 IEM_DS3505
ZGGG,2002-10-30 01:00,ZGGG 300100Z AUTO 35010KT 3SM 19/18 A3000 RMK T01900180 IEM_DS3505
ZGGG,2002-10-30 02:00,ZGGG 300200Z AUTO 36010KT 3SM 19/17 A3000 RMK T01900170 IEM_DS3505
ZGGG,2002-10-30 03:00,ZGGG 300300Z AUTO 32006KT 8SM 19/18 A3000 RMK SLP161 T01890181 52011 IEM_DS3505
ZGGG,2002-10-30 04:00,ZGGG 300400Z AUTO 33010KT 1 1/4SM 18/17 A3000 RMK T01800170 IEM_DS3505
ZGGG,2002-10-30 05:00,ZGGG 300500Z AUTO 35010KT 4SM 18/17 A2997 RMK T01800170 IEM_DS3505
ZGGG,2002-10-30 06:00,ZGGG 300600Z AUTO 36004KT 6SM 19/18 A2994 RMK 60004 SLP141 T01860180 57020 IEM_DS3505
ZGGG,2002-10-30 07:00,ZGGG 300700Z AUTO 33008KT 1 1/2SM 18/18 A2994 RMK T01800180 IEM_DS3505
ZGGG,2002-10-30 08:00,ZGGG 300800Z AUTO 34008KT 3SM 18/17 A2994 RMK T01800170 IEM_DS3505
ZGGG,2002-10-30 09:00,ZGGG 300900Z AUTO 34006KT 4SM 18/18 A2997 RMK SLP149 T01820175 52008 IEM_DS3505
ZGGG,2002-10-30 10:00,ZGGG 301000Z AUTO 33008KT 3SM 18/17 A2997 RMK T01800170 IEM_DS3505
ZGGG,2002-10-30 11:00,ZGGG 301100Z AUTO 33008KT 3SM 18/17 A3000 RMK T01800170 IEM_DS3505
ZGGG,2002-10-30 12:00,ZGGG 301200Z AUTO 32004KT 6SM 18/17 A3000 RMK 60067 SLP159 T01790171 52010 IEM_DS3505
ZGGG,2002-10-30 13:00,ZGGG 301300Z AUTO 33006KT 4SM 18/17 A3003 RMK T01800170 IEM_DS3505
ZGGG,2002-10-30 14:00,ZGGG 301400Z AUTO 32006KT 4SM 18/17 A3003 RMK T01800170 IEM_DS3505
ZGGG,2002-10-30 15:00,ZGGG 301500Z AUTO 32004KT 10SM 18/17 A3003 RMK SLP173 T01790172 52013 IEM_DS3505
ZGGG,2002-10-30 16:00,ZGGG 301600Z AUTO 33006KT 2SM 18/17 A3003 RMK T01800170 IEM_DS3505
ZGGG,2002-10-30 17:00,ZGGG 301700Z AUTO 33006KT 5SM 18/17 A3003 RMK T01800170 IEM_DS3505
ZGGG,2002-10-30 18:00,ZGGG 301800Z AUTO 36004KT 10SM 18/17 A3003 RMK 60004 SLP163 T01760166 57010 IEM_DS3505
ZGGG,2002-10-30 19:00,ZGGG 301900Z AUTO 34010KT 4SM 17/17 A3000 RMK T01700170 IEM_DS3505
ZGGG,2002-10-30 20:00,ZGGG 302000Z AUTO 34010KT 7SM 17/16 A3000 RMK T01700160 IEM_DS3505
ZGGG,2002-10-30 21:00,ZGGG 302100Z AUTO 32006KT 7SM 18/16 A3000 RMK 70078 SLP158 T01760164 57005 IEM_DS3505
ZGGG,2002-10-30 22:00,ZGGG 302200Z AUTO 34008KT 7SM 18/16 A3000 RMK T01800160 IEM_DS3505
ZGGG,2002-10-30 23:00,ZGGG 302300Z AUTO 35008KT 7SM 18/16 A3003 RMK T01800160 IEM_DS3505
ZGGG,2002-10-31 00:00,ZGGG 310000Z AUTO 36002KT 9SM 18/17 A3006 RMK 60001 70078 SLP177 T01790167 52019 IEM_DS3505
ZGGG,2002-10-31 01:00,ZGGG 310100Z AUTO 35006KT 7SM 19/16 A3006 RMK T01900160 IEM_DS3505
ZGGG,2002-10-31 02:00,ZGGG 310200Z AUTO 34008KT 7SM 19/16 A3009 RMK T01900160 IEM_DS3505
ZGGG,2002-10-31 03:00,ZGGG 310300Z AUTO 36004KT 12SM 21/17 A3006 RMK SLP177 T02090172 52001 IEM_DS3505
ZGGG,2002-10-31 04:00,ZGGG 310400Z AUTO 36008KT 7SM 22/16 A3003 RMK T02200160 IEM_DS3505
ZGGG,2002-10-31 05:00,ZGGG 310500Z AUTO 34006KT 7SM 23/17 A3003 RMK T02300170 IEM_DS3505
ZGGG,2002-10-31 06:00,ZGGG 310600Z AUTO 36006KT 14SM 24/18 A3000 RMK 60000 SLP156 T02380178 57021 IEM_DS3505
ZGGG,2002-10-31 07:00,ZGGG 310700Z AUTO 36008KT 7SM 24/18 A2997 RMK T02400180 IEM_DS3505
ZGGG,2002-10-31 08:00,ZGGG 310800Z AUTO 34008KT 7SM 24/17 A2997 RMK T02400170 IEM_DS3505
ZGGG,2002-10-31 09:00,ZGGG 310900Z AUTO 36004KT 16SM 24/18 A3000 RMK SLP148 T02360184 57008 IEM_DS3505
ZGGG,2002-10-31 10:00,ZGGG 311000Z AUTO 35006KT 7SM 23/17 A3000 RMK T02300170 IEM_DS3505
ZGGG,2002-10-31 11:00,ZGGG 311100Z AUTO 32006KT 7SM 23/17 A3000 RMK T02300170 IEM_DS3505
ZGGG,2002-10-31 12:00,ZGGG 311200Z AUTO 36004KT 12SM 22/18 A3003 RMK SLP169 T02180176 52021 IEM_DS3505
ZGGG,2002-10-31 13:00,ZGGG 311300Z AUTO 36008KT 6SM 22/16 A3003 RMK T02200160 IEM_DS3505
ZGGG,2002-10-31 14:00,ZGGG 311400Z AUTO 35008KT 6SM 21/16 A3006 RMK T02100160 IEM_DS3505
ZGGG,2002-10-31 15:00,ZGGG 311500Z AUTO 29006KT 12SM 20/17 A3006 RMK SLP174 T02020169 52005 IEM_DS3505
ZGGG,2002-10-31 16:00,ZGGG 311600Z AUTO 34008KT 6SM 21/16 A3006 RMK T02100160 IEM_DS3505
ZGGG,2002-10-31 17:00,ZGGG 311700Z AUTO 34010KT 6SM 20/16 A3006 RMK T02000160 IEM_DS3505
ZGGG,2002-10-31 18:00,ZGGG 311800Z AUTO 34010KT 6SM 20/16 A3006 RMK T02000160 IEM_DS3505
ZGGG,2002-10-31 19:00,ZGGG 311900Z AUTO 34008KT 6SM 19/16 A3003 RMK T01900160 IEM_DS3505
ZGGG,2002-10-31 20:00,ZGGG 312000Z AUTO 34008KT 6SM 19/16 A3006 RMK T01900160 IEM_DS3505
ZGGG,2002-10-31 21:00,ZGGG 312100Z AUTO 34002KT 9SM 18/16 A3006 RMK 70001 SLP177 T01850162 52004 IEM_DS3505
ZGGG,2002-10-31 22:00,ZGGG 312200Z AUTO 33006KT 6SM 19/15 A3009 RMK T01900150 IEM_DS3505
ZGGG,2002-10-31 23:00,ZGGG 312300Z AUTO 35006KT 6SM 19/15 A3009 RMK T01900150 IEM_DS3505
ZGGG,2002-11-01 00:00,ZGGG 010000Z AUTO 36004KT 10SM 20/16 A3012 RMK SLP198 T01950162 52021 IEM_DS3505
ZGGG,2002-11-01 01:00,ZGGG 010100Z AUTO 36008KT 6SM 21/16 A3012 RMK T02100160 IEM_DS3505
ZGGG,2002-11-01 02:00,ZGGG 010200Z AUTO 35012KT 7SM 22/15 A3015 RMK T02200150 IEM_DS3505
ZGGG,2002-11-01 03:00,ZGGG 010300Z AUTO 04006KT 13SM 25/16 A3012 RMK SLP201 T02480162 52003 IEM_DS3505
ZGGG,2002-11-01 04:00,ZGGG 010400Z AUTO 35010KT 7SM 24/15 A3009 RMK T02400150 IEM_DS3505
ZGGG,2002-11-01 05:00,ZGGG 010500Z AUTO 33010KT 7SM 23/16 A3009 RMK T02300160 IEM_DS3505
ZGGG,2002-11-01 06:00,ZGGG 010600Z AUTO 04006KT 16SM 24/16 A3006 RMK SLP175 T02420157 57026 IEM_DS3505
ZGGG,2002-11-01 07:00,ZGGG 010700Z AUTO 36014KT 7SM 24/14 A3006 RMK T02400140 IEM_DS3505
ZGGG,2002-11-01 08:00,ZGGG 010800Z AUTO 01014KT 7SM 24/15 A3006 RMK T02400150 IEM_DS3505
ZGGG,2002-11-01 09:00,ZGGG 010900Z AUTO 04004KT 15SM 23/15 A3006 RMK SLP183 T02280151 52008 IEM_DS3505
ZGGG,2002-11-01 10:00,ZGGG 011000Z AUTO 36010KT 7SM 23/14 A3009 RMK T02300140 IEM_DS3505
ZGGG,2002-11-01 11:00,ZGGG 011100Z AUTO 01010KT 7SM 21/15 A3012 RMK T02100150 IEM_DS3505
ZGGG,2002-11-01 12:00,ZGGG 011200Z AUTO 36004KT 13SM 21/15 A3012 RMK SLP202 T02120146 52019 IEM_DS3505
ZGGG,2002-11-01 13:00,ZGGG 011300Z AUTO 36008KT 7SM 21/14 A3015 RMK T02100140 IEM_DS3505
ZGGG,2002-11-01 14:00,ZGGG 011400Z AUTO 36008KT 6SM 19/14 A3018 RMK T01900140 IEM_DS3505
ZGGG,2002-11-01 15:00,ZGGG 011500Z AUTO 02004KT 11SM 20/13 A3018 RMK SLP217 T01970134 52015 IEM_DS3505
ZGGG,2002-11-01 16:00,ZGGG 011600Z AUTO 01010KT 6SM 18/14 A3018 RMK T01800140 IEM_DS3505
ZGGG,2002-11-01 17:00,ZGGG 011700Z AUTO 01008KT 6SM 17/13 A3018 RMK T01700130 IEM_DS3505
ZGGG,2002-11-01 18:00,ZGGG 011800Z AUTO 14002KT 10SM 18/13 A3018 RMK SLP220 T01830128 52003 IEM_DS3505
ZGGG,2002-11-01 19:00,ZGGG 011900Z AUTO 02004KT 6SM 17/13 A3018 RMK T01700130 IEM_DS3505
ZGGG,2002-11-01 20:00,ZGGG 012000Z AUTO 36004KT 6SM 17/13 RMK T01700130 IEM_DS3505
ZGGG,2002-11-01 21:00,ZGGG 012100Z AUTO 34004KT 9SM 17/13 A3018 RMK SLP215 T01720127 57006 IEM_DS3505
ZGGG,2002-11-01 22:00,ZGGG 012200Z AUTO 34008KT 6SM 17/12 A3018 RMK T01700120 IEM_DS3505
ZGGG,2002-11-01 23:00,ZGGG 012300Z AUTO 34008KT 6SM 17/12 A3021 RMK T01700120 IEM_DS3505
ZGGG,2002-11-02 00:00,ZGGG 020000Z AUTO 02004KT 17SM 19/12 A3021 RMK SLP232 T01860123 52017 IEM_DS3505
ZGGG,2002-11-02 01:00,ZGGG 020100Z AUTO 01010KT 6SM 19/12 A3024 RMK T01900120 IEM_DS3505
ZGGG,2002-11-02 02:00,ZGGG 020200Z AUTO 36016KT 7SM 21/12 A3024 RMK T02100120 IEM_DS3505
ZGGG,2002-11-02 03:00,ZGGG 020300Z AUTO 04006KT 12SM 22/13 A3024 RMK SLP233 T02190126 52002 IEM_DS3505
ZGGG,2002-11-02 04:00,ZGGG 020400Z AUTO 35014KT 7SM 22/11 A3021 RMK T02200110 IEM_DS3505
ZGGG,2002-11-02 05:00,ZGGG 020500Z AUTO 35014KT 7SM 23/12 A3018 RMK T02300120 IEM_DS3505
ZGGG,2002-11-02 06:00,ZGGG 020600Z AUTO 04008KT 12SM 22/12 A3015 RMK SLP207 T02240118 402320168 57026 IEM_DS3505
ZGGG,2002-11-02 07:00,ZGGG 020700Z AUTO 36012KT 6SM 23/12 A3015 RMK T02300120 IEM_DS3505
ZGGG,2002-11-02 08:00,ZGGG 020800Z AUTO 36012KT 6SM 22/11 A3015 RMK T02200110 IEM_DS3505
ZGGG,2002-11-02 09:00,ZGGG 020900Z AUTO 36006KT 11SM 21/12 A3015 RMK SLP208 T02100117 54000 IEM_DS3505
ZGGG,2002-11-02 10:00,ZGGG 021000Z AUTO 36010KT 6SM 20/11 A3018 RMK T02000110 IEM_DS3505
ZGGG,2002-11-02 11:00,ZGGG 021100Z AUTO 36010KT 6SM 20/11 A3018 RMK T02000110 IEM_DS3505
ZGGG,2002-11-02 12:00,ZGGG 021200Z AUTO 02002KT 12SM 19/11 A3021 RMK SLP225 T01860113 52017 IEM_DS3505
ZGGG,2002-11-02 13:00,ZGGG 021300Z AUTO 36006KT 6SM 17/11 A3021 RMK T01700110 IEM_DS3505
ZGGG,2002-11-02 14:00,ZGGG 021400Z AUTO 01008KT 6SM 17/11 A3024 RMK T01700110 IEM_DS3505
ZGGG,2002-11-02 15:00,ZGGG 021500Z AUTO 36002KT 11SM 18/11 A3024 RMK SLP237 T01760111 52012 IEM_DS3505
ZGGG,2002-11-02 16:00,ZGGG 021600Z AUTO 01010KT 4SM 16/12 A3024 RMK T01600120 IEM_DS3505
ZGGG,2002-11-02 17:00,ZGGG 021700Z AUTO 36010KT 17/10 A3021 RMK T01700100 IEM_DS3505
ZGGG,2002-11-02 18:00,ZGGG 021800Z AUTO 36004KT 10SM 17/09 A3021 RMK SLP228 T01680093 57009 IEM_DS3505
ZGGG,2002-11-02 19:00,ZGGG 021900Z AUTO 36008KT 16/09 A3021 RMK T01600090 IEM_DS3505
ZGGG,2002-11-02 20:00,ZGGG 022000Z AUTO 01012KT 4SM 15/10 A3021 RMK T01500100 IEM_DS3505
ZGGG,2002-11-02 21:00,ZGGG 022100Z AUTO 36006KT 10SM 16/08 A3021 RMK SLP231 T01630077 52003 IEM_DS3505
ZGGG,2002-11-02 22:00,ZGGG 022200Z AUTO 01008KT 4SM 14/09 A3024 RMK T01400090 IEM_DS3505
ZGGG,2002-11-02 23:00,ZGGG 022300Z AUTO 36008KT 16/09 A3027 RMK T01600090 IEM_DS3505
ZGGG,2002-11-03 00:00,ZGGG 030000Z AUTO 36004KT 9SM 16/09 A3030 RMK SLP254 T01650087 52023 IEM_DS3505
ZGGG,2002-11-03 01:00,ZGGG 030100Z AUTO 36012KT 5SM 18/09 A3030 RMK T01800090 IEM_DS3505
ZGGG,2002-11-03 02:00,ZGGG 030200Z AUTO 36016KT 6SM 20/08 A3033 RMK T02000080 IEM_DS3505
ZGGG,2002-11-03 03:00,ZGGG 030300Z AUTO 34008KT 10SM 21/08 A3030 RMK SLP262 T02110081 52008 IEM_DS3505
ZGGG,2002-11-03 04:00,ZGGG 030400Z AUTO 36014KT 6SM 22/04 A3027 RMK T02200040 IEM_DS3505
ZGGG,2002-11-03 05:00,ZGGG 030500Z AUTO 36014KT 6SM 24/04 A3024 RMK T02400040 IEM_DS3505
ZGGG,2002-11-03 06:00,ZGGG 030600Z AUTO 36006KT 11SM 25/07 A3021 RMK SLP230 T02470072 57031 IEM_DS3505
ZGGG,2002-11-03 07:00,ZGGG 030700Z AUTO 36014KT 6SM 25/03 A3021 RMK T02500030 IEM_DS3505
ZGGG,2002-11-03 08:00,ZGGG 030800Z AUTO 36012KT 6SM 25/03 A3018 RMK T02500030 IEM_DS3505
ZGGG,2002-11-03 09:00,ZGGG 030900Z AUTO 36006KT 11SM 24/04 A3018 RMK SLP221 T02360038 57010 IEM_DS3505
ZGGG,2002-11-03 10:00,ZGGG 031000Z AUTO 01010KT 6SM 21/02 A3021 RMK T02100020 IEM_DS3505
ZGGG,2002-11-03 11:00,ZGGG 031100Z AUTO 01006KT 6SM 19/03 A3024 RMK T01900030 IEM_DS3505
ZGGG,2002-11-03 12:00,ZGGG 031200Z AUTO 04002KT 10SM 20/03 A3027 RMK SLP247 T02050031 52026 IEM_DS3505
ZGGG,2002-11-03 13:00,ZGGG 031300Z AUTO 36006KT 6SM 19/03 A3027 RMK T01900030 IEM_DS3505
ZGGG,2002-11-03 14:00,ZGGG 031400Z AUTO 02004KT 6SM 19/04 A3027 RMK T01900040 IEM_DS3505
ZGGG,2002-11-03 15:00,ZGGG 031500Z AUTO 02002KT 9SM 17/07 A3030 RMK SLP255 T01680074 52008 IEM_DS3505
ZGGG,2002-11-03 16:00,ZGGG 031600Z AUTO 03006KT 6SM 17/07 A3027 RMK T01700070 IEM_DS3505
ZGGG,2002-11-03 17:00,ZGGG 031700Z AUTO 01006KT 6SM 16/07 A3027 RMK T01600070 IEM_DS3505
ZGGG,2002-11-03 18:00,ZGGG 031800Z AUTO 36004KT 9SM 18/04 A3024 RMK SLP242 T01790038 57012 IEM_DS3505
ZGGG,2002-11-03 19:00,ZGGG 031900Z AUTO 01006KT 6SM 15/07 A3024 RMK T01500070 IEM_DS3505
ZGGG,2002-11-03 20:00,ZGGG 032000Z AUTO 35006KT 6SM 15/06 A3024 RMK T01500060 IEM_DS3505
ZGGG,2002-11-03 21:00,ZGGG 032100Z AUTO 34004KT 9SM 16/04 A3024 RMK SLP241 T01620039 57002 IEM_DS3505
ZGGG,2002-11-03 22:00,ZGGG 032200Z AUTO 00000KT 6SM 15/07 A3027 RMK T01500070 IEM_DS3505
ZGGG,2002-11-03 23:00,ZGGG 032300Z AUTO 03004KT 6SM 14/06 A3027 RMK T01400060 IEM_DS3505
ZGGG,2002-11-04 00:00,ZGGG 040000Z AUTO 36004KT 13SM 17/04 A3030 RMK SLP264 T01690043 52023 IEM_DS3505
ZGGG,2002-11-04 01:00,ZGGG 040100Z AUTO 36012KT 6SM 18/03 A3033 RMK T01800030 IEM_DS3505
ZGGG,2002-11-04 02:00,ZGGG 040200Z AUTO 36012KT 6SM 19/01 A3030 RMK T01900010 IEM_DS3505
ZGGG,2002-11-04 03:00,ZGGG 040300Z AUTO 36006KT 14SM 21/02 A3030 RMK SLP260 T02060020 57004 IEM_DS3505
ZGGG,2002-11-04 04:00,ZGGG 040400Z AUTO 36010KT 6SM 22/M01 A3027 RMK T02201010 IEM_DS3505
ZGGG,2002-11-04 05:00,ZGGG 040500Z AUTO 36010KT 6SM 22/00 A3024 RMK T02200000 IEM_DS3505
ZGGG,2002-11-04 06:00,ZGGG 040600Z AUTO 32004KT 14SM 23/01 A3021 RMK SLP229 T02270010 57031 IEM_DS3505
ZGGG,2002-11-04 07:00,ZGGG 040700Z AUTO 36008KT 6SM 22/01 A3018 RMK T02200010 IEM_DS3505
ZGGG,2002-11-04 08:00,ZGGG 040800Z AUTO 35010KT 6SM 22/M01 A3018 RMK T02201010 IEM_DS3505
ZGGG,2002-11-04 09:00,ZGGG 040900Z AUTO 36006KT 11SM 22/04 A3018 RMK SLP223 T02200042 57006 IEM_DS3505
ZGGG,2002-11-04 10:00,ZGGG 041000Z AUTO 02008KT 6SM 20/01 A3018 RMK T02000010 IEM_DS3505
ZGGG,2002-11-04 11:00,ZGGG 041100Z AUTO 02006KT 6SM 19/04 A3021 RMK T01900040 IEM_DS3505
ZGGG,2002-11-04 12:00,ZGGG 041200Z AUTO 00000KT 13SM 17/06 A3024 RMK SLP237 T01680059 52014 IEM_DS3505
ZGGG,2002-11-04 13:00,ZGGG 041300Z AUTO 03006KT 6SM 17/06 A3024 RMK T01700060 IEM_DS3505
ZGGG,2002-11-04 14:00,ZGGG 041400Z AUTO 36004KT 6SM 16/06 A3027 RMK T01600060 IEM_DS3505
ZGGG,2002-11-04 15:00,ZGGG 041500Z AUTO 00000KT 11SM 15/07 A3024 RMK SLP245 T01490072 52008 IEM_DS3505
ZGGG,2002-11-04 16:00,ZGGG 041600Z AUTO 36004KT 6SM 16/03 A3024 RMK T01600030 IEM_DS3505
ZGGG,2002-11-04 17:00,ZGGG 041700Z AUTO 36006KT 6SM 13/05 A3024 RMK T01300050 IEM_DS3505
ZGGG,2002-11-04 18:00,ZGGG 041800Z AUTO 00000KT 10SM 14/07 A3021 RMK SLP234 T01380070 57011 IEM_DS3505
ZGGG,2002-11-04 19:00,ZGGG 041900Z AUTO 36002KT 6SM 14/05 A3021 RMK T01400050 IEM_DS3505
ZGGG,2002-11-04 20:00,ZGGG 042000Z AUTO 36004KT 6SM 14/04 A3018 RMK T01400040 IEM_DS3505
ZGGG,2002-11-04 21:00,ZGGG 042100Z AUTO 34002KT 9SM 14/06 A3021 RMK SLP225 T01390059 57009 IEM_DS3505
ZGGG,2002-11-04 22:00,ZGGG 042200Z AUTO 36004KT 6SM 13/05 A3021 RMK T01300050 IEM_DS3505
ZGGG,2002-11-04 23:00,ZGGG 042300Z AUTO 03004KT 6SM 13/04 A3021 RMK T01300040 IEM_DS3505
ZGGG,2002-11-05 00:00,ZGGG 050000Z AUTO 34002KT 9SM 16/06 A3024 RMK SLP236 T01600064 52011 IEM_DS3505
ZGGG,2002-11-05 01:00,ZGGG 050100Z AUTO 02008KT 6SM 18/02 A3024 RMK T01800020 IEM_DS3505
ZGGG,2002-11-05 02:00,ZGGG 050200Z AUTO 31006KT 6SM 19/02 A3024 RMK T01900020 IEM_DS3505
ZGGG,2002-11-05 03:00,ZGGG 050300Z AUTO 07006KT 14SM 22/04 A3021 RMK SLP231 T02220039 57005 IEM_DS3505
ZGGG,2002-11-05 04:00,ZGGG 050400Z AUTO 35006KT 6SM 22/03 A3018 RMK T02200030 IEM_DS3505
ZGGG,2002-11-05 05:00,ZGGG 050500Z AUTO 32006KT 6SM 23/04 A3015 RMK T02300040 IEM_DS3505
ZGGG,2002-11-05 06:00,ZGGG 050600Z AUTO 36004KT 12SM 25/05 A3012 RMK SLP202 T02470046 57029 IEM_DS3505
ZGGG,2002-11-05 07:00,ZGGG 050700Z AUTO 04004KT 6SM 24/04 A3009 RMK T02400040 IEM_DS3505
ZGGG,2002-11-05 08:00,ZGGG 050800Z AUTO 02004KT 6SM 24/04 A3009 RMK T02400040 IEM_DS3505
ZGGG,2002-11-05 09:00,ZGGG 050900Z AUTO 04004KT 12SM 24/04 A3009 RMK SLP195 T02380036 57007 IEM_DS3505
ZGGG,2002-11-05 10:00,ZGGG 051000Z AUTO 07004KT 6SM 21/08 A3012 RMK T02100080 IEM_DS3505
ZGGG,2002-11-05 11:00,ZGGG 051100Z AUTO 02002KT 6SM 19/06 A3012 RMK T01900060 IEM_DS3505
ZGGG,2002-11-05 12:00,ZGGG 051200Z AUTO 09002KT 11SM 18/10 A3012 RMK SLP205 T01780097 52010 IEM_DS3505
ZGGG,2002-11-05 13:00,ZGGG 051300Z AUTO 00000KT 6SM 18/07 A3015 RMK T01800070 IEM_DS3505
ZGGG,2002-11-05 14:00,ZGGG 051400Z AUTO 00000KT 6SM 17/06 A3015 RMK T01700060 IEM_DS3505
ZGGG,2002-11-05 15:00,ZGGG 051500Z AUTO 04002KT 11SM 16/09 A3015 RMK SLP212 T01590089 52007 IEM_DS3505
ZGGG,2002-11-05 16:00,ZGGG 051600Z AUTO 10004KT 19/07 A3015 RMK T01900070 IEM_DS3505
ZGGG,2002-11-05 17:00,ZGGG 051700Z AUTO 14002KT 18/08 A3015 RMK T01800080 IEM_DS3505
ZGGG,2002-11-05 18:00,ZGGG 051800Z AUTO 04002KT 9SM 15/11 A3015 RMK SLP206 T01520113 57006 IEM_DS3505
ZGGG,2002-11-05 19:00,ZGGG 051900Z AUTO 03006KT 4SM 15/11 A3012 RMK T01500110 IEM_DS3505
ZGGG,2002-11-05 20:00,ZGGG 052000Z AUTO 03004KT 4SM 14/11 A3012 RMK T01400110 IEM_DS3505
ZGGG,2002-11-05 21:00,ZGGG 052100Z AUTO 00000KT 7SM 15/12 A3012 RMK SLP198 T01490121 57008 IEM_DS3505
ZGGG,2002-11-05 22:00,ZGGG 052200Z AUTO 03004KT 4SM 15/11 A3015 RMK T01500110 IEM_DS3505
ZGGG,2002-11-05 23:00,ZGGG 052300Z AUTO 01004KT 4SM 13/11 A3015 RMK T01300110 IEM_DS3505
ZGGG,2002-11-06 00:00,ZGGG 060000Z AUTO 00000KT 11SM 18/13 A3015 RMK SLP215 T01760126 52017 IEM_DS3505
ZGGG,2002-11-06 01:00,ZGGG 060100Z AUTO 32004KT 5SM 19/07 A3018 RMK T01900070 IEM_DS3505
ZGGG,2002-11-06 02:00,ZGGG 060200Z AUTO 34006KT 5SM 21/07 A3018 RMK T02100070 IEM_DS3505
ZGGG,2002-11-06 03:00,ZGGG 060300Z AUTO 36004KT 11SM 24/11 A3018 RMK SLP216 T02400114 52001 IEM_DS3505
ZGGG,2002-11-06 05:00,ZGGG 060500Z AUTO 35006KT 5SM 24/09 RMK T02400090 IEM_DS3505
ZGGG,2002-11-06 06:00,ZGGG 060600Z AUTO 34002KT 12SM 26/08 A3009 RMK SLP186 T02620075 57029 IEM_DS3505
ZGGG,2002-11-06 07:00,ZGGG 060700Z AUTO 34004KT 6SM 26/08 A3006 RMK T02600080 IEM_DS3505
ZGGG,2002-11-06 08:00,ZGGG 060800Z AUTO 34004KT 6SM 26/07 A3006 RMK T02600070 IEM_DS3505
ZGGG,2002-11-06 09:00,ZGGG 060900Z AUTO 02002KT 11SM 25/08 A3006 RMK SLP179 T02540084 57007 IEM_DS3505
ZGGG,2002-11-06 10:00,ZGGG 061000Z AUTO 06006KT 6SM 23/09 A3006 RMK T02300090 IEM_DS3505
ZGGG,2002-11-06 11:00,ZGGG 061100Z AUTO 04004KT 6SM 21/09 A3009 RMK T02100090 IEM_DS3505
ZGGG,2002-11-06 12:00,ZGGG 061200Z AUTO 00000KT 11SM 19/12 A3009 RMK SLP196 T01940123 52016 IEM_DS3505
ZGGG,2002-11-06 13:00,ZGGG 061300Z AUTO 05002KT 6SM 19/10 A3012 RMK T01900100 IEM_DS3505
ZGGG,2002-11-06 14:00,ZGGG 061400Z AUTO 02002KT 6SM 19/11 A3012 RMK T01900110 IEM_DS3505
ZGGG,2002-11-06 15:00,ZGGG 061500Z AUTO 00000KT 10SM 18/13 A3012 RMK SLP203 T01760126 52008 IEM_DS3505
ZGGG,2002-11-06 16:00,ZGGG 061600Z AUTO 01002KT 6SM 18/11 A3012 RMK T01800110 IEM_DS3505
ZGGG,2002-11-06 17:00,ZGGG 061700Z AUTO 02004KT 6SM 17/11 A3012 RMK T01700110 IEM_DS3505
ZGGG,2002-11-06 18:00,ZGGG 061800Z AUTO 00000KT 9SM 16/12 A3009 RMK SLP194 T01630121 57009 IEM_DS3505
ZGGG,2002-11-06 19:00,ZGGG 061900Z AUTO 02006KT 6SM 15/12 A3009 RMK T01500120 IEM_DS3505
ZGGG,2002-11-06 20:00,ZGGG 062000Z AUTO 01006KT 6SM 15/11 A3009 RMK T01500110 IEM_DS3505
ZGGG,2002-11-06 21:00,ZGGG 062100Z AUTO 34002KT 9SM 16/11 A3009 RMK SLP191 T01580107 57003 IEM_DS3505
ZGGG,2002-11-06 22:00,ZGGG 062200Z AUTO 34004KT 6SM 16/11 A3009 RMK T01600110 IEM_DS3505
ZGGG,2002-11-06 23:00,ZGGG 062300Z AUTO 36004KT 6SM 15/11 A3012 RMK T01500110 IEM_DS3505
ZGGG,2002-11-07 00:00,ZGGG 070000Z AUTO 32002KT 12SM 19/12 A3012 RMK SLP203 T01890123 52011 IEM_DS3505
ZGGG,2002-11-07 02:00,ZGGG 070200Z AUTO 34006KT 22/10 A3015 RMK T02200100 IEM_DS3505
ZGGG,2002-11-07 03:00,ZGGG 070300Z AUTO 34004KT 12SM 25/12 A3015 RMK SLP206 T02530116 52004 IEM_DS3505
ZGGG,2002-11-07 04:00,ZGGG 070400Z AUTO 36008KT 5SM 26/09 A3012 RMK T02600090 IEM_DS3505
ZGGG,2002-11-07 05:00,ZGGG 070500Z AUTO 36004KT 6SM 27/10 A3006 RMK T02700100 IEM_DS3505
ZGGG,2002-11-07 06:00,ZGGG 070600Z AUTO 29004KT 12SM 28/11 A3006 RMK SLP178 T02830108 57028 IEM_DS3505
ZGGG,2002-11-07 07:00,ZGGG 070700Z AUTO 36006KT 6SM 28/06 A3003 RMK T02800060 IEM_DS3505
ZGGG,2002-11-07 08:00,ZGGG 070800Z AUTO 36008KT 6SM 28/07 A3003 RMK T02800070 IEM_DS3505
ZGGG,2002-11-07 09:00,ZGGG 070900Z AUTO 36002KT 12SM 27/11 A3003 RMK SLP172 T02710107 57006 IEM_DS3505
ZGGG,2002-11-07 10:00,ZGGG 071000Z AUTO 35006KT 6SM 26/09 A3003 RMK T02600090 IEM_DS3505
ZGGG,2002-11-07 11:00,ZGGG 071100Z AUTO 03004KT 6SM 23/11 A3006 RMK T02300110 IEM_DS3505
ZGGG,2002-11-07 12:00,ZGGG 071200Z AUTO 00000KT 11SM 22/13 A3009 RMK SLP185 T02170126 52013 IEM_DS3505
ZGGG,2002-11-07 13:00,ZGGG 071300Z AUTO 01004KT 6SM 21/10 A3009 RMK T02100100 IEM_DS3505
ZGGG,2002-11-07 14:00,ZGGG 071400Z AUTO 01006KT 6SM 20/11 A3009 RMK T02000110 IEM_DS3505
ZGGG,2002-11-07 15:00,ZGGG 071500Z AUTO 32002KT 11SM 20/12 A3009 RMK SLP190 T01950122 52005 IEM_DS3505
ZGGG,2002-11-07 16:00,ZGGG 071600Z AUTO 36006KT 6SM 19/11 A3009 RMK T01900110 IEM_DS3505
ZGGG,2002-11-07 17:00,ZGGG 071700Z AUTO 36006KT 6SM 17/11 A3009 RMK T01700110 IEM_DS3505
ZGGG,2002-11-07 18:00,ZGGG 071800Z AUTO 32002KT 10SM 18/08 A3009 RMK SLP184 T01780085 57006 IEM_DS3505
ZGGG,2002-11-07 19:00,ZGGG 071900Z AUTO 36006KT 6SM 17/09 A3006 RMK T01700090 IEM_DS3505
ZGGG,2002-11-07 20:00,ZGGG 072000Z AUTO 35004KT 6SM 16/08 A3009 RMK T01600080 IEM_DS3505
ZGGG,2002-11-07 21:00,ZGGG 072100Z AUTO 32002KT 9SM 17/09 A3009 RMK SLP184 T01710090 54000 IEM_DS3505
ZGGG,2002-11-07 22:00,ZGGG 072200Z AUTO 33006KT 6SM 19/07 A3009 RMK T01900070 IEM_DS3505
ZGGG,2002-11-07 23:00,ZGGG 072300Z AUTO 36004KT 6SM 16/09 A3012 RMK T01600090 IEM_DS3505
ZGGG,2002-11-08 00:00,ZGGG 080000Z AUTO 36006KT 12SM 19/07 A3015 RMK SLP203 T01920074 52019 IEM_DS3505
ZGGG,2002-11-08 01:00,ZGGG 080100Z AUTO 34008KT 6SM 21/07 A3015 RMK T02100070 IEM_DS3505
ZGGG,2002-11-08 02:00,ZGGG 080200Z AUTO 36010KT 6SM 23/08 A3018 RMK T02300080 IEM_DS3505
ZGGG,2002-11-08 03:00,ZGGG 080300Z AUTO 04006KT 16SM 25/09 A3015 RMK SLP210 T02470093 52007 IEM_DS3505
ZGGG,2002-11-08 04:00,ZGGG 080400Z AUTO 36010KT 6SM 26/07 A3012 RMK T02600070 IEM_DS3505
ZGGG,2002-11-08 05:00,ZGGG 080500Z AUTO 36008KT 6SM 27/07 A3009 RMK T02700070 IEM_DS3505
ZGGG,2002-11-08 06:00,ZGGG 080600Z AUTO 29004KT 16SM 28/09 A3006 RMK SLP184 T02790092 57026 IEM_DS3505
ZGGG,2002-11-08 07:00,ZGGG 080700Z AUTO 36006KT 6SM 28/06 A3006 RMK T02800060 IEM_DS3505
ZGGG,2002-11-08 08:00,ZGGG 080800Z AUTO 34006KT 6SM 27/05 A3006 RMK T02700050 IEM_DS3505
ZGGG,2002-11-08 09:00,ZGGG 080900Z AUTO 29002KT 11SM 27/10 A3006 RMK SLP175 T02670104 57009 IEM_DS3505
ZGGG,2002-11-08 10:00,ZGGG 081000Z AUTO 02004KT 6SM 24/09 A3006 RMK T02400090 IEM_DS3505
ZGGG,2002-11-08 11:00,ZGGG 081100Z AUTO 03004KT 6SM 22/09 A3009 RMK T02200090 IEM_DS3505
ZGGG,2002-11-08 12:00,ZGGG 081200Z AUTO 34004KT 10SM 22/12 A3009 RMK SLP191 T02170115 52016 IEM_DS3505
ZGGG,2002-11-08 13:00,ZGGG 081300Z AUTO 02006KT 6SM 21/11 A3012 RMK T02100110 IEM_DS3505
ZGGG,2002-11-08 14:00,ZGGG 081400Z AUTO 01004KT 6SM 21/10 A3015 RMK T02100100 IEM_DS3505
ZGGG,2002-11-08 15:00,ZGGG 081500Z AUTO 07004KT 9SM 21/07 A3015 RMK SLP207 T02140070 52016 IEM_DS3505
ZGGG,2002-11-08 16:00,ZGGG 081600Z AUTO 36008KT 6SM 19/07 A3015 RMK T01900070 IEM_DS3505
ZGGG,2002-11-08 17:00,ZGGG 081700Z AUTO 01008KT 6SM 17/08 A3015 RMK T01700080 IEM_DS3505
ZGGG,2002-11-08 18:00,ZGGG 081800Z AUTO 29002KT 9SM 18/09 A3015 RMK SLP206 T01760094 57001 IEM_DS3505
ZGGG,2002-11-08 19:00,ZGGG 081900Z AUTO 01008KT 6SM 16/09 A3015 RMK T01600090 IEM_DS3505
ZGGG,2002-11-08 20:00,ZGGG 082000Z AUTO 36006KT 6SM 18/08 A3015 RMK T01800080 IEM_DS3505
ZGGG,2002-11-08 21:00,ZGGG 082100Z AUTO 36002KT 10SM 16/10 A3015 RMK SLP210 T01650101 52004 IEM_DS3505
ZGGG,2002-11-08 22:00,ZGGG 082200Z AUTO 01006KT 6SM 14/09 A3015 RMK T01400090 IEM_DS3505
ZGGG,2002-11-08 23:00,ZGGG 082300Z AUTO 36006KT 6SM 14/09 A3018 RMK T01400090 IEM_DS3505
ZGGG,2002-11-09 00:00,ZGGG 090000Z AUTO 00000KT 11SM 18/12 A3021 RMK SLP228 T01820117 52017 IEM_DS3505
ZGGG,2002-11-09 01:00,ZGGG 090100Z AUTO 01008KT 6SM 21/09 A3021 RMK T02100090 IEM_DS3505
ZGGG,2002-11-09 02:00,ZGGG 090200Z AUTO 35004KT 6SM 22/09 A3021 RMK T02200090 IEM_DS3505
ZGGG,2002-11-09 03:00,ZGGG 090300Z AUTO 04004KT 12SM 25/10 A3018 RMK SLP223 T02480095 57004 IEM_DS3505
ZGGG,2002-11-09 04:00,ZGGG 090400Z AUTO 01006KT 6SM 25/09 A3015 RMK T02500090 IEM_DS3505
ZGGG,2002-11-09 05:00,ZGGG 090500Z AUTO 08004KT 6SM 26/09 A3012 RMK T02600090 IEM_DS3505
ZGGG,2002-11-09 06:00,ZGGG 090600Z AUTO 34002KT 11SM 27/10 A3009 RMK SLP188 T02680100 57035 IEM_DS3505
ZGGG,2002-11-09 07:00,ZGGG 090700Z AUTO 11002KT 6SM 27/08 A3006 RMK T02700080 IEM_DS3505
ZGGG,2002-11-09 08:00,ZGGG 090800Z AUTO 10004KT 6SM 27/08 A3003 RMK T02700080 IEM_DS3505
ZGGG,2002-11-09 09:00,ZGGG 090900Z AUTO 14004KT 9SM 26/10 A3003 RMK SLP176 T02560102 57012 IEM_DS3505
ZGGG,2002-11-09 10:00,ZGGG 091000Z AUTO 08002KT 6SM 24/10 A3006 RMK T02400100 IEM_DS3505
ZGGG,2002-11-09 11:00,ZGGG 091100Z AUTO 08002KT 6SM 23/11 A3006 RMK T02300110 IEM_DS3505
ZGGG,2002-11-09 12:00,ZGGG 091200Z AUTO 09004KT 9SM 21/14 A3009 RMK SLP192 T02060139 52015 IEM_DS3505
ZGGG,2002-11-09 13:00,ZGGG 091300Z AUTO 15008KT 5SM 23/14 A3009 RMK T02300140 IEM_DS3505
ZGGG,2002-11-09 14:00,ZGGG 091400Z AUTO 17008KT 6SM 22/15 A3012 RMK T02200150 IEM_DS3505
ZGGG,2002-11-09 15:00,ZGGG 091500Z AUTO 14002KT 10SM 21/16 A3012 RMK SLP199 T02060163 52008 IEM_DS3505
ZGGG,2002-11-09 16:00,ZGGG 091600Z AUTO 15004KT 21/15 A3012 RMK T02100150 IEM_DS3505
ZGGG,2002-11-09 17:00,ZGGG 091700Z AUTO 10002KT 4SM 19/15 A3012 RMK T01900150 IEM_DS3505
ZGGG,2002-11-09 18:00,ZGGG 091800Z AUTO 04002KT 9SM 18/16 A3009 RMK SLP193 T01840161 57006 IEM_DS3505
ZGGG,2002-11-09 19:00,ZGGG 091900Z AUTO 02006KT 3SM 19/15 A3009 RMK T01900150 IEM_DS3505
ZGGG,2002-11-09 20:00,ZGGG 092000Z AUTO 00000KT 4SM 19/14 A3009 RMK T01900140 IEM_DS3505
ZGGG,2002-11-09 21:00,ZGGG 092100Z AUTO 00000KT 7SM 17/15 A3009 RMK SLP192 T01710150 57001 IEM_DS3505
ZGGG,2002-11-09 22:00,ZGGG 092200Z AUTO 07004KT 3SM 18/14 A3009 RMK T01800140 IEM_DS3505
ZGGG,2002-11-09 23:00,ZGGG 092300Z AUTO 00000KT 2 1/2SM 18/14 A3012 RMK T01800140 IEM_DS3505
ZGGG,2002-11-10 00:00,ZGGG 100000Z AUTO 00000KT 7SM 19/15 A3012 RMK SLP203 T01870149 52010 IEM_DS3505
ZGGG,2002-11-10 01:00,ZGGG 100100Z AUTO 02002KT 2 1/2SM 21/13 A3012 RMK T02100130 IEM_DS3505
ZGGG,2002-11-10 02:00,ZGGG 100200Z AUTO 12002KT 3SM 23/14 A3015 RMK T02300140 IEM_DS3505
ZGGG,2002-11-10 03:00,ZGGG 100300Z AUTO 09004KT 8SM 24/14 A3012 RMK SLP203 T02360145 52001 IEM_DS3505
ZGGG,2002-11-10 04:00,ZGGG 100400Z AUTO 35002KT 2 1/2SM 23/15 A3009 RMK T02300150 IEM_DS3505
ZGGG,2002-11-10 05:00,ZGGG 100500Z AUTO 10004KT 3SM 25/14 A3006 RMK T02500140 IEM_DS3505
ZGGG,2002-11-10 06:00,ZGGG 100600Z AUTO 07002KT 9SM 26/16 A3003 RMK SLP173 T02640159 57030 IEM_DS3505
ZGGG,2002-11-10 07:00,ZGGG 100700Z AUTO 11006KT 26/16 A3000 RMK T02600160 IEM_DS3505
ZGGG,2002-11-10 08:00,ZGGG 100800Z AUTO 13006KT 2 1/2SM 26/16 A3000 RMK T02600160 IEM_DS3505
ZGGG,2002-11-10 09:00,ZGGG 100900Z AUTO 14002KT 7SM 25/17 A3000 RMK SLP163 T02540167 57010 IEM_DS3505
ZGGG,2002-11-10 10:00,ZGGG 101000Z AUTO 10002KT 2 1/2SM 24/16 A3000 RMK T02400160 IEM_DS3505
ZGGG,2002-11-10 12:00,ZGGG 101200Z AUTO 16006KT 7SM 24/17 A3003 RMK SLP173 T02350169 52010 IEM_DS3505
ZGGG,2002-11-10 13:00,ZGGG 101300Z AUTO 16006KT 5SM 23/17 A3006 RMK T02300170 IEM_DS3505
ZGGG,2002-11-10 14:00,ZGGG 101400Z AUTO 13002KT 6SM 23/17 A3006 RMK T02300170 IEM_DS3505
ZGGG,2002-11-10 15:00,ZGGG 101500Z AUTO 00000KT 8SM 21/18 A3006 RMK SLP181 T02130179 52008 IEM_DS3505
ZGGG,2002-11-10 16:00,ZGGG 101600Z AUTO 08002KT 4SM 22/17 A3006 RMK T02200170 IEM_DS3505
ZGGG,2002-11-10 17:00,ZGGG 101700Z AUTO 00000KT 4SM 22/18 A3006 RMK T02200180 IEM_DS3505
ZGGG,2002-11-10 18:00,ZGGG 101800Z AUTO 00000KT 7SM 21/18 A3006 RMK SLP179 T02080181 57002 IEM_DS3505
ZGGG,2002-11-10 19:00,ZGGG 101900Z AUTO 00000KT 4SM 22/17 A3003 RMK T02200170 IEM_DS3505
ZGGG,2002-11-10 20:00,ZGGG 102000Z AUTO 03004KT 4SM 21/17 A3003 RMK T02100170 IEM_DS3505
ZGGG,2002-11-10 21:00,ZGGG 102100Z AUTO 00000KT 7SM 20/18 A3003 RMK SLP173 T02030177 57006 IEM_DS3505
ZGGG,2002-11-10 22:00,ZGGG 102200Z AUTO 13002KT 4SM 20/17 A3006 RMK T02000170 IEM_DS3505
ZGGG,2002-11-10 23:00,ZGGG 102300Z AUTO 00000KT 2 1/2SM 20/17 A3006 RMK T02000170 IEM_DS3505
ZGGG,2002-11-11 00:00,ZGGG 110000Z AUTO 00000KT 7SM 21/18 A3009 RMK SLP184 T02130181 52011 IEM_DS3505
ZGGG,2002-11-11 01:00,ZGGG 110100Z AUTO 01006KT 3SM 23/17 A3009 RMK T02300170 IEM_DS3505
ZGGG,2002-11-11 02:00,ZGGG 110200Z AUTO 36004KT 24/18 A3009 RMK T02400180 IEM_DS3505
ZGGG,2002-11-11 03:00,ZGGG 110300Z AUTO 14002KT 11SM 26/19 A3006 RMK SLP186 T02630187 52002 IEM_DS3505
ZGGG,2002-11-11 04:00,ZGGG 110400Z AUTO 34004KT 27/19 A3003 RMK T02700190 IEM_DS3505
ZGGG,2002-11-11 05:00,ZGGG 110500Z AUTO 12002KT 27/18 A3000 RMK T02700180 IEM_DS3505
ZGGG,2002-11-11 06:00,ZGGG 110600Z AUTO 22006KT 9SM 29/19 A3000 RMK SLP158 T02920186 57027 IEM_DS3505
ZGGG,2002-11-11 07:00,ZGGG 110700Z AUTO 16006KT 5SM 28/18 A2997 RMK T02800180 IEM_DS3505
ZGGG,2002-11-11 08:00,ZGGG 110800Z AUTO 14004KT 28/17 A2997 RMK T02800170 IEM_DS3505
ZGGG,2002-11-11 09:00,ZGGG 110900Z AUTO 14002KT 9SM 28/18 A3000 RMK SLP159 T02790181 54000 IEM_DS3505
ZGGG,2002-11-11 10:00,ZGGG 111000Z AUTO 14004KT 3SM 27/17 A3000 RMK T02700170 IEM_DS3505
ZGGG,2002-11-11 11:00,ZGGG 111100Z AUTO 00000KT 4SM 24/19 A3000 RMK T02400190 IEM_DS3505
ZGGG,2002-11-11 12:00,ZGGG 111200Z AUTO 09002KT 9SM 24/20 A3003 RMK SLP169 T02400197 52010 IEM_DS3505
ZGGG,2002-11-11 13:00,ZGGG 111300Z AUTO 15004KT 25/18 A3003 RMK T02500180 IEM_DS3505
ZGGG,2002-11-11 14:00,ZGGG 111400Z AUTO 17006KT 4SM 24/19 A3003 RMK T02400190 IEM_DS3505
ZGGG,2002-11-11 15:00,ZGGG 111500Z AUTO 00000KT 7SM 23/20 A3003 RMK SLP175 T02260197 52006 IEM_DS3505
ZGGG,2002-11-11 16:00,ZGGG 111600Z AUTO 00000KT 4SM 23/19 A3006 RMK T02300190 IEM_DS3505
ZGGG,2002-11-11 17:00,ZGGG 111700Z AUTO 00000KT 4SM 24/20 A3003 RMK T02400200 IEM_DS3505
ZGGG,2002-11-11 18:00,ZGGG 111800Z AUTO 00000KT 3SM 22/20 RMK SLP172 T02240201 57002 IEM_DS3505
ZGGG,2002-11-11 19:00,ZGGG 111900Z AUTO 00000KT 3SM 22/19 A3003 RMK T02200190 IEM_DS3505
ZGGG,2002-11-11 20:00,ZGGG 112000Z AUTO 00000KT 4SM 22/19 A3003 RMK T02200190 IEM_DS3505
ZGGG,2002-11-11 21:00,ZGGG 112100Z AUTO 00000KT 4SM 22/20 A3003 RMK SLP166 T02210203 57006 IEM_DS3505
ZGGG,2002-11-11 22:00,ZGGG 112200Z AUTO 05002KT 3SM 22/19 A3003 RMK T02200190 IEM_DS3505
ZGGG,2002-11-11 23:00,ZGGG 112300Z AUTO 00000KT 1 1/2SM 21/19 A3003 RMK T02100190 IEM_DS3505
ZGGG,2002-11-12 00:00,ZGGG 120000Z AUTO 00000KT 2 1/2SM 23/21 A3006 RMK SLP178 T02290208 52011 IEM_DS3505
ZGGG,2002-11-12 01:00,ZGGG 120100Z AUTO 36004KT 2 1/2SM 24/20 A3006 RMK T02400200 IEM_DS3505
ZGGG,2002-11-12 02:00,ZGGG 120200Z AUTO 02002KT 3SM 26/18 A3006 RMK T02600180 IEM_DS3505
ZGGG,2002-11-12 03:00,ZGGG 120300Z AUTO 00000KT 6SM 28/19 A3003 RMK SLP175 T02790188 57002 IEM_DS3505
ZGGG,2002-11-12 04:00,ZGGG 120400Z AUTO 34004KT 2 1/2SM 28/19 A3003 RMK T02800190 IEM_DS3505
ZGGG,2002-11-12 05:00,ZGGG 120500Z AUTO 33004KT 2SM 28/19 A2997 RMK T02800190 IEM_DS3505
ZGGG,2002-11-12 06:00,ZGGG 120600Z AUTO 32004KT 4SM 30/20 A2994 RMK SLP140 T02960201 57035 IEM_DS3505
ZGGG,2002-11-12 07:00,ZGGG 120700Z AUTO 36004KT 1 1/2SM 29/19 A2991 RMK T02900190 IEM_DS3505
ZGGG,2002-11-12 08:00,ZGGG 120800Z AUTO 01004KT 2 1/2SM 29/19 A2991 RMK T02900190 IEM_DS3505
ZGGG,2002-11-12 09:00,ZGGG 120900Z AUTO 32002KT 5SM 28/21 A2991 RMK SLP133 T02840206 57007 IEM_DS3505
ZGGG,2002-11-12 10:00,ZGGG 121000Z AUTO 13004KT 1 1/2SM 28/19 A2994 RMK T02800190 IEM_DS3505
ZGGG,2002-11-12 11:00,ZGGG 121100Z AUTO 00000KT 2 1/2SM 25/19 A2994 RMK T02500190 IEM_DS3505
ZGGG,2002-11-12 12:00,ZGGG 121200Z AUTO 07002KT 5SM 25/21 A2994 RMK SLP146 T02460207 52012 IEM_DS3505
ZGGG,2002-11-12 13:00,ZGGG 121300Z AUTO 00000KT 3SM 24/18 A2997 RMK T02400180 IEM_DS3505
ZGGG,2002-11-12 14:00,ZGGG 121400Z AUTO 00000KT 3SM 24/19 A2997 RMK T02400190 IEM_DS3505
ZGGG,2002-11-12 15:00,ZGGG 121500Z AUTO 07002KT 2 1/2SM 23/19 A2997 RMK SLP152 T02280192 52007 IEM_DS3505
ZGGG,2002-11-12 16:00,ZGGG 121600Z AUTO 00000KT 2SM 24/19 A2997 RMK T02400190 IEM_DS3505
ZGGG,2002-11-12 17:00,ZGGG 121700Z AUTO 00000KT 2 1/2SM 23/19 A2997 RMK T02300190 IEM_DS3505
ZGGG,2002-11-12 18:00,ZGGG 121800Z AUTO 04002KT 2 1/2SM 22/20 A2997 RMK SLP145 T02190199 57007 IEM_DS3505
ZGGG,2002-11-12 19:00,ZGGG 121900Z AUTO 00000KT 2SM 23/19 A2994 RMK T02300190 IEM_DS3505
ZGGG,2002-11-12 20:00,ZGGG 122000Z AUTO 00000KT 2 1/2SM 22/19 A2994 RMK T02200190 IEM_DS3505
ZGGG,2002-11-12 21:00,ZGGG 122100Z AUTO 00000KT 2SM 21/19 A2994 RMK SLP143 T02080194 57002 IEM_DS3505
ZGGG,2002-11-12 22:00,ZGGG 122200Z AUTO 00000KT 2SM 21/19 A2994 RMK T02100190 IEM_DS3505
ZGGG,2002-11-12 23:00,ZGGG 122300Z AUTO 00000KT 1SM 21/19 A2997 RMK T02100190 IEM_DS3505
ZGGG,2002-11-13 00:00,ZGGG 130000Z AUTO 00000KT 4SM 22/20 A2997 RMK SLP152 T02190197 52008 IEM_DS3505
ZGGG,2002-11-13 01:00,ZGGG 130100Z AUTO 00000KT 1 1/4SM 24/19 A2997 RMK T02400190 IEM_DS3505
ZGGG,2002-11-13 02:00,ZGGG 130200Z AUTO 19004KT 1 1/4SM 26/19 A2997 RMK T02600190 IEM_DS3505
ZGGG,2002-11-13 03:00,ZGGG 130300Z AUTO 14004KT 4SM 27/18 A2994 RMK SLP145 T02720180 57006 IEM_DS3505
ZGGG,2002-11-13 04:00,ZGGG 130400Z AUTO 15006KT 1 1/4SM 28/18 A2991 RMK T02800180 IEM_DS3505
ZGGG,2002-11-13 05:00,ZGGG 130500Z AUTO 16006KT 2 1/2SM 29/17 A2988 RMK T02900170 IEM_DS3505
ZGGG,2002-11-13 06:00,ZGGG 130600Z AUTO 14004KT 7SM 29/18 A2983 RMK SLP106 T02940175 57039 IEM_DS3505
ZGGG,2002-11-13 07:00,ZGGG 130700Z AUTO 17008KT 3SM 29/17 A2983 RMK T02900170 IEM_DS3505
ZGGG,2002-11-13 08:00,ZGGG 130800Z AUTO 18006KT 29/17 A2980 RMK T02900170 IEM_DS3505
ZGGG,2002-11-13 09:00,ZGGG 130900Z AUTO 16004KT 7SM 28/18 A2980 RMK SLP098 T02820179 57008 IEM_DS3505
ZGGG,2002-11-13 10:00,ZGGG 131000Z AUTO 14006KT 3SM 27/18 A2983 RMK T02700180 IEM_DS3505
ZGGG,2002-11-13 11:00,ZGGG 131100Z AUTO 16006KT 5SM 27/17 A2983 RMK T02700170 IEM_DS3505
ZGGG,2002-11-13 12:00,ZGGG 131200Z AUTO 14002KT 7SM 25/18 A2985 RMK SLP111 T02540182 52013 IEM_DS3505
ZGGG,2002-11-13 13:00,ZGGG 131300Z AUTO 18008KT 6SM 25/17 A2988 RMK T02500170 IEM_DS3505
ZGGG,2002-11-13 14:00,ZGGG 131400Z AUTO 20008KT 6SM 24/19 A2988 RMK T02400190 IEM_DS3505
ZGGG,2002-11-13 15:00,ZGGG 131500Z AUTO 18004KT 8SM 24/20 A2988 RMK SLP123 T02430203 52012 IEM_DS3505
ZGGG,2002-11-13 16:00,ZGGG 131600Z AUTO 17006KT 4SM 24/20 A2988 RMK T02400200 IEM_DS3505
ZGGG,2002-11-13 17:00,ZGGG 131700Z AUTO 18008KT 3SM 24/21 A2985 RMK T02400210 IEM_DS3505
ZGGG,2002-11-13 18:00,ZGGG 131800Z AUTO 18002KT 5SM 24/21 A2983 RMK SLP108 T02350212 57015 IEM_DS3505
ZGGG,2002-11-13 19:00,ZGGG 131900Z AUTO 16004KT 3SM 23/21 A2983 RMK T02300210 IEM_DS3505
ZGGG,2002-11-13 20:00,ZGGG 132000Z AUTO 15004KT 2 1/2SM 23/21 A2983 RMK T02300210 IEM_DS3505
ZGGG,2002-11-13 21:00,ZGGG 132100Z AUTO 00000KT 1SM 23/21 A2983 RMK SLP101 T02280210 57007 IEM_DS3505
ZGGG,2002-11-13 22:00,ZGGG 132200Z AUTO 16004KT 2SM 23/21 A2983 RMK T02300210 IEM_DS3505
ZGGG,2002-11-13 23:00,ZGGG 132300Z AUTO 16004KT 1 1/2SM 23/21 A2985 RMK T02300210 IEM_DS3505
ZGGG,2002-11-14 00:00,ZGGG 140000Z AUTO 14004KT 1 1/4SM 24/21 A2988 RMK SLP118 T02360213 52017 IEM_DS3505
ZGGG,2002-11-14 01:00,ZGGG 140100Z AUTO 17008KT 3SM 24/21 A2988 RMK T02400210 IEM_DS3505
ZGGG,2002-11-14 02:00,ZGGG 140200Z AUTO 15006KT 3SM 26/20 A2988 RMK T02600200 IEM_DS3505
ZGGG,2002-11-14 03:00,ZGGG 140300Z AUTO 20002KT 6SM 26/21 A2985 RMK SLP115 T02630212 57003 IEM_DS3505
ZGGG,2002-11-14 04:00,ZGGG 140400Z AUTO 20006KT 3SM 26/21 A2983 RMK T02600210 IEM_DS3505
ZGGG,2002-11-14 05:00,ZGGG 140500Z AUTO 18008KT 3SM 27/20 A2980 RMK T02700200 IEM_DS3505
ZGGG,2002-11-14 06:00,ZGGG 140600Z AUTO 22006KT 7SM 28/21 A2977 RMK SLP084 T02820207 57031 IEM_DS3505
ZGGG,2002-11-14 07:00,ZGGG 140700Z AUTO 17006KT 27/20 A2974 RMK T02700200 IEM_DS3505
ZGGG,2002-11-14 08:00,ZGGG 140800Z AUTO 16006KT RMK IEM_DS3505
ZGGG,2002-11-14 09:00,ZGGG 140900Z AUTO 14004KT 7SM 27/22 A2974 RMK SLP078 T02670220 57006 IEM_DS3505
ZGGG,2002-11-14 10:00,ZGGG 141000Z AUTO 15008KT 2 1/2SM 27/22 A2977 RMK T02700220 IEM_DS3505
ZGGG,2002-11-14 11:00,ZGGG 141100Z AUTO 15010KT 4SM 26/22 A2977 RMK T02600220 IEM_DS3505
ZGGG,2002-11-14 12:00,ZGGG 141200Z AUTO 14004KT 8SM 26/22 A2980 RMK SLP096 T02550216 52018 IEM_DS3505
ZGGG,2002-11-14 13:00,ZGGG 141300Z AUTO 16008KT 4SM 26/21 A2983 RMK T02600210 IEM_DS3505
ZGGG,2002-11-14 14:00,ZGGG 141400Z AUTO 16010KT 4SM 25/21 A2983 RMK T02500210 IEM_DS3505
ZGGG,2002-11-14 15:00,ZGGG 141500Z AUTO 14002KT 7SM 24/22 A2983 RMK SLP105 T02440219 52009 IEM_DS3505
ZGGG,2002-11-14 16:00,ZGGG 141600Z AUTO 16006KT 5SM 25/21 A2983 RMK T02500210 IEM_DS3505
ZGGG,2002-11-14 17:00,ZGGG 141700Z AUTO 13004KT 4SM 24/21 A2983 RMK T02400210 IEM_DS3505
ZGGG,2002-11-14 18:00,ZGGG 141800Z AUTO 14004KT 8SM 24/22 A2983 RMK SLP097 T02400216 57008 IEM_DS3505
ZGGG,2002-11-14 19:00,ZGGG 141900Z AUTO 16004KT 4SM A2980 RMK IEM_DS3505
ZGGG,2002-11-14 20:00,ZGGG 142000Z AUTO 16002KT 4SM 24/22 A2980 RMK T02400220 IEM_DS3505
ZGGG,2002-11-14 21:00,ZGGG 142100Z AUTO 00000KT 2 1/2SM 24/22 A2980 RMK SLP095 T02350222 57002 IEM_DS3505
ZGGG,2002-11-14 22:00,ZGGG 142200Z AUTO 16004KT 2 1/2SM 24/22 A2983 RMK T02400220 IEM_DS3505
ZGGG,2002-11-14 23:00,ZGGG 142300Z AUTO 16006KT 2 1/2SM 24/22 A2983 RMK T02400220 IEM_DS3505
ZGGG,2002-11-15 00:00,ZGGG 150000Z AUTO 14006KT 2SM 24/22 A2985 RMK SLP110 T02430225 52015 IEM_DS3505
ZGGG,2002-11-15 01:00,ZGGG 150100Z AUTO 17008KT 3SM 25/22 A2985 RMK T02500220 IEM_DS3505
ZGGG,2002-11-15 02:00,ZGGG 150200Z AUTO 16010KT 3SM 27/22 A2988 RMK T02700220 IEM_DS3505
ZGGG,2002-11-15 03:00,ZGGG 150300Z AUTO 18006KT 9SM 28/22 A2988 RMK SLP116 T02760220 52006 IEM_DS3505
ZGGG,2002-11-15 04:00,ZGGG 150400Z AUTO 21010KT 5SM 28/21 A2985 RMK T02800210 IEM_DS3505
ZGGG,2002-11-15 05:00,ZGGG 150500Z AUTO 20010KT 5SM 29/21 A2983 RMK T02900210 IEM_DS3505
ZGGG,2002-11-15 06:00,ZGGG 150600Z AUTO 27004KT 11SM 29/21 A2980 RMK SLP089 T02880214 57027 IEM_DS3505
ZGGG,2002-11-15 07:00,ZGGG 150700Z AUTO 17006KT 7SM 28/21 A2977 RMK T02800210 IEM_DS3505
ZGGG,2002-11-15 08:00,ZGGG 150800Z AUTO 16006KT 7SM 28/22 A2977 RMK T02800220 IEM_DS3505
ZGGG,2002-11-15 09:00,ZGGG 150900Z AUTO 14004KT 8SM 28/23 A2980 RMK SLP088 T02800234 57001 IEM_DS3505
ZGGG,2002-11-15 10:00,ZGGG 151000Z AUTO 36014KT 7SM 23/18 A2985 RMK T02300180 IEM_DS3505
ZGGG,2002-11-15 11:00,ZGGG 151100Z AUTO 33014KT 7SM 18/15 A2988 RMK T01800150 IEM_DS3505
ZGGG,2002-11-15 12:00,ZGGG 151200Z AUTO 34008KT 6SM 18/16 A2994 RMK 60008 SLP133 T01790164 52044 IEM_DS3505
ZGGG,2002-11-15 13:00,ZGGG 151300Z AUTO 34012KT 7SM 17/14 A2994 RMK T01700140 IEM_DS3505
ZGGG,2002-11-15 14:00,ZGGG 151400Z AUTO 32010KT 4SM 17/14 A3000 RMK T01700140 IEM_DS3505
ZGGG,2002-11-15 15:00,ZGGG 151500Z AUTO 34008KT 9SM 16/15 A3000 RMK SLP158 T01630153 52025 IEM_DS3505
ZGGG,2002-11-15 16:00,ZGGG 151600Z AUTO 33010KT 7SM 16/14 A3000 RMK T01600140 IEM_DS3505
ZGGG,2002-11-15 17:00,ZGGG 151700Z AUTO 34010KT 7SM 16/13 A3000 RMK T01600130 IEM_DS3505
ZGGG,2002-11-15 18:00,ZGGG 151800Z AUTO 36006KT 8SM 16/15 A3003 RMK 60024 SLP164 T01580148 52006 IEM_DS3505
ZGGG,2002-11-15 19:00,ZGGG 151900Z AUTO 34008KT 7SM 16/13 A3003 RMK T01600130 IEM_DS3505
ZGGG,2002-11-15 20:00,ZGGG 152000Z AUTO 34008KT 7SM 16/12 A3003 RMK T01600120 IEM_DS3505
ZGGG,2002-11-15 21:00,ZGGG 152100Z AUTO 32004KT 10SM 16/13 A3003 RMK 70031 SLP169 T01570134 52005 IEM_DS3505
ZGGG,2002-11-15 22:00,ZGGG 152200Z AUTO 34010KT 5SM 15/13 A3003 RMK T01500130 IEM_DS3505
ZGGG,2002-11-15 23:00,ZGGG 152300Z AUTO 35008KT 7SM 15/13 A3006 RMK T01500130 IEM_DS3505
ZGGG,2002-11-16 00:00,ZGGG 160000Z AUTO 34004KT 11SM 16/14 A3009 RMK 60002 70032 SLP187 T01550135 52017 IEM_DS3505
ZGGG,2002-11-16 01:00,ZGGG 160100Z AUTO 33010KT 7SM 16/12 A3009 RMK T01600120 IEM_DS3505
ZGGG,2002-11-16 02:00,ZGGG 160200Z AUTO 33008KT 7SM 17/12 A3012 RMK T01700120 IEM_DS3505
ZGGG,2002-11-16 03:00,ZGGG 160300Z AUTO 04006KT 16SM 18/12 A3012 RMK SLP197 T01780124 52010 IEM_DS3505
ZGGG,2002-11-16 04:00,ZGGG 160400Z AUTO 36012KT 6SM 19/11 A3009 RMK T01900110 IEM_DS3505
ZGGG,2002-11-16 05:00,ZGGG 160500Z AUTO 36010KT 6SM 19/11 A3009 RMK T01900110 IEM_DS3505
ZGGG,2002-11-16 06:00,ZGGG 160600Z AUTO 36006KT 16SM 20/13 A3006 RMK SLP177 T02000126 57020 IEM_DS3505
ZGGG,2002-11-16 07:00,ZGGG 160700Z AUTO 35010KT 6SM 20/11 A3003 RMK T02000110 IEM_DS3505
ZGGG,2002-11-16 08:00,ZGGG 160800Z AUTO 01010KT 6SM 21/12 A3006 RMK T02100120 IEM_DS3505
ZGGG,2002-11-16 09:00,ZGGG 160900Z AUTO 36004KT 14SM 20/13 A3006 RMK SLP181 T02050128 52004 IEM_DS3505
ZGGG,2002-11-16 10:00,ZGGG 161000Z AUTO 34010KT 6SM 19/11 A3009 RMK T01900110 IEM_DS3505
ZGGG,2002-11-16 11:00,ZGGG 161100Z AUTO 36010KT 6SM 19/11 A3009 RMK T01900110 IEM_DS3505
ZGGG,2002-11-16 12:00,ZGGG 161200Z AUTO 36006KT 14SM 18/11 A3012 RMK SLP203 T01770111 52022 IEM_DS3505
ZGGG,2002-11-16 13:00,ZGGG 161300Z AUTO 36012KT 7SM 18/11 A3015 RMK T01800110 IEM_DS3505
ZGGG,2002-11-16 14:00,ZGGG 161400Z AUTO 36014KT 6SM 17/09 A3018 RMK T01700090 IEM_DS3505
ZGGG,2002-11-16 15:00,ZGGG 161500Z AUTO 36006KT 14SM 16/09 A3018 RMK SLP221 T01610091 52018 IEM_DS3505
ZGGG,2002-11-16 16:00,ZGGG 161600Z AUTO 36010KT 6SM 16/09 A3018 RMK T01600090 IEM_DS3505
ZGGG,2002-11-16 17:00,ZGGG 161700Z AUTO 36008KT 6SM 15/09 A3018 RMK T01500090 IEM_DS3505
ZGGG,2002-11-16 18:00,ZGGG 161800Z AUTO 36004KT 11SM 15/09 A3018 RMK SLP215 T01470090 57006 IEM_DS3505
ZGGG,2002-11-16 19:00,ZGGG 161900Z AUTO 02006KT 6SM 14/09 A3018 RMK T01400090 IEM_DS3505
ZGGG,2002-11-16 20:00,ZGGG 162000Z AUTO 02006KT 6SM 13/09 A3018 RMK T01300090 IEM_DS3505
ZGGG,2002-11-16 21:00,ZGGG 162100Z AUTO 36004KT 10SM 15/09 A3015 RMK 70001 SLP212 T01470092 57003 IEM_DS3505
ZGGG,2002-11-16 22:00,ZGGG 162200Z AUTO 36008KT 6SM 15/09 A3018 RMK T01500090 IEM_DS3505
ZGGG,2002-11-16 23:00,ZGGG 162300Z AUTO 36010KT 6SM 14/09 A3018 RMK T01400090 IEM_DS3505
ZGGG,2002-11-17 00:00,ZGGG 170000Z AUTO 36004KT 12SM 15/09 A3021 RMK SLP232 T01510093 52020 IEM_DS3505
ZGGG,2002-11-17 01:00,ZGGG 170100Z AUTO 36010KT 6SM 16/09 A3024 RMK T01600090 IEM_DS3505
ZGGG,2002-11-17 02:00,ZGGG 170200Z AUTO 36012KT 6SM 17/09 A3024 RMK T01700090 IEM_DS3505
ZGGG,2002-11-17 03:00,ZGGG 170300Z AUTO 04004KT 10SM 17/10 A3024 RMK SLP233 T01740105 52001 IEM_DS3505
ZGGG,2002-11-17 04:00,ZGGG 170400Z AUTO 36008KT 6SM 18/09 A3021 RMK T01800090 IEM_DS3505
ZGGG,2002-11-17 05:00,ZGGG 170500Z AUTO 35008KT 6SM 19/10 A3015 RMK T01900100 IEM_DS3505
ZGGG,2002-11-17 06:00,ZGGG 170600Z AUTO 32004KT 11SM 19/11 A3015 RMK SLP207 T01910111 57026 IEM_DS3505
ZGGG,2002-11-17 07:00,ZGGG 170700Z AUTO 36008KT 6SM 19/09 A3012 RMK T01900090 IEM_DS3505
ZGGG,2002-11-17 08:00,ZGGG 170800Z AUTO 03008KT 6SM 19/10 A3012 RMK T01900100 IEM_DS3505
ZGGG,2002-11-17 09:00,ZGGG 170900Z AUTO 32002KT 11SM 19/12 A3015 RMK SLP204 T01870125 57003 IEM_DS3505
ZGGG,2002-11-17 10:00,ZGGG 171000Z AUTO 04004KT 6SM 18/10 A3015 RMK T01800100 IEM_DS3505
ZGGG,2002-11-17 11:00,ZGGG 171100Z AUTO 04004KT 6SM 18/11 A3012 RMK T01800110 IEM_DS3505
ZGGG,2002-11-17 12:00,ZGGG 171200Z AUTO 00000KT 10SM 18/12 A3015 RMK SLP211 T01760120 52007 IEM_DS3505
ZGGG,2002-11-17 13:00,ZGGG 171300Z AUTO 36004KT 6SM 18/12 A3018 RMK T01800120 IEM_DS3505
ZGGG,2002-11-17 14:00,ZGGG 171400Z AUTO 36004KT 6SM 18/12 A3018 RMK T01800120 IEM_DS3505
ZGGG,2002-11-17 15:00,ZGGG 171500Z AUTO 07002KT 7SM 18/12 A3018 RMK SLP218 T01750119 52007 IEM_DS3505
ZGGG,2002-11-17 16:00,ZGGG 171600Z AUTO 32004KT 7SM 18/13 A3021 RMK T01800130 IEM_DS3505
ZGGG,2002-11-17 17:00,ZGGG 171700Z AUTO 35004KT 4SM 17/14 A3018 RMK T01700140 IEM_DS3505
ZGGG,2002-11-17 18:00,ZGGG 171800Z AUTO 09002KT 6SM 17/13 A3018 RMK SLP215 T01670131 57003 IEM_DS3505
ZGGG,2002-11-17 19:00,ZGGG 171900Z AUTO 36004KT 6SM 17/11 A3015 RMK T01700110 IEM_DS3505
ZGGG,2002-11-17 20:00,ZGGG 172000Z AUTO 35004KT 5SM 18/12 A3015 RMK T01800120 IEM_DS3505
ZGGG,2002-11-17 21:00,ZGGG 172100Z AUTO 34002KT 6SM 16/13 A3018 RMK 70003 SLP214 T01600133 57001 IEM_DS3505
ZGGG,2002-11-17 22:00,ZGGG 172200Z AUTO 36008KT 7SM 16/13 A3018 RMK T01600130 IEM_DS3505
ZGGG,2002-11-17 23:00,ZGGG 172300Z AUTO 35008KT 4SM 16/13 A3018 RMK T01600130 IEM_DS3505
ZGGG,2002-11-18 00:00,ZGGG 180000Z AUTO 34002KT 10SM 15/13 A3021 RMK 60004 70005 SLP229 T01530128 52015 IEM_DS3505
ZGGG,2002-11-18 01:00,ZGGG 180100Z AUTO 01008KT 5SM 16/13 A3021 RMK T01600130 IEM_DS3505
ZGGG,2002-11-18 03:00,ZGGG 180300Z AUTO 34004KT 3SM 16/13 A3024 RMK T01600130 IEM_DS3505
ZGGG,2002-11-18 05:00,ZGGG 180500Z AUTO 01006KT 6SM 18/14 A3018 RMK T01800140 IEM_DS3505
ZGGG,2002-11-18 06:00,ZGGG 180600Z AUTO 09002KT 14SM 19/14 A3012 RMK 60008 SLP205 T01940140 57033 IEM_DS3505
ZGGG,2002-11-18 07:00,ZGGG 180700Z AUTO 04004KT 7SM 21/14 A3009 RMK T02100140 IEM_DS3505
ZGGG,2002-11-18 08:00,ZGGG 180800Z AUTO 05004KT 7SM 20/13 A3012 RMK T02000130 IEM_DS3505
ZGGG,2002-11-18 09:00,ZGGG 180900Z AUTO 04002KT 12SM 20/14 A3009 RMK SLP198 T01990142 57007 IEM_DS3505
ZGGG,2002-11-18 10:00,ZGGG 181000Z AUTO 04004KT 6SM 19/13 A3012 RMK T01900130 IEM_DS3505
ZGGG,2002-11-18 11:00,ZGGG 181100Z AUTO 05004KT 6SM 19/13 A3012 RMK T01900130 IEM_DS3505
ZGGG,2002-11-18 12:00,ZGGG 181200Z AUTO 00000KT 12SM 18/13 A3015 RMK SLP215 T01810130 52017 IEM_DS3505
ZGGG,2002-11-18 13:00,ZGGG 181300Z AUTO 04004KT 6SM 18/12 A3018 RMK T01800120 IEM_DS3505
ZGGG,2002-11-18 14:00,ZGGG 181400Z AUTO 01008KT 6SM 18/11 A3018 RMK T01800110 IEM_DS3505
ZGGG,2002-11-18 15:00,ZGGG 181500Z AUTO 32004KT 14SM 18/11 A3018 RMK SLP218 T01820106 52003 IEM_DS3505
ZGGG,2002-11-18 16:00,ZGGG 181600Z AUTO 36006KT 6SM 18/11 A3018 RMK T01800110 IEM_DS3505
ZGGG,2002-11-18 17:00,ZGGG 181700Z AUTO 00000KT 6SM 18/12 A3018 RMK T01800120 IEM_DS3505
ZGGG,2002-11-18 18:00,ZGGG 181800Z AUTO 04004KT 12SM 17/12 A3015 RMK SLP211 T01740117 57007 IEM_DS3505
ZGGG,2002-11-18 19:00,ZGGG 181900Z AUTO 34004KT 6SM 18/11 A3015 RMK T01800110 IEM_DS3505
ZGGG,2002-11-18 20:00,ZGGG 182000Z AUTO 05004KT 6SM 17/12 A3012 RMK T01700120 IEM_DS3505
ZGGG,2002-11-18 21:00,ZGGG 182100Z AUTO 00000KT 9SM 17/12 A3015 RMK 70009 SLP206 T01700119 57005 IEM_DS3505
ZGGG,2002-11-18 22:00,ZGGG 182200Z AUTO 03004KT 6SM 17/12 A3015 RMK T01700120 IEM_DS3505
ZGGG,2002-11-18 23:00,ZGGG 182300Z AUTO 04006KT 7SM 17/13 A3015 RMK T01700130 IEM_DS3505
ZGGG,2002-11-19 00:00,ZGGG 190000Z AUTO 34002KT 11SM 17/13 A3018 RMK 70007 SLP218 T01690126 52012 IEM_DS3505
ZGGG,2002-11-19 01:00,ZGGG 190100Z AUTO 03004KT 7SM 17/12 A3018 RMK T01700120 IEM_DS3505
ZGGG,2002-11-19 02:00,ZGGG 190200Z AUTO 33006KT 5SM 18/13 A3018 RMK T01800130 IEM_DS3505
ZGGG,2002-11-19 03:00,ZGGG 190300Z AUTO 36008KT 5SM 18/13 A3015 RMK T01800130 IEM_DS3505
ZGGG,2002-11-19 06:00,ZGGG 190600Z AUTO 32006KT 9SM 19/14 A3006 RMK SLP184 T01940144 57028 IEM_DS3505
ZGGG,2002-11-19 07:00,ZGGG 190700Z AUTO 34008KT 5SM 19/13 A3006 RMK T01900130 IEM_DS3505
ZGGG,2002-11-19 08:00,ZGGG 190800Z AUTO 34008KT 5SM 19/13 A3006 RMK T01900130 IEM_DS3505
ZGGG,2002-11-19 09:00,ZGGG 190900Z AUTO 36004KT 8SM 19/14 A3006 RMK SLP183 T01880139 57001 IEM_DS3505
ZGGG,2002-11-19 10:00,ZGGG 191000Z AUTO 33006KT 3SM 18/13 A3009 RMK T01800130 IEM_DS3505
ZGGG,2002-11-19 11:00,ZGGG 191100Z AUTO 33004KT 4SM 17/13 A3012 RMK T01700130 IEM_DS3505
ZGGG,2002-11-19 12:00,ZGGG 191200Z AUTO 04006KT 8SM 18/14 A3012 RMK SLP201 T01770144 52018 IEM_DS3505
ZGGG,2002-11-19 13:00,ZGGG 191300Z AUTO 33004KT 4SM 17/14 A3012 RMK T01700140 IEM_DS3505
ZGGG,2002-11-19 14:00,ZGGG 191400Z AUTO 34006KT 5SM 17/14 A3015 RMK T01700140 IEM_DS3505
ZGGG,2002-11-19 15:00,ZGGG 191500Z AUTO 04002KT 9SM 18/15 A3015 RMK SLP206 T01780149 52005 IEM_DS3505
ZGGG,2002-11-19 16:00,ZGGG 191600Z AUTO 34004KT 4SM 17/14 A3015 RMK T01700140 IEM_DS3505
ZGGG,2002-11-19 17:00,ZGGG 191700Z AUTO 36006KT 5SM 17/14 A3012 RMK T01700140 IEM_DS3505
ZGGG,2002-11-19 18:00,ZGGG 191800Z AUTO 34004KT 9SM 17/15 A3012 RMK SLP200 T01710152 57006 IEM_DS3505
ZGGG,2002-11-19 19:00,ZGGG 191900Z AUTO 36010KT 5SM 17/14 A3012 RMK T01700140 IEM_DS3505
ZGGG,2002-11-19 20:00,ZGGG 192000Z AUTO 01008KT 4SM 17/14 A3009 RMK T01700140 IEM_DS3505
ZGGG,2002-11-19 21:00,ZGGG 192100Z AUTO 32004KT 9SM 17/15 A3012 RMK 70000 SLP196 T01700149 57004 IEM_DS3505
ZGGG,2002-11-19 22:00,ZGGG 192200Z AUTO 34004KT 4SM 17/14 A3012 RMK T01700140 IEM_DS3505
ZGGG,2002-11-19 23:00,ZGGG 192300Z AUTO 34006KT 4SM 17/14 A3012 RMK T01700140 IEM_DS3505
ZGGG,2002-11-20 00:00,ZGGG 200000Z AUTO 36002KT 9SM 17/15 A3015 RMK 70000 SLP207 T01720148 52011 IEM_DS3505
ZGGG,2002-11-20 01:00,ZGGG 200100Z AUTO 35006KT 4SM 18/14 A3015 RMK T01800140 IEM_DS3505
ZGGG,2002-11-20 02:00,ZGGG 200200Z AUTO 35008KT 4SM 19/14 A3015 RMK T01900140 IEM_DS3505
ZGGG,2002-11-20 03:00,ZGGG 200300Z AUTO 34002KT 11SM 20/16 A3015 RMK SLP209 T02000156 52002 IEM_DS3505
ZGGG,2002-11-20 04:00,ZGGG 200400Z AUTO 34006KT 4SM 20/15 A3012 RMK T02000150 IEM_DS3505
ZGGG,2002-11-20 05:00,ZGGG 200500Z AUTO 35008KT 7SM 21/15 A3012 RMK T02100150 IEM_DS3505
ZGGG,2002-11-20 06:00,ZGGG 200600Z AUTO 32004KT 11SM 21/16 A3009 RMK SLP189 T02090157 57020 IEM_DS3505
ZGGG,2002-11-20 07:00,ZGGG 200700Z AUTO 34010KT 7SM 19/15 A3006 RMK T01900150 IEM_DS3505
ZGGG,2002-11-20 08:00,ZGGG 200800Z AUTO 35010KT 7SM 20/15 A3006 RMK T02000150 IEM_DS3505
ZGGG,2002-11-20 09:00,ZGGG 200900Z AUTO 34004KT 11SM 20/16 A3006 RMK SLP184 T02040164 57005 IEM_DS3505
ZGGG,2002-11-20 10:00,ZGGG 201000Z AUTO 34008KT 7SM 19/16 A3009 RMK T01900160 IEM_DS3505
ZGGG,2002-11-20 12:00,ZGGG 201200Z AUTO 34006KT 9SM 19/17 A3012 RMK SLP203 T01860170 52019 IEM_DS3505
ZGGG,2002-11-20 13:00,ZGGG 201300Z AUTO 34008KT 7SM 19/16 A3015 RMK T01900160 IEM_DS3505
ZGGG,2002-11-20 14:00,ZGGG 201400Z AUTO 36006KT 7SM 18/16 A3015 RMK T01800160 IEM_DS3505
ZGGG,2002-11-20 15:00,ZGGG 201500Z AUTO 04004KT 9SM 19/16 A3018 RMK SLP214 T01890162 52011 IEM_DS3505
ZGGG,2002-11-20 16:00,ZGGG 201600Z AUTO 34008KT 7SM 18/15 A3015 RMK T01800150 IEM_DS3505
ZGGG,2002-11-20 17:00,ZGGG 201700Z AUTO 34008KT 4SM 18/15 A3015 RMK T01800150 IEM_DS3505
ZGGG,2002-11-20 18:00,ZGGG 201800Z AUTO 36006KT 10SM 19/15 A3015 RMK SLP204 T01870151 57010 IEM_DS3505
ZGGG,2002-11-20 19:00,ZGGG 201900Z AUTO 34010KT 7SM 18/14 A3012 RMK T01800140 IEM_DS3505
ZGGG,2002-11-20 20:00,ZGGG 202000Z AUTO 34008KT 7SM 17/13 A3012 RMK T01700130 IEM_DS3505
ZGGG,2002-11-20 21:00,ZGGG 202100Z AUTO 34002KT 9SM 17/14 A3015 RMK 70000 SLP203 T01740145 57001 IEM_DS3505
ZGGG,2002-11-20 22:00,ZGGG 202200Z AUTO 34012KT 6SM 17/12 A3015 RMK T01700120 IEM_DS3505
ZGGG,2002-11-20 23:00,ZGGG 202300Z AUTO 34012KT 6SM 16/12 A3015 RMK T01600120 IEM_DS3505
ZGGG,2002-11-21 00:00,ZGGG 210000Z AUTO 34008KT 11SM 16/13 A3018 RMK 70000 SLP220 T01650129 52017 IEM_DS3505
ZGGG,2002-11-21 01:00,ZGGG 210100Z AUTO 34008KT 5SM 18/12 A3018 RMK T01800120 IEM_DS3505
ZGGG,2002-11-21 02:00,ZGGG 210200Z AUTO 35010KT 6SM 18/12 A3021 RMK T01800120 IEM_DS3505
ZGGG,2002-11-21 03:00,ZGGG 210300Z AUTO 32004KT 11SM 20/13 A3018 RMK SLP223 T01990131 52003 IEM_DS3505
ZGGG,2002-11-21 04:00,ZGGG 210400Z AUTO 34010KT 6SM 19/12 A3018 RMK T01900120 IEM_DS3505
ZGGG,2002-11-21 05:00,ZGGG 210500Z AUTO 35010KT 6SM 21/13 A3012 RMK T02100130 IEM_DS3505
ZGGG,2002-11-21 06:00,ZGGG 210600Z AUTO 36004KT 12SM 22/14 A3009 RMK 60000 SLP190 T02240135 57032 IEM_DS3505
ZGGG,2002-11-21 07:00,ZGGG 210700Z AUTO 36012KT 6SM 22/13 A3009 RMK T02200130 IEM_DS3505
ZGGG,2002-11-21 08:00,ZGGG 210800Z AUTO 32008KT 6SM 21/13 A3009 RMK T02100130 IEM_DS3505
ZGGG,2002-11-21 09:00,ZGGG 210900Z AUTO 36006KT 10SM 20/13 A3009 RMK SLP190 T02030131 57001 IEM_DS3505
ZGGG,2002-11-21 10:00,ZGGG 211000Z AUTO 34008KT 7SM 19/11 A3009 RMK T01900110 IEM_DS3505
ZGGG,2002-11-21 11:00,ZGGG 211100Z AUTO 34008KT 6SM 19/11 A3012 RMK T01900110 IEM_DS3505
ZGGG,2002-11-21 12:00,ZGGG 211200Z AUTO 36006KT 11SM 18/12 A3015 RMK SLP202 T01840125 52012 IEM_DS3505
ZGGG,2002-11-21 13:00,ZGGG 211300Z AUTO 34010KT 6SM 18/12 A3015 RMK T01800120 IEM_DS3505
ZGGG,2002-11-21 14:00,ZGGG 211400Z AUTO 33010KT 6SM 17/11 A3015 RMK T01700110 IEM_DS3505
ZGGG,2002-11-21 15:00,ZGGG 211500Z AUTO 34006KT 10SM 17/12 RMK SLP208 T01720121 52006 IEM_DS3505
ZGGG,2002-11-21 16:00,ZGGG 211600Z AUTO 34010KT 6SM 17/11 A3015 RMK T01700110 IEM_DS3505
ZGGG,2002-11-21 17:00,ZGGG 211700Z AUTO 34010KT 6SM 16/11 A3015 RMK T01600110 IEM_DS3505
ZGGG,2002-11-21 18:00,ZGGG 211800Z AUTO 34004KT 10SM 16/10 A3012 RMK SLP197 T01580105 57011 IEM_DS3505
ZGGG,2002-11-21 19:00,ZGGG 211900Z AUTO 33006KT 6SM 16/11 A3012 RMK T01600110 IEM_DS3505
ZGGG,2002-11-21 20:00,ZGGG 212000Z AUTO 34008KT 6SM 15/10 A3012 RMK T01500100 IEM_DS3505
ZGGG,2002-11-21 21:00,ZGGG 212100Z AUTO 36004KT 9SM 15/10 A3012 RMK 70000 SLP199 T01460096 52002 IEM_DS3505
ZGGG,2002-11-21 22:00,ZGGG 212200Z AUTO 34008KT 6SM 14/09 A3012 RMK T01400090 IEM_DS3505
ZGGG,2002-11-21 23:00,ZGGG 212300Z AUTO 34008KT 6SM 14/09 A3015 RMK T01400090 IEM_DS3505
ZGGG,2002-11-22 00:00,ZGGG 220000Z AUTO 34002KT 12SM 15/09 A3015 RMK SLP213 T01500094 52014 IEM_DS3505
ZGGG,2002-11-22 01:00,ZGGG 220100Z AUTO 35008KT 6SM 15/08 A3018 RMK T01500080 IEM_DS3505
ZGGG,2002-11-22 02:00,ZGGG 220200Z AUTO 35010KT 6SM 17/08 A3018 RMK T01700080 IEM_DS3505
ZGGG,2002-11-22 03:00,ZGGG 220300Z AUTO 36010KT 6SM 17/09 A3018 RMK T01700090 IEM_DS3505
ZGGG,2002-11-22 04:00,ZGGG 220400Z AUTO 35010KT 6SM 18/09 A3012 RMK T01800090 IEM_DS3505
ZGGG,2002-11-22 05:00,ZGGG 220500Z AUTO 36008KT 6SM 19/10 A3009 RMK T01900100 IEM_DS3505
ZGGG,2002-11-22 06:00,ZGGG 220600Z AUTO 32004KT 16SM 21/11 A3006 RMK SLP179 T02120111 57032 IEM_DS3505
ZGGG,2002-11-22 07:00,ZGGG 220700Z AUTO 36008KT 6SM 21/11 A3003 RMK T02100110 IEM_DS3505
ZGGG,2002-11-22 08:00,ZGGG 220800Z AUTO 35008KT 6SM 21/11 A3003 RMK T02100110 IEM_DS3505
ZGGG,2002-11-22 09:00,ZGGG 220900Z AUTO 04006KT 15SM 20/11 A3003 RMK SLP170 T02000113 57009 IEM_DS3505
ZGGG,2002-11-22 10:00,ZGGG 221000Z AUTO 01010KT 6SM 18/11 A3003 RMK T01800110 IEM_DS3505
ZGGG,2002-11-22 11:00,ZGGG 221100Z AUTO 34010KT 6SM 18/11 A3006 RMK T01800110 IEM_DS3505
ZGGG,2002-11-22 12:00,ZGGG 221200Z AUTO 02004KT 12SM 17/11 A3009 RMK SLP182 T01710112 52012 IEM_DS3505
ZGGG,2002-11-22 13:00,ZGGG 221300Z AUTO 36010KT 6SM 17/11 A3009 RMK T01700110 IEM_DS3505
ZGGG,2002-11-22 14:00,ZGGG 221400Z AUTO 36010KT 6SM 16/11 A3009 RMK T01600110 IEM_DS3505
ZGGG,2002-11-22 15:00,ZGGG 221500Z AUTO 32004KT 12SM 15/11 A3009 RMK SLP192 T01520113 52010 IEM_DS3505
ZGGG,2002-11-22 16:00,ZGGG 221600Z AUTO 35010KT 6SM 16/11 A3009 RMK T01600110 IEM_DS3505
ZGGG,2002-11-22 17:00,ZGGG 221700Z AUTO 36008KT 6SM 15/10 A3009 RMK T01500100 IEM_DS3505
ZGGG,2002-11-22 18:00,ZGGG 221800Z AUTO 34002KT 11SM 14/11 A3009 RMK SLP187 T01390111 57005 IEM_DS3505
ZGGG,2002-11-22 19:00,ZGGG 221900Z AUTO 35006KT 6SM 15/10 A3009 RMK T01500100 IEM_DS3505
ZGGG,2002-11-22 20:00,ZGGG 222000Z AUTO 35008KT 6SM 14/09 A3006 RMK T01400090 IEM_DS3505
ZGGG,2002-11-22 21:00,ZGGG 222100Z AUTO 32004KT 9SM 14/10 A3006 RMK SLP185 T01350102 57002 IEM_DS3505
ZGGG,2002-11-22 22:00,ZGGG 222200Z AUTO 34006KT 6SM 14/09 A3009 RMK T01400090 IEM_DS3505
ZGGG,2002-11-22 23:00,ZGGG 222300Z AUTO 36006KT 6SM 14/09 A3012 RMK T01400090 IEM_DS3505
ZGGG,2002-11-23 00:00,ZGGG 230000Z AUTO 02002KT 12SM 14/10 A3012 RMK SLP202 T01450105 52017 IEM_DS3505
ZGGG,2002-11-23 01:00,ZGGG 230100Z AUTO 36010KT 6SM 16/09 A3015 RMK T01600090 IEM_DS3505
ZGGG,2002-11-23 02:00,ZGGG 230200Z AUTO 36010KT 6SM 17/10 A3015 RMK T01700100 IEM_DS3505
ZGGG,2002-11-23 03:00,ZGGG 230300Z AUTO 32004KT 11SM 19/11 A3012 RMK SLP198 T01860113 57004 IEM_DS3505
ZGGG,2002-11-23 04:00,ZGGG 230400Z AUTO 36010KT 6SM 19/11 A3009 RMK T01900110 IEM_DS3505
ZGGG,2002-11-23 05:00,ZGGG 230500Z AUTO 36008KT 6SM 21/11 A3003 RMK T02100110 IEM_DS3505
ZGGG,2002-11-23 06:00,ZGGG 230600Z AUTO 25004KT 11SM 22/13 A3000 RMK SLP161 T02240129 57037 IEM_DS3505
ZGGG,2002-11-23 07:00,ZGGG 230700Z AUTO 36006KT 6SM 22/12 A2997 RMK T02200120 IEM_DS3505
ZGGG,2002-11-23 08:00,ZGGG 230800Z AUTO 33006KT 6SM 22/12 A2997 RMK T02200120 IEM_DS3505
ZGGG,2002-11-23 09:00,ZGGG 230900Z AUTO 34004KT 12SM 22/13 A2997 RMK SLP151 T02180129 57010 IEM_DS3505
ZGGG,2002-11-23 10:00,ZGGG 231000Z AUTO 31006KT 6SM 21/12 A2997 RMK T02100120 IEM_DS3505
ZGGG,2002-11-23 11:00,ZGGG 231100Z AUTO 34006KT 6SM 20/12 A3000 RMK T02000120 IEM_DS3505
ZGGG,2002-11-23 12:00,ZGGG 231200Z AUTO 00000KT 12SM 18/14 A3000 RMK SLP166 T01840135 52015 IEM_DS3505
ZGGG,2002-11-23 13:00,ZGGG 231300Z AUTO 02004KT 6SM 19/12 A3003 RMK T01900120 IEM_DS3505
ZGGG,2002-11-23 14:00,ZGGG 231400Z AUTO 34006KT 6SM 19/12 A3003 RMK T01900120 IEM_DS3505
ZGGG,2002-11-23 15:00,ZGGG 231500Z AUTO 34004KT 10SM 18/13 A3006 RMK SLP180 T01850132 52014 IEM_DS3505
ZGGG,2002-11-23 16:00,ZGGG 231600Z AUTO 33004KT 7SM 18/13 A3009 RMK T01800130 IEM_DS3505
ZGGG,2002-11-23 17:00,ZGGG 231700Z AUTO 02004KT 4SM 17/14 A3009 RMK T01700140 IEM_DS3505
ZGGG,2002-11-23 18:00,ZGGG 231800Z AUTO 32004KT 9SM 17/14 A3009 RMK 60001 SLP188 T01690141 52009 IEM_DS3505
ZGGG,2002-11-23 19:00,ZGGG 231900Z AUTO 35006KT 4SM 17/12 A3006 RMK T01700120 IEM_DS3505
ZGGG,2002-11-23 20:00,ZGGG 232000Z AUTO 35006KT 4SM 17/12 A3006 RMK T01700120 IEM_DS3505
ZGGG,2002-11-23 21:00,ZGGG 232100Z AUTO 32004KT 9SM 17/12 A3009 RMK 70001 SLP185 T01680115 57004 IEM_DS3505
ZGGG,2002-11-23 22:00,ZGGG 232200Z AUTO 34008KT 7SM 17/10 A3009 RMK T01700100 IEM_DS3505
ZGGG,2002-11-23 23:00,ZGGG 232300Z AUTO 36010KT 5SM 17/11 A3012 RMK T01700110 IEM_DS3505
ZGGG,2002-11-24 00:00,ZGGG 240000Z AUTO 36004KT 11SM 16/11 A3012 RMK 70002 SLP203 T01650113 52018 IEM_DS3505
ZGGG,2002-11-24 03:00,ZGGG 240300Z AUTO 36006KT 8SM 19/10 A3015 RMK SLP209 T01920103 52006 IEM_DS3505
ZGGG,2002-11-24 04:00,ZGGG 240400Z AUTO 35010KT 6SM 19/10 A3015 RMK T01900100 IEM_DS3505
ZGGG,2002-11-24 05:00,ZGGG 240500Z AUTO 34010KT 6SM 21/09 A3012 RMK T02100090 IEM_DS3505
ZGGG,2002-11-24 06:00,ZGGG 240600Z AUTO 34012KT 10SM 21/10 A3009 RMK SLP184 T02140100 57025 IEM_DS3505
ZGGG,2002-11-24 07:00,ZGGG 240700Z AUTO 34012KT 6SM 19/11 A3009 RMK T01900110 IEM_DS3505
ZGGG,2002-11-24 08:00,ZGGG 240800Z AUTO 33010KT 7SM 19/11 A3009 RMK T01900110 IEM_DS3505
ZGGG,2002-11-24 09:00,ZGGG 240900Z AUTO 34004KT 9SM 19/10 A3009 RMK SLP189 T01880105 52005 IEM_DS3505
ZGGG,2002-11-24 10:00,ZGGG 241000Z AUTO 35012KT 7SM 18/09 A3012 RMK T01800090 IEM_DS3505
ZGGG,2002-11-24 11:00,ZGGG 241100Z AUTO 34010KT 6SM 17/09 A3015 RMK T01700090 IEM_DS3505
ZGGG,2002-11-24 12:00,ZGGG 241200Z AUTO 36008KT 10SM 16/10 A3018 RMK T01630096 IEM_DS3505
ZGGG,2002-11-24 13:00,ZGGG 241300Z AUTO 35008KT 6SM 16/10 A3018 RMK T01600100 IEM_DS3505
ZGGG,2002-11-24 14:00,ZGGG 241400Z AUTO 34008KT 6SM 16/09 A3021 RMK T01600090 IEM_DS3505
ZGGG,2002-11-24 15:00,ZGGG 241500Z AUTO 36004KT 10SM 15/09 A3021 RMK SLP225 T01510088 52010 IEM_DS3505
ZGGG,2002-11-24 16:00,ZGGG 241600Z AUTO 36010KT 6SM 16/08 A3021 RMK T01600080 IEM_DS3505
ZGGG,2002-11-24 17:00,ZGGG 241700Z AUTO 35010KT 6SM 16/08 A3021 RMK T01600080 IEM_DS3505
ZGGG,2002-11-24 18:00,ZGGG 241800Z AUTO 36006KT 10SM 15/07 A3021 RMK SLP230 T01490067 52005 IEM_DS3505
ZGGG,2002-11-24 19:00,ZGGG 241900Z AUTO 35008KT 6SM 16/06 A3021 RMK T01600060 IEM_DS3505
ZGGG,2002-11-24 20:00,ZGGG 242000Z AUTO 36012KT 6SM 15/05 A3021 RMK T01500050 IEM_DS3505
ZGGG,2002-11-24 21:00,ZGGG 242100Z AUTO 36004KT 11SM 14/05 A3021 RMK 70001 SLP225 T01450049 57005 IEM_DS3505
ZGGG,2002-11-24 22:00,ZGGG 242200Z AUTO 35008KT 6SM 14/05 A3021 RMK T01400050 IEM_DS3505
ZGGG,2002-11-24 23:00,ZGGG 242300Z AUTO 36008KT 6SM 14/05 A3024 RMK T01400050 IEM_DS3505
ZGGG,2002-11-25 00:00,ZGGG 250000Z AUTO 36006KT 7SM 14/06 A3024 RMK 70000 SLP233 T01410062 52008 IEM_DS3505
ZGGG,2002-11-25 01:00,ZGGG 250100Z AUTO 35010KT 6SM 15/06 A3024 RMK T01500060 IEM_DS3505
ZGGG,2002-11-25 02:00,ZGGG 250200Z AUTO 36016KT 6SM 16/06 A3024 RMK T01600060 IEM_DS3505
ZGGG,2002-11-25 03:00,ZGGG 250300Z AUTO 02004KT 14SM 18/07 A3024 RMK SLP236 T01750071 52003 IEM_DS3505
ZGGG,2002-11-25 04:00,ZGGG 250400Z AUTO 35010KT 6SM 18/06 A3021 RMK T01800060 IEM_DS3505
ZGGG,2002-11-25 05:00,ZGGG 250500Z AUTO 36010KT 6SM 18/06 A3018 RMK T01800060 IEM_DS3505
ZGGG,2002-11-25 06:00,ZGGG 250600Z AUTO 32006KT 13SM 20/08 A3012 RMK SLP203 T02020083 57033 IEM_DS3505
ZGGG,2002-11-25 07:00,ZGGG 250700Z AUTO 36010KT 6SM 19/07 A3012 RMK T01900070 IEM_DS3505
ZGGG,2002-11-25 08:00,ZGGG 250800Z AUTO 34008KT 6SM 19/07 A3012 RMK T01900070 IEM_DS3505
ZGGG,2002-11-25 09:00,ZGGG 250900Z AUTO 36004KT 12SM 19/09 A3012 RMK SLP205 T01930086 52002 IEM_DS3505
ZGGG,2002-11-25 10:00,ZGGG 251000Z AUTO 01008KT 6SM 17/07 A3015 RMK T01700070 IEM_DS3505
ZGGG,2002-11-25 11:00,ZGGG 251100Z AUTO 33008KT 6SM 18/07 A3018 RMK T01800070 IEM_DS3505
ZGGG,2002-11-25 12:00,ZGGG 251200Z AUTO 36004KT 12SM 16/09 A3021 RMK SLP229 T01640090 52024 IEM_DS3505
ZGGG,2002-11-25 13:00,ZGGG 251300Z AUTO 36008KT 6SM 17/08 A3024 RMK T01700080 IEM_DS3505
ZGGG,2002-11-25 14:00,ZGGG 251400Z AUTO 01010KT 6SM 16/08 A3024 RMK T01600080 IEM_DS3505
ZGGG,2002-11-25 15:00,ZGGG 251500Z AUTO 34002KT 12SM 15/07 A3024 RMK SLP243 T01530072 52014 IEM_DS3505
ZGGG,2002-11-25 16:00,ZGGG 251600Z AUTO 01008KT 6SM 14/07 A3024 RMK T01400070 IEM_DS3505
ZGGG,2002-11-25 17:00,ZGGG 251700Z AUTO 01008KT 6SM 13/06 A3027 RMK T01300060 IEM_DS3505
ZGGG,2002-11-25 18:00,ZGGG 251800Z AUTO 09004KT 11SM 13/06 A3027 RMK SLP246 T01330064 52003 IEM_DS3505
ZGGG,2002-11-25 19:00,ZGGG 251900Z AUTO 35008KT 6SM 14/04 A3027 RMK T01400040 IEM_DS3505
ZGGG,2002-11-25 20:00,ZGGG 252000Z AUTO 36008KT 6SM 13/06 A3027 RMK T01300060 IEM_DS3505
ZGGG,2002-11-25 21:00,ZGGG 252100Z AUTO 07004KT 9SM 13/04 A3024 RMK SLP241 T01320042 57005 IEM_DS3505
ZGGG,2002-11-25 22:00,ZGGG 252200Z AUTO 34006KT 6SM 13/03 A3030 RMK T01300030 IEM_DS3505
ZGGG,2002-11-25 23:00,ZGGG 252300Z AUTO 36008KT 6SM 13/03 A3030 RMK T01300030 IEM_DS3505
ZGGG,2002-11-26 00:00,ZGGG 260000Z AUTO 32004KT 10SM 14/04 A3030 RMK SLP261 T01390037 52019 IEM_DS3505
ZGGG,2002-11-26 01:00,ZGGG 260100Z AUTO 36010KT 6SM 16/02 A3033 RMK T01600020 IEM_DS3505
ZGGG,2002-11-26 02:00,ZGGG 260200Z AUTO 36010KT 6SM 17/01 A3033 RMK T01700010 IEM_DS3505
ZGGG,2002-11-26 03:00,ZGGG 260300Z AUTO 36008KT 11SM 19/02 A3030 RMK SLP261 T01860018 52001 IEM_DS3505
ZGGG,2002-11-26 04:00,ZGGG 260400Z AUTO 36006KT 6SM 19/01 A3027 RMK T01900010 IEM_DS3505
ZGGG,2002-11-26 05:00,ZGGG 260500Z AUTO 34008KT 6SM 20/00 A3024 RMK T02000000 IEM_DS3505
ZGGG,2002-11-26 06:00,ZGGG 260600Z AUTO 36006KT 13SM 22/03 A3021 RMK SLP223 T02200029 57038 IEM_DS3505
ZGGG,2002-11-26 07:00,ZGGG 260700Z AUTO 34006KT 6SM 21/01 A3018 RMK T02100010 IEM_DS3505
ZGGG,2002-11-26 08:00,ZGGG 260800Z AUTO 36006KT 6SM 22/01 A3018 RMK T02200010 IEM_DS3505
ZGGG,2002-11-26 09:00,ZGGG 260900Z AUTO 04004KT 12SM 20/04 A3018 RMK SLP219 T02040040 57004 IEM_DS3505
ZGGG,2002-11-26 10:00,ZGGG 261000Z AUTO 03006KT 6SM 19/03 A3018 RMK T01900030 IEM_DS3505
ZGGG,2002-11-26 11:00,ZGGG 261100Z AUTO 36008KT 6SM 19/02 A3021 RMK T01900020 IEM_DS3505
ZGGG,2002-11-26 12:00,ZGGG 261200Z AUTO 04002KT 11SM 18/05 A3021 RMK SLP231 T01830050 52012 IEM_DS3505
ZGGG,2002-11-26 13:00,ZGGG 261300Z AUTO 01006KT 6SM 18/05 A3024 RMK T01800050 IEM_DS3505
ZGGG,2002-11-26 14:00,ZGGG 261400Z AUTO 01006KT 6SM 17/04 A3024 RMK T01700040 IEM_DS3505
ZGGG,2002-11-26 15:00,ZGGG 261500Z AUTO 02002KT 11SM 18/04 RMK SLP240 T01750038 52009 IEM_DS3505
ZGGG,2002-11-26 16:00,ZGGG 261600Z AUTO 36006KT 6SM 17/03 A3024 RMK T01700030 IEM_DS3505
ZGGG,2002-11-26 17:00,ZGGG 261700Z AUTO 02006KT 6SM 17/04 A3021 RMK T01700040 IEM_DS3505
ZGGG,2002-11-26 18:00,ZGGG 261800Z AUTO 04002KT 10SM 17/05 RMK SLP229 T01710050 57011 IEM_DS3505
ZGGG,2002-11-26 19:00,ZGGG 261900Z AUTO 01004KT 6SM 16/05 A3021 RMK T01600050 IEM_DS3505
ZGGG,2002-11-26 20:00,ZGGG 262000Z AUTO 36004KT 6SM 17/04 A3021 RMK T01700040 IEM_DS3505
ZGGG,2002-11-26 21:00,ZGGG 262100Z AUTO 35006KT 6SM 17/03 A3024 RMK T01700030 IEM_DS3505
ZGGG,2002-11-26 22:00,ZGGG 262200Z AUTO 01008KT 7SM 14/07 A3021 RMK T01400070 IEM_DS3505
ZGGG,2002-11-26 23:00,ZGGG 262300Z AUTO 01006KT 6SM 14/08 A3024 RMK T01400080 IEM_DS3505
ZGGG,2002-11-27 00:00,ZGGG 270000Z AUTO 36004KT 9SM 15/08 A3027 RMK 70000 SLP248 T01500075 52016 IEM_DS3505
ZGGG,2002-11-27 01:00,ZGGG 270100Z AUTO 03004KT 5SM 16/06 A3027 RMK T01600060 IEM_DS3505
ZGGG,2002-11-27 02:00,ZGGG 270200Z AUTO 07004KT 5SM 17/06 A3027 RMK T01700060 IEM_DS3505
ZGGG,2002-11-27 03:00,ZGGG 270300Z AUTO 02004KT 11SM 17/06 A3024 RMK SLP242 T01720064 57006 IEM_DS3505
ZGGG,2002-11-27 04:00,ZGGG 270400Z AUTO 36008KT 17/07 A3024 RMK T01700070 IEM_DS3505
ZGGG,2002-11-27 05:00,ZGGG 270500Z AUTO 01004KT 17/08 A3021 RMK T01700080 IEM_DS3505
ZGGG,2002-11-27 06:00,ZGGG 270600Z AUTO 00000KT 11SM 17/07 A3018 RMK SLP222 T01680074 57020 IEM_DS3505
ZGGG,2002-11-27 07:00,ZGGG 270700Z AUTO 33004KT 5SM 17/06 A3018 RMK T01700060 IEM_DS3505
ZGGG,2002-11-27 08:00,ZGGG 270800Z AUTO 36004KT 17/06 A3018 RMK T01700060 IEM_DS3505
ZGGG,2002-11-27 09:00,ZGGG 270900Z AUTO 32002KT 9SM 17/08 A3018 RMK SLP219 T01660077 57003 IEM_DS3505
ZGGG,2002-11-27 10:00,ZGGG 271000Z AUTO 04004KT 17/07 A3018 RMK T01700070 IEM_DS3505
ZGGG,2002-11-27 11:00,ZGGG 271100Z AUTO 03004KT 5SM 16/06 A3021 RMK T01600060 IEM_DS3505
ZGGG,2002-11-27 12:00,ZGGG 271200Z AUTO 04004KT 9SM 16/09 A3021 RMK SLP224 T01620086 52005 IEM_DS3505
ZGGG,2002-11-27 13:00,ZGGG 271300Z AUTO 06004KT 7SM 17/08 A3021 RMK T01700080 IEM_DS3505
ZGGG,2002-11-27 14:00,ZGGG 271400Z AUTO 36006KT 7SM 16/08 A3021 RMK T01600080 IEM_DS3505
ZGGG,2002-11-27 15:00,ZGGG 271500Z AUTO 34002KT 9SM 15/09 A3021 RMK SLP230 T01540094 52006 IEM_DS3505
ZGGG,2002-11-27 17:00,ZGGG 271700Z AUTO 35006KT 2 1/2SM 13/11 A3021 RMK T01300110 IEM_DS3505
ZGGG,2002-11-27 18:00,ZGGG 271800Z AUTO 34004KT 7SM 13/12 A3018 RMK 60001 SLP218 T01300115 57012 IEM_DS3505
ZGGG,2002-11-27 19:00,ZGGG 271900Z AUTO 35006KT 2 1/2SM 13/11 A3018 RMK T01300110 IEM_DS3505
ZGGG,2002-11-27 20:00,ZGGG 272000Z AUTO 36006KT 2SM 13/12 A3018 RMK T01300120 IEM_DS3505
ZGGG,2002-11-27 21:00,ZGGG 272100Z AUTO 00000KT 1 1/4SM 13/12 A3015 RMK 70011 SLP213 T01280121 57005 IEM_DS3505
ZGGG,2002-11-27 22:00,ZGGG 272200Z AUTO 00000KT 4SM 13/12 A3015 RMK T01300120 IEM_DS3505
ZGGG,2002-11-27 23:00,ZGGG 272300Z AUTO 07004KT 2 1/2SM 13/12 A3015 RMK T01300120 IEM_DS3505
ZGGG,2002-11-28 00:00,ZGGG 280000Z AUTO 00000KT 2SM 13/13 A3018 RMK 60024 70026 SLP223 T01320126 52009 IEM_DS3505
ZGGG,2002-11-28 01:00,ZGGG 280100Z AUTO 36006KT 2SM 13/12 A3021 RMK T01300120 IEM_DS3505
ZGGG,2002-11-28 03:00,ZGGG 280300Z AUTO 07002KT 5SM 14/13 A3018 RMK SLP219 T01450132 57003 IEM_DS3505
ZGGG,2002-11-28 04:00,ZGGG 280400Z AUTO 02006KT 2 1/2SM 14/13 A3015 RMK T01400130 IEM_DS3505
ZGGG,2002-11-28 05:00,ZGGG 280500Z AUTO 35004KT 2 1/2SM 14/13 A3012 RMK T01400130 IEM_DS3505
ZGGG,2002-11-28 06:00,ZGGG 280600Z AUTO 34004KT 2 1/2SM 15/13 A3012 RMK 60012 SLP200 T01460133 57020 IEM_DS3505
ZGGG,2002-11-28 07:00,ZGGG 280700Z AUTO 32006KT 3SM 14/13 A3009 RMK T01400130 IEM_DS3505
ZGGG,2002-11-28 08:00,ZGGG 280800Z AUTO 34006KT 3SM 14/12 A3009 RMK T01400120 IEM_DS3505
ZGGG,2002-11-28 09:00,ZGGG 280900Z AUTO 36004KT 3SM 14/13 A3012 RMK SLP201 T01440131 52001 IEM_DS3505
ZGGG,2002-11-28 10:00,ZGGG 281000Z AUTO 35006KT 2SM 14/13 A3012 RMK T01400130 IEM_DS3505
ZGGG,2002-11-28 11:00,ZGGG 281100Z AUTO 35004KT 4SM 15/13 A3015 RMK T01500130 IEM_DS3505
ZGGG,2002-11-28 12:00,ZGGG 281200Z AUTO 34004KT 9SM 15/14 A3015 RMK SLP214 T01480137 52013 IEM_DS3505
ZGGG,2002-11-28 13:00,ZGGG 281300Z AUTO 01006KT 2 1/2SM 14/13 A3018 RMK T01400130 IEM_DS3505
ZGGG,2002-11-28 14:00,ZGGG 281400Z AUTO 36004KT 3SM 14/13 A3018 RMK T01400130 IEM_DS3505
ZGGG,2002-11-28 15:00,ZGGG 281500Z AUTO 29002KT 7SM 15/14 A3018 RMK SLP214 T01510144 52001 IEM_DS3505
ZGGG,2002-11-28 16:00,ZGGG 281600Z AUTO 34002KT 2 1/2SM 15/14 A3015 RMK T01500140 IEM_DS3505
ZGGG,2002-11-28 17:00,ZGGG 281700Z AUTO 36002KT 2SM 15/14 A3015 RMK T01500140 IEM_DS3505
ZGGG,2002-11-28 18:00,ZGGG 281800Z AUTO 29002KT 9SM 15/15 A3015 RMK SLP203 T01520147 57011 IEM_DS3505
ZGGG,2002-11-28 19:00,ZGGG 281900Z AUTO 03006KT 1 1/4SM 15/14 A3012 RMK T01500140 IEM_DS3505
ZGGG,2002-11-28 20:00,ZGGG 282000Z AUTO 26002KT 2 1/2SM 16/15 A3012 RMK T01600150 IEM_DS3505
ZGGG,2002-11-28 21:00,ZGGG 282100Z AUTO 00000KT 2SM 16/15 A3012 RMK 70030 SLP198 T01550152 57005 IEM_DS3505
ZGGG,2002-11-28 22:00,ZGGG 282200Z AUTO 33004KT 3SM 16/15 A3012 RMK T01600150 IEM_DS3505
ZGGG,2002-11-28 23:00,ZGGG 282300Z AUTO 34002KT 2 1/2SM 16/14 A3015 RMK T01600140 IEM_DS3505
ZGGG,2002-11-29 00:00,ZGGG 290000Z AUTO 32002KT 2SM 16/15 A3018 RMK 70015 SLP215 T01600153 52017 IEM_DS3505
ZGGG,2002-11-29 01:00,ZGGG 290100Z AUTO 01006KT 1 1/2SM 16/15 A3018 RMK T01600150 IEM_DS3505
ZGGG,2002-11-29 02:00,ZGGG 290200Z AUTO 36004KT 2SM 17/15 A3018 RMK T01700150 IEM_DS3505
ZGGG,2002-11-29 03:00,ZGGG 290300Z AUTO 27002KT 5SM 18/16 A3018 RMK SLP217 T01780159 52002 IEM_DS3505
ZGGG,2002-11-29 04:00,ZGGG 290400Z AUTO 36004KT 2 1/2SM 17/15 A3015 RMK T01700150 IEM_DS3505
ZGGG,2002-11-29 05:00,ZGGG 290500Z AUTO 32002KT 2SM 17/15 A3012 RMK T01700150 IEM_DS3505
ZGGG,2002-11-29 06:00,ZGGG 290600Z AUTO 32002KT 5SM 18/17 A3009 RMK SLP189 T01800167 57028 IEM_DS3505
ZGGG,2002-11-29 07:00,ZGGG 290700Z AUTO 32004KT 1SM 17/16 A3006 RMK T01700160 IEM_DS3505
ZGGG,2002-11-29 08:00,ZGGG 290800Z AUTO 32006KT 1SM 17/16 A3006 RMK T01700160 IEM_DS3505
ZGGG,2002-11-29 09:00,ZGGG 290900Z AUTO 32002KT 3SM 18/17 A3009 RMK SLP182 T01760166 57007 IEM_DS3505
ZGGG,2002-11-29 10:00,ZGGG 291000Z AUTO 34006KT 1SM 17/16 A3009 RMK T01700160 IEM_DS3505
ZGGG,2002-11-29 11:00,ZGGG 291100Z AUTO 31004KT 1 1/2SM 17/16 A3009 RMK T01700160 IEM_DS3505
ZGGG,2002-11-29 12:00,ZGGG 291200Z AUTO 00000KT 7SM 18/17 A3009 RMK 60003 SLP192 T01760173 52010 IEM_DS3505
ZGGG,2002-11-29 13:00,ZGGG 291300Z AUTO 33004KT 1 1/2SM 17/17 A3012 RMK T01700170 IEM_DS3505
ZGGG,2002-11-29 14:00,ZGGG 291400Z AUTO 33004KT 2SM 18/17 A3012 RMK T01800170 IEM_DS3505
ZGGG,2002-11-29 15:00,ZGGG 291500Z AUTO 34002KT 3SM 18/17 A3012 RMK SLP202 T01760173 52010 IEM_DS3505
ZGGG,2002-11-29 16:00,ZGGG 291600Z AUTO 35002KT 1 1/2SM 17/17 A3009 RMK T01700170 IEM_DS3505
ZGGG,2002-11-29 17:00,ZGGG 291700Z AUTO 00000KT 1SM 17/17 A3009 RMK T01700170 IEM_DS3505
ZGGG,2002-11-29 18:00,ZGGG 291800Z AUTO 34002KT 2 1/2SM 17/17 A3009 RMK SLP188 T01740171 57014 IEM_DS3505
ZGGG,2002-11-29 19:00,ZGGG 291900Z AUTO 30002KT 1SM 17/17 A3006 RMK T01700170 IEM_DS3505
ZGGG,2002-11-29 20:00,ZGGG 292000Z AUTO 32002KT 1SM 17/17 A3006 RMK T01700170 IEM_DS3505
ZGGG,2002-11-29 21:00,ZGGG 292100Z AUTO 32006KT 1SM 17/17 A3006 RMK 70004 SLP184 T01740169 57004 IEM_DS3505
ZGGG,2002-11-29 22:00,ZGGG 292200Z AUTO 31004KT 1SM 17/17 A3009 RMK T01700170 IEM_DS3505
ZGGG,2002-11-29 23:00,ZGGG 292300Z AUTO 35006KT 1 1/4SM 17/17 A3009 RMK T01700170 IEM_DS3505
ZGGG,2002-11-30 00:00,ZGGG 300000Z AUTO 00000KT 7SM 18/18 A3012 RMK 60008 70011 SLP194 T01780175 52010 IEM_DS3505
ZGGG,2002-11-30 01:00,ZGGG 300100Z AUTO 36008KT 2 1/2SM 18/18 A3012 RMK T01800180 IEM_DS3505
ZGGG,2002-11-30 02:00,ZGGG 300200Z AUTO 35006KT 7SM 18/18 A3012 RMK T01800180 IEM_DS3505
ZGGG,2002-11-30 03:00,ZGGG 300300Z AUTO 00000KT 6SM 19/19 A3012 RMK SLP196 T01920186 52002 IEM_DS3505
ZGGG,2002-11-30 04:00,ZGGG 300400Z AUTO 35006KT 3SM 19/18 A3009 RMK T01900180 IEM_DS3505
ZGGG,2002-11-30 05:00,ZGGG 300500Z AUTO 27004KT 1 1/2SM 19/18 A3006 RMK T01900180 IEM_DS3505
ZGGG,2002-11-30 06:00,ZGGG 300600Z AUTO 32004KT 1 1/2SM 19/19 A3003 RMK 60031 SLP175 T01920186 57021 IEM_DS3505
ZGGG,2002-11-30 07:00,ZGGG 300700Z AUTO 32004KT 2 1/2SM 19/18 A3000 RMK T01900180 IEM_DS3505
ZGGG,2002-11-30 08:00,ZGGG 300800Z AUTO 35004KT 2 1/2SM 19/18 A3000 RMK T01900180 IEM_DS3505
ZGGG,2002-11-30 09:00,ZGGG 300900Z AUTO 34004KT 4SM 20/18 A3000 RMK SLP167 T01950185 57008 IEM_DS3505
ZGGG,2002-11-30 10:00,ZGGG 301000Z AUTO 34004KT 3SM 20/18 A3003 RMK T02000180 IEM_DS3505
ZGGG,2002-11-30 11:00,ZGGG 301100Z AUTO 34004KT 4SM 20/18 A3003 RMK T02000180 IEM_DS3505
ZGGG,2002-11-30 12:00,ZGGG 301200Z AUTO 00000KT 9SM 19/19 A3006 RMK 60012 SLP180 T01910186 52013 IEM_DS3505
ZGGG,2002-11-30 13:00,ZGGG 301300Z AUTO 31004KT 2 1/2SM 19/18 A3006 RMK T01900180 IEM_DS3505
ZGGG,2002-11-30 14:00,ZGGG 301400Z AUTO 31002KT 3SM 19/18 A3006 RMK T01900180 IEM_DS3505
ZGGG,2002-11-30 15:00,ZGGG 301500Z AUTO 00000KT 2SM 19/18 A3006 RMK SLP187 T01890183 52007 IEM_DS3505
ZGGG,2002-11-30 16:00,ZGGG 301600Z AUTO 06002KT 3SM 19/18 A3006 RMK T01900180 IEM_DS3505
ZGGG,2002-11-30 17:00,ZGGG 301700Z AUTO 31002KT 2SM 19/18 A3006 RMK T01900180 IEM_DS3505
ZGGG,2002-11-30 18:00,ZGGG 301800Z AUTO 32002KT 2SM 19/18 A3003 RMK SLP174 T01860181 57013 IEM_DS3505
ZGGG,2002-11-30 19:00,ZGGG 301900Z AUTO 35004KT 3SM 18/18 A3003 RMK T01800180 IEM_DS3505
ZGGG,2002-11-30 20:00,ZGGG 302000Z AUTO 02004KT 3SM 18/18 A3000 RMK T01800180 IEM_DS3505
ZGGG,2002-11-30 21:00,ZGGG 302100Z AUTO 00000KT 3SM 19/18 A3000 RMK 70049 SLP162 T01860181 57011 IEM_DS3505
ZGGG,2002-11-30 22:00,ZGGG 302200Z AUTO 00000KT 4SM 18/18 A3003 RMK T01800180 IEM_DS3505
ZGGG,2002-11-30 23:00,ZGGG 302300Z AUTO 36002KT 1 1/2SM 18/17 A3003 RMK T01800170 IEM_DS3505
ZGGG,2002-12-01 00:00,ZGGG 010000Z AUTO 00000KT 1 1/2SM 18/18 A3003 RMK 60004 70046 SLP173 T01850183 52010 IEM_DS3505
ZGGG,2002-12-01 01:00,ZGGG 010100Z AUTO 04002KT 1SM 18/18 A3006 RMK T01800180 IEM_DS3505
ZGGG,2002-12-01 02:00,ZGGG 010200Z AUTO 36002KT 1SM 18/18 A3006 RMK T01800180 IEM_DS3505
ZGGG,2002-12-01 03:00,ZGGG 010300Z AUTO 02004KT 4SM 19/19 A3006 RMK SLP177 T01930187 52004 IEM_DS3505
ZGGG,2002-12-01 04:00,ZGGG 010400Z AUTO 36002KT 1SM 19/19 A3003 RMK T01900190 IEM_DS3505
ZGGG,2002-12-01 05:00,ZGGG 010500Z AUTO 27004KT 1SM 18/18 A3000 RMK T01800180 IEM_DS3505
ZGGG,2002-12-01 06:00,ZGGG 010600Z AUTO 09002KT 2 1/2SM 19/19 A2997 RMK 60012 SLP150 T01940191 57026 IEM_DS3505
ZGGG,2002-12-01 07:00,ZGGG 010700Z AUTO 32004KT 1SM 18/18 A2997 RMK T01800180 IEM_DS3505
ZGGG,2002-12-01 08:00,ZGGG 010800Z AUTO 35006KT 1SM 19/19 A2994 RMK T01900190 IEM_DS3505
ZGGG,2002-12-01 09:00,ZGGG 010900Z AUTO 00000KT 1SM 19/19 A2997 RMK SLP148 T01920189 57002 IEM_DS3505
ZGGG,2002-12-01 10:00,ZGGG 011000Z AUTO 01004KT 2SM 18/18 A2997 RMK T01800180 IEM_DS3505
ZGGG,2002-12-01 11:00,ZGGG 011100Z AUTO 28004KT 1 1/4SM 19/19 A3000 RMK T01900190 IEM_DS3505
ZGGG,2002-12-01 12:00,ZGGG 011200Z AUTO 00000KT 1 1/4SM 19/19 A3000 RMK 60012 SLP159 T01920189 52011 IEM_DS3505
ZGGG,2002-12-01 13:00,ZGGG 011300Z AUTO 35004KT 2 1/2SM 18/18 A3000 RMK T01800180 IEM_DS3505
ZGGG,2002-12-01 14:00,ZGGG 011400Z AUTO 34002KT 2SM 18/18 A3003 RMK T01800180 IEM_DS3505
ZGGG,2002-12-01 15:00,ZGGG 011500Z AUTO 14002KT 2SM 19/19 A3003 RMK SLP165 T01900187 52006 IEM_DS3505
ZGGG,2002-12-01 16:00,ZGGG 011600Z AUTO 00000KT 2SM 19/19 A3003 RMK T01900190 IEM_DS3505
ZGGG,2002-12-01 17:00,ZGGG 011700Z AUTO 00000KT 1 1/2SM 19/19 A3003 RMK T01900190 IEM_DS3505
ZGGG,2002-12-01 18:00,ZGGG 011800Z AUTO 00000KT 2SM 19/18 A3000 RMK SLP161 T01900184 57004 IEM_DS3505
ZGGG,2002-12-01 19:00,ZGGG 011900Z AUTO 00000KT 1SM 19/19 A3000 RMK T01900190 IEM_DS3505
ZGGG,2002-12-01 20:00,ZGGG 012000Z AUTO 24002KT 1SM 19/19 A3000 RMK T01900190 IEM_DS3505
ZGGG,2002-12-01 21:00,ZGGG 012100Z AUTO 00000KT 2SM 19/18 A3000 RMK 70034 SLP159 T01900180 57002 IEM_DS3505
ZGGG,2002-12-01 22:00,ZGGG 012200Z AUTO 31004KT 1SM 19/19 A3003 RMK T01900190 IEM_DS3505
ZGGG,2002-12-01 23:00,ZGGG 012300Z AUTO 26004KT 3/8SM 19/19 A3003 RMK T01900190 IEM_DS3505
ZGGG,2002-12-02 00:00,ZGGG 020000Z AUTO 00000KT 1 1/4SM 19/19 A3006 RMK 60012 70038 SLP177 T01900187 52017 IEM_DS3505
ZGGG,2002-12-02 01:00,ZGGG 020100Z AUTO 36002KT 1SM 19/19 A3006 RMK T01900190 IEM_DS3505
ZGGG,2002-12-02 02:00,ZGGG 020200Z AUTO 00000KT 1SM 20/19 A3009 RMK T02000190 IEM_DS3505
ZGGG,2002-12-02 03:00,ZGGG 020300Z AUTO 09002KT 1SM 21/19 A3006 RMK SLP181 T02110191 52005 IEM_DS3505
ZGGG,2002-12-02 04:00,ZGGG 020400Z AUTO 10002KT 1SM 22/19 A3006 RMK T02200190 IEM_DS3505
ZGGG,2002-12-02 05:00,ZGGG 020500Z AUTO 34004KT 1SM 22/19 A3000 RMK T02200190 IEM_DS3505
ZGGG,2002-12-02 06:00,ZGGG 020600Z AUTO 09002KT 1SM 22/20 A3000 RMK SLP157 T02230203 57024 IEM_DS3505
ZGGG,2002-12-02 07:00,ZGGG 020700Z AUTO 01002KT 1SM 21/19 A2997 RMK T02100190 IEM_DS3505
ZGGG,2002-12-02 08:00,ZGGG 020800Z AUTO 31004KT 1SM 22/20 A2997 RMK T02200200 IEM_DS3505
ZGGG,2002-12-02 09:00,ZGGG 020900Z AUTO 00000KT 1SM 22/21 A2997 RMK SLP154 T02200209 57003 IEM_DS3505
ZGGG,2002-12-02 10:00,ZGGG 021000Z AUTO 03004KT 1SM 22/21 A3000 RMK T02200210 IEM_DS3505
ZGGG,2002-12-02 11:00,ZGGG 021100Z AUTO 10002KT 1 1/2SM 22/20 A3000 RMK T02200200 IEM_DS3505
ZGGG,2002-12-02 12:00,ZGGG 021200Z AUTO 00000KT 3SM 21/20 A3003 RMK SLP169 T02120204 52015 IEM_DS3505
ZGGG,2002-12-02 13:00,ZGGG 021300Z AUTO 11004KT 1 1/4SM 22/21 A3003 RMK T02200210 IEM_DS3505
ZGGG,2002-12-02 14:00,ZGGG 021400Z AUTO 13006KT 1 1/4SM 22/21 A3003 RMK T02200210 IEM_DS3505
ZGGG,2002-12-02 15:00,ZGGG 021500Z AUTO 14004KT 1 1/4SM 22/21 A3003 RMK SLP173 T02160207 52004 IEM_DS3505
ZGGG,2002-12-02 16:00,ZGGG 021600Z AUTO 12004KT 2SM 22/21 A3003 RMK T02200210 IEM_DS3505
ZGGG,2002-12-02 17:00,ZGGG 021700Z AUTO 14002KT 2 1/2SM 22/21 A3003 RMK T02200210 IEM_DS3505
ZGGG,2002-12-02 18:00,ZGGG 021800Z AUTO 11002KT 1 1/2SM 21/20 A3003 RMK SLP168 T02120204 57005 IEM_DS3505
ZGGG,2002-12-02 19:00,ZGGG 021900Z AUTO 00000KT 1 1/2SM 21/21 A3003 RMK T02100210 IEM_DS3505
ZGGG,2002-12-02 20:00,ZGGG 022000Z AUTO 21002KT 1 1/2SM 21/21 A3003 RMK T02100210 IEM_DS3505
ZGGG,2002-12-02 21:00,ZGGG 022100Z AUTO 00000KT 2SM 20/20 A3000 RMK 70009 SLP164 T02040199 57004 IEM_DS3505
ZGGG,2002-12-02 22:00,ZGGG 022200Z AUTO 00000KT 1 1/4SM 20/20 A3003 RMK T02000200 IEM_DS3505
ZGGG,2002-12-02 23:00,ZGGG 022300Z AUTO 13004KT 1 1/4SM 21/21 A3006 RMK T02100210 IEM_DS3505
ZGGG,2002-12-03 00:00,ZGGG 030000Z AUTO 00000KT 1 1/4SM 20/20 RMK 70001 SLP182 T02030200 52018 IEM_DS3505
ZGGG,2002-12-03 01:00,ZGGG 030100Z AUTO 36002KT 1SM 22/21 A3006 RMK T02200210 IEM_DS3505
ZGGG,2002-12-03 02:00,ZGGG 030200Z AUTO 14006KT 1 1/2SM 23/21 A3009 RMK T02300210 IEM_DS3505
ZGGG,2002-12-03 03:00,ZGGG 030300Z AUTO 00000KT 2 1/2SM 24/21 A3009 RMK SLP184 T02380208 52002 IEM_DS3505
ZGGG,2002-12-03 04:00,ZGGG 030400Z AUTO 20008KT 2 1/2SM 24/20 A3006 RMK T02400200 IEM_DS3505
ZGGG,2002-12-03 05:00,ZGGG 030500Z AUTO 27002KT 1 1/2SM 25/21 A3003 RMK T02500210 IEM_DS3505
ZGGG,2002-12-03 06:00,ZGGG 030600Z AUTO 22002KT 5SM 27/21 A3000 RMK SLP160 T02680208 57024 IEM_DS3505
ZGGG,2002-12-03 07:00,ZGGG 030700Z AUTO 34004KT 2 1/2SM 26/20 A2997 RMK T02600200 IEM_DS3505
ZGGG,2002-12-03 08:00,ZGGG 030800Z AUTO 03002KT 3SM 26/20 A2997 RMK T02600200 IEM_DS3505
ZGGG,2002-12-03 09:00,ZGGG 030900Z AUTO 00000KT 4SM 26/22 A2997 RMK SLP152 T02600215 57008 IEM_DS3505
ZGGG,2002-12-03 10:00,ZGGG 031000Z AUTO 07004KT 1 1/4SM 24/21 A2997 RMK T02400210 IEM_DS3505
ZGGG,2002-12-03 11:00,ZGGG 031100Z AUTO 00000KT 2SM 23/21 A3000 RMK T02300210 IEM_DS3505
ZGGG,2002-12-03 12:00,ZGGG 031200Z AUTO 00000KT 4SM 23/22 A3000 RMK SLP160 T02270216 52008 IEM_DS3505
ZGGG,2002-12-03 13:00,ZGGG 031300Z AUTO 03002KT 2SM 23/21 A3003 RMK T02300210 IEM_DS3505
ZGGG,2002-12-03 14:00,ZGGG 031400Z AUTO 17004KT 3SM 24/21 A3003 RMK T02400210 IEM_DS3505
ZGGG,2002-12-03 15:00,ZGGG 031500Z AUTO 00000KT 3SM 23/21 A3006 RMK SLP175 T02280213 52015 IEM_DS3505
ZGGG,2002-12-03 16:00,ZGGG 031600Z AUTO 18004KT 2 1/2SM 23/21 A3003 RMK T02300210 IEM_DS3505
ZGGG,2002-12-03 17:00,ZGGG 031700Z AUTO 19004KT 2 1/2SM 23/21 A3003 RMK T02300210 IEM_DS3505
ZGGG,2002-12-03 18:00,ZGGG 031800Z AUTO 00000KT 2SM 21/21 A3003 RMK 60000 SLP170 T02130208 57005 IEM_DS3505
ZGGG,2002-12-03 19:00,ZGGG 031900Z AUTO 16004KT 2SM 22/21 A3000 RMK T02200210 IEM_DS3505
ZGGG,2002-12-03 20:00,ZGGG 032000Z AUTO 00000KT 1 1/4SM 21/21 A3000 RMK T02100210 IEM_DS3505
ZGGG,2002-12-03 21:00,ZGGG 032100Z AUTO 00000KT 1SM 21/21 A3000 RMK SLP161 T02100207 57009 IEM_DS3505
ZGGG,2002-12-03 22:00,ZGGG 032200Z AUTO 00000KT 1 1/4SM 21/21 A3003 RMK T02100210 IEM_DS3505
ZGGG,2002-12-03 23:00,ZGGG 032300Z AUTO 00000KT 1 1/4SM 21/21 A3003 RMK T02100210 IEM_DS3505
ZGGG,2002-12-04 00:00,ZGGG 040000Z AUTO 11002KT 2 1/2SM 22/21 A3006 RMK SLP183 T02160210 52022 IEM_DS3505
ZGGG,2002-12-04 01:00,ZGGG 040100Z AUTO 17004KT 1SM 22/22 A3009 RMK T02200220 IEM_DS3505
ZGGG,2002-12-04 02:00,ZGGG 040200Z AUTO 00000KT 2SM 23/22 A3009 RMK T02300220 IEM_DS3505
ZGGG,2002-12-04 03:00,ZGGG 040300Z AUTO 18002KT 2 1/2SM 24/21 A3009 RMK SLP186 T02360209 52003 IEM_DS3505
ZGGG,2002-12-04 04:00,ZGGG 040400Z AUTO 21004KT 1 1/2SM 23/21 A3006 RMK T02300210 IEM_DS3505
ZGGG,2002-12-04 05:00,ZGGG 040500Z AUTO 17006KT 2SM 24/21 A3003 RMK T02400210 IEM_DS3505
ZGGG,2002-12-04 06:00,ZGGG 040600Z AUTO 18004KT 4SM 25/21 A3000 RMK 60000 SLP157 T02500206 57029 IEM_DS3505
ZGGG,2002-12-04 07:00,ZGGG 040700Z AUTO 19004KT 3SM 24/20 A2997 RMK T02400200 IEM_DS3505
ZGGG,2002-12-04 08:00,ZGGG 040800Z AUTO 19004KT 3SM 26/20 A2994 RMK T02600200 IEM_DS3505
ZGGG,2002-12-04 09:00,ZGGG 040900Z AUTO 18002KT 8SM 25/20 A2994 RMK SLP146 T02520202 57011 IEM_DS3505
ZGGG,2002-12-04 10:00,ZGGG 041000Z AUTO 12004KT 2 1/2SM 24/21 A2997 RMK T02400210 IEM_DS3505
ZGGG,2002-12-04 11:00,ZGGG 041100Z AUTO 00000KT 3SM 23/21 A2997 RMK T02300210 IEM_DS3505
ZGGG,2002-12-04 12:00,ZGGG 041200Z AUTO 00000KT 6SM 22/21 A3000 RMK SLP161 T02170208 52015 IEM_DS3505
ZGGG,2002-12-04 13:00,ZGGG 041300Z AUTO 15006KT 3SM 23/20 A3000 RMK T02300200 IEM_DS3505
ZGGG,2002-12-04 14:00,ZGGG 041400Z AUTO 16008KT 3SM 23/21 A3000 RMK T02300210 IEM_DS3505
ZGGG,2002-12-04 15:00,ZGGG 041500Z AUTO 16002KT 8SM 23/21 A3000 RMK SLP167 T02270207 52006 IEM_DS3505
ZGGG,2002-12-04 16:00,ZGGG 041600Z AUTO 17006KT 3SM 23/21 A3000 RMK T02300210 IEM_DS3505
ZGGG,2002-12-04 17:00,ZGGG 041700Z AUTO 16004KT 3SM 23/21 A3000 RMK T02300210 IEM_DS3505
ZGGG,2002-12-04 18:00,ZGGG 041800Z AUTO 00000KT 5SM 22/21 A3000 RMK SLP166 T02190208 57001 IEM_DS3505
ZGGG,2002-12-04 19:00,ZGGG 041900Z AUTO 00000KT 2 1/2SM 22/21 A3000 RMK T02200210 IEM_DS3505
ZGGG,2002-12-04 20:00,ZGGG 042000Z AUTO 00000KT 2 1/2SM 22/21 A3000 RMK T02200210 IEM_DS3505
ZGGG,2002-12-04 21:00,ZGGG 042100Z AUTO 00000KT 2 1/2SM 21/20 A3000 RMK SLP157 T02120204 57009 IEM_DS3505
ZGGG,2002-12-04 22:00,ZGGG 042200Z AUTO 15002KT 2 1/2SM 22/21 A3000 RMK T02200210 IEM_DS3505
ZGGG,2002-12-04 23:00,ZGGG 042300Z AUTO 20002KT 2SM 22/21 A3000 RMK T02200210 IEM_DS3505
ZGGG,2002-12-05 00:00,ZGGG 050000Z AUTO 00000KT 1 1/2SM 22/20 A3003 RMK SLP171 T02150204 52014 IEM_DS3505
ZGGG,2002-12-05 01:00,ZGGG 050100Z AUTO 07004KT 1 1/4SM 23/21 A3006 RMK T02300210 IEM_DS3505
ZGGG,2002-12-05 02:00,ZGGG 050200Z AUTO 12002KT 1 1/4SM 24/21 A3006 RMK T02400210 IEM_DS3505
ZGGG,2002-12-05 03:00,ZGGG 050300Z AUTO 14004KT 1 1/4SM 25/21 A3006 RMK SLP180 T02460214 52009 IEM_DS3505
ZGGG,2002-12-05 04:00,ZGGG 050400Z AUTO 16006KT 1 1/2SM 26/22 A3003 RMK T02600220 IEM_DS3505
ZGGG,2002-12-05 05:00,ZGGG 050500Z AUTO 16006KT 3SM 26/21 A3000 RMK T02600210 IEM_DS3505
ZGGG,2002-12-05 06:00,ZGGG 050600Z AUTO 18006KT 7SM 27/22 A2994 RMK SLP147 T02700215 57032 IEM_DS3505
ZGGG,2002-12-05 08:00,ZGGG 050800Z AUTO 15006KT 6SM 27/21 A2994 RMK T02700210 IEM_DS3505
ZGGG,2002-12-05 09:00,ZGGG 050900Z AUTO 14004KT 8SM 26/21 A2994 RMK SLP146 T02620209 57002 IEM_DS3505
ZGGG,2002-12-05 10:00,ZGGG 051000Z AUTO 16008KT 7SM 26/21 A2994 RMK T02600210 IEM_DS3505
ZGGG,2002-12-05 11:00,ZGGG 051100Z AUTO 16008KT 6SM 25/21 A2997 RMK T02500210 IEM_DS3505
ZGGG,2002-12-05 12:00,ZGGG 051200Z AUTO 14004KT 9SM 24/21 A3000 RMK SLP160 T02410212 52014 IEM_DS3505
ZGGG,2002-12-05 13:00,ZGGG 051300Z AUTO 16008KT 7SM 24/21 A3000 RMK T02400210 IEM_DS3505
ZGGG,2002-12-05 14:00,ZGGG 051400Z AUTO 16008KT 7SM 23/21 A3000 RMK T02300210 IEM_DS3505
ZGGG,2002-12-05 15:00,ZGGG 051500Z AUTO 18006KT 7SM 23/21 A3000 RMK SLP163 T02280210 52003 IEM_DS3505
ZGGG,2002-12-05 16:00,ZGGG 051600Z AUTO 17006KT 4SM 23/21 A3000 RMK T02300210 IEM_DS3505
ZGGG,2002-12-05 17:00,ZGGG 051700Z AUTO 16006KT 4SM 23/21 A3000 RMK T02300210 IEM_DS3505
ZGGG,2002-12-05 18:00,ZGGG 051800Z AUTO 00000KT 7SM 22/21 A3000 RMK SLP160 T02240210 57002 IEM_DS3505
ZGGG,2002-12-05 19:00,ZGGG 051900Z AUTO 06004KT 7SM 23/21 A2997 RMK T02300210 IEM_DS3505
ZGGG,2002-12-05 20:00,ZGGG 052000Z AUTO 05004KT 3SM 23/21 A2997 RMK T02300210 IEM_DS3505
ZGGG,2002-12-05 21:00,ZGGG 052100Z AUTO 04002KT 6SM 22/21 A2997 RMK 70000 SLP154 T02220213 57007 IEM_DS3505
ZGGG,2002-12-05 22:00,ZGGG 052200Z AUTO 13002KT 4SM 23/21 A3000 RMK T02300210 IEM_DS3505
ZGGG,2002-12-05 23:00,ZGGG 052300Z AUTO 12002KT 3SM 23/21 A3000 RMK T02300210 IEM_DS3505
ZGGG,2002-12-06 00:00,ZGGG 060000Z AUTO 00000KT 6SM 23/21 A3003 RMK 70000 SLP173 T02260211 52019 IEM_DS3505
ZGGG,2002-12-06 01:00,ZGGG 060100Z AUTO 11006KT 3SM 24/21 A3006 RMK T02400210 IEM_DS3505
ZGGG,2002-12-06 02:00,ZGGG 060200Z AUTO 11006KT 3SM 25/21 A3006 RMK T02500210 IEM_DS3505
ZGGG,2002-12-06 03:00,ZGGG 060300Z AUTO 16006KT 6SM 26/22 A3003 RMK SLP172 T02650216 57001 IEM_DS3505
ZGGG,2002-12-06 04:00,ZGGG 060400Z AUTO 17010KT 3SM 27/22 A3000 RMK T02700220 IEM_DS3505
ZGGG,2002-12-06 05:00,ZGGG 060500Z AUTO 15008KT 28/22 A2997 RMK T02800220 IEM_DS3505
ZGGG,2002-12-06 06:00,ZGGG 060600Z AUTO 18006KT 9SM 28/21 A2994 RMK 60000 SLP136 T02780209 57035 IEM_DS3505
ZGGG,2002-12-06 07:00,ZGGG 060700Z AUTO 18008KT 5SM 28/21 A2991 RMK T02800210 IEM_DS3505
ZGGG,2002-12-06 08:00,ZGGG 060800Z AUTO 14006KT 5SM 28/21 A2991 RMK T02800210 IEM_DS3505
ZGGG,2002-12-06 09:00,ZGGG 060900Z AUTO 14008KT 9SM 27/21 A2991 RMK SLP129 T02680214 57007 IEM_DS3505
ZGGG,2002-12-06 10:00,ZGGG 061000Z AUTO 15006KT 6SM 26/21 A2991 RMK T02600210 IEM_DS3505
ZGGG,2002-12-06 11:00,ZGGG 061100Z AUTO 16006KT 6SM 26/21 A2994 RMK T02600210 IEM_DS3505
ZGGG,2002-12-06 12:00,ZGGG 061200Z AUTO 16006KT 11SM 25/22 A2994 RMK SLP147 T02460219 52017 IEM_DS3505
ZGGG,2002-12-06 13:00,ZGGG 061300Z AUTO 16008KT 6SM 24/22 A2997 RMK T02400220 IEM_DS3505
ZGGG,2002-12-06 14:00,ZGGG 061400Z AUTO 16006KT 4SM 24/22 A2997 RMK T02400220 IEM_DS3505
ZGGG,2002-12-06 15:00,ZGGG 061500Z AUTO 14004KT 9SM 24/22 A2997 RMK SLP152 T02370221 52006 IEM_DS3505
ZGGG,2002-12-06 16:00,ZGGG 061600Z AUTO 16006KT 4SM 24/22 A3000 RMK T02400220 IEM_DS3505
ZGGG,2002-12-06 17:00,ZGGG 061700Z AUTO 16004KT 4SM 24/22 A3000 RMK T02400220 IEM_DS3505
ZGGG,2002-12-06 18:00,ZGGG 061800Z AUTO 00000KT 9SM 23/22 A2997 RMK SLP154 T02340221 52002 IEM_DS3505
ZGGG,2002-12-06 19:00,ZGGG 061900Z AUTO 17004KT 4SM 24/22 A2997 RMK T02400220 IEM_DS3505
ZGGG,2002-12-06 20:00,ZGGG 062000Z AUTO 16004KT 3SM 23/22 A2997 RMK T02300220 IEM_DS3505
ZGGG,2002-12-06 21:00,ZGGG 062100Z AUTO 11004KT 7SM 23/22 RMK SLP146 T02280219 57008 IEM_DS3505
ZGGG,2002-12-06 22:00,ZGGG 062200Z AUTO 08002KT 3SM 23/22 A2997 RMK T02300220 IEM_DS3505
ZGGG,2002-12-06 23:00,ZGGG 062300Z AUTO 00000KT 2 1/2SM 23/22 A3000 RMK T02300220 IEM_DS3505
ZGGG,2002-12-07 00:00,ZGGG 070000Z AUTO 00000KT 1 1/4SM 23/22 A3000 RMK SLP162 T02290219 52015 IEM_DS3505
ZGGG,2002-12-07 01:00,ZGGG 070100Z AUTO 08004KT 1 1/4SM 24/22 A3003 RMK T02400220 IEM_DS3505
ZGGG,2002-12-07 02:00,ZGGG 070200Z AUTO 16004KT 1 1/4SM 24/22 A3003 RMK T02400220 IEM_DS3505
ZGGG,2002-12-07 03:00,ZGGG 070300Z AUTO 16002KT 6SM 26/22 A3003 RMK SLP168 T02610221 52007 IEM_DS3505
ZGGG,2002-12-07 04:00,ZGGG 070400Z AUTO 17006KT 2 1/2SM 27/21 A3000 RMK T02700210 IEM_DS3505
ZGGG,2002-12-07 05:00,ZGGG 070500Z AUTO 19004KT 3SM 27/21 A2997 RMK T02700210 IEM_DS3505
ZGGG,2002-12-07 06:00,ZGGG 070600Z AUTO 16002KT 6SM 27/22 A2994 RMK SLP140 T02740221 57028 IEM_DS3505
ZGGG,2002-12-07 07:00,ZGGG 070700Z AUTO 11004KT 3SM 27/22 A2991 RMK T02700220 IEM_DS3505
ZGGG,2002-12-07 08:00,ZGGG 070800Z AUTO 02008KT 2SM 26/22 A2991 RMK T02600220 IEM_DS3505
ZGGG,2002-12-07 09:00,ZGGG 070900Z AUTO 04002KT 7SM 24/23 A2994 RMK SLP137 T02440232 57004 IEM_DS3505
ZGGG,2002-12-07 10:00,ZGGG 071000Z AUTO 36012KT 4SM 22/17 A2994 RMK T02200170 IEM_DS3505
ZGGG,2002-12-07 11:00,ZGGG 071100Z AUTO 34012KT 7SM 19/14 A2997 RMK T01900140 IEM_DS3505
ZGGG,2002-12-07 12:00,ZGGG 071200Z AUTO 36010KT 10SM 20/16 A3003 RMK 60008 SLP161 T02000162 52024 IEM_DS3505
ZGGG,2002-12-07 13:00,ZGGG 071300Z AUTO 33010KT 4SM 16/14 A3006 RMK T01600140 IEM_DS3505
ZGGG,2002-12-07 14:00,ZGGG 071400Z AUTO 34012KT 4SM 14/13 A3009 RMK T01400130 IEM_DS3505
ZGGG,2002-12-07 15:00,ZGGG 071500Z AUTO 34008KT 9SM 15/14 A3012 RMK SLP192 T01460135 52031 IEM_DS3505
ZGGG,2002-12-07 16:00,ZGGG 071600Z AUTO 33014G23KT 7SM 14/11 A3012 RMK T01400110 IEM_DS3505
ZGGG,2002-12-07 17:00,ZGGG 071700Z AUTO 33012KT 7SM 13/10 A3015 RMK T01300100 IEM_DS3505
ZGGG,2002-12-07 18:00,ZGGG 071800Z AUTO 34014KT 7SM 13/09 A3015 RMK T01300090 IEM_DS3505
ZGGG,2002-12-07 19:00,ZGGG 071900Z AUTO 34014KT 7SM 13/08 A3015 RMK T01300080 IEM_DS3505
ZGGG,2002-12-07 20:00,ZGGG 072000Z AUTO 33012KT 7SM 12/08 A3018 RMK T01200080 IEM_DS3505
ZGGG,2002-12-07 21:00,ZGGG 072100Z AUTO 36004KT 10SM 13/08 A3018 RMK 70023 SLP221 T01260081 52013 IEM_DS3505
ZGGG,2002-12-07 22:00,ZGGG 072200Z AUTO 34012KT 7SM 12/07 A3021 RMK T01200070 IEM_DS3505
ZGGG,2002-12-07 23:00,ZGGG 072300Z AUTO 34012KT 7SM 12/07 A3024 RMK T01200070 IEM_DS3505
ZGGG,2002-12-08 00:00,ZGGG 080000Z AUTO 34008KT 14SM 12/07 A3030 RMK 70023 SLP253 T01150073 52032 IEM_DS3505
ZGGG,2002-12-08 01:00,ZGGG 080100Z AUTO 33010KT 7SM 12/07 A3033 RMK T01200070 IEM_DS3505
ZGGG,2002-12-08 02:00,ZGGG 080200Z AUTO 34012KT 7SM 12/06 A3033 RMK T01200060 IEM_DS3505
ZGGG,2002-12-08 03:00,ZGGG 080300Z AUTO 36008KT 12SM 12/06 A3036 RMK SLP274 T01200063 52020 IEM_DS3505
ZGGG,2002-12-08 04:00,ZGGG 080400Z AUTO 34012KT 7SM 12/05 A3033 RMK T01200050 IEM_DS3505
ZGGG,2002-12-08 06:00,ZGGG 080600Z AUTO 36008KT 16SM 12/06 A3030 RMK SLP254 T01210056 57020 IEM_DS3505
ZGGG,2002-12-08 07:00,ZGGG 080700Z AUTO 35016KT 7SM 12/04 A3030 RMK T01200040 IEM_DS3505
ZGGG,2002-12-08 08:00,ZGGG 080800Z AUTO 35016KT 7SM 12/04 A3030 RMK T01200040 IEM_DS3505
ZGGG,2002-12-08 09:00,ZGGG 080900Z AUTO 36006KT 14SM 12/05 A3030 RMK SLP259 T01190054 52005 IEM_DS3505
ZGGG,2002-12-08 10:00,ZGGG 081000Z AUTO 35016KT 6SM 12/04 A3033 RMK T01200040 IEM_DS3505
ZGGG,2002-12-08 11:00,ZGGG 081100Z AUTO 35014KT 6SM 12/04 A3033 RMK T01200040 IEM_DS3505
ZGGG,2002-12-08 12:00,ZGGG 081200Z AUTO 36008KT 12SM 11/04 A3036 RMK SLP275 T01110044 52016 IEM_DS3505
ZGGG,2002-12-08 13:00,ZGGG 081300Z AUTO 36014KT 6SM 11/03 A3036 RMK T01100030 IEM_DS3505
ZGGG,2002-12-08 14:00,ZGGG 081400Z AUTO 35014KT 6SM 11/02 A3039 RMK T01100020 IEM_DS3505
ZGGG,2002-12-08 15:00,ZGGG 081500Z AUTO 36010KT 6SM 11/02 A3039 RMK T01100020 IEM_DS3505
ZGGG,2002-12-08 16:00,ZGGG 081600Z AUTO 36012KT 6SM 10/02 A3039 RMK T01000020 IEM_DS3505
ZGGG,2002-12-08 17:00,ZGGG 081700Z AUTO 36012KT 6SM 10/02 A3039 RMK T01000020 IEM_DS3505
ZGGG,2002-12-08 18:00,ZGGG 081800Z AUTO 36008KT 11SM 10/02 A3039 RMK SLP291 T00950024 57001 IEM_DS3505
ZGGG,2002-12-08 19:00,ZGGG 081900Z AUTO 36014KT 6SM 10/02 A3039 RMK T01000020 IEM_DS3505
ZGGG,2002-12-08 20:00,ZGGG 082000Z AUTO 36012KT 6SM 10/02 A3039 RMK T01000020 IEM_DS3505
ZGGG,2002-12-08 21:00,ZGGG 082100Z AUTO 36010KT 10SM 09/02 A3039 RMK 70000 SLP289 T00890016 57002 IEM_DS3505
ZGGG,2002-12-08 22:00,ZGGG 082200Z AUTO 35012KT 6SM 09/01 A3039 RMK T00900010 IEM_DS3505
ZGGG,2002-12-08 23:00,ZGGG 082300Z AUTO 36012G21KT 6SM 09/01 A3042 RMK T00900010 IEM_DS3505
ZGGG,2002-12-09 00:00,ZGGG 090000Z AUTO 36008KT 14SM 09/02 A3045 RMK 70000 SLP305 T00860015 52016 IEM_DS3505
ZGGG,2002-12-09 01:00,ZGGG 090100Z AUTO 36014KT 6SM 10/00 A3045 RMK T01000000 IEM_DS3505
ZGGG,2002-12-09 02:00,ZGGG 090200Z AUTO 36016KT 6SM 11/00 A3045 RMK T01100000 IEM_DS3505
ZGGG,2002-12-09 03:00,ZGGG 090300Z AUTO 32006KT 14SM 12/02 A3042 RMK SLP300 T01240015 57005 IEM_DS3505
ZGGG,2002-12-09 04:00,ZGGG 090400Z AUTO 36012KT 6SM 13/00 A3039 RMK T01300000 IEM_DS3505
ZGGG,2002-12-09 05:00,ZGGG 090500Z AUTO 36012KT 6SM 14/00 A3036 RMK T01400000 IEM_DS3505
ZGGG,2002-12-09 06:00,ZGGG 090600Z AUTO 34008KT 15SM 15/02 A3033 RMK SLP264 T01520021 57035 IEM_DS3505
ZGGG,2002-12-09 07:00,ZGGG 090700Z AUTO 02008KT 6SM 16/00 A3027 RMK T01600000 IEM_DS3505
ZGGG,2002-12-09 08:00,ZGGG 090800Z AUTO 36010KT 6SM 16/M01 A3027 RMK T01601010 IEM_DS3505
ZGGG,2002-12-09 09:00,ZGGG 090900Z AUTO 36004KT 14SM 15/02 A3027 RMK SLP252 T01510025 57012 IEM_DS3505
ZGGG,2002-12-09 10:00,ZGGG 091000Z AUTO 31006KT 6SM 15/01 A3030 RMK T01500010 IEM_DS3505
ZGGG,2002-12-09 11:00,ZGGG 091100Z AUTO 35006KT 6SM 14/02 A3030 RMK T01400020 IEM_DS3505
ZGGG,2002-12-09 12:00,ZGGG 091200Z AUTO 34004KT 12SM 12/04 A3033 RMK SLP267 T01170041 52014 IEM_DS3505
ZGGG,2002-12-09 13:00,ZGGG 091300Z AUTO 36006KT 6SM 12/03 A3033 RMK T01200030 IEM_DS3505
ZGGG,2002-12-09 14:00,ZGGG 091400Z AUTO 01008KT 6SM 12/03 A3033 RMK T01200030 IEM_DS3505
ZGGG,2002-12-09 15:00,ZGGG 091500Z AUTO 36004KT 11SM 11/02 A3033 RMK SLP272 T01070016 52006 IEM_DS3505
ZGGG,2002-12-09 16:00,ZGGG 091600Z AUTO 36008KT 6SM 09/00 A3033 RMK T00900000 IEM_DS3505
ZGGG,2002-12-09 17:00,ZGGG 091700Z AUTO 01008KT 6SM 09/02 A3033 RMK T00900020 IEM_DS3505
ZGGG,2002-12-09 18:00,ZGGG 091800Z AUTO 32002KT 10SM 10/02 A3033 RMK SLP266 T00950015 57006 IEM_DS3505
ZGGG,2002-12-09 19:00,ZGGG 091900Z AUTO 01010KT 6SM 08/01 A3030 RMK T00800010 IEM_DS3505
ZGGG,2002-12-09 20:00,ZGGG 092000Z AUTO 36010KT 6SM 09/M01 A3030 RMK T00901010 IEM_DS3505
ZGGG,2002-12-09 21:00,ZGGG 092100Z AUTO 32002KT 11SM 08/01 A3030 RMK SLP259 T00780013 57007 IEM_DS3505
ZGGG,2002-12-09 22:00,ZGGG 092200Z AUTO 36010KT 6SM 09/M01 A3030 RMK T00901010 IEM_DS3505
ZGGG,2002-12-09 23:00,ZGGG 092300Z AUTO 36008KT 6SM 09/M01 A3033 RMK T00901010 IEM_DS3505
ZGGG,2002-12-10 00:00,ZGGG 100000Z AUTO 00000KT 14SM 09/02 A3036 RMK SLP276 T00890024 52016 IEM_DS3505
ZGGG,2002-12-10 01:00,ZGGG 100100Z AUTO 35008KT 6SM 10/M01 A3036 RMK T01001010 IEM_DS3505
ZGGG,2002-12-10 02:00,ZGGG 100200Z AUTO 36012KT 6SM 12/00 A3039 RMK T01200000 IEM_DS3505
ZGGG,2002-12-10 03:00,ZGGG 100300Z AUTO 00000KT 14SM 15/02 A3036 RMK SLP278 T01460024 52003 IEM_DS3505
ZGGG,2002-12-10 04:00,ZGGG 100400Z AUTO 34006KT 6SM 14/02 A3033 RMK T01400020 IEM_DS3505
ZGGG,2002-12-10 05:00,ZGGG 100500Z AUTO 34006KT 6SM 15/02 A3030 RMK T01500020 IEM_DS3505
ZGGG,2002-12-10 06:00,ZGGG 100600Z AUTO 34004KT 11SM 18/06 RMK SLP243 T01770055 57035 IEM_DS3505
ZGGG,2002-12-10 07:00,ZGGG 100700Z AUTO 36004KT 6SM 17/03 A3024 RMK T01700030 IEM_DS3505
ZGGG,2002-12-10 08:00,ZGGG 100800Z AUTO 03006KT 6SM 17/04 A3021 RMK T01700040 IEM_DS3505
ZGGG,2002-12-10 09:00,ZGGG 100900Z AUTO 34002KT 11SM 18/07 A3024 RMK SLP237 T01760072 57006 IEM_DS3505
ZGGG,2002-12-10 10:00,ZGGG 101000Z AUTO 36006KT 6SM 16/05 A3021 RMK T01600050 IEM_DS3505
ZGGG,2002-12-10 11:00,ZGGG 101100Z AUTO 04006KT 6SM 15/06 A3024 RMK T01500060 IEM_DS3505
ZGGG,2002-12-10 12:00,ZGGG 101200Z AUTO 00000KT 11SM 14/08 A3024 RMK SLP239 T01440077 52002 IEM_DS3505
ZGGG,2002-12-10 13:00,ZGGG 101300Z AUTO 04004KT 6SM 14/06 A3024 RMK T01400060 IEM_DS3505
ZGGG,2002-12-10 14:00,ZGGG 101400Z AUTO 36002KT 6SM 14/06 A3027 RMK T01400060 IEM_DS3505
ZGGG,2002-12-10 15:00,ZGGG 101500Z AUTO 00000KT 10SM 14/08 A3027 RMK SLP247 T01370081 52008 IEM_DS3505
ZGGG,2002-12-10 16:00,ZGGG 101600Z AUTO 08002KT 7SM 13/09 A3027 RMK T01300090 IEM_DS3505
ZGGG,2002-12-10 17:00,ZGGG 101700Z AUTO 03002KT 7SM 13/07 A3027 RMK T01300070 IEM_DS3505
ZGGG,2002-12-10 18:00,ZGGG 101800Z AUTO 32002KT 11SM 12/09 A3024 RMK 60004 SLP241 T01210093 57006 IEM_DS3505
ZGGG,2002-12-10 19:00,ZGGG 101900Z AUTO 36002KT 7SM 13/08 A3024 RMK T01300080 IEM_DS3505
ZGGG,2002-12-10 20:00,ZGGG 102000Z AUTO 04006KT 7SM 12/09 A3024 RMK T01200090 IEM_DS3505
ZGGG,2002-12-10 21:00,ZGGG 102100Z AUTO 36002KT 10SM 12/09 A3024 RMK 70004 SLP235 T01220092 57006 IEM_DS3505
ZGGG,2002-12-10 22:00,ZGGG 102200Z AUTO 01010KT 4SM 12/09 A3024 RMK T01200090 IEM_DS3505
ZGGG,2002-12-10 23:00,ZGGG 102300Z AUTO 36008KT 4SM 12/08 A3027 RMK T01200080 IEM_DS3505
ZGGG,2002-12-11 00:00,ZGGG 110000Z AUTO 02004KT 8SM 11/09 A3030 RMK 60003 70007 SLP255 T01120090 52020 IEM_DS3505
ZGGG,2002-12-11 01:00,ZGGG 110100Z AUTO 35008KT 4SM 12/08 A3030 RMK T01200080 IEM_DS3505
ZGGG,2002-12-11 02:00,ZGGG 110200Z AUTO 36010KT 4SM 12/08 A3033 RMK T01200080 IEM_DS3505
ZGGG,2002-12-11 03:00,ZGGG 110300Z AUTO 34004KT 8SM 12/08 A3030 RMK SLP264 T01170085 52009 IEM_DS3505
ZGGG,2002-12-11 04:00,ZGGG 110400Z AUTO 36010KT 3SM 11/08 A3030 RMK T01100080 IEM_DS3505
ZGGG,2002-12-11 05:00,ZGGG 110500Z AUTO 34006KT 1 1/2SM 11/09 A3027 RMK T01100090 IEM_DS3505
ZGGG,2002-12-11 06:00,ZGGG 110600Z AUTO 36004KT 7SM 10/10 A3027 RMK 60002 SLP246 T01050097 57018 IEM_DS3505
ZGGG,2002-12-11 07:00,ZGGG 110700Z AUTO 01004KT 3SM 11/09 A3024 RMK T01100090 IEM_DS3505
ZGGG,2002-12-11 08:00,ZGGG 110800Z AUTO 36006KT 2SM 11/09 A3024 RMK T01100090 IEM_DS3505
ZGGG,2002-12-11 09:00,ZGGG 110900Z AUTO 29002KT 4SM 11/10 A3024 RMK SLP244 T01110101 57002 IEM_DS3505
ZGGG,2002-12-11 10:00,ZGGG 111000Z AUTO 34006KT 3SM 11/09 A3027 RMK T01100090 IEM_DS3505
ZGGG,2002-12-11 11:00,ZGGG 111100Z AUTO 34008KT 3SM 11/09 A3030 RMK T01100090 IEM_DS3505
ZGGG,2002-12-11 12:00,ZGGG 111200Z AUTO 34002KT 2 1/2SM 11/10 A3030 RMK 60012 SLP263 T01090101 52019 IEM_DS3505
ZGGG,2002-12-11 13:00,ZGGG 111300Z AUTO 32004KT 4SM 11/09 A3033 RMK T01100090 IEM_DS3505
ZGGG,2002-12-11 14:00,ZGGG 111400Z AUTO 34006KT 4SM 12/09 A3033 RMK T01200090 IEM_DS3505
ZGGG,2002-12-11 15:00,ZGGG 111500Z AUTO 36004KT 5SM 11/10 A3033 RMK SLP274 T01110101 52011 IEM_DS3505
ZGGG,2002-12-11 16:00,ZGGG 111600Z AUTO 34004KT 6SM 12/09 A3036 RMK T01200090 IEM_DS3505
ZGGG,2002-12-11 17:00,ZGGG 111700Z AUTO 34006KT 6SM 12/09 A3033 RMK T01200090 IEM_DS3505
ZGGG,2002-12-11 18:00,ZGGG 111800Z AUTO 34006KT 6SM 12/08 A3033 RMK T01200080 IEM_DS3505
ZGGG,2002-12-11 19:00,ZGGG 111900Z AUTO 33006KT 6SM 11/08 A3033 RMK T01100080 IEM_DS3505
ZGGG,2002-12-11 20:00,ZGGG 112000Z AUTO 34006KT 6SM 11/07 A3033 RMK T01100070 IEM_DS3505
ZGGG,2002-12-11 21:00,ZGGG 112100Z AUTO 36004KT 10SM 09/08 A3033 RMK 70022 SLP267 T00910081 57003 IEM_DS3505
ZGGG,2002-12-11 22:00,ZGGG 112200Z AUTO 34008KT 6SM 10/07 A3033 RMK T01000070 IEM_DS3505
ZGGG,2002-12-11 23:00,ZGGG 112300Z AUTO 34006KT 6SM 10/07 A3036 RMK T01000070 IEM_DS3505
ZGGG,2002-12-12 00:00,ZGGG 120000Z AUTO 36004KT 14SM 10/07 A3039 RMK 70020 SLP291 T00990074 52024 IEM_DS3505
ZGGG,2002-12-12 01:00,ZGGG 120100Z AUTO 01008KT 7SM 12/07 A3042 RMK T01200070 IEM_DS3505
ZGGG,2002-12-12 02:00,ZGGG 120200Z AUTO 36010KT 7SM 13/07 A3042 RMK T01300070 IEM_DS3505
ZGGG,2002-12-12 03:00,ZGGG 120300Z AUTO 36006KT 12SM 14/07 A3042 RMK SLP298 T01430069 52008 IEM_DS3505
ZGGG,2002-12-12 04:00,ZGGG 120400Z AUTO 36010KT 7SM 14/07 A3039 RMK T01400070 IEM_DS3505
ZGGG,2002-12-12 05:00,ZGGG 120500Z AUTO 36008KT 6SM 16/07 A3036 RMK T01600070 IEM_DS3505
ZGGG,2002-12-12 06:00,ZGGG 120600Z AUTO 32006KT 14SM 17/08 A3033 RMK SLP271 T01720077 57027 IEM_DS3505
ZGGG,2002-12-12 07:00,ZGGG 120700Z AUTO 36010KT 6SM 17/06 A3030 RMK T01700060 IEM_DS3505
ZGGG,2002-12-12 08:00,ZGGG 120800Z AUTO 35008KT 6SM 17/06 A3033 RMK T01700060 IEM_DS3505
ZGGG,2002-12-12 09:00,ZGGG 120900Z AUTO 36006KT 15SM 17/08 A3033 RMK SLP270 T01730083 57001 IEM_DS3505
ZGGG,2002-12-12 10:00,ZGGG 121000Z AUTO 36006KT 6SM 16/07 A3036 RMK T01600070 IEM_DS3505
ZGGG,2002-12-12 11:00,ZGGG 121100Z AUTO 01006KT 6SM 14/07 A3036 RMK T01400070 IEM_DS3505
ZGGG,2002-12-12 12:00,ZGGG 121200Z AUTO 36004KT 15SM 13/08 A3039 RMK SLP291 T01270085 52020 IEM_DS3505
ZGGG,2002-12-12 13:00,ZGGG 121300Z AUTO 36006KT 6SM 13/08 A3042 RMK T01300080 IEM_DS3505
ZGGG,2002-12-12 14:00,ZGGG 121400Z AUTO 36006KT 5SM 12/07 A3042 RMK T01200070 IEM_DS3505
ZGGG,2002-12-12 15:00,ZGGG 121500Z AUTO 04002KT 12SM 12/07 A3042 RMK SLP300 T01180074 52010 IEM_DS3505
ZGGG,2002-12-12 16:00,ZGGG 121600Z AUTO 02006KT 6SM 10/06 A3042 RMK T01000060 IEM_DS3505
ZGGG,2002-12-12 17:00,ZGGG 121700Z AUTO 02008KT 6SM 09/06 A3042 RMK T00900060 IEM_DS3505
ZGGG,2002-12-12 18:00,ZGGG 121800Z AUTO 34002KT 10SM 09/07 A3042 RMK SLP296 T00930069 57004 IEM_DS3505
ZGGG,2002-12-12 19:00,ZGGG 121900Z AUTO 36008KT 6SM 09/04 A3039 RMK T00900040 IEM_DS3505
ZGGG,2002-12-12 20:00,ZGGG 122000Z AUTO 36008KT 6SM 11/04 A3039 RMK T01100040 IEM_DS3505
ZGGG,2002-12-12 21:00,ZGGG 122100Z AUTO 00000KT 11SM 08/06 A3039 RMK SLP287 T00810059 57009 IEM_DS3505
ZGGG,2002-12-12 22:00,ZGGG 122200Z AUTO 02006KT 6SM 08/04 A3039 RMK T00800040 IEM_DS3505
ZGGG,2002-12-12 23:00,ZGGG 122300Z AUTO 02004KT 6SM 09/04 A3042 RMK T00900040 IEM_DS3505
ZGGG,2002-12-13 00:00,ZGGG 130000Z AUTO 00000KT 11SM 08/06 A3045 RMK SLP315 T00830063 52027 IEM_DS3505
ZGGG,2002-12-13 01:00,ZGGG 130100Z AUTO 36008KT 6SM 12/05 A3047 RMK T01200050 IEM_DS3505
ZGGG,2002-12-13 02:00,ZGGG 130200Z AUTO 36008KT 6SM 13/05 A3047 RMK T01300050 IEM_DS3505
ZGGG,2002-12-13 03:00,ZGGG 130300Z AUTO 04004KT 14SM 16/06 A3047 RMK SLP313 T01600063 57001 IEM_DS3505
ZGGG,2002-12-13 04:00,ZGGG 130400Z AUTO 36006KT 6SM 15/06 A3045 RMK T01500060 IEM_DS3505
ZGGG,2002-12-13 05:00,ZGGG 130500Z AUTO 33004KT 6SM 16/06 A3039 RMK T01600060 IEM_DS3505
ZGGG,2002-12-13 06:00,ZGGG 130600Z AUTO 32004KT 13SM 19/08 A3036 RMK SLP280 T01890077 57033 IEM_DS3505
ZGGG,2002-12-13 07:00,ZGGG 130700Z AUTO 33006KT 6SM 18/06 A3033 RMK T01800060 IEM_DS3505
ZGGG,2002-12-13 08:00,ZGGG 130800Z AUTO 36008KT 6SM 18/04 A3033 RMK T01800040 IEM_DS3505
ZGGG,2002-12-13 09:00,ZGGG 130900Z AUTO 04004KT 13SM 18/07 A3033 RMK SLP267 T01830069 57013 IEM_DS3505
ZGGG,2002-12-13 10:00,ZGGG 131000Z AUTO 05004KT 6SM 17/07 A3033 RMK T01700070 IEM_DS3505
ZGGG,2002-12-13 11:00,ZGGG 131100Z AUTO 04006KT 6SM 17/06 A3036 RMK T01700060 IEM_DS3505
ZGGG,2002-12-13 12:00,ZGGG 131200Z AUTO 00000KT 11SM 15/09 A3036 RMK SLP283 T01470094 52016 IEM_DS3505
ZGGG,2002-12-13 13:00,ZGGG 131300Z AUTO 03004KT 6SM 16/06 A3039 RMK T01600060 IEM_DS3505
ZGGG,2002-12-13 14:00,ZGGG 131400Z AUTO 08002KT 7SM 17/07 A3039 RMK T01700070 IEM_DS3505
ZGGG,2002-12-13 15:00,ZGGG 131500Z AUTO 09002KT 10SM 15/08 A3039 RMK SLP287 T01510081 52004 IEM_DS3505
ZGGG,2002-12-13 16:00,ZGGG 131600Z AUTO 06004KT 7SM 16/07 A3039 RMK T01600070 IEM_DS3505
ZGGG,2002-12-13 19:00,ZGGG 131900Z AUTO 34004KT 7SM 16/07 A3036 RMK T01600070 IEM_DS3505
ZGGG,2002-12-13 20:00,ZGGG 132000Z AUTO 02002KT 7SM 15/07 A3036 RMK T01500070 IEM_DS3505
ZGGG,2002-12-13 21:00,ZGGG 132100Z AUTO 04002KT 9SM 14/08 A3033 RMK SLP274 T01390083 57006 IEM_DS3505
ZGGG,2002-12-13 22:00,ZGGG 132200Z AUTO 36004KT 7SM 14/07 A3036 RMK T01400070 IEM_DS3505
ZGGG,2002-12-13 23:00,ZGGG 132300Z AUTO 03004KT 7SM 14/07 A3036 RMK T01400070 IEM_DS3505
ZGGG,2002-12-14 00:00,ZGGG 140000Z AUTO 09002KT 9SM 14/08 A3036 RMK SLP285 T01380084 52011 IEM_DS3505
ZGGG,2002-12-14 01:00,ZGGG 140100Z AUTO 01004KT 6SM 14/07 A3039 RMK T01400070 IEM_DS3505
ZGGG,2002-12-14 02:00,ZGGG 140200Z AUTO 01006KT 6SM 16/08 A3039 RMK T01600080 IEM_DS3505
ZGGG,2002-12-14 03:00,ZGGG 140300Z AUTO 14002KT 11SM 17/08 A3036 RMK SLP283 T01700077 57002 IEM_DS3505
ZGGG,2002-12-14 04:00,ZGGG 140400Z AUTO 31004KT 6SM 17/07 A3036 RMK T01700070 IEM_DS3505
ZGGG,2002-12-14 05:00,ZGGG 140500Z AUTO 34004KT 6SM 17/08 A3030 RMK T01700080 IEM_DS3505
ZGGG,2002-12-14 06:00,ZGGG 140600Z AUTO 04004KT 11SM 20/10 A3027 RMK SLP255 T01980099 57027 IEM_DS3505
ZGGG,2002-12-14 07:00,ZGGG 140700Z AUTO 03006KT 6SM 18/09 A3024 RMK T01800090 IEM_DS3505
ZGGG,2002-12-14 08:00,ZGGG 140800Z AUTO 36006KT 6SM 18/08 A3021 RMK T01800080 IEM_DS3505
ZGGG,2002-12-14 09:00,ZGGG 140900Z AUTO 09004KT 9SM 18/09 A3021 RMK SLP238 T01840088 57017 IEM_DS3505
ZGGG,2002-12-14 10:00,ZGGG 141000Z AUTO 07002KT 6SM 17/09 A3024 RMK T01700090 IEM_DS3505
ZGGG,2002-12-14 11:00,ZGGG 141100Z AUTO 01004KT 6SM 16/09 A3027 RMK T01600090 IEM_DS3505
ZGGG,2002-12-14 12:00,ZGGG 141200Z AUTO 07002KT 9SM 16/11 A3027 RMK SLP252 T01550108 52013 IEM_DS3505
ZGGG,2002-12-14 13:00,ZGGG 141300Z AUTO 35004KT 17/09 A3027 RMK T01700090 IEM_DS3505
ZGGG,2002-12-14 14:00,ZGGG 141400Z AUTO 36006KT 16/10 A3027 RMK T01600100 IEM_DS3505
ZGGG,2002-12-14 15:00,ZGGG 141500Z AUTO 00000KT 10SM 15/12 A3030 RMK SLP256 T01480118 52005 IEM_DS3505
ZGGG,2002-12-14 16:00,ZGGG 141600Z AUTO 06002KT 4SM 14/10 A3027 RMK T01400100 IEM_DS3505
ZGGG,2002-12-14 17:00,ZGGG 141700Z AUTO 01002KT 6SM 13/10 A3027 RMK T01300100 IEM_DS3505
ZGGG,2002-12-14 18:00,ZGGG 141800Z AUTO 00000KT 8SM 13/12 A3027 RMK SLP251 T01330116 57005 IEM_DS3505
ZGGG,2002-12-14 19:00,ZGGG 141900Z AUTO 00000KT 5SM 14/11 A3024 RMK T01400110 IEM_DS3505
ZGGG,2002-12-14 20:00,ZGGG 142000Z AUTO 02002KT 4SM 13/11 A3024 RMK T01300110 IEM_DS3505
ZGGG,2002-12-14 21:00,ZGGG 142100Z AUTO 00000KT 7SM 12/11 A3024 RMK SLP238 T01230108 57013 IEM_DS3505
ZGGG,2002-12-14 22:00,ZGGG 142200Z AUTO 00000KT 4SM 13/10 A3024 RMK T01300100 IEM_DS3505
ZGGG,2002-12-14 23:00,ZGGG 142300Z AUTO 01004KT 2 1/2SM 13/10 A3024 RMK T01300100 IEM_DS3505
ZGGG,2002-12-15 00:00,ZGGG 150000Z AUTO 00000KT 9SM 13/11 A3027 RMK SLP251 T01310112 52012 IEM_DS3505
ZGGG,2002-12-15 01:00,ZGGG 150100Z AUTO 03004KT 2SM 16/11 A3027 RMK T01600110 IEM_DS3505
ZGGG,2002-12-15 02:00,ZGGG 150200Z AUTO 36004KT 2 1/2SM 17/10 A3027 RMK T01700100 IEM_DS3505
ZGGG,2002-12-15 03:00,ZGGG 150300Z AUTO 18004KT 8SM 20/12 RMK SLP249 T02030119 57001 IEM_DS3505
ZGGG,2002-12-15 04:00,ZGGG 150400Z AUTO 32004KT 3SM 20/11 A3024 RMK T02000110 IEM_DS3505
ZGGG,2002-12-15 05:00,ZGGG 150500Z AUTO 36002KT 3SM 21/12 A3021 RMK T02100120 IEM_DS3505
ZGGG,2002-12-15 06:00,ZGGG 150600Z AUTO 14002KT 7SM 24/13 A3018 RMK SLP218 T02400134 57031 IEM_DS3505
ZGGG,2002-12-15 07:00,ZGGG 150700Z AUTO 26004KT 3SM 22/12 A3015 RMK T02200120 IEM_DS3505
ZGGG,2002-12-15 08:00,ZGGG 150800Z AUTO 34004KT 2SM 22/12 A3015 RMK T02200120 IEM_DS3505
ZGGG,2002-12-15 09:00,ZGGG 150900Z AUTO 34004KT 6SM 22/14 A3015 RMK SLP214 T02170144 57004 IEM_DS3505
ZGGG,2002-12-15 10:00,ZGGG 151000Z AUTO 03004KT 2 1/2SM 20/13 A3018 RMK T02000130 IEM_DS3505
ZGGG,2002-12-15 11:00,ZGGG 151100Z AUTO 03004KT 19/13 A3018 RMK T01900130 IEM_DS3505
ZGGG,2002-12-15 12:00,ZGGG 151200Z AUTO 07002KT 7SM 18/15 A3021 RMK SLP228 T01760148 52014 IEM_DS3505
ZGGG,2002-12-15 13:00,ZGGG 151300Z AUTO 00000KT 3SM 18/13 A3021 RMK T01800130 IEM_DS3505
ZGGG,2002-12-15 14:00,ZGGG 151400Z AUTO 01006KT 3SM 16/13 A3021 RMK T01600130 IEM_DS3505
ZGGG,2002-12-15 15:00,ZGGG 151500Z AUTO 00000KT 7SM 16/15 A3021 RMK SLP227 T01620148 57001 IEM_DS3505
ZGGG,2002-12-15 16:00,ZGGG 151600Z AUTO 03002KT 3SM 17/13 A3018 RMK T01700130 IEM_DS3505
ZGGG,2002-12-15 17:00,ZGGG 151700Z AUTO 05002KT 3SM 17/14 A3018 RMK T01700140 IEM_DS3505
ZGGG,2002-12-15 18:00,ZGGG 151800Z AUTO 00000KT 4SM 16/15 A3018 RMK SLP220 T01560149 57007 IEM_DS3505
ZGGG,2002-12-15 19:00,ZGGG 151900Z AUTO 00000KT 2 1/2SM 16/14 A3018 RMK T01600140 IEM_DS3505
ZGGG,2002-12-15 20:00,ZGGG 152000Z AUTO 02002KT 3SM 16/13 A3018 RMK T01600130 IEM_DS3505
ZGGG,2002-12-15 21:00,ZGGG 152100Z AUTO 00000KT 3SM 16/15 A3018 RMK SLP217 T01630151 57003 IEM_DS3505
ZGGG,2002-12-15 22:00,ZGGG 152200Z AUTO 00000KT 2 1/2SM 17/14 A3018 RMK T01700140 IEM_DS3505
ZGGG,2002-12-15 23:00,ZGGG 152300Z AUTO 00000KT 1 1/4SM 17/14 A3021 RMK T01700140 IEM_DS3505
ZGGG,2002-12-16 00:00,ZGGG 160000Z AUTO 00000KT 2 1/2SM 17/16 A3024 RMK SLP238 T01660156 52021 IEM_DS3505
ZGGG,2002-12-16 01:00,ZGGG 160100Z AUTO 00000KT 1 1/4SM 18/14 A3024 RMK T01800140 IEM_DS3505
ZGGG,2002-12-16 02:00,ZGGG 160200Z AUTO 36004KT 1 1/4SM 20/14 A3024 RMK T02000140 IEM_DS3505
ZGGG,2002-12-16 03:00,ZGGG 160300Z AUTO 00000KT 6SM 24/16 A3024 RMK SLP237 T02380161 57001 IEM_DS3505
ZGGG,2002-12-16 04:00,ZGGG 160400Z AUTO 36004KT 2 1/2SM 23/16 A3018 RMK T02300160 IEM_DS3505
ZGGG,2002-12-16 05:00,ZGGG 160500Z AUTO 23002KT 3SM 24/16 A3015 RMK T02400160 IEM_DS3505
ZGGG,2002-12-16 06:00,ZGGG 160600Z AUTO 14006KT 7SM 26/16 A3012 RMK SLP197 T02580164 57039 IEM_DS3505
ZGGG,2002-12-16 07:00,ZGGG 160700Z AUTO 20006KT 3SM 26/15 A3009 RMK T02600150 IEM_DS3505
ZGGG,2002-12-16 08:00,ZGGG 160800Z AUTO 17006KT 5SM 26/14 A3009 RMK T02600140 IEM_DS3505
ZGGG,2002-12-16 09:00,ZGGG 160900Z AUTO 00000KT 9SM 26/16 A3009 RMK SLP188 T02550159 57009 IEM_DS3505
ZGGG,2002-12-16 10:00,ZGGG 161000Z AUTO 14004KT 23/15 A3009 RMK T02300150 IEM_DS3505
ZGGG,2002-12-16 11:00,ZGGG 161100Z AUTO 00000KT 4SM 21/16 A3012 RMK T02100160 IEM_DS3505
ZGGG,2002-12-16 12:00,ZGGG 161200Z AUTO 04002KT 8SM 20/17 A3012 RMK SLP202 T02020173 52013 IEM_DS3505
ZGGG,2002-12-16 13:00,ZGGG 161300Z AUTO 00000KT 3SM 20/16 A3015 RMK T02000160 IEM_DS3505
ZGGG,2002-12-16 14:00,ZGGG 161400Z AUTO 00000KT 2 1/2SM 20/16 A3015 RMK T02000160 IEM_DS3505
ZGGG,2002-12-16 15:00,ZGGG 161500Z AUTO 00000KT 7SM 19/17 A3015 RMK SLP213 T01870169 52012 IEM_DS3505
ZGGG,2002-12-16 16:00,ZGGG 161600Z AUTO 00000KT 2SM 19/16 A3015 RMK T01900160 IEM_DS3505
ZGGG,2002-12-16 17:00,ZGGG 161700Z AUTO 02002KT 2 1/2SM 19/16 A3015 RMK T01900160 IEM_DS3505
ZGGG,2002-12-16 18:00,ZGGG 161800Z AUTO 00000KT 5SM 17/16 A3015 RMK SLP207 T01720164 57006 IEM_DS3505
ZGGG,2002-12-16 19:00,ZGGG 161900Z AUTO 02002KT 3SM 17/16 A3012 RMK T01700160 IEM_DS3505
ZGGG,2002-12-16 20:00,ZGGG 162000Z AUTO 00000KT 4SM 17/15 A3012 RMK T01700150 IEM_DS3505
ZGGG,2002-12-16 21:00,ZGGG 162100Z AUTO 07002KT 2 1/2SM 17/17 A3012 RMK 70000 SLP198 T01730168 57009 IEM_DS3505
ZGGG,2002-12-16 22:00,ZGGG 162200Z AUTO 00000KT 4SM 18/16 A3012 RMK T01800160 IEM_DS3505
ZGGG,2002-12-16 23:00,ZGGG 162300Z AUTO 16002KT 1SM 18/16 A3015 RMK T01800160 IEM_DS3505
ZGGG,2002-12-17 00:00,ZGGG 170000Z AUTO 00000KT 1 1/2SM 17/17 A3015 RMK 70000 SLP215 T01720169 52016 IEM_DS3505
ZGGG,2002-12-17 01:00,ZGGG 170100Z AUTO 00000KT 1 1/4SM 20/17 A3018 RMK T02000170 IEM_DS3505
ZGGG,2002-12-17 02:00,ZGGG 170200Z AUTO 17002KT 2SM 21/15 A3018 RMK T02100150 IEM_DS3505
ZGGG,2002-12-17 03:00,ZGGG 170300Z AUTO 00000KT 2SM 21/17 A3018 RMK SLP223 T02120173 52008 IEM_DS3505
ZGGG,2002-12-17 04:00,ZGGG 170400Z AUTO 13004KT 2 1/2SM 21/14 A3012 RMK T02100140 IEM_DS3505
ZGGG,2002-12-17 05:00,ZGGG 170500Z AUTO 14004KT 2 1/2SM 23/14 A3009 RMK T02300140 IEM_DS3505
ZGGG,2002-12-17 06:00,ZGGG 170600Z AUTO 14004KT 7SM 24/15 A3006 RMK SLP182 T02390149 57040 IEM_DS3505
ZGGG,2002-12-17 07:00,ZGGG 170700Z AUTO 15004KT 3SM 24/14 A3003 RMK T02400140 IEM_DS3505
ZGGG,2002-12-17 08:00,ZGGG 170800Z AUTO 15006KT 6SM 25/13 A3003 RMK T02500130 IEM_DS3505
ZGGG,2002-12-17 09:00,ZGGG 170900Z AUTO 16004KT 7SM 24/14 A3003 RMK SLP173 T02420145 57009 IEM_DS3505
ZGGG,2002-12-17 10:00,ZGGG 171000Z AUTO 16006KT 7SM 23/16 A3006 RMK T02300160 IEM_DS3505
ZGGG,2002-12-17 11:00,ZGGG 171100Z AUTO 15006KT 7SM 23/16 A3006 RMK T02300160 IEM_DS3505
ZGGG,2002-12-17 12:00,ZGGG 171200Z AUTO 18004KT 8SM 22/17 A3009 RMK SLP192 T02170173 52018 IEM_DS3505
ZGGG,2002-12-17 13:00,ZGGG 171300Z AUTO 16004KT 7SM 22/17 A3009 RMK T02200170 IEM_DS3505
ZGGG,2002-12-17 14:00,ZGGG 171400Z AUTO 16004KT 7SM 22/17 A3009 RMK T02200170 IEM_DS3505
ZGGG,2002-12-17 15:00,ZGGG 171500Z AUTO 11002KT 8SM 21/18 A3009 RMK SLP191 T02090175 54000 IEM_DS3505
ZGGG,2002-12-17 17:00,ZGGG 171700Z AUTO 16002KT 4SM 20/17 A3006 RMK T02000170 IEM_DS3505
ZGGG,2002-12-17 18:00,ZGGG 171800Z AUTO 00000KT 7SM 19/18 A3006 RMK SLP177 T01940178 57014 IEM_DS3505
ZGGG,2002-12-17 19:00,ZGGG 171900Z AUTO 00000KT 2 1/2SM 19/17 A3003 RMK T01900170 IEM_DS3505
ZGGG,2002-12-17 20:00,ZGGG 172000Z AUTO 26002KT 3SM 20/17 A3003 RMK T02000170 IEM_DS3505
ZGGG,2002-12-17 21:00,ZGGG 172100Z AUTO 00000KT 5SM 19/18 A3003 RMK 70001 SLP165 T01920179 57012 IEM_DS3505
ZGGG,2002-12-17 22:00,ZGGG 172200Z AUTO 00000KT 2 1/2SM 19/17 A3000 RMK T01900170 IEM_DS3505
ZGGG,2002-12-17 23:00,ZGGG 172300Z AUTO 00000KT 2 1/2SM 19/16 A3003 RMK T01900160 IEM_DS3505
ZGGG,2002-12-18 00:00,ZGGG 180000Z AUTO 00000KT 5SM 19/18 A3003 RMK 70001 SLP170 T01880177 52005 IEM_DS3505
ZGGG,2002-12-18 01:00,ZGGG 180100Z AUTO 13002KT 2SM 21/16 A3003 RMK T02100160 IEM_DS3505
ZGGG,2002-12-18 02:00,ZGGG 180200Z AUTO 00000KT 2SM 21/17 A3003 RMK T02100170 IEM_DS3505
ZGGG,2002-12-18 03:00,ZGGG 180300Z AUTO 00000KT 4SM 22/18 A3003 RMK SLP169 T02160176 57001 IEM_DS3505
ZGGG,2002-12-18 04:00,ZGGG 180400Z AUTO 18002KT 1 1/2SM 22/17 A3000 RMK T02200170 IEM_DS3505
ZGGG,2002-12-18 05:00,ZGGG 180500Z AUTO 16004KT 1 1/4SM 23/17 A2997 RMK T02300170 IEM_DS3505
ZGGG,2002-12-18 06:00,ZGGG 180600Z AUTO 16002KT 5SM 24/18 A2994 RMK SLP138 T02400185 57031 IEM_DS3505
ZGGG,2002-12-18 07:00,ZGGG 180700Z AUTO 17004KT 1 1/4SM 24/18 A2991 RMK T02400180 IEM_DS3505
ZGGG,2002-12-18 08:00,ZGGG 180800Z AUTO 13002KT 1SM 24/18 A2991 RMK T02400180 IEM_DS3505
ZGGG,2002-12-18 09:00,ZGGG 180900Z AUTO 14002KT 2SM 24/20 A2991 RMK SLP129 T02390197 57009 IEM_DS3505
ZGGG,2002-12-18 10:00,ZGGG 181000Z AUTO 00000KT 1SM 23/18 A2991 RMK T02300180 IEM_DS3505
ZGGG,2002-12-18 11:00,ZGGG 181100Z AUTO 00000KT 1 1/4SM 22/18 A2994 RMK T02200180 IEM_DS3505
ZGGG,2002-12-18 12:00,ZGGG 181200Z AUTO 00000KT 7SM 23/20 A2994 RMK SLP143 T02260198 52014 IEM_DS3505
ZGGG,2002-12-18 13:00,ZGGG 181300Z AUTO 05002KT 1 1/4SM 21/18 A2997 RMK T02100180 IEM_DS3505
ZGGG,2002-12-18 14:00,ZGGG 181400Z AUTO 19004KT 1 1/2SM 22/19 A2997 RMK T02200190 IEM_DS3505
ZGGG,2002-12-18 15:00,ZGGG 181500Z AUTO 09002KT 5SM 22/20 A2997 RMK SLP151 T02180204 52008 IEM_DS3505
ZGGG,2002-12-18 16:00,ZGGG 181600Z AUTO 00000KT 2 1/2SM 22/20 A2997 RMK T02200200 IEM_DS3505
ZGGG,2002-12-18 17:00,ZGGG 181700Z AUTO 00000KT 2SM 22/19 A2997 RMK T02200190 IEM_DS3505
ZGGG,2002-12-18 18:00,ZGGG 181800Z AUTO 00000KT 4SM 22/20 A2997 RMK SLP146 T02160204 57005 IEM_DS3505
ZGGG,2002-12-18 19:00,ZGGG 181900Z AUTO 17002KT 2SM 22/20 A2994 RMK T02200200 IEM_DS3505
ZGGG,2002-12-18 20:00,ZGGG 182000Z AUTO 15002KT 2SM 22/20 A2994 RMK T02200200 IEM_DS3505
ZGGG,2002-12-18 21:00,ZGGG 182100Z AUTO 00000KT 1 1/4SM 21/20 A2994 RMK SLP140 T02100201 57006 IEM_DS3505
ZGGG,2002-12-18 22:00,ZGGG 182200Z AUTO 36004KT 1 1/4SM 20/19 A2994 RMK T02000190 IEM_DS3505
ZGGG,2002-12-18 23:00,ZGGG 182300Z AUTO 00000KT 1 1/4SM 20/19 A2997 RMK T02000190 IEM_DS3505
ZGGG,2002-12-19 00:00,ZGGG 190000Z AUTO 00000KT 1SM 21/20 A2997 RMK SLP154 T02070201 52014 IEM_DS3505
ZGGG,2002-12-19 01:00,ZGGG 190100Z AUTO 34006KT 1SM 21/19 A3000 RMK T02100190 IEM_DS3505
ZGGG,2002-12-19 02:00,ZGGG 190200Z AUTO 34006KT 2 1/2SM 21/18 A3000 RMK T02100180 IEM_DS3505
ZGGG,2002-12-19 03:00,ZGGG 190300Z AUTO 36006KT 1 1/2SM 23/19 A3000 RMK SLP160 T02340194 52006 IEM_DS3505
ZGGG,2002-12-19 04:00,ZGGG 190400Z AUTO 35006KT 3SM 23/17 A2997 RMK T02300170 IEM_DS3505
ZGGG,2002-12-19 05:00,ZGGG 190500Z AUTO 32008KT 22/16 A2997 RMK T02200160 IEM_DS3505
ZGGG,2002-12-19 06:00,ZGGG 190600Z AUTO 36006KT 6SM 24/17 A2994 RMK SLP138 T02400171 57022 IEM_DS3505
ZGGG,2002-12-19 07:00,ZGGG 190700Z AUTO 34010KT 23/16 A2991 RMK T02300160 IEM_DS3505
ZGGG,2002-12-19 08:00,ZGGG 190800Z AUTO 33012KT 5SM 22/15 A2994 RMK T02200150 IEM_DS3505
ZGGG,2002-12-19 09:00,ZGGG 190900Z AUTO 36008KT 7SM 20/15 A2994 RMK SLP138 T02020148 54000 IEM_DS3505
ZGGG,2002-12-19 10:00,ZGGG 191000Z AUTO 35012KT 5SM 17/12 A2994 RMK T01700120 IEM_DS3505
ZGGG,2002-12-19 11:00,ZGGG 191100Z AUTO 36012KT 6SM 17/12 A2997 RMK T01700120 IEM_DS3505
ZGGG,2002-12-19 12:00,ZGGG 191200Z AUTO 00000KT 12SM 18/14 A2997 RMK SLP145 T01780142 52007 IEM_DS3505
ZGGG,2002-12-19 13:00,ZGGG 191300Z AUTO 34008KT 7SM 17/12 A3000 RMK T01700120 IEM_DS3505
ZGGG,2002-12-19 14:00,ZGGG 191400Z AUTO 34008KT 7SM 17/12 A2997 RMK T01700120 IEM_DS3505
ZGGG,2002-12-19 15:00,ZGGG 191500Z AUTO 34002KT 10SM 17/14 A3000 RMK SLP154 T01730136 52009 IEM_DS3505
ZGGG,2002-12-19 16:00,ZGGG 191600Z AUTO 34008KT 7SM 16/12 A2997 RMK T01600120 IEM_DS3505
ZGGG,2002-12-19 17:00,ZGGG 191700Z AUTO 34006KT 7SM 16/12 A2997 RMK T01600120 IEM_DS3505
ZGGG,2002-12-19 18:00,ZGGG 191800Z AUTO 34008KT 10SM 16/12 A2994 RMK SLP140 T01570122 57014 IEM_DS3505
ZGGG,2002-12-19 19:00,ZGGG 191900Z AUTO 34006KT 7SM 15/11 A2997 RMK T01500110 IEM_DS3505
ZGGG,2002-12-19 20:00,ZGGG 192000Z AUTO 34010KT 7SM 15/11 A2994 RMK T01500110 IEM_DS3505
ZGGG,2002-12-19 21:00,ZGGG 192100Z AUTO 34004KT 9SM 15/12 A2994 RMK SLP139 T01520119 57002 IEM_DS3505
ZGGG,2002-12-19 22:00,ZGGG 192200Z AUTO 34010KT 7SM 15/11 A2997 RMK T01500110 IEM_DS3505
ZGGG,2002-12-19 23:00,ZGGG 192300Z AUTO 35010KT 7SM 14/11 A2997 RMK T01400110 IEM_DS3505
ZGGG,2002-12-20 00:00,ZGGG 200000Z AUTO 34002KT 9SM 15/12 A2997 RMK 70000 SLP152 T01470117 52013 IEM_DS3505
ZGGG,2002-12-20 01:00,ZGGG 200100Z AUTO 34010KT 7SM 14/11 A3003 RMK T01400110 IEM_DS3505
ZGGG,2002-12-20 02:00,ZGGG 200200Z AUTO 36012KT 7SM 14/11 A3000 RMK T01400110 IEM_DS3505
ZGGG,2002-12-20 03:00,ZGGG 200300Z AUTO 29004KT 8SM 15/12 A3003 RMK SLP167 T01520125 52015 IEM_DS3505
ZGGG,2002-12-20 04:00,ZGGG 200400Z AUTO 35008KT 4SM 14/12 A3000 RMK T01400120 IEM_DS3505
ZGGG,2002-12-20 05:00,ZGGG 200500Z AUTO 36006KT 3SM 15/13 A2994 RMK T01500130 IEM_DS3505
ZGGG,2002-12-20 06:00,ZGGG 200600Z AUTO 34004KT 5SM 16/14 A2994 RMK 60003 SLP135 T01550135 57032 IEM_DS3505
ZGGG,2002-12-20 07:00,ZGGG 200700Z AUTO 36008KT 2 1/2SM 15/13 A2991 RMK T01500130 IEM_DS3505
ZGGG,2002-12-20 08:00,ZGGG 200800Z AUTO 34008KT 3SM 15/12 A2994 RMK T01500120 IEM_DS3505
ZGGG,2002-12-20 09:00,ZGGG 200900Z AUTO 32006KT 8SM 15/13 A2994 RMK SLP141 T01540134 52006 IEM_DS3505
ZGGG,2002-12-20 10:00,ZGGG 201000Z AUTO 34006KT 7SM 14/12 A2994 RMK T01400120 IEM_DS3505
ZGGG,2002-12-20 11:00,ZGGG 201100Z AUTO 01006KT 4SM 14/13 A2991 RMK T01400130 IEM_DS3505
ZGGG,2002-12-20 12:00,ZGGG 201200Z AUTO 32004KT 7SM 14/13 A2997 RMK 60012 SLP144 T01430134 52003 IEM_DS3505
ZGGG,2002-12-20 13:00,ZGGG 201300Z AUTO 34006KT 5SM 14/12 A2997 RMK T01400120 IEM_DS3505
ZGGG,2002-12-20 14:00,ZGGG 201400Z AUTO 34006KT 7SM 14/12 A3000 RMK T01400120 IEM_DS3505
ZGGG,2002-12-20 15:00,ZGGG 201500Z AUTO 34004KT 7SM 14/12 A3000 RMK SLP156 T01400124 52012 IEM_DS3505
ZGGG,2002-12-20 16:00,ZGGG 201600Z AUTO 33006KT 7SM 14/12 A3000 RMK T01400120 IEM_DS3505
ZGGG,2002-12-20 17:00,ZGGG 201700Z AUTO 34008KT 7SM 14/11 A3000 RMK T01400110 IEM_DS3505
ZGGG,2002-12-20 18:00,ZGGG 201800Z AUTO 36004KT 8SM 14/12 A2997 RMK SLP153 T01430117 57003 IEM_DS3505
ZGGG,2002-12-20 19:00,ZGGG 201900Z AUTO 35008KT 7SM 14/11 A2997 RMK T01400110 IEM_DS3505
ZGGG,2002-12-20 20:00,ZGGG 202000Z AUTO 36008KT 7SM 14/11 A2997 RMK T01400110 IEM_DS3505
ZGGG,2002-12-20 21:00,ZGGG 202100Z AUTO 04002KT 9SM 14/12 A2997 RMK 70015 SLP150 T01390117 57003 IEM_DS3505
ZGGG,2002-12-20 22:00,ZGGG 202200Z AUTO 36008KT 7SM 14/11 A3000 RMK T01400110 IEM_DS3505
ZGGG,2002-12-20 23:00,ZGGG 202300Z AUTO 36006KT 4SM 14/11 A3000 RMK T01400110 IEM_DS3505
ZGGG,2002-12-21 00:00,ZGGG 210000Z AUTO 34006KT 9SM 14/11 A3003 RMK 70014 SLP170 T01390113 52020 IEM_DS3505
ZGGG,2002-12-21 01:00,ZGGG 210100Z AUTO 33006KT 6SM 14/11 A3006 RMK T01400110 IEM_DS3505
ZGGG,2002-12-21 02:00,ZGGG 210200Z AUTO 34006KT 7SM 15/11 A3006 RMK T01500110 IEM_DS3505
ZGGG,2002-12-21 03:00,ZGGG 210300Z AUTO 34006KT 9SM 16/12 A3006 RMK SLP181 T01570116 52011 IEM_DS3505
ZGGG,2002-12-21 04:00,ZGGG 210400Z AUTO 33008KT 7SM 16/11 A3003 RMK T01600110 IEM_DS3505
ZGGG,2002-12-21 05:00,ZGGG 210500Z AUTO 34006KT 7SM 16/11 A3000 RMK T01600110 IEM_DS3505
ZGGG,2002-12-21 06:00,ZGGG 210600Z AUTO 32004KT 14SM 17/12 A3000 RMK SLP159 T01730123 57022 IEM_DS3505
ZGGG,2002-12-21 07:00,ZGGG 210700Z AUTO 34006KT 7SM 17/12 A2997 RMK T01700120 IEM_DS3505
ZGGG,2002-12-21 08:00,ZGGG 210800Z AUTO 33006KT 7SM 18/12 A2997 RMK T01800120 IEM_DS3505
ZGGG,2002-12-21 09:00,ZGGG 210900Z AUTO 36004KT 16SM 17/12 A3000 RMK SLP162 T01740122 52003 IEM_DS3505
ZGGG,2002-12-21 10:00,ZGGG 211000Z AUTO 34008KT 7SM 17/12 A3000 RMK T01700120 IEM_DS3505
ZGGG,2002-12-21 11:00,ZGGG 211100Z AUTO 34008KT 7SM 17/12 A3003 RMK T01700120 IEM_DS3505
ZGGG,2002-12-21 12:00,ZGGG 211200Z AUTO 36004KT 14SM 16/12 A3006 RMK SLP180 T01600122 52018 IEM_DS3505
ZGGG,2002-12-21 13:00,ZGGG 211300Z AUTO 35008KT 7SM 16/11 A3006 RMK T01600110 IEM_DS3505
ZGGG,2002-12-21 14:00,ZGGG 211400Z AUTO 36008KT 7SM 16/11 A3009 RMK T01600110 IEM_DS3505
ZGGG,2002-12-21 15:00,ZGGG 211500Z AUTO 34004KT 14SM 15/12 A3009 RMK SLP191 T01520117 52011 IEM_DS3505
ZGGG,2002-12-21 16:00,ZGGG 211600Z AUTO 35006KT 7SM 15/11 A3009 RMK T01500110 IEM_DS3505
ZGGG,2002-12-21 17:00,ZGGG 211700Z AUTO 35006KT 7SM 15/11 A3009 RMK T01500110 IEM_DS3505
ZGGG,2002-12-21 18:00,ZGGG 211800Z AUTO 34002KT 12SM 14/11 A3009 RMK SLP189 T01350108 57002 IEM_DS3505
ZGGG,2002-12-21 19:00,ZGGG 211900Z AUTO 35008KT 7SM 14/11 A3009 RMK T01400110 IEM_DS3505
ZGGG,2002-12-21 20:00,ZGGG 212000Z AUTO 36008KT 7SM 13/10 A3009 RMK T01300100 IEM_DS3505
ZGGG,2002-12-21 21:00,ZGGG 212100Z AUTO 34004KT 9SM 13/10 A3006 RMK 70000 SLP183 T01270100 57006 IEM_DS3505
ZGGG,2002-12-21 22:00,ZGGG 212200Z AUTO 35008KT 6SM 13/09 A3009 RMK T01300090 IEM_DS3505
ZGGG,2002-12-21 23:00,ZGGG 212300Z AUTO 35008KT 6SM 13/09 A3009 RMK T01300090 IEM_DS3505
ZGGG,2002-12-22 00:00,ZGGG 220000Z AUTO 00000KT 11SM 13/10 A3012 RMK 70000 SLP201 T01280099 52018 IEM_DS3505
ZGGG,2002-12-22 01:00,ZGGG 220100Z AUTO 31006KT 6SM 14/09 A3015 RMK T01400090 IEM_DS3505
ZGGG,2002-12-22 02:00,ZGGG 220200Z AUTO 36010KT 6SM 16/10 A3015 RMK T01600100 IEM_DS3505
ZGGG,2002-12-22 03:00,ZGGG 220300Z AUTO 36002KT 11SM 18/11 A3015 RMK SLP208 T01760107 52007 IEM_DS3505
ZGGG,2002-12-22 04:00,ZGGG 220400Z AUTO 36010KT 7SM 18/11 A3012 RMK T01800110 IEM_DS3505
ZGGG,2002-12-22 05:00,ZGGG 220500Z AUTO 35006KT 7SM 18/11 A3009 RMK T01800110 IEM_DS3505
ZGGG,2002-12-22 06:00,ZGGG 220600Z AUTO 04006KT 12SM 19/12 A3006 RMK SLP178 T01900116 57030 IEM_DS3505
ZGGG,2002-12-22 07:00,ZGGG 220700Z AUTO 01006KT 7SM 18/11 A3006 RMK T01800110 IEM_DS3505
ZGGG,2002-12-22 08:00,ZGGG 220800Z AUTO 01008KT 7SM 18/11 A3003 RMK T01800110 IEM_DS3505
ZGGG,2002-12-22 09:00,ZGGG 220900Z AUTO 04004KT 10SM 18/12 A3006 RMK SLP181 T01820115 52003 IEM_DS3505
ZGGG,2002-12-22 10:00,ZGGG 221000Z AUTO 36010KT 7SM 18/11 A3009 RMK T01800110 IEM_DS3505
ZGGG,2002-12-22 11:00,ZGGG 221100Z AUTO 36010KT 7SM 17/11 A3012 RMK T01700110 IEM_DS3505
ZGGG,2002-12-22 12:00,ZGGG 221200Z AUTO 36004KT 9SM 16/11 A3015 RMK SLP207 T01640110 52026 IEM_DS3505
ZGGG,2002-12-22 13:00,ZGGG 221300Z AUTO 34006KT 7SM 16/10 A3015 RMK T01600100 IEM_DS3505
ZGGG,2002-12-22 14:00,ZGGG 221400Z AUTO 35006KT 7SM 16/11 A3018 RMK T01600110 IEM_DS3505
ZGGG,2002-12-22 15:00,ZGGG 221500Z AUTO 34004KT 11SM 16/11 A3018 RMK SLP215 T01560111 52008 IEM_DS3505
ZGGG,2002-12-22 16:00,ZGGG 221600Z AUTO 34008KT 7SM 16/10 A3018 RMK T01600100 IEM_DS3505
ZGGG,2002-12-22 17:00,ZGGG 221700Z AUTO 34008KT 7SM 16/11 A3015 RMK T01600110 IEM_DS3505
ZGGG,2002-12-22 18:00,ZGGG 221800Z AUTO 34004KT 11SM 15/11 A3015 RMK SLP210 T01510110 57005 IEM_DS3505
ZGGG,2002-12-22 19:00,ZGGG 221900Z AUTO 34008KT 7SM 15/10 A3015 RMK T01500100 IEM_DS3505
ZGGG,2002-12-22 20:00,ZGGG 222000Z AUTO 34008KT 7SM 14/09 A3015 RMK T01400090 IEM_DS3505
ZGGG,2002-12-22 21:00,ZGGG 222100Z AUTO 36004KT 9SM 15/11 A3015 RMK SLP208 T01470109 57002 IEM_DS3505
ZGGG,2002-12-22 22:00,ZGGG 222200Z AUTO 34008KT 7SM 15/11 A3015 RMK T01500110 IEM_DS3505
ZGGG,2002-12-22 23:00,ZGGG 222300Z AUTO 35010KT 6SM 14/10 A3018 RMK T01400100 IEM_DS3505
ZGGG,2002-12-23 00:00,ZGGG 230000Z AUTO 04002KT 11SM 14/11 A3018 RMK SLP223 T01440108 52015 IEM_DS3505
ZGGG,2002-12-23 01:00,ZGGG 230100Z AUTO 35006KT 6SM 16/10 A3021 RMK T01600100 IEM_DS3505
ZGGG,2002-12-23 02:00,ZGGG 230200Z AUTO 36008KT 6SM 16/10 A3021 RMK T01600100 IEM_DS3505
ZGGG,2002-12-23 03:00,ZGGG 230300Z AUTO 34006KT 11SM 19/12 A3021 RMK SLP224 T01900116 52001 IEM_DS3505
ZGGG,2002-12-23 04:00,ZGGG 230400Z AUTO 35008KT 7SM 18/11 A3015 RMK T01800110 IEM_DS3505
ZGGG,2002-12-23 05:00,ZGGG 230500Z AUTO 36010KT 7SM 19/11 A3012 RMK T01900110 IEM_DS3505
ZGGG,2002-12-23 06:00,ZGGG 230600Z AUTO 32006KT 12SM 20/12 A3012 RMK SLP195 T02040116 57029 IEM_DS3505
ZGGG,2002-12-23 07:00,ZGGG 230700Z AUTO 35012G21KT 7SM 19/11 A3009 RMK T01900110 IEM_DS3505
ZGGG,2002-12-23 08:00,ZGGG 230800Z AUTO 34010KT 7SM 18/11 A3009 RMK T01800110 IEM_DS3505
ZGGG,2002-12-23 09:00,ZGGG 230900Z AUTO 36006KT 11SM 18/11 RMK SLP197 T01760109 52002 IEM_DS3505
ZGGG,2002-12-23 10:00,ZGGG 231000Z AUTO 35010KT 6SM 17/09 A3012 RMK T01700090 IEM_DS3505
ZGGG,2002-12-23 11:00,ZGGG 231100Z AUTO 34010KT 6SM 16/09 A3015 RMK T01600090 IEM_DS3505
ZGGG,2002-12-23 12:00,ZGGG 231200Z AUTO 32006KT 11SM 15/10 A3015 RMK SLP209 T01540103 52012 IEM_DS3505
ZGGG,2002-12-23 13:00,ZGGG 231300Z AUTO 36010KT 6SM 15/09 A3018 RMK T01500090 IEM_DS3505
ZGGG,2002-12-23 14:00,ZGGG 231400Z AUTO 36008KT 6SM 15/09 A3018 RMK T01500090 IEM_DS3505
ZGGG,2002-12-23 15:00,ZGGG 231500Z AUTO 34004KT 11SM 14/09 A3015 RMK SLP215 T01430094 52006 IEM_DS3505
ZGGG,2002-12-23 16:00,ZGGG 231600Z AUTO 36010KT 6SM 14/09 A3015 RMK T01400090 IEM_DS3505
ZGGG,2002-12-23 17:00,ZGGG 231700Z AUTO 36008KT 6SM 13/09 A3015 RMK T01300090 IEM_DS3505
ZGGG,2002-12-23 18:00,ZGGG 231800Z AUTO 34004KT 10SM 14/10 A3015 RMK SLP212 T01350096 57003 IEM_DS3505
ZGGG,2002-12-23 19:00,ZGGG 231900Z AUTO 36006KT 6SM 14/09 A3015 RMK T01400090 IEM_DS3505
ZGGG,2002-12-23 20:00,ZGGG 232000Z AUTO 36006KT 6SM 14/09 A3015 RMK T01400090 IEM_DS3505
ZGGG,2002-12-23 21:00,ZGGG 232100Z AUTO 00000KT 10SM 13/09 A3015 RMK SLP213 T01300093 52001 IEM_DS3505
ZGGG,2002-12-23 22:00,ZGGG 232200Z AUTO 35008KT 6SM 13/09 A3015 RMK T01300090 IEM_DS3505
ZGGG,2002-12-23 23:00,ZGGG 232300Z AUTO 36006KT 6SM 13/09 A3018 RMK T01300090 IEM_DS3505
ZGGG,2002-12-24 00:00,ZGGG 240000Z AUTO 32002KT 12SM 13/09 A3021 RMK SLP230 T01300093 52016 IEM_DS3505
ZGGG,2002-12-24 01:00,ZGGG 240100Z AUTO 36008KT 6SM 14/09 A3021 RMK T01400090 IEM_DS3505
ZGGG,2002-12-24 02:00,ZGGG 240200Z AUTO 36010KT 6SM 16/09 A3021 RMK T01600090 IEM_DS3505
ZGGG,2002-12-24 03:00,ZGGG 240300Z AUTO 07006KT 14SM 18/10 A3021 RMK SLP226 T01780097 57003 IEM_DS3505
ZGGG,2002-12-24 04:00,ZGGG 240400Z AUTO 34006KT 6SM 18/09 A3018 RMK T01800090 IEM_DS3505
ZGGG,2002-12-24 05:00,ZGGG 240500Z AUTO 33006KT 6SM 18/10 A3012 RMK T01800100 IEM_DS3505
ZGGG,2002-12-24 06:00,ZGGG 240600Z AUTO 32004KT 11SM 20/11 A3009 RMK SLP190 T01990112 57036 IEM_DS3505
ZGGG,2002-12-24 07:00,ZGGG 240700Z AUTO 34004KT 6SM 19/10 A3006 RMK T01900100 IEM_DS3505
ZGGG,2002-12-24 08:00,ZGGG 240800Z AUTO 34006KT 6SM 19/11 A3009 RMK T01900110 IEM_DS3505
ZGGG,2002-12-24 09:00,ZGGG 240900Z AUTO 34004KT 10SM 19/12 A3009 RMK SLP187 T01890115 57003 IEM_DS3505
ZGGG,2002-12-24 10:00,ZGGG 241000Z AUTO 01008KT 6SM 18/11 A3009 RMK T01800110 IEM_DS3505
ZGGG,2002-12-24 11:00,ZGGG 241100Z AUTO 02004KT 6SM 17/10 A3012 RMK T01700100 IEM_DS3505
ZGGG,2002-12-24 12:00,ZGGG 241200Z AUTO 00000KT 10SM 16/12 A3015 RMK SLP208 T01630119 52021 IEM_DS3505
ZGGG,2002-12-24 13:00,ZGGG 241300Z AUTO 36006KT 6SM 16/10 A3015 RMK T01600100 IEM_DS3505
ZGGG,2002-12-24 14:00,ZGGG 241400Z AUTO 01006KT 6SM 16/11 A3015 RMK T01600110 IEM_DS3505
ZGGG,2002-12-24 15:00,ZGGG 241500Z AUTO 09004KT 11SM 15/12 A3015 RMK SLP213 T01540119 52005 IEM_DS3505
ZGGG,2002-12-24 16:00,ZGGG 241600Z AUTO 01008KT 6SM 15/12 A3018 RMK T01500120 IEM_DS3505
ZGGG,2002-12-24 17:00,ZGGG 241700Z AUTO 01008KT 6SM 14/11 A3018 RMK T01400110 IEM_DS3505
ZGGG,2002-12-24 18:00,ZGGG 241800Z AUTO 36002KT 9SM 14/11 A3018 RMK SLP214 T01450111 52001 IEM_DS3505
ZGGG,2002-12-24 19:00,ZGGG 241900Z AUTO 35006KT 6SM 14/10 A3018 RMK T01400100 IEM_DS3505
ZGGG,2002-12-24 20:00,ZGGG 242000Z AUTO 36008KT 6SM 14/10 A3018 RMK T01400100 IEM_DS3505
ZGGG,2002-12-24 21:00,ZGGG 242100Z AUTO 32002KT 9SM 14/10 A3018 RMK SLP214 T01420100 54000 IEM_DS3505
ZGGG,2002-12-24 22:00,ZGGG 242200Z AUTO 35010KT 6SM 14/09 A3018 RMK T01400090 IEM_DS3505
ZGGG,2002-12-24 23:00,ZGGG 242300Z AUTO 36008KT 6SM 14/09 A3018 RMK T01400090 IEM_DS3505
ZGGG,2002-12-25 00:00,ZGGG 250000Z AUTO 07004KT 7SM 14/08 A3021 RMK SLP237 T01390083 52022 IEM_DS3505
ZGGG,2002-12-25 01:00,ZGGG 250100Z AUTO 36008KT 6SM 14/08 A3027 RMK T01400080 IEM_DS3505
ZGGG,2002-12-25 02:00,ZGGG 250200Z AUTO 36010KT 7SM 16/08 A3030 RMK T01600080 IEM_DS3505
ZGGG,2002-12-25 03:00,ZGGG 250300Z AUTO 34004KT 12SM 17/09 A3027 RMK SLP248 T01670092 52012 IEM_DS3505
ZGGG,2002-12-25 04:00,ZGGG 250400Z AUTO 36014KT 7SM 17/08 A3024 RMK T01700080 IEM_DS3505
ZGGG,2002-12-25 05:00,ZGGG 250500Z AUTO 01014KT 7SM 18/08 A3018 RMK T01800080 IEM_DS3505
ZGGG,2002-12-25 06:00,ZGGG 250600Z AUTO 36006KT 14SM 17/09 A3018 RMK SLP219 T01740092 57029 IEM_DS3505
ZGGG,2002-12-25 08:00,ZGGG 250800Z AUTO 01012KT 7SM 17/08 A3018 RMK T01700080 IEM_DS3505
ZGGG,2002-12-25 09:00,ZGGG 250900Z AUTO 36008KT 15SM 16/08 A3018 RMK SLP222 T01570084 52003 IEM_DS3505
ZGGG,2002-12-25 10:00,ZGGG 251000Z AUTO 36014KT 6SM 15/07 A3021 RMK T01500070 IEM_DS3505
ZGGG,2002-12-25 11:00,ZGGG 251100Z AUTO 36012KT 6SM 14/07 A3024 RMK T01400070 IEM_DS3505
ZGGG,2002-12-25 12:00,ZGGG 251200Z AUTO 36004KT 13SM 14/08 A3024 RMK SLP235 T01370081 52012 IEM_DS3505
ZGGG,2002-12-25 13:00,ZGGG 251300Z AUTO 36010KT 6SM 14/07 A3027 RMK T01400070 IEM_DS3505
ZGGG,2002-12-25 14:00,ZGGG 251400Z AUTO 35014KT 6SM 13/06 A3027 RMK T01300060 IEM_DS3505
ZGGG,2002-12-25 15:00,ZGGG 251500Z AUTO 36008KT 12SM 12/06 A3027 RMK SLP253 T01190059 52018 IEM_DS3505
ZGGG,2002-12-25 16:00,ZGGG 251600Z AUTO 35014KT 6SM 12/04 A3027 RMK T01200040 IEM_DS3505
ZGGG,2002-12-25 17:00,ZGGG 251700Z AUTO 34010KT 6SM 11/03 A3027 RMK T01100030 IEM_DS3505
ZGGG,2002-12-25 18:00,ZGGG 251800Z AUTO 36006KT 12SM 10/04 A3024 RMK SLP243 T01030042 57010 IEM_DS3505
ZGGG,2002-12-25 19:00,ZGGG 251900Z AUTO 36014KT 7SM 10/02 A3027 RMK T01000020 IEM_DS3505
ZGGG,2002-12-25 20:00,ZGGG 252000Z AUTO 36014KT 7SM 09/02 A3024 RMK T00900020 IEM_DS3505
ZGGG,2002-12-25 21:00,ZGGG 252100Z AUTO 36008KT 12SM 09/02 A3024 RMK SLP243 T00880023 54000 IEM_DS3505
ZGGG,2002-12-25 22:00,ZGGG 252200Z AUTO 36016KT 7SM 09/01 A3030 RMK T00900010 IEM_DS3505
ZGGG,2002-12-25 23:00,ZGGG 252300Z AUTO 36014KT 7SM 08/01 A3030 RMK T00800010 IEM_DS3505
ZGGG,2002-12-26 00:00,ZGGG 260000Z AUTO 04004KT 11SM 08/01 A3033 RMK SLP267 T00810011 52024 IEM_DS3505
ZGGG,2002-12-26 01:00,ZGGG 260100Z AUTO 01016KT 7SM 08/01 A3033 RMK T00800010 IEM_DS3505
ZGGG,2002-12-26 02:00,ZGGG 260200Z AUTO 36016KT 7SM 08/02 A3033 RMK T00800020 IEM_DS3505
ZGGG,2002-12-26 03:00,ZGGG 260300Z AUTO 36006KT 11SM 08/01 A3033 RMK SLP265 T00800013 57003 IEM_DS3505
ZGGG,2002-12-26 04:00,ZGGG 260400Z AUTO 34012KT 7SM 07/01 A3033 RMK T00700010 IEM_DS3505
ZGGG,2002-12-26 05:00,ZGGG 260500Z AUTO 35014G23KT 7SM A3033 RMK IEM_DS3505
ZGGG,2002-12-26 06:00,ZGGG 260600Z AUTO 36010KT 12SM 06/02 A3030 RMK SLP258 T00630018 57007 IEM_DS3505
ZGGG,2002-12-26 07:00,ZGGG 260700Z AUTO 35014KT 4SM 06/03 A3027 RMK T00600030 IEM_DS3505
ZGGG,2002-12-26 08:00,ZGGG 260800Z AUTO 36010KT 4SM 06/03 A3030 RMK T00600030 IEM_DS3505
ZGGG,2002-12-26 09:00,ZGGG 260900Z AUTO 36006KT 12SM 06/04 A3030 RMK SLP256 T00550036 57002 IEM_DS3505
ZGGG,2002-12-26 10:00,ZGGG 261000Z AUTO 36012KT 4SM 05/03 A3030 RMK T00500030 IEM_DS3505
ZGGG,2002-12-26 11:00,ZGGG 261100Z AUTO 34008KT 3SM 06/03 A3033 RMK T00600030 IEM_DS3505
ZGGG,2002-12-26 12:00,ZGGG 261200Z AUTO 04002KT 12SM 05/04 A3033 RMK 60028 SLP276 T00470035 52020 IEM_DS3505
ZGGG,2002-12-26 13:00,ZGGG 261300Z AUTO 34012KT 7SM 04/02 A3036 RMK T00400020 IEM_DS3505
ZGGG,2002-12-26 14:00,ZGGG 261400Z AUTO 34010KT 7SM 04/03 A3036 RMK T00400030 IEM_DS3505
ZGGG,2002-12-26 15:00,ZGGG 261500Z AUTO 36008KT 10SM 04/03 A3036 RMK SLP280 T00390029 52004 IEM_DS3505
ZGGG,2002-12-26 16:00,ZGGG 261600Z AUTO 34010KT 3SM 04/02 A3036 RMK T00400020 IEM_DS3505
ZGGG,2002-12-26 17:00,ZGGG 261700Z AUTO 34010KT 5SM 04/02 A3036 RMK T00400020 IEM_DS3505
ZGGG,2002-12-26 18:00,ZGGG 261800Z AUTO 36006KT 7SM 03/02 RMK 60039 SLP278 T00340024 57003 IEM_DS3505
ZGGG,2002-12-26 21:00,ZGGG 262100Z AUTO 36004KT 7SM 04/03 A3030 RMK 70077 SLP255 T00350030 57023 IEM_DS3505
ZGGG,2002-12-26 22:00,ZGGG 262200Z AUTO 34008KT 7SM 03/02 A3033 RMK T00300020 IEM_DS3505
ZGGG,2002-12-26 23:00,ZGGG 262300Z AUTO 35010KT 7SM 04/02 A3033 RMK T00400020 IEM_DS3505
ZGGG,2002-12-27 00:00,ZGGG 270000Z AUTO 02004KT 8SM 04/02 A3033 RMK 60012 70082 SLP269 T00360021 52014 IEM_DS3505
ZGGG,2002-12-27 01:00,ZGGG 270100Z AUTO 34010KT 7SM 04/02 A3039 RMK T00400020 IEM_DS3505
ZGGG,2002-12-27 02:00,ZGGG 270200Z AUTO 34010KT 7SM 05/02 A3039 RMK T00500020 IEM_DS3505
ZGGG,2002-12-27 03:00,ZGGG 270300Z AUTO 36006KT 9SM 04/03 A3036 RMK SLP282 T00440029 52013 IEM_DS3505
ZGGG,2002-12-27 04:00,ZGGG 270400Z AUTO 35010KT 7SM 06/02 A3033 RMK T00600020 IEM_DS3505
ZGGG,2002-12-27 05:00,ZGGG 270500Z AUTO 34010KT 7SM 06/01 A3027 RMK T00600010 IEM_DS3505
ZGGG,2002-12-27 06:00,ZGGG 270600Z AUTO 36006KT 14SM 08/02 A3024 RMK 60003 SLP245 T00770021 57036 IEM_DS3505
ZGGG,2002-12-27 07:00,ZGGG 270700Z AUTO 35010KT 7SM 07/01 A3024 RMK T00700010 IEM_DS3505
ZGGG,2002-12-27 08:00,ZGGG 270800Z AUTO 36012KT 7SM 07/01 A3024 RMK T00700010 IEM_DS3505
ZGGG,2002-12-27 09:00,ZGGG 270900Z AUTO 02006KT 12SM 06/02 A3024 RMK SLP247 T00650018 52002 IEM_DS3505
ZGGG,2002-12-27 10:00,ZGGG 271000Z AUTO 35010KT 6SM 07/01 A3027 RMK T00700010 IEM_DS3505
ZGGG,2002-12-27 11:00,ZGGG 271100Z AUTO 35012KT 7SM 07/01 A3030 RMK T00700010 IEM_DS3505
ZGGG,2002-12-27 12:00,ZGGG 271200Z AUTO 36004KT 11SM 06/02 A3030 RMK SLP262 T00590016 52014 IEM_DS3505
ZGGG,2002-12-27 13:00,ZGGG 271300Z AUTO 34008KT 7SM 06/01 A3033 RMK T00600010 IEM_DS3505
ZGGG,2002-12-27 14:00,ZGGG 271400Z AUTO 35008KT 7SM 06/01 A3033 RMK T00600010 IEM_DS3505
ZGGG,2002-12-27 15:00,ZGGG 271500Z AUTO 34004KT 11SM 06/02 A3033 RMK SLP269 T00600020 52007 IEM_DS3505
ZGGG,2002-12-27 16:00,ZGGG 271600Z AUTO 35008KT 7SM 06/00 A3030 RMK T00600000 IEM_DS3505
ZGGG,2002-12-27 17:00,ZGGG 271700Z AUTO 36008KT 7SM 06/01 A3030 RMK T00600010 IEM_DS3505
ZGGG,2002-12-27 18:00,ZGGG 271800Z AUTO 36006KT 9SM 06/01 A3030 RMK SLP256 T00570008 57012 IEM_DS3505
ZGGG,2002-12-27 19:00,ZGGG 271900Z AUTO 36008KT 7SM 06/00 A3027 RMK T00600000 IEM_DS3505
ZGGG,2002-12-27 20:00,ZGGG 272000Z AUTO 36014KT 7SM 06/00 A3027 RMK T00600000 IEM_DS3505
ZGGG,2002-12-27 21:00,ZGGG 272100Z AUTO 32004KT 9SM 05/01 A3027 RMK 70009 SLP248 T00500009 57008 IEM_DS3505
ZGGG,2002-12-27 22:00,ZGGG 272200Z AUTO 36010KT 7SM 06/01 A3027 RMK T00600010 IEM_DS3505
ZGGG,2002-12-27 23:00,ZGGG 272300Z AUTO 36010KT 7SM 06/00 A3027 RMK T00600000 IEM_DS3505
ZGGG,2002-12-28 00:00,ZGGG 280000Z AUTO 36006KT 10SM 05/01 A3030 RMK 70004 SLP255 T00540013 52007 IEM_DS3505
ZGGG,2002-12-28 02:00,ZGGG 280200Z AUTO 36010KT 6SM 07/01 A3030 RMK T00700010 IEM_DS3505
ZGGG,2002-12-28 03:00,ZGGG 280300Z AUTO 32006KT 10SM 09/03 A3030 RMK SLP256 T00920026 52001 IEM_DS3505
ZGGG,2002-12-28 04:00,ZGGG 280400Z AUTO 36008KT 6SM 10/02 A3027 RMK T01000020 IEM_DS3505
ZGGG,2002-12-28 05:00,ZGGG 280500Z AUTO 36008KT 6SM 11/02 A3021 RMK T01100020 IEM_DS3505
ZGGG,2002-12-28 06:00,ZGGG 280600Z AUTO 36008KT 11SM 11/04 A3018 RMK SLP224 T01120035 57032 IEM_DS3505
ZGGG,2002-12-28 07:00,ZGGG 280700Z AUTO 36008KT 6SM 11/02 A3018 RMK T01100020 IEM_DS3505
ZGGG,2002-12-28 08:00,ZGGG 280800Z AUTO 32008KT 6SM 10/02 A3018 RMK T01000020 IEM_DS3505
ZGGG,2002-12-28 09:00,ZGGG 280900Z AUTO 34004KT 7SM 10/04 A3018 RMK SLP224 T01010042 54000 IEM_DS3505
ZGGG,2002-12-28 10:00,ZGGG 281000Z AUTO 33008KT 6SM 10/03 A3021 RMK T01000030 IEM_DS3505
ZGGG,2002-12-28 11:00,ZGGG 281100Z AUTO 34010KT 6SM 09/03 A3021 RMK T00900030 IEM_DS3505
ZGGG,2002-12-28 12:00,ZGGG 281200Z AUTO 36004KT 8SM 09/05 A3021 RMK SLP237 T00930048 52013 IEM_DS3505
ZGGG,2002-12-28 13:00,ZGGG 281300Z AUTO 34008KT 7SM 09/03 A3024 RMK T00900030 IEM_DS3505
ZGGG,2002-12-28 14:00,ZGGG 281400Z AUTO 34008KT 7SM 09/04 A3027 RMK T00900040 IEM_DS3505
ZGGG,2002-12-28 15:00,ZGGG 281500Z AUTO 32006KT 10SM 09/05 A3027 RMK SLP251 T00880047 52014 IEM_DS3505
ZGGG,2002-12-28 16:00,ZGGG 281600Z AUTO 34006KT 7SM 09/04 A3027 RMK T00900040 IEM_DS3505
ZGGG,2002-12-28 17:00,ZGGG 281700Z AUTO 36006KT 7SM 09/04 A3027 RMK T00900040 IEM_DS3505
ZGGG,2002-12-28 18:00,ZGGG 281800Z AUTO 34004KT 10SM 09/05 A3027 RMK SLP246 T00860047 57005 IEM_DS3505
ZGGG,2002-12-28 19:00,ZGGG 281900Z AUTO 35006KT 7SM 09/04 A3024 RMK T00900040 IEM_DS3505
ZGGG,2002-12-28 20:00,ZGGG 282000Z AUTO 34006KT 7SM 09/04 A3024 RMK T00900040 IEM_DS3505
ZGGG,2002-12-28 21:00,ZGGG 282100Z AUTO 36002KT 9SM 08/05 A3024 RMK SLP238 T00830052 57008 IEM_DS3505
ZGGG,2002-12-28 22:00,ZGGG 282200Z AUTO 35006KT 7SM 09/04 A3024 RMK T00900040 IEM_DS3505
ZGGG,2002-12-28 23:00,ZGGG 282300Z AUTO 35006KT 7SM 09/04 A3027 RMK T00900040 IEM_DS3505
ZGGG,2002-12-29 00:00,ZGGG 290000Z AUTO 36004KT 9SM 08/05 A3027 RMK SLP254 T00850049 52016 IEM_DS3505
ZGGG,2002-12-29 01:00,ZGGG 290100Z AUTO 33006KT 4SM 09/05 A3033 RMK T00900050 IEM_DS3505
ZGGG,2002-12-29 02:00,ZGGG 290200Z AUTO 32006KT 4SM 09/04 A3033 RMK T00900040 IEM_DS3505
ZGGG,2002-12-29 03:00,ZGGG 290300Z AUTO 34006KT 9SM 11/05 A3033 RMK SLP264 T01090054 52010 IEM_DS3505
ZGGG,2002-12-29 04:00,ZGGG 290400Z AUTO 34008KT 4SM 10/05 A3030 RMK T01000050 IEM_DS3505
ZGGG,2002-12-29 05:00,ZGGG 290500Z AUTO 34008KT 4SM 11/06 A3024 RMK T01100060 IEM_DS3505
ZGGG,2002-12-29 06:00,ZGGG 290600Z AUTO 34006KT 9SM 13/07 A3021 RMK SLP231 T01310069 57032 IEM_DS3505
ZGGG,2002-12-29 07:00,ZGGG 290700Z AUTO 32006KT 12/06 A3021 RMK T01200060 IEM_DS3505
ZGGG,2002-12-29 08:00,ZGGG 290800Z AUTO 34008KT 12/06 A3021 RMK T01200060 IEM_DS3505
ZGGG,2002-12-29 09:00,ZGGG 290900Z AUTO 32004KT 7SM 12/07 A3021 RMK SLP230 T01210071 57001 IEM_DS3505
ZGGG,2002-12-29 10:00,ZGGG 291000Z AUTO 33006KT 4SM 11/06 A3021 RMK T01100060 IEM_DS3505
ZGGG,2002-12-29 11:00,ZGGG 291100Z AUTO 33008KT 7SM 11/06 A3021 RMK T01100060 IEM_DS3505
ZGGG,2002-12-29 12:00,ZGGG 291200Z AUTO 32004KT 7SM 10/07 A3024 RMK SLP236 T01030071 52005 IEM_DS3505
ZGGG,2002-12-29 13:00,ZGGG 291300Z AUTO 35008KT 5SM 10/06 A3024 RMK T01000060 IEM_DS3505
ZGGG,2002-12-29 14:00,ZGGG 291400Z AUTO 35008KT 5SM 10/06 A3027 RMK T01000060 IEM_DS3505
ZGGG,2002-12-29 15:00,ZGGG 291500Z AUTO 34004KT 9SM 09/06 A3027 RMK SLP250 T00920064 52014 IEM_DS3505
ZGGG,2002-12-29 16:00,ZGGG 291600Z AUTO 34008KT 4SM 09/06 A3024 RMK T00900060 IEM_DS3505
ZGGG,2002-12-29 17:00,ZGGG 291700Z AUTO 33006KT 4SM 09/06 A3024 RMK T00900060 IEM_DS3505
ZGGG,2002-12-29 18:00,ZGGG 291800Z AUTO 32004KT 7SM 09/07 A3024 RMK SLP235 T00890067 57014 IEM_DS3505
ZGGG,2002-12-29 19:00,ZGGG 291900Z AUTO 34006KT 4SM 09/06 A3021 RMK T00900060 IEM_DS3505
ZGGG,2002-12-29 20:00,ZGGG 292000Z AUTO 33006KT 4SM 09/06 A3021 RMK T00900060 IEM_DS3505
ZGGG,2002-12-29 21:00,ZGGG 292100Z AUTO 00000KT 7SM 09/06 A3021 RMK SLP225 T00890065 57010 IEM_DS3505
ZGGG,2002-12-29 22:00,ZGGG 292200Z AUTO 36008KT 4SM 09/06 A3021 RMK T00900060 IEM_DS3505
ZGGG,2002-12-29 23:00,ZGGG 292300Z AUTO 36006KT 4SM 09/06 A3021 RMK T00900060 IEM_DS3505
ZGGG,2002-12-30 00:00,ZGGG 300000Z AUTO 32004KT 8SM 08/06 A3024 RMK SLP243 T00840062 52017 IEM_DS3505
ZGGG,2002-12-30 01:00,ZGGG 300100Z AUTO 33006KT 3SM 09/06 A3027 RMK T00900060 IEM_DS3505
ZGGG,2002-12-30 02:00,ZGGG 300200Z AUTO 4SM 11/06 A3027 RMK T01100060 IEM_DS3505
ZGGG,2002-12-30 03:00,ZGGG 300300Z AUTO 35010KT 4SM 11/06 A3024 RMK T01100060 IEM_DS3505
ZGGG,2002-12-30 04:00,ZGGG 300400Z AUTO 36008KT 13/07 A3021 RMK T01300070 IEM_DS3505
ZGGG,2002-12-30 05:00,ZGGG 300500Z AUTO 34008KT 5SM 14/07 A3018 RMK T01400070 IEM_DS3505
ZGGG,2002-12-30 06:00,ZGGG 300600Z AUTO 32006KT 9SM 15/08 A3015 RMK SLP210 T01470079 57027 IEM_DS3505
ZGGG,2002-12-30 07:00,ZGGG 300700Z AUTO 32010KT 5SM 12/06 A3015 RMK T01200060 IEM_DS3505
ZGGG,2002-12-30 08:00,ZGGG 300800Z AUTO 36008KT 12/06 A3012 RMK T01200060 IEM_DS3505
ZGGG,2002-12-30 09:00,ZGGG 300900Z AUTO 32006KT 8SM 12/07 A3015 RMK SLP209 T01150073 57001 IEM_DS3505
ZGGG,2002-12-30 10:00,ZGGG 301000Z AUTO 31008KT 4SM 11/06 A3018 RMK T01100060 IEM_DS3505
ZGGG,2002-12-30 11:00,ZGGG 301100Z AUTO 34008KT 7SM 11/06 A3018 RMK T01100060 IEM_DS3505
ZGGG,2002-12-30 12:00,ZGGG 301200Z AUTO 32004KT 7SM 10/07 A3018 RMK SLP222 T01010067 52012 IEM_DS3505
ZGGG,2002-12-30 13:00,ZGGG 301300Z AUTO 33006KT 7SM 10/06 A3018 RMK T01000060 IEM_DS3505
ZGGG,2002-12-30 14:00,ZGGG 301400Z AUTO 33008KT 7SM 10/06 A3021 RMK T01000060 IEM_DS3505
ZGGG,2002-12-30 15:00,ZGGG 301500Z AUTO 36006KT 9SM 10/07 A3021 RMK SLP233 T01010067 52012 IEM_DS3505
ZGGG,2002-12-30 16:00,ZGGG 301600Z AUTO 31006KT 7SM 10/06 A3021 RMK T01000060 IEM_DS3505
ZGGG,2002-12-30 17:00,ZGGG 301700Z AUTO 32008KT 7SM 10/06 A3021 RMK T01000060 IEM_DS3505
ZGGG,2002-12-30 18:00,ZGGG 301800Z AUTO 32004KT 8SM 10/07 A3021 RMK SLP232 T01000068 57001 IEM_DS3505
ZGGG,2002-12-30 19:00,ZGGG 301900Z AUTO 34008KT 7SM 10/06 A3021 RMK T01000060 IEM_DS3505
ZGGG,2002-12-30 20:00,ZGGG 302000Z AUTO 34008KT 7SM 09/06 A3018 RMK T00900060 IEM_DS3505
ZGGG,2002-12-30 21:00,ZGGG 302100Z AUTO 36002KT 6SM 09/07 A3021 RMK 70001 SLP224 T00930074 57008 IEM_DS3505
ZGGG,2002-12-30 22:00,ZGGG 302200Z AUTO 34008KT 7SM 09/07 A3021 RMK T00900070 IEM_DS3505
ZGGG,2002-12-30 23:00,ZGGG 302300Z AUTO 35006KT 7SM 09/06 A3021 RMK T00900060 IEM_DS3505
