station,valid,metar
ZGGG,1985-01-01 00:00,ZGGG 010000Z AUTO 34004KT 7SM 11/04 RMK SLP232 T01060043 52018 IEM_DS3505
ZGGG,1985-01-01 03:00,ZGGG 010300Z AUTO 02006KT 6SM 14/02 RMK SLP233 T01390016 52001 IEM_DS3505
ZGGG,1985-01-01 05:00,ZGGG 010500Z AUTO 33008KT 5SM 14/07 A3012 RMK T01400070 IEM_DS3505
ZGGG,1985-01-01 06:00,ZGGG 010600Z AUTO 02006KT 6SM 16/07 A3009 RMK SLP195 T01550072 4////0105 57038 IEM_DS3505
ZGGG,1985-01-01 07:00,ZGGG 010700Z AUTO 03008KT 6SM 16/08 A3006 RMK T01600080 IEM_DS3505
ZGGG,1985-01-01 08:00,ZGGG 010800Z AUTO 02008KT 6SM 16/08 A3006 RMK T01600080 IEM_DS3505
ZGGG,1985-01-01 09:00,ZGGG 010900Z AUTO 36002KT 6SM 16/08 A3006 RMK SLP196 T01630079 52001 IEM_DS3505
ZGGG,1985-01-01 10:00,ZGGG 011000Z AUTO 04004KT 6SM 15/09 A3006 RMK T01500090 IEM_DS3505
ZGGG,1985-01-01 11:00,ZGGG 011100Z AUTO 04004KT 4SM 14/10 A3009 RMK T01400100 IEM_DS3505
ZGGG,1985-01-01 12:00,ZGGG 011200Z AUTO 00000KT 7SM 15/08 A3009 RMK SLP201 T01510084 52005 IEM_DS3505
ZGGG,1985-01-01 13:00,ZGGG 011300Z AUTO 01006KT 4SM 13/10 A3009 RMK T01300100 IEM_DS3505
ZGGG,1985-01-01 15:00,ZGGG 011500Z AUTO 00000KT 6SM 14/09 RMK SLP206 T01440088 52005 IEM_DS3505
ZGGG,1985-01-01 18:00,ZGGG 011800Z AUTO 00000KT 6SM 13/10 RMK SLP213 T01320102 40179//// 52007 IEM_DS3505
ZGGG,1985-01-01 21:00,ZGGG 012100Z AUTO 00000KT 5SM 12/09 RMK SLP209 T01210094 57004 IEM_DS3505
ZGGG,1985-01-02 00:00,ZGGG 020000Z AUTO 00000KT 2 1/2SM 12/10 RMK SLP221 T01240099 52012 IEM_DS3505
ZGGG,1985-01-02 03:00,ZGGG 020300Z AUTO 27004KT 2 1/2SM 18/12 RMK SLP217 T01770116 57004 IEM_DS3505
ZGGG,1985-01-02 06:00,ZGGG 020600Z AUTO 00000KT 6SM 19/13 RMK SLP190 T01870126 4////0121 57027 IEM_DS3505
ZGGG,1985-01-02 09:00,ZGGG 020900Z AUTO 34004KT 6SM 20/12 RMK SLP181 T02000122 57009 IEM_DS3505
ZGGG,1985-01-02 12:00,ZGGG 021200Z AUTO 34004KT 5SM 15/12 RMK SLP187 T01480123 52006 IEM_DS3505
ZGGG,1985-01-02 15:00,ZGGG 021500Z AUTO 00000KT 4SM 13/12 RMK SLP194 T01290115 52007 IEM_DS3505
ZGGG,1985-01-02 18:00,ZGGG 021800Z AUTO 00000KT 2 1/2SM 12/11 RMK SLP193 T01150106 40208//// 57001 IEM_DS3505
ZGGG,1985-01-02 21:00,ZGGG 022100Z AUTO 00000KT 2SM 12/10 RMK SLP192 T01160096 57001 IEM_DS3505
ZGGG,1985-01-03 00:00,ZGGG 030000Z AUTO 00000KT 4SM 12/10 RMK SLP211 T01150097 52019 IEM_DS3505
ZGGG,1985-01-03 03:00,ZGGG 030300Z AUTO 36006KT 2 1/2SM 15/10 RMK SLP216 T01510100 52005 IEM_DS3505
ZGGG,1985-01-03 06:00,ZGGG 030600Z AUTO 36004KT 4SM 19/10 RMK SLP185 T01900102 4////0107 57031 IEM_DS3505
ZGGG,1985-01-03 09:00,ZGGG 030900Z AUTO 34006KT 2 1/2SM 19/10 RMK SLP195 T01910102 52010 IEM_DS3505
ZGGG,1985-01-03 12:00,ZGGG 031200Z AUTO 34008KT 4SM 16/08 RMK SLP200 T01570085 52005 IEM_DS3505
ZGGG,1985-01-03 15:00,ZGGG 031500Z AUTO 34006KT 4SM 14/08 RMK SLP214 T01420077 52014 IEM_DS3505
ZGGG,1985-01-03 18:00,ZGGG 031800Z AUTO 36010KT 4SM 12/07 RMK SLP216 T01250068 40203//// 52002 IEM_DS3505
ZGGG,1985-01-03 21:00,ZGGG 032100Z AUTO 02004KT 4SM 11/06 RMK SLP222 T01140064 52006 IEM_DS3505
ZGGG,1985-01-04 00:00,ZGGG 040000Z AUTO 36004KT 4SM 11/05 RMK SLP249 T01140050 52027 IEM_DS3505
ZGGG,1985-01-04 03:00,ZGGG 040300Z AUTO 02006KT 6SM 14/06 RMK SLP248 T01410061 57001 IEM_DS3505
ZGGG,1985-01-04 06:00,ZGGG 040600Z AUTO 36008KT 6SM 16/06 RMK SLP221 T01580064 4////0113 57027 IEM_DS3505
ZGGG,1985-01-04 09:00,ZGGG 040900Z AUTO 34008KT 6SM 15/06 RMK SLP224 T01470059 52003 IEM_DS3505
ZGGG,1985-01-04 12:00,ZGGG 041200Z AUTO 34006KT 6SM 12/05 RMK SLP229 T01170047 52005 IEM_DS3505
ZGGG,1985-01-04 15:00,ZGGG 041500Z AUTO 34004KT 6SM 11/05 RMK SLP242 T01140050 52013 IEM_DS3505
ZGGG,1985-01-04 18:00,ZGGG 041800Z AUTO 02008KT 7SM 11/04 RMK SLP237 T01120045 40168//// 57005 IEM_DS3505
ZGGG,1985-01-04 21:00,ZGGG 042100Z AUTO 36006KT 7SM 10/05 RMK SLP235 T01040047 57002 IEM_DS3505
ZGGG,1985-01-05 00:00,ZGGG 050000Z AUTO 36006KT 6SM 10/05 RMK SLP253 T01030049 52018 IEM_DS3505
ZGGG,1985-01-05 01:00,ZGGG 050100Z AUTO 03010KT 7SM 10/05 A3024 RMK T01000050 IEM_DS3505
ZGGG,1985-01-05 02:00,ZGGG 050200Z AUTO 01012KT 7SM 11/05 A3027 RMK T01100050 IEM_DS3505
ZGGG,1985-01-05 03:00,ZGGG 050300Z AUTO 36006KT 8SM 12/05 A3024 RMK SLP251 T01150049 57002 IEM_DS3505
ZGGG,1985-01-05 04:00,ZGGG 050400Z AUTO 08010KT 7SM 12/05 A3024 RMK T01200050 IEM_DS3505
ZGGG,1985-01-05 05:00,ZGGG 050500Z AUTO 01010KT 7SM 12/05 A3018 RMK T01200050 IEM_DS3505
ZGGG,1985-01-05 06:00,ZGGG 050600Z AUTO 36006KT 9SM 13/05 A3018 RMK SLP224 T01320052 4////0103 57027 IEM_DS3505
ZGGG,1985-01-05 07:00,ZGGG 050700Z AUTO 01010KT 6SM 13/06 A3015 RMK T01300060 IEM_DS3505
ZGGG,1985-01-05 09:00,ZGGG 050900Z AUTO 34004KT 7SM 13/05 RMK SLP214 T01290052 57010 IEM_DS3505
ZGGG,1985-01-05 12:00,ZGGG 051200Z AUTO 34002KT 7SM 12/05 RMK SLP221 T01200053 52007 IEM_DS3505
ZGGG,1985-01-05 15:00,ZGGG 051500Z AUTO 36004KT 6SM 12/05 RMK SLP224 T01150054 52003 IEM_DS3505
ZGGG,1985-01-05 18:00,ZGGG 051800Z AUTO 36004KT 6SM 11/05 RMK SLP228 T01140053 40140//// 52004 IEM_DS3505
ZGGG,1985-01-05 21:00,ZGGG 052100Z AUTO 36004KT 6SM 10/06 RMK SLP218 T01040063 57010 IEM_DS3505
ZGGG,1985-01-05 22:00,ZGGG 052200Z AUTO 36010KT 7SM 10/07 A3015 RMK T01000070 IEM_DS3505
ZGGG,1985-01-05 23:00,ZGGG 052300Z AUTO 01008KT 7SM 10/07 A3015 RMK T01000070 IEM_DS3505
ZGGG,1985-01-06 00:00,ZGGG 060000Z AUTO 02002KT 6SM 11/06 A3015 RMK SLP230 T01060063 52012 IEM_DS3505
ZGGG,1985-01-06 01:00,ZGGG 060100Z AUTO 01010KT 7SM 11/06 A3018 RMK T01100060 IEM_DS3505
ZGGG,1985-01-06 03:00,ZGGG 060300Z AUTO 07004KT 5SM 13/08 A3015 RMK SLP225 T01290079 57005 IEM_DS3505
ZGGG,1985-01-06 04:00,ZGGG 060400Z AUTO 01008KT 7SM 13/08 A3015 RMK T01300080 IEM_DS3505
ZGGG,1985-01-06 06:00,ZGGG 060600Z AUTO 14004KT 4SM 16/09 RMK SLP192 T01550087 4////0104 57033 IEM_DS3505
ZGGG,1985-01-06 09:00,ZGGG 060900Z AUTO 00000KT 5SM 17/09 RMK SLP191 T01690091 57001 IEM_DS3505
ZGGG,1985-01-06 12:00,ZGGG 061200Z AUTO 29004KT 6SM 12/ RMK SLP203 52012 IEM_DS3505
ZGGG,1985-01-06 15:00,ZGGG 061500Z AUTO 36004KT 5SM 13/09 RMK SLP208 T01270089 52005 IEM_DS3505
ZGGG,1985-01-06 18:00,ZGGG 061800Z AUTO 00000KT 5SM 13/10 RMK SLP210 T01290097 40172//// 52002 IEM_DS3505
ZGGG,1985-01-06 21:00,ZGGG 062100Z AUTO 04004KT 4SM 13/10 RMK SLP195 T01290099 57015 IEM_DS3505
ZGGG,1985-01-07 00:00,ZGGG 070000Z AUTO 02006KT 5SM 12/09 RMK SLP211 T01210090 52016 IEM_DS3505
ZGGG,1985-01-07 03:00,ZGGG 070300Z AUTO 36008KT 5SM 11/09 RMK SLP229 T01090093 52018 IEM_DS3505
ZGGG,1985-01-07 06:00,ZGGG 070600Z AUTO 02010KT 7SM 11/08 RMK SLP205 T01070077 4////0107 57024 IEM_DS3505
ZGGG,1985-01-07 09:00,ZGGG 070900Z AUTO 36006KT 10SM 10/06 RMK SLP214 T01050062 52009 IEM_DS3505
ZGGG,1985-01-07 12:00,ZGGG 071200Z AUTO 04010KT 7SM 10/06 RMK SLP229 T00980058 52015 IEM_DS3505
ZGGG,1985-01-07 15:00,ZGGG 071500Z AUTO 36006KT 6SM 08/06 RMK SLP244 T00800062 52015 IEM_DS3505
ZGGG,1985-01-07 18:00,ZGGG 071800Z AUTO 34006KT 6SM 08/06 RMK 60012 SLP245 T00750055 40132//// 52001 IEM_DS3505
ZGGG,1985-01-07 21:00,ZGGG 072100Z AUTO 34004KT 5SM 07/05 RMK SLP238 T00730050 57007 IEM_DS3505
ZGGG,1985-01-08 00:00,ZGGG 080000Z AUTO 02008KT 9SM 07/04 RMK 60004 SLP252 T00720038 52014 IEM_DS3505
ZGGG,1985-01-08 01:00,ZGGG 080100Z AUTO 35010KT 5SM 07/05 A3024 RMK T00700050 IEM_DS3505
ZGGG,1985-01-08 02:00,ZGGG 080200Z AUTO 36014KT 7SM 07/05 A3027 RMK T00700050 IEM_DS3505
ZGGG,1985-01-08 03:00,ZGGG 080300Z AUTO 02008KT 6SM 07/05 A3027 RMK SLP258 T00700047 52006 IEM_DS3505
ZGGG,1985-01-08 04:00,ZGGG 080400Z AUTO 36010KT 7SM 07/06 A3024 RMK T00700060 IEM_DS3505
ZGGG,1985-01-08 05:00,ZGGG 080500Z AUTO 02010KT 7SM 07/06 A3021 RMK T00700060 IEM_DS3505
ZGGG,1985-01-08 06:00,ZGGG 080600Z AUTO 02002KT 7SM 08/05 A3018 RMK 60008 SLP230 T00770050 4////0068 57028 IEM_DS3505
ZGGG,1985-01-08 07:00,ZGGG 080700Z AUTO 01008KT 7SM 08/05 A3018 RMK T00800050 IEM_DS3505
ZGGG,1985-01-08 09:00,ZGGG 080900Z AUTO 36004KT 2 1/2SM 07/06 RMK SLP232 T00700056 52002 IEM_DS3505
ZGGG,1985-01-08 10:00,ZGGG 081000Z AUTO 01010KT 3SM 07/06 A3018 RMK T00700060 IEM_DS3505
ZGGG,1985-01-08 12:00,ZGGG 081200Z AUTO 02004KT 6SM 07/06 RMK 60004 SLP234 T00700056 52002 IEM_DS3505
ZGGG,1985-01-08 15:00,ZGGG 081500Z AUTO 34004KT 4SM 07/06 RMK SLP236 T00680056 52002 IEM_DS3505
ZGGG,1985-01-08 18:00,ZGGG 081800Z AUTO 02006KT 4SM 07/05 RMK 60004 SLP243 T00660054 40081//// 52007 IEM_DS3505
ZGGG,1985-01-08 21:00,ZGGG 082100Z AUTO 36004KT 5SM 07/06 RMK SLP233 T00700056 57010 IEM_DS3505
ZGGG,1985-01-09 00:00,ZGGG 090000Z AUTO 34004KT 4SM 07/05 RMK SLP243 T00730046 52010 IEM_DS3505
ZGGG,1985-01-09 03:00,ZGGG 090300Z AUTO 36004KT 2SM 07/06 RMK SLP247 T00690055 52004 IEM_DS3505
ZGGG,1985-01-09 06:00,ZGGG 090600Z AUTO 36004KT 2SM 08/06 RMK 60000 SLP217 T00760058 4////0066 57030 IEM_DS3505
ZGGG,1985-01-09 09:00,ZGGG 090900Z AUTO 36004KT 2SM 07/06 RMK SLP222 T00720062 52005 IEM_DS3505
ZGGG,1985-01-09 12:00,ZGGG 091200Z AUTO 34004KT 2SM 07/06 RMK 60004 SLP245 T00690059 52023 IEM_DS3505
ZGGG,1985-01-09 15:00,ZGGG 091500Z AUTO 34006KT 3SM 07/05 RMK SLP252 T00690048 52007 IEM_DS3505
ZGGG,1985-01-09 18:00,ZGGG 091800Z AUTO 34008KT 6SM 07/04 RMK 60000 SLP244 T00680038 40079//// 57008 IEM_DS3505
ZGGG,1985-01-09 21:00,ZGGG 092100Z AUTO 00000KT 7SM 06/04 RMK SLP234 T00630040 57010 IEM_DS3505
ZGGG,1985-01-10 00:00,ZGGG 100000Z AUTO 36004KT 10SM 06/02 RMK 60002 SLP243 T00580022 52009 IEM_DS3505
ZGGG,1985-01-10 06:00,ZGGG 100600Z AUTO 34006KT 10SM 11/02 RMK SLP195 T01060020 4////0057 57041 IEM_DS3505
ZGGG,1985-01-10 09:00,ZGGG 100900Z AUTO 34004KT 9SM 10/03 RMK SLP189 T01030032 57006 IEM_DS3505
ZGGG,1985-01-10 12:00,ZGGG 101200Z AUTO 06002KT 8SM 09/03 RMK SLP203 T00870027 52014 IEM_DS3505
ZGGG,1985-01-10 15:00,ZGGG 101500Z AUTO 36006KT 7SM 08/03 RMK SLP208 T00790027 52005 IEM_DS3505
ZGGG,1985-01-10 18:00,ZGGG 101800Z AUTO 36004KT 7SM 07/02 RMK SLP205 T00720021 40117//// 57003 IEM_DS3505
ZGGG,1985-01-10 21:00,ZGGG 102100Z AUTO 04004KT 7SM 07/02 RMK SLP197 T00690020 57008 IEM_DS3505
ZGGG,1985-01-11 00:00,ZGGG 110000Z AUTO 36002KT 5SM 07/02 RMK SLP209 T00690020 52012 IEM_DS3505
ZGGG,1985-01-11 03:00,ZGGG 110300Z AUTO 36002KT 4SM 08/02 RMK SLP205 T00810022 57004 IEM_DS3505
ZGGG,1985-01-11 06:00,ZGGG 110600Z AUTO 00000KT 5SM 10/03 RMK SLP171 T00980031 4////0068 57034 IEM_DS3505
ZGGG,1985-01-11 09:00,ZGGG 110900Z AUTO 02004KT 5SM 10/03 RMK SLP177 T00980031 52006 IEM_DS3505
ZGGG,1985-01-11 12:00,ZGGG 111200Z AUTO 00000KT 5SM 09/05 RMK SLP186 T00940049 52009 IEM_DS3505
ZGGG,1985-01-11 15:00,ZGGG 111500Z AUTO 00000KT 6SM 09/04 RMK SLP189 T00940043 52003 IEM_DS3505
ZGGG,1985-01-11 18:00,ZGGG 111800Z AUTO 00000KT 5SM 09/06 RMK SLP193 T00940056 40105//// 52004 IEM_DS3505
ZGGG,1985-01-11 21:00,ZGGG 112100Z AUTO 00000KT 5SM 10/05 RMK SLP192 T00960054 57001 IEM_DS3505
ZGGG,1985-01-12 00:00,ZGGG 120000Z AUTO 34004KT 5SM 10/05 RMK SLP214 T00990051 52022 IEM_DS3505
ZGGG,1985-01-12 01:00,ZGGG 120100Z AUTO 01008KT 4SM 10/06 A3015 RMK T01000060 IEM_DS3505
ZGGG,1985-01-12 02:00,ZGGG 120200Z AUTO 36006KT 5SM 10/05 A3015 RMK T01000050 IEM_DS3505
ZGGG,1985-01-12 03:00,ZGGG 120300Z AUTO 02004KT 6SM 11/03 RMK SLP227 T01090032 52013 IEM_DS3505
ZGGG,1985-01-12 04:00,ZGGG 120400Z AUTO 35008KT 7SM 11/04 A3015 RMK T01100040 IEM_DS3505
ZGGG,1985-01-12 05:00,ZGGG 120500Z AUTO 36010KT 7SM 11/04 A3012 RMK T01100040 IEM_DS3505
ZGGG,1985-01-12 06:00,ZGGG 120600Z AUTO 36008KT 7SM 12/04 A3009 RMK SLP202 T01180036 4////0094 57025 IEM_DS3505
ZGGG,1985-01-12 07:00,ZGGG 120700Z AUTO 35008KT 7SM 12/04 A3006 RMK T01200040 IEM_DS3505
ZGGG,1985-01-12 08:00,ZGGG 120800Z AUTO 02008KT 7SM 12/04 A3006 RMK T01200040 IEM_DS3505
ZGGG,1985-01-12 09:00,ZGGG 120900Z AUTO 36004KT 6SM 12/04 A3009 RMK SLP198 T01210045 57004 IEM_DS3505
ZGGG,1985-01-12 10:00,ZGGG 121000Z AUTO 35010KT 7SM 12/05 A3009 RMK T01200050 IEM_DS3505
ZGGG,1985-01-12 11:00,ZGGG 121100Z AUTO 35008KT 7SM 11/05 A3012 RMK T01100050 IEM_DS3505
ZGGG,1985-01-12 12:00,ZGGG 121200Z AUTO 34004KT 6SM 11/05 RMK SLP220 T01140050 52022 IEM_DS3505
ZGGG,1985-01-12 15:00,ZGGG 121500Z AUTO 00000KT 6SM 11/05 RMK SLP239 T01120050 52019 IEM_DS3505
ZGGG,1985-01-12 18:00,ZGGG 121800Z AUTO 02002KT 6SM 12/04 RMK SLP237 T01160038 40125//// 57002 IEM_DS3505
ZGGG,1985-01-12 21:00,ZGGG 122100Z AUTO 36006KT 5SM 11/02 RMK SLP242 T01070016 52005 IEM_DS3505
ZGGG,1985-01-13 00:00,ZGGG 130000Z AUTO 02006KT 7SM 10/M01 RMK SLP265 T01001008 52023 IEM_DS3505
ZGGG,1985-01-13 03:00,ZGGG 130300Z AUTO 36008KT 8SM 11/M03 RMK SLP273 T01141032 52008 IEM_DS3505
ZGGG,1985-01-13 06:00,ZGGG 130600Z AUTO 04006KT 7SM 13/M03 RMK SLP237 T01321033 4////0100 57036 IEM_DS3505
ZGGG,1985-01-13 09:00,ZGGG 130900Z AUTO 36006KT 7SM 13/M02 RMK SLP241 T01331020 52004 IEM_DS3505
ZGGG,1985-01-13 12:00,ZGGG 131200Z AUTO 00000KT 6SM 12/01 RMK SLP252 T01240010 52011 IEM_DS3505
ZGGG,1985-01-13 15:00,ZGGG 131500Z AUTO 34004KT 6SM 12/00 RMK SLP257 T01210002 52005 IEM_DS3505
ZGGG,1985-01-13 18:00,ZGGG 131800Z AUTO 34004KT 6SM 11/M00 RMK SLP255 T01121002 40139//// 57002 IEM_DS3505
ZGGG,1985-01-14 00:00,ZGGG 140000Z AUTO 34004KT 6SM 10/M01 RMK SLP275 T01031010 52021 IEM_DS3505
ZGGG,1985-01-14 03:00,ZGGG 140300Z AUTO 36006KT 6SM 12/M01 RMK SLP279 T01161012 52004 IEM_DS3505
ZGGG,1985-01-14 06:00,ZGGG 140600Z AUTO 02004KT 7SM 16/00 RMK SLP241 T01560005 57038 IEM_DS3505
ZGGG,1985-01-14 09:00,ZGGG 140900Z AUTO 36004KT 9SM 16/00 RMK SLP228 T01560005 57013 IEM_DS3505
ZGGG,1985-01-14 12:00,ZGGG 141200Z AUTO 00000KT 7SM 13/03 RMK SLP237 T01340032 52009 IEM_DS3505
ZGGG,1985-01-14 15:00,ZGGG 141500Z AUTO 07004KT 7SM 13/04 RMK SLP235 T01300042 57002 IEM_DS3505
ZGGG,1985-01-14 18:00,ZGGG 141800Z AUTO 00000KT 7SM 13/03 RMK SLP237 T01340032 52002 IEM_DS3505
ZGGG,1985-01-14 21:00,ZGGG 142100Z AUTO 02004KT 6SM 12/06 RMK SLP226 T01210065 57001 IEM_DS3505
ZGGG,1985-01-14 22:00,ZGGG 142200Z AUTO 33004KT 6SM 12/07 A3018 RMK T01200070 IEM_DS3505
ZGGG,1985-01-14 23:00,ZGGG 142300Z AUTO 36006KT 7SM 12/06 A3018 RMK T01200060 IEM_DS3505
ZGGG,1985-01-15 00:00,ZGGG 150000Z AUTO 04004KT 6SM 12/04 A3021 RMK SLP239 T01210040 52013 IEM_DS3505
ZGGG,1985-01-15 01:00,ZGGG 150100Z AUTO 35008KT 6SM 12/05 RMK T01200050 IEM_DS3505
ZGGG,1985-01-15 02:00,ZGGG 150200Z AUTO 01006KT 6SM 12/05 A3024 RMK T01200050 IEM_DS3505
ZGGG,1985-01-15 03:00,ZGGG 150300Z AUTO 07004KT 6SM 13/02 A3024 RMK SLP246 T01340019 52007 IEM_DS3505
ZGGG,1985-01-15 04:00,ZGGG 150400Z AUTO 35006KT 6SM 14/04 A3021 RMK T01400040 IEM_DS3505
ZGGG,1985-01-15 05:00,ZGGG 150500Z AUTO 36004KT 6SM 15/04 A3015 RMK T01500040 IEM_DS3505
ZGGG,1985-01-15 06:00,ZGGG 150600Z AUTO 00000KT 7SM 16/04 A3012 RMK SLP209 T01550035 4////0119 57037 IEM_DS3505
ZGGG,1985-01-15 07:00,ZGGG 150700Z AUTO 00000KT 7SM 15/04 A3009 RMK T01500040 IEM_DS3505
ZGGG,1985-01-15 08:00,ZGGG 150800Z AUTO 33006KT 7SM 15/04 A3009 RMK T01500040 IEM_DS3505
ZGGG,1985-01-15 09:00,ZGGG 150900Z AUTO 00000KT 6SM 16/04 A3009 RMK SLP197 T01550041 57012 IEM_DS3505
ZGGG,1985-01-15 10:00,ZGGG 151000Z AUTO 07004KT 7SM 15/06 A3009 RMK T01500060 IEM_DS3505
ZGGG,1985-01-15 12:00,ZGGG 151200Z AUTO 00000KT 5SM 14/04 RMK SLP208 T01430044 52011 IEM_DS3505
ZGGG,1985-01-15 15:00,ZGGG 151500Z AUTO 00000KT 5SM 13/07 RMK SLP211 T01320067 52003 IEM_DS3505
ZGGG,1985-01-15 18:00,ZGGG 151800Z AUTO 00000KT 6SM 13/07 RMK SLP205 T01320067 40163//// 57006 IEM_DS3505
ZGGG,1985-01-15 21:00,ZGGG 152100Z AUTO 00000KT 6SM 13/07 RMK SLP201 T01300069 57004 IEM_DS3505
ZGGG,1985-01-16 00:00,ZGGG 160000Z AUTO 00000KT 6SM 13/06 RMK SLP215 T01290057 52014 IEM_DS3505
ZGGG,1985-01-16 03:00,ZGGG 160300Z AUTO 02004KT 6SM 14/05 RMK SLP219 T01390046 52004 IEM_DS3505
ZGGG,1985-01-16 06:00,ZGGG 160600Z AUTO 36002KT 4SM 16/06 RMK SLP185 T01630057 4////0129 57034 IEM_DS3505
ZGGG,1985-01-16 09:00,ZGGG 160900Z AUTO 36004KT 4SM 16/06 RMK SLP178 T01590063 57007 IEM_DS3505
ZGGG,1985-01-16 12:00,ZGGG 161200Z AUTO 00000KT 5SM 15/07 RMK SLP191 T01490071 52013 IEM_DS3505
ZGGG,1985-01-16 15:00,ZGGG 161500Z AUTO 00000KT 4SM 14/09 RMK SLP199 T01440086 52008 IEM_DS3505
ZGGG,1985-01-16 18:00,ZGGG 161800Z AUTO 00000KT 2 1/2SM 14/10 RMK SLP194 T01390098 40176//// 57005 IEM_DS3505
ZGGG,1985-01-16 21:00,ZGGG 162100Z AUTO 00000KT 2 1/2SM 14/10 RMK SLP186 T01360102 57008 IEM_DS3505
ZGGG,1985-01-17 00:00,ZGGG 170000Z AUTO 00000KT 5SM 14/11 RMK SLP191 T01360110 52005 IEM_DS3505
ZGGG,1985-01-17 03:00,ZGGG 170300Z AUTO 00000KT 5SM 17/11 RMK SLP199 T01670109 52008 IEM_DS3505
ZGGG,1985-01-17 06:00,ZGGG 170600Z AUTO 36004KT 4SM 18/11 RMK SLP170 T01750106 4////0133 57029 IEM_DS3505
ZGGG,1985-01-17 09:00,ZGGG 170900Z AUTO 36006KT 2 1/2SM 13/12 RMK SLP176 T01330118 52006 IEM_DS3505
ZGGG,1985-01-17 12:00,ZGGG 171200Z AUTO 36004KT 4SM 13/12 RMK 60079 SLP193 T01300121 52017 IEM_DS3505
ZGGG,1985-01-17 18:00,ZGGG 171800Z AUTO 00000KT 4SM 13/12 RMK 60020 SLP200 T01300121 40182//// 57006 IEM_DS3505
ZGGG,1985-01-17 21:00,ZGGG 172100Z AUTO 36002KT 4SM 12/11 RMK SLP198 T01250111 57002 IEM_DS3505
ZGGG,1985-01-18 00:00,ZGGG 180000Z AUTO 02006KT 4SM 13/11 RMK 60000 SLP213 T01270106 52015 IEM_DS3505
ZGGG,1985-01-18 03:00,ZGGG 180300Z AUTO 36002KT 6SM 16/11 RMK SLP221 T01630106 52008 IEM_DS3505
ZGGG,1985-01-18 06:00,ZGGG 180600Z AUTO 02006KT 9SM 20/12 RMK SLP198 T01950120 4////0125 57023 IEM_DS3505
ZGGG,1985-01-18 09:00,ZGGG 180900Z AUTO 34004KT 9SM 20/11 RMK SLP186 T01950111 57012 IEM_DS3505
ZGGG,1985-01-18 15:00,ZGGG 181500Z AUTO 00000KT 5SM 14/09 RMK SLP215 T01430091 52007 IEM_DS3505
ZGGG,1985-01-18 18:00,ZGGG 181800Z AUTO 00000KT 4SM 12/09 RMK SLP212 T01150093 40199//// 57003 IEM_DS3505
ZGGG,1985-01-18 21:00,ZGGG 182100Z AUTO 00000KT 4SM 09/08 RMK SLP206 T00940085 57006 IEM_DS3505
ZGGG,1985-01-19 00:00,ZGGG 190000Z AUTO 00000KT 1 1/4SM 09/08 RMK SLP226 T00900081 52020 IEM_DS3505
ZGGG,1985-01-19 01:00,ZGGG 190100Z AUTO 00000KT 1 1/4SM 11/10 A3018 RMK T01100100 IEM_DS3505
ZGGG,1985-01-19 02:00,ZGGG 190200Z AUTO 00000KT 1SM 13/11 A3021 RMK T01300110 IEM_DS3505
ZGGG,1985-01-19 03:00,ZGGG 190300Z AUTO 16004KT 5SM 16/09 A3018 RMK SLP236 T01580094 52010 IEM_DS3505
ZGGG,1985-01-19 04:00,ZGGG 190400Z AUTO 33004KT 4SM 17/10 A3018 RMK T01700100 IEM_DS3505
ZGGG,1985-01-19 06:00,ZGGG 190600Z AUTO 16004KT 5SM 19/10 A3012 RMK SLP213 T01920095 4////0086 57023 IEM_DS3505
ZGGG,1985-01-19 07:00,ZGGG 190700Z AUTO 00000KT 4SM 19/10 A3012 RMK T01900100 IEM_DS3505
ZGGG,1985-01-19 08:00,ZGGG 190800Z AUTO 28004KT 4SM 20/10 A3009 RMK T02000100 IEM_DS3505
ZGGG,1985-01-19 09:00,ZGGG 190900Z AUTO 16002KT 5SM 19/10 A3012 RMK SLP205 T01910100 57008 IEM_DS3505
ZGGG,1985-01-19 12:00,ZGGG 191200Z AUTO 00000KT 1 1/4SM 14/11 RMK SLP210 T01360112 52005 IEM_DS3505
ZGGG,1985-01-19 15:00,ZGGG 191500Z AUTO 00000KT 1 1/4SM 11/11 RMK SLP223 T01140107 52013 IEM_DS3505
ZGGG,1985-01-19 18:00,ZGGG 191800Z AUTO 00000KT 1 1/4SM 10/10 RMK SLP225 T01020097 40201//// 52002 IEM_DS3505
ZGGG,1985-01-19 21:00,ZGGG 192100Z AUTO 00000KT 1SM 09/08 RMK SLP223 T00890083 57002 IEM_DS3505
ZGGG,1985-01-20 00:00,ZGGG 200000Z AUTO 00000KT 1 1/4SM 09/08 RMK SLP240 T00920084 52017 IEM_DS3505
ZGGG,1985-01-20 03:00,ZGGG 200300Z AUTO 09002KT 4SM 16/11 RMK SLP241 T01650112 52001 IEM_DS3505
ZGGG,1985-01-20 04:00,ZGGG 200400Z AUTO 33008KT 3SM 18/12 A3018 RMK T01800120 IEM_DS3505
ZGGG,1985-01-20 05:00,ZGGG 200500Z AUTO 33004KT 3SM 20/13 A3015 RMK T02000130 IEM_DS3505
ZGGG,1985-01-20 06:00,ZGGG 200600Z AUTO 00000KT 8SM 22/12 A3012 RMK SLP206 T02230115 4////0087 57035 IEM_DS3505
ZGGG,1985-01-20 07:00,ZGGG 200700Z AUTO 7SM 22/ RMK IEM_DS3505
ZGGG,1985-01-20 08:00,ZGGG 200800Z AUTO 00000KT 6SM 22/11 A3006 RMK T02200110 IEM_DS3505
ZGGG,1985-01-20 09:00,ZGGG 200900Z AUTO 16004KT 7SM 22/10 RMK SLP193 T02170102 57013 IEM_DS3505
ZGGG,1985-01-20 12:00,ZGGG 201200Z AUTO 00000KT 6SM 18/13 RMK SLP195 T01780129 52002 IEM_DS3505
ZGGG,1985-01-20 15:00,ZGGG 201500Z AUTO 00000KT 5SM 16/13 RMK SLP208 T01600132 52013 IEM_DS3505
ZGGG,1985-01-20 18:00,ZGGG 201800Z AUTO 00000KT 4SM 15/13 RMK SLP203 T01480131 40228//// 57005 IEM_DS3505
ZGGG,1985-01-20 21:00,ZGGG 202100Z AUTO 00000KT 4SM 15/13 RMK SLP191 T01490131 57012 IEM_DS3505
ZGGG,1985-01-21 00:00,ZGGG 210000Z AUTO 00000KT 4SM 15/13 RMK SLP204 T01510133 52013 IEM_DS3505
ZGGG,1985-01-21 03:00,ZGGG 210300Z AUTO 11004KT 6SM 20/13 RMK SLP209 T01990131 52005 IEM_DS3505
ZGGG,1985-01-21 06:00,ZGGG 210600Z AUTO 20004KT 6SM 22/14 RMK SLP179 T02150140 4////0147 57030 IEM_DS3505
ZGGG,1985-01-21 09:00,ZGGG 210900Z AUTO 18004KT 7SM 21/14 RMK SLP166 T02140144 57013 IEM_DS3505
ZGGG,1985-01-21 12:00,ZGGG 211200Z AUTO 14004KT 6SM 19/15 RMK SLP170 T01910148 52004 IEM_DS3505
ZGGG,1985-01-21 15:00,ZGGG 211500Z AUTO 16004KT 7SM 17/14 RMK SLP177 T01740145 52007 IEM_DS3505
ZGGG,1985-01-21 18:00,ZGGG 211800Z AUTO 00000KT 5SM 17/14 RMK SLP177 T01680140 40225//// 54000 IEM_DS3505
ZGGG,1985-01-21 21:00,ZGGG 212100Z AUTO 00000KT 5SM 17/14 RMK SLP173 T01670144 57004 IEM_DS3505
ZGGG,1985-01-22 00:00,ZGGG 220000Z AUTO 00000KT 7SM 17/15 RMK SLP183 T01700148 52010 IEM_DS3505
ZGGG,1985-01-22 03:00,ZGGG 220300Z AUTO 14002KT 5SM 20/16 RMK SLP188 T02010156 52005 IEM_DS3505
ZGGG,1985-01-22 06:00,ZGGG 220600Z AUTO 00000KT 4SM 21/16 RMK SLP170 T02140162 4////0165 57018 IEM_DS3505
ZGGG,1985-01-22 09:00,ZGGG 220900Z AUTO 00000KT 2 1/2SM 22/17 RMK SLP164 T02240168 57006 IEM_DS3505
ZGGG,1985-01-22 12:00,ZGGG 221200Z AUTO 00000KT 4SM 20/18 RMK SLP175 T01990175 52011 IEM_DS3505
ZGGG,1985-01-22 15:00,ZGGG 221500Z AUTO 00000KT 2 1/2SM 19/17 RMK SLP184 T01880173 52009 IEM_DS3505
ZGGG,1985-01-22 18:00,ZGGG 221800Z AUTO 00000KT 1SM 17/16 RMK SLP183 T01670158 40235//// 57001 IEM_DS3505
ZGGG,1985-01-22 21:00,ZGGG 222100Z AUTO 00000KT 1 1/4SM 16/16 RMK SLP183 T01610156 54000 IEM_DS3505
ZGGG,1985-01-23 00:00,ZGGG 230000Z AUTO 00000KT 2SM 16/15 RMK SLP191 T01580153 52008 IEM_DS3505
ZGGG,1985-01-23 03:00,ZGGG 230300Z AUTO 00000KT 2SM 22/18 RMK SLP196 T02200178 52005 IEM_DS3505
ZGGG,1985-01-23 06:00,ZGGG 230600Z AUTO 14006KT 6SM 26/16 RMK SLP163 T02570158 4////0157 57033 IEM_DS3505
ZGGG,1985-01-23 09:00,ZGGG 230900Z AUTO 18008KT 11SM 25/16 RMK SLP161 T02500156 57002 IEM_DS3505
ZGGG,1985-01-23 12:00,ZGGG 231200Z AUTO 16004KT 7SM 21/17 RMK SLP174 T02100166 52013 IEM_DS3505
ZGGG,1985-01-23 15:00,ZGGG 231500Z AUTO 00000KT 7SM 18/16 RMK SLP185 T01820162 52011 IEM_DS3505
ZGGG,1985-01-23 18:00,ZGGG 231800Z AUTO 00000KT 6SM 18/16 RMK SLP183 T01770158 40263//// 57002 IEM_DS3505
ZGGG,1985-01-23 21:00,ZGGG 232100Z AUTO 00000KT 4SM 16/15 RMK SLP184 T01640154 52001 IEM_DS3505
ZGGG,1985-01-24 00:00,ZGGG 240000Z AUTO 00000KT 1 1/4SM 16/15 RMK SLP201 T01590149 52017 IEM_DS3505
ZGGG,1985-01-24 03:00,ZGGG 240300Z AUTO 00000KT 2SM 18/15 RMK SLP207 T01810153 52006 IEM_DS3505
ZGGG,1985-01-24 06:00,ZGGG 240600Z AUTO 34006KT 4SM 18/13 RMK SLP185 T01820129 4////0156 57022 IEM_DS3505
ZGGG,1985-01-24 09:00,ZGGG 240900Z AUTO 36006KT 6SM 16/11 RMK SLP189 T01610106 52004 IEM_DS3505
ZGGG,1985-01-24 12:00,ZGGG 241200Z AUTO 36006KT 6SM 14/09 RMK SLP212 T01380087 52023 IEM_DS3505
ZGGG,1985-01-24 15:00,ZGGG 241500Z AUTO 36006KT 6SM 13/08 RMK SLP227 T01290075 52015 IEM_DS3505
ZGGG,1985-01-24 18:00,ZGGG 241800Z AUTO 36006KT 6SM 12/06 RMK SLP227 T01210061 40193//// 54000 IEM_DS3505
ZGGG,1985-01-24 21:00,ZGGG 242100Z AUTO 36006KT 4SM 11/06 RMK SLP220 T01070058 57007 IEM_DS3505
ZGGG,1985-01-25 00:00,ZGGG 250000Z AUTO 02006KT 4SM 09/07 RMK 60002 SLP241 T00910066 52021 IEM_DS3505
ZGGG,1985-01-25 03:00,ZGGG 250300Z AUTO 36006KT 9SM 10/06 RMK SLP247 T01010060 52006 IEM_DS3505
ZGGG,1985-01-25 06:00,ZGGG 250600Z AUTO 36004KT 7SM 11/06 RMK 60000 SLP225 T01070058 4////0091 57022 IEM_DS3505
ZGGG,1985-01-25 09:00,ZGGG 250900Z AUTO 36004KT 7SM 10/08 RMK SLP215 T01040077 57010 IEM_DS3505
ZGGG,1985-01-25 12:00,ZGGG 251200Z AUTO 02002KT 4SM 10/08 RMK 60012 SLP227 T01010084 52012 IEM_DS3505
ZGGG,1985-01-25 15:00,ZGGG 251500Z AUTO 34004KT 4SM 10/08 RMK SLP237 T00980079 52010 IEM_DS3505
ZGGG,1985-01-25 18:00,ZGGG 251800Z AUTO 00000KT 4SM 10/08 RMK 60008 SLP216 T00970084 40123//// 57021 IEM_DS3505
ZGGG,1985-01-25 21:00,ZGGG 252100Z AUTO 02004KT 4SM 10/08 RMK SLP211 T00980083 57005 IEM_DS3505
ZGGG,1985-01-26 00:00,ZGGG 260000Z AUTO 00000KT 6SM 10/08 A3015 RMK 60000 SLP226 T01030080 52015 IEM_DS3505
ZGGG,1985-01-26 01:00,ZGGG 260100Z AUTO 01008KT 7SM 11/08 A3018 RMK T01100080 IEM_DS3505
ZGGG,1985-01-26 02:00,ZGGG 260200Z AUTO 02010KT 7SM 11/08 A3018 RMK T01100080 IEM_DS3505
ZGGG,1985-01-26 03:00,ZGGG 260300Z AUTO 00000KT 6SM 12/09 A3018 RMK SLP239 T01220087 52013 IEM_DS3505
ZGGG,1985-01-26 04:00,ZGGG 260400Z AUTO 35008KT 7SM 13/08 A3018 RMK T01300080 IEM_DS3505
ZGGG,1985-01-26 05:00,ZGGG 260500Z AUTO 00000KT 7SM 13/09 A3015 RMK T01300090 IEM_DS3505
ZGGG,1985-01-26 06:00,ZGGG 260600Z AUTO 00000KT 6SM 15/10 A3012 RMK SLP204 T01480097 4////0097 57035 IEM_DS3505
ZGGG,1985-01-26 07:00,ZGGG 260700Z AUTO 33008KT 7SM 15/10 A3009 RMK T01500100 IEM_DS3505
ZGGG,1985-01-26 08:00,ZGGG 260800Z AUTO 34006KT 7SM 15/10 A3009 RMK T01500100 IEM_DS3505
ZGGG,1985-01-26 09:00,ZGGG 260900Z AUTO 34002KT 5SM 15/10 A3009 RMK SLP203 T01530104 57001 IEM_DS3505
ZGGG,1985-01-26 12:00,ZGGG 261200Z AUTO 00000KT 5SM 14/11 RMK SLP207 T01390106 52004 IEM_DS3505
ZGGG,1985-01-26 15:00,ZGGG 261500Z AUTO 00000KT 5SM 13/11 RMK SLP214 T01290113 52007 IEM_DS3505
ZGGG,1985-01-26 18:00,ZGGG 261800Z AUTO 00000KT 2SM 11/10 RMK SLP211 T01060099 40161//// 57003 IEM_DS3505
ZGGG,1985-01-26 21:00,ZGGG 262100Z AUTO 00000KT 1 1/4SM 10/09 RMK SLP213 T00980094 52002 IEM_DS3505
ZGGG,1985-01-27 00:00,ZGGG 270000Z AUTO 02004KT 7SM 12/10 RMK SLP226 T01180100 52013 IEM_DS3505
ZGGG,1985-01-27 03:00,ZGGG 270300Z AUTO 34004KT 6SM 18/11 RMK SLP235 T01800108 52009 IEM_DS3505
ZGGG,1985-01-27 06:00,ZGGG 270600Z AUTO 34008KT 7SM 22/13 RMK SLP204 T02220126 4////0097 57031 IEM_DS3505
ZGGG,1985-01-27 09:00,ZGGG 270900Z AUTO 34006KT 7SM 22/12 RMK SLP197 T02230119 57007 IEM_DS3505
ZGGG,1985-01-27 12:00,ZGGG 271200Z AUTO 02006KT 6SM 18/11 RMK SLP208 T01820113 52011 IEM_DS3505
ZGGG,1985-01-27 15:00,ZGGG 271500Z AUTO 36006KT 9SM 16/10 RMK SLP228 T01590099 52020 IEM_DS3505
ZGGG,1985-01-27 18:00,ZGGG 271800Z AUTO 02008KT 6SM 15/09 RMK SLP228 T01470093 40227//// 54000 IEM_DS3505
ZGGG,1985-01-27 21:00,ZGGG 272100Z AUTO 36002KT 6SM 12/09 RMK SLP219 T01190092 57009 IEM_DS3505
ZGGG,1985-01-28 00:00,ZGGG 280000Z AUTO 00000KT 7SM 12/09 RMK SLP238 T01180093 52019 IEM_DS3505
ZGGG,1985-01-28 03:00,ZGGG 280300Z AUTO 07006KT 7SM 17/10 RMK SLP240 T01720099 52002 IEM_DS3505
ZGGG,1985-01-28 06:00,ZGGG 280600Z AUTO 00000KT 6SM 20/11 RMK SLP204 T01950107 4////0115 57036 IEM_DS3505
ZGGG,1985-01-28 09:00,ZGGG 280900Z AUTO 36004KT 7SM 20/11 RMK SLP197 T02000109 57007 IEM_DS3505
ZGGG,1985-01-28 15:00,ZGGG 281500Z AUTO 36006KT 6SM 16/09 RMK SLP231 T01570091 52016 IEM_DS3505
ZGGG,1985-01-28 18:00,ZGGG 281800Z AUTO 02004KT 6SM 15/09 RMK SLP232 T01490086 40210//// 52001 IEM_DS3505
ZGGG,1985-01-28 21:00,ZGGG 282100Z AUTO 36006KT 6SM 13/08 RMK SLP228 T01290079 57004 IEM_DS3505
ZGGG,1985-01-29 00:00,ZGGG 290000Z AUTO 02006KT 6SM 11/08 RMK SLP250 T01140076 52022 IEM_DS3505
ZGGG,1985-01-29 03:00,ZGGG 290300Z AUTO 36008KT 6SM 10/08 RMK SLP265 T01020077 52015 IEM_DS3505
ZGGG,1985-01-29 04:00,ZGGG 290400Z AUTO 01014KT 7SM 11/08 A3027 RMK T01100080 IEM_DS3505
ZGGG,1985-01-29 05:00,ZGGG 290500Z AUTO 34016KT 7SM 11/07 A3024 RMK T01100070 IEM_DS3505
ZGGG,1985-01-29 06:00,ZGGG 290600Z AUTO 02008KT 8SM 11/07 A3021 RMK SLP239 T01140066 4////0102 57026 IEM_DS3505
ZGGG,1985-01-29 07:00,ZGGG 290700Z AUTO 02012KT 7SM 12/06 A3018 RMK T01200060 IEM_DS3505
ZGGG,1985-01-29 09:00,ZGGG 290900Z AUTO 34006KT 9SM 12/05 A3018 RMK SLP238 T01190054 57001 IEM_DS3505
ZGGG,1985-01-29 12:00,ZGGG 291200Z AUTO 02008KT 9SM 11/04 RMK T01080045 52013 IEM_DS3505
ZGGG,1985-01-29 15:00,ZGGG 291500Z AUTO 36006KT 7SM 10/04 RMK SLP265 T01020043 52014 IEM_DS3505
ZGGG,1985-01-29 18:00,ZGGG 291800Z AUTO 02006KT 6SM 09/03 RMK 60000 SLP261 T00900033 40151//// 57004 IEM_DS3505
ZGGG,1985-01-29 21:00,ZGGG 292100Z AUTO 02006KT 6SM 08/03 RMK SLP262 T00850027 52001 IEM_DS3505
ZGGG,1985-01-30 00:00,ZGGG 300000Z AUTO 02008KT 9SM 09/M01 RMK 60000 SLP281 T00891006 52019 IEM_DS3505
ZGGG,1985-01-30 03:00,ZGGG 300300Z AUTO 02004KT 10SM 11/M02 RMK SLP283 T01081021 52002 IEM_DS3505
ZGGG,1985-01-30 06:00,ZGGG 300600Z AUTO 36006KT 9SM 15/02 RMK SLP241 T01510016 4////0084 57042 IEM_DS3505
ZGGG,1985-01-30 12:00,ZGGG 301200Z AUTO 00000KT 7SM 11/05 RMK SLP241 T01110047 52013 IEM_DS3505
ZGGG,1985-01-30 15:00,ZGGG 301500Z AUTO 00000KT 6SM 09/06 RMK SLP246 T00890057 52005 IEM_DS3505
ZGGG,1985-01-30 18:00,ZGGG 301800Z AUTO 00000KT 6SM 08/05 RMK SLP240 T00780054 40166//// 57006 IEM_DS3505
ZGGG,1985-01-30 21:00,ZGGG 302100Z AUTO 00000KT 6SM 08/06 RMK SLP228 T00770057 57012 IEM_DS3505
ZGGG,1985-01-31 00:00,ZGGG 310000Z AUTO 00000KT 7SM 10/06 RMK SLP246 T00960060 52018 IEM_DS3505
ZGGG,1985-01-31 03:00,ZGGG 310300Z AUTO 07006KT 7SM 12/05 RMK SLP243 T01250047 57003 IEM_DS3505
ZGGG,1985-01-31 06:00,ZGGG 310600Z AUTO 11004KT 4SM 15/06 RMK SLP205 T01460062 4////0074 57038 IEM_DS3505
ZGGG,1985-01-31 09:00,ZGGG 310900Z AUTO 02004KT 4SM 15/07 RMK SLP188 T01460067 57017 IEM_DS3505
ZGGG,1985-01-31 12:00,ZGGG 311200Z AUTO 02004KT 5SM 13/07 RMK SLP195 T01280067 52007 IEM_DS3505
ZGGG,1985-01-31 15:00,ZGGG 311500Z AUTO 02004KT 5SM 13/06 RMK SLP205 T01280058 52010 IEM_DS3505
ZGGG,1985-01-31 18:00,ZGGG 311800Z AUTO 00000KT 6SM 12/07 RMK SLP202 T01220073 40156//// 57003 IEM_DS3505
ZGGG,1985-01-31 21:00,ZGGG 312100Z AUTO 00000KT 6SM 12/08 RMK SLP196 T01200077 57006 IEM_DS3505
ZGGG,1985-02-01 00:00,ZGGG 010000Z AUTO 00000KT 4SM 12/08 RMK SLP209 T01170084 52013 IEM_DS3505
ZGGG,1985-02-01 03:00,ZGGG 010300Z AUTO 07004KT 5SM 14/07 RMK SLP220 T01430068 52011 IEM_DS3505
ZGGG,1985-02-01 06:00,ZGGG 010600Z AUTO 36006KT 5SM 16/06 RMK SLP189 T01630064 57031 IEM_DS3505
ZGGG,1985-02-01 09:00,ZGGG 010900Z AUTO 34004KT 5SM 16/07 RMK SLP181 T01630073 57008 IEM_DS3505
ZGGG,1985-02-01 12:00,ZGGG 011200Z AUTO 34004KT 6SM 14/08 RMK SLP191 T01420077 52010 IEM_DS3505
ZGGG,1985-02-01 15:00,ZGGG 011500Z AUTO 34004KT 6SM 14/07 RMK SLP193 T01350071 52002 IEM_DS3505
ZGGG,1985-02-01 18:00,ZGGG 011800Z AUTO 32004KT 6SM 13/07 RMK SLP193 T01280073 40169//// 54000 IEM_DS3505
ZGGG,1985-02-01 21:00,ZGGG 012100Z AUTO 00000KT 4SM 11/07 RMK SLP187 T01070071 57006 IEM_DS3505
ZGGG,1985-02-02 00:00,ZGGG 020000Z AUTO 36004KT 4SM 11/07 RMK SLP203 T01130069 52016 IEM_DS3505
ZGGG,1985-02-02 03:00,ZGGG 020300Z AUTO 00000KT 4SM 17/07 RMK SLP209 T01680070 52006 IEM_DS3505
ZGGG,1985-02-02 06:00,ZGGG 020600Z AUTO 27004KT 6SM 20/09 RMK SLP178 T01970092 4////0107 57031 IEM_DS3505
ZGGG,1985-02-02 09:00,ZGGG 020900Z AUTO 29004KT 6SM 21/09 RMK SLP160 T02120091 57018 IEM_DS3505
ZGGG,1985-02-02 12:00,ZGGG 021200Z AUTO 00000KT 6SM 17/10 RMK SLP166 T01670103 52006 IEM_DS3505
ZGGG,1985-02-02 15:00,ZGGG 021500Z AUTO 00000KT 6SM 15/11 RMK SLP172 T01480110 52006 IEM_DS3505
ZGGG,1985-02-02 18:00,ZGGG 021800Z AUTO 00000KT 4SM 13/11 RMK SLP166 T01340108 40215//// 57006 IEM_DS3505
ZGGG,1985-02-02 21:00,ZGGG 022100Z AUTO 00000KT 6SM 13/11 RMK SLP150 T01330107 57016 IEM_DS3505
ZGGG,1985-02-02 23:00,ZGGG 022300Z AUTO 00000KT 6SM 12/10 A2994 RMK T01200100 IEM_DS3505
ZGGG,1985-02-03 00:00,ZGGG 030000Z AUTO 00000KT 2SM 13/11 A2994 RMK SLP153 T01300109 52003 IEM_DS3505
ZGGG,1985-02-03 01:00,ZGGG 030100Z AUTO 00000KT 1 1/2SM 14/11 A2997 RMK T01400110 IEM_DS3505
ZGGG,1985-02-03 02:00,ZGGG 030200Z AUTO 00000KT 1 1/2SM 16/12 A2997 RMK T01600120 IEM_DS3505
ZGGG,1985-02-03 03:00,ZGGG 030300Z AUTO 07004KT 2SM 17/12 A2997 RMK SLP161 T01680119 52008 IEM_DS3505
ZGGG,1985-02-03 06:00,ZGGG 030600Z AUTO 11004KT 2 1/2SM 19/12 RMK SLP132 T01900116 4////0127 57029 IEM_DS3505
ZGGG,1985-02-03 09:00,ZGGG 030900Z AUTO 00000KT 2SM 19/13 RMK SLP127 T01890128 57005 IEM_DS3505
ZGGG,1985-02-03 12:00,ZGGG 031200Z AUTO 18004KT 2 1/2SM 17/13 RMK SLP124 T01690133 57003 IEM_DS3505
ZGGG,1985-02-03 15:00,ZGGG 031500Z AUTO 11004KT 2SM 16/12 RMK SLP123 T01580123 57001 IEM_DS3505
ZGGG,1985-02-03 18:00,ZGGG 031800Z AUTO 00000KT 2 1/2SM 16/12 RMK SLP127 T01570123 40193//// 52004 IEM_DS3505
ZGGG,1985-02-03 21:00,ZGGG 032100Z AUTO 00000KT 2 1/2SM 16/11 RMK SLP124 T01580114 57003 IEM_DS3505
ZGGG,1985-02-04 00:00,ZGGG 040000Z AUTO 02004KT 5SM 15/11 RMK SLP130 T01510108 52006 IEM_DS3505
ZGGG,1985-02-04 03:00,ZGGG 040300Z AUTO 09006KT 5SM 18/12 RMK SLP136 T01750116 52006 IEM_DS3505
ZGGG,1985-02-04 06:00,ZGGG 040600Z AUTO 00000KT 4SM 20/14 RMK SLP106 T01990140 4////0146 57030 IEM_DS3505
ZGGG,1985-02-04 09:00,ZGGG 040900Z AUTO 00000KT 2 1/2SM 20/15 RMK SLP100 T01970150 57006 IEM_DS3505
ZGGG,1985-02-04 12:00,ZGGG 041200Z AUTO 00000KT 2SM 18/15 RMK SLP099 T01790150 57001 IEM_DS3505
ZGGG,1985-02-04 15:00,ZGGG 041500Z AUTO 00000KT 2 1/2SM 17/15 RMK SLP104 T01700153 52005 IEM_DS3505
ZGGG,1985-02-04 18:00,ZGGG 041800Z AUTO 00000KT 2SM 17/16 RMK SLP096 T01710155 40202//// 57008 IEM_DS3505
ZGGG,1985-02-04 21:00,ZGGG 042100Z AUTO 00000KT 2SM 17/16 RMK SLP094 T01660160 57002 IEM_DS3505
ZGGG,1985-02-05 00:00,ZGGG 050000Z AUTO 11006KT 2SM 16/16 RMK 60020 SLP102 T01640158 52008 IEM_DS3505
ZGGG,1985-02-05 03:00,ZGGG 050300Z AUTO 02004KT 2SM 17/16 RMK SLP105 T01740157 52003 IEM_DS3505
ZGGG,1985-02-05 06:00,ZGGG 050600Z AUTO 00000KT 2SM 17/17 A2974 RMK 60012 SLP082 T01720167 4////0163 57023 IEM_DS3505
ZGGG,1985-02-05 09:00,ZGGG 050900Z AUTO 14002KT 1 1/4SM 18/17 A2971 RMK SLP077 T01760168 IEM_DS3505
ZGGG,1985-02-05 10:00,ZGGG 051000Z AUTO 12023KT 1 1/2SM 19/17 A2965 RMK T01900170 IEM_DS3505
ZGGG,1985-02-05 12:00,ZGGG 051200Z AUTO 00000KT 2SM 18/17 RMK 60012 SLP082 T01790171 52005 IEM_DS3505
ZGGG,1985-02-05 15:00,ZGGG 051500Z AUTO 00000KT 1 1/4SM 18/17 RMK SLP088 T01770174 52006 IEM_DS3505
ZGGG,1985-02-05 18:00,ZGGG 051800Z AUTO 00000KT 1 1/4SM 18/18 RMK SLP086 T01800177 40181//// 57002 IEM_DS3505
ZGGG,1985-02-05 21:00,ZGGG 052100Z AUTO 00000KT 2SM 18/18 RMK SLP070 T01820176 57016 IEM_DS3505
ZGGG,1985-02-06 00:00,ZGGG 060000Z AUTO 11004KT 5SM 18/18 RMK 60039 SLP086 T01840179 52016 IEM_DS3505
ZGGG,1985-02-06 03:00,ZGGG 060300Z AUTO 36004KT 1 1/4SM 18/18 RMK SLP096 T01840179 52010 IEM_DS3505
ZGGG,1985-02-06 06:00,ZGGG 060600Z AUTO 14006KT 9SM 22/19 RMK 60094 SLP076 T02230186 4////0172 57020 IEM_DS3505
ZGGG,1985-02-06 09:00,ZGGG 060900Z AUTO 14004KT 4SM 21/19 RMK SLP071 T02140192 57005 IEM_DS3505
ZGGG,1985-02-06 12:00,ZGGG 061200Z AUTO 09004KT 2 1/2SM 20/19 RMK 60000 SLP086 T02020193 52015 IEM_DS3505
ZGGG,1985-02-06 15:00,ZGGG 061500Z AUTO 07004KT 2 1/2SM 20/20 RMK SLP095 T02010197 52009 IEM_DS3505
ZGGG,1985-02-06 18:00,ZGGG 061800Z AUTO 09004KT 2 1/2SM 20/19 RMK SLP091 T01980186 40226//// 57004 IEM_DS3505
ZGGG,1985-02-06 21:00,ZGGG 062100Z AUTO 09006KT 2 1/2SM 20/19 RMK SLP081 T01950188 57010 IEM_DS3505
ZGGG,1985-02-07 00:00,ZGGG 070000Z AUTO 11004KT 2SM 19/19 RMK 60004 SLP092 T01930187 52011 IEM_DS3505
ZGGG,1985-02-07 03:00,ZGGG 070300Z AUTO 14004KT 2SM 21/19 RMK SLP091 T02060194 57001 IEM_DS3505
ZGGG,1985-02-07 06:00,ZGGG 070600Z AUTO 16006KT 2SM 22/20 RMK 60001 SLP071 T02160200 4////0191 57020 IEM_DS3505
ZGGG,1985-02-07 09:00,ZGGG 070900Z AUTO 14006KT 2 1/2SM 22/20 RMK SLP064 T02160199 57007 IEM_DS3505
ZGGG,1985-02-07 12:00,ZGGG 071200Z AUTO 09006KT 4SM 21/19 RMK SLP065 T02100192 52001 IEM_DS3505
ZGGG,1985-02-07 15:00,ZGGG 071500Z AUTO 14004KT 2 1/2SM 20/19 RMK SLP070 T01960189 52005 IEM_DS3505
ZGGG,1985-02-07 18:00,ZGGG 071800Z AUTO 20002KT 2SM 19/19 RMK 60059 SLP062 T01900186 40223//// 57008 IEM_DS3505
ZGGG,1985-02-07 20:00,ZGGG 072000Z AUTO 20002KT 2SM 19/19 RMK 60059 SLP062 T01900186 57008 IEM_DS3505
ZGGG,1985-02-07 21:00,ZGGG 072100Z AUTO 14004KT 2 1/2SM 19/18 RMK SLP049 T01910185 57013 IEM_DS3505
ZGGG,1985-02-08 00:00,ZGGG 080000Z AUTO 09004KT 2SM 19/18 RMK 60051 SLP058 T01880182 52009 IEM_DS3505
ZGGG,1985-02-08 03:00,ZGGG 080300Z AUTO 14004KT 2SM 20/19 RMK SLP066 T01990189 52008 IEM_DS3505
ZGGG,1985-02-08 06:00,ZGGG 080600Z AUTO 11004KT 2SM 21/20 RMK 60000 SLP043 T02070198 4////0186 57023 IEM_DS3505
ZGGG,1985-02-08 09:00,ZGGG 080900Z AUTO 07004KT 2SM 21/20 RMK SLP044 T02060199 52001 IEM_DS3505
ZGGG,1985-02-08 12:00,ZGGG 081200Z AUTO 00000KT 1 1/4SM 20/20 RMK 60012 SLP054 T02010197 52010 IEM_DS3505
ZGGG,1985-02-08 15:00,ZGGG 081500Z AUTO 00000KT 1 1/4SM 19/19 RMK SLP063 T01920189 52009 IEM_DS3505
ZGGG,1985-02-08 18:00,ZGGG 081800Z AUTO 36004KT 9SM 18/16 RMK 60000 SLP061 T01760159 40212//// 57002 IEM_DS3505
ZGGG,1985-02-08 21:00,ZGGG 082100Z AUTO 36004KT 9SM 16/14 RMK SLP062 T01640136 52001 IEM_DS3505
ZGGG,1985-02-09 00:00,ZGGG 090000Z AUTO 34004KT 9SM 16/13 RMK SLP089 T01550132 52027 IEM_DS3505
ZGGG,1985-02-09 02:00,ZGGG 090200Z AUTO 34014KT 7SM 16/13 A2980 RMK T01600130 IEM_DS3505
ZGGG,1985-02-09 03:00,ZGGG 090300Z AUTO 02004KT 11SM 18/14 A2980 RMK SLP101 T01820135 52012 IEM_DS3505
ZGGG,1985-02-09 04:00,ZGGG 090400Z AUTO 01012KT 6SM 19/14 A2977 RMK T01900140 IEM_DS3505
ZGGG,1985-02-09 05:00,ZGGG 090500Z AUTO 01012KT 6SM 20/14 A2974 RMK T02000140 IEM_DS3505
ZGGG,1985-02-09 06:00,ZGGG 090600Z AUTO 02006KT 11SM 22/14 A2974 RMK SLP079 T02180144 4////0151 57022 IEM_DS3505
ZGGG,1985-02-09 07:00,ZGGG 090700Z AUTO 03008KT 6SM 21/14 A2971 RMK T02100140 IEM_DS3505
ZGGG,1985-02-09 08:00,ZGGG 090800Z AUTO 35014KT 6SM RMK IEM_DS3505
ZGGG,1985-02-09 09:00,ZGGG 090900Z AUTO 34008KT 11SM 22/14 A2974 RMK SLP081 T02150142 52002 IEM_DS3505
ZGGG,1985-02-09 12:00,ZGGG 091200Z AUTO 02004KT 9SM 18/13 RMK SLP105 T01760130 52024 IEM_DS3505
ZGGG,1985-02-09 15:00,ZGGG 091500Z AUTO 04004KT 9SM 17/12 RMK SLP129 T01660121 52024 IEM_DS3505
ZGGG,1985-02-09 18:00,ZGGG 091800Z AUTO 04004KT 9SM 15/10 RMK SLP134 T01520105 40224//// 52005 IEM_DS3505
ZGGG,1985-02-09 21:00,ZGGG 092100Z AUTO 04008KT 8SM 14/11 RMK SLP125 T01390109 57009 IEM_DS3505
ZGGG,1985-02-10 00:00,ZGGG 100000Z AUTO 00000KT 7SM 14/10 RMK SLP144 T01360095 52019 IEM_DS3505
ZGGG,1985-02-10 03:00,ZGGG 100300Z AUTO 36004KT 7SM 14/09 RMK SLP158 T01410089 52014 IEM_DS3505
ZGGG,1985-02-10 06:00,ZGGG 100600Z AUTO 36004KT 2 1/2SM 12/11 RMK 60012 SLP142 T01220108 4////0122 57016 IEM_DS3505
ZGGG,1985-02-10 09:00,ZGGG 100900Z AUTO 5SM 14/11 RMK SLP133 T01400112 57009 IEM_DS3505
ZGGG,1985-02-10 12:00,ZGGG 101200Z AUTO 34002KT 2SM 13/12 RMK 60012 SLP142 T01290119 52009 IEM_DS3505
ZGGG,1985-02-10 15:00,ZGGG 101500Z AUTO 02006KT 2SM 12/11 RMK SLP143 T01210110 52001 IEM_DS3505
ZGGG,1985-02-10 18:00,ZGGG 101800Z AUTO 00000KT 2SM 12/12 RMK 60031 SLP142 T01220117 40152//// 57001 IEM_DS3505
ZGGG,1985-02-10 21:00,ZGGG 102100Z AUTO 00000KT 2SM 13/12 RMK SLP137 T01260119 57005 IEM_DS3505
ZGGG,1985-02-11 00:00,ZGGG 110000Z AUTO 36004KT 2SM 12/12 RMK 60016 SLP153 T01210116 52016 IEM_DS3505
ZGGG,1985-02-11 03:00,ZGGG 110300Z AUTO 36006KT 2SM 13/12 RMK SLP165 T01270118 52012 IEM_DS3505
ZGGG,1985-02-11 06:00,ZGGG 110600Z AUTO 04004KT 5SM 13/12 RMK 60004 SLP130 T01300120 4////0121 57035 IEM_DS3505
ZGGG,1985-02-11 09:00,ZGGG 110900Z AUTO 36004KT 4SM 14/12 RMK SLP123 T01390122 57007 IEM_DS3505
ZGGG,1985-02-11 12:00,ZGGG 111200Z AUTO 34004KT 2 1/2SM 13/12 RMK 60002 SLP134 T01330123 52011 IEM_DS3505
ZGGG,1985-02-11 15:00,ZGGG 111500Z AUTO 34004KT 4SM 13/12 RMK SLP138 T01320122 52004 IEM_DS3505
ZGGG,1985-02-11 18:00,ZGGG 111800Z AUTO 02004KT 2 1/2SM 13/12 RMK 60004 SLP134 T01290120 40144//// 57004 IEM_DS3505
ZGGG,1985-02-11 21:00,ZGGG 112100Z AUTO 34006KT 6SM 13/12 RMK SLP129 T01300120 57005 IEM_DS3505
ZGGG,1985-02-12 00:00,ZGGG 120000Z AUTO 36006KT 7SM 13/12 RMK 60016 SLP144 T01320116 52015 IEM_DS3505
ZGGG,1985-02-12 03:00,ZGGG 120300Z AUTO 34004KT 9SM 14/12 RMK SLP149 T01450118 52005 IEM_DS3505
ZGGG,1985-02-12 05:00,ZGGG 120500Z AUTO 30006KT 6SM 15/12 A2991 RMK T01500120 IEM_DS3505
ZGGG,1985-02-12 06:00,ZGGG 120600Z AUTO 34002KT 9SM 15/12 A2988 RMK 60000 SLP128 T01530115 4////0128 57021 IEM_DS3505
ZGGG,1985-02-12 07:00,ZGGG 120700Z AUTO 00000KT 6SM 16/12 A2985 RMK T01600120 IEM_DS3505
ZGGG,1985-02-12 08:00,ZGGG 120800Z AUTO 03004KT 6SM 17/12 A2985 RMK T01700120 IEM_DS3505
ZGGG,1985-02-12 09:00,ZGGG 120900Z AUTO 02004KT 9SM 17/12 A2985 RMK SLP116 T01710119 57012 IEM_DS3505
ZGGG,1985-02-12 12:00,ZGGG 121200Z AUTO 00000KT 7SM 16/13 RMK SLP132 T01620134 52016 IEM_DS3505
ZGGG,1985-02-12 15:00,ZGGG 121500Z AUTO 00000KT 3SM 16/15 RMK SLP139 T01570149 52007 IEM_DS3505
ZGGG,1985-02-12 18:00,ZGGG 121800Z AUTO 36006KT 4SM 15/13 RMK 60004 SLP143 T01520127 40176//// 52004 IEM_DS3505
ZGGG,1985-02-12 21:00,ZGGG 122100Z AUTO 36004KT 4SM 14/12 RMK SLP143 T01420122 54000 IEM_DS3505
ZGGG,1985-02-13 00:00,ZGGG 130000Z AUTO 36002KT 5SM 14/13 RMK 60004 SLP163 T01370129 52020 IEM_DS3505
ZGGG,1985-02-13 03:00,ZGGG 130300Z AUTO 36002KT 2SM 15/13 RMK SLP179 T01470129 52012 IEM_DS3505
ZGGG,1985-02-13 06:00,ZGGG 130600Z AUTO 34002KT 2 1/2SM 15/12 RMK 60004 SLP159 T01520125 4////0136 57016 IEM_DS3505
ZGGG,1985-02-13 09:00,ZGGG 130900Z AUTO 09004KT 4SM 17/13 RMK SLP152 T01680130 57007 IEM_DS3505
ZGGG,1985-02-13 12:00,ZGGG 131200Z AUTO 00000KT 3SM 16/14 RMK SLP165 T01600139 52013 IEM_DS3505
ZGGG,1985-02-13 15:00,ZGGG 131500Z AUTO 07004KT 4SM 16/14 RMK SLP166 T01560140 52001 IEM_DS3505
ZGGG,1985-02-13 18:00,ZGGG 131800Z AUTO 00000KT 3SM 15/14 RMK SLP161 T01540138 40170//// 57005 IEM_DS3505
ZGGG,1985-02-13 19:00,ZGGG 131900Z AUTO 00000KT 4SM 15/12 RMK SLP162 T01530125 57008 IEM_DS3505
ZGGG,1985-02-13 21:00,ZGGG 132100Z AUTO 09004KT 3SM 14/14 RMK SLP155 T01450135 57006 IEM_DS3505
ZGGG,1985-02-14 00:00,ZGGG 140000Z AUTO 00000KT 2SM 14/14 RMK 60008 SLP169 T01430136 52014 IEM_DS3505
ZGGG,1985-02-14 03:00,ZGGG 140300Z AUTO 07004KT 3SM 15/13 RMK SLP168 T01510133 57001 IEM_DS3505
ZGGG,1985-02-14 06:00,ZGGG 140600Z AUTO 09004KT 2 1/2SM 14/13 RMK 60012 SLP137 T01450132 4////0143 57031 IEM_DS3505
ZGGG,1985-02-14 09:00,ZGGG 140900Z AUTO 00000KT 2SM 15/13 RMK SLP122 T01470132 57015 IEM_DS3505
ZGGG,1985-02-14 12:00,ZGGG 141200Z AUTO 09004KT 2SM 14/14 RMK 60012 SLP129 T01440136 52007 IEM_DS3505
ZGGG,1985-02-14 15:00,ZGGG 141500Z AUTO 00000KT 2SM 14/14 RMK SLP129 T01430136 54000 IEM_DS3505
ZGGG,1985-02-14 18:00,ZGGG 141800Z AUTO 00000KT 2SM 14/14 RMK 60001 SLP111 T01430136 40155//// 57018 IEM_DS3505
ZGGG,1985-02-14 21:00,ZGGG 142100Z AUTO 00000KT 2SM 14/14 RMK SLP103 T01450138 57008 IEM_DS3505
ZGGG,1985-02-15 00:00,ZGGG 150000Z AUTO 00000KT 1 1/4SM 15/14 RMK 60000 SLP114 T01490144 52011 IEM_DS3505
ZGGG,1985-02-15 03:00,ZGGG 150300Z AUTO 00000KT 1 1/4SM 16/16 RMK SLP118 T01610155 52004 IEM_DS3505
ZGGG,1985-02-15 06:00,ZGGG 150600Z AUTO 00000KT 1 1/4SM 17/16 RMK 60000 SLP091 T01720164 4////0142 57027 IEM_DS3505
ZGGG,1985-02-15 09:00,ZGGG 150900Z AUTO 00000KT 1 1/4SM 18/17 RMK SLP082 T01780172 57009 IEM_DS3505
ZGGG,1985-02-15 12:00,ZGGG 151200Z AUTO 00000KT 1/2SM 18/17 RMK 60000 SLP088 T01770171 52006 IEM_DS3505
ZGGG,1985-02-15 15:00,ZGGG 151500Z AUTO 00000KT 1/2SM 18/17 RMK SLP105 T01760171 52017 IEM_DS3505
ZGGG,1985-02-15 18:00,ZGGG 151800Z AUTO 00000KT 1 1/4SM 18/17 RMK SLP106 T01760171 40180//// 52001 IEM_DS3505
ZGGG,1985-02-15 21:00,ZGGG 152100Z AUTO 00000KT 5SM 18/18 RMK SLP104 T01850177 57002 IEM_DS3505
ZGGG,1985-02-16 00:00,ZGGG 160000Z AUTO 00000KT 1SM 18/18 RMK SLP123 T01810176 52019 IEM_DS3505
ZGGG,1985-02-16 03:00,ZGGG 160300Z AUTO 07004KT 2SM 19/18 RMK SLP138 T01880183 52015 IEM_DS3505
ZGGG,1985-02-16 06:00,ZGGG 160600Z AUTO 09004KT 7SM 19/17 RMK 60039 SLP112 T01860166 4////0174 57026 IEM_DS3505
ZGGG,1985-02-16 09:00,ZGGG 160900Z AUTO 09002KT 2SM 18/17 RMK SLP110 T01820174 57002 IEM_DS3505
ZGGG,1985-02-16 12:00,ZGGG 161200Z AUTO 16004KT 5SM 18/16 RMK 60020 SLP130 T01780164 52020 IEM_DS3505
ZGGG,1985-02-16 15:00,ZGGG 161500Z AUTO 09004KT 6SM 17/13 RMK SLP149 T01660130 52019 IEM_DS3505
ZGGG,1985-02-16 18:00,ZGGG 161800Z AUTO 11008KT 6SM 16/ RMK 60000 SLP137 40194//// 57010 IEM_DS3505
ZGGG,1985-02-16 21:00,ZGGG 162100Z AUTO 11006KT 6SM 16/14 RMK SLP128 T01620136 57009 IEM_DS3505
ZGGG,1985-02-17 00:00,ZGGG 170000Z AUTO 11006KT 4SM 16/14 RMK SLP139 T01620139 52011 IEM_DS3505
ZGGG,1985-02-17 03:00,ZGGG 170300Z AUTO 09004KT 4SM 17/15 RMK SLP152 T01740150 52013 IEM_DS3505
ZGGG,1985-02-17 06:00,ZGGG 170600Z AUTO 11006KT 2 1/2SM 18/16 RMK SLP133 T01850160 4////0160 57019 IEM_DS3505
ZGGG,1985-02-17 09:00,ZGGG 170900Z AUTO 00000KT 2SM 18/16 RMK SLP117 T01840164 57016 IEM_DS3505
ZGGG,1985-02-17 12:00,ZGGG 171200Z AUTO 18002KT 2SM 18/17 RMK SLP122 T01830168 52005 IEM_DS3505
ZGGG,1985-02-17 15:00,ZGGG 171500Z AUTO 14004KT 2SM 18/16 RMK SLP134 T01790163 52012 IEM_DS3505
ZGGG,1985-02-17 18:00,ZGGG 171800Z AUTO 36008KT 2SM 17/16 RMK 60000 SLP138 T01720164 40187//// 52004 IEM_DS3505
ZGGG,1985-02-17 21:00,ZGGG 172100Z AUTO 36006KT 2 1/2SM 12/11 RMK SLP138 T01230114 54000 IEM_DS3505
ZGGG,1985-02-18 00:00,ZGGG 180000Z AUTO 34006KT 9SM 12/11 RMK 60043 SLP158 T01210110 52020 IEM_DS3505
ZGGG,1985-02-18 03:00,ZGGG 180300Z AUTO 00000KT 4SM 12/12 RMK SLP163 T01230118 52005 IEM_DS3505
ZGGG,1985-02-18 06:00,ZGGG 180600Z AUTO 34004KT 4SM 12/11 RMK 60035 SLP140 T01200113 4////0116 57023 IEM_DS3505
ZGGG,1985-02-18 09:00,ZGGG 180900Z AUTO 36002KT 4SM 12/11 RMK SLP116 T01200113 57024 IEM_DS3505
ZGGG,1985-02-18 12:00,ZGGG 181200Z AUTO 36006KT 4SM 11/10 RMK 60031 SLP131 T01110102 52015 IEM_DS3505
ZGGG,1985-02-18 15:00,ZGGG 181500Z AUTO 36006KT 7SM 12/10 RMK SLP141 T01150097 52010 IEM_DS3505
ZGGG,1985-02-18 18:00,ZGGG 181800Z AUTO 29004KT 4SM 11/10 RMK 60012 SLP150 T01070098 40172//// 52009 IEM_DS3505
ZGGG,1985-02-18 21:00,ZGGG 182100Z AUTO 34004KT 4SM 10/10 RMK SLP142 T01030096 57008 IEM_DS3505
ZGGG,1985-02-19 00:00,ZGGG 190000Z AUTO 07004KT 5SM 10/10 RMK 60031 SLP144 T01050098 52002 IEM_DS3505
ZGGG,1985-02-19 03:00,ZGGG 190300Z AUTO 36004KT 9SM 11/10 RMK SLP156 T01140098 52012 IEM_DS3505
ZGGG,1985-02-19 06:00,ZGGG 190600Z AUTO 02002KT 2 1/2SM 11/10 RMK 60012 SLP127 T01120105 4////0103 57029 IEM_DS3505
ZGGG,1985-02-19 09:00,ZGGG 190900Z AUTO 36002KT 5SM 11/10 RMK SLP121 T01140105 57006 IEM_DS3505
ZGGG,1985-02-19 12:00,ZGGG 191200Z AUTO 00000KT 2 1/2SM 12/11 RMK 60004 SLP122 T01150108 52001 IEM_DS3505
ZGGG,1985-02-19 15:00,ZGGG 191500Z AUTO 36004KT 2 1/2SM 11/10 RMK SLP135 T01070103 52013 IEM_DS3505
ZGGG,1985-02-19 18:00,ZGGG 191800Z AUTO 34008KT 2SM 09/08 RMK 60031 SLP149 T00940083 40118//// 52014 IEM_DS3505
ZGGG,1985-02-19 21:00,ZGGG 192100Z AUTO 02004KT 2 1/2SM 09/08 RMK SLP151 T00880078 52002 IEM_DS3505
ZGGG,1985-02-20 00:00,ZGGG 200000Z AUTO 36004KT 9SM 09/08 RMK 60075 SLP164 T00900077 52013 IEM_DS3505
ZGGG,1985-02-20 03:00,ZGGG 200300Z AUTO 27006KT 6SM 09/08 RMK SLP178 T00920075 52014 IEM_DS3505
ZGGG,1985-02-20 06:00,ZGGG 200600Z AUTO 04004KT 2SM 08/08 RMK 60047 SLP151 T00850079 4////0083 57027 IEM_DS3505
ZGGG,1985-02-20 09:00,ZGGG 200900Z AUTO 36006KT 2 1/2SM 10/08 RMK SLP144 T00950078 57007 IEM_DS3505
ZGGG,1985-02-20 12:00,ZGGG 201200Z AUTO 36004KT 4SM 09/08 RMK 60012 SLP156 T00910078 52012 IEM_DS3505
ZGGG,1985-02-20 15:00,ZGGG 201500Z AUTO 36004KT 2 1/2SM 09/08 RMK SLP172 T00870077 52016 IEM_DS3505
ZGGG,1985-02-20 18:00,ZGGG 201800Z AUTO 02006KT 5SM 08/08 RMK 60051 SLP170 T00830075 40101//// 57002 IEM_DS3505
ZGGG,1985-02-20 21:00,ZGGG 202100Z AUTO 02008KT 4SM 08/07 RMK SLP172 T00780066 52002 IEM_DS3505
ZGGG,1985-02-21 00:00,ZGGG 210000Z AUTO 36004KT 10SM 08/07 RMK 60024 SLP186 T00830067 52014 IEM_DS3505
ZGGG,1985-02-21 03:00,ZGGG 210300Z AUTO 36006KT 9SM 08/07 RMK SLP201 T00820066 52015 IEM_DS3505
ZGGG,1985-02-21 06:00,ZGGG 210600Z AUTO 02004KT 7SM 09/06 RMK 60008 SLP180 T00870065 4////0078 57021 IEM_DS3505
ZGGG,1985-02-21 09:00,ZGGG 210900Z AUTO 02006KT 6SM 08/06 RMK SLP173 T00850061 57007 IEM_DS3505
ZGGG,1985-02-21 12:00,ZGGG 211200Z AUTO 02006KT 6SM 08/07 RMK 60002 SLP189 T00790067 52016 IEM_DS3505
ZGGG,1985-02-21 15:00,ZGGG 211500Z AUTO 29006KT 4SM 08/06 RMK SLP205 T00780064 52016 IEM_DS3505
ZGGG,1985-02-21 18:00,ZGGG 211800Z AUTO 36008KT 6SM 07/06 RMK 60016 SLP206 T00710057 40089//// 52001 IEM_DS3505
ZGGG,1985-02-21 21:00,ZGGG 212100Z AUTO 34006KT 7SM 07/05 RMK SLP199 T00730046 57007 IEM_DS3505
ZGGG,1985-02-22 00:00,ZGGG 220000Z AUTO 34002KT 9SM 07/05 RMK 60008 SLP211 T00690046 52012 IEM_DS3505
ZGGG,1985-02-22 03:00,ZGGG 220300Z AUTO 32006KT 9SM 08/04 RMK SLP215 T00840040 52004 IEM_DS3505
ZGGG,1985-02-22 06:00,ZGGG 220600Z AUTO 36006KT 9SM 09/05 RMK 60000 SLP190 T00910048 4////0069 57025 IEM_DS3505
ZGGG,1985-02-22 09:00,ZGGG 220900Z AUTO 02006KT 9SM 08/05 RMK SLP182 T00830053 57008 IEM_DS3505
ZGGG,1985-02-22 12:00,ZGGG 221200Z AUTO 36004KT 7SM 08/06 RMK 60001 SLP200 T00790055 52018 IEM_DS3505
ZGGG,1985-02-22 15:00,ZGGG 221500Z AUTO 36004KT 6SM 08/06 RMK SLP221 T00750057 52021 IEM_DS3505
ZGGG,1985-02-22 18:00,ZGGG 221800Z AUTO 04008KT 6SM 08/04 RMK 60000 SLP214 T00770044 40094//// 57007 IEM_DS3505
ZGGG,1985-02-22 21:00,ZGGG 222100Z AUTO 02004KT 7SM 08/03 RMK SLP202 T00760033 57012 IEM_DS3505
ZGGG,1985-02-23 00:00,ZGGG 230000Z AUTO 02004KT 5SM 07/03 RMK 60001 SLP216 T00700031 52014 IEM_DS3505
ZGGG,1985-02-23 01:00,ZGGG 230100Z AUTO 36010KT 6SM 08/02 A3012 RMK T00800020 IEM_DS3505
ZGGG,1985-02-23 02:00,ZGGG 230200Z AUTO 01010KT 6SM 09/02 A3015 RMK T00900020 IEM_DS3505
ZGGG,1985-02-23 03:00,ZGGG 230300Z AUTO 36006KT 7SM 10/03 A3012 RMK SLP215 T00980026 57001 IEM_DS3505
ZGGG,1985-02-23 04:00,ZGGG 230400Z AUTO 36010KT 6SM 11/03 A3012 RMK T01100030 IEM_DS3505
ZGGG,1985-02-23 05:00,ZGGG 230500Z AUTO 36010KT 6SM 12/03 A3009 RMK T01200030 IEM_DS3505
ZGGG,1985-02-23 06:00,ZGGG 230600Z AUTO 32002KT 9SM 12/04 RMK SLP190 T01210038 4////0067 57025 IEM_DS3505
ZGGG,1985-02-23 07:00,ZGGG 230700Z AUTO 01008KT 6SM 12/04 A3003 RMK T01200040 IEM_DS3505
ZGGG,1985-02-23 09:00,ZGGG 230900Z AUTO 07002KT 7SM 12/04 RMK SLP187 T01230045 57003 IEM_DS3505
ZGGG,1985-02-23 12:00,ZGGG 231200Z AUTO 00000KT 7SM 11/08 RMK SLP198 T01130081 52011 IEM_DS3505
ZGGG,1985-02-23 15:00,ZGGG 231500Z AUTO 09004KT 6SM 10/08 RMK SLP215 T01030084 52017 IEM_DS3505
ZGGG,1985-02-23 21:00,ZGGG 232100Z AUTO 07004KT 4SM 09/08 RMK SLP214 T00900081 57007 IEM_DS3505
ZGGG,1985-02-24 00:00,ZGGG 240000Z AUTO 34004KT 5SM 08/07 RMK 60039 SLP230 T00830073 57016 IEM_DS3505
ZGGG,1985-02-24 03:00,ZGGG 240300Z AUTO 36006KT 6SM 09/07 RMK SLP232 T00870073 52002 IEM_DS3505
ZGGG,1985-02-24 06:00,ZGGG 240600Z AUTO 36004KT 5SM 10/08 RMK 60004 SLP203 T01010078 4////0083 57029 IEM_DS3505
ZGGG,1985-02-24 09:00,ZGGG 240900Z AUTO 36004KT 5SM 10/08 RMK SLP191 T01030082 57012 IEM_DS3505
ZGGG,1985-02-24 12:00,ZGGG 241200Z AUTO 36004KT 5SM 10/08 RMK SLP200 T01000081 52009 IEM_DS3505
ZGGG,1985-02-24 15:00,ZGGG 241500Z AUTO 36004KT 5SM 10/09 RMK SLP207 T00970086 52007 IEM_DS3505
ZGGG,1985-02-24 18:00,ZGGG 241800Z AUTO 00000KT 4SM 10/09 RMK 60001 SLP195 T00990093 40106//// 57012 IEM_DS3505
ZGGG,1985-02-24 21:00,ZGGG 242100Z AUTO 00000KT 2 1/2SM 10/10 RMK SLP184 T01010096 57011 IEM_DS3505
ZGGG,1985-02-25 00:00,ZGGG 250000Z AUTO 36004KT 3SM 10/10 RMK 60002 SLP191 T01020095 52007 IEM_DS3505
ZGGG,1985-02-25 03:00,ZGGG 250300Z AUTO 02006KT 2 1/2SM 11/10 RMK SLP189 T01090098 57002 IEM_DS3505
ZGGG,1985-02-25 06:00,ZGGG 250600Z AUTO 02006KT 5SM 12/11 RMK 60000 SLP164 T01180107 4////0097 57025 IEM_DS3505
ZGGG,1985-02-25 09:00,ZGGG 250900Z AUTO 04004KT 3SM 11/10 RMK SLP159 T01070098 57005 IEM_DS3505
ZGGG,1985-02-25 12:00,ZGGG 251200Z AUTO 34006KT 4SM RMK SLP169 52010 IEM_DS3505
ZGGG,1985-02-25 15:00,ZGGG 251500Z AUTO 36006KT 5SM 10/10 RMK SLP181 T01050098 52012 IEM_DS3505
ZGGG,1985-02-25 18:00,ZGGG 251800Z AUTO 02006KT 4SM 10/10 RMK T01040095 57010 IEM_DS3505
ZGGG,1985-02-25 21:00,ZGGG 252100Z AUTO 02006KT 4SM 10/09 RMK SLP168 T01010088 57003 IEM_DS3505
ZGGG,1985-02-26 00:00,ZGGG 260000Z AUTO 34006KT 9SM 10/08 RMK 60000 SLP181 T01020083 52013 IEM_DS3505
ZGGG,1985-02-26 05:00,ZGGG 260500Z AUTO 36010KT 7SM 11/09 A3003 RMK T01100090 IEM_DS3505
ZGGG,1985-02-26 06:00,ZGGG 260600Z AUTO 36006KT 7SM 12/09 A3003 RMK SLP176 T01150089 4////0100 57016 IEM_DS3505
ZGGG,1985-02-26 09:00,ZGGG 260900Z AUTO 36006KT 9SM 12/09 A2997 RMK SLP165 T01160092 57011 IEM_DS3505
ZGGG,1985-02-26 10:00,ZGGG 261000Z AUTO 36012KT 7SM 11/09 A3000 RMK T01100090 IEM_DS3505
ZGGG,1985-02-26 12:00,ZGGG 261200Z AUTO 02004KT 4SM 10/10 RMK SLP174 T01020095 52009 IEM_DS3505
ZGGG,1985-02-26 15:00,ZGGG 261500Z AUTO 02002KT 4SM 11/09 RMK SLP186 T01070089 52012 IEM_DS3505
ZGGG,1985-02-26 18:00,ZGGG 261800Z AUTO 36004KT 2 1/2SM 10/09 RMK 60000 SLP182 T01030090 40122//// 57004 IEM_DS3505
ZGGG,1985-02-26 21:00,ZGGG 262100Z AUTO 36006KT 2 1/2SM 10/09 RMK SLP172 T01000089 57010 IEM_DS3505
ZGGG,1985-02-27 00:00,ZGGG 270000Z AUTO 36004KT 4SM 10/09 RMK 60000 SLP185 T00990092 52013 IEM_DS3505
ZGGG,1985-02-27 03:00,ZGGG 270300Z AUTO 36008KT 5SM 10/09 RMK SLP197 T01040089 52012 IEM_DS3505
ZGGG,1985-02-27 06:00,ZGGG 270600Z AUTO 34002KT 7SM 11/09 RMK SLP170 T01120088 4////0098 57027 IEM_DS3505
ZGGG,1985-02-27 09:00,ZGGG 270900Z AUTO 34006KT 7SM 11/08 RMK SLP158 T01090085 57012 IEM_DS3505
ZGGG,1985-02-27 12:00,ZGGG 271200Z AUTO 34004KT 4SM 10/09 RMK SLP174 T00970086 52016 IEM_DS3505
ZGGG,1985-02-27 15:00,ZGGG 271500Z AUTO 36004KT 4SM 10/09 RMK SLP183 T00990088 52009 IEM_DS3505
ZGGG,1985-02-27 18:00,ZGGG 271800Z AUTO 36006KT 4SM 10/08 RMK SLP170 T01000085 40117//// 57013 IEM_DS3505
ZGGG,1985-02-27 21:00,ZGGG 272100Z AUTO 34004KT 2 1/2SM 09/09 RMK SLP172 T00940088 52002 IEM_DS3505
ZGGG,1985-02-28 00:00,ZGGG 280000Z AUTO 07004KT 7SM 10/10 RMK 60002 SLP172 T01040097 54000 IEM_DS3505
ZGGG,1985-02-28 06:00,ZGGG 280600Z AUTO 27004KT 2SM 13/11 RMK 60067 SLP140 T01260112 4////0094 57030 IEM_DS3505
ZGGG,1985-02-28 09:00,ZGGG 280900Z AUTO 00000KT 2SM 13/12 RMK SLP133 T01310119 57007 IEM_DS3505
ZGGG,1985-02-28 12:00,ZGGG 281200Z AUTO 00000KT 2SM 13/12 RMK 60001 SLP138 T01310122 52005 IEM_DS3505
ZGGG,1985-02-28 15:00,ZGGG 281500Z AUTO 00000KT 2SM 13/13 RMK SLP149 T01330126 52011 IEM_DS3505
ZGGG,1985-02-28 18:00,ZGGG 281800Z AUTO 00000KT 1 1/4SM 13/13 RMK SLP145 T01310126 40135//// 57004 IEM_DS3505
ZGGG,1985-02-28 21:00,ZGGG 282100Z AUTO 00000KT 1 1/4SM 13/13 RMK SLP139 T01330126 57006 IEM_DS3505
ZGGG,1985-03-01 00:00,ZGGG 010000Z AUTO 00000KT 1 1/4SM 14/13 RMK SLP148 T01370130 52009 IEM_DS3505
ZGGG,1985-03-01 03:00,ZGGG 010300Z AUTO 00000KT 1SM 16/15 RMK SLP149 T01560146 52001 IEM_DS3505
ZGGG,1985-03-01 06:00,ZGGG 010600Z AUTO 00000KT 1 1/4SM 18/16 RMK SLP121 T01750159 4////0126 57028 IEM_DS3505
ZGGG,1985-03-01 09:00,ZGGG 010900Z AUTO 00000KT 1 1/4SM 19/17 RMK SLP103 T01860171 57018 IEM_DS3505
ZGGG,1985-03-01 12:00,ZGGG 011200Z AUTO 00000KT 1 1/4SM 18/17 RMK SLP115 T01800172 52012 IEM_DS3505
ZGGG,1985-03-01 15:00,ZGGG 011500Z AUTO 00000KT 1SM 18/17 RMK SLP127 T01750169 52012 IEM_DS3505
ZGGG,1985-03-01 18:00,ZGGG 011800Z AUTO 00000KT 1SM 17/17 RMK SLP127 T01730168 40187//// 54000 IEM_DS3505
ZGGG,1985-03-01 21:00,ZGGG 012100Z AUTO 00000KT 1 1/4SM 17/17 RMK SLP110 T01730170 57017 IEM_DS3505
ZGGG,1985-03-02 00:00,ZGGG 020000Z AUTO 00000KT 1 1/4SM 18/17 RMK SLP126 T01780173 52016 IEM_DS3505
ZGGG,1985-03-02 03:00,ZGGG 020300Z AUTO 00000KT 1 1/4SM 20/18 RMK SLP131 T01970184 52005 IEM_DS3505
ZGGG,1985-03-02 06:00,ZGGG 020600Z AUTO 00000KT 2SM 20/20 RMK 60004 SLP107 T02020195 4////0170 57024 IEM_DS3505
ZGGG,1985-03-02 09:00,ZGGG 020900Z AUTO 00000KT 1 1/4SM 20/20 RMK SLP095 T02050199 57012 IEM_DS3505
ZGGG,1985-03-02 12:00,ZGGG 021200Z AUTO 00000KT 1 1/4SM 20/19 RMK 60008 SLP108 T01990193 52013 IEM_DS3505
ZGGG,1985-03-02 15:00,ZGGG 021500Z AUTO 00000KT 1SM 20/19 RMK SLP120 T01960192 52012 IEM_DS3505
ZGGG,1985-03-02 18:00,ZGGG 021800Z AUTO 00000KT 1 1/4SM 18/18 RMK SLP117 T01800175 40207//// 57003 IEM_DS3505
ZGGG,1985-03-02 21:00,ZGGG 022100Z AUTO 34006KT 1 1/4SM 15/15 RMK SLP119 T01540148 52002 IEM_DS3505
ZGGG,1985-03-03 00:00,ZGGG 030000Z AUTO 36006KT 2 1/2SM 14/13 RMK 60004 SLP142 T01370129 52023 IEM_DS3505
ZGGG,1985-03-03 03:00,ZGGG 030300Z AUTO 36004KT 2 1/2SM 13/13 RMK SLP165 T01330128 52023 IEM_DS3505
ZGGG,1985-03-03 06:00,ZGGG 030600Z AUTO 36010KT 4SM 12/11 RMK 60012 SLP152 T01240114 4////0119 57013 IEM_DS3505
ZGGG,1985-03-03 09:00,ZGGG 030900Z AUTO 36006KT 2 1/2SM 13/13 RMK SLP150 T01310126 57002 IEM_DS3505
ZGGG,1985-03-03 12:00,ZGGG 031200Z AUTO 36004KT 4SM 12/11 RMK 60039 SLP173 T01210114 52023 IEM_DS3505
ZGGG,1985-03-03 15:00,ZGGG 031500Z AUTO 00000KT 2 1/2SM 13/12 RMK SLP193 T01300125 52020 IEM_DS3505
ZGGG,1985-03-03 18:00,ZGGG 031800Z AUTO 36006KT 2 1/2SM 12/11 RMK 60012 SLP187 T01170112 40180//// 57006 IEM_DS3505
ZGGG,1985-03-03 21:00,ZGGG 032100Z AUTO 04006KT 4SM 12/11 RMK SLP187 T01210109 57008 IEM_DS3505
ZGGG,1985-03-04 00:00,ZGGG 040000Z AUTO 36004KT 9SM 11/10 RMK 60001 SLP205 T01130102 52021 IEM_DS3505
ZGGG,1985-03-04 03:00,ZGGG 040300Z AUTO 34004KT 9SM 12/10 RMK SLP224 T01160104 52019 IEM_DS3505
ZGGG,1985-03-04 06:00,ZGGG 040600Z AUTO 32004KT 5SM 11/10 RMK 60028 SLP205 T01110102 4////0110 57019 IEM_DS3505
ZGGG,1985-03-04 09:00,ZGGG 040900Z AUTO 34004KT 9SM 11/10 RMK SLP199 T01140103 57006 IEM_DS3505
ZGGG,1985-03-04 12:00,ZGGG 041200Z AUTO 36002KT 5SM 11/09 RMK 60008 SLP210 T01090094 52011 IEM_DS3505
ZGGG,1985-03-04 18:00,ZGGG 041800Z AUTO 32004KT 2 1/2SM 10/08 RMK 60012 SLP215 T01050084 40120//// 57013 IEM_DS3505
ZGGG,1985-03-04 21:00,ZGGG 042100Z AUTO 36006KT 2 1/2SM 09/08 RMK SLP214 T00930084 57001 IEM_DS3505
ZGGG,1985-03-05 00:00,ZGGG 050000Z AUTO 34008KT 7SM 09/07 RMK 60012 SLP240 T00930072 52026 IEM_DS3505
ZGGG,1985-03-05 03:00,ZGGG 050300Z AUTO 34002KT 5SM 12/09 RMK SLP233 T01160090 57007 IEM_DS3505
ZGGG,1985-03-05 06:00,ZGGG 050600Z AUTO 34006KT 12SM 13/08 RMK 60001 SLP203 T01320082 4////0092 57030 IEM_DS3505
ZGGG,1985-03-05 09:00,ZGGG 050900Z AUTO 16004KT 12SM 16/10 RMK SLP182 T01560096 57021 IEM_DS3505
ZGGG,1985-03-05 12:00,ZGGG 051200Z AUTO 00000KT 6SM 13/11 RMK SLP193 T01320111 52011 IEM_DS3505
ZGGG,1985-03-05 15:00,ZGGG 051500Z AUTO 00000KT 4SM 11/11 RMK SLP214 T01130108 52021 IEM_DS3505
ZGGG,1985-03-05 18:00,ZGGG 051800Z AUTO 00000KT 7SM 10/10 RMK SLP202 T01030098 40162//// 57012 IEM_DS3505
ZGGG,1985-03-05 21:00,ZGGG 052100Z AUTO 00000KT 7SM 12/10 RMK SLP196 T01150095 57006 IEM_DS3505
ZGGG,1985-03-06 00:00,ZGGG 060000Z AUTO 07002KT 9SM 12/09 RMK SLP205 T01170091 52009 IEM_DS3505
ZGGG,1985-03-06 03:00,ZGGG 060300Z AUTO 07004KT 9SM 13/10 RMK SLP211 T01330103 52006 IEM_DS3505
ZGGG,1985-03-06 06:00,ZGGG 060600Z AUTO 00000KT 5SM 15/11 RMK SLP188 T01470114 4////0103 57023 IEM_DS3505
ZGGG,1985-03-06 09:00,ZGGG 060900Z AUTO 14002KT 2 1/2SM 16/13 RMK SLP171 T01610126 57017 IEM_DS3505
ZGGG,1985-03-06 12:00,ZGGG 061200Z AUTO 00000KT 5SM 16/13 RMK SLP180 T01550134 52009 IEM_DS3505
ZGGG,1985-03-06 15:00,ZGGG 061500Z AUTO 00000KT 4SM 14/13 RMK SLP195 T01350127 52015 IEM_DS3505
ZGGG,1985-03-06 18:00,ZGGG 061800Z AUTO 00000KT 4SM 14/13 RMK SLP193 T01390129 40165//// 57002 IEM_DS3505
ZGGG,1985-03-06 21:00,ZGGG 062100Z AUTO 00000KT 4SM 14/13 RMK SLP179 T01410133 57014 IEM_DS3505
ZGGG,1985-03-07 00:00,ZGGG 070000Z AUTO 32002KT 4SM 14/13 RMK SLP194 T01430128 52015 IEM_DS3505
ZGGG,1985-03-07 03:00,ZGGG 070300Z AUTO 00000KT 2 1/2SM 16/14 RMK SLP196 T01580137 52002 IEM_DS3505
ZGGG,1985-03-07 06:00,ZGGG 070600Z AUTO 29004KT 4SM 19/15 RMK SLP171 T01930150 4////0134 57025 IEM_DS3505
ZGGG,1985-03-07 09:00,ZGGG 070900Z AUTO 00000KT 2SM 21/16 RMK SLP158 T02120158 57013 IEM_DS3505
ZGGG,1985-03-07 12:00,ZGGG 071200Z AUTO 00000KT 2 1/2SM 18/16 RMK SLP165 T01750161 52007 IEM_DS3505
ZGGG,1985-03-07 15:00,ZGGG 071500Z AUTO 00000KT 2 1/2SM 18/16 RMK SLP179 T01760164 52014 IEM_DS3505
ZGGG,1985-03-07 18:00,ZGGG 071800Z AUTO 00000KT 3SM 17/16 RMK SLP176 T01740163 40212//// 57003 IEM_DS3505
ZGGG,1985-03-07 21:00,ZGGG 072100Z AUTO 00000KT 3SM 17/16 RMK SLP176 T01700162 54000 IEM_DS3505
ZGGG,1985-03-08 00:00,ZGGG 080000Z AUTO 00000KT 2SM 18/17 RMK SLP198 T01750166 52022 IEM_DS3505
ZGGG,1985-03-08 03:00,ZGGG 080300Z AUTO 14004KT 2 1/2SM 24/19 RMK SLP202 T02360187 52004 IEM_DS3505
ZGGG,1985-03-08 06:00,ZGGG 080600Z AUTO 11004KT 6SM 25/19 RMK SLP177 T02520191 4////0163 57025 IEM_DS3505
ZGGG,1985-03-08 09:00,ZGGG 080900Z AUTO 11004KT 9SM 26/18 RMK SLP165 T02600185 57012 IEM_DS3505
ZGGG,1985-03-08 12:00,ZGGG 081200Z AUTO 00000KT 6SM 23/20 RMK SLP174 T02290200 52009 IEM_DS3505
ZGGG,1985-03-08 15:00,ZGGG 081500Z AUTO 00000KT 5SM 20/19 RMK SLP192 T02020192 52018 IEM_DS3505
ZGGG,1985-03-08 18:00,ZGGG 081800Z AUTO 02008KT 5SM 16/12 RMK SLP202 T01590118 40268//// 52010 IEM_DS3505
ZGGG,1985-03-08 21:00,ZGGG 082100Z AUTO 36004KT 7SM 13/10 RMK SLP210 T01340098 52008 IEM_DS3505
ZGGG,1985-03-09 00:00,ZGGG 090000Z AUTO 36006KT 9SM 13/09 A3018 RMK SLP232 T01330093 52022 IEM_DS3505
ZGGG,1985-03-09 01:00,ZGGG 090100Z AUTO 35017KT 7SM 12/09 A3021 RMK T01200090 IEM_DS3505
ZGGG,1985-03-09 02:00,ZGGG 090200Z AUTO 35014KT 7SM 12/09 A3024 RMK T01200090 IEM_DS3505
ZGGG,1985-03-09 03:00,ZGGG 090300Z AUTO 36008KT 7SM 13/09 A3024 RMK SLP250 T01270089 52018 IEM_DS3505
ZGGG,1985-03-09 04:00,ZGGG 090400Z AUTO 01014KT 7SM 14/08 A3021 RMK T01400080 IEM_DS3505
ZGGG,1985-03-09 06:00,ZGGG 090600Z AUTO 36008KT 11SM 17/10 A3015 RMK SLP218 T01720095 4////0118 57032 IEM_DS3505
ZGGG,1985-03-09 09:00,ZGGG 090900Z AUTO 36006KT 9SM 17/10 RMK SLP202 T01670097 57016 IEM_DS3505
ZGGG,1985-03-09 12:00,ZGGG 091200Z AUTO 34004KT 7SM 15/09 RMK SLP209 T01470089 52007 IEM_DS3505
ZGGG,1985-03-09 15:00,ZGGG 091500Z AUTO 32004KT 7SM 14/09 RMK SLP227 T01440092 52018 IEM_DS3505
ZGGG,1985-03-09 18:00,ZGGG 091800Z AUTO 36004KT 7SM 14/09 RMK SLP224 T01350086 40184//// 57003 IEM_DS3505
ZGGG,1985-03-09 21:00,ZGGG 092100Z AUTO 36004KT 7SM 13/09 RMK SLP214 T01330089 57010 IEM_DS3505
ZGGG,1985-03-10 00:00,ZGGG 100000Z AUTO 00000KT 6SM 14/10 RMK SLP221 T01420105 52007 IEM_DS3505
ZGGG,1985-03-10 03:00,ZGGG 100300Z AUTO 09004KT 9SM 17/11 RMK SLP224 T01680114 52003 IEM_DS3505
ZGGG,1985-03-10 06:00,ZGGG 100600Z AUTO 11004KT 6SM 19/13 RMK SLP194 T01890130 4////0133 57030 IEM_DS3505
ZGGG,1985-03-10 09:00,ZGGG 100900Z AUTO 29004KT 4SM 18/13 RMK SLP185 T01800133 57009 IEM_DS3505
ZGGG,1985-03-10 12:00,ZGGG 101200Z AUTO 32002KT 5SM 17/12 RMK SLP202 T01660121 52017 IEM_DS3505
ZGGG,1985-03-10 15:00,ZGGG 101500Z AUTO 36004KT 5SM 16/11 RMK SLP221 T01550112 52019 IEM_DS3505
ZGGG,1985-03-10 18:00,ZGGG 101800Z AUTO 32008KT 5SM 12/11 RMK 60012 SLP226 T01230111 40196//// 52005 IEM_DS3505
ZGGG,1985-03-10 21:00,ZGGG 102100Z AUTO 36012KT 5SM 10/09 RMK SLP230 T01030086 52004 IEM_DS3505
ZGGG,1985-03-11 00:00,ZGGG 110000Z AUTO 02014KT 8SM 10/07 RMK 60012 SLP261 T00970072 52031 IEM_DS3505
ZGGG,1985-03-11 03:00,ZGGG 110300Z AUTO 36008KT 10SM 10/06 RMK SLP271 T01040056 52010 IEM_DS3505
ZGGG,1985-03-11 06:00,ZGGG 110600Z AUTO 34008KT 16SM 11/05 RMK 60000 SLP246 T01060048 4////0096 57025 IEM_DS3505
ZGGG,1985-03-11 09:00,ZGGG 110900Z AUTO 36010KT 16SM 10/04 RMK SLP238 T01030044 57008 IEM_DS3505
ZGGG,1985-03-11 12:00,ZGGG 111200Z AUTO 36010KT 11SM 09/05 RMK SLP249 T00920047 52011 IEM_DS3505
ZGGG,1985-03-11 15:00,ZGGG 111500Z AUTO 36006KT 10SM 09/05 RMK SLP260 T00900047 52011 IEM_DS3505
ZGGG,1985-03-11 18:00,ZGGG 111800Z AUTO 36006KT 9SM 08/04 RMK SLP254 T00830039 40124//// 57006 IEM_DS3505
ZGGG,1985-03-11 21:00,ZGGG 112100Z AUTO 36004KT 9SM 07/05 RMK SLP252 T00730048 57002 IEM_DS3505
ZGGG,1985-03-12 00:00,ZGGG 120000Z AUTO 36004KT 11SM 08/04 RMK 60004 SLP257 T00760045 52005 IEM_DS3505
ZGGG,1985-03-12 03:00,ZGGG 120300Z AUTO 36004KT 11SM 08/05 RMK SLP256 T00850050 57001 IEM_DS3505
ZGGG,1985-03-12 05:00,ZGGG 120500Z AUTO 02010KT 7SM 09/06 A3018 RMK T00900060 IEM_DS3505
ZGGG,1985-03-12 06:00,ZGGG 120600Z AUTO 34004KT 9SM 09/06 A3015 RMK SLP221 T00910059 4////0073 57035 IEM_DS3505
ZGGG,1985-03-12 07:00,ZGGG 120700Z AUTO 02008KT 7SM 10/07 A3012 RMK T01000070 IEM_DS3505
ZGGG,1985-03-12 08:00,ZGGG 120800Z AUTO 01010KT 7SM 10/07 A3012 RMK T01000070 IEM_DS3505
ZGGG,1985-03-12 09:00,ZGGG 120900Z AUTO 34004KT 9SM 10/06 A3012 RMK SLP206 T00970064 57015 IEM_DS3505
ZGGG,1985-03-12 10:00,ZGGG 121000Z AUTO 36008KT 7SM 09/07 A3009 RMK T00900070 IEM_DS3505
ZGGG,1985-03-12 12:00,ZGGG 121200Z AUTO 07002KT 5SM 09/07 RMK SLP212 T00940069 52006 IEM_DS3505
ZGGG,1985-03-12 15:00,ZGGG 121500Z AUTO 34006KT 5SM 09/07 RMK SLP230 T00910070 52018 IEM_DS3505
ZGGG,1985-03-12 18:00,ZGGG 121800Z AUTO 02004KT 5SM 09/07 RMK SLP226 T00870069 40102//// 57004 IEM_DS3505
ZGGG,1985-03-12 21:00,ZGGG 122100Z AUTO 36006KT 4SM 08/08 RMK SLP217 T00840076 57009 IEM_DS3505
ZGGG,1985-03-13 00:00,ZGGG 130000Z AUTO 36004KT 7SM 09/07 RMK 60020 SLP229 T00890070 52012 IEM_DS3505
ZGGG,1985-03-13 03:00,ZGGG 130300Z AUTO 32004KT 7SM 09/07 RMK SLP238 T00910068 52009 IEM_DS3505
ZGGG,1985-03-13 06:00,ZGGG 130600Z AUTO 34006KT 7SM 09/07 RMK SLP216 T00900069 4////0082 57022 IEM_DS3505
ZGGG,1985-03-13 09:00,ZGGG 130900Z AUTO 36008KT 8SM 09/07 RMK SLP208 T00930068 57008 IEM_DS3505
ZGGG,1985-03-13 12:00,ZGGG 131200Z AUTO 34006KT 6SM 09/06 RMK 60000 SLP223 T00890063 52015 IEM_DS3505
ZGGG,1985-03-13 15:00,ZGGG 131500Z AUTO 36006KT 6SM 09/06 RMK SLP244 T00920060 52021 IEM_DS3505
ZGGG,1985-03-13 18:00,ZGGG 131800Z AUTO 36004KT 6SM 09/06 RMK 60004 SLP239 T00870055 40097//// 57005 IEM_DS3505
ZGGG,1985-03-13 21:00,ZGGG 132100Z AUTO 02006KT 5SM 09/05 RMK SLP233 T00900049 57006 IEM_DS3505
ZGGG,1985-03-14 00:00,ZGGG 140000Z AUTO 36004KT 10SM 09/05 RMK SLP256 T00920047 52023 IEM_DS3505
ZGGG,1985-03-14 03:00,ZGGG 140300Z AUTO 02006KT 10SM 10/05 RMK SLP265 T01040052 52009 IEM_DS3505
ZGGG,1985-03-14 06:00,ZGGG 140600Z AUTO 02008KT 10SM 11/05 RMK SLP243 T01070049 4////0085 57022 IEM_DS3505
ZGGG,1985-03-14 09:00,ZGGG 140900Z AUTO 36004KT 9SM 10/05 RMK SLP244 T01010053 52001 IEM_DS3505
ZGGG,1985-03-14 12:00,ZGGG 141200Z AUTO 02006KT 7SM 10/05 RMK SLP267 T00990053 52023 IEM_DS3505
ZGGG,1985-03-14 15:00,ZGGG 141500Z AUTO 36004KT 7SM 10/06 RMK SLP278 T00970055 52011 IEM_DS3505
ZGGG,1985-03-14 18:00,ZGGG 141800Z AUTO 36008KT 7SM 10/04 RMK SLP271 T00960045 40111//// 57007 IEM_DS3505
ZGGG,1985-03-14 21:00,ZGGG 142100Z AUTO 36006KT 6SM 08/06 RMK SLP268 T00800064 57003 IEM_DS3505
ZGGG,1985-03-15 00:00,ZGGG 150000Z AUTO 36006KT 7SM 09/06 RMK 60004 SLP286 T00890059 52018 IEM_DS3505
ZGGG,1985-03-15 03:00,ZGGG 150300Z AUTO 36006KT 7SM 11/06 RMK SLP291 T01070058 52005 IEM_DS3505
ZGGG,1985-03-15 06:00,ZGGG 150600Z AUTO 34004KT 7SM 13/06 RMK SLP258 T01270057 4////0080 57033 IEM_DS3505
ZGGG,1985-03-15 09:00,ZGGG 150900Z AUTO 00000KT 7SM 13/07 RMK SLP240 T01290070 57018 IEM_DS3505
ZGGG,1985-03-15 12:00,ZGGG 151200Z AUTO 36004KT 6SM 13/06 RMK SLP248 T01280063 52008 IEM_DS3505
ZGGG,1985-03-15 15:00,ZGGG 151500Z AUTO 34004KT 6SM 12/07 RMK SLP260 T01240067 52012 IEM_DS3505
ZGGG,1985-03-15 18:00,ZGGG 151800Z AUTO 36004KT 6SM 12/06 RMK SLP244 T01190063 40134//// 57016 IEM_DS3505
ZGGG,1985-03-15 21:00,ZGGG 152100Z AUTO 02004KT 6SM 11/05 RMK SLP237 T01130054 57007 IEM_DS3505
ZGGG,1985-03-16 00:00,ZGGG 160000Z AUTO 36006KT 6SM 11/05 A3027 RMK SLP256 T01130051 52019 IEM_DS3505
ZGGG,1985-03-16 01:00,ZGGG 160100Z AUTO 02008KT 3SM 11/07 A3027 RMK T01100070 IEM_DS3505
ZGGG,1985-03-16 02:00,ZGGG 160200Z AUTO 36006KT 3SM 12/07 A3027 RMK T01200070 IEM_DS3505
ZGGG,1985-03-16 03:00,ZGGG 160300Z AUTO 36004KT 5SM 13/06 A3027 RMK SLP258 T01320059 52002 IEM_DS3505
ZGGG,1985-03-16 04:00,ZGGG 160400Z AUTO 34010KT 6SM 14/06 A3024 RMK T01400060 IEM_DS3505
ZGGG,1985-03-16 05:00,ZGGG 160500Z AUTO 33010KT 7SM 15/07 A3018 RMK SLP204 T01500070 57023 IEM_DS3505
ZGGG,1985-03-16 06:00,ZGGG 160600Z AUTO 34006KT 6SM 16/07 A3015 RMK SLP227 T01620067 4////0110 57031 IEM_DS3505
ZGGG,1985-03-16 09:00,ZGGG 160900Z AUTO 02004KT 7SM 16/07 RMK SLP204 T01580073 57023 IEM_DS3505
ZGGG,1985-03-16 12:00,ZGGG 161200Z AUTO 36004KT 5SM 14/07 RMK SLP221 T01420069 52017 IEM_DS3505
ZGGG,1985-03-16 15:00,ZGGG 161500Z AUTO 36004KT 5SM 14/07 RMK SLP224 T01350069 52003 IEM_DS3505
ZGGG,1985-03-16 18:00,ZGGG 161800Z AUTO 36004KT 5SM 13/06 RMK SLP213 T01270057 40173//// 57011 IEM_DS3505
ZGGG,1985-03-16 21:00,ZGGG 162100Z AUTO 36004KT 5SM 12/04 RMK SLP208 T01210042 57005 IEM_DS3505
ZGGG,1985-03-17 00:00,ZGGG 170000Z AUTO 02004KT 7SM 12/03 RMK SLP221 T01200026 52013 IEM_DS3505
ZGGG,1985-03-17 03:00,ZGGG 170300Z AUTO 36004KT 7SM 14/04 RMK SLP222 T01400035 52001 IEM_DS3505
ZGGG,1985-03-17 06:00,ZGGG 170600Z AUTO 34004KT 9SM 17/06 RMK SLP193 T01660063 4////0118 57029 IEM_DS3505
ZGGG,1985-03-17 09:00,ZGGG 170900Z AUTO 00000KT 8SM 17/07 RMK SLP174 T01710074 57019 IEM_DS3505
ZGGG,1985-03-17 12:00,ZGGG 171200Z AUTO 00000KT 7SM 14/09 RMK SLP188 T01350092 52014 IEM_DS3505
ZGGG,1985-03-17 15:00,ZGGG 171500Z AUTO 00000KT 5SM 12/10 RMK SLP201 T01210098 52013 IEM_DS3505
ZGGG,1985-03-17 18:00,ZGGG 171800Z AUTO 00000KT 5SM 13/10 RMK SLP195 T01290104 40171//// 57006 IEM_DS3505
ZGGG,1985-03-17 21:00,ZGGG 172100Z AUTO 00000KT 5SM 13/10 RMK SLP186 T01310101 57009 IEM_DS3505
ZGGG,1985-03-18 00:00,ZGGG 180000Z AUTO 02004KT 5SM 14/08 RMK SLP205 T01390076 52019 IEM_DS3505
ZGGG,1985-03-18 03:00,ZGGG 180300Z AUTO 02006KT 6SM 17/09 RMK SLP211 T01680090 52006 IEM_DS3505
ZGGG,1985-03-18 06:00,ZGGG 180600Z AUTO 36006KT 6SM 18/09 RMK SLP180 T01820090 4////0118 57031 IEM_DS3505
ZGGG,1985-03-18 09:00,ZGGG 180900Z AUTO 34004KT 6SM 19/10 RMK SLP168 T01900096 57012 IEM_DS3505
ZGGG,1985-03-18 12:00,ZGGG 181200Z AUTO 34006KT 5SM 16/09 RMK SLP184 T01550087 52016 IEM_DS3505
ZGGG,1985-03-18 15:00,ZGGG 181500Z AUTO 04004KT 4SM 14/08 RMK SLP203 T01400077 52019 IEM_DS3505
ZGGG,1985-03-18 18:00,ZGGG 181800Z AUTO 36006KT 5SM 13/07 RMK SLP196 T01280071 40195//// 57007 IEM_DS3505
ZGGG,1985-03-18 21:00,ZGGG 182100Z AUTO 02008KT 5SM 12/07 RMK SLP191 T01250066 57005 IEM_DS3505
ZGGG,1985-03-19 00:00,ZGGG 190000Z AUTO 36006KT 5SM 13/07 RMK SLP212 T01260067 52021 IEM_DS3505
ZGGG,1985-03-19 03:00,ZGGG 190300Z AUTO 02004KT 6SM 17/08 RMK SLP213 T01710083 52001 IEM_DS3505
ZGGG,1985-03-19 06:00,ZGGG 190600Z AUTO 29002KT 4SM 21/10 A3003 RMK SLP174 T02100103 4////0122 57039 IEM_DS3505
ZGGG,1985-03-19 07:00,ZGGG 190700Z AUTO 35006KT 6SM 19/11 A3000 RMK T01900110 IEM_DS3505
ZGGG,1985-03-19 08:00,ZGGG 190800Z AUTO 03006KT 7SM 20/12 A2997 RMK T02000120 IEM_DS3505
ZGGG,1985-03-19 09:00,ZGGG 190900Z AUTO 02002KT 8SM 22/11 A2997 RMK SLP158 T02150113 57016 IEM_DS3505
ZGGG,1985-03-19 12:00,ZGGG 191200Z AUTO 00000KT 6SM 17/12 RMK SLP170 T01740120 52012 IEM_DS3505
ZGGG,1985-03-19 15:00,ZGGG 191500Z AUTO 00000KT 5SM 17/14 RMK SLP190 T01740143 52020 IEM_DS3505
ZGGG,1985-03-19 18:00,ZGGG 191800Z AUTO 00000KT 4SM 17/14 RMK SLP186 T01680140 40215//// 57004 IEM_DS3505
ZGGG,1985-03-19 21:00,ZGGG 192100Z AUTO 00000KT 5SM 16/14 RMK SLP181 T01620136 57005 IEM_DS3505
ZGGG,1985-03-20 00:00,ZGGG 200000Z AUTO 00000KT 4SM 17/13 RMK SLP200 T01670132 52019 IEM_DS3505
ZGGG,1985-03-20 03:00,ZGGG 200300Z AUTO 02006KT 5SM 18/11 RMK SLP204 T01820107 52004 IEM_DS3505
ZGGG,1985-03-20 06:00,ZGGG 200600Z AUTO 36004KT 4SM 18/10 RMK SLP181 T01790105 4////0159 57023 IEM_DS3505
ZGGG,1985-03-20 09:00,ZGGG 200900Z AUTO 36006KT 2 1/2SM 17/10 RMK SLP173 T01660096 57008 IEM_DS3505
ZGGG,1985-03-20 12:00,ZGGG 201200Z AUTO 36004KT 4SM 15/10 RMK SLP193 T01480097 52020 IEM_DS3505
ZGGG,1985-03-20 15:00,ZGGG 201500Z AUTO 02006KT 6SM 14/08 RMK SLP213 T01410082 52020 IEM_DS3505
ZGGG,1985-03-20 18:00,ZGGG 201800Z AUTO 36006KT 7SM 13/07 RMK SLP208 T01340070 40188//// 57005 IEM_DS3505
ZGGG,1985-03-20 21:00,ZGGG 202100Z AUTO 02004KT 8SM 13/07 RMK SLP199 T01300069 57009 IEM_DS3505
ZGGG,1985-03-21 00:00,ZGGG 210000Z AUTO 34006KT 9SM 13/07 RMK SLP217 T01310071 52018 IEM_DS3505
ZGGG,1985-03-21 03:00,ZGGG 210300Z AUTO 36006KT 9SM 14/06 RMK SLP227 T01400064 52010 IEM_DS3505
ZGGG,1985-03-21 06:00,ZGGG 210600Z AUTO 36008KT 10SM 15/07 RMK SLP210 T01460067 4////0129 57017 IEM_DS3505
ZGGG,1985-03-21 09:00,ZGGG 210900Z AUTO 02008KT 9SM 14/07 RMK SLP190 T01410070 57020 IEM_DS3505
ZGGG,1985-03-21 12:00,ZGGG 211200Z AUTO 36004KT 7SM 14/08 RMK SLP203 T01360077 52013 IEM_DS3505
ZGGG,1985-03-21 15:00,ZGGG 211500Z AUTO 29004KT 6SM 13/08 RMK SLP209 T01290079 52006 IEM_DS3505
ZGGG,1985-03-21 18:00,ZGGG 211800Z AUTO 00000KT 7SM 12/07 RMK SLP193 T01250070 40152//// 57016 IEM_DS3505
ZGGG,1985-03-21 21:00,ZGGG 212100Z AUTO 7SM 12/08 RMK SLP190 T01220077 57003 IEM_DS3505
ZGGG,1985-03-22 00:00,ZGGG 220000Z AUTO 09004KT 5SM 10/09 RMK 60002 SLP190 T01050088 54000 IEM_DS3505
ZGGG,1985-03-22 03:00,ZGGG 220300Z AUTO 34004KT 4SM 11/10 RMK SLP207 T01120101 52017 IEM_DS3505
ZGGG,1985-03-22 06:00,ZGGG 220600Z AUTO 36006KT 6SM 13/10 RMK 60024 SLP181 T01320098 4////0102 57026 IEM_DS3505
ZGGG,1985-03-22 09:00,ZGGG 220900Z AUTO 02004KT 10SM 14/10 RMK SLP168 T01430097 57013 IEM_DS3505
ZGGG,1985-03-22 12:00,ZGGG 221200Z AUTO 00000KT 9SM 14/11 RMK SLP176 T01390106 52008 IEM_DS3505
ZGGG,1985-03-22 15:00,ZGGG 221500Z AUTO 00000KT 9SM 14/11 RMK SLP187 T01370111 52011 IEM_DS3505
ZGGG,1985-03-22 18:00,ZGGG 221800Z AUTO 00000KT 6SM 13/11 RMK SLP182 T01330110 40146//// 57005 IEM_DS3505
ZGGG,1985-03-22 21:00,ZGGG 222100Z AUTO 00000KT 6SM 13/11 RMK SLP174 T01310112 57008 IEM_DS3505
ZGGG,1985-03-22 23:00,ZGGG 222300Z AUTO 00000KT 7SM 13/11 A3003 RMK T01300110 IEM_DS3505
ZGGG,1985-03-23 00:00,ZGGG 230000Z AUTO 00000KT 7SM 14/10 A3003 RMK 70024 T01350105 52016 IEM_DS3505
ZGGG,1985-03-23 01:00,ZGGG 230100Z AUTO 03004KT 7SM 14/10 A3006 RMK T01400100 IEM_DS3505
ZGGG,1985-03-23 02:00,ZGGG 230200Z AUTO 03004KT 7SM 15/10 A3006 RMK T01500100 IEM_DS3505
ZGGG,1985-03-23 03:00,ZGGG 230300Z AUTO 09004KT 7SM 16/10 A3006 RMK SLP193 T01560104 52003 IEM_DS3505
ZGGG,1985-03-23 04:00,ZGGG 230400Z AUTO 15008KT 7SM 17/11 A3003 RMK T01700110 IEM_DS3505
ZGGG,1985-03-23 05:00,ZGGG 230500Z AUTO 00000KT 7SM 18/12 A3000 RMK T01800120 IEM_DS3505
ZGGG,1985-03-23 06:00,ZGGG 230600Z AUTO 16006KT 6SM 19/13 A2997 RMK SLP159 T01890134 4////0131 57034 IEM_DS3505
ZGGG,1985-03-23 09:00,ZGGG 230900Z AUTO 34004KT 6SM 18/13 RMK SLP145 T01810130 57014 IEM_DS3505
ZGGG,1985-03-23 12:00,ZGGG 231200Z AUTO 00000KT 6SM 17/13 RMK SLP158 T01720131 52013 IEM_DS3505
ZGGG,1985-03-23 15:00,ZGGG 231500Z AUTO 00000KT 6SM 16/14 RMK SLP164 T01580138 52006 IEM_DS3505
ZGGG,1985-03-23 18:00,ZGGG 231800Z AUTO 16004KT 4SM 15/14 RMK SLP166 T01540139 40196//// 52002 IEM_DS3505
ZGGG,1985-03-23 21:00,ZGGG 232100Z AUTO 07002KT 4SM 15/14 RMK SLP163 T01540136 57003 IEM_DS3505
ZGGG,1985-03-24 00:00,ZGGG 240000Z AUTO 11006KT 7SM 16/13 RMK SLP184 T01580126 52021 IEM_DS3505
ZGGG,1985-03-24 03:00,ZGGG 240300Z AUTO 09004KT 7SM 17/13 RMK SLP194 T01680126 52010 IEM_DS3505
ZGGG,1985-03-24 06:00,ZGGG 240600Z AUTO 09006KT 7SM 20/14 RMK SLP164 T01970137 4////0147 57030 IEM_DS3505
ZGGG,1985-03-24 09:00,ZGGG 240900Z AUTO 00000KT 5SM 20/14 RMK SLP160 T01990136 57004 IEM_DS3505
ZGGG,1985-03-24 12:00,ZGGG 241200Z AUTO 00000KT 5SM 19/15 RMK SLP167 T01890154 52007 IEM_DS3505
ZGGG,1985-03-24 15:00,ZGGG 241500Z AUTO 00000KT 5SM 18/16 RMK SLP183 T01810159 52016 IEM_DS3505
ZGGG,1985-03-24 18:00,ZGGG 241800Z AUTO 00000KT 5SM 18/16 RMK SLP165 T01760159 40205//// 57018 IEM_DS3505
ZGGG,1985-03-24 21:00,ZGGG 242100Z AUTO 00000KT 5SM 18/16 RMK SLP158 T01770158 57007 IEM_DS3505
ZGGG,1985-03-25 00:00,ZGGG 250000Z AUTO 00000KT 4SM 18/16 RMK SLP176 T01810164 52018 IEM_DS3505
ZGGG,1985-03-25 03:00,ZGGG 250300Z AUTO 00000KT 6SM 21/17 RMK SLP181 T02140173 52005 IEM_DS3505
ZGGG,1985-03-25 06:00,ZGGG 250600Z AUTO 11004KT 5SM 24/19 RMK SLP151 T02410193 4////0173 57030 IEM_DS3505
ZGGG,1985-03-25 09:00,ZGGG 250900Z AUTO 00000KT 4SM 23/20 RMK SLP140 T02340195 57011 IEM_DS3505
ZGGG,1985-03-25 12:00,ZGGG 251200Z AUTO 00000KT 2 1/2SM 22/20 RMK SLP149 T02190199 52009 IEM_DS3505
ZGGG,1985-03-25 15:00,ZGGG 251500Z AUTO 00000KT 4SM 21/20 RMK SLP164 T02140198 52015 IEM_DS3505
ZGGG,1985-03-25 18:00,ZGGG 251800Z AUTO 00000KT 2 1/2SM 20/19 RMK SLP152 T02020187 40244//// 57012 IEM_DS3505
ZGGG,1985-03-25 21:00,ZGGG 252100Z AUTO 00000KT 2 1/2SM 20/18 RMK SLP140 T01960182 57012 IEM_DS3505
ZGGG,1985-03-26 00:00,ZGGG 260000Z AUTO 00000KT 2 1/2SM 20/18 RMK SLP148 T02000184 52008 IEM_DS3505
ZGGG,1985-03-26 03:00,ZGGG 260300Z AUTO 00000KT 2SM 22/18 RMK SLP151 T02150184 52003 IEM_DS3505
ZGGG,1985-03-26 05:00,ZGGG 260500Z AUTO 14006KT 2 1/2SM 23/20 A2988 RMK T02300200 IEM_DS3505
ZGGG,1985-03-26 06:00,ZGGG 260600Z AUTO 20006KT 2 1/2SM 23/20 A2985 RMK SLP120 T02300198 4////0194 57030 IEM_DS3505
ZGGG,1985-03-26 07:00,ZGGG 260700Z AUTO 15010KT 2 1/2SM 23/20 A2983 RMK T02300200 IEM_DS3505
ZGGG,1985-03-26 08:00,ZGGG 260800Z AUTO 16010KT 2 1/2SM 23/20 A2980 RMK T02300200 IEM_DS3505
ZGGG,1985-03-26 09:00,ZGGG 260900Z AUTO 00000KT 2SM 22/21 A2980 RMK SLP105 T02200211 57016 IEM_DS3505
ZGGG,1985-03-26 12:00,ZGGG 261200Z AUTO 14004KT 2SM 22/21 RMK 60001 SLP097 T02160207 57008 IEM_DS3505
ZGGG,1985-03-26 15:00,ZGGG 261500Z AUTO 11004KT 2SM 21/21 RMK SLP109 T02140207 52012 IEM_DS3505
ZGGG,1985-03-26 18:00,ZGGG 261800Z AUTO 00000KT 4SM 21/20 RMK SLP094 T02110205 40235//// 57015 IEM_DS3505
ZGGG,1985-03-26 21:00,ZGGG 262100Z AUTO 00000KT 2SM 21/20 RMK SLP080 T02080204 57014 IEM_DS3505
ZGGG,1985-03-27 00:00,ZGGG 270000Z AUTO 09002KT 1 1/4SM 21/20 RMK 60008 SLP084 T02080205 52004 IEM_DS3505
ZGGG,1985-03-27 03:00,ZGGG 270300Z AUTO 00000KT 5SM 21/20 RMK SLP087 T02080196 52003 IEM_DS3505
ZGGG,1985-03-27 06:00,ZGGG 270600Z AUTO 09002KT 2 1/2SM 22/21 RMK 60094 SLP069 T02170211 4////0201 57018 IEM_DS3505
ZGGG,1985-03-27 09:00,ZGGG 270900Z AUTO 09004KT 1 1/4SM 22/21 RMK SLP053 T02170211 57016 IEM_DS3505
ZGGG,1985-03-27 12:00,ZGGG 271200Z AUTO 14004KT 2 1/2SM 22/21 RMK 60000 SLP056 T02160210 52003 IEM_DS3505
ZGGG,1985-03-27 15:00,ZGGG 271500Z AUTO 09002KT 2 1/2SM 22/21 RMK SLP071 T02160210 52015 IEM_DS3505
ZGGG,1985-03-27 18:00,ZGGG 271800Z AUTO 04006KT 3SM 21/21 RMK SLP066 T02140210 40222//// 57005 IEM_DS3505
ZGGG,1985-03-27 21:00,ZGGG 272100Z AUTO 00000KT 3SM 21/21 RMK SLP061 T02130210 57005 IEM_DS3505
ZGGG,1985-03-28 00:00,ZGGG 280000Z AUTO 00000KT 1 1/4SM 22/21 RMK 60001 SLP086 T02160213 52025 IEM_DS3505
ZGGG,1985-03-28 03:00,ZGGG 280300Z AUTO 00000KT 1 1/4SM 23/22 RMK SLP090 T02270223 52004 IEM_DS3505
ZGGG,1985-03-28 06:00,ZGGG 280600Z AUTO 00000KT 1 1/4SM 24/23 RMK 60001 SLP078 T02350229 4////0211 57012 IEM_DS3505
ZGGG,1985-03-28 09:00,ZGGG 280900Z AUTO 07004KT 1 1/4SM 24/23 RMK SLP066 T02440233 57012 IEM_DS3505
ZGGG,1985-03-28 12:00,ZGGG 281200Z AUTO 07004KT 1 1/4SM 23/22 RMK 60000 SLP087 T02310224 52021 IEM_DS3505
ZGGG,1985-03-28 15:00,ZGGG 281500Z AUTO 09006KT 1 1/4SM 23/22 RMK SLP095 T02260218 52008 IEM_DS3505
ZGGG,1985-03-28 18:00,ZGGG 281800Z AUTO 36002KT 7SM 20/20 RMK 60157 SLP106 T02050198 40245//// 52011 IEM_DS3505
ZGGG,1985-03-28 21:00,ZGGG 282100Z AUTO 36008KT 6SM 20/17 RMK SLP123 T02000166 52017 IEM_DS3505
ZGGG,1985-03-29 00:00,ZGGG 290000Z AUTO 07006KT 7SM 18/15 RMK 60004 SLP144 T01820147 52021 IEM_DS3505
ZGGG,1985-03-29 03:00,ZGGG 290300Z AUTO 36004KT 7SM 19/14 RMK SLP170 T01860137 52026 IEM_DS3505
ZGGG,1985-03-29 06:00,ZGGG 290600Z AUTO 34004KT 2SM 16/15 RMK 60031 SLP180 T01600147 4////0157 52010 IEM_DS3505
ZGGG,1985-03-29 09:00,ZGGG 290900Z AUTO 04006KT 7SM 18/15 RMK SLP146 T01790152 57034 IEM_DS3505
ZGGG,1985-03-29 12:00,ZGGG 291200Z AUTO 00000KT 7SM 16/13 RMK 60012 SLP176 T01650129 52030 IEM_DS3505
ZGGG,1985-03-29 15:00,ZGGG 291500Z AUTO 00000KT 7SM 16/12 RMK SLP203 T01570122 52027 IEM_DS3505
ZGGG,1985-03-29 18:00,ZGGG 291800Z AUTO 36008KT 5SM 14/11 RMK SLP195 T01390109 40209//// 57008 IEM_DS3505
ZGGG,1985-03-29 21:00,ZGGG 292100Z AUTO 36004KT 5SM 14/11 RMK SLP187 T01380110 57008 IEM_DS3505
ZGGG,1985-03-29 23:00,ZGGG 292300Z AUTO 03008KT 7SM 14/11 A3009 RMK T01400110 IEM_DS3505
ZGGG,1985-03-30 00:00,ZGGG 300000Z AUTO 02004KT 2 1/2SM 13/12 A3012 RMK 60004 SLP212 T01330116 52025 IEM_DS3505
ZGGG,1985-03-30 01:00,ZGGG 300100Z AUTO 02010KT 2 1/2SM 13/12 A3012 RMK T01300120 IEM_DS3505
ZGGG,1985-03-30 02:00,ZGGG 300200Z AUTO 36010KT 2 1/2SM 13/12 A3012 RMK T01300120 IEM_DS3505
ZGGG,1985-03-30 03:00,ZGGG 300300Z AUTO 36004KT 2SM 13/12 A3015 RMK SLP224 T01280116 52012 IEM_DS3505
ZGGG,1985-03-30 04:00,ZGGG 300400Z AUTO 01010KT 2 1/2SM 13/12 A3015 RMK T01300120 IEM_DS3505
ZGGG,1985-03-30 05:00,ZGGG 300500Z AUTO 01014KT 3SM 13/12 A3012 RMK T01300120 IEM_DS3505
ZGGG,1985-03-30 06:00,ZGGG 300600Z AUTO 36006KT 2 1/2SM 13/12 A3012 RMK 60039 SLP209 T01270115 4////0127 57015 IEM_DS3505
ZGGG,1985-03-30 07:00,ZGGG 300700Z AUTO 01014KT 7SM 13/12 RMK T01300120 IEM_DS3505
ZGGG,1985-03-30 08:00,ZGGG 300800Z AUTO 01014KT 7SM 13/10 A3009 RMK T01300100 IEM_DS3505
ZGGG,1985-03-30 09:00,ZGGG 300900Z AUTO 36012KT 5SM 12/10 A3009 RMK SLP210 T01250102 52001 IEM_DS3505
ZGGG,1985-03-30 10:00,ZGGG 301000Z AUTO 36016KT 7SM 12/10 A3012 RMK T01200100 IEM_DS3505
ZGGG,1985-03-30 12:00,ZGGG 301200Z AUTO 04008KT 6SM 12/08 RMK SLP227 T01190082 52017 IEM_DS3505
ZGGG,1985-03-30 15:00,ZGGG 301500Z AUTO 00000KT 6SM 11/08 RMK SLP242 T01120082 52013 IEM_DS3505
ZGGG,1985-03-30 18:00,ZGGG 301800Z AUTO 02004KT 6SM 10/08 RMK 60004 SLP238 T01050083 40141//// 57002 IEM_DS3505
ZGGG,1985-03-30 21:00,ZGGG 302100Z AUTO 36006KT 6SM 10/08 RMK SLP237 T01040077 57001 IEM_DS3505
ZGGG,1985-03-31 00:00,ZGGG 310000Z AUTO 36004KT 9SM 11/07 RMK 60002 SLP256 T01090069 52019 IEM_DS3505
ZGGG,1985-03-31 03:00,ZGGG 310300Z AUTO 34006KT 9SM 12/07 RMK SLP265 T01210070 52009 IEM_DS3505
ZGGG,1985-03-31 06:00,ZGGG 310600Z AUTO 36008KT 10SM 14/08 RMK 60000 SLP238 T01380081 4////0101 57027 IEM_DS3505
ZGGG,1985-03-31 09:00,ZGGG 310900Z AUTO 36002KT 11SM 15/09 RMK SLP229 T01480089 57009 IEM_DS3505
ZGGG,1985-03-31 12:00,ZGGG 311200Z AUTO 00000KT 7SM 14/11 RMK SLP238 T01440109 52009 IEM_DS3505
ZGGG,1985-03-31 15:00,ZGGG 311500Z AUTO 07002KT 6SM 14/10 RMK SLP252 T01410102 52014 IEM_DS3505
ZGGG,1985-03-31 18:00,ZGGG 311800Z AUTO 00000KT 6SM 13/11 RMK 60001 SLP236 T01320109 40154//// 57016 IEM_DS3505
ZGGG,1985-03-31 21:00,ZGGG 312100Z AUTO 00000KT 6SM 13/12 RMK SLP224 T01300116 57012 IEM_DS3505
ZGGG,1985-04-01 00:00,ZGGG 010000Z AUTO 00000KT 9SM 13/10 RMK SLP236 T01320100 52012 IEM_DS3505
ZGGG,1985-04-01 03:00,ZGGG 010300Z AUTO 34004KT 7SM 13/09 RMK SLP245 T01320094 52009 IEM_DS3505
ZGGG,1985-04-01 06:00,ZGGG 010600Z AUTO 24006KT 7SM 12/10 RMK SLP226 T01250097 57029 IEM_DS3505
ZGGG,1985-04-01 09:00,ZGGG 010900Z AUTO 36006KT 6SM 12/10 RMK SLP206 T01250102 57010 IEM_DS3505
ZGGG,1985-04-01 12:00,ZGGG 011200Z AUTO 34002KT 5SM 12/11 RMK SLP208 T01220108 52002 IEM_DS3505
ZGGG,1985-04-01 15:00,ZGGG 011500Z AUTO 00000KT 6SM 13/11 RMK SLP209 T01270113 52001 IEM_DS3505
ZGGG,1985-04-01 18:00,ZGGG 011800Z AUTO 00000KT 4SM 13/11 RMK SLP191 T01260110 40146//// 57018 IEM_DS3505
ZGGG,1985-04-01 21:00,ZGGG 012100Z AUTO 00000KT 5SM 12/11 RMK SLP176 T01240112 57015 IEM_DS3505
ZGGG,1985-04-02 00:00,ZGGG 020000Z AUTO 34002KT 5SM 13/11 RMK SLP193 T01270113 52017 IEM_DS3505
ZGGG,1985-04-02 03:00,ZGGG 020300Z AUTO 00000KT 4SM 14/12 RMK SLP192 T01410121 57001 IEM_DS3505
ZGGG,1985-04-02 04:00,ZGGG 020400Z AUTO 36006KT 7SM 14/12 A3003 RMK T01400120 IEM_DS3505
ZGGG,1985-04-02 05:00,ZGGG 020500Z AUTO 36008KT 2SM 14/13 A3000 RMK T01400130 IEM_DS3505
ZGGG,1985-04-02 06:00,ZGGG 020600Z AUTO 36002KT 2 1/2SM 14/13 RMK SLP158 T01390127 4////0122 57034 IEM_DS3505
ZGGG,1985-04-02 07:00,ZGGG 020700Z AUTO 01008KT 3SM 14/13 A2994 RMK T01400130 IEM_DS3505
ZGGG,1985-04-02 08:00,ZGGG 020800Z AUTO 02006KT 5SM 14/13 A2991 RMK T01400130 IEM_DS3505
ZGGG,1985-04-02 09:00,ZGGG 020900Z AUTO 36004KT 2SM 14/13 A2991 RMK SLP141 T01440127 57017 IEM_DS3505
ZGGG,1985-04-02 10:00,ZGGG 021000Z AUTO 01004KT 4SM 14/14 A2991 RMK T01400140 IEM_DS3505
ZGGG,1985-04-02 11:00,ZGGG 021100Z AUTO 36002KT 2 1/2SM 14/14 A2991 RMK T01400140 IEM_DS3505
ZGGG,1985-04-02 12:00,ZGGG 021200Z AUTO 00000KT 2SM 14/13 RMK SLP154 T01450133 52013 IEM_DS3505
ZGGG,1985-04-02 15:00,ZGGG 021500Z AUTO 00000KT 2SM 14/14 RMK SLP168 T01430135 52014 IEM_DS3505
ZGGG,1985-04-02 18:00,ZGGG 021800Z AUTO 00000KT 2 1/2SM 14/14 RMK 60024 SLP163 T01390136 40148//// 57005 IEM_DS3505
ZGGG,1985-04-02 21:00,ZGGG 022100Z AUTO 00000KT 2 1/2SM 14/13 RMK SLP148 T01390134 57015 IEM_DS3505
ZGGG,1985-04-03 00:00,ZGGG 030000Z AUTO 00000KT 5SM 15/14 RMK 60008 SLP162 T01470140 52014 IEM_DS3505
ZGGG,1985-04-03 03:00,ZGGG 030300Z AUTO 36004KT 5SM 17/14 RMK SLP172 T01660143 52010 IEM_DS3505
ZGGG,1985-04-03 06:00,ZGGG 030600Z AUTO 36004KT 8SM 16/14 RMK 60002 SLP158 T01600139 4////0138 57014 IEM_DS3505
ZGGG,1985-04-03 09:00,ZGGG 030900Z AUTO 36002KT 8SM 17/14 RMK SLP147 T01700144 57011 IEM_DS3505
ZGGG,1985-04-03 12:00,ZGGG 031200Z AUTO 00000KT 4SM 16/15 RMK 60000 SLP151 T01640150 52004 IEM_DS3505
ZGGG,1985-04-03 15:00,ZGGG 031500Z AUTO 00000KT 4SM 16/15 RMK SLP157 T01560148 52006 IEM_DS3505
ZGGG,1985-04-03 18:00,ZGGG 031800Z AUTO 00000KT 4SM 15/15 RMK SLP151 T01490146 40174//// 57006 IEM_DS3505
ZGGG,1985-04-03 21:00,ZGGG 032100Z AUTO 00000KT 3SM 16/14 RMK SLP154 T01560141 52003 IEM_DS3505
ZGGG,1985-04-04 00:00,ZGGG 040000Z AUTO 00000KT 6SM 15/14 RMK 60012 SLP179 T01520142 52025 IEM_DS3505
ZGGG,1985-04-04 03:00,ZGGG 040300Z AUTO 00000KT 6SM 16/14 RMK SLP185 T01640141 52006 IEM_DS3505
ZGGG,1985-04-04 06:00,ZGGG 040600Z AUTO 00000KT 6SM 20/14 RMK 60000 SLP155 T01990143 4////0147 57030 IEM_DS3505
ZGGG,1985-04-04 09:00,ZGGG 040900Z AUTO 29006KT 6SM 19/16 RMK SLP143 T01930155 57012 IEM_DS3505
ZGGG,1985-04-04 12:00,ZGGG 041200Z AUTO 00000KT 5SM 18/16 RMK SLP157 T01830158 52014 IEM_DS3505
ZGGG,1985-04-04 15:00,ZGGG 041500Z AUTO 00000KT 4SM 18/17 RMK SLP164 T01800166 52007 IEM_DS3505
ZGGG,1985-04-04 18:00,ZGGG 041800Z AUTO 00000KT 4SM 18/16 RMK SLP156 T01770158 40207//// 57008 IEM_DS3505
ZGGG,1985-04-04 21:00,ZGGG 042100Z AUTO 07004KT 4SM 17/15 RMK SLP146 T01720151 57010 IEM_DS3505
ZGGG,1985-04-05 00:00,ZGGG 050000Z AUTO 00000KT 5SM 17/15 RMK SLP166 T01740153 52020 IEM_DS3505
ZGGG,1985-04-05 03:00,ZGGG 050300Z AUTO 00000KT 5SM 20/14 RMK SLP162 T01950137 57004 IEM_DS3505
ZGGG,1985-04-05 06:00,ZGGG 050600Z AUTO 00000KT 4SM 22/16 RMK SLP137 T02220159 4////0170 57025 IEM_DS3505
ZGGG,1985-04-05 09:00,ZGGG 050900Z AUTO 00000KT 2 1/2SM 22/18 RMK SLP121 T02210176 57016 IEM_DS3505
ZGGG,1985-04-05 12:00,ZGGG 051200Z AUTO 18006KT 2 1/2SM 20/18 RMK SLP138 T02050179 52017 IEM_DS3505
ZGGG,1985-04-05 15:00,ZGGG 051500Z AUTO 00000KT 2 1/2SM 20/18 RMK SLP150 T01960181 52012 IEM_DS3505
ZGGG,1985-04-05 18:00,ZGGG 051800Z AUTO 00000KT 2 1/2SM 19/18 RMK 60002 SLP139 T01860177 40226//// 57011 IEM_DS3505
ZGGG,1985-04-05 21:00,ZGGG 052100Z AUTO 00000KT 2 1/2SM 19/18 RMK SLP124 T01860178 57015 IEM_DS3505
ZGGG,1985-04-06 00:00,ZGGG 060000Z AUTO 16002KT 1 1/4SM 19/18 RMK 60002 SLP130 T01890177 52006 IEM_DS3505
ZGGG,1985-04-06 03:00,ZGGG 060300Z AUTO 00000KT 2SM 21/18 A2985 RMK SLP126 T02080179 57004 IEM_DS3505
ZGGG,1985-04-06 04:00,ZGGG 060400Z AUTO 00000KT 1 1/2SM 21/18 A2985 RMK T02100180 IEM_DS3505
ZGGG,1985-04-06 06:00,ZGGG 060600Z AUTO 00000KT 9SM 22/18 RMK SLP104 T02200184 4////0184 57022 IEM_DS3505
ZGGG,1985-04-06 07:00,ZGGG 060700Z AUTO 03006KT 1 1/4SM 21/19 A2977 RMK T02100190 IEM_DS3505
ZGGG,1985-04-06 08:00,ZGGG 060800Z AUTO 00000KT 1SM 21/19 A2974 RMK T02100190 IEM_DS3505
ZGGG,1985-04-06 09:00,ZGGG 060900Z AUTO 00000KT 1 1/4SM 22/19 RMK SLP082 T02150191 57022 IEM_DS3505
ZGGG,1985-04-06 10:00,ZGGG 061000Z AUTO 02008KT 1/2SM 20/19 A2974 RMK T02000190 IEM_DS3505
ZGGG,1985-04-06 12:00,ZGGG 061200Z AUTO 00000KT 1 1/4SM 21/19 RMK SLP091 T02070192 52009 IEM_DS3505
ZGGG,1985-04-06 18:00,ZGGG 061800Z AUTO 36004KT 1 1/4SM 20/19 RMK 60002 SLP086 T01990190 40225//// 57014 IEM_DS3505
ZGGG,1985-04-06 21:00,ZGGG 062100Z AUTO 34004KT 2 1/2SM 19/18 RMK SLP077 T01920180 57009 IEM_DS3505
ZGGG,1985-04-07 00:00,ZGGG 070000Z AUTO 00000KT 7SM 19/18 RMK SLP086 T01930181 52009 IEM_DS3505
ZGGG,1985-04-07 03:00,ZGGG 070300Z AUTO 29002KT 8SM 22/17 RMK SLP087 T02230170 52001 IEM_DS3505
ZGGG,1985-04-07 06:00,ZGGG 070600Z AUTO 27006KT 12SM 26/18 RMK SLP058 T02600177 4////0186 57029 IEM_DS3505
ZGGG,1985-04-07 09:00,ZGGG 070900Z AUTO 27004KT 12SM 26/18 RMK SLP046 T02640175 57012 IEM_DS3505
ZGGG,1985-04-07 12:00,ZGGG 071200Z AUTO 00000KT 9SM 22/19 RMK SLP052 T02220188 52006 IEM_DS3505
ZGGG,1985-04-07 15:00,ZGGG 071500Z AUTO 00000KT 8SM 20/19 RMK SLP067 T02010189 52015 IEM_DS3505
ZGGG,1985-04-07 18:00,ZGGG 071800Z AUTO 09002KT 8SM 21/19 RMK SLP055 T02060188 40265//// 57012 IEM_DS3505
ZGGG,1985-04-07 21:00,ZGGG 072100Z AUTO 00000KT 8SM 21/19 RMK SLP057 T02060190 52002 IEM_DS3505
ZGGG,1985-04-08 00:00,ZGGG 080000Z AUTO 09002KT 4SM 21/19 RMK SLP065 T02120194 52008 IEM_DS3505
ZGGG,1985-04-08 03:00,ZGGG 080300Z AUTO 14004KT 5SM 24/20 RMK SLP070 T02360197 52005 IEM_DS3505
ZGGG,1985-04-08 06:00,ZGGG 080600Z AUTO 11006KT 4SM 23/19 RMK SLP060 T02280194 4////0202 57010 IEM_DS3505
ZGGG,1985-04-08 09:00,ZGGG 080900Z AUTO 11006KT 2SM 21/21 RMK SLP049 T02120208 57011 IEM_DS3505
ZGGG,1985-04-08 12:00,ZGGG 081200Z AUTO 11006KT 2SM 22/21 RMK 60001 SLP052 T02150208 52003 IEM_DS3505
ZGGG,1985-04-08 15:00,ZGGG 081500Z AUTO 11004KT 2SM 21/20 RMK SLP061 T02110205 52009 IEM_DS3505
ZGGG,1985-04-08 18:00,ZGGG 081800Z AUTO 09004KT 2SM 21/20 RMK 60002 SLP054 T02070203 40242//// 57007 IEM_DS3505
ZGGG,1985-04-08 21:00,ZGGG 082100Z AUTO 11004KT 2SM 21/20 RMK SLP050 T02080204 57004 IEM_DS3505
ZGGG,1985-04-09 00:00,ZGGG 090000Z AUTO 14002KT 2SM 21/21 RMK 60004 SLP067 T02100206 52017 IEM_DS3505
ZGGG,1985-04-09 03:00,ZGGG 090300Z AUTO 14006KT 2SM 20/19 RMK SLP077 T01990193 52010 IEM_DS3505
ZGGG,1985-04-09 05:00,ZGGG 090500Z AUTO 13010KT 4SM 21/20 A2968 RMK T02100200 IEM_DS3505
ZGGG,1985-04-09 06:00,ZGGG 090600Z AUTO 11008KT 2 1/2SM 21/20 A2962 RMK 60063 SLP053 T02080198 4////0195 57024 IEM_DS3505
ZGGG,1985-04-09 07:00,ZGGG 090700Z AUTO 14019KT 4SM 21/20 A2962 RMK T02100200 IEM_DS3505
ZGGG,1985-04-09 09:00,ZGGG 090900Z AUTO 11008KT 4SM 21/20 RMK SLP040 T02140202 57013 IEM_DS3505
ZGGG,1985-04-09 10:00,ZGGG 091000Z AUTO 14010KT 7SM 22/20 A2962 RMK T02200200 IEM_DS3505
ZGGG,1985-04-09 12:00,ZGGG 091200Z AUTO 11006KT 4SM 21/20 RMK 60004 SLP052 T02100195 52012 IEM_DS3505
ZGGG,1985-04-09 18:00,ZGGG 091800Z AUTO 00000KT 4SM 21/19 RMK SLP061 T02070192 40217//// 57009 IEM_DS3505
ZGGG,1985-04-09 21:00,ZGGG 092100Z AUTO 07004KT 4SM 21/20 RMK SLP061 T02060196 54000 IEM_DS3505
ZGGG,1985-04-10 00:00,ZGGG 100000Z AUTO 16002KT 2SM 22/21 RMK 60001 SLP061 T02160209 54000 IEM_DS3505
ZGGG,1985-04-10 03:00,ZGGG 100300Z AUTO 00000KT 7SM 19/19 RMK SLP066 T01940190 52005 IEM_DS3505
ZGGG,1985-04-10 06:00,ZGGG 100600Z AUTO 14006KT 2 1/2SM 23/21 RMK 60071 SLP040 T02280212 4////0177 57026 IEM_DS3505
ZGGG,1985-04-10 09:00,ZGGG 100900Z AUTO 09004KT 4SM 22/20 RMK SLP036 T02200201 57004 IEM_DS3505
ZGGG,1985-04-10 15:00,ZGGG 101500Z AUTO 07004KT 5SM 21/20 RMK SLP071 T02110202 52018 IEM_DS3505
ZGGG,1985-04-10 18:00,ZGGG 101800Z AUTO 00000KT 7SM 22/20 RMK SLP071 T02180201 40242//// 54000 IEM_DS3505
ZGGG,1985-04-10 21:00,ZGGG 102100Z AUTO 07002KT 7SM 21/19 RMK SLP073 T02080189 52002 IEM_DS3505
ZGGG,1985-04-11 00:00,ZGGG 110000Z AUTO 34002KT 8SM 21/19 RMK 70150 SLP095 T02130188 52022 IEM_DS3505
ZGGG,1985-04-11 06:00,ZGGG 110600Z AUTO 36006KT 11SM 25/19 RMK SLP088 T02460186 4////0200 57022 IEM_DS3505
ZGGG,1985-04-11 09:00,ZGGG 110900Z AUTO 36006KT 11SM 25/18 RMK SLP073 T02480176 57015 IEM_DS3505
ZGGG,1985-04-11 12:00,ZGGG 111200Z AUTO 36004KT 9SM 23/17 RMK SLP086 T02300169 52013 IEM_DS3505
ZGGG,1985-04-11 15:00,ZGGG 111500Z AUTO 36004KT 7SM 22/17 RMK SLP102 T02230167 52016 IEM_DS3505
ZGGG,1985-04-11 18:00,ZGGG 111800Z AUTO 36004KT 7SM 21/16 RMK SLP095 T02110162 40260//// 57007 IEM_DS3505
ZGGG,1985-04-11 21:00,ZGGG 112100Z AUTO 07006KT 7SM 19/16 RMK SLP079 T01940160 57016 IEM_DS3505
ZGGG,1985-04-12 00:00,ZGGG 120000Z AUTO 09004KT 7SM 19/16 RMK 60001 SLP092 T01870164 52013 IEM_DS3505
ZGGG,1985-04-12 03:00,ZGGG 120300Z AUTO 11004KT 6SM 19/17 RMK SLP095 T01870167 52003 IEM_DS3505
ZGGG,1985-04-12 06:00,ZGGG 120600Z AUTO 09004KT 5SM 18/16 RMK 60079 SLP088 T01760165 4////0170 57007 IEM_DS3505
ZGGG,1985-04-12 09:00,ZGGG 120900Z AUTO 09008KT 5SM 18/16 RMK SLP062 T01810164 57026 IEM_DS3505
ZGGG,1985-04-12 12:00,ZGGG 121200Z AUTO 07004KT 7SM 18/16 RMK 60008 SLP083 T01760164 52021 IEM_DS3505
ZGGG,1985-04-12 15:00,ZGGG 121500Z AUTO 07004KT 4SM 18/17 RMK SLP095 T01760170 52012 IEM_DS3505
ZGGG,1985-04-12 18:00,ZGGG 121800Z AUTO 11006KT 2 1/2SM 18/17 RMK 60039 SLP093 T01760168 40211//// 57002 IEM_DS3505
ZGGG,1985-04-12 21:00,ZGGG 122100Z AUTO 04006KT 2 1/2SM 18/17 RMK SLP073 T01760167 57020 IEM_DS3505
ZGGG,1985-04-13 00:00,ZGGG 130000Z AUTO 00000KT 1 1/4SM RMK 60004 SLP098 52025 IEM_DS3505
ZGGG,1985-04-13 03:00,ZGGG 130300Z AUTO 36002KT 1 1/4SM 18/17 RMK SLP128 T01780172 52030 IEM_DS3505
ZGGG,1985-04-13 06:00,ZGGG 130600Z AUTO 09006KT 2SM 18/18 RMK 60035 SLP096 T01820176 4////0172 57032 IEM_DS3505
ZGGG,1985-04-13 09:00,ZGGG 130900Z AUTO 36004KT 5SM 18/17 RMK SLP096 T01820167 54000 IEM_DS3505
ZGGG,1985-04-13 12:00,ZGGG 131200Z AUTO 36004KT 7SM 18/17 RMK 60001 SLP114 T01810166 52018 IEM_DS3505
ZGGG,1985-04-13 15:00,ZGGG 131500Z AUTO 36004KT 7SM 18/16 RMK SLP129 T01790163 52015 IEM_DS3505
ZGGG,1985-04-13 18:00,ZGGG 131800Z AUTO 02006KT 2 1/2SM 17/16 RMK 60016 SLP118 T01700159 40192//// 57011 IEM_DS3505
ZGGG,1985-04-13 21:00,ZGGG 132100Z AUTO 36004KT 2 1/2SM 17/16 RMK SLP114 T01670162 57004 IEM_DS3505
ZGGG,1985-04-14 00:00,ZGGG 140000Z AUTO 34004KT 2 1/2SM 16/15 RMK 60020 SLP132 T01640154 52018 IEM_DS3505
ZGGG,1985-04-14 03:00,ZGGG 140300Z AUTO 36006KT 2SM 16/16 RMK SLP143 T01630157 52011 IEM_DS3505
ZGGG,1985-04-14 05:00,ZGGG 140500Z AUTO 36006KT 7SM 17/16 RMK SLP122 T01720155 57008 IEM_DS3505
ZGGG,1985-04-14 06:00,ZGGG 140600Z AUTO 36004KT 2 1/2SM 17/15 RMK 60016 SLP130 T01660152 4////0160 57013 IEM_DS3505
ZGGG,1985-04-14 09:00,ZGGG 140900Z AUTO 36006KT 7SM 17/16 RMK SLP122 T01720155 57008 IEM_DS3505
ZGGG,1985-04-14 12:00,ZGGG 141200Z AUTO 36002KT 5SM 17/15 RMK 60000 SLP138 T01670154 52016 IEM_DS3505
ZGGG,1985-04-14 15:00,ZGGG 141500Z AUTO 00000KT 4SM 17/16 RMK SLP150 T01680159 52012 IEM_DS3505
ZGGG,1985-04-14 18:00,ZGGG 141800Z AUTO 36002KT 5SM 16/16 RMK 60012 SLP142 T01630157 40175//// 57008 IEM_DS3505
ZGGG,1985-04-14 21:00,ZGGG 142100Z AUTO 00000KT 5SM 16/15 RMK SLP140 T01570152 57002 IEM_DS3505
ZGGG,1985-04-15 00:00,ZGGG 150000Z AUTO 00000KT 6SM 16/16 RMK 60039 SLP160 T01610156 52020 IEM_DS3505
ZGGG,1985-04-15 03:00,ZGGG 150300Z AUTO 00000KT 5SM 17/16 RMK SLP168 T01740161 52008 IEM_DS3505
ZGGG,1985-04-15 06:00,ZGGG 150600Z AUTO 32004KT 2SM 17/16 RMK 60001 SLP155 T01710162 4////0155 57013 IEM_DS3505
ZGGG,1985-04-15 09:00,ZGGG 150900Z AUTO 36004KT 2SM 18/16 RMK SLP147 T01750163 57008 IEM_DS3505
ZGGG,1985-04-15 12:00,ZGGG 151200Z AUTO 27002KT 2SM 17/16 RMK 60004 SLP167 T01670161 52020 IEM_DS3505
ZGGG,1985-04-15 15:00,ZGGG 151500Z AUTO 32002KT 4SM 16/16 RMK SLP170 T01650160 52003 IEM_DS3505
ZGGG,1985-04-15 18:00,ZGGG 151800Z AUTO 36002KT 9SM 16/15 RMK 60008 SLP159 T01650154 40175//// 57011 IEM_DS3505
ZGGG,1985-04-15 21:00,ZGGG 152100Z AUTO 00000KT 9SM 17/15 RMK SLP158 T01660153 57001 IEM_DS3505
ZGGG,1985-04-16 00:00,ZGGG 160000Z AUTO 36002KT 7SM 18/15 RMK SLP175 T01810154 52017 IEM_DS3505
ZGGG,1985-04-16 03:00,ZGGG 160300Z AUTO 02006KT 11SM 21/14 RMK SLP176 T02120144 52001 IEM_DS3505
ZGGG,1985-04-16 04:00,ZGGG 160400Z AUTO 03010KT 7SM 22/15 A3000 RMK T02200150 IEM_DS3505
ZGGG,1985-04-16 05:00,ZGGG 160500Z AUTO 34004KT 7SM 23/16 A2997 RMK T02300160 IEM_DS3505
ZGGG,1985-04-16 06:00,ZGGG 160600Z AUTO 07006KT 9SM 24/15 A2991 RMK SLP142 T02410151 4////0162 57034 IEM_DS3505
ZGGG,1985-04-16 07:00,ZGGG 160700Z AUTO 31010KT 7SM 24/17 A2988 RMK T02400170 IEM_DS3505
ZGGG,1985-04-16 08:00,ZGGG 160800Z AUTO 31008KT 7SM 24/17 A2988 RMK T02400170 IEM_DS3505
ZGGG,1985-04-16 09:00,ZGGG 160900Z AUTO 32004KT 8SM 25/16 A2988 RMK SLP130 T02480158 57012 IEM_DS3505
ZGGG,1985-04-16 10:00,ZGGG 161000Z AUTO 32006KT 6SM 24/16 A2988 RMK T02400160 IEM_DS3505
ZGGG,1985-04-16 11:00,ZGGG 161100Z AUTO 12002KT 6SM 23/18 A2988 RMK T02300180 IEM_DS3505
ZGGG,1985-04-16 12:00,ZGGG 161200Z AUTO 16002KT 6SM 22/18 A2988 RMK SLP142 T02240178 52012 IEM_DS3505
ZGGG,1985-04-16 15:00,ZGGG 161500Z AUTO 00000KT 5SM 21/19 RMK SLP154 T02110187 52012 IEM_DS3505
ZGGG,1985-04-16 18:00,ZGGG 161800Z AUTO 14002KT 5SM 20/18 RMK SLP157 T02020179 40253//// 52003 IEM_DS3505
ZGGG,1985-04-16 21:00,ZGGG 162100Z AUTO 00000KT 4SM 19/18 RMK SLP148 T01870178 57009 IEM_DS3505
ZGGG,1985-04-17 00:00,ZGGG 170000Z AUTO 00000KT 2SM 20/18 RMK SLP156 T02010183 52008 IEM_DS3505
ZGGG,1985-04-17 03:00,ZGGG 170300Z AUTO 34004KT 4SM 23/18 RMK SLP160 T02320181 52004 IEM_DS3505
ZGGG,1985-04-17 06:00,ZGGG 170600Z AUTO 22002KT 5SM 26/17 RMK SLP135 T02560169 4////0184 57025 IEM_DS3505
ZGGG,1985-04-17 09:00,ZGGG 170900Z AUTO 14004KT 2 1/2SM 24/18 RMK SLP116 T02430182 57019 IEM_DS3505
ZGGG,1985-04-17 12:00,ZGGG 171200Z AUTO 00000KT 5SM 23/17 RMK SLP133 T02270171 52017 IEM_DS3505
ZGGG,1985-04-17 15:00,ZGGG 171500Z AUTO 00000KT 4SM 21/17 RMK SLP150 T02080172 52017 IEM_DS3505
ZGGG,1985-04-17 18:00,ZGGG 171800Z AUTO 00000KT 5SM 20/17 RMK SLP128 T01950171 40263//// 57022 IEM_DS3505
ZGGG,1985-04-17 21:00,ZGGG 172100Z AUTO 00000KT 5SM 18/15 RMK SLP124 T01840151 57004 IEM_DS3505
ZGGG,1985-04-18 00:00,ZGGG 180000Z AUTO 00000KT 7SM 20/15 RMK SLP134 T02040152 52010 IEM_DS3505
ZGGG,1985-04-18 03:00,ZGGG 180300Z AUTO 11002KT 11SM 25/12 RMK SLP131 T02540115 57003 IEM_DS3505
ZGGG,1985-04-18 06:00,ZGGG 180600Z AUTO 16006KT 9SM 28/14 RMK SLP100 T02780141 4////0178 57031 IEM_DS3505
ZGGG,1985-04-18 09:00,ZGGG 180900Z AUTO 16006KT 10SM 27/17 RMK SLP086 T02700168 57014 IEM_DS3505
ZGGG,1985-04-18 12:00,ZGGG 181200Z AUTO 26004KT 6SM 24/16 RMK SLP165 T02390161 52024 IEM_DS3505
ZGGG,1985-04-18 15:00,ZGGG 181500Z AUTO 14002KT 6SM 22/15 RMK SLP119 T02160154 52019 IEM_DS3505
ZGGG,1985-04-18 18:00,ZGGG 181800Z AUTO 00000KT 4SM 20/17 RMK 60002 SLP106 T02020172 40281//// 57013 IEM_DS3505
ZGGG,1985-04-18 21:00,ZGGG 182100Z AUTO 00000KT 2 1/2SM 18/17 RMK SLP107 T01840167 52001 IEM_DS3505
ZGGG,1985-04-19 00:00,ZGGG 190000Z AUTO 00000KT 6SM 20/18 RMK 60012 SLP124 T01980180 52020 IEM_DS3505
ZGGG,1985-04-19 03:00,ZGGG 190300Z AUTO 07004KT 4SM 21/19 RMK SLP123 T02060190 52006 IEM_DS3505
ZGGG,1985-04-19 06:00,ZGGG 190600Z AUTO 00000KT 2SM 20/ RMK 60008 SLP109 4////0178 57014 IEM_DS3505
ZGGG,1985-04-19 09:00,ZGGG 190900Z AUTO 00000KT 2 1/2SM 20/19 RMK SLP105 T02050193 57004 IEM_DS3505
ZGGG,1985-04-19 12:00,ZGGG 191200Z AUTO 36004KT 4SM 20/20 RMK 60031 SLP115 T02020195 52010 IEM_DS3505
ZGGG,1985-04-19 15:00,ZGGG 191500Z AUTO 00000KT 4SM 20/20 RMK SLP128 T02030197 52013 IEM_DS3505
ZGGG,1985-04-19 18:00,ZGGG 191800Z AUTO 00000KT 1 1/4SM 20/20 RMK 60012 SLP120 T02040198 40216//// 57008 IEM_DS3505
ZGGG,1985-04-19 21:00,ZGGG 192100Z AUTO 00000KT 1 1/4SM 20/20 RMK SLP115 T02020198 57005 IEM_DS3505
ZGGG,1985-04-20 00:00,ZGGG 200000Z AUTO 00000KT 2 1/2SM 21/20 RMK 60004 SLP134 T02060199 52019 IEM_DS3505
ZGGG,1985-04-20 03:00,ZGGG 200300Z AUTO 00000KT 1 1/4SM 23/20 RMK SLP141 T02320205 52007 IEM_DS3505
ZGGG,1985-04-20 06:00,ZGGG 200600Z AUTO 20004KT 3SM 26/21 RMK SLP119 T02570210 4////0198 57022 IEM_DS3505
ZGGG,1985-04-20 09:00,ZGGG 200900Z AUTO 00000KT 5SM 25/21 RMK SLP108 T02520214 57011 IEM_DS3505
ZGGG,1985-04-20 12:00,ZGGG 201200Z AUTO 00000KT 2 1/2SM 23/21 RMK 60001 SLP115 T02270214 52007 IEM_DS3505
ZGGG,1985-04-20 15:00,ZGGG 201500Z AUTO 16004KT 2 1/2SM 23/21 RMK SLP133 T02270211 52018 IEM_DS3505
ZGGG,1985-04-20 18:00,ZGGG 201800Z AUTO 00000KT 1 1/4SM 22/21 RMK SLP125 T02200211 40258//// 57008 IEM_DS3505
ZGGG,1985-04-20 21:00,ZGGG 202100Z AUTO 00000KT 1 1/4SM 21/20 RMK SLP115 T02080201 57010 IEM_DS3505
ZGGG,1985-04-21 00:00,ZGGG 210000Z AUTO 00000KT 2SM RMK SLP130 52015 IEM_DS3505
ZGGG,1985-04-21 03:00,ZGGG 210300Z AUTO 32004KT 4SM 27/21 RMK T02660214 57004 IEM_DS3505
ZGGG,1985-04-21 06:00,ZGGG 210600Z AUTO 27002KT 5SM 28/19 RMK SLP097 T02850193 4////0203 57029 IEM_DS3505
ZGGG,1985-04-21 09:00,ZGGG 210900Z AUTO 25004KT 5SM 30/19 RMK SLP079 T02950188 57018 IEM_DS3505
ZGGG,1985-04-21 12:00,ZGGG 211200Z AUTO 00000KT 7SM 25/21 RMK SLP090 T02510210 52011 IEM_DS3505
ZGGG,1985-04-21 15:00,ZGGG 211500Z AUTO 11004KT 4SM 23/22 RMK SLP113 T02340220 52023 IEM_DS3505
ZGGG,1985-04-21 18:00,ZGGG 211800Z AUTO 09002KT 5SM 22/21 RMK SLP110 T02220211 40298//// 57003 IEM_DS3505
ZGGG,1985-04-21 21:00,ZGGG 212100Z AUTO 09004KT 5SM 22/21 RMK SLP099 T02180212 57011 IEM_DS3505
ZGGG,1985-04-22 00:00,ZGGG 220000Z AUTO 00000KT 2SM 23/21 RMK 60002 SLP106 T02270213 52007 IEM_DS3505
ZGGG,1985-04-22 03:00,ZGGG 220300Z AUTO 34004KT 6SM 27/20 RMK SLP102 T02700196 57004 IEM_DS3505
ZGGG,1985-04-22 06:00,ZGGG 220600Z AUTO 16004KT 6SM 30/20 RMK SLP075 T02950204 4////0217 57027 IEM_DS3505
ZGGG,1985-04-22 09:00,ZGGG 220900Z AUTO 16004KT 6SM 30/21 RMK SLP056 T03010214 57019 IEM_DS3505
ZGGG,1985-04-22 12:00,ZGGG 221200Z AUTO 00000KT 4SM 27/23 RMK SLP072 T02730227 52016 IEM_DS3505
ZGGG,1985-04-22 15:00,ZGGG 221500Z AUTO 09006KT 4SM 24/22 RMK SLP096 T02450221 52024 IEM_DS3505
ZGGG,1985-04-22 18:00,ZGGG 221800Z AUTO 00000KT 2 1/2SM 23/21 RMK SLP097 T02280211 40306//// 52001 IEM_DS3505
ZGGG,1985-04-22 21:00,ZGGG 222100Z AUTO 11002KT 2 1/2SM 22/21 RMK SLP097 T02220212 54000 IEM_DS3505
ZGGG,1985-04-23 00:00,ZGGG 230000Z AUTO 14002KT 2 1/2SM 23/21 RMK SLP114 T02280208 52017 IEM_DS3505
ZGGG,1985-04-23 03:00,ZGGG 230300Z AUTO 18002KT 2 1/2SM 26/20 RMK SLP113 T02590203 57001 IEM_DS3505
ZGGG,1985-04-23 06:00,ZGGG 230600Z AUTO 00000KT 2 1/2SM 29/19 RMK SLP091 T02940190 4////0221 57022 IEM_DS3505
ZGGG,1985-04-23 09:00,ZGGG 230900Z AUTO 18004KT 2 1/2SM 29/21 RMK T02920206 57016 IEM_DS3505
ZGGG,1985-04-23 12:00,ZGGG 231200Z AUTO 14006KT 4SM 25/21 RMK SLP082 T02540211 52007 IEM_DS3505
ZGGG,1985-04-23 15:00,ZGGG 231500Z AUTO 16002KT 5SM 23/18 RMK SLP104 T02320180 52022 IEM_DS3505
ZGGG,1985-04-23 18:00,ZGGG 231800Z AUTO 00000KT 5SM 22/20 RMK SLP105 T02190199 40298//// 52001 IEM_DS3505
ZGGG,1985-04-23 21:00,ZGGG 232100Z AUTO 07004KT 5SM 21/19 RMK SLP104 T02090194 57001 IEM_DS3505
ZGGG,1985-04-24 00:00,ZGGG 240000Z AUTO 07002KT 4SM 23/20 RMK SLP118 T02320205 52014 IEM_DS3505
ZGGG,1985-04-24 03:00,ZGGG 240300Z AUTO 14004KT 5SM 27/20 RMK SLP118 T02680197 54000 IEM_DS3505
ZGGG,1985-04-24 06:00,ZGGG 240600Z AUTO 18004KT 5SM 29/20 RMK SLP102 T02860195 4////0202 57016 IEM_DS3505
ZGGG,1985-04-24 09:00,ZGGG 240900Z AUTO 14006KT 5SM 29/18 RMK SLP085 T02860180 57017 IEM_DS3505
ZGGG,1985-04-24 12:00,ZGGG 241200Z AUTO 14004KT 16SM 27/18 RMK SLP095 T02700177 52008 IEM_DS3505
ZGGG,1985-04-24 15:00,ZGGG 241500Z AUTO 11006KT 5SM 23/21 RMK SLP113 T02280208 52016 IEM_DS3505
ZGGG,1985-04-24 18:00,ZGGG 241800Z AUTO 00000KT 4SM 21/20 RMK SLP108 T02130195 40294//// 57005 IEM_DS3505
ZGGG,1985-04-24 21:00,ZGGG 242100Z AUTO 09004KT 4SM 20/17 RMK SLP108 T02010174 54000 IEM_DS3505
ZGGG,1985-04-25 00:00,ZGGG 250000Z AUTO 09002KT 4SM 22/19 RMK SLP126 T02240192 52018 IEM_DS3505
ZGGG,1985-04-25 03:00,ZGGG 250300Z AUTO 16006KT 6SM 25/20 RMK SLP130 T02540199 52004 IEM_DS3505
ZGGG,1985-04-25 06:00,ZGGG 250600Z AUTO 16006KT 6SM 28/19 RMK SLP104 T02760187 4////0199 57026 IEM_DS3505
ZGGG,1985-04-25 09:00,ZGGG 250900Z AUTO 16008KT 7SM 28/19 RMK SLP089 T02760192 57015 IEM_DS3505
ZGGG,1985-04-25 12:00,ZGGG 251200Z AUTO 16006KT 7SM 25/20 RMK SLP101 T02530195 52012 IEM_DS3505
ZGGG,1985-04-25 15:00,ZGGG 251500Z AUTO 14004KT 7SM 24/20 RMK SLP117 T02400204 52016 IEM_DS3505
ZGGG,1985-04-25 18:00,ZGGG 251800Z AUTO 11002KT 6SM 23/20 RMK SLP114 T02320202 40282//// 57003 IEM_DS3505
ZGGG,1985-04-25 21:00,ZGGG 252100Z AUTO 00000KT 6SM 23/20 RMK SLP109 T02270204 57005 IEM_DS3505
ZGGG,1985-04-25 22:00,ZGGG 252200Z AUTO 00000KT 6SM 23/20 RMK T02270204 57005 IEM_DS3505
ZGGG,1985-04-26 00:00,ZGGG 260000Z AUTO 00000KT 4SM 23/20 RMK SLP129 T02320203 52020 IEM_DS3505
ZGGG,1985-04-26 03:00,ZGGG 260300Z AUTO 34014KT 7SM 21/16 RMK SLP142 T02080163 52013 IEM_DS3505
ZGGG,1985-04-26 06:00,ZGGG 260600Z AUTO 36008KT 7SM 20/15 RMK SLP134 T02010147 4////0194 57008 IEM_DS3505
ZGGG,1985-04-26 09:00,ZGGG 260900Z AUTO 36006KT 9SM 20/14 RMK SLP129 T01980135 57005 IEM_DS3505
ZGGG,1985-04-26 12:00,ZGGG 261200Z AUTO 36006KT 11SM 19/12 RMK SLP147 T01930125 52018 IEM_DS3505
ZGGG,1985-04-26 15:00,ZGGG 261500Z AUTO 36006KT 10SM 18/12 RMK SLP161 T01850124 52014 IEM_DS3505
ZGGG,1985-04-26 18:00,ZGGG 261800Z AUTO 36008KT 9SM 18/ RMK SLP151 40252//// 57010 IEM_DS3505
ZGGG,1985-04-26 21:00,ZGGG 262100Z AUTO 02010KT 9SM 17/12 RMK SLP153 T01700116 52002 IEM_DS3505
ZGGG,1985-04-27 00:00,ZGGG 270000Z AUTO 04004KT 9SM 16/13 RMK 60002 SLP167 T01610126 52014 IEM_DS3505
ZGGG,1985-04-27 01:00,ZGGG 270100Z AUTO 02008KT 7SM 16/13 RMK 60002 SLP158 T01580132 4////0147 57020 IEM_DS3505
ZGGG,1985-04-27 02:00,ZGGG 270200Z AUTO 04006KT 7SM 17/12 A3000 RMK T01700120 IEM_DS3505
ZGGG,1985-04-27 03:00,ZGGG 270300Z AUTO 04002KT 5SM 16/12 A3000 RMK SLP178 T01620118 52011 IEM_DS3505
ZGGG,1985-04-27 04:00,ZGGG 270400Z AUTO 02008KT 4SM 15/13 A3000 RMK T01500130 IEM_DS3505
ZGGG,1985-04-27 05:00,ZGGG 270500Z AUTO 02010KT 7SM 15/14 A2997 RMK T01500140 IEM_DS3505
ZGGG,1985-04-27 06:00,ZGGG 270600Z AUTO 02008KT 7SM 16/13 A2997 RMK 60002 SLP158 T01580132 4////0147 57020 IEM_DS3505
ZGGG,1985-04-27 07:00,ZGGG 270700Z AUTO 01010KT 2 1/2SM 15/15 A2994 RMK T01500150 IEM_DS3505
ZGGG,1985-04-27 08:00,ZGGG 270800Z AUTO 01010KT 7SM 16/14 A2994 RMK T01600140 IEM_DS3505
ZGGG,1985-04-27 09:00,ZGGG 270900Z AUTO 36004KT 6SM 16/13 A2994 RMK SLP150 T01590134 57008 IEM_DS3505
ZGGG,1985-04-27 12:00,ZGGG 271200Z AUTO 02004KT 7SM 16/14 RMK 60000 SLP153 T01610138 52003 IEM_DS3505
ZGGG,1985-04-27 15:00,ZGGG 271500Z AUTO 00000KT 7SM 17/15 RMK SLP163 T01670148 52010 IEM_DS3505
ZGGG,1985-04-27 18:00,ZGGG 271800Z AUTO 34002KT 6SM 17/14 RMK SLP149 T01700143 40184//// 57014 IEM_DS3505
ZGGG,1985-04-27 21:00,ZGGG 272100Z AUTO 02002KT 6SM 17/15 RMK SLP149 T01690148 54000 IEM_DS3505
ZGGG,1985-04-28 00:00,ZGGG 280000Z AUTO 00000KT 7SM 18/14 RMK SLP156 T01790144 52007 IEM_DS3505
ZGGG,1985-04-28 03:00,ZGGG 280300Z AUTO 18002KT 7SM 20/15 RMK SLP161 T02030153 52005 IEM_DS3505
ZGGG,1985-04-28 06:00,ZGGG 280600Z AUTO 09004KT 7SM 22/17 RMK SLP139 T02250172 4////0154 57022 IEM_DS3505
ZGGG,1985-04-28 09:00,ZGGG 280900Z AUTO 11004KT 6SM 23/18 RMK SLP124 T02290177 57015 IEM_DS3505
ZGGG,1985-04-28 12:00,ZGGG 281200Z AUTO 07004KT 6SM 21/18 RMK SLP131 T02120181 52007 IEM_DS3505
ZGGG,1985-04-28 15:00,ZGGG 281500Z AUTO 07002KT 6SM 20/18 RMK SLP133 T02030184 52002 IEM_DS3505
ZGGG,1985-04-28 18:00,ZGGG 281800Z AUTO 00000KT 6SM 19/18 RMK SLP126 T01860178 40233//// 57007 IEM_DS3505
ZGGG,1985-04-28 21:00,ZGGG 282100Z AUTO 04004KT 6SM 19/18 RMK SLP123 T01920181 57003 IEM_DS3505
ZGGG,1985-04-29 00:00,ZGGG 290000Z AUTO 00000KT 6SM 20/18 RMK SLP141 T01990183 52018 IEM_DS3505
ZGGG,1985-04-29 03:00,ZGGG 290300Z AUTO 00000KT 7SM 22/18 RMK SLP137 T02200183 57004 IEM_DS3505
ZGGG,1985-04-29 06:00,ZGGG 290600Z AUTO 16004KT 9SM 26/20 RMK SLP119 T02580196 4////0186 57018 IEM_DS3505
ZGGG,1985-04-29 09:00,ZGGG 290900Z AUTO 11004KT 9SM 26/19 RMK SLP106 T02620187 57013 IEM_DS3505
ZGGG,1985-04-29 12:00,ZGGG 291200Z AUTO 00000KT 6SM 24/20 RMK SLP116 T02450205 52010 IEM_DS3505
ZGGG,1985-04-29 15:00,ZGGG 291500Z AUTO 00000KT 4SM 23/21 RMK SLP126 T02310210 52010 IEM_DS3505
ZGGG,1985-04-29 18:00,ZGGG 291800Z AUTO 00000KT 4SM 22/20 RMK SLP115 T02200197 40267//// 57011 IEM_DS3505
ZGGG,1985-04-29 21:00,ZGGG 292100Z AUTO 00000KT 4SM 21/20 RMK SLP108 T02140199 57007 IEM_DS3505
ZGGG,1985-04-30 00:00,ZGGG 300000Z AUTO 09004KT 4SM 22/19 RMK SLP116 T02250193 52008 IEM_DS3505
ZGGG,1985-04-30 01:00,ZGGG 300100Z AUTO 09004KT 4SM 22/19 RMK SLP116 T02250193 52008 IEM_DS3505
ZGGG,1985-04-30 03:00,ZGGG 300300Z AUTO 14004KT 5SM 26/17 RMK SLP119 T02610173 52003 IEM_DS3505
ZGGG,1985-04-30 05:00,ZGGG 300500Z AUTO 14010KT 6SM 28/20 A2980 RMK T02800200 IEM_DS3505
ZGGG,1985-04-30 06:00,ZGGG 300600Z AUTO 07004KT 7SM 28/20 A2977 RMK SLP095 T02820197 4////0211 57024 IEM_DS3505
ZGGG,1985-04-30 07:00,ZGGG 300700Z AUTO 14004KT 7SM 28/20 A2977 RMK T02800200 IEM_DS3505
ZGGG,1985-04-30 08:00,ZGGG 300800Z AUTO 15006KT 7SM 28/20 A2974 RMK T02800200 IEM_DS3505
ZGGG,1985-04-30 09:00,ZGGG 300900Z AUTO 18002KT 6SM 28/19 A2974 RMK SLP081 T02780193 57014 IEM_DS3505
ZGGG,1985-04-30 10:00,ZGGG 301000Z AUTO 00000KT 7SM 27/22 A2974 RMK SLP098 T02700220 40292//// 57007 IEM_DS3505
ZGGG,1985-04-30 12:00,ZGGG 301200Z AUTO 00000KT 6SM 25/21 RMK SLP090 T02520211 52009 IEM_DS3505
ZGGG,1985-04-30 15:00,ZGGG 301500Z AUTO 00000KT 6SM 24/21 RMK SLP105 T02440213 52015 IEM_DS3505
ZGGG,1985-04-30 18:00,ZGGG 301800Z AUTO 6SM 24/21 RMK SLP098 T02370213 40292//// 57007 IEM_DS3505
ZGGG,1985-04-30 21:00,ZGGG 302100Z AUTO 09004KT 6SM 23/22 RMK SLP088 T02260218 57010 IEM_DS3505
ZGGG,1985-05-01 00:00,ZGGG 010000Z AUTO 09004KT 5SM 23/22 RMK 60004 SLP101 T02310215 52013 IEM_DS3505
ZGGG,1985-05-01 03:00,ZGGG 010300Z AUTO 11006KT 6SM 25/22 RMK SLP105 T02480215 52004 IEM_DS3505
ZGGG,1985-05-01 06:00,ZGGG 010600Z AUTO 11006KT 5SM 25/22 RMK SLP087 T02530221 4////0225 57018 IEM_DS3505
ZGGG,1985-05-01 09:00,ZGGG 010900Z AUTO 09006KT 5SM 25/22 RMK SLP072 T02510224 57015 IEM_DS3505
ZGGG,1985-05-01 12:00,ZGGG 011200Z AUTO 09004KT 5SM 24/22 RMK 60001 SLP080 T02440222 52008 IEM_DS3505
ZGGG,1985-05-01 15:00,ZGGG 011500Z AUTO 09004KT 5SM 24/22 RMK SLP093 T02420222 52013 IEM_DS3505
ZGGG,1985-05-01 18:00,ZGGG 011800Z AUTO 09006KT 4SM 23/22 RMK 60016 SLP080 T02300222 40256//// 57013 IEM_DS3505
ZGGG,1985-05-01 21:00,ZGGG 012100Z AUTO 09008KT 5SM 22/21 RMK SLP072 T02240211 57008 IEM_DS3505
ZGGG,1985-05-02 00:00,ZGGG 020000Z AUTO 11006KT 4SM 22/21 RMK 60024 SLP084 T02240211 52012 IEM_DS3505
ZGGG,1985-05-02 03:00,ZGGG 020300Z AUTO 11008KT 5SM 24/21 RMK SLP086 T02370214 52002 IEM_DS3505
ZGGG,1985-05-02 06:00,ZGGG 020600Z AUTO 09004KT 2 1/2SM 24/23 RMK 60020 SLP069 T02390229 4////0221 57017 IEM_DS3505
ZGGG,1985-05-02 09:00,ZGGG 020900Z AUTO 09004KT 2 1/2SM 23/22 RMK SLP062 T02340221 57007 IEM_DS3505
ZGGG,1985-05-02 12:00,ZGGG 021200Z AUTO 09004KT 2 1/2SM 23/22 RMK 60028 SLP071 T02310220 52009 IEM_DS3505
ZGGG,1985-05-02 15:00,ZGGG 021500Z AUTO 09004KT 2 1/2SM 23/22 RMK SLP083 T02300220 52012 IEM_DS3505
ZGGG,1985-05-02 18:00,ZGGG 021800Z AUTO 09004KT 4SM 23/22 RMK 60000 SLP068 T02290221 57015 IEM_DS3505
ZGGG,1985-05-02 21:00,ZGGG 022100Z AUTO 09004KT 2 1/2SM 23/22 RMK SLP057 T02300219 57011 IEM_DS3505
ZGGG,1985-05-03 00:00,ZGGG 030000Z AUTO 11002KT 2SM 23/22 RMK 60008 SLP073 T02310215 52016 IEM_DS3505
ZGGG,1985-05-03 03:00,ZGGG 030300Z AUTO 09006KT 2SM 25/23 RMK SLP080 T02540233 52007 IEM_DS3505
ZGGG,1985-05-03 06:00,ZGGG 030600Z AUTO 16004KT 4SM 27/24 RMK 60008 SLP064 T02670244 4////0227 57016 IEM_DS3505
ZGGG,1985-05-03 09:00,ZGGG 030900Z AUTO 14004KT 6SM 28/24 RMK SLP041 T02820238 57023 IEM_DS3505
ZGGG,1985-05-03 12:00,ZGGG 031200Z AUTO 14004KT 4SM 26/24 RMK SLP050 T02570242 52009 IEM_DS3505
ZGGG,1985-05-03 15:00,ZGGG 031500Z AUTO 14004KT 5SM 24/23 RMK SLP066 T02440233 52016 IEM_DS3505
ZGGG,1985-05-03 18:00,ZGGG 031800Z AUTO 11004KT 5SM 24/23 RMK SLP056 T02420229 40288//// 57010 IEM_DS3505
ZGGG,1985-05-03 21:00,ZGGG 032100Z AUTO 11004KT 5SM 24/23 RMK SLP048 T02410233 57008 IEM_DS3505
ZGGG,1985-05-04 00:00,ZGGG 040000Z AUTO 14006KT 2 1/2SM 25/23 RMK SLP069 T02480233 52021 IEM_DS3505
ZGGG,1985-05-04 03:00,ZGGG 040300Z AUTO 18004KT 5SM 27/23 A2971 RMK SLP073 T02710232 52004 IEM_DS3505
ZGGG,1985-05-04 04:00,ZGGG 040400Z AUTO 16008KT 7SM 29/24 A2968 RMK T02900240 IEM_DS3505
ZGGG,1985-05-04 05:00,ZGGG 040500Z AUTO 16010KT 7SM 30/24 A2968 RMK T03000240 IEM_DS3505
ZGGG,1985-05-04 06:00,ZGGG 040600Z AUTO 16006KT 11SM 29/25 A2965 RMK SLP055 T02930246 4////0239 57018 IEM_DS3505
ZGGG,1985-05-04 07:00,ZGGG 040700Z AUTO 16010KT 7SM 29/24 A2962 RMK T02900240 IEM_DS3505
ZGGG,1985-05-04 08:00,ZGGG 040800Z AUTO 12016KT 7SM 29/25 A2962 RMK T02900250 IEM_DS3505
ZGGG,1985-05-04 09:00,ZGGG 040900Z AUTO 16008KT 10SM 29/25 A2959 RMK SLP036 T02910249 57019 IEM_DS3505
ZGGG,1985-05-04 12:00,ZGGG 041200Z AUTO 14006KT 7SM 26/24 RMK SLP046 T02650245 52010 IEM_DS3505
ZGGG,1985-05-04 15:00,ZGGG 041500Z AUTO 14006KT 5SM 26/24 RMK SLP063 T02550243 52017 IEM_DS3505
ZGGG,1985-05-04 18:00,ZGGG 041800Z AUTO 14004KT 5SM 25/24 RMK SLP055 T02540242 40298//// 57008 IEM_DS3505
ZGGG,1985-05-04 21:00,ZGGG 042100Z AUTO 11004KT 5SM 25/24 RMK SLP052 T02500239 57003 IEM_DS3505
ZGGG,1985-05-05 00:00,ZGGG 050000Z AUTO 09004KT 2 1/2SM 26/24 RMK SLP078 T02620243 52026 IEM_DS3505
ZGGG,1985-05-05 03:00,ZGGG 050300Z AUTO 18006KT 9SM 30/25 RMK SLP086 T02960248 52008 IEM_DS3505
ZGGG,1985-05-05 06:00,ZGGG 050600Z AUTO 16006KT 10SM 31/25 RMK SLP068 T03080249 4////0248 57018 IEM_DS3505
ZGGG,1985-05-05 09:00,ZGGG 050900Z AUTO 14008KT 9SM 30/26 RMK SLP053 T03000255 57015 IEM_DS3505
ZGGG,1985-05-05 12:00,ZGGG 051200Z AUTO 14004KT 9SM 28/25 RMK SLP068 T02770254 52015 IEM_DS3505
ZGGG,1985-05-05 15:00,ZGGG 051500Z AUTO 14002KT 7SM 26/25 RMK SLP094 T02620247 52026 IEM_DS3505
ZGGG,1985-05-05 18:00,ZGGG 051800Z AUTO 11006KT 7SM 26/25 RMK SLP091 T02600248 40315//// 57003 IEM_DS3505
ZGGG,1985-05-05 21:00,ZGGG 052100Z AUTO 00000KT 7SM 25/25 RMK SLP094 T02540247 52003 IEM_DS3505
ZGGG,1985-05-06 00:00,ZGGG 060000Z AUTO 16004KT 4SM 26/25 RMK SLP108 T02640252 52014 IEM_DS3505
ZGGG,1985-05-06 03:00,ZGGG 060300Z AUTO 14004KT 9SM 30/23 RMK SLP113 T02960234 52005 IEM_DS3505
ZGGG,1985-05-06 06:00,ZGGG 060600Z AUTO 18004KT 9SM 32/24 RMK SLP099 T03200245 4////0252 57014 IEM_DS3505
ZGGG,1985-05-06 09:00,ZGGG 060900Z AUTO 14006KT 9SM 31/25 RMK SLP087 T03120249 57012 IEM_DS3505
ZGGG,1985-05-06 12:00,ZGGG 061200Z AUTO 14004KT 7SM 28/25 RMK SLP098 T02840252 52011 IEM_DS3505
ZGGG,1985-05-06 15:00,ZGGG 061500Z AUTO 14004KT 5SM 27/25 RMK SLP119 T02690251 52021 IEM_DS3505
ZGGG,1985-05-06 18:00,ZGGG 061800Z AUTO 00000KT 5SM 26/25 RMK SLP113 T02580247 40322//// 57006 IEM_DS3505
ZGGG,1985-05-06 21:00,ZGGG 062100Z AUTO 00000KT 5SM 25/25 RMK SLP112 T02540246 57001 IEM_DS3505
ZGGG,1985-05-07 00:00,ZGGG 070000Z AUTO 09004KT 2SM 26/25 RMK SLP126 T02650249 52014 IEM_DS3505
ZGGG,1985-05-07 03:00,ZGGG 070300Z AUTO 25004KT 2 1/2SM 30/24 RMK SLP135 T03020241 52009 IEM_DS3505
ZGGG,1985-05-07 06:00,ZGGG 070600Z AUTO 09004KT 5SM 32/24 A2985 RMK SLP116 T03180237 4////0252 57019 IEM_DS3505
ZGGG,1985-05-07 07:00,ZGGG 070700Z AUTO 18004KT 4SM 32/24 A2983 RMK T03200240 IEM_DS3505
ZGGG,1985-05-07 08:00,ZGGG 070800Z AUTO 16006KT 7SM 33/24 A2980 RMK T03300240 IEM_DS3505
ZGGG,1985-05-07 09:00,ZGGG 070900Z AUTO 18004KT 7SM 32/22 A2977 RMK SLP095 T03230222 57021 IEM_DS3505
ZGGG,1985-05-07 10:00,ZGGG 071000Z AUTO 15002KT 7SM 31/24 A2977 RMK T03100240 IEM_DS3505
ZGGG,1985-05-07 11:00,ZGGG 071100Z AUTO 15006KT 6SM 29/24 A2980 RMK T02900240 IEM_DS3505
ZGGG,1985-05-07 12:00,ZGGG 071200Z AUTO 18006KT 5SM 29/25 A2983 RMK SLP111 T02900247 52016 IEM_DS3505
ZGGG,1985-05-07 13:00,ZGGG 071300Z AUTO 14010KT 6SM 28/24 A2985 RMK T02800240 IEM_DS3505
ZGGG,1985-05-07 14:00,ZGGG 071400Z AUTO 15008KT 6SM 28/24 A2985 RMK T02800240 IEM_DS3505
ZGGG,1985-05-07 15:00,ZGGG 071500Z AUTO 11004KT 6SM 27/24 RMK SLP134 T02710245 52023 IEM_DS3505
ZGGG,1985-05-07 18:00,ZGGG 071800Z AUTO 16006KT 7SM 26/24 RMK SLP130 T02650243 40330//// 57004 IEM_DS3505
ZGGG,1985-05-07 21:00,ZGGG 072100Z AUTO 16002KT 7SM 26/25 RMK SLP137 T02580246 52007 IEM_DS3505
ZGGG,1985-05-08 00:00,ZGGG 080000Z AUTO 16006KT 5SM 27/24 RMK SLP146 T02660243 52009 IEM_DS3505
ZGGG,1985-05-08 06:00,ZGGG 080600Z AUTO 18004KT 7SM 31/22 RMK SLP122 T03120221 4////0252 57026 IEM_DS3505
ZGGG,1985-05-08 09:00,ZGGG 080900Z AUTO 18004KT 9SM 31/22 RMK SLP104 T03080222 57018 IEM_DS3505
ZGGG,1985-05-08 12:00,ZGGG 081200Z AUTO 16006KT 7SM 27/22 RMK SLP114 T02720220 52010 IEM_DS3505
ZGGG,1985-05-08 15:00,ZGGG 081500Z AUTO 16004KT 6SM 26/23 RMK SLP139 T02560227 52025 IEM_DS3505
ZGGG,1985-05-08 18:00,ZGGG 081800Z AUTO 00000KT 6SM 25/23 RMK SLP126 T02470230 40321//// 57013 IEM_DS3505
ZGGG,1985-05-08 21:00,ZGGG 082100Z AUTO 00000KT 6SM 24/23 RMK SLP130 T02420227 52004 IEM_DS3505
ZGGG,1985-05-09 00:00,ZGGG 090000Z AUTO 07004KT 6SM 26/23 RMK SLP142 T02550230 52012 IEM_DS3505
ZGGG,1985-05-09 03:00,ZGGG 090300Z AUTO 16004KT 6SM 28/22 RMK SLP140 T02840218 57002 IEM_DS3505
ZGGG,1985-05-09 06:00,ZGGG 090600Z AUTO 14006KT 6SM 30/22 RMK SLP116 T03000225 4////0237 57024 IEM_DS3505
ZGGG,1985-05-09 09:00,ZGGG 090900Z AUTO 18006KT 7SM 31/20 RMK SLP101 T03090204 57015 IEM_DS3505
ZGGG,1985-05-09 12:00,ZGGG 091200Z AUTO 16004KT 7SM 28/22 RMK SLP101 T02810223 54000 IEM_DS3505
ZGGG,1985-05-09 15:00,ZGGG 091500Z AUTO 18006KT 7SM 26/23 RMK SLP124 T02600231 52023 IEM_DS3505
ZGGG,1985-05-09 18:00,ZGGG 091800Z AUTO 00000KT 7SM 24/22 RMK SLP115 T02450225 40313//// 57009 IEM_DS3505
ZGGG,1985-05-09 21:00,ZGGG 092100Z AUTO 00000KT 7SM 24/23 RMK SLP117 T02400227 52002 IEM_DS3505
ZGGG,1985-05-10 00:00,ZGGG 100000Z AUTO 16004KT 4SM 25/23 RMK SLP129 T02500231 52012 IEM_DS3505
ZGGG,1985-05-10 03:00,ZGGG 100300Z AUTO 25004KT 9SM 29/22 RMK SLP133 T02940223 52004 IEM_DS3505
ZGGG,1985-05-10 06:00,ZGGG 100600Z AUTO 29002KT 11SM 32/22 RMK SLP112 T03150215 4////0237 57021 IEM_DS3505
ZGGG,1985-05-10 09:00,ZGGG 100900Z AUTO 14004KT 11SM 32/20 RMK SLP090 T03160203 57022 IEM_DS3505
ZGGG,1985-05-10 12:00,ZGGG 101200Z AUTO 16004KT 11SM 29/24 RMK SLP096 T02930236 52006 IEM_DS3505
ZGGG,1985-05-10 15:00,ZGGG 101500Z AUTO 11004KT 9SM 27/24 RMK SLP108 T02700244 52016 IEM_DS3505
ZGGG,1985-05-10 18:00,ZGGG 101800Z AUTO 16004KT 5SM 26/25 RMK SLP105 T02600246 40325//// 57003 IEM_DS3505
ZGGG,1985-05-10 21:00,ZGGG 102100Z AUTO 00000KT 5SM 26/24 RMK SLP103 T02550244 57002 IEM_DS3505
ZGGG,1985-05-11 00:00,ZGGG 110000Z AUTO 16004KT 5SM 28/24 RMK SLP113 T02760242 52010 IEM_DS3505
ZGGG,1985-05-11 03:00,ZGGG 110300Z AUTO 18004KT 5SM 29/22 A2985 RMK SLP122 T02940225 52009 IEM_DS3505
ZGGG,1985-05-11 04:00,ZGGG 110400Z AUTO 19004KT 7SM 31/23 A2985 RMK T03100230 IEM_DS3505
ZGGG,1985-05-11 05:00,ZGGG 110500Z AUTO 20006KT 7SM 31/23 A2983 RMK T03100230 IEM_DS3505
ZGGG,1985-05-11 06:00,ZGGG 110600Z AUTO 18004KT 11SM 32/22 A2983 RMK SLP105 T03220224 4////0252 57017 IEM_DS3505
ZGGG,1985-05-11 07:00,ZGGG 110700Z AUTO 15006KT 7SM 32/24 A2980 RMK T03200240 IEM_DS3505
ZGGG,1985-05-11 08:00,ZGGG 110800Z AUTO 13006KT 7SM 32/24 A2977 RMK T03200240 IEM_DS3505
ZGGG,1985-05-11 09:00,ZGGG 110900Z AUTO 11008KT 9SM 32/24 A2977 RMK SLP090 T03170244 57015 IEM_DS3505
ZGGG,1985-05-11 10:00,ZGGG 111000Z AUTO 14010KT 6SM 31/24 A2977 RMK T03100240 IEM_DS3505
ZGGG,1985-05-11 12:00,ZGGG 111200Z AUTO 16006KT 9SM 29/25 A2977 RMK SLP097 T02870248 52007 IEM_DS3505
ZGGG,1985-05-11 13:00,ZGGG 111300Z AUTO 14010KT 6SM 28/25 A2980 RMK T02800250 IEM_DS3505
ZGGG,1985-05-11 18:00,ZGGG 111800Z AUTO 14004KT 7SM 26/24 RMK SLP110 T02580240 40330//// 57004 IEM_DS3505
ZGGG,1985-05-11 21:00,ZGGG 112100Z AUTO 11004KT 6SM 25/24 RMK SLP106 T02540238 57004 IEM_DS3505
ZGGG,1985-05-12 00:00,ZGGG 120000Z AUTO 16006KT 7SM 27/24 RMK SLP125 T02730245 52019 IEM_DS3505
ZGGG,1985-05-12 03:00,ZGGG 120300Z AUTO 20006KT 9SM 30/24 RMK SLP124 T03050237 57001 IEM_DS3505
ZGGG,1985-05-12 06:00,ZGGG 120600Z AUTO 14006KT 10SM 31/25 RMK SLP108 T03110251 4////0253 57016 IEM_DS3505
ZGGG,1985-05-12 08:00,ZGGG 120800Z AUTO 14008KT 17SM 31/24 RMK SLP089 T03110242 57020 IEM_DS3505
ZGGG,1985-05-12 09:00,ZGGG 120900Z AUTO 14008KT 11SM 31/24 RMK SLP088 T03110242 57020 IEM_DS3505
ZGGG,1985-05-12 12:00,ZGGG 121200Z AUTO 14004KT 9SM 28/25 RMK SLP099 T02810247 52011 IEM_DS3505
ZGGG,1985-05-12 15:00,ZGGG 121500Z AUTO 16004KT 8SM 27/25 RMK SLP104 T02700247 52005 IEM_DS3505
ZGGG,1985-05-12 18:00,ZGGG 121800Z AUTO 16004KT 7SM 26/24 RMK SLP095 T02650243 40321//// 57009 IEM_DS3505
ZGGG,1985-05-12 21:00,ZGGG 122100Z AUTO 00000KT 7SM 26/24 RMK SLP093 T02600244 57002 IEM_DS3505
ZGGG,1985-05-13 00:00,ZGGG 130000Z AUTO 11006KT 6SM 28/25 RMK SLP110 T02750248 52017 IEM_DS3505
ZGGG,1985-05-13 03:00,ZGGG 130300Z AUTO 11006KT 7SM 30/24 RMK SLP110 T03040243 54000 IEM_DS3505
ZGGG,1985-05-13 06:00,ZGGG 130600Z AUTO 18004KT 10SM 32/22 RMK SLP083 T03170222 4////0259 57027 IEM_DS3505
ZGGG,1985-05-13 09:00,ZGGG 130900Z AUTO 16006KT 10SM 32/23 RMK SLP064 T03170229 57019 IEM_DS3505
ZGGG,1985-05-13 12:00,ZGGG 131200Z AUTO 16006KT 9SM 28/25 RMK SLP076 T02820248 52012 IEM_DS3505
ZGGG,1985-05-13 15:00,ZGGG 131500Z AUTO 18004KT 7SM 27/25 RMK SLP091 T02710247 52015 IEM_DS3505
ZGGG,1985-05-13 18:00,ZGGG 131800Z AUTO 16004KT 9SM 26/24 RMK SLP078 T02640241 40325//// 57013 IEM_DS3505
ZGGG,1985-05-13 21:00,ZGGG 132100Z AUTO 00000KT 8SM 26/24 RMK SLP075 T02610242 57003 IEM_DS3505
ZGGG,1985-05-14 00:00,ZGGG 140000Z AUTO 14006KT 6SM 28/24 RMK SLP087 T02750241 52012 IEM_DS3505
ZGGG,1985-05-14 03:00,ZGGG 140300Z AUTO 09002KT 7SM 30/24 RMK SLP093 T02960236 52006 IEM_DS3505
ZGGG,1985-05-14 04:00,ZGGG 140400Z AUTO 24006KT 5SM 31/24 A2977 RMK T03100240 IEM_DS3505
ZGGG,1985-05-14 06:00,ZGGG 140600Z AUTO 25004KT 7SM 32/23 RMK SLP077 T03180233 4////0258 52016 IEM_DS3505
ZGGG,1985-05-14 09:00,ZGGG 140900Z AUTO 22006KT 8SM 29/24 RMK SLP095 T02910244 57018 IEM_DS3505
ZGGG,1985-05-14 12:00,ZGGG 141200Z AUTO 18004KT 7SM 28/25 RMK SLP072 T02770247 52013 IEM_DS3505
ZGGG,1985-05-14 15:00,ZGGG 141500Z AUTO 18004KT 7SM 27/24 RMK SLP083 T02680244 52011 IEM_DS3505
ZGGG,1985-05-14 18:00,ZGGG 141800Z AUTO 00000KT 7SM 26/24 RMK SLP083 T02640242 54000 IEM_DS3505
ZGGG,1985-05-14 21:00,ZGGG 142100Z AUTO 14002KT 6SM 26/24 RMK SLP081 T02600242 57002 IEM_DS3505
ZGGG,1985-05-15 00:00,ZGGG 150000Z AUTO 14002KT 7SM 27/25 RMK SLP100 T02660246 52019 IEM_DS3505
ZGGG,1985-05-15 03:00,ZGGG 150300Z AUTO 16004KT 9SM 30/24 RMK SLP105 T02960236 52005 IEM_DS3505
ZGGG,1985-05-15 06:00,ZGGG 150600Z AUTO 18006KT 7SM 33/22 RMK SLP086 T03260216 4////0257 57019 IEM_DS3505
ZGGG,1985-05-15 09:00,ZGGG 150900Z AUTO 14004KT 7SM 32/23 RMK SLP068 T03150226 57018 IEM_DS3505
ZGGG,1985-05-15 12:00,ZGGG 151200Z AUTO 14004KT 9SM 30/23 RMK SLP088 T02960233 52020 IEM_DS3505
ZGGG,1985-05-15 15:00,ZGGG 151500Z AUTO 16004KT 9SM 27/24 RMK SLP111 T02740243 52023 IEM_DS3505
ZGGG,1985-05-15 18:00,ZGGG 151800Z AUTO 00000KT 9SM 27/24 RMK SLP108 T02660241 40328//// 57003 IEM_DS3505
ZGGG,1985-05-15 21:00,ZGGG 152100Z AUTO 00000KT 7SM 26/24 RMK SLP114 T02560240 52006 IEM_DS3505
ZGGG,1985-05-16 00:00,ZGGG 160000Z AUTO 18004KT 9SM 28/24 RMK SLP131 T02770240 52017 IEM_DS3505
ZGGG,1985-05-16 03:00,ZGGG 160300Z AUTO 00000KT 8SM 30/23 RMK SLP135 T03040227 52004 IEM_DS3505
ZGGG,1985-05-16 06:00,ZGGG 160600Z AUTO 00000KT 4SM 32/23 RMK SLP119 T03170232 4////0254 57016 IEM_DS3505
ZGGG,1985-05-16 09:00,ZGGG 160900Z AUTO 14006KT 7SM 31/24 RMK SLP105 T03090238 57014 IEM_DS3505
ZGGG,1985-05-16 12:00,ZGGG 161200Z AUTO 09004KT 7SM 29/24 RMK SLP132 T02860235 52027 IEM_DS3505
ZGGG,1985-05-16 15:00,ZGGG 161500Z AUTO 09004KT 7SM 26/22 RMK SLP154 T02630224 52022 IEM_DS3505
ZGGG,1985-05-16 18:00,ZGGG 161800Z AUTO 07004KT 7SM 26/23 RMK SLP146 T02560227 40326//// 57008 IEM_DS3505
ZGGG,1985-05-16 21:00,ZGGG 162100Z AUTO 00000KT 7SM 25/23 RMK SLP145 T02500226 57001 IEM_DS3505
ZGGG,1985-05-17 00:00,ZGGG 170000Z AUTO 09004KT 10SM 26/23 RMK SLP164 T02650229 52019 IEM_DS3505
ZGGG,1985-05-17 03:00,ZGGG 170300Z AUTO 09004KT 10SM 30/23 RMK SLP167 T02950232 52003 IEM_DS3505
ZGGG,1985-05-17 06:00,ZGGG 170600Z AUTO 18006KT 9SM 31/22 RMK SLP143 T03140218 4////0249 57024 IEM_DS3505
ZGGG,1985-05-17 09:00,ZGGG 170900Z AUTO 18006KT 9SM 32/22 RMK SLP122 T03170222 57021 IEM_DS3505
ZGGG,1985-05-17 12:00,ZGGG 171200Z AUTO 14004KT 9SM 28/23 RMK SLP137 T02850234 52015 IEM_DS3505
ZGGG,1985-05-17 15:00,ZGGG 171500Z AUTO 18004KT 7SM 27/22 RMK SLP152 T02700223 52015 IEM_DS3505
ZGGG,1985-05-17 18:00,ZGGG 171800Z AUTO 20004KT 7SM 27/23 RMK SLP143 T02670227 40324//// 57009 IEM_DS3505
ZGGG,1985-05-17 21:00,ZGGG 172100Z AUTO 00000KT 7SM 24/23 RMK SLP139 T02390230 57004 IEM_DS3505
ZGGG,1985-05-18 00:00,ZGGG 180000Z AUTO 09004KT 5SM 27/23 RMK SLP151 T02730226 52012 IEM_DS3505
ZGGG,1985-05-18 03:00,ZGGG 180300Z AUTO 14004KT 4SM 30/22 RMK SLP152 T02950221 52001 IEM_DS3505
ZGGG,1985-05-18 04:00,ZGGG 180400Z AUTO 29002KT 4SM 29/23 A2994 RMK T02900230 IEM_DS3505
ZGGG,1985-05-18 05:00,ZGGG 180500Z AUTO 00000KT 4SM 31/23 A2991 RMK T03100230 IEM_DS3505
ZGGG,1985-05-18 06:00,ZGGG 180600Z AUTO 16004KT 6SM 32/22 RMK SLP123 T03180223 4////0256 57029 IEM_DS3505
ZGGG,1985-05-18 07:00,ZGGG 180700Z AUTO 19008KT 5SM 31/23 A2985 RMK T03100230 IEM_DS3505
ZGGG,1985-05-18 08:00,ZGGG 180800Z AUTO 17008KT 7SM A2980 RMK IEM_DS3505
ZGGG,1985-05-18 09:00,ZGGG 180900Z AUTO 22006KT 9SM 32/21 A2980 RMK SLP099 T03180210 57024 IEM_DS3505
ZGGG,1985-05-18 10:00,ZGGG 181000Z AUTO 15008KT 6SM 31/22 A2980 RMK T03100220 IEM_DS3505
ZGGG,1985-05-18 11:00,ZGGG 181100Z AUTO 14004KT 6SM 30/23 A2980 RMK T03000230 IEM_DS3505
ZGGG,1985-05-18 12:00,ZGGG 181200Z AUTO 16006KT 10SM 29/23 RMK SLP105 T02910231 52006 IEM_DS3505
ZGGG,1985-05-18 15:00,ZGGG 181500Z AUTO 20002KT 9SM 27/22 RMK SLP117 T02710218 52012 IEM_DS3505
ZGGG,1985-05-18 18:00,ZGGG 181800Z AUTO 00000KT 6SM 26/23 RMK SLP105 T02580229 40322//// 57012 IEM_DS3505
ZGGG,1985-05-18 21:00,ZGGG 182100Z AUTO 00000KT 5SM 25/23 RMK SLP103 T02470228 57002 IEM_DS3505
ZGGG,1985-05-19 00:00,ZGGG 190000Z AUTO 14004KT 2 1/2SM 27/24 RMK SLP113 T02740241 52010 IEM_DS3505
ZGGG,1985-05-19 03:00,ZGGG 190300Z AUTO 18004KT 4SM 30/22 RMK SLP111 T03000219 57002 IEM_DS3505
ZGGG,1985-05-19 06:00,ZGGG 190600Z AUTO 18004KT 8SM 32/22 RMK SLP087 T03190221 4////0247 57024 IEM_DS3505
ZGGG,1985-05-19 09:00,ZGGG 190900Z AUTO 22004KT 9SM 33/22 RMK SLP069 T03290223 57018 IEM_DS3505
ZGGG,1985-05-19 12:00,ZGGG 191200Z AUTO 16004KT 8SM 30/25 RMK SLP077 T02970247 52008 IEM_DS3505
ZGGG,1985-05-19 15:00,ZGGG 191500Z AUTO 00000KT 6SM 28/23 RMK SLP099 T02800232 52022 IEM_DS3505
ZGGG,1985-05-19 18:00,ZGGG 191800Z AUTO 11002KT 6SM 26/24 RMK SLP090 T02650238 40331//// 57009 IEM_DS3505
ZGGG,1985-05-19 21:00,ZGGG 192100Z AUTO 00000KT 7SM 26/24 RMK SLP087 T02650240 57003 IEM_DS3505
ZGGG,1985-05-20 00:00,ZGGG 200000Z AUTO 07002KT 5SM 28/ RMK SLP098 52011 IEM_DS3505
ZGGG,1985-05-20 03:00,ZGGG 200300Z AUTO 00000KT 5SM 31/23 RMK SLP098 T03140234 54000 IEM_DS3505
ZGGG,1985-05-20 06:00,ZGGG 200600Z AUTO 02004KT 6SM 32/23 RMK SLP076 T03240234 4////0259 57022 IEM_DS3505
ZGGG,1985-05-20 09:00,ZGGG 200900Z AUTO 34004KT 9SM 33/22 RMK SLP057 T03340223 57019 IEM_DS3505
ZGGG,1985-05-20 12:00,ZGGG 201200Z AUTO 00000KT 7SM 29/24 RMK SLP081 T02940238 52024 IEM_DS3505
ZGGG,1985-05-20 15:00,ZGGG 201500Z AUTO 36004KT 6SM 28/23 RMK SLP101 T02840228 52020 IEM_DS3505
ZGGG,1985-05-20 18:00,ZGGG 201800Z AUTO 02004KT 9SM 27/22 RMK SLP099 T02700217 40336//// 57002 IEM_DS3505
ZGGG,1985-05-20 21:00,ZGGG 202100Z AUTO 02004KT 9SM 26/20 RMK SLP099 T02580197 54000 IEM_DS3505
ZGGG,1985-05-20 22:00,ZGGG 202200Z AUTO 02006KT 7SM 24/22 A2980 RMK T02400220 IEM_DS3505
ZGGG,1985-05-20 23:00,ZGGG 202300Z AUTO 03004KT 7SM 25/21 A2980 RMK T02500210 IEM_DS3505
ZGGG,1985-05-21 00:00,ZGGG 210000Z AUTO 02004KT 9SM 26/19 A2983 RMK SLP110 T02590187 52011 IEM_DS3505
ZGGG,1985-05-21 01:00,ZGGG 210100Z AUTO 01012KT 7SM 25/20 RMK T02500200 IEM_DS3505
ZGGG,1985-05-21 02:00,ZGGG 210200Z AUTO 02008KT 7SM 25/21 A2983 RMK T02500210 IEM_DS3505
ZGGG,1985-05-21 03:00,ZGGG 210300Z AUTO 34006KT 7SM 28/20 A2983 RMK SLP115 T02750196 52005 IEM_DS3505
ZGGG,1985-05-21 04:00,ZGGG 210400Z AUTO 03006KT 6SM 29/21 A2983 RMK T02900210 IEM_DS3505
ZGGG,1985-05-21 05:00,ZGGG 210500Z AUTO 00000KT 6SM 29/21 A2983 RMK T02900210 IEM_DS3505
ZGGG,1985-05-21 06:00,ZGGG 210600Z AUTO 04004KT 7SM 29/20 A2980 RMK SLP101 T02920202 4////0253 57014 IEM_DS3505
ZGGG,1985-05-21 07:00,ZGGG 210700Z AUTO 00000KT 6SM 30/22 A2977 RMK T03000220 IEM_DS3505
ZGGG,1985-05-21 08:00,ZGGG 210800Z AUTO 00000KT 6SM 28/22 A2977 RMK T02800220 IEM_DS3505
ZGGG,1985-05-21 09:00,ZGGG 210900Z AUTO 27004KT 5SM 29/22 A2977 RMK SLP083 T02880215 57018 IEM_DS3505
ZGGG,1985-05-21 12:00,ZGGG 211200Z AUTO 14002KT 7SM 27/23 RMK SLP101 T02660232 52018 IEM_DS3505
ZGGG,1985-05-21 15:00,ZGGG 211500Z AUTO 00000KT 5SM 26/23 RMK SLP115 T02600232 52014 IEM_DS3505
ZGGG,1985-05-21 18:00,ZGGG 211800Z AUTO 07004KT 4SM 25/24 RMK SLP105 T02540236 40295//// 57010 IEM_DS3505
ZGGG,1985-05-21 21:00,ZGGG 212100Z AUTO 04002KT 4SM 25/23 RMK SLP105 T02520231 54000 IEM_DS3505
ZGGG,1985-05-22 00:00,ZGGG 220000Z AUTO 07004KT 4SM 26/23 RMK T02570232 IEM_DS3505
ZGGG,1985-05-22 03:00,ZGGG 220300Z AUTO 11006KT 7SM 29/22 RMK SLP116 T02910222 57001 IEM_DS3505
ZGGG,1985-05-22 06:00,ZGGG 220600Z AUTO 14004KT 5SM 31/22 RMK SLP091 T03070220 4////0250 57025 IEM_DS3505
ZGGG,1985-05-22 09:00,ZGGG 220900Z AUTO 22004KT 4SM 30/22 RMK SLP074 T03020222 57017 IEM_DS3505
ZGGG,1985-05-22 12:00,ZGGG 221200Z AUTO 32004KT 4SM 28/24 RMK SLP083 T02780236 52009 IEM_DS3505
ZGGG,1985-05-22 18:00,ZGGG 221800Z AUTO 18004KT 4SM 26/22 RMK SLP093 T02590217 40314//// 57007 IEM_DS3505
ZGGG,1985-05-22 21:00,ZGGG 222100Z AUTO 00000KT 4SM 25/22 RMK SLP093 T02540222 54000 IEM_DS3505
ZGGG,1985-05-23 00:00,ZGGG 230000Z AUTO 16004KT 5SM 26/22 RMK SLP099 T02620224 52006 IEM_DS3505
ZGGG,1985-05-23 03:00,ZGGG 230300Z AUTO 14004KT 5SM 29/22 RMK SLP099 T02870217 54000 IEM_DS3505
ZGGG,1985-05-23 06:00,ZGGG 230600Z AUTO 18004KT 5SM 30/21 RMK SLP084 T02990214 4////0249 57015 IEM_DS3505
ZGGG,1985-05-23 09:00,ZGGG 230900Z AUTO 16004KT 5SM 31/22 RMK SLP068 T03080218 57016 IEM_DS3505
ZGGG,1985-05-23 12:00,ZGGG 231200Z AUTO 00000KT 5SM 29/22 RMK SLP075 T02860222 52007 IEM_DS3505
ZGGG,1985-05-23 15:00,ZGGG 231500Z AUTO 11004KT 4SM 27/23 RMK SLP090 T02710228 52015 IEM_DS3505
ZGGG,1985-05-23 18:00,ZGGG 231800Z AUTO 16004KT 4SM 26/23 RMK SLP081 T02640232 40315//// 57009 IEM_DS3505
ZGGG,1985-05-23 21:00,ZGGG 232100Z AUTO 11008KT 3SM 26/22 RMK SLP081 T02600222 54000 IEM_DS3505
ZGGG,1985-05-24 00:00,ZGGG 240000Z AUTO 09004KT 2 1/2SM 25/23 RMK 60004 SLP097 T02480230 52016 IEM_DS3505
ZGGG,1985-05-24 03:00,ZGGG 240300Z AUTO 09006KT 4SM 26/23 RMK SLP101 T02630233 52004 IEM_DS3505
ZGGG,1985-05-24 06:00,ZGGG 240600Z AUTO 09004KT 4SM 28/23 RMK 60000 SLP088 T02780228 4////0246 57013 IEM_DS3505
ZGGG,1985-05-24 09:00,ZGGG 240900Z AUTO 02004KT 4SM 28/22 RMK SLP073 T02810223 57015 IEM_DS3505
ZGGG,1985-05-24 12:00,ZGGG 241200Z AUTO 00000KT 6SM 27/23 RMK SLP085 T02690230 52012 IEM_DS3505
ZGGG,1985-05-24 15:00,ZGGG 241500Z AUTO 00000KT 7SM 24/23 RMK SLP090 T02370226 52005 IEM_DS3505
ZGGG,1985-05-24 18:00,ZGGG 241800Z AUTO 07004KT 5SM 24/23 RMK 60047 SLP074 T02400230 40284//// 57016 IEM_DS3505
ZGGG,1985-05-24 21:00,ZGGG 242100Z AUTO 00000KT 6SM 24/23 RMK SLP078 T02400230 52004 IEM_DS3505
ZGGG,1985-05-25 00:00,ZGGG 250000Z AUTO 09002KT 2 1/2SM 25/23 RMK 70047 SLP090 T02500232 52012 IEM_DS3505
ZGGG,1985-05-25 03:00,ZGGG 250300Z AUTO 14004KT 2 1/2SM 28/24 RMK SLP092 T02780236 52002 IEM_DS3505
ZGGG,1985-05-25 06:00,ZGGG 250600Z AUTO 09004KT 4SM 28/23 RMK SLP079 T02840232 4////0234 57013 IEM_DS3505
ZGGG,1985-05-25 09:00,ZGGG 250900Z AUTO 11004KT 4SM 26/24 RMK SLP071 T02590238 57008 IEM_DS3505
ZGGG,1985-05-25 12:00,ZGGG 251200Z AUTO 00000KT 5SM 25/23 RMK 60035 SLP078 T02530234 52007 IEM_DS3505
ZGGG,1985-05-25 15:00,ZGGG 251500Z AUTO 09004KT 4SM 25/24 RMK SLP083 T02470235 52005 IEM_DS3505
ZGGG,1985-05-25 18:00,ZGGG 251800Z AUTO 09002KT 2 1/2SM 24/23 RMK 60000 SLP076 T02440232 40288//// 57007 IEM_DS3505
ZGGG,1985-05-25 21:00,ZGGG 252100Z AUTO 00000KT 2 1/2SM 24/24 RMK 70039 SLP066 T02440237 57010 IEM_DS3505
ZGGG,1985-05-26 00:00,ZGGG 260000Z AUTO 00000KT 2 1/2SM 25/24 RMK 60002 SLP073 T02520242 52007 IEM_DS3505
ZGGG,1985-05-26 03:00,ZGGG 260300Z AUTO 18006KT 9SM 29/24 RMK SLP062 T02880245 57011 IEM_DS3505
ZGGG,1985-05-26 06:00,ZGGG 260600Z AUTO 16006KT 9SM 30/24 RMK SLP038 T02990241 4////0241 57024 IEM_DS3505
ZGGG,1985-05-26 09:00,ZGGG 260900Z AUTO 18006KT 10SM 30/24 RMK SLP022 T03010238 57016 IEM_DS3505
ZGGG,1985-05-26 11:00,ZGGG 261100Z AUTO 16004KT 6SM 28/25 RMK SLP032 T02820247 52010 IEM_DS3505
ZGGG,1985-05-26 12:00,ZGGG 261200Z AUTO 16004KT 6SM 28/25 RMK SLP032 T02820247 52010 IEM_DS3505
ZGGG,1985-05-26 15:00,ZGGG 261500Z AUTO 16002KT 4SM 27/25 RMK SLP036 T02670252 52004 IEM_DS3505
ZGGG,1985-05-26 18:00,ZGGG 261800Z AUTO 00000KT 4SM 27/25 RMK 60004 SLP025 T02660254 40306//// 57011 IEM_DS3505
ZGGG,1985-05-26 21:00,ZGGG 262100Z AUTO 00000KT 4SM 26/25 RMK SLP013 T02640253 57012 IEM_DS3505
ZGGG,1985-05-27 00:00,ZGGG 270000Z AUTO 20002KT 3SM 28/26 RMK 60000 SLP016 T02770260 52003 IEM_DS3505
ZGGG,1985-05-27 03:00,ZGGG 270300Z AUTO 18008KT 7SM 30/26 RMK SLP005 T03010258 57011 IEM_DS3505
ZGGG,1985-05-27 06:00,ZGGG 270600Z AUTO 20008KT 9SM 32/26 RMK SLP984 T03200258 4////0262 57021 IEM_DS3505
ZGGG,1985-05-27 09:00,ZGGG 270900Z AUTO 20006KT 9SM 31/25 RMK SLP967 T03120252 57017 IEM_DS3505
ZGGG,1985-05-27 12:00,ZGGG 271200Z AUTO 14006KT 7SM 29/26 RMK SLP984 T02910256 52017 IEM_DS3505
ZGGG,1985-05-27 15:00,ZGGG 271500Z AUTO 32006KT 6SM 28/26 RMK SLP011 T02750264 52027 IEM_DS3505
ZGGG,1985-05-27 18:00,ZGGG 271800Z AUTO 00000KT 4SM 28/26 RMK 60012 SLP992 T02750264 40324//// 57019 IEM_DS3505
ZGGG,1985-05-27 21:00,ZGGG 272100Z AUTO 00000KT 2 1/2SM 27/26 RMK SLP997 T02700263 52005 IEM_DS3505
ZGGG,1985-05-28 00:00,ZGGG 280000Z AUTO 18002KT 2SM 28/27 RMK 60001 SLP008 T02850269 52011 IEM_DS3505
ZGGG,1985-05-28 03:00,ZGGG 280300Z AUTO 22012KT 5SM 29/26 RMK SLP009 T02860255 52001 IEM_DS3505
ZGGG,1985-05-28 04:00,ZGGG 280400Z AUTO 27008KT 4SM 25/24 A2956 RMK T02500240 IEM_DS3505
ZGGG,1985-05-28 05:00,ZGGG 280500Z AUTO 24008KT 4SM 25/24 A2953 RMK T02500240 IEM_DS3505
ZGGG,1985-05-28 06:00,ZGGG 280600Z AUTO 00000KT 2SM 25/23 A2956 RMK 60016 SLP019 T02480234 4////0244 52010 IEM_DS3505
ZGGG,1985-05-28 07:00,ZGGG 280700Z AUTO 36010KT 7SM 25/23 A2956 RMK T02500230 IEM_DS3505
ZGGG,1985-05-28 08:00,ZGGG 280800Z AUTO 01010KT 7SM 25/23 A2953 RMK T02500230 IEM_DS3505
ZGGG,1985-05-28 09:00,ZGGG 280900Z AUTO 36002KT 11SM 25/21 A2956 RMK SLP020 T02470213 52001 IEM_DS3505
ZGGG,1985-05-28 10:00,ZGGG 281000Z AUTO 36010KT 7SM 24/20 A2956 RMK T02400200 IEM_DS3505
ZGGG,1985-05-28 11:00,ZGGG 281100Z AUTO 01008KT 7SM 24/21 A2956 RMK T02400210 IEM_DS3505
ZGGG,1985-05-28 12:00,ZGGG 281200Z AUTO 02004KT 9SM 24/21 RMK 60004 SLP030 T02350206 52010 IEM_DS3505
ZGGG,1985-05-28 13:00,ZGGG 281300Z AUTO 35010KT 7SM 23/21 A2962 RMK T02300210 IEM_DS3505
ZGGG,1985-05-28 18:00,ZGGG 281800Z AUTO 34006KT 9SM 22/20 RMK 60000 SLP044 T02240199 40298//// 52001 IEM_DS3505
ZGGG,1985-05-28 21:00,ZGGG 282100Z AUTO 36004KT 9SM 22/20 RMK SLP043 T02180195 57001 IEM_DS3505
ZGGG,1985-05-29 00:00,ZGGG 290000Z AUTO 34004KT 9SM 22/20 RMK 60002 70024 SLP062 T02200195 52019 IEM_DS3505
ZGGG,1985-05-29 03:00,ZGGG 290300Z AUTO 02006KT 10SM 24/20 RMK SLP007 T02450202 52009 IEM_DS3505
ZGGG,1985-05-29 06:00,ZGGG 290600Z AUTO 00000KT 9SM 27/21 RMK SLP058 T02740212 4////0215 57013 IEM_DS3505
ZGGG,1985-05-29 09:00,ZGGG 290900Z AUTO 36004KT 7SM 25/21 RMK SLP051 T02530210 57007 IEM_DS3505
ZGGG,1985-05-29 12:00,ZGGG 291200Z AUTO 00000KT 7SM 25/21 RMK 60001 SLP068 T02470211 52017 IEM_DS3505
ZGGG,1985-05-29 15:00,ZGGG 291500Z AUTO 02004KT 7SM 23/22 RMK SLP076 T02320216 52008 IEM_DS3505
ZGGG,1985-05-29 18:00,ZGGG 291800Z AUTO 00000KT 7SM 23/22 RMK 60008 SLP067 T02320219 40276//// 57009 IEM_DS3505
ZGGG,1985-05-29 21:00,ZGGG 292100Z AUTO 00000KT 6SM 23/22 RMK SLP064 T02290221 57003 IEM_DS3505
ZGGG,1985-05-30 00:00,ZGGG 300000Z AUTO 00000KT 7SM 23/21 RMK 60008 SLP076 T02270213 52012 IEM_DS3505
ZGGG,1985-05-30 03:00,ZGGG 300300Z AUTO 00000KT 7SM 26/22 RMK SLP076 T02550218 54000 IEM_DS3505
ZGGG,1985-05-30 06:00,ZGGG 300600Z AUTO 14004KT 2 1/2SM 27/23 RMK SLP063 T02670228 4////0223 57013 IEM_DS3505
ZGGG,1985-05-30 09:00,ZGGG 300900Z AUTO 09004KT 2SM 27/23 RMK SLP049 T02700231 57014 IEM_DS3505
ZGGG,1985-05-30 12:00,ZGGG 301200Z AUTO 09004KT 2 1/2SM 26/24 RMK SLP059 T02600235 52010 IEM_DS3505
ZGGG,1985-05-30 15:00,ZGGG 301500Z AUTO 00000KT 2 1/2SM 25/24 RMK SLP071 T02460238 52012 IEM_DS3505
ZGGG,1985-05-30 18:00,ZGGG 301800Z AUTO 09006KT 2SM 24/24 RMK 60075 SLP054 T02430237 40276//// 57017 IEM_DS3505
ZGGG,1985-05-30 21:00,ZGGG 302100Z AUTO 11002KT 2SM 24/24 RMK SLP043 T02440239 57011 IEM_DS3505
ZGGG,1985-05-31 00:00,ZGGG 310000Z AUTO 00000KT 2SM 24/24 RMK 60307 SLP064 T02400237 52021 IEM_DS3505
ZGGG,1985-05-31 03:00,ZGGG 310300Z AUTO 00000KT 2SM 24/24 RMK SLP068 T02450240 52004 IEM_DS3505
ZGGG,1985-05-31 06:00,ZGGG 310600Z AUTO 00000KT 4SM 26/25 RMK 60102 SLP052 T02600248 4////0236 57016 IEM_DS3505
ZGGG,1985-05-31 09:00,ZGGG 310900Z AUTO 16004KT 2SM 26/24 RMK SLP036 T02550244 57016 IEM_DS3505
ZGGG,1985-05-31 12:00,ZGGG 311200Z AUTO 00000KT 1 1/4SM 26/25 RMK 60002 SLP045 T02550247 52009 IEM_DS3505
ZGGG,1985-05-31 15:00,ZGGG 311500Z AUTO 00000KT 2SM 25/24 RMK SLP055 T02520244 52010 IEM_DS3505
ZGGG,1985-05-31 18:00,ZGGG 311800Z AUTO 00000KT 2SM 25/24 RMK SLP043 T02480241 40263//// 57007 IEM_DS3505
ZGGG,1985-05-31 21:00,ZGGG 312100Z AUTO 00000KT 4SM 24/24 RMK SLP042 T02430235 57006 IEM_DS3505
ZGGG,1985-06-01 00:00,ZGGG 010000Z AUTO 00000KT 5SM 25/22 RMK SLP057 T02460224 52015 IEM_DS3505
ZGGG,1985-06-01 03:00,ZGGG 010300Z AUTO 09004KT 9SM 27/22 RMK SLP061 T02680225 52004 IEM_DS3505
ZGGG,1985-06-01 06:00,ZGGG 010600Z AUTO 00000KT 11SM 28/23 RMK SLP052 T02770232 4////0241 57009 IEM_DS3505
ZGGG,1985-06-01 09:00,ZGGG 010900Z AUTO 34004KT 9SM 27/24 RMK SLP045 T02740236 57007 IEM_DS3505
ZGGG,1985-06-01 12:00,ZGGG 011200Z AUTO 00000KT 6SM 26/23 RMK SLP054 T02630231 52009 IEM_DS3505
ZGGG,1985-06-01 15:00,ZGGG 011500Z AUTO 00000KT 6SM 26/23 RMK SLP071 T02550233 52017 IEM_DS3505
ZGGG,1985-06-01 18:00,ZGGG 011800Z AUTO 00000KT 4SM 24/24 RMK 60004 SLP063 T02420235 40280//// 57008 IEM_DS3505
ZGGG,1985-06-01 21:00,ZGGG 012100Z AUTO 04002KT 4SM 24/23 RMK 70004 SLP058 T02390231 57005 IEM_DS3505
ZGGG,1985-06-02 00:00,ZGGG 020000Z AUTO 07004KT 5SM 24/23 RMK 60002 SLP074 T02450234 52016 IEM_DS3505
ZGGG,1985-06-02 03:00,ZGGG 020300Z AUTO 14004KT 7SM 26/23 RMK SLP076 T02620233 52002 IEM_DS3505
ZGGG,1985-06-02 06:00,ZGGG 020600Z AUTO 00000KT 2 1/2SM 28/24 RMK SLP064 T02800238 4////0238 57012 IEM_DS3505
ZGGG,1985-06-02 09:00,ZGGG 020900Z AUTO 36002KT 2SM 28/24 RMK SLP051 T02810242 57013 IEM_DS3505
ZGGG,1985-06-02 12:00,ZGGG 021200Z AUTO 00000KT 2SM 26/25 RMK 60008 SLP063 T02620251 52012 IEM_DS3505
ZGGG,1985-06-02 15:00,ZGGG 021500Z AUTO 00000KT 4SM 25/24 RMK SLP077 T02530243 52014 IEM_DS3505
ZGGG,1985-06-02 18:00,ZGGG 021800Z AUTO 14004KT 4SM 25/24 RMK SLP063 T02540240 40286//// 57014 IEM_DS3505
ZGGG,1985-06-02 21:00,ZGGG 022100Z AUTO 00000KT 4SM 24/23 RMK SLP062 T02450231 57001 IEM_DS3505
ZGGG,1985-06-03 00:00,ZGGG 030000Z AUTO 09006KT 3SM 26/24 RMK SLP072 T02610236 52010 IEM_DS3505
ZGGG,1985-06-03 03:00,ZGGG 030300Z AUTO 14004KT 6SM 28/24 RMK SLP074 T02840239 52002 IEM_DS3505
ZGGG,1985-06-03 06:00,ZGGG 030600Z AUTO 16008KT 7SM 30/24 RMK SLP060 T02990245 4////0242 57014 IEM_DS3505
ZGGG,1985-06-03 09:00,ZGGG 030900Z AUTO 14010KT 7SM 28/25 RMK SLP048 T02840246 57012 IEM_DS3505
ZGGG,1985-06-03 12:00,ZGGG 031200Z AUTO 14006KT 7SM 28/25 RMK SLP057 T02750247 52009 IEM_DS3505
ZGGG,1985-06-03 15:00,ZGGG 031500Z AUTO 14008KT 6SM 26/24 RMK SLP078 T02650240 52021 IEM_DS3505
ZGGG,1985-06-03 18:00,ZGGG 031800Z AUTO 11004KT 5SM 26/24 RMK SLP076 T02550240 40300//// 57002 IEM_DS3505
ZGGG,1985-06-03 21:00,ZGGG 032100Z AUTO 00000KT 4SM 25/24 RMK SLP077 T02540242 52001 IEM_DS3505
ZGGG,1985-06-04 00:00,ZGGG 040000Z AUTO 11008KT 2 1/2SM 26/24 RMK SLP090 T02590243 52013 IEM_DS3505
ZGGG,1985-06-04 02:00,ZGGG 040200Z AUTO 14010KT 7SM 29/25 A2977 RMK T02900250 IEM_DS3505
ZGGG,1985-06-04 03:00,ZGGG 040300Z AUTO 11004KT 6SM 29/25 RMK SLP094 T02900248 52004 IEM_DS3505
ZGGG,1985-06-04 05:00,ZGGG 040500Z AUTO 14010KT 7SM 30/25 A2977 RMK T03000250 IEM_DS3505
ZGGG,1985-06-04 06:00,ZGGG 040600Z AUTO 11008KT 7SM 30/26 A2974 RMK SLP079 T03020260 4////0252 57015 IEM_DS3505
ZGGG,1985-06-04 07:00,ZGGG 040700Z AUTO 14012KT 7SM 31/26 A2971 RMK T03100260 IEM_DS3505
ZGGG,1985-06-04 08:00,ZGGG 040800Z AUTO 14014KT 7SM 30/25 A2971 RMK T03000250 IEM_DS3505
ZGGG,1985-06-04 09:00,ZGGG 040900Z AUTO 14006KT 7SM 29/26 A2971 RMK SLP069 T02910255 57010 IEM_DS3505
ZGGG,1985-06-04 10:00,ZGGG 041000Z AUTO 12006KT 7SM 26/25 A2971 RMK T02600250 IEM_DS3505
ZGGG,1985-06-04 12:00,ZGGG 041200Z AUTO 09004KT 5SM 26/25 RMK 60035 SLP081 T02640253 52012 IEM_DS3505
ZGGG,1985-06-04 15:00,ZGGG 041500Z AUTO 14006KT 5SM 27/25 RMK SLP092 T02670254 52011 IEM_DS3505
ZGGG,1985-06-04 18:00,ZGGG 041800Z AUTO 09004KT 4SM 26/25 RMK SLP088 T02580249 40311//// 57004 IEM_DS3505
ZGGG,1985-06-04 21:00,ZGGG 042100Z AUTO 09002KT 4SM 26/25 RMK SLP083 T02550247 57005 IEM_DS3505
ZGGG,1985-06-05 00:00,ZGGG 050000Z AUTO 11004KT 4SM 27/25 RMK 60000 SLP094 T02660253 52011 IEM_DS3505
ZGGG,1985-06-05 03:00,ZGGG 050300Z AUTO 11006KT 5SM 29/26 RMK SLP095 T02900257 52001 IEM_DS3505
ZGGG,1985-06-05 09:00,ZGGG 050900Z AUTO 00000KT 6SM 27/25 RMK SLP065 T02740251 57022 IEM_DS3505
ZGGG,1985-06-05 12:00,ZGGG 051200Z AUTO 09004KT 5SM 26/25 RMK SLP080 T02630248 52015 IEM_DS3505
ZGGG,1985-06-05 15:00,ZGGG 051500Z AUTO 00000KT 4SM 26/25 RMK SLP087 T02620251 52007 IEM_DS3505
ZGGG,1985-06-05 18:00,ZGGG 051800Z AUTO 14002KT 4SM 26/25 RMK SLP075 T02630254 40304//// 57012 IEM_DS3505
ZGGG,1985-06-05 21:00,ZGGG 052100Z AUTO 00000KT 2 1/2SM 26/26 RMK SLP068 T02630255 57007 IEM_DS3505
ZGGG,1985-06-06 00:00,ZGGG 060000Z AUTO 14004KT 4SM 28/26 RMK 70004 SLP065 T02770261 57003 IEM_DS3505
ZGGG,1985-06-06 03:00,ZGGG 060300Z AUTO 18006KT 7SM 30/26 RMK SLP063 T03030256 57002 IEM_DS3505
ZGGG,1985-06-06 06:00,ZGGG 060600Z AUTO 18010KT 7SM 32/25 RMK SLP041 T03180253 4////0258 57022 IEM_DS3505
ZGGG,1985-06-06 09:00,ZGGG 060900Z AUTO 07002KT 6SM 28/26 RMK SLP022 T02760255 57019 IEM_DS3505
ZGGG,1985-06-06 12:00,ZGGG 061200Z AUTO 00000KT 9SM 27/25 RMK 60016 SLP029 T02700250 52007 IEM_DS3505
ZGGG,1985-06-06 15:00,ZGGG 061500Z AUTO 00000KT 9SM 26/25 RMK SLP045 T02640253 52016 IEM_DS3505
ZGGG,1985-06-06 18:00,ZGGG 061800Z AUTO 00000KT 7SM 27/26 RMK SLP023 T02680259 40330//// 57022 IEM_DS3505
ZGGG,1985-06-06 21:00,ZGGG 062100Z AUTO 00000KT 5SM 27/26 RMK SLP017 T02670259 57006 IEM_DS3505
ZGGG,1985-06-07 00:00,ZGGG 070000Z AUTO 36006KT 7SM 25/24 RMK 60012 SLP025 T02510240 52008 IEM_DS3505
ZGGG,1985-06-07 03:00,ZGGG 070300Z AUTO 04002KT 9SM 27/24 RMK SLP029 T02670241 52004 IEM_DS3505
ZGGG,1985-06-07 06:00,ZGGG 070600Z AUTO 27004KT 11SM 29/24 RMK 60016 SLP016 T02890243 4////0245 57013 IEM_DS3505
ZGGG,1985-06-07 09:00,ZGGG 070900Z AUTO 32002KT 11SM 29/24 RMK SLP004 T02930236 57012 IEM_DS3505
ZGGG,1985-06-07 12:00,ZGGG 071200Z AUTO 10SM 27/24 RMK SLP010 T02690236 52006 IEM_DS3505
ZGGG,1985-06-07 15:00,ZGGG 071500Z AUTO 00000KT 9SM 26/24 RMK SLP025 T02570241 52015 IEM_DS3505
ZGGG,1985-06-07 18:00,ZGGG 071800Z AUTO 00000KT 6SM 25/24 RMK SLP017 T02480236 40298//// 57008 IEM_DS3505
ZGGG,1985-06-07 21:00,ZGGG 072100Z AUTO 00000KT 6SM 24/23 RMK 70024 SLP014 T02420234 57003 IEM_DS3505
ZGGG,1985-06-08 00:00,ZGGG 080000Z AUTO 00000KT 5SM 27/24 RMK SLP029 T02700243 52015 IEM_DS3505
ZGGG,1985-06-08 03:00,ZGGG 080300Z AUTO 00000KT 7SM 30/23 A2959 RMK SLP028 T03040227 57001 IEM_DS3505
ZGGG,1985-06-08 05:00,ZGGG 080500Z AUTO 03004KT 7SM 31/21 A2956 RMK T03100210 IEM_DS3505
ZGGG,1985-06-08 06:00,ZGGG 080600Z AUTO 27004KT 9SM 32/21 A2956 RMK SLP022 T03220212 4////0238 57006 IEM_DS3505
ZGGG,1985-06-08 09:00,ZGGG 080900Z AUTO 29002KT 9SM 32/20 RMK SLP011 T03240204 57011 IEM_DS3505
ZGGG,1985-06-08 12:00,ZGGG 081200Z AUTO 00000KT 8SM 29/24 RMK SLP021 T02860238 52010 IEM_DS3505
ZGGG,1985-06-08 15:00,ZGGG 081500Z AUTO 09002KT 7SM 26/24 RMK SLP038 T02640238 52017 IEM_DS3505
ZGGG,1985-06-08 18:00,ZGGG 081800Z AUTO 00000KT 5SM 26/24 RMK SLP032 T02580242 40329//// 57006 IEM_DS3505
ZGGG,1985-06-08 21:00,ZGGG 082100Z AUTO 09004KT 4SM 25/23 RMK SLP035 T02460234 52003 IEM_DS3505
ZGGG,1985-06-09 00:00,ZGGG 090000Z AUTO 07004KT 5SM 26/24 RMK SLP052 T02560237 52017 IEM_DS3505
ZGGG,1985-06-09 03:00,ZGGG 090300Z AUTO 09004KT 9SM 28/24 RMK SLP049 T02850239 57003 IEM_DS3505
ZGGG,1985-06-09 06:00,ZGGG 090600Z AUTO 09004KT 4SM 29/24 RMK SLP040 T02920235 4////0244 57009 IEM_DS3505
ZGGG,1985-06-09 09:00,ZGGG 090900Z AUTO 16006KT 5SM 29/24 RMK SLP033 T02920237 57007 IEM_DS3505
ZGGG,1985-06-09 12:00,ZGGG 091200Z AUTO 16004KT 7SM 28/23 RMK SLP041 T02760228 52008 IEM_DS3505
ZGGG,1985-06-09 15:00,ZGGG 091500Z AUTO 11006KT 6SM 26/23 RMK SLP057 T02650229 52016 IEM_DS3505
ZGGG,1985-06-09 18:00,ZGGG 091800Z AUTO 00000KT 6SM 26/23 RMK SLP046 T02550227 40302//// 57011 IEM_DS3505
ZGGG,1985-06-09 21:00,ZGGG 092100Z AUTO 09004KT 6SM 25/23 RMK SLP036 T02480226 57010 IEM_DS3505
ZGGG,1985-06-10 00:00,ZGGG 100000Z AUTO 07002KT 4SM 25/22 RMK SLP051 T02540222 52015 IEM_DS3505
ZGGG,1985-06-10 03:00,ZGGG 100300Z AUTO 11004KT 6SM 27/23 RMK SLP052 T02710231 52001 IEM_DS3505
ZGGG,1985-06-10 06:00,ZGGG 100600Z AUTO 09004KT 7SM 29/25 RMK SLP036 T02930246 4////0247 57016 IEM_DS3505
ZGGG,1985-06-10 09:00,ZGGG 100900Z AUTO 16004KT 6SM 29/25 RMK SLP030 T02900250 57006 IEM_DS3505
ZGGG,1985-06-10 12:00,ZGGG 101200Z AUTO 16004KT 2 1/2SM 27/25 RMK 60008 SLP033 T02700253 52003 IEM_DS3505
ZGGG,1985-06-10 15:00,ZGGG 101500Z AUTO 18002KT 2 1/2SM 26/25 RMK SLP042 T02640251 52009 IEM_DS3505
ZGGG,1985-06-10 18:00,ZGGG 101800Z AUTO 16004KT 2 1/2SM 26/24 RMK SLP038 T02560240 40304//// 57004 IEM_DS3505
ZGGG,1985-06-10 21:00,ZGGG 102100Z AUTO 11002KT 4SM 25/24 RMK SLP038 T02530239 54000 IEM_DS3505
ZGGG,1985-06-11 00:00,ZGGG 110000Z AUTO 09002KT 2SM 27/24 RMK SLP048 T02680244 52010 IEM_DS3505
ZGGG,1985-06-11 03:00,ZGGG 110300Z AUTO 16002KT 2SM 28/23 A2965 RMK SLP055 T02780233 52007 IEM_DS3505
ZGGG,1985-06-11 04:00,ZGGG 110400Z AUTO 00000KT 2SM 28/25 A2965 RMK T02800250 IEM_DS3505
ZGGG,1985-06-11 06:00,ZGGG 110600Z AUTO 00000KT 4SM 31/25 A2959 RMK SLP028 T03110246 4////0249 57027 IEM_DS3505
ZGGG,1985-06-11 07:00,ZGGG 110700Z AUTO 25004KT 4SM 31/25 A2956 RMK T03100250 IEM_DS3505
ZGGG,1985-06-11 08:00,ZGGG 110800Z AUTO 18006KT 4SM 30/26 A2953 RMK T03000260 IEM_DS3505
ZGGG,1985-06-11 09:00,ZGGG 110900Z AUTO 22004KT 4SM 29/25 RMK SLP012 T02910246 57016 IEM_DS3505
ZGGG,1985-06-11 12:00,ZGGG 111200Z AUTO 18004KT 6SM 28/26 RMK 60000 SLP020 T02820257 52008 IEM_DS3505
ZGGG,1985-06-11 15:00,ZGGG 111500Z AUTO 00000KT 3SM 27/25 RMK SLP041 T02700254 52021 IEM_DS3505
ZGGG,1985-06-11 18:00,ZGGG 111800Z AUTO 00000KT 5SM 26/25 RMK SLP032 T02610250 40317//// 57009 IEM_DS3505
ZGGG,1985-06-11 21:00,ZGGG 112100Z AUTO 00000KT 4SM 25/25 RMK SLP030 T02540247 57002 IEM_DS3505
ZGGG,1985-06-12 00:00,ZGGG 120000Z AUTO 00000KT 4SM 28/26 RMK SLP044 T02820255 52016 IEM_DS3505
ZGGG,1985-06-12 03:00,ZGGG 120300Z AUTO 14004KT 4SM 32/25 RMK SLP041 T03150254 57005 IEM_DS3505
ZGGG,1985-06-12 06:00,ZGGG 120600Z AUTO 18004KT 7SM 33/24 RMK SLP022 T03280243 4////0253 57019 IEM_DS3505
ZGGG,1985-06-12 09:00,ZGGG 120900Z AUTO 29008KT 6SM 32/23 RMK SLP021 T03190233 57001 IEM_DS3505
ZGGG,1985-06-12 12:00,ZGGG 121200Z AUTO 20004KT 7SM 28/24 RMK SLP040 T02800241 52019 IEM_DS3505
ZGGG,1985-06-12 15:00,ZGGG 121500Z AUTO 00000KT 5SM 27/25 RMK SLP056 T02700248 52016 IEM_DS3505
ZGGG,1985-06-12 18:00,ZGGG 121800Z AUTO 34004KT 6SM 26/25 RMK SLP045 T02650249 40336//// 57011 IEM_DS3505
ZGGG,1985-06-12 21:00,ZGGG 122100Z AUTO 36004KT 5SM 25/24 RMK SLP046 T02470242 52001 IEM_DS3505
ZGGG,1985-06-13 00:00,ZGGG 130000Z AUTO 02004KT 7SM 26/24 RMK 60059 SLP058 T02600242 52012 IEM_DS3505
ZGGG,1985-06-13 03:00,ZGGG 130300Z AUTO 02006KT 9SM 27/22 RMK SLP065 T02740225 52007 IEM_DS3505
ZGGG,1985-06-13 06:00,ZGGG 130600Z AUTO 02008KT 10SM 28/22 RMK SLP054 T02830225 4////0244 57011 IEM_DS3505
ZGGG,1985-06-13 09:00,ZGGG 130900Z AUTO 02004KT 10SM 27/22 RMK SLP048 T02720217 57006 IEM_DS3505
ZGGG,1985-06-13 12:00,ZGGG 131200Z AUTO 02002KT 27/21 RMK SLP062 T02720211 52014 IEM_DS3505
ZGGG,1985-06-13 15:00,ZGGG 131500Z AUTO 36004KT 7SM 27/20 RMK SLP079 T02660205 52017 IEM_DS3505
ZGGG,1985-06-13 18:00,ZGGG 131800Z AUTO 36002KT 7SM 25/20 RMK SLP064 T02530201 40290//// 57015 IEM_DS3505
ZGGG,1985-06-13 21:00,ZGGG 132100Z AUTO 00000KT 7SM 24/19 RMK SLP060 T02450194 57004 IEM_DS3505
ZGGG,1985-06-14 00:00,ZGGG 140000Z AUTO 07004KT 9SM 25/20 RMK SLP072 T02500199 52012 IEM_DS3505
ZGGG,1985-06-14 03:00,ZGGG 140300Z AUTO 09004KT 6SM 28/21 RMK SLP074 T02760211 52002 IEM_DS3505
ZGGG,1985-06-14 06:00,ZGGG 140600Z AUTO 11006KT 7SM 28/22 RMK SLP065 T02780218 4////0236 57009 IEM_DS3505
ZGGG,1985-06-14 09:00,ZGGG 140900Z AUTO 14006KT 7SM 27/22 RMK SLP048 T02740222 57017 IEM_DS3505
ZGGG,1985-06-14 12:00,ZGGG 141200Z AUTO 16004KT 7SM 26/23 RMK SLP061 T02640231 52013 IEM_DS3505
ZGGG,1985-06-14 15:00,ZGGG 141500Z AUTO 00000KT 6SM 26/22 RMK SLP067 T02550215 52006 IEM_DS3505
ZGGG,1985-06-14 18:00,ZGGG 141800Z AUTO 00000KT 5SM 25/22 RMK SLP052 T02460222 40288//// 57015 IEM_DS3505
ZGGG,1985-06-14 21:00,ZGGG 142100Z AUTO 00000KT 4SM 24/22 RMK SLP045 T02420224 57007 IEM_DS3505
ZGGG,1985-06-15 00:00,ZGGG 150000Z AUTO 02004KT 2 1/2SM 26/22 RMK SLP050 T02560225 52005 IEM_DS3505
ZGGG,1985-06-15 02:00,ZGGG 150200Z AUTO 36008KT 4SM 26/23 A2965 RMK T02600230 IEM_DS3505
ZGGG,1985-06-15 03:00,ZGGG 150300Z AUTO 09004KT 2 1/2SM 28/23 A2965 RMK SLP051 T02800230 52001 IEM_DS3505
ZGGG,1985-06-15 04:00,ZGGG 150400Z AUTO 02006KT 6SM 28/23 A2965 RMK T02800230 IEM_DS3505
ZGGG,1985-06-15 05:00,ZGGG 150500Z AUTO 00000KT 6SM 29/23 A2962 RMK T02900230 IEM_DS3505
ZGGG,1985-06-15 06:00,ZGGG 150600Z AUTO 07006KT 7SM 31/20 A2959 RMK SLP035 T03070205 4////0237 57016 IEM_DS3505
ZGGG,1985-06-15 07:00,ZGGG 150700Z AUTO 00000KT 6SM 31/20 A2959 RMK T03100200 IEM_DS3505
ZGGG,1985-06-15 08:00,ZGGG 150800Z AUTO 13010KT 6SM 31/20 A2956 RMK T03100200 IEM_DS3505
ZGGG,1985-06-15 09:00,ZGGG 150900Z AUTO 11006KT 9SM 31/20 A2953 RMK SLP018 T03060202 57017 IEM_DS3505
ZGGG,1985-06-15 11:00,ZGGG 151100Z AUTO 00000KT 7SM 28/ RMK 52010 IEM_DS3505
ZGGG,1985-06-15 12:00,ZGGG 151200Z AUTO 00000KT 7SM 27/21 RMK SLP028 T02710209 52010 IEM_DS3505
ZGGG,1985-06-15 15:00,ZGGG 151500Z AUTO 00000KT 6SM 25/22 RMK SLP039 T02540216 52011 IEM_DS3505
ZGGG,1985-06-15 18:00,ZGGG 151800Z AUTO 00000KT 5SM 25/22 RMK SLP031 T02500221 40313//// 57008 IEM_DS3505
ZGGG,1985-06-15 21:00,ZGGG 152100Z AUTO 00000KT 4SM 24/22 RMK SLP026 T02440223 57005 IEM_DS3505
ZGGG,1985-06-16 00:00,ZGGG 160000Z AUTO 00000KT 5SM 26/22 RMK SLP035 T02620223 52009 IEM_DS3505
ZGGG,1985-06-16 03:00,ZGGG 160300Z AUTO 14004KT 4SM 29/22 RMK SLP039 T02880223 52004 IEM_DS3505
ZGGG,1985-06-16 06:00,ZGGG 160600Z AUTO 09008KT 5SM 29/23 RMK SLP024 T02880232 57015 IEM_DS3505
ZGGG,1985-06-16 09:00,ZGGG 160900Z AUTO 14004KT 6SM 30/22 RMK SLP011 T03010219 57013 IEM_DS3505
ZGGG,1985-06-16 12:00,ZGGG 161200Z AUTO 32002KT 3SM 25/24 RMK 60028 SLP029 T02500235 52018 IEM_DS3505
ZGGG,1985-06-16 15:00,ZGGG 161500Z AUTO 00000KT 4SM 26/24 RMK SLP036 T02600245 52007 IEM_DS3505
ZGGG,1985-06-16 18:00,ZGGG 161800Z AUTO 00000KT 4SM 25/24 RMK 60001 SLP021 T02520242 40313//// 57015 IEM_DS3505
ZGGG,1985-06-16 21:00,ZGGG 162100Z AUTO 00000KT 4SM 25/24 RMK SLP016 T02460238 57005 IEM_DS3505
ZGGG,1985-06-17 00:00,ZGGG 170000Z AUTO 02002KT 5SM 26/23 RMK SLP032 T02580233 52016 IEM_DS3505
ZGGG,1985-06-17 03:00,ZGGG 170300Z AUTO 07004KT 6SM 28/23 RMK SLP028 T02850234 57004 IEM_DS3505
ZGGG,1985-06-17 06:00,ZGGG 170600Z AUTO 00000KT 7SM 32/23 RMK SLP007 T03180229 4////0243 57021 IEM_DS3505
ZGGG,1985-06-17 09:00,ZGGG 170900Z AUTO 27002KT 6SM 28/24 RMK SLP996 T02820245 57011 IEM_DS3505
ZGGG,1985-06-17 12:00,ZGGG 171200Z AUTO 14002KT 5SM 26/25 RMK 60055 SLP006 T02610246 52010 IEM_DS3505
ZGGG,1985-06-17 15:00,ZGGG 171500Z AUTO 00000KT 2 1/2SM 25/24 RMK SLP028 T02530241 52022 IEM_DS3505
ZGGG,1985-06-17 18:00,ZGGG 171800Z AUTO 00000KT 5SM 25/24 RMK 60012 SLP020 T02500243 40320//// 57008 IEM_DS3505
ZGGG,1985-06-17 21:00,ZGGG 172100Z AUTO 02002KT 4SM 25/24 RMK SLP017 T02470239 57003 IEM_DS3505
ZGGG,1985-06-18 00:00,ZGGG 180000Z AUTO 09002KT 5SM 26/24 RMK 60004 SLP026 T02590240 52009 IEM_DS3505
ZGGG,1985-06-18 03:00,ZGGG 180300Z AUTO 00000KT 6SM 29/24 RMK SLP023 T02890241 57003 IEM_DS3505
ZGGG,1985-06-18 04:00,ZGGG 180400Z AUTO 01002KT 7SM 28/25 A2956 RMK T02800250 IEM_DS3505
ZGGG,1985-06-18 05:00,ZGGG 180500Z AUTO 12004KT 7SM 28/25 A2956 RMK T02800250 IEM_DS3505
ZGGG,1985-06-18 06:00,ZGGG 180600Z AUTO 02002KT 6SM 28/26 A2953 RMK 60001 SLP013 T02830259 4////0242 57010 IEM_DS3505
ZGGG,1985-06-18 07:00,ZGGG 180700Z AUTO 00000KT 7SM 30/24 A2950 RMK T03000240 IEM_DS3505
ZGGG,1985-06-18 08:00,ZGGG 180800Z AUTO 36008KT 7SM 29/25 A2953 RMK T02900250 IEM_DS3505
ZGGG,1985-06-18 09:00,ZGGG 180900Z AUTO 25004KT 7SM 28/24 RMK SLP005 T02750241 57008 IEM_DS3505
ZGGG,1985-06-18 11:00,ZGGG 181100Z AUTO 00000KT 6SM 26/25 RMK 60047 SLP020 T02580250 52015 IEM_DS3505
ZGGG,1985-06-18 12:00,ZGGG 181200Z AUTO 00000KT 6SM 26/25 RMK 60047 SLP020 T02580250 52015 IEM_DS3505
ZGGG,1985-06-18 15:00,ZGGG 181500Z AUTO 00000KT 6SM 25/24 RMK SLP033 T02510241 52013 IEM_DS3505
ZGGG,1985-06-18 18:00,ZGGG 181800Z AUTO 00000KT 6SM 25/24 RMK 60094 SLP028 T02490242 40302//// 57005 IEM_DS3505
ZGGG,1985-06-18 21:00,ZGGG 182100Z AUTO 00000KT 5SM 25/24 RMK 70150 SLP026 T02460239 57002 IEM_DS3505
ZGGG,1985-06-19 00:00,ZGGG 190000Z AUTO 07002KT 7SM 27/24 RMK 60004 SLP037 T02660240 52011 IEM_DS3505
ZGGG,1985-06-19 03:00,ZGGG 190300Z AUTO 11004KT 6SM 29/24 RMK SLP042 T02900240 52005 IEM_DS3505
ZGGG,1985-06-19 06:00,ZGGG 190600Z AUTO 14006KT 7SM 29/24 RMK SLP028 T02920239 4////0244 57014 IEM_DS3505
ZGGG,1985-06-19 09:00,ZGGG 190900Z AUTO 16006KT 9SM 29/23 RMK SLP014 T02920233 57014 IEM_DS3505
ZGGG,1985-06-19 12:00,ZGGG 191200Z AUTO 14004KT 7SM 26/24 RMK SLP028 T02600239 52014 IEM_DS3505
ZGGG,1985-06-19 15:00,ZGGG 191500Z AUTO 00000KT 7SM 26/24 RMK SLP042 T02590236 52014 IEM_DS3505
ZGGG,1985-06-19 18:00,ZGGG 191800Z AUTO 14004KT 5SM 25/23 RMK SLP037 T02470232 40302//// 57005 IEM_DS3505
ZGGG,1985-06-19 21:00,ZGGG 192100Z AUTO 07002KT 6SM 24/23 RMK SLP028 T02430231 57009 IEM_DS3505
ZGGG,1985-06-20 00:00,ZGGG 200000Z AUTO 09004KT 7SM 26/24 RMK 60000 SLP037 T02580236 52009 IEM_DS3505
ZGGG,1985-06-20 03:00,ZGGG 200300Z AUTO 11006KT 9SM 28/23 RMK SLP043 T02790232 52006 IEM_DS3505
ZGGG,1985-06-20 06:00,ZGGG 200600Z AUTO 11008KT 11SM 30/24 RMK SLP028 T03030236 4////0241 57015 IEM_DS3505
ZGGG,1985-06-20 09:00,ZGGG 200900Z AUTO 11004KT 11SM 30/24 RMK SLP015 T02970239 57013 IEM_DS3505
ZGGG,1985-06-20 12:00,ZGGG 201200Z AUTO 14004KT 7SM 27/25 RMK SLP029 T02720246 52014 IEM_DS3505
ZGGG,1985-06-20 15:00,ZGGG 201500Z AUTO 14006KT 7SM 27/23 RMK SLP048 T02700234 52019 IEM_DS3505
ZGGG,1985-06-20 18:00,ZGGG 201800Z AUTO 09004KT 7SM 26/24 RMK 60000 SLP042 T02610239 40310//// 57006 IEM_DS3505
ZGGG,1985-06-20 21:00,ZGGG 202100Z AUTO 09002KT 5SM 26/24 RMK SLP042 T02590238 54000 IEM_DS3505
ZGGG,1985-06-21 00:00,ZGGG 210000Z AUTO 09004KT 7SM 27/24 RMK SLP048 T02660239 52006 IEM_DS3505
ZGGG,1985-06-21 03:00,ZGGG 210300Z AUTO 11006KT 9SM 29/24 RMK SLP043 T02880240 57005 IEM_DS3505
ZGGG,1985-06-21 06:00,ZGGG 210600Z AUTO 14006KT 7SM 30/25 RMK SLP038 T03000246 4////0254 57005 IEM_DS3505
ZGGG,1985-06-21 09:00,ZGGG 210900Z AUTO 09004KT 6SM 28/24 RMK SLP024 T02830244 57014 IEM_DS3505
ZGGG,1985-06-21 12:00,ZGGG 211200Z AUTO 00000KT 7SM 28/25 RMK SLP035 T02820247 52011 IEM_DS3505
ZGGG,1985-06-21 15:00,ZGGG 211500Z AUTO 00000KT 7SM 27/25 RMK SLP046 T02720249 52011 IEM_DS3505
ZGGG,1985-06-21 18:00,ZGGG 211800Z AUTO 00000KT 5SM 26/25 RMK SLP033 T02610246 40311//// 57013 IEM_DS3505
ZGGG,1985-06-21 21:00,ZGGG 212100Z AUTO 00000KT 4SM 26/25 RMK SLP023 T02550247 57010 IEM_DS3505
ZGGG,1985-06-22 00:00,ZGGG 220000Z AUTO 29004KT 2 1/2SM 28/25 RMK SLP027 T02750251 52004 IEM_DS3505
ZGGG,1985-06-22 03:00,ZGGG 220300Z AUTO 34006KT 9SM 31/25 RMK SLP015 T03120248 57012 IEM_DS3505
ZGGG,1985-06-22 06:00,ZGGG 220600Z AUTO 32004KT 16SM 34/26 RMK SLP991 T03380259 4////0253 57024 IEM_DS3505
ZGGG,1985-06-22 09:00,ZGGG 220900Z AUTO 34006KT 15SM 35/25 RMK SLP962 T03480254 57029 IEM_DS3505
ZGGG,1985-06-22 12:00,ZGGG 221200Z AUTO 29004KT 10SM 32/26 RMK SLP960 T03230258 57002 IEM_DS3505
ZGGG,1985-06-22 15:00,ZGGG 221500Z AUTO 00000KT 7SM 30/26 RMK SLP963 T03020255 52003 IEM_DS3505
ZGGG,1985-06-22 18:00,ZGGG 221800Z AUTO 29002KT 7SM 30/26 RMK SLP945 T03000259 40353//// 57018 IEM_DS3505
ZGGG,1985-06-22 21:00,ZGGG 222100Z AUTO 36006KT 7SM 30/24 RMK SLP948 T03020238 52003 IEM_DS3505
ZGGG,1985-06-23 00:00,ZGGG 230000Z AUTO 36006KT 7SM 31/24 RMK SLP957 T03080245 52009 IEM_DS3505
ZGGG,1985-06-23 03:00,ZGGG 230300Z AUTO 36006KT 7SM 33/24 RMK SLP951 T03320239 57006 IEM_DS3505
ZGGG,1985-06-23 06:00,ZGGG 230600Z AUTO 36006KT 9SM 33/24 RMK SLP939 T03340241 4////0293 57012 IEM_DS3505
ZGGG,1985-06-23 09:00,ZGGG 230900Z AUTO 36006KT 7SM 33/25 RMK SLP920 T03330253 57019 IEM_DS3505
ZGGG,1985-06-23 12:00,ZGGG 231200Z AUTO 34004KT 10SM 32/24 RMK SLP927 T03160243 52007 IEM_DS3505
ZGGG,1985-06-23 15:00,ZGGG 231500Z AUTO 34010KT 9SM 31/23 RMK SLP927 T03080231 54000 IEM_DS3505
ZGGG,1985-06-23 17:00,ZGGG 231700Z AUTO 34008KT 9SM 30/23 RMK SLP917 T03050233 57010 IEM_DS3505
ZGGG,1985-06-23 18:00,ZGGG 231800Z AUTO 36010KT 9SM 30/23 RMK 60001 SLP912 T03030232 40342//// 57015 IEM_DS3505
ZGGG,1985-06-23 19:00,ZGGG 231900Z AUTO 34008KT 9SM 30/23 RMK SLP907 T03030227 57017 IEM_DS3505
ZGGG,1985-06-23 20:00,ZGGG 232000Z AUTO 34006KT 8SM 30/ RMK SLP906 57011 IEM_DS3505
ZGGG,1985-06-23 21:00,ZGGG 232100Z AUTO 34008KT 8SM 30/22 RMK SLP907 T02980220 57005 IEM_DS3505
ZGGG,1985-06-23 22:00,ZGGG 232200Z AUTO 34006KT 10SM 30/22 RMK SLP904 T02980217 57003 IEM_DS3505
ZGGG,1985-06-23 23:00,ZGGG 232300Z AUTO 36006KT 10SM 30/22 RMK SLP908 T02960223 52020 IEM_DS3505
ZGGG,1985-06-24 00:00,ZGGG 240000Z AUTO 36012KT 11SM 29/22 RMK SLP906 T02930219 57001 IEM_DS3505
ZGGG,1985-06-24 01:00,ZGGG 240100Z AUTO 34010KT 11SM 31/ RMK SLP905 52001 IEM_DS3505
ZGGG,1985-06-24 02:00,ZGGG 240200Z AUTO 32012KT 11SM 30/23 RMK SLP904 T03030227 57004 IEM_DS3505
ZGGG,1985-06-24 03:00,ZGGG 240300Z AUTO 34012KT 11SM 31/23 RMK SLP904 T03080228 57002 IEM_DS3505
ZGGG,1985-06-24 04:00,ZGGG 240400Z AUTO 36012KT 6SM 30/23 RMK SLP903 T02950226 57002 IEM_DS3505
ZGGG,1985-06-24 05:00,ZGGG 240500Z AUTO 36016KT 7SM 28/23 RMK SLP900 T02750232 57004 IEM_DS3505
ZGGG,1985-06-24 06:00,ZGGG 240600Z AUTO 34006KT 11SM 28/23 RMK 60004 SLP897 T02760233 4////0265 57007 IEM_DS3505
ZGGG,1985-06-24 07:00,ZGGG 240700Z AUTO 02008KT 27/ RMK SLP894 57009 IEM_DS3505
ZGGG,1985-06-24 08:00,ZGGG 240800Z AUTO 32006KT 11SM 29/25 RMK SLP887 T02910248 57013 IEM_DS3505
ZGGG,1985-06-24 09:00,ZGGG 240900Z AUTO 32006KT 11SM 30/24 RMK SLP887 T03010236 57010 IEM_DS3505
ZGGG,1985-06-24 10:00,ZGGG 241000Z AUTO 29010KT 2 1/2SM 26/ RMK SLP887 57007 IEM_DS3505
ZGGG,1985-06-24 12:00,ZGGG 241200Z AUTO 32006KT 2SM 26/25 RMK 60028 SLP902 T02590248 52015 IEM_DS3505
ZGGG,1985-06-24 15:00,ZGGG 241500Z AUTO 29008KT 2SM 26/24 RMK SLP919 T02570243 52017 IEM_DS3505
ZGGG,1985-06-24 18:00,ZGGG 241800Z AUTO 27006KT 2SM 26/24 RMK 60012 SLP915 T02550241 40315//// 57004 IEM_DS3505
ZGGG,1985-06-24 19:00,ZGGG 241900Z AUTO 1 1/4SM 25/25 A2947 RMK T02500250 IEM_DS3505
ZGGG,1985-06-24 21:00,ZGGG 242100Z AUTO 32006KT 2SM 26/24 RMK SLP925 T02560235 52010 IEM_DS3505
ZGGG,1985-06-25 00:00,ZGGG 250000Z AUTO 27004KT 2SM 26/24 RMK 60016 SLP947 T02570241 52022 IEM_DS3505
ZGGG,1985-06-25 03:00,ZGGG 250300Z AUTO 27002KT 2SM 25/24 RMK SLP972 T02530243 52025 IEM_DS3505
ZGGG,1985-06-25 05:00,ZGGG 250500Z AUTO 20006KT 1 1/2SM 26/25 RMK T02600250 IEM_DS3505
ZGGG,1985-06-25 06:00,ZGGG 250600Z AUTO 25002KT 2 1/2SM 26/25 A2941 RMK 60071 SLP969 T02620251 4////0248 57003 IEM_DS3505
ZGGG,1985-06-25 07:00,ZGGG 250700Z AUTO 16004KT 1 1/2SM 26/25 A2941 RMK T02600250 IEM_DS3505
ZGGG,1985-06-25 08:00,ZGGG 250800Z AUTO 17008KT 3SM 27/25 A2941 RMK T02700250 IEM_DS3505
ZGGG,1985-06-25 09:00,ZGGG 250900Z AUTO 00000KT 2SM 27/26 RMK SLP967 T02740262 57002 IEM_DS3505
ZGGG,1985-06-25 15:00,ZGGG 251500Z AUTO 00000KT 2SM 26/26 RMK SLP001 T02650258 52017 IEM_DS3505
ZGGG,1985-06-25 18:00,ZGGG 251800Z AUTO 00000KT 1 1/4SM 26/25 RMK SLP988 T02590254 40276//// 57013 IEM_DS3505
ZGGG,1985-06-25 21:00,ZGGG 252100Z AUTO 00000KT 1 1/4SM 26/25 RMK SLP992 T02550251 52004 IEM_DS3505
ZGGG,1985-06-26 00:00,ZGGG 260000Z AUTO 00000KT 1/2SM 26/26 RMK SLP006 T02640261 52014 IEM_DS3505
ZGGG,1985-06-26 03:00,ZGGG 260300Z AUTO 00000KT 1 1/4SM 30/27 RMK SLP007 T02950274 52001 IEM_DS3505
ZGGG,1985-06-26 06:00,ZGGG 260600Z AUTO 00000KT 6SM 32/26 RMK SLP994 T03180264 4////0251 57013 IEM_DS3505
ZGGG,1985-06-26 09:00,ZGGG 260900Z AUTO 18004KT 7SM 32/26 RMK SLP983 T03240262 57011 IEM_DS3505
ZGGG,1985-06-26 12:00,ZGGG 261200Z AUTO 18004KT 4SM 29/27 RMK SLP997 T02890269 52014 IEM_DS3505
ZGGG,1985-06-26 15:00,ZGGG 261500Z AUTO 00000KT 4SM 27/24 RMK SLP007 T02730245 52010 IEM_DS3505
ZGGG,1985-06-26 18:00,ZGGG 261800Z AUTO 00000KT 4SM 26/25 RMK SLP992 T02630249 40330//// 57015 IEM_DS3505
ZGGG,1985-06-26 21:00,ZGGG 262100Z AUTO 00000KT 4SM 26/25 RMK SLP986 T02650252 57006 IEM_DS3505
ZGGG,1985-06-27 00:00,ZGGG 270000Z AUTO 00000KT 2 1/2SM 27/26 RMK 60051 SLP995 T02730261 52009 IEM_DS3505
ZGGG,1985-06-27 03:00,ZGGG 270300Z AUTO 14004KT 4SM 29/26 RMK SLP993 T02930265 57002 IEM_DS3505
ZGGG,1985-06-27 06:00,ZGGG 270600Z AUTO 18004KT 5SM 30/27 RMK 60016 SLP972 T03000267 4////0257 57021 IEM_DS3505
ZGGG,1985-06-27 09:00,ZGGG 270900Z AUTO 27002KT 5SM 28/26 RMK SLP966 T02840256 57006 IEM_DS3505
ZGGG,1985-06-27 12:00,ZGGG 271200Z AUTO 00000KT 2SM 27/26 RMK SLP973 T02740262 52007 IEM_DS3505
ZGGG,1985-06-27 15:00,ZGGG 271500Z AUTO 00000KT 2SM 27/26 RMK SLP988 T02700259 52015 IEM_DS3505
ZGGG,1985-06-27 18:00,ZGGG 271800Z AUTO 00000KT 2SM 26/26 RMK SLP970 T02630256 40317//// 57018 IEM_DS3505
ZGGG,1985-06-27 21:00,ZGGG 272100Z AUTO 00000KT 2 1/2SM 26/25 RMK SLP970 T02580249 54000 IEM_DS3505
ZGGG,1985-06-28 00:00,ZGGG 280000Z AUTO 07004KT 2 1/2SM 27/26 RMK SLP981 T02700255 52011 IEM_DS3505
ZGGG,1985-06-28 03:00,ZGGG 280300Z AUTO 11004KT 6SM 31/26 RMK SLP980 T03060258 57001 IEM_DS3505
ZGGG,1985-06-28 06:00,ZGGG 280600Z AUTO 11008KT 7SM 33/26 RMK SLP964 T03310260 4////0256 57016 IEM_DS3505
ZGGG,1985-06-28 09:00,ZGGG 280900Z AUTO 16006KT 9SM 33/25 RMK SLP948 T03330246 57016 IEM_DS3505
ZGGG,1985-06-28 12:00,ZGGG 281200Z AUTO 16008KT 6SM 29/26 RMK SLP974 T02890262 52026 IEM_DS3505
ZGGG,1985-06-28 15:00,ZGGG 281500Z AUTO 16004KT 6SM 27/25 RMK SLP988 T02700254 52014 IEM_DS3505
ZGGG,1985-06-28 18:00,ZGGG 281800Z AUTO 00000KT 5SM 27/25 RMK 60001 SLP985 T02660253 40336//// 57003 IEM_DS3505
ZGGG,1985-06-28 21:00,ZGGG 282100Z AUTO 04002KT 4SM 26/25 RMK SLP978 T02580250 57007 IEM_DS3505
ZGGG,1985-06-29 00:00,ZGGG 290000Z AUTO 07004KT 6SM 26/25 RMK 60008 SLP993 T02640246 52015 IEM_DS3505
ZGGG,1985-06-29 03:00,ZGGG 290300Z AUTO 04006KT 9SM 29/25 RMK SLP994 T02940247 52001 IEM_DS3505
ZGGG,1985-06-29 06:00,ZGGG 290600Z AUTO 02004KT 11SM 32/24 RMK SLP971 T03160236 4////0257 57023 IEM_DS3505
ZGGG,1985-06-29 09:00,ZGGG 290900Z AUTO 29006KT 4SM 30/26 RMK SLP963 T03000256 57008 IEM_DS3505
ZGGG,1985-06-29 12:00,ZGGG 291200Z AUTO 18006KT 9SM 28/24 RMK 60020 SLP993 T02780243 52030 IEM_DS3505
ZGGG,1985-06-29 15:00,ZGGG 291500Z AUTO 00000KT 7SM 27/25 RMK SLP008 T02660250 52015 IEM_DS3505
ZGGG,1985-06-29 18:00,ZGGG 291800Z AUTO 00000KT 7SM 26/25 RMK SLP999 T02600248 40326//// 57009 IEM_DS3505
ZGGG,1985-06-29 21:00,ZGGG 292100Z AUTO 00000KT 6SM 26/24 RMK SLP996 T02590245 57003 IEM_DS3505
ZGGG,1985-06-30 00:00,ZGGG 300000Z AUTO 34004KT 7SM 28/24 RMK SLP010 T02770244 52014 IEM_DS3505
ZGGG,1985-06-30 03:00,ZGGG 300300Z AUTO 02002KT 9SM 30/24 RMK SLP009 T03040243 57001 IEM_DS3505
ZGGG,1985-06-30 06:00,ZGGG 300600Z AUTO 07006KT 11SM 32/23 RMK SLP996 T03240233 4////0256 57013 IEM_DS3505
ZGGG,1985-06-30 09:00,ZGGG 300900Z AUTO 36002KT 11SM 34/25 RMK SLP985 T03380253 57011 IEM_DS3505
ZGGG,1985-06-30 12:00,ZGGG 301200Z AUTO 00000KT 9SM 28/26 RMK 60008 SLP000 T02770260 52015 IEM_DS3505
ZGGG,1985-06-30 15:00,ZGGG 301500Z AUTO 18004KT 4SM 28/26 RMK SLP020 T02780259 52020 IEM_DS3505
ZGGG,1985-06-30 18:00,ZGGG 301800Z AUTO 16002KT 2 1/2SM 27/25 RMK SLP017 T02700250 40347//// 57003 IEM_DS3505
ZGGG,1985-06-30 21:00,ZGGG 302100Z AUTO 00000KT 2 1/2SM 27/25 RMK SLP013 T02660248 57004 IEM_DS3505
ZGGG,1985-07-01 00:00,ZGGG 010000Z AUTO 00000KT 4SM 28/25 RMK SLP027 T02780250 52014 IEM_DS3505
ZGGG,1985-07-01 03:00,ZGGG 010300Z AUTO 27006KT 4SM 32/26 RMK SLP026 T03160256 57001 IEM_DS3505
ZGGG,1985-07-01 06:00,ZGGG 010600Z AUTO 25002KT 11SM 34/26 RMK SLP004 T03380256 4////0261 57022 IEM_DS3505
ZGGG,1985-07-01 09:00,ZGGG 010900Z AUTO 20006KT 9SM 34/25 RMK SLP989 T03360251 57015 IEM_DS3505
ZGGG,1985-07-01 12:00,ZGGG 011200Z AUTO 00000KT 7SM 30/28 RMK SLP006 T03030276 52017 IEM_DS3505
ZGGG,1985-07-01 15:00,ZGGG 011500Z AUTO 00000KT 6SM 29/26 RMK SLP024 T02880263 52018 IEM_DS3505
ZGGG,1985-07-01 18:00,ZGGG 011800Z AUTO 00000KT 4SM 28/26 RMK SLP014 T02780258 40350//// 57010 IEM_DS3505
ZGGG,1985-07-01 21:00,ZGGG 012100Z AUTO 00000KT 4SM 27/26 RMK SLP005 T02730257 57009 IEM_DS3505
ZGGG,1985-07-02 00:00,ZGGG 020000Z AUTO 14004KT 4SM 28/26 RMK SLP021 T02830255 52016 IEM_DS3505
ZGGG,1985-07-02 03:00,ZGGG 020300Z AUTO 16004KT 4SM 28/24 RMK SLP029 T02810243 52008 IEM_DS3505
ZGGG,1985-07-02 05:00,ZGGG 020500Z AUTO 00000KT 5SM 31/26 A2956 RMK T03100260 IEM_DS3505
ZGGG,1985-07-02 06:00,ZGGG 020600Z AUTO 20006KT 4SM 31/24 A2953 RMK SLP012 T03120240 4////0267 57017 IEM_DS3505
ZGGG,1985-07-02 07:00,ZGGG 020700Z AUTO 19004KT 4SM 33/25 A2950 RMK T03300250 IEM_DS3505
ZGGG,1985-07-02 08:00,ZGGG 020800Z AUTO 25010KT 7SM 33/25 A2950 RMK T03300250 IEM_DS3505
ZGGG,1985-07-02 09:00,ZGGG 020900Z AUTO 20006KT 4SM 31/24 RMK SLP012 T03120240 4////0267 57017 IEM_DS3505
ZGGG,1985-07-02 12:00,ZGGG 021200Z AUTO 11002KT 4SM 30/27 RMK SLP018 T02980270 52021 IEM_DS3505
ZGGG,1985-07-02 15:00,ZGGG 021500Z AUTO 16004KT 5SM 29/27 RMK SLP041 T02860266 52023 IEM_DS3505
ZGGG,1985-07-02 18:00,ZGGG 021800Z AUTO 16002KT 6SM 28/26 RMK 60004 SLP032 T02780262 40333//// 57009 IEM_DS3505
ZGGG,1985-07-02 21:00,ZGGG 022100Z AUTO 02006KT 3SM 24/24 RMK SLP044 T02400236 52012 IEM_DS3505
ZGGG,1985-07-03 00:00,ZGGG 030000Z AUTO 11004KT 6SM 26/25 RMK 60220 SLP048 T02610246 52004 IEM_DS3505
ZGGG,1985-07-03 03:00,ZGGG 030300Z AUTO 00000KT 6SM 30/26 RMK SLP054 T02950259 52006 IEM_DS3505
ZGGG,1985-07-03 06:00,ZGGG 030600Z AUTO 00000KT 2SM 25/24 RMK 60055 SLP051 T02500243 4////0234 57003 IEM_DS3505
ZGGG,1985-07-03 09:00,ZGGG 030900Z AUTO 11004KT 4SM 26/24 RMK SLP038 T02620244 57013 IEM_DS3505
ZGGG,1985-07-03 12:00,ZGGG 031200Z AUTO 09004KT 4SM 25/25 RMK 60051 SLP051 T02540247 52013 IEM_DS3505
ZGGG,1985-07-03 15:00,ZGGG 031500Z AUTO 09004KT 2 1/2SM 25/25 RMK SLP070 T02540247 52019 IEM_DS3505
ZGGG,1985-07-03 18:00,ZGGG 031800Z AUTO 00000KT 2SM 25/25 RMK 60001 SLP063 T02540249 40297//// 57007 IEM_DS3505
ZGGG,1985-07-03 21:00,ZGGG 032100Z AUTO 00000KT 2SM 26/25 RMK SLP061 T02560251 57002 IEM_DS3505
ZGGG,1985-07-04 00:00,ZGGG 040000Z AUTO 16006KT 7SM 28/26 RMK SLP073 T02810260 52012 IEM_DS3505
ZGGG,1985-07-04 03:00,ZGGG 040300Z AUTO 18008KT 9SM 30/25 RMK SLP071 T03040249 57002 IEM_DS3505
ZGGG,1985-07-04 06:00,ZGGG 040600Z AUTO 09006KT 7SM 30/26 RMK SLP056 T02980261 4////0246 57015 IEM_DS3505
ZGGG,1985-07-04 09:00,ZGGG 040900Z AUTO 16004KT 7SM 29/25 RMK SLP041 T02920252 57015 IEM_DS3505
ZGGG,1985-07-04 12:00,ZGGG 041200Z AUTO 16004KT 7SM 28/25 RMK 60028 SLP058 T02830251 52017 IEM_DS3505
ZGGG,1985-07-04 15:00,ZGGG 041500Z AUTO 14004KT 7SM 27/25 RMK SLP079 T02700246 52021 IEM_DS3505
ZGGG,1985-07-04 18:00,ZGGG 041800Z AUTO 14004KT 7SM 26/25 RMK SLP081 T02640248 40320//// 52002 IEM_DS3505
ZGGG,1985-07-04 21:00,ZGGG 042100Z AUTO 11004KT 6SM 26/25 RMK SLP068 T02640249 57013 IEM_DS3505
ZGGG,1985-07-05 00:00,ZGGG 050000Z AUTO 11006KT 4SM 28/25 RMK SLP077 T02790249 52009 IEM_DS3505
ZGGG,1985-07-05 03:00,ZGGG 050300Z AUTO 14004KT 8SM 29/25 RMK SLP073 T02910251 57004 IEM_DS3505
ZGGG,1985-07-05 06:00,ZGGG 050600Z AUTO 14008KT 9SM 31/25 RMK 60004 SLP058 T03060250 4////0261 57015 IEM_DS3505
ZGGG,1985-07-05 09:00,ZGGG 050900Z AUTO 16010KT 9SM 31/25 RMK SLP048 T03100248 57010 IEM_DS3505
ZGGG,1985-07-05 12:00,ZGGG 051200Z AUTO 14006KT 9SM 28/24 RMK SLP069 T02780241 52021 IEM_DS3505
ZGGG,1985-07-05 15:00,ZGGG 051500Z AUTO 11004KT 6SM 27/25 RMK SLP082 T02700247 52013 IEM_DS3505
ZGGG,1985-07-05 18:00,ZGGG 051800Z AUTO 09004KT 7SM 26/24 RMK SLP080 T02580242 40320//// 57002 IEM_DS3505
ZGGG,1985-07-05 21:00,ZGGG 052100Z AUTO 09004KT 7SM 25/24 RMK SLP077 T02530239 57003 IEM_DS3505
ZGGG,1985-07-06 00:00,ZGGG 060000Z AUTO 11004KT 7SM 28/24 RMK SLP089 T02750241 52012 IEM_DS3505
ZGGG,1985-07-06 03:00,ZGGG 060300Z AUTO 16004KT 7SM 29/23 RMK SLP084 T02940229 57005 IEM_DS3505
ZGGG,1985-07-06 06:00,ZGGG 060600Z AUTO 20004KT 14SM 32/22 RMK SLP068 T03160220 4////0247 57016 IEM_DS3505
ZGGG,1985-07-06 09:00,ZGGG 060900Z AUTO 11004KT 12SM 32/22 RMK SLP053 T03230221 57015 IEM_DS3505
ZGGG,1985-07-06 12:00,ZGGG 061200Z AUTO 18002KT 9SM 29/24 RMK SLP062 T02900244 52009 IEM_DS3505
ZGGG,1985-07-06 15:00,ZGGG 061500Z AUTO 11002KT 7SM 27/25 RMK SLP076 T02730247 52014 IEM_DS3505
ZGGG,1985-07-06 18:00,ZGGG 061800Z AUTO 00000KT 6SM 26/24 RMK SLP063 T02580243 40325//// 57013 IEM_DS3505
ZGGG,1985-07-06 21:00,ZGGG 062100Z AUTO 00000KT 5SM 25/24 RMK SLP052 T02520238 57011 IEM_DS3505
ZGGG,1985-07-07 00:00,ZGGG 070000Z AUTO 04002KT 9SM 28/24 RMK SLP057 T02820244 52005 IEM_DS3505
ZGGG,1985-07-07 03:00,ZGGG 070300Z AUTO 29004KT 12SM 31/23 RMK SLP048 T03140227 57009 IEM_DS3505
ZGGG,1985-07-07 06:00,ZGGG 070600Z AUTO 18004KT 9SM 33/23 RMK SLP038 T03290232 4////0248 57010 IEM_DS3505
ZGGG,1985-07-07 09:00,ZGGG 070900Z AUTO 32006KT 9SM 34/24 RMK SLP016 T03380240 57022 IEM_DS3505
ZGGG,1985-07-07 12:00,ZGGG 071200Z AUTO 00000KT 7SM 31/24 RMK SLP019 T03110236 52003 IEM_DS3505
ZGGG,1985-07-07 15:00,ZGGG 071500Z AUTO 00000KT 7SM 28/25 RMK SLP025 T02830247 52006 IEM_DS3505
ZGGG,1985-07-07 18:00,ZGGG 071800Z AUTO 18002KT 6SM 28/25 RMK SLP025 T02800250 40342//// 54000 IEM_DS3505
ZGGG,1985-07-07 21:00,ZGGG 072100Z AUTO 11004KT 6SM 27/25 RMK SLP037 T02690250 52012 IEM_DS3505
ZGGG,1985-07-08 00:00,ZGGG 080000Z AUTO 09004KT 4SM 24/23 RMK 60004 SLP042 T02380230 52005 IEM_DS3505
ZGGG,1985-07-08 03:00,ZGGG 080300Z AUTO 09002KT 6SM 28/24 RMK SLP039 T02750240 57003 IEM_DS3505
ZGGG,1985-07-08 06:00,ZGGG 080600Z AUTO 16004KT 2SM 29/25 RMK 60000 SLP023 T02920250 4////0237 57016 IEM_DS3505
ZGGG,1985-07-08 09:00,ZGGG 080900Z AUTO 16004KT 4SM 30/26 RMK SLP010 T02980257 57013 IEM_DS3505
ZGGG,1985-07-08 12:00,ZGGG 081200Z AUTO 00000KT 7SM 27/23 RMK SLP022 T02690226 52012 IEM_DS3505
ZGGG,1985-07-08 15:00,ZGGG 081500Z AUTO 00000KT 7SM 26/24 RMK SLP042 T02570239 52020 IEM_DS3505
ZGGG,1985-07-08 18:00,ZGGG 081800Z AUTO 25004KT 2SM 26/24 RMK 60001 SLP041 T02580237 40305//// 57001 IEM_DS3505
ZGGG,1985-07-08 21:00,ZGGG 082100Z AUTO 00000KT 1 1/4SM 26/24 RMK SLP040 T02570239 57001 IEM_DS3505
ZGGG,1985-07-09 00:00,ZGGG 090000Z AUTO 14004KT 1 1/4SM 26/25 RMK SLP061 T02630248 52021 IEM_DS3505
ZGGG,1985-07-09 03:00,ZGGG 090300Z AUTO 18006KT 2 1/2SM 29/26 RMK SLP070 T02860257 52009 IEM_DS3505
ZGGG,1985-07-09 04:00,ZGGG 090400Z AUTO 21006KT 4SM 28/26 A2971 RMK T02800260 IEM_DS3505
ZGGG,1985-07-09 05:00,ZGGG 090500Z AUTO 12010KT 6SM 28/25 A2971 RMK T02800250 IEM_DS3505
ZGGG,1985-07-09 06:00,ZGGG 090600Z AUTO 14006KT 2 1/2SM 28/26 A2971 RMK SLP073 T02840260 4////0253 52003 IEM_DS3505
ZGGG,1985-07-09 07:00,ZGGG 090700Z AUTO 11010KT 7SM 29/25 A2971 RMK T02900250 IEM_DS3505
ZGGG,1985-07-09 09:00,ZGGG 090900Z AUTO 14008KT 4SM 29/26 RMK SLP069 T02880256 57004 IEM_DS3505
ZGGG,1985-07-09 12:00,ZGGG 091200Z AUTO 14004KT 7SM 27/25 RMK SLP077 T02740248 52008 IEM_DS3505
ZGGG,1985-07-09 15:00,ZGGG 091500Z AUTO 00000KT 4SM 26/25 RMK SLP092 T02600249 52015 IEM_DS3505
ZGGG,1985-07-09 18:00,ZGGG 091800Z AUTO 00000KT 4SM 26/25 RMK SLP088 T02600249 40292//// 57004 IEM_DS3505
ZGGG,1985-07-09 21:00,ZGGG 092100Z AUTO 00000KT 3SM 25/24 RMK SLP092 T02540244 52004 IEM_DS3505
ZGGG,1985-07-10 00:00,ZGGG 100000Z AUTO 07006KT 7SM 27/24 RMK SLP106 T02740244 52014 IEM_DS3505
ZGGG,1985-07-10 03:00,ZGGG 100300Z AUTO 09004KT 9SM 29/24 RMK SLP108 T02920245 52002 IEM_DS3505
ZGGG,1985-07-10 06:00,ZGGG 100600Z AUTO 18006KT 9SM 29/25 RMK 60000 SLP101 T02930249 4////0249 57007 IEM_DS3505
ZGGG,1985-07-10 09:00,ZGGG 100900Z AUTO 14006KT 10SM 30/24 RMK SLP089 T03030235 57012 IEM_DS3505
ZGGG,1985-07-10 12:00,ZGGG 101200Z AUTO 14004KT 8SM 28/24 RMK SLP103 T02800245 52014 IEM_DS3505
ZGGG,1985-07-10 15:00,ZGGG 101500Z AUTO 16002KT 7SM 26/25 RMK SLP115 T02650249 52012 IEM_DS3505
ZGGG,1985-07-10 18:00,ZGGG 101800Z AUTO 14002KT 7SM 26/24 RMK SLP107 T02590245 40310//// 57008 IEM_DS3505
ZGGG,1985-07-10 21:00,ZGGG 102100Z AUTO 09004KT 7SM 25/24 RMK SLP104 T02510240 57003 IEM_DS3505
ZGGG,1985-07-11 00:00,ZGGG 110000Z AUTO 11004KT 7SM 27/24 RMK SLP125 T02670241 52021 IEM_DS3505
ZGGG,1985-07-11 03:00,ZGGG 110300Z AUTO 14006KT 10SM 30/24 RMK SLP125 T03000243 54000 IEM_DS3505
ZGGG,1985-07-11 06:00,ZGGG 110600Z AUTO 20006KT 9SM 32/23 RMK SLP102 T03240234 4////0249 57023 IEM_DS3505
ZGGG,1985-07-11 09:00,ZGGG 110900Z AUTO 16004KT 4SM 30/26 RMK T02980257 57013 IEM_DS3505
ZGGG,1985-07-11 12:00,ZGGG 111200Z AUTO 16004KT 9SM 29/25 RMK SLP102 T02910248 52015 IEM_DS3505
ZGGG,1985-07-11 15:00,ZGGG 111500Z AUTO 16004KT 6SM 27/24 RMK SLP110 T02700244 52008 IEM_DS3505
ZGGG,1985-07-11 18:00,ZGGG 111800Z AUTO 16004KT 6SM 26/24 RMK SLP100 T02610242 40333//// 57010 IEM_DS3505
ZGGG,1985-07-11 21:00,ZGGG 112100Z AUTO 00000KT 6SM 25/24 RMK SLP097 T02500240 57003 IEM_DS3505
ZGGG,1985-07-12 00:00,ZGGG 120000Z AUTO 14004KT 2SM 28/25 RMK SLP100 T02760248 52003 IEM_DS3505
ZGGG,1985-07-12 03:00,ZGGG 120300Z AUTO 22004KT 4SM 31/24 RMK SLP097 T03080239 57003 IEM_DS3505
ZGGG,1985-07-12 06:00,ZGGG 120600Z AUTO 18006KT 9SM 32/23 RMK SLP080 T03180229 4////0247 57017 IEM_DS3505
ZGGG,1985-07-12 09:00,ZGGG 120900Z AUTO 20004KT 10SM 33/22 RMK SLP060 T03280223 57020 IEM_DS3505
ZGGG,1985-07-12 12:00,ZGGG 121200Z AUTO 16006KT 7SM 29/25 RMK SLP067 T02890247 52007 IEM_DS3505
ZGGG,1985-07-12 15:00,ZGGG 121500Z AUTO 16004KT 7SM 27/25 RMK SLP070 T02740247 52003 IEM_DS3505
ZGGG,1985-07-12 18:00,ZGGG 121800Z AUTO 00000KT 6SM 26/24 RMK SLP065 T02640245 40335//// 57005 IEM_DS3505
ZGGG,1985-07-12 21:00,ZGGG 122100Z AUTO 00000KT 6SM 26/24 RMK SLP071 T02610245 52006 IEM_DS3505
ZGGG,1985-07-13 00:00,ZGGG 130000Z AUTO 10004KT 28/24 RMK SLP078 T02790244 52007 IEM_DS3505
ZGGG,1985-07-13 03:00,ZGGG 130300Z AUTO 18004KT 9SM 30/24 RMK SLP076 T03050244 57002 IEM_DS3505
ZGGG,1985-07-13 06:00,ZGGG 130600Z AUTO 00000KT 6SM 26/23 RMK 60004 SLP064 T02640232 4////0257 57012 IEM_DS3505
ZGGG,1985-07-13 09:00,ZGGG 130900Z AUTO 29006KT 7SM 31/23 RMK SLP050 T03100228 57014 IEM_DS3505
ZGGG,1985-07-13 12:00,ZGGG 131200Z AUTO 00000KT 7SM 28/24 RMK SLP056 T02750240 52006 IEM_DS3505
ZGGG,1985-07-13 18:00,ZGGG 131800Z AUTO 00000KT 4SM 26/24 RMK SLP072 T02560242 40320//// 57002 IEM_DS3505
ZGGG,1985-07-13 21:00,ZGGG 132100Z AUTO 04002KT 4SM 25/24 RMK SLP077 T02490235 52005 IEM_DS3505
ZGGG,1985-07-14 00:00,ZGGG 140000Z AUTO 00000KT 2 1/2SM 26/24 RMK SLP092 T02620243 52015 IEM_DS3505
ZGGG,1985-07-14 03:00,ZGGG 140300Z AUTO 18002KT 4SM 30/24 RMK SLP095 T02980238 52003 IEM_DS3505
ZGGG,1985-07-14 06:00,ZGGG 140600Z AUTO 18004KT 7SM 32/23 RMK SLP079 T03160228 4////0247 57016 IEM_DS3505
ZGGG,1985-07-14 09:00,ZGGG 140900Z AUTO 22004KT 7SM 33/23 RMK SLP062 T03280233 57017 IEM_DS3505
ZGGG,1985-07-14 12:00,ZGGG 141200Z AUTO 16004KT 8SM 30/25 RMK SLP069 T02980251 52007 IEM_DS3505
ZGGG,1985-07-14 15:00,ZGGG 141500Z AUTO 00000KT 6SM 28/26 RMK SLP082 T02800255 52013 IEM_DS3505
ZGGG,1985-07-14 18:00,ZGGG 141800Z AUTO 00000KT 6SM 27/25 RMK SLP083 T02680249 40333//// 52001 IEM_DS3505
ZGGG,1985-07-14 21:00,ZGGG 142100Z AUTO 00000KT 6SM 26/25 RMK SLP085 T02580246 52002 IEM_DS3505
ZGGG,1985-07-15 00:00,ZGGG 150000Z AUTO 00000KT 7SM 27/25 RMK SLP100 T02740250 52015 IEM_DS3505
ZGGG,1985-07-15 03:00,ZGGG 150300Z AUTO 14004KT 9SM 31/25 RMK SLP096 T03100247 57004 IEM_DS3505
ZGGG,1985-07-15 06:00,ZGGG 150600Z AUTO 20004KT 9SM 33/24 RMK SLP081 T03270238 4////0254 57015 IEM_DS3505
ZGGG,1985-07-15 09:00,ZGGG 150900Z AUTO 22004KT 10SM 34/22 RMK SLP065 T03350221 57016 IEM_DS3505
ZGGG,1985-07-15 12:00,ZGGG 151200Z AUTO 16006KT 6SM 30/26 RMK SLP071 T03030255 52006 IEM_DS3505
ZGGG,1985-07-15 15:00,ZGGG 151500Z AUTO 16004KT 6SM 28/25 RMK SLP092 T02840250 52021 IEM_DS3505
ZGGG,1985-07-15 18:00,ZGGG 151800Z AUTO 00000KT 6SM 27/25 RMK SLP088 T02700250 40335//// 57004 IEM_DS3505
ZGGG,1985-07-15 21:00,ZGGG 152100Z AUTO 00000KT 7SM 26/24 RMK SLP081 T02600242 57001 IEM_DS3505
ZGGG,1985-07-15 22:00,ZGGG 152200Z AUTO 12004KT 6SM 26/24 A2974 RMK T02600240 IEM_DS3505
ZGGG,1985-07-15 23:00,ZGGG 152300Z AUTO 14004KT 6SM 27/24 A2977 RMK T02700240 IEM_DS3505
ZGGG,1985-07-16 00:00,ZGGG 160000Z AUTO 20006KT 7SM 28/25 A2977 RMK SLP097 T02840248 52010 IEM_DS3505
ZGGG,1985-07-16 01:00,ZGGG 160100Z AUTO 20002KT 7SM 29/25 A2977 RMK T02900250 IEM_DS3505
ZGGG,1985-07-16 02:00,ZGGG 160200Z AUTO 00000KT 7SM 31/24 A2980 RMK T03100240 IEM_DS3505
ZGGG,1985-07-16 03:00,ZGGG 160300Z AUTO 18004KT 7SM 31/23 A2977 RMK SLP096 T03140231 57001 IEM_DS3505
ZGGG,1985-07-16 05:00,ZGGG 160500Z AUTO 13006KT 7SM 33/24 A2977 RMK T03300240 IEM_DS3505
ZGGG,1985-07-16 06:00,ZGGG 160600Z AUTO 16006KT 9SM 34/24 A2974 RMK SLP084 T03350242 4////0254 57012 IEM_DS3505
ZGGG,1985-07-16 07:00,ZGGG 160700Z AUTO 17008KT 7SM 33/25 A2974 RMK T03300250 IEM_DS3505
ZGGG,1985-07-16 09:00,ZGGG 160900Z AUTO 11006KT 9SM 33/23 RMK SLP062 T03320226 57022 IEM_DS3505
ZGGG,1985-07-16 12:00,ZGGG 161200Z AUTO 16004KT 9SM 30/25 RMK SLP074 T02960249 52012 IEM_DS3505
ZGGG,1985-07-16 15:00,ZGGG 161500Z AUTO 16002KT 7SM 28/25 RMK SLP087 T02760253 52013 IEM_DS3505
ZGGG,1985-07-16 18:00,ZGGG 161800Z AUTO 00000KT 6SM 26/24 RMK SLP083 T02640245 40340//// 57004 IEM_DS3505
ZGGG,1985-07-16 21:00,ZGGG 162100Z AUTO 00000KT 6SM 27/24 RMK SLP083 T02710242 54000 IEM_DS3505
ZGGG,1985-07-17 00:00,ZGGG 170000Z AUTO 00000KT 9SM 28/25 RMK SLP083 T02840248 54000 IEM_DS3505
ZGGG,1985-07-17 03:00,ZGGG 170300Z AUTO 18006KT 9SM 31/23 RMK SLP080 T03100229 57003 IEM_DS3505
ZGGG,1985-07-17 06:00,ZGGG 170600Z AUTO 22006KT 6SM 33/22 RMK SLP063 T03330221 4////0262 57017 IEM_DS3505
ZGGG,1985-07-17 09:00,ZGGG 170900Z AUTO 14004KT 5SM 33/23 RMK SLP043 T03330226 57020 IEM_DS3505
ZGGG,1985-07-17 12:00,ZGGG 171200Z AUTO 16004KT 7SM 31/23 RMK SLP048 T03120227 52005 IEM_DS3505
ZGGG,1985-07-17 15:00,ZGGG 171500Z AUTO 18004KT 7SM 28/24 RMK SLP065 T02820244 52017 IEM_DS3505
ZGGG,1985-07-17 18:00,ZGGG 171800Z AUTO 00000KT 6SM 27/25 RMK SLP061 T02710247 40343//// 57004 IEM_DS3505
ZGGG,1985-07-17 21:00,ZGGG 172100Z AUTO 07004KT 6SM 27/25 RMK SLP059 T02740247 57002 IEM_DS3505
ZGGG,1985-07-18 00:00,ZGGG 180000Z AUTO 00000KT 6SM 27/25 RMK 60002 SLP066 T02660253 52007 IEM_DS3505
ZGGG,1985-07-18 03:00,ZGGG 180300Z AUTO 09004KT 6SM 30/24 RMK SLP071 T03000243 52005 IEM_DS3505
ZGGG,1985-07-18 06:00,ZGGG 180600Z AUTO 09006KT 7SM 30/24 RMK SLP060 T02990242 4////0261 57011 IEM_DS3505
ZGGG,1985-07-18 09:00,ZGGG 180900Z AUTO 04002KT 6SM 26/25 RMK SLP053 T02630248 57007 IEM_DS3505
ZGGG,1985-07-18 12:00,ZGGG 181200Z AUTO 00000KT 5SM 27/26 RMK 60114 SLP068 T02720257 52015 IEM_DS3505
ZGGG,1985-07-18 15:00,ZGGG 181500Z AUTO 00000KT 5SM 27/25 RMK SLP079 T02660247 52011 IEM_DS3505
ZGGG,1985-07-18 18:00,ZGGG 181800Z AUTO 16004KT 6SM 26/24 RMK SLP071 T02640245 40318//// 57008 IEM_DS3505
ZGGG,1985-07-18 21:00,ZGGG 182100Z AUTO 00000KT 6SM 25/ RMK SLP067 57004 IEM_DS3505
ZGGG,1985-07-19 00:00,ZGGG 190000Z AUTO 00000KT 7SM 28/25 RMK SLP084 T02750252 52017 IEM_DS3505
ZGGG,1985-07-19 03:00,ZGGG 190300Z AUTO 04004KT 6SM 26/24 RMK SLP088 T02560244 52004 IEM_DS3505
ZGGG,1985-07-19 06:00,ZGGG 190600Z AUTO 09002KT 9SM 27/25 RMK 60075 SLP077 T02700250 4////0244 57011 IEM_DS3505
ZGGG,1985-07-19 09:00,ZGGG 190900Z AUTO 14004KT 8SM 28/24 RMK SLP070 T02840242 57007 IEM_DS3505
ZGGG,1985-07-19 12:00,ZGGG 191200Z AUTO 14004KT 6SM 27/25 RMK SLP079 T02710248 52009 IEM_DS3505
ZGGG,1985-07-19 15:00,ZGGG 191500Z AUTO 11006KT 5SM 26/24 RMK SLP089 T02560245 52010 IEM_DS3505
ZGGG,1985-07-19 18:00,ZGGG 191800Z AUTO 07004KT 5SM 25/24 RMK SLP089 T02540243 40299//// 54000 IEM_DS3505
ZGGG,1985-07-19 21:00,ZGGG 192100Z AUTO 07002KT 4SM 25/24 RMK SLP090 T02530245 52001 IEM_DS3505
ZGGG,1985-07-20 00:00,ZGGG 200000Z AUTO 00000KT 2SM 26/25 RMK SLP099 T02640251 52009 IEM_DS3505
ZGGG,1985-07-20 03:00,ZGGG 200300Z AUTO 18010KT 7SM 31/24 RMK SLP097 T03080240 57002 IEM_DS3505
ZGGG,1985-07-20 06:00,ZGGG 200600Z AUTO 00000KT 7SM 25/24 RMK 60008 SLP088 T02500242 4////0248 57009 IEM_DS3505
ZGGG,1985-07-20 09:00,ZGGG 200900Z AUTO 07006KT 9SM 26/24 RMK SLP084 T02590243 57004 IEM_DS3505
ZGGG,1985-07-20 12:00,ZGGG 201200Z AUTO 04002KT 6SM 26/24 RMK 60004 SLP083 T02600245 57001 IEM_DS3505
ZGGG,1985-07-20 15:00,ZGGG 201500Z AUTO 09002KT 4SM 26/25 RMK SLP107 T02580249 52024 IEM_DS3505
ZGGG,1985-07-20 18:00,ZGGG 201800Z AUTO 00000KT 4SM 25/24 RMK SLP103 T02520244 40317//// 57004 IEM_DS3505
ZGGG,1985-07-20 21:00,ZGGG 202100Z AUTO 09004KT 2 1/2SM 25/24 RMK SLP102 T02490242 57001 IEM_DS3505
ZGGG,1985-07-21 00:00,ZGGG 210000Z AUTO 11004KT 7SM 27/24 RMK SLP116 T02710241 52014 IEM_DS3505
ZGGG,1985-07-21 03:00,ZGGG 210300Z AUTO 14006KT 9SM 30/26 RMK SLP119 T03020260 52003 IEM_DS3505
ZGGG,1985-07-21 06:00,ZGGG 210600Z AUTO 11004KT 9SM 28/26 RMK SLP107 T02840256 4////0247 57012 IEM_DS3505
ZGGG,1985-07-21 09:00,ZGGG 210900Z AUTO 00000KT 9SM 25/24 RMK SLP102 T02500236 57005 IEM_DS3505
ZGGG,1985-07-21 12:00,ZGGG 211200Z AUTO 00000KT 7SM 25/24 RMK 60039 SLP108 T02540242 52006 IEM_DS3505
ZGGG,1985-07-21 15:00,ZGGG 211500Z AUTO 29002KT 5SM 25/24 RMK SLP125 T02500243 52017 IEM_DS3505
ZGGG,1985-07-21 18:00,ZGGG 211800Z AUTO 00000KT 5SM 25/24 RMK SLP113 T02500243 40313//// 57012 IEM_DS3505
ZGGG,1985-07-21 21:00,ZGGG 212100Z AUTO 00000KT 4SM 25/24 RMK SLP108 T02470242 57005 IEM_DS3505
ZGGG,1985-07-22 00:00,ZGGG 220000Z AUTO 00000KT 4SM 26/25 RMK SLP120 T02600249 52012 IEM_DS3505
ZGGG,1985-07-22 03:00,ZGGG 220300Z AUTO 00000KT 2 1/2SM 28/25 RMK SLP120 T02810250 54000 IEM_DS3505
ZGGG,1985-07-22 06:00,ZGGG 220600Z AUTO 00000KT 2 1/2SM 30/25 RMK 60001 SLP110 T02960253 4////0240 57010 IEM_DS3505
ZGGG,1985-07-22 09:00,ZGGG 220900Z AUTO 18004KT 4SM 31/24 RMK SLP082 T03110241 57028 IEM_DS3505
ZGGG,1985-07-22 12:00,ZGGG 221200Z AUTO 00000KT 5SM 29/26 RMK SLP089 T02860255 52007 IEM_DS3505
ZGGG,1985-07-22 14:00,ZGGG 221400Z AUTO 00000KT 4SM 26/25 RMK SLP102 T02580247 52004 IEM_DS3505
ZGGG,1985-07-22 15:00,ZGGG 221500Z AUTO 00000KT 5SM 27/25 RMK SLP099 T02700251 52010 IEM_DS3505
ZGGG,1985-07-22 18:00,ZGGG 221800Z AUTO 00000KT 4SM 26/24 RMK SLP098 T02630244 40313//// 57001 IEM_DS3505
ZGGG,1985-07-22 21:00,ZGGG 222100Z AUTO 00000KT 4SM 26/25 RMK SLP102 T02580247 52004 IEM_DS3505
ZGGG,1985-07-23 00:00,ZGGG 230000Z AUTO 00000KT 2SM 27/25 RMK SLP115 T02720252 52013 IEM_DS3505
ZGGG,1985-07-23 03:00,ZGGG 230300Z AUTO 22004KT 7SM 31/24 RMK SLP111 T03110242 57004 IEM_DS3505
ZGGG,1985-07-23 04:00,ZGGG 230400Z AUTO 24008KT 7SM 32/24 A2980 RMK T03200240 IEM_DS3505
ZGGG,1985-07-23 05:00,ZGGG 230500Z AUTO 24004KT 7SM 33/24 A2977 RMK T03300240 IEM_DS3505
ZGGG,1985-07-23 06:00,ZGGG 230600Z AUTO 22004KT 9SM 33/24 RMK SLP087 T03290235 4////0256 57024 IEM_DS3505
ZGGG,1985-07-23 07:00,ZGGG 230700Z AUTO 14008KT 7SM 33/23 A2974 RMK T03300230 IEM_DS3505
ZGGG,1985-07-23 08:00,ZGGG 230800Z AUTO 19006KT 7SM 33/24 A2971 RMK T03300240 IEM_DS3505
ZGGG,1985-07-23 09:00,ZGGG 230900Z AUTO 14004KT 9SM 33/23 RMK SLP070 T03330229 57017 IEM_DS3505
ZGGG,1985-07-23 10:00,ZGGG 231000Z AUTO 17006KT 6SM 33/23 A2968 RMK T03300230 IEM_DS3505
ZGGG,1985-07-23 11:00,ZGGG 231100Z AUTO 12008KT 6SM 31/25 A2971 RMK T03100250 IEM_DS3505
ZGGG,1985-07-23 12:00,ZGGG 231200Z AUTO 11004KT 7SM 30/26 A2971 RMK SLP080 T02980257 52010 IEM_DS3505
ZGGG,1985-07-23 15:00,ZGGG 231500Z AUTO 18004KT 6SM 28/24 RMK SLP095 T02790235 52015 IEM_DS3505
ZGGG,1985-07-23 18:00,ZGGG 231800Z AUTO 00000KT 7SM 26/24 RMK SLP088 T02640241 40334//// 57007 IEM_DS3505
ZGGG,1985-07-23 21:00,ZGGG 232100Z AUTO 00000KT 7SM 26/24 RMK SLP089 T02580244 52001 IEM_DS3505
ZGGG,1985-07-24 00:00,ZGGG 240000Z AUTO 22002KT 6SM 28/25 RMK SLP097 T02770250 52008 IEM_DS3505
ZGGG,1985-07-24 03:00,ZGGG 240300Z AUTO 18004KT 7SM 30/24 RMK SLP091 T03050241 57006 IEM_DS3505
ZGGG,1985-07-24 06:00,ZGGG 240600Z AUTO 18004KT 5SM 32/24 RMK SLP073 T03230239 4////0255 57018 IEM_DS3505
ZGGG,1985-07-24 09:00,ZGGG 240900Z AUTO 16006KT 9SM 34/24 RMK SLP051 T03360236 57022 IEM_DS3505
ZGGG,1985-07-24 12:00,ZGGG 241200Z AUTO 14002KT 7SM 30/26 RMK SLP054 T03000259 52003 IEM_DS3505
ZGGG,1985-07-24 18:00,ZGGG 241800Z AUTO 16002KT 7SM 28/26 RMK SLP064 T02750256 40337//// 57011 IEM_DS3505
ZGGG,1985-07-24 21:00,ZGGG 242100Z AUTO 00000KT 6SM 27/25 RMK SLP055 T02680246 57009 IEM_DS3505
ZGGG,1985-07-25 00:00,ZGGG 250000Z AUTO 16004KT 6SM 28/20 RMK SLP065 T02780205 52010 IEM_DS3505
ZGGG,1985-07-25 03:00,ZGGG 250300Z AUTO 18004KT 7SM 31/25 RMK SLP062 T03110252 57003 IEM_DS3505
ZGGG,1985-07-25 06:00,ZGGG 250600Z AUTO 22002KT 7SM 33/23 RMK SLP040 T03320230 4////0265 57022 IEM_DS3505
ZGGG,1985-07-25 09:00,ZGGG 250900Z AUTO 16008KT 9SM 34/23 RMK SLP014 T03370231 57026 IEM_DS3505
ZGGG,1985-07-25 12:00,ZGGG 251200Z AUTO 32014KT 7SM 30/22 RMK SLP041 T02980219 52027 IEM_DS3505
ZGGG,1985-07-25 15:00,ZGGG 251500Z AUTO 00000KT 7SM 24/22 RMK SLP046 T02430223 52005 IEM_DS3505
ZGGG,1985-07-25 18:00,ZGGG 251800Z AUTO 00000KT 7SM 26/22 RMK 60039 SLP042 T02550220 40303//// 57004 IEM_DS3505
ZGGG,1985-07-25 21:00,ZGGG 252100Z AUTO 07004KT 6SM 25/23 RMK SLP032 T02480227 57010 IEM_DS3505
ZGGG,1985-07-26 00:00,ZGGG 260000Z AUTO 36002KT 5SM 26/24 RMK SLP045 T02600239 52013 IEM_DS3505
ZGGG,1985-07-26 03:00,ZGGG 260300Z AUTO 27002KT 7SM 27/23 RMK SLP045 T02660229 54000 IEM_DS3505
ZGGG,1985-07-26 06:00,ZGGG 260600Z AUTO 29004KT 9SM 28/23 RMK 60002 SLP033 T02790231 4////0232 57012 IEM_DS3505
ZGGG,1985-07-26 09:00,ZGGG 260900Z AUTO 22004KT 7SM 27/24 RMK SLP029 T02690235 57004 IEM_DS3505
ZGGG,1985-07-26 12:00,ZGGG 261200Z AUTO 00000KT 5SM 26/24 RMK 60001 SLP030 T02590240 52001 IEM_DS3505
ZGGG,1985-07-26 15:00,ZGGG 261500Z AUTO 14002KT 5SM 25/24 RMK SLP043 T02520238 52013 IEM_DS3505
ZGGG,1985-07-26 18:00,ZGGG 261800Z AUTO 00000KT 2 1/2SM 24/24 RMK SLP046 T02450237 40286//// 52003 IEM_DS3505
ZGGG,1985-07-26 21:00,ZGGG 262100Z AUTO 00000KT 2SM 24/24 RMK SLP045 T02440236 57001 IEM_DS3505
ZGGG,1985-07-27 00:00,ZGGG 270000Z AUTO 00000KT 4SM 26/23 RMK SLP055 T02570232 52010 IEM_DS3505
ZGGG,1985-07-27 06:00,ZGGG 270600Z AUTO 22004KT 7SM 30/25 A2962 RMK SLP043 T02990246 4////0241 57013 IEM_DS3505
ZGGG,1985-07-27 09:00,ZGGG 270900Z AUTO 18006KT 6SM 28/25 RMK SLP039 T02850249 57004 IEM_DS3505
ZGGG,1985-07-27 12:00,ZGGG 271200Z AUTO 16004KT 6SM 27/25 RMK SLP054 T02720246 52015 IEM_DS3505
ZGGG,1985-07-27 15:00,ZGGG 271500Z AUTO 00000KT 6SM 26/24 RMK SLP059 T02600241 52005 IEM_DS3505
ZGGG,1985-07-27 18:00,ZGGG 271800Z AUTO 07002KT 4SM 25/24 RMK SLP059 T02540242 40315//// 54000 IEM_DS3505
ZGGG,1985-07-27 21:00,ZGGG 272100Z AUTO 00000KT 4SM 25/24 RMK T02530242 57004 IEM_DS3505
ZGGG,1985-07-28 00:00,ZGGG 280000Z AUTO 00000KT 4SM 27/25 RMK SLP063 T02710247 52008 IEM_DS3505
ZGGG,1985-07-28 03:00,ZGGG 280300Z AUTO 14004KT 6SM 30/25 RMK SLP067 T03000252 52004 IEM_DS3505
ZGGG,1985-07-28 06:00,ZGGG 280600Z AUTO 16006KT 6SM 30/24 RMK SLP052 T03040243 4////0250 57015 IEM_DS3505
ZGGG,1985-07-28 09:00,ZGGG 280900Z AUTO 18004KT 6SM 29/25 RMK SLP034 T02920246 57018 IEM_DS3505
ZGGG,1985-07-28 12:00,ZGGG 281200Z AUTO 00000KT 5SM 28/ RMK SLP055 52021 IEM_DS3505
ZGGG,1985-07-28 15:00,ZGGG 281500Z AUTO 04002KT 4SM 27/25 RMK SLP062 T02670252 52007 IEM_DS3505
ZGGG,1985-07-28 18:00,ZGGG 281800Z AUTO 00000KT 4SM 26/24 RMK SLP049 T02590245 40312//// 57013 IEM_DS3505
ZGGG,1985-07-28 21:00,ZGGG 282100Z AUTO 00000KT 4SM 26/25 RMK SLP043 T02620251 57006 IEM_DS3505
ZGGG,1985-07-29 00:00,ZGGG 290000Z AUTO 00000KT 5SM 28/25 RMK SLP057 T02760252 52014 IEM_DS3505
ZGGG,1985-07-29 03:00,ZGGG 290300Z AUTO 34002KT 6SM 29/25 RMK SLP058 T02870249 52001 IEM_DS3505
ZGGG,1985-07-29 06:00,ZGGG 290600Z AUTO 29002KT 7SM 30/24 RMK 60000 SLP040 T03040240 4////0256 57018 IEM_DS3505
ZGGG,1985-07-29 09:00,ZGGG 290900Z AUTO 20002KT 7SM 33/22 RMK SLP014 T03300224 57026 IEM_DS3505
ZGGG,1985-07-29 12:00,ZGGG 291200Z AUTO 16004KT 6SM 30/26 RMK SLP032 T03020258 52018 IEM_DS3505
ZGGG,1985-07-29 15:00,ZGGG 291500Z AUTO 00000KT 6SM 29/26 RMK SLP052 T02880257 52020 IEM_DS3505
ZGGG,1985-07-29 18:00,ZGGG 291800Z AUTO 02002KT 7SM 25/22 RMK SLP040 T02520224 40333//// 57012 IEM_DS3505
ZGGG,1985-07-29 19:00,ZGGG 291900Z AUTO 36006KT 6SM 25/23 A2959 RMK T02500230 IEM_DS3505
ZGGG,1985-07-29 20:00,ZGGG 292000Z AUTO 02004KT 6SM 25/23 A2959 RMK T02500230 IEM_DS3505
ZGGG,1985-07-29 21:00,ZGGG 292100Z AUTO 00000KT 7SM 25/23 A2959 RMK SLP037 T02490234 57003 IEM_DS3505
ZGGG,1985-07-29 22:00,ZGGG 292200Z AUTO 00000KT 6SM 24/24 A2962 RMK T02400240 IEM_DS3505
ZGGG,1985-07-29 23:00,ZGGG 292300Z AUTO 00000KT 7SM 25/24 A2962 RMK T02500240 IEM_DS3505
ZGGG,1985-07-30 00:00,ZGGG 300000Z AUTO 00000KT 7SM 27/23 A2962 RMK SLP043 T02700231 52006 IEM_DS3505
ZGGG,1985-07-30 01:00,ZGGG 300100Z AUTO 36008KT 5SM 29/23 A2962 RMK T02900230 IEM_DS3505
ZGGG,1985-07-30 02:00,ZGGG 300200Z AUTO 32006KT 6SM 30/24 A2962 RMK T03000240 IEM_DS3505
ZGGG,1985-07-30 03:00,ZGGG 300300Z AUTO 32004KT 9SM 32/24 A2962 RMK SLP038 T03150244 57005 IEM_DS3505
ZGGG,1985-07-30 04:00,ZGGG 300400Z AUTO 35006KT 7SM 32/25 A2962 RMK T03200250 IEM_DS3505
ZGGG,1985-07-30 06:00,ZGGG 300600Z AUTO 34004KT 7SM 34/25 RMK SLP019 T03380246 4////0244 57019 IEM_DS3505
ZGGG,1985-07-30 07:00,ZGGG 300700Z AUTO 08002KT 7SM 34/24 A2953 RMK T03400240 IEM_DS3505
ZGGG,1985-07-30 08:00,ZGGG 300800Z AUTO 31004KT 7SM 35/24 A2953 RMK T03500240 IEM_DS3505
ZGGG,1985-07-30 09:00,ZGGG 300900Z AUTO 20004KT 7SM 32/24 A2950 RMK SLP996 T03200245 57023 IEM_DS3505
ZGGG,1985-07-30 12:00,ZGGG 301200Z AUTO 16004KT 2 1/2SM 31/25 RMK SLP015 T03060254 52019 IEM_DS3505
ZGGG,1985-07-30 15:00,ZGGG 301500Z AUTO 11006KT 2SM 25/23 RMK SLP053 T02460228 52038 IEM_DS3505
ZGGG,1985-07-30 18:00,ZGGG 301800Z AUTO 25002KT 4SM 24/24 RMK 60098 SLP040 T02440239 40340//// 57013 IEM_DS3505
ZGGG,1985-07-30 20:00,ZGGG 302000Z AUTO 00000KT 3SM 25/24 A2959 RMK T02500240 IEM_DS3505
ZGGG,1985-07-30 21:00,ZGGG 302100Z AUTO 00000KT 5SM 24/24 A2962 RMK 70098 SLP037 T02450238 57003 IEM_DS3505
ZGGG,1985-07-30 22:00,ZGGG 302200Z AUTO 36002KT 2 1/2SM 25/24 A2962 RMK T02500240 IEM_DS3505
ZGGG,1985-07-30 23:00,ZGGG 302300Z AUTO 04004KT 2 1/2SM 25/24 A2962 RMK T02500240 IEM_DS3505
ZGGG,1985-07-31 00:00,ZGGG 310000Z AUTO 00000KT 6SM 25/24 A2962 RMK SLP047 T02530237 52010 IEM_DS3505
ZGGG,1985-07-31 01:00,ZGGG 310100Z AUTO 00000KT 3SM 26/24 A2965 RMK T02600240 IEM_DS3505
ZGGG,1985-07-31 02:00,ZGGG 310200Z AUTO 00000KT 5SM RMK IEM_DS3505
ZGGG,1985-07-31 03:00,ZGGG 310300Z AUTO 14004KT 5SM 29/24 A2965 RMK SLP052 T02860235 52005 IEM_DS3505
ZGGG,1985-07-31 06:00,ZGGG 310600Z AUTO 20004KT 4SM 31/24 RMK SLP034 T03120243 4////0235 57018 IEM_DS3505
ZGGG,1985-07-31 09:00,ZGGG 310900Z AUTO 18006KT 5SM 32/24 RMK SLP018 T03200240 57016 IEM_DS3505
ZGGG,1985-07-31 12:00,ZGGG 311200Z AUTO 29008KT 6SM 29/24 RMK SLP047 T02860235 52029 IEM_DS3505
ZGGG,1985-07-31 15:00,ZGGG 311500Z AUTO 34004KT 6SM 27/24 RMK SLP067 T02660237 52020 IEM_DS3505
ZGGG,1985-07-31 18:00,ZGGG 311800Z AUTO 00000KT 6SM 26/24 RMK SLP057 T02600238 40325//// 57010 IEM_DS3505
ZGGG,1985-07-31 21:00,ZGGG 312100Z AUTO 07002KT 5SM 26/25 RMK SLP054 T02600249 57003 IEM_DS3505
ZGGG,1985-08-01 00:00,ZGGG 010000Z AUTO 00000KT 4SM 26/24 RMK SLP069 T02640244 52015 IEM_DS3505
ZGGG,1985-08-01 03:00,ZGGG 010300Z AUTO 29004KT 5SM 30/25 RMK SLP076 T03000246 52007 IEM_DS3505
ZGGG,1985-08-01 06:00,ZGGG 010600Z AUTO 18004KT 5SM 32/24 RMK SLP053 T03160245 4////0254 57023 IEM_DS3505
ZGGG,1985-08-01 09:00,ZGGG 010900Z AUTO 00000KT 4SM 29/26 RMK SLP041 T02880261 57012 IEM_DS3505
ZGGG,1985-08-01 12:00,ZGGG 011200Z AUTO 00000KT 6SM 26/25 RMK 60106 SLP058 T02580246 52017 IEM_DS3505
ZGGG,1985-08-01 15:00,ZGGG 011500Z AUTO 00000KT 6SM 26/25 RMK SLP069 T02620251 52011 IEM_DS3505
ZGGG,1985-08-01 18:00,ZGGG 011800Z AUTO 00000KT 2 1/2SM 25/25 RMK 60000 SLP053 T02540249 40325//// 57016 IEM_DS3505
ZGGG,1985-08-01 21:00,ZGGG 012100Z AUTO 00000KT 2 1/2SM 26/25 RMK SLP054 T02560249 52001 IEM_DS3505
ZGGG,1985-08-02 00:00,ZGGG 020000Z AUTO 00000KT 4SM 27/26 RMK SLP065 T02730262 52011 IEM_DS3505
ZGGG,1985-08-02 03:00,ZGGG 020300Z AUTO 18002KT 7SM 30/24 RMK SLP073 T03020245 52008 IEM_DS3505
ZGGG,1985-08-02 06:00,ZGGG 020600Z AUTO 14004KT 11SM 32/24 RMK SLP052 T03250237 4////0248 57021 IEM_DS3505
ZGGG,1985-08-02 09:00,ZGGG 020900Z AUTO 16006KT 11SM 33/23 RMK SLP037 T03310230 57014 IEM_DS3505
ZGGG,1985-08-02 12:00,ZGGG 021200Z AUTO 16004KT 10SM 30/24 RMK SLP048 T02970241 52010 IEM_DS3505
ZGGG,1985-08-02 15:00,ZGGG 021500Z AUTO 11004KT 9SM 28/26 RMK SLP063 T02800256 52015 IEM_DS3505
ZGGG,1985-08-02 18:00,ZGGG 021800Z AUTO 00000KT 7SM 27/25 RMK SLP062 T02730246 40334//// 57001 IEM_DS3505
ZGGG,1985-08-02 21:00,ZGGG 022100Z AUTO 00000KT 7SM 26/25 RMK SLP057 T02630249 57005 IEM_DS3505
ZGGG,1985-08-03 00:00,ZGGG 030000Z AUTO 00000KT 5SM 29/26 RMK SLP066 T02890258 52009 IEM_DS3505
ZGGG,1985-08-03 03:00,ZGGG 030300Z AUTO 00000KT 5SM 29/26 A2971 RMK SLP066 T02890258 52009 IEM_DS3505
ZGGG,1985-08-03 04:00,ZGGG 030400Z AUTO 00000KT 7SM 30/25 A2968 RMK T03000250 IEM_DS3505
ZGGG,1985-08-03 05:00,ZGGG 030500Z AUTO 20004KT 4SM 26/25 A2968 RMK T02600250 IEM_DS3505
ZGGG,1985-08-03 06:00,ZGGG 030600Z AUTO 14004KT 7SM 29/25 A2968 RMK 60004 SLP057 T02870252 4////0260 57011 IEM_DS3505
ZGGG,1985-08-03 07:00,ZGGG 030700Z AUTO 00000KT 7SM 30/26 A2965 RMK T03000260 IEM_DS3505
ZGGG,1985-08-03 09:00,ZGGG 030900Z AUTO 11004KT 5SM 30/26 RMK SLP042 T03050264 57015 IEM_DS3505
ZGGG,1985-08-03 12:00,ZGGG 031200Z AUTO 00000KT 6SM 28/26 RMK SLP057 T02840260 52015 IEM_DS3505
ZGGG,1985-08-03 15:00,ZGGG 031500Z AUTO 00000KT 7SM 28/26 RMK SLP076 T02770257 52019 IEM_DS3505
ZGGG,1985-08-03 18:00,ZGGG 031800Z AUTO 00000KT 6SM 27/26 RMK SLP068 T02720260 40314//// 57008 IEM_DS3505
ZGGG,1985-08-03 21:00,ZGGG 032100Z AUTO 00000KT 4SM 26/26 RMK SLP066 T02640256 57002 IEM_DS3505
ZGGG,1985-08-04 00:00,ZGGG 040000Z AUTO 11004KT 2 1/2SM 27/25 RMK 60000 SLP081 T02700250 52015 IEM_DS3505
ZGGG,1985-08-04 03:00,ZGGG 040300Z AUTO 16004KT 7SM 30/26 RMK SLP080 T03000255 57001 IEM_DS3505
ZGGG,1985-08-04 06:00,ZGGG 040600Z AUTO 18006KT 10SM 33/25 RMK SLP060 T03300247 4////0261 57020 IEM_DS3505
ZGGG,1985-08-04 09:00,ZGGG 040900Z AUTO 16004KT 9SM 31/26 RMK SLP051 T03090257 57009 IEM_DS3505
ZGGG,1985-08-04 12:00,ZGGG 041200Z AUTO 00000KT 7SM 29/26 RMK SLP065 T02920259 52014 IEM_DS3505
ZGGG,1985-08-04 15:00,ZGGG 041500Z AUTO 16004KT 7SM 28/28 RMK SLP075 T02840276 52010 IEM_DS3505
ZGGG,1985-08-04 18:00,ZGGG 041800Z AUTO 00000KT 7SM 27/26 RMK SLP066 T02710259 40331//// 57009 IEM_DS3505
ZGGG,1985-08-04 21:00,ZGGG 042100Z AUTO 00000KT 7SM 26/25 RMK SLP061 T02650252 57005 IEM_DS3505
ZGGG,1985-08-05 00:00,ZGGG 050000Z AUTO 00000KT 5SM 29/26 RMK SLP070 T02880260 52009 IEM_DS3505
ZGGG,1985-08-05 03:00,ZGGG 050300Z AUTO 36004KT 6SM 31/24 RMK SLP068 T03080239 57002 IEM_DS3505
ZGGG,1985-08-05 06:00,ZGGG 050600Z AUTO 11004KT 7SM 33/23 RMK SLP052 T03300233 4////0258 57016 IEM_DS3505
ZGGG,1985-08-05 09:00,ZGGG 050900Z AUTO 16004KT 9SM 34/24 RMK SLP028 T03360240 57024 IEM_DS3505
ZGGG,1985-08-05 12:00,ZGGG 051200Z AUTO 18004KT 9SM 31/26 RMK SLP036 T03060255 52008 IEM_DS3505
ZGGG,1985-08-05 15:00,ZGGG 051500Z AUTO 18002KT 6SM 28/26 RMK SLP054 T02850258 52018 IEM_DS3505
ZGGG,1985-08-05 18:00,ZGGG 051800Z AUTO 00000KT 5SM 28/26 RMK SLP046 T02750258 40342//// 57008 IEM_DS3505
ZGGG,1985-08-05 21:00,ZGGG 052100Z AUTO 00000KT 4SM 26/25 RMK SLP043 T02650253 57003 IEM_DS3505
ZGGG,1985-08-06 00:00,ZGGG 060000Z AUTO 07002KT 6SM 29/25 RMK SLP055 T02900254 52012 IEM_DS3505
ZGGG,1985-08-06 03:00,ZGGG 060300Z AUTO 32002KT 5SM 31/25 RMK SLP055 T03080250 54000 IEM_DS3505
ZGGG,1985-08-06 04:00,ZGGG 060400Z AUTO 00000KT 7SM 32/25 A2962 RMK T03200250 IEM_DS3505
ZGGG,1985-08-06 05:00,ZGGG 060500Z AUTO 00000KT 7SM 33/24 A2962 RMK T03300240 IEM_DS3505
ZGGG,1985-08-06 06:00,ZGGG 060600Z AUTO 25004KT 7SM 33/23 A2959 RMK SLP028 T03320230 4////0261 57027 IEM_DS3505
ZGGG,1985-08-06 07:00,ZGGG 060700Z AUTO 18004KT 7SM 34/25 A2956 RMK T03400250 IEM_DS3505
ZGGG,1985-08-06 09:00,ZGGG 060900Z AUTO 16004KT 7SM 34/22 RMK SLP016 T03400225 57012 IEM_DS3505
ZGGG,1985-08-06 12:00,ZGGG 061200Z AUTO 11004KT 7SM 30/24 RMK SLP018 T03040240 52002 IEM_DS3505
ZGGG,1985-08-06 15:00,ZGGG 061500Z AUTO 16004KT 7SM 29/25 RMK SLP033 T02880249 52015 IEM_DS3505
ZGGG,1985-08-06 18:00,ZGGG 061800Z AUTO 16002KT 7SM 28/25 RMK SLP027 T02800252 40344//// 57006 IEM_DS3505
ZGGG,1985-08-06 21:00,ZGGG 062100Z AUTO 00000KT 6SM 27/26 RMK SLP028 T02730257 52001 IEM_DS3505
ZGGG,1985-08-07 00:00,ZGGG 070000Z AUTO 09004KT 9SM 29/25 RMK SLP035 T02870254 52007 IEM_DS3505
ZGGG,1985-08-07 03:00,ZGGG 070300Z AUTO 15008KT 7SM 32/24 RMK SLP029 T03190242 57006 IEM_DS3505
ZGGG,1985-08-07 06:00,ZGGG 070600Z AUTO 14004KT 9SM 34/24 RMK SLP007 T03370238 4////0265 57022 IEM_DS3505
ZGGG,1985-08-07 09:00,ZGGG 070900Z AUTO 11006KT 10SM 34/23 RMK SLP992 T03410231 57015 IEM_DS3505
ZGGG,1985-08-07 12:00,ZGGG 071200Z AUTO 16006KT 9SM 31/24 RMK SLP011 T03080245 52019 IEM_DS3505
ZGGG,1985-08-07 15:00,ZGGG 071500Z AUTO 09002KT 7SM 28/24 RMK SLP029 T02820244 52018 IEM_DS3505
ZGGG,1985-08-07 18:00,ZGGG 071800Z AUTO 07002KT 7SM 27/24 RMK SLP023 T02710244 40345//// 57006 IEM_DS3505
ZGGG,1985-08-07 21:00,ZGGG 072100Z AUTO 00000KT 6SM 26/24 RMK SLP018 T02600239 57005 IEM_DS3505
ZGGG,1985-08-08 00:00,ZGGG 080000Z AUTO 07004KT 9SM 29/24 RMK SLP029 T02860244 52011 IEM_DS3505
ZGGG,1985-08-08 03:00,ZGGG 080300Z AUTO 14004KT 12SM 32/24 RMK SLP033 T03150242 52004 IEM_DS3505
ZGGG,1985-08-08 06:00,ZGGG 080600Z AUTO 09004KT 11SM 30/24 RMK SLP022 T03050244 4////0255 57011 IEM_DS3505
ZGGG,1985-08-08 09:00,ZGGG 080900Z AUTO 14004KT 11SM 33/25 RMK SLP999 T03290253 57023 IEM_DS3505
ZGGG,1985-08-08 12:00,ZGGG 081200Z AUTO 16002KT 10SM 31/25 RMK SLP012 T03110252 52013 IEM_DS3505
ZGGG,1985-08-08 15:00,ZGGG 081500Z AUTO 11004KT 9SM 29/26 RMK SLP033 T02860257 52021 IEM_DS3505
ZGGG,1985-08-08 18:00,ZGGG 081800Z AUTO 00000KT 6SM 28/26 RMK SLP031 T02800256 40344//// 57002 IEM_DS3505
ZGGG,1985-08-08 21:00,ZGGG 082100Z AUTO 07004KT 6SM 27/25 RMK SLP028 T02720250 57003 IEM_DS3505
ZGGG,1985-08-09 00:00,ZGGG 090000Z AUTO 07004KT 11SM 30/26 RMK SLP040 T02960255 52012 IEM_DS3505
ZGGG,1985-08-09 03:00,ZGGG 090300Z AUTO 14004KT 11SM 32/25 RMK SLP041 T03200248 52001 IEM_DS3505
ZGGG,1985-08-09 06:00,ZGGG 090600Z AUTO 09006KT 12SM 34/25 RMK SLP023 T03380246 4////0265 57018 IEM_DS3505
ZGGG,1985-08-09 09:00,ZGGG 090900Z AUTO 00000KT 12SM 34/23 RMK SLP002 T03410234 57021 IEM_DS3505
ZGGG,1985-08-09 12:00,ZGGG 091200Z AUTO 18006KT 9SM 32/26 RMK SLP018 T03150257 52016 IEM_DS3505
ZGGG,1985-08-09 15:00,ZGGG 091500Z AUTO 18006KT 8SM 30/26 RMK SLP038 T02980262 52020 IEM_DS3505
ZGGG,1985-08-09 18:00,ZGGG 091800Z AUTO 00000KT 6SM 28/25 RMK SLP021 T02820252 40351//// 57017 IEM_DS3505
ZGGG,1985-08-09 21:00,ZGGG 092100Z AUTO 00000KT 6SM 27/25 RMK SLP016 T02730249 57005 IEM_DS3505
ZGGG,1985-08-10 00:00,ZGGG 100000Z AUTO 09002KT 9SM 29/25 RMK SLP027 T02910254 52011 IEM_DS3505
ZGGG,1985-08-10 02:00,ZGGG 100200Z AUTO 00000KT 7SM 30/25 A2959 RMK T03000250 IEM_DS3505
ZGGG,1985-08-10 03:00,ZGGG 100300Z AUTO 09004KT 9SM 32/25 A2959 RMK SLP034 T03180247 52007 IEM_DS3505
ZGGG,1985-08-10 04:00,ZGGG 100400Z AUTO 18010KT 7SM 32/24 A2959 RMK T03200240 IEM_DS3505
ZGGG,1985-08-10 05:00,ZGGG 100500Z AUTO 16008KT 7SM 33/23 A2953 RMK T03300230 IEM_DS3505
ZGGG,1985-08-10 06:00,ZGGG 100600Z AUTO 14002KT 11SM 34/23 A2950 RMK SLP000 T03380232 4////0268 57034 IEM_DS3505
ZGGG,1985-08-10 09:00,ZGGG 100900Z AUTO 11004KT 9SM 34/24 RMK SLP986 T03380235 57014 IEM_DS3505
ZGGG,1985-08-10 12:00,ZGGG 101200Z AUTO 11006KT 4SM 27/22 RMK 60001 SLP009 T02740225 52023 IEM_DS3505
ZGGG,1985-08-10 15:00,ZGGG 101500Z AUTO 11002KT 4SM 26/24 RMK SLP017 T02630245 52008 IEM_DS3505
ZGGG,1985-08-10 18:00,ZGGG 101800Z AUTO 00000KT 5SM 26/24 RMK 60002 SLP007 T02640245 40346//// 57010 IEM_DS3505
ZGGG,1985-08-10 21:00,ZGGG 102100Z AUTO 00000KT 5SM 27/25 RMK SLP001 T02670248 57006 IEM_DS3505
ZGGG,1985-08-11 00:00,ZGGG 110000Z AUTO 07006KT 9SM 29/25 RMK SLP011 T02870248 52010 IEM_DS3505
ZGGG,1985-08-11 03:00,ZGGG 110300Z AUTO 02002KT 11SM 31/24 RMK SLP011 T03140241 54000 IEM_DS3505
ZGGG,1985-08-11 06:00,ZGGG 110600Z AUTO 09006KT 12SM 34/23 RMK SLP984 T03410232 4////0259 57027 IEM_DS3505
ZGGG,1985-08-11 09:00,ZGGG 110900Z AUTO 14004KT 12SM 31/25 RMK SLP976 T03140248 57008 IEM_DS3505
ZGGG,1985-08-11 12:00,ZGGG 111200Z AUTO 11004KT 9SM 30/24 RMK SLP993 T03010244 52017 IEM_DS3505
ZGGG,1985-08-11 15:00,ZGGG 111500Z AUTO 07004KT 9SM 29/25 RMK SLP011 T02900251 52018 IEM_DS3505
ZGGG,1985-08-11 18:00,ZGGG 111800Z AUTO 00000KT 9SM 28/25 RMK SLP001 T02790248 40348//// 57010 IEM_DS3505
ZGGG,1985-08-11 21:00,ZGGG 112100Z AUTO 00000KT 9SM 27/24 RMK SLP990 T02690245 57011 IEM_DS3505
ZGGG,1985-08-12 00:00,ZGGG 120000Z AUTO 02004KT 9SM 29/24 RMK SLP000 T02870244 52010 IEM_DS3505
ZGGG,1985-08-12 03:00,ZGGG 120300Z AUTO 07004KT 10SM 32/24 RMK SLP008 T03170235 52008 IEM_DS3505
ZGGG,1985-08-12 06:00,ZGGG 120600Z AUTO 07008KT 12SM 34/25 RMK SLP982 T03380247 4////0266 57026 IEM_DS3505
ZGGG,1985-08-12 09:00,ZGGG 120900Z AUTO 14010KT 10SM 30/25 RMK SLP976 T02960249 57006 IEM_DS3505
ZGGG,1985-08-12 12:00,ZGGG 121200Z AUTO 07004KT 9SM 28/26 RMK 60051 SLP988 T02820258 52012 IEM_DS3505
ZGGG,1985-08-12 15:00,ZGGG 121500Z AUTO 07004KT 7SM 28/25 RMK T02750248 52018 IEM_DS3505
ZGGG,1985-08-12 18:00,ZGGG 121800Z AUTO 09002KT 7SM 27/24 RMK SLP993 T02700239 40342//// 57013 IEM_DS3505
ZGGG,1985-08-12 21:00,ZGGG 122100Z AUTO 04004KT 7SM 27/24 RMK SLP994 T02680242 52001 IEM_DS3505
ZGGG,1985-08-13 00:00,ZGGG 130000Z AUTO 07006KT 9SM 29/24 RMK SLP998 T02880243 52004 IEM_DS3505
ZGGG,1985-08-13 03:00,ZGGG 130300Z AUTO 09006KT 11SM 31/25 RMK SLP001 T03060248 52003 IEM_DS3505
ZGGG,1985-08-13 04:00,ZGGG 130400Z AUTO 07012KT 7SM 32/25 A2950 RMK T03200250 IEM_DS3505
ZGGG,1985-08-13 05:00,ZGGG 130500Z AUTO 10010KT 7SM 31/25 A2947 RMK T03100250 IEM_DS3505
ZGGG,1985-08-13 06:00,ZGGG 130600Z AUTO 11010KT 11SM 33/25 A2941 RMK SLP976 T03260251 4////0258 57025 IEM_DS3505
ZGGG,1985-08-13 07:00,ZGGG 130700Z AUTO 12010KT 7SM 31/25 A2941 RMK T03100250 IEM_DS3505
ZGGG,1985-08-13 08:00,ZGGG 130800Z AUTO 10008KT 7SM 31/24 A2938 RMK T03100240 IEM_DS3505
ZGGG,1985-08-13 09:00,ZGGG 130900Z AUTO 09010KT 11SM 32/23 A2938 RMK SLP964 T03200234 57012 IEM_DS3505
ZGGG,1985-08-13 10:00,ZGGG 131000Z AUTO 11008KT 7SM 30/23 A2941 RMK T03000230 IEM_DS3505
ZGGG,1985-08-13 11:00,ZGGG 131100Z AUTO 13008KT 7SM 29/25 A2944 RMK T02900250 IEM_DS3505
ZGGG,1985-08-13 12:00,ZGGG 131200Z AUTO 11004KT 7SM 29/24 A2944 RMK SLP985 T02900243 52021 IEM_DS3505
ZGGG,1985-08-13 13:00,ZGGG 131300Z AUTO 09006KT 7SM 29/24 A2947 RMK T02900240 IEM_DS3505
ZGGG,1985-08-13 15:00,ZGGG 131500Z AUTO 09006KT 7SM 27/25 RMK SLP997 T02740246 52012 IEM_DS3505
ZGGG,1985-08-13 18:00,ZGGG 131800Z AUTO 07006KT 7SM 27/25 RMK SLP982 T02690247 40330//// 57015 IEM_DS3505
ZGGG,1985-08-13 21:00,ZGGG 132100Z AUTO 09006KT 6SM 27/24 RMK SLP983 T02660237 52001 IEM_DS3505
ZGGG,1985-08-14 00:00,ZGGG 140000Z AUTO 09008KT 9SM 26/ RMK 60002 70004 SLP985 52002 IEM_DS3505
ZGGG,1985-08-14 03:00,ZGGG 140300Z AUTO 09008KT 2 1/2SM 27/26 RMK SLP990 T02660257 52005 IEM_DS3505
ZGGG,1985-08-14 06:00,ZGGG 140600Z AUTO 09008KT 9SM 29/26 RMK 60039 SLP977 T02880260 4////0257 57013 IEM_DS3505
ZGGG,1985-08-14 09:00,ZGGG 140900Z AUTO 11006KT 10SM 29/25 RMK SLP974 T02910246 57003 IEM_DS3505
ZGGG,1985-08-14 12:00,ZGGG 141200Z AUTO 09006KT 7SM 27/25 RMK 60002 SLP992 T02690247 52018 IEM_DS3505
ZGGG,1985-08-14 15:00,ZGGG 141500Z AUTO 09006KT 6SM 27/25 RMK SLP015 T02680248 52023 IEM_DS3505
ZGGG,1985-08-14 18:00,ZGGG 141800Z AUTO 11002KT 7SM 25/24 RMK 60016 SLP009 T02520240 40291//// 57006 IEM_DS3505
ZGGG,1985-08-14 21:00,ZGGG 142100Z AUTO 09004KT 5SM 26/25 RMK SLP009 T02580247 54000 IEM_DS3505
ZGGG,1985-08-15 00:00,ZGGG 150000Z AUTO 11006KT 9SM 28/25 RMK SLP021 T02770250 52012 IEM_DS3505
ZGGG,1985-08-15 03:00,ZGGG 150300Z AUTO 11006KT 10SM 30/25 RMK SLP021 T02960249 54000 IEM_DS3505
ZGGG,1985-08-15 06:00,ZGGG 150600Z AUTO 11002KT 7SM 27/25 RMK 60098 SLP014 T02660251 4////0247 57007 IEM_DS3505
ZGGG,1985-08-15 09:00,ZGGG 150900Z AUTO 14004KT 7SM 28/25 RMK SLP008 T02840249 57006 IEM_DS3505
ZGGG,1985-08-15 12:00,ZGGG 151200Z AUTO 09004KT 5SM 28/26 RMK 60000 SLP021 T02760259 52013 IEM_DS3505
ZGGG,1985-08-15 15:00,ZGGG 151500Z AUTO 09004KT 5SM 27/25 RMK SLP042 T02660254 52021 IEM_DS3505
ZGGG,1985-08-15 18:00,ZGGG 151800Z AUTO 07004KT 5SM 26/25 RMK SLP037 T02590247 40302//// 57005 IEM_DS3505
ZGGG,1985-08-15 21:00,ZGGG 152100Z AUTO 00000KT 5SM 26/25 RMK SLP031 T02610250 57006 IEM_DS3505
ZGGG,1985-08-16 00:00,ZGGG 160000Z AUTO 09004KT 7SM 28/25 RMK SLP037 T02770250 52006 IEM_DS3505
ZGGG,1985-08-16 03:00,ZGGG 160300Z AUTO 07004KT 7SM 30/25 RMK SLP035 T03010253 57002 IEM_DS3505
ZGGG,1985-08-16 06:00,ZGGG 160600Z AUTO 25006KT 3SM 26/25 RMK 60035 SLP034 T02590247 4////0257 57001 IEM_DS3505
ZGGG,1985-08-16 09:00,ZGGG 160900Z AUTO 16002KT 2 1/2SM 26/25 RMK SLP033 T02620253 57001 IEM_DS3505
ZGGG,1985-08-16 12:00,ZGGG 161200Z AUTO 09002KT 4SM 26/26 RMK 60016 SLP042 T02630256 52009 IEM_DS3505
ZGGG,1985-08-16 15:00,ZGGG 161500Z AUTO 00000KT 2 1/2SM 26/26 RMK SLP057 T02630256 52015 IEM_DS3505
ZGGG,1985-08-16 18:00,ZGGG 161800Z AUTO 00000KT 2SM 26/25 RMK SLP047 T02590254 40308//// 57010 IEM_DS3505
ZGGG,1985-08-16 21:00,ZGGG 162100Z AUTO 00000KT 2SM 25/25 RMK SLP043 T02540250 57004 IEM_DS3505
ZGGG,1985-08-17 00:00,ZGGG 170000Z AUTO 00000KT 1 1/4SM 26/25 RMK SLP051 T02650253 52008 IEM_DS3505
ZGGG,1985-08-17 02:00,ZGGG 170200Z AUTO 25006KT 4SM 28/26 A2965 RMK T02800260 IEM_DS3505
ZGGG,1985-08-17 03:00,ZGGG 170300Z AUTO 32004KT 4SM 30/25 A2965 RMK SLP050 T03030252 57001 IEM_DS3505
ZGGG,1985-08-17 04:00,ZGGG 170400Z AUTO 29006KT 7SM 31/25 A2965 RMK T03100250 IEM_DS3505
ZGGG,1985-08-17 06:00,ZGGG 170600Z AUTO 29002KT 9SM 33/24 A2959 RMK SLP028 T03280245 4////0250 57022 IEM_DS3505
ZGGG,1985-08-17 07:00,ZGGG 170700Z AUTO 27008KT 7SM 33/ A2956 RMK IEM_DS3505
ZGGG,1985-08-17 09:00,ZGGG 170900Z AUTO 29004KT 9SM 34/25 A2956 RMK SLP015 T03440248 57013 IEM_DS3505
ZGGG,1985-08-17 10:00,ZGGG 171000Z AUTO 24008KT 7SM 33/26 A2953 RMK T03300260 IEM_DS3505
ZGGG,1985-08-17 12:00,ZGGG 171200Z AUTO 00000KT 7SM 31/26 RMK SLP024 T03080263 52009 IEM_DS3505
ZGGG,1985-08-17 15:00,ZGGG 171500Z AUTO 18004KT 5SM 29/27 RMK T02920267 52010 IEM_DS3505
ZGGG,1985-08-17 18:00,ZGGG 171800Z AUTO 00000KT 5SM 28/27 RMK 60001 SLP021 T02800267 40346//// 57013 IEM_DS3505
ZGGG,1985-08-17 21:00,ZGGG 172100Z AUTO 00000KT 4SM 27/26 RMK SLP013 T02740263 57008 IEM_DS3505
ZGGG,1985-08-18 00:00,ZGGG 180000Z AUTO 29004KT 2 1/2SM 28/26 RMK SLP024 T02820259 52011 IEM_DS3505
ZGGG,1985-08-18 03:00,ZGGG 180300Z AUTO 29004KT 2 1/2SM 32/27 RMK SLP025 T03190271 52001 IEM_DS3505
ZGGG,1985-08-18 06:00,ZGGG 180600Z AUTO 25008KT 7SM 35/26 RMK SLP003 T03470263 4////0271 57022 IEM_DS3505
ZGGG,1985-08-18 09:00,ZGGG 180900Z AUTO 14004KT 9SM 32/27 RMK SLP993 T03180272 57010 IEM_DS3505
ZGGG,1985-08-18 12:00,ZGGG 181200Z AUTO 00000KT 5SM 30/28 RMK SLP997 T03010275 52004 IEM_DS3505
ZGGG,1985-08-18 15:00,ZGGG 181500Z AUTO 00000KT 3SM 29/27 RMK SLP014 T02910273 52017 IEM_DS3505
ZGGG,1985-08-18 18:00,ZGGG 181800Z AUTO 04002KT 2 1/2SM 28/27 RMK SLP011 T02830271 40350//// 57003 IEM_DS3505
ZGGG,1985-08-18 21:00,ZGGG 182100Z AUTO 00000KT 2 1/2SM 28/27 RMK SLP005 T02800269 57006 IEM_DS3505
ZGGG,1985-08-19 00:00,ZGGG 190000Z AUTO 00000KT 2SM 29/27 RMK SLP015 T02860273 52010 IEM_DS3505
ZGGG,1985-08-19 03:00,ZGGG 190300Z AUTO 29002KT 2SM 32/28 RMK SLP010 T03150277 57005 IEM_DS3505
ZGGG,1985-08-19 06:00,ZGGG 190600Z AUTO 16002KT 2SM 34/26 RMK SLP996 T03440261 4////0275 57020 IEM_DS3505
ZGGG,1985-08-19 09:00,ZGGG 190900Z AUTO 00000KT 9SM 25/24 RMK SLP006 T02470237 52010 IEM_DS3505
ZGGG,1985-08-19 12:00,ZGGG 191200Z AUTO 09002KT 5SM 26/24 RMK 60280 SLP016 T02590245 52010 IEM_DS3505
ZGGG,1985-08-19 15:00,ZGGG 191500Z AUTO 00000KT 4SM 26/25 RMK SLP029 T02560248 52013 IEM_DS3505
ZGGG,1985-08-19 18:00,ZGGG 191800Z AUTO 00000KT 2 1/2SM 26/24 RMK SLP019 T02550245 40346//// 57010 IEM_DS3505
ZGGG,1985-08-19 21:00,ZGGG 192100Z AUTO 2 1/2SM 26/24 RMK SLP012 T02550244 57007 IEM_DS3505
ZGGG,1985-08-20 00:00,ZGGG 200000Z AUTO 29004KT 2 1/2SM 26/25 RMK SLP029 T02640251 52017 IEM_DS3505
ZGGG,1985-08-20 01:00,ZGGG 200100Z AUTO 29004KT 6SM 26/25 RMK SLP029 T02640251 52017 IEM_DS3505
ZGGG,1985-08-20 03:00,ZGGG 200300Z AUTO 36004KT 5SM 32/25 RMK SLP028 T03150246 57001 IEM_DS3505
ZGGG,1985-08-20 06:00,ZGGG 200600Z AUTO 34004KT 7SM 34/24 RMK SLP004 T03400239 4////0238 57024 IEM_DS3505
ZGGG,1985-08-20 09:00,ZGGG 200900Z AUTO 34002KT 7SM 35/23 RMK SLP990 T03460232 57014 IEM_DS3505
ZGGG,1985-08-20 12:00,ZGGG 201200Z AUTO 00000KT 5SM 30/26 RMK SLP002 T03000263 52012 IEM_DS3505
ZGGG,1985-08-20 15:00,ZGGG 201500Z AUTO 02008KT 5SM 29/25 RMK SLP013 T02940247 52011 IEM_DS3505
ZGGG,1985-08-20 18:00,ZGGG 201800Z AUTO 34002KT 3SM 25/24 RMK 60016 SLP013 T02540243 40348//// 54000 IEM_DS3505
ZGGG,1985-08-20 21:00,ZGGG 202100Z AUTO 00000KT 3SM 26/25 RMK SLP013 T02600248 54000 IEM_DS3505
ZGGG,1985-08-21 00:00,ZGGG 210000Z AUTO 00000KT 2SM 26/25 RMK 60008 SLP019 T02620254 52006 IEM_DS3505
ZGGG,1985-08-21 03:00,ZGGG 210300Z AUTO 27004KT 2SM 26/25 RMK SLP021 T02650254 52002 IEM_DS3505
ZGGG,1985-08-21 06:00,ZGGG 210600Z AUTO 00000KT 2SM 28/26 RMK 60031 SLP000 T02780262 4////0250 57021 IEM_DS3505
ZGGG,1985-08-21 09:00,ZGGG 210900Z AUTO 29004KT 2 1/2SM 28/26 RMK SLP992 T02820262 57008 IEM_DS3505
ZGGG,1985-08-21 12:00,ZGGG 211200Z AUTO 00000KT 2 1/2SM 26/25 RMK 60087 SLP002 T02610253 52010 IEM_DS3505
ZGGG,1985-08-21 15:00,ZGGG 211500Z AUTO 02004KT 6SM 26/25 RMK SLP014 T02630247 52012 IEM_DS3505
ZGGG,1985-08-21 18:00,ZGGG 211800Z AUTO 09004KT 5SM 25/24 RMK 60075 SLP006 T02500243 40285//// 57008 IEM_DS3505
ZGGG,1985-08-21 21:00,ZGGG 212100Z AUTO 07004KT 6SM 25/24 RMK SLP006 T02480237 54000 IEM_DS3505
ZGGG,1985-08-22 00:00,ZGGG 220000Z AUTO 09008KT 7SM 26/24 RMK 60008 SLP016 T02550240 52010 IEM_DS3505
ZGGG,1985-08-22 03:00,ZGGG 220300Z AUTO 09010KT 7SM 28/24 RMK SLP023 T02750244 52007 IEM_DS3505
ZGGG,1985-08-22 06:00,ZGGG 220600Z AUTO 11008KT 10SM 30/25 RMK SLP006 T02970249 4////0242 57017 IEM_DS3505
ZGGG,1985-08-22 09:00,ZGGG 220900Z AUTO 09004KT 9SM 29/25 RMK SLP998 T02940250 57008 IEM_DS3505
ZGGG,1985-08-22 12:00,ZGGG 221200Z AUTO 00000KT 5SM 26/25 RMK 60024 SLP011 T02610249 52019 IEM_DS3505
ZGGG,1985-08-22 15:00,ZGGG 221500Z AUTO 00000KT 5SM 26/25 RMK SLP035 T02600248 52018 IEM_DS3505
ZGGG,1985-08-22 18:00,ZGGG 221800Z AUTO 00000KT 6SM 26/24 RMK SLP026 T02590244 40300//// 57009 IEM_DS3505
ZGGG,1985-08-22 21:00,ZGGG 222100Z AUTO 00000KT 5SM 25/24 RMK SLP023 T02480240 57003 IEM_DS3505
ZGGG,1985-08-23 00:00,ZGGG 230000Z AUTO 00000KT 9SM 27/24 RMK SLP034 T02680242 52011 IEM_DS3505
ZGGG,1985-08-23 03:00,ZGGG 230300Z AUTO 00000KT 11SM 30/23 RMK SLP033 T03020234 57001 IEM_DS3505
ZGGG,1985-08-23 06:00,ZGGG 230600Z AUTO 25004KT 4SM 32/25 RMK SLP011 T03180253 4////0242 57022 IEM_DS3505
ZGGG,1985-08-23 09:00,ZGGG 230900Z AUTO 22004KT 4SM 32/25 RMK SLP997 T03250250 57014 IEM_DS3505
ZGGG,1985-08-23 12:00,ZGGG 231200Z AUTO 00000KT 5SM 30/25 RMK SLP009 T03040253 52012 IEM_DS3505
ZGGG,1985-08-23 15:00,ZGGG 231500Z AUTO 00000KT 2 1/2SM 29/27 RMK SLP025 T02870266 52016 IEM_DS3505
ZGGG,1985-08-23 18:00,ZGGG 231800Z AUTO 22004KT 2 1/2SM 28/26 RMK SLP015 T02810256 40336//// 57010 IEM_DS3505
ZGGG,1985-08-23 21:00,ZGGG 232100Z AUTO 00000KT 2 1/2SM 27/26 RMK SLP009 T02700258 57006 IEM_DS3505
ZGGG,1985-08-24 00:00,ZGGG 240000Z AUTO 00000KT 2 1/2SM 27/26 RMK 60012 SLP023 T02680256 52014 IEM_DS3505
ZGGG,1985-08-24 03:00,ZGGG 240300Z AUTO 27002KT 6SM 30/25 RMK SLP027 T03040246 52004 IEM_DS3505
ZGGG,1985-08-24 06:00,ZGGG 240600Z AUTO 20004KT 7SM 32/25 RMK 60002 SLP002 T03200252 4////0265 57025 IEM_DS3505
ZGGG,1985-08-24 09:00,ZGGG 240900Z AUTO 27006KT 5SM 27/25 RMK SLP004 T02700251 52002 IEM_DS3505
ZGGG,1985-08-24 12:00,ZGGG 241200Z AUTO 00000KT 4SM 28/26 RMK 60083 SLP011 T02750262 52007 IEM_DS3505
ZGGG,1985-08-24 15:00,ZGGG 241500Z AUTO 00000KT 2 1/2SM 27/26 RMK SLP021 T02680257 52010 IEM_DS3505
ZGGG,1985-08-24 18:00,ZGGG 241800Z AUTO 00000KT 2 1/2SM 27/26 RMK 60012 SLP003 T02670260 40328//// 57018 IEM_DS3505
ZGGG,1985-08-24 21:00,ZGGG 242100Z AUTO 00000KT 4SM 27/26 A2950 RMK SLP000 T02710263 57003 IEM_DS3505
ZGGG,1985-08-24 22:00,ZGGG 242200Z AUTO 18002KT 1 1/2SM 27/26 A2950 RMK T02700260 IEM_DS3505
ZGGG,1985-08-24 23:00,ZGGG 242300Z AUTO 00000KT 3SM 27/26 A2950 RMK T02700260 IEM_DS3505
ZGGG,1985-08-25 00:00,ZGGG 250000Z AUTO 27004KT 2 1/2SM 27/26 RMK 60004 SLP008 T02710259 52008 IEM_DS3505
ZGGG,1985-08-25 02:00,ZGGG 250200Z AUTO 21008KT 2 1/2SM 28/26 A2953 RMK T02800260 IEM_DS3505
ZGGG,1985-08-25 03:00,ZGGG 250300Z AUTO 25004KT 2 1/2SM 28/26 A2953 RMK SLP013 T02810257 52005 IEM_DS3505
ZGGG,1985-08-25 04:00,ZGGG 250400Z AUTO 14008KT 4SM 29/26 A2953 RMK T02900260 IEM_DS3505
ZGGG,1985-08-25 05:00,ZGGG 250500Z AUTO 28006KT 5SM 28/25 A2953 RMK T02800250 IEM_DS3505
ZGGG,1985-08-25 06:00,ZGGG 250600Z AUTO 27004KT 2 1/2SM 29/26 A2950 RMK 60002 SLP003 T02870258 4////0260 57010 IEM_DS3505
ZGGG,1985-08-25 07:00,ZGGG 250700Z AUTO 27004KT 4SM 28/26 A2950 RMK T02800260 IEM_DS3505
ZGGG,1985-08-25 08:00,ZGGG 250800Z AUTO 00000KT 7SM 29/26 RMK T02900260 IEM_DS3505
ZGGG,1985-08-25 09:00,ZGGG 250900Z AUTO 29002KT 6SM 29/25 A2947 RMK SLP989 T02930250 57014 IEM_DS3505
ZGGG,1985-08-25 12:00,ZGGG 251200Z AUTO 18006KT 2 1/2SM 25/24 RMK 60008 SLP009 T02540244 52020 IEM_DS3505
ZGGG,1985-08-25 15:00,ZGGG 251500Z AUTO 04002KT 3SM 26/25 RMK SLP019 T02560246 52010 IEM_DS3505
ZGGG,1985-08-25 18:00,ZGGG 251800Z AUTO 11004KT 2 1/2SM 25/25 RMK 60024 SLP999 T02540247 40297//// 57020 IEM_DS3505
ZGGG,1985-08-25 21:00,ZGGG 252100Z AUTO 09004KT 2 1/2SM 25/24 RMK SLP994 T02520245 57005 IEM_DS3505
ZGGG,1985-08-26 00:00,ZGGG 260000Z AUTO 09006KT 2 1/2SM 26/25 RMK 60002 SLP011 T02560246 52017 IEM_DS3505
ZGGG,1985-08-26 03:00,ZGGG 260300Z AUTO 18004KT 2SM 25/25 RMK SLP023 T02510246 52012 IEM_DS3505
ZGGG,1985-08-26 06:00,ZGGG 260600Z AUTO 11010KT 10SM 29/26 RMK 60075 SLP001 T02920256 4////0246 57022 IEM_DS3505
ZGGG,1985-08-26 09:00,ZGGG 260900Z AUTO 11012KT 10SM 28/26 RMK SLP995 T02830256 57006 IEM_DS3505
ZGGG,1985-08-26 12:00,ZGGG 261200Z AUTO 09008KT 7SM 27/24 RMK SLP008 T02680244 52013 IEM_DS3505
ZGGG,1985-08-26 15:00,ZGGG 261500Z AUTO 11008KT 7SM 26/24 RMK SLP033 T02640241 52025 IEM_DS3505
ZGGG,1985-08-26 18:00,ZGGG 261800Z AUTO 11006KT 4SM 25/24 RMK 60004 SLP017 T02540242 40296//// 57016 IEM_DS3505
ZGGG,1985-08-26 21:00,ZGGG 262100Z AUTO 09008KT 4SM 25/24 RMK SLP011 T02500239 57006 IEM_DS3505
ZGGG,1985-08-27 00:00,ZGGG 270000Z AUTO 07010KT 4SM 26/24 RMK 60000 SLP025 T02560240 52014 IEM_DS3505
ZGGG,1985-08-27 03:00,ZGGG 270300Z AUTO 09010KT 3SM 26/24 RMK SLP036 T02590245 52011 IEM_DS3505
ZGGG,1985-08-27 04:00,ZGGG 270400Z AUTO 11014KT 7SM 26/24 A2959 RMK T02600240 IEM_DS3505
ZGGG,1985-08-27 05:00,ZGGG 270500Z AUTO 11012KT 7SM 26/24 A2959 RMK T02600240 IEM_DS3505
ZGGG,1985-08-27 06:00,ZGGG 270600Z AUTO 14004KT 2 1/2SM 26/25 A2956 RMK 60012 SLP026 T02600249 4////0247 57010 IEM_DS3505
ZGGG,1985-08-27 07:00,ZGGG 270700Z AUTO 09010KT 7SM 26/25 A2956 RMK T02600250 IEM_DS3505
ZGGG,1985-08-27 08:00,ZGGG 270800Z AUTO 15008KT 7SM 26/25 A2956 RMK T02600250 IEM_DS3505
ZGGG,1985-08-27 09:00,ZGGG 270900Z AUTO 11008KT 4SM 26/24 A2956 RMK SLP023 T02610243 57003 IEM_DS3505
ZGGG,1985-08-27 12:00,ZGGG 271200Z AUTO 11006KT 6SM 25/24 RMK 60012 SLP035 T02540236 52012 IEM_DS3505
ZGGG,1985-08-27 15:00,ZGGG 271500Z AUTO 11002KT 4SM 25/24 RMK SLP058 T02500238 52023 IEM_DS3505
ZGGG,1985-08-27 18:00,ZGGG 271800Z AUTO 09006KT 5SM 25/23 RMK 60000 SLP045 T02490234 40263//// 57013 IEM_DS3505
ZGGG,1985-08-27 21:00,ZGGG 272100Z AUTO 07004KT 4SM 25/24 RMK SLP037 T02510236 57008 IEM_DS3505
ZGGG,1985-08-28 00:00,ZGGG 280000Z AUTO 07006KT 6SM 25/24 RMK 60004 SLP051 T02510243 52014 IEM_DS3505
ZGGG,1985-08-28 03:00,ZGGG 280300Z AUTO 09006KT 9SM 27/24 RMK SLP058 T02670245 52007 IEM_DS3505
ZGGG,1985-08-28 06:00,ZGGG 280600Z AUTO 11006KT 7SM 28/25 RMK 60004 SLP045 T02830247 4////0245 57013 IEM_DS3505
ZGGG,1985-08-28 09:00,ZGGG 280900Z AUTO 18006KT 7SM 27/24 RMK SLP041 T02700244 57004 IEM_DS3505
ZGGG,1985-08-28 12:00,ZGGG 281200Z AUTO 14004KT 7SM 26/24 RMK SLP054 T02620244 52013 IEM_DS3505
ZGGG,1985-08-28 15:00,ZGGG 281500Z AUTO 00000KT 5SM 26/25 RMK SLP069 T02600248 52015 IEM_DS3505
ZGGG,1985-08-28 18:00,ZGGG 281800Z AUTO 00000KT 4SM 25/25 RMK SLP060 T02540246 40290//// IEM_DS3505
ZGGG,1985-08-28 21:00,ZGGG 282100Z AUTO 04004KT 4SM 25/24 RMK SLP058 T02500240 57002 IEM_DS3505
ZGGG,1985-08-29 00:00,ZGGG 290000Z AUTO 09006KT 4SM 25/24 RMK 60012 SLP070 T02500239 52012 IEM_DS3505
ZGGG,1985-08-29 03:00,ZGGG 290300Z AUTO 09006KT 4SM 27/24 RMK SLP079 T02670242 52009 IEM_DS3505
ZGGG,1985-08-29 06:00,ZGGG 290600Z AUTO 11006KT 7SM 28/24 RMK 60000 SLP065 T02790242 4////0247 57014 IEM_DS3505
ZGGG,1985-08-29 09:00,ZGGG 290900Z AUTO 14006KT 10SM 28/24 RMK SLP059 T02750240 57006 IEM_DS3505
ZGGG,1985-08-29 12:00,ZGGG 291200Z AUTO 00000KT 2 1/2SM 26/24 RMK SLP066 T02600239 52007 IEM_DS3505
ZGGG,1985-08-29 15:00,ZGGG 291500Z AUTO 00000KT 2 1/2SM 25/24 RMK SLP079 T02490239 52013 IEM_DS3505
ZGGG,1985-08-29 18:00,ZGGG 291800Z AUTO 00000KT 2 1/2SM 25/24 RMK SLP076 T02490237 40283//// 57003 IEM_DS3505
ZGGG,1985-08-29 21:00,ZGGG 292100Z AUTO 00000KT 3SM 25/23 RMK SLP065 T02460233 57011 IEM_DS3505
ZGGG,1985-08-30 00:00,ZGGG 300000Z AUTO 00000KT 10SM 27/23 RMK SLP066 T02710234 52001 IEM_DS3505
ZGGG,1985-08-30 03:00,ZGGG 300300Z AUTO 22002KT 9SM 29/23 RMK SLP073 T02860230 52007 IEM_DS3505
ZGGG,1985-08-30 06:00,ZGGG 300600Z AUTO 16004KT 4SM 31/24 RMK SLP045 T03080236 4////0244 57028 IEM_DS3505
ZGGG,1985-08-30 09:00,ZGGG 300900Z AUTO 18004KT 6SM 31/22 RMK SLP026 T03110224 57019 IEM_DS3505
ZGGG,1985-08-30 12:00,ZGGG 301200Z AUTO 18004KT 6SM 29/24 RMK SLP041 T02860241 52015 IEM_DS3505
ZGGG,1985-08-30 15:00,ZGGG 301500Z AUTO 18004KT 4SM 27/25 RMK SLP056 T02660246 52015 IEM_DS3505
ZGGG,1985-08-30 18:00,ZGGG 301800Z AUTO 00000KT 2 1/2SM 25/24 RMK SLP051 T02540239 40316//// 57005 IEM_DS3505
ZGGG,1985-08-30 21:00,ZGGG 302100Z AUTO 00000KT 2 1/2SM 25/24 RMK SLP043 T02480238 57008 IEM_DS3505
ZGGG,1985-08-31 00:00,ZGGG 310000Z AUTO 00000KT 4SM 26/24 RMK SLP045 T02580243 52002 IEM_DS3505
ZGGG,1985-08-31 03:00,ZGGG 310300Z AUTO 09002KT 6SM 29/23 RMK SLP048 T02930230 52003 IEM_DS3505
ZGGG,1985-08-31 06:00,ZGGG 310600Z AUTO 16004KT 4SM 32/23 RMK SLP032 T03160233 4////0241 57016 IEM_DS3505
ZGGG,1985-08-31 09:00,ZGGG 310900Z AUTO 22004KT 6SM 31/23 RMK SLP019 T03120231 57013 IEM_DS3505
ZGGG,1985-08-31 12:00,ZGGG 311200Z AUTO 16006KT 7SM 28/23 RMK SLP039 T02770226 52020 IEM_DS3505
ZGGG,1985-08-31 15:00,ZGGG 311500Z AUTO 00000KT 7SM 26/23 RMK SLP053 T02650233 52014 IEM_DS3505
ZGGG,1985-08-31 18:00,ZGGG 311800Z AUTO 04004KT 7SM 25/23 RMK SLP047 T02530234 40320//// 57006 IEM_DS3505
ZGGG,1985-08-31 21:00,ZGGG 312100Z AUTO 04004KT 6SM 25/23 RMK SLP041 T02500232 57006 IEM_DS3505
ZGGG,1985-08-31 22:00,ZGGG 312200Z AUTO 00000KT 6SM 24/23 A2962 RMK T02400230 IEM_DS3505
ZGGG,1985-08-31 23:00,ZGGG 312300Z AUTO 34006KT 4SM 24/23 A2962 RMK T02400230 IEM_DS3505
ZGGG,1985-09-01 00:00,ZGGG 010000Z AUTO 00000KT 5SM 26/23 A2965 RMK SLP053 T02610231 52012 IEM_DS3505
ZGGG,1985-09-01 01:00,ZGGG 010100Z AUTO 01006KT 6SM 27/23 A2965 RMK T02700230 IEM_DS3505
ZGGG,1985-09-01 02:00,ZGGG 010200Z AUTO 03010KT 7SM 28/24 A2965 RMK T02800240 IEM_DS3505
ZGGG,1985-09-01 03:00,ZGGG 010300Z AUTO 34004KT 7SM 29/24 A2965 RMK SLP053 T02920235 54000 IEM_DS3505
ZGGG,1985-09-01 06:00,ZGGG 010600Z AUTO 29002KT 9SM 31/24 RMK SLP039 T03130235 57014 IEM_DS3505
ZGGG,1985-09-01 09:00,ZGGG 010900Z AUTO 36002KT 9SM 33/24 RMK SLP026 T03260239 57013 IEM_DS3505
ZGGG,1985-09-01 12:00,ZGGG 011200Z AUTO 36004KT 7SM 25/23 RMK 60043 SLP043 T02500232 52017 IEM_DS3505
ZGGG,1985-09-01 18:00,ZGGG 011800Z AUTO 02004KT 7SM 26/22 RMK SLP056 T02570221 40326//// 57002 IEM_DS3505
ZGGG,1985-09-01 21:00,ZGGG 012100Z AUTO 02004KT 7SM 25/22 RMK SLP055 T02520220 57001 IEM_DS3505
ZGGG,1985-09-01 22:00,ZGGG 012200Z AUTO 03006KT 6SM 25/23 A2965 RMK T02500230 IEM_DS3505
ZGGG,1985-09-01 23:00,ZGGG 012300Z AUTO 03008KT 6SM 25/22 A2968 RMK T02500220 IEM_DS3505
ZGGG,1985-09-02 00:00,ZGGG 020000Z AUTO 36006KT 6SM 26/22 A2971 RMK SLP073 T02570218 52018 IEM_DS3505
ZGGG,1985-09-02 01:00,ZGGG 020100Z AUTO 36010KT 6SM 24/22 A2974 RMK T02400220 IEM_DS3505
ZGGG,1985-09-02 02:00,ZGGG 020200Z AUTO 36010KT 6SM 27/22 A2974 RMK T02700220 IEM_DS3505
ZGGG,1985-09-02 03:00,ZGGG 020300Z AUTO 34006KT 8SM 28/22 A2971 RMK SLP076 T02840221 52003 IEM_DS3505
ZGGG,1985-09-02 06:00,ZGGG 020600Z AUTO 07002KT 11SM 32/22 RMK SLP057 T03150222 4////0238 57019 IEM_DS3505
ZGGG,1985-09-02 09:00,ZGGG 020900Z AUTO 34004KT 9SM 32/22 RMK SLP053 T03150222 57004 IEM_DS3505
ZGGG,1985-09-02 12:00,ZGGG 021200Z AUTO 00000KT 6SM 29/23 RMK SLP064 T02910229 52011 IEM_DS3505
ZGGG,1985-09-02 15:00,ZGGG 021500Z AUTO 36002KT 6SM 28/22 RMK SLP078 T02770224 52014 IEM_DS3505
ZGGG,1985-09-02 18:00,ZGGG 021800Z AUTO 34004KT 2 1/2SM 26/22 RMK SLP072 T02650219 40323//// 57006 IEM_DS3505
ZGGG,1985-09-02 21:00,ZGGG 022100Z AUTO 36004KT 2 1/2SM 25/21 RMK SLP074 T02540213 52002 IEM_DS3505
ZGGG,1985-09-03 00:00,ZGGG 030000Z AUTO 02008KT 5SM 26/22 RMK SLP088 T02630215 52014 IEM_DS3505
ZGGG,1985-09-03 03:00,ZGGG 030300Z AUTO 04006KT 6SM 30/22 RMK SLP089 T03040222 52001 IEM_DS3505
ZGGG,1985-09-03 04:00,ZGGG 030400Z AUTO 01012KT 7SM 31/23 A2974 RMK T03100230 IEM_DS3505
ZGGG,1985-09-03 05:00,ZGGG 030500Z AUTO 03006KT 7SM 30/23 A2974 RMK T03000230 IEM_DS3505
ZGGG,1985-09-03 06:00,ZGGG 030600Z AUTO 09008KT 9SM 32/22 A2971 RMK SLP074 T03180221 4////0249 57015 IEM_DS3505
ZGGG,1985-09-03 07:00,ZGGG 030700Z AUTO 09010KT 7SM 30/24 A2971 RMK T03000240 IEM_DS3505
ZGGG,1985-09-03 08:00,ZGGG 030800Z AUTO 13010KT 6SM 30/25 A2971 RMK T03000250 IEM_DS3505
ZGGG,1985-09-03 09:00,ZGGG 030900Z AUTO 09004KT 9SM 28/24 RMK SLP069 T02820238 57005 IEM_DS3505
ZGGG,1985-09-03 10:00,ZGGG 031000Z AUTO 00000KT 6SM 28/23 A2971 RMK T02800230 IEM_DS3505
ZGGG,1985-09-03 11:00,ZGGG 031100Z AUTO 00000KT 7SM 28/25 A2971 RMK T02800250 IEM_DS3505
ZGGG,1985-09-03 12:00,ZGGG 031200Z AUTO 07002KT 8SM 27/24 A2971 RMK SLP076 T02730236 52007 IEM_DS3505
ZGGG,1985-09-03 15:00,ZGGG 031500Z AUTO 00000KT 6SM 26/24 RMK SLP085 T02600244 52009 IEM_DS3505
ZGGG,1985-09-03 18:00,ZGGG 031800Z AUTO 00000KT 4SM 25/24 RMK SLP070 T02540235 40319//// 57015 IEM_DS3505
ZGGG,1985-09-03 21:00,ZGGG 032100Z AUTO 00000KT 4SM 25/23 RMK SLP058 T02480231 57012 IEM_DS3505
ZGGG,1985-09-04 00:00,ZGGG 040000Z AUTO 00000KT 6SM 27/23 RMK SLP069 T02700231 52011 IEM_DS3505
ZGGG,1985-09-04 03:00,ZGGG 040300Z AUTO 34010KT 9SM 31/24 RMK SLP062 T03100235 57007 IEM_DS3505
ZGGG,1985-09-04 06:00,ZGGG 040600Z AUTO 02006KT 10SM 33/24 RMK SLP036 T03320239 4////0243 57026 IEM_DS3505
ZGGG,1985-09-04 09:00,ZGGG 040900Z AUTO 34008KT 10SM 33/23 RMK SLP015 T03300227 57021 IEM_DS3505
ZGGG,1985-09-04 12:00,ZGGG 041200Z AUTO 04004KT 7SM 31/22 RMK SLP023 T03090222 52008 IEM_DS3505
ZGGG,1985-09-04 15:00,ZGGG 041500Z AUTO 11004KT 9SM 26/25 RMK SLP044 T02630249 52021 IEM_DS3505
ZGGG,1985-09-04 18:00,ZGGG 041800Z AUTO 04006KT 7SM 26/23 RMK 60043 SLP020 T02650232 40338//// 57024 IEM_DS3505
ZGGG,1985-09-04 21:00,ZGGG 042100Z AUTO 02008KT 7SM 26/23 RMK SLP010 T02620232 57010 IEM_DS3505
ZGGG,1985-09-05 00:00,ZGGG 050000Z AUTO 07012KT 11SM 27/23 RMK SLP019 T02720231 52009 IEM_DS3505
ZGGG,1985-09-05 03:00,ZGGG 050300Z AUTO 04010KT 11SM 29/23 RMK SLP012 T02900226 57007 IEM_DS3505
ZGGG,1985-09-05 06:00,ZGGG 050600Z AUTO 09012KT 7SM 29/23 RMK SLP998 T02930231 4////0255 57014 IEM_DS3505
ZGGG,1985-09-05 09:00,ZGGG 050900Z AUTO 07012KT 9SM 28/24 RMK SLP980 T02780237 57018 IEM_DS3505
ZGGG,1985-09-05 12:00,ZGGG 051200Z AUTO 07010KT 9SM 27/23 RMK 60004 SLP984 T02720228 52004 IEM_DS3505
ZGGG,1985-09-05 15:00,ZGGG 051500Z AUTO 04012KT 9SM 26/22 RMK SLP986 T02650225 52002 IEM_DS3505
ZGGG,1985-09-05 18:00,ZGGG 051800Z AUTO 07014KT 6SM 25/23 RMK 60004 SLP973 T02510229 40300//// 57013 IEM_DS3505
ZGGG,1985-09-05 21:00,ZGGG 052100Z AUTO 07014KT 3SM 24/23 RMK SLP958 T02440234 57015 IEM_DS3505
ZGGG,1985-09-06 00:00,ZGGG 060000Z AUTO 07014KT 6SM 25/23 RMK 60071 SLP964 T02500233 52006 IEM_DS3505
ZGGG,1985-09-06 01:00,ZGGG 060100Z AUTO 07014KT 6SM 25/23 RMK 60071 SLP964 T02500233 52006 IEM_DS3505
ZGGG,1985-09-06 03:00,ZGGG 060300Z AUTO 11014KT 4SM 25/24 RMK SLP984 T02510237 52020 IEM_DS3505
ZGGG,1985-09-06 04:00,ZGGG 060400Z AUTO 14014KT 4SM 25/24 RMK SLP986 T02490239 52012 IEM_DS3505
ZGGG,1985-09-06 06:00,ZGGG 060600Z AUTO 14016KT 5SM 26/24 RMK 60094 SLP991 T02550240 4////0240 52007 IEM_DS3505
ZGGG,1985-09-06 07:00,ZGGG 060700Z AUTO 14012KT 6SM 26/24 RMK SLP991 T02590241 52005 IEM_DS3505
ZGGG,1985-09-06 08:00,ZGGG 060800Z AUTO 11012KT 5SM 26/ RMK SLP993 52004 IEM_DS3505
ZGGG,1985-09-06 09:00,ZGGG 060900Z AUTO 11010KT 5SM 26/24 RMK SLP000 T02570241 52009 IEM_DS3505
ZGGG,1985-09-06 10:00,ZGGG 061000Z AUTO 11012KT 6SM 25/ RMK SLP006 IEM_DS3505
ZGGG,1985-09-06 12:00,ZGGG 061200Z AUTO 16010KT 4SM 25/24 RMK 60043 SLP016 T02480236 52016 IEM_DS3505
ZGGG,1985-09-06 15:00,ZGGG 061500Z AUTO 14012KT 4SM 27/25 RMK SLP036 T02660248 52020 IEM_DS3505
ZGGG,1985-09-06 21:00,ZGGG 062100Z AUTO 11006KT 3SM 26/24 RMK SLP045 T02610241 52007 IEM_DS3505
ZGGG,1985-09-07 00:00,ZGGG 070000Z AUTO 11006KT 5SM 27/24 RMK SLP068 T02690245 52023 IEM_DS3505
ZGGG,1985-09-07 03:00,ZGGG 070300Z AUTO 14006KT 7SM 29/25 RMK SLP075 T02860247 52007 IEM_DS3505
ZGGG,1985-09-07 06:00,ZGGG 070600Z AUTO 18006KT 10SM 30/24 RMK SLP055 T03040239 4////0243 57020 IEM_DS3505
ZGGG,1985-09-07 09:00,ZGGG 070900Z AUTO 16006KT 10SM 30/24 RMK SLP048 T03000243 57007 IEM_DS3505
ZGGG,1985-09-07 12:00,ZGGG 071200Z AUTO 11004KT 7SM 27/25 RMK SLP065 T02740247 52017 IEM_DS3505
ZGGG,1985-09-07 15:00,ZGGG 071500Z AUTO 00000KT 7SM 26/25 RMK SLP083 T02650250 52018 IEM_DS3505
ZGGG,1985-09-07 18:00,ZGGG 071800Z AUTO 00000KT 6SM 26/24 RMK SLP076 T02550243 40312//// 57007 IEM_DS3505
ZGGG,1985-09-07 21:00,ZGGG 072100Z AUTO 07004KT 6SM 25/24 RMK SLP071 T02480237 57005 IEM_DS3505
ZGGG,1985-09-08 00:00,ZGGG 080000Z AUTO 09004KT 10SM 27/23 RMK SLP084 T02720234 52013 IEM_DS3505
ZGGG,1985-09-08 03:00,ZGGG 080300Z AUTO 11006KT 10SM 30/24 RMK SLP088 T02990235 52004 IEM_DS3505
ZGGG,1985-09-08 06:00,ZGGG 080600Z AUTO 09002KT 10SM 31/23 RMK SLP073 T03130232 4////0245 57015 IEM_DS3505
ZGGG,1985-09-08 09:00,ZGGG 080900Z AUTO 11004KT 7SM 26/24 RMK SLP076 T02640244 52003 IEM_DS3505
ZGGG,1985-09-08 12:00,ZGGG 081200Z AUTO 00000KT 2 1/2SM 25/24 RMK 60028 SLP091 T02460238 52015 IEM_DS3505
ZGGG,1985-09-08 15:00,ZGGG 081500Z AUTO 00000KT 4SM 25/24 RMK SLP097 T02500240 52006 IEM_DS3505
ZGGG,1985-09-08 18:00,ZGGG 081800Z AUTO 29002KT 3SM 24/24 RMK 60000 SLP096 T02450238 40315//// 57001 IEM_DS3505
ZGGG,1985-09-08 21:00,ZGGG 082100Z AUTO 00000KT 2 1/2SM 24/23 RMK SLP087 T02400233 57009 IEM_DS3505
ZGGG,1985-09-09 00:00,ZGGG 090000Z AUTO 32004KT 10SM 26/24 RMK SLP097 T02570235 52010 IEM_DS3505
ZGGG,1985-09-09 03:00,ZGGG 090300Z AUTO 07006KT 12SM 30/23 RMK SLP101 T03030233 52004 IEM_DS3505
ZGGG,1985-09-09 06:00,ZGGG 090600Z AUTO 09006KT 15SM 32/23 RMK SLP097 T03210231 4////0235 57004 IEM_DS3505
ZGGG,1985-09-09 09:00,ZGGG 090900Z AUTO 09006KT 6SM 28/25 RMK SLP092 T02750254 57005 IEM_DS3505
ZGGG,1985-09-09 12:00,ZGGG 091200Z AUTO 09006KT 7SM 26/24 RMK 60063 SLP105 T02550243 52013 IEM_DS3505
ZGGG,1985-09-09 15:00,ZGGG 091500Z AUTO 07004KT 8SM 26/22 RMK SLP120 T02560225 52015 IEM_DS3505
ZGGG,1985-09-09 18:00,ZGGG 091800Z AUTO 07006KT 2SM 24/23 RMK 60016 SLP125 T02400233 40325//// 52005 IEM_DS3505
ZGGG,1985-09-09 21:00,ZGGG 092100Z AUTO 02004KT 6SM 24/23 RMK SLP118 T02420232 57007 IEM_DS3505
ZGGG,1985-09-09 22:00,ZGGG 092200Z AUTO 07004KT 7SM 24/23 A2985 RMK T02400230 IEM_DS3505
ZGGG,1985-09-09 23:00,ZGGG 092300Z AUTO 01004KT 6SM 24/23 A2985 RMK T02400230 IEM_DS3505
ZGGG,1985-09-10 00:00,ZGGG 100000Z AUTO 04004KT 10SM 25/23 A2988 RMK 60008 SLP130 T02520230 52012 IEM_DS3505
ZGGG,1985-09-10 01:00,ZGGG 100100Z AUTO 04006KT 6SM 27/23 A2988 RMK T02700230 IEM_DS3505
ZGGG,1985-09-10 02:00,ZGGG 100200Z AUTO 09008KT 7SM 27/24 A2991 RMK T02700240 IEM_DS3505
ZGGG,1985-09-10 03:00,ZGGG 100300Z AUTO 09006KT 7SM 25/24 A2994 RMK SLP147 T02490237 52017 IEM_DS3505
ZGGG,1985-09-10 04:00,ZGGG 100400Z AUTO 09010KT 7SM 26/24 A2991 RMK T02600240 IEM_DS3505
ZGGG,1985-09-10 05:00,ZGGG 100500Z AUTO 06012KT 7SM 26/24 A2988 RMK T02600240 IEM_DS3505
ZGGG,1985-09-10 06:00,ZGGG 100600Z AUTO 07010KT 10SM 26/24 A2985 RMK 60020 SLP127 T02550240 4////0237 57020 IEM_DS3505
ZGGG,1985-09-10 07:00,ZGGG 100700Z AUTO 09010KT 7SM 27/23 A2985 RMK T02700230 IEM_DS3505
ZGGG,1985-09-10 08:00,ZGGG 100800Z AUTO 09010KT 7SM 27/23 A2988 RMK T02700230 IEM_DS3505
ZGGG,1985-09-10 09:00,ZGGG 100900Z AUTO 09008KT 12SM 28/23 RMK SLP129 T02770229 52002 IEM_DS3505
ZGGG,1985-09-10 12:00,ZGGG 101200Z AUTO 09004KT 9SM 26/24 RMK SLP141 T02630236 52012 IEM_DS3505
ZGGG,1985-09-10 15:00,ZGGG 101500Z AUTO 07002KT 7SM 26/23 RMK SLP157 T02590234 52016 IEM_DS3505
ZGGG,1985-09-10 18:00,ZGGG 101800Z AUTO 00000KT 6SM 25/24 RMK SLP142 T02480238 40279//// 57015 IEM_DS3505
ZGGG,1985-09-10 21:00,ZGGG 102100Z AUTO 00000KT 7SM 24/23 RMK SLP130 T02440234 57012 IEM_DS3505
ZGGG,1985-09-11 00:00,ZGGG 110000Z AUTO 00000KT 9SM 27/23 RMK SLP138 T02700233 52008 IEM_DS3505
ZGGG,1985-09-11 03:00,ZGGG 110300Z AUTO 09006KT 9SM 30/24 RMK SLP149 T03000240 52011 IEM_DS3505
ZGGG,1985-09-11 06:00,ZGGG 110600Z AUTO 22004KT 9SM 30/24 RMK SLP130 T02980240 4////0241 57019 IEM_DS3505
ZGGG,1985-09-11 09:00,ZGGG 110900Z AUTO 00000KT 9SM 26/23 RMK SLP116 T02580233 57014 IEM_DS3505
ZGGG,1985-09-11 12:00,ZGGG 111200Z AUTO 00000KT 7SM 26/24 RMK 60002 SLP128 T02560240 52012 IEM_DS3505
ZGGG,1985-09-11 15:00,ZGGG 111500Z AUTO 04004KT 7SM 25/24 RMK SLP135 T02540240 52007 IEM_DS3505
ZGGG,1985-09-11 18:00,ZGGG 111800Z AUTO 00000KT 7SM 25/24 RMK SLP125 T02480237 40316//// 57010 IEM_DS3505
ZGGG,1985-09-12 00:00,ZGGG 120000Z AUTO 07002KT 7SM 25/23 RMK SLP132 T02480230 52012 IEM_DS3505
ZGGG,1985-09-12 03:00,ZGGG 120300Z AUTO 14002KT 9SM 29/24 RMK SLP131 T02870235 57001 IEM_DS3505
ZGGG,1985-09-12 09:00,ZGGG 120900Z AUTO 16004KT 9SM 30/23 RMK SLP099 T02980231 57011 IEM_DS3505
ZGGG,1985-09-12 12:00,ZGGG 121200Z AUTO 00000KT 8SM 28/25 RMK 60000 SLP115 T02750247 52016 IEM_DS3505
ZGGG,1985-09-12 15:00,ZGGG 121500Z AUTO 00000KT 6SM 26/22 RMK SLP128 T02580222 52013 IEM_DS3505
ZGGG,1985-09-12 18:00,ZGGG 121800Z AUTO 00000KT 5SM 23/22 RMK 60012 SLP114 T02330223 40309//// 57014 IEM_DS3505
ZGGG,1985-09-12 21:00,ZGGG 122100Z AUTO 02004KT 7SM 24/22 RMK SLP101 T02390221 57013 IEM_DS3505
ZGGG,1985-09-13 00:00,ZGGG 130000Z AUTO 09002KT 1SM 26/23 RMK 60001 SLP115 T02610231 52014 IEM_DS3505
ZGGG,1985-09-13 03:00,ZGGG 130300Z AUTO 14004KT 7SM 29/24 RMK SLP118 T02910235 52003 IEM_DS3505
ZGGG,1985-09-13 06:00,ZGGG 130600Z AUTO 09004KT 7SM 31/22 RMK SLP097 T03100217 4////0231 57021 IEM_DS3505
ZGGG,1985-09-13 09:00,ZGGG 130900Z AUTO 00000KT 6SM 30/23 RMK SLP089 T02960233 57008 IEM_DS3505
ZGGG,1985-09-13 12:00,ZGGG 131200Z AUTO 00000KT 4SM 26/23 RMK SLP101 T02640234 52012 IEM_DS3505
ZGGG,1985-09-13 15:00,ZGGG 131500Z AUTO 00000KT 4SM 26/23 RMK SLP121 T02560233 52020 IEM_DS3505
ZGGG,1985-09-13 18:00,ZGGG 131800Z AUTO 00000KT 5SM 24/23 RMK SLP110 T02440232 40319//// 57011 IEM_DS3505
ZGGG,1985-09-13 21:00,ZGGG 132100Z AUTO 02002KT 4SM 24/23 RMK SLP109 T02400229 57001 IEM_DS3505
ZGGG,1985-09-14 00:00,ZGGG 140000Z AUTO 00000KT 6SM 25/23 RMK SLP122 T02500232 52013 IEM_DS3505
ZGGG,1985-09-14 03:00,ZGGG 140300Z AUTO 11004KT 9SM 30/23 A2985 RMK SLP125 T03000230 52003 IEM_DS3505
ZGGG,1985-09-14 04:00,ZGGG 140400Z AUTO 10008KT 7SM 31/22 A2985 RMK T03100220 IEM_DS3505
ZGGG,1985-09-14 05:00,ZGGG 140500Z AUTO 06006KT 7SM 31/22 A2983 RMK T03100220 IEM_DS3505
ZGGG,1985-09-14 06:00,ZGGG 140600Z AUTO 11006KT 10SM 32/22 A2983 RMK SLP104 T03200225 4////0238 57021 IEM_DS3505
ZGGG,1985-09-14 07:00,ZGGG 140700Z AUTO 10010KT 7SM 32/23 A2980 RMK T03200230 IEM_DS3505
ZGGG,1985-09-14 09:00,ZGGG 140900Z AUTO 32004KT 10SM 30/22 RMK SLP096 T03020225 57008 IEM_DS3505
ZGGG,1985-09-14 12:00,ZGGG 141200Z AUTO 00000KT 7SM 26/22 RMK SLP108 T02620221 52012 IEM_DS3505
ZGGG,1985-09-14 15:00,ZGGG 141500Z AUTO 00000KT 7SM 25/24 RMK SLP122 T02510237 52014 IEM_DS3505
ZGGG,1985-09-14 18:00,ZGGG 141800Z AUTO 00000KT 7SM 24/23 RMK SLP118 T02420231 40325//// 57004 IEM_DS3505
ZGGG,1985-09-14 21:00,ZGGG 142100Z AUTO 00000KT 6SM 24/23 RMK SLP117 T02370227 57001 IEM_DS3505
ZGGG,1985-09-15 00:00,ZGGG 150000Z AUTO 00000KT 9SM 26/23 RMK SLP126 T02580232 52009 IEM_DS3505
ZGGG,1985-09-15 03:00,ZGGG 150300Z AUTO 07002KT 11SM 30/23 RMK SLP133 T02970228 52007 IEM_DS3505
ZGGG,1985-09-15 06:00,ZGGG 150600Z AUTO 25002KT 9SM 32/23 RMK SLP114 T03200227 4////0232 57019 IEM_DS3505
ZGGG,1985-09-15 09:00,ZGGG 150900Z AUTO 36002KT 7SM 31/24 RMK SLP097 T03090237 57017 IEM_DS3505
ZGGG,1985-09-15 12:00,ZGGG 151200Z AUTO 00000KT 9SM 28/24 RMK SLP107 T02790239 52010 IEM_DS3505
ZGGG,1985-09-15 15:00,ZGGG 151500Z AUTO 00000KT 7SM 27/25 RMK SLP126 T02740247 52019 IEM_DS3505
ZGGG,1985-09-15 18:00,ZGGG 151800Z AUTO 00000KT 7SM 26/24 RMK 60004 SLP123 T02570238 40322//// 57003 IEM_DS3505
ZGGG,1985-09-15 21:00,ZGGG 152100Z AUTO 00000KT 7SM 25/24 RMK SLP120 T02480238 57003 IEM_DS3505
ZGGG,1985-09-16 00:00,ZGGG 160000Z AUTO 00000KT 7SM 26/23 RMK SLP126 T02600232 52006 IEM_DS3505
ZGGG,1985-09-16 03:00,ZGGG 160300Z AUTO 27004KT 9SM 30/21 RMK SLP128 T02990212 52002 IEM_DS3505
ZGGG,1985-09-16 06:00,ZGGG 160600Z AUTO 32006KT 9SM 32/24 RMK SLP102 T03200237 4////0246 57026 IEM_DS3505
ZGGG,1985-09-16 09:00,ZGGG 160900Z AUTO 32002KT 9SM 32/23 RMK SLP090 T03200233 57012 IEM_DS3505
ZGGG,1985-09-16 12:00,ZGGG 161200Z AUTO 29002KT 7SM 29/24 RMK SLP095 T02870245 52005 IEM_DS3505
ZGGG,1985-09-16 15:00,ZGGG 161500Z AUTO 00000KT 4SM 28/25 RMK SLP103 T02810250 52008 IEM_DS3505
ZGGG,1985-09-16 18:00,ZGGG 161800Z AUTO 00000KT 4SM 27/25 RMK SLP090 T02680248 40328//// IEM_DS3505
ZGGG,1985-09-16 21:00,ZGGG 162100Z AUTO 36004KT 4SM 26/23 RMK SLP088 T02640229 57002 IEM_DS3505
ZGGG,1985-09-17 00:00,ZGGG 170000Z AUTO 04006KT 5SM 27/22 RMK SLP100 T02740225 52012 IEM_DS3505
ZGGG,1985-09-17 03:00,ZGGG 170300Z AUTO 34010KT 7SM 30/23 RMK SLP097 T03020234 57003 IEM_DS3505
ZGGG,1985-09-17 04:00,ZGGG 170400Z AUTO 34012KT 7SM 31/23 A2977 RMK T03100230 IEM_DS3505
ZGGG,1985-09-17 05:00,ZGGG 170500Z AUTO 34014KT 7SM 31/23 A2974 RMK T03100230 IEM_DS3505
ZGGG,1985-09-17 06:00,ZGGG 170600Z AUTO 36004KT 7SM 32/23 A2974 RMK SLP075 T03240231 4////0256 57022 IEM_DS3505
ZGGG,1985-09-17 07:00,ZGGG 170700Z AUTO 34010KT 7SM 33/24 A2971 RMK T03300240 IEM_DS3505
ZGGG,1985-09-17 08:00,ZGGG 170800Z AUTO 34014KT 6SM 32/23 A2968 RMK T03200230 IEM_DS3505
ZGGG,1985-09-17 09:00,ZGGG 170900Z AUTO 36006KT 7SM 32/23 A2968 RMK SLP062 T03210226 57013 IEM_DS3505
ZGGG,1985-09-17 11:00,ZGGG 171100Z AUTO 03004KT 6SM 30/24 A2971 RMK T03000240 IEM_DS3505
ZGGG,1985-09-17 12:00,ZGGG 171200Z AUTO 02006KT 7SM 30/23 RMK SLP078 T02980231 52016 IEM_DS3505
ZGGG,1985-09-17 15:00,ZGGG 171500Z AUTO 36006KT 7SM 27/22 RMK SLP087 T02740222 52009 IEM_DS3505
ZGGG,1985-09-17 18:00,ZGGG 171800Z AUTO 36006KT 6SM 26/22 RMK SLP088 T02590217 40332//// 52001 IEM_DS3505
ZGGG,1985-09-17 21:00,ZGGG 172100Z AUTO 36004KT 7SM 25/20 RMK SLP081 T02480203 57007 IEM_DS3505
ZGGG,1985-09-18 00:00,ZGGG 180000Z AUTO 00000KT 9SM 25/20 RMK SLP094 T02500199 52013 IEM_DS3505
ZGGG,1985-09-18 03:00,ZGGG 180300Z AUTO 32006KT 8SM 27/20 RMK SLP103 T02680204 52009 IEM_DS3505
ZGGG,1985-09-18 06:00,ZGGG 180600Z AUTO 07004KT 4SM 27/22 RMK 60001 SLP091 T02690223 4////0240 57012 IEM_DS3505
ZGGG,1985-09-18 09:00,ZGGG 180900Z AUTO 00000KT 5SM 26/24 RMK SLP083 T02610239 57008 IEM_DS3505
ZGGG,1985-09-18 12:00,ZGGG 181200Z AUTO 04002KT 6SM 26/24 RMK 60012 SLP089 T02600237 52006 IEM_DS3505
ZGGG,1985-09-18 15:00,ZGGG 181500Z AUTO 36004KT 7SM 25/23 RMK SLP098 T02500233 52009 IEM_DS3505
ZGGG,1985-09-18 18:00,ZGGG 181800Z AUTO 34004KT 7SM 25/23 RMK SLP094 T02470229 40281//// 57004 IEM_DS3505
ZGGG,1985-09-18 21:00,ZGGG 182100Z AUTO 00000KT 7SM 24/22 RMK SLP099 T02450225 52005 IEM_DS3505
ZGGG,1985-09-19 00:00,ZGGG 190000Z AUTO 36004KT 7SM 25/22 RMK SLP113 T02540223 52014 IEM_DS3505
ZGGG,1985-09-19 03:00,ZGGG 190300Z AUTO 36004KT 8SM 29/23 RMK SLP111 T02880232 57002 IEM_DS3505
ZGGG,1985-09-19 06:00,ZGGG 190600Z AUTO 36006KT 10SM 29/24 RMK SLP092 T02940238 4////0240 57019 IEM_DS3505
ZGGG,1985-09-19 09:00,ZGGG 190900Z AUTO 00000KT 7SM 24/23 RMK SLP100 T02440233 52008 IEM_DS3505
ZGGG,1985-09-19 12:00,ZGGG 191200Z AUTO 00000KT 7SM 25/24 RMK 60043 SLP109 T02520241 52009 IEM_DS3505
ZGGG,1985-09-19 15:00,ZGGG 191500Z AUTO 00000KT 7SM 24/23 RMK SLP115 T02450233 52006 IEM_DS3505
ZGGG,1985-09-19 18:00,ZGGG 191800Z AUTO 02002KT 7SM 25/23 RMK SLP103 T02460226 40312//// 57012 IEM_DS3505
ZGGG,1985-09-19 21:00,ZGGG 192100Z AUTO 00000KT 7SM 24/22 RMK SLP106 T02410224 52003 IEM_DS3505
ZGGG,1985-09-20 00:00,ZGGG 200000Z AUTO 02004KT 9SM 26/23 RMK SLP114 T02640229 52008 IEM_DS3505
ZGGG,1985-09-20 03:00,ZGGG 200300Z AUTO 07006KT 10SM 30/23 RMK SLP119 T02950227 52005 IEM_DS3505
ZGGG,1985-09-20 06:00,ZGGG 200600Z AUTO 09010KT 9SM 30/23 RMK SLP100 T03010233 4////0237 57019 IEM_DS3505
ZGGG,1985-09-20 09:00,ZGGG 200900Z AUTO 07006KT 9SM 27/24 RMK SLP096 T02700236 57004 IEM_DS3505
ZGGG,1985-09-20 12:00,ZGGG 201200Z AUTO 00000KT 7SM 26/24 RMK 60020 SLP113 T02590236 52017 IEM_DS3505
ZGGG,1985-09-20 15:00,ZGGG 201500Z AUTO 00000KT 7SM 25/23 RMK SLP121 T02480233 52008 IEM_DS3505
ZGGG,1985-09-20 17:00,ZGGG 201700Z AUTO 00000KT 7SM 25/23 RMK SLP119 T02470230 57002 IEM_DS3505
ZGGG,1985-09-20 18:00,ZGGG 201800Z AUTO 00000KT 7SM 25/23 RMK SLP119 T02470230 57002 IEM_DS3505
ZGGG,1985-09-20 21:00,ZGGG 202100Z AUTO 00000KT 6SM 25/23 RMK SLP117 T02470233 57002 IEM_DS3505
ZGGG,1985-09-21 00:00,ZGGG 210000Z AUTO 07004KT 7SM 25/23 RMK 60008 SLP125 T02530234 52008 IEM_DS3505
ZGGG,1985-09-21 03:00,ZGGG 210300Z AUTO 07008KT 7SM 27/23 A3015 RMK SLP131 T02740228 52006 IEM_DS3505
ZGGG,1985-09-21 04:00,ZGGG 210400Z AUTO 06010KT 7SM 28/23 A2988 RMK T02800230 IEM_DS3505
ZGGG,1985-09-21 06:00,ZGGG 210600Z AUTO 11006KT 9SM 29/24 A2983 RMK SLP111 T02940238 4////0239 57020 IEM_DS3505
ZGGG,1985-09-21 09:00,ZGGG 210900Z AUTO 09006KT 7SM 26/24 A2980 RMK SLP106 T02560240 57005 IEM_DS3505
ZGGG,1985-09-21 11:00,ZGGG 211100Z AUTO 06004KT 6SM 25/23 A2985 RMK T02500230 IEM_DS3505
ZGGG,1985-09-21 12:00,ZGGG 211200Z AUTO 00000KT 7SM 25/23 A2985 RMK 60008 SLP125 T02530234 52019 IEM_DS3505
ZGGG,1985-09-21 15:00,ZGGG 211500Z AUTO 09002KT 6SM 25/23 RMK SLP133 T02480233 52008 IEM_DS3505
ZGGG,1985-09-21 18:00,ZGGG 211800Z AUTO 04004KT 6SM 24/23 RMK 60004 SLP124 T02450230 57009 IEM_DS3505
ZGGG,1985-09-21 21:00,ZGGG 212100Z AUTO 00000KT 4SM RMK SLP122 57002 IEM_DS3505
ZGGG,1985-09-22 00:00,ZGGG 220000Z AUTO 07002KT 9SM 25/24 RMK 60031 SLP136 T02460235 52014 IEM_DS3505
ZGGG,1985-09-22 03:00,ZGGG 220300Z AUTO 11006KT 10SM 28/24 RMK SLP139 T02800235 52003 IEM_DS3505
ZGGG,1985-09-22 06:00,ZGGG 220600Z AUTO 07002KT 7SM 28/25 RMK 60012 SLP112 T02810253 4////0237 57027 IEM_DS3505
ZGGG,1985-09-22 09:00,ZGGG 220900Z AUTO 09004KT 7SM 28/25 RMK SLP102 T02830249 57010 IEM_DS3505
ZGGG,1985-09-22 12:00,ZGGG 221200Z AUTO 11004KT 6SM 27/24 RMK 60000 SLP113 T02680242 52011 IEM_DS3505
ZGGG,1985-09-22 15:00,ZGGG 221500Z AUTO 09006KT 6SM 26/23 RMK SLP119 T02620232 52006 IEM_DS3505
ZGGG,1985-09-22 18:00,ZGGG 221800Z AUTO 11004KT 5SM 26/24 RMK SLP115 T02580237 40292//// 57004 IEM_DS3505
ZGGG,1985-09-22 21:00,ZGGG 222100Z AUTO 09004KT 5SM 25/24 RMK SLP102 T02500240 57013 IEM_DS3505
ZGGG,1985-09-23 00:00,ZGGG 230000Z AUTO 09006KT 7SM 26/24 RMK 60043 SLP114 T02600242 52012 IEM_DS3505
ZGGG,1985-09-23 03:00,ZGGG 230300Z AUTO 16006KT 7SM 27/25 RMK SLP116 T02740250 52002 IEM_DS3505
ZGGG,1985-09-23 06:00,ZGGG 230600Z AUTO 16008KT 9SM 28/25 RMK 60000 SLP089 T02820248 4////0246 57027 IEM_DS3505
ZGGG,1985-09-23 09:00,ZGGG 230900Z AUTO 18006KT 9SM 28/24 RMK SLP086 T02770244 57003 IEM_DS3505
ZGGG,1985-09-23 12:00,ZGGG 231200Z AUTO 16006KT 7SM 26/25 RMK 60001 SLP099 T02650246 52013 IEM_DS3505
ZGGG,1985-09-23 15:00,ZGGG 231500Z AUTO 29004KT 6SM 23/22 RMK SLP122 T02280218 52023 IEM_DS3505
ZGGG,1985-09-23 18:00,ZGGG 231800Z AUTO 32006KT 6SM 22/20 RMK 60012 SLP120 T02200200 40293//// 57002 IEM_DS3505
ZGGG,1985-09-23 21:00,ZGGG 232100Z AUTO 29004KT 7SM 21/18 RMK SLP121 T02090184 52001 IEM_DS3505
ZGGG,1985-09-24 00:00,ZGGG 240000Z AUTO 32004KT 9SM 22/18 RMK SLP137 T02160185 52016 IEM_DS3505
ZGGG,1985-09-24 03:00,ZGGG 240300Z AUTO 04006KT 9SM 25/20 RMK SLP140 T02480200 52003 IEM_DS3505
ZGGG,1985-09-24 06:00,ZGGG 240600Z AUTO 34004KT 10SM 26/20 RMK SLP125 T02590205 4////0206 57015 IEM_DS3505
ZGGG,1985-09-24 09:00,ZGGG 240900Z AUTO 02006KT 9SM 26/20 RMK SLP128 T02570198 52003 IEM_DS3505
ZGGG,1985-09-24 12:00,ZGGG 241200Z AUTO 02006KT 9SM 24/19 RMK SLP139 T02420192 52011 IEM_DS3505
ZGGG,1985-09-24 15:00,ZGGG 241500Z AUTO 04004KT 7SM 24/18 RMK SLP144 T02370176 52005 IEM_DS3505
ZGGG,1985-09-24 18:00,ZGGG 241800Z AUTO 02004KT 7SM 23/18 RMK SLP146 T02280177 40265//// 52002 IEM_DS3505
ZGGG,1985-09-24 21:00,ZGGG 242100Z AUTO 02004KT 7SM 22/18 RMK SLP144 T02220177 57002 IEM_DS3505
ZGGG,1985-09-25 00:00,ZGGG 250000Z AUTO 02004KT 9SM 23/18 RMK SLP162 T02260183 52018 IEM_DS3505
ZGGG,1985-09-25 03:00,ZGGG 250300Z AUTO 02006KT 9SM 24/18 RMK SLP169 T02400184 52007 IEM_DS3505
ZGGG,1985-09-25 06:00,ZGGG 250600Z AUTO 36006KT 9SM 22/19 RMK 60002 SLP154 T02180192 4////0216 57015 IEM_DS3505
ZGGG,1985-09-25 09:00,ZGGG 250900Z AUTO 36006KT 9SM 23/20 RMK SLP145 T02300197 57009 IEM_DS3505
ZGGG,1985-09-25 12:00,ZGGG 251200Z AUTO 32006KT 7SM 23/19 RMK SLP160 T02270192 52015 IEM_DS3505
ZGGG,1985-09-25 15:00,ZGGG 251500Z AUTO 00000KT 7SM 23/19 RMK SLP168 T02270189 52008 IEM_DS3505
ZGGG,1985-09-25 18:00,ZGGG 251800Z AUTO 36004KT 7SM 22/19 RMK SLP156 T02240187 40248//// 57012 IEM_DS3505
ZGGG,1985-09-25 21:00,ZGGG 252100Z AUTO 34004KT 6SM 22/18 RMK SLP155 T02190185 57011 IEM_DS3505
ZGGG,1985-09-26 00:00,ZGGG 260000Z AUTO 36004KT 6SM 22/18 RMK SLP167 T02230184 52012 IEM_DS3505
ZGGG,1985-09-26 03:00,ZGGG 260300Z AUTO 02006KT 7SM 26/20 RMK SLP162 T02640201 57005 IEM_DS3505
ZGGG,1985-09-26 06:00,ZGGG 260600Z AUTO 34004KT 9SM 29/22 RMK SLP134 T02890215 4////0217 57028 IEM_DS3505
ZGGG,1985-09-26 09:00,ZGGG 260900Z AUTO 34002KT 9SM 28/22 RMK SLP122 T02760217 57012 IEM_DS3505
ZGGG,1985-09-26 12:00,ZGGG 261200Z AUTO 36004KT 7SM 26/22 RMK 60001 SLP131 T02630215 52009 IEM_DS3505
ZGGG,1985-09-26 15:00,ZGGG 261500Z AUTO 36004KT 7SM 25/21 RMK SLP140 T02500207 52009 IEM_DS3505
ZGGG,1985-09-26 18:00,ZGGG 261800Z AUTO 02004KT 7SM 24/20 RMK SLP130 T02400196 40294//// 57010 IEM_DS3505
ZGGG,1985-09-26 21:00,ZGGG 262100Z AUTO 36004KT 6SM 23/19 RMK SLP124 T02320189 57006 IEM_DS3505
ZGGG,1985-09-27 00:00,ZGGG 270000Z AUTO 02010KT 7SM 24/19 RMK SLP136 T02400192 52012 IEM_DS3505
ZGGG,1985-09-27 03:00,ZGGG 270300Z AUTO 32006KT 9SM 28/20 RMK SLP132 T02770201 57004 IEM_DS3505
ZGGG,1985-09-27 06:00,ZGGG 270600Z AUTO 34006KT 10SM 30/20 RMK SLP108 T03040200 4////0225 57024 IEM_DS3505
ZGGG,1985-09-27 09:00,ZGGG 270900Z AUTO 34004KT 9SM 30/21 RMK SLP099 T03020211 57009 IEM_DS3505
ZGGG,1985-09-27 12:00,ZGGG 271200Z AUTO 02004KT 7SM 27/21 RMK SLP108 T02670210 52009 IEM_DS3505
ZGGG,1985-09-27 15:00,ZGGG 271500Z AUTO 02004KT 7SM 26/18 RMK SLP123 T02620184 52015 IEM_DS3505
ZGGG,1985-09-27 18:00,ZGGG 271800Z AUTO 36004KT 7SM 25/18 RMK SLP113 T02490176 40310//// 57010 IEM_DS3505
ZGGG,1985-09-27 21:00,ZGGG 272100Z AUTO 36004KT 7SM 24/17 RMK SLP105 T02400166 57008 IEM_DS3505
ZGGG,1985-09-28 00:00,ZGGG 280000Z AUTO 36004KT 7SM 24/17 RMK SLP121 T02400172 52016 IEM_DS3505
ZGGG,1985-09-28 02:00,ZGGG 280200Z AUTO 01012KT 6SM 25/18 A2988 RMK T02500180 IEM_DS3505
ZGGG,1985-09-28 03:00,ZGGG 280300Z AUTO 36004KT 9SM 26/18 A2988 RMK SLP127 T02600175 52006 IEM_DS3505
ZGGG,1985-09-28 05:00,ZGGG 280500Z AUTO 03012KT 6SM 26/18 A2985 RMK T02600180 IEM_DS3505
ZGGG,1985-09-28 06:00,ZGGG 280600Z AUTO 07008KT 8SM 27/17 A2983 RMK SLP111 T02730173 4////0232 57016 IEM_DS3505
ZGGG,1985-09-28 09:00,ZGGG 280900Z AUTO 36006KT 6SM 22/19 RMK SLP115 T02210192 52004 IEM_DS3505
ZGGG,1985-09-28 15:00,ZGGG 281500Z AUTO 36002KT 7SM 22/19 RMK SLP132 T02250188 52009 IEM_DS3505
ZGGG,1985-09-28 18:00,ZGGG 281800Z AUTO 36004KT 5SM 22/19 RMK SLP128 T02250187 40275//// 57004 IEM_DS3505
ZGGG,1985-09-28 21:00,ZGGG 282100Z AUTO 34006KT 2 1/2SM 21/20 RMK SLP124 T02090196 57004 IEM_DS3505
ZGGG,1985-09-29 00:00,ZGGG 290000Z AUTO 36006KT 7SM 22/19 RMK 60012 SLP136 T02160194 52012 IEM_DS3505
ZGGG,1985-09-29 03:00,ZGGG 290300Z AUTO 7SM 22/19 RMK 60008 SLP136 T02160194 52012 IEM_DS3505
ZGGG,1985-09-29 06:00,ZGGG 290600Z AUTO 04004KT 9SM 28/21 RMK SLP125 T02760213 4////0205 57019 IEM_DS3505
ZGGG,1985-09-29 09:00,ZGGG 290900Z AUTO 36004KT 7SM 25/21 RMK SLP122 T02480213 57003 IEM_DS3505
ZGGG,1985-09-29 12:00,ZGGG 291200Z AUTO 02006KT 7SM 24/21 RMK 60001 SLP138 T02420206 52016 IEM_DS3505
ZGGG,1985-09-29 15:00,ZGGG 291500Z AUTO 02006KT 7SM 24/20 RMK SLP145 T02350202 52007 IEM_DS3505
ZGGG,1985-09-29 18:00,ZGGG 291800Z AUTO 04002KT 6SM 23/20 RMK 60001 SLP144 T02300200 40283//// 57001 IEM_DS3505
ZGGG,1985-09-29 21:00,ZGGG 292100Z AUTO 36002KT 7SM 22/20 RMK SLP139 T02190203 57005 IEM_DS3505
ZGGG,1985-09-30 00:00,ZGGG 300000Z AUTO 36002KT 7SM 23/20 RMK 60016 SLP158 T02290202 52019 IEM_DS3505
ZGGG,1985-09-30 03:00,ZGGG 300300Z AUTO 07002KT 9SM 25/21 RMK SLP162 T02520208 52004 IEM_DS3505
ZGGG,1985-09-30 06:00,ZGGG 300600Z AUTO 36002KT 9SM 26/21 RMK SLP144 T02640209 4////0213 57018 IEM_DS3505
ZGGG,1985-09-30 09:00,ZGGG 300900Z AUTO 02002KT 9SM 26/22 RMK SLP139 T02630218 57005 IEM_DS3505
ZGGG,1985-09-30 12:00,ZGGG 301200Z AUTO 00000KT 7SM 25/22 RMK SLP152 T02500223 52013 IEM_DS3505
ZGGG,1985-09-30 15:00,ZGGG 301500Z AUTO 36004KT 7SM 24/21 RMK SLP167 T02450211 52015 IEM_DS3505
ZGGG,1985-09-30 18:00,ZGGG 301800Z AUTO 02006KT 6SM 24/20 RMK SLP157 T02420197 40274//// 57010 IEM_DS3505
ZGGG,1985-09-30 20:00,ZGGG 302000Z AUTO 33004KT 6SM 23/21 A2997 RMK T02300210 IEM_DS3505
ZGGG,1985-09-30 21:00,ZGGG 302100Z AUTO 34006KT 6SM 24/18 RMK SLP158 T02430184 52001 IEM_DS3505
ZGGG,1985-09-30 23:00,ZGGG 302300Z AUTO 01008KT 6SM 22/20 A3000 RMK T02200200 IEM_DS3505
ZGGG,1985-10-01 00:00,ZGGG 010000Z AUTO 36006KT 9SM 25/18 RMK SLP170 T02460176 52012 IEM_DS3505
ZGGG,1985-10-01 01:00,ZGGG 010100Z AUTO 02008KT 6SM 25/18 A3003 RMK T02500180 IEM_DS3505
ZGGG,1985-10-01 03:00,ZGGG 010300Z AUTO 07006KT 9SM 28/17 RMK SLP176 T02840169 52006 IEM_DS3505
ZGGG,1985-10-01 04:00,ZGGG 010400Z AUTO 36010KT 6SM 29/16 A3003 RMK T02900160 IEM_DS3505
ZGGG,1985-10-01 05:00,ZGGG 010500Z AUTO 36014KT 6SM 29/ A3006 RMK IEM_DS3505
ZGGG,1985-10-01 06:00,ZGGG 010600Z AUTO 36006KT 11SM 30/17 A2997 RMK SLP152 T03000169 4////0235 57024 IEM_DS3505
ZGGG,1985-10-01 07:00,ZGGG 010700Z AUTO 36014KT 6SM 30/16 A2994 RMK T03000160 IEM_DS3505
ZGGG,1985-10-01 08:00,ZGGG 010800Z AUTO 01014KT 6SM 30/16 A2994 RMK T03000160 IEM_DS3505
ZGGG,1985-10-01 09:00,ZGGG 010900Z AUTO 36012KT 9SM 29/16 A2994 RMK SLP145 T02940160 57007 IEM_DS3505
ZGGG,1985-10-01 10:00,ZGGG 011000Z AUTO 03006KT 6SM RMK IEM_DS3505
ZGGG,1985-10-01 11:00,ZGGG 011100Z AUTO 36004KT 7SM 26/18 A2997 RMK T02600180 IEM_DS3505
ZGGG,1985-10-01 12:00,ZGGG 011200Z AUTO 36006KT 7SM 27/10 A3000 RMK SLP166 T02710100 52021 IEM_DS3505
ZGGG,1985-10-01 13:00,ZGGG 011300Z AUTO 02004KT 6SM 23/16 A3003 RMK T02300160 IEM_DS3505
ZGGG,1985-10-01 15:00,ZGGG 011500Z AUTO 02006KT 8SM 24/09 RMK SLP179 T02430089 52013 IEM_DS3505
ZGGG,1985-10-01 18:00,ZGGG 011800Z AUTO 36006KT 7SM 22/09 RMK SLP176 T02200086 40301//// 57003 IEM_DS3505
ZGGG,1985-10-01 21:00,ZGGG 012100Z AUTO 36008KT 8SM 21/07 RMK SLP174 T02110066 52002 IEM_DS3505
ZGGG,1985-10-02 00:00,ZGGG 020000Z AUTO 04006KT 12SM 22/07 RMK SLP195 T02180066 52021 IEM_DS3505
ZGGG,1985-10-02 03:00,ZGGG 020300Z AUTO 36006KT 9SM 26/12 RMK SLP191 T02560120 57004 IEM_DS3505
ZGGG,1985-10-02 06:00,ZGGG 020600Z AUTO 36004KT 11SM 27/13 RMK SLP162 T02740132 4////0204 57029 IEM_DS3505
ZGGG,1985-10-02 09:00,ZGGG 020900Z AUTO 36004KT 10SM 27/13 RMK SLP150 T02730126 57012 IEM_DS3505
ZGGG,1985-10-02 12:00,ZGGG 021200Z AUTO 36002KT 9SM 23/11 RMK SLP159 T02330110 52009 IEM_DS3505
ZGGG,1985-10-02 15:00,ZGGG 021500Z AUTO 14004KT 7SM 21/12 RMK SLP168 T02110116 52009 IEM_DS3505
ZGGG,1985-10-02 18:00,ZGGG 021800Z AUTO 02004KT 7SM 20/10 RMK SLP153 T02020095 40280//// 57015 IEM_DS3505
ZGGG,1985-10-02 21:00,ZGGG 022100Z AUTO 02006KT 7SM 20/08 RMK SLP143 T02000079 57010 IEM_DS3505
ZGGG,1985-10-03 00:00,ZGGG 030000Z AUTO 36008KT 9SM 21/08 RMK SLP150 T02060080 52007 IEM_DS3505
ZGGG,1985-10-03 03:00,ZGGG 030300Z AUTO 36012KT 10SM 25/09 RMK SLP145 T02530087 57005 IEM_DS3505
ZGGG,1985-10-03 06:00,ZGGG 030600Z AUTO 02010KT 12SM 27/08 RMK SLP116 T02700082 4////0191 57029 IEM_DS3505
ZGGG,1985-10-03 09:00,ZGGG 030900Z AUTO 34006KT 12SM 28/08 RMK SLP104 T02770083 57012 IEM_DS3505
ZGGG,1985-10-03 12:00,ZGGG 031200Z AUTO 04004KT 9SM 23/11 RMK SLP106 T02270113 52002 IEM_DS3505
ZGGG,1985-10-03 15:00,ZGGG 031500Z AUTO 36002KT 9SM 22/10 RMK SLP111 T02150105 52005 IEM_DS3505
ZGGG,1985-10-03 18:00,ZGGG 031800Z AUTO 36004KT 9SM 20/11 RMK SLP105 T01960106 40280//// 57006 IEM_DS3505
ZGGG,1985-10-03 21:00,ZGGG 032100Z AUTO 00000KT 9SM 17/11 RMK SLP097 T01690113 57008 IEM_DS3505
ZGGG,1985-10-04 00:00,ZGGG 040000Z AUTO 04004KT 7SM 21/11 RMK SLP109 T02090106 52012 IEM_DS3505
ZGGG,1985-10-04 03:00,ZGGG 040300Z AUTO 36008KT 9SM 25/09 RMK SLP104 T02530089 57005 IEM_DS3505
ZGGG,1985-10-04 06:00,ZGGG 040600Z AUTO 02006KT 12SM 28/08 RMK SLP076 T02800080 4////0155 57028 IEM_DS3505
ZGGG,1985-10-04 09:00,ZGGG 040900Z AUTO 36008KT 12SM 28/07 RMK SLP075 T02820073 57001 IEM_DS3505
ZGGG,1985-10-04 12:00,ZGGG 041200Z AUTO 00000KT 6SM 22/12 RMK SLP094 T02230119 52019 IEM_DS3505
ZGGG,1985-10-04 15:00,ZGGG 041500Z AUTO 00000KT 6SM 19/14 RMK SLP114 T01910136 52020 IEM_DS3505
ZGGG,1985-10-04 18:00,ZGGG 041800Z AUTO 36002KT 6SM 20/10 RMK SLP113 T01970103 40288//// 57001 IEM_DS3505
ZGGG,1985-10-04 21:00,ZGGG 042100Z AUTO 36004KT 6SM 19/09 RMK SLP119 T01860089 52006 IEM_DS3505
ZGGG,1985-10-05 00:00,ZGGG 050000Z AUTO 34006KT 9SM 21/10 RMK SLP133 T02070103 52014 IEM_DS3505
ZGGG,1985-10-05 02:00,ZGGG 050200Z AUTO 03006KT 7SM 21/14 A2991 RMK T02100140 IEM_DS3505
ZGGG,1985-10-05 03:00,ZGGG 050300Z AUTO 02008KT 7SM 26/10 A2994 RMK SLP141 T02650102 52008 IEM_DS3505
ZGGG,1985-10-05 04:00,ZGGG 050400Z AUTO 36016KT 7SM 27/12 A2991 RMK T02700120 IEM_DS3505
ZGGG,1985-10-05 05:00,ZGGG 050500Z AUTO 35016KT 7SM 28/11 A2994 RMK T02800110 IEM_DS3505
ZGGG,1985-10-05 06:00,ZGGG 050600Z AUTO 02006KT 12SM 29/12 A2985 RMK SLP116 T02880116 4////0171 57025 IEM_DS3505
ZGGG,1985-10-05 07:00,ZGGG 050700Z AUTO 36012KT 7SM 29/13 A2985 RMK T02900130 IEM_DS3505
ZGGG,1985-10-05 08:00,ZGGG 050800Z AUTO 02010KT 7SM 29/13 A2985 RMK T02900130 IEM_DS3505
ZGGG,1985-10-05 09:00,ZGGG 050900Z AUTO 36004KT 11SM 29/11 RMK SLP118 T02860108 52002 IEM_DS3505
ZGGG,1985-10-05 10:00,ZGGG 051000Z AUTO 00000KT 7SM 25/17 A2988 RMK T02500170 IEM_DS3505
ZGGG,1985-10-05 11:00,ZGGG 051100Z AUTO 00000KT 7SM 21/15 A2988 RMK T02100150 IEM_DS3505
ZGGG,1985-10-05 12:00,ZGGG 051200Z AUTO 36004KT 7SM 23/14 A2991 RMK SLP128 T02300141 52010 IEM_DS3505
ZGGG,1985-10-05 15:00,ZGGG 051500Z AUTO 36002KT 6SM 20/14 RMK SLP148 T01980138 52020 IEM_DS3505
ZGGG,1985-10-05 18:00,ZGGG 051800Z AUTO 02004KT 6SM 20/12 RMK SLP144 T02050119 40292//// 57004 IEM_DS3505
ZGGG,1985-10-05 21:00,ZGGG 052100Z AUTO 36004KT 6SM 21/10 RMK SLP151 T02070099 52007 IEM_DS3505
ZGGG,1985-10-06 00:00,ZGGG 060000Z AUTO 02008KT 9SM 21/12 RMK SLP170 T02140116 52019 IEM_DS3505
ZGGG,1985-10-06 03:00,ZGGG 060300Z AUTO 34004KT 12SM 26/14 RMK SLP169 T02600143 57001 IEM_DS3505
ZGGG,1985-10-06 06:00,ZGGG 060600Z AUTO 00000KT 9SM 28/15 RMK SLP142 T02840153 4////0194 57027 IEM_DS3505
ZGGG,1985-10-06 09:00,ZGGG 060900Z AUTO 04002KT 7SM 28/17 RMK SLP130 T02820169 57012 IEM_DS3505
ZGGG,1985-10-06 12:00,ZGGG 061200Z AUTO 14002KT 7SM 24/18 RMK SLP142 T02400185 52012 IEM_DS3505
ZGGG,1985-10-06 15:00,ZGGG 061500Z AUTO 09002KT 6SM 23/19 RMK SLP150 T02280194 52008 IEM_DS3505
ZGGG,1985-10-06 18:00,ZGGG 061800Z AUTO 00000KT 5SM 22/19 RMK SLP140 T02170194 40293//// 57010 IEM_DS3505
ZGGG,1985-10-06 21:00,ZGGG 062100Z AUTO 00000KT 5SM 21/20 RMK SLP140 T02130200 54000 IEM_DS3505
ZGGG,1985-10-07 00:00,ZGGG 070000Z AUTO 04004KT 6SM 24/21 RMK SLP154 T02400207 52014 IEM_DS3505
ZGGG,1985-10-07 03:00,ZGGG 070300Z AUTO 11006KT 9SM 28/20 RMK SLP153 T02800205 57001 IEM_DS3505
ZGGG,1985-10-07 06:00,ZGGG 070600Z AUTO 11004KT 8SM 30/20 RMK SLP133 T02960199 4////0211 57022 IEM_DS3505
ZGGG,1985-10-07 09:00,ZGGG 070900Z AUTO 14004KT 9SM 30/20 RMK SLP119 T02990201 57012 IEM_DS3505
ZGGG,1985-10-07 12:00,ZGGG 071200Z AUTO 18004KT 5SM 26/21 RMK SLP136 T02630214 52017 IEM_DS3505
ZGGG,1985-10-07 15:00,ZGGG 071500Z AUTO 00000KT 5SM 25/20 RMK SLP144 T02480199 52008 IEM_DS3505
ZGGG,1985-10-07 18:00,ZGGG 071800Z AUTO 09004KT 5SM 24/20 RMK SLP134 T02380203 40301//// 57010 IEM_DS3505
ZGGG,1985-10-07 21:00,ZGGG 072100Z AUTO 00000KT 5SM 23/20 RMK SLP134 T02320202 54000 IEM_DS3505
ZGGG,1985-10-08 00:00,ZGGG 080000Z AUTO 36002KT 5SM 24/20 A2994 RMK SLP159 T02410204 52025 IEM_DS3505
ZGGG,1985-10-08 03:00,ZGGG 080300Z AUTO 00000KT 4SM 24/22 RMK SLP167 T02450217 52008 IEM_DS3505
ZGGG,1985-10-08 04:00,ZGGG 080400Z AUTO 00000KT 7SM 26/22 A3000 RMK T02600220 IEM_DS3505
ZGGG,1985-10-08 05:00,ZGGG 080500Z AUTO 05002KT 7SM 27/22 A2997 RMK T02700220 IEM_DS3505
ZGGG,1985-10-08 06:00,ZGGG 080600Z AUTO 00000KT 7SM 29/22 A2994 RMK 60002 SLP142 T02870220 4////0231 57025 IEM_DS3505
ZGGG,1985-10-08 07:00,ZGGG 080700Z AUTO 33002KT 7SM 29/23 A2991 RMK T02900230 IEM_DS3505
ZGGG,1985-10-08 08:00,ZGGG 080800Z AUTO 32006KT 7SM 28/23 A2988 RMK T02800230 IEM_DS3505
ZGGG,1985-10-08 09:00,ZGGG 080900Z AUTO 16004KT 7SM 28/23 A2988 RMK SLP134 T02830231 57008 IEM_DS3505
ZGGG,1985-10-08 12:00,ZGGG 081200Z AUTO 00000KT 6SM 26/23 RMK SLP145 T02610232 52011 IEM_DS3505
ZGGG,1985-10-08 15:00,ZGGG 081500Z AUTO 00000KT 4SM 26/23 RMK SLP157 T02570234 52012 IEM_DS3505
ZGGG,1985-10-08 18:00,ZGGG 081800Z AUTO 04002KT 4SM 25/23 RMK SLP151 T02510232 40293//// 57006 IEM_DS3505
ZGGG,1985-10-08 21:00,ZGGG 082100Z AUTO 00000KT 4SM 24/22 RMK SLP148 T02380225 57003 IEM_DS3505
ZGGG,1985-10-09 00:00,ZGGG 090000Z AUTO 04002KT 4SM 25/23 RMK SLP169 T02540230 52021 IEM_DS3505
ZGGG,1985-10-09 03:00,ZGGG 090300Z AUTO 16004KT 5SM 29/23 RMK SLP172 T02920230 52003 IEM_DS3505
ZGGG,1985-10-09 06:00,ZGGG 090600Z AUTO 16006KT 9SM 31/22 RMK SLP144 T03060221 4////0233 57028 IEM_DS3505
ZGGG,1985-10-09 09:00,ZGGG 090900Z AUTO 16004KT 9SM 31/22 RMK SLP137 T03060221 57007 IEM_DS3505
ZGGG,1985-10-09 12:00,ZGGG 091200Z AUTO 14004KT 7SM 27/23 RMK SLP148 T02720231 52011 IEM_DS3505
ZGGG,1985-10-09 15:00,ZGGG 091500Z AUTO 00000KT 6SM 26/23 RMK SLP165 T02580232 52017 IEM_DS3505
ZGGG,1985-10-09 18:00,ZGGG 091800Z AUTO 00000KT 5SM 24/23 RMK SLP152 T02410227 40314//// 57013 IEM_DS3505
ZGGG,1985-10-09 21:00,ZGGG 092100Z AUTO 00000KT 5SM 23/22 RMK SLP145 T02330217 57007 IEM_DS3505
ZGGG,1985-10-10 00:00,ZGGG 100000Z AUTO 00000KT 6SM 25/22 RMK SLP159 T02510222 52014 IEM_DS3505
ZGGG,1985-10-10 03:00,ZGGG 100300Z AUTO 16004KT 7SM 30/22 RMK SLP163 T03040222 52004 IEM_DS3505
ZGGG,1985-10-10 06:00,ZGGG 100600Z AUTO 20004KT 9SM 30/22 RMK SLP135 T03040215 4////0225 57028 IEM_DS3505
ZGGG,1985-10-10 09:00,ZGGG 100900Z AUTO 16004KT 9SM 30/22 RMK SLP127 T03000215 57008 IEM_DS3505
ZGGG,1985-10-10 12:00,ZGGG 101200Z AUTO 00000KT 6SM 28/23 RMK SLP128 T02760232 52001 IEM_DS3505
ZGGG,1985-10-10 15:00,ZGGG 101500Z AUTO 00000KT 5SM 26/23 RMK SLP143 T02600232 52015 IEM_DS3505
ZGGG,1985-10-10 18:00,ZGGG 101800Z AUTO 00000KT 4SM 26/24 RMK SLP138 T02570235 40318//// 57005 IEM_DS3505
ZGGG,1985-10-10 21:00,ZGGG 102100Z AUTO 00000KT 4SM 24/23 RMK SLP132 T02410227 57006 IEM_DS3505
ZGGG,1985-10-11 00:00,ZGGG 110000Z AUTO 09004KT 5SM 26/23 RMK SLP150 T02650226 52018 IEM_DS3505
ZGGG,1985-10-11 03:00,ZGGG 110300Z AUTO 11008KT 7SM 29/22 RMK SLP153 T02930215 52003 IEM_DS3505
ZGGG,1985-10-11 06:00,ZGGG 110600Z AUTO 11006KT 12SM 31/22 RMK SLP130 T03120219 4////0236 57023 IEM_DS3505
ZGGG,1985-10-11 09:00,ZGGG 110900Z AUTO 14004KT 9SM 30/23 RMK SLP128 T03020229 57002 IEM_DS3505
ZGGG,1985-10-11 12:00,ZGGG 111200Z AUTO 16004KT 6SM 28/24 RMK SLP138 T02760241 52010 IEM_DS3505
ZGGG,1985-10-11 15:00,ZGGG 111500Z AUTO 09004KT 6SM 26/23 RMK SLP155 T02600232 52017 IEM_DS3505
ZGGG,1985-10-11 18:00,ZGGG 111800Z AUTO 07004KT 6SM 25/22 RMK SLP152 T02470225 40316//// 57003 IEM_DS3505
ZGGG,1985-10-11 21:00,ZGGG 112100Z AUTO 00000KT 7SM 23/22 RMK SLP154 T02320218 52002 IEM_DS3505
ZGGG,1985-10-12 00:00,ZGGG 120000Z AUTO 07002KT 8SM 26/22 A3000 RMK SLP169 T02630218 52015 IEM_DS3505
ZGGG,1985-10-12 01:00,ZGGG 120100Z AUTO 33004KT 6SM 26/23 A3003 RMK T02600230 IEM_DS3505
ZGGG,1985-10-12 02:00,ZGGG 120200Z AUTO 05006KT 7SM 28/23 A3003 RMK T02800230 IEM_DS3505
ZGGG,1985-10-12 03:00,ZGGG 120300Z AUTO 14004KT 9SM 30/22 RMK SLP177 T03020223 52008 IEM_DS3505
ZGGG,1985-10-12 04:00,ZGGG 120400Z AUTO 16010KT 7SM 31/22 A3000 RMK T03100220 IEM_DS3505
ZGGG,1985-10-12 05:00,ZGGG 120500Z AUTO 14004KT 7SM 30/22 A2997 RMK T03000220 IEM_DS3505
ZGGG,1985-10-12 06:00,ZGGG 120600Z AUTO 18004KT 5SM 31/22 A2994 RMK SLP146 T03110215 4////0230 57031 IEM_DS3505
ZGGG,1985-10-12 07:00,ZGGG 120700Z AUTO 32006KT 7SM 30/23 A2991 RMK T03000230 IEM_DS3505
ZGGG,1985-10-12 09:00,ZGGG 120900Z AUTO 32004KT 4SM 30/23 A2991 RMK SLP132 T03010231 57014 IEM_DS3505
ZGGG,1985-10-12 10:00,ZGGG 121000Z AUTO 34004KT 7SM 29/23 A2991 RMK T02900230 IEM_DS3505
ZGGG,1985-10-12 12:00,ZGGG 121200Z AUTO 16004KT 6SM 28/23 RMK SLP145 T02800232 52013 IEM_DS3505
ZGGG,1985-10-12 15:00,ZGGG 121500Z AUTO 00000KT 6SM 26/24 RMK SLP155 T02620236 52010 IEM_DS3505
ZGGG,1985-10-12 18:00,ZGGG 121800Z AUTO 00000KT 5SM 25/23 RMK SLP146 T02460231 40320//// 57009 IEM_DS3505
ZGGG,1985-10-12 21:00,ZGGG 122100Z AUTO 00000KT 5SM 23/22 RMK SLP139 T02340224 57007 IEM_DS3505
ZGGG,1985-10-13 00:00,ZGGG 130000Z AUTO 00000KT 11SM 26/22 RMK SLP159 T02620223 52020 IEM_DS3505
ZGGG,1985-10-13 03:00,ZGGG 130300Z AUTO 07004KT 12SM 30/22 RMK SLP155 T02980219 57004 IEM_DS3505
ZGGG,1985-10-13 06:00,ZGGG 130600Z AUTO 11004KT 10SM 32/22 RMK SLP121 T03230218 4////0227 57034 IEM_DS3505
ZGGG,1985-10-13 09:00,ZGGG 130900Z AUTO 20002KT 9SM 31/22 RMK SLP106 T03120217 57015 IEM_DS3505
ZGGG,1985-10-13 15:00,ZGGG 131500Z AUTO 00000KT 6SM 27/23 RMK SLP134 T02660230 52013 IEM_DS3505
ZGGG,1985-10-13 18:00,ZGGG 131800Z AUTO 00000KT 6SM 25/23 RMK SLP123 T02460226 40323//// 57011 IEM_DS3505
ZGGG,1985-10-13 21:00,ZGGG 132100Z AUTO 00000KT 5SM 23/22 RMK SLP116 T02340218 57007 IEM_DS3505
ZGGG,1985-10-14 00:00,ZGGG 140000Z AUTO 00000KT 4SM 26/23 RMK SLP130 T02550230 52014 IEM_DS3505
ZGGG,1985-10-14 03:00,ZGGG 140300Z AUTO 07002KT 5SM 30/22 RMK SLP135 T02950218 52005 IEM_DS3505
ZGGG,1985-10-14 06:00,ZGGG 140600Z AUTO 14002KT 9SM 31/22 RMK SLP107 T03130217 4////0231 57028 IEM_DS3505
ZGGG,1985-10-14 09:00,ZGGG 140900Z AUTO 16004KT 9SM 32/21 RMK SLP098 T03150207 57009 IEM_DS3505
ZGGG,1985-10-14 12:00,ZGGG 141200Z AUTO 16006KT 7SM 28/22 RMK SLP113 T02800224 52015 IEM_DS3505
ZGGG,1985-10-14 15:00,ZGGG 141500Z AUTO 00000KT 6SM 26/23 RMK SLP126 T02560228 52013 IEM_DS3505
ZGGG,1985-10-14 18:00,ZGGG 141800Z AUTO 36002KT 6SM 25/23 RMK SLP115 T02480226 40326//// 57011 IEM_DS3505
ZGGG,1985-10-14 21:00,ZGGG 142100Z AUTO 00000KT 6SM 24/22 RMK SLP109 T02360221 57006 IEM_DS3505
ZGGG,1985-10-15 00:00,ZGGG 150000Z AUTO 00000KT 6SM 25/22 RMK SLP129 T02540222 52020 IEM_DS3505
ZGGG,1985-10-15 03:00,ZGGG 150300Z AUTO 09008KT 7SM 30/22 RMK SLP134 T03030218 52005 IEM_DS3505
ZGGG,1985-10-15 04:00,ZGGG 150400Z AUTO 15014KT 7SM 30/22 A2988 RMK T03000220 IEM_DS3505
ZGGG,1985-10-15 05:00,ZGGG 150500Z AUTO 13006KT 7SM 30/22 A2988 RMK T03000220 IEM_DS3505
ZGGG,1985-10-15 06:00,ZGGG 150600Z AUTO 11008KT 9SM 31/22 A2983 RMK SLP106 T03080219 4////0231 57028 IEM_DS3505
ZGGG,1985-10-15 08:00,ZGGG 150800Z AUTO 15006KT 7SM 30/23 A2983 RMK T03000230 IEM_DS3505
ZGGG,1985-10-15 09:00,ZGGG 150900Z AUTO 00000KT 9SM 28/24 A2983 RMK SLP105 T02820238 57001 IEM_DS3505
ZGGG,1985-10-15 10:00,ZGGG 151000Z AUTO 12004KT 7SM 28/ A2983 RMK IEM_DS3505
ZGGG,1985-10-15 12:00,ZGGG 151200Z AUTO 14002KT 9SM 27/23 RMK 60004 SLP127 T02720232 52022 IEM_DS3505
ZGGG,1985-10-15 15:00,ZGGG 151500Z AUTO 09004KT 7SM 26/23 RMK SLP137 T02630228 52010 IEM_DS3505
ZGGG,1985-10-15 18:00,ZGGG 151800Z AUTO 09004KT 7SM 25/23 RMK SLP134 T02510226 40312//// 57003 IEM_DS3505
ZGGG,1985-10-15 21:00,ZGGG 152100Z AUTO 07004KT 7SM 25/22 RMK SLP137 T02480220 52003 IEM_DS3505
ZGGG,1985-10-16 00:00,ZGGG 160000Z AUTO 04004KT 12SM 26/22 RMK SLP148 T02640221 52011 IEM_DS3505
ZGGG,1985-10-16 03:00,ZGGG 160300Z AUTO 07006KT 12SM 30/22 RMK SLP160 T03020222 52012 IEM_DS3505
ZGGG,1985-10-16 06:00,ZGGG 160600Z AUTO 14004KT 11SM 32/22 RMK SLP134 T03180215 4////0243 57026 IEM_DS3505
ZGGG,1985-10-16 09:00,ZGGG 160900Z AUTO 16006KT 11SM 31/22 RMK SLP124 T03110223 57010 IEM_DS3505
ZGGG,1985-10-16 12:00,ZGGG 161200Z AUTO 00000KT 6SM 28/23 RMK SLP139 T02840233 52015 IEM_DS3505
ZGGG,1985-10-16 15:00,ZGGG 161500Z AUTO 00000KT 5SM 27/24 RMK SLP149 T02680235 52010 IEM_DS3505
ZGGG,1985-10-16 18:00,ZGGG 161800Z AUTO 00000KT 4SM 25/23 RMK SLP142 T02500233 40328//// 57007 IEM_DS3505
ZGGG,1985-10-16 21:00,ZGGG 162100Z AUTO 00000KT 4SM 24/23 RMK SLP137 T02410227 57005 IEM_DS3505
ZGGG,1985-10-17 00:00,ZGGG 170000Z AUTO 36004KT 7SM 25/22 RMK SLP158 T02530218 52021 IEM_DS3505
ZGGG,1985-10-17 03:00,ZGGG 170300Z AUTO 07006KT 6SM 28/22 RMK SLP160 T02850218 52002 IEM_DS3505
ZGGG,1985-10-17 06:00,ZGGG 170600Z AUTO 09004KT 8SM 30/23 RMK SLP134 T03010227 4////0233 57026 IEM_DS3505
ZGGG,1985-10-17 09:00,ZGGG 170900Z AUTO 20002KT 6SM 30/22 RMK SLP123 T02960223 57011 IEM_DS3505
ZGGG,1985-10-17 12:00,ZGGG 171200Z AUTO 00000KT 5SM 27/23 RMK 60004 SLP135 T02670231 52012 IEM_DS3505
ZGGG,1985-10-17 15:00,ZGGG 171500Z AUTO 36004KT 5SM 26/21 RMK SLP140 T02600213 52005 IEM_DS3505
ZGGG,1985-10-17 18:00,ZGGG 171800Z AUTO 00000KT 5SM 24/22 RMK 60024 SLP134 T02400220 40310//// 57006 IEM_DS3505
ZGGG,1985-10-17 21:00,ZGGG 172100Z AUTO 36004KT 4SM 23/20 RMK SLP126 T02340198 57008 IEM_DS3505
ZGGG,1985-10-18 00:00,ZGGG 180000Z AUTO 36002KT 7SM 24/19 RMK 60000 SLP146 T02350189 52020 IEM_DS3505
ZGGG,1985-10-18 03:00,ZGGG 180300Z AUTO 36002KT 7SM 27/20 RMK SLP146 T02700196 54000 IEM_DS3505
ZGGG,1985-10-18 06:00,ZGGG 180600Z AUTO 36006KT 9SM 29/20 RMK SLP111 T02900205 4////0229 57035 IEM_DS3505
ZGGG,1985-10-18 09:00,ZGGG 180900Z AUTO 34004KT 9SM 29/20 RMK SLP100 T02900203 57011 IEM_DS3505
ZGGG,1985-10-18 12:00,ZGGG 181200Z AUTO 11004KT 7SM 27/21 RMK SLP116 T02710212 52016 IEM_DS3505
ZGGG,1985-10-18 15:00,ZGGG 181500Z AUTO 09004KT 7SM 25/21 RMK SLP127 T02470207 52011 IEM_DS3505
ZGGG,1985-10-18 18:00,ZGGG 181800Z AUTO 02004KT 7SM 23/19 RMK SLP128 T02340192 40298//// 52001 IEM_DS3505
ZGGG,1985-10-18 21:00,ZGGG 182100Z AUTO 02004KT 6SM 21/17 A2988 RMK SLP131 T02110168 52003 IEM_DS3505
ZGGG,1985-10-18 22:00,ZGGG 182200Z AUTO 02010KT 7SM 20/17 A2991 RMK T02000170 IEM_DS3505
ZGGG,1985-10-18 23:00,ZGGG 182300Z AUTO 02010KT 7SM 20/10 A2991 RMK T02000100 IEM_DS3505
ZGGG,1985-10-19 00:00,ZGGG 190000Z AUTO 36006KT 12SM 21/16 A2994 RMK SLP146 T02140163 52015 IEM_DS3505
ZGGG,1985-10-19 01:00,ZGGG 190100Z AUTO 03017KT 7SM 22/17 A2994 RMK T02200170 IEM_DS3505
ZGGG,1985-10-19 03:00,ZGGG 190300Z AUTO 36006KT 12SM 26/18 A2994 RMK SLP142 T02560181 57004 IEM_DS3505
ZGGG,1985-10-19 04:00,ZGGG 190400Z AUTO 34010KT 7SM 26/18 A2991 RMK T02600180 IEM_DS3505
ZGGG,1985-10-19 05:00,ZGGG 190500Z AUTO 02010KT 7SM 27/19 A2988 RMK T02700190 IEM_DS3505
ZGGG,1985-10-19 06:00,ZGGG 190600Z AUTO 27002KT 10SM 29/19 A2985 RMK SLP117 T02870190 4////0203 57025 IEM_DS3505
ZGGG,1985-10-19 07:00,ZGGG 190700Z AUTO 03008KT 7SM 28/19 A2985 RMK T02800190 IEM_DS3505
ZGGG,1985-10-19 08:00,ZGGG 190800Z AUTO 36010KT 7SM 28/20 A2985 RMK T02800200 IEM_DS3505
ZGGG,1985-10-19 09:00,ZGGG 190900Z AUTO 36004KT 10SM 28/19 A2985 RMK SLP116 T02820189 57001 IEM_DS3505
ZGGG,1985-10-19 12:00,ZGGG 191200Z AUTO 02004KT 7SM 26/18 RMK SLP127 T02560184 52011 IEM_DS3505
ZGGG,1985-10-19 15:00,ZGGG 191500Z AUTO 02008KT 7SM 24/17 RMK SLP138 T02400171 52011 IEM_DS3505
ZGGG,1985-10-19 18:00,ZGGG 191800Z AUTO 02008KT 6SM 22/16 RMK SLP137 T02150161 40295//// 57001 IEM_DS3505
ZGGG,1985-10-19 21:00,ZGGG 192100Z AUTO 02010KT 6SM 21/16 RMK SLP142 T02080158 52005 IEM_DS3505
ZGGG,1985-10-20 00:00,ZGGG 200000Z AUTO 02008KT 11SM 22/16 RMK SLP170 T02160157 52028 IEM_DS3505
ZGGG,1985-10-20 03:00,ZGGG 200300Z AUTO 02010KT 12SM 25/16 RMK SLP173 T02500158 52003 IEM_DS3505
ZGGG,1985-10-20 06:00,ZGGG 200600Z AUTO 36008KT 9SM 25/16 RMK SLP151 T02490155 4////0205 57022 IEM_DS3505
ZGGG,1985-10-20 09:00,ZGGG 200900Z AUTO 02006KT 9SM 21/18 RMK SLP160 T02100175 52009 IEM_DS3505
ZGGG,1985-10-20 12:00,ZGGG 201200Z AUTO 02008KT 5SM 19/17 RMK 60016 SLP178 T01930173 52018 IEM_DS3505
ZGGG,1985-10-20 15:00,ZGGG 201500Z AUTO 36010KT 7SM 19/16 RMK SLP184 T01890158 52006 IEM_DS3505
ZGGG,1985-10-20 18:00,ZGGG 201800Z AUTO 02008KT 7SM 18/15 RMK 60004 SLP174 T01850150 40260//// 57010 IEM_DS3505
ZGGG,1985-10-20 21:00,ZGGG 202100Z AUTO 02008KT 7SM 18/15 RMK SLP173 T01850147 57001 IEM_DS3505
ZGGG,1985-10-21 00:00,ZGGG 210000Z AUTO 36010KT 7SM 19/15 RMK SLP194 T01920149 52021 IEM_DS3505
ZGGG,1985-10-21 03:00,ZGGG 210300Z AUTO 36004KT 7SM 21/17 RMK SLP202 T02070166 52008 IEM_DS3505
ZGGG,1985-10-21 06:00,ZGGG 210600Z AUTO 36006KT 9SM 23/17 RMK SLP181 T02260173 4////0183 57021 IEM_DS3505
ZGGG,1985-10-21 09:00,ZGGG 210900Z AUTO 36008KT 9SM 21/16 RMK SLP184 T02130161 52003 IEM_DS3505
ZGGG,1985-10-21 12:00,ZGGG 211200Z AUTO 36008KT 7SM 20/16 RMK SLP200 T02040156 52016 IEM_DS3505
ZGGG,1985-10-21 15:00,ZGGG 211500Z AUTO 02006KT 9SM 19/16 RMK SLP210 T01900159 52010 IEM_DS3505
ZGGG,1985-10-21 18:00,ZGGG 211800Z AUTO 36006KT 9SM 19/15 RMK 60008 SLP203 T01910150 40223//// 57007 IEM_DS3505
ZGGG,1985-10-21 21:00,ZGGG 212100Z AUTO 36006KT 9SM 19/15 RMK SLP203 T01870151 54000 IEM_DS3505
ZGGG,1985-10-22 00:00,ZGGG 220000Z AUTO 02006KT 9SM 19/15 RMK SLP220 T01910150 52017 IEM_DS3505
ZGGG,1985-10-22 03:00,ZGGG 220300Z AUTO 36004KT 9SM 24/17 RMK SLP217 T02430174 57003 IEM_DS3505
ZGGG,1985-10-22 06:00,ZGGG 220600Z AUTO 02004KT 12SM 28/19 RMK SLP178 T02810193 4////0181 57039 IEM_DS3505
ZGGG,1985-10-22 07:00,ZGGG 220700Z AUTO 35008KT 7SM 28/20 A3003 RMK T02800200 IEM_DS3505
ZGGG,1985-10-22 08:00,ZGGG 220800Z AUTO 34010KT 7SM 28/19 A3003 RMK T02800190 IEM_DS3505
ZGGG,1985-10-22 09:00,ZGGG 220900Z AUTO 34006KT 12SM 27/19 A3003 RMK SLP174 T02730189 57004 IEM_DS3505
ZGGG,1985-10-22 10:00,ZGGG 221000Z AUTO 03006KT 6SM 25/20 A3000 RMK T02500200 IEM_DS3505
ZGGG,1985-10-22 11:00,ZGGG 221100Z AUTO 04008KT 6SM 24/19 A3006 RMK T02400190 IEM_DS3505
ZGGG,1985-10-22 12:00,ZGGG 221200Z AUTO 04006KT 10SM 24/18 A3009 RMK SLP188 T02430177 52014 IEM_DS3505
ZGGG,1985-10-22 13:00,ZGGG 221300Z AUTO 03006KT 6SM 22/19 A3009 RMK T02200190 IEM_DS3505
ZGGG,1985-10-22 14:00,ZGGG 221400Z AUTO 01008KT 6SM 22/19 A3009 RMK T02200190 IEM_DS3505
ZGGG,1985-10-22 15:00,ZGGG 221500Z AUTO 02006KT 10SM 23/18 A3009 RMK SLP199 T02330176 52011 IEM_DS3505
ZGGG,1985-10-22 16:00,ZGGG 221600Z AUTO 01008KT 6SM 22/18 A3009 RMK T02200180 IEM_DS3505
ZGGG,1985-10-22 18:00,ZGGG 221800Z AUTO 36004KT 7SM 22/17 RMK SLP185 T02230173 40290//// 57014 IEM_DS3505
ZGGG,1985-10-22 21:00,ZGGG 222100Z AUTO 34002KT 6SM 22/16 RMK SLP182 T02160165 57003 IEM_DS3505
ZGGG,1985-10-23 00:00,ZGGG 230000Z AUTO 34004KT 9SM 22/17 RMK SLP190 T02160169 52008 IEM_DS3505
ZGGG,1985-10-23 03:00,ZGGG 230300Z AUTO 34002KT 9SM 25/18 RMK SLP192 T02500182 52002 IEM_DS3505
ZGGG,1985-10-23 06:00,ZGGG 230600Z AUTO 09004KT 9SM 28/19 RMK SLP160 T02820187 4////0212 57032 IEM_DS3505
ZGGG,1985-10-23 09:00,ZGGG 230900Z AUTO 14004KT 9SM 28/19 RMK SLP151 T02770188 57009 IEM_DS3505
ZGGG,1985-10-23 12:00,ZGGG 231200Z AUTO 00000KT 6SM 25/21 RMK SLP163 T02500209 52012 IEM_DS3505
ZGGG,1985-10-23 15:00,ZGGG 231500Z AUTO 00000KT 6SM 22/19 RMK SLP170 T02250188 52007 IEM_DS3505
ZGGG,1985-10-23 18:00,ZGGG 231800Z AUTO 00000KT 6SM 21/19 RMK SLP159 T02100188 40293//// 57011 IEM_DS3505
ZGGG,1985-10-23 21:00,ZGGG 232100Z AUTO 04004KT 7SM 21/18 RMK SLP160 T02130178 52001 IEM_DS3505
ZGGG,1985-10-24 00:00,ZGGG 240000Z AUTO 36002KT 9SM 22/18 RMK SLP176 T02160182 52016 IEM_DS3505
ZGGG,1985-10-24 03:00,ZGGG 240300Z AUTO 09002KT 11SM 27/20 RMK SLP172 T02740195 57004 IEM_DS3505
ZGGG,1985-10-24 06:00,ZGGG 240600Z AUTO 36002KT 9SM 29/20 RMK SLP138 T02890202 4////0205 57034 IEM_DS3505
ZGGG,1985-10-24 09:00,ZGGG 240900Z AUTO 29002KT 11SM 29/20 RMK SLP134 T02860195 57004 IEM_DS3505
ZGGG,1985-10-24 12:00,ZGGG 241200Z AUTO 00000KT 6SM 24/20 RMK SLP143 T02440205 52009 IEM_DS3505
ZGGG,1985-10-24 15:00,ZGGG 241500Z AUTO 00000KT 5SM 22/20 RMK SLP150 T02250205 52007 IEM_DS3505
ZGGG,1985-10-24 18:00,ZGGG 241800Z AUTO 00000KT 4SM 22/20 RMK SLP147 T02190205 40300//// 57003 IEM_DS3505
ZGGG,1985-10-24 21:00,ZGGG 242100Z AUTO 00000KT 2 1/2SM 21/20 RMK SLP143 T02110202 57004 IEM_DS3505
ZGGG,1985-10-25 00:00,ZGGG 250000Z AUTO 00000KT 2SM 23/21 RMK SLP156 T02300214 52013 IEM_DS3505
ZGGG,1985-10-25 03:00,ZGGG 250300Z AUTO 00000KT 2 1/2SM 28/22 RMK SLP152 T02760216 57004 IEM_DS3505
ZGGG,1985-10-25 06:00,ZGGG 250600Z AUTO 27004KT 7SM 31/20 RMK SLP127 T03130199 4////0209 57025 IEM_DS3505
ZGGG,1985-10-25 09:00,ZGGG 250900Z AUTO 34004KT 7SM 30/20 RMK SLP115 T03050200 57012 IEM_DS3505
ZGGG,1985-10-25 12:00,ZGGG 251200Z AUTO 09002KT 7SM 26/23 RMK SLP134 T02650226 52019 IEM_DS3505
ZGGG,1985-10-25 15:00,ZGGG 251500Z AUTO 00000KT 4SM 25/23 RMK SLP142 T02480227 52008 IEM_DS3505
ZGGG,1985-10-25 18:00,ZGGG 251800Z AUTO 00000KT 3SM 24/23 RMK SLP137 T02400226 40314//// 57005 IEM_DS3505
ZGGG,1985-10-25 21:00,ZGGG 252100Z AUTO 00000KT 6SM 24/22 RMK SLP135 T02350225 57002 IEM_DS3505
ZGGG,1985-10-26 00:00,ZGGG 260000Z AUTO 02002KT 2SM 24/23 RMK SLP147 T02440227 52012 IEM_DS3505
ZGGG,1985-10-26 02:00,ZGGG 260200Z AUTO 01010KT 7SM 25/21 A2997 RMK T02500210 IEM_DS3505
ZGGG,1985-10-26 03:00,ZGGG 260300Z AUTO 36004KT 6SM 27/21 A2997 RMK SLP153 T02740213 52006 IEM_DS3505
ZGGG,1985-10-26 04:00,ZGGG 260400Z AUTO 36012KT 7SM 28/21 A2994 RMK T02800210 IEM_DS3505
ZGGG,1985-10-26 05:00,ZGGG 260500Z AUTO 35008KT 7SM 29/21 A2991 RMK T02900210 IEM_DS3505
ZGGG,1985-10-26 06:00,ZGGG 260600Z AUTO 34008KT 8SM 29/20 A2988 RMK SLP129 T02930199 4////0232 57024 IEM_DS3505
ZGGG,1985-10-26 07:00,ZGGG 260700Z AUTO 36012KT 7SM 27/21 A2988 RMK T02700210 IEM_DS3505
ZGGG,1985-10-26 08:00,ZGGG 260800Z AUTO 36012KT 7SM 29/20 A2985 RMK T02900200 IEM_DS3505
ZGGG,1985-10-26 09:00,ZGGG 260900Z AUTO 36004KT 7SM 29/20 RMK SLP123 T02860195 57006 IEM_DS3505
ZGGG,1985-10-26 12:00,ZGGG 261200Z AUTO 36004KT 7SM 26/20 RMK SLP142 T02550197 52019 IEM_DS3505
ZGGG,1985-10-26 15:00,ZGGG 261500Z AUTO 00000KT 6SM 24/19 RMK SLP152 T02390189 52010 IEM_DS3505
ZGGG,1985-10-26 17:00,ZGGG 261700Z AUTO 00000KT 6SM 22/19 RMK T02200191 40299//// 57001 IEM_DS3505
ZGGG,1985-10-26 18:00,ZGGG 261800Z AUTO 00000KT 6SM 22/19 RMK SLP151 T02200192 40299//// 57001 IEM_DS3505
ZGGG,1985-10-26 21:00,ZGGG 262100Z AUTO 36002KT 6SM 22/18 RMK SLP148 T02180181 57003 IEM_DS3505
ZGGG,1985-10-27 00:00,ZGGG 270000Z AUTO 00000KT 5SM 22/19 RMK SLP165 T02190193 52017 IEM_DS3505
ZGGG,1985-10-27 03:00,ZGGG 270300Z AUTO 16002KT 6SM 27/19 RMK SLP168 T02690192 52003 IEM_DS3505
ZGGG,1985-10-27 06:00,ZGGG 270600Z AUTO 22002KT 4SM 29/20 RMK SLP137 T02920197 4////0206 57031 IEM_DS3505
ZGGG,1985-10-27 09:00,ZGGG 270900Z AUTO 27004KT 5SM 28/20 RMK SLP126 T02800205 57011 IEM_DS3505
ZGGG,1985-10-27 12:00,ZGGG 271200Z AUTO 00000KT 4SM 25/21 RMK SLP133 T02480211 52007 IEM_DS3505
ZGGG,1985-10-27 15:00,ZGGG 271500Z AUTO 00000KT 4SM 24/22 RMK SLP138 T02410218 52005 IEM_DS3505
ZGGG,1985-10-27 18:00,ZGGG 271800Z AUTO 00000KT 2SM 23/22 RMK SLP134 T02290218 40296//// 57004 IEM_DS3505
ZGGG,1985-10-27 21:00,ZGGG 272100Z AUTO 00000KT 2SM 24/22 RMK SLP126 T02350221 57008 IEM_DS3505
ZGGG,1985-10-28 00:00,ZGGG 280000Z AUTO 00000KT 2SM 24/22 RMK SLP142 T02360221 52016 IEM_DS3505
ZGGG,1985-10-28 03:00,ZGGG 280300Z AUTO 22004KT 2SM 27/22 RMK SLP146 T02720216 52004 IEM_DS3505
ZGGG,1985-10-28 06:00,ZGGG 280600Z AUTO 00000KT 5SM 30/21 RMK SLP115 T02980211 4////0227 57031 IEM_DS3505
ZGGG,1985-10-28 09:00,ZGGG 280900Z AUTO 16002KT 4SM 29/22 RMK SLP108 T02860221 57007 IEM_DS3505
ZGGG,1985-10-28 12:00,ZGGG 281200Z AUTO 16002KT 5SM 26/22 RMK 60031 SLP125 T02570225 52017 IEM_DS3505
ZGGG,1985-10-28 15:00,ZGGG 281500Z AUTO 00000KT 4SM 25/23 RMK SLP135 T02480230 52010 IEM_DS3505
ZGGG,1985-10-28 18:00,ZGGG 281800Z AUTO 00000KT 3SM 24/22 RMK 60002 SLP129 T02380223 40302//// 57006 IEM_DS3505
ZGGG,1985-10-28 21:00,ZGGG 282100Z AUTO 00000KT 2 1/2SM 24/22 RMK SLP125 T02370224 57004 IEM_DS3505
ZGGG,1985-10-29 00:00,ZGGG 290000Z AUTO 00000KT 6SM 24/21 RMK 60001 SLP138 T02360209 52013 IEM_DS3505
ZGGG,1985-10-29 03:00,ZGGG 290300Z AUTO 34006KT 5SM 27/22 A2994 RMK SLP145 T02700221 52007 IEM_DS3505
ZGGG,1985-10-29 04:00,ZGGG 290400Z AUTO 36008KT 7SM 28/22 A2991 RMK T02800220 IEM_DS3505
ZGGG,1985-10-29 05:00,ZGGG 290500Z AUTO 34008KT 7SM 29/22 A2988 RMK T02900220 IEM_DS3505
ZGGG,1985-10-29 06:00,ZGGG 290600Z AUTO 34004KT 6SM 30/22 A2985 RMK SLP119 T02950218 4////0228 57026 IEM_DS3505
ZGGG,1985-10-29 07:00,ZGGG 290700Z AUTO 01008KT 7SM 29/21 A2985 RMK T02900210 IEM_DS3505
ZGGG,1985-10-29 08:00,ZGGG 290800Z AUTO 33008KT 7SM 30/21 A2985 RMK T03000210 IEM_DS3505
ZGGG,1985-10-29 09:00,ZGGG 290900Z AUTO 34004KT 6SM 28/21 A2985 RMK SLP114 T02840209 57005 IEM_DS3505
ZGGG,1985-10-29 12:00,ZGGG 291200Z AUTO 36006KT 6SM 26/20 RMK SLP129 T02600198 52015 IEM_DS3505
ZGGG,1985-10-29 15:00,ZGGG 291500Z AUTO 36004KT 6SM 25/19 RMK SLP141 T02460192 52012 IEM_DS3505
ZGGG,1985-10-29 18:00,ZGGG 291800Z AUTO 36004KT 7SM 24/19 RMK SLP142 T02360186 40301//// 52001 IEM_DS3505
ZGGG,1985-10-29 21:00,ZGGG 292100Z AUTO 34004KT 7SM 22/18 RMK SLP140 T02220180 57002 IEM_DS3505
ZGGG,1985-10-30 00:00,ZGGG 300000Z AUTO 36004KT 11SM 23/17 RMK SLP164 T02270173 52024 IEM_DS3505
ZGGG,1985-10-30 03:00,ZGGG 300300Z AUTO 11004KT 12SM 26/18 RMK SLP169 T02640176 52005 IEM_DS3505
ZGGG,1985-10-30 06:00,ZGGG 300600Z AUTO 04002KT 11SM 28/18 RMK SLP142 T02850181 4////0210 57027 IEM_DS3505
ZGGG,1985-10-30 09:00,ZGGG 300900Z AUTO 36004KT 11SM 28/19 RMK SLP140 T02820187 57002 IEM_DS3505
ZGGG,1985-10-30 12:00,ZGGG 301200Z AUTO 00000KT 5SM 24/20 RMK SLP156 T02440201 52016 IEM_DS3505
ZGGG,1985-10-30 15:00,ZGGG 301500Z AUTO 34004KT 5SM 24/19 RMK SLP173 T02420194 52017 IEM_DS3505
ZGGG,1985-10-30 18:00,ZGGG 301800Z AUTO 02002KT 9SM 23/19 RMK SLP172 T02320188 40298//// 57001 IEM_DS3505
ZGGG,1985-10-30 21:00,ZGGG 302100Z AUTO 36004KT 9SM 23/18 RMK SLP173 T02320175 52001 IEM_DS3505
ZGGG,1985-10-31 00:00,ZGGG 310000Z AUTO 36004KT 7SM 22/18 RMK SLP195 T02220175 52022 IEM_DS3505
ZGGG,1985-10-31 03:00,ZGGG 310300Z AUTO 04006KT 7SM 26/17 RMK SLP192 T02600172 57003 IEM_DS3505
ZGGG,1985-10-31 06:00,ZGGG 310600Z AUTO 34004KT 11SM 27/16 RMK SLP170 T02710157 4////0220 57022 IEM_DS3505
ZGGG,1985-10-31 09:00,ZGGG 310900Z AUTO 36006KT 9SM 26/16 RMK SLP172 T02640163 52002 IEM_DS3505
ZGGG,1985-10-31 12:00,ZGGG 311200Z AUTO 36008KT 7SM 24/15 RMK SLP190 T02400148 52018 IEM_DS3505
ZGGG,1985-10-31 15:00,ZGGG 311500Z AUTO 36006KT 7SM 22/14 RMK SLP198 T02180142 52008 IEM_DS3505
ZGGG,1985-10-31 18:00,ZGGG 311800Z AUTO 34006KT 7SM 20/13 RMK SLP204 T02010129 40281//// 52006 IEM_DS3505
ZGGG,1985-10-31 21:00,ZGGG 312100Z AUTO 34004KT 7SM 19/13 RMK SLP205 T01910131 52001 IEM_DS3505
ZGGG,1985-11-01 00:00,ZGGG 010000Z AUTO 02006KT 9SM 20/13 RMK SLP223 T01990127 52018 IEM_DS3505
ZGGG,1985-11-01 03:00,ZGGG 010300Z AUTO 07006KT 10SM 24/12 RMK SLP227 T02380121 52004 IEM_DS3505
ZGGG,1985-11-01 06:00,ZGGG 010600Z AUTO 36004KT 11SM 27/14 RMK SLP197 T02700144 4////0185 57030 IEM_DS3505
ZGGG,1985-11-01 09:00,ZGGG 010900Z AUTO 36006KT 9SM 26/15 RMK SLP191 T02580153 57006 IEM_DS3505
ZGGG,1985-11-01 11:00,ZGGG 011100Z AUTO 02004KT 9SM 23/13 RMK SLP207 T02280133 52016 IEM_DS3505
ZGGG,1985-11-01 12:00,ZGGG 011200Z AUTO 02004KT 9SM 23/13 RMK SLP207 T02280133 52016 IEM_DS3505
ZGGG,1985-11-01 15:00,ZGGG 011500Z AUTO 02006KT 9SM 21/13 RMK SLP216 T02080132 52009 IEM_DS3505
ZGGG,1985-11-01 18:00,ZGGG 011800Z AUTO 36004KT 9SM 20/12 RMK SLP212 T01970121 40272//// 57004 IEM_DS3505
ZGGG,1985-11-01 21:00,ZGGG 012100Z AUTO 36004KT 7SM 19/12 RMK SLP217 T01880118 52005 IEM_DS3505
ZGGG,1985-11-02 00:00,ZGGG 020000Z AUTO 36008KT 9SM 20/11 RMK SLP229 T01980110 52012 IEM_DS3505
ZGGG,1985-11-02 03:00,ZGGG 020300Z AUTO 36004KT 9SM 24/11 A3021 RMK SLP236 T02390114 52007 IEM_DS3505
ZGGG,1985-11-02 04:00,ZGGG 020400Z AUTO 36010KT 6SM 24/12 A3018 RMK T02400120 IEM_DS3505
ZGGG,1985-11-02 05:00,ZGGG 020500Z AUTO 36006KT 6SM 25/12 A3015 RMK T02500120 IEM_DS3505
ZGGG,1985-11-02 06:00,ZGGG 020600Z AUTO 29002KT 9SM 26/12 A3012 RMK SLP204 T02630125 4////0180 57032 IEM_DS3505
ZGGG,1985-11-02 07:00,ZGGG 020700Z AUTO 36008KT 6SM 26/12 A3012 RMK T02600120 IEM_DS3505
ZGGG,1985-11-02 09:00,ZGGG 020900Z AUTO 16002KT 9SM 26/13 RMK SLP203 T02590130 57001 IEM_DS3505
ZGGG,1985-11-02 11:00,ZGGG 021100Z AUTO 00000KT 7SM 21/15 RMK T02140150 52012 IEM_DS3505
ZGGG,1985-11-02 12:00,ZGGG 021200Z AUTO 00000KT 7SM 21/15 RMK SLP215 T02140150 52012 IEM_DS3505
ZGGG,1985-11-02 15:00,ZGGG 021500Z AUTO 14004KT 7SM 20/14 RMK SLP224 T02000144 52009 IEM_DS3505
ZGGG,1985-11-02 21:00,ZGGG 022100Z AUTO 00000KT 5SM 17/14 RMK SLP219 T01680145 57005 IEM_DS3505
ZGGG,1985-11-03 00:00,ZGGG 030000Z AUTO 00000KT 9SM 19/11 RMK SLP237 T01900108 52018 IEM_DS3505
ZGGG,1985-11-03 03:00,ZGGG 030300Z AUTO 07006KT 9SM 24/10 RMK SLP239 T02380097 52002 IEM_DS3505
ZGGG,1985-11-03 06:00,ZGGG 030600Z AUTO 34002KT 10SM 26/11 RMK SLP206 T02580112 4////0163 57033 IEM_DS3505
ZGGG,1985-11-03 09:00,ZGGG 030900Z AUTO 16004KT 10SM 26/13 RMK SLP197 T02560132 57009 IEM_DS3505
ZGGG,1985-11-03 11:00,ZGGG 031100Z AUTO 00000KT 7SM RMK IEM_DS3505
ZGGG,1985-11-03 12:00,ZGGG 031200Z AUTO 00000KT 7SM 21/14 RMK SLP211 T02070145 52014 IEM_DS3505
ZGGG,1985-11-03 15:00,ZGGG 031500Z AUTO 00000KT 5SM 19/15 RMK SLP218 T01880150 52007 IEM_DS3505
ZGGG,1985-11-03 18:00,ZGGG 031800Z AUTO 00000KT 4SM 18/16 RMK SLP216 T01800160 40266//// 57002 IEM_DS3505
ZGGG,1985-11-03 21:00,ZGGG 032100Z AUTO 00000KT 4SM 18/16 RMK SLP212 T01750159 57004 IEM_DS3505
ZGGG,1985-11-04 00:00,ZGGG 040000Z AUTO 00000KT 5SM 19/16 RMK SLP225 T01920158 52013 IEM_DS3505
ZGGG,1985-11-04 03:00,ZGGG 040300Z AUTO 04006KT 6SM 24/14 RMK SLP221 T02380142 57004 IEM_DS3505
ZGGG,1985-11-04 06:00,ZGGG 040600Z AUTO 00000KT 8SM 27/14 RMK SLP182 T02660141 4////0168 57039 IEM_DS3505
ZGGG,1985-11-04 09:00,ZGGG 040900Z AUTO 29004KT 7SM 25/15 RMK SLP178 T02540147 57004 IEM_DS3505
ZGGG,1985-11-04 15:00,ZGGG 041500Z AUTO 00000KT 5SM 19/16 RMK SLP192 T01880157 52003 IEM_DS3505
ZGGG,1985-11-04 18:00,ZGGG 041800Z AUTO 00000KT 4SM 18/16 RMK SLP183 T01770157 40274//// 57009 IEM_DS3505
ZGGG,1985-11-04 21:00,ZGGG 042100Z AUTO 00000KT 4SM 17/15 RMK SLP176 T01680150 57007 IEM_DS3505
ZGGG,1985-11-05 00:00,ZGGG 050000Z AUTO 36002KT 6SM 20/14 RMK SLP185 T01950144 52009 IEM_DS3505
ZGGG,1985-11-05 03:00,ZGGG 050300Z AUTO 09004KT 7SM 26/14 RMK SLP186 T02570137 52001 IEM_DS3505
ZGGG,1985-11-05 06:00,ZGGG 050600Z AUTO 25002KT 9SM 28/15 RMK SLP151 T02790146 4////0164 57035 IEM_DS3505
ZGGG,1985-11-05 09:00,ZGGG 050900Z AUTO 00000KT 9SM 28/15 RMK SLP146 T02750153 57005 IEM_DS3505
ZGGG,1985-11-05 12:00,ZGGG 051200Z AUTO 00000KT 7SM 23/17 RMK SLP161 T02300173 52015 IEM_DS3505
ZGGG,1985-11-05 15:00,ZGGG 051500Z AUTO 00000KT 6SM 21/18 RMK SLP162 T02080176 52001 IEM_DS3505
ZGGG,1985-11-05 18:00,ZGGG 051800Z AUTO 00000KT 6SM 21/17 RMK SLP156 T02070174 40284//// 57006 IEM_DS3505
ZGGG,1985-11-05 21:00,ZGGG 052100Z AUTO 02002KT 6SM 20/14 RMK SLP156 T02040145 54000 IEM_DS3505
ZGGG,1985-11-06 00:00,ZGGG 060000Z AUTO 36002KT 7SM 21/15 RMK SLP170 T02100147 52014 IEM_DS3505
ZGGG,1985-11-06 03:00,ZGGG 060300Z AUTO 02004KT 7SM 26/15 RMK SLP166 T02600149 57004 IEM_DS3505
ZGGG,1985-11-06 06:00,ZGGG 060600Z AUTO 11004KT 7SM 29/16 RMK SLP140 T02890157 4////0186 57026 IEM_DS3505
ZGGG,1985-11-06 09:00,ZGGG 060900Z AUTO 00000KT 7SM 28/16 RMK SLP136 T02770161 57004 IEM_DS3505
ZGGG,1985-11-06 12:00,ZGGG 061200Z AUTO 00000KT 6SM 24/17 RMK SLP153 T02370172 52017 IEM_DS3505
ZGGG,1985-11-06 15:00,ZGGG 061500Z AUTO 09004KT 4SM 22/18 RMK SLP159 T02220185 52006 IEM_DS3505
ZGGG,1985-11-06 18:00,ZGGG 061800Z AUTO 00000KT 4SM 21/19 RMK SLP155 T02090187 40295//// 57004 IEM_DS3505
ZGGG,1985-11-06 21:00,ZGGG 062100Z AUTO 00000KT 4SM 21/19 RMK SLP152 T02080193 57003 IEM_DS3505
ZGGG,1985-11-07 00:00,ZGGG 070000Z AUTO 07002KT 5SM 22/20 RMK SLP167 T02190196 52015 IEM_DS3505
ZGGG,1985-11-07 03:00,ZGGG 070300Z AUTO 11002KT 5SM 26/19 RMK SLP168 T02550194 52001 IEM_DS3505
ZGGG,1985-11-07 06:00,ZGGG 070600Z AUTO 14004KT 6SM 27/19 RMK SLP135 T02730189 4////0199 57033 IEM_DS3505
ZGGG,1985-11-07 09:00,ZGGG 070900Z AUTO 18004KT 6SM 27/18 RMK SLP133 T02740178 57002 IEM_DS3505
ZGGG,1985-11-07 12:00,ZGGG 071200Z AUTO 00000KT 2SM 24/19 RMK SLP149 T02360191 52016 IEM_DS3505
ZGGG,1985-11-07 15:00,ZGGG 071500Z AUTO 00000KT 2SM 23/21 RMK SLP153 T02340207 52004 IEM_DS3505
ZGGG,1985-11-07 18:00,ZGGG 071800Z AUTO 00000KT 2SM 22/20 RMK SLP145 T02230204 40285//// 57008 IEM_DS3505
ZGGG,1985-11-07 21:00,ZGGG 072100Z AUTO 02002KT 2SM 21/20 RMK SLP142 T02120202 57003 IEM_DS3505
ZGGG,1985-11-08 00:00,ZGGG 080000Z AUTO 00000KT 4SM 22/20 RMK SLP160 T02200203 52018 IEM_DS3505
ZGGG,1985-11-08 03:00,ZGGG 080300Z AUTO 07004KT 6SM 26/19 RMK SLP163 T02550194 52003 IEM_DS3505
ZGGG,1985-11-08 06:00,ZGGG 080600Z AUTO 36006KT 4SM 25/20 RMK SLP132 T02520202 4////0206 57031 IEM_DS3505
ZGGG,1985-11-08 09:00,ZGGG 080900Z AUTO 36006KT 5SM 22/16 RMK SLP142 T02160160 52010 IEM_DS3505
ZGGG,1985-11-08 12:00,ZGGG 081200Z AUTO 36004KT 7SM RMK SLP172 52023 IEM_DS3505
ZGGG,1985-11-08 15:00,ZGGG 081500Z AUTO 34006KT 7SM 18/15 RMK SLP178 T01760151 52013 IEM_DS3505
ZGGG,1985-11-08 18:00,ZGGG 081800Z AUTO 36006KT 5SM 17/15 RMK 60008 SLP169 T01700148 40274//// 57009 IEM_DS3505
ZGGG,1985-11-08 21:00,ZGGG 082100Z AUTO 36006KT 6SM 16/13 RMK SLP163 T01640127 57006 IEM_DS3505
ZGGG,1985-11-09 00:00,ZGGG 090000Z AUTO 36006KT 9SM 17/13 RMK 60000 SLP178 T01730128 52015 IEM_DS3505
ZGGG,1985-11-09 03:00,ZGGG 090300Z AUTO 34004KT 10SM 21/14 RMK SLP175 T02140135 57003 IEM_DS3505
ZGGG,1985-11-09 04:00,ZGGG 090400Z AUTO 03012KT 6SM 22/12 A3000 RMK T02200120 IEM_DS3505
ZGGG,1985-11-09 05:00,ZGGG 090500Z AUTO 01012KT 7SM 23/13 A2997 RMK T02300130 IEM_DS3505
ZGGG,1985-11-09 06:00,ZGGG 090600Z AUTO 04008KT 12SM 24/13 A2994 RMK SLP146 T02360130 4////0160 57029 IEM_DS3505
ZGGG,1985-11-09 07:00,ZGGG 090700Z AUTO 34012KT 6SM 23/13 A2991 RMK T02300130 IEM_DS3505
ZGGG,1985-11-09 08:00,ZGGG 090800Z AUTO 34014KT 6SM 23/13 A2991 RMK T02300130 IEM_DS3505
ZGGG,1985-11-09 09:00,ZGGG 090900Z AUTO 32006KT 9SM 22/13 A2994 RMK SLP143 T02180131 57003 IEM_DS3505
ZGGG,1985-11-09 11:00,ZGGG 091100Z AUTO 34006KT 6SM 19/12 A2997 RMK T01900120 IEM_DS3505
ZGGG,1985-11-09 12:00,ZGGG 091200Z AUTO 36008KT 7SM 19/12 A2997 RMK SLP161 T01900120 52018 IEM_DS3505
ZGGG,1985-11-09 15:00,ZGGG 091500Z AUTO 36008KT 7SM 19/12 RMK SLP111 T01900120 52018 IEM_DS3505
ZGGG,1985-11-09 18:00,ZGGG 091800Z AUTO 02006KT 7SM 17/09 RMK SLP167 T01700086 40244//// 57009 IEM_DS3505
ZGGG,1985-11-09 21:00,ZGGG 092100Z AUTO 34002KT 7SM 16/08 RMK SLP161 T01630081 57006 IEM_DS3505
ZGGG,1985-11-10 00:00,ZGGG 100000Z AUTO 02006KT 11SM 16/09 RMK SLP174 T01630090 52013 IEM_DS3505
ZGGG,1985-11-10 03:00,ZGGG 100300Z AUTO 02004KT 12SM 20/10 RMK SLP175 T02020099 52001 IEM_DS3505
ZGGG,1985-11-10 06:00,ZGGG 100600Z AUTO 34004KT 11SM 23/10 RMK SLP139 T02280103 4////0158 57036 IEM_DS3505
ZGGG,1985-11-10 09:00,ZGGG 100900Z AUTO 29004KT 10SM 22/10 RMK SLP132 T02220104 57007 IEM_DS3505
ZGGG,1985-11-10 12:00,ZGGG 101200Z AUTO 00000KT 7SM 18/12 RMK SLP148 T01810125 52016 IEM_DS3505
ZGGG,1985-11-10 15:00,ZGGG 101500Z AUTO 00000KT 6SM 17/15 RMK SLP156 T01660147 52008 IEM_DS3505
ZGGG,1985-11-10 18:00,ZGGG 101800Z AUTO 00000KT 5SM 16/13 RMK SLP149 T01560133 40233//// 57007 IEM_DS3505
ZGGG,1985-11-10 21:00,ZGGG 102100Z AUTO 00000KT 5SM 15/13 RMK SLP146 T01480131 57003 IEM_DS3505
ZGGG,1985-11-11 00:00,ZGGG 110000Z AUTO 00000KT 5SM 16/13 RMK SLP167 T01640134 52021 IEM_DS3505
ZGGG,1985-11-11 03:00,ZGGG 110300Z AUTO 16004KT 5SM 24/14 RMK SLP174 T02380138 52007 IEM_DS3505
ZGGG,1985-11-11 06:00,ZGGG 110600Z AUTO 00000KT 5SM 26/16 RMK SLP150 T02610161 4////0147 57024 IEM_DS3505
ZGGG,1985-11-11 09:00,ZGGG 110900Z AUTO 00000KT 4SM 25/16 RMK SLP151 T02500156 52001 IEM_DS3505
ZGGG,1985-11-11 12:00,ZGGG 111200Z AUTO 00000KT 5SM 21/17 RMK SLP173 T02120168 52022 IEM_DS3505
ZGGG,1985-11-11 15:00,ZGGG 111500Z AUTO 00000KT 3SM 20/17 RMK SLP184 T01950166 52011 IEM_DS3505
ZGGG,1985-11-11 18:00,ZGGG 111800Z AUTO 00000KT 3SM 18/16 RMK SLP183 T01840165 40263//// 57001 IEM_DS3505
ZGGG,1985-11-11 21:00,ZGGG 112100Z AUTO 00000KT 5SM 17/16 RMK SLP184 T01710157 52001 IEM_DS3505
ZGGG,1985-11-11 23:00,ZGGG 112300Z AUTO 03006KT 4SM 16/16 A3009 RMK T01600160 IEM_DS3505
ZGGG,1985-11-12 00:00,ZGGG 120000Z AUTO 00000KT 7SM 19/14 A3012 RMK SLP208 T01940145 52024 IEM_DS3505
ZGGG,1985-11-12 02:00,ZGGG 120200Z AUTO 01010KT 7SM 22/15 A3015 RMK T02200150 IEM_DS3505
ZGGG,1985-11-12 03:00,ZGGG 120300Z AUTO 02006KT 8SM 24/15 A3015 RMK SLP210 T02440153 52002 IEM_DS3505
ZGGG,1985-11-12 04:00,ZGGG 120400Z AUTO 36010KT 7SM 25/15 A3012 RMK T02500150 IEM_DS3505
ZGGG,1985-11-12 05:00,ZGGG 120500Z AUTO 33006KT 7SM 25/14 A3009 RMK T02500140 IEM_DS3505
ZGGG,1985-11-12 06:00,ZGGG 120600Z AUTO 07002KT 11SM 27/16 A3003 RMK SLP179 T02740160 4////0167 57031 IEM_DS3505
ZGGG,1985-11-12 07:00,ZGGG 120700Z AUTO 36006KT 7SM 27/14 A3003 RMK T02700140 IEM_DS3505
ZGGG,1985-11-12 08:00,ZGGG 120800Z AUTO 34006KT 7SM A3003 RMK IEM_DS3505
ZGGG,1985-11-12 09:00,ZGGG 120900Z AUTO 34004KT 9SM 26/14 A3003 RMK SLP178 T02580138 57001 IEM_DS3505
ZGGG,1985-11-12 12:00,ZGGG 121200Z AUTO 00000KT 5SM 22/16 RMK SLP194 T02160155 52016 IEM_DS3505
ZGGG,1985-11-12 15:00,ZGGG 121500Z AUTO 00000KT 5SM 20/16 RMK SLP193 T01970160 57001 IEM_DS3505
ZGGG,1985-11-12 18:00,ZGGG 121800Z AUTO 02002KT 6SM 20/16 RMK SLP188 T01990159 40275//// 57005 IEM_DS3505
ZGGG,1985-11-12 21:00,ZGGG 122100Z AUTO 00000KT 5SM 20/16 RMK SLP189 T01990165 52011 IEM_DS3505
ZGGG,1985-11-13 00:00,ZGGG 130000Z AUTO 00000KT 4SM 20/18 RMK SLP199 T02020179 52010 IEM_DS3505
ZGGG,1985-11-13 03:00,ZGGG 130300Z AUTO 04004KT 4SM 22/14 RMK SLP213 T02200135 52014 IEM_DS3505
ZGGG,1985-11-13 06:00,ZGGG 130600Z AUTO 07002KT 5SM 23/13 RMK SLP193 T02300134 4////0190 57020 IEM_DS3505
ZGGG,1985-11-13 09:00,ZGGG 130900Z AUTO 02004KT 4SM 21/13 RMK SLP199 T02100132 52006 IEM_DS3505
ZGGG,1985-11-13 10:00,ZGGG 131000Z AUTO 02006KT 6SM 19/10 RMK SLP210 T01880102 40232//// 57004 IEM_DS3505
ZGGG,1985-11-13 12:00,ZGGG 131200Z AUTO 34004KT 4SM 20/12 RMK SLP204 T02000119 52005 IEM_DS3505
ZGGG,1985-11-13 15:00,ZGGG 131500Z AUTO 02004KT 4SM 19/12 RMK SLP214 T01900116 52010 IEM_DS3505
ZGGG,1985-11-13 18:00,ZGGG 131800Z AUTO 02006KT 6SM 19/10 RMK SLP210 T01880102 40232//// 57004 IEM_DS3505
ZGGG,1985-11-13 21:00,ZGGG 132100Z AUTO 02006KT 6SM 18/09 RMK SLP211 T01790091 52001 IEM_DS3505
ZGGG,1985-11-14 00:00,ZGGG 140000Z AUTO 36006KT 9SM 18/08 RMK SLP225 T01780079 52014 IEM_DS3505
ZGGG,1985-11-14 03:00,ZGGG 140300Z AUTO 02004KT 9SM 21/08 RMK SLP229 T02060078 52004 IEM_DS3505
ZGGG,1985-11-14 06:00,ZGGG 140600Z AUTO 27004KT 7SM 23/09 RMK SLP193 T02310094 4////0171 57036 IEM_DS3505
ZGGG,1985-11-14 09:00,ZGGG 140900Z AUTO 00000KT 7SM 22/09 RMK SLP189 T02200090 57004 IEM_DS3505
ZGGG,1985-11-14 12:00,ZGGG 141200Z AUTO 02004KT 5SM 21/10 RMK SLP198 T02060104 52009 IEM_DS3505
ZGGG,1985-11-14 15:00,ZGGG 141500Z AUTO 00000KT 5SM 19/12 RMK SLP200 T01920115 52002 IEM_DS3505
ZGGG,1985-11-14 18:00,ZGGG 141800Z AUTO 00000KT 5SM 19/11 RMK SLP203 T01900110 40236//// 52003 IEM_DS3505
ZGGG,1985-11-14 21:00,ZGGG 142100Z AUTO 00000KT 6SM 19/10 RMK SLP200 T01930104 57003 IEM_DS3505
ZGGG,1985-11-15 00:00,ZGGG 150000Z AUTO 00000KT 5SM 19/13 RMK SLP213 T01920128 52013 IEM_DS3505
ZGGG,1985-11-15 03:00,ZGGG 150300Z AUTO 02004KT 6SM 23/14 RMK SLP212 T02300140 57001 IEM_DS3505
ZGGG,1985-11-15 06:00,ZGGG 150600Z AUTO 36006KT 5SM 24/14 RMK SLP180 T02420136 4////0184 57032 IEM_DS3505
ZGGG,1985-11-15 09:00,ZGGG 150900Z AUTO 36004KT 5SM 22/14 RMK SLP176 T02230140 57004 IEM_DS3505
ZGGG,1985-11-15 12:00,ZGGG 151200Z AUTO 36004KT 5SM 21/13 RMK SLP194 T02060133 52018 IEM_DS3505
ZGGG,1985-11-15 15:00,ZGGG 151500Z AUTO 07004KT 6SM 19/13 RMK SLP205 T01920133 52011 IEM_DS3505
ZGGG,1985-11-15 18:00,ZGGG 151800Z AUTO 36006KT 6SM 19/14 RMK SLP203 T01900137 40249//// 57002 IEM_DS3505
ZGGG,1985-11-15 21:00,ZGGG 152100Z AUTO 36006KT 6SM 18/14 RMK SLP191 T01850138 57012 IEM_DS3505
ZGGG,1985-11-16 00:00,ZGGG 160000Z AUTO 36004KT 5SM 19/14 RMK SLP211 T01870142 52020 IEM_DS3505
ZGGG,1985-11-16 02:00,ZGGG 160200Z AUTO 01010KT 4SM 19/15 A3015 RMK T01900150 IEM_DS3505
ZGGG,1985-11-16 03:00,ZGGG 160300Z AUTO 36006KT 5SM 20/16 RMK SLP215 T02040157 52004 IEM_DS3505
ZGGG,1985-11-16 06:00,ZGGG 160600Z AUTO 36002KT 5SM 21/16 RMK SLP189 T02110160 4////0181 57026 IEM_DS3505
ZGGG,1985-11-16 09:00,ZGGG 160900Z AUTO 32006KT 4SM 21/16 RMK SLP189 T02110157 54000 IEM_DS3505
ZGGG,1985-11-16 12:00,ZGGG 161200Z AUTO 02004KT 5SM 20/16 RMK SLP197 T01960155 52008 IEM_DS3505
ZGGG,1985-11-16 15:00,ZGGG 161500Z AUTO 02006KT 6SM 19/14 RMK SLP204 T01920139 52007 IEM_DS3505
ZGGG,1985-11-16 18:00,ZGGG 161800Z AUTO 32002KT 6SM 18/09 RMK SLP199 T01850088 40222//// 57005 IEM_DS3505
ZGGG,1985-11-16 21:00,ZGGG 162100Z AUTO 34008KT 6SM 18/07 RMK SLP195 T01790073 57004 IEM_DS3505
ZGGG,1985-11-17 00:00,ZGGG 170000Z AUTO 36006KT 6SM 18/07 RMK SLP206 T01770073 52011 IEM_DS3505
ZGGG,1985-11-17 03:00,ZGGG 170300Z AUTO 36008KT 7SM 20/08 RMK SLP205 T02000076 57001 IEM_DS3505
ZGGG,1985-11-17 06:00,ZGGG 170600Z AUTO 02006KT 7SM 23/08 RMK SLP171 T02340078 4////0172 57034 IEM_DS3505
ZGGG,1985-11-17 09:00,ZGGG 170900Z AUTO 36006KT 7SM 23/08 RMK SLP171 T02260080 54000 IEM_DS3505
ZGGG,1985-11-17 12:00,ZGGG 171200Z AUTO 00000KT 6SM 17/11 RMK SLP182 T01740107 52011 IEM_DS3505
ZGGG,1985-11-17 15:00,ZGGG 171500Z AUTO 00000KT 6SM 16/11 RMK SLP193 T01550106 52011 IEM_DS3505
ZGGG,1985-11-17 18:00,ZGGG 171800Z AUTO 00000KT 7SM 16/09 RMK SLP188 T01610088 40234//// 57005 IEM_DS3505
ZGGG,1985-11-17 21:00,ZGGG 172100Z AUTO 00000KT 7SM 16/08 RMK SLP186 T01630077 57002 IEM_DS3505
ZGGG,1985-11-18 00:00,ZGGG 180000Z AUTO 36004KT 7SM 17/08 RMK SLP199 T01660083 52013 IEM_DS3505
ZGGG,1985-11-18 03:00,ZGGG 180300Z AUTO 09002KT 6SM 22/09 RMK SLP197 T02170086 57002 IEM_DS3505
ZGGG,1985-11-18 06:00,ZGGG 180600Z AUTO 20004KT 7SM 24/09 RMK SLP155 T02390094 4////0150 57042 IEM_DS3505
ZGGG,1985-11-18 09:00,ZGGG 180900Z AUTO 00000KT 6SM 24/10 RMK SLP148 T02360099 57007 IEM_DS3505
ZGGG,1985-11-18 12:00,ZGGG 181200Z AUTO 00000KT 5SM 18/12 RMK SLP162 T01810125 52014 IEM_DS3505
ZGGG,1985-11-18 15:00,ZGGG 181500Z AUTO 14006KT 3SM 17/13 A3000 RMK SLP172 T01670129 52010 IEM_DS3505
ZGGG,1985-11-18 18:00,ZGGG 181800Z AUTO 00000KT 3SM 15/12 RMK SLP175 T01470125 40251//// 52003 IEM_DS3505
ZGGG,1985-11-18 21:00,ZGGG 182100Z AUTO 00000KT 3SM 14/12 RMK SLP175 T01390122 54000 IEM_DS3505
ZGGG,1985-11-19 00:00,ZGGG 190000Z AUTO 00000KT 3SM 15/12 RMK SLP188 T01470125 52013 IEM_DS3505
ZGGG,1985-11-19 01:00,ZGGG 190100Z AUTO 00000KT 1 1/2SM 17/15 A3006 RMK T01700150 IEM_DS3505
ZGGG,1985-11-19 02:00,ZGGG 190200Z AUTO 33004KT 1 1/2SM 19/ RMK IEM_DS3505
ZGGG,1985-11-19 03:00,ZGGG 190300Z AUTO 18002KT 3SM 22/14 RMK SLP184 T02230140 57004 IEM_DS3505
ZGGG,1985-11-19 04:00,ZGGG 190400Z AUTO 29006KT 2 1/2SM 23/14 A3003 RMK T02300140 IEM_DS3505
ZGGG,1985-11-19 05:00,ZGGG 190500Z AUTO 02004KT 4SM 24/13 A3000 RMK T02400130 IEM_DS3505
ZGGG,1985-11-19 06:00,ZGGG 190600Z AUTO 27002KT 4SM 25/12 A2997 RMK SLP149 T02500118 4////0134 57035 IEM_DS3505
ZGGG,1985-11-19 07:00,ZGGG 190700Z AUTO 36008KT 7SM 25/12 A2994 RMK T02500120 IEM_DS3505
ZGGG,1985-11-19 08:00,ZGGG 190800Z AUTO 33008KT 7SM 25/13 A2991 RMK T02500130 IEM_DS3505
ZGGG,1985-11-19 09:00,ZGGG 190900Z AUTO 34002KT 4SM 24/11 A2991 RMK SLP138 T02440110 57011 IEM_DS3505
ZGGG,1985-11-19 10:00,ZGGG 191000Z AUTO 00000KT 7SM 20/15 A2991 RMK T02000150 IEM_DS3505
ZGGG,1985-11-19 12:00,ZGGG 191200Z AUTO 00000KT 4SM 18/14 RMK SLP150 T01830141 52012 IEM_DS3505
ZGGG,1985-11-19 15:00,ZGGG 191500Z AUTO 11002KT 4SM 18/14 RMK SLP168 T01750143 52018 IEM_DS3505
ZGGG,1985-11-19 18:00,ZGGG 191800Z AUTO 00000KT 3SM 16/14 RMK SLP167 T01590139 40257//// 57001 IEM_DS3505
ZGGG,1985-11-20 00:00,ZGGG 200000Z AUTO 00000KT 3SM 16/15 RMK SLP178 T01610150 52012 IEM_DS3505
ZGGG,1985-11-20 03:00,ZGGG 200300Z AUTO 09006KT 5SM 22/16 RMK SLP175 T02250159 57003 IEM_DS3505
ZGGG,1985-11-20 06:00,ZGGG 200600Z AUTO 16006KT 7SM 25/13 RMK SLP145 T02500130 4////0149 57030 IEM_DS3505
ZGGG,1985-11-20 09:00,ZGGG 200900Z AUTO 18004KT 6SM 24/14 RMK SLP143 T02410144 57002 IEM_DS3505
ZGGG,1985-11-20 12:00,ZGGG 201200Z AUTO 16006KT 6SM 22/15 RMK SLP163 T02200153 52020 IEM_DS3505
ZGGG,1985-11-20 15:00,ZGGG 201500Z AUTO 00000KT 6SM 20/16 RMK SLP168 T01950156 52005 IEM_DS3505
ZGGG,1985-11-20 18:00,ZGGG 201800Z AUTO 09004KT 5SM 19/15 RMK SLP153 T01900154 40255//// 57015 IEM_DS3505
ZGGG,1985-11-20 21:00,ZGGG 202100Z AUTO 07004KT 5SM 19/16 RMK SLP140 T01940161 57013 IEM_DS3505
ZGGG,1985-11-21 00:00,ZGGG 210000Z AUTO 00000KT 5SM 20/17 RMK SLP156 T01970166 52016 IEM_DS3505
ZGGG,1985-11-21 03:00,ZGGG 210300Z AUTO 09008KT 6SM 22/18 RMK SLP150 T02220185 57006 IEM_DS3505
ZGGG,1985-11-21 06:00,ZGGG 210600Z AUTO 11008KT 5SM 24/20 RMK SLP118 T02350197 4////0181 57032 IEM_DS3505
ZGGG,1985-11-21 09:00,ZGGG 210900Z AUTO 09006KT 4SM 23/20 RMK SLP114 T02280199 57004 IEM_DS3505
ZGGG,1985-11-21 12:00,ZGGG 211200Z AUTO 11006KT 4SM 22/20 RMK SLP125 T02160200 52011 IEM_DS3505
ZGGG,1985-11-21 15:00,ZGGG 211500Z AUTO 09004KT 4SM 22/20 RMK SLP135 T02160200 52010 IEM_DS3505
ZGGG,1985-11-21 18:00,ZGGG 211800Z AUTO 00000KT 2 1/2SM 21/20 RMK 60000 SLP126 T02140202 40241//// 57009 IEM_DS3505
ZGGG,1985-11-21 21:00,ZGGG 212100Z AUTO 00000KT 4SM 22/20 RMK SLP113 T02150205 57013 IEM_DS3505
ZGGG,1985-11-22 00:00,ZGGG 220000Z AUTO 00000KT 2 1/2SM 22/21 RMK 60000 SLP130 T02200210 52017 IEM_DS3505
ZGGG,1985-11-22 03:00,ZGGG 220300Z AUTO 00000KT 2SM 24/22 RMK SLP132 T02400222 52002 IEM_DS3505
ZGGG,1985-11-22 06:00,ZGGG 220600Z AUTO 00000KT 2 1/2SM 24/22 RMK 60024 SLP106 T02390219 4////0211 57026 IEM_DS3505
ZGGG,1985-11-22 09:00,ZGGG 220900Z AUTO 14002KT 2 1/2SM 24/22 RMK SLP098 T02440223 57008 IEM_DS3505
ZGGG,1985-11-22 12:00,ZGGG 221200Z AUTO 00000KT 2 1/2SM 23/22 RMK 60002 SLP115 T02300220 52017 IEM_DS3505
ZGGG,1985-11-22 15:00,ZGGG 221500Z AUTO 00000KT 2 1/2SM 23/22 RMK SLP122 T02260219 52007 IEM_DS3505
ZGGG,1985-11-22 18:00,ZGGG 221800Z AUTO 00000KT 2 1/2SM 22/21 RMK 60004 SLP117 T02150211 40246//// 57005 IEM_DS3505
ZGGG,1985-11-22 21:00,ZGGG 222100Z AUTO 04002KT 4SM 22/21 RMK SLP115 T02210212 54000 IEM_DS3505
ZGGG,1985-11-23 00:00,ZGGG 230000Z AUTO 00000KT 2 1/2SM 22/21 RMK SLP124 T02150211 52012 IEM_DS3505
ZGGG,1985-11-23 03:00,ZGGG 230300Z AUTO 18002KT 5SM 27/22 A2988 RMK SLP121 T02670219 57003 IEM_DS3505
ZGGG,1985-11-23 04:00,ZGGG 230400Z AUTO 19004KT 7SM 27/21 A2985 RMK T02700210 IEM_DS3505
ZGGG,1985-11-23 05:00,ZGGG 230500Z AUTO 20004KT 3SM 27/22 A2983 RMK T02700220 IEM_DS3505
ZGGG,1985-11-23 06:00,ZGGG 230600Z AUTO 18004KT 5SM 28/22 A2980 RMK SLP097 T02810218 4////0205 57024 IEM_DS3505
ZGGG,1985-11-23 09:00,ZGGG 230900Z AUTO 00000KT 6SM 28/20 RMK SLP093 T02830197 57004 IEM_DS3505
ZGGG,1985-11-23 12:00,ZGGG 231200Z AUTO 00000KT 4SM 24/22 RMK SLP113 T02440220 52020 IEM_DS3505
ZGGG,1985-11-23 15:00,ZGGG 231500Z AUTO 34002KT 4SM 22/21 RMK SLP132 T02230212 52019 IEM_DS3505
ZGGG,1985-11-23 18:00,ZGGG 231800Z AUTO 36010KT 6SM 18/12 RMK SLP144 T01800122 40291//// 52012 IEM_DS3505
ZGGG,1985-11-23 21:00,ZGGG 232100Z AUTO 36016KT 6SM 17/09 RMK SLP161 T01670091 52017 IEM_DS3505
ZGGG,1985-11-24 00:00,ZGGG 240000Z AUTO 02012KT 9SM 15/09 RMK SLP202 T01510088 52041 IEM_DS3505
ZGGG,1985-11-24 03:00,ZGGG 240300Z AUTO 36012KT 12SM 17/08 RMK SLP215 T01740082 52013 IEM_DS3505
ZGGG,1985-11-24 06:00,ZGGG 240600Z AUTO 36014KT 12SM 20/08 RMK SLP184 T01960076 4////0149 57031 IEM_DS3505
ZGGG,1985-11-24 09:00,ZGGG 240900Z AUTO 36014KT 12SM 19/08 RMK SLP185 T01940075 52001 IEM_DS3505
ZGGG,1985-11-24 12:00,ZGGG 241200Z AUTO 02008KT 9SM 17/06 RMK SLP215 T01670062 52030 IEM_DS3505
ZGGG,1985-11-24 15:00,ZGGG 241500Z AUTO 02008KT 9SM 14/06 RMK SLP233 T01410063 52018 IEM_DS3505
ZGGG,1985-11-24 18:00,ZGGG 241800Z AUTO 36006KT 7SM 13/06 RMK SLP230 T01340063 40206//// 57003 IEM_DS3505
ZGGG,1985-11-24 21:00,ZGGG 242100Z AUTO 36008KT 7SM 13/06 RMK SLP227 T01340061 57003 IEM_DS3505
ZGGG,1985-11-25 00:00,ZGGG 250000Z AUTO 36004KT 9SM 14/06 RMK SLP235 T01380061 52008 IEM_DS3505
ZGGG,1985-11-25 03:00,ZGGG 250300Z AUTO 36004KT 9SM 16/07 RMK SLP234 T01600071 57001 IEM_DS3505
ZGGG,1985-11-25 06:00,ZGGG 250600Z AUTO 29002KT 9SM 18/08 RMK SLP198 T01850083 4////0129 57036 IEM_DS3505
ZGGG,1985-11-25 09:00,ZGGG 250900Z AUTO 00000KT 9SM 18/09 RMK SLP189 T01800092 57009 IEM_DS3505
ZGGG,1985-11-25 12:00,ZGGG 251200Z AUTO 18002KT 6SM 18/12 RMK SLP207 T01790115 52018 IEM_DS3505
ZGGG,1985-11-25 15:00,ZGGG 251500Z AUTO 00000KT 5SM 17/12 RMK SLP212 T01710124 52005 IEM_DS3505
ZGGG,1985-11-25 18:00,ZGGG 251800Z AUTO 00000KT 5SM 17/13 RMK SLP206 T01690131 40190//// 57006 IEM_DS3505
ZGGG,1985-11-25 21:00,ZGGG 252100Z AUTO 36002KT 4SM 17/12 RMK SLP205 T01710121 57001 IEM_DS3505
ZGGG,1985-11-26 00:00,ZGGG 260000Z AUTO 36002KT 5SM 18/12 RMK SLP213 T01770120 52008 IEM_DS3505
ZGGG,1985-11-26 02:00,ZGGG 260200Z AUTO 03008KT 6SM 20/13 A3015 RMK T02000130 IEM_DS3505
ZGGG,1985-11-26 03:00,ZGGG 260300Z AUTO 09002KT 6SM 22/13 A3012 RMK SLP211 T02170130 57002 IEM_DS3505
ZGGG,1985-11-26 04:00,ZGGG 260400Z AUTO 16006KT 6SM 23/14 A3012 RMK T02300140 IEM_DS3505
ZGGG,1985-11-26 06:00,ZGGG 260600Z AUTO 11004KT 6SM 23/14 A3003 RMK SLP178 T02340144 4////0167 57033 IEM_DS3505
ZGGG,1985-11-26 07:00,ZGGG 260700Z AUTO 15008KT 6SM 24/14 A3003 RMK T02400140 IEM_DS3505
ZGGG,1985-11-26 08:00,ZGGG 260800Z AUTO 17004KT 6SM 23/14 A3000 RMK T02300140 IEM_DS3505
ZGGG,1985-11-26 09:00,ZGGG 260900Z AUTO 14004KT 7SM 23/15 A3000 RMK SLP165 T02290146 57013 IEM_DS3505
ZGGG,1985-11-26 11:00,ZGGG 261100Z AUTO 00000KT 6SM 20/17 A3000 RMK T02000170 IEM_DS3505
ZGGG,1985-11-26 12:00,ZGGG 261200Z AUTO 00000KT 7SM 21/15 A3003 RMK SLP178 T02070154 52013 IEM_DS3505
ZGGG,1985-11-26 15:00,ZGGG 261500Z AUTO 00000KT 7SM 20/17 RMK SLP183 T02010166 52005 IEM_DS3505
ZGGG,1985-11-26 18:00,ZGGG 261800Z AUTO 00000KT 6SM 19/17 RMK SLP175 T01940168 40240//// 57008 IEM_DS3505
ZGGG,1985-11-26 21:00,ZGGG 262100Z AUTO 00000KT 6SM 20/16 RMK SLP172 T01980156 57003 IEM_DS3505
ZGGG,1985-11-27 00:00,ZGGG 270000Z AUTO 00000KT 5SM 20/17 RMK SLP186 T01960167 52014 IEM_DS3505
ZGGG,1985-11-27 03:00,ZGGG 270300Z AUTO 11006KT 5SM 24/17 RMK SLP191 T02380172 52005 IEM_DS3505
ZGGG,1985-11-27 06:00,ZGGG 270600Z AUTO 11004KT 7SM 26/18 RMK SLP165 T02550184 4////0187 57026 IEM_DS3505
ZGGG,1985-11-27 09:00,ZGGG 270900Z AUTO 16006KT 7SM 25/18 RMK SLP149 T02540183 57016 IEM_DS3505
ZGGG,1985-11-27 12:00,ZGGG 271200Z AUTO 00000KT 6SM 23/18 RMK SLP164 T02270184 52015 IEM_DS3505
ZGGG,1985-11-27 15:00,ZGGG 271500Z AUTO 00000KT 5SM 22/19 RMK SLP170 T02180187 52006 IEM_DS3505
ZGGG,1985-11-27 18:00,ZGGG 271800Z AUTO 00000KT 4SM 21/19 RMK SLP164 T02110186 40265//// 57006 IEM_DS3505
ZGGG,1985-11-27 21:00,ZGGG 272100Z AUTO 00000KT 4SM 20/18 RMK SLP161 T02010181 57003 IEM_DS3505
ZGGG,1985-11-28 00:00,ZGGG 280000Z AUTO 00000KT 4SM 20/18 RMK SLP181 T02010183 52020 IEM_DS3505
ZGGG,1985-11-28 03:00,ZGGG 280300Z AUTO 07002KT 5SM 26/19 RMK SLP192 T02590189 52011 IEM_DS3505
ZGGG,1985-11-28 06:00,ZGGG 280600Z AUTO 36006KT 5SM 25/17 RMK SLP168 T02500172 4////0197 57024 IEM_DS3505
ZGGG,1985-11-28 09:00,ZGGG 280900Z AUTO 32008KT 7SM 21/15 RMK SLP176 T02120151 52008 IEM_DS3505
ZGGG,1985-11-28 12:00,ZGGG 281200Z AUTO 36008KT 7SM 19/14 RMK SLP191 T01860136 52015 IEM_DS3505
ZGGG,1985-11-28 15:00,ZGGG 281500Z AUTO 36008KT 7SM 18/12 RMK SLP217 T01780121 52026 IEM_DS3505
ZGGG,1985-11-28 18:00,ZGGG 281800Z AUTO 36006KT 7SM 17/11 RMK SLP216 T01710109 40271//// 57001 IEM_DS3505
ZGGG,1985-11-28 21:00,ZGGG 282100Z AUTO 36006KT 7SM 16/10 RMK SLP220 T01590095 52004 IEM_DS3505
ZGGG,1985-11-29 00:00,ZGGG 290000Z AUTO 02006KT 7SM 15/09 RMK SLP240 T01470091 52020 IEM_DS3505
ZGGG,1985-11-29 03:00,ZGGG 290300Z AUTO 02006KT 6SM 16/09 RMK SLP250 T01590087 52010 IEM_DS3505
ZGGG,1985-11-29 06:00,ZGGG 290600Z AUTO 34008KT 7SM 17/09 RMK SLP217 T01700092 4////0145 57033 IEM_DS3505
ZGGG,1985-11-29 09:00,ZGGG 290900Z AUTO 02006KT 6SM 17/10 RMK SLP213 T01660100 57004 IEM_DS3505
ZGGG,1985-11-29 12:00,ZGGG 291200Z AUTO 34002KT 6SM 16/10 RMK SLP243 T01590103 52030 IEM_DS3505
ZGGG,1985-11-29 15:00,ZGGG 291500Z AUTO 36006KT 6SM 15/11 RMK SLP255 T01510106 52012 IEM_DS3505
ZGGG,1985-11-29 18:00,ZGGG 291800Z AUTO 36006KT 6SM 15/10 RMK 60002 SLP249 T01460102 40175//// 57006 IEM_DS3505
ZGGG,1985-11-29 21:00,ZGGG 292100Z AUTO 02010KT 6SM 14/09 RMK SLP249 T01400093 54000 IEM_DS3505
ZGGG,1985-11-30 00:00,ZGGG 300000Z AUTO 34004KT 9SM 14/08 RMK SLP261 T01380083 52012 IEM_DS3505
ZGGG,1985-11-30 02:00,ZGGG 300200Z AUTO 36016KT 6SM 16/06 A3030 RMK T01600060 IEM_DS3505
ZGGG,1985-11-30 03:00,ZGGG 300300Z AUTO 36008KT 7SM 17/06 A3030 RMK SLP260 T01730065 57001 IEM_DS3505
ZGGG,1985-11-30 04:00,ZGGG 300400Z AUTO 01016KT 6SM 17/06 A3027 RMK T01700060 IEM_DS3505
ZGGG,1985-11-30 05:00,ZGGG 300500Z AUTO 01012KT 6SM 19/07 A3021 RMK T01900070 IEM_DS3505
ZGGG,1985-11-30 06:00,ZGGG 300600Z AUTO 36006KT 7SM 20/06 A3018 RMK SLP219 T02010064 4////0136 57041 IEM_DS3505
ZGGG,1985-11-30 08:00,ZGGG 300800Z AUTO 36012KT 6SM 20/07 A3012 RMK T02000070 IEM_DS3505
ZGGG,1985-11-30 09:00,ZGGG 300900Z AUTO 36004KT 7SM 20/06 A3012 RMK SLP209 T02030059 57010 IEM_DS3505
ZGGG,1985-11-30 11:00,ZGGG 301100Z AUTO 01006KT 6SM 17/09 A3015 RMK T01700090 IEM_DS3505
ZGGG,1985-11-30 12:00,ZGGG 301200Z AUTO 36002KT 7SM 17/07 A3018 RMK SLP227 T01710072 52018 IEM_DS3505
ZGGG,1985-11-30 15:00,ZGGG 301500Z AUTO 34004KT 7SM 16/07 RMK SLP233 T01640067 52006 IEM_DS3505
ZGGG,1985-11-30 18:00,ZGGG 301800Z AUTO 02006KT 6SM 15/05 RMK SLP225 T01540054 40210//// 57008 IEM_DS3505
ZGGG,1985-11-30 21:00,ZGGG 302100Z AUTO 36006KT 6SM 14/04 RMK SLP219 T01410044 57006 IEM_DS3505
ZGGG,1985-12-01 00:00,ZGGG 010000Z AUTO 36004KT 8SM 14/05 RMK SLP239 T01440048 52020 IEM_DS3505
ZGGG,1985-12-01 03:00,ZGGG 010300Z AUTO 04004KT 10SM 19/06 RMK SLP240 T01900060 52001 IEM_DS3505
ZGGG,1985-12-01 06:00,ZGGG 010600Z AUTO 00000KT 9SM 22/07 RMK SLP209 T02210073 4////0138 57031 IEM_DS3505
ZGGG,1985-12-01 09:00,ZGGG 010900Z AUTO 00000KT 9SM 22/08 RMK SLP201 T02200079 57008 IEM_DS3505
ZGGG,1985-12-01 12:00,ZGGG 011200Z AUTO 36006KT 7SM 18/08 RMK SLP217 T01830081 52016 IEM_DS3505
ZGGG,1985-12-01 15:00,ZGGG 011500Z AUTO 34004KT 6SM 17/09 RMK SLP228 T01710089 52011 IEM_DS3505
ZGGG,1985-12-01 18:00,ZGGG 011800Z AUTO 02008KT 7SM 17/07 RMK SLP222 T01710074 40225//// 57006 IEM_DS3505
ZGGG,1985-12-01 21:00,ZGGG 012100Z AUTO 02004KT 7SM 16/04 RMK SLP224 T01600037 52002 IEM_DS3505
ZGGG,1985-12-02 00:00,ZGGG 020000Z AUTO 36004KT 7SM 16/04 RMK SLP233 T01600035 52009 IEM_DS3505
ZGGG,1985-12-02 03:00,ZGGG 020300Z AUTO 32004KT 7SM 19/05 RMK SLP237 T01920053 52004 IEM_DS3505
ZGGG,1985-12-02 06:00,ZGGG 020600Z AUTO 02004KT 9SM 23/07 RMK SLP199 T02280066 4////0146 57038 IEM_DS3505
ZGGG,1985-12-02 09:00,ZGGG 020900Z AUTO 29004KT 9SM 23/07 RMK SLP191 T02320070 57008 IEM_DS3505
ZGGG,1985-12-02 12:00,ZGGG 021200Z AUTO 00000KT 7SM 18/11 RMK SLP206 T01770109 52015 IEM_DS3505
ZGGG,1985-12-02 15:00,ZGGG 021500Z AUTO 00000KT 7SM 16/12 RMK SLP214 T01560119 52008 IEM_DS3505
ZGGG,1985-12-02 18:00,ZGGG 021800Z AUTO 00000KT 6SM 14/11 RMK SLP207 T01430106 40239//// 57007 IEM_DS3505
ZGGG,1985-12-02 21:00,ZGGG 022100Z AUTO 00000KT 6SM 14/11 RMK SLP206 T01390113 57001 IEM_DS3505
ZGGG,1985-12-03 00:00,ZGGG 030000Z AUTO 00000KT 4SM 16/13 RMK SLP219 T01630133 52013 IEM_DS3505
ZGGG,1985-12-03 03:00,ZGGG 030300Z AUTO 09006KT 7SM 22/15 RMK SLP214 T02170146 57005 IEM_DS3505
ZGGG,1985-12-03 06:00,ZGGG 030600Z AUTO 18004KT 7SM 26/15 RMK SLP179 T02580148 4////0137 57035 IEM_DS3505
ZGGG,1985-12-03 09:00,ZGGG 030900Z AUTO 00000KT 6SM 25/13 RMK SLP175 T02520131 57004 IEM_DS3505
ZGGG,1985-12-03 12:00,ZGGG 031200Z AUTO 00000KT 6SM 20/16 RMK SLP187 T02040156 52012 IEM_DS3505
ZGGG,1985-12-03 15:00,ZGGG 031500Z AUTO 00000KT 5SM 19/16 RMK SLP195 T01860155 52008 IEM_DS3505
ZGGG,1985-12-03 18:00,ZGGG 031800Z AUTO 00000KT 5SM 19/16 RMK SLP192 T01930159 40260//// 57003 IEM_DS3505
ZGGG,1985-12-03 21:00,ZGGG 032100Z AUTO 00000KT 5SM 19/16 RMK SLP181 T01920159 57011 IEM_DS3505
ZGGG,1985-12-04 00:00,ZGGG 040000Z AUTO 00000KT 7SM 19/16 RMK SLP192 T01930159 52011 IEM_DS3505
ZGGG,1985-12-04 03:00,ZGGG 040300Z AUTO 00000KT 7SM 25/14 RMK SLP191 T02540143 57001 IEM_DS3505
ZGGG,1985-12-04 06:00,ZGGG 040600Z AUTO 09004KT 7SM 28/16 RMK SLP160 T02760159 4////0180 57031 IEM_DS3505
ZGGG,1985-12-04 09:00,ZGGG 040900Z AUTO 00000KT 6SM 27/16 RMK SLP155 T02700165 57005 IEM_DS3505
ZGGG,1985-12-04 12:00,ZGGG 041200Z AUTO 00000KT 4SM 24/18 RMK SLP166 T02400185 52011 IEM_DS3505
ZGGG,1985-12-04 15:00,ZGGG 041500Z AUTO 00000KT 4SM 23/19 RMK SLP173 T02320192 52007 IEM_DS3505
ZGGG,1985-12-04 18:00,ZGGG 041800Z AUTO 00000KT 4SM 22/19 RMK SLP166 T02230191 40283//// 57007 IEM_DS3505
ZGGG,1985-12-04 21:00,ZGGG 042100Z AUTO 36004KT 4SM 21/18 RMK SLP158 T02140180 57008 IEM_DS3505
ZGGG,1985-12-05 00:00,ZGGG 050000Z AUTO 00000KT 2 1/2SM 21/19 RMK SLP181 T02130194 52023 IEM_DS3505
ZGGG,1985-12-05 03:00,ZGGG 050300Z AUTO 00000KT 4SM 23/18 RMK SLP185 T02260180 52004 IEM_DS3505
ZGGG,1985-12-05 06:00,ZGGG 050600Z AUTO 00000KT 4SM 23/18 RMK 60001 SLP159 T02280185 4////0207 57026 IEM_DS3505
ZGGG,1985-12-05 09:00,ZGGG 050900Z AUTO 36002KT 3SM 21/18 RMK SLP153 T02140184 57006 IEM_DS3505
ZGGG,1985-12-05 12:00,ZGGG 051200Z AUTO 02004KT 4SM 21/18 RMK 60000 SLP162 T02100185 52009 IEM_DS3505
ZGGG,1985-12-05 15:00,ZGGG 051500Z AUTO 02004KT 4SM 21/17 RMK SLP164 T02060168 52002 IEM_DS3505
ZGGG,1985-12-05 18:00,ZGGG 051800Z AUTO 02004KT 7SM 20/16 RMK SLP160 T02020163 40232//// 57004 IEM_DS3505
ZGGG,1985-12-05 21:00,ZGGG 052100Z AUTO 36006KT 7SM 19/15 RMK SLP154 T01900154 57006 IEM_DS3505
ZGGG,1985-12-06 00:00,ZGGG 060000Z AUTO 34004KT 5SM 18/15 RMK SLP171 T01820152 52017 IEM_DS3505
ZGGG,1985-12-06 03:00,ZGGG 060300Z AUTO 36008KT 5SM 22/16 RMK SLP172 T02240161 52001 IEM_DS3505
ZGGG,1985-12-06 06:00,ZGGG 060600Z AUTO 36010KT 9SM 24/16 RMK SLP145 T02440156 4////0165 57027 IEM_DS3505
ZGGG,1985-12-06 09:00,ZGGG 060900Z AUTO 04010KT 9SM 23/14 RMK SLP143 T02320136 57002 IEM_DS3505
ZGGG,1985-12-06 12:00,ZGGG 061200Z AUTO 07008KT 7SM 20/14 RMK SLP172 T02000135 52029 IEM_DS3505
ZGGG,1985-12-06 15:00,ZGGG 061500Z AUTO 02004KT 7SM 18/12 RMK SLP182 T01800123 52010 IEM_DS3505
ZGGG,1985-12-06 18:00,ZGGG 061800Z AUTO 00000KT 6SM 16/12 RMK SLP174 T01610122 40252//// 57008 IEM_DS3505
ZGGG,1985-12-06 21:00,ZGGG 062100Z AUTO 34004KT 6SM 16/11 RMK SLP165 T01610113 57009 IEM_DS3505
ZGGG,1985-12-07 02:00,ZGGG 070200Z AUTO 01008KT 6SM 18/12 A3009 RMK T01800120 IEM_DS3505
ZGGG,1985-12-07 03:00,ZGGG 070300Z AUTO 34004KT 6SM 20/11 A3006 RMK SLP190 T02040114 52008 IEM_DS3505
ZGGG,1985-12-07 04:00,ZGGG 070400Z AUTO 36006KT 5SM RMK IEM_DS3505
ZGGG,1985-12-07 05:00,ZGGG 070500Z AUTO 02010KT 6SM 21/11 A3003 RMK T02100110 IEM_DS3505
ZGGG,1985-12-07 06:00,ZGGG 070600Z AUTO 36004KT 9SM 22/11 A3000 RMK SLP160 T02230111 57030 IEM_DS3505
ZGGG,1985-12-07 09:00,ZGGG 070900Z AUTO 02004KT 9SM 22/10 RMK SLP167 T02190104 52007 IEM_DS3505
ZGGG,1985-12-07 12:00,ZGGG 071200Z AUTO 02004KT 9SM 19/10 RMK SLP187 T01860104 52020 IEM_DS3505
ZGGG,1985-12-07 15:00,ZGGG 071500Z AUTO 02012KT 6SM 16/09 RMK SLP205 T01590087 52018 IEM_DS3505
ZGGG,1985-12-07 18:00,ZGGG 071800Z AUTO 00000KT 6SM 14/08 RMK SLP200 T01450079 40233//// 57005 IEM_DS3505
ZGGG,1985-12-07 21:00,ZGGG 072100Z AUTO 00000KT 5SM 13/08 RMK SLP189 T01290079 57011 IEM_DS3505
ZGGG,1985-12-08 00:00,ZGGG 080000Z AUTO 02004KT 6SM 13/08 RMK SLP201 T01330075 52012 IEM_DS3505
ZGGG,1985-12-08 03:00,ZGGG 080300Z AUTO 04004KT 9SM 18/08 RMK SLP207 T01800083 52006 IEM_DS3505
ZGGG,1985-12-08 06:00,ZGGG 080600Z AUTO 04008KT 10SM 21/09 RMK SLP165 T02130090 4////0125 57042 IEM_DS3505
ZGGG,1985-12-08 09:00,ZGGG 080900Z AUTO 02010KT 9SM 21/09 RMK SLP156 T02060091 57009 IEM_DS3505
ZGGG,1985-12-08 12:00,ZGGG 081200Z AUTO 02004KT 7SM 17/09 RMK SLP178 T01660094 52022 IEM_DS3505
ZGGG,1985-12-08 15:00,ZGGG 081500Z AUTO 02004KT 6SM 14/09 RMK SLP190 T01420090 52012 IEM_DS3505
ZGGG,1985-12-08 18:00,ZGGG 081800Z AUTO 02004KT 6SM 13/09 RMK SLP187 T01280088 40218//// 57003 IEM_DS3505
ZGGG,1985-12-08 21:00,ZGGG 082100Z AUTO 09002KT 6SM 14/09 RMK SLP181 T01370086 57006 IEM_DS3505
ZGGG,1985-12-09 00:00,ZGGG 090000Z AUTO 04004KT 5SM 14/10 RMK SLP194 T01390104 52013 IEM_DS3505
ZGGG,1985-12-09 03:00,ZGGG 090300Z AUTO 36002KT 5SM 16/09 RMK SLP190 T01620089 57004 IEM_DS3505
ZGGG,1985-12-09 06:00,ZGGG 090600Z AUTO 18002KT 7SM 21/12 RMK SLP152 T02060118 4////0122 57038 IEM_DS3505
ZGGG,1985-12-09 09:00,ZGGG 090900Z AUTO 00000KT 6SM 19/11 RMK SLP143 T01940113 57009 IEM_DS3505
ZGGG,1985-12-09 12:00,ZGGG 091200Z AUTO 36004KT 6SM 18/10 RMK SLP155 T01760105 52012 IEM_DS3505
ZGGG,1985-12-09 15:00,ZGGG 091500Z AUTO 00000KT 5SM 17/11 RMK SLP168 T01710113 52013 IEM_DS3505
ZGGG,1985-12-09 18:00,ZGGG 091800Z AUTO 04002KT 6SM 17/12 RMK SLP159 T01710117 40208//// 57009 IEM_DS3505
ZGGG,1985-12-09 21:00,ZGGG 092100Z AUTO 04004KT 6SM 16/11 RMK SLP150 T01580108 57009 IEM_DS3505
ZGGG,1985-12-10 00:00,ZGGG 100000Z AUTO 36004KT 4SM 13/12 RMK 60004 SLP180 T01290115 52030 IEM_DS3505
ZGGG,1985-12-10 03:00,ZGGG 100300Z AUTO 36008KT 5SM 13/11 RMK SLP184 T01330112 52004 IEM_DS3505
ZGGG,1985-12-10 06:00,ZGGG 100600Z AUTO 36006KT 6SM 14/12 RMK 60001 SLP159 T01450116 4////0128 57025 IEM_DS3505
ZGGG,1985-12-10 09:00,ZGGG 100900Z AUTO 32008KT 6SM 13/10 RMK SLP158 T01330099 52001 IEM_DS3505
ZGGG,1985-12-10 12:00,ZGGG 101200Z AUTO 36008KT 6SM 10/10 RMK 60002 SLP183 T01050096 52025 IEM_DS3505
ZGGG,1985-12-10 15:00,ZGGG 101500Z AUTO 34008KT 6SM 08/07 RMK SLP206 T00850073 52023 IEM_DS3505
ZGGG,1985-12-10 18:00,ZGGG 101800Z AUTO 02008KT 6SM 07/05 RMK 60012 SLP215 T00680052 40171//// 52009 IEM_DS3505
ZGGG,1985-12-10 21:00,ZGGG 102100Z AUTO 36010KT 6SM 06/04 RMK SLP223 T00610044 52008 IEM_DS3505
ZGGG,1985-12-11 00:00,ZGGG 110000Z AUTO 36008KT 12SM 06/04 RMK 60004 SLP239 T00650035 52016 IEM_DS3505
ZGGG,1985-12-11 03:00,ZGGG 110300Z AUTO 36006KT 7SM 07/04 RMK SLP253 T00730035 52014 IEM_DS3505
ZGGG,1985-12-11 06:00,ZGGG 110600Z AUTO 02004KT 12SM 08/04 RMK 60001 SLP231 T00850037 4////0058 57022 IEM_DS3505
ZGGG,1985-12-11 09:00,ZGGG 110900Z AUTO 36006KT 10SM 09/03 RMK SLP226 T00920033 57005 IEM_DS3505
ZGGG,1985-12-11 12:00,ZGGG 111200Z AUTO 36006KT 6SM 08/02 RMK SLP239 T00790022 52013 IEM_DS3505
ZGGG,1985-12-11 15:00,ZGGG 111500Z AUTO 02006KT 6SM 07/02 RMK SLP252 T00690015 52013 IEM_DS3505
ZGGG,1985-12-11 18:00,ZGGG 111800Z AUTO 36004KT 7SM 07/01 RMK SLP254 T00660006 40098//// 52002 IEM_DS3505
ZGGG,1985-12-11 21:00,ZGGG 112100Z AUTO 36008KT 7SM 06/M01 RMK SLP250 T00641007 57004 IEM_DS3505
ZGGG,1985-12-12 00:00,ZGGG 120000Z AUTO 02006KT 9SM 06/M01 RMK SLP258 T00651009 52008 IEM_DS3505
ZGGG,1985-12-12 03:00,ZGGG 120300Z AUTO 34008KT 11SM 09/M01 RMK SLP266 T00911012 52008 IEM_DS3505
ZGGG,1985-12-12 06:00,ZGGG 120600Z AUTO 36010KT 9SM 12/M01 RMK SLP228 T01191013 4////0064 57038 IEM_DS3505
ZGGG,1985-12-12 09:00,ZGGG 120900Z AUTO 34006KT 9SM 13/M01 RMK SLP210 T01291007 IEM_DS3505
ZGGG,1985-12-12 12:00,ZGGG 121200Z AUTO 36004KT 7SM 10/00 RMK SLP221 T00970005 52011 IEM_DS3505
ZGGG,1985-12-12 15:00,ZGGG 121500Z AUTO 02004KT 7SM 09/01 RMK SLP228 T00870006 52007 IEM_DS3505
ZGGG,1985-12-12 18:00,ZGGG 121800Z AUTO 36004KT 8SM 07/M00 RMK SLP228 T00731004 40138//// 54000 IEM_DS3505
ZGGG,1985-12-12 21:00,ZGGG 122100Z AUTO 36004KT 9SM 07/M02 RMK SLP223 T00731025 57005 IEM_DS3505
ZGGG,1985-12-13 00:00,ZGGG 130000Z AUTO 34004KT 9SM 06/M03 RMK SLP232 T00651030 52009 IEM_DS3505
ZGGG,1985-12-13 03:00,ZGGG 130300Z AUTO 09002KT 9SM 11/00 RMK SLP229 T01140001 57003 IEM_DS3505
ZGGG,1985-12-13 06:00,ZGGG 130600Z AUTO 34004KT 9SM 15/01 RMK SLP191 T01520011 4////0058 57038 IEM_DS3505
ZGGG,1985-12-13 09:00,ZGGG 130900Z AUTO 29004KT 8SM 15/03 RMK SLP179 T01520026 57012 IEM_DS3505
ZGGG,1985-12-13 12:00,ZGGG 131200Z AUTO 00000KT 7SM 11/05 RMK SLP197 T01090051 52018 IEM_DS3505
ZGGG,1985-12-13 15:00,ZGGG 131500Z AUTO 00000KT 7SM 09/05 RMK SLP219 T00900054 52022 IEM_DS3505
ZGGG,1985-12-13 18:00,ZGGG 131800Z AUTO 00000KT 6SM 09/05 RMK SLP225 T00910053 40162//// 52006 IEM_DS3505
ZGGG,1985-12-13 21:00,ZGGG 132100Z AUTO 36006KT 6SM 11/03 RMK SLP228 T01070027 52003 IEM_DS3505
ZGGG,1985-12-14 00:00,ZGGG 140000Z AUTO 36006KT 8SM 11/02 RMK SLP240 T01060015 52012 IEM_DS3505
ZGGG,1985-12-14 03:00,ZGGG 140300Z AUTO 36010KT 8SM 16/M03 RMK SLP248 T01601032 52008 IEM_DS3505
ZGGG,1985-12-14 06:00,ZGGG 140600Z AUTO 02006KT 9SM 18/M05 RMK SLP219 T01811048 4////0089 57029 IEM_DS3505
ZGGG,1985-12-14 09:00,ZGGG 140900Z AUTO 04006KT 9SM 18/M04 RMK SLP218 T01771045 57001 IEM_DS3505
ZGGG,1985-12-14 12:00,ZGGG 141200Z AUTO 02006KT 7SM 14/M03 RMK SLP245 T01381033 52027 IEM_DS3505
ZGGG,1985-12-14 15:00,ZGGG 141500Z AUTO 02010KT 7SM RMK SLP267 52022 IEM_DS3505
ZGGG,1985-12-14 18:00,ZGGG 141800Z AUTO 02014KT 7SM 12/M07 RMK SLP256 T01191070 57011 IEM_DS3505
ZGGG,1985-12-14 21:00,ZGGG 142100Z AUTO 36006KT 7SM 10/M04 RMK SLP253 T00991039 57003 IEM_DS3505
ZGGG,1985-12-15 00:00,ZGGG 150000Z AUTO 36006KT 8SM 10/M04 RMK SLP276 T00971036 52023 IEM_DS3505
ZGGG,1985-12-15 03:00,ZGGG 150300Z AUTO 02010KT 9SM 14/M06 RMK SLP278 T01381056 52002 IEM_DS3505
ZGGG,1985-12-15 06:00,ZGGG 150600Z AUTO 02010KT 9SM 15/M10 RMK SLP247 T01531097 4////0088 57031 IEM_DS3505
ZGGG,1985-12-15 09:00,ZGGG 150900Z AUTO 02012KT 9SM 15/M10 RMK SLP234 T01531099 57013 IEM_DS3505
ZGGG,1985-12-15 12:00,ZGGG 151200Z AUTO 04004KT 9SM 12/M08 RMK SLP255 T01241078 52021 IEM_DS3505
ZGGG,1985-12-15 15:00,ZGGG 151500Z AUTO 36004KT 7SM 10/M07 RMK SLP266 T01021074 52011 IEM_DS3505
ZGGG,1985-12-15 18:00,ZGGG 151800Z AUTO 32002KT 7SM 07/M06 RMK SLP265 T00721063 40165//// 57001 IEM_DS3505
ZGGG,1985-12-15 21:00,ZGGG 152100Z AUTO 34004KT 7SM 06/M08 RMK SLP254 T00591078 57011 IEM_DS3505
ZGGG,1985-12-16 00:00,ZGGG 160000Z AUTO 00000KT 7SM 05/M02 RMK SLP273 T00471021 52019 IEM_DS3505
ZGGG,1985-12-16 03:00,ZGGG 160300Z AUTO 34008KT 7SM 12/M08 RMK SLP277 T01151079 52004 IEM_DS3505
ZGGG,1985-12-16 06:00,ZGGG 160600Z AUTO 02006KT 11SM 15/M08 RMK SLP240 T01531083 4////0031 57037 IEM_DS3505
ZGGG,1985-12-16 09:00,ZGGG 160900Z AUTO 02004KT 11SM 15/M08 RMK SLP232 T01521080 57008 IEM_DS3505
ZGGG,1985-12-16 12:00,ZGGG 161200Z AUTO 34004KT 3SM 08/00 RMK SLP241 T00850001 52009 IEM_DS3505
ZGGG,1985-12-16 15:00,ZGGG 161500Z AUTO 36004KT 7SM 06/01 RMK SLP249 T00640007 52008 IEM_DS3505
ZGGG,1985-12-16 18:00,ZGGG 161800Z AUTO 02004KT 6SM 06/M03 RMK SLP235 T00641029 40158//// 57014 IEM_DS3505
ZGGG,1985-12-16 21:00,ZGGG 162100Z AUTO 00000KT 6SM 05/M05 RMK SLP230 T00461052 57005 IEM_DS3505
ZGGG,1985-12-17 00:00,ZGGG 170000Z AUTO 00000KT 7SM 04/M02 RMK SLP248 T00401024 52018 IEM_DS3505
ZGGG,1985-12-17 03:00,ZGGG 170300Z AUTO 09006KT 9SM 13/M07 RMK SLP249 T01261073 52001 IEM_DS3505
ZGGG,1985-12-17 04:00,ZGGG 170400Z AUTO 32006KT 7SM 15/M02 A3021 RMK T01501020 IEM_DS3505
ZGGG,1985-12-17 05:00,ZGGG 170500Z AUTO 31008KT 7SM 15/M04 A3018 RMK T01501040 IEM_DS3505
ZGGG,1985-12-17 06:00,ZGGG 170600Z AUTO 14004KT 11SM 17/M07 A3012 RMK SLP210 T01671068 4////0029 57039 IEM_DS3505
ZGGG,1985-12-17 07:00,ZGGG 170700Z AUTO 00000KT 7SM 17/M02 A3009 RMK T01701020 IEM_DS3505
ZGGG,1985-12-17 08:00,ZGGG 170800Z AUTO 06006KT 7SM 17/01 A3009 RMK T01700010 IEM_DS3505
ZGGG,1985-12-17 09:00,ZGGG 170900Z AUTO 14004KT 11SM 17/M07 A3009 RMK SLP210 T01671068 57039 IEM_DS3505
ZGGG,1985-12-17 10:00,ZGGG 171000Z AUTO 00000KT 7SM 12/05 A3009 RMK T01200050 IEM_DS3505
ZGGG,1985-12-17 12:00,ZGGG 171200Z AUTO 00000KT 6SM 10/02 RMK SLP221 T01030019 52021 IEM_DS3505
ZGGG,1985-12-17 15:00,ZGGG 171500Z AUTO 00000KT 6SM 08/03 RMK SLP227 T00750030 52006 IEM_DS3505
ZGGG,1985-12-17 18:00,ZGGG 171800Z AUTO 00000KT 6SM 07/03 RMK SLP221 T00740029 40171//// 57006 IEM_DS3505
ZGGG,1985-12-17 21:00,ZGGG 172100Z AUTO 00000KT 5SM 06/03 RMK SLP212 T00640029 57009 IEM_DS3505
ZGGG,1985-12-18 00:00,ZGGG 180000Z AUTO 00000KT 6SM 08/03 RMK SLP227 T00790030 52015 IEM_DS3505
ZGGG,1985-12-18 03:00,ZGGG 180300Z AUTO 00000KT 2 1/2SM 12/05 RMK SLP224 T01240049 57003 IEM_DS3505
ZGGG,1985-12-18 06:00,ZGGG 180600Z AUTO 22002KT 5SM 14/03 RMK SLP200 T01450026 4////0063 57024 IEM_DS3505
ZGGG,1985-12-18 09:00,ZGGG 180900Z AUTO 00000KT 5SM 15/03 RMK SLP200 T01490027 54000 IEM_DS3505
ZGGG,1985-12-18 12:00,ZGGG 181200Z AUTO 34002KT 2 1/2SM 10/05 RMK SLP212 T00970046 52012 IEM_DS3505
ZGGG,1985-12-18 15:00,ZGGG 181500Z AUTO 32002KT 2 1/2SM 08/05 RMK SLP216 T00830053 52004 IEM_DS3505
ZGGG,1985-12-18 18:00,ZGGG 181800Z AUTO 02004KT 5SM 12/00 RMK SLP217 T01180001 40155//// 52001 IEM_DS3505
ZGGG,1985-12-18 21:00,ZGGG 182100Z AUTO 02006KT 7SM 12/M04 RMK SLP215 T01221036 57002 IEM_DS3505
ZGGG,1985-12-19 00:00,ZGGG 190000Z AUTO 02008KT 7SM 12/M06 RMK SLP234 T01221055 52019 IEM_DS3505
ZGGG,1985-12-19 03:00,ZGGG 190300Z AUTO 34006KT 7SM 13/ RMK SLP242 52008 IEM_DS3505
ZGGG,1985-12-19 06:00,ZGGG 190600Z AUTO 02008KT 7SM 16/M05 RMK SLP214 T01611046 4////0081 57028 IEM_DS3505
ZGGG,1985-12-19 09:00,ZGGG 190900Z AUTO 36006KT 7SM 16/M04 RMK SLP216 T01551038 52002 IEM_DS3505
ZGGG,1985-12-19 12:00,ZGGG 191200Z AUTO 02006KT 6SM 14/M02 RMK SLP236 T01391024 52020 IEM_DS3505
ZGGG,1985-12-19 15:00,ZGGG 191500Z AUTO 04006KT 7SM 13/M03 RMK SLP250 T01291031 52014 IEM_DS3505
ZGGG,1985-12-19 18:00,ZGGG 191800Z AUTO 02006KT 6SM 12/M05 RMK SLP250 T01201051 40164//// 54000 IEM_DS3505
ZGGG,1985-12-19 21:00,ZGGG 192100Z AUTO 02006KT 6SM 10/M03 RMK SLP252 T01031029 52002 IEM_DS3505
ZGGG,1985-12-20 00:00,ZGGG 200000Z AUTO 36008KT 6SM 10/M03 RMK SLP267 T01021027 52015 IEM_DS3505
ZGGG,1985-12-20 03:00,ZGGG 200300Z AUTO 36004KT 6SM 15/M01 RMK SLP267 T01491006 54000 IEM_DS3505
ZGGG,1985-12-20 06:00,ZGGG 200600Z AUTO 34004KT 6SM 18/01 RMK SLP237 T01810007 4////0100 57030 IEM_DS3505
ZGGG,1985-12-20 09:00,ZGGG 200900Z AUTO 34004KT 6SM 18/03 RMK SLP230 T01820030 57007 IEM_DS3505
ZGGG,1985-12-20 12:00,ZGGG 201200Z AUTO 36004KT 4SM 13/05 RMK SLP251 T01300047 52021 IEM_DS3505
ZGGG,1985-12-20 15:00,ZGGG 201500Z AUTO 04004KT 4SM 12/04 RMK SLP256 T01170035 52005 IEM_DS3505
ZGGG,1985-12-20 18:00,ZGGG 201800Z AUTO 00000KT 4SM 10/04 RMK SLP247 T00990039 40188//// 57009 IEM_DS3505
ZGGG,1985-12-20 21:00,ZGGG 202100Z AUTO 00000KT 4SM 09/04 RMK SLP239 T00900045 57008 IEM_DS3505
ZGGG,1985-12-21 00:00,ZGGG 210000Z AUTO 36002KT 5SM 03/03 RMK SLP265 T00290029 52026 IEM_DS3505
ZGGG,1985-12-21 02:00,ZGGG 210200Z AUTO 01010KT 4SM 12/04 A3033 RMK T01200040 IEM_DS3505
ZGGG,1985-12-21 03:00,ZGGG 210300Z AUTO 36006KT 5SM 15/02 A3033 RMK SLP277 T01530021 52012 IEM_DS3505
ZGGG,1985-12-21 04:00,ZGGG 210400Z AUTO 03010KT 3SM 15/04 A3033 RMK T01500040 IEM_DS3505
ZGGG,1985-12-21 05:00,ZGGG 210500Z AUTO 03010KT 4SM 17/05 A3024 RMK T01700050 IEM_DS3505
ZGGG,1985-12-21 06:00,ZGGG 210600Z AUTO 34002KT 6SM 19/03 RMK SLP238 T01860030 4////0084 57039 IEM_DS3505
ZGGG,1985-12-21 09:00,ZGGG 210900Z AUTO 34004KT 5SM 19/04 RMK SLP236 T01940035 57002 IEM_DS3505
ZGGG,1985-12-21 12:00,ZGGG 211200Z AUTO 00000KT 5SM 16/03 RMK SLP250 T01590033 52014 IEM_DS3505
ZGGG,1985-12-21 15:00,ZGGG 211500Z AUTO 04002KT 4SM 14/04 RMK SLP256 T01400040 52006 IEM_DS3505
ZGGG,1985-12-21 18:00,ZGGG 211800Z AUTO 34006KT 6SM 11/04 RMK SLP255 T01090039 40202//// 57001 IEM_DS3505
ZGGG,1985-12-21 21:00,ZGGG 212100Z AUTO 34002KT 5SM 09/03 RMK SLP253 T00880033 57002 IEM_DS3505
ZGGG,1985-12-22 00:00,ZGGG 220000Z AUTO 22002KT 4SM 08/02 RMK T00810025 52014 IEM_DS3505
ZGGG,1985-12-22 03:00,ZGGG 220300Z AUTO 02008KT 4SM 12/02 RMK SLP273 T01230019 57004 IEM_DS3505
ZGGG,1985-12-22 06:00,ZGGG 220600Z AUTO 02008KT 4SM 16/02 RMK SLP238 T01560023 4////0078 57035 IEM_DS3505
ZGGG,1985-12-22 09:00,ZGGG 220900Z AUTO 36006KT 4SM 15/03 RMK SLP227 T01540026 57011 IEM_DS3505
ZGGG,1985-12-22 12:00,ZGGG 221200Z AUTO 36006KT 4SM 12/03 RMK SLP244 T01210032 52017 IEM_DS3505
ZGGG,1985-12-22 15:00,ZGGG 221500Z AUTO 36008KT 5SM 11/03 RMK SLP258 T01070029 52014 IEM_DS3505
ZGGG,1985-12-22 18:00,ZGGG 221800Z AUTO 36004KT 4SM 08/02 RMK SLP263 T00850019 40168//// 52005 IEM_DS3505
ZGGG,1985-12-22 21:00,ZGGG 222100Z AUTO 34004KT 4SM 06/01 RMK SLP262 T00640014 57001 IEM_DS3505
ZGGG,1985-12-23 00:00,ZGGG 230000Z AUTO 36004KT 5SM 06/01 RMK SLP273 T00590008 52011 IEM_DS3505
ZGGG,1985-12-23 03:00,ZGGG 230300Z AUTO 36010KT 5SM 11/M00 RMK SLP283 T01131001 52010 IEM_DS3505
ZGGG,1985-12-23 06:00,ZGGG 230600Z AUTO 02006KT 7SM 17/M03 RMK SLP247 T01691033 4////0055 57036 IEM_DS3505
ZGGG,1985-12-23 09:00,ZGGG 230900Z AUTO 02006KT 7SM 19/M04 RMK T01861041 57011 IEM_DS3505
ZGGG,1985-12-23 12:00,ZGGG 231200Z AUTO 02004KT 6SM 14/M01 RMK SLP263 T01411013 52027 IEM_DS3505
ZGGG,1985-12-23 15:00,ZGGG 231500Z AUTO 36006KT 6SM 12/M05 RMK SLP268 T01251046 52005 IEM_DS3505
ZGGG,1985-12-23 18:00,ZGGG 231800Z AUTO 02008KT 6SM 11/M04 RMK SLP268 T01081039 40190//// 54000 IEM_DS3505
ZGGG,1985-12-23 21:00,ZGGG 232100Z AUTO 36008KT 6SM 09/M02 RMK SLP268 T00861022 54000 IEM_DS3505
ZGGG,1985-12-24 00:00,ZGGG 240000Z AUTO 02004KT 7SM 07/M02 RMK T00691015 52017 IEM_DS3505
ZGGG,1985-12-24 03:00,ZGGG 240300Z AUTO 07006KT 7SM 13/M02 RMK SLP295 T01311020 52010 IEM_DS3505
ZGGG,1985-12-24 04:00,ZGGG 240400Z AUTO 02004KT 7SM 14/00 A3036 RMK T01400000 IEM_DS3505
ZGGG,1985-12-24 05:00,ZGGG 240500Z AUTO 31008KT 7SM 16/M01 A3033 RMK T01601010 IEM_DS3505
ZGGG,1985-12-24 06:00,ZGGG 240600Z AUTO 22004KT 7SM 17/M01 A3030 RMK SLP261 T01681013 4////0068 57034 IEM_DS3505
ZGGG,1985-12-24 07:00,ZGGG 240700Z AUTO 02006KT 7SM 17/01 A3027 RMK T01700010 IEM_DS3505
ZGGG,1985-12-24 08:00,ZGGG 240800Z AUTO 32004KT 7SM 17/01 A3024 RMK T01700010 IEM_DS3505
ZGGG,1985-12-24 09:00,ZGGG 240900Z AUTO 27002KT 7SM 16/M01 A3024 RMK SLP242 T01631012 57019 IEM_DS3505
ZGGG,1985-12-24 12:00,ZGGG 241200Z AUTO 00000KT 5SM 10/03 RMK SLP254 T00950029 52012 IEM_DS3505
ZGGG,1985-12-24 15:00,ZGGG 241500Z AUTO 02002KT 4SM 07/03 RMK SLP260 T00700031 52006 IEM_DS3505
ZGGG,1985-12-24 18:00,ZGGG 241800Z AUTO 00000KT 4SM 06/03 RMK SLP254 T00590033 40173//// 57006 IEM_DS3505
ZGGG,1985-12-24 21:00,ZGGG 242100Z AUTO 34002KT 4SM 04/02 RMK SLP242 T00420019 57012 IEM_DS3505
ZGGG,1985-12-25 00:00,ZGGG 250000Z AUTO 36002KT 4SM 04/03 RMK SLP262 T00440028 52020 IEM_DS3505
ZGGG,1985-12-25 03:00,ZGGG 250300Z AUTO 18002KT 4SM 16/01 RMK SLP269 T01590010 52007 IEM_DS3505
ZGGG,1985-12-25 06:00,ZGGG 250600Z AUTO 14006KT 7SM 18/02 RMK SLP231 T01820024 4////0036 57038 IEM_DS3505
ZGGG,1985-12-25 09:00,ZGGG 250900Z AUTO 36004KT 7SM 18/01 RMK SLP217 T01760014 57014 IEM_DS3505
ZGGG,1985-12-25 12:00,ZGGG 251200Z AUTO 34002KT 6SM 10/04 RMK SLP229 T01000038 52012 IEM_DS3505
ZGGG,1985-12-25 15:00,ZGGG 251500Z AUTO 36002KT 5SM 08/04 RMK SLP235 T00770039 52006 IEM_DS3505
ZGGG,1985-12-25 18:00,ZGGG 251800Z AUTO 00000KT 4SM 07/04 RMK SLP228 T00660038 40186//// 57007 IEM_DS3505
ZGGG,1985-12-25 21:00,ZGGG 252100Z AUTO 00000KT 4SM 06/04 RMK SLP221 T00600039 57007 IEM_DS3505
ZGGG,1985-12-26 00:00,ZGGG 260000Z AUTO 00000KT 4SM 07/04 RMK SLP236 T00690039 52015 IEM_DS3505
ZGGG,1985-12-26 03:00,ZGGG 260300Z AUTO 16002KT 4SM 17/04 RMK SLP242 T01720039 52006 IEM_DS3505
ZGGG,1985-12-26 06:00,ZGGG 260600Z AUTO 00000KT 4SM 20/05 RMK SLP207 T02050049 4////0055 57035 IEM_DS3505
ZGGG,1985-12-26 09:00,ZGGG 260900Z AUTO 00000KT 5SM 20/07 RMK SLP206 T02000069 57011 IEM_DS3505
ZGGG,1985-12-26 12:00,ZGGG 261200Z AUTO 00000KT 4SM 13/09 RMK SLP206 T01290087 54000 IEM_DS3505
ZGGG,1985-12-26 15:00,ZGGG 261500Z AUTO 00000KT 4SM 10/08 RMK SLP209 T01030076 52003 IEM_DS3505
ZGGG,1985-12-26 18:00,ZGGG 261800Z AUTO 00000KT 4SM 09/07 RMK SLP201 T00910070 40210//// 57008 IEM_DS3505
ZGGG,1985-12-26 21:00,ZGGG 262100Z AUTO 00000KT 4SM 08/06 RMK SLP205 T00770059 52004 IEM_DS3505
ZGGG,1985-12-27 00:00,ZGGG 270000Z AUTO 00000KT 3SM 08/06 RMK SLP223 T00760060 52018 IEM_DS3505
ZGGG,1985-12-27 03:00,ZGGG 270300Z AUTO 18002KT 4SM 19/08 RMK SLP226 T01860080 52003 IEM_DS3505
ZGGG,1985-12-27 06:00,ZGGG 270600Z AUTO 00000KT 5SM 21/07 RMK SLP196 T02080074 4////0069 57030 IEM_DS3505
ZGGG,1985-12-27 09:00,ZGGG 270900Z AUTO 20004KT 5SM 21/07 RMK SLP185 T02080069 57011 IEM_DS3505
ZGGG,1985-12-27 12:00,ZGGG 271200Z AUTO 00000KT 4SM 14/10 RMK SLP193 T01390096 52008 IEM_DS3505
ZGGG,1985-12-27 15:00,ZGGG 271500Z AUTO 00000KT 4SM 12/09 RMK SLP194 T01170088 52001 IEM_DS3505
ZGGG,1985-12-27 18:00,ZGGG 271800Z AUTO 00000KT 3SM 10/09 RMK SLP198 T01050086 40221//// 52004 IEM_DS3505
ZGGG,1985-12-27 21:00,ZGGG 272100Z AUTO 00000KT 3SM 09/08 RMK SLP192 T00940077 57006 IEM_DS3505
ZGGG,1985-12-28 00:00,ZGGG 280000Z AUTO 00000KT 2SM 11/10 RMK SLP208 T01110097 52016 IEM_DS3505
ZGGG,1985-12-28 03:00,ZGGG 280300Z AUTO 00000KT 5SM 20/12 RMK SLP214 T01990125 52006 IEM_DS3505
ZGGG,1985-12-28 06:00,ZGGG 280600Z AUTO 00000KT 7SM 22/12 RMK SLP187 T02250122 4////0092 57027 IEM_DS3505
ZGGG,1985-12-28 09:00,ZGGG 280900Z AUTO 00000KT 6SM 22/14 RMK SLP181 T02200135 57006 IEM_DS3505
ZGGG,1985-12-28 12:00,ZGGG 281200Z AUTO 00000KT 6SM 18/14 RMK SLP193 T01830138 52012 IEM_DS3505
ZGGG,1985-12-28 15:00,ZGGG 281500Z AUTO 00000KT 6SM 16/13 RMK SLP192 T01620134 57001 IEM_DS3505
ZGGG,1985-12-28 18:00,ZGGG 281800Z AUTO 00000KT 6SM 16/14 RMK SLP187 T01570136 40230//// 57005 IEM_DS3505
ZGGG,1985-12-28 21:00,ZGGG 282100Z AUTO 00000KT 5SM 16/14 RMK SLP181 T01570136 57006 IEM_DS3505
ZGGG,1985-12-29 00:00,ZGGG 290000Z AUTO 00000KT 4SM 16/14 RMK SLP186 T01600137 52005 IEM_DS3505
ZGGG,1985-12-29 03:00,ZGGG 290300Z AUTO 09004KT 5SM 20/14 RMK SLP186 T01990138 54000 IEM_DS3505
ZGGG,1985-12-29 06:00,ZGGG 290600Z AUTO 11004KT 6SM 22/14 RMK SLP154 T02160138 4////0148 57032 IEM_DS3505
ZGGG,1985-12-29 09:00,ZGGG 290900Z AUTO 18002KT 6SM 22/15 RMK SLP149 T02170146 57005 IEM_DS3505
ZGGG,1985-12-29 12:00,ZGGG 291200Z AUTO 00000KT 6SM 20/14 RMK SLP164 T02020145 52015 IEM_DS3505
ZGGG,1985-12-29 15:00,ZGGG 291500Z AUTO 00000KT 5SM 19/15 RMK SLP172 T01930152 52008 IEM_DS3505
ZGGG,1985-12-29 18:00,ZGGG 291800Z AUTO 00000KT 6SM 18/15 RMK SLP170 T01840151 40224//// 57002 IEM_DS3505
ZGGG,1985-12-29 21:00,ZGGG 292100Z AUTO 00000KT 6SM 18/16 RMK SLP160 T01770155 57010 IEM_DS3505
ZGGG,1985-12-30 00:00,ZGGG 300000Z AUTO 00000KT 6SM 19/16 RMK SLP164 T01860158 52004 IEM_DS3505
ZGGG,1985-12-30 03:00,ZGGG 300300Z AUTO 36004KT 7SM 23/16 RMK SLP161 T02320163 57003 IEM_DS3505
ZGGG,1985-12-30 06:00,ZGGG 300600Z AUTO 22006KT 5SM 25/17 RMK SLP133 T02480170 4////0171 57028 IEM_DS3505
ZGGG,1985-12-30 09:00,ZGGG 300900Z AUTO 32006KT 5SM 24/17 RMK SLP125 T02400171 57008 IEM_DS3505
ZGGG,1985-12-30 12:00,ZGGG 301200Z AUTO 36010KT 4SM 19/12 RMK SLP145 T01910119 52020 IEM_DS3505
ZGGG,1985-12-30 15:00,ZGGG 301500Z AUTO 36010KT 4SM 17/11 RMK SLP165 T01720111 52020 IEM_DS3505
ZGGG,1985-12-30 18:00,ZGGG 301800Z AUTO 36010KT 4SM 16/10 RMK SLP169 T01550095 40256//// 52004 IEM_DS3505
ZGGG,1985-12-30 21:00,ZGGG 302100Z AUTO 34004KT 4SM 14/08 RMK SLP170 T01410082 52001 IEM_DS3505
ZGGG,1985-12-30 22:00,ZGGG 302200Z AUTO 35014KT 7SM 13/08 A3000 RMK T01300080 IEM_DS3505
ZGGG,1985-12-30 23:00,ZGGG 302300Z AUTO 36012KT 7SM 13/08 A3003 RMK T01300080 IEM_DS3505
