station,valid,metar
ZGGG,2006-01-01 00:00,ZGGG 010000Z AUTO 04002KT 9SM 17/11 A3018 RMK SLP229 T01710109 52013 IEM_DS3505
ZGGG,2006-01-01 01:00,ZGGG 010100Z AUTO 03004KT 18/10 A3018 RMK T01800100 IEM_DS3505
ZGGG,2006-01-01 02:00,ZGGG 010200Z AUTO 5SM 18/09 A3021 RMK T01800090 IEM_DS3505
ZGGG,2006-01-01 03:00,ZGGG 010300Z AUTO 02004KT 10SM 21/12 A3018 RMK SLP229 T02060121 54000 IEM_DS3505
ZGGG,2006-01-01 04:00,ZGGG 010400Z AUTO 5SM 21/10 A3015 RMK T02100100 IEM_DS3505
ZGGG,2006-01-01 05:00,ZGGG 010500Z AUTO 26004KT 6SM 22/09 A3012 RMK T02200090 IEM_DS3505
ZGGG,2006-01-01 06:00,ZGGG 010600Z AUTO 34004KT 8SM 24/12 A3006 RMK SLP188 T02350119 57040 IEM_DS3505
ZGGG,2006-01-01 07:00,ZGGG 010700Z AUTO 6SM 24/09 A3006 RMK T02400090 IEM_DS3505
ZGGG,2006-01-01 08:00,ZGGG 010800Z AUTO 6SM 24/10 A3003 RMK T02400100 IEM_DS3505
ZGGG,2006-01-01 09:00,ZGGG 010900Z AUTO 34002KT 8SM 23/11 A3003 RMK SLP182 T02280112 57006 IEM_DS3505
ZGGG,2006-01-01 10:00,ZGGG 011000Z AUTO 24004KT 5SM 22/11 A3006 RMK T02200110 IEM_DS3505
ZGGG,2006-01-01 11:00,ZGGG 011100Z AUTO 26004KT 21/11 A3006 RMK T02100110 IEM_DS3505
ZGGG,2006-01-01 12:00,ZGGG 011200Z AUTO 27002KT 9SM 20/13 A3009 RMK SLP198 T01960126 52015 IEM_DS3505
ZGGG,2006-01-01 13:00,ZGGG 011300Z AUTO 33006KT 5SM 20/10 A3009 RMK T02000100 IEM_DS3505
ZGGG,2006-01-01 14:00,ZGGG 011400Z AUTO 35006KT 5SM 19/11 A3012 RMK T01900110 IEM_DS3505
ZGGG,2006-01-01 15:00,ZGGG 011500Z AUTO 36002KT 9SM 19/13 A3012 RMK SLP208 T01890126 52010 IEM_DS3505
ZGGG,2006-01-01 16:00,ZGGG 011600Z AUTO 04004KT 17/11 A3012 RMK T01700110 IEM_DS3505
ZGGG,2006-01-01 17:00,ZGGG 011700Z AUTO 03004KT 17/10 A3015 RMK T01700100 IEM_DS3505
ZGGG,2006-01-01 19:00,ZGGG 011900Z AUTO 02002KT 4SM 15/10 A3015 RMK T01500100 IEM_DS3505
ZGGG,2006-01-01 20:00,ZGGG 012000Z AUTO 05004KT 4SM 15/10 A3012 RMK T01500100 IEM_DS3505
ZGGG,2006-01-01 21:00,ZGGG 012100Z AUTO 34002KT 9SM 15/10 A3015 RMK SLP214 T01470101 52002 IEM_DS3505
ZGGG,2006-01-01 22:00,ZGGG 012200Z AUTO 09004KT 4SM 14/09 A3015 RMK T01400090 IEM_DS3505
ZGGG,2006-01-01 23:00,ZGGG 012300Z AUTO 06004KT 4SM 14/09 A3015 RMK T01400090 IEM_DS3505
ZGGG,2006-01-02 00:00,ZGGG 020000Z AUTO 07002KT 9SM 15/10 A3018 RMK SLP226 T01480098 52012 IEM_DS3505
ZGGG,2006-01-02 01:00,ZGGG 020100Z AUTO 06004KT 3SM 16/09 A3018 RMK T01600090 IEM_DS3505
ZGGG,2006-01-02 02:00,ZGGG 020200Z AUTO 07004KT 3SM 17/09 A3018 RMK T01700090 IEM_DS3505
ZGGG,2006-01-02 03:00,ZGGG 020300Z AUTO 11002KT 8SM 20/11 A3018 RMK SLP221 T01990109 57005 IEM_DS3505
ZGGG,2006-01-02 04:00,ZGGG 020400Z AUTO 21/09 A3015 RMK T02100090 IEM_DS3505
ZGGG,2006-01-02 05:00,ZGGG 020500Z AUTO 15004KT 22/09 A3009 RMK T02200090 IEM_DS3505
ZGGG,2006-01-02 06:00,ZGGG 020600Z AUTO 18002KT 8SM 23/11 A3006 RMK SLP181 T02300114 57039 IEM_DS3505
ZGGG,2006-01-02 07:00,ZGGG 020700Z AUTO 5SM 24/09 A3003 RMK T02400090 IEM_DS3505
ZGGG,2006-01-02 08:00,ZGGG 020800Z AUTO 5SM 24/10 A3000 RMK T02400100 IEM_DS3505
ZGGG,2006-01-02 09:00,ZGGG 020900Z AUTO 00000KT 7SM 23/13 A3000 RMK SLP168 T02280127 57014 IEM_DS3505
ZGGG,2006-01-02 10:00,ZGGG 021000Z AUTO 23004KT 22/10 A3000 RMK T02200100 IEM_DS3505
ZGGG,2006-01-02 11:00,ZGGG 021100Z AUTO 3SM 20/12 A3000 RMK T02000120 IEM_DS3505
ZGGG,2006-01-02 12:00,ZGGG 021200Z AUTO 07002KT 7SM 19/13 A3003 RMK SLP178 T01900132 52010 IEM_DS3505
ZGGG,2006-01-02 13:00,ZGGG 021300Z AUTO 00000KT 2 1/2SM 19/12 A3003 RMK T01900120 IEM_DS3505
ZGGG,2006-01-02 14:00,ZGGG 021400Z AUTO 09002KT 2 1/2SM 18/13 A3003 RMK T01800130 IEM_DS3505
ZGGG,2006-01-02 16:00,ZGGG 021600Z AUTO 15006KT 1 1/2SM 19/13 A3006 RMK T01900130 IEM_DS3505
ZGGG,2006-01-02 17:00,ZGGG 021700Z AUTO 15006KT 2SM 18/13 A3006 RMK T01800130 IEM_DS3505
ZGGG,2006-01-02 18:00,ZGGG 021800Z AUTO 14004KT 7SM 17/14 A3006 RMK SLP189 T01730136 54000 IEM_DS3505
ZGGG,2006-01-02 19:00,ZGGG 021900Z AUTO 00000KT 1 1/2SM 18/13 A3006 RMK T01800130 IEM_DS3505
ZGGG,2006-01-02 20:00,ZGGG 022000Z AUTO 1 1/2SM 17/14 A3003 RMK T01700140 IEM_DS3505
ZGGG,2006-01-02 21:00,ZGGG 022100Z AUTO 14004KT 7SM 17/13 A3003 RMK SLP182 T01690130 57007 IEM_DS3505
ZGGG,2006-01-02 22:00,ZGGG 022200Z AUTO 1 1/2SM 17/13 A3006 RMK T01700130 IEM_DS3505
ZGGG,2006-01-02 23:00,ZGGG 022300Z AUTO 00000KT 1 1/2SM 16/13 A3006 RMK T01600130 IEM_DS3505
ZGGG,2006-01-03 00:00,ZGGG 030000Z AUTO 09004KT 5SM 16/13 A3006 RMK SLP194 T01650127 52011 IEM_DS3505
ZGGG,2006-01-03 01:00,ZGGG 030100Z AUTO 10004KT 2SM 17/12 A3009 RMK T01700120 IEM_DS3505
ZGGG,2006-01-03 02:00,ZGGG 030200Z AUTO 2SM 18/12 A3009 RMK T01800120 IEM_DS3505
ZGGG,2006-01-03 03:00,ZGGG 030300Z AUTO 16004KT 3SM 19/12 A3009 RMK SLP197 T01890122 52003 IEM_DS3505
ZGGG,2006-01-03 04:00,ZGGG 030400Z AUTO 14004KT 2 1/2SM 20/11 A3006 RMK T02000110 IEM_DS3505
ZGGG,2006-01-03 05:00,ZGGG 030500Z AUTO 22004KT 2 1/2SM 21/11 A3000 RMK T02100110 IEM_DS3505
ZGGG,2006-01-03 06:00,ZGGG 030600Z AUTO 14004KT 4SM 21/12 A2997 RMK SLP159 T02130119 57037 IEM_DS3505
ZGGG,2006-01-03 07:00,ZGGG 030700Z AUTO 18008KT 3SM 22/10 A2994 RMK T02200100 IEM_DS3505
ZGGG,2006-01-03 08:00,ZGGG 030800Z AUTO 18008KT 3SM 22/11 A2994 RMK T02200110 IEM_DS3505
ZGGG,2006-01-03 09:00,ZGGG 030900Z AUTO 16002KT 3SM 21/13 A2994 RMK SLP151 T02130127 57008 IEM_DS3505
ZGGG,2006-01-03 10:00,ZGGG 031000Z AUTO 18004KT 3SM 21/12 A2994 RMK T02100120 IEM_DS3505
ZGGG,2006-01-03 11:00,ZGGG 031100Z AUTO 19004KT 2 1/2SM 20/12 A2997 RMK T02000120 IEM_DS3505
ZGGG,2006-01-03 12:00,ZGGG 031200Z AUTO 16002KT 5SM 20/14 A2997 RMK SLP160 T01980140 52008 IEM_DS3505
ZGGG,2006-01-03 13:00,ZGGG 031300Z AUTO 15004KT 2 1/2SM 20/13 A2997 RMK T02000130 IEM_DS3505
ZGGG,2006-01-03 14:00,ZGGG 031400Z AUTO 13004KT 2 1/2SM 19/14 A2997 RMK T01900140 IEM_DS3505
ZGGG,2006-01-03 15:00,ZGGG 031500Z AUTO 11004KT 5SM 19/14 A2997 RMK SLP156 T01880143 57003 IEM_DS3505
ZGGG,2006-01-03 16:00,ZGGG 031600Z AUTO 08004KT 2 1/2SM 19/14 A2997 RMK T01900140 IEM_DS3505
ZGGG,2006-01-03 17:00,ZGGG 031700Z AUTO 08004KT 2 1/2SM 18/13 A2997 RMK T01800130 IEM_DS3505
ZGGG,2006-01-03 18:00,ZGGG 031800Z AUTO 11002KT 4SM 19/14 A2994 RMK SLP150 T01870140 57006 IEM_DS3505
ZGGG,2006-01-03 19:00,ZGGG 031900Z AUTO 09004KT 2 1/2SM 18/13 A2994 RMK T01800130 IEM_DS3505
ZGGG,2006-01-03 20:00,ZGGG 032000Z AUTO 10004KT 2 1/2SM 17/13 A2994 RMK T01700130 IEM_DS3505
ZGGG,2006-01-03 21:00,ZGGG 032100Z AUTO 11002KT 3SM 18/14 A2991 RMK SLP144 T01770136 57006 IEM_DS3505
ZGGG,2006-01-03 22:00,ZGGG 032200Z AUTO 09006KT 2 1/2SM 18/13 A2994 RMK T01800130 IEM_DS3505
ZGGG,2006-01-03 23:00,ZGGG 032300Z AUTO 09004KT 2 1/2SM 18/13 A2994 RMK T01800130 IEM_DS3505
ZGGG,2006-01-04 00:00,ZGGG 040000Z AUTO 09006KT 2SM 18/14 A2997 RMK SLP158 T01780137 52014 IEM_DS3505
ZGGG,2006-01-04 01:00,ZGGG 040100Z AUTO 08004KT 2SM 19/14 A3000 RMK T01900140 IEM_DS3505
ZGGG,2006-01-04 02:00,ZGGG 040200Z AUTO 2SM 19/14 A3000 RMK T01900140 IEM_DS3505
ZGGG,2006-01-04 03:00,ZGGG 040300Z AUTO 09004KT 5SM 21/14 A3000 RMK SLP163 T02060145 52005 IEM_DS3505
ZGGG,2006-01-04 04:00,ZGGG 040400Z AUTO 17004KT 2 1/2SM 22/14 A2994 RMK T02200140 IEM_DS3505
ZGGG,2006-01-04 05:00,ZGGG 040500Z AUTO 3SM 22/14 A2991 RMK T02200140 IEM_DS3505
ZGGG,2006-01-04 06:00,ZGGG 040600Z AUTO 14004KT 5SM 22/15 A2991 RMK 60000 SLP132 T02230152 57031 IEM_DS3505
ZGGG,2006-01-04 07:00,ZGGG 040700Z AUTO 19006KT 2 1/2SM 23/15 A2988 RMK T02300150 IEM_DS3505
ZGGG,2006-01-04 08:00,ZGGG 040800Z AUTO 17004KT 2SM 23/15 A2988 RMK T02300150 IEM_DS3505
ZGGG,2006-01-04 09:00,ZGGG 040900Z AUTO 16002KT 6SM 22/16 A2988 RMK SLP133 T02240160 52001 IEM_DS3505
ZGGG,2006-01-04 10:00,ZGGG 041000Z AUTO 1 1/2SM 22/15 A2991 RMK T02200150 IEM_DS3505
ZGGG,2006-01-04 11:00,ZGGG 041100Z AUTO 1 1/2SM 22/15 A2994 RMK T02200150 IEM_DS3505
ZGGG,2006-01-04 12:00,ZGGG 041200Z AUTO 00000KT 6SM 21/17 A2994 RMK SLP154 T02080166 52021 IEM_DS3505
ZGGG,2006-01-04 13:00,ZGGG 041300Z AUTO 00000KT 1 1/4SM 21/16 A2997 RMK T02100160 IEM_DS3505
ZGGG,2006-01-04 14:00,ZGGG 041400Z AUTO 01002KT 1 1/4SM 21/16 A2997 RMK T02100160 IEM_DS3505
ZGGG,2006-01-04 15:00,ZGGG 041500Z AUTO 16002KT 6SM 21/17 A3000 RMK SLP164 T02060170 52010 IEM_DS3505
ZGGG,2006-01-04 16:00,ZGGG 041600Z AUTO 30002KT 1 1/4SM 21/16 A3000 RMK T02100160 IEM_DS3505
ZGGG,2006-01-04 17:00,ZGGG 041700Z AUTO 33014KT 2SM 18/15 A3000 RMK T01800150 IEM_DS3505
ZGGG,2006-01-04 18:00,ZGGG 041800Z AUTO 34004KT 2 1/2SM 18/16 A3000 RMK 60008 SLP168 T01820164 52004 IEM_DS3505
ZGGG,2006-01-04 19:00,ZGGG 041900Z AUTO 34014KT 4SM 13/10 A3003 RMK T01300100 IEM_DS3505
ZGGG,2006-01-04 20:00,ZGGG 042000Z AUTO 34014KT 4SM 12/09 A3006 RMK T01200090 IEM_DS3505
ZGGG,2006-01-04 21:00,ZGGG 042100Z AUTO 36004KT 3SM 13/10 A3009 RMK 70007 SLP187 T01280105 52018 IEM_DS3505
ZGGG,2006-01-04 22:00,ZGGG 042200Z AUTO 35008KT 7SM 12/09 A3012 RMK T01200090 IEM_DS3505
ZGGG,2006-01-04 23:00,ZGGG 042300Z AUTO 01016KT 7SM 11/07 A3015 RMK T01100070 IEM_DS3505
ZGGG,2006-01-05 00:00,ZGGG 050000Z AUTO 36006KT 6SM 11/09 A3015 RMK 60000 70007 SLP222 T01140086 52035 IEM_DS3505
ZGGG,2006-01-05 01:00,ZGGG 050100Z AUTO 01014KT 7SM 11/06 A3021 RMK T01100060 IEM_DS3505
ZGGG,2006-01-05 02:00,ZGGG 050200Z AUTO 01014KT 7SM 11/05 A3024 RMK T01100050 IEM_DS3505
ZGGG,2006-01-05 03:00,ZGGG 050300Z AUTO 36006KT 11SM 12/07 A3024 RMK SLP240 T01210066 52018 IEM_DS3505
ZGGG,2006-01-05 04:00,ZGGG 050400Z AUTO 36008KT 7SM 12/06 A3021 RMK T01200060 IEM_DS3505
ZGGG,2006-01-05 05:00,ZGGG 050500Z AUTO 34012G21KT 7SM 12/05 A3015 RMK T01200050 IEM_DS3505
ZGGG,2006-01-05 06:00,ZGGG 050600Z AUTO 36006KT 12SM 13/06 A3012 RMK 60000 SLP208 T01320059 57032 IEM_DS3505
ZGGG,2006-01-05 07:00,ZGGG 050700Z AUTO 01014KT 7SM 13/04 A3012 RMK T01300040 IEM_DS3505
ZGGG,2006-01-05 08:00,ZGGG 050800Z AUTO 02012KT 7SM 12/03 A3012 RMK T01200030 IEM_DS3505
ZGGG,2006-01-05 09:00,ZGGG 050900Z AUTO 34004KT 11SM 12/05 A3015 RMK SLP219 T01210053 52010 IEM_DS3505
ZGGG,2006-01-05 10:00,ZGGG 051000Z AUTO 01012KT 7SM 11/03 A3018 RMK T01100030 IEM_DS3505
ZGGG,2006-01-05 11:00,ZGGG 051100Z AUTO 01012KT 7SM 11/03 A3021 RMK T01100030 IEM_DS3505
ZGGG,2006-01-05 12:00,ZGGG 051200Z AUTO 36006KT 11SM 11/04 A3024 RMK SLP247 T01070040 52028 IEM_DS3505
ZGGG,2006-01-05 13:00,ZGGG 051300Z AUTO 01010KT 7SM 10/03 A3024 RMK T01000030 IEM_DS3505
ZGGG,2006-01-05 14:00,ZGGG 051400Z AUTO 01010KT 7SM 10/02 A3027 RMK T01000020 IEM_DS3505
ZGGG,2006-01-05 15:00,ZGGG 051500Z AUTO 36004KT 10SM 10/04 A3027 RMK SLP258 T00970037 52011 IEM_DS3505
ZGGG,2006-01-05 16:00,ZGGG 051600Z AUTO 01010KT 7SM 09/02 A3027 RMK T00900020 IEM_DS3505
ZGGG,2006-01-05 17:00,ZGGG 051700Z AUTO 01012KT 7SM 08/01 A3030 RMK T00800010 IEM_DS3505
ZGGG,2006-01-05 18:00,ZGGG 051800Z AUTO 36004KT 9SM 08/03 A3030 RMK SLP269 T00840033 52011 IEM_DS3505
ZGGG,2006-01-05 19:00,ZGGG 051900Z AUTO 01014KT 7SM 08/02 A3030 RMK T00800020 IEM_DS3505
ZGGG,2006-01-05 20:00,ZGGG 052000Z AUTO 02010KT 7SM 07/02 A3030 RMK T00700020 IEM_DS3505
ZGGG,2006-01-05 21:00,ZGGG 052100Z AUTO 36002KT 10SM 08/03 A3033 RMK 70000 SLP276 T00750030 52006 IEM_DS3505
ZGGG,2006-01-05 22:00,ZGGG 052200Z AUTO 01012KT 7SM 07/02 A3033 RMK T00700020 IEM_DS3505
ZGGG,2006-01-05 23:00,ZGGG 052300Z AUTO 01010KT 7SM 07/01 A3036 RMK T00700010 IEM_DS3505
ZGGG,2006-01-06 00:00,ZGGG 060000Z AUTO 36008G21KT 14SM 08/02 A3036 RMK 70000 SLP294 T00770020 52018 IEM_DS3505
ZGGG,2006-01-06 01:00,ZGGG 060100Z AUTO 36014KT 7SM 08/01 A3039 RMK T00800010 IEM_DS3505
ZGGG,2006-01-06 02:00,ZGGG 060200Z AUTO 36012KT 7SM 08/01 A3042 RMK T00800010 IEM_DS3505
ZGGG,2006-01-06 03:00,ZGGG 060300Z AUTO 34008KT 14SM 09/01 A3039 RMK SLP297 T00930010 52003 IEM_DS3505
ZGGG,2006-01-06 04:00,ZGGG 060400Z AUTO 36012KT 7SM 09/00 A3036 RMK T00900000 IEM_DS3505
ZGGG,2006-01-06 05:00,ZGGG 060500Z AUTO 01012KT 7SM 09/00 A3036 RMK T00900000 IEM_DS3505
ZGGG,2006-01-06 06:00,ZGGG 060600Z AUTO 36006KT 15SM 09/01 A3033 RMK SLP274 T00940006 57023 IEM_DS3505
ZGGG,2006-01-06 07:00,ZGGG 060700Z AUTO 01014KT 7SM 09/M01 A3030 RMK T00901010 IEM_DS3505
ZGGG,2006-01-06 08:00,ZGGG 060800Z AUTO 01014KT 7SM 09/00 A3030 RMK T00900000 IEM_DS3505
ZGGG,2006-01-06 09:00,ZGGG 060900Z AUTO 36006KT 13SM 08/M01 A3033 RMK SLP274 T00851008 54000 IEM_DS3505
ZGGG,2006-01-06 10:00,ZGGG 061000Z AUTO 36012KT 7SM 08/M01 A3033 RMK T00801010 IEM_DS3505
ZGGG,2006-01-06 11:00,ZGGG 061100Z AUTO 01010KT 7SM 08/M01 A3036 RMK T00801010 IEM_DS3505
ZGGG,2006-01-06 12:00,ZGGG 061200Z AUTO 02006KT 12SM 08/M01 A3036 RMK SLP292 T00791013 52018 IEM_DS3505
ZGGG,2006-01-06 13:00,ZGGG 061300Z AUTO 36012KT 5SM 08/M02 A3039 RMK T00801020 IEM_DS3505
ZGGG,2006-01-06 14:00,ZGGG 061400Z AUTO 01012KT 5SM 07/M02 A3039 RMK T00701020 IEM_DS3505
ZGGG,2006-01-06 15:00,ZGGG 061500Z AUTO 36006KT 11SM 07/M02 A3039 RMK SLP296 T00701017 52004 IEM_DS3505
ZGGG,2006-01-06 16:00,ZGGG 061600Z AUTO 01012KT 5SM 07/M04 A3039 RMK T00701040 IEM_DS3505
ZGGG,2006-01-06 17:00,ZGGG 061700Z AUTO 02012KT 06/M04 A3039 RMK T00601040 IEM_DS3505
ZGGG,2006-01-06 18:00,ZGGG 061800Z AUTO 36006KT 10SM 06/M03 A3039 RMK SLP295 T00591027 57001 IEM_DS3505
ZGGG,2006-01-06 19:00,ZGGG 061900Z AUTO 01012KT 06/M05 A3036 RMK T00601050 IEM_DS3505
ZGGG,2006-01-06 20:00,ZGGG 062000Z AUTO 01012KT 6SM 06/M06 A3036 RMK T00601060 IEM_DS3505
ZGGG,2006-01-06 21:00,ZGGG 062100Z AUTO 36004KT 10SM 05/M05 A3036 RMK SLP292 T00531054 57003 IEM_DS3505
ZGGG,2006-01-06 22:00,ZGGG 062200Z AUTO 36012KT 5SM 05/M07 A3039 RMK T00501070 IEM_DS3505
ZGGG,2006-01-06 23:00,ZGGG 062300Z AUTO 01010KT 6SM 05/M07 A3036 RMK T00501070 IEM_DS3505
ZGGG,2006-01-07 00:00,ZGGG 070000Z AUTO 36006KT 9SM 05/M07 A3039 RMK SLP297 T00531072 52005 IEM_DS3505
ZGGG,2006-01-07 01:00,ZGGG 070100Z AUTO 01008KT 6SM 06/M08 A3039 RMK T00601080 IEM_DS3505
ZGGG,2006-01-07 02:00,ZGGG 070200Z AUTO 36014KT 6SM 07/M09 A3042 RMK T00701090 IEM_DS3505
ZGGG,2006-01-07 03:00,ZGGG 070300Z AUTO 34004KT 11SM 08/M08 A3039 RMK SLP298 T00831078 52001 IEM_DS3505
ZGGG,2006-01-07 04:00,ZGGG 070400Z AUTO 01012KT 6SM 10/M10 A3036 RMK T01001100 IEM_DS3505
ZGGG,2006-01-07 05:00,ZGGG 070500Z AUTO 02010KT 6SM 11/M09 A3030 RMK T01101090 IEM_DS3505
ZGGG,2006-01-07 06:00,ZGGG 070600Z AUTO 36006KT 10SM 12/M07 A3027 RMK SLP255 T01241066 57043 IEM_DS3505
ZGGG,2006-01-07 07:00,ZGGG 070700Z AUTO 01008KT 6SM 12/M09 A3024 RMK T01201090 IEM_DS3505
ZGGG,2006-01-07 08:00,ZGGG 070800Z AUTO 04008KT 6SM 13/M07 A3024 RMK T01301070 IEM_DS3505
ZGGG,2006-01-07 09:00,ZGGG 070900Z AUTO 02002KT 9SM 11/M06 A3024 RMK SLP247 T01141060 57008 IEM_DS3505
ZGGG,2006-01-07 10:00,ZGGG 071000Z AUTO 34008KT 6SM 11/M05 A3024 RMK T01101050 IEM_DS3505
ZGGG,2006-01-07 11:00,ZGGG 071100Z AUTO 33008KT 5SM 10/M05 A3027 RMK T01001050 IEM_DS3505
ZGGG,2006-01-07 12:00,ZGGG 071200Z AUTO 36002KT 10SM 09/M04 A3027 RMK SLP264 T00911041 52017 IEM_DS3505
ZGGG,2006-01-07 13:00,ZGGG 071300Z AUTO 01006KT 5SM 08/M04 A3030 RMK T00801040 IEM_DS3505
ZGGG,2006-01-07 14:00,ZGGG 071400Z AUTO 04002KT 06/M01 A3030 RMK T00601010 IEM_DS3505
ZGGG,2006-01-07 15:00,ZGGG 071500Z AUTO 04002KT 9SM 08/M04 A3030 RMK SLP267 T00811037 52003 IEM_DS3505
ZGGG,2006-01-07 16:00,ZGGG 071600Z AUTO 01004KT 08/M02 A3030 RMK T00801020 IEM_DS3505
ZGGG,2006-01-07 17:00,ZGGG 071700Z AUTO 6SM 08/M04 A3030 RMK T00801040 IEM_DS3505
ZGGG,2006-01-07 18:00,ZGGG 071800Z AUTO 02004KT 9SM 08/M04 A3030 RMK SLP265 T00831035 57001 IEM_DS3505
ZGGG,2006-01-07 19:00,ZGGG 071900Z AUTO 02002KT 6SM 08/M03 A3027 RMK T00801030 IEM_DS3505
ZGGG,2006-01-07 20:00,ZGGG 072000Z AUTO 01004KT 6SM 08/M05 A3027 RMK T00801050 IEM_DS3505
ZGGG,2006-01-07 21:00,ZGGG 072100Z AUTO 34002KT 9SM 08/M04 A3027 RMK SLP261 T00791039 57005 IEM_DS3505
ZGGG,2006-01-07 22:00,ZGGG 072200Z AUTO 02004KT 6SM 08/M06 A3027 RMK T00801060 IEM_DS3505
ZGGG,2006-01-07 23:00,ZGGG 072300Z AUTO 6SM 07/M05 A3027 RMK T00701050 IEM_DS3505
ZGGG,2006-01-08 00:00,ZGGG 080000Z AUTO 36004KT 10SM 08/M04 A3030 RMK SLP271 T00781040 52010 IEM_DS3505
ZGGG,2006-01-08 01:00,ZGGG 080100Z AUTO 7SM 08/M06 A3033 RMK T00801060 IEM_DS3505
ZGGG,2006-01-08 02:00,ZGGG 080200Z AUTO 01006KT 7SM 09/M08 A3033 RMK T00901080 IEM_DS3505
ZGGG,2006-01-08 03:00,ZGGG 080300Z AUTO 34004KT 10SM 09/M05 A3033 RMK SLP275 T00941049 52004 IEM_DS3505
ZGGG,2006-01-08 04:00,ZGGG 080400Z AUTO 02006KT 7SM 09/M07 A3030 RMK T00901070 IEM_DS3505
ZGGG,2006-01-08 05:00,ZGGG 080500Z AUTO 02006KT 7SM 10/M07 A3027 RMK T01001070 IEM_DS3505
ZGGG,2006-01-08 06:00,ZGGG 080600Z AUTO 36004KT 9SM 10/M06 A3024 RMK SLP248 T01001055 57027 IEM_DS3505
ZGGG,2006-01-08 07:00,ZGGG 080700Z AUTO 04006KT 5SM 10/M06 A3021 RMK T01001060 IEM_DS3505
ZGGG,2006-01-08 08:00,ZGGG 080800Z AUTO 02008KT 6SM 10/M06 A3024 RMK T01001060 IEM_DS3505
ZGGG,2006-01-08 09:00,ZGGG 080900Z AUTO 36004KT 9SM 10/M06 A3024 RMK SLP247 T00961055 57001 IEM_DS3505
ZGGG,2006-01-08 10:00,ZGGG 081000Z AUTO 36010KT 6SM 09/M05 A3024 RMK T00901050 IEM_DS3505
ZGGG,2006-01-08 11:00,ZGGG 081100Z AUTO 34008KT 5SM 09/M05 A3027 RMK T00901050 IEM_DS3505
ZGGG,2006-01-08 12:00,ZGGG 081200Z AUTO 02002KT 9SM 09/M04 A3027 RMK SLP262 T00871038 52015 IEM_DS3505
ZGGG,2006-01-08 13:00,ZGGG 081300Z AUTO 35008KT 6SM 09/M05 A3027 RMK T00901050 IEM_DS3505
ZGGG,2006-01-08 14:00,ZGGG 081400Z AUTO 34006KT 6SM 08/M05 A3027 RMK T00801050 IEM_DS3505
ZGGG,2006-01-08 15:00,ZGGG 081500Z AUTO 02004KT 9SM 08/M03 A3027 RMK SLP265 T00841034 52003 IEM_DS3505
ZGGG,2006-01-08 16:00,ZGGG 081600Z AUTO 34008KT 6SM 08/M05 A3027 RMK T00801050 IEM_DS3505
ZGGG,2006-01-08 17:00,ZGGG 081700Z AUTO 34008KT 6SM 08/M05 A3027 RMK T00801050 IEM_DS3505
ZGGG,2006-01-08 18:00,ZGGG 081800Z AUTO 36004KT 9SM 08/M02 A3027 RMK SLP259 T00811025 57006 IEM_DS3505
ZGGG,2006-01-08 19:00,ZGGG 081900Z AUTO 33006KT 5SM 08/M04 A3027 RMK T00801040 IEM_DS3505
ZGGG,2006-01-08 20:00,ZGGG 082000Z AUTO 33008KT 5SM 08/M03 A3024 RMK T00801030 IEM_DS3505
ZGGG,2006-01-08 21:00,ZGGG 082100Z AUTO 34002KT 8SM 08/M02 A3024 RMK SLP252 T00791019 57007 IEM_DS3505
ZGGG,2006-01-08 22:00,ZGGG 082200Z AUTO 34006KT 5SM 08/M03 A3024 RMK T00801030 IEM_DS3505
ZGGG,2006-01-08 23:00,ZGGG 082300Z AUTO 34006KT 5SM 08/M04 A3024 RMK T00801040 IEM_DS3505
ZGGG,2006-01-09 00:00,ZGGG 090000Z AUTO 34002KT 7SM 08/M02 A3027 RMK SLP259 T00781025 52007 IEM_DS3505
ZGGG,2006-01-09 01:00,ZGGG 090100Z AUTO 01006KT 08/M06 A3027 RMK T00801060 IEM_DS3505
ZGGG,2006-01-09 02:00,ZGGG 090200Z AUTO 35006KT 5SM 10/M06 A3030 RMK T01001060 IEM_DS3505
ZGGG,2006-01-09 03:00,ZGGG 090300Z AUTO 32004KT 9SM 12/M04 A3027 RMK SLP255 T01251037 57003 IEM_DS3505
ZGGG,2006-01-09 04:00,ZGGG 090400Z AUTO 34006KT 5SM 13/M06 A3021 RMK T01301060 IEM_DS3505
ZGGG,2006-01-09 05:00,ZGGG 090500Z AUTO 6SM 14/M06 A3018 RMK T01401060 IEM_DS3505
ZGGG,2006-01-09 06:00,ZGGG 090600Z AUTO 32004G14KT 9SM 16/M03 A3012 RMK SLP209 T01601030 57046 IEM_DS3505
ZGGG,2006-01-09 07:00,ZGGG 090700Z AUTO 33004KT 6SM 16/M04 A3009 RMK T01601040 IEM_DS3505
ZGGG,2006-01-09 08:00,ZGGG 090800Z AUTO 5SM 17/M03 A3009 RMK T01701030 IEM_DS3505
ZGGG,2006-01-09 09:00,ZGGG 090900Z AUTO 29004KT 9SM 15/M02 A3009 RMK SLP201 T01541016 57008 IEM_DS3505
ZGGG,2006-01-09 10:00,ZGGG 091000Z AUTO 32004KT 5SM 15/M03 A3012 RMK T01501030 IEM_DS3505
ZGGG,2006-01-09 11:00,ZGGG 091100Z AUTO 32004KT 5SM 14/M03 A3012 RMK T01401030 IEM_DS3505
ZGGG,2006-01-09 12:00,ZGGG 091200Z AUTO 00000KT 9SM 12/02 A3015 RMK SLP219 T01230022 52018 IEM_DS3505
ZGGG,2006-01-09 13:00,ZGGG 091300Z AUTO 00000KT 09/02 A3015 RMK T00900020 IEM_DS3505
ZGGG,2006-01-09 14:00,ZGGG 091400Z AUTO 02002KT 09/02 A3015 RMK T00900020 IEM_DS3505
ZGGG,2006-01-09 15:00,ZGGG 091500Z AUTO 34002KT 8SM 12/03 A3015 RMK SLP223 T01200027 52004 IEM_DS3505
ZGGG,2006-01-09 16:00,ZGGG 091600Z AUTO 02002KT 3SM 11/03 A3015 RMK T01100030 IEM_DS3505
ZGGG,2006-01-09 17:00,ZGGG 091700Z AUTO 03002KT 3SM 11/04 A3015 RMK T01100040 IEM_DS3505
ZGGG,2006-01-09 18:00,ZGGG 091800Z AUTO 34002KT 7SM 12/02 A3015 RMK SLP223 T01250018 54000 IEM_DS3505
ZGGG,2006-01-09 19:00,ZGGG 091900Z AUTO 00000KT 3SM 11/03 A3015 RMK T01100030 IEM_DS3505
ZGGG,2006-01-09 20:00,ZGGG 092000Z AUTO 03004KT 11/04 A3015 RMK T01100040 IEM_DS3505
ZGGG,2006-01-09 21:00,ZGGG 092100Z AUTO 34002KT 7SM 12/01 A3015 RMK SLP214 T01200010 57009 IEM_DS3505
ZGGG,2006-01-09 22:00,ZGGG 092200Z AUTO 10002KT 4SM 11/02 A3015 RMK T01100020 IEM_DS3505
ZGGG,2006-01-09 23:00,ZGGG 092300Z AUTO 11/02 A3015 RMK T01100020 IEM_DS3505
ZGGG,2006-01-10 00:00,ZGGG 100000Z AUTO 32002KT 6SM 12/01 A3018 RMK SLP229 T01180012 52015 IEM_DS3505
ZGGG,2006-01-10 01:00,ZGGG 100100Z AUTO 00000KT 12/00 A3018 RMK T01200000 IEM_DS3505
ZGGG,2006-01-10 02:00,ZGGG 100200Z AUTO 12/00 A3021 RMK T01200000 IEM_DS3505
ZGGG,2006-01-10 03:00,ZGGG 100300Z AUTO 32002KT 7SM 13/01 A3021 RMK SLP235 T01330013 52006 IEM_DS3505
ZGGG,2006-01-10 04:00,ZGGG 100400Z AUTO 14/M01 A3018 RMK T01401010 IEM_DS3505
ZGGG,2006-01-10 05:00,ZGGG 100500Z AUTO 00000KT 15/M01 A3012 RMK T01501010 IEM_DS3505
ZGGG,2006-01-10 06:00,ZGGG 100600Z AUTO 32004KT 7SM 16/02 A3009 RMK SLP196 T01600017 57038 IEM_DS3505
ZGGG,2006-01-10 07:00,ZGGG 100700Z AUTO 00000KT 16/00 A3006 RMK T01600000 IEM_DS3505
ZGGG,2006-01-10 08:00,ZGGG 100800Z AUTO 17/00 A3003 RMK T01700000 IEM_DS3505
ZGGG,2006-01-10 09:00,ZGGG 100900Z AUTO 34002KT 7SM 16/02 A3003 RMK SLP183 T01600024 57013 IEM_DS3505
ZGGG,2006-01-10 10:00,ZGGG 101000Z AUTO 2 1/2SM 15/02 A3006 RMK T01500020 IEM_DS3505
ZGGG,2006-01-10 11:00,ZGGG 101100Z AUTO 00000KT 3SM 14/04 A3006 RMK T01400040 IEM_DS3505
ZGGG,2006-01-10 12:00,ZGGG 101200Z AUTO 00000KT 7SM 14/04 A3006 RMK SLP196 T01440041 52012 IEM_DS3505
ZGGG,2006-01-10 13:00,ZGGG 101300Z AUTO 00000KT 3SM 11/04 A3009 RMK T01100040 IEM_DS3505
ZGGG,2006-01-10 14:00,ZGGG 101400Z AUTO 00000KT 2 1/2SM 11/04 A3009 RMK T01100040 IEM_DS3505
ZGGG,2006-01-10 15:00,ZGGG 101500Z AUTO 32002KT 7SM 10/05 A3009 RMK SLP199 T01030053 52003 IEM_DS3505
ZGGG,2006-01-10 16:00,ZGGG 101600Z AUTO 00000KT 2 1/2SM 09/04 A3009 RMK T00900040 IEM_DS3505
ZGGG,2006-01-10 17:00,ZGGG 101700Z AUTO 00000KT 2 1/2SM 08/04 A3006 RMK T00800040 IEM_DS3505
ZGGG,2006-01-10 20:00,ZGGG 102000Z AUTO 00000KT 2 1/2SM 10/05 A3006 RMK T01000050 IEM_DS3505
ZGGG,2006-01-10 22:00,ZGGG 102200Z AUTO 00000KT 2SM 11/05 A3006 RMK T01100050 IEM_DS3505
ZGGG,2006-01-10 23:00,ZGGG 102300Z AUTO 00000KT 2SM 11/06 A3006 RMK T01100060 IEM_DS3505
ZGGG,2006-01-11 00:00,ZGGG 110000Z AUTO 36002KT 6SM 13/06 A3009 RMK SLP199 T01290056 52013 IEM_DS3505
ZGGG,2006-01-11 01:00,ZGGG 110100Z AUTO 2SM 13/04 A3012 RMK T01300040 IEM_DS3505
ZGGG,2006-01-11 02:00,ZGGG 110200Z AUTO 00000KT 2 1/2SM 15/05 A3012 RMK T01500050 IEM_DS3505
ZGGG,2006-01-11 03:00,ZGGG 110300Z AUTO 27002KT 3SM 19/07 A3009 RMK SLP200 T01930068 52002 IEM_DS3505
ZGGG,2006-01-11 04:00,ZGGG 110400Z AUTO 3SM 19/05 A3009 RMK T01900050 IEM_DS3505
ZGGG,2006-01-11 05:00,ZGGG 110500Z AUTO 21/06 A3003 RMK T02100060 IEM_DS3505
ZGGG,2006-01-11 06:00,ZGGG 110600Z AUTO 25004KT 2 1/2SM 22/07 A3000 RMK SLP165 T02200070 57035 IEM_DS3505
ZGGG,2006-01-11 07:00,ZGGG 110700Z AUTO 25004KT 21/06 A2997 RMK T02100060 IEM_DS3505
ZGGG,2006-01-11 08:00,ZGGG 110800Z AUTO 3SM 21/06 A2997 RMK T02100060 IEM_DS3505
ZGGG,2006-01-11 09:00,ZGGG 110900Z AUTO 34002KT 2SM 20/08 A2997 RMK SLP158 T02040084 57007 IEM_DS3505
ZGGG,2006-01-11 10:00,ZGGG 111000Z AUTO 2 1/2SM 20/07 A2997 RMK T02000070 IEM_DS3505
ZGGG,2006-01-11 11:00,ZGGG 111100Z AUTO 00000KT 2 1/2SM 19/07 A3000 RMK T01900070 IEM_DS3505
ZGGG,2006-01-11 12:00,ZGGG 111200Z AUTO 00000KT 3SM 18/10 A3000 RMK SLP172 T01760100 52014 IEM_DS3505
ZGGG,2006-01-11 13:00,ZGGG 111300Z AUTO 00000KT 2SM 17/10 A3003 RMK T01700100 IEM_DS3505
ZGGG,2006-01-11 14:00,ZGGG 111400Z AUTO 00000KT 1 1/4SM 17/10 A3003 RMK T01700100 IEM_DS3505
ZGGG,2006-01-11 15:00,ZGGG 111500Z AUTO 16002KT 2 1/2SM 18/12 A3003 RMK SLP187 T01790119 52015 IEM_DS3505
ZGGG,2006-01-11 16:00,ZGGG 111600Z AUTO 00000KT 2SM 18/11 A3006 RMK T01800110 IEM_DS3505
ZGGG,2006-01-11 17:00,ZGGG 111700Z AUTO 00000KT 2SM 17/11 A3006 RMK T01700110 IEM_DS3505
ZGGG,2006-01-11 18:00,ZGGG 111800Z AUTO 04002KT 2SM 17/13 A3003 RMK SLP178 T01700129 57008 IEM_DS3505
ZGGG,2006-01-11 19:00,ZGGG 111900Z AUTO 00000KT 2SM 16/11 A3000 RMK T01600110 IEM_DS3505
ZGGG,2006-01-11 20:00,ZGGG 112000Z AUTO 00000KT 1 1/2SM 15/11 A3000 RMK T01500110 IEM_DS3505
ZGGG,2006-01-11 21:00,ZGGG 112100Z AUTO 02002KT 2 1/2SM 16/13 A3000 RMK SLP166 T01580131 57013 IEM_DS3505
ZGGG,2006-01-11 22:00,ZGGG 112200Z AUTO 00000KT 1 1/4SM 16/11 A3000 RMK T01600110 IEM_DS3505
ZGGG,2006-01-11 23:00,ZGGG 112300Z AUTO 00000KT 1 1/2SM 16/11 A3003 RMK T01600110 IEM_DS3505
ZGGG,2006-01-12 00:00,ZGGG 120000Z AUTO 07002KT 4SM 16/13 A3003 RMK SLP182 T01610132 52016 IEM_DS3505
ZGGG,2006-01-12 01:00,ZGGG 120100Z AUTO 00000KT 1 1/2SM 17/11 A3006 RMK T01700110 IEM_DS3505
ZGGG,2006-01-12 02:00,ZGGG 120200Z AUTO 00000KT 2SM 19/11 A3006 RMK T01900110 IEM_DS3505
ZGGG,2006-01-12 03:00,ZGGG 120300Z AUTO 14002KT 3SM 21/13 A3006 RMK SLP188 T02060131 52006 IEM_DS3505
ZGGG,2006-01-12 04:00,ZGGG 120400Z AUTO 2 1/2SM 22/11 A3003 RMK T02200110 IEM_DS3505
ZGGG,2006-01-12 05:00,ZGGG 120500Z AUTO 2 1/2SM 24/11 A2997 RMK T02400110 IEM_DS3505
ZGGG,2006-01-12 06:00,ZGGG 120600Z AUTO 16004KT 4SM 25/14 A2994 RMK SLP145 T02470136 57042 IEM_DS3505
ZGGG,2006-01-12 07:00,ZGGG 120700Z AUTO 00000KT 2 1/2SM 25/12 A2991 RMK T02500120 IEM_DS3505
ZGGG,2006-01-12 08:00,ZGGG 120800Z AUTO 2 1/2SM 25/12 A2991 RMK T02500120 IEM_DS3505
ZGGG,2006-01-12 09:00,ZGGG 120900Z AUTO 18002KT 3SM 24/15 A2991 RMK SLP139 T02370147 57006 IEM_DS3505
ZGGG,2006-01-12 10:00,ZGGG 121000Z AUTO 2SM 23/13 A2991 RMK T02300130 IEM_DS3505
ZGGG,2006-01-12 11:00,ZGGG 121100Z AUTO 1 1/2SM 23/13 A2991 RMK T02300130 IEM_DS3505
ZGGG,2006-01-12 12:00,ZGGG 121200Z AUTO 00000KT 3SM 20/16 A2994 RMK SLP150 T01950156 52010 IEM_DS3505
ZGGG,2006-01-12 12:30,ZGGG 121230Z AUTO 1 1/2SM 22/12 A2994 RMK T02200120 IEM_DS3505
ZGGG,2006-01-12 13:00,ZGGG 121300Z AUTO 00000KT 1 1/2SM 20/13 A2994 RMK T02000130 IEM_DS3505
ZGGG,2006-01-12 14:00,ZGGG 121400Z AUTO 00000KT 1 1/2SM 19/13 A2994 RMK T01900130 IEM_DS3505
ZGGG,2006-01-12 15:00,ZGGG 121500Z AUTO 00000KT 3SM 18/15 A2997 RMK SLP157 T01850154 52008 IEM_DS3505
ZGGG,2006-01-12 16:00,ZGGG 121600Z AUTO 00000KT 1 1/4SM 18/14 A2997 RMK T01800140 IEM_DS3505
ZGGG,2006-01-12 17:00,ZGGG 121700Z AUTO 00000KT 1 1/4SM 18/14 A2997 RMK T01800140 IEM_DS3505
ZGGG,2006-01-12 18:00,ZGGG 121800Z AUTO 00000KT 2 1/2SM 18/15 A2997 RMK SLP158 T01780154 52001 IEM_DS3505
ZGGG,2006-01-12 19:00,ZGGG 121900Z AUTO 00000KT 1 1/4SM 17/13 A2997 RMK T01700130 IEM_DS3505
ZGGG,2006-01-12 20:00,ZGGG 122000Z AUTO 00000KT 1 1/4SM 17/13 A2994 RMK T01700130 IEM_DS3505
ZGGG,2006-01-12 21:00,ZGGG 122100Z AUTO 07002KT 2SM 17/15 A2994 RMK SLP155 T01660151 57003 IEM_DS3505
ZGGG,2006-01-12 22:00,ZGGG 122200Z AUTO 10004KT 1 1/2SM 17/13 A2997 RMK T01700130 IEM_DS3505
ZGGG,2006-01-12 23:00,ZGGG 122300Z AUTO 00000KT 1 1/4SM 16/13 A2997 RMK T01600130 IEM_DS3505
ZGGG,2006-01-13 00:00,ZGGG 130000Z AUTO 00000KT 1 1/2SM 17/16 A3000 RMK SLP170 T01660156 52014 IEM_DS3505
ZGGG,2006-01-13 01:00,ZGGG 130100Z AUTO 00000KT 1 1/4SM 18/13 A3003 RMK T01800130 IEM_DS3505
ZGGG,2006-01-13 02:00,ZGGG 130200Z AUTO 00000KT 1 1/4SM 20/13 A3003 RMK T02000130 IEM_DS3505
ZGGG,2006-01-13 03:00,ZGGG 130300Z AUTO 16002KT 3SM 24/16 A3000 RMK SLP168 T02380163 57001 IEM_DS3505
ZGGG,2006-01-13 04:00,ZGGG 130400Z AUTO 2 1/2SM 24/14 A2997 RMK T02400140 IEM_DS3505
ZGGG,2006-01-13 05:00,ZGGG 130500Z AUTO 3SM 26/14 A2994 RMK T02600140 IEM_DS3505
ZGGG,2006-01-13 06:00,ZGGG 130600Z AUTO 18002KT 4SM 26/15 A2991 RMK SLP137 T02640151 57031 IEM_DS3505
ZGGG,2006-01-13 07:00,ZGGG 130700Z AUTO 25006KT 1 1/2SM 26/14 A2991 RMK T02600140 IEM_DS3505
ZGGG,2006-01-13 08:00,ZGGG 130800Z AUTO 1 1/2SM 26/14 A2988 RMK T02600140 IEM_DS3505
ZGGG,2006-01-13 09:00,ZGGG 130900Z AUTO 16002KT 4SM 26/14 A2988 RMK SLP131 T02600138 57006 IEM_DS3505
ZGGG,2006-01-13 10:00,ZGGG 131000Z AUTO 00000KT 1 1/4SM 23/15 A2991 RMK T02300150 IEM_DS3505
ZGGG,2006-01-13 11:00,ZGGG 131100Z AUTO 00000KT 1SM 22/15 A2991 RMK T02200150 IEM_DS3505
ZGGG,2006-01-13 12:00,ZGGG 131200Z AUTO 07002KT 5SM 20/15 A2991 RMK SLP144 T01970154 52013 IEM_DS3505
ZGGG,2006-01-13 13:00,ZGGG 131300Z AUTO 00000KT 1SM 20/16 A2991 RMK T02000160 IEM_DS3505
ZGGG,2006-01-13 14:00,ZGGG 131400Z AUTO 00000KT 1SM 20/15 A2994 RMK T02000150 IEM_DS3505
ZGGG,2006-01-13 15:00,ZGGG 131500Z AUTO 11002KT 6SM 19/15 A2994 RMK SLP152 T01860153 52008 IEM_DS3505
ZGGG,2006-01-13 16:00,ZGGG 131600Z AUTO 00000KT 1SM 19/15 A2994 RMK T01900150 IEM_DS3505
ZGGG,2006-01-13 17:00,ZGGG 131700Z AUTO 00000KT 1SM 18/15 A2997 RMK T01800150 IEM_DS3505
ZGGG,2006-01-13 18:00,ZGGG 131800Z AUTO 11002KT 5SM 19/15 A2997 RMK SLP160 T01860153 52008 IEM_DS3505
ZGGG,2006-01-13 19:00,ZGGG 131900Z AUTO 00000KT 1 1/4SM 18/14 A2997 RMK T01800140 IEM_DS3505
ZGGG,2006-01-13 20:00,ZGGG 132000Z AUTO 00000KT 1 1/4SM 18/14 A2997 RMK T01800140 IEM_DS3505
ZGGG,2006-01-13 21:00,ZGGG 132100Z AUTO 11002KT 4SM 18/16 A2997 RMK SLP159 T01840162 57001 IEM_DS3505
ZGGG,2006-01-13 22:00,ZGGG 132200Z AUTO 00000KT 1 1/4SM 17/15 A2997 RMK T01700150 IEM_DS3505
ZGGG,2006-01-13 23:00,ZGGG 132300Z AUTO 00000KT 1SM 17/15 A3000 RMK T01700150 IEM_DS3505
ZGGG,2006-01-14 00:00,ZGGG 140000Z AUTO 00000KT 2SM 18/16 A3000 RMK SLP175 T01760161 52015 IEM_DS3505
ZGGG,2006-01-14 01:00,ZGGG 140100Z AUTO 07004KT 1SM 18/15 A3003 RMK T01800150 IEM_DS3505
ZGGG,2006-01-14 02:00,ZGGG 140200Z AUTO 00000KT 1 1/4SM 20/16 A3003 RMK T02000160 IEM_DS3505
ZGGG,2006-01-14 03:00,ZGGG 140300Z AUTO 20004KT 1 1/2SM 22/16 A3003 RMK SLP177 T02160159 52003 IEM_DS3505
ZGGG,2006-01-14 04:00,ZGGG 140400Z AUTO 00000KT 1 1/4SM 21/15 A3000 RMK T02100150 IEM_DS3505
ZGGG,2006-01-14 05:00,ZGGG 140500Z AUTO 1 1/2SM 23/15 A2997 RMK T02300150 IEM_DS3505
ZGGG,2006-01-14 06:00,ZGGG 140600Z AUTO 18004KT 2SM 24/16 A2994 RMK SLP149 T02450157 57028 IEM_DS3505
ZGGG,2006-01-14 07:00,ZGGG 140700Z AUTO 28006G16KT 1 1/4SM 24/15 A2994 RMK T02400150 IEM_DS3505
ZGGG,2006-01-14 08:00,ZGGG 140800Z AUTO 29004KT 1 1/4SM 24/15 A2991 RMK T02400150 IEM_DS3505
ZGGG,2006-01-14 09:00,ZGGG 140900Z AUTO 14004KT 3SM 24/15 A2991 RMK SLP145 T02370152 57004 IEM_DS3505
ZGGG,2006-01-14 10:00,ZGGG 141000Z AUTO 00000KT 1 1/4SM 22/15 A2994 RMK T02200150 IEM_DS3505
ZGGG,2006-01-14 11:00,ZGGG 141100Z AUTO 00000KT 1 1/2SM 21/15 A2994 RMK T02100150 IEM_DS3505
ZGGG,2006-01-14 12:00,ZGGG 141200Z AUTO 11002KT 4SM 20/16 A2994 RMK SLP155 T01990158 52010 IEM_DS3505
ZGGG,2006-01-14 13:00,ZGGG 141300Z AUTO 00000KT 2SM 18/14 A2997 RMK T01800140 IEM_DS3505
ZGGG,2006-01-14 14:00,ZGGG 141400Z AUTO 00000KT 1 1/2SM 18/15 A2997 RMK T01800150 IEM_DS3505
ZGGG,2006-01-14 15:00,ZGGG 141500Z AUTO 09002KT 7SM 17/15 A3000 RMK SLP167 T01730148 52012 IEM_DS3505
ZGGG,2006-01-14 16:00,ZGGG 141600Z AUTO 00000KT 2SM 16/14 A3000 RMK T01600140 IEM_DS3505
ZGGG,2006-01-14 17:00,ZGGG 141700Z AUTO 00000KT 1 1/2SM 16/13 A3000 RMK T01600130 IEM_DS3505
ZGGG,2006-01-14 18:00,ZGGG 141800Z AUTO 00000KT 6SM 16/14 A3000 RMK SLP170 T01590144 52003 IEM_DS3505
ZGGG,2006-01-14 19:00,ZGGG 141900Z AUTO 00000KT 1SM 15/13 A3000 RMK T01500130 IEM_DS3505
ZGGG,2006-01-14 20:00,ZGGG 142000Z AUTO 00000KT 1 1/4SM 15/13 A3000 RMK T01500130 IEM_DS3505
ZGGG,2006-01-14 21:00,ZGGG 142100Z AUTO 36002KT 5SM 15/14 A3000 RMK SLP169 T01490138 57001 IEM_DS3505
ZGGG,2006-01-14 22:00,ZGGG 142200Z AUTO 00000KT 1SM 14/13 A3000 RMK T01400130 IEM_DS3505
ZGGG,2006-01-14 23:00,ZGGG 142300Z AUTO 00000KT 1SM 14/12 A3003 RMK T01400120 IEM_DS3505
ZGGG,2006-01-15 00:00,ZGGG 150000Z AUTO 11004KT 4SM 15/14 A3003 RMK SLP185 T01510141 52015 IEM_DS3505
ZGGG,2006-01-15 01:00,ZGGG 150100Z AUTO 00000KT 1SM 16/14 A3006 RMK T01600140 IEM_DS3505
ZGGG,2006-01-15 02:00,ZGGG 150200Z AUTO 00000KT 1 1/4SM 19/14 A3006 RMK T01900140 IEM_DS3505
ZGGG,2006-01-15 04:00,ZGGG 150400Z AUTO 00000KT 2SM 23/13 A3003 RMK T02300130 IEM_DS3505
ZGGG,2006-01-15 05:00,ZGGG 150500Z AUTO 25006KT 1 1/2SM 24/14 A2997 RMK T02400140 IEM_DS3505
ZGGG,2006-01-15 06:00,ZGGG 150600Z AUTO 16002KT 2 1/2SM 24/15 A2994 RMK SLP151 T02430150 57032 IEM_DS3505
ZGGG,2006-01-15 07:00,ZGGG 150700Z AUTO 24006KT 1 1/2SM 24/15 A2994 RMK T02400150 IEM_DS3505
ZGGG,2006-01-15 08:00,ZGGG 150800Z AUTO 23006KT 2SM 24/14 A2991 RMK T02400140 IEM_DS3505
ZGGG,2006-01-15 09:00,ZGGG 150900Z AUTO 18002KT 4SM 24/14 A2991 RMK SLP142 T02420143 57009 IEM_DS3505
ZGGG,2006-01-15 10:00,ZGGG 151000Z AUTO 2 1/2SM 23/14 A2994 RMK T02300140 IEM_DS3505
ZGGG,2006-01-15 11:00,ZGGG 151100Z AUTO 2 1/2SM 21/14 A2994 RMK T02100140 IEM_DS3505
ZGGG,2006-01-15 12:00,ZGGG 151200Z AUTO 14002KT 5SM 19/15 A2997 RMK SLP157 T01910154 52014 IEM_DS3505
ZGGG,2006-01-15 13:00,ZGGG 151300Z AUTO 10004KT 1 1/4SM 17/15 A2997 RMK T01700150 IEM_DS3505
ZGGG,2006-01-15 14:00,ZGGG 151400Z AUTO 11002KT 1 1/4SM 17/15 A2997 RMK T01700150 IEM_DS3505
ZGGG,2006-01-15 15:00,ZGGG 151500Z AUTO 04002KT 4SM 18/15 A3000 RMK SLP166 T01750151 52010 IEM_DS3505
ZGGG,2006-01-15 16:00,ZGGG 151600Z AUTO 11002KT 1SM 16/14 A2997 RMK T01600140 IEM_DS3505
ZGGG,2006-01-15 17:00,ZGGG 151700Z AUTO 00000KT 1 1/4SM 15/13 A2997 RMK T01500130 IEM_DS3505
ZGGG,2006-01-15 18:00,ZGGG 151800Z AUTO 34004KT 3SM 16/15 A2997 RMK SLP161 T01610146 57005 IEM_DS3505
ZGGG,2006-01-15 19:00,ZGGG 151900Z AUTO 1 1/2SM 15/13 A2997 RMK T01500130 IEM_DS3505
ZGGG,2006-01-15 20:00,ZGGG 152000Z AUTO 00000KT 1 1/4SM 15/13 A2997 RMK T01500130 IEM_DS3505
ZGGG,2006-01-15 21:00,ZGGG 152100Z AUTO 34002KT 3SM 16/15 A3000 RMK SLP165 T01630148 52004 IEM_DS3505
ZGGG,2006-01-15 22:00,ZGGG 152200Z AUTO 1 1/4SM 16/14 A3000 RMK T01600140 IEM_DS3505
ZGGG,2006-01-15 23:00,ZGGG 152300Z AUTO 00000KT 1SM 15/13 A3000 RMK T01500130 IEM_DS3505
ZGGG,2006-01-16 00:00,ZGGG 160000Z AUTO 00000KT 2SM 17/16 A3003 RMK SLP175 T01660155 52009 IEM_DS3505
ZGGG,2006-01-16 01:00,ZGGG 160100Z AUTO 1SM 17/15 A3003 RMK T01700150 IEM_DS3505
ZGGG,2006-01-16 02:00,ZGGG 160200Z AUTO 00000KT 1SM 18/14 A3006 RMK T01800140 IEM_DS3505
ZGGG,2006-01-16 03:00,ZGGG 160300Z AUTO 27002KT 2SM 22/16 A3003 RMK SLP174 T02170155 54000 IEM_DS3505
ZGGG,2006-01-16 04:00,ZGGG 160400Z AUTO 1 1/4SM 22/15 A2997 RMK T02200150 IEM_DS3505
ZGGG,2006-01-16 05:00,ZGGG 160500Z AUTO 35002KT 2 1/2SM 25/15 A2994 RMK T02500150 IEM_DS3505
ZGGG,2006-01-16 06:00,ZGGG 160600Z AUTO 18002KT 4SM 25/16 A2991 RMK SLP134 T02520158 57040 IEM_DS3505
ZGGG,2006-01-16 07:00,ZGGG 160700Z AUTO 2 1/2SM 25/14 A2988 RMK T02500140 IEM_DS3505
ZGGG,2006-01-16 08:00,ZGGG 160800Z AUTO 18006KT 3SM 26/14 A2988 RMK T02600140 IEM_DS3505
ZGGG,2006-01-16 09:00,ZGGG 160900Z AUTO 18002KT 7SM 25/16 A2988 RMK SLP128 T02470156 57006 IEM_DS3505
ZGGG,2006-01-16 10:00,ZGGG 161000Z AUTO 00000KT 2SM 23/15 A2988 RMK T02300150 IEM_DS3505
ZGGG,2006-01-16 11:00,ZGGG 161100Z AUTO 00000KT 2 1/2SM 21/16 A2991 RMK T02100160 IEM_DS3505
ZGGG,2006-01-16 12:00,ZGGG 161200Z AUTO 07002KT 7SM 20/16 A2991 RMK SLP140 T01950163 52012 IEM_DS3505
ZGGG,2006-01-16 13:00,ZGGG 161300Z AUTO 00000KT 1 1/2SM 18/15 A2991 RMK T01800150 IEM_DS3505
ZGGG,2006-01-16 14:00,ZGGG 161400Z AUTO 00000KT 1 1/2SM 19/16 A2994 RMK T01900160 IEM_DS3505
ZGGG,2006-01-16 15:00,ZGGG 161500Z AUTO 14002KT 7SM 19/16 A2994 RMK SLP155 T01880164 52015 IEM_DS3505
ZGGG,2006-01-16 16:00,ZGGG 161600Z AUTO 00000KT 1 1/2SM 19/16 A2997 RMK T01900160 IEM_DS3505
ZGGG,2006-01-16 17:00,ZGGG 161700Z AUTO 2SM 20/16 A2997 RMK T02000160 IEM_DS3505
ZGGG,2006-01-16 19:00,ZGGG 161900Z AUTO 00000KT 2SM 19/16 A2997 RMK T01900160 IEM_DS3505
ZGGG,2006-01-16 20:00,ZGGG 162000Z AUTO 00000KT 1 1/2SM 19/16 A2997 RMK T01900160 IEM_DS3505
ZGGG,2006-01-16 21:00,ZGGG 162100Z AUTO 04002KT 4SM 18/16 A2997 RMK SLP158 T01780161 57007 IEM_DS3505
ZGGG,2006-01-16 22:00,ZGGG 162200Z AUTO 00000KT 1 1/2SM 18/16 A2997 RMK T01800160 IEM_DS3505
ZGGG,2006-01-16 23:00,ZGGG 162300Z AUTO 00000KT 1 1/4SM 19/16 A3000 RMK T01900160 IEM_DS3505
ZGGG,2006-01-17 00:00,ZGGG 170000Z AUTO 00000KT 2SM 19/17 A3000 RMK SLP170 T01900171 52012 IEM_DS3505
ZGGG,2006-01-17 01:00,ZGGG 170100Z AUTO 07004KT 1SM 20/16 A3000 RMK T02000160 IEM_DS3505
ZGGG,2006-01-17 02:00,ZGGG 170200Z AUTO 09008KT 2SM 23/17 A3000 RMK T02300170 IEM_DS3505
ZGGG,2006-01-17 03:00,ZGGG 170300Z AUTO 11006KT 4SM 23/17 A3000 RMK SLP170 T02260171 54000 IEM_DS3505
ZGGG,2006-01-17 04:00,ZGGG 170400Z AUTO 3SM 25/17 A2997 RMK T02500170 IEM_DS3505
ZGGG,2006-01-17 05:00,ZGGG 170500Z AUTO 25/17 A2994 RMK T02500170 IEM_DS3505
ZGGG,2006-01-17 06:00,ZGGG 170600Z AUTO 14006KT 2 1/2SM 24/17 A2991 RMK SLP141 T02420174 57029 IEM_DS3505
ZGGG,2006-01-17 07:00,ZGGG 170700Z AUTO 3SM 24/17 A2991 RMK T02400170 IEM_DS3505
ZGGG,2006-01-17 08:00,ZGGG 170800Z AUTO 14004KT 2SM 25/17 A2991 RMK T02500170 IEM_DS3505
ZGGG,2006-01-17 09:00,ZGGG 170900Z AUTO 20002KT 2 1/2SM 23/17 A2991 RMK SLP144 T02330173 52003 IEM_DS3505
ZGGG,2006-01-17 10:00,ZGGG 171000Z AUTO 1 1/2SM 23/17 A2991 RMK T02300170 IEM_DS3505
ZGGG,2006-01-17 11:00,ZGGG 171100Z AUTO 12004KT 2SM 22/17 A2994 RMK T02200170 IEM_DS3505
ZGGG,2006-01-17 12:00,ZGGG 171200Z AUTO 14004KT 5SM 21/17 A2994 RMK SLP151 T02130173 52007 IEM_DS3505
ZGGG,2006-01-17 13:00,ZGGG 171300Z AUTO 2SM 21/17 A2997 RMK T02100170 IEM_DS3505
ZGGG,2006-01-17 14:00,ZGGG 171400Z AUTO 2SM 21/17 A2997 RMK T02100170 IEM_DS3505
ZGGG,2006-01-17 15:00,ZGGG 171500Z AUTO 11004KT 6SM 21/17 A2994 RMK SLP154 T02100172 52003 IEM_DS3505
ZGGG,2006-01-17 16:00,ZGGG 171600Z AUTO 2SM 21/17 A2994 RMK T02100170 IEM_DS3505
ZGGG,2006-01-17 17:00,ZGGG 171700Z AUTO 1 1/2SM 21/17 A2994 RMK T02100170 IEM_DS3505
ZGGG,2006-01-17 18:00,ZGGG 171800Z AUTO 16002KT 5SM 21/18 A2994 RMK SLP148 T02070175 57006 IEM_DS3505
ZGGG,2006-01-17 19:00,ZGGG 171900Z AUTO 1 1/2SM 20/17 A2994 RMK T02000170 IEM_DS3505
ZGGG,2006-01-17 20:00,ZGGG 172000Z AUTO 07004KT 1 1/2SM 20/17 A2991 RMK T02000170 IEM_DS3505
ZGGG,2006-01-17 21:00,ZGGG 172100Z AUTO 11002KT 4SM 20/18 A2991 RMK SLP138 T02010177 57010 IEM_DS3505
ZGGG,2006-01-17 22:00,ZGGG 172200Z AUTO 2SM 20/17 A2991 RMK T02000170 IEM_DS3505
ZGGG,2006-01-17 23:00,ZGGG 172300Z AUTO 10004KT 2SM 20/17 A2991 RMK T02000170 IEM_DS3505
ZGGG,2006-01-18 00:00,ZGGG 180000Z AUTO 11002KT 2SM 20/18 A2991 RMK SLP144 T02040178 52006 IEM_DS3505
ZGGG,2006-01-18 01:00,ZGGG 180100Z AUTO 11004KT 3SM 21/17 A2991 RMK T02100170 IEM_DS3505
ZGGG,2006-01-18 02:00,ZGGG 180200Z AUTO 23/17 A2994 RMK T02300170 IEM_DS3505
ZGGG,2006-01-18 03:00,ZGGG 180300Z AUTO 16006KT 2 1/2SM 23/18 A2994 RMK SLP145 T02330182 52001 IEM_DS3505
ZGGG,2006-01-18 04:00,ZGGG 180400Z AUTO 15010KT 3SM 25/18 A2991 RMK T02500180 IEM_DS3505
ZGGG,2006-01-18 05:00,ZGGG 180500Z AUTO 16006KT 2 1/2SM 25/18 A2988 RMK T02500180 IEM_DS3505
ZGGG,2006-01-18 05:30,ZGGG 180530Z AUTO 14006KT 2 1/2SM 24/18 A2985 RMK T02400180 IEM_DS3505
ZGGG,2006-01-18 06:00,ZGGG 180600Z AUTO 14004KT 5SM 25/19 A2983 RMK SLP111 T02490188 57034 IEM_DS3505
ZGGG,2006-01-18 07:00,ZGGG 180700Z AUTO 16010KT 26/18 A2980 RMK T02600180 IEM_DS3505
ZGGG,2006-01-18 08:00,ZGGG 180800Z AUTO 18006KT 5SM 25/18 A2983 RMK T02500180 IEM_DS3505
ZGGG,2006-01-18 09:00,ZGGG 180900Z AUTO 16004KT 6SM 24/19 A2983 RMK SLP112 T02380191 52001 IEM_DS3505
ZGGG,2006-01-18 10:00,ZGGG 181000Z AUTO 18008KT 3SM 24/19 A2983 RMK T02400190 IEM_DS3505
ZGGG,2006-01-18 11:00,ZGGG 181100Z AUTO 17008KT 3SM 23/19 A2985 RMK T02300190 IEM_DS3505
ZGGG,2006-01-18 12:00,ZGGG 181200Z AUTO 14004KT 7SM 22/19 A2985 RMK SLP122 T02250189 52010 IEM_DS3505
ZGGG,2006-01-18 13:00,ZGGG 181300Z AUTO 15004KT 3SM 23/18 A2985 RMK T02300180 IEM_DS3505
ZGGG,2006-01-18 14:00,ZGGG 181400Z AUTO 17004KT 3SM 23/19 A2988 RMK T02300190 IEM_DS3505
ZGGG,2006-01-18 15:00,ZGGG 181500Z AUTO 14002KT 8SM 22/19 A2988 RMK SLP125 T02230191 52003 IEM_DS3505
ZGGG,2006-01-18 16:00,ZGGG 181600Z AUTO 13004KT 3SM 23/19 A2988 RMK T02300190 IEM_DS3505
ZGGG,2006-01-18 17:00,ZGGG 181700Z AUTO 3SM 22/19 A2985 RMK T02200190 IEM_DS3505
ZGGG,2006-01-18 19:00,ZGGG 181900Z AUTO 11004KT 3SM 22/19 A2985 RMK T02200190 IEM_DS3505
ZGGG,2006-01-18 20:00,ZGGG 182000Z AUTO 00000KT 3SM 21/18 A2985 RMK T02100180 IEM_DS3505
ZGGG,2006-01-18 21:00,ZGGG 182100Z AUTO 11002KT 6SM 21/19 A2985 RMK SLP116 T02140190 57009 IEM_DS3505
ZGGG,2006-01-18 22:00,ZGGG 182200Z AUTO 2 1/2SM 22/18 A2985 RMK T02200180 IEM_DS3505
ZGGG,2006-01-18 23:00,ZGGG 182300Z AUTO 2 1/2SM 22/18 A2985 RMK T02200180 IEM_DS3505
ZGGG,2006-01-19 00:00,ZGGG 190000Z AUTO 14004KT 2 1/2SM 21/19 A2985 RMK SLP119 T02120188 52003 IEM_DS3505
ZGGG,2006-01-19 01:00,ZGGG 190100Z AUTO 15004KT 2 1/2SM 22/18 A2985 RMK T02200180 IEM_DS3505
ZGGG,2006-01-19 02:00,ZGGG 190200Z AUTO 2 1/2SM 23/18 A2988 RMK T02300180 IEM_DS3505
ZGGG,2006-01-19 03:00,ZGGG 190300Z AUTO 14004KT 1SM 22/19 A2985 RMK SLP121 T02250191 52002 IEM_DS3505
ZGGG,2006-01-19 04:00,ZGGG 190400Z AUTO 13004KT 3SM 23/18 A2983 RMK T02300180 IEM_DS3505
ZGGG,2006-01-19 05:00,ZGGG 190500Z AUTO 18006KT 2 1/2SM 23/19 A2980 RMK T02300190 IEM_DS3505
ZGGG,2006-01-19 06:00,ZGGG 190600Z AUTO 16004KT 7SM 23/19 A2977 RMK 60000 SLP093 T02310191 57028 IEM_DS3505
ZGGG,2006-01-19 07:00,ZGGG 190700Z AUTO 19004KT 2 1/2SM 24/20 A2977 RMK T02400200 IEM_DS3505
ZGGG,2006-01-19 08:00,ZGGG 190800Z AUTO 16004KT 3SM 24/19 A2977 RMK T02400190 IEM_DS3505
ZGGG,2006-01-19 09:00,ZGGG 190900Z AUTO 14006KT 7SM 23/19 A2977 RMK SLP091 T02330190 57002 IEM_DS3505
ZGGG,2006-01-19 10:00,ZGGG 191000Z AUTO 33010KT 3SM 18/14 A2980 RMK T01800140 IEM_DS3505
ZGGG,2006-01-19 11:00,ZGGG 191100Z AUTO 34008KT 4SM 17/13 A2983 RMK T01700130 IEM_DS3505
ZGGG,2006-01-19 12:00,ZGGG 191200Z AUTO 25002KT 6SM 22/19 A2985 RMK 60000 SLP110 T02250189 52019 IEM_DS3505
ZGGG,2006-01-19 14:00,ZGGG 191400Z AUTO 34008KT 7SM 14/10 A2988 RMK T01400100 IEM_DS3505
ZGGG,2006-01-19 15:00,ZGGG 191500Z AUTO 34004KT 6SM 16/13 A2991 RMK SLP130 T01630130 52020 IEM_DS3505
ZGGG,2006-01-19 16:00,ZGGG 191600Z AUTO 34010KT 7SM 13/09 A2991 RMK T01300090 IEM_DS3505
ZGGG,2006-01-19 17:00,ZGGG 191700Z AUTO 33010KT 7SM 13/08 A2994 RMK T01300080 IEM_DS3505
ZGGG,2006-01-19 18:00,ZGGG 191800Z AUTO 34006KT 7SM 14/10 A2994 RMK SLP141 T01420100 52011 IEM_DS3505
ZGGG,2006-01-19 19:00,ZGGG 191900Z AUTO 35010KT 7SM 13/08 A2994 RMK T01300080 IEM_DS3505
ZGGG,2006-01-19 20:00,ZGGG 192000Z AUTO 34010KT 7SM 12/07 A2994 RMK T01200070 IEM_DS3505
ZGGG,2006-01-19 21:00,ZGGG 192100Z AUTO 36006KT 8SM 13/09 A2994 RMK 70000 SLP147 T01280087 52005 IEM_DS3505
ZGGG,2006-01-19 22:00,ZGGG 192200Z AUTO 34010KT 7SM 12/07 A2997 RMK T01200070 IEM_DS3505
ZGGG,2006-01-19 23:00,ZGGG 192300Z AUTO 35010KT 7SM 11/06 A3000 RMK T01100060 IEM_DS3505
ZGGG,2006-01-20 00:00,ZGGG 200000Z AUTO 36008KT 11SM 12/08 A3003 RMK 60000 70000 SLP172 T01230076 52025 IEM_DS3505
ZGGG,2006-01-20 01:00,ZGGG 200100Z AUTO 02008KT 7SM 12/06 A3003 RMK T01200060 IEM_DS3505
ZGGG,2006-01-20 02:00,ZGGG 200200Z AUTO 01010KT 7SM 12/06 A3003 RMK T01200060 IEM_DS3505
ZGGG,2006-01-20 03:00,ZGGG 200300Z AUTO 36004KT 11SM 13/08 A3003 RMK SLP176 T01310075 52004 IEM_DS3505
ZGGG,2006-01-20 04:00,ZGGG 200400Z AUTO 33010KT 7SM 12/06 A3000 RMK T01200060 IEM_DS3505
ZGGG,2006-01-20 05:00,ZGGG 200500Z AUTO 34010KT 7SM 13/06 A2997 RMK T01300060 IEM_DS3505
ZGGG,2006-01-20 07:00,ZGGG 200700Z AUTO 34010KT 7SM 12/05 A2994 RMK T01200050 IEM_DS3505
ZGGG,2006-01-20 08:00,ZGGG 200800Z AUTO 33010KT 2SM 10/07 A2997 RMK T01000070 IEM_DS3505
ZGGG,2006-01-20 09:00,ZGGG 200900Z AUTO 34004KT 2 1/2SM 10/09 A2997 RMK SLP158 T01030087 52005 IEM_DS3505
ZGGG,2006-01-20 10:00,ZGGG 201000Z AUTO 34006KT 5SM 10/07 A2997 RMK T01000070 IEM_DS3505
ZGGG,2006-01-20 11:00,ZGGG 201100Z AUTO 01010KT 7SM 10/07 A3000 RMK SLP170 T01000070 IEM_DS3505
ZGGG,2006-01-20 12:00,ZGGG 201200Z AUTO 34004KT 9SM 10/08 A3003 RMK 60008 SLP177 T01020080 52019 IEM_DS3505
ZGGG,2006-01-20 13:00,ZGGG 201300Z AUTO 01006KT 5SM 10/06 A3006 RMK SLP191 T01000060 IEM_DS3505
ZGGG,2006-01-20 14:00,ZGGG 201400Z AUTO 33010KT 4SM 09/06 A3006 RMK SLP191 T00900060 IEM_DS3505
ZGGG,2006-01-20 15:00,ZGGG 201500Z AUTO 36004KT 7SM 09/07 A3009 RMK SLP194 T00910074 52017 IEM_DS3505
ZGGG,2006-01-20 16:00,ZGGG 201600Z AUTO 35008KT 7SM 09/06 A3009 RMK T00900060 IEM_DS3505
ZGGG,2006-01-20 17:00,ZGGG 201700Z AUTO 34010KT 7SM 09/06 A3009 RMK T00900060 IEM_DS3505
ZGGG,2006-01-20 18:00,ZGGG 201800Z AUTO 36004KT 7SM 09/07 A3009 RMK 60016 SLP194 T00860071 54000 IEM_DS3505
ZGGG,2006-01-20 19:00,ZGGG 201900Z AUTO 33010KT 7SM 08/05 A3009 RMK SLP202 T00800050 IEM_DS3505
ZGGG,2006-01-20 20:00,ZGGG 202000Z AUTO 35008KT 7SM 08/05 A3009 RMK SLP202 T00800050 IEM_DS3505
ZGGG,2006-01-20 21:00,ZGGG 202100Z AUTO 36008KT 7SM 09/06 A3006 RMK 70024 SLP195 T00880055 52001 IEM_DS3505
ZGGG,2006-01-20 22:00,ZGGG 202200Z AUTO 34008KT 7SM 08/04 A3009 RMK SLP202 T00800040 IEM_DS3505
ZGGG,2006-01-20 23:00,ZGGG 202300Z AUTO 34010KT 7SM 08/04 A3012 RMK SLP212 T00800040 IEM_DS3505
ZGGG,2006-01-21 00:00,ZGGG 210000Z AUTO 32004KT 11SM 08/05 A3012 RMK 60000 70024 SLP215 T00830049 52020 IEM_DS3505
ZGGG,2006-01-21 01:00,ZGGG 210100Z AUTO 34010KT 7SM 08/04 A3015 RMK T00800040 IEM_DS3505
ZGGG,2006-01-21 02:00,ZGGG 210200Z AUTO 35010KT 7SM 09/04 A3015 RMK T00900040 IEM_DS3505
ZGGG,2006-01-21 03:00,ZGGG 210300Z AUTO 32004KT 11SM 10/05 A3015 RMK SLP222 T01020054 52007 IEM_DS3505
ZGGG,2006-01-21 04:00,ZGGG 210400Z AUTO 33012KT 7SM 10/03 A3015 RMK T01000030 IEM_DS3505
ZGGG,2006-01-21 05:00,ZGGG 210500Z AUTO 33010KT 7SM 11/04 A3012 RMK T01100040 IEM_DS3505
ZGGG,2006-01-21 06:00,ZGGG 210600Z AUTO 34004KT 10SM 11/05 A3006 RMK SLP192 T01120051 57030 IEM_DS3505
ZGGG,2006-01-21 07:00,ZGGG 210700Z AUTO 34010KT 7SM 12/04 A3006 RMK T01200040 IEM_DS3505
ZGGG,2006-01-21 08:00,ZGGG 210800Z AUTO 01012KT 7SM 12/03 A3006 RMK T01200030 IEM_DS3505
ZGGG,2006-01-21 09:00,ZGGG 210900Z AUTO 36004KT 10SM 12/04 A3006 RMK SLP186 T01160043 57006 IEM_DS3505
ZGGG,2006-01-21 10:00,ZGGG 211000Z AUTO 01012KT 7SM 11/03 A3006 RMK T01100030 IEM_DS3505
ZGGG,2006-01-21 11:00,ZGGG 211100Z AUTO 01010KT 7SM 11/03 A3006 RMK T01100030 IEM_DS3505
ZGGG,2006-01-21 12:00,ZGGG 211200Z AUTO 02004KT 10SM 11/04 A3009 RMK SLP202 T01080043 52016 IEM_DS3505
ZGGG,2006-01-21 13:00,ZGGG 211300Z AUTO 01008KT 7SM 11/03 A3012 RMK T01100030 IEM_DS3505
ZGGG,2006-01-21 14:00,ZGGG 211400Z AUTO 01006KT 7SM 11/02 A3012 RMK T01100020 IEM_DS3505
ZGGG,2006-01-21 15:00,ZGGG 211500Z AUTO 36004KT 10SM 10/04 A3012 RMK SLP208 T01030038 52006 IEM_DS3505
ZGGG,2006-01-21 16:00,ZGGG 211600Z AUTO 01008KT 7SM 10/03 A3009 RMK T01000030 IEM_DS3505
ZGGG,2006-01-21 17:00,ZGGG 211700Z AUTO 01010KT 6SM 10/02 A3009 RMK T01000020 IEM_DS3505
ZGGG,2006-01-21 18:00,ZGGG 211800Z AUTO 36004KT 10SM 10/04 A3006 RMK SLP195 T00970037 57013 IEM_DS3505
ZGGG,2006-01-21 19:00,ZGGG 211900Z AUTO 01008KT 7SM 10/02 A3006 RMK T01000020 IEM_DS3505
ZGGG,2006-01-21 20:00,ZGGG 212000Z AUTO 34008KT 7SM 09/03 A3006 RMK T00900030 IEM_DS3505
ZGGG,2006-01-21 21:00,ZGGG 212100Z AUTO 02002KT 8SM 09/03 A3006 RMK SLP193 T00940032 57002 IEM_DS3505
ZGGG,2006-01-21 22:00,ZGGG 212200Z AUTO 34008KT 7SM 09/02 A3009 RMK T00900020 IEM_DS3505
ZGGG,2006-01-21 23:00,ZGGG 212300Z AUTO 34006KT 7SM 09/02 A3009 RMK T00900020 IEM_DS3505
ZGGG,2006-01-22 00:00,ZGGG 220000Z AUTO 02002KT 9SM 09/03 A3012 RMK SLP211 T00930028 52018 IEM_DS3505
ZGGG,2006-01-22 01:00,ZGGG 220100Z AUTO 02008KT 7SM 10/02 A3015 RMK T01000020 IEM_DS3505
ZGGG,2006-01-22 02:00,ZGGG 220200Z AUTO 01010KT 7SM 10/01 A3018 RMK T01000010 IEM_DS3505
ZGGG,2006-01-22 03:00,ZGGG 220300Z AUTO 36004KT 9SM 10/04 A3018 RMK SLP224 T01030036 52013 IEM_DS3505
ZGGG,2006-01-22 04:00,ZGGG 220400Z AUTO 02008KT 7SM 11/02 A3015 RMK T01100020 IEM_DS3505
ZGGG,2006-01-22 05:00,ZGGG 220500Z AUTO 03008KT 7SM 11/02 A3012 RMK T01100020 IEM_DS3505
ZGGG,2006-01-22 06:00,ZGGG 220600Z AUTO 36002KT 9SM 11/04 A3009 RMK SLP200 T01060041 57024 IEM_DS3505
ZGGG,2006-01-22 07:00,ZGGG 220700Z AUTO 02010KT 5SM 11/03 A3009 RMK SLP201 T01100030 IEM_DS3505
ZGGG,2006-01-22 08:00,ZGGG 220800Z AUTO 03006KT 11/03 A3009 RMK SLP201 T01100030 IEM_DS3505
ZGGG,2006-01-22 09:00,ZGGG 220900Z AUTO 36004KT 8SM 10/04 A3009 RMK SLP200 T01030042 54000 IEM_DS3505
ZGGG,2006-01-22 10:00,ZGGG 221000Z AUTO 35010KT 10/03 A3012 RMK SLP211 T01000030 IEM_DS3505
ZGGG,2006-01-22 11:00,ZGGG 221100Z AUTO 36008KT 10/03 A3012 RMK T01000030 IEM_DS3505
ZGGG,2006-01-22 12:00,ZGGG 221200Z AUTO 36004KT 9SM 10/04 A3015 RMK SLP223 T00980044 52023 IEM_DS3505
ZGGG,2006-01-22 13:00,ZGGG 221300Z AUTO 02008KT 10/03 A3018 RMK SLP231 T01000030 IEM_DS3505
ZGGG,2006-01-22 14:00,ZGGG 221400Z AUTO 02010KT 5SM 10/03 A3018 RMK SLP231 T01000030 IEM_DS3505
ZGGG,2006-01-22 15:00,ZGGG 221500Z AUTO 36004KT 9SM 10/04 A3021 RMK SLP235 T00960038 52012 IEM_DS3505
ZGGG,2006-01-22 16:00,ZGGG 221600Z AUTO 02008KT 5SM 09/03 A3021 RMK SLP242 T00900030 IEM_DS3505
ZGGG,2006-01-22 17:00,ZGGG 221700Z AUTO 01008KT 6SM 09/03 A3021 RMK T00900030 IEM_DS3505
ZGGG,2006-01-22 18:00,ZGGG 221800Z AUTO 36004KT 9SM 09/03 A3021 RMK SLP243 T00890033 52008 IEM_DS3505
ZGGG,2006-01-22 19:00,ZGGG 221900Z AUTO 36012KT 7SM 09/01 A3021 RMK SLP242 T00900010 IEM_DS3505
ZGGG,2006-01-22 20:00,ZGGG 222000Z AUTO 36014KT 7SM 09/01 A3021 RMK SLP242 T00900010 IEM_DS3505
ZGGG,2006-01-22 21:00,ZGGG 222100Z AUTO 36004KT 9SM 09/02 A3021 RMK SLP243 T00870023 57001 IEM_DS3505
ZGGG,2006-01-22 22:00,ZGGG 222200Z AUTO 36010KT 7SM 09/02 A3024 RMK SLP252 T00900020 IEM_DS3505
ZGGG,2006-01-22 23:00,ZGGG 222300Z AUTO 36012KT 7SM 09/01 A3024 RMK SLP252 T00900010 IEM_DS3505
ZGGG,2006-01-23 00:00,ZGGG 230000Z AUTO 36006KT 10SM 08/02 A3027 RMK SLP257 T00850016 52014 IEM_DS3505
ZGGG,2006-01-23 01:00,ZGGG 230100Z AUTO 02012KT 6SM 09/00 A3027 RMK SLP263 T00900000 IEM_DS3505
ZGGG,2006-01-23 02:00,ZGGG 230200Z AUTO 01014KT 6SM 11/00 A3027 RMK SLP262 T01100000 IEM_DS3505
ZGGG,2006-01-23 03:00,ZGGG 230300Z AUTO 02004KT 12SM 13/02 A3027 RMK SLP254 T01280021 57002 IEM_DS3505
ZGGG,2006-01-23 04:00,ZGGG 230400Z AUTO 02006KT 6SM 13/00 A3024 RMK SLP251 T01300000 IEM_DS3505
ZGGG,2006-01-23 05:00,ZGGG 230500Z AUTO 05008G17KT 6SM 14/01 A3021 RMK SLP241 T01400010 IEM_DS3505
ZGGG,2006-01-23 06:00,ZGGG 230600Z AUTO 32004G17KT 12SM 15/03 A3018 RMK SLP230 T01490031 57024 IEM_DS3505
ZGGG,2006-01-23 07:00,ZGGG 230700Z AUTO 01010KT 7SM 15/00 A3018 RMK SLP231 T01500000 IEM_DS3505
ZGGG,2006-01-23 08:00,ZGGG 230800Z AUTO 34012KT 7SM 14/01 A3018 RMK SLP231 T01400010 IEM_DS3505
ZGGG,2006-01-23 09:00,ZGGG 230900Z AUTO 36006KT 11SM 14/03 A3021 RMK SLP233 T01360028 52003 IEM_DS3505
ZGGG,2006-01-23 10:00,ZGGG 231000Z AUTO 02010KT 7SM 12/01 A3021 RMK SLP241 T01200010 IEM_DS3505
ZGGG,2006-01-23 11:00,ZGGG 231100Z AUTO 02012KT 7SM 11/01 A3021 RMK SLP241 T01100010 IEM_DS3505
ZGGG,2006-01-23 12:00,ZGGG 231200Z AUTO 02002KT 11SM 11/03 A3024 RMK SLP248 T01120028 52015 IEM_DS3505
ZGGG,2006-01-23 13:00,ZGGG 231300Z AUTO 02008KT 7SM 11/01 A3024 RMK SLP251 T01100010 IEM_DS3505
ZGGG,2006-01-23 14:00,ZGGG 231400Z AUTO 01010KT 7SM 11/01 A3027 RMK SLP262 T01100010 IEM_DS3505
ZGGG,2006-01-23 15:00,ZGGG 231500Z AUTO 02004KT 11SM 10/02 A3027 RMK SLP260 T01040023 52012 IEM_DS3505
ZGGG,2006-01-23 16:00,ZGGG 231600Z AUTO 02008KT 7SM 10/01 A3027 RMK SLP263 T01000010 IEM_DS3505
ZGGG,2006-01-23 17:00,ZGGG 231700Z AUTO 01010KT 7SM 10/01 A3027 RMK SLP263 T01000010 IEM_DS3505
ZGGG,2006-01-23 18:00,ZGGG 231800Z AUTO 02004KT 10SM 10/03 A3027 RMK SLP256 T00970026 57004 IEM_DS3505
ZGGG,2006-01-23 19:00,ZGGG 231900Z AUTO 01010KT 7SM 09/01 A3027 RMK SLP263 T00900010 IEM_DS3505
ZGGG,2006-01-23 20:00,ZGGG 232000Z AUTO 01008KT 7SM 09/01 A3027 RMK SLP263 T00900010 IEM_DS3505
ZGGG,2006-01-23 21:00,ZGGG 232100Z AUTO 36002KT 9SM 09/02 A3024 RMK SLP254 T00910024 57002 IEM_DS3505
ZGGG,2006-01-23 22:00,ZGGG 232200Z AUTO 02008KT 5SM 09/01 A3027 RMK SLP263 T00900010 IEM_DS3505
ZGGG,2006-01-23 23:00,ZGGG 232300Z AUTO 01006KT 5SM 09/01 A3027 RMK SLP263 T00900010 IEM_DS3505
ZGGG,2006-01-24 00:00,ZGGG 240000Z AUTO 02004KT 9SM 09/02 A3030 RMK SLP268 T00910024 52013 IEM_DS3505
ZGGG,2006-01-24 01:00,ZGGG 240100Z AUTO 36008KT 10/01 A3030 RMK SLP273 T01000010 IEM_DS3505
ZGGG,2006-01-24 02:00,ZGGG 240200Z AUTO 35008KT 10/01 A3033 RMK SLP283 T01000010 IEM_DS3505
ZGGG,2006-01-24 03:00,ZGGG 240300Z AUTO 36004KT 10SM 12/03 A3030 RMK SLP269 T01230030 52002 IEM_DS3505
ZGGG,2006-01-24 04:00,ZGGG 240400Z AUTO 34006KT 12/02 A3027 RMK SLP262 T01200020 IEM_DS3505
ZGGG,2006-01-24 05:00,ZGGG 240500Z AUTO 34008KT 5SM 14/02 A3024 RMK SLP251 T01400020 IEM_DS3505
ZGGG,2006-01-24 06:00,ZGGG 240600Z AUTO 32006KT 9SM 16/04 A3021 RMK SLP234 T01570041 57035 IEM_DS3505
ZGGG,2006-01-24 07:00,ZGGG 240700Z AUTO 34012G21KT 6SM 15/02 A3018 RMK SLP231 T01500020 IEM_DS3505
ZGGG,2006-01-24 08:00,ZGGG 240800Z AUTO 33010KT 5SM 16/02 A3018 RMK SLP230 T01600020 IEM_DS3505
ZGGG,2006-01-24 09:00,ZGGG 240900Z AUTO 34004KT 9SM 15/04 A3018 RMK SLP227 T01530044 57007 IEM_DS3505
ZGGG,2006-01-24 10:00,ZGGG 241000Z AUTO 34010G19KT 5SM 13/02 A3018 RMK SLP231 T01300020 IEM_DS3505
ZGGG,2006-01-24 11:00,ZGGG 241100Z AUTO 33010KT 12/02 A3021 RMK SLP241 T01200020 IEM_DS3505
ZGGG,2006-01-24 12:00,ZGGG 241200Z AUTO 36004KT 9SM 13/04 A3021 RMK SLP242 T01260041 52015 IEM_DS3505
ZGGG,2006-01-24 13:00,ZGGG 241300Z AUTO 35008KT 12/03 A3024 RMK SLP251 T01200030 IEM_DS3505
ZGGG,2006-01-24 14:00,ZGGG 241400Z AUTO 36008KT 11/03 A3024 RMK SLP251 T01100030 IEM_DS3505
ZGGG,2006-01-24 15:00,ZGGG 241500Z AUTO 34004KT 9SM 12/04 A3024 RMK SLP250 T01150040 52008 IEM_DS3505
ZGGG,2006-01-24 16:00,ZGGG 241600Z AUTO 02006KT 11/03 A3024 RMK SLP251 T01100030 IEM_DS3505
ZGGG,2006-01-24 17:00,ZGGG 241700Z AUTO 02004KT 11/02 A3024 RMK SLP251 T01100020 IEM_DS3505
ZGGG,2006-01-24 18:00,ZGGG 241800Z AUTO 36004KT 9SM 11/04 A3024 RMK SLP250 T01080038 54000 IEM_DS3505
ZGGG,2006-01-24 19:00,ZGGG 241900Z AUTO 01006KT 11/02 A3024 RMK SLP251 T01100020 IEM_DS3505
ZGGG,2006-01-24 20:00,ZGGG 242000Z AUTO 36006KT 11/02 A3024 RMK SLP251 T01100020 IEM_DS3505
ZGGG,2006-01-24 21:00,ZGGG 242100Z AUTO 36004KT 9SM 10/03 A3024 RMK SLP247 T01050033 57003 IEM_DS3505
ZGGG,2006-01-24 22:00,ZGGG 242200Z AUTO 35008KT 10/03 A3024 RMK SLP252 T01000030 IEM_DS3505
ZGGG,2006-01-24 23:00,ZGGG 242300Z AUTO 34006KT 3SM 10/03 A3027 RMK SLP263 T01000030 IEM_DS3505
ZGGG,2006-01-25 00:00,ZGGG 250000Z AUTO 36004KT 9SM 11/04 A3030 RMK SLP267 T01070035 52020 IEM_DS3505
ZGGG,2006-01-25 01:00,ZGGG 250100Z AUTO 35008KT 3SM 11/03 A3033 RMK SLP283 T01100030 IEM_DS3505
ZGGG,2006-01-25 02:00,ZGGG 250200Z AUTO 34010KT 3SM 12/03 A3033 RMK SLP282 T01200030 IEM_DS3505
ZGGG,2006-01-25 03:00,ZGGG 250300Z AUTO 34006KT 11SM 14/04 A3033 RMK SLP273 T01390039 52006 IEM_DS3505
ZGGG,2006-01-25 04:00,ZGGG 250400Z AUTO 36008KT 5SM 16/02 A3027 RMK SLP262 T01600020 IEM_DS3505
ZGGG,2006-01-25 05:00,ZGGG 250500Z AUTO 02006KT 6SM 17/03 A3024 RMK SLP250 T01700030 IEM_DS3505
ZGGG,2006-01-25 06:00,ZGGG 250600Z AUTO 36004KT 12SM 19/05 A3018 RMK SLP227 T01910048 57045 IEM_DS3505
ZGGG,2006-01-25 07:00,ZGGG 250700Z AUTO 35008KT 19/03 A3015 RMK SLP220 T01900030 IEM_DS3505
ZGGG,2006-01-25 08:00,ZGGG 250800Z AUTO 34010G19KT 6SM 20/03 A3015 RMK SLP220 T02000030 IEM_DS3505
ZGGG,2006-01-25 09:00,ZGGG 250900Z AUTO 34004KT 11SM 19/05 A3018 RMK SLP225 T01930054 57002 IEM_DS3505
ZGGG,2006-01-25 10:00,ZGGG 251000Z AUTO 34010KT 18/03 A3018 RMK SLP230 T01800030 IEM_DS3505
ZGGG,2006-01-25 11:00,ZGGG 251100Z AUTO 33010KT 16/04 A3021 RMK SLP240 T01600040 IEM_DS3505
ZGGG,2006-01-25 12:00,ZGGG 251200Z AUTO 34004KT 10SM 15/05 A3021 RMK SLP243 T01500052 52017 IEM_DS3505
ZGGG,2006-01-25 13:00,ZGGG 251300Z AUTO 01014KT 5SM 14/04 A3024 RMK SLP251 T01400040 IEM_DS3505
ZGGG,2006-01-25 14:00,ZGGG 251400Z AUTO 01010KT 5SM 13/04 A3027 RMK SLP262 T01300040 IEM_DS3505
ZGGG,2006-01-25 15:00,ZGGG 251500Z AUTO 34006KT 10SM 13/05 A3030 RMK SLP261 T01270047 52018 IEM_DS3505
ZGGG,2006-01-25 16:00,ZGGG 251600Z AUTO 01010KT 11/03 A3030 RMK SLP273 T01100030 IEM_DS3505
ZGGG,2006-01-25 17:00,ZGGG 251700Z AUTO 02010KT 11/03 A3030 RMK SLP273 T01100030 IEM_DS3505
ZGGG,2006-01-25 18:00,ZGGG 251800Z AUTO 36004KT 9SM 11/04 A3030 RMK SLP265 T01060036 52004 IEM_DS3505
ZGGG,2006-01-25 19:00,ZGGG 251900Z AUTO 01010KT 5SM 10/02 A3030 RMK SLP273 T01000020 IEM_DS3505
ZGGG,2006-01-25 20:00,ZGGG 252000Z AUTO 01010KT 5SM 11/02 A3030 RMK SLP273 T01100020 IEM_DS3505
ZGGG,2006-01-25 21:00,ZGGG 252100Z AUTO 36006KT 9SM 10/03 A3030 RMK SLP264 T01030026 57001 IEM_DS3505
ZGGG,2006-01-25 22:00,ZGGG 252200Z AUTO 36014KT 4SM 11/02 A3030 RMK SLP273 T01100020 IEM_DS3505
ZGGG,2006-01-25 23:00,ZGGG 252300Z AUTO 01008KT 10/02 A3030 RMK SLP273 T01000020 IEM_DS3505
ZGGG,2006-01-26 00:00,ZGGG 260000Z AUTO 36006KT 11SM 10/03 A3033 RMK SLP277 T00980026 52013 IEM_DS3505
ZGGG,2006-01-26 01:00,ZGGG 260100Z AUTO 01014KT 11/01 A3033 RMK SLP283 T01100010 IEM_DS3505
ZGGG,2006-01-26 02:00,ZGGG 260200Z AUTO 01016KT 5SM 12/01 A3033 RMK SLP282 T01200010 IEM_DS3505
ZGGG,2006-01-26 03:00,ZGGG 260300Z AUTO 34004KT 11SM 15/03 A3033 RMK SLP276 T01470029 57001 IEM_DS3505
ZGGG,2006-01-26 04:00,ZGGG 260400Z AUTO 36012KT 5SM 15/00 A3030 RMK SLP272 T01500000 IEM_DS3505
ZGGG,2006-01-26 05:00,ZGGG 260500Z AUTO 36006KT 17/01 A3024 RMK SLP250 T01700010 IEM_DS3505
ZGGG,2006-01-26 06:00,ZGGG 260600Z AUTO 34006KT 12SM 18/03 A3021 RMK SLP233 T01820033 57043 IEM_DS3505
ZGGG,2006-01-26 07:00,ZGGG 260700Z AUTO 32012KT 5SM 19/02 A3018 RMK SLP230 T01900020 IEM_DS3505
ZGGG,2006-01-26 08:00,ZGGG 260800Z AUTO 32012KT 5SM 19/02 A3015 RMK SLP220 T01900020 IEM_DS3505
ZGGG,2006-01-26 09:00,ZGGG 260900Z AUTO 32006KT 11SM 18/03 A3015 RMK SLP221 T01780033 57012 IEM_DS3505
ZGGG,2006-01-26 10:00,ZGGG 261000Z AUTO 34010KT 17/01 A3018 RMK SLP230 T01700010 IEM_DS3505
ZGGG,2006-01-26 11:00,ZGGG 261100Z AUTO 34008KT 16/02 A3018 RMK SLP230 T01600020 IEM_DS3505
ZGGG,2006-01-26 12:00,ZGGG 261200Z AUTO 36004KT 11SM 14/04 A3018 RMK SLP234 T01440035 52013 IEM_DS3505
ZGGG,2006-01-26 13:00,ZGGG 261300Z AUTO 34008G17KT 14/02 A3021 RMK SLP241 T01400020 IEM_DS3505
ZGGG,2006-01-26 14:00,ZGGG 261400Z AUTO 34006KT 13/03 A3021 RMK SLP241 T01300030 IEM_DS3505
ZGGG,2006-01-26 15:00,ZGGG 261500Z AUTO 34002KT 10SM 12/04 A3021 RMK SLP242 T01210041 52008 IEM_DS3505
ZGGG,2006-01-26 16:00,ZGGG 261600Z AUTO 34008KT 12/02 A3021 RMK SLP241 T01200020 IEM_DS3505
ZGGG,2006-01-26 17:00,ZGGG 261700Z AUTO 34006KT 12/02 A3021 RMK SLP241 T01200020 IEM_DS3505
ZGGG,2006-01-26 18:00,ZGGG 261800Z AUTO 32004KT 10SM 12/04 A3021 RMK SLP235 T01170040 57006 IEM_DS3505
ZGGG,2006-01-26 19:00,ZGGG 261900Z AUTO 33008KT 11/02 A3018 RMK SLP231 T01100020 IEM_DS3505
ZGGG,2006-01-26 20:00,ZGGG 262000Z AUTO 34006KT 10/02 A3018 RMK SLP231 T01000020 IEM_DS3505
ZGGG,2006-01-26 21:00,ZGGG 262100Z AUTO 34002KT 10SM 10/03 A3015 RMK SLP225 T00980029 57011 IEM_DS3505
ZGGG,2006-01-26 22:00,ZGGG 262200Z AUTO 34004KT 3SM 09/02 A3018 RMK SLP232 T00900020 IEM_DS3505
ZGGG,2006-01-26 23:00,ZGGG 262300Z AUTO 00000KT 3SM 08/03 A3018 RMK SLP232 T00800030 IEM_DS3505
ZGGG,2006-01-27 00:00,ZGGG 270000Z AUTO 34004KT 9SM 10/03 A3018 RMK SLP233 T00980029 52008 IEM_DS3505
ZGGG,2006-01-27 01:00,ZGGG 270100Z AUTO 2 1/2SM 12/03 A3018 RMK SLP231 T01200030 IEM_DS3505
ZGGG,2006-01-27 02:00,ZGGG 270200Z AUTO 14/01 A3021 RMK SLP241 T01400010 IEM_DS3505
ZGGG,2006-01-27 03:00,ZGGG 270300Z AUTO 32002KT 8SM 16/03 A3018 RMK SLP231 T01620029 57002 IEM_DS3505
ZGGG,2006-01-27 04:00,ZGGG 270400Z AUTO 17/01 A3015 RMK SLP220 T01700010 IEM_DS3505
ZGGG,2006-01-27 05:00,ZGGG 270500Z AUTO 13004KT 18/01 A3012 RMK SLP210 T01800010 IEM_DS3505
ZGGG,2006-01-27 06:00,ZGGG 270600Z AUTO 29004KT 8SM 20/03 A3006 RMK SLP190 T01970030 57040 IEM_DS3505
ZGGG,2006-01-27 07:00,ZGGG 270700Z AUTO 19/02 A3006 RMK SLP190 T01900020 IEM_DS3505
ZGGG,2006-01-27 08:00,ZGGG 270800Z AUTO 20/02 A3003 RMK SLP178 T02000020 IEM_DS3505
ZGGG,2006-01-27 09:00,ZGGG 270900Z AUTO 25002KT 7SM 19/04 A3003 RMK SLP175 T01910037 57015 IEM_DS3505
ZGGG,2006-01-27 10:00,ZGGG 271000Z AUTO 22004KT 19/02 A3003 RMK SLP179 T01900020 IEM_DS3505
ZGGG,2006-01-27 11:00,ZGGG 271100Z AUTO 23004KT 18/03 A3003 RMK SLP179 T01800030 IEM_DS3505
ZGGG,2006-01-27 12:00,ZGGG 271200Z AUTO 22004KT 7SM 17/06 A3006 RMK SLP189 T01730062 52013 IEM_DS3505
ZGGG,2006-01-27 13:00,ZGGG 271300Z AUTO 30004KT 3SM 18/03 A3006 RMK SLP190 T01800030 IEM_DS3505
ZGGG,2006-01-27 14:00,ZGGG 271400Z AUTO 3SM 18/04 A3009 RMK SLP200 T01800040 IEM_DS3505
ZGGG,2006-01-27 15:00,ZGGG 271500Z AUTO 16002KT 7SM 17/06 A3009 RMK SLP197 T01690064 52009 IEM_DS3505
ZGGG,2006-01-27 16:00,ZGGG 271600Z AUTO 3SM 17/06 A3006 RMK SLP190 T01700060 IEM_DS3505
ZGGG,2006-01-27 17:00,ZGGG 271700Z AUTO 3SM 17/05 A3006 RMK SLP190 T01700050 IEM_DS3505
ZGGG,2006-01-27 18:00,ZGGG 271800Z AUTO 16002KT 6SM 16/08 A3006 RMK 60000 SLP193 T01560081 57004 IEM_DS3505
ZGGG,2006-01-27 19:00,ZGGG 271900Z AUTO 16002KT 2 1/2SM 16/08 A3006 RMK SLP190 T01600080 IEM_DS3505
ZGGG,2006-01-27 20:00,ZGGG 272000Z AUTO 00000KT 2SM 15/09 A3003 RMK SLP179 T01500090 IEM_DS3505
ZGGG,2006-01-27 21:00,ZGGG 272100Z AUTO 09002KT 6SM 15/10 A3006 RMK 70000 SLP186 T01540095 57007 IEM_DS3505
ZGGG,2006-01-27 22:00,ZGGG 272200Z AUTO 35004KT 2SM 15/09 A3006 RMK SLP190 T01500090 IEM_DS3505
ZGGG,2006-01-27 23:00,ZGGG 272300Z AUTO 02004KT 2 1/2SM 14/08 A3009 RMK SLP201 T01400080 IEM_DS3505
ZGGG,2006-01-28 00:00,ZGGG 280000Z AUTO 36002KT 2SM 13/10 A3009 RMK 60000 70001 SLP202 T01280103 52016 IEM_DS3505
ZGGG,2006-01-28 01:00,ZGGG 280100Z AUTO 1SM 13/10 A3012 RMK T01300100 IEM_DS3505
ZGGG,2006-01-28 02:00,ZGGG 280200Z AUTO 07004KT 1SM 13/11 A3012 RMK T01300110 IEM_DS3505
ZGGG,2006-01-28 03:00,ZGGG 280300Z AUTO 02002KT 3SM 14/12 A3012 RMK SLP205 T01360115 52003 IEM_DS3505
ZGGG,2006-01-28 04:00,ZGGG 280400Z AUTO 1SM 14/11 A3009 RMK T01400110 IEM_DS3505
ZGGG,2006-01-28 05:00,ZGGG 280500Z AUTO 1SM 14/12 A3006 RMK T01400120 IEM_DS3505
ZGGG,2006-01-28 06:00,ZGGG 280600Z AUTO 34002KT 4SM 15/12 A3003 RMK 60004 SLP177 T01500123 57028 IEM_DS3505
ZGGG,2006-01-28 07:00,ZGGG 280700Z AUTO 2SM 16/12 A3000 RMK SLP169 T01600120 IEM_DS3505
ZGGG,2006-01-28 08:00,ZGGG 280800Z AUTO 2SM 17/12 A2997 RMK SLP159 T01700120 IEM_DS3505
ZGGG,2006-01-28 09:00,ZGGG 280900Z AUTO 14002KT 3SM 17/13 A2997 RMK SLP160 T01700129 57017 IEM_DS3505
ZGGG,2006-01-28 10:00,ZGGG 281000Z AUTO 2SM 17/12 A2997 RMK SLP159 T01700120 IEM_DS3505
ZGGG,2006-01-28 11:00,ZGGG 281100Z AUTO 14002KT 1 1/2SM 17/13 A3000 RMK SLP169 T01700130 IEM_DS3505
ZGGG,2006-01-28 12:00,ZGGG 281200Z AUTO 14004KT 2SM 16/13 A3000 RMK SLP169 T01610134 52009 IEM_DS3505
ZGGG,2006-01-28 13:00,ZGGG 281300Z AUTO 00000KT 1 1/4SM 16/13 A3000 RMK SLP169 T01600130 IEM_DS3505
ZGGG,2006-01-28 14:00,ZGGG 281400Z AUTO 04002KT 1 1/2SM 16/13 A3000 RMK SLP169 T01600130 IEM_DS3505
ZGGG,2006-01-28 15:00,ZGGG 281500Z AUTO 07002KT 2SM 16/14 A3000 RMK SLP176 T01570135 52007 IEM_DS3505
ZGGG,2006-01-28 16:00,ZGGG 281600Z AUTO 00000KT 1 1/2SM 16/13 A3003 RMK SLP179 T01600130 IEM_DS3505
ZGGG,2006-01-28 17:00,ZGGG 281700Z AUTO 00000KT 1 1/4SM 16/13 A3003 RMK SLP179 T01600130 IEM_DS3505
ZGGG,2006-01-28 18:00,ZGGG 281800Z AUTO 14002KT 1 1/2SM 16/13 A3003 RMK SLP178 T01560134 52002 IEM_DS3505
ZGGG,2006-01-28 19:00,ZGGG 281900Z AUTO 00000KT 1SM 16/13 A3003 RMK SLP179 T01600130 IEM_DS3505
ZGGG,2006-01-28 20:00,ZGGG 282000Z AUTO 02002KT 1SM 15/13 A3003 RMK T01500130 IEM_DS3505
ZGGG,2006-01-28 21:00,ZGGG 282100Z AUTO 00000KT 1 1/2SM 15/14 A3003 RMK 70006 SLP178 T01530140 54000 IEM_DS3505
ZGGG,2006-01-28 22:00,ZGGG 282200Z AUTO 36002KT 1SM 15/13 A3003 RMK T01500130 IEM_DS3505
ZGGG,2006-01-28 23:00,ZGGG 282300Z AUTO 34002KT 1SM 14/12 A3006 RMK SLP191 T01400120 IEM_DS3505
ZGGG,2006-01-29 00:00,ZGGG 290000Z AUTO 32002KT 1 1/4SM 15/14 A3006 RMK 70006 SLP195 T01500139 52017 IEM_DS3505
ZGGG,2006-01-29 01:00,ZGGG 290100Z AUTO 1SM 16/13 A3009 RMK SLP200 T01600130 IEM_DS3505
ZGGG,2006-01-29 02:00,ZGGG 290200Z AUTO 1 1/4SM 16/13 A3009 RMK SLP200 T01600130 IEM_DS3505
ZGGG,2006-01-29 04:00,ZGGG 290400Z AUTO 2SM 19/13 A3009 RMK SLP200 T01900130 IEM_DS3505
ZGGG,2006-01-29 05:00,ZGGG 290500Z AUTO 2 1/2SM 20/13 A3003 RMK SLP178 T02000130 IEM_DS3505
ZGGG,2006-01-29 06:00,ZGGG 290600Z AUTO 20002KT 2SM 23/14 A3000 RMK SLP169 T02270145 57029 IEM_DS3505
ZGGG,2006-01-29 07:00,ZGGG 290700Z AUTO 23004KT 2 1/2SM 23/14 A3000 RMK SLP168 T02300140 IEM_DS3505
ZGGG,2006-01-29 08:00,ZGGG 290800Z AUTO 2 1/2SM 24/14 A2997 RMK SLP158 T02400140 IEM_DS3505
ZGGG,2006-01-29 09:00,ZGGG 290900Z AUTO 16002KT 2 1/2SM 23/15 A2997 RMK SLP161 T02310152 57008 IEM_DS3505
ZGGG,2006-01-29 10:00,ZGGG 291000Z AUTO 24004KT 2SM 22/14 A3000 RMK SLP168 T02200140 IEM_DS3505
ZGGG,2006-01-29 11:00,ZGGG 291100Z AUTO 00000KT 2SM 21/14 A3000 RMK SLP168 T02100140 IEM_DS3505
ZGGG,2006-01-29 12:00,ZGGG 291200Z AUTO 16002KT 4SM 19/16 A3000 RMK SLP175 T01900157 52013 IEM_DS3505
ZGGG,2006-01-29 13:00,ZGGG 291300Z AUTO 00000KT 1 1/4SM 19/15 A3003 RMK SLP179 T01900150 IEM_DS3505
ZGGG,2006-01-29 14:00,ZGGG 291400Z AUTO 1 1/4SM 17/15 A3003 RMK SLP179 T01700150 IEM_DS3505
ZGGG,2006-01-29 15:00,ZGGG 291500Z AUTO 09002KT 2 1/2SM 17/15 A3006 RMK SLP188 T01670154 52013 IEM_DS3505
ZGGG,2006-01-29 16:00,ZGGG 291600Z AUTO 1 1/4SM 16/14 A3006 RMK SLP190 T01600140 IEM_DS3505
ZGGG,2006-01-29 17:00,ZGGG 291700Z AUTO 00000KT 1 1/4SM 16/14 A3006 RMK SLP190 T01600140 IEM_DS3505
ZGGG,2006-01-29 18:00,ZGGG 291800Z AUTO 09002KT 1 1/2SM 16/15 A3006 RMK SLP189 T01640153 52002 IEM_DS3505
ZGGG,2006-01-29 19:00,ZGGG 291900Z AUTO 00000KT 1 1/4SM 16/15 A3006 RMK SLP190 T01600150 IEM_DS3505
ZGGG,2006-01-29 20:00,ZGGG 292000Z AUTO 00000KT 1 1/4SM 16/14 A3006 RMK SLP190 T01600140 IEM_DS3505
ZGGG,2006-01-29 21:00,ZGGG 292100Z AUTO 07002KT 1 1/4SM 16/15 A3006 RMK SLP192 T01580148 52002 IEM_DS3505
ZGGG,2006-01-29 22:00,ZGGG 292200Z AUTO 00000KT 1SM 16/14 A3009 RMK SLP200 T01600140 IEM_DS3505
ZGGG,2006-01-29 23:00,ZGGG 292300Z AUTO 00000KT 1SM 15/13 A3009 RMK T01500130 IEM_DS3505
ZGGG,2006-01-30 00:00,ZGGG 300000Z AUTO 00000KT 2SM 16/16 A3012 RMK SLP213 T01650157 52021 IEM_DS3505
ZGGG,2006-01-30 01:00,ZGGG 300100Z AUTO 1SM 18/15 A3015 RMK T01800150 IEM_DS3505
ZGGG,2006-01-30 02:00,ZGGG 300200Z AUTO 1SM 19/16 A3018 RMK SLP230 T01900160 IEM_DS3505
ZGGG,2006-01-30 03:00,ZGGG 300300Z AUTO 27002KT 2 1/2SM 21/16 A3015 RMK SLP223 T02090157 52010 IEM_DS3505
ZGGG,2006-01-30 04:00,ZGGG 300400Z AUTO 16004KT 1 1/2SM 23/16 A3015 RMK SLP219 T02300160 IEM_DS3505
ZGGG,2006-01-30 05:00,ZGGG 300500Z AUTO 3SM 25/15 A3009 RMK SLP199 T02500150 IEM_DS3505
ZGGG,2006-01-30 06:00,ZGGG 300600Z AUTO 20004KT 6SM 26/16 A3006 RMK SLP188 T02550164 57034 IEM_DS3505
ZGGG,2006-01-30 07:00,ZGGG 300700Z AUTO 18004KT 4SM 27/15 A3003 RMK T02700150 IEM_DS3505
ZGGG,2006-01-30 08:00,ZGGG 300800Z AUTO 23004KT 5SM 27/14 A3003 RMK SLP177 T02700140 IEM_DS3505
ZGGG,2006-01-30 09:00,ZGGG 300900Z AUTO 22002KT 6SM 26/16 A3003 RMK SLP183 T02570163 57005 IEM_DS3505
ZGGG,2006-01-30 10:00,ZGGG 301000Z AUTO 22004KT 3SM 25/15 A3006 RMK SLP189 T02500150 IEM_DS3505
ZGGG,2006-01-30 11:00,ZGGG 301100Z AUTO 25004KT 2 1/2SM 24/16 A3006 RMK SLP189 T02400160 IEM_DS3505
ZGGG,2006-01-30 12:00,ZGGG 301200Z AUTO 09002KT 6SM 20/17 A3009 RMK SLP198 T02000168 52014 IEM_DS3505
ZGGG,2006-01-30 13:00,ZGGG 301300Z AUTO 26004KT 1 1/2SM 23/16 A3009 RMK SLP199 T02300160 IEM_DS3505
ZGGG,2006-01-30 14:00,ZGGG 301400Z AUTO 1 1/4SM 21/16 A3012 RMK SLP209 T02100160 IEM_DS3505
ZGGG,2006-01-30 15:00,ZGGG 301500Z AUTO 36002KT 7SM 19/17 A3012 RMK SLP208 T01890169 52010 IEM_DS3505
ZGGG,2006-01-30 16:00,ZGGG 301600Z AUTO 06004KT 1 1/4SM 20/16 A3009 RMK SLP200 T02000160 IEM_DS3505
ZGGG,2006-01-30 17:00,ZGGG 301700Z AUTO 00000KT 1 1/4SM 19/16 A3012 RMK SLP210 T01900160 IEM_DS3505
ZGGG,2006-01-30 18:00,ZGGG 301800Z AUTO 00000KT 5SM 18/17 A3012 RMK SLP206 T01820167 57001 IEM_DS3505
ZGGG,2006-01-30 19:00,ZGGG 301900Z AUTO 00000KT 1 1/4SM 18/16 A3012 RMK SLP210 T01800160 IEM_DS3505
ZGGG,2006-01-30 20:00,ZGGG 302000Z AUTO 12002KT 1 1/4SM 18/16 A3012 RMK SLP210 T01800160 IEM_DS3505
ZGGG,2006-01-30 21:00,ZGGG 302100Z AUTO 36002KT 4SM 18/17 A3012 RMK SLP206 T01820167 54000 IEM_DS3505
ZGGG,2006-01-30 22:00,ZGGG 302200Z AUTO 09002KT 1SM 18/16 A3012 RMK SLP210 T01800160 IEM_DS3505
ZGGG,2006-01-30 23:00,ZGGG 302300Z AUTO 00000KT 1 1/4SM 18/15 A3012 RMK SLP210 T01800150 IEM_DS3505
ZGGG,2006-01-31 00:00,ZGGG 310000Z AUTO 02002KT 3SM 18/17 A3015 RMK SLP219 T01790168 52012 IEM_DS3505
ZGGG,2006-01-31 01:00,ZGGG 310100Z AUTO 00000KT 1 1/4SM 21/17 A3015 RMK SLP220 T02100170 IEM_DS3505
ZGGG,2006-01-31 02:00,ZGGG 310200Z AUTO 11004KT 2SM 23/17 A3015 RMK SLP219 T02300170 IEM_DS3505
ZGGG,2006-01-31 03:00,ZGGG 310300Z AUTO 16002KT 3SM 26/18 A3015 RMK SLP212 T02560175 57006 IEM_DS3505
ZGGG,2006-01-31 04:00,ZGGG 310400Z AUTO 08004KT 2 1/2SM 27/17 A3012 RMK SLP208 T02700170 IEM_DS3505
ZGGG,2006-01-31 05:00,ZGGG 310500Z AUTO 27/15 A3009 RMK SLP198 T02700150 IEM_DS3505
ZGGG,2006-01-31 06:00,ZGGG 310600Z AUTO 32002KT 7SM 28/16 A3006 RMK SLP183 T02770163 57029 IEM_DS3505
ZGGG,2006-01-31 07:00,ZGGG 310700Z AUTO 28006KT 5SM 27/14 A3003 RMK T02700140 IEM_DS3505
ZGGG,2006-01-31 08:00,ZGGG 310800Z AUTO 33004KT 28/15 A3003 RMK SLP177 T02800150 IEM_DS3505
ZGGG,2006-01-31 09:00,ZGGG 310900Z AUTO 27002KT 7SM 27/16 A3003 RMK SLP180 T02740157 57003 IEM_DS3505
ZGGG,2006-01-31 10:00,ZGGG 311000Z AUTO 33008KT 5SM 27/14 A3006 RMK SLP188 T02700140 IEM_DS3505
ZGGG,2006-01-31 11:00,ZGGG 311100Z AUTO 34008KT 26/15 A3009 RMK SLP199 T02600150 IEM_DS3505
ZGGG,2006-01-31 12:00,ZGGG 311200Z AUTO 34006KT 7SM 24/15 A3009 RMK SLP201 T02430152 52021 IEM_DS3505
ZGGG,2006-01-31 13:00,ZGGG 311300Z AUTO 34006KT 24/13 A3012 RMK SLP209 T02400130 IEM_DS3505
ZGGG,2006-01-31 14:00,ZGGG 311400Z AUTO 34006KT 24/13 A3012 RMK SLP209 T02400130 IEM_DS3505
ZGGG,2006-01-31 15:00,ZGGG 311500Z AUTO 32002KT 7SM 23/15 A3012 RMK SLP209 T02280146 52008 IEM_DS3505
ZGGG,2006-01-31 16:00,ZGGG 311600Z AUTO 33004KT 23/12 A3012 RMK SLP209 T02300120 IEM_DS3505
ZGGG,2006-01-31 17:00,ZGGG 311700Z AUTO 33006KT 3SM 22/12 A3012 RMK SLP209 T02200120 IEM_DS3505
ZGGG,2006-01-31 18:00,ZGGG 311800Z AUTO 36002KT 7SM 21/14 A3012 RMK SLP208 T02110138 57001 IEM_DS3505
ZGGG,2006-01-31 19:00,ZGGG 311900Z AUTO 35004KT 3SM 19/12 A3012 RMK SLP210 T01900120 IEM_DS3505
ZGGG,2006-01-31 20:00,ZGGG 312000Z AUTO 35008KT 3SM 19/11 A3012 RMK SLP210 T01900110 IEM_DS3505
ZGGG,2006-01-31 21:00,ZGGG 312100Z AUTO 32002KT 7SM 19/13 A3012 RMK SLP210 T01870129 52002 IEM_DS3505
ZGGG,2006-01-31 22:00,ZGGG 312200Z AUTO 2 1/2SM 16/11 A3015 RMK SLP220 T01600110 IEM_DS3505
ZGGG,2006-01-31 23:00,ZGGG 312300Z AUTO 2 1/2SM 16/11 A3018 RMK SLP230 T01600110 IEM_DS3505
ZGGG,2006-02-01 00:00,ZGGG 010000Z AUTO 36002KT 5SM 18/13 A3018 RMK SLP228 T01770126 52018 IEM_DS3505
ZGGG,2006-02-01 01:00,ZGGG 010100Z AUTO 36006KT 1 1/2SM 18/10 A3021 RMK T01800100 IEM_DS3505
ZGGG,2006-02-01 02:00,ZGGG 010200Z AUTO 03006KT 2SM 20/10 A3021 RMK T02000100 IEM_DS3505
ZGGG,2006-02-01 03:00,ZGGG 010300Z AUTO 36004KT 4SM 22/12 A3021 RMK SLP238 T02250125 52010 IEM_DS3505
ZGGG,2006-02-01 04:00,ZGGG 010400Z AUTO 2 1/2SM 23/11 A3021 RMK T02300110 IEM_DS3505
ZGGG,2006-02-01 05:00,ZGGG 010500Z AUTO 2 1/2SM 24/11 A3015 RMK T02400110 IEM_DS3505
ZGGG,2006-02-01 06:00,ZGGG 010600Z AUTO 29004KT 4SM 25/13 A3012 RMK SLP202 T02540130 57036 IEM_DS3505
ZGGG,2006-02-01 07:00,ZGGG 010700Z AUTO 2 1/2SM 25/11 A3009 RMK T02500110 IEM_DS3505
ZGGG,2006-02-01 08:00,ZGGG 010800Z AUTO 2 1/2SM 26/10 A3006 RMK T02600100 IEM_DS3505
ZGGG,2006-02-01 09:00,ZGGG 010900Z AUTO 29002KT 5SM 25/13 A3006 RMK SLP187 T02510133 57015 IEM_DS3505
ZGGG,2006-02-01 10:00,ZGGG 011000Z AUTO 33008KT 2 1/2SM 24/11 A3006 RMK T02400110 IEM_DS3505
ZGGG,2006-02-01 11:00,ZGGG 011100Z AUTO 34006KT 2 1/2SM 22/11 A3006 RMK T02200110 IEM_DS3505
ZGGG,2006-02-01 12:00,ZGGG 011200Z AUTO 02002KT 7SM 20/13 A3009 RMK SLP198 T02010131 52010 IEM_DS3505
ZGGG,2006-02-01 13:00,ZGGG 011300Z AUTO 35004KT 2 1/2SM 20/11 A3012 RMK T02000110 IEM_DS3505
ZGGG,2006-02-01 14:00,ZGGG 011400Z AUTO 2 1/2SM 19/12 A3012 RMK T01900120 IEM_DS3505
ZGGG,2006-02-01 15:00,ZGGG 011500Z AUTO 11002KT 4SM 19/16 A3012 RMK SLP210 T01940155 52013 IEM_DS3505
ZGGG,2006-02-01 16:00,ZGGG 011600Z AUTO 09004KT 2 1/2SM 19/12 A3012 RMK T01900120 IEM_DS3505
ZGGG,2006-02-01 17:00,ZGGG 011700Z AUTO 2 1/2SM 19/12 A3012 RMK T01900120 IEM_DS3505
ZGGG,2006-02-01 18:00,ZGGG 011800Z AUTO 14006KT 4SM 19/16 A3012 RMK SLP215 T01920155 52005 IEM_DS3505
ZGGG,2006-02-01 19:00,ZGGG 011900Z AUTO 12006KT 2 1/2SM 19/14 A3015 RMK T01900140 IEM_DS3505
ZGGG,2006-02-01 20:00,ZGGG 012000Z AUTO 14004KT 2 1/2SM 19/14 A3015 RMK T01900140 IEM_DS3505
ZGGG,2006-02-01 21:00,ZGGG 012100Z AUTO 11002KT 5SM 18/14 A3015 RMK SLP218 T01760141 52003 IEM_DS3505
ZGGG,2006-02-01 22:00,ZGGG 012200Z AUTO 10002KT 1 1/2SM 17/14 A3015 RMK T01700140 IEM_DS3505
ZGGG,2006-02-01 23:00,ZGGG 012300Z AUTO 10004KT 1 1/2SM 17/13 A3018 RMK T01700130 IEM_DS3505
ZGGG,2006-02-02 00:00,ZGGG 020000Z AUTO 09002KT 5SM 17/13 A3021 RMK SLP241 T01680127 52022 IEM_DS3505
ZGGG,2006-02-02 01:00,ZGGG 020100Z AUTO 16004KT 2 1/2SM 18/12 A3024 RMK T01800120 IEM_DS3505
ZGGG,2006-02-02 02:00,ZGGG 020200Z AUTO 17004KT 2 1/2SM 19/12 A3024 RMK T01900120 IEM_DS3505
ZGGG,2006-02-02 03:00,ZGGG 020300Z AUTO 16002KT 4SM 20/12 A3024 RMK SLP247 T02030125 52006 IEM_DS3505
ZGGG,2006-02-02 04:00,ZGGG 020400Z AUTO 3SM 20/13 A3021 RMK T02000130 IEM_DS3505
ZGGG,2006-02-02 05:00,ZGGG 020500Z AUTO 3SM 22/12 A3018 RMK T02200120 IEM_DS3505
ZGGG,2006-02-02 06:00,ZGGG 020600Z AUTO 16004KT 5SM 24/12 A3015 RMK SLP213 T02380121 57033 IEM_DS3505
ZGGG,2006-02-02 07:00,ZGGG 020700Z AUTO 14002KT 3SM 24/12 A3009 RMK T02400120 IEM_DS3505
ZGGG,2006-02-02 08:00,ZGGG 020800Z AUTO 3SM 25/11 A3009 RMK T02500110 IEM_DS3505
ZGGG,2006-02-02 09:00,ZGGG 020900Z AUTO 20004KT 5SM 24/12 A3009 RMK SLP199 T02390119 57014 IEM_DS3505
ZGGG,2006-02-02 10:00,ZGGG 021000Z AUTO 18004KT 3SM 23/11 A3012 RMK T02300110 IEM_DS3505
ZGGG,2006-02-02 11:00,ZGGG 021100Z AUTO 3SM 21/12 A3012 RMK T02100120 IEM_DS3505
ZGGG,2006-02-02 12:00,ZGGG 021200Z AUTO 14004KT 7SM 21/12 A3015 RMK SLP220 T02080117 52020 IEM_DS3505
ZGGG,2006-02-02 13:00,ZGGG 021300Z AUTO 17004KT 3SM 20/12 A3018 RMK T02000120 IEM_DS3505
ZGGG,2006-02-02 14:00,ZGGG 021400Z AUTO 16002KT 3SM 19/12 A3018 RMK T01900120 IEM_DS3505
ZGGG,2006-02-02 15:00,ZGGG 021500Z AUTO 14002KT 9SM 19/13 A3018 RMK SLP235 T01860128 52015 IEM_DS3505
ZGGG,2006-02-02 16:00,ZGGG 021600Z AUTO 3SM 17/13 A3018 RMK T01700130 IEM_DS3505
ZGGG,2006-02-02 17:00,ZGGG 021700Z AUTO 06002KT 2 1/2SM 16/13 A3018 RMK T01600130 IEM_DS3505
ZGGG,2006-02-02 18:00,ZGGG 021800Z AUTO 09002KT 8SM 16/13 A3018 RMK SLP233 T01590130 57002 IEM_DS3505
ZGGG,2006-02-02 19:00,ZGGG 021900Z AUTO 2 1/2SM 16/13 A3018 RMK T01600130 IEM_DS3505
ZGGG,2006-02-02 20:00,ZGGG 022000Z AUTO 2 1/2SM 17/13 A3018 RMK T01700130 IEM_DS3505
ZGGG,2006-02-02 21:00,ZGGG 022100Z AUTO 07002KT 7SM 17/14 A3018 RMK SLP236 T01690136 52003 IEM_DS3505
ZGGG,2006-02-02 22:00,ZGGG 022200Z AUTO 08002KT 2 1/2SM 17/12 A3021 RMK T01700120 IEM_DS3505
ZGGG,2006-02-02 23:00,ZGGG 022300Z AUTO 2 1/2SM 17/13 A3024 RMK T01700130 IEM_DS3505
ZGGG,2006-02-03 00:00,ZGGG 030000Z AUTO 00000KT 7SM 18/14 A3024 RMK SLP253 T01780139 52017 IEM_DS3505
ZGGG,2006-02-03 01:00,ZGGG 030100Z AUTO 06004KT 2SM 19/13 A3027 RMK T01900130 IEM_DS3505
ZGGG,2006-02-03 02:00,ZGGG 030200Z AUTO 06004KT 2 1/2SM 22/12 A3027 RMK T02200120 IEM_DS3505
ZGGG,2006-02-03 03:00,ZGGG 030300Z AUTO 04002KT 8SM 25/13 A3027 RMK SLP258 T02500132 52006 IEM_DS3505
ZGGG,2006-02-03 04:00,ZGGG 030400Z AUTO 3SM 25/12 A3027 RMK T02500120 IEM_DS3505
ZGGG,2006-02-03 05:00,ZGGG 030500Z AUTO 34006KT 4SM 25/12 A3024 RMK T02500120 IEM_DS3505
ZGGG,2006-02-03 06:00,ZGGG 030600Z AUTO 34006KT 9SM 25/13 A3018 RMK SLP229 T02530132 57029 IEM_DS3505
ZGGG,2006-02-03 07:00,ZGGG 030700Z AUTO 32006KT 4SM 27/11 A3018 RMK T02700110 IEM_DS3505
ZGGG,2006-02-03 08:00,ZGGG 030800Z AUTO 33010KT 4SM 26/11 A3015 RMK T02600110 IEM_DS3505
ZGGG,2006-02-03 09:00,ZGGG 030900Z AUTO 34004G23KT 7SM 25/13 A3018 RMK SLP226 T02520131 57003 IEM_DS3505
ZGGG,2006-02-03 10:00,ZGGG 031000Z AUTO 35014G23KT 4SM 21/10 A3021 RMK T02100100 IEM_DS3505
ZGGG,2006-02-03 11:00,ZGGG 031100Z AUTO 35012KT 4SM 19/09 A3024 RMK T01900090 IEM_DS3505
ZGGG,2006-02-03 12:00,ZGGG 031200Z AUTO 34006KT 7SM 19/11 A3027 RMK SLP252 T01890112 52025 IEM_DS3505
ZGGG,2006-02-03 13:00,ZGGG 031300Z AUTO 35010KT 4SM 17/09 A3030 RMK T01700090 IEM_DS3505
ZGGG,2006-02-03 14:00,ZGGG 031400Z AUTO 35010KT 4SM 16/08 A3033 RMK T01600080 IEM_DS3505
ZGGG,2006-02-03 15:00,ZGGG 031500Z AUTO 36004KT 8SM 17/10 A3033 RMK SLP276 T01710100 52024 IEM_DS3505
ZGGG,2006-02-03 16:00,ZGGG 031600Z AUTO 35008KT 4SM 16/08 A3036 RMK T01600080 IEM_DS3505
ZGGG,2006-02-03 17:00,ZGGG 031700Z AUTO 35012KT 5SM 15/07 A3036 RMK T01500070 IEM_DS3505
ZGGG,2006-02-03 18:00,ZGGG 031800Z AUTO 36004KT 8SM 16/08 A3036 RMK SLP285 T01570082 52009 IEM_DS3505
ZGGG,2006-02-03 19:00,ZGGG 031900Z AUTO 02010KT 5SM 14/06 A3036 RMK T01400060 IEM_DS3505
ZGGG,2006-02-03 20:00,ZGGG 032000Z AUTO 02010KT 7SM 13/06 A3036 RMK T01300060 IEM_DS3505
ZGGG,2006-02-03 21:00,ZGGG 032100Z AUTO 36004KT 7SM 14/07 A3036 RMK 70000 SLP286 T01390072 52001 IEM_DS3505
ZGGG,2006-02-03 22:00,ZGGG 032200Z AUTO 02012KT 7SM 13/05 A3036 RMK T01300050 IEM_DS3505
ZGGG,2006-02-03 23:00,ZGGG 032300Z AUTO 01012KT 7SM 13/05 A3039 RMK T01300050 IEM_DS3505
ZGGG,2006-02-04 00:00,ZGGG 040000Z AUTO 36002KT 10SM 14/06 A3039 RMK 60000 70000 SLP300 T01360065 52013 IEM_DS3505
ZGGG,2006-02-04 01:00,ZGGG 040100Z AUTO 01010KT 7SM 13/04 A3042 RMK T01300040 IEM_DS3505
ZGGG,2006-02-04 02:00,ZGGG 040200Z AUTO 02010KT 7SM 13/04 A3042 RMK T01300040 IEM_DS3505
ZGGG,2006-02-04 03:00,ZGGG 040300Z AUTO 34002KT 11SM 15/06 A3042 RMK SLP305 T01480059 52005 IEM_DS3505
ZGGG,2006-02-04 04:00,ZGGG 040400Z AUTO 36010KT 7SM 15/04 A3039 RMK T01500040 IEM_DS3505
ZGGG,2006-02-04 05:00,ZGGG 040500Z AUTO 01010KT 7SM 16/04 A3033 RMK T01600040 IEM_DS3505
ZGGG,2006-02-04 06:00,ZGGG 040600Z AUTO 34004KT 11SM 18/06 A3030 RMK SLP264 T01770059 57040 IEM_DS3505
ZGGG,2006-02-04 07:00,ZGGG 040700Z AUTO 06004KT 6SM 18/05 A3027 RMK T01800050 IEM_DS3505
ZGGG,2006-02-04 08:00,ZGGG 040800Z AUTO 36006KT 6SM 18/05 A3024 RMK T01800050 IEM_DS3505
ZGGG,2006-02-04 09:00,ZGGG 040900Z AUTO 02004KT 11SM 18/07 A3024 RMK SLP250 T01810066 57014 IEM_DS3505
ZGGG,2006-02-04 10:00,ZGGG 041000Z AUTO 33008KT 6SM 17/05 A3024 RMK T01700050 IEM_DS3505
ZGGG,2006-02-04 11:00,ZGGG 041100Z AUTO 33008KT 7SM 16/05 A3027 RMK T01600050 IEM_DS3505
ZGGG,2006-02-04 13:00,ZGGG 041300Z AUTO 35008KT 7SM 15/04 A3030 RMK T01500040 IEM_DS3505
ZGGG,2006-02-04 14:00,ZGGG 041400Z AUTO 01004KT 7SM 15/05 A3033 RMK T01500050 IEM_DS3505
ZGGG,2006-02-04 15:00,ZGGG 041500Z AUTO 02002KT 10SM 15/06 A3033 RMK SLP276 T01490059 52008 IEM_DS3505
ZGGG,2006-02-04 16:00,ZGGG 041600Z AUTO 07006KT 7SM 14/05 A3030 RMK T01400050 IEM_DS3505
ZGGG,2006-02-04 17:00,ZGGG 041700Z AUTO 05004KT 7SM 14/05 A3030 RMK T01400050 IEM_DS3505
ZGGG,2006-02-04 18:00,ZGGG 041800Z AUTO 09004KT 9SM 15/08 A3030 RMK SLP269 T01520077 57006 IEM_DS3505
ZGGG,2006-02-04 19:00,ZGGG 041900Z AUTO 05004KT 7SM 14/05 A3030 RMK T01400050 IEM_DS3505
ZGGG,2006-02-04 20:00,ZGGG 042000Z AUTO 06004KT 7SM 14/05 A3027 RMK T01400050 IEM_DS3505
ZGGG,2006-02-04 21:00,ZGGG 042100Z AUTO 07004KT 8SM 14/08 A3027 RMK 70000 SLP258 T01430078 57011 IEM_DS3505
ZGGG,2006-02-04 22:00,ZGGG 042200Z AUTO 05004KT 6SM 13/06 A3027 RMK T01300060 IEM_DS3505
ZGGG,2006-02-04 23:00,ZGGG 042300Z AUTO 06004KT 7SM 13/05 A3030 RMK T01300050 IEM_DS3505
ZGGG,2006-02-05 00:00,ZGGG 050000Z AUTO 11004KT 9SM 14/07 A3030 RMK SLP270 T01390074 52011 IEM_DS3505
ZGGG,2006-02-05 01:00,ZGGG 050100Z AUTO 05004KT 7SM 14/06 A3030 RMK T01400060 IEM_DS3505
ZGGG,2006-02-05 02:00,ZGGG 050200Z AUTO 02006KT 7SM 15/06 A3033 RMK T01500060 IEM_DS3505
ZGGG,2006-02-05 03:00,ZGGG 050300Z AUTO 14002KT 9SM 17/08 A3030 RMK SLP269 T01710075 54000 IEM_DS3505
ZGGG,2006-02-05 04:00,ZGGG 050400Z AUTO 5SM 18/07 A3027 RMK T01800070 IEM_DS3505
ZGGG,2006-02-05 05:00,ZGGG 050500Z AUTO 27004KT 4SM 19/07 A3024 RMK T01900070 IEM_DS3505
ZGGG,2006-02-05 06:00,ZGGG 050600Z AUTO 18002G16KT 9SM 20/09 A3018 RMK SLP227 T01960086 57042 IEM_DS3505
ZGGG,2006-02-05 07:00,ZGGG 050700Z AUTO 5SM 20/07 A3015 RMK T02000070 IEM_DS3505
ZGGG,2006-02-05 08:00,ZGGG 050800Z AUTO 4SM 20/08 A3012 RMK T02000080 IEM_DS3505
ZGGG,2006-02-05 09:00,ZGGG 050900Z AUTO 27002KT 8SM 20/10 A3015 RMK SLP216 T02000104 57011 IEM_DS3505
ZGGG,2006-02-05 10:00,ZGGG 051000Z AUTO 4SM 20/08 A3015 RMK T02000080 IEM_DS3505
ZGGG,2006-02-05 11:00,ZGGG 051100Z AUTO 23004KT 4SM 19/09 A3015 RMK T01900090 IEM_DS3505
ZGGG,2006-02-05 12:00,ZGGG 051200Z AUTO 25002KT 8SM 19/11 A3015 RMK SLP225 T01860109 52009 IEM_DS3505
ZGGG,2006-02-05 13:00,ZGGG 051300Z AUTO 3SM 18/10 A3015 RMK T01800100 IEM_DS3505
ZGGG,2006-02-05 14:00,ZGGG 051400Z AUTO 00000KT 3SM 18/10 A3018 RMK T01800100 IEM_DS3505
ZGGG,2006-02-05 15:00,ZGGG 051500Z AUTO 07002KT 9SM 17/11 A3018 RMK SLP224 T01680113 57001 IEM_DS3505
ZGGG,2006-02-05 16:00,ZGGG 051600Z AUTO 2 1/2SM 17/11 A3015 RMK T01700110 IEM_DS3505
ZGGG,2006-02-05 17:00,ZGGG 051700Z AUTO 02004KT 2 1/2SM 16/12 A3015 RMK T01600120 IEM_DS3505
ZGGG,2006-02-05 18:00,ZGGG 051800Z AUTO 36002KT 7SM 16/12 A3012 RMK SLP213 T01560116 57011 IEM_DS3505
ZGGG,2006-02-05 19:00,ZGGG 051900Z AUTO 2 1/2SM 15/10 A3012 RMK T01500100 IEM_DS3505
ZGGG,2006-02-05 20:00,ZGGG 052000Z AUTO 2 1/2SM 15/11 A3012 RMK T01500110 IEM_DS3505
ZGGG,2006-02-05 21:00,ZGGG 052100Z AUTO 34002KT 7SM 15/12 A3009 RMK SLP203 T01490117 57010 IEM_DS3505
ZGGG,2006-02-05 22:00,ZGGG 052200Z AUTO 09002KT 2 1/2SM 15/10 A3009 RMK T01500100 IEM_DS3505
ZGGG,2006-02-05 23:00,ZGGG 052300Z AUTO 2 1/2SM 15/10 A3012 RMK T01500100 IEM_DS3505
ZGGG,2006-02-06 00:00,ZGGG 060000Z AUTO 07002KT 6SM 16/12 A3012 RMK SLP214 T01570119 52011 IEM_DS3505
ZGGG,2006-02-06 01:00,ZGGG 060100Z AUTO 10002KT 2 1/2SM 16/10 A3015 RMK T01600100 IEM_DS3505
ZGGG,2006-02-06 02:00,ZGGG 060200Z AUTO 2 1/2SM 19/10 A3015 RMK T01900100 IEM_DS3505
ZGGG,2006-02-06 03:00,ZGGG 060300Z AUTO 32004KT 7SM 21/12 A3015 RMK SLP222 T02120118 52008 IEM_DS3505
ZGGG,2006-02-06 04:00,ZGGG 060400Z AUTO 4SM 23/10 A3015 RMK T02300100 IEM_DS3505
ZGGG,2006-02-06 05:00,ZGGG 060500Z AUTO 5SM 24/10 A3009 RMK T02400100 IEM_DS3505
ZGGG,2006-02-06 06:00,ZGGG 060600Z AUTO 14002KT 10SM 25/12 A3006 RMK SLP186 T02490118 57035 IEM_DS3505
ZGGG,2006-02-06 07:00,ZGGG 060700Z AUTO 23004KT 5SM 25/10 A3003 RMK T02500100 IEM_DS3505
ZGGG,2006-02-06 08:00,ZGGG 060800Z AUTO 5SM 26/11 A3003 RMK T02600110 IEM_DS3505
ZGGG,2006-02-06 09:00,ZGGG 060900Z AUTO 32002KT 10SM 25/12 A3003 RMK SLP180 T02470120 57006 IEM_DS3505
ZGGG,2006-02-06 10:00,ZGGG 061000Z AUTO 32006KT 6SM 25/11 A3006 RMK T02500110 IEM_DS3505
ZGGG,2006-02-06 11:00,ZGGG 061100Z AUTO 33008KT 6SM 23/11 A3006 RMK T02300110 IEM_DS3505
ZGGG,2006-02-06 12:00,ZGGG 061200Z AUTO 36002KT 9SM 19/13 A3009 RMK SLP199 T01930133 52018 IEM_DS3505
ZGGG,2006-02-06 13:00,ZGGG 061300Z AUTO 34006KT 4SM 21/11 A3012 RMK T02100110 IEM_DS3505
ZGGG,2006-02-06 14:00,ZGGG 061400Z AUTO 09002KT 4SM 18/12 A3012 RMK T01800120 IEM_DS3505
ZGGG,2006-02-06 15:00,ZGGG 061500Z AUTO 36006KT 9SM 19/13 A3012 RMK SLP211 T01860128 52012 IEM_DS3505
ZGGG,2006-02-06 16:00,ZGGG 061600Z AUTO 36008KT 4SM 19/11 A3012 RMK T01900110 IEM_DS3505
ZGGG,2006-02-06 17:00,ZGGG 061700Z AUTO 35008KT 4SM 18/11 A3015 RMK T01800110 IEM_DS3505
ZGGG,2006-02-06 18:00,ZGGG 061800Z AUTO 36004KT 9SM 18/12 A3015 RMK SLP211 T01770119 52001 IEM_DS3505
ZGGG,2006-02-06 19:00,ZGGG 061900Z AUTO 01008KT 4SM 17/10 A3015 RMK T01700100 IEM_DS3505
ZGGG,2006-02-06 20:00,ZGGG 062000Z AUTO 34006KT 4SM 16/10 A3015 RMK T01600100 IEM_DS3505
ZGGG,2006-02-06 21:00,ZGGG 062100Z AUTO 36004KT 9SM 16/11 A3015 RMK SLP222 T01580110 52010 IEM_DS3505
ZGGG,2006-02-06 22:00,ZGGG 062200Z AUTO 01002KT 4SM 16/10 A3018 RMK T01600100 IEM_DS3505
ZGGG,2006-02-06 23:00,ZGGG 062300Z AUTO 4SM 16/10 A3021 RMK T01600100 IEM_DS3505
ZGGG,2006-02-07 00:00,ZGGG 070000Z AUTO 36004KT 10SM 16/11 A3021 RMK SLP240 T01610106 52018 IEM_DS3505
ZGGG,2006-02-07 01:00,ZGGG 070100Z AUTO 4SM 17/10 A3024 RMK T01700100 IEM_DS3505
ZGGG,2006-02-07 02:00,ZGGG 070200Z AUTO 06006KT 5SM 18/09 A3024 RMK T01800090 IEM_DS3505
ZGGG,2006-02-07 03:00,ZGGG 070300Z AUTO 32004KT 10SM 20/11 A3024 RMK SLP242 T02030110 52002 IEM_DS3505
ZGGG,2006-02-07 04:00,ZGGG 070400Z AUTO 35004KT 5SM 21/09 A3021 RMK T02100090 IEM_DS3505
ZGGG,2006-02-07 05:00,ZGGG 070500Z AUTO 6SM 23/09 A3018 RMK T02300090 IEM_DS3505
ZGGG,2006-02-07 06:00,ZGGG 070600Z AUTO 34002KT 9SM 24/12 A3015 RMK SLP210 T02430116 57031 IEM_DS3505
ZGGG,2006-02-07 07:00,ZGGG 070700Z AUTO 28004KT 6SM 25/09 A3012 RMK T02500090 IEM_DS3505
ZGGG,2006-02-07 08:00,ZGGG 070800Z AUTO 6SM 26/09 A3009 RMK T02600090 IEM_DS3505
ZGGG,2006-02-07 09:00,ZGGG 070900Z AUTO 27002KT 9SM 25/11 A3012 RMK SLP203 T02520110 57007 IEM_DS3505
ZGGG,2006-02-07 10:00,ZGGG 071000Z AUTO 28004KT 6SM 25/10 A3012 RMK T02500100 IEM_DS3505
ZGGG,2006-02-07 11:00,ZGGG 071100Z AUTO 31004KT 6SM 24/09 A3015 RMK T02400090 IEM_DS3505
ZGGG,2006-02-07 12:00,ZGGG 071200Z AUTO 01004KT 9SM 19/13 A3015 RMK SLP224 T01900127 52020 IEM_DS3505
ZGGG,2006-02-07 13:00,ZGGG 071300Z AUTO 03004KT 4SM 19/11 A3018 RMK T01900110 IEM_DS3505
ZGGG,2006-02-07 14:00,ZGGG 071400Z AUTO 00000KT 4SM 19/12 A3021 RMK T01900120 IEM_DS3505
ZGGG,2006-02-07 15:00,ZGGG 071500Z AUTO 06002KT 9SM 18/13 A3021 RMK SLP241 T01790130 52017 IEM_DS3505
ZGGG,2006-02-07 16:00,ZGGG 071600Z AUTO 4SM 18/12 A3021 RMK T01800120 IEM_DS3505
ZGGG,2006-02-07 17:00,ZGGG 071700Z AUTO 10004KT 5SM 17/11 A3024 RMK T01700110 IEM_DS3505
ZGGG,2006-02-07 18:00,ZGGG 071800Z AUTO 14002KT 8SM 18/14 A3024 RMK SLP247 T01750142 52006 IEM_DS3505
ZGGG,2006-02-07 19:00,ZGGG 071900Z AUTO 08004KT 5SM 17/10 A3024 RMK T01700100 IEM_DS3505
ZGGG,2006-02-07 20:00,ZGGG 072000Z AUTO 07004KT 5SM 15/10 A3024 RMK T01500100 IEM_DS3505
ZGGG,2006-02-07 21:00,ZGGG 072100Z AUTO 07002KT 7SM 16/13 A3024 RMK SLP247 T01610130 54000 IEM_DS3505
ZGGG,2006-02-07 22:00,ZGGG 072200Z AUTO 01004KT 4SM 14/09 A3024 RMK T01400090 IEM_DS3505
ZGGG,2006-02-07 23:00,ZGGG 072300Z AUTO 5SM 14/09 A3027 RMK T01400090 IEM_DS3505
ZGGG,2006-02-08 00:00,ZGGG 080000Z AUTO 36002KT 10SM 16/11 A3030 RMK SLP271 T01590113 52024 IEM_DS3505
ZGGG,2006-02-08 01:00,ZGGG 080100Z AUTO 09004KT 3SM 16/08 A3033 RMK T01600080 IEM_DS3505
ZGGG,2006-02-08 02:00,ZGGG 080200Z AUTO 06004KT 5SM 19/07 A3033 RMK T01900070 IEM_DS3505
ZGGG,2006-02-08 03:00,ZGGG 080300Z AUTO 36002KT 7SM 22/09 A3033 RMK SLP271 T02150091 54000 IEM_DS3505
ZGGG,2006-02-08 04:00,ZGGG 080400Z AUTO 35004KT 5SM 22/07 A3030 RMK T02200070 IEM_DS3505
ZGGG,2006-02-08 05:00,ZGGG 080500Z AUTO 5SM 22/08 A3027 RMK T02200080 IEM_DS3505
ZGGG,2006-02-08 06:00,ZGGG 080600Z AUTO 20002KT 8SM 24/10 A3021 RMK SLP242 T02370100 57029 IEM_DS3505
ZGGG,2006-02-08 07:00,ZGGG 080700Z AUTO 6SM 24/07 A3021 RMK T02400070 IEM_DS3505
ZGGG,2006-02-08 08:00,ZGGG 080800Z AUTO 27004KT 6SM 24/08 A3018 RMK T02400080 IEM_DS3505
ZGGG,2006-02-08 09:00,ZGGG 080900Z AUTO 29002KT 7SM 24/10 A3021 RMK SLP236 T02360103 57006 IEM_DS3505
ZGGG,2006-02-08 10:00,ZGGG 081000Z AUTO 24004KT 5SM 23/08 A3021 RMK T02300080 IEM_DS3505
ZGGG,2006-02-08 11:00,ZGGG 081100Z AUTO 25004KT 4SM 23/09 A3024 RMK T02300090 IEM_DS3505
ZGGG,2006-02-08 12:00,ZGGG 081200Z AUTO 16002KT 7SM 22/11 A3027 RMK SLP258 T02180109 52022 IEM_DS3505
ZGGG,2006-02-08 13:00,ZGGG 081300Z AUTO 4SM 22/09 A3027 RMK T02200090 IEM_DS3505
ZGGG,2006-02-08 14:00,ZGGG 081400Z AUTO 3SM 21/10 A3030 RMK T02100100 IEM_DS3505
ZGGG,2006-02-08 15:00,ZGGG 081500Z AUTO 16004KT 9SM 19/12 A3033 RMK SLP281 T01900123 52023 IEM_DS3505
ZGGG,2006-02-08 16:00,ZGGG 081600Z AUTO 16006KT 4SM 20/11 A3033 RMK T02000110 IEM_DS3505
ZGGG,2006-02-08 17:00,ZGGG 081700Z AUTO 16006KT 4SM 19/10 A3033 RMK T01900100 IEM_DS3505
ZGGG,2006-02-08 18:00,ZGGG 081800Z AUTO 18002KT 9SM 17/11 A3036 RMK SLP285 T01730109 52004 IEM_DS3505
ZGGG,2006-02-08 19:00,ZGGG 081900Z AUTO 20002KT 4SM 18/11 A3033 RMK T01800110 IEM_DS3505
ZGGG,2006-02-08 20:00,ZGGG 082000Z AUTO 33010KT 4SM 18/07 A3033 RMK T01800070 IEM_DS3505
ZGGG,2006-02-08 21:00,ZGGG 082100Z AUTO 04002KT 7SM 17/12 A3033 RMK SLP279 T01700117 57006 IEM_DS3505
ZGGG,2006-02-08 22:00,ZGGG 082200Z AUTO 35008KT 4SM 16/07 A3033 RMK T01600070 IEM_DS3505
ZGGG,2006-02-08 23:00,ZGGG 082300Z AUTO 34008KT 4SM 15/07 A3036 RMK T01500070 IEM_DS3505
ZGGG,2006-02-09 00:00,ZGGG 090000Z AUTO 02002KT 4SM 17/12 A3039 RMK SLP296 T01680115 52017 IEM_DS3505
ZGGG,2006-02-09 01:00,ZGGG 090100Z AUTO 34010KT 4SM 15/06 A3042 RMK T01500060 IEM_DS3505
ZGGG,2006-02-09 02:00,ZGGG 090200Z AUTO 01010KT 3SM 16/06 A3042 RMK T01600060 IEM_DS3505
ZGGG,2006-02-09 03:00,ZGGG 090300Z AUTO 36004KT 6SM 18/08 A3042 RMK SLP301 T01780081 52005 IEM_DS3505
ZGGG,2006-02-09 04:00,ZGGG 090400Z AUTO 35008KT 4SM 17/05 A3039 RMK T01700050 IEM_DS3505
ZGGG,2006-02-09 05:00,ZGGG 090500Z AUTO 02008KT 4SM 18/05 A3036 RMK T01800050 IEM_DS3505
ZGGG,2006-02-09 06:00,ZGGG 090600Z AUTO 04004KT 7SM 19/07 A3030 RMK SLP264 T01900071 57037 IEM_DS3505
ZGGG,2006-02-09 07:00,ZGGG 090700Z AUTO 02006KT 4SM 19/06 A3027 RMK T01900060 IEM_DS3505
ZGGG,2006-02-09 08:00,ZGGG 090800Z AUTO 02006KT 4SM 19/06 A3024 RMK T01900060 IEM_DS3505
ZGGG,2006-02-09 10:00,ZGGG 091000Z AUTO 35012KT 4SM 17/05 A3027 RMK T01700050 IEM_DS3505
ZGGG,2006-02-09 11:00,ZGGG 091100Z AUTO 34010KT 4SM 16/05 A3030 RMK T01600050 IEM_DS3505
ZGGG,2006-02-09 12:00,ZGGG 091200Z AUTO 36004KT 7SM 16/06 A3030 RMK SLP269 T01570062 52017 IEM_DS3505
ZGGG,2006-02-09 13:00,ZGGG 091300Z AUTO 34008KT 4SM 14/05 A3033 RMK T01400050 IEM_DS3505
ZGGG,2006-02-09 14:00,ZGGG 091400Z AUTO 34008KT 4SM 14/04 A3033 RMK T01400040 IEM_DS3505
ZGGG,2006-02-09 15:00,ZGGG 091500Z AUTO 36002KT 8SM 15/06 A3033 RMK SLP282 T01480056 52013 IEM_DS3505
ZGGG,2006-02-09 16:00,ZGGG 091600Z AUTO 02004KT 4SM 14/05 A3033 RMK T01400050 IEM_DS3505
ZGGG,2006-02-09 17:00,ZGGG 091700Z AUTO 36004KT 4SM 14/04 A3033 RMK T01400040 IEM_DS3505
ZGGG,2006-02-09 18:00,ZGGG 091800Z AUTO 32004KT 8SM 14/06 A3033 RMK SLP273 T01440057 57009 IEM_DS3505
ZGGG,2006-02-09 19:00,ZGGG 091900Z AUTO 33004KT 4SM 13/04 A3030 RMK T01300040 IEM_DS3505
ZGGG,2006-02-09 20:00,ZGGG 092000Z AUTO 34006KT 4SM 12/04 A3027 RMK T01200040 IEM_DS3505
ZGGG,2006-02-09 21:00,ZGGG 092100Z AUTO 34004KT 8SM 12/05 A3027 RMK SLP256 T01250050 57017 IEM_DS3505
ZGGG,2006-02-09 22:00,ZGGG 092200Z AUTO 34010KT 4SM 11/04 A3030 RMK T01100040 IEM_DS3505
ZGGG,2006-02-09 23:00,ZGGG 092300Z AUTO 03004KT 4SM 12/04 A3030 RMK T01200040 IEM_DS3505
ZGGG,2006-02-10 00:00,ZGGG 100000Z AUTO 34004KT 7SM 12/05 A3030 RMK SLP274 T01250047 52017 IEM_DS3505
ZGGG,2006-02-10 01:00,ZGGG 100100Z AUTO 4SM 12/04 A3033 RMK T01200040 IEM_DS3505
ZGGG,2006-02-10 02:00,ZGGG 100200Z AUTO 4SM 13/04 A3030 RMK T01300040 IEM_DS3505
ZGGG,2006-02-10 03:00,ZGGG 100300Z AUTO 32006KT 7SM 16/06 A3030 RMK SLP263 T01600056 57011 IEM_DS3505
ZGGG,2006-02-10 04:00,ZGGG 100400Z AUTO 34006KT 4SM 17/04 A3027 RMK T01700040 IEM_DS3505
ZGGG,2006-02-10 05:00,ZGGG 100500Z AUTO 4SM 18/04 A3021 RMK T01800040 IEM_DS3505
ZGGG,2006-02-10 06:00,ZGGG 100600Z AUTO 29004KT 6SM 19/07 A3015 RMK SLP216 T01940072 57046 IEM_DS3505
ZGGG,2006-02-10 07:00,ZGGG 100700Z AUTO 4SM 21/05 A3012 RMK T02100050 IEM_DS3505
ZGGG,2006-02-10 08:00,ZGGG 100800Z AUTO 29006KT 4SM 21/06 A3009 RMK T02100060 IEM_DS3505
ZGGG,2006-02-10 09:00,ZGGG 100900Z AUTO 27002G16KT 6SM 21/08 A3009 RMK SLP195 T02110077 57021 IEM_DS3505
ZGGG,2006-02-10 10:00,ZGGG 101000Z AUTO 33008KT 3SM 20/07 A3009 RMK T02000070 IEM_DS3505
ZGGG,2006-02-10 11:00,ZGGG 101100Z AUTO 33008KT 4SM 19/06 A3009 RMK T01900060 IEM_DS3505
ZGGG,2006-02-10 12:00,ZGGG 101200Z AUTO 36002KT 7SM 16/09 A3012 RMK SLP209 T01640091 52014 IEM_DS3505
ZGGG,2006-02-10 13:00,ZGGG 101300Z AUTO 35006KT 4SM 18/06 A3012 RMK T01800060 IEM_DS3505
ZGGG,2006-02-10 14:00,ZGGG 101400Z AUTO 34006KT 4SM 17/06 A3015 RMK T01700060 IEM_DS3505
ZGGG,2006-02-10 15:00,ZGGG 101500Z AUTO 32002KT 9SM 17/08 A3015 RMK SLP220 T01680085 52011 IEM_DS3505
ZGGG,2006-02-10 16:00,ZGGG 101600Z AUTO 36004KT 4SM 15/06 A3015 RMK T01500060 IEM_DS3505
ZGGG,2006-02-10 17:00,ZGGG 101700Z AUTO 33004KT 4SM 15/06 A3015 RMK T01500060 IEM_DS3505
ZGGG,2006-02-10 18:00,ZGGG 101800Z AUTO 29002KT 9SM 15/08 A3015 RMK SLP215 T01460083 57005 IEM_DS3505
ZGGG,2006-02-10 19:00,ZGGG 101900Z AUTO 00000KT 4SM 15/06 A3012 RMK T01500060 IEM_DS3505
ZGGG,2006-02-10 20:00,ZGGG 102000Z AUTO 00000KT 4SM 13/08 A3012 RMK T01300080 IEM_DS3505
ZGGG,2006-02-10 21:00,ZGGG 102100Z AUTO 32004KT 8SM 14/08 A3012 RMK SLP206 T01380076 57009 IEM_DS3505
ZGGG,2006-02-10 22:00,ZGGG 102200Z AUTO 01002KT 3SM 12/07 A3012 RMK T01200070 IEM_DS3505
ZGGG,2006-02-10 23:00,ZGGG 102300Z AUTO 2 1/2SM 12/08 A3015 RMK T01200080 IEM_DS3505
ZGGG,2006-02-11 00:00,ZGGG 110000Z AUTO 08004KT 7SM 14/08 A3015 RMK SLP222 T01360080 52016 IEM_DS3505
ZGGG,2006-02-11 01:00,ZGGG 110100Z AUTO 2 1/2SM 14/07 A3018 RMK T01400070 IEM_DS3505
ZGGG,2006-02-11 02:00,ZGGG 110200Z AUTO 2 1/2SM 17/07 A3018 RMK T01700070 IEM_DS3505
ZGGG,2006-02-11 03:00,ZGGG 110300Z AUTO 32002KT 5SM 20/09 A3015 RMK SLP218 T02040087 57004 IEM_DS3505
ZGGG,2006-02-11 04:00,ZGGG 110400Z AUTO 2 1/2SM 21/07 A3012 RMK T02100070 IEM_DS3505
ZGGG,2006-02-11 05:00,ZGGG 110500Z AUTO 3SM 23/07 A3009 RMK T02300070 IEM_DS3505
ZGGG,2006-02-11 06:00,ZGGG 110600Z AUTO 27002KT 4SM 24/09 A3006 RMK SLP183 T02440088 57034 IEM_DS3505
ZGGG,2006-02-11 07:00,ZGGG 110700Z AUTO 3SM 25/08 A3003 RMK T02500080 IEM_DS3505
ZGGG,2006-02-11 08:00,ZGGG 110800Z AUTO 24004KT 3SM 25/08 A3000 RMK T02500080 IEM_DS3505
ZGGG,2006-02-11 09:00,ZGGG 110900Z AUTO 34004KT 6SM 24/10 A3003 RMK SLP177 T02400103 57007 IEM_DS3505
ZGGG,2006-02-11 10:00,ZGGG 111000Z AUTO 23004KT 2 1/2SM 24/09 A3003 RMK T02400090 IEM_DS3505
ZGGG,2006-02-11 11:00,ZGGG 111100Z AUTO 03004KT 3SM 22/11 A3006 RMK T02200110 IEM_DS3505
ZGGG,2006-02-11 12:00,ZGGG 111200Z AUTO 04004KT 6SM 21/12 A3006 RMK SLP192 T02120118 52015 IEM_DS3505
ZGGG,2006-02-11 13:00,ZGGG 111300Z AUTO 3SM 21/10 A3009 RMK T02100100 IEM_DS3505
ZGGG,2006-02-11 14:00,ZGGG 111400Z AUTO 03004KT 3SM 20/11 A3009 RMK T02000110 IEM_DS3505
ZGGG,2006-02-11 15:00,ZGGG 111500Z AUTO 09002KT 6SM 19/12 A3009 RMK SLP205 T01900123 52013 IEM_DS3505
ZGGG,2006-02-11 16:00,ZGGG 111600Z AUTO 08002KT 2 1/2SM 19/11 A3009 RMK T01900110 IEM_DS3505
ZGGG,2006-02-11 17:00,ZGGG 111700Z AUTO 15002KT 2SM 17/11 A3009 RMK T01700110 IEM_DS3505
ZGGG,2006-02-11 18:00,ZGGG 111800Z AUTO 11002KT 4SM 17/15 A3012 RMK SLP205 T01740147 52001 IEM_DS3505
ZGGG,2006-02-11 19:00,ZGGG 111900Z AUTO 07004KT 2SM 17/12 A3009 RMK T01700120 IEM_DS3505
ZGGG,2006-02-11 20:00,ZGGG 112000Z AUTO 2SM 17/11 A3009 RMK T01700110 IEM_DS3505
ZGGG,2006-02-11 21:00,ZGGG 112100Z AUTO 07004KT 2SM 16/14 A3009 RMK SLP199 T01610141 57006 IEM_DS3505
ZGGG,2006-02-11 22:00,ZGGG 112200Z AUTO 2 1/2SM 17/11 A3009 RMK T01700110 IEM_DS3505
ZGGG,2006-02-11 23:00,ZGGG 112300Z AUTO 2SM 17/11 A3012 RMK T01700110 IEM_DS3505
ZGGG,2006-02-12 00:00,ZGGG 120000Z AUTO 06004KT 2 1/2SM 17/14 A3015 RMK SLP217 T01670142 52017 IEM_DS3505
ZGGG,2006-02-12 01:00,ZGGG 120100Z AUTO 2SM 18/11 A3015 RMK T01800110 IEM_DS3505
ZGGG,2006-02-12 02:00,ZGGG 120200Z AUTO 2 1/2SM 20/11 A3018 RMK T02000110 IEM_DS3505
ZGGG,2006-02-12 03:00,ZGGG 120300Z AUTO 11004KT 1 1/2SM 22/14 A3018 RMK SLP224 T02180144 52007 IEM_DS3505
ZGGG,2006-02-12 04:00,ZGGG 120400Z AUTO 09006KT 2 1/2SM 23/11 A3012 RMK T02300110 IEM_DS3505
ZGGG,2006-02-12 05:00,ZGGG 120500Z AUTO 11006KT 2 1/2SM 25/11 A3012 RMK T02500110 IEM_DS3505
ZGGG,2006-02-12 06:00,ZGGG 120600Z AUTO 14004KT 2 1/2SM 25/12 A3009 RMK SLP193 T02510120 57030 IEM_DS3505
ZGGG,2006-02-12 07:00,ZGGG 120700Z AUTO 3SM 26/10 A3006 RMK T02600100 IEM_DS3505
ZGGG,2006-02-12 08:00,ZGGG 120800Z AUTO 2 1/2SM 26/10 A3003 RMK T02600100 IEM_DS3505
ZGGG,2006-02-12 09:00,ZGGG 120900Z AUTO 16002KT 2SM 24/13 A3006 RMK SLP185 T02380134 57008 IEM_DS3505
ZGGG,2006-02-12 10:00,ZGGG 121000Z AUTO 15004KT 2SM 24/11 A3006 RMK T02400110 IEM_DS3505
ZGGG,2006-02-12 11:00,ZGGG 121100Z AUTO 18008KT 2SM 23/13 A3009 RMK T02300130 IEM_DS3505
ZGGG,2006-02-12 12:00,ZGGG 121200Z AUTO 16004KT 5SM 21/12 A3012 RMK SLP210 T02070116 52024 IEM_DS3505
ZGGG,2006-02-12 13:00,ZGGG 121300Z AUTO 17004KT 3SM 21/12 A3015 RMK T02100120 IEM_DS3505
ZGGG,2006-02-12 14:00,ZGGG 121400Z AUTO 16006KT 4SM 20/11 A3015 RMK T02000110 IEM_DS3505
ZGGG,2006-02-12 15:00,ZGGG 121500Z AUTO 16002KT 6SM 19/10 A3015 RMK SLP219 T01860104 52009 IEM_DS3505
ZGGG,2006-02-12 16:00,ZGGG 121600Z AUTO 16004KT 4SM 19/11 A3015 RMK T01900110 IEM_DS3505
ZGGG,2006-02-12 17:00,ZGGG 121700Z AUTO 17002KT 4SM 18/11 A3012 RMK T01800110 IEM_DS3505
ZGGG,2006-02-12 18:00,ZGGG 121800Z AUTO 18002KT 6SM 17/10 A3012 RMK SLP209 T01740105 57009 IEM_DS3505
ZGGG,2006-02-12 19:00,ZGGG 121900Z AUTO 00000KT 4SM 18/11 A3012 RMK T01800110 IEM_DS3505
ZGGG,2006-02-12 20:00,ZGGG 122000Z AUTO 4SM 18/08 A3012 RMK T01800080 IEM_DS3505
ZGGG,2006-02-12 21:00,ZGGG 122100Z AUTO 07002KT 7SM 16/10 A3009 RMK SLP197 T01640105 57012 IEM_DS3505
ZGGG,2006-02-12 22:00,ZGGG 122200Z AUTO 11004KT 3SM 17/11 A3009 RMK T01700110 IEM_DS3505
ZGGG,2006-02-12 23:00,ZGGG 122300Z AUTO 00000KT 3SM 17/10 A3012 RMK T01700100 IEM_DS3505
ZGGG,2006-02-13 00:00,ZGGG 130000Z AUTO 07002KT 7SM 17/09 A3012 RMK SLP213 T01700094 52015 IEM_DS3505
ZGGG,2006-02-13 01:00,ZGGG 130100Z AUTO 08004KT 3SM 18/10 A3012 RMK T01800100 IEM_DS3505
ZGGG,2006-02-13 02:00,ZGGG 130200Z AUTO 08004KT 4SM 19/09 A3015 RMK T01900090 IEM_DS3505
ZGGG,2006-02-13 03:00,ZGGG 130300Z AUTO 07002KT 7SM 19/08 A3015 RMK SLP215 T01940078 52002 IEM_DS3505
ZGGG,2006-02-13 04:00,ZGGG 130400Z AUTO 4SM 20/07 A3012 RMK T02000070 IEM_DS3505
ZGGG,2006-02-13 05:00,ZGGG 130500Z AUTO 3SM 20/08 A3009 RMK T02000080 IEM_DS3505
ZGGG,2006-02-13 06:00,ZGGG 130600Z AUTO 11002KT 7SM 20/08 A3003 RMK SLP184 T01990083 57031 IEM_DS3505
ZGGG,2006-02-13 07:00,ZGGG 130700Z AUTO 4SM 21/08 A3003 RMK T02100080 IEM_DS3505
ZGGG,2006-02-13 08:00,ZGGG 130800Z AUTO 3SM 21/09 A3000 RMK T02100090 IEM_DS3505
ZGGG,2006-02-13 10:00,ZGGG 131000Z AUTO 2 1/2SM 20/10 A3000 RMK T02000100 IEM_DS3505
ZGGG,2006-02-13 11:00,ZGGG 131100Z AUTO 00000KT 3SM 20/11 A3000 RMK T02000110 IEM_DS3505
ZGGG,2006-02-13 12:00,ZGGG 131200Z AUTO 00000KT 6SM 19/11 A3003 RMK SLP176 T01860114 52007 IEM_DS3505
ZGGG,2006-02-13 13:00,ZGGG 131300Z AUTO 00000KT 2 1/2SM 19/12 A3003 RMK T01900120 IEM_DS3505
ZGGG,2006-02-13 14:00,ZGGG 131400Z AUTO 2 1/2SM 19/12 A3003 RMK T01900120 IEM_DS3505
ZGGG,2006-02-13 15:00,ZGGG 131500Z AUTO 07002KT 6SM 19/12 A3003 RMK SLP180 T01870122 52004 IEM_DS3505
ZGGG,2006-02-13 16:00,ZGGG 131600Z AUTO 05002KT 2SM 19/12 A3003 RMK T01900120 IEM_DS3505
ZGGG,2006-02-13 17:00,ZGGG 131700Z AUTO 03002KT 2SM 18/13 A3003 RMK T01800130 IEM_DS3505
ZGGG,2006-02-13 18:00,ZGGG 131800Z AUTO 02002KT 6SM 18/12 A3003 RMK SLP175 T01840124 57004 IEM_DS3505
ZGGG,2006-02-13 19:00,ZGGG 131900Z AUTO 04002KT 2SM 18/13 A3000 RMK T01800130 IEM_DS3505
ZGGG,2006-02-13 20:00,ZGGG 132000Z AUTO 01002KT 2SM 18/13 A3000 RMK T01800130 IEM_DS3505
ZGGG,2006-02-13 21:00,ZGGG 132100Z AUTO 36002KT 7SM 18/13 A3000 RMK SLP170 T01750126 57006 IEM_DS3505
ZGGG,2006-02-13 22:00,ZGGG 132200Z AUTO 2 1/2SM 18/13 A3000 RMK T01800130 IEM_DS3505
ZGGG,2006-02-13 23:00,ZGGG 132300Z AUTO 00000KT 2SM 18/13 A3003 RMK T01800130 IEM_DS3505
ZGGG,2006-02-14 00:00,ZGGG 140000Z AUTO 07002KT 7SM 18/13 A3003 RMK SLP181 T01770130 52011 IEM_DS3505
ZGGG,2006-02-14 01:00,ZGGG 140100Z AUTO 2SM 20/12 A3003 RMK T02000120 IEM_DS3505
ZGGG,2006-02-14 02:00,ZGGG 140200Z AUTO 2SM 21/12 A3003 RMK T02100120 IEM_DS3505
ZGGG,2006-02-14 03:00,ZGGG 140300Z AUTO 11002KT 7SM 23/15 A3003 RMK SLP178 T02300148 57002 IEM_DS3505
ZGGG,2006-02-14 04:00,ZGGG 140400Z AUTO 2 1/2SM 24/14 A3000 RMK T02400140 IEM_DS3505
ZGGG,2006-02-14 05:00,ZGGG 140500Z AUTO 2 1/2SM 25/14 A2997 RMK T02500140 IEM_DS3505
ZGGG,2006-02-14 06:00,ZGGG 140600Z AUTO 16004KT 5SM 24/16 A2991 RMK SLP142 T02380161 57036 IEM_DS3505
ZGGG,2006-02-14 07:00,ZGGG 140700Z AUTO 17006KT 2 1/2SM 26/16 A2988 RMK T02600160 IEM_DS3505
ZGGG,2006-02-14 08:00,ZGGG 140800Z AUTO 15008KT 2SM 26/16 A2988 RMK T02600160 IEM_DS3505
ZGGG,2006-02-14 09:00,ZGGG 140900Z AUTO 14004KT 3SM 23/18 A2988 RMK SLP132 T02310176 57010 IEM_DS3505
ZGGG,2006-02-14 10:00,ZGGG 141000Z AUTO 16008KT 2SM 24/17 A2988 RMK T02400170 IEM_DS3505
ZGGG,2006-02-14 11:00,ZGGG 141100Z AUTO 16004KT 2 1/2SM 23/17 A2988 RMK T02300170 IEM_DS3505
ZGGG,2006-02-14 12:00,ZGGG 141200Z AUTO 11004KT 7SM 22/18 A2991 RMK SLP139 T02160178 52007 IEM_DS3505
ZGGG,2006-02-14 13:00,ZGGG 141300Z AUTO 15006KT 2SM 22/17 A2991 RMK T02200170 IEM_DS3505
ZGGG,2006-02-14 14:00,ZGGG 141400Z AUTO 2 1/2SM 22/18 A2994 RMK T02200180 IEM_DS3505
ZGGG,2006-02-14 15:00,ZGGG 141500Z AUTO 14004KT 6SM 21/18 A2994 RMK SLP146 T02090179 52007 IEM_DS3505
ZGGG,2006-02-14 16:00,ZGGG 141600Z AUTO 21004KT 2SM 22/17 A2994 RMK T02200170 IEM_DS3505
ZGGG,2006-02-14 17:00,ZGGG 141700Z AUTO 17004KT 2SM 21/18 A2991 RMK T02100180 IEM_DS3505
ZGGG,2006-02-14 18:00,ZGGG 141800Z AUTO 18002KT 6SM 20/18 A2991 RMK SLP142 T02040180 57004 IEM_DS3505
ZGGG,2006-02-14 19:00,ZGGG 141900Z AUTO 2SM 21/18 A2991 RMK T02100180 IEM_DS3505
ZGGG,2006-02-14 20:00,ZGGG 142000Z AUTO 1 1/2SM 21/18 A2991 RMK T02100180 IEM_DS3505
ZGGG,2006-02-14 21:00,ZGGG 142100Z AUTO 07002KT 5SM 20/18 A2988 RMK SLP132 T02030177 57010 IEM_DS3505
ZGGG,2006-02-14 22:00,ZGGG 142200Z AUTO 1 1/4SM 21/18 A2988 RMK T02100180 IEM_DS3505
ZGGG,2006-02-14 23:00,ZGGG 142300Z AUTO 1 1/4SM 20/18 A2991 RMK T02000180 IEM_DS3505
ZGGG,2006-02-15 00:00,ZGGG 150000Z AUTO 36002KT 2SM 20/18 A2994 RMK SLP148 T01990184 52016 IEM_DS3505
ZGGG,2006-02-15 01:00,ZGGG 150100Z AUTO 1SM 21/18 A2994 RMK T02100180 IEM_DS3505
ZGGG,2006-02-15 02:00,ZGGG 150200Z AUTO 1 1/4SM 23/18 A2997 RMK T02300180 IEM_DS3505
ZGGG,2006-02-15 03:00,ZGGG 150300Z AUTO 14004KT 2 1/2SM 24/19 A2994 RMK SLP151 T02380189 52003 IEM_DS3505
ZGGG,2006-02-15 04:00,ZGGG 150400Z AUTO 23004KT 2 1/2SM 25/18 A2994 RMK T02500180 IEM_DS3505
ZGGG,2006-02-15 05:00,ZGGG 150500Z AUTO 20004KT 2 1/2SM 26/17 A2988 RMK T02600170 IEM_DS3505
ZGGG,2006-02-15 06:00,ZGGG 150600Z AUTO 20004KT 3SM 27/18 A2985 RMK SLP117 T02670180 57033 IEM_DS3505
ZGGG,2006-02-15 07:00,ZGGG 150700Z AUTO 24006KT 1 1/2SM 27/18 A2983 RMK T02700180 IEM_DS3505
ZGGG,2006-02-15 08:00,ZGGG 150800Z AUTO 18006KT 2 1/2SM 27/17 A2983 RMK T02700170 IEM_DS3505
ZGGG,2006-02-15 09:00,ZGGG 150900Z AUTO 16002KT 4SM 26/17 A2980 RMK SLP102 T02630168 57015 IEM_DS3505
ZGGG,2006-02-15 10:00,ZGGG 151000Z AUTO 17004KT 2SM 26/16 A2983 RMK T02600160 IEM_DS3505
ZGGG,2006-02-15 11:00,ZGGG 151100Z AUTO 15006KT 2SM 24/17 A2983 RMK T02400170 IEM_DS3505
ZGGG,2006-02-15 12:00,ZGGG 151200Z AUTO 14004KT 5SM 22/18 A2985 RMK SLP118 T02250183 52015 IEM_DS3505
ZGGG,2006-02-15 13:00,ZGGG 151300Z AUTO 2 1/2SM 22/17 A2985 RMK T02200170 IEM_DS3505
ZGGG,2006-02-15 14:00,ZGGG 151400Z AUTO 00000KT 2 1/2SM 21/17 A2988 RMK T02100170 IEM_DS3505
ZGGG,2006-02-15 15:00,ZGGG 151500Z AUTO 09002KT 5SM 21/19 A2991 RMK SLP137 T02060187 52019 IEM_DS3505
ZGGG,2006-02-15 16:00,ZGGG 151600Z AUTO 2 1/2SM 20/17 A2991 RMK T02000170 IEM_DS3505
ZGGG,2006-02-15 17:00,ZGGG 151700Z AUTO 10002KT 2SM 19/17 A2991 RMK T01900170 IEM_DS3505
ZGGG,2006-02-15 18:00,ZGGG 151800Z AUTO 11002KT 2SM 20/18 A2991 RMK SLP141 T01970184 52004 IEM_DS3505
ZGGG,2006-02-15 19:00,ZGGG 151900Z AUTO 00000KT 1 1/2SM 19/17 A2991 RMK T01900170 IEM_DS3505
ZGGG,2006-02-15 20:00,ZGGG 152000Z AUTO 00000KT 1 1/4SM 19/17 A2991 RMK T01900170 IEM_DS3505
ZGGG,2006-02-15 21:00,ZGGG 152100Z AUTO 14004KT 2SM 20/18 A2991 RMK SLP141 T02050184 54000 IEM_DS3505
ZGGG,2006-02-15 22:00,ZGGG 152200Z AUTO 10002KT 1 1/4SM 20/18 A2991 RMK T02000180 IEM_DS3505
ZGGG,2006-02-15 23:00,ZGGG 152300Z AUTO 1 1/4SM 20/17 A2994 RMK T02000170 IEM_DS3505
ZGGG,2006-02-16 00:00,ZGGG 160000Z AUTO 11002KT 2SM 20/19 A2997 RMK SLP158 T02010189 52017 IEM_DS3505
ZGGG,2006-02-16 01:00,ZGGG 160100Z AUTO 1 1/4SM 21/18 A3000 RMK T02100180 IEM_DS3505
ZGGG,2006-02-16 02:00,ZGGG 160200Z AUTO 2SM 23/18 A3000 RMK T02300180 IEM_DS3505
ZGGG,2006-02-16 03:00,ZGGG 160300Z AUTO 18002KT 2 1/2SM 23/19 A3000 RMK SLP173 T02310193 52015 IEM_DS3505
ZGGG,2006-02-16 04:00,ZGGG 160400Z AUTO 2 1/2SM 24/18 A3000 RMK T02400180 IEM_DS3505
ZGGG,2006-02-16 05:00,ZGGG 160500Z AUTO 29004KT 3SM 24/18 A3000 RMK T02400180 IEM_DS3505
ZGGG,2006-02-16 06:00,ZGGG 160600Z AUTO 27002KT 2SM 22/20 A2997 RMK 60000 SLP157 T02250199 57016 IEM_DS3505
ZGGG,2006-02-16 07:00,ZGGG 160700Z AUTO 34014KT 3SM 21/16 A2997 RMK T02100160 IEM_DS3505
ZGGG,2006-02-16 08:00,ZGGG 160800Z AUTO 34012KT 4SM 19/13 A2997 RMK T01900130 IEM_DS3505
ZGGG,2006-02-16 09:00,ZGGG 160900Z AUTO 34004KT 4SM 20/15 A3000 RMK SLP156 T02010149 57001 IEM_DS3505
ZGGG,2006-02-16 10:00,ZGGG 161000Z AUTO 35012KT 4SM 17/11 A3000 RMK T01700110 IEM_DS3505
ZGGG,2006-02-16 11:00,ZGGG 161100Z AUTO 35010KT 7SM 16/11 A3003 RMK T01600110 IEM_DS3505
ZGGG,2006-02-16 12:00,ZGGG 161200Z AUTO 34006KT 6SM 16/12 A3006 RMK 60000 SLP180 T01650121 52023 IEM_DS3505
ZGGG,2006-02-16 13:00,ZGGG 161300Z AUTO 02010KT 7SM 16/10 A3009 RMK T01600100 IEM_DS3505
ZGGG,2006-02-16 14:00,ZGGG 161400Z AUTO 02010KT 7SM 16/10 A3009 RMK T01600100 IEM_DS3505
ZGGG,2006-02-16 15:00,ZGGG 161500Z AUTO 36006KT 10SM 16/10 A3012 RMK SLP199 T01620105 52019 IEM_DS3505
ZGGG,2006-02-16 16:00,ZGGG 161600Z AUTO 02014KT 7SM 15/08 A3012 RMK T01500080 IEM_DS3505
ZGGG,2006-02-16 17:00,ZGGG 161700Z AUTO 02012KT 7SM 15/08 A3012 RMK T01500080 IEM_DS3505
ZGGG,2006-02-16 18:00,ZGGG 161800Z AUTO 36004KT 9SM 15/09 A3015 RMK SLP217 T01540091 52018 IEM_DS3505
ZGGG,2006-02-16 19:00,ZGGG 161900Z AUTO 02012KT 7SM 15/06 A3015 RMK SLP221 T01500060 IEM_DS3505
ZGGG,2006-02-16 20:00,ZGGG 162000Z AUTO 03010KT 7SM 15/06 A3015 RMK SLP221 T01500060 IEM_DS3505
ZGGG,2006-02-16 21:00,ZGGG 162100Z AUTO 36006KT 9SM 15/08 A3015 RMK 70000 SLP218 T01470077 52001 IEM_DS3505
ZGGG,2006-02-16 22:00,ZGGG 162200Z AUTO 02010KT 7SM 14/06 A3018 RMK SLP231 T01400060 IEM_DS3505
ZGGG,2006-02-16 23:00,ZGGG 162300Z AUTO 01012KT 7SM 14/05 A3021 RMK SLP241 T01400050 IEM_DS3505
ZGGG,2006-02-17 00:00,ZGGG 170000Z AUTO 02006KT 10SM 14/07 A3021 RMK 70000 SLP244 T01420068 52026 IEM_DS3505
ZGGG,2006-02-17 01:00,ZGGG 170100Z AUTO 01008KT 7SM 14/05 A3024 RMK SLP251 T01400050 IEM_DS3505
ZGGG,2006-02-17 02:00,ZGGG 170200Z AUTO 02010KT 7SM 14/05 A3024 RMK SLP251 T01400050 IEM_DS3505
ZGGG,2006-02-17 03:00,ZGGG 170300Z AUTO 02004KT 11SM 15/08 A3024 RMK SLP249 T01540077 52005 IEM_DS3505
ZGGG,2006-02-17 04:00,ZGGG 170400Z AUTO 01014KT 7SM 14/05 A3024 RMK SLP251 T01400050 IEM_DS3505
ZGGG,2006-02-17 05:00,ZGGG 170500Z AUTO 02010KT 7SM 14/05 A3021 RMK SLP241 T01400050 IEM_DS3505
ZGGG,2006-02-17 06:00,ZGGG 170600Z AUTO 02004KT 12SM 15/07 A3021 RMK SLP231 T01500071 57018 IEM_DS3505
ZGGG,2006-02-17 07:00,ZGGG 170700Z AUTO 02010KT 7SM 15/06 A3015 RMK SLP221 T01500060 IEM_DS3505
ZGGG,2006-02-17 08:00,ZGGG 170800Z AUTO 02012KT 5SM 15/06 A3015 RMK SLP221 T01500060 IEM_DS3505
ZGGG,2006-02-17 09:00,ZGGG 170900Z AUTO 02002KT 11SM 14/07 A3015 RMK SLP220 T01450073 57011 IEM_DS3505
ZGGG,2006-02-17 10:00,ZGGG 171000Z AUTO 01012KT 6SM 14/05 A3015 RMK SLP221 T01400050 IEM_DS3505
ZGGG,2006-02-17 11:00,ZGGG 171100Z AUTO 02006KT 5SM 13/05 A3015 RMK SLP221 T01300050 IEM_DS3505
ZGGG,2006-02-17 12:00,ZGGG 171200Z AUTO 02004KT 10SM 13/07 A3018 RMK SLP229 T01320068 52008 IEM_DS3505
ZGGG,2006-02-17 13:00,ZGGG 171300Z AUTO 02010KT 5SM 13/05 A3021 RMK SLP241 T01300050 IEM_DS3505
ZGGG,2006-02-17 14:00,ZGGG 171400Z AUTO 01008KT 6SM 13/05 A3021 RMK SLP241 T01300050 IEM_DS3505
ZGGG,2006-02-17 15:00,ZGGG 171500Z AUTO 36004KT 10SM 13/07 A3021 RMK SLP240 T01280068 52011 IEM_DS3505
ZGGG,2006-02-17 16:00,ZGGG 171600Z AUTO 02006KT 3SM 10/07 A3024 RMK SLP252 T01000070 IEM_DS3505
ZGGG,2006-02-17 17:00,ZGGG 171700Z AUTO 36006KT 2 1/2SM 10/07 A3024 RMK SLP252 T01000070 IEM_DS3505
ZGGG,2006-02-17 18:00,ZGGG 171800Z AUTO 02006KT 6SM 10/09 A3024 RMK 60016 SLP244 T01010087 52004 IEM_DS3505
ZGGG,2006-02-17 19:00,ZGGG 171900Z AUTO 01004KT 3SM 09/07 A3021 RMK SLP242 T00900070 IEM_DS3505
ZGGG,2006-02-17 20:00,ZGGG 172000Z AUTO 03006KT 7SM 09/07 A3018 RMK SLP232 T00900070 IEM_DS3505
ZGGG,2006-02-17 21:00,ZGGG 172100Z AUTO 02004KT 7SM 10/08 A3024 RMK 70018 SLP240 T00950079 57004 IEM_DS3505
ZGGG,2006-02-17 22:00,ZGGG 172200Z AUTO 02008KT 7SM 09/07 A3021 RMK SLP242 T00900070 IEM_DS3505
ZGGG,2006-02-17 23:00,ZGGG 172300Z AUTO 36006KT 4SM 09/07 A3024 RMK SLP252 T00900070 IEM_DS3505
ZGGG,2006-02-18 00:00,ZGGG 180000Z AUTO 02004KT 6SM 09/08 A3027 RMK 60043 70060 SLP253 T00900078 52013 IEM_DS3505
ZGGG,2006-02-18 01:00,ZGGG 180100Z AUTO 03010KT 3SM 09/06 A3024 RMK SLP252 T00900060 IEM_DS3505
ZGGG,2006-02-18 02:00,ZGGG 180200Z AUTO 36008KT 7SM 10/06 A3027 RMK SLP263 T01000060 IEM_DS3505
ZGGG,2006-02-18 03:00,ZGGG 180300Z AUTO 34002KT 7SM 10/08 A3024 RMK SLP251 T00960084 57002 IEM_DS3505
ZGGG,2006-02-18 04:00,ZGGG 180400Z AUTO 36004KT 2SM 09/07 A3024 RMK SLP252 T00900070 IEM_DS3505
ZGGG,2006-02-18 05:00,ZGGG 180500Z AUTO 1 1/2SM 09/07 A3021 RMK SLP242 T00900070 IEM_DS3505
ZGGG,2006-02-18 06:00,ZGGG 180600Z AUTO 36004KT 9SM 09/08 A3018 RMK 60067 SLP223 T00940082 57028 IEM_DS3505
ZGGG,2006-02-18 07:00,ZGGG 180700Z AUTO 35006KT 7SM 09/07 A3015 RMK SLP222 T00900070 IEM_DS3505
ZGGG,2006-02-18 08:00,ZGGG 180800Z AUTO 03006KT 7SM 10/07 A3015 RMK SLP221 T01000070 IEM_DS3505
ZGGG,2006-02-18 09:00,ZGGG 180900Z AUTO 36004KT 11SM 10/07 A3015 RMK SLP220 T00980074 57003 IEM_DS3505
ZGGG,2006-02-18 10:00,ZGGG 181000Z AUTO 35006KT 3SM 10/07 A3015 RMK SLP221 T01000070 IEM_DS3505
ZGGG,2006-02-18 11:00,ZGGG 181100Z AUTO 02006KT 7SM 09/07 A3015 RMK SLP222 T00900070 IEM_DS3505
ZGGG,2006-02-18 12:00,ZGGG 181200Z AUTO 36004KT 9SM 09/08 A3015 RMK 60012 SLP222 T00920078 52002 IEM_DS3505
ZGGG,2006-02-18 13:00,ZGGG 181300Z AUTO 35004KT 7SM 10/07 A3018 RMK SLP231 T01000070 IEM_DS3505
ZGGG,2006-02-18 14:00,ZGGG 181400Z AUTO 3SM 10/07 A3018 RMK SLP231 T01000070 IEM_DS3505
ZGGG,2006-02-18 15:00,ZGGG 181500Z AUTO 36002KT 11SM 09/08 A3018 RMK SLP229 T00920078 52007 IEM_DS3505
ZGGG,2006-02-18 16:00,ZGGG 181600Z AUTO 02004KT 7SM 10/07 A3018 RMK SLP231 T01000070 IEM_DS3505
ZGGG,2006-02-18 17:00,ZGGG 181700Z AUTO 5SM 10/07 A3018 RMK SLP231 T01000070 IEM_DS3505
ZGGG,2006-02-18 18:00,ZGGG 181800Z AUTO 34002KT 7SM 09/08 A3015 RMK 60024 SLP226 T00900078 57003 IEM_DS3505
ZGGG,2006-02-18 19:00,ZGGG 181900Z AUTO 36002KT 5SM 09/06 A3015 RMK SLP222 T00900060 IEM_DS3505
ZGGG,2006-02-18 20:00,ZGGG 182000Z AUTO 01004KT 5SM 09/06 A3015 RMK SLP222 T00900060 IEM_DS3505
ZGGG,2006-02-18 21:00,ZGGG 182100Z AUTO 36002KT 8SM 09/07 A3015 RMK 70145 SLP217 T00890074 57009 IEM_DS3505
ZGGG,2006-02-18 22:00,ZGGG 182200Z AUTO 33008KT 7SM 09/06 A3015 RMK SLP222 T00900060 IEM_DS3505
ZGGG,2006-02-18 23:00,ZGGG 182300Z AUTO 01008KT 4SM 09/06 A3018 RMK SLP232 T00900060 IEM_DS3505
ZGGG,2006-02-19 00:00,ZGGG 190000Z AUTO 02004KT 8SM 09/07 A3018 RMK 60012 70113 SLP233 T00910074 52015 IEM_DS3505
ZGGG,2006-02-19 01:00,ZGGG 190100Z AUTO 7SM 10/06 A3021 RMK SLP242 T01000060 IEM_DS3505
ZGGG,2006-02-19 02:00,ZGGG 190200Z AUTO 03004KT 7SM 11/07 A3021 RMK SLP241 T01100070 IEM_DS3505
ZGGG,2006-02-19 03:00,ZGGG 190300Z AUTO 34004KT 10SM 12/08 A3021 RMK SLP234 T01160079 52002 IEM_DS3505
ZGGG,2006-02-19 04:00,ZGGG 190400Z AUTO 05004KT 7SM 13/07 A3015 RMK SLP221 T01300070 IEM_DS3505
ZGGG,2006-02-19 05:00,ZGGG 190500Z AUTO 34006KT 7SM 13/08 A3012 RMK SLP211 T01300080 IEM_DS3505
ZGGG,2006-02-19 06:00,ZGGG 190600Z AUTO 34004KT 11SM 14/09 A3009 RMK SLP199 T01380086 57035 IEM_DS3505
ZGGG,2006-02-19 07:00,ZGGG 190700Z AUTO 34008KT 7SM 14/08 A3009 RMK SLP201 T01400080 IEM_DS3505
ZGGG,2006-02-19 08:00,ZGGG 190800Z AUTO 35006KT 7SM 13/08 A3009 RMK SLP201 T01300080 IEM_DS3505
ZGGG,2006-02-19 09:00,ZGGG 190900Z AUTO 32004KT 8SM 13/09 A3012 RMK SLP210 T01290086 52011 IEM_DS3505
ZGGG,2006-02-19 10:00,ZGGG 191000Z AUTO 34010KT 3SM 11/08 A3015 RMK SLP221 T01100080 IEM_DS3505
ZGGG,2006-02-19 11:00,ZGGG 191100Z AUTO 35008KT 3SM 11/08 A3015 RMK SLP221 T01100080 IEM_DS3505
ZGGG,2006-02-19 12:00,ZGGG 191200Z AUTO 34002KT 7SM 11/09 A3018 RMK 60000 SLP228 T01110094 52018 IEM_DS3505
ZGGG,2006-02-19 13:00,ZGGG 191300Z AUTO 5SM 11/08 A3018 RMK SLP231 T01100080 IEM_DS3505
ZGGG,2006-02-19 14:00,ZGGG 191400Z AUTO 4SM 11/08 A3018 RMK SLP231 T01100080 IEM_DS3505
ZGGG,2006-02-19 15:00,ZGGG 191500Z AUTO 34004KT 7SM 11/09 A3018 RMK SLP226 T01120091 57002 IEM_DS3505
ZGGG,2006-02-19 16:00,ZGGG 191600Z AUTO 36004KT 7SM 11/08 A3018 RMK SLP231 T01100080 IEM_DS3505
ZGGG,2006-02-19 17:00,ZGGG 191700Z AUTO 34006KT 7SM 11/07 A3018 RMK SLP231 T01100070 IEM_DS3505
ZGGG,2006-02-19 18:00,ZGGG 191800Z AUTO 36004KT 9SM 11/09 A3015 RMK 60000 SLP221 T01120088 57005 IEM_DS3505
ZGGG,2006-02-19 19:00,ZGGG 191900Z AUTO 01004KT 7SM 11/07 A3015 RMK SLP221 T01100070 IEM_DS3505
ZGGG,2006-02-19 20:00,ZGGG 192000Z AUTO 02006KT 7SM 11/07 A3015 RMK SLP221 T01100070 IEM_DS3505
ZGGG,2006-02-19 21:00,ZGGG 192100Z AUTO 36006KT 9SM 11/08 A3015 RMK 70010 SLP218 T01110076 57003 IEM_DS3505
ZGGG,2006-02-19 22:00,ZGGG 192200Z AUTO 36006KT 4SM 11/07 A3015 RMK SLP221 T01100070 IEM_DS3505
ZGGG,2006-02-19 23:00,ZGGG 192300Z AUTO 34006KT 4SM 11/07 A3015 RMK SLP221 T01100070 IEM_DS3505
ZGGG,2006-02-20 00:00,ZGGG 200000Z AUTO 36002KT 10SM 12/08 A3018 RMK 70000 SLP229 T01160079 52011 IEM_DS3505
ZGGG,2006-02-20 01:00,ZGGG 200100Z AUTO 07006KT 5SM 12/07 A3018 RMK SLP231 T01200070 IEM_DS3505
ZGGG,2006-02-20 02:00,ZGGG 200200Z AUTO 31006KT 4SM 12/07 A3021 RMK SLP241 T01200070 IEM_DS3505
ZGGG,2006-02-20 03:00,ZGGG 200300Z AUTO 34004KT 9SM 13/09 A3018 RMK SLP227 T01320087 57002 IEM_DS3505
ZGGG,2006-02-20 04:00,ZGGG 200400Z AUTO 33006KT 5SM 14/08 A3015 RMK SLP221 T01400080 IEM_DS3505
ZGGG,2006-02-20 05:00,ZGGG 200500Z AUTO 33008KT 5SM 15/08 A3012 RMK SLP210 T01500080 IEM_DS3505
ZGGG,2006-02-20 06:00,ZGGG 200600Z AUTO 29004KT 9SM 15/10 A3009 RMK SLP202 T01540097 57025 IEM_DS3505
ZGGG,2006-02-20 07:00,ZGGG 200700Z AUTO 5SM 16/09 A3006 RMK SLP190 T01600090 IEM_DS3505
ZGGG,2006-02-20 08:00,ZGGG 200800Z AUTO 4SM 16/09 A3006 RMK SLP190 T01600090 IEM_DS3505
ZGGG,2006-02-20 09:00,ZGGG 200900Z AUTO 32002KT 8SM 16/10 A3006 RMK SLP186 T01620103 57015 IEM_DS3505
ZGGG,2006-02-20 10:00,ZGGG 201000Z AUTO 4SM 16/09 A3006 RMK SLP190 T01600090 IEM_DS3505
ZGGG,2006-02-20 11:00,ZGGG 201100Z AUTO 3SM 15/10 A3006 RMK SLP190 T01500100 IEM_DS3505
ZGGG,2006-02-20 12:00,ZGGG 201200Z AUTO 32002KT 7SM 15/11 A3009 RMK SLP200 T01540106 52013 IEM_DS3505
ZGGG,2006-02-20 13:00,ZGGG 201300Z AUTO 00000KT 3SM 15/12 A3012 RMK SLP210 T01500120 IEM_DS3505
ZGGG,2006-02-20 14:00,ZGGG 201400Z AUTO 12002KT 2 1/2SM 15/11 A3012 RMK SLP210 T01500110 IEM_DS3505
ZGGG,2006-02-20 15:00,ZGGG 201500Z AUTO 29002KT 7SM 15/11 A3012 RMK SLP209 T01520114 52010 IEM_DS3505
ZGGG,2006-02-20 16:00,ZGGG 201600Z AUTO 00000KT 3SM 15/12 A3012 RMK SLP210 T01500120 IEM_DS3505
ZGGG,2006-02-20 17:00,ZGGG 201700Z AUTO 3SM 15/12 A3009 RMK SLP200 T01500120 IEM_DS3505
ZGGG,2006-02-20 18:00,ZGGG 201800Z AUTO 34002KT 6SM 15/12 A3009 RMK SLP196 T01500116 57013 IEM_DS3505
ZGGG,2006-02-20 19:00,ZGGG 201900Z AUTO 2 1/2SM 15/12 A3006 RMK SLP190 T01500120 IEM_DS3505
ZGGG,2006-02-20 20:00,ZGGG 202000Z AUTO 12002KT 2 1/2SM 14/11 A3006 RMK SLP191 T01400110 IEM_DS3505
ZGGG,2006-02-20 21:00,ZGGG 202100Z AUTO 00000KT 6SM 15/12 A3006 RMK SLP190 T01460121 57006 IEM_DS3505
ZGGG,2006-02-20 22:00,ZGGG 202200Z AUTO 3SM 15/11 A3006 RMK SLP190 T01500110 IEM_DS3505
ZGGG,2006-02-20 23:00,ZGGG 202300Z AUTO 02002KT 2 1/2SM 15/12 A3009 RMK SLP200 T01500120 IEM_DS3505
ZGGG,2006-02-21 00:00,ZGGG 210000Z AUTO 29002KT 5SM 15/12 A3009 RMK SLP203 T01530121 52013 IEM_DS3505
ZGGG,2006-02-21 01:00,ZGGG 210100Z AUTO 2 1/2SM 16/12 A3012 RMK SLP210 T01600120 IEM_DS3505
ZGGG,2006-02-21 02:00,ZGGG 210200Z AUTO 09004KT 2 1/2SM 17/12 A3012 RMK SLP210 T01700120 IEM_DS3505
ZGGG,2006-02-21 03:00,ZGGG 210300Z AUTO 22002KT 6SM 19/13 A3012 RMK SLP203 T01890129 54000 IEM_DS3505
ZGGG,2006-02-21 04:00,ZGGG 210400Z AUTO 3SM 20/12 A3006 RMK SLP190 T02000120 IEM_DS3505
ZGGG,2006-02-21 05:00,ZGGG 210500Z AUTO 3SM 22/12 A3003 RMK SLP178 T02200120 IEM_DS3505
ZGGG,2006-02-21 06:00,ZGGG 210600Z AUTO 18002KT 8SM 24/15 A2997 RMK SLP158 T02430147 57044 IEM_DS3505
ZGGG,2006-02-21 07:00,ZGGG 210700Z AUTO 3SM 25/13 A2994 RMK SLP148 T02500130 IEM_DS3505
ZGGG,2006-02-21 08:00,ZGGG 210800Z AUTO 3SM 25/14 A2994 RMK SLP148 T02500140 IEM_DS3505
ZGGG,2006-02-21 09:00,ZGGG 210900Z AUTO 16002KT 7SM 26/15 A2994 RMK SLP150 T02560153 57008 IEM_DS3505
ZGGG,2006-02-21 10:00,ZGGG 211000Z AUTO 27004KT 3SM 24/14 A2997 RMK SLP158 T02400140 IEM_DS3505
ZGGG,2006-02-21 11:00,ZGGG 211100Z AUTO 25004KT 2 1/2SM 23/15 A2997 RMK SLP158 T02300150 IEM_DS3505
ZGGG,2006-02-21 12:00,ZGGG 211200Z AUTO 28004KT 5SM 20/16 A3000 RMK SLP173 T01950160 52022 IEM_DS3505
ZGGG,2006-02-21 13:00,ZGGG 211300Z AUTO 00000KT 3SM 21/16 A3003 RMK SLP178 T02100160 IEM_DS3505
ZGGG,2006-02-21 14:00,ZGGG 211400Z AUTO 18002KT 2SM 21/16 A3003 RMK SLP178 T02100160 IEM_DS3505
ZGGG,2006-02-21 15:00,ZGGG 211500Z AUTO 00000KT 4SM 20/17 A3003 RMK SLP186 T02000166 52014 IEM_DS3505
ZGGG,2006-02-21 16:00,ZGGG 211600Z AUTO 19006KT 2SM 21/16 A3006 RMK SLP189 T02100160 IEM_DS3505
ZGGG,2006-02-21 17:00,ZGGG 211700Z AUTO 21004KT 2SM 20/16 A3006 RMK SLP190 T02000160 IEM_DS3505
ZGGG,2006-02-21 18:00,ZGGG 211800Z AUTO 09002KT 4SM 19/17 A3006 RMK SLP184 T01920166 57002 IEM_DS3505
ZGGG,2006-02-21 19:00,ZGGG 211900Z AUTO 20002KT 2SM 19/16 A3003 RMK SLP179 T01900160 IEM_DS3505
ZGGG,2006-02-21 20:00,ZGGG 212000Z AUTO 36002KT 2SM 19/16 A3003 RMK SLP179 T01900160 IEM_DS3505
ZGGG,2006-02-21 21:00,ZGGG 212100Z AUTO 07002KT 2 1/2SM 19/17 A3003 RMK SLP179 T01870167 57005 IEM_DS3505
ZGGG,2006-02-21 22:00,ZGGG 212200Z AUTO 02002KT 2SM 19/16 A3003 RMK SLP179 T01900160 IEM_DS3505
ZGGG,2006-02-21 23:00,ZGGG 212300Z AUTO 00000KT 1 1/4SM 19/16 A3006 RMK SLP190 T01900160 IEM_DS3505
ZGGG,2006-02-22 00:00,ZGGG 220000Z AUTO 34002KT 2SM 19/17 A3006 RMK SLP195 T01910169 52015 IEM_DS3505
ZGGG,2006-02-22 01:00,ZGGG 220100Z AUTO 1SM 20/17 A3009 RMK T02000170 IEM_DS3505
ZGGG,2006-02-22 02:00,ZGGG 220200Z AUTO 1 1/4SM 21/16 A3009 RMK T02100160 IEM_DS3505
ZGGG,2006-02-22 03:00,ZGGG 220300Z AUTO 32002KT 4SM 24/17 A3009 RMK SLP195 T02440172 52001 IEM_DS3505
ZGGG,2006-02-22 04:00,ZGGG 220400Z AUTO 36004KT 2SM 27/16 A3006 RMK SLP188 T02700160 IEM_DS3505
ZGGG,2006-02-22 05:00,ZGGG 220500Z AUTO 34008KT 3SM 27/15 A3003 RMK SLP177 T02700150 IEM_DS3505
ZGGG,2006-02-22 06:00,ZGGG 220600Z AUTO 34004G21KT 2SM 27/17 A3000 RMK SLP165 T02730169 57030 IEM_DS3505
ZGGG,2006-02-22 07:00,ZGGG 220700Z AUTO 35014KT 4SM 24/14 A3000 RMK SLP168 T02400140 IEM_DS3505
ZGGG,2006-02-22 08:00,ZGGG 220800Z AUTO 34014KT 5SM 23/13 A2997 RMK SLP158 T02300130 IEM_DS3505
ZGGG,2006-02-22 09:00,ZGGG 220900Z AUTO 34002KT 5SM 23/15 A3000 RMK SLP161 T02330146 57004 IEM_DS3505
ZGGG,2006-02-22 10:00,ZGGG 221000Z AUTO 35014KT 5SM 20/10 A3003 RMK SLP178 T02000100 IEM_DS3505
ZGGG,2006-02-22 11:00,ZGGG 221100Z AUTO 35016KT 5SM 19/10 A3006 RMK SLP190 T01900100 IEM_DS3505
ZGGG,2006-02-22 12:00,ZGGG 221200Z AUTO 36006KT 7SM 18/12 A3009 RMK SLP190 T01850118 52028 IEM_DS3505
ZGGG,2006-02-22 13:00,ZGGG 221300Z AUTO 01012KT 6SM 17/10 A3012 RMK SLP210 T01700100 IEM_DS3505
ZGGG,2006-02-22 14:00,ZGGG 221400Z AUTO 02012KT 6SM 16/09 A3012 RMK SLP210 T01600090 IEM_DS3505
ZGGG,2006-02-22 15:00,ZGGG 221500Z AUTO 34002KT 10SM 17/11 A3012 RMK SLP210 T01690107 52021 IEM_DS3505
ZGGG,2006-02-22 16:00,ZGGG 221600Z AUTO 35006KT 6SM 16/09 A3012 RMK SLP210 T01600090 IEM_DS3505
ZGGG,2006-02-22 17:00,ZGGG 221700Z AUTO 35008KT 7SM 15/09 A3012 RMK SLP210 T01500090 IEM_DS3505
ZGGG,2006-02-22 18:00,ZGGG 221800Z AUTO 36006KT 10SM 16/09 A3012 RMK SLP204 T01570094 57006 IEM_DS3505
ZGGG,2006-02-22 19:00,ZGGG 221900Z AUTO 35010KT 6SM 15/08 A3012 RMK SLP210 T01500080 IEM_DS3505
ZGGG,2006-02-22 20:00,ZGGG 222000Z AUTO 02006KT 7SM 15/08 A3009 RMK SLP200 T01500080 IEM_DS3505
ZGGG,2006-02-22 21:00,ZGGG 222100Z AUTO 36004KT 9SM 15/09 A3012 RMK SLP206 T01500087 52001 IEM_DS3505
ZGGG,2006-02-22 22:00,ZGGG 222200Z AUTO 02008KT 7SM 15/07 A3012 RMK SLP210 T01500070 IEM_DS3505
ZGGG,2006-02-22 23:00,ZGGG 222300Z AUTO 02008KT 7SM 15/07 A3015 RMK SLP221 T01500070 IEM_DS3505
ZGGG,2006-02-23 00:00,ZGGG 230000Z AUTO 29002KT 11SM 15/09 A3015 RMK SLP219 T01500087 52013 IEM_DS3505
ZGGG,2006-02-23 01:00,ZGGG 230100Z AUTO 01008KT 5SM 15/07 A3018 RMK SLP231 T01500070 IEM_DS3505
ZGGG,2006-02-23 02:00,ZGGG 230200Z AUTO 02006KT 5SM 16/07 A3018 RMK SLP230 T01600070 IEM_DS3505
ZGGG,2006-02-23 03:00,ZGGG 230300Z AUTO 36004KT 11SM 17/09 A3018 RMK SLP221 T01710088 52002 IEM_DS3505
ZGGG,2006-02-23 04:00,ZGGG 230400Z AUTO 01006KT 5SM 17/08 A3015 RMK SLP220 T01700080 IEM_DS3505
ZGGG,2006-02-23 05:00,ZGGG 230500Z AUTO 07004KT 4SM 17/08 A3009 RMK SLP200 T01700080 IEM_DS3505
ZGGG,2006-02-23 06:00,ZGGG 230600Z AUTO 32004KT 10SM 19/10 A3009 RMK SLP191 T01870098 57030 IEM_DS3505
ZGGG,2006-02-23 07:00,ZGGG 230700Z AUTO 36008KT 4SM 18/08 A3006 RMK SLP190 T01800080 IEM_DS3505
ZGGG,2006-02-23 08:00,ZGGG 230800Z AUTO 33008KT 4SM 18/08 A3006 RMK SLP190 T01800080 IEM_DS3505
ZGGG,2006-02-23 09:00,ZGGG 230900Z AUTO 34002KT 9SM 18/10 A3006 RMK SLP188 T01820101 57003 IEM_DS3505
ZGGG,2006-02-23 10:00,ZGGG 231000Z AUTO 35008KT 4SM 17/09 A3006 RMK SLP190 T01700090 IEM_DS3505
ZGGG,2006-02-23 11:00,ZGGG 231100Z AUTO 33008KT 4SM 17/08 A3009 RMK SLP200 T01700080 IEM_DS3505
ZGGG,2006-02-23 12:00,ZGGG 231200Z AUTO 02004KT 9SM 17/10 A3009 RMK SLP198 T01680097 52010 IEM_DS3505
ZGGG,2006-02-23 13:00,ZGGG 231300Z AUTO 01004KT 4SM 16/09 A3012 RMK SLP210 T01600090 IEM_DS3505
ZGGG,2006-02-23 14:00,ZGGG 231400Z AUTO 36006KT 4SM 16/09 A3012 RMK SLP210 T01600090 IEM_DS3505
ZGGG,2006-02-23 15:00,ZGGG 231500Z AUTO 36004KT 9SM 16/10 A3012 RMK SLP209 T01610095 52011 IEM_DS3505
ZGGG,2006-02-23 16:00,ZGGG 231600Z AUTO 01006KT 4SM 16/09 A3012 RMK SLP210 T01600090 IEM_DS3505
ZGGG,2006-02-23 17:00,ZGGG 231700Z AUTO 02006KT 4SM 16/09 A3012 RMK SLP210 T01600090 IEM_DS3505
ZGGG,2006-02-23 18:00,ZGGG 231800Z AUTO 36004KT 9SM 16/10 A3012 RMK SLP203 T01560095 57006 IEM_DS3505
ZGGG,2006-02-23 19:00,ZGGG 231900Z AUTO 02006KT 4SM 14/10 A3012 RMK SLP211 T01400100 IEM_DS3505
ZGGG,2006-02-23 20:00,ZGGG 232000Z AUTO 03006KT 4SM 14/09 A3009 RMK SLP201 T01400090 IEM_DS3505
ZGGG,2006-02-23 21:00,ZGGG 232100Z AUTO 02002KT 10SM 15/10 A3009 RMK 70000 SLP198 T01480100 57005 IEM_DS3505
ZGGG,2006-02-23 22:00,ZGGG 232200Z AUTO 02004KT 4SM 14/09 A3009 RMK SLP201 T01400090 IEM_DS3505
ZGGG,2006-02-23 23:00,ZGGG 232300Z AUTO 01004KT 4SM 15/09 A3012 RMK SLP210 T01500090 IEM_DS3505
ZGGG,2006-02-24 00:00,ZGGG 240000Z AUTO 02004KT 10SM 15/10 A3012 RMK 60000 70000 SLP213 T01500096 52015 IEM_DS3505
ZGGG,2006-02-24 01:00,ZGGG 240100Z AUTO 04004KT 4SM 15/08 A3015 RMK SLP221 T01500080 IEM_DS3505
ZGGG,2006-02-24 02:00,ZGGG 240200Z AUTO 01004KT 5SM 16/08 A3015 RMK SLP220 T01600080 IEM_DS3505
ZGGG,2006-02-24 03:00,ZGGG 240300Z AUTO 32004KT 10SM 17/10 A3015 RMK SLP217 T01730100 52004 IEM_DS3505
ZGGG,2006-02-24 04:00,ZGGG 240400Z AUTO 36006KT 6SM 18/09 A3012 RMK SLP210 T01800090 IEM_DS3505
ZGGG,2006-02-24 05:00,ZGGG 240500Z AUTO 02006KT 7SM 18/09 A3009 RMK SLP200 T01800090 IEM_DS3505
ZGGG,2006-02-24 06:00,ZGGG 240600Z AUTO 29004KT 11SM 20/10 A3006 RMK SLP183 T01990103 57034 IEM_DS3505
ZGGG,2006-02-24 07:00,ZGGG 240700Z AUTO 34004KT 7SM 19/09 A3003 RMK SLP179 T01900090 IEM_DS3505
ZGGG,2006-02-24 08:00,ZGGG 240800Z AUTO 33008KT 4SM 19/09 A3000 RMK SLP169 T01900090 IEM_DS3505
ZGGG,2006-02-24 09:00,ZGGG 240900Z AUTO 29004KT 10SM 20/11 A3000 RMK SLP170 T01980108 57013 IEM_DS3505
ZGGG,2006-02-24 10:00,ZGGG 241000Z AUTO 33008KT 4SM 18/09 A3000 RMK SLP169 T01800090 IEM_DS3505
ZGGG,2006-02-24 11:00,ZGGG 241100Z AUTO 35006KT 4SM 18/09 A3003 RMK SLP179 T01800090 IEM_DS3505
ZGGG,2006-02-24 12:00,ZGGG 241200Z AUTO 34004KT 10SM 17/10 A3006 RMK SLP185 T01740105 52015 IEM_DS3505
ZGGG,2006-02-24 13:00,ZGGG 241300Z AUTO 35004KT 4SM 17/09 A3006 RMK SLP190 T01700090 IEM_DS3505
ZGGG,2006-02-24 14:00,ZGGG 241400Z AUTO 02002KT 4SM 17/10 A3006 RMK SLP190 T01700100 IEM_DS3505
ZGGG,2006-02-24 15:00,ZGGG 241500Z AUTO 34002KT 9SM 17/11 A3006 RMK SLP190 T01740110 52005 IEM_DS3505
ZGGG,2006-02-24 16:00,ZGGG 241600Z AUTO 5SM 17/10 A3006 RMK SLP190 T01700100 IEM_DS3505
ZGGG,2006-02-24 17:00,ZGGG 241700Z AUTO 34004KT 4SM 17/09 A3006 RMK SLP190 T01700090 IEM_DS3505
ZGGG,2006-02-24 18:00,ZGGG 241800Z AUTO 00000KT 9SM 17/10 A3003 RMK SLP179 T01670105 57011 IEM_DS3505
ZGGG,2006-02-24 19:00,ZGGG 241900Z AUTO 33004KT 4SM 16/10 A3003 RMK SLP179 T01600100 IEM_DS3505
ZGGG,2006-02-24 20:00,ZGGG 242000Z AUTO 34004KT 4SM 16/10 A3000 RMK SLP169 T01600100 IEM_DS3505
ZGGG,2006-02-24 21:00,ZGGG 242100Z AUTO 36002KT 9SM 16/11 A3000 RMK SLP167 T01620109 57012 IEM_DS3505
ZGGG,2006-02-24 22:00,ZGGG 242200Z AUTO 4SM 16/11 A3000 RMK SLP169 T01600110 IEM_DS3505
ZGGG,2006-02-24 23:00,ZGGG 242300Z AUTO 4SM 16/11 A3000 RMK SLP169 T01600110 IEM_DS3505
ZGGG,2006-02-25 00:00,ZGGG 250000Z AUTO 32002KT 6SM 16/12 A3003 RMK SLP176 T01630117 52009 IEM_DS3505
ZGGG,2006-02-25 01:00,ZGGG 250100Z AUTO 32004KT 2 1/2SM 16/11 A3003 RMK SLP179 T01600110 IEM_DS3505
ZGGG,2006-02-25 02:00,ZGGG 250200Z AUTO 10004KT 2 1/2SM 16/11 A3003 RMK SLP179 T01600110 IEM_DS3505
ZGGG,2006-02-25 03:00,ZGGG 250300Z AUTO 32002KT 4SM 18/12 A3003 RMK SLP175 T01760123 57001 IEM_DS3505
ZGGG,2006-02-25 04:00,ZGGG 250400Z AUTO 33004KT 2 1/2SM 16/11 A3000 RMK SLP169 T01600110 IEM_DS3505
ZGGG,2006-02-25 05:00,ZGGG 250500Z AUTO 2SM 17/12 A2997 RMK SLP159 T01700120 IEM_DS3505
ZGGG,2006-02-25 06:00,ZGGG 250600Z AUTO 32006KT 4SM 19/13 A2994 RMK SLP146 T01860126 57029 IEM_DS3505
ZGGG,2006-02-25 07:00,ZGGG 250700Z AUTO 34012KT 1 1/2SM 15/12 A2994 RMK SLP149 T01500120 IEM_DS3505
ZGGG,2006-02-25 08:00,ZGGG 250800Z AUTO 34008KT 7SM 14/12 A2994 RMK SLP149 T01400120 IEM_DS3505
ZGGG,2006-02-25 09:00,ZGGG 250900Z AUTO 34004KT 3SM 14/12 A2994 RMK SLP148 T01430125 52002 IEM_DS3505
ZGGG,2006-02-25 10:00,ZGGG 251000Z AUTO 08004KT 3SM 14/12 A2994 RMK SLP149 T01400120 IEM_DS3505
ZGGG,2006-02-25 11:00,ZGGG 251100Z AUTO 32004KT 3SM 14/12 A2994 RMK SLP149 T01400120 IEM_DS3505
ZGGG,2006-02-25 12:00,ZGGG 251200Z AUTO 36002KT 4SM 14/13 A2997 RMK 60004 SLP156 T01450129 52008 IEM_DS3505
ZGGG,2006-02-25 13:00,ZGGG 251300Z AUTO 7SM 14/12 A2997 RMK SLP159 T01400120 IEM_DS3505
ZGGG,2006-02-25 14:00,ZGGG 251400Z AUTO 32008KT 7SM 14/12 A3000 RMK SLP169 T01400120 IEM_DS3505
ZGGG,2006-02-25 15:00,ZGGG 251500Z AUTO 32004KT 2SM 14/13 A3000 RMK SLP174 T01430127 52018 IEM_DS3505
ZGGG,2006-02-25 16:00,ZGGG 251600Z AUTO 34004KT 6SM 14/11 A3000 RMK SLP169 T01400110 IEM_DS3505
ZGGG,2006-02-25 17:00,ZGGG 251700Z AUTO 34004KT 7SM 14/11 A3000 RMK SLP169 T01400110 IEM_DS3505
ZGGG,2006-02-25 18:00,ZGGG 251800Z AUTO 32002KT 2 1/2SM 14/12 A3000 RMK 60003 SLP165 T01390125 57009 IEM_DS3505
ZGGG,2006-02-25 19:00,ZGGG 251900Z AUTO 34006KT 7SM 14/11 A2997 RMK SLP159 T01400110 IEM_DS3505
ZGGG,2006-02-25 20:00,ZGGG 252000Z AUTO 34006KT 7SM 14/11 A2997 RMK SLP159 T01400110 IEM_DS3505
ZGGG,2006-02-25 21:00,ZGGG 252100Z AUTO 34004KT 4SM 14/12 A2997 RMK 70008 SLP159 T01400115 57006 IEM_DS3505
ZGGG,2006-02-25 22:00,ZGGG 252200Z AUTO 01004KT 7SM 13/10 A2997 RMK SLP160 T01300100 IEM_DS3505
ZGGG,2006-02-25 23:00,ZGGG 252300Z AUTO 00000KT 7SM 14/10 A3000 RMK SLP169 T01400100 IEM_DS3505
ZGGG,2006-02-26 00:00,ZGGG 260000Z AUTO 36004KT 12SM 14/11 A3003 RMK 70008 SLP178 T01440108 52019 IEM_DS3505
ZGGG,2006-02-26 01:00,ZGGG 260100Z AUTO 02006KT 7SM 16/10 A3006 RMK SLP190 T01600100 IEM_DS3505
ZGGG,2006-02-26 02:00,ZGGG 260200Z AUTO 36006KT 7SM 17/09 A3006 RMK SLP190 T01700090 IEM_DS3505
ZGGG,2006-02-26 03:00,ZGGG 260300Z AUTO 34004KT 12SM 18/11 A3006 RMK SLP190 T01800113 52012 IEM_DS3505
ZGGG,2006-02-26 04:00,ZGGG 260400Z AUTO 04004KT 6SM 19/10 A3003 RMK SLP179 T01900100 IEM_DS3505
ZGGG,2006-02-26 05:00,ZGGG 260500Z AUTO 02006KT 6SM 20/10 A3000 RMK SLP168 T02000100 IEM_DS3505
ZGGG,2006-02-26 06:00,ZGGG 260600Z AUTO 04004KT 11SM 24/14 A2994 RMK SLP144 T02390140 57045 IEM_DS3505
ZGGG,2006-02-26 07:00,ZGGG 260700Z AUTO 7SM 23/11 A2991 RMK SLP138 T02300110 IEM_DS3505
ZGGG,2006-02-26 08:00,ZGGG 260800Z AUTO 36004KT 7SM 23/12 A2991 RMK SLP138 T02300120 IEM_DS3505
ZGGG,2006-02-26 09:00,ZGGG 260900Z AUTO 32002KT 11SM 22/14 A2991 RMK SLP142 T02240135 57002 IEM_DS3505
ZGGG,2006-02-26 10:00,ZGGG 261000Z AUTO 05004KT 7SM 22/12 A2994 RMK SLP148 T02200120 IEM_DS3505
ZGGG,2006-02-26 11:00,ZGGG 261100Z AUTO 35008KT 7SM 21/12 A2994 RMK SLP148 T02100120 IEM_DS3505
ZGGG,2006-02-26 12:00,ZGGG 261200Z AUTO 04004KT 10SM 21/13 A2997 RMK SLP156 T02100129 52013 IEM_DS3505
ZGGG,2006-02-26 13:00,ZGGG 261300Z AUTO 01006KT 7SM 19/11 A3000 RMK SLP169 T01900110 IEM_DS3505
ZGGG,2006-02-26 14:00,ZGGG 261400Z AUTO 02004KT 7SM 19/11 A3003 RMK SLP179 T01900110 IEM_DS3505
ZGGG,2006-02-26 15:00,ZGGG 261500Z AUTO 14002KT 5SM 18/17 A3003 RMK SLP179 T01840167 52023 IEM_DS3505
ZGGG,2006-02-26 16:00,ZGGG 261600Z AUTO 08004KT 4SM 17/12 A3003 RMK SLP179 T01700120 IEM_DS3505
ZGGG,2006-02-26 17:00,ZGGG 261700Z AUTO 05004KT 3SM 16/12 A3003 RMK SLP179 T01600120 IEM_DS3505
ZGGG,2006-02-26 18:00,ZGGG 261800Z AUTO 04002KT 6SM 16/15 A3003 RMK 60035 SLP177 T01620149 57001 IEM_DS3505
ZGGG,2006-02-26 19:00,ZGGG 261900Z AUTO 02002KT 3SM 15/12 A3003 RMK SLP179 T01500120 IEM_DS3505
ZGGG,2006-02-26 20:00,ZGGG 262000Z AUTO 06004KT 3SM 15/12 A3000 RMK SLP169 T01500120 IEM_DS3505
ZGGG,2006-02-26 21:00,ZGGG 262100Z AUTO 07004KT 4SM 15/14 A3000 RMK 70042 SLP173 T01540143 57005 IEM_DS3505
ZGGG,2006-02-26 22:00,ZGGG 262200Z AUTO 04004KT 2 1/2SM 14/12 A3003 RMK SLP180 T01400120 IEM_DS3505
ZGGG,2006-02-26 23:00,ZGGG 262300Z AUTO 07004KT 2 1/2SM 14/12 A3003 RMK SLP180 T01400120 IEM_DS3505
ZGGG,2006-02-27 00:00,ZGGG 270000Z AUTO 02002KT 4SM 15/14 A3006 RMK 60012 70046 SLP190 T01520137 52017 IEM_DS3505
ZGGG,2006-02-27 01:00,ZGGG 270100Z AUTO 04004KT 2SM 14/12 A3006 RMK SLP191 T01400120 IEM_DS3505
ZGGG,2006-02-27 02:00,ZGGG 270200Z AUTO 02004KT 2 1/2SM 15/12 A3009 RMK SLP200 T01500120 IEM_DS3505
ZGGG,2006-02-27 03:00,ZGGG 270300Z AUTO 07004KT 11SM 16/14 A3009 RMK SLP195 T01580135 52005 IEM_DS3505
ZGGG,2006-02-27 04:00,ZGGG 270400Z AUTO 3SM 15/13 A3006 RMK SLP190 T01500130 IEM_DS3505
ZGGG,2006-02-27 05:00,ZGGG 270500Z AUTO 06004KT 3SM 15/13 A3003 RMK SLP179 T01500130 IEM_DS3505
ZGGG,2006-02-27 06:00,ZGGG 270600Z AUTO 04002KT 7SM 16/14 A3000 RMK 60004 SLP173 T01570137 57022 IEM_DS3505
ZGGG,2006-02-27 07:00,ZGGG 270700Z AUTO 04004KT 3SM 15/13 A2997 RMK SLP159 T01500130 IEM_DS3505
ZGGG,2006-02-27 08:00,ZGGG 270800Z AUTO 03002KT 3SM 15/13 A2997 RMK SLP159 T01500130 IEM_DS3505
ZGGG,2006-02-27 09:00,ZGGG 270900Z AUTO 04002KT 2SM 15/14 A2994 RMK SLP146 T01540139 57027 IEM_DS3505
ZGGG,2006-02-27 10:00,ZGGG 271000Z AUTO 04004KT 3SM 15/13 A2997 RMK SLP159 T01500130 IEM_DS3505
ZGGG,2006-02-27 11:00,ZGGG 271100Z AUTO 32006KT 2SM 15/13 A2997 RMK SLP159 T01500130 IEM_DS3505
ZGGG,2006-02-27 12:00,ZGGG 271200Z AUTO 36002KT 1 1/4SM 15/14 A3000 RMK 60075 SLP171 T01480137 52025 IEM_DS3505
ZGGG,2006-02-27 13:00,ZGGG 271300Z AUTO 36008KT 7SM 14/12 A3003 RMK SLP180 T01400120 IEM_DS3505
ZGGG,2006-02-27 14:00,ZGGG 271400Z AUTO 34008KT 3SM 14/11 A3006 RMK SLP191 T01400110 IEM_DS3505
ZGGG,2006-02-27 15:00,ZGGG 271500Z AUTO 34002KT 7SM 14/13 A3006 RMK SLP188 T01410131 52017 IEM_DS3505
ZGGG,2006-02-27 16:00,ZGGG 271600Z AUTO 36006KT 7SM 14/11 A3006 RMK SLP191 T01400110 IEM_DS3505
ZGGG,2006-02-27 17:00,ZGGG 271700Z AUTO 4SM 14/12 A3003 RMK SLP180 T01400120 IEM_DS3505
ZGGG,2006-02-27 18:00,ZGGG 271800Z AUTO 00000KT 9SM 14/13 A3003 RMK 60035 SLP179 T01410130 57009 IEM_DS3505
ZGGG,2006-02-27 19:00,ZGGG 271900Z AUTO 7SM 14/12 A3003 RMK SLP180 T01400120 IEM_DS3505
ZGGG,2006-02-27 20:00,ZGGG 272000Z AUTO 33006KT 4SM 14/11 A3003 RMK SLP180 T01400110 IEM_DS3505
ZGGG,2006-02-27 21:00,ZGGG 272100Z AUTO 36002KT 7SM 13/12 A3003 RMK 70128 SLP174 T01340121 57005 IEM_DS3505
ZGGG,2006-02-27 22:00,ZGGG 272200Z AUTO 35008KT 7SM 12/10 A3003 RMK SLP180 T01200100 IEM_DS3505
ZGGG,2006-02-27 23:00,ZGGG 272300Z AUTO 35010KT 3SM 12/09 A3006 RMK SLP191 T01200090 IEM_DS3505
ZGGG,2006-02-28 00:00,ZGGG 280000Z AUTO 34006KT 12SM 12/10 A3009 RMK 60020 70136 SLP198 T01210105 52023 IEM_DS3505
ZGGG,2006-02-28 01:00,ZGGG 280100Z AUTO 35010KT 7SM 11/08 A3012 RMK SLP211 T01100080 IEM_DS3505
ZGGG,2006-02-28 02:00,ZGGG 280200Z AUTO 33012KT 7SM 10/07 A3015 RMK SLP221 T01000070 IEM_DS3505
ZGGG,2006-02-28 03:00,ZGGG 280300Z AUTO 34004KT 11SM 10/09 A3015 RMK SLP219 T01020086 52021 IEM_DS3505
ZGGG,2006-02-28 04:00,ZGGG 280400Z AUTO 35014G23KT 7SM 10/07 A3015 RMK SLP221 T01000070 IEM_DS3505
ZGGG,2006-02-28 05:00,ZGGG 280500Z AUTO 34012KT 7SM 10/06 A3012 RMK SLP211 T01000060 IEM_DS3505
ZGGG,2006-02-28 06:00,ZGGG 280600Z AUTO 34006KT 11SM 10/08 A3009 RMK 60016 SLP196 T01000083 57023 IEM_DS3505
ZGGG,2006-02-28 07:00,ZGGG 280700Z AUTO 34010G19KT 7SM 10/06 A3009 RMK SLP201 T01000060 IEM_DS3505
ZGGG,2006-02-28 08:00,ZGGG 280800Z AUTO 35012KT 7SM 09/05 A3009 RMK SLP202 T00900050 IEM_DS3505
ZGGG,2006-02-28 09:00,ZGGG 280900Z AUTO 36008KT 11SM 09/07 A3009 RMK SLP195 T00880066 57001 IEM_DS3505
ZGGG,2006-02-28 10:00,ZGGG 281000Z AUTO 34012KT 5SM 08/05 A3012 RMK SLP212 T00800050 IEM_DS3505
ZGGG,2006-02-28 11:00,ZGGG 281100Z AUTO 34010KT 4SM 08/04 A3015 RMK SLP222 T00800040 IEM_DS3505
ZGGG,2006-02-28 12:00,ZGGG 281200Z AUTO 34004KT 10SM 08/06 A3018 RMK 60028 SLP228 T00750060 52033 IEM_DS3505
ZGGG,2006-02-28 13:00,ZGGG 281300Z AUTO 34010KT 7SM 08/04 A3021 RMK SLP242 T00800040 IEM_DS3505
ZGGG,2006-02-28 14:00,ZGGG 281400Z AUTO 35010G19KT 7SM 08/03 A3024 RMK SLP252 T00800030 IEM_DS3505
ZGGG,2006-02-28 15:00,ZGGG 281500Z AUTO 36006G19KT 12SM 08/05 A3024 RMK SLP249 T00760046 52020 IEM_DS3505
ZGGG,2006-02-28 16:00,ZGGG 281600Z AUTO 34010KT 7SM 07/03 A3024 RMK SLP252 T00700030 IEM_DS3505
ZGGG,2006-02-28 17:00,ZGGG 281700Z AUTO 34010KT 7SM 07/03 A3024 RMK SLP252 T00700030 IEM_DS3505
ZGGG,2006-02-28 18:00,ZGGG 281800Z AUTO 34006KT 11SM 07/03 A3024 RMK 60003 SLP243 T00730034 57006 IEM_DS3505
ZGGG,2006-02-28 19:00,ZGGG 281900Z AUTO 36010KT 7SM 07/02 A3021 RMK SLP242 T00700020 IEM_DS3505
ZGGG,2006-02-28 20:00,ZGGG 282000Z AUTO 34008KT 7SM 06/02 A3021 RMK SLP242 T00600020 IEM_DS3505
ZGGG,2006-02-28 21:00,ZGGG 282100Z AUTO 34006KT 11SM 07/02 A3018 RMK 70056 SLP232 T00670022 57011 IEM_DS3505
ZGGG,2006-02-28 22:00,ZGGG 282200Z AUTO 34008KT 7SM 06/01 A3021 RMK SLP242 T00600010 IEM_DS3505
ZGGG,2006-02-28 23:00,ZGGG 282300Z AUTO 34008KT 7SM 06/01 A3024 RMK SLP252 T00600010 IEM_DS3505
ZGGG,2006-03-01 00:00,ZGGG 010000Z AUTO 36006KT 12SM 07/01 A3024 RMK 70045 SLP251 T00680013 52019 IEM_DS3505
ZGGG,2006-03-01 01:00,ZGGG 010100Z AUTO 35010KT 7SM 07/01 A3027 RMK SLP263 T00700010 IEM_DS3505
ZGGG,2006-03-01 02:00,ZGGG 010200Z AUTO 01014KT 7SM 08/01 A3027 RMK SLP263 T00800010 IEM_DS3505
ZGGG,2006-03-01 03:00,ZGGG 010300Z AUTO 36004KT 14SM 09/02 A3027 RMK SLP260 T00870016 52009 IEM_DS3505
ZGGG,2006-03-01 04:00,ZGGG 010400Z AUTO 36016KT 7SM 08/01 A3027 RMK SLP263 T00800010 IEM_DS3505
ZGGG,2006-03-01 05:00,ZGGG 010500Z AUTO 01016KT 7SM 09/00 A3024 RMK SLP252 T00900000 IEM_DS3505
ZGGG,2006-03-01 06:00,ZGGG 010600Z AUTO 36008KT 15SM 11/02 A3021 RMK SLP233 T01130015 57026 IEM_DS3505
ZGGG,2006-03-01 07:00,ZGGG 010700Z AUTO 01014G23KT 6SM 12/02 A3018 RMK SLP231 T01200020 IEM_DS3505
ZGGG,2006-03-01 08:00,ZGGG 010800Z AUTO 02014KT 6SM 12/02 A3015 RMK SLP221 T01200020 IEM_DS3505
ZGGG,2006-03-01 09:00,ZGGG 010900Z AUTO 02006KT 13SM 12/02 A3015 RMK SLP217 T01250024 57016 IEM_DS3505
ZGGG,2006-03-01 10:00,ZGGG 011000Z AUTO 01012KT 6SM 11/01 A3015 RMK SLP221 T01100010 IEM_DS3505
ZGGG,2006-03-01 11:00,ZGGG 011100Z AUTO 01010KT 6SM 10/01 A3018 RMK SLP231 T01000010 IEM_DS3505
ZGGG,2006-03-01 12:00,ZGGG 011200Z AUTO 02002KT 11SM 10/02 A3021 RMK SLP236 T00980019 52018 IEM_DS3505
ZGGG,2006-03-01 13:00,ZGGG 011300Z AUTO 34006KT 6SM 09/01 A3021 RMK SLP242 T00900010 IEM_DS3505
ZGGG,2006-03-01 14:00,ZGGG 011400Z AUTO 35008KT 6SM 09/01 A3024 RMK SLP252 T00900010 IEM_DS3505
ZGGG,2006-03-01 15:00,ZGGG 011500Z AUTO 36004KT 11SM 08/02 A3024 RMK SLP255 T00840022 52019 IEM_DS3505
ZGGG,2006-03-01 16:00,ZGGG 011600Z AUTO 01010KT 6SM 09/01 A3024 RMK SLP252 T00900010 IEM_DS3505
ZGGG,2006-03-01 17:00,ZGGG 011700Z AUTO 36010KT 6SM 09/00 A3024 RMK SLP252 T00900000 IEM_DS3505
ZGGG,2006-03-01 18:00,ZGGG 011800Z AUTO 36004KT 10SM 09/M01 A3021 RMK SLP245 T00891012 57009 IEM_DS3505
ZGGG,2006-03-01 19:00,ZGGG 011900Z AUTO 36010KT 6SM 09/M01 A3021 RMK SLP242 T00901010 IEM_DS3505
ZGGG,2006-03-01 20:00,ZGGG 012000Z AUTO 36008KT 6SM 09/M01 A3021 RMK SLP242 T00901010 IEM_DS3505
ZGGG,2006-03-01 21:00,ZGGG 012100Z AUTO 36004KT 12SM 09/M02 A3021 RMK SLP242 T00861015 57003 IEM_DS3505
ZGGG,2006-03-01 22:00,ZGGG 012200Z AUTO 01008KT 6SM 08/M02 A3021 RMK SLP242 T00801020 IEM_DS3505
ZGGG,2006-03-01 23:00,ZGGG 012300Z AUTO 01006KT 6SM 09/M02 A3024 RMK SLP252 T00901020 IEM_DS3505
ZGGG,2006-03-02 00:00,ZGGG 020000Z AUTO 02002KT 12SM 09/M01 A3027 RMK SLP256 T00871011 52013 IEM_DS3505
ZGGG,2006-03-02 01:00,ZGGG 020100Z AUTO 02008KT 6SM 10/M02 A3027 RMK SLP263 T01001020 IEM_DS3505
ZGGG,2006-03-02 02:00,ZGGG 020200Z AUTO 01008KT 6SM 11/M02 A3027 RMK SLP262 T01101020 IEM_DS3505
ZGGG,2006-03-02 03:00,ZGGG 020300Z AUTO 02002KT 13SM 13/M02 A3027 RMK SLP258 T01281019 52003 IEM_DS3505
ZGGG,2006-03-02 04:00,ZGGG 020400Z AUTO 05006KT 6SM 13/M03 A3024 RMK SLP251 T01301030 IEM_DS3505
ZGGG,2006-03-02 05:00,ZGGG 020500Z AUTO 6SM 15/M02 A3018 RMK SLP231 T01501020 IEM_DS3505
ZGGG,2006-03-02 06:00,ZGGG 020600Z AUTO 32004KT 14SM 17/00 A3015 RMK SLP220 T01680000 57038 IEM_DS3505
ZGGG,2006-03-02 07:00,ZGGG 020700Z AUTO 6SM 16/M01 A3012 RMK SLP210 T01601010 IEM_DS3505
ZGGG,2006-03-02 08:00,ZGGG 020800Z AUTO 13004KT 6SM 17/M01 A3009 RMK SLP200 T01701010 IEM_DS3505
ZGGG,2006-03-02 09:00,ZGGG 020900Z AUTO 32002KT 12SM 17/01 A3009 RMK SLP198 T01730009 57022 IEM_DS3505
ZGGG,2006-03-02 10:00,ZGGG 021000Z AUTO 6SM 16/M01 A3009 RMK SLP200 T01601010 IEM_DS3505
ZGGG,2006-03-02 11:00,ZGGG 021100Z AUTO 22004KT 5SM 15/00 A3009 RMK SLP200 T01500000 IEM_DS3505
ZGGG,2006-03-02 12:00,ZGGG 021200Z AUTO 07002KT 11SM 11/04 A3009 RMK SLP205 T01130045 52007 IEM_DS3505
ZGGG,2006-03-02 13:00,ZGGG 021300Z AUTO 00000KT 4SM 12/04 A3012 RMK SLP211 T01200040 IEM_DS3505
ZGGG,2006-03-02 14:00,ZGGG 021400Z AUTO 00000KT 3SM 11/06 A3012 RMK SLP211 T01100060 IEM_DS3505
ZGGG,2006-03-02 15:00,ZGGG 021500Z AUTO 07002KT 10SM 10/06 A3012 RMK SLP215 T00960060 52010 IEM_DS3505
ZGGG,2006-03-02 16:00,ZGGG 021600Z AUTO 2SM 09/06 A3012 RMK SLP212 T00900060 IEM_DS3505
ZGGG,2006-03-02 17:00,ZGGG 021700Z AUTO 2 1/2SM 09/05 A3012 RMK SLP212 T00900050 IEM_DS3505
ZGGG,2006-03-02 18:00,ZGGG 021800Z AUTO 07002KT 9SM 08/06 A3012 RMK SLP214 T00800056 57001 IEM_DS3505
ZGGG,2006-03-02 19:00,ZGGG 021900Z AUTO 00000KT 2 1/2SM 08/05 A3012 RMK SLP212 T00800050 IEM_DS3505
ZGGG,2006-03-02 20:00,ZGGG 022000Z AUTO 08002KT 2 1/2SM 07/04 A3012 RMK SLP212 T00700040 IEM_DS3505
ZGGG,2006-03-02 21:00,ZGGG 022100Z AUTO 09002KT 8SM 07/05 A3012 RMK SLP216 T00700050 52002 IEM_DS3505
ZGGG,2006-03-02 22:00,ZGGG 022200Z AUTO 09004KT 2SM 07/04 A3015 RMK SLP222 T00700040 IEM_DS3505
ZGGG,2006-03-02 23:00,ZGGG 022300Z AUTO 06004KT 1 1/2SM 07/03 A3015 RMK SLP222 T00700030 IEM_DS3505
ZGGG,2006-03-03 00:00,ZGGG 030000Z AUTO 07002KT 9SM 10/06 A3018 RMK SLP231 T00950064 52015 IEM_DS3505
ZGGG,2006-03-03 01:00,ZGGG 030100Z AUTO 07004KT 2 1/2SM 11/04 A3021 RMK SLP241 T01100040 IEM_DS3505
ZGGG,2006-03-03 02:00,ZGGG 030200Z AUTO 06004KT 3SM 14/03 A3021 RMK SLP241 T01400030 IEM_DS3505
ZGGG,2006-03-03 03:00,ZGGG 030300Z AUTO 16002KT 10SM 18/02 A3018 RMK SLP231 T01840023 54000 IEM_DS3505
ZGGG,2006-03-03 04:00,ZGGG 030400Z AUTO 6SM 19/M01 A3015 RMK SLP220 T01901010 IEM_DS3505
ZGGG,2006-03-03 05:00,ZGGG 030500Z AUTO 28004KT 6SM 20/M01 A3012 RMK SLP210 T02001010 IEM_DS3505
ZGGG,2006-03-03 06:00,ZGGG 030600Z AUTO 07004KT 10SM 21/M01 A3009 RMK SLP198 T02121007 57032 IEM_DS3505
ZGGG,2006-03-03 07:00,ZGGG 030700Z AUTO 6SM 22/00 A3006 RMK SLP189 T02200000 IEM_DS3505
ZGGG,2006-03-03 08:00,ZGGG 030800Z AUTO 6SM 22/00 A3006 RMK SLP189 T02200000 IEM_DS3505
ZGGG,2006-03-03 09:00,ZGGG 030900Z AUTO 36004KT 7SM 22/02 A3003 RMK SLP178 T02210017 57020 IEM_DS3505
ZGGG,2006-03-03 10:00,ZGGG 031000Z AUTO 6SM 21/01 A3003 RMK SLP178 T02100010 IEM_DS3505
ZGGG,2006-03-03 11:00,ZGGG 031100Z AUTO 4SM 17/03 A3003 RMK SLP179 T01700030 IEM_DS3505
ZGGG,2006-03-03 12:00,ZGGG 031200Z AUTO 07002KT 7SM 14/06 A3006 RMK SLP191 T01450061 52012 IEM_DS3505
ZGGG,2006-03-03 13:00,ZGGG 031300Z AUTO 12002KT 4SM 14/06 A3006 RMK SLP191 T01400060 IEM_DS3505
ZGGG,2006-03-03 14:00,ZGGG 031400Z AUTO 3SM 12/07 A3009 RMK SLP201 T01200070 IEM_DS3505
ZGGG,2006-03-03 15:00,ZGGG 031500Z AUTO 14002KT 9SM 14/08 A3009 RMK SLP207 T01380084 52017 IEM_DS3505
ZGGG,2006-03-03 16:00,ZGGG 031600Z AUTO 3SM 12/07 A3012 RMK SLP211 T01200070 IEM_DS3505
ZGGG,2006-03-03 17:00,ZGGG 031700Z AUTO 3SM 11/07 A3012 RMK SLP211 T01100070 IEM_DS3505
ZGGG,2006-03-03 18:00,ZGGG 031800Z AUTO 07002KT 9SM 12/09 A3012 RMK SLP204 T01190089 57003 IEM_DS3505
ZGGG,2006-03-03 19:00,ZGGG 031900Z AUTO 00000KT 3SM 11/07 A3012 RMK SLP211 T01100070 IEM_DS3505
ZGGG,2006-03-03 20:00,ZGGG 032000Z AUTO 10004KT 2 1/2SM 10/08 A3009 RMK SLP201 T01000080 IEM_DS3505
ZGGG,2006-03-03 21:00,ZGGG 032100Z AUTO 34002KT 9SM 10/06 A3009 RMK SLP201 T01050065 57003 IEM_DS3505
ZGGG,2006-03-03 22:00,ZGGG 032200Z AUTO 35004KT 2 1/2SM 11/07 A3009 RMK SLP201 T01100070 IEM_DS3505
ZGGG,2006-03-03 23:00,ZGGG 032300Z AUTO 2 1/2SM 11/07 A3009 RMK SLP201 T01100070 IEM_DS3505
ZGGG,2006-03-04 00:00,ZGGG 040000Z AUTO 07002KT 10SM 12/08 A3012 RMK 60000 70000 SLP211 T01250078 52009 IEM_DS3505
ZGGG,2006-03-04 01:00,ZGGG 040100Z AUTO 2SM 13/07 A3015 RMK SLP221 T01300070 IEM_DS3505
ZGGG,2006-03-04 02:00,ZGGG 040200Z AUTO 2SM 13/07 A3018 RMK SLP231 T01300070 IEM_DS3505
ZGGG,2006-03-04 03:00,ZGGG 040300Z AUTO 36002KT 9SM 16/07 A3015 RMK SLP220 T01610068 52010 IEM_DS3505
ZGGG,2006-03-04 04:00,ZGGG 040400Z AUTO 2SM 15/07 A3012 RMK SLP210 T01500070 IEM_DS3505
ZGGG,2006-03-04 05:00,ZGGG 040500Z AUTO 2 1/2SM 16/07 A3009 RMK SLP200 T01600070 IEM_DS3505
ZGGG,2006-03-04 06:00,ZGGG 040600Z AUTO 02002KT 9SM 16/07 A3009 RMK 60000 SLP196 T01640068 57024 IEM_DS3505
ZGGG,2006-03-04 07:00,ZGGG 040700Z AUTO 2SM 16/07 A3006 RMK SLP190 T01600070 IEM_DS3505
ZGGG,2006-03-04 08:00,ZGGG 040800Z AUTO 1 1/2SM 16/08 A3006 RMK SLP190 T01600080 IEM_DS3505
ZGGG,2006-03-04 09:00,ZGGG 040900Z AUTO 02002KT 8SM 16/08 A3007 RMK SLP192 T01570075 57005 IEM_DS3505
ZGGG,2006-03-04 10:00,ZGGG 041000Z AUTO 09004KT 1 1/2SM 16/08 A3006 RMK SLP190 T01600080 IEM_DS3505
ZGGG,2006-03-04 11:00,ZGGG 041100Z AUTO 09004KT 1 1/2SM 15/09 A3006 RMK SLP190 T01500090 IEM_DS3505
ZGGG,2006-03-04 12:00,ZGGG 041200Z AUTO 00000KT 8SM 15/09 A3009 RMK SLP199 T01500089 52007 IEM_DS3505
ZGGG,2006-03-04 13:00,ZGGG 041300Z AUTO 08004KT 1 1/2SM 15/08 A3009 RMK SLP200 T01500080 IEM_DS3505
ZGGG,2006-03-04 14:00,ZGGG 041400Z AUTO 09004KT 1 1/2SM 15/09 A3009 RMK SLP200 T01500090 IEM_DS3505
ZGGG,2006-03-04 15:00,ZGGG 041500Z AUTO 07002KT 9SM 15/09 A3012 RMK SLP206 T01480087 52008 IEM_DS3505
ZGGG,2006-03-04 16:00,ZGGG 041600Z AUTO 2SM 15/09 A3009 RMK SLP200 T01500090 IEM_DS3505
ZGGG,2006-03-04 17:00,ZGGG 041700Z AUTO 2 1/2SM 14/10 A3009 RMK SLP201 T01400100 IEM_DS3505
ZGGG,2006-03-04 18:00,ZGGG 041800Z AUTO 09002KT 7SM 15/09 A3009 RMK SLP196 T01470093 57010 IEM_DS3505
ZGGG,2006-03-04 19:00,ZGGG 041900Z AUTO 2 1/2SM 15/09 A3006 RMK SLP190 T01500090 IEM_DS3505
ZGGG,2006-03-04 20:00,ZGGG 042000Z AUTO 02002KT 2SM 14/10 A3006 RMK SLP191 T01400100 IEM_DS3505
ZGGG,2006-03-04 21:00,ZGGG 042100Z AUTO 27002KT 7SM 15/10 A3006 RMK 70000 SLP191 T01470095 57005 IEM_DS3505
ZGGG,2006-03-04 22:00,ZGGG 042200Z AUTO 07004KT 2SM 14/09 A3006 RMK SLP191 T01400090 IEM_DS3505
ZGGG,2006-03-04 23:00,ZGGG 042300Z AUTO 1 1/2SM 15/09 A3006 RMK SLP190 T01500090 IEM_DS3505
ZGGG,2006-03-05 00:00,ZGGG 050000Z AUTO 09002KT 5SM 15/10 A3009 RMK 70000 SLP201 T01500100 52010 IEM_DS3505
ZGGG,2006-03-05 01:00,ZGGG 050100Z AUTO 1 1/2SM 15/09 A3012 RMK SLP210 T01500090 IEM_DS3505
ZGGG,2006-03-05 02:00,ZGGG 050200Z AUTO 09004KT 2SM 16/09 A3012 RMK SLP210 T01600090 IEM_DS3505
ZGGG,2006-03-05 03:00,ZGGG 050300Z AUTO 16002KT 4SM 17/11 A3012 RMK SLP203 T01730113 52002 IEM_DS3505
ZGGG,2006-03-05 04:00,ZGGG 050400Z AUTO 1 1/2SM 17/11 A3009 RMK SLP200 T01700110 IEM_DS3505
ZGGG,2006-03-05 05:00,ZGGG 050500Z AUTO 00000KT 1 1/4SM 15/12 A3006 RMK SLP190 T01500120 IEM_DS3505
ZGGG,2006-03-05 06:00,ZGGG 050600Z AUTO 32002KT 1 1/4SM 17/14 A3003 RMK 60004 SLP178 T01730136 57025 IEM_DS3505
ZGGG,2006-03-05 07:00,ZGGG 050700Z AUTO 00000KT 1 1/4SM 17/12 A3000 RMK SLP169 T01700120 IEM_DS3505
ZGGG,2006-03-05 08:00,ZGGG 050800Z AUTO 11002KT 1SM 16/13 A3000 RMK T01600130 IEM_DS3505
ZGGG,2006-03-05 09:00,ZGGG 050900Z AUTO 34002KT 1 1/4SM 17/14 A3000 RMK SLP173 T01670143 57005 IEM_DS3505
ZGGG,2006-03-05 10:00,ZGGG 051000Z AUTO 08004KT 1SM 16/14 A3000 RMK T01600140 IEM_DS3505
ZGGG,2006-03-05 11:00,ZGGG 051100Z AUTO 10004KT 1SM 16/13 A3000 RMK SLP169 T01600130 IEM_DS3505
ZGGG,2006-03-05 12:00,ZGGG 051200Z AUTO 29002KT 1 1/4SM 16/14 A3003 RMK 60000 SLP177 T01650145 52004 IEM_DS3505
ZGGG,2006-03-05 13:00,ZGGG 051300Z AUTO 00000KT 1SM 16/13 A3003 RMK SLP179 T01600130 IEM_DS3505
ZGGG,2006-03-05 14:00,ZGGG 051400Z AUTO 1SM 16/13 A3006 RMK SLP190 T01600130 IEM_DS3505
ZGGG,2006-03-05 15:00,ZGGG 051500Z AUTO 29002KT 1 1/2SM 16/14 A3006 RMK SLP186 T01640142 52009 IEM_DS3505
ZGGG,2006-03-05 16:00,ZGGG 051600Z AUTO 1SM 16/13 A3006 RMK SLP190 T01600130 IEM_DS3505
ZGGG,2006-03-05 17:00,ZGGG 051700Z AUTO 09004KT 1/2SM 15/13 A3003 RMK T01500130 IEM_DS3505
ZGGG,2006-03-05 18:00,ZGGG 051800Z AUTO 34002KT 1SM 16/15 A3003 RMK 60002 SLP173 T01590146 57013 IEM_DS3505
ZGGG,2006-03-05 19:00,ZGGG 051900Z AUTO 1/4SM 16/14 A3000 RMK T01600140 IEM_DS3505
ZGGG,2006-03-05 20:00,ZGGG 052000Z AUTO 00000KT 1/4SM 16/14 A3000 RMK T01600140 IEM_DS3505
ZGGG,2006-03-05 21:00,ZGGG 052100Z AUTO 36002KT 1SM 16/15 A2997 RMK 70040 SLP163 T01600150 57010 IEM_DS3505
ZGGG,2006-03-05 22:00,ZGGG 052200Z AUTO 00000KT 3/8SM 16/14 A3000 RMK T01600140 IEM_DS3505
ZGGG,2006-03-05 23:00,ZGGG 052300Z AUTO 00000KT 1/4SM 16/14 A3003 RMK SLP179 T01600140 IEM_DS3505
ZGGG,2006-03-06 00:00,ZGGG 060000Z AUTO 32002KT 1SM 16/15 A3003 RMK 60035 70041 SLP182 T01620152 52019 IEM_DS3505
ZGGG,2006-03-06 01:00,ZGGG 060100Z AUTO 3/8SM 16/15 A3006 RMK SLP190 T01600150 IEM_DS3505
ZGGG,2006-03-06 02:00,ZGGG 060200Z AUTO 00000KT 1/2SM 17/15 A3006 RMK T01700150 IEM_DS3505
ZGGG,2006-03-06 02:30,ZGGG 060230Z AUTO 1SM 17/15 A3006 RMK T01700150 IEM_DS3505
ZGGG,2006-03-06 03:00,ZGGG 060300Z AUTO 34002KT 2SM 18/17 A3006 RMK SLP185 T01810166 52003 IEM_DS3505
ZGGG,2006-03-06 04:00,ZGGG 060400Z AUTO 08004KT 1SM 18/16 A3003 RMK SLP179 T01800160 IEM_DS3505
ZGGG,2006-03-06 05:00,ZGGG 060500Z AUTO 1SM 19/17 A3000 RMK SLP169 T01900170 IEM_DS3505
ZGGG,2006-03-06 06:00,ZGGG 060600Z AUTO 32002KT 2 1/2SM 22/18 A2997 RMK 60002 SLP155 T02180180 57029 IEM_DS3505
ZGGG,2006-03-06 07:00,ZGGG 060700Z AUTO 11006KT 3SM 22/17 A2994 RMK SLP148 T02200170 IEM_DS3505
ZGGG,2006-03-06 08:00,ZGGG 060800Z AUTO 08004KT 4SM 24/18 A2991 RMK SLP138 T02400180 IEM_DS3505
ZGGG,2006-03-06 09:00,ZGGG 060900Z AUTO 11002KT 4SM 23/19 A2991 RMK SLP139 T02310188 57016 IEM_DS3505
ZGGG,2006-03-06 10:00,ZGGG 061000Z AUTO 08004KT 3SM 23/18 A2991 RMK SLP138 T02300180 IEM_DS3505
ZGGG,2006-03-06 11:00,ZGGG 061100Z AUTO 09004KT 2 1/2SM 21/18 A2994 RMK SLP148 T02100180 IEM_DS3505
ZGGG,2006-03-06 12:00,ZGGG 061200Z AUTO 11002KT 2 1/2SM 20/18 A2994 RMK SLP155 T01980181 52015 IEM_DS3505
ZGGG,2006-03-06 13:00,ZGGG 061300Z AUTO 09006KT 2 1/2SM 20/18 A2997 RMK SLP158 T02000180 IEM_DS3505
ZGGG,2006-03-06 14:00,ZGGG 061400Z AUTO 2SM 20/17 A2997 RMK SLP158 T02000170 IEM_DS3505
ZGGG,2006-03-06 15:00,ZGGG 061500Z AUTO 09004KT 1 1/2SM 19/18 A2997 RMK SLP161 T01900178 52006 IEM_DS3505
ZGGG,2006-03-06 16:00,ZGGG 061600Z AUTO 02004KT 2SM 19/17 A3000 RMK SLP169 T01900170 IEM_DS3505
ZGGG,2006-03-06 17:00,ZGGG 061700Z AUTO 1 1/2SM 19/17 A2997 RMK SLP159 T01900170 IEM_DS3505
ZGGG,2006-03-06 18:00,ZGGG 061800Z AUTO 07002KT 2SM 19/18 A2997 RMK SLP158 T01870177 57002 IEM_DS3505
ZGGG,2006-03-06 19:00,ZGGG 061900Z AUTO 08004KT 1 1/4SM 19/17 A2994 RMK SLP149 T01900170 IEM_DS3505
ZGGG,2006-03-06 20:00,ZGGG 062000Z AUTO 1 1/4SM 18/16 A2994 RMK T01800160 IEM_DS3505
ZGGG,2006-03-06 21:00,ZGGG 062100Z AUTO 09002KT 2 1/2SM 18/17 A2994 RMK 70003 SLP152 T01810173 57006 IEM_DS3505
ZGGG,2006-03-06 22:00,ZGGG 062200Z AUTO 08004KT 1 1/4SM 18/16 A2994 RMK SLP149 T01800160 IEM_DS3505
ZGGG,2006-03-06 23:00,ZGGG 062300Z AUTO 1SM 18/16 A2997 RMK SLP159 T01800160 IEM_DS3505
ZGGG,2006-03-07 00:00,ZGGG 070000Z AUTO 32002KT 1 1/4SM 18/18 A3000 RMK 70002 SLP168 T01850177 52016 IEM_DS3505
ZGGG,2006-03-07 01:00,ZGGG 070100Z AUTO 09004KT 1 1/4SM 20/17 A3000 RMK SLP168 T02000170 IEM_DS3505
ZGGG,2006-03-07 02:00,ZGGG 070200Z AUTO 07004KT 3SM 22/17 A3000 RMK SLP168 T02200170 IEM_DS3505
ZGGG,2006-03-07 03:00,ZGGG 070300Z AUTO 16002KT 2 1/2SM 22/18 A3000 RMK SLP169 T02180178 52001 IEM_DS3505
ZGGG,2006-03-07 04:00,ZGGG 070400Z AUTO 5SM 23/17 A2997 RMK SLP158 T02300170 IEM_DS3505
ZGGG,2006-03-07 05:00,ZGGG 070500Z AUTO 19004KT 3SM 23/18 A2997 RMK SLP158 T02300180 IEM_DS3505
ZGGG,2006-03-07 06:00,ZGGG 070600Z AUTO 14004KT 3SM 24/18 A2991 RMK SLP141 T02350184 57028 IEM_DS3505
ZGGG,2006-03-07 07:00,ZGGG 070700Z AUTO 18004KT 2 1/2SM 24/18 A2988 RMK SLP128 T02400180 IEM_DS3505
ZGGG,2006-03-07 08:00,ZGGG 070800Z AUTO 14004KT 2 1/2SM 24/18 A2988 RMK SLP128 T02400180 IEM_DS3505
ZGGG,2006-03-07 09:00,ZGGG 070900Z AUTO 14004KT 1 1/2SM 23/19 A2991 RMK SLP134 T02320187 57007 IEM_DS3505
ZGGG,2006-03-07 10:00,ZGGG 071000Z AUTO 1 1/4SM 23/18 A2991 RMK SLP138 T02300180 IEM_DS3505
ZGGG,2006-03-07 11:00,ZGGG 071100Z AUTO 10002KT 1 1/4SM 22/19 A2994 RMK SLP148 T02200190 IEM_DS3505
ZGGG,2006-03-07 12:00,ZGGG 071200Z AUTO 16002KT 2 1/2SM 22/18 A2994 RMK SLP155 T02200180 52021 IEM_DS3505
ZGGG,2006-03-07 13:00,ZGGG 071300Z AUTO 00000KT 1 1/4SM 22/19 A2997 RMK SLP158 T02200190 IEM_DS3505
ZGGG,2006-03-07 14:00,ZGGG 071400Z AUTO 19002KT 2SM 22/18 A3000 RMK SLP168 T02200180 IEM_DS3505
ZGGG,2006-03-07 15:00,ZGGG 071500Z AUTO 18002KT 5SM 21/18 A3000 RMK SLP169 T02090175 52014 IEM_DS3505
ZGGG,2006-03-07 16:00,ZGGG 071600Z AUTO 2 1/2SM 21/18 A3000 RMK SLP168 T02100180 IEM_DS3505
ZGGG,2006-03-07 17:00,ZGGG 071700Z AUTO 00000KT 2 1/2SM 20/18 A3000 RMK SLP168 T02000180 IEM_DS3505
ZGGG,2006-03-07 18:00,ZGGG 071800Z AUTO 18002KT 4SM 20/18 A3000 RMK SLP167 T02030175 57002 IEM_DS3505
ZGGG,2006-03-07 19:00,ZGGG 071900Z AUTO 16002KT 2 1/2SM 21/17 A2997 RMK SLP158 T02100170 IEM_DS3505
ZGGG,2006-03-07 20:00,ZGGG 072000Z AUTO 00000KT 2 1/2SM 20/17 A2997 RMK SLP158 T02000170 IEM_DS3505
ZGGG,2006-03-07 21:00,ZGGG 072100Z AUTO 16002KT 4SM 20/17 A2997 RMK SLP162 T01970173 57005 IEM_DS3505
ZGGG,2006-03-07 22:00,ZGGG 072200Z AUTO 08002KT 2SM 20/17 A2997 RMK SLP158 T02000170 IEM_DS3505
ZGGG,2006-03-07 23:00,ZGGG 072300Z AUTO 00000KT 1 1/4SM 20/17 A3000 RMK SLP168 T02000170 IEM_DS3505
ZGGG,2006-03-08 00:00,ZGGG 080000Z AUTO 11002KT 4SM 20/17 A3003 RMK SLP181 T01980166 52019 IEM_DS3505
ZGGG,2006-03-08 01:00,ZGGG 080100Z AUTO 15006KT 2 1/2SM 22/16 A3003 RMK SLP178 T02200160 IEM_DS3505
ZGGG,2006-03-08 02:00,ZGGG 080200Z AUTO 17002KT 2 1/2SM 22/15 A3006 RMK SLP189 T02200150 IEM_DS3505
ZGGG,2006-03-08 03:00,ZGGG 080300Z AUTO 16004KT 4SM 23/16 A3003 RMK SLP181 T02280164 54000 IEM_DS3505
ZGGG,2006-03-08 04:00,ZGGG 080400Z AUTO 00000KT 2 1/2SM 23/16 A3003 RMK SLP178 T02300160 IEM_DS3505
ZGGG,2006-03-08 05:00,ZGGG 080500Z AUTO 2 1/2SM 24/16 A3000 RMK SLP168 T02400160 IEM_DS3505
ZGGG,2006-03-08 06:00,ZGGG 080600Z AUTO 14002KT 5SM 24/17 A2997 RMK SLP154 T02420170 57027 IEM_DS3505
ZGGG,2006-03-08 07:00,ZGGG 080700Z AUTO 20004KT 2 1/2SM 25/16 A2994 RMK SLP148 T02500160 IEM_DS3505
ZGGG,2006-03-08 08:00,ZGGG 080800Z AUTO 20006KT 2 1/2SM 25/16 A2994 RMK SLP148 T02500160 IEM_DS3505
ZGGG,2006-03-08 09:00,ZGGG 080900Z AUTO 18002KT 3SM 25/18 A2994 RMK SLP150 T02460176 57004 IEM_DS3505
ZGGG,2006-03-08 10:00,ZGGG 081000Z AUTO 16002KT 2SM 24/17 A2997 RMK SLP158 T02400170 IEM_DS3505
ZGGG,2006-03-08 11:00,ZGGG 081100Z AUTO 23004KT 2 1/2SM 24/17 A2997 RMK SLP158 T02400170 IEM_DS3505
ZGGG,2006-03-08 12:00,ZGGG 081200Z AUTO 14002KT 4SM 22/18 A2997 RMK SLP165 T02210183 52015 IEM_DS3505
ZGGG,2006-03-08 13:00,ZGGG 081300Z AUTO 1 1/2SM 23/18 A3000 RMK SLP168 T02300180 IEM_DS3505
ZGGG,2006-03-08 14:00,ZGGG 081400Z AUTO 00000KT 1SM 22/18 A3003 RMK SLP178 T02200180 IEM_DS3505
ZGGG,2006-03-08 15:00,ZGGG 081500Z AUTO 00000KT 2 1/2SM 20/18 A3003 RMK SLP180 T02010182 52015 IEM_DS3505
ZGGG,2006-03-08 16:00,ZGGG 081600Z AUTO 12002KT 1SM 21/18 A3003 RMK SLP178 T02100180 IEM_DS3505
ZGGG,2006-03-08 18:00,ZGGG 081800Z AUTO 00000KT 2SM 20/18 A3003 RMK SLP179 T01980183 57001 IEM_DS3505
ZGGG,2006-03-08 19:00,ZGGG 081900Z AUTO 00000KT 1SM 20/18 A3000 RMK T02000180 IEM_DS3505
ZGGG,2006-03-08 20:00,ZGGG 082000Z AUTO 04002KT 1/2SM 19/17 A3000 RMK SLP169 T01900170 IEM_DS3505
ZGGG,2006-03-08 21:00,ZGGG 082100Z AUTO 00000KT 1 1/2SM 19/18 A3000 RMK SLP174 T01900178 57005 IEM_DS3505
ZGGG,2006-03-08 22:00,ZGGG 082200Z AUTO 1/2SM 19/18 A3003 RMK T01900180 IEM_DS3505
ZGGG,2006-03-08 23:00,ZGGG 082300Z AUTO 04004KT 1SM 20/18 A3006 RMK T02000180 IEM_DS3505
ZGGG,2006-03-09 00:00,ZGGG 090000Z AUTO 27002KT 1 1/4SM 20/18 A3006 RMK SLP193 T02000185 52019 IEM_DS3505
ZGGG,2006-03-09 01:00,ZGGG 090100Z AUTO 00000KT 1 1/2SM 21/18 A3009 RMK SLP199 T02100180 IEM_DS3505
ZGGG,2006-03-09 02:00,ZGGG 090200Z AUTO 2SM 22/18 A3009 RMK SLP199 T02200180 IEM_DS3505
ZGGG,2006-03-09 03:00,ZGGG 090300Z AUTO 02004KT 5SM 25/18 A3009 RMK SLP190 T02490176 57003 IEM_DS3505
ZGGG,2006-03-09 04:00,ZGGG 090400Z AUTO 01008KT 6SM 26/16 A3006 RMK SLP189 T02600160 IEM_DS3505
ZGGG,2006-03-09 05:00,ZGGG 090500Z AUTO 02006KT 7SM 26/15 A3003 RMK SLP177 T02600150 IEM_DS3505
ZGGG,2006-03-09 06:00,ZGGG 090600Z AUTO 04004KT 6SM 27/16 A3000 RMK SLP164 T02720165 57026 IEM_DS3505
ZGGG,2006-03-09 07:00,ZGGG 090700Z AUTO 36004KT 7SM 27/15 A2997 RMK SLP157 T02700150 IEM_DS3505
ZGGG,2006-03-09 08:00,ZGGG 090800Z AUTO 02008KT 6SM 28/14 A2994 RMK SLP147 T02800140 IEM_DS3505
ZGGG,2006-03-09 09:00,ZGGG 090900Z AUTO 32004KT 7SM 27/16 A2994 RMK SLP148 T02730157 57016 IEM_DS3505
ZGGG,2006-03-09 10:00,ZGGG 091000Z AUTO 34008KT 6SM 26/13 A2994 RMK SLP147 T02600130 IEM_DS3505
ZGGG,2006-03-09 11:00,ZGGG 091100Z AUTO 35004KT 5SM 25/14 A2997 RMK SLP158 T02500140 IEM_DS3505
ZGGG,2006-03-09 12:00,ZGGG 091200Z AUTO 04002KT 7SM 22/17 A2997 RMK SLP156 T02240167 52008 IEM_DS3505
ZGGG,2006-03-09 13:00,ZGGG 091300Z AUTO 03004KT 3SM 21/16 A2997 RMK SLP158 T02100160 IEM_DS3505
ZGGG,2006-03-09 14:00,ZGGG 091400Z AUTO 00000KT 3SM 20/15 A2997 RMK SLP158 T02000150 IEM_DS3505
ZGGG,2006-03-09 15:00,ZGGG 091500Z AUTO 07002KT 11SM 20/17 A3000 RMK SLP164 T01960168 52008 IEM_DS3505
ZGGG,2006-03-09 16:00,ZGGG 091600Z AUTO 00000KT 2 1/2SM 19/15 A3000 RMK SLP169 T01900150 IEM_DS3505
ZGGG,2006-03-09 17:00,ZGGG 091700Z AUTO 11002KT 2 1/2SM 18/15 A2997 RMK SLP159 T01800150 IEM_DS3505
ZGGG,2006-03-09 18:00,ZGGG 091800Z AUTO 00000KT 10SM 19/16 A2997 RMK SLP160 T01870156 57004 IEM_DS3505
ZGGG,2006-03-09 19:00,ZGGG 091900Z AUTO 00000KT 2SM 17/15 A2997 RMK SLP159 T01700150 IEM_DS3505
ZGGG,2006-03-09 20:00,ZGGG 092000Z AUTO 10004KT 2SM 18/15 A2997 RMK SLP159 T01800150 IEM_DS3505
ZGGG,2006-03-09 21:00,ZGGG 092100Z AUTO 07002KT 8SM 19/16 A2997 RMK SLP155 T01880157 57005 IEM_DS3505
ZGGG,2006-03-09 22:00,ZGGG 092200Z AUTO 03002KT 2 1/2SM 17/14 A2997 RMK SLP159 T01700140 IEM_DS3505
ZGGG,2006-03-09 23:00,ZGGG 092300Z AUTO 2SM 17/15 A3000 RMK SLP169 T01700150 IEM_DS3505
ZGGG,2006-03-10 00:00,ZGGG 100000Z AUTO 09004KT 5SM 20/16 A3003 RMK SLP176 T01990158 52021 IEM_DS3505
ZGGG,2006-03-10 01:00,ZGGG 100100Z AUTO 07004KT 2 1/2SM 20/15 A3003 RMK SLP178 T02000150 IEM_DS3505
ZGGG,2006-03-10 02:00,ZGGG 100200Z AUTO 08004KT 3SM 23/16 A3003 RMK SLP178 T02300160 IEM_DS3505
ZGGG,2006-03-10 03:00,ZGGG 100300Z AUTO 18002KT 1 1/2SM 25/17 A3003 RMK SLP176 T02470169 54000 IEM_DS3505
ZGGG,2006-03-10 04:00,ZGGG 100400Z AUTO 3SM 26/15 A3000 RMK SLP167 T02600150 IEM_DS3505
ZGGG,2006-03-10 05:00,ZGGG 100500Z AUTO 17004KT 2 1/2SM 27/16 A2997 RMK SLP157 T02700160 IEM_DS3505
ZGGG,2006-03-10 06:00,ZGGG 100600Z AUTO 22004KT 2SM 26/18 A2991 RMK SLP142 T02650181 57034 IEM_DS3505
ZGGG,2006-03-10 07:00,ZGGG 100700Z AUTO 20006KT 2SM 27/17 A2991 RMK SLP137 T02700170 IEM_DS3505
ZGGG,2006-03-10 08:00,ZGGG 100800Z AUTO 2 1/2SM 28/16 A2988 RMK SLP127 T02800160 IEM_DS3505
ZGGG,2006-03-10 09:00,ZGGG 100900Z AUTO 14004KT 2 1/2SM 26/18 A2988 RMK SLP128 T02650176 57014 IEM_DS3505
ZGGG,2006-03-10 10:00,ZGGG 101000Z AUTO 1 1/2SM 26/17 A2988 RMK SLP127 T02600170 IEM_DS3505
ZGGG,2006-03-10 11:00,ZGGG 101100Z AUTO 15004KT 1 1/2SM 25/18 A2988 RMK SLP127 T02500180 IEM_DS3505
ZGGG,2006-03-10 12:00,ZGGG 101200Z AUTO 14004KT 3SM 24/18 A2991 RMK SLP140 T02370184 52012 IEM_DS3505
ZGGG,2006-03-10 13:00,ZGGG 101300Z AUTO 15004KT 1 1/4SM 24/18 A2994 RMK SLP148 T02400180 IEM_DS3505
ZGGG,2006-03-10 14:00,ZGGG 101400Z AUTO 14004KT 1 1/4SM 23/18 A2994 RMK SLP148 T02300180 IEM_DS3505
ZGGG,2006-03-10 15:00,ZGGG 101500Z AUTO 14004KT 4SM 22/17 A2994 RMK SLP157 T02150167 52017 IEM_DS3505
ZGGG,2006-03-10 16:00,ZGGG 101600Z AUTO 15004KT 2 1/2SM 22/16 A2997 RMK SLP158 T02200160 IEM_DS3505
ZGGG,2006-03-10 17:00,ZGGG 101700Z AUTO 11004KT 2 1/2SM 21/16 A2997 RMK SLP158 T02100160 IEM_DS3505
ZGGG,2006-03-10 18:00,ZGGG 101800Z AUTO 11002KT 4SM 20/16 A2997 RMK SLP156 T02040158 57001 IEM_DS3505
ZGGG,2006-03-10 19:00,ZGGG 101900Z AUTO 10002KT 2SM 21/16 A2994 RMK SLP148 T02100160 IEM_DS3505
ZGGG,2006-03-10 20:00,ZGGG 102000Z AUTO 06002KT 2SM 20/15 A2991 RMK SLP138 T02000150 IEM_DS3505
ZGGG,2006-03-10 21:00,ZGGG 102100Z AUTO 09002KT 3SM 20/16 A2991 RMK SLP140 T01990162 57016 IEM_DS3505
ZGGG,2006-03-10 22:00,ZGGG 102200Z AUTO 1 1/4SM 20/16 A2991 RMK SLP138 T02000160 IEM_DS3505
ZGGG,2006-03-10 23:00,ZGGG 102300Z AUTO 00000KT 1 1/4SM 19/16 A2994 RMK SLP149 T01900160 IEM_DS3505
ZGGG,2006-03-11 00:00,ZGGG 110000Z AUTO 11004KT 3SM 20/16 A2994 RMK SLP148 T02030165 52008 IEM_DS3505
ZGGG,2006-03-11 01:00,ZGGG 110100Z AUTO 2SM 22/16 A2994 RMK SLP148 T02200160 IEM_DS3505
ZGGG,2006-03-11 02:00,ZGGG 110200Z AUTO 15004KT 2 1/2SM 23/16 A2994 RMK SLP148 T02300160 IEM_DS3505
ZGGG,2006-03-11 03:00,ZGGG 110300Z AUTO 11004KT 3SM 25/18 A2994 RMK SLP143 T02490179 57005 IEM_DS3505
ZGGG,2006-03-11 04:00,ZGGG 110400Z AUTO 2SM 25/17 A2991 RMK SLP137 T02500170 IEM_DS3505
ZGGG,2006-03-11 05:00,ZGGG 110500Z AUTO 25006KT 2SM 26/17 A2988 RMK SLP127 T02600170 IEM_DS3505
ZGGG,2006-03-11 06:00,ZGGG 110600Z AUTO 20002KT 6SM 24/18 A2983 RMK SLP113 T02440183 57030 IEM_DS3505
ZGGG,2006-03-11 07:00,ZGGG 110700Z AUTO 18006KT 2 1/2SM 25/17 A2983 RMK SLP111 T02500170 IEM_DS3505
ZGGG,2006-03-11 08:00,ZGGG 110800Z AUTO 00000KT 1 1/2SM 23/18 A2980 RMK SLP101 T02300180 IEM_DS3505
ZGGG,2006-03-11 09:00,ZGGG 110900Z AUTO 16002KT 6SM 24/19 A2980 RMK SLP096 T02420188 57017 IEM_DS3505
ZGGG,2006-03-11 10:00,ZGGG 111000Z AUTO 16002KT 1 1/2SM 24/18 A2980 RMK SLP100 T02400180 IEM_DS3505
ZGGG,2006-03-11 11:00,ZGGG 111100Z AUTO 15006KT 3SM 24/18 A2980 RMK SLP100 T02400180 IEM_DS3505
ZGGG,2006-03-11 12:00,ZGGG 111200Z AUTO 14004KT 6SM 23/19 A2980 RMK SLP107 T02330190 52011 IEM_DS3505
ZGGG,2006-03-11 13:00,ZGGG 111300Z AUTO 3SM 23/19 A2985 RMK SLP117 T02300190 IEM_DS3505
ZGGG,2006-03-11 14:00,ZGGG 111400Z AUTO 3SM 23/19 A2985 RMK SLP117 T02300190 IEM_DS3505
ZGGG,2006-03-11 15:00,ZGGG 111500Z AUTO 22002KT 10SM 23/19 A2988 RMK SLP125 T02260194 52019 IEM_DS3505
ZGGG,2006-03-11 16:00,ZGGG 111600Z AUTO 2 1/2SM 22/19 A2988 RMK SLP128 T02200190 IEM_DS3505
ZGGG,2006-03-11 17:00,ZGGG 111700Z AUTO 00000KT 2 1/2SM 22/19 A2985 RMK SLP117 T02200190 IEM_DS3505
ZGGG,2006-03-11 18:00,ZGGG 111800Z AUTO 16002KT 7SM 22/20 A2985 RMK 60000 SLP114 T02190195 57012 IEM_DS3505
ZGGG,2006-03-11 19:00,ZGGG 111900Z AUTO 1 1/2SM 22/19 A2983 RMK SLP112 T02200190 IEM_DS3505
ZGGG,2006-03-11 20:00,ZGGG 112000Z AUTO 07002KT 1 1/2SM 22/19 A2983 RMK SLP112 T02200190 IEM_DS3505
ZGGG,2006-03-11 21:00,ZGGG 112100Z AUTO 00000KT 4SM 22/19 A2980 RMK 70000 SLP101 T02170194 57012 IEM_DS3505
ZGGG,2006-03-11 22:00,ZGGG 112200Z AUTO 1 1/4SM 21/19 A2980 RMK SLP101 T02100190 IEM_DS3505
ZGGG,2006-03-11 23:00,ZGGG 112300Z AUTO 05004KT 1SM 22/19 A2983 RMK SLP112 T02200190 IEM_DS3505
ZGGG,2006-03-12 00:00,ZGGG 120000Z AUTO 00000KT 2SM 22/19 A2983 RMK 70000 SLP116 T02170194 52014 IEM_DS3505
ZGGG,2006-03-12 01:00,ZGGG 120100Z AUTO 10004KT 1 1/4SM 23/19 A2985 RMK SLP117 T02300190 IEM_DS3505
ZGGG,2006-03-12 02:00,ZGGG 120200Z AUTO 2SM 24/19 A2988 RMK SLP128 T02400190 IEM_DS3505
ZGGG,2006-03-12 03:00,ZGGG 120300Z AUTO 18002KT 3SM 25/20 A2988 RMK SLP123 T02470195 52008 IEM_DS3505
ZGGG,2006-03-12 04:00,ZGGG 120400Z AUTO 33006G17KT 2SM 23/17 A2988 RMK SLP128 T02300170 IEM_DS3505
ZGGG,2006-03-12 05:00,ZGGG 120500Z AUTO 35014KT 2 1/2SM 19/16 A2988 RMK SLP128 T01900160 IEM_DS3505
ZGGG,2006-03-12 06:00,ZGGG 120600Z AUTO 34006KT 7SM 18/16 A2988 RMK 60008 SLP124 T01830165 54000 IEM_DS3505
ZGGG,2006-03-12 07:00,ZGGG 120700Z AUTO 01014KT 7SM 18/12 A2988 RMK SLP129 T01800120 IEM_DS3505
ZGGG,2006-03-12 08:00,ZGGG 120800Z AUTO 02017G27KT 7SM 17/11 A2991 RMK SLP139 T01700110 IEM_DS3505
ZGGG,2006-03-12 09:00,ZGGG 120900Z AUTO 36008KT 7SM 16/12 A2994 RMK SLP140 T01550119 52016 IEM_DS3505
ZGGG,2006-03-12 10:00,ZGGG 121000Z AUTO 02017KT 7SM 15/09 A2994 RMK SLP149 T01500090 IEM_DS3505
ZGGG,2006-03-12 11:00,ZGGG 121100Z AUTO 02014KT 7SM 15/08 A3000 RMK SLP169 T01500080 IEM_DS3505
ZGGG,2006-03-12 12:00,ZGGG 121200Z AUTO 02004KT 11SM 15/09 A3003 RMK 60000 SLP175 T01530090 52034 IEM_DS3505
ZGGG,2006-03-12 13:00,ZGGG 121300Z AUTO 01014KT 7SM 14/06 A3006 RMK SLP191 T01400060 IEM_DS3505
ZGGG,2006-03-12 14:00,ZGGG 121400Z AUTO 02010KT 7SM 14/06 A3009 RMK SLP201 T01400060 IEM_DS3505
ZGGG,2006-03-12 15:00,ZGGG 121500Z AUTO 02006KT 10SM 13/07 A3012 RMK SLP213 T01340070 52038 IEM_DS3505
ZGGG,2006-03-12 16:00,ZGGG 121600Z AUTO 02014KT 7SM 13/05 A3015 RMK SLP221 T01300050 IEM_DS3505
ZGGG,2006-03-12 17:00,ZGGG 121700Z AUTO 02010KT 7SM 12/04 A3015 RMK SLP221 T01200040 IEM_DS3505
ZGGG,2006-03-12 18:00,ZGGG 121800Z AUTO 02006KT 10SM 12/06 A3015 RMK SLP214 T01160059 52001 IEM_DS3505
ZGGG,2006-03-12 19:00,ZGGG 121900Z AUTO 01012KT 7SM 11/04 A3012 RMK SLP211 T01100040 IEM_DS3505
ZGGG,2006-03-12 20:00,ZGGG 122000Z AUTO 36014KT 7SM 11/03 A3015 RMK SLP221 T01100030 IEM_DS3505
ZGGG,2006-03-12 21:00,ZGGG 122100Z AUTO 36002KT 10SM 09/06 A3015 RMK 70007 SLP224 T00910064 52009 IEM_DS3505
ZGGG,2006-03-12 22:00,ZGGG 122200Z AUTO 02014KT 7SM 09/04 A3018 RMK SLP232 T00900040 IEM_DS3505
ZGGG,2006-03-12 23:00,ZGGG 122300Z AUTO 03010KT 7SM 09/03 A3021 RMK SLP242 T00900030 IEM_DS3505
ZGGG,2006-03-13 00:00,ZGGG 130000Z AUTO 02006KT 14SM 10/04 A3021 RMK 60000 70007 SLP244 T00970043 52020 IEM_DS3505
ZGGG,2006-03-13 01:00,ZGGG 130100Z AUTO 01012KT 7SM 10/03 A3027 RMK SLP263 T01000030 IEM_DS3505
ZGGG,2006-03-13 02:00,ZGGG 130200Z AUTO 01017KT 7SM 10/02 A3030 RMK SLP273 T01000020 IEM_DS3505
ZGGG,2006-03-13 03:00,ZGGG 130300Z AUTO 04004KT 16SM 10/03 A3030 RMK SLP268 T01030033 52024 IEM_DS3505
ZGGG,2006-03-13 04:00,ZGGG 130400Z AUTO 02016KT 7SM 09/03 A3030 RMK SLP273 T00900030 IEM_DS3505
ZGGG,2006-03-13 05:00,ZGGG 130500Z AUTO 01012KT 7SM 09/03 A3027 RMK SLP263 T00900030 IEM_DS3505
ZGGG,2006-03-13 06:00,ZGGG 130600Z AUTO 02004KT 10SM 08/05 A3027 RMK 60000 SLP256 T00840048 57012 IEM_DS3505
ZGGG,2006-03-13 07:00,ZGGG 130700Z AUTO 01010KT 5SM 08/04 A3027 RMK SLP263 T00800040 IEM_DS3505
ZGGG,2006-03-13 08:00,ZGGG 130800Z AUTO 01010KT 5SM 07/04 A3024 RMK SLP252 T00700040 IEM_DS3505
ZGGG,2006-03-13 09:00,ZGGG 130900Z AUTO 36004KT 7SM 07/05 A3027 RMK SLP255 T00690052 57002 IEM_DS3505
ZGGG,2006-03-13 10:00,ZGGG 131000Z AUTO 03004KT 6SM 07/04 A3024 RMK SLP252 T00700040 IEM_DS3505
ZGGG,2006-03-13 11:00,ZGGG 131100Z AUTO 36010KT 6SM 07/04 A3027 RMK SLP263 T00700040 IEM_DS3505
ZGGG,2006-03-13 12:00,ZGGG 131200Z AUTO 36004KT 9SM 07/05 A3027 RMK 60020 SLP264 T00670049 52009 IEM_DS3505
ZGGG,2006-03-13 13:00,ZGGG 131300Z AUTO 01006KT 7SM 07/03 A3030 RMK SLP273 T00700030 IEM_DS3505
ZGGG,2006-03-13 14:00,ZGGG 131400Z AUTO 02006KT 6SM 07/03 A3030 RMK SLP273 T00700030 IEM_DS3505
ZGGG,2006-03-13 15:00,ZGGG 131500Z AUTO 02004KT 10SM 07/04 A3030 RMK SLP277 T00710037 52013 IEM_DS3505
ZGGG,2006-03-13 16:00,ZGGG 131600Z AUTO 36006KT 7SM 08/02 A3033 RMK SLP283 T00800020 IEM_DS3505
ZGGG,2006-03-13 17:00,ZGGG 131700Z AUTO 36010KT 7SM 08/02 A3030 RMK SLP273 T00800020 IEM_DS3505
ZGGG,2006-03-13 18:00,ZGGG 131800Z AUTO 36004KT 9SM 08/03 A3027 RMK 60000 SLP263 T00750026 57014 IEM_DS3505
ZGGG,2006-03-13 19:00,ZGGG 131900Z AUTO 36010KT 7SM 08/02 A3027 RMK SLP263 T00800020 IEM_DS3505
ZGGG,2006-03-13 20:00,ZGGG 132000Z AUTO 01008KT 7SM 08/01 A3027 RMK SLP263 T00800010 IEM_DS3505
ZGGG,2006-03-13 21:00,ZGGG 132100Z AUTO 36006KT 10SM 07/02 A3024 RMK 70019 SLP255 T00740021 57008 IEM_DS3505
ZGGG,2006-03-13 22:00,ZGGG 132200Z AUTO 02006KT 7SM 08/01 A3024 RMK SLP252 T00800010 IEM_DS3505
ZGGG,2006-03-13 23:00,ZGGG 132300Z AUTO 01008KT 7SM 08/02 A3027 RMK SLP263 T00800020 IEM_DS3505
ZGGG,2006-03-14 00:00,ZGGG 140000Z AUTO 02006KT 11SM 08/02 A3030 RMK 60000 70019 SLP268 T00800018 52013 IEM_DS3505
ZGGG,2006-03-14 01:00,ZGGG 140100Z AUTO 36008KT 7SM 09/02 A3030 RMK SLP273 T00900020 IEM_DS3505
ZGGG,2006-03-14 02:00,ZGGG 140200Z AUTO 02008KT 7SM 09/02 A3030 RMK SLP273 T00900020 IEM_DS3505
ZGGG,2006-03-14 03:00,ZGGG 140300Z AUTO 29004KT 14SM 10/03 A3033 RMK SLP276 T00980029 52008 IEM_DS3505
ZGGG,2006-03-14 04:00,ZGGG 140400Z AUTO 36008KT 7SM 10/02 A3030 RMK SLP273 T01000020 IEM_DS3505
ZGGG,2006-03-14 05:00,ZGGG 140500Z AUTO 02008KT 7SM 10/02 A3027 RMK SLP263 T01000020 IEM_DS3505
ZGGG,2006-03-14 06:00,ZGGG 140600Z AUTO 34006KT 13SM 12/04 A3021 RMK SLP242 T01160036 57033 IEM_DS3505
ZGGG,2006-03-14 07:00,ZGGG 140700Z AUTO 02006KT 7SM 11/03 A3018 RMK SLP231 T01100030 IEM_DS3505
ZGGG,2006-03-14 08:00,ZGGG 140800Z AUTO 03004KT 7SM 12/04 A3018 RMK SLP231 T01200040 IEM_DS3505
ZGGG,2006-03-14 09:00,ZGGG 140900Z AUTO 32002KT 12SM 12/05 A3018 RMK SLP225 T01200047 57017 IEM_DS3505
ZGGG,2006-03-14 10:00,ZGGG 141000Z AUTO 7SM 12/04 A3018 RMK SLP231 T01200040 IEM_DS3505
ZGGG,2006-03-14 12:00,ZGGG 141200Z AUTO 04002KT 11SM 11/05 A3018 RMK SLP233 T01140051 52008 IEM_DS3505
ZGGG,2006-03-14 13:00,ZGGG 141300Z AUTO 35004KT 5SM 12/05 A3021 RMK SLP241 T01200050 IEM_DS3505
ZGGG,2006-03-14 14:00,ZGGG 141400Z AUTO 33004KT 5SM 12/05 A3021 RMK SLP241 T01200050 IEM_DS3505
ZGGG,2006-03-14 15:00,ZGGG 141500Z AUTO 34002KT 10SM 12/06 A3021 RMK SLP238 T01160057 52005 IEM_DS3505
ZGGG,2006-03-14 16:00,ZGGG 141600Z AUTO 4SM 12/06 A3018 RMK SLP231 T01200060 IEM_DS3505
ZGGG,2006-03-14 17:00,ZGGG 141700Z AUTO 00000KT 5SM 12/06 A3018 RMK SLP231 T01200060 IEM_DS3505
ZGGG,2006-03-14 18:00,ZGGG 141800Z AUTO 32002KT 10SM 12/06 A3015 RMK SLP222 T01170064 57016 IEM_DS3505
ZGGG,2006-03-14 19:00,ZGGG 141900Z AUTO 35004KT 4SM 12/05 A3015 RMK SLP221 T01200050 IEM_DS3505
ZGGG,2006-03-14 20:00,ZGGG 142000Z AUTO 34004KT 4SM 12/05 A3012 RMK SLP211 T01200050 IEM_DS3505
ZGGG,2006-03-14 21:00,ZGGG 142100Z AUTO 36002KT 9SM 12/06 A3012 RMK SLP204 T01160065 57018 IEM_DS3505
ZGGG,2006-03-14 22:00,ZGGG 142200Z AUTO 00000KT 4SM 12/06 A3012 RMK SLP211 T01200060 IEM_DS3505
ZGGG,2006-03-14 23:00,ZGGG 142300Z AUTO 4SM 12/06 A3012 RMK SLP211 T01200060 IEM_DS3505
ZGGG,2006-03-15 00:00,ZGGG 150000Z AUTO 32002KT 9SM 12/07 A3015 RMK SLP214 T01200067 52010 IEM_DS3505
ZGGG,2006-03-15 01:00,ZGGG 150100Z AUTO 4SM 12/06 A3015 RMK SLP221 T01200060 IEM_DS3505
ZGGG,2006-03-15 02:00,ZGGG 150200Z AUTO 4SM 13/07 A3015 RMK SLP221 T01300070 IEM_DS3505
ZGGG,2006-03-15 03:00,ZGGG 150300Z AUTO 34002KT 7SM 14/08 A3012 RMK SLP211 T01450075 57003 IEM_DS3505
ZGGG,2006-03-15 04:00,ZGGG 150400Z AUTO 4SM 14/07 A3009 RMK SLP201 T01400070 IEM_DS3505
ZGGG,2006-03-15 05:00,ZGGG 150500Z AUTO 4SM 14/07 A3006 RMK SLP191 T01400070 IEM_DS3505
ZGGG,2006-03-15 06:00,ZGGG 150600Z AUTO 32002KT 6SM 15/08 A3003 RMK SLP177 T01520084 57033 IEM_DS3505
ZGGG,2006-03-15 07:00,ZGGG 150700Z AUTO 4SM 15/08 A3000 RMK SLP169 T01500080 IEM_DS3505
ZGGG,2006-03-15 08:00,ZGGG 150800Z AUTO 34004KT 4SM 15/08 A2997 RMK SLP159 T01500080 IEM_DS3505
ZGGG,2006-03-15 09:00,ZGGG 150900Z AUTO 32004KT 6SM 15/09 A2997 RMK SLP156 T01540089 57021 IEM_DS3505
ZGGG,2006-03-15 10:00,ZGGG 151000Z AUTO 32004KT 4SM 15/09 A2997 RMK SLP159 T01500090 IEM_DS3505
ZGGG,2006-03-15 11:00,ZGGG 151100Z AUTO 33004KT 3SM 15/09 A2997 RMK SLP159 T01500090 IEM_DS3505
ZGGG,2006-03-15 12:00,ZGGG 151200Z AUTO 32004KT 5SM 15/10 A3000 RMK SLP167 T01480098 52011 IEM_DS3505
ZGGG,2006-03-15 13:00,ZGGG 151300Z AUTO 35002KT 2 1/2SM 15/10 A3000 RMK SLP169 T01500100 IEM_DS3505
ZGGG,2006-03-15 14:00,ZGGG 151400Z AUTO 2 1/2SM 15/10 A3003 RMK SLP179 T01500100 IEM_DS3505
ZGGG,2006-03-15 15:00,ZGGG 151500Z AUTO 29002KT 4SM 14/11 A3003 RMK SLP178 T01420110 52011 IEM_DS3505
ZGGG,2006-03-15 16:00,ZGGG 151600Z AUTO 31004KT 2SM 14/10 A3003 RMK SLP180 T01400100 IEM_DS3505
ZGGG,2006-03-15 17:00,ZGGG 151700Z AUTO 02002KT 1 1/4SM 14/11 A3000 RMK SLP169 T01400110 IEM_DS3505
ZGGG,2006-03-15 18:00,ZGGG 151800Z AUTO 32002KT 3SM 14/11 A3000 RMK 60000 SLP164 T01400113 57014 IEM_DS3505
ZGGG,2006-03-15 19:00,ZGGG 151900Z AUTO 00000KT 1 1/4SM 14/11 A2997 RMK SLP159 T01400110 IEM_DS3505
ZGGG,2006-03-15 20:00,ZGGG 152000Z AUTO 00000KT 1 1/4SM 14/11 A2997 RMK SLP159 T01400110 IEM_DS3505
ZGGG,2006-03-15 21:00,ZGGG 152100Z AUTO 34004KT 4SM 14/12 A2997 RMK 70000 SLP154 T01390116 57010 IEM_DS3505
ZGGG,2006-03-15 22:00,ZGGG 152200Z AUTO 00000KT 1 1/4SM 14/11 A2997 RMK SLP159 T01400110 IEM_DS3505
ZGGG,2006-03-15 23:00,ZGGG 152300Z AUTO 1SM 14/11 A2997 RMK SLP159 T01400110 IEM_DS3505
ZGGG,2006-03-16 00:00,ZGGG 160000Z AUTO 32004KT 1 1/2SM 14/12 A2997 RMK 60000 70000 SLP164 T01430118 52010 IEM_DS3505
ZGGG,2006-03-16 01:00,ZGGG 160100Z AUTO 00000KT 1SM 15/12 A3000 RMK T01500120 IEM_DS3505
ZGGG,2006-03-16 02:00,ZGGG 160200Z AUTO 1 1/4SM 15/12 A3000 RMK SLP169 T01500120 IEM_DS3505
ZGGG,2006-03-16 03:00,ZGGG 160300Z AUTO 02002KT 2SM 17/14 A3000 RMK SLP163 T01680135 57001 IEM_DS3505
ZGGG,2006-03-16 04:00,ZGGG 160400Z AUTO 2 1/2SM 18/13 A2997 RMK SLP159 T01800130 IEM_DS3505
ZGGG,2006-03-16 05:00,ZGGG 160500Z AUTO 2SM 18/13 A2991 RMK SLP139 T01800130 IEM_DS3505
ZGGG,2006-03-16 06:00,ZGGG 160600Z AUTO 36002KT 1 1/2SM 20/14 A2988 RMK SLP127 T01980142 57036 IEM_DS3505
ZGGG,2006-03-16 07:00,ZGGG 160700Z AUTO 2 1/2SM 20/13 A2985 RMK SLP117 T02000130 IEM_DS3505
ZGGG,2006-03-16 08:00,ZGGG 160800Z AUTO 2 1/2SM 21/14 A2983 RMK SLP112 T02100140 IEM_DS3505
ZGGG,2006-03-16 09:00,ZGGG 160900Z AUTO 00000KT 1 1/2SM 21/15 A2983 RMK SLP108 T02070150 57018 IEM_DS3505
ZGGG,2006-03-16 10:00,ZGGG 161000Z AUTO 09004KT 2 1/2SM 20/14 A2983 RMK SLP112 T02000140 IEM_DS3505
ZGGG,2006-03-16 11:00,ZGGG 161100Z AUTO 00000KT 3SM 19/14 A2983 RMK SLP112 T01900140 IEM_DS3505
ZGGG,2006-03-16 12:00,ZGGG 161200Z AUTO 07002KT 2SM 19/16 A2983 RMK SLP114 T01920157 52005 IEM_DS3505
ZGGG,2006-03-16 13:00,ZGGG 161300Z AUTO 3SM 19/14 A2985 RMK SLP117 T01900140 IEM_DS3505
ZGGG,2006-03-16 14:00,ZGGG 161400Z AUTO 00000KT 3SM 19/14 A2988 RMK SLP128 T01900140 IEM_DS3505
ZGGG,2006-03-16 15:00,ZGGG 161500Z AUTO 09002KT 2 1/2SM 19/16 A2988 RMK SLP127 T01870158 52014 IEM_DS3505
ZGGG,2006-03-16 16:00,ZGGG 161600Z AUTO 3SM 18/14 A2988 RMK SLP129 T01800140 IEM_DS3505
ZGGG,2006-03-16 17:00,ZGGG 161700Z AUTO 02002KT 3SM 18/14 A2988 RMK SLP129 T01800140 IEM_DS3505
ZGGG,2006-03-16 18:00,ZGGG 161800Z AUTO 07002KT 2SM 18/16 A2988 RMK SLP128 T01850161 52001 IEM_DS3505
ZGGG,2006-03-16 19:00,ZGGG 161900Z AUTO 2 1/2SM 18/15 A2988 RMK SLP129 T01800150 IEM_DS3505
ZGGG,2006-03-16 20:00,ZGGG 162000Z AUTO 2 1/2SM 18/14 A2985 RMK SLP118 T01800140 IEM_DS3505
ZGGG,2006-03-16 21:00,ZGGG 162100Z AUTO 04002KT 1 1/2SM 19/16 A2985 RMK SLP121 T01890163 57007 IEM_DS3505
ZGGG,2006-03-16 22:00,ZGGG 162200Z AUTO 02002KT 2SM 17/14 A2985 RMK SLP118 T01700140 IEM_DS3505
ZGGG,2006-03-16 23:00,ZGGG 162300Z AUTO 29004KT 1 1/4SM 18/15 A2988 RMK SLP129 T01800150 IEM_DS3505
ZGGG,2006-03-17 00:00,ZGGG 170000Z AUTO 20002KT 1SM 19/17 A2988 RMK SLP136 T01900170 52015 IEM_DS3505
ZGGG,2006-03-17 01:00,ZGGG 170100Z AUTO 00000KT 1SM 20/16 A2991 RMK T02000160 IEM_DS3505
ZGGG,2006-03-17 02:00,ZGGG 170200Z AUTO 15002KT 1SM 20/16 A2991 RMK T02000160 IEM_DS3505
ZGGG,2006-03-17 03:00,ZGGG 170300Z AUTO 14004KT 1SM 23/18 A2991 RMK SLP135 T02280179 57001 IEM_DS3505
ZGGG,2006-03-17 04:00,ZGGG 170400Z AUTO 1SM 23/17 A2988 RMK SLP128 T02300170 IEM_DS3505
ZGGG,2006-03-17 05:00,ZGGG 170500Z AUTO 1SM 24/18 A2985 RMK T02400180 IEM_DS3505
ZGGG,2006-03-17 06:00,ZGGG 170600Z AUTO 16004KT 8SM 25/20 A2983 RMK SLP106 T02490195 57029 IEM_DS3505
ZGGG,2006-03-17 07:00,ZGGG 170700Z AUTO 17006KT 3SM 24/19 A2980 RMK SLP100 T02400190 IEM_DS3505
ZGGG,2006-03-17 08:00,ZGGG 170800Z AUTO 16006KT 3SM 25/19 A2977 RMK SLP090 T02500190 IEM_DS3505
ZGGG,2006-03-17 09:00,ZGGG 170900Z AUTO 16006KT 7SM 24/19 A2977 RMK SLP097 T02360191 57009 IEM_DS3505
ZGGG,2006-03-17 10:00,ZGGG 171000Z AUTO 16008KT 3SM 24/19 A2980 RMK SLP100 T02400190 IEM_DS3505
ZGGG,2006-03-17 11:00,ZGGG 171100Z AUTO 16004KT 3SM 23/19 A2980 RMK SLP101 T02300190 IEM_DS3505
ZGGG,2006-03-17 12:00,ZGGG 171200Z AUTO 16002KT 7SM 22/19 A2980 RMK SLP104 T02220190 52007 IEM_DS3505
ZGGG,2006-03-17 13:00,ZGGG 171300Z AUTO 16004KT 4SM 23/18 A2983 RMK SLP112 T02300180 IEM_DS3505
ZGGG,2006-03-17 14:00,ZGGG 171400Z AUTO 15006KT 3SM 23/18 A2983 RMK SLP112 T02300180 IEM_DS3505
ZGGG,2006-03-17 15:00,ZGGG 171500Z AUTO 14002KT 7SM 22/19 A2985 RMK SLP118 T02170187 52014 IEM_DS3505
ZGGG,2006-03-17 16:00,ZGGG 171600Z AUTO 3SM 21/18 A2985 RMK SLP117 T02100180 IEM_DS3505
ZGGG,2006-03-17 17:00,ZGGG 171700Z AUTO 2 1/2SM 22/18 A2985 RMK SLP117 T02200180 IEM_DS3505
ZGGG,2006-03-17 18:00,ZGGG 171800Z AUTO 16002KT 5SM 21/19 A2985 RMK SLP116 T02120186 57002 IEM_DS3505
ZGGG,2006-03-17 19:00,ZGGG 171900Z AUTO 09004KT 2 1/2SM 21/17 A2985 RMK SLP117 T02100170 IEM_DS3505
ZGGG,2006-03-17 20:00,ZGGG 172000Z AUTO 10004KT 2 1/2SM 21/18 A2983 RMK SLP112 T02100180 IEM_DS3505
ZGGG,2006-03-17 21:00,ZGGG 172100Z AUTO 11002KT 4SM 21/19 A2985 RMK SLP119 T02100186 52003 IEM_DS3505
ZGGG,2006-03-17 22:00,ZGGG 172200Z AUTO 06002KT 2 1/2SM 21/18 A2988 RMK SLP128 T02100180 IEM_DS3505
ZGGG,2006-03-17 23:00,ZGGG 172300Z AUTO 10004KT 1 1/2SM 21/18 A2988 RMK SLP128 T02100180 IEM_DS3505
ZGGG,2006-03-18 00:00,ZGGG 180000Z AUTO 14002KT 2SM 21/19 A2991 RMK SLP140 T02140190 52021 IEM_DS3505
ZGGG,2006-03-18 01:00,ZGGG 180100Z AUTO 1 1/2SM 23/19 A2991 RMK SLP138 T02300190 IEM_DS3505
ZGGG,2006-03-18 02:00,ZGGG 180200Z AUTO 2SM 24/19 A2994 RMK SLP148 T02400190 IEM_DS3505
ZGGG,2006-03-18 03:00,ZGGG 180300Z AUTO 14004KT 3SM 26/20 A2994 RMK SLP146 T02570198 52006 IEM_DS3505
ZGGG,2006-03-18 04:00,ZGGG 180400Z AUTO 2SM 26/19 A2991 RMK SLP137 T02600190 IEM_DS3505
ZGGG,2006-03-18 05:00,ZGGG 180500Z AUTO 20006KT 2SM 28/20 A2991 RMK SLP137 T02800200 IEM_DS3505
ZGGG,2006-03-18 06:00,ZGGG 180600Z AUTO 18004KT 4SM 29/21 A2985 RMK SLP121 T02860206 57024 IEM_DS3505
ZGGG,2006-03-18 07:00,ZGGG 180700Z AUTO 21006KT 3SM 29/19 A2985 RMK SLP116 T02900190 IEM_DS3505
ZGGG,2006-03-18 08:00,ZGGG 180800Z AUTO 21006KT 3SM 29/20 A2983 RMK SLP111 T02900200 IEM_DS3505
ZGGG,2006-03-18 09:00,ZGGG 180900Z AUTO 20002KT 6SM 28/21 A2985 RMK SLP112 T02760207 57009 IEM_DS3505
ZGGG,2006-03-18 10:00,ZGGG 181000Z AUTO 22004KT 2 1/2SM 28/20 A2985 RMK SLP116 T02800200 IEM_DS3505
ZGGG,2006-03-18 11:00,ZGGG 181100Z AUTO 22004KT 2 1/2SM 27/20 A2985 RMK SLP116 T02700200 IEM_DS3505
ZGGG,2006-03-18 12:00,ZGGG 181200Z AUTO 09002KT 7SM 25/21 A2988 RMK SLP126 T02470212 52013 IEM_DS3505
ZGGG,2006-03-18 13:00,ZGGG 181300Z AUTO 1 1/2SM 25/20 A2988 RMK SLP127 T02500200 IEM_DS3505
ZGGG,2006-03-18 14:00,ZGGG 181400Z AUTO 11002KT 2 1/2SM 24/21 A2991 RMK SLP138 T02400210 IEM_DS3505
ZGGG,2006-03-18 15:00,ZGGG 181500Z AUTO 33010KT 8SM 23/21 A2991 RMK SLP141 T02340211 52016 IEM_DS3505
ZGGG,2006-03-18 16:00,ZGGG 181600Z AUTO 35010KT 3SM 22/17 A2994 RMK SLP148 T02200170 IEM_DS3505
ZGGG,2006-03-18 17:00,ZGGG 181700Z AUTO 34010KT 3SM 21/17 A2994 RMK SLP148 T02100170 IEM_DS3505
ZGGG,2006-03-18 18:00,ZGGG 181800Z AUTO 32004KT 7SM 22/18 A2994 RMK SLP142 T02230177 52001 IEM_DS3505
ZGGG,2006-03-18 19:00,ZGGG 181900Z AUTO 36006KT 4SM 21/16 A2994 RMK SLP148 T02100160 IEM_DS3505
ZGGG,2006-03-18 20:00,ZGGG 182000Z AUTO 01006KT 4SM 20/14 A2991 RMK SLP138 T02000140 IEM_DS3505
ZGGG,2006-03-18 21:00,ZGGG 182100Z AUTO 36006KT 7SM 20/15 A2994 RMK SLP143 T02050153 54000 IEM_DS3505
ZGGG,2006-03-18 22:00,ZGGG 182200Z AUTO 01006KT 4SM 20/11 A2994 RMK SLP148 T02000110 IEM_DS3505
ZGGG,2006-03-18 23:00,ZGGG 182300Z AUTO 02008KT 5SM 20/08 A2997 RMK SLP158 T02000080 IEM_DS3505
ZGGG,2006-03-19 00:00,ZGGG 190000Z AUTO 29002KT 9SM 20/11 A3000 RMK SLP165 T02020114 52022 IEM_DS3505
ZGGG,2006-03-19 01:00,ZGGG 190100Z AUTO 04004KT 5SM 21/07 A3000 RMK SLP168 T02100070 IEM_DS3505
ZGGG,2006-03-19 02:00,ZGGG 190200Z AUTO 5SM 22/07 A3000 RMK SLP168 T02200070 IEM_DS3505
ZGGG,2006-03-19 03:00,ZGGG 190300Z AUTO 02006KT 8SM 22/10 A3000 RMK SLP174 T02190101 52009 IEM_DS3505
ZGGG,2006-03-19 04:00,ZGGG 190400Z AUTO 04004KT 5SM 24/07 A3000 RMK SLP168 T02400070 IEM_DS3505
ZGGG,2006-03-19 05:00,ZGGG 190500Z AUTO 4SM 24/09 A2997 RMK SLP158 T02400090 IEM_DS3505
ZGGG,2006-03-19 06:00,ZGGG 190600Z AUTO 09004KT 8SM 24/14 A2994 RMK SLP150 T02380142 57024 IEM_DS3505
ZGGG,2006-03-19 07:00,ZGGG 190700Z AUTO 16004KT 4SM 25/12 A2991 RMK SLP137 T02500120 IEM_DS3505
ZGGG,2006-03-19 08:00,ZGGG 190800Z AUTO 4SM 24/13 A2994 RMK SLP148 T02400130 IEM_DS3505
ZGGG,2006-03-19 09:00,ZGGG 190900Z AUTO 09002KT 7SM 23/14 A2991 RMK SLP144 T02320142 57006 IEM_DS3505
ZGGG,2006-03-19 10:00,ZGGG 191000Z AUTO 2 1/2SM 23/14 A2991 RMK SLP138 T02300140 IEM_DS3505
ZGGG,2006-03-19 11:00,ZGGG 191100Z AUTO 2 1/2SM 22/14 A2994 RMK SLP148 T02200140 IEM_DS3505
ZGGG,2006-03-19 12:00,ZGGG 191200Z AUTO 36002KT 6SM 22/16 A2994 RMK SLP154 T02180161 52010 IEM_DS3505
ZGGG,2006-03-19 13:00,ZGGG 191300Z AUTO 08004KT 2 1/2SM 22/15 A2994 RMK SLP148 T02200150 IEM_DS3505
ZGGG,2006-03-19 14:00,ZGGG 191400Z AUTO 02004KT 3SM 21/15 A3000 RMK SLP168 T02100150 IEM_DS3505
ZGGG,2006-03-19 15:00,ZGGG 191500Z AUTO 22002KT 6SM 21/16 A3000 RMK SLP167 T02140159 52013 IEM_DS3505
ZGGG,2006-03-19 16:00,ZGGG 191600Z AUTO 2 1/2SM 20/15 A3000 RMK SLP168 T02000150 IEM_DS3505
ZGGG,2006-03-19 17:00,ZGGG 191700Z AUTO 08004KT 1 1/4SM 19/16 A2997 RMK SLP159 T01900160 IEM_DS3505
ZGGG,2006-03-19 18:00,ZGGG 191800Z AUTO 11002KT 5SM 19/16 A2997 RMK 60000 SLP162 T01930160 57005 IEM_DS3505
ZGGG,2006-03-19 19:00,ZGGG 191900Z AUTO 1 1/4SM 19/16 A2997 RMK SLP159 T01900160 IEM_DS3505
ZGGG,2006-03-19 20:00,ZGGG 192000Z AUTO 26006KT 1 1/4SM 19/16 A3000 RMK SLP169 T01900160 IEM_DS3505
ZGGG,2006-03-19 21:00,ZGGG 192100Z AUTO 11004KT 4SM 18/16 A2994 RMK 70001 SLP149 T01840156 57013 IEM_DS3505
ZGGG,2006-03-19 22:00,ZGGG 192200Z AUTO 10004KT 1 1/2SM 18/15 A2997 RMK SLP159 T01800150 IEM_DS3505
ZGGG,2006-03-19 23:00,ZGGG 192300Z AUTO 00000KT 1 1/4SM 18/15 A3000 RMK SLP169 T01800150 IEM_DS3505
ZGGG,2006-03-20 00:00,ZGGG 200000Z AUTO 09002KT 2 1/2SM 18/15 A3000 RMK 60002 70003 SLP173 T01770151 52024 IEM_DS3505
ZGGG,2006-03-20 01:00,ZGGG 200100Z AUTO 04002KT 1/2SM 18/15 A3000 RMK T01800150 IEM_DS3505
ZGGG,2006-03-20 02:00,ZGGG 200200Z AUTO 07004KT 1SM 18/15 A3003 RMK SLP179 T01800150 IEM_DS3505
ZGGG,2006-03-20 03:00,ZGGG 200300Z AUTO 07002KT 1 1/4SM 18/16 A3003 RMK SLP176 T01780156 52003 IEM_DS3505
ZGGG,2006-03-20 04:00,ZGGG 200400Z AUTO 1SM 18/15 A3000 RMK SLP169 T01800150 IEM_DS3505
ZGGG,2006-03-20 05:00,ZGGG 200500Z AUTO 1SM 18/15 A2997 RMK SLP159 T01800150 IEM_DS3505
ZGGG,2006-03-20 06:00,ZGGG 200600Z AUTO 11004KT 1 1/2SM 18/15 A2994 RMK 60008 SLP146 T01780152 57030 IEM_DS3505
ZGGG,2006-03-20 07:00,ZGGG 200700Z AUTO 08004KT 1 1/4SM 18/15 A2991 RMK SLP139 T01800150 IEM_DS3505
ZGGG,2006-03-20 08:00,ZGGG 200800Z AUTO 1SM 18/15 A2991 RMK SLP139 T01800150 IEM_DS3505
ZGGG,2006-03-20 09:00,ZGGG 200900Z AUTO 11004KT 2SM 18/15 A2988 RMK SLP131 T01780152 57015 IEM_DS3505
ZGGG,2006-03-20 10:00,ZGGG 201000Z AUTO 1SM 18/15 A2988 RMK SLP129 T01800150 IEM_DS3505
ZGGG,2006-03-20 11:00,ZGGG 201100Z AUTO 1 1/4SM 18/15 A2991 RMK SLP139 T01800150 IEM_DS3505
ZGGG,2006-03-20 12:00,ZGGG 201200Z AUTO 11002KT 2 1/2SM 18/15 A2991 RMK 60000 SLP140 T01810152 52008 IEM_DS3505
ZGGG,2006-03-20 13:00,ZGGG 201300Z AUTO 1 1/4SM 18/15 A2991 RMK SLP139 T01800150 IEM_DS3505
ZGGG,2006-03-20 14:00,ZGGG 201400Z AUTO 06002KT 1 1/4SM 18/15 A2994 RMK SLP149 T01800150 IEM_DS3505
ZGGG,2006-03-20 15:00,ZGGG 201500Z AUTO 20002KT 2SM 18/16 A2994 RMK SLP150 T01820156 52010 IEM_DS3505
ZGGG,2006-03-20 16:00,ZGGG 201600Z AUTO 08004KT 1 1/2SM 18/15 A2991 RMK SLP139 T01800150 IEM_DS3505
ZGGG,2006-03-20 17:00,ZGGG 201700Z AUTO 00000KT 1 1/2SM 18/15 A2991 RMK SLP139 T01800150 IEM_DS3505
ZGGG,2006-03-20 18:00,ZGGG 201800Z AUTO 09002KT 2SM 18/16 A2988 RMK SLP130 T01810157 57019 IEM_DS3505
ZGGG,2006-03-20 19:00,ZGGG 201900Z AUTO 1 1/2SM 18/16 A2988 RMK SLP129 T01800160 IEM_DS3505
ZGGG,2006-03-20 20:00,ZGGG 202000Z AUTO 00000KT 1 1/4SM 18/16 A2985 RMK SLP118 T01800160 IEM_DS3505
ZGGG,2006-03-20 21:00,ZGGG 202100Z AUTO 07002KT 2SM 18/16 A2985 RMK 70011 SLP118 T01810159 57012 IEM_DS3505
ZGGG,2006-03-20 22:00,ZGGG 202200Z AUTO 00000KT 1 1/4SM 18/16 A2985 RMK SLP118 T01800160 IEM_DS3505
ZGGG,2006-03-20 23:00,ZGGG 202300Z AUTO 00000KT 1 1/4SM 18/16 A2988 RMK SLP129 T01800160 IEM_DS3505
ZGGG,2006-03-21 00:00,ZGGG 210000Z AUTO 09002KT 1 1/2SM 18/16 A2988 RMK 60000 70009 SLP131 T01840164 52013 IEM_DS3505
ZGGG,2006-03-21 01:00,ZGGG 210100Z AUTO 00000KT 1SM 19/16 A2988 RMK SLP128 T01900160 IEM_DS3505
ZGGG,2006-03-21 02:00,ZGGG 210200Z AUTO 05002KT 1 1/4SM 19/16 A2991 RMK SLP138 T01900160 IEM_DS3505
ZGGG,2006-03-21 03:00,ZGGG 210300Z AUTO 11002KT 1 1/4SM 20/17 A2991 RMK SLP135 T01990171 52004 IEM_DS3505
ZGGG,2006-03-21 04:00,ZGGG 210400Z AUTO 1SM 20/17 A2988 RMK SLP128 T02000170 IEM_DS3505
ZGGG,2006-03-21 05:00,ZGGG 210500Z AUTO 1SM 20/17 A2985 RMK T02000170 IEM_DS3505
ZGGG,2006-03-21 06:00,ZGGG 210600Z AUTO 16002KT 1 1/2SM 21/18 A2983 RMK SLP105 T02120178 57030 IEM_DS3505
ZGGG,2006-03-21 07:00,ZGGG 210700Z AUTO 00000KT 1SM 21/17 A2980 RMK SLP101 T02100170 IEM_DS3505
ZGGG,2006-03-21 08:00,ZGGG 210800Z AUTO 00000KT 1SM 21/18 A2977 RMK T02100180 IEM_DS3505
ZGGG,2006-03-21 09:00,ZGGG 210900Z AUTO 14004KT 2SM 22/19 A2977 RMK SLP087 T02230189 57018 IEM_DS3505
ZGGG,2006-03-21 10:00,ZGGG 211000Z AUTO 05002KT 1SM 21/18 A2977 RMK SLP091 T02100180 IEM_DS3505
ZGGG,2006-03-21 11:00,ZGGG 211100Z AUTO 11004KT 1SM 21/18 A2977 RMK SLP091 T02100180 IEM_DS3505
ZGGG,2006-03-21 12:00,ZGGG 211200Z AUTO 09002KT 1 1/2SM 22/20 A2980 RMK 60000 SLP094 T02150198 52007 IEM_DS3505
ZGGG,2006-03-21 13:00,ZGGG 211300Z AUTO 1SM 21/18 A2980 RMK SLP101 T02100180 IEM_DS3505
ZGGG,2006-03-21 14:00,ZGGG 211400Z AUTO 1SM 21/19 A2980 RMK SLP101 T02100190 IEM_DS3505
ZGGG,2006-03-21 15:00,ZGGG 211500Z AUTO 09002KT 1SM 22/20 A2980 RMK SLP104 T02150198 52010 IEM_DS3505
ZGGG,2006-03-21 16:00,ZGGG 211600Z AUTO 1SM 21/19 A2983 RMK SLP112 T02100190 IEM_DS3505
ZGGG,2006-03-21 17:00,ZGGG 211700Z AUTO 1 1/4SM 21/19 A2980 RMK SLP101 T02100190 IEM_DS3505
ZGGG,2006-03-21 18:00,ZGGG 211800Z AUTO 14002KT 1SM 21/20 A2980 RMK 60002 SLP097 T02140202 57007 IEM_DS3505
ZGGG,2006-03-21 19:00,ZGGG 211900Z AUTO 09004KT 1 1/4SM 21/19 A2977 RMK SLP091 T02100190 IEM_DS3505
ZGGG,2006-03-21 20:00,ZGGG 212000Z AUTO 1 1/4SM 21/19 A2977 RMK SLP091 T02100190 IEM_DS3505
ZGGG,2006-03-21 21:00,ZGGG 212100Z AUTO 11002KT 1SM 21/20 A2977 RMK 70002 SLP094 T02110199 57003 IEM_DS3505
ZGGG,2006-03-21 22:00,ZGGG 212200Z AUTO 10004KT 1SM 21/19 A2980 RMK SLP101 T02100190 IEM_DS3505
ZGGG,2006-03-21 23:00,ZGGG 212300Z AUTO 09002KT 1SM 21/19 A2980 RMK SLP101 T02100190 IEM_DS3505
ZGGG,2006-03-22 00:00,ZGGG 220000Z AUTO 09002KT 1SM 21/20 A2983 RMK 60000 70002 SLP110 T02120200 52016 IEM_DS3505
ZGGG,2006-03-22 01:00,ZGGG 220100Z AUTO 1SM 22/20 A2983 RMK SLP112 T02200200 IEM_DS3505
ZGGG,2006-03-22 02:00,ZGGG 220200Z AUTO 1SM 23/20 A2983 RMK SLP112 T02300200 IEM_DS3505
ZGGG,2006-03-22 03:00,ZGGG 220300Z AUTO 18002KT 1SM 22/20 A2983 RMK SLP111 T02190204 52001 IEM_DS3505
ZGGG,2006-03-22 04:00,ZGGG 220400Z AUTO 12004KT 1SM 22/20 A2980 RMK T02200200 IEM_DS3505
ZGGG,2006-03-22 05:00,ZGGG 220500Z AUTO 13004KT 1SM 23/21 A2977 RMK SLP091 T02300210 IEM_DS3505
ZGGG,2006-03-22 06:00,ZGGG 220600Z AUTO 14004KT 1 1/4SM 22/21 A2977 RMK 60035 SLP086 T02220207 57025 IEM_DS3505
ZGGG,2006-03-22 07:00,ZGGG 220700Z AUTO 14008KT 2 1/2SM 24/20 A2974 RMK SLP080 T02400200 IEM_DS3505
ZGGG,2006-03-22 08:00,ZGGG 220800Z AUTO 16004KT 2 1/2SM 25/20 A2971 RMK SLP070 T02500200 IEM_DS3505
ZGGG,2006-03-22 09:00,ZGGG 220900Z AUTO 14002KT 1 1/2SM 23/21 A2971 RMK SLP077 T02320209 57009 IEM_DS3505
ZGGG,2006-03-22 10:00,ZGGG 221000Z AUTO 08002KT 2SM 23/20 A2974 RMK SLP081 T02300200 IEM_DS3505
ZGGG,2006-03-22 11:00,ZGGG 221100Z AUTO 14004KT 2 1/2SM 23/20 A2974 RMK SLP081 T02300200 IEM_DS3505
ZGGG,2006-03-22 12:00,ZGGG 221200Z AUTO 14004KT 2SM 23/21 A2974 RMK SLP086 T02260207 52009 IEM_DS3505
ZGGG,2006-03-22 13:00,ZGGG 221300Z AUTO 04002KT 2SM 23/20 A2977 RMK SLP091 T02300200 IEM_DS3505
ZGGG,2006-03-22 14:00,ZGGG 221400Z AUTO 03004KT 1 1/4SM 22/20 A2977 RMK T02200200 IEM_DS3505
ZGGG,2006-03-22 15:00,ZGGG 221500Z AUTO 11002KT 2 1/2SM 22/21 A2980 RMK SLP097 T02240210 52011 IEM_DS3505
ZGGG,2006-03-22 16:00,ZGGG 221600Z AUTO 1 1/4SM 22/20 A2980 RMK SLP101 T02200200 IEM_DS3505
ZGGG,2006-03-22 17:00,ZGGG 221700Z AUTO 05002KT 1 1/4SM 22/20 A2980 RMK SLP101 T02200200 IEM_DS3505
ZGGG,2006-03-22 18:00,ZGGG 221800Z AUTO 36002KT 2SM 22/21 A2977 RMK SLP087 T02200208 57010 IEM_DS3505
ZGGG,2006-03-22 19:00,ZGGG 221900Z AUTO 1 1/4SM 22/20 A2974 RMK SLP081 T02200200 IEM_DS3505
ZGGG,2006-03-22 20:00,ZGGG 222000Z AUTO 1 1/4SM 22/20 A2974 RMK SLP081 T02200200 IEM_DS3505
ZGGG,2006-03-22 21:00,ZGGG 222100Z AUTO 14002KT 1 1/4SM 22/21 A2974 RMK 70035 SLP072 T02210209 57014 IEM_DS3505
ZGGG,2006-03-22 22:00,ZGGG 222200Z AUTO 3SM 21/19 A2971 RMK SLP071 T02100190 IEM_DS3505
ZGGG,2006-03-22 23:00,ZGGG 222300Z AUTO 35006KT 4SM 20/18 A2977 RMK SLP091 T02000180 IEM_DS3505
ZGGG,2006-03-23 00:00,ZGGG 230000Z AUTO 02004KT 2 1/2SM 20/19 A2977 RMK 60039 70074 SLP094 T02000187 52021 IEM_DS3505
ZGGG,2006-03-23 01:00,ZGGG 230100Z AUTO 36006KT 5SM 20/18 A2980 RMK SLP101 T02000180 IEM_DS3505
ZGGG,2006-03-23 02:00,ZGGG 230200Z AUTO 36006KT 1SM 19/17 A2983 RMK SLP112 T01900170 IEM_DS3505
ZGGG,2006-03-23 03:00,ZGGG 230300Z AUTO 34006KT 5SM 20/18 A2983 RMK SLP107 T02000185 52013 IEM_DS3505
ZGGG,2006-03-23 04:00,ZGGG 230400Z AUTO 35008KT 5SM 18/16 A2983 RMK SLP112 T01800160 IEM_DS3505
ZGGG,2006-03-23 05:00,ZGGG 230500Z AUTO 34004KT 7SM 19/16 A2983 RMK SLP112 T01900160 IEM_DS3505
ZGGG,2006-03-23 06:00,ZGGG 230600Z AUTO 36004KT 9SM 19/17 A2980 RMK 60063 SLP088 T01860173 57019 IEM_DS3505
ZGGG,2006-03-23 07:00,ZGGG 230700Z AUTO 06006KT 7SM 19/15 A2977 RMK SLP091 T01900150 IEM_DS3505
ZGGG,2006-03-23 08:00,ZGGG 230800Z AUTO 08006KT 7SM 19/15 A2977 RMK SLP091 T01900150 IEM_DS3505
ZGGG,2006-03-23 09:00,ZGGG 230900Z AUTO 36004KT 9SM 19/17 A2977 RMK SLP087 T01900171 57001 IEM_DS3505
ZGGG,2006-03-23 10:00,ZGGG 231000Z AUTO 06004KT 7SM 19/15 A2977 RMK SLP091 T01900150 IEM_DS3505
ZGGG,2006-03-23 11:00,ZGGG 231100Z AUTO 4SM 18/15 A2980 RMK SLP101 T01800150 IEM_DS3505
ZGGG,2006-03-23 12:00,ZGGG 231200Z AUTO 36002KT 3SM 18/16 A2980 RMK 60004 SLP103 T01760165 52016 IEM_DS3505
ZGGG,2006-03-23 13:00,ZGGG 231300Z AUTO 7SM 18/16 A2983 RMK SLP112 T01800160 IEM_DS3505
ZGGG,2006-03-23 14:00,ZGGG 231400Z AUTO 01006KT 5SM 18/15 A2985 RMK SLP118 T01800150 IEM_DS3505
ZGGG,2006-03-23 15:00,ZGGG 231500Z AUTO 02002KT 7SM 18/16 A2985 RMK SLP119 T01760158 52016 IEM_DS3505
ZGGG,2006-03-23 16:00,ZGGG 231600Z AUTO 35006KT 4SM 18/15 A2988 RMK SLP129 T01800150 IEM_DS3505
ZGGG,2006-03-23 17:00,ZGGG 231700Z AUTO 01006KT 5SM 17/14 A2988 RMK SLP129 T01700140 IEM_DS3505
ZGGG,2006-03-23 18:00,ZGGG 231800Z AUTO 36004KT 6SM 17/15 A2988 RMK 60001 SLP120 T01670152 52001 IEM_DS3505
ZGGG,2006-03-23 19:00,ZGGG 231900Z AUTO 01006KT 6SM 17/13 A2985 RMK SLP118 T01700130 IEM_DS3505
ZGGG,2006-03-23 20:00,ZGGG 232000Z AUTO 03004KT 7SM 17/13 A2985 RMK SLP118 T01700130 IEM_DS3505
ZGGG,2006-03-23 21:00,ZGGG 232100Z AUTO 36002KT 7SM 16/14 A2985 RMK 70109 SLP120 T01640142 54000 IEM_DS3505
ZGGG,2006-03-23 22:00,ZGGG 232200Z AUTO 02004KT 7SM 17/13 A2988 RMK SLP129 T01700130 IEM_DS3505
ZGGG,2006-03-23 23:00,ZGGG 232300Z AUTO 4SM 16/13 A2991 RMK SLP139 T01600130 IEM_DS3505
ZGGG,2006-03-24 00:00,ZGGG 240000Z AUTO 29002KT 9SM 16/14 A2991 RMK 60000 70070 SLP144 T01620140 52023 IEM_DS3505
ZGGG,2006-03-24 01:00,ZGGG 240100Z AUTO 01004KT 4SM 17/13 A2994 RMK SLP149 T01700130 IEM_DS3505
ZGGG,2006-03-24 02:00,ZGGG 240200Z AUTO 32006KT 2 1/2SM 16/12 A2997 RMK SLP159 T01600120 IEM_DS3505
ZGGG,2006-03-24 03:00,ZGGG 240300Z AUTO 34004KT 6SM 16/14 A2994 RMK SLP158 T01570142 52014 IEM_DS3505
ZGGG,2006-03-24 04:00,ZGGG 240400Z AUTO 4SM 16/13 A2997 RMK SLP159 T01600130 IEM_DS3505
ZGGG,2006-03-24 05:00,ZGGG 240500Z AUTO 4SM 16/13 A2994 RMK SLP149 T01600130 IEM_DS3505
ZGGG,2006-03-24 06:00,ZGGG 240600Z AUTO 02002KT 7SM 16/14 A2991 RMK 60024 SLP137 T01650145 57021 IEM_DS3505
ZGGG,2006-03-24 07:00,ZGGG 240700Z AUTO 34004KT 3SM 16/13 A2988 RMK SLP129 T01600130 IEM_DS3505
ZGGG,2006-03-24 08:00,ZGGG 240800Z AUTO 07004KT 4SM 17/13 A2985 RMK SLP118 T01700130 IEM_DS3505
ZGGG,2006-03-24 09:00,ZGGG 240900Z AUTO 02002KT 7SM 17/15 A2988 RMK SLP126 T01690151 57011 IEM_DS3505
ZGGG,2006-03-24 10:00,ZGGG 241000Z AUTO 4SM 17/14 A2988 RMK SLP129 T01700140 IEM_DS3505
ZGGG,2006-03-24 11:00,ZGGG 241100Z AUTO 03004KT 3SM 17/14 A2991 RMK SLP139 T01700140 IEM_DS3505
ZGGG,2006-03-24 12:00,ZGGG 241200Z AUTO 36002KT 9SM 17/15 A2994 RMK 60004 SLP146 T01670147 52020 IEM_DS3505
ZGGG,2006-03-24 13:00,ZGGG 241300Z AUTO 2 1/2SM 16/14 A2994 RMK SLP149 T01600140 IEM_DS3505
ZGGG,2006-03-24 14:00,ZGGG 241400Z AUTO 02004KT 1 1/2SM 16/14 A2997 RMK SLP159 T01600140 IEM_DS3505
ZGGG,2006-03-24 15:00,ZGGG 241500Z AUTO 04002KT 6SM 16/15 A3000 RMK SLP165 T01630150 52019 IEM_DS3505
ZGGG,2006-03-24 16:00,ZGGG 241600Z AUTO 10004KT 2 1/2SM 16/14 A2997 RMK SLP159 T01600140 IEM_DS3505
ZGGG,2006-03-24 17:00,ZGGG 241700Z AUTO 3SM 16/14 A2997 RMK SLP159 T01600140 IEM_DS3505
ZGGG,2006-03-24 18:00,ZGGG 241800Z AUTO 04002KT 10SM 16/15 A2994 RMK 60000 SLP149 T01650149 57016 IEM_DS3505
ZGGG,2006-03-24 19:00,ZGGG 241900Z AUTO 3SM 16/14 A2991 RMK SLP139 T01600140 IEM_DS3505
ZGGG,2006-03-24 20:00,ZGGG 242000Z AUTO 3SM 16/13 A2991 RMK SLP139 T01600130 IEM_DS3505
ZGGG,2006-03-24 21:00,ZGGG 242100Z AUTO 04002KT 6SM 16/15 A2991 RMK 70032 SLP138 T01580147 57011 IEM_DS3505
ZGGG,2006-03-24 22:00,ZGGG 242200Z AUTO 36004KT 1 1/4SM 15/13 A2994 RMK SLP149 T01500130 IEM_DS3505
ZGGG,2006-03-24 23:00,ZGGG 242300Z AUTO 03006KT 2SM 15/13 A2997 RMK SLP159 T01500130 IEM_DS3505
ZGGG,2006-03-25 00:00,ZGGG 250000Z AUTO 04002KT 8SM 16/15 A2994 RMK 60016 70044 SLP157 T01570146 52019 IEM_DS3505
ZGGG,2006-03-25 01:00,ZGGG 250100Z AUTO 10004KT 3SM 16/13 A2994 RMK SLP149 T01600130 IEM_DS3505
ZGGG,2006-03-25 02:00,ZGGG 250200Z AUTO 36004KT 2 1/2SM 16/14 A3000 RMK SLP169 T01600140 IEM_DS3505
ZGGG,2006-03-25 03:00,ZGGG 250300Z AUTO 36002KT 2SM 16/15 A3000 RMK SLP172 T01630150 52015 IEM_DS3505
ZGGG,2006-03-25 04:00,ZGGG 250400Z AUTO 08004KT 2 1/2SM 17/15 A2997 RMK SLP159 T01700150 IEM_DS3505
ZGGG,2006-03-25 05:00,ZGGG 250500Z AUTO 4SM 17/15 A2994 RMK SLP149 T01700150 IEM_DS3505
ZGGG,2006-03-25 06:00,ZGGG 250600Z AUTO 00000KT 7SM 18/16 A2991 RMK 60012 SLP143 T01780158 57029 IEM_DS3505
ZGGG,2006-03-25 07:00,ZGGG 250700Z AUTO 7SM 19/15 A2988 RMK SLP128 T01900150 IEM_DS3505
ZGGG,2006-03-25 08:00,ZGGG 250800Z AUTO 7SM 19/15 A2988 RMK SLP128 T01900150 IEM_DS3505
ZGGG,2006-03-25 09:00,ZGGG 250900Z AUTO 14002KT 7SM 18/16 A2988 RMK SLP124 T01830157 57019 IEM_DS3505
ZGGG,2006-03-25 10:00,ZGGG 251000Z AUTO 00000KT 2SM 18/15 A2988 RMK SLP129 T01800150 IEM_DS3505
ZGGG,2006-03-25 11:00,ZGGG 251100Z AUTO 06004KT 2 1/2SM 17/15 A2988 RMK SLP129 T01700150 IEM_DS3505
ZGGG,2006-03-25 12:00,ZGGG 251200Z AUTO 34002KT 7SM 17/16 A2988 RMK 60002 SLP133 T01710160 52009 IEM_DS3505
ZGGG,2006-03-25 13:00,ZGGG 251300Z AUTO 00000KT 2SM 17/15 A2991 RMK SLP139 T01700150 IEM_DS3505
ZGGG,2006-03-25 14:00,ZGGG 251400Z AUTO 33008KT 1 1/4SM 17/15 A2994 RMK SLP149 T01700150 IEM_DS3505
ZGGG,2006-03-25 15:00,ZGGG 251500Z AUTO 36002KT 6SM 17/16 A2994 RMK SLP152 T01690159 52019 IEM_DS3505
ZGGG,2006-03-25 16:00,ZGGG 251600Z AUTO 02004KT 3SM 16/14 A2994 RMK SLP149 T01600140 IEM_DS3505
ZGGG,2006-03-25 17:00,ZGGG 251700Z AUTO 00000KT 3SM 17/15 A2994 RMK SLP149 T01700150 IEM_DS3505
ZGGG,2006-03-25 18:00,ZGGG 251800Z AUTO 16002KT 7SM 17/16 A2991 RMK 60028 SLP141 T01670157 57011 IEM_DS3505
ZGGG,2006-03-25 19:00,ZGGG 251900Z AUTO 1 1/4SM 17/15 A2994 RMK SLP149 T01700150 IEM_DS3505
ZGGG,2006-03-25 20:00,ZGGG 252000Z AUTO 35002KT 2 1/2SM 16/15 A2991 RMK SLP139 T01600150 IEM_DS3505
ZGGG,2006-03-25 21:00,ZGGG 252100Z AUTO 34002KT 6SM 17/16 A2991 RMK 70094 SLP134 T01660158 57007 IEM_DS3505
ZGGG,2006-03-25 22:00,ZGGG 252200Z AUTO 2 1/2SM 17/15 A2991 RMK SLP139 T01700150 IEM_DS3505
ZGGG,2006-03-25 23:00,ZGGG 252300Z AUTO 1 1/2SM 17/15 A2991 RMK SLP139 T01700150 IEM_DS3505
ZGGG,2006-03-26 00:00,ZGGG 260000Z AUTO 32002KT 4SM 17/16 A2994 RMK 60043 70083 SLP150 T01700162 52016 IEM_DS3505
ZGGG,2006-03-26 01:00,ZGGG 260100Z AUTO 00000KT 2SM 17/15 A2994 RMK SLP149 T01700150 IEM_DS3505
ZGGG,2006-03-26 02:00,ZGGG 260200Z AUTO 3SM 17/15 A2994 RMK SLP149 T01700150 IEM_DS3505
ZGGG,2006-03-26 03:00,ZGGG 260300Z AUTO 02002KT 7SM 18/17 A2994 RMK SLP146 T01830168 57004 IEM_DS3505
ZGGG,2006-03-26 04:00,ZGGG 260400Z AUTO 2SM 18/15 A2991 RMK SLP139 T01800150 IEM_DS3505
ZGGG,2006-03-26 05:00,ZGGG 260500Z AUTO 34006KT 3SM 17/15 A2988 RMK SLP129 T01700150 IEM_DS3505
ZGGG,2006-03-26 06:00,ZGGG 260600Z AUTO 29002KT 4SM 18/16 A2985 RMK 60004 SLP121 T01780165 57025 IEM_DS3505
ZGGG,2006-03-26 07:00,ZGGG 260700Z AUTO 4SM 18/15 A2983 RMK SLP112 T01800150 IEM_DS3505
ZGGG,2006-03-26 08:00,ZGGG 260800Z AUTO 3SM 17/15 A2983 RMK SLP113 T01700150 IEM_DS3505
ZGGG,2006-03-26 09:00,ZGGG 260900Z AUTO 34002KT 5SM 18/16 A2983 RMK SLP106 T01800163 57014 IEM_DS3505
ZGGG,2006-03-26 10:00,ZGGG 261000Z AUTO 33008KT 1 1/2SM 17/14 A2983 RMK SLP113 T01700140 IEM_DS3505
ZGGG,2006-03-26 11:00,ZGGG 261100Z AUTO 34004KT 1 1/4SM 16/14 A2985 RMK SLP118 T01600140 IEM_DS3505
ZGGG,2006-03-26 12:00,ZGGG 261200Z AUTO 00000KT 2SM 17/16 A2985 RMK 60001 SLP120 T01670157 52013 IEM_DS3505
ZGGG,2006-03-26 13:00,ZGGG 261300Z AUTO 1 1/2SM 17/15 A2988 RMK SLP129 T01700150 IEM_DS3505
ZGGG,2006-03-26 14:00,ZGGG 261400Z AUTO 1 1/2SM 16/15 A2988 RMK SLP129 T01600150 IEM_DS3505
ZGGG,2006-03-26 15:00,ZGGG 261500Z AUTO 32002KT 1 1/2SM 16/16 A2991 RMK SLP136 T01650155 52016 IEM_DS3505
ZGGG,2006-03-26 16:00,ZGGG 261600Z AUTO 01004KT 2 1/2SM 16/15 A2988 RMK SLP129 T01600150 IEM_DS3505
ZGGG,2006-03-26 17:00,ZGGG 261700Z AUTO 00000KT 2SM 16/15 A2988 RMK SLP129 T01600150 IEM_DS3505
ZGGG,2006-03-26 18:00,ZGGG 261800Z AUTO 32002KT 1 1/4SM 16/16 A2985 RMK 60004 SLP120 T01630155 57016 IEM_DS3505
ZGGG,2006-03-26 19:00,ZGGG 261900Z AUTO 2SM 16/15 A2985 RMK SLP118 T01600150 IEM_DS3505
ZGGG,2006-03-26 20:00,ZGGG 262000Z AUTO 2SM 16/14 A2983 RMK SLP113 T01600140 IEM_DS3505
ZGGG,2006-03-26 21:00,ZGGG 262100Z AUTO 34002KT 2 1/2SM 16/15 A2985 RMK 70013 SLP113 T01610153 57007 IEM_DS3505
ZGGG,2006-03-26 22:00,ZGGG 262200Z AUTO 3SM 16/14 A2985 RMK SLP118 T01600140 IEM_DS3505
ZGGG,2006-03-26 23:00,ZGGG 262300Z AUTO 06004KT 4SM 16/14 A2985 RMK SLP118 T01600140 IEM_DS3505
ZGGG,2006-03-27 00:00,ZGGG 270000Z AUTO 32002KT 1SM 16/16 A2988 RMK 60003 70013 SLP130 T01650157 52017 IEM_DS3505
ZGGG,2006-03-27 01:00,ZGGG 270100Z AUTO 32006KT 1 1/4SM 16/14 A2991 RMK SLP139 T01600140 IEM_DS3505
ZGGG,2006-03-27 02:00,ZGGG 270200Z AUTO 36004KT 1 1/4SM 16/15 A2991 RMK SLP139 T01600150 IEM_DS3505
ZGGG,2006-03-27 03:00,ZGGG 270300Z AUTO 34002KT 4SM 17/16 A2991 RMK SLP135 T01660158 52005 IEM_DS3505
ZGGG,2006-03-27 04:00,ZGGG 270400Z AUTO 33004KT 4SM 17/15 A2988 RMK SLP129 T01700150 IEM_DS3505
ZGGG,2006-03-27 05:00,ZGGG 270500Z AUTO 34008KT 2SM 16/14 A2988 RMK SLP129 T01600140 IEM_DS3505
ZGGG,2006-03-27 06:00,ZGGG 270600Z AUTO 36004KT 4SM 17/16 A2985 RMK 60008 SLP115 T01670157 57020 IEM_DS3505
ZGGG,2006-03-27 07:00,ZGGG 270700Z AUTO 4SM 17/15 A2980 RMK SLP102 T01700150 IEM_DS3505
ZGGG,2006-03-27 08:00,ZGGG 270800Z AUTO 34004KT 7SM 17/15 A2983 RMK SLP113 T01700150 IEM_DS3505
ZGGG,2006-03-27 09:00,ZGGG 270900Z AUTO 34002KT 3SM 17/16 A2983 RMK SLP108 T01680155 57007 IEM_DS3505
ZGGG,2006-03-27 10:00,ZGGG 271000Z AUTO 36008KT 5SM 18/14 A2983 RMK SLP112 T01800140 IEM_DS3505
ZGGG,2006-03-27 11:00,ZGGG 271100Z AUTO 35006KT 5SM 17/14 A2985 RMK SLP118 T01700140 IEM_DS3505
ZGGG,2006-03-27 12:00,ZGGG 271200Z AUTO 34002KT 5SM 17/15 A2988 RMK 60003 SLP130 T01690149 52022 IEM_DS3505
ZGGG,2006-03-27 13:00,ZGGG 271300Z AUTO 33008KT 5SM 17/14 A2991 RMK SLP139 T01700140 IEM_DS3505
ZGGG,2006-03-27 14:00,ZGGG 271400Z AUTO 34006KT 4SM 16/13 A2994 RMK SLP149 T01600130 IEM_DS3505
ZGGG,2006-03-27 15:00,ZGGG 271500Z AUTO 32002KT 11SM 16/14 A2994 RMK SLP153 T01590141 52023 IEM_DS3505
ZGGG,2006-03-27 16:00,ZGGG 271600Z AUTO 33006KT 4SM 16/13 A2994 RMK SLP149 T01600130 IEM_DS3505
ZGGG,2006-03-27 17:00,ZGGG 271700Z AUTO 4SM 14/12 A2994 RMK SLP149 T01400120 IEM_DS3505
ZGGG,2006-03-27 18:00,ZGGG 271800Z AUTO 29002KT 11SM 15/13 A2991 RMK SLP143 T01500134 57010 IEM_DS3505
ZGGG,2006-03-27 19:00,ZGGG 271900Z AUTO 33008KT 4SM 15/12 A2991 RMK SLP139 T01500120 IEM_DS3505
ZGGG,2006-03-27 20:00,ZGGG 272000Z AUTO 32010KT 4SM 15/12 A2991 RMK SLP139 T01500120 IEM_DS3505
ZGGG,2006-03-27 21:00,ZGGG 272100Z AUTO 29004KT 9SM 14/13 A2991 RMK 70011 SLP143 T01450129 54000 IEM_DS3505
ZGGG,2006-03-27 22:00,ZGGG 272200Z AUTO 34006KT 4SM 14/12 A2994 RMK SLP149 T01400120 IEM_DS3505
ZGGG,2006-03-27 23:00,ZGGG 272300Z AUTO 34006KT 4SM 14/12 A2997 RMK SLP159 T01400120 IEM_DS3505
ZGGG,2006-03-28 00:00,ZGGG 280000Z AUTO 32002KT 12SM 16/13 A3000 RMK 70011 SLP171 T01580129 52028 IEM_DS3505
ZGGG,2006-03-28 01:00,ZGGG 280100Z AUTO 36008KT 5SM 18/12 A3003 RMK SLP179 T01800120 IEM_DS3505
ZGGG,2006-03-28 02:00,ZGGG 280200Z AUTO 02012KT 6SM 19/11 A3003 RMK SLP179 T01900110 IEM_DS3505
ZGGG,2006-03-28 03:00,ZGGG 280300Z AUTO 04004KT 10SM 22/12 A3003 RMK SLP176 T02160122 52005 IEM_DS3505
ZGGG,2006-03-28 04:00,ZGGG 280400Z AUTO 36006KT 6SM 23/11 A3000 RMK SLP168 T02300110 IEM_DS3505
ZGGG,2006-03-28 05:00,ZGGG 280500Z AUTO 02006KT 6SM 24/10 A2997 RMK SLP158 T02400100 IEM_DS3505
ZGGG,2006-03-28 06:00,ZGGG 280600Z AUTO 07004KT 11SM 26/09 A2994 RMK SLP150 T02580088 57025 IEM_DS3505
ZGGG,2006-03-28 07:00,ZGGG 280700Z AUTO 6SM 26/08 A2991 RMK SLP137 T02600080 IEM_DS3505
ZGGG,2006-03-28 08:00,ZGGG 280800Z AUTO 6SM 27/08 A2991 RMK SLP137 T02700080 IEM_DS3505
ZGGG,2006-03-28 09:00,ZGGG 280900Z AUTO 09004KT 11SM 27/06 A2991 RMK SLP136 T02660055 57014 IEM_DS3505
ZGGG,2006-03-28 10:00,ZGGG 281000Z AUTO 10004KT 6SM 25/07 A2991 RMK SLP137 T02500070 IEM_DS3505
ZGGG,2006-03-28 11:00,ZGGG 281100Z AUTO 07002KT 6SM 23/09 A2994 RMK SLP148 T02300090 IEM_DS3505
ZGGG,2006-03-28 12:00,ZGGG 281200Z AUTO 07002KT 9SM 19/13 A2994 RMK SLP155 T01920127 52018 IEM_DS3505
ZGGG,2006-03-28 13:00,ZGGG 281300Z AUTO 02004KT 4SM 20/12 A2997 RMK SLP158 T02000120 IEM_DS3505
ZGGG,2006-03-28 14:00,ZGGG 281400Z AUTO 3SM 18/12 A3000 RMK SLP169 T01800120 IEM_DS3505
ZGGG,2006-03-28 15:00,ZGGG 281500Z AUTO 07002KT 9SM 17/14 A3000 RMK SLP171 T01710136 52017 IEM_DS3505
ZGGG,2006-03-28 16:00,ZGGG 281600Z AUTO 09002KT 4SM 17/13 A3000 RMK SLP169 T01700130 IEM_DS3505
ZGGG,2006-03-28 17:00,ZGGG 281700Z AUTO 08004KT 3SM 17/11 A3003 RMK SLP179 T01700110 IEM_DS3505
ZGGG,2006-03-28 18:00,ZGGG 281800Z AUTO 07002KT 8SM 16/14 A3000 RMK SLP171 T01630140 54000 IEM_DS3505
ZGGG,2006-03-28 19:00,ZGGG 281900Z AUTO 3SM 15/11 A3000 RMK SLP169 T01500110 IEM_DS3505
ZGGG,2006-03-28 20:00,ZGGG 282000Z AUTO 4SM 15/11 A3000 RMK SLP169 T01500110 IEM_DS3505
ZGGG,2006-03-28 21:00,ZGGG 282100Z AUTO 07002KT 6SM 15/14 A3000 RMK SLP167 T01520141 57004 IEM_DS3505
ZGGG,2006-03-28 22:00,ZGGG 282200Z AUTO 3SM 15/11 A3000 RMK SLP169 T01500110 IEM_DS3505
ZGGG,2006-03-28 23:00,ZGGG 282300Z AUTO 07004KT 3SM 14/11 A3003 RMK SLP180 T01400110 IEM_DS3505
ZGGG,2006-03-29 00:00,ZGGG 290000Z AUTO 09002KT 5SM 18/15 A3006 RMK SLP187 T01750151 52019 IEM_DS3505
ZGGG,2006-03-29 01:00,ZGGG 290100Z AUTO 08004KT 4SM 18/11 A3006 RMK SLP190 T01800110 IEM_DS3505
ZGGG,2006-03-29 02:00,ZGGG 290200Z AUTO 07004KT 5SM 21/12 A3009 RMK SLP199 T02100120 IEM_DS3505
ZGGG,2006-03-29 03:00,ZGGG 290300Z AUTO 04004KT 16SM 24/10 A3006 RMK SLP185 T02420105 57001 IEM_DS3505
ZGGG,2006-03-29 04:00,ZGGG 290400Z AUTO 10004KT 7SM 25/10 A3003 RMK SLP178 T02500100 IEM_DS3505
ZGGG,2006-03-29 05:00,ZGGG 290500Z AUTO 6SM 25/08 A3000 RMK SLP168 T02500080 IEM_DS3505
ZGGG,2006-03-29 06:00,ZGGG 290600Z AUTO 20004KT 14SM 26/07 A2997 RMK SLP159 T02620068 57026 IEM_DS3505
ZGGG,2006-03-29 07:00,ZGGG 290700Z AUTO 6SM 27/06 A2994 RMK SLP147 T02700060 IEM_DS3505
ZGGG,2006-03-29 08:00,ZGGG 290800Z AUTO 10004KT 6SM 27/06 A2991 RMK SLP137 T02700060 IEM_DS3505
ZGGG,2006-03-29 09:00,ZGGG 290900Z AUTO 18002KT 11SM 26/08 A2991 RMK SLP139 T02600080 57020 IEM_DS3505
ZGGG,2006-03-29 10:00,ZGGG 291000Z AUTO 09004KT 5SM 25/08 A2991 RMK SLP137 T02500080 IEM_DS3505
ZGGG,2006-03-29 11:00,ZGGG 291100Z AUTO 4SM 23/10 A2994 RMK SLP148 T02300100 IEM_DS3505
ZGGG,2006-03-29 12:00,ZGGG 291200Z AUTO 14002KT 9SM 22/11 A2994 RMK SLP156 T02210112 52017 IEM_DS3505
ZGGG,2006-03-29 13:00,ZGGG 291300Z AUTO 16004KT 4SM 22/12 A2997 RMK SLP158 T02200120 IEM_DS3505
ZGGG,2006-03-29 14:00,ZGGG 291400Z AUTO 16004KT 4SM 21/12 A3000 RMK SLP168 T02100120 IEM_DS3505
ZGGG,2006-03-29 15:00,ZGGG 291500Z AUTO 00000KT 9SM 20/13 A3000 RMK SLP172 T02000132 52016 IEM_DS3505
ZGGG,2006-03-29 16:00,ZGGG 291600Z AUTO 00000KT 4SM 19/14 A3000 RMK SLP169 T01900140 IEM_DS3505
ZGGG,2006-03-29 17:00,ZGGG 291700Z AUTO 36002KT 4SM 20/14 A3000 RMK SLP168 T02000140 IEM_DS3505
ZGGG,2006-03-29 18:00,ZGGG 291800Z AUTO 04002KT 9SM 20/14 A3000 RMK SLP165 T01960138 57007 IEM_DS3505
ZGGG,2006-03-29 19:00,ZGGG 291900Z AUTO 10004KT 4SM 19/13 A2997 RMK SLP159 T01900130 IEM_DS3505
ZGGG,2006-03-29 20:00,ZGGG 292000Z AUTO 00000KT 4SM 19/13 A3000 RMK SLP169 T01900130 IEM_DS3505
ZGGG,2006-03-29 21:00,ZGGG 292100Z AUTO 07002KT 8SM 19/13 A3000 RMK SLP170 T01930128 52005 IEM_DS3505
ZGGG,2006-03-29 22:00,ZGGG 292200Z AUTO 4SM 19/14 A3000 RMK SLP169 T01900140 IEM_DS3505
ZGGG,2006-03-29 23:00,ZGGG 292300Z AUTO 2SM 18/14 A3003 RMK SLP179 T01800140 IEM_DS3505
ZGGG,2006-03-30 00:00,ZGGG 300000Z AUTO 09002KT 7SM 20/14 A3006 RMK SLP183 T01950137 52013 IEM_DS3505
ZGGG,2006-03-30 01:00,ZGGG 300100Z AUTO 07004KT 2SM 21/13 A3003 RMK SLP178 T02100130 IEM_DS3505
ZGGG,2006-03-30 02:00,ZGGG 300200Z AUTO 3SM 21/12 A3006 RMK SLP189 T02100120 IEM_DS3505
ZGGG,2006-03-30 03:00,ZGGG 300300Z AUTO 14004KT 6SM 24/15 A3003 RMK SLP178 T02450146 57005 IEM_DS3505
ZGGG,2006-03-30 04:00,ZGGG 300400Z AUTO 04006KT 4SM 24/12 A3003 RMK SLP178 T02400120 IEM_DS3505
ZGGG,2006-03-30 05:00,ZGGG 300500Z AUTO 4SM 25/13 A3000 RMK SLP168 T02500130 IEM_DS3505
ZGGG,2006-03-30 06:00,ZGGG 300600Z AUTO 11004KT 4SM 25/15 A2997 RMK SLP155 T02540154 57023 IEM_DS3505
ZGGG,2006-03-30 07:00,ZGGG 300700Z AUTO 4SM 26/14 A2994 RMK SLP147 T02600140 IEM_DS3505
ZGGG,2006-03-30 08:00,ZGGG 300800Z AUTO 3SM 25/14 A2991 RMK SLP137 T02500140 IEM_DS3505
ZGGG,2006-03-30 09:00,ZGGG 300900Z AUTO 16002KT 4SM 25/17 A2991 RMK SLP139 T02480170 57016 IEM_DS3505
ZGGG,2006-03-30 10:00,ZGGG 301000Z AUTO 12002KT 2 1/2SM 24/16 A2991 RMK SLP138 T02400160 IEM_DS3505
ZGGG,2006-03-30 11:00,ZGGG 301100Z AUTO 15002KT 2SM 24/17 A2994 RMK SLP148 T02400170 IEM_DS3505
ZGGG,2006-03-30 12:00,ZGGG 301200Z AUTO 16004KT 7SM 24/18 A2994 RMK SLP154 T02350182 52015 IEM_DS3505
ZGGG,2006-03-30 13:00,ZGGG 301300Z AUTO 18008KT 2SM 23/18 A2997 RMK SLP158 T02300180 IEM_DS3505
ZGGG,2006-03-30 14:00,ZGGG 301400Z AUTO 09002KT 3SM 23/18 A3000 RMK SLP168 T02300180 IEM_DS3505
ZGGG,2006-03-30 15:00,ZGGG 301500Z AUTO 16002KT 9SM 22/18 A3000 RMK SLP172 T02240180 52018 IEM_DS3505
ZGGG,2006-03-30 16:00,ZGGG 301600Z AUTO 18002KT 3SM 22/18 A3000 RMK SLP168 T02200180 IEM_DS3505
ZGGG,2006-03-30 17:00,ZGGG 301700Z AUTO 00000KT 3SM 21/18 A3000 RMK SLP168 T02100180 IEM_DS3505
ZGGG,2006-03-30 18:00,ZGGG 301800Z AUTO 02002KT 2 1/2SM 21/19 A3000 RMK 60004 SLP167 T02130189 57005 IEM_DS3505
ZGGG,2006-03-30 19:00,ZGGG 301900Z AUTO 1SM 20/18 A2997 RMK T02000180 IEM_DS3505
ZGGG,2006-03-30 20:00,ZGGG 302000Z AUTO 09004KT 1 1/4SM 20/18 A2994 RMK SLP148 T02000180 IEM_DS3505
ZGGG,2006-03-30 21:00,ZGGG 302100Z AUTO 11004KT 3SM 20/18 A2994 RMK 70008 SLP146 T02040183 57021 IEM_DS3505
ZGGG,2006-03-30 22:00,ZGGG 302200Z AUTO 1 1/4SM 20/18 A2994 RMK SLP148 T02000180 IEM_DS3505
ZGGG,2006-03-30 23:00,ZGGG 302300Z AUTO 08004KT 1 1/4SM 20/18 A2994 RMK SLP148 T02000180 IEM_DS3505
ZGGG,2006-03-31 00:00,ZGGG 310000Z AUTO 07002KT 1 1/4SM 20/19 A2997 RMK 60004 70010 SLP159 T02050188 52013 IEM_DS3505
ZGGG,2006-03-31 01:00,ZGGG 310100Z AUTO 07004KT 1SM 20/18 A2997 RMK SLP158 T02000180 IEM_DS3505
ZGGG,2006-03-31 02:00,ZGGG 310200Z AUTO 06004KT 1 1/4SM 21/18 A3000 RMK SLP168 T02100180 IEM_DS3505
ZGGG,2006-03-31 03:00,ZGGG 310300Z AUTO 09002KT 1 1/4SM 22/19 A2997 RMK SLP160 T02200192 52001 IEM_DS3505
ZGGG,2006-03-31 05:00,ZGGG 310500Z AUTO 1 1/4SM 22/19 A2991 RMK SLP138 T02200190 IEM_DS3505
ZGGG,2006-03-31 06:00,ZGGG 310600Z AUTO 11002KT 1 1/4SM 23/20 A2988 RMK 60002 SLP131 T02290197 57029 IEM_DS3505
ZGGG,2006-03-31 07:00,ZGGG 310700Z AUTO 00000KT 1 1/2SM 23/20 A2988 RMK SLP128 T02300200 IEM_DS3505
ZGGG,2006-03-31 08:00,ZGGG 310800Z AUTO 1 1/2SM 23/19 A2985 RMK SLP117 T02300190 IEM_DS3505
ZGGG,2006-03-31 09:00,ZGGG 310900Z AUTO 16002KT 2SM 24/19 A2985 RMK SLP116 T02380189 57015 IEM_DS3505
ZGGG,2006-03-31 10:00,ZGGG 311000Z AUTO 09004KT 1 1/2SM 23/19 A2985 RMK SLP117 T02300190 IEM_DS3505
ZGGG,2006-03-31 11:00,ZGGG 311100Z AUTO 1 1/2SM 23/19 A2985 RMK SLP117 T02300190 IEM_DS3505
ZGGG,2006-03-31 12:00,ZGGG 311200Z AUTO 14002KT 8SM 23/18 A2988 RMK SLP133 T02310180 52017 IEM_DS3505
ZGGG,2006-03-31 13:00,ZGGG 311300Z AUTO 15004KT 3SM 22/18 A2991 RMK SLP138 T02200180 IEM_DS3505
ZGGG,2006-03-31 14:00,ZGGG 311400Z AUTO 14004KT 3SM 23/18 A2991 RMK SLP138 T02300180 IEM_DS3505
ZGGG,2006-03-31 15:00,ZGGG 311500Z AUTO 14004KT 7SM 23/18 A2991 RMK SLP137 T02260182 52004 IEM_DS3505
ZGGG,2006-03-31 16:00,ZGGG 311600Z AUTO 3SM 22/18 A2991 RMK SLP138 T02200180 IEM_DS3505
ZGGG,2006-03-31 17:00,ZGGG 311700Z AUTO 3SM 22/18 A2991 RMK SLP138 T02200180 IEM_DS3505
ZGGG,2006-03-31 18:00,ZGGG 311800Z AUTO 09002KT 7SM 22/18 A2988 RMK SLP131 T02190183 57006 IEM_DS3505
ZGGG,2006-03-31 19:00,ZGGG 311900Z AUTO 09004KT 3SM 21/18 A2988 RMK SLP128 T02100180 IEM_DS3505
ZGGG,2006-03-31 20:00,ZGGG 312000Z AUTO 12004KT 3SM 21/18 A2985 RMK SLP117 T02100180 IEM_DS3505
ZGGG,2006-03-31 21:00,ZGGG 312100Z AUTO 14002KT 8SM 21/18 A2985 RMK 70004 SLP121 T02130185 57010 IEM_DS3505
ZGGG,2006-03-31 22:00,ZGGG 312200Z AUTO 00000KT 2 1/2SM 21/18 A2985 RMK SLP117 T02100180 IEM_DS3505
ZGGG,2006-03-31 23:00,ZGGG 312300Z AUTO 2 1/2SM 21/18 A2988 RMK SLP128 T02100180 IEM_DS3505
ZGGG,2006-04-01 00:00,ZGGG 010000Z AUTO 16002KT 6SM 22/19 A2988 RMK 70002 SLP133 T02200192 52012 IEM_DS3505
ZGGG,2006-04-01 01:00,ZGGG 010100Z AUTO 00000KT 2 1/2SM 23/19 A2991 RMK T02300190 IEM_DS3505
ZGGG,2006-04-01 02:00,ZGGG 010200Z AUTO 2SM 23/19 A2991 RMK T02300190 IEM_DS3505
ZGGG,2006-04-01 03:00,ZGGG 010300Z AUTO 14002KT 5SM 25/20 A2994 RMK SLP142 T02510197 52009 IEM_DS3505
ZGGG,2006-04-01 04:00,ZGGG 010400Z AUTO 36006KT 2SM 23/20 A2991 RMK T02300200 IEM_DS3505
ZGGG,2006-04-01 05:00,ZGGG 010500Z AUTO 2SM 23/20 A2988 RMK T02300200 IEM_DS3505
ZGGG,2006-04-01 06:00,ZGGG 010600Z AUTO 18004KT 4SM 27/20 A2985 RMK SLP113 T02690200 57028 IEM_DS3505
ZGGG,2006-04-01 07:00,ZGGG 010700Z AUTO 21004KT 2 1/2SM 27/20 A2983 RMK T02700200 IEM_DS3505
ZGGG,2006-04-01 08:00,ZGGG 010800Z AUTO 2 1/2SM 27/20 A2980 RMK T02700200 IEM_DS3505
ZGGG,2006-04-01 09:00,ZGGG 010900Z AUTO 14002KT 4SM 27/20 A2980 RMK SLP101 T02680202 57012 IEM_DS3505
ZGGG,2006-04-01 10:00,ZGGG 011000Z AUTO 17002KT 1 1/2SM 26/20 A2980 RMK T02600200 IEM_DS3505
ZGGG,2006-04-01 11:00,ZGGG 011100Z AUTO 33004KT 2SM 26/20 A2980 RMK T02600200 IEM_DS3505
ZGGG,2006-04-01 12:00,ZGGG 011200Z AUTO 09002KT 5SM 25/21 A2983 RMK SLP107 T02490208 52006 IEM_DS3505
ZGGG,2006-04-01 13:00,ZGGG 011300Z AUTO 10004KT 1 1/2SM 24/21 A2983 RMK T02400210 IEM_DS3505
ZGGG,2006-04-01 14:00,ZGGG 011400Z AUTO 2SM 24/21 A2985 RMK T02400210 IEM_DS3505
ZGGG,2006-04-01 15:00,ZGGG 011500Z AUTO 07002KT 7SM 23/21 A2985 RMK SLP123 T02330208 52016 IEM_DS3505
ZGGG,2006-04-01 16:00,ZGGG 011600Z AUTO 1 1/4SM 23/21 A2988 RMK T02300210 IEM_DS3505
ZGGG,2006-04-01 17:00,ZGGG 011700Z AUTO 1 1/4SM 23/21 A2988 RMK T02300210 IEM_DS3505
ZGGG,2006-04-01 18:00,ZGGG 011800Z AUTO 07002KT 4SM 23/21 A2988 RMK 60000 SLP124 T02300209 52001 IEM_DS3505
ZGGG,2006-04-01 19:00,ZGGG 011900Z AUTO 05004KT 1SM 23/20 A2985 RMK T02300200 IEM_DS3505
ZGGG,2006-04-01 20:00,ZGGG 012000Z AUTO 08004KT 1 1/4SM 22/20 A2985 RMK T02200200 IEM_DS3505
ZGGG,2006-04-01 21:00,ZGGG 012100Z AUTO 34002KT 2 1/2SM 22/21 A2985 RMK 70000 SLP122 T02240209 57002 IEM_DS3505
ZGGG,2006-04-01 22:00,ZGGG 012200Z AUTO 11004KT 1 1/4SM 22/20 A2985 RMK T02200200 IEM_DS3505
ZGGG,2006-04-01 23:00,ZGGG 012300Z AUTO 02002KT 1SM 22/20 A2988 RMK T02200200 IEM_DS3505
ZGGG,2006-04-02 00:00,ZGGG 020000Z AUTO 00000KT 1 1/4SM 23/21 A2991 RMK 60000 70000 SLP141 T02290212 52018 IEM_DS3505
ZGGG,2006-04-02 01:00,ZGGG 020100Z AUTO 07004KT 1SM 23/21 A2994 RMK T02300210 IEM_DS3505
ZGGG,2006-04-02 02:00,ZGGG 020200Z AUTO 1SM 24/21 A2994 RMK T02400210 IEM_DS3505
ZGGG,2006-04-02 03:00,ZGGG 020300Z AUTO 16002KT 2SM 25/21 A2994 RMK SLP154 T02500209 52013 IEM_DS3505
ZGGG,2006-04-02 04:00,ZGGG 020400Z AUTO 1SM 25/21 A2994 RMK T02500210 IEM_DS3505
ZGGG,2006-04-02 05:00,ZGGG 020500Z AUTO 1SM 26/22 A2991 RMK T02600220 IEM_DS3505
ZGGG,2006-04-02 06:00,ZGGG 020600Z AUTO 16002KT 2SM 26/21 A2988 RMK 60000 SLP130 T02620214 57023 IEM_DS3505
ZGGG,2006-04-02 07:00,ZGGG 020700Z AUTO 21006KT 1 1/4SM 27/21 A2985 RMK T02700210 IEM_DS3505
ZGGG,2006-04-02 08:00,ZGGG 020800Z AUTO 22006KT 1SM 26/22 A2985 RMK T02600220 IEM_DS3505
ZGGG,2006-04-02 09:00,ZGGG 020900Z AUTO 16002KT 1 1/2SM 26/22 A2985 RMK SLP115 T02580219 57015 IEM_DS3505
ZGGG,2006-04-02 10:00,ZGGG 021000Z AUTO 1SM 26/22 A2985 RMK T02600220 IEM_DS3505
ZGGG,2006-04-02 11:00,ZGGG 021100Z AUTO 24004KT 1SM 26/22 A2985 RMK T02600220 IEM_DS3505
ZGGG,2006-04-02 12:00,ZGGG 021200Z AUTO 19002KT 1 1/2SM 24/22 A2988 RMK 60000 SLP126 T02400219 52010 IEM_DS3505
ZGGG,2006-04-02 13:00,ZGGG 021300Z AUTO 00000KT 1SM 24/22 A2988 RMK T02400220 IEM_DS3505
ZGGG,2006-04-02 14:00,ZGGG 021400Z AUTO 00000KT 1SM 24/22 A2988 RMK T02400220 IEM_DS3505
ZGGG,2006-04-02 15:00,ZGGG 021500Z AUTO 14002KT 3SM 23/22 A2988 RMK SLP130 T02330217 52005 IEM_DS3505
ZGGG,2006-04-02 16:00,ZGGG 021600Z AUTO 04002KT 1SM 23/21 A2988 RMK T02300210 IEM_DS3505
ZGGG,2006-04-02 17:00,ZGGG 021700Z AUTO 00000KT 1SM 22/21 A2988 RMK T02200210 IEM_DS3505
ZGGG,2006-04-02 18:00,ZGGG 021800Z AUTO 09002KT 1/2SM 23/21 A2985 RMK 60000 SLP120 T02260214 57010 IEM_DS3505
ZGGG,2006-04-02 19:00,ZGGG 021900Z AUTO 00000KT 3/8SM 22/21 A2985 RMK T02200210 IEM_DS3505
ZGGG,2006-04-02 20:00,ZGGG 022000Z AUTO 00000KT 3/8SM 22/21 A2983 RMK T02200210 IEM_DS3505
ZGGG,2006-04-02 21:00,ZGGG 022100Z AUTO 14002KT 1SM 23/21 A2985 RMK 70000 SLP115 T02280214 57005 IEM_DS3505
ZGGG,2006-04-02 22:00,ZGGG 022200Z AUTO 10002KT 1SM 22/21 A2985 RMK T02200210 IEM_DS3505
ZGGG,2006-04-02 23:00,ZGGG 022300Z AUTO 12002KT 3/8SM 22/21 A2988 RMK T02200210 IEM_DS3505
ZGGG,2006-04-03 00:00,ZGGG 030000Z AUTO 16002KT 1 1/2SM 24/21 A2988 RMK 70000 SLP135 T02350212 52019 IEM_DS3505
ZGGG,2006-04-03 01:00,ZGGG 030100Z AUTO 1SM 25/22 A2991 RMK T02500220 IEM_DS3505
ZGGG,2006-04-03 02:00,ZGGG 030200Z AUTO 16004KT 1 1/4SM 26/21 A2991 RMK T02600210 IEM_DS3505
ZGGG,2006-04-03 03:00,ZGGG 030300Z AUTO 16004KT 2 1/2SM 27/21 A2991 RMK SLP139 T02690212 52005 IEM_DS3505
ZGGG,2006-04-03 04:00,ZGGG 030400Z AUTO 16006KT 2 1/2SM 28/21 A2988 RMK T02800210 IEM_DS3505
ZGGG,2006-04-03 05:00,ZGGG 030500Z AUTO 18008KT 2SM 28/21 A2988 RMK T02800210 IEM_DS3505
ZGGG,2006-04-03 06:00,ZGGG 030600Z AUTO 14008KT 4SM 29/21 A2985 RMK SLP113 T02870210 57026 IEM_DS3505
ZGGG,2006-04-03 07:00,ZGGG 030700Z AUTO 17006KT 2 1/2SM 29/20 A2983 RMK T02900200 IEM_DS3505
ZGGG,2006-04-03 08:00,ZGGG 030800Z AUTO 17006KT 2 1/2SM 30/21 A2980 RMK T03000210 IEM_DS3505
ZGGG,2006-04-03 09:00,ZGGG 030900Z AUTO 11006KT 7SM 29/20 A2980 RMK SLP099 T02890204 57014 IEM_DS3505
ZGGG,2006-04-03 10:00,ZGGG 031000Z AUTO 13006KT 3SM 28/20 A2980 RMK T02800200 IEM_DS3505
ZGGG,2006-04-03 11:00,ZGGG 031100Z AUTO 15006KT 4SM 27/20 A2980 RMK T02700200 IEM_DS3505
ZGGG,2006-04-03 12:00,ZGGG 031200Z AUTO 14008KT 7SM 25/21 A2980 RMK SLP105 T02540211 52006 IEM_DS3505
ZGGG,2006-04-03 13:00,ZGGG 031300Z AUTO 14008KT 3SM 25/20 A2983 RMK T02500200 IEM_DS3505
ZGGG,2006-04-03 14:00,ZGGG 031400Z AUTO 14006KT 3SM 24/20 A2985 RMK T02400200 IEM_DS3505
ZGGG,2006-04-03 15:00,ZGGG 031500Z AUTO 16006KT 8SM 24/21 A2985 RMK SLP118 T02390208 52013 IEM_DS3505
ZGGG,2006-04-03 16:00,ZGGG 031600Z AUTO 15004KT 3SM 24/20 A2985 RMK T02400200 IEM_DS3505
ZGGG,2006-04-03 17:00,ZGGG 031700Z AUTO 16004KT 3SM 24/20 A2985 RMK T02400200 IEM_DS3505
ZGGG,2006-04-03 18:00,ZGGG 031800Z AUTO 14006KT 7SM 23/21 A2983 RMK SLP110 T02340209 57008 IEM_DS3505
ZGGG,2006-04-03 19:00,ZGGG 031900Z AUTO 2 1/2SM 24/20 A2983 RMK T02400200 IEM_DS3505
ZGGG,2006-04-03 20:00,ZGGG 032000Z AUTO 13002KT 2 1/2SM 24/20 A2983 RMK T02400200 IEM_DS3505
ZGGG,2006-04-03 21:00,ZGGG 032100Z AUTO 14002KT 6SM 24/21 A2983 RMK SLP109 T02350214 57001 IEM_DS3505
ZGGG,2006-04-03 22:00,ZGGG 032200Z AUTO 12002KT 2SM 24/21 A2983 RMK T02400210 IEM_DS3505
ZGGG,2006-04-03 23:00,ZGGG 032300Z AUTO 06002KT 2SM 23/20 A2985 RMK T02300200 IEM_DS3505
ZGGG,2006-04-04 00:00,ZGGG 040000Z AUTO 14004KT 6SM 24/22 A2985 RMK SLP121 T02410216 52012 IEM_DS3505
ZGGG,2006-04-04 01:00,ZGGG 040100Z AUTO 16004KT 2 1/2SM 25/21 A2988 RMK T02500210 IEM_DS3505
ZGGG,2006-04-04 02:00,ZGGG 040200Z AUTO 16008KT 4SM 26/21 A2988 RMK T02600210 IEM_DS3505
ZGGG,2006-04-04 03:00,ZGGG 040300Z AUTO 14006KT 7SM 26/22 A2985 RMK SLP123 T02640216 52002 IEM_DS3505
ZGGG,2006-04-04 04:00,ZGGG 040400Z AUTO 17010KT 3SM 29/21 A2985 RMK T02900210 IEM_DS3505
ZGGG,2006-04-04 05:00,ZGGG 040500Z AUTO 17008KT 3SM 29/21 A2983 RMK T02900210 IEM_DS3505
ZGGG,2006-04-04 06:00,ZGGG 040600Z AUTO 18002KT 8SM 30/22 A2977 RMK SLP090 T03000217 57033 IEM_DS3505
ZGGG,2006-04-04 07:00,ZGGG 040700Z AUTO 16006KT 3SM 31/21 A2974 RMK T03100210 IEM_DS3505
ZGGG,2006-04-04 08:00,ZGGG 040800Z AUTO 13008KT 3SM 30/22 A2974 RMK T03000220 IEM_DS3505
ZGGG,2006-04-04 09:00,ZGGG 040900Z AUTO 16004KT 9SM 28/23 A2974 RMK SLP076 T02800227 57014 IEM_DS3505
ZGGG,2006-04-04 10:00,ZGGG 041000Z AUTO 13006KT 4SM 28/22 A2974 RMK T02800220 IEM_DS3505
ZGGG,2006-04-04 11:00,ZGGG 041100Z AUTO 13006KT 4SM 27/22 A2974 RMK T02700220 IEM_DS3505
ZGGG,2006-04-04 12:00,ZGGG 041200Z AUTO 14004KT 9SM 26/23 A2974 RMK SLP085 T02570226 52009 IEM_DS3505
ZGGG,2006-04-04 13:00,ZGGG 041300Z AUTO 12002KT 4SM 25/22 A2977 RMK T02500220 IEM_DS3505
ZGGG,2006-04-04 14:00,ZGGG 041400Z AUTO 08002KT 3SM 25/22 A2977 RMK T02500220 IEM_DS3505
ZGGG,2006-04-04 15:00,ZGGG 041500Z AUTO 14002KT 8SM 25/22 A2980 RMK SLP096 T02480225 52011 IEM_DS3505
ZGGG,2006-04-04 16:00,ZGGG 041600Z AUTO 3SM 25/22 A2980 RMK T02500220 IEM_DS3505
ZGGG,2006-04-04 17:00,ZGGG 041700Z AUTO 09004KT 3SM 25/22 A2977 RMK T02500220 IEM_DS3505
ZGGG,2006-04-04 18:00,ZGGG 041800Z AUTO 14002KT 7SM 24/22 A2977 RMK SLP087 T02390223 57009 IEM_DS3505
ZGGG,2006-04-04 19:00,ZGGG 041900Z AUTO 11004KT 3SM 24/22 A2974 RMK T02400220 IEM_DS3505
ZGGG,2006-04-04 20:00,ZGGG 042000Z AUTO 00000KT 2 1/2SM 24/21 A2977 RMK T02400210 IEM_DS3505
ZGGG,2006-04-04 21:00,ZGGG 042100Z AUTO 00000KT 5SM 24/22 A2977 RMK SLP087 T02360224 54000 IEM_DS3505
ZGGG,2006-04-04 22:00,ZGGG 042200Z AUTO 02002KT 2SM 24/22 A2980 RMK T02400220 IEM_DS3505
ZGGG,2006-04-04 23:00,ZGGG 042300Z AUTO 00000KT 1 1/4SM 24/22 A2980 RMK T02400220 IEM_DS3505
ZGGG,2006-04-05 00:00,ZGGG 050000Z AUTO 14002KT 2 1/2SM 25/23 A2983 RMK SLP110 T02500229 52023 IEM_DS3505
ZGGG,2006-04-05 01:00,ZGGG 050100Z AUTO 00000KT 2 1/2SM 28/23 A2985 RMK T02800230 IEM_DS3505
ZGGG,2006-04-05 02:00,ZGGG 050200Z AUTO 3SM 28/22 A2985 RMK T02800220 IEM_DS3505
ZGGG,2006-04-05 03:00,ZGGG 050300Z AUTO 20004KT 4SM 29/22 A2983 RMK SLP110 T02890224 54000 IEM_DS3505
ZGGG,2006-04-05 04:00,ZGGG 050400Z AUTO 16004KT 2 1/2SM 30/22 A2983 RMK T03000220 IEM_DS3505
ZGGG,2006-04-05 05:00,ZGGG 050500Z AUTO 3SM 31/22 A2980 RMK T03100220 IEM_DS3505
ZGGG,2006-04-05 06:00,ZGGG 050600Z AUTO 16004KT 5SM 30/22 A2977 RMK SLP086 T02980225 57024 IEM_DS3505
ZGGG,2006-04-05 07:00,ZGGG 050700Z AUTO 17006KT 2 1/2SM 32/22 A2974 RMK T03200220 IEM_DS3505
ZGGG,2006-04-05 08:00,ZGGG 050800Z AUTO 16008KT 3SM 31/22 A2974 RMK T03100220 IEM_DS3505
ZGGG,2006-04-05 09:00,ZGGG 050900Z AUTO 16006KT 6SM 30/22 A2974 RMK SLP078 T02960223 57008 IEM_DS3505
ZGGG,2006-04-05 10:00,ZGGG 051000Z AUTO 15006KT 4SM 29/22 A2974 RMK T02900220 IEM_DS3505
ZGGG,2006-04-05 11:00,ZGGG 051100Z AUTO 15006KT 4SM 28/22 A2977 RMK T02800220 IEM_DS3505
ZGGG,2006-04-05 12:00,ZGGG 051200Z AUTO 09004KT 7SM 26/23 A2977 RMK SLP097 T02650234 52019 IEM_DS3505
ZGGG,2006-04-05 13:00,ZGGG 051300Z AUTO 13004KT 3SM 27/23 A2980 RMK T02700230 IEM_DS3505
ZGGG,2006-04-05 14:00,ZGGG 051400Z AUTO 00000KT 3SM 26/23 A2983 RMK T02600230 IEM_DS3505
ZGGG,2006-04-05 15:00,ZGGG 051500Z AUTO 14006KT 9SM 26/23 A2983 RMK SLP108 T02560233 52011 IEM_DS3505
ZGGG,2006-04-05 16:00,ZGGG 051600Z AUTO 15004KT 4SM 26/23 A2983 RMK T02600230 IEM_DS3505
ZGGG,2006-04-05 17:00,ZGGG 051700Z AUTO 15004KT 4SM 26/22 A2983 RMK T02600220 IEM_DS3505
ZGGG,2006-04-05 18:00,ZGGG 051800Z AUTO 11004KT 9SM 25/23 A2980 RMK SLP103 T02540231 57005 IEM_DS3505
ZGGG,2006-04-05 19:00,ZGGG 051900Z AUTO 11002KT 4SM 25/22 A2980 RMK T02500220 IEM_DS3505
ZGGG,2006-04-05 20:00,ZGGG 052000Z AUTO 13002KT 3SM 26/23 A2980 RMK T02600230 IEM_DS3505
ZGGG,2006-04-05 21:00,ZGGG 052100Z AUTO 14004KT 7SM 25/23 A2980 RMK SLP103 T02500231 54000 IEM_DS3505
ZGGG,2006-04-05 22:00,ZGGG 052200Z AUTO 2 1/2SM 25/22 A2980 RMK T02500220 IEM_DS3505
ZGGG,2006-04-05 23:00,ZGGG 052300Z AUTO 15004KT 2 1/2SM 26/22 A2985 RMK T02600220 IEM_DS3505
ZGGG,2006-04-06 00:00,ZGGG 060000Z AUTO 14002KT 2 1/2SM 26/23 A2988 RMK SLP130 T02560231 52027 IEM_DS3505
ZGGG,2006-04-06 01:00,ZGGG 060100Z AUTO 36010KT 5SM 26/22 A2991 RMK T02600220 IEM_DS3505
ZGGG,2006-04-06 02:00,ZGGG 060200Z AUTO 36010KT 7SM 23/19 A2994 RMK T02300190 IEM_DS3505
ZGGG,2006-04-06 03:00,ZGGG 060300Z AUTO 02004KT 11SM 24/20 A2994 RMK SLP147 T02370198 52017 IEM_DS3505
ZGGG,2006-04-06 04:00,ZGGG 060400Z AUTO 08006KT 7SM 24/20 A2991 RMK T02400200 IEM_DS3505
ZGGG,2006-04-06 05:00,ZGGG 060500Z AUTO 7SM 25/20 A2988 RMK T02500200 IEM_DS3505
ZGGG,2006-04-06 06:00,ZGGG 060600Z AUTO 14002KT 12SM 24/22 A2988 RMK 60020 SLP126 T02390216 57021 IEM_DS3505
ZGGG,2006-04-06 07:00,ZGGG 060700Z AUTO 7SM 26/20 A2988 RMK T02600200 IEM_DS3505
ZGGG,2006-04-06 08:00,ZGGG 060800Z AUTO 36012KT 7SM 25/19 A2985 RMK T02500190 IEM_DS3505
ZGGG,2006-04-06 09:00,ZGGG 060900Z AUTO 34004KT 10SM 25/20 A2985 RMK SLP117 T02520202 57009 IEM_DS3505
ZGGG,2006-04-06 10:00,ZGGG 061000Z AUTO 01010KT 7SM 24/18 A2988 RMK T02400180 IEM_DS3505
ZGGG,2006-04-06 11:00,ZGGG 061100Z AUTO 34008KT 7SM 23/17 A2988 RMK T02300170 IEM_DS3505
ZGGG,2006-04-06 12:00,ZGGG 061200Z AUTO 36002KT 9SM 23/18 A2991 RMK 60003 SLP137 T02280183 52020 IEM_DS3505
ZGGG,2006-04-06 13:00,ZGGG 061300Z AUTO 03004KT 7SM 22/17 A2994 RMK T02200170 IEM_DS3505
ZGGG,2006-04-06 14:00,ZGGG 061400Z AUTO 02006KT 7SM 22/17 A2997 RMK T02200170 IEM_DS3505
ZGGG,2006-04-06 15:00,ZGGG 061500Z AUTO 32002KT 8SM 22/18 A2997 RMK SLP155 T02220178 52017 IEM_DS3505
ZGGG,2006-04-06 16:00,ZGGG 061600Z AUTO 01004KT 7SM 22/16 A2997 RMK T02200160 IEM_DS3505
ZGGG,2006-04-06 17:00,ZGGG 061700Z AUTO 01004KT 7SM 22/16 A2997 RMK T02200160 IEM_DS3505
ZGGG,2006-04-06 18:00,ZGGG 061800Z AUTO 02004KT 9SM 22/18 A2994 RMK SLP148 T02150175 57007 IEM_DS3505
ZGGG,2006-04-06 19:00,ZGGG 061900Z AUTO 01006KT 7SM 21/15 A2994 RMK T02100150 IEM_DS3505
ZGGG,2006-04-06 20:00,ZGGG 062000Z AUTO 02006KT 7SM 21/14 A2991 RMK T02100140 IEM_DS3505
ZGGG,2006-04-06 21:00,ZGGG 062100Z AUTO 02004KT 9SM 21/17 A2991 RMK 70024 SLP141 T02080168 57007 IEM_DS3505
ZGGG,2006-04-06 22:00,ZGGG 062200Z AUTO 01004KT 7SM 21/15 A2994 RMK T02100150 IEM_DS3505
ZGGG,2006-04-06 23:00,ZGGG 062300Z AUTO 7SM 20/15 A2994 RMK T02000150 IEM_DS3505
ZGGG,2006-04-07 00:00,ZGGG 070000Z AUTO 02004KT 9SM 21/16 A2997 RMK 70024 SLP157 T02090161 52016 IEM_DS3505
ZGGG,2006-04-07 03:00,ZGGG 070300Z AUTO 36004KT 9SM 21/16 A3003 RMK SLP177 T02120162 52020 IEM_DS3505
ZGGG,2006-04-07 04:00,ZGGG 070400Z AUTO 01010KT 2 1/2SM 19/16 A3003 RMK T01900160 IEM_DS3505
ZGGG,2006-04-07 05:00,ZGGG 070500Z AUTO 2SM 20/15 A3000 RMK T02000150 IEM_DS3505
ZGGG,2006-04-07 06:00,ZGGG 070600Z AUTO 02004KT 6SM 19/16 A3000 RMK 60002 SLP169 T01910165 57008 IEM_DS3505
ZGGG,2006-04-07 07:00,ZGGG 070700Z AUTO 08004KT 1 1/4SM 18/16 A2997 RMK T01800160 IEM_DS3505
ZGGG,2006-04-07 08:00,ZGGG 070800Z AUTO 08004KT 1SM 18/16 A2994 RMK T01800160 IEM_DS3505
ZGGG,2006-04-07 09:00,ZGGG 070900Z AUTO 14002KT 4SM 19/18 A2991 RMK SLP145 T01930180 57024 IEM_DS3505
ZGGG,2006-04-07 10:00,ZGGG 071000Z AUTO 2 1/2SM 19/17 A2994 RMK T01900170 IEM_DS3505
ZGGG,2006-04-07 11:00,ZGGG 071100Z AUTO 00000KT 2 1/2SM 20/17 A2994 RMK T02000170 IEM_DS3505
ZGGG,2006-04-07 12:00,ZGGG 071200Z AUTO 04002KT 2SM 19/18 A2994 RMK 60020 SLP152 T01930180 52007 IEM_DS3505
ZGGG,2006-04-07 13:00,ZGGG 071300Z AUTO 03004KT 3SM 19/17 A2997 RMK T01900170 IEM_DS3505
ZGGG,2006-04-07 14:00,ZGGG 071400Z AUTO 3SM 20/17 A3000 RMK T02000170 IEM_DS3505
ZGGG,2006-04-07 15:00,ZGGG 071500Z AUTO 02002KT 4SM 19/18 A3000 RMK SLP166 T01940179 52014 IEM_DS3505
ZGGG,2006-04-07 16:00,ZGGG 071600Z AUTO 00000KT 2 1/2SM 19/17 A3000 RMK T01900170 IEM_DS3505
ZGGG,2006-04-07 17:00,ZGGG 071700Z AUTO 2 1/2SM 19/17 A2997 RMK T01900170 IEM_DS3505
ZGGG,2006-04-07 18:00,ZGGG 071800Z AUTO 09002KT 4SM 19/18 A2994 RMK SLP147 T01900175 57019 IEM_DS3505
ZGGG,2006-04-07 19:00,ZGGG 071900Z AUTO 03002KT 2SM 19/17 A2991 RMK T01900170 IEM_DS3505
ZGGG,2006-04-07 20:00,ZGGG 072000Z AUTO 00000KT 2SM 19/17 A2991 RMK T01900170 IEM_DS3505
ZGGG,2006-04-07 21:00,ZGGG 072100Z AUTO 07002KT 3SM 19/18 A2991 RMK 70023 SLP144 T01940177 57003 IEM_DS3505
ZGGG,2006-04-07 22:00,ZGGG 072200Z AUTO 09004KT 2SM 19/17 A2991 RMK T01900170 IEM_DS3505
ZGGG,2006-04-07 23:00,ZGGG 072300Z AUTO 00000KT 1SM 19/17 A2994 RMK T01900170 IEM_DS3505
ZGGG,2006-04-08 00:00,ZGGG 080000Z AUTO 09004KT 2SM 20/18 A2997 RMK 70023 SLP159 T02000180 52015 IEM_DS3505
ZGGG,2006-04-08 01:00,ZGGG 080100Z AUTO 09004KT 2 1/2SM 21/18 A2997 RMK T02100180 IEM_DS3505
ZGGG,2006-04-08 02:00,ZGGG 080200Z AUTO 10004KT 3SM 22/18 A2997 RMK T02200180 IEM_DS3505
ZGGG,2006-04-08 03:00,ZGGG 080300Z AUTO 07002KT 5SM 23/17 A2997 RMK SLP164 T02270174 52005 IEM_DS3505
ZGGG,2006-04-08 04:00,ZGGG 080400Z AUTO 11008KT 4SM 23/17 A2994 RMK T02300170 IEM_DS3505
ZGGG,2006-04-08 05:00,ZGGG 080500Z AUTO 11006KT 3SM 24/16 A2991 RMK T02400160 IEM_DS3505
ZGGG,2006-04-08 06:00,ZGGG 080600Z AUTO 11002KT 4SM 23/18 A2991 RMK 60000 SLP132 T02330177 57032 IEM_DS3505
ZGGG,2006-04-08 07:00,ZGGG 080700Z AUTO 11004KT 3SM 23/18 A2988 RMK T02300180 IEM_DS3505
ZGGG,2006-04-08 08:00,ZGGG 080800Z AUTO 3SM 24/17 A2985 RMK T02400170 IEM_DS3505
ZGGG,2006-04-08 09:00,ZGGG 080900Z AUTO 09002KT 4SM 24/18 A2985 RMK SLP116 T02450177 57016 IEM_DS3505
ZGGG,2006-04-08 10:00,ZGGG 081000Z AUTO 05002KT 3SM 23/18 A2985 RMK T02300180 IEM_DS3505
ZGGG,2006-04-08 11:00,ZGGG 081100Z AUTO 08004KT 3SM 23/18 A2985 RMK T02300180 IEM_DS3505
ZGGG,2006-04-08 12:00,ZGGG 081200Z AUTO 14006KT 6SM 24/18 A2985 RMK 60000 SLP119 T02400180 52003 IEM_DS3505
ZGGG,2006-04-08 13:00,ZGGG 081300Z AUTO 07004KT 4SM 23/18 A2988 RMK T02300180 IEM_DS3505
ZGGG,2006-04-08 14:00,ZGGG 081400Z AUTO 00000KT 4SM 23/18 A2988 RMK T02300180 IEM_DS3505
ZGGG,2006-04-08 15:00,ZGGG 081500Z AUTO 16002KT 10SM 22/18 A2991 RMK SLP138 T02220184 52019 IEM_DS3505
ZGGG,2006-04-08 16:00,ZGGG 081600Z AUTO 10004KT 2 1/2SM 22/19 A2991 RMK T02200190 IEM_DS3505
ZGGG,2006-04-08 17:00,ZGGG 081700Z AUTO 10002KT 2 1/2SM 22/19 A2988 RMK T02200190 IEM_DS3505
ZGGG,2006-04-08 18:00,ZGGG 081800Z AUTO 16002KT 10SM 23/19 A2988 RMK SLP127 T02280186 57011 IEM_DS3505
ZGGG,2006-04-08 19:00,ZGGG 081900Z AUTO 00000KT 2 1/2SM 22/19 A2985 RMK T02200190 IEM_DS3505
ZGGG,2006-04-08 20:00,ZGGG 082000Z AUTO 03002KT 2SM 22/19 A2983 RMK T02200190 IEM_DS3505
ZGGG,2006-04-08 21:00,ZGGG 082100Z AUTO 00000KT 7SM 22/19 A2983 RMK 70000 SLP114 T02190187 57013 IEM_DS3505
ZGGG,2006-04-08 22:00,ZGGG 082200Z AUTO 2SM 22/18 A2985 RMK T02200180 IEM_DS3505
ZGGG,2006-04-08 23:00,ZGGG 082300Z AUTO 1 1/4SM 21/19 A2985 RMK T02100190 IEM_DS3505
ZGGG,2006-04-09 00:00,ZGGG 090000Z AUTO 09002KT 2SM 22/19 A2985 RMK 60000 70000 SLP123 T02180194 52009 IEM_DS3505
ZGGG,2006-04-09 01:00,ZGGG 090100Z AUTO 1 1/4SM 22/19 A2985 RMK T02200190 IEM_DS3505
ZGGG,2006-04-09 03:00,ZGGG 090300Z AUTO 09004KT 1 1/4SM 23/20 A2985 RMK SLP123 T02300205 54000 IEM_DS3505
ZGGG,2006-04-09 04:00,ZGGG 090400Z AUTO 00000KT 1 1/4SM 24/20 A2985 RMK T02400200 IEM_DS3505
ZGGG,2006-04-09 05:00,ZGGG 090500Z AUTO 00000KT 1 1/4SM 25/21 A2983 RMK T02500210 IEM_DS3505
ZGGG,2006-04-09 06:00,ZGGG 090600Z AUTO 14004KT 1 1/4SM 26/22 A2980 RMK 60004 SLP096 T02570218 57026 IEM_DS3505
ZGGG,2006-04-09 07:00,ZGGG 090700Z AUTO 1SM 25/22 A2977 RMK T02500220 IEM_DS3505
ZGGG,2006-04-09 08:00,ZGGG 090800Z AUTO 07004KT 1SM 25/22 A2977 RMK T02500220 IEM_DS3505
ZGGG,2006-04-09 09:00,ZGGG 090900Z AUTO 14002KT 2SM 25/23 A2977 RMK SLP085 T02530228 57011 IEM_DS3505
ZGGG,2006-04-09 10:00,ZGGG 091000Z AUTO 13006KT 2 1/2SM 26/22 A2974 RMK T02600220 IEM_DS3505
ZGGG,2006-04-09 11:00,ZGGG 091100Z AUTO 13004KT 2 1/2SM 25/22 A2977 RMK T02500220 IEM_DS3505
ZGGG,2006-04-09 12:00,ZGGG 091200Z AUTO 09002KT 4SM 25/23 A2977 RMK 60000 SLP087 T02460227 52002 IEM_DS3505
ZGGG,2006-04-09 13:00,ZGGG 091300Z AUTO 14004KT 2 1/2SM 25/22 A2977 RMK T02500220 IEM_DS3505
ZGGG,2006-04-09 14:00,ZGGG 091400Z AUTO 16008KT 2 1/2SM 26/22 A2980 RMK T02600220 IEM_DS3505
ZGGG,2006-04-09 15:00,ZGGG 091500Z AUTO 07002KT 2 1/2SM 24/23 A2980 RMK SLP098 T02450228 52011 IEM_DS3505
ZGGG,2006-04-09 16:00,ZGGG 091600Z AUTO 15006KT 2SM 25/22 A2977 RMK T02500220 IEM_DS3505
ZGGG,2006-04-09 17:00,ZGGG 091700Z AUTO 17006KT 2SM 25/22 A2977 RMK T02500220 IEM_DS3505
ZGGG,2006-04-09 18:00,ZGGG 091800Z AUTO 18002KT 2 1/2SM 24/22 A2974 RMK SLP083 T02410225 57015 IEM_DS3505
ZGGG,2006-04-09 19:00,ZGGG 091900Z AUTO 15004KT 2SM 25/22 A2974 RMK T02500220 IEM_DS3505
ZGGG,2006-04-09 20:00,ZGGG 092000Z AUTO 14004KT 2SM 25/22 A2971 RMK T02500220 IEM_DS3505
ZGGG,2006-04-09 21:00,ZGGG 092100Z AUTO 09004KT 2SM 24/22 A2971 RMK 70005 SLP071 T02370225 57012 IEM_DS3505
ZGGG,2006-04-09 22:00,ZGGG 092200Z AUTO 18004KT 2 1/2SM 25/22 A2971 RMK T02500220 IEM_DS3505
ZGGG,2006-04-09 23:00,ZGGG 092300Z AUTO 00000KT 2SM 24/22 A2974 RMK T02400220 IEM_DS3505
ZGGG,2006-04-10 00:00,ZGGG 100000Z AUTO 04002KT 4SM 25/23 A2977 RMK 70004 SLP087 T02530234 52016 IEM_DS3505
ZGGG,2006-04-10 01:00,ZGGG 100100Z AUTO 00000KT 3SM 27/23 A2980 RMK T02700230 IEM_DS3505
ZGGG,2006-04-10 02:00,ZGGG 100200Z AUTO 20008KT 4SM 29/22 A2980 RMK T02900220 IEM_DS3505
ZGGG,2006-04-10 03:00,ZGGG 100300Z AUTO 25002KT 7SM 29/23 A2977 RMK SLP093 T02940229 52006 IEM_DS3505
ZGGG,2006-04-10 04:00,ZGGG 100400Z AUTO 20008KT 4SM 31/22 A2974 RMK T03100220 IEM_DS3505
ZGGG,2006-04-10 05:00,ZGGG 100500Z AUTO 20010KT 7SM 32/22 A2971 RMK T03200220 IEM_DS3505
ZGGG,2006-04-10 06:00,ZGGG 100600Z AUTO 22006KT 9SM 33/22 A2968 RMK SLP059 T03270222 57033 IEM_DS3505
ZGGG,2006-04-10 07:00,ZGGG 100700Z AUTO 17008KT 7SM 32/22 A2965 RMK T03200220 IEM_DS3505
ZGGG,2006-04-10 08:00,ZGGG 100800Z AUTO 18010KT 7SM 32/21 A2965 RMK T03200210 IEM_DS3505
ZGGG,2006-04-10 09:00,ZGGG 100900Z AUTO 18004KT 10SM 32/22 A2962 RMK SLP040 T03150217 57019 IEM_DS3505
ZGGG,2006-04-10 10:00,ZGGG 101000Z AUTO 17006KT 7SM 31/21 A2962 RMK T03100210 IEM_DS3505
ZGGG,2006-04-10 11:00,ZGGG 101100Z AUTO 14004KT 7SM 30/22 A2965 RMK T03000220 IEM_DS3505
ZGGG,2006-04-10 12:00,ZGGG 101200Z AUTO 14002KT 9SM 28/23 A2968 RMK SLP058 T02810228 52017 IEM_DS3505
ZGGG,2006-04-10 13:00,ZGGG 101300Z AUTO 14006KT 6SM 28/22 A2971 RMK T02800220 IEM_DS3505
ZGGG,2006-04-10 14:00,ZGGG 101400Z AUTO 10004KT 6SM 26/22 A2971 RMK T02600220 IEM_DS3505
ZGGG,2006-04-10 15:00,ZGGG 101500Z AUTO 09002KT 9SM 27/23 A2974 RMK SLP079 T02660233 52021 IEM_DS3505
ZGGG,2006-04-10 17:00,ZGGG 101700Z AUTO 05002KT 4SM 26/23 A2974 RMK T02600230 IEM_DS3505
ZGGG,2006-04-10 18:00,ZGGG 101800Z AUTO 07002KT 8SM 25/23 A2974 RMK SLP073 T02490231 57005 IEM_DS3505
ZGGG,2006-04-10 19:00,ZGGG 101900Z AUTO 14004KT 4SM 26/23 A2971 RMK T02600230 IEM_DS3505
ZGGG,2006-04-10 20:00,ZGGG 102000Z AUTO 08002KT 4SM 25/22 A2971 RMK T02500220 IEM_DS3505
ZGGG,2006-04-10 21:00,ZGGG 102100Z AUTO 11002KT 8SM 25/23 A2971 RMK SLP070 T02500232 57003 IEM_DS3505
ZGGG,2006-04-10 22:00,ZGGG 102200Z AUTO 09004KT 3SM 25/23 A2974 RMK T02500230 IEM_DS3505
ZGGG,2006-04-10 23:00,ZGGG 102300Z AUTO 10004KT 2 1/2SM 25/23 A2977 RMK T02500230 IEM_DS3505
ZGGG,2006-04-11 00:00,ZGGG 110000Z AUTO 14004KT 2 1/2SM 26/24 A2977 RMK SLP089 T02600237 52018 IEM_DS3505
ZGGG,2006-04-11 01:00,ZGGG 110100Z AUTO 14006KT 2 1/2SM 27/23 A2977 RMK T02700230 IEM_DS3505
ZGGG,2006-04-11 02:00,ZGGG 110200Z AUTO 16006KT 4SM 28/23 A2980 RMK T02800230 IEM_DS3505
ZGGG,2006-04-11 03:00,ZGGG 110300Z AUTO 16004KT 4SM 28/24 A2977 RMK SLP090 T02840235 52001 IEM_DS3505
ZGGG,2006-04-11 04:00,ZGGG 110400Z AUTO 14006KT 5SM 30/23 A2974 RMK T03000230 IEM_DS3505
ZGGG,2006-04-11 05:00,ZGGG 110500Z AUTO 15008KT 5SM 31/23 A2971 RMK T03100230 IEM_DS3505
ZGGG,2006-04-11 06:00,ZGGG 110600Z AUTO 16008KT 9SM 31/22 A2968 RMK SLP060 T03140221 57029 IEM_DS3505
ZGGG,2006-04-11 07:00,ZGGG 110700Z AUTO 15010KT 7SM 32/23 A2965 RMK T03200230 IEM_DS3505
ZGGG,2006-04-11 08:00,ZGGG 110800Z AUTO 14012KT 7SM 31/22 A2965 RMK T03100220 IEM_DS3505
ZGGG,2006-04-11 09:00,ZGGG 110900Z AUTO 18006KT 11SM 31/22 A2965 RMK SLP047 T03060222 57013 IEM_DS3505
ZGGG,2006-04-11 10:00,ZGGG 111000Z AUTO 15008KT 7SM 30/22 A2965 RMK T03000220 IEM_DS3505
ZGGG,2006-04-11 11:00,ZGGG 111100Z AUTO 16008KT 7SM 29/22 A2965 RMK T02900220 IEM_DS3505
ZGGG,2006-04-11 12:00,ZGGG 111200Z AUTO 18008KT 10SM 28/22 A2968 RMK SLP058 T02810223 52010 IEM_DS3505
ZGGG,2006-04-11 13:00,ZGGG 111300Z AUTO 16008KT 7SM 28/22 A2968 RMK T02800220 IEM_DS3505
ZGGG,2006-04-11 14:00,ZGGG 111400Z AUTO 16008KT 7SM 28/22 A2971 RMK T02800220 IEM_DS3505
ZGGG,2006-04-11 15:00,ZGGG 111500Z AUTO 16004KT 11SM 28/23 A2971 RMK SLP073 T02770229 52015 IEM_DS3505
ZGGG,2006-04-11 16:00,ZGGG 111600Z AUTO 15006KT 7SM 28/23 A2974 RMK T02800230 IEM_DS3505
ZGGG,2006-04-11 17:00,ZGGG 111700Z AUTO 14004KT 7SM 27/23 A2971 RMK T02700230 IEM_DS3505
ZGGG,2006-04-11 18:00,ZGGG 111800Z AUTO 14004KT 11SM 27/23 A2968 RMK SLP058 T02720228 57014 IEM_DS3505
ZGGG,2006-04-11 19:00,ZGGG 111900Z AUTO 7SM 27/22 A2965 RMK T02700220 IEM_DS3505
ZGGG,2006-04-11 20:00,ZGGG 112000Z AUTO 14004KT 7SM 27/23 A2965 RMK T02700230 IEM_DS3505
ZGGG,2006-04-11 21:00,ZGGG 112100Z AUTO 18004KT 11SM 27/23 A2965 RMK SLP052 T02670228 57006 IEM_DS3505
ZGGG,2006-04-11 22:00,ZGGG 112200Z AUTO 15006KT 7SM 27/22 A2968 RMK T02700220 IEM_DS3505
ZGGG,2006-04-11 23:00,ZGGG 112300Z AUTO 15006KT 7SM 27/22 A2968 RMK T02700220 IEM_DS3505
ZGGG,2006-04-12 00:00,ZGGG 120000Z AUTO 14006KT 14SM 28/23 A2971 RMK SLP068 T02760230 52015 IEM_DS3505
ZGGG,2006-04-12 01:00,ZGGG 120100Z AUTO 15006KT 7SM 29/23 A2971 RMK T02900230 IEM_DS3505
ZGGG,2006-04-12 02:00,ZGGG 120200Z AUTO 16008KT 7SM 30/23 A2971 RMK T03000230 IEM_DS3505
ZGGG,2006-04-12 03:00,ZGGG 120300Z AUTO 16006KT 14SM 30/23 A2971 RMK SLP067 T03050227 54000 IEM_DS3505
ZGGG,2006-04-12 04:00,ZGGG 120400Z AUTO 17008KT 7SM 30/22 A2971 RMK T03000220 IEM_DS3505
ZGGG,2006-04-12 05:00,ZGGG 120500Z AUTO 16006KT 7SM 31/23 A2968 RMK T03100230 IEM_DS3505
ZGGG,2006-04-12 06:00,ZGGG 120600Z AUTO 16004KT 15SM 30/23 A2965 RMK SLP046 T03000230 57021 IEM_DS3505
ZGGG,2006-04-12 07:00,ZGGG 120700Z AUTO 16010KT 7SM 31/22 A2962 RMK T03100220 IEM_DS3505
ZGGG,2006-04-12 08:00,ZGGG 120800Z AUTO 16008KT 7SM 30/22 A2959 RMK T03000220 IEM_DS3505
ZGGG,2006-04-12 09:00,ZGGG 120900Z AUTO 20006KT 15SM 30/22 A2959 RMK SLP028 T02980223 57018 IEM_DS3505
ZGGG,2006-04-12 10:00,ZGGG 121000Z AUTO 16006KT 7SM 29/22 A2962 RMK T02900220 IEM_DS3505
ZGGG,2006-04-12 11:00,ZGGG 121100Z AUTO 16006KT 7SM 29/23 A2962 RMK T02900230 IEM_DS3505
ZGGG,2006-04-12 12:00,ZGGG 121200Z AUTO 16004KT 11SM 28/23 A2965 RMK SLP044 T02820227 52016 IEM_DS3505
ZGGG,2006-04-12 13:00,ZGGG 121300Z AUTO 11004KT 7SM 27/23 A2968 RMK T02700230 IEM_DS3505
ZGGG,2006-04-12 14:00,ZGGG 121400Z AUTO 10004KT 7SM 27/23 A2971 RMK T02700230 IEM_DS3505
ZGGG,2006-04-12 15:00,ZGGG 121500Z AUTO 14004KT 10SM 28/23 A2974 RMK SLP076 T02760230 52032 IEM_DS3505
ZGGG,2006-04-12 16:00,ZGGG 121600Z AUTO 34016KT 3SM 21/18 A2977 RMK T02100180 IEM_DS3505
ZGGG,2006-04-12 17:00,ZGGG 121700Z AUTO 35012G21KT 7SM 19/16 A2980 RMK T01900160 IEM_DS3505
ZGGG,2006-04-12 18:00,ZGGG 121800Z AUTO 34006KT 9SM 19/17 A2980 RMK 60059 SLP093 T01940174 52016 IEM_DS3505
ZGGG,2006-04-12 19:00,ZGGG 121900Z AUTO 34012KT 7SM 18/14 A2983 RMK T01800140 IEM_DS3505
ZGGG,2006-04-12 20:00,ZGGG 122000Z AUTO 34012G21KT 7SM 17/13 A2983 RMK T01700130 IEM_DS3505
ZGGG,2006-04-12 21:00,ZGGG 122100Z AUTO 36006KT 10SM 17/14 A2983 RMK 70059 SLP103 T01720135 52010 IEM_DS3505
ZGGG,2006-04-12 22:00,ZGGG 122200Z AUTO 35014KT 7SM 16/11 A2985 RMK T01600110 IEM_DS3505
ZGGG,2006-04-12 23:00,ZGGG 122300Z AUTO 35008KT 7SM 16/11 A2988 RMK T01600110 IEM_DS3505
ZGGG,2006-04-13 00:00,ZGGG 130000Z AUTO 34006KT 12SM 17/12 A2991 RMK 70059 SLP138 T01720121 52034 IEM_DS3505
ZGGG,2006-04-13 01:00,ZGGG 130100Z AUTO 35012KT 7SM 16/10 A2994 RMK T01600100 IEM_DS3505
ZGGG,2006-04-13 02:00,ZGGG 130200Z AUTO 35012KT 7SM 16/10 A2997 RMK T01600100 IEM_DS3505
ZGGG,2006-04-13 03:00,ZGGG 130300Z AUTO 02004KT 16SM 18/12 A2997 RMK SLP156 T01770117 52018 IEM_DS3505
ZGGG,2006-04-13 04:00,ZGGG 130400Z AUTO 02010KT 7SM 17/10 A2997 RMK T01700100 IEM_DS3505
ZGGG,2006-04-13 05:00,ZGGG 130500Z AUTO 35010KT 7SM 18/10 A2997 RMK T01800100 IEM_DS3505
ZGGG,2006-04-13 06:00,ZGGG 130600Z AUTO 32004KT 17SM 18/11 A2994 RMK SLP146 T01750113 57010 IEM_DS3505
ZGGG,2006-04-13 07:00,ZGGG 130700Z AUTO 35014KT 7SM 17/09 A2994 RMK T01700090 IEM_DS3505
ZGGG,2006-04-13 08:00,ZGGG 130800Z AUTO 36012KT 7SM 17/10 A2994 RMK T01700100 IEM_DS3505
ZGGG,2006-04-13 09:00,ZGGG 130900Z AUTO 02006KT 15SM 17/11 A2991 RMK SLP139 T01690107 57008 IEM_DS3505
ZGGG,2006-04-13 10:00,ZGGG 131000Z AUTO 34010KT 7SM 16/09 A2994 RMK T01600090 IEM_DS3505
ZGGG,2006-04-13 11:00,ZGGG 131100Z AUTO 34010G19KT 7SM 16/09 A2997 RMK T01600090 IEM_DS3505
ZGGG,2006-04-13 12:00,ZGGG 131200Z AUTO 36002KT 12SM 16/10 A3000 RMK SLP163 T01590104 52024 IEM_DS3505
ZGGG,2006-04-13 13:00,ZGGG 131300Z AUTO 36008KT 7SM 15/09 A3003 RMK T01500090 IEM_DS3505
ZGGG,2006-04-13 14:00,ZGGG 131400Z AUTO 02010KT 7SM 15/09 A3006 RMK T01500090 IEM_DS3505
ZGGG,2006-04-13 15:00,ZGGG 131500Z AUTO 36004KT 11SM 15/11 A3006 RMK SLP188 T01490109 52025 IEM_DS3505
ZGGG,2006-04-13 16:00,ZGGG 131600Z AUTO 01008KT 7SM 14/09 A3006 RMK T01400090 IEM_DS3505
ZGGG,2006-04-13 17:00,ZGGG 131700Z AUTO 02008KT 7SM 14/09 A3006 RMK T01400090 IEM_DS3505
ZGGG,2006-04-13 18:00,ZGGG 131800Z AUTO 02004KT 10SM 14/11 A3006 RMK SLP184 T01360106 57004 IEM_DS3505
ZGGG,2006-04-13 19:00,ZGGG 131900Z AUTO 02006KT 7SM 13/09 A3003 RMK T01300090 IEM_DS3505
ZGGG,2006-04-13 20:00,ZGGG 132000Z AUTO 02008KT 7SM 13/09 A3000 RMK T01300090 IEM_DS3505
ZGGG,2006-04-13 21:00,ZGGG 132100Z AUTO 02002KT 9SM 13/10 A3003 RMK SLP175 T01300105 57009 IEM_DS3505
ZGGG,2006-04-13 22:00,ZGGG 132200Z AUTO 36008KT 5SM 13/09 A3003 RMK T01300090 IEM_DS3505
ZGGG,2006-04-13 23:00,ZGGG 132300Z AUTO 35006KT 4SM 12/10 A3006 RMK T01200100 IEM_DS3505
ZGGG,2006-04-14 00:00,ZGGG 140000Z AUTO 36004KT 8SM 13/10 A3009 RMK SLP197 T01310103 52022 IEM_DS3505
ZGGG,2006-04-14 01:00,ZGGG 140100Z AUTO 01006KT 7SM 13/10 A3009 RMK T01300100 IEM_DS3505
ZGGG,2006-04-14 02:00,ZGGG 140200Z AUTO 35008KT 7SM 13/09 A3012 RMK T01300090 IEM_DS3505
ZGGG,2006-04-14 03:00,ZGGG 140300Z AUTO 36006KT 7SM 14/10 A3012 RMK SLP205 T01380104 52008 IEM_DS3505
ZGGG,2006-04-14 04:00,ZGGG 140400Z AUTO 01006KT 7SM 14/09 A3009 RMK T01400090 IEM_DS3505
ZGGG,2006-04-14 05:00,ZGGG 140500Z AUTO 34006KT 7SM 15/09 A3006 RMK T01500090 IEM_DS3505
ZGGG,2006-04-14 06:00,ZGGG 140600Z AUTO 02004KT 9SM 15/10 A3003 RMK SLP177 T01530105 57028 IEM_DS3505
ZGGG,2006-04-14 07:00,ZGGG 140700Z AUTO 33008KT 7SM 15/10 A3000 RMK T01500100 IEM_DS3505
ZGGG,2006-04-14 08:00,ZGGG 140800Z AUTO 34008KT 7SM 15/10 A3000 RMK T01500100 IEM_DS3505
ZGGG,2006-04-14 09:00,ZGGG 140900Z AUTO 36002KT 7SM 14/11 A3000 RMK SLP168 T01450109 57009 IEM_DS3505
ZGGG,2006-04-14 10:00,ZGGG 141000Z AUTO 33008KT 1 1/2SM 13/11 A3000 RMK T01300110 IEM_DS3505
ZGGG,2006-04-14 11:00,ZGGG 141100Z AUTO 34006KT 2 1/2SM 13/11 A3003 RMK T01300110 IEM_DS3505
ZGGG,2006-04-14 12:00,ZGGG 141200Z AUTO 36004KT 6SM 13/11 A3003 RMK 60000 SLP185 T01300114 52016 IEM_DS3505
ZGGG,2006-04-14 13:00,ZGGG 141300Z AUTO 36008KT 7SM 14/10 A3006 RMK T01400100 IEM_DS3505
ZGGG,2006-04-14 14:00,ZGGG 141400Z AUTO 02004KT 7SM 13/10 A3009 RMK T01300100 IEM_DS3505
ZGGG,2006-04-14 15:00,ZGGG 141500Z AUTO 36004KT 6SM 13/11 A3009 RMK SLP202 T01300114 52017 IEM_DS3505
ZGGG,2006-04-14 16:00,ZGGG 141600Z AUTO 34004KT 7SM 13/11 A3009 RMK T01300110 IEM_DS3505
ZGGG,2006-04-14 17:00,ZGGG 141700Z AUTO 34006KT 5SM 13/10 A3009 RMK T01300100 IEM_DS3505
ZGGG,2006-04-14 18:00,ZGGG 141800Z AUTO 36004KT 6SM 13/11 A3009 RMK 60000 SLP196 T01270111 57005 IEM_DS3505
ZGGG,2006-04-14 19:00,ZGGG 141900Z AUTO 34008KT 2 1/2SM 12/10 A3006 RMK T01200100 IEM_DS3505
ZGGG,2006-04-14 20:00,ZGGG 142000Z AUTO 35006KT 7SM 12/09 A3006 RMK T01200090 IEM_DS3505
ZGGG,2006-04-14 21:00,ZGGG 142100Z AUTO 36004KT 7SM 12/10 A3006 RMK 70001 SLP190 T01230100 57007 IEM_DS3505
ZGGG,2006-04-14 22:00,ZGGG 142200Z AUTO 34008KT 3SM 12/09 A3009 RMK T01200090 IEM_DS3505
ZGGG,2006-04-14 23:00,ZGGG 142300Z AUTO 33008KT 6SM 12/09 A3012 RMK T01200090 IEM_DS3505
ZGGG,2006-04-15 00:00,ZGGG 150000Z AUTO 34004KT 9SM 12/10 A3015 RMK 60000 70001 SLP214 T01220103 52024 IEM_DS3505
ZGGG,2006-04-15 01:00,ZGGG 150100Z AUTO 34006KT 5SM 12/09 A3015 RMK T01200090 IEM_DS3505
ZGGG,2006-04-15 02:00,ZGGG 150200Z AUTO 34006KT 7SM 13/09 A3015 RMK T01300090 IEM_DS3505
ZGGG,2006-04-15 03:00,ZGGG 150300Z AUTO 36004KT 7SM 13/10 A3015 RMK SLP215 T01320102 52001 IEM_DS3505
ZGGG,2006-04-15 04:00,ZGGG 150400Z AUTO 33010KT 7SM 14/09 A3012 RMK T01400090 IEM_DS3505
ZGGG,2006-04-15 05:00,ZGGG 150500Z AUTO 34008KT 7SM 14/09 A3009 RMK T01400090 IEM_DS3505
ZGGG,2006-04-15 06:00,ZGGG 150600Z AUTO 36004KT 10SM 14/10 A3006 RMK 60000 SLP190 T01440102 57025 IEM_DS3505
ZGGG,2006-04-15 07:00,ZGGG 150700Z AUTO 34010KT 7SM 15/09 A3003 RMK T01500090 IEM_DS3505
ZGGG,2006-04-15 08:00,ZGGG 150800Z AUTO 34008KT 7SM 14/09 A3003 RMK T01400090 IEM_DS3505
ZGGG,2006-04-15 09:00,ZGGG 150900Z AUTO 02004KT 9SM 15/10 A3000 RMK SLP171 T01460098 57018 IEM_DS3505
ZGGG,2006-04-15 10:00,ZGGG 151000Z AUTO 35006KT 6SM 15/09 A3003 RMK T01500090 IEM_DS3505
ZGGG,2006-04-15 11:00,ZGGG 151100Z AUTO 34004KT 6SM 15/09 A3003 RMK T01500090 IEM_DS3505
ZGGG,2006-04-15 12:00,ZGGG 151200Z AUTO 34004KT 10SM 14/10 A3003 RMK SLP184 T01410095 52012 IEM_DS3505
ZGGG,2006-04-15 13:00,ZGGG 151300Z AUTO 36006KT 6SM 14/09 A3006 RMK T01400090 IEM_DS3505
ZGGG,2006-04-15 14:00,ZGGG 151400Z AUTO 6SM 15/10 A3009 RMK T01500100 IEM_DS3505
ZGGG,2006-04-15 15:00,ZGGG 151500Z AUTO 02002KT 10SM 14/10 A3009 RMK SLP201 T01420098 52017 IEM_DS3505
ZGGG,2006-04-15 16:00,ZGGG 151600Z AUTO 02006KT 6SM 14/09 A3009 RMK T01400090 IEM_DS3505
ZGGG,2006-04-15 17:00,ZGGG 151700Z AUTO 36004KT 6SM 14/09 A3009 RMK T01400090 IEM_DS3505
ZGGG,2006-04-15 18:00,ZGGG 151800Z AUTO 36002KT 9SM 12/10 A3006 RMK SLP191 T01240103 57010 IEM_DS3505
ZGGG,2006-04-15 19:00,ZGGG 151900Z AUTO 34006KT 6SM 14/08 A3003 RMK T01400080 IEM_DS3505
ZGGG,2006-04-15 20:00,ZGGG 152000Z AUTO 34006KT 6SM 13/08 A3003 RMK T01300080 IEM_DS3505
ZGGG,2006-04-15 21:00,ZGGG 152100Z AUTO 34004KT 8SM 12/09 A3003 RMK 70000 SLP185 T01220092 57006 IEM_DS3505
ZGGG,2006-04-15 22:00,ZGGG 152200Z AUTO 33004KT 4SM 13/08 A3006 RMK T01300080 IEM_DS3505
ZGGG,2006-04-15 23:00,ZGGG 152300Z AUTO 35004KT 4SM 13/08 A3006 RMK T01300080 IEM_DS3505
ZGGG,2006-04-16 00:00,ZGGG 160000Z AUTO 02004KT 9SM 15/08 A3009 RMK 70000 SLP195 T01510081 52011 IEM_DS3505
ZGGG,2006-04-16 01:00,ZGGG 160100Z AUTO 04006KT 5SM 17/07 A3009 RMK T01700070 IEM_DS3505
ZGGG,2006-04-16 02:00,ZGGG 160200Z AUTO 05006KT 6SM 18/07 A3009 RMK T01800070 IEM_DS3505
ZGGG,2006-04-16 03:00,ZGGG 160300Z AUTO 14004KT 16SM 20/09 A3006 RMK SLP188 T01970087 57007 IEM_DS3505
ZGGG,2006-04-16 04:00,ZGGG 160400Z AUTO 6SM 21/07 A3006 RMK T02100070 IEM_DS3505
ZGGG,2006-04-16 05:00,ZGGG 160500Z AUTO 12004KT 6SM 22/08 A3003 RMK T02200080 IEM_DS3505
ZGGG,2006-04-16 06:00,ZGGG 160600Z AUTO 16004KT 15SM 23/09 A3000 RMK SLP167 T02310091 57021 IEM_DS3505
ZGGG,2006-04-16 07:00,ZGGG 160700Z AUTO 6SM 23/07 A2997 RMK T02300070 IEM_DS3505
ZGGG,2006-04-16 08:00,ZGGG 160800Z AUTO 14004KT 6SM 24/08 A2997 RMK T02400080 IEM_DS3505
ZGGG,2006-04-16 09:00,ZGGG 160900Z AUTO 11004KT 14SM 23/10 A2994 RMK SLP153 T02310102 57014 IEM_DS3505
ZGGG,2006-04-16 10:00,ZGGG 161000Z AUTO 6SM 23/07 A2994 RMK T02300070 IEM_DS3505
ZGGG,2006-04-16 11:00,ZGGG 161100Z AUTO 6SM 21/10 A2997 RMK T02100100 IEM_DS3505
ZGGG,2006-04-16 12:00,ZGGG 161200Z AUTO 09004KT 13SM 20/12 A2997 RMK SLP164 T01960121 52011 IEM_DS3505
ZGGG,2006-04-16 13:00,ZGGG 161300Z AUTO 10004KT 4SM 19/12 A3000 RMK T01900120 IEM_DS3505
ZGGG,2006-04-16 14:00,ZGGG 161400Z AUTO 12004KT 4SM 18/12 A3000 RMK T01800120 IEM_DS3505
ZGGG,2006-04-16 15:00,ZGGG 161500Z AUTO 09004KT 11SM 18/13 A3003 RMK SLP179 T01760127 52015 IEM_DS3505
ZGGG,2006-04-16 16:00,ZGGG 161600Z AUTO 08004KT 4SM 17/12 A3003 RMK T01700120 IEM_DS3505
ZGGG,2006-04-16 17:00,ZGGG 161700Z AUTO 4SM 16/12 A3003 RMK T01600120 IEM_DS3505
ZGGG,2006-04-16 18:00,ZGGG 161800Z AUTO 04002KT 10SM 16/13 A3003 RMK SLP177 T01580127 57001 IEM_DS3505
ZGGG,2006-04-16 19:00,ZGGG 161900Z AUTO 03004KT 3SM 15/12 A3003 RMK T01500120 IEM_DS3505
ZGGG,2006-04-16 20:00,ZGGG 162000Z AUTO 05004KT 3SM 15/12 A3000 RMK T01500120 IEM_DS3505
ZGGG,2006-04-16 21:00,ZGGG 162100Z AUTO 02002KT 10SM 14/12 A3000 RMK SLP168 T01450122 57010 IEM_DS3505
ZGGG,2006-04-16 22:00,ZGGG 162200Z AUTO 08002KT 1 1/2SM 14/12 A3000 RMK T01400120 IEM_DS3505
ZGGG,2006-04-16 23:00,ZGGG 162300Z AUTO 06002KT 2SM 15/12 A3003 RMK T01500120 IEM_DS3505
ZGGG,2006-04-17 00:00,ZGGG 170000Z AUTO 04002KT 12SM 18/12 A3003 RMK SLP179 T01780118 52011 IEM_DS3505
ZGGG,2006-04-17 01:00,ZGGG 170100Z AUTO 3SM 18/11 A3003 RMK T01800110 IEM_DS3505
ZGGG,2006-04-17 03:00,ZGGG 170300Z AUTO 20002KT 11SM 22/12 A3000 RMK SLP172 T02240124 57006 IEM_DS3505
ZGGG,2006-04-17 04:00,ZGGG 170400Z AUTO 33002KT 5SM 24/12 A3000 RMK T02400120 IEM_DS3505
ZGGG,2006-04-17 05:00,ZGGG 170500Z AUTO 24004KT 6SM 24/11 A2997 RMK T02400110 IEM_DS3505
ZGGG,2006-04-17 06:00,ZGGG 170600Z AUTO 34002KT 9SM 26/13 A2994 RMK SLP142 T02590134 57030 IEM_DS3505
ZGGG,2006-04-17 07:00,ZGGG 170700Z AUTO 5SM 25/11 A2991 RMK T02500110 IEM_DS3505
ZGGG,2006-04-17 08:00,ZGGG 170800Z AUTO 19004KT 5SM 26/10 A2988 RMK T02600100 IEM_DS3505
ZGGG,2006-04-17 09:00,ZGGG 170900Z AUTO 16004KT 7SM 26/13 A2988 RMK SLP122 T02570129 57020 IEM_DS3505
ZGGG,2006-04-17 10:00,ZGGG 171000Z AUTO 00000KT 4SM 25/12 A2988 RMK T02500120 IEM_DS3505
ZGGG,2006-04-17 11:00,ZGGG 171100Z AUTO 00000KT 4SM 24/14 A2988 RMK T02400140 IEM_DS3505
ZGGG,2006-04-17 12:00,ZGGG 171200Z AUTO 18002KT 7SM 23/14 RMK SLP138 T02340141 52016 IEM_DS3505
ZGGG,2006-04-17 14:00,ZGGG 171400Z AUTO 16002KT 2 1/2SM 23/14 A2994 RMK T02300140 IEM_DS3505
ZGGG,2006-04-17 15:00,ZGGG 171500Z AUTO 14002KT 9SM 22/14 A2994 RMK SLP152 T02190143 52014 IEM_DS3505
ZGGG,2006-04-17 16:00,ZGGG 171600Z AUTO 00000KT 3SM 22/14 A2994 RMK T02200140 IEM_DS3505
ZGGG,2006-04-17 17:00,ZGGG 171700Z AUTO 00000KT 3SM 22/15 A2994 RMK T02200150 IEM_DS3505
ZGGG,2006-04-17 18:00,ZGGG 171800Z AUTO 11004KT 9SM 21/15 A2994 RMK SLP148 T02140146 57004 IEM_DS3505
ZGGG,2006-04-17 19:00,ZGGG 171900Z AUTO 00000KT 2 1/2SM 21/16 A2994 RMK T02100160 IEM_DS3505
ZGGG,2006-04-17 20:00,ZGGG 172000Z AUTO 00000KT 2SM 20/16 A2994 RMK T02000160 IEM_DS3505
ZGGG,2006-04-17 21:00,ZGGG 172100Z AUTO 02002KT 9SM 20/16 A2997 RMK 70000 SLP154 T01970160 52006 IEM_DS3505
ZGGG,2006-04-17 22:00,ZGGG 172200Z AUTO 00000KT 1 1/4SM 20/16 A2997 RMK T02000160 IEM_DS3505
ZGGG,2006-04-17 23:00,ZGGG 172300Z AUTO 00000KT 1 1/2SM 20/16 A3000 RMK T02000160 IEM_DS3505
ZGGG,2006-04-18 00:00,ZGGG 180000Z AUTO 00000KT 2 1/2SM 21/16 A3000 RMK 60000 70000 SLP171 T02060158 52017 IEM_DS3505
ZGGG,2006-04-18 01:00,ZGGG 180100Z AUTO 07004KT 1 1/2SM 22/15 A3003 RMK T02200150 IEM_DS3505
ZGGG,2006-04-18 02:00,ZGGG 180200Z AUTO 07004KT 2SM 22/15 A3003 RMK T02200150 IEM_DS3505
ZGGG,2006-04-18 03:00,ZGGG 180300Z AUTO 16004KT 3SM 24/16 A3000 RMK SLP171 T02410156 54000 IEM_DS3505
ZGGG,2006-04-18 04:00,ZGGG 180400Z AUTO 16004KT 3SM 25/15 A3000 RMK T02500150 IEM_DS3505
ZGGG,2006-04-18 05:00,ZGGG 180500Z AUTO 3SM 26/16 A2997 RMK T02600160 IEM_DS3505
ZGGG,2006-04-18 06:00,ZGGG 180600Z AUTO 09004KT 2 1/2SM 27/17 A2994 RMK SLP152 T02690174 57019 IEM_DS3505
ZGGG,2006-04-18 07:00,ZGGG 180700Z AUTO 2 1/2SM 27/16 A2994 RMK T02700160 IEM_DS3505
ZGGG,2006-04-18 08:00,ZGGG 180800Z AUTO 20004KT 2 1/2SM 28/17 A2994 RMK T02800170 IEM_DS3505
ZGGG,2006-04-18 09:00,ZGGG 180900Z AUTO 25002KT 4SM 27/19 A2991 RMK SLP139 T02730186 57013 IEM_DS3505
ZGGG,2006-04-18 10:00,ZGGG 181000Z AUTO 2SM 27/17 A2991 RMK T02700170 IEM_DS3505
ZGGG,2006-04-18 11:00,ZGGG 181100Z AUTO 2 1/2SM 25/18 A2994 RMK T02500180 IEM_DS3505
ZGGG,2006-04-18 12:00,ZGGG 181200Z AUTO 16002KT 6SM 24/20 A2994 RMK SLP151 T02450196 52012 IEM_DS3505
ZGGG,2006-04-18 13:00,ZGGG 181300Z AUTO 35004KT 2 1/2SM 25/17 A2997 RMK T02500170 IEM_DS3505
ZGGG,2006-04-18 14:00,ZGGG 181400Z AUTO 2SM 23/18 A2997 RMK T02300180 IEM_DS3505
ZGGG,2006-04-18 15:00,ZGGG 181500Z AUTO 32002KT 5SM 24/19 A2997 RMK SLP163 T02360191 52012 IEM_DS3505
ZGGG,2006-04-18 16:00,ZGGG 181600Z AUTO 2SM 23/18 A2997 RMK T02300180 IEM_DS3505
ZGGG,2006-04-18 17:00,ZGGG 181700Z AUTO 35004KT 1 1/2SM 23/18 A2997 RMK T02300180 IEM_DS3505
ZGGG,2006-04-18 18:00,ZGGG 181800Z AUTO 09002KT 4SM 22/19 A2997 RMK SLP154 T02220194 57008 IEM_DS3505
ZGGG,2006-04-18 19:00,ZGGG 181900Z AUTO 00000KT 1 1/4SM 21/18 A2997 RMK T02100180 IEM_DS3505
ZGGG,2006-04-18 20:00,ZGGG 182000Z AUTO 36002KT 1 1/4SM 21/18 A2994 RMK T02100180 IEM_DS3505
ZGGG,2006-04-18 21:00,ZGGG 182100Z AUTO 09002KT 2 1/2SM 22/20 A2997 RMK SLP154 T02170198 54000 IEM_DS3505
ZGGG,2006-04-18 22:00,ZGGG 182200Z AUTO 09004KT 1SM 21/18 A2997 RMK T02100180 IEM_DS3505
ZGGG,2006-04-18 23:00,ZGGG 182300Z AUTO 00000KT 1SM 22/18 A3000 RMK T02200180 IEM_DS3505
ZGGG,2006-04-19 00:00,ZGGG 190000Z AUTO 32002KT 3SM 23/20 A3000 RMK SLP169 T02340203 52014 IEM_DS3505
ZGGG,2006-04-19 01:00,ZGGG 190100Z AUTO 1SM 22/18 A3000 RMK T02200180 IEM_DS3505
ZGGG,2006-04-19 02:00,ZGGG 190200Z AUTO 1SM 22/19 A3003 RMK T02200190 IEM_DS3505
ZGGG,2006-04-19 03:00,ZGGG 190300Z AUTO 36002KT 1 1/2SM 25/20 A3003 RMK SLP171 T02510201 52002 IEM_DS3505
ZGGG,2006-04-19 04:00,ZGGG 190400Z AUTO 10004KT 1SM 24/20 A3000 RMK T02400200 IEM_DS3505
ZGGG,2006-04-19 05:00,ZGGG 190500Z AUTO 08004KT 1SM 25/20 A2997 RMK T02500200 IEM_DS3505
ZGGG,2006-04-19 06:00,ZGGG 190600Z AUTO 27004KT 2 1/2SM 29/19 A2994 RMK SLP145 T02890190 57025 IEM_DS3505
ZGGG,2006-04-19 07:00,ZGGG 190700Z AUTO 1 1/2SM 28/20 A2991 RMK T02800200 IEM_DS3505
ZGGG,2006-04-19 08:00,ZGGG 190800Z AUTO 2 1/2SM 29/19 A2991 RMK T02900190 IEM_DS3505
ZGGG,2006-04-19 09:00,ZGGG 190900Z AUTO 34004KT 4SM 28/20 A2991 RMK SLP132 T02800198 57013 IEM_DS3505
ZGGG,2006-04-19 10:00,ZGGG 191000Z AUTO 1 1/2SM 27/20 A2991 RMK T02700200 IEM_DS3505
ZGGG,2006-04-19 11:00,ZGGG 191100Z AUTO 07004KT 2SM 26/21 A2991 RMK T02600210 IEM_DS3505
ZGGG,2006-04-19 12:00,ZGGG 191200Z AUTO 09002KT 6SM 26/20 A2994 RMK SLP144 T02580201 52012 IEM_DS3505
ZGGG,2006-04-19 13:00,ZGGG 191300Z AUTO 2SM 25/21 A2994 RMK T02500210 IEM_DS3505
ZGGG,2006-04-19 14:00,ZGGG 191400Z AUTO 00000KT 2SM 24/20 A2997 RMK T02400200 IEM_DS3505
ZGGG,2006-04-19 15:00,ZGGG 191500Z AUTO 07002KT 4SM 23/21 A2997 RMK SLP157 T02330206 52012 IEM_DS3505
ZGGG,2006-04-19 16:00,ZGGG 191600Z AUTO 1 1/4SM 23/20 A2994 RMK T02300200 IEM_DS3505
ZGGG,2006-04-19 17:00,ZGGG 191700Z AUTO 00000KT 1SM 22/20 A2994 RMK T02200200 IEM_DS3505
ZGGG,2006-04-19 18:00,ZGGG 191800Z AUTO 36002KT 3SM 22/20 A2994 RMK SLP144 T02210204 57012 IEM_DS3505
ZGGG,2006-04-19 19:00,ZGGG 191900Z AUTO 00000KT 1SM 22/20 A2994 RMK T02200200 IEM_DS3505
ZGGG,2006-04-19 20:00,ZGGG 192000Z AUTO 00000KT 1SM 21/20 A2991 RMK T02100200 IEM_DS3505
ZGGG,2006-04-19 21:00,ZGGG 192100Z AUTO 00000KT 4SM 21/20 A2994 RMK SLP146 T02140199 52002 IEM_DS3505
ZGGG,2006-04-19 22:00,ZGGG 192200Z AUTO 00000KT 1SM 21/19 A2994 RMK T02100190 IEM_DS3505
ZGGG,2006-04-19 23:00,ZGGG 192300Z AUTO 1SM 21/19 A2997 RMK T02100190 IEM_DS3505
ZGGG,2006-04-20 00:00,ZGGG 200000Z AUTO 02002KT 2SM 24/21 A3000 RMK SLP161 T02450212 52015 IEM_DS3505
ZGGG,2006-04-20 01:00,ZGGG 200100Z AUTO 06004KT 1 1/4SM 25/20 A3000 RMK T02500200 IEM_DS3505
ZGGG,2006-04-20 02:00,ZGGG 200200Z AUTO 07004KT 2 1/2SM 27/20 A3000 RMK T02700200 IEM_DS3505
ZGGG,2006-04-20 03:00,ZGGG 200300Z AUTO 11002KT 3SM 30/21 A2997 RMK SLP155 T02970206 57006 IEM_DS3505
ZGGG,2006-04-20 04:00,ZGGG 200400Z AUTO 4SM 30/20 A2994 RMK T03000200 IEM_DS3505
ZGGG,2006-04-20 05:00,ZGGG 200500Z AUTO 4SM 31/19 A2991 RMK T03100190 IEM_DS3505
ZGGG,2006-04-20 06:00,ZGGG 200600Z AUTO 16004KT 4SM 32/20 A2988 RMK SLP128 T03170200 57027 IEM_DS3505
ZGGG,2006-04-20 07:00,ZGGG 200700Z AUTO 3SM 31/19 A2985 RMK T03100190 IEM_DS3505
ZGGG,2006-04-20 08:00,ZGGG 200800Z AUTO 3SM 31/19 A2985 RMK T03100190 IEM_DS3505
ZGGG,2006-04-20 09:00,ZGGG 200900Z AUTO 16004KT 4SM 30/20 A2983 RMK SLP113 T03030205 57015 IEM_DS3505
ZGGG,2006-04-20 10:00,ZGGG 201000Z AUTO 11002KT 1 1/2SM 30/21 A2983 RMK T03000210 IEM_DS3505
ZGGG,2006-04-20 11:00,ZGGG 201100Z AUTO 14008KT 1 1/2SM 27/21 A2985 RMK T02700210 IEM_DS3505
ZGGG,2006-04-20 12:00,ZGGG 201200Z AUTO 18004KT 4SM 26/21 A2988 RMK SLP132 T02570212 52019 IEM_DS3505
ZGGG,2006-04-20 13:00,ZGGG 201300Z AUTO 16008KT 2 1/2SM 26/20 A2991 RMK T02600200 IEM_DS3505
ZGGG,2006-04-20 14:00,ZGGG 201400Z AUTO 16006KT 2 1/2SM 26/20 A2991 RMK T02600200 IEM_DS3505
ZGGG,2006-04-20 15:00,ZGGG 201500Z AUTO 16004KT 7SM 24/20 A2991 RMK SLP144 T02420197 52012 IEM_DS3505
ZGGG,2006-04-20 16:00,ZGGG 201600Z AUTO 14006KT 2 1/2SM 24/19 A2991 RMK T02400190 IEM_DS3505
ZGGG,2006-04-20 17:00,ZGGG 201700Z AUTO 13006KT 2 1/2SM 24/19 A2991 RMK T02400190 IEM_DS3505
ZGGG,2006-04-20 18:00,ZGGG 201800Z AUTO 14006KT 7SM 23/19 A2988 RMK SLP132 T02320192 57012 IEM_DS3505
ZGGG,2006-04-20 19:00,ZGGG 201900Z AUTO 2 1/2SM 23/19 A2988 RMK T02300190 IEM_DS3505
ZGGG,2006-04-20 20:00,ZGGG 202000Z AUTO 10002KT 2 1/2SM 23/18 A2988 RMK T02300180 IEM_DS3505
ZGGG,2006-04-20 21:00,ZGGG 202100Z AUTO 11004KT 6SM 23/19 A2988 RMK SLP129 T02280186 57003 IEM_DS3505
ZGGG,2006-04-20 22:00,ZGGG 202200Z AUTO 10004KT 2 1/2SM 23/18 A2988 RMK T02300180 IEM_DS3505
ZGGG,2006-04-20 23:00,ZGGG 202300Z AUTO 07004KT 2 1/2SM 22/17 A2991 RMK T02200170 IEM_DS3505
ZGGG,2006-04-21 00:00,ZGGG 210000Z AUTO 11004KT 7SM 23/18 A2991 RMK SLP138 T02320179 52009 IEM_DS3505
ZGGG,2006-04-21 01:00,ZGGG 210100Z AUTO 14004KT 2 1/2SM 24/17 A2991 RMK T02400170 IEM_DS3505
ZGGG,2006-04-21 02:00,ZGGG 210200Z AUTO 12004KT 2 1/2SM 25/17 A2991 RMK T02500170 IEM_DS3505
ZGGG,2006-04-21 03:00,ZGGG 210300Z AUTO 14004KT 2 1/2SM 26/19 A2991 RMK SLP135 T02600192 57003 IEM_DS3505
ZGGG,2006-04-21 04:00,ZGGG 210400Z AUTO 2 1/2SM 26/19 A2988 RMK T02600190 IEM_DS3505
ZGGG,2006-04-21 05:00,ZGGG 210500Z AUTO 17006KT 3SM 29/20 A2985 RMK T02900200 IEM_DS3505
ZGGG,2006-04-21 06:00,ZGGG 210600Z AUTO 16006KT 3SM 28/20 A2983 RMK SLP106 T02830201 57029 IEM_DS3505
ZGGG,2006-04-21 07:00,ZGGG 210700Z AUTO 17006KT 3SM 29/20 A2980 RMK T02900200 IEM_DS3505
ZGGG,2006-04-21 08:00,ZGGG 210800Z AUTO 18008KT 3SM 29/20 A2977 RMK T02900200 IEM_DS3505
ZGGG,2006-04-21 09:00,ZGGG 210900Z AUTO 16004KT 4SM 28/20 A2974 RMK SLP084 T02820202 57022 IEM_DS3505
ZGGG,2006-04-21 10:00,ZGGG 211000Z AUTO 15006KT 4SM 28/20 A2974 RMK T02800200 IEM_DS3505
ZGGG,2006-04-21 11:00,ZGGG 211100Z AUTO 15008KT 3SM 27/20 A2977 RMK T02700200 IEM_DS3505
ZGGG,2006-04-21 12:00,ZGGG 211200Z AUTO 14004KT 6SM 25/21 A2977 RMK SLP092 T02540206 52008 IEM_DS3505
ZGGG,2006-04-21 13:00,ZGGG 211300Z AUTO 12004KT 4SM 25/20 A2980 RMK T02500200 IEM_DS3505
ZGGG,2006-04-21 14:00,ZGGG 211400Z AUTO 12004KT 3SM 24/20 A2980 RMK T02400200 IEM_DS3505
ZGGG,2006-04-21 15:00,ZGGG 211500Z AUTO 14004KT 7SM 24/21 A2980 RMK SLP104 T02370208 52012 IEM_DS3505
ZGGG,2006-04-21 16:00,ZGGG 211600Z AUTO 11004KT 2 1/2SM 24/20 A2980 RMK T02400200 IEM_DS3505
ZGGG,2006-04-21 17:00,ZGGG 211700Z AUTO 2 1/2SM 24/20 A2980 RMK T02400200 IEM_DS3505
ZGGG,2006-04-21 18:00,ZGGG 211800Z AUTO 14002KT 7SM 24/21 A2977 RMK SLP090 T02370208 57014 IEM_DS3505
ZGGG,2006-04-21 19:00,ZGGG 211900Z AUTO 13002KT 2 1/2SM 24/20 A2977 RMK T02400200 IEM_DS3505
ZGGG,2006-04-21 20:00,ZGGG 212000Z AUTO 14002KT 2SM 24/20 A2977 RMK T02400200 IEM_DS3505
ZGGG,2006-04-21 21:00,ZGGG 212100Z AUTO 11002KT 6SM 24/21 A2977 RMK SLP090 T02370212 54000 IEM_DS3505
ZGGG,2006-04-21 22:00,ZGGG 212200Z AUTO 00000KT 2SM 23/21 A2980 RMK T02300210 IEM_DS3505
ZGGG,2006-04-21 23:00,ZGGG 212300Z AUTO 13004KT 2SM 24/21 A2980 RMK T02400210 IEM_DS3505
ZGGG,2006-04-22 00:00,ZGGG 220000Z AUTO 14004KT 5SM 25/22 A2980 RMK SLP102 T02520217 52012 IEM_DS3505
ZGGG,2006-04-22 01:00,ZGGG 220100Z AUTO 17004KT 3SM 26/21 A2983 RMK T02600210 IEM_DS3505
ZGGG,2006-04-22 02:00,ZGGG 220200Z AUTO 14004KT 3SM 27/22 A2980 RMK T02700220 IEM_DS3505
ZGGG,2006-04-22 03:00,ZGGG 220300Z AUTO 18004KT 9SM 28/21 A2980 RMK SLP099 T02810214 57003 IEM_DS3505
ZGGG,2006-04-22 04:00,ZGGG 220400Z AUTO 16006KT 3SM 29/21 A2977 RMK T02900210 IEM_DS3505
ZGGG,2006-04-22 05:00,ZGGG 220500Z AUTO 20010KT 4SM 30/21 A2977 RMK T03000210 IEM_DS3505
ZGGG,2006-04-22 06:00,ZGGG 220600Z AUTO 18002KT 9SM 30/21 A2974 RMK SLP073 T03040212 57026 IEM_DS3505
ZGGG,2006-04-22 07:00,ZGGG 220700Z AUTO 14004KT 4SM 29/21 A2971 RMK T02900210 IEM_DS3505
ZGGG,2006-04-22 08:00,ZGGG 220800Z AUTO 13006KT 3SM 29/22 A2968 RMK T02900220 IEM_DS3505
ZGGG,2006-04-22 09:00,ZGGG 220900Z AUTO 11004KT 9SM 28/23 A2968 RMK SLP061 T02820227 57012 IEM_DS3505
ZGGG,2006-04-22 10:00,ZGGG 221000Z AUTO 14006KT 4SM 29/22 A2968 RMK T02900220 IEM_DS3505
ZGGG,2006-04-22 11:00,ZGGG 221100Z AUTO 13004KT 4SM 27/22 A2971 RMK T02700220 IEM_DS3505
ZGGG,2006-04-22 12:00,ZGGG 221200Z AUTO 11002KT 8SM 26/23 A2971 RMK SLP074 T02640229 52013 IEM_DS3505
ZGGG,2006-04-22 13:00,ZGGG 221300Z AUTO 13004KT 3SM 27/22 A2974 RMK T02700220 IEM_DS3505
ZGGG,2006-04-22 14:00,ZGGG 221400Z AUTO 13004KT 4SM 26/22 A2977 RMK T02600220 IEM_DS3505
ZGGG,2006-04-22 15:00,ZGGG 221500Z AUTO 14004KT 7SM 26/23 A2977 RMK SLP093 T02560227 52019 IEM_DS3505
ZGGG,2006-04-22 16:00,ZGGG 221600Z AUTO 11004KT 3SM 25/22 A2980 RMK T02500220 IEM_DS3505
ZGGG,2006-04-22 17:00,ZGGG 221700Z AUTO 08004KT 3SM 25/22 A2977 RMK T02500220 IEM_DS3505
ZGGG,2006-04-22 18:00,ZGGG 221800Z AUTO 11004KT 7SM 25/23 A2977 RMK SLP090 T02520229 57003 IEM_DS3505
ZGGG,2006-04-22 19:00,ZGGG 221900Z AUTO 07002KT 2 1/2SM 25/22 A2977 RMK T02500220 IEM_DS3505
ZGGG,2006-04-22 20:00,ZGGG 222000Z AUTO 09004KT 2SM 24/22 A2977 RMK T02400220 IEM_DS3505
ZGGG,2006-04-22 21:00,ZGGG 222100Z AUTO 09002KT 5SM 24/23 A2977 RMK SLP086 T02440228 57004 IEM_DS3505
ZGGG,2006-04-22 22:00,ZGGG 222200Z AUTO 08004KT 1 1/2SM 25/22 A2977 RMK T02500220 IEM_DS3505
ZGGG,2006-04-22 23:00,ZGGG 222300Z AUTO 12004KT 1SM 25/23 A2980 RMK T02500230 IEM_DS3505
ZGGG,2006-04-23 00:00,ZGGG 230000Z AUTO 16004KT 2SM 26/24 A2983 RMK SLP103 T02610236 52017 IEM_DS3505
ZGGG,2006-04-23 01:00,ZGGG 230100Z AUTO 09004KT 1 1/2SM 27/23 A2983 RMK T02700230 IEM_DS3505
ZGGG,2006-04-23 02:00,ZGGG 230200Z AUTO 06004KT 2SM 28/23 A2983 RMK T02800230 IEM_DS3505
ZGGG,2006-04-23 03:00,ZGGG 230300Z AUTO 18004KT 4SM 29/23 A2983 RMK SLP108 T02930230 52005 IEM_DS3505
ZGGG,2006-04-23 04:00,ZGGG 230400Z AUTO 09004KT 1 1/2SM 28/24 A2980 RMK T02800240 IEM_DS3505
ZGGG,2006-04-23 05:00,ZGGG 230500Z AUTO 09004KT 2 1/2SM 29/23 A2977 RMK T02900230 IEM_DS3505
ZGGG,2006-04-23 06:00,ZGGG 230600Z AUTO 14004KT 4SM 29/24 A2974 RMK 60000 SLP077 T02920236 57031 IEM_DS3505
ZGGG,2006-04-23 07:00,ZGGG 230700Z AUTO 06004KT 1 1/2SM 27/23 A2971 RMK T02700230 IEM_DS3505
ZGGG,2006-04-23 08:00,ZGGG 230800Z AUTO 08004KT 2 1/2SM 26/24 A2974 RMK T02600240 IEM_DS3505
ZGGG,2006-04-23 09:00,ZGGG 230900Z AUTO 16004KT 3SM 27/24 A2974 RMK SLP078 T02660243 52001 IEM_DS3505
ZGGG,2006-04-23 10:00,ZGGG 231000Z AUTO 12006KT 7SM 25/22 A2977 RMK T02500220 IEM_DS3505
ZGGG,2006-04-23 11:00,ZGGG 231100Z AUTO 07004KT 2 1/2SM 24/22 A2980 RMK T02400220 IEM_DS3505
ZGGG,2006-04-23 12:00,ZGGG 231200Z AUTO 02002KT 4SM 25/24 A2980 RMK 60043 SLP097 T02540240 52019 IEM_DS3505
ZGGG,2006-04-23 13:00,ZGGG 231300Z AUTO 2SM 24/22 A2980 RMK T02400220 IEM_DS3505
ZGGG,2006-04-23 14:00,ZGGG 231400Z AUTO 2SM 24/22 A2983 RMK T02400220 IEM_DS3505
ZGGG,2006-04-23 15:00,ZGGG 231500Z AUTO 09002KT 1 1/2SM 25/24 A2983 RMK SLP110 T02520240 52013 IEM_DS3505
ZGGG,2006-04-23 16:00,ZGGG 231600Z AUTO 07004KT 2 1/2SM 24/22 A2983 RMK T02400220 IEM_DS3505
ZGGG,2006-04-23 17:00,ZGGG 231700Z AUTO 2SM 24/22 A2983 RMK T02400220 IEM_DS3505
ZGGG,2006-04-23 18:00,ZGGG 231800Z AUTO 18002KT 1 1/4SM 25/24 A2980 RMK SLP101 T02540244 57009 IEM_DS3505
ZGGG,2006-04-23 19:00,ZGGG 231900Z AUTO 07004KT 1 1/2SM 24/22 A2980 RMK T02400220 IEM_DS3505
ZGGG,2006-04-23 20:00,ZGGG 232000Z AUTO 09004KT 1 1/2SM 24/22 A2980 RMK T02400220 IEM_DS3505
ZGGG,2006-04-23 21:00,ZGGG 232100Z AUTO 11002KT 1 1/4SM 24/23 A2983 RMK 70044 SLP104 T02450231 52003 IEM_DS3505
ZGGG,2006-04-23 22:00,ZGGG 232200Z AUTO 07004KT 1 1/4SM 24/22 A2983 RMK T02400220 IEM_DS3505
ZGGG,2006-04-23 23:00,ZGGG 232300Z AUTO 07004KT 1 1/2SM 24/22 A2985 RMK T02400220 IEM_DS3505
ZGGG,2006-04-24 00:00,ZGGG 240000Z AUTO 11002KT 1 1/4SM 26/23 A2985 RMK 70044 SLP122 T02570232 52018 IEM_DS3505
ZGGG,2006-04-24 01:00,ZGGG 240100Z AUTO 09004KT 1 1/2SM 26/23 A2988 RMK T02600230 IEM_DS3505
ZGGG,2006-04-24 02:00,ZGGG 240200Z AUTO 07004KT 2SM 28/23 A2988 RMK T02800230 IEM_DS3505
ZGGG,2006-04-24 03:00,ZGGG 240300Z AUTO 18002KT 2SM 30/24 A2988 RMK SLP124 T02960235 52002 IEM_DS3505
ZGGG,2006-04-24 04:00,ZGGG 240400Z AUTO 2 1/2SM 31/23 A2985 RMK T03100230 IEM_DS3505
ZGGG,2006-04-24 05:00,ZGGG 240500Z AUTO 17004KT 2SM 30/22 A2983 RMK T03000220 IEM_DS3505
ZGGG,2006-04-24 06:00,ZGGG 240600Z AUTO 16008KT 6SM 30/23 A2980 RMK SLP100 T03050227 57024 IEM_DS3505
ZGGG,2006-04-24 07:00,ZGGG 240700Z AUTO 10004KT 2 1/2SM 31/24 A2977 RMK T03100240 IEM_DS3505
ZGGG,2006-04-24 08:00,ZGGG 240800Z AUTO 17012G21KT 2SM 29/22 A2977 RMK T02900220 IEM_DS3505
ZGGG,2006-04-24 09:00,ZGGG 240900Z AUTO 11006KT 9SM 28/23 A2977 RMK SLP088 T02770231 57012 IEM_DS3505
ZGGG,2006-04-24 10:00,ZGGG 241000Z AUTO 13006KT 4SM 27/22 A2977 RMK T02700220 IEM_DS3505
ZGGG,2006-04-24 11:00,ZGGG 241100Z AUTO 14008KT 2 1/2SM 27/22 A2980 RMK T02700220 IEM_DS3505
ZGGG,2006-04-24 12:00,ZGGG 241200Z AUTO 14008KT 10SM 26/22 A2980 RMK 60004 SLP102 T02650224 52014 IEM_DS3505
ZGGG,2006-04-24 13:00,ZGGG 241300Z AUTO 16010KT 5SM 27/22 A2983 RMK T02700220 IEM_DS3505
ZGGG,2006-04-24 14:00,ZGGG 241400Z AUTO 16010KT 7SM 26/22 A2985 RMK T02600220 IEM_DS3505
ZGGG,2006-04-24 15:00,ZGGG 241500Z AUTO 14006KT 9SM 26/22 A2985 RMK SLP122 T02550218 52020 IEM_DS3505
ZGGG,2006-04-24 16:00,ZGGG 241600Z AUTO 16006KT 5SM 25/21 A2985 RMK T02500210 IEM_DS3505
ZGGG,2006-04-24 17:00,ZGGG 241700Z AUTO 09002KT 4SM 25/22 A2985 RMK T02500220 IEM_DS3505
ZGGG,2006-04-24 18:00,ZGGG 241800Z AUTO 11006KT 8SM 25/22 A2983 RMK SLP111 T02500219 57011 IEM_DS3505
ZGGG,2006-04-24 19:00,ZGGG 241900Z AUTO 08006KT 3SM 24/21 A2983 RMK T02400210 IEM_DS3505
ZGGG,2006-04-24 20:00,ZGGG 242000Z AUTO 08006KT 2 1/2SM 24/21 A2983 RMK T02400210 IEM_DS3505
ZGGG,2006-04-24 21:00,ZGGG 242100Z AUTO 11004KT 7SM 24/21 A2983 RMK 70004 SLP105 T02450212 57006 IEM_DS3505
ZGGG,2006-04-24 22:00,ZGGG 242200Z AUTO 10004KT 2SM 23/21 A2983 RMK T02300210 IEM_DS3505
ZGGG,2006-04-24 23:00,ZGGG 242300Z AUTO 1 1/4SM 24/21 A2983 RMK T02400210 IEM_DS3505
ZGGG,2006-04-25 00:00,ZGGG 250000Z AUTO 14004KT 3SM 25/21 A2985 RMK 70004 SLP116 T02480209 52011 IEM_DS3505
ZGGG,2006-04-25 01:00,ZGGG 250100Z AUTO 11004KT 2SM 26/21 A2985 RMK T02600210 IEM_DS3505
ZGGG,2006-04-25 02:00,ZGGG 250200Z AUTO 13004KT 2 1/2SM 26/21 A2985 RMK T02600210 IEM_DS3505
ZGGG,2006-04-25 03:00,ZGGG 250300Z AUTO 14004KT 4SM 27/21 A2985 RMK SLP120 T02660214 52004 IEM_DS3505
ZGGG,2006-04-25 04:00,ZGGG 250400Z AUTO 14006KT 2 1/2SM 27/22 A2983 RMK T02700220 IEM_DS3505
ZGGG,2006-04-25 05:00,ZGGG 250500Z AUTO 15010KT 3SM 28/21 A2983 RMK T02800210 IEM_DS3505
ZGGG,2006-04-25 06:00,ZGGG 250600Z AUTO 16006KT 9SM 27/22 A2980 RMK SLP096 T02740217 57024 IEM_DS3505
ZGGG,2006-04-25 07:00,ZGGG 250700Z AUTO 16010KT 3SM 28/21 A2977 RMK T02800210 IEM_DS3505
ZGGG,2006-04-25 08:00,ZGGG 250800Z AUTO 14006KT 1SM 25/22 A2977 RMK T02500220 IEM_DS3505
ZGGG,2006-04-25 09:00,ZGGG 250900Z AUTO 16002KT 7SM 26/22 A2977 RMK SLP087 T02570224 57009 IEM_DS3505
ZGGG,2006-04-25 10:00,ZGGG 251000Z AUTO 14008KT 2 1/2SM 26/22 A2977 RMK T02600220 IEM_DS3505
ZGGG,2006-04-25 11:00,ZGGG 251100Z AUTO 14008KT 3SM 26/22 A2977 RMK T02600220 IEM_DS3505
ZGGG,2006-04-25 12:00,ZGGG 251200Z AUTO 16004KT 7SM 25/23 A2977 RMK 60004 SLP097 T02510228 52010 IEM_DS3505
ZGGG,2006-04-25 13:00,ZGGG 251300Z AUTO 13006KT 2 1/2SM 25/22 A2980 RMK T02500220 IEM_DS3505
ZGGG,2006-04-25 14:00,ZGGG 251400Z AUTO 13006KT 3SM 25/22 A2980 RMK T02500220 IEM_DS3505
ZGGG,2006-04-25 15:00,ZGGG 251500Z AUTO 14004KT 7SM 25/22 A2980 RMK SLP102 T02520223 52005 IEM_DS3505
ZGGG,2006-04-25 17:00,ZGGG 251700Z AUTO 09004KT 3SM 24/22 A2980 RMK T02400220 IEM_DS3505
ZGGG,2006-04-25 18:00,ZGGG 251800Z AUTO 14004KT 7SM 25/22 A2977 RMK SLP090 T02510224 57012 IEM_DS3505
ZGGG,2006-04-25 19:00,ZGGG 251900Z AUTO 08004KT 2SM 24/21 A2977 RMK T02400210 IEM_DS3505
ZGGG,2006-04-25 20:00,ZGGG 252000Z AUTO 10004KT 1 1/2SM 24/22 A2977 RMK T02400220 IEM_DS3505
ZGGG,2006-04-25 21:00,ZGGG 252100Z AUTO 11002KT 6SM 25/22 A2977 RMK 70004 SLP085 T02460221 57005 IEM_DS3505
ZGGG,2006-04-25 22:00,ZGGG 252200Z AUTO 08004KT 1SM 24/22 A2974 RMK T02400220 IEM_DS3505
ZGGG,2006-04-25 23:00,ZGGG 252300Z AUTO 1SM 24/22 A2977 RMK T02400220 IEM_DS3505
ZGGG,2006-04-26 00:00,ZGGG 260000Z AUTO 14004KT 2SM 26/24 A2977 RMK 60000 70004 SLP095 T02590236 52010 IEM_DS3505
ZGGG,2006-04-26 01:00,ZGGG 260100Z AUTO 08002KT 1 1/4SM 26/23 A2980 RMK T02600230 IEM_DS3505
ZGGG,2006-04-26 02:00,ZGGG 260200Z AUTO 19008KT 3SM 28/24 A2980 RMK T02800240 IEM_DS3505
ZGGG,2006-04-26 03:00,ZGGG 260300Z AUTO 20006KT 6SM 28/23 A2980 RMK SLP096 T02830232 52001 IEM_DS3505
ZGGG,2006-04-26 04:00,ZGGG 260400Z AUTO 28006KT 2 1/2SM 28/24 A2977 RMK T02800240 IEM_DS3505
ZGGG,2006-04-26 05:00,ZGGG 260500Z AUTO 20004KT 2 1/2SM 30/23 A2974 RMK T03000230 IEM_DS3505
ZGGG,2006-04-26 06:00,ZGGG 260600Z AUTO 32002KT 7SM 31/24 A2974 RMK 60000 SLP067 T03100244 57029 IEM_DS3505
ZGGG,2006-04-26 07:00,ZGGG 260700Z AUTO 09006KT 4SM 25/22 A2971 RMK T02500220 IEM_DS3505
ZGGG,2006-04-26 08:00,ZGGG 260800Z AUTO 04006KT 4SM 24/21 A2971 RMK T02400210 IEM_DS3505
ZGGG,2006-04-26 09:00,ZGGG 260900Z AUTO 07002KT 7SM 24/23 A2971 RMK SLP069 T02410227 52002 IEM_DS3505
ZGGG,2006-04-26 10:00,ZGGG 261000Z AUTO 08006KT 4SM 25/21 A2971 RMK T02500210 IEM_DS3505
ZGGG,2006-04-26 11:00,ZGGG 261100Z AUTO 10004KT 4SM 24/21 A2974 RMK T02400210 IEM_DS3505
ZGGG,2006-04-26 12:00,ZGGG 261200Z AUTO 04002KT 6SM 24/22 A2977 RMK 60248 SLP087 T02350223 52018 IEM_DS3505
ZGGG,2006-04-26 13:00,ZGGG 261300Z AUTO 08004KT 3SM 24/21 A2980 RMK T02400210 IEM_DS3505
ZGGG,2006-04-26 14:00,ZGGG 261400Z AUTO 4SM 24/21 A2980 RMK T02400210 IEM_DS3505
ZGGG,2006-04-26 15:00,ZGGG 261500Z AUTO 09002KT 6SM 24/22 A2983 RMK SLP105 T02350221 52018 IEM_DS3505
ZGGG,2006-04-26 16:00,ZGGG 261600Z AUTO 3SM 24/21 A2983 RMK T02400210 IEM_DS3505
ZGGG,2006-04-26 17:00,ZGGG 261700Z AUTO 03002KT 2 1/2SM 24/21 A2983 RMK T02400210 IEM_DS3505
ZGGG,2006-04-26 18:00,ZGGG 261800Z AUTO 00000KT 3SM 24/22 A2980 RMK 60002 SLP096 T02350223 57009 IEM_DS3505
ZGGG,2006-04-26 19:00,ZGGG 261900Z AUTO 2 1/2SM 24/21 A2977 RMK T02400210 IEM_DS3505
ZGGG,2006-04-26 20:00,ZGGG 262000Z AUTO 09004KT 2 1/2SM 24/21 A2977 RMK T02400210 IEM_DS3505
ZGGG,2006-04-26 21:00,ZGGG 262100Z AUTO 09002KT 2SM 23/22 A2977 RMK 70252 SLP093 T02330221 57003 IEM_DS3505
ZGGG,2006-04-26 22:00,ZGGG 262200Z AUTO 08004KT 2SM 24/21 A2977 RMK T02400210 IEM_DS3505
ZGGG,2006-04-26 23:00,ZGGG 262300Z AUTO 07004KT 2 1/2SM 24/21 A2980 RMK T02400210 IEM_DS3505
ZGGG,2006-04-27 00:00,ZGGG 270000Z AUTO 09002KT 2SM 24/22 A2983 RMK 70252 SLP107 T02400223 52014 IEM_DS3505
ZGGG,2006-04-27 01:00,ZGGG 270100Z AUTO 11004KT 3SM 26/22 A2983 RMK T02600220 IEM_DS3505
ZGGG,2006-04-27 02:00,ZGGG 270200Z AUTO 10004KT 2 1/2SM 27/23 A2983 RMK T02700230 IEM_DS3505
ZGGG,2006-04-27 03:00,ZGGG 270300Z AUTO 09004KT 2SM 28/24 A2983 RMK SLP107 T02790235 54000 IEM_DS3505
ZGGG,2006-04-27 04:00,ZGGG 270400Z AUTO 16006KT 3SM 29/23 A2980 RMK T02900230 IEM_DS3505
ZGGG,2006-04-27 05:00,ZGGG 270500Z AUTO 17006KT 3SM 29/23 A2980 RMK T02900230 IEM_DS3505
ZGGG,2006-04-27 06:00,ZGGG 270600Z AUTO 14004KT 2SM 28/24 A2977 RMK SLP086 T02850236 57021 IEM_DS3505
ZGGG,2006-04-27 07:00,ZGGG 270700Z AUTO 12006KT 2 1/2SM 30/23 A2971 RMK T03000230 IEM_DS3505
ZGGG,2006-04-27 08:00,ZGGG 270800Z AUTO 15006KT 2 1/2SM 29/23 A2971 RMK T02900230 IEM_DS3505
ZGGG,2006-04-27 09:00,ZGGG 270900Z AUTO 16004KT 7SM 28/24 A2971 RMK SLP065 T02810237 57021 IEM_DS3505
ZGGG,2006-04-27 10:00,ZGGG 271000Z AUTO 2SM 27/24 A2971 RMK T02700240 IEM_DS3505
ZGGG,2006-04-27 11:00,ZGGG 271100Z AUTO 09004KT 2SM 26/24 A2974 RMK T02600240 IEM_DS3505
ZGGG,2006-04-27 12:00,ZGGG 271200Z AUTO 14002KT 7SM 27/25 A2974 RMK 60000 SLP078 T02680246 52013 IEM_DS3505
ZGGG,2006-04-27 13:00,ZGGG 271300Z AUTO 04004KT 1 1/2SM 25/23 A2977 RMK T02500230 IEM_DS3505
ZGGG,2006-04-27 14:00,ZGGG 271400Z AUTO 06004KT 1 1/2SM 25/23 A2977 RMK T02500230 IEM_DS3505
ZGGG,2006-04-27 15:00,ZGGG 271500Z AUTO 16002KT 7SM 27/24 A2977 RMK SLP092 T02680239 52014 IEM_DS3505
ZGGG,2006-04-27 16:00,ZGGG 271600Z AUTO 10004KT 2SM 24/22 A2977 RMK T02400220 IEM_DS3505
ZGGG,2006-04-27 17:00,ZGGG 271700Z AUTO 00000KT 1 1/4SM 24/22 A2980 RMK T02400220 IEM_DS3505
ZGGG,2006-04-27 18:00,ZGGG 271800Z AUTO 32002KT 5SM 24/22 A2977 RMK 60002 SLP087 T02420219 57005 IEM_DS3505
ZGGG,2006-04-27 19:00,ZGGG 271900Z AUTO 32010KT 2 1/2SM 23/20 A2977 RMK T02300200 IEM_DS3505
ZGGG,2006-04-27 20:00,ZGGG 272000Z AUTO 00000KT 2 1/2SM 23/21 A2977 RMK T02300210 IEM_DS3505
ZGGG,2006-04-27 21:00,ZGGG 272100Z AUTO 34006KT 7SM 22/21 A2980 RMK 70179 SLP089 T02240209 52002 IEM_DS3505
ZGGG,2006-04-27 22:00,ZGGG 272200Z AUTO 32004KT 4SM 22/19 A2977 RMK T02200190 IEM_DS3505
ZGGG,2006-04-27 23:00,ZGGG 272300Z AUTO 34006KT 4SM 22/19 A2983 RMK T02200190 IEM_DS3505
ZGGG,2006-04-28 00:00,ZGGG 280000Z AUTO 36004KT 9SM 23/20 A2983 RMK 60177 70179 SLP109 T02260201 52020 IEM_DS3505
ZGGG,2006-04-28 01:00,ZGGG 280100Z AUTO 33006KT 5SM 23/19 A2985 RMK T02300190 IEM_DS3505
ZGGG,2006-04-28 02:00,ZGGG 280200Z AUTO 34006KT 7SM 24/19 A2985 RMK T02400190 IEM_DS3505
ZGGG,2006-04-28 03:00,ZGGG 280300Z AUTO 36004KT 11SM 24/20 A2985 RMK SLP117 T02420201 52008 IEM_DS3505
ZGGG,2006-04-28 04:00,ZGGG 280400Z AUTO 36006KT 7SM 26/19 A2985 RMK T02600190 IEM_DS3505
ZGGG,2006-04-28 05:00,ZGGG 280500Z AUTO 34008KT 7SM 26/18 A2983 RMK T02600180 IEM_DS3505
ZGGG,2006-04-28 06:00,ZGGG 280600Z AUTO 34004KT 14SM 25/20 A2983 RMK 60000 SLP104 T02460197 57013 IEM_DS3505
ZGGG,2006-04-28 07:00,ZGGG 280700Z AUTO 35008KT 7SM 25/18 A2980 RMK T02500180 IEM_DS3505
ZGGG,2006-04-28 08:00,ZGGG 280800Z AUTO 34006KT 7SM 25/18 A2980 RMK T02500180 IEM_DS3505
ZGGG,2006-04-28 09:00,ZGGG 280900Z AUTO 32002KT 2SM 22/20 A2983 RMK SLP107 T02200197 52002 IEM_DS3505
ZGGG,2006-04-28 10:00,ZGGG 281000Z AUTO 30004KT 3SM 22/19 A2985 RMK T02200190 IEM_DS3505
ZGGG,2006-04-28 11:00,ZGGG 281100Z AUTO 36006KT 4SM 22/19 A2985 RMK T02200190 IEM_DS3505
ZGGG,2006-04-28 12:00,ZGGG 281200Z AUTO 29002KT 12SM 21/19 A2985 RMK 60091 SLP125 T02060191 52018 IEM_DS3505
ZGGG,2006-04-28 13:00,ZGGG 281300Z AUTO 01004KT 5SM 22/18 A2988 RMK T02200180 IEM_DS3505
ZGGG,2006-04-28 14:00,ZGGG 281400Z AUTO 04004KT 4SM 21/18 A2988 RMK T02100180 IEM_DS3505
ZGGG,2006-04-28 15:00,ZGGG 281500Z AUTO 34002KT 10SM 20/19 A2988 RMK SLP128 T02050188 52003 IEM_DS3505
ZGGG,2006-04-28 16:00,ZGGG 281600Z AUTO 00000KT 4SM 21/18 A2988 RMK T02100180 IEM_DS3505
ZGGG,2006-04-28 17:00,ZGGG 281700Z AUTO 3/8SM 21/18 A2988 RMK T02100180 IEM_DS3505
ZGGG,2006-04-28 18:00,ZGGG 281800Z AUTO 36002KT 9SM 20/19 A2985 RMK 60000 SLP120 T02050186 57008 IEM_DS3505
ZGGG,2006-04-28 19:00,ZGGG 281900Z AUTO 35008KT 3SM 21/17 A2985 RMK T02100170 IEM_DS3505
ZGGG,2006-04-28 21:00,ZGGG 282100Z AUTO 36002KT 7SM 20/18 A2985 RMK 70090 SLP117 T02010181 57003 IEM_DS3505
ZGGG,2006-04-28 22:00,ZGGG 282200Z AUTO 34004KT 3SM 20/17 A2985 RMK T02000170 IEM_DS3505
ZGGG,2006-04-28 23:00,ZGGG 282300Z AUTO 2 1/2SM 20/18 A2985 RMK T02000180 IEM_DS3505
ZGGG,2006-04-29 00:00,ZGGG 290000Z AUTO 02002KT 9SM 21/17 A2988 RMK 60000 70090 SLP129 T02080170 52012 IEM_DS3505
ZGGG,2006-04-29 01:00,ZGGG 290100Z AUTO 2 1/2SM 22/17 A2988 RMK T02200170 IEM_DS3505
ZGGG,2006-04-29 02:00,ZGGG 290200Z AUTO 3SM 23/16 A2991 RMK T02300160 IEM_DS3505
ZGGG,2006-04-29 03:00,ZGGG 290300Z AUTO 22002KT 7SM 24/18 A2988 RMK SLP133 T02410176 52004 IEM_DS3505
ZGGG,2006-04-29 04:00,ZGGG 290400Z AUTO 4SM 24/17 A2988 RMK T02400170 IEM_DS3505
ZGGG,2006-04-29 05:00,ZGGG 290500Z AUTO 4SM 25/17 A2985 RMK T02500170 IEM_DS3505
ZGGG,2006-04-29 06:00,ZGGG 290600Z AUTO 29004KT 7SM 26/18 A2985 RMK SLP118 T02580182 57015 IEM_DS3505
ZGGG,2006-04-29 07:00,ZGGG 290700Z AUTO 00000KT 3SM 25/18 A2983 RMK T02500180 IEM_DS3505
ZGGG,2006-04-29 08:00,ZGGG 290800Z AUTO 3SM 26/18 A2983 RMK T02600180 IEM_DS3505
ZGGG,2006-04-29 09:00,ZGGG 290900Z AUTO 18002KT 5SM 26/19 A2980 RMK SLP100 T02600187 57017 IEM_DS3505
ZGGG,2006-04-29 10:00,ZGGG 291000Z AUTO 3SM 25/18 A2980 RMK T02500180 IEM_DS3505
ZGGG,2006-04-29 11:00,ZGGG 291100Z AUTO 00000KT 2 1/2SM 24/19 A2980 RMK T02400190 IEM_DS3505
ZGGG,2006-04-29 12:00,ZGGG 291200Z AUTO 02002KT 7SM 23/20 A2983 RMK 60000 SLP109 T02320196 52008 IEM_DS3505
ZGGG,2006-04-29 13:00,ZGGG 291300Z AUTO 00000KT 2SM 23/20 A2985 RMK T02300200 IEM_DS3505
ZGGG,2006-04-29 14:00,ZGGG 291400Z AUTO 2 1/2SM 22/19 A2985 RMK T02200190 IEM_DS3505
ZGGG,2006-04-29 15:00,ZGGG 291500Z AUTO 07002KT 6SM 22/20 A2988 RMK SLP125 T02220197 52016 IEM_DS3505
ZGGG,2006-04-29 16:00,ZGGG 291600Z AUTO 2 1/2SM 22/19 A2985 RMK T02200190 IEM_DS3505
ZGGG,2006-04-29 17:00,ZGGG 291700Z AUTO 00000KT 2 1/2SM 22/19 A2985 RMK T02200190 IEM_DS3505
ZGGG,2006-04-29 18:00,ZGGG 291800Z AUTO 07002KT 4SM 22/20 A2983 RMK SLP114 T02180197 57010 IEM_DS3505
ZGGG,2006-04-29 19:00,ZGGG 291900Z AUTO 2SM 21/19 A2983 RMK T02100190 IEM_DS3505
ZGGG,2006-04-29 20:00,ZGGG 292000Z AUTO 08002KT 2 1/2SM 21/19 A2983 RMK T02100190 IEM_DS3505
ZGGG,2006-04-29 21:00,ZGGG 292100Z AUTO 07002KT 5SM 21/19 A2983 RMK 70000 SLP108 T02130192 57006 IEM_DS3505
ZGGG,2006-04-29 22:00,ZGGG 292200Z AUTO 08002KT 1 1/2SM 21/19 A2983 RMK T02100190 IEM_DS3505
ZGGG,2006-04-29 23:00,ZGGG 292300Z AUTO 09004KT 1 1/4SM 21/19 A2985 RMK T02100190 IEM_DS3505
ZGGG,2006-04-30 00:00,ZGGG 300000Z AUTO 14002KT 1 1/4SM 24/20 A2985 RMK 70000 SLP120 T02380197 52012 IEM_DS3505
ZGGG,2006-04-30 01:00,ZGGG 300100Z AUTO 1 1/2SM 25/20 A2985 RMK T02500200 IEM_DS3505
ZGGG,2006-04-30 02:00,ZGGG 300200Z AUTO 1 1/4SM 26/19 A2988 RMK T02600190 IEM_DS3505
ZGGG,2006-04-30 03:00,ZGGG 300300Z AUTO 22002KT 1 1/2SM 27/20 A2988 RMK SLP124 T02710204 52004 IEM_DS3505
ZGGG,2006-04-30 04:00,ZGGG 300400Z AUTO 1SM 27/20 A2985 RMK T02700200 IEM_DS3505
ZGGG,2006-04-30 05:00,ZGGG 300500Z AUTO 15004KT 1 1/2SM 28/20 A2983 RMK T02800200 IEM_DS3505
ZGGG,2006-04-30 06:00,ZGGG 300600Z AUTO 18004KT 4SM 30/21 A2980 RMK SLP102 T02970208 57022 IEM_DS3505
ZGGG,2006-04-30 07:00,ZGGG 300700Z AUTO 18008KT 3SM 29/20 A2980 RMK T02900200 IEM_DS3505
ZGGG,2006-04-30 08:00,ZGGG 300800Z AUTO 16004KT 2 1/2SM 29/21 A2977 RMK T02900210 IEM_DS3505
ZGGG,2006-04-30 09:00,ZGGG 300900Z AUTO 20004KT 7SM 29/21 A2977 RMK SLP090 T02930210 57012 IEM_DS3505
ZGGG,2006-04-30 10:00,ZGGG 301000Z AUTO 14002KT 2SM 29/22 A2977 RMK T02900220 IEM_DS3505
ZGGG,2006-04-30 11:00,ZGGG 301100Z AUTO 15002KT 2 1/2SM 28/22 A2980 RMK T02800220 IEM_DS3505
ZGGG,2006-04-30 12:00,ZGGG 301200Z AUTO 14002KT 7SM 27/22 A2980 RMK SLP101 T02660224 52011 IEM_DS3505
ZGGG,2006-04-30 13:00,ZGGG 301300Z AUTO 15004KT 2 1/2SM 26/22 A2983 RMK T02600220 IEM_DS3505
ZGGG,2006-04-30 14:00,ZGGG 301400Z AUTO 2 1/2SM 25/22 A2985 RMK T02500220 IEM_DS3505
ZGGG,2006-04-30 15:00,ZGGG 301500Z AUTO 07002KT 7SM 25/23 A2985 RMK SLP116 T02480229 52015 IEM_DS3505
ZGGG,2006-04-30 16:00,ZGGG 301600Z AUTO 09004KT 2 1/2SM 24/22 A2983 RMK T02400220 IEM_DS3505
ZGGG,2006-04-30 17:00,ZGGG 301700Z AUTO 00000KT 2 1/2SM 24/22 A2983 RMK T02400220 IEM_DS3505
ZGGG,2006-04-30 18:00,ZGGG 301800Z AUTO 16002KT 6SM 25/23 A2980 RMK SLP100 T02470229 57016 IEM_DS3505
ZGGG,2006-04-30 19:00,ZGGG 301900Z AUTO 00000KT 2SM 24/22 A2977 RMK T02400220 IEM_DS3505
ZGGG,2006-04-30 20:00,ZGGG 302000Z AUTO 12002KT 2SM 24/22 A2977 RMK T02400220 IEM_DS3505
ZGGG,2006-04-30 21:00,ZGGG 302100Z AUTO 11002KT 5SM 25/23 A2980 RMK SLP096 T02490228 57004 IEM_DS3505
ZGGG,2006-04-30 22:00,ZGGG 302200Z AUTO 15002KT 1 1/2SM 24/22 A2980 RMK T02400220 IEM_DS3505
ZGGG,2006-04-30 23:00,ZGGG 302300Z AUTO 00000KT 1 1/2SM 25/23 A2980 RMK T02500230 IEM_DS3505
ZGGG,2006-05-01 00:00,ZGGG 010000Z AUTO 18002KT 3SM 26/24 A2983 RMK SLP108 T02610236 52012 IEM_DS3505
ZGGG,2006-05-01 01:00,ZGGG 010100Z AUTO 16004KT 2SM 28/23 A2983 RMK T02800230 IEM_DS3505
ZGGG,2006-05-01 02:00,ZGGG 010200Z AUTO 20008KT 3SM 29/23 A2983 RMK T02900230 IEM_DS3505
ZGGG,2006-05-01 03:00,ZGGG 010300Z AUTO 16004KT 6SM 30/24 A2980 RMK SLP100 T03000239 57008 IEM_DS3505
ZGGG,2006-05-01 04:00,ZGGG 010400Z AUTO 19008KT 4SM 30/23 A2980 RMK T03000230 IEM_DS3505
ZGGG,2006-05-01 05:00,ZGGG 010500Z AUTO 18010KT 4SM 31/23 A2977 RMK T03100230 IEM_DS3505
ZGGG,2006-05-01 06:00,ZGGG 010600Z AUTO 18006KT 11SM 32/23 A2974 RMK 60000 SLP077 T03180228 57023 IEM_DS3505
ZGGG,2006-05-01 07:00,ZGGG 010700Z AUTO 21014KT 7SM 32/22 A2971 RMK T03200220 IEM_DS3505
ZGGG,2006-05-01 08:00,ZGGG 010800Z AUTO 20012KT 7SM 31/22 A2971 RMK T03100220 IEM_DS3505
ZGGG,2006-05-01 09:00,ZGGG 010900Z AUTO 22004KT 11SM 31/22 A2971 RMK SLP073 T03060225 57004 IEM_DS3505
ZGGG,2006-05-01 10:00,ZGGG 011000Z AUTO 21012KT 7SM 30/22 A2971 RMK T03000220 IEM_DS3505
ZGGG,2006-05-01 11:00,ZGGG 011100Z AUTO 18006KT 7SM 29/22 A2974 RMK T02900220 IEM_DS3505
ZGGG,2006-05-01 12:00,ZGGG 011200Z AUTO 22004KT 10SM 29/23 A2977 RMK SLP087 T02880230 52014 IEM_DS3505
ZGGG,2006-05-01 13:00,ZGGG 011300Z AUTO 24008KT 4SM 27/23 A2980 RMK T02700230 IEM_DS3505
ZGGG,2006-05-01 14:00,ZGGG 011400Z AUTO 20004KT 7SM 25/22 A2980 RMK T02500220 IEM_DS3505
ZGGG,2006-05-01 15:00,ZGGG 011500Z AUTO 00000KT 9SM 24/23 A2980 RMK SLP100 T02430229 52013 IEM_DS3505
ZGGG,2006-05-01 16:00,ZGGG 011600Z AUTO 12004KT 3SM 25/23 A2980 RMK T02500230 IEM_DS3505
ZGGG,2006-05-01 17:00,ZGGG 011700Z AUTO 36002KT 2 1/2SM 25/23 A2980 RMK T02500230 IEM_DS3505
ZGGG,2006-05-01 18:00,ZGGG 011800Z AUTO 07002KT 7SM 24/23 A2977 RMK 60043 SLP090 T02450231 57010 IEM_DS3505
ZGGG,2006-05-01 19:00,ZGGG 011900Z AUTO 12002KT 1 1/2SM 25/23 A2977 RMK T02500230 IEM_DS3505
ZGGG,2006-05-01 20:00,ZGGG 012000Z AUTO 10004KT 2SM 25/23 A2977 RMK T02500230 IEM_DS3505
ZGGG,2006-05-01 21:00,ZGGG 012100Z AUTO 14002KT 6SM 25/24 A2977 RMK 70044 SLP087 T02480236 57003 IEM_DS3505
ZGGG,2006-05-01 22:00,ZGGG 012200Z AUTO 1 1/4SM 25/23 A2980 RMK T02500230 IEM_DS3505
ZGGG,2006-05-01 23:00,ZGGG 012300Z AUTO 11002KT 1 1/4SM 25/23 A2980 RMK T02500230 IEM_DS3505
ZGGG,2006-05-02 00:00,ZGGG 020000Z AUTO 07002KT 4SM 26/25 A2983 RMK 60001 70045 SLP106 T02590247 52019 IEM_DS3505
ZGGG,2006-05-02 01:00,ZGGG 020100Z AUTO 1 1/4SM 26/24 A2983 RMK T02600240 IEM_DS3505
ZGGG,2006-05-02 02:00,ZGGG 020200Z AUTO 2SM 27/24 A2985 RMK T02700240 IEM_DS3505
ZGGG,2006-05-02 03:00,ZGGG 020300Z AUTO 14002KT 2 1/2SM 29/25 A2985 RMK SLP111 T02920252 52005 IEM_DS3505
ZGGG,2006-05-02 04:00,ZGGG 020400Z AUTO 31008KT 3SM 29/24 A2983 RMK T02900240 IEM_DS3505
ZGGG,2006-05-02 05:00,ZGGG 020500Z AUTO 02006KT 7SM 26/21 A2980 RMK T02600210 IEM_DS3505
ZGGG,2006-05-02 06:00,ZGGG 020600Z AUTO 09004KT 8SM 25/22 A2980 RMK 60000 SLP099 T02530216 57012 IEM_DS3505
ZGGG,2006-05-02 07:00,ZGGG 020700Z AUTO 12006KT 7SM 26/21 A2980 RMK T02600210 IEM_DS3505
ZGGG,2006-05-02 08:00,ZGGG 020800Z AUTO 06004KT 7SM 26/21 A2980 RMK T02600210 IEM_DS3505
ZGGG,2006-05-02 09:00,ZGGG 020900Z AUTO 07004KT 2SM 25/22 A2980 RMK SLP095 T02470224 57004 IEM_DS3505
ZGGG,2006-05-02 10:00,ZGGG 021000Z AUTO 10004KT 7SM 25/21 A2983 RMK T02500210 IEM_DS3505
ZGGG,2006-05-02 11:00,ZGGG 021100Z AUTO 10006KT 5SM 24/21 A2983 RMK T02400210 IEM_DS3505
ZGGG,2006-05-02 12:00,ZGGG 021200Z AUTO 09004KT 4SM 24/22 A2985 RMK 60000 SLP118 T02400217 52023 IEM_DS3505
ZGGG,2006-05-02 13:00,ZGGG 021300Z AUTO 01004KT 3SM 24/21 A2985 RMK T02400210 IEM_DS3505
ZGGG,2006-05-02 14:00,ZGGG 021400Z AUTO 06004KT 4SM 24/21 A2988 RMK T02400210 IEM_DS3505
ZGGG,2006-05-02 15:00,ZGGG 021500Z AUTO 02002KT 9SM 24/22 A2991 RMK SLP132 T02400217 52014 IEM_DS3505
ZGGG,2006-05-02 16:00,ZGGG 021600Z AUTO 3SM 23/20 A2988 RMK T02300200 IEM_DS3505
ZGGG,2006-05-02 17:00,ZGGG 021700Z AUTO 11004KT 5SM 22/20 A2988 RMK T02200200 IEM_DS3505
ZGGG,2006-05-02 18:00,ZGGG 021800Z AUTO 14004KT 9SM 22/21 A2983 RMK 60003 SLP119 T02250210 57013 IEM_DS3505
ZGGG,2006-05-02 19:00,ZGGG 021900Z AUTO 7SM 22/20 A2983 RMK T02200200 IEM_DS3505
ZGGG,2006-05-02 20:00,ZGGG 022000Z AUTO 35006KT 6SM 22/20 A2985 RMK T02200200 IEM_DS3505
ZGGG,2006-05-02 21:00,ZGGG 022100Z AUTO 36002KT 8SM 23/21 A2988 RMK 70004 SLP122 T02280214 52003 IEM_DS3505
ZGGG,2006-05-02 22:00,ZGGG 022200Z AUTO 2SM 22/20 A2988 RMK T02200200 IEM_DS3505
ZGGG,2006-05-02 23:00,ZGGG 022300Z AUTO 08006KT 1 1/2SM 22/20 A2988 RMK T02200200 IEM_DS3505
ZGGG,2006-05-03 00:00,ZGGG 030000Z AUTO 07002KT 2SM 23/21 A2991 RMK 60008 70011 SLP138 T02290212 52015 IEM_DS3505
ZGGG,2006-05-03 01:00,ZGGG 030100Z AUTO 09002KT 2SM 23/21 A2994 RMK T02300210 IEM_DS3505
ZGGG,2006-05-03 02:00,ZGGG 030200Z AUTO 2SM 23/21 A2994 RMK T02300210 IEM_DS3505
ZGGG,2006-05-03 03:00,ZGGG 030300Z AUTO 09004KT 2SM 23/22 A2994 RMK SLP146 T02300218 52008 IEM_DS3505
ZGGG,2006-05-03 04:00,ZGGG 030400Z AUTO 09004KT 2 1/2SM 23/21 A2991 RMK T02300210 IEM_DS3505
ZGGG,2006-05-03 05:00,ZGGG 030500Z AUTO 3SM 24/21 A2994 RMK T02400210 IEM_DS3505
ZGGG,2006-05-03 05:30,ZGGG 030530Z AUTO 1 1/2SM 23/21 A2994 RMK T02300210 IEM_DS3505
ZGGG,2006-05-03 06:00,ZGGG 030600Z AUTO 16004KT 7SM 22/19 A2994 RMK 60114 SLP146 T02150192 54000 IEM_DS3505
ZGGG,2006-05-03 07:00,ZGGG 030700Z AUTO 09004KT 1SM 23/21 A2991 RMK T02300210 IEM_DS3505
ZGGG,2006-05-03 08:00,ZGGG 030800Z AUTO 14010KT 5SM 22/19 A2991 RMK T02200190 IEM_DS3505
ZGGG,2006-05-03 09:00,ZGGG 030900Z AUTO 09004KT 9SM 21/19 A2988 RMK SLP133 T02140193 57013 IEM_DS3505
ZGGG,2006-05-03 10:00,ZGGG 031000Z AUTO 7SM 22/18 A2988 RMK T02200180 IEM_DS3505
ZGGG,2006-05-03 11:00,ZGGG 031100Z AUTO 7SM 21/18 A2988 RMK T02100180 IEM_DS3505
ZGGG,2006-05-03 12:00,ZGGG 031200Z AUTO 07002KT 7SM 21/19 A2991 RMK 60020 SLP135 T02060191 52002 IEM_DS3505
ZGGG,2006-05-03 13:00,ZGGG 031300Z AUTO 00000KT 4SM 21/19 A2991 RMK T02100190 IEM_DS3505
ZGGG,2006-05-03 14:00,ZGGG 031400Z AUTO 4SM 21/18 A2991 RMK T02100180 IEM_DS3505
ZGGG,2006-05-03 15:00,ZGGG 031500Z AUTO 03002KT 6SM 20/19 A2991 RMK SLP143 T02020187 52008 IEM_DS3505
ZGGG,2006-05-03 16:00,ZGGG 031600Z AUTO 00000KT 3SM 21/19 A2991 RMK T02100190 IEM_DS3505
ZGGG,2006-05-03 17:00,ZGGG 031700Z AUTO 3SM 21/19 A2994 RMK T02100190 IEM_DS3505
ZGGG,2006-05-03 18:00,ZGGG 031800Z AUTO 11002KT 6SM 21/19 A2991 RMK 60000 SLP140 T02070188 57003 IEM_DS3505
ZGGG,2006-05-03 19:00,ZGGG 031900Z AUTO 3SM 21/19 A2991 RMK T02100190 IEM_DS3505
ZGGG,2006-05-03 20:00,ZGGG 032000Z AUTO 3SM 21/18 A2991 RMK T02100180 IEM_DS3505
ZGGG,2006-05-03 21:00,ZGGG 032100Z AUTO 11002KT 6SM 21/19 A2991 RMK 70139 SLP139 T02130194 57001 IEM_DS3505
ZGGG,2006-05-03 22:00,ZGGG 032200Z AUTO 06004KT 4SM 21/18 A2991 RMK T02100180 IEM_DS3505
ZGGG,2006-05-03 23:00,ZGGG 032300Z AUTO 04004KT 4SM 21/18 A2994 RMK T02100180 IEM_DS3505
ZGGG,2006-05-04 00:00,ZGGG 040000Z AUTO 09004KT 7SM 23/20 A2994 RMK 60000 70131 SLP152 T02310202 52013 IEM_DS3505
ZGGG,2006-05-04 01:00,ZGGG 040100Z AUTO 09006KT 3SM 24/20 A2994 RMK T02400200 IEM_DS3505
ZGGG,2006-05-04 02:00,ZGGG 040200Z AUTO 11006KT 3SM 25/20 A2994 RMK T02500200 IEM_DS3505
ZGGG,2006-05-04 03:00,ZGGG 040300Z AUTO 14008KT 3SM 26/21 A2994 RMK SLP149 T02640209 57003 IEM_DS3505
ZGGG,2006-05-04 04:00,ZGGG 040400Z AUTO 11004KT 3SM 27/21 A2991 RMK T02700210 IEM_DS3505
ZGGG,2006-05-04 05:00,ZGGG 040500Z AUTO 14004KT 2 1/2SM 27/21 A2991 RMK T02700210 IEM_DS3505
ZGGG,2006-05-04 06:00,ZGGG 040600Z AUTO 16004KT 7SM 28/22 A2988 RMK SLP131 T02810221 57017 IEM_DS3505
ZGGG,2006-05-04 07:00,ZGGG 040700Z AUTO 14004KT 2 1/2SM 28/22 A2985 RMK T02800220 IEM_DS3505
ZGGG,2006-05-04 08:00,ZGGG 040800Z AUTO 16004KT 3SM 27/22 A2985 RMK T02700220 IEM_DS3505
ZGGG,2006-05-04 09:00,ZGGG 040900Z AUTO 16004KT 7SM 27/23 A2985 RMK SLP120 T02720228 57011 IEM_DS3505
ZGGG,2006-05-04 10:00,ZGGG 041000Z AUTO 12004KT 2 1/2SM 27/22 A2985 RMK T02700220 IEM_DS3505
ZGGG,2006-05-04 11:00,ZGGG 041100Z AUTO 09004KT 2SM 26/22 A2985 RMK T02600220 IEM_DS3505
ZGGG,2006-05-04 12:00,ZGGG 041200Z AUTO 14004KT 7SM 26/22 A2988 RMK SLP124 T02610222 52004 IEM_DS3505
ZGGG,2006-05-04 13:00,ZGGG 041300Z AUTO 09002KT 1 1/2SM 25/22 A2988 RMK T02500220 IEM_DS3505
ZGGG,2006-05-04 14:00,ZGGG 041400Z AUTO 13004KT 2 1/2SM 26/22 A2991 RMK T02600220 IEM_DS3505
ZGGG,2006-05-04 15:00,ZGGG 041500Z AUTO 14006KT 7SM 25/22 A2991 RMK SLP136 T02520219 52012 IEM_DS3505
ZGGG,2006-05-04 16:00,ZGGG 041600Z AUTO 13004KT 2 1/2SM 25/21 A2988 RMK T02500210 IEM_DS3505
ZGGG,2006-05-04 17:00,ZGGG 041700Z AUTO 14004KT 2SM 25/21 A2988 RMK T02500210 IEM_DS3505
ZGGG,2006-05-04 18:00,ZGGG 041800Z AUTO 11002KT 7SM 25/22 A2985 RMK SLP121 T02470218 57015 IEM_DS3505
ZGGG,2006-05-04 19:00,ZGGG 041900Z AUTO 2SM 25/21 A2985 RMK T02500210 IEM_DS3505
ZGGG,2006-05-04 20:00,ZGGG 042000Z AUTO 08004KT 2SM 24/21 A2985 RMK T02400210 IEM_DS3505
ZGGG,2006-05-04 21:00,ZGGG 042100Z AUTO 11002KT 7SM 24/22 A2985 RMK 70000 SLP119 T02430218 57002 IEM_DS3505
ZGGG,2006-05-04 22:00,ZGGG 042200Z AUTO 10004KT 2SM 25/21 A2985 RMK T02500210 IEM_DS3505
ZGGG,2006-05-04 23:00,ZGGG 042300Z AUTO 2 1/2SM 25/22 A2985 RMK T02500220 IEM_DS3505
ZGGG,2006-05-05 00:00,ZGGG 050000Z AUTO 11002KT 3SM 25/22 A2988 RMK SLP129 T02510224 52010 IEM_DS3505
ZGGG,2006-05-05 01:00,ZGGG 050100Z AUTO 14006KT 3SM 27/22 A2988 RMK T02700220 IEM_DS3505
ZGGG,2006-05-05 02:00,ZGGG 050200Z AUTO 14010KT 2 1/2SM 27/23 A2988 RMK T02700230 IEM_DS3505
ZGGG,2006-05-05 03:00,ZGGG 050300Z AUTO 14008KT 4SM 28/24 A2988 RMK SLP124 T02800238 57005 IEM_DS3505
ZGGG,2006-05-05 04:00,ZGGG 050400Z AUTO 14008KT 3SM 29/24 A2985 RMK T02900240 IEM_DS3505
ZGGG,2006-05-05 05:00,ZGGG 050500Z AUTO 14008KT 4SM 28/24 A2983 RMK T02800240 IEM_DS3505
ZGGG,2006-05-05 06:00,ZGGG 050600Z AUTO 11004KT 6SM 27/25 A2980 RMK 60220 SLP100 T02720247 57024 IEM_DS3505
ZGGG,2006-05-05 07:00,ZGGG 050700Z AUTO 15006KT 4SM 28/24 A2980 RMK T02800240 IEM_DS3505
ZGGG,2006-05-05 08:00,ZGGG 050800Z AUTO 14008KT 5SM 28/25 A2977 RMK T02800250 IEM_DS3505
ZGGG,2006-05-05 09:00,ZGGG 050900Z AUTO 18002KT 7SM 28/24 A2977 RMK SLP092 T02790243 57008 IEM_DS3505
ZGGG,2006-05-05 10:00,ZGGG 051000Z AUTO 15004KT 5SM 28/24 A2980 RMK T02800240 IEM_DS3505
ZGGG,2006-05-05 11:00,ZGGG 051100Z AUTO 14004KT 4SM 28/24 A2980 RMK T02800240 IEM_DS3505
ZGGG,2006-05-05 12:00,ZGGG 051200Z AUTO 14004KT 9SM 27/24 A2980 RMK 60039 SLP103 T02680245 52011 IEM_DS3505
ZGGG,2006-05-05 13:00,ZGGG 051300Z AUTO 13004KT 4SM 27/24 A2983 RMK T02700240 IEM_DS3505
ZGGG,2006-05-05 14:00,ZGGG 051400Z AUTO 4SM 27/24 A2983 RMK T02700240 IEM_DS3505
ZGGG,2006-05-05 15:00,ZGGG 051500Z AUTO 11002KT 8SM 26/24 A2983 RMK SLP114 T02600244 52011 IEM_DS3505
ZGGG,2006-05-05 16:00,ZGGG 051600Z AUTO 16004KT 4SM 27/24 A2983 RMK T02700240 IEM_DS3505
ZGGG,2006-05-05 17:00,ZGGG 051700Z AUTO 17004KT 3SM 27/24 A2980 RMK T02700240 IEM_DS3505
ZGGG,2006-05-05 18:00,ZGGG 051800Z AUTO 16002KT 8SM 26/24 A2980 RMK SLP096 T02570239 57018 IEM_DS3505
ZGGG,2006-05-05 19:00,ZGGG 051900Z AUTO 00000KT 4SM 26/23 A2977 RMK T02600230 IEM_DS3505
ZGGG,2006-05-05 20:00,ZGGG 052000Z AUTO 14004KT 3SM 26/23 A2977 RMK T02600230 IEM_DS3505
ZGGG,2006-05-05 21:00,ZGGG 052100Z AUTO 11002KT 7SM 25/24 A2977 RMK 70261 SLP094 T02530237 57002 IEM_DS3505
ZGGG,2006-05-05 22:00,ZGGG 052200Z AUTO 3SM 26/23 A2980 RMK T02600230 IEM_DS3505
ZGGG,2006-05-05 23:00,ZGGG 052300Z AUTO 3SM 26/24 A2980 RMK T02600240 IEM_DS3505
ZGGG,2006-05-06 00:00,ZGGG 060000Z AUTO 14004KT 6SM 27/24 A2980 RMK 70261 SLP108 T02680239 52014 IEM_DS3505
ZGGG,2006-05-06 01:00,ZGGG 060100Z AUTO 17008KT 5SM 28/23 A2983 RMK T02800230 IEM_DS3505
ZGGG,2006-05-06 02:00,ZGGG 060200Z AUTO 16008KT 5SM 29/23 A2985 RMK T02900230 IEM_DS3505
ZGGG,2006-05-06 03:00,ZGGG 060300Z AUTO 20004KT 12SM 30/23 A2985 RMK SLP114 T03030232 52006 IEM_DS3505
ZGGG,2006-05-06 04:00,ZGGG 060400Z AUTO 18010KT 5SM 31/23 A2983 RMK T03100230 IEM_DS3505
ZGGG,2006-05-06 05:00,ZGGG 060500Z AUTO 18010KT 7SM 33/23 A2980 RMK T03300230 IEM_DS3505
ZGGG,2006-05-06 06:00,ZGGG 060600Z AUTO 18004KT 15SM 32/24 A2974 RMK SLP081 T03220237 57032 IEM_DS3505
ZGGG,2006-05-06 07:00,ZGGG 060700Z AUTO 16010KT 7SM 33/23 A2971 RMK T03300230 IEM_DS3505
ZGGG,2006-05-06 08:00,ZGGG 060800Z AUTO 15006KT 6SM 31/23 A2971 RMK T03100230 IEM_DS3505
ZGGG,2006-05-06 09:00,ZGGG 060900Z AUTO 16004KT 14SM 31/23 A2971 RMK SLP067 T03070234 57015 IEM_DS3505
ZGGG,2006-05-06 10:00,ZGGG 061000Z AUTO 13006KT 5SM 30/24 A2971 RMK T03000240 IEM_DS3505
ZGGG,2006-05-06 11:00,ZGGG 061100Z AUTO 15006KT 4SM 29/24 A2974 RMK T02900240 IEM_DS3505
ZGGG,2006-05-06 12:00,ZGGG 061200Z AUTO 34004KT 11SM 26/21 A2980 RMK 60000 SLP105 T02580212 52038 IEM_DS3505
ZGGG,2006-05-06 13:00,ZGGG 061300Z AUTO 14004KT 5SM 23/22 A2983 RMK T02300220 IEM_DS3505
ZGGG,2006-05-06 14:00,ZGGG 061400Z AUTO 7SM 24/22 A2985 RMK T02400220 IEM_DS3505
ZGGG,2006-05-06 15:00,ZGGG 061500Z AUTO 14004KT 10SM 24/22 A2985 RMK SLP119 T02350221 52014 IEM_DS3505
ZGGG,2006-05-06 16:00,ZGGG 061600Z AUTO 03004KT 4SM 23/21 A2985 RMK T02300210 IEM_DS3505
ZGGG,2006-05-06 17:00,ZGGG 061700Z AUTO 4SM 23/21 A2983 RMK T02300210 IEM_DS3505
ZGGG,2006-05-06 18:00,ZGGG 061800Z AUTO 07002KT 9SM 23/22 A2980 RMK 60142 SLP101 T02320218 57018 IEM_DS3505
ZGGG,2006-05-06 19:00,ZGGG 061900Z AUTO 2 1/2SM 23/21 A2980 RMK T02300210 IEM_DS3505
ZGGG,2006-05-06 20:00,ZGGG 062000Z AUTO 2 1/2SM 24/22 A2980 RMK T02400220 IEM_DS3505
ZGGG,2006-05-06 21:00,ZGGG 062100Z AUTO 00000KT 8SM 23/22 A2980 RMK 70141 SLP102 T02330219 52001 IEM_DS3505
ZGGG,2006-05-06 22:00,ZGGG 062200Z AUTO 00000KT 1 1/4SM 24/21 A2983 RMK T02400210 IEM_DS3505
ZGGG,2006-05-06 23:00,ZGGG 062300Z AUTO 1 1/4SM 24/21 A2985 RMK T02400210 IEM_DS3505
ZGGG,2006-05-07 00:00,ZGGG 070000Z AUTO 16002KT 6SM 25/22 A2985 RMK 70141 SLP121 T02460223 52019 IEM_DS3505
ZGGG,2006-05-07 01:00,ZGGG 070100Z AUTO 06004KT 2 1/2SM 26/22 A2985 RMK T02600220 IEM_DS3505
ZGGG,2006-05-07 02:00,ZGGG 070200Z AUTO 07004KT 2 1/2SM 27/23 A2985 RMK T02700230 IEM_DS3505
ZGGG,2006-05-07 03:00,ZGGG 070300Z AUTO 20004KT 4SM 30/24 A2985 RMK SLP118 T02980244 57003 IEM_DS3505
ZGGG,2006-05-07 04:00,ZGGG 070400Z AUTO 17004KT 2 1/2SM 30/24 A2983 RMK T03000240 IEM_DS3505
ZGGG,2006-05-07 05:00,ZGGG 070500Z AUTO 2 1/2SM 32/23 A2980 RMK T03200230 IEM_DS3505
ZGGG,2006-05-07 06:00,ZGGG 070600Z AUTO 18004KT 10SM 34/23 A2977 RMK SLP092 T03350229 57026 IEM_DS3505
ZGGG,2006-05-07 07:00,ZGGG 070700Z AUTO 18004KT 4SM 32/23 A2977 RMK T03200230 IEM_DS3505
ZGGG,2006-05-07 08:00,ZGGG 070800Z AUTO 17006KT 7SM 33/22 A2974 RMK T03300220 IEM_DS3505
ZGGG,2006-05-07 09:00,ZGGG 070900Z AUTO 14006KT 12SM 31/22 A2974 RMK SLP075 T03090225 57017 IEM_DS3505
ZGGG,2006-05-07 10:00,ZGGG 071000Z AUTO 13006KT 6SM 31/23 A2974 RMK T03100230 IEM_DS3505
ZGGG,2006-05-07 11:00,ZGGG 071100Z AUTO 12004KT 7SM 29/23 A2977 RMK T02900230 IEM_DS3505
ZGGG,2006-05-07 12:00,ZGGG 071200Z AUTO 11004KT 11SM 28/24 A2977 RMK SLP094 T02800238 52019 IEM_DS3505
ZGGG,2006-05-07 13:00,ZGGG 071300Z AUTO 10004KT 7SM 27/23 A2980 RMK T02700230 IEM_DS3505
ZGGG,2006-05-07 14:00,ZGGG 071400Z AUTO 11004KT 7SM 27/23 A2983 RMK T02700230 IEM_DS3505
ZGGG,2006-05-07 15:00,ZGGG 071500Z AUTO 16004KT 10SM 27/23 A2983 RMK SLP112 T02720228 52018 IEM_DS3505
ZGGG,2006-05-07 16:00,ZGGG 071600Z AUTO 09002KT 6SM 25/22 A2985 RMK T02500220 IEM_DS3505
ZGGG,2006-05-07 17:00,ZGGG 071700Z AUTO 07002KT 4SM 25/23 A2985 RMK T02500230 IEM_DS3505
ZGGG,2006-05-07 18:00,ZGGG 071800Z AUTO 16002KT 9SM 26/24 A2983 RMK SLP110 T02560237 57001 IEM_DS3505
ZGGG,2006-05-07 19:00,ZGGG 071900Z AUTO 10004KT 4SM 25/23 A2983 RMK T02500230 IEM_DS3505
ZGGG,2006-05-07 20:00,ZGGG 072000Z AUTO 07002KT 2 1/2SM 25/23 A2983 RMK T02500230 IEM_DS3505
ZGGG,2006-05-07 21:00,ZGGG 072100Z AUTO 14002KT 7SM 26/24 A2983 RMK SLP110 T02580242 57001 IEM_DS3505
ZGGG,2006-05-07 22:00,ZGGG 072200Z AUTO 06002KT 1 1/2SM 24/22 A2983 RMK T02400220 IEM_DS3505
ZGGG,2006-05-07 23:00,ZGGG 072300Z AUTO 06004KT 2SM 25/23 A2985 RMK T02500230 IEM_DS3505
ZGGG,2006-05-08 00:00,ZGGG 080000Z AUTO 14004KT 6SM 28/24 A2988 RMK SLP125 T02770243 52015 IEM_DS3505
ZGGG,2006-05-08 01:00,ZGGG 080100Z AUTO 16006KT 5SM 30/23 A2988 RMK T03000230 IEM_DS3505
ZGGG,2006-05-08 01:30,ZGGG 080130Z AUTO 15006KT 7SM 30/23 A2988 RMK T03000230 IEM_DS3505
ZGGG,2006-05-08 03:00,ZGGG 080300Z AUTO 16006KT 8SM 31/24 A2988 RMK SLP126 T03140235 52001 IEM_DS3505
ZGGG,2006-05-08 04:00,ZGGG 080400Z AUTO 20008KT 5SM 32/22 A2985 RMK T03200220 IEM_DS3505
ZGGG,2006-05-08 05:00,ZGGG 080500Z AUTO 18006KT 5SM 33/23 A2983 RMK T03300230 IEM_DS3505
ZGGG,2006-05-08 06:00,ZGGG 080600Z AUTO 16006KT 9SM 32/22 A2983 RMK SLP103 T03210222 57023 IEM_DS3505
ZGGG,2006-05-08 07:00,ZGGG 080700Z AUTO 16006KT 7SM 34/23 A2980 RMK T03400230 IEM_DS3505
ZGGG,2006-05-08 08:00,ZGGG 080800Z AUTO 16008KT 7SM 33/21 A2977 RMK T03300210 IEM_DS3505
ZGGG,2006-05-08 09:00,ZGGG 080900Z AUTO 11008KT 10SM 31/24 A2977 RMK SLP087 T03110235 57016 IEM_DS3505
ZGGG,2006-05-08 10:00,ZGGG 081000Z AUTO 14008KT 7SM 31/23 A2977 RMK T03100230 IEM_DS3505
ZGGG,2006-05-08 11:00,ZGGG 081100Z AUTO 15010KT 6SM 30/23 A2977 RMK T03000230 IEM_DS3505
ZGGG,2006-05-08 12:00,ZGGG 081200Z AUTO 14006KT 9SM 29/23 A2980 RMK SLP096 T02890231 52009 IEM_DS3505
ZGGG,2006-05-08 13:00,ZGGG 081300Z AUTO 15006KT 6SM 28/22 A2983 RMK T02800220 IEM_DS3505
ZGGG,2006-05-08 14:00,ZGGG 081400Z AUTO 14004KT 6SM 27/22 A2983 RMK T02700220 IEM_DS3505
ZGGG,2006-05-08 15:00,ZGGG 081500Z AUTO 16004KT 9SM 27/22 A2985 RMK SLP120 T02740219 52024 IEM_DS3505
ZGGG,2006-05-08 16:00,ZGGG 081600Z AUTO 11002KT 6SM 26/22 A2985 RMK T02600220 IEM_DS3505
ZGGG,2006-05-08 17:00,ZGGG 081700Z AUTO 11004KT 6SM 25/22 A2983 RMK T02500220 IEM_DS3505
ZGGG,2006-05-08 18:00,ZGGG 081800Z AUTO 16002KT 9SM 26/23 A2983 RMK SLP106 T02610228 57014 IEM_DS3505
ZGGG,2006-05-08 19:00,ZGGG 081900Z AUTO 10004KT 6SM 24/22 A2980 RMK T02400220 IEM_DS3505
ZGGG,2006-05-08 20:00,ZGGG 082000Z AUTO 08002KT 4SM 24/22 A2980 RMK T02400220 IEM_DS3505
ZGGG,2006-05-08 21:00,ZGGG 082100Z AUTO 09002KT 9SM 26/23 A2980 RMK SLP098 T02580231 57008 IEM_DS3505
ZGGG,2006-05-08 22:00,ZGGG 082200Z AUTO 09002KT 3SM 24/22 A2980 RMK T02400220 IEM_DS3505
ZGGG,2006-05-09 00:00,ZGGG 090000Z AUTO 14004KT 11SM 28/23 A2983 RMK SLP112 T02830230 52014 IEM_DS3505
ZGGG,2006-05-09 01:00,ZGGG 090100Z AUTO 18006KT 7SM 29/23 A2985 RMK T02900230 IEM_DS3505
ZGGG,2006-05-09 02:00,ZGGG 090200Z AUTO 19008KT 7SM 30/22 A2985 RMK T03000220 IEM_DS3505
ZGGG,2006-05-09 03:00,ZGGG 090300Z AUTO 16002KT 11SM 31/22 A2985 RMK SLP113 T03140224 52001 IEM_DS3505
ZGGG,2006-05-09 04:00,ZGGG 090400Z AUTO 25006KT 7SM 32/22 A2983 RMK T03200220 IEM_DS3505
ZGGG,2006-05-09 05:00,ZGGG 090500Z AUTO 23006KT 7SM 32/22 A2980 RMK T03200220 IEM_DS3505
ZGGG,2006-05-09 06:00,ZGGG 090600Z AUTO 16002KT 11SM 33/22 A2977 RMK SLP087 T03280220 57025 IEM_DS3505
ZGGG,2006-05-09 07:00,ZGGG 090700Z AUTO 6SM 33/24 A2974 RMK T03300240 IEM_DS3505
ZGGG,2006-05-09 08:00,ZGGG 090800Z AUTO 6SM 33/22 A2971 RMK T03300220 IEM_DS3505
ZGGG,2006-05-09 09:00,ZGGG 090900Z AUTO 14006KT 11SM 32/24 A2971 RMK SLP068 T03170238 57019 IEM_DS3505
ZGGG,2006-05-09 10:00,ZGGG 091000Z AUTO 16008KT 7SM 32/23 A2971 RMK T03200230 IEM_DS3505
ZGGG,2006-05-09 11:00,ZGGG 091100Z AUTO 14006KT 7SM 30/24 A2974 RMK T03000240 IEM_DS3505
ZGGG,2006-05-09 12:00,ZGGG 091200Z AUTO 16004KT 11SM 30/23 A2977 RMK SLP084 T02970234 52016 IEM_DS3505
ZGGG,2006-05-09 13:00,ZGGG 091300Z AUTO 04006KT 7SM 24/21 A2977 RMK T02400210 IEM_DS3505
ZGGG,2006-05-09 14:00,ZGGG 091400Z AUTO 7SM 25/22 A2980 RMK T02500220 IEM_DS3505
ZGGG,2006-05-09 15:00,ZGGG 091500Z AUTO 14004KT 9SM 28/24 A2980 RMK SLP099 T02820238 52015 IEM_DS3505
ZGGG,2006-05-09 16:00,ZGGG 091600Z AUTO 08004KT 7SM 25/22 A2980 RMK T02500220 IEM_DS3505
ZGGG,2006-05-09 17:00,ZGGG 091700Z AUTO 5SM 25/22 A2980 RMK T02500220 IEM_DS3505
ZGGG,2006-05-09 18:00,ZGGG 091800Z AUTO 18004KT 9SM 28/24 A2980 RMK SLP094 T02750235 57005 IEM_DS3505
ZGGG,2006-05-09 19:00,ZGGG 091900Z AUTO 03002KT 4SM 25/22 A2977 RMK T02500220 IEM_DS3505
ZGGG,2006-05-09 20:00,ZGGG 092000Z AUTO 00000KT 4SM 24/22 A2977 RMK T02400220 IEM_DS3505
ZGGG,2006-05-09 21:00,ZGGG 092100Z AUTO 14004KT 8SM 27/24 A2980 RMK SLP099 T02700237 52005 IEM_DS3505
ZGGG,2006-05-09 22:00,ZGGG 092200Z AUTO 09002KT 3SM 25/23 A2983 RMK T02500230 IEM_DS3505
ZGGG,2006-05-09 23:00,ZGGG 092300Z AUTO 2 1/2SM 26/24 A2983 RMK T02600240 IEM_DS3505
ZGGG,2006-05-10 00:00,ZGGG 100000Z AUTO 14004KT 7SM 29/24 A2985 RMK SLP116 T02890240 52016 IEM_DS3505
ZGGG,2006-05-10 01:00,ZGGG 100100Z AUTO 00000KT 4SM 28/24 A2985 RMK T02800240 IEM_DS3505
ZGGG,2006-05-10 02:00,ZGGG 100200Z AUTO 00000KT 3SM 30/24 A2985 RMK T03000240 IEM_DS3505
ZGGG,2006-05-10 03:00,ZGGG 100300Z AUTO 22004KT 11SM 32/23 A2985 RMK SLP113 T03220229 57002 IEM_DS3505
ZGGG,2006-05-10 04:00,ZGGG 100400Z AUTO 20004KT 4SM 32/23 A2983 RMK T03200230 IEM_DS3505
ZGGG,2006-05-10 05:00,ZGGG 100500Z AUTO 02010KT 5SM 30/24 A2980 RMK T03000240 IEM_DS3505
ZGGG,2006-05-10 06:00,ZGGG 100600Z AUTO 16002KT 7SM 33/23 A2977 RMK SLP087 T03290230 57026 IEM_DS3505
ZGGG,2006-05-10 07:00,ZGGG 100700Z AUTO 07006KT 4SM 31/24 A2977 RMK T03100240 IEM_DS3505
ZGGG,2006-05-10 08:00,ZGGG 100800Z AUTO 07006KT 4SM 30/23 A2974 RMK T03000230 IEM_DS3505
ZGGG,2006-05-10 09:00,ZGGG 100900Z AUTO 27010KT 7SM 29/24 A2977 RMK SLP097 T02880235 52009 IEM_DS3505
ZGGG,2006-05-10 10:00,ZGGG 101000Z AUTO 22006KT 3SM 26/23 A2980 RMK T02600230 IEM_DS3505
ZGGG,2006-05-10 11:00,ZGGG 101100Z AUTO 22006KT 2 1/2SM 26/23 A2983 RMK T02600230 IEM_DS3505
ZGGG,2006-05-10 12:00,ZGGG 101200Z AUTO 36002KT 6SM 25/23 A2983 RMK 60213 SLP105 T02470233 52008 IEM_DS3505
ZGGG,2006-05-10 13:00,ZGGG 101300Z AUTO 07002KT 3SM 26/23 A2983 RMK T02600230 IEM_DS3505
ZGGG,2006-05-10 14:00,ZGGG 101400Z AUTO 09002KT 2 1/2SM 26/23 A2985 RMK T02600230 IEM_DS3505
ZGGG,2006-05-10 15:00,ZGGG 101500Z AUTO 25002KT 8SM 25/23 A2988 RMK SLP127 T02470233 52022 IEM_DS3505
ZGGG,2006-05-10 16:00,ZGGG 101600Z AUTO 29004KT 2 1/2SM 26/23 A2988 RMK T02600230 IEM_DS3505
ZGGG,2006-05-10 17:00,ZGGG 101700Z AUTO 22002KT 3SM 25/23 A2985 RMK T02500230 IEM_DS3505
ZGGG,2006-05-10 18:00,ZGGG 101800Z AUTO 29002KT 7SM 24/23 A2988 RMK 60000 SLP121 T02440232 57006 IEM_DS3505
ZGGG,2006-05-10 19:00,ZGGG 101900Z AUTO 00000KT 2 1/2SM 25/23 A2985 RMK T02500230 IEM_DS3505
ZGGG,2006-05-10 20:00,ZGGG 102000Z AUTO 00000KT 2 1/2SM 25/23 A2985 RMK T02500230 IEM_DS3505
ZGGG,2006-05-10 21:00,ZGGG 102100Z AUTO 32002KT 5SM 25/23 A2988 RMK 70212 SLP122 T02460232 52001 IEM_DS3505
ZGGG,2006-05-10 22:00,ZGGG 102200Z AUTO 11002KT 1 1/2SM 25/23 A2988 RMK T02500230 IEM_DS3505
ZGGG,2006-05-10 23:00,ZGGG 102300Z AUTO 1 1/4SM 25/23 A2991 RMK T02500230 IEM_DS3505
ZGGG,2006-05-11 00:00,ZGGG 110000Z AUTO 32002KT 7SM 27/24 A2991 RMK 70212 SLP140 T02710242 52018 IEM_DS3505
ZGGG,2006-05-11 01:00,ZGGG 110100Z AUTO 00000KT 2 1/2SM 28/23 A2994 RMK T02800230 IEM_DS3505
ZGGG,2006-05-11 02:00,ZGGG 110200Z AUTO 3SM 30/24 A2994 RMK T03000240 IEM_DS3505
ZGGG,2006-05-11 03:00,ZGGG 110300Z AUTO 11004KT 6SM 31/24 A2991 RMK SLP140 T03080240 54000 IEM_DS3505
ZGGG,2006-05-11 04:00,ZGGG 110400Z AUTO 4SM 32/23 A2991 RMK T03200230 IEM_DS3505
ZGGG,2006-05-11 05:00,ZGGG 110500Z AUTO 4SM 33/24 A2988 RMK T03300240 IEM_DS3505
ZGGG,2006-05-11 06:00,ZGGG 110600Z AUTO 09002KT 4SM 34/24 A2985 RMK SLP115 T03360236 57025 IEM_DS3505
ZGGG,2006-05-11 07:00,ZGGG 110700Z AUTO 4SM 34/24 A2983 RMK T03400240 IEM_DS3505
ZGGG,2006-05-11 08:00,ZGGG 110800Z AUTO 10017G29KT 2 1/2SM 25/22 A2983 RMK T02500220 IEM_DS3505
ZGGG,2006-05-11 09:00,ZGGG 110900Z AUTO 14006KT 4SM 29/24 A2983 RMK SLP105 T02880235 57010 IEM_DS3505
ZGGG,2006-05-11 10:00,ZGGG 111000Z AUTO 05004KT 2 1/2SM 28/23 A2983 RMK T02800230 IEM_DS3505
ZGGG,2006-05-11 11:00,ZGGG 111100Z AUTO 10004KT 2SM 28/23 A2985 RMK T02800230 IEM_DS3505
ZGGG,2006-05-11 12:00,ZGGG 111200Z AUTO 14006KT 6SM 28/23 A2988 RMK 60000 SLP126 T02850232 52021 IEM_DS3505
ZGGG,2006-05-11 13:00,ZGGG 111300Z AUTO 11006KT 4SM 28/23 A2991 RMK T02800230 IEM_DS3505
ZGGG,2006-05-11 14:00,ZGGG 111400Z AUTO 11004KT 4SM 27/23 A2994 RMK T02700230 IEM_DS3505
ZGGG,2006-05-11 15:00,ZGGG 111500Z AUTO 14006KT 10SM 27/22 A2994 RMK SLP153 T02670225 52027 IEM_DS3505
ZGGG,2006-05-11 16:00,ZGGG 111600Z AUTO 14004KT 2SM 27/22 A2994 RMK T02700220 IEM_DS3505
ZGGG,2006-05-11 17:00,ZGGG 111700Z AUTO 00000KT 2 1/2SM 26/22 A2994 RMK T02600220 IEM_DS3505
ZGGG,2006-05-11 18:00,ZGGG 111800Z AUTO 14004KT 9SM 26/22 A2994 RMK SLP152 T02600217 57001 IEM_DS3505
ZGGG,2006-05-11 19:00,ZGGG 111900Z AUTO 10006KT 2 1/2SM 26/21 A2994 RMK T02600210 IEM_DS3505
ZGGG,2006-05-11 20:00,ZGGG 112000Z AUTO 11006KT 2 1/2SM 25/21 A2994 RMK T02500210 IEM_DS3505
ZGGG,2006-05-11 21:00,ZGGG 112100Z AUTO 11002KT 10SM 24/21 A2994 RMK 70000 SLP150 T02440207 57002 IEM_DS3505
ZGGG,2006-05-11 22:00,ZGGG 112200Z AUTO 11004KT 2 1/2SM 24/20 A2994 RMK T02400200 IEM_DS3505
ZGGG,2006-05-11 23:00,ZGGG 112300Z AUTO 10004KT 2SM 25/21 A2997 RMK T02500210 IEM_DS3505
ZGGG,2006-05-12 00:00,ZGGG 120000Z AUTO 09004KT 6SM 26/21 A3000 RMK 70000 SLP163 T02630213 52013 IEM_DS3505
ZGGG,2006-05-12 01:00,ZGGG 120100Z AUTO 09006KT 4SM 28/21 A3000 RMK T02800210 IEM_DS3505
ZGGG,2006-05-12 02:00,ZGGG 120200Z AUTO 10004KT 5SM 29/21 A2997 RMK T02900210 IEM_DS3505
ZGGG,2006-05-12 03:00,ZGGG 120300Z AUTO 14006KT 8SM 29/22 A2997 RMK SLP159 T02940216 57004 IEM_DS3505
ZGGG,2006-05-12 04:00,ZGGG 120400Z AUTO 25004KT 4SM 31/21 A2997 RMK T03100210 IEM_DS3505
ZGGG,2006-05-12 05:00,ZGGG 120500Z AUTO 23006KT 3SM 31/20 A2994 RMK T03100200 IEM_DS3505
ZGGG,2006-05-12 06:00,ZGGG 120600Z AUTO 22002KT 10SM 32/20 A2991 RMK SLP134 T03190205 57025 IEM_DS3505
ZGGG,2006-05-12 07:00,ZGGG 120700Z AUTO 5SM 33/19 A2988 RMK T03300190 IEM_DS3505
ZGGG,2006-05-12 08:00,ZGGG 120800Z AUTO 4SM 33/20 A2985 RMK T03300200 IEM_DS3505
ZGGG,2006-05-12 09:00,ZGGG 120900Z AUTO 09002KT 9SM 32/21 A2983 RMK SLP110 T03210210 57024 IEM_DS3505
ZGGG,2006-05-12 10:00,ZGGG 121000Z AUTO 10004KT 3SM 32/20 A2983 RMK T03200200 IEM_DS3505
ZGGG,2006-05-12 11:00,ZGGG 121100Z AUTO 13002KT 2 1/2SM 31/21 A2985 RMK T03100210 IEM_DS3505
ZGGG,2006-05-12 12:00,ZGGG 121200Z AUTO 07002KT 8SM 29/22 A2985 RMK SLP120 T02880218 52010 IEM_DS3505
ZGGG,2006-05-12 13:00,ZGGG 121300Z AUTO 14002KT 2 1/2SM 29/23 A2988 RMK T02900230 IEM_DS3505
ZGGG,2006-05-12 14:00,ZGGG 121400Z AUTO 07002KT 2 1/2SM 27/23 A2991 RMK T02700230 IEM_DS3505
ZGGG,2006-05-12 15:00,ZGGG 121500Z AUTO 16002KT 7SM 28/23 A2991 RMK SLP138 T02780227 52018 IEM_DS3505
ZGGG,2006-05-12 16:00,ZGGG 121600Z AUTO 2SM 26/23 A2991 RMK T02600230 IEM_DS3505
ZGGG,2006-05-12 17:00,ZGGG 121700Z AUTO 12002KT 2SM 26/23 A2991 RMK T02600230 IEM_DS3505
ZGGG,2006-05-12 18:00,ZGGG 121800Z AUTO 07002KT 8SM 26/23 A2988 RMK SLP129 T02560227 57009 IEM_DS3505
ZGGG,2006-05-12 19:00,ZGGG 121900Z AUTO 1 1/2SM 25/23 A2988 RMK T02500230 IEM_DS3505
ZGGG,2006-05-12 20:00,ZGGG 122000Z AUTO 2SM 25/23 A2988 RMK T02500230 IEM_DS3505
ZGGG,2006-05-12 21:00,ZGGG 122100Z AUTO 02002KT 7SM 25/23 A2988 RMK SLP128 T02480229 57001 IEM_DS3505
ZGGG,2006-05-12 22:00,ZGGG 122200Z AUTO 34010KT 4SM 25/19 A2991 RMK T02500190 IEM_DS3505
ZGGG,2006-05-12 23:00,ZGGG 122300Z AUTO 35010KT 4SM 24/17 A2994 RMK T02400170 IEM_DS3505
ZGGG,2006-05-13 00:00,ZGGG 130000Z AUTO 34004KT 7SM 25/20 A2997 RMK SLP150 T02500196 52022 IEM_DS3505
ZGGG,2006-05-13 01:00,ZGGG 130100Z AUTO 34012KT 5SM 25/17 A2997 RMK T02500170 IEM_DS3505
ZGGG,2006-05-13 02:00,ZGGG 130200Z AUTO 34014KT 7SM 25/17 A3000 RMK T02500170 IEM_DS3505
ZGGG,2006-05-13 03:00,ZGGG 130300Z AUTO 36006KT 9SM 27/18 A3000 RMK SLP158 T02710184 52008 IEM_DS3505
ZGGG,2006-05-13 04:00,ZGGG 130400Z AUTO 35014KT 6SM 25/16 A3000 RMK T02500160 IEM_DS3505
ZGGG,2006-05-13 05:00,ZGGG 130500Z AUTO 36014KT 6SM 25/15 A3000 RMK T02500150 IEM_DS3505
ZGGG,2006-05-13 06:00,ZGGG 130600Z AUTO 34006KT 11SM 25/16 A3000 RMK SLP153 T02540163 57005 IEM_DS3505
ZGGG,2006-05-13 07:00,ZGGG 130700Z AUTO 36017KT 6SM 24/14 A2997 RMK T02400140 IEM_DS3505
ZGGG,2006-05-13 08:00,ZGGG 130800Z AUTO 36016KT 6SM 23/13 A2997 RMK T02300130 IEM_DS3505
ZGGG,2006-05-13 09:00,ZGGG 130900Z AUTO 36008G27KT 15SM 24/14 A2997 RMK SLP154 T02350145 54000 IEM_DS3505
ZGGG,2006-05-13 10:00,ZGGG 131000Z AUTO 01016KT 7SM 22/12 A3000 RMK T02200120 IEM_DS3505
ZGGG,2006-05-13 11:00,ZGGG 131100Z AUTO 35012KT 7SM 21/12 A3000 RMK T02100120 IEM_DS3505
ZGGG,2006-05-13 12:00,ZGGG 131200Z AUTO 36006KT 12SM 21/14 A3003 RMK SLP176 T02080135 52022 IEM_DS3505
ZGGG,2006-05-13 13:00,ZGGG 131300Z AUTO 36010KT 7SM 20/12 A3006 RMK T02000120 IEM_DS3505
ZGGG,2006-05-13 14:00,ZGGG 131400Z AUTO 01014KT 7SM 20/12 A3009 RMK T02000120 IEM_DS3505
ZGGG,2006-05-13 15:00,ZGGG 131500Z AUTO 02006KT 12SM 20/13 A3009 RMK SLP192 T02020129 52016 IEM_DS3505
ZGGG,2006-05-13 16:00,ZGGG 131600Z AUTO 02012KT 7SM 20/12 A3006 RMK T02000120 IEM_DS3505
ZGGG,2006-05-13 17:00,ZGGG 131700Z AUTO 02014KT 7SM 20/11 A3006 RMK T02000110 IEM_DS3505
ZGGG,2006-05-13 18:00,ZGGG 131800Z AUTO 02006KT 11SM 20/12 A3003 RMK SLP181 T01950120 57011 IEM_DS3505
ZGGG,2006-05-13 19:00,ZGGG 131900Z AUTO 01012KT 7SM 19/10 A3003 RMK T01900100 IEM_DS3505
ZGGG,2006-05-13 20:00,ZGGG 132000Z AUTO 01012KT 6SM 19/10 A3000 RMK T01900100 IEM_DS3505
ZGGG,2006-05-13 22:00,ZGGG 132200Z AUTO 01012KT 6SM 19/09 A3003 RMK T01900090 IEM_DS3505
ZGGG,2006-05-13 23:00,ZGGG 132300Z AUTO 36010KT 6SM 19/09 A3006 RMK T01900090 IEM_DS3505
ZGGG,2006-05-14 00:00,ZGGG 140000Z AUTO 36008KT 16SM 21/10 A3006 RMK SLP188 T02060101 52014 IEM_DS3505
ZGGG,2006-05-14 01:00,ZGGG 140100Z AUTO 02014KT 6SM 22/08 A3006 RMK T02200080 IEM_DS3505
ZGGG,2006-05-14 02:00,ZGGG 140200Z AUTO 02014KT 6SM 24/08 A3006 RMK T02400080 IEM_DS3505
ZGGG,2006-05-14 03:00,ZGGG 140300Z AUTO 36006G23KT 12SM 25/10 A3003 RMK SLP172 T02480103 57016 IEM_DS3505
ZGGG,2006-05-14 04:00,ZGGG 140400Z AUTO 01016KT 6SM 26/08 A2997 RMK T02600080 IEM_DS3505
ZGGG,2006-05-14 05:00,ZGGG 140500Z AUTO 02014KT 6SM 27/08 A2997 RMK T02700080 IEM_DS3505
ZGGG,2006-05-14 06:00,ZGGG 140600Z AUTO 02006KT 14SM 28/10 A2994 RMK SLP143 T02810103 57029 IEM_DS3505
ZGGG,2006-05-14 07:00,ZGGG 140700Z AUTO 36012G21KT 6SM 29/06 A2991 RMK T02900060 IEM_DS3505
ZGGG,2006-05-14 08:00,ZGGG 140800Z AUTO 01012KT 6SM 29/08 A2988 RMK T02900080 IEM_DS3505
ZGGG,2006-05-14 09:00,ZGGG 140900Z AUTO 02010KT 14SM 28/08 A2988 RMK SLP125 T02830075 57018 IEM_DS3505
ZGGG,2006-05-14 10:00,ZGGG 141000Z AUTO 35012KT 6SM 27/09 A2988 RMK T02700090 IEM_DS3505
ZGGG,2006-05-14 11:00,ZGGG 141100Z AUTO 35010KT 6SM 26/09 A2991 RMK T02600090 IEM_DS3505
ZGGG,2006-05-14 12:00,ZGGG 141200Z AUTO 36004KT 12SM 24/11 A2991 RMK SLP141 T02440110 52016 IEM_DS3505
ZGGG,2006-05-14 13:00,ZGGG 141300Z AUTO 36008KT 6SM 24/09 A2994 RMK T02400090 IEM_DS3505
ZGGG,2006-05-14 14:00,ZGGG 141400Z AUTO 6SM 22/11 A2994 RMK T02200110 IEM_DS3505
ZGGG,2006-05-14 15:00,ZGGG 141500Z AUTO 36006KT 12SM 23/09 A2997 RMK SLP153 T02300091 52012 IEM_DS3505
ZGGG,2006-05-14 16:00,ZGGG 141600Z AUTO 03006KT 6SM 21/08 A2997 RMK T02100080 IEM_DS3505
ZGGG,2006-05-14 17:00,ZGGG 141700Z AUTO 01006KT 6SM 20/08 A2994 RMK T02000080 IEM_DS3505
ZGGG,2006-05-14 18:00,ZGGG 141800Z AUTO 34004KT 12SM 21/08 A2994 RMK SLP144 T02130079 57008 IEM_DS3505
ZGGG,2006-05-14 19:00,ZGGG 141900Z AUTO 01010KT 6SM 21/06 A2991 RMK T02100060 IEM_DS3505
ZGGG,2006-05-14 20:00,ZGGG 142000Z AUTO 02008KT 6SM 20/07 A2991 RMK T02000070 IEM_DS3505
ZGGG,2006-05-14 21:00,ZGGG 142100Z AUTO 34002KT 12SM 20/08 A2991 RMK SLP139 T02000084 57005 IEM_DS3505
ZGGG,2006-05-14 22:00,ZGGG 142200Z AUTO 04004KT 6SM 19/09 A2991 RMK T01900090 IEM_DS3505
ZGGG,2006-05-14 23:00,ZGGG 142300Z AUTO 02008KT 6SM 21/07 A2991 RMK T02100070 IEM_DS3505
ZGGG,2006-05-15 00:00,ZGGG 150000Z AUTO 02004KT 11SM 23/10 A2994 RMK SLP144 T02260097 52004 IEM_DS3505
ZGGG,2006-05-15 01:00,ZGGG 150100Z AUTO 01012KT 6SM 24/07 A2994 RMK T02400070 IEM_DS3505
ZGGG,2006-05-15 02:00,ZGGG 150200Z AUTO 02012KT 6SM 25/08 A2991 RMK T02500080 IEM_DS3505
ZGGG,2006-05-15 03:00,ZGGG 150300Z AUTO 04002KT 16SM 27/11 A2991 RMK SLP131 T02690110 57012 IEM_DS3505
ZGGG,2006-05-15 04:00,ZGGG 150400Z AUTO 03008KT 6SM 28/11 A2988 RMK T02800110 IEM_DS3505
ZGGG,2006-05-15 05:00,ZGGG 150500Z AUTO 01006KT 6SM 29/11 A2985 RMK T02900110 IEM_DS3505
ZGGG,2006-05-15 06:00,ZGGG 150600Z AUTO 36004KT 16SM 30/15 A2983 RMK SLP105 T03030148 57026 IEM_DS3505
ZGGG,2006-05-15 07:00,ZGGG 150700Z AUTO 35010KT 7SM 30/10 A2980 RMK T03000100 IEM_DS3505
ZGGG,2006-05-15 08:00,ZGGG 150800Z AUTO 02008KT 7SM 29/12 A2980 RMK T02900120 IEM_DS3505
ZGGG,2006-05-15 09:00,ZGGG 150900Z AUTO 32004KT 14SM 28/15 A2980 RMK SLP098 T02760146 57007 IEM_DS3505
ZGGG,2006-05-15 10:00,ZGGG 151000Z AUTO 04004KT 7SM 28/14 A2980 RMK T02800140 IEM_DS3505
ZGGG,2006-05-15 11:00,ZGGG 151100Z AUTO 01006KT 7SM 27/14 A2983 RMK T02700140 IEM_DS3505
ZGGG,2006-05-15 12:00,ZGGG 151200Z AUTO 02002KT 13SM 26/15 A2985 RMK SLP114 T02610152 52016 IEM_DS3505
ZGGG,2006-05-15 13:00,ZGGG 151300Z AUTO 34008KT 7SM 25/16 A2988 RMK T02500160 IEM_DS3505
ZGGG,2006-05-15 14:00,ZGGG 151400Z AUTO 02006KT 7SM 24/16 A2988 RMK T02400160 IEM_DS3505
ZGGG,2006-05-15 15:00,ZGGG 151500Z AUTO 02004KT 12SM 25/16 A2988 RMK SLP124 T02510160 52010 IEM_DS3505
ZGGG,2006-05-15 16:00,ZGGG 151600Z AUTO 03004KT 7SM 24/16 A2985 RMK T02400160 IEM_DS3505
ZGGG,2006-05-15 17:00,ZGGG 151700Z AUTO 03004KT 7SM 23/15 A2983 RMK T02300150 IEM_DS3505
ZGGG,2006-05-15 18:00,ZGGG 151800Z AUTO 04004KT 12SM 25/14 A2983 RMK SLP101 T02460141 57023 IEM_DS3505
ZGGG,2006-05-15 19:00,ZGGG 151900Z AUTO 05004KT 7SM 23/14 A2983 RMK T02300140 IEM_DS3505
ZGGG,2006-05-15 20:00,ZGGG 152000Z AUTO 01008KT 7SM 24/13 A2980 RMK T02400130 IEM_DS3505
ZGGG,2006-05-15 21:00,ZGGG 152100Z AUTO 04002KT 11SM 23/15 A2980 RMK SLP098 T02340149 57003 IEM_DS3505
ZGGG,2006-05-15 22:00,ZGGG 152200Z AUTO 02008KT 7SM 23/12 A2983 RMK T02300120 IEM_DS3505
ZGGG,2006-05-15 23:00,ZGGG 152300Z AUTO 02010KT 7SM 24/13 A2983 RMK T02400130 IEM_DS3505
ZGGG,2006-05-16 00:00,ZGGG 160000Z AUTO 36004KT 10SM 24/15 A2985 RMK SLP113 T02380150 52015 IEM_DS3505
ZGGG,2006-05-16 01:00,ZGGG 160100Z AUTO 02008KT 7SM 24/13 A2985 RMK T02400130 IEM_DS3505
ZGGG,2006-05-16 02:00,ZGGG 160200Z AUTO 02012KT 6SM 25/13 A2985 RMK T02500130 IEM_DS3505
ZGGG,2006-05-16 03:00,ZGGG 160300Z AUTO 36004KT 11SM 26/15 A2983 RMK SLP109 T02620150 57004 IEM_DS3505
ZGGG,2006-05-16 04:00,ZGGG 160400Z AUTO 02008KT 7SM 26/14 A2983 RMK T02600140 IEM_DS3505
ZGGG,2006-05-16 05:00,ZGGG 160500Z AUTO 01010KT 7SM 25/15 A2980 RMK T02500150 IEM_DS3505
ZGGG,2006-05-16 06:00,ZGGG 160600Z AUTO 02004KT 10SM 25/16 A2980 RMK SLP098 T02500164 57011 IEM_DS3505
ZGGG,2006-05-16 07:00,ZGGG 160700Z AUTO 02012KT 7SM 24/16 A2980 RMK T02400160 IEM_DS3505
ZGGG,2006-05-16 08:00,ZGGG 160800Z AUTO 02014KT 7SM 23/15 A2980 RMK T02300150 IEM_DS3505
ZGGG,2006-05-16 09:00,ZGGG 160900Z AUTO 36004KT 10SM 24/17 A2977 RMK SLP087 T02360169 57011 IEM_DS3505
ZGGG,2006-05-16 10:00,ZGGG 161000Z AUTO 02010KT 7SM 23/16 A2980 RMK T02300160 IEM_DS3505
ZGGG,2006-05-16 11:00,ZGGG 161100Z AUTO 02014KT 5SM 22/16 A2983 RMK T02200160 IEM_DS3505
ZGGG,2006-05-16 12:00,ZGGG 161200Z AUTO 36006KT 9SM 21/17 A2980 RMK 60000 SLP099 T02140168 52011 IEM_DS3505
ZGGG,2006-05-16 13:00,ZGGG 161300Z AUTO 02012KT 7SM 22/16 A2980 RMK T02200160 IEM_DS3505
ZGGG,2006-05-16 14:00,ZGGG 161400Z AUTO 01016KT 7SM 22/15 A2983 RMK T02200150 IEM_DS3505
ZGGG,2006-05-16 15:00,ZGGG 161500Z AUTO 36004KT 11SM 22/16 A2983 RMK SLP099 T02190157 52001 IEM_DS3505
ZGGG,2006-05-16 16:00,ZGGG 161600Z AUTO 02014KT 6SM 22/14 A2980 RMK T02200140 IEM_DS3505
ZGGG,2006-05-16 17:00,ZGGG 161700Z AUTO 02014KT 7SM 21/14 A2977 RMK T02100140 IEM_DS3505
ZGGG,2006-05-16 18:00,ZGGG 161800Z AUTO 36006KT 11SM 22/16 A2977 RMK 60000 SLP074 T02150160 57025 IEM_DS3505
ZGGG,2006-05-16 19:00,ZGGG 161900Z AUTO 02017G29KT 6SM 21/14 A2974 RMK T02100140 IEM_DS3505
ZGGG,2006-05-16 20:00,ZGGG 162000Z AUTO 01019G29KT 7SM 21/15 A2971 RMK T02100150 IEM_DS3505
ZGGG,2006-05-16 21:00,ZGGG 162100Z AUTO 36010KT 11SM 21/16 A2971 RMK 70000 SLP056 T02060158 57018 IEM_DS3505
ZGGG,2006-05-16 22:00,ZGGG 162200Z AUTO 02012KT 7SM 20/16 A2971 RMK T02000160 IEM_DS3505
ZGGG,2006-05-16 23:00,ZGGG 162300Z AUTO 03014KT 7SM 20/16 A2971 RMK T02000160 IEM_DS3505
ZGGG,2006-05-17 00:00,ZGGG 170000Z AUTO 02006KT 10SM 20/17 A2971 RMK 60004 70004 SLP069 T01980172 52012 IEM_DS3505
ZGGG,2006-05-17 01:00,ZGGG 170100Z AUTO 01017G27KT 7SM 21/16 A2974 RMK T02100160 IEM_DS3505
ZGGG,2006-05-17 02:00,ZGGG 170200Z AUTO 02016KT 7SM 22/17 A2974 RMK T02200170 IEM_DS3505
ZGGG,2006-05-17 03:00,ZGGG 170300Z AUTO 36008KT 10SM 21/18 A2971 RMK SLP064 T02060178 57005 IEM_DS3505
ZGGG,2006-05-17 04:00,ZGGG 170400Z AUTO 36014KT 7SM 23/19 A2971 RMK T02300190 IEM_DS3505
ZGGG,2006-05-17 05:00,ZGGG 170500Z AUTO 35012KT 7SM 22/18 A2965 RMK T02200180 IEM_DS3505
ZGGG,2006-05-17 06:00,ZGGG 170600Z AUTO 34006KT 14SM 24/19 A2962 RMK 60020 SLP034 T02370188 57029 IEM_DS3505
ZGGG,2006-05-17 07:00,ZGGG 170700Z AUTO 34012KT 7SM 23/18 A2962 RMK T02300180 IEM_DS3505
ZGGG,2006-05-17 08:00,ZGGG 170800Z AUTO 34012G21KT 7SM 23/18 A2962 RMK T02300180 IEM_DS3505
ZGGG,2006-05-17 09:00,ZGGG 170900Z AUTO 34006KT 12SM 23/19 A2959 RMK SLP026 T02260190 57008 IEM_DS3505
ZGGG,2006-05-17 10:00,ZGGG 171000Z AUTO 34010KT 7SM 24/18 A2962 RMK T02400180 IEM_DS3505
ZGGG,2006-05-17 11:00,ZGGG 171100Z AUTO 35012KT 6SM 24/17 A2962 RMK T02400170 IEM_DS3505
ZGGG,2006-05-17 12:00,ZGGG 171200Z AUTO 34008KT 11SM 23/17 A2962 RMK 60000 SLP032 T02340174 52006 IEM_DS3505
ZGGG,2006-05-17 13:00,ZGGG 171300Z AUTO 34008KT 6SM 24/17 A2962 RMK T02400170 IEM_DS3505
ZGGG,2006-05-17 14:00,ZGGG 171400Z AUTO 32012KT 6SM 24/17 A2965 RMK T02400170 IEM_DS3505
ZGGG,2006-05-17 15:00,ZGGG 171500Z AUTO 34006KT 12SM 23/17 A2965 RMK SLP049 T02340172 52017 IEM_DS3505
ZGGG,2006-05-17 16:00,ZGGG 171600Z AUTO 32012KT 7SM 24/17 A2965 RMK T02400170 IEM_DS3505
ZGGG,2006-05-17 18:00,ZGGG 171800Z AUTO 32004KT 12SM 24/17 A2965 RMK SLP045 T02360171 57004 IEM_DS3505
ZGGG,2006-05-17 19:00,ZGGG 171900Z AUTO 32006KT 7SM 24/16 A2965 RMK T02400160 IEM_DS3505
ZGGG,2006-05-17 20:00,ZGGG 172000Z AUTO 32006KT 7SM 23/16 A2965 RMK T02300160 IEM_DS3505
ZGGG,2006-05-17 21:00,ZGGG 172100Z AUTO 27002KT 9SM 22/18 A2968 RMK 70026 SLP057 T02200176 52012 IEM_DS3505
ZGGG,2006-05-17 22:00,ZGGG 172200Z AUTO 34008KT 7SM 23/17 A2971 RMK T02300170 IEM_DS3505
ZGGG,2006-05-17 23:00,ZGGG 172300Z AUTO 34006KT 7SM 22/17 A2974 RMK T02200170 IEM_DS3505
ZGGG,2006-05-18 00:00,ZGGG 180000Z AUTO 36004G16KT 12SM 22/18 A2977 RMK 60003 70024 SLP084 T02240175 52027 IEM_DS3505
ZGGG,2006-05-18 01:00,ZGGG 180100Z AUTO 34004KT 6SM 23/18 A2977 RMK T02300180 IEM_DS3505
ZGGG,2006-05-18 02:00,ZGGG 180200Z AUTO 36006KT 6SM 25/17 A2977 RMK T02500170 IEM_DS3505
ZGGG,2006-05-18 03:00,ZGGG 180300Z AUTO 34006KT 14SM 26/17 A2977 RMK SLP083 T02610166 57001 IEM_DS3505
ZGGG,2006-05-18 04:00,ZGGG 180400Z AUTO 03012KT 7SM 27/16 A2974 RMK T02700160 IEM_DS3505
ZGGG,2006-05-18 05:00,ZGGG 180500Z AUTO 36008KT 7SM 28/16 A2974 RMK T02800160 IEM_DS3505
ZGGG,2006-05-18 06:00,ZGGG 180600Z AUTO 36004KT 15SM 28/18 A2971 RMK SLP070 T02800175 57013 IEM_DS3505
ZGGG,2006-05-18 07:00,ZGGG 180700Z AUTO 35008KT 7SM 29/16 A2971 RMK T02900160 IEM_DS3505
ZGGG,2006-05-18 08:00,ZGGG 180800Z AUTO 36008KT 7SM 29/15 A2971 RMK T02900150 IEM_DS3505
ZGGG,2006-05-18 09:00,ZGGG 180900Z AUTO 02006KT 13SM 29/16 A2971 RMK SLP062 T02890165 57008 IEM_DS3505
ZGGG,2006-05-18 10:00,ZGGG 181000Z AUTO 35010KT 6SM 28/15 A2971 RMK T02800150 IEM_DS3505
ZGGG,2006-05-18 11:00,ZGGG 181100Z AUTO 36006KT 6SM 27/16 A2974 RMK T02700160 IEM_DS3505
ZGGG,2006-05-18 12:00,ZGGG 181200Z AUTO 02002KT 11SM 25/17 A2974 RMK SLP079 T02480168 52017 IEM_DS3505
ZGGG,2006-05-18 13:00,ZGGG 181300Z AUTO 02004KT 6SM 24/17 A2974 RMK T02400170 IEM_DS3505
ZGGG,2006-05-18 14:00,ZGGG 181400Z AUTO 6SM 23/17 A2977 RMK T02300170 IEM_DS3505
ZGGG,2006-05-18 15:00,ZGGG 181500Z AUTO 29002KT 11SM 23/17 A2980 RMK SLP094 T02330166 52015 IEM_DS3505
ZGGG,2006-05-18 16:00,ZGGG 181600Z AUTO 00000KT 4SM 21/18 A2980 RMK T02100180 IEM_DS3505
ZGGG,2006-05-18 17:00,ZGGG 181700Z AUTO 35004KT 4SM 21/17 A2977 RMK T02100170 IEM_DS3505
ZGGG,2006-05-18 18:00,ZGGG 181800Z AUTO 07002KT 12SM 21/17 A2977 RMK SLP088 T02060174 57006 IEM_DS3505
ZGGG,2006-05-18 19:00,ZGGG 181900Z AUTO 10004KT 2 1/2SM 20/17 A2977 RMK T02000170 IEM_DS3505
ZGGG,2006-05-18 20:00,ZGGG 182000Z AUTO 08004KT 3SM 20/17 A2977 RMK T02000170 IEM_DS3505
ZGGG,2006-05-18 21:00,ZGGG 182100Z AUTO 00000KT 11SM 20/17 A2980 RMK 70002 SLP094 T01950169 52006 IEM_DS3505
ZGGG,2006-05-18 22:00,ZGGG 182200Z AUTO 08002KT 2SM 19/16 A2980 RMK T01900160 IEM_DS3505
ZGGG,2006-05-18 23:00,ZGGG 182300Z AUTO 00000KT 2 1/2SM 21/17 A2983 RMK T02100170 IEM_DS3505
ZGGG,2006-05-19 00:00,ZGGG 190000Z AUTO 14004KT 10SM 24/17 A2983 RMK SLP110 T02450170 52016 IEM_DS3505
ZGGG,2006-05-19 01:00,ZGGG 190100Z AUTO 5SM 25/17 A2985 RMK T02500170 IEM_DS3505
ZGGG,2006-05-19 02:00,ZGGG 190200Z AUTO 5SM 27/16 A2985 RMK T02700160 IEM_DS3505
ZGGG,2006-05-19 03:00,ZGGG 190300Z AUTO 09004KT 9SM 29/17 A2983 RMK SLP109 T02920167 57001 IEM_DS3505
ZGGG,2006-05-19 04:00,ZGGG 190400Z AUTO 6SM 29/15 A2980 RMK T02900150 IEM_DS3505
ZGGG,2006-05-19 05:00,ZGGG 190500Z AUTO 7SM 30/14 A2980 RMK T03000140 IEM_DS3505
ZGGG,2006-05-19 06:00,ZGGG 190600Z AUTO 32004KT 10SM 31/15 A2977 RMK SLP087 T03070148 57022 IEM_DS3505
ZGGG,2006-05-19 07:00,ZGGG 190700Z AUTO 7SM 31/13 A2974 RMK T03100130 IEM_DS3505
ZGGG,2006-05-19 08:00,ZGGG 190800Z AUTO 02006KT 6SM 31/08 A2974 RMK T03100080 IEM_DS3505
ZGGG,2006-05-19 09:00,ZGGG 190900Z AUTO 02002KT 10SM 30/13 A2974 RMK SLP079 T02960134 57008 IEM_DS3505
ZGGG,2006-05-19 10:00,ZGGG 191000Z AUTO 06004KT 6SM 29/13 A2974 RMK T02900130 IEM_DS3505
ZGGG,2006-05-19 11:00,ZGGG 191100Z AUTO 09002KT 6SM 28/14 A2977 RMK T02800140 IEM_DS3505
ZGGG,2006-05-19 12:00,ZGGG 191200Z AUTO 11002KT 9SM 26/14 A2977 RMK SLP089 T02550143 52010 IEM_DS3505
ZGGG,2006-05-19 13:00,ZGGG 191300Z AUTO 00000KT 6SM 25/16 A2977 RMK T02500160 IEM_DS3505
ZGGG,2006-05-19 14:00,ZGGG 191400Z AUTO 6SM 24/18 A2980 RMK T02400180 IEM_DS3505
ZGGG,2006-05-19 15:00,ZGGG 191500Z AUTO 07002KT 11SM 24/17 A2980 RMK SLP099 T02410174 52010 IEM_DS3505
ZGGG,2006-05-19 16:00,ZGGG 191600Z AUTO 6SM 24/17 A2980 RMK T02400170 IEM_DS3505
ZGGG,2006-05-19 17:00,ZGGG 191700Z AUTO 6SM 24/17 A2980 RMK T02400170 IEM_DS3505
ZGGG,2006-05-19 18:00,ZGGG 191800Z AUTO 07002KT 9SM 24/18 A2980 RMK SLP094 T02420177 57005 IEM_DS3505
ZGGG,2006-05-19 19:00,ZGGG 191900Z AUTO 6SM 23/18 A2980 RMK T02300180 IEM_DS3505
ZGGG,2006-05-19 20:00,ZGGG 192000Z AUTO 10004KT 6SM 23/17 A2980 RMK T02300170 IEM_DS3505
ZGGG,2006-05-19 21:00,ZGGG 192100Z AUTO 09002KT 9SM 24/18 A2983 RMK SLP107 T02360180 52013 IEM_DS3505
ZGGG,2006-05-19 22:00,ZGGG 192200Z AUTO 10002KT 4SM 22/18 A2983 RMK T02200180 IEM_DS3505
ZGGG,2006-05-19 23:00,ZGGG 192300Z AUTO 08004KT 4SM 23/18 A2985 RMK T02300180 IEM_DS3505
ZGGG,2006-05-20 00:00,ZGGG 200000Z AUTO 02002KT 9SM 24/19 A2985 RMK 60000 70000 SLP118 T02370190 52011 IEM_DS3505
ZGGG,2006-05-20 01:00,ZGGG 200100Z AUTO 05004KT 5SM 24/18 A2988 RMK T02400180 IEM_DS3505
ZGGG,2006-05-20 02:00,ZGGG 200200Z AUTO 09004KT 5SM 25/18 A2988 RMK T02500180 IEM_DS3505
ZGGG,2006-05-20 03:00,ZGGG 200300Z AUTO 14004KT 11SM 26/18 A2985 RMK SLP120 T02560183 52002 IEM_DS3505
ZGGG,2006-05-20 04:00,ZGGG 200400Z AUTO 14004KT 7SM 28/18 A2985 RMK T02800180 IEM_DS3505
ZGGG,2006-05-20 05:00,ZGGG 200500Z AUTO 7SM 29/18 A2983 RMK T02900180 IEM_DS3505
ZGGG,2006-05-20 06:00,ZGGG 200600Z AUTO 11006KT 9SM 28/19 A2983 RMK SLP106 T02820186 57014 IEM_DS3505
ZGGG,2006-05-20 07:00,ZGGG 200700Z AUTO 16006KT 7SM 29/18 A2980 RMK T02900180 IEM_DS3505
ZGGG,2006-05-20 08:00,ZGGG 200800Z AUTO 14004KT 7SM 28/17 A2980 RMK T02800170 IEM_DS3505
ZGGG,2006-05-20 09:00,ZGGG 200900Z AUTO 16004KT 7SM 27/19 A2980 RMK SLP100 T02710192 57006 IEM_DS3505
ZGGG,2006-05-20 10:00,ZGGG 201000Z AUTO 4SM 28/18 A2983 RMK T02800180 IEM_DS3505
ZGGG,2006-05-20 11:00,ZGGG 201100Z AUTO 12006KT 4SM 27/18 A2983 RMK T02700180 IEM_DS3505
ZGGG,2006-05-20 12:00,ZGGG 201200Z AUTO 16004KT 7SM 26/19 A2985 RMK SLP117 T02570189 52017 IEM_DS3505
ZGGG,2006-05-20 13:00,ZGGG 201300Z AUTO 12004KT 4SM 26/19 A2985 RMK T02600190 IEM_DS3505
ZGGG,2006-05-20 14:00,ZGGG 201400Z AUTO 14004KT 4SM 25/19 A2988 RMK T02500190 IEM_DS3505
ZGGG,2006-05-20 15:00,ZGGG 201500Z AUTO 14004KT 7SM 24/20 A2988 RMK SLP132 T02350204 52015 IEM_DS3505
ZGGG,2006-05-20 16:00,ZGGG 201600Z AUTO 15006KT 4SM 24/19 A2988 RMK T02400190 IEM_DS3505
ZGGG,2006-05-20 17:00,ZGGG 201700Z AUTO 14004KT 3SM 23/20 A2988 RMK T02300200 IEM_DS3505
ZGGG,2006-05-20 18:00,ZGGG 201800Z AUTO 11004KT 7SM 22/19 A2985 RMK 60016 SLP122 T02160186 57010 IEM_DS3505
ZGGG,2006-05-20 19:00,ZGGG 201900Z AUTO 3SM 22/19 A2985 RMK T02200190 IEM_DS3505
ZGGG,2006-05-20 20:00,ZGGG 202000Z AUTO 4SM 22/19 A2985 RMK T02200190 IEM_DS3505
ZGGG,2006-05-20 21:00,ZGGG 202100Z AUTO 04002KT 7SM 21/19 A2985 RMK 70025 SLP116 T02080191 57006 IEM_DS3505
ZGGG,2006-05-20 22:00,ZGGG 202200Z AUTO 4SM 21/18 A2985 RMK T02100180 IEM_DS3505
ZGGG,2006-05-20 23:00,ZGGG 202300Z AUTO 08004KT 4SM 22/18 A2985 RMK T02200180 IEM_DS3505
ZGGG,2006-05-21 00:00,ZGGG 210000Z AUTO 07002KT 2SM 21/20 A2988 RMK 60016 70033 SLP126 T02100195 52009 IEM_DS3505
ZGGG,2006-05-21 01:00,ZGGG 210100Z AUTO 06004KT 3SM 21/18 A2988 RMK T02100180 IEM_DS3505
ZGGG,2006-05-21 02:00,ZGGG 210200Z AUTO 06004KT 2 1/2SM 22/19 A2988 RMK T02200190 IEM_DS3505
ZGGG,2006-05-21 03:00,ZGGG 210300Z AUTO 04004KT 2SM 23/21 A2988 RMK SLP122 T02280209 57004 IEM_DS3505
ZGGG,2006-05-21 04:00,ZGGG 210400Z AUTO 08004KT 1 1/2SM 23/21 A2985 RMK T02300210 IEM_DS3505
ZGGG,2006-05-21 05:00,ZGGG 210500Z AUTO 06004KT 1 1/4SM 23/21 A2983 RMK T02300210 IEM_DS3505
ZGGG,2006-05-21 06:00,ZGGG 210600Z AUTO 36004KT 2SM 23/22 A2980 RMK 60094 SLP099 T02290215 57023 IEM_DS3505
ZGGG,2006-05-21 07:00,ZGGG 210700Z AUTO 04006KT 1SM 23/21 A2980 RMK T02300210 IEM_DS3505
ZGGG,2006-05-21 08:00,ZGGG 210800Z AUTO 05006KT 3SM 23/21 A2977 RMK T02300210 IEM_DS3505
ZGGG,2006-05-21 09:00,ZGGG 210900Z AUTO 04002KT 6SM 23/22 A2977 RMK SLP085 T02300215 57014 IEM_DS3505
ZGGG,2006-05-21 10:00,ZGGG 211000Z AUTO 07006KT 5SM 24/21 A2977 RMK T02400210 IEM_DS3505
ZGGG,2006-05-21 11:00,ZGGG 211100Z AUTO 08006KT 3SM 23/21 A2980 RMK T02300210 IEM_DS3505
ZGGG,2006-05-21 12:00,ZGGG 211200Z AUTO 11004KT 6SM 23/22 A2980 RMK 60043 SLP099 T02320216 52014 IEM_DS3505
ZGGG,2006-05-21 13:00,ZGGG 211300Z AUTO 05004KT 2 1/2SM 23/21 A2980 RMK T02300210 IEM_DS3505
ZGGG,2006-05-21 14:00,ZGGG 211400Z AUTO 03006KT 3SM 23/21 A2980 RMK T02300210 IEM_DS3505
ZGGG,2006-05-21 15:00,ZGGG 211500Z AUTO 16006KT 6SM 24/22 A2980 RMK SLP103 T02350223 52005 IEM_DS3505
ZGGG,2006-05-21 16:00,ZGGG 211600Z AUTO 10004KT 1 1/4SM 24/22 A2980 RMK T02400220 IEM_DS3505
ZGGG,2006-05-21 17:00,ZGGG 211700Z AUTO 2 1/2SM 24/22 A2977 RMK T02400220 IEM_DS3505
ZGGG,2006-05-21 18:00,ZGGG 211800Z AUTO 11004KT 6SM 24/23 A2977 RMK 60366 SLP086 T02360226 57017 IEM_DS3505
ZGGG,2006-05-21 19:00,ZGGG 211900Z AUTO 2 1/2SM 24/22 A2974 RMK T02400220 IEM_DS3505
ZGGG,2006-05-21 20:00,ZGGG 212000Z AUTO 00000KT 4SM 24/22 A2974 RMK T02400220 IEM_DS3505
ZGGG,2006-05-21 21:00,ZGGG 212100Z AUTO 25002KT 4SM 24/23 A2974 RMK 70537 SLP083 T02370227 57003 IEM_DS3505
ZGGG,2006-05-21 22:00,ZGGG 212200Z AUTO 00000KT 2SM 24/22 A2977 RMK T02400220 IEM_DS3505
ZGGG,2006-05-21 23:00,ZGGG 212300Z AUTO 30004KT 1SM 24/22 A2977 RMK T02400220 IEM_DS3505
ZGGG,2006-05-22 00:00,ZGGG 220000Z AUTO 27002KT 1 1/4SM 24/23 A2980 RMK 60031 70535 SLP098 T02390229 52015 IEM_DS3505
ZGGG,2006-05-22 01:00,ZGGG 220100Z AUTO 35004KT 4SM 25/22 A2980 RMK T02500220 IEM_DS3505
ZGGG,2006-05-22 02:00,ZGGG 220200Z AUTO 32004KT 3SM 25/22 A2983 RMK T02500220 IEM_DS3505
ZGGG,2006-05-22 03:00,ZGGG 220300Z AUTO 32002KT 1 1/4SM 24/23 A2980 RMK SLP101 T02450233 52003 IEM_DS3505
ZGGG,2006-05-22 04:00,ZGGG 220400Z AUTO 4SM 24/22 A2980 RMK T02400220 IEM_DS3505
ZGGG,2006-05-22 05:00,ZGGG 220500Z AUTO 02004KT 4SM 25/22 A2980 RMK T02500220 IEM_DS3505
ZGGG,2006-05-22 06:00,ZGGG 220600Z AUTO 29002KT 1 1/4SM 26/23 A2977 RMK 60031 SLP088 T02590232 57013 IEM_DS3505
ZGGG,2006-05-22 07:00,ZGGG 220700Z AUTO 06004KT 7SM 25/22 A2977 RMK T02500220 IEM_DS3505
ZGGG,2006-05-22 08:00,ZGGG 220800Z AUTO 08002KT 4SM 25/22 A2974 RMK T02500220 IEM_DS3505
ZGGG,2006-05-22 09:00,ZGGG 220900Z AUTO 02004KT 2 1/2SM 26/23 A2974 RMK SLP078 T02650232 57010 IEM_DS3505
ZGGG,2006-05-22 10:00,ZGGG 221000Z AUTO 09004KT 4SM 26/23 A2974 RMK T02600230 IEM_DS3505
ZGGG,2006-05-22 11:00,ZGGG 221100Z AUTO 04002KT 4SM 25/23 A2977 RMK T02500230 IEM_DS3505
ZGGG,2006-05-22 12:00,ZGGG 221200Z AUTO 36002KT 7SM 25/23 A2980 RMK 60000 SLP094 T02490230 52016 IEM_DS3505
ZGGG,2006-05-22 13:00,ZGGG 221300Z AUTO 11002KT 5SM 25/23 A2980 RMK T02500230 IEM_DS3505
ZGGG,2006-05-22 14:00,ZGGG 221400Z AUTO 6SM 25/22 A2983 RMK T02500220 IEM_DS3505
ZGGG,2006-05-22 15:00,ZGGG 221500Z AUTO 00000KT 6SM 25/23 A2983 RMK SLP108 T02480232 52014 IEM_DS3505
ZGGG,2006-05-22 16:00,ZGGG 221600Z AUTO 00000KT 3SM 24/22 A2983 RMK T02400220 IEM_DS3505
ZGGG,2006-05-22 17:00,ZGGG 221700Z AUTO 4SM 24/22 A2980 RMK T02400220 IEM_DS3505
ZGGG,2006-05-22 18:00,ZGGG 221800Z AUTO 00000KT 4SM 24/23 A2980 RMK 60004 SLP096 T02450233 57012 IEM_DS3505
ZGGG,2006-05-22 19:00,ZGGG 221900Z AUTO 07002KT 2SM 24/22 A2980 RMK T02400220 IEM_DS3505
ZGGG,2006-05-22 20:00,ZGGG 222000Z AUTO 1 1/4SM 24/22 A2980 RMK T02400220 IEM_DS3505
ZGGG,2006-05-22 21:00,ZGGG 222100Z AUTO 02004KT 2SM 24/23 A2980 RMK 70165 SLP098 T02410231 52002 IEM_DS3505
ZGGG,2006-05-22 22:00,ZGGG 222200Z AUTO 1 1/4SM 22/20 A2983 RMK T02200200 IEM_DS3505
ZGGG,2006-05-22 23:00,ZGGG 222300Z AUTO 35006KT 1SM 22/20 A2983 RMK T02200200 IEM_DS3505
ZGGG,2006-05-23 00:00,ZGGG 230000Z AUTO 32004KT 10SM 23/22 A2985 RMK 60130 70163 SLP115 T02280216 52017 IEM_DS3505
ZGGG,2006-05-23 01:00,ZGGG 230100Z AUTO 1SM 22/21 A2985 RMK T02200210 IEM_DS3505
ZGGG,2006-05-23 02:00,ZGGG 230200Z AUTO 01004KT 1SM 22/21 A2985 RMK T02200210 IEM_DS3505
ZGGG,2006-05-23 03:00,ZGGG 230300Z AUTO 29002KT 9SM 26/23 A2985 RMK SLP118 T02620227 52003 IEM_DS3505
ZGGG,2006-05-23 04:00,ZGGG 230400Z AUTO 00000KT 3SM 23/22 A2985 RMK T02300220 IEM_DS3505
ZGGG,2006-05-23 05:00,ZGGG 230500Z AUTO 00000KT 1 1/2SM 24/22 A2985 RMK T02400220 IEM_DS3505
ZGGG,2006-05-23 06:00,ZGGG 230600Z AUTO 32002KT 11SM 26/23 A2983 RMK 60000 SLP104 T02570226 57014 IEM_DS3505
ZGGG,2006-05-23 07:00,ZGGG 230700Z AUTO 10004KT 7SM 25/22 A2980 RMK T02500220 IEM_DS3505
ZGGG,2006-05-23 08:00,ZGGG 230800Z AUTO 4SM 25/22 A2980 RMK T02500220 IEM_DS3505
ZGGG,2006-05-23 09:00,ZGGG 230900Z AUTO 07002KT 10SM 27/23 A2980 RMK SLP095 T02670230 57009 IEM_DS3505
ZGGG,2006-05-23 10:00,ZGGG 231000Z AUTO 3SM 25/22 A2980 RMK T02500220 IEM_DS3505
ZGGG,2006-05-23 11:00,ZGGG 231100Z AUTO 1 1/2SM 25/23 A2983 RMK T02500230 IEM_DS3505
ZGGG,2006-05-23 12:00,ZGGG 231200Z AUTO 04002KT 9SM 25/23 A2983 RMK 60008 SLP110 T02480234 52015 IEM_DS3505
ZGGG,2006-05-23 13:00,ZGGG 231300Z AUTO 36004KT 4SM 24/22 A2985 RMK T02400220 IEM_DS3505
ZGGG,2006-05-23 14:00,ZGGG 231400Z AUTO 09004KT 3SM 24/22 A2983 RMK T02400220 IEM_DS3505
ZGGG,2006-05-23 15:00,ZGGG 231500Z AUTO 18002KT 7SM 24/23 A2983 RMK SLP115 T02410229 52005 IEM_DS3505
ZGGG,2006-05-23 16:00,ZGGG 231600Z AUTO 1 1/4SM 24/22 A2983 RMK T02400220 IEM_DS3505
ZGGG,2006-05-23 17:00,ZGGG 231700Z AUTO 1SM 24/22 A2983 RMK T02400220 IEM_DS3505
ZGGG,2006-05-23 18:00,ZGGG 231800Z AUTO 04002KT 7SM 23/22 A2983 RMK 60002 SLP103 T02340222 57012 IEM_DS3505
ZGGG,2006-05-23 19:00,ZGGG 231900Z AUTO 35002KT 1 1/4SM 23/21 A2983 RMK T02300210 IEM_DS3505
ZGGG,2006-05-23 20:00,ZGGG 232000Z AUTO 00000KT 1 1/2SM 23/22 A2983 RMK T02300220 IEM_DS3505
ZGGG,2006-05-23 21:00,ZGGG 232100Z AUTO 04002KT 2 1/2SM 24/23 A2980 RMK 70014 SLP103 T02360226 54000 IEM_DS3505
ZGGG,2006-05-23 22:00,ZGGG 232200Z AUTO 00000KT 1SM 24/22 A2983 RMK T02400220 IEM_DS3505
ZGGG,2006-05-23 23:00,ZGGG 232300Z AUTO 1SM 24/22 A2983 RMK T02400220 IEM_DS3505
ZGGG,2006-05-24 00:00,ZGGG 240000Z AUTO 04002KT 1 1/4SM 25/23 A2983 RMK 60000 70009 SLP111 T02480234 52008 IEM_DS3505
ZGGG,2006-05-24 01:00,ZGGG 240100Z AUTO 06004KT 1 1/2SM 26/23 A2985 RMK T02600230 IEM_DS3505
ZGGG,2006-05-24 02:00,ZGGG 240200Z AUTO 1 1/2SM 26/23 A2985 RMK T02600230 IEM_DS3505
ZGGG,2006-05-24 03:00,ZGGG 240300Z AUTO 09002KT 1 1/4SM 27/24 A2985 RMK SLP118 T02670238 52007 IEM_DS3505
ZGGG,2006-05-24 04:00,ZGGG 240400Z AUTO 15004KT 1 1/2SM 28/23 A2983 RMK T02800230 IEM_DS3505
ZGGG,2006-05-24 05:00,ZGGG 240500Z AUTO 18004KT 1 1/2SM 28/23 A2983 RMK T02800230 IEM_DS3505
ZGGG,2006-05-24 06:00,ZGGG 240600Z AUTO 11002KT 2SM 30/24 A2980 RMK SLP096 T02960235 57022 IEM_DS3505
ZGGG,2006-05-24 07:00,ZGGG 240700Z AUTO 26004KT 1 1/2SM 30/23 A2977 RMK T03000230 IEM_DS3505
ZGGG,2006-05-24 08:00,ZGGG 240800Z AUTO 24006KT 1 1/4SM 29/24 A2977 RMK T02900240 IEM_DS3505
ZGGG,2006-05-24 09:00,ZGGG 240900Z AUTO 09002KT 4SM 27/24 A2974 RMK SLP085 T02690242 57011 IEM_DS3505
ZGGG,2006-05-24 10:00,ZGGG 241000Z AUTO 17012KT 1 1/4SM 26/22 A2980 RMK T02600220 IEM_DS3505
ZGGG,2006-05-24 11:00,ZGGG 241100Z AUTO 06004KT 1SM 25/23 A2980 RMK T02500230 IEM_DS3505
ZGGG,2006-05-24 12:00,ZGGG 241200Z AUTO 09002KT 2 1/2SM 25/24 A2983 RMK 60024 SLP104 T02520238 52019 IEM_DS3505
ZGGG,2006-05-24 13:00,ZGGG 241300Z AUTO 2 1/2SM 24/23 A2983 RMK T02400230 IEM_DS3505
ZGGG,2006-05-24 14:00,ZGGG 241400Z AUTO 07004KT 2 1/2SM 25/23 A2983 RMK T02500230 IEM_DS3505
ZGGG,2006-05-24 15:00,ZGGG 241500Z AUTO 14002KT 5SM 26/24 A2985 RMK SLP117 T02560240 52013 IEM_DS3505
ZGGG,2006-05-24 16:00,ZGGG 241600Z AUTO 13002KT 2 1/2SM 25/24 A2985 RMK T02500240 IEM_DS3505
ZGGG,2006-05-24 17:00,ZGGG 241700Z AUTO 2 1/2SM 25/23 A2983 RMK T02500230 IEM_DS3505
ZGGG,2006-05-24 18:00,ZGGG 241800Z AUTO 18004KT 7SM 25/24 A2983 RMK 60000 SLP105 T02540236 57012 IEM_DS3505
ZGGG,2006-05-24 19:00,ZGGG 241900Z AUTO 18002KT 2 1/2SM 26/23 A2983 RMK T02600230 IEM_DS3505
ZGGG,2006-05-24 20:00,ZGGG 242000Z AUTO 17002KT 2 1/2SM 26/23 A2980 RMK T02600230 IEM_DS3505
ZGGG,2006-05-24 21:00,ZGGG 242100Z AUTO 18002KT 8SM 25/23 A2980 RMK 70023 SLP103 T02490231 57002 IEM_DS3505
ZGGG,2006-05-24 22:00,ZGGG 242200Z AUTO 3SM 25/22 A2980 RMK T02500220 IEM_DS3505
ZGGG,2006-05-24 23:00,ZGGG 242300Z AUTO 3SM 26/23 A2983 RMK T02600230 IEM_DS3505
ZGGG,2006-05-25 00:00,ZGGG 250000Z AUTO 16004KT 6SM 26/23 A2983 RMK 70023 SLP107 T02620231 52004 IEM_DS3505
ZGGG,2006-05-25 01:00,ZGGG 250100Z AUTO 18006KT 7SM 28/23 A2985 RMK T02800230 IEM_DS3505
ZGGG,2006-05-25 02:00,ZGGG 250200Z AUTO 16006KT 7SM 28/23 A2985 RMK T02800230 IEM_DS3505
ZGGG,2006-05-25 03:00,ZGGG 250300Z AUTO 18004KT 9SM 29/23 A2985 RMK SLP114 T02920232 52007 IEM_DS3505
ZGGG,2006-05-25 04:00,ZGGG 250400Z AUTO 17008KT 7SM 30/22 A2983 RMK T03000220 IEM_DS3505
ZGGG,2006-05-25 05:00,ZGGG 250500Z AUTO 17008KT 7SM 30/22 A2980 RMK T03000220 IEM_DS3505
ZGGG,2006-05-25 06:00,ZGGG 250600Z AUTO 18004KT 12SM 31/22 A2977 RMK SLP092 T03090220 57022 IEM_DS3505
ZGGG,2006-05-25 07:00,ZGGG 250700Z AUTO 17010KT 7SM 32/22 A2977 RMK T03200220 IEM_DS3505
ZGGG,2006-05-25 08:00,ZGGG 250800Z AUTO 20012KT 7SM 31/22 A2974 RMK T03100220 IEM_DS3505
ZGGG,2006-05-25 09:00,ZGGG 250900Z AUTO 14006KT 10SM 29/24 A2974 RMK SLP082 T02930237 57010 IEM_DS3505
ZGGG,2006-05-25 10:00,ZGGG 251000Z AUTO 14004KT 5SM 29/24 A2977 RMK T02900240 IEM_DS3505
ZGGG,2006-05-25 11:00,ZGGG 251100Z AUTO 15006KT 5SM 28/23 A2977 RMK T02800230 IEM_DS3505
ZGGG,2006-05-25 12:00,ZGGG 251200Z AUTO 18004KT 11SM 28/22 A2980 RMK SLP096 T02820224 52014 IEM_DS3505
ZGGG,2006-05-25 13:00,ZGGG 251300Z AUTO 12004KT 4SM 27/23 A2980 RMK T02700230 IEM_DS3505
ZGGG,2006-05-25 14:00,ZGGG 251400Z AUTO 14004KT 4SM 27/23 A2983 RMK T02700230 IEM_DS3505
ZGGG,2006-05-25 15:00,ZGGG 251500Z AUTO 14004KT 11SM 27/23 A2983 RMK SLP111 T02680229 52015 IEM_DS3505
ZGGG,2006-05-25 16:00,ZGGG 251600Z AUTO 15002KT 4SM 26/23 A2985 RMK T02600230 IEM_DS3505
ZGGG,2006-05-25 17:00,ZGGG 251700Z AUTO 15002KT 4SM 26/23 A2983 RMK T02600230 IEM_DS3505
ZGGG,2006-05-25 18:00,ZGGG 251800Z AUTO 14002KT 11SM 26/23 A2983 RMK SLP105 T02640233 57006 IEM_DS3505
ZGGG,2006-05-25 19:00,ZGGG 251900Z AUTO 10004KT 4SM 26/23 A2980 RMK T02600230 IEM_DS3505
ZGGG,2006-05-25 20:00,ZGGG 252000Z AUTO 10002KT 4SM 26/23 A2983 RMK T02600230 IEM_DS3505
ZGGG,2006-05-25 21:00,ZGGG 252100Z AUTO 14004KT 8SM 26/24 A2983 RMK 70000 SLP106 T02610238 52001 IEM_DS3505
ZGGG,2006-05-25 22:00,ZGGG 252200Z AUTO 13002KT 2 1/2SM 26/23 A2983 RMK T02600230 IEM_DS3505
ZGGG,2006-05-25 23:00,ZGGG 252300Z AUTO 2 1/2SM 26/24 A2985 RMK T02600240 IEM_DS3505
ZGGG,2006-05-26 00:00,ZGGG 260000Z AUTO 16002KT 7SM 27/24 A2985 RMK 60000 70000 SLP123 T02690238 52017 IEM_DS3505
ZGGG,2006-05-26 01:00,ZGGG 260100Z AUTO 18004KT 3SM 27/24 A2988 RMK T02700240 IEM_DS3505
ZGGG,2006-05-26 03:00,ZGGG 260300Z AUTO 18004KT 7SM 30/24 RMK SLP121 T02980235 57002 IEM_DS3505
ZGGG,2006-05-26 04:00,ZGGG 260400Z AUTO 20010KT 4SM 31/23 A2985 RMK T03100230 IEM_DS3505
ZGGG,2006-05-26 05:00,ZGGG 260500Z AUTO 19010KT 5SM 30/24 A2983 RMK T03000240 IEM_DS3505
ZGGG,2006-05-26 06:00,ZGGG 260600Z AUTO 20004KT 6SM 30/24 A2980 RMK 60002 SLP098 T02960240 57023 IEM_DS3505
ZGGG,2006-05-26 07:00,ZGGG 260700Z AUTO 23008KT 4SM 30/25 A2977 RMK T03000250 IEM_DS3505
ZGGG,2006-05-26 08:00,ZGGG 260800Z AUTO 22006KT 3SM 30/25 A2977 RMK T03000250 IEM_DS3505
ZGGG,2006-05-26 09:00,ZGGG 260900Z AUTO 16002KT 5SM 30/25 A2974 RMK SLP079 T02980251 57019 IEM_DS3505
ZGGG,2006-05-26 10:00,ZGGG 261000Z AUTO 22008KT 2 1/2SM 29/24 A2977 RMK T02900240 IEM_DS3505
ZGGG,2006-05-26 11:00,ZGGG 261100Z AUTO 2SM 28/25 A2977 RMK T02800250 IEM_DS3505
ZGGG,2006-05-26 12:00,ZGGG 261200Z AUTO 07002KT 7SM 27/25 A2980 RMK 60020 SLP097 T02660250 52018 IEM_DS3505
ZGGG,2006-05-26 13:00,ZGGG 261300Z AUTO 04002KT 2SM 27/25 A2983 RMK T02700250 IEM_DS3505
ZGGG,2006-05-26 14:00,ZGGG 261400Z AUTO 00000KT 1 1/2SM 27/25 A2983 RMK T02700250 IEM_DS3505
ZGGG,2006-05-26 15:00,ZGGG 261500Z AUTO 16002KT 7SM 26/25 A2983 RMK SLP112 T02630247 52015 IEM_DS3505
ZGGG,2006-05-26 16:00,ZGGG 261600Z AUTO 1 1/2SM 26/24 A2980 RMK T02600240 IEM_DS3505
ZGGG,2006-05-26 17:00,ZGGG 261700Z AUTO 29014KT 3/8SM 25/22 A2980 RMK T02500220 IEM_DS3505
ZGGG,2006-05-26 18:00,ZGGG 261800Z AUTO 02006KT 6SM 25/22 A2980 RMK 60008 SLP100 T02480223 57012 IEM_DS3505
ZGGG,2006-05-26 19:00,ZGGG 261900Z AUTO 22004KT 5SM 24/22 A2980 RMK T02400220 IEM_DS3505
ZGGG,2006-05-26 20:00,ZGGG 262000Z AUTO 33004KT 4SM 23/22 A2980 RMK T02300220 IEM_DS3505
ZGGG,2006-05-26 21:00,ZGGG 262100Z AUTO 36002KT 7SM 24/23 A2980 RMK 70182 SLP097 T02380226 57003 IEM_DS3505
ZGGG,2006-05-26 22:00,ZGGG 262200Z AUTO 01002KT 4SM 24/22 A2980 RMK T02400220 IEM_DS3505
ZGGG,2006-05-26 23:00,ZGGG 262300Z AUTO 2 1/2SM 24/23 A2983 RMK T02400230 IEM_DS3505
ZGGG,2006-05-27 00:00,ZGGG 270000Z AUTO 22002KT 7SM 24/23 A2983 RMK 60232 70264 SLP111 T02420232 52014 IEM_DS3505
ZGGG,2006-05-27 01:00,ZGGG 270100Z AUTO 00000KT 4SM 26/22 A2985 RMK T02600220 IEM_DS3505
ZGGG,2006-05-27 02:00,ZGGG 270200Z AUTO 4SM 27/23 A2985 RMK T02700230 IEM_DS3505
ZGGG,2006-05-27 03:00,ZGGG 270300Z AUTO 09004KT 6SM 26/23 A2985 RMK SLP118 T02580233 52007 IEM_DS3505
ZGGG,2006-05-27 04:00,ZGGG 270400Z AUTO 4SM 28/23 A2983 RMK T02800230 IEM_DS3505
ZGGG,2006-05-27 05:00,ZGGG 270500Z AUTO 4SM 28/23 A2983 RMK T02800230 IEM_DS3505
ZGGG,2006-05-27 06:00,ZGGG 270600Z AUTO 07002KT 2SM 25/23 A2983 RMK 60071 SLP108 T02470233 57010 IEM_DS3505
ZGGG,2006-05-27 07:00,ZGGG 270700Z AUTO 17004KT 2 1/2SM 25/23 A2980 RMK T02500230 IEM_DS3505
ZGGG,2006-05-27 08:00,ZGGG 270800Z AUTO 24004KT 1SM 25/23 A2980 RMK T02500230 IEM_DS3505
ZGGG,2006-05-27 09:00,ZGGG 270900Z AUTO 04002KT 1 1/4SM 25/24 RMK SLP096 T02480236 57012 IEM_DS3505
ZGGG,2006-05-27 10:00,ZGGG 271000Z AUTO 03004KT 3SM 24/23 A2980 RMK T02400230 IEM_DS3505
ZGGG,2006-05-27 11:00,ZGGG 271100Z AUTO 3SM 24/23 A2980 RMK T02400230 IEM_DS3505
ZGGG,2006-05-27 12:00,ZGGG 271200Z AUTO 18002KT 6SM 24/23 A2980 RMK 60067 SLP095 T02430231 57001 IEM_DS3505
ZGGG,2006-05-27 13:00,ZGGG 271300Z AUTO 4SM 25/23 A2980 RMK T02500230 IEM_DS3505
ZGGG,2006-05-27 14:00,ZGGG 271400Z AUTO 00000KT 3SM 24/23 A2983 RMK T02400230 IEM_DS3505
ZGGG,2006-05-27 15:00,ZGGG 271500Z AUTO 00000KT 4SM 24/23 A2983 RMK SLP111 T02430233 52016 IEM_DS3505
ZGGG,2006-05-27 16:00,ZGGG 271600Z AUTO 00000KT 5SM 25/23 A2983 RMK T02500230 IEM_DS3505
ZGGG,2006-05-27 17:00,ZGGG 271700Z AUTO 00000KT 4SM 25/23 A2980 RMK T02500230 IEM_DS3505
ZGGG,2006-05-27 18:00,ZGGG 271800Z AUTO 03002KT 4SM 24/23 A2977 RMK 60002 SLP093 T02430233 57018 IEM_DS3505
ZGGG,2006-05-27 19:00,ZGGG 271900Z AUTO 02002KT 3SM 24/23 A2977 RMK T02400230 IEM_DS3505
ZGGG,2006-05-27 20:00,ZGGG 272000Z AUTO 35004KT 2SM 24/22 A2974 RMK T02400220 IEM_DS3505
ZGGG,2006-05-27 21:00,ZGGG 272100Z AUTO 09002KT 1 1/4SM 24/23 A2974 RMK 70229 SLP074 T02430233 57019 IEM_DS3505
ZGGG,2006-05-27 22:00,ZGGG 272200Z AUTO 33008KT 2 1/2SM 23/21 A2974 RMK T02300210 IEM_DS3505
ZGGG,2006-05-27 23:00,ZGGG 272300Z AUTO 35008KT 3SM 22/20 A2977 RMK T02200200 IEM_DS3505
ZGGG,2006-05-28 00:00,ZGGG 280000Z AUTO 29004KT 2 1/2SM 22/21 A2977 RMK 60134 70276 SLP091 T02180208 52017 IEM_DS3505
ZGGG,2006-05-28 01:00,ZGGG 280100Z AUTO 01004KT 7SM 23/20 A2980 RMK T02300200 IEM_DS3505
ZGGG,2006-05-28 02:00,ZGGG 280200Z AUTO 36008KT 7SM 23/19 A2980 RMK T02300190 IEM_DS3505
ZGGG,2006-05-28 03:00,ZGGG 280300Z AUTO 02002KT 9SM 22/20 A2980 RMK SLP099 T02210204 52008 IEM_DS3505
ZGGG,2006-05-28 04:00,ZGGG 280400Z AUTO 04004KT 7SM 25/20 A2980 RMK T02500200 IEM_DS3505
ZGGG,2006-05-28 05:00,ZGGG 280500Z AUTO 03006KT 7SM 26/20 A2977 RMK T02600200 IEM_DS3505
ZGGG,2006-05-28 06:00,ZGGG 280600Z AUTO 34004KT 10SM 27/21 A2977 RMK 60067 SLP084 T02680211 57015 IEM_DS3505
ZGGG,2006-05-28 07:00,ZGGG 280700Z AUTO 7SM 27/19 A2974 RMK T02700190 IEM_DS3505
ZGGG,2006-05-28 08:00,ZGGG 280800Z AUTO 02006KT 7SM 26/20 A2974 RMK T02600200 IEM_DS3505
ZGGG,2006-05-28 09:00,ZGGG 280900Z AUTO 02002KT 9SM 26/22 A2974 RMK SLP072 T02590216 57012 IEM_DS3505
ZGGG,2006-05-28 10:00,ZGGG 281000Z AUTO 01004KT 3SM 23/20 A2974 RMK T02300200 IEM_DS3505
ZGGG,2006-05-28 11:00,ZGGG 281100Z AUTO 3SM 23/20 A2977 RMK T02300200 IEM_DS3505
ZGGG,2006-05-28 12:00,ZGGG 281200Z AUTO 00000KT 9SM 22/21 A2977 RMK 60012 SLP096 T02240207 52023 IEM_DS3505
ZGGG,2006-05-28 13:00,ZGGG 281300Z AUTO 4SM 23/21 A2980 RMK T02300210 IEM_DS3505
ZGGG,2006-05-28 14:00,ZGGG 281400Z AUTO 4SM 23/21 A2980 RMK T02300210 IEM_DS3505
ZGGG,2006-05-28 15:00,ZGGG 281500Z AUTO 02002KT 9SM 22/20 A2980 RMK SLP101 T02200199 52005 IEM_DS3505
ZGGG,2006-05-28 16:00,ZGGG 281600Z AUTO 4SM 22/20 A2980 RMK T02200200 IEM_DS3505
ZGGG,2006-05-28 17:00,ZGGG 281700Z AUTO 00000KT 4SM 22/20 A2977 RMK T02200200 IEM_DS3505
ZGGG,2006-05-28 18:00,ZGGG 281800Z AUTO 36002KT 9SM 21/19 A2974 RMK SLP084 T02120190 57016 IEM_DS3505
ZGGG,2006-05-28 19:00,ZGGG 281900Z AUTO 3SM 22/20 A2974 RMK T02200200 IEM_DS3505
ZGGG,2006-05-28 20:00,ZGGG 282000Z AUTO 00000KT 3SM 22/20 A2974 RMK T02200200 IEM_DS3505
ZGGG,2006-05-28 21:00,ZGGG 282100Z AUTO 16002KT 3SM 21/19 A2974 RMK 70224 SLP084 T02130190 54000 IEM_DS3505
ZGGG,2006-05-28 22:00,ZGGG 282200Z AUTO 08004KT 2SM 22/20 A2974 RMK T02200200 IEM_DS3505
ZGGG,2006-05-28 23:00,ZGGG 282300Z AUTO 1 1/2SM 22/20 A2977 RMK T02200200 IEM_DS3505
ZGGG,2006-05-29 00:00,ZGGG 290000Z AUTO 14002KT 2SM 20/19 A2977 RMK 60083 70162 SLP098 T02040192 52013 IEM_DS3505
ZGGG,2006-05-29 01:00,ZGGG 290100Z AUTO 14004KT 5SM 23/18 A2980 RMK T02300180 IEM_DS3505
ZGGG,2006-05-29 02:00,ZGGG 290200Z AUTO 12006KT 5SM 23/18 A2980 RMK T02300180 IEM_DS3505
ZGGG,2006-05-29 03:00,ZGGG 290300Z AUTO 09004KT 6SM 20/19 A2980 RMK SLP104 T02030186 52006 IEM_DS3505
ZGGG,2006-05-29 04:00,ZGGG 290400Z AUTO 11006KT 4SM 23/19 A2980 RMK T02300190 IEM_DS3505
ZGGG,2006-05-29 05:00,ZGGG 290500Z AUTO 12006KT 1 1/4SM 21/18 A2980 RMK T02100180 IEM_DS3505
ZGGG,2006-05-29 06:00,ZGGG 290600Z AUTO 07002KT 7SM 20/18 A2980 RMK 60087 SLP094 T02030182 57010 IEM_DS3505
ZGGG,2006-05-29 07:00,ZGGG 290700Z AUTO 10004KT 3SM 21/19 A2977 RMK T02100190 IEM_DS3505
ZGGG,2006-05-29 08:00,ZGGG 290800Z AUTO 1 1/2SM 21/19 A2977 RMK T02100190 IEM_DS3505
ZGGG,2006-05-29 09:00,ZGGG 290900Z AUTO 09004KT 4SM 20/19 A2977 RMK SLP086 T02000188 57008 IEM_DS3505
ZGGG,2006-05-29 10:00,ZGGG 291000Z AUTO 02004KT 3SM 21/19 A2977 RMK T02100190 IEM_DS3505
ZGGG,2006-05-29 11:00,ZGGG 291100Z AUTO 02004KT 3SM 20/18 A2977 RMK T02000180 IEM_DS3505
ZGGG,2006-05-29 12:00,ZGGG 291200Z AUTO 02004KT 9SM 20/18 A2977 RMK 60091 SLP093 T01980181 52007 IEM_DS3505
ZGGG,2006-05-29 13:00,ZGGG 291300Z AUTO 01004KT 5SM 20/18 A2980 RMK T02000180 IEM_DS3505
ZGGG,2006-05-29 14:00,ZGGG 291400Z AUTO 4SM 20/18 A2983 RMK T02000180 IEM_DS3505
ZGGG,2006-05-29 15:00,ZGGG 291500Z AUTO 36002KT 7SM 20/18 A2983 RMK SLP104 T01990182 52011 IEM_DS3505
ZGGG,2006-05-29 16:00,ZGGG 291600Z AUTO 5SM 20/18 A2980 RMK T02000180 IEM_DS3505
ZGGG,2006-05-29 17:00,ZGGG 291700Z AUTO 03004KT 2 1/2SM 20/17 A2980 RMK T02000170 IEM_DS3505
ZGGG,2006-05-29 18:00,ZGGG 291800Z AUTO 34002KT 6SM 19/18 A2977 RMK 60012 SLP093 T01940182 57011 IEM_DS3505
ZGGG,2006-05-29 19:00,ZGGG 291900Z AUTO 00000KT 2 1/2SM 19/18 A2977 RMK T01900180 IEM_DS3505
ZGGG,2006-05-29 20:00,ZGGG 292000Z AUTO 4SM 19/17 A2977 RMK T01900170 IEM_DS3505
ZGGG,2006-05-29 21:00,ZGGG 292100Z AUTO 34002KT 6SM 19/18 A2977 RMK 70285 SLP089 T01920182 57004 IEM_DS3505
ZGGG,2006-05-29 22:00,ZGGG 292200Z AUTO 00000KT 3SM 19/18 A2977 RMK T01900180 IEM_DS3505
ZGGG,2006-05-29 23:00,ZGGG 292300Z AUTO 5SM 20/18 A2980 RMK T02000180 IEM_DS3505
ZGGG,2006-05-30 00:00,ZGGG 300000Z AUTO 29002KT 4SM 20/19 A2983 RMK 60028 70218 SLP103 T02000188 52014 IEM_DS3505
ZGGG,2006-05-30 01:00,ZGGG 300100Z AUTO 34004KT 4SM 20/18 A2983 RMK T02000180 IEM_DS3505
ZGGG,2006-05-30 02:00,ZGGG 300200Z AUTO 5SM 21/18 A2983 RMK T02100180 IEM_DS3505
ZGGG,2006-05-30 03:00,ZGGG 300300Z AUTO 36002KT 2 1/2SM 20/19 A2983 RMK SLP110 T02050188 52007 IEM_DS3505
ZGGG,2006-05-30 04:00,ZGGG 300400Z AUTO 04004KT 5SM 21/18 A2983 RMK T02100180 IEM_DS3505
ZGGG,2006-05-30 05:00,ZGGG 300500Z AUTO 02004KT 5SM 21/18 A2980 RMK T02100180 IEM_DS3505
ZGGG,2006-05-30 06:00,ZGGG 300600Z AUTO 36002KT 2 1/2SM 22/20 A2980 RMK SLP095 T02180195 57015 IEM_DS3505
ZGGG,2006-05-30 07:00,ZGGG 300700Z AUTO 06004KT 5SM 22/18 A2977 RMK T02200180 IEM_DS3505
ZGGG,2006-05-30 08:00,ZGGG 300800Z AUTO 05004KT 5SM 22/19 A2977 RMK T02200190 IEM_DS3505
ZGGG,2006-05-30 09:00,ZGGG 300900Z AUTO 34002KT 2 1/2SM 22/20 A2977 RMK SLP083 T02230198 57012 IEM_DS3505
ZGGG,2006-05-30 10:00,ZGGG 301000Z AUTO 4SM 22/19 A2977 RMK T02200190 IEM_DS3505
ZGGG,2006-05-30 11:00,ZGGG 301100Z AUTO 2 1/2SM 21/19 A2977 RMK T02100190 IEM_DS3505
ZGGG,2006-05-30 12:00,ZGGG 301200Z AUTO 36002KT 2SM 22/20 A2980 RMK SLP097 T02180201 52014 IEM_DS3505
ZGGG,2006-05-30 13:00,ZGGG 301300Z AUTO 2SM 21/19 A2980 RMK T02100190 IEM_DS3505
ZGGG,2006-05-30 14:00,ZGGG 301400Z AUTO 2SM 21/19 A2980 RMK T02100190 IEM_DS3505
ZGGG,2006-05-30 15:00,ZGGG 301500Z AUTO 00000KT 2SM 22/20 A2980 RMK SLP102 T02180201 52005 IEM_DS3505
ZGGG,2006-05-30 16:00,ZGGG 301600Z AUTO 00000KT 2SM 21/19 A2980 RMK T02100190 IEM_DS3505
ZGGG,2006-05-30 17:00,ZGGG 301700Z AUTO 2SM 21/19 A2980 RMK T02100190 IEM_DS3505
ZGGG,2006-05-30 18:00,ZGGG 301800Z AUTO 09002KT 1 1/4SM 22/21 A2977 RMK 60000 SLP093 T02180206 57009 IEM_DS3505
ZGGG,2006-05-30 19:00,ZGGG 301900Z AUTO 1 1/2SM 21/19 A2977 RMK T02100190 IEM_DS3505
ZGGG,2006-05-30 20:00,ZGGG 302000Z AUTO 00000KT 2SM 21/19 A2977 RMK T02100190 IEM_DS3505
ZGGG,2006-05-30 21:00,ZGGG 302100Z AUTO 07004KT 2SM 22/21 A2977 RMK 70004 SLP090 T02190207 57003 IEM_DS3505
ZGGG,2006-05-30 22:00,ZGGG 302200Z AUTO 1 1/4SM 21/19 A2977 RMK T02100190 IEM_DS3505
ZGGG,2006-05-30 23:00,ZGGG 302300Z AUTO 00000KT 1SM 22/20 A2977 RMK T02200200 IEM_DS3505
ZGGG,2006-05-31 00:00,ZGGG 310000Z AUTO 18002KT 1SM 23/22 A2980 RMK 60020 70018 SLP099 T02260216 52009 IEM_DS3505
ZGGG,2006-05-31 01:00,ZGGG 310100Z AUTO 1 1/4SM 22/20 A2980 RMK T02200200 IEM_DS3505
ZGGG,2006-05-31 02:00,ZGGG 310200Z AUTO 2 1/2SM 23/21 A2980 RMK T02300210 IEM_DS3505
ZGGG,2006-05-31 03:00,ZGGG 310300Z AUTO 09002KT 2 1/2SM 25/24 A2980 RMK SLP094 T02540235 57004 IEM_DS3505
ZGGG,2006-05-31 04:00,ZGGG 310400Z AUTO 2SM 27/23 A2977 RMK T02700230 IEM_DS3505
ZGGG,2006-05-31 05:00,ZGGG 310500Z AUTO 2SM 28/24 A2977 RMK T02800240 IEM_DS3505
ZGGG,2006-05-31 06:00,ZGGG 310600Z AUTO 18002KT 6SM 30/25 A2974 RMK 60008 SLP075 T03040248 57019 IEM_DS3505
ZGGG,2006-05-31 07:00,ZGGG 310700Z AUTO 2SM 30/24 A2971 RMK T03000240 IEM_DS3505
ZGGG,2006-05-31 08:00,ZGGG 310800Z AUTO 2SM 30/24 A2971 RMK T03000240 IEM_DS3505
ZGGG,2006-05-31 09:00,ZGGG 310900Z AUTO 18002KT 7SM 30/25 A2971 RMK SLP064 T03050246 57011 IEM_DS3505
ZGGG,2006-05-31 10:00,ZGGG 311000Z AUTO 2SM 29/25 A2971 RMK T02900250 IEM_DS3505
ZGGG,2006-05-31 11:00,ZGGG 311100Z AUTO 19004KT 2 1/2SM 25/23 A2974 RMK T02500230 IEM_DS3505
ZGGG,2006-05-31 12:00,ZGGG 311200Z AUTO 25002KT 6SM 25/24 A2977 RMK 60028 SLP087 T02520236 52023 IEM_DS3505
ZGGG,2006-05-31 13:00,ZGGG 311300Z AUTO 13004KT 2 1/2SM 25/23 A2977 RMK T02500230 IEM_DS3505
ZGGG,2006-05-31 14:00,ZGGG 311400Z AUTO 09002KT 2SM 25/23 A2980 RMK T02500230 IEM_DS3505
ZGGG,2006-05-31 15:00,ZGGG 311500Z AUTO 11002KT 2 1/2SM 25/24 A2980 RMK SLP099 T02510239 52012 IEM_DS3505
ZGGG,2006-05-31 16:00,ZGGG 311600Z AUTO 00000KT 1 1/4SM 25/23 A2977 RMK T02500230 IEM_DS3505
ZGGG,2006-05-31 17:00,ZGGG 311700Z AUTO 08002KT 1SM 25/23 A2974 RMK T02500230 IEM_DS3505
ZGGG,2006-05-31 18:00,ZGGG 311800Z AUTO 16002KT 6SM 25/24 A2974 RMK 60008 SLP079 T02470235 57020 IEM_DS3505
ZGGG,2006-05-31 19:00,ZGGG 311900Z AUTO 00000KT 1SM 25/23 A2974 RMK T02500230 IEM_DS3505
ZGGG,2006-05-31 20:00,ZGGG 312000Z AUTO 00000KT 1SM 25/23 A2974 RMK T02500230 IEM_DS3505
ZGGG,2006-05-31 21:00,ZGGG 312100Z AUTO 07002KT 1 1/4SM 25/24 A2974 RMK 70063 SLP079 T02470237 54000 IEM_DS3505
ZGGG,2006-05-31 22:00,ZGGG 312200Z AUTO 00000KT 1 1/4SM 25/23 A2974 RMK T02500230 IEM_DS3505
ZGGG,2006-05-31 23:00,ZGGG 312300Z AUTO 00000KT 2SM 25/23 A2977 RMK T02500230 IEM_DS3505
ZGGG,2006-06-01 00:00,ZGGG 010000Z AUTO 09002KT 1 1/2SM 25/24 A2977 RMK 60000 70047 SLP088 T02540242 52009 IEM_DS3505
ZGGG,2006-06-01 01:00,ZGGG 010100Z AUTO 20006KT 1 1/2SM 27/24 A2977 RMK T02700240 IEM_DS3505
ZGGG,2006-06-01 02:00,ZGGG 010200Z AUTO 20008KT 2SM 28/25 A2977 RMK T02800250 IEM_DS3505
ZGGG,2006-06-01 03:00,ZGGG 010300Z AUTO 22004KT 7SM 28/24 A2977 RMK SLP090 T02830239 52002 IEM_DS3505
ZGGG,2006-06-01 04:00,ZGGG 010400Z AUTO 19008KT 3SM 29/24 A2974 RMK T02900240 IEM_DS3505
ZGGG,2006-06-01 05:00,ZGGG 010500Z AUTO 19010KT 4SM 30/24 A2974 RMK T03000240 IEM_DS3505
ZGGG,2006-06-01 06:00,ZGGG 010600Z AUTO 16004KT 7SM 29/24 A2971 RMK 60000 SLP070 T02910238 57020 IEM_DS3505
ZGGG,2006-06-01 07:00,ZGGG 010700Z AUTO 19010KT 5SM 28/24 A2971 RMK T02800240 IEM_DS3505
ZGGG,2006-06-01 08:00,ZGGG 010800Z AUTO 29004KT 1 1/2SM 27/24 A2971 RMK T02700240 IEM_DS3505
ZGGG,2006-06-01 09:00,ZGGG 010900Z AUTO 02002KT 2 1/2SM 27/25 A2971 RMK SLP069 T02680248 57001 IEM_DS3505
ZGGG,2006-06-01 10:00,ZGGG 011000Z AUTO 4SM 25/23 A2974 RMK T02500230 IEM_DS3505
ZGGG,2006-06-01 11:00,ZGGG 011100Z AUTO 2 1/2SM 25/23 A2974 RMK T02500230 IEM_DS3505
ZGGG,2006-06-01 12:00,ZGGG 011200Z AUTO 04002KT 2 1/2SM 26/24 A2974 RMK 60016 SLP077 T02580244 52008 IEM_DS3505
ZGGG,2006-06-01 13:00,ZGGG 011300Z AUTO 08004KT 4SM 25/23 A2977 RMK T02500230 IEM_DS3505
ZGGG,2006-06-01 14:00,ZGGG 011400Z AUTO 08004KT 4SM 25/23 A2977 RMK T02500230 IEM_DS3505
ZGGG,2006-06-01 15:00,ZGGG 011500Z AUTO 04002KT 2 1/2SM 26/24 A2980 RMK SLP094 T02550243 52017 IEM_DS3505
ZGGG,2006-06-01 16:00,ZGGG 011600Z AUTO 2 1/2SM 25/23 A2977 RMK T02500230 IEM_DS3505
ZGGG,2006-06-01 17:00,ZGGG 011700Z AUTO 2 1/2SM 25/23 A2977 RMK T02500230 IEM_DS3505
ZGGG,2006-06-01 18:00,ZGGG 011800Z AUTO 05002KT 2SM 25/24 A2974 RMK 60000 SLP082 T02530241 57012 IEM_DS3505
ZGGG,2006-06-01 19:00,ZGGG 011900Z AUTO 1SM 24/23 A2974 RMK T02400230 IEM_DS3505
ZGGG,2006-06-01 20:00,ZGGG 012000Z AUTO 3SM 25/23 A2974 RMK T02500230 IEM_DS3505
ZGGG,2006-06-01 21:00,ZGGG 012100Z AUTO 36002KT 3SM 25/24 RMK 70033 SLP084 T02490237 52002 IEM_DS3505
ZGGG,2006-06-01 22:00,ZGGG 012200Z AUTO 2SM 24/23 A2977 RMK T02400230 IEM_DS3505
ZGGG,2006-06-01 23:00,ZGGG 012300Z AUTO 09004KT 2SM 24/23 A2977 RMK T02400230 IEM_DS3505
ZGGG,2006-06-02 00:00,ZGGG 020000Z AUTO 04002KT 4SM 26/25 A2980 RMK 60020 70035 SLP095 T02570247 52011 IEM_DS3505
ZGGG,2006-06-02 01:00,ZGGG 020100Z AUTO 05004KT 3SM 26/24 A2980 RMK T02600240 IEM_DS3505
ZGGG,2006-06-02 02:00,ZGGG 020200Z AUTO 02006KT 3SM 27/24 A2977 RMK T02700240 IEM_DS3505
ZGGG,2006-06-02 03:00,ZGGG 020300Z AUTO 34002KT 5SM 26/24 A2977 RMK SLP095 T02600237 54000 IEM_DS3505
ZGGG,2006-06-02 04:00,ZGGG 020400Z AUTO 14010KT 4SM 24/22 A2980 RMK T02400220 IEM_DS3505
ZGGG,2006-06-02 05:00,ZGGG 020500Z AUTO 10004KT 5SM 25/23 A2977 RMK T02500230 IEM_DS3505
ZGGG,2006-06-02 06:00,ZGGG 020600Z AUTO 11004KT 4SM 26/24 A2977 RMK 60035 SLP083 T02580242 57012 IEM_DS3505
ZGGG,2006-06-02 07:00,ZGGG 020700Z AUTO 07004KT 3SM 26/24 A2974 RMK T02600240 IEM_DS3505
ZGGG,2006-06-02 08:00,ZGGG 020800Z AUTO 08006KT 2 1/2SM 27/24 A2974 RMK T02700240 IEM_DS3505
ZGGG,2006-06-02 09:00,ZGGG 020900Z AUTO 09002KT 5SM 28/24 A2974 RMK SLP073 T02770245 57010 IEM_DS3505
ZGGG,2006-06-02 10:00,ZGGG 021000Z AUTO 08004KT 2 1/2SM 27/24 A2974 RMK T02700240 IEM_DS3505
ZGGG,2006-06-02 11:00,ZGGG 021100Z AUTO 09004KT 2SM 27/24 A2974 RMK T02700240 IEM_DS3505
ZGGG,2006-06-02 12:00,ZGGG 021200Z AUTO 34002KT 3SM 26/24 A2977 RMK 60000 SLP088 T02630243 52015 IEM_DS3505
ZGGG,2006-06-02 13:00,ZGGG 021300Z AUTO 07004KT 2SM 25/24 A2977 RMK T02500240 IEM_DS3505
ZGGG,2006-06-02 14:00,ZGGG 021400Z AUTO 07002KT 2 1/2SM 25/23 A2977 RMK T02500230 IEM_DS3505
ZGGG,2006-06-02 15:00,ZGGG 021500Z AUTO 14002KT 4SM 26/24 A2980 RMK SLP093 T02580242 52005 IEM_DS3505
ZGGG,2006-06-02 16:00,ZGGG 021600Z AUTO 00000KT 1 1/4SM 25/24 A2977 RMK T02500240 IEM_DS3505
ZGGG,2006-06-02 17:00,ZGGG 021700Z AUTO 03002KT 1 1/4SM 25/23 A2974 RMK T02500230 IEM_DS3505
ZGGG,2006-06-02 18:00,ZGGG 021800Z AUTO 09002KT 3SM 26/24 A2974 RMK 60002 SLP080 T02560242 57013 IEM_DS3505
ZGGG,2006-06-02 20:00,ZGGG 022000Z AUTO 00000KT 1 1/2SM 25/23 A2974 RMK T02500230 IEM_DS3505
ZGGG,2006-06-02 21:00,ZGGG 022100Z AUTO 02002KT 2 1/2SM 26/24 A2974 RMK 70039 SLP079 T02550241 57001 IEM_DS3505
ZGGG,2006-06-02 22:00,ZGGG 022200Z AUTO 09002KT 1 1/2SM 25/23 A2974 RMK T02500230 IEM_DS3505
ZGGG,2006-06-02 23:00,ZGGG 022300Z AUTO 08002KT 1 1/2SM 26/24 A2977 RMK T02600240 IEM_DS3505
ZGGG,2006-06-03 00:00,ZGGG 030000Z AUTO 09002KT 1 1/4SM 26/25 A2977 RMK 60016 70053 SLP089 T02620250 52010 IEM_DS3505
ZGGG,2006-06-03 01:00,ZGGG 030100Z AUTO 09004KT 2 1/2SM 27/24 A2977 RMK T02700240 IEM_DS3505
ZGGG,2006-06-03 02:00,ZGGG 030200Z AUTO 08004KT 2 1/2SM 28/24 A2977 RMK T02800240 IEM_DS3505
ZGGG,2006-06-03 03:00,ZGGG 030300Z AUTO 14002KT 1 1/4SM 28/25 A2977 RMK SLP089 T02810251 54000 IEM_DS3505
ZGGG,2006-06-03 04:00,ZGGG 030400Z AUTO 09004KT 1 1/2SM 28/25 A2977 RMK T02800250 IEM_DS3505
ZGGG,2006-06-03 05:00,ZGGG 030500Z AUTO 08004KT 1 1/2SM 28/25 A2974 RMK T02800250 IEM_DS3505
ZGGG,2006-06-03 06:00,ZGGG 030600Z AUTO 09006KT 2SM 30/25 A2971 RMK 60000 SLP072 T02950250 57017 IEM_DS3505
ZGGG,2006-06-03 07:00,ZGGG 030700Z AUTO 10008KT 2 1/2SM 28/24 A2971 RMK T02800240 IEM_DS3505
ZGGG,2006-06-03 08:00,ZGGG 030800Z AUTO 09006KT 3SM 27/24 A2971 RMK T02700240 IEM_DS3505
ZGGG,2006-06-03 09:00,ZGGG 030900Z AUTO 20004KT 2 1/2SM 27/25 A2968 RMK SLP065 T02740250 57007 IEM_DS3505
ZGGG,2006-06-03 10:00,ZGGG 031000Z AUTO 12008KT 5SM 28/24 A2968 RMK T02800240 IEM_DS3505
ZGGG,2006-06-03 11:00,ZGGG 031100Z AUTO 5SM 27/24 A2971 RMK T02700240 IEM_DS3505
ZGGG,2006-06-03 12:00,ZGGG 031200Z AUTO 16004KT 2SM 27/25 A2974 RMK 60063 SLP075 T02680254 52010 IEM_DS3505
ZGGG,2006-06-03 13:00,ZGGG 031300Z AUTO 09004KT 2 1/2SM 26/24 A2974 RMK T02600240 IEM_DS3505
ZGGG,2006-06-03 14:00,ZGGG 031400Z AUTO 08002KT 2SM 26/24 A2974 RMK T02600240 IEM_DS3505
ZGGG,2006-06-03 15:00,ZGGG 031500Z AUTO 14002KT 2SM 26/25 A2974 RMK SLP080 T02640250 52005 IEM_DS3505
ZGGG,2006-06-03 16:00,ZGGG 031600Z AUTO 00000KT 2SM 26/24 A2974 RMK T02600240 IEM_DS3505
ZGGG,2006-06-03 17:00,ZGGG 031700Z AUTO 13002KT 2 1/2SM 26/25 A2971 RMK T02600250 IEM_DS3505
ZGGG,2006-06-03 18:00,ZGGG 031800Z AUTO 14002KT 1 1/2SM 26/25 A2971 RMK 60002 SLP068 T02630251 57012 IEM_DS3505
ZGGG,2006-06-03 19:00,ZGGG 031900Z AUTO 2SM 26/24 A2971 RMK T02600240 IEM_DS3505
ZGGG,2006-06-03 20:00,ZGGG 032000Z AUTO 12002KT 2SM 26/24 A2968 RMK T02600240 IEM_DS3505
ZGGG,2006-06-03 21:00,ZGGG 032100Z AUTO 11004KT 2SM 26/25 A2968 RMK 70080 SLP064 T02610247 57004 IEM_DS3505
ZGGG,2006-06-03 22:00,ZGGG 032200Z AUTO 11004KT 1 1/2SM 26/24 A2971 RMK T02600240 IEM_DS3505
ZGGG,2006-06-03 23:00,ZGGG 032300Z AUTO 00000KT 2 1/2SM 27/25 A2971 RMK T02700250 IEM_DS3505
ZGGG,2006-06-04 00:00,ZGGG 040000Z AUTO 11004KT 2SM 27/25 A2971 RMK 70064 SLP075 T02690247 52011 IEM_DS3505
ZGGG,2006-06-04 01:00,ZGGG 040100Z AUTO 15008KT 4SM 28/25 A2971 RMK T02800250 IEM_DS3505
ZGGG,2006-06-04 02:00,ZGGG 040200Z AUTO 17008KT 4SM 30/25 A2971 RMK T03000250 IEM_DS3505
ZGGG,2006-06-04 03:00,ZGGG 040300Z AUTO 16004KT 7SM 30/25 A2971 RMK SLP065 T03030254 57009 IEM_DS3505
ZGGG,2006-06-04 04:00,ZGGG 040400Z AUTO 17008KT 4SM 30/25 A2968 RMK T03000250 IEM_DS3505
ZGGG,2006-06-04 05:00,ZGGG 040500Z AUTO 17010KT 7SM 32/25 A2965 RMK T03200250 IEM_DS3505
ZGGG,2006-06-04 06:00,ZGGG 040600Z AUTO 18004G29KT 9SM 30/25 A2968 RMK 60012 SLP052 T02960247 57013 IEM_DS3505
ZGGG,2006-06-04 07:00,ZGGG 040700Z AUTO 30006KT 3SM 26/24 A2968 RMK T02600240 IEM_DS3505
ZGGG,2006-06-04 08:00,ZGGG 040800Z AUTO 07004KT 2 1/2SM 25/24 A2965 RMK T02500240 IEM_DS3505
ZGGG,2006-06-04 09:00,ZGGG 040900Z AUTO 14004KT 7SM 28/25 A2965 RMK SLP046 T02780248 57007 IEM_DS3505
ZGGG,2006-06-04 10:00,ZGGG 041000Z AUTO 09004KT 2SM 26/24 A2965 RMK T02600240 IEM_DS3505
ZGGG,2006-06-04 11:00,ZGGG 041100Z AUTO 07004KT 2SM 26/24 A2965 RMK T02600240 IEM_DS3505
ZGGG,2006-06-04 12:00,ZGGG 041200Z AUTO 14004KT 6SM 27/25 A2968 RMK 60000 SLP054 T02730251 52008 IEM_DS3505
ZGGG,2006-06-04 13:00,ZGGG 041300Z AUTO 2 1/2SM 26/25 A2968 RMK T02600250 IEM_DS3505
ZGGG,2006-06-04 14:00,ZGGG 041400Z AUTO 11002KT 2 1/2SM 26/25 A2968 RMK T02600250 IEM_DS3505
ZGGG,2006-06-04 15:00,ZGGG 041500Z AUTO 14002KT 7SM 27/25 A2968 RMK SLP063 T02710249 52010 IEM_DS3505
ZGGG,2006-06-04 16:00,ZGGG 041600Z AUTO 13002KT 3SM 27/25 A2968 RMK T02700250 IEM_DS3505
ZGGG,2006-06-04 17:00,ZGGG 041700Z AUTO 15004KT 4SM 27/25 A2968 RMK T02700250 IEM_DS3505
ZGGG,2006-06-04 18:00,ZGGG 041800Z AUTO 14004KT 7SM 27/25 A2968 RMK SLP056 T02680248 57007 IEM_DS3505
ZGGG,2006-06-04 19:00,ZGGG 041900Z AUTO 15004KT 4SM 27/24 A2965 RMK T02700240 IEM_DS3505
ZGGG,2006-06-04 20:00,ZGGG 042000Z AUTO 4SM 27/24 A2965 RMK T02700240 IEM_DS3505
ZGGG,2006-06-04 21:00,ZGGG 042100Z AUTO 14002KT 7SM 26/24 A2965 RMK 70012 SLP052 T02650245 57005 IEM_DS3505
ZGGG,2006-06-04 22:00,ZGGG 042200Z AUTO 16006KT 3SM 27/25 A2968 RMK T02700250 IEM_DS3505
ZGGG,2006-06-04 23:00,ZGGG 042300Z AUTO 19004KT 4SM 27/25 A2968 RMK T02700250 IEM_DS3505
ZGGG,2006-06-05 00:00,ZGGG 050000Z AUTO 20002KT 15SM 26/24 A2968 RMK 60031 70042 SLP064 T02610241 52012 IEM_DS3505
ZGGG,2006-06-05 01:00,ZGGG 050100Z AUTO 17004KT 5SM 28/24 A2971 RMK T02800240 IEM_DS3505
ZGGG,2006-06-05 02:00,ZGGG 050200Z AUTO 18006KT 4SM 28/25 A2971 RMK T02800250 IEM_DS3505
ZGGG,2006-06-05 03:00,ZGGG 050300Z AUTO 18002KT 2 1/2SM 28/26 A2968 RMK SLP061 T02790257 57003 IEM_DS3505
ZGGG,2006-06-05 04:00,ZGGG 050400Z AUTO 19008KT 4SM 30/26 A2968 RMK T03000260 IEM_DS3505
ZGGG,2006-06-05 05:00,ZGGG 050500Z AUTO 18008KT 4SM 31/25 A2965 RMK T03100250 IEM_DS3505
ZGGG,2006-06-05 06:00,ZGGG 050600Z AUTO 18004KT 14SM 32/25 A2962 RMK 60016 SLP041 T03210249 57019 IEM_DS3505
ZGGG,2006-06-05 07:00,ZGGG 050700Z AUTO 18010KT 7SM 32/25 A2962 RMK T03200250 IEM_DS3505
ZGGG,2006-06-05 08:00,ZGGG 050800Z AUTO 17010KT 7SM 32/24 A2959 RMK T03200240 IEM_DS3505
ZGGG,2006-06-05 09:00,ZGGG 050900Z AUTO 14004KT 13SM 31/25 A2956 RMK SLP025 T03060247 57016 IEM_DS3505
ZGGG,2006-06-05 10:00,ZGGG 051000Z AUTO 14008KT 7SM 31/25 A2959 RMK T03100250 IEM_DS3505
ZGGG,2006-06-05 11:00,ZGGG 051100Z AUTO 13006KT 7SM 30/25 A2959 RMK T03000250 IEM_DS3505
ZGGG,2006-06-05 12:00,ZGGG 051200Z AUTO 14004KT 11SM 29/24 A2962 RMK SLP044 T02890242 52019 IEM_DS3505
ZGGG,2006-06-05 13:00,ZGGG 051300Z AUTO 14004KT 7SM 29/25 A2965 RMK T02900250 IEM_DS3505
ZGGG,2006-06-05 14:00,ZGGG 051400Z AUTO 14004KT 7SM 29/25 A2965 RMK T02900250 IEM_DS3505
ZGGG,2006-06-05 15:00,ZGGG 051500Z AUTO 16002KT 11SM 28/25 A2968 RMK SLP056 T02790247 52012 IEM_DS3505
ZGGG,2006-06-05 16:00,ZGGG 051600Z AUTO 15004KT 5SM 28/24 A2965 RMK T02800240 IEM_DS3505
ZGGG,2006-06-05 17:00,ZGGG 051700Z AUTO 14004KT 4SM 28/25 A2965 RMK T02800250 IEM_DS3505
ZGGG,2006-06-05 18:00,ZGGG 051800Z AUTO 14002KT 8SM 27/25 A2965 RMK SLP044 T02740248 57012 IEM_DS3505
ZGGG,2006-06-05 19:00,ZGGG 051900Z AUTO 14004KT 4SM 28/25 A2965 RMK T02800250 IEM_DS3505
ZGGG,2006-06-05 20:00,ZGGG 052000Z AUTO 12002KT 4SM 27/25 A2962 RMK T02700250 IEM_DS3505
ZGGG,2006-06-05 21:00,ZGGG 052100Z AUTO 16004KT 8SM 28/25 A2962 RMK 70045 SLP040 T02750249 57004 IEM_DS3505
ZGGG,2006-06-05 22:00,ZGGG 052200Z AUTO 11002KT 2 1/2SM 27/25 A2965 RMK T02700250 IEM_DS3505
ZGGG,2006-06-05 23:00,ZGGG 052300Z AUTO 2 1/2SM 28/25 A2965 RMK T02800250 IEM_DS3505
ZGGG,2006-06-06 00:00,ZGGG 060000Z AUTO 16004KT 6SM 28/25 A2968 RMK 70015 SLP055 T02830253 52015 IEM_DS3505
ZGGG,2006-06-06 01:00,ZGGG 060100Z AUTO 22017G29KT 3/8SM 24/22 A2971 RMK T02400220 IEM_DS3505
ZGGG,2006-06-06 02:00,ZGGG 060200Z AUTO 4SM 24/23 A2968 RMK T02400230 IEM_DS3505
ZGGG,2006-06-06 03:00,ZGGG 060300Z AUTO 16002KT 7SM 25/24 A2968 RMK SLP061 T02500236 52005 IEM_DS3505
ZGGG,2006-06-06 04:00,ZGGG 060400Z AUTO 5SM 26/24 A2965 RMK T02600240 IEM_DS3505
ZGGG,2006-06-06 05:00,ZGGG 060500Z AUTO 18006KT 4SM 29/25 A2965 RMK T02900250 IEM_DS3505
ZGGG,2006-06-06 06:00,ZGGG 060600Z AUTO 16002KT 7SM 30/26 A2962 RMK 60028 SLP038 T02990256 57022 IEM_DS3505
ZGGG,2006-06-06 07:00,ZGGG 060700Z AUTO 19010KT 4SM 31/25 A2959 RMK T03100250 IEM_DS3505
ZGGG,2006-06-06 08:00,ZGGG 060800Z AUTO 17008KT 5SM 31/25 A2956 RMK T03100250 IEM_DS3505
ZGGG,2006-06-06 09:00,ZGGG 060900Z AUTO 18004KT 9SM 31/24 A2956 RMK SLP021 T03110245 57017 IEM_DS3505
ZGGG,2006-06-06 10:00,ZGGG 061000Z AUTO 16006KT 7SM 30/25 A2959 RMK T03000250 IEM_DS3505
ZGGG,2006-06-06 11:00,ZGGG 061100Z AUTO 14004KT 7SM 29/25 A2959 RMK T02900250 IEM_DS3505
ZGGG,2006-06-06 12:00,ZGGG 061200Z AUTO 18004KT 8SM 29/25 A2962 RMK SLP035 T02890251 52014 IEM_DS3505
ZGGG,2006-06-06 13:00,ZGGG 061300Z AUTO 16006KT 5SM 29/25 A2965 RMK T02900250 IEM_DS3505
ZGGG,2006-06-06 14:00,ZGGG 061400Z AUTO 14004KT 4SM 28/25 A2965 RMK T02800250 IEM_DS3505
ZGGG,2006-06-06 15:00,ZGGG 061500Z AUTO 16004KT 10SM 28/25 A2965 RMK SLP052 T02820250 52016 IEM_DS3505
ZGGG,2006-06-06 16:00,ZGGG 061600Z AUTO 4SM 28/25 A2965 RMK T02800250 IEM_DS3505
ZGGG,2006-06-06 17:00,ZGGG 061700Z AUTO 4SM 27/25 A2965 RMK T02700250 IEM_DS3505
ZGGG,2006-06-06 18:00,ZGGG 061800Z AUTO 14004KT 9SM 28/25 A2962 RMK SLP038 T02770251 57013 IEM_DS3505
ZGGG,2006-06-06 19:00,ZGGG 061900Z AUTO 16004KT 3SM 28/25 A2962 RMK T02800250 IEM_DS3505
ZGGG,2006-06-06 20:00,ZGGG 062000Z AUTO 3SM 28/25 A2962 RMK T02800250 IEM_DS3505
ZGGG,2006-06-06 21:00,ZGGG 062100Z AUTO 14004KT 7SM 27/25 A2962 RMK 70028 SLP035 T02740252 57003 IEM_DS3505
ZGGG,2006-06-06 22:00,ZGGG 062200Z AUTO 16002KT 2 1/2SM 28/25 A2962 RMK T02800250 IEM_DS3505
ZGGG,2006-06-06 23:00,ZGGG 062300Z AUTO 16002KT 2 1/2SM 28/25 A2965 RMK T02800250 IEM_DS3505
ZGGG,2006-06-07 00:00,ZGGG 070000Z AUTO 16004KT 4SM 28/25 A2965 RMK 60000 70028 SLP047 T02800254 52012 IEM_DS3505
ZGGG,2006-06-07 01:00,ZGGG 070100Z AUTO 16008KT 4SM 29/25 A2965 RMK T02900250 IEM_DS3505
ZGGG,2006-06-07 02:00,ZGGG 070200Z AUTO 18010KT 5SM 30/25 A2965 RMK T03000250 IEM_DS3505
ZGGG,2006-06-07 03:00,ZGGG 070300Z AUTO 18006KT 9SM 31/25 A2962 RMK SLP046 T03130249 57001 IEM_DS3505
ZGGG,2006-06-07 04:00,ZGGG 070400Z AUTO 20012KT 7SM 30/25 A2962 RMK T03000250 IEM_DS3505
ZGGG,2006-06-07 05:00,ZGGG 070500Z AUTO 4SM 28/25 A2962 RMK T02800250 IEM_DS3505
ZGGG,2006-06-07 06:00,ZGGG 070600Z AUTO 14004KT 7SM 30/25 A2959 RMK 60000 SLP032 T02960251 57014 IEM_DS3505
ZGGG,2006-06-07 07:00,ZGGG 070700Z AUTO 4SM 30/26 A2956 RMK T03000260 IEM_DS3505
ZGGG,2006-06-07 08:00,ZGGG 070800Z AUTO 15004KT 5SM 30/25 A2956 RMK T03000250 IEM_DS3505
ZGGG,2006-06-07 09:00,ZGGG 070900Z AUTO 14004KT 7SM 30/26 A2956 RMK SLP016 T03000255 57016 IEM_DS3505
ZGGG,2006-06-07 10:00,ZGGG 071000Z AUTO 14004KT 4SM 30/25 A2956 RMK T03000250 IEM_DS3505
ZGGG,2006-06-07 11:00,ZGGG 071100Z AUTO 15006KT 4SM 29/25 A2956 RMK T02900250 IEM_DS3505
ZGGG,2006-06-07 12:00,ZGGG 071200Z AUTO 14004KT 9SM 29/25 A2962 RMK SLP030 T02900252 52014 IEM_DS3505
ZGGG,2006-06-07 13:00,ZGGG 071300Z AUTO 05010G21KT 7SM 25/23 A2965 RMK T02500230 IEM_DS3505
ZGGG,2006-06-07 14:00,ZGGG 071400Z AUTO 07004KT 7SM 24/23 A2965 RMK T02400230 IEM_DS3505
ZGGG,2006-06-07 15:00,ZGGG 071500Z AUTO 09002KT 9SM 28/25 A2965 RMK SLP048 T02820254 52018 IEM_DS3505
ZGGG,2006-06-07 16:00,ZGGG 071600Z AUTO 1 1/2SM 25/24 A2965 RMK T02500240 IEM_DS3505
ZGGG,2006-06-07 17:00,ZGGG 071700Z AUTO 08004KT 4SM 25/23 A2962 RMK T02500230 IEM_DS3505
ZGGG,2006-06-07 18:00,ZGGG 071800Z AUTO 14004KT 7SM 28/25 A2959 RMK SLP028 T02800254 57020 IEM_DS3505
ZGGG,2006-06-07 19:00,ZGGG 071900Z AUTO 02002KT 3SM 25/24 A2959 RMK T02500240 IEM_DS3505
ZGGG,2006-06-07 20:00,ZGGG 072000Z AUTO 00000KT 2 1/2SM 25/24 A2956 RMK T02500240 IEM_DS3505
ZGGG,2006-06-07 21:00,ZGGG 072100Z AUTO 14004KT 7SM 28/25 A2956 RMK 70000 SLP022 T02780254 57006 IEM_DS3505
ZGGG,2006-06-07 22:00,ZGGG 072200Z AUTO 00000KT 1 1/4SM 26/24 A2959 RMK T02600240 IEM_DS3505
ZGGG,2006-06-07 23:00,ZGGG 072300Z AUTO 00000KT 1SM 26/25 A2959 RMK T02600250 IEM_DS3505
ZGGG,2006-06-08 00:00,ZGGG 080000Z AUTO 14002KT 4SM 27/26 A2959 RMK 60012 70010 SLP031 T02740258 52009 IEM_DS3505
ZGGG,2006-06-08 01:00,ZGGG 080100Z AUTO 18004KT 1 1/4SM 28/26 A2959 RMK T02800260 IEM_DS3505
ZGGG,2006-06-08 02:00,ZGGG 080200Z AUTO 19010KT 2 1/2SM 28/25 A2959 RMK T02800250 IEM_DS3505
ZGGG,2006-06-08 03:00,ZGGG 080300Z AUTO 22002KT 2SM 28/26 A2959 RMK SLP030 T02800260 57001 IEM_DS3505
ZGGG,2006-06-08 04:00,ZGGG 080400Z AUTO 21006KT 1 1/4SM 28/26 A2959 RMK T02800260 IEM_DS3505
ZGGG,2006-06-08 05:00,ZGGG 080500Z AUTO 22008KT 1 1/2SM 29/26 A2956 RMK T02900260 IEM_DS3505
ZGGG,2006-06-08 06:00,ZGGG 080600Z AUTO 25004KT 2SM 29/26 A2956 RMK 60035 SLP017 T02870259 57013 IEM_DS3505
ZGGG,2006-06-08 07:00,ZGGG 080700Z AUTO 25008KT 3SM 29/25 A2953 RMK T02900250 IEM_DS3505
ZGGG,2006-06-08 08:00,ZGGG 080800Z AUTO 29006KT 3SM 28/25 A2953 RMK T02800250 IEM_DS3505
ZGGG,2006-06-08 09:00,ZGGG 080900Z AUTO 32004KT 1 1/2SM 28/25 A2953 RMK SLP007 T02760252 57010 IEM_DS3505
ZGGG,2006-06-08 10:00,ZGGG 081000Z AUTO 28010KT 4SM 26/23 A2956 RMK T02600230 IEM_DS3505
ZGGG,2006-06-08 11:00,ZGGG 081100Z AUTO 30008KT 1 1/4SM 25/23 A2956 RMK T02500230 IEM_DS3505
ZGGG,2006-06-08 12:00,ZGGG 081200Z AUTO 04002KT 6SM 25/24 A2959 RMK 60024 SLP024 T02520236 52016 IEM_DS3505
ZGGG,2006-06-08 13:00,ZGGG 081300Z AUTO 5SM 25/23 A2959 RMK T02500230 IEM_DS3505
ZGGG,2006-06-08 14:00,ZGGG 081400Z AUTO 00000KT 4SM 25/23 A2959 RMK T02500230 IEM_DS3505
ZGGG,2006-06-08 15:00,ZGGG 081500Z AUTO 07002KT 7SM 25/24 RMK SLP032 T02510239 52008 IEM_DS3505
ZGGG,2006-06-08 16:00,ZGGG 081600Z AUTO 02002KT 1 1/2SM 25/23 A2959 RMK T02500230 IEM_DS3505
ZGGG,2006-06-08 17:00,ZGGG 081700Z AUTO 02002KT 2 1/2SM 24/23 A2956 RMK T02400230 IEM_DS3505
ZGGG,2006-06-08 18:00,ZGGG 081800Z AUTO 34002KT 6SM 25/24 A2956 RMK 60000 SLP012 T02510239 57019 IEM_DS3505
ZGGG,2006-06-08 19:00,ZGGG 081900Z AUTO 00000KT 2 1/2SM 24/23 A2953 RMK T02400230 IEM_DS3505
ZGGG,2006-06-08 20:00,ZGGG 082000Z AUTO 00000KT 2 1/2SM 24/23 A2953 RMK T02400230 IEM_DS3505
ZGGG,2006-06-08 21:00,ZGGG 082100Z AUTO 36002KT 1 1/4SM 25/23 A2950 RMK 70121 SLP002 T02460234 57011 IEM_DS3505
ZGGG,2006-06-08 22:00,ZGGG 082200Z AUTO 00000KT 1 1/2SM 25/23 A2953 RMK T02500230 IEM_DS3505
ZGGG,2006-06-08 23:00,ZGGG 082300Z AUTO 1 1/4SM 25/23 A2953 RMK T02500230 IEM_DS3505
ZGGG,2006-06-09 00:00,ZGGG 090000Z AUTO 16002KT 1 1/4SM 25/24 A2956 RMK 60067 70122 SLP022 T02470235 52020 IEM_DS3505
ZGGG,2006-06-09 01:00,ZGGG 090100Z AUTO 10004KT 1 1/4SM 25/23 A2959 RMK T02500230 IEM_DS3505
ZGGG,2006-06-09 02:00,ZGGG 090200Z AUTO 3SM 26/23 A2959 RMK T02600230 IEM_DS3505
ZGGG,2006-06-09 03:00,ZGGG 090300Z AUTO 27002KT 1 1/4SM 25/24 A2956 RMK SLP023 T02540240 52001 IEM_DS3505
ZGGG,2006-06-09 04:00,ZGGG 090400Z AUTO 00000KT 2 1/2SM 25/24 A2956 RMK T02500240 IEM_DS3505
ZGGG,2006-06-09 05:00,ZGGG 090500Z AUTO 16002KT 2 1/2SM 25/23 A2956 RMK T02500230 IEM_DS3505
ZGGG,2006-06-09 06:00,ZGGG 090600Z AUTO 00000KT 1 1/4SM 25/24 A2953 RMK 60102 SLP010 T02490235 57013 IEM_DS3505
ZGGG,2006-06-09 07:00,ZGGG 090700Z AUTO 00000KT 1 1/4SM 25/24 A2950 RMK T02500240 IEM_DS3505
ZGGG,2006-06-09 08:00,ZGGG 090800Z AUTO 17004KT 1SM 25/23 A2950 RMK T02500230 IEM_DS3505
ZGGG,2006-06-09 08:30,ZGGG 090830Z AUTO 00000KT 1 1/2SM 25/24 A2950 RMK T02500240 IEM_DS3505
ZGGG,2006-06-09 09:00,ZGGG 090900Z AUTO 09002KT 1 1/4SM 25/24 A2950 RMK SLP999 T02470235 57011 IEM_DS3505
ZGGG,2006-06-09 10:00,ZGGG 091000Z AUTO 1 1/2SM 24/23 A2950 RMK T02400230 IEM_DS3505
ZGGG,2006-06-09 11:00,ZGGG 091100Z AUTO 34004KT 4SM 24/22 A2953 RMK T02400220 IEM_DS3505
ZGGG,2006-06-09 12:00,ZGGG 091200Z AUTO 34002KT 1 1/4SM 24/24 A2956 RMK 60122 SLP013 T02450235 52014 IEM_DS3505
ZGGG,2006-06-09 13:00,ZGGG 091300Z AUTO 01008KT 4SM 23/20 A2956 RMK T02300200 IEM_DS3505
ZGGG,2006-06-09 14:00,ZGGG 091400Z AUTO 32006KT 4SM 23/19 A2962 RMK T02300190 IEM_DS3505
ZGGG,2006-06-09 15:00,ZGGG 091500Z AUTO 36004KT 7SM 22/20 A2962 RMK SLP037 T02210204 52024 IEM_DS3505
ZGGG,2006-06-09 16:00,ZGGG 091600Z AUTO 07004KT 5SM 22/19 A2959 RMK T02200190 IEM_DS3505
ZGGG,2006-06-09 17:00,ZGGG 091700Z AUTO 3SM 22/19 A2956 RMK T02200190 IEM_DS3505
ZGGG,2006-06-09 18:00,ZGGG 091800Z AUTO 27002KT 9SM 22/20 A2956 RMK 60012 SLP019 T02150200 57018 IEM_DS3505
ZGGG,2006-06-09 19:00,ZGGG 091900Z AUTO 30004KT 3SM 22/20 A2956 RMK T02200200 IEM_DS3505
ZGGG,2006-06-09 20:00,ZGGG 092000Z AUTO 00000KT 3SM 22/20 A2956 RMK T02200200 IEM_DS3505
ZGGG,2006-06-09 21:00,ZGGG 092100Z AUTO 34002KT 7SM 22/20 A2959 RMK 70245 SLP024 T02150198 52005 IEM_DS3505
ZGGG,2006-06-09 22:00,ZGGG 092200Z AUTO 00000KT 2 1/2SM 22/20 A2959 RMK T02200200 IEM_DS3505
ZGGG,2006-06-09 23:00,ZGGG 092300Z AUTO 00000KT 2 1/2SM 23/20 A2962 RMK T02300200 IEM_DS3505
ZGGG,2006-06-10 00:00,ZGGG 100000Z AUTO 00000KT 8SM 24/20 A2965 RMK 70234 SLP048 T02440201 52024 IEM_DS3505
ZGGG,2006-06-10 01:00,ZGGG 100100Z AUTO 35004KT 4SM 26/20 A2965 RMK T02600200 IEM_DS3505
ZGGG,2006-06-10 02:00,ZGGG 100200Z AUTO 32004KT 4SM 27/19 A2965 RMK T02700190 IEM_DS3505
ZGGG,2006-06-10 03:00,ZGGG 100300Z AUTO 34002KT 7SM 28/20 A2965 RMK SLP047 T02830201 57001 IEM_DS3505
ZGGG,2006-06-10 04:00,ZGGG 100400Z AUTO 5SM 28/19 A2965 RMK T02800190 IEM_DS3505
ZGGG,2006-06-10 05:00,ZGGG 100500Z AUTO 4SM 28/18 A2962 RMK T02800180 IEM_DS3505
ZGGG,2006-06-10 06:00,ZGGG 100600Z AUTO 27002KT 6SM 29/18 A2962 RMK SLP034 T02860181 57013 IEM_DS3505
ZGGG,2006-06-10 07:00,ZGGG 100700Z AUTO 22004KT 4SM 28/19 A2959 RMK T02800190 IEM_DS3505
ZGGG,2006-06-10 08:00,ZGGG 100800Z AUTO 21004KT 3SM 28/19 A2959 RMK T02800190 IEM_DS3505
ZGGG,2006-06-10 09:00,ZGGG 100900Z AUTO 07002KT 6SM 29/20 A2959 RMK SLP031 T02860198 57003 IEM_DS3505
ZGGG,2006-06-10 10:00,ZGGG 101000Z AUTO 16002KT 4SM 28/20 A2962 RMK T02800200 IEM_DS3505
ZGGG,2006-06-10 11:00,ZGGG 101100Z AUTO 2 1/2SM 27/21 A2965 RMK T02700210 IEM_DS3505
ZGGG,2006-06-10 12:00,ZGGG 101200Z AUTO 16004KT 5SM 26/22 A2968 RMK SLP056 T02590218 52025 IEM_DS3505
ZGGG,2006-06-10 13:00,ZGGG 101300Z AUTO 1 1/2SM 26/22 A2968 RMK T02600220 IEM_DS3505
ZGGG,2006-06-10 14:00,ZGGG 101400Z AUTO 15002KT 1 1/4SM 25/21 A2971 RMK T02500210 IEM_DS3505
ZGGG,2006-06-10 15:00,ZGGG 101500Z AUTO 16002KT 5SM 24/22 A2971 RMK SLP070 T02380215 52014 IEM_DS3505
ZGGG,2006-06-10 16:00,ZGGG 101600Z AUTO 07002KT 1 1/4SM 23/21 A2971 RMK T02300210 IEM_DS3505
ZGGG,2006-06-10 17:00,ZGGG 101700Z AUTO 00000KT 1SM 23/21 A2971 RMK T02300210 IEM_DS3505
ZGGG,2006-06-10 18:00,ZGGG 101800Z AUTO 00000KT 3SM 23/22 A2971 RMK SLP067 T02310215 57003 IEM_DS3505
ZGGG,2006-06-10 19:00,ZGGG 101900Z AUTO 05002KT 1SM 22/21 A2971 RMK T02200210 IEM_DS3505
ZGGG,2006-06-10 20:00,ZGGG 102000Z AUTO 06002KT 1SM 22/21 A2971 RMK T02200210 IEM_DS3505
ZGGG,2006-06-10 21:00,ZGGG 102100Z AUTO 12002KT 1 1/4SM 22/21 A2971 RMK SLP066 T02230211 57001 IEM_DS3505
ZGGG,2006-06-10 22:00,ZGGG 102200Z AUTO 05002KT 1SM 23/21 A2971 RMK T02300210 IEM_DS3505
ZGGG,2006-06-10 23:00,ZGGG 102300Z AUTO 3/8SM 23/22 A2968 RMK T02300220 IEM_DS3505
ZGGG,2006-06-11 00:00,ZGGG 110000Z AUTO 02002KT 1 1/4SM 24/21 A2971 RMK SLP067 T02440213 52001 IEM_DS3505
ZGGG,2006-06-11 01:00,ZGGG 110100Z AUTO 00000KT 1 1/4SM 26/22 A2971 RMK T02600220 IEM_DS3505
ZGGG,2006-06-11 02:00,ZGGG 110200Z AUTO 36004KT 2SM 27/21 A2971 RMK T02700210 IEM_DS3505
ZGGG,2006-06-11 03:00,ZGGG 110300Z AUTO 14002KT 4SM 29/20 A2971 RMK SLP073 T02910203 52006 IEM_DS3505
ZGGG,2006-06-11 04:00,ZGGG 110400Z AUTO 2 1/2SM 30/20 A2971 RMK T03000200 IEM_DS3505
ZGGG,2006-06-11 05:00,ZGGG 110500Z AUTO 3SM 30/20 A2971 RMK T03000200 IEM_DS3505
ZGGG,2006-06-11 06:00,ZGGG 110600Z AUTO 14004KT 6SM 31/20 A2968 RMK SLP058 T03080204 57015 IEM_DS3505
ZGGG,2006-06-11 07:00,ZGGG 110700Z AUTO 3SM 31/21 A2968 RMK T03100210 IEM_DS3505
ZGGG,2006-06-11 08:00,ZGGG 110800Z AUTO 10006KT 5SM 31/20 A2965 RMK T03100200 IEM_DS3505
ZGGG,2006-06-11 09:00,ZGGG 110900Z AUTO 14004KT 7SM 30/21 A2965 RMK SLP052 T02990207 57006 IEM_DS3505
ZGGG,2006-06-11 10:00,ZGGG 111000Z AUTO 11006KT 6SM 30/19 A2968 RMK T03000190 IEM_DS3505
ZGGG,2006-06-11 11:00,ZGGG 111100Z AUTO 12006KT 5SM 28/20 A2968 RMK T02800200 IEM_DS3505
ZGGG,2006-06-11 12:00,ZGGG 111200Z AUTO 14004KT 9SM 26/22 A2971 RMK SLP068 T02640225 52016 IEM_DS3505
ZGGG,2006-06-11 13:00,ZGGG 111300Z AUTO 11004KT 4SM 26/22 A2971 RMK T02600220 IEM_DS3505
ZGGG,2006-06-11 14:00,ZGGG 111400Z AUTO 10004KT 6SM 26/20 A2974 RMK T02600200 IEM_DS3505
ZGGG,2006-06-11 15:00,ZGGG 111500Z AUTO 09004KT 8SM 25/20 A2977 RMK SLP085 T02470195 52017 IEM_DS3505
ZGGG,2006-06-11 16:00,ZGGG 111600Z AUTO 6SM 25/20 A2974 RMK T02500200 IEM_DS3505
ZGGG,2006-06-11 17:00,ZGGG 111700Z AUTO 3SM 24/21 A2974 RMK T02400210 IEM_DS3505
ZGGG,2006-06-11 18:00,ZGGG 111800Z AUTO 11004KT 7SM 24/18 A2971 RMK 60000 SLP074 T02350184 57011 IEM_DS3505
ZGGG,2006-06-11 19:00,ZGGG 111900Z AUTO 13004KT 4SM 24/19 A2971 RMK T02400190 IEM_DS3505
ZGGG,2006-06-11 20:00,ZGGG 112000Z AUTO 04004KT 3SM 22/20 A2971 RMK T02200200 IEM_DS3505
ZGGG,2006-06-11 21:00,ZGGG 112100Z AUTO 07002KT 7SM 23/19 A2971 RMK 70000 SLP070 T02270189 57004 IEM_DS3505
ZGGG,2006-06-11 22:00,ZGGG 112200Z AUTO 03004KT 2 1/2SM 21/19 A2974 RMK T02100190 IEM_DS3505
ZGGG,2006-06-11 23:00,ZGGG 112300Z AUTO 04004KT 4SM 22/19 A2974 RMK T02200190 IEM_DS3505
ZGGG,2006-06-12 00:00,ZGGG 120000Z AUTO 02002KT 9SM 24/19 A2974 RMK 60000 70000 SLP073 T02400191 52003 IEM_DS3505
ZGGG,2006-06-12 01:00,ZGGG 120100Z AUTO 04004KT 5SM 24/20 A2974 RMK T02400200 IEM_DS3505
ZGGG,2006-06-12 02:00,ZGGG 120200Z AUTO 04004KT 7SM 25/19 A2974 RMK T02500190 IEM_DS3505
ZGGG,2006-06-12 03:00,ZGGG 120300Z AUTO 18002KT 5SM 24/21 A2974 RMK SLP079 T02370210 52006 IEM_DS3505
ZGGG,2006-06-12 04:00,ZGGG 120400Z AUTO 14004KT 7SM 27/20 A2971 RMK T02700200 IEM_DS3505
ZGGG,2006-06-12 05:00,ZGGG 120500Z AUTO 16006KT 2 1/2SM 25/22 A2971 RMK T02500220 IEM_DS3505
ZGGG,2006-06-12 06:00,ZGGG 120600Z AUTO 04002KT 4SM 24/22 A2971 RMK 60012 SLP071 T02400217 57008 IEM_DS3505
ZGGG,2006-06-12 07:00,ZGGG 120700Z AUTO 10004KT 3SM 25/22 A2971 RMK T02500220 IEM_DS3505
ZGGG,2006-06-12 08:00,ZGGG 120800Z AUTO 09004KT 2SM 24/22 A2971 RMK T02400220 IEM_DS3505
ZGGG,2006-06-12 09:00,ZGGG 120900Z AUTO 04002KT 4SM 24/22 A2968 RMK SLP064 T02380221 57007 IEM_DS3505
ZGGG,2006-06-12 10:00,ZGGG 121000Z AUTO 09004KT 3SM 24/22 A2971 RMK T02400220 IEM_DS3505
ZGGG,2006-06-12 11:00,ZGGG 121100Z AUTO 09004KT 4SM 24/21 A2971 RMK T02400210 IEM_DS3505
ZGGG,2006-06-12 12:00,ZGGG 121200Z AUTO 11004KT 3SM 24/22 A2971 RMK 60001 SLP076 T02370220 52012 IEM_DS3505
ZGGG,2006-06-12 13:00,ZGGG 121300Z AUTO 4SM 24/22 A2974 RMK T02400220 IEM_DS3505
ZGGG,2006-06-12 14:00,ZGGG 121400Z AUTO 3SM 24/21 A2974 RMK T02400210 IEM_DS3505
ZGGG,2006-06-12 15:00,ZGGG 121500Z AUTO 11002KT 7SM 24/22 A2974 RMK SLP083 T02360220 52007 IEM_DS3505
ZGGG,2006-06-12 16:00,ZGGG 121600Z AUTO 3SM 24/22 A2974 RMK T02400220 IEM_DS3505
ZGGG,2006-06-12 17:00,ZGGG 121700Z AUTO 2 1/2SM 24/22 A2974 RMK T02400220 IEM_DS3505
ZGGG,2006-06-12 18:00,ZGGG 121800Z AUTO 11002KT 7SM 24/22 A2971 RMK 60000 SLP072 T02360219 57011 IEM_DS3505
ZGGG,2006-06-12 19:00,ZGGG 121900Z AUTO 00000KT 2 1/2SM 24/22 A2971 RMK T02400220 IEM_DS3505
ZGGG,2006-06-12 20:00,ZGGG 122000Z AUTO 2 1/2SM 24/22 A2968 RMK T02400220 IEM_DS3505
ZGGG,2006-06-12 21:00,ZGGG 122100Z AUTO 07002KT 3SM 24/22 A2971 RMK 70013 SLP070 T02380221 57002 IEM_DS3505
ZGGG,2006-06-12 22:00,ZGGG 122200Z AUTO 2SM 24/22 A2971 RMK T02400220 IEM_DS3505
ZGGG,2006-06-12 23:00,ZGGG 122300Z AUTO 06004KT 2 1/2SM 25/22 A2971 RMK T02500220 IEM_DS3505
ZGGG,2006-06-13 00:00,ZGGG 130000Z AUTO 09004KT 2SM 25/23 A2974 RMK 60000 70013 SLP076 T02490230 52006 IEM_DS3505
ZGGG,2006-06-13 01:00,ZGGG 130100Z AUTO 09004KT 2 1/2SM 27/23 A2974 RMK T02700230 IEM_DS3505
ZGGG,2006-06-13 02:00,ZGGG 130200Z AUTO 08002KT 2 1/2SM 27/23 A2974 RMK T02700230 IEM_DS3505
ZGGG,2006-06-13 03:00,ZGGG 130300Z AUTO 11004KT 1 1/4SM 28/24 A2974 RMK SLP075 T02820244 57001 IEM_DS3505
ZGGG,2006-06-13 04:00,ZGGG 130400Z AUTO 18006KT 3SM 31/25 A2971 RMK T03100250 IEM_DS3505
ZGGG,2006-06-13 05:00,ZGGG 130500Z AUTO 16006KT 3SM 31/25 A2968 RMK T03100250 IEM_DS3505
ZGGG,2006-06-13 06:00,ZGGG 130600Z AUTO 14004KT 7SM 31/24 A2965 RMK SLP052 T03090245 57023 IEM_DS3505
ZGGG,2006-06-13 07:00,ZGGG 130700Z AUTO 16004KT 3SM 29/26 A2965 RMK T02900260 IEM_DS3505
ZGGG,2006-06-13 08:00,ZGGG 130800Z AUTO 15008KT 3SM 25/23 A2968 RMK T02500230 IEM_DS3505
ZGGG,2006-06-13 09:00,ZGGG 130900Z AUTO 07002KT 5SM 24/23 A2968 RMK SLP059 T02430229 52007 IEM_DS3505
ZGGG,2006-06-13 10:00,ZGGG 131000Z AUTO 04004KT 3SM 25/23 A2968 RMK T02500230 IEM_DS3505
ZGGG,2006-06-13 11:00,ZGGG 131100Z AUTO 06004KT 3SM 24/23 A2968 RMK T02400230 IEM_DS3505
ZGGG,2006-06-13 12:00,ZGGG 131200Z AUTO 16002KT 7SM 25/24 A2968 RMK 60098 SLP060 T02500238 52001 IEM_DS3505
ZGGG,2006-06-13 13:00,ZGGG 131300Z AUTO 06004KT 3SM 25/23 A2971 RMK T02500230 IEM_DS3505
ZGGG,2006-06-13 14:00,ZGGG 131400Z AUTO 2 1/2SM 25/23 A2971 RMK T02500230 IEM_DS3505
ZGGG,2006-06-13 15:00,ZGGG 131500Z AUTO 14004KT 4SM 26/25 A2971 RMK SLP076 T02640252 52016 IEM_DS3505
ZGGG,2006-06-13 16:00,ZGGG 131600Z AUTO 00000KT 2 1/2SM 25/23 A2971 RMK T02500230 IEM_DS3505
ZGGG,2006-06-13 17:00,ZGGG 131700Z AUTO 2 1/2SM 26/24 A2968 RMK T02600240 IEM_DS3505
ZGGG,2006-06-13 18:00,ZGGG 131800Z AUTO 11002KT 2 1/2SM 26/25 A2968 RMK SLP061 T02640252 57014 IEM_DS3505
ZGGG,2006-06-13 19:00,ZGGG 131900Z AUTO 18004KT 2 1/2SM 27/25 A2971 RMK T02700250 IEM_DS3505
ZGGG,2006-06-13 20:00,ZGGG 132000Z AUTO 16004KT 2 1/2SM 27/24 A2968 RMK T02700240 IEM_DS3505
ZGGG,2006-06-13 21:00,ZGGG 132100Z AUTO 14002KT 3SM 26/25 A2968 RMK 70100 SLP063 T02610249 52001 IEM_DS3505
ZGGG,2006-06-13 22:00,ZGGG 132200Z AUTO 2 1/2SM 27/24 A2971 RMK T02700240 IEM_DS3505
ZGGG,2006-06-13 23:00,ZGGG 132300Z AUTO 16004KT 3SM 27/25 A2971 RMK T02700250 IEM_DS3505
ZGGG,2006-06-14 00:00,ZGGG 140000Z AUTO 14002KT 5SM 27/25 A2971 RMK 70100 SLP071 T02740252 52008 IEM_DS3505
ZGGG,2006-06-14 01:00,ZGGG 140100Z AUTO 16006KT 3SM 28/25 A2971 RMK T02800250 IEM_DS3505
ZGGG,2006-06-14 02:00,ZGGG 140200Z AUTO 15004KT 4SM 29/25 A2971 RMK T02900250 IEM_DS3505
ZGGG,2006-06-14 03:00,ZGGG 140300Z AUTO 16002KT 11SM 30/25 A2971 RMK SLP068 T02950250 57003 IEM_DS3505
ZGGG,2006-06-14 04:00,ZGGG 140400Z AUTO 16004KT 4SM 30/25 A2971 RMK T03000250 IEM_DS3505
ZGGG,2006-06-14 05:00,ZGGG 140500Z AUTO 17006KT 4SM 31/25 A2968 RMK T03100250 IEM_DS3505
ZGGG,2006-06-14 06:00,ZGGG 140600Z AUTO 11002KT 13SM 27/25 A2968 RMK 60067 SLP058 T02690249 57010 IEM_DS3505
ZGGG,2006-06-14 07:00,ZGGG 140700Z AUTO 14006KT 6SM 30/25 A2965 RMK T03000250 IEM_DS3505
ZGGG,2006-06-14 08:00,ZGGG 140800Z AUTO 15006KT 5SM 30/25 A2965 RMK T03000250 IEM_DS3505
ZGGG,2006-06-14 09:00,ZGGG 140900Z AUTO 16002KT 11SM 30/25 A2965 RMK SLP042 T02950253 57015 IEM_DS3505
ZGGG,2006-06-14 10:00,ZGGG 141000Z AUTO 27014KT 1SM 25/22 A2968 RMK T02500220 IEM_DS3505
ZGGG,2006-06-14 11:00,ZGGG 141100Z AUTO 2 1/2SM 23/22 A2971 RMK T02300220 IEM_DS3505
ZGGG,2006-06-14 12:00,ZGGG 141200Z AUTO 18002KT 7SM 24/23 A2971 RMK 60114 SLP070 T02410227 52027 IEM_DS3505
ZGGG,2006-06-14 13:00,ZGGG 141300Z AUTO 4SM 24/23 A2968 RMK T02400230 IEM_DS3505
ZGGG,2006-06-14 14:00,ZGGG 141400Z AUTO 3SM 24/23 A2971 RMK T02400230 IEM_DS3505
ZGGG,2006-06-14 15:00,ZGGG 141500Z AUTO 14002KT 8SM 24/23 A2971 RMK SLP069 T02430231 57001 IEM_DS3505
ZGGG,2006-06-14 16:00,ZGGG 141600Z AUTO 02002KT 2 1/2SM 24/23 A2971 RMK T02400230 IEM_DS3505
ZGGG,2006-06-14 17:00,ZGGG 141700Z AUTO 02002KT 2 1/2SM 24/23 A2968 RMK T02400230 IEM_DS3505
ZGGG,2006-06-14 18:00,ZGGG 141800Z AUTO 00000KT 8SM 24/23 A2968 RMK 60004 SLP058 T02440232 57011 IEM_DS3505
ZGGG,2006-06-14 19:00,ZGGG 141900Z AUTO 2SM 24/23 A2968 RMK T02400230 IEM_DS3505
ZGGG,2006-06-14 20:00,ZGGG 142000Z AUTO 2SM 24/23 A2968 RMK T02400230 IEM_DS3505
ZGGG,2006-06-14 21:00,ZGGG 142100Z AUTO 07002KT 4SM 24/23 A2968 RMK 70189 SLP060 T02450233 52002 IEM_DS3505
ZGGG,2006-06-14 22:00,ZGGG 142200Z AUTO 00000KT 2SM 24/23 A2968 RMK T02400230 IEM_DS3505
ZGGG,2006-06-14 23:00,ZGGG 142300Z AUTO 1 1/2SM 25/23 A2968 RMK T02500230 IEM_DS3505
ZGGG,2006-06-15 00:00,ZGGG 150000Z AUTO 02002KT 2SM 25/24 A2971 RMK 60000 70189 SLP065 T02510239 52005 IEM_DS3505
ZGGG,2006-06-15 01:00,ZGGG 150100Z AUTO 1 1/2SM 25/23 A2971 RMK T02500230 IEM_DS3505
ZGGG,2006-06-15 02:00,ZGGG 150200Z AUTO 1 1/4SM 26/23 A2971 RMK T02600230 IEM_DS3505
ZGGG,2006-06-15 03:00,ZGGG 150300Z AUTO 22002KT 6SM 30/24 A2971 RMK SLP060 T02980242 57005 IEM_DS3505
ZGGG,2006-06-15 04:00,ZGGG 150400Z AUTO 34004KT 2SM 26/24 A2968 RMK T02600240 IEM_DS3505
ZGGG,2006-06-15 05:00,ZGGG 150500Z AUTO 01004KT 2SM 28/25 A2965 RMK T02800250 IEM_DS3505
ZGGG,2006-06-15 06:00,ZGGG 150600Z AUTO 18002KT 2SM 27/24 A2965 RMK 60000 SLP047 T02680239 57013 IEM_DS3505
ZGGG,2006-06-15 07:00,ZGGG 150700Z AUTO 09008KT 1 1/2SM 27/24 A2965 RMK T02700240 IEM_DS3505
ZGGG,2006-06-15 08:00,ZGGG 150800Z AUTO 14004KT 3SM 27/25 A2965 RMK T02700250 IEM_DS3505
ZGGG,2006-06-15 09:00,ZGGG 150900Z AUTO 16002KT 10SM 26/24 A2962 RMK SLP040 T02580242 57007 IEM_DS3505
ZGGG,2006-06-15 10:00,ZGGG 151000Z AUTO 11004KT 3SM 27/24 A2965 RMK T02700240 IEM_DS3505
ZGGG,2006-06-15 11:00,ZGGG 151100Z AUTO 06004KT 1 1/2SM 26/24 A2965 RMK T02600240 IEM_DS3505
ZGGG,2006-06-15 12:00,ZGGG 151200Z AUTO 11002KT 2SM 26/25 A2968 RMK 60047 SLP053 T02620248 52013 IEM_DS3505
ZGGG,2006-06-15 13:00,ZGGG 151300Z AUTO 06004KT 2 1/2SM 26/24 A2968 RMK T02600240 IEM_DS3505
ZGGG,2006-06-15 14:00,ZGGG 151400Z AUTO 05004KT 2SM 26/24 A2968 RMK T02600240 IEM_DS3505
ZGGG,2006-06-15 15:00,ZGGG 151500Z AUTO 16002KT 1 1/4SM 26/24 A2968 RMK SLP061 T02590245 52008 IEM_DS3505
ZGGG,2006-06-15 16:00,ZGGG 151600Z AUTO 2SM 26/24 A2968 RMK T02600240 IEM_DS3505
ZGGG,2006-06-15 17:00,ZGGG 151700Z AUTO 00000KT 2SM 26/24 A2968 RMK T02600240 IEM_DS3505
ZGGG,2006-06-15 18:00,ZGGG 151800Z AUTO 00000KT 1 1/4SM 26/25 A2968 RMK SLP056 T02600248 57005 IEM_DS3505
ZGGG,2006-06-15 19:00,ZGGG 151900Z AUTO 1 1/2SM 26/24 A2965 RMK T02600240 IEM_DS3505
ZGGG,2006-06-15 20:00,ZGGG 152000Z AUTO 00000KT 1 1/4SM 26/24 A2968 RMK T02600240 IEM_DS3505
ZGGG,2006-06-15 21:00,ZGGG 152100Z AUTO 25002KT 1 1/4SM 26/25 A2965 RMK 70047 SLP054 T02650253 57002 IEM_DS3505
ZGGG,2006-06-15 22:00,ZGGG 152200Z AUTO 00000KT 1 1/4SM 26/24 A2968 RMK T02600240 IEM_DS3505
ZGGG,2006-06-15 23:00,ZGGG 152300Z AUTO 00000KT 1SM 26/25 A2968 RMK T02600250 IEM_DS3505
ZGGG,2006-06-16 00:00,ZGGG 160000Z AUTO 14002KT 2SM 27/25 A2971 RMK 60000 70046 SLP069 T02740252 52015 IEM_DS3505
ZGGG,2006-06-16 01:00,ZGGG 160100Z AUTO 15004KT 2 1/2SM 29/25 A2971 RMK T02900250 IEM_DS3505
ZGGG,2006-06-16 02:00,ZGGG 160200Z AUTO 17004KT 3SM 29/25 A2971 RMK T02900250 IEM_DS3505
ZGGG,2006-06-16 03:00,ZGGG 160300Z AUTO 14004KT 3SM 29/26 A2971 RMK SLP071 T02940258 52002 IEM_DS3505
ZGGG,2006-06-16 04:00,ZGGG 160400Z AUTO 20006KT 4SM 32/26 A2968 RMK T03200260 IEM_DS3505
ZGGG,2006-06-16 05:00,ZGGG 160500Z AUTO 21008KT 4SM 32/26 A2968 RMK T03200260 IEM_DS3505
ZGGG,2006-06-16 06:00,ZGGG 160600Z AUTO 14004KT 3SM 32/27 A2965 RMK 60002 SLP045 T03240272 57025 IEM_DS3505
ZGGG,2006-06-16 07:00,ZGGG 160700Z AUTO 17004KT 4SM 34/25 A2965 RMK T03400250 IEM_DS3505
ZGGG,2006-06-16 08:00,ZGGG 160800Z AUTO 15006KT 5SM 28/24 A2965 RMK T02800240 IEM_DS3505
ZGGG,2006-06-16 09:00,ZGGG 160900Z AUTO 07002KT 2 1/2SM 28/25 A2965 RMK SLP054 T02750246 52008 IEM_DS3505
ZGGG,2006-06-16 10:00,ZGGG 161000Z AUTO 05004KT 4SM 26/23 A2968 RMK T02600230 IEM_DS3505
ZGGG,2006-06-16 11:00,ZGGG 161100Z AUTO 05004KT 3SM 26/24 A2968 RMK T02600240 IEM_DS3505
ZGGG,2006-06-16 12:00,ZGGG 161200Z AUTO 14004KT 4SM 28/26 A2968 RMK 60000 SLP058 T02750255 52004 IEM_DS3505
ZGGG,2006-06-16 13:00,ZGGG 161300Z AUTO 05004KT 3SM 26/24 A2971 RMK T02600240 IEM_DS3505
ZGGG,2006-06-16 14:00,ZGGG 161400Z AUTO 09004KT 3SM 27/24 A2971 RMK T02700240 IEM_DS3505
ZGGG,2006-06-16 15:00,ZGGG 161500Z AUTO 14004KT 6SM 27/25 A2971 RMK SLP077 T02710247 52019 IEM_DS3505
ZGGG,2006-06-16 16:00,ZGGG 161600Z AUTO 3SM 26/24 A2974 RMK T02600240 IEM_DS3505
ZGGG,2006-06-16 17:00,ZGGG 161700Z AUTO 00000KT 3SM 26/24 A2971 RMK T02600240 IEM_DS3505
ZGGG,2006-06-16 18:00,ZGGG 161800Z AUTO 14002KT 7SM 26/25 A2971 RMK SLP069 T02650247 57007 IEM_DS3505
ZGGG,2006-06-16 19:00,ZGGG 161900Z AUTO 14004KT 3SM 26/24 A2971 RMK T02600240 IEM_DS3505
ZGGG,2006-06-16 20:00,ZGGG 162000Z AUTO 3SM 27/24 A2971 RMK T02700240 IEM_DS3505
ZGGG,2006-06-16 21:00,ZGGG 162100Z AUTO 09002KT 6SM 26/25 A2971 RMK 70003 SLP071 T02630251 52001 IEM_DS3505
ZGGG,2006-06-16 22:00,ZGGG 162200Z AUTO 00000KT 2SM 26/24 A2971 RMK T02600240 IEM_DS3505
ZGGG,2006-06-16 23:00,ZGGG 162300Z AUTO 09002KT 2SM 27/25 A2974 RMK T02700250 IEM_DS3505
ZGGG,2006-06-17 00:00,ZGGG 170000Z AUTO 14002KT 2 1/2SM 28/25 A2974 RMK 70003 SLP083 T02750251 52012 IEM_DS3505
ZGGG,2006-06-17 01:00,ZGGG 170100Z AUTO 4SM 29/25 A2974 RMK T02900250 IEM_DS3505
ZGGG,2006-06-17 02:00,ZGGG 170200Z AUTO 15004KT 5SM 30/25 A2977 RMK T03000250 IEM_DS3505
ZGGG,2006-06-17 03:00,ZGGG 170300Z AUTO 18002KT 9SM 31/24 A2974 RMK SLP082 T03080245 54000 IEM_DS3505
ZGGG,2006-06-17 04:00,ZGGG 170400Z AUTO 17008KT 5SM 32/25 A2974 RMK T03200250 IEM_DS3505
ZGGG,2006-06-17 05:00,ZGGG 170500Z AUTO 16006KT 5SM 33/25 A2974 RMK T03300250 IEM_DS3505
ZGGG,2006-06-17 06:00,ZGGG 170600Z AUTO 16004KT 11SM 32/25 A2971 RMK SLP071 T03210252 57011 IEM_DS3505
ZGGG,2006-06-17 07:00,ZGGG 170700Z AUTO 16006KT 5SM 34/26 A2971 RMK T03400260 IEM_DS3505
ZGGG,2006-06-17 08:00,ZGGG 170800Z AUTO 15004KT 5SM 32/25 A2971 RMK T03200250 IEM_DS3505
ZGGG,2006-06-17 09:00,ZGGG 170900Z AUTO 09004KT 10SM 31/26 A2971 RMK SLP062 T03080256 57009 IEM_DS3505
ZGGG,2006-06-17 10:00,ZGGG 171000Z AUTO 14006KT 5SM 31/25 A2971 RMK T03100250 IEM_DS3505
ZGGG,2006-06-17 11:00,ZGGG 171100Z AUTO 15006KT 4SM 30/25 A2974 RMK T03000250 IEM_DS3505
ZGGG,2006-06-17 12:00,ZGGG 171200Z AUTO 12004KT 9SM 29/25 A2974 RMK SLP078 T02890251 52015 IEM_DS3505
ZGGG,2006-06-17 13:00,ZGGG 171300Z AUTO 12004KT 4SM 28/25 A2974 RMK T02800250 IEM_DS3505
ZGGG,2006-06-17 14:00,ZGGG 171400Z AUTO 12002KT 4SM 28/25 A2977 RMK T02800250 IEM_DS3505
ZGGG,2006-06-17 15:00,ZGGG 171500Z AUTO 14002KT 9SM 28/25 A2977 RMK SLP090 T02800246 52013 IEM_DS3505
ZGGG,2006-06-17 16:00,ZGGG 171600Z AUTO 12004KT 4SM 27/25 A2977 RMK T02700250 IEM_DS3505
ZGGG,2006-06-17 17:00,ZGGG 171700Z AUTO 15002KT 4SM 28/25 A2977 RMK T02800250 IEM_DS3505
ZGGG,2006-06-17 18:00,ZGGG 171800Z AUTO 14002KT 10SM 27/25 A2977 RMK SLP088 T02740247 57002 IEM_DS3505
ZGGG,2006-06-17 21:00,ZGGG 172100Z AUTO 00000KT 8SM 26/25 RMK SLP088 T02640246 57001 IEM_DS3505
ZGGG,2006-06-17 23:00,ZGGG 172300Z AUTO 00000KT 2 1/2SM 26/25 A2980 RMK T02600250 IEM_DS3505
ZGGG,2006-06-18 00:00,ZGGG 180000Z AUTO 00000KT 5SM 28/25 A2980 RMK SLP097 T02760250 52009 IEM_DS3505
ZGGG,2006-06-18 01:00,ZGGG 180100Z AUTO 16004KT 4SM 29/25 A2980 RMK T02900250 IEM_DS3505
ZGGG,2006-06-18 02:00,ZGGG 180200Z AUTO 00000KT 4SM 30/24 A2983 RMK T03000240 IEM_DS3505
ZGGG,2006-06-18 03:00,ZGGG 180300Z AUTO 06004KT 9SM 31/24 A2983 RMK SLP103 T03090241 52007 IEM_DS3505
ZGGG,2006-06-18 04:00,ZGGG 180400Z AUTO 04004KT 4SM 31/24 A2980 RMK T03100240 IEM_DS3505
ZGGG,2006-06-18 05:00,ZGGG 180500Z AUTO 04004KT 4SM 31/24 A2980 RMK T03100240 IEM_DS3505
ZGGG,2006-06-18 06:00,ZGGG 180600Z AUTO 07002KT 7SM 32/26 A2977 RMK SLP088 T03180256 57015 IEM_DS3505
ZGGG,2006-06-18 07:00,ZGGG 180700Z AUTO 7SM 32/24 A2977 RMK T03200240 IEM_DS3505
ZGGG,2006-06-18 08:00,ZGGG 180800Z AUTO 10004KT 7SM 32/24 A2977 RMK T03200240 IEM_DS3505
ZGGG,2006-06-18 09:00,ZGGG 180900Z AUTO 00000KT 6SM 29/24 A2977 RMK SLP091 T02920236 52002 IEM_DS3505
ZGGG,2006-06-18 10:00,ZGGG 181000Z AUTO 16006KT 3SM 29/24 A2977 RMK T02900240 IEM_DS3505
ZGGG,2006-06-18 11:00,ZGGG 181100Z AUTO 19002KT 2 1/2SM 28/25 A2980 RMK T02800250 IEM_DS3505
ZGGG,2006-06-18 12:00,ZGGG 181200Z AUTO 00000KT 6SM 28/24 A2980 RMK 60000 SLP102 T02820236 52011 IEM_DS3505
ZGGG,2006-06-18 13:00,ZGGG 181300Z AUTO 06004KT 4SM 25/23 A2980 RMK T02500230 IEM_DS3505
ZGGG,2006-06-18 14:00,ZGGG 181400Z AUTO 3SM 26/24 A2983 RMK T02600240 IEM_DS3505
ZGGG,2006-06-18 15:00,ZGGG 181500Z AUTO 00000KT 10SM 27/24 A2983 RMK SLP107 T02690240 52005 IEM_DS3505
ZGGG,2006-06-18 16:00,ZGGG 181600Z AUTO 33004KT 2 1/2SM 27/24 A2980 RMK T02700240 IEM_DS3505
ZGGG,2006-06-18 17:00,ZGGG 181700Z AUTO 2 1/2SM 27/24 A2980 RMK T02700240 IEM_DS3505
ZGGG,2006-06-18 18:00,ZGGG 181800Z AUTO 09002KT 10SM 26/24 A2977 RMK SLP085 T02640244 57021 IEM_DS3505
ZGGG,2006-06-18 19:00,ZGGG 181900Z AUTO 09004KT 1 1/2SM 26/24 A2977 RMK T02600240 IEM_DS3505
ZGGG,2006-06-18 20:00,ZGGG 182000Z AUTO 1 1/4SM 26/24 A2977 RMK T02600240 IEM_DS3505
ZGGG,2006-06-18 21:00,ZGGG 182100Z AUTO 14002KT 2SM 26/24 A2980 RMK 70000 SLP097 T02640244 52011 IEM_DS3505
ZGGG,2006-06-18 22:00,ZGGG 182200Z AUTO 00000KT 1SM 26/24 A2983 RMK T02600240 IEM_DS3505
ZGGG,2006-06-18 23:00,ZGGG 182300Z AUTO 00000KT 1SM 27/25 A2985 RMK T02700250 IEM_DS3505
ZGGG,2006-06-19 00:00,ZGGG 190000Z AUTO 00000KT 3SM 29/24 A2985 RMK 70000 SLP116 T02890236 52019 IEM_DS3505
ZGGG,2006-06-19 01:00,ZGGG 190100Z AUTO 1 1/4SM 29/24 A2985 RMK T02900240 IEM_DS3505
ZGGG,2006-06-19 02:00,ZGGG 190200Z AUTO 02006KT 1 1/2SM 29/25 A2985 RMK T02900250 IEM_DS3505
ZGGG,2006-06-19 03:00,ZGGG 190300Z AUTO 00000KT 2 1/2SM 28/24 A2985 RMK SLP120 T02820242 52004 IEM_DS3505
ZGGG,2006-06-19 04:00,ZGGG 190400Z AUTO 16008KT 1 1/2SM 24/22 A2988 RMK T02400220 IEM_DS3505
ZGGG,2006-06-19 05:00,ZGGG 190500Z AUTO 4SM 25/23 A2985 RMK T02500230 IEM_DS3505
ZGGG,2006-06-19 06:00,ZGGG 190600Z AUTO 11002KT 7SM 26/23 A2983 RMK 60008 SLP110 T02560231 57010 IEM_DS3505
ZGGG,2006-06-19 07:00,ZGGG 190700Z AUTO 08004KT 4SM 26/23 A2983 RMK T02600230 IEM_DS3505
ZGGG,2006-06-19 08:00,ZGGG 190800Z AUTO 10006KT 6SM 27/24 A2980 RMK T02700240 IEM_DS3505
ZGGG,2006-06-19 09:00,ZGGG 190900Z AUTO 00000KT 8SM 28/23 A2980 RMK SLP101 T02780234 57009 IEM_DS3505
ZGGG,2006-06-19 10:00,ZGGG 191000Z AUTO 07004KT 6SM 27/24 A2983 RMK T02700240 IEM_DS3505
ZGGG,2006-06-19 11:00,ZGGG 191100Z AUTO 09002KT 5SM 26/23 A2980 RMK T02600230 IEM_DS3505
ZGGG,2006-06-19 12:00,ZGGG 191200Z AUTO 07002KT 9SM 26/23 A2980 RMK 60001 SLP099 T02610232 57002 IEM_DS3505
ZGGG,2006-06-19 13:00,ZGGG 191300Z AUTO 00000KT 4SM 26/24 A2983 RMK T02600240 IEM_DS3505
ZGGG,2006-06-19 14:00,ZGGG 191400Z AUTO 00000KT 4SM 26/24 A2985 RMK T02600240 IEM_DS3505
ZGGG,2006-06-19 15:00,ZGGG 191500Z AUTO 07002KT 10SM 26/23 A2985 RMK SLP121 T02560231 52022 IEM_DS3505
ZGGG,2006-06-19 16:00,ZGGG 191600Z AUTO 00000KT 2 1/2SM 25/23 A2985 RMK T02500230 IEM_DS3505
ZGGG,2006-06-19 17:00,ZGGG 191700Z AUTO 10002KT 2 1/2SM 25/23 A2983 RMK T02500230 IEM_DS3505
ZGGG,2006-06-19 18:00,ZGGG 191800Z AUTO 11002KT 6SM 25/23 A2983 RMK SLP104 T02480232 57017 IEM_DS3505
ZGGG,2006-06-19 19:00,ZGGG 191900Z AUTO 2 1/2SM 25/23 A2983 RMK T02500230 IEM_DS3505
ZGGG,2006-06-19 20:00,ZGGG 192000Z AUTO 05002KT 2 1/2SM 24/22 A2983 RMK T02400220 IEM_DS3505
ZGGG,2006-06-19 21:00,ZGGG 192100Z AUTO 07002KT 6SM 24/23 A2983 RMK 70011 SLP105 T02430229 52001 IEM_DS3505
ZGGG,2006-06-19 22:00,ZGGG 192200Z AUTO 00000KT 1 1/2SM 24/23 A2983 RMK T02400230 IEM_DS3505
ZGGG,2006-06-19 23:00,ZGGG 192300Z AUTO 00000KT 2 1/2SM 25/23 A2985 RMK T02500230 IEM_DS3505
ZGGG,2006-06-20 00:00,ZGGG 200000Z AUTO 00000KT 7SM 27/23 A2988 RMK 70011 SLP121 T02680233 52016 IEM_DS3505
ZGGG,2006-06-20 01:00,ZGGG 200100Z AUTO 09006KT 3SM 27/24 A2988 RMK T02700240 IEM_DS3505
ZGGG,2006-06-20 02:00,ZGGG 200200Z AUTO 4SM 29/24 A2988 RMK T02900240 IEM_DS3505
ZGGG,2006-06-20 03:00,ZGGG 200300Z AUTO 02002KT 6SM 30/24 A2985 RMK SLP118 T03010240 57003 IEM_DS3505
ZGGG,2006-06-20 04:00,ZGGG 200400Z AUTO 3SM 33/25 A2985 RMK T03300250 IEM_DS3505
ZGGG,2006-06-20 05:00,ZGGG 200500Z AUTO 4SM 33/23 A2983 RMK T03300230 IEM_DS3505
ZGGG,2006-06-20 06:00,ZGGG 200600Z AUTO 25002KT 5SM 32/24 A2980 RMK SLP097 T03160242 57021 IEM_DS3505
ZGGG,2006-06-20 07:00,ZGGG 200700Z AUTO 30004KT 5SM 34/23 A2977 RMK T03400230 IEM_DS3505
ZGGG,2006-06-20 08:00,ZGGG 200800Z AUTO 16008KT 4SM 31/24 A2977 RMK T03100240 IEM_DS3505
ZGGG,2006-06-20 09:00,ZGGG 200900Z AUTO 14004KT 2 1/2SM 26/24 A2977 RMK SLP100 T02640239 52003 IEM_DS3505
ZGGG,2006-06-20 10:00,ZGGG 201000Z AUTO 17006KT 3SM 29/24 A2980 RMK T02900240 IEM_DS3505
ZGGG,2006-06-20 11:00,ZGGG 201100Z AUTO 5SM 28/22 A2980 RMK T02800220 IEM_DS3505
ZGGG,2006-06-20 12:00,ZGGG 201200Z AUTO 36002KT 6SM 26/24 A2983 RMK 60051 SLP112 T02580240 52012 IEM_DS3505
ZGGG,2006-06-20 13:00,ZGGG 201300Z AUTO 23004KT 4SM 28/23 A2985 RMK T02800230 IEM_DS3505
ZGGG,2006-06-20 14:00,ZGGG 201400Z AUTO 16002KT 3SM 27/24 A2985 RMK T02700240 IEM_DS3505
ZGGG,2006-06-20 15:00,ZGGG 201500Z AUTO 04002KT 6SM 25/24 A2985 RMK SLP118 T02540238 52006 IEM_DS3505
ZGGG,2006-06-20 16:00,ZGGG 201600Z AUTO 12002KT 3SM 26/24 A2985 RMK T02600240 IEM_DS3505
ZGGG,2006-06-20 17:00,ZGGG 201700Z AUTO 2 1/2SM 25/23 A2983 RMK T02500230 IEM_DS3505
ZGGG,2006-06-20 18:00,ZGGG 201800Z AUTO 00000KT 4SM 25/24 A2983 RMK SLP109 T02490235 57009 IEM_DS3505
ZGGG,2006-06-20 19:00,ZGGG 201900Z AUTO 00000KT 2 1/2SM 25/23 A2983 RMK T02500230 IEM_DS3505
ZGGG,2006-06-20 20:00,ZGGG 202000Z AUTO 00000KT 2 1/2SM 25/23 A2983 RMK T02500230 IEM_DS3505
ZGGG,2006-06-20 21:00,ZGGG 202100Z AUTO 06002KT 2 1/2SM 24/23 A2983 RMK 70050 SLP107 T02450233 57002 IEM_DS3505
ZGGG,2006-06-20 22:00,ZGGG 202200Z AUTO 35002KT 1SM 25/23 A2983 RMK T02500230 IEM_DS3505
ZGGG,2006-06-20 23:00,ZGGG 202300Z AUTO 00000KT 1SM 26/24 A2985 RMK T02600240 IEM_DS3505
ZGGG,2006-06-21 00:00,ZGGG 210000Z AUTO 00000KT 1 1/2SM 27/24 A2985 RMK 70050 SLP116 T02710240 52009 IEM_DS3505
ZGGG,2006-06-21 01:00,ZGGG 210100Z AUTO 2SM 30/25 A2985 RMK T03000250 IEM_DS3505
ZGGG,2006-06-21 02:00,ZGGG 210200Z AUTO 4SM 31/23 A2985 RMK T03100230 IEM_DS3505
ZGGG,2006-06-21 03:00,ZGGG 210300Z AUTO 16004KT 10SM 32/24 A2985 RMK SLP112 T03180239 57004 IEM_DS3505
ZGGG,2006-06-21 04:00,ZGGG 210400Z AUTO 6SM 33/23 A2983 RMK T03300230 IEM_DS3505
ZGGG,2006-06-21 05:00,ZGGG 210500Z AUTO 6SM 34/23 A2980 RMK T03400230 IEM_DS3505
ZGGG,2006-06-21 06:00,ZGGG 210600Z AUTO 14004KT 11SM 34/22 A2977 RMK SLP086 T03400221 57025 IEM_DS3505
ZGGG,2006-06-21 07:00,ZGGG 210700Z AUTO 14008KT 6SM 32/25 A2974 RMK T03200250 IEM_DS3505
ZGGG,2006-06-21 08:00,ZGGG 210800Z AUTO 18004KT 6SM 33/24 A2974 RMK T03300240 IEM_DS3505
ZGGG,2006-06-21 09:00,ZGGG 210900Z AUTO 16002KT 6SM 31/22 A2974 RMK SLP074 T03140221 57013 IEM_DS3505
ZGGG,2006-06-21 10:00,ZGGG 211000Z AUTO 18008KT 4SM 30/23 A2974 RMK T03000230 IEM_DS3505
ZGGG,2006-06-21 11:00,ZGGG 211100Z AUTO 18004KT 2SM 29/24 A2974 RMK T02900240 IEM_DS3505
ZGGG,2006-06-21 12:00,ZGGG 211200Z AUTO 16004KT 7SM 29/24 A2977 RMK SLP090 T02930240 52016 IEM_DS3505
ZGGG,2006-06-21 13:00,ZGGG 211300Z AUTO 14002KT 2 1/2SM 28/24 A2980 RMK T02800240 IEM_DS3505
ZGGG,2006-06-21 14:00,ZGGG 211400Z AUTO 00000KT 2 1/2SM 28/24 A2980 RMK T02800240 IEM_DS3505
ZGGG,2006-06-21 15:00,ZGGG 211500Z AUTO 16004KT 11SM 28/23 A2983 RMK SLP104 T02830234 52015 IEM_DS3505
ZGGG,2006-06-21 16:00,ZGGG 211600Z AUTO 2 1/2SM 27/24 A2980 RMK T02700240 IEM_DS3505
ZGGG,2006-06-21 17:00,ZGGG 211700Z AUTO 14002KT 3SM 27/24 A2977 RMK T02700240 IEM_DS3505
ZGGG,2006-06-21 18:00,ZGGG 211800Z AUTO 14002KT 9SM 27/24 A2977 RMK SLP084 T02720237 57020 IEM_DS3505
ZGGG,2006-06-21 19:00,ZGGG 211900Z AUTO 3SM 26/24 A2977 RMK T02600240 IEM_DS3505
ZGGG,2006-06-21 20:00,ZGGG 212000Z AUTO 04002KT 2 1/2SM 26/23 A2974 RMK T02600230 IEM_DS3505
ZGGG,2006-06-21 21:00,ZGGG 212100Z AUTO 36002KT 9SM 26/24 A2977 RMK SLP084 T02590241 54000 IEM_DS3505
ZGGG,2006-06-21 22:00,ZGGG 212200Z AUTO 09002KT 1 1/4SM 26/24 A2977 RMK T02600240 IEM_DS3505
ZGGG,2006-06-21 23:00,ZGGG 212300Z AUTO 2SM 27/24 A2977 RMK T02700240 IEM_DS3505
ZGGG,2006-06-22 00:00,ZGGG 220000Z AUTO 09002KT 7SM 29/24 A2980 RMK SLP095 T02900241 52011 IEM_DS3505
ZGGG,2006-06-22 01:00,ZGGG 220100Z AUTO 10004KT 4SM 30/23 A2980 RMK T03000230 IEM_DS3505
ZGGG,2006-06-22 02:00,ZGGG 220200Z AUTO 7SM 31/23 A2980 RMK T03100230 IEM_DS3505
ZGGG,2006-06-22 03:00,ZGGG 220300Z AUTO 11002KT 10SM 33/21 A2980 RMK SLP093 T03290214 57002 IEM_DS3505
ZGGG,2006-06-22 04:00,ZGGG 220400Z AUTO 27004KT 7SM 33/22 A2977 RMK T03300220 IEM_DS3505
ZGGG,2006-06-22 05:00,ZGGG 220500Z AUTO 21004KT 7SM 33/22 A2974 RMK T03300220 IEM_DS3505
ZGGG,2006-06-22 06:00,ZGGG 220600Z AUTO 20002KT 7SM 32/24 A2971 RMK SLP071 T03240236 57022 IEM_DS3505
ZGGG,2006-06-22 07:00,ZGGG 220700Z AUTO 19004KT 4SM 34/23 A2971 RMK T03400230 IEM_DS3505
ZGGG,2006-06-22 08:00,ZGGG 220800Z AUTO 16006KT 4SM 34/23 A2968 RMK T03400230 IEM_DS3505
ZGGG,2006-06-22 09:00,ZGGG 220900Z AUTO 16002KT 5SM 31/24 A2965 RMK SLP054 T03120238 57017 IEM_DS3505
ZGGG,2006-06-22 10:00,ZGGG 221000Z AUTO 16006KT 3SM 33/23 A2968 RMK T03300230 IEM_DS3505
ZGGG,2006-06-22 11:00,ZGGG 221100Z AUTO 15004KT 2 1/2SM 31/24 A2968 RMK T03100240 IEM_DS3505
ZGGG,2006-06-22 12:00,ZGGG 221200Z AUTO 14004KT 7SM 29/24 A2974 RMK 60008 SLP075 T02930237 52021 IEM_DS3505
ZGGG,2006-06-22 13:00,ZGGG 221300Z AUTO 14006KT 5SM 29/24 A2974 RMK T02900240 IEM_DS3505
ZGGG,2006-06-22 14:00,ZGGG 221400Z AUTO 14004KT 6SM 29/24 A2977 RMK T02900240 IEM_DS3505
ZGGG,2006-06-22 15:00,ZGGG 221500Z AUTO 14004KT 8SM 28/23 A2980 RMK SLP096 T02830234 52021 IEM_DS3505
ZGGG,2006-06-22 16:00,ZGGG 221600Z AUTO 00000KT 6SM 28/24 A2980 RMK T02800240 IEM_DS3505
ZGGG,2006-06-22 17:00,ZGGG 221700Z AUTO 12002KT 6SM 27/24 A2977 RMK T02700240 IEM_DS3505
ZGGG,2006-06-22 18:00,ZGGG 221800Z AUTO 11002KT 7SM 27/24 A2977 RMK SLP083 T02720243 57013 IEM_DS3505
ZGGG,2006-06-22 19:00,ZGGG 221900Z AUTO 12002KT 7SM 27/24 A2977 RMK T02700240 IEM_DS3505
ZGGG,2006-06-22 20:00,ZGGG 222000Z AUTO 10002KT 5SM 26/24 A2974 RMK T02600240 IEM_DS3505
ZGGG,2006-06-22 21:00,ZGGG 222100Z AUTO 07002KT 7SM 26/24 A2974 RMK 70007 SLP079 T02620242 57004 IEM_DS3505
ZGGG,2006-06-22 22:00,ZGGG 222200Z AUTO 00000KT 2 1/2SM 26/24 A2977 RMK T02600240 IEM_DS3505
ZGGG,2006-06-22 23:00,ZGGG 222300Z AUTO 09002KT 2 1/2SM 27/25 A2980 RMK T02700250 IEM_DS3505
ZGGG,2006-06-23 00:00,ZGGG 230000Z AUTO 02002KT 9SM 29/25 A2980 RMK 70007 SLP096 T02900246 52017 IEM_DS3505
ZGGG,2006-06-23 01:00,ZGGG 230100Z AUTO 00000KT 4SM 30/25 A2980 RMK T03000250 IEM_DS3505
ZGGG,2006-06-23 02:00,ZGGG 230200Z AUTO 23004KT 5SM 32/23 A2980 RMK T03200230 IEM_DS3505
ZGGG,2006-06-23 03:00,ZGGG 230300Z AUTO 22002KT 9SM 32/25 A2980 RMK SLP096 T03180249 54000 IEM_DS3505
ZGGG,2006-06-23 04:00,ZGGG 230400Z AUTO 4SM 33/24 A2977 RMK T03300240 IEM_DS3505
ZGGG,2006-06-23 05:00,ZGGG 230500Z AUTO 4SM 34/24 A2977 RMK T03400240 IEM_DS3505
ZGGG,2006-06-23 06:00,ZGGG 230600Z AUTO 14002KT 8SM 34/25 A2974 RMK 60004 SLP075 T03370246 57021 IEM_DS3505
ZGGG,2006-06-23 07:00,ZGGG 230700Z AUTO 17006KT 4SM 35/23 A2971 RMK T03500230 IEM_DS3505
ZGGG,2006-06-23 08:00,ZGGG 230800Z AUTO 20006KT 4SM 35/24 A2968 RMK T03500240 IEM_DS3505
ZGGG,2006-06-23 09:00,ZGGG 230900Z AUTO 16006KT 9SM 34/23 A2968 RMK SLP056 T03430227 57019 IEM_DS3505
ZGGG,2006-06-23 10:00,ZGGG 231000Z AUTO 14004KT 3SM 34/24 A2968 RMK T03400240 IEM_DS3505
ZGGG,2006-06-23 11:00,ZGGG 231100Z AUTO 15008KT 4SM 32/25 A2968 RMK T03200250 IEM_DS3505
ZGGG,2006-06-23 12:00,ZGGG 231200Z AUTO 14004KT 11SM 30/24 A2971 RMK SLP069 T03040245 52013 IEM_DS3505
ZGGG,2006-06-23 13:00,ZGGG 231300Z AUTO 15006KT 5SM 30/25 A2974 RMK T03000250 IEM_DS3505
ZGGG,2006-06-23 14:00,ZGGG 231400Z AUTO 10004KT 6SM 29/25 A2977 RMK T02900250 IEM_DS3505
ZGGG,2006-06-23 15:00,ZGGG 231500Z AUTO 16002KT 10SM 29/25 A2980 RMK SLP096 T02940247 52027 IEM_DS3505
ZGGG,2006-06-23 16:00,ZGGG 231600Z AUTO 10002KT 7SM 28/25 A2980 RMK T02800250 IEM_DS3505
ZGGG,2006-06-23 17:00,ZGGG 231700Z AUTO 08002KT 7SM 27/25 A2980 RMK T02700250 IEM_DS3505
ZGGG,2006-06-23 18:00,ZGGG 231800Z AUTO 14002KT 9SM 28/24 A2977 RMK SLP091 T02810243 57005 IEM_DS3505
ZGGG,2006-06-23 19:00,ZGGG 231900Z AUTO 11004KT 5SM 27/25 A2977 RMK T02700250 IEM_DS3505
ZGGG,2006-06-23 20:00,ZGGG 232000Z AUTO 09004KT 5SM 27/25 A2977 RMK T02700250 IEM_DS3505
ZGGG,2006-06-23 21:00,ZGGG 232100Z AUTO 14002KT 9SM 27/25 A2980 RMK 70004 SLP092 T02740247 52001 IEM_DS3505
ZGGG,2006-06-23 22:00,ZGGG 232200Z AUTO 07002KT 4SM 27/24 A2980 RMK T02700240 IEM_DS3505
ZGGG,2006-06-23 23:00,ZGGG 232300Z AUTO 4SM 28/25 A2980 RMK T02800250 IEM_DS3505
ZGGG,2006-06-24 00:00,ZGGG 240000Z AUTO 14004KT 8SM 30/25 A2980 RMK 70004 SLP100 T02950246 52008 IEM_DS3505
ZGGG,2006-06-24 01:00,ZGGG 240100Z AUTO 17004KT 5SM 31/24 A2980 RMK T03100240 IEM_DS3505
ZGGG,2006-06-24 02:00,ZGGG 240200Z AUTO 23004KT 7SM 33/24 A2980 RMK T03300240 IEM_DS3505
ZGGG,2006-06-24 03:00,ZGGG 240300Z AUTO 22004KT 9SM 33/24 A2980 RMK SLP099 T03300236 57001 IEM_DS3505
ZGGG,2006-06-24 04:00,ZGGG 240400Z AUTO 18006KT 5SM 34/24 A2980 RMK T03400240 IEM_DS3505
ZGGG,2006-06-24 05:00,ZGGG 240500Z AUTO 18008KT 5SM 35/23 A2977 RMK T03500230 IEM_DS3505
ZGGG,2006-06-24 06:00,ZGGG 240600Z AUTO 18004G17KT 11SM 35/22 A2974 RMK SLP079 T03540224 57020 IEM_DS3505
ZGGG,2006-06-24 07:00,ZGGG 240700Z AUTO 17008KT 5SM 36/23 A2971 RMK T03600230 IEM_DS3505
ZGGG,2006-06-24 08:00,ZGGG 240800Z AUTO 17006KT 7SM 36/23 A2968 RMK T03600230 IEM_DS3505
ZGGG,2006-06-24 09:00,ZGGG 240900Z AUTO 20004KT 11SM 36/23 A2968 RMK SLP058 T03580231 57021 IEM_DS3505
ZGGG,2006-06-24 10:00,ZGGG 241000Z AUTO 17004KT 6SM 35/22 A2968 RMK T03500220 IEM_DS3505
ZGGG,2006-06-24 11:00,ZGGG 241100Z AUTO 15006KT 6SM 32/25 A2971 RMK T03200250 IEM_DS3505
ZGGG,2006-06-24 12:00,ZGGG 241200Z AUTO 14006KT 7SM 31/25 A2974 RMK SLP075 T03090253 52017 IEM_DS3505
ZGGG,2006-06-24 13:00,ZGGG 241300Z AUTO 14004KT 6SM 30/25 A2977 RMK T03000250 IEM_DS3505
ZGGG,2006-06-24 14:00,ZGGG 241400Z AUTO 11004KT 6SM 30/25 A2980 RMK T03000250 IEM_DS3505
ZGGG,2006-06-24 15:00,ZGGG 241500Z AUTO 16004KT 10SM 30/24 A2980 RMK SLP100 T03010243 52025 IEM_DS3505
ZGGG,2006-06-24 16:00,ZGGG 241600Z AUTO 13004KT 7SM 29/25 A2980 RMK T02900250 IEM_DS3505
ZGGG,2006-06-24 17:00,ZGGG 241700Z AUTO 7SM 29/25 A2980 RMK T02900250 IEM_DS3505
ZGGG,2006-06-24 18:00,ZGGG 241800Z AUTO 18002KT 10SM 29/25 A2980 RMK SLP095 T02880246 57005 IEM_DS3505
ZGGG,2006-06-24 19:00,ZGGG 241900Z AUTO 10002KT 7SM 27/25 A2980 RMK T02700250 IEM_DS3505
ZGGG,2006-06-24 20:00,ZGGG 242000Z AUTO 10002KT 5SM 27/25 A2980 RMK T02700250 IEM_DS3505
ZGGG,2006-06-24 21:00,ZGGG 242100Z AUTO 14002KT 9SM 28/24 A2980 RMK SLP094 T02790245 57001 IEM_DS3505
ZGGG,2006-06-24 22:00,ZGGG 242200Z AUTO 14002KT 4SM 27/25 A2980 RMK T02700250 IEM_DS3505
ZGGG,2006-06-24 23:00,ZGGG 242300Z AUTO 4SM 29/25 A2980 RMK T02900250 IEM_DS3505
ZGGG,2006-06-25 00:00,ZGGG 250000Z AUTO 22002KT 11SM 31/25 A2980 RMK SLP095 T03080247 52001 IEM_DS3505
ZGGG,2006-06-25 01:00,ZGGG 250100Z AUTO 23006KT 7SM 31/24 A2980 RMK T03100240 IEM_DS3505
ZGGG,2006-06-25 02:00,ZGGG 250200Z AUTO 20006KT 7SM 32/23 A2980 RMK T03200230 IEM_DS3505
ZGGG,2006-06-25 03:00,ZGGG 250300Z AUTO 16004KT 12SM 34/24 A2980 RMK SLP092 T03400240 57003 IEM_DS3505
ZGGG,2006-06-25 04:00,ZGGG 250400Z AUTO 23006KT 7SM 35/23 A2977 RMK T03500230 IEM_DS3505
ZGGG,2006-06-25 05:00,ZGGG 250500Z AUTO 7SM 35/23 A2977 RMK T03500230 IEM_DS3505
ZGGG,2006-06-25 06:00,ZGGG 250600Z AUTO 16006KT 12SM 35/23 A2974 RMK SLP075 T03500227 57017 IEM_DS3505
ZGGG,2006-06-25 07:00,ZGGG 250700Z AUTO 19006KT 7SM 35/23 A2971 RMK T03500230 IEM_DS3505
ZGGG,2006-06-25 08:00,ZGGG 250800Z AUTO 23008KT 7SM 36/22 A2971 RMK T03600220 IEM_DS3505
ZGGG,2006-06-25 09:00,ZGGG 250900Z AUTO 16004KT 13SM 33/24 A2971 RMK SLP062 T03310243 57013 IEM_DS3505
ZGGG,2006-06-25 10:00,ZGGG 251000Z AUTO 35006KT 2 1/2SM 29/23 A2971 RMK T02900230 IEM_DS3505
ZGGG,2006-06-25 11:00,ZGGG 251100Z AUTO 7SM 28/24 A2971 RMK T02800240 IEM_DS3505
ZGGG,2006-06-25 12:00,ZGGG 251200Z AUTO 16004KT 13SM 31/25 A2974 RMK 60000 SLP083 T03080249 52021 IEM_DS3505
ZGGG,2006-06-25 13:00,ZGGG 251300Z AUTO 14006KT 6SM 29/25 A2977 RMK T02900250 IEM_DS3505
ZGGG,2006-06-25 14:00,ZGGG 251400Z AUTO 13004KT 6SM 29/24 A2980 RMK T02900240 IEM_DS3505
ZGGG,2006-06-25 15:00,ZGGG 251500Z AUTO 16004KT 11SM 30/25 A2980 RMK SLP100 T02950248 52017 IEM_DS3505
ZGGG,2006-06-25 16:00,ZGGG 251600Z AUTO 6SM 29/25 A2980 RMK T02900250 IEM_DS3505
ZGGG,2006-06-25 17:00,ZGGG 251700Z AUTO 11004KT 6SM 28/25 A2980 RMK T02800250 IEM_DS3505
ZGGG,2006-06-25 18:00,ZGGG 251800Z AUTO 16002KT 10SM 29/25 A2977 RMK SLP093 T02880246 57007 IEM_DS3505
ZGGG,2006-06-25 19:00,ZGGG 251900Z AUTO 07002KT 7SM 27/25 A2977 RMK T02700250 IEM_DS3505
ZGGG,2006-06-25 20:00,ZGGG 252000Z AUTO 11004KT 5SM 27/25 A2977 RMK T02700250 IEM_DS3505
ZGGG,2006-06-25 21:00,ZGGG 252100Z AUTO 18002KT 9SM 28/25 A2977 RMK 70000 SLP084 T02780246 57009 IEM_DS3505
ZGGG,2006-06-25 22:00,ZGGG 252200Z AUTO 09004KT 4SM 27/25 A2977 RMK T02700250 IEM_DS3505
ZGGG,2006-06-25 23:00,ZGGG 252300Z AUTO 07002KT 4SM 28/25 A2977 RMK T02800250 IEM_DS3505
ZGGG,2006-06-26 00:00,ZGGG 260000Z AUTO 14006KT 9SM 30/25 A2980 RMK 70000 SLP094 T03030249 52010 IEM_DS3505
ZGGG,2006-06-26 01:00,ZGGG 260100Z AUTO 5SM 31/25 A2980 RMK T03100250 IEM_DS3505
ZGGG,2006-06-26 02:00,ZGGG 260200Z AUTO 4SM 31/24 A2980 RMK T03100240 IEM_DS3505
ZGGG,2006-06-26 03:00,ZGGG 260300Z AUTO 22002KT 11SM 33/23 A2980 RMK SLP094 T03330227 54000 IEM_DS3505
ZGGG,2006-06-26 04:00,ZGGG 260400Z AUTO 7SM 35/23 A2980 RMK T03500230 IEM_DS3505
ZGGG,2006-06-26 05:00,ZGGG 260500Z AUTO 7SM 35/24 A2977 RMK T03500240 IEM_DS3505
ZGGG,2006-06-26 06:00,ZGGG 260600Z AUTO 16004KT 11SM 36/21 A2974 RMK SLP077 T03600214 57017 IEM_DS3505
ZGGG,2006-06-26 07:00,ZGGG 260700Z AUTO 7SM 35/21 A2971 RMK T03500210 IEM_DS3505
ZGGG,2006-06-26 08:00,ZGGG 260800Z AUTO 13004KT 7SM 35/21 A2971 RMK T03500210 IEM_DS3505
ZGGG,2006-06-26 09:00,ZGGG 260900Z AUTO 14008KT 10SM 35/23 A2968 RMK SLP060 T03480232 57017 IEM_DS3505
ZGGG,2006-06-26 10:00,ZGGG 261000Z AUTO 15004KT 4SM 34/22 A2968 RMK T03400220 IEM_DS3505
ZGGG,2006-06-26 11:00,ZGGG 261100Z AUTO 15006KT 7SM 32/24 A2968 RMK T03200240 IEM_DS3505
ZGGG,2006-06-26 12:00,ZGGG 261200Z AUTO 16004KT 11SM 31/23 A2971 RMK SLP073 T03130231 52013 IEM_DS3505
ZGGG,2006-06-26 13:00,ZGGG 261300Z AUTO 12006KT 6SM 30/24 A2974 RMK T03000240 IEM_DS3505
ZGGG,2006-06-26 14:00,ZGGG 261400Z AUTO 14004KT 6SM 30/24 A2977 RMK T03000240 IEM_DS3505
ZGGG,2006-06-26 15:00,ZGGG 261500Z AUTO 18002KT 11SM 30/24 A2980 RMK SLP092 T02960245 52019 IEM_DS3505
ZGGG,2006-06-26 16:00,ZGGG 261600Z AUTO 13004KT 7SM 29/24 A2977 RMK T02900240 IEM_DS3505
ZGGG,2006-06-26 17:00,ZGGG 261700Z AUTO 00000KT 6SM 28/24 A2977 RMK T02800240 IEM_DS3505
ZGGG,2006-06-26 18:00,ZGGG 261800Z AUTO 14002KT 10SM 29/23 A2977 RMK SLP091 T02880228 57001 IEM_DS3505
ZGGG,2006-06-26 19:00,ZGGG 261900Z AUTO 09004KT 6SM 27/24 A2977 RMK T02700240 IEM_DS3505
ZGGG,2006-06-26 20:00,ZGGG 262000Z AUTO 11002KT 6SM 27/24 A2977 RMK T02700240 IEM_DS3505
ZGGG,2006-06-26 21:00,ZGGG 262100Z AUTO 07002KT 9SM 27/24 A2974 RMK SLP082 T02680237 57009 IEM_DS3505
ZGGG,2006-06-26 22:00,ZGGG 262200Z AUTO 3SM 26/24 A2974 RMK T02600240 IEM_DS3505
ZGGG,2006-06-26 23:00,ZGGG 262300Z AUTO 3SM 28/24 A2974 RMK T02800240 IEM_DS3505
ZGGG,2006-06-27 00:00,ZGGG 270000Z AUTO 07002KT 9SM 30/24 A2977 RMK SLP083 T03020241 52001 IEM_DS3505
ZGGG,2006-06-27 01:00,ZGGG 270100Z AUTO 5SM 32/24 A2977 RMK T03200240 IEM_DS3505
ZGGG,2006-06-27 02:00,ZGGG 270200Z AUTO 7SM 32/24 A2977 RMK T03200240 IEM_DS3505
ZGGG,2006-06-27 03:00,ZGGG 270300Z AUTO 02004KT 11SM 33/23 A2977 RMK SLP079 T03320232 57004 IEM_DS3505
ZGGG,2006-06-27 04:00,ZGGG 270400Z AUTO 7SM 34/24 A2974 RMK T03400240 IEM_DS3505
ZGGG,2006-06-27 05:00,ZGGG 270500Z AUTO 08004KT 7SM 35/22 A2971 RMK T03500220 IEM_DS3505
ZGGG,2006-06-27 06:00,ZGGG 270600Z AUTO 14004KT 12SM 36/22 A2971 RMK SLP063 T03590225 57016 IEM_DS3505
ZGGG,2006-06-27 07:00,ZGGG 270700Z AUTO 11006KT 7SM 36/23 A2968 RMK T03600230 IEM_DS3505
ZGGG,2006-06-27 08:00,ZGGG 270800Z AUTO 14008KT 7SM 33/22 A2965 RMK T03300220 IEM_DS3505
ZGGG,2006-06-27 09:00,ZGGG 270900Z AUTO 11002KT 8SM 31/24 A2965 RMK SLP046 T03090243 57017 IEM_DS3505
ZGGG,2006-06-27 10:00,ZGGG 271000Z AUTO 12006KT 7SM 33/23 A2965 RMK T03300230 IEM_DS3505
ZGGG,2006-06-27 11:00,ZGGG 271100Z AUTO 10008KT 7SM 31/23 A2968 RMK T03100230 IEM_DS3505
ZGGG,2006-06-27 12:00,ZGGG 271200Z AUTO 09002KT 9SM 30/24 A2971 RMK SLP064 T03050237 52018 IEM_DS3505
ZGGG,2006-06-27 13:00,ZGGG 271300Z AUTO 10004KT 6SM 30/24 A2974 RMK T03000240 IEM_DS3505
ZGGG,2006-06-27 14:00,ZGGG 271400Z AUTO 10006KT 6SM 29/24 A2974 RMK T02900240 IEM_DS3505
ZGGG,2006-06-27 15:00,ZGGG 271500Z AUTO 11004KT 10SM 30/24 A2974 RMK SLP077 T02960245 52013 IEM_DS3505
ZGGG,2006-06-27 16:00,ZGGG 271600Z AUTO 10006KT 6SM 28/25 A2974 RMK T02800250 IEM_DS3505
ZGGG,2006-06-27 17:00,ZGGG 271700Z AUTO 10006KT 6SM 28/25 A2974 RMK T02800250 IEM_DS3505
ZGGG,2006-06-27 18:00,ZGGG 271800Z AUTO 09002KT 9SM 28/24 A2974 RMK SLP074 T02790245 57003 IEM_DS3505
ZGGG,2006-06-27 19:00,ZGGG 271900Z AUTO 7SM 27/24 A2974 RMK T02700240 IEM_DS3505
ZGGG,2006-06-27 20:00,ZGGG 272000Z AUTO 06004KT 6SM 27/24 A2971 RMK T02700240 IEM_DS3505
ZGGG,2006-06-27 21:00,ZGGG 272100Z AUTO 07002KT 10SM 28/24 A2971 RMK SLP063 T02750239 57011 IEM_DS3505
ZGGG,2006-06-27 22:00,ZGGG 272200Z AUTO 11002KT 6SM 27/24 A2971 RMK T02700240 IEM_DS3505
ZGGG,2006-06-27 23:00,ZGGG 272300Z AUTO 09004KT 7SM 28/24 A2971 RMK T02800240 IEM_DS3505
ZGGG,2006-06-28 00:00,ZGGG 280000Z AUTO 09004KT 14SM 27/25 A2974 RMK 60002 70002 SLP074 T02710249 52011 IEM_DS3505
ZGGG,2006-06-28 01:00,ZGGG 280100Z AUTO 08006KT 7SM 27/24 A2974 RMK T02700240 IEM_DS3505
ZGGG,2006-06-28 02:00,ZGGG 280200Z AUTO 07006KT 6SM 29/24 A2974 RMK T02900240 IEM_DS3505
ZGGG,2006-06-28 03:00,ZGGG 280300Z AUTO 14004KT 14SM 31/25 A2974 RMK SLP077 T03100246 52003 IEM_DS3505
ZGGG,2006-06-28 04:00,ZGGG 280400Z AUTO 11006KT 4SM 30/25 A2974 RMK T03000250 IEM_DS3505
ZGGG,2006-06-28 05:00,ZGGG 280500Z AUTO 19006KT 4SM 28/25 A2974 RMK T02800250 IEM_DS3505
ZGGG,2006-06-28 06:00,ZGGG 280600Z AUTO 09002KT 7SM 27/25 A2974 RMK 60020 SLP075 T02720252 57003 IEM_DS3505
ZGGG,2006-06-28 07:00,ZGGG 280700Z AUTO 4SM 28/25 A2971 RMK T02800250 IEM_DS3505
ZGGG,2006-06-28 08:00,ZGGG 280800Z AUTO 07004KT 4SM 28/25 A2968 RMK T02800250 IEM_DS3505
ZGGG,2006-06-28 09:00,ZGGG 280900Z AUTO 11006KT 9SM 29/24 A2968 RMK SLP051 T02890242 57023 IEM_DS3505
ZGGG,2006-06-28 10:00,ZGGG 281000Z AUTO 07004KT 6SM 29/25 A2968 RMK T02900250 IEM_DS3505
ZGGG,2006-06-28 11:00,ZGGG 281100Z AUTO 11004KT 5SM 28/25 A2968 RMK T02800250 IEM_DS3505
ZGGG,2006-06-28 12:00,ZGGG 281200Z AUTO 11004KT 10SM 28/24 A2968 RMK 60000 SLP060 T02820236 52008 IEM_DS3505
ZGGG,2006-06-28 13:00,ZGGG 281300Z AUTO 5SM 28/25 A2971 RMK T02800250 IEM_DS3505
ZGGG,2006-06-28 14:00,ZGGG 281400Z AUTO 08004KT 4SM 28/25 A2971 RMK T02800250 IEM_DS3505
ZGGG,2006-06-28 15:00,ZGGG 281500Z AUTO 11002KT 11SM 28/24 A2971 RMK SLP066 T02770243 52007 IEM_DS3505
ZGGG,2006-06-28 16:00,ZGGG 281600Z AUTO 06004KT 6SM 28/25 A2971 RMK T02800250 IEM_DS3505
ZGGG,2006-06-28 17:00,ZGGG 281700Z AUTO 10006KT 7SM 27/24 A2971 RMK T02700240 IEM_DS3505
ZGGG,2006-06-28 18:00,ZGGG 281800Z AUTO 11002KT 9SM 27/24 A2971 RMK SLP062 T02720241 57005 IEM_DS3505
ZGGG,2006-06-28 19:00,ZGGG 281900Z AUTO 08006KT 7SM 27/24 A2968 RMK T02700240 IEM_DS3505
ZGGG,2006-06-28 20:00,ZGGG 282000Z AUTO 08004KT 6SM 27/24 A2968 RMK T02700240 IEM_DS3505
ZGGG,2006-06-28 21:00,ZGGG 282100Z AUTO 11002KT 9SM 27/24 A2968 RMK 70023 SLP059 T02670242 57003 IEM_DS3505
ZGGG,2006-06-28 22:00,ZGGG 282200Z AUTO 07002KT 7SM 27/24 A2968 RMK T02700240 IEM_DS3505
ZGGG,2006-06-28 23:00,ZGGG 282300Z AUTO 09006KT 7SM 28/24 A2968 RMK T02800240 IEM_DS3505
ZGGG,2006-06-29 00:00,ZGGG 290000Z AUTO 18004KT 2SM 25/23 A2971 RMK 60063 70085 SLP067 T02530232 52008 IEM_DS3505
ZGGG,2006-06-29 01:00,ZGGG 290100Z AUTO 17006KT 4SM 26/24 A2971 RMK T02600240 IEM_DS3505
ZGGG,2006-06-29 02:00,ZGGG 290200Z AUTO 15008KT 7SM 31/25 A2971 RMK T03100250 IEM_DS3505
ZGGG,2006-06-29 03:00,ZGGG 290300Z AUTO 14008G19KT 12SM 30/24 A2971 RMK SLP070 T03020236 52004 IEM_DS3505
ZGGG,2006-06-29 04:00,ZGGG 290400Z AUTO 14012KT 7SM 32/23 A2971 RMK T03200230 IEM_DS3505
ZGGG,2006-06-29 05:00,ZGGG 290500Z AUTO 14010KT 7SM 32/24 A2971 RMK T03200240 IEM_DS3505
ZGGG,2006-06-29 06:00,ZGGG 290600Z AUTO 14008KT 16SM 32/24 A2968 RMK 60016 SLP060 T03230241 57010 IEM_DS3505
ZGGG,2006-06-29 07:00,ZGGG 290700Z AUTO 14012KT 7SM 32/23 A2968 RMK T03200230 IEM_DS3505
ZGGG,2006-06-29 08:00,ZGGG 290800Z AUTO 13010KT 7SM 33/24 A2968 RMK T03300240 IEM_DS3505
ZGGG,2006-06-29 09:00,ZGGG 290900Z AUTO 14010KT 17SM 32/24 A2968 RMK SLP058 T03200235 57002 IEM_DS3505
ZGGG,2006-06-29 10:00,ZGGG 291000Z AUTO 15012KT 7SM 32/23 A2968 RMK T03200230 IEM_DS3505
ZGGG,2006-06-29 11:00,ZGGG 291100Z AUTO 14008KT 7SM 31/23 A2971 RMK T03100230 IEM_DS3505
ZGGG,2006-06-29 12:00,ZGGG 291200Z AUTO 14008KT 11SM 29/24 A2971 RMK SLP074 T02940241 52015 IEM_DS3505
ZGGG,2006-06-29 13:00,ZGGG 291300Z AUTO 14004KT 6SM 29/24 A2974 RMK T02900240 IEM_DS3505
ZGGG,2006-06-29 14:00,ZGGG 291400Z AUTO 13004KT 7SM 29/24 A2977 RMK T02900240 IEM_DS3505
ZGGG,2006-06-29 15:00,ZGGG 291500Z AUTO 16002KT 10SM 27/24 A2977 RMK SLP089 T02670242 52015 IEM_DS3505
ZGGG,2006-06-29 16:00,ZGGG 291600Z AUTO 7SM 28/24 A2977 RMK T02800240 IEM_DS3505
ZGGG,2006-06-29 17:00,ZGGG 291700Z AUTO 09004KT 7SM 27/24 A2977 RMK T02700240 IEM_DS3505
ZGGG,2006-06-29 18:00,ZGGG 291800Z AUTO 14002KT 9SM 27/24 A2977 RMK 60024 SLP083 T02700241 57005 IEM_DS3505
ZGGG,2006-06-29 19:00,ZGGG 291900Z AUTO 10002KT 7SM 27/24 A2977 RMK T02700240 IEM_DS3505
ZGGG,2006-06-29 20:00,ZGGG 292000Z AUTO 08006KT 7SM 27/24 A2977 RMK T02700240 IEM_DS3505
ZGGG,2006-06-29 21:00,ZGGG 292100Z AUTO 11002KT 9SM 27/25 A2974 RMK 70106 SLP082 T02660246 57001 IEM_DS3505
ZGGG,2006-06-29 22:00,ZGGG 292200Z AUTO 09004KT 4SM 27/25 A2977 RMK T02700250 IEM_DS3505
ZGGG,2006-06-29 23:00,ZGGG 292300Z AUTO 08004KT 5SM 28/24 A2977 RMK T02800240 IEM_DS3505
ZGGG,2006-06-30 00:00,ZGGG 300000Z AUTO 14002KT 9SM 28/25 A2977 RMK 60001 70042 SLP092 T02820250 52009 IEM_DS3505
ZGGG,2006-06-30 01:00,ZGGG 300100Z AUTO 11006KT 7SM 30/24 A2980 RMK T03000240 IEM_DS3505
ZGGG,2006-06-30 02:00,ZGGG 300200Z AUTO 14010KT 7SM 31/24 A2980 RMK T03100240 IEM_DS3505
ZGGG,2006-06-30 03:00,ZGGG 300300Z AUTO 14006KT 12SM 31/24 A2980 RMK SLP092 T03120241 52001 IEM_DS3505
ZGGG,2006-06-30 04:00,ZGGG 300400Z AUTO 13010KT 7SM 33/24 A2977 RMK T03300240 IEM_DS3505
ZGGG,2006-06-30 05:00,ZGGG 300500Z AUTO 12008KT 7SM 27/24 A2980 RMK T02700240 IEM_DS3505
ZGGG,2006-06-30 06:00,ZGGG 300600Z AUTO 16002KT 10SM 28/25 A2977 RMK 60000 SLP085 T02770247 57008 IEM_DS3505
ZGGG,2006-06-30 07:00,ZGGG 300700Z AUTO 7SM 30/24 A2974 RMK T03000240 IEM_DS3505
ZGGG,2006-06-30 08:00,ZGGG 300800Z AUTO 7SM 32/24 A2974 RMK T03200240 IEM_DS3505
ZGGG,2006-06-30 09:00,ZGGG 300900Z AUTO 14004KT 8SM 32/25 A2971 RMK SLP067 T03170251 57017 IEM_DS3505
ZGGG,2006-06-30 10:00,ZGGG 301000Z AUTO 20004KT 7SM 32/24 A2971 RMK T03200240 IEM_DS3505
ZGGG,2006-06-30 11:00,ZGGG 301100Z AUTO 6SM 31/26 A2974 RMK T03100260 IEM_DS3505
ZGGG,2006-06-30 12:00,ZGGG 301200Z AUTO 14004KT 11SM 30/24 A2977 RMK SLP087 T03040238 52020 IEM_DS3505
ZGGG,2006-06-30 13:00,ZGGG 301300Z AUTO 11004KT 7SM 28/25 A2980 RMK T02800250 IEM_DS3505
ZGGG,2006-06-30 14:00,ZGGG 301400Z AUTO 10002KT 6SM 28/25 A2980 RMK T02800250 IEM_DS3505
ZGGG,2006-06-30 15:00,ZGGG 301500Z AUTO 14004KT 11SM 29/24 A2980 RMK SLP104 T02920241 52017 IEM_DS3505
ZGGG,2006-06-30 16:00,ZGGG 301600Z AUTO 09004KT 6SM 27/24 A2980 RMK T02700240 IEM_DS3505
ZGGG,2006-06-30 17:00,ZGGG 301700Z AUTO 10004KT 6SM 27/24 A2980 RMK T02700240 IEM_DS3505
ZGGG,2006-06-30 18:00,ZGGG 301800Z AUTO 09002KT 10SM 28/24 A2980 RMK SLP097 T02760242 57008 IEM_DS3505
ZGGG,2006-06-30 19:00,ZGGG 301900Z AUTO 08004KT 5SM 27/24 A2980 RMK T02700240 IEM_DS3505
ZGGG,2006-06-30 20:00,ZGGG 302000Z AUTO 09006KT 5SM 27/24 A2980 RMK T02700240 IEM_DS3505
ZGGG,2006-06-30 21:00,ZGGG 302100Z AUTO 09004KT 9SM 27/24 A2980 RMK 70001 SLP091 T02720243 57005 IEM_DS3505
ZGGG,2006-06-30 22:00,ZGGG 302200Z AUTO 00000KT 5SM 26/24 A2980 RMK T02600240 IEM_DS3505
ZGGG,2006-06-30 23:00,ZGGG 302300Z AUTO 07002KT 5SM 28/24 A2980 RMK T02800240 IEM_DS3505
ZGGG,2006-07-01 00:00,ZGGG 010000Z AUTO 07004KT 9SM 29/25 A2980 RMK 70001 SLP098 T02930248 52007 IEM_DS3505
ZGGG,2006-07-01 01:00,ZGGG 010100Z AUTO 11006KT 7SM 31/25 A2980 RMK T03100250 IEM_DS3505
ZGGG,2006-07-01 02:00,ZGGG 010200Z AUTO 11008KT 7SM 32/25 A2980 RMK T03200250 IEM_DS3505
ZGGG,2006-07-01 03:00,ZGGG 010300Z AUTO 18004KT 11SM 32/24 A2980 RMK SLP098 T03210244 54000 IEM_DS3505
ZGGG,2006-07-01 04:00,ZGGG 010400Z AUTO 16006KT 7SM 34/24 A2980 RMK T03400240 IEM_DS3505
ZGGG,2006-07-01 05:00,ZGGG 010500Z AUTO 16008KT 7SM 35/23 A2980 RMK T03500230 IEM_DS3505
ZGGG,2006-07-01 06:00,ZGGG 010600Z AUTO 20002KT 12SM 33/22 A2977 RMK SLP084 T03340225 57014 IEM_DS3505
ZGGG,2006-07-01 07:00,ZGGG 010700Z AUTO 10008KT 7SM 35/25 A2974 RMK T03500250 IEM_DS3505
ZGGG,2006-07-01 08:00,ZGGG 010800Z AUTO 15006KT 7SM 35/23 A2974 RMK T03500230 IEM_DS3505
ZGGG,2006-07-01 09:00,ZGGG 010900Z AUTO 16004KT 13SM 33/22 A2974 RMK SLP074 T03340222 57017 IEM_DS3505
ZGGG,2006-07-01 10:00,ZGGG 011000Z AUTO 11004KT 7SM 33/25 A2974 RMK T03300250 IEM_DS3505
ZGGG,2006-07-01 11:00,ZGGG 011100Z AUTO 12004KT 7SM 32/24 A2974 RMK T03200240 IEM_DS3505
ZGGG,2006-07-01 12:00,ZGGG 011200Z AUTO 16004KT 11SM 32/24 A2977 RMK SLP086 T03180239 52012 IEM_DS3505
ZGGG,2006-07-01 13:00,ZGGG 011300Z AUTO 12004KT 7SM 30/25 A2980 RMK T03000250 IEM_DS3505
ZGGG,2006-07-01 14:00,ZGGG 011400Z AUTO 15006KT 7SM 30/25 A2980 RMK T03000250 IEM_DS3505
ZGGG,2006-07-01 15:00,ZGGG 011500Z AUTO 16004KT 11SM 30/25 A2980 RMK SLP099 T02970246 52013 IEM_DS3505
ZGGG,2006-07-01 16:00,ZGGG 011600Z AUTO 06004KT 4SM 28/25 A2980 RMK T02800250 IEM_DS3505
ZGGG,2006-07-01 17:00,ZGGG 011700Z AUTO 06004KT 4SM 27/24 A2980 RMK T02700240 IEM_DS3505
ZGGG,2006-07-01 18:00,ZGGG 011800Z AUTO 11002KT 10SM 28/24 A2980 RMK SLP091 T02830243 57008 IEM_DS3505
ZGGG,2006-07-01 19:00,ZGGG 011900Z AUTO 4SM 27/24 A2977 RMK T02700240 IEM_DS3505
ZGGG,2006-07-01 20:00,ZGGG 012000Z AUTO 07002KT 3SM 27/24 A2977 RMK T02700240 IEM_DS3505
ZGGG,2006-07-01 21:00,ZGGG 012100Z AUTO 09002KT 9SM 27/24 A2977 RMK SLP087 T02710240 57004 IEM_DS3505
ZGGG,2006-07-01 22:00,ZGGG 012200Z AUTO 09002KT 5SM 26/24 A2977 RMK T02600240 IEM_DS3505
ZGGG,2006-07-01 23:00,ZGGG 012300Z AUTO 06002KT 5SM 28/25 A2977 RMK T02800250 IEM_DS3505
ZGGG,2006-07-02 00:00,ZGGG 020000Z AUTO 11004KT 11SM 29/24 A2980 RMK SLP095 T02920243 52008 IEM_DS3505
ZGGG,2006-07-02 01:00,ZGGG 020100Z AUTO 05006KT 7SM 31/24 A2980 RMK T03100240 IEM_DS3505
ZGGG,2006-07-02 02:00,ZGGG 020200Z AUTO 12006KT 7SM 32/25 A2980 RMK T03200250 IEM_DS3505
ZGGG,2006-07-02 03:00,ZGGG 020300Z AUTO 09002KT 14SM 33/24 A2980 RMK SLP096 T03270245 52001 IEM_DS3505
ZGGG,2006-07-02 04:00,ZGGG 020400Z AUTO 10004KT 7SM 34/24 A2980 RMK T03400240 IEM_DS3505
ZGGG,2006-07-02 05:00,ZGGG 020500Z AUTO 10006KT 7SM 34/25 A2977 RMK T03400250 IEM_DS3505
ZGGG,2006-07-02 06:00,ZGGG 020600Z AUTO 11006KT 13SM 31/25 A2977 RMK SLP086 T03110247 57010 IEM_DS3505
ZGGG,2006-07-02 07:00,ZGGG 020700Z AUTO 14006KT 7SM 33/26 A2974 RMK T03300260 IEM_DS3505
ZGGG,2006-07-02 08:00,ZGGG 020800Z AUTO 12006KT 7SM 33/25 A2974 RMK T03300250 IEM_DS3505
ZGGG,2006-07-02 09:00,ZGGG 020900Z AUTO 14002KT 13SM 34/24 A2974 RMK SLP070 T03360236 57016 IEM_DS3505
ZGGG,2006-07-02 10:00,ZGGG 021000Z AUTO 13006KT 7SM 33/24 A2971 RMK T03300240 IEM_DS3505
ZGGG,2006-07-02 11:00,ZGGG 021100Z AUTO 14004KT 6SM 32/25 A2971 RMK T03200250 IEM_DS3505
ZGGG,2006-07-02 12:00,ZGGG 021200Z AUTO 14004KT 13SM 31/24 A2974 RMK SLP078 T03090236 52008 IEM_DS3505
ZGGG,2006-07-02 13:00,ZGGG 021300Z AUTO 12004KT 4SM 29/25 A2974 RMK T02900250 IEM_DS3505
ZGGG,2006-07-02 14:00,ZGGG 021400Z AUTO 04004KT 6SM 29/25 A2977 RMK T02900250 IEM_DS3505
ZGGG,2006-07-02 15:00,ZGGG 021500Z AUTO 14002KT 12SM 29/24 A2977 RMK SLP091 T02930242 52013 IEM_DS3505
ZGGG,2006-07-02 16:00,ZGGG 021600Z AUTO 08004KT 6SM 28/25 A2977 RMK T02800250 IEM_DS3505
ZGGG,2006-07-02 17:00,ZGGG 021700Z AUTO 06004KT 6SM 28/25 A2977 RMK T02800250 IEM_DS3505
ZGGG,2006-07-02 18:00,ZGGG 021800Z AUTO 04002KT 11SM 28/24 A2974 RMK SLP080 T02790243 57011 IEM_DS3505
ZGGG,2006-07-02 19:00,ZGGG 021900Z AUTO 05002KT 4SM 27/25 A2974 RMK T02700250 IEM_DS3505
ZGGG,2006-07-02 20:00,ZGGG 022000Z AUTO 08004KT 4SM 27/24 A2974 RMK T02700240 IEM_DS3505
ZGGG,2006-07-02 21:00,ZGGG 022100Z AUTO 11002KT 9SM 27/25 A2974 RMK SLP075 T02710246 57005 IEM_DS3505
ZGGG,2006-07-02 22:00,ZGGG 022200Z AUTO 4SM 27/24 A2974 RMK T02700240 IEM_DS3505
ZGGG,2006-07-02 23:00,ZGGG 022300Z AUTO 4SM 28/25 A2974 RMK T02800250 IEM_DS3505
ZGGG,2006-07-03 00:00,ZGGG 030000Z AUTO 09004KT 9SM 29/25 A2977 RMK SLP085 T02940252 52010 IEM_DS3505
ZGGG,2006-07-03 01:00,ZGGG 030100Z AUTO 11006KT 7SM 31/24 A2977 RMK T03100240 IEM_DS3505
ZGGG,2006-07-03 02:00,ZGGG 030200Z AUTO 11006KT 7SM 32/24 A2977 RMK T03200240 IEM_DS3505
ZGGG,2006-07-03 03:00,ZGGG 030300Z AUTO 18006KT 13SM 33/24 A2974 RMK SLP081 T03260244 57004 IEM_DS3505
ZGGG,2006-07-03 04:00,ZGGG 030400Z AUTO 12008KT 7SM 34/24 A2974 RMK T03400240 IEM_DS3505
ZGGG,2006-07-03 05:00,ZGGG 030500Z AUTO 15010KT 7SM 35/23 A2971 RMK T03500230 IEM_DS3505
ZGGG,2006-07-03 06:00,ZGGG 030600Z AUTO 14010KT 14SM 34/22 A2971 RMK SLP066 T03410225 57015 IEM_DS3505
ZGGG,2006-07-03 07:00,ZGGG 030700Z AUTO 16010KT 7SM 36/23 A2968 RMK T03600230 IEM_DS3505
ZGGG,2006-07-03 08:00,ZGGG 030800Z AUTO 14012KT 7SM 34/23 A2968 RMK T03400230 IEM_DS3505
ZGGG,2006-07-03 09:00,ZGGG 030900Z AUTO 16006KT 15SM 34/22 A2968 RMK SLP055 T03400224 57011 IEM_DS3505
ZGGG,2006-07-03 10:00,ZGGG 031000Z AUTO 13010KT 7SM 34/23 A2968 RMK T03400230 IEM_DS3505
ZGGG,2006-07-03 11:00,ZGGG 031100Z AUTO 12006KT 7SM 32/24 A2968 RMK T03200240 IEM_DS3505
ZGGG,2006-07-03 12:00,ZGGG 031200Z AUTO 11004KT 12SM 30/24 A2971 RMK SLP065 T03010235 52010 IEM_DS3505
ZGGG,2006-07-03 13:00,ZGGG 031300Z AUTO 11004KT 6SM 29/23 A2971 RMK T02900230 IEM_DS3505
ZGGG,2006-07-03 14:00,ZGGG 031400Z AUTO 14004KT 6SM 30/23 A2971 RMK T03000230 IEM_DS3505
ZGGG,2006-07-03 15:00,ZGGG 031500Z AUTO 11004KT 12SM 30/24 A2974 RMK SLP071 T02950241 52006 IEM_DS3505
ZGGG,2006-07-03 16:00,ZGGG 031600Z AUTO 5SM 28/24 A2971 RMK T02800240 IEM_DS3505
ZGGG,2006-07-03 17:00,ZGGG 031700Z AUTO 6SM 28/24 A2968 RMK T02800240 IEM_DS3505
ZGGG,2006-07-03 18:00,ZGGG 031800Z AUTO 09002KT 12SM 29/25 A2968 RMK SLP057 T02870247 57014 IEM_DS3505
ZGGG,2006-07-03 19:00,ZGGG 031900Z AUTO 07004KT 7SM 28/24 A2968 RMK T02800240 IEM_DS3505
ZGGG,2006-07-03 20:00,ZGGG 032000Z AUTO 10004KT 4SM 28/25 A2968 RMK T02800250 IEM_DS3505
ZGGG,2006-07-03 21:00,ZGGG 032100Z AUTO 09002KT 10SM 27/25 A2965 RMK 70004 SLP053 T02720247 57004 IEM_DS3505
ZGGG,2006-07-03 22:00,ZGGG 032200Z AUTO 01002KT 7SM 27/25 A2968 RMK T02700250 IEM_DS3505
ZGGG,2006-07-03 23:00,ZGGG 032300Z AUTO 08006KT 7SM 28/24 A2968 RMK T02800240 IEM_DS3505
ZGGG,2006-07-04 00:00,ZGGG 040000Z AUTO 09002KT 8SM 28/25 A2968 RMK 60004 70004 SLP058 T02850253 52005 IEM_DS3505
ZGGG,2006-07-04 01:00,ZGGG 040100Z AUTO 10004KT 7SM 29/25 A2968 RMK T02900250 IEM_DS3505
ZGGG,2006-07-04 02:00,ZGGG 040200Z AUTO 2SM 27/25 A2968 RMK T02700250 IEM_DS3505
ZGGG,2006-07-04 03:00,ZGGG 040300Z AUTO 14002KT 10SM 27/25 A2971 RMK SLP064 T02740254 52006 IEM_DS3505
ZGGG,2006-07-04 04:00,ZGGG 040400Z AUTO 15004KT 7SM 29/26 A2971 RMK T02900260 IEM_DS3505
ZGGG,2006-07-04 05:00,ZGGG 040500Z AUTO 16006KT 7SM 30/25 A2968 RMK T03000250 IEM_DS3505
ZGGG,2006-07-04 06:00,ZGGG 040600Z AUTO 18004KT 12SM 32/25 A2968 RMK 60059 SLP053 T03170251 57011 IEM_DS3505
ZGGG,2006-07-04 07:00,ZGGG 040700Z AUTO 15004KT 7SM 32/25 A2965 RMK T03200250 IEM_DS3505
ZGGG,2006-07-04 08:00,ZGGG 040800Z AUTO 14004KT 7SM 32/25 A2962 RMK T03200250 IEM_DS3505
ZGGG,2006-07-04 09:00,ZGGG 040900Z AUTO 14004KT 14SM 33/25 A2962 RMK SLP037 T03310248 57016 IEM_DS3505
ZGGG,2006-07-04 10:00,ZGGG 041000Z AUTO 14006KT 7SM 32/25 A2962 RMK T03200250 IEM_DS3505
ZGGG,2006-07-04 11:00,ZGGG 041100Z AUTO 16004KT 7SM 31/25 A2965 RMK T03100250 IEM_DS3505
ZGGG,2006-07-04 12:00,ZGGG 041200Z AUTO 14006KT 12SM 30/25 A2968 RMK SLP054 T02990248 52017 IEM_DS3505
ZGGG,2006-07-04 13:00,ZGGG 041300Z AUTO 14004KT 7SM 30/25 A2968 RMK T03000250 IEM_DS3505
ZGGG,2006-07-04 14:00,ZGGG 041400Z AUTO 14004KT 7SM 29/25 A2971 RMK T02900250 IEM_DS3505
ZGGG,2006-07-04 15:00,ZGGG 041500Z AUTO 11004KT 11SM 29/24 A2971 RMK SLP070 T02890245 52015 IEM_DS3505
ZGGG,2006-07-04 16:00,ZGGG 041600Z AUTO 10002KT 6SM 28/25 A2971 RMK T02800250 IEM_DS3505
ZGGG,2006-07-04 17:00,ZGGG 041700Z AUTO 10004KT 6SM 27/25 A2968 RMK T02700250 IEM_DS3505
ZGGG,2006-07-04 18:00,ZGGG 041800Z AUTO 14006KT 10SM 29/25 A2968 RMK SLP056 T02860248 57013 IEM_DS3505
ZGGG,2006-07-04 19:00,ZGGG 041900Z AUTO 03002KT 7SM 28/25 A2968 RMK T02800250 IEM_DS3505
ZGGG,2006-07-04 20:00,ZGGG 042000Z AUTO 08004KT 4SM 27/24 A2968 RMK T02700240 IEM_DS3505
ZGGG,2006-07-04 21:00,ZGGG 042100Z AUTO 14002KT 10SM 28/25 A2968 RMK 70060 SLP055 T02820250 57001 IEM_DS3505
ZGGG,2006-07-04 22:00,ZGGG 042200Z AUTO 10004KT 2 1/2SM 27/25 A2968 RMK T02700250 IEM_DS3505
ZGGG,2006-07-04 23:00,ZGGG 042300Z AUTO 09002KT 2 1/2SM 27/25 A2971 RMK T02700250 IEM_DS3505
ZGGG,2006-07-05 00:00,ZGGG 050000Z AUTO 11002KT 11SM 30/25 A2971 RMK 60000 70061 SLP066 T02970250 52011 IEM_DS3505
ZGGG,2006-07-05 01:00,ZGGG 050100Z AUTO 10004KT 7SM 31/25 A2971 RMK T03100250 IEM_DS3505
ZGGG,2006-07-05 02:00,ZGGG 050200Z AUTO 18008KT 7SM 32/25 A2971 RMK T03200250 IEM_DS3505
ZGGG,2006-07-05 03:00,ZGGG 050300Z AUTO 14004KT 11SM 34/24 A2968 RMK SLP057 T03360236 57009 IEM_DS3505
ZGGG,2006-07-05 04:00,ZGGG 050400Z AUTO 21006KT 7SM 35/24 A2968 RMK T03500240 IEM_DS3505
ZGGG,2006-07-05 05:00,ZGGG 050500Z AUTO 18006KT 7SM 34/24 A2965 RMK T03400240 IEM_DS3505
ZGGG,2006-07-05 06:00,ZGGG 050600Z AUTO 18004KT 15SM 33/23 A2965 RMK SLP044 T03320226 57013 IEM_DS3505
ZGGG,2006-07-05 07:00,ZGGG 050700Z AUTO 22010KT 7SM 32/24 A2962 RMK T03200240 IEM_DS3505
ZGGG,2006-07-05 08:00,ZGGG 050800Z AUTO 14004KT 7SM 34/23 A2959 RMK T03400230 IEM_DS3505
ZGGG,2006-07-05 09:00,ZGGG 050900Z AUTO 14006KT 11SM 32/25 A2959 RMK SLP026 T03200253 57018 IEM_DS3505
ZGGG,2006-07-05 10:00,ZGGG 051000Z AUTO 17004KT 4SM 28/25 A2962 RMK T02800250 IEM_DS3505
ZGGG,2006-07-05 11:00,ZGGG 051100Z AUTO 13002KT 4SM 29/26 A2959 RMK T02900260 IEM_DS3505
ZGGG,2006-07-05 12:00,ZGGG 051200Z AUTO 14006KT 11SM 30/26 A2962 RMK SLP038 T03030256 52012 IEM_DS3505
ZGGG,2006-07-05 13:00,ZGGG 051300Z AUTO 13006KT 5SM 29/26 A2965 RMK T02900260 IEM_DS3505
ZGGG,2006-07-05 14:00,ZGGG 051400Z AUTO 14004KT 5SM 29/26 A2965 RMK T02900260 IEM_DS3505
ZGGG,2006-07-05 15:00,ZGGG 051500Z AUTO 14004KT 11SM 29/24 A2965 RMK SLP049 T02940245 52011 IEM_DS3505
ZGGG,2006-07-05 16:00,ZGGG 051600Z AUTO 10002KT 5SM 28/25 A2965 RMK T02800250 IEM_DS3505
ZGGG,2006-07-05 17:00,ZGGG 051700Z AUTO 14004KT 5SM 28/25 A2965 RMK T02800250 IEM_DS3505
ZGGG,2006-07-05 18:00,ZGGG 051800Z AUTO 22002KT 11SM 29/25 A2965 RMK SLP042 T02890247 57007 IEM_DS3505
ZGGG,2006-07-05 19:00,ZGGG 051900Z AUTO 21004KT 4SM 28/25 A2962 RMK T02800250 IEM_DS3505
ZGGG,2006-07-05 20:00,ZGGG 052000Z AUTO 19004KT 4SM 28/25 A2962 RMK T02800250 IEM_DS3505
ZGGG,2006-07-05 21:00,ZGGG 052100Z AUTO 25002KT 10SM 28/25 A2962 RMK 70001 SLP037 T02830247 57005 IEM_DS3505
ZGGG,2006-07-05 22:00,ZGGG 052200Z AUTO 09002KT 4SM 27/25 A2962 RMK T02700250 IEM_DS3505
ZGGG,2006-07-05 23:00,ZGGG 052300Z AUTO 08004KT 4SM 28/25 A2965 RMK T02800250 IEM_DS3505
ZGGG,2006-07-06 00:00,ZGGG 060000Z AUTO 16002KT 11SM 30/25 A2965 RMK 70000 SLP045 T03010247 52008 IEM_DS3505
ZGGG,2006-07-06 01:00,ZGGG 060100Z AUTO 17002KT 7SM 31/25 A2965 RMK T03100250 IEM_DS3505
ZGGG,2006-07-06 02:00,ZGGG 060200Z AUTO 25004KT 7SM 32/25 A2965 RMK T03200250 IEM_DS3505
ZGGG,2006-07-06 03:00,ZGGG 060300Z AUTO 16002KT 11SM 33/24 A2962 RMK SLP042 T03320241 57003 IEM_DS3505
ZGGG,2006-07-06 04:00,ZGGG 060400Z AUTO 24004KT 7SM 33/23 A2962 RMK T03300230 IEM_DS3505
ZGGG,2006-07-06 05:00,ZGGG 060500Z AUTO 22006KT 7SM 33/23 A2959 RMK T03300230 IEM_DS3505
ZGGG,2006-07-06 06:00,ZGGG 060600Z AUTO 16004KT 11SM 34/24 A2956 RMK SLP021 T03380238 57021 IEM_DS3505
ZGGG,2006-07-06 07:00,ZGGG 060700Z AUTO 22010KT 7SM 34/23 A2956 RMK T03400230 IEM_DS3505
ZGGG,2006-07-06 08:00,ZGGG 060800Z AUTO 28006KT 7SM 34/24 A2953 RMK T03400240 IEM_DS3505
ZGGG,2006-07-06 09:00,ZGGG 060900Z AUTO 16004KT 10SM 33/24 A2953 RMK SLP009 T03330242 57012 IEM_DS3505
ZGGG,2006-07-06 10:00,ZGGG 061000Z AUTO 10004KT 4SM 32/26 A2953 RMK T03200260 IEM_DS3505
ZGGG,2006-07-06 11:00,ZGGG 061100Z AUTO 10004KT 5SM 29/25 A2956 RMK T02900250 IEM_DS3505
ZGGG,2006-07-06 12:00,ZGGG 061200Z AUTO 32002KT 9SM 28/26 A2956 RMK 60134 SLP020 T02820264 52011 IEM_DS3505
ZGGG,2006-07-06 13:00,ZGGG 061300Z AUTO 4SM 29/26 A2959 RMK T02900260 IEM_DS3505
ZGGG,2006-07-06 14:00,ZGGG 061400Z AUTO 4SM 28/26 A2962 RMK T02800260 IEM_DS3505
ZGGG,2006-07-06 15:00,ZGGG 061500Z AUTO 16002KT 10SM 29/25 A2962 RMK SLP035 T02920254 52015 IEM_DS3505
ZGGG,2006-07-06 16:00,ZGGG 061600Z AUTO 12004KT 3SM 29/26 A2962 RMK T02900260 IEM_DS3505
ZGGG,2006-07-06 17:00,ZGGG 061700Z AUTO 07004KT 4SM 28/26 A2959 RMK T02800260 IEM_DS3505
ZGGG,2006-07-06 18:00,ZGGG 061800Z AUTO 14004KT 9SM 29/25 A2959 RMK 60000 SLP028 T02880250 57007 IEM_DS3505
ZGGG,2006-07-06 19:00,ZGGG 061900Z AUTO 22008KT 5SM 29/25 A2959 RMK T02900250 IEM_DS3505
ZGGG,2006-07-06 20:00,ZGGG 062000Z AUTO 10002KT 5SM 28/26 A2959 RMK T02800260 IEM_DS3505
ZGGG,2006-07-06 21:00,ZGGG 062100Z AUTO 16004KT 9SM 28/25 A2959 RMK 70134 SLP023 T02840248 57005 IEM_DS3505
ZGGG,2006-07-06 22:00,ZGGG 062200Z AUTO 00000KT 3SM 28/25 A2959 RMK T02800250 IEM_DS3505
ZGGG,2006-07-06 23:00,ZGGG 062300Z AUTO 3SM 28/25 A2959 RMK T02800250 IEM_DS3505
ZGGG,2006-07-07 00:00,ZGGG 070000Z AUTO 16002KT 6SM 30/26 A2959 RMK 70134 SLP029 T02990256 52006 IEM_DS3505
ZGGG,2006-07-07 01:00,ZGGG 070100Z AUTO 12004KT 4SM 31/25 A2959 RMK T03100250 IEM_DS3505
ZGGG,2006-07-07 02:00,ZGGG 070200Z AUTO 22008KT 5SM 32/25 A2959 RMK T03200250 IEM_DS3505
ZGGG,2006-07-07 03:00,ZGGG 070300Z AUTO 18002KT 9SM 33/25 A2959 RMK SLP022 T03310248 57007 IEM_DS3505
ZGGG,2006-07-07 04:00,ZGGG 070400Z AUTO 22006KT 7SM 35/24 A2956 RMK T03500240 IEM_DS3505
ZGGG,2006-07-07 05:00,ZGGG 070500Z AUTO 22008KT 7SM 35/24 A2953 RMK T03500240 IEM_DS3505
ZGGG,2006-07-07 06:00,ZGGG 070600Z AUTO 20004G23KT 7SM 30/22 A2953 RMK 60000 SLP009 T03030217 57013 IEM_DS3505
ZGGG,2006-07-07 07:00,ZGGG 070700Z AUTO 11004KT 7SM 29/26 A2950 RMK T02900260 IEM_DS3505
ZGGG,2006-07-07 08:00,ZGGG 070800Z AUTO 11006KT 6SM 30/23 A2950 RMK T03000230 IEM_DS3505
ZGGG,2006-07-07 09:00,ZGGG 070900Z AUTO 14006KT 9SM 29/25 A2950 RMK SLP996 T02940247 57013 IEM_DS3505
ZGGG,2006-07-07 10:00,ZGGG 071000Z AUTO 12004KT 6SM 30/25 A2950 RMK T03000250 IEM_DS3505
ZGGG,2006-07-07 11:00,ZGGG 071100Z AUTO 08004KT 4SM 29/25 A2950 RMK T02900250 IEM_DS3505
ZGGG,2006-07-07 12:00,ZGGG 071200Z AUTO 16002KT 9SM 29/25 A2953 RMK 60000 SLP007 T02920252 52011 IEM_DS3505
ZGGG,2006-07-07 13:00,ZGGG 071300Z AUTO 07004KT 3SM 28/25 A2956 RMK T02800250 IEM_DS3505
ZGGG,2006-07-07 14:00,ZGGG 071400Z AUTO 10004KT 3SM 28/25 A2956 RMK T02800250 IEM_DS3505
ZGGG,2006-07-07 15:00,ZGGG 071500Z AUTO 14002KT 10SM 29/25 A2956 RMK SLP021 T02920252 52014 IEM_DS3505
ZGGG,2006-07-07 16:00,ZGGG 071600Z AUTO 4SM 28/26 A2956 RMK T02800260 IEM_DS3505
ZGGG,2006-07-07 17:00,ZGGG 071700Z AUTO 00000KT 4SM 27/25 A2956 RMK T02700250 IEM_DS3505
ZGGG,2006-07-07 18:00,ZGGG 071800Z AUTO 16002KT 9SM 28/25 A2953 RMK SLP008 T02840252 57013 IEM_DS3505
ZGGG,2006-07-07 19:00,ZGGG 071900Z AUTO 10002KT 4SM 27/25 A2953 RMK T02700250 IEM_DS3505
ZGGG,2006-07-07 20:00,ZGGG 072000Z AUTO 10002KT 4SM 27/25 A2953 RMK T02700250 IEM_DS3505
ZGGG,2006-07-07 21:00,ZGGG 072100Z AUTO 14002KT 8SM 28/25 A2953 RMK 70000 SLP007 T02800254 57001 IEM_DS3505
ZGGG,2006-07-07 22:00,ZGGG 072200Z AUTO 06002KT 4SM 27/25 A2953 RMK T02700250 IEM_DS3505
ZGGG,2006-07-07 23:00,ZGGG 072300Z AUTO 4SM 28/25 A2953 RMK T02800250 IEM_DS3505
ZGGG,2006-07-08 00:00,ZGGG 080000Z AUTO 11004KT 6SM 29/26 A2956 RMK 70000 SLP014 T02940258 52007 IEM_DS3505
ZGGG,2006-07-08 01:00,ZGGG 080100Z AUTO 3SM 30/25 A2956 RMK T03000250 IEM_DS3505
ZGGG,2006-07-08 02:00,ZGGG 080200Z AUTO 21008KT 4SM 33/24 A2953 RMK T03300240 IEM_DS3505
ZGGG,2006-07-08 03:00,ZGGG 080300Z AUTO 25004G19KT 10SM 34/24 A2953 RMK SLP010 T03350241 57004 IEM_DS3505
ZGGG,2006-07-08 04:00,ZGGG 080400Z AUTO 20008KT 5SM 34/24 A2953 RMK T03400240 IEM_DS3505
ZGGG,2006-07-08 05:00,ZGGG 080500Z AUTO 22008KT 7SM 36/24 A2950 RMK T03600240 IEM_DS3505
ZGGG,2006-07-08 06:00,ZGGG 080600Z AUTO 20002KT 10SM 34/24 A2947 RMK SLP988 T03450241 57022 IEM_DS3505
ZGGG,2006-07-08 07:00,ZGGG 080700Z AUTO 23006G16KT 7SM 37/23 A2944 RMK T03700230 IEM_DS3505
ZGGG,2006-07-08 08:00,ZGGG 080800Z AUTO 20006KT 7SM 36/22 A2944 RMK T03600220 IEM_DS3505
ZGGG,2006-07-08 09:00,ZGGG 080900Z AUTO 14004KT 11SM 33/25 A2944 RMK SLP978 T03290254 57010 IEM_DS3505
ZGGG,2006-07-08 10:00,ZGGG 081000Z AUTO 16008KT 7SM 33/25 A2944 RMK T03300250 IEM_DS3505
ZGGG,2006-07-08 11:00,ZGGG 081100Z AUTO 15008KT 7SM 31/25 A2947 RMK T03100250 IEM_DS3505
ZGGG,2006-07-08 12:00,ZGGG 081200Z AUTO 14006KT 10SM 31/25 A2950 RMK SLP998 T03070253 52020 IEM_DS3505
ZGGG,2006-07-08 13:00,ZGGG 081300Z AUTO 11004KT 6SM 30/26 A2953 RMK T03000260 IEM_DS3505
ZGGG,2006-07-08 14:00,ZGGG 081400Z AUTO 09006KT 7SM 29/26 A2953 RMK T02900260 IEM_DS3505
ZGGG,2006-07-08 15:00,ZGGG 081500Z AUTO 16002KT 10SM 30/25 A2953 RMK SLP008 T03030254 52010 IEM_DS3505
ZGGG,2006-07-08 16:00,ZGGG 081600Z AUTO 00000KT 7SM 29/25 A2953 RMK T02900250 IEM_DS3505
ZGGG,2006-07-08 17:00,ZGGG 081700Z AUTO 4SM 29/26 A2950 RMK T02900260 IEM_DS3505
ZGGG,2006-07-08 18:00,ZGGG 081800Z AUTO 16002KT 9SM 30/26 A2950 RMK SLP997 T02960258 57011 IEM_DS3505
ZGGG,2006-07-08 19:00,ZGGG 081900Z AUTO 20004KT 5SM 29/25 A2950 RMK T02900250 IEM_DS3505
ZGGG,2006-07-08 20:00,ZGGG 082000Z AUTO 5SM 29/25 A2947 RMK T02900250 IEM_DS3505
ZGGG,2006-07-08 21:00,ZGGG 082100Z AUTO 14002KT 9SM 29/25 A2947 RMK SLP993 T02920254 57004 IEM_DS3505
ZGGG,2006-07-08 22:00,ZGGG 082200Z AUTO 00000KT 5SM 29/25 A2950 RMK T02900250 IEM_DS3505
ZGGG,2006-07-08 23:00,ZGGG 082300Z AUTO 5SM 29/26 A2950 RMK T02900260 IEM_DS3505
ZGGG,2006-07-09 00:00,ZGGG 090000Z AUTO 14004KT 7SM 30/26 A2953 RMK SLP006 T02960258 52013 IEM_DS3505
ZGGG,2006-07-09 01:00,ZGGG 090100Z AUTO 13004KT 3SM 31/26 A2953 RMK T03100260 IEM_DS3505
ZGGG,2006-07-09 02:00,ZGGG 090200Z AUTO 15004KT 4SM 32/25 A2953 RMK T03200250 IEM_DS3505
ZGGG,2006-07-09 03:00,ZGGG 090300Z AUTO 20004KT 11SM 34/24 A2953 RMK SLP003 T03380241 57003 IEM_DS3505
ZGGG,2006-07-09 04:00,ZGGG 090400Z AUTO 23006KT 5SM 34/24 A2950 RMK T03400240 IEM_DS3505
ZGGG,2006-07-09 05:00,ZGGG 090500Z AUTO 19006KT 6SM 34/24 A2947 RMK T03400240 IEM_DS3505
ZGGG,2006-07-09 06:00,ZGGG 090600Z AUTO 14006KT 10SM 33/25 A2947 RMK SLP986 T03330250 57017 IEM_DS3505
ZGGG,2006-07-09 07:00,ZGGG 090700Z AUTO 16006KT 4SM 32/26 A2944 RMK T03200260 IEM_DS3505
ZGGG,2006-07-09 08:00,ZGGG 090800Z AUTO 15004KT 2SM 32/26 A2944 RMK T03200260 IEM_DS3505
ZGGG,2006-07-09 09:00,ZGGG 090900Z AUTO 14006KT 10SM 32/26 A2944 RMK SLP973 T03160255 57013 IEM_DS3505
ZGGG,2006-07-09 10:00,ZGGG 091000Z AUTO 10006KT 3SM 29/26 A2944 RMK T02900260 IEM_DS3505
ZGGG,2006-07-09 11:00,ZGGG 091100Z AUTO 12006KT 4SM 30/26 A2947 RMK T03000260 IEM_DS3505
ZGGG,2006-07-09 12:00,ZGGG 091200Z AUTO 14006KT 10SM 30/26 A2950 RMK 60003 SLP994 T03050260 52021 IEM_DS3505
ZGGG,2006-07-09 13:00,ZGGG 091300Z AUTO 12006KT 5SM 30/26 A2950 RMK T03000260 IEM_DS3505
ZGGG,2006-07-09 14:00,ZGGG 091400Z AUTO 12006KT 5SM 30/26 A2950 RMK T03000260 IEM_DS3505
ZGGG,2006-07-09 15:00,ZGGG 091500Z AUTO 14004KT 11SM 30/25 A2953 RMK SLP007 T02970254 52013 IEM_DS3505
ZGGG,2006-07-09 16:00,ZGGG 091600Z AUTO 13004KT 4SM 29/26 A2953 RMK T02900260 IEM_DS3505
ZGGG,2006-07-09 17:00,ZGGG 091700Z AUTO 13004KT 5SM 29/25 A2950 RMK T02900250 IEM_DS3505
ZGGG,2006-07-09 18:00,ZGGG 091800Z AUTO 14004KT 9SM 29/25 A2950 RMK SLP001 T02940254 57006 IEM_DS3505
ZGGG,2006-07-09 19:00,ZGGG 091900Z AUTO 15004KT 4SM 29/26 A2950 RMK T02900260 IEM_DS3505
ZGGG,2006-07-09 20:00,ZGGG 092000Z AUTO 00000KT 4SM 28/25 A2950 RMK T02800250 IEM_DS3505
ZGGG,2006-07-09 21:00,ZGGG 092100Z AUTO 14004KT 10SM 29/26 A2950 RMK 70003 SLP001 T02920256 54000 IEM_DS3505
ZGGG,2006-07-09 22:00,ZGGG 092200Z AUTO 07002KT 3SM 28/26 A2953 RMK T02800260 IEM_DS3505
ZGGG,2006-07-09 23:00,ZGGG 092300Z AUTO 09002KT 3SM 29/26 A2953 RMK T02900260 IEM_DS3505
ZGGG,2006-07-10 00:00,ZGGG 100000Z AUTO 14002KT 11SM 30/24 A2956 RMK 70003 SLP013 T02980244 52012 IEM_DS3505
ZGGG,2006-07-10 01:00,ZGGG 100100Z AUTO 16004KT 4SM 31/25 A2956 RMK T03100250 IEM_DS3505
ZGGG,2006-07-10 02:00,ZGGG 100200Z AUTO 14004KT 5SM 32/24 A2956 RMK T03200240 IEM_DS3505
ZGGG,2006-07-10 03:00,ZGGG 100300Z AUTO 14004KT 10SM 32/25 A2956 RMK SLP014 T03230254 52001 IEM_DS3505
ZGGG,2006-07-10 04:00,ZGGG 100400Z AUTO 18006KT 5SM 34/24 A2953 RMK T03400240 IEM_DS3505
ZGGG,2006-07-10 05:00,ZGGG 100500Z AUTO 13006KT 5SM 33/26 A2953 RMK T03300260 IEM_DS3505
ZGGG,2006-07-10 06:00,ZGGG 100600Z AUTO 16004KT 13SM 33/24 A2953 RMK 60002 SLP008 T03300245 57006 IEM_DS3505
ZGGG,2006-07-10 07:00,ZGGG 100700Z AUTO 15010KT 7SM 33/24 A2950 RMK T03300240 IEM_DS3505
ZGGG,2006-07-10 08:00,ZGGG 100800Z AUTO 13010KT 7SM 32/25 A2950 RMK T03200250 IEM_DS3505
ZGGG,2006-07-10 09:00,ZGGG 100900Z AUTO 14004KT 9SM 31/26 A2950 RMK SLP997 T03130263 57011 IEM_DS3505
ZGGG,2006-07-10 10:00,ZGGG 101000Z AUTO 10004KT 2 1/2SM 30/26 A2950 RMK T03000260 IEM_DS3505
ZGGG,2006-07-10 11:00,ZGGG 101100Z AUTO 09004KT 2 1/2SM 28/26 A2953 RMK T02800260 IEM_DS3505
ZGGG,2006-07-10 12:00,ZGGG 101200Z AUTO 14006KT 8SM 30/26 A2953 RMK SLP013 T03030262 52016 IEM_DS3505
ZGGG,2006-07-10 13:00,ZGGG 101300Z AUTO 09004KT 3SM 29/26 A2956 RMK T02900260 IEM_DS3505
ZGGG,2006-07-10 14:00,ZGGG 101400Z AUTO 09004KT 3SM 29/26 A2959 RMK T02900260 IEM_DS3505
ZGGG,2006-07-10 15:00,ZGGG 101500Z AUTO 14006KT 9SM 30/26 A2959 RMK SLP027 T02960264 52014 IEM_DS3505
ZGGG,2006-07-10 16:00,ZGGG 101600Z AUTO 09004KT 3SM 28/25 A2959 RMK T02800250 IEM_DS3505
ZGGG,2006-07-10 17:00,ZGGG 101700Z AUTO 12004KT 3SM 29/26 A2959 RMK T02900260 IEM_DS3505
ZGGG,2006-07-10 18:00,ZGGG 101800Z AUTO 16006KT 8SM 29/26 A2956 RMK SLP020 T02930261 57007 IEM_DS3505
ZGGG,2006-07-10 19:00,ZGGG 101900Z AUTO 08004KT 2 1/2SM 28/25 A2956 RMK T02800250 IEM_DS3505
ZGGG,2006-07-10 20:00,ZGGG 102000Z AUTO 09004KT 2 1/2SM 28/25 A2956 RMK T02800250 IEM_DS3505
ZGGG,2006-07-10 21:00,ZGGG 102100Z AUTO 14006KT 7SM 29/26 A2956 RMK 70002 SLP019 T02900262 57001 IEM_DS3505
ZGGG,2006-07-10 22:00,ZGGG 102200Z AUTO 08002KT 2 1/2SM 27/25 A2956 RMK T02700250 IEM_DS3505
ZGGG,2006-07-10 23:00,ZGGG 102300Z AUTO 08004KT 2 1/2SM 28/26 A2959 RMK T02800260 IEM_DS3505
ZGGG,2006-07-11 00:00,ZGGG 110000Z AUTO 11002KT 6SM 30/26 A2959 RMK 70002 SLP031 T02990263 52012 IEM_DS3505
ZGGG,2006-07-11 01:00,ZGGG 110100Z AUTO 12006KT 3SM 31/25 A2962 RMK T03100250 IEM_DS3505
ZGGG,2006-07-11 02:00,ZGGG 110200Z AUTO 14004KT 3SM 32/26 A2962 RMK T03200260 IEM_DS3505
ZGGG,2006-07-11 03:00,ZGGG 110300Z AUTO 18004KT 10SM 33/25 A2962 RMK SLP037 T03280251 52006 IEM_DS3505
ZGGG,2006-07-11 04:00,ZGGG 110400Z AUTO 29010KT 4SM 31/25 A2959 RMK T03100250 IEM_DS3505
ZGGG,2006-07-11 05:00,ZGGG 110500Z AUTO 36008KT 5SM 33/25 A2959 RMK T03300250 IEM_DS3505
ZGGG,2006-07-11 06:00,ZGGG 110600Z AUTO 14004KT 11SM 32/26 A2959 RMK 60016 SLP020 T03240262 57017 IEM_DS3505
ZGGG,2006-07-11 07:00,ZGGG 110700Z AUTO 04004KT 4SM 30/26 A2956 RMK T03000260 IEM_DS3505
ZGGG,2006-07-11 08:00,ZGGG 110800Z AUTO 26006KT 4SM 31/26 A2953 RMK T03100260 IEM_DS3505
ZGGG,2006-07-11 09:00,ZGGG 110900Z AUTO 14008KT 8SM 32/26 A2953 RMK SLP006 T03190257 57014 IEM_DS3505
ZGGG,2006-07-11 10:00,ZGGG 111000Z AUTO 14004KT 4SM 31/26 A2953 RMK T03100260 IEM_DS3505
ZGGG,2006-07-11 11:00,ZGGG 111100Z AUTO 2 1/2SM 30/26 A2956 RMK T03000260 IEM_DS3505
ZGGG,2006-07-11 12:00,ZGGG 111200Z AUTO 14006KT 10SM 30/26 A2959 RMK SLP022 T03030260 52016 IEM_DS3505
ZGGG,2006-07-11 13:00,ZGGG 111300Z AUTO 06004KT 3SM 29/26 A2959 RMK T02900260 IEM_DS3505
ZGGG,2006-07-11 14:00,ZGGG 111400Z AUTO 3SM 29/26 A2962 RMK T02900260 IEM_DS3505
ZGGG,2006-07-11 15:00,ZGGG 111500Z AUTO 14002KT 10SM 30/26 A2962 RMK SLP037 T02960256 52015 IEM_DS3505
ZGGG,2006-07-11 16:00,ZGGG 111600Z AUTO 4SM 29/26 A2962 RMK T02900260 IEM_DS3505
ZGGG,2006-07-11 17:00,ZGGG 111700Z AUTO 3SM 28/26 A2962 RMK T02800260 IEM_DS3505
ZGGG,2006-07-11 18:00,ZGGG 111800Z AUTO 14004KT 9SM 29/26 A2959 RMK SLP032 T02910255 57005 IEM_DS3505
ZGGG,2006-07-11 19:00,ZGGG 111900Z AUTO 3SM 28/25 A2959 RMK T02800250 IEM_DS3505
ZGGG,2006-07-11 20:00,ZGGG 112000Z AUTO 3SM 28/26 A2959 RMK T02800260 IEM_DS3505
ZGGG,2006-07-11 21:00,ZGGG 112100Z AUTO 00000KT 8SM 28/25 A2959 RMK 70015 SLP022 T02810253 57010 IEM_DS3505
ZGGG,2006-07-11 22:00,ZGGG 112200Z AUTO 00000KT 1 1/2SM 28/26 A2959 RMK T02800260 IEM_DS3505
ZGGG,2006-07-11 23:00,ZGGG 112300Z AUTO 2SM 28/26 A2959 RMK T02800260 IEM_DS3505
ZGGG,2006-07-12 00:00,ZGGG 120000Z AUTO 09002KT 5SM 30/26 A2959 RMK 70015 SLP025 T02990259 52003 IEM_DS3505
ZGGG,2006-07-12 01:00,ZGGG 120100Z AUTO 4SM 30/25 A2959 RMK T03000250 IEM_DS3505
ZGGG,2006-07-12 02:00,ZGGG 120200Z AUTO 4SM 32/24 A2959 RMK T03200240 IEM_DS3505
ZGGG,2006-07-12 03:00,ZGGG 120300Z AUTO 34002KT 8SM 32/24 A2959 RMK SLP028 T03250237 52003 IEM_DS3505
ZGGG,2006-07-12 04:00,ZGGG 120400Z AUTO 23004KT 6SM 33/25 A2959 RMK T03300250 IEM_DS3505
ZGGG,2006-07-12 05:00,ZGGG 120500Z AUTO 23006G17KT 5SM 35/25 A2956 RMK T03500250 IEM_DS3505
ZGGG,2006-07-12 06:00,ZGGG 120600Z AUTO 29002KT 6SM 34/25 A2953 RMK SLP003 T03440246 57025 IEM_DS3505
ZGGG,2006-07-12 07:00,ZGGG 120700Z AUTO 23004KT 6SM 36/24 A2950 RMK T03600240 IEM_DS3505
ZGGG,2006-07-12 08:00,ZGGG 120800Z AUTO 26006KT 6SM 35/24 A2947 RMK T03500240 IEM_DS3505
ZGGG,2006-07-12 09:00,ZGGG 120900Z AUTO 32004KT 6SM 35/25 A2947 RMK SLP981 T03520248 57022 IEM_DS3505
ZGGG,2006-07-12 10:00,ZGGG 121000Z AUTO 24004KT 5SM 35/23 A2947 RMK T03500230 IEM_DS3505
ZGGG,2006-07-12 11:00,ZGGG 121100Z AUTO 24004KT 5SM 35/23 A2947 RMK T03500230 IEM_DS3505
ZGGG,2006-07-12 12:00,ZGGG 121200Z AUTO 14002KT 6SM 32/25 A2947 RMK SLP989 T03180254 52008 IEM_DS3505
ZGGG,2006-07-12 13:00,ZGGG 121300Z AUTO 4SM 31/26 A2950 RMK T03100260 IEM_DS3505
ZGGG,2006-07-12 14:00,ZGGG 121400Z AUTO 2 1/2SM 31/26 A2950 RMK T03100260 IEM_DS3505
ZGGG,2006-07-12 15:00,ZGGG 121500Z AUTO 14002KT 8SM 31/26 A2950 RMK SLP000 T03100263 52011 IEM_DS3505
ZGGG,2006-07-12 16:00,ZGGG 121600Z AUTO 00000KT 2SM 30/27 A2950 RMK T03000270 IEM_DS3505
ZGGG,2006-07-12 17:00,ZGGG 121700Z AUTO 00000KT 2SM 30/26 A2947 RMK T03000260 IEM_DS3505
ZGGG,2006-07-12 18:00,ZGGG 121800Z AUTO 07002KT 8SM 30/26 A2947 RMK SLP991 T02990256 57009 IEM_DS3505
ZGGG,2006-07-12 19:00,ZGGG 121900Z AUTO 10002KT 1 1/4SM 29/27 A2947 RMK T02900270 IEM_DS3505
ZGGG,2006-07-12 20:00,ZGGG 122000Z AUTO 20004KT 3SM 30/26 A2947 RMK T03000260 IEM_DS3505
ZGGG,2006-07-12 21:00,ZGGG 122100Z AUTO 29002KT 9SM 30/25 A2947 RMK SLP985 T03000253 57005 IEM_DS3505
ZGGG,2006-07-12 22:00,ZGGG 122200Z AUTO 00000KT 1 1/4SM 29/27 A2947 RMK T02900270 IEM_DS3505
ZGGG,2006-07-12 23:00,ZGGG 122300Z AUTO 26002KT 1 1/2SM 30/27 A2947 RMK T03000270 IEM_DS3505
ZGGG,2006-07-13 00:00,ZGGG 130000Z AUTO 32004KT 11SM 32/26 A2947 RMK SLP990 T03170258 52004 IEM_DS3505
ZGGG,2006-07-13 01:00,ZGGG 130100Z AUTO 28008KT 3SM 34/25 A2947 RMK T03400250 IEM_DS3505
ZGGG,2006-07-13 02:00,ZGGG 130200Z AUTO 26006KT 4SM 34/25 A2947 RMK T03400250 IEM_DS3505
ZGGG,2006-07-13 03:00,ZGGG 130300Z AUTO 29004KT 11SM 35/26 A2947 RMK SLP989 T03520260 54000 IEM_DS3505
ZGGG,2006-07-13 04:00,ZGGG 130400Z AUTO 28008G17KT 6SM 36/26 A2947 RMK T03600260 IEM_DS3505
ZGGG,2006-07-13 05:00,ZGGG 130500Z AUTO 7SM 37/25 A2941 RMK T03700250 IEM_DS3505
ZGGG,2006-07-13 06:00,ZGGG 130600Z AUTO 27004KT 10SM 37/26 A2941 RMK SLP965 T03680256 57024 IEM_DS3505
ZGGG,2006-07-13 07:00,ZGGG 130700Z AUTO 26016KT 7SM 33/25 A2938 RMK T03300250 IEM_DS3505
ZGGG,2006-07-13 08:00,ZGGG 130800Z AUTO 16004KT 7SM 29/25 A2941 RMK T02900250 IEM_DS3505
ZGGG,2006-07-13 09:00,ZGGG 130900Z AUTO 27002KT 11SM 30/26 A2938 RMK SLP953 T02960256 57013 IEM_DS3505
ZGGG,2006-07-13 10:00,ZGGG 131000Z AUTO 04004KT 5SM 30/24 A2944 RMK T03000240 IEM_DS3505
ZGGG,2006-07-13 11:00,ZGGG 131100Z AUTO 11004KT 4SM 28/23 A2941 RMK T02800230 IEM_DS3505
ZGGG,2006-07-13 12:00,ZGGG 131200Z AUTO 29002KT 9SM 28/24 A2941 RMK 60001 SLP962 T02850241 52009 IEM_DS3505
ZGGG,2006-07-13 13:00,ZGGG 131300Z AUTO 30004KT 5SM 29/24 A2944 RMK T02900240 IEM_DS3505
ZGGG,2006-07-13 14:00,ZGGG 131400Z AUTO 00000KT 4SM 27/24 A2944 RMK T02700240 IEM_DS3505
ZGGG,2006-07-13 15:00,ZGGG 131500Z AUTO 34002KT 9SM 28/23 A2938 RMK SLP952 T02830234 57009 IEM_DS3505
ZGGG,2006-07-13 16:00,ZGGG 131600Z AUTO 22006KT 6SM 27/24 A2938 RMK T02700240 IEM_DS3505
ZGGG,2006-07-13 17:00,ZGGG 131700Z AUTO 4SM 28/24 A2941 RMK T02800240 IEM_DS3505
ZGGG,2006-07-13 18:00,ZGGG 131800Z AUTO 32002KT 9SM 28/23 A2938 RMK 60000 SLP959 T02840231 52007 IEM_DS3505
ZGGG,2006-07-13 19:00,ZGGG 131900Z AUTO 4SM 27/24 A2938 RMK T02700240 IEM_DS3505
ZGGG,2006-07-13 20:00,ZGGG 132000Z AUTO 02002KT 3SM 27/24 A2938 RMK T02700240 IEM_DS3505
ZGGG,2006-07-13 21:00,ZGGG 132100Z AUTO 27004KT 9SM 29/22 A2938 RMK 70002 SLP959 T02880223 57001 IEM_DS3505
ZGGG,2006-07-13 22:00,ZGGG 132200Z AUTO 29004KT 4SM 28/23 A2938 RMK T02800230 IEM_DS3505
ZGGG,2006-07-13 23:00,ZGGG 132300Z AUTO 5SM 28/23 A2938 RMK T02800230 IEM_DS3505
ZGGG,2006-07-14 00:00,ZGGG 140000Z AUTO 32002KT 11SM 30/24 A2938 RMK 70002 SLP961 T03050237 52002 IEM_DS3505
ZGGG,2006-07-14 01:00,ZGGG 140100Z AUTO 29004KT 5SM 31/23 A2938 RMK T03100230 IEM_DS3505
ZGGG,2006-07-14 02:00,ZGGG 140200Z AUTO 26006KT 5SM 32/24 A2938 RMK T03200240 IEM_DS3505
ZGGG,2006-07-14 03:00,ZGGG 140300Z AUTO 32006KT 14SM 34/25 A2938 RMK SLP953 T03420250 57007 IEM_DS3505
ZGGG,2006-07-14 04:00,ZGGG 140400Z AUTO 26010G21KT 6SM 35/25 A2935 RMK T03500250 IEM_DS3505
ZGGG,2006-07-14 05:00,ZGGG 140500Z AUTO 26010KT 7SM 36/25 A2932 RMK T03600250 IEM_DS3505
ZGGG,2006-07-14 06:00,ZGGG 140600Z AUTO 25006KT 13SM 36/25 A2929 RMK SLP932 T03620248 57021 IEM_DS3505
ZGGG,2006-07-14 07:00,ZGGG 140700Z AUTO 26012G21KT 6SM 37/24 A2926 RMK T03700240 IEM_DS3505
ZGGG,2006-07-14 08:00,ZGGG 140800Z AUTO 25012KT 5SM 36/25 A2926 RMK T03600250 IEM_DS3505
ZGGG,2006-07-14 09:00,ZGGG 140900Z AUTO 27004KT 11SM 36/24 A2929 RMK SLP921 T03550244 57011 IEM_DS3505
ZGGG,2006-07-14 10:00,ZGGG 141000Z AUTO 09004KT 3SM 30/26 A2929 RMK T03000260 IEM_DS3505
ZGGG,2006-07-14 11:00,ZGGG 141100Z AUTO 17004KT 4SM 30/25 A2926 RMK T03000250 IEM_DS3505
ZGGG,2006-07-14 12:00,ZGGG 141200Z AUTO 27002KT 11SM 34/25 A2929 RMK 60000 SLP922 T03420250 52001 IEM_DS3505
ZGGG,2006-07-14 13:00,ZGGG 141300Z AUTO 4SM 29/26 A2932 RMK T02900260 IEM_DS3505
ZGGG,2006-07-14 14:00,ZGGG 141400Z AUTO 4SM 29/26 A2932 RMK T02900260 IEM_DS3505
ZGGG,2006-07-14 15:00,ZGGG 141500Z AUTO 25006KT 11SM 33/26 A2935 RMK SLP941 T03330261 52019 IEM_DS3505
ZGGG,2006-07-14 16:00,ZGGG 141600Z AUTO 24008KT 3SM 32/25 A2932 RMK T03200250 IEM_DS3505
ZGGG,2006-07-14 17:00,ZGGG 141700Z AUTO 23008KT 3SM 32/23 A2932 RMK T03200230 IEM_DS3505
ZGGG,2006-07-14 18:00,ZGGG 141800Z AUTO 25008KT 11SM 32/25 A2929 RMK SLP928 T03180254 57013 IEM_DS3505
ZGGG,2006-07-14 19:00,ZGGG 141900Z AUTO 22008KT 4SM 31/26 A2932 RMK T03100260 IEM_DS3505
ZGGG,2006-07-14 20:00,ZGGG 142000Z AUTO 23008KT 3SM 30/26 A2932 RMK T03000260 IEM_DS3505
ZGGG,2006-07-14 21:00,ZGGG 142100Z AUTO 25004KT 9SM 29/26 A2932 RMK 70004 SLP939 T02930257 52011 IEM_DS3505
ZGGG,2006-07-14 22:00,ZGGG 142200Z AUTO 23006KT 4SM 29/25 A2935 RMK T02900250 IEM_DS3505
ZGGG,2006-07-14 23:00,ZGGG 142300Z AUTO 20002KT 4SM 29/26 A2938 RMK T02900260 IEM_DS3505
ZGGG,2006-07-15 00:00,ZGGG 150000Z AUTO 25010G14KT 7SM 28/25 A2938 RMK 60012 70012 SLP957 T02840254 52018 IEM_DS3505
ZGGG,2006-07-15 01:00,ZGGG 150100Z AUTO 23014KT 3SM 28/26 A2941 RMK T02800260 IEM_DS3505
ZGGG,2006-07-15 02:00,ZGGG 150200Z AUTO 22010KT 3SM 28/25 A2941 RMK T02800250 IEM_DS3505
ZGGG,2006-07-15 03:00,ZGGG 150300Z AUTO 29002KT 6SM 26/24 A2944 RMK SLP979 T02590241 52021 IEM_DS3505
ZGGG,2006-07-15 04:00,ZGGG 150400Z AUTO 21010KT 2 1/2SM 27/25 A2944 RMK T02700250 IEM_DS3505
ZGGG,2006-07-15 05:00,ZGGG 150500Z AUTO 25004KT 2 1/2SM 27/25 A2941 RMK T02700250 IEM_DS3505
ZGGG,2006-07-15 06:00,ZGGG 150600Z AUTO 16002KT 2 1/2SM 28/26 A2941 RMK 60291 SLP966 T02770259 57013 IEM_DS3505
ZGGG,2006-07-15 07:00,ZGGG 150700Z AUTO 24004KT 1 1/4SM 28/26 A2938 RMK T02800260 IEM_DS3505
ZGGG,2006-07-15 08:00,ZGGG 150800Z AUTO 18004KT 1SM 28/26 A2938 RMK T02800260 IEM_DS3505
ZGGG,2006-07-15 08:30,ZGGG 150830Z AUTO 19004KT 1SM 28/26 A2941 RMK T02800260 IEM_DS3505
ZGGG,2006-07-15 09:00,ZGGG 150900Z AUTO 22002KT 4SM 29/27 A2941 RMK SLP967 T02860266 52001 IEM_DS3505
ZGGG,2006-07-15 10:00,ZGGG 151000Z AUTO 21008KT 1 1/4SM 29/27 A2941 RMK T02900270 IEM_DS3505
ZGGG,2006-07-15 11:00,ZGGG 151100Z AUTO 19004KT 1 1/4SM 29/27 A2941 RMK T02900270 IEM_DS3505
ZGGG,2006-07-15 12:00,ZGGG 151200Z AUTO 16002KT 6SM 28/26 A2944 RMK 60016 SLP976 T02810261 52009 IEM_DS3505
ZGGG,2006-07-15 13:00,ZGGG 151300Z AUTO 20012KT 2 1/2SM 29/26 A2944 RMK T02900260 IEM_DS3505
ZGGG,2006-07-15 14:00,ZGGG 151400Z AUTO 21008KT 2 1/2SM 29/26 A2944 RMK T02900260 IEM_DS3505
ZGGG,2006-07-15 15:00,ZGGG 151500Z AUTO 16002KT 9SM 28/26 A2947 RMK SLP988 T02820262 52012 IEM_DS3505
ZGGG,2006-07-15 16:00,ZGGG 151600Z AUTO 19008KT 3SM 28/26 A2944 RMK T02800260 IEM_DS3505
ZGGG,2006-07-15 17:00,ZGGG 151700Z AUTO 19008KT 4SM 28/26 A2944 RMK T02800260 IEM_DS3505
ZGGG,2006-07-15 18:00,ZGGG 151800Z AUTO 20002KT 7SM 28/26 A2941 RMK 60008 SLP970 T02770255 57018 IEM_DS3505
ZGGG,2006-07-15 19:00,ZGGG 151900Z AUTO 19008KT 4SM 28/25 A2941 RMK T02800250 IEM_DS3505
ZGGG,2006-07-15 20:00,ZGGG 152000Z AUTO 18010KT 4SM 27/24 A2944 RMK T02700240 IEM_DS3505
ZGGG,2006-07-15 21:00,ZGGG 152100Z AUTO 22002KT 10SM 27/24 A2947 RMK 70321 SLP986 T02700239 52016 IEM_DS3505
ZGGG,2006-07-15 22:00,ZGGG 152200Z AUTO 18004KT 3SM 26/24 A2947 RMK T02600240 IEM_DS3505
ZGGG,2006-07-15 23:00,ZGGG 152300Z AUTO 00000KT 2 1/2SM 26/24 A2950 RMK T02600240 IEM_DS3505
ZGGG,2006-07-16 00:00,ZGGG 160000Z AUTO 22004KT 4SM 26/24 A2950 RMK 60043 70355 SLP999 T02590243 52013 IEM_DS3505
ZGGG,2006-07-16 01:00,ZGGG 160100Z AUTO 20008KT 3SM 27/25 A2950 RMK T02700250 IEM_DS3505
ZGGG,2006-07-16 02:00,ZGGG 160200Z AUTO 3SM 27/25 A2950 RMK T02700250 IEM_DS3505
ZGGG,2006-07-16 03:00,ZGGG 160300Z AUTO 16004KT 4SM 27/26 A2953 RMK SLP006 T02740256 52007 IEM_DS3505
ZGGG,2006-07-16 04:00,ZGGG 160400Z AUTO 18006KT 3SM 28/26 A2953 RMK T02800260 IEM_DS3505
ZGGG,2006-07-16 05:00,ZGGG 160500Z AUTO 17004KT 3SM 28/25 A2950 RMK T02800250 IEM_DS3505
ZGGG,2006-07-16 06:00,ZGGG 160600Z AUTO 16004KT 6SM 27/25 A2950 RMK 60024 SLP002 T02740252 57004 IEM_DS3505
ZGGG,2006-07-16 07:00,ZGGG 160700Z AUTO 16006KT 3SM 28/25 A2950 RMK T02800250 IEM_DS3505
ZGGG,2006-07-16 08:00,ZGGG 160800Z AUTO 17008KT 5SM 28/25 A2950 RMK T02800250 IEM_DS3505
ZGGG,2006-07-16 09:00,ZGGG 160900Z AUTO 16004KT 4SM 26/24 A2950 RMK SLP000 T02650243 57002 IEM_DS3505
ZGGG,2006-07-16 10:00,ZGGG 161000Z AUTO 14006KT 5SM 27/24 A2950 RMK T02700240 IEM_DS3505
ZGGG,2006-07-16 11:00,ZGGG 161100Z AUTO 14006KT 4SM 27/24 A2953 RMK T02700240 IEM_DS3505
ZGGG,2006-07-16 12:00,ZGGG 161200Z AUTO 11004KT 6SM 26/24 A2953 RMK 60012 SLP010 T02590241 52009 IEM_DS3505
ZGGG,2006-07-16 13:00,ZGGG 161300Z AUTO 13004KT 3SM 26/24 A2956 RMK T02600240 IEM_DS3505
ZGGG,2006-07-16 14:00,ZGGG 161400Z AUTO 28006KT 2SM 25/23 A2956 RMK T02500230 IEM_DS3505
ZGGG,2006-07-16 15:00,ZGGG 161500Z AUTO 14002KT 1 1/2SM 26/25 A2956 RMK SLP021 T02640250 52012 IEM_DS3505
ZGGG,2006-07-16 16:00,ZGGG 161600Z AUTO 2 1/2SM 25/23 A2959 RMK T02500230 IEM_DS3505
ZGGG,2006-07-16 17:00,ZGGG 161700Z AUTO 2 1/2SM 25/23 A2956 RMK T02500230 IEM_DS3505
ZGGG,2006-07-16 18:00,ZGGG 161800Z AUTO 14002KT 6SM 25/24 A2956 RMK 60083 SLP021 T02530239 57001 IEM_DS3505
ZGGG,2006-07-16 19:00,ZGGG 161900Z AUTO 3SM 25/24 A2956 RMK T02500240 IEM_DS3505
ZGGG,2006-07-16 20:00,ZGGG 162000Z AUTO 06002KT 4SM 25/24 A2956 RMK T02500240 IEM_DS3505
ZGGG,2006-07-16 21:00,ZGGG 162100Z AUTO 14006KT 6SM 26/24 A2956 RMK 70197 SLP016 T02570243 57005 IEM_DS3505
ZGGG,2006-07-16 22:00,ZGGG 162200Z AUTO 10002KT 6SM 26/24 A2956 RMK T02600240 IEM_DS3505
ZGGG,2006-07-16 23:00,ZGGG 162300Z AUTO 3SM 26/24 A2959 RMK T02600240 IEM_DS3505
ZGGG,2006-07-17 00:00,ZGGG 170000Z AUTO 16002KT 9SM 26/24 A2959 RMK 60067 70187 SLP034 T02630245 52018 IEM_DS3505
ZGGG,2006-07-17 01:00,ZGGG 170100Z AUTO 5SM 27/24 A2962 RMK T02700240 IEM_DS3505
ZGGG,2006-07-17 02:00,ZGGG 170200Z AUTO 7SM 27/24 A2962 RMK T02700240 IEM_DS3505
ZGGG,2006-07-17 03:00,ZGGG 170300Z AUTO 14004KT 9SM 28/26 A2962 RMK SLP041 T02780256 52007 IEM_DS3505
ZGGG,2006-07-17 04:00,ZGGG 170400Z AUTO 14006KT 6SM 29/25 A2962 RMK T02900250 IEM_DS3505
ZGGG,2006-07-17 05:00,ZGGG 170500Z AUTO 14006KT 6SM 30/25 A2962 RMK T03000250 IEM_DS3505
ZGGG,2006-07-17 06:00,ZGGG 170600Z AUTO 16004KT 9SM 30/25 A2962 RMK 60001 SLP039 T03030254 57001 IEM_DS3505
ZGGG,2006-07-17 07:00,ZGGG 170700Z AUTO 15008KT 6SM 31/26 A2962 RMK T03100260 IEM_DS3505
ZGGG,2006-07-17 08:00,ZGGG 170800Z AUTO 15008KT 7SM 31/25 A2962 RMK T03100250 IEM_DS3505
ZGGG,2006-07-17 09:00,ZGGG 170900Z AUTO 14008KT 11SM 30/26 A2962 RMK SLP041 T02970257 52002 IEM_DS3505
ZGGG,2006-07-17 10:00,ZGGG 171000Z AUTO 14006KT 4SM 30/26 A2965 RMK T03000260 IEM_DS3505
ZGGG,2006-07-17 11:00,ZGGG 171100Z AUTO 13006KT 5SM 29/25 A2965 RMK T02900250 IEM_DS3505
ZGGG,2006-07-17 12:00,ZGGG 171200Z AUTO 14008KT 11SM 29/25 A2968 RMK SLP064 T02890253 52022 IEM_DS3505
ZGGG,2006-07-17 13:00,ZGGG 171300Z AUTO 14008KT 5SM 29/25 A2971 RMK T02900250 IEM_DS3505
ZGGG,2006-07-17 14:00,ZGGG 171400Z AUTO 12004KT 3SM 28/25 A2971 RMK T02800250 IEM_DS3505
ZGGG,2006-07-17 15:00,ZGGG 171500Z AUTO 14006KT 10SM 28/26 A2974 RMK SLP073 T02850255 52009 IEM_DS3505
ZGGG,2006-07-17 16:00,ZGGG 171600Z AUTO 10004KT 4SM 27/26 A2974 RMK T02700260 IEM_DS3505
ZGGG,2006-07-17 17:00,ZGGG 171700Z AUTO 11004KT 3SM 27/25 A2974 RMK T02700250 IEM_DS3505
ZGGG,2006-07-17 18:00,ZGGG 171800Z AUTO 16004KT 9SM 28/25 A2974 RMK 60000 SLP073 T02820254 52001 IEM_DS3505
ZGGG,2006-07-17 19:00,ZGGG 171900Z AUTO 12004KT 5SM 28/25 A2971 RMK T02800250 IEM_DS3505
ZGGG,2006-07-17 20:00,ZGGG 172000Z AUTO 10004KT 5SM 27/25 A2971 RMK T02700250 IEM_DS3505
ZGGG,2006-07-17 21:00,ZGGG 172100Z AUTO 14004KT 9SM 28/25 A2974 RMK 70033 SLP074 T02780252 52001 IEM_DS3505
ZGGG,2006-07-17 22:00,ZGGG 172200Z AUTO 08004KT 3SM 27/25 A2974 RMK T02700250 IEM_DS3505
ZGGG,2006-07-17 23:00,ZGGG 172300Z AUTO 08004KT 2 1/2SM 27/25 A2977 RMK T02700250 IEM_DS3505
ZGGG,2006-07-18 00:00,ZGGG 180000Z AUTO 14006KT 9SM 29/25 A2977 RMK 70002 SLP085 T02920254 52011 IEM_DS3505
ZGGG,2006-07-18 01:00,ZGGG 180100Z AUTO 15008KT 7SM 31/25 A2977 RMK T03100250 IEM_DS3505
ZGGG,2006-07-18 02:00,ZGGG 180200Z AUTO 19008KT 7SM 32/25 A2977 RMK T03200250 IEM_DS3505
ZGGG,2006-07-18 03:00,ZGGG 180300Z AUTO 11006KT 10SM 30/26 A2977 RMK SLP089 T03010256 52004 IEM_DS3505
ZGGG,2006-07-18 04:00,ZGGG 180400Z AUTO 20008KT 4SM 29/26 A2977 RMK T02900260 IEM_DS3505
ZGGG,2006-07-18 05:00,ZGGG 180500Z AUTO 17004KT 6SM 31/26 A2977 RMK T03100260 IEM_DS3505
ZGGG,2006-07-18 06:00,ZGGG 180600Z AUTO 16004KT 9SM 33/25 A2974 RMK 60008 SLP081 T03270253 57008 IEM_DS3505
ZGGG,2006-07-18 07:00,ZGGG 180700Z AUTO 14008KT 7SM 33/24 A2974 RMK T03300240 IEM_DS3505
ZGGG,2006-07-18 08:00,ZGGG 180800Z AUTO 15010KT 7SM 33/24 A2974 RMK T03300240 IEM_DS3505
ZGGG,2006-07-18 09:00,ZGGG 180900Z AUTO 14008KT 9SM 32/24 A2974 RMK SLP074 T03170243 57007 IEM_DS3505
ZGGG,2006-07-18 10:00,ZGGG 181000Z AUTO 14008KT 7SM 31/24 A2974 RMK T03100240 IEM_DS3505
ZGGG,2006-07-18 11:00,ZGGG 181100Z AUTO 16004KT 7SM 30/23 A2977 RMK T03000230 IEM_DS3505
ZGGG,2006-07-18 12:00,ZGGG 181200Z AUTO 16004KT 9SM 30/25 A2980 RMK 60003 SLP098 T02960247 52024 IEM_DS3505
ZGGG,2006-07-18 13:00,ZGGG 181300Z AUTO 14004KT 7SM 29/25 A2983 RMK T02900250 IEM_DS3505
ZGGG,2006-07-18 14:00,ZGGG 181400Z AUTO 13004KT 7SM 28/25 A2983 RMK T02800250 IEM_DS3505
ZGGG,2006-07-18 15:00,ZGGG 181500Z AUTO 16004KT 10SM 29/25 A2983 RMK SLP106 T02860248 52008 IEM_DS3505
ZGGG,2006-07-18 16:00,ZGGG 181600Z AUTO 10002KT 4SM 27/25 A2983 RMK T02700250 IEM_DS3505
ZGGG,2006-07-18 17:00,ZGGG 181700Z AUTO 4SM 27/25 A2980 RMK T02700250 IEM_DS3505
ZGGG,2006-07-18 18:00,ZGGG 181800Z AUTO 16002KT 10SM 28/25 A2980 RMK SLP092 T02800252 57014 IEM_DS3505
ZGGG,2006-07-18 19:00,ZGGG 181900Z AUTO 00000KT 4SM 27/25 A2977 RMK T02700250 IEM_DS3505
ZGGG,2006-07-18 20:00,ZGGG 182000Z AUTO 00000KT 2 1/2SM 26/24 A2977 RMK T02600240 IEM_DS3505
ZGGG,2006-07-18 21:00,ZGGG 182100Z AUTO 07002KT 9SM 27/25 A2977 RMK 70010 SLP087 T02710251 57005 IEM_DS3505
ZGGG,2006-07-18 22:00,ZGGG 182200Z AUTO 00000KT 1 1/4SM 26/25 A2980 RMK T02600250 IEM_DS3505
ZGGG,2006-07-18 23:00,ZGGG 182300Z AUTO 00000KT 2SM 28/25 A2980 RMK T02800250 IEM_DS3505
ZGGG,2006-07-19 00:00,ZGGG 190000Z AUTO 32002KT 7SM 28/25 A2980 RMK 60000 70010 SLP101 T02770249 52013 IEM_DS3505
ZGGG,2006-07-19 01:00,ZGGG 190100Z AUTO 27004KT 3SM 30/24 A2980 RMK T03000240 IEM_DS3505
ZGGG,2006-07-19 02:00,ZGGG 190200Z AUTO 24004KT 4SM 30/24 A2980 RMK T03000240 IEM_DS3505
ZGGG,2006-07-19 03:00,ZGGG 190300Z AUTO 18002KT 9SM 32/25 A2980 RMK SLP098 T03210247 57002 IEM_DS3505
ZGGG,2006-07-19 04:00,ZGGG 190400Z AUTO 4SM 33/25 A2980 RMK T03300250 IEM_DS3505
ZGGG,2006-07-19 05:00,ZGGG 190500Z AUTO 24006KT 4SM 34/24 A2977 RMK T03400240 IEM_DS3505
ZGGG,2006-07-19 06:00,ZGGG 190600Z AUTO 36004KT 6SM 33/25 A2974 RMK SLP080 T03300253 57018 IEM_DS3505
ZGGG,2006-07-19 07:00,ZGGG 190700Z AUTO 12004KT 4SM 34/24 A2974 RMK T03400240 IEM_DS3505
ZGGG,2006-07-19 08:00,ZGGG 190800Z AUTO 4SM 35/25 A2974 RMK T03500250 IEM_DS3505
ZGGG,2006-07-19 09:00,ZGGG 190900Z AUTO 36002KT 5SM 34/25 A2971 RMK SLP068 T03410247 57012 IEM_DS3505
ZGGG,2006-07-19 10:00,ZGGG 191000Z AUTO 10004KT 4SM 33/26 A2971 RMK T03300260 IEM_DS3505
ZGGG,2006-07-19 11:00,ZGGG 191100Z AUTO 10004KT 2 1/2SM 32/26 A2971 RMK T03200260 IEM_DS3505
ZGGG,2006-07-19 12:00,ZGGG 191200Z AUTO 14002KT 6SM 30/26 A2974 RMK 60008 SLP077 T03050256 52009 IEM_DS3505
ZGGG,2006-07-19 13:00,ZGGG 191300Z AUTO 15004KT 3SM 31/26 A2974 RMK T03100260 IEM_DS3505
ZGGG,2006-07-19 14:00,ZGGG 191400Z AUTO 15004KT 4SM 30/26 A2977 RMK T03000260 IEM_DS3505
ZGGG,2006-07-19 15:00,ZGGG 191500Z AUTO 11004KT 9SM 29/26 A2977 RMK SLP085 T02920256 52008 IEM_DS3505
ZGGG,2006-07-19 16:00,ZGGG 191600Z AUTO 4SM 29/26 A2974 RMK T02900260 IEM_DS3505
ZGGG,2006-07-19 17:00,ZGGG 191700Z AUTO 00000KT 4SM 28/25 A2974 RMK T02800250 IEM_DS3505
ZGGG,2006-07-19 18:00,ZGGG 191800Z AUTO 18002KT 8SM 28/25 A2974 RMK SLP074 T02830249 57011 IEM_DS3505
ZGGG,2006-07-19 19:00,ZGGG 191900Z AUTO 08002KT 2 1/2SM 27/25 A2971 RMK T02700250 IEM_DS3505
ZGGG,2006-07-19 20:00,ZGGG 192000Z AUTO 00000KT 2 1/2SM 27/25 A2971 RMK T02700250 IEM_DS3505
ZGGG,2006-07-19 21:00,ZGGG 192100Z AUTO 25002KT 7SM 27/25 A2971 RMK 70007 SLP071 T02740250 57003 IEM_DS3505
ZGGG,2006-07-19 22:00,ZGGG 192200Z AUTO 13002KT 2SM 27/26 A2974 RMK T02700260 IEM_DS3505
ZGGG,2006-07-19 23:00,ZGGG 192300Z AUTO 10004KT 2SM 28/26 A2974 RMK T02800260 IEM_DS3505
ZGGG,2006-07-20 00:00,ZGGG 200000Z AUTO 11004KT 7SM 30/25 A2974 RMK 70007 SLP079 T03000246 52008 IEM_DS3505
ZGGG,2006-07-20 01:00,ZGGG 200100Z AUTO 15004KT 4SM 31/26 A2977 RMK T03100260 IEM_DS3505
ZGGG,2006-07-20 02:00,ZGGG 200200Z AUTO 19004KT 4SM 32/25 A2977 RMK T03200250 IEM_DS3505
ZGGG,2006-07-20 03:00,ZGGG 200300Z AUTO 22002KT 9SM 32/23 A2977 RMK SLP081 T03250234 52002 IEM_DS3505
ZGGG,2006-07-20 04:00,ZGGG 200400Z AUTO 24006KT 5SM 34/23 A2974 RMK T03400230 IEM_DS3505
ZGGG,2006-07-20 05:00,ZGGG 200500Z AUTO 4SM 34/25 A2971 RMK T03400250 IEM_DS3505
ZGGG,2006-07-20 06:00,ZGGG 200600Z AUTO 22002KT 11SM 35/23 A2971 RMK SLP065 T03500233 57016 IEM_DS3505
ZGGG,2006-07-20 07:00,ZGGG 200700Z AUTO 20006KT 5SM 35/23 A2968 RMK T03500230 IEM_DS3505
ZGGG,2006-07-20 08:00,ZGGG 200800Z AUTO 21006KT 4SM 35/23 A2968 RMK T03500230 IEM_DS3505
ZGGG,2006-07-20 09:00,ZGGG 200900Z AUTO 14002KT 10SM 35/22 A2965 RMK SLP051 T03510217 57014 IEM_DS3505
ZGGG,2006-07-20 10:00,ZGGG 201000Z AUTO 23004KT 5SM 35/23 A2965 RMK T03500230 IEM_DS3505
ZGGG,2006-07-20 11:00,ZGGG 201100Z AUTO 18004KT 3SM 33/23 A2965 RMK T03300230 IEM_DS3505
ZGGG,2006-07-20 12:00,ZGGG 201200Z AUTO 16004KT 8SM 32/24 A2968 RMK SLP054 T03190245 52003 IEM_DS3505
ZGGG,2006-07-20 13:00,ZGGG 201300Z AUTO 3SM 31/25 A2968 RMK T03100250 IEM_DS3505
ZGGG,2006-07-20 14:00,ZGGG 201400Z AUTO 00000KT 3SM 29/26 A2968 RMK T02900260 IEM_DS3505
ZGGG,2006-07-20 15:00,ZGGG 201500Z AUTO 14002KT 9SM 30/25 A2968 RMK SLP063 T03010247 52009 IEM_DS3505
ZGGG,2006-07-20 16:00,ZGGG 201600Z AUTO 2 1/2SM 28/25 A2968 RMK T02800250 IEM_DS3505
ZGGG,2006-07-20 17:00,ZGGG 201700Z AUTO 10004KT 3SM 28/25 A2968 RMK T02800250 IEM_DS3505
ZGGG,2006-07-20 18:00,ZGGG 201800Z AUTO 16002KT 9SM 29/25 A2968 RMK SLP059 T02860246 57004 IEM_DS3505
ZGGG,2006-07-20 19:00,ZGGG 201900Z AUTO 00000KT 3SM 27/25 A2968 RMK T02700250 IEM_DS3505
ZGGG,2006-07-20 20:00,ZGGG 202000Z AUTO 08002KT 3SM 27/25 A2971 RMK T02700250 IEM_DS3505
ZGGG,2006-07-20 21:00,ZGGG 202100Z AUTO 07002KT 8SM 28/24 A2971 RMK SLP064 T02770245 52005 IEM_DS3505
ZGGG,2006-07-20 22:00,ZGGG 202200Z AUTO 07002KT 1 1/4SM 27/25 A2971 RMK T02700250 IEM_DS3505
ZGGG,2006-07-20 23:00,ZGGG 202300Z AUTO 07002KT 2SM 27/25 A2971 RMK T02700250 IEM_DS3505
ZGGG,2006-07-21 00:00,ZGGG 210000Z AUTO 27002KT 10SM 30/24 A2971 RMK SLP070 T03010235 52006 IEM_DS3505
ZGGG,2006-07-21 01:00,ZGGG 210100Z AUTO 5SM 32/24 A2971 RMK T03200240 IEM_DS3505
ZGGG,2006-07-21 02:00,ZGGG 210200Z AUTO 22006KT 6SM 33/22 A2974 RMK T03300220 IEM_DS3505
ZGGG,2006-07-21 03:00,ZGGG 210300Z AUTO 02002KT 10SM 33/22 A2971 RMK SLP068 T03310225 57002 IEM_DS3505
ZGGG,2006-07-21 04:00,ZGGG 210400Z AUTO 7SM 35/22 A2971 RMK T03500220 IEM_DS3505
ZGGG,2006-07-21 05:00,ZGGG 210500Z AUTO 7SM 35/22 A2968 RMK T03500220 IEM_DS3505
ZGGG,2006-07-21 06:00,ZGGG 210600Z AUTO 14004KT 9SM 35/22 A2965 RMK SLP051 T03460220 57017 IEM_DS3505
ZGGG,2006-07-21 07:00,ZGGG 210700Z AUTO 7SM 37/22 A2965 RMK T03700220 IEM_DS3505
ZGGG,2006-07-21 08:00,ZGGG 210800Z AUTO 14006KT 4SM 35/22 A2965 RMK T03500220 IEM_DS3505
ZGGG,2006-07-21 09:00,ZGGG 210900Z AUTO 14004KT 9SM 35/22 A2962 RMK SLP038 T03490219 57013 IEM_DS3505
ZGGG,2006-07-21 10:00,ZGGG 211000Z AUTO 14004KT 4SM 34/23 A2962 RMK T03400230 IEM_DS3505
ZGGG,2006-07-21 11:00,ZGGG 211100Z AUTO 14004KT 3SM 33/23 A2962 RMK T03300230 IEM_DS3505
ZGGG,2006-07-21 12:00,ZGGG 211200Z AUTO 14004KT 9SM 32/23 A2962 RMK SLP042 T03210231 52004 IEM_DS3505
ZGGG,2006-07-21 13:00,ZGGG 211300Z AUTO 15004KT 3SM 31/24 A2965 RMK T03100240 IEM_DS3505
ZGGG,2006-07-21 14:00,ZGGG 211400Z AUTO 15006KT 3SM 30/24 A2968 RMK T03000240 IEM_DS3505
ZGGG,2006-07-21 15:00,ZGGG 211500Z AUTO 14004KT 11SM 30/24 A2971 RMK SLP070 T02970236 52028 IEM_DS3505
ZGGG,2006-07-21 16:00,ZGGG 211600Z AUTO 6SM 28/24 A2971 RMK T02800240 IEM_DS3505
ZGGG,2006-07-21 17:00,ZGGG 211700Z AUTO 09004KT 6SM 27/23 A2971 RMK T02700230 IEM_DS3505
ZGGG,2006-07-21 18:00,ZGGG 211800Z AUTO 00000KT 10SM 28/23 A2968 RMK SLP062 T02820233 57008 IEM_DS3505
ZGGG,2006-07-21 19:00,ZGGG 211900Z AUTO 05002KT 6SM 27/23 A2968 RMK T02700230 IEM_DS3505
ZGGG,2006-07-21 20:00,ZGGG 212000Z AUTO 5SM 27/24 A2968 RMK T02700240 IEM_DS3505
ZGGG,2006-07-21 21:00,ZGGG 212100Z AUTO 09002KT 9SM 27/24 A2968 RMK SLP063 T02720241 52001 IEM_DS3505
ZGGG,2006-07-21 22:00,ZGGG 212200Z AUTO 06002KT 5SM 27/24 A2971 RMK T02700240 IEM_DS3505
ZGGG,2006-07-21 23:00,ZGGG 212300Z AUTO 00000KT 4SM 28/25 A2971 RMK T02800250 IEM_DS3505
ZGGG,2006-07-22 00:00,ZGGG 220000Z AUTO 18002KT 9SM 30/24 A2971 RMK SLP067 T03000242 52004 IEM_DS3505
ZGGG,2006-07-22 01:00,ZGGG 220100Z AUTO 5SM 31/24 A2971 RMK T03100240 IEM_DS3505
ZGGG,2006-07-22 02:00,ZGGG 220200Z AUTO 4SM 32/23 A2971 RMK T03200230 IEM_DS3505
ZGGG,2006-07-22 03:00,ZGGG 220300Z AUTO 09002KT 8SM 33/22 A2971 RMK SLP067 T03320223 54000 IEM_DS3505
ZGGG,2006-07-22 04:00,ZGGG 220400Z AUTO 5SM 35/22 A2971 RMK T03500220 IEM_DS3505
ZGGG,2006-07-22 05:00,ZGGG 220500Z AUTO 5SM 34/23 A2968 RMK T03400230 IEM_DS3505
ZGGG,2006-07-22 06:00,ZGGG 220600Z AUTO 02004KT 7SM 34/23 A2965 RMK SLP048 T03430233 57019 IEM_DS3505
ZGGG,2006-07-22 07:00,ZGGG 220700Z AUTO 26004KT 5SM 35/22 A2965 RMK T03500220 IEM_DS3505
ZGGG,2006-07-22 08:00,ZGGG 220800Z AUTO 29004KT 7SM 35/22 A2962 RMK T03500220 IEM_DS3505
ZGGG,2006-07-22 09:00,ZGGG 220900Z AUTO 07004KT 7SM 34/23 A2959 RMK SLP031 T03370231 57017 IEM_DS3505
ZGGG,2006-07-22 10:00,ZGGG 221000Z AUTO 5SM 34/23 A2959 RMK T03400230 IEM_DS3505
ZGGG,2006-07-22 11:00,ZGGG 221100Z AUTO 11004KT 4SM 32/24 A2962 RMK T03200240 IEM_DS3505
ZGGG,2006-07-22 12:00,ZGGG 221200Z AUTO 04002KT 6SM 31/24 A2962 RMK SLP041 T03130242 52010 IEM_DS3505
ZGGG,2006-07-22 13:00,ZGGG 221300Z AUTO 12002KT 2 1/2SM 30/25 A2965 RMK T03000250 IEM_DS3505
ZGGG,2006-07-22 14:00,ZGGG 221400Z AUTO 08002KT 3SM 30/25 A2965 RMK T03000250 IEM_DS3505
ZGGG,2006-07-22 15:00,ZGGG 221500Z AUTO 16002KT 6SM 30/25 A2968 RMK SLP059 T03020248 52018 IEM_DS3505
ZGGG,2006-07-22 16:00,ZGGG 221600Z AUTO 10004KT 4SM 29/25 A2968 RMK T02900250 IEM_DS3505
ZGGG,2006-07-22 17:00,ZGGG 221700Z AUTO 11004KT 4SM 28/25 A2965 RMK T02800250 IEM_DS3505
ZGGG,2006-07-22 18:00,ZGGG 221800Z AUTO 14002KT 6SM 29/25 A2968 RMK SLP053 T02910249 57006 IEM_DS3505
ZGGG,2006-07-22 19:00,ZGGG 221900Z AUTO 08004KT 3SM 27/24 A2965 RMK T02700240 IEM_DS3505
ZGGG,2006-07-22 20:00,ZGGG 222000Z AUTO 07002KT 3SM 27/24 A2965 RMK T02700240 IEM_DS3505
ZGGG,2006-07-22 21:00,ZGGG 222100Z AUTO 07002KT 9SM 28/25 A2965 RMK SLP049 T02780248 57004 IEM_DS3505
ZGGG,2006-07-22 22:00,ZGGG 222200Z AUTO 11002KT 2 1/2SM 27/25 A2965 RMK T02700250 IEM_DS3505
ZGGG,2006-07-22 23:00,ZGGG 222300Z AUTO 09002KT 2 1/2SM 28/25 A2968 RMK T02800250 IEM_DS3505
ZGGG,2006-07-23 00:00,ZGGG 230000Z AUTO 09002KT 11SM 30/25 A2968 RMK SLP054 T03050251 52005 IEM_DS3505
ZGGG,2006-07-23 01:00,ZGGG 230100Z AUTO 3SM 32/25 A2968 RMK T03200250 IEM_DS3505
ZGGG,2006-07-23 02:00,ZGGG 230200Z AUTO 4SM 32/24 A2968 RMK T03200240 IEM_DS3505
ZGGG,2006-07-23 03:00,ZGGG 230300Z AUTO 25002KT 10SM 34/25 A2968 RMK SLP052 T03350249 57002 IEM_DS3505
ZGGG,2006-07-23 04:00,ZGGG 230400Z AUTO 3SM 35/25 A2965 RMK T03500250 IEM_DS3505
ZGGG,2006-07-23 05:00,ZGGG 230500Z AUTO 26004KT 3SM 35/23 A2965 RMK T03500230 IEM_DS3505
ZGGG,2006-07-23 06:00,ZGGG 230600Z AUTO 20002KT 9SM 34/25 A2962 RMK SLP034 T03400246 57018 IEM_DS3505
ZGGG,2006-07-23 07:00,ZGGG 230700Z AUTO 25004KT 4SM 36/24 A2959 RMK T03600240 IEM_DS3505
ZGGG,2006-07-23 08:00,ZGGG 230800Z AUTO 4SM 37/24 A2959 RMK T03700240 IEM_DS3505
ZGGG,2006-07-23 09:00,ZGGG 230900Z AUTO 27002KT 8SM 35/24 A2959 RMK SLP022 T03540237 57012 IEM_DS3505
ZGGG,2006-07-23 10:00,ZGGG 231000Z AUTO 22002KT 3SM 36/23 A2956 RMK T03600230 IEM_DS3505
ZGGG,2006-07-23 11:00,ZGGG 231100Z AUTO 2 1/2SM 34/25 A2959 RMK T03400250 IEM_DS3505
ZGGG,2006-07-23 12:00,ZGGG 231200Z AUTO 07002KT 7SM 32/26 A2962 RMK SLP032 T03180256 52010 IEM_DS3505
ZGGG,2006-07-23 13:00,ZGGG 231300Z AUTO 02002KT 2SM 32/26 A2962 RMK T03200260 IEM_DS3505
ZGGG,2006-07-23 14:00,ZGGG 231400Z AUTO 2SM 30/26 A2965 RMK T03000260 IEM_DS3505
ZGGG,2006-07-23 15:00,ZGGG 231500Z AUTO 07002KT 6SM 30/26 A2965 RMK SLP046 T03010256 52014 IEM_DS3505
ZGGG,2006-07-23 16:00,ZGGG 231600Z AUTO 13002KT 2SM 29/26 A2965 RMK T02900260 IEM_DS3505
ZGGG,2006-07-23 17:00,ZGGG 231700Z AUTO 1 1/2SM 29/26 A2962 RMK T02900260 IEM_DS3505
ZGGG,2006-07-23 18:00,ZGGG 231800Z AUTO 07002KT 6SM 29/26 A2962 RMK SLP037 T02890263 57009 IEM_DS3505
ZGGG,2006-07-23 19:00,ZGGG 231900Z AUTO 01002KT 1 1/4SM 28/25 A2962 RMK T02800250 IEM_DS3505
ZGGG,2006-07-23 20:00,ZGGG 232000Z AUTO 00000KT 1 1/4SM 28/25 A2962 RMK T02800250 IEM_DS3505
ZGGG,2006-07-23 21:00,ZGGG 232100Z AUTO 00000KT 6SM 28/26 A2962 RMK SLP033 T02830261 57004 IEM_DS3505
ZGGG,2006-07-23 22:00,ZGGG 232200Z AUTO 10002KT 1SM 27/25 A2962 RMK T02700250 IEM_DS3505
ZGGG,2006-07-23 23:00,ZGGG 232300Z AUTO 11002KT 1SM 28/25 A2962 RMK T02800250 IEM_DS3505
ZGGG,2006-07-24 00:00,ZGGG 240000Z AUTO 25002KT 4SM 30/26 A2962 RMK SLP039 T03020259 52006 IEM_DS3505
ZGGG,2006-07-24 01:00,ZGGG 240100Z AUTO 1SM 31/26 A2962 RMK T03100260 IEM_DS3505
ZGGG,2006-07-24 02:00,ZGGG 240200Z AUTO 1 1/4SM 33/26 A2962 RMK T03300260 IEM_DS3505
ZGGG,2006-07-24 03:00,ZGGG 240300Z AUTO 32002KT 1 1/2SM 35/26 A2962 RMK SLP035 T03540256 57004 IEM_DS3505
ZGGG,2006-07-24 04:00,ZGGG 240400Z AUTO 2 1/2SM 36/23 A2959 RMK T03600230 IEM_DS3505
ZGGG,2006-07-24 05:00,ZGGG 240500Z AUTO 3SM 37/23 A2959 RMK T03700230 IEM_DS3505
ZGGG,2006-07-24 06:00,ZGGG 240600Z AUTO 34002KT 6SM 37/24 A2956 RMK SLP015 T03700238 57020 IEM_DS3505
ZGGG,2006-07-24 07:00,ZGGG 240700Z AUTO 5SM 39/21 A2953 RMK T03900210 IEM_DS3505
ZGGG,2006-07-24 08:00,ZGGG 240800Z AUTO 5SM 38/21 A2950 RMK T03800210 IEM_DS3505
ZGGG,2006-07-24 09:00,ZGGG 240900Z AUTO 18002KT 6SM 37/24 A2950 RMK SLP996 T03690241 57018 IEM_DS3505
ZGGG,2006-07-24 10:00,ZGGG 241000Z AUTO 31006KT 4SM 37/20 A2950 RMK T03700200 IEM_DS3505
ZGGG,2006-07-24 11:00,ZGGG 241100Z AUTO 32006KT 5SM 37/21 A2950 RMK T03700210 IEM_DS3505
ZGGG,2006-07-24 12:00,ZGGG 241200Z AUTO 34002KT 9SM 32/22 A2953 RMK SLP007 T03170215 52010 IEM_DS3505
ZGGG,2006-07-24 13:00,ZGGG 241300Z AUTO 01004KT 3SM 32/23 A2956 RMK T03200230 IEM_DS3505
ZGGG,2006-07-24 14:00,ZGGG 241400Z AUTO 3SM 31/23 A2956 RMK T03100230 IEM_DS3505
ZGGG,2006-07-24 15:00,ZGGG 241500Z AUTO 34002KT 8SM 30/23 A2959 RMK SLP024 T03050234 52017 IEM_DS3505
ZGGG,2006-07-24 16:00,ZGGG 241600Z AUTO 02004KT 4SM 31/23 A2959 RMK T03100230 IEM_DS3505
ZGGG,2006-07-24 17:00,ZGGG 241700Z AUTO 01006KT 4SM 31/23 A2956 RMK T03100230 IEM_DS3505
ZGGG,2006-07-24 18:00,ZGGG 241800Z AUTO 32004KT 8SM 31/23 A2953 RMK SLP009 T03120233 57014 IEM_DS3505
ZGGG,2006-07-24 19:00,ZGGG 241900Z AUTO 32006KT 3SM 31/22 A2953 RMK T03100220 IEM_DS3505
ZGGG,2006-07-24 20:00,ZGGG 242000Z AUTO 34004KT 3SM 30/23 A2953 RMK T03000230 IEM_DS3505
ZGGG,2006-07-24 21:00,ZGGG 242100Z AUTO 32002KT 8SM 30/23 A2953 RMK SLP005 T02990229 57004 IEM_DS3505
ZGGG,2006-07-24 22:00,ZGGG 242200Z AUTO 34006KT 2 1/2SM 30/22 A2953 RMK T03000220 IEM_DS3505
ZGGG,2006-07-24 23:00,ZGGG 242300Z AUTO 36004KT 2 1/2SM 29/22 A2956 RMK T02900220 IEM_DS3505
ZGGG,2006-07-25 00:00,ZGGG 250000Z AUTO 32006KT 4SM 31/23 A2956 RMK SLP013 T03080232 52007 IEM_DS3505
ZGGG,2006-07-25 01:00,ZGGG 250100Z AUTO 34008KT 3SM 32/23 A2956 RMK T03200230 IEM_DS3505
ZGGG,2006-07-25 02:00,ZGGG 250200Z AUTO 33008KT 3SM 34/23 A2956 RMK T03400230 IEM_DS3505
ZGGG,2006-07-25 03:00,ZGGG 250300Z AUTO 02002KT 6SM 34/24 A2956 RMK SLP018 T03440237 52005 IEM_DS3505
ZGGG,2006-07-25 04:00,ZGGG 250400Z AUTO 35006KT 3SM 36/23 A2956 RMK T03600230 IEM_DS3505
ZGGG,2006-07-25 05:00,ZGGG 250500Z AUTO 35008KT 3SM 36/22 A2953 RMK T03600220 IEM_DS3505
ZGGG,2006-07-25 06:00,ZGGG 250600Z AUTO 34006KT 7SM 37/22 A2950 RMK SLP991 T03670225 57026 IEM_DS3505
ZGGG,2006-07-25 07:00,ZGGG 250700Z AUTO 33006KT 3SM 37/22 A2947 RMK T03700220 IEM_DS3505
ZGGG,2006-07-25 08:00,ZGGG 250800Z AUTO 33006KT 4SM 38/23 A2944 RMK T03800230 IEM_DS3505
ZGGG,2006-07-25 09:00,ZGGG 250900Z AUTO 32002KT 6SM 37/24 A2944 RMK SLP974 T03680236 57017 IEM_DS3505
ZGGG,2006-07-25 10:00,ZGGG 251000Z AUTO 32006KT 4SM 36/22 A2944 RMK T03600220 IEM_DS3505
ZGGG,2006-07-25 11:00,ZGGG 251100Z AUTO 27008KT 3SM 35/23 A2947 RMK T03500230 IEM_DS3505
ZGGG,2006-07-25 12:00,ZGGG 251200Z AUTO 27002KT 6SM 34/24 A2947 RMK SLP987 T03370237 52013 IEM_DS3505
ZGGG,2006-07-25 13:00,ZGGG 251300Z AUTO 32006KT 3SM 34/23 A2947 RMK T03400230 IEM_DS3505
ZGGG,2006-07-25 14:00,ZGGG 251400Z AUTO 27012KT 4SM 33/20 A2950 RMK T03300200 IEM_DS3505
ZGGG,2006-07-25 15:00,ZGGG 251500Z AUTO 25010KT 8SM 28/23 A2953 RMK SLP007 T02820227 52019 IEM_DS3505
ZGGG,2006-07-25 16:00,ZGGG 251600Z AUTO 20008KT 4SM 29/23 A2950 RMK T02900230 IEM_DS3505
ZGGG,2006-07-25 17:00,ZGGG 251700Z AUTO 23006KT 4SM 29/23 A2950 RMK T02900230 IEM_DS3505
ZGGG,2006-07-25 18:00,ZGGG 251800Z AUTO 29004KT 8SM 27/24 A2950 RMK 60035 SLP993 T02720239 57014 IEM_DS3505
ZGGG,2006-07-25 19:00,ZGGG 251900Z AUTO 27006KT 4SM 29/23 A2947 RMK T02900230 IEM_DS3505
ZGGG,2006-07-25 20:00,ZGGG 252000Z AUTO 4SM 29/23 A2947 RMK T02900230 IEM_DS3505
ZGGG,2006-07-25 21:00,ZGGG 252100Z AUTO 27004KT 7SM 28/23 A2947 RMK 70035 SLP990 T02780230 57002 IEM_DS3505
ZGGG,2006-07-25 22:00,ZGGG 252200Z AUTO 3SM 29/24 A2950 RMK T02900240 IEM_DS3505
ZGGG,2006-07-25 23:00,ZGGG 252300Z AUTO 26002KT 3SM 29/23 A2950 RMK T02900230 IEM_DS3505
ZGGG,2006-07-26 00:00,ZGGG 260000Z AUTO 27004KT 7SM 29/24 A2953 RMK 60000 70035 SLP005 T02860235 52014 IEM_DS3505
ZGGG,2006-07-26 01:00,ZGGG 260100Z AUTO 24008KT 2 1/2SM 29/24 A2950 RMK T02900240 IEM_DS3505
ZGGG,2006-07-26 02:00,ZGGG 260200Z AUTO 24008KT 2 1/2SM 29/23 A2953 RMK T02900230 IEM_DS3505
ZGGG,2006-07-26 03:00,ZGGG 260300Z AUTO 25004KT 3SM 29/24 A2953 RMK SLP006 T02890236 52001 IEM_DS3505
ZGGG,2006-07-26 04:00,ZGGG 260400Z AUTO 26010KT 3SM 32/23 A2950 RMK T03200230 IEM_DS3505
ZGGG,2006-07-26 05:00,ZGGG 260500Z AUTO 24010G19KT 3SM 31/23 A2950 RMK T03100230 IEM_DS3505
ZGGG,2006-07-26 06:00,ZGGG 260600Z AUTO 27004KT 4SM 30/24 A2950 RMK 60000 SLP003 T02950241 57003 IEM_DS3505
ZGGG,2006-07-26 07:00,ZGGG 260700Z AUTO 24006KT 1SM 29/25 A2950 RMK T02900250 IEM_DS3505
ZGGG,2006-07-26 08:00,ZGGG 260800Z AUTO 22006KT 1 1/4SM 28/24 A2950 RMK T02800240 IEM_DS3505
ZGGG,2006-07-26 09:00,ZGGG 260900Z AUTO 24006KT 3SM 28/25 A2950 RMK SLP000 T02830253 57003 IEM_DS3505
ZGGG,2006-07-26 10:00,ZGGG 261000Z AUTO 28006KT 1 1/4SM 27/24 A2950 RMK T02700240 IEM_DS3505
ZGGG,2006-07-26 11:00,ZGGG 261100Z AUTO 1 1/4SM 27/24 A2953 RMK T02700240 IEM_DS3505
ZGGG,2006-07-26 12:00,ZGGG 261200Z AUTO 27002KT 3SM 27/25 A2953 RMK 60004 SLP006 T02730246 52006 IEM_DS3505
ZGGG,2006-07-26 13:00,ZGGG 261300Z AUTO 27012KT 3SM 26/22 A2953 RMK T02600220 IEM_DS3505
ZGGG,2006-07-26 14:00,ZGGG 261400Z AUTO 22006KT 2 1/2SM 25/22 A2956 RMK T02500220 IEM_DS3505
ZGGG,2006-07-26 15:00,ZGGG 261500Z AUTO 29002KT 7SM 26/23 A2956 RMK SLP024 T02570230 52018 IEM_DS3505
ZGGG,2006-07-26 16:00,ZGGG 261600Z AUTO 18014KT 3SM 24/22 A2956 RMK T02400220 IEM_DS3505
ZGGG,2006-07-26 17:00,ZGGG 261700Z AUTO 20012KT 2 1/2SM 24/23 A2956 RMK T02400230 IEM_DS3505
ZGGG,2006-07-26 18:00,ZGGG 261800Z AUTO 25004KT 7SM 24/22 A2953 RMK 60110 SLP014 T02430222 57010 IEM_DS3505
ZGGG,2006-07-26 19:00,ZGGG 261900Z AUTO 20010KT 2 1/2SM 24/23 A2953 RMK T02400230 IEM_DS3505
ZGGG,2006-07-26 20:00,ZGGG 262000Z AUTO 20012KT 1 1/4SM 24/23 A2953 RMK T02400230 IEM_DS3505
ZGGG,2006-07-26 21:00,ZGGG 262100Z AUTO 20002KT 7SM 24/23 A2953 RMK 70125 SLP014 T02450228 57001 IEM_DS3505
ZGGG,2006-07-26 22:00,ZGGG 262200Z AUTO 15004KT 1 1/4SM 25/23 A2953 RMK T02500230 IEM_DS3505
ZGGG,2006-07-26 23:00,ZGGG 262300Z AUTO 12004KT 2SM 25/23 A2956 RMK T02500230 IEM_DS3505
ZGGG,2006-07-27 00:00,ZGGG 270000Z AUTO 14002KT 7SM 25/23 A2956 RMK 60016 70130 SLP019 T02520233 52005 IEM_DS3505
ZGGG,2006-07-27 01:00,ZGGG 270100Z AUTO 1 1/2SM 25/23 A2956 RMK T02500230 IEM_DS3505
ZGGG,2006-07-27 02:00,ZGGG 270200Z AUTO 13004KT 1SM 25/23 A2959 RMK T02500230 IEM_DS3505
ZGGG,2006-07-27 03:00,ZGGG 270300Z AUTO 09004KT 2SM 25/23 A2956 RMK SLP023 T02500234 52004 IEM_DS3505
ZGGG,2006-07-27 04:00,ZGGG 270400Z AUTO 1SM 25/23 A2956 RMK T02500230 IEM_DS3505
ZGGG,2006-07-27 05:00,ZGGG 270500Z AUTO 2SM 25/23 A2956 RMK T02500230 IEM_DS3505
ZGGG,2006-07-27 06:00,ZGGG 270600Z AUTO 16006KT 2 1/2SM 26/24 A2956 RMK 60028 SLP016 T02640239 57007 IEM_DS3505
ZGGG,2006-07-27 07:00,ZGGG 270700Z AUTO 2SM 27/24 A2953 RMK T02700240 IEM_DS3505
ZGGG,2006-07-27 08:00,ZGGG 270800Z AUTO 10004KT 2 1/2SM 27/24 A2953 RMK T02700240 IEM_DS3505
ZGGG,2006-07-27 09:00,ZGGG 270900Z AUTO 11002KT 4SM 27/24 A2953 RMK SLP009 T02720237 57007 IEM_DS3505
ZGGG,2006-07-27 10:00,ZGGG 271000Z AUTO 09004KT 2 1/2SM 27/24 A2953 RMK T02700240 IEM_DS3505
ZGGG,2006-07-27 11:00,ZGGG 271100Z AUTO 10004KT 2 1/2SM 26/24 A2956 RMK T02600240 IEM_DS3505
ZGGG,2006-07-27 12:00,ZGGG 271200Z AUTO 14006KT 9SM 27/23 A2956 RMK 60002 SLP022 T02690232 52013 IEM_DS3505
ZGGG,2006-07-27 13:00,ZGGG 271300Z AUTO 09002KT 3SM 26/23 A2959 RMK T02600230 IEM_DS3505
ZGGG,2006-07-27 14:00,ZGGG 271400Z AUTO 09004KT 3SM 25/23 A2962 RMK T02500230 IEM_DS3505
ZGGG,2006-07-27 15:00,ZGGG 271500Z AUTO 14004KT 10SM 26/23 A2962 RMK SLP037 T02650230 52015 IEM_DS3505
ZGGG,2006-07-27 16:00,ZGGG 271600Z AUTO 09008KT 3SM 26/23 A2962 RMK T02600230 IEM_DS3505
ZGGG,2006-07-27 17:00,ZGGG 271700Z AUTO 10006KT 4SM 26/23 A2959 RMK T02600230 IEM_DS3505
ZGGG,2006-07-27 18:00,ZGGG 271800Z AUTO 14002KT 7SM 25/24 A2959 RMK 60016 SLP029 T02530235 57008 IEM_DS3505
ZGGG,2006-07-27 19:00,ZGGG 271900Z AUTO 09006KT 4SM 26/23 A2959 RMK T02600230 IEM_DS3505
ZGGG,2006-07-27 20:00,ZGGG 272000Z AUTO 10008KT 6SM 26/23 A2959 RMK T02600230 IEM_DS3505
ZGGG,2006-07-27 21:00,ZGGG 272100Z AUTO 14002KT 10SM 25/24 A2959 RMK 70056 SLP027 T02520236 57002 IEM_DS3505
ZGGG,2006-07-27 22:00,ZGGG 272200Z AUTO 09008KT 7SM 26/23 A2959 RMK T02600230 IEM_DS3505
ZGGG,2006-07-27 23:00,ZGGG 272300Z AUTO 09008KT 7SM 26/23 A2959 RMK T02600230 IEM_DS3505
ZGGG,2006-07-28 00:00,ZGGG 280000Z AUTO 11004KT 13SM 26/23 A2962 RMK 60008 70050 SLP036 T02570234 52009 IEM_DS3505
ZGGG,2006-07-28 01:00,ZGGG 280100Z AUTO 09006KT 7SM 27/23 A2962 RMK T02700230 IEM_DS3505
ZGGG,2006-07-28 02:00,ZGGG 280200Z AUTO 10008KT 7SM 28/23 A2962 RMK T02800230 IEM_DS3505
ZGGG,2006-07-28 03:00,ZGGG 280300Z AUTO 11006KT 11SM 28/24 A2962 RMK SLP042 T02760236 52006 IEM_DS3505
ZGGG,2006-07-28 04:00,ZGGG 280400Z AUTO 12006KT 7SM 29/23 A2962 RMK T02900230 IEM_DS3505
ZGGG,2006-07-28 05:00,ZGGG 280500Z AUTO 11006KT 7SM 29/23 A2959 RMK T02900230 IEM_DS3505
ZGGG,2006-07-28 06:00,ZGGG 280600Z AUTO 14006KT 9SM 29/24 A2959 RMK 60000 SLP029 T02900237 57012 IEM_DS3505
ZGGG,2006-07-28 07:00,ZGGG 280700Z AUTO 13006KT 7SM 30/23 A2959 RMK T03000230 IEM_DS3505
ZGGG,2006-07-28 08:00,ZGGG 280800Z AUTO 12006KT 3SM 28/23 A2956 RMK T02800230 IEM_DS3505
ZGGG,2006-07-28 09:00,ZGGG 280900Z AUTO 14006KT 14SM 28/22 A2959 RMK SLP023 T02830225 57007 IEM_DS3505
ZGGG,2006-07-28 10:00,ZGGG 281000Z AUTO 07006KT 2 1/2SM 26/23 A2959 RMK T02600230 IEM_DS3505
ZGGG,2006-07-28 11:00,ZGGG 281100Z AUTO 08004KT 2 1/2SM 26/23 A2962 RMK T02600230 IEM_DS3505
ZGGG,2006-07-28 12:00,ZGGG 281200Z AUTO 11004KT 10SM 27/24 A2962 RMK 60000 SLP039 T02670236 52016 IEM_DS3505
ZGGG,2006-07-28 13:00,ZGGG 281300Z AUTO 09006KT 6SM 26/23 A2965 RMK T02600230 IEM_DS3505
ZGGG,2006-07-28 14:00,ZGGG 281400Z AUTO 09006KT 6SM 26/23 A2968 RMK T02600230 IEM_DS3505
ZGGG,2006-07-28 15:00,ZGGG 281500Z AUTO 11006KT 10SM 26/23 A2968 RMK SLP062 T02640233 52023 IEM_DS3505
ZGGG,2006-07-28 16:00,ZGGG 281600Z AUTO 09006KT 7SM 26/23 A2968 RMK T02600230 IEM_DS3505
ZGGG,2006-07-28 17:00,ZGGG 281700Z AUTO 09008KT 7SM 26/22 A2968 RMK T02600220 IEM_DS3505
ZGGG,2006-07-28 18:00,ZGGG 281800Z AUTO 09004KT 9SM 26/23 A2968 RMK SLP057 T02550230 57005 IEM_DS3505
ZGGG,2006-07-28 19:00,ZGGG 281900Z AUTO 08004KT 7SM 26/22 A2968 RMK T02600220 IEM_DS3505
ZGGG,2006-07-28 20:00,ZGGG 282000Z AUTO 07004KT 7SM 25/22 A2968 RMK T02500220 IEM_DS3505
ZGGG,2006-07-28 21:00,ZGGG 282100Z AUTO 09004KT 8SM 25/23 A2968 RMK 70000 SLP060 T02530228 52003 IEM_DS3505
ZGGG,2006-07-28 22:00,ZGGG 282200Z AUTO 7SM 25/22 A2971 RMK T02500220 IEM_DS3505
ZGGG,2006-07-28 23:00,ZGGG 282300Z AUTO 01002KT 7SM 25/22 A2971 RMK T02500220 IEM_DS3505
ZGGG,2006-07-29 00:00,ZGGG 290000Z AUTO 09006KT 13SM 27/23 A2974 RMK 70000 SLP076 T02660229 52016 IEM_DS3505
ZGGG,2006-07-29 01:00,ZGGG 290100Z AUTO 07008KT 7SM 28/22 A2974 RMK T02800220 IEM_DS3505
ZGGG,2006-07-29 02:00,ZGGG 290200Z AUTO 10010KT 7SM 28/23 A2974 RMK T02800230 IEM_DS3505
ZGGG,2006-07-29 03:00,ZGGG 290300Z AUTO 11008KT 11SM 29/23 A2974 RMK SLP082 T02870229 52006 IEM_DS3505
ZGGG,2006-07-29 04:00,ZGGG 290400Z AUTO 09012KT 7SM 29/22 A2977 RMK T02900220 IEM_DS3505
ZGGG,2006-07-29 05:00,ZGGG 290500Z AUTO 09016KT 7SM 29/23 A2977 RMK T02900230 IEM_DS3505
ZGGG,2006-07-29 06:00,ZGGG 290600Z AUTO 14010KT 12SM 28/22 A2977 RMK SLP085 T02770222 52003 IEM_DS3505
ZGGG,2006-07-29 07:00,ZGGG 290700Z AUTO 11012KT 7SM 29/23 A2974 RMK T02900230 IEM_DS3505
ZGGG,2006-07-29 08:00,ZGGG 290800Z AUTO 11012KT 7SM 28/23 A2977 RMK T02800230 IEM_DS3505
ZGGG,2006-07-29 09:00,ZGGG 290900Z AUTO 11006KT 4SM 26/24 A2977 RMK SLP090 T02560235 52005 IEM_DS3505
ZGGG,2006-07-29 10:00,ZGGG 291000Z AUTO 10008KT 7SM 26/23 A2977 RMK T02600230 IEM_DS3505
ZGGG,2006-07-29 11:00,ZGGG 291100Z AUTO 10008KT 7SM 25/22 A2980 RMK T02500220 IEM_DS3505
ZGGG,2006-07-29 12:00,ZGGG 291200Z AUTO 09004KT 8SM 25/23 A2980 RMK 60008 SLP099 T02510228 52009 IEM_DS3505
ZGGG,2006-07-29 13:00,ZGGG 291300Z AUTO 7SM 25/23 A2983 RMK T02500230 IEM_DS3505
ZGGG,2006-07-29 14:00,ZGGG 291400Z AUTO 06002KT 7SM 26/23 A2985 RMK T02600230 IEM_DS3505
ZGGG,2006-07-29 15:00,ZGGG 291500Z AUTO 04002KT 7SM 25/23 A2985 RMK SLP120 T02530234 52021 IEM_DS3505
ZGGG,2006-07-29 16:00,ZGGG 291600Z AUTO 7SM 26/23 A2985 RMK T02600230 IEM_DS3505
ZGGG,2006-07-29 17:00,ZGGG 291700Z AUTO 00000KT 7SM 26/23 A2983 RMK T02600230 IEM_DS3505
ZGGG,2006-07-29 18:00,ZGGG 291800Z AUTO 00000KT 7SM 25/23 A2983 RMK 60000 SLP103 T02510232 57017 IEM_DS3505
ZGGG,2006-07-29 19:00,ZGGG 291900Z AUTO 7SM 25/23 A2980 RMK T02500230 IEM_DS3505
ZGGG,2006-07-29 20:00,ZGGG 292000Z AUTO 00000KT 7SM 25/23 A2980 RMK T02500230 IEM_DS3505
ZGGG,2006-07-29 21:00,ZGGG 292100Z AUTO 36002KT 9SM 24/23 A2980 RMK 70009 SLP101 T02450229 57002 IEM_DS3505
ZGGG,2006-07-29 22:00,ZGGG 292200Z AUTO 00000KT 4SM 25/23 A2983 RMK T02500230 IEM_DS3505
ZGGG,2006-07-29 23:00,ZGGG 292300Z AUTO 06002KT 4SM 25/23 A2983 RMK T02500230 IEM_DS3505
ZGGG,2006-07-30 00:00,ZGGG 300000Z AUTO 11002KT 12SM 27/23 A2985 RMK 70009 SLP113 T02670232 52012 IEM_DS3505
ZGGG,2006-07-30 01:00,ZGGG 300100Z AUTO 07004KT 7SM 29/23 A2985 RMK T02900230 IEM_DS3505
ZGGG,2006-07-30 02:00,ZGGG 300200Z AUTO 10008KT 7SM 30/23 A2988 RMK T03000230 IEM_DS3505
ZGGG,2006-07-30 03:00,ZGGG 300300Z AUTO 11006KT 13SM 31/23 A2988 RMK SLP121 T03070226 52008 IEM_DS3505
ZGGG,2006-07-30 04:00,ZGGG 300400Z AUTO 11008KT 7SM 32/22 A2985 RMK T03200220 IEM_DS3505
ZGGG,2006-07-30 05:00,ZGGG 300500Z AUTO 11008KT 7SM 32/21 A2985 RMK T03200210 IEM_DS3505
ZGGG,2006-07-30 06:00,ZGGG 300600Z AUTO 27004KT 10SM 27/24 A2983 RMK 60020 SLP107 T02730238 57014 IEM_DS3505
ZGGG,2006-07-30 07:00,ZGGG 300700Z AUTO 11008KT 7SM 33/22 A2980 RMK T03300220 IEM_DS3505
ZGGG,2006-07-30 08:00,ZGGG 300800Z AUTO 19008KT 7SM 33/23 A2980 RMK T03300230 IEM_DS3505
ZGGG,2006-07-30 09:00,ZGGG 300900Z AUTO 17006KT 11SM 30/26 A2980 RMK SLP097 T03050256 57010 IEM_DS3505
ZGGG,2006-07-30 10:00,ZGGG 301000Z AUTO 16006KT 7SM 32/22 A2980 RMK T03200220 IEM_DS3505
ZGGG,2006-07-30 11:00,ZGGG 301100Z AUTO 18004KT 7SM 30/23 A2980 RMK T03000230 IEM_DS3505
ZGGG,2006-07-30 12:00,ZGGG 301200Z AUTO 07002KT 10SM 27/24 A2983 RMK 60028 SLP109 T02720239 52012 IEM_DS3505
ZGGG,2006-07-30 13:00,ZGGG 301300Z AUTO 5SM 29/24 A2983 RMK T02900240 IEM_DS3505
ZGGG,2006-07-30 14:00,ZGGG 301400Z AUTO 17002KT 4SM 28/24 A2985 RMK T02800240 IEM_DS3505
ZGGG,2006-07-30 15:00,ZGGG 301500Z AUTO 36002KT 10SM 26/24 A2985 RMK SLP117 T02610241 52008 IEM_DS3505
ZGGG,2006-07-30 16:00,ZGGG 301600Z AUTO 00000KT 4SM 28/24 A2985 RMK T02800240 IEM_DS3505
ZGGG,2006-07-30 17:00,ZGGG 301700Z AUTO 00000KT 4SM 27/24 A2985 RMK T02700240 IEM_DS3505
ZGGG,2006-07-30 18:00,ZGGG 301800Z AUTO 11002KT 10SM 26/24 A2983 RMK SLP111 T02550239 57006 IEM_DS3505
ZGGG,2006-07-30 19:00,ZGGG 301900Z AUTO 10002KT 3SM 26/24 A2983 RMK T02600240 IEM_DS3505
ZGGG,2006-07-30 20:00,ZGGG 302000Z AUTO 00000KT 3SM 26/24 A2983 RMK T02600240 IEM_DS3505
ZGGG,2006-07-30 21:00,ZGGG 302100Z AUTO 07002KT 7SM 25/24 A2983 RMK 70048 SLP105 T02510235 57006 IEM_DS3505
ZGGG,2006-07-30 22:00,ZGGG 302200Z AUTO 00000KT 1 1/2SM 26/23 A2983 RMK T02600230 IEM_DS3505
ZGGG,2006-07-30 23:00,ZGGG 302300Z AUTO 00000KT 1 1/4SM 27/24 A2983 RMK T02700240 IEM_DS3505
ZGGG,2006-07-31 00:00,ZGGG 310000Z AUTO 36002KT 8SM 28/24 A2983 RMK 70048 SLP107 T02820244 52002 IEM_DS3505
ZGGG,2006-07-31 01:00,ZGGG 310100Z AUTO 01004KT 2 1/2SM 29/23 A2983 RMK T02900230 IEM_DS3505
ZGGG,2006-07-31 02:00,ZGGG 310200Z AUTO 3SM 32/23 A2983 RMK T03200230 IEM_DS3505
ZGGG,2006-07-31 03:00,ZGGG 310300Z AUTO 09002KT 7SM 32/24 A2983 RMK SLP106 T03230235 57001 IEM_DS3505
ZGGG,2006-07-31 04:00,ZGGG 310400Z AUTO 4SM 34/23 A2980 RMK T03400230 IEM_DS3505
ZGGG,2006-07-31 05:00,ZGGG 310500Z AUTO 06004KT 4SM 34/23 A2980 RMK T03400230 IEM_DS3505
ZGGG,2006-07-31 06:00,ZGGG 310600Z AUTO 14004KT 9SM 33/22 A2977 RMK SLP092 T03290217 57013 IEM_DS3505
ZGGG,2006-07-31 07:00,ZGGG 310700Z AUTO 14006KT 7SM 35/22 A2977 RMK T03500220 IEM_DS3505
ZGGG,2006-07-31 08:00,ZGGG 310800Z AUTO 16006KT 7SM 35/21 A2974 RMK T03500210 IEM_DS3505
ZGGG,2006-07-31 09:00,ZGGG 310900Z AUTO 18002KT 8SM 33/23 A2974 RMK SLP076 T03310234 57016 IEM_DS3505
ZGGG,2006-07-31 10:00,ZGGG 311000Z AUTO 06002KT 5SM 32/25 A2974 RMK T03200250 IEM_DS3505
ZGGG,2006-07-31 11:00,ZGGG 311100Z AUTO 20004KT 3SM 32/23 A2974 RMK T03200230 IEM_DS3505
ZGGG,2006-07-31 12:00,ZGGG 311200Z AUTO 16002KT 8SM 30/22 A2977 RMK 60000 SLP087 T03010220 52011 IEM_DS3505
ZGGG,2006-07-31 13:00,ZGGG 311300Z AUTO 17004KT 4SM 30/22 A2977 RMK T03000220 IEM_DS3505
ZGGG,2006-07-31 14:00,ZGGG 311400Z AUTO 18004KT 6SM 29/22 A2980 RMK T02900220 IEM_DS3505
ZGGG,2006-07-31 15:00,ZGGG 311500Z AUTO 10002KT 9SM 27/23 A2980 RMK SLP098 T02720226 52011 IEM_DS3505
ZGGG,2006-07-31 16:00,ZGGG 311600Z AUTO 00000KT 4SM 28/23 A2980 RMK T02800230 IEM_DS3505
ZGGG,2006-07-31 17:00,ZGGG 311700Z AUTO 02002KT 4SM 28/23 A2980 RMK T02800230 IEM_DS3505
ZGGG,2006-07-31 18:00,ZGGG 311800Z AUTO 00000KT 8SM 26/23 A2977 RMK SLP091 T02570234 57007 IEM_DS3505
ZGGG,2006-07-31 19:00,ZGGG 311900Z AUTO 00000KT 3SM 26/24 A2977 RMK T02600240 IEM_DS3505
ZGGG,2006-07-31 20:00,ZGGG 312000Z AUTO 11002KT 3SM 26/24 A2974 RMK T02600240 IEM_DS3505
ZGGG,2006-07-31 21:00,ZGGG 312100Z AUTO 07002KT 7SM 25/23 A2974 RMK 70000 SLP078 T02510232 57013 IEM_DS3505
ZGGG,2006-07-31 22:00,ZGGG 312200Z AUTO 1 1/2SM 25/23 A2974 RMK T02500230 IEM_DS3505
ZGGG,2006-07-31 23:00,ZGGG 312300Z AUTO 10002KT 3SM 26/24 A2974 RMK T02600240 IEM_DS3505
ZGGG,2006-08-01 00:00,ZGGG 010000Z AUTO 07002KT 7SM 29/24 A2974 RMK 70000 SLP080 T02930235 52002 IEM_DS3505
ZGGG,2006-08-01 01:00,ZGGG 010100Z AUTO 4SM 30/23 A2974 RMK T03000230 IEM_DS3505
ZGGG,2006-08-01 02:00,ZGGG 010200Z AUTO 31004KT 6SM 32/21 A2974 RMK T03200210 IEM_DS3505
ZGGG,2006-08-01 03:00,ZGGG 010300Z AUTO 34004KT 15SM 33/22 A2974 RMK SLP076 T03310222 57004 IEM_DS3505
ZGGG,2006-08-01 04:00,ZGGG 010400Z AUTO 30006KT 6SM 34/22 A2971 RMK T03400220 IEM_DS3505
ZGGG,2006-08-01 05:00,ZGGG 010500Z AUTO 31004KT 6SM 36/21 A2971 RMK T03600210 IEM_DS3505
ZGGG,2006-08-01 06:00,ZGGG 010600Z AUTO 36004KT 14SM 36/22 A2968 RMK SLP055 T03560225 57021 IEM_DS3505
ZGGG,2006-08-01 07:00,ZGGG 010700Z AUTO 7SM 37/21 A2965 RMK T03700210 IEM_DS3505
ZGGG,2006-08-01 08:00,ZGGG 010800Z AUTO 16004KT 7SM 36/22 A2962 RMK T03600220 IEM_DS3505
ZGGG,2006-08-01 09:00,ZGGG 010900Z AUTO 04002KT 13SM 36/22 A2959 RMK SLP027 T03620224 57028 IEM_DS3505
ZGGG,2006-08-01 10:00,ZGGG 011000Z AUTO 4SM 33/23 A2959 RMK T03300230 IEM_DS3505
ZGGG,2006-08-01 11:00,ZGGG 011100Z AUTO 10006KT 4SM 31/22 A2962 RMK T03100220 IEM_DS3505
ZGGG,2006-08-01 12:00,ZGGG 011200Z AUTO 34002KT 11SM 32/23 A2962 RMK SLP038 T03160232 52011 IEM_DS3505
ZGGG,2006-08-01 13:00,ZGGG 011300Z AUTO 07008KT 4SM 30/23 A2965 RMK T03000230 IEM_DS3505
ZGGG,2006-08-01 14:00,ZGGG 011400Z AUTO 4SM 29/24 A2968 RMK T02900240 IEM_DS3505
ZGGG,2006-08-01 15:00,ZGGG 011500Z AUTO 07002KT 11SM 29/22 A2968 RMK SLP059 T02880225 52021 IEM_DS3505
ZGGG,2006-08-01 16:00,ZGGG 011600Z AUTO 4SM 28/24 A2968 RMK T02800240 IEM_DS3505
ZGGG,2006-08-01 17:00,ZGGG 011700Z AUTO 08006KT 4SM 27/24 A2968 RMK T02700240 IEM_DS3505
ZGGG,2006-08-01 18:00,ZGGG 011800Z AUTO 00000KT 9SM 28/23 A2968 RMK SLP051 T02790231 57008 IEM_DS3505
ZGGG,2006-08-01 19:00,ZGGG 011900Z AUTO 07002KT 3SM 27/24 A2965 RMK T02700240 IEM_DS3505
ZGGG,2006-08-01 20:00,ZGGG 012000Z AUTO 3SM 26/24 A2965 RMK T02600240 IEM_DS3505
ZGGG,2006-08-01 21:00,ZGGG 012100Z AUTO 36002KT 8SM 27/23 A2965 RMK SLP043 T02670232 57008 IEM_DS3505
ZGGG,2006-08-01 22:00,ZGGG 012200Z AUTO 3SM 27/23 A2965 RMK T02700230 IEM_DS3505
ZGGG,2006-08-01 23:00,ZGGG 012300Z AUTO 36004KT 4SM 28/23 A2965 RMK T02800230 IEM_DS3505
ZGGG,2006-08-02 00:00,ZGGG 020000Z AUTO 07002KT 10SM 29/22 A2962 RMK SLP044 T02910223 52001 IEM_DS3505
ZGGG,2006-08-02 01:00,ZGGG 020100Z AUTO 4SM 31/24 A2965 RMK T03100240 IEM_DS3505
ZGGG,2006-08-02 02:00,ZGGG 020200Z AUTO 06006KT 5SM 32/23 A2965 RMK T03200230 IEM_DS3505
ZGGG,2006-08-02 03:00,ZGGG 020300Z AUTO 02002KT 12SM 32/23 A2965 RMK SLP036 T03180231 57008 IEM_DS3505
ZGGG,2006-08-02 04:00,ZGGG 020400Z AUTO 08014KT 7SM 34/21 A2962 RMK T03400210 IEM_DS3505
ZGGG,2006-08-02 05:00,ZGGG 020500Z AUTO 08014KT 7SM 33/21 A2962 RMK T03300210 IEM_DS3505
ZGGG,2006-08-02 06:00,ZGGG 020600Z AUTO 09006KT 14SM 32/22 A2959 RMK SLP028 T03210219 57008 IEM_DS3505
ZGGG,2006-08-02 07:00,ZGGG 020700Z AUTO 08010KT 7SM 30/21 A2959 RMK T03000210 IEM_DS3505
ZGGG,2006-08-02 08:00,ZGGG 020800Z AUTO 09010KT 7SM 31/21 A2956 RMK T03100210 IEM_DS3505
ZGGG,2006-08-02 09:00,ZGGG 020900Z AUTO 07008KT 13SM 30/22 A2956 RMK SLP015 T02990221 57013 IEM_DS3505
ZGGG,2006-08-02 10:00,ZGGG 021000Z AUTO 06010KT 7SM 30/21 A2956 RMK T03000210 IEM_DS3505
ZGGG,2006-08-02 11:00,ZGGG 021100Z AUTO 08012G23KT 7SM 30/20 A2959 RMK T03000200 IEM_DS3505
ZGGG,2006-08-02 12:00,ZGGG 021200Z AUTO 02004KT 11SM 28/22 A2962 RMK 60000 SLP032 T02780216 52017 IEM_DS3505
ZGGG,2006-08-02 13:00,ZGGG 021300Z AUTO 04004KT 7SM 28/22 A2962 RMK T02800220 IEM_DS3505
ZGGG,2006-08-02 14:00,ZGGG 021400Z AUTO 05006KT 7SM 28/21 A2965 RMK T02800210 IEM_DS3505
ZGGG,2006-08-02 15:00,ZGGG 021500Z AUTO 04006KT 11SM 26/23 A2962 RMK SLP038 T02550226 52006 IEM_DS3505
ZGGG,2006-08-02 16:00,ZGGG 021600Z AUTO 01008KT 7SM 26/22 A2962 RMK T02600220 IEM_DS3505
ZGGG,2006-08-02 17:00,ZGGG 021700Z AUTO 01008KT 7SM 26/21 A2959 RMK T02600210 IEM_DS3505
ZGGG,2006-08-02 18:00,ZGGG 021800Z AUTO 02004KT 9SM 25/23 A2959 RMK 60020 SLP020 T02470228 57018 IEM_DS3505
ZGGG,2006-08-02 19:00,ZGGG 021900Z AUTO 04008KT 7SM 26/22 A2956 RMK T02600220 IEM_DS3505
ZGGG,2006-08-02 20:00,ZGGG 022000Z AUTO 03008KT 7SM 26/22 A2953 RMK T02600220 IEM_DS3505
ZGGG,2006-08-02 21:00,ZGGG 022100Z AUTO 04004KT 9SM 25/23 A2953 RMK 70035 SLP004 T02490226 57016 IEM_DS3505
ZGGG,2006-08-02 22:00,ZGGG 022200Z AUTO 03006KT 5SM 25/22 A2953 RMK T02500220 IEM_DS3505
ZGGG,2006-08-02 23:00,ZGGG 022300Z AUTO 04006KT 7SM 26/23 A2953 RMK T02600230 IEM_DS3505
ZGGG,2006-08-03 00:00,ZGGG 030000Z AUTO 14006KT 1 1/4SM 24/23 A2956 RMK 60071 70093 SLP019 T02450228 52014 IEM_DS3505
ZGGG,2006-08-03 01:00,ZGGG 030100Z AUTO 04008KT 3SM 25/23 A2959 RMK T02500230 IEM_DS3505
ZGGG,2006-08-03 02:00,ZGGG 030200Z AUTO 04010KT 7SM 27/23 A2956 RMK T02700230 IEM_DS3505
ZGGG,2006-08-03 03:00,ZGGG 030300Z AUTO 09006KT 15SM 26/23 A2956 RMK SLP011 T02610230 57008 IEM_DS3505
ZGGG,2006-08-03 04:00,ZGGG 030400Z AUTO 06012KT 7SM 28/23 A2953 RMK T02800230 IEM_DS3505
ZGGG,2006-08-03 06:00,ZGGG 030600Z AUTO 09006G21KT 14SM 27/24 A2953 RMK 60059 SLP994 T02670240 57017 IEM_DS3505
ZGGG,2006-08-03 07:00,ZGGG 030700Z AUTO 06010KT 7SM 26/24 A2950 RMK T02600240 IEM_DS3505
ZGGG,2006-08-03 08:00,ZGGG 030800Z AUTO 07012G21KT 7SM 27/22 A2947 RMK T02700220 IEM_DS3505
ZGGG,2006-08-03 09:00,ZGGG 030900Z AUTO 09010KT 14SM 27/22 A2947 RMK SLP979 T02680218 57014 IEM_DS3505
ZGGG,2006-08-03 10:00,ZGGG 031000Z AUTO 06010KT 5SM 26/22 A2947 RMK T02600220 IEM_DS3505
ZGGG,2006-08-03 11:00,ZGGG 031100Z AUTO 06012KT 1 1/2SM 25/22 A2950 RMK T02500220 IEM_DS3505
ZGGG,2006-08-03 12:00,ZGGG 031200Z AUTO 09008KT 12SM 25/23 A2956 RMK 60087 SLP007 T02510232 52027 IEM_DS3505
ZGGG,2006-08-03 13:00,ZGGG 031300Z AUTO 09010KT 7SM 26/22 A2956 RMK T02600220 IEM_DS3505
ZGGG,2006-08-03 14:00,ZGGG 031400Z AUTO 07008KT 7SM 25/22 A2959 RMK T02500220 IEM_DS3505
ZGGG,2006-08-03 15:00,ZGGG 031500Z AUTO 09006KT 11SM 25/22 A2959 RMK SLP025 T02490224 52018 IEM_DS3505
ZGGG,2006-08-03 16:00,ZGGG 031600Z AUTO 08012G21KT 4SM 25/22 A2959 RMK T02500220 IEM_DS3505
ZGGG,2006-08-03 17:00,ZGGG 031700Z AUTO 08012G21KT 7SM 25/22 A2956 RMK T02500220 IEM_DS3505
ZGGG,2006-08-03 18:00,ZGGG 031800Z AUTO 11006KT 9SM 24/23 A2956 RMK 60079 SLP011 T02450228 57014 IEM_DS3505
ZGGG,2006-08-03 19:00,ZGGG 031900Z AUTO 07010KT 7SM 25/22 A2956 RMK T02500220 IEM_DS3505
ZGGG,2006-08-03 20:00,ZGGG 032000Z AUTO 07010KT 7SM 25/22 A2956 RMK T02500220 IEM_DS3505
ZGGG,2006-08-03 21:00,ZGGG 032100Z AUTO 11004KT 8SM 25/23 A2956 RMK 70315 SLP017 T02490231 52006 IEM_DS3505
ZGGG,2006-08-03 22:00,ZGGG 032200Z AUTO 08010KT 1 1/2SM 25/23 A2959 RMK T02500230 IEM_DS3505
ZGGG,2006-08-03 23:00,ZGGG 032300Z AUTO 09010KT 5SM 25/23 A2962 RMK T02500230 IEM_DS3505
ZGGG,2006-08-04 00:00,ZGGG 040000Z AUTO 09008KT 9SM 25/23 A2962 RMK 60083 70303 SLP036 T02500234 52019 IEM_DS3505
ZGGG,2006-08-04 01:00,ZGGG 040100Z AUTO 08010KT 5SM 25/23 A2965 RMK T02500230 IEM_DS3505
ZGGG,2006-08-04 02:00,ZGGG 040200Z AUTO 08010KT 6SM 25/23 A2965 RMK T02500230 IEM_DS3505
ZGGG,2006-08-04 03:00,ZGGG 040300Z AUTO 14004KT 8SM 26/24 A2965 RMK SLP049 T02630243 52013 IEM_DS3505
ZGGG,2006-08-04 04:00,ZGGG 040400Z AUTO 09010KT 7SM 28/24 A2965 RMK T02800240 IEM_DS3505
ZGGG,2006-08-04 05:00,ZGGG 040500Z AUTO 09010KT 7SM 29/24 A2965 RMK T02900240 IEM_DS3505
ZGGG,2006-08-04 06:00,ZGGG 040600Z AUTO 11006KT 7SM 29/25 A2962 RMK 60024 SLP041 T02880246 57008 IEM_DS3505
ZGGG,2006-08-04 07:00,ZGGG 040700Z AUTO 10006KT 7SM 29/24 A2962 RMK T02900240 IEM_DS3505
ZGGG,2006-08-04 08:00,ZGGG 040800Z AUTO 10010G19KT 2 1/2SM 27/24 A2962 RMK T02700240 IEM_DS3505
ZGGG,2006-08-04 09:00,ZGGG 040900Z AUTO 16006G19KT 11SM 29/24 A2965 RMK SLP041 T02860237 54000 IEM_DS3505
ZGGG,2006-08-04 10:00,ZGGG 041000Z AUTO 10006KT 1 1/4SM 26/23 A2965 RMK T02600230 IEM_DS3505
ZGGG,2006-08-04 11:00,ZGGG 041100Z AUTO 10004KT 2 1/2SM 26/24 A2968 RMK T02600240 IEM_DS3505
ZGGG,2006-08-04 12:00,ZGGG 041200Z AUTO 11004KT 11SM 28/24 A2971 RMK 60000 SLP064 T02760240 52023 IEM_DS3505
ZGGG,2006-08-04 13:00,ZGGG 041300Z AUTO 10004KT 4SM 27/24 A2971 RMK T02700240 IEM_DS3505
ZGGG,2006-08-04 14:00,ZGGG 041400Z AUTO 09006KT 5SM 27/23 A2974 RMK T02700230 IEM_DS3505
ZGGG,2006-08-04 15:00,ZGGG 041500Z AUTO 11004KT 9SM 27/24 A2974 RMK SLP082 T02670238 52018 IEM_DS3505
ZGGG,2006-08-04 16:00,ZGGG 041600Z AUTO 08004KT 6SM 26/23 A2974 RMK T02600230 IEM_DS3505
ZGGG,2006-08-04 17:00,ZGGG 041700Z AUTO 08004KT 4SM 26/23 A2974 RMK T02600230 IEM_DS3505
ZGGG,2006-08-04 18:00,ZGGG 041800Z AUTO 11004KT 9SM 26/24 A2971 RMK SLP070 T02620241 57012 IEM_DS3505
ZGGG,2006-08-04 19:00,ZGGG 041900Z AUTO 08004KT 4SM 26/23 A2971 RMK T02600230 IEM_DS3505
ZGGG,2006-08-04 20:00,ZGGG 042000Z AUTO 07004KT 6SM 26/23 A2971 RMK T02600230 IEM_DS3505
ZGGG,2006-08-04 21:00,ZGGG 042100Z AUTO 11004KT 9SM 26/23 A2971 RMK 70069 SLP066 T02570234 57004 IEM_DS3505
ZGGG,2006-08-04 22:00,ZGGG 042200Z AUTO 08002KT 5SM 25/22 A2971 RMK T02500220 IEM_DS3505
ZGGG,2006-08-04 23:00,ZGGG 042300Z AUTO 07004KT 6SM 26/23 A2974 RMK T02600230 IEM_DS3505
ZGGG,2006-08-05 00:00,ZGGG 050000Z AUTO 09004KT 9SM 27/24 A2974 RMK 70023 SLP079 T02680235 52013 IEM_DS3505
ZGGG,2006-08-05 01:00,ZGGG 050100Z AUTO 09008KT 7SM 29/23 A2974 RMK T02900230 IEM_DS3505
ZGGG,2006-08-05 02:00,ZGGG 050200Z AUTO 10008KT 7SM 29/23 A2977 RMK T02900230 IEM_DS3505
ZGGG,2006-08-05 03:00,ZGGG 050300Z AUTO 09004KT 11SM 30/24 A2977 RMK SLP082 T02970239 52003 IEM_DS3505
ZGGG,2006-08-05 04:00,ZGGG 050400Z AUTO 08006KT 7SM 31/23 A2974 RMK T03100230 IEM_DS3505
ZGGG,2006-08-05 05:00,ZGGG 050500Z AUTO 09006KT 7SM 31/24 A2971 RMK T03100240 IEM_DS3505
ZGGG,2006-08-05 06:00,ZGGG 050600Z AUTO 07002KT 11SM 29/24 A2968 RMK SLP065 T02880241 57017 IEM_DS3505
ZGGG,2006-08-05 07:00,ZGGG 050700Z AUTO 17006KT 7SM 30/25 A2968 RMK T03000250 IEM_DS3505
ZGGG,2006-08-05 08:00,ZGGG 050800Z AUTO 15008KT 7SM 30/24 A2968 RMK T03000240 IEM_DS3505
ZGGG,2006-08-05 09:00,ZGGG 050900Z AUTO 11004KT 10SM 29/24 A2968 RMK SLP055 T02890236 57010 IEM_DS3505
ZGGG,2006-08-05 10:00,ZGGG 051000Z AUTO 08004KT 6SM 28/24 A2968 RMK T02800240 IEM_DS3505
ZGGG,2006-08-05 11:00,ZGGG 051100Z AUTO 07004KT 6SM 27/24 A2971 RMK T02700240 IEM_DS3505
ZGGG,2006-08-05 12:00,ZGGG 051200Z AUTO 11002KT 9SM 27/24 A2974 RMK SLP078 T02710238 52023 IEM_DS3505
ZGGG,2006-08-05 13:00,ZGGG 051300Z AUTO 08004KT 6SM 27/23 A2974 RMK T02700230 IEM_DS3505
ZGGG,2006-08-05 14:00,ZGGG 051400Z AUTO 7SM 27/23 A2977 RMK T02700230 IEM_DS3505
ZGGG,2006-08-05 15:00,ZGGG 051500Z AUTO 11004KT 10SM 26/24 A2977 RMK SLP087 T02650238 52009 IEM_DS3505
ZGGG,2006-08-05 16:00,ZGGG 051600Z AUTO 7SM 26/23 A2977 RMK T02600230 IEM_DS3505
ZGGG,2006-08-05 17:00,ZGGG 051700Z AUTO 7SM 26/23 A2974 RMK T02600230 IEM_DS3505
ZGGG,2006-08-05 18:00,ZGGG 051800Z AUTO 09002KT 10SM 26/23 A2971 RMK SLP072 T02570234 57015 IEM_DS3505
ZGGG,2006-08-05 19:00,ZGGG 051900Z AUTO 04002KT 7SM 26/23 A2971 RMK T02600230 IEM_DS3505
ZGGG,2006-08-05 20:00,ZGGG 052000Z AUTO 5SM 25/23 A2971 RMK T02500230 IEM_DS3505
ZGGG,2006-08-05 21:00,ZGGG 052100Z AUTO 14002KT 9SM 26/23 A2971 RMK 70000 SLP070 T02560231 57002 IEM_DS3505
ZGGG,2006-08-05 22:00,ZGGG 052200Z AUTO 11004KT 3SM 25/23 A2971 RMK T02500230 IEM_DS3505
ZGGG,2006-08-05 23:00,ZGGG 052300Z AUTO 3SM 26/23 A2974 RMK T02600230 IEM_DS3505
ZGGG,2006-08-06 00:00,ZGGG 060000Z AUTO 11002KT 4SM 25/23 A2974 RMK 60003 70003 SLP082 T02530234 52012 IEM_DS3505
ZGGG,2006-08-06 01:00,ZGGG 060100Z AUTO 08006KT 5SM 27/23 A2977 RMK T02700230 IEM_DS3505
ZGGG,2006-08-06 02:00,ZGGG 060200Z AUTO 07004KT 7SM 28/23 A2977 RMK T02800230 IEM_DS3505
ZGGG,2006-08-06 03:00,ZGGG 060300Z AUTO 07004KT 9SM 28/23 A2977 RMK SLP084 T02850232 52002 IEM_DS3505
ZGGG,2006-08-06 04:00,ZGGG 060400Z AUTO 12004KT 7SM 30/22 A2974 RMK T03000220 IEM_DS3505
ZGGG,2006-08-06 05:00,ZGGG 060500Z AUTO 7SM 31/23 A2971 RMK T03100230 IEM_DS3505
ZGGG,2006-08-06 06:00,ZGGG 060600Z AUTO 09004KT 7SM 30/23 A2971 RMK 60000 SLP066 T03000234 57018 IEM_DS3505
ZGGG,2006-08-06 07:00,ZGGG 060700Z AUTO 10004KT 5SM 30/23 A2968 RMK T03000230 IEM_DS3505
ZGGG,2006-08-06 08:00,ZGGG 060800Z AUTO 12004KT 5SM 30/23 A2968 RMK T03000230 IEM_DS3505
ZGGG,2006-08-06 09:00,ZGGG 060900Z AUTO 16002KT 7SM 31/23 A2965 RMK SLP049 T03140230 57016 IEM_DS3505
ZGGG,2006-08-06 10:00,ZGGG 061000Z AUTO 4SM 30/24 A2965 RMK T03000240 IEM_DS3505
ZGGG,2006-08-06 11:00,ZGGG 061100Z AUTO 3SM 28/24 A2965 RMK T02800240 IEM_DS3505
ZGGG,2006-08-06 12:00,ZGGG 061200Z AUTO 14002KT 7SM 28/23 A2968 RMK SLP059 T02850232 52009 IEM_DS3505
ZGGG,2006-08-06 13:00,ZGGG 061300Z AUTO 09004KT 2 1/2SM 28/24 A2971 RMK T02800240 IEM_DS3505
ZGGG,2006-08-06 14:00,ZGGG 061400Z AUTO 2 1/2SM 27/24 A2971 RMK T02700240 IEM_DS3505
ZGGG,2006-08-06 15:00,ZGGG 061500Z AUTO 07002KT 9SM 26/24 A2974 RMK SLP076 T02640237 52017 IEM_DS3505
ZGGG,2006-08-06 16:00,ZGGG 061600Z AUTO 09004KT 2 1/2SM 27/23 A2971 RMK T02700230 IEM_DS3505
ZGGG,2006-08-06 17:00,ZGGG 061700Z AUTO 06002KT 2 1/2SM 26/23 A2971 RMK T02600230 IEM_DS3505
ZGGG,2006-08-06 18:00,ZGGG 061800Z AUTO 16002KT 8SM 27/24 A2968 RMK SLP058 T02690238 57017 IEM_DS3505
ZGGG,2006-08-06 19:00,ZGGG 061900Z AUTO 08002KT 2 1/2SM 26/23 A2968 RMK T02600230 IEM_DS3505
ZGGG,2006-08-06 20:00,ZGGG 062000Z AUTO 00000KT 2SM 26/24 A2968 RMK T02600240 IEM_DS3505
ZGGG,2006-08-06 21:00,ZGGG 062100Z AUTO 16002KT 7SM 26/24 A2968 RMK 70004 SLP057 T02620239 57001 IEM_DS3505
ZGGG,2006-08-06 22:00,ZGGG 062200Z AUTO 2SM 26/24 A2968 RMK T02600240 IEM_DS3505
ZGGG,2006-08-06 23:00,ZGGG 062300Z AUTO 00000KT 1 1/2SM 27/24 A2968 RMK T02700240 IEM_DS3505
ZGGG,2006-08-07 00:00,ZGGG 070000Z AUTO 04002KT 7SM 28/24 A2968 RMK 70000 SLP062 T02760240 52005 IEM_DS3505
ZGGG,2006-08-07 01:00,ZGGG 070100Z AUTO 05004KT 2SM 28/24 A2971 RMK T02800240 IEM_DS3505
ZGGG,2006-08-07 02:00,ZGGG 070200Z AUTO 30004KT 3SM 29/23 A2971 RMK T02900230 IEM_DS3505
ZGGG,2006-08-07 03:00,ZGGG 070300Z AUTO 18002KT 9SM 31/23 A2971 RMK SLP063 T03130229 52001 IEM_DS3505
ZGGG,2006-08-07 04:00,ZGGG 070400Z AUTO 3SM 32/23 A2968 RMK T03200230 IEM_DS3505
ZGGG,2006-08-07 05:00,ZGGG 070500Z AUTO 3SM 32/22 A2968 RMK T03200220 IEM_DS3505
ZGGG,2006-08-07 06:00,ZGGG 070600Z AUTO 32004KT 9SM 32/24 A2965 RMK SLP043 T03240242 57020 IEM_DS3505
ZGGG,2006-08-07 07:00,ZGGG 070700Z AUTO 4SM 33/21 A2959 RMK T03300210 IEM_DS3505
ZGGG,2006-08-07 08:00,ZGGG 070800Z AUTO 4SM 34/23 A2959 RMK T03400230 IEM_DS3505
ZGGG,2006-08-07 09:00,ZGGG 070900Z AUTO 16002KT 9SM 33/23 A2956 RMK SLP020 T03270231 57023 IEM_DS3505
ZGGG,2006-08-07 10:00,ZGGG 071000Z AUTO 3SM 33/24 A2959 RMK T03300240 IEM_DS3505
ZGGG,2006-08-07 11:00,ZGGG 071100Z AUTO 22004KT 2 1/2SM 31/24 A2959 RMK T03100240 IEM_DS3505
ZGGG,2006-08-07 12:00,ZGGG 071200Z AUTO 00000KT 9SM 29/24 A2962 RMK SLP041 T02870236 52021 IEM_DS3505
ZGGG,2006-08-07 13:00,ZGGG 071300Z AUTO 2 1/2SM 29/25 A2965 RMK T02900250 IEM_DS3505
ZGGG,2006-08-07 14:00,ZGGG 071400Z AUTO 06002KT 2SM 28/24 A2965 RMK T02800240 IEM_DS3505
ZGGG,2006-08-07 15:00,ZGGG 071500Z AUTO 14002KT 9SM 29/24 A2965 RMK SLP050 T02860240 52009 IEM_DS3505
ZGGG,2006-08-07 16:00,ZGGG 071600Z AUTO 3SM 27/24 A2965 RMK T02700240 IEM_DS3505
ZGGG,2006-08-07 17:00,ZGGG 071700Z AUTO 06002KT 3SM 27/24 A2965 RMK T02700240 IEM_DS3505
ZGGG,2006-08-07 18:00,ZGGG 071800Z AUTO 14002KT 9SM 27/24 A2965 RMK SLP047 T02740243 57003 IEM_DS3505
ZGGG,2006-08-07 19:00,ZGGG 071900Z AUTO 00000KT 2 1/2SM 27/24 A2965 RMK T02700240 IEM_DS3505
ZGGG,2006-08-07 20:00,ZGGG 072000Z AUTO 01002KT 2 1/2SM 26/24 A2962 RMK T02600240 IEM_DS3505
ZGGG,2006-08-07 21:00,ZGGG 072100Z AUTO 07002KT 7SM 26/24 A2962 RMK SLP040 T02640244 57007 IEM_DS3505
ZGGG,2006-08-07 22:00,ZGGG 072200Z AUTO 00000KT 1 1/4SM 26/24 A2965 RMK T02600240 IEM_DS3505
ZGGG,2006-08-07 23:00,ZGGG 072300Z AUTO 07004KT 1 1/4SM 26/24 A2965 RMK T02600240 IEM_DS3505
ZGGG,2006-08-08 00:00,ZGGG 080000Z AUTO 09004KT 7SM 28/25 A2965 RMK SLP047 T02820246 52007 IEM_DS3505
ZGGG,2006-08-08 01:00,ZGGG 080100Z AUTO 12004KT 2 1/2SM 29/24 A2965 RMK T02900240 IEM_DS3505
ZGGG,2006-08-08 02:00,ZGGG 080200Z AUTO 4SM 32/24 A2965 RMK T03200240 IEM_DS3505
ZGGG,2006-08-08 03:00,ZGGG 080300Z AUTO 34002KT 9SM 33/23 A2965 RMK SLP046 T03280229 57001 IEM_DS3505
ZGGG,2006-08-08 04:00,ZGGG 080400Z AUTO 4SM 33/23 A2965 RMK T03300230 IEM_DS3505
ZGGG,2006-08-08 05:00,ZGGG 080500Z AUTO 20004KT 4SM 34/23 A2962 RMK T03400230 IEM_DS3505
ZGGG,2006-08-08 06:00,ZGGG 080600Z AUTO 27004KT 6SM 34/23 A2959 RMK SLP029 T03420232 57017 IEM_DS3505
ZGGG,2006-08-08 07:00,ZGGG 080700Z AUTO 4SM 35/22 A2956 RMK T03500220 IEM_DS3505
ZGGG,2006-08-08 08:00,ZGGG 080800Z AUTO 3SM 34/23 A2956 RMK T03400230 IEM_DS3505
ZGGG,2006-08-08 09:00,ZGGG 080900Z AUTO 34002KT 7SM 28/24 A2956 RMK SLP017 T02760244 57012 IEM_DS3505
ZGGG,2006-08-08 10:00,ZGGG 081000Z AUTO 28006KT 4SM 29/23 A2959 RMK T02900230 IEM_DS3505
ZGGG,2006-08-08 11:00,ZGGG 081100Z AUTO 33006KT 4SM 28/23 A2959 RMK T02800230 IEM_DS3505
ZGGG,2006-08-08 12:00,ZGGG 081200Z AUTO 09004KT 4SM 27/23 A2962 RMK 60063 SLP046 T02740228 52029 IEM_DS3505
ZGGG,2006-08-08 13:00,ZGGG 081300Z AUTO 05012KT 2 1/2SM 26/23 A2968 RMK T02600230 IEM_DS3505
ZGGG,2006-08-08 14:00,ZGGG 081400Z AUTO 09004KT 3SM 25/24 A2968 RMK T02500240 IEM_DS3505
ZGGG,2006-08-08 15:00,ZGGG 081500Z AUTO 04002KT 4SM 26/24 A2968 RMK SLP056 T02570239 52010 IEM_DS3505
ZGGG,2006-08-08 16:00,ZGGG 081600Z AUTO 03004KT 1 1/2SM 26/24 A2968 RMK T02600240 IEM_DS3505
ZGGG,2006-08-08 17:00,ZGGG 081700Z AUTO 00000KT 1 1/4SM 26/24 A2965 RMK T02600240 IEM_DS3505
ZGGG,2006-08-08 18:00,ZGGG 081800Z AUTO 02002KT 1 1/4SM 25/24 A2965 RMK 60012 SLP045 T02530239 57011 IEM_DS3505
ZGGG,2006-08-08 19:00,ZGGG 081900Z AUTO 08002KT 1 1/4SM 25/24 A2962 RMK T02500240 IEM_DS3505
ZGGG,2006-08-08 20:00,ZGGG 082000Z AUTO 08002KT 1 1/4SM 25/23 A2962 RMK T02500230 IEM_DS3505
ZGGG,2006-08-08 21:00,ZGGG 082100Z AUTO 04002KT 2 1/2SM 25/23 A2962 RMK 70071 SLP037 T02480234 57009 IEM_DS3505
ZGGG,2006-08-08 22:00,ZGGG 082200Z AUTO 00000KT 1SM 25/23 A2962 RMK T02500230 IEM_DS3505
ZGGG,2006-08-08 23:00,ZGGG 082300Z AUTO 00000KT 1 1/4SM 25/24 A2962 RMK T02500240 IEM_DS3505
ZGGG,2006-08-09 00:00,ZGGG 090000Z AUTO 29002KT 4SM 27/24 A2962 RMK 70071 SLP040 T02690236 52003 IEM_DS3505
ZGGG,2006-08-09 01:00,ZGGG 090100Z AUTO 2SM 29/24 A2962 RMK T02900240 IEM_DS3505
ZGGG,2006-08-09 02:00,ZGGG 090200Z AUTO 3SM 30/24 A2965 RMK T03000240 IEM_DS3505
ZGGG,2006-08-09 03:00,ZGGG 090300Z AUTO 32004KT 4SM 32/25 A2962 RMK SLP038 T03190250 57001 IEM_DS3505
ZGGG,2006-08-09 04:00,ZGGG 090400Z AUTO 5SM 33/24 A2962 RMK T03300240 IEM_DS3505
ZGGG,2006-08-09 05:00,ZGGG 090500Z AUTO 15002KT 6SM 34/23 A2959 RMK T03400230 IEM_DS3505
ZGGG,2006-08-09 06:00,ZGGG 090600Z AUTO 07002KT 7SM 35/25 A2956 RMK SLP018 T03510247 57020 IEM_DS3505
ZGGG,2006-08-09 07:00,ZGGG 090700Z AUTO 06008KT 7SM 33/25 A2953 RMK T03300250 IEM_DS3505
ZGGG,2006-08-09 08:00,ZGGG 090800Z AUTO 08004KT 7SM 34/24 A2953 RMK T03400240 IEM_DS3505
ZGGG,2006-08-09 09:00,ZGGG 090900Z AUTO 11002KT 11SM 35/23 A2950 RMK SLP998 T03490226 57020 IEM_DS3505
ZGGG,2006-08-09 10:00,ZGGG 091000Z AUTO 00000KT 7SM 35/23 A2950 RMK T03500230 IEM_DS3505
ZGGG,2006-08-09 11:00,ZGGG 091100Z AUTO 00000KT 7SM 33/23 A2953 RMK T03300230 IEM_DS3505
ZGGG,2006-08-09 12:00,ZGGG 091200Z AUTO 07002KT 10SM 31/25 A2953 RMK SLP009 T03070246 52011 IEM_DS3505
ZGGG,2006-08-09 13:00,ZGGG 091300Z AUTO 34004KT 4SM 32/24 A2956 RMK T03200240 IEM_DS3505
ZGGG,2006-08-09 14:00,ZGGG 091400Z AUTO 06004KT 4SM 30/25 A2959 RMK T03000250 IEM_DS3505
ZGGG,2006-08-09 15:00,ZGGG 091500Z AUTO 29002KT 9SM 30/25 A2959 RMK SLP023 T02950250 52014 IEM_DS3505
ZGGG,2006-08-09 16:00,ZGGG 091600Z AUTO 31006KT 5SM 30/23 A2956 RMK T03000230 IEM_DS3505
ZGGG,2006-08-09 17:00,ZGGG 091700Z AUTO 33006KT 5SM 30/23 A2956 RMK T03000230 IEM_DS3505
ZGGG,2006-08-09 18:00,ZGGG 091800Z AUTO 36002KT 9SM 29/24 A2953 RMK SLP011 T02860237 57012 IEM_DS3505
ZGGG,2006-08-09 19:00,ZGGG 091900Z AUTO 00000KT 4SM 29/24 A2953 RMK T02900240 IEM_DS3505
ZGGG,2006-08-09 20:00,ZGGG 092000Z AUTO 08002KT 3SM 28/25 A2953 RMK T02800250 IEM_DS3505
ZGGG,2006-08-09 21:00,ZGGG 092100Z AUTO 09002KT 7SM 28/24 A2956 RMK 70000 SLP013 T02770245 52002 IEM_DS3505
ZGGG,2006-08-09 22:00,ZGGG 092200Z AUTO 2 1/2SM 27/24 A2956 RMK T02700240 IEM_DS3505
ZGGG,2006-08-09 23:00,ZGGG 092300Z AUTO 03004KT 2SM 27/25 A2956 RMK T02700250 IEM_DS3505
ZGGG,2006-08-10 00:00,ZGGG 100000Z AUTO 14002KT 1 1/2SM 27/25 A2956 RMK 60000 70000 SLP023 T02720248 52010 IEM_DS3505
ZGGG,2006-08-10 01:00,ZGGG 100100Z AUTO 2 1/2SM 29/25 A2959 RMK T02900250 IEM_DS3505
ZGGG,2006-08-10 02:00,ZGGG 100200Z AUTO 29004KT 3SM 30/24 A2959 RMK T03000240 IEM_DS3505
ZGGG,2006-08-10 03:00,ZGGG 100300Z AUTO 00000KT 1 1/2SM 30/26 A2959 RMK SLP024 T03010256 52001 IEM_DS3505
ZGGG,2006-08-10 04:00,ZGGG 100400Z AUTO 34004KT 5SM 34/25 A2956 RMK T03400250 IEM_DS3505
ZGGG,2006-08-10 05:00,ZGGG 100500Z AUTO 7SM 35/23 A2953 RMK T03500230 IEM_DS3505
ZGGG,2006-08-10 06:00,ZGGG 100600Z AUTO 09002KT 7SM 35/24 A2950 RMK 60000 SLP004 T03480235 57020 IEM_DS3505
ZGGG,2006-08-10 07:00,ZGGG 100700Z AUTO 15004KT 4SM 30/25 A2950 RMK T03000250 IEM_DS3505
ZGGG,2006-08-10 08:00,ZGGG 100800Z AUTO 00000KT 5SM 33/26 A2947 RMK T03300260 IEM_DS3505
ZGGG,2006-08-10 09:00,ZGGG 100900Z AUTO 04002KT 9SM 35/24 A2947 RMK SLP981 T03520245 57023 IEM_DS3505
ZGGG,2006-08-10 10:00,ZGGG 101000Z AUTO 11006KT 4SM 33/26 A2947 RMK T03300260 IEM_DS3505
ZGGG,2006-08-10 11:00,ZGGG 101100Z AUTO 10004KT 4SM 31/25 A2947 RMK T03100250 IEM_DS3505
ZGGG,2006-08-10 12:00,ZGGG 101200Z AUTO 07002KT 11SM 30/24 A2950 RMK SLP999 T03050239 52018 IEM_DS3505
ZGGG,2006-08-10 13:00,ZGGG 101300Z AUTO 00000KT 6SM 31/25 A2953 RMK T03100250 IEM_DS3505
ZGGG,2006-08-10 14:00,ZGGG 101400Z AUTO 00000KT 5SM 30/26 A2956 RMK T03000260 IEM_DS3505
ZGGG,2006-08-10 15:00,ZGGG 101500Z AUTO 07002KT 9SM 29/24 A2956 RMK SLP018 T02910244 52019 IEM_DS3505
ZGGG,2006-08-10 16:00,ZGGG 101600Z AUTO 00000KT 4SM 29/25 A2956 RMK T02900250 IEM_DS3505
ZGGG,2006-08-10 17:00,ZGGG 101700Z AUTO 00000KT 3SM 28/26 A2956 RMK T02800260 IEM_DS3505
ZGGG,2006-08-10 18:00,ZGGG 101800Z AUTO 10002KT 8SM 28/24 A2953 RMK SLP010 T02770245 57008 IEM_DS3505
ZGGG,2006-08-10 19:00,ZGGG 101900Z AUTO 00000KT 3SM 28/26 A2953 RMK T02800260 IEM_DS3505
ZGGG,2006-08-10 20:00,ZGGG 102000Z AUTO 00000KT 3SM 28/25 A2956 RMK T02800250 IEM_DS3505
ZGGG,2006-08-10 21:00,ZGGG 102100Z AUTO 00000KT 8SM 27/24 A2956 RMK 70001 SLP012 T02710242 52002 IEM_DS3505
ZGGG,2006-08-10 22:00,ZGGG 102200Z AUTO 11004KT 1 1/2SM 27/25 A2956 RMK T02700250 IEM_DS3505
ZGGG,2006-08-10 23:00,ZGGG 102300Z AUTO 4SM 28/25 A2956 RMK T02800250 IEM_DS3505
ZGGG,2006-08-11 00:00,ZGGG 110000Z AUTO 07004KT 9SM 29/24 A2959 RMK 70000 SLP020 T02890236 52008 IEM_DS3505
ZGGG,2006-08-11 01:00,ZGGG 110100Z AUTO 08004KT 6SM 30/25 A2959 RMK T03000250 IEM_DS3505
ZGGG,2006-08-11 02:00,ZGGG 110200Z AUTO 09006KT 7SM 31/25 A2962 RMK T03100250 IEM_DS3505
ZGGG,2006-08-11 03:00,ZGGG 110300Z AUTO 09004KT 10SM 30/24 A2962 RMK SLP031 T03020241 52011 IEM_DS3505
ZGGG,2006-08-11 04:00,ZGGG 110400Z AUTO 09008KT 7SM 31/23 A2962 RMK T03100230 IEM_DS3505
ZGGG,2006-08-11 05:00,ZGGG 110500Z AUTO 08008KT 7SM 32/24 A2962 RMK T03200240 IEM_DS3505
ZGGG,2006-08-11 06:00,ZGGG 110600Z AUTO 14006KT 9SM 30/25 A2962 RMK 60000 SLP034 T02970246 52003 IEM_DS3505
ZGGG,2006-08-11 07:00,ZGGG 110700Z AUTO 13006KT 7SM 31/25 A2962 RMK T03100250 IEM_DS3505
ZGGG,2006-08-11 08:00,ZGGG 110800Z AUTO 12008KT 6SM 32/25 A2959 RMK T03200250 IEM_DS3505
ZGGG,2006-08-11 09:00,ZGGG 110900Z AUTO 16006KT 9SM 32/24 A2956 RMK SLP020 T03150241 57014 IEM_DS3505
ZGGG,2006-08-11 10:00,ZGGG 111000Z AUTO 13004KT 7SM 31/24 A2959 RMK T03100240 IEM_DS3505
ZGGG,2006-08-11 11:00,ZGGG 111100Z AUTO 12002KT 5SM 30/24 A2959 RMK T03000240 IEM_DS3505
ZGGG,2006-08-11 12:00,ZGGG 111200Z AUTO 16004KT 9SM 30/23 A2962 RMK 60000 SLP037 T02980233 52017 IEM_DS3505
ZGGG,2006-08-11 13:00,ZGGG 111300Z AUTO 00000KT 4SM 29/25 A2965 RMK T02900250 IEM_DS3505
ZGGG,2006-08-11 14:00,ZGGG 111400Z AUTO 09002KT 4SM 28/24 A2965 RMK T02800240 IEM_DS3505
ZGGG,2006-08-11 15:00,ZGGG 111500Z AUTO 11002KT 9SM 28/24 A2968 RMK SLP053 T02840238 52016 IEM_DS3505
ZGGG,2006-08-11 16:00,ZGGG 111600Z AUTO 00000KT 4SM 27/24 A2968 RMK T02700240 IEM_DS3505
ZGGG,2006-08-11 17:00,ZGGG 111700Z AUTO 05002KT 3SM 27/24 A2971 RMK T02700240 IEM_DS3505
ZGGG,2006-08-11 18:00,ZGGG 111800Z AUTO 07002KT 9SM 26/23 A2968 RMK SLP058 T02630234 52005 IEM_DS3505
ZGGG,2006-08-11 19:00,ZGGG 111900Z AUTO 00000KT 3SM 26/24 A2968 RMK T02600240 IEM_DS3505
ZGGG,2006-08-11 20:00,ZGGG 112000Z AUTO 09004KT 2SM 26/24 A2968 RMK T02600240 IEM_DS3505
ZGGG,2006-08-11 21:00,ZGGG 112100Z AUTO 00000KT 7SM 26/23 A2968 RMK 70000 SLP054 T02590232 57004 IEM_DS3505
ZGGG,2006-08-11 22:00,ZGGG 112200Z AUTO 00000KT 2 1/2SM 26/24 A2968 RMK T02600240 IEM_DS3505
ZGGG,2006-08-11 23:00,ZGGG 112300Z AUTO 2 1/2SM 27/24 A2968 RMK T02700240 IEM_DS3505
ZGGG,2006-08-12 00:00,ZGGG 120000Z AUTO 36002KT 9SM 28/24 A2971 RMK 70000 SLP062 T02780236 52008 IEM_DS3505
ZGGG,2006-08-12 01:00,ZGGG 120100Z AUTO 06004KT 4SM 28/24 A2971 RMK T02800240 IEM_DS3505
ZGGG,2006-08-12 02:00,ZGGG 120200Z AUTO 05004KT 5SM 31/24 A2971 RMK T03100240 IEM_DS3505
ZGGG,2006-08-12 03:00,ZGGG 120300Z AUTO 14004KT 8SM 32/24 A2971 RMK SLP067 T03170238 52005 IEM_DS3505
ZGGG,2006-08-12 04:00,ZGGG 120400Z AUTO 08006KT 7SM 33/23 A2971 RMK T03300230 IEM_DS3505
ZGGG,2006-08-12 05:00,ZGGG 120500Z AUTO 11006KT 7SM 34/22 A2968 RMK T03400220 IEM_DS3505
ZGGG,2006-08-12 06:00,ZGGG 120600Z AUTO 11006KT 9SM 34/23 A2965 RMK SLP050 T03380232 57017 IEM_DS3505
ZGGG,2006-08-12 07:00,ZGGG 120700Z AUTO 13004KT 7SM 35/23 A2965 RMK T03500230 IEM_DS3505
ZGGG,2006-08-12 08:00,ZGGG 120800Z AUTO 19006KT 7SM 34/23 A2962 RMK T03400230 IEM_DS3505
ZGGG,2006-08-12 09:00,ZGGG 120900Z AUTO 20002KT 10SM 34/23 A2962 RMK SLP034 T03430230 57016 IEM_DS3505
ZGGG,2006-08-12 10:00,ZGGG 121000Z AUTO 17010KT 4SM 31/24 A2962 RMK T03100240 IEM_DS3505
ZGGG,2006-08-12 11:00,ZGGG 121100Z AUTO 14004KT 3SM 30/25 A2962 RMK T03000250 IEM_DS3505
ZGGG,2006-08-12 12:00,ZGGG 121200Z AUTO 00000KT 7SM 28/26 A2965 RMK 60012 SLP047 T02760256 52013 IEM_DS3505
ZGGG,2006-08-12 13:00,ZGGG 121300Z AUTO 00000KT 3SM 29/25 A2968 RMK T02900250 IEM_DS3505
ZGGG,2006-08-12 14:00,ZGGG 121400Z AUTO 00000KT 2 1/2SM 29/25 A2971 RMK T02900250 IEM_DS3505
ZGGG,2006-08-12 15:00,ZGGG 121500Z AUTO 16002KT 9SM 27/26 A2971 RMK SLP070 T02710255 52023 IEM_DS3505
ZGGG,2006-08-12 16:00,ZGGG 121600Z AUTO 00000KT 2 1/2SM 29/25 A2971 RMK T02900250 IEM_DS3505
ZGGG,2006-08-12 17:00,ZGGG 121700Z AUTO 35002KT 2 1/2SM 28/25 A2971 RMK T02800250 IEM_DS3505
ZGGG,2006-08-12 18:00,ZGGG 121800Z AUTO 02002KT 9SM 26/25 A2971 RMK SLP064 T02640248 57006 IEM_DS3505
ZGGG,2006-08-12 19:00,ZGGG 121900Z AUTO 00000KT 2 1/2SM 27/24 A2971 RMK T02700240 IEM_DS3505
ZGGG,2006-08-12 20:00,ZGGG 122000Z AUTO 00000KT 2 1/2SM 27/24 A2968 RMK T02700240 IEM_DS3505
ZGGG,2006-08-12 21:00,ZGGG 122100Z AUTO 00000KT 9SM 25/24 A2968 RMK 70011 SLP055 T02530237 57009 IEM_DS3505
ZGGG,2006-08-12 22:00,ZGGG 122200Z AUTO 00000KT 1 1/2SM 26/25 A2968 RMK T02600250 IEM_DS3505
ZGGG,2006-08-12 23:00,ZGGG 122300Z AUTO 10002KT 2 1/2SM 27/25 A2971 RMK T02700250 IEM_DS3505
ZGGG,2006-08-13 00:00,ZGGG 130000Z AUTO 07002KT 9SM 29/24 A2971 RMK 70011 SLP064 T02930237 52009 IEM_DS3505
ZGGG,2006-08-13 01:00,ZGGG 130100Z AUTO 3SM 31/23 A2971 RMK T03100230 IEM_DS3505
ZGGG,2006-08-13 02:00,ZGGG 130200Z AUTO 4SM 33/23 A2971 RMK T03300230 IEM_DS3505
ZGGG,2006-08-13 03:00,ZGGG 130300Z AUTO 02002KT 17SM 34/22 A2968 RMK SLP061 T03390220 57003 IEM_DS3505
ZGGG,2006-08-13 04:00,ZGGG 130400Z AUTO 7SM 35/21 A2968 RMK T03500210 IEM_DS3505
ZGGG,2006-08-13 05:00,ZGGG 130500Z AUTO 7SM 36/22 A2965 RMK T03600220 IEM_DS3505
ZGGG,2006-08-13 06:00,ZGGG 130600Z AUTO 16002KT 16SM 35/22 A2965 RMK SLP042 T03490223 57019 IEM_DS3505
ZGGG,2006-08-13 07:00,ZGGG 130700Z AUTO 35004KT 7SM 37/21 A2962 RMK T03700210 IEM_DS3505
ZGGG,2006-08-13 08:00,ZGGG 130800Z AUTO 25006KT 7SM 36/22 A2959 RMK T03600220 IEM_DS3505
ZGGG,2006-08-13 09:00,ZGGG 130900Z AUTO 24006KT 14SM 36/22 A2959 RMK SLP027 T03560225 57015 IEM_DS3505
ZGGG,2006-08-13 10:00,ZGGG 131000Z AUTO 25006KT 5SM 35/21 A2959 RMK T03500210 IEM_DS3505
ZGGG,2006-08-13 11:00,ZGGG 131100Z AUTO 29006KT 4SM 34/21 A2959 RMK T03400210 IEM_DS3505
ZGGG,2006-08-13 12:00,ZGGG 131200Z AUTO 21004KT 8SM 32/23 A2962 RMK SLP038 T03190232 52011 IEM_DS3505
ZGGG,2006-08-13 13:00,ZGGG 131300Z AUTO 12004KT 4SM 31/24 A2965 RMK T03100240 IEM_DS3505
ZGGG,2006-08-13 14:00,ZGGG 131400Z AUTO 14004KT 4SM 30/24 A2965 RMK T03000240 IEM_DS3505
ZGGG,2006-08-13 15:00,ZGGG 131500Z AUTO 16004KT 7SM 30/24 A2968 RMK SLP053 T02990238 52015 IEM_DS3505
ZGGG,2006-08-13 16:00,ZGGG 131600Z AUTO 10004KT 4SM 29/24 A2965 RMK T02900240 IEM_DS3505
ZGGG,2006-08-13 17:00,ZGGG 131700Z AUTO 00000KT 5SM 28/25 A2965 RMK T02800250 IEM_DS3505
ZGGG,2006-08-13 18:00,ZGGG 131800Z AUTO 16004KT 8SM 29/24 A2965 RMK SLP046 T02880237 57007 IEM_DS3505
ZGGG,2006-08-13 19:00,ZGGG 131900Z AUTO 07002KT 4SM 28/25 A2965 RMK T02800250 IEM_DS3505
ZGGG,2006-08-13 20:00,ZGGG 132000Z AUTO 07004KT 3SM 27/25 A2965 RMK T02700250 IEM_DS3505
ZGGG,2006-08-13 21:00,ZGGG 132100Z AUTO 18002KT 8SM 28/24 A2965 RMK SLP045 T02830239 57001 IEM_DS3505
ZGGG,2006-08-13 22:00,ZGGG 132200Z AUTO 07004KT 1SM 27/25 A2965 RMK T02700250 IEM_DS3505
ZGGG,2006-08-13 23:00,ZGGG 132300Z AUTO 10002KT 1SM 28/25 A2968 RMK T02800250 IEM_DS3505
ZGGG,2006-08-14 00:00,ZGGG 140000Z AUTO 09002KT 7SM 30/25 A2968 RMK SLP054 T02970250 52009 IEM_DS3505
ZGGG,2006-08-14 01:00,ZGGG 140100Z AUTO 2 1/2SM 30/25 A2968 RMK T03000250 IEM_DS3505
ZGGG,2006-08-14 02:00,ZGGG 140200Z AUTO 2 1/2SM 32/24 A2968 RMK T03200240 IEM_DS3505
ZGGG,2006-08-14 03:00,ZGGG 140300Z AUTO 14004KT 4SM 30/25 A2968 RMK SLP055 T02970250 52001 IEM_DS3505
ZGGG,2006-08-14 04:00,ZGGG 140400Z AUTO 17008KT 2SM 32/25 A2965 RMK T03200250 IEM_DS3505
ZGGG,2006-08-14 05:00,ZGGG 140500Z AUTO 18006KT 2 1/2SM 31/25 A2965 RMK T03100250 IEM_DS3505
ZGGG,2006-08-14 06:00,ZGGG 140600Z AUTO 07002KT 6SM 33/24 A2962 RMK 60000 SLP036 T03270236 57019 IEM_DS3505
ZGGG,2006-08-14 07:00,ZGGG 140700Z AUTO 26006G16KT 2 1/2SM 32/26 A2959 RMK T03200260 IEM_DS3505
ZGGG,2006-08-14 08:00,ZGGG 140800Z AUTO 19004KT 3SM 34/25 A2959 RMK T03400250 IEM_DS3505
ZGGG,2006-08-14 09:00,ZGGG 140900Z AUTO 16002KT 6SM 33/24 A2956 RMK SLP017 T03310243 57019 IEM_DS3505
ZGGG,2006-08-14 10:00,ZGGG 141000Z AUTO 31004KT 3SM 32/25 A2956 RMK T03200250 IEM_DS3505
ZGGG,2006-08-14 11:00,ZGGG 141100Z AUTO 2 1/2SM 32/24 A2959 RMK T03200240 IEM_DS3505
ZGGG,2006-08-14 12:00,ZGGG 141200Z AUTO 16002KT 7SM 31/24 A2962 RMK SLP035 T03090238 52018 IEM_DS3505
ZGGG,2006-08-14 13:00,ZGGG 141300Z AUTO 00000KT 2 1/2SM 31/24 A2962 RMK T03100240 IEM_DS3505
ZGGG,2006-08-14 14:00,ZGGG 141400Z AUTO 15004KT 4SM 30/25 A2962 RMK T03000250 IEM_DS3505
ZGGG,2006-08-14 15:00,ZGGG 141500Z AUTO 14004KT 9SM 29/22 A2965 RMK SLP042 T02940221 52007 IEM_DS3505
ZGGG,2006-08-14 16:00,ZGGG 141600Z AUTO 12004KT 7SM 29/23 A2962 RMK T02900230 IEM_DS3505
ZGGG,2006-08-14 17:00,ZGGG 141700Z AUTO 7SM 29/23 A2962 RMK T02900230 IEM_DS3505
ZGGG,2006-08-14 18:00,ZGGG 141800Z AUTO 16002KT 9SM 28/22 A2962 RMK SLP040 T02760225 57002 IEM_DS3505
ZGGG,2006-08-14 19:00,ZGGG 141900Z AUTO 7SM 28/24 A2962 RMK T02800240 IEM_DS3505
ZGGG,2006-08-14 20:00,ZGGG 142000Z AUTO 00000KT 7SM 27/24 A2962 RMK T02700240 IEM_DS3505
ZGGG,2006-08-14 21:00,ZGGG 142100Z AUTO 07002KT 10SM 26/23 A2962 RMK 70000 SLP042 T02600231 52002 IEM_DS3505
ZGGG,2006-08-14 22:00,ZGGG 142200Z AUTO 07002KT 3SM 26/23 A2965 RMK T02600230 IEM_DS3505
ZGGG,2006-08-14 23:00,ZGGG 142300Z AUTO 4SM 27/24 A2965 RMK T02700240 IEM_DS3505
ZGGG,2006-08-15 00:00,ZGGG 150000Z AUTO 14002KT 11SM 28/23 A2965 RMK 70000 SLP052 T02810226 52010 IEM_DS3505
ZGGG,2006-08-15 01:00,ZGGG 150100Z AUTO 17004KT 5SM 30/22 A2968 RMK T03000220 IEM_DS3505
ZGGG,2006-08-15 02:00,ZGGG 150200Z AUTO 7SM 31/22 A2968 RMK T03100220 IEM_DS3505
ZGGG,2006-08-15 03:00,ZGGG 150300Z AUTO 25002KT 7SM 32/22 A2968 RMK SLP055 T03150222 52003 IEM_DS3505
ZGGG,2006-08-15 04:00,ZGGG 150400Z AUTO 7SM 34/21 A2968 RMK T03400210 IEM_DS3505
ZGGG,2006-08-15 05:00,ZGGG 150500Z AUTO 7SM 35/19 A2965 RMK T03500190 IEM_DS3505
ZGGG,2006-08-15 06:00,ZGGG 150600Z AUTO 18002KT 7SM 34/22 A2962 RMK SLP037 T03360217 57018 IEM_DS3505
ZGGG,2006-08-15 07:00,ZGGG 150700Z AUTO 10004KT 6SM 34/20 A2959 RMK T03400200 IEM_DS3505
ZGGG,2006-08-15 08:00,ZGGG 150800Z AUTO 08006KT 6SM 34/20 A2956 RMK T03400200 IEM_DS3505
ZGGG,2006-08-15 09:00,ZGGG 150900Z AUTO 02002KT 7SM 34/23 A2956 RMK SLP016 T03350226 57021 IEM_DS3505
ZGGG,2006-08-15 10:00,ZGGG 151000Z AUTO 09004KT 6SM 33/20 A2956 RMK T03300200 IEM_DS3505
ZGGG,2006-08-15 11:00,ZGGG 151100Z AUTO 10002KT 3SM 32/21 A2959 RMK T03200210 IEM_DS3505
ZGGG,2006-08-15 12:00,ZGGG 151200Z AUTO 07002KT 9SM 30/22 A2959 RMK SLP034 T03030222 52018 IEM_DS3505
ZGGG,2006-08-15 13:00,ZGGG 151300Z AUTO 09002KT 4SM 30/22 A2962 RMK T03000220 IEM_DS3505
ZGGG,2006-08-15 14:00,ZGGG 151400Z AUTO 07004KT 4SM 29/23 A2962 RMK T02900230 IEM_DS3505
ZGGG,2006-08-15 15:00,ZGGG 151500Z AUTO 16002KT 9SM 29/24 A2962 RMK SLP045 T02930242 52011 IEM_DS3505
ZGGG,2006-08-15 16:00,ZGGG 151600Z AUTO 14004KT 4SM 29/24 A2965 RMK T02900240 IEM_DS3505
ZGGG,2006-08-15 17:00,ZGGG 151700Z AUTO 15004KT 4SM 28/24 A2962 RMK T02800240 IEM_DS3505
ZGGG,2006-08-15 18:00,ZGGG 151800Z AUTO 14002KT 9SM 28/24 A2965 RMK SLP044 T02800238 57001 IEM_DS3505
ZGGG,2006-08-15 19:00,ZGGG 151900Z AUTO 06002KT 4SM 27/24 A2965 RMK T02700240 IEM_DS3505
ZGGG,2006-08-15 20:00,ZGGG 152000Z AUTO 4SM 27/24 A2965 RMK T02700240 IEM_DS3505
ZGGG,2006-08-15 21:00,ZGGG 152100Z AUTO 07002KT 9SM 27/24 A2965 RMK SLP043 T02660241 57001 IEM_DS3505
ZGGG,2006-08-15 22:00,ZGGG 152200Z AUTO 06002KT 1 1/2SM 26/24 A2965 RMK T02600240 IEM_DS3505
ZGGG,2006-08-15 23:00,ZGGG 152300Z AUTO 1 1/2SM 27/24 A2965 RMK T02700240 IEM_DS3505
ZGGG,2006-08-16 00:00,ZGGG 160000Z AUTO 02002KT 7SM 29/25 A2968 RMK SLP053 T02900250 52010 IEM_DS3505
ZGGG,2006-08-16 01:00,ZGGG 160100Z AUTO 07004KT 3SM 30/24 A2968 RMK T03000240 IEM_DS3505
ZGGG,2006-08-16 02:00,ZGGG 160200Z AUTO 3SM 32/23 A2968 RMK T03200230 IEM_DS3505
ZGGG,2006-08-16 03:00,ZGGG 160300Z AUTO 20002KT 9SM 33/23 A2968 RMK SLP054 T03260230 52001 IEM_DS3505
ZGGG,2006-08-16 04:00,ZGGG 160400Z AUTO 4SM 34/23 A2968 RMK T03400230 IEM_DS3505
ZGGG,2006-08-16 05:00,ZGGG 160500Z AUTO 02004KT 5SM 35/23 A2965 RMK T03500230 IEM_DS3505
ZGGG,2006-08-16 06:00,ZGGG 160600Z AUTO 09002KT 9SM 36/22 A2962 RMK SLP040 T03570219 57014 IEM_DS3505
ZGGG,2006-08-16 07:00,ZGGG 160700Z AUTO 7SM 35/22 A2959 RMK T03500220 IEM_DS3505
ZGGG,2006-08-16 08:00,ZGGG 160800Z AUTO 7SM 36/22 A2959 RMK T03600220 IEM_DS3505
ZGGG,2006-08-16 09:00,ZGGG 160900Z AUTO 11002KT 8SM 35/22 A2956 RMK SLP017 T03500216 57023 IEM_DS3505
ZGGG,2006-08-16 10:00,ZGGG 161000Z AUTO 5SM 35/22 A2959 RMK T03500220 IEM_DS3505
ZGGG,2006-08-16 11:00,ZGGG 161100Z AUTO 14004KT 3SM 33/24 A2959 RMK T03300240 IEM_DS3505
ZGGG,2006-08-16 12:00,ZGGG 161200Z AUTO 16004KT 10SM 32/24 A2962 RMK SLP039 T03160237 52022 IEM_DS3505
ZGGG,2006-08-16 13:00,ZGGG 161300Z AUTO 17006KT 4SM 31/23 A2965 RMK T03100230 IEM_DS3505
ZGGG,2006-08-16 14:00,ZGGG 161400Z AUTO 08004KT 5SM 30/25 A2965 RMK T03000250 IEM_DS3505
ZGGG,2006-08-16 15:00,ZGGG 161500Z AUTO 14004KT 9SM 30/24 A2968 RMK SLP058 T03000244 52019 IEM_DS3505
ZGGG,2006-08-16 16:00,ZGGG 161600Z AUTO 14004KT 5SM 29/25 A2968 RMK T02900250 IEM_DS3505
ZGGG,2006-08-16 17:00,ZGGG 161700Z AUTO 4SM 29/24 A2968 RMK T02900240 IEM_DS3505
ZGGG,2006-08-16 18:00,ZGGG 161800Z AUTO 22002KT 9SM 29/24 A2968 RMK SLP053 T02880241 57005 IEM_DS3505
ZGGG,2006-08-16 19:00,ZGGG 161900Z AUTO 12002KT 4SM 28/25 A2965 RMK T02800250 IEM_DS3505
ZGGG,2006-08-16 20:00,ZGGG 162000Z AUTO 10002KT 4SM 28/25 A2965 RMK T02800250 IEM_DS3505
ZGGG,2006-08-16 21:00,ZGGG 162100Z AUTO 22002KT 9SM 28/24 A2965 RMK SLP050 T02790241 57003 IEM_DS3505
ZGGG,2006-08-16 22:00,ZGGG 162200Z AUTO 00000KT 3SM 28/25 A2968 RMK T02800250 IEM_DS3505
ZGGG,2006-08-16 23:00,ZGGG 162300Z AUTO 00000KT 3SM 28/25 A2968 RMK T02800250 IEM_DS3505
ZGGG,2006-08-17 00:00,ZGGG 170000Z AUTO 29002KT 11SM 31/24 A2968 RMK SLP057 T03070239 52007 IEM_DS3505
ZGGG,2006-08-17 01:00,ZGGG 170100Z AUTO 4SM 31/23 A2968 RMK T03100230 IEM_DS3505
ZGGG,2006-08-17 02:00,ZGGG 170200Z AUTO 7SM 33/23 A2968 RMK T03300230 IEM_DS3505
ZGGG,2006-08-17 03:00,ZGGG 170300Z AUTO 29002KT 9SM 33/24 A2968 RMK SLP058 T03260241 52001 IEM_DS3505
ZGGG,2006-08-17 04:00,ZGGG 170400Z AUTO 21004KT 7SM 34/23 A2968 RMK T03400230 IEM_DS3505
ZGGG,2006-08-17 05:00,ZGGG 170500Z AUTO 7SM 35/22 A2965 RMK T03500220 IEM_DS3505
ZGGG,2006-08-17 06:00,ZGGG 170600Z AUTO 36002KT 9SM 36/23 A2962 RMK SLP041 T03590228 57017 IEM_DS3505
ZGGG,2006-08-17 07:00,ZGGG 170700Z AUTO 23006KT 7SM 36/21 A2959 RMK T03600210 IEM_DS3505
ZGGG,2006-08-17 08:00,ZGGG 170800Z AUTO 16004KT 7SM 37/21 A2956 RMK T03700210 IEM_DS3505
ZGGG,2006-08-17 09:00,ZGGG 170900Z AUTO 16002KT 9SM 35/24 A2956 RMK SLP018 T03470237 57023 IEM_DS3505
ZGGG,2006-08-17 10:00,ZGGG 171000Z AUTO 6SM 36/20 A2959 RMK T03600200 IEM_DS3505
ZGGG,2006-08-17 11:00,ZGGG 171100Z AUTO 24004KT 5SM 35/22 A2959 RMK T03500220 IEM_DS3505
ZGGG,2006-08-17 12:00,ZGGG 171200Z AUTO 07002KT 7SM 32/25 A2962 RMK SLP040 T03200246 52022 IEM_DS3505
ZGGG,2006-08-17 13:00,ZGGG 171300Z AUTO 07004KT 3SM 32/24 A2965 RMK T03200240 IEM_DS3505
ZGGG,2006-08-17 14:00,ZGGG 171400Z AUTO 08006KT 4SM 31/23 A2968 RMK T03100230 IEM_DS3505
ZGGG,2006-08-17 15:00,ZGGG 171500Z AUTO 11004KT 7SM 31/25 A2968 RMK SLP057 T03080249 52017 IEM_DS3505
ZGGG,2006-08-17 16:00,ZGGG 171600Z AUTO 05004KT 4SM 30/23 A2965 RMK T03000230 IEM_DS3505
ZGGG,2006-08-17 17:00,ZGGG 171700Z AUTO 5SM 31/22 A2962 RMK T03100220 IEM_DS3505
ZGGG,2006-08-17 18:00,ZGGG 171800Z AUTO 36002KT 7SM 29/24 A2962 RMK SLP036 T02870236 57021 IEM_DS3505
ZGGG,2006-08-17 19:00,ZGGG 171900Z AUTO 08008KT 4SM 30/23 A2965 RMK T03000230 IEM_DS3505
ZGGG,2006-08-17 20:00,ZGGG 172000Z AUTO 08004KT 4SM 28/23 A2965 RMK T02800230 IEM_DS3505
ZGGG,2006-08-17 21:00,ZGGG 172100Z AUTO 16002KT 6SM 28/25 A2965 RMK 70006 SLP048 T02800250 52012 IEM_DS3505
ZGGG,2006-08-17 22:00,ZGGG 172200Z AUTO 3SM 28/23 A2965 RMK T02800230 IEM_DS3505
ZGGG,2006-08-17 23:00,ZGGG 172300Z AUTO 3SM 28/23 A2968 RMK T02800230 IEM_DS3505
ZGGG,2006-08-18 00:00,ZGGG 180000Z AUTO 07002KT 2SM 29/25 A2968 RMK 60008 70006 SLP055 T02880252 52007 IEM_DS3505
ZGGG,2006-08-18 01:00,ZGGG 180100Z AUTO 3SM 30/23 A2968 RMK T03000230 IEM_DS3505
ZGGG,2006-08-18 02:00,ZGGG 180200Z AUTO 3SM 33/23 A2968 RMK T03300230 IEM_DS3505
ZGGG,2006-08-18 03:00,ZGGG 180300Z AUTO 02004KT 3SM 34/25 A2968 RMK SLP053 T03380247 57002 IEM_DS3505
ZGGG,2006-08-18 04:00,ZGGG 180400Z AUTO 5SM 36/23 A2965 RMK T03600230 IEM_DS3505
ZGGG,2006-08-18 05:00,ZGGG 180500Z AUTO 36006KT 4SM 37/22 A2965 RMK T03700220 IEM_DS3505
ZGGG,2006-08-18 06:00,ZGGG 180600Z AUTO 36006KT 8SM 37/24 A2962 RMK SLP032 T03660235 57021 IEM_DS3505
ZGGG,2006-08-18 07:00,ZGGG 180700Z AUTO 5SM 37/22 A2959 RMK T03700220 IEM_DS3505
ZGGG,2006-08-18 08:00,ZGGG 180800Z AUTO 03004KT 5SM 37/22 A2956 RMK T03700220 IEM_DS3505
ZGGG,2006-08-18 09:00,ZGGG 180900Z AUTO 07002KT 7SM 36/23 A2956 RMK SLP017 T03570230 57015 IEM_DS3505
ZGGG,2006-08-18 10:00,ZGGG 181000Z AUTO 28008KT 4SM 35/24 A2956 RMK T03500240 IEM_DS3505
ZGGG,2006-08-18 11:00,ZGGG 181100Z AUTO 32006KT 3SM 33/24 A2962 RMK T03300240 IEM_DS3505
ZGGG,2006-08-18 12:00,ZGGG 181200Z AUTO 32002KT 7SM 28/26 A2962 RMK 60024 SLP036 T02830259 52019 IEM_DS3505
ZGGG,2006-08-18 13:00,ZGGG 181300Z AUTO 4SM 32/22 A2965 RMK T03200220 IEM_DS3505
ZGGG,2006-08-18 14:00,ZGGG 181400Z AUTO 07004KT 3SM 31/24 A2968 RMK T03100240 IEM_DS3505
ZGGG,2006-08-18 15:00,ZGGG 181500Z AUTO 25002KT 8SM 29/24 A2968 RMK SLP061 T02890240 52025 IEM_DS3505
ZGGG,2006-08-18 16:00,ZGGG 181600Z AUTO 17006KT 5SM 26/23 A2968 RMK T02600230 IEM_DS3505
ZGGG,2006-08-18 17:00,ZGGG 181700Z AUTO 23004KT 6SM 27/23 A2965 RMK T02700230 IEM_DS3505
ZGGG,2006-08-18 18:00,ZGGG 181800Z AUTO 16006KT 8SM 26/24 A2968 RMK 60020 SLP062 T02600239 52001 IEM_DS3505
ZGGG,2006-08-18 19:00,ZGGG 181900Z AUTO 00000KT 4SM 27/24 A2968 RMK T02700240 IEM_DS3505
ZGGG,2006-08-18 20:00,ZGGG 182000Z AUTO 00000KT 4SM 27/24 A2968 RMK T02700240 IEM_DS3505
ZGGG,2006-08-18 21:00,ZGGG 182100Z AUTO 07002KT 7SM 26/24 A2968 RMK 70042 SLP056 T02600237 57006 IEM_DS3505
ZGGG,2006-08-18 22:00,ZGGG 182200Z AUTO 03002KT 2 1/2SM 26/24 A2968 RMK T02600240 IEM_DS3505
ZGGG,2006-08-18 23:00,ZGGG 182300Z AUTO 13004KT 2SM 27/24 A2971 RMK T02700240 IEM_DS3505
ZGGG,2006-08-19 00:00,ZGGG 190000Z AUTO 00000KT 2 1/2SM 28/24 A2971 RMK 70041 SLP067 T02770237 52010 IEM_DS3505
ZGGG,2006-08-19 01:00,ZGGG 190100Z AUTO 00000KT 2 1/2SM 29/25 A2971 RMK T02900250 IEM_DS3505
ZGGG,2006-08-19 02:00,ZGGG 190200Z AUTO 2 1/2SM 30/25 A2974 RMK T03000250 IEM_DS3505
ZGGG,2006-08-19 03:00,ZGGG 190300Z AUTO 36002KT 4SM 32/24 A2971 RMK SLP068 T03190240 52002 IEM_DS3505
ZGGG,2006-08-19 04:00,ZGGG 190400Z AUTO 2 1/2SM 33/24 A2971 RMK T03300240 IEM_DS3505
ZGGG,2006-08-19 05:00,ZGGG 190500Z AUTO 2 1/2SM 34/25 A2968 RMK T03400250 IEM_DS3505
ZGGG,2006-08-19 06:00,ZGGG 190600Z AUTO 16002KT 5SM 34/24 A2965 RMK SLP049 T03380244 57019 IEM_DS3505
ZGGG,2006-08-19 07:00,ZGGG 190700Z AUTO 24006KT 2SM 35/24 A2962 RMK T03500240 IEM_DS3505
ZGGG,2006-08-19 08:00,ZGGG 190800Z AUTO 24006KT 2SM 35/25 A2959 RMK T03500250 IEM_DS3505
ZGGG,2006-08-19 09:00,ZGGG 190900Z AUTO 20004KT 2SM 32/25 A2959 RMK SLP031 T03180252 57018 IEM_DS3505
ZGGG,2006-08-19 10:00,ZGGG 191000Z AUTO 24006KT 1 1/2SM 33/25 A2962 RMK T03300250 IEM_DS3505
ZGGG,2006-08-19 11:00,ZGGG 191100Z AUTO 21010KT 1 1/2SM 32/24 A2962 RMK T03200240 IEM_DS3505
ZGGG,2006-08-19 12:00,ZGGG 191200Z AUTO 23004KT 6SM 29/23 A2965 RMK 60000 SLP048 T02880230 52017 IEM_DS3505
ZGGG,2006-08-19 13:00,ZGGG 191300Z AUTO 1 1/2SM 31/24 A2968 RMK T03100240 IEM_DS3505
ZGGG,2006-08-19 14:00,ZGGG 191400Z AUTO 00000KT 1 1/4SM 30/25 A2968 RMK T03000250 IEM_DS3505
ZGGG,2006-08-19 15:00,ZGGG 191500Z AUTO 25002KT 5SM 29/25 A2971 RMK SLP064 T02930253 52016 IEM_DS3505
ZGGG,2006-08-19 16:00,ZGGG 191600Z AUTO 24004KT 1 1/4SM 30/26 A2968 RMK T03000260 IEM_DS3505
ZGGG,2006-08-19 17:00,ZGGG 191700Z AUTO 24004KT 2 1/2SM 30/25 A2965 RMK T03000250 IEM_DS3505
ZGGG,2006-08-19 18:00,ZGGG 191800Z AUTO 27004KT 6SM 29/24 A2965 RMK SLP047 T02860244 57017 IEM_DS3505
ZGGG,2006-08-19 19:00,ZGGG 191900Z AUTO 00000KT 2 1/2SM 29/26 A2965 RMK T02900260 IEM_DS3505
ZGGG,2006-08-19 20:00,ZGGG 192000Z AUTO 00000KT 2SM 29/26 A2962 RMK T02900260 IEM_DS3505
ZGGG,2006-08-19 21:00,ZGGG 192100Z AUTO 29002KT 4SM 28/25 A2962 RMK 70000 SLP040 T02760248 57007 IEM_DS3505
ZGGG,2006-08-19 22:00,ZGGG 192200Z AUTO 00000KT 1SM 28/26 A2965 RMK T02800260 IEM_DS3505
ZGGG,2006-08-19 23:00,ZGGG 192300Z AUTO 03004KT 2SM 28/25 A2965 RMK T02800250 IEM_DS3505
ZGGG,2006-08-20 00:00,ZGGG 200000Z AUTO 32002KT 4SM 30/26 A2965 RMK 70000 SLP053 T02950255 52013 IEM_DS3505
ZGGG,2006-08-20 01:00,ZGGG 200100Z AUTO 35004KT 3SM 31/22 A2968 RMK T03100220 IEM_DS3505
ZGGG,2006-08-20 02:00,ZGGG 200200Z AUTO 02008KT 3SM 32/21 A2968 RMK T03200210 IEM_DS3505
ZGGG,2006-08-20 03:00,ZGGG 200300Z AUTO 04004KT 5SM 34/23 A2968 RMK SLP053 T03350232 54000 IEM_DS3505
ZGGG,2006-08-20 04:00,ZGGG 200400Z AUTO 09004KT 4SM 33/21 A2965 RMK T03300210 IEM_DS3505
ZGGG,2006-08-20 05:00,ZGGG 200500Z AUTO 4SM 34/21 A2962 RMK T03400210 IEM_DS3505
ZGGG,2006-08-20 06:00,ZGGG 200600Z AUTO 36002KT 7SM 35/23 A2962 RMK SLP030 T03500227 57023 IEM_DS3505
ZGGG,2006-08-20 07:00,ZGGG 200700Z AUTO 4SM 36/19 A2959 RMK T03600190 IEM_DS3505
ZGGG,2006-08-20 08:00,ZGGG 200800Z AUTO 31006KT 4SM 36/19 A2956 RMK T03600190 IEM_DS3505
ZGGG,2006-08-20 09:00,ZGGG 200900Z AUTO 02004KT 9SM 34/20 A2956 RMK SLP020 T03450201 57010 IEM_DS3505
ZGGG,2006-08-20 10:00,ZGGG 201000Z AUTO 07004KT 3SM 34/21 A2956 RMK T03400210 IEM_DS3505
ZGGG,2006-08-20 11:00,ZGGG 201100Z AUTO 3SM 32/21 A2959 RMK T03200210 IEM_DS3505
ZGGG,2006-08-20 12:00,ZGGG 201200Z AUTO 16004KT 6SM 31/22 A2962 RMK SLP042 T03130223 52022 IEM_DS3505
ZGGG,2006-08-20 13:00,ZGGG 201300Z AUTO 09002KT 3SM 30/22 A2965 RMK T03000220 IEM_DS3505
ZGGG,2006-08-20 14:00,ZGGG 201400Z AUTO 00000KT 4SM 30/23 A2968 RMK T03000230 IEM_DS3505
ZGGG,2006-08-20 15:00,ZGGG 201500Z AUTO 04002KT 6SM 29/23 A2968 RMK SLP060 T02870234 52018 IEM_DS3505
ZGGG,2006-08-20 16:00,ZGGG 201600Z AUTO 08002KT 3SM 28/22 A2968 RMK T02800220 IEM_DS3505
ZGGG,2006-08-20 17:00,ZGGG 201700Z AUTO 3SM 28/22 A2968 RMK T02800220 IEM_DS3505
ZGGG,2006-08-20 18:00,ZGGG 201800Z AUTO 07002KT 6SM 27/24 A2968 RMK SLP052 T02730235 57008 IEM_DS3505
ZGGG,2006-08-20 19:00,ZGGG 201900Z AUTO 07002KT 3SM 27/22 A2965 RMK T02700220 IEM_DS3505
ZGGG,2006-08-20 20:00,ZGGG 202000Z AUTO 08004KT 2 1/2SM 26/22 A2965 RMK T02600220 IEM_DS3505
ZGGG,2006-08-20 21:00,ZGGG 202100Z AUTO 04002KT 7SM 27/23 A2965 RMK SLP043 T02660231 57009 IEM_DS3505
ZGGG,2006-08-20 22:00,ZGGG 202200Z AUTO 10006KT 2SM 25/20 A2965 RMK T02500200 IEM_DS3505
ZGGG,2006-08-20 23:00,ZGGG 202300Z AUTO 07004KT 2SM 26/20 A2968 RMK T02600200 IEM_DS3505
ZGGG,2006-08-21 00:00,ZGGG 210000Z AUTO 36002KT 11SM 29/20 A2968 RMK SLP057 T02860201 52014 IEM_DS3505
ZGGG,2006-08-21 01:00,ZGGG 210100Z AUTO 3SM 29/19 A2968 RMK T02900190 IEM_DS3505
ZGGG,2006-08-21 02:00,ZGGG 210200Z AUTO 03006KT 5SM 32/16 A2968 RMK T03200160 IEM_DS3505
ZGGG,2006-08-21 03:00,ZGGG 210300Z AUTO 04004KT 9SM 33/17 A2968 RMK SLP058 T03300168 52001 IEM_DS3505
ZGGG,2006-08-21 04:00,ZGGG 210400Z AUTO 04006KT 6SM 33/16 A2968 RMK T03300160 IEM_DS3505
ZGGG,2006-08-21 05:00,ZGGG 210500Z AUTO 36008KT 6SM 35/14 A2965 RMK T03500140 IEM_DS3505
ZGGG,2006-08-21 06:00,ZGGG 210600Z AUTO 02008KT 10SM 35/17 A2962 RMK SLP038 T03460169 57020 IEM_DS3505
ZGGG,2006-08-21 07:00,ZGGG 210700Z AUTO 03008KT 7SM 35/17 A2962 RMK T03500170 IEM_DS3505
ZGGG,2006-08-21 08:00,ZGGG 210800Z AUTO 03006KT 7SM 35/16 A2959 RMK T03500160 IEM_DS3505
ZGGG,2006-08-21 09:00,ZGGG 210900Z AUTO 34004KT 11SM 34/15 A2959 RMK SLP027 T03380148 57011 IEM_DS3505
ZGGG,2006-08-21 10:00,ZGGG 211000Z AUTO 5SM 33/18 A2959 RMK T03300180 IEM_DS3505
ZGGG,2006-08-21 11:00,ZGGG 211100Z AUTO 05002KT 5SM 31/19 A2962 RMK T03100190 IEM_DS3505
ZGGG,2006-08-21 12:00,ZGGG 211200Z AUTO 04002KT 9SM 29/19 A2965 RMK SLP048 T02940191 52021 IEM_DS3505
ZGGG,2006-08-21 13:00,ZGGG 211300Z AUTO 06002KT 4SM 29/20 A2968 RMK T02900200 IEM_DS3505
ZGGG,2006-08-21 14:00,ZGGG 211400Z AUTO 06002KT 4SM 27/22 A2968 RMK T02700220 IEM_DS3505
ZGGG,2006-08-21 15:00,ZGGG 211500Z AUTO 11004KT 7SM 28/22 A2971 RMK SLP064 T02830225 52016 IEM_DS3505
ZGGG,2006-08-21 16:00,ZGGG 211600Z AUTO 3SM 27/22 A2968 RMK T02700220 IEM_DS3505
ZGGG,2006-08-21 17:00,ZGGG 211700Z AUTO 07006KT 4SM 27/21 A2968 RMK T02700210 IEM_DS3505
ZGGG,2006-08-21 18:00,ZGGG 211800Z AUTO 11002KT 7SM 28/24 A2965 RMK SLP050 T02790237 57014 IEM_DS3505
ZGGG,2006-08-21 19:00,ZGGG 211900Z AUTO 07004KT 3SM 26/21 A2965 RMK T02600210 IEM_DS3505
ZGGG,2006-08-21 20:00,ZGGG 212000Z AUTO 08004KT 2 1/2SM 26/21 A2965 RMK T02600210 IEM_DS3505
ZGGG,2006-08-21 21:00,ZGGG 212100Z AUTO 07002KT 6SM 27/24 A2968 RMK SLP055 T02710238 52005 IEM_DS3505
ZGGG,2006-08-21 22:00,ZGGG 212200Z AUTO 2 1/2SM 26/22 A2968 RMK T02600220 IEM_DS3505
ZGGG,2006-08-21 23:00,ZGGG 212300Z AUTO 07004KT 2 1/2SM 26/21 A2968 RMK T02600210 IEM_DS3505
ZGGG,2006-08-22 00:00,ZGGG 220000Z AUTO 07002KT 2SM 28/24 A2971 RMK SLP064 T02780238 52009 IEM_DS3505
ZGGG,2006-08-22 01:00,ZGGG 220100Z AUTO 2SM 29/21 A2971 RMK T02900210 IEM_DS3505
ZGGG,2006-08-22 02:00,ZGGG 220200Z AUTO 07004KT 3SM 31/20 A2971 RMK T03100200 IEM_DS3505
ZGGG,2006-08-22 03:00,ZGGG 220300Z AUTO 14004KT 4SM 32/22 A2971 RMK SLP062 T03150222 57002 IEM_DS3505
ZGGG,2006-08-22 04:00,ZGGG 220400Z AUTO 06006KT 4SM 33/20 A2968 RMK T03300200 IEM_DS3505
ZGGG,2006-08-22 05:00,ZGGG 220500Z AUTO 08006KT 3SM 34/20 A2968 RMK T03400200 IEM_DS3505
ZGGG,2006-08-22 06:00,ZGGG 220600Z AUTO 11002KT 5SM 34/21 A2965 RMK SLP046 T03360214 57016 IEM_DS3505
ZGGG,2006-08-22 07:00,ZGGG 220700Z AUTO 10006KT 5SM 34/20 A2962 RMK T03400200 IEM_DS3505
ZGGG,2006-08-22 08:00,ZGGG 220800Z AUTO 10004KT 5SM 35/20 A2959 RMK T03500200 IEM_DS3505
ZGGG,2006-08-22 09:00,ZGGG 220900Z AUTO 07002KT 7SM 34/22 A2959 RMK SLP026 T03360217 57020 IEM_DS3505
ZGGG,2006-08-22 10:00,ZGGG 221000Z AUTO 09004KT 4SM 33/20 A2959 RMK T03300200 IEM_DS3505
ZGGG,2006-08-22 11:00,ZGGG 221100Z AUTO 09004KT 4SM 32/21 A2962 RMK T03200210 IEM_DS3505
ZGGG,2006-08-22 12:00,ZGGG 221200Z AUTO 09002KT 9SM 30/22 A2965 RMK SLP043 T03020221 52017 IEM_DS3505
ZGGG,2006-08-22 13:00,ZGGG 221300Z AUTO 02004KT 3SM 29/23 A2968 RMK T02900230 IEM_DS3505
ZGGG,2006-08-22 14:00,ZGGG 221400Z AUTO 15004KT 3SM 30/23 A2971 RMK T03000230 IEM_DS3505
ZGGG,2006-08-22 15:00,ZGGG 221500Z AUTO 16002KT 8SM 29/23 A2971 RMK SLP066 T02920232 52023 IEM_DS3505
ZGGG,2006-08-22 16:00,ZGGG 221600Z AUTO 2 1/2SM 28/23 A2971 RMK T02800230 IEM_DS3505
ZGGG,2006-08-22 17:00,ZGGG 221700Z AUTO 00000KT 2 1/2SM 28/23 A2968 RMK T02800230 IEM_DS3505
ZGGG,2006-08-22 18:00,ZGGG 221800Z AUTO 09002KT 7SM 28/23 A2968 RMK SLP056 T02750229 57010 IEM_DS3505
ZGGG,2006-08-22 19:00,ZGGG 221900Z AUTO 06002KT 2 1/2SM 27/23 A2968 RMK T02700230 IEM_DS3505
ZGGG,2006-08-22 20:00,ZGGG 222000Z AUTO 05002KT 2SM 26/23 A2968 RMK T02600230 IEM_DS3505
ZGGG,2006-08-22 21:00,ZGGG 222100Z AUTO 07002KT 6SM 27/23 A2968 RMK SLP057 T02660227 52001 IEM_DS3505
ZGGG,2006-08-22 22:00,ZGGG 222200Z AUTO 05002KT 1 1/2SM 26/23 A2968 RMK T02600230 IEM_DS3505
ZGGG,2006-08-22 23:00,ZGGG 222300Z AUTO 1 1/4SM 27/23 A2971 RMK T02700230 IEM_DS3505
ZGGG,2006-08-23 00:00,ZGGG 230000Z AUTO 34002KT 3SM 29/23 A2971 RMK SLP069 T02870234 52012 IEM_DS3505
ZGGG,2006-08-23 01:00,ZGGG 230100Z AUTO 1 1/2SM 30/23 A2974 RMK T03000230 IEM_DS3505
ZGGG,2006-08-23 02:00,ZGGG 230200Z AUTO 06004KT 2SM 32/23 A2974 RMK T03200230 IEM_DS3505
ZGGG,2006-08-23 03:00,ZGGG 230300Z AUTO 09002KT 4SM 33/22 A2971 RMK SLP069 T03340225 54000 IEM_DS3505
ZGGG,2006-08-23 04:00,ZGGG 230400Z AUTO 11004KT 3SM 34/21 A2971 RMK T03400210 IEM_DS3505
ZGGG,2006-08-23 05:00,ZGGG 230500Z AUTO 3SM 34/21 A2968 RMK T03400210 IEM_DS3505
ZGGG,2006-08-23 06:00,ZGGG 230600Z AUTO 04004KT 7SM 35/22 A2965 RMK SLP046 T03480218 57023 IEM_DS3505
ZGGG,2006-08-23 07:00,ZGGG 230700Z AUTO 4SM 35/21 A2962 RMK T03500210 IEM_DS3505
ZGGG,2006-08-23 08:00,ZGGG 230800Z AUTO 3SM 35/21 A2959 RMK T03500210 IEM_DS3505
ZGGG,2006-08-23 09:00,ZGGG 230900Z AUTO 07002KT 7SM 34/22 A2959 RMK SLP032 T03360221 57014 IEM_DS3505
ZGGG,2006-08-23 10:00,ZGGG 231000Z AUTO 28006KT 3SM 34/22 A2962 RMK T03400220 IEM_DS3505
ZGGG,2006-08-23 11:00,ZGGG 231100Z AUTO 36008KT 3SM 32/22 A2962 RMK T03200220 IEM_DS3505
ZGGG,2006-08-23 12:00,ZGGG 231200Z AUTO 20002KT 4SM 26/24 A2965 RMK 60039 SLP053 T02650243 52020 IEM_DS3505
ZGGG,2006-08-23 13:00,ZGGG 231300Z AUTO 12004KT 2 1/2SM 29/22 A2968 RMK T02900220 IEM_DS3505
ZGGG,2006-08-23 14:00,ZGGG 231400Z AUTO 14004KT 2 1/2SM 29/24 A2971 RMK T02900240 IEM_DS3505
ZGGG,2006-08-23 15:00,ZGGG 231500Z AUTO 14002KT 7SM 28/23 A2971 RMK SLP067 T02770233 52015 IEM_DS3505
ZGGG,2006-08-23 16:00,ZGGG 231600Z AUTO 12002KT 2 1/2SM 28/24 A2971 RMK T02800240 IEM_DS3505
ZGGG,2006-08-23 17:00,ZGGG 231700Z AUTO 11002KT 4SM 28/23 A2971 RMK T02800230 IEM_DS3505
ZGGG,2006-08-23 18:00,ZGGG 231800Z AUTO 16004KT 7SM 28/24 A2968 RMK SLP057 T02790243 57010 IEM_DS3505
ZGGG,2006-08-23 19:00,ZGGG 231900Z AUTO 07002KT 4SM 28/24 A2968 RMK T02800240 IEM_DS3505
ZGGG,2006-08-23 20:00,ZGGG 232000Z AUTO 00000KT 3SM 28/24 A2968 RMK T02800240 IEM_DS3505
ZGGG,2006-08-23 21:00,ZGGG 232100Z AUTO 07002KT 7SM 27/24 A2968 RMK 70038 SLP058 T02700245 52001 IEM_DS3505
ZGGG,2006-08-23 22:00,ZGGG 232200Z AUTO 1 1/4SM 27/24 A2971 RMK T02700240 IEM_DS3505
ZGGG,2006-08-23 23:00,ZGGG 232300Z AUTO 07004KT 1 1/4SM 28/24 A2971 RMK T02800240 IEM_DS3505
ZGGG,2006-08-24 00:00,ZGGG 240000Z AUTO 02002KT 2SM 29/24 A2971 RMK 70038 SLP068 T02920241 52009 IEM_DS3505
ZGGG,2006-08-24 01:00,ZGGG 240100Z AUTO 06006KT 2SM 30/23 A2974 RMK T03000230 IEM_DS3505
ZGGG,2006-08-24 02:00,ZGGG 240200Z AUTO 03006KT 3SM 31/23 A2971 RMK T03100230 IEM_DS3505
ZGGG,2006-08-24 03:00,ZGGG 240300Z AUTO 07004KT 6SM 33/23 A2971 RMK SLP069 T03330233 52002 IEM_DS3505
ZGGG,2006-08-24 04:00,ZGGG 240400Z AUTO 03006KT 3SM 34/22 A2971 RMK T03400220 IEM_DS3505
ZGGG,2006-08-24 05:00,ZGGG 240500Z AUTO 07006KT 4SM 34/22 A2968 RMK T03400220 IEM_DS3505
ZGGG,2006-08-24 06:00,ZGGG 240600Z AUTO 09006KT 9SM 34/22 A2965 RMK SLP044 T03430224 57025 IEM_DS3505
ZGGG,2006-08-24 07:00,ZGGG 240700Z AUTO 04004KT 5SM 36/21 A2962 RMK T03600210 IEM_DS3505
ZGGG,2006-08-24 08:00,ZGGG 240800Z AUTO 12006KT 7SM 35/24 A2962 RMK T03500240 IEM_DS3505
ZGGG,2006-08-24 09:00,ZGGG 240900Z AUTO 09006KT 9SM 33/22 A2962 RMK SLP036 T03330224 57008 IEM_DS3505
ZGGG,2006-08-24 10:00,ZGGG 241000Z AUTO 12008KT 7SM 32/23 A2965 RMK T03200230 IEM_DS3505
ZGGG,2006-08-24 11:00,ZGGG 241100Z AUTO 10004KT 7SM 31/23 A2965 RMK T03100230 IEM_DS3505
ZGGG,2006-08-24 12:00,ZGGG 241200Z AUTO 11006KT 9SM 31/23 A2968 RMK SLP052 T03060230 52016 IEM_DS3505
ZGGG,2006-08-24 13:00,ZGGG 241300Z AUTO 09004KT 7SM 30/24 A2971 RMK T03000240 IEM_DS3505
ZGGG,2006-08-24 14:00,ZGGG 241400Z AUTO 07004KT 7SM 29/24 A2974 RMK T02900240 IEM_DS3505
ZGGG,2006-08-24 15:00,ZGGG 241500Z AUTO 07004KT 10SM 29/24 A2971 RMK SLP070 T02880235 52018 IEM_DS3505
ZGGG,2006-08-24 16:00,ZGGG 241600Z AUTO 07004KT 7SM 28/23 A2971 RMK T02800230 IEM_DS3505
ZGGG,2006-08-24 17:00,ZGGG 241700Z AUTO 7SM 28/23 A2971 RMK T02800230 IEM_DS3505
ZGGG,2006-08-24 18:00,ZGGG 241800Z AUTO 09004KT 9SM 28/24 A2971 RMK SLP064 T02800236 57006 IEM_DS3505
ZGGG,2006-08-24 19:00,ZGGG 241900Z AUTO 07004KT 7SM 28/23 A2968 RMK T02800230 IEM_DS3505
ZGGG,2006-08-24 20:00,ZGGG 242000Z AUTO 09008KT 7SM 27/23 A2971 RMK T02700230 IEM_DS3505
ZGGG,2006-08-24 21:00,ZGGG 242100Z AUTO 09004KT 9SM 26/24 A2971 RMK 70096 SLP061 T02580242 57003 IEM_DS3505
ZGGG,2006-08-24 22:00,ZGGG 242200Z AUTO 07006KT 7SM 26/23 A2971 RMK T02600230 IEM_DS3505
ZGGG,2006-08-24 23:00,ZGGG 242300Z AUTO 08008KT 7SM 27/23 A2971 RMK T02700230 IEM_DS3505
ZGGG,2006-08-25 00:00,ZGGG 250000Z AUTO 07004KT 15SM 27/24 A2971 RMK 60098 70097 SLP069 T02700245 52008 IEM_DS3505
ZGGG,2006-08-25 01:00,ZGGG 250100Z AUTO 10012KT 7SM 29/23 A2974 RMK T02900230 IEM_DS3505
ZGGG,2006-08-25 02:00,ZGGG 250200Z AUTO 10008KT 7SM 30/23 A2974 RMK T03000230 IEM_DS3505
ZGGG,2006-08-25 03:00,ZGGG 250300Z AUTO 14008KT 8SM 30/25 A2974 RMK SLP074 T03050249 52005 IEM_DS3505
ZGGG,2006-08-25 04:00,ZGGG 250400Z AUTO 08004KT 5SM 31/25 A2974 RMK T03100250 IEM_DS3505
ZGGG,2006-08-25 05:00,ZGGG 250500Z AUTO 15006KT 4SM 29/25 A2974 RMK T02900250 IEM_DS3505
ZGGG,2006-08-25 06:00,ZGGG 250600Z AUTO 16006KT 8SM 30/25 A2971 RMK 60039 SLP064 T02970250 57010 IEM_DS3505
ZGGG,2006-08-25 07:00,ZGGG 250700Z AUTO 15008KT 7SM 32/24 A2968 RMK T03200240 IEM_DS3505
ZGGG,2006-08-25 08:00,ZGGG 250800Z AUTO 15010KT 4SM 30/24 A2968 RMK T03000240 IEM_DS3505
ZGGG,2006-08-25 09:00,ZGGG 250900Z AUTO 14006KT 9SM 30/24 A2965 RMK SLP053 T02950244 57012 IEM_DS3505
ZGGG,2006-08-25 10:00,ZGGG 251000Z AUTO 13004KT 3SM 30/25 A2968 RMK T03000250 IEM_DS3505
ZGGG,2006-08-25 11:00,ZGGG 251100Z AUTO 13004KT 3SM 29/24 A2971 RMK T02900240 IEM_DS3505
ZGGG,2006-08-25 12:00,ZGGG 251200Z AUTO 11006KT 7SM 29/24 A2974 RMK SLP074 T02870245 52021 IEM_DS3505
ZGGG,2006-08-25 13:00,ZGGG 251300Z AUTO 09006KT 4SM 28/24 A2974 RMK T02800240 IEM_DS3505
ZGGG,2006-08-25 14:00,ZGGG 251400Z AUTO 10006KT 4SM 28/24 A2977 RMK T02800240 IEM_DS3505
ZGGG,2006-08-25 15:00,ZGGG 251500Z AUTO 09006KT 7SM 28/24 A2977 RMK SLP082 T02810245 52009 IEM_DS3505
ZGGG,2006-08-25 16:00,ZGGG 251600Z AUTO 10006KT 3SM 28/24 A2977 RMK T02800240 IEM_DS3505
ZGGG,2006-08-25 17:00,ZGGG 251700Z AUTO 09006KT 1 1/4SM 28/24 A2974 RMK T02800240 IEM_DS3505
ZGGG,2006-08-25 18:00,ZGGG 251800Z AUTO 11002KT 7SM 28/24 A2974 RMK 60000 SLP077 T02750241 57005 IEM_DS3505
ZGGG,2006-08-25 19:00,ZGGG 251900Z AUTO 09006KT 2SM 27/24 A2974 RMK T02700240 IEM_DS3505
ZGGG,2006-08-25 20:00,ZGGG 252000Z AUTO 10006KT 2SM 27/24 A2971 RMK T02700240 IEM_DS3505
ZGGG,2006-08-25 21:00,ZGGG 252100Z AUTO 11002KT 6SM 27/24 A2971 RMK 70040 SLP072 T02680245 57006 IEM_DS3505
ZGGG,2006-08-25 22:00,ZGGG 252200Z AUTO 11004KT 1 1/4SM 27/24 A2971 RMK T02700240 IEM_DS3505
ZGGG,2006-08-25 23:00,ZGGG 252300Z AUTO 09006KT 1 1/2SM 27/24 A2974 RMK T02700240 IEM_DS3505
ZGGG,2006-08-26 00:00,ZGGG 260000Z AUTO 11004KT 5SM 27/24 A2974 RMK 70039 SLP082 T02710244 52010 IEM_DS3505
ZGGG,2006-08-26 01:00,ZGGG 260100Z AUTO 10006KT 2 1/2SM 28/24 A2977 RMK T02800240 IEM_DS3505
ZGGG,2006-08-26 02:00,ZGGG 260200Z AUTO 13008KT 2 1/2SM 30/24 A2974 RMK T03000240 IEM_DS3505
ZGGG,2006-08-26 03:00,ZGGG 260300Z AUTO 14006KT 5SM 28/25 A2977 RMK SLP087 T02840246 52005 IEM_DS3505
ZGGG,2006-08-26 04:00,ZGGG 260400Z AUTO 14008KT 4SM 29/24 A2974 RMK T02900240 IEM_DS3505
ZGGG,2006-08-26 05:00,ZGGG 260500Z AUTO 26010KT 2 1/2SM 27/24 A2977 RMK T02700240 IEM_DS3505
ZGGG,2006-08-26 06:00,ZGGG 260600Z AUTO 16002KT 4SM 29/25 A2974 RMK 60000 SLP075 T02910247 57012 IEM_DS3505
ZGGG,2006-08-26 07:00,ZGGG 260700Z AUTO 1SM 27/24 A2974 RMK T02700240 IEM_DS3505
ZGGG,2006-08-26 08:00,ZGGG 260800Z AUTO 2SM 27/24 A2971 RMK T02700240 IEM_DS3505
ZGGG,2006-08-26 09:00,ZGGG 260900Z AUTO 07002KT 2 1/2SM 28/25 A2971 RMK SLP068 T02750248 57007 IEM_DS3505
ZGGG,2006-08-26 10:00,ZGGG 261000Z AUTO 1 1/4SM 28/25 A2974 RMK T02800250 IEM_DS3505
ZGGG,2006-08-26 11:00,ZGGG 261100Z AUTO 06004KT 1 1/4SM 27/25 A2974 RMK T02700250 IEM_DS3505
ZGGG,2006-08-26 12:00,ZGGG 261200Z AUTO 11002KT 7SM 27/25 A2974 RMK 60028 SLP080 T02690253 52012 IEM_DS3505
ZGGG,2006-08-26 13:00,ZGGG 261300Z AUTO 10004KT 2SM 26/25 A2977 RMK T02600250 IEM_DS3505
ZGGG,2006-08-26 14:00,ZGGG 261400Z AUTO 07004KT 2SM 27/25 A2977 RMK T02700250 IEM_DS3505
ZGGG,2006-08-26 15:00,ZGGG 261500Z AUTO 09002KT 7SM 27/24 A2977 RMK SLP090 T02670244 52010 IEM_DS3505
ZGGG,2006-08-26 16:00,ZGGG 261600Z AUTO 00000KT 1 1/2SM 26/24 A2977 RMK T02600240 IEM_DS3505
ZGGG,2006-08-26 17:00,ZGGG 261700Z AUTO 10002KT 1 1/2SM 26/24 A2977 RMK T02600240 IEM_DS3505
ZGGG,2006-08-26 18:00,ZGGG 261800Z AUTO 09002KT 6SM 26/24 A2977 RMK SLP086 T02600244 57004 IEM_DS3505
ZGGG,2006-08-26 19:00,ZGGG 261900Z AUTO 08004KT 1 1/2SM 26/24 A2977 RMK T02600240 IEM_DS3505
ZGGG,2006-08-26 20:00,ZGGG 262000Z AUTO 08004KT 1 1/2SM 26/24 A2977 RMK T02600240 IEM_DS3505
ZGGG,2006-08-26 21:00,ZGGG 262100Z AUTO 07002KT 4SM 26/24 A2977 RMK 70026 SLP088 T02560242 52002 IEM_DS3505
ZGGG,2006-08-26 22:00,ZGGG 262200Z AUTO 08002KT 1 1/4SM 25/23 A2977 RMK T02500230 IEM_DS3505
ZGGG,2006-08-26 23:00,ZGGG 262300Z AUTO 07002KT 1 1/4SM 26/24 A2980 RMK T02600240 IEM_DS3505
ZGGG,2006-08-27 00:00,ZGGG 270000Z AUTO 07002KT 2SM 27/24 A2980 RMK 70026 SLP100 T02720245 52012 IEM_DS3505
ZGGG,2006-08-27 01:00,ZGGG 270100Z AUTO 09004KT 2SM 28/24 A2983 RMK T02800240 IEM_DS3505
ZGGG,2006-08-27 02:00,ZGGG 270200Z AUTO 2 1/2SM 30/24 A2983 RMK T03000240 IEM_DS3505
ZGGG,2006-08-27 03:00,ZGGG 270300Z AUTO 14004KT 6SM 32/22 A2983 RMK SLP101 T03170224 52002 IEM_DS3505
ZGGG,2006-08-27 04:00,ZGGG 270400Z AUTO 4SM 32/22 A2980 RMK T03200220 IEM_DS3505
ZGGG,2006-08-27 05:00,ZGGG 270500Z AUTO 4SM 33/23 A2977 RMK T03300230 IEM_DS3505
ZGGG,2006-08-27 06:00,ZGGG 270600Z AUTO 27002KT 5SM 34/22 A2974 RMK SLP077 T03360224 57024 IEM_DS3505
ZGGG,2006-08-27 07:00,ZGGG 270700Z AUTO 4SM 33/22 A2974 RMK T03300220 IEM_DS3505
ZGGG,2006-08-27 08:00,ZGGG 270800Z AUTO 10004KT 3SM 33/23 A2971 RMK T03300230 IEM_DS3505
ZGGG,2006-08-27 09:00,ZGGG 270900Z AUTO 16004KT 6SM 31/23 A2971 RMK SLP066 T03100226 57011 IEM_DS3505
ZGGG,2006-08-27 10:00,ZGGG 271000Z AUTO 14004KT 2 1/2SM 31/24 A2971 RMK T03100240 IEM_DS3505
ZGGG,2006-08-27 11:00,ZGGG 271100Z AUTO 14004KT 2 1/2SM 30/23 A2974 RMK T03000230 IEM_DS3505
ZGGG,2006-08-27 12:00,ZGGG 271200Z AUTO 16002KT 6SM 29/24 A2977 RMK SLP087 T02930237 52020 IEM_DS3505
ZGGG,2006-08-27 13:00,ZGGG 271300Z AUTO 07002KT 2SM 29/23 A2980 RMK T02900230 IEM_DS3505
ZGGG,2006-08-27 14:00,ZGGG 271400Z AUTO 08004KT 2SM 28/24 A2980 RMK T02800240 IEM_DS3505
ZGGG,2006-08-27 15:00,ZGGG 271500Z AUTO 09002KT 5SM 28/24 A2980 RMK SLP099 T02780240 52013 IEM_DS3505
ZGGG,2006-08-27 16:00,ZGGG 271600Z AUTO 2 1/2SM 27/24 A2980 RMK T02700240 IEM_DS3505
ZGGG,2006-08-27 17:00,ZGGG 271700Z AUTO 02004KT 3SM 27/24 A2977 RMK T02700240 IEM_DS3505
ZGGG,2006-08-27 18:00,ZGGG 271800Z AUTO 07002KT 4SM 27/24 A2977 RMK SLP086 T02690244 57013 IEM_DS3505
ZGGG,2006-08-27 19:00,ZGGG 271900Z AUTO 08002KT 2 1/2SM 27/24 A2977 RMK T02700240 IEM_DS3505
ZGGG,2006-08-27 20:00,ZGGG 272000Z AUTO 2 1/2SM 26/24 A2977 RMK T02600240 IEM_DS3505
ZGGG,2006-08-27 21:00,ZGGG 272100Z AUTO 07002KT 6SM 27/24 A2977 RMK SLP091 T02660243 52004 IEM_DS3505
ZGGG,2006-08-27 22:00,ZGGG 272200Z AUTO 01002KT 2 1/2SM 26/24 A2980 RMK T02600240 IEM_DS3505
ZGGG,2006-08-27 23:00,ZGGG 272300Z AUTO 02002KT 2 1/2SM 26/24 A2980 RMK T02600240 IEM_DS3505
ZGGG,2006-08-28 00:00,ZGGG 280000Z AUTO 07002KT 9SM 29/25 A2980 RMK SLP099 T02900246 52009 IEM_DS3505
ZGGG,2006-08-28 01:00,ZGGG 280100Z AUTO 5SM 30/24 A2980 RMK T03000240 IEM_DS3505
ZGGG,2006-08-28 02:00,ZGGG 280200Z AUTO 06004KT 7SM 31/24 A2980 RMK T03100240 IEM_DS3505
ZGGG,2006-08-28 03:00,ZGGG 280300Z AUTO 11002KT 9SM 31/25 A2980 RMK SLP097 T03120246 57002 IEM_DS3505
ZGGG,2006-08-28 04:00,ZGGG 280400Z AUTO 7SM 32/22 A2980 RMK T03200220 IEM_DS3505
ZGGG,2006-08-28 05:00,ZGGG 280500Z AUTO 12004KT 7SM 34/23 A2977 RMK T03400230 IEM_DS3505
ZGGG,2006-08-28 06:00,ZGGG 280600Z AUTO 11004KT 9SM 34/23 A2974 RMK SLP076 T03380232 57021 IEM_DS3505
ZGGG,2006-08-28 07:00,ZGGG 280700Z AUTO 11006KT 7SM 35/22 A2974 RMK T03500220 IEM_DS3505
ZGGG,2006-08-28 08:00,ZGGG 280800Z AUTO 20014KT 5SM 29/23 A2974 RMK T02900230 IEM_DS3505
ZGGG,2006-08-28 09:00,ZGGG 280900Z AUTO 07002KT 11SM 27/25 A2977 RMK SLP084 T02690247 52007 IEM_DS3505
ZGGG,2006-08-28 10:00,ZGGG 281000Z AUTO 26004KT 3SM 26/24 A2980 RMK T02600240 IEM_DS3505
ZGGG,2006-08-28 11:00,ZGGG 281100Z AUTO 2 1/2SM 26/24 A2983 RMK T02600240 IEM_DS3505
ZGGG,2006-08-28 12:00,ZGGG 281200Z AUTO 34002KT 9SM 25/23 A2983 RMK 60138 SLP105 T02480234 52021 IEM_DS3505
ZGGG,2006-08-28 13:00,ZGGG 281300Z AUTO 10002KT 3SM 27/24 A2983 RMK T02700240 IEM_DS3505
ZGGG,2006-08-28 14:00,ZGGG 281400Z AUTO 00000KT 5SM 26/24 A2983 RMK T02600240 IEM_DS3505
ZGGG,2006-08-28 15:00,ZGGG 281500Z AUTO 07002KT 7SM 25/24 A2985 RMK SLP110 T02540240 52005 IEM_DS3505
ZGGG,2006-08-28 16:00,ZGGG 281600Z AUTO 06004KT 4SM 26/24 A2983 RMK T02600240 IEM_DS3505
ZGGG,2006-08-28 17:00,ZGGG 281700Z AUTO 06004KT 4SM 26/23 A2983 RMK T02600230 IEM_DS3505
ZGGG,2006-08-28 18:00,ZGGG 281800Z AUTO 07002KT 8SM 25/24 A2983 RMK 60000 SLP103 T02510237 57006 IEM_DS3505
ZGGG,2006-08-28 19:00,ZGGG 281900Z AUTO 09002KT 4SM 26/23 A2983 RMK T02600230 IEM_DS3505
ZGGG,2006-08-28 20:00,ZGGG 282000Z AUTO 00000KT 2 1/2SM 25/23 A2980 RMK T02500230 IEM_DS3505
ZGGG,2006-08-28 21:00,ZGGG 282100Z AUTO 04002KT 9SM 25/24 A2983 RMK 70137 SLP102 T02530237 57002 IEM_DS3505
ZGGG,2006-08-28 22:00,ZGGG 282200Z AUTO 00000KT 1 1/4SM 25/23 A2983 RMK T02500230 IEM_DS3505
ZGGG,2006-08-28 23:00,ZGGG 282300Z AUTO 1 1/2SM 26/24 A2983 RMK T02600240 IEM_DS3505
ZGGG,2006-08-29 00:00,ZGGG 290000Z AUTO 09004KT 9SM 28/24 A2985 RMK 70137 SLP112 T02760242 52010 IEM_DS3505
ZGGG,2006-08-29 01:00,ZGGG 290100Z AUTO 08006KT 6SM 29/25 A2985 RMK T02900250 IEM_DS3505
ZGGG,2006-08-29 02:00,ZGGG 290200Z AUTO 09004KT 7SM 31/25 A2985 RMK T03100250 IEM_DS3505
ZGGG,2006-08-29 03:00,ZGGG 290300Z AUTO 20002KT 10SM 32/24 A2985 RMK SLP115 T03150244 52003 IEM_DS3505
ZGGG,2006-08-29 04:00,ZGGG 290400Z AUTO 7SM 31/25 A2985 RMK T03100250 IEM_DS3505
ZGGG,2006-08-29 05:00,ZGGG 290500Z AUTO 7SM 33/24 A2983 RMK T03300240 IEM_DS3505
ZGGG,2006-08-29 06:00,ZGGG 290600Z AUTO 16004KT 16SM 33/24 A2983 RMK SLP104 T03320235 57011 IEM_DS3505
ZGGG,2006-08-29 07:00,ZGGG 290700Z AUTO 13006KT 7SM 33/24 A2980 RMK T03300240 IEM_DS3505
ZGGG,2006-08-29 08:00,ZGGG 290800Z AUTO 10006KT 7SM 30/24 A2983 RMK T03000240 IEM_DS3505
ZGGG,2006-08-29 09:00,ZGGG 290900Z AUTO 14004KT 16SM 32/24 A2983 RMK SLP103 T03170238 57001 IEM_DS3505
ZGGG,2006-08-29 10:00,ZGGG 291000Z AUTO 08004KT 7SM 29/25 A2983 RMK T02900250 IEM_DS3505
ZGGG,2006-08-29 11:00,ZGGG 291100Z AUTO 08006KT 5SM 28/24 A2985 RMK T02800240 IEM_DS3505
ZGGG,2006-08-29 12:00,ZGGG 291200Z AUTO 14004KT 14SM 30/24 A2985 RMK SLP120 T02960242 52017 IEM_DS3505
ZGGG,2006-08-29 13:00,ZGGG 291300Z AUTO 07002KT 4SM 28/25 A2988 RMK T02800250 IEM_DS3505
ZGGG,2006-08-29 14:00,ZGGG 291400Z AUTO 11002KT 4SM 27/25 A2988 RMK T02700250 IEM_DS3505
ZGGG,2006-08-29 15:00,ZGGG 291500Z AUTO 16002KT 13SM 28/24 A2988 RMK SLP125 T02850243 52006 IEM_DS3505
ZGGG,2006-08-29 16:00,ZGGG 291600Z AUTO 00000KT 4SM 27/24 A2988 RMK T02700240 IEM_DS3505
ZGGG,2006-08-29 17:00,ZGGG 291700Z AUTO 00000KT 4SM 26/24 A2985 RMK T02600240 IEM_DS3505
ZGGG,2006-08-29 18:00,ZGGG 291800Z AUTO 14002KT 13SM 28/25 A2985 RMK SLP117 T02760247 57008 IEM_DS3505
ZGGG,2006-08-29 19:00,ZGGG 291900Z AUTO 10004KT 5SM 26/24 A2985 RMK T02600240 IEM_DS3505
ZGGG,2006-08-29 20:00,ZGGG 292000Z AUTO 06004KT 4SM 26/24 A2985 RMK T02600240 IEM_DS3505
ZGGG,2006-08-29 21:00,ZGGG 292100Z AUTO 18002KT 11SM 27/24 A2985 RMK SLP114 T02670245 57004 IEM_DS3505
ZGGG,2006-08-29 22:00,ZGGG 292200Z AUTO 07002KT 1 1/4SM 26/24 A2985 RMK T02600240 IEM_DS3505
ZGGG,2006-08-29 23:00,ZGGG 292300Z AUTO 00000KT 2SM 27/25 A2988 RMK T02700250 IEM_DS3505
ZGGG,2006-08-30 00:00,ZGGG 300000Z AUTO 18002KT 11SM 30/25 A2988 RMK SLP127 T02990248 52013 IEM_DS3505
ZGGG,2006-08-30 01:00,ZGGG 300100Z AUTO 00000KT 4SM 31/25 A2988 RMK T03100250 IEM_DS3505
ZGGG,2006-08-30 02:00,ZGGG 300200Z AUTO 23006KT 4SM 30/24 A2991 RMK T03000240 IEM_DS3505
ZGGG,2006-08-30 03:00,ZGGG 300300Z AUTO 20004KT 9SM 33/23 A2988 RMK SLP126 T03270234 54000 IEM_DS3505
ZGGG,2006-08-30 04:00,ZGGG 300400Z AUTO 24006G16KT 4SM 32/23 A2988 RMK T03200230 IEM_DS3505
ZGGG,2006-08-30 05:00,ZGGG 300500Z AUTO 24006G16KT 5SM 34/22 A2985 RMK T03400220 IEM_DS3505
ZGGG,2006-08-30 06:00,ZGGG 300600Z AUTO 18002KT 9SM 33/22 A2983 RMK SLP103 T03340219 57023 IEM_DS3505
ZGGG,2006-08-30 07:00,ZGGG 300700Z AUTO 25006KT 5SM 34/22 A2980 RMK T03400220 IEM_DS3505
ZGGG,2006-08-30 08:00,ZGGG 300800Z AUTO 24006KT 4SM 35/22 A2980 RMK T03500220 IEM_DS3505
ZGGG,2006-08-30 09:00,ZGGG 300900Z AUTO 11002G14KT 7SM 33/24 A2977 RMK SLP087 T03320235 57016 IEM_DS3505
ZGGG,2006-08-30 10:00,ZGGG 301000Z AUTO 00000KT 5SM 34/22 A2977 RMK T03400220 IEM_DS3505
ZGGG,2006-08-30 11:00,ZGGG 301100Z AUTO 13002KT 4SM 32/24 A2980 RMK T03200240 IEM_DS3505
ZGGG,2006-08-30 12:00,ZGGG 301200Z AUTO 14004KT 7SM 31/25 A2980 RMK SLP097 T03060247 52010 IEM_DS3505
ZGGG,2006-08-30 13:00,ZGGG 301300Z AUTO 16006KT 4SM 30/24 A2980 RMK T03000240 IEM_DS3505
ZGGG,2006-08-30 14:00,ZGGG 301400Z AUTO 00000KT 5SM 29/25 A2980 RMK T02900250 IEM_DS3505
ZGGG,2006-08-30 15:00,ZGGG 301500Z AUTO 22002KT 9SM 29/24 A2980 RMK SLP100 T02940245 52003 IEM_DS3505
ZGGG,2006-08-30 16:00,ZGGG 301600Z AUTO 00000KT 4SM 28/25 A2980 RMK T02800250 IEM_DS3505
ZGGG,2006-08-30 17:00,ZGGG 301700Z AUTO 17004KT 4SM 29/25 A2980 RMK T02900250 IEM_DS3505
ZGGG,2006-08-30 18:00,ZGGG 301800Z AUTO 22004KT 9SM 28/24 A2977 RMK SLP090 T02850241 57010 IEM_DS3505
ZGGG,2006-08-30 19:00,ZGGG 301900Z AUTO 22006KT 4SM 29/25 A2977 RMK T02900250 IEM_DS3505
ZGGG,2006-08-30 20:00,ZGGG 302000Z AUTO 24002KT 3SM 28/25 A2977 RMK T02800250 IEM_DS3505
ZGGG,2006-08-30 21:00,ZGGG 302100Z AUTO 25002KT 9SM 27/24 A2977 RMK SLP085 T02720239 57005 IEM_DS3505
ZGGG,2006-08-30 22:00,ZGGG 302200Z AUTO 22006KT 4SM 28/23 A2977 RMK T02800230 IEM_DS3505
ZGGG,2006-08-30 23:00,ZGGG 302300Z AUTO 21006KT 4SM 28/24 A2977 RMK T02800240 IEM_DS3505
ZGGG,2006-08-31 00:00,ZGGG 310000Z AUTO 27006KT 10SM 29/23 A2980 RMK SLP095 T02890229 52010 IEM_DS3505
ZGGG,2006-08-31 01:00,ZGGG 310100Z AUTO 22004KT 4SM 30/24 A2980 RMK T03000240 IEM_DS3505
ZGGG,2006-08-31 02:00,ZGGG 310200Z AUTO 27004KT 5SM 31/24 A2980 RMK T03100240 IEM_DS3505
ZGGG,2006-08-31 03:00,ZGGG 310300Z AUTO 32004KT 11SM 33/22 A2980 RMK SLP094 T03300218 57001 IEM_DS3505
ZGGG,2006-08-31 04:00,ZGGG 310400Z AUTO 7SM 33/23 A2977 RMK T03300230 IEM_DS3505
ZGGG,2006-08-31 05:00,ZGGG 310500Z AUTO 20004KT 7SM 34/22 A2974 RMK T03400220 IEM_DS3505
ZGGG,2006-08-31 06:00,ZGGG 310600Z AUTO 27004KT 12SM 35/22 A2971 RMK SLP072 T03510217 57022 IEM_DS3505
ZGGG,2006-08-31 07:00,ZGGG 310700Z AUTO 24008KT 7SM 35/23 A2971 RMK T03500230 IEM_DS3505
ZGGG,2006-08-31 08:00,ZGGG 310800Z AUTO 23008KT 6SM 35/22 A2968 RMK T03500220 IEM_DS3505
ZGGG,2006-08-31 09:00,ZGGG 310900Z AUTO 27004KT 11SM 35/21 A2968 RMK SLP052 T03510210 57020 IEM_DS3505
ZGGG,2006-08-31 10:00,ZGGG 311000Z AUTO 24008KT 6SM 34/22 A2968 RMK T03400220 IEM_DS3505
ZGGG,2006-08-31 11:00,ZGGG 311100Z AUTO 23006KT 6SM 33/22 A2968 RMK T03300220 IEM_DS3505
ZGGG,2006-08-31 12:00,ZGGG 311200Z AUTO 20002KT 11SM 31/23 A2971 RMK SLP065 T03130226 52013 IEM_DS3505
ZGGG,2006-08-31 13:00,ZGGG 311300Z AUTO 22008KT 7SM 33/22 A2971 RMK T03300220 IEM_DS3505
ZGGG,2006-08-31 14:00,ZGGG 311400Z AUTO 21006KT 4SM 32/23 A2974 RMK T03200230 IEM_DS3505
ZGGG,2006-08-31 15:00,ZGGG 311500Z AUTO 20002KT 11SM 30/24 A2971 RMK SLP069 T03030242 52004 IEM_DS3505
ZGGG,2006-08-31 16:00,ZGGG 311600Z AUTO 4SM 30/24 A2971 RMK T03000240 IEM_DS3505
ZGGG,2006-08-31 17:00,ZGGG 311700Z AUTO 24004KT 3SM 29/25 A2971 RMK T02900250 IEM_DS3505
ZGGG,2006-08-31 18:00,ZGGG 311800Z AUTO 27002KT 9SM 28/24 A2971 RMK SLP063 T02810241 57006 IEM_DS3505
ZGGG,2006-08-31 19:00,ZGGG 311900Z AUTO 25006KT 5SM 29/25 A2968 RMK T02900250 IEM_DS3505
ZGGG,2006-08-31 20:00,ZGGG 312000Z AUTO 24006KT 5SM 28/24 A2971 RMK T02800240 IEM_DS3505
ZGGG,2006-08-31 21:00,ZGGG 312100Z AUTO 27006KT 9SM 28/24 A2971 RMK SLP064 T02820238 52001 IEM_DS3505
ZGGG,2006-08-31 22:00,ZGGG 312200Z AUTO 20004KT 4SM 27/24 A2971 RMK T02700240 IEM_DS3505
ZGGG,2006-08-31 23:00,ZGGG 312300Z AUTO 21004KT 4SM 28/25 A2971 RMK T02800250 IEM_DS3505
ZGGG,2006-09-01 00:00,ZGGG 010000Z AUTO 27004KT 8SM 30/24 A2974 RMK SLP075 T02960242 52011 IEM_DS3505
ZGGG,2006-09-01 01:00,ZGGG 010100Z AUTO 3SM 31/24 A2974 RMK T03100240 IEM_DS3505
ZGGG,2006-09-01 02:00,ZGGG 010200Z AUTO 23006KT 5SM 32/24 A2974 RMK T03200240 IEM_DS3505
ZGGG,2006-09-01 03:00,ZGGG 010300Z AUTO 27006KT 9SM 33/24 A2974 RMK SLP075 T03330236 54000 IEM_DS3505
ZGGG,2006-09-01 04:00,ZGGG 010400Z AUTO 27008KT 7SM 34/22 A2971 RMK T03400220 IEM_DS3505
ZGGG,2006-09-01 05:00,ZGGG 010500Z AUTO 7SM 35/23 A2968 RMK T03500230 IEM_DS3505
ZGGG,2006-09-01 06:00,ZGGG 010600Z AUTO 29004G19KT 11SM 35/22 A2968 RMK SLP055 T03540224 57020 IEM_DS3505
ZGGG,2006-09-01 07:00,ZGGG 010700Z AUTO 28008KT 7SM 36/22 A2965 RMK T03600220 IEM_DS3505
ZGGG,2006-09-01 08:00,ZGGG 010800Z AUTO 28008KT 7SM 36/21 A2962 RMK T03600210 IEM_DS3505
ZGGG,2006-09-01 09:00,ZGGG 010900Z AUTO 29004KT 11SM 36/23 A2962 RMK SLP041 T03620227 57014 IEM_DS3505
ZGGG,2006-09-01 10:00,ZGGG 011000Z AUTO 25008KT 6SM 35/21 A2962 RMK T03500210 IEM_DS3505
ZGGG,2006-09-01 11:00,ZGGG 011100Z AUTO 21004KT 6SM 33/23 A2965 RMK T03300230 IEM_DS3505
ZGGG,2006-09-01 12:00,ZGGG 011200Z AUTO 29002KT 10SM 31/23 A2965 RMK SLP051 T03120228 52010 IEM_DS3505
ZGGG,2006-09-01 13:00,ZGGG 011300Z AUTO 22004KT 6SM 33/23 A2968 RMK T03300230 IEM_DS3505
ZGGG,2006-09-01 14:00,ZGGG 011400Z AUTO 21004KT 5SM 33/22 A2971 RMK T03300220 IEM_DS3505
ZGGG,2006-09-01 15:00,ZGGG 011500Z AUTO 00000KT 9SM 30/24 A2971 RMK SLP064 T02990243 52013 IEM_DS3505
ZGGG,2006-09-01 16:00,ZGGG 011600Z AUTO 18002KT 3SM 30/24 A2968 RMK T03000240 IEM_DS3505
ZGGG,2006-09-01 17:00,ZGGG 011700Z AUTO 4SM 29/25 A2968 RMK T02900250 IEM_DS3505
ZGGG,2006-09-01 18:00,ZGGG 011800Z AUTO 04002KT 9SM 29/24 A2968 RMK SLP059 T02890242 57005 IEM_DS3505
ZGGG,2006-09-01 19:00,ZGGG 011900Z AUTO 00000KT 3SM 28/25 A2968 RMK T02800250 IEM_DS3505
ZGGG,2006-09-01 20:00,ZGGG 012000Z AUTO 22004KT 3SM 29/24 A2968 RMK T02900240 IEM_DS3505
ZGGG,2006-09-01 21:00,ZGGG 012100Z AUTO 04002KT 9SM 28/25 A2968 RMK SLP059 T02810247 54000 IEM_DS3505
ZGGG,2006-09-01 22:00,ZGGG 012200Z AUTO 2 1/2SM 28/25 A2971 RMK T02800250 IEM_DS3505
ZGGG,2006-09-01 23:00,ZGGG 012300Z AUTO 23004KT 2 1/2SM 29/25 A2971 RMK T02900250 IEM_DS3505
ZGGG,2006-09-02 00:00,ZGGG 020000Z AUTO 27004KT 7SM 30/25 A2974 RMK SLP073 T03050249 52014 IEM_DS3505
ZGGG,2006-09-02 01:00,ZGGG 020100Z AUTO 2 1/2SM 31/25 A2974 RMK T03100250 IEM_DS3505
ZGGG,2006-09-02 02:00,ZGGG 020200Z AUTO 4SM 33/24 A2974 RMK T03300240 IEM_DS3505
ZGGG,2006-09-02 03:00,ZGGG 020300Z AUTO 34002KT 10SM 34/24 A2974 RMK SLP078 T03360242 52005 IEM_DS3505
ZGGG,2006-09-02 04:00,ZGGG 020400Z AUTO 26006KT 7SM 35/22 A2971 RMK T03500220 IEM_DS3505
ZGGG,2006-09-02 05:00,ZGGG 020500Z AUTO 26006KT 7SM 36/22 A2968 RMK T03600220 IEM_DS3505
ZGGG,2006-09-02 06:00,ZGGG 020600Z AUTO 25002G16KT 11SM 36/23 A2965 RMK SLP049 T03590228 57029 IEM_DS3505
ZGGG,2006-09-02 07:00,ZGGG 020700Z AUTO 24006KT 7SM 36/23 A2965 RMK T03600230 IEM_DS3505
ZGGG,2006-09-02 08:00,ZGGG 020800Z AUTO 23006KT 6SM 36/22 A2962 RMK T03600220 IEM_DS3505
ZGGG,2006-09-02 09:00,ZGGG 020900Z AUTO 27002KT 11SM 33/23 A2962 RMK SLP041 T03320229 57008 IEM_DS3505
ZGGG,2006-09-02 10:00,ZGGG 021000Z AUTO 7SM 34/23 A2965 RMK T03400230 IEM_DS3505
ZGGG,2006-09-02 11:00,ZGGG 021100Z AUTO 22004KT 6SM 33/23 A2965 RMK T03300230 IEM_DS3505
ZGGG,2006-09-02 12:00,ZGGG 021200Z AUTO 07002KT 9SM 32/24 A2968 RMK SLP058 T03190240 52017 IEM_DS3505
ZGGG,2006-09-02 13:00,ZGGG 021300Z AUTO 14004KT 4SM 32/24 A2971 RMK T03200240 IEM_DS3505
ZGGG,2006-09-02 14:00,ZGGG 021400Z AUTO 12002KT 3SM 31/25 A2971 RMK T03100250 IEM_DS3505
ZGGG,2006-09-02 15:00,ZGGG 021500Z AUTO 11004KT 10SM 31/25 A2971 RMK SLP069 T03100254 52011 IEM_DS3505
ZGGG,2006-09-02 16:00,ZGGG 021600Z AUTO 09004KT 2 1/2SM 30/25 A2971 RMK T03000250 IEM_DS3505
ZGGG,2006-09-02 17:00,ZGGG 021700Z AUTO 2 1/2SM 30/26 A2968 RMK T03000260 IEM_DS3505
ZGGG,2006-09-02 18:00,ZGGG 021800Z AUTO 14004KT 9SM 30/25 A2968 RMK SLP056 T03010252 57013 IEM_DS3505
ZGGG,2006-09-02 19:00,ZGGG 021900Z AUTO 06002KT 3SM 29/26 A2968 RMK T02900260 IEM_DS3505
ZGGG,2006-09-02 20:00,ZGGG 022000Z AUTO 2 1/2SM 29/25 A2968 RMK T02900250 IEM_DS3505
ZGGG,2006-09-02 21:00,ZGGG 022100Z AUTO 09002KT 9SM 29/26 A2968 RMK SLP061 T02930257 52005 IEM_DS3505
ZGGG,2006-09-02 22:00,ZGGG 022200Z AUTO 08004KT 1 1/2SM 28/24 A2971 RMK T02800240 IEM_DS3505
ZGGG,2006-09-02 23:00,ZGGG 022300Z AUTO 08004KT 1 1/4SM 29/25 A2971 RMK T02900250 IEM_DS3505
ZGGG,2006-09-03 00:00,ZGGG 030000Z AUTO 07004KT 4SM 30/26 A2974 RMK SLP074 T02980260 52013 IEM_DS3505
ZGGG,2006-09-03 01:00,ZGGG 030100Z AUTO 09004KT 1 1/2SM 27/24 A2974 RMK T02700240 IEM_DS3505
ZGGG,2006-09-03 02:00,ZGGG 030200Z AUTO 12004KT 3SM 28/25 A2977 RMK T02800250 IEM_DS3505
ZGGG,2006-09-03 03:00,ZGGG 030300Z AUTO 27004KT 4SM 32/26 A2974 RMK SLP073 T03190262 57001 IEM_DS3505
ZGGG,2006-09-03 04:00,ZGGG 030400Z AUTO 14004KT 2 1/2SM 32/26 A2971 RMK T03200260 IEM_DS3505
ZGGG,2006-09-03 05:00,ZGGG 030500Z AUTO 2 1/2SM 34/25 A2968 RMK T03400250 IEM_DS3505
ZGGG,2006-09-03 06:00,ZGGG 030600Z AUTO 18002KT 7SM 34/25 A2965 RMK 60008 SLP052 T03390250 57021 IEM_DS3505
ZGGG,2006-09-03 07:00,ZGGG 030700Z AUTO 17008KT 4SM 35/25 A2962 RMK T03500250 IEM_DS3505
ZGGG,2006-09-03 08:00,ZGGG 030800Z AUTO 17008KT 3SM 31/24 A2962 RMK T03100240 IEM_DS3505
ZGGG,2006-09-03 09:00,ZGGG 030900Z AUTO 14004KT 6SM 31/23 A2965 RMK SLP044 T03060233 57008 IEM_DS3505
ZGGG,2006-09-03 10:00,ZGGG 031000Z AUTO 35006KT 3SM 28/23 A2965 RMK T02800230 IEM_DS3505
ZGGG,2006-09-03 11:00,ZGGG 031100Z AUTO 11004KT 3SM 28/23 A2968 RMK T02800230 IEM_DS3505
ZGGG,2006-09-03 12:00,ZGGG 031200Z AUTO 14004KT 7SM 30/23 A2971 RMK SLP063 T02960233 52019 IEM_DS3505
ZGGG,2006-09-03 13:00,ZGGG 031300Z AUTO 04004KT 3SM 27/23 A2974 RMK T02700230 IEM_DS3505
ZGGG,2006-09-03 14:00,ZGGG 031400Z AUTO 08004KT 4SM 27/23 A2974 RMK T02700230 IEM_DS3505
ZGGG,2006-09-03 15:00,ZGGG 031500Z AUTO 07004KT 7SM 28/24 A2971 RMK SLP070 T02820240 52007 IEM_DS3505
ZGGG,2006-09-03 16:00,ZGGG 031600Z AUTO 08004KT 3SM 27/23 A2971 RMK T02700230 IEM_DS3505
ZGGG,2006-09-03 17:00,ZGGG 031700Z AUTO 07004KT 3SM 27/23 A2971 RMK T02700230 IEM_DS3505
ZGGG,2006-09-03 18:00,ZGGG 031800Z AUTO 14004KT 6SM 28/24 A2971 RMK SLP062 T02760240 57008 IEM_DS3505
ZGGG,2006-09-03 19:00,ZGGG 031900Z AUTO 2 1/2SM 26/23 A2971 RMK T02600230 IEM_DS3505
ZGGG,2006-09-03 20:00,ZGGG 032000Z AUTO 06002KT 2 1/2SM 26/23 A2971 RMK T02600230 IEM_DS3505
ZGGG,2006-09-03 21:00,ZGGG 032100Z AUTO 07002KT 6SM 27/24 A2971 RMK 70007 SLP062 T02740238 54000 IEM_DS3505
ZGGG,2006-09-03 22:00,ZGGG 032200Z AUTO 2SM 26/23 A2971 RMK T02600230 IEM_DS3505
ZGGG,2006-09-03 23:00,ZGGG 032300Z AUTO 1 1/4SM 27/23 A2974 RMK T02700230 IEM_DS3505
ZGGG,2006-09-04 00:00,ZGGG 040000Z AUTO 07004KT 4SM 29/24 A2974 RMK 70007 SLP075 T02890242 52013 IEM_DS3505
ZGGG,2006-09-04 01:00,ZGGG 040100Z AUTO 10004KT 1 1/4SM 29/24 A2974 RMK T02900240 IEM_DS3505
ZGGG,2006-09-04 02:00,ZGGG 040200Z AUTO 2SM 31/24 A2974 RMK T03100240 IEM_DS3505
ZGGG,2006-09-04 03:00,ZGGG 040300Z AUTO 22002KT 4SM 30/25 A2974 RMK SLP076 T03020246 52001 IEM_DS3505
ZGGG,2006-09-04 04:00,ZGGG 040400Z AUTO 20002KT 3SM 33/23 A2971 RMK T03300230 IEM_DS3505
ZGGG,2006-09-04 05:00,ZGGG 040500Z AUTO 12004KT 3SM 33/23 A2968 RMK T03300230 IEM_DS3505
ZGGG,2006-09-04 06:00,ZGGG 040600Z AUTO 14006KT 2 1/2SM 33/25 A2965 RMK 60000 SLP051 T03310251 57025 IEM_DS3505
ZGGG,2006-09-04 07:00,ZGGG 040700Z AUTO 17006KT 2 1/2SM 33/24 A2965 RMK T03300240 IEM_DS3505
ZGGG,2006-09-04 08:00,ZGGG 040800Z AUTO 15010KT 3SM 32/25 A2962 RMK T03200250 IEM_DS3505
ZGGG,2006-09-04 09:00,ZGGG 040900Z AUTO 14002KT 4SM 30/24 A2962 RMK SLP043 T03030242 57008 IEM_DS3505
ZGGG,2006-09-04 10:00,ZGGG 041000Z AUTO 16008KT 3SM 31/24 A2965 RMK T03100240 IEM_DS3505
ZGGG,2006-09-04 11:00,ZGGG 041100Z AUTO 17004KT 3SM 30/25 A2968 RMK T03000250 IEM_DS3505
ZGGG,2006-09-04 12:00,ZGGG 041200Z AUTO 14002KT 7SM 29/24 A2968 RMK SLP059 T02940243 52016 IEM_DS3505
ZGGG,2006-09-04 13:00,ZGGG 041300Z AUTO 09004KT 3SM 29/25 A2971 RMK T02900250 IEM_DS3505
ZGGG,2006-09-04 14:00,ZGGG 041400Z AUTO 08002KT 2 1/2SM 28/25 A2971 RMK T02800250 IEM_DS3505
ZGGG,2006-09-04 15:00,ZGGG 041500Z AUTO 18002KT 9SM 29/24 A2974 RMK SLP074 T02890242 52015 IEM_DS3505
ZGGG,2006-09-04 16:00,ZGGG 041600Z AUTO 00000KT 2 1/2SM 28/25 A2974 RMK T02800250 IEM_DS3505
ZGGG,2006-09-04 17:00,ZGGG 041700Z AUTO 10004KT 3SM 28/25 A2974 RMK T02800250 IEM_DS3505
ZGGG,2006-09-04 18:00,ZGGG 041800Z AUTO 14002KT 8SM 28/25 A2971 RMK SLP069 T02830247 57005 IEM_DS3505
ZGGG,2006-09-04 19:00,ZGGG 041900Z AUTO 14002KT 2 1/2SM 27/25 A2971 RMK T02700250 IEM_DS3505
ZGGG,2006-09-04 20:00,ZGGG 042000Z AUTO 10002KT 3SM 28/25 A2971 RMK T02800250 IEM_DS3505
ZGGG,2006-09-04 21:00,ZGGG 042100Z AUTO 22002KT 8SM 28/24 A2971 RMK 70000 SLP069 T02800242 54000 IEM_DS3505
ZGGG,2006-09-04 22:00,ZGGG 042200Z AUTO 2SM 27/25 A2971 RMK T02700250 IEM_DS3505
ZGGG,2006-09-04 23:00,ZGGG 042300Z AUTO 00000KT 2 1/2SM 27/25 A2974 RMK T02700250 IEM_DS3505
ZGGG,2006-09-05 00:00,ZGGG 050000Z AUTO 25002KT 8SM 29/24 A2977 RMK 70000 SLP084 T02890245 52015 IEM_DS3505
ZGGG,2006-09-05 01:00,ZGGG 050100Z AUTO 20006KT 3SM 30/25 A2977 RMK T03000250 IEM_DS3505
ZGGG,2006-09-05 02:00,ZGGG 050200Z AUTO 22008KT 4SM 31/24 A2977 RMK T03100240 IEM_DS3505
ZGGG,2006-09-05 03:00,ZGGG 050300Z AUTO 27004KT 7SM 31/24 A2974 RMK SLP082 T03080245 57002 IEM_DS3505
ZGGG,2006-09-05 04:00,ZGGG 050400Z AUTO 20006KT 5SM 34/23 A2974 RMK T03400230 IEM_DS3505
ZGGG,2006-09-05 05:00,ZGGG 050500Z AUTO 24006KT 6SM 34/23 A2971 RMK T03400230 IEM_DS3505
ZGGG,2006-09-05 06:00,ZGGG 050600Z AUTO 27004KT 8SM 34/23 A2968 RMK SLP056 T03350232 57026 IEM_DS3505
ZGGG,2006-09-05 07:00,ZGGG 050700Z AUTO 23006KT 5SM 35/22 A2965 RMK T03500220 IEM_DS3505
ZGGG,2006-09-05 08:00,ZGGG 050800Z AUTO 17010KT 4SM 33/25 A2965 RMK T03300250 IEM_DS3505
ZGGG,2006-09-05 09:00,ZGGG 050900Z AUTO 04004KT 5SM 27/25 A2965 RMK SLP050 T02740248 57006 IEM_DS3505
ZGGG,2006-09-05 10:00,ZGGG 051000Z AUTO 11006KT 3SM 29/24 A2968 RMK T02900240 IEM_DS3505
ZGGG,2006-09-05 11:00,ZGGG 051100Z AUTO 12004KT 3SM 28/24 A2971 RMK T02800240 IEM_DS3505
ZGGG,2006-09-05 12:00,ZGGG 051200Z AUTO 04002KT 6SM 27/25 A2971 RMK 60031 SLP072 T02710246 52021 IEM_DS3505
ZGGG,2006-09-05 13:00,ZGGG 051300Z AUTO 27014KT 4SM 27/22 A2977 RMK T02700220 IEM_DS3505
ZGGG,2006-09-05 14:00,ZGGG 051400Z AUTO 04008KT 3SM 25/23 A2977 RMK T02500230 IEM_DS3505
ZGGG,2006-09-05 15:00,ZGGG 051500Z AUTO 22002KT 5SM 26/23 A2980 RMK SLP092 T02600233 52020 IEM_DS3505
ZGGG,2006-09-05 16:00,ZGGG 051600Z AUTO 2 1/2SM 26/23 A2977 RMK T02600230 IEM_DS3505
ZGGG,2006-09-05 17:00,ZGGG 051700Z AUTO 24006KT 2SM 26/24 A2977 RMK T02600240 IEM_DS3505
ZGGG,2006-09-05 18:00,ZGGG 051800Z AUTO 00000KT 4SM 25/24 A2974 RMK 60008 SLP080 T02540238 57011 IEM_DS3505
ZGGG,2006-09-05 19:00,ZGGG 051900Z AUTO 26004KT 2SM 26/24 A2974 RMK T02600240 IEM_DS3505
ZGGG,2006-09-05 20:00,ZGGG 052000Z AUTO 2SM 26/23 A2974 RMK T02600230 IEM_DS3505
ZGGG,2006-09-05 21:00,ZGGG 052100Z AUTO 32002KT 2 1/2SM 26/24 A2974 RMK 70039 SLP079 T02560237 57002 IEM_DS3505
ZGGG,2006-09-05 22:00,ZGGG 052200Z AUTO 1 1/4SM 26/24 A2974 RMK T02600240 IEM_DS3505
ZGGG,2006-09-05 23:00,ZGGG 052300Z AUTO 33004KT 1 1/2SM 26/23 A2977 RMK T02600230 IEM_DS3505
ZGGG,2006-09-06 00:00,ZGGG 060000Z AUTO 36002KT 1SM 26/24 A2977 RMK 70039 SLP090 T02640241 52011 IEM_DS3505
ZGGG,2006-09-06 01:00,ZGGG 060100Z AUTO 03004KT 4SM 28/23 A2977 RMK T02800230 IEM_DS3505
ZGGG,2006-09-06 02:00,ZGGG 060200Z AUTO 30004KT 4SM 30/23 A2977 RMK T03000230 IEM_DS3505
ZGGG,2006-09-06 03:00,ZGGG 060300Z AUTO 32004KT 7SM 30/24 A2977 RMK SLP090 T03040238 54000 IEM_DS3505
ZGGG,2006-09-06 04:00,ZGGG 060400Z AUTO 34004KT 5SM 31/22 A2977 RMK T03100220 IEM_DS3505
ZGGG,2006-09-06 05:00,ZGGG 060500Z AUTO 36004KT 6SM 32/22 A2974 RMK T03200220 IEM_DS3505
ZGGG,2006-09-06 06:00,ZGGG 060600Z AUTO 32002KT 7SM 32/24 A2971 RMK SLP069 T03180244 57020 IEM_DS3505
ZGGG,2006-09-06 07:00,ZGGG 060700Z AUTO 31004KT 6SM 33/23 A2971 RMK T03300230 IEM_DS3505
ZGGG,2006-09-06 08:00,ZGGG 060800Z AUTO 28006KT 7SM 33/22 A2968 RMK T03300220 IEM_DS3505
ZGGG,2006-09-06 09:00,ZGGG 060900Z AUTO 29004KT 7SM 32/23 A2968 RMK SLP057 T03240231 57012 IEM_DS3505
ZGGG,2006-09-06 10:00,ZGGG 061000Z AUTO 4SM 32/23 A2971 RMK T03200230 IEM_DS3505
ZGGG,2006-09-06 11:00,ZGGG 061100Z AUTO 28006KT 6SM 31/22 A2971 RMK T03100220 IEM_DS3505
ZGGG,2006-09-06 12:00,ZGGG 061200Z AUTO 27002KT 8SM 30/23 A2971 RMK SLP072 T02970232 52014 IEM_DS3505
ZGGG,2006-09-06 13:00,ZGGG 061300Z AUTO 21004KT 3SM 29/24 A2974 RMK T02900240 IEM_DS3505
ZGGG,2006-09-06 14:00,ZGGG 061400Z AUTO 22004KT 2 1/2SM 29/24 A2977 RMK T02900240 IEM_DS3505
ZGGG,2006-09-06 15:00,ZGGG 061500Z AUTO 14002KT 6SM 28/23 A2977 RMK SLP086 T02840231 52015 IEM_DS3505
ZGGG,2006-09-06 16:00,ZGGG 061600Z AUTO 13004KT 2 1/2SM 28/24 A2977 RMK T02800240 IEM_DS3505
ZGGG,2006-09-06 17:00,ZGGG 061700Z AUTO 2 1/2SM 28/24 A2974 RMK T02800240 IEM_DS3505
ZGGG,2006-09-06 18:00,ZGGG 061800Z AUTO 07002KT 5SM 27/24 A2974 RMK SLP081 T02730240 57005 IEM_DS3505
ZGGG,2006-09-06 19:00,ZGGG 061900Z AUTO 2 1/2SM 27/24 A2974 RMK T02700240 IEM_DS3505
ZGGG,2006-09-06 20:00,ZGGG 062000Z AUTO 07002KT 2SM 27/24 A2974 RMK T02700240 IEM_DS3505
ZGGG,2006-09-06 21:00,ZGGG 062100Z AUTO 07002KT 5SM 27/24 A2974 RMK SLP076 T02690244 57005 IEM_DS3505
ZGGG,2006-09-06 22:00,ZGGG 062200Z AUTO 1 1/2SM 27/24 A2974 RMK T02700240 IEM_DS3505
ZGGG,2006-09-06 23:00,ZGGG 062300Z AUTO 10004KT 1 1/2SM 27/24 A2977 RMK T02700240 IEM_DS3505
ZGGG,2006-09-07 00:00,ZGGG 070000Z AUTO 07002KT 1 1/4SM 28/25 A2980 RMK SLP094 T02790247 52017 IEM_DS3505
ZGGG,2006-09-07 01:00,ZGGG 070100Z AUTO 2SM 29/24 A2980 RMK T02900240 IEM_DS3505
ZGGG,2006-09-07 02:00,ZGGG 070200Z AUTO 09004KT 2SM 30/24 A2980 RMK T03000240 IEM_DS3505
ZGGG,2006-09-07 03:00,ZGGG 070300Z AUTO 16006KT 2 1/2SM 31/25 A2977 RMK SLP089 T03120246 57004 IEM_DS3505
ZGGG,2006-09-07 04:00,ZGGG 070400Z AUTO 27004KT 3SM 25/23 A2977 RMK T02500230 IEM_DS3505
ZGGG,2006-09-07 05:00,ZGGG 070500Z AUTO 12004KT 3SM 27/23 A2974 RMK T02700230 IEM_DS3505
ZGGG,2006-09-07 06:00,ZGGG 070600Z AUTO 14004KT 4SM 27/24 A2971 RMK 60173 SLP075 T02680245 57015 IEM_DS3505
ZGGG,2006-09-07 07:00,ZGGG 070700Z AUTO 14004KT 2 1/2SM 27/24 A2971 RMK T02700240 IEM_DS3505
ZGGG,2006-09-07 08:00,ZGGG 070800Z AUTO 2SM 28/24 A2968 RMK T02800240 IEM_DS3505
ZGGG,2006-09-07 09:00,ZGGG 070900Z AUTO 09004KT 4SM 29/24 A2968 RMK SLP058 T02870245 57017 IEM_DS3505
ZGGG,2006-09-07 10:00,ZGGG 071000Z AUTO 07004KT 2 1/2SM 27/23 A2968 RMK T02700230 IEM_DS3505
ZGGG,2006-09-07 11:00,ZGGG 071100Z AUTO 09004KT 3SM 27/23 A2971 RMK T02700230 IEM_DS3505
ZGGG,2006-09-07 12:00,ZGGG 071200Z AUTO 14002KT 5SM 27/24 A2971 RMK SLP070 T02720241 52012 IEM_DS3505
ZGGG,2006-09-07 13:00,ZGGG 071300Z AUTO 2 1/2SM 26/23 A2974 RMK T02600230 IEM_DS3505
ZGGG,2006-09-07 14:00,ZGGG 071400Z AUTO 05004KT 2 1/2SM 26/24 A2977 RMK T02600240 IEM_DS3505
ZGGG,2006-09-07 15:00,ZGGG 071500Z AUTO 07002KT 4SM 26/24 A2977 RMK SLP089 T02640243 52020 IEM_DS3505
ZGGG,2006-09-07 16:00,ZGGG 071600Z AUTO 2SM 26/24 A2977 RMK T02600240 IEM_DS3505
ZGGG,2006-09-07 17:00,ZGGG 071700Z AUTO 08004KT 2SM 26/23 A2977 RMK T02600230 IEM_DS3505
ZGGG,2006-09-07 18:00,ZGGG 071800Z AUTO 07002KT 4SM 27/25 A2977 RMK SLP086 T02670249 57004 IEM_DS3505
ZGGG,2006-09-07 19:00,ZGGG 071900Z AUTO 1 1/2SM 26/24 A2974 RMK T02600240 IEM_DS3505
ZGGG,2006-09-07 20:00,ZGGG 072000Z AUTO 08004KT 1 1/2SM 26/24 A2977 RMK T02600240 IEM_DS3505
ZGGG,2006-09-07 21:00,ZGGG 072100Z AUTO 04002KT 3SM 26/24 A2974 RMK 70173 SLP081 T02640244 57005 IEM_DS3505
ZGGG,2006-09-07 22:00,ZGGG 072200Z AUTO 10002KT 1 1/4SM 25/24 A2977 RMK T02500240 IEM_DS3505
ZGGG,2006-09-07 23:00,ZGGG 072300Z AUTO 1SM 26/24 A2977 RMK T02600240 IEM_DS3505
ZGGG,2006-09-08 00:00,ZGGG 080000Z AUTO 07002KT 3SM 27/25 A2977 RMK 70173 SLP092 T02730248 52011 IEM_DS3505
ZGGG,2006-09-08 01:00,ZGGG 080100Z AUTO 08004KT 1 1/4SM 28/24 A2980 RMK T02800240 IEM_DS3505
ZGGG,2006-09-08 02:00,ZGGG 080200Z AUTO 07004KT 2SM 30/25 A2980 RMK T03000250 IEM_DS3505
ZGGG,2006-09-08 03:00,ZGGG 080300Z AUTO 11002KT 2SM 31/25 A2977 RMK SLP092 T03100251 54000 IEM_DS3505
ZGGG,2006-09-08 04:00,ZGGG 080400Z AUTO 14004KT 3SM 32/24 A2977 RMK T03200240 IEM_DS3505
ZGGG,2006-09-08 05:00,ZGGG 080500Z AUTO 17008KT 2 1/2SM 31/23 A2974 RMK T03100230 IEM_DS3505
ZGGG,2006-09-08 06:00,ZGGG 080600Z AUTO 14006KT 4SM 28/24 A2974 RMK 60012 SLP078 T02760244 57014 IEM_DS3505
ZGGG,2006-09-08 07:00,ZGGG 080700Z AUTO 15006KT 2 1/2SM 30/24 A2971 RMK T03000240 IEM_DS3505
ZGGG,2006-09-08 08:00,ZGGG 080800Z AUTO 15004KT 2 1/2SM 31/24 A2971 RMK T03100240 IEM_DS3505
ZGGG,2006-09-08 09:00,ZGGG 080900Z AUTO 14004KT 2 1/2SM 28/24 A2971 RMK SLP068 T02850243 57010 IEM_DS3505
ZGGG,2006-09-08 10:00,ZGGG 081000Z AUTO 2SM 29/24 A2971 RMK T02900240 IEM_DS3505
ZGGG,2006-09-08 11:00,ZGGG 081100Z AUTO 2SM 28/24 A2974 RMK T02800240 IEM_DS3505
ZGGG,2006-09-08 12:00,ZGGG 081200Z AUTO 09002KT 4SM 27/24 A2977 RMK 60000 SLP091 T02740243 52023 IEM_DS3505
ZGGG,2006-09-08 13:00,ZGGG 081300Z AUTO 06004KT 2SM 27/24 A2980 RMK T02700240 IEM_DS3505
ZGGG,2006-09-08 14:00,ZGGG 081400Z AUTO 1 1/2SM 27/24 A2980 RMK T02700240 IEM_DS3505
ZGGG,2006-09-08 15:00,ZGGG 081500Z AUTO 36002KT 2SM 27/25 A2983 RMK SLP104 T02690246 52013 IEM_DS3505
ZGGG,2006-09-08 16:00,ZGGG 081600Z AUTO 07004KT 1SM 27/24 A2983 RMK T02700240 IEM_DS3505
ZGGG,2006-09-08 17:00,ZGGG 081700Z AUTO 00000KT 1 1/4SM 27/24 A2980 RMK T02700240 IEM_DS3505
ZGGG,2006-09-08 18:00,ZGGG 081800Z AUTO 36002KT 2SM 27/25 A2980 RMK SLP098 T02660246 57006 IEM_DS3505
ZGGG,2006-09-08 19:00,ZGGG 081900Z AUTO 00000KT 1 1/4SM 27/24 A2980 RMK T02700240 IEM_DS3505
ZGGG,2006-09-08 20:00,ZGGG 082000Z AUTO 12002KT 1 1/4SM 27/24 A2977 RMK T02700240 IEM_DS3505
ZGGG,2006-09-08 21:00,ZGGG 082100Z AUTO 02004KT 2SM 26/24 A2977 RMK 70040 SLP091 T02570239 57007 IEM_DS3505
ZGGG,2006-09-08 22:00,ZGGG 082200Z AUTO 36004KT 1SM 25/24 A2980 RMK T02500240 IEM_DS3505
ZGGG,2006-09-08 23:00,ZGGG 082300Z AUTO 00000KT 1 1/4SM 25/23 A2980 RMK T02500230 IEM_DS3505
ZGGG,2006-09-09 00:00,ZGGG 090000Z AUTO 34002KT 3SM 25/23 A2983 RMK 60181 70194 SLP105 T02470233 52014 IEM_DS3505
ZGGG,2006-09-09 01:00,ZGGG 090100Z AUTO 33012KT 4SM 26/23 A2985 RMK T02600230 IEM_DS3505
ZGGG,2006-09-09 02:00,ZGGG 090200Z AUTO 34008KT 6SM 26/23 A2985 RMK T02600230 IEM_DS3505
ZGGG,2006-09-09 03:00,ZGGG 090300Z AUTO 36004KT 4SM 25/23 A2985 RMK SLP115 T02530234 52010 IEM_DS3505
ZGGG,2006-09-09 04:00,ZGGG 090400Z AUTO 35012KT 7SM 27/22 A2985 RMK T02700220 IEM_DS3505
ZGGG,2006-09-09 05:00,ZGGG 090500Z AUTO 34012KT 7SM 28/21 A2985 RMK T02800210 IEM_DS3505
ZGGG,2006-09-09 06:00,ZGGG 090600Z AUTO 34004KT 9SM 28/22 A2983 RMK 60024 SLP102 T02780221 57013 IEM_DS3505
ZGGG,2006-09-09 07:00,ZGGG 090700Z AUTO 36012KT 7SM 27/20 A2983 RMK T02700200 IEM_DS3505
ZGGG,2006-09-09 08:00,ZGGG 090800Z AUTO 34010KT 7SM 27/20 A2983 RMK T02700200 IEM_DS3505
ZGGG,2006-09-09 09:00,ZGGG 090900Z AUTO 02006KT 14SM 26/20 A2983 RMK SLP105 T02550201 52003 IEM_DS3505
ZGGG,2006-09-09 10:00,ZGGG 091000Z AUTO 36010KT 7SM 25/19 A2985 RMK T02500190 IEM_DS3505
ZGGG,2006-09-09 11:00,ZGGG 091100Z AUTO 01008KT 7SM 25/19 A2985 RMK T02500190 IEM_DS3505
ZGGG,2006-09-09 12:00,ZGGG 091200Z AUTO 36006KT 11SM 24/20 A2988 RMK 60000 SLP123 T02360197 52018 IEM_DS3505
ZGGG,2006-09-09 13:00,ZGGG 091300Z AUTO 02012KT 7SM 24/18 A2991 RMK T02400180 IEM_DS3505
ZGGG,2006-09-09 14:00,ZGGG 091400Z AUTO 02016KT 7SM 24/18 A2994 RMK T02400180 IEM_DS3505
ZGGG,2006-09-09 15:00,ZGGG 091500Z AUTO 02006KT 10SM 24/18 A2994 RMK SLP144 T02400180 52021 IEM_DS3505
ZGGG,2006-09-09 16:00,ZGGG 091600Z AUTO 01012KT 7SM 24/17 A2994 RMK T02400170 IEM_DS3505
ZGGG,2006-09-09 17:00,ZGGG 091700Z AUTO 01014KT 7SM 23/17 A2994 RMK T02300170 IEM_DS3505
ZGGG,2006-09-09 18:00,ZGGG 091800Z AUTO 36004G23KT 9SM 23/17 A2991 RMK 60000 SLP138 T02280170 57006 IEM_DS3505
ZGGG,2006-09-09 19:00,ZGGG 091900Z AUTO 02012KT 7SM 23/16 A2991 RMK T02300160 IEM_DS3505
ZGGG,2006-09-09 20:00,ZGGG 092000Z AUTO 01016KT 7SM 23/15 A2991 RMK T02300150 IEM_DS3505
ZGGG,2006-09-09 21:00,ZGGG 092100Z AUTO 02006KT 7SM 22/16 A2991 RMK 70177 SLP134 T02210164 57005 IEM_DS3505
ZGGG,2006-09-09 22:00,ZGGG 092200Z AUTO 01014KT 7SM 21/15 A2991 RMK T02100150 IEM_DS3505
ZGGG,2006-09-09 23:00,ZGGG 092300Z AUTO 01016KT 7SM 22/14 A2991 RMK T02200140 IEM_DS3505
ZGGG,2006-09-10 00:00,ZGGG 100000Z AUTO 36004KT 6SM 20/16 A2994 RMK 60000 70023 SLP147 T02020160 52013 IEM_DS3505
ZGGG,2006-09-10 01:00,ZGGG 100100Z AUTO 36008KT 4SM 20/16 A2997 RMK T02000160 IEM_DS3505
ZGGG,2006-09-10 02:00,ZGGG 100200Z AUTO 01010KT 5SM 21/15 A2997 RMK T02100150 IEM_DS3505
ZGGG,2006-09-10 03:00,ZGGG 100300Z AUTO 34006KT 8SM 22/16 A2994 RMK SLP152 T02160157 52005 IEM_DS3505
ZGGG,2006-09-10 04:00,ZGGG 100400Z AUTO 36010KT 6SM 23/15 A2994 RMK T02300150 IEM_DS3505
ZGGG,2006-09-10 05:00,ZGGG 100500Z AUTO 36012G21KT 5SM 24/16 A2991 RMK T02400160 IEM_DS3505
ZGGG,2006-09-10 06:00,ZGGG 100600Z AUTO 36004KT 11SM 25/16 A2988 RMK 60000 SLP129 T02500164 57022 IEM_DS3505
ZGGG,2006-09-10 07:00,ZGGG 100700Z AUTO 02012KT 7SM 25/15 A2988 RMK T02500150 IEM_DS3505
ZGGG,2006-09-10 08:00,ZGGG 100800Z AUTO 02010KT 7SM 25/16 A2988 RMK T02500160 IEM_DS3505
ZGGG,2006-09-10 09:00,ZGGG 100900Z AUTO 36004KT 11SM 25/17 A2988 RMK SLP119 T02460166 57011 IEM_DS3505
ZGGG,2006-09-10 10:00,ZGGG 101000Z AUTO 02016KT 7SM 23/14 A2988 RMK T02300140 IEM_DS3505
ZGGG,2006-09-10 11:00,ZGGG 101100Z AUTO 02008KT 7SM 23/15 A2988 RMK T02300150 IEM_DS3505
ZGGG,2006-09-10 12:00,ZGGG 101200Z AUTO 36004KT 11SM 23/16 A2988 RMK SLP127 T02290155 52008 IEM_DS3505
ZGGG,2006-09-10 13:00,ZGGG 101300Z AUTO 02006KT 7SM 22/15 A2991 RMK T02200150 IEM_DS3505
ZGGG,2006-09-10 14:00,ZGGG 101400Z AUTO 02006KT 7SM 22/15 A2991 RMK T02200150 IEM_DS3505
ZGGG,2006-09-10 15:00,ZGGG 101500Z AUTO 02006KT 12SM 22/15 A2991 RMK SLP131 T02200151 52004 IEM_DS3505
ZGGG,2006-09-10 16:00,ZGGG 101600Z AUTO 02008KT 6SM 22/15 A2988 RMK T02200150 IEM_DS3505
ZGGG,2006-09-10 17:00,ZGGG 101700Z AUTO 02008KT 6SM 22/15 A2988 RMK T02200150 IEM_DS3505
ZGGG,2006-09-10 18:00,ZGGG 101800Z AUTO 36004KT 11SM 21/15 A2985 RMK SLP113 T02120146 57018 IEM_DS3505
ZGGG,2006-09-10 19:00,ZGGG 101900Z AUTO 01014KT 6SM 21/14 A2983 RMK T02100140 IEM_DS3505
ZGGG,2006-09-10 20:00,ZGGG 102000Z AUTO 35008KT 6SM 21/14 A2983 RMK T02100140 IEM_DS3505
ZGGG,2006-09-10 21:00,ZGGG 102100Z AUTO 34002KT 10SM 20/15 A2983 RMK 70001 SLP109 T02040147 57004 IEM_DS3505
ZGGG,2006-09-10 22:00,ZGGG 102200Z AUTO 01008KT 7SM 21/14 A2985 RMK T02100140 IEM_DS3505
ZGGG,2006-09-10 23:00,ZGGG 102300Z AUTO 36008KT 5SM 21/15 A2985 RMK T02100150 IEM_DS3505
ZGGG,2006-09-11 00:00,ZGGG 110000Z AUTO 36006KT 9SM 23/15 A2985 RMK 70001 SLP119 T02310147 52010 IEM_DS3505
ZGGG,2006-09-11 01:00,ZGGG 110100Z AUTO 01010KT 7SM 24/15 A2985 RMK T02400150 IEM_DS3505
ZGGG,2006-09-11 02:00,ZGGG 110200Z AUTO 02014KT 7SM 24/15 A2988 RMK T02400150 IEM_DS3505
ZGGG,2006-09-11 03:00,ZGGG 110300Z AUTO 02006KT 11SM 24/15 A2985 RMK SLP122 T02430152 52003 IEM_DS3505
ZGGG,2006-09-11 04:00,ZGGG 110400Z AUTO 02010KT 7SM 26/15 A2985 RMK T02600150 IEM_DS3505
ZGGG,2006-09-11 05:00,ZGGG 110500Z AUTO 01014KT 7SM 28/15 A2983 RMK T02800150 IEM_DS3505
ZGGG,2006-09-11 06:00,ZGGG 110600Z AUTO 36008KT 12SM 28/17 A2980 RMK SLP097 T02840170 57024 IEM_DS3505
ZGGG,2006-09-11 07:00,ZGGG 110700Z AUTO 02012KT 7SM 28/16 A2980 RMK T02800160 IEM_DS3505
ZGGG,2006-09-11 08:00,ZGGG 110800Z AUTO 02012KT 7SM 27/16 A2977 RMK T02700160 IEM_DS3505
ZGGG,2006-09-11 09:00,ZGGG 110900Z AUTO 36008KT 12SM 26/16 A2980 RMK SLP093 T02630163 57004 IEM_DS3505
ZGGG,2006-09-11 10:00,ZGGG 111000Z AUTO 02010KT 7SM 25/16 A2980 RMK T02500160 IEM_DS3505
ZGGG,2006-09-11 11:00,ZGGG 111100Z AUTO 02008KT 7SM 25/16 A2983 RMK T02500160 IEM_DS3505
ZGGG,2006-09-11 12:00,ZGGG 111200Z AUTO 02006KT 11SM 24/16 A2983 RMK SLP108 T02400158 52015 IEM_DS3505
ZGGG,2006-09-11 13:00,ZGGG 111300Z AUTO 01012KT 7SM 24/15 A2985 RMK T02400150 IEM_DS3505
ZGGG,2006-09-11 14:00,ZGGG 111400Z AUTO 01014KT 7SM 23/15 A2985 RMK T02300150 IEM_DS3505
ZGGG,2006-09-11 15:00,ZGGG 111500Z AUTO 36006KT 11SM 23/15 A2985 RMK SLP117 T02280154 52009 IEM_DS3505
ZGGG,2006-09-11 16:00,ZGGG 111600Z AUTO 01008KT 7SM 21/16 A2985 RMK T02100160 IEM_DS3505
ZGGG,2006-09-11 17:00,ZGGG 111700Z AUTO 02012KT 7SM 22/16 A2985 RMK T02200160 IEM_DS3505
ZGGG,2006-09-11 18:00,ZGGG 111800Z AUTO 34004KT 7SM 21/17 A2985 RMK 60000 SLP113 T02060172 57004 IEM_DS3505
ZGGG,2006-09-11 19:00,ZGGG 111900Z AUTO 01010KT 7SM 22/16 A2983 RMK T02200160 IEM_DS3505
ZGGG,2006-09-11 20:00,ZGGG 112000Z AUTO 35010KT 4SM 20/17 A2985 RMK T02000170 IEM_DS3505
ZGGG,2006-09-11 21:00,ZGGG 112100Z AUTO 34004KT 7SM 20/17 A2985 RMK 70000 SLP110 T02050171 57003 IEM_DS3505
ZGGG,2006-09-11 22:00,ZGGG 112200Z AUTO 35008KT 7SM 21/17 A2985 RMK T02100170 IEM_DS3505
ZGGG,2006-09-11 23:00,ZGGG 112300Z AUTO 34006KT 7SM 21/16 A2985 RMK T02100160 IEM_DS3505
ZGGG,2006-09-12 00:00,ZGGG 120000Z AUTO 36004KT 11SM 22/17 A2985 RMK 60000 70000 SLP119 T02180167 52008 IEM_DS3505
ZGGG,2006-09-12 01:00,ZGGG 120100Z AUTO 01010KT 5SM 21/18 A2988 RMK T02100180 IEM_DS3505
ZGGG,2006-09-12 02:00,ZGGG 120200Z AUTO 36012KT 5SM 21/17 A2988 RMK T02100170 IEM_DS3505
ZGGG,2006-09-12 03:00,ZGGG 120300Z AUTO 34004KT 11SM 23/18 A2988 RMK SLP125 T02290176 52006 IEM_DS3505
ZGGG,2006-09-12 04:00,ZGGG 120400Z AUTO 02012G21KT 5SM 22/17 A2988 RMK T02200170 IEM_DS3505
ZGGG,2006-09-12 05:00,ZGGG 120500Z AUTO 01012KT 7SM 21/18 A2985 RMK T02100180 IEM_DS3505
ZGGG,2006-09-12 06:00,ZGGG 120600Z AUTO 36006KT 10SM 21/19 A2985 RMK 60004 SLP111 T02120188 57014 IEM_DS3505
ZGGG,2006-09-12 07:00,ZGGG 120700Z AUTO 36010KT 7SM 22/18 A2983 RMK T02200180 IEM_DS3505
ZGGG,2006-09-12 08:00,ZGGG 120800Z AUTO 01008KT 7SM 22/18 A2983 RMK T02200180 IEM_DS3505
ZGGG,2006-09-12 09:00,ZGGG 120900Z AUTO 36004KT 13SM 22/18 A2983 RMK SLP109 T02220178 57002 IEM_DS3505
ZGGG,2006-09-12 10:00,ZGGG 121000Z AUTO 02014KT 7SM 22/17 A2985 RMK T02200170 IEM_DS3505
ZGGG,2006-09-12 11:00,ZGGG 121100Z AUTO 02012KT 7SM 22/17 A2985 RMK T02200170 IEM_DS3505
ZGGG,2006-09-12 12:00,ZGGG 121200Z AUTO 36006KT 11SM 22/18 A2985 RMK 60000 SLP121 T02160176 52012 IEM_DS3505
ZGGG,2006-09-12 13:00,ZGGG 121300Z AUTO 01012KT 7SM 22/17 A2988 RMK T02200170 IEM_DS3505
ZGGG,2006-09-12 14:00,ZGGG 121400Z AUTO 02014KT 7SM 22/17 A2988 RMK T02200170 IEM_DS3505
ZGGG,2006-09-12 15:00,ZGGG 121500Z AUTO 36004KT 11SM 21/17 A2991 RMK SLP134 T02140174 52013 IEM_DS3505
ZGGG,2006-09-12 16:00,ZGGG 121600Z AUTO 01012KT 7SM 22/17 A2988 RMK T02200170 IEM_DS3505
ZGGG,2006-09-12 17:00,ZGGG 121700Z AUTO 01014KT 7SM 22/16 A2988 RMK T02200160 IEM_DS3505
ZGGG,2006-09-12 18:00,ZGGG 121800Z AUTO 02004KT 10SM 21/18 A2988 RMK 60000 SLP122 T02100176 57012 IEM_DS3505
ZGGG,2006-09-12 19:00,ZGGG 121900Z AUTO 01010KT 7SM 21/17 A2985 RMK T02100170 IEM_DS3505
ZGGG,2006-09-12 20:00,ZGGG 122000Z AUTO 01012KT 7SM 21/17 A2985 RMK T02100170 IEM_DS3505
ZGGG,2006-09-12 21:00,ZGGG 122100Z AUTO 16002KT 10SM 20/18 A2983 RMK 70031 SLP111 T02030181 57011 IEM_DS3505
ZGGG,2006-09-12 22:00,ZGGG 122200Z AUTO 02010KT 7SM 21/17 A2985 RMK T02100170 IEM_DS3505
ZGGG,2006-09-12 23:00,ZGGG 122300Z AUTO 02012KT 7SM 22/17 A2985 RMK T02200170 IEM_DS3505
ZGGG,2006-09-13 00:00,ZGGG 130000Z AUTO 02004KT 12SM 22/18 A2985 RMK 60028 70031 SLP118 T02200184 52007 IEM_DS3505
ZGGG,2006-09-13 01:00,ZGGG 130100Z AUTO 02012KT 7SM 23/17 A2988 RMK T02300170 IEM_DS3505
ZGGG,2006-09-13 02:00,ZGGG 130200Z AUTO 02014KT 7SM 24/18 A2988 RMK T02400180 IEM_DS3505
ZGGG,2006-09-13 03:00,ZGGG 130300Z AUTO 36002KT 9SM 22/20 A2988 RMK SLP130 T02180197 52012 IEM_DS3505
ZGGG,2006-09-13 04:00,ZGGG 130400Z AUTO 02010KT 4SM 22/18 A2988 RMK T02200180 IEM_DS3505
ZGGG,2006-09-13 05:00,ZGGG 130500Z AUTO 03010KT 6SM 22/19 A2985 RMK T02200190 IEM_DS3505
ZGGG,2006-09-13 06:00,ZGGG 130600Z AUTO 02002KT 9SM 22/20 A2985 RMK 60063 SLP110 T02200205 57020 IEM_DS3505
ZGGG,2006-09-13 07:00,ZGGG 130700Z AUTO 03008KT 5SM 22/19 A2983 RMK T02200190 IEM_DS3505
ZGGG,2006-09-13 08:00,ZGGG 130800Z AUTO 03008KT 7SM 22/19 A2983 RMK T02200190 IEM_DS3505
ZGGG,2006-09-13 09:00,ZGGG 130900Z AUTO 02006KT 9SM 22/20 A2983 RMK SLP105 T02220205 57005 IEM_DS3505
ZGGG,2006-09-13 10:00,ZGGG 131000Z AUTO 7SM 22/19 A2983 RMK T02200190 IEM_DS3505
ZGGG,2006-09-13 11:00,ZGGG 131100Z AUTO 05004KT 7SM 22/19 A2983 RMK T02200190 IEM_DS3505
ZGGG,2006-09-13 12:00,ZGGG 131200Z AUTO 02004KT 10SM 22/20 A2985 RMK 60031 SLP111 T02230202 52006 IEM_DS3505
ZGGG,2006-09-13 13:00,ZGGG 131300Z AUTO 05002KT 7SM 21/19 A2985 RMK T02100190 IEM_DS3505
ZGGG,2006-09-13 14:00,ZGGG 131400Z AUTO 07004KT 7SM 22/19 A2988 RMK T02200190 IEM_DS3505
ZGGG,2006-09-13 15:00,ZGGG 131500Z AUTO 36002KT 10SM 22/21 A2988 RMK SLP121 T02220207 52010 IEM_DS3505
ZGGG,2006-09-13 16:00,ZGGG 131600Z AUTO 00000KT 7SM 22/19 A2988 RMK T02200190 IEM_DS3505
ZGGG,2006-09-13 17:00,ZGGG 131700Z AUTO 05002KT 7SM 22/19 A2985 RMK T02200190 IEM_DS3505
ZGGG,2006-09-13 18:00,ZGGG 131800Z AUTO 36004KT 10SM 22/21 A2985 RMK 60008 SLP111 T02220207 57010 IEM_DS3505
ZGGG,2006-09-13 19:00,ZGGG 131900Z AUTO 07004KT 5SM 22/19 A2983 RMK T02200190 IEM_DS3505
ZGGG,2006-09-13 20:00,ZGGG 132000Z AUTO 06004KT 4SM 22/19 A2983 RMK T02200190 IEM_DS3505
ZGGG,2006-09-13 21:00,ZGGG 132100Z AUTO 02004KT 4SM 22/21 A2985 RMK 70135 SLP114 T02190207 52003 IEM_DS3505
ZGGG,2006-09-13 22:00,ZGGG 132200Z AUTO 00000KT 2SM 21/19 A2985 RMK T02100190 IEM_DS3505
ZGGG,2006-09-13 23:00,ZGGG 132300Z AUTO 00000KT 2 1/2SM 21/19 A2985 RMK T02100190 IEM_DS3505
ZGGG,2006-09-14 00:00,ZGGG 140000Z AUTO 34002KT 10SM 22/21 A2988 RMK 60047 70151 SLP128 T02180206 52014 IEM_DS3505
ZGGG,2006-09-14 01:00,ZGGG 140100Z AUTO 2 1/2SM 22/20 A2988 RMK T02200200 IEM_DS3505
ZGGG,2006-09-14 02:00,ZGGG 140200Z AUTO 02004KT 5SM 23/20 A2991 RMK T02300200 IEM_DS3505
ZGGG,2006-09-14 03:00,ZGGG 140300Z AUTO 34004KT 9SM 24/22 A2988 RMK SLP129 T02440225 52001 IEM_DS3505
ZGGG,2006-09-14 04:00,ZGGG 140400Z AUTO 7SM 25/21 A2988 RMK T02500210 IEM_DS3505
ZGGG,2006-09-14 05:00,ZGGG 140500Z AUTO 36004KT 7SM 25/21 A2985 RMK T02500210 IEM_DS3505
ZGGG,2006-09-14 06:00,ZGGG 140600Z AUTO 36004KT 8SM 26/22 A2983 RMK 60016 SLP107 T02560221 57021 IEM_DS3505
ZGGG,2006-09-14 07:00,ZGGG 140700Z AUTO 01006KT 7SM 25/21 A2983 RMK T02500210 IEM_DS3505
ZGGG,2006-09-14 08:00,ZGGG 140800Z AUTO 35008KT 5SM 25/21 A2980 RMK T02500210 IEM_DS3505
ZGGG,2006-09-14 09:00,ZGGG 140900Z AUTO 36004KT 7SM 24/22 A2980 RMK SLP100 T02360219 57008 IEM_DS3505
ZGGG,2006-09-14 10:00,ZGGG 141000Z AUTO 01004KT 4SM 24/21 A2980 RMK T02400210 IEM_DS3505
ZGGG,2006-09-14 11:00,ZGGG 141100Z AUTO 35004KT 4SM 23/21 A2983 RMK T02300210 IEM_DS3505
ZGGG,2006-09-14 12:00,ZGGG 141200Z AUTO 34002KT 7SM 23/22 A2983 RMK 60012 SLP111 T02310215 52011 IEM_DS3505
ZGGG,2006-09-14 13:00,ZGGG 141300Z AUTO 00000KT 4SM 23/21 A2985 RMK T02300210 IEM_DS3505
ZGGG,2006-09-14 14:00,ZGGG 141400Z AUTO 06004KT 4SM 23/20 A2985 RMK T02300200 IEM_DS3505
ZGGG,2006-09-14 15:00,ZGGG 141500Z AUTO 00000KT 7SM 23/22 A2985 RMK SLP119 T02300215 52009 IEM_DS3505
ZGGG,2006-09-14 16:00,ZGGG 141600Z AUTO 06002KT 4SM 23/21 A2985 RMK T02300210 IEM_DS3505
ZGGG,2006-09-14 17:00,ZGGG 141700Z AUTO 00000KT 4SM 23/21 A2985 RMK T02300210 IEM_DS3505
ZGGG,2006-09-14 18:00,ZGGG 141800Z AUTO 29002KT 7SM 23/21 A2985 RMK SLP110 T02290214 57009 IEM_DS3505
ZGGG,2006-09-14 19:00,ZGGG 141900Z AUTO 00000KT 5SM 23/21 A2983 RMK T02300210 IEM_DS3505
ZGGG,2006-09-14 20:00,ZGGG 142000Z AUTO 00000KT 5SM 23/21 A2983 RMK T02300210 IEM_DS3505
ZGGG,2006-09-14 21:00,ZGGG 142100Z AUTO 36002KT 7SM 22/21 A2983 RMK 70043 SLP105 T02250211 57005 IEM_DS3505
ZGGG,2006-09-14 22:00,ZGGG 142200Z AUTO 00000KT 3SM 23/21 A2983 RMK T02300210 IEM_DS3505
ZGGG,2006-09-14 23:00,ZGGG 142300Z AUTO 00000KT 4SM 23/21 A2983 RMK T02300210 IEM_DS3505
ZGGG,2006-09-15 00:00,ZGGG 150000Z AUTO 32002KT 9SM 24/22 A2985 RMK 70027 SLP116 T02390218 52011 IEM_DS3505
ZGGG,2006-09-15 01:00,ZGGG 150100Z AUTO 4SM 25/21 A2988 RMK T02500210 IEM_DS3505
ZGGG,2006-09-15 02:00,ZGGG 150200Z AUTO 36004KT 5SM 26/21 A2988 RMK T02600210 IEM_DS3505
ZGGG,2006-09-15 03:00,ZGGG 150300Z AUTO 34002KT 10SM 29/23 A2985 RMK SLP115 T02910228 57001 IEM_DS3505
ZGGG,2006-09-15 04:00,ZGGG 150400Z AUTO 34006KT 7SM 28/21 A2985 RMK T02800210 IEM_DS3505
ZGGG,2006-09-15 05:00,ZGGG 150500Z AUTO 34006KT 6SM 29/21 A2983 RMK T02900210 IEM_DS3505
ZGGG,2006-09-15 06:00,ZGGG 150600Z AUTO 36004KT 10SM 31/23 A2980 RMK SLP092 T03110227 57023 IEM_DS3505
ZGGG,2006-09-15 07:00,ZGGG 150700Z AUTO 34010KT 7SM 30/21 A2977 RMK T03000210 IEM_DS3505
ZGGG,2006-09-15 08:00,ZGGG 150800Z AUTO 34010KT 7SM 30/21 A2977 RMK T03000210 IEM_DS3505
ZGGG,2006-09-15 09:00,ZGGG 150900Z AUTO 02006KT 9SM 29/22 A2977 RMK SLP085 T02930215 57007 IEM_DS3505
ZGGG,2006-09-15 10:00,ZGGG 151000Z AUTO 01008KT 5SM 28/21 A2977 RMK T02800210 IEM_DS3505
ZGGG,2006-09-15 11:00,ZGGG 151100Z AUTO 36008KT 4SM 27/21 A2980 RMK T02700210 IEM_DS3505
ZGGG,2006-09-15 12:00,ZGGG 151200Z AUTO 36004KT 9SM 26/21 A2983 RMK SLP103 T02620208 52018 IEM_DS3505
ZGGG,2006-09-15 13:00,ZGGG 151300Z AUTO 34008KT 4SM 26/20 A2983 RMK T02600200 IEM_DS3505
ZGGG,2006-09-15 14:00,ZGGG 151400Z AUTO 34008KT 5SM 25/20 A2985 RMK T02500200 IEM_DS3505
ZGGG,2006-09-15 15:00,ZGGG 151500Z AUTO 32002KT 7SM 25/21 A2985 RMK SLP117 T02490206 52014 IEM_DS3505
ZGGG,2006-09-15 16:00,ZGGG 151600Z AUTO 33006KT 6SM 25/20 A2985 RMK T02500200 IEM_DS3505
ZGGG,2006-09-15 17:00,ZGGG 151700Z AUTO 33008KT 6SM 25/20 A2985 RMK T02500200 IEM_DS3505
ZGGG,2006-09-15 18:00,ZGGG 151800Z AUTO 32002KT 9SM 24/20 A2985 RMK SLP115 T02380203 57002 IEM_DS3505
ZGGG,2006-09-15 19:00,ZGGG 151900Z AUTO 32006KT 6SM 24/19 A2983 RMK T02400190 IEM_DS3505
ZGGG,2006-09-15 20:00,ZGGG 152000Z AUTO 31006KT 6SM 24/19 A2983 RMK T02400190 IEM_DS3505
ZGGG,2006-09-15 21:00,ZGGG 152100Z AUTO 34004KT 8SM 24/20 A2983 RMK SLP108 T02350199 57007 IEM_DS3505
ZGGG,2006-09-15 22:00,ZGGG 152200Z AUTO 34006KT 6SM 23/19 A2983 RMK T02300190 IEM_DS3505
ZGGG,2006-09-15 23:00,ZGGG 152300Z AUTO 33006KT 4SM 24/19 A2985 RMK T02400190 IEM_DS3505
ZGGG,2006-09-16 00:00,ZGGG 160000Z AUTO 34004KT 7SM 25/20 A2985 RMK SLP120 T02490202 52012 IEM_DS3505
ZGGG,2006-09-16 01:00,ZGGG 160100Z AUTO 02008KT 7SM 27/19 A2988 RMK T02700190 IEM_DS3505
ZGGG,2006-09-16 02:00,ZGGG 160200Z AUTO 02010KT 7SM 28/19 A2985 RMK T02800190 IEM_DS3505
ZGGG,2006-09-16 03:00,ZGGG 160300Z AUTO 34006KT 9SM 29/20 A2985 RMK SLP118 T02880203 57002 IEM_DS3505
ZGGG,2006-09-16 04:00,ZGGG 160400Z AUTO 01010KT 7SM 30/20 A2985 RMK T03000200 IEM_DS3505
ZGGG,2006-09-16 05:00,ZGGG 160500Z AUTO 36010KT 7SM 30/20 A2983 RMK T03000200 IEM_DS3505
ZGGG,2006-09-16 06:00,ZGGG 160600Z AUTO 02004KT 10SM 29/20 A2983 RMK SLP102 T02930199 57016 IEM_DS3505
ZGGG,2006-09-16 07:00,ZGGG 160700Z AUTO 01012KT 7SM 29/19 A2980 RMK T02900190 IEM_DS3505
ZGGG,2006-09-16 08:00,ZGGG 160800Z AUTO 02008KT 7SM 29/19 A2980 RMK T02900190 IEM_DS3505
ZGGG,2006-09-16 09:00,ZGGG 160900Z AUTO 02004KT 9SM 29/20 A2980 RMK SLP098 T02890201 57004 IEM_DS3505
ZGGG,2006-09-16 10:00,ZGGG 161000Z AUTO 02010KT 7SM 27/19 A2983 RMK T02700190 IEM_DS3505
ZGGG,2006-09-16 11:00,ZGGG 161100Z AUTO 01006KT 7SM 27/19 A2983 RMK T02700190 IEM_DS3505
ZGGG,2006-09-16 12:00,ZGGG 161200Z AUTO 36006KT 8SM 26/19 A2985 RMK SLP113 T02630189 52015 IEM_DS3505
ZGGG,2006-09-16 13:00,ZGGG 161300Z AUTO 7SM 24/19 A2985 RMK T02400190 IEM_DS3505
ZGGG,2006-09-16 14:00,ZGGG 161400Z AUTO 36004KT 6SM 25/19 A2988 RMK T02500190 IEM_DS3505
ZGGG,2006-09-16 15:00,ZGGG 161500Z AUTO 36002KT 9SM 25/19 A2988 RMK SLP123 T02530187 52010 IEM_DS3505
ZGGG,2006-09-16 16:00,ZGGG 161600Z AUTO 33004KT 6SM 24/18 A2988 RMK T02400180 IEM_DS3505
ZGGG,2006-09-16 17:00,ZGGG 161700Z AUTO 33006KT 5SM 24/19 A2985 RMK T02400190 IEM_DS3505
ZGGG,2006-09-16 18:00,ZGGG 161800Z AUTO 34002KT 9SM 23/19 A2985 RMK SLP117 T02340193 57006 IEM_DS3505
ZGGG,2006-09-16 19:00,ZGGG 161900Z AUTO 34004KT 4SM 23/19 A2983 RMK T02300190 IEM_DS3505
ZGGG,2006-09-16 20:00,ZGGG 162000Z AUTO 05002KT 3SM 22/19 A2983 RMK T02200190 IEM_DS3505
ZGGG,2006-09-16 21:00,ZGGG 162100Z AUTO 36002KT 8SM 23/19 A2983 RMK SLP110 T02260188 57007 IEM_DS3505
ZGGG,2006-09-16 22:00,ZGGG 162200Z AUTO 36004KT 3SM 22/18 A2985 RMK T02200180 IEM_DS3505
ZGGG,2006-09-16 23:00,ZGGG 162300Z AUTO 36004KT 2SM 22/18 A2985 RMK T02200180 IEM_DS3505
ZGGG,2006-09-17 00:00,ZGGG 170000Z AUTO 36004KT 7SM 24/19 A2988 RMK SLP123 T02420186 52013 IEM_DS3505
ZGGG,2006-09-17 01:00,ZGGG 170100Z AUTO 02008KT 5SM 26/17 A2988 RMK T02600170 IEM_DS3505
ZGGG,2006-09-17 02:00,ZGGG 170200Z AUTO 02010KT 6SM 27/17 A2988 RMK T02700170 IEM_DS3505
ZGGG,2006-09-17 03:00,ZGGG 170300Z AUTO 36004KT 9SM 28/17 A2988 RMK SLP123 T02850174 54000 IEM_DS3505
ZGGG,2006-09-17 04:00,ZGGG 170400Z AUTO 36014KT 7SM 29/15 A2985 RMK T02900150 IEM_DS3505
ZGGG,2006-09-17 05:00,ZGGG 170500Z AUTO 01012G21KT 7SM 30/15 A2983 RMK T03000150 IEM_DS3505
ZGGG,2006-09-17 06:00,ZGGG 170600Z AUTO 36006KT 9SM 30/16 A2983 RMK SLP102 T03050161 57021 IEM_DS3505
ZGGG,2006-09-17 07:00,ZGGG 170700Z AUTO 02010KT 7SM 29/15 A2980 RMK T02900150 IEM_DS3505
ZGGG,2006-09-17 08:00,ZGGG 170800Z AUTO 02010KT 7SM 30/14 A2980 RMK T03000140 IEM_DS3505
ZGGG,2006-09-17 09:00,ZGGG 170900Z AUTO 02006KT 9SM 30/15 A2980 RMK SLP094 T02960150 57008 IEM_DS3505
ZGGG,2006-09-17 10:00,ZGGG 171000Z AUTO 02006KT 6SM 28/15 A2980 RMK T02800150 IEM_DS3505
ZGGG,2006-09-17 11:00,ZGGG 171100Z AUTO 03004KT 6SM 25/16 A2980 RMK T02500160 IEM_DS3505
ZGGG,2006-09-17 12:00,ZGGG 171200Z AUTO 02004KT 10SM 26/15 A2983 RMK SLP106 T02560150 52012 IEM_DS3505
ZGGG,2006-09-17 13:00,ZGGG 171300Z AUTO 5SM 24/18 A2985 RMK T02400180 IEM_DS3505
ZGGG,2006-09-17 14:00,ZGGG 171400Z AUTO 5SM 23/17 A2985 RMK T02300170 IEM_DS3505
ZGGG,2006-09-17 15:00,ZGGG 171500Z AUTO 34002KT 9SM 23/16 A2985 RMK SLP118 T02260162 52012 IEM_DS3505
ZGGG,2006-09-17 16:00,ZGGG 171600Z AUTO 5SM 22/16 A2985 RMK T02200160 IEM_DS3505
ZGGG,2006-09-17 17:00,ZGGG 171700Z AUTO 5SM 21/16 A2985 RMK T02100160 IEM_DS3505
ZGGG,2006-09-17 18:00,ZGGG 171800Z AUTO 27002KT 9SM 22/15 A2985 RMK SLP117 T02180154 57001 IEM_DS3505
ZGGG,2006-09-17 19:00,ZGGG 171900Z AUTO 02004KT 5SM 21/15 A2985 RMK T02100150 IEM_DS3505
ZGGG,2006-09-17 20:00,ZGGG 172000Z AUTO 6SM 21/15 A2985 RMK T02100150 IEM_DS3505
ZGGG,2006-09-17 21:00,ZGGG 172100Z AUTO 27002KT 8SM 20/15 A2985 RMK SLP117 T02040152 54000 IEM_DS3505
ZGGG,2006-09-17 22:00,ZGGG 172200Z AUTO 08002KT 4SM 19/16 A2985 RMK T01900160 IEM_DS3505
ZGGG,2006-09-17 23:00,ZGGG 172300Z AUTO 08002KT 4SM 21/16 A2988 RMK T02100160 IEM_DS3505
ZGGG,2006-09-18 00:00,ZGGG 180000Z AUTO 36002KT 8SM 24/16 A2988 RMK SLP131 T02440159 52014 IEM_DS3505
ZGGG,2006-09-18 01:00,ZGGG 180100Z AUTO 5SM 26/16 A2991 RMK T02600160 IEM_DS3505
ZGGG,2006-09-18 02:00,ZGGG 180200Z AUTO 06006KT 6SM 27/14 A2991 RMK T02700140 IEM_DS3505
ZGGG,2006-09-18 03:00,ZGGG 180300Z AUTO 02004KT 12SM 29/16 A2991 RMK SLP135 T02940155 52004 IEM_DS3505
ZGGG,2006-09-18 04:00,ZGGG 180400Z AUTO 6SM 30/14 A2991 RMK T03000140 IEM_DS3505
ZGGG,2006-09-18 05:00,ZGGG 180500Z AUTO 01004KT 7SM 31/15 A2988 RMK T03100150 IEM_DS3505
ZGGG,2006-09-18 06:00,ZGGG 180600Z AUTO 07002KT 13SM 31/16 A2985 RMK SLP114 T03110163 57021 IEM_DS3505
ZGGG,2006-09-18 07:00,ZGGG 180700Z AUTO 7SM 31/14 A2983 RMK T03100140 IEM_DS3505
ZGGG,2006-09-18 08:00,ZGGG 180800Z AUTO 04004KT 7SM 31/15 A2983 RMK T03100150 IEM_DS3505
ZGGG,2006-09-18 09:00,ZGGG 180900Z AUTO 04002KT 11SM 30/17 A2983 RMK SLP104 T03040168 57010 IEM_DS3505
ZGGG,2006-09-18 10:00,ZGGG 181000Z AUTO 36008KT 7SM 30/15 A2983 RMK T03000150 IEM_DS3505
ZGGG,2006-09-18 11:00,ZGGG 181100Z AUTO 35006KT 6SM 28/16 A2985 RMK T02800160 IEM_DS3505
ZGGG,2006-09-18 12:00,ZGGG 181200Z AUTO 36002KT 10SM 27/16 A2985 RMK SLP118 T02660165 52014 IEM_DS3505
ZGGG,2006-09-18 13:00,ZGGG 181300Z AUTO 4SM 25/18 A2988 RMK T02500180 IEM_DS3505
ZGGG,2006-09-18 14:00,ZGGG 181400Z AUTO 09002KT 4SM 25/18 A2988 RMK T02500180 IEM_DS3505
ZGGG,2006-09-18 15:00,ZGGG 181500Z AUTO 02002KT 9SM 24/17 A2988 RMK SLP125 T02440172 52007 IEM_DS3505
ZGGG,2006-09-18 16:00,ZGGG 181600Z AUTO 00000KT 4SM 23/17 A2988 RMK T02300170 IEM_DS3505
ZGGG,2006-09-18 17:00,ZGGG 181700Z AUTO 14002KT 4SM 24/18 A2988 RMK T02400180 IEM_DS3505
ZGGG,2006-09-18 18:00,ZGGG 181800Z AUTO 04002KT 9SM 24/17 A2988 RMK SLP126 T02420167 52001 IEM_DS3505
ZGGG,2006-09-18 19:00,ZGGG 181900Z AUTO 4SM 23/17 A2988 RMK T02300170 IEM_DS3505
ZGGG,2006-09-18 20:00,ZGGG 182000Z AUTO 08004KT 4SM 23/17 A2988 RMK T02300170 IEM_DS3505
ZGGG,2006-09-18 21:00,ZGGG 182100Z AUTO 04002KT 9SM 23/18 A2988 RMK SLP126 T02260179 54000 IEM_DS3505
ZGGG,2006-09-18 22:00,ZGGG 182200Z AUTO 06002KT 4SM 22/17 A2988 RMK T02200170 IEM_DS3505
ZGGG,2006-09-18 23:00,ZGGG 182300Z AUTO 00000KT 3SM 23/18 A2991 RMK T02300180 IEM_DS3505
ZGGG,2006-09-19 00:00,ZGGG 190000Z AUTO 36002KT 9SM 25/20 A2994 RMK SLP146 T02500198 52020 IEM_DS3505
ZGGG,2006-09-19 01:00,ZGGG 190100Z AUTO 4SM 26/17 A2994 RMK T02600170 IEM_DS3505
ZGGG,2006-09-19 02:00,ZGGG 190200Z AUTO 6SM 28/14 A2994 RMK T02800140 IEM_DS3505
ZGGG,2006-09-19 03:00,ZGGG 190300Z AUTO 36004KT 9SM 30/16 A2994 RMK SLP144 T02950160 57002 IEM_DS3505
ZGGG,2006-09-19 04:00,ZGGG 190400Z AUTO 6SM 30/13 A2991 RMK T03000130 IEM_DS3505
ZGGG,2006-09-19 05:00,ZGGG 190500Z AUTO 6SM 32/13 A2991 RMK T03200130 IEM_DS3505
ZGGG,2006-09-19 06:00,ZGGG 190600Z AUTO 07002KT 8SM 30/16 A2988 RMK SLP123 T03050165 57021 IEM_DS3505
ZGGG,2006-09-19 07:00,ZGGG 190700Z AUTO 10004KT 6SM 31/13 A2985 RMK T03100130 IEM_DS3505
ZGGG,2006-09-19 08:00,ZGGG 190800Z AUTO 6SM 31/12 A2985 RMK T03100120 IEM_DS3505
ZGGG,2006-09-19 09:00,ZGGG 190900Z AUTO 04002KT 8SM 31/14 A2983 RMK SLP112 T03060143 57011 IEM_DS3505
ZGGG,2006-09-19 10:00,ZGGG 191000Z AUTO 35008KT 6SM 30/11 A2985 RMK T03000110 IEM_DS3505
ZGGG,2006-09-19 11:00,ZGGG 191100Z AUTO 02004KT 4SM 27/14 A2985 RMK T02700140 IEM_DS3505
ZGGG,2006-09-19 12:00,ZGGG 191200Z AUTO 07002KT 8SM 25/18 A2988 RMK SLP128 T02540176 52016 IEM_DS3505
ZGGG,2006-09-19 13:00,ZGGG 191300Z AUTO 00000KT 4SM 25/17 A2991 RMK T02500170 IEM_DS3505
ZGGG,2006-09-19 14:00,ZGGG 191400Z AUTO 10002KT 3SM 23/18 A2991 RMK T02300180 IEM_DS3505
ZGGG,2006-09-19 15:00,ZGGG 191500Z AUTO 07002KT 9SM 24/18 A2988 RMK SLP135 T02360178 52007 IEM_DS3505
ZGGG,2006-09-19 16:00,ZGGG 191600Z AUTO 11002KT 3SM 22/18 A2988 RMK T02200180 IEM_DS3505
ZGGG,2006-09-19 17:00,ZGGG 191700Z AUTO 04002KT 3SM 22/19 A2988 RMK T02200190 IEM_DS3505
ZGGG,2006-09-19 18:00,ZGGG 191800Z AUTO 07002KT 7SM 23/18 A2988 RMK SLP124 T02310182 57011 IEM_DS3505
ZGGG,2006-09-19 19:00,ZGGG 191900Z AUTO 09004KT 2 1/2SM 22/17 A2985 RMK T02200170 IEM_DS3505
ZGGG,2006-09-19 20:00,ZGGG 192000Z AUTO 2 1/2SM 21/18 A2985 RMK T02100180 IEM_DS3505
ZGGG,2006-09-19 21:00,ZGGG 192100Z AUTO 07002KT 5SM 22/19 A2985 RMK SLP123 T02240194 57001 IEM_DS3505
ZGGG,2006-09-19 22:00,ZGGG 192200Z AUTO 09004KT 2 1/2SM 21/18 A2988 RMK T02100180 IEM_DS3505
ZGGG,2006-09-19 23:00,ZGGG 192300Z AUTO 2SM 21/18 A2991 RMK T02100180 IEM_DS3505
ZGGG,2006-09-20 00:00,ZGGG 200000Z AUTO 04002KT 1 1/4SM 24/20 A2991 RMK SLP138 T02410198 52015 IEM_DS3505
ZGGG,2006-09-20 01:00,ZGGG 200100Z AUTO 2SM 24/19 A2994 RMK T02400190 IEM_DS3505
ZGGG,2006-09-20 02:00,ZGGG 200200Z AUTO 2 1/2SM 26/19 A2994 RMK T02600190 IEM_DS3505
ZGGG,2006-09-20 03:00,ZGGG 200300Z AUTO 11004KT 3SM 29/19 A2991 RMK SLP137 T02900190 57001 IEM_DS3505
ZGGG,2006-09-20 04:00,ZGGG 200400Z AUTO 2 1/2SM 30/18 A2988 RMK T03000180 IEM_DS3505
ZGGG,2006-09-20 05:00,ZGGG 200500Z AUTO 2 1/2SM 30/17 A2985 RMK T03000170 IEM_DS3505
ZGGG,2006-09-20 06:00,ZGGG 200600Z AUTO 29002KT 3SM 29/19 A2985 RMK SLP113 T02900188 57024 IEM_DS3505
ZGGG,2006-09-20 07:00,ZGGG 200700Z AUTO 02006KT 3SM 30/18 A2983 RMK T03000180 IEM_DS3505
ZGGG,2006-09-20 08:00,ZGGG 200800Z AUTO 06004KT 3SM 30/17 A2980 RMK T03000170 IEM_DS3505
ZGGG,2006-09-20 09:00,ZGGG 200900Z AUTO 02002KT 2 1/2SM 29/19 A2983 RMK SLP103 T02870193 57010 IEM_DS3505
ZGGG,2006-09-20 10:00,ZGGG 201000Z AUTO 08002KT 3SM 29/18 A2983 RMK T02900180 IEM_DS3505
ZGGG,2006-09-20 11:00,ZGGG 201100Z AUTO 06002KT 2 1/2SM 27/19 A2983 RMK T02700190 IEM_DS3505
ZGGG,2006-09-20 12:00,ZGGG 201200Z AUTO 03004KT 4SM 26/19 A2985 RMK SLP117 T02580192 52014 IEM_DS3505
ZGGG,2006-09-20 13:00,ZGGG 201300Z AUTO 06002KT 2 1/2SM 25/19 A2988 RMK T02500190 IEM_DS3505
ZGGG,2006-09-20 14:00,ZGGG 201400Z AUTO 2 1/2SM 23/20 A2988 RMK T02300200 IEM_DS3505
ZGGG,2006-09-20 15:00,ZGGG 201500Z AUTO 08002KT 7SM 24/20 A2988 RMK SLP128 T02380195 52011 IEM_DS3505
ZGGG,2006-09-20 16:00,ZGGG 201600Z AUTO 07004KT 2 1/2SM 23/19 A2988 RMK T02300190 IEM_DS3505
ZGGG,2006-09-20 17:00,ZGGG 201700Z AUTO 2 1/2SM 22/19 A2985 RMK T02200190 IEM_DS3505
ZGGG,2006-09-20 18:00,ZGGG 201800Z AUTO 08002KT 7SM 23/19 A2985 RMK SLP119 T02320192 57009 IEM_DS3505
ZGGG,2006-09-20 19:00,ZGGG 201900Z AUTO 10004KT 2 1/2SM 22/18 A2985 RMK T02200180 IEM_DS3505
ZGGG,2006-09-20 20:00,ZGGG 202000Z AUTO 09004KT 2 1/2SM 22/18 A2985 RMK T02200180 IEM_DS3505
ZGGG,2006-09-20 21:00,ZGGG 202100Z AUTO 36002KT 6SM 22/18 A2985 RMK SLP116 T02200182 57003 IEM_DS3505
ZGGG,2006-09-20 22:00,ZGGG 202200Z AUTO 1 1/2SM 21/18 A2985 RMK T02100180 IEM_DS3505
ZGGG,2006-09-20 23:00,ZGGG 202300Z AUTO 09004KT 1 1/4SM 21/18 A2988 RMK T02100180 IEM_DS3505
ZGGG,2006-09-21 00:00,ZGGG 210000Z AUTO 02002KT 4SM 25/18 A2991 RMK SLP134 T02460185 52018 IEM_DS3505
ZGGG,2006-09-21 01:00,ZGGG 210100Z AUTO 1 1/2SM 26/18 A2991 RMK T02600180 IEM_DS3505
ZGGG,2006-09-21 02:00,ZGGG 210200Z AUTO 2 1/2SM 27/17 A2991 RMK T02700170 IEM_DS3505
ZGGG,2006-09-21 03:00,ZGGG 210300Z AUTO 36004KT 5SM 30/18 A2991 RMK SLP136 T02960178 52002 IEM_DS3505
ZGGG,2006-09-21 04:00,ZGGG 210400Z AUTO 07004KT 4SM 31/15 A2988 RMK T03100150 IEM_DS3505
ZGGG,2006-09-21 05:00,ZGGG 210500Z AUTO 4SM 32/13 A2985 RMK T03200130 IEM_DS3505
ZGGG,2006-09-21 06:00,ZGGG 210600Z AUTO 04006KT 9SM 32/14 A2983 RMK SLP110 T03180135 57026 IEM_DS3505
ZGGG,2006-09-21 07:00,ZGGG 210700Z AUTO 06004KT 4SM 32/13 A2983 RMK T03200130 IEM_DS3505
ZGGG,2006-09-21 08:00,ZGGG 210800Z AUTO 07004KT 4SM 32/13 A2980 RMK T03200130 IEM_DS3505
ZGGG,2006-09-21 09:00,ZGGG 210900Z AUTO 09004KT 8SM 31/16 A2980 RMK SLP099 T03110155 57011 IEM_DS3505
ZGGG,2006-09-21 10:00,ZGGG 211000Z AUTO 04004KT 4SM 29/15 A2983 RMK T02900150 IEM_DS3505
ZGGG,2006-09-21 11:00,ZGGG 211100Z AUTO 36006KT 4SM 28/15 A2983 RMK T02800150 IEM_DS3505
ZGGG,2006-09-21 12:00,ZGGG 211200Z AUTO 04002KT 8SM 27/19 A2985 RMK SLP117 T02660187 52018 IEM_DS3505
ZGGG,2006-09-21 13:00,ZGGG 211300Z AUTO 04002KT 3SM 25/17 A2985 RMK T02500170 IEM_DS3505
ZGGG,2006-09-21 14:00,ZGGG 211400Z AUTO 3SM 23/19 A2988 RMK T02300190 IEM_DS3505
ZGGG,2006-09-21 15:00,ZGGG 211500Z AUTO 36002KT 9SM 24/19 A2988 RMK SLP124 T02430187 52007 IEM_DS3505
ZGGG,2006-09-21 16:00,ZGGG 211600Z AUTO 09004KT 2 1/2SM 23/18 A2988 RMK T02300180 IEM_DS3505
ZGGG,2006-09-21 17:00,ZGGG 211700Z AUTO 08004KT 2 1/2SM 23/18 A2988 RMK T02300180 IEM_DS3505
ZGGG,2006-09-21 18:00,ZGGG 211800Z AUTO 07002KT 9SM 23/18 A2985 RMK SLP121 T02310178 57003 IEM_DS3505
ZGGG,2006-09-21 19:00,ZGGG 211900Z AUTO 09004KT 2 1/2SM 22/18 A2985 RMK T02200180 IEM_DS3505
ZGGG,2006-09-21 20:00,ZGGG 212000Z AUTO 11004KT 2 1/2SM 22/17 A2988 RMK T02200170 IEM_DS3505
ZGGG,2006-09-21 21:00,ZGGG 212100Z AUTO 36002KT 8SM 22/18 A2988 RMK SLP123 T02180180 52002 IEM_DS3505
ZGGG,2006-09-21 22:00,ZGGG 212200Z AUTO 01002KT 2 1/2SM 21/17 A2988 RMK T02100170 IEM_DS3505
ZGGG,2006-09-21 23:00,ZGGG 212300Z AUTO 00000KT 1 1/4SM 21/17 A2991 RMK T02100170 IEM_DS3505
ZGGG,2006-09-22 00:00,ZGGG 220000Z AUTO 32004KT 9SM 25/16 A2991 RMK SLP139 T02510165 52016 IEM_DS3505
ZGGG,2006-09-22 01:00,ZGGG 220100Z AUTO 2 1/2SM 27/17 A2994 RMK T02700170 IEM_DS3505
ZGGG,2006-09-22 02:00,ZGGG 220200Z AUTO 02008KT 4SM 29/15 A2994 RMK T02900150 IEM_DS3505
ZGGG,2006-09-22 03:00,ZGGG 220300Z AUTO 07004KT 9SM 30/16 A2994 RMK SLP143 T03020162 52004 IEM_DS3505
ZGGG,2006-09-22 04:00,ZGGG 220400Z AUTO 07004KT 4SM 31/15 A2991 RMK T03100150 IEM_DS3505
ZGGG,2006-09-22 05:00,ZGGG 220500Z AUTO 03004KT 5SM 32/14 A2988 RMK T03200140 IEM_DS3505
ZGGG,2006-09-22 06:00,ZGGG 220600Z AUTO 07004KT 10SM 32/15 A2985 RMK SLP116 T03220152 57027 IEM_DS3505
ZGGG,2006-09-22 07:00,ZGGG 220700Z AUTO 5SM 33/15 A2983 RMK T03300150 IEM_DS3505
ZGGG,2006-09-22 08:00,ZGGG 220800Z AUTO 5SM 33/15 A2983 RMK T03300150 IEM_DS3505
ZGGG,2006-09-22 09:00,ZGGG 220900Z AUTO 09004KT 10SM 31/17 A2980 RMK SLP104 T03140169 57012 IEM_DS3505
ZGGG,2006-09-22 10:00,ZGGG 221000Z AUTO 04004KT 5SM 30/16 A2983 RMK T03000160 IEM_DS3505
ZGGG,2006-09-22 11:00,ZGGG 221100Z AUTO 09002KT 4SM 28/19 A2983 RMK T02800190 IEM_DS3505
ZGGG,2006-09-22 12:00,ZGGG 221200Z AUTO 04002KT 9SM 28/19 A2985 RMK SLP113 T02750188 52009 IEM_DS3505
ZGGG,2006-09-22 13:00,ZGGG 221300Z AUTO 03004KT 4SM 26/17 A2985 RMK T02600170 IEM_DS3505
ZGGG,2006-09-22 14:00,ZGGG 221400Z AUTO 04002KT 3SM 25/19 A2988 RMK T02500190 IEM_DS3505
ZGGG,2006-09-22 15:00,ZGGG 221500Z AUTO 14002KT 8SM 26/21 A2988 RMK SLP132 T02630206 52019 IEM_DS3505
ZGGG,2006-09-22 16:00,ZGGG 221600Z AUTO 08004KT 3SM 25/19 A2988 RMK T02500190 IEM_DS3505
ZGGG,2006-09-22 17:00,ZGGG 221700Z AUTO 04004KT 2 1/2SM 24/20 A2988 RMK T02400200 IEM_DS3505
ZGGG,2006-09-22 18:00,ZGGG 221800Z AUTO 34002KT 7SM 25/20 A2988 RMK SLP123 T02530199 57009 IEM_DS3505
ZGGG,2006-09-22 19:00,ZGGG 221900Z AUTO 3SM 25/19 A2985 RMK T02500190 IEM_DS3505
ZGGG,2006-09-22 20:00,ZGGG 222000Z AUTO 05002KT 2 1/2SM 24/20 A2985 RMK T02400200 IEM_DS3505
ZGGG,2006-09-22 21:00,ZGGG 222100Z AUTO 34002KT 7SM 24/20 A2985 RMK SLP117 T02400199 57006 IEM_DS3505
ZGGG,2006-09-22 22:00,ZGGG 222200Z AUTO 09004KT 2 1/2SM 23/18 A2985 RMK T02300180 IEM_DS3505
ZGGG,2006-09-22 23:00,ZGGG 222300Z AUTO 09004KT 3SM 23/17 A2988 RMK T02300170 IEM_DS3505
ZGGG,2006-09-23 00:00,ZGGG 230000Z AUTO 04002KT 9SM 26/17 A2991 RMK SLP134 T02550169 52017 IEM_DS3505
ZGGG,2006-09-23 01:00,ZGGG 230100Z AUTO 2 1/2SM 26/18 A2991 RMK T02600180 IEM_DS3505
ZGGG,2006-09-23 02:00,ZGGG 230200Z AUTO 07006KT 4SM 29/18 A2991 RMK T02900180 IEM_DS3505
ZGGG,2006-09-23 03:00,ZGGG 230300Z AUTO 36004KT 16SM 31/18 A2991 RMK SLP137 T03060183 52003 IEM_DS3505
ZGGG,2006-09-23 04:00,ZGGG 230400Z AUTO 5SM 32/17 A2988 RMK T03200170 IEM_DS3505
ZGGG,2006-09-23 05:00,ZGGG 230500Z AUTO 07004KT 7SM 32/16 A2985 RMK T03200160 IEM_DS3505
ZGGG,2006-09-23 06:00,ZGGG 230600Z AUTO 02006KT 16SM 33/16 A2983 RMK SLP108 T03300159 57029 IEM_DS3505
ZGGG,2006-09-23 07:00,ZGGG 230700Z AUTO 08006KT 7SM 34/16 A2980 RMK T03400160 IEM_DS3505
ZGGG,2006-09-23 08:00,ZGGG 230800Z AUTO 07004KT 6SM 33/17 A2980 RMK T03300170 IEM_DS3505
ZGGG,2006-09-23 09:00,ZGGG 230900Z AUTO 02002KT 16SM 31/17 A2980 RMK SLP093 T03140166 57015 IEM_DS3505
ZGGG,2006-09-23 10:00,ZGGG 231000Z AUTO 10004KT 6SM 31/17 A2980 RMK T03100170 IEM_DS3505
ZGGG,2006-09-23 11:00,ZGGG 231100Z AUTO 4SM 30/17 A2980 RMK T03000170 IEM_DS3505
ZGGG,2006-09-23 12:00,ZGGG 231200Z AUTO 09002KT 14SM 28/18 A2983 RMK SLP103 T02810176 52010 IEM_DS3505
ZGGG,2006-09-23 13:00,ZGGG 231300Z AUTO 6SM 26/20 A2983 RMK T02600200 IEM_DS3505
ZGGG,2006-09-23 14:00,ZGGG 231400Z AUTO 10004KT 4SM 27/19 A2985 RMK T02700190 IEM_DS3505
ZGGG,2006-09-23 15:00,ZGGG 231500Z AUTO 07002KT 11SM 27/19 A2985 RMK SLP121 T02660190 52018 IEM_DS3505
ZGGG,2006-09-23 16:00,ZGGG 231600Z AUTO 10004KT 4SM 26/19 A2985 RMK T02600190 IEM_DS3505
ZGGG,2006-09-23 17:00,ZGGG 231700Z AUTO 3SM 26/20 A2985 RMK T02600200 IEM_DS3505
ZGGG,2006-09-23 18:00,ZGGG 231800Z AUTO 07002KT 10SM 25/20 A2985 RMK SLP114 T02540200 57007 IEM_DS3505
ZGGG,2006-09-23 19:00,ZGGG 231900Z AUTO 3SM 25/20 A2985 RMK T02500200 IEM_DS3505
ZGGG,2006-09-23 20:00,ZGGG 232000Z AUTO 3SM 24/20 A2983 RMK T02400200 IEM_DS3505
ZGGG,2006-09-23 21:00,ZGGG 232100Z AUTO 04002KT 9SM 25/20 A2983 RMK SLP111 T02490202 57003 IEM_DS3505
ZGGG,2006-09-23 22:00,ZGGG 232200Z AUTO 3SM 23/19 A2985 RMK T02300190 IEM_DS3505
ZGGG,2006-09-23 23:00,ZGGG 232300Z AUTO 2 1/2SM 24/19 A2985 RMK T02400190 IEM_DS3505
ZGGG,2006-09-24 00:00,ZGGG 240000Z AUTO 02002KT 9SM 27/19 A2988 RMK SLP126 T02670188 52015 IEM_DS3505
ZGGG,2006-09-24 01:00,ZGGG 240100Z AUTO 05006KT 4SM 28/19 A2988 RMK T02800190 IEM_DS3505
ZGGG,2006-09-24 02:00,ZGGG 240200Z AUTO 05006KT 4SM 29/18 A2988 RMK T02900180 IEM_DS3505
ZGGG,2006-09-24 03:00,ZGGG 240300Z AUTO 04004KT 10SM 29/19 A2988 RMK SLP129 T02910191 52003 IEM_DS3505
ZGGG,2006-09-24 04:00,ZGGG 240400Z AUTO 07008KT 7SM 31/18 A2988 RMK T03100180 IEM_DS3505
ZGGG,2006-09-24 05:00,ZGGG 240500Z AUTO 08006KT 7SM 31/19 A2985 RMK T03100190 IEM_DS3505
ZGGG,2006-09-24 06:00,ZGGG 240600Z AUTO 11006KT 10SM 30/20 A2985 RMK SLP113 T03050195 57016 IEM_DS3505
ZGGG,2006-09-24 07:00,ZGGG 240700Z AUTO 09008KT 7SM 31/19 A2983 RMK T03100190 IEM_DS3505
ZGGG,2006-09-24 08:00,ZGGG 240800Z AUTO 11006KT 7SM 30/19 A2983 RMK T03000190 IEM_DS3505
ZGGG,2006-09-24 09:00,ZGGG 240900Z AUTO 07002KT 9SM 30/20 A2983 RMK SLP106 T02970200 57007 IEM_DS3505
ZGGG,2006-09-24 10:00,ZGGG 241000Z AUTO 00000KT 5SM 29/20 A2983 RMK T02900200 IEM_DS3505
ZGGG,2006-09-24 11:00,ZGGG 241100Z AUTO 00000KT 4SM 29/20 A2985 RMK T02900200 IEM_DS3505
ZGGG,2006-09-24 12:00,ZGGG 241200Z AUTO 16002KT 9SM 28/21 A2985 RMK SLP119 T02790212 52013 IEM_DS3505
ZGGG,2006-09-24 13:00,ZGGG 241300Z AUTO 00000KT 4SM 28/22 A2988 RMK T02800220 IEM_DS3505
ZGGG,2006-09-24 14:00,ZGGG 241400Z AUTO 4SM 28/21 A2988 RMK T02800210 IEM_DS3505
ZGGG,2006-09-24 15:00,ZGGG 241500Z AUTO 11002KT 9SM 27/21 A2988 RMK SLP130 T02700211 52011 IEM_DS3505
ZGGG,2006-09-24 16:00,ZGGG 241600Z AUTO 06002KT 3SM 27/22 A2988 RMK T02700220 IEM_DS3505
ZGGG,2006-09-24 17:00,ZGGG 241700Z AUTO 09002KT 4SM 27/22 A2988 RMK T02700220 IEM_DS3505
ZGGG,2006-09-24 18:00,ZGGG 241800Z AUTO 09002KT 8SM 26/21 A2988 RMK SLP125 T02580206 57005 IEM_DS3505
ZGGG,2006-09-24 19:00,ZGGG 241900Z AUTO 4SM 26/19 A2985 RMK T02600190 IEM_DS3505
ZGGG,2006-09-24 20:00,ZGGG 242000Z AUTO 04002KT 4SM 26/20 A2985 RMK T02600200 IEM_DS3505
ZGGG,2006-09-24 21:00,ZGGG 242100Z AUTO 04002KT 7SM 26/20 A2988 RMK SLP122 T02550196 57003 IEM_DS3505
ZGGG,2006-09-24 22:00,ZGGG 242200Z AUTO 04002KT 4SM 25/21 A2988 RMK T02500210 IEM_DS3505
ZGGG,2006-09-24 23:00,ZGGG 242300Z AUTO 09004KT 3SM 26/20 A2991 RMK T02600200 IEM_DS3505
ZGGG,2006-09-25 00:00,ZGGG 250000Z AUTO 09004KT 6SM 26/20 A2991 RMK SLP140 T02650196 52018 IEM_DS3505
ZGGG,2006-09-25 01:00,ZGGG 250100Z AUTO 07004KT 4SM 28/20 A2994 RMK T02800200 IEM_DS3505
ZGGG,2006-09-25 02:00,ZGGG 250200Z AUTO 08006KT 4SM 30/20 A2994 RMK T03000200 IEM_DS3505
ZGGG,2006-09-25 03:00,ZGGG 250300Z AUTO 07004KT 7SM 31/19 A2991 RMK SLP139 T03090193 57001 IEM_DS3505
ZGGG,2006-09-25 04:00,ZGGG 250400Z AUTO 08006KT 6SM 32/17 A2988 RMK T03200170 IEM_DS3505
ZGGG,2006-09-25 05:00,ZGGG 250500Z AUTO 07004KT 6SM 33/17 A2985 RMK T03300170 IEM_DS3505
ZGGG,2006-09-25 06:00,ZGGG 250600Z AUTO 14008KT 9SM 33/18 A2983 RMK SLP108 T03270181 57031 IEM_DS3505
ZGGG,2006-09-25 07:00,ZGGG 250700Z AUTO 16006KT 6SM 34/16 A2980 RMK T03400160 IEM_DS3505
ZGGG,2006-09-25 08:00,ZGGG 250800Z AUTO 11006KT 6SM 34/17 A2977 RMK T03400170 IEM_DS3505
ZGGG,2006-09-25 09:00,ZGGG 250900Z AUTO 09002KT 9SM 32/18 A2977 RMK SLP090 T03240175 57017 IEM_DS3505
ZGGG,2006-09-25 10:00,ZGGG 251000Z AUTO 6SM 32/19 A2977 RMK T03200190 IEM_DS3505
ZGGG,2006-09-25 11:00,ZGGG 251100Z AUTO 3SM 30/20 A2980 RMK T03000200 IEM_DS3505
ZGGG,2006-09-25 12:00,ZGGG 251200Z AUTO 14002KT 8SM 29/19 A2980 RMK SLP102 T02930193 52011 IEM_DS3505
ZGGG,2006-09-25 13:00,ZGGG 251300Z AUTO 14004KT 4SM 28/20 A2983 RMK T02800200 IEM_DS3505
ZGGG,2006-09-25 14:00,ZGGG 251400Z AUTO 16004KT 4SM 28/20 A2985 RMK T02800200 IEM_DS3505
ZGGG,2006-09-25 15:00,ZGGG 251500Z AUTO 16004KT 9SM 27/20 A2985 RMK SLP117 T02700204 52015 IEM_DS3505
ZGGG,2006-09-25 16:00,ZGGG 251600Z AUTO 12004KT 4SM 26/21 A2985 RMK T02600210 IEM_DS3505
ZGGG,2006-09-25 17:00,ZGGG 251700Z AUTO 12002KT 4SM 25/21 A2985 RMK T02500210 IEM_DS3505
ZGGG,2006-09-25 18:00,ZGGG 251800Z AUTO 14002KT 8SM 26/20 A2983 RMK SLP110 T02560204 57007 IEM_DS3505
ZGGG,2006-09-25 19:00,ZGGG 251900Z AUTO 06004KT 3SM 24/21 A2983 RMK T02400210 IEM_DS3505
ZGGG,2006-09-25 20:00,ZGGG 252000Z AUTO 07004KT 3SM 24/21 A2983 RMK T02400210 IEM_DS3505
ZGGG,2006-09-25 21:00,ZGGG 252100Z AUTO 07002KT 8SM 24/21 A2983 RMK SLP112 T02430206 52002 IEM_DS3505
ZGGG,2006-09-25 22:00,ZGGG 252200Z AUTO 07002KT 2 1/2SM 23/21 A2985 RMK T02300210 IEM_DS3505
ZGGG,2006-09-25 23:00,ZGGG 252300Z AUTO 2SM 24/21 A2985 RMK T02400210 IEM_DS3505
ZGGG,2006-09-26 00:00,ZGGG 260000Z AUTO 36002KT 7SM 26/21 A2988 RMK SLP125 T02610207 52013 IEM_DS3505
ZGGG,2006-09-26 01:00,ZGGG 260100Z AUTO 06004KT 3SM 27/21 A2988 RMK T02700210 IEM_DS3505
ZGGG,2006-09-26 02:00,ZGGG 260200Z AUTO 08004KT 4SM 29/20 A2988 RMK T02900200 IEM_DS3505
ZGGG,2006-09-26 03:00,ZGGG 260300Z AUTO 36002KT 8SM 30/20 A2985 RMK SLP116 T03050201 57009 IEM_DS3505
ZGGG,2006-09-26 04:00,ZGGG 260400Z AUTO 4SM 32/20 A2983 RMK T03200200 IEM_DS3505
ZGGG,2006-09-26 05:00,ZGGG 260500Z AUTO 02004KT 4SM 33/19 A2980 RMK T03300190 IEM_DS3505
ZGGG,2006-09-26 06:00,ZGGG 260600Z AUTO 16002KT 9SM 33/19 A2977 RMK SLP083 T03290194 57032 IEM_DS3505
ZGGG,2006-09-26 07:00,ZGGG 260700Z AUTO 5SM 34/18 A2974 RMK T03400180 IEM_DS3505
ZGGG,2006-09-26 08:00,ZGGG 260800Z AUTO 12004KT 4SM 33/20 A2974 RMK T03300200 IEM_DS3505
ZGGG,2006-09-26 09:00,ZGGG 260900Z AUTO 07002KT 8SM 32/20 A2974 RMK SLP075 T03220201 57009 IEM_DS3505
ZGGG,2006-09-26 10:00,ZGGG 261000Z AUTO 4SM 31/20 A2974 RMK T03100200 IEM_DS3505
ZGGG,2006-09-26 11:00,ZGGG 261100Z AUTO 5SM 30/21 A2974 RMK T03000210 IEM_DS3505
ZGGG,2006-09-26 12:00,ZGGG 261200Z AUTO 14004KT 7SM 29/19 A2977 RMK SLP093 T02870191 52018 IEM_DS3505
ZGGG,2006-09-26 13:00,ZGGG 261300Z AUTO 15004KT 4SM 28/20 A2980 RMK T02800200 IEM_DS3505
ZGGG,2006-09-26 14:00,ZGGG 261400Z AUTO 13004KT 4SM 28/20 A2983 RMK T02800200 IEM_DS3505
ZGGG,2006-09-26 15:00,ZGGG 261500Z AUTO 16002KT 7SM 27/21 A2983 RMK SLP108 T02660209 52015 IEM_DS3505
ZGGG,2006-09-26 16:00,ZGGG 261600Z AUTO 4SM 26/20 A2983 RMK T02600200 IEM_DS3505
ZGGG,2006-09-26 17:00,ZGGG 261700Z AUTO 4SM 26/20 A2983 RMK T02600200 IEM_DS3505
ZGGG,2006-09-26 18:00,ZGGG 261800Z AUTO 07004KT 7SM 26/21 A2983 RMK SLP107 T02560211 57001 IEM_DS3505
ZGGG,2006-09-26 19:00,ZGGG 261900Z AUTO 07004KT 2 1/2SM 25/21 A2983 RMK T02500210 IEM_DS3505
ZGGG,2006-09-26 20:00,ZGGG 262000Z AUTO 07004KT 2 1/2SM 24/21 A2983 RMK T02400210 IEM_DS3505
ZGGG,2006-09-26 21:00,ZGGG 262100Z AUTO 07002KT 7SM 24/20 A2983 RMK SLP107 T02400199 54000 IEM_DS3505
ZGGG,2006-09-26 22:00,ZGGG 262200Z AUTO 2SM 24/20 A2983 RMK T02400200 IEM_DS3505
ZGGG,2006-09-26 23:00,ZGGG 262300Z AUTO 07002KT 1 1/4SM 24/20 A2985 RMK T02400200 IEM_DS3505
ZGGG,2006-09-27 00:00,ZGGG 270000Z AUTO 04002KT 6SM 26/19 A2985 RMK SLP121 T02550194 52014 IEM_DS3505
ZGGG,2006-09-27 01:00,ZGGG 270100Z AUTO 12004KT 4SM 27/19 A2988 RMK T02700190 IEM_DS3505
ZGGG,2006-09-27 02:00,ZGGG 270200Z AUTO 09004KT 5SM 28/19 A2988 RMK T02800190 IEM_DS3505
ZGGG,2006-09-27 03:00,ZGGG 270300Z AUTO 02002KT 7SM 30/21 A2988 RMK SLP121 T02980209 54000 IEM_DS3505
ZGGG,2006-09-27 04:00,ZGGG 270400Z AUTO 4SM 31/19 A2985 RMK T03100190 IEM_DS3505
ZGGG,2006-09-27 05:00,ZGGG 270500Z AUTO 3SM 32/19 A2983 RMK T03200190 IEM_DS3505
ZGGG,2006-09-27 06:00,ZGGG 270600Z AUTO 36002KT 7SM 33/20 A2980 RMK SLP094 T03260195 57026 IEM_DS3505
ZGGG,2006-09-27 07:00,ZGGG 270700Z AUTO 4SM 33/19 A2977 RMK T03300190 IEM_DS3505
ZGGG,2006-09-27 08:00,ZGGG 270800Z AUTO 5SM 33/18 A2977 RMK T03300180 IEM_DS3505
ZGGG,2006-09-27 09:00,ZGGG 270900Z AUTO 04002KT 7SM 32/19 A2977 RMK SLP088 T03190188 57007 IEM_DS3505
ZGGG,2006-09-27 10:00,ZGGG 271000Z AUTO 4SM 31/19 A2980 RMK T03100190 IEM_DS3505
ZGGG,2006-09-27 11:00,ZGGG 271100Z AUTO 08002KT 4SM 29/20 A2980 RMK T02900200 IEM_DS3505
ZGGG,2006-09-27 12:00,ZGGG 271200Z AUTO 14002KT 6SM 28/21 A2983 RMK SLP109 T02840214 52021 IEM_DS3505
ZGGG,2006-09-27 13:00,ZGGG 271300Z AUTO 14004KT 3SM 28/21 A2985 RMK T02800210 IEM_DS3505
ZGGG,2006-09-27 14:00,ZGGG 271400Z AUTO 15004KT 3SM 28/21 A2985 RMK T02800210 IEM_DS3505
ZGGG,2006-09-27 15:00,ZGGG 271500Z AUTO 14006KT 7SM 27/21 A2988 RMK SLP129 T02670208 52020 IEM_DS3505
ZGGG,2006-09-27 16:00,ZGGG 271600Z AUTO 4SM 26/20 A2988 RMK T02600200 IEM_DS3505
ZGGG,2006-09-27 17:00,ZGGG 271700Z AUTO 4SM 26/20 A2988 RMK T02600200 IEM_DS3505
ZGGG,2006-09-27 18:00,ZGGG 271800Z AUTO 14004KT 7SM 26/21 A2985 RMK SLP118 T02560206 57011 IEM_DS3505
ZGGG,2006-09-27 19:00,ZGGG 271900Z AUTO 07004KT 3SM 24/21 A2985 RMK T02400210 IEM_DS3505
ZGGG,2006-09-27 20:00,ZGGG 272000Z AUTO 2 1/2SM 24/20 A2985 RMK T02400200 IEM_DS3505
ZGGG,2006-09-27 21:00,ZGGG 272100Z AUTO 07002KT 7SM 24/20 A2985 RMK SLP118 T02370202 54000 IEM_DS3505
ZGGG,2006-09-27 22:00,ZGGG 272200Z AUTO 10002KT 2 1/2SM 24/20 A2985 RMK T02400200 IEM_DS3505
ZGGG,2006-09-27 23:00,ZGGG 272300Z AUTO 2SM 24/20 A2988 RMK T02400200 IEM_DS3505
ZGGG,2006-09-28 00:00,ZGGG 280000Z AUTO 04002KT 4SM 25/21 A2991 RMK SLP134 T02520207 52016 IEM_DS3505
ZGGG,2006-09-28 01:00,ZGGG 280100Z AUTO 3SM 26/20 A2991 RMK T02600200 IEM_DS3505
ZGGG,2006-09-28 02:00,ZGGG 280200Z AUTO 3SM 28/20 A2991 RMK T02800200 IEM_DS3505
ZGGG,2006-09-28 03:00,ZGGG 280300Z AUTO 36002KT 2 1/2SM 30/19 A2991 RMK SLP132 T02970194 57002 IEM_DS3505
ZGGG,2006-09-28 04:00,ZGGG 280400Z AUTO 02002KT 4SM 30/19 A2988 RMK T03000190 IEM_DS3505
ZGGG,2006-09-28 05:00,ZGGG 280500Z AUTO 4SM 31/20 A2985 RMK T03100200 IEM_DS3505
ZGGG,2006-09-28 06:00,ZGGG 280600Z AUTO 02002KT 2 1/2SM 31/21 A2983 RMK SLP107 T03140207 57025 IEM_DS3505
ZGGG,2006-09-28 07:00,ZGGG 280700Z AUTO 4SM 32/20 A2980 RMK T03200200 IEM_DS3505
ZGGG,2006-09-28 08:00,ZGGG 280800Z AUTO 4SM 32/19 A2980 RMK T03200190 IEM_DS3505
ZGGG,2006-09-28 09:00,ZGGG 280900Z AUTO 02004KT 2 1/2SM 31/21 A2980 RMK SLP097 T03090208 57010 IEM_DS3505
ZGGG,2006-09-28 10:00,ZGGG 281000Z AUTO 4SM 31/20 A2980 RMK T03100200 IEM_DS3505
ZGGG,2006-09-28 11:00,ZGGG 281100Z AUTO 12002KT 2 1/2SM 29/21 A2983 RMK T02900210 IEM_DS3505
ZGGG,2006-09-28 12:00,ZGGG 281200Z AUTO 07002KT 4SM 28/21 A2983 RMK SLP110 T02810214 52013 IEM_DS3505
ZGGG,2006-09-28 13:00,ZGGG 281300Z AUTO 08002KT 2 1/2SM 27/22 A2985 RMK T02700220 IEM_DS3505
ZGGG,2006-09-28 14:00,ZGGG 281400Z AUTO 04004KT 2 1/2SM 26/22 A2985 RMK T02600220 IEM_DS3505
ZGGG,2006-09-28 15:00,ZGGG 281500Z AUTO 14002KT 4SM 27/22 A2985 RMK SLP121 T02680220 52011 IEM_DS3505
ZGGG,2006-09-28 16:00,ZGGG 281600Z AUTO 14004KT 2SM 26/22 A2985 RMK T02600220 IEM_DS3505
ZGGG,2006-09-28 17:00,ZGGG 281700Z AUTO 14004KT 2 1/2SM 26/21 A2985 RMK T02600210 IEM_DS3505
ZGGG,2006-09-28 18:00,ZGGG 281800Z AUTO 14004KT 6SM 26/21 A2985 RMK SLP117 T02580212 57004 IEM_DS3505
ZGGG,2006-09-28 19:00,ZGGG 281900Z AUTO 10002KT 2 1/2SM 25/21 A2985 RMK T02500210 IEM_DS3505
ZGGG,2006-09-28 20:00,ZGGG 282000Z AUTO 06002KT 2SM 24/21 A2985 RMK T02400210 IEM_DS3505
ZGGG,2006-09-28 21:00,ZGGG 282100Z AUTO 04002KT 6SM 24/21 A2985 RMK SLP119 T02420207 52002 IEM_DS3505
ZGGG,2006-09-28 22:00,ZGGG 282200Z AUTO 05004KT 2SM 24/21 A2985 RMK T02400210 IEM_DS3505
ZGGG,2006-09-28 23:00,ZGGG 282300Z AUTO 1 1/2SM 24/21 A2988 RMK T02400210 IEM_DS3505
ZGGG,2006-09-29 00:00,ZGGG 290000Z AUTO 04002KT 5SM 26/21 A2988 RMK SLP129 T02590209 52010 IEM_DS3505
ZGGG,2006-09-29 01:00,ZGGG 290100Z AUTO 3SM 27/21 A2988 RMK T02700210 IEM_DS3505
ZGGG,2006-09-29 02:00,ZGGG 290200Z AUTO 04004KT 3SM 29/20 A2988 RMK T02900200 IEM_DS3505
ZGGG,2006-09-29 03:00,ZGGG 290300Z AUTO 27002KT 7SM 31/21 A2988 RMK SLP122 T03100212 57007 IEM_DS3505
ZGGG,2006-09-29 04:00,ZGGG 290400Z AUTO 4SM 32/20 A2985 RMK T03200200 IEM_DS3505
ZGGG,2006-09-29 05:00,ZGGG 290500Z AUTO 08006KT 4SM 33/19 A2983 RMK T03300190 IEM_DS3505
ZGGG,2006-09-29 06:00,ZGGG 290600Z AUTO 09002KT 8SM 33/19 A2980 RMK SLP099 T03330194 57022 IEM_DS3505
ZGGG,2006-09-29 07:00,ZGGG 290700Z AUTO 10004KT 7SM 34/18 A2980 RMK T03400180 IEM_DS3505
ZGGG,2006-09-29 08:00,ZGGG 290800Z AUTO 11004KT 7SM 34/18 A2977 RMK T03400180 IEM_DS3505
ZGGG,2006-09-29 09:00,ZGGG 290900Z AUTO 07004KT 9SM 33/16 A2977 RMK SLP092 T03300164 57008 IEM_DS3505
ZGGG,2006-09-29 10:00,ZGGG 291000Z AUTO 09004KT 5SM 31/19 A2980 RMK T03100190 IEM_DS3505
ZGGG,2006-09-29 11:00,ZGGG 291100Z AUTO 10002KT 4SM 30/20 A2980 RMK T03000200 IEM_DS3505
ZGGG,2006-09-29 12:00,ZGGG 291200Z AUTO 04002KT 9SM 29/19 A2983 RMK SLP107 T02880192 52015 IEM_DS3505
ZGGG,2006-09-29 13:00,ZGGG 291300Z AUTO 01004KT 4SM 27/22 A2983 RMK T02700220 IEM_DS3505
ZGGG,2006-09-29 14:00,ZGGG 291400Z AUTO 07002KT 4SM 27/20 A2983 RMK T02700200 IEM_DS3505
ZGGG,2006-09-29 15:00,ZGGG 291500Z AUTO 36002KT 8SM 29/19 A2985 RMK SLP110 T02860187 52004 IEM_DS3505
ZGGG,2006-09-29 16:00,ZGGG 291600Z AUTO 09004KT 4SM 27/20 A2985 RMK T02700200 IEM_DS3505
ZGGG,2006-09-29 17:00,ZGGG 291700Z AUTO 00000KT 4SM 26/21 A2983 RMK T02600210 IEM_DS3505
ZGGG,2006-09-29 18:00,ZGGG 291800Z AUTO 04002KT 7SM 28/19 A2983 RMK SLP107 T02780193 57003 IEM_DS3505
ZGGG,2006-09-29 19:00,ZGGG 291900Z AUTO 4SM 26/20 A2983 RMK T02600200 IEM_DS3505
ZGGG,2006-09-29 20:00,ZGGG 292000Z AUTO 08004KT 4SM 27/20 A2983 RMK T02700200 IEM_DS3505
ZGGG,2006-09-29 21:00,ZGGG 292100Z AUTO 07002KT 7SM 27/20 A2980 RMK SLP104 T02700199 57003 IEM_DS3505
ZGGG,2006-09-29 22:00,ZGGG 292200Z AUTO 10004KT 3SM 27/19 A2985 RMK T02700190 IEM_DS3505
ZGGG,2006-09-29 23:00,ZGGG 292300Z AUTO 06004KT 3SM 27/19 A2985 RMK T02700190 IEM_DS3505
ZGGG,2006-09-30 00:00,ZGGG 300000Z AUTO 04002KT 6SM 28/22 A2988 RMK SLP124 T02790224 52019 IEM_DS3505
ZGGG,2006-09-30 01:00,ZGGG 300100Z AUTO 07004KT 5SM 29/19 A2991 RMK T02900190 IEM_DS3505
ZGGG,2006-09-30 02:00,ZGGG 300200Z AUTO 05004KT 5SM 31/18 A2988 RMK T03100180 IEM_DS3505
ZGGG,2006-09-30 03:00,ZGGG 300300Z AUTO 36004KT 8SM 30/20 A2988 RMK SLP124 T03030200 54000 IEM_DS3505
ZGGG,2006-09-30 04:00,ZGGG 300400Z AUTO 08004KT 6SM 32/19 A2985 RMK T03200190 IEM_DS3505
ZGGG,2006-09-30 05:00,ZGGG 300500Z AUTO 08006KT 6SM 33/19 A2983 RMK T03300190 IEM_DS3505
ZGGG,2006-09-30 06:00,ZGGG 300600Z AUTO 07004KT 9SM 33/20 A2983 RMK SLP105 T03280200 57018 IEM_DS3505
ZGGG,2006-09-30 07:00,ZGGG 300700Z AUTO 12006KT 6SM 33/20 A2980 RMK T03300200 IEM_DS3505
ZGGG,2006-09-30 08:00,ZGGG 300800Z AUTO 11006KT 6SM 32/19 A2980 RMK T03200190 IEM_DS3505
ZGGG,2006-09-30 09:00,ZGGG 300900Z AUTO 09004KT 10SM 31/21 A2980 RMK SLP100 T03110210 57006 IEM_DS3505
ZGGG,2006-09-30 10:00,ZGGG 301000Z AUTO 5SM 31/20 A2980 RMK T03100200 IEM_DS3505
ZGGG,2006-09-30 11:00,ZGGG 301100Z AUTO 00000KT 4SM 30/22 A2983 RMK T03000220 IEM_DS3505
ZGGG,2006-09-30 12:00,ZGGG 301200Z AUTO 04002KT 9SM 29/21 A2985 RMK SLP112 T02940211 52012 IEM_DS3505
ZGGG,2006-09-30 13:00,ZGGG 301300Z AUTO 06002KT 4SM 29/22 A2985 RMK T02900220 IEM_DS3505
ZGGG,2006-09-30 14:00,ZGGG 301400Z AUTO 07002KT 4SM 29/22 A2985 RMK T02900220 IEM_DS3505
ZGGG,2006-09-30 15:00,ZGGG 301500Z AUTO 14002KT 9SM 28/22 A2985 RMK SLP116 T02830221 52004 IEM_DS3505
ZGGG,2006-09-30 16:00,ZGGG 301600Z AUTO 4SM 29/23 A2985 RMK T02900230 IEM_DS3505
ZGGG,2006-09-30 17:00,ZGGG 301700Z AUTO 00000KT 4SM 28/22 A2983 RMK T02800220 IEM_DS3505
ZGGG,2006-09-30 18:00,ZGGG 301800Z AUTO 09002KT 9SM 27/23 A2983 RMK SLP107 T02740226 57008 IEM_DS3505
ZGGG,2006-09-30 19:00,ZGGG 301900Z AUTO 05004KT 3SM 27/21 A2983 RMK T02700210 IEM_DS3505
ZGGG,2006-09-30 20:00,ZGGG 302000Z AUTO 02006KT 4SM 27/19 A2983 RMK T02700190 IEM_DS3505
ZGGG,2006-09-30 21:00,ZGGG 302100Z AUTO 02002KT 7SM 27/22 A2983 RMK SLP107 T02700217 57001 IEM_DS3505
ZGGG,2006-09-30 22:00,ZGGG 302200Z AUTO 01008KT 3SM 27/19 A2985 RMK T02700190 IEM_DS3505
ZGGG,2006-09-30 23:00,ZGGG 302300Z AUTO 02004KT 3SM 26/19 A2988 RMK T02600190 IEM_DS3505
ZGGG,2006-10-01 00:00,ZGGG 010000Z AUTO 02004KT 7SM 27/20 A2988 RMK SLP128 T02690198 52021 IEM_DS3505
ZGGG,2006-10-01 01:00,ZGGG 010100Z AUTO 02006KT 4SM 28/19 A2988 RMK T02800190 IEM_DS3505
ZGGG,2006-10-01 02:00,ZGGG 010200Z AUTO 02010KT 4SM 28/19 A2988 RMK T02800190 IEM_DS3505
ZGGG,2006-10-01 03:00,ZGGG 010300Z AUTO 02004KT 5SM 29/21 A2988 RMK SLP130 T02870207 52002 IEM_DS3505
ZGGG,2006-10-01 04:00,ZGGG 010400Z AUTO 07006KT 3SM 29/20 A2988 RMK T02900200 IEM_DS3505
ZGGG,2006-10-01 05:00,ZGGG 010500Z AUTO 03006KT 3SM 29/20 A2985 RMK T02900200 IEM_DS3505
ZGGG,2006-10-01 06:00,ZGGG 010600Z AUTO 07004KT 5SM 30/20 A2985 RMK 60000 SLP112 T02990205 57018 IEM_DS3505
ZGGG,2006-10-01 07:00,ZGGG 010700Z AUTO 02006KT 3SM 29/19 A2983 RMK T02900190 IEM_DS3505
ZGGG,2006-10-01 08:00,ZGGG 010800Z AUTO 34008KT 2 1/2SM 29/20 A2983 RMK T02900200 IEM_DS3505
ZGGG,2006-10-01 09:00,ZGGG 010900Z AUTO 34002KT 4SM 28/21 A2983 RMK SLP107 T02840207 57005 IEM_DS3505
ZGGG,2006-10-01 10:00,ZGGG 011000Z AUTO 34006KT 2 1/2SM 28/20 A2983 RMK T02800200 IEM_DS3505
ZGGG,2006-10-01 11:00,ZGGG 011100Z AUTO 35006KT 2 1/2SM 28/20 A2985 RMK T02800200 IEM_DS3505
ZGGG,2006-10-01 12:00,ZGGG 011200Z AUTO 34002KT 4SM 27/21 A2985 RMK 60000 SLP120 T02670208 52013 IEM_DS3505
ZGGG,2006-10-01 13:00,ZGGG 011300Z AUTO 02006KT 2 1/2SM 27/19 A2988 RMK T02700190 IEM_DS3505
ZGGG,2006-10-01 14:00,ZGGG 011400Z AUTO 01008KT 2 1/2SM 27/19 A2988 RMK T02700190 IEM_DS3505
ZGGG,2006-10-01 15:00,ZGGG 011500Z AUTO 34002KT 7SM 26/19 A2988 RMK SLP126 T02650191 52006 IEM_DS3505
ZGGG,2006-10-01 16:00,ZGGG 011600Z AUTO 02008KT 3SM 26/18 A2988 RMK T02600180 IEM_DS3505
ZGGG,2006-10-01 17:00,ZGGG 011700Z AUTO 02008KT 3SM 26/18 A2988 RMK T02600180 IEM_DS3505
ZGGG,2006-10-01 18:00,ZGGG 011800Z AUTO 01010KT 7SM 26/18 A2985 RMK SLP120 T02560185 57006 IEM_DS3505
ZGGG,2006-10-01 19:00,ZGGG 011900Z AUTO 02010KT 4SM 25/17 A2985 RMK T02500170 IEM_DS3505
ZGGG,2006-10-01 20:00,ZGGG 012000Z AUTO 01010KT 4SM 25/17 A2985 RMK T02500170 IEM_DS3505
ZGGG,2006-10-01 21:00,ZGGG 012100Z AUTO 02002KT 7SM 25/18 A2985 RMK 70001 SLP121 T02480180 52001 IEM_DS3505
ZGGG,2006-10-01 22:00,ZGGG 012200Z AUTO 02006KT 3SM 24/17 A2988 RMK T02400170 IEM_DS3505
ZGGG,2006-10-01 23:00,ZGGG 012300Z AUTO 02004KT 3SM 24/17 A2988 RMK T02400170 IEM_DS3505
ZGGG,2006-10-02 00:00,ZGGG 020000Z AUTO 36004KT 10SM 25/18 A2991 RMK 70001 SLP133 T02480180 52012 IEM_DS3505
ZGGG,2006-10-02 01:00,ZGGG 020100Z AUTO 02010KT 4SM 26/17 A2991 RMK T02600170 IEM_DS3505
ZGGG,2006-10-02 02:00,ZGGG 020200Z AUTO 02008KT 4SM 28/18 A2991 RMK T02800180 IEM_DS3505
ZGGG,2006-10-02 03:00,ZGGG 020300Z AUTO 04004KT 7SM 29/19 A2991 RMK SLP135 T02880186 52002 IEM_DS3505
ZGGG,2006-10-02 04:00,ZGGG 020400Z AUTO 02006KT 5SM 28/17 A2988 RMK T02800170 IEM_DS3505
ZGGG,2006-10-02 05:00,ZGGG 020500Z AUTO 33004KT 4SM 30/18 A2985 RMK T03000180 IEM_DS3505
ZGGG,2006-10-02 06:00,ZGGG 020600Z AUTO 09002KT 7SM 30/19 A2983 RMK SLP104 T03040191 57031 IEM_DS3505
ZGGG,2006-10-02 07:00,ZGGG 020700Z AUTO 11004KT 4SM 31/19 A2980 RMK T03100190 IEM_DS3505
ZGGG,2006-10-02 08:00,ZGGG 020800Z AUTO 02004KT 5SM 32/17 A2980 RMK T03200170 IEM_DS3505
ZGGG,2006-10-02 09:00,ZGGG 020900Z AUTO 03004KT 7SM 30/20 A2980 RMK SLP096 T03000200 57008 IEM_DS3505
ZGGG,2006-10-02 10:00,ZGGG 021000Z AUTO 36008KT 4SM 30/18 A2980 RMK T03000180 IEM_DS3505
ZGGG,2006-10-02 11:00,ZGGG 021100Z AUTO 35008KT 4SM 30/18 A2983 RMK T03000180 IEM_DS3505
ZGGG,2006-10-02 12:00,ZGGG 021200Z AUTO 02002KT 7SM 28/19 A2985 RMK SLP112 T02820194 52016 IEM_DS3505
ZGGG,2006-10-02 13:00,ZGGG 021300Z AUTO 4SM 27/19 A2985 RMK T02700190 IEM_DS3505
ZGGG,2006-10-02 14:00,ZGGG 021400Z AUTO 4SM 27/20 A2988 RMK T02700200 IEM_DS3505
ZGGG,2006-10-02 15:00,ZGGG 021500Z AUTO 02002KT 9SM 27/19 A2988 RMK SLP124 T02730194 52012 IEM_DS3505
ZGGG,2006-10-02 16:00,ZGGG 021600Z AUTO 02004KT 4SM 26/19 A2985 RMK T02600190 IEM_DS3505
ZGGG,2006-10-02 17:00,ZGGG 021700Z AUTO 4SM 26/19 A2985 RMK T02600190 IEM_DS3505
ZGGG,2006-10-02 18:00,ZGGG 021800Z AUTO 36002KT 8SM 25/19 A2985 RMK SLP110 T02540186 57014 IEM_DS3505
ZGGG,2006-10-02 19:00,ZGGG 021900Z AUTO 02004KT 4SM 24/18 A2983 RMK T02400180 IEM_DS3505
ZGGG,2006-10-02 20:00,ZGGG 022000Z AUTO 01006KT 4SM 25/17 A2983 RMK T02500170 IEM_DS3505
ZGGG,2006-10-02 21:00,ZGGG 022100Z AUTO 03004KT 8SM 24/18 A2983 RMK SLP110 T02420179 54000 IEM_DS3505
ZGGG,2006-10-02 22:00,ZGGG 022200Z AUTO 04004KT 4SM 23/17 A2985 RMK T02300170 IEM_DS3505
ZGGG,2006-10-02 23:00,ZGGG 022300Z AUTO 00000KT 3SM 24/17 A2988 RMK T02400170 IEM_DS3505
ZGGG,2006-10-03 00:00,ZGGG 030000Z AUTO 36002KT 9SM 25/17 A2991 RMK SLP136 T02520171 52026 IEM_DS3505
ZGGG,2006-10-03 01:00,ZGGG 030100Z AUTO 3SM 26/17 A2991 RMK T02600170 IEM_DS3505
ZGGG,2006-10-03 02:00,ZGGG 030200Z AUTO 03004KT 7SM 28/16 A2991 RMK T02800160 IEM_DS3505
ZGGG,2006-10-03 03:00,ZGGG 030300Z AUTO 36002KT 9SM 30/18 A2991 RMK SLP132 T02960184 57004 IEM_DS3505
ZGGG,2006-10-03 04:00,ZGGG 030400Z AUTO 6SM 30/17 A2988 RMK T03000170 IEM_DS3505
ZGGG,2006-10-03 05:00,ZGGG 030500Z AUTO 36004KT 6SM 32/17 A2985 RMK T03200170 IEM_DS3505
ZGGG,2006-10-03 06:00,ZGGG 030600Z AUTO 34004KT 10SM 32/18 A2983 RMK SLP101 T03190185 57031 IEM_DS3505
ZGGG,2006-10-03 07:00,ZGGG 030700Z AUTO 32006KT 7SM 33/16 A2980 RMK T03300160 IEM_DS3505
ZGGG,2006-10-03 08:00,ZGGG 030800Z AUTO 32008KT 7SM 32/17 A2980 RMK T03200170 IEM_DS3505
ZGGG,2006-10-03 09:00,ZGGG 030900Z AUTO 34004KT 9SM 31/18 A2980 RMK SLP092 T03100177 57009 IEM_DS3505
ZGGG,2006-10-03 10:00,ZGGG 031000Z AUTO 35006KT 5SM 30/16 A2980 RMK T03000160 IEM_DS3505
ZGGG,2006-10-03 11:00,ZGGG 031100Z AUTO 01004KT 4SM 28/18 A2980 RMK T02800180 IEM_DS3505
ZGGG,2006-10-03 12:00,ZGGG 031200Z AUTO 02004KT 9SM 28/18 A2983 RMK SLP108 T02750185 52016 IEM_DS3505
ZGGG,2006-10-03 13:00,ZGGG 031300Z AUTO 4SM 26/19 A2983 RMK T02600190 IEM_DS3505
ZGGG,2006-10-03 14:00,ZGGG 031400Z AUTO 05002KT 4SM 27/18 A2985 RMK T02700180 IEM_DS3505
ZGGG,2006-10-03 15:00,ZGGG 031500Z AUTO 00000KT 9SM 26/18 A2985 RMK SLP111 T02620181 52003 IEM_DS3505
ZGGG,2006-10-03 16:00,ZGGG 031600Z AUTO 02004KT 4SM 25/18 A2983 RMK T02500180 IEM_DS3505
ZGGG,2006-10-03 17:00,ZGGG 031700Z AUTO 4SM 25/18 A2983 RMK T02500180 IEM_DS3505
ZGGG,2006-10-03 18:00,ZGGG 031800Z AUTO 00000KT 9SM 25/18 A2980 RMK SLP100 T02460178 57011 IEM_DS3505
ZGGG,2006-10-03 19:00,ZGGG 031900Z AUTO 02004KT 4SM 24/17 A2980 RMK T02400170 IEM_DS3505
ZGGG,2006-10-03 20:00,ZGGG 032000Z AUTO 5SM 23/18 A2980 RMK T02300180 IEM_DS3505
ZGGG,2006-10-03 21:00,ZGGG 032100Z AUTO 02002KT 8SM 24/17 A2980 RMK SLP102 T02370167 52002 IEM_DS3505
ZGGG,2006-10-03 22:00,ZGGG 032200Z AUTO 4SM 24/16 A2983 RMK T02400160 IEM_DS3505
ZGGG,2006-10-03 23:00,ZGGG 032300Z AUTO 4SM 23/17 A2985 RMK T02300170 IEM_DS3505
ZGGG,2006-10-04 00:00,ZGGG 040000Z AUTO 36002KT 7SM 26/16 A2985 RMK SLP120 T02580164 52018 IEM_DS3505
ZGGG,2006-10-04 01:00,ZGGG 040100Z AUTO 5SM 28/15 A2988 RMK T02800150 IEM_DS3505
ZGGG,2006-10-04 02:00,ZGGG 040200Z AUTO 05006KT 5SM 28/15 A2988 RMK T02800150 IEM_DS3505
ZGGG,2006-10-04 03:00,ZGGG 040300Z AUTO 02006KT 10SM 30/16 A2985 RMK SLP120 T02990156 54000 IEM_DS3505
ZGGG,2006-10-04 04:00,ZGGG 040400Z AUTO 04008KT 5SM 31/14 A2983 RMK T03100140 IEM_DS3505
ZGGG,2006-10-04 05:00,ZGGG 040500Z AUTO 01006KT 6SM 32/14 A2983 RMK T03200140 IEM_DS3505
ZGGG,2006-10-04 06:00,ZGGG 040600Z AUTO 29004KT 11SM 32/15 A2977 RMK SLP090 T03180153 57030 IEM_DS3505
ZGGG,2006-10-04 07:00,ZGGG 040700Z AUTO 7SM 32/13 A2977 RMK T03200130 IEM_DS3505
ZGGG,2006-10-04 08:00,ZGGG 040800Z AUTO 34004KT 6SM 32/15 A2977 RMK T03200150 IEM_DS3505
ZGGG,2006-10-04 09:00,ZGGG 040900Z AUTO 02002KT 9SM 31/15 A2977 RMK SLP084 T03070152 57006 IEM_DS3505
ZGGG,2006-10-04 10:00,ZGGG 041000Z AUTO 02004KT 6SM 29/17 A2977 RMK T02900170 IEM_DS3505
ZGGG,2006-10-04 11:00,ZGGG 041100Z AUTO 04004KT 4SM 28/18 A2980 RMK T02800180 IEM_DS3505
ZGGG,2006-10-04 12:00,ZGGG 041200Z AUTO 36002KT 9SM 27/16 A2980 RMK SLP100 T02710161 52016 IEM_DS3505
ZGGG,2006-10-04 13:00,ZGGG 041300Z AUTO 07002KT 4SM 26/18 A2983 RMK T02600180 IEM_DS3505
ZGGG,2006-10-04 14:00,ZGGG 041400Z AUTO 07004KT 3SM 26/18 A2983 RMK T02600180 IEM_DS3505
ZGGG,2006-10-04 15:00,ZGGG 041500Z AUTO 04002KT 11SM 26/16 A2983 RMK SLP110 T02620165 52010 IEM_DS3505
ZGGG,2006-10-04 16:00,ZGGG 041600Z AUTO 00000KT 3SM 24/18 A2983 RMK T02400180 IEM_DS3505
ZGGG,2006-10-04 17:00,ZGGG 041700Z AUTO 3SM 23/18 A2983 RMK T02300180 IEM_DS3505
ZGGG,2006-10-04 18:00,ZGGG 041800Z AUTO 36002KT 10SM 24/16 A2983 RMK SLP107 T02390164 57003 IEM_DS3505
ZGGG,2006-10-04 19:00,ZGGG 041900Z AUTO 05004KT 4SM 24/18 A2983 RMK T02400180 IEM_DS3505
ZGGG,2006-10-04 20:00,ZGGG 042000Z AUTO 00000KT 3SM 23/18 A2983 RMK T02300180 IEM_DS3505
ZGGG,2006-10-04 21:00,ZGGG 042100Z AUTO 02002KT 9SM 24/15 A2983 RMK SLP106 T02370150 57001 IEM_DS3505
ZGGG,2006-10-04 22:00,ZGGG 042200Z AUTO 3SM 22/16 A2983 RMK T02200160 IEM_DS3505
ZGGG,2006-10-04 23:00,ZGGG 042300Z AUTO 00000KT 3SM 22/18 A2985 RMK T02200180 IEM_DS3505
ZGGG,2006-10-05 00:00,ZGGG 050000Z AUTO 02002KT 9SM 26/15 A2985 RMK SLP122 T02570148 52016 IEM_DS3505
ZGGG,2006-10-05 01:00,ZGGG 050100Z AUTO 02004KT 3SM 27/16 A2988 RMK T02700160 IEM_DS3505
ZGGG,2006-10-05 02:00,ZGGG 050200Z AUTO 05008KT 4SM 29/14 A2988 RMK T02900140 IEM_DS3505
ZGGG,2006-10-05 03:00,ZGGG 050300Z AUTO 04004KT 9SM 30/16 A2988 RMK SLP125 T02970162 52003 IEM_DS3505
ZGGG,2006-10-05 04:00,ZGGG 050400Z AUTO 5SM 31/13 A2985 RMK T03100130 IEM_DS3505
ZGGG,2006-10-05 05:00,ZGGG 050500Z AUTO 34004KT 5SM 32/13 A2983 RMK T03200130 IEM_DS3505
ZGGG,2006-10-05 06:00,ZGGG 050600Z AUTO 32002KT 10SM 32/15 A2980 RMK SLP096 T03180153 57029 IEM_DS3505
ZGGG,2006-10-05 07:00,ZGGG 050700Z AUTO 6SM 32/10 A2977 RMK T03200100 IEM_DS3505
ZGGG,2006-10-05 08:00,ZGGG 050800Z AUTO 6SM 32/13 A2977 RMK T03200130 IEM_DS3505
ZGGG,2006-10-05 09:00,ZGGG 050900Z AUTO 02004KT 10SM 31/12 A2977 RMK SLP091 T03080122 57005 IEM_DS3505
ZGGG,2006-10-05 10:00,ZGGG 051000Z AUTO 35006KT 6SM 31/12 A2980 RMK T03100120 IEM_DS3505
ZGGG,2006-10-05 11:00,ZGGG 051100Z AUTO 02004KT 5SM 27/15 A2980 RMK T02700150 IEM_DS3505
ZGGG,2006-10-05 12:00,ZGGG 051200Z AUTO 01004KT 11SM 26/15 A2983 RMK SLP105 T02610152 52014 IEM_DS3505
ZGGG,2006-10-05 13:00,ZGGG 051300Z AUTO 02002KT 4SM 26/17 A2985 RMK T02600170 IEM_DS3505
ZGGG,2006-10-05 14:00,ZGGG 051400Z AUTO 00000KT 4SM 24/17 A2985 RMK T02400170 IEM_DS3505
ZGGG,2006-10-05 15:00,ZGGG 051500Z AUTO 10002KT 10SM 24/16 A2985 RMK SLP119 T02420160 52014 IEM_DS3505
ZGGG,2006-10-05 16:00,ZGGG 051600Z AUTO 10004KT 3SM 24/16 A2985 RMK T02400160 IEM_DS3505
ZGGG,2006-10-05 17:00,ZGGG 051700Z AUTO 09004KT 3SM 23/17 A2985 RMK T02300170 IEM_DS3505
ZGGG,2006-10-05 18:00,ZGGG 051800Z AUTO 08004KT 9SM 23/17 A2985 RMK SLP114 T02310169 57005 IEM_DS3505
ZGGG,2006-10-05 19:00,ZGGG 051900Z AUTO 00000KT 3SM 22/17 A2985 RMK T02200170 IEM_DS3505
ZGGG,2006-10-05 20:00,ZGGG 052000Z AUTO 10004KT 3SM 22/17 A2985 RMK T02200170 IEM_DS3505
ZGGG,2006-10-05 21:00,ZGGG 052100Z AUTO 00000KT 9SM 22/16 A2985 RMK SLP117 T02240157 52003 IEM_DS3505
ZGGG,2006-10-05 22:00,ZGGG 052200Z AUTO 3SM 21/17 A2985 RMK T02100170 IEM_DS3505
ZGGG,2006-10-05 23:00,ZGGG 052300Z AUTO 08004KT 2SM 22/17 A2988 RMK T02200170 IEM_DS3505
ZGGG,2006-10-06 00:00,ZGGG 060000Z AUTO 11004KT 9SM 25/16 A2991 RMK SLP133 T02500164 52016 IEM_DS3505
ZGGG,2006-10-06 01:00,ZGGG 060100Z AUTO 10004KT 3SM 26/15 A2991 RMK T02600150 IEM_DS3505
ZGGG,2006-10-06 02:00,ZGGG 060200Z AUTO 08004KT 4SM 28/14 A2991 RMK T02800140 IEM_DS3505
ZGGG,2006-10-06 03:00,ZGGG 060300Z AUTO 02002KT 9SM 30/18 A2991 RMK SLP131 T03000181 57002 IEM_DS3505
ZGGG,2006-10-06 04:00,ZGGG 060400Z AUTO 5SM 31/14 A2988 RMK T03100140 IEM_DS3505
ZGGG,2006-10-06 05:00,ZGGG 060500Z AUTO 01004KT 4SM 32/13 A2985 RMK T03200130 IEM_DS3505
ZGGG,2006-10-06 06:00,ZGGG 060600Z AUTO 04004KT 9SM 32/15 A2983 RMK SLP105 T03190150 57026 IEM_DS3505
ZGGG,2006-10-06 07:00,ZGGG 060700Z AUTO 33006KT 5SM 32/13 A2980 RMK T03200130 IEM_DS3505
ZGGG,2006-10-06 08:00,ZGGG 060800Z AUTO 4SM 32/14 A2980 RMK T03200140 IEM_DS3505
ZGGG,2006-10-06 09:00,ZGGG 060900Z AUTO 06004KT 9SM 31/15 A2980 RMK SLP098 T03060151 57007 IEM_DS3505
ZGGG,2006-10-06 10:00,ZGGG 061000Z AUTO 4SM 30/15 A2980 RMK T03000150 IEM_DS3505
ZGGG,2006-10-06 11:00,ZGGG 061100Z AUTO 15002KT 4SM 27/18 A2983 RMK T02700180 IEM_DS3505
ZGGG,2006-10-06 12:00,ZGGG 061200Z AUTO 07002KT 9SM 26/18 A2983 RMK SLP115 T02640185 52017 IEM_DS3505
ZGGG,2006-10-06 13:00,ZGGG 061300Z AUTO 15004KT 3SM 26/19 A2985 RMK T02600190 IEM_DS3505
ZGGG,2006-10-06 14:00,ZGGG 061400Z AUTO 3SM 26/18 A2988 RMK T02600180 IEM_DS3505
ZGGG,2006-10-06 15:00,ZGGG 061500Z AUTO 16004KT 9SM 26/21 A2988 RMK SLP127 T02620214 52012 IEM_DS3505
ZGGG,2006-10-06 16:00,ZGGG 061600Z AUTO 06002KT 3SM 24/20 A2988 RMK T02400200 IEM_DS3505
ZGGG,2006-10-06 17:00,ZGGG 061700Z AUTO 09002KT 2 1/2SM 24/19 A2988 RMK T02400190 IEM_DS3505
ZGGG,2006-10-06 18:00,ZGGG 061800Z AUTO 11004KT 8SM 25/21 A2985 RMK SLP120 T02540213 57007 IEM_DS3505
ZGGG,2006-10-06 19:00,ZGGG 061900Z AUTO 08002KT 2 1/2SM 24/20 A2985 RMK T02400200 IEM_DS3505
ZGGG,2006-10-06 20:00,ZGGG 062000Z AUTO 06002KT 2SM 23/20 A2985 RMK T02300200 IEM_DS3505
ZGGG,2006-10-06 21:00,ZGGG 062100Z AUTO 16002KT 7SM 25/20 A2985 RMK SLP117 T02510204 57003 IEM_DS3505
ZGGG,2006-10-06 22:00,ZGGG 062200Z AUTO 08004KT 2SM 24/20 A2985 RMK T02400200 IEM_DS3505
ZGGG,2006-10-06 23:00,ZGGG 062300Z AUTO 09004KT 1 1/4SM 24/19 A2988 RMK T02400190 IEM_DS3505
ZGGG,2006-10-07 00:00,ZGGG 070000Z AUTO 09004KT 3SM 26/20 A2988 RMK SLP132 T02550205 52015 IEM_DS3505
ZGGG,2006-10-07 01:00,ZGGG 070100Z AUTO 10004KT 2SM 26/19 A2991 RMK T02600190 IEM_DS3505
ZGGG,2006-10-07 02:00,ZGGG 070200Z AUTO 2SM 28/19 A2991 RMK T02800190 IEM_DS3505
ZGGG,2006-10-07 03:00,ZGGG 070300Z AUTO 00000KT 4SM 29/20 A2991 RMK SLP135 T02870196 52003 IEM_DS3505
ZGGG,2006-10-07 04:00,ZGGG 070400Z AUTO 22004KT 2 1/2SM 30/19 A2988 RMK T03000190 IEM_DS3505
ZGGG,2006-10-07 05:00,ZGGG 070500Z AUTO 2SM 30/19 A2985 RMK T03000190 IEM_DS3505
ZGGG,2006-10-07 06:00,ZGGG 070600Z AUTO 14004KT 3SM 31/19 A2983 RMK SLP109 T03070194 57026 IEM_DS3505
ZGGG,2006-10-07 07:00,ZGGG 070700Z AUTO 13004KT 2SM 31/19 A2980 RMK T03100190 IEM_DS3505
ZGGG,2006-10-07 08:00,ZGGG 070800Z AUTO 13004KT 2 1/2SM 31/20 A2980 RMK T03100200 IEM_DS3505
ZGGG,2006-10-07 09:00,ZGGG 070900Z AUTO 14004KT 3SM 30/19 A2980 RMK SLP098 T02990193 57011 IEM_DS3505
ZGGG,2006-10-07 10:00,ZGGG 071000Z AUTO 1 1/2SM 29/20 A2980 RMK T02900200 IEM_DS3505
ZGGG,2006-10-07 11:00,ZGGG 071100Z AUTO 11004KT 1 1/2SM 28/20 A2983 RMK T02800200 IEM_DS3505
ZGGG,2006-10-07 12:00,ZGGG 071200Z AUTO 14002KT 4SM 28/20 A2985 RMK SLP114 T02760197 52016 IEM_DS3505
ZGGG,2006-10-07 13:00,ZGGG 071300Z AUTO 00000KT 2SM 26/21 A2985 RMK T02600210 IEM_DS3505
ZGGG,2006-10-07 14:00,ZGGG 071400Z AUTO 13002KT 2SM 27/20 A2985 RMK T02700200 IEM_DS3505
ZGGG,2006-10-07 15:00,ZGGG 071500Z AUTO 16002KT 4SM 26/19 A2988 RMK SLP127 T02630194 52013 IEM_DS3505
ZGGG,2006-10-07 16:00,ZGGG 071600Z AUTO 3SM 25/19 A2988 RMK T02500190 IEM_DS3505
ZGGG,2006-10-07 17:00,ZGGG 071700Z AUTO 12002KT 3SM 25/20 A2988 RMK T02500200 IEM_DS3505
ZGGG,2006-10-07 18:00,ZGGG 071800Z AUTO 14002KT 6SM 25/19 A2988 RMK SLP131 T02530190 52004 IEM_DS3505
ZGGG,2006-10-07 19:00,ZGGG 071900Z AUTO 11002KT 2 1/2SM 24/20 A2988 RMK T02400200 IEM_DS3505
ZGGG,2006-10-07 20:00,ZGGG 072000Z AUTO 2 1/2SM 24/19 A2988 RMK T02400190 IEM_DS3505
ZGGG,2006-10-07 21:00,ZGGG 072100Z AUTO 18002KT 6SM 25/20 A2988 RMK SLP133 T02480196 52002 IEM_DS3505
ZGGG,2006-10-07 22:00,ZGGG 072200Z AUTO 08002KT 2SM 23/20 A2991 RMK T02300200 IEM_DS3505
ZGGG,2006-10-07 23:00,ZGGG 072300Z AUTO 09004KT 1 1/4SM 23/19 A2994 RMK T02300190 IEM_DS3505
ZGGG,2006-10-08 00:00,ZGGG 080000Z AUTO 11002KT 3SM 25/21 A2994 RMK SLP151 T02540206 52018 IEM_DS3505
ZGGG,2006-10-08 01:00,ZGGG 080100Z AUTO 06004KT 1 1/2SM 26/20 A2997 RMK T02600200 IEM_DS3505
ZGGG,2006-10-08 02:00,ZGGG 080200Z AUTO 1 1/2SM 28/20 A2997 RMK T02800200 IEM_DS3505
ZGGG,2006-10-08 03:00,ZGGG 080300Z AUTO 22002KT 2SM 29/20 A2997 RMK SLP152 T02930205 52001 IEM_DS3505
ZGGG,2006-10-08 04:00,ZGGG 080400Z AUTO 2SM 30/19 A2994 RMK T03000190 IEM_DS3505
ZGGG,2006-10-08 05:00,ZGGG 080500Z AUTO 2 1/2SM 30/19 A2991 RMK T03000190 IEM_DS3505
ZGGG,2006-10-08 06:00,ZGGG 080600Z AUTO 00000KT 2 1/2SM 30/20 A2988 RMK SLP128 T03020202 57024 IEM_DS3505
ZGGG,2006-10-08 07:00,ZGGG 080700Z AUTO 25004KT 2SM 31/19 A2988 RMK T03100190 IEM_DS3505
ZGGG,2006-10-08 08:00,ZGGG 080800Z AUTO 13004KT 2SM 30/19 A2985 RMK T03000190 IEM_DS3505
ZGGG,2006-10-08 09:00,ZGGG 080900Z AUTO 16002KT 3SM 30/20 A2985 RMK SLP119 T02990196 57009 IEM_DS3505
ZGGG,2006-10-08 10:00,ZGGG 081000Z AUTO 10002KT 1 1/4SM 29/21 A2985 RMK T02900210 IEM_DS3505
ZGGG,2006-10-08 11:00,ZGGG 081100Z AUTO 10002KT 1 1/4SM 28/21 A2988 RMK T02800210 IEM_DS3505
ZGGG,2006-10-08 12:00,ZGGG 081200Z AUTO 14002KT 4SM 27/22 A2991 RMK SLP136 T02680216 52017 IEM_DS3505
ZGGG,2006-10-08 13:00,ZGGG 081300Z AUTO 1 1/4SM 26/22 A2991 RMK T02600220 IEM_DS3505
ZGGG,2006-10-08 14:00,ZGGG 081400Z AUTO 06002KT 1 1/4SM 26/22 A2994 RMK T02600220 IEM_DS3505
ZGGG,2006-10-08 15:00,ZGGG 081500Z AUTO 11002KT 5SM 26/21 A2994 RMK SLP149 T02590213 52013 IEM_DS3505
ZGGG,2006-10-08 16:00,ZGGG 081600Z AUTO 1 1/4SM 26/22 A2994 RMK T02600220 IEM_DS3505
ZGGG,2006-10-08 17:00,ZGGG 081700Z AUTO 03002KT 1 1/4SM 26/22 A2994 RMK T02600220 IEM_DS3505
ZGGG,2006-10-08 18:00,ZGGG 081800Z AUTO 14004KT 4SM 26/21 A2991 RMK SLP142 T02630213 57007 IEM_DS3505
ZGGG,2006-10-08 19:00,ZGGG 081900Z AUTO 34006KT 2 1/2SM 26/21 A2991 RMK T02600210 IEM_DS3505
ZGGG,2006-10-08 20:00,ZGGG 082000Z AUTO 34006KT 2 1/2SM 25/20 A2991 RMK T02500200 IEM_DS3505
ZGGG,2006-10-08 21:00,ZGGG 082100Z AUTO 16002KT 4SM 26/21 A2991 RMK SLP137 T02600210 57005 IEM_DS3505
ZGGG,2006-10-08 22:00,ZGGG 082200Z AUTO 34006KT 2 1/2SM 24/19 A2994 RMK T02400190 IEM_DS3505
ZGGG,2006-10-08 23:00,ZGGG 082300Z AUTO 1 1/4SM 23/20 A2994 RMK T02300200 IEM_DS3505
ZGGG,2006-10-09 00:00,ZGGG 090000Z AUTO 29002KT 1 1/4SM 23/22 A2997 RMK 60004 70005 SLP153 T02340215 52016 IEM_DS3505
ZGGG,2006-10-09 01:00,ZGGG 090100Z AUTO 1SM 22/20 A2997 RMK T02200200 IEM_DS3505
ZGGG,2006-10-09 02:00,ZGGG 090200Z AUTO 1 1/2SM 22/20 A2997 RMK T02200200 IEM_DS3505
ZGGG,2006-10-09 03:00,ZGGG 090300Z AUTO 36002KT 1 1/4SM 23/21 A2997 RMK SLP157 T02270210 52003 IEM_DS3505
ZGGG,2006-10-09 04:00,ZGGG 090400Z AUTO 1 1/2SM 24/20 A2994 RMK T02400200 IEM_DS3505
ZGGG,2006-10-09 05:00,ZGGG 090500Z AUTO 08004KT 2SM 25/21 A2994 RMK T02500210 IEM_DS3505
ZGGG,2006-10-09 06:00,ZGGG 090600Z AUTO 04002KT 1 1/4SM 24/22 A2991 RMK 60008 SLP139 T02440217 57017 IEM_DS3505
ZGGG,2006-10-09 07:00,ZGGG 090700Z AUTO 10006KT 1 1/4SM 26/22 A2991 RMK T02600220 IEM_DS3505
ZGGG,2006-10-09 08:00,ZGGG 090800Z AUTO 10006KT 1 1/2SM 25/21 A2991 RMK T02500210 IEM_DS3505
ZGGG,2006-10-09 09:00,ZGGG 090900Z AUTO 07004KT 1 1/4SM 25/22 A2991 RMK SLP141 T02460215 52002 IEM_DS3505
ZGGG,2006-10-09 10:00,ZGGG 091000Z AUTO 07004KT 1 1/4SM 24/20 A2994 RMK T02400200 IEM_DS3505
ZGGG,2006-10-09 11:00,ZGGG 091100Z AUTO 08004KT 1 1/4SM 24/20 A2994 RMK T02400200 IEM_DS3505
ZGGG,2006-10-09 12:00,ZGGG 091200Z AUTO 07002KT 2SM 24/20 A2997 RMK SLP155 T02350204 52013 IEM_DS3505
ZGGG,2006-10-09 13:00,ZGGG 091300Z AUTO 1 1/4SM 23/20 A2997 RMK T02300200 IEM_DS3505
ZGGG,2006-10-09 14:00,ZGGG 091400Z AUTO 11004KT 1 1/4SM 23/20 A3000 RMK T02300200 IEM_DS3505
ZGGG,2006-10-09 15:00,ZGGG 091500Z AUTO 07002KT 6SM 23/21 A3000 RMK SLP167 T02330206 52012 IEM_DS3505
ZGGG,2006-10-09 16:00,ZGGG 091600Z AUTO 1 1/2SM 24/21 A3000 RMK T02400210 IEM_DS3505
ZGGG,2006-10-09 17:00,ZGGG 091700Z AUTO 08004KT 1 1/2SM 24/21 A2997 RMK T02400210 IEM_DS3505
ZGGG,2006-10-09 18:00,ZGGG 091800Z AUTO 04002KT 5SM 23/20 A2997 RMK SLP161 T02280203 57006 IEM_DS3505
ZGGG,2006-10-09 19:00,ZGGG 091900Z AUTO 08002KT 1 1/2SM 23/20 A2997 RMK T02300200 IEM_DS3505
ZGGG,2006-10-09 20:00,ZGGG 092000Z AUTO 00000KT 1 1/4SM 23/20 A2997 RMK T02300200 IEM_DS3505
ZGGG,2006-10-09 21:00,ZGGG 092100Z AUTO 02002KT 4SM 22/20 A2997 RMK 70014 SLP160 T02190202 57001 IEM_DS3505
ZGGG,2006-10-09 22:00,ZGGG 092200Z AUTO 00000KT 1SM 23/20 A2997 RMK T02300200 IEM_DS3505
ZGGG,2006-10-09 23:00,ZGGG 092300Z AUTO 11004KT 1SM 23/21 A3000 RMK T02300210 IEM_DS3505
ZGGG,2006-10-10 00:00,ZGGG 100000Z AUTO 02002KT 2 1/2SM 24/20 A3000 RMK 70009 SLP173 T02380205 52013 IEM_DS3505
ZGGG,2006-10-10 01:00,ZGGG 100100Z AUTO 07004KT 1 1/4SM 25/21 A3003 RMK T02500210 IEM_DS3505
ZGGG,2006-10-10 02:00,ZGGG 100200Z AUTO 2SM 27/21 A3003 RMK T02700210 IEM_DS3505
ZGGG,2006-10-10 03:00,ZGGG 100300Z AUTO 09002KT 3SM 29/20 A3000 RMK SLP166 T02860203 57006 IEM_DS3505
ZGGG,2006-10-10 04:00,ZGGG 100400Z AUTO 2SM 30/21 A2997 RMK T03000210 IEM_DS3505
ZGGG,2006-10-10 05:00,ZGGG 100500Z AUTO 2 1/2SM 30/20 A2994 RMK T03000200 IEM_DS3505
ZGGG,2006-10-10 06:00,ZGGG 100600Z AUTO 18002KT 2 1/2SM 29/21 A2994 RMK SLP144 T02880208 57022 IEM_DS3505
ZGGG,2006-10-10 07:00,ZGGG 100700Z AUTO 10004KT 2 1/2SM 30/19 A2991 RMK T03000190 IEM_DS3505
ZGGG,2006-10-10 08:00,ZGGG 100800Z AUTO 18004KT 2 1/2SM 31/19 A2991 RMK T03100190 IEM_DS3505
ZGGG,2006-10-10 09:00,ZGGG 100900Z AUTO 16002KT 1 1/2SM 29/20 A2991 RMK SLP139 T02860203 57005 IEM_DS3505
ZGGG,2006-10-10 10:00,ZGGG 101000Z AUTO 00000KT 2SM 28/22 A2991 RMK T02800220 IEM_DS3505
ZGGG,2006-10-10 11:00,ZGGG 101100Z AUTO 14002KT 2SM 28/21 A2994 RMK T02800210 IEM_DS3505
ZGGG,2006-10-10 12:00,ZGGG 101200Z AUTO 04002KT 3SM 27/22 A2994 RMK SLP153 T02660218 52014 IEM_DS3505
ZGGG,2006-10-10 13:00,ZGGG 101300Z AUTO 1 1/2SM 27/22 A2997 RMK T02700220 IEM_DS3505
ZGGG,2006-10-10 14:00,ZGGG 101400Z AUTO 1 1/4SM 26/22 A2997 RMK T02600220 IEM_DS3505
ZGGG,2006-10-10 15:00,ZGGG 101500Z AUTO 11002KT 4SM 26/22 A2997 RMK SLP162 T02610218 52009 IEM_DS3505
ZGGG,2006-10-10 16:00,ZGGG 101600Z AUTO 09002KT 1 1/2SM 25/21 A2997 RMK T02500210 IEM_DS3505
ZGGG,2006-10-10 17:00,ZGGG 101700Z AUTO 1 1/4SM 25/22 A2997 RMK T02500220 IEM_DS3505
ZGGG,2006-10-10 18:00,ZGGG 101800Z AUTO 18002KT 6SM 25/22 A2997 RMK SLP161 T02540217 57001 IEM_DS3505
ZGGG,2006-10-10 19:00,ZGGG 101900Z AUTO 00000KT 1 1/4SM 25/22 A2997 RMK T02500220 IEM_DS3505
ZGGG,2006-10-10 20:00,ZGGG 102000Z AUTO 00000KT 1 1/4SM 24/22 A2997 RMK T02400220 IEM_DS3505
ZGGG,2006-10-10 21:00,ZGGG 102100Z AUTO 25002KT 4SM 24/21 A2997 RMK SLP157 T02430214 57004 IEM_DS3505
ZGGG,2006-10-10 22:00,ZGGG 102200Z AUTO 1 1/4SM 24/21 A2997 RMK T02400210 IEM_DS3505
ZGGG,2006-10-10 23:00,ZGGG 102300Z AUTO 05002KT 1SM 24/22 A3000 RMK T02400220 IEM_DS3505
ZGGG,2006-10-11 00:00,ZGGG 110000Z AUTO 07002KT 2SM 25/22 A3003 RMK SLP174 T02510218 52017 IEM_DS3505
ZGGG,2006-10-11 01:00,ZGGG 110100Z AUTO 1 1/4SM 26/22 A3003 RMK T02600220 IEM_DS3505
ZGGG,2006-10-11 02:00,ZGGG 110200Z AUTO 1 1/2SM 28/22 A3003 RMK T02800220 IEM_DS3505
ZGGG,2006-10-11 03:00,ZGGG 110300Z AUTO 27002KT 2SM 29/22 A3000 RMK SLP171 T02910221 57003 IEM_DS3505
ZGGG,2006-10-11 04:00,ZGGG 110400Z AUTO 2 1/2SM 30/21 A3000 RMK T03000210 IEM_DS3505
ZGGG,2006-10-11 05:00,ZGGG 110500Z AUTO 2 1/2SM 31/20 A2997 RMK T03100200 IEM_DS3505
ZGGG,2006-10-11 06:00,ZGGG 110600Z AUTO 27004KT 3SM 32/20 A2994 RMK SLP145 T03240196 57026 IEM_DS3505
ZGGG,2006-10-11 07:00,ZGGG 110700Z AUTO 32006KT 3SM 33/17 A2991 RMK T03300170 IEM_DS3505
ZGGG,2006-10-11 08:00,ZGGG 110800Z AUTO 34004KT 4SM 33/15 A2991 RMK T03300150 IEM_DS3505
ZGGG,2006-10-11 09:00,ZGGG 110900Z AUTO 36002KT 5SM 31/19 A2991 RMK SLP140 T03130190 57005 IEM_DS3505
ZGGG,2006-10-11 10:00,ZGGG 111000Z AUTO 04002KT 4SM 29/18 A2994 RMK T02900180 IEM_DS3505
ZGGG,2006-10-11 11:00,ZGGG 111100Z AUTO 05002KT 4SM 27/19 A2994 RMK T02700190 IEM_DS3505
ZGGG,2006-10-11 12:00,ZGGG 111200Z AUTO 07002KT 8SM 27/21 A2997 RMK SLP158 T02670208 52018 IEM_DS3505
ZGGG,2006-10-11 13:00,ZGGG 111300Z AUTO 10002KT 3SM 26/20 A2997 RMK T02600200 IEM_DS3505
ZGGG,2006-10-11 14:00,ZGGG 111400Z AUTO 00000KT 3SM 25/20 A3000 RMK T02500200 IEM_DS3505
ZGGG,2006-10-11 15:00,ZGGG 111500Z AUTO 07002KT 7SM 25/22 A3000 RMK SLP166 T02540219 52008 IEM_DS3505
ZGGG,2006-10-11 16:00,ZGGG 111600Z AUTO 06002KT 2 1/2SM 24/21 A3000 RMK T02400210 IEM_DS3505
ZGGG,2006-10-11 17:00,ZGGG 111700Z AUTO 08002KT 2 1/2SM 24/20 A3000 RMK T02400200 IEM_DS3505
ZGGG,2006-10-11 18:00,ZGGG 111800Z AUTO 04002KT 6SM 25/22 A3000 RMK SLP165 T02470218 57001 IEM_DS3505
ZGGG,2006-10-11 19:00,ZGGG 111900Z AUTO 03002KT 2 1/2SM 24/20 A3000 RMK T02400200 IEM_DS3505
ZGGG,2006-10-11 20:00,ZGGG 112000Z AUTO 09002KT 1 1/2SM 24/21 A3000 RMK T02400210 IEM_DS3505
ZGGG,2006-10-11 21:00,ZGGG 112100Z AUTO 00000KT 1 1/4SM 24/22 A3000 RMK SLP168 T02410220 52003 IEM_DS3505
ZGGG,2006-10-11 22:00,ZGGG 112200Z AUTO 08002KT 1 1/4SM 23/20 A3003 RMK T02300200 IEM_DS3505
ZGGG,2006-10-11 23:00,ZGGG 112300Z AUTO 06004KT 1 1/4SM 23/20 A3003 RMK T02300200 IEM_DS3505
ZGGG,2006-10-12 00:00,ZGGG 120000Z AUTO 11002KT 1 1/4SM 24/22 A3006 RMK SLP189 T02450222 52021 IEM_DS3505
ZGGG,2006-10-12 01:00,ZGGG 120100Z AUTO 11004KT 1 1/2SM 26/21 A3006 RMK T02600210 IEM_DS3505
ZGGG,2006-10-12 02:00,ZGGG 120200Z AUTO 1 1/2SM 29/22 A3006 RMK T02900220 IEM_DS3505
ZGGG,2006-10-12 03:00,ZGGG 120300Z AUTO 07004KT 2SM 29/22 A3006 RMK SLP184 T02880223 57005 IEM_DS3505
ZGGG,2006-10-12 04:00,ZGGG 120400Z AUTO 2 1/2SM 31/20 A3003 RMK T03100200 IEM_DS3505
ZGGG,2006-10-12 05:00,ZGGG 120500Z AUTO 10004KT 2 1/2SM 32/20 A3000 RMK T03200200 IEM_DS3505
ZGGG,2006-10-12 06:00,ZGGG 120600Z AUTO 02002KT 4SM 29/22 A2997 RMK 60000 SLP156 T02930223 57028 IEM_DS3505
ZGGG,2006-10-12 07:00,ZGGG 120700Z AUTO 35004KT 3SM 31/20 A2994 RMK T03100200 IEM_DS3505
ZGGG,2006-10-12 08:00,ZGGG 120800Z AUTO 3SM 31/20 A2994 RMK T03100200 IEM_DS3505
ZGGG,2006-10-12 09:00,ZGGG 120900Z AUTO 32002KT 3SM 29/20 A2994 RMK SLP152 T02860195 57004 IEM_DS3505
ZGGG,2006-10-12 10:00,ZGGG 121000Z AUTO 1 1/4SM 29/22 A2997 RMK T02900220 IEM_DS3505
ZGGG,2006-10-12 12:00,ZGGG 121200Z AUTO 07002KT 5SM 26/22 A3000 RMK 60000 SLP168 T02610222 52016 IEM_DS3505
ZGGG,2006-10-12 15:00,ZGGG 121500Z AUTO 18002KT 5SM 26/22 RMK SLP187 T02620221 52019 IEM_DS3505
ZGGG,2006-10-12 16:00,ZGGG 121600Z AUTO 12002KT 1 1/4SM 25/22 A3006 RMK T02500220 IEM_DS3505
ZGGG,2006-10-12 17:00,ZGGG 121700Z AUTO 09002KT 1 1/4SM 25/22 A3003 RMK T02500220 IEM_DS3505
ZGGG,2006-10-12 18:00,ZGGG 121800Z AUTO 18002KT 4SM 25/22 A3003 RMK SLP176 T02500215 57011 IEM_DS3505
ZGGG,2006-10-12 19:00,ZGGG 121900Z AUTO 00000KT 1 1/4SM 24/21 A3000 RMK T02400210 IEM_DS3505
ZGGG,2006-10-12 20:00,ZGGG 122000Z AUTO 1 1/2SM 24/21 A3000 RMK T02400210 IEM_DS3505
ZGGG,2006-10-12 21:00,ZGGG 122100Z AUTO 08004KT 6SM 25/22 A3003 RMK 70000 SLP174 T02460217 57002 IEM_DS3505
ZGGG,2006-10-12 22:00,ZGGG 122200Z AUTO 00000KT 1 1/4SM 24/22 A3003 RMK T02400220 IEM_DS3505
ZGGG,2006-10-12 23:00,ZGGG 122300Z AUTO 06002KT 1SM 24/22 A3006 RMK T02400220 IEM_DS3505
ZGGG,2006-10-13 00:00,ZGGG 130000Z AUTO 04002KT 2SM 26/22 A3006 RMK 70000 SLP191 T02580221 52017 IEM_DS3505
ZGGG,2006-10-13 01:00,ZGGG 130100Z AUTO 1SM 27/22 A3009 RMK T02700220 IEM_DS3505
ZGGG,2006-10-13 02:00,ZGGG 130200Z AUTO 1 1/4SM 28/21 A3009 RMK T02800210 IEM_DS3505
ZGGG,2006-10-13 03:00,ZGGG 130300Z AUTO 18002KT 2SM 30/22 A3006 RMK SLP187 T02990216 57004 IEM_DS3505
ZGGG,2006-10-13 04:00,ZGGG 130400Z AUTO 2SM 31/21 A3003 RMK T03100210 IEM_DS3505
ZGGG,2006-10-13 05:00,ZGGG 130500Z AUTO 2 1/2SM 32/20 A3000 RMK T03200200 IEM_DS3505
ZGGG,2006-10-13 06:00,ZGGG 130600Z AUTO 09002KT 3SM 31/21 A2997 RMK SLP156 T03110207 57031 IEM_DS3505
ZGGG,2006-10-13 07:00,ZGGG 130700Z AUTO 17004KT 2 1/2SM 32/19 A2994 RMK T03200190 IEM_DS3505
ZGGG,2006-10-13 08:00,ZGGG 130800Z AUTO 2 1/2SM 32/19 A2994 RMK T03200190 IEM_DS3505
ZGGG,2006-10-13 09:00,ZGGG 130900Z AUTO 27002KT 3SM 30/22 A2994 RMK SLP146 T03040218 57010 IEM_DS3505
ZGGG,2006-10-13 10:00,ZGGG 131000Z AUTO 25004KT 2SM 31/19 A2994 RMK T03100190 IEM_DS3505
ZGGG,2006-10-13 11:00,ZGGG 131100Z AUTO 2 1/2SM 29/22 A2994 RMK T02900220 IEM_DS3505
ZGGG,2006-10-13 12:00,ZGGG 131200Z AUTO 07002KT 4SM 28/22 A2997 RMK SLP158 T02760223 52012 IEM_DS3505
ZGGG,2006-10-13 13:00,ZGGG 131300Z AUTO 14002KT 1 1/2SM 28/23 A2997 RMK T02800230 IEM_DS3505
ZGGG,2006-10-13 14:00,ZGGG 131400Z AUTO 14002KT 1 1/2SM 28/22 A3000 RMK T02800220 IEM_DS3505
ZGGG,2006-10-13 15:00,ZGGG 131500Z AUTO 14002KT 4SM 28/22 A2997 RMK SLP164 T02770224 52006 IEM_DS3505
ZGGG,2006-10-13 16:00,ZGGG 131600Z AUTO 14002KT 1 1/4SM 27/22 A2997 RMK T02700220 IEM_DS3505
ZGGG,2006-10-13 17:00,ZGGG 131700Z AUTO 11002KT 1 1/2SM 27/22 A2997 RMK T02700220 IEM_DS3505
ZGGG,2006-10-13 18:00,ZGGG 131800Z AUTO 16002KT 4SM 27/23 A2994 RMK SLP153 T02670228 57011 IEM_DS3505
ZGGG,2006-10-13 19:00,ZGGG 131900Z AUTO 08002KT 1 1/4SM 25/22 A2994 RMK T02500220 IEM_DS3505
ZGGG,2006-10-13 20:00,ZGGG 132000Z AUTO 10002KT 1 1/4SM 25/22 A2994 RMK T02500220 IEM_DS3505
ZGGG,2006-10-13 21:00,ZGGG 132100Z AUTO 14002KT 3SM 26/23 A2994 RMK SLP151 T02590226 57002 IEM_DS3505
ZGGG,2006-10-13 22:00,ZGGG 132200Z AUTO 1SM 25/22 A2997 RMK T02500220 IEM_DS3505
ZGGG,2006-10-13 23:00,ZGGG 132300Z AUTO 1SM 25/22 A2997 RMK T02500220 IEM_DS3505
ZGGG,2006-10-14 00:00,ZGGG 140000Z AUTO 20002KT 2SM 26/22 A2997 RMK SLP163 T02620223 52012 IEM_DS3505
ZGGG,2006-10-14 01:00,ZGGG 140100Z AUTO 12004KT 1 1/4SM 27/22 A3000 RMK T02700220 IEM_DS3505
ZGGG,2006-10-14 02:00,ZGGG 140200Z AUTO 1 1/4SM 28/22 A3000 RMK T02800220 IEM_DS3505
ZGGG,2006-10-14 03:00,ZGGG 140300Z AUTO 18002KT 2 1/2SM 29/22 A2997 RMK SLP159 T02910223 57004 IEM_DS3505
ZGGG,2006-10-14 04:00,ZGGG 140400Z AUTO 1 1/2SM 30/21 A2994 RMK T03000210 IEM_DS3505
ZGGG,2006-10-14 05:00,ZGGG 140500Z AUTO 1 1/2SM 31/21 A2991 RMK T03100210 IEM_DS3505
ZGGG,2006-10-14 06:00,ZGGG 140600Z AUTO 18002KT 2SM 32/22 A2988 RMK SLP126 T03160220 57033 IEM_DS3505
ZGGG,2006-10-14 07:00,ZGGG 140700Z AUTO 14004KT 1 1/2SM 32/21 A2985 RMK T03200210 IEM_DS3505
ZGGG,2006-10-14 08:00,ZGGG 140800Z AUTO 17004KT 1 1/2SM 32/22 A2985 RMK T03200220 IEM_DS3505
ZGGG,2006-10-14 09:00,ZGGG 140900Z AUTO 14004KT 2SM 30/22 A2985 RMK SLP119 T03040223 57007 IEM_DS3505
ZGGG,2006-10-14 10:00,ZGGG 141000Z AUTO 36006KT 1 1/2SM 30/22 A2985 RMK T03000220 IEM_DS3505
ZGGG,2006-10-14 11:00,ZGGG 141100Z AUTO 16006KT 1 1/2SM 29/21 A2988 RMK T02900210 IEM_DS3505
ZGGG,2006-10-14 12:00,ZGGG 141200Z AUTO 07002KT 2SM 25/23 A2991 RMK 60110 SLP138 T02520234 52019 IEM_DS3505
ZGGG,2006-10-14 13:00,ZGGG 141300Z AUTO 06006KT 2SM 26/22 A2994 RMK T02600220 IEM_DS3505
ZGGG,2006-10-14 14:00,ZGGG 141400Z AUTO 17004KT 1SM 25/23 A2994 RMK T02500230 IEM_DS3505
ZGGG,2006-10-14 15:00,ZGGG 141500Z AUTO 07002KT 7SM 25/23 A2994 RMK SLP146 T02490226 52008 IEM_DS3505
ZGGG,2006-10-14 16:00,ZGGG 141600Z AUTO 10004KT 1SM 25/23 A2994 RMK T02500230 IEM_DS3505
ZGGG,2006-10-14 17:00,ZGGG 141700Z AUTO 1SM 25/23 A2991 RMK T02500230 IEM_DS3505
ZGGG,2006-10-14 18:00,ZGGG 141800Z AUTO 09002KT 5SM 25/23 A2991 RMK 60000 SLP134 T02530230 57012 IEM_DS3505
ZGGG,2006-10-14 19:00,ZGGG 141900Z AUTO 06006KT 2 1/2SM 23/21 A2991 RMK T02300210 IEM_DS3505
ZGGG,2006-10-14 20:00,ZGGG 142000Z AUTO 2SM 23/22 A2991 RMK T02300220 IEM_DS3505
ZGGG,2006-10-14 21:00,ZGGG 142100Z AUTO 04002KT 10SM 22/21 A2991 RMK 70317 SLP136 T02230206 52002 IEM_DS3505
ZGGG,2006-10-14 22:00,ZGGG 142200Z AUTO 3SM 23/21 A2994 RMK T02300210 IEM_DS3505
ZGGG,2006-10-14 23:00,ZGGG 142300Z AUTO 2 1/2SM 23/21 A2997 RMK T02300210 IEM_DS3505
ZGGG,2006-10-15 00:00,ZGGG 150000Z AUTO 34002KT 4SM 24/22 A2997 RMK 60205 70318 SLP160 T02360222 52023 IEM_DS3505
ZGGG,2006-10-15 01:00,ZGGG 150100Z AUTO 3SM 25/22 A2997 RMK T02500220 IEM_DS3505
ZGGG,2006-10-15 02:00,ZGGG 150200Z AUTO 2 1/2SM 26/22 A2997 RMK T02600220 IEM_DS3505
ZGGG,2006-10-15 03:00,ZGGG 150300Z AUTO 02002KT 4SM 29/22 A2997 RMK SLP157 T02860224 57002 IEM_DS3505
ZGGG,2006-10-15 04:00,ZGGG 150400Z AUTO 3SM 29/22 A2994 RMK T02900220 IEM_DS3505
ZGGG,2006-10-15 05:00,ZGGG 150500Z AUTO 3SM 30/22 A2991 RMK T03000220 IEM_DS3505
ZGGG,2006-10-15 06:00,ZGGG 150600Z AUTO 18002KT 4SM 31/22 A2988 RMK SLP127 T03090220 57030 IEM_DS3505
ZGGG,2006-10-15 07:00,ZGGG 150700Z AUTO 3SM 31/20 A2985 RMK T03100200 IEM_DS3505
ZGGG,2006-10-15 08:00,ZGGG 150800Z AUTO 3SM 31/21 A2985 RMK T03100210 IEM_DS3505
ZGGG,2006-10-15 09:00,ZGGG 150900Z AUTO 14004KT 3SM 30/22 A2985 RMK SLP119 T02990218 57008 IEM_DS3505
ZGGG,2006-10-15 10:00,ZGGG 151000Z AUTO 00000KT 1 1/2SM 29/23 A2988 RMK T02900230 IEM_DS3505
ZGGG,2006-10-15 11:00,ZGGG 151100Z AUTO 2SM 28/23 A2988 RMK T02800230 IEM_DS3505
ZGGG,2006-10-15 12:00,ZGGG 151200Z AUTO 16004KT 4SM 27/23 A2991 RMK SLP145 T02720232 52026 IEM_DS3505
ZGGG,2006-10-15 13:00,ZGGG 151300Z AUTO 16004KT 1 1/2SM 27/23 A2994 RMK T02700230 IEM_DS3505
ZGGG,2006-10-15 14:00,ZGGG 151400Z AUTO 11004KT 1 1/2SM 27/23 A2997 RMK T02700230 IEM_DS3505
ZGGG,2006-10-15 15:00,ZGGG 151500Z AUTO 14002KT 6SM 27/23 A2997 RMK SLP155 T02660227 52010 IEM_DS3505
ZGGG,2006-10-15 16:00,ZGGG 151600Z AUTO 13004KT 1 1/4SM 26/23 A2994 RMK T02600230 IEM_DS3505
ZGGG,2006-10-15 17:00,ZGGG 151700Z AUTO 13002KT 1 1/4SM 26/23 A2994 RMK T02600230 IEM_DS3505
ZGGG,2006-10-15 18:00,ZGGG 151800Z AUTO 14002KT 6SM 26/23 A2994 RMK SLP146 T02620227 57009 IEM_DS3505
ZGGG,2006-10-15 19:00,ZGGG 151900Z AUTO 2SM 26/22 A2994 RMK T02600220 IEM_DS3505
ZGGG,2006-10-15 20:00,ZGGG 152000Z AUTO 1 1/4SM 26/23 A2994 RMK T02600230 IEM_DS3505
ZGGG,2006-10-15 21:00,ZGGG 152100Z AUTO 14004KT 5SM 26/22 A2994 RMK 70000 SLP146 T02580223 54000 IEM_DS3505
ZGGG,2006-10-15 22:00,ZGGG 152200Z AUTO 08002KT 1 1/4SM 25/23 A2994 RMK T02500230 IEM_DS3505
ZGGG,2006-10-15 23:00,ZGGG 152300Z AUTO 09004KT 1SM 25/23 A2997 RMK T02500230 IEM_DS3505
ZGGG,2006-10-16 00:00,ZGGG 160000Z AUTO 09004KT 1 1/4SM 26/22 A3000 RMK SLP167 T02550224 52021 IEM_DS3505
ZGGG,2006-10-16 01:00,ZGGG 160100Z AUTO 10004KT 1SM 25/22 A3003 RMK T02500220 IEM_DS3505
ZGGG,2006-10-16 02:00,ZGGG 160200Z AUTO 07004KT 1SM 25/22 A3003 RMK T02500220 IEM_DS3505
ZGGG,2006-10-16 03:00,ZGGG 160300Z AUTO 04004KT 1 1/4SM 25/23 RMK SLP176 T02500231 52009 IEM_DS3505
ZGGG,2006-10-16 04:00,ZGGG 160400Z AUTO 07004KT 1SM 25/22 A3000 RMK T02500220 IEM_DS3505
ZGGG,2006-10-16 05:00,ZGGG 160500Z AUTO 08004KT 2SM 26/22 A2997 RMK T02600220 IEM_DS3505
ZGGG,2006-10-16 06:00,ZGGG 160600Z AUTO 22002KT 4SM 24/22 A2997 RMK 60008 SLP155 T02360215 57021 IEM_DS3505
ZGGG,2006-10-16 07:00,ZGGG 160700Z AUTO 10002KT 2 1/2SM 26/21 A2994 RMK T02600210 IEM_DS3505
ZGGG,2006-10-16 08:00,ZGGG 160800Z AUTO 10004KT 2SM 27/21 A2994 RMK T02700210 IEM_DS3505
ZGGG,2006-10-16 09:00,ZGGG 160900Z AUTO 08002KT 2SM 26/21 A2994 RMK SLP150 T02560213 57005 IEM_DS3505
ZGGG,2006-10-16 10:00,ZGGG 161000Z AUTO 2 1/2SM 26/21 A2994 RMK T02600210 IEM_DS3505
ZGGG,2006-10-16 11:00,ZGGG 161100Z AUTO 10002KT 2 1/2SM 25/22 A2997 RMK T02500220 IEM_DS3505
ZGGG,2006-10-16 12:00,ZGGG 161200Z AUTO 18002KT 6SM 25/22 A2997 RMK 60001 SLP163 T02460215 52013 IEM_DS3505
ZGGG,2006-10-16 13:00,ZGGG 161300Z AUTO 14002KT 2 1/2SM 25/22 A3000 RMK T02500220 IEM_DS3505
ZGGG,2006-10-16 14:00,ZGGG 161400Z AUTO 00000KT 2SM 25/22 A3000 RMK T02500220 IEM_DS3505
ZGGG,2006-10-16 15:00,ZGGG 161500Z AUTO 14002KT 6SM 25/21 A3000 RMK SLP167 T02480213 52004 IEM_DS3505
ZGGG,2006-10-16 16:00,ZGGG 161600Z AUTO 00000KT 2SM 25/22 A3000 RMK T02500220 IEM_DS3505
ZGGG,2006-10-16 17:00,ZGGG 161700Z AUTO 2SM 25/21 A3000 RMK T02500210 IEM_DS3505
ZGGG,2006-10-16 18:00,ZGGG 161800Z AUTO 09002KT 6SM 25/22 A2997 RMK SLP161 T02480219 57007 IEM_DS3505
ZGGG,2006-10-16 19:00,ZGGG 161900Z AUTO 1 1/2SM 25/21 A2997 RMK T02500210 IEM_DS3505
ZGGG,2006-10-16 20:00,ZGGG 162000Z AUTO 1 1/2SM 25/21 A2997 RMK T02500210 IEM_DS3505
ZGGG,2006-10-16 21:00,ZGGG 162100Z AUTO 09004KT 5SM 24/21 A2997 RMK 70011 SLP159 T02450214 57001 IEM_DS3505
ZGGG,2006-10-16 22:00,ZGGG 162200Z AUTO 1 1/4SM 24/21 A2997 RMK T02400210 IEM_DS3505
ZGGG,2006-10-16 23:00,ZGGG 162300Z AUTO 1 1/4SM 24/21 A3000 RMK T02400210 IEM_DS3505
ZGGG,2006-10-17 00:00,ZGGG 170000Z AUTO 09002KT 2SM 25/22 A3003 RMK 70011 SLP176 T02480215 52016 IEM_DS3505
ZGGG,2006-10-17 01:00,ZGGG 170100Z AUTO 11004KT 2SM 26/21 A3003 RMK T02600210 IEM_DS3505
ZGGG,2006-10-17 02:00,ZGGG 170200Z AUTO 2SM 27/20 A3003 RMK T02700200 IEM_DS3505
ZGGG,2006-10-17 03:00,ZGGG 170300Z AUTO 14004KT 2SM 28/21 A3003 RMK SLP175 T02800213 54000 IEM_DS3505
ZGGG,2006-10-17 04:00,ZGGG 170400Z AUTO 2 1/2SM 29/21 A3000 RMK T02900210 IEM_DS3505
ZGGG,2006-10-17 05:00,ZGGG 170500Z AUTO 2 1/2SM 30/21 A2997 RMK T03000210 IEM_DS3505
ZGGG,2006-10-17 06:00,ZGGG 170600Z AUTO 27002KT 4SM 30/21 A2994 RMK SLP147 T03020210 57028 IEM_DS3505
ZGGG,2006-10-17 07:00,ZGGG 170700Z AUTO 18004KT 2 1/2SM 31/20 A2991 RMK T03100200 IEM_DS3505
ZGGG,2006-10-17 08:00,ZGGG 170800Z AUTO 2 1/2SM 31/20 A2991 RMK T03100200 IEM_DS3505
ZGGG,2006-10-17 09:00,ZGGG 170900Z AUTO 18002KT 3SM 29/22 A2991 RMK SLP136 T02940216 57011 IEM_DS3505
ZGGG,2006-10-17 10:00,ZGGG 171000Z AUTO 09002KT 1 1/2SM 29/22 A2991 RMK T02900220 IEM_DS3505
ZGGG,2006-10-17 11:00,ZGGG 171100Z AUTO 2SM 28/22 A2994 RMK T02800220 IEM_DS3505
ZGGG,2006-10-17 12:00,ZGGG 171200Z AUTO 14002KT 6SM 28/22 A2997 RMK SLP158 T02750222 52022 IEM_DS3505
ZGGG,2006-10-17 13:00,ZGGG 171300Z AUTO 2SM 27/22 A2997 RMK T02700220 IEM_DS3505
ZGGG,2006-10-17 14:00,ZGGG 171400Z AUTO 14002KT 2 1/2SM 27/22 A2997 RMK T02700220 IEM_DS3505
ZGGG,2006-10-17 15:00,ZGGG 171500Z AUTO 20004KT 6SM 26/22 A2997 RMK SLP157 T02620225 57001 IEM_DS3505
ZGGG,2006-10-17 16:00,ZGGG 171600Z AUTO 2SM 26/22 A2997 RMK T02600220 IEM_DS3505
ZGGG,2006-10-17 17:00,ZGGG 171700Z AUTO 2SM 26/22 A2997 RMK T02600220 IEM_DS3505
ZGGG,2006-10-17 18:00,ZGGG 171800Z AUTO 18002KT 6SM 26/22 A2994 RMK SLP152 T02580223 57005 IEM_DS3505
ZGGG,2006-10-17 19:00,ZGGG 171900Z AUTO 14004KT 2SM 26/22 A2994 RMK T02600220 IEM_DS3505
ZGGG,2006-10-17 20:00,ZGGG 172000Z AUTO 14004KT 2SM 26/22 A2994 RMK T02600220 IEM_DS3505
ZGGG,2006-10-17 21:00,ZGGG 172100Z AUTO 14002KT 5SM 26/22 A2994 RMK SLP150 T02550220 57002 IEM_DS3505
ZGGG,2006-10-17 22:00,ZGGG 172200Z AUTO 2SM 26/22 A2997 RMK T02600220 IEM_DS3505
ZGGG,2006-10-17 23:00,ZGGG 172300Z AUTO 1 1/4SM 26/22 A2997 RMK T02600220 IEM_DS3505
ZGGG,2006-10-18 00:00,ZGGG 180000Z AUTO 14002KT 2SM 26/22 A3000 RMK SLP168 T02610220 52018 IEM_DS3505
ZGGG,2006-10-18 01:00,ZGGG 180100Z AUTO 13004KT 1 1/2SM 27/22 A3003 RMK T02700220 IEM_DS3505
ZGGG,2006-10-18 02:00,ZGGG 180200Z AUTO 35006KT 3SM 26/22 A3003 RMK T02600220 IEM_DS3505
ZGGG,2006-10-18 03:00,ZGGG 180300Z AUTO 14004KT 2 1/2SM 28/22 A3003 RMK SLP173 T02790219 52005 IEM_DS3505
ZGGG,2006-10-18 04:00,ZGGG 180400Z AUTO 03006KT 1 1/4SM 26/22 A3000 RMK T02600220 IEM_DS3505
ZGGG,2006-10-18 05:00,ZGGG 180500Z AUTO 03004KT 1 1/2SM 27/22 A2997 RMK T02700220 IEM_DS3505
ZGGG,2006-10-18 06:00,ZGGG 180600Z AUTO 18002KT 3SM 29/22 A2997 RMK 60000 SLP149 T02930218 57024 IEM_DS3505
ZGGG,2006-10-18 07:00,ZGGG 180700Z AUTO 05006KT 2SM 28/23 A2994 RMK T02800230 IEM_DS3505
ZGGG,2006-10-18 08:00,ZGGG 180800Z AUTO 08004KT 2SM 28/23 A2994 RMK T02800230 IEM_DS3505
ZGGG,2006-10-18 09:00,ZGGG 180900Z AUTO 09006KT 2 1/2SM 28/22 A2991 RMK SLP140 T02820222 57009 IEM_DS3505
ZGGG,2006-10-18 10:00,ZGGG 181000Z AUTO 08004KT 1 1/4SM 27/22 A2994 RMK T02700220 IEM_DS3505
ZGGG,2006-10-18 11:00,ZGGG 181100Z AUTO 08004KT 2SM 26/22 A2994 RMK T02600220 IEM_DS3505
ZGGG,2006-10-18 12:00,ZGGG 181200Z AUTO 00000KT 4SM 26/22 A2997 RMK SLP159 T02620218 52019 IEM_DS3505
ZGGG,2006-10-18 13:00,ZGGG 181300Z AUTO 2SM 25/22 A3000 RMK T02500220 IEM_DS3505
ZGGG,2006-10-18 14:00,ZGGG 181400Z AUTO 08004KT 2SM 25/21 A3000 RMK T02500210 IEM_DS3505
ZGGG,2006-10-18 15:00,ZGGG 181500Z AUTO 09004KT 6SM 24/21 A3000 RMK SLP171 T02450208 52012 IEM_DS3505
ZGGG,2006-10-18 16:00,ZGGG 181600Z AUTO 14004KT 3SM 25/21 A3000 RMK T02500210 IEM_DS3505
ZGGG,2006-10-18 17:00,ZGGG 181700Z AUTO 16004KT 2 1/2SM 24/21 A3000 RMK T02400210 IEM_DS3505
ZGGG,2006-10-18 18:00,ZGGG 181800Z AUTO 07002KT 5SM 25/22 A3000 RMK 60000 SLP168 T02460217 57003 IEM_DS3505
ZGGG,2006-10-18 19:00,ZGGG 181900Z AUTO 14004KT 1 1/4SM 24/21 A3000 RMK T02400210 IEM_DS3505
ZGGG,2006-10-18 20:00,ZGGG 182000Z AUTO 00000KT 1 1/2SM 24/22 A2997 RMK T02400220 IEM_DS3505
ZGGG,2006-10-18 21:00,ZGGG 182100Z AUTO 04002KT 4SM 24/22 A3000 RMK 70000 SLP165 T02440221 57003 IEM_DS3505
ZGGG,2006-10-18 22:00,ZGGG 182200Z AUTO 00000KT 1 1/4SM 24/22 A3000 RMK T02400220 IEM_DS3505
ZGGG,2006-10-18 23:00,ZGGG 182300Z AUTO 07002KT 1SM 24/22 A3003 RMK T02400220 IEM_DS3505
ZGGG,2006-10-19 00:00,ZGGG 190000Z AUTO 14002KT 3SM 25/22 A3003 RMK 60000 70000 SLP183 T02480223 52018 IEM_DS3505
ZGGG,2006-10-19 01:00,ZGGG 190100Z AUTO 09004KT 1 1/4SM 26/22 A3006 RMK T02600220 IEM_DS3505
ZGGG,2006-10-19 02:00,ZGGG 190200Z AUTO 08004KT 2SM 27/22 A3006 RMK T02700220 IEM_DS3505
ZGGG,2006-10-19 03:00,ZGGG 190300Z AUTO 09004KT 2SM 28/22 A3006 RMK SLP183 T02790217 54000 IEM_DS3505
ZGGG,2006-10-19 04:00,ZGGG 190400Z AUTO 2 1/2SM 28/22 A3003 RMK T02800220 IEM_DS3505
ZGGG,2006-10-19 05:00,ZGGG 190500Z AUTO 2 1/2SM 29/21 A3000 RMK T02900210 IEM_DS3505
ZGGG,2006-10-19 06:00,ZGGG 190600Z AUTO 29002KT 6SM 29/22 A2997 RMK SLP159 T02940219 57024 IEM_DS3505
ZGGG,2006-10-19 07:00,ZGGG 190700Z AUTO 30006KT 2SM 29/21 A2997 RMK T02900210 IEM_DS3505
ZGGG,2006-10-19 08:00,ZGGG 190800Z AUTO 30004KT 2SM 29/21 A2997 RMK T02900210 IEM_DS3505
ZGGG,2006-10-19 09:00,ZGGG 190900Z AUTO 32002KT 2SM 28/22 A2997 RMK SLP157 T02800218 57002 IEM_DS3505
ZGGG,2006-10-19 10:00,ZGGG 191000Z AUTO 31004KT 1 1/4SM 28/21 A2997 RMK T02800210 IEM_DS3505
ZGGG,2006-10-19 11:00,ZGGG 191100Z AUTO 35004KT 2 1/2SM 28/22 A2997 RMK T02800220 IEM_DS3505
ZGGG,2006-10-19 12:00,ZGGG 191200Z AUTO 36002KT 5SM 26/23 A3000 RMK SLP168 T02610226 52011 IEM_DS3505
ZGGG,2006-10-19 13:00,ZGGG 191300Z AUTO 00000KT 1 1/2SM 25/23 A3003 RMK T02500230 IEM_DS3505
ZGGG,2006-10-19 14:00,ZGGG 191400Z AUTO 10002KT 1 1/2SM 25/23 A3003 RMK T02500230 IEM_DS3505
ZGGG,2006-10-19 15:00,ZGGG 191500Z AUTO 36002KT 5SM 25/22 A3003 RMK SLP177 T02490224 52009 IEM_DS3505
ZGGG,2006-10-19 16:00,ZGGG 191600Z AUTO 00000KT 1SM 24/22 A3003 RMK T02400220 IEM_DS3505
ZGGG,2006-10-19 17:00,ZGGG 191700Z AUTO 00000KT 1 1/2SM 24/22 A3000 RMK T02400220 IEM_DS3505
ZGGG,2006-10-19 18:00,ZGGG 191800Z AUTO 01002KT 2SM 24/22 A3000 RMK SLP166 T02420223 57011 IEM_DS3505
ZGGG,2006-10-19 19:00,ZGGG 191900Z AUTO 07002KT 1 1/4SM 23/21 A3000 RMK T02300210 IEM_DS3505
ZGGG,2006-10-19 20:00,ZGGG 192000Z AUTO 08002KT 1SM 24/22 A3000 RMK T02400220 IEM_DS3505
ZGGG,2006-10-19 21:00,ZGGG 192100Z AUTO 07002KT 2SM 24/22 A3000 RMK SLP168 T02390223 52002 IEM_DS3505
ZGGG,2006-10-19 22:00,ZGGG 192200Z AUTO 1SM 23/21 A3003 RMK T02300210 IEM_DS3505
ZGGG,2006-10-19 23:00,ZGGG 192300Z AUTO 11002KT 1SM 23/21 A3006 RMK T02300210 IEM_DS3505
ZGGG,2006-10-20 00:00,ZGGG 200000Z AUTO 00000KT 1SM 25/23 A3006 RMK SLP190 T02500231 52022 IEM_DS3505
ZGGG,2006-10-20 01:00,ZGGG 200100Z AUTO 00000KT 1SM 26/22 A3009 RMK T02600220 IEM_DS3505
ZGGG,2006-10-20 02:00,ZGGG 200200Z AUTO 1 1/4SM 27/22 A3009 RMK T02700220 IEM_DS3505
ZGGG,2006-10-20 03:00,ZGGG 200300Z AUTO 22002KT 2 1/2SM 30/22 A3006 RMK SLP190 T02960215 54000 IEM_DS3505
ZGGG,2006-10-20 04:00,ZGGG 200400Z AUTO 26004KT 2 1/2SM 30/21 A3003 RMK T03000210 IEM_DS3505
ZGGG,2006-10-20 05:00,ZGGG 200500Z AUTO 2 1/2SM 31/23 A3000 RMK T03100230 IEM_DS3505
ZGGG,2006-10-20 06:00,ZGGG 200600Z AUTO 32002KT 2 1/2SM 31/22 A2997 RMK SLP161 T03140219 57029 IEM_DS3505
ZGGG,2006-10-20 07:00,ZGGG 200700Z AUTO 2 1/2SM 31/22 A2997 RMK T03100220 IEM_DS3505
ZGGG,2006-10-20 08:00,ZGGG 200800Z AUTO 00000KT 3SM 31/21 A2994 RMK T03100210 IEM_DS3505
ZGGG,2006-10-20 09:00,ZGGG 200900Z AUTO 36002KT 4SM 31/22 A2994 RMK SLP151 T03080216 57010 IEM_DS3505
ZGGG,2006-10-20 10:00,ZGGG 201000Z AUTO 06002KT 2SM 30/22 A2997 RMK T03000220 IEM_DS3505
ZGGG,2006-10-20 11:00,ZGGG 201100Z AUTO 07002KT 1 1/2SM 27/23 A2997 RMK T02700230 IEM_DS3505
ZGGG,2006-10-20 12:00,ZGGG 201200Z AUTO 09002KT 6SM 27/23 A3000 RMK SLP168 T02740226 52017 IEM_DS3505
ZGGG,2006-10-20 13:00,ZGGG 201300Z AUTO 2SM 27/23 A3003 RMK T02700230 IEM_DS3505
ZGGG,2006-10-20 14:00,ZGGG 201400Z AUTO 00000KT 1 1/2SM 26/23 A3003 RMK T02600230 IEM_DS3505
ZGGG,2006-10-20 15:00,ZGGG 201500Z AUTO 11002KT 4SM 26/23 A3003 RMK SLP176 T02640233 52008 IEM_DS3505
ZGGG,2006-10-20 16:00,ZGGG 201600Z AUTO 2SM 25/23 A3000 RMK T02500230 IEM_DS3505
ZGGG,2006-10-20 17:00,ZGGG 201700Z AUTO 05002KT 1 1/2SM 25/23 A3000 RMK T02500230 IEM_DS3505
ZGGG,2006-10-20 18:00,ZGGG 201800Z AUTO 07002KT 1 1/4SM 25/23 A3000 RMK SLP165 T02530228 57011 IEM_DS3505
ZGGG,2006-10-20 19:00,ZGGG 201900Z AUTO 1 1/2SM 25/22 A2997 RMK T02500220 IEM_DS3505
ZGGG,2006-10-20 20:00,ZGGG 202000Z AUTO 00000KT 1 1/2SM 25/22 A2997 RMK T02500220 IEM_DS3505
ZGGG,2006-10-20 21:00,ZGGG 202100Z AUTO 09002KT 1 1/4SM 25/23 A2997 RMK SLP163 T02470228 57002 IEM_DS3505
ZGGG,2006-10-20 22:00,ZGGG 202200Z AUTO 1 1/4SM 25/22 A3000 RMK T02500220 IEM_DS3505
ZGGG,2006-10-20 23:00,ZGGG 202300Z AUTO 05002KT 1SM 25/22 A3003 RMK T02500220 IEM_DS3505
ZGGG,2006-10-21 00:00,ZGGG 210000Z AUTO 04002KT 1SM 26/23 A3003 RMK SLP181 T02570228 52018 IEM_DS3505
ZGGG,2006-10-21 01:00,ZGGG 210100Z AUTO 04004KT 1 1/2SM 27/23 A3006 RMK T02700230 IEM_DS3505
ZGGG,2006-10-21 02:00,ZGGG 210200Z AUTO 07004KT 2SM 28/22 A3006 RMK T02800220 IEM_DS3505
ZGGG,2006-10-21 03:00,ZGGG 210300Z AUTO 04004KT 2SM 30/23 A3003 RMK SLP179 T02980228 57002 IEM_DS3505
ZGGG,2006-10-21 04:00,ZGGG 210400Z AUTO 09004KT 2 1/2SM 31/22 A3000 RMK T03100220 IEM_DS3505
ZGGG,2006-10-21 05:00,ZGGG 210500Z AUTO 02004KT 2 1/2SM 31/22 A2997 RMK T03100220 IEM_DS3505
ZGGG,2006-10-21 06:00,ZGGG 210600Z AUTO 16004KT 1 1/4SM 30/22 A2994 RMK SLP150 T02970224 57029 IEM_DS3505
ZGGG,2006-10-21 07:00,ZGGG 210700Z AUTO 3SM 32/22 A2991 RMK T03200220 IEM_DS3505
ZGGG,2006-10-21 08:00,ZGGG 210800Z AUTO 18008KT 1 1/2SM 29/23 A2994 RMK T02900230 IEM_DS3505
ZGGG,2006-10-21 09:00,ZGGG 210900Z AUTO 20002KT 2 1/2SM 29/21 A2994 RMK SLP149 T02880208 57001 IEM_DS3505
ZGGG,2006-10-21 10:00,ZGGG 211000Z AUTO 1 1/4SM 29/23 A2994 RMK T02900230 IEM_DS3505
ZGGG,2006-10-21 11:00,ZGGG 211100Z AUTO 00000KT 1SM 27/23 A2997 RMK T02700230 IEM_DS3505
ZGGG,2006-10-21 12:00,ZGGG 211200Z AUTO 00000KT 6SM 26/20 A3000 RMK 60000 SLP166 T02630204 52017 IEM_DS3505
ZGGG,2006-10-21 13:00,ZGGG 211300Z AUTO 1 1/2SM 26/23 A3000 RMK T02600230 IEM_DS3505
ZGGG,2006-10-21 14:00,ZGGG 211400Z AUTO 04002KT 1 1/4SM 25/23 A3000 RMK T02500230 IEM_DS3505
ZGGG,2006-10-21 15:00,ZGGG 211500Z AUTO 04002KT 5SM 25/22 A3000 RMK SLP172 T02540215 52006 IEM_DS3505
ZGGG,2006-10-21 16:00,ZGGG 211600Z AUTO 1 1/2SM 25/23 A3000 RMK T02500230 IEM_DS3505
ZGGG,2006-10-21 17:00,ZGGG 211700Z AUTO 11002KT 1SM 25/23 A3000 RMK T02500230 IEM_DS3505
ZGGG,2006-10-21 18:00,ZGGG 211800Z AUTO 14002KT 4SM 25/21 A2997 RMK SLP159 T02470212 57013 IEM_DS3505
ZGGG,2006-10-21 19:00,ZGGG 211900Z AUTO 00000KT 1 1/4SM 24/22 A2997 RMK T02400220 IEM_DS3505
ZGGG,2006-10-21 20:00,ZGGG 212000Z AUTO 1 1/4SM 24/22 A2997 RMK T02400220 IEM_DS3505
ZGGG,2006-10-21 21:00,ZGGG 212100Z AUTO 07002KT 5SM 24/21 A2997 RMK 70000 SLP158 T02430212 57001 IEM_DS3505
ZGGG,2006-10-21 22:00,ZGGG 212200Z AUTO 00000KT 1 1/4SM 24/22 A3000 RMK T02400220 IEM_DS3505
ZGGG,2006-10-21 23:00,ZGGG 212300Z AUTO 03002KT 1SM 24/22 A3000 RMK T02400220 IEM_DS3505
ZGGG,2006-10-22 00:00,ZGGG 220000Z AUTO 07002KT 3SM 25/22 A3003 RMK 70000 SLP180 T02530220 52022 IEM_DS3505
ZGGG,2006-10-22 01:00,ZGGG 220100Z AUTO 1SM 26/23 A3006 RMK T02600230 IEM_DS3505
ZGGG,2006-10-22 02:00,ZGGG 220200Z AUTO 1SM 28/22 A3006 RMK T02800220 IEM_DS3505
ZGGG,2006-10-22 03:00,ZGGG 220300Z AUTO 16002KT 2 1/2SM 29/21 A3003 RMK SLP177 T02920209 57003 IEM_DS3505
ZGGG,2006-10-22 04:00,ZGGG 220400Z AUTO 2 1/2SM 31/20 A3000 RMK T03100200 IEM_DS3505
ZGGG,2006-10-22 05:00,ZGGG 220500Z AUTO 2 1/2SM 31/21 A2997 RMK T03100210 IEM_DS3505
ZGGG,2006-10-22 06:00,ZGGG 220600Z AUTO 36002KT 2SM 31/21 A2994 RMK SLP146 T03090208 57031 IEM_DS3505
ZGGG,2006-10-22 07:00,ZGGG 220700Z AUTO 29004KT 2 1/2SM 32/20 A2991 RMK T03200200 IEM_DS3505
ZGGG,2006-10-22 08:00,ZGGG 220800Z AUTO 23006KT 2 1/2SM 31/20 A2991 RMK T03100200 IEM_DS3505
ZGGG,2006-10-22 09:00,ZGGG 220900Z AUTO 32002KT 2SM 30/21 A2991 RMK SLP137 T03010212 57009 IEM_DS3505
ZGGG,2006-10-22 10:00,ZGGG 221000Z AUTO 24004KT 2SM 30/21 A2991 RMK T03000210 IEM_DS3505
ZGGG,2006-10-22 11:00,ZGGG 221100Z AUTO 28004KT 2SM 30/21 A2994 RMK T03000210 IEM_DS3505
ZGGG,2006-10-22 12:00,ZGGG 221200Z AUTO 04002KT 5SM 27/23 A2994 RMK SLP153 T02670228 52016 IEM_DS3505
ZGGG,2006-10-22 13:00,ZGGG 221300Z AUTO 10002KT 1 1/2SM 27/22 A2997 RMK T02700220 IEM_DS3505
ZGGG,2006-10-22 14:00,ZGGG 221400Z AUTO 00000KT 1 1/4SM 26/23 A2997 RMK T02600230 IEM_DS3505
ZGGG,2006-10-22 15:00,ZGGG 221500Z AUTO 07002KT 4SM 26/22 A2997 RMK SLP157 T02580223 52004 IEM_DS3505
ZGGG,2006-10-22 16:00,ZGGG 221600Z AUTO 00000KT 1 1/4SM 26/23 A2997 RMK T02600230 IEM_DS3505
ZGGG,2006-10-22 17:00,ZGGG 221700Z AUTO 1SM 25/23 A2997 RMK T02500230 IEM_DS3505
ZGGG,2006-10-22 18:00,ZGGG 221800Z AUTO 04002KT 3SM 25/22 A2994 RMK SLP152 T02490224 57005 IEM_DS3505
ZGGG,2006-10-22 19:00,ZGGG 221900Z AUTO 1 1/4SM 25/22 A2994 RMK T02500220 IEM_DS3505
ZGGG,2006-10-22 20:00,ZGGG 222000Z AUTO 10002KT 1SM 25/22 A2994 RMK T02500220 IEM_DS3505
ZGGG,2006-10-22 21:00,ZGGG 222100Z AUTO 00000KT 1 1/4SM 24/23 A2997 RMK SLP153 T02430226 52001 IEM_DS3505
ZGGG,2006-10-22 22:00,ZGGG 222200Z AUTO 14002KT 1SM 25/22 A2997 RMK T02500220 IEM_DS3505
ZGGG,2006-10-22 23:00,ZGGG 222300Z AUTO 11002KT 1SM 24/22 A3000 RMK T02400220 IEM_DS3505
ZGGG,2006-10-23 00:00,ZGGG 230000Z AUTO 02002KT 1 1/4SM 26/23 A3000 RMK SLP172 T02580227 52019 IEM_DS3505
ZGGG,2006-10-23 01:00,ZGGG 230100Z AUTO 1 1/4SM 28/22 A3003 RMK T02800220 IEM_DS3505
ZGGG,2006-10-23 02:00,ZGGG 230200Z AUTO 3SM 30/21 A3003 RMK T03000210 IEM_DS3505
ZGGG,2006-10-23 03:00,ZGGG 230300Z AUTO 09004KT 5SM 31/21 A3003 RMK SLP174 T03070212 52002 IEM_DS3505
ZGGG,2006-10-23 04:00,ZGGG 230400Z AUTO 01006KT 3SM 31/21 A3000 RMK T03100210 IEM_DS3505
ZGGG,2006-10-23 05:00,ZGGG 230500Z AUTO 02008KT 3SM 31/21 A2997 RMK T03100210 IEM_DS3505
ZGGG,2006-10-23 06:00,ZGGG 230600Z AUTO 07004KT 7SM 32/22 A2997 RMK SLP152 T03200215 57022 IEM_DS3505
ZGGG,2006-10-23 07:00,ZGGG 230700Z AUTO 01006KT 3SM 32/21 A2994 RMK T03200210 IEM_DS3505
ZGGG,2006-10-23 08:00,ZGGG 230800Z AUTO 02008KT 3SM 31/21 A2994 RMK T03100210 IEM_DS3505
ZGGG,2006-10-23 09:00,ZGGG 230900Z AUTO 02004KT 7SM 30/22 A2994 RMK SLP148 T02960215 57004 IEM_DS3505
ZGGG,2006-10-23 10:00,ZGGG 231000Z AUTO 02006KT 2 1/2SM 29/21 A2997 RMK T02900210 IEM_DS3505
ZGGG,2006-10-23 11:00,ZGGG 231100Z AUTO 02006KT 2 1/2SM 28/21 A2997 RMK T02800210 IEM_DS3505
ZGGG,2006-10-23 12:00,ZGGG 231200Z AUTO 04002KT 6SM 27/22 A3000 RMK SLP166 T02730216 52018 IEM_DS3505
ZGGG,2006-10-23 13:00,ZGGG 231300Z AUTO 02004KT 3SM 26/21 A3003 RMK T02600210 IEM_DS3505
ZGGG,2006-10-23 14:00,ZGGG 231400Z AUTO 2 1/2SM 26/21 A3003 RMK T02600210 IEM_DS3505
ZGGG,2006-10-23 15:00,ZGGG 231500Z AUTO 07002KT 7SM 27/21 A3003 RMK SLP182 T02670210 52016 IEM_DS3505
ZGGG,2006-10-23 16:00,ZGGG 231600Z AUTO 07004KT 2 1/2SM 26/21 A3006 RMK T02600210 IEM_DS3505
ZGGG,2006-10-23 17:00,ZGGG 231700Z AUTO 07004KT 2 1/2SM 26/20 A3003 RMK T02600200 IEM_DS3505
ZGGG,2006-10-23 18:00,ZGGG 231800Z AUTO 09002KT 7SM 26/22 A3003 RMK SLP177 T02600221 57005 IEM_DS3505
ZGGG,2006-10-23 19:00,ZGGG 231900Z AUTO 2 1/2SM 25/20 A3003 RMK T02500200 IEM_DS3505
ZGGG,2006-10-23 20:00,ZGGG 232000Z AUTO 3SM 25/20 A3003 RMK T02500200 IEM_DS3505
ZGGG,2006-10-23 21:00,ZGGG 232100Z AUTO 09002KT 7SM 25/22 A3003 RMK SLP179 T02530216 52002 IEM_DS3505
ZGGG,2006-10-23 22:00,ZGGG 232200Z AUTO 06004KT 3SM 24/20 A3006 RMK T02400200 IEM_DS3505
ZGGG,2006-10-23 23:00,ZGGG 232300Z AUTO 3SM 25/20 A3006 RMK T02500200 IEM_DS3505
ZGGG,2006-10-24 00:00,ZGGG 240000Z AUTO 02002KT 5SM 25/20 A3006 RMK SLP191 T02540204 52012 IEM_DS3505
ZGGG,2006-10-24 01:00,ZGGG 240100Z AUTO 3SM 26/19 A3009 RMK T02600190 IEM_DS3505
ZGGG,2006-10-24 02:00,ZGGG 240200Z AUTO 02004KT 3SM 27/19 A3012 RMK T02700190 IEM_DS3505
ZGGG,2006-10-24 03:00,ZGGG 240300Z AUTO 02002KT 6SM 29/20 A3009 RMK SLP197 T02890198 52006 IEM_DS3505
ZGGG,2006-10-24 04:00,ZGGG 240400Z AUTO 3SM 29/19 A3009 RMK T02900190 IEM_DS3505
ZGGG,2006-10-24 05:00,ZGGG 240500Z AUTO 03004KT 3SM 30/19 A3006 RMK T03000190 IEM_DS3505
ZGGG,2006-10-24 06:00,ZGGG 240600Z AUTO 07002KT 6SM 30/20 A3003 RMK SLP173 T02990202 57024 IEM_DS3505
ZGGG,2006-10-24 07:00,ZGGG 240700Z AUTO 4SM 30/19 A3000 RMK T03000190 IEM_DS3505
ZGGG,2006-10-24 08:00,ZGGG 240800Z AUTO 4SM 30/20 A3000 RMK T03000200 IEM_DS3505
ZGGG,2006-10-24 09:00,ZGGG 240900Z AUTO 36004KT 5SM 30/20 A3000 RMK SLP172 T02960202 57001 IEM_DS3505
ZGGG,2006-10-24 10:00,ZGGG 241000Z AUTO 3SM 29/19 A3003 RMK T02900190 IEM_DS3505
ZGGG,2006-10-24 11:00,ZGGG 241100Z AUTO 3SM 27/20 A3003 RMK T02700200 IEM_DS3505
ZGGG,2006-10-24 12:00,ZGGG 241200Z AUTO 07002KT 6SM 27/21 A3006 RMK SLP187 T02740214 52015 IEM_DS3505
ZGGG,2006-10-24 13:00,ZGGG 241300Z AUTO 02004KT 2 1/2SM 26/20 A3006 RMK T02600200 IEM_DS3505
ZGGG,2006-10-24 14:00,ZGGG 241400Z AUTO 06004KT 2 1/2SM 25/22 A3009 RMK T02500220 IEM_DS3505
ZGGG,2006-10-24 15:00,ZGGG 241500Z AUTO 11002KT 6SM 26/22 A3009 RMK SLP195 T02630215 52008 IEM_DS3505
ZGGG,2006-10-24 16:00,ZGGG 241600Z AUTO 2 1/2SM 25/22 A3009 RMK T02500220 IEM_DS3505
ZGGG,2006-10-24 17:00,ZGGG 241700Z AUTO 06004KT 2 1/2SM 25/21 A3006 RMK T02500210 IEM_DS3505
ZGGG,2006-10-24 18:00,ZGGG 241800Z AUTO 00000KT 5SM 25/22 A3006 RMK SLP188 T02500219 57007 IEM_DS3505
ZGGG,2006-10-24 19:00,ZGGG 241900Z AUTO 09004KT 2 1/2SM 24/21 A3006 RMK T02400210 IEM_DS3505
ZGGG,2006-10-24 20:00,ZGGG 242000Z AUTO 07004KT 2 1/2SM 24/20 A3006 RMK T02400200 IEM_DS3505
ZGGG,2006-10-24 21:00,ZGGG 242100Z AUTO 07002KT 5SM 24/21 A3006 RMK SLP186 T02360211 57002 IEM_DS3505
ZGGG,2006-10-24 22:00,ZGGG 242200Z AUTO 00000KT 2 1/2SM 23/20 A3006 RMK T02300200 IEM_DS3505
ZGGG,2006-10-24 23:00,ZGGG 242300Z AUTO 07002KT 2 1/2SM 23/20 A3009 RMK T02300200 IEM_DS3505
ZGGG,2006-10-25 00:00,ZGGG 250000Z AUTO 36002KT 6SM 25/20 A3012 RMK SLP201 T02510199 52015 IEM_DS3505
ZGGG,2006-10-25 01:00,ZGGG 250100Z AUTO 2 1/2SM 26/19 A3012 RMK T02600190 IEM_DS3505
ZGGG,2006-10-25 02:00,ZGGG 250200Z AUTO 06006KT 3SM 28/17 A3012 RMK T02800170 IEM_DS3505
ZGGG,2006-10-25 03:00,ZGGG 250300Z AUTO 07004KT 7SM 29/19 A3009 RMK SLP199 T02920186 57002 IEM_DS3505
ZGGG,2006-10-25 04:00,ZGGG 250400Z AUTO 36006KT 4SM 30/18 A3006 RMK T03000180 IEM_DS3505
ZGGG,2006-10-25 05:00,ZGGG 250500Z AUTO 36004KT 4SM 31/18 A3006 RMK T03100180 IEM_DS3505
ZGGG,2006-10-25 06:00,ZGGG 250600Z AUTO 16004KT 9SM 31/19 A3003 RMK SLP172 T03070191 57027 IEM_DS3505
ZGGG,2006-10-25 07:00,ZGGG 250700Z AUTO 03004KT 4SM 31/17 A3000 RMK T03100170 IEM_DS3505
ZGGG,2006-10-25 08:00,ZGGG 250800Z AUTO 04004KT 4SM 30/18 A3000 RMK T03000180 IEM_DS3505
ZGGG,2006-10-25 09:00,ZGGG 250900Z AUTO 07002KT 8SM 30/19 A3000 RMK SLP168 T02950192 57004 IEM_DS3505
ZGGG,2006-10-25 10:00,ZGGG 251000Z AUTO 35006KT 4SM 29/17 A3000 RMK T02900170 IEM_DS3505
ZGGG,2006-10-25 11:00,ZGGG 251100Z AUTO 35004KT 3SM 28/18 A3003 RMK T02800180 IEM_DS3505
ZGGG,2006-10-25 12:00,ZGGG 251200Z AUTO 04002KT 7SM 27/19 A3006 RMK SLP182 T02720190 52014 IEM_DS3505
ZGGG,2006-10-25 13:00,ZGGG 251300Z AUTO 02002KT 4SM 26/20 A3006 RMK T02600200 IEM_DS3505
ZGGG,2006-10-25 14:00,ZGGG 251400Z AUTO 03004KT 4SM 26/19 A3006 RMK T02600190 IEM_DS3505
ZGGG,2006-10-25 15:00,ZGGG 251500Z AUTO 11004KT 7SM 27/19 A3006 RMK SLP191 T02680187 52009 IEM_DS3505
ZGGG,2006-10-25 16:00,ZGGG 251600Z AUTO 02008KT 4SM 25/16 A3006 RMK T02500160 IEM_DS3505
ZGGG,2006-10-25 17:00,ZGGG 251700Z AUTO 02004KT 4SM 24/17 A3006 RMK T02400170 IEM_DS3505
ZGGG,2006-10-25 18:00,ZGGG 251800Z AUTO 36004KT 7SM 25/17 A3006 RMK SLP186 T02460171 57005 IEM_DS3505
ZGGG,2006-10-25 19:00,ZGGG 251900Z AUTO 02006KT 4SM 23/16 A3003 RMK T02300160 IEM_DS3505
ZGGG,2006-10-25 20:00,ZGGG 252000Z AUTO 01008KT 4SM 23/15 A3006 RMK T02300150 IEM_DS3505
ZGGG,2006-10-25 21:00,ZGGG 252100Z AUTO 02004KT 8SM 23/16 A3006 RMK SLP187 T02330159 52001 IEM_DS3505
ZGGG,2006-10-25 22:00,ZGGG 252200Z AUTO 02006KT 3SM 22/15 A3009 RMK T02200150 IEM_DS3505
ZGGG,2006-10-25 23:00,ZGGG 252300Z AUTO 02004KT 2 1/2SM 22/15 A3009 RMK T02200150 IEM_DS3505
ZGGG,2006-10-26 00:00,ZGGG 260000Z AUTO 02004KT 7SM 24/14 A3012 RMK SLP208 T02390143 52020 IEM_DS3505
ZGGG,2006-10-26 01:00,ZGGG 260100Z AUTO 03010KT 4SM 25/13 A3015 RMK T02500130 IEM_DS3505
ZGGG,2006-10-26 02:00,ZGGG 260200Z AUTO 01012KT 4SM 26/14 A3015 RMK T02600140 IEM_DS3505
ZGGG,2006-10-26 03:00,ZGGG 260300Z AUTO 32002KT 7SM 27/16 A3015 RMK SLP210 T02740164 52003 IEM_DS3505
ZGGG,2006-10-26 04:00,ZGGG 260400Z AUTO 02008KT 4SM 28/14 A3012 RMK T02800140 IEM_DS3505
ZGGG,2006-10-26 05:00,ZGGG 260500Z AUTO 02010KT 4SM 28/14 A3009 RMK T02800140 IEM_DS3505
ZGGG,2006-10-26 06:00,ZGGG 260600Z AUTO 34004KT 9SM 29/15 A3006 RMK SLP184 T02910153 57026 IEM_DS3505
ZGGG,2006-10-26 07:00,ZGGG 260700Z AUTO 04006KT 4SM 29/14 A3003 RMK T02900140 IEM_DS3505
ZGGG,2006-10-26 08:00,ZGGG 260800Z AUTO 34008KT 4SM 29/14 A3003 RMK T02900140 IEM_DS3505
ZGGG,2006-10-26 09:00,ZGGG 260900Z AUTO 34002KT 8SM 28/16 A3006 RMK SLP186 T02760159 52002 IEM_DS3505
ZGGG,2006-10-26 10:00,ZGGG 261000Z AUTO 34006KT 4SM 27/14 A3006 RMK T02700140 IEM_DS3505
ZGGG,2006-10-26 11:00,ZGGG 261100Z AUTO 01004KT 4SM 25/15 A3009 RMK T02500150 IEM_DS3505
ZGGG,2006-10-26 12:00,ZGGG 261200Z AUTO 02004KT 7SM 25/16 A3009 RMK SLP200 T02520155 52013 IEM_DS3505
ZGGG,2006-10-26 13:00,ZGGG 261300Z AUTO 01006KT 4SM 24/16 A3012 RMK T02400160 IEM_DS3505
ZGGG,2006-10-26 14:00,ZGGG 261400Z AUTO 34006KT 4SM 24/15 A3012 RMK T02400150 IEM_DS3505
ZGGG,2006-10-26 15:00,ZGGG 261500Z AUTO 36004KT 9SM 24/16 RMK SLP205 T02370157 52005 IEM_DS3505
ZGGG,2006-10-26 16:00,ZGGG 261600Z AUTO 33008KT 4SM 22/15 A3012 RMK T02200150 IEM_DS3505
ZGGG,2006-10-26 18:00,ZGGG 261800Z AUTO 36004KT 9SM 22/15 A3009 RMK SLP197 T02190148 57008 IEM_DS3505
ZGGG,2006-10-26 19:00,ZGGG 261900Z AUTO 34006KT 3SM 21/14 A3009 RMK T02100140 IEM_DS3505
ZGGG,2006-10-26 20:00,ZGGG 262000Z AUTO 33006KT 3SM 21/14 A3009 RMK T02100140 IEM_DS3505
ZGGG,2006-10-26 21:00,ZGGG 262100Z AUTO 34002KT 10SM 21/15 A3009 RMK SLP198 T02070146 52001 IEM_DS3505
ZGGG,2006-10-26 22:00,ZGGG 262200Z AUTO 02006KT 3SM 20/14 A3012 RMK T02000140 IEM_DS3505
ZGGG,2006-10-26 23:00,ZGGG 262300Z AUTO 03004KT 2 1/2SM 20/14 A3015 RMK T02000140 IEM_DS3505
ZGGG,2006-10-27 00:00,ZGGG 270000Z AUTO 36004KT 5SM 21/15 A3015 RMK SLP220 T02130147 52022 IEM_DS3505
ZGGG,2006-10-27 01:00,ZGGG 270100Z AUTO 02010KT 2 1/2SM 23/14 A3018 RMK T02300140 IEM_DS3505
ZGGG,2006-10-27 02:00,ZGGG 270200Z AUTO 01010KT 2 1/2SM 24/14 A3018 RMK T02400140 IEM_DS3505
ZGGG,2006-10-27 03:00,ZGGG 270300Z AUTO 02004KT 5SM 26/16 A3015 RMK SLP214 T02560156 57006 IEM_DS3505
ZGGG,2006-10-27 04:00,ZGGG 270400Z AUTO 02006KT 3SM 27/15 A3012 RMK T02700150 IEM_DS3505
ZGGG,2006-10-27 05:00,ZGGG 270500Z AUTO 02008KT 3SM 27/15 A3009 RMK T02700150 IEM_DS3505
ZGGG,2006-10-27 06:00,ZGGG 270600Z AUTO 36002KT 5SM 28/16 A3006 RMK SLP182 T02820162 57032 IEM_DS3505
ZGGG,2006-10-27 07:00,ZGGG 270700Z AUTO 01008KT 3SM 28/15 A3003 RMK T02800150 IEM_DS3505
ZGGG,2006-10-27 08:00,ZGGG 270800Z AUTO 03008KT 3SM 27/16 A3003 RMK T02700160 IEM_DS3505
ZGGG,2006-10-27 09:00,ZGGG 270900Z AUTO 02006KT 4SM 26/16 A3003 RMK SLP178 T02580155 57004 IEM_DS3505
ZGGG,2006-10-27 10:00,ZGGG 271000Z AUTO 02006KT 3SM 24/15 A3006 RMK T02400150 IEM_DS3505
ZGGG,2006-10-27 11:00,ZGGG 271100Z AUTO 02004KT 3SM 23/15 A3006 RMK T02300150 IEM_DS3505
ZGGG,2006-10-27 12:00,ZGGG 271200Z AUTO 36004KT 7SM 23/16 A3009 RMK SLP194 T02290155 52016 IEM_DS3505
ZGGG,2006-10-27 13:00,ZGGG 271300Z AUTO 01004KT 3SM 21/16 A3009 RMK T02100160 IEM_DS3505
ZGGG,2006-10-27 14:00,ZGGG 271400Z AUTO 01006KT 3SM 22/15 A3009 RMK T02200150 IEM_DS3505
ZGGG,2006-10-27 15:00,ZGGG 271500Z AUTO 34002KT 7SM 22/15 A3009 RMK SLP200 T02160154 52006 IEM_DS3505
ZGGG,2006-10-27 16:00,ZGGG 271600Z AUTO 08002KT 2 1/2SM 20/15 A3009 RMK T02000150 IEM_DS3505
ZGGG,2006-10-27 17:00,ZGGG 271700Z AUTO 09004KT 3SM 20/15 A3009 RMK T02000150 IEM_DS3505
ZGGG,2006-10-27 18:00,ZGGG 271800Z AUTO 32002KT 7SM 21/15 A3006 RMK SLP186 T02060152 57014 IEM_DS3505
ZGGG,2006-10-27 19:00,ZGGG 271900Z AUTO 11002KT 2 1/2SM 19/15 A3006 RMK T01900150 IEM_DS3505
ZGGG,2006-10-27 20:00,ZGGG 272000Z AUTO 00000KT 3SM 19/15 A3006 RMK T01900150 IEM_DS3505
ZGGG,2006-10-27 21:00,ZGGG 272100Z AUTO 32002KT 6SM 20/15 A3003 RMK SLP183 T02000148 57003 IEM_DS3505
ZGGG,2006-10-27 22:00,ZGGG 272200Z AUTO 2 1/2SM 19/15 A3006 RMK T01900150 IEM_DS3505
ZGGG,2006-10-27 23:00,ZGGG 272300Z AUTO 03002KT 2 1/2SM 18/15 A3009 RMK T01800150 IEM_DS3505
ZGGG,2006-10-28 00:00,ZGGG 280000Z AUTO 32004KT 6SM 21/15 A3009 RMK SLP200 T02130152 52017 IEM_DS3505
ZGGG,2006-10-28 01:00,ZGGG 280100Z AUTO 2 1/2SM 23/15 A3012 RMK T02300150 IEM_DS3505
ZGGG,2006-10-28 02:00,ZGGG 280200Z AUTO 06004KT 3SM 25/15 A3009 RMK T02500150 IEM_DS3505
ZGGG,2006-10-28 03:00,ZGGG 280300Z AUTO 09002KT 5SM 27/16 A3009 RMK SLP191 T02660162 57009 IEM_DS3505
ZGGG,2006-10-28 04:00,ZGGG 280400Z AUTO 03006KT 4SM 28/15 A3003 RMK T02800150 IEM_DS3505
ZGGG,2006-10-28 05:00,ZGGG 280500Z AUTO 03004KT 4SM 29/15 A3000 RMK T02900150 IEM_DS3505
ZGGG,2006-10-28 06:00,ZGGG 280600Z AUTO 36002KT 5SM 29/16 A2997 RMK SLP158 T02930161 57032 IEM_DS3505
ZGGG,2006-10-28 07:00,ZGGG 280700Z AUTO 4SM 30/16 A2997 RMK T03000160 IEM_DS3505
ZGGG,2006-10-28 08:00,ZGGG 280800Z AUTO 35008KT 4SM 29/16 A2994 RMK T02900160 IEM_DS3505
ZGGG,2006-10-28 09:00,ZGGG 280900Z AUTO 02002KT 7SM 28/16 A2997 RMK SLP153 T02790165 57006 IEM_DS3505
ZGGG,2006-10-28 10:00,ZGGG 281000Z AUTO 34006KT 4SM 27/16 A2997 RMK T02700160 IEM_DS3505
ZGGG,2006-10-28 11:00,ZGGG 281100Z AUTO 01004KT 3SM 25/17 A2997 RMK T02500170 IEM_DS3505
ZGGG,2006-10-28 12:00,ZGGG 281200Z AUTO 34002KT 10SM 24/17 A3000 RMK SLP167 T02440169 52014 IEM_DS3505
ZGGG,2006-10-28 13:00,ZGGG 281300Z AUTO 34004KT 3SM 25/16 A3000 RMK T02500160 IEM_DS3505
ZGGG,2006-10-28 14:00,ZGGG 281400Z AUTO 36004KT 3SM 23/17 A3000 RMK T02300170 IEM_DS3505
ZGGG,2006-10-28 15:00,ZGGG 281500Z AUTO 32002KT 9SM 24/17 A3003 RMK SLP172 T02390167 52006 IEM_DS3505
ZGGG,2006-10-28 16:00,ZGGG 281600Z AUTO 4SM 23/16 A3000 RMK T02300160 IEM_DS3505
ZGGG,2006-10-28 17:00,ZGGG 281700Z AUTO 06004KT 4SM 23/16 A3000 RMK T02300160 IEM_DS3505
ZGGG,2006-10-28 18:00,ZGGG 281800Z AUTO 29002KT 9SM 22/16 A3000 RMK SLP163 T02240162 57009 IEM_DS3505
ZGGG,2006-10-28 19:00,ZGGG 281900Z AUTO 4SM 22/16 A3000 RMK T02200160 IEM_DS3505
ZGGG,2006-10-28 20:00,ZGGG 282000Z AUTO 02008KT 3SM 22/15 A2997 RMK T02200150 IEM_DS3505
ZGGG,2006-10-28 21:00,ZGGG 282100Z AUTO 34002KT 7SM 22/16 A2997 RMK SLP157 T02150156 57006 IEM_DS3505
ZGGG,2006-10-28 22:00,ZGGG 282200Z AUTO 03004KT 3SM 21/15 A3000 RMK T02100150 IEM_DS3505
ZGGG,2006-10-28 23:00,ZGGG 282300Z AUTO 2 1/2SM 21/15 A3000 RMK T02100150 IEM_DS3505
ZGGG,2006-10-29 00:00,ZGGG 290000Z AUTO 02004KT 4SM 23/16 A3003 RMK SLP178 T02270158 52020 IEM_DS3505
ZGGG,2006-10-29 01:00,ZGGG 290100Z AUTO 2 1/2SM 25/15 A3006 RMK T02500150 IEM_DS3505
ZGGG,2006-10-29 02:00,ZGGG 290200Z AUTO 05006KT 3SM 26/15 A3006 RMK T02600150 IEM_DS3505
ZGGG,2006-10-29 03:00,ZGGG 290300Z AUTO 32004KT 6SM 27/17 A3003 RMK SLP175 T02730166 57002 IEM_DS3505
ZGGG,2006-10-29 04:00,ZGGG 290400Z AUTO 35006KT 4SM 28/14 A3000 RMK T02800140 IEM_DS3505
ZGGG,2006-10-29 05:00,ZGGG 290500Z AUTO 4SM 29/15 A2997 RMK T02900150 IEM_DS3505
ZGGG,2006-10-29 06:00,ZGGG 290600Z AUTO 32004KT 7SM 29/16 A2994 RMK SLP147 T02940162 57028 IEM_DS3505
ZGGG,2006-10-29 07:00,ZGGG 290700Z AUTO 02006KT 4SM 30/15 A2991 RMK T03000150 IEM_DS3505
ZGGG,2006-10-29 08:00,ZGGG 290800Z AUTO 02008KT 4SM 29/15 A2991 RMK T02900150 IEM_DS3505
ZGGG,2006-10-29 09:00,ZGGG 290900Z AUTO 04002KT 7SM 28/16 A2991 RMK SLP140 T02820165 57007 IEM_DS3505
ZGGG,2006-10-29 10:00,ZGGG 291000Z AUTO 02006KT 4SM 26/16 A2994 RMK T02600160 IEM_DS3505
ZGGG,2006-10-29 11:00,ZGGG 291100Z AUTO 02006KT 4SM 25/16 A2994 RMK T02500160 IEM_DS3505
ZGGG,2006-10-29 12:00,ZGGG 291200Z AUTO 34004KT 6SM 25/16 A2997 RMK SLP155 T02540157 52014 IEM_DS3505
ZGGG,2006-10-29 13:00,ZGGG 291300Z AUTO 03004KT 4SM 24/16 A2997 RMK T02400160 IEM_DS3505
ZGGG,2006-10-29 14:00,ZGGG 291400Z AUTO 02006KT 4SM 24/15 A3000 RMK T02400150 IEM_DS3505
ZGGG,2006-10-29 15:00,ZGGG 291500Z AUTO 36002KT 7SM 24/15 A2997 RMK SLP162 T02380148 52008 IEM_DS3505
ZGGG,2006-10-29 16:00,ZGGG 291600Z AUTO 08002KT 4SM 23/15 A2997 RMK T02300150 IEM_DS3505
ZGGG,2006-10-29 17:00,ZGGG 291700Z AUTO 05004KT 3SM 21/16 A2997 RMK T02100160 IEM_DS3505
ZGGG,2006-10-29 18:00,ZGGG 291800Z AUTO 32002KT 7SM 21/15 A2997 RMK SLP153 T02140146 57009 IEM_DS3505
ZGGG,2006-10-29 19:00,ZGGG 291900Z AUTO 00000KT 3SM 20/16 A2997 RMK T02000160 IEM_DS3505
ZGGG,2006-10-29 20:00,ZGGG 292000Z AUTO 11002KT 3SM 20/16 A2997 RMK T02000160 IEM_DS3505
ZGGG,2006-10-29 21:00,ZGGG 292100Z AUTO 36002KT 7SM 22/14 A2997 RMK SLP155 T02150142 52002 IEM_DS3505
ZGGG,2006-10-29 22:00,ZGGG 292200Z AUTO 3SM 20/14 A2997 RMK T02000140 IEM_DS3505
ZGGG,2006-10-29 23:00,ZGGG 292300Z AUTO 06004KT 3SM 21/13 A3000 RMK T02100130 IEM_DS3505
ZGGG,2006-10-30 00:00,ZGGG 300000Z AUTO 29002KT 7SM 23/14 A3003 RMK SLP176 T02330143 52020 IEM_DS3505
ZGGG,2006-10-30 01:00,ZGGG 300100Z AUTO 02008KT 4SM 25/13 A3003 RMK T02500130 IEM_DS3505
ZGGG,2006-10-30 02:00,ZGGG 300200Z AUTO 02006KT 4SM 27/13 A3006 RMK T02700130 IEM_DS3505
ZGGG,2006-10-30 03:00,ZGGG 300300Z AUTO 36002KT 8SM 28/15 A3003 RMK SLP176 T02770150 52001 IEM_DS3505
ZGGG,2006-10-30 04:00,ZGGG 300400Z AUTO 02006KT 4SM 29/14 A3000 RMK T02900140 IEM_DS3505
ZGGG,2006-10-30 05:00,ZGGG 300500Z AUTO 03008KT 4SM 30/14 A2997 RMK T03000140 IEM_DS3505
ZGGG,2006-10-30 06:00,ZGGG 300600Z AUTO 32004KT 8SM 30/16 A2994 RMK SLP146 T02970158 57030 IEM_DS3505
ZGGG,2006-10-30 07:00,ZGGG 300700Z AUTO 02010KT 4SM 30/14 A2991 RMK T03000140 IEM_DS3505
ZGGG,2006-10-30 08:00,ZGGG 300800Z AUTO 36008KT 4SM 30/14 A2991 RMK T03000140 IEM_DS3505
ZGGG,2006-10-30 09:00,ZGGG 300900Z AUTO 36004KT 9SM 28/14 A2991 RMK SLP140 T02830145 57006 IEM_DS3505
ZGGG,2006-10-30 10:00,ZGGG 301000Z AUTO 33008KT 4SM 28/13 A2994 RMK T02800130 IEM_DS3505
ZGGG,2006-10-30 11:00,ZGGG 301100Z AUTO 34006KT 4SM 27/13 A2994 RMK T02700130 IEM_DS3505
ZGGG,2006-10-30 12:00,ZGGG 301200Z AUTO 02002KT 9SM 25/14 A2997 RMK SLP156 T02460144 52015 IEM_DS3505
ZGGG,2006-10-30 13:00,ZGGG 301300Z AUTO 36004KT 4SM 23/15 A2997 RMK T02300150 IEM_DS3505
ZGGG,2006-10-30 14:00,ZGGG 301400Z AUTO 4SM 22/15 A3000 RMK T02200150 IEM_DS3505
ZGGG,2006-10-30 15:00,ZGGG 301500Z AUTO 36002KT 8SM 24/14 A3000 RMK SLP162 T02380142 52007 IEM_DS3505
ZGGG,2006-10-30 16:00,ZGGG 301600Z AUTO 05004KT 5SM 22/13 A2997 RMK T02200130 IEM_DS3505
ZGGG,2006-10-30 17:00,ZGGG 301700Z AUTO 02006KT 4SM 21/13 A2997 RMK T02100130 IEM_DS3505
ZGGG,2006-10-30 18:00,ZGGG 301800Z AUTO 34004KT 7SM 24/12 A2997 RMK SLP153 T02350122 57009 IEM_DS3505
ZGGG,2006-10-30 19:00,ZGGG 301900Z AUTO 02006KT 4SM 21/13 A2994 RMK T02100130 IEM_DS3505
ZGGG,2006-10-30 20:00,ZGGG 302000Z AUTO 02006KT 4SM 21/12 A2997 RMK T02100120 IEM_DS3505
ZGGG,2006-10-30 21:00,ZGGG 302100Z AUTO 02006KT 7SM 23/12 A2997 RMK SLP150 T02270121 57003 IEM_DS3505
ZGGG,2006-10-30 22:00,ZGGG 302200Z AUTO 02006KT 3SM 21/11 A2997 RMK T02100110 IEM_DS3505
ZGGG,2006-10-30 23:00,ZGGG 302300Z AUTO 01006KT 3SM 21/12 A3000 RMK T02100120 IEM_DS3505
ZGGG,2006-10-31 00:00,ZGGG 310000Z AUTO 36002KT 7SM 23/13 A3003 RMK SLP171 T02260128 52020 IEM_DS3505
ZGGG,2006-10-31 01:00,ZGGG 310100Z AUTO 02014KT 3SM 24/12 A3003 RMK T02400120 IEM_DS3505
ZGGG,2006-10-31 03:00,ZGGG 310300Z AUTO 02006KT 8SM 27/13 A3000 RMK SLP169 T02700134 57001 IEM_DS3505
ZGGG,2006-10-31 04:00,ZGGG 310400Z AUTO 02014KT 4SM 28/11 A2997 RMK T02800110 IEM_DS3505
ZGGG,2006-10-31 05:00,ZGGG 310500Z AUTO 02014KT 4SM 29/10 A2994 RMK T02900100 IEM_DS3505
ZGGG,2006-10-31 06:00,ZGGG 310600Z AUTO 34006KT 9SM 29/13 A2991 RMK SLP134 T02870126 57035 IEM_DS3505
ZGGG,2006-10-31 07:00,ZGGG 310700Z AUTO 01010KT 5SM 30/10 A2988 RMK T03000100 IEM_DS3505
ZGGG,2006-10-31 08:00,ZGGG 310800Z AUTO 34012G21KT 4SM 29/11 A2988 RMK T02900110 IEM_DS3505
ZGGG,2006-10-31 09:00,ZGGG 310900Z AUTO 34004KT 9SM 28/13 A2991 RMK SLP134 T02780126 54000 IEM_DS3505
ZGGG,2006-10-31 10:00,ZGGG 311000Z AUTO 36010KT 4SM 27/10 A2991 RMK T02700100 IEM_DS3505
ZGGG,2006-10-31 11:00,ZGGG 311100Z AUTO 35008KT 4SM 26/10 A2994 RMK T02600100 IEM_DS3505
ZGGG,2006-10-31 12:00,ZGGG 311200Z AUTO 36004KT 9SM 25/12 A2994 RMK SLP152 T02510117 52017 IEM_DS3505
ZGGG,2006-10-31 13:00,ZGGG 311300Z AUTO 02008KT 4SM 24/10 A2997 RMK T02400100 IEM_DS3505
ZGGG,2006-10-31 14:00,ZGGG 311400Z AUTO 02008KT 4SM 24/07 A2997 RMK T02400070 IEM_DS3505
ZGGG,2006-10-31 15:00,ZGGG 311500Z AUTO 36004KT 9SM 24/08 A2997 RMK SLP156 T02400076 52005 IEM_DS3505
ZGGG,2006-10-31 16:00,ZGGG 311600Z AUTO 03006KT 5SM 22/09 A2997 RMK T02200090 IEM_DS3505
ZGGG,2006-10-31 17:00,ZGGG 311700Z AUTO 01008KT 4SM 22/08 A2997 RMK T02200080 IEM_DS3505
ZGGG,2006-10-31 18:00,ZGGG 311800Z AUTO 34004KT 7SM 23/08 A2994 RMK SLP146 T02280085 57010 IEM_DS3505
ZGGG,2006-10-31 19:00,ZGGG 311900Z AUTO 02012KT 4SM 23/09 A2994 RMK T02300090 IEM_DS3505
ZGGG,2006-10-31 20:00,ZGGG 312000Z AUTO 01012KT 4SM 22/09 A2994 RMK T02200090 IEM_DS3505
ZGGG,2006-10-31 21:00,ZGGG 312100Z AUTO 04004KT 7SM 22/09 A2994 RMK SLP145 T02230091 57001 IEM_DS3505
ZGGG,2006-10-31 22:00,ZGGG 312200Z AUTO 01008KT 3SM 21/09 A2997 RMK T02100090 IEM_DS3505
ZGGG,2006-10-31 23:00,ZGGG 312300Z AUTO 2 1/2SM 20/10 A3000 RMK T02000100 IEM_DS3505
ZGGG,2006-11-01 00:00,ZGGG 010000Z AUTO 02006KT 7SM 22/09 A3000 RMK SLP169 T02220094 52023 IEM_DS3505
ZGGG,2006-11-01 01:00,ZGGG 010100Z AUTO 02012G21KT 3SM 23/09 A3003 RMK T02300090 IEM_DS3505
ZGGG,2006-11-01 02:00,ZGGG 010200Z AUTO 01016KT 3SM 24/09 A3003 RMK T02400090 IEM_DS3505
ZGGG,2006-11-01 03:00,ZGGG 010300Z AUTO 36004KT 7SM 24/09 A3000 RMK SLP167 T02410093 57002 IEM_DS3505
ZGGG,2006-11-01 04:00,ZGGG 010400Z AUTO 02016G25KT 4SM 26/07 A2997 RMK T02600070 IEM_DS3505
ZGGG,2006-11-01 05:00,ZGGG 010500Z AUTO 03014KT 4SM 26/08 A2997 RMK T02600080 IEM_DS3505
ZGGG,2006-11-01 06:00,ZGGG 010600Z AUTO 02006KT 8SM 26/10 A2991 RMK SLP138 T02580096 57028 IEM_DS3505
ZGGG,2006-11-01 07:00,ZGGG 010700Z AUTO 36012G23KT 4SM 27/09 A2991 RMK T02700090 IEM_DS3505
ZGGG,2006-11-01 08:00,ZGGG 010800Z AUTO 35010KT 4SM 27/09 A2988 RMK T02700090 IEM_DS3505
ZGGG,2006-11-01 09:00,ZGGG 010900Z AUTO 02002KT 8SM 25/11 A2991 RMK SLP136 T02510113 57003 IEM_DS3505
ZGGG,2006-11-01 10:00,ZGGG 011000Z AUTO 01008KT 4SM 24/11 A2991 RMK T02400110 IEM_DS3505
ZGGG,2006-11-01 11:00,ZGGG 011100Z AUTO 03004KT 4SM 22/11 A2994 RMK T02200110 IEM_DS3505
ZGGG,2006-11-01 12:00,ZGGG 011200Z AUTO 02004KT 7SM 23/09 A2994 RMK SLP148 T02330090 52012 IEM_DS3505
ZGGG,2006-11-01 13:00,ZGGG 011300Z AUTO 01006KT 4SM 21/10 A2997 RMK T02100100 IEM_DS3505
ZGGG,2006-11-01 14:00,ZGGG 011400Z AUTO 01010KT 4SM 22/08 A2997 RMK T02200080 IEM_DS3505
ZGGG,2006-11-01 15:00,ZGGG 011500Z AUTO 36004KT 11SM 23/07 A2997 RMK SLP154 T02300071 52006 IEM_DS3505
ZGGG,2006-11-01 16:00,ZGGG 011600Z AUTO 01010KT 5SM 22/06 A2997 RMK T02200060 IEM_DS3505
ZGGG,2006-11-01 17:00,ZGGG 011700Z AUTO 01008KT 4SM 21/06 A2997 RMK T02100060 IEM_DS3505
ZGGG,2006-11-01 18:00,ZGGG 011800Z AUTO 34004KT 10SM 21/08 A2997 RMK SLP152 T02130075 57002 IEM_DS3505
ZGGG,2006-11-01 19:00,ZGGG 011900Z AUTO 34006KT 4SM 21/06 A2994 RMK T02100060 IEM_DS3505
ZGGG,2006-11-01 20:00,ZGGG 012000Z AUTO 35006KT 4SM 20/06 A2994 RMK T02000060 IEM_DS3505
ZGGG,2006-11-01 21:00,ZGGG 012100Z AUTO 04002KT 8SM 20/05 A2994 RMK SLP148 T02020051 57004 IEM_DS3505
ZGGG,2006-11-01 22:00,ZGGG 012200Z AUTO 01006KT 5SM 17/07 A2994 RMK T01700070 IEM_DS3505
ZGGG,2006-11-01 23:00,ZGGG 012300Z AUTO 36008KT 4SM 19/04 A2997 RMK T01900040 IEM_DS3505
ZGGG,2006-11-02 00:00,ZGGG 020000Z AUTO 36004KT 7SM 20/06 A3000 RMK SLP163 T02010061 52015 IEM_DS3505
ZGGG,2006-11-02 01:00,ZGGG 020100Z AUTO 01014KT 4SM 22/05 A3000 RMK T02200050 IEM_DS3505
ZGGG,2006-11-02 02:00,ZGGG 020200Z AUTO 02014KT 4SM 24/06 A3003 RMK T02400060 IEM_DS3505
ZGGG,2006-11-02 03:00,ZGGG 020300Z AUTO 36004KT 7SM 25/09 A3000 RMK SLP161 T02500089 57002 IEM_DS3505
ZGGG,2006-11-02 04:00,ZGGG 020400Z AUTO 36014G25KT 4SM 27/07 A2997 RMK T02700070 IEM_DS3505
ZGGG,2006-11-02 05:00,ZGGG 020500Z AUTO 01012KT 4SM 27/08 A2994 RMK T02700080 IEM_DS3505
ZGGG,2006-11-02 06:00,ZGGG 020600Z AUTO 36006KT 7SM 27/08 A2991 RMK SLP133 T02720081 57027 IEM_DS3505
ZGGG,2006-11-02 07:00,ZGGG 020700Z AUTO 02010KT 4SM 28/08 A2991 RMK T02800080 IEM_DS3505
ZGGG,2006-11-02 08:00,ZGGG 020800Z AUTO 36010KT 4SM 27/06 A2991 RMK T02700060 IEM_DS3505
ZGGG,2006-11-02 09:00,ZGGG 020900Z AUTO 36004KT 7SM 26/08 A2991 RMK SLP137 T02590084 52003 IEM_DS3505
ZGGG,2006-11-02 10:00,ZGGG 021000Z AUTO 36008KT 4SM 25/07 A2991 RMK T02500070 IEM_DS3505
ZGGG,2006-11-02 11:00,ZGGG 021100Z AUTO 01006KT 4SM 22/09 A2994 RMK T02200090 IEM_DS3505
ZGGG,2006-11-02 12:00,ZGGG 021200Z AUTO 36004KT 9SM 22/08 A2997 RMK SLP156 T02240078 52019 IEM_DS3505
ZGGG,2006-11-02 13:00,ZGGG 021300Z AUTO 05004KT 4SM 20/09 A2997 RMK T02000090 IEM_DS3505
ZGGG,2006-11-02 14:00,ZGGG 021400Z AUTO 4SM 19/09 A3000 RMK T01900090 IEM_DS3505
ZGGG,2006-11-02 15:00,ZGGG 021500Z AUTO 02004KT 9SM 22/06 A3000 RMK SLP166 T02220064 52010 IEM_DS3505
ZGGG,2006-11-02 16:00,ZGGG 021600Z AUTO 03004KT 4SM 18/08 A3000 RMK T01800080 IEM_DS3505
ZGGG,2006-11-02 17:00,ZGGG 021700Z AUTO 04006KT 5SM 18/07 A3000 RMK T01800070 IEM_DS3505
ZGGG,2006-11-02 18:00,ZGGG 021800Z AUTO 32002KT 9SM 20/07 A3000 RMK SLP161 T02000067 57005 IEM_DS3505
ZGGG,2006-11-02 19:00,ZGGG 021900Z AUTO 00000KT 4SM 15/10 A2997 RMK T01500100 IEM_DS3505
ZGGG,2006-11-02 20:00,ZGGG 022000Z AUTO 07002KT 4SM 15/09 A2997 RMK T01500090 IEM_DS3505
ZGGG,2006-11-02 21:00,ZGGG 022100Z AUTO 27002KT 8SM 18/07 A2997 RMK SLP156 T01820073 57005 IEM_DS3505
ZGGG,2006-11-02 22:00,ZGGG 022200Z AUTO 4SM 16/09 A3000 RMK T01600090 IEM_DS3505
ZGGG,2006-11-02 23:00,ZGGG 022300Z AUTO 4SM 16/08 A3000 RMK T01600080 IEM_DS3505
ZGGG,2006-11-03 00:00,ZGGG 030000Z AUTO 32002KT 8SM 20/07 A3003 RMK SLP176 T02000067 52020 IEM_DS3505
ZGGG,2006-11-03 01:00,ZGGG 030100Z AUTO 3SM 22/08 A3003 RMK T02200080 IEM_DS3505
ZGGG,2006-11-03 02:00,ZGGG 030200Z AUTO 4SM 24/06 A3006 RMK T02400060 IEM_DS3505
ZGGG,2006-11-03 03:00,ZGGG 030300Z AUTO 02004KT 9SM 26/09 A3003 RMK SLP174 T02580088 57002 IEM_DS3505
ZGGG,2006-11-03 04:00,ZGGG 030400Z AUTO 02008KT 4SM 26/05 A3000 RMK T02600050 IEM_DS3505
ZGGG,2006-11-03 05:00,ZGGG 030500Z AUTO 02008KT 5SM 28/06 A2997 RMK T02800060 IEM_DS3505
ZGGG,2006-11-03 06:00,ZGGG 030600Z AUTO 36004KT 9SM 28/07 A2994 RMK SLP143 T02810074 57031 IEM_DS3505
ZGGG,2006-11-03 07:00,ZGGG 030700Z AUTO 02008KT 5SM 29/03 A2991 RMK T02900030 IEM_DS3505
ZGGG,2006-11-03 08:00,ZGGG 030800Z AUTO 03006KT 5SM 28/05 A2991 RMK T02800050 IEM_DS3505
ZGGG,2006-11-03 09:00,ZGGG 030900Z AUTO 02004KT 9SM 26/07 A2991 RMK SLP138 T02620068 57005 IEM_DS3505
ZGGG,2006-11-03 10:00,ZGGG 031000Z AUTO 33006KT 4SM 26/06 A2991 RMK T02600060 IEM_DS3505
ZGGG,2006-11-03 11:00,ZGGG 031100Z AUTO 35004KT 4SM 24/06 A2994 RMK T02400060 IEM_DS3505
ZGGG,2006-11-03 12:00,ZGGG 031200Z AUTO 29002KT 9SM 20/11 A2997 RMK SLP159 T01970112 52021 IEM_DS3505
ZGGG,2006-11-03 13:00,ZGGG 031300Z AUTO 00000KT 3SM 18/12 A2997 RMK T01800120 IEM_DS3505
ZGGG,2006-11-03 14:00,ZGGG 031400Z AUTO 00000KT 3SM 18/12 A3000 RMK T01800120 IEM_DS3505
ZGGG,2006-11-03 15:00,ZGGG 031500Z AUTO 32002KT 8SM 19/11 A3000 RMK SLP166 T01860109 52007 IEM_DS3505
ZGGG,2006-11-03 16:00,ZGGG 031600Z AUTO 11002KT 3SM 17/12 A3000 RMK T01700120 IEM_DS3505
ZGGG,2006-11-03 17:00,ZGGG 031700Z AUTO 09002KT 3SM 16/12 A2997 RMK T01600120 IEM_DS3505
ZGGG,2006-11-03 18:00,ZGGG 031800Z AUTO 36002KT 7SM 17/11 A2997 RMK SLP159 T01670110 57007 IEM_DS3505
ZGGG,2006-11-03 19:00,ZGGG 031900Z AUTO 09004KT 3SM 16/11 A2997 RMK T01600110 IEM_DS3505
ZGGG,2006-11-03 20:00,ZGGG 032000Z AUTO 07004KT 3SM 16/10 A2997 RMK T01600100 IEM_DS3505
ZGGG,2006-11-03 21:00,ZGGG 032100Z AUTO 07002KT 10SM 16/11 A2997 RMK SLP158 T01590111 57001 IEM_DS3505
ZGGG,2006-11-03 22:00,ZGGG 032200Z AUTO 3SM 14/10 A2997 RMK T01400100 IEM_DS3505
ZGGG,2006-11-03 23:00,ZGGG 032300Z AUTO 08002KT 2 1/2SM 14/10 A3000 RMK T01400100 IEM_DS3505
ZGGG,2006-11-04 00:00,ZGGG 040000Z AUTO 00000KT 10SM 19/12 A3003 RMK SLP176 T01890119 52018 IEM_DS3505
ZGGG,2006-11-04 01:00,ZGGG 040100Z AUTO 2 1/2SM 20/11 A3003 RMK T02000110 IEM_DS3505
ZGGG,2006-11-04 02:00,ZGGG 040200Z AUTO 3SM 23/10 A3006 RMK T02300100 IEM_DS3505
ZGGG,2006-11-04 03:00,ZGGG 040300Z AUTO 36004KT 11SM 26/08 A3003 RMK SLP173 T02650080 57003 IEM_DS3505
ZGGG,2006-11-04 04:00,ZGGG 040400Z AUTO 4SM 27/06 A3000 RMK T02700060 IEM_DS3505
ZGGG,2006-11-04 05:00,ZGGG 040500Z AUTO 5SM 28/05 A2994 RMK T02800050 IEM_DS3505
ZGGG,2006-11-04 06:00,ZGGG 040600Z AUTO 34002KT 11SM 29/08 A2994 RMK SLP141 T02930078 57032 IEM_DS3505
ZGGG,2006-11-04 07:00,ZGGG 040700Z AUTO 04004KT 6SM 30/03 A2991 RMK T03000030 IEM_DS3505
ZGGG,2006-11-04 08:00,ZGGG 040800Z AUTO 04004KT 6SM 30/05 A2991 RMK T03000050 IEM_DS3505
ZGGG,2006-11-04 09:00,ZGGG 040900Z AUTO 36002KT 9SM 27/07 A2991 RMK SLP137 T02710070 57004 IEM_DS3505
ZGGG,2006-11-04 10:00,ZGGG 041000Z AUTO 35004KT 5SM 25/09 A2991 RMK T02500090 IEM_DS3505
ZGGG,2006-11-04 11:00,ZGGG 041100Z AUTO 4SM 21/11 A2994 RMK T02100110 IEM_DS3505
ZGGG,2006-11-04 12:00,ZGGG 041200Z AUTO 07002KT 10SM 20/12 A2997 RMK SLP155 T01970117 52018 IEM_DS3505
ZGGG,2006-11-04 13:00,ZGGG 041300Z AUTO 00000KT 3SM 18/13 A2997 RMK T01800130 IEM_DS3505
ZGGG,2006-11-04 14:00,ZGGG 041400Z AUTO 10004KT 3SM 18/12 A2997 RMK T01800120 IEM_DS3505
ZGGG,2006-11-04 15:00,ZGGG 041500Z AUTO 36002KT 9SM 18/11 A3000 RMK SLP165 T01810112 52010 IEM_DS3505
ZGGG,2006-11-04 16:00,ZGGG 041600Z AUTO 07002KT 3SM 17/12 A2997 RMK T01700120 IEM_DS3505
ZGGG,2006-11-04 17:00,ZGGG 041700Z AUTO 10004KT 3SM 18/12 A2997 RMK T01800120 IEM_DS3505
ZGGG,2006-11-04 18:00,ZGGG 041800Z AUTO 04002KT 8SM 18/12 A2997 RMK SLP161 T01750120 57004 IEM_DS3505
ZGGG,2006-11-04 19:00,ZGGG 041900Z AUTO 3SM 16/12 A2997 RMK T01600120 IEM_DS3505
ZGGG,2006-11-04 20:00,ZGGG 042000Z AUTO 06002KT 3SM 15/12 A2997 RMK T01500120 IEM_DS3505
ZGGG,2006-11-04 21:00,ZGGG 042100Z AUTO 09002KT 7SM 17/13 A2997 RMK SLP160 T01680129 57001 IEM_DS3505
ZGGG,2006-11-04 22:00,ZGGG 042200Z AUTO 10004KT 3SM 15/12 A3000 RMK T01500120 IEM_DS3505
ZGGG,2006-11-04 23:00,ZGGG 042300Z AUTO 07004KT 2 1/2SM 16/11 A3000 RMK T01600110 IEM_DS3505
ZGGG,2006-11-05 00:00,ZGGG 050000Z AUTO 00000KT 8SM 20/15 A3000 RMK SLP173 T01990151 52013 IEM_DS3505
ZGGG,2006-11-05 01:00,ZGGG 050100Z AUTO 2 1/2SM 21/13 A3003 RMK T02100130 IEM_DS3505
ZGGG,2006-11-05 02:00,ZGGG 050200Z AUTO 3SM 24/13 A3003 RMK T02400130 IEM_DS3505
ZGGG,2006-11-05 03:00,ZGGG 050300Z AUTO 29004KT 7SM 27/12 A3000 RMK SLP166 T02680125 57007 IEM_DS3505
ZGGG,2006-11-05 04:00,ZGGG 050400Z AUTO 4SM 28/13 A2997 RMK T02800130 IEM_DS3505
ZGGG,2006-11-05 05:00,ZGGG 050500Z AUTO 4SM 28/12 A2991 RMK T02800120 IEM_DS3505
ZGGG,2006-11-05 06:00,ZGGG 050600Z AUTO 02006KT 8SM 29/10 A2991 RMK SLP132 T02940100 57034 IEM_DS3505
ZGGG,2006-11-05 07:00,ZGGG 050700Z AUTO 5SM 30/09 A2988 RMK T03000090 IEM_DS3505
ZGGG,2006-11-05 08:00,ZGGG 050800Z AUTO 6SM 30/07 A2988 RMK T03000070 IEM_DS3505
ZGGG,2006-11-05 09:00,ZGGG 050900Z AUTO 04002KT 9SM 28/10 A2988 RMK SLP130 T02750103 57002 IEM_DS3505
ZGGG,2006-11-05 10:00,ZGGG 051000Z AUTO 00000KT 4SM 23/13 A2991 RMK T02300130 IEM_DS3505
ZGGG,2006-11-05 11:00,ZGGG 051100Z AUTO 00000KT 4SM 22/14 A2991 RMK T02200140 IEM_DS3505
ZGGG,2006-11-05 12:00,ZGGG 051200Z AUTO 07002KT 9SM 21/14 A2994 RMK SLP151 T02140136 52021 IEM_DS3505
ZGGG,2006-11-05 13:00,ZGGG 051300Z AUTO 3SM 20/15 A2997 RMK T02000150 IEM_DS3505
ZGGG,2006-11-05 14:00,ZGGG 051400Z AUTO 08002KT 3SM 20/14 A2997 RMK T02000140 IEM_DS3505
ZGGG,2006-11-05 15:00,ZGGG 051500Z AUTO 07002KT 9SM 20/14 A2997 RMK SLP160 T01960135 52009 IEM_DS3505
ZGGG,2006-11-05 16:00,ZGGG 051600Z AUTO 10004KT 3SM 18/13 A2997 RMK T01800130 IEM_DS3505
ZGGG,2006-11-05 17:00,ZGGG 051700Z AUTO 08004KT 3SM 19/13 A2997 RMK T01900130 IEM_DS3505
ZGGG,2006-11-05 18:00,ZGGG 051800Z AUTO 34002KT 9SM 18/14 A2997 RMK SLP160 T01800141 54000 IEM_DS3505
ZGGG,2006-11-05 19:00,ZGGG 051900Z AUTO 10004KT 3SM 18/13 A2997 RMK T01800130 IEM_DS3505
ZGGG,2006-11-05 20:00,ZGGG 052000Z AUTO 10004KT 3SM 18/12 A3000 RMK T01800120 IEM_DS3505
ZGGG,2006-11-05 21:00,ZGGG 052100Z AUTO 25002KT 9SM 18/11 A3000 RMK SLP164 T01820106 52004 IEM_DS3505
ZGGG,2006-11-05 22:00,ZGGG 052200Z AUTO 4SM 17/11 A3000 RMK T01700110 IEM_DS3505
ZGGG,2006-11-05 23:00,ZGGG 052300Z AUTO 05004KT 4SM 18/10 A3003 RMK T01800100 IEM_DS3505
ZGGG,2006-11-06 00:00,ZGGG 060000Z AUTO 36004KT 9SM 22/07 A3006 RMK SLP183 T02250071 52019 IEM_DS3505
ZGGG,2006-11-06 01:00,ZGGG 060100Z AUTO 02012KT 4SM 24/07 A3006 RMK T02400070 IEM_DS3505
ZGGG,2006-11-06 02:00,ZGGG 060200Z AUTO 02012KT 4SM 26/08 A3006 RMK T02600080 IEM_DS3505
ZGGG,2006-11-06 03:00,ZGGG 060300Z AUTO 02004KT 10SM 27/08 A3006 RMK SLP186 T02700084 52003 IEM_DS3505
ZGGG,2006-11-06 04:00,ZGGG 060400Z AUTO 02012KT 6SM 29/07 A3003 RMK T02900070 IEM_DS3505
ZGGG,2006-11-06 05:00,ZGGG 060500Z AUTO 01014KT 6SM 30/07 A3000 RMK T03000070 IEM_DS3505
ZGGG,2006-11-06 06:00,ZGGG 060600Z AUTO 02004KT 11SM 30/09 A2997 RMK SLP159 T03020091 57027 IEM_DS3505
ZGGG,2006-11-06 07:00,ZGGG 060700Z AUTO 02012KT 6SM 29/08 A2997 RMK T02900080 IEM_DS3505
ZGGG,2006-11-06 08:00,ZGGG 060800Z AUTO 02012KT 6SM 30/08 A2997 RMK T03000080 IEM_DS3505
ZGGG,2006-11-06 09:00,ZGGG 060900Z AUTO 02002KT 10SM 28/09 A2997 RMK SLP160 T02790092 52001 IEM_DS3505
ZGGG,2006-11-06 10:00,ZGGG 061000Z AUTO 35008KT 6SM 27/09 A3000 RMK T02700090 IEM_DS3505
ZGGG,2006-11-06 11:00,ZGGG 061100Z AUTO 36008KT 6SM 25/08 A3000 RMK T02500080 IEM_DS3505
ZGGG,2006-11-06 12:00,ZGGG 061200Z AUTO 36004KT 9SM 24/10 A3003 RMK SLP178 T02410097 52018 IEM_DS3505
ZGGG,2006-11-06 13:00,ZGGG 061300Z AUTO 02010KT 6SM 24/10 A3006 RMK T02400100 IEM_DS3505
ZGGG,2006-11-06 14:00,ZGGG 061400Z AUTO 02008KT 6SM 23/10 A3006 RMK T02300100 IEM_DS3505
ZGGG,2006-11-06 15:00,ZGGG 061500Z AUTO 36004KT 9SM 23/06 A3009 RMK SLP191 T02290058 52013 IEM_DS3505
ZGGG,2006-11-06 16:00,ZGGG 061600Z AUTO 01008KT 6SM 21/05 A3009 RMK T02100050 IEM_DS3505
ZGGG,2006-11-06 17:00,ZGGG 061700Z AUTO 02010KT 6SM 22/05 A3006 RMK T02200050 IEM_DS3505
ZGGG,2006-11-06 18:00,ZGGG 061800Z AUTO 02004KT 9SM 22/03 A3009 RMK SLP192 T02170029 52002 IEM_DS3505
ZGGG,2006-11-06 19:00,ZGGG 061900Z AUTO 03004KT 6SM 20/05 A3006 RMK T02000050 IEM_DS3505
ZGGG,2006-11-06 20:00,ZGGG 062000Z AUTO 02006KT 6SM 20/05 A3009 RMK T02000050 IEM_DS3505
ZGGG,2006-11-06 21:00,ZGGG 062100Z AUTO 34002KT 9SM 20/03 A3006 RMK SLP194 T01960033 52001 IEM_DS3505
ZGGG,2006-11-06 22:00,ZGGG 062200Z AUTO 01004KT 6SM 20/04 A3009 RMK T02000040 IEM_DS3505
ZGGG,2006-11-06 23:00,ZGGG 062300Z AUTO 6SM 19/05 A3009 RMK T01900050 IEM_DS3505
ZGGG,2006-11-07 00:00,ZGGG 070000Z AUTO 36002KT 9SM 21/04 A3012 RMK SLP207 T02140045 52013 IEM_DS3505
ZGGG,2006-11-07 01:00,ZGGG 070100Z AUTO 02008KT 6SM 23/02 A3012 RMK T02300020 IEM_DS3505
ZGGG,2006-11-07 02:00,ZGGG 070200Z AUTO 02010KT 6SM 25/00 A3015 RMK T02500000 IEM_DS3505
ZGGG,2006-11-07 03:00,ZGGG 070300Z AUTO 02002KT 12SM 26/04 A3015 RMK SLP213 T02570042 52006 IEM_DS3505
ZGGG,2006-11-07 04:00,ZGGG 070400Z AUTO 05006KT 6SM 27/02 A3012 RMK T02700020 IEM_DS3505
ZGGG,2006-11-07 05:00,ZGGG 070500Z AUTO 06006KT 6SM 27/01 A3009 RMK T02700010 IEM_DS3505
ZGGG,2006-11-07 06:00,ZGGG 070600Z AUTO 09004G14KT 12SM 28/06 A3006 RMK SLP186 T02780060 57027 IEM_DS3505
ZGGG,2006-11-07 07:00,ZGGG 070700Z AUTO 6SM 28/05 A3006 RMK T02800050 IEM_DS3505
ZGGG,2006-11-07 08:00,ZGGG 070800Z AUTO 6SM 28/05 A3006 RMK T02800050 IEM_DS3505
ZGGG,2006-11-07 09:00,ZGGG 070900Z AUTO 09002KT 11SM 26/08 A3006 RMK SLP187 T02620082 52001 IEM_DS3505
ZGGG,2006-11-07 10:00,ZGGG 071000Z AUTO 4SM 23/11 A3006 RMK T02300110 IEM_DS3505
ZGGG,2006-11-07 11:00,ZGGG 071100Z AUTO 4SM 21/12 A3009 RMK T02100120 IEM_DS3505
ZGGG,2006-11-07 12:00,ZGGG 071200Z AUTO 07002KT 10SM 21/11 A3009 RMK SLP200 T02140114 52013 IEM_DS3505
ZGGG,2006-11-07 13:00,ZGGG 071300Z AUTO 06002KT 4SM 19/12 A3012 RMK T01900120 IEM_DS3505
ZGGG,2006-11-07 14:00,ZGGG 071400Z AUTO 07002KT 4SM 19/13 A3012 RMK T01900130 IEM_DS3505
ZGGG,2006-11-07 15:00,ZGGG 071500Z AUTO 07002KT 9SM 20/12 A3012 RMK SLP205 T01980118 52005 IEM_DS3505
ZGGG,2006-11-07 16:00,ZGGG 071600Z AUTO 08004KT 3SM 19/13 A3009 RMK T01900130 IEM_DS3505
ZGGG,2006-11-07 17:00,ZGGG 071700Z AUTO 00000KT 3SM 18/12 A3012 RMK T01800120 IEM_DS3505
ZGGG,2006-11-07 18:00,ZGGG 071800Z AUTO 04002KT 9SM 18/13 A3012 RMK SLP203 T01850129 57002 IEM_DS3505
ZGGG,2006-11-07 19:00,ZGGG 071900Z AUTO 00000KT 2 1/2SM 17/12 A3009 RMK T01700120 IEM_DS3505
ZGGG,2006-11-07 20:00,ZGGG 072000Z AUTO 09004KT 2 1/2SM 17/12 A3009 RMK T01700120 IEM_DS3505
ZGGG,2006-11-07 21:00,ZGGG 072100Z AUTO 07002KT 8SM 18/14 A3009 RMK SLP196 T01820145 57007 IEM_DS3505
ZGGG,2006-11-07 22:00,ZGGG 072200Z AUTO 08004KT 3SM 16/12 A3009 RMK T01600120 IEM_DS3505
ZGGG,2006-11-07 23:00,ZGGG 072300Z AUTO 3SM 16/12 A3012 RMK T01600120 IEM_DS3505
ZGGG,2006-11-08 00:00,ZGGG 080000Z AUTO 09002KT 4SM 20/16 A3015 RMK SLP218 T01980155 52022 IEM_DS3505
ZGGG,2006-11-08 01:00,ZGGG 080100Z AUTO 05004KT 2 1/2SM 20/13 A3015 RMK T02000130 IEM_DS3505
ZGGG,2006-11-08 02:00,ZGGG 080200Z AUTO 10004KT 3SM 23/14 A3018 RMK T02300140 IEM_DS3505
ZGGG,2006-11-08 03:00,ZGGG 080300Z AUTO 04004KT 4SM 26/15 A3015 RMK SLP220 T02550146 52002 IEM_DS3505
ZGGG,2006-11-08 04:00,ZGGG 080400Z AUTO 4SM 27/12 A3012 RMK T02700120 IEM_DS3505
ZGGG,2006-11-08 05:00,ZGGG 080500Z AUTO 4SM 27/11 A3012 RMK T02700110 IEM_DS3505
ZGGG,2006-11-08 06:00,ZGGG 080600Z AUTO 16002KT 5SM 28/12 A3009 RMK SLP192 T02840123 57028 IEM_DS3505
ZGGG,2006-11-08 07:00,ZGGG 080700Z AUTO 06004KT 4SM 29/12 A3006 RMK T02900120 IEM_DS3505
ZGGG,2006-11-08 08:00,ZGGG 080800Z AUTO 4SM 29/12 A3006 RMK T02900120 IEM_DS3505
ZGGG,2006-11-08 09:00,ZGGG 080900Z AUTO 16002KT 6SM 27/14 A3006 RMK SLP186 T02710138 57006 IEM_DS3505
ZGGG,2006-11-08 10:00,ZGGG 081000Z AUTO 00000KT 3SM 25/16 A3006 RMK T02500160 IEM_DS3505
ZGGG,2006-11-08 11:00,ZGGG 081100Z AUTO 14002KT 3SM 24/16 A3006 RMK T02400160 IEM_DS3505
ZGGG,2006-11-08 12:00,ZGGG 081200Z AUTO 07002KT 5SM 23/16 A3009 RMK SLP197 T02340155 52011 IEM_DS3505
ZGGG,2006-11-08 13:00,ZGGG 081300Z AUTO 03002KT 2 1/2SM 22/17 A3009 RMK T02200170 IEM_DS3505
ZGGG,2006-11-08 14:00,ZGGG 081400Z AUTO 11002KT 2 1/2SM 21/17 A3012 RMK T02100170 IEM_DS3505
ZGGG,2006-11-08 15:00,ZGGG 081500Z AUTO 09002KT 7SM 22/16 A3012 RMK SLP207 T02160161 52010 IEM_DS3505
ZGGG,2006-11-08 16:00,ZGGG 081600Z AUTO 05002KT 2 1/2SM 20/16 A3012 RMK T02000160 IEM_DS3505
ZGGG,2006-11-08 17:00,ZGGG 081700Z AUTO 03002KT 2SM 20/16 A3012 RMK T02000160 IEM_DS3505
ZGGG,2006-11-08 18:00,ZGGG 081800Z AUTO 36002KT 6SM 21/17 A3012 RMK SLP209 T02060166 52002 IEM_DS3505
ZGGG,2006-11-08 19:00,ZGGG 081900Z AUTO 00000KT 1 1/2SM 19/16 A3012 RMK T01900160 IEM_DS3505
ZGGG,2006-11-08 20:00,ZGGG 082000Z AUTO 08002KT 2SM 19/16 A3009 RMK T01900160 IEM_DS3505
ZGGG,2006-11-08 21:00,ZGGG 082100Z AUTO 07002KT 4SM 20/17 A3012 RMK SLP205 T01990169 57004 IEM_DS3505
ZGGG,2006-11-08 22:00,ZGGG 082200Z AUTO 08002KT 1 1/2SM 19/16 A3012 RMK T01900160 IEM_DS3505
ZGGG,2006-11-08 23:00,ZGGG 082300Z AUTO 09004KT 1 1/4SM 19/15 A3015 RMK T01900150 IEM_DS3505
ZGGG,2006-11-09 00:00,ZGGG 090000Z AUTO 04002KT 2SM 22/18 A3015 RMK SLP220 T02190175 52015 IEM_DS3505
ZGGG,2006-11-09 01:00,ZGGG 090100Z AUTO 1 1/2SM 23/16 A3015 RMK T02300160 IEM_DS3505
ZGGG,2006-11-09 02:00,ZGGG 090200Z AUTO 2SM 25/16 A3018 RMK T02500160 IEM_DS3505
ZGGG,2006-11-09 03:00,ZGGG 090300Z AUTO 14002KT 2SM 28/18 A3015 RMK SLP215 T02770176 57005 IEM_DS3505
ZGGG,2006-11-09 04:00,ZGGG 090400Z AUTO 2 1/2SM 29/15 A3012 RMK T02900150 IEM_DS3505
ZGGG,2006-11-09 05:00,ZGGG 090500Z AUTO 2 1/2SM 30/16 A3009 RMK T03000160 IEM_DS3505
ZGGG,2006-11-09 06:00,ZGGG 090600Z AUTO 11004KT 4SM 30/17 A3003 RMK SLP183 T02950167 57032 IEM_DS3505
ZGGG,2006-11-09 07:00,ZGGG 090700Z AUTO 25004KT 2SM 30/16 A3003 RMK T03000160 IEM_DS3505
ZGGG,2006-11-09 08:00,ZGGG 090800Z AUTO 1 1/2SM 30/16 A3003 RMK T03000160 IEM_DS3505
ZGGG,2006-11-09 09:00,ZGGG 090900Z AUTO 18002KT 6SM 28/16 A3003 RMK SLP179 T02820165 57004 IEM_DS3505
ZGGG,2006-11-09 10:00,ZGGG 091000Z AUTO 24004KT 1 1/2SM 28/17 A3003 RMK T02800170 IEM_DS3505
ZGGG,2006-11-09 11:00,ZGGG 091100Z AUTO 1 1/2SM 27/17 A3003 RMK T02700170 IEM_DS3505
ZGGG,2006-11-09 12:00,ZGGG 091200Z AUTO 04002KT 7SM 24/18 A3006 RMK SLP188 T02420182 52009 IEM_DS3505
ZGGG,2006-11-09 13:00,ZGGG 091300Z AUTO 00000KT 1 1/4SM 24/18 A3006 RMK T02400180 IEM_DS3505
ZGGG,2006-11-09 14:00,ZGGG 091400Z AUTO 00000KT 1 1/4SM 23/19 A3006 RMK T02300190 IEM_DS3505
ZGGG,2006-11-09 15:00,ZGGG 091500Z AUTO 04002KT 6SM 23/18 A3006 RMK SLP195 T02290182 52007 IEM_DS3505
ZGGG,2006-11-09 16:00,ZGGG 091600Z AUTO 09002KT 1SM 22/18 A3006 RMK T02200180 IEM_DS3505
ZGGG,2006-11-09 17:00,ZGGG 091700Z AUTO 06002KT 1SM 21/18 A3006 RMK T02100180 IEM_DS3505
ZGGG,2006-11-09 18:00,ZGGG 091800Z AUTO 07002KT 5SM 22/19 A3006 RMK SLP188 T02200186 57006 IEM_DS3505
ZGGG,2006-11-09 19:00,ZGGG 091900Z AUTO 1SM 21/18 A3006 RMK T02100180 IEM_DS3505
ZGGG,2006-11-09 20:00,ZGGG 092000Z AUTO 09002KT 1 1/4SM 20/18 A3006 RMK T02000180 IEM_DS3505
ZGGG,2006-11-09 21:00,ZGGG 092100Z AUTO 07002KT 4SM 21/19 A3006 RMK SLP186 T02100186 57003 IEM_DS3505
ZGGG,2006-11-09 22:00,ZGGG 092200Z AUTO 1SM 20/17 A3006 RMK T02000170 IEM_DS3505
ZGGG,2006-11-09 23:00,ZGGG 092300Z AUTO 00000KT 1SM 20/17 A3009 RMK T02000170 IEM_DS3505
ZGGG,2006-11-10 00:00,ZGGG 100000Z AUTO 00000KT 1 1/2SM 22/19 A3012 RMK SLP202 T02240194 52016 IEM_DS3505
ZGGG,2006-11-10 01:00,ZGGG 100100Z AUTO 1SM 23/18 A3012 RMK T02300180 IEM_DS3505
ZGGG,2006-11-10 02:00,ZGGG 100200Z AUTO 1 1/4SM 26/19 A3012 RMK T02600190 IEM_DS3505
ZGGG,2006-11-10 03:00,ZGGG 100300Z AUTO 29002KT 2 1/2SM 29/19 A3009 RMK SLP194 T02930187 57007 IEM_DS3505
ZGGG,2006-11-10 04:00,ZGGG 100400Z AUTO 29006G16KT 2SM 30/18 A3006 RMK T03000180 IEM_DS3505
ZGGG,2006-11-10 05:00,ZGGG 100500Z AUTO 28004KT 2 1/2SM 31/17 A3000 RMK T03100170 IEM_DS3505
ZGGG,2006-11-10 06:00,ZGGG 100600Z AUTO 25004KT 2 1/2SM 32/19 A2997 RMK SLP160 T03160186 57034 IEM_DS3505
ZGGG,2006-11-10 07:00,ZGGG 100700Z AUTO 4SM 32/16 A2997 RMK T03200160 IEM_DS3505
ZGGG,2006-11-10 08:00,ZGGG 100800Z AUTO 28006G16KT 4SM 32/15 A2994 RMK T03200150 IEM_DS3505
ZGGG,2006-11-10 09:00,ZGGG 100900Z AUTO 29002KT 6SM 30/17 A2997 RMK SLP157 T02990170 57003 IEM_DS3505
ZGGG,2006-11-10 10:00,ZGGG 101000Z AUTO 4SM 30/17 A2997 RMK T03000170 IEM_DS3505
ZGGG,2006-11-10 11:00,ZGGG 101100Z AUTO 00000KT 3SM 27/19 A3000 RMK T02700190 IEM_DS3505
ZGGG,2006-11-10 12:00,ZGGG 101200Z AUTO 07002KT 8SM 25/20 A3000 RMK SLP175 T02470198 52017 IEM_DS3505
ZGGG,2006-11-10 13:00,ZGGG 101300Z AUTO 00000KT 2 1/2SM 25/19 A3003 RMK T02500190 IEM_DS3505
ZGGG,2006-11-10 14:00,ZGGG 101400Z AUTO 2 1/2SM 24/19 A3003 RMK T02400190 IEM_DS3505
ZGGG,2006-11-10 15:00,ZGGG 101500Z AUTO 04002KT 7SM 24/20 A3003 RMK SLP178 T02350199 52004 IEM_DS3505
ZGGG,2006-11-10 16:00,ZGGG 101600Z AUTO 00000KT 1 1/2SM 23/19 A3003 RMK T02300190 IEM_DS3505
ZGGG,2006-11-10 17:00,ZGGG 101700Z AUTO 00000KT 1 1/2SM 23/19 A3000 RMK T02300190 IEM_DS3505
ZGGG,2006-11-10 18:00,ZGGG 101800Z AUTO 02002KT 5SM 23/20 A3000 RMK SLP173 T02280196 57005 IEM_DS3505
ZGGG,2006-11-10 19:00,ZGGG 101900Z AUTO 00000KT 1 1/2SM 22/18 A3000 RMK T02200180 IEM_DS3505
ZGGG,2006-11-10 20:00,ZGGG 102000Z AUTO 1 1/2SM 21/18 A3000 RMK T02100180 IEM_DS3505
ZGGG,2006-11-10 21:00,ZGGG 102100Z AUTO 34004KT 5SM 23/19 A3000 RMK SLP168 T02300190 57005 IEM_DS3505
ZGGG,2006-11-10 22:00,ZGGG 102200Z AUTO 05006KT 3SM 24/17 A3003 RMK T02400170 IEM_DS3505
ZGGG,2006-11-10 23:00,ZGGG 102300Z AUTO 04004KT 3SM 23/17 A3006 RMK T02300170 IEM_DS3505
ZGGG,2006-11-11 00:00,ZGGG 110000Z AUTO 02006KT 7SM 26/18 A3009 RMK SLP193 T02630179 52024 IEM_DS3505
ZGGG,2006-11-11 01:00,ZGGG 110100Z AUTO 02012KT 3SM 27/16 A3009 RMK T02700160 IEM_DS3505
ZGGG,2006-11-11 02:00,ZGGG 110200Z AUTO 02012KT 3SM 28/14 A3009 RMK T02800140 IEM_DS3505
ZGGG,2006-11-11 03:00,ZGGG 110300Z AUTO 02004KT 8SM 29/17 A3006 RMK SLP191 T02930168 57001 IEM_DS3505
ZGGG,2006-11-11 04:00,ZGGG 110400Z AUTO 02012KT 4SM 29/13 A3006 RMK T02900130 IEM_DS3505
ZGGG,2006-11-11 05:00,ZGGG 110500Z AUTO 04012KT 4SM 30/13 A3003 RMK T03000130 IEM_DS3505
ZGGG,2006-11-11 06:00,ZGGG 110600Z AUTO 04006KT 8SM 31/13 A3000 RMK SLP167 T03070130 57024 IEM_DS3505
ZGGG,2006-11-11 07:00,ZGGG 110700Z AUTO 36014KT 5SM 31/10 A3000 RMK T03100100 IEM_DS3505
ZGGG,2006-11-11 08:00,ZGGG 110800Z AUTO 02010KT 5SM 30/10 A3000 RMK T03000100 IEM_DS3505
ZGGG,2006-11-11 09:00,ZGGG 110900Z AUTO 36004KT 8SM 28/11 A3000 RMK SLP172 T02850107 52005 IEM_DS3505
ZGGG,2006-11-11 10:00,ZGGG 111000Z AUTO 02006KT 3SM 25/12 A3003 RMK T02500120 IEM_DS3505
ZGGG,2006-11-11 11:00,ZGGG 111100Z AUTO 04004KT 4SM 24/11 A3006 RMK T02400110 IEM_DS3505
ZGGG,2006-11-11 12:00,ZGGG 111200Z AUTO 02002KT 7SM 26/07 A3006 RMK SLP192 T02560072 52020 IEM_DS3505
ZGGG,2006-11-11 13:00,ZGGG 111300Z AUTO 03008KT 6SM 23/07 A3009 RMK T02300070 IEM_DS3505
ZGGG,2006-11-11 14:00,ZGGG 111400Z AUTO 01008KT 6SM 22/08 A3009 RMK T02200080 IEM_DS3505
ZGGG,2006-11-11 15:00,ZGGG 111500Z AUTO 02004KT 7SM 22/07 A3009 RMK SLP200 T02250067 52008 IEM_DS3505
ZGGG,2006-11-11 16:00,ZGGG 111600Z AUTO 01010KT 6SM 21/05 A3009 RMK T02100050 IEM_DS3505
ZGGG,2006-11-11 17:00,ZGGG 111700Z AUTO 02006KT 6SM 20/06 A3009 RMK T02000060 IEM_DS3505
ZGGG,2006-11-11 18:00,ZGGG 111800Z AUTO 34002KT 7SM 21/06 A3006 RMK SLP190 T02080064 57010 IEM_DS3505
ZGGG,2006-11-11 19:00,ZGGG 111900Z AUTO 01010KT 6SM 21/03 A3006 RMK T02100030 IEM_DS3505
ZGGG,2006-11-11 20:00,ZGGG 112000Z AUTO 04006KT 4SM 19/05 A3006 RMK T01900050 IEM_DS3505
ZGGG,2006-11-11 21:00,ZGGG 112100Z AUTO 34002KT 7SM 18/06 A3006 RMK SLP192 T01830055 52001 IEM_DS3505
ZGGG,2006-11-11 22:00,ZGGG 112200Z AUTO 11004KT 4SM 16/07 A3009 RMK T01600070 IEM_DS3505
ZGGG,2006-11-11 23:00,ZGGG 112300Z AUTO 00000KT 4SM 15/08 A3012 RMK T01500080 IEM_DS3505
ZGGG,2006-11-12 00:00,ZGGG 120000Z AUTO 36002KT 10SM 20/06 A3012 RMK SLP213 T01980065 52021 IEM_DS3505
ZGGG,2006-11-12 01:00,ZGGG 120100Z AUTO 4SM 21/06 A3015 RMK T02100060 IEM_DS3505
ZGGG,2006-11-12 02:00,ZGGG 120200Z AUTO 06004KT 4SM 23/05 A3015 RMK T02300050 IEM_DS3505
ZGGG,2006-11-12 03:00,ZGGG 120300Z AUTO 11002KT 10SM 25/03 A3012 RMK SLP210 T02520032 57003 IEM_DS3505
ZGGG,2006-11-12 04:00,ZGGG 120400Z AUTO 07004KT 6SM 26/03 A3009 RMK T02600030 IEM_DS3505
ZGGG,2006-11-12 05:00,ZGGG 120500Z AUTO 10006KT 6SM 27/02 A3006 RMK T02700020 IEM_DS3505
ZGGG,2006-11-12 06:00,ZGGG 120600Z AUTO 09002KT 11SM 27/04 A3003 RMK SLP177 T02700041 57033 IEM_DS3505
ZGGG,2006-11-12 07:00,ZGGG 120700Z AUTO 09004KT 6SM 27/04 A3000 RMK T02700040 IEM_DS3505
ZGGG,2006-11-12 08:00,ZGGG 120800Z AUTO 6SM 27/04 A3000 RMK T02700040 IEM_DS3505
ZGGG,2006-11-12 09:00,ZGGG 120900Z AUTO 09002KT 9SM 25/08 A3000 RMK SLP173 T02540075 57004 IEM_DS3505
ZGGG,2006-11-12 10:00,ZGGG 121000Z AUTO 14002KT 4SM 22/08 A3000 RMK T02200080 IEM_DS3505
ZGGG,2006-11-12 11:00,ZGGG 121100Z AUTO 14004KT 3SM 21/10 A3003 RMK T02100100 IEM_DS3505
ZGGG,2006-11-12 12:00,ZGGG 121200Z AUTO 07002KT 9SM 20/11 A3006 RMK SLP185 T02020109 52012 IEM_DS3505
ZGGG,2006-11-12 13:00,ZGGG 121300Z AUTO 04002KT 2 1/2SM 18/13 A3006 RMK T01800130 IEM_DS3505
ZGGG,2006-11-12 14:00,ZGGG 121400Z AUTO 10002KT 2 1/2SM 18/12 A3006 RMK T01800120 IEM_DS3505
ZGGG,2006-11-12 15:00,ZGGG 121500Z AUTO 07002KT 9SM 20/14 A3006 RMK SLP190 T02020139 52005 IEM_DS3505
ZGGG,2006-11-12 16:00,ZGGG 121600Z AUTO 02004KT 3SM 17/12 A3006 RMK T01700120 IEM_DS3505
ZGGG,2006-11-12 17:00,ZGGG 121700Z AUTO 36002KT 3SM 17/12 A3006 RMK T01700120 IEM_DS3505
ZGGG,2006-11-12 18:00,ZGGG 121800Z AUTO 07002KT 7SM 18/15 A3003 RMK SLP183 T01800149 57007 IEM_DS3505
ZGGG,2006-11-12 19:00,ZGGG 121900Z AUTO 08004KT 2 1/2SM 17/12 A3003 RMK T01700120 IEM_DS3505
ZGGG,2006-11-12 20:00,ZGGG 122000Z AUTO 09004KT 2SM 16/12 A3003 RMK T01600120 IEM_DS3505
ZGGG,2006-11-12 21:00,ZGGG 122100Z AUTO 04002KT 6SM 18/15 A3003 RMK SLP177 T01770151 57006 IEM_DS3505
ZGGG,2006-11-12 22:00,ZGGG 122200Z AUTO 08004KT 2SM 16/11 A3003 RMK T01600110 IEM_DS3505
ZGGG,2006-11-12 23:00,ZGGG 122300Z AUTO 08004KT 1 1/4SM 15/11 A3006 RMK T01500110 IEM_DS3505
ZGGG,2006-11-13 00:00,ZGGG 130000Z AUTO 02002KT 3SM 19/16 A3006 RMK SLP192 T01920155 52015 IEM_DS3505
ZGGG,2006-11-13 01:00,ZGGG 130100Z AUTO 09004KT 2SM 19/13 A3009 RMK T01900130 IEM_DS3505
ZGGG,2006-11-13 02:00,ZGGG 130200Z AUTO 06004KT 2 1/2SM 22/13 A3009 RMK T02200130 IEM_DS3505
ZGGG,2006-11-13 03:00,ZGGG 130300Z AUTO 14004KT 6SM 25/15 A3006 RMK SLP186 T02460147 57006 IEM_DS3505
ZGGG,2006-11-13 04:00,ZGGG 130400Z AUTO 4SM 26/11 A3003 RMK T02600110 IEM_DS3505
ZGGG,2006-11-13 05:00,ZGGG 130500Z AUTO 4SM 27/12 A2997 RMK T02700120 IEM_DS3505
ZGGG,2006-11-13 06:00,ZGGG 130600Z AUTO 11002KT 7SM 27/15 A2994 RMK SLP152 T02670148 57034 IEM_DS3505
ZGGG,2006-11-13 07:00,ZGGG 130700Z AUTO 07004KT 4SM 28/13 A2994 RMK T02800130 IEM_DS3505
ZGGG,2006-11-13 08:00,ZGGG 130800Z AUTO 4SM 28/13 A2994 RMK T02800130 IEM_DS3505
ZGGG,2006-11-13 09:00,ZGGG 130900Z AUTO 09004KT 7SM 26/15 A2994 RMK SLP154 T02560153 52002 IEM_DS3505
ZGGG,2006-11-13 10:00,ZGGG 131000Z AUTO 12002KT 2 1/2SM 24/14 A2997 RMK T02400140 IEM_DS3505
ZGGG,2006-11-13 11:00,ZGGG 131100Z AUTO 10002KT 2 1/2SM 23/15 A2997 RMK T02300150 IEM_DS3505
ZGGG,2006-11-13 12:00,ZGGG 131200Z AUTO 09002KT 7SM 24/17 A3000 RMK SLP175 T02380168 52021 IEM_DS3505
ZGGG,2006-11-13 13:00,ZGGG 131300Z AUTO 09002KT 2SM 22/16 A3003 RMK T02200160 IEM_DS3505
ZGGG,2006-11-13 14:00,ZGGG 131400Z AUTO 06004KT 2SM 21/16 A3003 RMK T02100160 IEM_DS3505
ZGGG,2006-11-13 15:00,ZGGG 131500Z AUTO 32002KT 7SM 21/17 A3003 RMK SLP181 T02140170 52006 IEM_DS3505
ZGGG,2006-11-13 16:00,ZGGG 131600Z AUTO 00000KT 2SM 21/16 A3003 RMK T02100160 IEM_DS3505
ZGGG,2006-11-13 17:00,ZGGG 131700Z AUTO 00000KT 2SM 20/16 A3003 RMK T02000160 IEM_DS3505
ZGGG,2006-11-13 18:00,ZGGG 131800Z AUTO 36002KT 7SM 21/17 A3003 RMK SLP177 T02140172 57004 IEM_DS3505
ZGGG,2006-11-13 19:00,ZGGG 131900Z AUTO 1 1/2SM 19/16 A3003 RMK T01900160 IEM_DS3505
ZGGG,2006-11-13 20:00,ZGGG 132000Z AUTO 10004KT 2SM 20/16 A3003 RMK T02000160 IEM_DS3505
ZGGG,2006-11-13 21:00,ZGGG 132100Z AUTO 32002KT 6SM 22/17 A3003 RMK SLP176 T02150171 57001 IEM_DS3505
ZGGG,2006-11-13 22:00,ZGGG 132200Z AUTO 07004KT 2SM 19/15 A3003 RMK T01900150 IEM_DS3505
ZGGG,2006-11-13 23:00,ZGGG 132300Z AUTO 1 1/4SM 19/16 A3006 RMK T01900160 IEM_DS3505
ZGGG,2006-11-14 00:00,ZGGG 140000Z AUTO 27002KT 7SM 22/18 A3009 RMK SLP195 T02220178 52019 IEM_DS3505
ZGGG,2006-11-14 01:00,ZGGG 140100Z AUTO 2 1/2SM 23/16 A3009 RMK T02300160 IEM_DS3505
ZGGG,2006-11-14 02:00,ZGGG 140200Z AUTO 2 1/2SM 24/17 A3012 RMK T02400170 IEM_DS3505
ZGGG,2006-11-14 03:00,ZGGG 140300Z AUTO 04002KT 9SM 27/18 A3009 RMK SLP201 T02740181 52006 IEM_DS3505
ZGGG,2006-11-14 04:00,ZGGG 140400Z AUTO 03004KT 3SM 28/16 A3006 RMK T02800160 IEM_DS3505
ZGGG,2006-11-14 05:00,ZGGG 140500Z AUTO 01006KT 4SM 29/13 A3003 RMK T02900130 IEM_DS3505
ZGGG,2006-11-14 06:00,ZGGG 140600Z AUTO 11004KT 8SM 28/18 A3000 RMK SLP168 T02840176 57032 IEM_DS3505
ZGGG,2006-11-14 07:00,ZGGG 140700Z AUTO 04006KT 4SM 29/14 A3000 RMK T02900140 IEM_DS3505
ZGGG,2006-11-14 08:00,ZGGG 140800Z AUTO 05004KT 4SM 29/14 A3000 RMK T02900140 IEM_DS3505
ZGGG,2006-11-14 09:00,ZGGG 140900Z AUTO 07002KT 9SM 27/16 A3000 RMK SLP173 T02680155 52004 IEM_DS3505
ZGGG,2006-11-14 10:00,ZGGG 141000Z AUTO 36004KT 4SM 27/14 A3003 RMK T02700140 IEM_DS3505
ZGGG,2006-11-14 11:00,ZGGG 141100Z AUTO 36004KT 3SM 26/14 A3003 RMK T02600140 IEM_DS3505
ZGGG,2006-11-14 12:00,ZGGG 141200Z AUTO 07002KT 9SM 24/17 A3006 RMK SLP189 T02440174 52016 IEM_DS3505
ZGGG,2006-11-14 13:00,ZGGG 141300Z AUTO 02006KT 4SM 24/13 A3006 RMK T02400130 IEM_DS3505
ZGGG,2006-11-14 14:00,ZGGG 141400Z AUTO 02006KT 4SM 24/10 A3009 RMK T02400100 IEM_DS3505
ZGGG,2006-11-14 15:00,ZGGG 141500Z AUTO 36002KT 9SM 24/13 A3009 RMK SLP199 T02390132 52010 IEM_DS3505
ZGGG,2006-11-14 16:00,ZGGG 141600Z AUTO 02008KT 4SM 22/10 A3009 RMK T02200100 IEM_DS3505
ZGGG,2006-11-14 17:00,ZGGG 141700Z AUTO 02008KT 4SM 22/10 A3009 RMK T02200100 IEM_DS3505
ZGGG,2006-11-14 18:00,ZGGG 141800Z AUTO 36006KT 9SM 22/12 A3009 RMK SLP194 T02210124 57005 IEM_DS3505
ZGGG,2006-11-14 19:00,ZGGG 141900Z AUTO 03004KT 4SM 21/11 A3006 RMK T02100110 IEM_DS3505
ZGGG,2006-11-14 20:00,ZGGG 142000Z AUTO 04004KT 4SM 21/10 A3006 RMK T02100100 IEM_DS3505
ZGGG,2006-11-14 21:00,ZGGG 142100Z AUTO 36002KT 8SM 21/12 A3006 RMK SLP194 T02140120 54000 IEM_DS3505
ZGGG,2006-11-14 22:00,ZGGG 142200Z AUTO 04004KT 3SM 21/11 A3009 RMK T02100110 IEM_DS3505
ZGGG,2006-11-14 23:00,ZGGG 142300Z AUTO 03004KT 3SM 20/11 A3012 RMK T02000110 IEM_DS3505
ZGGG,2006-11-15 00:00,ZGGG 150000Z AUTO 32004KT 5SM 21/12 A3015 RMK SLP216 T02110123 52022 IEM_DS3505
ZGGG,2006-11-15 01:00,ZGGG 150100Z AUTO 04006KT 3SM 22/10 A3015 RMK T02200100 IEM_DS3505
ZGGG,2006-11-15 02:00,ZGGG 150200Z AUTO 05006KT 3SM 23/10 A3015 RMK T02300100 IEM_DS3505
ZGGG,2006-11-15 03:00,ZGGG 150300Z AUTO 11002KT 5SM 25/13 A3015 RMK SLP212 T02480134 57004 IEM_DS3505
ZGGG,2006-11-15 04:00,ZGGG 150400Z AUTO 08004KT 2 1/2SM 25/10 A3009 RMK T02500100 IEM_DS3505
ZGGG,2006-11-15 05:00,ZGGG 150500Z AUTO 08004KT 3SM 26/11 A3006 RMK T02600110 IEM_DS3505
ZGGG,2006-11-15 06:00,ZGGG 150600Z AUTO 09004KT 5SM 26/13 A3003 RMK SLP178 T02650133 57034 IEM_DS3505
ZGGG,2006-11-15 07:00,ZGGG 150700Z AUTO 3SM 26/12 A3000 RMK T02600120 IEM_DS3505
ZGGG,2006-11-15 08:00,ZGGG 150800Z AUTO 2 1/2SM 27/12 A3000 RMK T02700120 IEM_DS3505
ZGGG,2006-11-15 09:00,ZGGG 150900Z AUTO 14002KT 4SM 25/14 A3000 RMK SLP173 T02520140 57005 IEM_DS3505
ZGGG,2006-11-15 10:00,ZGGG 151000Z AUTO 14004KT 2 1/2SM 24/14 A3000 RMK T02400140 IEM_DS3505
ZGGG,2006-11-15 11:00,ZGGG 151100Z AUTO 2 1/2SM 22/14 A3003 RMK T02200140 IEM_DS3505
ZGGG,2006-11-15 12:00,ZGGG 151200Z AUTO 16004KT 2 1/2SM 23/17 A3006 RMK SLP186 T02330171 52013 IEM_DS3505
ZGGG,2006-11-15 13:00,ZGGG 151300Z AUTO 11002KT 2SM 22/16 A3006 RMK T02200160 IEM_DS3505
ZGGG,2006-11-15 14:00,ZGGG 151400Z AUTO 00000KT 2SM 22/16 A3006 RMK T02200160 IEM_DS3505
ZGGG,2006-11-15 15:00,ZGGG 151500Z AUTO 18002KT 6SM 23/19 A3006 RMK SLP193 T02270187 52007 IEM_DS3505
ZGGG,2006-11-15 16:00,ZGGG 151600Z AUTO 1 1/2SM 22/16 A3006 RMK T02200160 IEM_DS3505
ZGGG,2006-11-15 17:00,ZGGG 151700Z AUTO 09004KT 1 1/2SM 22/16 A3006 RMK T02200160 IEM_DS3505
ZGGG,2006-11-15 18:00,ZGGG 151800Z AUTO 07004KT 3SM 22/18 A3003 RMK SLP180 T02230181 57013 IEM_DS3505
ZGGG,2006-11-15 19:00,ZGGG 151900Z AUTO 07004KT 1 1/2SM 22/17 A3003 RMK T02200170 IEM_DS3505
ZGGG,2006-11-15 20:00,ZGGG 152000Z AUTO 09004KT 1 1/2SM 21/17 A3003 RMK T02100170 IEM_DS3505
ZGGG,2006-11-15 21:00,ZGGG 152100Z AUTO 07004KT 2 1/2SM 21/18 A3000 RMK 70000 SLP175 T02140182 57005 IEM_DS3505
ZGGG,2006-11-15 22:00,ZGGG 152200Z AUTO 08002KT 1 1/2SM 21/15 A3003 RMK T02100150 IEM_DS3505
ZGGG,2006-11-15 23:00,ZGGG 152300Z AUTO 1 1/2SM 21/16 A3003 RMK T02100160 IEM_DS3505
ZGGG,2006-11-16 00:00,ZGGG 160000Z AUTO 09002KT 1 1/4SM 22/18 A3006 RMK 60000 70000 SLP186 T02150179 52011 IEM_DS3505
ZGGG,2006-11-16 01:00,ZGGG 160100Z AUTO 04004KT 1 1/2SM 22/15 A3006 RMK T02200150 IEM_DS3505
ZGGG,2006-11-16 02:00,ZGGG 160200Z AUTO 1 1/4SM 22/15 A3006 RMK T02200150 IEM_DS3505
ZGGG,2006-11-16 03:00,ZGGG 160300Z AUTO 07002KT 2SM 24/18 A3006 RMK SLP187 T02390185 52001 IEM_DS3505
ZGGG,2006-11-16 04:00,ZGGG 160400Z AUTO 05004KT 2SM 24/16 A3003 RMK T02400160 IEM_DS3505
ZGGG,2006-11-16 05:00,ZGGG 160500Z AUTO 2SM 25/16 A3000 RMK T02500160 IEM_DS3505
ZGGG,2006-11-16 06:00,ZGGG 160600Z AUTO 11004KT 1 1/2SM 24/18 A2997 RMK SLP160 T02450182 57027 IEM_DS3505
ZGGG,2006-11-16 07:00,ZGGG 160700Z AUTO 06004KT 2SM 25/16 A2997 RMK T02500160 IEM_DS3505
ZGGG,2006-11-16 08:00,ZGGG 160800Z AUTO 2SM 25/16 A2997 RMK T02500160 IEM_DS3505
ZGGG,2006-11-16 09:00,ZGGG 160900Z AUTO 04002KT 2 1/2SM 25/18 A2997 RMK SLP155 T02470184 57005 IEM_DS3505
ZGGG,2006-11-16 10:00,ZGGG 161000Z AUTO 2SM 24/17 A2997 RMK T02400170 IEM_DS3505
ZGGG,2006-11-16 11:00,ZGGG 161100Z AUTO 02002KT 2SM 23/18 A3000 RMK T02300180 IEM_DS3505
ZGGG,2006-11-16 12:00,ZGGG 161200Z AUTO 36002KT 5SM 24/19 A3003 RMK SLP175 T02370188 52020 IEM_DS3505
ZGGG,2006-11-16 13:00,ZGGG 161300Z AUTO 06002KT 2SM 23/18 A3003 RMK T02300180 IEM_DS3505
ZGGG,2006-11-16 14:00,ZGGG 161400Z AUTO 2SM 23/18 A3003 RMK T02300180 IEM_DS3505
ZGGG,2006-11-16 15:00,ZGGG 161500Z AUTO 02002KT 6SM 23/19 A3003 RMK SLP179 T02300192 52004 IEM_DS3505
ZGGG,2006-11-16 16:00,ZGGG 161600Z AUTO 1 1/4SM 23/18 A3003 RMK T02300180 IEM_DS3505
ZGGG,2006-11-16 17:00,ZGGG 161700Z AUTO 1 1/4SM 22/18 A3000 RMK T02200180 IEM_DS3505
ZGGG,2006-11-16 18:00,ZGGG 161800Z AUTO 04002KT 6SM 23/20 A2997 RMK 60000 SLP163 T02270195 57016 IEM_DS3505
ZGGG,2006-11-16 19:00,ZGGG 161900Z AUTO 1 1/4SM 22/18 A2997 RMK T02200180 IEM_DS3505
ZGGG,2006-11-16 20:00,ZGGG 162000Z AUTO 08002KT 1 1/4SM 22/18 A2997 RMK T02200180 IEM_DS3505
ZGGG,2006-11-16 21:00,ZGGG 162100Z AUTO 07002KT 4SM 22/19 A2997 RMK 70000 SLP155 T02230193 57008 IEM_DS3505
ZGGG,2006-11-16 22:00,ZGGG 162200Z AUTO 10004KT 1 1/4SM 21/18 A2997 RMK T02100180 IEM_DS3505
ZGGG,2006-11-16 23:00,ZGGG 162300Z AUTO 10004KT 1SM 21/18 A2997 RMK T02100180 IEM_DS3505
ZGGG,2006-11-17 00:00,ZGGG 170000Z AUTO 11002KT 2 1/2SM 23/20 A3000 RMK 70000 SLP172 T02270195 52017 IEM_DS3505
ZGGG,2006-11-17 01:00,ZGGG 170100Z AUTO 1 1/4SM 23/18 A3003 RMK T02300180 IEM_DS3505
ZGGG,2006-11-17 02:00,ZGGG 170200Z AUTO 2SM 26/19 A3003 RMK T02600190 IEM_DS3505
ZGGG,2006-11-17 03:00,ZGGG 170300Z AUTO 14004KT 2 1/2SM 25/20 A3000 RMK SLP177 T02540200 52005 IEM_DS3505
ZGGG,2006-11-17 04:00,ZGGG 170400Z AUTO 00000KT 3SM 27/19 A2997 RMK T02700190 IEM_DS3505
ZGGG,2006-11-17 05:00,ZGGG 170500Z AUTO 15004KT 2 1/2SM 27/19 A2997 RMK T02700190 IEM_DS3505
ZGGG,2006-11-17 06:00,ZGGG 170600Z AUTO 14002KT 3SM 26/21 A2994 RMK SLP147 T02650206 57029 IEM_DS3505
ZGGG,2006-11-17 07:00,ZGGG 170700Z AUTO 13004KT 2 1/2SM 27/19 A2991 RMK T02700190 IEM_DS3505
ZGGG,2006-11-17 08:00,ZGGG 170800Z AUTO 2 1/2SM 27/19 A2991 RMK T02700190 IEM_DS3505
ZGGG,2006-11-17 09:00,ZGGG 170900Z AUTO 14004KT 2 1/2SM 26/20 A2991 RMK SLP140 T02640203 57007 IEM_DS3505
ZGGG,2006-11-17 10:00,ZGGG 171000Z AUTO 10002KT 2 1/2SM 26/20 A2991 RMK T02600200 IEM_DS3505
ZGGG,2006-11-17 11:00,ZGGG 171100Z AUTO 09002KT 2SM 25/20 A2994 RMK T02500200 IEM_DS3505
ZGGG,2006-11-17 12:00,ZGGG 171200Z AUTO 16002KT 4SM 25/20 A2997 RMK 60000 SLP156 T02490204 52015 IEM_DS3505
ZGGG,2006-11-17 13:00,ZGGG 171300Z AUTO 00000KT 2SM 25/20 A2997 RMK T02500200 IEM_DS3505
ZGGG,2006-11-17 14:00,ZGGG 171400Z AUTO 13004KT 2 1/2SM 24/20 A2997 RMK T02400200 IEM_DS3505
ZGGG,2006-11-17 15:00,ZGGG 171500Z AUTO 16002KT 9SM 24/19 A2997 RMK SLP165 T02390194 52009 IEM_DS3505
ZGGG,2006-11-17 16:00,ZGGG 171600Z AUTO 13004KT 3SM 24/19 A2994 RMK T02400190 IEM_DS3505
ZGGG,2006-11-17 17:00,ZGGG 171700Z AUTO 00000KT 3SM 23/19 A2997 RMK T02300190 IEM_DS3505
ZGGG,2006-11-17 18:00,ZGGG 171800Z AUTO 00000KT 7SM 23/20 A2994 RMK SLP151 T02310199 57013 IEM_DS3505
ZGGG,2006-11-17 19:00,ZGGG 171900Z AUTO 2 1/2SM 24/19 A2994 RMK T02400190 IEM_DS3505
ZGGG,2006-11-17 20:00,ZGGG 172000Z AUTO 10004KT 3SM 23/19 A2991 RMK T02300190 IEM_DS3505
ZGGG,2006-11-17 21:00,ZGGG 172100Z AUTO 09002KT 6SM 23/20 A2994 RMK 70000 SLP145 T02310199 57006 IEM_DS3505
ZGGG,2006-11-17 22:00,ZGGG 172200Z AUTO 2SM 23/19 A2994 RMK T02300190 IEM_DS3505
ZGGG,2006-11-17 23:00,ZGGG 172300Z AUTO 1 1/2SM 23/19 A2997 RMK T02300190 IEM_DS3505
ZGGG,2006-11-18 00:00,ZGGG 180000Z AUTO 14002KT 2 1/2SM 23/20 A2997 RMK 70000 SLP162 T02310201 52016 IEM_DS3505
ZGGG,2006-11-18 01:00,ZGGG 180100Z AUTO 09004KT 1 1/4SM 23/19 A3000 RMK T02300190 IEM_DS3505
ZGGG,2006-11-18 02:00,ZGGG 180200Z AUTO 1 1/4SM 24/19 A3000 RMK T02400190 IEM_DS3505
ZGGG,2006-11-18 03:00,ZGGG 180300Z AUTO 04002KT 2SM 25/21 A2997 RMK SLP159 T02520207 57003 IEM_DS3505
ZGGG,2006-11-18 04:00,ZGGG 180400Z AUTO 15004KT 2SM 27/20 A2994 RMK T02700200 IEM_DS3505
ZGGG,2006-11-18 05:00,ZGGG 180500Z AUTO 18004KT 3SM 27/20 A2991 RMK T02700200 IEM_DS3505
ZGGG,2006-11-18 06:00,ZGGG 180600Z AUTO 14002KT 4SM 27/21 A2988 RMK SLP127 T02730213 57031 IEM_DS3505
ZGGG,2006-11-18 07:00,ZGGG 180700Z AUTO 3SM 28/20 A2985 RMK T02800200 IEM_DS3505
ZGGG,2006-11-18 08:00,ZGGG 180800Z AUTO 12004KT 2 1/2SM 28/20 A2985 RMK T02800200 IEM_DS3505
ZGGG,2006-11-18 09:00,ZGGG 180900Z AUTO 14004KT 7SM 27/22 A2985 RMK SLP116 T02700215 57011 IEM_DS3505
ZGGG,2006-11-18 10:00,ZGGG 181000Z AUTO 2 1/2SM 27/20 A2988 RMK T02700200 IEM_DS3505
ZGGG,2006-11-18 11:00,ZGGG 181100Z AUTO 2 1/2SM 26/20 A2991 RMK T02600200 IEM_DS3505
ZGGG,2006-11-18 12:00,ZGGG 181200Z AUTO 16002KT 6SM 24/22 A2991 RMK 60016 SLP133 T02360217 52016 IEM_DS3505
ZGGG,2006-11-18 13:00,ZGGG 181300Z AUTO 01006KT 2SM 23/19 A2994 RMK T02300190 IEM_DS3505
ZGGG,2006-11-18 14:00,ZGGG 181400Z AUTO 28004KT 2 1/2SM 23/19 A2994 RMK T02300190 IEM_DS3505
ZGGG,2006-11-18 15:00,ZGGG 181500Z AUTO 22002KT 11SM 21/20 A2997 RMK SLP154 T02140200 52021 IEM_DS3505
ZGGG,2006-11-18 16:00,ZGGG 181600Z AUTO 34004KT 3SM 22/18 A2994 RMK T02200180 IEM_DS3505
ZGGG,2006-11-18 17:00,ZGGG 181700Z AUTO 02010KT 4SM 20/16 A2994 RMK T02000160 IEM_DS3505
ZGGG,2006-11-18 18:00,ZGGG 181800Z AUTO 34002KT 7SM 21/20 A2994 RMK 60000 SLP149 T02140195 57004 IEM_DS3505
ZGGG,2006-11-18 19:00,ZGGG 181900Z AUTO 32006KT 7SM 20/16 A2994 RMK T02000160 IEM_DS3505
ZGGG,2006-11-18 20:00,ZGGG 182000Z AUTO 34008KT 7SM 20/15 A2994 RMK T02000150 IEM_DS3505
ZGGG,2006-11-18 21:00,ZGGG 182100Z AUTO 34004KT 7SM 20/18 A2994 RMK 70015 SLP145 T02030179 57005 IEM_DS3505
ZGGG,2006-11-18 22:00,ZGGG 182200Z AUTO 33006KT 7SM 19/15 A2997 RMK T01900150 IEM_DS3505
ZGGG,2006-11-18 23:00,ZGGG 182300Z AUTO 34010KT 7SM 19/14 A3000 RMK T01900140 IEM_DS3505
ZGGG,2006-11-19 00:00,ZGGG 190000Z AUTO 36006KT 9SM 19/17 A3000 RMK 60000 70015 SLP169 T01940170 52024 IEM_DS3505
ZGGG,2006-11-19 01:00,ZGGG 190100Z AUTO 34006KT 5SM 20/14 A3003 RMK T02000140 IEM_DS3505
ZGGG,2006-11-19 02:00,ZGGG 190200Z AUTO 01004KT 5SM 22/15 A3006 RMK T02200150 IEM_DS3505
ZGGG,2006-11-19 03:00,ZGGG 190300Z AUTO 36004KT 11SM 22/17 A3003 RMK SLP178 T02240171 52009 IEM_DS3505
ZGGG,2006-11-19 04:00,ZGGG 190400Z AUTO 34008G17KT 5SM 24/15 A3003 RMK T02400150 IEM_DS3505
ZGGG,2006-11-19 05:00,ZGGG 190500Z AUTO 7SM 25/15 A3000 RMK T02500150 IEM_DS3505
ZGGG,2006-11-19 06:00,ZGGG 190600Z AUTO 02004KT 11SM 23/17 A2997 RMK 60000 SLP157 T02270174 57021 IEM_DS3505
ZGGG,2006-11-19 07:00,ZGGG 190700Z AUTO 33012KT 7SM 24/15 A2997 RMK T02400150 IEM_DS3505
ZGGG,2006-11-19 08:00,ZGGG 190800Z AUTO 35010KT 7SM 23/14 A2997 RMK T02300140 IEM_DS3505
ZGGG,2006-11-19 09:00,ZGGG 190900Z AUTO 34004KT 11SM 22/17 A2997 RMK SLP157 T02230166 54000 IEM_DS3505
ZGGG,2006-11-19 10:00,ZGGG 191000Z AUTO 02008KT 6SM 21/14 A3000 RMK T02100140 IEM_DS3505
ZGGG,2006-11-19 11:00,ZGGG 191100Z AUTO 02006KT 7SM 21/14 A3000 RMK T02100140 IEM_DS3505
ZGGG,2006-11-19 12:00,ZGGG 191200Z AUTO 36002KT 10SM 21/16 A3003 RMK SLP175 T02090163 52018 IEM_DS3505
ZGGG,2006-11-19 13:00,ZGGG 191300Z AUTO 01004KT 7SM 20/14 A3003 RMK T02000140 IEM_DS3505
ZGGG,2006-11-19 14:00,ZGGG 191400Z AUTO 34006KT 7SM 20/14 A3003 RMK T02000140 IEM_DS3505
ZGGG,2006-11-19 15:00,ZGGG 191500Z AUTO 02004KT 11SM 20/16 A3003 RMK SLP180 T02020156 52005 IEM_DS3505
ZGGG,2006-11-19 16:00,ZGGG 191600Z AUTO 7SM 20/14 A3003 RMK T02000140 IEM_DS3505
ZGGG,2006-11-19 17:00,ZGGG 191700Z AUTO 04004KT 7SM 20/13 A3000 RMK T02000130 IEM_DS3505
ZGGG,2006-11-19 18:00,ZGGG 191800Z AUTO 32002KT 9SM 19/15 A3000 RMK SLP166 T01890152 57014 IEM_DS3505
ZGGG,2006-11-19 19:00,ZGGG 191900Z AUTO 02004KT 5SM 20/14 A2997 RMK T02000140 IEM_DS3505
ZGGG,2006-11-19 20:00,ZGGG 192000Z AUTO 02004KT 5SM 19/13 A2997 RMK T01900130 IEM_DS3505
ZGGG,2006-11-19 21:00,ZGGG 192100Z AUTO 32002KT 9SM 19/15 A2997 RMK 70000 SLP161 T01900147 57005 IEM_DS3505
ZGGG,2006-11-19 22:00,ZGGG 192200Z AUTO 02004KT 7SM 19/13 A3000 RMK T01900130 IEM_DS3505
ZGGG,2006-11-19 23:00,ZGGG 192300Z AUTO 7SM 19/13 A3000 RMK T01900130 IEM_DS3505
ZGGG,2006-11-20 00:00,ZGGG 200000Z AUTO 02002KT 10SM 20/15 A3003 RMK 70000 SLP177 T01960151 52016 IEM_DS3505
ZGGG,2006-11-20 01:00,ZGGG 200100Z AUTO 06004KT 5SM 20/13 A3003 RMK T02000130 IEM_DS3505
ZGGG,2006-11-20 02:00,ZGGG 200200Z AUTO 06004KT 4SM 22/13 A3003 RMK T02200130 IEM_DS3505
ZGGG,2006-11-20 03:00,ZGGG 200300Z AUTO 02002KT 11SM 23/16 A3003 RMK SLP177 T02280159 54000 IEM_DS3505
ZGGG,2006-11-20 04:00,ZGGG 200400Z AUTO 05004KT 7SM 23/14 A3000 RMK T02300140 IEM_DS3505
ZGGG,2006-11-20 05:00,ZGGG 200500Z AUTO 36006KT 7SM 24/14 A2997 RMK T02400140 IEM_DS3505
ZGGG,2006-11-20 06:00,ZGGG 200600Z AUTO 07002KT 11SM 24/16 A2994 RMK SLP148 T02360164 57029 IEM_DS3505
ZGGG,2006-11-20 07:00,ZGGG 200700Z AUTO 34010KT 5SM 22/13 A2997 RMK T02200130 IEM_DS3505
ZGGG,2006-11-20 08:00,ZGGG 200800Z AUTO 34010KT 4SM 19/15 A3000 RMK T01900150 IEM_DS3505
ZGGG,2006-11-20 09:00,ZGGG 200900Z AUTO 02006KT 10SM 20/15 A2994 RMK SLP152 T01980150 52004 IEM_DS3505
ZGGG,2006-11-20 10:00,ZGGG 201000Z AUTO 07006KT 4SM 19/14 A2997 RMK T01900140 IEM_DS3505
ZGGG,2006-11-20 11:00,ZGGG 201100Z AUTO 02004KT 7SM 19/15 A2997 RMK T01900150 IEM_DS3505
ZGGG,2006-11-20 12:00,ZGGG 201200Z AUTO 34002KT 10SM 20/16 A3000 RMK 60000 SLP168 T01970158 52016 IEM_DS3505
ZGGG,2006-11-20 13:00,ZGGG 201300Z AUTO 04002KT 7SM 19/15 A3003 RMK T01900150 IEM_DS3505
ZGGG,2006-11-20 14:00,ZGGG 201400Z AUTO 7SM 19/15 A3003 RMK T01900150 IEM_DS3505
ZGGG,2006-11-20 15:00,ZGGG 201500Z AUTO 29002KT 9SM 19/16 A3000 RMK SLP172 T01910161 52004 IEM_DS3505
ZGGG,2006-11-20 16:00,ZGGG 201600Z AUTO 00000KT 7SM 19/15 A3000 RMK T01900150 IEM_DS3505
ZGGG,2006-11-20 17:00,ZGGG 201700Z AUTO 06002KT 7SM 19/15 A2997 RMK T01900150 IEM_DS3505
ZGGG,2006-11-20 18:00,ZGGG 201800Z AUTO 29002KT 9SM 19/16 A2994 RMK SLP150 T01920161 57022 IEM_DS3505
ZGGG,2006-11-20 19:00,ZGGG 201900Z AUTO 5SM 19/15 A2994 RMK T01900150 IEM_DS3505
ZGGG,2006-11-20 20:00,ZGGG 202000Z AUTO 4SM 19/15 A2991 RMK T01900150 IEM_DS3505
ZGGG,2006-11-20 21:00,ZGGG 202100Z AUTO 07002KT 9SM 20/16 A2991 RMK 70000 SLP132 T01970162 57018 IEM_DS3505
ZGGG,2006-11-20 22:00,ZGGG 202200Z AUTO 00000KT 4SM 19/15 A2991 RMK T01900150 IEM_DS3505
ZGGG,2006-11-20 23:00,ZGGG 202300Z AUTO 10004KT 4SM 19/15 A2991 RMK T01900150 IEM_DS3505
ZGGG,2006-11-21 00:00,ZGGG 210000Z AUTO 09004KT 7SM 20/17 A2991 RMK 70000 SLP132 T02030167 54000 IEM_DS3505
ZGGG,2006-11-21 01:00,ZGGG 210100Z AUTO 3SM 20/16 A2991 RMK T02000160 IEM_DS3505
ZGGG,2006-11-21 02:00,ZGGG 210200Z AUTO 06004KT 3SM 21/16 A2991 RMK T02100160 IEM_DS3505
ZGGG,2006-11-21 03:00,ZGGG 210300Z AUTO 09004KT 4SM 23/18 A2988 RMK SLP130 T02270180 57002 IEM_DS3505
ZGGG,2006-11-21 04:00,ZGGG 210400Z AUTO 02006KT 3SM 22/17 A2985 RMK T02200170 IEM_DS3505
ZGGG,2006-11-21 05:00,ZGGG 210500Z AUTO 04004KT 3SM 21/18 A2983 RMK T02100180 IEM_DS3505
ZGGG,2006-11-21 06:00,ZGGG 210600Z AUTO 29002KT 1 1/2SM 19/18 A2983 RMK 60028 SLP113 T01920177 57017 IEM_DS3505
ZGGG,2006-11-21 07:00,ZGGG 210700Z AUTO 04006KT 5SM 19/16 A2983 RMK T01900160 IEM_DS3505
ZGGG,2006-11-21 08:00,ZGGG 210800Z AUTO 5SM 18/15 A2983 RMK T01800150 IEM_DS3505
ZGGG,2006-11-21 09:00,ZGGG 210900Z AUTO 32002KT 5SM 18/17 A2983 RMK SLP111 T01800170 57002 IEM_DS3505
ZGGG,2006-11-21 10:00,ZGGG 211000Z AUTO 28004KT 2 1/2SM 18/16 A2985 RMK T01800160 IEM_DS3505
ZGGG,2006-11-21 11:00,ZGGG 211100Z AUTO 5SM 18/16 A2985 RMK T01800160 IEM_DS3505
ZGGG,2006-11-21 12:00,ZGGG 211200Z AUTO 36002KT 12SM 18/17 A2988 RMK 60134 SLP124 T01790169 52013 IEM_DS3505
ZGGG,2006-11-21 13:00,ZGGG 211300Z AUTO 00000KT 7SM 18/15 A2988 RMK T01800150 IEM_DS3505
ZGGG,2006-11-21 14:00,ZGGG 211400Z AUTO 00000KT 7SM 18/16 A2988 RMK T01800160 IEM_DS3505
ZGGG,2006-11-21 15:00,ZGGG 211500Z AUTO 32002KT 11SM 18/16 A2985 RMK SLP125 T01750162 52001 IEM_DS3505
ZGGG,2006-11-21 16:00,ZGGG 211600Z AUTO 25004KT 6SM 18/15 A2985 RMK T01800150 IEM_DS3505
ZGGG,2006-11-21 17:00,ZGGG 211700Z AUTO 00000KT 6SM 18/15 A2988 RMK T01800150 IEM_DS3505
ZGGG,2006-11-21 18:00,ZGGG 211800Z AUTO 34004KT 10SM 18/16 A2985 RMK SLP118 T01750164 57007 IEM_DS3505
ZGGG,2006-11-21 19:00,ZGGG 211900Z AUTO 35006KT 5SM 17/15 A2985 RMK T01700150 IEM_DS3505
ZGGG,2006-11-21 20:00,ZGGG 212000Z AUTO 35008KT 5SM 17/14 A2983 RMK T01700140 IEM_DS3505
ZGGG,2006-11-21 21:00,ZGGG 212100Z AUTO 34002KT 7SM 17/16 A2983 RMK 70161 SLP114 T01700159 57004 IEM_DS3505
ZGGG,2006-11-21 22:00,ZGGG 212200Z AUTO 00000KT 4SM 16/14 A2988 RMK T01600140 IEM_DS3505
ZGGG,2006-11-21 23:00,ZGGG 212300Z AUTO 00000KT 5SM 17/15 A2988 RMK T01700150 IEM_DS3505
ZGGG,2006-11-22 00:00,ZGGG 220000Z AUTO 36004KT 10SM 18/16 A2991 RMK 70161 SLP137 T01760156 52022 IEM_DS3505
ZGGG,2006-11-22 01:00,ZGGG 220100Z AUTO 01006KT 4SM 19/15 A2994 RMK T01900150 IEM_DS3505
ZGGG,2006-11-22 02:00,ZGGG 220200Z AUTO 01004KT 7SM 20/15 A2994 RMK T02000150 IEM_DS3505
ZGGG,2006-11-22 03:00,ZGGG 220300Z AUTO 34004KT 12SM 21/16 A2994 RMK SLP145 T02060158 52009 IEM_DS3505
ZGGG,2006-11-22 04:00,ZGGG 220400Z AUTO 7SM 22/14 A2991 RMK T02200140 IEM_DS3505
ZGGG,2006-11-22 05:00,ZGGG 220500Z AUTO 7SM 22/14 A2991 RMK T02200140 IEM_DS3505
ZGGG,2006-11-22 06:00,ZGGG 220600Z AUTO 34004KT 11SM 22/16 A2988 RMK SLP125 T02210162 57020 IEM_DS3505
ZGGG,2006-11-22 07:00,ZGGG 220700Z AUTO 02006KT 7SM 23/15 A2985 RMK T02300150 IEM_DS3505
ZGGG,2006-11-22 08:00,ZGGG 220800Z AUTO 35006KT 7SM 23/14 A2985 RMK T02300140 IEM_DS3505
ZGGG,2006-11-22 09:00,ZGGG 220900Z AUTO 32002KT 11SM 22/16 A2988 RMK SLP129 T02170164 52004 IEM_DS3505
ZGGG,2006-11-22 10:00,ZGGG 221000Z AUTO 34004KT 7SM 22/14 A2991 RMK T02200140 IEM_DS3505
ZGGG,2006-11-22 11:00,ZGGG 221100Z AUTO 03004KT 7SM 21/15 A2991 RMK T02100150 IEM_DS3505
ZGGG,2006-11-22 12:00,ZGGG 221200Z AUTO 04002KT 10SM 21/17 A2991 RMK SLP143 T02090169 52014 IEM_DS3505
ZGGG,2006-11-22 13:00,ZGGG 221300Z AUTO 02002KT 4SM 19/16 A2994 RMK T01900160 IEM_DS3505
ZGGG,2006-11-22 14:00,ZGGG 221400Z AUTO 00000KT 4SM 18/15 A2997 RMK T01800150 IEM_DS3505
ZGGG,2006-11-22 15:00,ZGGG 221500Z AUTO 29002KT 10SM 20/17 A2997 RMK SLP156 T02020172 52013 IEM_DS3505
ZGGG,2006-11-22 16:00,ZGGG 221600Z AUTO 36004KT 5SM 18/15 A2997 RMK T01800150 IEM_DS3505
ZGGG,2006-11-22 17:00,ZGGG 221700Z AUTO 33008KT 6SM 18/13 A2994 RMK T01800130 IEM_DS3505
ZGGG,2006-11-22 18:00,ZGGG 221800Z AUTO 36002KT 9SM 18/15 A2994 RMK SLP151 T01810152 57005 IEM_DS3505
ZGGG,2006-11-22 19:00,ZGGG 221900Z AUTO 34006KT 6SM 18/13 A2997 RMK T01800130 IEM_DS3505
ZGGG,2006-11-22 20:00,ZGGG 222000Z AUTO 03004KT 6SM 17/13 A2994 RMK T01700130 IEM_DS3505
ZGGG,2006-11-22 21:00,ZGGG 222100Z AUTO 27002KT 9SM 17/15 A2994 RMK SLP153 T01660150 52002 IEM_DS3505
ZGGG,2006-11-22 22:00,ZGGG 222200Z AUTO 12004KT 4SM 16/13 A2997 RMK T01600130 IEM_DS3505
ZGGG,2006-11-22 23:00,ZGGG 222300Z AUTO 3SM 16/13 A3000 RMK T01600130 IEM_DS3505
ZGGG,2006-11-23 00:00,ZGGG 230000Z AUTO 29002KT 11SM 18/15 A3000 RMK SLP172 T01850154 52019 IEM_DS3505
ZGGG,2006-11-23 01:00,ZGGG 230100Z AUTO 32006KT 4SM 19/13 A3003 RMK T01900130 IEM_DS3505
ZGGG,2006-11-23 02:00,ZGGG 230200Z AUTO 02006KT 4SM 19/13 A3003 RMK T01900130 IEM_DS3505
ZGGG,2006-11-23 03:00,ZGGG 230300Z AUTO 02002KT 5SM 19/16 A3003 RMK SLP178 T01900155 52006 IEM_DS3505
ZGGG,2006-11-23 04:00,ZGGG 230400Z AUTO 01006KT 7SM 21/14 A3000 RMK T02100140 IEM_DS3505
ZGGG,2006-11-23 05:00,ZGGG 230500Z AUTO 03006KT 7SM 21/14 A3000 RMK T02100140 IEM_DS3505
ZGGG,2006-11-23 06:00,ZGGG 230600Z AUTO 34002KT 6SM 20/16 A3000 RMK 60000 SLP163 T02000162 57015 IEM_DS3505
ZGGG,2006-11-23 07:00,ZGGG 230700Z AUTO 04004KT 7SM 21/15 A2997 RMK T02100150 IEM_DS3505
ZGGG,2006-11-23 08:00,ZGGG 230800Z AUTO 35006KT 6SM 21/13 A2997 RMK T02100130 IEM_DS3505
ZGGG,2006-11-23 09:00,ZGGG 230900Z AUTO 02004KT 9SM 20/16 A2997 RMK SLP161 T02040156 57003 IEM_DS3505
ZGGG,2006-11-23 10:00,ZGGG 231000Z AUTO 01004KT 4SM 20/14 A3000 RMK T02000140 IEM_DS3505
ZGGG,2006-11-23 11:00,ZGGG 231100Z AUTO 34004KT 4SM 20/14 A3000 RMK T02000140 IEM_DS3505
ZGGG,2006-11-23 12:00,ZGGG 231200Z AUTO 29004KT 9SM 20/16 A3003 RMK 60000 SLP184 T01970160 52023 IEM_DS3505
ZGGG,2006-11-23 13:00,ZGGG 231300Z AUTO 35006KT 4SM 19/14 A3006 RMK T01900140 IEM_DS3505
ZGGG,2006-11-23 14:00,ZGGG 231400Z AUTO 05004KT 4SM 18/14 A3003 RMK T01800140 IEM_DS3505
ZGGG,2006-11-23 15:00,ZGGG 231500Z AUTO 02004KT 9SM 18/16 A3006 RMK SLP183 T01810157 57001 IEM_DS3505
ZGGG,2006-11-23 16:00,ZGGG 231600Z AUTO 36002KT 4SM 18/14 A3006 RMK T01800140 IEM_DS3505
ZGGG,2006-11-23 17:00,ZGGG 231700Z AUTO 03004KT 4SM 18/14 A3003 RMK T01800140 IEM_DS3505
ZGGG,2006-11-23 18:00,ZGGG 231800Z AUTO 32004KT 8SM 18/16 A3006 RMK 60000 SLP186 T01810155 52003 IEM_DS3505
ZGGG,2006-11-23 19:00,ZGGG 231900Z AUTO 4SM 18/14 A3003 RMK T01800140 IEM_DS3505
ZGGG,2006-11-23 20:00,ZGGG 232000Z AUTO 5SM 18/13 A3003 RMK T01800130 IEM_DS3505
ZGGG,2006-11-23 21:00,ZGGG 232100Z AUTO 34002KT 8SM 18/15 A3003 RMK 70000 SLP174 T01800149 57011 IEM_DS3505
ZGGG,2006-11-23 22:00,ZGGG 232200Z AUTO 01002KT 4SM 18/13 A3003 RMK T01800130 IEM_DS3505
ZGGG,2006-11-23 23:00,ZGGG 232300Z AUTO 07004KT 4SM 18/13 A3003 RMK T01800130 IEM_DS3505
ZGGG,2006-11-24 00:00,ZGGG 240000Z AUTO 04002KT 9SM 18/15 A3006 RMK 70000 SLP190 T01830148 52015 IEM_DS3505
ZGGG,2006-11-24 01:00,ZGGG 240100Z AUTO 5SM 19/13 A3006 RMK T01900130 IEM_DS3505
ZGGG,2006-11-24 02:00,ZGGG 240200Z AUTO 5SM 19/13 A3009 RMK T01900130 IEM_DS3505
ZGGG,2006-11-24 03:00,ZGGG 240300Z AUTO 02002KT 10SM 21/16 A3006 RMK SLP189 T02110156 54000 IEM_DS3505
ZGGG,2006-11-24 04:00,ZGGG 240400Z AUTO 4SM 20/14 A3003 RMK T02000140 IEM_DS3505
ZGGG,2006-11-24 05:00,ZGGG 240500Z AUTO 5SM 22/14 A3000 RMK T02200140 IEM_DS3505
ZGGG,2006-11-24 06:00,ZGGG 240600Z AUTO 14002KT 9SM 23/16 A3000 RMK SLP164 T02270163 57025 IEM_DS3505
ZGGG,2006-11-24 07:00,ZGGG 240700Z AUTO 4SM 22/15 A2997 RMK T02200150 IEM_DS3505
ZGGG,2006-11-24 08:00,ZGGG 240800Z AUTO 04004KT 5SM 23/15 A2997 RMK T02300150 IEM_DS3505
ZGGG,2006-11-24 09:00,ZGGG 240900Z AUTO 09002KT 9SM 22/17 A2997 RMK SLP156 T02210168 57008 IEM_DS3505
ZGGG,2006-11-24 10:00,ZGGG 241000Z AUTO 4SM 22/16 A2997 RMK T02200160 IEM_DS3505
ZGGG,2006-11-24 11:00,ZGGG 241100Z AUTO 4SM 21/16 A3000 RMK T02100160 IEM_DS3505
ZGGG,2006-11-24 12:00,ZGGG 241200Z AUTO 09002KT 9SM 21/17 A3000 RMK SLP166 T02110173 52010 IEM_DS3505
ZGGG,2006-11-24 13:00,ZGGG 241300Z AUTO 05002KT 3SM 21/15 A3000 RMK T02100150 IEM_DS3505
ZGGG,2006-11-24 14:00,ZGGG 241400Z AUTO 02002KT 3SM 20/16 A3000 RMK T02000160 IEM_DS3505
ZGGG,2006-11-24 15:00,ZGGG 241500Z AUTO 09002KT 9SM 21/17 A3000 RMK SLP168 T02100174 52002 IEM_DS3505
ZGGG,2006-11-24 16:00,ZGGG 241600Z AUTO 3SM 20/16 A3000 RMK T02000160 IEM_DS3505
ZGGG,2006-11-24 17:00,ZGGG 241700Z AUTO 07004KT 3SM 20/15 A3000 RMK T02000150 IEM_DS3505
ZGGG,2006-11-24 18:00,ZGGG 241800Z AUTO 36002KT 9SM 21/18 A2997 RMK SLP159 T02090177 57009 IEM_DS3505
ZGGG,2006-11-24 19:00,ZGGG 241900Z AUTO 02004KT 2 1/2SM 19/17 A2997 RMK T01900170 IEM_DS3505
ZGGG,2006-11-24 20:00,ZGGG 242000Z AUTO 2 1/2SM 19/17 A2994 RMK T01900170 IEM_DS3505
ZGGG,2006-11-24 21:00,ZGGG 242100Z AUTO 14002KT 8SM 21/18 A2994 RMK 70000 SLP145 T02100180 57014 IEM_DS3505
ZGGG,2006-11-24 22:00,ZGGG 242200Z AUTO 2SM 19/17 A2994 RMK T01900170 IEM_DS3505
ZGGG,2006-11-24 23:00,ZGGG 242300Z AUTO 01002KT 2SM 20/17 A2994 RMK T02000170 IEM_DS3505
ZGGG,2006-11-25 00:00,ZGGG 250000Z AUTO 09002KT 4SM 21/18 A2997 RMK 60000 70000 SLP159 T02130177 52014 IEM_DS3505
ZGGG,2006-11-25 01:00,ZGGG 250100Z AUTO 2 1/2SM 21/17 A2997 RMK T02100170 IEM_DS3505
ZGGG,2006-11-25 02:00,ZGGG 250200Z AUTO 2 1/2SM 22/17 A3000 RMK T02200170 IEM_DS3505
ZGGG,2006-11-25 03:00,ZGGG 250300Z AUTO 09002KT 7SM 24/19 A2997 RMK SLP158 T02350188 57001 IEM_DS3505
ZGGG,2006-11-25 04:00,ZGGG 250400Z AUTO 2 1/2SM 25/18 A2994 RMK T02500180 IEM_DS3505
ZGGG,2006-11-25 05:00,ZGGG 250500Z AUTO 2 1/2SM 25/18 A2991 RMK T02500180 IEM_DS3505
ZGGG,2006-11-25 06:00,ZGGG 250600Z AUTO 14002KT 4SM 25/20 A2988 RMK SLP131 T02510199 57027 IEM_DS3505
ZGGG,2006-11-25 07:00,ZGGG 250700Z AUTO 2 1/2SM 25/19 A2988 RMK T02500190 IEM_DS3505
ZGGG,2006-11-25 08:00,ZGGG 250800Z AUTO 2 1/2SM 25/19 A2985 RMK T02500190 IEM_DS3505
ZGGG,2006-11-25 09:00,ZGGG 250900Z AUTO 07002KT 2SM 25/20 A2985 RMK SLP122 T02470202 57009 IEM_DS3505
ZGGG,2006-11-25 10:00,ZGGG 251000Z AUTO 12002KT 2SM 24/20 A2988 RMK T02400200 IEM_DS3505
ZGGG,2006-11-25 11:00,ZGGG 251100Z AUTO 00000KT 1 1/2SM 24/19 A2988 RMK T02400190 IEM_DS3505
ZGGG,2006-11-25 12:00,ZGGG 251200Z AUTO 14002KT 2 1/2SM 24/21 A2988 RMK SLP132 T02360207 52010 IEM_DS3505
ZGGG,2006-11-25 13:00,ZGGG 251300Z AUTO 10002KT 1 1/2SM 23/20 A2988 RMK T02300200 IEM_DS3505
ZGGG,2006-11-25 14:00,ZGGG 251400Z AUTO 10002KT 2SM 23/20 A2988 RMK T02300200 IEM_DS3505
ZGGG,2006-11-25 15:00,ZGGG 251500Z AUTO 09002KT 2 1/2SM 23/21 A2988 RMK SLP133 T02320207 52001 IEM_DS3505
ZGGG,2006-11-25 16:00,ZGGG 251600Z AUTO 1 1/2SM 23/19 A2988 RMK T02300190 IEM_DS3505
ZGGG,2006-11-25 17:00,ZGGG 251700Z AUTO 1 1/2SM 23/19 A2988 RMK T02300190 IEM_DS3505
ZGGG,2006-11-25 18:00,ZGGG 251800Z AUTO 07002KT 2SM 23/21 A2988 RMK SLP125 T02270208 57007 IEM_DS3505
ZGGG,2006-11-25 19:00,ZGGG 251900Z AUTO 1 1/4SM 23/19 A2985 RMK T02300190 IEM_DS3505
ZGGG,2006-11-25 20:00,ZGGG 252000Z AUTO 00000KT 1 1/2SM 22/19 A2985 RMK T02200190 IEM_DS3505
ZGGG,2006-11-25 21:00,ZGGG 252100Z AUTO 00000KT 2 1/2SM 22/21 A2983 RMK SLP113 T02230208 57012 IEM_DS3505
ZGGG,2006-11-25 22:00,ZGGG 252200Z AUTO 16002KT 1 1/4SM 22/19 A2983 RMK T02200190 IEM_DS3505
ZGGG,2006-11-25 23:00,ZGGG 252300Z AUTO 15002KT 1SM 22/20 A2985 RMK T02200200 IEM_DS3505
ZGGG,2006-11-26 00:00,ZGGG 260000Z AUTO 11002KT 2SM 23/21 A2985 RMK SLP117 T02300211 52003 IEM_DS3505
ZGGG,2006-11-26 01:00,ZGGG 260100Z AUTO 00000KT 1 1/4SM 24/20 A2985 RMK T02400200 IEM_DS3505
ZGGG,2006-11-26 02:00,ZGGG 260200Z AUTO 18008KT 1 1/2SM 25/21 A2985 RMK T02500210 IEM_DS3505
ZGGG,2006-11-26 03:00,ZGGG 260300Z AUTO 14004KT 2 1/2SM 26/22 A2985 RMK SLP112 T02620221 57004 IEM_DS3505
ZGGG,2006-11-26 04:00,ZGGG 260400Z AUTO 17010KT 3SM 29/20 A2980 RMK T02900200 IEM_DS3505
ZGGG,2006-11-26 05:00,ZGGG 260500Z AUTO 18008KT 3SM 28/21 A2977 RMK T02800210 IEM_DS3505
ZGGG,2006-11-26 06:00,ZGGG 260600Z AUTO 22004KT 4SM 29/22 A2974 RMK SLP082 T02870217 57030 IEM_DS3505
ZGGG,2006-11-26 07:00,ZGGG 260700Z AUTO 21012KT 2 1/2SM 28/20 A2974 RMK T02800200 IEM_DS3505
ZGGG,2006-11-26 08:00,ZGGG 260800Z AUTO 34006KT 3SM 23/19 A2977 RMK T02300190 IEM_DS3505
ZGGG,2006-11-26 09:00,ZGGG 260900Z AUTO 02002KT 1 1/2SM 23/22 A2977 RMK SLP085 T02310217 52003 IEM_DS3505
ZGGG,2006-11-26 10:00,ZGGG 261000Z AUTO 08004KT 3SM 22/19 A2980 RMK T02200190 IEM_DS3505
ZGGG,2006-11-26 11:00,ZGGG 261100Z AUTO 05004KT 2 1/2SM 22/20 A2980 RMK T02200200 IEM_DS3505
ZGGG,2006-11-26 12:00,ZGGG 261200Z AUTO 34002KT 6SM 22/21 A2983 RMK 60098 SLP108 T02230213 52022 IEM_DS3505
ZGGG,2006-11-26 13:00,ZGGG 261300Z AUTO 02002KT 2 1/2SM 22/19 A2985 RMK T02200190 IEM_DS3505
ZGGG,2006-11-26 14:00,ZGGG 261400Z AUTO 34008KT 4SM 21/18 A2985 RMK T02100180 IEM_DS3505
ZGGG,2006-11-26 15:00,ZGGG 261500Z AUTO 32002KT 7SM 22/20 A2985 RMK SLP118 T02180203 52011 IEM_DS3505
ZGGG,2006-11-26 16:00,ZGGG 261600Z AUTO 34006KT 4SM 20/16 A2985 RMK T02000160 IEM_DS3505
ZGGG,2006-11-26 17:00,ZGGG 261700Z AUTO 33008KT 4SM 19/15 A2988 RMK T01900150 IEM_DS3505
ZGGG,2006-11-26 18:00,ZGGG 261800Z AUTO 36004KT 6SM 20/19 A2988 RMK SLP119 T02040187 52001 IEM_DS3505
ZGGG,2006-11-26 19:00,ZGGG 261900Z AUTO 35006KT 4SM 19/14 A2985 RMK T01900140 IEM_DS3505
ZGGG,2006-11-26 20:00,ZGGG 262000Z AUTO 34006KT 4SM 18/14 A2985 RMK T01800140 IEM_DS3505
ZGGG,2006-11-26 21:00,ZGGG 262100Z AUTO 36004KT 6SM 19/17 A2988 RMK 70098 SLP121 T01930171 52001 IEM_DS3505
ZGGG,2006-11-26 22:00,ZGGG 262200Z AUTO 34008KT 4SM 18/13 A2988 RMK T01800130 IEM_DS3505
ZGGG,2006-11-26 23:00,ZGGG 262300Z AUTO 33008KT 4SM 18/13 A2991 RMK T01800130 IEM_DS3505
ZGGG,2006-11-27 00:00,ZGGG 270000Z AUTO 36004KT 8SM 19/16 A2994 RMK 70098 SLP143 T01880160 52022 IEM_DS3505
ZGGG,2006-11-27 01:00,ZGGG 270100Z AUTO 33010KT 7SM 18/13 A2994 RMK T01800130 IEM_DS3505
ZGGG,2006-11-27 02:00,ZGGG 270200Z AUTO 02008KT 7SM 19/14 A2997 RMK T01900140 IEM_DS3505
ZGGG,2006-11-27 03:00,ZGGG 270300Z AUTO 36004KT 8SM 20/16 A2997 RMK SLP153 T01970156 52010 IEM_DS3505
ZGGG,2006-11-27 04:00,ZGGG 270400Z AUTO 33008KT 7SM 20/14 A2994 RMK T02000140 IEM_DS3505
ZGGG,2006-11-27 05:00,ZGGG 270500Z AUTO 33012KT 7SM 20/13 A2991 RMK T02000130 IEM_DS3505
ZGGG,2006-11-27 06:00,ZGGG 270600Z AUTO 34004KT 9SM 22/16 A2988 RMK SLP128 T02150158 57025 IEM_DS3505
ZGGG,2006-11-27 07:00,ZGGG 270700Z AUTO 33012KT 7SM 20/13 A2988 RMK T02000130 IEM_DS3505
ZGGG,2006-11-27 08:00,ZGGG 270800Z AUTO 36008KT 7SM 20/13 A2988 RMK T02000130 IEM_DS3505
ZGGG,2006-11-27 09:00,ZGGG 270900Z AUTO 36004KT 10SM 20/15 A2988 RMK SLP128 T01960148 54000 IEM_DS3505
ZGGG,2006-11-27 10:00,ZGGG 271000Z AUTO 36010KT 7SM 18/13 A2991 RMK T01800130 IEM_DS3505
ZGGG,2006-11-27 11:00,ZGGG 271100Z AUTO 33008KT 5SM 17/13 A2994 RMK T01700130 IEM_DS3505
ZGGG,2006-11-27 12:00,ZGGG 271200Z AUTO 34004KT 2SM 16/15 A2997 RMK 60012 SLP154 T01650152 52025 IEM_DS3505
ZGGG,2006-11-27 13:00,ZGGG 271300Z AUTO 34008KT 2 1/2SM 16/13 A3000 RMK T01600130 IEM_DS3505
ZGGG,2006-11-27 14:00,ZGGG 271400Z AUTO 34008KT 3SM 15/13 A3000 RMK T01500130 IEM_DS3505
ZGGG,2006-11-27 15:00,ZGGG 271500Z AUTO 34004KT 2 1/2SM 15/14 A3003 RMK SLP173 T01530145 52019 IEM_DS3505
ZGGG,2006-11-27 16:00,ZGGG 271600Z AUTO 33006KT 3SM 15/13 A3003 RMK T01500130 IEM_DS3505
ZGGG,2006-11-27 17:00,ZGGG 271700Z AUTO 33010KT 3SM 15/12 A3003 RMK T01500120 IEM_DS3505
ZGGG,2006-11-27 18:00,ZGGG 271800Z AUTO 34004KT 9SM 15/13 A3000 RMK 60106 SLP175 T01470134 52002 IEM_DS3505
ZGGG,2006-11-27 19:00,ZGGG 271900Z AUTO 31008KT 2SM 14/11 A3003 RMK T01400110 IEM_DS3505
ZGGG,2006-11-27 20:00,ZGGG 272000Z AUTO 34010KT 5SM 14/11 A3003 RMK T01400110 IEM_DS3505
ZGGG,2006-11-27 21:00,ZGGG 272100Z AUTO 34006KT 8SM 14/13 A3003 RMK 70128 SLP176 T01400127 52001 IEM_DS3505
ZGGG,2006-11-27 22:00,ZGGG 272200Z AUTO 36006KT 6SM 14/11 A3003 RMK T01400110 IEM_DS3505
ZGGG,2006-11-27 23:00,ZGGG 272300Z AUTO 34004KT 7SM 14/11 A3006 RMK T01400110 IEM_DS3505
ZGGG,2006-11-28 00:00,ZGGG 280000Z AUTO 36004KT 9SM 15/13 A3009 RMK 60008 70128 SLP194 T01510126 52018 IEM_DS3505
ZGGG,2006-11-28 01:00,ZGGG 280100Z AUTO 01008KT 7SM 16/11 A3009 RMK T01600110 IEM_DS3505
ZGGG,2006-11-28 02:00,ZGGG 280200Z AUTO 02010KT 7SM 17/10 A3009 RMK T01700100 IEM_DS3505
ZGGG,2006-11-28 03:00,ZGGG 280300Z AUTO 32002KT 14SM 18/13 A3009 RMK SLP193 T01820131 57001 IEM_DS3505
ZGGG,2006-11-28 04:00,ZGGG 280400Z AUTO 36008KT 7SM 19/11 A3003 RMK T01900110 IEM_DS3505
ZGGG,2006-11-28 05:00,ZGGG 280500Z AUTO 36008KT 7SM 20/11 A3003 RMK T02000110 IEM_DS3505
ZGGG,2006-11-28 06:00,ZGGG 280600Z AUTO 32004KT 14SM 21/13 A3000 RMK SLP164 T02070132 57029 IEM_DS3505
ZGGG,2006-11-28 07:00,ZGGG 280700Z AUTO 02010KT 7SM 20/12 A2997 RMK T02000120 IEM_DS3505
ZGGG,2006-11-28 08:00,ZGGG 280800Z AUTO 02012KT 7SM 19/11 A3000 RMK T01900110 IEM_DS3505
ZGGG,2006-11-28 09:00,ZGGG 280900Z AUTO 02004KT 12SM 19/13 A3000 RMK SLP170 T01910128 52006 IEM_DS3505
ZGGG,2006-11-28 10:00,ZGGG 281000Z AUTO 02008KT 7SM 17/11 A3003 RMK T01700110 IEM_DS3505
ZGGG,2006-11-28 11:00,ZGGG 281100Z AUTO 02008KT 7SM 17/11 A3003 RMK T01700110 IEM_DS3505
ZGGG,2006-11-28 12:00,ZGGG 281200Z AUTO 02004KT 11SM 17/12 A3006 RMK SLP183 T01690122 52013 IEM_DS3505
ZGGG,2006-11-28 13:00,ZGGG 281300Z AUTO 01004KT 7SM 15/10 A3006 RMK T01500100 IEM_DS3505
ZGGG,2006-11-28 14:00,ZGGG 281400Z AUTO 02004KT 7SM 16/11 A3006 RMK T01600110 IEM_DS3505
ZGGG,2006-11-28 15:00,ZGGG 281500Z AUTO 02002KT 11SM 16/12 A3006 RMK SLP191 T01640122 52008 IEM_DS3505
ZGGG,2006-11-28 16:00,ZGGG 281600Z AUTO 4SM 16/11 A3006 RMK T01600110 IEM_DS3505
ZGGG,2006-11-28 17:00,ZGGG 281700Z AUTO 05004KT 5SM 16/11 A3006 RMK T01600110 IEM_DS3505
ZGGG,2006-11-28 18:00,ZGGG 281800Z AUTO 34002KT 9SM 16/12 A3006 RMK SLP192 T01630121 52001 IEM_DS3505
ZGGG,2006-11-28 19:00,ZGGG 281900Z AUTO 01006KT 5SM 16/11 A3006 RMK T01600110 IEM_DS3505
ZGGG,2006-11-28 20:00,ZGGG 282000Z AUTO 35004KT 5SM 16/11 A3006 RMK T01600110 IEM_DS3505
ZGGG,2006-11-28 21:00,ZGGG 282100Z AUTO 32002KT 9SM 15/12 A3009 RMK 70000 SLP195 T01510124 52003 IEM_DS3505
ZGGG,2006-11-28 22:00,ZGGG 282200Z AUTO 36006KT 3SM 15/12 A3009 RMK T01500120 IEM_DS3505
ZGGG,2006-11-28 23:00,ZGGG 282300Z AUTO 04004KT 3SM 15/12 A3009 RMK T01500120 IEM_DS3505
ZGGG,2006-11-29 00:00,ZGGG 290000Z AUTO 02004KT 7SM 15/12 A3012 RMK 60000 70000 SLP205 T01520123 52010 IEM_DS3505
ZGGG,2006-11-29 01:00,ZGGG 290100Z AUTO 3SM 16/12 A3012 RMK T01600120 IEM_DS3505
ZGGG,2006-11-29 02:00,ZGGG 290200Z AUTO 34004KT 4SM 16/12 A3012 RMK T01600120 IEM_DS3505
ZGGG,2006-11-29 03:00,ZGGG 290300Z AUTO 34004KT 7SM 17/13 A3012 RMK SLP203 T01680127 57002 IEM_DS3505
ZGGG,2006-11-29 04:00,ZGGG 290400Z AUTO 4SM 17/12 A3009 RMK T01700120 IEM_DS3505
ZGGG,2006-11-29 05:00,ZGGG 290500Z AUTO 32006KT 4SM 17/12 A3006 RMK T01700120 IEM_DS3505
ZGGG,2006-11-29 06:00,ZGGG 290600Z AUTO 32006KT 7SM 18/14 A3003 RMK SLP180 T01760135 57023 IEM_DS3505
ZGGG,2006-11-29 07:00,ZGGG 290700Z AUTO 35010KT 3SM 16/12 A3003 RMK T01600120 IEM_DS3505
ZGGG,2006-11-29 08:00,ZGGG 290800Z AUTO 36008KT 5SM 16/12 A3003 RMK T01600120 IEM_DS3505
ZGGG,2006-11-29 09:00,ZGGG 290900Z AUTO 36004KT 5SM 16/13 A3003 RMK SLP175 T01610134 57005 IEM_DS3505
ZGGG,2006-11-29 10:00,ZGGG 291000Z AUTO 34008KT 4SM 16/12 A3006 RMK T01600120 IEM_DS3505
ZGGG,2006-11-29 11:00,ZGGG 291100Z AUTO 33006KT 7SM 16/12 A3006 RMK T01600120 IEM_DS3505
ZGGG,2006-11-29 12:00,ZGGG 291200Z AUTO 36004KT 5SM 16/13 A3006 RMK SLP192 T01630132 52017 IEM_DS3505
ZGGG,2006-11-29 13:00,ZGGG 291300Z AUTO 01004KT 7SM 16/12 A3009 RMK T01600120 IEM_DS3505
ZGGG,2006-11-29 14:00,ZGGG 291400Z AUTO 35008KT 7SM 16/12 A3012 RMK T01600120 IEM_DS3505
ZGGG,2006-11-29 15:00,ZGGG 291500Z AUTO 34004KT 10SM 16/14 A3012 RMK SLP206 T01620135 52014 IEM_DS3505
ZGGG,2006-11-29 16:00,ZGGG 291600Z AUTO 01010KT 7SM 16/12 A3009 RMK T01600120 IEM_DS3505
ZGGG,2006-11-29 17:00,ZGGG 291700Z AUTO 36006KT 7SM 16/12 A3009 RMK T01600120 IEM_DS3505
ZGGG,2006-11-29 18:00,ZGGG 291800Z AUTO 32002KT 9SM 16/13 A3009 RMK SLP199 T01590128 57007 IEM_DS3505
ZGGG,2006-11-29 19:00,ZGGG 291900Z AUTO 36008KT 7SM 16/11 A3009 RMK T01600110 IEM_DS3505
ZGGG,2006-11-29 20:00,ZGGG 292000Z AUTO 02008KT 7SM 16/10 A3009 RMK T01600100 IEM_DS3505
ZGGG,2006-11-29 21:00,ZGGG 292100Z AUTO 36004KT 9SM 16/12 A3009 RMK SLP196 T01570117 57003 IEM_DS3505
ZGGG,2006-11-29 22:00,ZGGG 292200Z AUTO 36004KT 7SM 15/10 A3009 RMK T01500100 IEM_DS3505
ZGGG,2006-11-29 23:00,ZGGG 292300Z AUTO 35006KT 7SM 16/10 A3012 RMK T01600100 IEM_DS3505
ZGGG,2006-11-30 00:00,ZGGG 300000Z AUTO 36004KT 11SM 16/11 A3012 RMK SLP207 T01590107 52011 IEM_DS3505
ZGGG,2006-11-30 01:00,ZGGG 300100Z AUTO 02012KT 6SM 17/10 A3012 RMK T01700100 IEM_DS3505
ZGGG,2006-11-30 02:00,ZGGG 300200Z AUTO 01010KT 6SM 18/10 A3012 RMK T01800100 IEM_DS3505
ZGGG,2006-11-30 03:00,ZGGG 300300Z AUTO 09006KT 13SM 20/12 A3009 RMK SLP195 T02020122 57012 IEM_DS3505
ZGGG,2006-11-30 04:00,ZGGG 300400Z AUTO 01004KT 6SM 20/10 A3006 RMK T02000100 IEM_DS3505
ZGGG,2006-11-30 05:00,ZGGG 300500Z AUTO 33006KT 7SM 21/11 A3003 RMK T02100110 IEM_DS3505
ZGGG,2006-11-30 06:00,ZGGG 300600Z AUTO 09002KT 13SM 22/14 A3000 RMK SLP170 T02250136 57024 IEM_DS3505
ZGGG,2006-11-30 07:00,ZGGG 300700Z AUTO 01006KT 6SM 22/11 A3000 RMK T02200110 IEM_DS3505
ZGGG,2006-11-30 08:00,ZGGG 300800Z AUTO 33010KT 6SM 21/11 A3000 RMK T02100110 IEM_DS3505
ZGGG,2006-11-30 09:00,ZGGG 300900Z AUTO 36004KT 11SM 21/13 A3003 RMK SLP174 T02080133 52003 IEM_DS3505
ZGGG,2006-11-30 11:00,ZGGG 301100Z AUTO 35010KT 6SM 18/11 A3006 RMK T01800110 IEM_DS3505
ZGGG,2006-11-30 12:00,ZGGG 301200Z AUTO 36002KT 10SM 18/12 A3009 RMK SLP197 T01830125 52023 IEM_DS3505
ZGGG,2006-11-30 13:00,ZGGG 301300Z AUTO 35008KT 6SM 17/10 A3009 RMK T01700100 IEM_DS3505
ZGGG,2006-11-30 14:00,ZGGG 301400Z AUTO 01008KT 6SM 17/10 A3009 RMK T01700100 IEM_DS3505
ZGGG,2006-11-30 15:00,ZGGG 301500Z AUTO 36004KT 9SM 17/12 A3009 RMK SLP204 T01720119 52007 IEM_DS3505
ZGGG,2006-11-30 16:00,ZGGG 301600Z AUTO 02006KT 6SM 16/09 A3009 RMK T01600090 IEM_DS3505
ZGGG,2006-11-30 17:00,ZGGG 301700Z AUTO 03008KT 4SM 16/10 A3012 RMK T01600100 IEM_DS3505
ZGGG,2006-11-30 18:00,ZGGG 301800Z AUTO 34004KT 9SM 16/11 A3012 RMK SLP205 T01560106 52001 IEM_DS3505
ZGGG,2006-11-30 19:00,ZGGG 301900Z AUTO 02012KT 4SM 14/10 A3009 RMK T01400100 IEM_DS3505
ZGGG,2006-11-30 20:00,ZGGG 302000Z AUTO 03004KT 5SM 14/10 A3009 RMK T01400100 IEM_DS3505
ZGGG,2006-11-30 21:00,ZGGG 302100Z AUTO 34004KT 9SM 14/10 A3009 RMK SLP201 T01440104 57004 IEM_DS3505
ZGGG,2006-11-30 22:00,ZGGG 302200Z AUTO 36008KT 5SM 14/10 A3009 RMK T01400100 IEM_DS3505
ZGGG,2006-11-30 23:00,ZGGG 302300Z AUTO 02006KT 5SM 14/09 A3012 RMK T01400090 IEM_DS3505
ZGGG,2006-12-01 00:00,ZGGG 010000Z AUTO 36004KT 9SM 14/10 A3015 RMK SLP214 T01430103 52013 IEM_DS3505
ZGGG,2006-12-01 01:00,ZGGG 010100Z AUTO 02010KT 7SM 15/09 A3015 RMK T01500090 IEM_DS3505
ZGGG,2006-12-01 02:00,ZGGG 010200Z AUTO 34008KT 6SM 16/09 A3015 RMK T01600090 IEM_DS3505
ZGGG,2006-12-01 03:00,ZGGG 010300Z AUTO 34004KT 11SM 18/10 A3015 RMK SLP210 T01790103 57004 IEM_DS3505
ZGGG,2006-12-01 04:00,ZGGG 010400Z AUTO 32006KT 6SM 17/10 A3009 RMK T01700100 IEM_DS3505
ZGGG,2006-12-01 05:00,ZGGG 010500Z AUTO 34010KT 6SM 18/09 A3006 RMK T01800090 IEM_DS3505
ZGGG,2006-12-01 06:00,ZGGG 010600Z AUTO 02004KT 11SM 20/11 A3003 RMK SLP173 T02000112 57037 IEM_DS3505
ZGGG,2006-12-01 07:00,ZGGG 010700Z AUTO 01008KT 6SM 20/10 A3003 RMK T02000100 IEM_DS3505
ZGGG,2006-12-01 08:00,ZGGG 010800Z AUTO 36010KT 6SM 19/09 A3000 RMK T01900090 IEM_DS3505
ZGGG,2006-12-01 09:00,ZGGG 010900Z AUTO 36004KT 12SM 19/11 A3003 RMK SLP176 T01860112 52003 IEM_DS3505
ZGGG,2006-12-01 10:00,ZGGG 011000Z AUTO 33010KT 5SM 17/09 A3006 RMK T01700090 IEM_DS3505
ZGGG,2006-12-01 11:00,ZGGG 011100Z AUTO 34008KT 4SM 16/09 A3006 RMK T01600090 IEM_DS3505
ZGGG,2006-12-01 12:00,ZGGG 011200Z AUTO 36006KT 11SM 16/11 A3009 RMK SLP194 T01570107 52018 IEM_DS3505
ZGGG,2006-12-01 13:00,ZGGG 011300Z AUTO 02010KT 4SM 15/08 A3009 RMK T01500080 IEM_DS3505
ZGGG,2006-12-01 14:00,ZGGG 011400Z AUTO 02010KT 4SM 14/07 A3012 RMK T01400070 IEM_DS3505
ZGGG,2006-12-01 15:00,ZGGG 011500Z AUTO 36004KT 11SM 14/08 A3012 RMK SLP210 T01390085 52016 IEM_DS3505
ZGGG,2006-12-01 16:00,ZGGG 011600Z AUTO 02012KT 4SM 13/06 A3012 RMK T01300060 IEM_DS3505
ZGGG,2006-12-01 17:00,ZGGG 011700Z AUTO 02006KT 4SM 13/06 A3015 RMK T01300060 IEM_DS3505
ZGGG,2006-12-01 18:00,ZGGG 011800Z AUTO 36004KT 11SM 13/07 A3015 RMK SLP212 T01260073 52002 IEM_DS3505
ZGGG,2006-12-01 19:00,ZGGG 011900Z AUTO 02006KT 4SM 13/06 A3012 RMK T01300060 IEM_DS3505
ZGGG,2006-12-01 20:00,ZGGG 012000Z AUTO 02008KT 5SM 13/06 A3012 RMK T01300060 IEM_DS3505
ZGGG,2006-12-01 21:00,ZGGG 012100Z AUTO 07002KT 11SM 13/07 A3012 RMK SLP208 T01270072 57004 IEM_DS3505
ZGGG,2006-12-01 22:00,ZGGG 012200Z AUTO 02004KT 4SM 12/07 A3012 RMK T01200070 IEM_DS3505
ZGGG,2006-12-01 23:00,ZGGG 012300Z AUTO 36004KT 4SM 12/07 A3015 RMK T01200070 IEM_DS3505
ZGGG,2006-12-02 00:00,ZGGG 020000Z AUTO 02004KT 11SM 14/08 A3018 RMK SLP229 T01350075 52020 IEM_DS3505
ZGGG,2006-12-02 01:00,ZGGG 020100Z AUTO 01012KT 5SM 15/05 A3021 RMK T01500050 IEM_DS3505
ZGGG,2006-12-02 02:00,ZGGG 020200Z AUTO 02012KT 5SM 16/06 A3021 RMK T01600060 IEM_DS3505
ZGGG,2006-12-02 03:00,ZGGG 020300Z AUTO 36004KT 10SM 16/08 A3018 RMK SLP230 T01610083 52002 IEM_DS3505
ZGGG,2006-12-02 04:00,ZGGG 020400Z AUTO 02012KT 5SM 17/07 A3015 RMK T01700070 IEM_DS3505
ZGGG,2006-12-02 05:00,ZGGG 020500Z AUTO 02010KT 7SM 17/07 A3012 RMK T01700070 IEM_DS3505
ZGGG,2006-12-02 06:00,ZGGG 020600Z AUTO 34004KT 11SM 19/10 A3009 RMK SLP198 T01930095 57032 IEM_DS3505
ZGGG,2006-12-02 07:00,ZGGG 020700Z AUTO 02008KT 6SM 19/08 A3009 RMK T01900080 IEM_DS3505
ZGGG,2006-12-02 08:00,ZGGG 020800Z AUTO 02008KT 6SM 19/08 A3006 RMK T01900080 IEM_DS3505
ZGGG,2006-12-02 09:00,ZGGG 020900Z AUTO 02004KT 11SM 18/10 A3009 RMK SLP193 T01800096 57005 IEM_DS3505
ZGGG,2006-12-02 10:00,ZGGG 021000Z AUTO 01008KT 6SM 17/08 A3009 RMK T01700080 IEM_DS3505
ZGGG,2006-12-02 11:00,ZGGG 021100Z AUTO 01008KT 5SM 16/08 A3012 RMK T01600080 IEM_DS3505
ZGGG,2006-12-02 12:00,ZGGG 021200Z AUTO 36002KT 11SM 17/10 A3015 RMK SLP216 T01680095 52023 IEM_DS3505
ZGGG,2006-12-02 13:00,ZGGG 021300Z AUTO 02004KT 5SM 15/09 A3015 RMK T01500090 IEM_DS3505
ZGGG,2006-12-02 14:00,ZGGG 021400Z AUTO 01008KT 4SM 15/08 A3018 RMK T01500080 IEM_DS3505
ZGGG,2006-12-02 15:00,ZGGG 021500Z AUTO 34002KT 11SM 15/09 A3018 RMK SLP228 T01470093 52012 IEM_DS3505
ZGGG,2006-12-02 16:00,ZGGG 021600Z AUTO 02006KT 4SM 15/08 A3018 RMK T01500080 IEM_DS3505
ZGGG,2006-12-02 17:00,ZGGG 021700Z AUTO 02006KT 5SM 14/08 A3018 RMK T01400080 IEM_DS3505
ZGGG,2006-12-02 18:00,ZGGG 021800Z AUTO 32002KT 10SM 15/09 A3018 RMK SLP226 T01470093 57002 IEM_DS3505
ZGGG,2006-12-02 19:00,ZGGG 021900Z AUTO 04004KT 4SM 15/08 A3015 RMK T01500080 IEM_DS3505
ZGGG,2006-12-02 20:00,ZGGG 022000Z AUTO 5SM 15/08 A3015 RMK T01500080 IEM_DS3505
ZGGG,2006-12-02 21:00,ZGGG 022100Z AUTO 36004KT 10SM 15/10 A3015 RMK SLP221 T01470095 57005 IEM_DS3505
ZGGG,2006-12-02 22:00,ZGGG 022200Z AUTO 36004KT 4SM 15/08 A3018 RMK T01500080 IEM_DS3505
ZGGG,2006-12-02 23:00,ZGGG 022300Z AUTO 01006KT 4SM 15/08 A3021 RMK T01500080 IEM_DS3505
ZGGG,2006-12-03 00:00,ZGGG 030000Z AUTO 36002KT 9SM 15/09 A3021 RMK SLP241 T01510090 52020 IEM_DS3505
ZGGG,2006-12-03 01:00,ZGGG 030100Z AUTO 03006KT 4SM 16/08 A3024 RMK T01600080 IEM_DS3505
ZGGG,2006-12-03 02:00,ZGGG 030200Z AUTO 02006KT 4SM 17/08 A3024 RMK T01700080 IEM_DS3505
ZGGG,2006-12-03 03:00,ZGGG 030300Z AUTO 04004KT 10SM 19/11 A3024 RMK SLP243 T01940112 52002 IEM_DS3505
ZGGG,2006-12-03 04:00,ZGGG 030400Z AUTO 03006KT 5SM 19/08 A3021 RMK T01900080 IEM_DS3505
ZGGG,2006-12-03 05:00,ZGGG 030500Z AUTO 02008KT 5SM 20/08 A3018 RMK T02000080 IEM_DS3505
ZGGG,2006-12-03 06:00,ZGGG 030600Z AUTO 34006KT 11SM 20/11 A3015 RMK SLP215 T02020109 57028 IEM_DS3505
ZGGG,2006-12-03 07:00,ZGGG 030700Z AUTO 01008KT 4SM 21/09 A3015 RMK T02100090 IEM_DS3505
ZGGG,2006-12-03 08:00,ZGGG 030800Z AUTO 35008KT 4SM 21/09 A3015 RMK T02100090 IEM_DS3505
ZGGG,2006-12-03 09:00,ZGGG 030900Z AUTO 02002KT 11SM 20/11 A3015 RMK SLP219 T01960106 52004 IEM_DS3505
ZGGG,2006-12-03 10:00,ZGGG 031000Z AUTO 34008KT 4SM 18/08 A3018 RMK T01800080 IEM_DS3505
ZGGG,2006-12-03 11:00,ZGGG 031100Z AUTO 35006KT 4SM 17/09 A3021 RMK T01700090 IEM_DS3505
ZGGG,2006-12-03 12:00,ZGGG 031200Z AUTO 34002KT 10SM 16/10 A3021 RMK SLP242 T01650104 52023 IEM_DS3505
ZGGG,2006-12-03 13:00,ZGGG 031300Z AUTO 02008KT 4SM 16/09 A3024 RMK T01600090 IEM_DS3505
ZGGG,2006-12-03 14:00,ZGGG 031400Z AUTO 01006KT 4SM 15/08 A3024 RMK T01500080 IEM_DS3505
ZGGG,2006-12-03 15:00,ZGGG 031500Z AUTO 32002KT 10SM 15/10 A3027 RMK SLP253 T01540095 52011 IEM_DS3505
ZGGG,2006-12-03 16:00,ZGGG 031600Z AUTO 02008KT 4SM 16/07 A3027 RMK T01600070 IEM_DS3505
ZGGG,2006-12-03 17:00,ZGGG 031700Z AUTO 02008KT 6SM 16/06 A3027 RMK T01600060 IEM_DS3505
ZGGG,2006-12-03 18:00,ZGGG 031800Z AUTO 02002KT 10SM 15/08 A3027 RMK SLP253 T01480083 54000 IEM_DS3505
ZGGG,2006-12-03 19:00,ZGGG 031900Z AUTO 02010KT 5SM 15/06 A3024 RMK T01500060 IEM_DS3505
ZGGG,2006-12-03 20:00,ZGGG 032000Z AUTO 02012KT 5SM 15/06 A3024 RMK T01500060 IEM_DS3505
ZGGG,2006-12-03 21:00,ZGGG 032100Z AUTO 02004KT 9SM 14/08 A3024 RMK SLP246 T01410081 57007 IEM_DS3505
ZGGG,2006-12-03 22:00,ZGGG 032200Z AUTO 02004KT 4SM 13/07 A3024 RMK T01300070 IEM_DS3505
ZGGG,2006-12-03 23:00,ZGGG 032300Z AUTO 4SM 13/07 A3027 RMK T01300070 IEM_DS3505
ZGGG,2006-12-04 00:00,ZGGG 040000Z AUTO 36004KT 9SM 15/08 A3030 RMK SLP266 T01490077 52019 IEM_DS3505
ZGGG,2006-12-04 01:00,ZGGG 040100Z AUTO 02008KT 5SM 16/06 A3030 RMK T01600060 IEM_DS3505
ZGGG,2006-12-04 02:00,ZGGG 040200Z AUTO 02008KT 4SM 17/06 A3030 RMK T01700060 IEM_DS3505
ZGGG,2006-12-04 03:00,ZGGG 040300Z AUTO 02002KT 8SM 20/10 A3027 RMK SLP258 T01960098 57007 IEM_DS3505
ZGGG,2006-12-04 04:00,ZGGG 040400Z AUTO 4SM 20/07 A3024 RMK T02000070 IEM_DS3505
ZGGG,2006-12-04 05:00,ZGGG 040500Z AUTO 4SM 21/07 A3021 RMK T02100070 IEM_DS3505
ZGGG,2006-12-04 06:00,ZGGG 040600Z AUTO 34004KT 7SM 22/11 A3018 RMK SLP221 T02190107 57037 IEM_DS3505
ZGGG,2006-12-04 07:00,ZGGG 040700Z AUTO 4SM 22/07 A3015 RMK T02200070 IEM_DS3505
ZGGG,2006-12-04 08:00,ZGGG 040800Z AUTO 01004KT 4SM 22/08 A3015 RMK T02200080 IEM_DS3505
ZGGG,2006-12-04 09:00,ZGGG 040900Z AUTO 32002KT 8SM 21/10 A3015 RMK SLP219 T02060104 57002 IEM_DS3505
ZGGG,2006-12-04 10:00,ZGGG 041000Z AUTO 35006KT 4SM 20/08 A3018 RMK T02000080 IEM_DS3505
ZGGG,2006-12-04 11:00,ZGGG 041100Z AUTO 35006KT 4SM 19/08 A3018 RMK T01900080 IEM_DS3505
ZGGG,2006-12-04 12:00,ZGGG 041200Z AUTO 29002KT 8SM 16/11 A3021 RMK SLP240 T01650112 52021 IEM_DS3505
ZGGG,2006-12-04 13:00,ZGGG 041300Z AUTO 05002KT 3SM 16/10 A3024 RMK T01600100 IEM_DS3505
ZGGG,2006-12-04 14:00,ZGGG 041400Z AUTO 00000KT 3SM 15/10 A3024 RMK T01500100 IEM_DS3505
ZGGG,2006-12-04 15:00,ZGGG 041500Z AUTO 04002KT 9SM 15/11 A3021 RMK SLP242 T01520108 52002 IEM_DS3505
ZGGG,2006-12-04 16:00,ZGGG 041600Z AUTO 00000KT 2 1/2SM 14/10 A3021 RMK T01400100 IEM_DS3505
ZGGG,2006-12-04 17:00,ZGGG 041700Z AUTO 2 1/2SM 13/10 A3021 RMK T01300100 IEM_DS3505
ZGGG,2006-12-04 18:00,ZGGG 041800Z AUTO 36002KT 9SM 14/11 A3021 RMK SLP241 T01450111 57001 IEM_DS3505
ZGGG,2006-12-04 19:00,ZGGG 041900Z AUTO 2 1/2SM 13/10 A3021 RMK T01300100 IEM_DS3505
ZGGG,2006-12-04 20:00,ZGGG 042000Z AUTO 00000KT 2SM 13/10 A3018 RMK T01300100 IEM_DS3505
ZGGG,2006-12-04 21:00,ZGGG 042100Z AUTO 36002KT 7SM 14/11 A3018 RMK SLP233 T01360110 57008 IEM_DS3505
ZGGG,2006-12-04 22:00,ZGGG 042200Z AUTO 09002KT 2 1/2SM 13/09 A3021 RMK T01300090 IEM_DS3505
ZGGG,2006-12-04 23:00,ZGGG 042300Z AUTO 2SM 12/09 A3024 RMK T01200090 IEM_DS3505
ZGGG,2006-12-05 00:00,ZGGG 050000Z AUTO 32002KT 10SM 15/11 A3024 RMK SLP251 T01510113 52018 IEM_DS3505
ZGGG,2006-12-05 01:00,ZGGG 050100Z AUTO 2 1/2SM 16/10 A3027 RMK T01600100 IEM_DS3505
ZGGG,2006-12-05 02:00,ZGGG 050200Z AUTO 34004KT 4SM 19/08 A3027 RMK T01900080 IEM_DS3505
ZGGG,2006-12-05 03:00,ZGGG 050300Z AUTO 02002KT 10SM 21/11 A3027 RMK SLP252 T02100108 52001 IEM_DS3505
ZGGG,2006-12-05 04:00,ZGGG 050400Z AUTO 02004KT 5SM 22/09 A3024 RMK T02200090 IEM_DS3505
ZGGG,2006-12-05 05:00,ZGGG 050500Z AUTO 01006KT 5SM 23/09 A3018 RMK T02300090 IEM_DS3505
ZGGG,2006-12-05 06:00,ZGGG 050600Z AUTO 32004KT 10SM 24/12 A3015 RMK SLP221 T02350115 57031 IEM_DS3505
ZGGG,2006-12-05 07:00,ZGGG 050700Z AUTO 34006KT 5SM 24/10 A3015 RMK T02400100 IEM_DS3505
ZGGG,2006-12-05 08:00,ZGGG 050800Z AUTO 34006G16KT 5SM 24/10 A3012 RMK T02400100 IEM_DS3505
ZGGG,2006-12-05 09:00,ZGGG 050900Z AUTO 04002KT 9SM 23/12 A3012 RMK SLP211 T02280124 57010 IEM_DS3505
ZGGG,2006-12-05 10:00,ZGGG 051000Z AUTO 34006KT 4SM 22/10 A3012 RMK T02200100 IEM_DS3505
ZGGG,2006-12-05 11:00,ZGGG 051100Z AUTO 33006KT 4SM 22/10 A3015 RMK T02200100 IEM_DS3505
ZGGG,2006-12-05 12:00,ZGGG 051200Z AUTO 34002KT 9SM 20/13 A3015 RMK SLP220 T01950130 52009 IEM_DS3505
ZGGG,2006-12-05 13:00,ZGGG 051300Z AUTO 00000KT 3SM 20/11 A3015 RMK T02000110 IEM_DS3505
ZGGG,2006-12-05 14:00,ZGGG 051400Z AUTO 3SM 18/12 A3018 RMK T01800120 IEM_DS3505
ZGGG,2006-12-05 15:00,ZGGG 051500Z AUTO 32002KT 9SM 19/13 A3015 RMK SLP223 T01860132 52003 IEM_DS3505
ZGGG,2006-12-05 16:00,ZGGG 051600Z AUTO 00000KT 3SM 17/12 A3015 RMK T01700120 IEM_DS3505
ZGGG,2006-12-05 17:00,ZGGG 051700Z AUTO 00000KT 2 1/2SM 17/12 A3015 RMK T01700120 IEM_DS3505
ZGGG,2006-12-05 18:00,ZGGG 051800Z AUTO 34002KT 9SM 18/14 A3015 RMK SLP217 T01800135 57005 IEM_DS3505
ZGGG,2006-12-05 19:00,ZGGG 051900Z AUTO 00000KT 2 1/2SM 17/12 A3015 RMK T01700120 IEM_DS3505
ZGGG,2006-12-05 20:00,ZGGG 052000Z AUTO 2 1/2SM 17/12 A3012 RMK T01700120 IEM_DS3505
ZGGG,2006-12-05 21:00,ZGGG 052100Z AUTO 08004KT 8SM 17/13 A3012 RMK SLP209 T01740131 57008 IEM_DS3505
ZGGG,2006-12-05 22:00,ZGGG 052200Z AUTO 00000KT 3SM 15/11 A3015 RMK T01500110 IEM_DS3505
ZGGG,2006-12-05 23:00,ZGGG 052300Z AUTO 00000KT 2 1/2SM 16/11 A3015 RMK T01600110 IEM_DS3505
ZGGG,2006-12-06 00:00,ZGGG 060000Z AUTO 09002KT 8SM 18/13 A3015 RMK SLP221 T01770132 52011 IEM_DS3505
ZGGG,2006-12-06 01:00,ZGGG 060100Z AUTO 2 1/2SM 18/12 A3015 RMK T01800120 IEM_DS3505
ZGGG,2006-12-06 02:00,ZGGG 060200Z AUTO 2 1/2SM 20/11 A3015 RMK T02000110 IEM_DS3505
ZGGG,2006-12-06 03:00,ZGGG 060300Z AUTO 09002KT 6SM 22/14 A3015 RMK SLP212 T02250138 57008 IEM_DS3505
ZGGG,2006-12-06 04:00,ZGGG 060400Z AUTO 06004KT 4SM 23/12 A3012 RMK T02300120 IEM_DS3505
ZGGG,2006-12-06 05:00,ZGGG 060500Z AUTO 01004KT 4SM 24/12 A3006 RMK T02400120 IEM_DS3505
ZGGG,2006-12-06 06:00,ZGGG 060600Z AUTO 04002KT 7SM 25/14 A3003 RMK SLP179 T02480140 57033 IEM_DS3505
ZGGG,2006-12-06 07:00,ZGGG 060700Z AUTO 4SM 26/12 A3000 RMK T02600120 IEM_DS3505
ZGGG,2006-12-06 08:00,ZGGG 060800Z AUTO 4SM 26/12 A3000 RMK T02600120 IEM_DS3505
ZGGG,2006-12-06 09:00,ZGGG 060900Z AUTO 18002KT 5SM 24/14 A3000 RMK SLP171 T02410142 57008 IEM_DS3505
ZGGG,2006-12-06 10:00,ZGGG 061000Z AUTO 15002KT 3SM 24/14 A3003 RMK T02400140 IEM_DS3505
ZGGG,2006-12-06 11:00,ZGGG 061100Z AUTO 14002KT 3SM 22/14 A3003 RMK T02200140 IEM_DS3505
ZGGG,2006-12-06 13:00,ZGGG 061300Z AUTO 16004KT 2 1/2SM 22/15 A3006 RMK T02200150 IEM_DS3505
ZGGG,2006-12-06 14:00,ZGGG 061400Z AUTO 2 1/2SM 22/15 A3006 RMK T02200150 IEM_DS3505
ZGGG,2006-12-06 15:00,ZGGG 061500Z AUTO 18002KT 7SM 22/16 A3006 RMK SLP194 T02160163 52013 IEM_DS3505
ZGGG,2006-12-06 16:00,ZGGG 061600Z AUTO 17006KT 4SM 22/14 A3006 RMK T02200140 IEM_DS3505
ZGGG,2006-12-06 17:00,ZGGG 061700Z AUTO 13004KT 4SM 22/15 A3006 RMK T02200150 IEM_DS3505
ZGGG,2006-12-06 18:00,ZGGG 061800Z AUTO 09002KT 7SM 21/17 A3006 RMK SLP190 T02100168 57004 IEM_DS3505
ZGGG,2006-12-06 19:00,ZGGG 061900Z AUTO 08004KT 4SM 21/15 A3006 RMK T02100150 IEM_DS3505
ZGGG,2006-12-06 20:00,ZGGG 062000Z AUTO 36004KT 3SM 21/15 A3006 RMK T02100150 IEM_DS3505
ZGGG,2006-12-06 21:00,ZGGG 062100Z AUTO 32002KT 4SM 19/17 A3006 RMK 70000 SLP192 T01940174 52002 IEM_DS3505
ZGGG,2006-12-06 22:00,ZGGG 062200Z AUTO 28002KT 2SM 20/17 A3009 RMK T02000170 IEM_DS3505
ZGGG,2006-12-06 23:00,ZGGG 062300Z AUTO 00000KT 2SM 20/17 A3009 RMK T02000170 IEM_DS3505
ZGGG,2006-12-07 00:00,ZGGG 070000Z AUTO 02002KT 2SM 20/18 A3012 RMK 60000 70000 SLP204 T01960176 52012 IEM_DS3505
ZGGG,2006-12-07 01:00,ZGGG 070100Z AUTO 2SM 21/16 A3012 RMK T02100160 IEM_DS3505
ZGGG,2006-12-07 02:00,ZGGG 070200Z AUTO 2SM 22/17 A3012 RMK T02200170 IEM_DS3505
ZGGG,2006-12-07 03:00,ZGGG 070300Z AUTO 11002KT 6SM 23/17 A3012 RMK SLP205 T02270174 52001 IEM_DS3505
ZGGG,2006-12-07 04:00,ZGGG 070400Z AUTO 34004KT 3SM 25/16 A3009 RMK T02500160 IEM_DS3505
ZGGG,2006-12-07 05:00,ZGGG 070500Z AUTO 3SM 25/16 A3006 RMK T02500160 IEM_DS3505
ZGGG,2006-12-07 06:00,ZGGG 070600Z AUTO 00000KT 4SM 25/18 A3003 RMK 60001 SLP176 T02520184 57029 IEM_DS3505
ZGGG,2006-12-07 07:00,ZGGG 070700Z AUTO 4SM 26/17 A3000 RMK T02600170 IEM_DS3505
ZGGG,2006-12-07 08:00,ZGGG 070800Z AUTO 3SM 26/17 A3000 RMK T02600170 IEM_DS3505
ZGGG,2006-12-07 10:00,ZGGG 071000Z AUTO 34006KT 2 1/2SM 24/17 A3000 RMK T02400170 IEM_DS3505
ZGGG,2006-12-07 11:00,ZGGG 071100Z AUTO 33008KT 2 1/2SM 23/17 A3003 RMK T02300170 IEM_DS3505
ZGGG,2006-12-07 12:00,ZGGG 071200Z AUTO 32002KT 4SM 22/18 A3003 RMK SLP182 T02200184 52019 IEM_DS3505
ZGGG,2006-12-07 13:00,ZGGG 071300Z AUTO 00000KT 1 1/2SM 21/17 A3006 RMK T02100170 IEM_DS3505
ZGGG,2006-12-07 14:00,ZGGG 071400Z AUTO 02002KT 1 1/2SM 22/17 A3006 RMK T02200170 IEM_DS3505
ZGGG,2006-12-07 15:00,ZGGG 071500Z AUTO 04002KT 6SM 21/18 A3006 RMK SLP189 T02100182 52007 IEM_DS3505
ZGGG,2006-12-07 16:00,ZGGG 071600Z AUTO 1 1/2SM 21/17 A3006 RMK T02100170 IEM_DS3505
ZGGG,2006-12-07 17:00,ZGGG 071700Z AUTO 1 1/4SM 21/17 A3006 RMK T02100170 IEM_DS3505
ZGGG,2006-12-07 18:00,ZGGG 071800Z AUTO 29002KT 5SM 20/18 A3006 RMK SLP183 T02050177 57006 IEM_DS3505
ZGGG,2006-12-07 19:00,ZGGG 071900Z AUTO 11004KT 1 1/4SM 20/17 A3006 RMK T02000170 IEM_DS3505
ZGGG,2006-12-07 20:00,ZGGG 072000Z AUTO 1 1/4SM 19/16 A3006 RMK T01900160 IEM_DS3505
ZGGG,2006-12-07 21:00,ZGGG 072100Z AUTO 32002KT 6SM 20/18 A3006 RMK 70001 SLP185 T01950175 52002 IEM_DS3505
ZGGG,2006-12-07 22:00,ZGGG 072200Z AUTO 00000KT 1SM 19/16 A3006 RMK T01900160 IEM_DS3505
ZGGG,2006-12-07 23:00,ZGGG 072300Z AUTO 1SM 19/16 A3009 RMK T01900160 IEM_DS3505
ZGGG,2006-12-08 00:00,ZGGG 080000Z AUTO 02002KT 7SM 21/18 A3009 RMK 70001 SLP200 T02090179 52015 IEM_DS3505
ZGGG,2006-12-08 01:00,ZGGG 080100Z AUTO 08004KT 1 1/2SM 21/17 A3012 RMK T02100170 IEM_DS3505
ZGGG,2006-12-08 02:00,ZGGG 080200Z AUTO 08004KT 2 1/2SM 23/17 A3012 RMK T02300170 IEM_DS3505
ZGGG,2006-12-08 03:00,ZGGG 080300Z AUTO 02002KT 6SM 25/19 A3012 RMK SLP206 T02500187 52006 IEM_DS3505
ZGGG,2006-12-08 04:00,ZGGG 080400Z AUTO 32004KT 2 1/2SM 25/17 A3009 RMK T02500170 IEM_DS3505
ZGGG,2006-12-08 05:00,ZGGG 080500Z AUTO 01004KT 3SM 26/17 A3006 RMK T02600170 IEM_DS3505
ZGGG,2006-12-08 06:00,ZGGG 080600Z AUTO 36002KT 5SM 27/20 A3003 RMK SLP174 T02740197 57032 IEM_DS3505
ZGGG,2006-12-08 07:00,ZGGG 080700Z AUTO 32008KT 3SM 28/17 A3000 RMK T02800170 IEM_DS3505
ZGGG,2006-12-08 08:00,ZGGG 080800Z AUTO 34008KT 3SM 27/16 A3000 RMK T02700160 IEM_DS3505
ZGGG,2006-12-08 09:00,ZGGG 080900Z AUTO 32002KT 4SM 26/19 A3003 RMK SLP172 T02580187 57002 IEM_DS3505
ZGGG,2006-12-08 10:00,ZGGG 081000Z AUTO 34012KT 3SM 23/15 A3003 RMK T02300150 IEM_DS3505
ZGGG,2006-12-08 11:00,ZGGG 081100Z AUTO 35010G19KT 3SM 22/14 A3006 RMK T02200140 IEM_DS3505
ZGGG,2006-12-08 12:00,ZGGG 081200Z AUTO 34004KT 4SM 22/16 A3009 RMK SLP197 T02200165 52025 IEM_DS3505
ZGGG,2006-12-08 13:00,ZGGG 081300Z AUTO 34008KT 3SM 21/14 A3012 RMK T02100140 IEM_DS3505
ZGGG,2006-12-08 14:00,ZGGG 081400Z AUTO 34008KT 4SM 20/13 A3015 RMK T02000130 IEM_DS3505
ZGGG,2006-12-08 15:00,ZGGG 081500Z AUTO 34004KT 6SM 21/16 A3015 RMK SLP215 T02110156 52018 IEM_DS3505
ZGGG,2006-12-08 16:00,ZGGG 081600Z AUTO 34010KT 3SM 18/11 A3015 RMK T01800110 IEM_DS3505
ZGGG,2006-12-08 17:00,ZGGG 081700Z AUTO 34010KT 3SM 18/11 A3015 RMK T01800110 IEM_DS3505
ZGGG,2006-12-08 18:00,ZGGG 081800Z AUTO 32004KT 4SM 18/13 A3015 RMK SLP217 T01820133 52002 IEM_DS3505
ZGGG,2006-12-08 19:00,ZGGG 081900Z AUTO 34012KT 3SM 16/09 A3018 RMK T01600090 IEM_DS3505
ZGGG,2006-12-08 20:00,ZGGG 082000Z AUTO 34010KT 4SM 15/09 A3018 RMK T01500090 IEM_DS3505
ZGGG,2006-12-08 21:00,ZGGG 082100Z AUTO 34006KT 6SM 16/11 A3018 RMK SLP224 T01590109 52007 IEM_DS3505
ZGGG,2006-12-08 22:00,ZGGG 082200Z AUTO 34010KT 4SM 14/08 A3018 RMK T01400080 IEM_DS3505
ZGGG,2006-12-08 23:00,ZGGG 082300Z AUTO 34010KT 4SM 14/08 A3021 RMK T01400080 IEM_DS3505
ZGGG,2006-12-09 00:00,ZGGG 090000Z AUTO 34006KT 6SM 15/10 A3024 RMK SLP244 T01520104 52019 IEM_DS3505
ZGGG,2006-12-09 01:00,ZGGG 090100Z AUTO 34010KT 5SM 15/08 A3027 RMK T01500080 IEM_DS3505
ZGGG,2006-12-09 02:00,ZGGG 090200Z AUTO 34012KT 5SM 16/08 A3027 RMK T01600080 IEM_DS3505
ZGGG,2006-12-09 03:00,ZGGG 090300Z AUTO 34004KT 8SM 16/10 A3027 RMK SLP253 T01650104 52009 IEM_DS3505
ZGGG,2006-12-09 04:00,ZGGG 090400Z AUTO 03008KT 5SM 17/08 A3024 RMK T01700080 IEM_DS3505
ZGGG,2006-12-09 05:00,ZGGG 090500Z AUTO 03010KT 5SM 18/09 A3021 RMK T01800090 IEM_DS3505
ZGGG,2006-12-09 06:00,ZGGG 090600Z AUTO 36008KT 9SM 19/10 A3018 RMK SLP223 T01890105 57030 IEM_DS3505
ZGGG,2006-12-09 07:00,ZGGG 090700Z AUTO 33014KT 5SM 16/07 A3018 RMK T01600070 IEM_DS3505
ZGGG,2006-12-09 08:00,ZGGG 090800Z AUTO 35012KT 5SM 16/07 A3018 RMK T01600070 IEM_DS3505
ZGGG,2006-12-09 09:00,ZGGG 090900Z AUTO 34006KT 11SM 16/09 A3018 RMK SLP225 T01580092 52002 IEM_DS3505
ZGGG,2006-12-09 10:00,ZGGG 091000Z AUTO 34010KT 7SM 15/07 A3021 RMK T01500070 IEM_DS3505
ZGGG,2006-12-09 11:00,ZGGG 091100Z AUTO 34012KT 7SM 14/06 A3024 RMK T01400060 IEM_DS3505
ZGGG,2006-12-09 12:00,ZGGG 091200Z AUTO 36006KT 11SM 15/08 A3027 RMK SLP253 T01460083 52027 IEM_DS3505
ZGGG,2006-12-09 13:00,ZGGG 091300Z AUTO 02012KT 7SM 14/06 A3027 RMK T01400060 IEM_DS3505
ZGGG,2006-12-09 14:00,ZGGG 091400Z AUTO 02008KT 7SM 14/06 A3030 RMK T01400060 IEM_DS3505
ZGGG,2006-12-09 15:00,ZGGG 091500Z AUTO 36004KT 11SM 14/08 A3030 RMK SLP264 T01380078 52011 IEM_DS3505
ZGGG,2006-12-09 16:00,ZGGG 091600Z AUTO 02008KT 7SM 13/06 A3030 RMK T01300060 IEM_DS3505
ZGGG,2006-12-09 17:00,ZGGG 091700Z AUTO 01008KT 7SM 13/05 A3030 RMK T01300050 IEM_DS3505
ZGGG,2006-12-09 18:00,ZGGG 091800Z AUTO 34004KT 11SM 13/07 A3027 RMK SLP258 T01320072 57005 IEM_DS3505
ZGGG,2006-12-09 19:00,ZGGG 091900Z AUTO 34010KT 7SM 12/05 A3027 RMK T01200050 IEM_DS3505
ZGGG,2006-12-09 20:00,ZGGG 092000Z AUTO 35012KT 7SM 12/05 A3027 RMK T01200050 IEM_DS3505
ZGGG,2006-12-09 21:00,ZGGG 092100Z AUTO 34004KT 11SM 12/07 A3027 RMK SLP256 T01220067 57003 IEM_DS3505
ZGGG,2006-12-09 22:00,ZGGG 092200Z AUTO 35010KT 7SM 12/05 A3027 RMK T01200050 IEM_DS3505
ZGGG,2006-12-09 23:00,ZGGG 092300Z AUTO 36012KT 4SM 12/05 A3030 RMK T01200050 IEM_DS3505
ZGGG,2006-12-10 00:00,ZGGG 100000Z AUTO 36004KT 10SM 12/07 A3030 RMK SLP269 T01220067 52013 IEM_DS3505
ZGGG,2006-12-10 01:00,ZGGG 100100Z AUTO 02008KT 5SM 13/05 A3030 RMK T01300050 IEM_DS3505
ZGGG,2006-12-10 02:00,ZGGG 100200Z AUTO 02008KT 4SM 13/05 A3030 RMK T01300050 IEM_DS3505
ZGGG,2006-12-10 03:00,ZGGG 100300Z AUTO 04004KT 11SM 16/08 A3030 RMK SLP261 T01550080 57008 IEM_DS3505
ZGGG,2006-12-10 04:00,ZGGG 100400Z AUTO 02008KT 5SM 16/06 A3027 RMK T01600060 IEM_DS3505
ZGGG,2006-12-10 05:00,ZGGG 100500Z AUTO 36008KT 6SM 17/06 A3021 RMK T01700060 IEM_DS3505
ZGGG,2006-12-10 06:00,ZGGG 100600Z AUTO 32006KT 10SM 19/09 A3018 RMK SLP222 T01860091 57038 IEM_DS3505
ZGGG,2006-12-10 07:00,ZGGG 100700Z AUTO 01008KT 6SM 19/07 A3015 RMK T01900070 IEM_DS3505
ZGGG,2006-12-10 08:00,ZGGG 100800Z AUTO 35008KT 6SM 18/07 A3015 RMK T01800070 IEM_DS3505
ZGGG,2006-12-10 09:00,ZGGG 100900Z AUTO 36004KT 10SM 18/09 A3015 RMK SLP213 T01750092 57009 IEM_DS3505
ZGGG,2006-12-10 10:00,ZGGG 101000Z AUTO 34008KT 6SM 15/06 A3015 RMK T01500060 IEM_DS3505
ZGGG,2006-12-10 11:00,ZGGG 101100Z AUTO 34008KT 6SM 14/06 A3018 RMK T01400060 IEM_DS3505
ZGGG,2006-12-10 12:00,ZGGG 101200Z AUTO 02004KT 10SM 14/08 A3018 RMK SLP231 T01410083 52017 IEM_DS3505
ZGGG,2006-12-10 13:00,ZGGG 101300Z AUTO 36004KT 5SM 14/06 A3018 RMK T01400060 IEM_DS3505
ZGGG,2006-12-10 14:00,ZGGG 101400Z AUTO 4SM 13/07 A3021 RMK T01300070 IEM_DS3505
ZGGG,2006-12-10 15:00,ZGGG 101500Z AUTO 34002KT 10SM 13/08 A3021 RMK SLP235 T01310084 52004 IEM_DS3505
ZGGG,2006-12-10 16:00,ZGGG 101600Z AUTO 33008KT 4SM 12/06 A3018 RMK T01200060 IEM_DS3505
ZGGG,2006-12-10 17:00,ZGGG 101700Z AUTO 36004KT 4SM 12/07 A3018 RMK T01200070 IEM_DS3505
ZGGG,2006-12-10 18:00,ZGGG 101800Z AUTO 34004KT 9SM 12/08 A3018 RMK SLP229 T01200081 57005 IEM_DS3505
ZGGG,2006-12-10 19:00,ZGGG 101900Z AUTO 00000KT 4SM 12/07 A3015 RMK T01200070 IEM_DS3505
ZGGG,2006-12-10 20:00,ZGGG 102000Z AUTO 00000KT 4SM 11/07 A3018 RMK T01100070 IEM_DS3505
ZGGG,2006-12-10 21:00,ZGGG 102100Z AUTO 34002KT 9SM 12/08 A3018 RMK SLP226 T01170078 57004 IEM_DS3505
ZGGG,2006-12-10 22:00,ZGGG 102200Z AUTO 4SM 12/08 A3018 RMK T01200080 IEM_DS3505
ZGGG,2006-12-10 23:00,ZGGG 102300Z AUTO 07002KT 3SM 12/08 A3018 RMK T01200080 IEM_DS3505
ZGGG,2006-12-11 00:00,ZGGG 110000Z AUTO 36002KT 7SM 13/09 A3021 RMK SLP236 T01290086 52010 IEM_DS3505
ZGGG,2006-12-11 01:00,ZGGG 110100Z AUTO 04004KT 4SM 14/08 A3021 RMK T01400080 IEM_DS3505
ZGGG,2006-12-11 02:00,ZGGG 110200Z AUTO 35004KT 4SM 15/08 A3021 RMK T01500080 IEM_DS3505
ZGGG,2006-12-11 03:00,ZGGG 110300Z AUTO 32002KT 12SM 18/10 A3018 RMK SLP224 T01750104 57011 IEM_DS3505
ZGGG,2006-12-11 04:00,ZGGG 110400Z AUTO 4SM 20/10 A3015 RMK T02000100 IEM_DS3505
ZGGG,2006-12-11 05:00,ZGGG 110500Z AUTO 32006KT 5SM 20/09 A3009 RMK T02000090 IEM_DS3505
ZGGG,2006-12-11 06:00,ZGGG 110600Z AUTO 34004KT 12SM 21/12 A3009 RMK SLP193 T02120121 57031 IEM_DS3505
ZGGG,2006-12-11 07:00,ZGGG 110700Z AUTO 35006KT 6SM 21/10 A3006 RMK T02100100 IEM_DS3505
ZGGG,2006-12-11 08:00,ZGGG 110800Z AUTO 34006KT 6SM 21/10 A3006 RMK T02100100 IEM_DS3505
ZGGG,2006-12-11 09:00,ZGGG 110900Z AUTO 32004KT 11SM 20/12 A3006 RMK SLP185 T02030120 57008 IEM_DS3505
ZGGG,2006-12-11 10:00,ZGGG 111000Z AUTO 34006KT 6SM 19/10 A3006 RMK T01900100 IEM_DS3505
ZGGG,2006-12-11 11:00,ZGGG 111100Z AUTO 35006KT 5SM 18/10 A3009 RMK T01800100 IEM_DS3505
ZGGG,2006-12-11 12:00,ZGGG 111200Z AUTO 34002KT 10SM 17/12 A3009 RMK SLP199 T01700119 52014 IEM_DS3505
ZGGG,2006-12-11 13:00,ZGGG 111300Z AUTO 02002KT 4SM 15/10 A3009 RMK T01500100 IEM_DS3505
ZGGG,2006-12-11 14:00,ZGGG 111400Z AUTO 00000KT 4SM 15/10 A3009 RMK T01500100 IEM_DS3505
ZGGG,2006-12-11 15:00,ZGGG 111500Z AUTO 34002KT 9SM 16/12 A3012 RMK SLP206 T01580122 52007 IEM_DS3505
ZGGG,2006-12-11 16:00,ZGGG 111600Z AUTO 00000KT 3SM 15/11 A3012 RMK T01500110 IEM_DS3505
ZGGG,2006-12-11 17:00,ZGGG 111700Z AUTO 33004KT 4SM 16/10 A3012 RMK T01600100 IEM_DS3505
ZGGG,2006-12-11 18:00,ZGGG 111800Z AUTO 32004KT 9SM 16/11 A3009 RMK SLP198 T01620114 57008 IEM_DS3505
ZGGG,2006-12-11 19:00,ZGGG 111900Z AUTO 34006KT 4SM 15/09 A3009 RMK T01500090 IEM_DS3505
ZGGG,2006-12-11 20:00,ZGGG 112000Z AUTO 34006KT 4SM 15/09 A3009 RMK T01500090 IEM_DS3505
ZGGG,2006-12-11 21:00,ZGGG 112100Z AUTO 34004KT 10SM 15/11 A3009 RMK SLP199 T01540108 52001 IEM_DS3505
ZGGG,2006-12-11 22:00,ZGGG 112200Z AUTO 4SM 15/09 A3009 RMK T01500090 IEM_DS3505
ZGGG,2006-12-11 23:00,ZGGG 112300Z AUTO 00000KT 4SM 14/09 A3009 RMK T01400090 IEM_DS3505
ZGGG,2006-12-12 00:00,ZGGG 120000Z AUTO 36002KT 9SM 16/11 A3012 RMK SLP206 T01570107 52007 IEM_DS3505
ZGGG,2006-12-12 01:00,ZGGG 120100Z AUTO 3SM 17/09 A3012 RMK T01700090 IEM_DS3505
ZGGG,2006-12-12 02:00,ZGGG 120200Z AUTO 04004KT 4SM 18/09 A3015 RMK T01800090 IEM_DS3505
ZGGG,2006-12-12 03:00,ZGGG 120300Z AUTO 29004KT 9SM 21/12 A3012 RMK SLP202 T02110125 57004 IEM_DS3505
ZGGG,2006-12-12 04:00,ZGGG 120400Z AUTO 36004KT 5SM 22/10 A3006 RMK T02200100 IEM_DS3505
ZGGG,2006-12-12 05:00,ZGGG 120500Z AUTO 5SM 25/11 A3003 RMK T02500110 IEM_DS3505
ZGGG,2006-12-12 06:00,ZGGG 120600Z AUTO 29004KT 8SM 25/14 A3000 RMK SLP167 T02460138 57034 IEM_DS3505
ZGGG,2006-12-12 07:00,ZGGG 120700Z AUTO 6SM 26/12 A3000 RMK T02600120 IEM_DS3505
ZGGG,2006-12-12 08:00,ZGGG 120800Z AUTO 6SM 26/12 A2997 RMK T02600120 IEM_DS3505
ZGGG,2006-12-12 09:00,ZGGG 120900Z AUTO 36002KT 8SM 24/14 A3000 RMK SLP166 T02400144 57001 IEM_DS3505
ZGGG,2006-12-12 10:00,ZGGG 121000Z AUTO 00000KT 6SM 24/14 A3000 RMK T02400140 IEM_DS3505
ZGGG,2006-12-12 11:00,ZGGG 121100Z AUTO 4SM 23/14 A3003 RMK T02300140 IEM_DS3505
ZGGG,2006-12-12 12:00,ZGGG 121200Z AUTO 36002KT 9SM 22/15 A3006 RMK SLP187 T02160154 52020 IEM_DS3505
ZGGG,2006-12-12 13:00,ZGGG 121300Z AUTO 10002KT 3SM 22/14 A3006 RMK T02200140 IEM_DS3505
ZGGG,2006-12-12 14:00,ZGGG 121400Z AUTO 09004KT 4SM 22/14 A3009 RMK T02200140 IEM_DS3505
ZGGG,2006-12-12 15:00,ZGGG 121500Z AUTO 36002KT 8SM 21/16 A3009 RMK SLP198 T02120157 52012 IEM_DS3505
ZGGG,2006-12-12 16:00,ZGGG 121600Z AUTO 34004KT 4SM 22/14 A3009 RMK T02200140 IEM_DS3505
ZGGG,2006-12-12 17:00,ZGGG 121700Z AUTO 33004KT 4SM 22/13 A3009 RMK T02200130 IEM_DS3505
ZGGG,2006-12-12 18:00,ZGGG 121800Z AUTO 00000KT 7SM 21/16 A3009 RMK 60000 SLP191 T02060160 57007 IEM_DS3505
ZGGG,2006-12-12 19:00,ZGGG 121900Z AUTO 05002KT 3SM 20/15 A3006 RMK T02000150 IEM_DS3505
ZGGG,2006-12-12 20:00,ZGGG 122000Z AUTO 2SM 19/15 A3006 RMK T01900150 IEM_DS3505
ZGGG,2006-12-12 21:00,ZGGG 122100Z AUTO 36002KT 2SM 18/17 A3009 RMK 70045 SLP189 T01840174 57002 IEM_DS3505
ZGGG,2006-12-12 22:00,ZGGG 122200Z AUTO 34006KT 1 1/2SM 17/15 A3009 RMK T01700150 IEM_DS3505
ZGGG,2006-12-12 23:00,ZGGG 122300Z AUTO 34004KT 1 1/2SM 17/15 A3012 RMK T01700150 IEM_DS3505
ZGGG,2006-12-13 00:00,ZGGG 130000Z AUTO 34004KT 1 1/4SM 17/16 A3012 RMK 60087 70087 SLP207 T01710163 52017 IEM_DS3505
ZGGG,2006-12-13 01:00,ZGGG 130100Z AUTO 35006KT 1 1/4SM 17/15 A3015 RMK T01700150 IEM_DS3505
ZGGG,2006-12-13 02:00,ZGGG 130200Z AUTO 34008KT 1 1/2SM 16/14 A3015 RMK T01600140 IEM_DS3505
ZGGG,2006-12-13 03:00,ZGGG 130300Z AUTO 34008KT 1 1/2SM 17/16 A3015 RMK SLP218 T01660155 52011 IEM_DS3505
ZGGG,2006-12-13 04:00,ZGGG 130400Z AUTO 33010KT 1 1/2SM 16/13 A3015 RMK T01600130 IEM_DS3505
ZGGG,2006-12-13 05:00,ZGGG 130500Z AUTO 34010KT 2 1/2SM 16/13 A3012 RMK T01600130 IEM_DS3505
ZGGG,2006-12-13 06:00,ZGGG 130600Z AUTO 34004KT 11SM 16/14 A3009 RMK 60028 SLP196 T01590144 57022 IEM_DS3505
ZGGG,2006-12-13 07:00,ZGGG 130700Z AUTO 35010KT 3SM 16/13 A3006 RMK T01600130 IEM_DS3505
ZGGG,2006-12-13 08:00,ZGGG 130800Z AUTO 36006KT 2 1/2SM 15/12 A3006 RMK T01500120 IEM_DS3505
ZGGG,2006-12-13 09:00,ZGGG 130900Z AUTO 02008KT 7SM 15/13 A3009 RMK SLP193 T01460133 57003 IEM_DS3505
ZGGG,2006-12-13 10:00,ZGGG 131000Z AUTO 35008KT 4SM 15/12 A3009 RMK T01500120 IEM_DS3505
ZGGG,2006-12-13 11:00,ZGGG 131100Z AUTO 34008KT 4SM 14/12 A3009 RMK T01400120 IEM_DS3505
ZGGG,2006-12-13 12:00,ZGGG 131200Z AUTO 36004KT 7SM 14/13 A3012 RMK 60031 SLP207 T01420131 52014 IEM_DS3505
ZGGG,2006-12-13 13:00,ZGGG 131300Z AUTO 35006KT 3SM 15/12 A3012 RMK T01500120 IEM_DS3505
ZGGG,2006-12-13 14:00,ZGGG 131400Z AUTO 34006KT 7SM 15/12 A3015 RMK T01500120 IEM_DS3505
ZGGG,2006-12-13 15:00,ZGGG 131500Z AUTO 36004KT 9SM 14/13 A3012 RMK SLP212 T01430129 52005 IEM_DS3505
ZGGG,2006-12-13 16:00,ZGGG 131600Z AUTO 33008KT 7SM 14/11 A3012 RMK T01400110 IEM_DS3505
ZGGG,2006-12-13 17:00,ZGGG 131700Z AUTO 33008KT 7SM 14/11 A3012 RMK T01400110 IEM_DS3505
ZGGG,2006-12-13 18:00,ZGGG 131800Z AUTO 34004KT 9SM 14/13 A3009 RMK 60001 SLP199 T01400126 57013 IEM_DS3505
ZGGG,2006-12-13 19:00,ZGGG 131900Z AUTO 34012KT 7SM 13/10 A3009 RMK T01300100 IEM_DS3505
ZGGG,2006-12-13 20:00,ZGGG 132000Z AUTO 33010KT 5SM 13/10 A3009 RMK T01300100 IEM_DS3505
ZGGG,2006-12-13 21:00,ZGGG 132100Z AUTO 36004KT 7SM 13/12 A3009 RMK 70106 SLP198 T01280117 57002 IEM_DS3505
ZGGG,2006-12-13 22:00,ZGGG 132200Z AUTO 33010KT 7SM 12/10 A3009 RMK T01200100 IEM_DS3505
ZGGG,2006-12-13 23:00,ZGGG 132300Z AUTO 33008KT 7SM 13/10 A3012 RMK T01300100 IEM_DS3505
ZGGG,2006-12-14 00:00,ZGGG 140000Z AUTO 32002KT 8SM 13/11 A3015 RMK 60008 70067 SLP215 T01270114 52017 IEM_DS3505
ZGGG,2006-12-14 01:00,ZGGG 140100Z AUTO 34008KT 7SM 13/10 A3015 RMK T01300100 IEM_DS3505
ZGGG,2006-12-14 02:00,ZGGG 140200Z AUTO 34008KT 7SM 13/10 A3015 RMK T01300100 IEM_DS3505
ZGGG,2006-12-14 03:00,ZGGG 140300Z AUTO 34004KT 8SM 14/12 A3015 RMK SLP223 T01370116 52008 IEM_DS3505
ZGGG,2006-12-14 04:00,ZGGG 140400Z AUTO 35010KT 7SM 14/10 A3012 RMK T01400100 IEM_DS3505
ZGGG,2006-12-14 05:00,ZGGG 140500Z AUTO 35008KT 7SM 14/10 A3012 RMK T01400100 IEM_DS3505
ZGGG,2006-12-14 06:00,ZGGG 140600Z AUTO 34004KT 12SM 15/11 A3006 RMK 60000 SLP191 T01480106 57031 IEM_DS3505
ZGGG,2006-12-14 07:00,ZGGG 140700Z AUTO 01012KT 7SM 14/09 A3006 RMK T01400090 IEM_DS3505
ZGGG,2006-12-14 08:00,ZGGG 140800Z AUTO 01010KT 7SM 14/09 A3006 RMK T01400090 IEM_DS3505
ZGGG,2006-12-14 09:00,ZGGG 140900Z AUTO 02002KT 11SM 14/10 A3006 RMK SLP186 T01430105 57005 IEM_DS3505
ZGGG,2006-12-14 10:00,ZGGG 141000Z AUTO 01008KT 7SM 14/09 A3006 RMK T01400090 IEM_DS3505
ZGGG,2006-12-14 11:00,ZGGG 141100Z AUTO 02006KT 7SM 13/08 A3009 RMK T01300080 IEM_DS3505
ZGGG,2006-12-14 12:00,ZGGG 141200Z AUTO 34004KT 11SM 14/10 A3009 RMK SLP199 T01360096 52012 IEM_DS3505
ZGGG,2006-12-14 13:00,ZGGG 141300Z AUTO 02008KT 6SM 14/08 A3009 RMK T01400080 IEM_DS3505
ZGGG,2006-12-14 14:00,ZGGG 141400Z AUTO 01008KT 6SM 14/07 A3012 RMK T01400070 IEM_DS3505
ZGGG,2006-12-14 15:00,ZGGG 141500Z AUTO 34002KT 10SM 14/08 A3012 RMK SLP213 T01360076 52014 IEM_DS3505
ZGGG,2006-12-14 16:00,ZGGG 141600Z AUTO 02008KT 6SM 13/06 A3012 RMK T01300060 IEM_DS3505
ZGGG,2006-12-14 17:00,ZGGG 141700Z AUTO 36006KT 6SM 14/05 A3012 RMK T01400050 IEM_DS3505
ZGGG,2006-12-14 18:00,ZGGG 141800Z AUTO 36004KT 10SM 13/06 A3012 RMK SLP205 T01340065 57007 IEM_DS3505
ZGGG,2006-12-14 19:00,ZGGG 141900Z AUTO 6SM 13/05 A3009 RMK T01300050 IEM_DS3505
ZGGG,2006-12-14 20:00,ZGGG 142000Z AUTO 01006KT 6SM 13/05 A3009 RMK T01300050 IEM_DS3505
ZGGG,2006-12-14 21:00,ZGGG 142100Z AUTO 36004KT 11SM 13/06 A3009 RMK 70003 SLP199 T01300057 57007 IEM_DS3505
ZGGG,2006-12-14 22:00,ZGGG 142200Z AUTO 35004KT 6SM 13/05 A3009 RMK T01300050 IEM_DS3505
ZGGG,2006-12-14 23:00,ZGGG 142300Z AUTO 36004KT 6SM 13/05 A3012 RMK T01300050 IEM_DS3505
ZGGG,2006-12-15 00:00,ZGGG 150000Z AUTO 36006KT 14SM 13/05 A3015 RMK 70000 SLP218 T01320049 52019 IEM_DS3505
ZGGG,2006-12-15 01:00,ZGGG 150100Z AUTO 02006KT 7SM 14/05 A3018 RMK T01400050 IEM_DS3505
ZGGG,2006-12-15 02:00,ZGGG 150200Z AUTO 02008KT 7SM 15/02 A3018 RMK T01500020 IEM_DS3505
ZGGG,2006-12-15 03:00,ZGGG 150300Z AUTO 36004KT 12SM 16/06 A3018 RMK SLP227 T01640060 52010 IEM_DS3505
ZGGG,2006-12-15 04:00,ZGGG 150400Z AUTO 01006KT 6SM 18/03 A3015 RMK T01800030 IEM_DS3505
ZGGG,2006-12-15 05:00,ZGGG 150500Z AUTO 03006KT 6SM 18/04 A3012 RMK T01800040 IEM_DS3505
ZGGG,2006-12-15 06:00,ZGGG 150600Z AUTO 34004KT 14SM 20/07 A3006 RMK SLP193 T01960067 57034 IEM_DS3505
ZGGG,2006-12-15 07:00,ZGGG 150700Z AUTO 04008KT 6SM 21/05 A3006 RMK T02100050 IEM_DS3505
ZGGG,2006-12-15 08:00,ZGGG 150800Z AUTO 04008KT 6SM 20/07 A3006 RMK T02000070 IEM_DS3505
ZGGG,2006-12-15 09:00,ZGGG 150900Z AUTO 02002KT 11SM 19/07 A3009 RMK SLP196 T01890074 52003 IEM_DS3505
ZGGG,2006-12-15 10:00,ZGGG 151000Z AUTO 35008KT 7SM 18/06 A3009 RMK T01800060 IEM_DS3505
ZGGG,2006-12-15 11:00,ZGGG 151100Z AUTO 34006KT 7SM 18/05 A3012 RMK T01800050 IEM_DS3505
ZGGG,2006-12-15 12:00,ZGGG 151200Z AUTO 32002KT 11SM 17/08 A3015 RMK SLP222 T01740083 52026 IEM_DS3505
ZGGG,2006-12-15 13:00,ZGGG 151300Z AUTO 02008KT 6SM 17/06 A3018 RMK T01700060 IEM_DS3505
ZGGG,2006-12-15 14:00,ZGGG 151400Z AUTO 02008KT 6SM 17/03 A3021 RMK T01700030 IEM_DS3505
ZGGG,2006-12-15 15:00,ZGGG 151500Z AUTO 36004KT 10SM 17/05 A3021 RMK SLP240 T01690046 52018 IEM_DS3505
ZGGG,2006-12-15 16:00,ZGGG 151600Z AUTO 02010KT 6SM 16/01 A3024 RMK T01600010 IEM_DS3505
ZGGG,2006-12-15 17:00,ZGGG 151700Z AUTO 02010KT 6SM 16/02 A3024 RMK T01600020 IEM_DS3505
ZGGG,2006-12-15 18:00,ZGGG 151800Z AUTO 36002KT 10SM 16/03 A3024 RMK SLP244 T01580026 52004 IEM_DS3505
ZGGG,2006-12-15 19:00,ZGGG 151900Z AUTO 01012KT 6SM 15/02 A3024 RMK T01500020 IEM_DS3505
ZGGG,2006-12-15 20:00,ZGGG 152000Z AUTO 01014KT 6SM 15/00 A3024 RMK T01500000 IEM_DS3505
ZGGG,2006-12-15 21:00,ZGGG 152100Z AUTO 36004KT 9SM 15/02 A3024 RMK SLP243 T01540022 57001 IEM_DS3505
ZGGG,2006-12-15 22:00,ZGGG 152200Z AUTO 01014KT 6SM 15/M01 A3027 RMK T01501010 IEM_DS3505
ZGGG,2006-12-15 23:00,ZGGG 152300Z AUTO 01016KT 6SM 14/M02 A3027 RMK T01401020 IEM_DS3505
ZGGG,2006-12-16 00:00,ZGGG 160000Z AUTO 36004KT 14SM 15/M03 A3033 RMK SLP271 T01531026 52028 IEM_DS3505
ZGGG,2006-12-16 01:00,ZGGG 160100Z AUTO 01016KT 6SM 16/M03 A3033 RMK T01601030 IEM_DS3505
ZGGG,2006-12-16 02:00,ZGGG 160200Z AUTO 01014KT 6SM 17/M02 A3036 RMK T01701020 IEM_DS3505
ZGGG,2006-12-16 03:00,ZGGG 160300Z AUTO 02006KT 15SM 19/01 A3033 RMK SLP278 T01860007 52007 IEM_DS3505
ZGGG,2006-12-16 04:00,ZGGG 160400Z AUTO 03012KT 6SM 19/01 A3030 RMK T01900010 IEM_DS3505
ZGGG,2006-12-16 05:00,ZGGG 160500Z AUTO 03012KT 6SM 20/01 A3027 RMK T02000010 IEM_DS3505
ZGGG,2006-12-16 06:00,ZGGG 160600Z AUTO 36006KT 15SM 21/02 A3024 RMK SLP244 T02070025 57034 IEM_DS3505
ZGGG,2006-12-16 07:00,ZGGG 160700Z AUTO 01017KT 6SM 20/00 A3024 RMK T02000000 IEM_DS3505
ZGGG,2006-12-16 08:00,ZGGG 160800Z AUTO 02012KT 6SM 20/02 A3024 RMK T02000020 IEM_DS3505
ZGGG,2006-12-16 09:00,ZGGG 160900Z AUTO 36004KT 14SM 19/01 A3024 RMK SLP249 T01880009 52005 IEM_DS3505
ZGGG,2006-12-16 10:00,ZGGG 161000Z AUTO 35006KT 5SM 18/03 A3027 RMK T01800030 IEM_DS3505
ZGGG,2006-12-16 11:00,ZGGG 161100Z AUTO 01004KT 4SM 15/05 A3030 RMK T01500050 IEM_DS3505
ZGGG,2006-12-16 12:00,ZGGG 161200Z AUTO 02004KT 13SM 16/00 A3033 RMK SLP275 T01650002 52025 IEM_DS3505
ZGGG,2006-12-16 13:00,ZGGG 161300Z AUTO 04004KT 5SM 14/03 A3033 RMK T01400030 IEM_DS3505
ZGGG,2006-12-16 14:00,ZGGG 161400Z AUTO 04006KT 4SM 13/01 A3036 RMK T01300010 IEM_DS3505
ZGGG,2006-12-16 15:00,ZGGG 161500Z AUTO 02002KT 13SM 13/M01 A3036 RMK SLP289 T01341010 52014 IEM_DS3505
ZGGG,2006-12-16 16:00,ZGGG 161600Z AUTO 01006KT 6SM 11/02 A3036 RMK T01100020 IEM_DS3505
ZGGG,2006-12-16 17:00,ZGGG 161700Z AUTO 36006KT 6SM 11/00 A3036 RMK T01100000 IEM_DS3505
ZGGG,2006-12-16 18:00,ZGGG 161800Z AUTO 02004KT 13SM 11/01 A3039 RMK SLP295 T01090006 52006 IEM_DS3505
ZGGG,2006-12-16 19:00,ZGGG 161900Z AUTO 05004KT 6SM 10/M02 A3036 RMK T01001020 IEM_DS3505
ZGGG,2006-12-16 20:00,ZGGG 162000Z AUTO 02004KT 6SM 10/00 A3036 RMK T01000000 IEM_DS3505
ZGGG,2006-12-16 21:00,ZGGG 162100Z AUTO 02002KT 11SM 09/00 A3036 RMK SLP293 T00900002 57002 IEM_DS3505
ZGGG,2006-12-16 22:00,ZGGG 162200Z AUTO 02004KT 6SM 09/00 A3039 RMK T00900000 IEM_DS3505
ZGGG,2006-12-16 23:00,ZGGG 162300Z AUTO 6SM 09/M01 A3039 RMK T00901010 IEM_DS3505
ZGGG,2006-12-17 00:00,ZGGG 170000Z AUTO 36002KT 14SM 11/M01 A3042 RMK SLP309 T01131008 52016 IEM_DS3505
ZGGG,2006-12-17 01:00,ZGGG 170100Z AUTO 03008KT 6SM 14/M03 A3042 RMK T01401030 IEM_DS3505
ZGGG,2006-12-17 02:00,ZGGG 170200Z AUTO 02012KT 6SM 15/M04 A3042 RMK T01501040 IEM_DS3505
ZGGG,2006-12-17 03:00,ZGGG 170300Z AUTO 36006KT 15SM 16/M02 A3039 RMK SLP300 T01641017 57009 IEM_DS3505
ZGGG,2006-12-17 04:00,ZGGG 170400Z AUTO 01014KT 6SM 17/M03 A3036 RMK T01701030 IEM_DS3505
ZGGG,2006-12-17 05:00,ZGGG 170500Z AUTO 01012KT 6SM 18/M05 A3030 RMK T01801050 IEM_DS3505
ZGGG,2006-12-17 06:00,ZGGG 170600Z AUTO 34002KT 14SM 19/01 A3027 RMK SLP256 T01880009 57044 IEM_DS3505
ZGGG,2006-12-17 07:00,ZGGG 170700Z AUTO 03010KT 6SM 19/M05 A3024 RMK T01901050 IEM_DS3505
ZGGG,2006-12-17 08:00,ZGGG 170800Z AUTO 01012KT 6SM 18/M04 A3024 RMK T01801040 IEM_DS3505
ZGGG,2006-12-17 09:00,ZGGG 170900Z AUTO 36004KT 13SM 18/M01 A3027 RMK SLP253 T01751007 57003 IEM_DS3505
ZGGG,2006-12-17 10:00,ZGGG 171000Z AUTO 01010KT 6SM 15/M02 A3027 RMK T01501020 IEM_DS3505
ZGGG,2006-12-17 11:00,ZGGG 171100Z AUTO 36004KT 6SM 13/M01 A3027 RMK T01301010 IEM_DS3505
ZGGG,2006-12-17 12:00,ZGGG 171200Z AUTO 02004KT 12SM 14/M03 A3030 RMK SLP268 T01411032 52015 IEM_DS3505
ZGGG,2006-12-17 13:00,ZGGG 171300Z AUTO 03008KT 6SM 12/M03 A3030 RMK T01201030 IEM_DS3505
ZGGG,2006-12-17 14:00,ZGGG 171400Z AUTO 01004KT 6SM 10/M02 A3033 RMK T01001020 IEM_DS3505
ZGGG,2006-12-17 15:00,ZGGG 171500Z AUTO 36004KT 11SM 12/M03 A3033 RMK SLP278 T01201034 52010 IEM_DS3505
ZGGG,2006-12-17 16:00,ZGGG 171600Z AUTO 04004KT 6SM 08/M01 A3033 RMK T00801010 IEM_DS3505
ZGGG,2006-12-17 17:00,ZGGG 171700Z AUTO 6SM 08/M01 A3033 RMK T00801010 IEM_DS3505
ZGGG,2006-12-17 18:00,ZGGG 171800Z AUTO 32002KT 11SM 09/M02 A3033 RMK SLP281 T00871017 52003 IEM_DS3505
ZGGG,2006-12-17 19:00,ZGGG 171900Z AUTO 09002KT 6SM 06/01 A3033 RMK T00600010 IEM_DS3505
ZGGG,2006-12-17 20:00,ZGGG 172000Z AUTO 08006KT 6SM 08/M02 A3033 RMK T00801020 IEM_DS3505
ZGGG,2006-12-17 21:00,ZGGG 172100Z AUTO 34002KT 11SM 08/M02 A3033 RMK SLP284 T00821019 52003 IEM_DS3505
ZGGG,2006-12-17 22:00,ZGGG 172200Z AUTO 08004KT 6SM 07/M01 A3036 RMK T00701010 IEM_DS3505
ZGGG,2006-12-17 23:00,ZGGG 172300Z AUTO 00000KT 5SM 07/M02 A3039 RMK T00701020 IEM_DS3505
ZGGG,2006-12-18 00:00,ZGGG 180000Z AUTO 36002KT 13SM 10/M01 A3042 RMK SLP309 T00971014 52025 IEM_DS3505
ZGGG,2006-12-18 01:00,ZGGG 180100Z AUTO 4SM 11/M01 A3045 RMK T01101010 IEM_DS3505
ZGGG,2006-12-18 02:00,ZGGG 180200Z AUTO 6SM 14/M04 A3045 RMK T01401040 IEM_DS3505
ZGGG,2006-12-18 03:00,ZGGG 180300Z AUTO 02010KT 12SM 15/M03 A3042 RMK SLP301 T01541030 57008 IEM_DS3505
ZGGG,2006-12-18 04:00,ZGGG 180400Z AUTO 02008KT 6SM 16/M04 A3036 RMK T01601040 IEM_DS3505
ZGGG,2006-12-18 05:00,ZGGG 180500Z AUTO 01004KT 6SM 18/M03 A3033 RMK T01801030 IEM_DS3505
ZGGG,2006-12-18 06:00,ZGGG 180600Z AUTO 36004KT 14SM 19/M01 A3030 RMK SLP263 T01881011 57038 IEM_DS3505
ZGGG,2006-12-18 07:00,ZGGG 180700Z AUTO 05004KT 6SM 19/M04 A3027 RMK T01901040 IEM_DS3505
ZGGG,2006-12-18 08:00,ZGGG 180800Z AUTO 01008G19KT 6SM 18/M03 A3024 RMK T01801030 IEM_DS3505
ZGGG,2006-12-18 09:00,ZGGG 180900Z AUTO 34002KT 13SM 17/M00 A3027 RMK SLP254 T01731004 57009 IEM_DS3505
ZGGG,2006-12-18 10:00,ZGGG 181000Z AUTO 01006KT 6SM 15/M02 A3027 RMK T01501020 IEM_DS3505
ZGGG,2006-12-18 11:00,ZGGG 181100Z AUTO 35004KT 6SM 13/00 A3030 RMK T01300000 IEM_DS3505
ZGGG,2006-12-18 12:00,ZGGG 181200Z AUTO 09002KT 11SM 11/02 A3030 RMK SLP274 T01130023 52020 IEM_DS3505
ZGGG,2006-12-18 13:00,ZGGG 181300Z AUTO 00000KT 5SM 10/03 A3033 RMK T01000030 IEM_DS3505
ZGGG,2006-12-18 14:00,ZGGG 181400Z AUTO 01002KT 5SM 10/03 A3033 RMK T01000030 IEM_DS3505
ZGGG,2006-12-18 15:00,ZGGG 181500Z AUTO 02002KT 11SM 10/02 A3036 RMK SLP285 T01010015 52011 IEM_DS3505
ZGGG,2006-12-18 16:00,ZGGG 181600Z AUTO 09004KT 4SM 08/03 A3036 RMK T00800030 IEM_DS3505
ZGGG,2006-12-18 17:00,ZGGG 181700Z AUTO 09004KT 4SM 07/03 A3036 RMK T00700030 IEM_DS3505
ZGGG,2006-12-18 18:00,ZGGG 181800Z AUTO 34002KT 11SM 08/02 A3036 RMK SLP285 T00850023 54000 IEM_DS3505
ZGGG,2006-12-18 19:00,ZGGG 181900Z AUTO 4SM 07/02 A3033 RMK T00700020 IEM_DS3505
ZGGG,2006-12-18 20:00,ZGGG 182000Z AUTO 11002KT 4SM 07/03 A3033 RMK T00700030 IEM_DS3505
ZGGG,2006-12-18 21:00,ZGGG 182100Z AUTO 34002KT 11SM 08/00 A3033 RMK SLP273 T00840004 57012 IEM_DS3505
ZGGG,2006-12-18 22:00,ZGGG 182200Z AUTO 5SM 06/02 A3033 RMK T00600020 IEM_DS3505
ZGGG,2006-12-18 23:00,ZGGG 182300Z AUTO 00000KT 4SM 06/02 A3033 RMK T00600020 IEM_DS3505
ZGGG,2006-12-19 00:00,ZGGG 190000Z AUTO 34002KT 13SM 11/M00 A3036 RMK SLP283 T01071004 52010 IEM_DS3505
ZGGG,2006-12-19 01:00,ZGGG 190100Z AUTO 02010KT 6SM 12/00 A3036 RMK T01200000 IEM_DS3505
ZGGG,2006-12-19 02:00,ZGGG 190200Z AUTO 01014KT 6SM 15/M02 A3036 RMK T01501020 IEM_DS3505
ZGGG,2006-12-19 03:00,ZGGG 190300Z AUTO 34004KT 13SM 17/01 A3036 RMK SLP283 T01700006 54000 IEM_DS3505
ZGGG,2006-12-19 04:00,ZGGG 190400Z AUTO 01010KT 6SM 18/M03 A3033 RMK T01801030 IEM_DS3505
ZGGG,2006-12-19 05:00,ZGGG 190500Z AUTO 01010KT 6SM 19/M02 A3027 RMK T01901020 IEM_DS3505
ZGGG,2006-12-19 06:00,ZGGG 190600Z AUTO 36004KT 12SM 20/02 A3024 RMK SLP251 T01970017 57032 IEM_DS3505
ZGGG,2006-12-19 07:00,ZGGG 190700Z AUTO 36008KT 6SM 20/M04 A3024 RMK T02001040 IEM_DS3505
ZGGG,2006-12-19 08:00,ZGGG 190800Z AUTO 01010KT 6SM 20/M04 A3024 RMK T02001040 IEM_DS3505
ZGGG,2006-12-19 09:00,ZGGG 190900Z AUTO 36004KT 12SM 18/01 A3024 RMK SLP252 T01840010 52001 IEM_DS3505
ZGGG,2006-12-19 10:00,ZGGG 191000Z AUTO 34008KT 6SM 17/M02 A3027 RMK T01701020 IEM_DS3505
ZGGG,2006-12-19 11:00,ZGGG 191100Z AUTO 35004KT 6SM 15/M02 A3027 RMK T01501020 IEM_DS3505
ZGGG,2006-12-19 12:00,ZGGG 191200Z AUTO 32002KT 11SM 15/01 A3030 RMK SLP271 T01460012 52019 IEM_DS3505
ZGGG,2006-12-19 13:00,ZGGG 191300Z AUTO 02006KT 6SM 13/00 A3033 RMK T01300000 IEM_DS3505
ZGGG,2006-12-19 14:00,ZGGG 191400Z AUTO 01004KT 6SM 12/01 A3033 RMK T01200010 IEM_DS3505
ZGGG,2006-12-19 15:00,ZGGG 191500Z AUTO 22002KT 11SM 12/02 A3033 RMK SLP283 T01190024 52012 IEM_DS3505
ZGGG,2006-12-19 16:00,ZGGG 191600Z AUTO 6SM 11/01 A3036 RMK T01100010 IEM_DS3505
ZGGG,2006-12-19 17:00,ZGGG 191700Z AUTO 00000KT 6SM 09/04 A3033 RMK T00900040 IEM_DS3505
ZGGG,2006-12-19 18:00,ZGGG 191800Z AUTO 34002KT 11SM 11/01 A3033 RMK SLP278 T01070013 57005 IEM_DS3505
ZGGG,2006-12-19 19:00,ZGGG 191900Z AUTO 00000KT 6SM 10/01 A3033 RMK T01000010 IEM_DS3505
ZGGG,2006-12-19 20:00,ZGGG 192000Z AUTO 00000KT 6SM 08/02 A3030 RMK T00800020 IEM_DS3505
ZGGG,2006-12-19 21:00,ZGGG 192100Z AUTO 29004KT 11SM 12/01 A3030 RMK SLP268 T01150006 57010 IEM_DS3505
ZGGG,2006-12-19 22:00,ZGGG 192200Z AUTO 04004KT 6SM 10/00 A3030 RMK T01000000 IEM_DS3505
ZGGG,2006-12-19 23:00,ZGGG 192300Z AUTO 06004KT 6SM 11/M01 A3033 RMK T01101010 IEM_DS3505
ZGGG,2006-12-20 00:00,ZGGG 200000Z AUTO 36004KT 12SM 12/01 A3033 RMK SLP278 T01230013 52010 IEM_DS3505
ZGGG,2006-12-20 01:00,ZGGG 200100Z AUTO 04006KT 4SM 14/M01 A3036 RMK T01401010 IEM_DS3505
ZGGG,2006-12-20 02:00,ZGGG 200200Z AUTO 03010KT 6SM 16/M01 A3036 RMK T01601010 IEM_DS3505
ZGGG,2006-12-20 03:00,ZGGG 200300Z AUTO 36004KT 11SM 18/02 A3033 RMK SLP277 T01780025 57001 IEM_DS3505
ZGGG,2006-12-20 04:00,ZGGG 200400Z AUTO 02010KT 6SM 18/M01 A3030 RMK T01801010 IEM_DS3505
ZGGG,2006-12-20 05:00,ZGGG 200500Z AUTO 02010KT 6SM 20/M01 A3027 RMK T02001010 IEM_DS3505
ZGGG,2006-12-20 06:00,ZGGG 200600Z AUTO 34006KT 11SM 21/02 A3021 RMK SLP239 T02070020 57037 IEM_DS3505
ZGGG,2006-12-20 07:00,ZGGG 200700Z AUTO 02008KT 6SM 21/01 A3021 RMK T02100010 IEM_DS3505
ZGGG,2006-12-20 08:00,ZGGG 200800Z AUTO 34010KT 6SM 21/00 A3018 RMK T02100000 IEM_DS3505
ZGGG,2006-12-20 09:00,ZGGG 200900Z AUTO 34004KT 11SM 19/03 A3021 RMK SLP232 T01920034 57007 IEM_DS3505
ZGGG,2006-12-20 10:00,ZGGG 201000Z AUTO 33006KT 6SM 18/01 A3021 RMK T01800010 IEM_DS3505
ZGGG,2006-12-20 11:00,ZGGG 201100Z AUTO 35006KT 6SM 17/01 A3024 RMK T01700010 IEM_DS3505
ZGGG,2006-12-20 12:00,ZGGG 201200Z AUTO 34002KT 11SM 15/04 A3027 RMK SLP255 T01530038 52022 IEM_DS3505
ZGGG,2006-12-20 13:00,ZGGG 201300Z AUTO 6SM 14/02 A3027 RMK T01400020 IEM_DS3505
ZGGG,2006-12-20 14:00,ZGGG 201400Z AUTO 02008KT 6SM 14/02 A3027 RMK T01400020 IEM_DS3505
ZGGG,2006-12-20 15:00,ZGGG 201500Z AUTO 34002KT 11SM 15/00 A3030 RMK SLP263 T01530003 52009 IEM_DS3505
ZGGG,2006-12-20 16:00,ZGGG 201600Z AUTO 02008KT 6SM 13/01 A3027 RMK T01300010 IEM_DS3505
ZGGG,2006-12-20 17:00,ZGGG 201700Z AUTO 02012KT 6SM 14/M01 A3027 RMK T01401010 IEM_DS3505
ZGGG,2006-12-20 18:00,ZGGG 201800Z AUTO 36004KT 11SM 14/M00 A3027 RMK SLP258 T01431002 57005 IEM_DS3505
ZGGG,2006-12-20 19:00,ZGGG 201900Z AUTO 02006KT 6SM 11/M01 A3027 RMK T01101010 IEM_DS3505
ZGGG,2006-12-20 20:00,ZGGG 202000Z AUTO 33006KT 6SM 12/M02 A3024 RMK T01201020 IEM_DS3505
ZGGG,2006-12-20 21:00,ZGGG 202100Z AUTO 34004KT 11SM 12/M00 A3024 RMK SLP251 T01221003 57007 IEM_DS3505
ZGGG,2006-12-20 22:00,ZGGG 202200Z AUTO 6SM 11/M04 A3027 RMK T01101040 IEM_DS3505
ZGGG,2006-12-20 23:00,ZGGG 202300Z AUTO 01008KT 6SM 11/M04 A3027 RMK T01101040 IEM_DS3505
ZGGG,2006-12-21 00:00,ZGGG 210000Z AUTO 27002KT 11SM 12/M00 A3030 RMK SLP266 T01231002 52014 IEM_DS3505
ZGGG,2006-12-21 01:00,ZGGG 210100Z AUTO 35004KT 5SM 14/M04 A3030 RMK T01401040 IEM_DS3505
ZGGG,2006-12-21 02:00,ZGGG 210200Z AUTO 02012KT 6SM 16/M03 A3030 RMK T01601030 IEM_DS3505
ZGGG,2006-12-21 03:00,ZGGG 210300Z AUTO 36006KT 11SM 18/01 A3030 RMK SLP266 T01820008 52001 IEM_DS3505
ZGGG,2006-12-21 04:00,ZGGG 210400Z AUTO 01012KT 6SM 19/M02 A3027 RMK T01901020 IEM_DS3505
ZGGG,2006-12-21 05:00,ZGGG 210500Z AUTO 01010KT 6SM 20/00 A3021 RMK T02000000 IEM_DS3505
ZGGG,2006-12-21 06:00,ZGGG 210600Z AUTO 36004KT 11SM 21/02 A3018 RMK SLP228 T02060020 57038 IEM_DS3505
ZGGG,2006-12-21 07:00,ZGGG 210700Z AUTO 03010KT 6SM 21/01 A3015 RMK T02100010 IEM_DS3505
ZGGG,2006-12-21 08:00,ZGGG 210800Z AUTO 36010KT 6SM 21/00 A3015 RMK T02100000 IEM_DS3505
ZGGG,2006-12-21 09:00,ZGGG 210900Z AUTO 36002KT 11SM 19/03 A3015 RMK SLP219 T01920034 57009 IEM_DS3505
ZGGG,2006-12-21 10:00,ZGGG 211000Z AUTO 34006KT 6SM 18/00 A3018 RMK T01800000 IEM_DS3505
ZGGG,2006-12-21 11:00,ZGGG 211100Z AUTO 35008KT 6SM 17/00 A3018 RMK T01700000 IEM_DS3505
ZGGG,2006-12-21 12:00,ZGGG 211200Z AUTO 32002KT 11SM 15/04 A3018 RMK SLP230 T01510039 52010 IEM_DS3505
ZGGG,2006-12-21 13:00,ZGGG 211300Z AUTO 02004KT 6SM 14/02 A3018 RMK T01400020 IEM_DS3505
ZGGG,2006-12-21 14:00,ZGGG 211400Z AUTO 03006KT 6SM 14/02 A3021 RMK T01400020 IEM_DS3505
ZGGG,2006-12-21 15:00,ZGGG 211500Z AUTO 02004KT 11SM 16/02 A3021 RMK SLP236 T01560017 52007 IEM_DS3505
ZGGG,2006-12-21 16:00,ZGGG 211600Z AUTO 6SM 11/03 A3021 RMK T01100030 IEM_DS3505
ZGGG,2006-12-21 17:00,ZGGG 211700Z AUTO 6SM 12/03 A3021 RMK T01200030 IEM_DS3505
ZGGG,2006-12-21 18:00,ZGGG 211800Z AUTO 34002KT 11SM 14/01 A3021 RMK SLP240 T01410007 52004 IEM_DS3505
ZGGG,2006-12-21 19:00,ZGGG 211900Z AUTO 03004KT 6SM 11/02 A3021 RMK T01100020 IEM_DS3505
ZGGG,2006-12-21 20:00,ZGGG 212000Z AUTO 02006KT 6SM 11/00 A3021 RMK T01100000 IEM_DS3505
ZGGG,2006-12-21 21:00,ZGGG 212100Z AUTO 20002KT 11SM 12/02 A3021 RMK SLP235 T01150020 57005 IEM_DS3505
ZGGG,2006-12-21 22:00,ZGGG 212200Z AUTO 6SM 10/01 A3021 RMK T01000010 IEM_DS3505
ZGGG,2006-12-21 23:00,ZGGG 212300Z AUTO 07004KT 6SM 10/00 A3021 RMK T01000000 IEM_DS3505
ZGGG,2006-12-22 00:00,ZGGG 220000Z AUTO 09004KT 11SM 12/02 A3024 RMK SLP250 T01220018 52014 IEM_DS3505
ZGGG,2006-12-22 01:00,ZGGG 220100Z AUTO 12004KT 4SM 14/01 A3027 RMK T01400010 IEM_DS3505
ZGGG,2006-12-22 02:00,ZGGG 220200Z AUTO 4SM 17/00 A3027 RMK T01700000 IEM_DS3505
ZGGG,2006-12-22 03:00,ZGGG 220300Z AUTO 34004KT 9SM 19/01 A3024 RMK SLP249 T01880009 54000 IEM_DS3505
ZGGG,2006-12-22 04:00,ZGGG 220400Z AUTO 03004KT 6SM 20/M01 A3021 RMK T02001010 IEM_DS3505
ZGGG,2006-12-22 05:00,ZGGG 220500Z AUTO 6SM 21/M02 A3018 RMK T02101020 IEM_DS3505
ZGGG,2006-12-22 07:00,ZGGG 220700Z AUTO 02006KT 6SM 22/M01 A3012 RMK T02201010 IEM_DS3505
ZGGG,2006-12-22 08:00,ZGGG 220800Z AUTO 02006KT 6SM 22/M01 A3012 RMK T02201010 IEM_DS3505
ZGGG,2006-12-22 09:00,ZGGG 220900Z AUTO 34002KT 9SM 20/02 A3012 RMK SLP210 T02010015 57004 IEM_DS3505
ZGGG,2006-12-22 10:00,ZGGG 221000Z AUTO 34006KT 6SM 19/00 A3012 RMK T01900000 IEM_DS3505
ZGGG,2006-12-22 11:00,ZGGG 221100Z AUTO 34004KT 5SM 17/00 A3012 RMK T01700000 IEM_DS3505
ZGGG,2006-12-22 12:00,ZGGG 221200Z AUTO 34002KT 9SM 14/06 A3015 RMK SLP223 T01350057 52012 IEM_DS3505
ZGGG,2006-12-22 13:00,ZGGG 221300Z AUTO 4SM 12/03 A3018 RMK T01200030 IEM_DS3505
ZGGG,2006-12-22 14:00,ZGGG 221400Z AUTO 14002KT 4SM 11/05 A3018 RMK T01100050 IEM_DS3505
ZGGG,2006-12-22 15:00,ZGGG 221500Z AUTO 34002KT 9SM 12/05 A3018 RMK SLP227 T01150047 52005 IEM_DS3505
ZGGG,2006-12-22 16:00,ZGGG 221600Z AUTO 34002KT 4SM 09/04 A3018 RMK T00900040 IEM_DS3505
ZGGG,2006-12-22 17:00,ZGGG 221700Z AUTO 11004KT 4SM 09/04 A3018 RMK T00900040 IEM_DS3505
ZGGG,2006-12-22 18:00,ZGGG 221800Z AUTO 32002KT 9SM 10/04 A3018 RMK SLP227 T01020037 54000 IEM_DS3505
ZGGG,2006-12-22 19:00,ZGGG 221900Z AUTO 3SM 09/03 A3018 RMK T00900030 IEM_DS3505
ZGGG,2006-12-22 20:00,ZGGG 222000Z AUTO 4SM 08/02 A3015 RMK T00800020 IEM_DS3505
ZGGG,2006-12-22 21:00,ZGGG 222100Z AUTO 00000KT 9SM 09/04 A3015 RMK SLP220 T00930035 57007 IEM_DS3505
ZGGG,2006-12-22 22:00,ZGGG 222200Z AUTO 2 1/2SM 08/02 A3015 RMK T00800020 IEM_DS3505
ZGGG,2006-12-22 23:00,ZGGG 222300Z AUTO 07004KT 3SM 07/02 A3018 RMK T00700020 IEM_DS3505
ZGGG,2006-12-23 00:00,ZGGG 230000Z AUTO 02002KT 12SM 10/03 A3021 RMK SLP234 T01020030 52013 IEM_DS3505
ZGGG,2006-12-23 01:00,ZGGG 230100Z AUTO 3SM 12/03 A3021 RMK T01200030 IEM_DS3505
ZGGG,2006-12-23 02:00,ZGGG 230200Z AUTO 3SM 15/02 A3021 RMK T01500020 IEM_DS3505
ZGGG,2006-12-23 03:00,ZGGG 230300Z AUTO 07004KT 13SM 19/02 A3018 RMK SLP228 T01910016 57005 IEM_DS3505
ZGGG,2006-12-23 04:00,ZGGG 230400Z AUTO 5SM 20/00 A3015 RMK T02000000 IEM_DS3505
ZGGG,2006-12-23 05:00,ZGGG 230500Z AUTO 03006KT 5SM 20/01 A3009 RMK T02000010 IEM_DS3505
ZGGG,2006-12-23 06:00,ZGGG 230600Z AUTO 36004KT 11SM 21/04 A3006 RMK SLP188 T02140036 57040 IEM_DS3505
ZGGG,2006-12-23 07:00,ZGGG 230700Z AUTO 01008KT 5SM 22/M01 A3003 RMK T02201010 IEM_DS3505
ZGGG,2006-12-23 08:00,ZGGG 230800Z AUTO 05004KT 5SM 22/M01 A3003 RMK T02201010 IEM_DS3505
ZGGG,2006-12-23 09:00,ZGGG 230900Z AUTO 04002KT 12SM 20/03 A3006 RMK SLP185 T02010033 57003 IEM_DS3505
ZGGG,2006-12-23 10:00,ZGGG 231000Z AUTO 34006KT 5SM 20/01 A3006 RMK T02000010 IEM_DS3505
ZGGG,2006-12-23 11:00,ZGGG 231100Z AUTO 35006KT 4SM 18/01 A3009 RMK T01800010 IEM_DS3505
ZGGG,2006-12-23 12:00,ZGGG 231200Z AUTO 04002KT 11SM 17/05 A3012 RMK SLP207 T01660053 52021 IEM_DS3505
ZGGG,2006-12-23 13:00,ZGGG 231300Z AUTO 4SM 16/06 A3012 RMK T01600060 IEM_DS3505
ZGGG,2006-12-23 14:00,ZGGG 231400Z AUTO 07004KT 4SM 16/05 A3012 RMK T01600050 IEM_DS3505
ZGGG,2006-12-23 15:00,ZGGG 231500Z AUTO 07002KT 10SM 14/07 A3012 RMK SLP212 T01440067 52006 IEM_DS3505
ZGGG,2006-12-23 16:00,ZGGG 231600Z AUTO 4SM 14/05 A3012 RMK T01400050 IEM_DS3505
ZGGG,2006-12-23 17:00,ZGGG 231700Z AUTO 07004KT 3SM 14/06 A3012 RMK T01400060 IEM_DS3505
ZGGG,2006-12-23 18:00,ZGGG 231800Z AUTO 04002KT 10SM 14/08 A3012 RMK SLP208 T01370077 57004 IEM_DS3505
ZGGG,2006-12-23 19:00,ZGGG 231900Z AUTO 10002KT 3SM 12/06 A3012 RMK T01200060 IEM_DS3505
ZGGG,2006-12-23 20:00,ZGGG 232000Z AUTO 3SM 12/06 A3009 RMK T01200060 IEM_DS3505
ZGGG,2006-12-23 21:00,ZGGG 232100Z AUTO 04002KT 9SM 14/09 A3009 RMK SLP200 T01370094 57008 IEM_DS3505
ZGGG,2006-12-23 22:00,ZGGG 232200Z AUTO 10004KT 3SM 11/05 A3012 RMK T01100050 IEM_DS3505
ZGGG,2006-12-23 23:00,ZGGG 232300Z AUTO 3SM 11/05 A3012 RMK T01100050 IEM_DS3505
ZGGG,2006-12-24 00:00,ZGGG 240000Z AUTO 32002KT 6SM 12/09 A3012 RMK SLP211 T01250088 52011 IEM_DS3505
ZGGG,2006-12-24 01:00,ZGGG 240100Z AUTO 09004KT 3SM 14/04 A3015 RMK T01400040 IEM_DS3505
ZGGG,2006-12-24 02:00,ZGGG 240200Z AUTO 3SM 16/04 A3015 RMK T01600040 IEM_DS3505
ZGGG,2006-12-24 03:00,ZGGG 240300Z AUTO 34002KT 8SM 19/06 A3015 RMK SLP212 T01940058 52001 IEM_DS3505
ZGGG,2006-12-24 04:00,ZGGG 240400Z AUTO 04004KT 4SM 20/04 A3009 RMK T02000040 IEM_DS3505
ZGGG,2006-12-24 05:00,ZGGG 240500Z AUTO 4SM 22/02 A3006 RMK T02200020 IEM_DS3505
ZGGG,2006-12-24 06:00,ZGGG 240600Z AUTO 32004KT 10SM 22/05 A3003 RMK SLP180 T02240049 57032 IEM_DS3505
ZGGG,2006-12-24 07:00,ZGGG 240700Z AUTO 35006KT 6SM 23/00 A3003 RMK T02300000 IEM_DS3505
ZGGG,2006-12-24 08:00,ZGGG 240800Z AUTO 33006KT 6SM 22/M02 A3003 RMK T02201020 IEM_DS3505
ZGGG,2006-12-24 09:00,ZGGG 240900Z AUTO 29004KT 10SM 21/02 A3003 RMK SLP175 T02080016 57005 IEM_DS3505
ZGGG,2006-12-24 10:00,ZGGG 241000Z AUTO 34004KT 4SM 20/00 A3003 RMK T02000000 IEM_DS3505
ZGGG,2006-12-24 11:00,ZGGG 241100Z AUTO 4SM 17/02 A3003 RMK T01700020 IEM_DS3505
ZGGG,2006-12-24 12:00,ZGGG 241200Z AUTO 29002KT 10SM 14/06 A3006 RMK SLP189 T01400056 52013 IEM_DS3505
ZGGG,2006-12-24 13:00,ZGGG 241300Z AUTO 3SM 12/06 A3006 RMK T01200060 IEM_DS3505
ZGGG,2006-12-24 14:00,ZGGG 241400Z AUTO 2 1/2SM 12/06 A3006 RMK T01200060 IEM_DS3505
ZGGG,2006-12-24 15:00,ZGGG 241500Z AUTO 07002KT 10SM 13/06 A3009 RMK SLP195 T01270056 52007 IEM_DS3505
ZGGG,2006-12-24 16:00,ZGGG 241600Z AUTO 2 1/2SM 11/05 A3006 RMK T01100050 IEM_DS3505
ZGGG,2006-12-24 17:00,ZGGG 241700Z AUTO 2 1/2SM 10/05 A3009 RMK T01000050 IEM_DS3505
ZGGG,2006-12-24 18:00,ZGGG 241800Z AUTO 32002KT 9SM 11/06 A3009 RMK SLP193 T01140057 57002 IEM_DS3505
ZGGG,2006-12-24 19:00,ZGGG 241900Z AUTO 09004KT 2 1/2SM 10/04 A3006 RMK T01000040 IEM_DS3505
ZGGG,2006-12-24 20:00,ZGGG 242000Z AUTO 3SM 08/04 A3006 RMK T00800040 IEM_DS3505
ZGGG,2006-12-24 21:00,ZGGG 242100Z AUTO 34002KT 9SM 10/05 A3006 RMK SLP191 T01030047 57002 IEM_DS3505
ZGGG,2006-12-24 22:00,ZGGG 242200Z AUTO 09004KT 3SM 09/03 A3009 RMK T00900030 IEM_DS3505
ZGGG,2006-12-24 23:00,ZGGG 242300Z AUTO 3SM 08/03 A3009 RMK T00800030 IEM_DS3505
ZGGG,2006-12-25 00:00,ZGGG 250000Z AUTO 32002KT 11SM 11/04 A3012 RMK SLP206 T01100038 52014 IEM_DS3505
ZGGG,2006-12-25 01:00,ZGGG 250100Z AUTO 09004KT 2 1/2SM 12/04 A3012 RMK T01200040 IEM_DS3505
ZGGG,2006-12-25 02:00,ZGGG 250200Z AUTO 3SM 15/02 A3015 RMK T01500020 IEM_DS3505
ZGGG,2006-12-25 03:00,ZGGG 250300Z AUTO 27002KT 11SM 20/03 A3012 RMK SLP205 T01980026 54000 IEM_DS3505
ZGGG,2006-12-25 04:00,ZGGG 250400Z AUTO 08004KT 4SM 20/02 A3009 RMK T02000020 IEM_DS3505
ZGGG,2006-12-25 05:00,ZGGG 250500Z AUTO 5SM 22/01 A3003 RMK T02200010 IEM_DS3505
ZGGG,2006-12-25 06:00,ZGGG 250600Z AUTO 11002KT 10SM 23/02 A3000 RMK SLP165 T02270022 57040 IEM_DS3505
ZGGG,2006-12-25 07:00,ZGGG 250700Z AUTO 6SM 23/00 A2997 RMK T02300000 IEM_DS3505
ZGGG,2006-12-25 08:00,ZGGG 250800Z AUTO 6SM 23/00 A2997 RMK T02300000 IEM_DS3505
ZGGG,2006-12-25 09:00,ZGGG 250900Z AUTO 18002KT 10SM 21/05 A2997 RMK SLP157 T02100046 57008 IEM_DS3505
ZGGG,2006-12-25 10:00,ZGGG 251000Z AUTO 02004KT 4SM 18/04 A2997 RMK T01800040 IEM_DS3505
ZGGG,2006-12-25 11:00,ZGGG 251100Z AUTO 01004KT 3SM 15/07 A3000 RMK T01500070 IEM_DS3505
ZGGG,2006-12-25 12:00,ZGGG 251200Z AUTO 07002KT 10SM 14/07 A3003 RMK SLP177 T01380071 52019 IEM_DS3505
ZGGG,2006-12-25 13:00,ZGGG 251300Z AUTO 3SM 12/07 A3003 RMK T01200070 IEM_DS3505
ZGGG,2006-12-25 14:00,ZGGG 251400Z AUTO 07002KT 2 1/2SM 12/07 A3003 RMK T01200070 IEM_DS3505
ZGGG,2006-12-25 15:00,ZGGG 251500Z AUTO 07002KT 11SM 12/06 A3003 RMK SLP181 T01170064 52005 IEM_DS3505
ZGGG,2006-12-25 16:00,ZGGG 251600Z AUTO 09002KT 2 1/2SM 10/06 A3003 RMK T01000060 IEM_DS3505
ZGGG,2006-12-25 17:00,ZGGG 251700Z AUTO 00000KT 2 1/2SM 10/06 A3006 RMK T01000060 IEM_DS3505
ZGGG,2006-12-25 18:00,ZGGG 251800Z AUTO 04002KT 10SM 11/06 A3006 RMK SLP187 T01070063 52006 IEM_DS3505
ZGGG,2006-12-25 19:00,ZGGG 251900Z AUTO 09004KT 3SM 09/05 A3006 RMK T00900050 IEM_DS3505
ZGGG,2006-12-25 20:00,ZGGG 252000Z AUTO 09004KT 3SM 10/05 A3006 RMK T01000050 IEM_DS3505
ZGGG,2006-12-25 21:00,ZGGG 252100Z AUTO 25002KT 9SM 11/05 A3006 RMK SLP187 T01080053 54000 IEM_DS3505
ZGGG,2006-12-25 22:00,ZGGG 252200Z AUTO 09004KT 3SM 09/05 A3006 RMK T00900050 IEM_DS3505
ZGGG,2006-12-25 23:00,ZGGG 252300Z AUTO 3SM 10/04 A3006 RMK T01000040 IEM_DS3505
ZGGG,2006-12-26 00:00,ZGGG 260000Z AUTO 36002KT 11SM 12/07 A3009 RMK SLP203 T01170072 52015 IEM_DS3505
ZGGG,2006-12-26 01:00,ZGGG 260100Z AUTO 09004KT 2 1/2SM 13/04 A3012 RMK T01300040 IEM_DS3505
ZGGG,2006-12-26 02:00,ZGGG 260200Z AUTO 2 1/2SM 15/05 A3015 RMK T01500050 IEM_DS3505
ZGGG,2006-12-26 03:00,ZGGG 260300Z AUTO 02002KT 4SM 17/06 A3012 RMK SLP210 T01730056 52008 IEM_DS3505
ZGGG,2006-12-26 04:00,ZGGG 260400Z AUTO 25004KT 2 1/2SM 17/04 A3009 RMK T01700040 IEM_DS3505
ZGGG,2006-12-26 05:00,ZGGG 260500Z AUTO 28004KT 2 1/2SM 19/03 A3006 RMK T01900030 IEM_DS3505
ZGGG,2006-12-26 06:00,ZGGG 260600Z AUTO 32002KT 4SM 20/05 A3003 RMK SLP175 T02040048 57035 IEM_DS3505
ZGGG,2006-12-26 07:00,ZGGG 260700Z AUTO 3SM 21/03 A3000 RMK T02100030 IEM_DS3505
ZGGG,2006-12-26 08:00,ZGGG 260800Z AUTO 21004KT 3SM 21/03 A3000 RMK T02100030 IEM_DS3505
ZGGG,2006-12-26 09:00,ZGGG 260900Z AUTO 34002KT 4SM 20/06 A3000 RMK SLP172 T01950056 57003 IEM_DS3505
ZGGG,2006-12-26 10:00,ZGGG 261000Z AUTO 25004KT 3SM 19/03 A3003 RMK T01900030 IEM_DS3505
ZGGG,2006-12-26 11:00,ZGGG 261100Z AUTO 00000KT 2 1/2SM 15/06 A3003 RMK T01500060 IEM_DS3505
ZGGG,2006-12-26 12:00,ZGGG 261200Z AUTO 14002KT 6SM 14/08 A3006 RMK SLP190 T01390077 52017 IEM_DS3505
ZGGG,2006-12-26 13:00,ZGGG 261300Z AUTO 2SM 12/08 A3006 RMK T01200080 IEM_DS3505
ZGGG,2006-12-26 14:00,ZGGG 261400Z AUTO 1 1/2SM 12/08 A3006 RMK T01200080 IEM_DS3505
ZGGG,2006-12-26 15:00,ZGGG 261500Z AUTO 36002KT 6SM 12/08 A3006 RMK SLP193 T01210084 52004 IEM_DS3505
ZGGG,2006-12-26 16:00,ZGGG 261600Z AUTO 1 1/2SM 11/07 A3009 RMK T01100070 IEM_DS3505
ZGGG,2006-12-26 17:00,ZGGG 261700Z AUTO 00000KT 2SM 10/07 A3006 RMK T01000070 IEM_DS3505
ZGGG,2006-12-26 18:00,ZGGG 261800Z AUTO 00000KT 7SM 12/07 A3006 RMK SLP190 T01150070 57003 IEM_DS3505
ZGGG,2006-12-26 19:00,ZGGG 261900Z AUTO 2SM 11/06 A3006 RMK T01100060 IEM_DS3505
ZGGG,2006-12-26 20:00,ZGGG 262000Z AUTO 06002KT 2 1/2SM 09/06 A3006 RMK T00900060 IEM_DS3505
ZGGG,2006-12-26 21:00,ZGGG 262100Z AUTO 07002KT 7SM 11/08 A3006 RMK SLP192 T01070076 52002 IEM_DS3505
ZGGG,2006-12-26 22:00,ZGGG 262200Z AUTO 00000KT 2 1/2SM 09/06 A3009 RMK T00900060 IEM_DS3505
ZGGG,2006-12-26 23:00,ZGGG 262300Z AUTO 1 1/2SM 10/07 A3009 RMK T01000070 IEM_DS3505
ZGGG,2006-12-27 00:00,ZGGG 270000Z AUTO 32002KT 6SM 12/09 A3012 RMK SLP210 T01170087 52017 IEM_DS3505
ZGGG,2006-12-27 01:00,ZGGG 270100Z AUTO 1 1/2SM 12/07 A3012 RMK T01200070 IEM_DS3505
ZGGG,2006-12-27 02:00,ZGGG 270200Z AUTO 06004KT 2 1/2SM 15/08 A3015 RMK T01500080 IEM_DS3505
ZGGG,2006-12-27 03:00,ZGGG 270300Z AUTO 09006G21KT 6SM 20/08 A3006 RMK SLP193 T01950076 57016 IEM_DS3505
ZGGG,2006-12-27 04:00,ZGGG 270400Z AUTO 06008KT 4SM 20/04 A3006 RMK T02000040 IEM_DS3505
ZGGG,2006-12-27 05:00,ZGGG 270500Z AUTO 5SM 22/03 A3003 RMK T02200030 IEM_DS3505
ZGGG,2006-12-27 06:00,ZGGG 270600Z AUTO 27004KT 7SM 23/07 A3000 RMK SLP168 T02260068 57025 IEM_DS3505
ZGGG,2006-12-27 07:00,ZGGG 270700Z AUTO 24004KT 3SM 23/05 A3000 RMK T02300050 IEM_DS3505
ZGGG,2006-12-27 08:00,ZGGG 270800Z AUTO 26004KT 4SM 23/05 A3000 RMK T02300050 IEM_DS3505
ZGGG,2006-12-27 09:00,ZGGG 270900Z AUTO 29002KT 6SM 21/08 A3000 RMK SLP174 T02070084 52006 IEM_DS3505
ZGGG,2006-12-27 10:00,ZGGG 271000Z AUTO 35004KT 4SM 20/07 A3003 RMK T02000070 IEM_DS3505
ZGGG,2006-12-27 11:00,ZGGG 271100Z AUTO 3SM 18/08 A3003 RMK T01800080 IEM_DS3505
ZGGG,2006-12-27 12:00,ZGGG 271200Z AUTO 34004KT 5SM 15/10 A3006 RMK SLP193 T01480096 52018 IEM_DS3505
ZGGG,2006-12-27 13:00,ZGGG 271300Z AUTO 05002KT 2 1/2SM 15/08 A3009 RMK T01500080 IEM_DS3505
ZGGG,2006-12-27 14:00,ZGGG 271400Z AUTO 11002KT 2 1/2SM 14/09 A3009 RMK T01400090 IEM_DS3505
ZGGG,2006-12-27 15:00,ZGGG 271500Z AUTO 34002KT 5SM 14/10 A3012 RMK SLP206 T01360096 52014 IEM_DS3505
ZGGG,2006-12-27 16:00,ZGGG 271600Z AUTO 08004KT 2 1/2SM 14/08 A3012 RMK T01400080 IEM_DS3505
ZGGG,2006-12-27 17:00,ZGGG 271700Z AUTO 10004KT 2 1/2SM 13/08 A3012 RMK T01300080 IEM_DS3505
ZGGG,2006-12-27 18:00,ZGGG 271800Z AUTO 02002KT 6SM 12/09 A3012 RMK SLP210 T01250086 52004 IEM_DS3505
ZGGG,2006-12-27 19:00,ZGGG 271900Z AUTO 3SM 12/07 A3012 RMK T01200070 IEM_DS3505
ZGGG,2006-12-27 20:00,ZGGG 272000Z AUTO 3SM 12/07 A3015 RMK T01200070 IEM_DS3505
ZGGG,2006-12-27 21:00,ZGGG 272100Z AUTO 34002KT 6SM 11/08 A3015 RMK SLP217 T01130082 52007 IEM_DS3505
ZGGG,2006-12-27 22:00,ZGGG 272200Z AUTO 00000KT 3SM 10/06 A3015 RMK T01000060 IEM_DS3505
ZGGG,2006-12-27 23:00,ZGGG 272300Z AUTO 03004KT 3SM 11/04 A3018 RMK T01100040 IEM_DS3505
ZGGG,2006-12-28 00:00,ZGGG 280000Z AUTO 34002KT 7SM 13/05 A3021 RMK SLP241 T01270054 52023 IEM_DS3505
ZGGG,2006-12-28 01:00,ZGGG 280100Z AUTO 02012KT 3SM 16/03 A3024 RMK T01600030 IEM_DS3505
ZGGG,2006-12-28 02:00,ZGGG 280200Z AUTO 02012KT 2 1/2SM 17/03 A3027 RMK T01700030 IEM_DS3505
ZGGG,2006-12-28 03:00,ZGGG 280300Z AUTO 36004KT 5SM 19/05 A3024 RMK SLP249 T01880049 52009 IEM_DS3505
ZGGG,2006-12-28 04:00,ZGGG 280400Z AUTO 01016KT 3SM 19/02 A3021 RMK T01900020 IEM_DS3505
ZGGG,2006-12-28 05:00,ZGGG 280500Z AUTO 02012KT 3SM 20/02 A3018 RMK T02000020 IEM_DS3505
ZGGG,2006-12-28 06:00,ZGGG 280600Z AUTO 07004KT 5SM 22/04 A3015 RMK SLP214 T02170043 57035 IEM_DS3505
ZGGG,2006-12-28 07:00,ZGGG 280700Z AUTO 01014KT 2 1/2SM 21/03 A3015 RMK T02100030 IEM_DS3505
ZGGG,2006-12-28 08:00,ZGGG 280800Z AUTO 01014KT 2 1/2SM 21/03 A3015 RMK T02100030 IEM_DS3505
ZGGG,2006-12-28 09:00,ZGGG 280900Z AUTO 36004KT 4SM 20/06 A3015 RMK SLP217 T01950056 52003 IEM_DS3505
ZGGG,2006-12-28 10:00,ZGGG 281000Z AUTO 35010KT 3SM 18/05 A3018 RMK T01800050 IEM_DS3505
ZGGG,2006-12-28 11:00,ZGGG 281100Z AUTO 02006KT 3SM 16/05 A3021 RMK T01600050 IEM_DS3505
ZGGG,2006-12-28 12:00,ZGGG 281200Z AUTO 02006KT 6SM 17/04 A3024 RMK SLP244 T01680045 52026 IEM_DS3505
ZGGG,2006-12-28 13:00,ZGGG 281300Z AUTO 02008KT 2 1/2SM 15/03 A3027 RMK T01500030 IEM_DS3505
ZGGG,2006-12-28 14:00,ZGGG 281400Z AUTO 01010KT 2 1/2SM 15/03 A3027 RMK T01500030 IEM_DS3505
ZGGG,2006-12-28 15:00,ZGGG 281500Z AUTO 36004KT 7SM 14/04 A3027 RMK SLP256 T01450039 52013 IEM_DS3505
ZGGG,2006-12-28 16:00,ZGGG 281600Z AUTO 02012KT 3SM 13/02 A3027 RMK T01300020 IEM_DS3505
ZGGG,2006-12-28 17:00,ZGGG 281700Z AUTO 02012KT 2 1/2SM 12/02 A3027 RMK T01200020 IEM_DS3505
ZGGG,2006-12-28 18:00,ZGGG 281800Z AUTO 36004KT 8SM 12/04 A3027 RMK SLP259 T01180038 52003 IEM_DS3505
ZGGG,2006-12-28 19:00,ZGGG 281900Z AUTO 02010KT 2 1/2SM 11/02 A3027 RMK T01100020 IEM_DS3505
ZGGG,2006-12-28 20:00,ZGGG 282000Z AUTO 02010KT 2 1/2SM 10/02 A3027 RMK T01000020 IEM_DS3505
ZGGG,2006-12-28 21:00,ZGGG 282100Z AUTO 02004KT 7SM 10/04 A3030 RMK SLP264 T00980038 52004 IEM_DS3505
ZGGG,2006-12-28 22:00,ZGGG 282200Z AUTO 01012KT 2 1/2SM 09/02 A3030 RMK T00900020 IEM_DS3505
ZGGG,2006-12-28 23:00,ZGGG 282300Z AUTO 01008KT 2 1/2SM 09/02 A3033 RMK T00900020 IEM_DS3505
ZGGG,2006-12-29 00:00,ZGGG 290000Z AUTO 36004KT 5SM 09/04 A3036 RMK SLP287 T00940038 52023 IEM_DS3505
ZGGG,2006-12-29 01:00,ZGGG 290100Z AUTO 03008KT 2SM 11/03 A3036 RMK T01100030 IEM_DS3505
ZGGG,2006-12-29 02:00,ZGGG 290200Z AUTO 05008KT 2SM 12/02 A3039 RMK T01200020 IEM_DS3505
ZGGG,2006-12-29 03:00,ZGGG 290300Z AUTO 02008KT 4SM 14/05 A3036 RMK SLP290 T01390048 52003 IEM_DS3505
ZGGG,2006-12-29 04:00,ZGGG 290400Z AUTO 03006KT 2 1/2SM 15/03 A3033 RMK T01500030 IEM_DS3505
ZGGG,2006-12-29 05:00,ZGGG 290500Z AUTO 02006KT 2 1/2SM 16/03 A3027 RMK T01600030 IEM_DS3505
ZGGG,2006-12-29 06:00,ZGGG 290600Z AUTO 36004KT 4SM 17/06 A3021 RMK SLP238 T01710057 57052 IEM_DS3505
ZGGG,2006-12-29 07:00,ZGGG 290700Z AUTO 02008KT 2 1/2SM 17/02 A3018 RMK T01700020 IEM_DS3505
ZGGG,2006-12-29 08:00,ZGGG 290800Z AUTO 04006KT 3SM 17/03 A3018 RMK T01700030 IEM_DS3505
ZGGG,2006-12-29 09:00,ZGGG 290900Z AUTO 34004KT 5SM 16/06 A3018 RMK SLP234 T01590055 57004 IEM_DS3505
ZGGG,2006-12-29 10:00,ZGGG 291000Z AUTO 34006KT 2 1/2SM 15/04 A3021 RMK T01500040 IEM_DS3505
ZGGG,2006-12-29 11:00,ZGGG 291100Z AUTO 34006KT 3SM 14/04 A3024 RMK T01400040 IEM_DS3505
ZGGG,2006-12-29 12:00,ZGGG 291200Z AUTO 34002KT 5SM 12/06 A3024 RMK SLP255 T01200061 52021 IEM_DS3505
ZGGG,2006-12-29 13:00,ZGGG 291300Z AUTO 00000KT 2 1/2SM 11/05 A3027 RMK T01100050 IEM_DS3505
ZGGG,2006-12-29 14:00,ZGGG 291400Z AUTO 00000KT 2 1/2SM 10/05 A3027 RMK T01000050 IEM_DS3505
ZGGG,2006-12-29 15:00,ZGGG 291500Z AUTO 36002KT 7SM 11/06 A3030 RMK SLP266 T01070059 52011 IEM_DS3505
ZGGG,2006-12-29 16:00,ZGGG 291600Z AUTO 00000KT 1 1/2SM 08/05 A3030 RMK T00800050 IEM_DS3505
ZGGG,2006-12-29 17:00,ZGGG 291700Z AUTO 10004KT 2SM 09/06 A3027 RMK T00900060 IEM_DS3505
ZGGG,2006-12-29 18:00,ZGGG 291800Z AUTO 34002KT 7SM 10/06 A3024 RMK SLP252 T00980060 57014 IEM_DS3505
ZGGG,2006-12-29 19:00,ZGGG 291900Z AUTO 00000KT 2 1/2SM 08/04 A3024 RMK T00800040 IEM_DS3505
ZGGG,2006-12-29 20:00,ZGGG 292000Z AUTO 10004KT 2SM 08/04 A3021 RMK T00800040 IEM_DS3505
ZGGG,2006-12-29 21:00,ZGGG 292100Z AUTO 34002KT 7SM 09/05 A3024 RMK SLP244 T00880054 57008 IEM_DS3505
ZGGG,2006-12-29 22:00,ZGGG 292200Z AUTO 00000KT 2 1/2SM 07/04 A3024 RMK T00700040 IEM_DS3505
ZGGG,2006-12-29 23:00,ZGGG 292300Z AUTO 00000KT 2SM 07/04 A3027 RMK T00700040 IEM_DS3505
ZGGG,2006-12-30 00:00,ZGGG 300000Z AUTO 34002KT 7SM 10/05 A3030 RMK SLP266 T00970053 52022 IEM_DS3505
ZGGG,2006-12-30 01:00,ZGGG 300100Z AUTO 03004KT 1 1/4SM 10/05 A3030 RMK T01000050 IEM_DS3505
ZGGG,2006-12-30 02:00,ZGGG 300200Z AUTO 1 1/2SM 13/05 A3030 RMK T01300050 IEM_DS3505
ZGGG,2006-12-30 03:00,ZGGG 300300Z AUTO 14002KT 7SM 16/06 A3027 RMK SLP258 T01620061 57008 IEM_DS3505
ZGGG,2006-12-30 04:00,ZGGG 300400Z AUTO 2 1/2SM 17/05 A3024 RMK T01700050 IEM_DS3505
ZGGG,2006-12-30 05:00,ZGGG 300500Z AUTO 3SM 19/04 A3018 RMK T01900040 IEM_DS3505
ZGGG,2006-12-30 06:00,ZGGG 300600Z AUTO 11002KT 6SM 20/06 A3015 RMK SLP213 T01970061 57044 IEM_DS3505
ZGGG,2006-12-30 07:00,ZGGG 300700Z AUTO 3SM 21/04 A3012 RMK T02100040 IEM_DS3505
ZGGG,2006-12-30 08:00,ZGGG 300800Z AUTO 01004KT 3SM 20/04 A3012 RMK T02000040 IEM_DS3505
ZGGG,2006-12-30 09:00,ZGGG 300900Z AUTO 02002KT 7SM 19/06 A3012 RMK SLP213 T01910059 57001 IEM_DS3505
ZGGG,2006-12-30 10:00,ZGGG 301000Z AUTO 35004KT 3SM 17/06 A3015 RMK T01700060 IEM_DS3505
ZGGG,2006-12-30 11:00,ZGGG 301100Z AUTO 35004KT 2 1/2SM 16/06 A3015 RMK T01600060 IEM_DS3505
ZGGG,2006-12-30 12:00,ZGGG 301200Z AUTO 04002KT 7SM 13/08 A3018 RMK SLP229 T01310082 52016 IEM_DS3505
ZGGG,2006-12-30 13:00,ZGGG 301300Z AUTO 05002KT 2 1/2SM 12/07 A3018 RMK T01200070 IEM_DS3505
ZGGG,2006-12-30 14:00,ZGGG 301400Z AUTO 00000KT 2 1/2SM 11/07 A3021 RMK T01100070 IEM_DS3505
ZGGG,2006-12-30 15:00,ZGGG 301500Z AUTO 07002KT 7SM 12/08 A3021 RMK SLP243 T01160085 52014 IEM_DS3505
ZGGG,2006-12-30 21:00,ZGGG 302100Z AUTO 34002KT 6SM 10/07 A3021 RMK SLP238 T00970073 57003 IEM_DS3505
ZGGG,2006-12-30 22:00,ZGGG 302200Z AUTO 09006KT 2SM 10/05 A3021 RMK T01000050 IEM_DS3505
ZGGG,2006-12-30 23:00,ZGGG 302300Z AUTO 07008KT 1 1/2SM 10/05 A3018 RMK T01000050 IEM_DS3505
