station,valid,metar
ZGGG,1984-01-01 00:00,ZGGG 010000Z AUTO 00000KT 7SM 03/M02 RMK SLP284 T00301023 52007 IEM_DS3505
ZGGG,1984-01-01 03:00,ZGGG 010300Z AUTO 36002KT 7SM 07/M01 RMK SLP286 T00741013 52002 IEM_DS3505
ZGGG,1984-01-01 06:00,ZGGG 010600Z AUTO 34006KT 9SM 11/M00 RMK SLP241 T01081003 4////0023 57045 IEM_DS3505
ZGGG,1984-01-01 09:00,ZGGG 010900Z AUTO 00000KT 9SM 11/01 RMK SLP230 T01140006 57011 IEM_DS3505
ZGGG,1984-01-01 12:00,ZGGG 011200Z AUTO 36004KT 7SM 08/01 RMK SLP240 T00810014 52010 IEM_DS3505
ZGGG,1984-01-01 15:00,ZGGG 011500Z AUTO 00000KT 7SM 07/01 RMK SLP245 T00670008 52005 IEM_DS3505
ZGGG,1984-01-01 18:00,ZGGG 011800Z AUTO 02002KT 6SM 06/01 RMK SLP232 T00580006 40124//// 57007 IEM_DS3505
ZGGG,1984-01-01 21:00,ZGGG 012100Z AUTO 02002KT 6SM 05/01 RMK SLP222 T00530006 57016 IEM_DS3505
ZGGG,1984-01-02 00:00,ZGGG 020000Z AUTO 00000KT 7SM 05/02 RMK SLP238 T00520018 52016 IEM_DS3505
ZGGG,1984-01-02 03:00,ZGGG 020300Z AUTO 00000KT 7SM 11/02 RMK SLP240 T01060018 52002 IEM_DS3505
ZGGG,1984-01-02 06:00,ZGGG 020600Z AUTO 34004KT 7SM 14/02 RMK SLP206 T01430021 4////0045 57034 IEM_DS3505
ZGGG,1984-01-02 09:00,ZGGG 020900Z AUTO 00000KT 7SM 14/04 RMK SLP205 T01390039 57001 IEM_DS3505
ZGGG,1984-01-02 12:00,ZGGG 021200Z AUTO 00000KT 6SM 13/05 RMK SLP221 T01300048 52016 IEM_DS3505
ZGGG,1984-01-02 15:00,ZGGG 021500Z AUTO 00000KT 6SM 12/05 RMK SLP233 T01230054 52012 IEM_DS3505
ZGGG,1984-01-02 18:00,ZGGG 021800Z AUTO 32004KT 11SM 12/03 RMK SLP245 T01210028 40148//// 52012 IEM_DS3505
ZGGG,1984-01-02 21:00,ZGGG 022100Z AUTO 02010KT 6SM 11/M00 RMK SLP248 T01101003 52003 IEM_DS3505
ZGGG,1984-01-03 00:00,ZGGG 030000Z AUTO 04010KT 9SM 10/M03 RMK SLP270 T01051026 52022 IEM_DS3505
ZGGG,1984-01-03 03:00,ZGGG 030300Z AUTO 04008KT 9SM 12/M02 RMK SLP279 T01151018 52009 IEM_DS3505
ZGGG,1984-01-03 05:00,ZGGG 030500Z AUTO 02016KT 6SM 13/00 A3027 RMK T01300000 IEM_DS3505
ZGGG,1984-01-03 06:00,ZGGG 030600Z AUTO 36008KT 10SM 14/00 A3024 RMK SLP249 T01440001 4////0102 57030 IEM_DS3505
ZGGG,1984-01-03 08:00,ZGGG 030800Z AUTO 36016KT 7SM 14/00 A3021 RMK T01400000 IEM_DS3505
ZGGG,1984-01-03 09:00,ZGGG 030900Z AUTO 02016KT 9SM 14/M00 RMK SLP243 T01361003 57006 IEM_DS3505
ZGGG,1984-01-03 12:00,ZGGG 031200Z AUTO 34004KT 9SM 10/01 RMK SLP264 T00970012 52021 IEM_DS3505
ZGGG,1984-01-03 15:00,ZGGG 031500Z AUTO 02002KT 7SM 09/M00 RMK SLP277 T00861003 52013 IEM_DS3505
ZGGG,1984-01-03 18:00,ZGGG 031800Z AUTO 02002KT 4SM 07/M03 RMK SLP282 T00681028 40150//// 52005 IEM_DS3505
ZGGG,1984-01-03 21:00,ZGGG 032100Z AUTO 02004KT 4SM 06/M07 RMK SLP281 T00571068 57001 IEM_DS3505
ZGGG,1984-01-04 00:00,ZGGG 040000Z AUTO 02006KT 8SM 05/M08 RMK SLP296 T00531079 52015 IEM_DS3505
ZGGG,1984-01-04 03:00,ZGGG 040300Z AUTO 34008KT 8SM 10/M07 RMK SLP296 T00971072 54000 IEM_DS3505
ZGGG,1984-01-04 06:00,ZGGG 040600Z AUTO 02006KT 10SM 13/M06 RMK SLP255 T01281058 4////0049 57041 IEM_DS3505
ZGGG,1984-01-04 09:00,ZGGG 040900Z AUTO 04004KT 9SM 13/M05 RMK SLP252 T01271048 57003 IEM_DS3505
ZGGG,1984-01-04 12:00,ZGGG 041200Z AUTO 00000KT 7SM 10/M03 RMK SLP268 T00991028 52016 IEM_DS3505
ZGGG,1984-01-04 15:00,ZGGG 041500Z AUTO 00000KT 7SM 08/M02 RMK SLP270 T00771020 52002 IEM_DS3505
ZGGG,1984-01-04 18:00,ZGGG 041800Z AUTO 00000KT 4SM 05/M02 RMK SLP280 T00491018 40136//// 52010 IEM_DS3505
ZGGG,1984-01-04 21:00,ZGGG 042100Z AUTO 36002KT 4SM 06/M06 RMK SLP278 T00581058 57002 IEM_DS3505
ZGGG,1984-01-05 00:00,ZGGG 050000Z AUTO 00000KT 7SM 05/M05 RMK SLP282 T00481048 52004 IEM_DS3505
ZGGG,1984-01-05 03:00,ZGGG 050300Z AUTO 04004KT 9SM 10/M03 RMK SLP280 T01051034 57002 IEM_DS3505
ZGGG,1984-01-05 06:00,ZGGG 050600Z AUTO 00000KT 10SM 14/M02 RMK SLP247 T01421015 4////0038 57033 IEM_DS3505
ZGGG,1984-01-05 09:00,ZGGG 050900Z AUTO 29004KT 9SM 14/M00 RMK SLP238 T01441001 57009 IEM_DS3505
ZGGG,1984-01-05 12:00,ZGGG 051200Z AUTO 00000KT 7SM 08/03 RMK SLP239 T00830034 52001 IEM_DS3505
ZGGG,1984-01-05 15:00,ZGGG 051500Z AUTO 00000KT 6SM 06/03 RMK SLP243 T00640034 52004 IEM_DS3505
ZGGG,1984-01-05 18:00,ZGGG 051800Z AUTO 00000KT 5SM 05/03 RMK SLP255 T00500030 40150//// 52012 IEM_DS3505
ZGGG,1984-01-05 21:00,ZGGG 052100Z AUTO 00000KT 5SM 07/04 RMK SLP247 T00660041 57008 IEM_DS3505
ZGGG,1984-01-06 00:00,ZGGG 060000Z AUTO 00000KT 7SM 09/01 RMK SLP253 T00910008 52006 IEM_DS3505
ZGGG,1984-01-06 03:00,ZGGG 060300Z AUTO 36004KT 7SM 14/M01 RMK SLP260 T01371013 52007 IEM_DS3505
ZGGG,1984-01-06 06:00,ZGGG 060600Z AUTO 02006KT 9SM 17/M01 RMK SLP226 T01701013 4////0048 57034 IEM_DS3505
ZGGG,1984-01-06 09:00,ZGGG 060900Z AUTO 32004KT 6SM 17/00 RMK SLP215 T01700001 57011 IEM_DS3505
ZGGG,1984-01-06 12:00,ZGGG 061200Z AUTO 36010KT 7SM 14/M02 RMK SLP234 T01371020 52019 IEM_DS3505
ZGGG,1984-01-06 15:00,ZGGG 061500Z AUTO 02008KT 7SM 12/M02 RMK SLP244 T01181015 52010 IEM_DS3505
ZGGG,1984-01-06 18:00,ZGGG 061800Z AUTO 02010KT 6SM 09/02 A3024 RMK SLP246 T00900020 40181//// 52002 IEM_DS3505
ZGGG,1984-01-06 19:00,ZGGG 061900Z AUTO 03008KT 6SM 09/03 A3021 RMK T00900030 IEM_DS3505
ZGGG,1984-01-06 20:00,ZGGG 062000Z AUTO 04008KT 6SM 09/02 A3021 RMK T00900020 IEM_DS3505
ZGGG,1984-01-06 21:00,ZGGG 062100Z AUTO 36008KT 6SM 09/02 A3021 RMK SLP246 T00900020 54000 IEM_DS3505
ZGGG,1984-01-06 22:00,ZGGG 062200Z AUTO 02008KT 6SM 09/02 A3021 RMK T00900020 IEM_DS3505
ZGGG,1984-01-06 23:00,ZGGG 062300Z AUTO 35010KT 6SM 08/00 A3024 RMK T00800000 IEM_DS3505
ZGGG,1984-01-07 00:00,ZGGG 070000Z AUTO 03008KT 6SM 07/01 A3027 RMK SLP262 T00700010 52016 IEM_DS3505
ZGGG,1984-01-07 01:00,ZGGG 070100Z AUTO 02010KT 6SM 09/01 A3030 RMK T00900010 IEM_DS3505
ZGGG,1984-01-07 02:00,ZGGG 070200Z AUTO 34012KT 7SM 11/M01 A3030 RMK T01101010 IEM_DS3505
ZGGG,1984-01-07 03:00,ZGGG 070300Z AUTO 01014KT 7SM 13/M05 A3027 RMK SLP270 T01301050 52008 IEM_DS3505
ZGGG,1984-01-07 06:00,ZGGG 070600Z AUTO 04006KT 7SM 16/M06 A3018 RMK SLP235 T01611058 4////0089 57035 IEM_DS3505
ZGGG,1984-01-07 07:00,ZGGG 070700Z AUTO 34012KT 7SM 17/M04 A3018 RMK T01701040 IEM_DS3505
ZGGG,1984-01-07 08:00,ZGGG 070800Z AUTO 34010KT 7SM 16/M02 A3015 RMK T01601020 IEM_DS3505
ZGGG,1984-01-07 09:00,ZGGG 070900Z AUTO 34006KT 7SM 16/M03 A3015 RMK SLP227 T01631028 57008 IEM_DS3505
ZGGG,1984-01-07 10:00,ZGGG 071000Z AUTO 36008KT 7SM 14/M03 A3018 RMK T01401030 IEM_DS3505
ZGGG,1984-01-07 11:00,ZGGG 071100Z AUTO 06006KT 7SM 11/03 A3018 RMK T01100030 IEM_DS3505
ZGGG,1984-01-07 12:00,ZGGG 071200Z AUTO 34006KT 7SM 13/M04 A3021 RMK SLP240 T01311039 52013 IEM_DS3505
ZGGG,1984-01-07 15:00,ZGGG 071500Z AUTO 02008KT 7SM 12/M04 RMK SLP251 T01211039 52011 IEM_DS3505
ZGGG,1984-01-07 18:00,ZGGG 071800Z AUTO 02006KT 7SM 10/M04 RMK SLP257 T01001039 40170//// 52006 IEM_DS3505
ZGGG,1984-01-07 21:00,ZGGG 072100Z AUTO 34004KT 6SM 08/M03 RMK SLP254 T00841034 57003 IEM_DS3505
ZGGG,1984-01-08 00:00,ZGGG 080000Z AUTO 34004KT 10SM 07/M02 RMK SLP269 T00721023 52015 IEM_DS3505
ZGGG,1984-01-08 03:00,ZGGG 080300Z AUTO 04006KT 9SM 13/M06 RMK SLP276 T01291061 52007 IEM_DS3505
ZGGG,1984-01-08 06:00,ZGGG 080600Z AUTO 36006KT 11SM 16/M08 RMK SLP245 T01611079 4////0063 57031 IEM_DS3505
ZGGG,1984-01-08 09:00,ZGGG 080900Z AUTO 02008KT 9SM 17/M06 RMK SLP231 T01671058 57014 IEM_DS3505
ZGGG,1984-01-08 12:00,ZGGG 081200Z AUTO 36006KT 7SM 12/M04 RMK SLP241 T01231039 52010 IEM_DS3505
ZGGG,1984-01-08 15:00,ZGGG 081500Z AUTO 36004KT 7SM 11/M04 RMK SLP245 T01071039 52004 IEM_DS3505
ZGGG,1984-01-08 18:00,ZGGG 081800Z AUTO 36002KT 7SM 10/M06 RMK SLP244 T00981061 57001 IEM_DS3505
ZGGG,1984-01-08 21:00,ZGGG 082100Z AUTO 02004KT 7SM 08/M06 RMK SLP240 T00831061 57004 IEM_DS3505
ZGGG,1984-01-09 00:00,ZGGG 090000Z AUTO 00000KT 10SM 06/M03 RMK SLP247 T00581028 52007 IEM_DS3505
ZGGG,1984-01-09 03:00,ZGGG 090300Z AUTO 07008KT 10SM 15/M09 RMK SLP240 T01511092 57007 IEM_DS3505
ZGGG,1984-01-09 06:00,ZGGG 090600Z AUTO 00000KT 12SM 17/M08 RMK SLP201 T01731076 4////0047 57039 IEM_DS3505
ZGGG,1984-01-09 09:00,ZGGG 090900Z AUTO 00000KT 10SM 18/M03 RMK SLP188 T01781026 57013 IEM_DS3505
ZGGG,1984-01-09 12:00,ZGGG 091200Z AUTO 00000KT 6SM 10/02 RMK SLP197 T00950022 52009 IEM_DS3505
ZGGG,1984-01-09 15:00,ZGGG 091500Z AUTO 00000KT 4SM 06/03 RMK SLP207 T00640028 52010 IEM_DS3505
ZGGG,1984-01-09 18:00,ZGGG 091800Z AUTO 00000KT 2 1/2SM 05/03 RMK SLP200 T00490026 40186//// 57007 IEM_DS3505
ZGGG,1984-01-09 21:00,ZGGG 092100Z AUTO 00000KT 2 1/2SM 04/02 RMK SLP196 T00420022 57004 IEM_DS3505
ZGGG,1984-01-09 22:00,ZGGG 092200Z AUTO 03008KT 7SM 03/02 A3009 RMK T00300020 IEM_DS3505
ZGGG,1984-01-09 23:00,ZGGG 092300Z AUTO 02006KT 7SM 03/01 A3009 RMK T00300010 IEM_DS3505
ZGGG,1984-01-10 00:00,ZGGG 100000Z AUTO 00000KT 6SM 04/03 A3012 RMK SLP212 T00440026 52016 IEM_DS3505
ZGGG,1984-01-10 01:00,ZGGG 100100Z AUTO 02004KT 2 1/2SM 07/03 A3015 RMK T00700030 IEM_DS3505
ZGGG,1984-01-10 02:00,ZGGG 100200Z AUTO 03006KT 3SM 10/01 A3015 RMK T01000010 IEM_DS3505
ZGGG,1984-01-10 03:00,ZGGG 100300Z AUTO 35004KT 5SM 14/M01 A3012 RMK SLP214 T01401010 52002 IEM_DS3505
ZGGG,1984-01-10 04:00,ZGGG 100400Z AUTO 33004KT 6SM 17/M03 A3012 RMK T01701030 IEM_DS3505
ZGGG,1984-01-10 05:00,ZGGG 100500Z AUTO 33008KT 5SM 18/M01 A3006 RMK T01801010 IEM_DS3505
ZGGG,1984-01-10 06:00,ZGGG 100600Z AUTO 29004KT 6SM 20/M03 A3000 RMK SLP182 T01951028 4////0037 57032 IEM_DS3505
ZGGG,1984-01-10 07:00,ZGGG 100700Z AUTO 34008KT 7SM 20/M04 A3003 RMK T02001040 IEM_DS3505
ZGGG,1984-01-10 08:00,ZGGG 100800Z AUTO 30008KT 7SM 21/M04 A3000 RMK T02101040 IEM_DS3505
ZGGG,1984-01-10 09:00,ZGGG 100900Z AUTO 29004KT 6SM 20/M02 A3000 RMK SLP175 T02001015 57007 IEM_DS3505
ZGGG,1984-01-10 12:00,ZGGG 101200Z AUTO 00000KT 6SM 12/03 RMK SLP185 T01210034 52010 IEM_DS3505
ZGGG,1984-01-10 15:00,ZGGG 101500Z AUTO 36002KT 6SM 10/03 RMK SLP194 T01030026 52009 IEM_DS3505
ZGGG,1984-01-10 18:00,ZGGG 101800Z AUTO 36004KT 6SM 14/M01 RMK SLP187 T01391013 40210//// 57007 IEM_DS3505
ZGGG,1984-01-10 21:00,ZGGG 102100Z AUTO 00000KT 5SM 07/04 RMK SLP186 T00690039 57001 IEM_DS3505
ZGGG,1984-01-11 00:00,ZGGG 110000Z AUTO 00000KT 3SM 06/03 RMK SLP202 T00600034 52016 IEM_DS3505
ZGGG,1984-01-11 06:00,ZGGG 110600Z AUTO 00000KT 4SM 22/01 RMK SLP170 T02160006 4////0055 57034 IEM_DS3505
ZGGG,1984-01-11 09:00,ZGGG 110900Z AUTO 16004KT 6SM 21/02 RMK SLP162 T02130022 57008 IEM_DS3505
ZGGG,1984-01-11 12:00,ZGGG 111200Z AUTO 00000KT 6SM 13/07 RMK SLP175 T01310071 52013 IEM_DS3505
ZGGG,1984-01-11 15:00,ZGGG 111500Z AUTO 00000KT 5SM 10/07 RMK SLP183 T00990068 52008 IEM_DS3505
ZGGG,1984-01-11 18:00,ZGGG 111800Z AUTO 00000KT 2 1/2SM 10/07 RMK SLP192 T00970069 40225//// 52004 IEM_DS3505
ZGGG,1984-01-11 21:00,ZGGG 112100Z AUTO 00000KT 2 1/2SM 10/07 RMK SLP187 T00950067 57005 IEM_DS3505
ZGGG,1984-01-12 00:00,ZGGG 120000Z AUTO 34002KT 6SM 11/05 RMK SLP204 T01060051 52017 IEM_DS3505
ZGGG,1984-01-12 03:00,ZGGG 120300Z AUTO 32002KT 6SM 21/05 RMK SLP203 T02080054 57001 IEM_DS3505
ZGGG,1984-01-12 06:00,ZGGG 120600Z AUTO 29006KT 6SM 23/03 RMK SLP160 T02290034 4////0081 57043 IEM_DS3505
ZGGG,1984-01-12 09:00,ZGGG 120900Z AUTO 29004KT 6SM 23/06 RMK SLP150 T02280062 57010 IEM_DS3505
ZGGG,1984-01-12 12:00,ZGGG 121200Z AUTO 36004KT 6SM 16/06 RMK SLP161 T01630057 52011 IEM_DS3505
ZGGG,1984-01-12 15:00,ZGGG 121500Z AUTO 02010KT 6SM 18/02 RMK SLP178 T01770021 52017 IEM_DS3505
ZGGG,1984-01-12 18:00,ZGGG 121800Z AUTO 34006KT 6SM 15/02 RMK SLP187 T01510024 40236//// 52009 IEM_DS3505
ZGGG,1984-01-12 21:00,ZGGG 122100Z AUTO 00000KT 6SM 13/00 RMK SLP182 T01280004 57005 IEM_DS3505
ZGGG,1984-01-13 00:00,ZGGG 130000Z AUTO 00000KT 7SM 12/M01 RMK SLP193 T01211008 52011 IEM_DS3505
ZGGG,1984-01-13 03:00,ZGGG 130300Z AUTO 36008KT 7SM 17/M02 RMK SLP195 T01661020 52002 IEM_DS3505
ZGGG,1984-01-13 06:00,ZGGG 130600Z AUTO 20004KT 7SM 21/M01 RMK SLP159 T02081008 4////0098 57036 IEM_DS3505
ZGGG,1984-01-13 09:00,ZGGG 130900Z AUTO 29004KT 7SM 21/02 RMK SLP146 T02070021 57013 IEM_DS3505
ZGGG,1984-01-13 12:00,ZGGG 131200Z AUTO 00000KT 7SM 13/06 RMK SLP153 T01290062 52007 IEM_DS3505
ZGGG,1984-01-13 15:00,ZGGG 131500Z AUTO 00000KT 6SM 10/06 RMK SLP156 T00990060 52003 IEM_DS3505
ZGGG,1984-01-13 18:00,ZGGG 131800Z AUTO 00000KT 4SM 09/06 RMK SLP154 T00870059 40216//// 51002 IEM_DS3505
ZGGG,1984-01-13 21:00,ZGGG 132100Z AUTO 00000KT 4SM 08/05 RMK SLP148 T00750049 57006 IEM_DS3505
ZGGG,1984-01-14 00:00,ZGGG 140000Z AUTO 00000KT 4SM 07/05 RMK SLP159 T00740054 52011 IEM_DS3505
ZGGG,1984-01-14 03:00,ZGGG 140300Z AUTO 15010KT 5SM 18/05 A2997 RMK SLP166 T01800050 52007 IEM_DS3505
ZGGG,1984-01-14 04:00,ZGGG 140400Z AUTO 15008KT 7SM 19/06 A2997 RMK T01900060 IEM_DS3505
ZGGG,1984-01-14 05:00,ZGGG 140500Z AUTO 14014KT 7SM 20/08 A2991 RMK T02000080 IEM_DS3505
ZGGG,1984-01-14 06:00,ZGGG 140600Z AUTO 16006KT 6SM 22/11 A2988 RMK SLP134 T02170112 4////0071 57032 IEM_DS3505
ZGGG,1984-01-14 07:00,ZGGG 140700Z AUTO 18012KT 7SM 22/11 A2988 RMK T02200110 IEM_DS3505
ZGGG,1984-01-14 08:00,ZGGG 140800Z AUTO 18010KT 7SM 22/12 A2985 RMK T02200120 IEM_DS3505
ZGGG,1984-01-14 09:00,ZGGG 140900Z AUTO 16004KT 6SM 21/13 A2985 RMK SLP126 T02140129 57008 IEM_DS3505
ZGGG,1984-01-14 12:00,ZGGG 141200Z AUTO 00000KT 5SM 17/14 RMK SLP133 T01710142 52007 IEM_DS3505
ZGGG,1984-01-14 15:00,ZGGG 141500Z AUTO 07004KT 2 1/2SM 15/13 RMK SLP147 T01510131 52014 IEM_DS3505
ZGGG,1984-01-14 18:00,ZGGG 141800Z AUTO 00000KT 2 1/2SM 16/14 RMK SLP153 T01550137 40225//// 52006 IEM_DS3505
ZGGG,1984-01-14 21:00,ZGGG 142100Z AUTO 00000KT 4SM 15/14 RMK SLP150 T01520138 57003 IEM_DS3505
ZGGG,1984-01-15 00:00,ZGGG 150000Z AUTO 00000KT 5SM 15/14 RMK SLP164 T01510140 52014 IEM_DS3505
ZGGG,1984-01-15 03:00,ZGGG 150300Z AUTO 09004KT 6SM 21/15 RMK SLP182 T02080153 52018 IEM_DS3505
ZGGG,1984-01-15 06:00,ZGGG 150600Z AUTO 14004KT 6SM 24/16 RMK SLP149 T02400160 4////0141 57033 IEM_DS3505
ZGGG,1984-01-15 09:00,ZGGG 150900Z AUTO 32004KT 6SM 24/16 RMK SLP150 T02360156 52001 IEM_DS3505
ZGGG,1984-01-15 12:00,ZGGG 151200Z AUTO 00000KT 6SM 19/16 RMK SLP163 T01920157 52013 IEM_DS3505
ZGGG,1984-01-15 15:00,ZGGG 151500Z AUTO 36006KT 6SM 18/13 RMK SLP175 T01760130 52012 IEM_DS3505
ZGGG,1984-01-15 18:00,ZGGG 151800Z AUTO 36008KT 6SM 14/08 RMK SLP189 T01420085 40254//// 52014 IEM_DS3505
ZGGG,1984-01-15 21:00,ZGGG 152100Z AUTO 36006KT 6SM 13/07 RMK SLP197 T01290069 52008 IEM_DS3505
ZGGG,1984-01-16 00:00,ZGGG 160000Z AUTO 36006KT 4SM 13/07 RMK SLP218 T01310067 52021 IEM_DS3505
ZGGG,1984-01-16 03:00,ZGGG 160300Z AUTO 34006KT 6SM 16/06 RMK SLP225 T01580064 52007 IEM_DS3505
ZGGG,1984-01-16 06:00,ZGGG 160600Z AUTO 34006KT 6SM 18/06 RMK SLP191 T01750064 4////0127 57034 IEM_DS3505
ZGGG,1984-01-16 09:00,ZGGG 160900Z AUTO 34006KT 6SM 17/07 RMK SLP180 T01670071 57011 IEM_DS3505
ZGGG,1984-01-16 12:00,ZGGG 161200Z AUTO 00000KT 4SM 15/08 RMK SLP192 T01520081 52012 IEM_DS3505
ZGGG,1984-01-16 15:00,ZGGG 161500Z AUTO 00000KT 4SM 14/09 RMK SLP197 T01450086 52005 IEM_DS3505
ZGGG,1984-01-16 18:00,ZGGG 161800Z AUTO 00000KT 4SM 14/09 RMK SLP186 T01430094 40183//// 57011 IEM_DS3505
ZGGG,1984-01-16 21:00,ZGGG 162100Z AUTO 00000KT 4SM 14/10 RMK SLP180 T01430099 57006 IEM_DS3505
ZGGG,1984-01-17 00:00,ZGGG 170000Z AUTO 00000KT 4SM 14/10 RMK SLP188 T01430099 52008 IEM_DS3505
ZGGG,1984-01-17 03:00,ZGGG 170300Z AUTO 14006KT 6SM 15/09 A3006 RMK SLP191 T01540093 52003 IEM_DS3505
ZGGG,1984-01-17 04:00,ZGGG 170400Z AUTO 19006KT 3SM 16/10 A3003 RMK T01600100 IEM_DS3505
ZGGG,1984-01-17 05:00,ZGGG 170500Z AUTO 14006KT 4SM 16/10 A3000 RMK T01600100 IEM_DS3505
ZGGG,1984-01-17 06:00,ZGGG 170600Z AUTO 09006KT 2SM 15/12 A2997 RMK SLP156 T01490120 4////0138 57035 IEM_DS3505
ZGGG,1984-01-17 08:00,ZGGG 170800Z AUTO 00000KT 2 1/2SM 15/12 A2991 RMK T01500120 IEM_DS3505
ZGGG,1984-01-17 09:00,ZGGG 170900Z AUTO 14004KT 2 1/2SM 15/12 A2991 RMK SLP144 T01470120 57012 IEM_DS3505
ZGGG,1984-01-17 12:00,ZGGG 171200Z AUTO 00000KT 3SM 15/12 RMK SLP152 T01490124 52008 IEM_DS3505
ZGGG,1984-01-17 15:00,ZGGG 171500Z AUTO 11004KT 3SM 15/12 RMK SLP148 T01490117 57004 IEM_DS3505
ZGGG,1984-01-17 18:00,ZGGG 171800Z AUTO 11002KT 4SM 15/12 RMK SLP133 T01490117 40165//// 57015 IEM_DS3505
ZGGG,1984-01-17 21:00,ZGGG 172100Z AUTO 00000KT 4SM 15/12 RMK SLP122 T01490124 57011 IEM_DS3505
ZGGG,1984-01-18 00:00,ZGGG 180000Z AUTO 00000KT 2 1/2SM 15/13 RMK SLP124 T01500128 52002 IEM_DS3505
ZGGG,1984-01-18 03:00,ZGGG 180300Z AUTO 11004KT 2 1/2SM 18/14 RMK SLP121 T01760139 57003 IEM_DS3505
ZGGG,1984-01-18 06:00,ZGGG 180600Z AUTO 14006KT 2 1/2SM 20/15 RMK SLP087 T01970146 4////0140 57034 IEM_DS3505
ZGGG,1984-01-18 09:00,ZGGG 180900Z AUTO 34004KT 2SM 19/15 RMK SLP080 T01870149 57007 IEM_DS3505
ZGGG,1984-01-18 12:00,ZGGG 181200Z AUTO 00000KT 2 1/2SM 18/15 RMK SLP095 T01770151 52015 IEM_DS3505
ZGGG,1984-01-18 15:00,ZGGG 181500Z AUTO 02004KT 4SM 18/16 RMK SLP116 T01770155 52021 IEM_DS3505
ZGGG,1984-01-18 18:00,ZGGG 181800Z AUTO 34010KT 2 1/2SM 10/08 RMK SLP132 T01030078 40203//// 52016 IEM_DS3505
ZGGG,1984-01-18 21:00,ZGGG 182100Z AUTO 34010KT 2 1/2SM 09/04 RMK SLP146 T00910044 52014 IEM_DS3505
ZGGG,1984-01-19 00:00,ZGGG 190000Z AUTO 02006KT 12SM 08/03 RMK SLP178 T00850030 52032 IEM_DS3505
ZGGG,1984-01-19 03:00,ZGGG 190300Z AUTO 02008KT 12SM 10/03 RMK SLP195 T00950026 52017 IEM_DS3505
ZGGG,1984-01-19 06:00,ZGGG 190600Z AUTO 36010KT 14SM 11/02 RMK SLP165 T01140021 4////0085 57030 IEM_DS3505
ZGGG,1984-01-19 09:00,ZGGG 190900Z AUTO 34004KT 12SM 11/03 RMK SLP164 T01110028 57001 IEM_DS3505
ZGGG,1984-01-19 12:00,ZGGG 191200Z AUTO 34008KT 9SM 10/02 RMK SLP172 T01010024 52008 IEM_DS3505
ZGGG,1984-01-19 15:00,ZGGG 191500Z AUTO 36006KT 9SM 10/03 RMK SLP186 T00970030 52014 IEM_DS3505
ZGGG,1984-01-19 18:00,ZGGG 191800Z AUTO 36002KT 6SM 09/03 RMK SLP188 T00870034 40120//// 52002 IEM_DS3505
ZGGG,1984-01-19 21:00,ZGGG 192100Z AUTO 34002KT 6SM 08/03 RMK SLP180 T00850028 57008 IEM_DS3505
ZGGG,1984-01-20 00:00,ZGGG 200000Z AUTO 02006KT 9SM 08/03 RMK SLP185 T00810032 52005 IEM_DS3505
ZGGG,1984-01-20 03:00,ZGGG 200300Z AUTO 34006KT 9SM 09/04 RMK SLP205 T00880043 52020 IEM_DS3505
ZGGG,1984-01-20 06:00,ZGGG 200600Z AUTO 34008KT 6SM 09/05 RMK SLP170 T00910046 4////0078 57035 IEM_DS3505
ZGGG,1984-01-20 09:00,ZGGG 200900Z AUTO 34008KT 2 1/2SM 07/06 RMK SLP175 T00670056 52005 IEM_DS3505
ZGGG,1984-01-20 12:00,ZGGG 201200Z AUTO 34006KT 2 1/2SM 06/05 RMK 60000 SLP178 T00650054 52003 IEM_DS3505
ZGGG,1984-01-20 15:00,ZGGG 201500Z AUTO 36004KT 2 1/2SM 06/05 RMK SLP188 T00620051 52010 IEM_DS3505
ZGGG,1984-01-20 18:00,ZGGG 201800Z AUTO 02004KT 3SM 06/04 RMK 60012 SLP186 T00600041 40093//// 57002 IEM_DS3505
ZGGG,1984-01-20 21:00,ZGGG 202100Z AUTO 36006KT 4SM 06/05 RMK SLP184 T00550046 57002 IEM_DS3505
ZGGG,1984-01-21 00:00,ZGGG 210000Z AUTO 36006KT 4SM 05/04 RMK 60020 70031 SLP203 T00490041 52019 IEM_DS3505
ZGGG,1984-01-21 03:00,ZGGG 210300Z AUTO 36012KT 7SM 06/05 A3015 RMK SLP221 T00600050 52018 IEM_DS3505
ZGGG,1984-01-21 04:00,ZGGG 210400Z AUTO 35012KT 7SM 06/05 A3012 RMK T00600050 IEM_DS3505
ZGGG,1984-01-21 05:00,ZGGG 210500Z AUTO 33016KT 7SM 07/05 A3009 RMK T00700050 IEM_DS3505
ZGGG,1984-01-21 06:00,ZGGG 210600Z AUTO 36006KT 11SM 08/04 RMK 60016 SLP194 T00750036 4////0049 57027 IEM_DS3505
ZGGG,1984-01-21 07:00,ZGGG 210700Z AUTO 35017KT 7SM 07/03 A3006 RMK T00700030 IEM_DS3505
ZGGG,1984-01-21 08:00,ZGGG 210800Z AUTO 35014KT 7SM 08/03 A3006 RMK T00800030 IEM_DS3505
ZGGG,1984-01-21 09:00,ZGGG 210900Z AUTO 36008KT 12SM 08/02 A3006 RMK SLP189 T00750024 57005 IEM_DS3505
ZGGG,1984-01-21 12:00,ZGGG 211200Z AUTO 02008KT 10SM 07/01 RMK SLP204 T00700012 52015 IEM_DS3505
ZGGG,1984-01-21 15:00,ZGGG 211500Z AUTO 02008KT 9SM 06/00 RMK SLP214 T00620001 52010 IEM_DS3505
ZGGG,1984-01-21 18:00,ZGGG 211800Z AUTO 34008KT 9SM 06/M01 RMK SLP218 T00561006 40082//// 52004 IEM_DS3505
ZGGG,1984-01-21 21:00,ZGGG 212100Z AUTO 02008KT 10SM 05/M01 RMK SLP211 T00491010 57007 IEM_DS3505
ZGGG,1984-01-22 00:00,ZGGG 220000Z AUTO 04004KT 9SM 05/M01 RMK 70016 SLP230 T00461013 52019 IEM_DS3505
ZGGG,1984-01-22 03:00,ZGGG 220300Z AUTO 36004KT 9SM 07/M02 RMK SLP234 T00721018 52004 IEM_DS3505
ZGGG,1984-01-22 06:00,ZGGG 220600Z AUTO 34006KT 10SM 10/M01 RMK SLP197 T00971013 4////0045 57037 IEM_DS3505
ZGGG,1984-01-22 09:00,ZGGG 220900Z AUTO 04006KT 9SM 10/M00 RMK SLP191 T01051001 57006 IEM_DS3505
ZGGG,1984-01-22 12:00,ZGGG 221200Z AUTO 11006KT 6SM 09/03 RMK SLP204 T00860030 52013 IEM_DS3505
ZGGG,1984-01-22 15:00,ZGGG 221500Z AUTO 09004KT 6SM 08/03 RMK SLP221 T00770030 52017 IEM_DS3505
ZGGG,1984-01-22 18:00,ZGGG 221800Z AUTO 36002KT 6SM 07/02 RMK SLP218 T00730018 40108//// 57003 IEM_DS3505
ZGGG,1984-01-22 21:00,ZGGG 222100Z AUTO 08006KT 6SM 06/01 RMK SLP219 T00640006 52001 IEM_DS3505
ZGGG,1984-01-23 00:00,ZGGG 230000Z AUTO 02004KT 6SM 06/01 RMK SLP235 T00630006 52016 IEM_DS3505
ZGGG,1984-01-23 03:00,ZGGG 230300Z AUTO 34006KT 6SM 07/01 RMK SLP243 T00730008 52008 IEM_DS3505
ZGGG,1984-01-23 06:00,ZGGG 230600Z AUTO 34006KT 6SM 08/01 RMK SLP215 T00790010 4////0062 57028 IEM_DS3505
ZGGG,1984-01-23 09:00,ZGGG 230900Z AUTO 34004KT 6SM 08/03 RMK SLP215 T00750030 54000 IEM_DS3505
ZGGG,1984-01-23 12:00,ZGGG 231200Z AUTO 02004KT 6SM 07/03 RMK SLP231 T00720034 52016 IEM_DS3505
ZGGG,1984-01-23 15:00,ZGGG 231500Z AUTO 36006KT 6SM 07/04 RMK SLP244 T00680043 52013 IEM_DS3505
ZGGG,1984-01-23 18:00,ZGGG 231800Z AUTO 36008KT 6SM 06/05 RMK SLP241 T00630046 40081//// 57003 IEM_DS3505
ZGGG,1984-01-23 21:00,ZGGG 232100Z AUTO 02006KT 6SM 06/03 RMK SLP226 T00650034 57015 IEM_DS3505
ZGGG,1984-01-24 00:00,ZGGG 240000Z AUTO 36004KT 6SM 07/03 A3021 RMK SLP248 T00700026 52022 IEM_DS3505
ZGGG,1984-01-24 01:00,ZGGG 240100Z AUTO 35008KT 5SM 07/03 A3024 RMK T00700030 IEM_DS3505
ZGGG,1984-01-24 02:00,ZGGG 240200Z AUTO 36008KT 5SM 07/03 A3024 RMK T00700030 IEM_DS3505
ZGGG,1984-01-24 03:00,ZGGG 240300Z AUTO 01008KT 5SM 07/03 A3024 RMK SLP258 T00700030 52010 IEM_DS3505
ZGGG,1984-01-24 04:00,ZGGG 240400Z AUTO 01010KT 7SM 08/02 A3024 RMK T00800020 IEM_DS3505
ZGGG,1984-01-24 06:00,ZGGG 240600Z AUTO 34004KT 7SM 08/02 RMK SLP226 T00830022 4////0060 57032 IEM_DS3505
ZGGG,1984-01-24 07:00,ZGGG 240700Z AUTO 34008KT 7SM 08/03 A3015 RMK T00800030 IEM_DS3505
ZGGG,1984-01-24 08:00,ZGGG 240800Z AUTO 35010KT 5SM 08/04 A3015 RMK T00800040 IEM_DS3505
ZGGG,1984-01-24 09:00,ZGGG 240900Z AUTO 02006KT 6SM 08/03 RMK SLP224 T00800030 57002 IEM_DS3505
ZGGG,1984-01-24 12:00,ZGGG 241200Z AUTO 36006KT 2 1/2SM 07/03 RMK SLP238 T00700032 52015 IEM_DS3505
ZGGG,1984-01-24 15:00,ZGGG 241500Z AUTO 36004KT 3SM 07/03 RMK SLP259 T00690026 52020 IEM_DS3505
ZGGG,1984-01-24 18:00,ZGGG 241800Z AUTO 02004KT 4SM 07/02 RMK SLP258 T00660022 40087//// 57001 IEM_DS3505
ZGGG,1984-01-24 21:00,ZGGG 242100Z AUTO 36006KT 4SM 06/02 RMK SLP253 T00630018 57005 IEM_DS3505
ZGGG,1984-01-25 00:00,ZGGG 250000Z AUTO 34006KT 6SM 06/01 RMK SLP268 T00590008 52015 IEM_DS3505
ZGGG,1984-01-25 03:00,ZGGG 250300Z AUTO 02008KT 6SM 07/01 RMK SLP279 T00690010 52011 IEM_DS3505
ZGGG,1984-01-25 06:00,ZGGG 250600Z AUTO 36008KT 7SM 09/00 RMK SLP248 T00870001 4////0058 57031 IEM_DS3505
ZGGG,1984-01-25 09:00,ZGGG 250900Z AUTO 02006KT 7SM 08/00 RMK SLP247 T00820004 57001 IEM_DS3505
ZGGG,1984-01-25 12:00,ZGGG 251200Z AUTO 36004KT 4SM 07/M00 RMK SLP263 T00711001 52016 IEM_DS3505
ZGGG,1984-01-25 15:00,ZGGG 251500Z AUTO 36004KT 4SM 07/00 RMK SLP276 T00670001 52013 IEM_DS3505
ZGGG,1984-01-25 18:00,ZGGG 251800Z AUTO 02006KT 7SM 06/00 RMK SLP274 T00640001 40093//// 57002 IEM_DS3505
ZGGG,1984-01-25 21:00,ZGGG 252100Z AUTO 02008KT 6SM 06/M00 RMK SLP261 T00621003 57013 IEM_DS3505
ZGGG,1984-01-26 00:00,ZGGG 260000Z AUTO 36004KT 6SM 06/01 RMK SLP275 T00640006 52014 IEM_DS3505
ZGGG,1984-01-26 03:00,ZGGG 260300Z AUTO 07004KT 6SM 08/01 RMK SLP283 T00830008 52008 IEM_DS3505
ZGGG,1984-01-26 06:00,ZGGG 260600Z AUTO 00000KT 7SM 10/02 RMK SLP243 T00990024 4////0061 57040 IEM_DS3505
ZGGG,1984-01-26 09:00,ZGGG 260900Z AUTO 00000KT 6SM 10/03 RMK SLP229 T01050034 57014 IEM_DS3505
ZGGG,1984-01-26 12:00,ZGGG 261200Z AUTO 00000KT 6SM 10/04 RMK SLP246 T00990044 52017 IEM_DS3505
ZGGG,1984-01-26 15:00,ZGGG 261500Z AUTO 00000KT 6SM 10/04 RMK SLP262 T00960044 52016 IEM_DS3505
ZGGG,1984-01-26 18:00,ZGGG 261800Z AUTO 36004KT 6SM 08/03 RMK SLP254 T00840032 57003 IEM_DS3505
ZGGG,1984-01-27 00:00,ZGGG 270000Z AUTO 36004KT 6SM 08/03 RMK SLP263 T00830034 52009 IEM_DS3505
ZGGG,1984-01-27 03:00,ZGGG 270300Z AUTO 36004KT 6SM 11/04 RMK SLP265 T01060044 52002 IEM_DS3505
ZGGG,1984-01-27 06:00,ZGGG 270600Z AUTO 34006KT 6SM 12/04 RMK SLP224 T01230044 4////0080 57041 IEM_DS3505
ZGGG,1984-01-27 09:00,ZGGG 270900Z AUTO 34008KT 7SM 12/05 RMK SLP215 T01210048 57009 IEM_DS3505
ZGGG,1984-01-27 12:00,ZGGG 271200Z AUTO 34002KT 6SM 10/05 RMK SLP224 T01020046 52009 IEM_DS3505
ZGGG,1984-01-27 15:00,ZGGG 271500Z AUTO 34004KT 6SM 10/04 RMK SLP230 T00960039 52006 IEM_DS3505
ZGGG,1984-01-27 18:00,ZGGG 271800Z AUTO 36006KT 6SM 09/04 RMK SLP226 T00930036 40135//// 57004 IEM_DS3505
ZGGG,1984-01-27 21:00,ZGGG 272100Z AUTO 36004KT 6SM 09/03 RMK SLP223 T00870034 57003 IEM_DS3505
ZGGG,1984-01-28 00:00,ZGGG 280000Z AUTO 34004KT 7SM 09/04 RMK SLP234 T00860036 52011 IEM_DS3505
ZGGG,1984-01-28 03:00,ZGGG 280300Z AUTO 34006KT 9SM 12/04 A3021 RMK SLP237 T01230044 52003 IEM_DS3505
ZGGG,1984-01-28 04:00,ZGGG 280400Z AUTO 35008KT 7SM 14/05 A3018 RMK T01400050 IEM_DS3505
ZGGG,1984-01-28 06:00,ZGGG 280600Z AUTO 02004KT 10SM 16/06 A3009 RMK SLP196 T01640065 4////0083 57041 IEM_DS3505
ZGGG,1984-01-28 07:00,ZGGG 280700Z AUTO 05004KT 6SM 17/06 A3003 RMK T01700060 IEM_DS3505
ZGGG,1984-01-28 08:00,ZGGG 280800Z AUTO 32008KT 6SM 17/06 A3003 RMK T01700060 IEM_DS3505
ZGGG,1984-01-28 09:00,ZGGG 280900Z AUTO 29002KT 10SM 18/07 A3003 RMK SLP181 T01770072 57015 IEM_DS3505
ZGGG,1984-01-28 10:00,ZGGG 281000Z AUTO 35004KT 6SM 16/07 A3003 RMK T01600070 IEM_DS3505
ZGGG,1984-01-28 11:00,ZGGG 281100Z AUTO 00000KT 6SM 13/09 A3003 RMK T01300090 IEM_DS3505
ZGGG,1984-01-28 12:00,ZGGG 281200Z AUTO 36002KT 7SM 15/07 RMK SLP189 T01460067 50008 IEM_DS3505
ZGGG,1984-01-28 15:00,ZGGG 281500Z AUTO 04008KT 7SM 12/06 RMK SLP199 T01250062 52010 IEM_DS3505
ZGGG,1984-01-28 18:00,ZGGG 281800Z AUTO 02002KT 6SM 12/05 RMK SLP201 T01170053 40183//// 52002 IEM_DS3505
ZGGG,1984-01-28 21:00,ZGGG 282100Z AUTO 34006KT 6SM 10/05 RMK SLP208 T01030048 52007 IEM_DS3505
ZGGG,1984-01-29 00:00,ZGGG 290000Z AUTO 36006KT 8SM 10/05 RMK SLP221 T00970046 52013 IEM_DS3505
ZGGG,1984-01-29 03:00,ZGGG 290300Z AUTO 02004KT 9SM 13/06 RMK SLP222 T01320060 52001 IEM_DS3505
ZGGG,1984-01-29 06:00,ZGGG 290600Z AUTO 02006KT 9SM 16/07 RMK SLP194 T01600069 4////0094 57028 IEM_DS3505
ZGGG,1984-01-29 09:00,ZGGG 290900Z AUTO 34008KT 9SM 15/06 RMK SLP179 T01470057 57015 IEM_DS3505
ZGGG,1984-01-29 12:00,ZGGG 291200Z AUTO 36006KT 6SM 11/05 RMK SLP195 T01070048 52016 IEM_DS3505
ZGGG,1984-01-29 15:00,ZGGG 291500Z AUTO 34006KT 6SM 10/05 RMK SLP211 T01010048 52016 IEM_DS3505
ZGGG,1984-01-29 18:00,ZGGG 291800Z AUTO 32004KT 6SM 09/04 RMK SLP213 T00900044 40168//// 52002 IEM_DS3505
ZGGG,1984-01-29 21:00,ZGGG 292100Z AUTO 34006KT 6SM 08/04 RMK SLP214 T00830039 52001 IEM_DS3505
ZGGG,1984-01-30 00:00,ZGGG 300000Z AUTO 36006KT 10SM 08/04 RMK SLP227 T00780036 52013 IEM_DS3505
ZGGG,1984-01-30 03:00,ZGGG 300300Z AUTO 34010KT 10SM 10/04 RMK SLP232 T01050037 52005 IEM_DS3505
ZGGG,1984-01-30 06:00,ZGGG 300600Z AUTO 34008KT 10SM 11/04 RMK SLP207 T01130039 4////0076 57025 IEM_DS3505
ZGGG,1984-01-30 09:00,ZGGG 300900Z AUTO 36010KT 8SM 10/04 RMK SLP200 T00950041 57007 IEM_DS3505
ZGGG,1984-01-30 12:00,ZGGG 301200Z AUTO 32008KT 8SM 08/04 RMK SLP215 T00840037 52015 IEM_DS3505
ZGGG,1984-01-30 15:00,ZGGG 301500Z AUTO 34008KT 7SM 07/04 RMK SLP232 T00730041 52017 IEM_DS3505
ZGGG,1984-01-30 18:00,ZGGG 301800Z AUTO 02006KT 7SM 07/03 RMK SLP239 T00660030 40122//// 52007 IEM_DS3505
ZGGG,1984-01-30 21:00,ZGGG 302100Z AUTO 02006KT 7SM 06/03 RMK SLP234 T00600028 57005 IEM_DS3505
ZGGG,1984-01-31 00:00,ZGGG 310000Z AUTO 34006KT 9SM 06/01 RMK 60001 SLP252 T00610012 52018 IEM_DS3505
ZGGG,1984-01-31 03:00,ZGGG 310300Z AUTO 02006KT 10SM 08/01 RMK SLP261 T00780010 52009 IEM_DS3505
ZGGG,1984-01-31 05:00,ZGGG 310500Z AUTO 35012KT 7SM 09/01 A3021 RMK T00900010 IEM_DS3505
ZGGG,1984-01-31 06:00,ZGGG 310600Z AUTO 32004KT 10SM 10/02 RMK SLP228 T00950016 4////0055 57033 IEM_DS3505
ZGGG,1984-01-31 07:00,ZGGG 310700Z AUTO 33010KT 7SM 10/02 A3015 RMK T01000020 IEM_DS3505
ZGGG,1984-01-31 08:00,ZGGG 310800Z AUTO 36010KT 7SM 10/02 A3012 RMK T01000020 IEM_DS3505
ZGGG,1984-01-31 09:00,ZGGG 310900Z AUTO 36006KT 9SM 10/02 A3012 RMK SLP208 T01000016 57020 IEM_DS3505
ZGGG,1984-01-31 12:00,ZGGG 311200Z AUTO 32006KT 7SM 09/03 RMK SLP219 T00910028 52011 IEM_DS3505
ZGGG,1984-01-31 15:00,ZGGG 311500Z AUTO 02006KT 6SM 08/02 RMK SLP234 T00790018 52015 IEM_DS3505
ZGGG,1984-01-31 18:00,ZGGG 311800Z AUTO 36006KT 6SM 08/01 RMK SLP230 T00780014 40107//// 57004 IEM_DS3505
ZGGG,1984-01-31 21:00,ZGGG 312100Z AUTO 02002KT 6SM 08/02 RMK SLP225 T00750016 57005 IEM_DS3505
ZGGG,1984-02-01 00:00,ZGGG 010000Z AUTO 36004KT 9SM 07/02 RMK SLP233 T00720018 52008 IEM_DS3505
ZGGG,1984-02-01 03:00,ZGGG 010300Z AUTO 36004KT 9SM 09/03 RMK SLP225 T00870026 57008 IEM_DS3505
ZGGG,1984-02-01 06:00,ZGGG 010600Z AUTO 02004KT 8SM 11/03 RMK SLP194 T01060034 4////0072 57031 IEM_DS3505
ZGGG,1984-02-01 09:00,ZGGG 010900Z AUTO 02002KT 7SM 10/04 RMK SLP187 T01030043 57007 IEM_DS3505
ZGGG,1984-02-01 12:00,ZGGG 011200Z AUTO 02004KT 7SM 09/05 RMK SLP196 T00930051 52009 IEM_DS3505
ZGGG,1984-02-01 15:00,ZGGG 011500Z AUTO 02004KT 7SM 08/06 RMK SLP207 T00830059 52011 IEM_DS3505
ZGGG,1984-02-01 18:00,ZGGG 011800Z AUTO 34004KT 4SM 08/07 RMK 60002 SLP205 T00770068 40113//// 57002 IEM_DS3505
ZGGG,1984-02-01 21:00,ZGGG 012100Z AUTO 36004KT 4SM 08/06 RMK SLP197 T00770064 57008 IEM_DS3505
ZGGG,1984-02-02 00:00,ZGGG 020000Z AUTO 36006KT 9SM 08/06 RMK 60002 SLP215 T00770059 52018 IEM_DS3505
ZGGG,1984-02-02 03:00,ZGGG 020300Z AUTO 36008KT 11SM 09/06 RMK SLP223 T00890057 52008 IEM_DS3505
ZGGG,1984-02-02 06:00,ZGGG 020600Z AUTO 36006KT 10SM 10/05 RMK 60000 SLP191 T01010054 4////0074 57032 IEM_DS3505
ZGGG,1984-02-02 09:00,ZGGG 020900Z AUTO 34004KT 9SM 10/06 RMK SLP189 T00970060 57002 IEM_DS3505
ZGGG,1984-02-02 12:00,ZGGG 021200Z AUTO 04002KT 3SM 08/06 RMK SLP203 T00850056 52014 IEM_DS3505
ZGGG,1984-02-02 15:00,ZGGG 021500Z AUTO 04004KT 2 1/2SM 07/06 RMK SLP223 T00730064 52020 IEM_DS3505
ZGGG,1984-02-02 18:00,ZGGG 021800Z AUTO 34004KT 2 1/2SM 07/06 RMK 60004 SLP222 T00720059 57001 IEM_DS3505
ZGGG,1984-02-02 21:00,ZGGG 022100Z AUTO 36006KT 6SM 07/05 RMK SLP221 T00690048 57001 IEM_DS3505
ZGGG,1984-02-03 00:00,ZGGG 030000Z AUTO 02004KT 10SM 07/05 RMK 60002 SLP237 T00690046 52016 IEM_DS3505
ZGGG,1984-02-03 03:00,ZGGG 030300Z AUTO 34004KT 10SM 08/04 RMK SLP245 T00780041 52008 IEM_DS3505
ZGGG,1984-02-03 06:00,ZGGG 030600Z AUTO 36004KT 7SM 08/04 RMK SLP216 T00790044 4////0067 57029 IEM_DS3505
ZGGG,1984-02-03 09:00,ZGGG 030900Z AUTO 02004KT 7SM 08/05 RMK SLP195 T00780046 57021 IEM_DS3505
ZGGG,1984-02-03 12:00,ZGGG 031200Z AUTO 02004KT 6SM 08/05 RMK SLP206 T00750049 52011 IEM_DS3505
ZGGG,1984-02-03 15:00,ZGGG 031500Z AUTO 02002KT 5SM 07/06 RMK SLP208 T00660057 52002 IEM_DS3505
ZGGG,1984-02-03 18:00,ZGGG 031800Z AUTO 02002KT 4SM 06/06 RMK 60000 SLP201 T00650057 40084//// 57007 IEM_DS3505
ZGGG,1984-02-03 21:00,ZGGG 032100Z AUTO 34004KT 5SM 07/06 RMK SLP188 T00690057 57013 IEM_DS3505
ZGGG,1984-02-04 00:00,ZGGG 040000Z AUTO 36004KT 9SM 07/05 RMK SLP193 T00730049 52005 IEM_DS3505
ZGGG,1984-02-04 03:00,ZGGG 040300Z AUTO 36002KT 10SM 09/05 A3009 RMK SLP202 T00890054 52009 IEM_DS3505
ZGGG,1984-02-04 04:00,ZGGG 040400Z AUTO 01008KT 7SM 09/06 A3006 RMK T00900060 IEM_DS3505
ZGGG,1984-02-04 05:00,ZGGG 040500Z AUTO 36012KT 7SM 10/06 A3003 RMK T01000060 IEM_DS3505
ZGGG,1984-02-04 06:00,ZGGG 040600Z AUTO 34006KT 10SM 11/06 A3000 RMK SLP166 T01100059 4////0065 57036 IEM_DS3505
ZGGG,1984-02-04 08:00,ZGGG 040800Z AUTO 34010KT 7SM 11/06 A2994 RMK T01100060 IEM_DS3505
ZGGG,1984-02-04 09:00,ZGGG 040900Z AUTO 34004KT 9SM 11/07 RMK SLP156 T01070067 57010 IEM_DS3505
ZGGG,1984-02-04 12:00,ZGGG 041200Z AUTO 36006KT 7SM 10/06 RMK SLP161 T00960064 52005 IEM_DS3505
ZGGG,1984-02-04 15:00,ZGGG 041500Z AUTO 36006KT 7SM 09/06 RMK SLP163 T00940060 52002 IEM_DS3505
ZGGG,1984-02-04 18:00,ZGGG 041800Z AUTO 02004KT 5SM 09/06 RMK SLP162 T00920062 40116//// 57001 IEM_DS3505
ZGGG,1984-02-04 21:00,ZGGG 042100Z AUTO 02004KT 6SM 09/05 RMK SLP158 T00890051 57004 IEM_DS3505
ZGGG,1984-02-05 00:00,ZGGG 050000Z AUTO 02006KT 11SM 09/05 RMK SLP174 T00860051 52016 IEM_DS3505
ZGGG,1984-02-05 03:00,ZGGG 050300Z AUTO 36006KT 10SM 08/06 RMK SLP190 T00830056 52016 IEM_DS3505
ZGGG,1984-02-05 06:00,ZGGG 050600Z AUTO 34002KT 4SM 08/06 RMK SLP176 T00750064 4////0073 57014 IEM_DS3505
ZGGG,1984-02-05 09:00,ZGGG 050900Z AUTO 34004KT 2 1/2SM 07/06 RMK SLP177 T00730059 52001 IEM_DS3505
ZGGG,1984-02-05 12:00,ZGGG 051200Z AUTO 04002KT 6SM 07/06 RMK 60000 SLP199 T00710057 52022 IEM_DS3505
ZGGG,1984-02-05 15:00,ZGGG 051500Z AUTO 36006KT 5SM 07/04 RMK SLP214 T00740041 52015 IEM_DS3505
ZGGG,1984-02-05 18:00,ZGGG 051800Z AUTO 36006KT 6SM 07/03 RMK SLP227 T00730028 40095//// 52013 IEM_DS3505
ZGGG,1984-02-06 00:00,ZGGG 060000Z AUTO 34008KT 9SM 07/01 RMK SLP258 T00680006 52025 IEM_DS3505
ZGGG,1984-02-06 03:00,ZGGG 060300Z AUTO 02010KT 9SM 08/M00 RMK SLP274 T00801001 52016 IEM_DS3505
ZGGG,1984-02-06 06:00,ZGGG 060600Z AUTO 36008KT 9SM 09/M00 RMK SLP251 T00871001 4////0065 57023 IEM_DS3505
ZGGG,1984-02-06 09:00,ZGGG 060900Z AUTO 36010KT 9SM 10/M00 RMK SLP254 T00961001 52003 IEM_DS3505
ZGGG,1984-02-06 12:00,ZGGG 061200Z AUTO 02012KT 9SM 08/M00 RMK T00761001 52019 IEM_DS3505
ZGGG,1984-02-06 15:00,ZGGG 061500Z AUTO 02010KT 9SM 06/M02 RMK SLP281 T00611018 52008 IEM_DS3505
ZGGG,1984-02-06 18:00,ZGGG 061800Z AUTO 36008KT 6SM 05/M02 RMK SLP282 T00481023 40102//// 52001 IEM_DS3505
ZGGG,1984-02-06 21:00,ZGGG 062100Z AUTO 36004KT 6SM 04/M03 RMK SLP281 T00381028 57001 IEM_DS3505
ZGGG,1984-02-07 00:00,ZGGG 070000Z AUTO 06006KT 6SM 04/M04 RMK SLP293 T00351040 52012 IEM_DS3505
ZGGG,1984-02-07 03:00,ZGGG 070300Z AUTO 36010KT 7SM 07/M06 RMK SLP293 T00731058 54000 IEM_DS3505
ZGGG,1984-02-07 05:00,ZGGG 070500Z AUTO 01014KT 7SM 11/M07 A3030 RMK T01101070 IEM_DS3505
ZGGG,1984-02-07 06:00,ZGGG 070600Z AUTO 34008KT 9SM 12/M06 A3024 RMK SLP252 T01171065 57041 IEM_DS3505
ZGGG,1984-02-07 07:00,ZGGG 070700Z AUTO 03014KT 7SM A3021 RMK IEM_DS3505
ZGGG,1984-02-07 08:00,ZGGG 070800Z AUTO 01016KT 7SM 13/M06 A3021 RMK T01301060 IEM_DS3505
ZGGG,1984-02-07 09:00,ZGGG 070900Z AUTO 02008KT 9SM 12/M06 RMK SLP238 T01251065 57014 IEM_DS3505
ZGGG,1984-02-07 12:00,ZGGG 071200Z AUTO 36006KT 6SM 09/M02 RMK SLP243 T00931020 52005 IEM_DS3505
ZGGG,1984-02-07 15:00,ZGGG 071500Z AUTO 02008KT 7SM 08/M04 RMK SLP251 T00821045 52008 IEM_DS3505
ZGGG,1984-02-07 18:00,ZGGG 071800Z AUTO 02006KT 7SM 07/M06 RMK SLP253 T00671055 40129//// 52002 IEM_DS3505
ZGGG,1984-02-07 21:00,ZGGG 072100Z AUTO 02002KT 7SM 04/M03 RMK SLP250 T00401034 57003 IEM_DS3505
ZGGG,1984-02-08 00:00,ZGGG 080000Z AUTO 36004KT 9SM 05/M05 RMK SLP266 T00461048 52016 IEM_DS3505
ZGGG,1984-02-08 03:00,ZGGG 080300Z AUTO 34004KT 9SM 10/M06 RMK SLP262 T00981061 57004 IEM_DS3505
ZGGG,1984-02-08 06:00,ZGGG 080600Z AUTO 34006KT 11SM 14/M06 RMK SLP220 T01371055 4////0028 57042 IEM_DS3505
ZGGG,1984-02-08 09:00,ZGGG 080900Z AUTO 36004KT 9SM 14/M08 RMK SLP203 T01451076 57017 IEM_DS3505
ZGGG,1984-02-08 12:00,ZGGG 081200Z AUTO 00000KT 7SM 12/M03 RMK SLP217 T01231034 52014 IEM_DS3505
ZGGG,1984-02-08 15:00,ZGGG 081500Z AUTO 34004KT 7SM 11/M03 RMK SLP219 T01131028 52002 IEM_DS3505
ZGGG,1984-02-08 18:00,ZGGG 081800Z AUTO 04002KT 7SM 11/M02 RMK SLP214 T01111018 40156//// 57005 IEM_DS3505
ZGGG,1984-02-08 21:00,ZGGG 082100Z AUTO 00000KT 7SM 07/02 RMK SLP213 T00660016 57001 IEM_DS3505
ZGGG,1984-02-09 00:00,ZGGG 090000Z AUTO 00000KT 7SM 07/03 RMK SLP220 T00720026 52007 IEM_DS3505
ZGGG,1984-02-09 03:00,ZGGG 090300Z AUTO 11004KT 6SM 13/04 RMK SLP219 T01260043 57001 IEM_DS3505
ZGGG,1984-02-09 06:00,ZGGG 090600Z AUTO 14004KT 7SM 13/03 RMK SLP192 T01320026 4////0060 57027 IEM_DS3505
ZGGG,1984-02-09 09:00,ZGGG 090900Z AUTO 11004KT 7SM 13/04 RMK SLP180 T01290039 57012 IEM_DS3505
ZGGG,1984-02-09 12:00,ZGGG 091200Z AUTO 07002KT 4SM 12/05 RMK SLP183 T01220051 52003 IEM_DS3505
ZGGG,1984-02-09 15:00,ZGGG 091500Z AUTO 14004KT 3SM 12/05 RMK SLP178 T01170053 57005 IEM_DS3505
ZGGG,1984-02-09 18:00,ZGGG 091800Z AUTO 36004KT 4SM 11/06 RMK 60000 SLP181 T01110059 40138//// 52003 IEM_DS3505
ZGGG,1984-02-09 21:00,ZGGG 092100Z AUTO 02004KT 3SM 09/09 RMK SLP179 T00930086 57002 IEM_DS3505
ZGGG,1984-02-10 00:00,ZGGG 100000Z AUTO 02002KT 2 1/2SM 10/09 RMK 60004 SLP200 T00970091 52021 IEM_DS3505
ZGGG,1984-02-10 03:00,ZGGG 100300Z AUTO 34006KT 2 1/2SM 10/09 RMK SLP211 T00970089 52011 IEM_DS3505
ZGGG,1984-02-10 06:00,ZGGG 100600Z AUTO 02008KT 9SM 10/08 RMK 60008 SLP187 T01050081 4////0092 57024 IEM_DS3505
ZGGG,1984-02-10 09:00,ZGGG 100900Z AUTO 36004KT 10SM 12/08 RMK SLP184 T01160083 57003 IEM_DS3505
ZGGG,1984-02-10 12:00,ZGGG 101200Z AUTO 04004KT 6SM 11/07 RMK SLP195 T01070074 52011 IEM_DS3505
ZGGG,1984-02-10 18:00,ZGGG 101800Z AUTO 36002KT 2 1/2SM 09/08 RMK 60001 SLP199 T00910082 40118//// 57004 IEM_DS3505
ZGGG,1984-02-10 21:00,ZGGG 102100Z AUTO 36004KT 5SM 09/08 RMK SLP188 T00900075 57011 IEM_DS3505
ZGGG,1984-02-11 00:00,ZGGG 110000Z AUTO 36004KT 2 1/2SM 09/08 RMK 60000 SLP210 T00880075 52022 IEM_DS3505
ZGGG,1984-02-11 03:00,ZGGG 110300Z AUTO 34006KT 5SM 10/08 A3012 RMK SLP216 T00990078 52006 IEM_DS3505
ZGGG,1984-02-11 04:00,ZGGG 110400Z AUTO 02008KT 7SM 08/ A3012 RMK IEM_DS3505
ZGGG,1984-02-11 05:00,ZGGG 110500Z AUTO 01008KT 3SM 10/08 A3009 RMK T01000080 IEM_DS3505
ZGGG,1984-02-11 06:00,ZGGG 110600Z AUTO 36002KT 2 1/2SM 11/09 A3006 RMK 60000 SLP186 T01060091 4////0088 57030 IEM_DS3505
ZGGG,1984-02-11 07:00,ZGGG 110700Z AUTO 01010KT 7SM 10/09 A3003 RMK T01000090 IEM_DS3505
ZGGG,1984-02-11 08:00,ZGGG 110800Z AUTO 01010KT 4SM 10/09 A3003 RMK T01000090 IEM_DS3505
ZGGG,1984-02-11 09:00,ZGGG 110900Z AUTO 36004KT 2SM 11/10 A3003 RMK SLP183 T01070095 57003 IEM_DS3505
ZGGG,1984-02-11 10:00,ZGGG 111000Z AUTO 01008KT 2 1/2SM 10/09 A3003 RMK T01000090 IEM_DS3505
ZGGG,1984-02-11 12:00,ZGGG 111200Z AUTO 34002KT 2 1/2SM 10/07 RMK SLP197 T01030069 52014 IEM_DS3505
ZGGG,1984-02-11 15:00,ZGGG 111500Z AUTO 34002KT 4SM 10/09 RMK SLP203 T01050091 52006 IEM_DS3505
ZGGG,1984-02-11 18:00,ZGGG 111800Z AUTO 02006KT 4SM 11/09 RMK SLP198 T01070091 40111//// 57005 IEM_DS3505
ZGGG,1984-02-11 21:00,ZGGG 112100Z AUTO 02004KT 4SM 11/09 RMK SLP194 T01070091 57004 IEM_DS3505
ZGGG,1984-02-12 00:00,ZGGG 120000Z AUTO 36002KT 5SM 11/09 RMK SLP207 T01060091 52013 IEM_DS3505
ZGGG,1984-02-12 03:00,ZGGG 120300Z AUTO 34006KT 5SM 12/10 RMK SLP212 T01150095 52005 IEM_DS3505
ZGGG,1984-02-12 06:00,ZGGG 120600Z AUTO 34004KT 4SM 12/10 RMK SLP180 T01250095 4////0101 57032 IEM_DS3505
ZGGG,1984-02-12 09:00,ZGGG 120900Z AUTO 34004KT 4SM 12/09 RMK SLP170 T01210094 57010 IEM_DS3505
ZGGG,1984-02-12 12:00,ZGGG 121200Z AUTO 29002KT 4SM 12/09 RMK SLP179 T01160094 52009 IEM_DS3505
ZGGG,1984-02-12 15:00,ZGGG 121500Z AUTO 00000KT 3SM 12/10 RMK SLP184 T01150098 52005 IEM_DS3505
ZGGG,1984-02-12 18:00,ZGGG 121800Z AUTO 00000KT 2 1/2SM 11/10 RMK SLP180 T01140103 40127//// 57004 IEM_DS3505
ZGGG,1984-02-12 21:00,ZGGG 122100Z AUTO 36002KT 2 1/2SM 11/11 RMK SLP168 T01100106 57012 IEM_DS3505
ZGGG,1984-02-13 00:00,ZGGG 130000Z AUTO 00000KT 1 1/4SM 11/11 RMK 60001 SLP188 T01110108 52020 IEM_DS3505
ZGGG,1984-02-13 01:00,ZGGG 130100Z AUTO 00000KT 2SM 12/12 RMK 60004 SLP174 T01240119 4////0105 57024 IEM_DS3505
ZGGG,1984-02-13 03:00,ZGGG 130300Z AUTO 00000KT 2SM 12/12 RMK SLP198 T01240116 52010 IEM_DS3505
ZGGG,1984-02-13 06:00,ZGGG 130600Z AUTO 00000KT 2SM 12/12 RMK 60004 SLP174 T01240119 4////0105 57024 IEM_DS3505
ZGGG,1984-02-13 09:00,ZGGG 130900Z AUTO 27006KT 2SM 13/12 RMK SLP165 T01310122 57009 IEM_DS3505
ZGGG,1984-02-13 12:00,ZGGG 131200Z AUTO 00000KT 2SM 13/12 RMK SLP176 T01290116 52011 IEM_DS3505
ZGGG,1984-02-13 15:00,ZGGG 131500Z AUTO 36004KT 2SM 13/11 RMK SLP187 T01310112 52011 IEM_DS3505
ZGGG,1984-02-13 18:00,ZGGG 131800Z AUTO 00000KT 3SM 13/11 RMK SLP186 T01280108 40134//// 57001 IEM_DS3505
ZGGG,1984-02-13 21:00,ZGGG 132100Z AUTO 04004KT 4SM 12/10 RMK SLP186 T01230101 54000 IEM_DS3505
ZGGG,1984-02-14 00:00,ZGGG 140000Z AUTO 36006KT 4SM 11/10 RMK 60000 SLP217 T01080096 52031 IEM_DS3505
ZGGG,1984-02-14 03:00,ZGGG 140300Z AUTO 36006KT 11SM 12/09 RMK SLP227 T01200086 52010 IEM_DS3505
ZGGG,1984-02-14 06:00,ZGGG 140600Z AUTO 02006KT 10SM 13/08 RMK SLP215 T01280080 4////0107 57012 IEM_DS3505
ZGGG,1984-02-14 09:00,ZGGG 140900Z AUTO 02004KT 11SM 13/08 RMK SLP198 T01270085 57017 IEM_DS3505
ZGGG,1984-02-14 12:00,ZGGG 141200Z AUTO 34006KT 10SM 12/07 RMK SLP200 T01170074 52002 IEM_DS3505
ZGGG,1984-02-14 15:00,ZGGG 141500Z AUTO 36004KT 9SM 12/07 RMK SLP203 T01150074 52003 IEM_DS3505
ZGGG,1984-02-14 18:00,ZGGG 141800Z AUTO 36002KT 7SM 11/06 RMK SLP200 T01120065 40132//// 57003 IEM_DS3505
ZGGG,1984-02-14 21:00,ZGGG 142100Z AUTO 36002KT 7SM 11/06 RMK SLP199 T01110062 57001 IEM_DS3505
ZGGG,1984-02-15 00:00,ZGGG 150000Z AUTO 36004KT 7SM 11/07 RMK SLP210 T01070071 52011 IEM_DS3505
ZGGG,1984-02-15 03:00,ZGGG 150300Z AUTO 00000KT 7SM 12/07 RMK SLP222 T01170074 52012 IEM_DS3505
ZGGG,1984-02-15 06:00,ZGGG 150600Z AUTO 34004KT 7SM 13/08 RMK SLP188 T01290083 4////0106 57034 IEM_DS3505
ZGGG,1984-02-15 09:00,ZGGG 150900Z AUTO 29004KT 6SM 14/09 RMK SLP167 T01430090 57021 IEM_DS3505
ZGGG,1984-02-15 12:00,ZGGG 151200Z AUTO 00000KT 5SM 13/10 RMK SLP182 T01290096 52015 IEM_DS3505
ZGGG,1984-02-15 15:00,ZGGG 151500Z AUTO 27002KT 5SM 13/10 RMK SLP182 T01260101 54000 IEM_DS3505
ZGGG,1984-02-15 18:00,ZGGG 151800Z AUTO 00000KT 4SM 12/10 RMK SLP176 T01240103 57006 IEM_DS3505
ZGGG,1984-02-15 21:00,ZGGG 152100Z AUTO 00000KT 4SM 12/11 RMK SLP159 T01250106 57017 IEM_DS3505
ZGGG,1984-02-16 00:00,ZGGG 160000Z AUTO 00000KT 2SM 12/11 RMK 60000 SLP170 T01210112 52011 IEM_DS3505
ZGGG,1984-02-16 03:00,ZGGG 160300Z AUTO 09006KT 2SM 14/12 RMK SLP166 T01440120 57004 IEM_DS3505
ZGGG,1984-02-16 06:00,ZGGG 160600Z AUTO 16004KT 2 1/2SM 16/12 RMK 60000 SLP135 T01640121 4////0119 57031 IEM_DS3505
ZGGG,1984-02-16 09:00,ZGGG 160900Z AUTO 16004KT 2 1/2SM 17/14 RMK SLP117 T01660136 57018 IEM_DS3505
ZGGG,1984-02-16 12:00,ZGGG 161200Z AUTO 14002KT 2 1/2SM 16/14 RMK SLP117 T01600143 54000 IEM_DS3505
ZGGG,1984-02-16 15:00,ZGGG 161500Z AUTO 00000KT 2SM 15/15 RMK SLP132 T01520147 52015 IEM_DS3505
ZGGG,1984-02-16 18:00,ZGGG 161800Z AUTO 00000KT 2SM 15/14 RMK 60004 SLP139 T01500145 40168//// 52007 IEM_DS3505
ZGGG,1984-02-16 21:00,ZGGG 162100Z AUTO 00000KT 2SM 15/14 RMK SLP130 T01490144 57009 IEM_DS3505
ZGGG,1984-02-17 00:00,ZGGG 170000Z AUTO 00000KT 1 1/4SM 15/15 RMK 60002 SLP153 T01510148 52023 IEM_DS3505
ZGGG,1984-02-17 03:00,ZGGG 170300Z AUTO 34008KT 1 1/4SM 16/15 RMK SLP170 T01560151 52017 IEM_DS3505
ZGGG,1984-02-17 06:00,ZGGG 170600Z AUTO 02010KT 7SM 15/12 RMK 60000 SLP170 T01470115 4////0145 54000 IEM_DS3505
ZGGG,1984-02-17 09:00,ZGGG 170900Z AUTO 02010KT 9SM 14/09 RMK SLP185 T01410088 52015 IEM_DS3505
ZGGG,1984-02-17 12:00,ZGGG 171200Z AUTO 34004KT 4SM 13/06 RMK 60002 T01300064 52022 IEM_DS3505
ZGGG,1984-02-17 15:00,ZGGG 171500Z AUTO 36006KT 4SM 12/06 RMK SLP225 T01210057 52018 IEM_DS3505
ZGGG,1984-02-17 18:00,ZGGG 171800Z AUTO 36006KT 6SM 11/04 RMK SLP232 T01130044 40160//// 52007 IEM_DS3505
ZGGG,1984-02-17 21:00,ZGGG 172100Z AUTO 02002KT 6SM 11/04 RMK SLP231 T01060039 57001 IEM_DS3505
ZGGG,1984-02-18 00:00,ZGGG 180000Z AUTO 02004KT 6SM 11/03 RMK SLP248 T01060030 52017 IEM_DS3505
ZGGG,1984-02-18 03:00,ZGGG 180300Z AUTO 36006KT 6SM 11/03 A3027 RMK SLP259 T01120030 52011 IEM_DS3505
ZGGG,1984-02-18 04:00,ZGGG 180400Z AUTO 01014KT 7SM 11/03 A3024 RMK T01100030 IEM_DS3505
ZGGG,1984-02-18 05:00,ZGGG 180500Z AUTO 36012KT 7SM 12/03 A3021 RMK T01200030 IEM_DS3505
ZGGG,1984-02-18 06:00,ZGGG 180600Z AUTO 02004KT 6SM 11/03 A3018 RMK SLP248 T01060030 52017 IEM_DS3505
ZGGG,1984-02-18 07:00,ZGGG 180700Z AUTO 01012KT 6SM 12/03 A3018 RMK T01200030 IEM_DS3505
ZGGG,1984-02-18 09:00,ZGGG 180900Z AUTO 36006KT 7SM 12/04 A3015 RMK SLP221 T01210039 57011 IEM_DS3505
ZGGG,1984-02-18 10:00,ZGGG 181000Z AUTO 00000KT 7SM 12/05 A3015 RMK T01200050 IEM_DS3505
ZGGG,1984-02-18 12:00,ZGGG 181200Z AUTO 00000KT 2 1/2SM 12/06 RMK SLP224 T01170062 52003 IEM_DS3505
ZGGG,1984-02-18 15:00,ZGGG 181500Z AUTO 00000KT 4SM 12/07 RMK SLP225 T01150069 52001 IEM_DS3505
ZGGG,1984-02-18 18:00,ZGGG 181800Z AUTO 00000KT 5SM 11/06 RMK SLP216 T01130062 40131//// 57009 IEM_DS3505
ZGGG,1984-02-18 21:00,ZGGG 182100Z AUTO 00000KT 2 1/2SM 11/07 RMK SLP213 T01110071 57003 IEM_DS3505
ZGGG,1984-02-19 00:00,ZGGG 190000Z AUTO 00000KT 6SM 11/08 RMK SLP227 T01090082 52014 IEM_DS3505
ZGGG,1984-02-19 03:00,ZGGG 190300Z AUTO 07004KT 6SM 13/08 RMK SLP232 T01330083 52005 IEM_DS3505
ZGGG,1984-02-19 06:00,ZGGG 190600Z AUTO 11002KT 4SM 14/08 RMK SLP200 T01440085 4////0106 57032 IEM_DS3505
ZGGG,1984-02-19 09:00,ZGGG 190900Z AUTO 00000KT 2 1/2SM 15/09 RMK SLP186 T01480091 57014 IEM_DS3505
ZGGG,1984-02-19 12:00,ZGGG 191200Z AUTO 29002KT 3SM 14/10 RMK SLP191 T01370096 52005 IEM_DS3505
ZGGG,1984-02-19 15:00,ZGGG 191500Z AUTO 34002KT 3SM 13/10 RMK SLP198 T01330100 52007 IEM_DS3505
ZGGG,1984-02-19 18:00,ZGGG 191800Z AUTO 00000KT 3SM 13/11 RMK SLP195 T01290108 40151//// 57003 IEM_DS3505
ZGGG,1984-02-19 21:00,ZGGG 192100Z AUTO 00000KT 3SM 12/11 RMK SLP187 T01250112 57008 IEM_DS3505
ZGGG,1984-02-20 00:00,ZGGG 200000Z AUTO 00000KT 4SM 13/12 RMK SLP200 T01300115 52013 IEM_DS3505
ZGGG,1984-02-20 03:00,ZGGG 200300Z AUTO 00000KT 4SM 16/12 RMK SLP203 T01600120 52003 IEM_DS3505
ZGGG,1984-02-20 06:00,ZGGG 200600Z AUTO 09002KT 4SM 20/13 RMK SLP166 T01960131 4////0123 57037 IEM_DS3505
ZGGG,1984-02-20 09:00,ZGGG 200900Z AUTO 32004KT 4SM 20/14 RMK SLP151 T01950138 57015 IEM_DS3505
ZGGG,1984-02-20 12:00,ZGGG 201200Z AUTO 00000KT 3SM 17/14 RMK T01740141 52003 IEM_DS3505
ZGGG,1984-02-20 15:00,ZGGG 201500Z AUTO 00000KT 5SM 17/15 RMK SLP165 T01680146 52011 IEM_DS3505
ZGGG,1984-02-20 18:00,ZGGG 201800Z AUTO 11004KT 4SM 17/14 RMK SLP158 T01680144 40211//// 57007 IEM_DS3505
ZGGG,1984-02-20 21:00,ZGGG 202100Z AUTO 09004KT 4SM 16/14 RMK SLP150 T01560142 57008 IEM_DS3505
ZGGG,1984-02-21 00:00,ZGGG 210000Z AUTO 00000KT 7SM 16/13 RMK SLP165 T01620134 52015 IEM_DS3505
ZGGG,1984-02-21 03:00,ZGGG 210300Z AUTO 11006KT 7SM 20/14 RMK SLP161 T01960137 57004 IEM_DS3505
ZGGG,1984-02-21 04:00,ZGGG 210400Z AUTO 16012KT 7SM 20/14 A2997 RMK T02000140 IEM_DS3505
ZGGG,1984-02-21 05:00,ZGGG 210500Z AUTO 16010KT 7SM 20/14 RMK T02000140 IEM_DS3505
ZGGG,1984-02-21 06:00,ZGGG 210600Z AUTO 16006KT 9SM 19/14 A2988 RMK SLP131 T01920144 4////0153 57030 IEM_DS3505
ZGGG,1984-02-21 07:00,ZGGG 210700Z AUTO 16010KT 7SM 19/15 A2985 RMK T01900150 IEM_DS3505
ZGGG,1984-02-21 08:00,ZGGG 210800Z AUTO 16010KT 7SM 20/15 A2985 RMK T02000150 IEM_DS3505
ZGGG,1984-02-21 09:00,ZGGG 210900Z AUTO 18006KT 7SM 20/15 A2983 RMK SLP116 T01970153 57015 IEM_DS3505
ZGGG,1984-02-21 12:00,ZGGG 211200Z AUTO 00000KT 7SM 19/16 RMK SLP130 T01880160 52014 IEM_DS3505
ZGGG,1984-02-21 15:00,ZGGG 211500Z AUTO 00000KT 6SM 18/16 RMK SLP133 T01800162 52003 IEM_DS3505
ZGGG,1984-02-21 18:00,ZGGG 211800Z AUTO 00000KT 4SM 17/16 RMK SLP127 T01740161 40205//// 57006 IEM_DS3505
ZGGG,1984-02-21 21:00,ZGGG 212100Z AUTO 11002KT 4SM 18/16 RMK SLP120 T01750162 57007 IEM_DS3505
ZGGG,1984-02-22 00:00,ZGGG 220000Z AUTO 14006KT 2 1/2SM 18/17 RMK SLP142 T01830168 52022 IEM_DS3505
ZGGG,1984-02-22 03:00,ZGGG 220300Z AUTO 14006KT 4SM 21/18 RMK SLP141 T02100176 57001 IEM_DS3505
ZGGG,1984-02-22 06:00,ZGGG 220600Z AUTO 18010KT 7SM 24/19 RMK SLP115 T02400187 4////0170 57026 IEM_DS3505
ZGGG,1984-02-22 09:00,ZGGG 220900Z AUTO 18006KT 7SM 24/19 RMK SLP112 T02360191 57003 IEM_DS3505
ZGGG,1984-02-22 12:00,ZGGG 221200Z AUTO 14002KT 5SM 21/19 RMK SLP129 T02130191 52017 IEM_DS3505
ZGGG,1984-02-22 15:00,ZGGG 221500Z AUTO 00000KT 2 1/2SM 20/19 RMK SLP138 T02050188 52009 IEM_DS3505
ZGGG,1984-02-22 18:00,ZGGG 221800Z AUTO 00000KT 4SM 20/19 RMK SLP138 T01960186 52009 IEM_DS3505
ZGGG,1984-02-22 21:00,ZGGG 222100Z AUTO 00000KT 4SM 19/18 RMK SLP135 T01930185 57003 IEM_DS3505
ZGGG,1984-02-23 00:00,ZGGG 230000Z AUTO 00000KT 2SM 20/18 RMK SLP147 T01960185 52012 IEM_DS3505
ZGGG,1984-02-23 03:00,ZGGG 230300Z AUTO 36006KT 6SM 18/14 RMK SLP162 T01760143 52015 IEM_DS3505
ZGGG,1984-02-23 06:00,ZGGG 230600Z AUTO 20004KT 6SM 24/17 RMK T02410167 4////0172 57036 IEM_DS3505
ZGGG,1984-02-23 09:00,ZGGG 230900Z AUTO 36004KT 7SM 24/16 RMK SLP118 T02400157 57008 IEM_DS3505
ZGGG,1984-02-23 12:00,ZGGG 231200Z AUTO 36006KT 4SM 18/13 RMK SLP137 T01840127 52019 IEM_DS3505
ZGGG,1984-02-23 15:00,ZGGG 231500Z AUTO 22002KT 4SM 18/13 RMK SLP146 T01810134 52009 IEM_DS3505
ZGGG,1984-02-23 18:00,ZGGG 231800Z AUTO 00000KT 4SM 17/13 RMK SLP146 T01700133 40250//// 54000 IEM_DS3505
ZGGG,1984-02-23 21:00,ZGGG 232100Z AUTO 36006KT 4SM 17/13 RMK SLP149 T01680127 52003 IEM_DS3505
ZGGG,1984-02-24 00:00,ZGGG 240000Z AUTO 34004KT 7SM 17/12 RMK SLP167 T01660125 52018 IEM_DS3505
ZGGG,1984-02-24 03:00,ZGGG 240300Z AUTO 00000KT 7SM 20/14 RMK SLP175 T01980140 52008 IEM_DS3505
ZGGG,1984-02-24 06:00,ZGGG 240600Z AUTO 16004KT 4SM 21/16 RMK SLP147 T02130160 4////0162 57028 IEM_DS3505
ZGGG,1984-02-24 09:00,ZGGG 240900Z AUTO 25002KT 2 1/2SM 22/17 RMK T02200170 57006 IEM_DS3505
ZGGG,1984-02-24 12:00,ZGGG 241200Z AUTO 18004KT 3SM 20/17 RMK SLP153 T02040173 52012 IEM_DS3505
ZGGG,1984-02-24 15:00,ZGGG 241500Z AUTO 00000KT 2 1/2SM 19/17 RMK SLP164 T01940169 52011 IEM_DS3505
ZGGG,1984-02-24 18:00,ZGGG 241800Z AUTO 00000KT 2 1/2SM 19/17 RMK SLP160 T01890169 40233//// 57004 IEM_DS3505
ZGGG,1984-02-24 21:00,ZGGG 242100Z AUTO 36004KT 2 1/2SM 18/16 RMK SLP153 T01760163 57007 IEM_DS3505
ZGGG,1984-02-25 00:00,ZGGG 250000Z AUTO 00000KT 2 1/2SM 28/16 RMK SLP176 T02820165 52023 IEM_DS3505
ZGGG,1984-02-25 01:00,ZGGG 250100Z AUTO 03008KT 1 1/2SM A3003 RMK IEM_DS3505
ZGGG,1984-02-25 02:00,ZGGG 250200Z AUTO 01010KT 2SM 17/15 A3006 RMK T01700150 IEM_DS3505
ZGGG,1984-02-25 03:00,ZGGG 250300Z AUTO 02006KT 5SM 18/15 A3006 RMK SLP192 T01820149 52016 IEM_DS3505
ZGGG,1984-02-25 04:00,ZGGG 250400Z AUTO 03010KT 4SM 17/13 A3003 RMK T01700130 IEM_DS3505
ZGGG,1984-02-25 05:00,ZGGG 250500Z AUTO 35012KT 4SM 17/13 A3003 RMK T01700130 IEM_DS3505
ZGGG,1984-02-25 06:00,ZGGG 250600Z AUTO 34004KT 5SM 18/13 RMK SLP171 T01760134 4////0174 57021 IEM_DS3505
ZGGG,1984-02-25 07:00,ZGGG 250700Z AUTO 36014KT 6SM RMK IEM_DS3505
ZGGG,1984-02-25 08:00,ZGGG 250800Z AUTO 35014KT 1 1/2SM 13/12 A3000 RMK T01300120 IEM_DS3505
ZGGG,1984-02-25 09:00,ZGGG 250900Z AUTO 32010KT 4SM 15/12 A3000 RMK SLP173 T01500119 52002 IEM_DS3505
ZGGG,1984-02-25 12:00,ZGGG 251200Z AUTO 29004KT 3SM 13/10 RMK SLP192 T01330104 52019 IEM_DS3505
ZGGG,1984-02-25 15:00,ZGGG 251500Z AUTO 34004KT 3SM 13/09 RMK SLP206 T01270094 52014 IEM_DS3505
ZGGG,1984-02-25 18:00,ZGGG 251800Z AUTO 02008KT 5SM 12/08 RMK SLP212 T01190085 40193//// 52006 IEM_DS3505
ZGGG,1984-02-25 21:00,ZGGG 252100Z AUTO 36010KT 6SM 11/07 RMK SLP219 T01080069 52007 IEM_DS3505
ZGGG,1984-02-26 00:00,ZGGG 260000Z AUTO 36008KT 9SM 11/06 RMK SLP237 T01100056 52018 IEM_DS3505
ZGGG,1984-02-26 03:00,ZGGG 260300Z AUTO 36010KT 9SM 13/05 RMK SLP245 T01280046 52008 IEM_DS3505
ZGGG,1984-02-26 06:00,ZGGG 260600Z AUTO 36008KT 11SM 16/06 RMK SLP212 T01640059 4////0105 57033 IEM_DS3505
ZGGG,1984-02-26 09:00,ZGGG 260900Z AUTO 34010KT 9SM 16/05 RMK SLP207 T01590054 57005 IEM_DS3505
ZGGG,1984-02-26 12:00,ZGGG 261200Z AUTO 34004KT 7SM 14/05 RMK SLP217 T01390046 52010 IEM_DS3505
ZGGG,1984-02-26 15:00,ZGGG 261500Z AUTO 36006KT 6SM 14/03 RMK SLP223 T01350030 52006 IEM_DS3505
ZGGG,1984-02-26 18:00,ZGGG 261800Z AUTO 02004KT 4SM RMK SLP220 57003 IEM_DS3505
ZGGG,1984-02-26 21:00,ZGGG 262100Z AUTO 02004KT 4SM 12/03 RMK SLP220 T01250030 57005 IEM_DS3505
ZGGG,1984-02-27 00:00,ZGGG 270000Z AUTO 02004KT 6SM 12/04 RMK SLP233 T01230036 52013 IEM_DS3505
ZGGG,1984-02-27 03:00,ZGGG 270300Z AUTO 02002KT 6SM 14/05 RMK SLP237 T01410046 52004 IEM_DS3505
ZGGG,1984-02-27 06:00,ZGGG 270600Z AUTO 36006KT 5SM 15/04 RMK SLP212 T01480043 4////0121 57025 IEM_DS3505
ZGGG,1984-02-27 09:00,ZGGG 270900Z AUTO 02002KT 4SM 15/05 RMK SLP195 T01510049 57017 IEM_DS3505
ZGGG,1984-02-27 12:00,ZGGG 271200Z AUTO 02004KT 4SM 13/04 RMK SLP205 T01340043 52010 IEM_DS3505
ZGGG,1984-02-27 15:00,ZGGG 271500Z AUTO 36004KT 4SM 13/05 RMK SLP214 T01300053 52009 IEM_DS3505
ZGGG,1984-02-27 18:00,ZGGG 271800Z AUTO 04004KT 3SM 12/06 RMK SLP214 T01250057 40152//// 54000 IEM_DS3505
ZGGG,1984-02-27 21:00,ZGGG 272100Z AUTO 34006KT 2 1/2SM 10/08 RMK SLP210 T01040081 57004 IEM_DS3505
ZGGG,1984-02-28 00:00,ZGGG 280000Z AUTO 36006KT 4SM 10/07 RMK SLP236 T01020068 52026 IEM_DS3505
ZGGG,1984-02-28 01:00,ZGGG 280100Z AUTO 36008KT 4SM 10/08 A3021 RMK T01000080 IEM_DS3505
ZGGG,1984-02-28 02:00,ZGGG 280200Z AUTO 01012KT 4SM 10/08 A3024 RMK T01000080 IEM_DS3505
ZGGG,1984-02-28 03:00,ZGGG 280300Z AUTO 36004KT 2SM 10/08 A3024 RMK SLP252 T00960077 52016 IEM_DS3505
ZGGG,1984-02-28 04:00,ZGGG 280400Z AUTO 36014KT 2SM 09/09 A3024 RMK T00900090 IEM_DS3505
ZGGG,1984-02-28 05:00,ZGGG 280500Z AUTO 02014KT 7SM 10/08 A3021 RMK T01000080 IEM_DS3505
ZGGG,1984-02-28 06:00,ZGGG 280600Z AUTO 02006KT 7SM 09/09 A3018 RMK 60001 SLP237 T00920086 4////0091 57015 IEM_DS3505
ZGGG,1984-02-28 07:00,ZGGG 280700Z AUTO 35016KT 7SM 10/09 A3018 RMK T01000090 IEM_DS3505
ZGGG,1984-02-28 08:00,ZGGG 280800Z AUTO 01016KT 5SM 09/ A3018 RMK IEM_DS3505
ZGGG,1984-02-28 09:00,ZGGG 280900Z AUTO 36006KT 9SM 10/07 A3018 RMK SLP230 T00970069 57007 IEM_DS3505
ZGGG,1984-02-28 12:00,ZGGG 281200Z AUTO 36006KT 9SM 10/06 RMK 60000 SLP248 T00990065 52018 IEM_DS3505
ZGGG,1984-02-28 15:00,ZGGG 281500Z AUTO 36008KT 9SM 09/04 RMK SLP267 T00920043 52019 IEM_DS3505
ZGGG,1984-02-28 18:00,ZGGG 281800Z AUTO 04008KT 3SM 08/03 RMK SLP268 T00810032 40126//// 52001 IEM_DS3505
ZGGG,1984-02-28 21:00,ZGGG 282100Z AUTO 02008KT 3SM 08/01 RMK SLP261 T00760006 57007 IEM_DS3505
ZGGG,1984-02-29 00:00,ZGGG 290000Z AUTO 36004KT 7SM 08/M02 RMK SLP275 T00811020 52014 IEM_DS3505
ZGGG,1984-02-29 03:00,ZGGG 290300Z AUTO 02006KT 7SM 10/M04 RMK SLP277 T01041037 52002 IEM_DS3505
ZGGG,1984-02-29 06:00,ZGGG 290600Z AUTO 02006KT 7SM 13/M04 RMK SLP243 T01311045 4////0074 57034 IEM_DS3505
ZGGG,1984-02-29 09:00,ZGGG 290900Z AUTO 36006KT 7SM 12/M04 RMK SLP235 T01171037 57008 IEM_DS3505
ZGGG,1984-02-29 12:00,ZGGG 291200Z AUTO 36006KT 6SM 11/M01 RMK SLP243 T01111006 52008 IEM_DS3505
ZGGG,1984-02-29 15:00,ZGGG 291500Z AUTO 36006KT 6SM 11/M00 RMK SLP256 T01101001 52013 IEM_DS3505
ZGGG,1984-02-29 18:00,ZGGG 291800Z AUTO 36010KT 6SM 10/M01 RMK SLP265 T01051013 40138//// 52009 IEM_DS3505
ZGGG,1984-02-29 21:00,ZGGG 292100Z AUTO 36008KT 6SM 09/01 RMK SLP254 T00870010 57011 IEM_DS3505
ZGGG,1984-03-01 00:00,ZGGG 010000Z AUTO 34008KT 6SM 08/01 RMK SLP271 T00810014 52017 IEM_DS3505
ZGGG,1984-03-01 03:00,ZGGG 010300Z AUTO 34004KT 6SM 08/05 RMK SLP279 T00760046 52008 IEM_DS3505
ZGGG,1984-03-01 06:00,ZGGG 010600Z AUTO 02006KT 7SM 10/00 RMK 60000 SLP247 T01020004 4////0068 57032 IEM_DS3505
ZGGG,1984-03-01 09:00,ZGGG 010900Z AUTO 34006KT 4SM 10/01 RMK SLP234 T01010012 57013 IEM_DS3505
ZGGG,1984-03-01 12:00,ZGGG 011200Z AUTO 36002KT 6SM 10/02 RMK 60000 SLP249 T00990018 52015 IEM_DS3505
ZGGG,1984-03-01 15:00,ZGGG 011500Z AUTO 02004KT 6SM 10/02 RMK SLP269 T01000016 52020 IEM_DS3505
ZGGG,1984-03-01 18:00,ZGGG 011800Z AUTO 00000KT 7SM 08/01 RMK SLP262 T00770010 40107//// 57007 IEM_DS3505
ZGGG,1984-03-01 21:00,ZGGG 012100Z AUTO 00000KT 7SM 05/M00 RMK SLP251 T00521001 57011 IEM_DS3505
ZGGG,1984-03-02 00:00,ZGGG 020000Z AUTO 02004KT 9SM 05/02 RMK SLP257 T00480018 52006 IEM_DS3505
ZGGG,1984-03-02 03:00,ZGGG 020300Z AUTO 00000KT 7SM 15/M04 RMK SLP255 T01531039 57002 IEM_DS3505
ZGGG,1984-03-02 06:00,ZGGG 020600Z AUTO 27008KT 9SM 19/M03 RMK SLP217 T01931031 4////0034 57038 IEM_DS3505
ZGGG,1984-03-02 09:00,ZGGG 020900Z AUTO 20004KT 9SM 20/M03 RMK SLP199 T01951031 57018 IEM_DS3505
ZGGG,1984-03-02 12:00,ZGGG 021200Z AUTO 00000KT 3SM 15/05 RMK SLP213 T01510053 52014 IEM_DS3505
ZGGG,1984-03-02 15:00,ZGGG 021500Z AUTO 00000KT 3SM 14/05 RMK SLP228 T01430049 52015 IEM_DS3505
ZGGG,1984-03-02 18:00,ZGGG 021800Z AUTO 00000KT 4SM 14/07 RMK SLP226 T01360068 40205//// 57002 IEM_DS3505
ZGGG,1984-03-02 21:00,ZGGG 022100Z AUTO 00000KT 4SM 11/07 RMK SLP226 T01140072 54000 IEM_DS3505
ZGGG,1984-03-03 00:00,ZGGG 030000Z AUTO 00000KT 7SM 10/07 RMK SLP248 T01010069 52022 IEM_DS3505
ZGGG,1984-03-03 03:00,ZGGG 030300Z AUTO 02002KT 9SM 17/M01 A3024 RMK SLP254 T01701013 52006 IEM_DS3505
ZGGG,1984-03-03 04:00,ZGGG 030400Z AUTO 36014KT 6SM 19/M02 A3024 RMK T01901020 IEM_DS3505
ZGGG,1984-03-03 05:00,ZGGG 030500Z AUTO 36010KT 6SM 20/M02 A3021 RMK T02001020 IEM_DS3505
ZGGG,1984-03-03 06:00,ZGGG 030600Z AUTO 09006KT 9SM 22/M04 A3015 RMK SLP220 T02171042 4////0090 57034 IEM_DS3505
ZGGG,1984-03-03 07:00,ZGGG 030700Z AUTO 34010KT 7SM 23/M03 A3012 RMK T02301030 IEM_DS3505
ZGGG,1984-03-03 08:00,ZGGG 030800Z AUTO 00000KT 6SM 22/M01 A3009 RMK T02201010 IEM_DS3505
ZGGG,1984-03-03 09:00,ZGGG 030900Z AUTO 14002KT 8SM 22/00 A3009 RMK SLP203 T02160001 IEM_DS3505
ZGGG,1984-03-03 10:00,ZGGG 031000Z AUTO 00000KT 6SM 20/03 A3009 RMK T02000030 IEM_DS3505
ZGGG,1984-03-03 12:00,ZGGG 031200Z AUTO 00000KT 3SM 17/05 RMK SLP217 T01690053 52014 IEM_DS3505
ZGGG,1984-03-03 15:00,ZGGG 031500Z AUTO 11002KT 2 1/2SM 16/08 RMK SLP231 T01580080 52014 IEM_DS3505
ZGGG,1984-03-03 17:00,ZGGG 031700Z AUTO 00000KT 5SM 12/08 RMK SLP231 T01210075 40228//// 54000 IEM_DS3505
ZGGG,1984-03-03 18:00,ZGGG 031800Z AUTO 00000KT 5SM 12/08 RMK SLP231 T01210075 40228//// 54000 IEM_DS3505
ZGGG,1984-03-03 21:00,ZGGG 032100Z AUTO 00000KT 2 1/2SM 10/07 RMK SLP233 T00990069 52002 IEM_DS3505
ZGGG,1984-03-04 00:00,ZGGG 040000Z AUTO 00000KT 4SM 10/07 RMK SLP243 T00960071 52010 IEM_DS3505
ZGGG,1984-03-04 03:00,ZGGG 040300Z AUTO 14002KT 4SM 19/03 RMK SLP239 T01860030 57004 IEM_DS3505
ZGGG,1984-03-04 06:00,ZGGG 040600Z AUTO 14006KT 5SM 21/01 RMK SLP205 T02110014 4////0087 57034 IEM_DS3505
ZGGG,1984-03-04 09:00,ZGGG 040900Z AUTO 22004KT 5SM 21/02 RMK SLP187 T02100022 57018 IEM_DS3505
ZGGG,1984-03-04 12:00,ZGGG 041200Z AUTO 00000KT 4SM 18/08 RMK SLP200 T01810082 52013 IEM_DS3505
ZGGG,1984-03-04 15:00,ZGGG 041500Z AUTO 00000KT 4SM 16/08 RMK SLP213 T01630085 52013 IEM_DS3505
ZGGG,1984-03-04 18:00,ZGGG 041800Z AUTO 00000KT 4SM 15/10 RMK SLP206 T01540099 40220//// 57007 IEM_DS3505
ZGGG,1984-03-04 21:00,ZGGG 042100Z AUTO 00000KT 4SM 15/10 RMK SLP195 T01480099 57011 IEM_DS3505
ZGGG,1984-03-05 00:00,ZGGG 050000Z AUTO 00000KT 4SM 15/10 RMK SLP208 T01470101 52013 IEM_DS3505
ZGGG,1984-03-05 03:00,ZGGG 050300Z AUTO 14004KT 4SM 17/08 RMK SLP210 T01740083 52002 IEM_DS3505
ZGGG,1984-03-05 06:00,ZGGG 050600Z AUTO 09004KT 4SM 19/07 RMK SLP180 T01900072 4////0143 57030 IEM_DS3505
ZGGG,1984-03-05 09:00,ZGGG 050900Z AUTO 07006KT 4SM 19/08 RMK SLP164 T01880082 57016 IEM_DS3505
ZGGG,1984-03-05 12:00,ZGGG 051200Z AUTO 02002KT 4SM 17/07 RMK T01720072 52014 IEM_DS3505
ZGGG,1984-03-05 15:00,ZGGG 051500Z AUTO 07004KT 4SM 16/07 RMK SLP182 T01630074 52004 IEM_DS3505
ZGGG,1984-03-05 18:00,ZGGG 051800Z AUTO 09002KT 2 1/2SM 16/09 RMK SLP176 T01560088 40195//// 57006 IEM_DS3505
ZGGG,1984-03-05 21:00,ZGGG 052100Z AUTO 04004KT 3SM 15/08 RMK SLP166 T01530085 57010 IEM_DS3505
ZGGG,1984-03-05 22:00,ZGGG 052200Z AUTO 00000KT 6SM 14/10 A3000 RMK T01400100 IEM_DS3505
ZGGG,1984-03-05 23:00,ZGGG 052300Z AUTO 00000KT 4SM 14/11 RMK T01400110 IEM_DS3505
ZGGG,1984-03-06 00:00,ZGGG 060000Z AUTO 09002KT 6SM 15/09 A3006 RMK SLP174 T01500091 52008 IEM_DS3505
ZGGG,1984-03-06 01:00,ZGGG 060100Z AUTO 34004KT 5SM A3006 RMK IEM_DS3505
ZGGG,1984-03-06 02:00,ZGGG 060200Z AUTO 01002KT 4SM 15/10 A3009 RMK T01500100 IEM_DS3505
ZGGG,1984-03-06 03:00,ZGGG 060300Z AUTO 11006KT 6SM 16/09 A3006 RMK SLP176 T01620089 52002 IEM_DS3505
ZGGG,1984-03-06 04:00,ZGGG 060400Z AUTO 34004KT 5SM 16/10 A3000 RMK T01600100 IEM_DS3505
ZGGG,1984-03-06 05:00,ZGGG 060500Z AUTO 00000KT 6SM 18/10 A2997 RMK T01800100 IEM_DS3505
ZGGG,1984-03-06 06:00,ZGGG 060600Z AUTO 14002KT 7SM 18/09 RMK SLP150 T01790091 57026 IEM_DS3505
ZGGG,1984-03-06 07:00,ZGGG 060700Z AUTO 00000KT 3SM 17/11 A2991 RMK T01700110 IEM_DS3505
ZGGG,1984-03-06 08:00,ZGGG 060800Z AUTO 35004KT 3SM 17/11 A2994 RMK T01700110 IEM_DS3505
ZGGG,1984-03-06 09:00,ZGGG 060900Z AUTO 34002KT 4SM 17/11 RMK SLP143 T01670107 57007 IEM_DS3505
ZGGG,1984-03-06 12:00,ZGGG 061200Z AUTO 36004KT 4SM 16/11 RMK SLP150 T01590111 52007 IEM_DS3505
ZGGG,1984-03-06 15:00,ZGGG 061500Z AUTO 00000KT 4SM 16/12 RMK SLP159 T01570115 52009 IEM_DS3505
ZGGG,1984-03-06 18:00,ZGGG 061800Z AUTO 00000KT 2 1/2SM 15/13 RMK SLP156 T01510126 40180//// 57003 IEM_DS3505
ZGGG,1984-03-06 21:00,ZGGG 062100Z AUTO 34004KT 2 1/2SM 14/13 RMK SLP156 T01350128 54000 IEM_DS3505
ZGGG,1984-03-07 00:00,ZGGG 070000Z AUTO 02002KT 2 1/2SM 13/12 RMK 60004 SLP174 T01310124 52018 IEM_DS3505
ZGGG,1984-03-07 03:00,ZGGG 070300Z AUTO 34004KT 4SM 13/12 RMK SLP184 T01300117 52010 IEM_DS3505
ZGGG,1984-03-07 06:00,ZGGG 070600Z AUTO 02006KT 5SM 14/12 RMK 60008 SLP164 T01370124 4////0126 57020 IEM_DS3505
ZGGG,1984-03-07 09:00,ZGGG 070900Z AUTO 36004KT 7SM 14/12 RMK SLP153 T01450115 57011 IEM_DS3505
ZGGG,1984-03-07 12:00,ZGGG 071200Z AUTO 34004KT 9SM 14/11 RMK 60000 SLP157 T01410113 52004 IEM_DS3505
ZGGG,1984-03-07 15:00,ZGGG 071500Z AUTO 02002KT 9SM 14/11 RMK SLP164 T01360112 52007 IEM_DS3505
ZGGG,1984-03-07 18:00,ZGGG 071800Z AUTO 02004KT 6SM 13/11 RMK SLP169 T01320110 40152//// 52005 IEM_DS3505
ZGGG,1984-03-07 21:00,ZGGG 072100Z AUTO 34002KT 6SM 13/11 RMK SLP156 T01320111 57013 IEM_DS3505
ZGGG,1984-03-08 00:00,ZGGG 080000Z AUTO 00000KT 2 1/2SM 13/12 RMK 60000 SLP166 T01290116 52010 IEM_DS3505
ZGGG,1984-03-08 03:00,ZGGG 080300Z AUTO 36002KT 2 1/2SM 13/12 RMK SLP169 T01260115 52003 IEM_DS3505
ZGGG,1984-03-08 06:00,ZGGG 080600Z AUTO 00000KT 9SM 15/12 RMK 60000 SLP139 T01490117 4////0120 57030 IEM_DS3505
ZGGG,1984-03-08 09:00,ZGGG 080900Z AUTO 02006KT 7SM 14/12 RMK SLP126 T01430115 57013 IEM_DS3505
ZGGG,1984-03-08 12:00,ZGGG 081200Z AUTO 02004KT 4SM 14/12 RMK SLP134 T01350119 52008 IEM_DS3505
ZGGG,1984-03-08 15:00,ZGGG 081500Z AUTO 00000KT 4SM 14/12 RMK SLP141 T01350119 52007 IEM_DS3505
ZGGG,1984-03-08 18:00,ZGGG 081800Z AUTO 34004KT 4SM 13/12 RMK 60008 SLP140 T01310124 57001 IEM_DS3505
ZGGG,1984-03-08 21:00,ZGGG 082100Z AUTO 36004KT 4SM 12/11 RMK SLP138 T01240114 57002 IEM_DS3505
ZGGG,1984-03-09 00:00,ZGGG 090000Z AUTO 00000KT 9SM 13/12 RMK 60008 SLP144 T01270115 52006 IEM_DS3505
ZGGG,1984-03-09 03:00,ZGGG 090300Z AUTO 02004KT 2 1/2SM 14/12 RMK SLP154 T01360120 52010 IEM_DS3505
ZGGG,1984-03-09 06:00,ZGGG 090600Z AUTO 34004KT 6SM 14/12 RMK 60016 SLP131 T01390123 4////0122 57023 IEM_DS3505
ZGGG,1984-03-09 09:00,ZGGG 090900Z AUTO 36004KT 6SM 14/11 RMK SLP125 T01350114 57006 IEM_DS3505
ZGGG,1984-03-09 12:00,ZGGG 091200Z AUTO 02004KT 2 1/2SM 13/12 RMK SLP132 T01310116 52007 IEM_DS3505
ZGGG,1984-03-09 15:00,ZGGG 091500Z AUTO 02006KT 2 1/2SM 13/11 RMK SLP150 T01320111 52018 IEM_DS3505
ZGGG,1984-03-09 18:00,ZGGG 091800Z AUTO 36004KT 5SM 13/10 RMK SLP158 T01300104 40142//// 52008 IEM_DS3505
ZGGG,1984-03-09 21:00,ZGGG 092100Z AUTO 00000KT 5SM 12/10 RMK SLP159 T01160103 52001 IEM_DS3505
ZGGG,1984-03-10 00:00,ZGGG 100000Z AUTO 02004KT 9SM 12/09 RMK 60004 SLP176 T01170091 52017 IEM_DS3505
ZGGG,1984-03-10 03:00,ZGGG 100300Z AUTO 02004KT 9SM 13/09 A3003 RMK SLP179 T01290089 52003 IEM_DS3505
ZGGG,1984-03-10 04:00,ZGGG 100400Z AUTO 35008KT 6SM 14/09 A3000 RMK T01400090 IEM_DS3505
ZGGG,1984-03-10 05:00,ZGGG 100500Z AUTO 03004KT 6SM 14/09 A2997 RMK T01400090 IEM_DS3505
ZGGG,1984-03-10 06:00,ZGGG 100600Z AUTO 00000KT 9SM 14/09 RMK 60001 SLP156 T01400094 4////0111 57023 IEM_DS3505
ZGGG,1984-03-10 07:00,ZGGG 100700Z AUTO 01004KT 7SM 14/09 A2991 RMK T01400090 IEM_DS3505
ZGGG,1984-03-10 09:00,ZGGG 100900Z AUTO 00000KT 7SM 14/10 A2991 RMK SLP140 T01360104 57016 IEM_DS3505
ZGGG,1984-03-10 12:00,ZGGG 101200Z AUTO 00000KT 4SM 13/11 RMK 60001 SLP151 T01330111 52011 IEM_DS3505
ZGGG,1984-03-10 15:00,ZGGG 101500Z AUTO 00000KT 2 1/2SM 13/12 RMK SLP177 T01310122 52026 IEM_DS3505
ZGGG,1984-03-10 18:00,ZGGG 101800Z AUTO 00000KT 2 1/2SM 13/12 RMK 60008 SLP169 T01260122 40159//// 57008 IEM_DS3505
ZGGG,1984-03-10 21:00,ZGGG 102100Z AUTO 00000KT 2 1/2SM 12/12 RMK SLP158 T01250122 57011 IEM_DS3505
ZGGG,1984-03-11 00:00,ZGGG 110000Z AUTO 00000KT 2 1/2SM 13/12 RMK 60008 SLP171 T01290125 52013 IEM_DS3505
ZGGG,1984-03-11 03:00,ZGGG 110300Z AUTO 02004KT 2SM 13/13 RMK SLP173 T01340130 52002 IEM_DS3505
ZGGG,1984-03-11 06:00,ZGGG 110600Z AUTO 07004KT 2SM 14/14 RMK SLP132 T01420136 57013 IEM_DS3505
ZGGG,1984-03-11 09:00,ZGGG 110900Z AUTO 07002KT 2SM 14/14 RMK SLP132 T01420136 57013 IEM_DS3505
ZGGG,1984-03-11 12:00,ZGGG 111200Z AUTO 00000KT 1 1/4SM 14/13 RMK 60004 SLP144 T01370133 52012 IEM_DS3505
ZGGG,1984-03-11 15:00,ZGGG 111500Z AUTO 00000KT 1 1/4SM 14/13 RMK SLP151 T01380134 52007 IEM_DS3505
ZGGG,1984-03-11 18:00,ZGGG 111800Z AUTO 00000KT 2SM 14/13 RMK 60004 SLP142 T01380134 40144//// 57009 IEM_DS3505
ZGGG,1984-03-11 21:00,ZGGG 112100Z AUTO 09002KT 2SM 14/14 RMK SLP128 T01390135 57014 IEM_DS3505
ZGGG,1984-03-12 00:00,ZGGG 120000Z AUTO 11004KT 1 1/4SM 14/14 RMK 60002 SLP140 T01450140 52012 IEM_DS3505
ZGGG,1984-03-12 03:00,ZGGG 120300Z AUTO 11004KT 1 1/4SM 15/15 RMK SLP140 T01540152 54000 IEM_DS3505
ZGGG,1984-03-12 06:00,ZGGG 120600Z AUTO 09004KT 1 1/4SM 16/16 RMK 60001 SLP109 T01600158 4////0135 57031 IEM_DS3505
ZGGG,1984-03-12 09:00,ZGGG 120900Z AUTO 00000KT 1SM 16/16 RMK SLP096 T01640163 57013 IEM_DS3505
ZGGG,1984-03-12 12:00,ZGGG 121200Z AUTO 11004KT 1SM 17/17 RMK 60004 SLP098 T01700170 52002 IEM_DS3505
ZGGG,1984-03-12 15:00,ZGGG 121500Z AUTO 00000KT 1 1/4SM 17/17 RMK SLP105 T01730170 52007 IEM_DS3505
ZGGG,1984-03-12 18:00,ZGGG 121800Z AUTO 09002KT 1 1/4SM 18/18 RMK 60001 SLP091 T01780175 40180//// 57014 IEM_DS3505
ZGGG,1984-03-12 21:00,ZGGG 122100Z AUTO 11002KT 2SM 18/18 RMK SLP087 T01840179 57004 IEM_DS3505
ZGGG,1984-03-13 00:00,ZGGG 130000Z AUTO 11004KT 1 1/4SM 19/18 RMK SLP102 T01870177 52015 IEM_DS3505
ZGGG,1984-03-13 03:00,ZGGG 130300Z AUTO 11004KT 2SM 21/19 RMK SLP104 T02100189 52002 IEM_DS3505
ZGGG,1984-03-13 05:00,ZGGG 130500Z AUTO 14010KT 2 1/2SM A2977 RMK IEM_DS3505
ZGGG,1984-03-13 06:00,ZGGG 130600Z AUTO 11004KT 2SM 23/20 A2971 RMK SLP075 T02270201 4////0158 57029 IEM_DS3505
ZGGG,1984-03-13 07:00,ZGGG 130700Z AUTO 14008KT 2 1/2SM 24/21 A2968 RMK T02400210 IEM_DS3505
ZGGG,1984-03-13 08:00,ZGGG 130800Z AUTO 15012KT 3SM 24/21 A2968 RMK T02400210 IEM_DS3505
ZGGG,1984-03-13 09:00,ZGGG 130900Z AUTO 14006KT 2 1/2SM 24/21 RMK SLP056 T02350209 57019 IEM_DS3505
ZGGG,1984-03-13 10:00,ZGGG 131000Z AUTO 12010KT 5SM 23/21 A2965 RMK T02300210 IEM_DS3505
ZGGG,1984-03-13 12:00,ZGGG 131200Z AUTO 11004KT 4SM 21/20 RMK SLP067 T02140200 52011 IEM_DS3505
ZGGG,1984-03-13 15:00,ZGGG 131500Z AUTO 00000KT 2 1/2SM 20/20 RMK SLP081 T02050196 52014 IEM_DS3505
ZGGG,1984-03-13 18:00,ZGGG 131800Z AUTO 00000KT 2SM 20/20 RMK SLP078 T02020199 40246//// 57003 IEM_DS3505
ZGGG,1984-03-13 21:00,ZGGG 132100Z AUTO 00000KT 2SM 20/20 RMK SLP074 T02030200 57004 IEM_DS3505
ZGGG,1984-03-14 00:00,ZGGG 140000Z AUTO 11004KT 2SM 21/20 RMK SLP093 T02100205 52019 IEM_DS3505
ZGGG,1984-03-14 03:00,ZGGG 140300Z AUTO 09004KT 3SM 23/21 RMK SLP100 T02310212 52007 IEM_DS3505
ZGGG,1984-03-14 06:00,ZGGG 140600Z AUTO 16008KT 6SM 25/21 RMK SLP076 T02530214 4////0198 57024 IEM_DS3505
ZGGG,1984-03-14 09:00,ZGGG 140900Z AUTO 14010KT 7SM 25/21 RMK SLP065 T02530214 57011 IEM_DS3505
ZGGG,1984-03-14 12:00,ZGGG 141200Z AUTO 14008KT 7SM 22/21 RMK SLP072 T02200206 52007 IEM_DS3505
ZGGG,1984-03-14 15:00,ZGGG 141500Z AUTO 14004KT 7SM 22/20 RMK SLP088 T02160204 52016 IEM_DS3505
ZGGG,1984-03-14 18:00,ZGGG 141800Z AUTO 00000KT 4SM 21/20 RMK SLP089 T02120201 40258//// 52001 IEM_DS3505
ZGGG,1984-03-14 21:00,ZGGG 142100Z AUTO 09002KT 4SM 21/20 RMK SLP092 T02120204 52003 IEM_DS3505
ZGGG,1984-03-15 00:00,ZGGG 150000Z AUTO 00000KT 2SM 22/21 RMK SLP113 T02170209 52021 IEM_DS3505
ZGGG,1984-03-15 03:00,ZGGG 150300Z AUTO 14002KT 2SM 23/22 RMK SLP123 T02330215 52010 IEM_DS3505
ZGGG,1984-03-15 06:00,ZGGG 150600Z AUTO 11004KT 4SM 24/22 RMK SLP099 T02420218 4////0210 57024 IEM_DS3505
ZGGG,1984-03-15 09:00,ZGGG 150900Z AUTO 11004KT 4SM 25/22 RMK SLP088 T02460219 57011 IEM_DS3505
ZGGG,1984-03-15 12:00,ZGGG 151200Z AUTO 07002KT 4SM 22/21 RMK SLP104 T02240212 52016 IEM_DS3505
ZGGG,1984-03-15 15:00,ZGGG 151500Z AUTO 07004KT 4SM 22/21 RMK SLP116 T02150207 52012 IEM_DS3505
ZGGG,1984-03-15 18:00,ZGGG 151800Z AUTO 09004KT 4SM 21/21 RMK SLP114 T02120206 57002 IEM_DS3505
ZGGG,1984-03-15 21:00,ZGGG 152100Z AUTO 00000KT 4SM 21/20 RMK SLP107 T02130205 57007 IEM_DS3505
ZGGG,1984-03-15 23:00,ZGGG 152300Z AUTO 14008KT 3SM 22/21 A2983 RMK T02200210 IEM_DS3505
ZGGG,1984-03-16 00:00,ZGGG 160000Z AUTO 00000KT 2 1/2SM 22/21 A2985 RMK SLP126 T02160208 52019 IEM_DS3505
ZGGG,1984-03-16 01:00,ZGGG 160100Z AUTO 15010KT 4SM 23/21 A2988 RMK T02300210 IEM_DS3505
ZGGG,1984-03-16 02:00,ZGGG 160200Z AUTO 14008KT 4SM 24/21 A2988 RMK T02400210 IEM_DS3505
ZGGG,1984-03-16 03:00,ZGGG 160300Z AUTO 14004KT 2 1/2SM 24/22 RMK SLP136 T02440217 52010 IEM_DS3505
ZGGG,1984-03-16 06:00,ZGGG 160600Z AUTO 11004KT 4SM 25/23 RMK SLP118 T02510226 4////0206 57018 IEM_DS3505
ZGGG,1984-03-16 09:00,ZGGG 160900Z AUTO 11006KT 5SM 26/22 RMK SLP107 T02600221 57011 IEM_DS3505
ZGGG,1984-03-16 12:00,ZGGG 161200Z AUTO 11002KT 3SM 24/22 RMK SLP125 T02360221 52018 IEM_DS3505
ZGGG,1984-03-16 15:00,ZGGG 161500Z AUTO 14002KT 2 1/2SM 23/22 RMK SLP142 T02280219 52017 IEM_DS3505
ZGGG,1984-03-16 18:00,ZGGG 161800Z AUTO 00000KT 4SM 23/22 RMK SLP137 T02280219 40265//// 57005 IEM_DS3505
ZGGG,1984-03-16 21:00,ZGGG 162100Z AUTO 14002KT 2 1/2SM 22/22 RMK SLP127 T02220216 57010 IEM_DS3505
ZGGG,1984-03-17 00:00,ZGGG 170000Z AUTO 14006KT 2SM 20/20 RMK 60024 SLP139 T02050200 52012 IEM_DS3505
ZGGG,1984-03-17 03:00,ZGGG 170300Z AUTO 11004KT 4SM 21/19 RMK SLP149 T02090190 52010 IEM_DS3505
ZGGG,1984-03-17 06:00,ZGGG 170600Z AUTO 14004KT 2 1/2SM 22/19 A2985 RMK 60004 SLP116 T02160194 4////0201 57033 IEM_DS3505
ZGGG,1984-03-17 07:00,ZGGG 170700Z AUTO 15004KT 3SM 22/19 A2980 RMK T02200190 IEM_DS3505
ZGGG,1984-03-17 08:00,ZGGG 170800Z AUTO 18008KT 1 1/2SM 21/20 A2980 RMK T02100200 IEM_DS3505
ZGGG,1984-03-17 09:00,ZGGG 170900Z AUTO 14006KT 2SM 20/19 A2980 RMK SLP103 T02020194 57013 IEM_DS3505
ZGGG,1984-03-17 12:00,ZGGG 171200Z AUTO 14004KT 2 1/2SM 20/18 RMK 60002 SLP105 T02020184 52002 IEM_DS3505
ZGGG,1984-03-17 15:00,ZGGG 171500Z AUTO 09004KT 2 1/2SM 20/18 RMK SLP119 T01960182 52014 IEM_DS3505
ZGGG,1984-03-17 18:00,ZGGG 171800Z AUTO 09004KT 2 1/2SM 20/18 RMK 60000 SLP110 T01950183 40230//// 57009 IEM_DS3505
ZGGG,1984-03-17 21:00,ZGGG 172100Z AUTO 11006KT 2 1/2SM 19/18 RMK SLP096 T01920184 57014 IEM_DS3505
ZGGG,1984-03-18 00:00,ZGGG 180000Z AUTO 09006KT 2SM 20/19 RMK SLP100 T01950187 52004 IEM_DS3505
ZGGG,1984-03-18 03:00,ZGGG 180300Z AUTO 09004KT 1 1/4SM 20/19 RMK SLP103 T01960191 52003 IEM_DS3505
ZGGG,1984-03-18 06:00,ZGGG 180600Z AUTO 11006KT 1SM 20/20 RMK 60008 SLP075 T02050200 4////0190 57028 IEM_DS3505
ZGGG,1984-03-18 09:00,ZGGG 180900Z AUTO 14004KT 1SM 22/22 RMK SLP064 T02200215 57011 IEM_DS3505
ZGGG,1984-03-18 12:00,ZGGG 181200Z AUTO 1 1/4SM 22/21 RMK 60002 SLP071 T02190212 52007 IEM_DS3505
ZGGG,1984-03-18 15:00,ZGGG 181500Z AUTO 09004KT 2SM 22/22 RMK SLP092 T02230215 52021 IEM_DS3505
ZGGG,1984-03-18 18:00,ZGGG 181800Z AUTO 07004KT 2SM 22/22 RMK SLP093 T02200215 40225//// 52001 IEM_DS3505
ZGGG,1984-03-18 21:00,ZGGG 182100Z AUTO 00000KT 2SM 22/22 RMK SLP090 T02240216 57003 IEM_DS3505
ZGGG,1984-03-19 00:00,ZGGG 190000Z AUTO 11004KT 1 1/4SM 22/22 RMK 60000 SLP096 T02200215 52006 IEM_DS3505
ZGGG,1984-03-19 03:00,ZGGG 190300Z AUTO 09004KT 2 1/2SM 23/22 RMK SLP110 T02280219 52014 IEM_DS3505
ZGGG,1984-03-19 06:00,ZGGG 190600Z AUTO 09006KT 2SM 24/23 RMK SLP094 T02400227 4////0202 57016 IEM_DS3505
ZGGG,1984-03-19 09:00,ZGGG 190900Z AUTO 07004KT 2SM 23/22 RMK SLP090 T02300223 57004 IEM_DS3505
ZGGG,1984-03-19 10:00,ZGGG 191000Z AUTO 00000KT 1 1/4SM 22/22 RMK 60020 SLP109 T02240219 52019 IEM_DS3505
ZGGG,1984-03-19 12:00,ZGGG 191200Z AUTO 00000KT 1 1/4SM 22/22 RMK 60020 SLP109 T02240219 52019 IEM_DS3505
ZGGG,1984-03-19 15:00,ZGGG 191500Z AUTO 36004KT 3SM 19/19 RMK SLP135 T01940186 52026 IEM_DS3505
ZGGG,1984-03-19 18:00,ZGGG 191800Z AUTO 02012KT 6SM 18/16 RMK 60012 SLP141 T01850163 40243//// 52006 IEM_DS3505
ZGGG,1984-03-19 21:00,ZGGG 192100Z AUTO 02006KT 7SM 18/15 RMK SLP140 T01800153 57001 IEM_DS3505
ZGGG,1984-03-20 00:00,ZGGG 200000Z AUTO 02004KT 9SM 17/14 RMK 70031 SLP169 T01720143 52029 IEM_DS3505
ZGGG,1984-03-20 02:00,ZGGG 200200Z AUTO 01014KT 7SM 17/13 A3003 RMK T01700130 IEM_DS3505
ZGGG,1984-03-20 03:00,ZGGG 200300Z AUTO 36006KT 9SM 17/13 A3006 RMK SLP189 T01660132 52020 IEM_DS3505
ZGGG,1984-03-20 05:00,ZGGG 200500Z AUTO 35016KT 7SM 16/12 A3003 RMK T01600120 IEM_DS3505
ZGGG,1984-03-20 05:34,ZGGG 200534Z AUTO 36016KT 1 1/4SM RMK IEM_DS3505
ZGGG,1984-03-20 06:00,ZGGG 200600Z AUTO 02004KT 7SM 14/13 A3000 RMK 60001 SLP173 T01430127 4////0141 57016 IEM_DS3505
ZGGG,1984-03-20 07:00,ZGGG 200700Z AUTO 01010KT 5SM 14/13 A3003 RMK T01400130 IEM_DS3505
ZGGG,1984-03-20 08:00,ZGGG 200800Z AUTO 01010KT 4SM 13/13 A2997 RMK T01300130 IEM_DS3505
ZGGG,1984-03-20 08:11,ZGGG 200811Z AUTO 03014KT 7SM RMK IEM_DS3505
ZGGG,1984-03-20 09:00,ZGGG 200900Z AUTO 36004KT 11SM 14/13 A3000 RMK SLP178 T01410128 52005 IEM_DS3505
ZGGG,1984-03-20 12:00,ZGGG 201200Z AUTO 00000KT 7SM 15/13 RMK 60063 SLP193 T01500128 52015 IEM_DS3505
ZGGG,1984-03-20 15:00,ZGGG 201500Z AUTO 36004KT 6SM 15/11 RMK SLP209 T01510114 52016 IEM_DS3505
ZGGG,1984-03-20 18:00,ZGGG 201800Z AUTO 02004KT 6SM 15/11 RMK SLP201 T01470107 40185//// 57008 IEM_DS3505
ZGGG,1984-03-20 21:00,ZGGG 202100Z AUTO 02004KT 4SM 14/11 RMK SLP195 T01360113 57006 IEM_DS3505
ZGGG,1984-03-21 00:00,ZGGG 210000Z AUTO 00000KT 2 1/2SM 13/12 RMK 60000 SLP221 T01290124 52026 IEM_DS3505
ZGGG,1984-03-21 03:00,ZGGG 210300Z AUTO 00000KT 2SM 14/13 RMK SLP233 T01350126 52012 IEM_DS3505
ZGGG,1984-03-21 06:00,ZGGG 210600Z AUTO 02006KT 9SM 14/13 RMK 60002 SLP207 T01440126 4////0127 57026 IEM_DS3505
ZGGG,1984-03-21 09:00,ZGGG 210900Z AUTO 02002KT 9SM 15/13 RMK SLP193 T01520130 57014 IEM_DS3505
ZGGG,1984-03-21 12:00,ZGGG 211200Z AUTO 02004KT 7SM 14/13 RMK SLP202 T01420126 52009 IEM_DS3505
ZGGG,1984-03-21 15:00,ZGGG 211500Z AUTO 36002KT 6SM 13/13 RMK SLP221 T01340128 52019 IEM_DS3505
ZGGG,1984-03-21 18:00,ZGGG 211800Z AUTO 32004KT 6SM 14/12 RMK 60008 SLP210 T01350124 40152//// 57011 IEM_DS3505
ZGGG,1984-03-21 21:00,ZGGG 212100Z AUTO 02006KT 6SM 13/12 RMK SLP200 T01320120 57010 IEM_DS3505
ZGGG,1984-03-22 00:00,ZGGG 220000Z AUTO 36006KT 4SM 13/12 RMK 60002 SLP220 T01280119 52020 IEM_DS3505
ZGGG,1984-03-22 03:00,ZGGG 220300Z AUTO 34002KT 8SM 14/12 RMK SLP221 T01380124 52001 IEM_DS3505
ZGGG,1984-03-22 06:00,ZGGG 220600Z AUTO 34006KT 5SM 14/13 RMK 60001 SLP200 T01430127 4////0126 57021 IEM_DS3505
ZGGG,1984-03-22 09:00,ZGGG 220900Z AUTO 36004KT 5SM 14/13 RMK SLP184 T01440131 57016 IEM_DS3505
ZGGG,1984-03-22 12:00,ZGGG 221200Z AUTO 00000KT 2SM 14/13 RMK SLP191 T01410134 52007 IEM_DS3505
ZGGG,1984-03-22 15:00,ZGGG 221500Z AUTO 00000KT 2SM 14/14 RMK SLP198 T01420138 52007 IEM_DS3505
ZGGG,1984-03-22 18:00,ZGGG 221800Z AUTO 32004KT 2SM 14/14 RMK 60002 SLP187 T01390135 40146//// 57010 IEM_DS3505
ZGGG,1984-03-22 21:00,ZGGG 222100Z AUTO 00000KT 2SM 14/13 RMK SLP182 T01390133 57005 IEM_DS3505
ZGGG,1984-03-23 00:00,ZGGG 230000Z AUTO 00000KT 4SM 14/14 RMK 60008 SLP194 T01410135 52012 IEM_DS3505
ZGGG,1984-03-23 03:00,ZGGG 230300Z AUTO 00000KT 6SM 16/14 RMK SLP199 T01560140 52005 IEM_DS3505
ZGGG,1984-03-23 06:00,ZGGG 230600Z AUTO 00000KT 7SM 16/15 RMK 60001 SLP179 T01650149 4////0136 57020 IEM_DS3505
ZGGG,1984-03-23 09:00,ZGGG 230900Z AUTO 00000KT 7SM 17/15 RMK SLP171 T01700149 57008 IEM_DS3505
ZGGG,1984-03-23 12:00,ZGGG 231200Z AUTO 00000KT 7SM 17/16 RMK SLP180 T01670160 52009 IEM_DS3505
ZGGG,1984-03-23 15:00,ZGGG 231500Z AUTO 00000KT 7SM 17/16 RMK SLP190 T01660159 52010 IEM_DS3505
ZGGG,1984-03-23 18:00,ZGGG 231800Z AUTO 00000KT 3SM 16/16 RMK SLP177 T01620160 40171//// 57013 IEM_DS3505
ZGGG,1984-03-23 21:00,ZGGG 232100Z AUTO 00000KT 4SM 16/16 RMK SLP173 T01620160 57004 IEM_DS3505
ZGGG,1984-03-24 00:00,ZGGG 240000Z AUTO 00000KT 1SM 16/16 RMK 60001 SLP189 T01620160 52016 IEM_DS3505
ZGGG,1984-03-24 03:00,ZGGG 240300Z AUTO 00000KT 2 1/2SM 17/16 RMK SLP192 T01680164 52003 IEM_DS3505
ZGGG,1984-03-24 04:00,ZGGG 240400Z AUTO 36008KT 2SM 17/16 A3003 RMK T01700160 IEM_DS3505
ZGGG,1984-03-24 05:00,ZGGG 240500Z AUTO 01010KT 4SM 18/17 A3000 RMK T01800170 IEM_DS3505
ZGGG,1984-03-24 06:00,ZGGG 240600Z AUTO 07004KT 3SM 18/17 A2997 RMK 60008 SLP160 T01800170 4////0158 57032 IEM_DS3505
ZGGG,1984-03-24 07:00,ZGGG 240700Z AUTO 34008KT 5SM 18/17 A2997 RMK T01800170 IEM_DS3505
ZGGG,1984-03-24 08:00,ZGGG 240800Z AUTO 36006KT 1 1/4SM 18/17 A2994 RMK T01800170 IEM_DS3505
ZGGG,1984-03-24 09:00,ZGGG 240900Z AUTO 00000KT 2 1/2SM 18/17 A2994 RMK SLP146 T01810174 57014 IEM_DS3505
ZGGG,1984-03-24 12:00,ZGGG 241200Z AUTO 00000KT 2 1/2SM 18/17 RMK 60000 SLP159 T01800173 52013 IEM_DS3505
ZGGG,1984-03-24 15:00,ZGGG 241500Z AUTO 00000KT 2SM 18/17 RMK SLP168 T01750173 52009 IEM_DS3505
ZGGG,1984-03-24 18:00,ZGGG 241800Z AUTO 00000KT 2SM 17/17 RMK 60004 SLP162 T01740172 40184//// 57006 IEM_DS3505
ZGGG,1984-03-24 21:00,ZGGG 242100Z AUTO 00000KT 2SM 17/17 RMK SLP156 T01730172 57006 IEM_DS3505
ZGGG,1984-03-25 00:00,ZGGG 250000Z AUTO 00000KT 1/2SM 18/17 RMK 60008 SLP170 T01760174 52014 IEM_DS3505
ZGGG,1984-03-25 03:00,ZGGG 250300Z AUTO 14004KT 1SM 20/18 RMK SLP166 T01960183 57004 IEM_DS3505
ZGGG,1984-03-25 06:00,ZGGG 250600Z AUTO 16004KT 2 1/2SM 20/18 RMK 60001 SLP143 T02040182 4////0170 57023 IEM_DS3505
ZGGG,1984-03-25 09:00,ZGGG 250900Z AUTO 16004KT 3SM 20/18 RMK SLP129 T02030176 57014 IEM_DS3505
ZGGG,1984-03-25 12:00,ZGGG 251200Z AUTO 00000KT 2SM 19/18 RMK 60000 SLP145 T01930175 52016 IEM_DS3505
ZGGG,1984-03-25 15:00,ZGGG 251500Z AUTO 09006KT 2SM 18/18 RMK SLP169 T01800175 52024 IEM_DS3505
ZGGG,1984-03-25 18:00,ZGGG 251800Z AUTO 11002KT 2SM 17/17 RMK 60004 SLP155 T01730167 40209//// 57014 IEM_DS3505
ZGGG,1984-03-25 21:00,ZGGG 252100Z AUTO 09002KT 2SM 17/16 RMK SLP151 T01740164 57004 IEM_DS3505
ZGGG,1984-03-26 00:00,ZGGG 260000Z AUTO 09004KT 5SM 18/17 RMK SLP168 T01810166 52017 IEM_DS3505
ZGGG,1984-03-26 03:00,ZGGG 260300Z AUTO 16006KT 5SM 21/18 RMK SLP170 T02060177 52002 IEM_DS3505
ZGGG,1984-03-26 06:00,ZGGG 260600Z AUTO 16006KT 4SM 22/19 RMK SLP146 T02250186 4////0170 57024 IEM_DS3505
ZGGG,1984-03-26 09:00,ZGGG 260900Z AUTO 16004KT 2 1/2SM 22/18 RMK SLP135 T02180185 57011 IEM_DS3505
ZGGG,1984-03-26 12:00,ZGGG 261200Z AUTO 00000KT 2SM 21/18 RMK SLP148 T02060180 52013 IEM_DS3505
ZGGG,1984-03-26 15:00,ZGGG 261500Z AUTO 14002KT 3SM 20/17 RMK SLP172 T01980172 52024 IEM_DS3505
ZGGG,1984-03-26 18:00,ZGGG 261800Z AUTO 09004KT 4SM 19/17 RMK SLP166 T01900170 40228//// 57006 IEM_DS3505
ZGGG,1984-03-26 21:00,ZGGG 262100Z AUTO 09002KT 6SM 18/17 RMK SLP166 T01820167 54000 IEM_DS3505
ZGGG,1984-03-27 00:00,ZGGG 270000Z AUTO 09008KT 7SM 19/16 A3000 RMK T01900160 IEM_DS3505
ZGGG,1984-03-27 01:00,ZGGG 270100Z AUTO 10006KT 6SM 20/16 A3003 RMK T02000160 IEM_DS3505
ZGGG,1984-03-27 02:00,ZGGG 270200Z AUTO 00000KT 7SM 21/17 A3003 RMK T02100170 IEM_DS3505
ZGGG,1984-03-27 03:00,ZGGG 270300Z AUTO 14004KT 7SM 22/18 A3003 RMK SLP179 T02200179 52007 IEM_DS3505
ZGGG,1984-03-27 04:00,ZGGG 270400Z AUTO 20004KT 7SM 22/18 A3000 RMK T02200180 IEM_DS3505
ZGGG,1984-03-27 05:00,ZGGG 270500Z AUTO 17004KT 4SM 24/19 A3000 RMK T02400190 IEM_DS3505
ZGGG,1984-03-27 06:00,ZGGG 270600Z AUTO 14004KT 2 1/2SM 24/19 RMK SLP153 T02410191 4////0178 57026 IEM_DS3505
ZGGG,1984-03-27 07:00,ZGGG 270700Z AUTO 21010KT 4SM 24/19 A2991 RMK T02400190 IEM_DS3505
ZGGG,1984-03-27 09:00,ZGGG 270900Z AUTO 22006KT 2 1/2SM 24/20 A2991 RMK SLP140 T02350195 57013 IEM_DS3505
ZGGG,1984-03-27 12:00,ZGGG 271200Z AUTO 00000KT 2SM 22/19 RMK SLP150 T02190194 52010 IEM_DS3505
ZGGG,1984-03-27 15:00,ZGGG 271500Z AUTO 36004KT 2 1/2SM 19/17 RMK SLP180 T01940169 52030 IEM_DS3505
ZGGG,1984-03-27 18:00,ZGGG 271800Z AUTO 36008KT 9SM 17/13 RMK SLP171 T01700131 40248//// 57009 IEM_DS3505
ZGGG,1984-03-27 21:00,ZGGG 272100Z AUTO 34006KT 10SM 17/12 RMK SLP175 T01690122 52004 IEM_DS3505
ZGGG,1984-03-28 00:00,ZGGG 280000Z AUTO 34006KT 11SM 16/12 RMK SLP208 T01610120 52033 IEM_DS3505
ZGGG,1984-03-28 03:00,ZGGG 280300Z AUTO 02006KT 15SM 18/11 RMK SLP211 T01820113 52003 IEM_DS3505
ZGGG,1984-03-28 06:00,ZGGG 280600Z AUTO 34008KT 12SM 20/13 RMK SLP175 T02000128 4////0157 57036 IEM_DS3505
ZGGG,1984-03-28 09:00,ZGGG 280900Z AUTO 36002KT 9SM 20/13 RMK SLP159 T01990127 57016 IEM_DS3505
ZGGG,1984-03-28 12:00,ZGGG 281200Z AUTO 00000KT 8SM 19/14 RMK SLP170 T01890141 52011 IEM_DS3505
ZGGG,1984-03-28 15:00,ZGGG 281500Z AUTO 00000KT 8SM 18/14 RMK SLP178 T01820144 52008 IEM_DS3505
ZGGG,1984-03-28 18:00,ZGGG 281800Z AUTO 14004KT 4SM 18/15 RMK SLP164 T01760150 40207//// 57014 IEM_DS3505
ZGGG,1984-03-28 21:00,ZGGG 282100Z AUTO 11006KT 2SM 17/16 RMK SLP147 T01670163 57017 IEM_DS3505
ZGGG,1984-03-29 00:00,ZGGG 290000Z AUTO 11004KT 5SM 17/16 RMK 60001 SLP155 T01680157 52008 IEM_DS3505
ZGGG,1984-03-29 03:00,ZGGG 290300Z AUTO 00000KT 7SM 19/15 RMK SLP151 T01920148 57004 IEM_DS3505
ZGGG,1984-03-29 06:00,ZGGG 290600Z AUTO 00000KT 7SM 20/15 RMK SLP125 T02000153 4////0163 57026 IEM_DS3505
ZGGG,1984-03-29 09:00,ZGGG 290900Z AUTO 00000KT 13SM 21/16 RMK SLP112 T02060163 57013 IEM_DS3505
ZGGG,1984-03-29 12:00,ZGGG 291200Z AUTO 09002KT 4SM 20/17 RMK SLP120 T01950172 52008 IEM_DS3505
ZGGG,1984-03-29 15:00,ZGGG 291500Z AUTO 00000KT 4SM 19/18 RMK SLP134 T01900177 52014 IEM_DS3505
ZGGG,1984-03-29 18:00,ZGGG 291800Z AUTO 00000KT 2 1/2SM 19/17 RMK SLP128 T01900174 40207//// 57006 IEM_DS3505
ZGGG,1984-03-29 21:00,ZGGG 292100Z AUTO 00000KT 2 1/2SM 19/18 RMK SLP122 T01900176 57006 IEM_DS3505
ZGGG,1984-03-30 00:00,ZGGG 300000Z AUTO 09002KT 2SM 20/18 RMK SLP134 T01950177 52012 IEM_DS3505
ZGGG,1984-03-30 03:00,ZGGG 300300Z AUTO 11002KT 4SM 22/18 RMK SLP138 T02240185 52004 IEM_DS3505
ZGGG,1984-03-30 06:00,ZGGG 300600Z AUTO 16004KT 6SM 25/20 RMK SLP115 T02510201 4////0187 57023 IEM_DS3505
ZGGG,1984-03-30 09:00,ZGGG 300900Z AUTO 11006KT 6SM 25/21 RMK SLP103 T02530211 57012 IEM_DS3505
ZGGG,1984-03-30 12:00,ZGGG 301200Z AUTO 11004KT 4SM 23/21 RMK SLP116 T02330213 52013 IEM_DS3505
ZGGG,1984-03-30 15:00,ZGGG 301500Z AUTO 14006KT 4SM 22/21 RMK SLP136 T02240211 52020 IEM_DS3505
ZGGG,1984-03-30 18:00,ZGGG 301800Z AUTO 00000KT 3SM 22/21 RMK SLP140 T02200208 40258//// 52004 IEM_DS3505
ZGGG,1984-03-30 21:00,ZGGG 302100Z AUTO 00000KT 3SM 22/20 RMK SLP131 T02160205 57009 IEM_DS3505
ZGGG,1984-03-31 00:00,ZGGG 310000Z AUTO 11004KT 4SM 22/20 RMK SLP145 T02240205 52014 IEM_DS3505
ZGGG,1984-03-31 03:00,ZGGG 310300Z AUTO 16004KT 4SM 25/21 RMK SLP152 T02510212 52007 IEM_DS3505
ZGGG,1984-03-31 04:00,ZGGG 310400Z AUTO 17010KT 4SM 27/22 A2991 RMK T02700220 IEM_DS3505
ZGGG,1984-03-31 06:00,ZGGG 310600Z AUTO 25008KT 7SM 28/22 A2985 RMK SLP114 T02750222 57038 IEM_DS3505
ZGGG,1984-03-31 07:00,ZGGG 310700Z AUTO 17017KT 7SM 27/22 A2983 RMK T02700220 IEM_DS3505
ZGGG,1984-03-31 08:00,ZGGG 310800Z AUTO 19012KT 27/22 A2980 RMK T02700220 IEM_DS3505
ZGGG,1984-03-31 09:00,ZGGG 310900Z AUTO 20006KT 7SM 26/22 RMK SLP100 T02650222 57014 IEM_DS3505
ZGGG,1984-03-31 12:00,ZGGG 311200Z AUTO 00000KT 5SM 25/22 RMK SLP112 T02510224 52012 IEM_DS3505
ZGGG,1984-03-31 15:00,ZGGG 311500Z AUTO 14004KT 2 1/2SM 23/22 RMK SLP129 T02320221 52017 IEM_DS3505
ZGGG,1984-03-31 18:00,ZGGG 311800Z AUTO 00000KT 2 1/2SM 22/22 RMK SLP107 T02210216 57010 IEM_DS3505
ZGGG,1984-04-01 00:00,ZGGG 010000Z AUTO 00000KT 1SM 21/12 RMK SLP114 T02130117 52008 IEM_DS3505
ZGGG,1984-04-01 03:00,ZGGG 010300Z AUTO 00000KT 2SM 24/22 RMK SLP123 T02450223 52009 IEM_DS3505
ZGGG,1984-04-01 06:00,ZGGG 010600Z AUTO 00000KT 2 1/2SM 21/21 RMK 60071 SLP111 T02140206 4////0205 57012 IEM_DS3505
ZGGG,1984-04-01 09:00,ZGGG 010900Z AUTO 00000KT 4SM 24/20 RMK SLP099 T02430197 57012 IEM_DS3505
ZGGG,1984-04-01 12:00,ZGGG 011200Z AUTO 02002KT 5SM 23/20 RMK 60000 SLP108 T02270205 52009 IEM_DS3505
ZGGG,1984-04-01 15:00,ZGGG 011500Z AUTO 11004KT 2 1/2SM 22/21 RMK SLP121 T02200212 52013 IEM_DS3505
ZGGG,1984-04-01 18:00,ZGGG 011800Z AUTO 00000KT 3SM 21/20 RMK SLP115 T02130202 40251//// 57006 IEM_DS3505
ZGGG,1984-04-01 21:00,ZGGG 012100Z AUTO 11002KT 3SM 21/21 RMK SLP109 T02120207 57006 IEM_DS3505
ZGGG,1984-04-02 00:00,ZGGG 020000Z AUTO 09002KT 2SM 22/21 RMK 60000 SLP120 T02190210 52011 IEM_DS3505
ZGGG,1984-04-02 03:00,ZGGG 020300Z AUTO 11006KT 5SM 22/20 RMK SLP130 T02160197 52010 IEM_DS3505
ZGGG,1984-04-02 06:00,ZGGG 020600Z AUTO 16006KT 6SM 22/19 RMK SLP113 T02240191 57017 IEM_DS3505
ZGGG,1984-04-02 09:00,ZGGG 020900Z AUTO 16006KT 6SM 22/20 RMK SLP093 T02220196 57020 IEM_DS3505
ZGGG,1984-04-02 12:00,ZGGG 021200Z AUTO 16006KT 6SM 21/19 RMK T02140189 52007 IEM_DS3505
ZGGG,1984-04-02 15:00,ZGGG 021500Z AUTO 09002KT 5SM 20/20 RMK SLP114 T02030196 52014 IEM_DS3505
ZGGG,1984-04-02 18:00,ZGGG 021800Z AUTO 07006KT 3SM 20/20 RMK 60004 SLP105 T02030195 57009 IEM_DS3505
ZGGG,1984-04-02 21:00,ZGGG 022100Z AUTO 09006KT 3SM 21/19 RMK SLP092 T02060194 57013 IEM_DS3505
ZGGG,1984-04-03 00:00,ZGGG 030000Z AUTO 11006KT 2SM 21/20 RMK SLP092 T02120200 54000 IEM_DS3505
ZGGG,1984-04-03 03:00,ZGGG 030300Z AUTO 14008KT 4SM 25/22 RMK SLP091 T02520221 57001 IEM_DS3505
ZGGG,1984-04-03 06:00,ZGGG 030600Z AUTO 16008KT 7SM 26/23 A2968 RMK SLP063 T02630226 57028 IEM_DS3505
ZGGG,1984-04-03 07:00,ZGGG 030700Z AUTO 15017KT 7SM 28/22 A2965 RMK T02800220 IEM_DS3505
ZGGG,1984-04-03 08:00,ZGGG 030800Z AUTO 15010KT 7SM 28/23 A2962 RMK T02800230 IEM_DS3505
ZGGG,1984-04-03 09:00,ZGGG 030900Z AUTO 16008KT 7SM 26/23 A2962 RMK SLP046 T02630229 57017 IEM_DS3505
ZGGG,1984-04-03 10:00,ZGGG 031000Z AUTO 15008KT 7SM 26/23 A2962 RMK T02600230 IEM_DS3505
ZGGG,1984-04-03 12:00,ZGGG 031200Z AUTO 14008KT 7SM 24/22 RMK SLP066 T02430224 52020 IEM_DS3505
ZGGG,1984-04-03 15:00,ZGGG 031500Z AUTO 11006KT 6SM 24/22 RMK SLP084 T02380221 52018 IEM_DS3505
ZGGG,1984-04-03 18:00,ZGGG 031800Z AUTO 14006KT 2 1/2SM 24/22 RMK T02350221 40278//// 57013 IEM_DS3505
ZGGG,1984-04-03 21:00,ZGGG 032100Z AUTO 11006KT 2 1/2SM 24/22 RMK SLP063 T02370224 57008 IEM_DS3505
ZGGG,1984-04-04 00:00,ZGGG 040000Z AUTO 11006KT 2 1/2SM 24/22 RMK SLP071 T02380221 52008 IEM_DS3505
ZGGG,1984-04-04 03:00,ZGGG 040300Z AUTO 16008KT 7SM 26/23 RMK SLP074 T02620226 52003 IEM_DS3505
ZGGG,1984-04-04 06:00,ZGGG 040600Z AUTO 16008KT 8SM 28/23 RMK SLP048 T02750231 4////0231 57026 IEM_DS3505
ZGGG,1984-04-04 09:00,ZGGG 040900Z AUTO 16006KT 7SM 27/23 RMK SLP032 T02710231 57016 IEM_DS3505
ZGGG,1984-04-04 12:00,ZGGG 041200Z AUTO 16004KT 4SM 26/23 RMK SLP043 T02590230 52011 IEM_DS3505
ZGGG,1984-04-04 15:00,ZGGG 041500Z AUTO 00000KT 3SM 26/23 RMK SLP059 T02550231 52016 IEM_DS3505
ZGGG,1984-04-04 18:00,ZGGG 041800Z AUTO 11006KT 2 1/2SM 24/23 RMK SLP046 T02440232 40285//// 57013 IEM_DS3505
ZGGG,1984-04-04 21:00,ZGGG 042100Z AUTO 00000KT 2 1/2SM 24/23 RMK SLP054 T02400231 52008 IEM_DS3505
ZGGG,1984-04-05 00:00,ZGGG 050000Z AUTO 36010KT 2SM 24/23 RMK 60001 SLP088 T02420233 52034 IEM_DS3505
ZGGG,1984-04-05 03:00,ZGGG 050300Z AUTO 02008KT 12SM 22/18 RMK SLP102 T02160180 52014 IEM_DS3505
ZGGG,1984-04-05 06:00,ZGGG 050600Z AUTO 34006KT 6SM 20/18 RMK 60008 SLP095 T01980183 4////0195 57007 IEM_DS3505
ZGGG,1984-04-05 09:00,ZGGG 050900Z AUTO 02006KT 2 1/2SM 19/18 RMK SLP090 T01900177 57005 IEM_DS3505
ZGGG,1984-04-05 12:00,ZGGG 051200Z AUTO 36006KT 7SM 19/17 RMK 60002 SLP107 T01870172 52017 IEM_DS3505
ZGGG,1984-04-05 15:00,ZGGG 051500Z AUTO 36006KT 6SM 18/17 RMK SLP127 T01830172 52020 IEM_DS3505
ZGGG,1984-04-05 18:00,ZGGG 051800Z AUTO 36004KT 6SM 18/17 RMK 60000 SLP122 T01820172 40243//// 57005 IEM_DS3505
ZGGG,1984-04-05 21:00,ZGGG 052100Z AUTO 00000KT 6SM 18/17 RMK SLP116 T01820167 57006 IEM_DS3505
ZGGG,1984-04-06 00:00,ZGGG 060000Z AUTO 34004KT 2 1/2SM 17/16 RMK SLP140 T01740163 52024 IEM_DS3505
ZGGG,1984-04-06 03:00,ZGGG 060300Z AUTO 36004KT 2SM 17/17 RMK SLP150 T01740169 52010 IEM_DS3505
ZGGG,1984-04-06 06:00,ZGGG 060600Z AUTO 34002KT 2SM 18/18 RMK 60001 SLP124 T01800175 4////0170 57026 IEM_DS3505
ZGGG,1984-04-06 09:00,ZGGG 060900Z AUTO 34004KT 2SM 18/17 RMK SLP120 T01810169 57004 IEM_DS3505
ZGGG,1984-04-06 12:00,ZGGG 061200Z AUTO 00000KT 2 1/2SM 17/16 RMK SLP129 T01730165 52009 IEM_DS3505
ZGGG,1984-04-06 15:00,ZGGG 061500Z AUTO 36004KT 1 1/4SM 18/17 RMK SLP155 T01760172 52026 IEM_DS3505
ZGGG,1984-04-06 18:00,ZGGG 061800Z AUTO 34004KT 3SM 18/17 RMK 60000 SLP141 T01780170 40185//// 57014 IEM_DS3505
ZGGG,1984-04-06 21:00,ZGGG 062100Z AUTO 02004KT 2SM 17/17 A2988 RMK SLP131 T01700167 57010 IEM_DS3505
ZGGG,1984-04-06 22:00,ZGGG 062200Z AUTO 01006KT 3SM 16/16 A2991 RMK T01600160 IEM_DS3505
ZGGG,1984-04-07 00:00,ZGGG 070000Z AUTO 36004KT 2SM 17/17 RMK 60008 SLP153 T01710166 52022 IEM_DS3505
ZGGG,1984-04-07 01:00,ZGGG 070100Z AUTO 00000KT 2 1/2SM 17/16 A2997 RMK T01700160 IEM_DS3505
ZGGG,1984-04-07 02:00,ZGGG 070200Z AUTO 00000KT 4SM 18/17 A2997 RMK T01800170 IEM_DS3505
ZGGG,1984-04-07 03:00,ZGGG 070300Z AUTO 09004KT 2SM 18/17 A2994 RMK SLP154 T01850173 52001 IEM_DS3505
ZGGG,1984-04-07 04:00,ZGGG 070400Z AUTO 00000KT 4SM 18/17 A2994 RMK T01800170 IEM_DS3505
ZGGG,1984-04-07 05:00,ZGGG 070500Z AUTO 03006KT 1 1/2SM 18/17 A2991 RMK T01800170 IEM_DS3505
ZGGG,1984-04-07 06:00,ZGGG 070600Z AUTO 09006KT 2SM 18/18 RMK 60004 SLP125 T01850179 4////0165 57029 IEM_DS3505
ZGGG,1984-04-07 08:00,ZGGG 070800Z AUTO 09006KT 2SM 18/18 RMK 60004 SLP125 T01850179 57029 IEM_DS3505
ZGGG,1984-04-07 12:00,ZGGG 071200Z AUTO 11004KT 2 1/2SM 18/18 RMK 60008 SLP122 T01850177 52004 IEM_DS3505
ZGGG,1984-04-07 15:00,ZGGG 071500Z AUTO 09006KT 2SM 18/18 RMK SLP134 T01810178 52012 IEM_DS3505
ZGGG,1984-04-07 18:00,ZGGG 071800Z AUTO 09004KT 2SM 18/18 RMK 60004 SLP131 T01840177 40187//// 57003 IEM_DS3505
ZGGG,1984-04-07 21:00,ZGGG 072100Z AUTO 07004KT 2SM 19/18 RMK SLP130 T01860178 57001 IEM_DS3505
ZGGG,1984-04-08 00:00,ZGGG 080000Z AUTO 11004KT 3SM 19/18 RMK 60000 SLP132 T01920179 52002 IEM_DS3505
ZGGG,1984-04-08 03:00,ZGGG 080300Z AUTO 16002KT 6SM 21/19 RMK SLP142 T02090189 52010 IEM_DS3505
ZGGG,1984-04-08 06:00,ZGGG 080600Z AUTO 00000KT 2 1/2SM 23/20 RMK SLP113 T02260200 4////0177 57029 IEM_DS3505
ZGGG,1984-04-08 09:00,ZGGG 080900Z AUTO 00000KT 2SM 23/20 RMK SLP103 T02280205 57010 IEM_DS3505
ZGGG,1984-04-08 12:00,ZGGG 081200Z AUTO 00000KT 2SM 22/21 RMK 60000 SLP121 T02210211 52018 IEM_DS3505
ZGGG,1984-04-08 15:00,ZGGG 081500Z AUTO 00000KT 1 1/4SM 21/21 RMK SLP130 T02140208 52009 IEM_DS3505
ZGGG,1984-04-08 18:00,ZGGG 081800Z AUTO 00000KT 1 1/4SM 21/21 RMK SLP127 T02120206 40232//// 57003 IEM_DS3505
ZGGG,1984-04-08 21:00,ZGGG 082100Z AUTO 00000KT 1SM 21/20 RMK SLP126 T02060203 57001 IEM_DS3505
ZGGG,1984-04-09 00:00,ZGGG 090000Z AUTO 00000KT 1 1/4SM 21/20 RMK 60001 SLP144 T02060201 52018 IEM_DS3505
ZGGG,1984-04-09 03:00,ZGGG 090300Z AUTO 07004KT 1 1/4SM 21/20 RMK SLP150 T02110202 52006 IEM_DS3505
ZGGG,1984-04-09 06:00,ZGGG 090600Z AUTO 00000KT 1 1/4SM 23/21 RMK 60001 SLP128 T02260208 4////0202 57022 IEM_DS3505
ZGGG,1984-04-09 09:00,ZGGG 090900Z AUTO 02004KT 1SM 22/21 RMK SLP108 T02240211 57020 IEM_DS3505
ZGGG,1984-04-09 12:00,ZGGG 091200Z AUTO 00000KT 1 1/4SM 21/21 RMK 60001 SLP120 T02120206 52012 IEM_DS3505
ZGGG,1984-04-09 15:00,ZGGG 091500Z AUTO 32002KT 2SM 20/19 RMK SLP132 T02020194 52012 IEM_DS3505
ZGGG,1984-04-09 18:00,ZGGG 091800Z AUTO 36004KT 2SM 19/19 RMK 60004 SLP127 T01940186 40233//// 57005 IEM_DS3505
ZGGG,1984-04-09 21:00,ZGGG 092100Z AUTO 02006KT 3SM 19/18 RMK SLP125 T01940176 57002 IEM_DS3505
ZGGG,1984-04-09 22:00,ZGGG 092200Z AUTO 02010KT 7SM 19/18 A2988 RMK T01900180 IEM_DS3505
ZGGG,1984-04-09 23:00,ZGGG 092300Z AUTO 02006KT 7SM 19/18 A2988 RMK T01900180 IEM_DS3505
ZGGG,1984-04-10 00:00,ZGGG 100000Z AUTO 00000KT 3SM 20/18 RMK 70004 SLP148 T01950183 52023 IEM_DS3505
ZGGG,1984-04-10 01:00,ZGGG 100100Z AUTO 01008KT 7SM 19/17 A2994 RMK T01900170 IEM_DS3505
ZGGG,1984-04-10 02:00,ZGGG 100200Z AUTO 34006KT 4SM 19/17 A2997 RMK T01900170 IEM_DS3505
ZGGG,1984-04-10 03:00,ZGGG 100300Z AUTO 36004KT 3SM 20/18 A2997 RMK SLP155 T01960182 52007 IEM_DS3505
ZGGG,1984-04-10 04:00,ZGGG 100400Z AUTO 36010KT 3SM 19/18 A2994 RMK T01900180 IEM_DS3505
ZGGG,1984-04-10 05:00,ZGGG 100500Z AUTO 36008KT 5SM 20/18 A2994 RMK T02000180 IEM_DS3505
ZGGG,1984-04-10 06:00,ZGGG 100600Z AUTO 02006KT 6SM 21/19 A2988 RMK SLP133 T02120187 4////0191 57022 IEM_DS3505
ZGGG,1984-04-10 07:00,ZGGG 100700Z AUTO 01010KT 7SM 21/19 A2988 RMK T02100190 IEM_DS3505
ZGGG,1984-04-10 08:00,ZGGG 100800Z AUTO 01010KT 7SM 21/18 A2985 RMK T02100180 IEM_DS3505
ZGGG,1984-04-10 09:00,ZGGG 100900Z AUTO 34002KT 7SM 22/19 A2985 RMK SLP122 T02160191 57011 IEM_DS3505
ZGGG,1984-04-10 12:00,ZGGG 101200Z AUTO 34004KT 2 1/2SM 20/18 RMK SLP130 T02030184 52008 IEM_DS3505
ZGGG,1984-04-10 15:00,ZGGG 101500Z AUTO 00000KT 2SM 19/18 RMK SLP140 T01910185 52010 IEM_DS3505
ZGGG,1984-04-10 18:00,ZGGG 101800Z AUTO 00000KT 2SM 19/18 RMK 60002 SLP135 T01870182 40223//// 57005 IEM_DS3505
ZGGG,1984-04-10 21:00,ZGGG 102100Z AUTO 36006KT 2 1/2SM 18/18 RMK SLP131 T01840177 57004 IEM_DS3505
ZGGG,1984-04-11 00:00,ZGGG 110000Z AUTO 36004KT 2 1/2SM 19/18 RMK 60004 SLP141 T01860175 52010 IEM_DS3505
ZGGG,1984-04-11 03:00,ZGGG 110300Z AUTO 00000KT 2 1/2SM 20/18 RMK SLP146 T02020184 52005 IEM_DS3505
ZGGG,1984-04-11 06:00,ZGGG 110600Z AUTO 09006KT 1SM 21/19 RMK SLP128 T02090194 4////0180 57018 IEM_DS3505
ZGGG,1984-04-11 09:00,ZGGG 110900Z AUTO 00000KT 1SM 21/20 RMK SLP111 T02110197 57017 IEM_DS3505
ZGGG,1984-04-11 12:00,ZGGG 111200Z AUTO 09002KT 1/2SM 21/20 RMK SLP119 T02060203 52008 IEM_DS3505
ZGGG,1984-04-11 15:00,ZGGG 111500Z AUTO 14004KT 1 1/4SM 21/20 RMK SLP127 T02080199 52008 IEM_DS3505
ZGGG,1984-04-11 18:00,ZGGG 111800Z AUTO 09004KT 2 1/2SM 20/18 RMK SLP124 T02020183 40214//// 57003 IEM_DS3505
ZGGG,1984-04-11 21:00,ZGGG 112100Z AUTO 11004KT 1 1/4SM 20/18 RMK SLP114 T01980182 57010 IEM_DS3505
ZGGG,1984-04-12 00:00,ZGGG 120000Z AUTO 07004KT 6SM 20/18 RMK SLP124 T02000181 52010 IEM_DS3505
ZGGG,1984-04-12 03:00,ZGGG 120300Z AUTO 00000KT 2SM 22/19 RMK SLP134 T02210186 52010 IEM_DS3505
ZGGG,1984-04-12 06:00,ZGGG 120600Z AUTO 3SM 21/18 RMK SLP122 T02080183 4////0194 57012 IEM_DS3505
ZGGG,1984-04-12 09:00,ZGGG 120900Z AUTO 02002KT 2 1/2SM 20/19 RMK SLP114 T02030189 57008 IEM_DS3505
ZGGG,1984-04-12 12:00,ZGGG 121200Z AUTO 7SM 20/18 RMK SLP126 T01970181 52012 IEM_DS3505
ZGGG,1984-04-12 15:00,ZGGG 121500Z AUTO 34004KT 7SM 19/18 RMK SLP140 T01920176 52014 IEM_DS3505
ZGGG,1984-04-12 18:00,ZGGG 121800Z AUTO 36006KT 7SM 20/17 RMK SLP135 T01950168 40228//// 57005 IEM_DS3505
ZGGG,1984-04-12 21:00,ZGGG 122100Z AUTO 00000KT 6SM 19/17 RMK SLP131 T01900172 57004 IEM_DS3505
ZGGG,1984-04-13 00:00,ZGGG 130000Z AUTO 02002KT 9SM 19/16 RMK SLP148 T01930162 52017 IEM_DS3505
ZGGG,1984-04-13 03:00,ZGGG 130300Z AUTO 02002KT 9SM 21/15 RMK SLP155 T02080146 52007 IEM_DS3505
ZGGG,1984-04-13 06:00,ZGGG 130600Z AUTO 00000KT 10SM 21/16 RMK SLP139 T02110157 4////0188 57016 IEM_DS3505
ZGGG,1984-04-13 09:00,ZGGG 130900Z AUTO 00000KT 5SM 20/17 RMK SLP127 T02040172 57012 IEM_DS3505
ZGGG,1984-04-13 12:00,ZGGG 131200Z AUTO 00000KT 4SM 20/18 RMK 60008 SLP142 T01970178 52015 IEM_DS3505
ZGGG,1984-04-13 15:00,ZGGG 131500Z AUTO 00000KT 2 1/2SM 19/18 RMK SLP149 T01870177 52007 IEM_DS3505
ZGGG,1984-04-13 18:00,ZGGG 131800Z AUTO 00000KT 1SM 19/18 RMK 60004 SLP142 T01880181 40213//// 57007 IEM_DS3505
ZGGG,1984-04-13 21:00,ZGGG 132100Z AUTO 00000KT 1SM 18/18 A2988 RMK SLP128 T01840179 57014 IEM_DS3505
ZGGG,1984-04-13 22:00,ZGGG 132200Z AUTO 04002KT 1SM 18/17 A2988 RMK T01800170 IEM_DS3505
ZGGG,1984-04-13 23:00,ZGGG 132300Z AUTO 00000KT 1 1/4SM 19/17 A2988 RMK T01900170 IEM_DS3505
ZGGG,1984-04-14 00:00,ZGGG 140000Z AUTO 00000KT 1SM 19/18 A2991 RMK 70012 SLP143 T01930182 52015 IEM_DS3505
ZGGG,1984-04-14 01:00,ZGGG 140100Z AUTO 32006KT 1 1/4SM 19/18 A2994 RMK T01900180 IEM_DS3505
ZGGG,1984-04-14 02:00,ZGGG 140200Z AUTO 02006KT 1SM 19/18 A2994 RMK T01900180 IEM_DS3505
ZGGG,1984-04-14 03:00,ZGGG 140300Z AUTO 02002KT 2 1/2SM 20/17 A2997 RMK SLP158 T01990173 52015 IEM_DS3505
ZGGG,1984-04-14 04:00,ZGGG 140400Z AUTO 36006KT 7SM 20/17 A2994 RMK T02000170 IEM_DS3505
ZGGG,1984-04-14 05:00,ZGGG 140500Z AUTO 01006KT 7SM 20/16 A2994 RMK T02000160 IEM_DS3505
ZGGG,1984-04-14 06:00,ZGGG 140600Z AUTO 00000KT 4SM 19/15 A2994 RMK 60008 SLP139 T01870153 4////0182 57019 IEM_DS3505
ZGGG,1984-04-14 07:00,ZGGG 140700Z AUTO 36008KT 7SM 19/14 A2988 RMK T01900140 IEM_DS3505
ZGGG,1984-04-14 09:00,ZGGG 140900Z AUTO 00000KT 2SM 17/16 RMK SLP129 T01720162 57010 IEM_DS3505
ZGGG,1984-04-14 12:00,ZGGG 141200Z AUTO 00000KT 5SM 17/16 RMK 60024 SLP131 T01710163 IEM_DS3505
ZGGG,1984-04-14 15:00,ZGGG 141500Z AUTO 00000KT 2SM 18/17 RMK SLP145 T01750168 52014 IEM_DS3505
ZGGG,1984-04-14 18:00,ZGGG 141800Z AUTO 00000KT 2SM 18/17 RMK SLP132 T01760169 40206//// 57013 IEM_DS3505
ZGGG,1984-04-14 21:00,ZGGG 142100Z AUTO 00000KT 2SM 18/17 RMK SLP123 T01760171 57009 IEM_DS3505
ZGGG,1984-04-15 00:00,ZGGG 150000Z AUTO 07002KT 3SM 18/17 RMK 60000 SLP141 T01780168 52018 IEM_DS3505
ZGGG,1984-04-15 03:00,ZGGG 150300Z AUTO 00000KT 2 1/2SM 19/17 RMK SLP143 T01930172 52002 IEM_DS3505
ZGGG,1984-04-15 06:00,ZGGG 150600Z AUTO 00000KT 1 1/4SM 20/18 RMK SLP117 T02040183 57007 IEM_DS3505
ZGGG,1984-04-15 09:00,ZGGG 150900Z AUTO 00000KT 1 1/4SM 20/18 RMK SLP113 T02040183 57007 IEM_DS3505
ZGGG,1984-04-15 12:00,ZGGG 151200Z AUTO 00000KT 1 1/4SM 20/19 RMK SLP129 T01990189 52016 IEM_DS3505
ZGGG,1984-04-15 15:00,ZGGG 151500Z AUTO 00000KT 1SM 20/19 RMK SLP135 T01960188 52006 IEM_DS3505
ZGGG,1984-04-15 18:00,ZGGG 151800Z AUTO 00000KT 1SM 20/19 RMK T01970191 40212//// 57006 IEM_DS3505
ZGGG,1984-04-16 00:00,ZGGG 160000Z AUTO 07006KT 5SM 21/19 RMK SLP130 T02080189 52007 IEM_DS3505
ZGGG,1984-04-16 03:00,ZGGG 160300Z AUTO 14002KT 6SM 23/20 RMK SLP143 T02270201 52013 IEM_DS3505
ZGGG,1984-04-16 06:00,ZGGG 160600Z AUTO 14004KT 5SM 24/21 RMK SLP115 T02380207 4////0194 57028 IEM_DS3505
ZGGG,1984-04-16 09:00,ZGGG 160900Z AUTO 00000KT 2 1/2SM 23/22 RMK SLP102 T02280218 57013 IEM_DS3505
ZGGG,1984-04-16 12:00,ZGGG 161200Z AUTO 11004KT 2SM 22/21 RMK 60004 SLP114 T02230208 52012 IEM_DS3505
ZGGG,1984-04-16 15:00,ZGGG 161500Z AUTO 11004KT 2SM 22/20 RMK SLP124 T02190203 52010 IEM_DS3505
ZGGG,1984-04-16 18:00,ZGGG 161800Z AUTO 11004KT 2 1/2SM 21/20 RMK 60008 SLP116 T02130202 40242//// 57008 IEM_DS3505
ZGGG,1984-04-16 21:00,ZGGG 162100Z AUTO 09006KT 2 1/2SM 21/20 RMK SLP107 T02140203 57009 IEM_DS3505
ZGGG,1984-04-17 00:00,ZGGG 170000Z AUTO 11004KT 5SM 22/20 RMK 60016 SLP119 T02190205 52012 IEM_DS3505
ZGGG,1984-04-17 03:00,ZGGG 170300Z AUTO 07004KT 2 1/2SM 22/21 RMK SLP122 T02240212 52003 IEM_DS3505
ZGGG,1984-04-17 06:00,ZGGG 170600Z AUTO 14006KT 7SM 24/22 RMK 60024 SLP100 T02440217 4////0209 57022 IEM_DS3505
ZGGG,1984-04-17 09:00,ZGGG 170900Z AUTO 14008KT 10SM 26/21 RMK SLP085 T02630214 57015 IEM_DS3505
ZGGG,1984-04-17 12:00,ZGGG 171200Z AUTO 00000KT 9SM 23/21 RMK SLP095 T02320208 52010 IEM_DS3505
ZGGG,1984-04-17 15:00,ZGGG 171500Z AUTO 00000KT 4SM 22/21 RMK SLP108 T02250210 52013 IEM_DS3505
ZGGG,1984-04-17 18:00,ZGGG 171800Z AUTO 09004KT 2 1/2SM 22/21 RMK SLP097 T02150211 40266//// 57011 IEM_DS3505
ZGGG,1984-04-17 21:00,ZGGG 172100Z AUTO 07004KT 2 1/2SM 22/21 RMK SLP089 T02170209 57008 IEM_DS3505
ZGGG,1984-04-18 00:00,ZGGG 180000Z AUTO 09004KT 2 1/2SM 22/21 RMK SLP097 T02240211 52008 IEM_DS3505
ZGGG,1984-04-18 03:00,ZGGG 180300Z AUTO 11006KT 2 1/2SM 24/22 RMK SLP096 T02430218 57001 IEM_DS3505
ZGGG,1984-04-18 06:00,ZGGG 180600Z AUTO 14006KT 4SM 26/22 RMK SLP063 T02580224 4////0211 57033 IEM_DS3505
ZGGG,1984-04-18 09:00,ZGGG 180900Z AUTO 11006KT 2 1/2SM 25/23 RMK SLP047 T02460228 57016 IEM_DS3505
ZGGG,1984-04-18 12:00,ZGGG 181200Z AUTO 09004KT 2SM 21/21 RMK 60118 SLP058 T02140209 52011 IEM_DS3505
ZGGG,1984-04-18 15:00,ZGGG 181500Z AUTO 00000KT 2SM 22/21 RMK SLP083 T02150209 52025 IEM_DS3505
ZGGG,1984-04-18 18:00,ZGGG 181800Z AUTO 00000KT 2SM 21/20 RMK 60001 SLP072 T02080200 40265//// 57011 IEM_DS3505
ZGGG,1984-04-18 21:00,ZGGG 182100Z AUTO 36004KT 2SM 20/18 RMK SLP070 T02050183 57002 IEM_DS3505
ZGGG,1984-04-19 00:00,ZGGG 190000Z AUTO 34004KT 11SM 21/18 RMK SLP087 T02080180 52017 IEM_DS3505
ZGGG,1984-04-19 03:00,ZGGG 190300Z AUTO 32004KT 11SM 25/20 RMK SLP086 T02470196 57001 IEM_DS3505
ZGGG,1984-04-19 06:00,ZGGG 190600Z AUTO 07002KT 11SM 26/21 RMK SLP070 T02570209 4////0200 57016 IEM_DS3505
ZGGG,1984-04-19 09:00,ZGGG 190900Z AUTO 00000KT 9SM 25/21 RMK SLP054 T02480208 57016 IEM_DS3505
ZGGG,1984-04-19 12:00,ZGGG 191200Z AUTO 04002KT 9SM 24/22 RMK SLP064 T02380220 52010 IEM_DS3505
ZGGG,1984-04-19 15:00,ZGGG 191500Z AUTO 09006KT 7SM 24/22 RMK SLP082 T02360215 52018 IEM_DS3505
ZGGG,1984-04-19 18:00,ZGGG 191800Z AUTO 00000KT 5SM 22/22 RMK 60000 SLP074 T02250220 40259//// 57008 IEM_DS3505
ZGGG,1984-04-19 21:00,ZGGG 192100Z AUTO 14004KT 5SM RMK SLP071 57003 IEM_DS3505
ZGGG,1984-04-20 00:00,ZGGG 200000Z AUTO 11008KT 4SM 22/20 RMK 60000 SLP081 T02200205 52010 IEM_DS3505
ZGGG,1984-04-20 03:00,ZGGG 200300Z AUTO 14004KT 5SM 23/21 RMK SLP081 T02310208 54000 IEM_DS3505
ZGGG,1984-04-20 06:00,ZGGG 200600Z AUTO 11008KT 5SM 24/22 RMK SLP063 T02450216 4////0217 57018 IEM_DS3505
ZGGG,1984-04-20 09:00,ZGGG 200900Z AUTO 14008KT 2 1/2SM 24/22 RMK SLP056 T02350217 57007 IEM_DS3505
ZGGG,1984-04-20 12:00,ZGGG 201200Z AUTO 14004KT 2SM 23/21 RMK 60012 SLP072 T02260209 52016 IEM_DS3505
ZGGG,1984-04-20 15:00,ZGGG 201500Z AUTO 09004KT 2SM 22/21 RMK SLP096 T02220207 52024 IEM_DS3505
ZGGG,1984-04-20 18:00,ZGGG 201800Z AUTO 09002KT 2SM 22/21 RMK SLP085 T02200208 40249//// 57011 IEM_DS3505
ZGGG,1984-04-20 21:00,ZGGG 202100Z AUTO 36004KT 7SM 22/21 A2977 RMK 70039 SLP091 T02220210 52006 IEM_DS3505
ZGGG,1984-04-20 22:00,ZGGG 202200Z AUTO 01008KT 5SM 22/21 A2977 RMK T02200210 IEM_DS3505
ZGGG,1984-04-20 23:00,ZGGG 202300Z AUTO 02008KT 7SM 22/21 A2980 RMK T02200210 IEM_DS3505
ZGGG,1984-04-21 00:00,ZGGG 210000Z AUTO 02006KT 10SM 22/21 A2983 RMK 60028 SLP115 T02220207 52024 IEM_DS3505
ZGGG,1984-04-21 01:00,ZGGG 210100Z AUTO 36010KT 7SM 23/20 A2985 RMK T02300200 IEM_DS3505
ZGGG,1984-04-21 02:00,ZGGG 210200Z AUTO 35010KT 7SM 23/20 A2988 RMK T02300200 IEM_DS3505
ZGGG,1984-04-21 03:00,ZGGG 210300Z AUTO 36006KT 9SM 24/20 RMK SLP125 T02350196 52010 IEM_DS3505
ZGGG,1984-04-21 06:00,ZGGG 210600Z AUTO 36010KT 9SM 25/19 RMK SLP117 T02470189 4////0217 57008 IEM_DS3505
ZGGG,1984-04-21 09:00,ZGGG 210900Z AUTO 29006KT 9SM 23/18 RMK SLP126 T02300183 52009 IEM_DS3505
ZGGG,1984-04-21 12:00,ZGGG 211200Z AUTO 36006KT 9SM 20/18 RMK 60008 SLP139 T02010183 52013 IEM_DS3505
ZGGG,1984-04-21 15:00,ZGGG 211500Z AUTO 34006KT 9SM 21/18 RMK SLP160 T02090179 52021 IEM_DS3505
ZGGG,1984-04-21 18:00,ZGGG 211800Z AUTO 00000KT 4SM 21/17 RMK SLP150 T02060167 40260//// 57010 IEM_DS3505
ZGGG,1984-04-21 21:00,ZGGG 212100Z AUTO 02006KT 6SM 20/13 RMK SLP156 T02040133 52006 IEM_DS3505
ZGGG,1984-04-22 00:00,ZGGG 220000Z AUTO 04004KT 10SM 20/14 RMK SLP180 T02000138 52014 IEM_DS3505
ZGGG,1984-04-22 03:00,ZGGG 220300Z AUTO 02006KT 10SM 21/14 RMK SLP181 T02140139 52001 IEM_DS3505
ZGGG,1984-04-22 06:00,ZGGG 220600Z AUTO 36004KT 9SM 23/14 RMK SLP164 T02300143 4////0196 57017 IEM_DS3505
ZGGG,1984-04-22 09:00,ZGGG 220900Z AUTO 14004KT 7SM 22/16 RMK SLP152 T02220162 57012 IEM_DS3505
ZGGG,1984-04-22 12:00,ZGGG 221200Z AUTO 00000KT 6SM 21/18 RMK SLP168 T02090175 52016 IEM_DS3505
ZGGG,1984-04-22 15:00,ZGGG 221500Z AUTO 00000KT 4SM 20/18 RMK SLP176 T02000177 52008 IEM_DS3505
ZGGG,1984-04-22 18:00,ZGGG 221800Z AUTO 04002KT 6SM 19/15 RMK SLP172 T01920148 40236//// 57004 IEM_DS3505
ZGGG,1984-04-22 21:00,ZGGG 222100Z AUTO 00000KT 6SM 17/16 RMK SLP174 T01740156 52002 IEM_DS3505
ZGGG,1984-04-23 00:00,ZGGG 230000Z AUTO 02002KT 9SM 19/15 RMK SLP192 T01890148 52018 IEM_DS3505
ZGGG,1984-04-23 03:00,ZGGG 230300Z AUTO 16004KT 9SM 22/15 RMK SLP189 T02220148 57003 IEM_DS3505
ZGGG,1984-04-23 06:00,ZGGG 230600Z AUTO 00000KT 6SM 24/16 RMK SLP158 T02440157 4////0167 57031 IEM_DS3505
ZGGG,1984-04-23 09:00,ZGGG 230900Z AUTO 16004KT 9SM 24/16 RMK SLP142 T02400162 57016 IEM_DS3505
ZGGG,1984-04-23 12:00,ZGGG 231200Z AUTO 00000KT 2 1/2SM 23/18 RMK SLP151 T02260183 52009 IEM_DS3505
ZGGG,1984-04-23 15:00,ZGGG 231500Z AUTO 16004KT 3SM 21/16 RMK SLP163 T02110155 52012 IEM_DS3505
ZGGG,1984-04-23 18:00,ZGGG 231800Z AUTO 18002KT 6SM 20/13 RMK SLP153 T02010133 40248//// 57010 IEM_DS3505
ZGGG,1984-04-23 21:00,ZGGG 232100Z AUTO 11004KT 6SM 19/13 RMK SLP153 T01890127 54000 IEM_DS3505
ZGGG,1984-04-24 00:00,ZGGG 240000Z AUTO 09004KT 7SM 19/14 RMK SLP166 T01900136 52013 IEM_DS3505
ZGGG,1984-04-24 03:00,ZGGG 240300Z AUTO 14006KT 7SM 20/13 A3000 RMK SLP166 T02050130 54000 IEM_DS3505
ZGGG,1984-04-24 04:00,ZGGG 240400Z AUTO 15006KT 6SM 22/12 A2997 RMK T02200120 IEM_DS3505
ZGGG,1984-04-24 05:00,ZGGG 240500Z AUTO 15008KT 6SM 23/12 A2994 RMK T02300120 IEM_DS3505
ZGGG,1984-04-24 06:00,ZGGG 240600Z AUTO 14004KT 7SM 23/13 A2991 RMK SLP147 T02290129 4////0184 57019 IEM_DS3505
ZGGG,1984-04-24 07:00,ZGGG 240700Z AUTO 00000KT 7SM 20/17 A2991 RMK T02000170 IEM_DS3505
ZGGG,1984-04-24 08:00,ZGGG 240800Z AUTO 00000KT 6SM 20/16 A2988 RMK T02000160 IEM_DS3505
ZGGG,1984-04-24 09:00,ZGGG 240900Z AUTO 00000KT 7SM 21/15 A2985 RMK SLP125 T02100149 57022 IEM_DS3505
ZGGG,1984-04-24 10:00,ZGGG 241000Z AUTO 00000KT 5SM 20/16 A2988 RMK T02000160 IEM_DS3505
ZGGG,1984-04-24 12:00,ZGGG 241200Z AUTO 34004KT 2 1/2SM 18/17 RMK 60012 SLP141 T01790166 52016 IEM_DS3505
ZGGG,1984-04-24 15:00,ZGGG 241500Z AUTO 34002KT 2SM 17/16 RMK SLP148 T01660161 52007 IEM_DS3505
ZGGG,1984-04-24 18:00,ZGGG 241800Z AUTO 00000KT 5SM 17/16 RMK 60012 SLP129 T01690163 40233//// 57019 IEM_DS3505
ZGGG,1984-04-24 21:00,ZGGG 242100Z AUTO 00000KT 2 1/2SM 17/17 RMK SLP119 T01720167 57010 IEM_DS3505
ZGGG,1984-04-25 00:00,ZGGG 250000Z AUTO 00000KT 4SM 17/17 RMK 60012 SLP130 T01740169 52011 IEM_DS3505
ZGGG,1984-04-25 03:00,ZGGG 250300Z AUTO 00000KT 5SM 19/17 RMK SLP131 T01900172 52001 IEM_DS3505
ZGGG,1984-04-25 06:00,ZGGG 250600Z AUTO 00000KT 1SM 20/18 RMK 60004 SLP115 T02010179 4////0162 57016 IEM_DS3505
ZGGG,1984-04-25 09:00,ZGGG 250900Z AUTO 00000KT 1SM 20/18 RMK SLP102 T02010185 57013 IEM_DS3505
ZGGG,1984-04-25 12:00,ZGGG 251200Z AUTO 00000KT 2SM 20/19 RMK 60004 SLP107 T01990189 52005 IEM_DS3505
ZGGG,1984-04-25 18:00,ZGGG 251800Z AUTO 00000KT 2SM 20/19 RMK 60004 SLP106 T01970192 40208//// 57015 IEM_DS3505
ZGGG,1984-04-25 21:00,ZGGG 252100Z AUTO 11004KT 2SM 20/19 RMK SLP099 T01970194 57007 IEM_DS3505
ZGGG,1984-04-26 00:00,ZGGG 260000Z AUTO 00000KT 1SM 20/20 RMK 60001 SLP112 T02000196 52013 IEM_DS3505
ZGGG,1984-04-26 03:00,ZGGG 260300Z AUTO 00000KT 1SM 21/20 RMK SLP112 T02080203 54000 IEM_DS3505
ZGGG,1984-04-26 06:00,ZGGG 260600Z AUTO 09002KT 1SM 22/21 RMK 60001 SLP097 T02170206 4////0193 57015 IEM_DS3505
ZGGG,1984-04-26 09:00,ZGGG 260900Z AUTO 09002KT 1SM 22/21 RMK SLP079 T02170212 57018 IEM_DS3505
ZGGG,1984-04-26 12:00,ZGGG 261200Z AUTO 11002KT 1 1/4SM 22/21 RMK 60008 SLP091 T02160210 52012 IEM_DS3505
ZGGG,1984-04-26 15:00,ZGGG 261500Z AUTO 11004KT 1 1/4SM 21/21 RMK SLP097 T02140206 52006 IEM_DS3505
ZGGG,1984-04-26 18:00,ZGGG 261800Z AUTO 11004KT 1SM 21/20 RMK 60004 SLP078 T02120204 40220//// 57019 IEM_DS3505
ZGGG,1984-04-26 21:00,ZGGG 262100Z AUTO 11004KT 1SM 21/21 RMK SLP069 T02110206 57009 IEM_DS3505
ZGGG,1984-04-27 00:00,ZGGG 270000Z AUTO 00000KT 1 1/4SM 21/21 RMK 60004 SLP080 T02140208 52011 IEM_DS3505
ZGGG,1984-04-27 03:00,ZGGG 270300Z AUTO 11004KT 1 1/4SM 23/22 RMK SLP080 T02260217 54000 IEM_DS3505
ZGGG,1984-04-27 06:00,ZGGG 270600Z AUTO 00000KT 1 1/4SM 23/22 RMK 60039 SLP059 T02300224 4////0209 57021 IEM_DS3505
ZGGG,1984-04-27 09:00,ZGGG 270900Z AUTO 02004KT 1 1/4SM 22/22 RMK SLP051 T02210216 57008 IEM_DS3505
ZGGG,1984-04-27 12:00,ZGGG 271200Z AUTO 00000KT 2 1/2SM 22/22 RMK 60189 SLP065 T02220219 52014 IEM_DS3505
ZGGG,1984-04-27 15:00,ZGGG 271500Z AUTO 09002KT 2SM 22/22 RMK SLP077 T02210218 52012 IEM_DS3505
ZGGG,1984-04-27 18:00,ZGGG 271800Z AUTO 36002KT 2SM 22/21 RMK 60008 SLP064 T02180213 40232//// 57013 IEM_DS3505
ZGGG,1984-04-27 21:00,ZGGG 272100Z AUTO 36006KT 2SM 21/20 A2968 RMK SLP061 T02120201 57003 IEM_DS3505
ZGGG,1984-04-27 22:00,ZGGG 272200Z AUTO 01010KT 7SM 20/19 A2971 RMK T02000190 IEM_DS3505
ZGGG,1984-04-27 23:00,ZGGG 272300Z AUTO 01006KT 7SM 20/19 A2974 RMK T02000190 IEM_DS3505
ZGGG,1984-04-28 00:00,ZGGG 280000Z AUTO 36006KT 2 1/2SM 20/19 A2977 RMK 60001 SLP089 T02030190 52028 IEM_DS3505
ZGGG,1984-04-28 01:00,ZGGG 280100Z AUTO 01010KT 7SM 20/18 A2977 RMK T02000180 IEM_DS3505
ZGGG,1984-04-28 03:00,ZGGG 280300Z AUTO 36006KT 9SM 22/19 A2980 RMK SLP097 T02190188 52008 IEM_DS3505
ZGGG,1984-04-28 04:00,ZGGG 280400Z AUTO 33010KT 7SM 23/19 RMK T02300190 IEM_DS3505
ZGGG,1984-04-28 05:00,ZGGG 280500Z AUTO 34010KT 7SM 23/18 A2977 RMK T02300180 IEM_DS3505
ZGGG,1984-04-28 06:00,ZGGG 280600Z AUTO 34006KT 9SM 23/19 RMK 60000 SLP084 T02300194 4////0198 57013 IEM_DS3505
ZGGG,1984-04-28 09:00,ZGGG 280900Z AUTO 36004KT 6SM 21/19 RMK SLP074 T02120193 57010 IEM_DS3505
ZGGG,1984-04-28 12:00,ZGGG 281200Z AUTO 00000KT 7SM 21/20 RMK 60000 SLP091 T02090198 52017 IEM_DS3505
ZGGG,1984-04-28 15:00,ZGGG 281500Z AUTO 00000KT 7SM 21/20 RMK SLP103 T02070199 52012 IEM_DS3505
ZGGG,1984-04-28 18:00,ZGGG 281800Z AUTO 00000KT 7SM 20/19 RMK 60002 SLP092 T02040191 40233//// 57011 IEM_DS3505
ZGGG,1984-04-28 21:00,ZGGG 282100Z AUTO 00000KT 4SM 20/18 RMK SLP089 T01970181 57003 IEM_DS3505
ZGGG,1984-04-29 00:00,ZGGG 290000Z AUTO 00000KT 6SM 19/18 RMK 60004 SLP103 T01940184 52014 IEM_DS3505
ZGGG,1984-04-29 03:00,ZGGG 290300Z AUTO 02006KT 2 1/2SM 20/19 RMK SLP116 T01970187 52013 IEM_DS3505
ZGGG,1984-04-29 06:00,ZGGG 290600Z AUTO 36006KT 5SM 21/19 RMK 60004 SLP099 T02070190 4////0186 57017 IEM_DS3505
ZGGG,1984-04-29 09:00,ZGGG 290900Z AUTO 02004KT 5SM 21/19 RMK SLP091 T02100193 57008 IEM_DS3505
ZGGG,1984-04-29 12:00,ZGGG 291200Z AUTO 00000KT 5SM 20/19 RMK 60002 SLP098 T02040194 52007 IEM_DS3505
ZGGG,1984-04-29 15:00,ZGGG 291500Z AUTO 00000KT 4SM 20/20 RMK SLP109 T02020196 52011 IEM_DS3505
ZGGG,1984-04-29 18:00,ZGGG 291800Z AUTO 00000KT 1SM 20/20 RMK 60008 SLP100 T02030200 40214//// 57009 IEM_DS3505
ZGGG,1984-04-29 21:00,ZGGG 292100Z AUTO 00000KT 1SM 20/20 RMK SLP099 T02020197 57001 IEM_DS3505
ZGGG,1984-04-30 00:00,ZGGG 300000Z AUTO 00000KT 5SM 20/20 RMK 60001 SLP118 T02050196 52019 IEM_DS3505
ZGGG,1984-04-30 03:00,ZGGG 300300Z AUTO 11004KT 2 1/2SM 22/20 RMK SLP130 T02170200 52012 IEM_DS3505
ZGGG,1984-04-30 06:00,ZGGG 300600Z AUTO 34002KT 5SM 23/20 RMK SLP106 T02270201 4////0195 57024 IEM_DS3505
ZGGG,1984-04-30 09:00,ZGGG 300900Z AUTO 00000KT 7SM 24/20 RMK SLP094 T02430202 57012 IEM_DS3505
ZGGG,1984-04-30 12:00,ZGGG 301200Z AUTO 00000KT 6SM 23/21 RMK SLP107 T02270213 52013 IEM_DS3505
ZGGG,1984-04-30 15:00,ZGGG 301500Z AUTO 00000KT 4SM 22/22 RMK SLP121 T02240215 52014 IEM_DS3505
ZGGG,1984-04-30 18:00,ZGGG 301800Z AUTO 00000KT 2 1/2SM 22/20 RMK SLP110 T02200201 40251//// 57011 IEM_DS3505
ZGGG,1984-04-30 21:00,ZGGG 302100Z AUTO 00000KT 2 1/2SM 21/20 RMK SLP105 T02130204 57005 IEM_DS3505
ZGGG,1984-05-01 00:00,ZGGG 010000Z AUTO 00000KT 2 1/2SM 22/20 RMK SLP114 T02190205 52009 IEM_DS3505
ZGGG,1984-05-01 02:00,ZGGG 010200Z AUTO 13004KT 7SM 23/20 A2985 RMK T02300200 IEM_DS3505
ZGGG,1984-05-01 03:00,ZGGG 010300Z AUTO 11004KT 7SM 24/20 RMK SLP118 T02350198 52004 IEM_DS3505
ZGGG,1984-05-01 04:00,ZGGG 010400Z AUTO 16004KT 7SM 24/20 A2985 RMK T02400200 IEM_DS3505
ZGGG,1984-05-01 05:00,ZGGG 010500Z AUTO 16004KT 7SM 24/20 A2983 RMK T02400200 IEM_DS3505
ZGGG,1984-05-01 06:00,ZGGG 010600Z AUTO 14004KT 7SM 24/20 A2980 RMK SLP098 T02410203 4////0210 57020 IEM_DS3505
ZGGG,1984-05-01 07:00,ZGGG 010700Z AUTO 17006KT 7SM 25/20 A2977 RMK T02500200 IEM_DS3505
ZGGG,1984-05-01 08:00,ZGGG 010800Z AUTO 17008KT 7SM 24/21 A2977 RMK T02400210 IEM_DS3505
ZGGG,1984-05-01 09:00,ZGGG 010900Z AUTO 14004KT 7SM 24/21 RMK SLP085 T02420209 57013 IEM_DS3505
ZGGG,1984-05-01 12:00,ZGGG 011200Z AUTO 16002KT 7SM 23/21 RMK SLP097 T02280208 52012 IEM_DS3505
ZGGG,1984-05-01 15:00,ZGGG 011500Z AUTO 00000KT 6SM 22/21 RMK SLP111 T02170208 52014 IEM_DS3505
ZGGG,1984-05-01 18:00,ZGGG 011800Z AUTO 00000KT 5SM 21/21 RMK 60004 SLP105 T02130207 40252//// 57006 IEM_DS3505
ZGGG,1984-05-01 21:00,ZGGG 012100Z AUTO 07002KT 6SM 21/20 RMK SLP091 T02130205 57014 IEM_DS3505
ZGGG,1984-05-02 00:00,ZGGG 020000Z AUTO 09004KT 2 1/2SM 22/21 RMK 60002 SLP104 T02200208 52013 IEM_DS3505
ZGGG,1984-05-02 03:00,ZGGG 020300Z AUTO 09006KT 5SM 26/21 RMK SLP109 T02570214 52005 IEM_DS3505
ZGGG,1984-05-02 06:00,ZGGG 020600Z AUTO 14002KT 9SM 26/22 RMK SLP091 T02650221 4////0210 57018 IEM_DS3505
ZGGG,1984-05-02 09:00,ZGGG 020900Z AUTO 00000KT 8SM 26/23 RMK SLP075 T02620226 57016 IEM_DS3505
ZGGG,1984-05-02 12:00,ZGGG 021200Z AUTO 18006KT 7SM 25/22 RMK SLP083 T02470219 52008 IEM_DS3505
ZGGG,1984-05-02 15:00,ZGGG 021500Z AUTO 14004KT 6SM 24/21 RMK SLP103 T02360207 52020 IEM_DS3505
ZGGG,1984-05-02 18:00,ZGGG 021800Z AUTO 00000KT 6SM 23/21 RMK SLP093 T02280212 40273//// 57010 IEM_DS3505
ZGGG,1984-05-02 21:00,ZGGG 022100Z AUTO 11004KT 6SM 23/21 RMK SLP089 T02270209 57004 IEM_DS3505
ZGGG,1984-05-03 00:00,ZGGG 030000Z AUTO 09004KT 7SM 23/21 RMK SLP093 T02300207 52004 IEM_DS3505
ZGGG,1984-05-03 03:00,ZGGG 030300Z AUTO 14006KT 9SM 25/22 RMK SLP099 T02510216 52006 IEM_DS3505
ZGGG,1984-05-03 06:00,ZGGG 030600Z AUTO 11004KT 7SM 26/22 RMK SLP081 T02590225 4////0224 57018 IEM_DS3505
ZGGG,1984-05-03 09:00,ZGGG 030900Z AUTO 18004KT 7SM 26/22 RMK SLP064 T02550221 57017 IEM_DS3505
ZGGG,1984-05-03 12:00,ZGGG 031200Z AUTO 00000KT 6SM 24/22 RMK 60002 SLP077 T02370224 52013 IEM_DS3505
ZGGG,1984-05-03 15:00,ZGGG 031500Z AUTO 00000KT 6SM 23/22 RMK SLP092 T02330219 52015 IEM_DS3505
ZGGG,1984-05-03 18:00,ZGGG 031800Z AUTO 02008KT 2 1/2SM 23/21 RMK SLP082 T02300213 40265//// 57010 IEM_DS3505
ZGGG,1984-05-03 21:00,ZGGG 032100Z AUTO 09004KT 2SM 21/20 RMK SLP080 T02100205 57002 IEM_DS3505
ZGGG,1984-05-04 00:00,ZGGG 040000Z AUTO 00000KT 1 1/4SM 21/21 RMK 60236 SLP078 T02110208 57002 IEM_DS3505
ZGGG,1984-05-04 03:00,ZGGG 040300Z AUTO 02002KT 2SM 20/20 RMK SLP079 T02010196 52001 IEM_DS3505
ZGGG,1984-05-04 06:00,ZGGG 040600Z AUTO 36004KT 5SM 22/19 RMK 60051 SLP070 T02220194 4////0196 57009 IEM_DS3505
ZGGG,1984-05-04 09:00,ZGGG 040900Z AUTO 36006KT 7SM 21/18 RMK SLP067 T02110179 57003 IEM_DS3505
ZGGG,1984-05-04 11:00,ZGGG 041100Z AUTO 00000KT 4SM 19/16 RMK SLP090 T01900162 52023 IEM_DS3505
ZGGG,1984-05-04 12:00,ZGGG 041200Z AUTO 00000KT 4SM 19/16 RMK 60001 SLP090 T01900162 52023 IEM_DS3505
ZGGG,1984-05-04 15:00,ZGGG 041500Z AUTO 34004KT 6SM 18/15 RMK SLP105 T01780148 52015 IEM_DS3505
ZGGG,1984-05-04 18:00,ZGGG 041800Z AUTO 14006KT 8SM 17/14 RMK SLP101 T01700135 57004 IEM_DS3505
ZGGG,1984-05-04 20:00,ZGGG 042000Z AUTO 35012KT 6SM 17/13 A2977 RMK T01700130 IEM_DS3505
ZGGG,1984-05-04 21:00,ZGGG 042100Z AUTO 34004KT 7SM 17/13 A2977 RMK SLP097 T01700127 57004 IEM_DS3505
ZGGG,1984-05-04 23:00,ZGGG 042300Z AUTO 34016KT 7SM 16/12 A2983 RMK T01600120 IEM_DS3505
ZGGG,1984-05-05 00:00,ZGGG 050000Z AUTO 02008KT 10SM 17/11 A2983 RMK SLP111 T01730113 52014 IEM_DS3505
ZGGG,1984-05-05 01:00,ZGGG 050100Z AUTO 36017KT 7SM 19/11 A2985 RMK T01900110 IEM_DS3505
ZGGG,1984-05-05 02:00,ZGGG 050200Z AUTO 35014KT 7SM 20/12 A2985 RMK T02000120 IEM_DS3505
ZGGG,1984-05-05 03:00,ZGGG 050300Z AUTO 34008KT 11SM 21/13 A2983 RMK SLP113 T02110133 52002 IEM_DS3505
ZGGG,1984-05-05 04:00,ZGGG 050400Z AUTO 36017KT 7SM 22/12 A2983 RMK T02200120 IEM_DS3505
ZGGG,1984-05-05 05:00,ZGGG 050500Z AUTO 35017KT 7SM 22/12 A2983 RMK T02200120 IEM_DS3505
ZGGG,1984-05-05 06:00,ZGGG 050600Z AUTO 34008KT 12SM 22/13 RMK SLP104 T02240129 4////0160 57009 IEM_DS3505
ZGGG,1984-05-05 09:00,ZGGG 050900Z AUTO 34008KT 10SM 22/12 RMK SLP101 T02170122 57003 IEM_DS3505
ZGGG,1984-05-05 12:00,ZGGG 051200Z AUTO 02004KT 10SM 20/12 RMK SLP122 T02000124 52021 IEM_DS3505
ZGGG,1984-05-05 15:00,ZGGG 051500Z AUTO 34004KT 9SM 18/12 RMK SLP142 T01760116 52020 IEM_DS3505
ZGGG,1984-05-05 18:00,ZGGG 051800Z AUTO 34004KT 9SM 17/11 RMK SLP131 T01700107 40231//// 57011 IEM_DS3505
ZGGG,1984-05-05 21:00,ZGGG 052100Z AUTO 34004KT 9SM 16/10 RMK SLP132 T01560100 52001 IEM_DS3505
ZGGG,1984-05-06 00:00,ZGGG 060000Z AUTO 36006KT 11SM 18/11 RMK SLP140 T01750111 52008 IEM_DS3505
ZGGG,1984-05-06 03:00,ZGGG 060300Z AUTO 02008KT 12SM 21/12 RMK SLP136 T02140125 57004 IEM_DS3505
ZGGG,1984-05-06 06:00,ZGGG 060600Z AUTO 34004KT 15SM 23/12 RMK SLP117 T02330117 4////0146 57019 IEM_DS3505
ZGGG,1984-05-06 09:00,ZGGG 060900Z AUTO 02004KT 14SM 24/12 RMK SLP114 T02370116 57003 IEM_DS3505
ZGGG,1984-05-06 12:00,ZGGG 061200Z AUTO 07002KT 12SM 21/16 RMK T02100158 52004 IEM_DS3505
ZGGG,1984-05-06 15:00,ZGGG 061500Z AUTO 07002KT 10SM 17/14 RMK SLP132 T01740145 52014 IEM_DS3505
ZGGG,1984-05-06 18:00,ZGGG 061800Z AUTO 36004KT 7SM 17/12 RMK SLP129 T01690122 40246//// 57003 IEM_DS3505
ZGGG,1984-05-06 21:00,ZGGG 062100Z AUTO 36004KT 9SM 18/11 RMK SLP122 T01760107 57007 IEM_DS3505
ZGGG,1984-05-07 00:00,ZGGG 070000Z AUTO 07002KT 15SM 21/12 RMK SLP131 T02100120 52009 IEM_DS3505
ZGGG,1984-05-07 03:00,ZGGG 070300Z AUTO 11004KT 16SM 25/13 RMK SLP130 T02500133 57001 IEM_DS3505
ZGGG,1984-05-07 06:00,ZGGG 070600Z AUTO 00000KT 14SM 26/13 RMK SLP114 T02580129 4////0156 57016 IEM_DS3505
ZGGG,1984-05-07 09:00,ZGGG 070900Z AUTO 14002KT 15SM 26/13 RMK SLP104 T02580133 57010 IEM_DS3505
ZGGG,1984-05-07 12:00,ZGGG 071200Z AUTO 00000KT 10SM 22/16 RMK SLP112 T02240163 52008 IEM_DS3505
ZGGG,1984-05-07 15:00,ZGGG 071500Z AUTO 00000KT 7SM 20/18 RMK SLP131 T01950184 52019 IEM_DS3505
ZGGG,1984-05-07 18:00,ZGGG 071800Z AUTO 00000KT 2 1/2SM 18/18 RMK SLP121 T01800175 40266//// 57010 IEM_DS3505
ZGGG,1984-05-08 00:00,ZGGG 080000Z AUTO 07002KT 5SM 21/18 RMK SLP127 T02110177 52004 IEM_DS3505
ZGGG,1984-05-08 03:00,ZGGG 080300Z AUTO 00000KT 6SM 26/16 A2988 RMK SLP127 T02560157 54000 IEM_DS3505
ZGGG,1984-05-08 04:00,ZGGG 080400Z AUTO 27006KT 7SM 26/18 A2985 RMK T02600180 IEM_DS3505
ZGGG,1984-05-08 05:00,ZGGG 080500Z AUTO 34008KT 7SM 27/17 A2983 RMK T02700170 IEM_DS3505
ZGGG,1984-05-08 06:00,ZGGG 080600Z AUTO 11004KT 6SM 28/16 A2983 RMK SLP105 T02780161 4////0167 57022 IEM_DS3505
ZGGG,1984-05-08 07:00,ZGGG 080700Z AUTO 00000KT 4SM 27/18 A2980 RMK T02700180 IEM_DS3505
ZGGG,1984-05-08 08:00,ZGGG 080800Z AUTO 00000KT 4SM 28/18 A2977 RMK T02800180 IEM_DS3505
ZGGG,1984-05-08 09:00,ZGGG 080900Z AUTO 14004KT 6SM 28/17 RMK SLP094 T02760170 57011 IEM_DS3505
ZGGG,1984-05-08 10:00,ZGGG 081000Z AUTO 17006KT 4SM 27/17 A2977 RMK T02700170 IEM_DS3505
ZGGG,1984-05-08 12:00,ZGGG 081200Z AUTO 00000KT 6SM 23/19 RMK SLP103 T02340192 52009 IEM_DS3505
ZGGG,1984-05-08 14:00,ZGGG 081400Z AUTO 14008KT 7SM 22/17 A2983 RMK T02200170 IEM_DS3505
ZGGG,1984-05-08 15:00,ZGGG 081500Z AUTO 07002KT 5SM 21/19 RMK SLP121 T02110189 52018 IEM_DS3505
ZGGG,1984-05-08 18:00,ZGGG 081800Z AUTO 00000KT 4SM 19/18 RMK SLP115 T01890181 40287//// 57006 IEM_DS3505
ZGGG,1984-05-08 21:00,ZGGG 082100Z AUTO 00000KT 3SM 18/17 RMK SLP119 T01770172 52004 IEM_DS3505
ZGGG,1984-05-09 00:00,ZGGG 090000Z AUTO 00000KT 4SM 22/18 RMK SLP133 T02220179 52014 IEM_DS3505
ZGGG,1984-05-09 03:00,ZGGG 090300Z AUTO 11004KT 8SM 27/17 RMK SLP134 T02700170 52001 IEM_DS3505
ZGGG,1984-05-09 06:00,ZGGG 090600Z AUTO 00000KT 3SM 29/17 RMK SLP110 T02880172 4////0172 57024 IEM_DS3505
ZGGG,1984-05-09 09:00,ZGGG 090900Z AUTO 18004KT 9SM 29/18 RMK SLP101 T02940181 57009 IEM_DS3505
ZGGG,1984-05-09 15:00,ZGGG 091500Z AUTO 00000KT 5SM 24/20 RMK SLP111 T02360197 52009 IEM_DS3505
ZGGG,1984-05-09 18:00,ZGGG 091800Z AUTO 00000KT 5SM 22/20 RMK SLP109 T02170195 40300//// 57002 IEM_DS3505
ZGGG,1984-05-09 21:00,ZGGG 092100Z AUTO 00000KT 5SM 22/20 RMK SLP103 T02180203 57006 IEM_DS3505
ZGGG,1984-05-10 00:00,ZGGG 100000Z AUTO 00000KT 5SM 24/20 RMK SLP117 T02400202 52014 IEM_DS3505
ZGGG,1984-05-10 03:00,ZGGG 100300Z AUTO 11004KT 7SM 28/21 RMK SLP117 T02760207 54000 IEM_DS3505
ZGGG,1984-05-10 06:00,ZGGG 100600Z AUTO 09004KT 7SM RMK SLP100 4////0215 57017 IEM_DS3505
ZGGG,1984-05-10 09:00,ZGGG 100900Z AUTO 00000KT 6SM 25/23 RMK SLP093 T02500234 57007 IEM_DS3505
ZGGG,1984-05-10 12:00,ZGGG 101200Z AUTO 14004KT 4SM 25/23 RMK 60004 SLP100 T02520230 52007 IEM_DS3505
ZGGG,1984-05-10 15:00,ZGGG 101500Z AUTO 18004KT 3SM 24/23 RMK SLP116 T02450227 52016 IEM_DS3505
ZGGG,1984-05-10 18:00,ZGGG 101800Z AUTO 11002KT 4SM 24/23 RMK SLP108 T02430231 40303//// 57008 IEM_DS3505
ZGGG,1984-05-10 21:00,ZGGG 102100Z AUTO 00000KT 4SM 24/23 RMK SLP109 T02410228 52001 IEM_DS3505
ZGGG,1984-05-11 00:00,ZGGG 110000Z AUTO 11002KT 2 1/2SM 25/23 RMK SLP125 T02500233 52016 IEM_DS3505
ZGGG,1984-05-11 03:00,ZGGG 110300Z AUTO 16006KT 6SM 28/23 RMK SLP123 T02790231 57002 IEM_DS3505
ZGGG,1984-05-11 06:00,ZGGG 110600Z AUTO 14006KT 6SM 29/24 RMK SLP106 T02910235 4////0237 57017 IEM_DS3505
ZGGG,1984-05-11 09:00,ZGGG 110900Z AUTO 14004KT 4SM 26/24 RMK SLP096 T02560243 57010 IEM_DS3505
ZGGG,1984-05-11 12:00,ZGGG 111200Z AUTO 16006KT 7SM 26/23 RMK 60016 SLP098 T02550231 52002 IEM_DS3505
ZGGG,1984-05-11 15:00,ZGGG 111500Z AUTO 16004KT 3SM 25/23 RMK SLP115 T02480232 52017 IEM_DS3505
ZGGG,1984-05-11 18:00,ZGGG 111800Z AUTO 00000KT 2 1/2SM 25/23 RMK SLP107 T02460231 40299//// 57008 IEM_DS3505
ZGGG,1984-05-11 21:00,ZGGG 112100Z AUTO 09004KT 2 1/2SM 24/23 A2980 RMK SLP101 T02410226 57006 IEM_DS3505
ZGGG,1984-05-11 23:00,ZGGG 112300Z AUTO 12012KT 2 1/2SM 25/22 RMK T02500220 IEM_DS3505
ZGGG,1984-05-12 00:00,ZGGG 120000Z AUTO 14006KT 4SM 25/23 A2983 RMK 60000 SLP111 T02500228 52010 IEM_DS3505
ZGGG,1984-05-12 01:00,ZGGG 120100Z AUTO 13010KT 4SM 27/23 A2983 RMK T02700230 IEM_DS3505
ZGGG,1984-05-12 02:00,ZGGG 120200Z AUTO 13010KT 5SM 27/23 A2985 RMK T02700230 IEM_DS3505
ZGGG,1984-05-12 03:00,ZGGG 120300Z AUTO 14004KT 7SM 28/24 A2983 RMK SLP114 T02820239 52003 IEM_DS3505
ZGGG,1984-05-12 04:00,ZGGG 120400Z AUTO 15010KT 7SM 29/24 A2980 RMK T02900240 IEM_DS3505
ZGGG,1984-05-12 06:00,ZGGG 120600Z AUTO 14006KT 10SM 30/24 RMK SLP088 T02950245 4////0237 57026 IEM_DS3505
ZGGG,1984-05-12 09:00,ZGGG 120900Z AUTO 14006KT 10SM 29/25 RMK SLP067 T02920247 57021 IEM_DS3505
ZGGG,1984-05-12 12:00,ZGGG 121200Z AUTO 16006KT 6SM 26/24 RMK SLP078 T02640242 52011 IEM_DS3505
ZGGG,1984-05-12 15:00,ZGGG 121500Z AUTO 14002KT 4SM 25/24 RMK SLP093 T02510239 52015 IEM_DS3505
ZGGG,1984-05-12 18:00,ZGGG 121800Z AUTO 14004KT 5SM 25/24 RMK SLP084 T02480241 40304//// 57009 IEM_DS3505
ZGGG,1984-05-12 21:00,ZGGG 122100Z AUTO 14002KT 5SM 24/24 RMK SLP075 T02440237 57009 IEM_DS3505
ZGGG,1984-05-13 00:00,ZGGG 130000Z AUTO 14002KT 4SM 26/25 RMK SLP094 T02650246 52019 IEM_DS3505
ZGGG,1984-05-13 03:00,ZGGG 130300Z AUTO 20004KT 9SM 29/24 RMK SLP094 T02920236 54000 IEM_DS3505
ZGGG,1984-05-13 06:00,ZGGG 130600Z AUTO 20004KT 10SM 30/23 RMK 60000 SLP071 T03000229 4////0242 57023 IEM_DS3505
ZGGG,1984-05-13 09:00,ZGGG 130900Z AUTO 14006KT 10SM 30/25 RMK T02950246 57019 IEM_DS3505
ZGGG,1984-05-13 12:00,ZGGG 131200Z AUTO 14004KT 6SM 28/24 RMK SLP053 T02770237 52001 IEM_DS3505
ZGGG,1984-05-13 15:00,ZGGG 131500Z AUTO 14004KT 4SM 26/25 RMK SLP074 T02640248 52021 IEM_DS3505
ZGGG,1984-05-13 18:00,ZGGG 131800Z AUTO 00000KT 4SM 26/24 RMK SLP065 T02550245 40313//// 57009 IEM_DS3505
ZGGG,1984-05-13 21:00,ZGGG 132100Z AUTO 00000KT 4SM 25/24 RMK SLP052 T02510244 57013 IEM_DS3505
ZGGG,1984-05-14 00:00,ZGGG 140000Z AUTO 00000KT 4SM 26/25 RMK SLP069 T02620249 52017 IEM_DS3505
ZGGG,1984-05-14 03:00,ZGGG 140300Z AUTO 20004KT 7SM 29/24 RMK SLP063 T02910243 57006 IEM_DS3505
ZGGG,1984-05-14 06:00,ZGGG 140600Z AUTO 20004KT 10SM 26/24 RMK 60008 SLP050 T02620241 4////0248 57013 IEM_DS3505
ZGGG,1984-05-14 09:00,ZGGG 140900Z AUTO 14004KT 6SM 26/24 RMK SLP048 T02630243 57002 IEM_DS3505
ZGGG,1984-05-14 12:00,ZGGG 141200Z AUTO 14004KT 7SM 25/24 RMK 60012 SLP052 T02520239 52004 IEM_DS3505
ZGGG,1984-05-14 15:00,ZGGG 141500Z AUTO 00000KT 6SM 25/24 RMK SLP066 T02480239 52014 IEM_DS3505
ZGGG,1984-05-14 18:00,ZGGG 141800Z AUTO 18004KT 2 1/2SM 25/25 RMK 60000 SLP056 T02540247 40305//// 57010 IEM_DS3505
ZGGG,1984-05-14 21:00,ZGGG 142100Z AUTO 20004KT 2SM 25/25 RMK SLP051 T02510247 57005 IEM_DS3505
ZGGG,1984-05-15 00:00,ZGGG 150000Z AUTO 16006KT 2 1/2SM 26/25 RMK SLP064 T02620249 52013 IEM_DS3505
ZGGG,1984-05-15 03:00,ZGGG 150300Z AUTO 16004KT 7SM 28/25 RMK SLP070 T02750249 52006 IEM_DS3505
ZGGG,1984-05-15 04:00,ZGGG 150400Z AUTO 15012KT 7SM 29/24 A2968 RMK T02900240 IEM_DS3505
ZGGG,1984-05-15 05:00,ZGGG 150500Z AUTO 16012KT 7SM 29/24 A2965 RMK T02900240 IEM_DS3505
ZGGG,1984-05-15 06:00,ZGGG 150600Z AUTO 18008KT 9SM 30/24 RMK SLP050 T03000244 4////0246 57020 IEM_DS3505
ZGGG,1984-05-15 07:00,ZGGG 150700Z AUTO 17017KT 7SM 30/24 A2962 RMK T03000240 IEM_DS3505
ZGGG,1984-05-15 08:00,ZGGG 150800Z AUTO 16012KT 7SM 28/24 A2962 RMK T02800240 IEM_DS3505
ZGGG,1984-05-15 09:00,ZGGG 150900Z AUTO 18004KT 9SM 28/24 A2962 RMK SLP042 T02830243 57008 IEM_DS3505
ZGGG,1984-05-15 12:00,ZGGG 151200Z AUTO 16006KT 7SM 28/24 RMK SLP056 T02760244 52014 IEM_DS3505
ZGGG,1984-05-15 15:00,ZGGG 151500Z AUTO 16002KT 6SM 27/24 RMK SLP085 T02670245 52029 IEM_DS3505
ZGGG,1984-05-15 18:00,ZGGG 151800Z AUTO 36004KT 1 1/4SM 22/22 RMK 60146 SLP079 T02220219 40305//// 57006 IEM_DS3505
ZGGG,1984-05-15 21:00,ZGGG 152100Z AUTO 07008KT 2SM 23/22 RMK SLP084 T02260221 52005 IEM_DS3505
ZGGG,1984-05-16 00:00,ZGGG 160000Z AUTO 09004KT 11SM 23/22 RMK 60043 SLP098 T02300218 52014 IEM_DS3505
ZGGG,1984-05-16 03:00,ZGGG 160300Z AUTO 09004KT 2 1/2SM 26/23 RMK SLP107 T02560231 52009 IEM_DS3505
ZGGG,1984-05-16 06:00,ZGGG 160600Z AUTO 14002KT 2 1/2SM 27/23 RMK SLP097 T02740233 4////0220 57010 IEM_DS3505
ZGGG,1984-05-16 09:00,ZGGG 160900Z AUTO 00000KT 2 1/2SM 28/23 RMK SLP090 T02830234 57007 IEM_DS3505
ZGGG,1984-05-16 12:00,ZGGG 161200Z AUTO 11006KT 2 1/2SM 26/25 RMK SLP095 T02640248 52005 IEM_DS3505
ZGGG,1984-05-16 15:00,ZGGG 161500Z AUTO 00000KT 2 1/2SM 25/23 RMK SLP112 T02480230 52017 IEM_DS3505
ZGGG,1984-05-16 18:00,ZGGG 161800Z AUTO 00000KT 2 1/2SM 25/24 RMK 60000 SLP109 T02490239 40288//// 57003 IEM_DS3505
ZGGG,1984-05-16 21:00,ZGGG 162100Z AUTO 00000KT 2SM 24/23 RMK SLP106 T02360226 57003 IEM_DS3505
ZGGG,1984-05-17 00:00,ZGGG 170000Z AUTO 34002KT 2 1/2SM 24/23 RMK 60016 SLP118 T02410230 52012 IEM_DS3505
ZGGG,1984-05-17 03:00,ZGGG 170300Z AUTO 00000KT 2SM 28/24 RMK SLP117 T02810245 57001 IEM_DS3505
ZGGG,1984-05-17 06:00,ZGGG 170600Z AUTO 29006KT 4SM 30/24 RMK SLP092 T02990243 4////0230 57025 IEM_DS3505
ZGGG,1984-05-17 09:00,ZGGG 170900Z AUTO 18006KT 9SM 27/24 RMK SLP082 T02700235 57010 IEM_DS3505
ZGGG,1984-05-17 12:00,ZGGG 171200Z AUTO 16008KT 4SM 25/24 RMK 60008 SLP085 T02520243 52003 IEM_DS3505
ZGGG,1984-05-17 15:00,ZGGG 171500Z AUTO 16004KT 4SM 25/24 RMK SLP093 T02480238 52008 IEM_DS3505
ZGGG,1984-05-17 18:00,ZGGG 171800Z AUTO 14004KT 4SM 25/24 RMK 60012 SLP081 T02470235 40310//// 57012 IEM_DS3505
ZGGG,1984-05-17 21:00,ZGGG 172100Z AUTO 16004KT 4SM 25/24 RMK SLP068 T02460238 57013 IEM_DS3505
ZGGG,1984-05-18 00:00,ZGGG 180000Z AUTO 18002KT 2 1/2SM 26/24 RMK 70016 SLP075 T02600244 52007 IEM_DS3505
ZGGG,1984-05-18 03:00,ZGGG 180300Z AUTO 32006KT 2 1/2SM 26/24 RMK SLP071 T02650242 57004 IEM_DS3505
ZGGG,1984-05-18 06:00,ZGGG 180600Z AUTO 04004KT 9SM 25/22 RMK 60001 SLP060 T02540224 57011 IEM_DS3505
ZGGG,1984-05-18 09:00,ZGGG 180900Z AUTO 04004KT 6SM 23/22 RMK SLP051 T02280220 57009 IEM_DS3505
ZGGG,1984-05-18 12:00,ZGGG 181200Z AUTO 00000KT 8SM 22/21 RMK 60106 SLP056 T02170206 52005 IEM_DS3505
ZGGG,1984-05-18 15:00,ZGGG 181500Z AUTO 00000KT 6SM 22/20 RMK SLP073 T02200203 52017 IEM_DS3505
ZGGG,1984-05-18 18:00,ZGGG 181800Z AUTO 16006KT 6SM 22/19 RMK SLP067 T02180194 57006 IEM_DS3505
ZGGG,1984-05-18 21:00,ZGGG 182100Z AUTO 02002KT 2 1/2SM 22/19 RMK SLP066 T02150193 57001 IEM_DS3505
ZGGG,1984-05-19 00:00,ZGGG 190000Z AUTO 36004KT 9SM 21/20 RMK 60008 SLP073 T02100196 52007 IEM_DS3505
ZGGG,1984-05-19 03:00,ZGGG 190300Z AUTO 36004KT 7SM 22/20 A2974 RMK SLP080 T02200203 52007 IEM_DS3505
ZGGG,1984-05-19 04:00,ZGGG 190400Z AUTO 35010KT 4SM 21/20 A2974 RMK T02100200 IEM_DS3505
ZGGG,1984-05-19 05:00,ZGGG 190500Z AUTO 35008KT 5SM 21/20 A2971 RMK T02100200 IEM_DS3505
ZGGG,1984-05-19 06:00,ZGGG 190600Z AUTO 02002KT 7SM 22/21 A2971 RMK 60004 SLP069 T02190207 57011 IEM_DS3505
ZGGG,1984-05-19 07:00,ZGGG 190700Z AUTO 33008KT 2 1/2SM 21/21 A2968 RMK T02100210 IEM_DS3505
ZGGG,1984-05-19 08:00,ZGGG 190800Z AUTO 36008KT 1 1/2SM 21/21 A2968 RMK T02100210 IEM_DS3505
ZGGG,1984-05-19 09:00,ZGGG 190900Z AUTO 04004KT 2 1/2SM 22/20 A2965 RMK SLP058 T02150204 57011 IEM_DS3505
ZGGG,1984-05-19 12:00,ZGGG 191200Z AUTO 00000KT 4SM 21/21 RMK 60008 SLP072 T02130208 52014 IEM_DS3505
ZGGG,1984-05-19 15:00,ZGGG 191500Z AUTO 07004KT 2 1/2SM 22/21 RMK SLP084 T02180212 52012 IEM_DS3505
ZGGG,1984-05-19 18:00,ZGGG 191800Z AUTO 07006KT 2 1/2SM 21/21 RMK 60020 SLP069 T02130208 40225//// 57015 IEM_DS3505
ZGGG,1984-05-19 21:00,ZGGG 192100Z AUTO 09004KT 2 1/2SM 21/20 RMK SLP069 T02060200 54000 IEM_DS3505
ZGGG,1984-05-20 00:00,ZGGG 200000Z AUTO 09006KT 2 1/2SM 21/20 RMK 60031 SLP079 T02080197 52010 IEM_DS3505
ZGGG,1984-05-20 03:00,ZGGG 200300Z AUTO 09006KT 4SM 22/20 RMK SLP086 T02180198 52007 IEM_DS3505
ZGGG,1984-05-20 06:00,ZGGG 200600Z AUTO 09006KT 2 1/2SM 22/20 RMK SLP071 T02230201 4////0202 57015 IEM_DS3505
ZGGG,1984-05-20 09:00,ZGGG 200900Z AUTO 09004KT 2 1/2SM 22/21 RMK SLP064 T02230206 57007 IEM_DS3505
ZGGG,1984-05-20 12:00,ZGGG 201200Z AUTO 07004KT 5SM 22/20 RMK 60008 SLP076 T02160199 52012 IEM_DS3505
ZGGG,1984-05-20 15:00,ZGGG 201500Z AUTO 07004KT 2SM 21/20 RMK SLP087 T02120195 52011 IEM_DS3505
ZGGG,1984-05-20 18:00,ZGGG 201800Z AUTO 07004KT 2SM 21/20 RMK SLP084 T02120195 40231//// 57003 IEM_DS3505
ZGGG,1984-05-20 21:00,ZGGG 202100Z AUTO 00000KT 2SM 21/20 RMK SLP084 T02080200 54000 IEM_DS3505
ZGGG,1984-05-21 00:00,ZGGG 210000Z AUTO 09004KT 2SM 22/20 RMK SLP098 T02190205 52014 IEM_DS3505
ZGGG,1984-05-21 03:00,ZGGG 210300Z AUTO 04004KT 2SM 24/21 RMK SLP106 T02370210 52008 IEM_DS3505
ZGGG,1984-05-21 06:00,ZGGG 210600Z AUTO 00000KT 7SM 25/22 RMK SLP096 T02500217 57010 IEM_DS3505
ZGGG,1984-05-21 09:00,ZGGG 210900Z AUTO 09004KT 9SM 25/22 RMK SLP088 T02540219 57008 IEM_DS3505
ZGGG,1984-05-21 12:00,ZGGG 211200Z AUTO 00000KT 6SM 24/21 RMK SLP105 T02360210 52017 IEM_DS3505
ZGGG,1984-05-21 15:00,ZGGG 211500Z AUTO 00000KT 6SM 23/12 RMK SLP116 T02300125 52011 IEM_DS3505
ZGGG,1984-05-21 18:00,ZGGG 211800Z AUTO 00000KT 6SM 22/21 RMK SLP108 T02250214 40258//// 57008 IEM_DS3505
ZGGG,1984-05-21 21:00,ZGGG 212100Z AUTO 00000KT 6SM 22/20 RMK SLP105 T02240201 57003 IEM_DS3505
ZGGG,1984-05-22 00:00,ZGGG 220000Z AUTO 00000KT 10SM 23/20 RMK SLP120 T02340199 52015 IEM_DS3505
ZGGG,1984-05-22 03:00,ZGGG 220300Z AUTO 07006KT 12SM 27/17 A2985 RMK SLP170 T02700174 54000 IEM_DS3505
ZGGG,1984-05-22 04:00,ZGGG 220400Z AUTO 08006KT 7SM 28/17 A2985 RMK T02800170 IEM_DS3505
ZGGG,1984-05-22 05:00,ZGGG 220500Z AUTO 33004KT 7SM 28/17 A2983 RMK T02800170 IEM_DS3505
ZGGG,1984-05-22 06:00,ZGGG 220600Z AUTO 09004KT 12SM 28/19 RMK SLP102 T02840194 4////0212 57018 IEM_DS3505
ZGGG,1984-05-22 07:00,ZGGG 220700Z AUTO 15006KT 7SM 29/19 A2980 RMK T02900190 IEM_DS3505
ZGGG,1984-05-22 08:00,ZGGG 220800Z AUTO 00000KT 7SM 27/21 A2977 RMK T02700210 IEM_DS3505
ZGGG,1984-05-22 09:00,ZGGG 220900Z AUTO 14002KT 11SM 27/20 A2977 RMK SLP088 T02710203 57014 IEM_DS3505
ZGGG,1984-05-22 12:00,ZGGG 221200Z AUTO 00000KT 7SM 26/22 RMK SLP101 T02590219 52013 IEM_DS3505
ZGGG,1984-05-22 15:00,ZGGG 221500Z AUTO 00000KT 6SM 24/23 RMK SLP112 T02450226 52011 IEM_DS3505
ZGGG,1984-05-22 18:00,ZGGG 221800Z AUTO 00000KT 2SM 24/22 RMK SLP102 T02350221 57010 IEM_DS3505
ZGGG,1984-05-22 21:00,ZGGG 222100Z AUTO 00000KT 5SM 23/21 RMK SLP096 T02300213 57006 IEM_DS3505
ZGGG,1984-05-23 00:00,ZGGG 230000Z AUTO 00000KT 7SM 24/21 RMK SLP101 T02370208 52005 IEM_DS3505
ZGGG,1984-05-23 03:00,ZGGG 230300Z AUTO 00000KT 6SM 26/21 RMK SLP098 T02580214 57003 IEM_DS3505
ZGGG,1984-05-23 06:00,ZGGG 230600Z AUTO 18006KT 6SM 28/21 RMK SLP079 T02850209 4////0227 57019 IEM_DS3505
ZGGG,1984-05-23 09:00,ZGGG 230900Z AUTO 27004KT 6SM 27/13 RMK SLP065 T02700128 57014 IEM_DS3505
ZGGG,1984-05-23 12:00,ZGGG 231200Z AUTO 00000KT 9SM 25/22 RMK SLP075 T02530220 52010 IEM_DS3505
ZGGG,1984-05-23 15:00,ZGGG 231500Z AUTO 00000KT 5SM 24/22 RMK SLP088 T02430216 52013 IEM_DS3505
ZGGG,1984-05-23 18:00,ZGGG 231800Z AUTO 00000KT 4SM 24/21 RMK SLP084 T02350209 40291//// 57004 IEM_DS3505
ZGGG,1984-05-23 21:00,ZGGG 232100Z AUTO 00000KT 4SM 23/21 RMK SLP075 T02310211 57009 IEM_DS3505
ZGGG,1984-05-24 00:00,ZGGG 240000Z AUTO 09006KT 7SM 24/20 RMK SLP090 T02410205 52015 IEM_DS3505
ZGGG,1984-05-24 03:00,ZGGG 240300Z AUTO 11006KT 10SM 27/21 RMK SLP092 T02690206 52002 IEM_DS3505
ZGGG,1984-05-24 06:00,ZGGG 240600Z AUTO 11004KT 7SM 29/21 RMK SLP075 T02870209 4////0227 57017 IEM_DS3505
ZGGG,1984-05-24 09:00,ZGGG 240900Z AUTO 18006KT 7SM 29/22 RMK SLP059 T02940219 57016 IEM_DS3505
ZGGG,1984-05-24 12:00,ZGGG 241200Z AUTO 00000KT 7SM 27/22 RMK SLP077 T02680224 52018 IEM_DS3505
ZGGG,1984-05-24 15:00,ZGGG 241500Z AUTO 00000KT 6SM 26/23 RMK SLP093 T02600232 52016 IEM_DS3505
ZGGG,1984-05-24 18:00,ZGGG 241800Z AUTO 00000KT 6SM 25/23 RMK SLP088 T02530228 40300//// 57005 IEM_DS3505
ZGGG,1984-05-24 21:00,ZGGG 242100Z AUTO 00000KT 5SM 25/23 RMK SLP085 T02470231 57003 IEM_DS3505
ZGGG,1984-05-25 00:00,ZGGG 250000Z AUTO 00000KT 7SM 26/22 RMK SLP103 T02630225 52018 IEM_DS3505
ZGGG,1984-05-25 03:00,ZGGG 250300Z AUTO 14004KT 7SM 28/23 RMK SLP106 T02770226 52003 IEM_DS3505
ZGGG,1984-05-25 06:00,ZGGG 250600Z AUTO 16006KT 6SM 29/23 RMK SLP091 T02900226 4////0245 57015 IEM_DS3505
ZGGG,1984-05-25 09:00,ZGGG 250900Z AUTO 11004KT 8SM 29/22 RMK SLP078 T02900224 57013 IEM_DS3505
ZGGG,1984-05-25 12:00,ZGGG 251200Z AUTO 07004KT 4SM 26/23 RMK SLP096 T02580230 52018 IEM_DS3505
ZGGG,1984-05-25 15:00,ZGGG 251500Z AUTO 00000KT 6SM 25/22 RMK SLP112 T02480221 52016 IEM_DS3505
ZGGG,1984-05-25 18:00,ZGGG 251800Z AUTO 02004KT 6SM 25/23 RMK SLP099 T02470229 40295//// 57013 IEM_DS3505
ZGGG,1984-05-25 21:00,ZGGG 252100Z AUTO 04002KT 7SM 24/22 RMK SLP090 T02450221 57009 IEM_DS3505
ZGGG,1984-05-26 00:00,ZGGG 260000Z AUTO 06006KT 9SM 24/22 RMK 70094 SLP107 T02400225 52012 IEM_DS3505
ZGGG,1984-05-26 03:00,ZGGG 260300Z AUTO 11006KT 9SM 27/21 A2980 RMK SLP105 T02670213 52004 IEM_DS3505
ZGGG,1984-05-26 04:00,ZGGG 260400Z AUTO 03008KT 7SM 28/21 A2980 RMK T02800210 IEM_DS3505
ZGGG,1984-05-26 05:00,ZGGG 260500Z AUTO 12010KT 7SM 28/22 A2977 RMK T02800220 IEM_DS3505
ZGGG,1984-05-26 06:00,ZGGG 260600Z AUTO 11006KT 9SM 27/22 A2977 RMK SLP088 T02700221 4////0241 57017 IEM_DS3505
ZGGG,1984-05-26 07:00,ZGGG 260700Z AUTO 07006KT 7SM 28/22 A2974 RMK T02800220 IEM_DS3505
ZGGG,1984-05-26 08:00,ZGGG 260800Z AUTO 09002KT 7SM 26/23 A2974 RMK T02600230 IEM_DS3505
ZGGG,1984-05-26 09:00,ZGGG 260900Z AUTO 07004KT 7SM 25/24 A2971 RMK SLP069 T02500237 57019 IEM_DS3505
ZGGG,1984-05-26 12:00,ZGGG 261200Z AUTO 04004KT 6SM 24/23 RMK 60008 SLP077 T02400233 52008 IEM_DS3505
ZGGG,1984-05-26 15:00,ZGGG 261500Z AUTO 09004KT 6SM 24/23 RMK SLP086 T02430234 52009 IEM_DS3505
ZGGG,1984-05-26 18:00,ZGGG 261800Z AUTO 00000KT 6SM 24/23 RMK 60004 SLP072 T02400233 40286//// 57014 IEM_DS3505
ZGGG,1984-05-26 21:00,ZGGG 262100Z AUTO 00000KT 6SM 24/23 RMK 70012 SLP061 T02370230 57011 IEM_DS3505
ZGGG,1984-05-27 00:00,ZGGG 270000Z AUTO 00000KT 6SM 23/22 RMK 60002 SLP076 T02340224 52015 IEM_DS3505
ZGGG,1984-05-27 03:00,ZGGG 270300Z AUTO 29004KT 6SM 26/23 RMK SLP077 T02580233 52001 IEM_DS3505
ZGGG,1984-05-27 06:00,ZGGG 270600Z AUTO 32004KT 7SM 28/24 RMK SLP056 T02820241 4////0232 57021 IEM_DS3505
ZGGG,1984-05-27 09:00,ZGGG 270900Z AUTO 29006KT 6SM 28/24 RMK SLP041 T02820236 57015 IEM_DS3505
ZGGG,1984-05-27 12:00,ZGGG 271200Z AUTO 00000KT 10SM 26/24 RMK SLP049 T02620242 52008 IEM_DS3505
ZGGG,1984-05-27 15:00,ZGGG 271500Z AUTO 00000KT 4SM 26/24 RMK SLP062 T02560240 52013 IEM_DS3505
ZGGG,1984-05-27 18:00,ZGGG 271800Z AUTO 00000KT 2 1/2SM 25/24 RMK 60000 SLP055 T02500241 40291//// 57007 IEM_DS3505
ZGGG,1984-05-27 21:00,ZGGG 272100Z AUTO 00000KT 2SM 25/24 RMK SLP047 T02480241 57008 IEM_DS3505
ZGGG,1984-05-28 00:00,ZGGG 280000Z AUTO 18002KT 1 1/4SM 25/24 RMK 60016 SLP051 T02500243 52004 IEM_DS3505
ZGGG,1984-05-28 03:00,ZGGG 280300Z AUTO 00000KT 2 1/2SM 25/24 RMK SLP060 T02540239 52009 IEM_DS3505
ZGGG,1984-05-28 06:00,ZGGG 280600Z AUTO 16002KT 6SM 29/24 RMK 60059 SLP039 T02900242 57021 IEM_DS3505
ZGGG,1984-05-28 09:00,ZGGG 280900Z AUTO 18004KT 10SM 29/25 RMK SLP023 T02940246 57016 IEM_DS3505
ZGGG,1984-05-28 12:00,ZGGG 281200Z AUTO 16004KT 9SM 27/25 RMK SLP037 T02740251 52014 IEM_DS3505
ZGGG,1984-05-28 15:00,ZGGG 281500Z AUTO 11004KT 5SM 26/25 RMK SLP056 T02600250 52019 IEM_DS3505
ZGGG,1984-05-28 18:00,ZGGG 281800Z AUTO 14004KT 4SM 26/25 RMK SLP045 T02600250 40301//// 57011 IEM_DS3505
ZGGG,1984-05-28 21:00,ZGGG 282100Z AUTO 00000KT 4SM 26/25 RMK SLP047 T02560249 52002 IEM_DS3505
ZGGG,1984-05-28 22:00,ZGGG 282200Z AUTO 14004KT 4SM 26/25 A2962 RMK T02600250 IEM_DS3505
ZGGG,1984-05-28 23:00,ZGGG 282300Z AUTO 00000KT 5SM 26/ A2965 RMK IEM_DS3505
ZGGG,1984-05-29 00:00,ZGGG 290000Z AUTO 11004KT 2SM 26/25 A2968 RMK 60001 70059 SLP063 T02620252 52016 IEM_DS3505
ZGGG,1984-05-29 01:00,ZGGG 290100Z AUTO 14010KT 4SM 27/25 A2968 RMK T02700250 IEM_DS3505
ZGGG,1984-05-29 02:00,ZGGG 290200Z AUTO 17012KT 7SM 28/25 A2968 RMK T02800250 IEM_DS3505
ZGGG,1984-05-29 03:00,ZGGG 290300Z AUTO 16004KT 9SM 28/24 A2971 RMK SLP070 T02800243 52007 IEM_DS3505
ZGGG,1984-05-29 04:00,ZGGG 290400Z AUTO 19010KT 7SM 29/24 A2968 RMK T02900240 IEM_DS3505
ZGGG,1984-05-29 05:00,ZGGG 290500Z AUTO 16008KT 7SM 29/25 A2965 RMK T02900250 IEM_DS3505
ZGGG,1984-05-29 06:00,ZGGG 290600Z AUTO 16002KT 9SM 28/24 A2965 RMK SLP053 T02840244 4////0253 57017 IEM_DS3505
ZGGG,1984-05-29 07:00,ZGGG 290700Z AUTO 15006KT 7SM 27/26 A2962 RMK T02700260 IEM_DS3505
ZGGG,1984-05-29 08:00,ZGGG 290800Z AUTO 16010KT 7SM 28/25 A2962 RMK T02800250 IEM_DS3505
ZGGG,1984-05-29 09:00,ZGGG 290900Z AUTO 16006KT 7SM 28/25 RMK SLP040 T02770247 57013 IEM_DS3505
ZGGG,1984-05-29 12:00,ZGGG 291200Z AUTO 11004KT 2 1/2SM 26/25 RMK 60008 SLP059 T02590253 52019 IEM_DS3505
ZGGG,1984-05-29 15:00,ZGGG 291500Z AUTO 16004KT 2 1/2SM 25/24 RMK SLP071 T02510242 52012 IEM_DS3505
ZGGG,1984-05-29 18:00,ZGGG 291800Z AUTO 14004KT 2 1/2SM 25/24 RMK SLP063 T02500241 40293//// 57008 IEM_DS3505
ZGGG,1984-05-29 21:00,ZGGG 292100Z AUTO 00000KT 2 1/2SM 24/24 RMK SLP059 T02440239 57004 IEM_DS3505
ZGGG,1984-05-30 00:00,ZGGG 300000Z AUTO 14004KT 5SM 26/25 RMK SLP075 T02580248 52016 IEM_DS3505
ZGGG,1984-05-30 03:00,ZGGG 300300Z AUTO 20004KT 10SM 28/24 RMK SLP078 T02800244 52003 IEM_DS3505
ZGGG,1984-05-30 06:00,ZGGG 300600Z AUTO 20008KT 6SM 28/25 RMK SLP064 T02850248 4////0242 57014 IEM_DS3505
ZGGG,1984-05-30 09:00,ZGGG 300900Z AUTO 11004KT 11SM 29/25 RMK SLP053 T02900252 57001 IEM_DS3505
ZGGG,1984-05-30 12:00,ZGGG 301200Z AUTO 11004KT 6SM 26/25 RMK 60016 SLP067 T02620253 52014 IEM_DS3505
ZGGG,1984-05-30 15:00,ZGGG 301500Z AUTO 11002KT 6SM 26/26 RMK SLP076 T02620256 52009 IEM_DS3505
ZGGG,1984-05-30 18:00,ZGGG 301800Z AUTO 00000KT 2 1/2SM 26/26 RMK 60008 SLP064 T02610255 40295//// 57012 IEM_DS3505
ZGGG,1984-05-30 21:00,ZGGG 302100Z AUTO 00000KT 2 1/2SM 26/25 RMK SLP054 T02580252 57010 IEM_DS3505
ZGGG,1984-05-31 00:00,ZGGG 310000Z AUTO 16006KT 2 1/2SM 27/26 RMK 60000 SLP066 T02670257 52012 IEM_DS3505
ZGGG,1984-05-31 03:00,ZGGG 310300Z AUTO 20004KT 7SM 29/26 RMK SLP070 T02860258 52004 IEM_DS3505
ZGGG,1984-05-31 06:00,ZGGG 310600Z AUTO 20008KT 9SM 30/26 RMK SLP052 T03040257 4////0256 57018 IEM_DS3505
ZGGG,1984-05-31 09:00,ZGGG 310900Z AUTO 18004KT 9SM 30/26 RMK SLP040 T02970258 57012 IEM_DS3505
ZGGG,1984-05-31 12:00,ZGGG 311200Z AUTO 16004KT 5SM 28/26 RMK 60001 SLP052 T02760258 52012 IEM_DS3505
ZGGG,1984-05-31 15:00,ZGGG 311500Z AUTO 16006KT 2 1/2SM 27/26 RMK SLP072 T02660256 52020 IEM_DS3505
ZGGG,1984-05-31 18:00,ZGGG 311800Z AUTO 11002KT 2 1/2SM 26/25 RMK 60002 SLP064 T02600253 40303//// 57008 IEM_DS3505
ZGGG,1984-05-31 21:00,ZGGG 312100Z AUTO 16004KT 2 1/2SM 26/25 RMK SLP059 T02620252 57005 IEM_DS3505
ZGGG,1984-06-01 00:00,ZGGG 010000Z AUTO 14004KT 4SM 27/26 RMK SLP074 T02680255 52015 IEM_DS3505
ZGGG,1984-06-01 03:00,ZGGG 010300Z AUTO 20010KT 7SM 30/26 RMK SLP062 T03020257 57012 IEM_DS3505
ZGGG,1984-06-01 06:00,ZGGG 010600Z AUTO 22008KT 10SM 30/25 RMK SLP045 T02960249 4////0256 57017 IEM_DS3505
ZGGG,1984-06-01 09:00,ZGGG 010900Z AUTO 00000KT 2 1/2SM 24/23 RMK SLP049 T02380227 52004 IEM_DS3505
ZGGG,1984-06-01 12:00,ZGGG 011200Z AUTO 00000KT 6SM 24/24 RMK 60028 SLP056 T02430237 52007 IEM_DS3505
ZGGG,1984-06-01 15:00,ZGGG 011500Z AUTO 00000KT 4SM 25/24 RMK SLP066 T02460238 52010 IEM_DS3505
ZGGG,1984-06-01 18:00,ZGGG 011800Z AUTO 00000KT 2 1/2SM 25/24 RMK SLP062 T02460240 40315//// 57004 IEM_DS3505
ZGGG,1984-06-01 21:00,ZGGG 012100Z AUTO 00000KT 2SM 25/24 RMK SLP059 T02470241 57003 IEM_DS3505
ZGGG,1984-06-01 22:00,ZGGG 012200Z AUTO 03002KT 1 1/4SM 25/24 A2968 RMK T02500240 IEM_DS3505
ZGGG,1984-06-01 23:00,ZGGG 012300Z AUTO 00000KT 1 1/4SM 25/24 A2968 RMK T02500240 IEM_DS3505
ZGGG,1984-06-02 00:00,ZGGG 020000Z AUTO 00000KT 2SM 26/25 A2971 RMK 70028 SLP076 T02600247 52017 IEM_DS3505
ZGGG,1984-06-02 01:00,ZGGG 020100Z AUTO 30002KT 2SM 27/25 A2971 RMK T02700250 IEM_DS3505
ZGGG,1984-06-02 02:00,ZGGG 020200Z AUTO 32008KT 3SM 28/25 A2974 RMK T02800250 IEM_DS3505
ZGGG,1984-06-02 03:00,ZGGG 020300Z AUTO 34006KT 5SM 28/25 A2974 RMK SLP078 T02820247 52002 IEM_DS3505
ZGGG,1984-06-02 04:00,ZGGG 020400Z AUTO 33010KT 7SM 29/24 A2971 RMK T02900240 IEM_DS3505
ZGGG,1984-06-02 05:00,ZGGG 020500Z AUTO 33008KT 7SM 30/25 A2968 RMK T03000250 IEM_DS3505
ZGGG,1984-06-02 06:00,ZGGG 020600Z AUTO 25004KT 10SM 31/25 A2968 RMK SLP059 T03080246 4////0236 57019 IEM_DS3505
ZGGG,1984-06-02 08:00,ZGGG 020800Z AUTO 30008KT 7SM 32/25 A2965 RMK T03200250 IEM_DS3505
ZGGG,1984-06-02 09:00,ZGGG 020900Z AUTO 25004KT 10SM 31/25 A2962 RMK SLP059 T03080246 4////0236 57019 IEM_DS3505
ZGGG,1984-06-02 12:00,ZGGG 021200Z AUTO 00000KT 5SM 28/26 RMK SLP057 T02800256 52010 IEM_DS3505
ZGGG,1984-06-02 15:00,ZGGG 021500Z AUTO 00000KT 5SM 24/24 RMK SLP072 T02410238 52015 IEM_DS3505
ZGGG,1984-06-02 18:00,ZGGG 021800Z AUTO 00000KT 4SM 24/24 RMK 60063 SLP067 T02440241 40322//// 57005 IEM_DS3505
ZGGG,1984-06-02 21:00,ZGGG 022100Z AUTO 00000KT 2 1/2SM 24/24 RMK SLP067 T02430238 54000 IEM_DS3505
ZGGG,1984-06-03 00:00,ZGGG 030000Z AUTO 00000KT 2 1/2SM 26/25 RMK SLP077 T02600247 52010 IEM_DS3505
ZGGG,1984-06-03 03:00,ZGGG 030300Z AUTO 15004KT 7SM 30/24 RMK SLP077 T02960243 54000 IEM_DS3505
ZGGG,1984-06-03 04:00,ZGGG 030400Z AUTO 32008KT 7SM 30/25 A2971 RMK T03000250 IEM_DS3505
ZGGG,1984-06-03 05:00,ZGGG 030500Z AUTO 32010KT 7SM 31/25 A2971 RMK T03100250 IEM_DS3505
ZGGG,1984-06-03 06:00,ZGGG 030600Z AUTO 29006KT 10SM 30/24 A2968 RMK SLP063 T03030239 4////0230 57014 IEM_DS3505
ZGGG,1984-06-03 07:00,ZGGG 030700Z AUTO 34010KT 7SM 30/24 A2968 RMK T03000240 IEM_DS3505
ZGGG,1984-06-03 08:00,ZGGG 030800Z AUTO 33008KT 7SM 29/23 A2965 RMK T02900230 IEM_DS3505
ZGGG,1984-06-03 09:00,ZGGG 030900Z AUTO 00000KT 10SM 29/24 A2965 RMK SLP049 T02880238 57014 IEM_DS3505
ZGGG,1984-06-03 12:00,ZGGG 031200Z AUTO 14004KT 4SM 26/24 RMK 60000 SLP072 T02570244 52023 IEM_DS3505
ZGGG,1984-06-03 15:00,ZGGG 031500Z AUTO 00000KT 2 1/2SM 25/24 RMK SLP080 T02510245 52008 IEM_DS3505
ZGGG,1984-06-03 18:00,ZGGG 031800Z AUTO 07004KT 2SM 24/24 RMK 60043 SLP072 T02450239 40314//// 57008 IEM_DS3505
ZGGG,1984-06-03 21:00,ZGGG 032100Z AUTO 00000KT 2SM 25/24 RMK SLP055 T02480242 57017 IEM_DS3505
ZGGG,1984-06-04 00:00,ZGGG 040000Z AUTO 14004KT 1 1/4SM 26/25 RMK 60001 SLP068 T02580249 52013 IEM_DS3505
ZGGG,1984-06-04 06:00,ZGGG 040600Z AUTO 14004KT 2 1/2SM 27/26 RMK 60024 SLP060 T02680257 4////0242 57005 IEM_DS3505
ZGGG,1984-06-04 09:00,ZGGG 040900Z AUTO 11006KT 2 1/2SM 26/25 RMK SLP063 T02560247 52003 IEM_DS3505
ZGGG,1984-06-04 12:00,ZGGG 041200Z AUTO 11006KT 6SM 25/22 RMK 60028 SLP079 T02470225 52016 IEM_DS3505
ZGGG,1984-06-04 15:00,ZGGG 041500Z AUTO 11006KT 5SM 24/22 RMK SLP091 T02380221 52012 IEM_DS3505
ZGGG,1984-06-04 18:00,ZGGG 041800Z AUTO 09006KT 4SM 23/22 RMK 60001 SLP084 T02340222 40309//// 57007 IEM_DS3505
ZGGG,1984-06-04 21:00,ZGGG 042100Z AUTO 00000KT 2 1/2SM 23/22 RMK SLP085 T02310223 52001 IEM_DS3505
ZGGG,1984-06-05 00:00,ZGGG 050000Z AUTO 09006KT 4SM 24/23 RMK 60008 SLP097 T02400227 52012 IEM_DS3505
ZGGG,1984-06-05 03:00,ZGGG 050300Z AUTO 11006KT 7SM 27/24 A2977 RMK SLP098 T02690240 52001 IEM_DS3505
ZGGG,1984-06-05 04:00,ZGGG 050400Z AUTO 18008KT 7SM 26/24 A2980 RMK T02600240 IEM_DS3505
ZGGG,1984-06-05 05:00,ZGGG 050500Z AUTO 18010KT 7SM 27/24 A2977 RMK T02700240 IEM_DS3505
ZGGG,1984-06-05 06:00,ZGGG 050600Z AUTO 16006KT 11SM 27/23 A2977 RMK SLP090 T02720228 4////0229 57008 IEM_DS3505
ZGGG,1984-06-05 07:00,ZGGG 050700Z AUTO 12012KT 7SM 28/23 A2974 RMK T02800230 IEM_DS3505
ZGGG,1984-06-05 08:00,ZGGG 050800Z AUTO 18010KT 7SM 28/24 A2974 RMK T02800240 IEM_DS3505
ZGGG,1984-06-05 09:00,ZGGG 050900Z AUTO 16004KT 14SM 28/23 A2971 RMK SLP072 T02770229 57018 IEM_DS3505
ZGGG,1984-06-05 12:00,ZGGG 051200Z AUTO 14002KT 9SM 26/23 RMK SLP089 T02610231 52017 IEM_DS3505
ZGGG,1984-06-05 15:00,ZGGG 051500Z AUTO 11004KT 7SM 25/23 RMK SLP106 T02500228 52017 IEM_DS3505
ZGGG,1984-06-05 18:00,ZGGG 051800Z AUTO 00000KT 7SM 24/23 RMK SLP096 T02430231 40286//// 57010 IEM_DS3505
ZGGG,1984-06-05 21:00,ZGGG 052100Z AUTO 09002KT 7SM 24/23 RMK SLP092 T02420229 57004 IEM_DS3505
ZGGG,1984-06-06 00:00,ZGGG 060000Z AUTO 11004KT 9SM 27/24 RMK SLP109 T02720239 IEM_DS3505
ZGGG,1984-06-06 01:00,ZGGG 060100Z AUTO 16006KT 14SM 29/24 RMK SLP077 T02930237 57015 IEM_DS3505
ZGGG,1984-06-06 03:00,ZGGG 060300Z AUTO 16006KT 14SM 30/24 RMK SLP110 T02960241 52001 IEM_DS3505
ZGGG,1984-06-06 06:00,ZGGG 060600Z AUTO 14008KT 15SM 31/24 RMK SLP092 T03100243 4////0238 57018 IEM_DS3505
ZGGG,1984-06-06 09:00,ZGGG 060900Z AUTO 16006KT 14SM 29/24 RMK SLP077 T02930237 57015 IEM_DS3505
ZGGG,1984-06-06 12:00,ZGGG 061200Z AUTO 16004KT 7SM 27/25 RMK SLP096 T02740248 52019 IEM_DS3505
ZGGG,1984-06-06 15:00,ZGGG 061500Z AUTO 14006KT 7SM 26/25 RMK SLP099 T02620246 52003 IEM_DS3505
ZGGG,1984-06-06 18:00,ZGGG 061800Z AUTO 00000KT 4SM 25/24 RMK SLP100 T02540245 52001 IEM_DS3505
ZGGG,1984-06-06 21:00,ZGGG 062100Z AUTO 07002KT 4SM 25/24 RMK SLP102 T02470239 52002 IEM_DS3505
ZGGG,1984-06-07 00:00,ZGGG 070000Z AUTO 09004KT 7SM 27/24 RMK SLP105 T02680243 52003 IEM_DS3505
ZGGG,1984-06-07 03:00,ZGGG 070300Z AUTO 14008KT 7SM 30/25 RMK SLP105 T03040246 54000 IEM_DS3505
ZGGG,1984-06-07 06:00,ZGGG 070600Z AUTO 14006KT 15SM 31/24 RMK SLP090 T03140238 4////0244 57015 IEM_DS3505
ZGGG,1984-06-07 09:00,ZGGG 070900Z AUTO 14006KT 15SM 31/23 RMK SLP081 T03140230 57009 IEM_DS3505
ZGGG,1984-06-07 12:00,ZGGG 071200Z AUTO 16006KT 10SM 28/25 RMK SLP093 T02820247 52012 IEM_DS3505
ZGGG,1984-06-07 15:00,ZGGG 071500Z AUTO 00000KT 9SM 27/25 RMK SLP108 T02660252 52015 IEM_DS3505
ZGGG,1984-06-07 18:00,ZGGG 071800Z AUTO 00000KT 4SM 26/25 RMK SLP104 T02580251 40322//// 57004 IEM_DS3505
ZGGG,1984-06-07 21:00,ZGGG 072100Z AUTO 00000KT 4SM 25/25 RMK T02530247 57001 IEM_DS3505
ZGGG,1984-06-08 00:00,ZGGG 080000Z AUTO 07004KT 9SM 28/25 RMK SLP114 T02780250 52011 IEM_DS3505
ZGGG,1984-06-08 03:00,ZGGG 080300Z AUTO 16004KT 13SM 31/23 RMK SLP111 T03060230 57003 IEM_DS3505
ZGGG,1984-06-08 06:00,ZGGG 080600Z AUTO 16004KT 9SM 32/23 RMK SLP090 T03210232 4////0249 57021 IEM_DS3505
ZGGG,1984-06-08 09:00,ZGGG 080900Z AUTO 18004KT 9SM 33/23 RMK SLP068 T03280230 57022 IEM_DS3505
ZGGG,1984-06-08 12:00,ZGGG 081200Z AUTO 10SM 29/25 RMK SLP083 T02860253 52015 IEM_DS3505
ZGGG,1984-06-08 15:00,ZGGG 081500Z AUTO 00000KT 6SM 27/24 RMK SLP096 T02700245 52013 IEM_DS3505
ZGGG,1984-06-08 18:00,ZGGG 081800Z AUTO 00000KT 5SM 26/24 RMK SLP089 T02600244 40330//// 57007 IEM_DS3505
ZGGG,1984-06-08 21:00,ZGGG 082100Z AUTO 00000KT 5SM 25/24 RMK SLP088 T02470238 57001 IEM_DS3505
ZGGG,1984-06-09 00:00,ZGGG 090000Z AUTO 02002KT 11SM 28/24 RMK SLP101 T02750237 52013 IEM_DS3505
ZGGG,1984-06-09 02:00,ZGGG 090200Z AUTO 30006KT 7SM 30/25 A2977 RMK T03000250 IEM_DS3505
ZGGG,1984-06-09 03:00,ZGGG 090300Z AUTO 16004KT 9SM 31/24 A2977 RMK SLP090 T03070237 57011 IEM_DS3505
ZGGG,1984-06-09 04:00,ZGGG 090400Z AUTO 18006KT 7SM 32/ RMK IEM_DS3505
ZGGG,1984-06-09 05:00,ZGGG 090500Z AUTO 21004KT 7SM 32/24 A2974 RMK T03200240 IEM_DS3505
ZGGG,1984-06-09 06:00,ZGGG 090600Z AUTO 04004KT 10SM 32/23 A2971 RMK SLP068 T03240233 4////0243 57022 IEM_DS3505
ZGGG,1984-06-09 07:00,ZGGG 090700Z AUTO 24006KT 7SM 33/24 A2968 RMK T03300240 IEM_DS3505
ZGGG,1984-06-09 08:00,ZGGG 090800Z AUTO 24006KT 7SM 33/25 A2965 RMK T03300250 IEM_DS3505
ZGGG,1984-06-09 09:00,ZGGG 090900Z AUTO 29006KT 5SM 33/24 A2965 RMK SLP054 T03260243 57014 IEM_DS3505
ZGGG,1984-06-09 10:00,ZGGG 091000Z AUTO 32006KT 6SM 32/24 A2965 RMK T03200240 IEM_DS3505
ZGGG,1984-06-09 12:00,ZGGG 091200Z AUTO 14004KT 5SM 29/26 RMK SLP075 T02900259 52021 IEM_DS3505
ZGGG,1984-06-09 15:00,ZGGG 091500Z AUTO 14004KT 5SM 27/26 RMK SLP085 T02730256 52010 IEM_DS3505
ZGGG,1984-06-09 18:00,ZGGG 091800Z AUTO 00000KT 4SM 27/26 RMK SLP078 T02670257 40335//// 57007 IEM_DS3505
ZGGG,1984-06-09 21:00,ZGGG 092100Z AUTO 07002KT 4SM 26/25 RMK SLP080 T02600248 52002 IEM_DS3505
ZGGG,1984-06-10 00:00,ZGGG 100000Z AUTO 11004KT 11SM 29/25 RMK SLP092 T02880250 52012 IEM_DS3505
ZGGG,1984-06-10 01:00,ZGGG 100100Z AUTO 16010KT 14SM 30/ RMK 4////0253 57013 IEM_DS3505
ZGGG,1984-06-10 03:00,ZGGG 100300Z AUTO 11006KT 12SM 30/25 RMK SLP096 T03040246 52004 IEM_DS3505
ZGGG,1984-06-10 06:00,ZGGG 100600Z AUTO 16010KT 14SM 30/26 RMK SLP083 T03050258 4////0253 57013 IEM_DS3505
ZGGG,1984-06-10 09:00,ZGGG 100900Z AUTO 00000KT 14SM 29/25 RMK SLP077 T02930251 57006 IEM_DS3505
ZGGG,1984-06-10 12:00,ZGGG 101200Z AUTO 00000KT 10SM 28/25 RMK SLP083 T02780252 52006 IEM_DS3505
ZGGG,1984-06-10 15:00,ZGGG 101500Z AUTO 09004KT 7SM 27/25 RMK SLP104 T02700253 52021 IEM_DS3505
ZGGG,1984-06-10 18:00,ZGGG 101800Z AUTO 09002KT 5SM 26/25 RMK SLP090 T02610251 40326//// 57014 IEM_DS3505
ZGGG,1984-06-10 21:00,ZGGG 102100Z AUTO 09004KT 6SM 26/ RMK SLP090 54000 IEM_DS3505
ZGGG,1984-06-11 00:00,ZGGG 110000Z AUTO 09004KT 5SM 28/25 RMK SLP097 T02760252 52015 IEM_DS3505
ZGGG,1984-06-11 03:00,ZGGG 110300Z AUTO 14010KT 9SM 31/26 RMK SLP093 T03080257 57004 IEM_DS3505
ZGGG,1984-06-11 06:00,ZGGG 110600Z AUTO 14002KT 9SM 27/26 RMK 60016 SLP084 T02720255 4////0255 57009 IEM_DS3505
ZGGG,1984-06-11 09:00,ZGGG 110900Z AUTO 14006KT 10SM 29/26 RMK SLP068 T02890264 57016 IEM_DS3505
ZGGG,1984-06-11 12:00,ZGGG 111200Z AUTO 14004KT 7SM 28/26 RMK SLP084 T02750255 52016 IEM_DS3505
ZGGG,1984-06-11 15:00,ZGGG 111500Z AUTO 00000KT 7SM 27/25 RMK SLP097 T02670251 52013 IEM_DS3505
ZGGG,1984-06-11 18:00,ZGGG 111800Z AUTO 18002KT 7SM 26/24 RMK 60008 SLP088 T02570241 40312//// 57009 IEM_DS3505
ZGGG,1984-06-11 21:00,ZGGG 112100Z AUTO 00000KT 7SM 25/24 RMK SLP082 T02540245 57006 IEM_DS3505
ZGGG,1984-06-12 00:00,ZGGG 120000Z AUTO 14004KT 5SM 28/26 RMK 60000 SLP090 T02820258 52008 IEM_DS3505
ZGGG,1984-06-12 02:00,ZGGG 120200Z AUTO 15008KT 7SM 29/25 A2977 RMK T02900250 IEM_DS3505
ZGGG,1984-06-12 03:00,ZGGG 120300Z AUTO 11004KT 11SM 27/24 A2977 RMK SLP095 T02690239 52005 IEM_DS3505
ZGGG,1984-06-12 04:00,ZGGG 120400Z AUTO 19012KT 7SM 29/25 A2977 RMK T02900250 IEM_DS3505
ZGGG,1984-06-12 05:00,ZGGG 120500Z AUTO 18010KT 7SM 29/25 A2974 RMK T02900250 IEM_DS3505
ZGGG,1984-06-12 06:00,ZGGG 120600Z AUTO 18008KT 12SM 31/26 A2971 RMK 60000 SLP071 T03110255 4////0251 57024 IEM_DS3505
ZGGG,1984-06-12 07:00,ZGGG 120700Z AUTO 15008KT 7SM 30/25 A2971 RMK T03000250 IEM_DS3505
ZGGG,1984-06-12 09:00,ZGGG 120900Z AUTO 18006KT 12SM 29/26 RMK SLP062 T02930255 57009 IEM_DS3505
ZGGG,1984-06-12 12:00,ZGGG 121200Z AUTO 14006KT 10SM 28/26 RMK SLP067 T02780260 52005 IEM_DS3505
ZGGG,1984-06-12 15:00,ZGGG 121500Z AUTO 14004KT 10SM 27/25 RMK SLP081 T02670254 52014 IEM_DS3505
ZGGG,1984-06-12 18:00,ZGGG 121800Z AUTO 00000KT 7SM 26/25 RMK SLP071 T02640254 40313//// 57010 IEM_DS3505
ZGGG,1984-06-12 21:00,ZGGG 122100Z AUTO 00000KT 7SM 26/25 RMK SLP063 T02570251 57008 IEM_DS3505
ZGGG,1984-06-13 00:00,ZGGG 130000Z AUTO 16004KT 7SM 27/25 RMK 60001 SLP072 T02740253 52009 IEM_DS3505
ZGGG,1984-06-13 03:00,ZGGG 130300Z AUTO 18006KT 12SM 31/24 RMK SLP074 T03060239 52002 IEM_DS3505
ZGGG,1984-06-13 06:00,ZGGG 130600Z AUTO 18006KT 9SM 33/24 RMK SLP053 T03260238 4////0253 57021 IEM_DS3505
ZGGG,1984-06-13 09:00,ZGGG 130900Z AUTO 18006KT 9SM 32/24 RMK SLP033 T03180243 57020 IEM_DS3505
ZGGG,1984-06-13 12:00,ZGGG 131200Z AUTO 18008KT 9SM 29/24 RMK SLP043 T02910244 52010 IEM_DS3505
ZGGG,1984-06-13 15:00,ZGGG 131500Z AUTO 16006KT 9SM 27/25 RMK SLP052 T02710250 52012 IEM_DS3505
ZGGG,1984-06-13 18:00,ZGGG 131800Z AUTO 00000KT 7SM 26/25 RMK SLP043 T02610249 40331//// 57012 IEM_DS3505
ZGGG,1984-06-13 21:00,ZGGG 132100Z AUTO 00000KT 7SM 26/25 RMK SLP039 T02580249 57004 IEM_DS3505
ZGGG,1984-06-14 00:00,ZGGG 140000Z AUTO 16006KT 7SM 28/26 RMK SLP049 T02790255 52010 IEM_DS3505
ZGGG,1984-06-14 03:00,ZGGG 140300Z AUTO 20006KT 9SM 30/24 RMK SLP038 T03010244 57011 IEM_DS3505
ZGGG,1984-06-14 06:00,ZGGG 140600Z AUTO 18006KT 9SM 30/26 RMK 60008 SLP016 T03010259 4////0256 57022 IEM_DS3505
ZGGG,1984-06-14 09:00,ZGGG 140900Z AUTO 16006KT 9SM 31/26 RMK SLP997 T03080265 57017 IEM_DS3505
ZGGG,1984-06-14 12:00,ZGGG 141200Z AUTO 16006KT 7SM 29/26 RMK SLP999 T02870258 54000 IEM_DS3505
ZGGG,1984-06-14 15:00,ZGGG 141500Z AUTO 14004KT 6SM 27/26 RMK SLP020 T02720259 52021 IEM_DS3505
ZGGG,1984-06-14 21:00,ZGGG 142100Z AUTO 00000KT 5SM 26/26 RMK SLP001 T02610255 57001 IEM_DS3505
ZGGG,1984-06-15 00:00,ZGGG 150000Z AUTO 11002KT 4SM 28/26 RMK SLP008 T02770265 52007 IEM_DS3505
ZGGG,1984-06-15 03:00,ZGGG 150300Z AUTO 18008KT 7SM 31/26 RMK SLP000 T03130259 57008 IEM_DS3505
ZGGG,1984-06-15 06:00,ZGGG 150600Z AUTO 22008KT 9SM 32/25 RMK SLP980 T03230247 4////0258 57020 IEM_DS3505
ZGGG,1984-06-15 09:00,ZGGG 150900Z AUTO 27006KT 5SM 30/28 RMK SLP964 T03000277 57016 IEM_DS3505
ZGGG,1984-06-15 12:00,ZGGG 151200Z AUTO 00000KT 9SM 27/26 RMK 60031 SLP979 T02690258 52015 IEM_DS3505
ZGGG,1984-06-15 18:00,ZGGG 151800Z AUTO 00000KT 7SM 25/24 RMK 60028 SLP981 T02470239 40334//// 57015 IEM_DS3505
ZGGG,1984-06-15 21:00,ZGGG 152100Z AUTO 00000KT 5SM 25/24 RMK SLP978 T02470239 57003 IEM_DS3505
ZGGG,1984-06-16 00:00,ZGGG 160000Z AUTO 00000KT 11SM 25/23 RMK 60000 SLP994 T02520234 52016 IEM_DS3505
ZGGG,1984-06-16 01:00,ZGGG 160100Z AUTO 01004KT 7SM 25/23 A2947 RMK T02500230 IEM_DS3505
ZGGG,1984-06-16 02:00,ZGGG 160200Z AUTO 03008KT 7SM 27/24 A2947 RMK T02700240 IEM_DS3505
ZGGG,1984-06-16 03:00,ZGGG 160300Z AUTO 36004KT 10SM 26/24 A2947 RMK SLP991 T02600239 57003 IEM_DS3505
ZGGG,1984-06-16 04:00,ZGGG 160400Z AUTO 01010KT 7SM 28/26 A2947 RMK T02800260 IEM_DS3505
ZGGG,1984-06-16 05:00,ZGGG 160500Z AUTO 02008KT 7SM 30/24 A2944 RMK T03000240 IEM_DS3505
ZGGG,1984-06-16 06:00,ZGGG 160600Z AUTO 00000KT 11SM 30/24 A2944 RMK 60000 SLP979 T02960235 4////0244 57012 IEM_DS3505
ZGGG,1984-06-16 07:00,ZGGG 160700Z AUTO 35010KT 7SM 30/24 A2941 RMK T03000240 IEM_DS3505
ZGGG,1984-06-16 08:00,ZGGG 160800Z AUTO 02008KT 7SM 30/23 A2941 RMK T03000230 IEM_DS3505
ZGGG,1984-06-16 09:00,ZGGG 160900Z AUTO 16002KT 7SM 29/24 A2941 RMK SLP972 T02880245 57007 IEM_DS3505
ZGGG,1984-06-16 12:00,ZGGG 161200Z AUTO 00000KT 7SM 28/25 RMK SLP983 T02780248 52011 IEM_DS3505
ZGGG,1984-06-16 15:00,ZGGG 161500Z AUTO 09004KT 6SM 27/25 RMK SLP987 T02680252 52004 IEM_DS3505
ZGGG,1984-06-16 18:00,ZGGG 161800Z AUTO 00000KT 6SM 26/25 RMK SLP976 T02560247 40310//// 57011 IEM_DS3505
ZGGG,1984-06-16 21:00,ZGGG 162100Z AUTO 00000KT 5SM 26/25 RMK SLP979 T02560249 52003 IEM_DS3505
ZGGG,1984-06-17 00:00,ZGGG 170000Z AUTO 00000KT 2 1/2SM 27/25 RMK SLP978 T02730249 57001 IEM_DS3505
ZGGG,1984-06-17 03:00,ZGGG 170300Z AUTO 00000KT 9SM 30/25 RMK SLP982 T03020248 52004 IEM_DS3505
ZGGG,1984-06-17 06:00,ZGGG 170600Z AUTO 00000KT 14SM 32/25 RMK SLP968 T03180248 4////0252 57014 IEM_DS3505
ZGGG,1984-06-17 09:00,ZGGG 170900Z AUTO 16004KT 6SM 31/25 RMK SLP958 T03120249 57010 IEM_DS3505
ZGGG,1984-06-17 12:00,ZGGG 171200Z AUTO 00000KT 7SM 28/26 RMK SLP969 T02840260 52011 IEM_DS3505
ZGGG,1984-06-17 15:00,ZGGG 171500Z AUTO 00000KT 5SM 28/26 RMK SLP998 T02750261 52029 IEM_DS3505
ZGGG,1984-06-17 18:00,ZGGG 171800Z AUTO 00000KT 4SM 26/26 RMK SLP987 T02640255 40324//// 57011 IEM_DS3505
ZGGG,1984-06-17 21:00,ZGGG 172100Z AUTO 07002KT 4SM 26/26 RMK SLP985 T02640255 57002 IEM_DS3505
ZGGG,1984-06-18 00:00,ZGGG 180000Z AUTO 11002KT 2 1/2SM 28/26 RMK SLP992 T02770259 52007 IEM_DS3505
ZGGG,1984-06-18 03:00,ZGGG 180300Z AUTO 11006KT 6SM 31/26 RMK SLP994 T03120262 52002 IEM_DS3505
ZGGG,1984-06-18 06:00,ZGGG 180600Z AUTO 20006KT 7SM 30/26 RMK SLP975 T03020260 4////0262 57019 IEM_DS3505
ZGGG,1984-06-18 09:00,ZGGG 180900Z AUTO 29004KT 7SM 29/26 RMK SLP966 T02900258 57009 IEM_DS3505
ZGGG,1984-06-18 10:00,ZGGG 181000Z AUTO 00000KT 2 1/2SM 28/26 RMK 60004 SLP975 T02820264 52009 IEM_DS3505
ZGGG,1984-06-18 12:00,ZGGG 181200Z AUTO 00000KT 2 1/2SM 28/26 RMK 60004 SLP975 T02820264 52009 IEM_DS3505
ZGGG,1984-06-18 15:00,ZGGG 181500Z AUTO 00000KT 2 1/2SM 27/26 RMK SLP996 T02720259 52021 IEM_DS3505
ZGGG,1984-06-18 18:00,ZGGG 181800Z AUTO 34006KT 2 1/2SM 26/26 RMK 60016 SLP984 T02620255 40320//// 57012 IEM_DS3505
ZGGG,1984-06-18 21:00,ZGGG 182100Z AUTO 00000KT 2SM 25/25 RMK SLP981 T02490246 57003 IEM_DS3505
ZGGG,1984-06-19 00:00,ZGGG 190000Z AUTO 00000KT 1 1/4SM 25/24 RMK 60213 SLP992 T02470243 52011 IEM_DS3505
ZGGG,1984-06-19 03:00,ZGGG 190300Z AUTO 09004KT 5SM 29/26 A2947 RMK SLP987 T02910260 57005 IEM_DS3505
ZGGG,1984-06-19 04:00,ZGGG 190400Z AUTO 07010KT 5SM 28/26 A2944 RMK T02800260 IEM_DS3505
ZGGG,1984-06-19 05:00,ZGGG 190500Z AUTO 10006KT 7SM 30/25 A2944 RMK T03000250 IEM_DS3505
ZGGG,1984-06-19 06:00,ZGGG 190600Z AUTO 11006KT 12SM 31/26 A2941 RMK 60024 SLP971 T03140259 4////0239 57016 IEM_DS3505
ZGGG,1984-06-19 07:00,ZGGG 190700Z AUTO 13012KT 7SM 32/25 A2938 RMK T03200250 IEM_DS3505
ZGGG,1984-06-19 08:00,ZGGG 190800Z AUTO 15012KT 7SM 31/25 A2938 RMK T03100250 IEM_DS3505
ZGGG,1984-06-19 09:00,ZGGG 190900Z AUTO 14012KT 31/25 A2938 RMK T03100250 IEM_DS3505
ZGGG,1984-06-19 12:00,ZGGG 191200Z AUTO 07004KT 9SM 26/26 RMK 60028 SLP976 T02620256 52019 IEM_DS3505
ZGGG,1984-06-19 15:00,ZGGG 191500Z AUTO 07006KT 7SM 27/25 RMK SLP990 T02670253 52014 IEM_DS3505
ZGGG,1984-06-19 18:00,ZGGG 191800Z AUTO 09004KT 7SM 26/25 RMK 60000 SLP977 T02580248 40321//// 57013 IEM_DS3505
ZGGG,1984-06-19 21:00,ZGGG 192100Z AUTO 00000KT 7SM 26/24 RMK SLP971 T02580239 57006 IEM_DS3505
ZGGG,1984-06-20 00:00,ZGGG 200000Z AUTO 07004KT 5SM 26/24 RMK 60002 SLP984 T02580245 52013 IEM_DS3505
ZGGG,1984-06-20 03:00,ZGGG 200300Z AUTO 11006KT 5SM 26/26 RMK SLP991 T02620255 52007 IEM_DS3505
ZGGG,1984-06-20 06:00,ZGGG 200600Z AUTO 09006KT 6SM 28/26 RMK SLP982 T02770262 4////0252 57009 IEM_DS3505
ZGGG,1984-06-20 09:00,ZGGG 200900Z AUTO 09012KT 6SM 28/25 RMK SLP974 T02840253 57008 IEM_DS3505
ZGGG,1984-06-20 12:00,ZGGG 201200Z AUTO 11010KT 4SM 26/25 RMK 60039 SLP989 T02610254 52015 IEM_DS3505
ZGGG,1984-06-20 15:00,ZGGG 201500Z AUTO 09012KT 7SM 27/24 RMK SLP011 T02670239 52022 IEM_DS3505
ZGGG,1984-06-20 18:00,ZGGG 201800Z AUTO 09008KT 9SM 26/24 RMK 60004 SLP003 T02560238 40305//// 57008 IEM_DS3505
ZGGG,1984-06-20 21:00,ZGGG 202100Z AUTO 09008KT 10SM 26/23 RMK SLP000 T02560234 57003 IEM_DS3505
ZGGG,1984-06-21 00:00,ZGGG 210000Z AUTO 09008KT 9SM 25/24 RMK 60001 SLP013 T02530243 52013 IEM_DS3505
ZGGG,1984-06-21 03:00,ZGGG 210300Z AUTO 09006KT 11SM 29/26 RMK SLP019 T02870261 52006 IEM_DS3505
ZGGG,1984-06-21 06:00,ZGGG 210600Z AUTO 11006KT 9SM 30/26 RMK 60024 SLP006 T03040258 4////0249 57013 IEM_DS3505
ZGGG,1984-06-21 09:00,ZGGG 210900Z AUTO 16004KT 9SM 27/25 RMK SLP016 T02700251 52010 IEM_DS3505
ZGGG,1984-06-21 12:00,ZGGG 211200Z AUTO 16008KT 7SM 27/25 RMK 60002 SLP025 T02740253 52009 IEM_DS3505
ZGGG,1984-06-21 15:00,ZGGG 211500Z AUTO 09004KT 5SM 26/24 RMK SLP047 T02570243 52022 IEM_DS3505
ZGGG,1984-06-21 18:00,ZGGG 211800Z AUTO 07004KT 5SM 25/24 RMK SLP038 T02520242 40305//// 57009 IEM_DS3505
ZGGG,1984-06-21 21:00,ZGGG 212100Z AUTO 07004KT 7SM 25/24 RMK SLP036 T02520244 57002 IEM_DS3505
ZGGG,1984-06-22 00:00,ZGGG 220000Z AUTO 20006KT 9SM 27/25 RMK SLP050 T02720248 52014 IEM_DS3505
ZGGG,1984-06-22 03:00,ZGGG 220300Z AUTO 14004KT 12SM 29/25 RMK SLP045 T02900252 57005 IEM_DS3505
ZGGG,1984-06-22 06:00,ZGGG 220600Z AUTO 14004KT 2 1/2SM 27/26 RMK 60024 SLP035 T02680255 4////0249 57010 IEM_DS3505
ZGGG,1984-06-22 09:00,ZGGG 220900Z AUTO 14002KT 9SM RMK SLP014 57021 IEM_DS3505
ZGGG,1984-06-22 12:00,ZGGG 221200Z AUTO 00000KT 9SM 28/26 RMK SLP029 T02800258 52015 IEM_DS3505
ZGGG,1984-06-22 15:00,ZGGG 221500Z AUTO 00000KT 9SM 27/26 RMK SLP042 T02700263 52013 IEM_DS3505
ZGGG,1984-06-22 18:00,ZGGG 221800Z AUTO 00000KT 5SM 26/26 RMK SLP029 T02610257 40312//// 57013 IEM_DS3505
ZGGG,1984-06-22 21:00,ZGGG 222100Z AUTO 00000KT 4SM 26/25 RMK SLP026 T02570254 57003 IEM_DS3505
ZGGG,1984-06-23 00:00,ZGGG 230000Z AUTO 25004KT 6SM 28/25 RMK SLP040 T02780252 52014 IEM_DS3505
ZGGG,1984-06-23 02:00,ZGGG 230200Z AUTO 32006KT 4SM 30/26 A2962 RMK T03000260 IEM_DS3505
ZGGG,1984-06-23 03:00,ZGGG 230300Z AUTO 34004KT 7SM 31/25 A2959 RMK SLP034 T03060250 57006 IEM_DS3505
ZGGG,1984-06-23 04:00,ZGGG 230400Z AUTO 30008KT 7SM 32/25 A2956 RMK T03200250 IEM_DS3505
ZGGG,1984-06-23 05:00,ZGGG 230500Z AUTO 01008KT 7SM 32/26 A2962 RMK T03200260 IEM_DS3505
ZGGG,1984-06-23 06:00,ZGGG 230600Z AUTO 00000KT 10SM 32/25 RMK SLP011 T03180252 4////0254 57023 IEM_DS3505
ZGGG,1984-06-23 07:00,ZGGG 230700Z AUTO 34017KT 7SM 33/26 A2950 RMK T03300260 IEM_DS3505
ZGGG,1984-06-23 08:00,ZGGG 230800Z AUTO 03008KT 6SM 34/25 A2947 RMK T03400250 IEM_DS3505
ZGGG,1984-06-23 09:00,ZGGG 230900Z AUTO 32002KT 9SM 35/25 A2944 RMK SLP983 T03490249 57028 IEM_DS3505
ZGGG,1984-06-23 12:00,ZGGG 231200Z AUTO 00000KT 8SM 30/27 RMK SLP992 T03020266 52009 IEM_DS3505
ZGGG,1984-06-23 15:00,ZGGG 231500Z AUTO 27002KT 7SM 28/26 RMK SLP000 T02820264 52008 IEM_DS3505
ZGGG,1984-06-23 18:00,ZGGG 231800Z AUTO 00000KT 5SM 28/27 RMK SLP978 T02840266 40351//// 57022 IEM_DS3505
ZGGG,1984-06-23 21:00,ZGGG 232100Z AUTO 00000KT 6SM 28/26 RMK SLP972 T02770257 57006 IEM_DS3505
ZGGG,1984-06-24 00:00,ZGGG 240000Z AUTO 32004KT 7SM 29/26 RMK SLP973 T02940261 52001 IEM_DS3505
ZGGG,1984-06-24 03:00,ZGGG 240300Z AUTO 34008KT 9SM 33/26 RMK SLP963 T03300263 57010 IEM_DS3505
ZGGG,1984-06-24 06:00,ZGGG 240600Z AUTO 34006KT 11SM 35/26 RMK SLP944 T03480261 4////0272 57019 IEM_DS3505
ZGGG,1984-06-24 09:00,ZGGG 240900Z AUTO 02004KT 11SM 36/25 RMK SLP928 T03580249 57016 IEM_DS3505
ZGGG,1984-06-24 12:00,ZGGG 241200Z AUTO 07008KT 11SM 29/26 RMK SLP940 T02930260 52012 IEM_DS3505
ZGGG,1984-06-24 15:00,ZGGG 241500Z AUTO 34006KT 10SM 30/24 RMK SLP961 T02980245 52021 IEM_DS3505
ZGGG,1984-06-24 18:00,ZGGG 241800Z AUTO 02002KT 8SM 28/25 RMK 60000 SLP942 T02810254 40361//// 57019 IEM_DS3505
ZGGG,1984-06-24 21:00,ZGGG 242100Z AUTO 02006KT 8SM 29/24 RMK SLP935 T02880235 57007 IEM_DS3505
ZGGG,1984-06-25 00:00,ZGGG 250000Z AUTO 09014KT 12SM 30/23 RMK SLP950 T02960228 52015 IEM_DS3505
ZGGG,1984-06-25 03:00,ZGGG 250300Z AUTO 04008KT 12SM 29/23 RMK SLP961 T02940232 52011 IEM_DS3505
ZGGG,1984-06-25 06:00,ZGGG 250600Z AUTO 09016KT 12SM 30/25 RMK SLP955 T02960248 4////0275 57006 IEM_DS3505
ZGGG,1984-06-25 09:00,ZGGG 250900Z AUTO 09008KT 2 1/2SM 25/24 RMK SLP964 T02510241 52009 IEM_DS3505
ZGGG,1984-06-25 12:00,ZGGG 251200Z AUTO 09008KT 9SM 25/24 RMK 60059 SLP984 T02540238 52020 IEM_DS3505
ZGGG,1984-06-25 15:00,ZGGG 251500Z AUTO 09008KT 7SM 25/24 RMK SLP009 T02540235 52025 IEM_DS3505
ZGGG,1984-06-25 18:00,ZGGG 251800Z AUTO 09006KT 7SM 25/23 RMK 60000 SLP005 T02480232 40305//// 57004 IEM_DS3505
ZGGG,1984-06-25 21:00,ZGGG 252100Z AUTO 07004KT 7SM 25/23 RMK SLP003 T02460228 57002 IEM_DS3505
ZGGG,1984-06-26 00:00,ZGGG 260000Z AUTO 00000KT 4SM 25/24 RMK 60024 SLP032 T02460240 52029 IEM_DS3505
ZGGG,1984-06-26 03:00,ZGGG 260300Z AUTO 16004KT 6SM 28/25 A2959 RMK SLP038 T02840251 52006 IEM_DS3505
ZGGG,1984-06-26 04:00,ZGGG 260400Z AUTO 15010KT 7SM 30/25 A2959 RMK T03000250 IEM_DS3505
ZGGG,1984-06-26 05:00,ZGGG 260500Z AUTO 12010KT 7SM 29/25 A2959 RMK T02900250 IEM_DS3505
ZGGG,1984-06-26 06:00,ZGGG 260600Z AUTO 09006KT 7SM 29/26 A2959 RMK 60008 SLP026 T02900261 4////0241 57012 IEM_DS3505
ZGGG,1984-06-26 07:00,ZGGG 260700Z AUTO 13010KT 7SM 31/26 A2956 RMK T03100260 IEM_DS3505
ZGGG,1984-06-26 08:00,ZGGG 260800Z AUTO 09008KT 7SM 30/26 A2956 RMK T03000260 IEM_DS3505
ZGGG,1984-06-26 09:00,ZGGG 260900Z AUTO 14004KT 7SM 30/26 A2956 RMK SLP021 T02960257 57005 IEM_DS3505
ZGGG,1984-06-26 10:00,ZGGG 261000Z AUTO 13008KT 7SM 29/26 A2956 RMK T02900260 IEM_DS3505
ZGGG,1984-06-26 12:00,ZGGG 261200Z AUTO 00000KT 7SM 27/25 RMK SLP040 T02710254 52019 IEM_DS3505
ZGGG,1984-06-26 15:00,ZGGG 261500Z AUTO 00000KT 5SM 27/26 RMK SLP056 T02680255 52016 IEM_DS3505
ZGGG,1984-06-26 18:00,ZGGG 261800Z AUTO 04004KT 5SM 26/25 RMK SLP051 T02600251 40310//// 57005 IEM_DS3505
ZGGG,1984-06-26 21:00,ZGGG 262100Z AUTO 09004KT 5SM 26/25 RMK SLP049 T02600251 57002 IEM_DS3505
ZGGG,1984-06-27 00:00,ZGGG 270000Z AUTO 11006KT 7SM 28/25 RMK SLP059 T02820252 52010 IEM_DS3505
ZGGG,1984-06-27 03:00,ZGGG 270300Z AUTO 11006KT 10SM 31/25 RMK SLP058 T03070252 57001 IEM_DS3505
ZGGG,1984-06-27 06:00,ZGGG 270600Z AUTO 18004KT 11SM 31/24 RMK SLP045 T03100242 4////0255 57013 IEM_DS3505
ZGGG,1984-06-27 09:00,ZGGG 270900Z AUTO 00000KT 10SM 29/25 RMK SLP035 T02880250 57010 IEM_DS3505
ZGGG,1984-06-27 12:00,ZGGG 271200Z AUTO 16004KT 7SM 28/25 RMK SLP049 T02790253 52014 IEM_DS3505
ZGGG,1984-06-27 15:00,ZGGG 271500Z AUTO 00000KT 6SM 27/26 RMK SLP068 T02660258 52019 IEM_DS3505
ZGGG,1984-06-27 18:00,ZGGG 271800Z AUTO 00000KT 4SM 26/25 RMK SLP051 T02590249 40313//// 57017 IEM_DS3505
ZGGG,1984-06-27 21:00,ZGGG 272100Z AUTO 00000KT 4SM 25/24 RMK SLP044 T02530244 57007 IEM_DS3505
ZGGG,1984-06-28 00:00,ZGGG 280000Z AUTO 09004KT 7SM 28/24 RMK SLP047 T02780245 52003 IEM_DS3505
ZGGG,1984-06-28 01:00,ZGGG 280100Z AUTO 11008KT 10SM 30/25 RMK SLP028 T02990247 4////0248 IEM_DS3505
ZGGG,1984-06-28 03:00,ZGGG 280300Z AUTO 09004KT 7SM 30/25 RMK SLP048 T02980247 52001 IEM_DS3505
ZGGG,1984-06-28 06:00,ZGGG 280600Z AUTO 11008KT 10SM 30/25 RMK SLP028 T02990247 4////0248 57020 IEM_DS3505
ZGGG,1984-06-28 09:00,ZGGG 280900Z AUTO 11010KT 11SM 30/24 RMK SLP015 T03040241 57013 IEM_DS3505
ZGGG,1984-06-28 12:00,ZGGG 281200Z AUTO 11004KT 8SM 28/24 RMK SLP032 T02760244 52017 IEM_DS3505
ZGGG,1984-06-28 15:00,ZGGG 281500Z AUTO 11006KT 6SM 27/24 RMK SLP048 T02710241 52016 IEM_DS3505
ZGGG,1984-06-28 18:00,ZGGG 281800Z AUTO 07004KT 6SM 26/24 RMK SLP040 T02600241 40310//// 57008 IEM_DS3505
ZGGG,1984-06-28 21:00,ZGGG 282100Z AUTO 07004KT 7SM 25/24 RMK SLP034 T02540239 57006 IEM_DS3505
ZGGG,1984-06-29 00:00,ZGGG 290000Z AUTO 09006KT 10SM 27/24 RMK SLP044 T02710239 52010 IEM_DS3505
ZGGG,1984-06-29 03:00,ZGGG 290300Z AUTO 11004KT 2 1/2SM 26/25 RMK SLP052 T02590249 52008 IEM_DS3505
ZGGG,1984-06-29 06:00,ZGGG 290600Z AUTO 09010KT 12SM 29/25 RMK 60051 SLP039 T02900249 4////0245 57013 IEM_DS3505
ZGGG,1984-06-29 09:00,ZGGG 290900Z AUTO 09006KT 9SM 30/25 RMK SLP023 T02960247 57016 IEM_DS3505
ZGGG,1984-06-29 12:00,ZGGG 291200Z AUTO 14006KT 10SM 28/24 RMK SLP038 T02770244 52015 IEM_DS3505
ZGGG,1984-06-29 15:00,ZGGG 291500Z AUTO 14004KT 7SM 27/25 RMK SLP063 T02660247 52025 IEM_DS3505
ZGGG,1984-06-29 18:00,ZGGG 291800Z AUTO 00000KT 7SM 26/24 RMK SLP059 T02600245 40301//// 57004 IEM_DS3505
ZGGG,1984-06-29 21:00,ZGGG 292100Z AUTO 11002KT 4SM 25/24 RMK SLP057 T02520244 57002 IEM_DS3505
ZGGG,1984-06-30 00:00,ZGGG 300000Z AUTO 11006KT 9SM 27/25 RMK 60008 SLP071 T02660252 52014 IEM_DS3505
ZGGG,1984-06-30 02:00,ZGGG 300200Z AUTO 13006KT 7SM 29/25 A2971 RMK T02900250 IEM_DS3505
ZGGG,1984-06-30 03:00,ZGGG 300300Z AUTO 00000KT 7SM 26/25 A2974 RMK SLP080 T02610249 52009 IEM_DS3505
ZGGG,1984-06-30 04:00,ZGGG 300400Z AUTO 15006KT 5SM 27/25 A2971 RMK T02700250 IEM_DS3505
ZGGG,1984-06-30 05:00,ZGGG 300500Z AUTO 05002KT 7SM 29/25 A2971 RMK T02900250 IEM_DS3505
ZGGG,1984-06-30 06:00,ZGGG 300600Z AUTO 11004KT 7SM 29/25 A2971 RMK 60016 SLP068 T02900250 4////0248 57012 IEM_DS3505
ZGGG,1984-06-30 07:00,ZGGG 300700Z AUTO 16012KT 7SM 30/25 A2968 RMK T03000250 IEM_DS3505
ZGGG,1984-06-30 08:00,ZGGG 300800Z AUTO 12014KT 7SM 30/25 A2965 RMK T03000250 IEM_DS3505
ZGGG,1984-06-30 09:00,ZGGG 300900Z AUTO 14006KT 10SM 29/25 RMK SLP053 T02900250 57015 IEM_DS3505
ZGGG,1984-06-30 12:00,ZGGG 301200Z AUTO 14006KT 7SM 28/25 RMK SLP067 T02760252 52014 IEM_DS3505
ZGGG,1984-06-30 15:00,ZGGG 301500Z AUTO 14004KT 7SM 27/25 RMK SLP082 T02660253 52015 IEM_DS3505
ZGGG,1984-06-30 18:00,ZGGG 301800Z AUTO 00000KT 7SM 26/25 RMK SLP079 T02630251 40296//// 57003 IEM_DS3505
ZGGG,1984-06-30 21:00,ZGGG 302100Z AUTO 00000KT 6SM 26/25 RMK SLP075 T02550246 57004 IEM_DS3505
ZGGG,1984-07-01 00:00,ZGGG 010000Z AUTO 20006KT 12SM 31/24 RMK SLP069 T03140245 4////0252 57020 IEM_DS3505
ZGGG,1984-07-01 03:00,ZGGG 010300Z AUTO 16002KT 7SM 30/24 RMK SLP089 T03030243 57002 IEM_DS3505
ZGGG,1984-07-01 06:00,ZGGG 010600Z AUTO 20006KT 12SM 31/24 RMK SLP069 T03140245 4////0252 57020 IEM_DS3505
ZGGG,1984-07-01 09:00,ZGGG 010900Z AUTO 14004KT 12SM 27/25 RMK SLP061 T02670250 57008 IEM_DS3505
ZGGG,1984-07-01 12:00,ZGGG 011200Z AUTO 00000KT 10SM 27/25 RMK 60004 SLP064 T02700253 52003 IEM_DS3505
ZGGG,1984-07-01 15:00,ZGGG 011500Z AUTO 09004KT 7SM 27/25 RMK SLP079 T02660252 52015 IEM_DS3505
ZGGG,1984-07-01 18:00,ZGGG 011800Z AUTO 00000KT 6SM 26/25 RMK SLP079 T02590250 40321//// 54000 IEM_DS3505
ZGGG,1984-07-01 21:00,ZGGG 012100Z AUTO 00000KT 6SM 26/25 RMK SLP067 T02590252 57012 IEM_DS3505
ZGGG,1984-07-02 00:00,ZGGG 020000Z AUTO 09006KT 5SM 28/25 RMK SLP075 T02760249 52008 IEM_DS3505
ZGGG,1984-07-02 03:00,ZGGG 020300Z AUTO 00000KT 7SM 30/25 RMK SLP073 T03000251 57002 IEM_DS3505
ZGGG,1984-07-02 06:00,ZGGG 020600Z AUTO 16006KT 12SM 31/25 RMK SLP051 T03120249 4////0250 57022 IEM_DS3505
ZGGG,1984-07-02 09:00,ZGGG 020900Z AUTO 20006KT 10SM 30/24 RMK SLP044 T03040243 57007 IEM_DS3505
ZGGG,1984-07-02 12:00,ZGGG 021200Z AUTO 18004KT 9SM 28/26 RMK SLP049 T02830255 52005 IEM_DS3505
ZGGG,1984-07-02 15:00,ZGGG 021500Z AUTO 18004KT 9SM 27/25 RMK SLP072 T02740254 52023 IEM_DS3505
ZGGG,1984-07-02 18:00,ZGGG 021800Z AUTO 00000KT 5SM 26/25 RMK SLP063 T02640254 40322//// 57009 IEM_DS3505
ZGGG,1984-07-02 21:00,ZGGG 022100Z AUTO 00000KT 5SM 26/25 RMK SLP062 T02560249 57001 IEM_DS3505
ZGGG,1984-07-03 00:00,ZGGG 030000Z AUTO 07004KT 5SM 27/25 RMK SLP068 T02700253 52006 IEM_DS3505
ZGGG,1984-07-03 03:00,ZGGG 030300Z AUTO 14004KT 7SM 30/25 A2968 RMK SLP066 T03010249 57002 IEM_DS3505
ZGGG,1984-07-03 05:00,ZGGG 030500Z AUTO 19004KT 7SM 31/24 A2968 RMK T03100240 IEM_DS3505
ZGGG,1984-07-03 06:00,ZGGG 030600Z AUTO 18006KT 10SM 32/24 A2965 RMK SLP046 T03230241 4////0253 57020 IEM_DS3505
ZGGG,1984-07-03 07:00,ZGGG 030700Z AUTO 00000KT 7SM 33/24 A2962 RMK T03300240 IEM_DS3505
ZGGG,1984-07-03 08:00,ZGGG 030800Z AUTO 21008KT 7SM 32/24 A2959 RMK T03200240 IEM_DS3505
ZGGG,1984-07-03 09:00,ZGGG 030900Z AUTO 14006KT 10SM 30/25 A2959 RMK SLP035 T03030254 57011 IEM_DS3505
ZGGG,1984-07-03 10:00,ZGGG 031000Z AUTO 13010KT 7SM 28/24 A2962 RMK T02800240 IEM_DS3505
ZGGG,1984-07-03 11:00,ZGGG 031100Z AUTO 14008KT 7SM 28/26 A2962 RMK T02800260 IEM_DS3505
ZGGG,1984-07-03 12:00,ZGGG 031200Z AUTO 00000KT 9SM 28/26 RMK 60000 SLP053 T02830257 52018 IEM_DS3505
ZGGG,1984-07-03 15:00,ZGGG 031500Z AUTO 00000KT 7SM 27/25 RMK SLP067 T02680247 52014 IEM_DS3505
ZGGG,1984-07-03 18:00,ZGGG 031800Z AUTO 00000KT 7SM 26/25 RMK SLP055 T02640254 40327//// 57012 IEM_DS3505
ZGGG,1984-07-03 21:00,ZGGG 032100Z AUTO 22004KT 7SM 27/25 RMK SLP063 T02700254 52008 IEM_DS3505
ZGGG,1984-07-04 00:00,ZGGG 040000Z AUTO 00000KT 2 1/2SM 26/25 RMK SLP077 T02640251 52014 IEM_DS3505
ZGGG,1984-07-04 03:00,ZGGG 040300Z AUTO 09004KT 7SM 29/26 RMK SLP081 T02940258 52004 IEM_DS3505
ZGGG,1984-07-04 06:00,ZGGG 040600Z AUTO 11004KT 4SM 30/26 RMK 60000 SLP066 T03030259 4////0257 57015 IEM_DS3505
ZGGG,1984-07-04 09:00,ZGGG 040900Z AUTO 02004KT 6SM 30/26 RMK SLP054 T02980261 57012 IEM_DS3505
ZGGG,1984-07-04 12:00,ZGGG 041200Z AUTO 25004KT 7SM 24/23 RMK 60012 SLP084 T02450227 52030 IEM_DS3505
ZGGG,1984-07-04 15:00,ZGGG 041500Z AUTO 00000KT 6SM 24/24 RMK SLP096 T02440235 52012 IEM_DS3505
ZGGG,1984-07-04 18:00,ZGGG 041800Z AUTO 36002KT 7SM 24/23 RMK 60012 SLP089 T02450233 40317//// 57007 IEM_DS3505
ZGGG,1984-07-04 21:00,ZGGG 042100Z AUTO 00000KT 6SM 25/24 RMK SLP083 T02460238 57006 IEM_DS3505
ZGGG,1984-07-05 00:00,ZGGG 050000Z AUTO 00000KT 6SM 27/25 RMK 60000 SLP093 T02660247 52010 IEM_DS3505
ZGGG,1984-07-05 03:00,ZGGG 050300Z AUTO 00000KT 9SM 30/25 RMK SLP089 T03040252 57004 IEM_DS3505
ZGGG,1984-07-05 06:00,ZGGG 050600Z AUTO 07006KT 9SM 27/24 RMK 60016 SLP081 T02720242 4////0242 57008 IEM_DS3505
ZGGG,1984-07-05 09:00,ZGGG 050900Z AUTO 00000KT 7SM 26/25 RMK SLP070 T02580248 57011 IEM_DS3505
ZGGG,1984-07-05 12:00,ZGGG 051200Z AUTO 07004KT 6SM 25/24 RMK 60114 SLP082 T02540245 52012 IEM_DS3505
ZGGG,1984-07-05 15:00,ZGGG 051500Z AUTO 00000KT 6SM 25/24 RMK SLP103 T02520243 52021 IEM_DS3505
ZGGG,1984-07-05 18:00,ZGGG 051800Z AUTO 00000KT 6SM 25/24 RMK SLP091 T02500243 57012 IEM_DS3505
ZGGG,1984-07-05 21:00,ZGGG 052100Z AUTO 07004KT 6SM 25/24 RMK SLP086 T02460238 57005 IEM_DS3505
ZGGG,1984-07-06 00:00,ZGGG 060000Z AUTO 09006KT 9SM 28/25 RMK 60001 SLP094 T02750248 52008 IEM_DS3505
ZGGG,1984-07-06 03:00,ZGGG 060300Z AUTO 09006KT 10SM 30/25 RMK SLP093 T03010249 57001 IEM_DS3505
ZGGG,1984-07-06 06:00,ZGGG 060600Z AUTO 14004KT 9SM 30/23 RMK SLP078 T03000229 4////0236 57015 IEM_DS3505
ZGGG,1984-07-06 09:00,ZGGG 060900Z AUTO 14006KT 9SM 31/23 RMK SLP062 T03100231 57016 IEM_DS3505
ZGGG,1984-07-06 12:00,ZGGG 061200Z AUTO 00000KT 9SM 28/24 RMK SLP076 T02800238 52014 IEM_DS3505
ZGGG,1984-07-06 15:00,ZGGG 061500Z AUTO 00000KT 9SM 26/24 RMK SLP090 T02580245 52014 IEM_DS3505
ZGGG,1984-07-06 18:00,ZGGG 061800Z AUTO 07002KT 7SM 25/24 RMK SLP080 T02540241 40322//// 57010 IEM_DS3505
ZGGG,1984-07-06 21:00,ZGGG 062100Z AUTO 00000KT 6SM 25/24 RMK SLP074 T02460238 57006 IEM_DS3505
ZGGG,1984-07-07 00:00,ZGGG 070000Z AUTO 09002KT 10SM 28/24 RMK SLP083 T02850241 52009 IEM_DS3505
ZGGG,1984-07-07 02:00,ZGGG 070200Z AUTO 00000KT 7SM 30/24 A2974 RMK T03000240 IEM_DS3505
ZGGG,1984-07-07 03:00,ZGGG 070300Z AUTO 16006KT 9SM 31/24 A2974 RMK SLP079 T03100237 57004 IEM_DS3505
ZGGG,1984-07-07 04:00,ZGGG 070400Z AUTO 15006KT 7SM 31/24 RMK T03100240 IEM_DS3505
ZGGG,1984-07-07 05:00,ZGGG 070500Z AUTO 00000KT 7SM 31/24 A2971 RMK T03100240 IEM_DS3505
ZGGG,1984-07-07 06:00,ZGGG 070600Z AUTO 09004KT 14SM 32/24 A2965 RMK SLP057 T03250237 4////0241 57022 IEM_DS3505
ZGGG,1984-07-07 07:00,ZGGG 070700Z AUTO 00000KT 7SM 33/24 A2965 RMK T03300240 IEM_DS3505
ZGGG,1984-07-07 08:00,ZGGG 070800Z AUTO 00000KT 7SM 33/25 A2965 RMK T03300250 IEM_DS3505
ZGGG,1984-07-07 09:00,ZGGG 070900Z AUTO 16004KT 11SM 32/24 A2965 RMK SLP042 T03170242 57015 IEM_DS3505
ZGGG,1984-07-07 12:00,ZGGG 071200Z AUTO 07002KT 10SM 29/25 RMK SLP057 T02870247 52015 IEM_DS3505
ZGGG,1984-07-07 15:00,ZGGG 071500Z AUTO 11002KT 9SM 27/25 RMK SLP073 T02690246 52016 IEM_DS3505
ZGGG,1984-07-07 18:00,ZGGG 071800Z AUTO 00000KT 7SM 26/24 RMK SLP061 T02590240 40335//// 57012 IEM_DS3505
ZGGG,1984-07-07 21:00,ZGGG 072100Z AUTO 36004KT 6SM 26/23 RMK SLP056 T02570230 57005 IEM_DS3505
ZGGG,1984-07-08 00:00,ZGGG 080000Z AUTO 04004KT 11SM 27/24 RMK SLP057 T02730237 52001 IEM_DS3505
ZGGG,1984-07-08 03:00,ZGGG 080300Z AUTO 07008KT 11SM 31/22 RMK SLP054 T03100218 57003 IEM_DS3505
ZGGG,1984-07-08 06:00,ZGGG 080600Z AUTO 07008KT 12SM 30/24 RMK 60001 SLP038 T03020241 4////0248 57016 IEM_DS3505
ZGGG,1984-07-08 09:00,ZGGG 080900Z AUTO 07006KT 11SM 25/24 RMK SLP033 T02540235 57005 IEM_DS3505
ZGGG,1984-07-08 12:00,ZGGG 081200Z AUTO 07010KT 12SM 27/23 RMK 60055 SLP037 T02660233 52004 IEM_DS3505
ZGGG,1984-07-08 15:00,ZGGG 081500Z AUTO 09012KT 9SM 26/23 RMK SLP046 T02600226 52009 IEM_DS3505
ZGGG,1984-07-08 18:00,ZGGG 081800Z AUTO 09010KT 9SM 26/22 RMK SLP037 T02550224 40320//// 57009 IEM_DS3505
ZGGG,1984-07-08 21:00,ZGGG 082100Z AUTO 07006KT 7SM 24/23 RMK SLP025 T02450230 57012 IEM_DS3505
ZGGG,1984-07-09 00:00,ZGGG 090000Z AUTO 11008KT 12SM 24/23 RMK 60047 SLP038 T02430230 52013 IEM_DS3505
ZGGG,1984-07-09 03:00,ZGGG 090300Z AUTO 11008KT 9SM 24/23 RMK SLP051 T02440232 52013 IEM_DS3505
ZGGG,1984-07-09 06:00,ZGGG 090600Z AUTO 11008KT 9SM 27/24 RMK 60031 SLP040 T02700241 4////0237 57011 IEM_DS3505
ZGGG,1984-07-09 09:00,ZGGG 090900Z AUTO 11010KT 11SM 27/24 RMK SLP035 T02660243 57005 IEM_DS3505
ZGGG,1984-07-09 12:00,ZGGG 091200Z AUTO 09008KT 7SM 25/23 RMK 60059 SLP047 T02520233 52012 IEM_DS3505
ZGGG,1984-07-09 15:00,ZGGG 091500Z AUTO 07012KT 6SM 24/23 RMK SLP068 T02450227 52021 IEM_DS3505
ZGGG,1984-07-09 18:00,ZGGG 091800Z AUTO 09010KT 6SM 25/23 RMK 60000 SLP069 T02460230 40276//// 52001 IEM_DS3505
ZGGG,1984-07-09 21:00,ZGGG 092100Z AUTO 09006KT 6SM 24/23 RMK SLP070 T02430228 52001 IEM_DS3505
ZGGG,1984-07-10 00:00,ZGGG 100000Z AUTO 09006KT 7SM 25/24 RMK 60008 SLP082 T02540235 52012 IEM_DS3505
ZGGG,1984-07-10 03:00,ZGGG 100300Z AUTO 14010KT 9SM 29/25 RMK SLP079 T02920252 57003 IEM_DS3505
ZGGG,1984-07-10 04:00,ZGGG 100400Z AUTO 12016KT 7SM 30/25 A2971 RMK T03000250 IEM_DS3505
ZGGG,1984-07-10 05:00,ZGGG 100500Z AUTO 16014KT 7SM 30/26 A2971 RMK T03000260 IEM_DS3505
ZGGG,1984-07-10 06:00,ZGGG 100600Z AUTO 14010KT 11SM 30/26 A2971 RMK 60008 SLP073 T03000257 57006 IEM_DS3505
ZGGG,1984-07-10 07:00,ZGGG 100700Z AUTO 12014KT 7SM A2968 RMK IEM_DS3505
ZGGG,1984-07-10 08:00,ZGGG 100800Z AUTO 16010KT 7SM 29/26 A2968 RMK T02900260 IEM_DS3505
ZGGG,1984-07-10 09:00,ZGGG 100900Z AUTO 04008KT 11SM 28/26 A2968 RMK SLP064 T02790259 57009 IEM_DS3505
ZGGG,1984-07-10 10:00,ZGGG 101000Z AUTO 13012KT 7SM 28/26 A2968 RMK T02800260 IEM_DS3505
ZGGG,1984-07-10 12:00,ZGGG 101200Z AUTO 14008KT 10SM 27/26 RMK 60031 SLP081 T02710255 52017 IEM_DS3505
ZGGG,1984-07-10 15:00,ZGGG 101500Z AUTO 14004KT 9SM 26/25 RMK SLP100 T02640250 52019 IEM_DS3505
ZGGG,1984-07-10 18:00,ZGGG 101800Z AUTO 11002KT 7SM 26/25 RMK SLP093 T02580251 40302//// 57007 IEM_DS3505
ZGGG,1984-07-10 21:00,ZGGG 102100Z AUTO 14002KT 7SM 26/25 RMK SLP095 T02590249 52002 IEM_DS3505
ZGGG,1984-07-11 00:00,ZGGG 110000Z AUTO 14004KT 7SM 28/25 RMK SLP105 T02750251 52010 IEM_DS3505
ZGGG,1984-07-11 03:00,ZGGG 110300Z AUTO 18004KT 9SM 30/25 RMK SLP105 T03000248 54000 IEM_DS3505
ZGGG,1984-07-11 06:00,ZGGG 110600Z AUTO 16008KT 9SM 30/26 RMK SLP098 T03030263 4////0255 57007 IEM_DS3505
ZGGG,1984-07-11 09:00,ZGGG 110900Z AUTO 04002KT 10SM 26/22 RMK SLP093 T02610224 57005 IEM_DS3505
ZGGG,1984-07-11 12:00,ZGGG 111200Z AUTO 00000KT 7SM 26/24 RMK 60001 SLP099 T02560240 52006 IEM_DS3505
ZGGG,1984-07-11 15:00,ZGGG 111500Z AUTO 00000KT 7SM 25/24 RMK SLP109 T02520243 52010 IEM_DS3505
ZGGG,1984-07-11 18:00,ZGGG 111800Z AUTO 00000KT 4SM 26/25 RMK SLP096 T02550252 40320//// 57013 IEM_DS3505
ZGGG,1984-07-11 21:00,ZGGG 112100Z AUTO 00000KT 4SM 25/24 RMK SLP093 T02500245 57003 IEM_DS3505
ZGGG,1984-07-12 00:00,ZGGG 120000Z AUTO 00000KT 5SM 27/25 RMK SLP101 T02720251 52008 IEM_DS3505
ZGGG,1984-07-12 03:00,ZGGG 120300Z AUTO 20004KT 9SM RMK SLP105 52004 IEM_DS3505
ZGGG,1984-07-12 06:00,ZGGG 120600Z AUTO 20004KT 11SM 32/23 RMK SLP090 T03160226 4////0245 57015 IEM_DS3505
ZGGG,1984-07-12 09:00,ZGGG 120900Z AUTO 20006KT 11SM 32/12 RMK SLP075 T03220118 57015 IEM_DS3505
ZGGG,1984-07-12 12:00,ZGGG 121200Z AUTO 18004KT 9SM 29/24 RMK SLP081 T02920244 52006 IEM_DS3505
ZGGG,1984-07-12 15:00,ZGGG 121500Z AUTO 00000KT 8SM 26/24 RMK SLP093 T02640241 52012 IEM_DS3505
ZGGG,1984-07-12 18:00,ZGGG 121800Z AUTO 00000KT 7SM 26/24 RMK SLP084 T02560243 40331//// 57009 IEM_DS3505
ZGGG,1984-07-12 21:00,ZGGG 122100Z AUTO 00000KT 6SM 25/24 RMK SLP081 T02480242 57003 IEM_DS3505
ZGGG,1984-07-13 00:00,ZGGG 130000Z AUTO 00000KT 7SM 27/25 RMK SLP090 T02720246 52009 IEM_DS3505
ZGGG,1984-07-13 03:00,ZGGG 130300Z AUTO 00000KT 11SM 30/24 RMK SLP090 T03040235 54000 IEM_DS3505
ZGGG,1984-07-13 06:00,ZGGG 130600Z AUTO 22004KT 10SM 32/24 RMK 60001 SLP073 T03180237 57017 IEM_DS3505
ZGGG,1984-07-13 09:00,ZGGG 130900Z AUTO 18008KT 12SM 32/22 RMK SLP054 T03180222 57019 IEM_DS3505
ZGGG,1984-07-13 12:00,ZGGG 131200Z AUTO 18002KT 10SM 29/24 RMK SLP057 T02920242 52003 IEM_DS3505
ZGGG,1984-07-13 18:00,ZGGG 131800Z AUTO 00000KT 6SM 26/25 RMK SLP065 T02600247 40328//// 57003 IEM_DS3505
ZGGG,1984-07-13 21:00,ZGGG 132100Z AUTO 00000KT 5SM 26/25 RMK SLP060 T02570248 57005 IEM_DS3505
ZGGG,1984-07-14 00:00,ZGGG 140000Z AUTO 27004KT 2 1/2SM 26/25 RMK 60047 SLP066 T02550248 52006 IEM_DS3505
ZGGG,1984-07-14 03:00,ZGGG 140300Z AUTO 18002KT 5SM 29/25 A2968 RMK SLP062 T02860249 57004 IEM_DS3505
ZGGG,1984-07-14 04:00,ZGGG 140400Z AUTO 24004KT 7SM 30/25 A2968 RMK T03000250 IEM_DS3505
ZGGG,1984-07-14 05:00,ZGGG 140500Z AUTO 19004KT 7SM 31/24 A2965 RMK T03100240 IEM_DS3505
ZGGG,1984-07-14 06:00,ZGGG 140600Z AUTO 32004KT 7SM 32/23 A2962 RMK 60001 SLP041 T03160231 4////0250 57021 IEM_DS3505
ZGGG,1984-07-14 07:00,ZGGG 140700Z AUTO 20010KT 7SM 32/24 A2959 RMK T03200240 IEM_DS3505
ZGGG,1984-07-14 08:00,ZGGG 140800Z AUTO 21010KT 7SM 33/24 A2959 RMK T03300240 IEM_DS3505
ZGGG,1984-07-14 09:00,ZGGG 140900Z AUTO 18002KT 9SM 32/24 RMK SLP027 T03250237 57014 IEM_DS3505
ZGGG,1984-07-14 12:00,ZGGG 141200Z AUTO 11004KT 7SM 29/26 RMK SLP031 T02900264 52004 IEM_DS3505
ZGGG,1984-07-14 15:00,ZGGG 141500Z AUTO 18002KT 7SM 28/25 RMK SLP043 T02770249 52012 IEM_DS3505
ZGGG,1984-07-14 18:00,ZGGG 141800Z AUTO 18002KT 7SM 26/24 RMK SLP038 T02640245 40330//// 57005 IEM_DS3505
ZGGG,1984-07-14 21:00,ZGGG 142100Z AUTO 00000KT 6SM 26/25 RMK SLP033 T02560247 57005 IEM_DS3505
ZGGG,1984-07-15 00:00,ZGGG 150000Z AUTO 11002KT 5SM 28/25 RMK SLP044 T02760252 52011 IEM_DS3505
ZGGG,1984-07-15 03:00,ZGGG 150300Z AUTO 20006KT 7SM 30/25 RMK SLP044 T03000248 54000 IEM_DS3505
ZGGG,1984-07-15 06:00,ZGGG 150600Z AUTO 22006KT 10SM 33/24 RMK SLP030 T03260243 4////0252 57014 IEM_DS3505
ZGGG,1984-07-15 09:00,ZGGG 150900Z AUTO 18006KT 9SM 29/25 RMK SLP029 T02860252 57001 IEM_DS3505
ZGGG,1984-07-15 12:00,ZGGG 151200Z AUTO 00000KT 8SM 28/26 RMK SLP035 T02820263 52006 IEM_DS3505
ZGGG,1984-07-15 15:00,ZGGG 151500Z AUTO 00000KT 7SM 28/26 RMK SLP052 T02750261 52017 IEM_DS3505
ZGGG,1984-07-15 18:00,ZGGG 151800Z AUTO 00000KT 5SM 27/26 RMK SLP048 T02660258 40335//// 57004 IEM_DS3505
ZGGG,1984-07-15 21:00,ZGGG 152100Z AUTO 00000KT 2 1/2SM 26/25 RMK SLP057 T02600254 52009 IEM_DS3505
ZGGG,1984-07-16 00:00,ZGGG 160000Z AUTO 14004KT 2 1/2SM 28/26 RMK SLP070 T02850257 52013 IEM_DS3505
ZGGG,1984-07-16 03:00,ZGGG 160300Z AUTO 22004KT 6SM 31/25 RMK SLP077 T03090247 52007 IEM_DS3505
ZGGG,1984-07-16 06:00,ZGGG 160600Z AUTO 29004KT 9SM 34/23 RMK SLP062 T03360229 4////0256 57015 IEM_DS3505
ZGGG,1984-07-16 09:00,ZGGG 160900Z AUTO 22006KT 9SM 33/25 RMK SLP050 T03270253 57012 IEM_DS3505
ZGGG,1984-07-16 12:00,ZGGG 161200Z AUTO 00000KT 9SM 30/25 RMK SLP059 T03040253 52009 IEM_DS3505
ZGGG,1984-07-16 15:00,ZGGG 161500Z AUTO 14004KT 7SM 28/26 RMK SLP073 T02800259 52014 IEM_DS3505
ZGGG,1984-07-16 18:00,ZGGG 161800Z AUTO 00000KT 5SM 27/26 RMK SLP070 T02690258 40346//// 57003 IEM_DS3505
ZGGG,1984-07-16 21:00,ZGGG 162100Z AUTO 00000KT 5SM 26/26 RMK SLP070 T02650259 54000 IEM_DS3505
ZGGG,1984-07-17 00:00,ZGGG 170000Z AUTO 00000KT 4SM 28/26 RMK SLP081 T02800258 52011 IEM_DS3505
ZGGG,1984-07-17 03:00,ZGGG 170300Z AUTO 29004KT 9SM 32/26 RMK SLP079 T03190255 57002 IEM_DS3505
ZGGG,1984-07-17 04:00,ZGGG 170400Z AUTO 27008KT 7SM 33/25 A2971 RMK T03300250 IEM_DS3505
ZGGG,1984-07-17 05:00,ZGGG 170500Z AUTO 30004KT 7SM 34/25 A2968 RMK T03400250 IEM_DS3505
ZGGG,1984-07-17 06:00,ZGGG 170600Z AUTO 29006KT 9SM 34/23 A2965 RMK SLP057 T03400233 4////0261 57022 IEM_DS3505
ZGGG,1984-07-17 07:00,ZGGG 170700Z AUTO 24010KT 7SM 34/24 A2965 RMK T03400240 IEM_DS3505
ZGGG,1984-07-17 08:00,ZGGG 170800Z AUTO 21006KT 7SM 34/24 A2962 RMK T03400240 IEM_DS3505
ZGGG,1984-07-17 09:00,ZGGG 170900Z AUTO 00000KT 12SM 34/23 A2959 RMK SLP038 T03400231 57019 IEM_DS3505
ZGGG,1984-07-17 10:00,ZGGG 171000Z AUTO 21004KT 6SM 34/24 A2959 RMK T03400240 IEM_DS3505
ZGGG,1984-07-17 11:00,ZGGG 171100Z AUTO 14006KT 6SM 32/25 A2959 RMK T03200250 IEM_DS3505
ZGGG,1984-07-17 12:00,ZGGG 171200Z AUTO 16004KT 9SM 31/27 RMK SLP040 T03060266 52002 IEM_DS3505
ZGGG,1984-07-17 15:00,ZGGG 171500Z AUTO 00000KT 7SM 29/26 RMK SLP053 T02910265 52013 IEM_DS3505
ZGGG,1984-07-17 18:00,ZGGG 171800Z AUTO 00000KT 1 1/4SM 28/26 RMK SLP043 T02800263 40352//// 57010 IEM_DS3505
ZGGG,1984-07-17 21:00,ZGGG 172100Z AUTO 00000KT 5SM 28/26 RMK SLP043 T02750260 54000 IEM_DS3505
ZGGG,1984-07-18 00:00,ZGGG 180000Z AUTO 22004KT 5SM 29/26 RMK SLP052 T02870262 52009 IEM_DS3505
ZGGG,1984-07-18 03:00,ZGGG 180300Z AUTO 22004KT 7SM 32/24 RMK SLP047 T03240237 57005 IEM_DS3505
ZGGG,1984-07-18 06:00,ZGGG 180600Z AUTO 22004KT 10SM 34/24 RMK SLP024 T03390235 4////0271 57023 IEM_DS3505
ZGGG,1984-07-18 09:00,ZGGG 180900Z AUTO 18004KT 10SM 34/24 RMK SLP009 T03390245 57015 IEM_DS3505
ZGGG,1984-07-18 12:00,ZGGG 181200Z AUTO 14004KT 7SM 30/27 RMK SLP009 T03010272 54000 IEM_DS3505
ZGGG,1984-07-18 15:00,ZGGG 181500Z AUTO 00000KT 7SM 28/22 RMK SLP027 T02850218 52018 IEM_DS3505
ZGGG,1984-07-18 18:00,ZGGG 181800Z AUTO 00000KT 6SM 28/26 RMK SLP014 T02750261 40348//// 57013 IEM_DS3505
ZGGG,1984-07-18 21:00,ZGGG 182100Z AUTO 20004KT 6SM 28/25 RMK SLP018 T02760252 52004 IEM_DS3505
ZGGG,1984-07-19 00:00,ZGGG 190000Z AUTO 18004KT 7SM 29/25 RMK SLP032 T02870252 52014 IEM_DS3505
ZGGG,1984-07-19 03:00,ZGGG 190300Z AUTO 18006KT 10SM 32/24 RMK SLP034 T03170245 52002 IEM_DS3505
ZGGG,1984-07-19 06:00,ZGGG 190600Z AUTO 18006KT 11SM 34/24 RMK SLP019 T03370243 4////0269 57015 IEM_DS3505
ZGGG,1984-07-19 09:00,ZGGG 190900Z AUTO 30008KT 3/8SM 34/24 RMK SLP003 T03370243 57016 IEM_DS3505
ZGGG,1984-07-19 12:00,ZGGG 191200Z AUTO 18008KT 7SM 30/25 RMK SLP022 T03030249 52019 IEM_DS3505
ZGGG,1984-07-19 15:00,ZGGG 191500Z AUTO 18004KT 7SM 28/25 RMK SLP039 T02800253 52017 IEM_DS3505
ZGGG,1984-07-19 18:00,ZGGG 191800Z AUTO 00000KT 7SM 29/ RMK SLP040 40345//// 52001 IEM_DS3505
ZGGG,1984-07-19 21:00,ZGGG 192100Z AUTO 00000KT 7SM 27/25 RMK SLP035 T02670251 57005 IEM_DS3505
ZGGG,1984-07-20 00:00,ZGGG 200000Z AUTO 00000KT 7SM 28/25 RMK SLP053 T02780254 52018 IEM_DS3505
ZGGG,1984-07-20 03:00,ZGGG 200300Z AUTO 00000KT 9SM 30/25 RMK SLP057 T03000251 52004 IEM_DS3505
ZGGG,1984-07-20 06:00,ZGGG 200600Z AUTO 22008KT 10SM 34/23 RMK SLP037 T03370234 4////0260 57020 IEM_DS3505
ZGGG,1984-07-20 09:00,ZGGG 200900Z AUTO 18006KT 10SM 33/23 RMK SLP021 T03310229 57016 IEM_DS3505
ZGGG,1984-07-20 12:00,ZGGG 201200Z AUTO 14004KT 8SM 30/26 RMK SLP034 T02960261 52013 IEM_DS3505
ZGGG,1984-07-20 15:00,ZGGG 201500Z AUTO 18006KT 7SM 28/25 RMK SLP063 T02830250 52029 IEM_DS3505
ZGGG,1984-07-20 18:00,ZGGG 201800Z AUTO 00000KT 7SM 27/25 RMK T02720252 40341//// 57005 IEM_DS3505
ZGGG,1984-07-20 21:00,ZGGG 202100Z AUTO 00000KT 7SM 26/25 RMK T02640254 54000 IEM_DS3505
ZGGG,1984-07-20 22:00,ZGGG 202200Z AUTO 13006KT 6SM 27/25 A2968 RMK T02700250 IEM_DS3505
ZGGG,1984-07-20 23:00,ZGGG 202300Z AUTO 14006KT 7SM 28/25 A2968 RMK T02800250 IEM_DS3505
ZGGG,1984-07-21 00:00,ZGGG 210000Z AUTO 00000KT 4SM 29/26 A2968 RMK SLP066 T02880259 57080 IEM_DS3505
ZGGG,1984-07-21 01:00,ZGGG 210100Z AUTO 19008KT 7SM 30/25 A2971 RMK T03000250 IEM_DS3505
ZGGG,1984-07-21 02:00,ZGGG 210200Z AUTO 20010KT 7SM 30/25 A2971 RMK T03000250 IEM_DS3505
ZGGG,1984-07-21 03:00,ZGGG 210300Z AUTO 22006KT 9SM 32/24 A2971 RMK SLP065 T03160241 57001 IEM_DS3505
ZGGG,1984-07-21 04:00,ZGGG 210400Z AUTO 18008KT 7SM 32/24 A2968 RMK T03200240 IEM_DS3505
ZGGG,1984-07-21 05:00,ZGGG 210500Z AUTO 21008KT 7SM 33/24 A2968 RMK T03300240 IEM_DS3505
ZGGG,1984-07-21 06:00,ZGGG 210600Z AUTO 23006KT 7SM 33/24 A2965 RMK T03300240 IEM_DS3505
ZGGG,1984-07-21 07:00,ZGGG 210700Z AUTO 15010KT 7SM 32/25 A2962 RMK T03200250 IEM_DS3505
ZGGG,1984-07-21 08:00,ZGGG 210800Z AUTO 18016KT 7SM 32/24 A2962 RMK T03200240 IEM_DS3505
ZGGG,1984-07-21 09:00,ZGGG 210900Z AUTO 32004KT 9SM 30/22 RMK SLP046 T03020217 57004 IEM_DS3505
ZGGG,1984-07-21 12:00,ZGGG 211200Z AUTO 16004KT 10SM 29/25 RMK SLP053 T02940252 52007 IEM_DS3505
ZGGG,1984-07-21 15:00,ZGGG 211500Z AUTO 16004KT 7SM 28/25 RMK SLP074 T02810254 52021 IEM_DS3505
ZGGG,1984-07-21 18:00,ZGGG 211800Z AUTO 00000KT 6SM 28/26 RMK SLP069 T02750255 40338//// 57005 IEM_DS3505
ZGGG,1984-07-21 21:00,ZGGG 212100Z AUTO 00000KT 5SM 27/26 RMK SLP069 T02660258 54000 IEM_DS3505
ZGGG,1984-07-22 00:00,ZGGG 220000Z AUTO 18002KT 4SM 28/26 RMK SLP079 T02830258 52010 IEM_DS3505
ZGGG,1984-07-22 03:00,ZGGG 220300Z AUTO 18006KT 9SM 31/24 RMK SLP077 T03090242 57002 IEM_DS3505
ZGGG,1984-07-22 06:00,ZGGG 220600Z AUTO 18004KT 9SM 33/23 RMK SLP061 T03310229 4////0262 57016 IEM_DS3505
ZGGG,1984-07-22 09:00,ZGGG 220900Z AUTO 14006KT 7SM 29/26 RMK SLP046 T02860262 57015 IEM_DS3505
ZGGG,1984-07-22 12:00,ZGGG 221200Z AUTO 00000KT 7SM 29/27 RMK 60008 SLP055 T02930266 52009 IEM_DS3505
ZGGG,1984-07-22 15:00,ZGGG 221500Z AUTO 18004KT 7SM 28/26 RMK SLP072 T02810257 52017 IEM_DS3505
ZGGG,1984-07-22 18:00,ZGGG 221800Z AUTO 18002KT 4SM 27/26 RMK SLP067 T02740261 40338//// 57005 IEM_DS3505
ZGGG,1984-07-22 21:00,ZGGG 222100Z AUTO 00000KT 4SM 27/26 RMK SLP065 T02700259 57002 IEM_DS3505
ZGGG,1984-07-23 00:00,ZGGG 230000Z AUTO 16004KT 7SM 28/26 RMK SLP072 T02800256 52007 IEM_DS3505
ZGGG,1984-07-23 03:00,ZGGG 230300Z AUTO 16008KT 9SM 30/24 RMK SLP070 T03050235 57002 IEM_DS3505
ZGGG,1984-07-23 06:00,ZGGG 230600Z AUTO 18006KT 14SM 33/24 RMK SLP051 T03340241 4////0266 57019 IEM_DS3505
ZGGG,1984-07-23 09:00,ZGGG 230900Z AUTO 14006KT 7SM 32/25 RMK SLP032 T03250251 57019 IEM_DS3505
ZGGG,1984-07-23 12:00,ZGGG 231200Z AUTO 11004KT 9SM 30/26 RMK SLP043 T02970265 52011 IEM_DS3505
ZGGG,1984-07-23 15:00,ZGGG 231500Z AUTO 18006KT 7SM 29/26 RMK SLP063 T02860257 52020 IEM_DS3505
ZGGG,1984-07-23 18:00,ZGGG 231800Z AUTO 18002KT 7SM 27/26 RMK SLP054 T02740255 40341//// 57009 IEM_DS3505
ZGGG,1984-07-23 21:00,ZGGG 232100Z AUTO 18004KT 6SM 27/25 RMK SLP049 T02700254 57005 IEM_DS3505
ZGGG,1984-07-24 00:00,ZGGG 240000Z AUTO 18006KT 7SM 28/25 RMK SLP057 T02810250 52008 IEM_DS3505
ZGGG,1984-07-24 03:00,ZGGG 240300Z AUTO 18006KT 9SM 31/24 RMK SLP057 T03100243 54000 IEM_DS3505
ZGGG,1984-07-24 04:00,ZGGG 240400Z AUTO 00000KT 7SM 33/25 A2965 RMK T03300250 IEM_DS3505
ZGGG,1984-07-24 05:00,ZGGG 240500Z AUTO 17006KT 7SM 33/25 A2965 RMK T03300250 IEM_DS3505
ZGGG,1984-07-24 06:00,ZGGG 240600Z AUTO 18010KT 10SM 34/25 A2962 RMK SLP038 T03350247 4////0265 57019 IEM_DS3505
ZGGG,1984-07-24 07:00,ZGGG 240700Z AUTO 15012KT 7SM 34/26 A2959 RMK T03400260 IEM_DS3505
ZGGG,1984-07-24 08:00,ZGGG 240800Z AUTO 17010KT 7SM 34/25 A2956 RMK T03400250 IEM_DS3505
ZGGG,1984-07-24 09:00,ZGGG 240900Z AUTO 14006KT 9SM 32/26 RMK SLP021 T03210257 57017 IEM_DS3505
ZGGG,1984-07-24 12:00,ZGGG 241200Z AUTO 18006KT 6SM 30/26 RMK SLP033 T03030261 52012 IEM_DS3505
ZGGG,1984-07-24 15:00,ZGGG 241500Z AUTO 18004KT 6SM 28/25 RMK SLP053 T02810254 52020 IEM_DS3505
ZGGG,1984-07-24 18:00,ZGGG 241800Z AUTO 18006KT 6SM 28/25 RMK SLP049 T02770254 40344//// 57004 IEM_DS3505
ZGGG,1984-07-24 21:00,ZGGG 242100Z AUTO 16004KT 5SM 27/26 RMK SLP053 T02720259 52004 IEM_DS3505
ZGGG,1984-07-25 00:00,ZGGG 250000Z AUTO 14006KT 6SM 28/26 RMK SLP064 T02840256 52011 IEM_DS3505
ZGGG,1984-07-25 03:00,ZGGG 250300Z AUTO 14006KT 9SM 31/24 RMK SLP063 T03120243 57001 IEM_DS3505
ZGGG,1984-07-25 06:00,ZGGG 250600Z AUTO 16006KT 11SM 33/23 RMK SLP047 T03300228 4////0268 57016 IEM_DS3505
ZGGG,1984-07-25 09:00,ZGGG 250900Z AUTO 11006KT 11SM 32/26 RMK SLP035 T03190262 57012 IEM_DS3505
ZGGG,1984-07-25 12:00,ZGGG 251200Z AUTO 16006KT 9SM 30/25 RMK SLP043 T02990247 52008 IEM_DS3505
ZGGG,1984-07-25 13:00,ZGGG 251300Z AUTO 16006KT 9SM 30/25 RMK SLP043 T02990247 50080 IEM_DS3505
ZGGG,1984-07-25 15:00,ZGGG 251500Z AUTO 16004KT 9SM 28/25 RMK SLP061 T02760249 52018 IEM_DS3505
ZGGG,1984-07-25 18:00,ZGGG 251800Z AUTO 18004KT 7SM 27/25 RMK SLP055 T02740253 40338//// 57006 IEM_DS3505
ZGGG,1984-07-25 21:00,ZGGG 252100Z AUTO 18004KT 6SM 27/25 RMK SLP052 T02720253 57003 IEM_DS3505
ZGGG,1984-07-26 00:00,ZGGG 260000Z AUTO 20002KT 6SM 28/25 RMK SLP063 T02800253 52011 IEM_DS3505
ZGGG,1984-07-26 03:00,ZGGG 260300Z AUTO 18004KT 10SM 31/24 RMK SLP059 T03110237 57004 IEM_DS3505
ZGGG,1984-07-26 06:00,ZGGG 260600Z AUTO 18004KT 12SM 33/23 RMK SLP038 T03290227 4////0265 57021 IEM_DS3505
ZGGG,1984-07-26 09:00,ZGGG 260900Z AUTO 14006KT 11SM 32/26 RMK SLP020 T03210257 57018 IEM_DS3505
ZGGG,1984-07-26 12:00,ZGGG 261200Z AUTO 14006KT 9SM 30/27 RMK SLP028 T02960267 52008 IEM_DS3505
ZGGG,1984-07-26 15:00,ZGGG 261500Z AUTO 16004KT 8SM 28/25 RMK SLP049 T02800253 52021 IEM_DS3505
ZGGG,1984-07-26 18:00,ZGGG 261800Z AUTO 16006KT 7SM 27/25 RMK SLP043 T02740251 40342//// 57006 IEM_DS3505
ZGGG,1984-07-26 21:00,ZGGG 262100Z AUTO 16004KT 7SM 27/25 RMK SLP037 T02710252 57006 IEM_DS3505
ZGGG,1984-07-27 00:00,ZGGG 270000Z AUTO 18002KT 6SM 28/25 RMK SLP054 T02780251 52017 IEM_DS3505
ZGGG,1984-07-27 03:00,ZGGG 270300Z AUTO 16006KT 10SM 31/23 RMK SLP056 T03080233 52002 IEM_DS3505
ZGGG,1984-07-27 06:00,ZGGG 270600Z AUTO 16006KT 11SM 33/23 RMK SLP046 T03320226 4////0261 57010 IEM_DS3505
ZGGG,1984-07-27 09:00,ZGGG 270900Z AUTO 16008KT 11SM 32/24 RMK SLP027 T03240241 57019 IEM_DS3505
ZGGG,1984-07-27 12:00,ZGGG 271200Z AUTO 11006KT 10SM 30/25 RMK SLP032 T02950247 52005 IEM_DS3505
ZGGG,1984-07-27 15:00,ZGGG 271500Z AUTO 14004KT 9SM 28/25 RMK SLP047 T02770249 52015 IEM_DS3505
ZGGG,1984-07-27 18:00,ZGGG 271800Z AUTO 00000KT 5SM 26/24 RMK SLP050 T02640244 40344//// 52003 IEM_DS3505
ZGGG,1984-07-27 21:00,ZGGG 272100Z AUTO 00000KT 5SM 26/25 RMK SLP047 T02600247 57003 IEM_DS3505
ZGGG,1984-07-28 00:00,ZGGG 280000Z AUTO 00000KT 6SM 29/24 RMK SLP057 T02920245 52010 IEM_DS3505
ZGGG,1984-07-28 02:00,ZGGG 280200Z AUTO 00000KT 7SM 31/24 A2968 RMK T03100240 IEM_DS3505
ZGGG,1984-07-28 03:00,ZGGG 280300Z AUTO 00000KT 10SM 32/24 A2965 RMK SLP061 T03150235 52004 IEM_DS3505
ZGGG,1984-07-28 04:00,ZGGG 280400Z AUTO 30004KT 5SM 32/24 A2965 RMK T03200240 IEM_DS3505
ZGGG,1984-07-28 05:00,ZGGG 280500Z AUTO 18004KT 6SM 33/23 A2965 RMK T03300230 IEM_DS3505
ZGGG,1984-07-28 06:00,ZGGG 280600Z AUTO 18004KT 9SM 34/23 A2962 RMK SLP043 T03360229 4////0255 57018 IEM_DS3505
ZGGG,1984-07-28 07:00,ZGGG 280700Z AUTO 00000KT 7SM 33/23 A2962 RMK T03300230 IEM_DS3505
ZGGG,1984-07-28 08:00,ZGGG 280800Z AUTO 00000KT 7SM 34/24 A2959 RMK T03400240 IEM_DS3505
ZGGG,1984-07-28 09:00,ZGGG 280900Z AUTO 14004KT 11SM 34/23 RMK SLP026 T03420229 57017 IEM_DS3505
ZGGG,1984-07-28 12:00,ZGGG 281200Z AUTO 16006KT 9SM 31/23 RMK SLP030 T03110230 52004 IEM_DS3505
ZGGG,1984-07-28 15:00,ZGGG 281500Z AUTO 14002KT 8SM 28/26 RMK SLP050 T02850257 52020 IEM_DS3505
ZGGG,1984-07-28 18:00,ZGGG 281800Z AUTO 14004KT 7SM 28/26 RMK SLP044 T02750257 40343//// 57006 IEM_DS3505
ZGGG,1984-07-28 21:00,ZGGG 282100Z AUTO 00000KT 7SM 26/24 RMK SLP041 T02630245 57003 IEM_DS3505
ZGGG,1984-07-29 00:00,ZGGG 290000Z AUTO 09004KT 9SM 29/24 RMK SLP054 T02900244 52013 IEM_DS3505
ZGGG,1984-07-29 03:00,ZGGG 290300Z AUTO 11004KT 10SM 32/24 RMK SLP061 T03210242 52007 IEM_DS3505
ZGGG,1984-07-29 06:00,ZGGG 290600Z AUTO 16002KT 16SM 34/24 RMK SLP047 T03390240 4////0257 57014 IEM_DS3505
ZGGG,1984-07-29 09:00,ZGGG 290900Z AUTO 11004KT 17SM 35/23 RMK SLP027 T03460230 57020 IEM_DS3505
ZGGG,1984-07-29 12:00,ZGGG 291200Z AUTO 16006KT 11SM 31/25 RMK SLP047 T03110248 52020 IEM_DS3505
ZGGG,1984-07-29 15:00,ZGGG 291500Z AUTO 16004KT 10SM 29/25 RMK SLP056 T02890254 52009 IEM_DS3505
ZGGG,1984-07-29 18:00,ZGGG 291800Z AUTO 00000KT 7SM 28/26 RMK SLP055 T02760258 40351//// 57001 IEM_DS3505
ZGGG,1984-07-29 21:00,ZGGG 292100Z AUTO 00000KT 7SM 27/26 RMK SLP049 T02660256 57006 IEM_DS3505
ZGGG,1984-07-30 00:00,ZGGG 300000Z AUTO 07004KT 7SM 29/25 RMK SLP064 T02900252 52015 IEM_DS3505
ZGGG,1984-07-30 03:00,ZGGG 300300Z AUTO 00000KT 5SM 32/24 RMK SLP069 T03250244 52005 IEM_DS3505
ZGGG,1984-07-30 06:00,ZGGG 300600Z AUTO 16004KT 5SM 34/24 RMK SLP044 T03410236 4////0262 57025 IEM_DS3505
ZGGG,1984-07-30 09:00,ZGGG 300900Z AUTO 20004KT 7SM 33/24 RMK SLP027 T03330239 57017 IEM_DS3505
ZGGG,1984-07-30 12:00,ZGGG 301200Z AUTO 00000KT 9SM 32/25 RMK SLP040 T03160250 52013 IEM_DS3505
ZGGG,1984-07-30 15:00,ZGGG 301500Z AUTO 14002KT 9SM 29/26 RMK SLP054 T02910258 52014 IEM_DS3505
ZGGG,1984-07-30 18:00,ZGGG 301800Z AUTO 00000KT 7SM 28/25 RMK SLP050 T02800254 40348//// 57004 IEM_DS3505
ZGGG,1984-07-30 21:00,ZGGG 302100Z AUTO 16002KT 6SM 27/26 RMK SLP042 T02720255 57008 IEM_DS3505
ZGGG,1984-07-31 00:00,ZGGG 310000Z AUTO 00000KT 5SM 29/26 RMK SLP054 T02890255 52012 IEM_DS3505
ZGGG,1984-07-31 03:00,ZGGG 310300Z AUTO 18004KT 7SM 32/25 A2968 RMK SLP061 T03200250 52007 IEM_DS3505
ZGGG,1984-07-31 04:00,ZGGG 310400Z AUTO 21006KT 7SM A2965 RMK IEM_DS3505
ZGGG,1984-07-31 05:00,ZGGG 310500Z AUTO 19008KT 7SM 33/24 A2965 RMK T03300240 IEM_DS3505
ZGGG,1984-07-31 06:00,ZGGG 310600Z AUTO 22004KT 7SM 33/24 A2962 RMK SLP039 T03340245 4////0268 57022 IEM_DS3505
ZGGG,1984-07-31 07:00,ZGGG 310700Z AUTO 16008KT 7SM 33/25 A2959 RMK T03300250 IEM_DS3505
ZGGG,1984-07-31 09:00,ZGGG 310900Z AUTO 22004KT 7SM 34/24 RMK SLP027 T03420245 57012 IEM_DS3505
ZGGG,1984-07-31 12:00,ZGGG 311200Z AUTO 36004KT 6SM 24/22 RMK 70016 SLP032 T02360224 57012 IEM_DS3505
ZGGG,1984-07-31 15:00,ZGGG 311500Z AUTO 16008KT 7SM 29/25 RMK SLP054 T02940247 52023 IEM_DS3505
ZGGG,1984-07-31 18:00,ZGGG 311800Z AUTO 09004KT 6SM 24/23 RMK 60004 SLP044 T02360226 40346//// 57010 IEM_DS3505
ZGGG,1984-07-31 21:00,ZGGG 312100Z AUTO 36004KT 6SM 24/22 RMK SLP032 T02360224 57012 IEM_DS3505
ZGGG,1984-08-01 00:00,ZGGG 010000Z AUTO 00000KT 7SM 25/23 RMK 60012 SLP054 T02540226 52022 IEM_DS3505
ZGGG,1984-08-01 03:00,ZGGG 010300Z AUTO 00000KT 7SM 29/23 RMK SLP050 T02940226 57004 IEM_DS3505
ZGGG,1984-08-01 06:00,ZGGG 010600Z AUTO 27002KT 5SM 32/24 RMK SLP028 T03170237 4////0232 57022 IEM_DS3505
ZGGG,1984-08-01 09:00,ZGGG 010900Z AUTO 00000KT 9SM 32/24 RMK SLP009 T03240239 57019 IEM_DS3505
ZGGG,1984-08-01 12:00,ZGGG 011200Z AUTO 00000KT 7SM 30/24 RMK T02980245 52014 IEM_DS3505
ZGGG,1984-08-01 15:00,ZGGG 011500Z AUTO 00000KT 7SM 29/26 RMK SLP034 T02880262 52011 IEM_DS3505
ZGGG,1984-08-01 18:00,ZGGG 011800Z AUTO 00000KT 6SM 28/25 RMK SLP026 T02800247 40330//// 57008 IEM_DS3505
ZGGG,1984-08-01 21:00,ZGGG 012100Z AUTO 00000KT 6SM 27/26 RMK SLP023 T02670255 57003 IEM_DS3505
ZGGG,1984-08-02 00:00,ZGGG 020000Z AUTO 00000KT 5SM 28/25 RMK SLP028 T02810251 52005 IEM_DS3505
ZGGG,1984-08-02 03:00,ZGGG 020300Z AUTO 00000KT 4SM 31/25 RMK SLP028 T03060252 54000 IEM_DS3505
ZGGG,1984-08-02 09:00,ZGGG 020900Z AUTO 00000KT 7SM 34/24 RMK SLP992 T03350241 57020 IEM_DS3505
ZGGG,1984-08-02 12:00,ZGGG 021200Z AUTO 09006KT 7SM 30/25 RMK SLP013 T03030249 52021 IEM_DS3505
ZGGG,1984-08-02 15:00,ZGGG 021500Z AUTO 18004KT 7SM 29/25 RMK SLP028 T02870254 52015 IEM_DS3505
ZGGG,1984-08-02 18:00,ZGGG 021800Z AUTO 09004KT 6SM 27/26 RMK SLP017 T02710255 40339//// 57011 IEM_DS3505
ZGGG,1984-08-02 21:00,ZGGG 022100Z AUTO 00000KT 6SM 27/25 RMK SLP016 T02660250 57001 IEM_DS3505
ZGGG,1984-08-03 00:00,ZGGG 030000Z AUTO 00000KT 7SM 28/25 RMK SLP027 T02770250 52011 IEM_DS3505
ZGGG,1984-08-03 03:00,ZGGG 030300Z AUTO 00000KT 10SM 31/24 RMK SLP025 T03070243 57002 IEM_DS3505
ZGGG,1984-08-03 06:00,ZGGG 030600Z AUTO 16006KT 10SM 31/ RMK SLP003 4////0263 57022 IEM_DS3505
ZGGG,1984-08-03 09:00,ZGGG 030900Z AUTO 16006KT 7SM 33/25 RMK SLP988 T03330246 57015 IEM_DS3505
ZGGG,1984-08-03 12:00,ZGGG 031200Z AUTO 09010KT 6SM 27/24 RMK SLP018 T02710245 52030 IEM_DS3505
ZGGG,1984-08-03 15:00,ZGGG 031500Z AUTO 07002KT 5SM 26/25 RMK SLP038 T02620252 52020 IEM_DS3505
ZGGG,1984-08-03 18:00,ZGGG 031800Z AUTO 07004KT 5SM 26/25 RMK 60004 SLP031 T02640252 40336//// 57007 IEM_DS3505
ZGGG,1984-08-03 21:00,ZGGG 032100Z AUTO 00000KT 6SM 26/25 RMK SLP029 T02650248 57002 IEM_DS3505
ZGGG,1984-08-03 22:00,ZGGG 032200Z AUTO 08004KT 7SM 26/25 A2956 RMK T02600250 IEM_DS3505
ZGGG,1984-08-03 23:00,ZGGG 032300Z AUTO 03006KT 7SM 27/24 A2959 RMK T02700240 IEM_DS3505
ZGGG,1984-08-04 00:00,ZGGG 040000Z AUTO 07004KT 14SM 28/24 A2959 RMK 60004 SLP033 T02760244 52004 IEM_DS3505
ZGGG,1984-08-04 01:00,ZGGG 040100Z AUTO 01006KT 7SM 29/25 A2962 RMK T02900250 IEM_DS3505
ZGGG,1984-08-04 02:00,ZGGG 040200Z AUTO 01010KT 7SM 27/25 A2962 RMK T02700250 IEM_DS3505
ZGGG,1984-08-04 03:00,ZGGG 040300Z AUTO 07006KT 10SM 28/25 A2962 RMK SLP039 T02780250 52006 IEM_DS3505
ZGGG,1984-08-04 04:00,ZGGG 040400Z AUTO 08008KT 7SM 28/26 A2962 RMK T02800260 IEM_DS3505
ZGGG,1984-08-04 05:00,ZGGG 040500Z AUTO 03006KT 7SM 28/25 A2959 RMK T02800250 IEM_DS3505
ZGGG,1984-08-04 06:00,ZGGG 040600Z AUTO 09010KT 10SM 29/25 RMK 60004 SLP021 T02900253 4////0253 57018 IEM_DS3505
ZGGG,1984-08-04 07:00,ZGGG 040700Z AUTO 09006KT 7SM 29/25 A2956 RMK T02900250 IEM_DS3505
ZGGG,1984-08-04 08:00,ZGGG 040800Z AUTO 09008KT 7SM 30/25 A2956 RMK T03000250 IEM_DS3505
ZGGG,1984-08-04 09:00,ZGGG 040900Z AUTO 09004KT 11SM 29/25 A2953 RMK SLP004 T02910249 57017 IEM_DS3505
ZGGG,1984-08-04 10:00,ZGGG 041000Z AUTO 09008KT 7SM 29/24 A2953 RMK T02900240 IEM_DS3505
ZGGG,1984-08-04 12:00,ZGGG 041200Z AUTO 09008KT 11SM 27/24 RMK 60000 SLP028 T02710235 52024 IEM_DS3505
ZGGG,1984-08-04 15:00,ZGGG 041500Z AUTO 07004KT 7SM 26/24 RMK SLP040 T02620241 52012 IEM_DS3505
ZGGG,1984-08-04 18:00,ZGGG 041800Z AUTO 07008KT 7SM 26/23 RMK SLP036 T02570234 57004 IEM_DS3505
ZGGG,1984-08-04 21:00,ZGGG 042100Z AUTO 07008KT 7SM 26/23 RMK SLP028 T02580227 57008 IEM_DS3505
ZGGG,1984-08-05 00:00,ZGGG 050000Z AUTO 07010KT 16SM 26/23 RMK SLP034 T02620234 52006 IEM_DS3505
ZGGG,1984-08-05 03:00,ZGGG 050300Z AUTO 09014KT 16SM 28/23 RMK SLP040 T02840230 52006 IEM_DS3505
ZGGG,1984-08-05 06:00,ZGGG 050600Z AUTO 09012KT 9SM 27/26 RMK 60031 SLP034 T02700257 4////0239 57006 IEM_DS3505
ZGGG,1984-08-05 09:00,ZGGG 050900Z AUTO 11008KT 9SM 27/24 RMK SLP032 T02720239 57002 IEM_DS3505
ZGGG,1984-08-05 12:00,ZGGG 051200Z AUTO 09004KT 10SM 27/23 RMK SLP046 T02670234 52014 IEM_DS3505
ZGGG,1984-08-05 15:00,ZGGG 051500Z AUTO 09004KT 10SM 26/24 RMK SLP065 T02580235 52019 IEM_DS3505
ZGGG,1984-08-05 18:00,ZGGG 051800Z AUTO 07006KT 7SM 25/23 RMK SLP056 T02520230 40290//// 57009 IEM_DS3505
ZGGG,1984-08-05 21:00,ZGGG 052100Z AUTO 00000KT 7SM 25/23 RMK SLP041 T02480229 57015 IEM_DS3505
ZGGG,1984-08-06 00:00,ZGGG 060000Z AUTO 07004KT 10SM 27/23 RMK SLP052 T02730233 52011 IEM_DS3505
ZGGG,1984-08-06 03:00,ZGGG 060300Z AUTO 09008KT 11SM 30/23 RMK SLP056 T02960233 52004 IEM_DS3505
ZGGG,1984-08-06 06:00,ZGGG 060600Z AUTO 07010KT 7SM 28/24 RMK SLP044 T02760240 4////0242 57012 IEM_DS3505
ZGGG,1984-08-06 09:00,ZGGG 060900Z AUTO 00000KT 2 1/2SM 26/24 RMK SLP041 T02570245 57003 IEM_DS3505
ZGGG,1984-08-06 12:00,ZGGG 061200Z AUTO 00000KT 4SM 26/25 RMK 60035 SLP048 T02570247 52007 IEM_DS3505
ZGGG,1984-08-06 15:00,ZGGG 061500Z AUTO 00000KT 4SM 25/24 RMK SLP048 T02520243 54000 IEM_DS3505
ZGGG,1984-08-06 18:00,ZGGG 061800Z AUTO 00000KT 2SM 24/24 RMK 60001 SLP029 T02430237 40317//// 57019 IEM_DS3505
ZGGG,1984-08-06 21:00,ZGGG 062100Z AUTO 00000KT 2SM 24/24 RMK SLP035 T02420237 52006 IEM_DS3505
ZGGG,1984-08-07 00:00,ZGGG 070000Z AUTO 00000KT 2 1/2SM 27/24 RMK SLP043 T02690243 52008 IEM_DS3505
ZGGG,1984-08-07 03:00,ZGGG 070300Z AUTO 27002KT 4SM 30/24 RMK SLP035 T02990237 57008 IEM_DS3505
ZGGG,1984-08-07 06:00,ZGGG 070600Z AUTO 00000KT 7SM 32/24 RMK SLP017 T03250237 4////0237 57018 IEM_DS3505
ZGGG,1984-08-07 09:00,ZGGG 070900Z AUTO 22004KT 7SM 34/24 RMK SLP994 T03370236 57023 IEM_DS3505
ZGGG,1984-08-07 12:00,ZGGG 071200Z AUTO 00000KT 7SM 30/24 RMK SLP996 T02980244 52002 IEM_DS3505
ZGGG,1984-08-07 15:00,ZGGG 071500Z AUTO 00000KT 5SM 27/26 RMK SLP011 T02740257 52015 IEM_DS3505
ZGGG,1984-08-07 18:00,ZGGG 071800Z AUTO 00000KT 5SM 28/26 RMK SLP999 T02780255 57012 IEM_DS3505
ZGGG,1984-08-07 21:00,ZGGG 072100Z AUTO 00000KT 4SM 26/26 RMK SLP991 T02610255 57008 IEM_DS3505
ZGGG,1984-08-08 00:00,ZGGG 080000Z AUTO 00000KT 5SM 28/26 RMK SLP006 T02780255 52015 IEM_DS3505
ZGGG,1984-08-08 03:00,ZGGG 080300Z AUTO 29004KT 6SM 32/25 RMK SLP001 T03160249 57005 IEM_DS3505
ZGGG,1984-08-08 06:00,ZGGG 080600Z AUTO 16004KT 6SM 34/26 RMK SLP983 T03390256 4////0257 57018 IEM_DS3505
ZGGG,1984-08-08 09:00,ZGGG 080900Z AUTO 18006KT 5SM 34/26 RMK SLP966 T03430257 57017 IEM_DS3505
ZGGG,1984-08-08 12:00,ZGGG 081200Z AUTO 07004KT 5SM 30/24 RMK SLP995 T03030245 52029 IEM_DS3505
ZGGG,1984-08-08 15:00,ZGGG 081500Z AUTO 07002KT 5SM 28/26 RMK SLP010 T02840262 52015 IEM_DS3505
ZGGG,1984-08-08 18:00,ZGGG 081800Z AUTO 00000KT 6SM 28/25 RMK SLP005 T02810251 40345//// 57005 IEM_DS3505
ZGGG,1984-08-08 21:00,ZGGG 082100Z AUTO 00000KT 6SM 28/26 RMK SLP014 T02750258 52009 IEM_DS3505
ZGGG,1984-08-09 00:00,ZGGG 090000Z AUTO 07004KT 6SM 27/26 RMK 60000 SLP028 T02680255 52014 IEM_DS3505
ZGGG,1984-08-09 03:00,ZGGG 090300Z AUTO 07008KT 6SM 31/26 RMK SLP034 T03110258 52006 IEM_DS3505
ZGGG,1984-08-09 06:00,ZGGG 090600Z AUTO 09006KT 9SM 33/ RMK SLP011 4////0263 57023 IEM_DS3505
ZGGG,1984-08-09 09:00,ZGGG 090900Z AUTO 11008KT 10SM 34/24 RMK SLP996 T03360235 57015 IEM_DS3505
ZGGG,1984-08-09 12:00,ZGGG 091200Z AUTO 16008KT 7SM 30/25 RMK SLP017 T03030247 52021 IEM_DS3505
ZGGG,1984-08-09 15:00,ZGGG 091500Z AUTO 00000KT 7SM 28/24 RMK SLP047 T02810245 52030 IEM_DS3505
ZGGG,1984-08-09 18:00,ZGGG 091800Z AUTO 07006KT 10SM 27/24 RMK SLP036 T02740245 40341//// 57011 IEM_DS3505
ZGGG,1984-08-09 21:00,ZGGG 092100Z AUTO 00000KT 9SM 26/24 RMK SLP027 T02600241 57009 IEM_DS3505
ZGGG,1984-08-10 00:00,ZGGG 100000Z AUTO 04002KT 7SM 28/24 RMK SLP035 T02810244 52008 IEM_DS3505
ZGGG,1984-08-10 03:00,ZGGG 100300Z AUTO 04004KT 9SM 31/24 RMK SLP038 T03120239 52003 IEM_DS3505
ZGGG,1984-08-10 06:00,ZGGG 100600Z AUTO 02006KT 9SM 33/22 RMK SLP008 T03260225 4////0256 57030 IEM_DS3505
ZGGG,1984-08-10 09:00,ZGGG 100900Z AUTO 07008KT 2SM 25/24 RMK SLP014 T02520242 52006 IEM_DS3505
ZGGG,1984-08-10 12:00,ZGGG 101200Z AUTO 00000KT 7SM 26/25 RMK 60063 SLP019 T02600248 52005 IEM_DS3505
ZGGG,1984-08-10 15:00,ZGGG 101500Z AUTO 00000KT 7SM 26/25 RMK SLP035 T02580251 52016 IEM_DS3505
ZGGG,1984-08-10 18:00,ZGGG 101800Z AUTO 07006KT 4SM 25/24 RMK 60146 T02500244 40334//// 57004 IEM_DS3505
ZGGG,1984-08-10 21:00,ZGGG 102100Z AUTO 09006KT 2 1/2SM 25/24 RMK SLP030 T02460242 57001 IEM_DS3505
ZGGG,1984-08-10 23:00,ZGGG 102300Z AUTO 08010KT 7SM 25/24 A2959 RMK T02500240 IEM_DS3505
ZGGG,1984-08-11 00:00,ZGGG 110000Z AUTO 09006KT 2 1/2SM 25/24 A2959 RMK 60079 70283 SLP032 T02480239 52002 IEM_DS3505
ZGGG,1984-08-11 01:00,ZGGG 110100Z AUTO 08006KT 7SM 26/24 A2959 RMK T02600240 IEM_DS3505
ZGGG,1984-08-11 02:00,ZGGG 110200Z AUTO 09012KT 7SM 26/24 A2962 RMK T02600240 IEM_DS3505
ZGGG,1984-08-11 03:00,ZGGG 110300Z AUTO 09008KT 2 1/2SM 25/24 A2962 RMK SLP042 T02520241 52010 IEM_DS3505
ZGGG,1984-08-11 04:00,ZGGG 110400Z AUTO 09012KT 7SM 26/24 A2962 RMK T02600240 IEM_DS3505
ZGGG,1984-08-11 05:00,ZGGG 110500Z AUTO 10012KT 7SM 27/25 A2962 RMK T02700250 IEM_DS3505
ZGGG,1984-08-11 06:00,ZGGG 110600Z AUTO 09008KT 11SM 27/25 A2959 RMK 60008 SLP033 T02730246 4////0242 57009 IEM_DS3505
ZGGG,1984-08-11 07:00,ZGGG 110700Z AUTO 09010KT 7SM 28/25 A2959 RMK T02800250 IEM_DS3505
ZGGG,1984-08-11 08:00,ZGGG 110800Z AUTO 10012KT 7SM 28/24 A2956 RMK T02800240 IEM_DS3505
ZGGG,1984-08-11 09:00,ZGGG 110900Z AUTO 09006KT 12SM 27/24 A2953 RMK SLP015 T02730244 57018 IEM_DS3505
ZGGG,1984-08-11 10:00,ZGGG 111000Z AUTO 10008KT 7SM 27/24 A2956 RMK T02700240 IEM_DS3505
ZGGG,1984-08-11 12:00,ZGGG 111200Z AUTO 09010KT 10SM 26/24 RMK SLP035 T02570238 52020 IEM_DS3505
ZGGG,1984-08-11 15:00,ZGGG 111500Z AUTO 09008KT 9SM 25/23 RMK SLP046 T02520234 52011 IEM_DS3505
ZGGG,1984-08-11 18:00,ZGGG 111800Z AUTO 09006KT 9SM 25/23 RMK SLP039 T02500233 40286//// 57007 IEM_DS3505
ZGGG,1984-08-11 21:00,ZGGG 112100Z AUTO 09008KT 7SM 25/23 RMK SLP036 T02490231 57003 IEM_DS3505
ZGGG,1984-08-11 22:00,ZGGG 112200Z AUTO 09010KT 7SM 25/23 A2959 RMK T02500230 IEM_DS3505
ZGGG,1984-08-11 23:00,ZGGG 112300Z AUTO 07014KT 7SM 26/23 A2962 RMK T02600230 IEM_DS3505
ZGGG,1984-08-12 00:00,ZGGG 120000Z AUTO 09006KT 10SM 25/24 RMK 60001 SLP042 T02490237 52006 IEM_DS3505
ZGGG,1984-08-12 01:00,ZGGG 120100Z AUTO 06012KT 6SM 27/23 A2965 RMK T02700230 IEM_DS3505
ZGGG,1984-08-12 02:00,ZGGG 120200Z AUTO 09010KT 7SM 28/24 A2965 RMK T02800240 IEM_DS3505
ZGGG,1984-08-12 03:00,ZGGG 120300Z AUTO 09008KT 9SM 28/24 A2965 RMK SLP053 T02750242 52011 IEM_DS3505
ZGGG,1984-08-12 06:00,ZGGG 120600Z AUTO 11008KT 11SM 29/24 RMK SLP042 T02870241 4////0241 57011 IEM_DS3505
ZGGG,1984-08-12 09:00,ZGGG 120900Z AUTO 04002KT 10SM 26/24 RMK SLP026 T02600244 57016 IEM_DS3505
ZGGG,1984-08-12 12:00,ZGGG 121200Z AUTO 00000KT 7SM 26/25 RMK 60012 SLP042 T02580249 52016 IEM_DS3505
ZGGG,1984-08-12 15:00,ZGGG 121500Z AUTO 00000KT 9SM 25/24 RMK SLP056 T02540244 52014 IEM_DS3505
ZGGG,1984-08-12 18:00,ZGGG 121800Z AUTO 00000KT 7SM 25/24 RMK SLP038 T02480241 40291//// 57018 IEM_DS3505
ZGGG,1984-08-12 21:00,ZGGG 122100Z AUTO 00000KT 7SM 25/23 RMK SLP033 T02470234 57005 IEM_DS3505
ZGGG,1984-08-13 00:00,ZGGG 130000Z AUTO 02004KT 9SM 28/24 RMK SLP038 T02780242 52005 IEM_DS3505
ZGGG,1984-08-13 03:00,ZGGG 130300Z AUTO 34004KT 12SM 31/24 RMK SLP038 T03060242 54000 IEM_DS3505
ZGGG,1984-08-13 06:00,ZGGG 130600Z AUTO 34004KT 12SM 32/24 RMK SLP023 T03240235 4////0241 57015 IEM_DS3505
ZGGG,1984-08-13 09:00,ZGGG 130900Z AUTO 29006KT 12SM 34/24 RMK SLP998 T03370238 57025 IEM_DS3505
ZGGG,1984-08-13 12:00,ZGGG 131200Z AUTO 00000KT 9SM 29/26 RMK SLP003 T02940256 52005 IEM_DS3505
ZGGG,1984-08-13 15:00,ZGGG 131500Z AUTO 00000KT 6SM 28/27 RMK SLP021 T02820269 52018 IEM_DS3505
ZGGG,1984-08-13 18:00,ZGGG 131800Z AUTO 00000KT 5SM 27/25 RMK SLP011 T02740250 57010 IEM_DS3505
ZGGG,1984-08-13 21:00,ZGGG 132100Z AUTO 00000KT 5SM 26/25 RMK SLP007 T02580251 57004 IEM_DS3505
ZGGG,1984-08-14 00:00,ZGGG 140000Z AUTO 00000KT 2 1/2SM 28/25 RMK SLP012 T02800249 52005 IEM_DS3505
ZGGG,1984-08-14 03:00,ZGGG 140300Z AUTO 04002KT 7SM 33/25 RMK SLP009 T03280254 57003 IEM_DS3505
ZGGG,1984-08-14 04:00,ZGGG 140400Z AUTO 36010KT 7SM 33/26 RMK T03300260 IEM_DS3505
ZGGG,1984-08-14 05:00,ZGGG 140500Z AUTO 01008KT 7SM 34/25 A2950 RMK T03400250 IEM_DS3505
ZGGG,1984-08-14 06:00,ZGGG 140600Z AUTO 09004KT 9SM 34/24 A2950 RMK SLP996 T03410239 4////0255 57013 IEM_DS3505
ZGGG,1984-08-14 07:00,ZGGG 140700Z AUTO 36006KT 7SM 35/25 A2947 RMK T03500250 IEM_DS3505
ZGGG,1984-08-14 08:00,ZGGG 140800Z AUTO 03008KT 7SM 35/24 A2944 RMK T03500240 IEM_DS3505
ZGGG,1984-08-14 09:00,ZGGG 140900Z AUTO 18004KT 7SM 32/26 RMK SLP982 T03170265 57014 IEM_DS3505
ZGGG,1984-08-14 12:00,ZGGG 141200Z AUTO 07004KT 4SM 24/ RMK SLP018 40256//// 57003 IEM_DS3505
ZGGG,1984-08-14 15:00,ZGGG 141500Z AUTO 00000KT 7SM 26/23 RMK SLP021 T02590234 52011 IEM_DS3505
ZGGG,1984-08-14 18:00,ZGGG 141800Z AUTO 07004KT 4SM 24/23 RMK 60004 SLP018 T02450233 40356//// 57003 IEM_DS3505
ZGGG,1984-08-14 21:00,ZGGG 142100Z AUTO 00000KT 4SM 25/24 RMK SLP015 T02460237 57003 IEM_DS3505
ZGGG,1984-08-15 00:00,ZGGG 150000Z AUTO 29004KT 7SM 26/24 RMK 60004 SLP026 T02580239 52011 IEM_DS3505
ZGGG,1984-08-15 03:00,ZGGG 150300Z AUTO 36006KT 11SM 31/25 RMK SLP026 T03100248 54000 IEM_DS3505
ZGGG,1984-08-15 06:00,ZGGG 150600Z AUTO 00000KT 9SM 29/23 RMK SLP993 T02900234 57016 IEM_DS3505
ZGGG,1984-08-15 12:00,ZGGG 151200Z AUTO 00000KT 7SM 28/26 RMK 60001 SLP016 T02800258 52023 IEM_DS3505
ZGGG,1984-08-15 15:00,ZGGG 151500Z AUTO 00000KT 9SM 26/23 RMK SLP043 T02560234 52027 IEM_DS3505
ZGGG,1984-08-15 18:00,ZGGG 151800Z AUTO 27002KT 6SM 26/24 RMK SLP028 T02630238 40350//// 57015 IEM_DS3505
ZGGG,1984-08-15 21:00,ZGGG 152100Z AUTO 29004KT 7SM 26/24 RMK SLP027 T02610242 57001 IEM_DS3505
ZGGG,1984-08-16 00:00,ZGGG 160000Z AUTO 36004KT 10SM 27/22 RMK SLP040 T02710224 52013 IEM_DS3505
ZGGG,1984-08-16 03:00,ZGGG 160300Z AUTO 36006KT 7SM 31/22 RMK SLP031 T03060223 57009 IEM_DS3505
ZGGG,1984-08-16 06:00,ZGGG 160600Z AUTO 02006KT 9SM 32/23 RMK SLP018 T03200226 4////0254 57013 IEM_DS3505
ZGGG,1984-08-16 09:00,ZGGG 160900Z AUTO 02008KT 9SM 33/23 RMK SLP006 T03270229 57012 IEM_DS3505
ZGGG,1984-08-16 12:00,ZGGG 161200Z AUTO 36006KT 9SM 30/21 RMK SLP018 T03010214 52012 IEM_DS3505
ZGGG,1984-08-16 15:00,ZGGG 161500Z AUTO 02006KT 9SM 29/21 RMK SLP026 T02880212 52008 IEM_DS3505
ZGGG,1984-08-16 18:00,ZGGG 161800Z AUTO 02006KT 6SM 28/20 RMK SLP017 T02780205 57009 IEM_DS3505
ZGGG,1984-08-16 21:00,ZGGG 162100Z AUTO 34004KT 6SM 27/21 RMK SLP024 T02690207 52007 IEM_DS3505
ZGGG,1984-08-17 00:00,ZGGG 170000Z AUTO 02010KT 7SM 28/20 RMK SLP027 T02800201 52003 IEM_DS3505
ZGGG,1984-08-17 03:00,ZGGG 170300Z AUTO 02012KT 9SM 31/21 RMK SLP018 T03090208 57009 IEM_DS3505
ZGGG,1984-08-17 06:00,ZGGG 170600Z AUTO 02010KT 9SM 32/21 RMK SLP006 T03240207 4////0264 57012 IEM_DS3505
ZGGG,1984-08-17 09:00,ZGGG 170900Z AUTO 36006KT 7SM 28/20 RMK SLP020 T02760204 52008 IEM_DS3505
ZGGG,1984-08-17 12:00,ZGGG 171200Z AUTO 02008KT 9SM 29/19 RMK 60000 SLP005 T02910190 52010 IEM_DS3505
ZGGG,1984-08-17 15:00,ZGGG 171500Z AUTO 02006KT 9SM 28/20 RMK SLP013 T02850201 52008 IEM_DS3505
ZGGG,1984-08-17 18:00,ZGGG 171800Z AUTO 36004KT 9SM 27/20 RMK SLP011 T02700201 40337//// 57002 IEM_DS3505
ZGGG,1984-08-17 21:00,ZGGG 172100Z AUTO 02006KT 9SM 27/20 A2953 RMK SLP012 T02660199 52001 IEM_DS3505
ZGGG,1984-08-17 22:00,ZGGG 172200Z AUTO 01006KT 6SM 25/21 A2956 RMK T02500210 IEM_DS3505
ZGGG,1984-08-17 23:00,ZGGG 172300Z AUTO 01010KT 6SM 26/21 A2956 RMK T02600210 IEM_DS3505
ZGGG,1984-08-18 00:00,ZGGG 180000Z AUTO 36006KT 7SM 28/20 A2956 RMK SLP020 T02760204 52008 IEM_DS3505
ZGGG,1984-08-18 01:00,ZGGG 180100Z AUTO 03017KT 7SM 28/22 A2956 RMK T02800220 IEM_DS3505
ZGGG,1984-08-18 02:00,ZGGG 180200Z AUTO 02016KT 6SM 30/22 A2956 RMK T03000220 IEM_DS3505
ZGGG,1984-08-18 03:00,ZGGG 180300Z AUTO 36006KT 7SM 31/22 A2956 RMK SLP022 T03070219 52002 IEM_DS3505
ZGGG,1984-08-18 04:00,ZGGG 180400Z AUTO 02012KT 7SM 31/23 A2956 RMK T03100230 IEM_DS3505
ZGGG,1984-08-18 05:00,ZGGG 180500Z AUTO 02010KT 7SM 31/23 A2953 RMK T03100230 IEM_DS3505
ZGGG,1984-08-18 06:00,ZGGG 180600Z AUTO 02006KT 7SM 32/24 A2953 RMK SLP011 T03160236 4////0261 57011 IEM_DS3505
ZGGG,1984-08-18 07:00,ZGGG 180700Z AUTO 02004KT 7SM 31/25 A2953 RMK T03100250 IEM_DS3505
ZGGG,1984-08-18 08:00,ZGGG 180800Z AUTO 02012KT 6SM 31/23 A2953 RMK T03100230 IEM_DS3505
ZGGG,1984-08-18 09:00,ZGGG 180900Z AUTO 02008KT 9SM 32/23 A2950 RMK SLP998 T03160230 57013 IEM_DS3505
ZGGG,1984-08-18 10:00,ZGGG 181000Z AUTO 02008KT 6SM 30/23 A2950 RMK T03000230 IEM_DS3505
ZGGG,1984-08-18 12:00,ZGGG 181200Z AUTO 02004KT 9SM 30/23 RMK SLP011 T02980226 52013 IEM_DS3505
ZGGG,1984-08-18 15:00,ZGGG 181500Z AUTO 07002KT 9SM 27/25 RMK SLP031 T02700247 52020 IEM_DS3505
ZGGG,1984-08-18 18:00,ZGGG 181800Z AUTO 00000KT 5SM 27/25 RMK 60004 SLP027 T02660250 40322//// 57004 IEM_DS3505
ZGGG,1984-08-18 21:00,ZGGG 182100Z AUTO 00000KT 5SM 25/24 RMK SLP023 T02510244 57004 IEM_DS3505
ZGGG,1984-08-19 00:00,ZGGG 190000Z AUTO 00000KT 6SM 26/25 RMK 60031 SLP031 T02640248 52008 IEM_DS3505
ZGGG,1984-08-19 03:00,ZGGG 190300Z AUTO 02006KT 9SM 32/24 RMK SLP023 T03150237 57008 IEM_DS3505
ZGGG,1984-08-19 06:00,ZGGG 190600Z AUTO 27004KT 10SM 34/23 RMK SLP008 T03350232 4////0247 57015 IEM_DS3505
ZGGG,1984-08-19 09:00,ZGGG 190900Z AUTO 32004KT 9SM 31/26 RMK SLP002 T03100255 57006 IEM_DS3505
ZGGG,1984-08-19 12:00,ZGGG 191200Z AUTO 07004KT 8SM 27/24 RMK 60012 SLP016 T02690239 52014 IEM_DS3505
ZGGG,1984-08-19 15:00,ZGGG 191500Z AUTO 00000KT 7SM 27/24 RMK SLP028 T02700241 52012 IEM_DS3505
ZGGG,1984-08-19 18:00,ZGGG 191800Z AUTO 00000KT 5SM 26/24 RMK SLP017 T02650242 40341//// 57011 IEM_DS3505
ZGGG,1984-08-19 21:00,ZGGG 192100Z AUTO 00000KT 5SM 26/24 RMK SLP011 T02630243 57006 IEM_DS3505
ZGGG,1984-08-20 00:00,ZGGG 200000Z AUTO 02004KT 9SM 27/24 RMK SLP019 T02710241 52008 IEM_DS3505
ZGGG,1984-08-20 03:00,ZGGG 200300Z AUTO 07010KT 7SM 30/23 RMK SLP010 T03030229 57009 IEM_DS3505
ZGGG,1984-08-20 06:00,ZGGG 200600Z AUTO 07010KT 9SM 32/23 RMK SLP998 T03180234 4////0254 57012 IEM_DS3505
ZGGG,1984-08-20 09:00,ZGGG 200900Z AUTO 07010KT 9SM 30/24 RMK SLP993 T03050242 57005 IEM_DS3505
ZGGG,1984-08-20 12:00,ZGGG 201200Z AUTO 07004KT 9SM 29/24 RMK SLP991 T02890245 57002 IEM_DS3505
ZGGG,1984-08-20 15:00,ZGGG 201500Z AUTO 04006KT 6SM 28/23 RMK SLP997 T02850234 52006 IEM_DS3505
ZGGG,1984-08-20 18:00,ZGGG 201800Z AUTO 02010KT 7SM 29/23 RMK SLP990 T02870226 40330//// 57007 IEM_DS3505
ZGGG,1984-08-20 21:00,ZGGG 202100Z AUTO 00000KT 7SM 27/24 RMK SLP984 T02670237 57006 IEM_DS3505
ZGGG,1984-08-21 00:00,ZGGG 210000Z AUTO 29004KT 7SM 27/23 RMK 60002 SLP995 T02670232 52011 IEM_DS3505
ZGGG,1984-08-21 02:00,ZGGG 210200Z AUTO 33010KT 7SM 27/24 A2950 RMK T02700240 IEM_DS3505
ZGGG,1984-08-21 03:00,ZGGG 210300Z AUTO 27006KT 4SM 26/24 A2950 RMK SLP998 T02620242 52003 IEM_DS3505
ZGGG,1984-08-21 04:00,ZGGG 210400Z AUTO 27010KT 2SM 25/24 A2950 RMK SLP998 T02500241 52005 IEM_DS3505
ZGGG,1984-08-21 05:00,ZGGG 210500Z AUTO 27002KT 2SM 25/24 A2950 RMK SLP003 T02490240 52006 IEM_DS3505
ZGGG,1984-08-21 06:00,ZGGG 210600Z AUTO 32006KT 2SM 25/24 A2947 RMK 60067 SLP992 T02500243 4////0246 57006 IEM_DS3505
ZGGG,1984-08-21 07:00,ZGGG 210700Z AUTO 27006KT 2SM 25/24 A2947 RMK T02500240 IEM_DS3505
ZGGG,1984-08-21 08:00,ZGGG 210800Z AUTO 00000KT 1 1/2SM 25/24 A2947 RMK T02500240 IEM_DS3505
ZGGG,1984-08-21 09:00,ZGGG 210900Z AUTO 00000KT 1 1/4SM 25/24 A2947 RMK SLP995 T02500243 52003 IEM_DS3505
ZGGG,1984-08-21 12:00,ZGGG 211200Z AUTO 18004KT 2SM 25/24 RMK 60059 SLP007 T02510242 52012 IEM_DS3505
ZGGG,1984-08-21 15:00,ZGGG 211500Z AUTO 36002KT 1 1/4SM 25/25 RMK SLP023 T02520246 52016 IEM_DS3505
ZGGG,1984-08-21 18:00,ZGGG 211800Z AUTO 09002KT 1 1/4SM 25/24 RMK SLP028 T02520244 40287//// 52005 IEM_DS3505
ZGGG,1984-08-21 21:00,ZGGG 212100Z AUTO 00000KT 1 1/4SM 25/24 RMK SLP033 T02510245 52005 IEM_DS3505
ZGGG,1984-08-22 00:00,ZGGG 220000Z AUTO 00000KT 1 1/4SM 26/25 RMK SLP048 T02620253 52015 IEM_DS3505
ZGGG,1984-08-22 03:00,ZGGG 220300Z AUTO 20008KT 4SM 30/26 RMK SLP053 T03020262 52005 IEM_DS3505
ZGGG,1984-08-22 06:00,ZGGG 220600Z AUTO 18008KT 7SM 32/26 RMK SLP039 T03230256 4////0244 57014 IEM_DS3505
ZGGG,1984-08-22 09:00,ZGGG 220900Z AUTO 16008KT 7SM 32/26 RMK SLP025 T03190258 57014 IEM_DS3505
ZGGG,1984-08-22 12:00,ZGGG 221200Z AUTO 11006KT 5SM 29/27 RMK SLP039 T02860268 52014 IEM_DS3505
ZGGG,1984-08-22 15:00,ZGGG 221500Z AUTO 16004KT 4SM 27/26 RMK SLP060 T02730258 52021 IEM_DS3505
ZGGG,1984-08-22 18:00,ZGGG 221800Z AUTO 14004KT 4SM 26/25 RMK SLP060 T02620253 54000 IEM_DS3505
ZGGG,1984-08-22 21:00,ZGGG 222100Z AUTO 00000KT 4SM 26/25 RMK SLP062 T02630251 52002 IEM_DS3505
ZGGG,1984-08-23 00:00,ZGGG 230000Z AUTO 14004KT 4SM 27/25 RMK SLP071 T02680254 52009 IEM_DS3505
ZGGG,1984-08-23 03:00,ZGGG 230300Z AUTO 18004KT 5SM 30/26 RMK SLP073 T03020256 52002 IEM_DS3505
ZGGG,1984-08-23 06:00,ZGGG 230600Z AUTO 16006KT 6SM 32/26 RMK SLP052 T03190261 4////0259 57021 IEM_DS3505
ZGGG,1984-08-23 09:00,ZGGG 230900Z AUTO 26008KT 7SM 32/26 RMK SLP037 T03200260 57015 IEM_DS3505
ZGGG,1984-08-23 12:00,ZGGG 231200Z AUTO 14004KT 7SM 28/25 RMK SLP055 T02820252 52018 IEM_DS3505
ZGGG,1984-08-23 15:00,ZGGG 231500Z AUTO 20002KT 7SM 27/25 RMK SLP070 T02740253 52015 IEM_DS3505
ZGGG,1984-08-23 18:00,ZGGG 231800Z AUTO 00000KT 2 1/2SM 26/25 RMK SLP052 T02650252 57018 IEM_DS3505
ZGGG,1984-08-23 21:00,ZGGG 232100Z AUTO 00000KT 2 1/2SM 27/25 RMK T02660253 54000 IEM_DS3505
ZGGG,1984-08-24 00:00,ZGGG 240000Z AUTO 14004KT 2 1/2SM 28/26 RMK SLP066 T02780255 52014 IEM_DS3505
ZGGG,1984-08-24 03:00,ZGGG 240300Z AUTO 14006KT 7SM 31/25 RMK SLP066 T03060250 54000 IEM_DS3505
ZGGG,1984-08-24 06:00,ZGGG 240600Z AUTO 18008KT 7SM 33/25 RMK SLP042 T03260246 4////0261 57024 IEM_DS3505
ZGGG,1984-08-24 09:00,ZGGG 240900Z AUTO 16006KT 7SM 32/25 RMK SLP027 T03200254 57015 IEM_DS3505
ZGGG,1984-08-24 12:00,ZGGG 241200Z AUTO 11004KT 7SM 29/26 RMK SLP035 T02870262 52008 IEM_DS3505
ZGGG,1984-08-24 15:00,ZGGG 241500Z AUTO 16004KT 7SM 28/26 RMK SLP052 T02760258 52017 IEM_DS3505
ZGGG,1984-08-24 18:00,ZGGG 241800Z AUTO 00000KT 4SM 27/26 RMK SLP048 T02700257 40333//// 57004 IEM_DS3505
ZGGG,1984-08-24 21:00,ZGGG 242100Z AUTO 00000KT 2 1/2SM 26/26 RMK SLP042 T02640257 57006 IEM_DS3505
ZGGG,1984-08-25 00:00,ZGGG 250000Z AUTO 14004KT 2 1/2SM 28/26 RMK SLP055 T02800258 52013 IEM_DS3505
ZGGG,1984-08-25 02:00,ZGGG 250200Z AUTO 00000KT 7SM 31/25 A2968 RMK T03100250 IEM_DS3505
ZGGG,1984-08-25 03:00,ZGGG 250300Z AUTO 29004KT 8SM 31/24 A2965 RMK SLP057 T03120239 52002 IEM_DS3505
ZGGG,1984-08-25 04:00,ZGGG 250400Z AUTO 24008KT 7SM 32/25 A2965 RMK T03200250 IEM_DS3505
ZGGG,1984-08-25 05:00,ZGGG 250500Z AUTO 00000KT 7SM 32/25 A2965 RMK T03200250 IEM_DS3505
ZGGG,1984-08-25 06:00,ZGGG 250600Z AUTO 18004KT 7SM 33/23 A2962 RMK SLP038 T03280234 4////0260 57019 IEM_DS3505
ZGGG,1984-08-25 07:00,ZGGG 250700Z AUTO 22010KT 7SM 32/24 A2959 RMK T03200240 IEM_DS3505
ZGGG,1984-08-25 08:00,ZGGG 250800Z AUTO 18008KT 7SM 33/24 A2956 RMK T03300240 IEM_DS3505
ZGGG,1984-08-25 09:00,ZGGG 250900Z AUTO 18008KT 7SM 33/24 A2953 RMK SLP017 T03270239 57021 IEM_DS3505
ZGGG,1984-08-25 10:00,ZGGG 251000Z AUTO 15008KT 7SM 32/25 A2956 RMK T03200250 IEM_DS3505
ZGGG,1984-08-25 11:00,ZGGG 251100Z AUTO 14010KT 6SM 30/26 A2959 RMK T03000260 IEM_DS3505
ZGGG,1984-08-25 12:00,ZGGG 251200Z AUTO 14004KT 7SM 29/26 A2962 RMK SLP038 T02930261 52021 IEM_DS3505
ZGGG,1984-08-25 15:00,ZGGG 251500Z AUTO 14002KT 6SM 28/26 RMK SLP058 T02840265 52020 IEM_DS3505
ZGGG,1984-08-25 18:00,ZGGG 251800Z AUTO 09004KT 6SM 27/23 RMK SLP046 T02730231 40336//// 57012 IEM_DS3505
ZGGG,1984-08-25 21:00,ZGGG 252100Z AUTO 09004KT 7SM 26/24 RMK SLP042 T02610235 57004 IEM_DS3505
ZGGG,1984-08-26 00:00,ZGGG 260000Z AUTO 00000KT 5SM 27/24 RMK SLP054 T02740237 52012 IEM_DS3505
ZGGG,1984-08-26 03:00,ZGGG 260300Z AUTO 16004KT 6SM 31/25 RMK SLP064 T03060250 52010 IEM_DS3505
ZGGG,1984-08-26 06:00,ZGGG 260600Z AUTO 00000KT 0SM 32/25 RMK SLP043 T03200250 57021 IEM_DS3505
ZGGG,1984-08-26 09:00,ZGGG 260900Z AUTO 00000KT 3SM 30/26 RMK SLP036 T02970258 57007 IEM_DS3505
ZGGG,1984-08-26 11:00,ZGGG 261100Z AUTO 07004KT 4SM 28/25 RMK SLP047 T02800253 52011 IEM_DS3505
ZGGG,1984-08-26 12:00,ZGGG 261200Z AUTO 07004KT 4SM 28/25 RMK SLP047 T02800253 52011 IEM_DS3505
ZGGG,1984-08-26 15:00,ZGGG 261500Z AUTO 36002KT 4SM 27/25 RMK SLP066 T02710247 52019 IEM_DS3505
ZGGG,1984-08-26 18:00,ZGGG 261800Z AUTO 14004KT 4SM 26/24 RMK SLP055 T02620236 40323//// 57011 IEM_DS3505
ZGGG,1984-08-26 21:00,ZGGG 262100Z AUTO 36002KT 4SM 25/23 RMK SLP054 T02520227 57001 IEM_DS3505
ZGGG,1984-08-27 00:00,ZGGG 270000Z AUTO 00000KT 7SM 25/23 RMK SLP070 T02540232 52016 IEM_DS3505
ZGGG,1984-08-27 03:00,ZGGG 270300Z AUTO 04004KT 9SM 27/24 RMK SLP073 T02740235 52003 IEM_DS3505
ZGGG,1984-08-27 06:00,ZGGG 270600Z AUTO 16004KT 6SM 29/25 RMK SLP053 T02930246 4////0249 57020 IEM_DS3505
ZGGG,1984-08-27 09:00,ZGGG 270900Z AUTO 00000KT 7SM 27/23 RMK SLP045 T02700231 57008 IEM_DS3505
ZGGG,1984-08-27 12:00,ZGGG 271200Z AUTO 00000KT 6SM 26/24 RMK SLP057 T02570235 52012 IEM_DS3505
ZGGG,1984-08-27 15:00,ZGGG 271500Z AUTO 00000KT 5SM 25/24 RMK SLP069 T02540238 52012 IEM_DS3505
ZGGG,1984-08-27 18:00,ZGGG 271800Z AUTO 00000KT 6SM 24/24 RMK SLP061 T02440238 40300//// 57008 IEM_DS3505
ZGGG,1984-08-27 21:00,ZGGG 272100Z AUTO 00000KT 6SM 24/23 RMK SLP052 T02410234 57009 IEM_DS3505
ZGGG,1984-08-28 00:00,ZGGG 280000Z AUTO 00000KT 2 1/2SM 26/24 RMK SLP066 T02560235 52014 IEM_DS3505
ZGGG,1984-08-28 03:00,ZGGG 280300Z AUTO 27006KT 4SM 30/24 RMK SLP065 T02980245 57001 IEM_DS3505
ZGGG,1984-08-28 04:00,ZGGG 280400Z AUTO 32006KT 7SM 30/25 A2968 RMK T03000250 IEM_DS3505
ZGGG,1984-08-28 05:00,ZGGG 280500Z AUTO 31006KT 7SM 31/23 A2965 RMK T03100230 IEM_DS3505
ZGGG,1984-08-28 06:00,ZGGG 280600Z AUTO 34006KT 11SM 32/23 A2962 RMK SLP043 T03200228 57022 IEM_DS3505
ZGGG,1984-08-28 07:00,ZGGG 280700Z AUTO 31004KT 7SM 32/24 A2959 RMK T03200240 IEM_DS3505
ZGGG,1984-08-28 08:00,ZGGG 280800Z AUTO 28008KT 7SM 32/24 A2956 RMK T03200240 IEM_DS3505
ZGGG,1984-08-28 09:00,ZGGG 280900Z AUTO 34006KT 10SM 33/24 A2956 RMK SLP022 T03260235 57021 IEM_DS3505
ZGGG,1984-08-28 12:00,ZGGG 281200Z AUTO 27002KT 9SM 29/25 RMK SLP026 T02920247 52004 IEM_DS3505
ZGGG,1984-08-28 15:00,ZGGG 281500Z AUTO 00000KT 7SM 28/24 RMK SLP031 T02770244 52005 IEM_DS3505
ZGGG,1984-08-28 18:00,ZGGG 281800Z AUTO 00000KT 4SM 27/25 RMK SLP022 T02680247 40332//// 57009 IEM_DS3505
ZGGG,1984-08-28 21:00,ZGGG 282100Z AUTO 00000KT 6SM 26/24 RMK SLP014 T02640245 57008 IEM_DS3505
ZGGG,1984-08-29 00:00,ZGGG 290000Z AUTO 34004KT 9SM 28/25 RMK SLP020 T02850247 52006 IEM_DS3505
ZGGG,1984-08-29 03:00,ZGGG 290300Z AUTO 36006KT 10SM 32/24 RMK SLP004 T03230242 57016 IEM_DS3505
ZGGG,1984-08-29 06:00,ZGGG 290600Z AUTO 29002KT 9SM 34/24 RMK SLP983 T03420239 4////0258 57021 IEM_DS3505
ZGGG,1984-08-29 09:00,ZGGG 290900Z AUTO 32006KT 9SM 34/22 RMK SLP968 T03360222 57015 IEM_DS3505
ZGGG,1984-08-29 12:00,ZGGG 291200Z AUTO 02004KT 7SM 32/24 RMK SLP969 T03150237 52001 IEM_DS3505
ZGGG,1984-08-29 15:00,ZGGG 291500Z AUTO 02004KT 7SM 30/23 RMK SLP975 T03040230 52006 IEM_DS3505
ZGGG,1984-08-29 18:00,ZGGG 291800Z AUTO 29004KT 7SM 30/23 RMK SLP960 T03010230 40348//// 57015 IEM_DS3505
ZGGG,1984-08-29 21:00,ZGGG 292100Z AUTO 00000KT 6SM 28/24 RMK SLP953 T02810236 57007 IEM_DS3505
ZGGG,1984-08-30 00:00,ZGGG 300000Z AUTO 07002KT 11SM 30/23 RMK SLP951 T02970230 57002 IEM_DS3505
ZGGG,1984-08-30 03:00,ZGGG 300300Z AUTO 36006KT 11SM 32/24 RMK SLP954 T03240237 52003 IEM_DS3505
ZGGG,1984-08-30 06:00,ZGGG 300600Z AUTO 16006KT 11SM 31/24 RMK SLP942 T03060243 4////0278 57012 IEM_DS3505
ZGGG,1984-08-30 09:00,ZGGG 300900Z AUTO 36006KT 11SM 32/24 RMK SLP926 T03200242 57016 IEM_DS3505
ZGGG,1984-08-30 12:00,ZGGG 301200Z AUTO 02004KT 7SM 29/21 RMK SLP939 T02860213 52013 IEM_DS3505
ZGGG,1984-08-30 15:00,ZGGG 301500Z AUTO 32004KT 7SM 28/23 RMK SLP941 T02780230 52002 IEM_DS3505
ZGGG,1984-08-30 18:00,ZGGG 301800Z AUTO 34006KT 7SM 27/23 RMK SLP924 T02670234 40336//// 57017 IEM_DS3505
ZGGG,1984-08-30 21:00,ZGGG 302100Z AUTO 29006KT 6SM 26/24 RMK SLP952 T02630237 57013 IEM_DS3505
ZGGG,1984-08-31 00:00,ZGGG 310000Z AUTO 32006KT 7SM 26/24 RMK SLP936 T02580242 52008 IEM_DS3505
ZGGG,1984-08-31 03:00,ZGGG 310300Z AUTO 29008KT 2 1/2SM 26/25 RMK SLP949 T02600247 52013 IEM_DS3505
ZGGG,1984-08-31 06:00,ZGGG 310600Z AUTO 27004KT 6SM 27/25 RMK 60012 SLP939 T02660247 4////0250 57010 IEM_DS3505
ZGGG,1984-08-31 09:00,ZGGG 310900Z AUTO 27002KT 6SM 28/25 RMK SLP934 T02820251 57005 IEM_DS3505
ZGGG,1984-08-31 12:00,ZGGG 311200Z AUTO 00000KT 5SM 25/24 RMK 60134 SLP952 T02480241 52018 IEM_DS3505
ZGGG,1984-08-31 15:00,ZGGG 311500Z AUTO 00000KT 5SM 25/25 RMK SLP969 T02520248 52017 IEM_DS3505
ZGGG,1984-08-31 18:00,ZGGG 311800Z AUTO 00000KT 7SM 25/25 RMK 60008 SLP963 T02540247 40284//// 57006 IEM_DS3505
ZGGG,1984-08-31 21:00,ZGGG 312100Z AUTO 00000KT 6SM 25/25 RMK SLP965 T02540249 52002 IEM_DS3505
ZGGG,1984-09-01 00:00,ZGGG 010000Z AUTO 00000KT 2 1/2SM 27/25 RMK 60002 SLP976 T02660253 52011 IEM_DS3505
ZGGG,1984-09-01 02:00,ZGGG 010200Z AUTO 31006KT 7SM 28/25 A2944 RMK T02800250 IEM_DS3505
ZGGG,1984-09-01 03:00,ZGGG 010300Z AUTO 00000KT 2 1/2SM 27/25 A2947 RMK 60002 SLP976 T02660253 52011 IEM_DS3505
ZGGG,1984-09-01 04:00,ZGGG 010400Z AUTO 34006KT 7SM 29/25 A2944 RMK T02900250 IEM_DS3505
ZGGG,1984-09-01 05:00,ZGGG 010500Z AUTO 32010KT 7SM 30/25 A2944 RMK T03000250 IEM_DS3505
ZGGG,1984-09-01 06:00,ZGGG 010600Z AUTO 34008KT 9SM 29/24 A2944 RMK 60002 SLP975 T02930235 57011 IEM_DS3505
ZGGG,1984-09-01 07:00,ZGGG 010700Z AUTO 35010KT 7SM 29/23 A2941 RMK T02900230 IEM_DS3505
ZGGG,1984-09-01 08:00,ZGGG 010800Z AUTO 27004KT 7SM 26/24 A2944 RMK T02600240 IEM_DS3505
ZGGG,1984-09-01 09:00,ZGGG 010900Z AUTO 22002KT 10SM 27/23 A2944 RMK SLP982 T02680233 52007 IEM_DS3505
ZGGG,1984-09-01 10:00,ZGGG 011000Z AUTO 00000KT 7SM 27/24 A2947 RMK T02700240 IEM_DS3505
ZGGG,1984-09-01 11:00,ZGGG 011100Z AUTO 36002KT 7SM 26/25 A2947 RMK T02600250 IEM_DS3505
ZGGG,1984-09-01 12:00,ZGGG 011200Z AUTO 34006KT 7SM 26/24 A2950 RMK T02560237 52023 IEM_DS3505
ZGGG,1984-09-01 13:00,ZGGG 011300Z AUTO 33010KT 7SM 27/22 A2953 RMK T02700220 IEM_DS3505
ZGGG,1984-09-01 14:00,ZGGG 011400Z AUTO 36004KT 7SM 26/21 A2956 RMK T02600210 IEM_DS3505
ZGGG,1984-09-01 15:00,ZGGG 011500Z AUTO 32004KT 7SM 24/22 RMK SLP031 T02440223 52026 IEM_DS3505
ZGGG,1984-09-01 18:00,ZGGG 011800Z AUTO 32004KT 4SM 23/22 RMK 60028 SLP034 T02270219 40305//// 52003 IEM_DS3505
ZGGG,1984-09-01 21:00,ZGGG 012100Z AUTO 32006KT 5SM 22/21 RMK SLP039 T02210213 52005 IEM_DS3505
ZGGG,1984-09-02 00:00,ZGGG 020000Z AUTO 00000KT 6SM 22/21 RMK 60063 SLP052 T02220211 52013 IEM_DS3505
ZGGG,1984-09-02 03:00,ZGGG 020300Z AUTO 00000KT 9SM 26/21 RMK SLP068 T02640209 52016 IEM_DS3505
ZGGG,1984-09-02 06:00,ZGGG 020600Z AUTO 34006KT 7SM 28/22 RMK 60000 SLP060 T02770221 4////0216 57008 IEM_DS3505
ZGGG,1984-09-02 09:00,ZGGG 020900Z AUTO 29002KT 7SM 27/22 RMK SLP056 T02730223 57004 IEM_DS3505
ZGGG,1984-09-02 12:00,ZGGG 021200Z AUTO 00000KT 3SM 26/24 RMK SLP073 T02580242 52017 IEM_DS3505
ZGGG,1984-09-02 15:00,ZGGG 021500Z AUTO 00000KT 3SM 25/24 RMK SLP088 T02470238 52015 IEM_DS3505
ZGGG,1984-09-02 17:00,ZGGG 021700Z AUTO 00000KT 4SM 24/23 RMK SLP082 T02420234 40282//// 57006 IEM_DS3505
ZGGG,1984-09-02 18:00,ZGGG 021800Z AUTO 00000KT 4SM 24/23 RMK SLP082 T02420234 40282//// 57006 IEM_DS3505
ZGGG,1984-09-02 21:00,ZGGG 022100Z AUTO 02002KT 5SM 24/22 RMK SLP083 T02420215 52001 IEM_DS3505
ZGGG,1984-09-03 00:00,ZGGG 030000Z AUTO 02004KT 7SM 25/20 RMK SLP093 T02480205 52010 IEM_DS3505
ZGGG,1984-09-03 03:00,ZGGG 030300Z AUTO 02006KT 7SM 28/21 RMK SLP100 T02840208 52007 IEM_DS3505
ZGGG,1984-09-03 06:00,ZGGG 030600Z AUTO 00000KT 7SM 29/22 RMK SLP084 T02940221 4////0234 57016 IEM_DS3505
ZGGG,1984-09-03 09:00,ZGGG 030900Z AUTO 00000KT 6SM 27/24 RMK SLP081 T02720242 57003 IEM_DS3505
ZGGG,1984-09-03 12:00,ZGGG 031200Z AUTO 36004KT 6SM 26/22 RMK 60000 SLP091 T02610221 52010 IEM_DS3505
ZGGG,1984-09-03 15:00,ZGGG 031500Z AUTO 00000KT 5SM 24/23 RMK SLP100 T02440229 52009 IEM_DS3505
ZGGG,1984-09-03 18:00,ZGGG 031800Z AUTO 00000KT 5SM 24/23 RMK SLP097 T02420231 40300//// 57003 IEM_DS3505
ZGGG,1984-09-03 21:00,ZGGG 032100Z AUTO 00000KT 5SM 24/23 RMK SLP097 T02380229 54000 IEM_DS3505
ZGGG,1984-09-04 00:00,ZGGG 040000Z AUTO 00000KT 7SM 25/23 RMK SLP115 T02520230 52018 IEM_DS3505
ZGGG,1984-09-04 03:00,ZGGG 040300Z AUTO 07004KT 9SM 28/22 RMK SLP115 T02820217 54000 IEM_DS3505
ZGGG,1984-09-04 04:00,ZGGG 040400Z AUTO 01010KT 7SM 25/23 RMK T02500230 IEM_DS3505
ZGGG,1984-09-04 05:00,ZGGG 040500Z AUTO 11004KT 7SM 29/22 A2980 RMK T02900220 IEM_DS3505
ZGGG,1984-09-04 06:00,ZGGG 040600Z AUTO 14002KT 7SM 30/23 A2980 RMK SLP097 T03050231 4////0232 57018 IEM_DS3505
ZGGG,1984-09-04 07:00,ZGGG 040700Z AUTO 33006KT 7SM 31/23 A2977 RMK T03100230 IEM_DS3505
ZGGG,1984-09-04 08:00,ZGGG 040800Z AUTO 03006KT 7SM 30/24 A2977 RMK T03000240 IEM_DS3505
ZGGG,1984-09-04 09:00,ZGGG 040900Z AUTO 14004KT 7SM 30/23 A2977 RMK SLP086 T03050233 57011 IEM_DS3505
ZGGG,1984-09-04 10:00,ZGGG 041000Z AUTO 00000KT 7SM 29/25 A2974 RMK T02900250 IEM_DS3505
ZGGG,1984-09-04 11:00,ZGGG 041100Z AUTO 03002KT 7SM 28/24 A2977 RMK T02800240 IEM_DS3505
ZGGG,1984-09-04 12:00,ZGGG 041200Z AUTO 16002KT 6SM 29/25 RMK SLP097 T02860249 52011 IEM_DS3505
ZGGG,1984-09-04 15:00,ZGGG 041500Z AUTO 07006KT 6SM 26/24 RMK SLP116 T02570235 52019 IEM_DS3505
ZGGG,1984-09-04 18:00,ZGGG 041800Z AUTO 07004KT 6SM 25/24 RMK SLP113 T02540237 40314//// 57003 IEM_DS3505
ZGGG,1984-09-04 21:00,ZGGG 042100Z AUTO 07004KT 6SM 25/23 RMK SLP106 T02530233 57007 IEM_DS3505
ZGGG,1984-09-05 00:00,ZGGG 050000Z AUTO 07006KT 11SM 27/23 RMK SLP122 T02660233 IEM_DS3505
ZGGG,1984-09-05 03:00,ZGGG 050300Z AUTO 09008KT 12SM 30/24 RMK SLP116 T02990241 57006 IEM_DS3505
ZGGG,1984-09-05 06:00,ZGGG 050600Z AUTO 14006KT 9SM 28/26 RMK 60028 SLP100 T02820258 4////0243 57016 IEM_DS3505
ZGGG,1984-09-05 09:00,ZGGG 050900Z AUTO 09004KT 9SM 26/24 RMK SLP101 T02580236 52001 IEM_DS3505
ZGGG,1984-09-05 12:00,ZGGG 051200Z AUTO 07008KT 7SM 26/24 RMK 60008 SLP113 T02580235 52012 IEM_DS3505
ZGGG,1984-09-05 15:00,ZGGG 051500Z AUTO 09008KT 6SM 26/24 RMK SLP124 T02580236 52011 IEM_DS3505
ZGGG,1984-09-05 18:00,ZGGG 051800Z AUTO 09012KT 6SM 26/24 RMK 60008 SLP110 T02550237 40310//// 57014 IEM_DS3505
ZGGG,1984-09-05 21:00,ZGGG 052100Z AUTO 09012KT 6SM 25/23 RMK SLP109 T02510233 57001 IEM_DS3505
ZGGG,1984-09-06 00:00,ZGGG 060000Z AUTO 11010KT 4SM 25/24 RMK 60016 SLP123 T02470238 52014 IEM_DS3505
ZGGG,1984-09-06 03:00,ZGGG 060300Z AUTO 16008KT 2 1/2SM 25/24 RMK SLP131 T02540244 52008 IEM_DS3505
ZGGG,1984-09-06 06:00,ZGGG 060600Z AUTO 16008KT 10SM 27/24 RMK 60055 SLP121 T02740241 4////0240 57010 IEM_DS3505
ZGGG,1984-09-06 09:00,ZGGG 060900Z AUTO 16010KT 10SM 28/24 RMK SLP116 T02800243 57005 IEM_DS3505
ZGGG,1984-09-06 12:00,ZGGG 061200Z AUTO 11004KT 9SM 26/24 RMK SLP128 T02630238 52012 IEM_DS3505
ZGGG,1984-09-06 15:00,ZGGG 061500Z AUTO 11002KT 7SM 26/24 RMK SLP140 T02580239 52012 IEM_DS3505
ZGGG,1984-09-06 18:00,ZGGG 061800Z AUTO 09004KT 5SM 25/24 RMK SLP136 T02490237 40287//// 57004 IEM_DS3505
ZGGG,1984-09-06 21:00,ZGGG 062100Z AUTO 09002KT 4SM 24/23 RMK SLP130 T02420233 57006 IEM_DS3505
ZGGG,1984-09-07 00:00,ZGGG 070000Z AUTO 07004KT 6SM 26/24 RMK SLP144 T02560238 52014 IEM_DS3505
ZGGG,1984-09-07 03:00,ZGGG 070300Z AUTO 11006KT 11SM 29/24 RMK SLP150 T02920239 52006 IEM_DS3505
ZGGG,1984-09-07 06:00,ZGGG 070600Z AUTO 16006KT 11SM 30/23 RMK SLP127 T03010233 4////0238 57023 IEM_DS3505
ZGGG,1984-09-07 09:00,ZGGG 070900Z AUTO 16008KT 12SM 30/24 RMK SLP120 T03010235 57007 IEM_DS3505
ZGGG,1984-09-07 11:00,ZGGG 071100Z AUTO 14006KT 27/23 RMK SLP125 T02680234 52005 IEM_DS3505
ZGGG,1984-09-07 12:00,ZGGG 071200Z AUTO 14006KT 9SM 27/23 RMK SLP125 T02680234 52005 IEM_DS3505
ZGGG,1984-09-07 15:00,ZGGG 071500Z AUTO 00000KT 9SM 25/24 RMK SLP135 T02520237 52010 IEM_DS3505
ZGGG,1984-09-07 18:00,ZGGG 071800Z AUTO 00000KT 5SM 23/23 RMK SLP118 T02340229 57011 IEM_DS3505
ZGGG,1984-09-07 21:00,ZGGG 072100Z AUTO 00000KT 5SM 23/23 RMK SLP178 T02340229 57011 IEM_DS3505
ZGGG,1984-09-08 00:00,ZGGG 080000Z AUTO 09002KT 5SM 26/24 RMK SLP130 T02610236 52012 IEM_DS3505
ZGGG,1984-09-08 03:00,ZGGG 080300Z AUTO 18006KT 6SM 30/22 RMK SLP137 T02950222 52007 IEM_DS3505
ZGGG,1984-09-08 06:00,ZGGG 080600Z AUTO 18004KT 10SM 31/22 RMK SLP117 T03130223 4////0229 57020 IEM_DS3505
ZGGG,1984-09-08 09:00,ZGGG 080900Z AUTO 18004KT 10SM 31/22 RMK SLP100 T03130224 57017 IEM_DS3505
ZGGG,1984-09-08 12:00,ZGGG 081200Z AUTO 16004KT 7SM 28/25 RMK SLP107 T02750247 52007 IEM_DS3505
ZGGG,1984-09-08 15:00,ZGGG 081500Z AUTO 00000KT 7SM 26/24 RMK SLP119 T02620243 52012 IEM_DS3505
ZGGG,1984-09-08 18:00,ZGGG 081800Z AUTO 00000KT 2 1/2SM 25/24 RMK SLP111 T02540239 40319//// 57008 IEM_DS3505
ZGGG,1984-09-08 21:00,ZGGG 082100Z AUTO 00000KT 2 1/2SM 24/24 RMK SLP107 T02430238 57004 IEM_DS3505
ZGGG,1984-09-09 00:00,ZGGG 090000Z AUTO 27002KT 6SM 26/24 RMK SLP123 T02640237 52016 IEM_DS3505
ZGGG,1984-09-09 05:00,ZGGG 090500Z AUTO 17002KT 7SM 31/23 A2983 RMK T03100230 IEM_DS3505
ZGGG,1984-09-09 06:00,ZGGG 090600Z AUTO 22006KT 9SM 32/22 A2980 RMK SLP097 T03210216 4////0236 57023 IEM_DS3505
ZGGG,1984-09-09 08:00,ZGGG 090800Z AUTO 20006KT 7SM 33/23 A2974 RMK T03300230 IEM_DS3505
ZGGG,1984-09-09 09:00,ZGGG 090900Z AUTO 18006KT 10SM 31/23 A2974 RMK SLP083 T03140230 57014 IEM_DS3505
ZGGG,1984-09-09 12:00,ZGGG 091200Z AUTO 14004KT 9SM 28/25 RMK SLP093 T02790253 52010 IEM_DS3505
ZGGG,1984-09-09 15:00,ZGGG 091500Z AUTO 00000KT 7SM 27/25 RMK SLP102 T02680254 52009 IEM_DS3505
ZGGG,1984-09-09 18:00,ZGGG 091800Z AUTO 00000KT 4SM 26/25 RMK SLP104 T02580247 40329//// 52002 IEM_DS3505
ZGGG,1984-09-09 21:00,ZGGG 092100Z AUTO 00000KT 2 1/2SM 25/24 RMK SLP112 T02500243 52008 IEM_DS3505
ZGGG,1984-09-10 00:00,ZGGG 100000Z AUTO 00000KT 2 1/2SM 27/24 RMK SLP122 T02740241 52010 IEM_DS3505
ZGGG,1984-09-10 03:00,ZGGG 100300Z AUTO 22004KT 7SM 30/23 RMK SLP125 T03020234 52003 IEM_DS3505
ZGGG,1984-09-10 06:00,ZGGG 100600Z AUTO 29002KT 9SM 33/24 RMK SLP101 T03290237 4////0243 57024 IEM_DS3505
ZGGG,1984-09-10 09:00,ZGGG 100900Z AUTO 32002KT 9SM 34/22 RMK SLP092 T03350224 57009 IEM_DS3505
ZGGG,1984-09-10 12:00,ZGGG 101200Z AUTO 18004KT 7SM 29/24 RMK SLP099 T02920245 52007 IEM_DS3505
ZGGG,1984-09-10 15:00,ZGGG 101500Z AUTO 00000KT 7SM 27/26 RMK SLP115 T02720255 52016 IEM_DS3505
ZGGG,1984-09-10 18:00,ZGGG 101800Z AUTO 00000KT 6SM 26/25 RMK SLP116 T02610254 40340//// 52001 IEM_DS3505
ZGGG,1984-09-10 21:00,ZGGG 102100Z AUTO 00000KT 4SM 26/25 RMK SLP116 T02560250 54000 IEM_DS3505
ZGGG,1984-09-11 00:00,ZGGG 110000Z AUTO 00000KT 4SM 28/26 RMK SLP137 T02760255 52021 IEM_DS3505
ZGGG,1984-09-11 01:00,ZGGG 110100Z AUTO 20004KT 5SM 29/25 A2991 RMK T02900250 IEM_DS3505
ZGGG,1984-09-11 02:00,ZGGG 110200Z AUTO 00000KT 7SM 30/26 A2991 RMK T03000260 IEM_DS3505
ZGGG,1984-09-11 03:00,ZGGG 110300Z AUTO 29004KT 7SM 31/26 RMK SLP134 T03120256 57003 IEM_DS3505
ZGGG,1984-09-11 04:00,ZGGG 110400Z AUTO 27006KT 7SM 31/26 A2988 RMK T03100260 IEM_DS3505
ZGGG,1984-09-11 05:00,ZGGG 110500Z AUTO 30004KT 7SM 32/25 A2985 RMK T03200250 IEM_DS3505
ZGGG,1984-09-11 06:00,ZGGG 110600Z AUTO 29006KT 10SM 34/24 A2983 RMK SLP112 T03370241 4////0249 57022 IEM_DS3505
ZGGG,1984-09-11 07:00,ZGGG 110700Z AUTO 28002KT 7SM 34/24 A2980 RMK T03400240 IEM_DS3505
ZGGG,1984-09-11 08:00,ZGGG 110800Z AUTO 30004KT 7SM 34/24 A2980 RMK T03400240 IEM_DS3505
ZGGG,1984-09-11 09:00,ZGGG 110900Z AUTO 20006KT 11SM 34/24 A2980 RMK SLP101 T03350235 57011 IEM_DS3505
ZGGG,1984-09-11 10:00,ZGGG 111000Z AUTO 00000KT 7SM 27/ RMK 57006 IEM_DS3505
ZGGG,1984-09-11 12:00,ZGGG 111200Z AUTO 00000KT 10SM 30/26 RMK SLP113 T03010257 52012 IEM_DS3505
ZGGG,1984-09-11 15:00,ZGGG 111500Z AUTO 00000KT 9SM 28/26 RMK SLP126 T02810259 52013 IEM_DS3505
ZGGG,1984-09-11 18:00,ZGGG 111800Z AUTO 00000KT 7SM 27/26 RMK SLP120 T02720259 40352//// 57006 IEM_DS3505
ZGGG,1984-09-11 21:00,ZGGG 112100Z AUTO 00000KT 6SM 27/26 RMK SLP123 T02670259 52003 IEM_DS3505
ZGGG,1984-09-12 00:00,ZGGG 120000Z AUTO 00000KT 7SM 23/22 RMK 60016 SLP150 T02310218 52027 IEM_DS3505
ZGGG,1984-09-12 03:00,ZGGG 120300Z AUTO 00000KT 7SM 24/23 RMK SLP139 T02440229 57011 IEM_DS3505
ZGGG,1984-09-12 06:00,ZGGG 120600Z AUTO 29006KT 7SM 29/25 RMK 60020 SLP117 T02940250 4////0227 57022 IEM_DS3505
ZGGG,1984-09-12 09:00,ZGGG 120900Z AUTO 32004KT 9SM 30/24 RMK SLP107 T03020244 57010 IEM_DS3505
ZGGG,1984-09-12 12:00,ZGGG 121200Z AUTO 27010KT 11SM 25/21 RMK SLP132 T02470208 52005 IEM_DS3505
ZGGG,1984-09-12 15:00,ZGGG 121500Z AUTO 02002KT 10SM 24/21 RMK SLP120 T02450212 57012 IEM_DS3505
ZGGG,1984-09-12 18:00,ZGGG 121800Z AUTO 34006KT 9SM 24/19 RMK 60012 SLP116 T02360189 40305//// 57004 IEM_DS3505
ZGGG,1984-09-12 21:00,ZGGG 122100Z AUTO 34006KT 9SM 23/19 RMK SLP110 T02290191 57006 IEM_DS3505
ZGGG,1984-09-13 00:00,ZGGG 130000Z AUTO 36004KT 9SM 22/19 RMK SLP126 T02250187 52016 IEM_DS3505
ZGGG,1984-09-13 03:00,ZGGG 130300Z AUTO 36006KT 10SM 26/19 RMK SLP128 T02610194 52002 IEM_DS3505
ZGGG,1984-09-13 06:00,ZGGG 130600Z AUTO 36004KT 11SM 28/20 RMK SLP107 T02760201 4////0223 57021 IEM_DS3505
ZGGG,1984-09-13 09:00,ZGGG 130900Z AUTO 34004KT 9SM 26/20 RMK SLP101 T02650203 57006 IEM_DS3505
ZGGG,1984-09-13 12:00,ZGGG 131200Z AUTO 02002KT 6SM 24/19 RMK SLP114 T02420189 52013 IEM_DS3505
ZGGG,1984-09-13 15:00,ZGGG 131500Z AUTO 36004KT 6SM 24/19 RMK SLP128 T02360191 52014 IEM_DS3505
ZGGG,1984-09-13 18:00,ZGGG 131800Z AUTO 02002KT 6SM 23/19 RMK SLP118 T02280187 40293//// 57010 IEM_DS3505
ZGGG,1984-09-13 21:00,ZGGG 132100Z AUTO 36004KT 6SM 23/18 RMK SLP120 T02270183 52002 IEM_DS3505
ZGGG,1984-09-14 00:00,ZGGG 140000Z AUTO 36006KT 7SM 24/18 RMK SLP133 T02370182 52013 IEM_DS3505
ZGGG,1984-09-14 03:00,ZGGG 140300Z AUTO 09006KT 9SM 28/18 RMK SLP136 T02790181 52003 IEM_DS3505
ZGGG,1984-09-14 06:00,ZGGG 140600Z AUTO 09004KT 9SM 28/18 RMK SLP116 T02780183 4////0220 57020 IEM_DS3505
ZGGG,1984-09-14 09:00,ZGGG 140900Z AUTO 00000KT 7SM 28/19 RMK SLP109 T02780191 57007 IEM_DS3505
ZGGG,1984-09-14 12:00,ZGGG 141200Z AUTO 00000KT 7SM 25/22 RMK SLP116 T02510216 52007 IEM_DS3505
ZGGG,1984-09-14 15:00,ZGGG 141500Z AUTO 00000KT 6SM 23/22 RMK SLP129 T02320218 52013 IEM_DS3505
ZGGG,1984-09-14 18:00,ZGGG 141800Z AUTO 00000KT 4SM 23/22 RMK SLP131 T02270216 40288//// 52002 IEM_DS3505
ZGGG,1984-09-14 21:00,ZGGG 142100Z AUTO 00000KT 6SM 23/19 RMK SLP131 T02310192 54000 IEM_DS3505
ZGGG,1984-09-15 00:00,ZGGG 150000Z AUTO 02002KT 10SM 24/17 RMK SLP144 T02390173 52013 IEM_DS3505
ZGGG,1984-09-15 02:00,ZGGG 150200Z AUTO 01010KT 6SM A2994 RMK IEM_DS3505
ZGGG,1984-09-15 03:00,ZGGG 150300Z AUTO 07006KT 10SM 29/18 A2991 RMK SLP144 T02890183 54000 IEM_DS3505
ZGGG,1984-09-15 04:00,ZGGG 150400Z AUTO 32008KT 6SM 28/18 A2991 RMK T02800180 IEM_DS3505
ZGGG,1984-09-15 05:00,ZGGG 150500Z AUTO 33008KT 7SM 28/17 A2991 RMK T02800170 IEM_DS3505
ZGGG,1984-09-15 06:00,ZGGG 150600Z AUTO 32004KT 9SM 29/17 A2988 RMK SLP131 T02940170 4////0222 57013 IEM_DS3505
ZGGG,1984-09-15 07:00,ZGGG 150700Z AUTO 33006KT 6SM 29/18 A2983 RMK T02900180 IEM_DS3505
ZGGG,1984-09-15 08:00,ZGGG 150800Z AUTO 01004KT 6SM 29/18 A2985 RMK T02900180 IEM_DS3505
ZGGG,1984-09-15 09:00,ZGGG 150900Z AUTO 34004KT 8SM 29/18 A2985 RMK SLP122 T02870183 57009 IEM_DS3505
ZGGG,1984-09-15 12:00,ZGGG 151200Z AUTO 00000KT 7SM 25/20 RMK SLP131 T02500203 52009 IEM_DS3505
ZGGG,1984-09-15 15:00,ZGGG 151500Z AUTO 00000KT 5SM 24/20 RMK SLP138 T02450203 52007 IEM_DS3505
ZGGG,1984-09-15 18:00,ZGGG 151800Z AUTO 00000KT 4SM 23/21 RMK SLP139 T02340211 40303//// 52001 IEM_DS3505
ZGGG,1984-09-15 21:00,ZGGG 152100Z AUTO 00000KT 5SM 23/21 RMK SLP137 T02260214 57002 IEM_DS3505
ZGGG,1984-09-16 00:00,ZGGG 160000Z AUTO 00000KT 7SM 26/22 RMK SLP146 T02600218 52009 IEM_DS3505
ZGGG,1984-09-16 03:00,ZGGG 160300Z AUTO 20002KT 7SM 29/22 RMK SLP149 T02920218 52003 IEM_DS3505
ZGGG,1984-09-16 06:00,ZGGG 160600Z AUTO 04006KT 6SM 30/21 RMK SLP121 T02960212 4////0221 52028 IEM_DS3505
ZGGG,1984-09-16 09:00,ZGGG 160900Z AUTO 32002KT 7SM 29/21 RMK SLP104 T02900214 57017 IEM_DS3505
ZGGG,1984-09-16 12:00,ZGGG 161200Z AUTO 00000KT 7SM 26/23 RMK SLP113 T02580233 52009 IEM_DS3505
ZGGG,1984-09-16 15:00,ZGGG 161500Z AUTO 00000KT 7SM 24/23 RMK SLP120 T02410228 52007 IEM_DS3505
ZGGG,1984-09-16 18:00,ZGGG 161800Z AUTO 00000KT 5SM 24/23 RMK SLP113 T02380227 40304//// 57007 IEM_DS3505
ZGGG,1984-09-16 21:00,ZGGG 162100Z AUTO 00000KT 2 1/2SM 24/23 RMK SLP109 T02420227 57004 IEM_DS3505
ZGGG,1984-09-17 00:00,ZGGG 170000Z AUTO 09002KT 5SM 25/23 RMK SLP119 T02470232 52010 IEM_DS3505
ZGGG,1984-09-17 03:00,ZGGG 170300Z AUTO 09002KT 5SM 25/23 RMK T02470232 52010 IEM_DS3505
ZGGG,1984-09-17 06:00,ZGGG 170600Z AUTO 14002KT 3SM 30/23 RMK SLP095 T03000229 4////0233 57026 IEM_DS3505
ZGGG,1984-09-17 09:00,ZGGG 170900Z AUTO 07004KT 3SM 30/23 RMK SLP076 T02950227 57019 IEM_DS3505
ZGGG,1984-09-17 12:00,ZGGG 171200Z AUTO 00000KT 2 1/2SM 26/24 RMK SLP093 T02610242 52011 IEM_DS3505
ZGGG,1984-09-17 15:00,ZGGG 171500Z AUTO 00000KT 2 1/2SM 26/24 RMK SLP104 T02550243 52011 IEM_DS3505
ZGGG,1984-09-17 18:00,ZGGG 171800Z AUTO 00000KT 2 1/2SM 25/24 RMK 60001 SLP094 T02530244 40309//// 57010 IEM_DS3505
ZGGG,1984-09-17 21:00,ZGGG 172100Z AUTO 00000KT 2 1/2SM 25/24 RMK SLP091 T02500243 57003 IEM_DS3505
ZGGG,1984-09-18 00:00,ZGGG 180000Z AUTO 00000KT 1SM 25/25 RMK 60008 SLP098 T02540248 52007 IEM_DS3505
ZGGG,1984-09-18 03:00,ZGGG 180300Z AUTO 22004KT 2 1/2SM 29/25 A2980 RMK SLP100 T02900250 52002 IEM_DS3505
ZGGG,1984-09-18 04:00,ZGGG 180400Z AUTO 25010KT 4SM 29/24 A2980 RMK T02900240 IEM_DS3505
ZGGG,1984-09-18 06:00,ZGGG 180600Z AUTO 07014KT 4SM 26/23 A2974 RMK 60001 SLP086 T02650234 4////0246 57014 IEM_DS3505
ZGGG,1984-09-18 07:00,ZGGG 180700Z AUTO 15010KT 7SM 26/22 A2977 RMK T02600220 IEM_DS3505
ZGGG,1984-09-18 08:00,ZGGG 180800Z AUTO 15006KT 6SM 28/21 A2971 RMK T02800210 IEM_DS3505
ZGGG,1984-09-18 09:00,ZGGG 180900Z AUTO 11004KT 2 1/2SM 26/24 A2974 RMK SLP087 T02550239 52001 IEM_DS3505
ZGGG,1984-09-18 10:00,ZGGG 181000Z AUTO 26012KT 2 1/2SM 25/21 A2977 RMK T02500210 IEM_DS3505
ZGGG,1984-09-18 11:00,ZGGG 181100Z AUTO 16006KT 5SM 23/22 A2980 RMK T02300220 IEM_DS3505
ZGGG,1984-09-18 12:00,ZGGG 181200Z AUTO 00000KT 2 1/2SM 23/22 RMK 60079 SLP097 T02310225 52010 IEM_DS3505
ZGGG,1984-09-18 15:00,ZGGG 181500Z AUTO 00000KT 2SM 23/23 RMK SLP108 T02300226 52011 IEM_DS3505
ZGGG,1984-09-18 18:00,ZGGG 181800Z AUTO 32002KT 2 1/2SM 23/22 RMK 60008 SLP106 T02260221 40298//// 57002 IEM_DS3505
ZGGG,1984-09-18 21:00,ZGGG 182100Z AUTO 00000KT 2 1/2SM 22/22 RMK SLP097 T02240219 57009 IEM_DS3505
ZGGG,1984-09-19 00:00,ZGGG 190000Z AUTO 07002KT 9SM 24/22 RMK SLP118 T02450219 52021 IEM_DS3505
ZGGG,1984-09-19 03:00,ZGGG 190300Z AUTO 34006KT 11SM 28/22 RMK SLP125 T02820225 52007 IEM_DS3505
ZGGG,1984-09-19 06:00,ZGGG 190600Z AUTO 34004KT 10SM 30/22 RMK SLP103 T02960223 4////0218 57022 IEM_DS3505
ZGGG,1984-09-19 09:00,ZGGG 190900Z AUTO 32004KT 9SM 29/22 RMK SLP091 T02860220 57012 IEM_DS3505
ZGGG,1984-09-19 12:00,ZGGG 191200Z AUTO 00000KT 6SM 26/24 RMK SLP110 T02560237 52019 IEM_DS3505
ZGGG,1984-09-19 15:00,ZGGG 191500Z AUTO 00000KT 6SM 25/22 RMK SLP117 T02480223 52007 IEM_DS3505
ZGGG,1984-09-19 18:00,ZGGG 191800Z AUTO 00000KT 4SM 23/23 RMK SLP115 T02340226 40308//// 57002 IEM_DS3505
ZGGG,1984-09-19 21:00,ZGGG 192100Z AUTO 00000KT 4SM 24/23 RMK SLP116 T02350227 52001 IEM_DS3505
ZGGG,1984-09-20 00:00,ZGGG 200000Z AUTO 04004KT 7SM 25/23 RMK SLP138 T02530227 52022 IEM_DS3505
ZGGG,1984-09-20 03:00,ZGGG 200300Z AUTO 22004KT 7SM 29/24 RMK SLP144 T02910239 52006 IEM_DS3505
ZGGG,1984-09-20 06:00,ZGGG 200600Z AUTO 20004KT 9SM 30/23 RMK SLP123 T02970230 4////0230 57021 IEM_DS3505
ZGGG,1984-09-20 09:00,ZGGG 200900Z AUTO 00000KT 9SM 30/23 RMK SLP110 T02970232 57013 IEM_DS3505
ZGGG,1984-09-20 12:00,ZGGG 201200Z AUTO 00000KT 6SM 26/24 RMK SLP131 T02650243 52021 IEM_DS3505
ZGGG,1984-09-20 15:00,ZGGG 201500Z AUTO 07004KT 5SM 25/24 RMK SLP142 T02540242 52011 IEM_DS3505
ZGGG,1984-09-20 18:00,ZGGG 201800Z AUTO 09004KT 7SM 24/23 RMK SLP143 T02420226 40308//// 52001 IEM_DS3505
ZGGG,1984-09-20 21:00,ZGGG 202100Z AUTO 00000KT 7SM 23/22 RMK SLP138 T02340222 57005 IEM_DS3505
ZGGG,1984-09-21 00:00,ZGGG 210000Z AUTO 09002KT 8SM 27/23 RMK SLP154 T02690227 52016 IEM_DS3505
ZGGG,1984-09-21 03:00,ZGGG 210300Z AUTO 16004KT 6SM 30/24 RMK SLP159 T02980236 52005 IEM_DS3505
ZGGG,1984-09-21 06:00,ZGGG 210600Z AUTO 00000KT 9SM 30/24 RMK SLP132 T03010237 4////0231 57027 IEM_DS3505
ZGGG,1984-09-21 09:00,ZGGG 210900Z AUTO 00000KT 7SM 27/25 RMK SLP122 T02730252 57010 IEM_DS3505
ZGGG,1984-09-21 12:00,ZGGG 211200Z AUTO 00000KT 4SM 26/25 RMK 60016 SLP131 T02600251 52009 IEM_DS3505
ZGGG,1984-09-21 15:00,ZGGG 211500Z AUTO 00000KT 4SM 25/25 RMK SLP140 T02520246 52009 IEM_DS3505
ZGGG,1984-09-21 18:00,ZGGG 211800Z AUTO 00000KT 2 1/2SM 24/23 RMK 60047 SLP135 T02350227 40305//// 57005 IEM_DS3505
ZGGG,1984-09-21 21:00,ZGGG 212100Z AUTO 00000KT 2 1/2SM 24/24 RMK SLP125 T02420236 57010 IEM_DS3505
ZGGG,1984-09-22 00:00,ZGGG 220000Z AUTO 00000KT 4SM 26/24 RMK 60000 SLP144 T02570239 52019 IEM_DS3505
ZGGG,1984-09-22 02:00,ZGGG 220200Z AUTO 00000KT 3SM 26/25 A2994 RMK T02600250 IEM_DS3505
ZGGG,1984-09-22 03:00,ZGGG 220300Z AUTO 00000KT 2SM 27/24 A2994 RMK SLP145 T02700245 52001 IEM_DS3505
ZGGG,1984-09-22 04:00,ZGGG 220400Z AUTO 00000KT 3SM 29/24 A2991 RMK T02900240 IEM_DS3505
ZGGG,1984-09-22 05:00,ZGGG 220500Z AUTO 00000KT 3SM 30/26 A2988 RMK T03000260 IEM_DS3505
ZGGG,1984-09-22 06:00,ZGGG 220600Z AUTO 22004KT 2 1/2SM 31/24 A2985 RMK SLP111 T03060242 4////0226 57034 IEM_DS3505
ZGGG,1984-09-22 08:00,ZGGG 220800Z AUTO 12006KT 7SM 30/22 A2980 RMK T03000220 IEM_DS3505
ZGGG,1984-09-22 09:00,ZGGG 220900Z AUTO 00000KT 7SM 30/23 A2980 RMK SLP092 T02970232 57019 IEM_DS3505
ZGGG,1984-09-22 11:00,ZGGG 221100Z AUTO 00000KT 7SM 29/24 A2977 RMK T02900240 IEM_DS3505
ZGGG,1984-09-22 12:00,ZGGG 221200Z AUTO 00000KT 2 1/2SM 27/26 RMK 60020 SLP108 T02660259 52016 IEM_DS3505
ZGGG,1984-09-22 15:00,ZGGG 221500Z AUTO 00000KT 4SM 26/24 RMK SLP120 T02580236 52012 IEM_DS3505
ZGGG,1984-09-22 18:00,ZGGG 221800Z AUTO 04002KT 4SM 25/24 RMK SLP109 T02520239 40312//// 57011 IEM_DS3505
ZGGG,1984-09-22 21:00,ZGGG 222100Z AUTO 00000KT 4SM 25/24 RMK SLP097 T02500243 57012 IEM_DS3505
ZGGG,1984-09-23 00:00,ZGGG 230000Z AUTO 00000KT 4SM 26/24 RMK SLP114 T02570239 52017 IEM_DS3505
ZGGG,1984-09-23 03:00,ZGGG 230300Z AUTO 00000KT 7SM 30/24 RMK SLP112 T02960241 57002 IEM_DS3505
ZGGG,1984-09-23 06:00,ZGGG 230600Z AUTO 00000KT 7SM 30/24 RMK SLP083 T03050238 4////0245 57029 IEM_DS3505
ZGGG,1984-09-23 09:00,ZGGG 230900Z AUTO 00000KT 4SM 30/25 RMK SLP068 T03030249 57015 IEM_DS3505
ZGGG,1984-09-23 12:00,ZGGG 231200Z AUTO 09002KT 6SM 24/21 RMK 60001 SLP091 T02370213 52023 IEM_DS3505
ZGGG,1984-09-23 15:00,ZGGG 231500Z AUTO 00000KT 5SM 24/23 RMK SLP094 T02430228 52003 IEM_DS3505
ZGGG,1984-09-23 18:00,ZGGG 231800Z AUTO 00000KT 5SM 24/23 RMK 60002 SLP090 T02350226 40310//// 57004 IEM_DS3505
ZGGG,1984-09-23 21:00,ZGGG 232100Z AUTO 00000KT 4SM 23/22 RMK SLP083 T02300224 57007 IEM_DS3505
ZGGG,1984-09-24 00:00,ZGGG 240000Z AUTO 00000KT 7SM 25/22 RMK SLP099 T02480224 52016 IEM_DS3505
ZGGG,1984-09-24 03:00,ZGGG 240300Z AUTO 29006KT 9SM 29/24 RMK SLP102 T02880235 52003 IEM_DS3505
ZGGG,1984-09-24 06:00,ZGGG 240600Z AUTO 04004KT 9SM 31/23 RMK SLP076 T03060230 4////0225 57026 IEM_DS3505
ZGGG,1984-09-24 09:00,ZGGG 240900Z AUTO 00000KT 7SM 31/23 RMK SLP064 T03120227 57012 IEM_DS3505
ZGGG,1984-09-24 12:00,ZGGG 241200Z AUTO 00000KT 7SM 27/25 RMK SLP086 T02700249 52012 IEM_DS3505
ZGGG,1984-09-24 15:00,ZGGG 241500Z AUTO 00000KT 7SM 26/25 RMK SLP092 T02610247 52016 IEM_DS3505
ZGGG,1984-09-24 18:00,ZGGG 241800Z AUTO 00000KT 5SM 25/24 RMK SLP089 T02540244 40316//// 57003 IEM_DS3505
ZGGG,1984-09-24 21:00,ZGGG 242100Z AUTO 00000KT 2 1/2SM 25/24 RMK SLP089 T02520243 54000 IEM_DS3505
ZGGG,1984-09-24 23:00,ZGGG 242300Z AUTO 03004KT 3SM 25/24 A2977 RMK T02500240 IEM_DS3505
ZGGG,1984-09-25 00:00,ZGGG 250000Z AUTO 00000KT 7SM 26/24 A2980 RMK SLP102 T02640239 52013 IEM_DS3505
ZGGG,1984-09-25 01:00,ZGGG 250100Z AUTO 33010KT 6SM 28/25 A2980 RMK T02800250 IEM_DS3505
ZGGG,1984-09-25 02:00,ZGGG 250200Z AUTO 34008KT 7SM 30/25 A2980 RMK T03000250 IEM_DS3505
ZGGG,1984-09-25 03:00,ZGGG 250300Z AUTO 14004KT 7SM 30/24 A2980 RMK SLP106 T02990236 52004 IEM_DS3505
ZGGG,1984-09-25 04:00,ZGGG 250400Z AUTO 03008KT 7SM 30/24 A2980 RMK T03000240 IEM_DS3505
ZGGG,1984-09-25 05:00,ZGGG 250500Z AUTO 00000KT 7SM 31/25 A2977 RMK T03100250 IEM_DS3505
ZGGG,1984-09-25 06:00,ZGGG 250600Z AUTO 32004KT 7SM 29/24 RMK SLP086 T02910238 4////0248 57020 IEM_DS3505
ZGGG,1984-09-25 07:00,ZGGG 250700Z AUTO 00000KT 7SM 27/25 A2974 RMK T02700250 IEM_DS3505
ZGGG,1984-09-25 08:00,ZGGG 250800Z AUTO 00000KT 7SM 33/25 A2971 RMK T03300250 IEM_DS3505
ZGGG,1984-09-25 09:00,ZGGG 250900Z AUTO 34016KT 19SM 28/26 A2971 RMK SLP035 T02850255 57010 IEM_DS3505
ZGGG,1984-09-25 12:00,ZGGG 251200Z AUTO 32008KT 2 1/2SM 22/21 RMK 60130 SLP099 T02240212 52027 IEM_DS3505
ZGGG,1984-09-25 15:00,ZGGG 251500Z AUTO 09004KT 7SM 23/22 RMK SLP116 T02330216 52017 IEM_DS3505
ZGGG,1984-09-25 18:00,ZGGG 251800Z AUTO 00000KT 5SM 23/22 RMK 60051 SLP098 T02300218 40317//// 57018 IEM_DS3505
ZGGG,1984-09-25 21:00,ZGGG 252100Z AUTO 00000KT 5SM 24/22 RMK SLP094 T02370216 57004 IEM_DS3505
ZGGG,1984-09-25 22:00,ZGGG 252200Z AUTO 01008KT 6SM 24/22 A2977 RMK T02400220 IEM_DS3505
ZGGG,1984-09-25 23:00,ZGGG 252300Z AUTO 01008KT 6SM 24/23 A2980 RMK T02400230 IEM_DS3505
ZGGG,1984-09-26 00:00,ZGGG 260000Z AUTO 00000KT 4SM 24/23 A2980 RMK 60000 70181 SLP107 T02410228 52013 IEM_DS3505
ZGGG,1984-09-26 01:00,ZGGG 260100Z AUTO 02004KT 7SM 25/23 A2983 RMK T02500230 IEM_DS3505
ZGGG,1984-09-26 02:00,ZGGG 260200Z AUTO 02008KT 26/23 A2983 RMK T02600230 IEM_DS3505
ZGGG,1984-09-26 03:00,ZGGG 260300Z AUTO 09004KT 7SM 28/23 A2983 RMK SLP111 T02810227 52004 IEM_DS3505
ZGGG,1984-09-26 06:00,ZGGG 260600Z AUTO 00000KT 7SM 27/24 RMK SLP092 T02680243 4////0219 57019 IEM_DS3505
ZGGG,1984-09-26 09:00,ZGGG 260900Z AUTO 00000KT 7SM 27/24 RMK SLP079 T02660238 57013 IEM_DS3505
ZGGG,1984-09-26 12:00,ZGGG 261200Z AUTO 02002KT 7SM 26/24 RMK SLP093 T02600243 52014 IEM_DS3505
ZGGG,1984-09-26 15:00,ZGGG 261500Z AUTO 00000KT 6SM 25/24 RMK SLP105 T02530238 52012 IEM_DS3505
ZGGG,1984-09-26 18:00,ZGGG 261800Z AUTO 00000KT 4SM 25/24 RMK SLP098 T02480239 40294//// 57007 IEM_DS3505
ZGGG,1984-09-26 21:00,ZGGG 262100Z AUTO 02002KT 5SM 24/23 RMK SLP095 T02430231 57003 IEM_DS3505
ZGGG,1984-09-27 00:00,ZGGG 270000Z AUTO 02002KT 9SM 26/23 RMK SLP109 T02570230 52014 IEM_DS3505
ZGGG,1984-09-27 06:00,ZGGG 270600Z AUTO 11006KT 7SM 30/23 RMK SLP093 T02980230 4////0238 57023 IEM_DS3505
ZGGG,1984-09-27 09:00,ZGGG 270900Z AUTO 00000KT 12SM 26/24 RMK SLP090 T02640242 57003 IEM_DS3505
ZGGG,1984-09-27 11:00,ZGGG 271100Z AUTO 00000KT 4SM 26/24 RMK 60002 SLP105 T02560240 52015 IEM_DS3505
ZGGG,1984-09-27 12:00,ZGGG 271200Z AUTO 00000KT 4SM 26/24 RMK 60002 SLP105 T02560240 52015 IEM_DS3505
ZGGG,1984-09-27 15:00,ZGGG 271500Z AUTO 00000KT 4SM 25/24 RMK SLP117 T02470238 52012 IEM_DS3505
ZGGG,1984-09-27 18:00,ZGGG 271800Z AUTO 00000KT 2 1/2SM 24/23 RMK SLP113 T02420233 40314//// 57004 IEM_DS3505
ZGGG,1984-09-27 21:00,ZGGG 272100Z AUTO 00000KT 4SM 24/23 RMK SLP105 T02440232 57008 IEM_DS3505
ZGGG,1984-09-28 00:00,ZGGG 280000Z AUTO 07002KT 7SM 26/23 RMK SLP124 T02650231 52019 IEM_DS3505
ZGGG,1984-09-28 03:00,ZGGG 280300Z AUTO 36004KT 9SM 30/24 RMK SLP120 T03000235 57004 IEM_DS3505
ZGGG,1984-09-28 06:00,ZGGG 280600Z AUTO 00000KT 7SM 31/23 RMK SLP096 T03060228 4////0237 57024 IEM_DS3505
ZGGG,1984-09-28 09:00,ZGGG 280900Z AUTO 36006KT 7SM 31/24 RMK SLP088 T03080243 57008 IEM_DS3505
ZGGG,1984-09-28 12:00,ZGGG 281200Z AUTO 00000KT 4SM 26/24 RMK 60012 SLP102 T02570245 52014 IEM_DS3505
ZGGG,1984-09-28 15:00,ZGGG 281500Z AUTO 00000KT 2 1/2SM 25/24 RMK SLP118 T02530245 52016 IEM_DS3505
ZGGG,1984-09-28 18:00,ZGGG 281800Z AUTO 00000KT 2SM 25/24 RMK SLP109 T02470241 40320//// 57009 IEM_DS3505
ZGGG,1984-09-28 21:00,ZGGG 282100Z AUTO 00000KT 3SM 25/24 RMK SLP105 T02470237 57004 IEM_DS3505
ZGGG,1984-09-29 00:00,ZGGG 290000Z AUTO 00000KT 6SM 26/23 A2985 RMK SLP122 T02590234 52017 IEM_DS3505
ZGGG,1984-09-29 01:00,ZGGG 290100Z AUTO 02010KT 6SM 27/24 A2985 RMK T02700240 IEM_DS3505
ZGGG,1984-09-29 02:00,ZGGG 290200Z AUTO 03008KT 7SM 28/24 A2988 RMK T02800240 IEM_DS3505
ZGGG,1984-09-29 03:00,ZGGG 290300Z AUTO 00000KT 6SM 30/24 A2985 RMK SLP123 T03000237 52001 IEM_DS3505
ZGGG,1984-09-29 04:00,ZGGG 290400Z AUTO 01008KT 7SM 30/24 A2985 RMK T03000240 IEM_DS3505
ZGGG,1984-09-29 05:00,ZGGG 290500Z AUTO 03006KT 7SM 31/23 A2983 RMK T03100230 IEM_DS3505
ZGGG,1984-09-29 06:00,ZGGG 290600Z AUTO 20004KT 9SM 32/21 RMK SLP104 T03200212 4////0239 57019 IEM_DS3505
ZGGG,1984-09-29 09:00,ZGGG 290900Z AUTO 00000KT 7SM 31/24 RMK SLP097 T03130237 57007 IEM_DS3505
ZGGG,1984-09-29 12:00,ZGGG 291200Z AUTO 00000KT 5SM 27/25 RMK SLP099 T02700247 52002 IEM_DS3505
ZGGG,1984-09-29 15:00,ZGGG 291500Z AUTO 00000KT 2 1/2SM 26/24 RMK SLP110 T02570241 52011 IEM_DS3505
ZGGG,1984-09-29 18:00,ZGGG 291800Z AUTO 00000KT 2 1/2SM 25/24 RMK T02470238 40324//// 57005 IEM_DS3505
ZGGG,1984-09-29 21:00,ZGGG 292100Z AUTO 00000KT 2 1/2SM 24/24 RMK SLP103 T02440238 57002 IEM_DS3505
ZGGG,1984-09-30 00:00,ZGGG 300000Z AUTO 09002KT 2 1/2SM 25/24 RMK SLP125 T02520239 52022 IEM_DS3505
ZGGG,1984-09-30 03:00,ZGGG 300300Z AUTO 14004KT 3SM 29/24 RMK SLP130 T02900240 52005 IEM_DS3505
ZGGG,1984-09-30 06:00,ZGGG 300600Z AUTO 11004KT 7SM 31/23 RMK SLP104 T03120231 4////0237 57026 IEM_DS3505
ZGGG,1984-09-30 09:00,ZGGG 300900Z AUTO 16008KT 9SM 30/23 RMK SLP097 T03020230 57007 IEM_DS3505
ZGGG,1984-09-30 12:00,ZGGG 301200Z AUTO 00000KT 7SM 27/24 RMK SLP105 T02710238 IEM_DS3505
ZGGG,1984-09-30 15:00,ZGGG 301500Z AUTO 00000KT 6SM 26/24 RMK SLP115 T02600238 52010 IEM_DS3505
ZGGG,1984-09-30 18:00,ZGGG 301800Z AUTO 00000KT 6SM 25/24 RMK SLP116 T02460237 40320//// 52001 IEM_DS3505
ZGGG,1984-09-30 21:00,ZGGG 302100Z AUTO 00000KT 6SM 24/23 RMK SLP118 T02370227 52002 IEM_DS3505
ZGGG,1984-10-01 00:00,ZGGG 010000Z AUTO 09002KT 6SM 26/23 RMK SLP141 T02570234 52023 IEM_DS3505
ZGGG,1984-10-01 03:00,ZGGG 010300Z AUTO 07006KT 7SM 30/23 RMK SLP141 T02950231 54000 IEM_DS3505
ZGGG,1984-10-01 06:00,ZGGG 010600Z AUTO 11004KT 9SM 31/22 RMK SLP118 T03070223 4////0228 57023 IEM_DS3505
ZGGG,1984-10-01 09:00,ZGGG 010900Z AUTO 14002KT 10SM 31/22 RMK SLP111 T03100218 57007 IEM_DS3505
ZGGG,1984-10-01 12:00,ZGGG 011200Z AUTO 18004KT 7SM 28/23 RMK SLP122 T02820234 52011 IEM_DS3505
ZGGG,1984-10-01 15:00,ZGGG 011500Z AUTO 18002KT 6SM 26/24 RMK SLP136 T02620241 52014 IEM_DS3505
ZGGG,1984-10-01 18:00,ZGGG 011800Z AUTO 00000KT 4SM 25/24 RMK SLP127 T02510242 40319//// 57009 IEM_DS3505
ZGGG,1984-10-01 21:00,ZGGG 012100Z AUTO 00000KT 2 1/2SM 24/24 RMK SLP132 T02410237 52005 IEM_DS3505
ZGGG,1984-10-02 00:00,ZGGG 020000Z AUTO 00000KT 2 1/2SM 25/24 RMK SLP158 T02510242 52026 IEM_DS3505
ZGGG,1984-10-02 03:00,ZGGG 020300Z AUTO 18002KT 7SM 30/23 A2994 RMK SLP157 T03000232 57001 IEM_DS3505
ZGGG,1984-10-02 04:00,ZGGG 020400Z AUTO 01004KT 7SM 30/24 A2994 RMK T03000240 IEM_DS3505
ZGGG,1984-10-02 05:00,ZGGG 020500Z AUTO 32002KT 7SM 31/24 A2991 RMK T03100240 IEM_DS3505
ZGGG,1984-10-02 06:00,ZGGG 020600Z AUTO 14006KT 6SM 32/21 A2988 RMK SLP128 T03240209 4////0239 57029 IEM_DS3505
ZGGG,1984-10-02 07:00,ZGGG 020700Z AUTO 28006KT 4SM 31/24 A2985 RMK T03100240 IEM_DS3505
ZGGG,1984-10-02 08:00,ZGGG 020800Z AUTO 00000KT 4SM 31/23 A2985 RMK T03100230 IEM_DS3505
ZGGG,1984-10-02 09:00,ZGGG 020900Z AUTO 18004KT 7SM 32/21 RMK SLP117 T03160213 57011 IEM_DS3505
ZGGG,1984-10-02 12:00,ZGGG 021200Z AUTO 00000KT 6SM 28/24 RMK SLP129 T02820236 52012 IEM_DS3505
ZGGG,1984-10-02 15:00,ZGGG 021500Z AUTO 00000KT 6SM 26/24 RMK SLP134 T02580239 52005 IEM_DS3505
ZGGG,1984-10-02 18:00,ZGGG 021800Z AUTO 00000KT 5SM 25/24 RMK SLP129 T02480238 40327//// 57005 IEM_DS3505
ZGGG,1984-10-02 21:00,ZGGG 022100Z AUTO 00000KT 5SM 24/24 RMK SLP132 T02410235 52003 IEM_DS3505
ZGGG,1984-10-03 00:00,ZGGG 030000Z AUTO 00000KT 4SM 26/24 RMK SLP146 T02640238 52014 IEM_DS3505
ZGGG,1984-10-03 03:00,ZGGG 030300Z AUTO 14004KT 6SM 31/23 RMK SLP147 T03060234 52001 IEM_DS3505
ZGGG,1984-10-03 06:00,ZGGG 030600Z AUTO 00000KT 2 1/2SM 33/22 RMK SLP119 T03290220 4////0238 57028 IEM_DS3505
ZGGG,1984-10-03 09:00,ZGGG 030900Z AUTO 36002KT 3SM 31/24 RMK SLP111 T03100243 57008 IEM_DS3505
ZGGG,1984-10-03 12:00,ZGGG 031200Z AUTO 00000KT 4SM 28/25 RMK SLP126 T02810250 52015 IEM_DS3505
ZGGG,1984-10-03 15:00,ZGGG 031500Z AUTO 00000KT 2 1/2SM 26/25 RMK SLP138 T02600247 52012 IEM_DS3505
ZGGG,1984-10-03 18:00,ZGGG 031800Z AUTO 00000KT 2 1/2SM 25/24 RMK SLP133 T02500237 40332//// 57005 IEM_DS3505
ZGGG,1984-10-03 21:00,ZGGG 032100Z AUTO 36006KT 2 1/2SM 25/22 RMK SLP136 T02500217 52003 IEM_DS3505
ZGGG,1984-10-04 00:00,ZGGG 040000Z AUTO 36004KT 7SM 24/20 RMK SLP154 T02410198 52018 IEM_DS3505
ZGGG,1984-10-04 03:00,ZGGG 040300Z AUTO 34004KT 9SM 27/20 RMK SLP166 T02740205 52012 IEM_DS3505
ZGGG,1984-10-04 06:00,ZGGG 040600Z AUTO 36004KT 9SM 29/21 RMK SLP140 T02910212 4////0237 57026 IEM_DS3505
ZGGG,1984-10-04 09:00,ZGGG 040900Z AUTO 36008KT 9SM 26/20 RMK SLP138 T02580195 57002 IEM_DS3505
ZGGG,1984-10-04 12:00,ZGGG 041200Z AUTO 36006KT 7SM 23/18 RMK SLP153 T02310184 52015 IEM_DS3505
ZGGG,1984-10-04 15:00,ZGGG 041500Z AUTO 36008KT 7SM 22/17 RMK SLP166 T02250168 52013 IEM_DS3505
ZGGG,1984-10-04 18:00,ZGGG 041800Z AUTO 36004KT 9SM 22/16 RMK SLP158 T02210164 40295//// 57008 IEM_DS3505
ZGGG,1984-10-04 21:00,ZGGG 042100Z AUTO 36004KT 8SM 22/16 RMK SLP155 T02150159 57003 IEM_DS3505
ZGGG,1984-10-05 00:00,ZGGG 050000Z AUTO 32004KT 9SM 21/16 RMK 60000 SLP168 T02100161 52013 IEM_DS3505
ZGGG,1984-10-05 03:00,ZGGG 050300Z AUTO 36006KT 9SM 23/17 RMK SLP172 T02280167 52004 IEM_DS3505
ZGGG,1984-10-05 06:00,ZGGG 050600Z AUTO 29002KT 10SM 26/18 RMK SLP146 T02550180 4////0202 57026 IEM_DS3505
ZGGG,1984-10-05 09:00,ZGGG 050900Z AUTO 02008KT 9SM 24/18 RMK SLP138 T02380181 57008 IEM_DS3505
ZGGG,1984-10-05 12:00,ZGGG 051200Z AUTO 36006KT 7SM 22/17 RMK SLP156 T02250168 52018 IEM_DS3505
ZGGG,1984-10-05 15:00,ZGGG 051500Z AUTO 36006KT 7SM 22/17 RMK SLP161 T02170167 52005 IEM_DS3505
ZGGG,1984-10-05 18:00,ZGGG 051800Z AUTO 36006KT 7SM 21/16 RMK SLP154 T02130160 40260//// 57007 IEM_DS3505
ZGGG,1984-10-05 21:00,ZGGG 052100Z AUTO 34004KT 6SM 20/10 RMK SLP153 T02040101 57001 IEM_DS3505
ZGGG,1984-10-06 00:00,ZGGG 060000Z AUTO 36006KT 7SM 20/15 RMK SLP171 T02030151 52018 IEM_DS3505
ZGGG,1984-10-06 02:00,ZGGG 060200Z AUTO 36014KT 6SM 20/16 A3003 RMK T02000160 IEM_DS3505
ZGGG,1984-10-06 03:00,ZGGG 060300Z AUTO 36006KT 9SM 21/15 A3006 RMK SLP183 T02140147 52012 IEM_DS3505
ZGGG,1984-10-06 04:00,ZGGG 060400Z AUTO 01012KT 6SM 22/17 A3000 RMK T02200170 IEM_DS3505
ZGGG,1984-10-06 05:00,ZGGG 060500Z AUTO 02012KT 6SM 23/16 A2997 RMK T02300160 IEM_DS3505
ZGGG,1984-10-06 06:00,ZGGG 060600Z AUTO 36008KT 11SM 25/17 A2994 RMK SLP152 T02510168 4////0200 57031 IEM_DS3505
ZGGG,1984-10-06 07:00,ZGGG 060700Z AUTO 34008KT 6SM 25/17 A2991 RMK T02500170 IEM_DS3505
ZGGG,1984-10-06 08:00,ZGGG 060800Z AUTO 36010KT 6SM 24/17 A2991 RMK T02400170 IEM_DS3505
ZGGG,1984-10-06 09:00,ZGGG 060900Z AUTO 34006KT 9SM 24/17 A2991 RMK SLP138 T02380169 57014 IEM_DS3505
ZGGG,1984-10-06 10:00,ZGGG 061000Z AUTO 36014KT 6SM 22/16 A2994 RMK T02200160 IEM_DS3505
ZGGG,1984-10-06 12:00,ZGGG 061200Z AUTO 32004KT 7SM 21/15 RMK SLP153 T02110153 52015 IEM_DS3505
ZGGG,1984-10-06 15:00,ZGGG 061500Z AUTO 36004KT 7SM 20/15 RMK SLP162 T02050153 52009 IEM_DS3505
ZGGG,1984-10-06 18:00,ZGGG 061800Z AUTO 36006KT 7SM 20/14 RMK SLP154 T01960143 57001 IEM_DS3505
ZGGG,1984-10-06 23:00,ZGGG 062300Z AUTO 02008KT 6SM 19/16 A2997 RMK T01900160 IEM_DS3505
ZGGG,1984-10-07 00:00,ZGGG 070000Z AUTO 36006KT 9SM 20/15 A2997 RMK SLP161 T01980148 52007 IEM_DS3505
ZGGG,1984-10-07 01:00,ZGGG 070100Z AUTO 02008KT 6SM 21/15 A2997 RMK T02100150 IEM_DS3505
ZGGG,1984-10-07 02:00,ZGGG 070200Z AUTO 35012KT 6SM 22/15 A3000 RMK T02200150 IEM_DS3505
ZGGG,1984-10-07 03:00,ZGGG 070300Z AUTO 36006KT 9SM 24/16 A3000 RMK SLP164 T02430155 52003 IEM_DS3505
ZGGG,1984-10-07 06:00,ZGGG 070600Z AUTO 04006KT 9SM 27/17 RMK SLP137 T02680173 4////0190 57027 IEM_DS3505
ZGGG,1984-10-07 09:00,ZGGG 070900Z AUTO 36006KT 9SM 27/18 RMK SLP128 T02660183 57009 IEM_DS3505
ZGGG,1984-10-07 12:00,ZGGG 071200Z AUTO 00000KT 8SM 24/19 RMK SLP145 T02360191 52017 IEM_DS3505
ZGGG,1984-10-07 15:00,ZGGG 071500Z AUTO 34002KT 8SM 23/18 RMK SLP150 T02320176 52005 IEM_DS3505
ZGGG,1984-10-07 18:00,ZGGG 071800Z AUTO 02002KT 7SM 23/18 RMK SLP144 T02260176 40279//// 57006 IEM_DS3505
ZGGG,1984-10-07 21:00,ZGGG 072100Z AUTO 00000KT 7SM 22/19 RMK SLP138 T02210190 57006 IEM_DS3505
ZGGG,1984-10-08 00:00,ZGGG 080000Z AUTO 36002KT 10SM 23/18 RMK SLP155 T02270181 52017 IEM_DS3505
ZGGG,1984-10-08 03:00,ZGGG 080300Z AUTO 02002KT 9SM 25/19 RMK SLP161 T02540192 52006 IEM_DS3505
ZGGG,1984-10-08 04:00,ZGGG 080400Z AUTO 02004KT 7SM 26/19 A2994 RMK T02600190 IEM_DS3505
ZGGG,1984-10-08 05:00,ZGGG 080500Z AUTO 05006KT 6SM 27/20 A2991 RMK T02700200 IEM_DS3505
ZGGG,1984-10-08 06:00,ZGGG 080600Z AUTO 09004KT 9SM 28/20 A2988 RMK SLP133 T02830199 4////0220 57028 IEM_DS3505
ZGGG,1984-10-08 07:00,ZGGG 080700Z AUTO 32008KT 6SM 28/20 A2988 RMK T02800200 IEM_DS3505
ZGGG,1984-10-08 08:00,ZGGG 080800Z AUTO 33004KT 6SM 28/20 A2988 RMK T02800200 IEM_DS3505
ZGGG,1984-10-08 09:00,ZGGG 080900Z AUTO 00000KT 6SM 28/20 RMK SLP132 T02800200 57001 IEM_DS3505
ZGGG,1984-10-08 12:00,ZGGG 081200Z AUTO 09004KT 8SM 26/22 RMK SLP144 T02590216 52012 IEM_DS3505
ZGGG,1984-10-08 15:00,ZGGG 081500Z AUTO 00000KT 8SM 25/22 RMK SLP149 T02480215 52005 IEM_DS3505
ZGGG,1984-10-08 18:00,ZGGG 081800Z AUTO 00000KT 7SM 24/22 RMK SLP146 T02360218 40297//// 57003 IEM_DS3505
ZGGG,1984-10-08 21:00,ZGGG 082100Z AUTO 00000KT 6SM 23/22 RMK SLP145 T02290218 57001 IEM_DS3505
ZGGG,1984-10-09 00:00,ZGGG 090000Z AUTO 00000KT 6SM 24/22 RMK SLP159 T02360218 52014 IEM_DS3505
ZGGG,1984-10-09 03:00,ZGGG 090300Z AUTO 11002KT 6SM 28/22 RMK SLP163 T02760215 52004 IEM_DS3505
ZGGG,1984-10-09 06:00,ZGGG 090600Z AUTO 27002KT 4SM 28/22 RMK SLP140 T02810224 4////0227 57023 IEM_DS3505
ZGGG,1984-10-09 09:00,ZGGG 090900Z AUTO 02002KT 4SM 28/22 RMK SLP129 T02850219 57011 IEM_DS3505
ZGGG,1984-10-09 12:00,ZGGG 091200Z AUTO 00000KT 4SM 25/22 RMK SLP138 T02520224 52009 IEM_DS3505
ZGGG,1984-10-09 18:00,ZGGG 091800Z AUTO 00000KT 2 1/2SM 23/22 RMK SLP137 T02310219 40294//// 57003 IEM_DS3505
ZGGG,1984-10-09 21:00,ZGGG 092100Z AUTO 00000KT 2 1/2SM 24/21 RMK SLP131 T02350214 57006 IEM_DS3505
ZGGG,1984-10-10 00:00,ZGGG 100000Z AUTO 00000KT 7SM 25/22 RMK SLP147 T02480215 52016 IEM_DS3505
ZGGG,1984-10-10 03:00,ZGGG 100300Z AUTO 00000KT 9SM 29/22 RMK SLP147 T02940219 54000 IEM_DS3505
ZGGG,1984-10-10 06:00,ZGGG 100600Z AUTO 04004KT 7SM 30/22 RMK SLP114 T03020222 4////0230 57033 IEM_DS3505
ZGGG,1984-10-10 09:00,ZGGG 100900Z AUTO 04004KT 8SM 30/22 RMK SLP106 T02980219 57008 IEM_DS3505
ZGGG,1984-10-10 12:00,ZGGG 101200Z AUTO 36004KT 9SM 27/21 RMK SLP118 T02670209 52012 IEM_DS3505
ZGGG,1984-10-10 15:00,ZGGG 101500Z AUTO 04004KT 10SM 25/20 RMK SLP134 T02540201 52016 IEM_DS3505
ZGGG,1984-10-10 18:00,ZGGG 101800Z AUTO 00000KT 7SM 24/21 RMK SLP130 T02440209 40310//// 57004 IEM_DS3505
ZGGG,1984-10-10 21:00,ZGGG 102100Z AUTO 00000KT 7SM 24/21 RMK SLP129 T02410206 57001 IEM_DS3505
ZGGG,1984-10-11 00:00,ZGGG 110000Z AUTO 00000KT 7SM 24/20 RMK SLP139 T02440196 52010 IEM_DS3505
ZGGG,1984-10-11 03:00,ZGGG 110300Z AUTO 09006KT 7SM 28/21 RMK SLP142 T02780206 52003 IEM_DS3505
ZGGG,1984-10-11 06:00,ZGGG 110600Z AUTO 00000KT 9SM 27/21 RMK SLP129 T02700207 4////0237 57013 IEM_DS3505
ZGGG,1984-10-11 09:00,ZGGG 110900Z AUTO 02002KT 7SM 28/22 RMK SLP120 T02770216 57009 IEM_DS3505
ZGGG,1984-10-11 12:00,ZGGG 111200Z AUTO 00000KT 5SM 26/22 RMK SLP128 T02580221 52008 IEM_DS3505
ZGGG,1984-10-11 15:00,ZGGG 111500Z AUTO 00000KT 5SM 25/23 RMK SLP142 T02470231 52014 IEM_DS3505
ZGGG,1984-10-11 18:00,ZGGG 111800Z AUTO 00000KT 4SM 23/22 RMK SLP142 T02330223 40281//// 54000 IEM_DS3505
ZGGG,1984-10-11 21:00,ZGGG 112100Z AUTO 00000KT 3SM 22/22 RMK SLP140 T02240216 57002 IEM_DS3505
ZGGG,1984-10-12 00:00,ZGGG 120000Z AUTO 07002KT 6SM 25/22 RMK SLP151 T02500219 52011 IEM_DS3505
ZGGG,1984-10-12 03:00,ZGGG 120300Z AUTO 04004KT 10SM 28/22 RMK SLP153 T02820216 52002 IEM_DS3505
ZGGG,1984-10-12 06:00,ZGGG 120600Z AUTO 09004KT 11SM 31/21 RMK SLP126 T03090207 4////0223 57027 IEM_DS3505
ZGGG,1984-10-12 09:00,ZGGG 120900Z AUTO 04006KT 11SM 30/19 RMK SLP120 T03000192 57006 IEM_DS3505
ZGGG,1984-10-12 12:00,ZGGG 121200Z AUTO 02002KT 8SM 27/22 RMK SLP136 T02710216 52016 IEM_DS3505
ZGGG,1984-10-12 15:00,ZGGG 121500Z AUTO 36004KT 7SM 26/21 RMK SLP148 T02600209 52012 IEM_DS3505
ZGGG,1984-10-12 18:00,ZGGG 121800Z AUTO 36004KT 7SM 25/20 RMK SLP146 T02490197 40310//// 57002 IEM_DS3505
ZGGG,1984-10-12 21:00,ZGGG 122100Z AUTO 00000KT 7SM 23/20 RMK SLP146 T02340197 54000 IEM_DS3505
ZGGG,1984-10-13 00:00,ZGGG 130000Z AUTO 36002KT 9SM 23/19 RMK SLP161 T02320190 52015 IEM_DS3505
ZGGG,1984-10-13 02:00,ZGGG 130200Z AUTO 02010KT 7SM 26/19 A3000 RMK T02600190 IEM_DS3505
ZGGG,1984-10-13 03:00,ZGGG 130300Z AUTO 34008KT 9SM 26/19 A2997 RMK SLP164 T02650193 52003 IEM_DS3505
ZGGG,1984-10-13 04:00,ZGGG 130400Z AUTO 03010KT 7SM 27/20 A2997 RMK T02700200 IEM_DS3505
ZGGG,1984-10-13 05:00,ZGGG 130500Z AUTO 04008KT 7SM 27/20 A2994 RMK T02700200 IEM_DS3505
ZGGG,1984-10-13 06:00,ZGGG 130600Z AUTO 02004KT 9SM 27/20 A2994 RMK SLP147 T02740196 4////0222 57017 IEM_DS3505
ZGGG,1984-10-13 07:00,ZGGG 130700Z AUTO 04008KT 6SM 27/20 A2991 RMK T02700200 IEM_DS3505
ZGGG,1984-10-13 08:00,ZGGG 130800Z AUTO 04008KT 6SM 27/20 A2991 RMK T02700200 IEM_DS3505
ZGGG,1984-10-13 09:00,ZGGG 130900Z AUTO 02010KT 6SM 27/20 A2991 RMK T02700200 IEM_DS3505
ZGGG,1984-10-13 10:00,ZGGG 131000Z AUTO 03006KT 6SM 26/20 A2991 RMK T02600200 IEM_DS3505
ZGGG,1984-10-13 11:00,ZGGG 131100Z AUTO 03008KT 6SM 24/20 A2991 RMK T02400200 IEM_DS3505
ZGGG,1984-10-13 12:00,ZGGG 131200Z AUTO 36004KT 7SM 25/18 RMK SLP155 T02460185 52020 IEM_DS3505
ZGGG,1984-10-13 15:00,ZGGG 131500Z AUTO 00000KT 7SM 23/18 RMK SLP168 T02270183 52013 IEM_DS3505
ZGGG,1984-10-13 18:00,ZGGG 131800Z AUTO 02004KT 7SM 22/18 RMK SLP158 T02200175 40287//// 57010 IEM_DS3505
ZGGG,1984-10-13 21:00,ZGGG 132100Z AUTO 36006KT 7SM 22/17 RMK SLP157 T02190171 57001 IEM_DS3505
ZGGG,1984-10-14 00:00,ZGGG 140000Z AUTO 04004KT 5SM 23/18 RMK SLP171 T02300176 52014 IEM_DS3505
ZGGG,1984-10-14 03:00,ZGGG 140300Z AUTO 07006KT 6SM 27/19 RMK SLP180 T02660186 52009 IEM_DS3505
ZGGG,1984-10-14 06:00,ZGGG 140600Z AUTO 00000KT 8SM 26/19 RMK SLP158 T02650194 4////0215 57022 IEM_DS3505
ZGGG,1984-10-14 09:00,ZGGG 140900Z AUTO 07004KT 8SM 27/19 RMK SLP148 T02740188 57010 IEM_DS3505
ZGGG,1984-10-14 12:00,ZGGG 141200Z AUTO 00000KT 7SM 23/20 RMK SLP167 T02340202 52019 IEM_DS3505
ZGGG,1984-10-14 18:00,ZGGG 141800Z AUTO 00000KT 6SM 22/20 RMK SLP170 T02210201 40280//// 57005 IEM_DS3505
ZGGG,1984-10-14 21:00,ZGGG 142100Z AUTO 07002KT 7SM 22/20 RMK SLP160 T02150199 57010 IEM_DS3505
ZGGG,1984-10-15 00:00,ZGGG 150000Z AUTO 09004KT 7SM 24/19 RMK SLP178 T02360193 52018 IEM_DS3505
ZGGG,1984-10-15 03:00,ZGGG 150300Z AUTO 11004KT 8SM 27/20 RMK SLP181 T02700195 52003 IEM_DS3505
ZGGG,1984-10-15 06:00,ZGGG 150600Z AUTO 09004KT 7SM 28/20 RMK SLP156 T02820199 4////0212 57025 IEM_DS3505
ZGGG,1984-10-15 09:00,ZGGG 150900Z AUTO 20004KT 7SM 27/21 RMK SLP152 T02700212 57004 IEM_DS3505
ZGGG,1984-10-15 12:00,ZGGG 151200Z AUTO 00000KT 5SM 26/22 RMK SLP158 T02580218 52006 IEM_DS3505
ZGGG,1984-10-15 15:00,ZGGG 151500Z AUTO 00000KT 5SM 25/22 RMK SLP152 T02490224 57006 IEM_DS3505
ZGGG,1984-10-15 18:00,ZGGG 151800Z AUTO 00000KT 4SM 23/22 RMK SLP146 T02310219 40285//// 57006 IEM_DS3505
ZGGG,1984-10-15 21:00,ZGGG 152100Z AUTO 00000KT 4SM 22/21 RMK SLP141 T02210212 57005 IEM_DS3505
ZGGG,1984-10-16 00:00,ZGGG 160000Z AUTO 00000KT 2 1/2SM 24/22 RMK SLP154 T02400216 52013 IEM_DS3505
ZGGG,1984-10-16 01:00,ZGGG 160100Z AUTO 00000KT 2SM 26/22 A2994 RMK T02600220 IEM_DS3505
ZGGG,1984-10-16 02:00,ZGGG 160200Z AUTO 00000KT 2SM 27/22 A2994 RMK T02700220 IEM_DS3505
ZGGG,1984-10-16 03:00,ZGGG 160300Z AUTO 00000KT 1 1/4SM 27/22 A2994 RMK SLP148 T02740223 57006 IEM_DS3505
ZGGG,1984-10-16 04:00,ZGGG 160400Z AUTO 29006KT 4SM 29/23 A2991 RMK T02900230 IEM_DS3505
ZGGG,1984-10-16 05:00,ZGGG 160500Z AUTO 23006KT 5SM 30/21 A2988 RMK T03000210 IEM_DS3505
ZGGG,1984-10-16 06:00,ZGGG 160600Z AUTO 20004KT 6SM 30/21 A2985 RMK SLP118 T03000206 4////0222 57030 IEM_DS3505
ZGGG,1984-10-16 09:00,ZGGG 160900Z AUTO 20004KT 6SM 30/21 RMK SLP118 T03000206 57030 IEM_DS3505
ZGGG,1984-10-16 10:00,ZGGG 161000Z AUTO 00000KT 6SM 28/23 A2980 RMK T02800230 IEM_DS3505
ZGGG,1984-10-16 11:00,ZGGG 161100Z AUTO 13004KT 6SM 26/23 A2980 RMK T02600230 IEM_DS3505
ZGGG,1984-10-16 12:00,ZGGG 161200Z AUTO 00000KT 7SM 26/23 A2983 RMK SLP114 T02620226 52009 IEM_DS3505
ZGGG,1984-10-16 13:00,ZGGG 161300Z AUTO 13006KT 5SM 26/23 A2985 RMK T02600230 IEM_DS3505
ZGGG,1984-10-16 15:00,ZGGG 161500Z AUTO 00000KT 7SM 25/23 RMK SLP120 T02460230 52006 IEM_DS3505
ZGGG,1984-10-16 18:00,ZGGG 161800Z AUTO 00000KT 6SM 24/23 RMK SLP113 T02390226 40308//// 57007 IEM_DS3505
ZGGG,1984-10-16 21:00,ZGGG 162100Z AUTO 36004KT 6SM 24/20 RMK SLP113 T02360201 54000 IEM_DS3505
ZGGG,1984-10-17 00:00,ZGGG 170000Z AUTO 02006KT 8SM 23/18 RMK SLP122 T02310184 52009 IEM_DS3505
ZGGG,1984-10-17 03:00,ZGGG 170300Z AUTO 02004KT 9SM 23/18 RMK SLP127 T02320183 52005 IEM_DS3505
ZGGG,1984-10-17 06:00,ZGGG 170600Z AUTO 36006KT 9SM 23/18 RMK SLP116 T02340183 4////0229 57011 IEM_DS3505
ZGGG,1984-10-17 09:00,ZGGG 170900Z AUTO 34006KT 9SM 22/17 RMK SLP117 T02240174 52001 IEM_DS3505
ZGGG,1984-10-17 12:00,ZGGG 171200Z AUTO 36004KT 9SM 22/17 RMK SLP135 T02150172 52018 IEM_DS3505
ZGGG,1984-10-17 15:00,ZGGG 171500Z AUTO 36002KT 8SM 21/17 RMK SLP151 T02130168 52016 IEM_DS3505
ZGGG,1984-10-17 18:00,ZGGG 171800Z AUTO 36004KT 7SM 21/16 RMK SLP147 T02080165 40244//// 57004 IEM_DS3505
ZGGG,1984-10-17 21:00,ZGGG 172100Z AUTO 34004KT 7SM 20/17 RMK SLP152 T02020166 52005 IEM_DS3505
ZGGG,1984-10-18 00:00,ZGGG 180000Z AUTO 36004KT 7SM 21/16 RMK SLP171 T02060162 52019 IEM_DS3505
ZGGG,1984-10-18 03:00,ZGGG 180300Z AUTO 36006KT 9SM 23/17 RMK SLP177 T02280170 52006 IEM_DS3505
ZGGG,1984-10-18 06:00,ZGGG 180600Z AUTO 34008KT 12SM 24/17 RMK SLP156 T02440167 4////0199 57021 IEM_DS3505
ZGGG,1984-10-18 09:00,ZGGG 180900Z AUTO 32006KT 12SM 25/17 RMK SLP159 T02490172 52003 IEM_DS3505
ZGGG,1984-10-18 12:00,ZGGG 181200Z AUTO 02010KT 10SM 22/16 RMK SLP175 T02200161 52016 IEM_DS3505
ZGGG,1984-10-18 15:00,ZGGG 181500Z AUTO 36004KT 10SM 21/16 RMK SLP190 T02140158 52015 IEM_DS3505
ZGGG,1984-10-18 18:00,ZGGG 181800Z AUTO 36004KT 8SM 21/15 RMK SLP177 T02080151 40257//// 57013 IEM_DS3505
ZGGG,1984-10-18 21:00,ZGGG 182100Z AUTO 36004KT 8SM 20/14 RMK SLP173 T02000144 57004 IEM_DS3505
ZGGG,1984-10-19 00:00,ZGGG 190000Z AUTO 02008KT 11SM 20/14 RMK SLP190 T02030144 52017 IEM_DS3505
ZGGG,1984-10-19 03:00,ZGGG 190300Z AUTO 36006KT 10SM 24/14 RMK SLP197 T02400145 52007 IEM_DS3505
ZGGG,1984-10-19 06:00,ZGGG 190600Z AUTO 02006KT 12SM 26/16 RMK SLP171 T02580163 4////0198 57026 IEM_DS3505
ZGGG,1984-10-19 09:00,ZGGG 190900Z AUTO 36006KT 12SM 26/15 RMK SLP164 T02640149 57007 IEM_DS3505
ZGGG,1984-10-19 12:00,ZGGG 191200Z AUTO 36002KT 8SM 23/15 RMK SLP185 T02290153 52021 IEM_DS3505
ZGGG,1984-10-19 15:00,ZGGG 191500Z AUTO 04006KT 7SM 22/12 RMK SLP197 T02240123 52012 IEM_DS3505
ZGGG,1984-10-19 18:00,ZGGG 191800Z AUTO 36006KT 7SM 21/13 RMK SLP188 T02140131 40270//// 57009 IEM_DS3505
ZGGG,1984-10-19 21:00,ZGGG 192100Z AUTO 36008KT 7SM 21/12 RMK SLP184 T02070125 57004 IEM_DS3505
ZGGG,1984-10-20 00:00,ZGGG 200000Z AUTO 36006KT 9SM 22/11 RMK SLP202 T02150111 52018 IEM_DS3505
ZGGG,1984-10-20 02:00,ZGGG 200200Z AUTO 01017KT 7SM 24/13 A3012 RMK T02400130 IEM_DS3505
ZGGG,1984-10-20 03:00,ZGGG 200300Z AUTO 07008KT 11SM 26/11 A3009 RMK SLP201 T02550113 57001 IEM_DS3505
ZGGG,1984-10-20 04:00,ZGGG 200400Z AUTO 01014KT 7SM 26/12 A3006 RMK T02600120 IEM_DS3505
ZGGG,1984-10-20 05:00,ZGGG 200500Z AUTO 36014KT 7SM 27/12 A3006 RMK T02700120 IEM_DS3505
ZGGG,1984-10-20 06:00,ZGGG 200600Z AUTO 36010KT 7SM 28/11 A3003 RMK SLP174 T02820113 4////0203 57027 IEM_DS3505
ZGGG,1984-10-20 07:00,ZGGG 200700Z AUTO 36014KT 7SM 28/10 A3000 RMK T02800100 IEM_DS3505
ZGGG,1984-10-20 08:00,ZGGG 200800Z AUTO 36014KT 7SM 28/11 A3000 RMK T02800110 IEM_DS3505
ZGGG,1984-10-20 09:00,ZGGG 200900Z AUTO 32010KT 7SM 27/10 A3000 RMK SLP169 T02700099 57005 IEM_DS3505
ZGGG,1984-10-20 10:00,ZGGG 201000Z AUTO 02008KT 6SM 23/13 A3000 RMK T02300130 IEM_DS3505
ZGGG,1984-10-20 12:00,ZGGG 201200Z AUTO 02008KT 10SM 24/08 RMK SLP188 T02440080 52019 IEM_DS3505
ZGGG,1984-10-20 15:00,ZGGG 201500Z AUTO 02008KT 9SM 23/04 RMK SLP192 T02260039 52004 IEM_DS3505
ZGGG,1984-10-20 18:00,ZGGG 201800Z AUTO 02006KT 7SM 20/04 RMK SLP189 T02020041 40284//// IEM_DS3505
ZGGG,1984-10-20 21:00,ZGGG 202100Z AUTO 36004KT 6SM 18/05 RMK SLP191 T01820051 52002 IEM_DS3505
ZGGG,1984-10-21 00:00,ZGGG 210000Z AUTO 36006KT 10SM 19/04 RMK SLP207 T01920043 52016 IEM_DS3505
ZGGG,1984-10-21 03:00,ZGGG 210300Z AUTO 02006KT 10SM 24/08 RMK SLP202 T02380081 57005 IEM_DS3505
ZGGG,1984-10-21 06:00,ZGGG 210600Z AUTO 32002KT 9SM 26/09 RMK SLP172 T02600094 4////0172 57030 IEM_DS3505
ZGGG,1984-10-21 09:00,ZGGG 210900Z AUTO 36004KT 9SM 26/09 RMK SLP160 T02570093 57012 IEM_DS3505
ZGGG,1984-10-21 12:00,ZGGG 211200Z AUTO 02004KT 9SM 21/10 RMK SLP174 T02130104 52014 IEM_DS3505
ZGGG,1984-10-21 18:00,ZGGG 211800Z AUTO 00000KT 7SM 17/13 RMK SLP173 T01670126 40265//// 57009 IEM_DS3505
ZGGG,1984-10-21 21:00,ZGGG 212100Z AUTO 00000KT 7SM 15/13 RMK SLP165 T01480126 57008 IEM_DS3505
ZGGG,1984-10-22 00:00,ZGGG 220000Z AUTO 36004KT 11SM 19/10 RMK SLP180 T01860099 52015 IEM_DS3505
ZGGG,1984-10-22 03:00,ZGGG 220300Z AUTO 11004KT 12SM 25/10 RMK SLP174 T02510098 57006 IEM_DS3505
ZGGG,1984-10-22 06:00,ZGGG 220600Z AUTO 27004KT 9SM 27/10 RMK SLP141 T02660101 4////0147 57033 IEM_DS3505
ZGGG,1984-10-22 09:00,ZGGG 220900Z AUTO 32004KT 9SM 26/10 RMK SLP133 T02640103 57008 IEM_DS3505
ZGGG,1984-10-22 12:00,ZGGG 221200Z AUTO 00000KT 7SM 20/13 RMK SLP147 T01980134 52014 IEM_DS3505
ZGGG,1984-10-22 15:00,ZGGG 221500Z AUTO 00000KT 7SM 17/14 RMK SLP151 T01720143 52004 IEM_DS3505
ZGGG,1984-10-22 18:00,ZGGG 221800Z AUTO 00000KT 7SM 16/14 RMK SLP139 T01580137 40275//// 57012 IEM_DS3505
ZGGG,1984-10-22 21:00,ZGGG 222100Z AUTO 00000KT 7SM 15/13 RMK SLP133 T01530130 57006 IEM_DS3505
ZGGG,1984-10-23 00:00,ZGGG 230000Z AUTO 00000KT 6SM 18/14 RMK SLP147 T01830140 52014 IEM_DS3505
ZGGG,1984-10-23 03:00,ZGGG 230300Z AUTO 00000KT 6SM 24/16 RMK SLP151 T02450161 52004 IEM_DS3505
ZGGG,1984-10-23 04:00,ZGGG 230400Z AUTO 00000KT 6SM 25/17 A2991 RMK T02500170 IEM_DS3505
ZGGG,1984-10-23 06:00,ZGGG 230600Z AUTO 27002KT 7SM 27/15 A2988 RMK SLP123 T02660149 4////0146 57028 IEM_DS3505
ZGGG,1984-10-23 07:00,ZGGG 230700Z AUTO 34004KT 6SM 27/12 A2985 RMK T02700120 IEM_DS3505
ZGGG,1984-10-23 08:00,ZGGG 230800Z AUTO 35004KT 7SM 28/13 A2985 RMK T02800130 IEM_DS3505
ZGGG,1984-10-23 09:00,ZGGG 230900Z AUTO 16004KT 9SM 27/12 A2985 RMK SLP118 T02660124 57005 IEM_DS3505
ZGGG,1984-10-23 12:00,ZGGG 231200Z AUTO 00000KT 6SM 21/17 RMK SLP132 T02070166 52014 IEM_DS3505
ZGGG,1984-10-23 15:00,ZGGG 231500Z AUTO 00000KT 6SM 19/16 RMK SLP144 T01920164 52012 IEM_DS3505
ZGGG,1984-10-23 18:00,ZGGG 231800Z AUTO 00000KT 5SM 18/16 RMK SLP140 T01760157 40280//// 57004 IEM_DS3505
ZGGG,1984-10-23 21:00,ZGGG 232100Z AUTO 00000KT 2 1/2SM 17/16 RMK SLP136 T01700160 57004 IEM_DS3505
ZGGG,1984-10-24 00:00,ZGGG 240000Z AUTO 00000KT 5SM 21/17 RMK SLP153 T02130172 52017 IEM_DS3505
ZGGG,1984-10-24 03:00,ZGGG 240300Z AUTO 09004KT 8SM 27/15 RMK SLP148 T02660148 57005 IEM_DS3505
ZGGG,1984-10-24 06:00,ZGGG 240600Z AUTO 11004KT 7SM 29/12 RMK SLP126 T02940124 4////0166 57022 IEM_DS3505
ZGGG,1984-10-24 09:00,ZGGG 240900Z AUTO 20004KT 7SM 28/15 RMK SLP119 T02830149 57007 IEM_DS3505
ZGGG,1984-10-24 12:00,ZGGG 241200Z AUTO 00000KT 7SM 22/17 RMK SLP129 T02180172 52010 IEM_DS3505
ZGGG,1984-10-24 15:00,ZGGG 241500Z AUTO 36004KT 7SM 20/15 RMK SLP133 T02030149 52004 IEM_DS3505
ZGGG,1984-10-24 18:00,ZGGG 241800Z AUTO 07002KT 7SM 19/14 RMK SLP129 T01940143 40300//// 57004 IEM_DS3505
ZGGG,1984-10-24 21:00,ZGGG 242100Z AUTO 34006KT 7SM 21/11 RMK SLP123 T02120114 57006 IEM_DS3505
ZGGG,1984-10-25 00:00,ZGGG 250000Z AUTO 36006KT 12SM 22/11 RMK SLP141 T02240114 52018 IEM_DS3505
ZGGG,1984-10-25 03:00,ZGGG 250300Z AUTO 04006KT 12SM 27/14 RMK SLP140 T02700141 57001 IEM_DS3505
ZGGG,1984-10-25 06:00,ZGGG 250600Z AUTO 09006KT 12SM 30/14 RMK SLP106 T02970137 4////0178 57034 IEM_DS3505
ZGGG,1984-10-25 09:00,ZGGG 250900Z AUTO 34006KT 9SM 28/15 RMK SLP100 T02850152 57006 IEM_DS3505
ZGGG,1984-10-25 12:00,ZGGG 251200Z AUTO 34004KT 7SM 25/16 RMK SLP108 T02540160 52008 IEM_DS3505
ZGGG,1984-10-25 15:00,ZGGG 251500Z AUTO 36006KT 7SM 24/15 RMK SLP111 T02440154 52003 IEM_DS3505
ZGGG,1984-10-25 18:00,ZGGG 251800Z AUTO 36004KT 7SM 24/14 RMK SLP104 T02380142 40304//// 57007 IEM_DS3505
ZGGG,1984-10-25 21:00,ZGGG 252100Z AUTO 02006KT 7SM 23/12 RMK T02280123 57001 IEM_DS3505
ZGGG,1984-10-26 00:00,ZGGG 260000Z AUTO 02008KT 9SM 23/12 RMK SLP116 T02320125 52013 IEM_DS3505
ZGGG,1984-10-26 03:00,ZGGG 260300Z AUTO 36010KT 9SM 27/13 RMK SLP109 T02700132 57007 IEM_DS3505
ZGGG,1984-10-26 06:00,ZGGG 260600Z AUTO 36008KT 11SM 29/12 RMK SLP080 T02910122 4////0222 57029 IEM_DS3505
ZGGG,1984-10-26 09:00,ZGGG 260900Z AUTO 36006KT 9SM 29/15 RMK SLP076 T02880146 57004 IEM_DS3505
ZGGG,1984-10-26 12:00,ZGGG 261200Z AUTO 36006KT 10SM 25/15 RMK SLP090 T02530151 52014 IEM_DS3505
ZGGG,1984-10-26 15:00,ZGGG 261500Z AUTO 02006KT 10SM 25/12 RMK SLP097 T02530115 52007 IEM_DS3505
ZGGG,1984-10-26 18:00,ZGGG 261800Z AUTO 02006KT 7SM 24/12 RMK SLP093 T02370123 40300//// 57004 IEM_DS3505
ZGGG,1984-10-26 21:00,ZGGG 262100Z AUTO 02010KT 7SM 23/12 RMK SLP079 T02310119 57014 IEM_DS3505
ZGGG,1984-10-27 00:00,ZGGG 270000Z AUTO 02006KT 9SM 23/11 RMK SLP103 T02330108 52024 IEM_DS3505
ZGGG,1984-10-27 03:00,ZGGG 270300Z AUTO 02010KT 7SM 26/12 RMK SLP098 T02640124 57005 IEM_DS3505
ZGGG,1984-10-27 05:00,ZGGG 270500Z AUTO 01017KT 6SM 29/13 A2974 RMK T02900130 IEM_DS3505
ZGGG,1984-10-27 06:00,ZGGG 270600Z AUTO 02012KT 9SM 29/14 A2974 RMK SLP075 T02870136 57023 IEM_DS3505
ZGGG,1984-10-27 07:00,ZGGG 270700Z AUTO 36016KT 6SM 29/15 A2971 RMK T02900150 IEM_DS3505
ZGGG,1984-10-27 08:00,ZGGG 270800Z AUTO 01012KT 6SM RMK IEM_DS3505
ZGGG,1984-10-27 09:00,ZGGG 270900Z AUTO 02008KT 7SM 28/14 A2971 RMK SLP071 T02780136 57004 IEM_DS3505
ZGGG,1984-10-27 10:00,ZGGG 271000Z AUTO 04006KT 6SM 25/17 A2971 RMK T02500170 IEM_DS3505
ZGGG,1984-10-27 11:00,ZGGG 271100Z AUTO 02008KT 6SM 25/15 A2971 RMK T02500150 IEM_DS3505
ZGGG,1984-10-27 12:00,ZGGG 271200Z AUTO 02008KT 7SM 26/12 A2974 RMK SLP083 T02640120 52012 IEM_DS3505
ZGGG,1984-10-27 15:00,ZGGG 271500Z AUTO 02008KT 7SM 25/12 RMK SLP100 T02510124 52017 IEM_DS3505
ZGGG,1984-10-27 18:00,ZGGG 271800Z AUTO 36008KT 9SM 24/12 RMK SLP100 T02380120 40294//// 54000 IEM_DS3505
ZGGG,1984-10-27 21:00,ZGGG 272100Z AUTO 02012KT 7SM 23/11 RMK SLP105 T02260110 52005 IEM_DS3505
ZGGG,1984-10-28 00:00,ZGGG 280000Z AUTO 36006KT 7SM 22/11 RMK SLP127 T02170110 52022 IEM_DS3505
ZGGG,1984-10-28 03:00,ZGGG 280300Z AUTO 36010KT 7SM 26/11 RMK SLP128 T02560111 52001 IEM_DS3505
ZGGG,1984-10-28 06:00,ZGGG 280600Z AUTO 36008KT 10SM 28/12 RMK SLP102 T02760125 4////0217 57026 IEM_DS3505
ZGGG,1984-10-28 09:00,ZGGG 280900Z AUTO 34006KT 9SM 26/12 RMK SLP103 T02650121 52001 IEM_DS3505
ZGGG,1984-10-28 12:00,ZGGG 281200Z AUTO 36004KT 7SM 24/12 RMK SLP124 T02400117 52021 IEM_DS3505
ZGGG,1984-10-28 15:00,ZGGG 281500Z AUTO 36008KT 7SM 22/10 RMK SLP128 T02230104 52004 IEM_DS3505
ZGGG,1984-10-28 18:00,ZGGG 281800Z AUTO 04004KT 7SM 20/10 RMK SLP133 T02040099 40284//// 52005 IEM_DS3505
ZGGG,1984-10-28 21:00,ZGGG 282100Z AUTO 36004KT 7SM 19/10 RMK SLP138 T01900096 52005 IEM_DS3505
ZGGG,1984-10-29 00:00,ZGGG 290000Z AUTO 02008KT 8SM 19/09 RMK SLP160 T01930094 52022 IEM_DS3505
ZGGG,1984-10-29 03:00,ZGGG 290300Z AUTO 34008KT 7SM 24/11 RMK SLP162 T02360114 52002 IEM_DS3505
ZGGG,1984-10-29 06:00,ZGGG 290600Z AUTO 02006KT 7SM 27/14 RMK SLP134 T02660135 4////0185 57028 IEM_DS3505
ZGGG,1984-10-29 09:00,ZGGG 290900Z AUTO 36004KT 7SM 26/12 RMK SLP129 T02560124 57005 IEM_DS3505
ZGGG,1984-10-29 12:00,ZGGG 291200Z AUTO 00000KT 7SM 20/14 RMK SLP149 T01990141 52020 IEM_DS3505
ZGGG,1984-10-29 15:00,ZGGG 291500Z AUTO 04004KT 7SM 19/13 RMK SLP162 T01900130 52013 IEM_DS3505
ZGGG,1984-10-29 18:00,ZGGG 291800Z AUTO 00000KT 7SM 17/14 RMK SLP165 T01670135 40270//// 52003 IEM_DS3505
ZGGG,1984-10-29 21:00,ZGGG 292100Z AUTO 00000KT 7SM 16/12 RMK SLP168 T01590119 52003 IEM_DS3505
ZGGG,1984-10-30 00:00,ZGGG 300000Z AUTO 36006KT 11SM 18/08 RMK SLP185 T01840082 52017 IEM_DS3505
ZGGG,1984-10-30 03:00,ZGGG 300300Z AUTO 07008KT 9SM 23/08 RMK SLP187 T02320080 52002 IEM_DS3505
ZGGG,1984-10-30 04:00,ZGGG 300400Z AUTO 36012KT 7SM 24/08 A3003 RMK T02400080 IEM_DS3505
ZGGG,1984-10-30 05:00,ZGGG 300500Z AUTO 36006KT 7SM 25/09 A3000 RMK T02500090 IEM_DS3505
ZGGG,1984-10-30 06:00,ZGGG 300600Z AUTO 34004KT 11SM 26/10 A2997 RMK SLP153 T02620098 4////0158 57034 IEM_DS3505
ZGGG,1984-10-30 07:00,ZGGG 300700Z AUTO 36010KT 7SM 26/10 A2994 RMK T02600100 IEM_DS3505
ZGGG,1984-10-30 08:00,ZGGG 300800Z AUTO 03008KT 7SM 26/09 A2994 RMK T02600090 IEM_DS3505
ZGGG,1984-10-30 09:00,ZGGG 300900Z AUTO 36004KT 10SM 25/07 A2994 RMK SLP151 T02540074 57002 IEM_DS3505
ZGGG,1984-10-30 10:00,ZGGG 301000Z AUTO 07004KT 6SM 22/11 A2997 RMK T02200110 IEM_DS3505
ZGGG,1984-10-30 11:00,ZGGG 301100Z AUTO 04006KT 6SM 20/11 A2997 RMK T02000110 IEM_DS3505
ZGGG,1984-10-30 12:00,ZGGG 301200Z AUTO 36004KT 9SM 22/07 A3000 RMK SLP178 T02160074 52027 IEM_DS3505
ZGGG,1984-10-30 15:00,ZGGG 301500Z AUTO 04006KT 9SM 20/08 RMK SLP186 T02020082 52008 IEM_DS3505
ZGGG,1984-10-30 18:00,ZGGG 301800Z AUTO 36004KT 7SM 18/09 RMK SLP185 T01790094 57001 IEM_DS3505
ZGGG,1984-10-30 21:00,ZGGG 302100Z AUTO 36002KT 7SM 17/09 RMK SLP183 T01680091 57002 IEM_DS3505
ZGGG,1984-10-31 00:00,ZGGG 310000Z AUTO 34004KT 9SM 18/09 RMK SLP205 T01810088 52022 IEM_DS3505
ZGGG,1984-10-31 03:00,ZGGG 310300Z AUTO 02006KT 11SM 23/10 RMK SLP203 T02320105 57002 IEM_DS3505
ZGGG,1984-10-31 06:00,ZGGG 310600Z AUTO 09004KT 10SM 26/10 RMK SLP173 T02620105 4////0163 57030 IEM_DS3505
ZGGG,1984-10-31 09:00,ZGGG 310900Z AUTO 06002KT 9SM 26/11 RMK SLP165 T02590114 57008 IEM_DS3505
ZGGG,1984-10-31 12:00,ZGGG 311200Z AUTO 00000KT 9SM 21/14 RMK SLP186 T02120138 52021 IEM_DS3505
ZGGG,1984-10-31 15:00,ZGGG 311500Z AUTO 36006KT 9SM 21/11 RMK SLP191 T02130113 52005 IEM_DS3505
ZGGG,1984-10-31 18:00,ZGGG 311800Z AUTO 02004KT 7SM 20/12 RMK SLP185 T02000120 40271//// 57006 IEM_DS3505
ZGGG,1984-10-31 21:00,ZGGG 312100Z AUTO 02004KT 7SM 19/10 RMK SLP190 T01900101 52005 IEM_DS3505
ZGGG,1984-11-01 00:00,ZGGG 010000Z AUTO 36008KT 12SM 20/09 RMK SLP207 T01980093 52017 IEM_DS3505
ZGGG,1984-11-01 03:00,ZGGG 010300Z AUTO 02006KT 12SM 25/11 RMK SLP213 T02520112 52006 IEM_DS3505
ZGGG,1984-11-01 06:00,ZGGG 010600Z AUTO 36006KT 11SM 27/12 RMK SLP176 T02710115 4////0182 57037 IEM_DS3505
ZGGG,1984-11-01 09:00,ZGGG 010900Z AUTO 36004KT 9SM 27/12 RMK SLP170 T02700116 57006 IEM_DS3505
ZGGG,1984-11-01 12:00,ZGGG 011200Z AUTO 36004KT 9SM 23/12 RMK SLP193 T02300117 52023 IEM_DS3505
ZGGG,1984-11-01 15:00,ZGGG 011500Z AUTO 36006KT 9SM 22/12 RMK SLP206 T02220117 52013 IEM_DS3505
ZGGG,1984-11-01 18:00,ZGGG 011800Z AUTO 34006KT 7SM 22/11 RMK SLP201 T02190112 40280//// 57005 IEM_DS3505
ZGGG,1984-11-01 21:00,ZGGG 012100Z AUTO 36004KT 7SM 21/10 RMK SLP202 T02080101 52001 IEM_DS3505
ZGGG,1984-11-02 00:00,ZGGG 020000Z AUTO 36004KT 10SM 21/10 RMK SLP216 T02100098 52014 IEM_DS3505
ZGGG,1984-11-02 03:00,ZGGG 020300Z AUTO 02006KT 10SM 25/11 RMK SLP216 T02460107 54000 IEM_DS3505
ZGGG,1984-11-02 06:00,ZGGG 020600Z AUTO 36006KT 10SM 27/12 RMK SLP185 T02700119 4////0200 57031 IEM_DS3505
ZGGG,1984-11-02 09:00,ZGGG 020900Z AUTO 36004KT 9SM 27/12 RMK SLP176 T02700119 57009 IEM_DS3505
ZGGG,1984-11-02 12:00,ZGGG 021200Z AUTO 36004KT 8SM 24/10 RMK SLP191 T02360105 52015 IEM_DS3505
ZGGG,1984-11-02 15:00,ZGGG 021500Z AUTO 02006KT 7SM 23/11 RMK SLP199 T02330113 52008 IEM_DS3505
ZGGG,1984-11-02 18:00,ZGGG 021800Z AUTO 36004KT 9SM 22/11 RMK SLP197 T02200111 40277//// 57002 IEM_DS3505
ZGGG,1984-11-02 21:00,ZGGG 022100Z AUTO 02006KT 6SM 21/09 RMK SLP189 T02060094 57008 IEM_DS3505
ZGGG,1984-11-03 00:00,ZGGG 030000Z AUTO 36004KT 9SM 23/09 RMK SLP201 T02300093 52012 IEM_DS3505
ZGGG,1984-11-03 01:00,ZGGG 030100Z AUTO 01010KT 6SM 20/12 A3012 RMK T02000120 IEM_DS3505
ZGGG,1984-11-03 02:00,ZGGG 030200Z AUTO 02012KT 7SM 22/10 A3012 RMK T02200100 IEM_DS3505
ZGGG,1984-11-03 03:00,ZGGG 030300Z AUTO 02008KT 7SM 24/10 RMK SLP200 T02370098 57001 IEM_DS3505
ZGGG,1984-11-03 06:00,ZGGG 030600Z AUTO 02008KT 9SM 27/12 A3003 RMK SLP169 T02660115 4////0196 57031 IEM_DS3505
ZGGG,1984-11-03 07:00,ZGGG 030700Z AUTO 02010KT 7SM 26/10 A2997 RMK T02600100 IEM_DS3505
ZGGG,1984-11-03 08:00,ZGGG 030800Z AUTO 33010KT 7SM 26/11 A2997 RMK T02600110 IEM_DS3505
ZGGG,1984-11-03 09:00,ZGGG 030900Z AUTO 34006KT 7SM 26/12 A2997 RMK SLP163 T02600116 57006 IEM_DS3505
ZGGG,1984-11-03 12:00,ZGGG 031200Z AUTO 02006KT 7SM 23/11 RMK SLP175 T02260110 52012 IEM_DS3505
ZGGG,1984-11-03 15:00,ZGGG 031500Z AUTO 02004KT 6SM 20/12 RMK SLP189 T02000124 52014 IEM_DS3505
ZGGG,1984-11-03 18:00,ZGGG 031800Z AUTO 02004KT 7SM 19/10 RMK SLP182 T01910103 40274//// 57007 IEM_DS3505
ZGGG,1984-11-03 21:00,ZGGG 032100Z AUTO 04004KT 7SM 18/09 RMK SLP182 T01760090 54000 IEM_DS3505
ZGGG,1984-11-03 22:00,ZGGG 032200Z AUTO 01008KT 7SM 14/11 A3006 RMK T01400110 IEM_DS3505
ZGGG,1984-11-03 23:00,ZGGG 032300Z AUTO 01008KT 7SM 14/11 A3006 RMK T01400110 IEM_DS3505
ZGGG,1984-11-04 00:00,ZGGG 040000Z AUTO 36004KT 7SM 19/09 A3009 RMK SLP203 T01860094 52021 IEM_DS3505
ZGGG,1984-11-04 01:00,ZGGG 040100Z AUTO 01008KT 7SM 19/11 A3009 RMK T01900110 IEM_DS3505
ZGGG,1984-11-04 02:00,ZGGG 040200Z AUTO 36010KT 7SM 21/10 A3009 RMK T02100100 IEM_DS3505
ZGGG,1984-11-04 03:00,ZGGG 040300Z AUTO 32002KT 7SM 24/11 A3009 RMK SLP201 T02450108 57002 IEM_DS3505
ZGGG,1984-11-04 06:00,ZGGG 040600Z AUTO 16004KT 11SM 27/10 RMK SLP163 T02700105 4////0154 57038 IEM_DS3505
ZGGG,1984-11-04 09:00,ZGGG 040900Z AUTO 27002KT 9SM 26/10 RMK SLP159 T02570105 57004 IEM_DS3505
ZGGG,1984-11-04 12:00,ZGGG 041200Z AUTO 34002KT 7SM 19/14 RMK SLP171 T01930136 52012 IEM_DS3505
ZGGG,1984-11-04 15:00,ZGGG 041500Z AUTO 00000KT 6SM 17/14 RMK SLP182 T01720143 52011 IEM_DS3505
ZGGG,1984-11-04 18:00,ZGGG 041800Z AUTO 00000KT 7SM 16/14 RMK SLP175 T01600139 40272//// 57007 IEM_DS3505
ZGGG,1984-11-04 21:00,ZGGG 042100Z AUTO 00000KT 6SM 15/14 RMK SLP171 T01540144 57004 IEM_DS3505
ZGGG,1984-11-05 00:00,ZGGG 050000Z AUTO 36004KT 4SM 18/16 RMK SLP185 T01780163 52014 IEM_DS3505
ZGGG,1984-11-05 03:00,ZGGG 050300Z AUTO 25004KT 7SM 24/17 RMK SLP184 T02420167 57001 IEM_DS3505
ZGGG,1984-11-05 06:00,ZGGG 050600Z AUTO 22004KT 2 1/2SM 27/16 RMK SLP146 T02700163 4////0151 57038 IEM_DS3505
ZGGG,1984-11-05 09:00,ZGGG 050900Z AUTO 18004KT 2 1/2SM 26/16 RMK SLP136 T02610157 57010 IEM_DS3505
ZGGG,1984-11-05 12:00,ZGGG 051200Z AUTO 00000KT 2 1/2SM 21/17 RMK SLP158 T02070169 52022 IEM_DS3505
ZGGG,1984-11-05 15:00,ZGGG 051500Z AUTO 00000KT 2 1/2SM 19/17 RMK SLP172 T01940168 52014 IEM_DS3505
ZGGG,1984-11-05 18:00,ZGGG 051800Z AUTO 00000KT 2 1/2SM 17/16 RMK SLP164 T01710159 40275//// 57008 IEM_DS3505
ZGGG,1984-11-05 21:00,ZGGG 052100Z AUTO 00000KT 2 1/2SM 17/16 RMK SLP160 T01670162 57004 IEM_DS3505
ZGGG,1984-11-05 22:00,ZGGG 052200Z AUTO 36006KT 1 1/4SM 16/15 RMK T01600150 IEM_DS3505
ZGGG,1984-11-05 23:00,ZGGG 052300Z AUTO 01004KT 1SM 15/15 A3000 RMK T01500150 IEM_DS3505
ZGGG,1984-11-06 00:00,ZGGG 060000Z AUTO 36002KT 4SM 18/17 RMK SLP175 T01840168 52015 IEM_DS3505
ZGGG,1984-11-06 01:00,ZGGG 060100Z AUTO 01004KT 2SM 20/18 A3000 RMK T02000180 IEM_DS3505
ZGGG,1984-11-06 02:00,ZGGG 060200Z AUTO 01004KT 3SM RMK IEM_DS3505
ZGGG,1984-11-06 03:00,ZGGG 060300Z AUTO 09004KT 4SM 26/16 A3003 RMK SLP178 T02600162 52003 IEM_DS3505
ZGGG,1984-11-06 06:00,ZGGG 060600Z AUTO 22004KT 4SM 29/17 RMK SLP141 T02870167 4////0164 57037 IEM_DS3505
ZGGG,1984-11-06 09:00,ZGGG 060900Z AUTO 00000KT 4SM 28/18 RMK SLP134 T02780176 57007 IEM_DS3505
ZGGG,1984-11-06 12:00,ZGGG 061200Z AUTO 00000KT 2 1/2SM 22/19 RMK SLP152 T02160186 52018 IEM_DS3505
ZGGG,1984-11-06 15:00,ZGGG 061500Z AUTO 00000KT 2 1/2SM 19/18 RMK SLP164 T01930180 52012 IEM_DS3505
ZGGG,1984-11-06 18:00,ZGGG 061800Z AUTO 00000KT 2 1/2SM 18/18 RMK SLP158 T01850179 40291//// 57006 IEM_DS3505
ZGGG,1984-11-06 21:00,ZGGG 062100Z AUTO 00000KT 2 1/2SM 19/18 RMK SLP158 T01860181 54000 IEM_DS3505
ZGGG,1984-11-07 00:00,ZGGG 070000Z AUTO 00000KT 2SM 20/19 RMK SLP176 T02030194 52018 IEM_DS3505
ZGGG,1984-11-07 03:00,ZGGG 070300Z AUTO 18004KT 2 1/2SM 26/19 RMK SLP180 T02610189 52004 IEM_DS3505
ZGGG,1984-11-07 06:00,ZGGG 070600Z AUTO 20004KT 2SM 29/20 RMK SLP143 T02880196 4////0182 57037 IEM_DS3505
ZGGG,1984-11-07 09:00,ZGGG 070900Z AUTO 22002KT 2SM 29/20 RMK SLP139 T02880196 57004 IEM_DS3505
ZGGG,1984-11-07 10:00,ZGGG 071000Z AUTO 00000KT 2 1/2SM 23/20 RMK SLP150 T02330205 52011 IEM_DS3505
ZGGG,1984-11-07 12:00,ZGGG 071200Z AUTO 22004KT 2SM 29/20 RMK SLP139 T02880196 57004 IEM_DS3505
ZGGG,1984-11-07 15:00,ZGGG 071500Z AUTO 00000KT 2 1/2SM 22/20 RMK SLP162 T02150203 52012 IEM_DS3505
ZGGG,1984-11-07 18:00,ZGGG 071800Z AUTO 00000KT 2SM 20/20 RMK SLP155 T02040199 40295//// 57007 IEM_DS3505
ZGGG,1984-11-07 21:00,ZGGG 072100Z AUTO 07002KT 2 1/2SM 20/20 RMK SLP146 T02020197 57009 IEM_DS3505
ZGGG,1984-11-08 00:00,ZGGG 080000Z AUTO 04004KT 1SM 22/21 RMK SLP164 T02160208 52018 IEM_DS3505
ZGGG,1984-11-08 03:00,ZGGG 080300Z AUTO 00000KT 1 1/4SM 23/21 RMK SLP169 T02310211 52005 IEM_DS3505
ZGGG,1984-11-08 06:00,ZGGG 080600Z AUTO 18004KT 1 1/4SM 28/21 RMK SLP143 T02790212 4////0194 57026 IEM_DS3505
ZGGG,1984-11-08 09:00,ZGGG 080900Z AUTO 18004KT 1 1/4SM 28/22 RMK SLP135 T02810216 57008 IEM_DS3505
ZGGG,1984-11-08 12:00,ZGGG 081200Z AUTO 14002KT 2SM 25/21 RMK SLP146 T02460208 52011 IEM_DS3505
ZGGG,1984-11-08 15:00,ZGGG 081500Z AUTO 00000KT 2 1/2SM 22/20 RMK SLP158 T02160202 52012 IEM_DS3505
ZGGG,1984-11-08 18:00,ZGGG 081800Z AUTO 00000KT 2SM 20/20 RMK SLP155 T02000195 57003 IEM_DS3505
ZGGG,1984-11-08 21:00,ZGGG 082100Z AUTO 00000KT 2SM 19/19 RMK SLP147 T01940191 57008 IEM_DS3505
ZGGG,1984-11-09 00:00,ZGGG 090000Z AUTO 00000KT 3SM 22/20 RMK SLP165 T02160201 52018 IEM_DS3505
ZGGG,1984-11-09 03:00,ZGGG 090300Z AUTO 09004KT 6SM 28/20 RMK SLP167 T02750199 52002 IEM_DS3505
ZGGG,1984-11-09 06:00,ZGGG 090600Z AUTO 09006KT 9SM 29/19 RMK SLP140 T02900193 4////0192 57027 IEM_DS3505
ZGGG,1984-11-09 09:00,ZGGG 090900Z AUTO 16006KT 9SM 28/19 RMK SLP134 T02800186 57006 IEM_DS3505
ZGGG,1984-11-09 12:00,ZGGG 091200Z AUTO 00000KT 7SM 25/ RMK SLP152 52018 IEM_DS3505
ZGGG,1984-11-09 15:00,ZGGG 091500Z AUTO 00000KT 6SM 22/21 RMK SLP163 T02210207 52011 IEM_DS3505
ZGGG,1984-11-09 18:00,ZGGG 091800Z AUTO 00000KT 5SM 22/20 RMK SLP159 T02170205 40290//// 57004 IEM_DS3505
ZGGG,1984-11-09 21:00,ZGGG 092100Z AUTO 11004KT 5SM 23/21 RMK SLP148 T02270209 57011 IEM_DS3505
ZGGG,1984-11-10 00:00,ZGGG 100000Z AUTO 00000KT 9SM 23/21 RMK SLP166 T02330210 52018 IEM_DS3505
ZGGG,1984-11-10 01:00,ZGGG 100100Z AUTO 00000KT 9SM 23/21 A3000 RMK SLP166 T02330210 52018 IEM_DS3505
ZGGG,1984-11-10 02:00,ZGGG 100200Z AUTO 00000KT 4SM 26/21 A3000 RMK T02600210 IEM_DS3505
ZGGG,1984-11-10 03:00,ZGGG 100300Z AUTO 00000KT 9SM 27/21 A2997 RMK SLP164 T02710211 57002 IEM_DS3505
ZGGG,1984-11-10 04:00,ZGGG 100400Z AUTO 14006KT 7SM 27/21 A2997 RMK T02700210 IEM_DS3505
ZGGG,1984-11-10 05:00,ZGGG 100500Z AUTO 23008KT 7SM 29/21 RMK T02900210 IEM_DS3505
ZGGG,1984-11-10 06:00,ZGGG 100600Z AUTO 11006KT 9SM 29/21 A2991 RMK SLP142 T02870213 4////0215 57022 IEM_DS3505
ZGGG,1984-11-10 07:00,ZGGG 100700Z AUTO 17008KT 7SM 28/21 A2988 RMK T02800210 IEM_DS3505
ZGGG,1984-11-10 08:00,ZGGG 100800Z AUTO 17008KT 7SM 28/21 A2988 RMK T02800210 IEM_DS3505
ZGGG,1984-11-10 09:00,ZGGG 100900Z AUTO 16004KT 9SM 28/21 A2988 RMK SLP130 T02850211 57012 IEM_DS3505
ZGGG,1984-11-10 10:00,ZGGG 101000Z AUTO 14008KT 7SM 27/21 A2988 RMK T02700210 IEM_DS3505
ZGGG,1984-11-10 11:00,ZGGG 101100Z AUTO 15010KT 7SM 26/21 A2988 RMK T02600210 IEM_DS3505
ZGGG,1984-11-10 12:00,ZGGG 101200Z AUTO 16002KT 7SM 24/21 RMK SLP142 T02440209 52012 IEM_DS3505
ZGGG,1984-11-10 15:00,ZGGG 101500Z AUTO 00000KT 5SM 23/21 RMK SLP154 T02270212 52012 IEM_DS3505
ZGGG,1984-11-10 18:00,ZGGG 101800Z AUTO 00000KT 4SM 22/21 RMK SLP146 T02220213 40298//// 57008 IEM_DS3505
ZGGG,1984-11-10 21:00,ZGGG 102100Z AUTO 00000KT 4SM 22/21 RMK SLP139 T02210213 57007 IEM_DS3505
ZGGG,1984-11-10 22:00,ZGGG 102200Z AUTO 00000KT 4SM 22/21 RMK SLP139 T02210213 57007 IEM_DS3505
ZGGG,1984-11-11 00:00,ZGGG 110000Z AUTO 00000KT 2 1/2SM 23/21 RMK SLP156 T02270213 52017 IEM_DS3505
ZGGG,1984-11-11 03:00,ZGGG 110300Z AUTO 14004KT 4SM 27/21 RMK SLP157 T02730209 52001 IEM_DS3505
ZGGG,1984-11-11 06:00,ZGGG 110600Z AUTO 20004KT 7SM 29/20 RMK SLP137 T02880197 4////0212 57020 IEM_DS3505
ZGGG,1984-11-11 09:00,ZGGG 110900Z AUTO 11002KT 7SM 28/19 RMK SLP128 T02840194 57009 IEM_DS3505
ZGGG,1984-11-11 12:00,ZGGG 111200Z AUTO 00000KT 7SM 23/20 RMK SLP138 T02340199 52010 IEM_DS3505
ZGGG,1984-11-11 15:00,ZGGG 111500Z AUTO 00000KT 7SM 22/20 RMK SLP144 T02180204 52006 IEM_DS3505
ZGGG,1984-11-11 18:00,ZGGG 111800Z AUTO 00000KT 2 1/2SM 21/20 RMK SLP142 T02080200 40300//// 57002 IEM_DS3505
ZGGG,1984-11-11 21:00,ZGGG 112100Z AUTO 00000KT 2 1/2SM 20/20 RMK SLP143 T02000195 52001 IEM_DS3505
ZGGG,1984-11-12 00:00,ZGGG 120000Z AUTO 00000KT 5SM 22/20 RMK SLP155 T02230201 52012 IEM_DS3505
ZGGG,1984-11-12 02:00,ZGGG 120200Z AUTO 00000KT 4SM 22/20 RMK SLP155 T02230201 52012 IEM_DS3505
ZGGG,1984-11-12 03:00,ZGGG 120300Z AUTO 36004KT 7SM 27/20 RMK SLP160 T02700202 52005 IEM_DS3505
ZGGG,1984-11-12 06:00,ZGGG 120600Z AUTO 29004KT 7SM 30/20 RMK SLP128 T03020199 4////0196 57032 IEM_DS3505
ZGGG,1984-11-12 09:00,ZGGG 120900Z AUTO 36004KT 7SM 29/20 RMK SLP125 T02900198 57003 IEM_DS3505
ZGGG,1984-11-12 12:00,ZGGG 121200Z AUTO 16006KT 7SM 26/19 RMK SLP146 T02640194 52021 IEM_DS3505
ZGGG,1984-11-12 15:00,ZGGG 121500Z AUTO 16004KT 7SM 25/22 RMK SLP156 T02460222 52010 IEM_DS3505
ZGGG,1984-11-12 18:00,ZGGG 121800Z AUTO 36004KT 4SM 22/21 RMK 60071 SLP154 T02150211 40306//// 57002 IEM_DS3505
ZGGG,1984-11-12 21:00,ZGGG 122100Z AUTO 02004KT 5SM 21/21 RMK SLP149 T02140206 57005 IEM_DS3505
ZGGG,1984-11-13 00:00,ZGGG 130000Z AUTO 36004KT 5SM 21/20 RMK 60012 SLP170 T02100201 52021 IEM_DS3505
ZGGG,1984-11-13 03:00,ZGGG 130300Z AUTO 36004KT 6SM 21/20 RMK SLP176 T02140199 52006 IEM_DS3505
ZGGG,1984-11-13 05:00,ZGGG 130500Z AUTO 36008KT 4SM 21/20 A2997 RMK T02100200 IEM_DS3505
ZGGG,1984-11-13 06:00,ZGGG 130600Z AUTO 02004KT 5SM 23/20 A2994 RMK 60008 SLP149 T02330199 4////0205 57027 IEM_DS3505
ZGGG,1984-11-13 07:00,ZGGG 130700Z AUTO 36010KT 5SM 23/20 A2994 RMK T02300200 IEM_DS3505
ZGGG,1984-11-13 08:00,ZGGG 130800Z AUTO 35008KT 7SM 23/20 A2991 RMK T02300200 IEM_DS3505
ZGGG,1984-11-13 09:00,ZGGG 130900Z AUTO 36004KT 5SM 23/20 A2991 RMK SLP143 T02290198 57006 IEM_DS3505
ZGGG,1984-11-13 12:00,ZGGG 131200Z AUTO 36004KT 4SM 21/21 RMK 60004 SLP153 T02140206 52010 IEM_DS3505
ZGGG,1984-11-13 15:00,ZGGG 131500Z AUTO 00000KT 4SM 21/20 RMK SLP160 T02120204 52007 IEM_DS3505
ZGGG,1984-11-13 18:00,ZGGG 131800Z AUTO 00000KT 2 1/2SM 21/20 RMK 60001 SLP148 T02120201 40236//// 57012 IEM_DS3505
ZGGG,1984-11-13 21:00,ZGGG 132100Z AUTO 00000KT 2 1/2SM 21/20 RMK SLP138 T02130199 57010 IEM_DS3505
ZGGG,1984-11-14 00:00,ZGGG 140000Z AUTO 00000KT 6SM 21/20 RMK SLP155 T02140200 52017 IEM_DS3505
ZGGG,1984-11-14 03:00,ZGGG 140300Z AUTO 09002KT 5SM 23/20 RMK SLP156 T02340205 52001 IEM_DS3505
ZGGG,1984-11-14 06:00,ZGGG 140600Z AUTO 00000KT 2 1/2SM 23/21 RMK 60000 SLP132 T02310210 4////0211 57024 IEM_DS3505
ZGGG,1984-11-14 09:00,ZGGG 140900Z AUTO 00000KT 2SM 22/21 RMK SLP124 T02200214 57008 IEM_DS3505
ZGGG,1984-11-14 12:00,ZGGG 141200Z AUTO 00000KT 3SM 22/21 RMK 60071 SLP145 T02170212 52021 IEM_DS3505
ZGGG,1984-11-14 15:00,ZGGG 141500Z AUTO 00000KT 9SM 22/21 RMK SLP144 T02150209 57001 IEM_DS3505
ZGGG,1984-11-14 18:00,ZGGG 141800Z AUTO 04006KT 6SM 21/19 RMK 60051 SLP142 T02080194 40245//// 57002 IEM_DS3505
ZGGG,1984-11-14 21:00,ZGGG 142100Z AUTO 36006KT 8SM 20/18 RMK SLP141 T02010179 57001 IEM_DS3505
ZGGG,1984-11-15 00:00,ZGGG 150000Z AUTO 36010KT 9SM 19/15 RMK SLP163 T01870148 52022 IEM_DS3505
ZGGG,1984-11-15 03:00,ZGGG 150300Z AUTO 36008KT 11SM 22/15 RMK SLP163 T02220154 54000 IEM_DS3505
ZGGG,1984-11-15 06:00,ZGGG 150600Z AUTO 36006KT 14SM 25/16 RMK SLP140 T02480164 4////0183 57023 IEM_DS3505
ZGGG,1984-11-15 09:00,ZGGG 150900Z AUTO 34006KT 12SM 24/16 RMK SLP141 T02440165 52001 IEM_DS3505
ZGGG,1984-11-15 12:00,ZGGG 151200Z AUTO 04004KT 10SM 21/16 RMK SLP160 T02120157 52019 IEM_DS3505
ZGGG,1984-11-15 15:00,ZGGG 151500Z AUTO 02004KT 9SM 20/15 RMK SLP169 T01980151 52009 IEM_DS3505
ZGGG,1984-11-15 18:00,ZGGG 151800Z AUTO 00000KT 7SM 19/15 RMK SLP164 T01880153 40259//// 57005 IEM_DS3505
ZGGG,1984-11-15 21:00,ZGGG 152100Z AUTO 02004KT 7SM 19/14 RMK SLP167 T01860135 52003 IEM_DS3505
ZGGG,1984-11-16 00:00,ZGGG 160000Z AUTO 00000KT 10SM 18/13 RMK SLP186 T01850128 52019 IEM_DS3505
ZGGG,1984-11-16 03:00,ZGGG 160300Z AUTO 02004KT 10SM 21/15 RMK SLP190 T02080148 52004 IEM_DS3505
ZGGG,1984-11-16 06:00,ZGGG 160600Z AUTO 00000KT 11SM 24/16 RMK SLP160 T02400157 4////0183 57030 IEM_DS3505
ZGGG,1984-11-16 09:00,ZGGG 160900Z AUTO 00000KT 9SM 25/16 RMK SLP158 T02460163 57002 IEM_DS3505
ZGGG,1984-11-16 12:00,ZGGG 161200Z AUTO 00000KT 7SM 20/18 RMK SLP167 T01980179 52009 IEM_DS3505
ZGGG,1984-11-16 15:00,ZGGG 161500Z AUTO 00000KT 7SM 18/17 RMK SLP171 T01850172 52004 IEM_DS3505
ZGGG,1984-11-16 18:00,ZGGG 161800Z AUTO 00000KT 6SM 18/17 RMK SLP157 T01780170 40252//// 57014 IEM_DS3505
ZGGG,1984-11-16 21:00,ZGGG 162100Z AUTO 00000KT 4SM 17/16 RMK SLP158 T01680164 52001 IEM_DS3505
ZGGG,1984-11-17 00:00,ZGGG 170000Z AUTO 36002KT 8SM 19/17 RMK SLP169 T01910168 52011 IEM_DS3505
ZGGG,1984-11-17 01:00,ZGGG 170100Z AUTO 01002KT 7SM 21/18 A3000 RMK T02100180 IEM_DS3505
ZGGG,1984-11-17 02:00,ZGGG 170200Z AUTO 02006KT 6SM 23/17 A3003 RMK T02300170 IEM_DS3505
ZGGG,1984-11-17 03:00,ZGGG 170300Z AUTO 00000KT 4SM 25/18 A3000 RMK SLP172 T02510180 52003 IEM_DS3505
ZGGG,1984-11-17 04:00,ZGGG 170400Z AUTO 32006KT 7SM 26/17 RMK T02600170 IEM_DS3505
ZGGG,1984-11-17 05:00,ZGGG 170500Z AUTO 32006KT 7SM 26/17 A2994 RMK T02600170 IEM_DS3505
ZGGG,1984-11-17 06:00,ZGGG 170600Z AUTO 16004KT 4SM 27/18 RMK SLP137 T02700178 4////0166 57035 IEM_DS3505
ZGGG,1984-11-17 07:00,ZGGG 170700Z AUTO 36008KT 7SM 27/17 A2988 RMK T02700170 IEM_DS3505
ZGGG,1984-11-17 08:00,ZGGG 170800Z AUTO 36004KT 7SM 27/17 A2988 RMK T02700170 IEM_DS3505
ZGGG,1984-11-17 09:00,ZGGG 170900Z AUTO 27004KT 5SM 27/18 A2988 RMK SLP127 T02700178 57010 IEM_DS3505
ZGGG,1984-11-17 10:00,ZGGG 171000Z AUTO 00000KT 7SM 23/19 A2988 RMK T02300190 IEM_DS3505
ZGGG,1984-11-17 11:00,ZGGG 171100Z AUTO 00000KT 7SM 21/19 A2988 RMK T02100190 IEM_DS3505
ZGGG,1984-11-17 12:00,ZGGG 171200Z AUTO 00000KT 5SM 21/19 A2988 RMK SLP138 T02140190 52011 IEM_DS3505
ZGGG,1984-11-17 13:00,ZGGG 171300Z AUTO 00000KT 7SM 20/19 A2991 RMK T02000190 IEM_DS3505
ZGGG,1984-11-17 15:00,ZGGG 171500Z AUTO 00000KT 4SM 20/19 RMK SLP142 T01960186 52004 IEM_DS3505
ZGGG,1984-11-17 18:00,ZGGG 171800Z AUTO 00000KT 4SM 19/18 RMK SLP132 T01870180 40282//// 57010 IEM_DS3505
ZGGG,1984-11-17 21:00,ZGGG 172100Z AUTO 00000KT 4SM 19/16 RMK SLP130 T01930160 57002 IEM_DS3505
ZGGG,1984-11-17 22:00,ZGGG 172200Z AUTO 01008KT 6SM 17/16 A2988 RMK T01700160 IEM_DS3505
ZGGG,1984-11-17 23:00,ZGGG 172300Z AUTO 00000KT 6SM 17/16 A2991 RMK T01700160 IEM_DS3505
ZGGG,1984-11-18 00:00,ZGGG 180000Z AUTO 00000KT 11SM 20/14 A2994 RMK SLP152 T01950142 52022 IEM_DS3505
ZGGG,1984-11-18 02:00,ZGGG 180200Z AUTO 36008KT 7SM 23/14 A2997 RMK T02300140 IEM_DS3505
ZGGG,1984-11-18 03:00,ZGGG 180300Z AUTO 04004KT 9SM 26/13 A2997 RMK SLP155 T02580131 52003 IEM_DS3505
ZGGG,1984-11-18 06:00,ZGGG 180600Z AUTO 36004KT 14SM 28/13 RMK SLP127 T02750128 4////0175 57028 IEM_DS3505
ZGGG,1984-11-18 09:00,ZGGG 180900Z AUTO 34002KT 12SM 27/14 RMK SLP126 T02710144 57001 IEM_DS3505
ZGGG,1984-11-18 12:00,ZGGG 181200Z AUTO 34004KT 7SM 21/17 RMK SLP146 T02100173 52020 IEM_DS3505
ZGGG,1984-11-18 15:00,ZGGG 181500Z AUTO 36006KT 7SM 22/13 RMK SLP161 T02240129 52015 IEM_DS3505
ZGGG,1984-11-18 18:00,ZGGG 181800Z AUTO 02010KT 7SM 21/11 RMK SLP166 T02110108 40282//// 52005 IEM_DS3505
ZGGG,1984-11-18 21:00,ZGGG 182100Z AUTO 02010KT 7SM 20/11 RMK SLP169 T01960113 52003 IEM_DS3505
ZGGG,1984-11-19 00:00,ZGGG 190000Z AUTO 36008KT 11SM 19/11 RMK SLP185 T01940111 52016 IEM_DS3505
ZGGG,1984-11-19 03:00,ZGGG 190300Z AUTO 36010KT 11SM 23/11 RMK SLP183 T02340110 57002 IEM_DS3505
ZGGG,1984-11-19 06:00,ZGGG 190600Z AUTO 36012KT 11SM 25/11 RMK SLP151 T02480106 4////0191 57032 IEM_DS3505
ZGGG,1984-11-19 09:00,ZGGG 190900Z AUTO 36008KT 9SM 24/10 RMK SLP151 T02400096 54000 IEM_DS3505
ZGGG,1984-11-19 12:00,ZGGG 191200Z AUTO 04006KT 9SM 21/09 RMK SLP178 T02090086 52027 IEM_DS3505
ZGGG,1984-11-19 15:00,ZGGG 191500Z AUTO 36006KT 8SM 18/09 RMK SLP191 T01790088 52013 IEM_DS3505
ZGGG,1984-11-19 18:00,ZGGG 191800Z AUTO 36006KT 8SM 16/08 RMK SLP188 T01570082 40255//// 57003 IEM_DS3505
ZGGG,1984-11-19 21:00,ZGGG 192100Z AUTO 36010KT 9SM 14/08 RMK SLP188 T01410080 54000 IEM_DS3505
ZGGG,1984-11-19 23:00,ZGGG 192300Z AUTO 02010KT 7SM 12/09 A3009 RMK T01200090 IEM_DS3505
ZGGG,1984-11-20 00:00,ZGGG 200000Z AUTO 36010KT 9SM 14/07 A3012 RMK SLP210 T01410074 52022 IEM_DS3505
ZGGG,1984-11-20 01:00,ZGGG 200100Z AUTO 01014KT 7SM 15/08 A3012 RMK T01500080 IEM_DS3505
ZGGG,1984-11-20 03:00,ZGGG 200300Z AUTO 36008KT 10SM 18/08 A3012 RMK SLP209 T01800077 57001 IEM_DS3505
ZGGG,1984-11-20 05:00,ZGGG 200500Z AUTO 01014KT 7SM 19/08 A3006 RMK T01900080 IEM_DS3505
ZGGG,1984-11-20 06:00,ZGGG 200600Z AUTO 02008KT 11SM 20/08 RMK SLP176 T01970075 4////0135 57033 IEM_DS3505
ZGGG,1984-11-20 07:00,ZGGG 200700Z AUTO 01014KT 7SM 19/07 A3000 RMK T01900070 IEM_DS3505
ZGGG,1984-11-20 08:00,ZGGG 200800Z AUTO 02012KT 7SM 19/08 A3000 RMK T01900080 IEM_DS3505
ZGGG,1984-11-20 09:00,ZGGG 200900Z AUTO 02008KT 11SM 19/07 A3000 RMK SLP174 T01870071 57002 IEM_DS3505
ZGGG,1984-11-20 10:00,ZGGG 201000Z AUTO 35010KT 7SM 16/10 A3003 RMK T01600100 IEM_DS3505
ZGGG,1984-11-20 11:00,ZGGG 201100Z AUTO 04004KT 7SM 15/10 A3006 RMK T01500100 IEM_DS3505
ZGGG,1984-11-20 12:00,ZGGG 201200Z AUTO 36006KT 9SM 16/07 A3006 RMK SLP198 T01560071 52024 IEM_DS3505
ZGGG,1984-11-20 14:00,ZGGG 201400Z AUTO 03008KT 7SM 23/09 A3012 RMK T02300090 IEM_DS3505
ZGGG,1984-11-20 15:00,ZGGG 201500Z AUTO 04004KT 9SM 13/06 RMK SLP217 T01340065 52019 IEM_DS3505
ZGGG,1984-11-20 18:00,ZGGG 201800Z AUTO 36006KT 9SM 11/03 RMK SLP219 T01110034 40202//// 52002 IEM_DS3505
ZGGG,1984-11-20 21:00,ZGGG 202100Z AUTO 02008KT 9SM 10/03 RMK SLP217 T01010030 57002 IEM_DS3505
ZGGG,1984-11-21 00:00,ZGGG 210000Z AUTO 36008KT 9SM 10/03 RMK SLP239 T01010030 52022 IEM_DS3505
ZGGG,1984-11-21 03:00,ZGGG 210300Z AUTO 02006KT 11SM 15/04 RMK SLP236 T01480043 57003 IEM_DS3505
ZGGG,1984-11-21 06:00,ZGGG 210600Z AUTO 34010KT 7SM 18/07 RMK SLP198 T01850071 4////0094 57038 IEM_DS3505
ZGGG,1984-11-21 09:00,ZGGG 210900Z AUTO 34010KT 7SM 18/07 RMK SLP190 T01790069 57008 IEM_DS3505
ZGGG,1984-11-21 12:00,ZGGG 211200Z AUTO 36004KT 9SM 15/07 RMK SLP210 T01510069 52020 IEM_DS3505
ZGGG,1984-11-21 15:00,ZGGG 211500Z AUTO 34004KT 9SM 14/08 RMK SLP221 T01400075 52011 IEM_DS3505
ZGGG,1984-11-21 18:00,ZGGG 211800Z AUTO 02008KT 7SM 13/07 RMK SLP212 T01310069 40186//// 57009 IEM_DS3505
ZGGG,1984-11-21 21:00,ZGGG 212100Z AUTO 02004KT 7SM 12/07 RMK SLP214 T01190069 52002 IEM_DS3505
ZGGG,1984-11-22 00:00,ZGGG 220000Z AUTO 36004KT 9SM 12/07 RMK SLP230 T01230069 52016 IEM_DS3505
ZGGG,1984-11-22 03:00,ZGGG 220300Z AUTO 36006KT 7SM 17/08 RMK SLP228 T01740081 57002 IEM_DS3505
ZGGG,1984-11-22 06:00,ZGGG 220600Z AUTO 34006KT 9SM 22/10 RMK SLP203 T02150100 4////0106 57025 IEM_DS3505
ZGGG,1984-11-22 09:00,ZGGG 220900Z AUTO 34006KT 9SM 21/11 RMK SLP200 T02120112 57003 IEM_DS3505
ZGGG,1984-11-22 12:00,ZGGG 221200Z AUTO 34004KT 8SM 18/10 RMK SLP215 T01820103 52015 IEM_DS3505
ZGGG,1984-11-22 15:00,ZGGG 221500Z AUTO 36004KT 7SM 17/10 RMK SLP224 T01690104 52009 IEM_DS3505
ZGGG,1984-11-22 18:00,ZGGG 221800Z AUTO 36002KT 8SM 16/10 RMK SLP218 T01560105 40222//// 57006 IEM_DS3505
ZGGG,1984-11-22 21:00,ZGGG 222100Z AUTO 36002KT 7SM 15/10 RMK SLP213 T01510100 57005 IEM_DS3505
ZGGG,1984-11-23 00:00,ZGGG 230000Z AUTO 02004KT 9SM 15/10 RMK SLP226 T01530100 52013 IEM_DS3505
ZGGG,1984-11-23 03:00,ZGGG 230300Z AUTO 34008KT 9SM 20/11 RMK SLP231 T01980111 52005 IEM_DS3505
ZGGG,1984-11-23 09:00,ZGGG 230900Z AUTO 34006KT 9SM 23/13 RMK SLP194 T02280126 57007 IEM_DS3505
ZGGG,1984-11-23 11:00,ZGGG 231100Z AUTO 36004KT 9SM 19/13 RMK SLP207 T01890127 52013 IEM_DS3505
ZGGG,1984-11-23 12:00,ZGGG 231200Z AUTO 36004KT 9SM 19/13 RMK SLP207 T01890127 52013 IEM_DS3505
ZGGG,1984-11-23 15:00,ZGGG 231500Z AUTO 36006KT 8SM 19/12 RMK SLP217 T01880116 52010 IEM_DS3505
ZGGG,1984-11-23 18:00,ZGGG 231800Z AUTO 02008KT 7SM 17/11 RMK SLP214 T01730108 40236//// 57003 IEM_DS3505
ZGGG,1984-11-23 21:00,ZGGG 232100Z AUTO 36008KT 7SM 16/10 RMK SLP217 T01560099 52003 IEM_DS3505
ZGGG,1984-11-24 00:00,ZGGG 240000Z AUTO 36004KT 7SM 15/10 A3021 RMK SLP239 T01500096 52022 IEM_DS3505
ZGGG,1984-11-24 01:00,ZGGG 240100Z AUTO 35012KT 7SM 15/11 A3021 RMK T01500110 IEM_DS3505
ZGGG,1984-11-24 02:00,ZGGG 240200Z AUTO 01012KT 7SM 18/11 A3021 RMK T01800110 IEM_DS3505
ZGGG,1984-11-24 03:00,ZGGG 240300Z AUTO 36006KT 7SM 20/10 RMK SLP240 T01950105 52001 IEM_DS3505
ZGGG,1984-11-24 05:00,ZGGG 240500Z AUTO 02008KT 7SM 21/11 A3018 RMK T02100110 IEM_DS3505
ZGGG,1984-11-24 06:00,ZGGG 240600Z AUTO 36008KT 9SM 22/11 A3012 RMK SLP212 T02220113 4////0143 57028 IEM_DS3505
ZGGG,1984-11-24 07:00,ZGGG 240700Z AUTO 01012KT 7SM 22/10 A3012 RMK T02200100 IEM_DS3505
ZGGG,1984-11-24 08:00,ZGGG 240800Z AUTO 01010KT 7SM 22/11 A3012 RMK T02200110 IEM_DS3505
ZGGG,1984-11-24 09:00,ZGGG 240900Z AUTO 34008KT 9SM 21/11 A3012 RMK SLP209 T02120112 57003 IEM_DS3505
ZGGG,1984-11-24 10:00,ZGGG 241000Z AUTO 01008KT 7SM 19/11 A3012 RMK T01900110 IEM_DS3505
ZGGG,1984-11-24 11:00,ZGGG 241100Z AUTO 04008KT 7SM 17/12 A3015 RMK T01700120 IEM_DS3505
ZGGG,1984-11-24 12:00,ZGGG 241200Z AUTO 02006KT 7SM 18/10 A3018 RMK SLP227 T01820100 52018 IEM_DS3505
ZGGG,1984-11-24 15:00,ZGGG 241500Z AUTO 36008KT 6SM 16/10 RMK SLP238 T01640095 52011 IEM_DS3505
ZGGG,1984-11-24 18:00,ZGGG 241800Z AUTO 36006KT 7SM 15/08 RMK SLP239 T01540085 40226//// 52001 IEM_DS3505
ZGGG,1984-11-24 21:00,ZGGG 242100Z AUTO 36004KT 7SM 14/08 RMK SLP241 T01430080 52002 IEM_DS3505
ZGGG,1984-11-25 00:00,ZGGG 250000Z AUTO 04004KT 7SM 15/08 RMK SLP259 T01470077 52018 IEM_DS3505
ZGGG,1984-11-25 03:00,ZGGG 250300Z AUTO 36006KT 7SM 19/07 RMK SLP260 T01890071 52001 IEM_DS3505
ZGGG,1984-11-25 06:00,ZGGG 250600Z AUTO 36004KT 9SM 22/08 RMK SLP227 T02160080 4////0138 57033 IEM_DS3505
ZGGG,1984-11-25 09:00,ZGGG 250900Z AUTO 36004KT 9SM 21/08 RMK SLP219 T02120083 57008 IEM_DS3505
ZGGG,1984-11-25 12:00,ZGGG 251200Z AUTO 36004KT 7SM 18/09 RMK SLP234 T01770094 52015 IEM_DS3505
ZGGG,1984-11-25 15:00,ZGGG 251500Z AUTO 36006KT 7SM 17/09 RMK SLP239 T01660094 52005 IEM_DS3505
ZGGG,1984-11-25 18:00,ZGGG 251800Z AUTO 02004KT 7SM 16/09 RMK SLP242 T01570089 40222//// 52002 IEM_DS3505
ZGGG,1984-11-25 21:00,ZGGG 252100Z AUTO 02004KT 7SM RMK SLP239 57002 IEM_DS3505
ZGGG,1984-11-26 00:00,ZGGG 260000Z AUTO 02004KT 9SM 14/08 RMK SLP259 T01430081 52020 IEM_DS3505
ZGGG,1984-11-26 03:00,ZGGG 260300Z AUTO 34004KT 9SM 19/10 RMK SLP261 T01900099 52002 IEM_DS3505
ZGGG,1984-11-26 06:00,ZGGG 260600Z AUTO 02006KT 7SM 22/10 RMK SLP223 T02190105 4////0138 57038 IEM_DS3505
ZGGG,1984-11-26 09:00,ZGGG 260900Z AUTO 32004KT 7SM 22/11 RMK SLP211 T02200108 57012 IEM_DS3505
ZGGG,1984-11-26 12:00,ZGGG 261200Z AUTO 36002KT 7SM 18/11 RMK SLP228 T01810112 52017 IEM_DS3505
ZGGG,1984-11-26 15:00,ZGGG 261500Z AUTO 02004KT 6SM 18/11 RMK SLP242 T01780106 52014 IEM_DS3505
ZGGG,1984-11-26 18:00,ZGGG 261800Z AUTO 04006KT 6SM 17/10 RMK SLP241 T01700099 40230//// 57001 IEM_DS3505
ZGGG,1984-11-26 21:00,ZGGG 262100Z AUTO 04010KT 7SM 16/08 RMK SLP240 T01620083 57001 IEM_DS3505
ZGGG,1984-11-27 00:00,ZGGG 270000Z AUTO 36010KT 9SM 16/07 RMK SLP259 T01600069 52019 IEM_DS3505
ZGGG,1984-11-27 01:00,ZGGG 270100Z AUTO 01016KT 6SM 16/08 A3027 RMK T01600080 IEM_DS3505
ZGGG,1984-11-27 02:00,ZGGG 270200Z AUTO 02017KT 6SM 17/07 A3027 RMK T01700070 IEM_DS3505
ZGGG,1984-11-27 03:00,ZGGG 270300Z AUTO 02008KT 9SM 18/06 A3027 RMK SLP257 T01800060 57002 IEM_DS3505
ZGGG,1984-11-27 04:00,ZGGG 270400Z AUTO 01016KT 6SM 19/07 A3024 RMK T01900070 IEM_DS3505
ZGGG,1984-11-27 05:00,ZGGG 270500Z AUTO 03014KT 7SM 20/08 A3021 RMK T02000080 IEM_DS3505
ZGGG,1984-11-27 06:00,ZGGG 270600Z AUTO 36008KT 10SM 21/08 A3018 RMK SLP226 T02100080 4////0158 57031 IEM_DS3505
ZGGG,1984-11-27 07:00,ZGGG 270700Z AUTO 36016KT 7SM 21/08 A3015 RMK T02100080 IEM_DS3505
ZGGG,1984-11-27 08:00,ZGGG 270800Z AUTO 34016KT 7SM 20/08 A3015 RMK T02000080 IEM_DS3505
ZGGG,1984-11-27 09:00,ZGGG 270900Z AUTO 34006KT 8SM 19/08 A3015 RMK SLP221 T01930083 57005 IEM_DS3505
ZGGG,1984-11-27 10:00,ZGGG 271000Z AUTO 34014KT 7SM 17/09 A3018 RMK T01700090 IEM_DS3505
ZGGG,1984-11-27 12:00,ZGGG 271200Z AUTO 36010KT 7SM 16/08 RMK SLP233 T01600081 52012 IEM_DS3505
ZGGG,1984-11-27 15:00,ZGGG 271500Z AUTO 36006KT 7SM 15/07 RMK SLP251 T01490072 52018 IEM_DS3505
ZGGG,1984-11-27 18:00,ZGGG 271800Z AUTO 36008KT 6SM 14/07 RMK SLP243 T01400071 40214//// 57008 IEM_DS3505
ZGGG,1984-11-27 21:00,ZGGG 272100Z AUTO 34004KT 6SM 12/07 RMK SLP238 T01200072 57005 IEM_DS3505
ZGGG,1984-11-28 00:00,ZGGG 280000Z AUTO 36004KT 9SM 13/07 RMK SLP251 T01290071 52013 IEM_DS3505
ZGGG,1984-11-28 03:00,ZGGG 280300Z AUTO 34006KT 9SM 18/08 RMK SLP243 T01750077 57008 IEM_DS3505
ZGGG,1984-11-28 06:00,ZGGG 280600Z AUTO 36006KT 8SM 20/08 RMK SLP211 T02020085 57032 IEM_DS3505
ZGGG,1984-11-28 09:00,ZGGG 280900Z AUTO 34004KT 7SM 20/08 RMK SLP210 T02000083 57001 IEM_DS3505
ZGGG,1984-11-28 12:00,ZGGG 281200Z AUTO 36006KT 9SM 17/08 RMK SLP225 T01680085 52015 IEM_DS3505
ZGGG,1984-11-28 15:00,ZGGG 281500Z AUTO 02006KT 7SM 16/08 RMK SLP232 T01580083 52007 IEM_DS3505
ZGGG,1984-11-28 18:00,ZGGG 281800Z AUTO 02006KT 7SM 14/08 RMK SLP226 T01450081 40209//// 57006 IEM_DS3505
ZGGG,1984-11-28 21:00,ZGGG 282100Z AUTO 36004KT 7SM 13/07 RMK SLP228 T01290071 52002 IEM_DS3505
ZGGG,1984-11-29 00:00,ZGGG 290000Z AUTO 36004KT 7SM 13/07 RMK SLP246 T01270074 52018 IEM_DS3505
ZGGG,1984-11-29 03:00,ZGGG 290300Z AUTO 34006KT 7SM 18/08 RMK SLP250 T01810082 52004 IEM_DS3505
ZGGG,1984-11-29 06:00,ZGGG 290600Z AUTO 16006KT 7SM 21/09 RMK SLP215 T02120091 4////0116 57035 IEM_DS3505
ZGGG,1984-11-29 09:00,ZGGG 290900Z AUTO 16002KT 5SM 20/11 RMK SLP213 T01990106 57002 IEM_DS3505
ZGGG,1984-11-29 11:00,ZGGG 291100Z AUTO 00000KT 6SM 17/12 RMK SLP222 T01690121 52009 IEM_DS3505
ZGGG,1984-11-29 12:00,ZGGG 291200Z AUTO 00000KT 6SM 17/12 RMK SLP222 T01690121 52009 IEM_DS3505
ZGGG,1984-11-29 15:00,ZGGG 291500Z AUTO 09002KT 6SM 17/12 RMK SLP231 T01670120 52009 IEM_DS3505
ZGGG,1984-11-29 18:00,ZGGG 291800Z AUTO 04002KT 6SM 17/11 RMK SLP229 T01660113 57002 IEM_DS3505
ZGGG,1984-11-29 21:00,ZGGG 292100Z AUTO 34004KT 5SM 15/11 RMK SLP235 T01540110 52006 IEM_DS3505
ZGGG,1984-11-30 00:00,ZGGG 300000Z AUTO 02006KT 6SM 16/09 RMK 60000 SLP246 T01590089 52011 IEM_DS3505
ZGGG,1984-11-30 03:00,ZGGG 300300Z AUTO 36004KT 6SM 18/10 RMK SLP252 T01750098 52006 IEM_DS3505
ZGGG,1984-11-30 06:00,ZGGG 300600Z AUTO 02006KT 7SM 21/10 RMK SLP222 T02070099 4////0153 57030 IEM_DS3505
ZGGG,1984-11-30 09:00,ZGGG 300900Z AUTO 02006KT 7SM 21/11 RMK SLP217 T02070110 57005 IEM_DS3505
ZGGG,1984-11-30 12:00,ZGGG 301200Z AUTO 00000KT 7SM 16/12 RMK SLP232 T01580124 52015 IEM_DS3505
ZGGG,1984-11-30 15:00,ZGGG 301500Z AUTO 02002KT 7SM 17/11 RMK SLP238 T01690106 52006 IEM_DS3505
ZGGG,1984-11-30 16:00,ZGGG 301600Z AUTO 34006KT 7SM 16/09 RMK SLP229 T01610091 57090 IEM_DS3505
ZGGG,1984-11-30 18:00,ZGGG 301800Z AUTO 34006KT 7SM 16/09 RMK SLP229 T01610091 40221//// 57009 IEM_DS3505
ZGGG,1984-11-30 21:00,ZGGG 302100Z AUTO 36004KT 7SM 14/09 RMK SLP229 T01410088 54000 IEM_DS3505
ZGGG,1984-12-01 00:00,ZGGG 010000Z AUTO 36006KT 7SM 14/08 RMK SLP240 T01400082 52011 IEM_DS3505
ZGGG,1984-12-01 01:00,ZGGG 010100Z AUTO 36008KT 6SM 15/10 A3021 RMK T01500100 IEM_DS3505
ZGGG,1984-12-01 02:00,ZGGG 010200Z AUTO 01016KT 6SM 17/07 A3021 RMK T01700070 IEM_DS3505
ZGGG,1984-12-01 03:00,ZGGG 010300Z AUTO 36006KT 7SM 19/06 A3021 RMK SLP235 T01880065 57005 IEM_DS3505
ZGGG,1984-12-01 05:00,ZGGG 010500Z AUTO 01014KT 6SM 20/06 A3012 RMK T02000060 IEM_DS3505
ZGGG,1984-12-01 06:00,ZGGG 010600Z AUTO 34006KT 9SM 21/07 A3009 RMK SLP199 T02100072 4////0131 57036 IEM_DS3505
ZGGG,1984-12-01 07:00,ZGGG 010700Z AUTO 36008KT 6SM 20/06 A3006 RMK T02000060 IEM_DS3505
ZGGG,1984-12-01 08:00,ZGGG 010800Z AUTO 35006KT 6SM RMK IEM_DS3505
ZGGG,1984-12-01 09:00,ZGGG 010900Z AUTO 34004KT 9SM 21/07 A3006 RMK SLP188 T02100072 57011 IEM_DS3505
ZGGG,1984-12-01 10:00,ZGGG 011000Z AUTO 11004KT 6SM 16/10 A3006 RMK T01600100 IEM_DS3505
ZGGG,1984-12-01 12:00,ZGGG 011200Z AUTO 00000KT 6SM 15/10 RMK SLP202 T01510098 52014 IEM_DS3505
ZGGG,1984-12-01 15:00,ZGGG 011500Z AUTO 34004KT 6SM 15/10 RMK SLP210 T01460098 52008 IEM_DS3505
ZGGG,1984-12-01 18:00,ZGGG 011800Z AUTO 02004KT 7SM 15/08 RMK SLP200 T01500083 40217//// 57010 IEM_DS3505
ZGGG,1984-12-01 21:00,ZGGG 012100Z AUTO 36004KT 7SM 15/06 RMK SLP191 T01520056 57009 IEM_DS3505
ZGGG,1984-12-02 00:00,ZGGG 020000Z AUTO 02004KT 7SM 15/06 RMK SLP205 T01460059 52014 IEM_DS3505
ZGGG,1984-12-02 03:00,ZGGG 020300Z AUTO 02004KT 7SM 18/06 RMK SLP212 T01780060 52007 IEM_DS3505
ZGGG,1984-12-02 06:00,ZGGG 020600Z AUTO 16004KT 7SM 21/06 RMK SLP179 T02120062 4////0134 57033 IEM_DS3505
ZGGG,1984-12-02 09:00,ZGGG 020900Z AUTO 16004KT 7SM 20/08 RMK SLP176 T02000081 57003 IEM_DS3505
ZGGG,1984-12-02 12:00,ZGGG 021200Z AUTO 07004KT 6SM 16/11 RMK SLP193 T01580110 52017 IEM_DS3505
ZGGG,1984-12-02 15:00,ZGGG 021500Z AUTO 07004KT 6SM 14/10 RMK SLP199 T01420101 52006 IEM_DS3505
ZGGG,1984-12-02 18:00,ZGGG 021800Z AUTO 00000KT 6SM 12/11 RMK SLP196 T01190110 40214//// 57003 IEM_DS3505
ZGGG,1984-12-02 21:00,ZGGG 022100Z AUTO 00000KT 7SM 12/11 RMK SLP184 T01220111 57012 IEM_DS3505
ZGGG,1984-12-03 00:00,ZGGG 030000Z AUTO 00000KT 6SM 13/11 RMK SLP204 T01330111 52020 IEM_DS3505
ZGGG,1984-12-03 03:00,ZGGG 030300Z AUTO 16004KT 6SM 17/10 RMK SLP211 T01680100 52007 IEM_DS3505
ZGGG,1984-12-03 06:00,ZGGG 030600Z AUTO 09004KT 7SM 19/11 RMK SLP174 T01910107 4////0117 57037 IEM_DS3505
ZGGG,1984-12-03 09:00,ZGGG 030900Z AUTO 00000KT 4SM 18/13 RMK SLP170 T01820131 57004 IEM_DS3505
ZGGG,1984-12-03 12:00,ZGGG 031200Z AUTO 00000KT 5SM 17/14 RMK SLP179 T01690136 52009 IEM_DS3505
ZGGG,1984-12-03 15:00,ZGGG 031500Z AUTO 00000KT 2 1/2SM 16/14 RMK SLP184 T01640138 52005 IEM_DS3505
ZGGG,1984-12-03 18:00,ZGGG 031800Z AUTO 00000KT 4SM 17/13 RMK SLP183 T01690132 40193//// 57001 IEM_DS3505
ZGGG,1984-12-03 21:00,ZGGG 032100Z AUTO 00000KT 2 1/2SM 16/14 RMK SLP188 T01580135 52005 IEM_DS3505
ZGGG,1984-12-04 00:00,ZGGG 040000Z AUTO 00000KT 7SM 15/13 RMK SLP191 T01520132 52009 IEM_DS3505
ZGGG,1984-12-04 03:00,ZGGG 040300Z AUTO 02006KT 10SM 23/14 RMK SLP201 T02290137 52004 IEM_DS3505
ZGGG,1984-12-04 05:00,ZGGG 040500Z AUTO 36010KT 6SM 24/13 A3003 RMK T02400130 IEM_DS3505
ZGGG,1984-12-04 06:00,ZGGG 040600Z AUTO 34004KT 10SM 26/14 A3000 RMK SLP167 T02570138 4////0148 57034 IEM_DS3505
ZGGG,1984-12-04 07:00,ZGGG 040700Z AUTO 36010KT 7SM 26/12 A2997 RMK T02600120 IEM_DS3505
ZGGG,1984-12-04 08:00,ZGGG 040800Z AUTO 03012KT 7SM 26/12 A2997 RMK T02600120 IEM_DS3505
ZGGG,1984-12-04 09:00,ZGGG 040900Z AUTO 02006KT 10SM 25/13 RMK SLP158 T02540128 57009 IEM_DS3505
ZGGG,1984-12-04 12:00,ZGGG 041200Z AUTO 02006KT 8SM 22/11 RMK SLP182 T02210110 52024 IEM_DS3505
ZGGG,1984-12-04 15:00,ZGGG 041500Z AUTO 02006KT 8SM 20/09 RMK SLP196 T02020091 52014 IEM_DS3505
ZGGG,1984-12-04 18:00,ZGGG 041800Z AUTO 36006KT 7SM 19/07 RMK SLP188 T01930074 40265//// 57008 IEM_DS3505
ZGGG,1984-12-04 21:00,ZGGG 042100Z AUTO 34006KT 6SM 17/07 RMK SLP188 T01730067 54000 IEM_DS3505
ZGGG,1984-12-05 00:00,ZGGG 050000Z AUTO 36002KT 10SM 17/06 RMK SLP201 T01690056 52013 IEM_DS3505
ZGGG,1984-12-05 03:00,ZGGG 050300Z AUTO 36008KT 9SM 20/06 RMK SLP211 T01980060 52010 IEM_DS3505
ZGGG,1984-12-05 06:00,ZGGG 050600Z AUTO 02008KT 7SM 22/08 RMK SLP182 T02170075 4////0167 57029 IEM_DS3505
ZGGG,1984-12-05 09:00,ZGGG 050900Z AUTO 36006KT 7SM 21/07 RMK SLP175 T02070071 57007 IEM_DS3505
ZGGG,1984-12-05 12:00,ZGGG 051200Z AUTO 34006KT 7SM 18/07 RMK SLP191 T01800069 52016 IEM_DS3505
ZGGG,1984-12-05 15:00,ZGGG 051500Z AUTO 02006KT 7SM 16/07 RMK SLP204 T01650068 52013 IEM_DS3505
ZGGG,1984-12-05 18:00,ZGGG 051800Z AUTO 02006KT 7SM 15/06 RMK SLP199 T01460059 40222//// 57005 IEM_DS3505
ZGGG,1984-12-05 21:00,ZGGG 052100Z AUTO 02006KT 7SM 13/05 RMK SLP202 T01270051 52003 IEM_DS3505
ZGGG,1984-12-06 00:00,ZGGG 060000Z AUTO 02004KT 5SM 12/05 RMK SLP227 T01200053 52005 IEM_DS3505
ZGGG,1984-12-06 03:00,ZGGG 060300Z AUTO 32004KT 5SM 16/06 RMK SLP225 T01640062 57002 IEM_DS3505
ZGGG,1984-12-06 06:00,ZGGG 060600Z AUTO 36002KT 4SM 20/08 RMK SLP187 T02010081 4////0115 57038 IEM_DS3505
ZGGG,1984-12-06 09:00,ZGGG 060900Z AUTO 18004KT 4SM 20/09 RMK SLP179 T02020091 57008 IEM_DS3505
ZGGG,1984-12-06 12:00,ZGGG 061200Z AUTO 00000KT 4SM 15/11 RMK SLP197 T01480113 52018 IEM_DS3505
ZGGG,1984-12-06 15:00,ZGGG 061500Z AUTO 00000KT 4SM 13/10 RMK SLP215 T01260105 52018 IEM_DS3505
ZGGG,1984-12-06 18:00,ZGGG 061800Z AUTO 00000KT 5SM 12/10 RMK SLP205 T01150095 40214//// 57010 IEM_DS3505
ZGGG,1984-12-06 21:00,ZGGG 062100Z AUTO 00000KT 2 1/2SM 11/09 RMK SLP202 T01120091 57003 IEM_DS3505
ZGGG,1984-12-07 00:00,ZGGG 070000Z AUTO 02004KT 5SM 14/09 RMK SLP218 T01410090 52016 IEM_DS3505
ZGGG,1984-12-07 03:00,ZGGG 070300Z AUTO 16002KT 5SM 19/10 RMK SLP222 T01930103 52004 IEM_DS3505
ZGGG,1984-12-07 06:00,ZGGG 070600Z AUTO 20004KT 5SM 22/10 RMK SLP187 T02160101 4////0112 57035 IEM_DS3505
ZGGG,1984-12-07 09:00,ZGGG 070900Z AUTO 00000KT 5SM 20/12 RMK SLP179 T02050115 57008 IEM_DS3505
ZGGG,1984-12-07 12:00,ZGGG 071200Z AUTO 00000KT 2 1/2SM 16/13 RMK SLP188 T01580129 52009 IEM_DS3505
ZGGG,1984-12-07 15:00,ZGGG 071500Z AUTO 00000KT 2SM 17/14 RMK SLP197 T01670137 52009 IEM_DS3505
ZGGG,1984-12-07 18:00,ZGGG 071800Z AUTO 00000KT 2 1/2SM 17/14 RMK SLP198 T01680140 40227//// 52001 IEM_DS3505
ZGGG,1984-12-07 21:00,ZGGG 072100Z AUTO 00000KT 2 1/2SM 16/15 RMK SLP188 T01610146 57010 IEM_DS3505
ZGGG,1984-12-08 00:00,ZGGG 080000Z AUTO 07004KT 5SM 16/15 RMK SLP189 T01650146 52001 IEM_DS3505
ZGGG,1984-12-08 01:00,ZGGG 080100Z AUTO 18004KT 6SM 19/14 A3006 RMK T01900140 IEM_DS3505
ZGGG,1984-12-08 02:00,ZGGG 080200Z AUTO 00000KT 6SM 20/13 A3006 RMK T02000130 IEM_DS3505
ZGGG,1984-12-08 03:00,ZGGG 080300Z AUTO 09004KT 5SM 21/14 A3006 RMK SLP195 T02110135 52006 IEM_DS3505
ZGGG,1984-12-08 04:00,ZGGG 080400Z AUTO 15006KT 6SM 23/14 A3003 RMK T02300140 IEM_DS3505
ZGGG,1984-12-08 06:00,ZGGG 080600Z AUTO 16006KT 5SM 24/13 A2994 RMK SLP153 T02350126 4////0157 57042 IEM_DS3505
ZGGG,1984-12-08 07:00,ZGGG 080700Z AUTO 14006KT 6SM 23/13 A2994 RMK T02300130 IEM_DS3505
ZGGG,1984-12-08 08:00,ZGGG 080800Z AUTO 00000KT 6SM 23/13 RMK T02300130 IEM_DS3505
ZGGG,1984-12-08 09:00,ZGGG 080900Z AUTO 00000KT 6SM 23/13 A2991 RMK SLP145 T02300128 57008 IEM_DS3505
ZGGG,1984-12-08 10:00,ZGGG 081000Z AUTO 00000KT 4SM 20/16 A2994 RMK T02000160 IEM_DS3505
ZGGG,1984-12-08 12:00,ZGGG 081200Z AUTO 00000KT 5SM 21/16 RMK SLP156 T02060160 52011 IEM_DS3505
ZGGG,1984-12-08 15:00,ZGGG 081500Z AUTO 16004KT 5SM 19/15 RMK SLP169 T01900153 52013 IEM_DS3505
ZGGG,1984-12-08 18:00,ZGGG 081800Z AUTO 00000KT 5SM 18/16 RMK SLP166 T01820162 40242//// 57003 IEM_DS3505
ZGGG,1984-12-08 21:00,ZGGG 082100Z AUTO 00000KT 5SM 18/16 RMK SLP158 T01770160 57008 IEM_DS3505
ZGGG,1984-12-09 00:00,ZGGG 090000Z AUTO 00000KT 7SM 18/16 RMK SLP162 T01760157 52004 IEM_DS3505
ZGGG,1984-12-09 03:00,ZGGG 090300Z AUTO 18004KT 5SM 23/16 RMK SLP162 T02260158 54000 IEM_DS3505
ZGGG,1984-12-09 06:00,ZGGG 090600Z AUTO 00000KT 5SM 24/15 RMK SLP126 T02450153 4////0172 57036 IEM_DS3505
ZGGG,1984-12-09 09:00,ZGGG 090900Z AUTO 00000KT 2 1/2SM 24/16 RMK SLP120 T02390156 57006 IEM_DS3505
ZGGG,1984-12-09 12:00,ZGGG 091200Z AUTO 00000KT 2 1/2SM 19/16 RMK SLP137 T01870165 52017 IEM_DS3505
ZGGG,1984-12-09 15:00,ZGGG 091500Z AUTO 00000KT 2 1/2SM 17/16 RMK SLP145 T01710157 52008 IEM_DS3505
ZGGG,1984-12-09 18:00,ZGGG 091800Z AUTO 00000KT 2SM 16/16 RMK SLP152 T01580155 40255//// 52007 IEM_DS3505
ZGGG,1984-12-09 21:00,ZGGG 092100Z AUTO 00000KT 2 1/2SM 17/16 RMK SLP145 T01660159 57007 IEM_DS3505
ZGGG,1984-12-10 00:00,ZGGG 100000Z AUTO 00000KT 2SM 16/16 RMK SLP150 T01580155 52005 IEM_DS3505
ZGGG,1984-12-10 03:00,ZGGG 100300Z AUTO 14004KT 2 1/2SM 21/17 RMK SLP156 T02080169 52006 IEM_DS3505
ZGGG,1984-12-10 06:00,ZGGG 100600Z AUTO 22004KT 4SM 24/15 RMK SLP126 T02420153 4////0154 57030 IEM_DS3505
ZGGG,1984-12-10 09:00,ZGGG 100900Z AUTO 00000KT 5SM 24/16 RMK SLP126 T02360157 54000 IEM_DS3505
ZGGG,1984-12-10 12:00,ZGGG 101200Z AUTO 16004KT 5SM 20/16 RMK SLP144 T01990159 52018 IEM_DS3505
ZGGG,1984-12-10 15:00,ZGGG 101500Z AUTO 00000KT 5SM 18/16 RMK SLP159 T01790159 52015 IEM_DS3505
ZGGG,1984-12-10 18:00,ZGGG 101800Z AUTO 00000KT 5SM 16/15 RMK SLP164 T01610154 40252//// 52005 IEM_DS3505
ZGGG,1984-12-10 21:00,ZGGG 102100Z AUTO 00000KT 4SM 15/14 RMK SLP162 T01500143 57002 IEM_DS3505
ZGGG,1984-12-11 00:00,ZGGG 110000Z AUTO 00000KT 5SM 15/15 RMK SLP181 T01540150 52019 IEM_DS3505
ZGGG,1984-12-11 03:00,ZGGG 110300Z AUTO 14004KT 4SM 22/15 A3003 RMK SLP181 T02230153 54000 IEM_DS3505
ZGGG,1984-12-11 04:00,ZGGG 110400Z AUTO 00000KT 3SM 22/16 A3000 RMK T02200160 IEM_DS3505
ZGGG,1984-12-11 05:00,ZGGG 110500Z AUTO 00000KT 4SM 22/ A2997 RMK IEM_DS3505
ZGGG,1984-12-11 06:00,ZGGG 110600Z AUTO 00000KT 2 1/2SM 22/16 A2997 RMK SLP155 T02170159 4////0143 57026 IEM_DS3505
ZGGG,1984-12-11 07:00,ZGGG 110700Z AUTO 23008KT 3SM 22/14 RMK T02200140 IEM_DS3505
ZGGG,1984-12-11 08:00,ZGGG 110800Z AUTO 28006KT 4SM 22/16 A2994 RMK T02200160 IEM_DS3505
ZGGG,1984-12-11 09:00,ZGGG 110900Z AUTO 00000KT 2SM 22/16 A2994 RMK SLP153 T02190162 57002 IEM_DS3505
ZGGG,1984-12-11 10:00,ZGGG 111000Z AUTO 03002KT 2 1/2SM 19/17 A2997 RMK T01900170 IEM_DS3505
ZGGG,1984-12-11 11:00,ZGGG 111100Z AUTO 00000KT 2 1/2SM 18/16 A2997 RMK T01800160 IEM_DS3505
ZGGG,1984-12-11 12:00,ZGGG 111200Z AUTO 00000KT 2SM 18/16 A2997 RMK T01770162 52013 IEM_DS3505
ZGGG,1984-12-11 13:00,ZGGG 111300Z AUTO 04006KT 3SM 18/16 A2997 RMK T01800160 IEM_DS3505
ZGGG,1984-12-11 15:00,ZGGG 111500Z AUTO 00000KT 2SM 16/15 RMK SLP171 T01610152 52005 IEM_DS3505
ZGGG,1984-12-11 18:00,ZGGG 111800Z AUTO 00000KT 2SM 15/14 A3000 RMK SLP177 T01480141 40226//// 52006 IEM_DS3505
ZGGG,1984-12-11 19:00,ZGGG 111900Z AUTO 00000KT 2SM 14/14 A3000 RMK T01400140 IEM_DS3505
ZGGG,1984-12-11 20:00,ZGGG 112000Z AUTO 00000KT 2SM 14/14 A3000 RMK T01400140 IEM_DS3505
ZGGG,1984-12-11 21:00,ZGGG 112100Z AUTO 00000KT 2 1/2SM 16/15 RMK SLP178 T01560146 52001 IEM_DS3505
ZGGG,1984-12-11 22:00,ZGGG 112200Z AUTO 01008KT 2 1/2SM 15/14 A3003 RMK T01500140 IEM_DS3505
ZGGG,1984-12-11 23:00,ZGGG 112300Z AUTO 36008KT 2SM 16/14 A3003 RMK T01600140 IEM_DS3505
ZGGG,1984-12-12 00:00,ZGGG 120000Z AUTO 00000KT 2SM 17/15 RMK SLP190 T01660147 52012 IEM_DS3505
ZGGG,1984-12-12 01:00,ZGGG 120100Z AUTO 00000KT 2 1/2SM 17/15 A3006 RMK T01700150 IEM_DS3505
ZGGG,1984-12-12 02:00,ZGGG 120200Z AUTO 00000KT 1 1/2SM 18/15 A3006 RMK T01800150 IEM_DS3505
ZGGG,1984-12-12 03:00,ZGGG 120300Z AUTO 14004KT 1 1/4SM 21/16 A3006 RMK SLP187 T02070164 57003 IEM_DS3505
ZGGG,1984-12-12 06:00,ZGGG 120600Z AUTO 18006KT 2 1/2SM 23/16 RMK SLP156 T02340161 4////0142 57031 IEM_DS3505
ZGGG,1984-12-12 09:00,ZGGG 120900Z AUTO 00000KT 2 1/2SM 22/16 RMK SLP153 T02240160 57003 IEM_DS3505
ZGGG,1984-12-12 12:00,ZGGG 121200Z AUTO 00000KT 4SM 18/17 RMK SLP170 T01810166 52017 IEM_DS3505
ZGGG,1984-12-12 15:00,ZGGG 121500Z AUTO 00000KT 2 1/2SM 18/16 RMK SLP179 T01800165 52009 IEM_DS3505
ZGGG,1984-12-12 18:00,ZGGG 121800Z AUTO 00000KT 4SM 16/15 RMK SLP175 T01560152 40239//// 57004 IEM_DS3505
ZGGG,1984-12-12 21:00,ZGGG 122100Z AUTO 04002KT 2 1/2SM 15/14 RMK SLP176 T01480143 52001 IEM_DS3505
ZGGG,1984-12-13 00:00,ZGGG 130000Z AUTO 00000KT 5SM 16/15 RMK SLP181 T01560151 52005 IEM_DS3505
ZGGG,1984-12-13 03:00,ZGGG 130300Z AUTO 11004KT 5SM 22/16 RMK SLP177 T02200157 57004 IEM_DS3505
ZGGG,1984-12-13 06:00,ZGGG 130600Z AUTO 16008KT 7SM 24/16 RMK SLP142 T02370160 4////0146 57035 IEM_DS3505
ZGGG,1984-12-13 09:00,ZGGG 130900Z AUTO 16004KT 8SM 23/16 RMK SLP141 T02300163 57001 IEM_DS3505
ZGGG,1984-12-13 12:00,ZGGG 131200Z AUTO 00000KT 5SM 21/17 RMK SLP150 T02100168 52009 IEM_DS3505
ZGGG,1984-12-13 15:00,ZGGG 131500Z AUTO 00000KT 4SM 19/17 RMK SLP158 T01940171 52008 IEM_DS3505
ZGGG,1984-12-13 18:00,ZGGG 131800Z AUTO 00000KT 2 1/2SM 18/17 RMK SLP158 T01850172 40242//// 54000 IEM_DS3505
ZGGG,1984-12-13 21:00,ZGGG 132100Z AUTO 07002KT 2SM 18/17 RMK SLP152 T01750170 57006 IEM_DS3505
ZGGG,1984-12-14 00:00,ZGGG 140000Z AUTO 00000KT 4SM 18/17 RMK SLP165 T01770167 52013 IEM_DS3505
ZGGG,1984-12-14 03:00,ZGGG 140300Z AUTO 11006KT 6SM 24/18 RMK SLP170 T02380180 52005 IEM_DS3505
ZGGG,1984-12-14 06:00,ZGGG 140600Z AUTO 20004KT 9SM 26/18 RMK SLP139 T02580181 4////0170 57031 IEM_DS3505
ZGGG,1984-12-14 09:00,ZGGG 140900Z AUTO 00000KT 8SM 25/18 RMK SLP135 T02500183 57004 IEM_DS3505
ZGGG,1984-12-14 12:00,ZGGG 141200Z AUTO 00000KT 5SM 21/19 RMK SLP151 T02120187 52016 IEM_DS3505
ZGGG,1984-12-14 15:00,ZGGG 141500Z AUTO 00000KT 4SM 18/18 RMK SLP164 T01850179 52013 IEM_DS3505
ZGGG,1984-12-14 18:00,ZGGG 141800Z AUTO 00000KT 4SM 18/17 RMK SLP166 T01760172 40266//// 52002 IEM_DS3505
ZGGG,1984-12-14 21:00,ZGGG 142100Z AUTO 00000KT 2 1/2SM 17/17 RMK SLP165 T01660166 57001 IEM_DS3505
ZGGG,1984-12-15 00:00,ZGGG 150000Z AUTO 00000KT 2SM 17/17 A3000 RMK SLP180 T01710169 52015 IEM_DS3505
ZGGG,1984-12-15 01:00,ZGGG 150100Z AUTO 00000KT 1 1/2SM 20/19 A3003 RMK T02000190 IEM_DS3505
ZGGG,1984-12-15 03:00,ZGGG 150300Z AUTO 00000KT 1 1/4SM 22/19 A3003 RMK SLP176 T02190186 57004 IEM_DS3505
ZGGG,1984-12-15 04:00,ZGGG 150400Z AUTO 00000KT 2SM 23/18 A3000 RMK T02300180 IEM_DS3505
ZGGG,1984-12-15 05:00,ZGGG 150500Z AUTO 11006KT 3SM 25/17 A2997 RMK T02500170 IEM_DS3505
ZGGG,1984-12-15 06:00,ZGGG 150600Z AUTO 14004KT 5SM 25/17 A2991 RMK SLP141 T02520169 4////0160 57035 IEM_DS3505
ZGGG,1984-12-15 07:00,ZGGG 150700Z AUTO 10008KT 7SM 26/17 A2988 RMK T02600170 IEM_DS3505
ZGGG,1984-12-15 08:00,ZGGG 150800Z AUTO 17006KT 7SM 25/18 A2988 RMK T02500180 IEM_DS3505
ZGGG,1984-12-15 09:00,ZGGG 150900Z AUTO 14004KT 7SM 25/17 A2988 RMK SLP130 T02480172 57011 IEM_DS3505
ZGGG,1984-12-15 10:00,ZGGG 151000Z AUTO 13004KT 7SM 23/18 A2988 RMK T02300180 IEM_DS3505
ZGGG,1984-12-15 12:00,ZGGG 151200Z AUTO 00000KT 4SM 20/18 RMK SLP135 T02040183 52005 IEM_DS3505
ZGGG,1984-12-15 15:00,ZGGG 151500Z AUTO 00000KT 2 1/2SM 20/18 RMK SLP147 T02010182 52012 IEM_DS3505
ZGGG,1984-12-15 18:00,ZGGG 151800Z AUTO 00000KT 2 1/2SM 19/18 RMK SLP140 T01880180 40258//// 57007 IEM_DS3505
ZGGG,1984-12-15 21:00,ZGGG 152100Z AUTO 00000KT 2SM 19/19 RMK SLP135 T01940188 57005 IEM_DS3505
ZGGG,1984-12-16 00:00,ZGGG 160000Z AUTO 00000KT 2 1/2SM 20/19 RMK 60004 SLP147 T01960188 52012 IEM_DS3505
ZGGG,1984-12-16 03:00,ZGGG 160300Z AUTO 00000KT 2SM 23/20 RMK SLP151 T02280196 52004 IEM_DS3505
ZGGG,1984-12-16 06:00,ZGGG 160600Z AUTO 16002KT 5SM 25/20 RMK SLP116 T02530198 4////0187 57035 IEM_DS3505
ZGGG,1984-12-16 09:00,ZGGG 160900Z AUTO 07004KT 5SM 24/19 RMK SLP108 T02450192 57008 IEM_DS3505
ZGGG,1984-12-16 12:00,ZGGG 161200Z AUTO 02006KT 4SM 20/15 RMK SLP129 T02000149 52021 IEM_DS3505
ZGGG,1984-12-16 15:00,ZGGG 161500Z AUTO 36006KT 4SM 18/14 RMK SLP142 T01820137 52013 IEM_DS3505
ZGGG,1984-12-16 18:00,ZGGG 161800Z AUTO 36008KT 4SM 17/12 RMK SLP147 T01660123 40255//// 52005 IEM_DS3505
ZGGG,1984-12-16 21:00,ZGGG 162100Z AUTO 36002KT 4SM 16/12 RMK SLP143 T01610120 57004 IEM_DS3505
ZGGG,1984-12-17 00:00,ZGGG 170000Z AUTO 34006KT 7SM 16/11 RMK SLP160 T01550114 52017 IEM_DS3505
ZGGG,1984-12-17 03:00,ZGGG 170300Z AUTO 36004KT 7SM 17/12 RMK SLP169 T01700120 52009 IEM_DS3505
ZGGG,1984-12-17 06:00,ZGGG 170600Z AUTO 00000KT 7SM 20/14 RMK SLP135 T01950142 4////0152 57034 IEM_DS3505
ZGGG,1984-12-17 09:00,ZGGG 170900Z AUTO 32004KT 6SM 18/13 RMK SLP138 T01830132 52003 IEM_DS3505
ZGGG,1984-12-17 12:00,ZGGG 171200Z AUTO 00000KT 5SM 16/13 RMK SLP150 T01610131 52012 IEM_DS3505
ZGGG,1984-12-17 15:00,ZGGG 171500Z AUTO 34004KT 5SM 16/14 RMK SLP163 T01600137 52013 IEM_DS3505
ZGGG,1984-12-17 18:00,ZGGG 171800Z AUTO 34004KT 4SM 16/11 RMK SLP167 T01560113 40202//// 52004 IEM_DS3505
ZGGG,1984-12-17 21:00,ZGGG 172100Z AUTO 36006KT 4SM 11/09 RMK SLP176 T01120086 52009 IEM_DS3505
ZGGG,1984-12-18 00:00,ZGGG 180000Z AUTO 34010KT 9SM 11/07 RMK SLP196 T01110067 52020 IEM_DS3505
ZGGG,1984-12-18 03:00,ZGGG 180300Z AUTO 34010KT 11SM 12/05 RMK SLP215 T01160051 52019 IEM_DS3505
ZGGG,1984-12-18 04:00,ZGGG 180400Z AUTO 35012KT 7SM A3036 RMK IEM_DS3505
ZGGG,1984-12-18 05:00,ZGGG 180500Z AUTO 35012KT 7SM 12/05 A3039 RMK T01200050 IEM_DS3505
ZGGG,1984-12-18 06:00,ZGGG 180600Z AUTO 36006KT 12SM 12/05 A3006 RMK SLP183 T01220046 4////0108 57032 IEM_DS3505
ZGGG,1984-12-18 07:00,ZGGG 180700Z AUTO 34012KT 7SM 12/05 A3003 RMK T01200050 IEM_DS3505
ZGGG,1984-12-18 08:00,ZGGG 180800Z AUTO 36016KT 7SM 12/05 A3003 RMK T01200050 IEM_DS3505
ZGGG,1984-12-18 09:00,ZGGG 180900Z AUTO 36006KT 9SM 12/05 A3003 RMK SLP178 T01160051 57005 IEM_DS3505
ZGGG,1984-12-18 10:00,ZGGG 181000Z AUTO 36014KT 7SM 11/05 A3003 RMK T01100050 IEM_DS3505
ZGGG,1984-12-18 12:00,ZGGG 181200Z AUTO 36006KT 7SM 11/05 RMK SLP188 T01110053 52010 IEM_DS3505
ZGGG,1984-12-18 15:00,ZGGG 181500Z AUTO 02006KT 9SM 10/04 RMK SLP203 T01040044 52015 IEM_DS3505
ZGGG,1984-12-18 18:00,ZGGG 181800Z AUTO 36006KT 7SM 10/04 RMK SLP202 T00950041 40155//// 57001 IEM_DS3505
ZGGG,1984-12-18 21:00,ZGGG 182100Z AUTO 36006KT 5SM 08/05 RMK SLP207 T00810051 52005 IEM_DS3505
ZGGG,1984-12-19 00:00,ZGGG 190000Z AUTO 36006KT 5SM 07/06 RMK 60012 SLP213 T00710059 52006 IEM_DS3505
ZGGG,1984-12-19 03:00,ZGGG 190300Z AUTO 36008KT 5SM 08/06 RMK SLP223 T00810059 52010 IEM_DS3505
ZGGG,1984-12-19 06:00,ZGGG 190600Z AUTO 34010KT 4SM 08/07 RMK 60002 SLP196 T00840067 4////0070 57027 IEM_DS3505
ZGGG,1984-12-19 12:00,ZGGG 191200Z AUTO 04004KT 2 1/2SM 07/05 RMK 60004 SLP205 T00710047 52012 IEM_DS3505
ZGGG,1984-12-19 15:00,ZGGG 191500Z AUTO 36008KT 2 1/2SM 08/04 RMK SLP214 T00750044 52009 IEM_DS3505
ZGGG,1984-12-19 18:00,ZGGG 191800Z AUTO 02008KT 5SM 07/04 RMK 60000 SLP211 T00730037 40097//// 57003 IEM_DS3505
ZGGG,1984-12-19 21:00,ZGGG 192100Z AUTO 36006KT 2 1/2SM 07/04 RMK SLP211 T00670041 54000 IEM_DS3505
ZGGG,1984-12-20 00:00,ZGGG 200000Z AUTO 34006KT 11SM 07/04 RMK 60004 SLP215 T00670044 52004 IEM_DS3505
ZGGG,1984-12-20 03:00,ZGGG 200300Z AUTO 34004KT 4SM 07/05 RMK SLP222 T00710053 52007 IEM_DS3505
ZGGG,1984-12-20 06:00,ZGGG 200600Z AUTO 36006KT 9SM 08/06 RMK 60002 SLP191 T00820057 4////0065 57031 IEM_DS3505
ZGGG,1984-12-20 09:00,ZGGG 200900Z AUTO 36004KT 7SM 09/06 RMK SLP177 T00940057 57014 IEM_DS3505
ZGGG,1984-12-20 12:00,ZGGG 201200Z AUTO 34004KT 7SM 08/06 RMK SLP189 T00820062 52012 IEM_DS3505
ZGGG,1984-12-20 15:00,ZGGG 201500Z AUTO 32006KT 6SM 08/06 RMK SLP194 T00840062 52005 IEM_DS3505
ZGGG,1984-12-20 18:00,ZGGG 201800Z AUTO 34006KT 6SM 09/06 RMK SLP203 T00870065 40085//// 52009 IEM_DS3505
ZGGG,1984-12-20 21:00,ZGGG 202100Z AUTO 36006KT 2 1/2SM 08/07 RMK SLP205 T00760067 52002 IEM_DS3505
ZGGG,1984-12-21 00:00,ZGGG 210000Z AUTO 36004KT 2 1/2SM 07/06 RMK 60004 SLP226 T00680056 52021 IEM_DS3505
ZGGG,1984-12-21 03:00,ZGGG 210300Z AUTO 36006KT 7SM 07/06 RMK SLP237 T00720056 52011 IEM_DS3505
ZGGG,1984-12-21 06:00,ZGGG 210600Z AUTO 34006KT 10SM 08/05 RMK 60008 SLP215 T00790049 4////0068 57022 IEM_DS3505
ZGGG,1984-12-21 09:00,ZGGG 210900Z AUTO 34006KT 9SM 07/04 RMK SLP223 T00710036 52008 IEM_DS3505
ZGGG,1984-12-21 12:00,ZGGG 211200Z AUTO 36008KT 9SM 07/02 RMK SLP243 T00700024 52020 IEM_DS3505
ZGGG,1984-12-21 15:00,ZGGG 211500Z AUTO 34006KT 9SM 06/03 RMK SLP255 T00650028 52012 IEM_DS3505
ZGGG,1984-12-21 18:00,ZGGG 211800Z AUTO 02006KT 7SM 06/02 RMK SLP245 T00620016 40088//// 57010 IEM_DS3505
ZGGG,1984-12-21 21:00,ZGGG 212100Z AUTO 02006KT 7SM 06/01 RMK SLP237 T00580006 57008 IEM_DS3505
ZGGG,1984-12-22 00:00,ZGGG 220000Z AUTO 36004KT 9SM 06/00 A3021 RMK SLP245 T00600004 52008 IEM_DS3505
ZGGG,1984-12-22 01:00,ZGGG 220100Z AUTO 01010KT 7SM 06/01 A3024 RMK T00600010 IEM_DS3505
ZGGG,1984-12-22 02:00,ZGGG 220200Z AUTO 01010KT 6SM 07/00 A3027 RMK T00700000 IEM_DS3505
ZGGG,1984-12-22 03:00,ZGGG 220300Z AUTO 02008KT 9SM 08/01 A3027 RMK SLP257 T00790006 52012 IEM_DS3505
ZGGG,1984-12-22 04:00,ZGGG 220400Z AUTO 36014KT 6SM 09/01 A3024 RMK T00900010 IEM_DS3505
ZGGG,1984-12-22 05:00,ZGGG 220500Z AUTO 36012KT 6SM 09/01 A3021 RMK T00900010 IEM_DS3505
ZGGG,1984-12-22 06:00,ZGGG 220600Z AUTO 02008KT 9SM 09/01 A3018 RMK SLP233 T00930012 4////0058 57024 IEM_DS3505
ZGGG,1984-12-22 07:00,ZGGG 220700Z AUTO 01016KT 6SM 10/02 A3018 RMK T01000020 IEM_DS3505
ZGGG,1984-12-22 08:00,ZGGG 220800Z AUTO 01017KT 7SM 09/02 A3089 RMK T00900020 IEM_DS3505
ZGGG,1984-12-22 09:00,ZGGG 220900Z AUTO 02010KT 9SM 09/01 RMK SLP242 T00870010 52009 IEM_DS3505
ZGGG,1984-12-22 12:00,ZGGG 221200Z AUTO 36008KT 6SM 08/01 RMK SLP258 T00800010 52016 IEM_DS3505
ZGGG,1984-12-22 18:00,ZGGG 221800Z AUTO 36010KT 7SM 07/M01 RMK SLP273 T00701006 40095//// 52002 IEM_DS3505
ZGGG,1984-12-22 21:00,ZGGG 222100Z AUTO 36008KT 7SM 06/M01 RMK SLP275 T00651013 52002 IEM_DS3505
ZGGG,1984-12-23 00:00,ZGGG 230000Z AUTO 02010KT 9SM 06/M03 RMK SLP293 T00631028 52018 IEM_DS3505
ZGGG,1984-12-23 03:00,ZGGG 230300Z AUTO 36012KT 9SM 08/M05 RMK SLP303 T00811048 52010 IEM_DS3505
ZGGG,1984-12-23 06:00,ZGGG 230600Z AUTO 02008KT 11SM 09/M04 RMK SLP275 T00941045 4////0063 57028 IEM_DS3505
ZGGG,1984-12-23 09:00,ZGGG 230900Z AUTO 02008KT 10SM 09/M07 RMK SLP266 T00871068 57009 IEM_DS3505
ZGGG,1984-12-23 12:00,ZGGG 231200Z AUTO 36008KT 9SM 08/M05 RMK SLP280 T00811048 52014 IEM_DS3505
ZGGG,1984-12-23 15:00,ZGGG 231500Z AUTO 04006KT 7SM 08/M07 RMK SLP283 T00751068 52003 IEM_DS3505
ZGGG,1984-12-23 18:00,ZGGG 231800Z AUTO 34006KT 7SM 07/M07 RMK SLP286 T00681072 40099//// 52003 IEM_DS3505
ZGGG,1984-12-23 21:00,ZGGG 232100Z AUTO 36006KT 7SM 06/M06 RMK SLP284 T00631061 57002 IEM_DS3505
ZGGG,1984-12-24 00:00,ZGGG 240000Z AUTO 02006KT 9SM 06/M08 RMK SLP302 T00611076 52018 IEM_DS3505
ZGGG,1984-12-24 03:00,ZGGG 240300Z AUTO 02006KT 10SM 09/M07 RMK SLP300 T00921072 57002 IEM_DS3505
ZGGG,1984-12-24 06:00,ZGGG 240600Z AUTO 02006KT 11SM 12/M04 RMK SLP263 T01211045 4////0060 57037 IEM_DS3505
ZGGG,1984-12-24 09:00,ZGGG 240900Z AUTO 34006KT 11SM 12/M05 RMK SLP253 T01201048 57010 IEM_DS3505
ZGGG,1984-12-24 12:00,ZGGG 241200Z AUTO 36004KT 7SM 09/M03 RMK SLP268 T00861031 52015 IEM_DS3505
ZGGG,1984-12-24 15:00,ZGGG 241500Z AUTO 02008KT 7SM 08/M07 RMK SLP272 T00771068 52004 IEM_DS3505
ZGGG,1984-12-24 18:00,ZGGG 241800Z AUTO 36006KT 7SM 06/M08 RMK SLP281 T00591079 40131//// 50009 IEM_DS3505
ZGGG,1984-12-24 21:00,ZGGG 242100Z AUTO 36006KT 7SM 05/M06 RMK SLP270 T00471065 57011 IEM_DS3505
ZGGG,1984-12-25 00:00,ZGGG 250000Z AUTO 36006KT 11SM 04/M07 RMK SLP282 T00441068 52012 IEM_DS3505
ZGGG,1984-12-25 03:00,ZGGG 250300Z AUTO 34010KT 12SM 09/M07 RMK SLP280 T00921072 57002 IEM_DS3505
ZGGG,1984-12-25 05:00,ZGGG 250500Z AUTO 36010KT 7SM 11/M08 A3024 RMK T01101080 IEM_DS3505
ZGGG,1984-12-25 06:00,ZGGG 250600Z AUTO 02004KT 11SM 13/M06 A3021 RMK SLP237 T01311058 4////0041 57043 IEM_DS3505
ZGGG,1984-12-25 08:00,ZGGG 250800Z AUTO 03006KT 6SM 14/M07 A3018 RMK T01401070 IEM_DS3505
ZGGG,1984-12-25 09:00,ZGGG 250900Z AUTO 32004KT 10SM 13/M05 A3018 RMK SLP226 T01331048 57011 IEM_DS3505
ZGGG,1984-12-25 10:00,ZGGG 251000Z AUTO 36008KT 6SM 11/M04 A3018 RMK T01101040 IEM_DS3505
ZGGG,1984-12-25 11:00,ZGGG 251100Z AUTO 06004KT 7SM 09/M01 A3018 RMK T00901010 IEM_DS3505
ZGGG,1984-12-25 12:00,ZGGG 251200Z AUTO 00000KT 10SM 08/00 RMK SLP236 T00810004 52010 IEM_DS3505
ZGGG,1984-12-25 15:00,ZGGG 251500Z AUTO 02004KT 10SM 09/M03 RMK SLP238 T00871034 52002 IEM_DS3505
ZGGG,1984-12-25 18:00,ZGGG 251800Z AUTO 02004KT 7SM 08/M04 RMK SLP235 T00811037 40140//// 57003 IEM_DS3505
ZGGG,1984-12-25 21:00,ZGGG 252100Z AUTO 36006KT 7SM 08/M03 RMK SLP230 T00851034 57005 IEM_DS3505
ZGGG,1984-12-26 00:00,ZGGG 260000Z AUTO 02004KT 10SM 09/M03 RMK SLP243 T00881028 52013 IEM_DS3505
ZGGG,1984-12-26 03:00,ZGGG 260300Z AUTO 36004KT 10SM 11/M04 RMK SLP248 T01081037 52005 IEM_DS3505
ZGGG,1984-12-26 06:00,ZGGG 260600Z AUTO 36006KT 9SM 12/M05 RMK SLP226 T01231052 4////0075 57022 IEM_DS3505
ZGGG,1984-12-26 09:00,ZGGG 260900Z AUTO 02010KT 7SM 12/M03 RMK SLP227 T01201031 52001 IEM_DS3505
ZGGG,1984-12-26 12:00,ZGGG 261200Z AUTO 02004KT 7SM 11/M03 RMK SLP237 T01081034 52010 IEM_DS3505
ZGGG,1984-12-26 15:00,ZGGG 261500Z AUTO 02004KT 7SM 10/M03 RMK SLP249 T01001028 52012 IEM_DS3505
ZGGG,1984-12-26 18:00,ZGGG 261800Z AUTO 36006KT 7SM 09/M02 RMK SLP255 T00931020 40126//// 52006 IEM_DS3505
ZGGG,1984-12-26 21:00,ZGGG 262100Z AUTO 36004KT 7SM 08/M02 RMK SLP249 T00851015 57006 IEM_DS3505
ZGGG,1984-12-27 00:00,ZGGG 270000Z AUTO 34008KT 8SM 08/M04 RMK SLP269 T00811042 52020 IEM_DS3505
ZGGG,1984-12-27 03:00,ZGGG 270300Z AUTO 34006KT 8SM 10/M04 RMK SLP270 T00971037 52001 IEM_DS3505
ZGGG,1984-12-27 06:00,ZGGG 270600Z AUTO 34006KT 9SM 12/M04 RMK SLP236 T01151037 4////0080 57034 IEM_DS3505
ZGGG,1984-12-27 09:00,ZGGG 270900Z AUTO 34006KT 8SM 11/M02 RMK SLP234 T01071020 57002 IEM_DS3505
ZGGG,1984-12-27 12:00,ZGGG 271200Z AUTO 36004KT 7SM 10/M01 RMK SLP238 T00981013 52004 IEM_DS3505
ZGGG,1984-12-27 15:00,ZGGG 271500Z AUTO 34004KT 7SM 10/M03 RMK SLP241 T00961031 52003 IEM_DS3505
ZGGG,1984-12-27 18:00,ZGGG 271800Z AUTO 34008KT 6SM 09/M02 RMK SLP250 T00871023 40118//// 52009 IEM_DS3505
ZGGG,1984-12-27 21:00,ZGGG 272100Z AUTO 02006KT 7SM 08/M03 RMK SLP254 T00831028 52004 IEM_DS3505
ZGGG,1984-12-28 00:00,ZGGG 280000Z AUTO 36006KT 7SM 08/M04 RMK SLP277 T00801045 52023 IEM_DS3505
ZGGG,1984-12-28 03:00,ZGGG 280300Z AUTO 34010KT 7SM 09/M06 RMK SLP280 T00881061 52003 IEM_DS3505
ZGGG,1984-12-28 06:00,ZGGG 280600Z AUTO 36010KT 7SM 10/M03 RMK SLP254 T01001028 4////0080 57026 IEM_DS3505
ZGGG,1984-12-28 09:00,ZGGG 280900Z AUTO 34008KT 7SM 10/M03 RMK SLP252 T01001028 57002 IEM_DS3505
ZGGG,1984-12-28 12:00,ZGGG 281200Z AUTO 36004KT 7SM 08/M02 RMK SLP271 T00821015 52019 IEM_DS3505
ZGGG,1984-12-28 15:00,ZGGG 281500Z AUTO 36004KT 7SM 07/M03 RMK SLP280 T00741031 52009 IEM_DS3505
ZGGG,1984-12-28 18:00,ZGGG 281800Z AUTO 34006KT 6SM 06/M04 RMK SLP286 T00581045 40111//// 52006 IEM_DS3505
ZGGG,1984-12-28 20:00,ZGGG 282000Z AUTO 6SM A3042 RMK IEM_DS3505
ZGGG,1984-12-28 21:00,ZGGG 282100Z AUTO 02010KT 6SM 06/M05 RMK SLP289 T00561052 52003 IEM_DS3505
ZGGG,1984-12-29 00:00,ZGGG 290000Z AUTO 36008KT 4SM 06/M06 RMK SLP306 T00581058 52017 IEM_DS3505
ZGGG,1984-12-29 01:00,ZGGG 290100Z AUTO 36016KT 6SM 06/M06 A3042 RMK T00601060 IEM_DS3505
ZGGG,1984-12-29 02:00,ZGGG 290200Z AUTO 01016KT 6SM 01/M08 A3042 RMK T00101080 IEM_DS3505
ZGGG,1984-12-29 03:00,ZGGG 290300Z AUTO 36008KT 5SM 08/M08 RMK SLP305 T00781079 57001 IEM_DS3505
ZGGG,1984-12-29 04:00,ZGGG 290400Z AUTO 01016KT 6SM 08/M07 A3036 RMK T00801070 IEM_DS3505
ZGGG,1984-12-29 05:00,ZGGG 290500Z AUTO 01014KT 6SM 10/M09 A3033 RMK T01001090 IEM_DS3505
ZGGG,1984-12-29 06:00,ZGGG 290600Z AUTO 36008KT 9SM 10/M10 A3030 RMK SLP266 T01001096 4////0052 57039 IEM_DS3505
ZGGG,1984-12-29 07:00,ZGGG 290700Z AUTO 01014KT 6SM 11/M10 A3027 RMK T01101100 IEM_DS3505
ZGGG,1984-12-29 08:00,ZGGG 290800Z AUTO 35008KT 7SM 11/M06 A3027 RMK T01101060 IEM_DS3505
ZGGG,1984-12-29 09:00,ZGGG 290900Z AUTO 36008KT 7SM 11/M07 A3024 RMK SLP254 T01131072 57012 IEM_DS3505
ZGGG,1984-12-29 12:00,ZGGG 291200Z AUTO 36004KT 7SM 08/M04 RMK SLP263 T00831037 52009 IEM_DS3505
ZGGG,1984-12-29 18:00,ZGGG 291800Z AUTO 04004KT 6SM 08/M06 RMK SLP272 T00801061 40120//// 57003 IEM_DS3505
ZGGG,1984-12-29 21:00,ZGGG 292100Z AUTO 36002KT 6SM 07/M06 RMK SLP268 T00731061 57004 IEM_DS3505
ZGGG,1984-12-30 00:00,ZGGG 300000Z AUTO 36008KT 7SM 07/M06 RMK SLP286 T00731061 52018 IEM_DS3505
ZGGG,1984-12-30 03:00,ZGGG 300300Z AUTO 36008KT 7SM 09/M06 RMK SLP286 T00871061 54000 IEM_DS3505
ZGGG,1984-12-30 06:00,ZGGG 300600Z AUTO 34002KT 7SM 10/M06 RMK SLP249 T01011058 4////0064 57037 IEM_DS3505
ZGGG,1984-12-30 09:00,ZGGG 300900Z AUTO 02004KT 8SM 10/M04 RMK SLP241 T01051039 57008 IEM_DS3505
ZGGG,1984-12-30 12:00,ZGGG 301200Z AUTO 07004KT 6SM 10/M01 RMK SLP241 T01011010 54000 IEM_DS3505
ZGGG,1984-12-30 15:00,ZGGG 301500Z AUTO 00000KT 6SM 10/03 RMK SLP253 T00950030 52012 IEM_DS3505
ZGGG,1984-12-30 18:00,ZGGG 301800Z AUTO 00000KT 6SM 10/01 RMK SLP248 T00950012 40108//// 57005 IEM_DS3505
ZGGG,1984-12-30 21:00,ZGGG 302100Z AUTO 36002KT 6SM 09/01 RMK SLP236 T00940006 57012 IEM_DS3505
