station,valid,metar
ZGGG,2001-01-01 00:00,ZGGG 010000Z AUTO 00000KT 7SM 09/06 A3012 RMK SLP207 T00860060 52004 IEM_DS3505
ZGGG,2001-01-01 01:00,ZGGG 010100Z AUTO 05004KT 3SM 11/06 A3015 RMK T01100060 IEM_DS3505
ZGGG,2001-01-01 02:00,ZGGG 010200Z AUTO 00000KT 3SM 13/06 A3015 RMK T01300060 IEM_DS3505
ZGGG,2001-01-01 03:00,ZGGG 010300Z AUTO 07004KT 9SM 16/06 A3012 RMK SLP208 T01570065 52001 IEM_DS3505
ZGGG,2001-01-01 04:00,ZGGG 010400Z AUTO 11002KT 5SM 17/06 A3009 RMK T01700060 IEM_DS3505
ZGGG,2001-01-01 05:00,ZGGG 010500Z AUTO 16004KT 5SM 18/07 A3006 RMK T01800070 IEM_DS3505
ZGGG,2001-01-01 06:00,ZGGG 010600Z AUTO 14004KT 9SM 19/08 A3003 RMK SLP178 T01880077 57029 IEM_DS3505
ZGGG,2001-01-01 07:00,ZGGG 010700Z AUTO 18004KT 3SM 19/08 A3000 RMK T01900080 IEM_DS3505
ZGGG,2001-01-01 08:00,ZGGG 010800Z AUTO 16004KT 19/08 A3000 RMK T01900080 IEM_DS3505
ZGGG,2001-01-01 09:00,ZGGG 010900Z AUTO 16004KT 7SM 19/09 A3000 RMK SLP164 T01890093 57014 IEM_DS3505
ZGGG,2001-01-01 10:00,ZGGG 011000Z AUTO 12002KT 3SM 18/09 A3000 RMK T01800090 IEM_DS3505
ZGGG,2001-01-01 11:00,ZGGG 011100Z AUTO 07002KT 16/09 A3000 RMK T01600090 IEM_DS3505
ZGGG,2001-01-01 12:00,ZGGG 011200Z AUTO 00000KT 8SM 14/10 A3000 RMK SLP173 T01390105 52008 IEM_DS3505
ZGGG,2001-01-01 13:00,ZGGG 011300Z AUTO 00000KT 3SM 14/10 A3000 RMK T01400100 IEM_DS3505
ZGGG,2001-01-01 14:00,ZGGG 011400Z AUTO 12002KT 3SM 15/09 A3003 RMK T01500090 IEM_DS3505
ZGGG,2001-01-01 15:00,ZGGG 011500Z AUTO 00000KT 7SM 13/10 A3003 RMK SLP172 T01270100 54000 IEM_DS3505
ZGGG,2001-01-01 16:00,ZGGG 011600Z AUTO 00000KT 3SM 15/09 A3003 RMK T01500090 IEM_DS3505
ZGGG,2001-01-01 17:00,ZGGG 011700Z AUTO 00000KT 3SM 13/09 A3003 RMK T01300090 IEM_DS3505
ZGGG,2001-01-01 18:00,ZGGG 011800Z AUTO 00000KT 8SM 11/09 A3003 RMK SLP176 T01090093 52004 IEM_DS3505
ZGGG,2001-01-01 19:00,ZGGG 011900Z AUTO 00000KT 2 1/2SM 12/09 A3003 RMK T01200090 IEM_DS3505
ZGGG,2001-01-01 20:00,ZGGG 012000Z AUTO 00000KT 2 1/2SM 12/09 A3003 RMK T01200090 IEM_DS3505
ZGGG,2001-01-01 21:00,ZGGG 012100Z AUTO 00000KT 7SM 10/09 A3003 RMK SLP177 T01020090 52001 IEM_DS3505
ZGGG,2001-01-01 22:00,ZGGG 012200Z AUTO 00000KT 3SM 11/08 A3003 RMK T01100080 IEM_DS3505
ZGGG,2001-01-01 23:00,ZGGG 012300Z AUTO 00000KT 2SM 12/08 A3006 RMK T01200080 IEM_DS3505
ZGGG,2001-01-02 00:00,ZGGG 020000Z AUTO 00000KT 7SM 10/09 A3009 RMK SLP194 T01030093 52016 IEM_DS3505
ZGGG,2001-01-02 01:00,ZGGG 020100Z AUTO 00000KT 2 1/2SM 15/09 A3009 RMK T01500090 IEM_DS3505
ZGGG,2001-01-02 02:00,ZGGG 020200Z AUTO 00000KT 2 1/2SM 17/09 A3009 RMK T01700090 IEM_DS3505
ZGGG,2001-01-02 03:00,ZGGG 020300Z AUTO 07004KT 7SM 18/10 A3009 RMK SLP191 T01840102 57002 IEM_DS3505
ZGGG,2001-01-02 04:00,ZGGG 020400Z AUTO 15004KT 21/09 A3006 RMK T02100090 IEM_DS3505
ZGGG,2001-01-02 05:00,ZGGG 020500Z AUTO 32002KT 22/09 A3000 RMK T02200090 IEM_DS3505
ZGGG,2001-01-02 06:00,ZGGG 020600Z AUTO 16002KT 8SM 23/10 A2997 RMK SLP156 T02270104 57035 IEM_DS3505
ZGGG,2001-01-02 07:00,ZGGG 020700Z AUTO 23006KT 5SM 22/11 A2994 RMK T02200110 IEM_DS3505
ZGGG,2001-01-02 08:00,ZGGG 020800Z AUTO 15004KT 22/12 A2994 RMK T02200120 IEM_DS3505
ZGGG,2001-01-02 09:00,ZGGG 020900Z AUTO 00000KT 7SM 21/12 A2994 RMK SLP153 T02120122 57003 IEM_DS3505
ZGGG,2001-01-02 10:00,ZGGG 021000Z AUTO 03002KT 3SM 21/12 A2997 RMK T02100120 IEM_DS3505
ZGGG,2001-01-02 11:00,ZGGG 021100Z AUTO 00000KT 19/13 A2997 RMK T01900130 IEM_DS3505
ZGGG,2001-01-02 12:00,ZGGG 021200Z AUTO 00000KT 7SM 18/14 A3000 RMK SLP165 T01790139 52012 IEM_DS3505
ZGGG,2001-01-02 13:00,ZGGG 021300Z AUTO 00000KT 3SM 19/13 A3000 RMK T01900130 IEM_DS3505
ZGGG,2001-01-02 14:00,ZGGG 021400Z AUTO 00000KT 3SM 19/13 A3003 RMK T01900130 IEM_DS3505
ZGGG,2001-01-02 15:00,ZGGG 021500Z AUTO 00000KT 6SM 18/14 A3003 RMK SLP177 T01750142 52012 IEM_DS3505
ZGGG,2001-01-02 16:00,ZGGG 021600Z AUTO 19004KT 4SM 19/14 A3003 RMK T01900140 IEM_DS3505
ZGGG,2001-01-02 17:00,ZGGG 021700Z AUTO 00000KT 3SM 18/14 A3003 RMK T01800140 IEM_DS3505
ZGGG,2001-01-02 18:00,ZGGG 021800Z AUTO 00000KT 5SM 17/15 A3003 RMK SLP178 T01730147 52002 IEM_DS3505
ZGGG,2001-01-02 19:00,ZGGG 021900Z AUTO 07004KT 2SM 18/14 A3003 RMK T01800140 IEM_DS3505
ZGGG,2001-01-02 20:00,ZGGG 022000Z AUTO 00000KT 2 1/2SM 18/14 A3003 RMK T01800140 IEM_DS3505
ZGGG,2001-01-02 21:00,ZGGG 022100Z AUTO 00000KT 6SM 17/15 A3003 RMK SLP173 T01710149 57005 IEM_DS3505
ZGGG,2001-01-02 22:00,ZGGG 022200Z AUTO 06004KT 2 1/2SM 17/15 A3003 RMK T01700150 IEM_DS3505
ZGGG,2001-01-02 23:00,ZGGG 022300Z AUTO 00000KT 2SM 17/15 A3006 RMK T01700150 IEM_DS3505
ZGGG,2001-01-03 00:00,ZGGG 030000Z AUTO 00000KT 7SM 17/15 A3006 RMK SLP189 T01670148 52015 IEM_DS3505
ZGGG,2001-01-03 01:00,ZGGG 030100Z AUTO 12002KT 2SM 19/15 A3009 RMK T01900150 IEM_DS3505
ZGGG,2001-01-03 02:00,ZGGG 030200Z AUTO 00000KT 2 1/2SM 20/14 A3009 RMK T02000140 IEM_DS3505
ZGGG,2001-01-03 03:00,ZGGG 030300Z AUTO 14004KT 6SM 20/14 A3009 RMK SLP199 T02000140 52010 IEM_DS3505
ZGGG,2001-01-03 04:00,ZGGG 030400Z AUTO 36004KT 2SM 21/14 A3006 RMK T02100140 IEM_DS3505
ZGGG,2001-01-03 05:00,ZGGG 030500Z AUTO 32004KT 1 1/2SM 23/14 A3003 RMK T02300140 IEM_DS3505
ZGGG,2001-01-03 06:00,ZGGG 030600Z AUTO 25002KT 6SM 24/14 A3000 RMK SLP168 T02360139 57030 IEM_DS3505
ZGGG,2001-01-03 07:00,ZGGG 030700Z AUTO 32006KT 2SM 23/13 A2997 RMK T02300130 IEM_DS3505
ZGGG,2001-01-03 08:00,ZGGG 030800Z AUTO 33004KT 1 1/2SM 23/14 A2997 RMK T02300140 IEM_DS3505
ZGGG,2001-01-03 09:00,ZGGG 030900Z AUTO 34006KT 3SM 21/14 A3000 RMK SLP164 T02140135 57004 IEM_DS3505
ZGGG,2001-01-03 10:00,ZGGG 031000Z AUTO 36010KT 2 1/2SM 19/13 A3003 RMK T01900130 IEM_DS3505
ZGGG,2001-01-03 11:00,ZGGG 031100Z AUTO 02008KT 3SM 18/12 A3003 RMK T01800120 IEM_DS3505
ZGGG,2001-01-03 12:00,ZGGG 031200Z AUTO 34006KT 5SM 17/13 A3006 RMK SLP182 T01710126 52017 IEM_DS3505
ZGGG,2001-01-03 13:00,ZGGG 031300Z AUTO 36006KT 3SM 17/12 A3006 RMK T01700120 IEM_DS3505
ZGGG,2001-01-03 14:00,ZGGG 031400Z AUTO 36008KT 3SM 16/11 A3009 RMK T01600110 IEM_DS3505
ZGGG,2001-01-03 15:00,ZGGG 031500Z AUTO 34006KT 5SM 16/12 A3009 RMK SLP192 T01620120 52010 IEM_DS3505
ZGGG,2001-01-03 16:00,ZGGG 031600Z AUTO 02006KT 4SM 16/11 A3009 RMK T01600110 IEM_DS3505
ZGGG,2001-01-03 17:00,ZGGG 031700Z AUTO 36006KT 4SM 16/11 A3009 RMK T01600110 IEM_DS3505
ZGGG,2001-01-03 18:00,ZGGG 031800Z AUTO 34004KT 6SM 16/11 A3009 RMK SLP195 T01550108 52003 IEM_DS3505
ZGGG,2001-01-03 19:00,ZGGG 031900Z AUTO 02008KT 4SM 16/11 A3009 RMK T01600110 IEM_DS3505
ZGGG,2001-01-03 20:00,ZGGG 032000Z AUTO 04010KT 4SM 15/11 A3009 RMK T01500110 IEM_DS3505
ZGGG,2001-01-03 21:00,ZGGG 032100Z AUTO 02004KT 6SM 15/10 A3009 RMK SLP194 T01490101 57001 IEM_DS3505
ZGGG,2001-01-03 22:00,ZGGG 032200Z AUTO 02006KT 4SM 15/10 A3009 RMK T01500100 IEM_DS3505
ZGGG,2001-01-03 23:00,ZGGG 032300Z AUTO 03008KT 5SM 15/09 A3012 RMK T01500090 IEM_DS3505
ZGGG,2001-01-04 00:00,ZGGG 040000Z AUTO 00000KT 7SM 15/11 A3015 RMK SLP215 T01490107 52021 IEM_DS3505
ZGGG,2001-01-04 01:00,ZGGG 040100Z AUTO 03008KT 15/09 A3018 RMK T01500090 IEM_DS3505
ZGGG,2001-01-04 02:00,ZGGG 040200Z AUTO 03008KT 9SM 16/09 A3018 RMK T01600090 IEM_DS3505
ZGGG,2001-01-04 03:00,ZGGG 040300Z AUTO 09004KT 9SM 17/11 A3018 RMK SLP222 T01710110 52007 IEM_DS3505
ZGGG,2001-01-04 04:00,ZGGG 040400Z AUTO 14006KT 3SM 20/12 A3015 RMK T02000120 IEM_DS3505
ZGGG,2001-01-04 05:00,ZGGG 040500Z AUTO 12004KT 3SM 21/12 A3009 RMK T02100120 IEM_DS3505
ZGGG,2001-01-04 06:00,ZGGG 040600Z AUTO 16006KT 6SM 20/12 A3009 RMK SLP193 T02040124 57029 IEM_DS3505
ZGGG,2001-01-04 07:00,ZGGG 040700Z AUTO 33006KT 2 1/2SM 18/12 A3006 RMK T01800120 IEM_DS3505
ZGGG,2001-01-04 08:00,ZGGG 040800Z AUTO 34004KT 3SM 17/11 A3009 RMK T01700110 IEM_DS3505
ZGGG,2001-01-04 09:00,ZGGG 040900Z AUTO 02006KT 7SM 17/11 A3009 RMK SLP196 T01730108 52003 IEM_DS3505
ZGGG,2001-01-04 10:00,ZGGG 041000Z AUTO 02006KT 3SM 18/12 A3009 RMK T01800120 IEM_DS3505
ZGGG,2001-01-04 11:00,ZGGG 041100Z AUTO 36006KT 17/11 A3009 RMK T01700110 IEM_DS3505
ZGGG,2001-01-04 12:00,ZGGG 041200Z AUTO 34002KT 6SM 17/12 A3012 RMK SLP205 T01710122 52009 IEM_DS3505
ZGGG,2001-01-04 13:00,ZGGG 041300Z AUTO 03006KT 3SM 17/12 A3012 RMK T01700120 IEM_DS3505
ZGGG,2001-01-04 14:00,ZGGG 041400Z AUTO 03008KT 3SM 17/12 A3015 RMK T01700120 IEM_DS3505
ZGGG,2001-01-04 15:00,ZGGG 041500Z AUTO 07002KT 7SM 17/13 A3015 RMK SLP214 T01700129 52009 IEM_DS3505
ZGGG,2001-01-04 16:00,ZGGG 041600Z AUTO 02006KT 17/11 A3015 RMK T01700110 IEM_DS3505
ZGGG,2001-01-04 17:00,ZGGG 041700Z AUTO 06002KT 4SM 16/12 A3012 RMK T01600120 IEM_DS3505
ZGGG,2001-01-04 18:00,ZGGG 041800Z AUTO 11004KT 7SM 17/13 A3012 RMK SLP208 T01670128 57006 IEM_DS3505
ZGGG,2001-01-04 19:00,ZGGG 041900Z AUTO 00000KT 3SM 17/13 A3012 RMK T01700130 IEM_DS3505
ZGGG,2001-01-04 20:00,ZGGG 042000Z AUTO 05004KT 3SM 16/12 A3012 RMK T01600120 IEM_DS3505
ZGGG,2001-01-04 21:00,ZGGG 042100Z AUTO 00000KT 7SM 16/13 A3012 RMK SLP205 T01620134 57003 IEM_DS3505
ZGGG,2001-01-04 22:00,ZGGG 042200Z AUTO 01002KT 3SM 16/12 A3012 RMK T01600120 IEM_DS3505
ZGGG,2001-01-04 23:00,ZGGG 042300Z AUTO 03004KT 2 1/2SM 16/12 A3015 RMK T01600120 IEM_DS3505
ZGGG,2001-01-05 00:00,ZGGG 050000Z AUTO 00000KT 2 1/2SM 16/14 A3018 RMK SLP221 T01640139 52016 IEM_DS3505
ZGGG,2001-01-05 01:00,ZGGG 050100Z AUTO 02004KT 2SM 17/12 A3018 RMK T01700120 IEM_DS3505
ZGGG,2001-01-05 02:00,ZGGG 050200Z AUTO 01004KT 2SM 18/13 A3018 RMK T01800130 IEM_DS3505
ZGGG,2001-01-05 03:00,ZGGG 050300Z AUTO 11002KT 4SM 20/14 A3018 RMK SLP225 T01970144 52004 IEM_DS3505
ZGGG,2001-01-05 04:00,ZGGG 050400Z AUTO 03006KT 2 1/2SM 19/13 A3015 RMK T01900130 IEM_DS3505
ZGGG,2001-01-05 05:00,ZGGG 050500Z AUTO 34006KT 2 1/2SM 21/14 A3012 RMK T02100140 IEM_DS3505
ZGGG,2001-01-05 06:00,ZGGG 050600Z AUTO 34004KT 6SM 21/14 A3009 RMK SLP191 T02090142 57034 IEM_DS3505
ZGGG,2001-01-05 07:00,ZGGG 050700Z AUTO 03004KT 3SM 22/14 A3006 RMK T02200140 IEM_DS3505
ZGGG,2001-01-05 08:00,ZGGG 050800Z AUTO 02006KT 3SM 22/13 A3003 RMK T02200130 IEM_DS3505
ZGGG,2001-01-05 09:00,ZGGG 050900Z AUTO 34002KT 8SM 21/14 A3003 RMK SLP178 T02110137 57013 IEM_DS3505
ZGGG,2001-01-05 10:00,ZGGG 051000Z AUTO 31004KT 2SM 20/13 A3003 RMK T02000130 IEM_DS3505
ZGGG,2001-01-05 11:00,ZGGG 051100Z AUTO 33004KT 2 1/2SM 19/14 A3006 RMK T01900140 IEM_DS3505
ZGGG,2001-01-05 12:00,ZGGG 051200Z AUTO 34004KT 6SM 18/14 A3009 RMK SLP192 T01800138 52014 IEM_DS3505
ZGGG,2001-01-05 13:00,ZGGG 051300Z AUTO 03006KT 2 1/2SM 17/13 A3009 RMK T01700130 IEM_DS3505
ZGGG,2001-01-05 14:00,ZGGG 051400Z AUTO 04006KT 2 1/2SM 16/13 A3009 RMK T01600130 IEM_DS3505
ZGGG,2001-01-05 15:00,ZGGG 051500Z AUTO 00000KT 5SM 15/14 A3009 RMK SLP198 T01540136 52006 IEM_DS3505
ZGGG,2001-01-05 16:00,ZGGG 051600Z AUTO 19002KT 3SM 16/13 A3009 RMK T01600130 IEM_DS3505
ZGGG,2001-01-05 17:00,ZGGG 051700Z AUTO 00000KT 3SM 16/13 A3009 RMK T01600130 IEM_DS3505
ZGGG,2001-01-05 18:00,ZGGG 051800Z AUTO 00000KT 4SM 14/13 A3009 RMK SLP193 T01430132 57005 IEM_DS3505
ZGGG,2001-01-05 19:00,ZGGG 051900Z AUTO 18004KT 3SM 16/14 A3006 RMK T01600140 IEM_DS3505
ZGGG,2001-01-05 20:00,ZGGG 052000Z AUTO 16002KT 3SM 17/14 A3006 RMK T01700140 IEM_DS3505
ZGGG,2001-01-05 21:00,ZGGG 052100Z AUTO 00000KT 2SM 16/14 A3006 RMK SLP189 T01550143 57004 IEM_DS3505
ZGGG,2001-01-05 22:00,ZGGG 052200Z AUTO 34002KT 2SM 17/14 A3006 RMK T01700140 IEM_DS3505
ZGGG,2001-01-05 23:00,ZGGG 052300Z AUTO 05004KT 2 1/2SM 16/14 A3009 RMK T01600140 IEM_DS3505
ZGGG,2001-01-06 00:00,ZGGG 060000Z AUTO 07002KT 2SM 16/15 A3009 RMK SLP199 T01640150 52010 IEM_DS3505
ZGGG,2001-01-06 01:00,ZGGG 060100Z AUTO 12004KT 2SM 18/15 A3009 RMK T01800150 IEM_DS3505
ZGGG,2001-01-06 02:00,ZGGG 060200Z AUTO 12004KT 2SM 20/16 A3012 RMK T02000160 IEM_DS3505
ZGGG,2001-01-06 03:00,ZGGG 060300Z AUTO 16004KT 2 1/2SM 20/15 A3009 RMK SLP200 T01990152 52001 IEM_DS3505
ZGGG,2001-01-06 04:00,ZGGG 060400Z AUTO 11004KT 3SM 21/15 A3006 RMK T02100150 IEM_DS3505
ZGGG,2001-01-06 05:00,ZGGG 060500Z AUTO 13004KT 3SM 23/15 A3003 RMK T02300150 IEM_DS3505
ZGGG,2001-01-06 06:00,ZGGG 060600Z AUTO 16004KT 7SM 22/15 A3000 RMK SLP167 T02200151 57033 IEM_DS3505
ZGGG,2001-01-06 07:00,ZGGG 060700Z AUTO 27002KT 1 1/2SM 22/16 A2997 RMK T02200160 IEM_DS3505
ZGGG,2001-01-06 08:00,ZGGG 060800Z AUTO 13004KT 2 1/2SM 23/16 A2994 RMK T02300160 IEM_DS3505
ZGGG,2001-01-06 09:00,ZGGG 060900Z AUTO 16004KT 6SM 22/16 A2994 RMK SLP146 T02250155 57020 IEM_DS3505
ZGGG,2001-01-06 10:00,ZGGG 061000Z AUTO 14004KT 2 1/2SM 22/15 A2994 RMK T02200150 IEM_DS3505
ZGGG,2001-01-06 11:00,ZGGG 061100Z AUTO 00000KT 3SM 20/16 A2997 RMK T02000160 IEM_DS3505
ZGGG,2001-01-06 12:00,ZGGG 061200Z AUTO 04002KT 6SM 18/16 A3000 RMK SLP166 T01830160 52019 IEM_DS3505
ZGGG,2001-01-06 13:00,ZGGG 061300Z AUTO 07002KT 3SM 19/16 A3000 RMK T01900160 IEM_DS3505
ZGGG,2001-01-06 14:00,ZGGG 061400Z AUTO 15002KT 21/15 A3003 RMK T02100150 IEM_DS3505
ZGGG,2001-01-06 15:00,ZGGG 061500Z AUTO 11002KT 5SM 18/15 A3000 RMK SLP172 T01850153 52007 IEM_DS3505
ZGGG,2001-01-06 16:00,ZGGG 061600Z AUTO 14002KT 4SM 19/15 A3000 RMK T01900150 IEM_DS3505
ZGGG,2001-01-06 17:00,ZGGG 061700Z AUTO 17004KT 2 1/2SM 18/15 A3000 RMK T01800150 IEM_DS3505
ZGGG,2001-01-06 18:00,ZGGG 061800Z AUTO 00000KT 3SM 16/15 A3000 RMK SLP167 T01630149 57005 IEM_DS3505
ZGGG,2001-01-06 19:00,ZGGG 061900Z AUTO 00000KT 2 1/2SM 17/16 A3000 RMK T01700160 IEM_DS3505
ZGGG,2001-01-06 20:00,ZGGG 062000Z AUTO 00000KT 2 1/2SM 17/16 A2997 RMK T01700160 IEM_DS3505
ZGGG,2001-01-06 21:00,ZGGG 062100Z AUTO 00000KT 2SM 16/15 A2997 RMK SLP160 T01600153 57007 IEM_DS3505
ZGGG,2001-01-06 22:00,ZGGG 062200Z AUTO 04002KT 2 1/2SM 16/14 A3000 RMK T01600140 IEM_DS3505
ZGGG,2001-01-06 23:00,ZGGG 062300Z AUTO 00000KT 2 1/2SM 16/14 A3000 RMK T01600140 IEM_DS3505
ZGGG,2001-01-07 00:00,ZGGG 070000Z AUTO 00000KT 2SM 15/15 A3003 RMK SLP174 T01540147 52013 IEM_DS3505
ZGGG,2001-01-07 01:00,ZGGG 070100Z AUTO 00000KT 1SM 18/16 A3003 RMK T01800160 IEM_DS3505
ZGGG,2001-01-07 02:00,ZGGG 070200Z AUTO 08002KT 1SM 20/16 A3003 RMK T02000160 IEM_DS3505
ZGGG,2001-01-07 03:00,ZGGG 070300Z AUTO 00000KT 4SM 21/16 A3003 RMK SLP175 T02110158 52002 IEM_DS3505
ZGGG,2001-01-07 04:00,ZGGG 070400Z AUTO 34004KT 1 1/2SM 23/16 A3000 RMK T02300160 IEM_DS3505
ZGGG,2001-01-07 05:00,ZGGG 070500Z AUTO 35004KT 1 1/2SM 24/16 A2997 RMK T02400160 IEM_DS3505
ZGGG,2001-01-07 06:00,ZGGG 070600Z AUTO 29004KT 5SM 25/16 A2991 RMK SLP140 T02520161 57035 IEM_DS3505
ZGGG,2001-01-07 07:00,ZGGG 070700Z AUTO 04004KT 2 1/2SM 26/16 A2988 RMK T02600160 IEM_DS3505
ZGGG,2001-01-07 08:00,ZGGG 070800Z AUTO 33004KT 3SM 26/15 A2988 RMK T02600150 IEM_DS3505
ZGGG,2001-01-07 09:00,ZGGG 070900Z AUTO 00000KT 6SM 24/17 A2985 RMK SLP124 T02430169 57016 IEM_DS3505
ZGGG,2001-01-07 10:00,ZGGG 071000Z AUTO 00000KT 2 1/2SM 23/17 A2988 RMK T02300170 IEM_DS3505
ZGGG,2001-01-07 11:00,ZGGG 071100Z AUTO 00000KT 3SM 21/17 A2988 RMK T02100170 IEM_DS3505
ZGGG,2001-01-07 12:00,ZGGG 071200Z AUTO 00000KT 4SM 20/17 A2991 RMK SLP136 T01970173 52011 IEM_DS3505
ZGGG,2001-01-07 13:00,ZGGG 071300Z AUTO 00000KT 2SM 21/16 A2991 RMK T02100160 IEM_DS3505
ZGGG,2001-01-07 14:00,ZGGG 071400Z AUTO 00000KT 1 1/2SM 20/17 A2991 RMK T02000170 IEM_DS3505
ZGGG,2001-01-07 15:00,ZGGG 071500Z AUTO 00000KT 3SM 18/16 A2994 RMK SLP142 T01760163 52007 IEM_DS3505
ZGGG,2001-01-07 16:00,ZGGG 071600Z AUTO 00000KT 1SM 18/16 A2994 RMK T01800160 IEM_DS3505
ZGGG,2001-01-07 17:00,ZGGG 071700Z AUTO 00000KT 1SM 17/16 A2991 RMK T01700160 IEM_DS3505
ZGGG,2001-01-07 18:00,ZGGG 071800Z AUTO 00000KT 2 1/2SM 17/16 A2991 RMK SLP142 T01660159 54000 IEM_DS3505
ZGGG,2001-01-07 19:00,ZGGG 071900Z AUTO 13002KT 1 1/4SM 19/16 A2991 RMK T01900160 IEM_DS3505
ZGGG,2001-01-07 20:00,ZGGG 072000Z AUTO 00000KT 1 1/4SM 18/15 A2991 RMK T01800150 IEM_DS3505
ZGGG,2001-01-07 21:00,ZGGG 072100Z AUTO 00000KT 2 1/2SM 16/15 A2991 RMK SLP137 T01590150 57005 IEM_DS3505
ZGGG,2001-01-07 22:00,ZGGG 072200Z AUTO 00000KT 1SM 17/15 A2991 RMK T01700150 IEM_DS3505
ZGGG,2001-01-07 23:00,ZGGG 072300Z AUTO 00000KT 1SM 17/16 A2991 RMK T01700160 IEM_DS3505
ZGGG,2001-01-08 00:00,ZGGG 080000Z AUTO 00000KT 4SM 15/14 A2994 RMK SLP152 T01510144 52014 IEM_DS3505
ZGGG,2001-01-08 01:00,ZGGG 080100Z AUTO 12002KT 2 1/2SM 19/16 A2997 RMK T01900160 IEM_DS3505
ZGGG,2001-01-08 02:00,ZGGG 080200Z AUTO 14004KT 2 1/2SM 22/16 A2997 RMK T02200160 IEM_DS3505
ZGGG,2001-01-08 03:00,ZGGG 080300Z AUTO 11006KT 4SM 22/12 A2997 RMK SLP159 T02230119 52008 IEM_DS3505
ZGGG,2001-01-08 04:00,ZGGG 080400Z AUTO 15008KT 24/14 A2997 RMK T02400140 IEM_DS3505
ZGGG,2001-01-08 05:00,ZGGG 080500Z AUTO 16010KT 7SM 24/14 A2991 RMK T02400140 IEM_DS3505
ZGGG,2001-01-08 06:00,ZGGG 080600Z AUTO 1SM RMK IEM_DS3505
ZGGG,2001-01-08 07:00,ZGGG 080700Z AUTO 21006KT 7SM 24/16 A2988 RMK T02400160 IEM_DS3505
ZGGG,2001-01-08 08:00,ZGGG 080800Z AUTO 15008KT 7SM 24/16 A2985 RMK T02400160 IEM_DS3505
ZGGG,2001-01-08 09:00,ZGGG 080900Z AUTO 16006KT 10SM 22/16 A2985 RMK SLP125 T02250157 57001 IEM_DS3505
ZGGG,2001-01-08 10:00,ZGGG 081000Z AUTO 15004KT 6SM 22/16 A2988 RMK T02200160 IEM_DS3505
ZGGG,2001-01-08 11:00,ZGGG 081100Z AUTO 16008KT 6SM 21/16 A2988 RMK T02100160 IEM_DS3505
ZGGG,2001-01-08 12:00,ZGGG 081200Z AUTO 16006KT 9SM 20/16 A2991 RMK SLP135 T02020155 52009 IEM_DS3505
ZGGG,2001-01-08 13:00,ZGGG 081300Z AUTO 16006KT 6SM 20/16 A2994 RMK T02000160 IEM_DS3505
ZGGG,2001-01-08 14:00,ZGGG 081400Z AUTO 13002KT 4SM 19/16 A2994 RMK T01900160 IEM_DS3505
ZGGG,2001-01-08 15:00,ZGGG 081500Z AUTO 11006KT 8SM 18/15 A2997 RMK SLP161 T01780151 52027 IEM_DS3505
ZGGG,2001-01-08 16:00,ZGGG 081600Z AUTO 13004KT 4SM 18/14 A3000 RMK T01800140 IEM_DS3505
ZGGG,2001-01-08 17:00,ZGGG 081700Z AUTO 13006KT 4SM 18/14 A3000 RMK T01800140 IEM_DS3505
ZGGG,2001-01-08 18:00,ZGGG 081800Z AUTO 11002KT 8SM 16/14 A2997 RMK SLP163 T01590145 52002 IEM_DS3505
ZGGG,2001-01-08 19:00,ZGGG 081900Z AUTO 18002KT 4SM 17/14 A2997 RMK T01700140 IEM_DS3505
ZGGG,2001-01-08 20:00,ZGGG 082000Z AUTO 03002KT 4SM 17/14 A2997 RMK T01700140 IEM_DS3505
ZGGG,2001-01-08 21:00,ZGGG 082100Z AUTO 00000KT 6SM 15/14 A2997 RMK SLP157 T01500141 57006 IEM_DS3505
ZGGG,2001-01-08 22:00,ZGGG 082200Z AUTO 06004KT 2 1/2SM 16/14 A2997 RMK T01600140 IEM_DS3505
ZGGG,2001-01-08 23:00,ZGGG 082300Z AUTO 02008KT 3SM 17/14 A3000 RMK T01700140 IEM_DS3505
ZGGG,2001-01-09 00:00,ZGGG 090000Z AUTO 34004KT 8SM 15/12 A3003 RMK SLP180 T01530120 52022 IEM_DS3505
ZGGG,2001-01-09 01:00,ZGGG 090100Z AUTO 01012KT 4SM 15/10 A3009 RMK T01500100 IEM_DS3505
ZGGG,2001-01-09 02:00,ZGGG 090200Z AUTO 01014KT 12SM 14/08 A3009 RMK T01400080 IEM_DS3505
ZGGG,2001-01-09 03:00,ZGGG 090300Z AUTO 34010G23KT 12SM 16/09 A3009 RMK SLP194 T01570087 52014 IEM_DS3505
ZGGG,2001-01-09 04:00,ZGGG 090400Z AUTO 36014KT 5SM 16/08 A3009 RMK T01600080 IEM_DS3505
ZGGG,2001-01-09 05:00,ZGGG 090500Z AUTO 36012KT 6SM 17/07 A3006 RMK T01700070 IEM_DS3505
ZGGG,2001-01-09 06:00,ZGGG 090600Z AUTO 34008G25KT 12SM 16/07 A3003 RMK SLP175 T01570072 57019 IEM_DS3505
ZGGG,2001-01-09 07:00,ZGGG 090700Z AUTO 35012KT 7SM 14/06 A3003 RMK T01400060 IEM_DS3505
ZGGG,2001-01-09 08:00,ZGGG 090800Z AUTO 36014KT 7SM 13/06 A3003 RMK T01300060 IEM_DS3505
ZGGG,2001-01-09 09:00,ZGGG 090900Z AUTO 02010KT 11SM 13/07 A3003 RMK SLP178 T01330067 52003 IEM_DS3505
ZGGG,2001-01-09 10:00,ZGGG 091000Z AUTO 36012KT 7SM 12/05 A3006 RMK T01200050 IEM_DS3505
ZGGG,2001-01-09 11:00,ZGGG 091100Z AUTO 36010KT 7SM 11/04 A3009 RMK T01100040 IEM_DS3505
ZGGG,2001-01-09 12:00,ZGGG 091200Z AUTO 34012KT 11SM 11/05 A3012 RMK SLP199 T01130049 52020 IEM_DS3505
ZGGG,2001-01-09 13:00,ZGGG 091300Z AUTO 36008KT 7SM 11/04 A3012 RMK T01100040 IEM_DS3505
ZGGG,2001-01-09 14:00,ZGGG 091400Z AUTO 36010KT 7SM 11/04 A3012 RMK T01100040 IEM_DS3505
ZGGG,2001-01-09 15:00,ZGGG 091500Z AUTO 02006KT 10SM 11/05 A3015 RMK SLP213 T01070047 52014 IEM_DS3505
ZGGG,2001-01-09 16:00,ZGGG 091600Z AUTO 36008KT 7SM 11/04 A3015 RMK T01100040 IEM_DS3505
ZGGG,2001-01-09 17:00,ZGGG 091700Z AUTO 01010KT 7SM 10/04 A3012 RMK T01000040 IEM_DS3505
ZGGG,2001-01-09 18:00,ZGGG 091800Z AUTO 36004KT 11SM 09/04 A3012 RMK SLP207 T00940042 57006 IEM_DS3505
ZGGG,2001-01-09 19:00,ZGGG 091900Z AUTO 36010KT 7SM 09/03 A3009 RMK T00900030 IEM_DS3505
ZGGG,2001-01-09 20:00,ZGGG 092000Z AUTO 01008KT 6SM 09/03 A3009 RMK T00900030 IEM_DS3505
ZGGG,2001-01-09 21:00,ZGGG 092100Z AUTO 04004KT 9SM 08/03 A3006 RMK SLP190 T00850031 57017 IEM_DS3505
ZGGG,2001-01-09 22:00,ZGGG 092200Z AUTO 01006KT 6SM 09/03 A3009 RMK T00900030 IEM_DS3505
ZGGG,2001-01-09 23:00,ZGGG 092300Z AUTO 04008KT 6SM 08/03 A3009 RMK T00800030 IEM_DS3505
ZGGG,2001-01-10 00:00,ZGGG 100000Z AUTO 02006KT 14SM 08/03 A3009 RMK SLP198 T00850034 52008 IEM_DS3505
ZGGG,2001-01-10 01:00,ZGGG 100100Z AUTO 01006KT 6SM 10/03 A3012 RMK T01000030 IEM_DS3505
ZGGG,2001-01-10 02:00,ZGGG 100200Z AUTO 01008KT 6SM 10/03 A3012 RMK T01000030 IEM_DS3505
ZGGG,2001-01-10 03:00,ZGGG 100300Z AUTO 02006KT 14SM 11/04 A3012 RMK SLP205 T01120035 52007 IEM_DS3505
ZGGG,2001-01-10 04:00,ZGGG 100400Z AUTO 01008KT 7SM 12/03 A3009 RMK T01200030 IEM_DS3505
ZGGG,2001-01-10 05:00,ZGGG 100500Z AUTO 01006KT 7SM 12/04 A3006 RMK T01200040 IEM_DS3505
ZGGG,2001-01-10 06:00,ZGGG 100600Z AUTO 36006KT 14SM 12/04 A3003 RMK SLP172 T01240037 57033 IEM_DS3505
ZGGG,2001-01-10 07:00,ZGGG 100700Z AUTO 01008KT 7SM 13/04 A3000 RMK T01300040 IEM_DS3505
ZGGG,2001-01-10 08:00,ZGGG 100800Z AUTO 02008KT 7SM 13/05 A2997 RMK T01300050 IEM_DS3505
ZGGG,2001-01-10 09:00,ZGGG 100900Z AUTO 34002KT 12SM 13/05 A2997 RMK SLP155 T01270054 57017 IEM_DS3505
ZGGG,2001-01-10 10:00,ZGGG 101000Z AUTO 01006KT 7SM 12/04 A2997 RMK T01200040 IEM_DS3505
ZGGG,2001-01-10 11:00,ZGGG 101100Z AUTO 36006KT 7SM 12/05 A3000 RMK T01200050 IEM_DS3505
ZGGG,2001-01-10 12:00,ZGGG 101200Z AUTO 02004KT 11SM 12/05 A2997 RMK SLP161 T01230054 52006 IEM_DS3505
ZGGG,2001-01-10 13:00,ZGGG 101300Z AUTO 36006KT 7SM 12/06 A3000 RMK T01200060 IEM_DS3505
ZGGG,2001-01-10 14:00,ZGGG 101400Z AUTO 36006KT 7SM 12/06 A3003 RMK T01200060 IEM_DS3505
ZGGG,2001-01-10 15:00,ZGGG 101500Z AUTO 34006KT 10SM 12/06 A3003 RMK SLP179 T01200060 52018 IEM_DS3505
ZGGG,2001-01-10 16:00,ZGGG 101600Z AUTO 03006KT 7SM 12/06 A3006 RMK T01200060 IEM_DS3505
ZGGG,2001-01-10 17:00,ZGGG 101700Z AUTO 01008KT 7SM 11/07 A3006 RMK T01100070 IEM_DS3505
ZGGG,2001-01-10 18:00,ZGGG 101800Z AUTO 34008KT 9SM 10/08 A3003 RMK 60003 SLP180 T01000079 52001 IEM_DS3505
ZGGG,2001-01-10 19:00,ZGGG 101900Z AUTO 01008KT 3SM 09/08 A3003 RMK T00900080 IEM_DS3505
ZGGG,2001-01-10 20:00,ZGGG 102000Z AUTO 36006KT 2 1/2SM 09/08 A3003 RMK T00900080 IEM_DS3505
ZGGG,2001-01-10 21:00,ZGGG 102100Z AUTO 32004KT 8SM 10/09 A3003 RMK 70015 SLP170 T00960088 57010 IEM_DS3505
ZGGG,2001-01-10 22:00,ZGGG 102200Z AUTO 36004KT 4SM 09/08 A3000 RMK T00900080 IEM_DS3505
ZGGG,2001-01-10 23:00,ZGGG 102300Z AUTO 36006KT 3SM 09/08 A3003 RMK T00900080 IEM_DS3505
ZGGG,2001-01-11 00:00,ZGGG 110000Z AUTO 36004KT 8SM 10/09 A3003 RMK 60020 SLP178 T00960088 52008 IEM_DS3505
ZGGG,2001-01-11 01:00,ZGGG 110100Z AUTO 01006KT 3SM 10/08 A3006 RMK T01000080 IEM_DS3505
ZGGG,2001-01-11 02:00,ZGGG 110200Z AUTO 03006KT 4SM 11/09 A3006 RMK T01100090 IEM_DS3505
ZGGG,2001-01-11 03:00,ZGGG 110300Z AUTO 34006KT 10SM 12/10 A3006 RMK SLP188 T01160096 52010 IEM_DS3505
ZGGG,2001-01-11 04:00,ZGGG 110400Z AUTO 02006KT 4SM 12/09 A3006 RMK T01200090 IEM_DS3505
ZGGG,2001-01-11 05:00,ZGGG 110500Z AUTO 02006KT 4SM 13/09 A3003 RMK T01300090 IEM_DS3505
ZGGG,2001-01-11 06:00,ZGGG 110600Z AUTO 02004KT 10SM 14/10 RMK 60003 SLP161 T01360097 57027 IEM_DS3505
ZGGG,2001-01-11 07:00,ZGGG 110700Z AUTO 03004KT 5SM 14/09 A2997 RMK T01400090 IEM_DS3505
ZGGG,2001-01-11 08:00,ZGGG 110800Z AUTO 02004KT 7SM 14/10 A2997 RMK T01400100 IEM_DS3505
ZGGG,2001-01-11 09:00,ZGGG 110900Z AUTO 34002KT 9SM 14/11 A2997 RMK SLP154 T01430107 57007 IEM_DS3505
ZGGG,2001-01-11 10:00,ZGGG 111000Z AUTO 04006KT 7SM 13/09 A2997 RMK T01300090 IEM_DS3505
ZGGG,2001-01-11 11:00,ZGGG 111100Z AUTO 00000KT 7SM 14/10 A2997 RMK T01400100 IEM_DS3505
ZGGG,2001-01-11 12:00,ZGGG 111200Z AUTO 00000KT 9SM 14/11 A3000 RMK SLP166 T01350110 52012 IEM_DS3505
ZGGG,2001-01-11 13:00,ZGGG 111300Z AUTO 00000KT 7SM 14/10 A3000 RMK T01400100 IEM_DS3505
ZGGG,2001-01-11 14:00,ZGGG 111400Z AUTO 00000KT 7SM 14/11 A3003 RMK T01400110 IEM_DS3505
ZGGG,2001-01-11 15:00,ZGGG 111500Z AUTO 36004KT 9SM 14/11 A3003 RMK SLP175 T01380112 52009 IEM_DS3505
ZGGG,2001-01-11 16:00,ZGGG 111600Z AUTO 05008KT 4SM 14/11 A3003 RMK T01400110 IEM_DS3505
ZGGG,2001-01-11 17:00,ZGGG 111700Z AUTO 04004KT 6SM 13/11 A3003 RMK T01300110 IEM_DS3505
ZGGG,2001-01-11 18:00,ZGGG 111800Z AUTO 00000KT 9SM 14/12 A3003 RMK SLP177 T01350116 52002 IEM_DS3505
ZGGG,2001-01-11 19:00,ZGGG 111900Z AUTO 00000KT 4SM 14/11 A3003 RMK T01400110 IEM_DS3505
ZGGG,2001-01-11 20:00,ZGGG 112000Z AUTO 05004KT 5SM 14/12 A3000 RMK T01400120 IEM_DS3505
ZGGG,2001-01-11 21:00,ZGGG 112100Z AUTO 00000KT 9SM 14/12 A3000 RMK 70005 SLP167 T01380118 57009 IEM_DS3505
ZGGG,2001-01-11 22:00,ZGGG 112200Z AUTO 01004KT 5SM 14/11 A3000 RMK T01400110 IEM_DS3505
ZGGG,2001-01-11 23:00,ZGGG 112300Z AUTO 00000KT 4SM 14/11 A3000 RMK T01400110 IEM_DS3505
ZGGG,2001-01-12 00:00,ZGGG 120000Z AUTO 00000KT 7SM 14/12 A3003 RMK 60003 SLP173 T01400123 52006 IEM_DS3505
ZGGG,2001-01-12 01:00,ZGGG 120100Z AUTO 00000KT 3SM 14/12 A3003 RMK T01400120 IEM_DS3505
ZGGG,2001-01-12 02:00,ZGGG 120200Z AUTO 00000KT 2 1/2SM 14/12 A3006 RMK T01400120 IEM_DS3505
ZGGG,2001-01-12 03:00,ZGGG 120300Z AUTO 16002KT 8SM 15/14 A3006 RMK SLP182 T01530135 52009 IEM_DS3505
ZGGG,2001-01-12 04:00,ZGGG 120400Z AUTO 29002KT 2SM RMK IEM_DS3505
ZGGG,2001-01-12 05:00,ZGGG 120500Z AUTO 32004KT 1 1/2SM 17/13 A3000 RMK T01700130 IEM_DS3505
ZGGG,2001-01-12 06:00,ZGGG 120600Z AUTO 00000KT 6SM 18/14 A2997 RMK 60000 SLP156 T01820142 57026 IEM_DS3505
ZGGG,2001-01-12 07:00,ZGGG 120700Z AUTO 29004KT 2SM 17/13 A2997 RMK T01700130 IEM_DS3505
ZGGG,2001-01-12 08:00,ZGGG 120800Z AUTO 32004KT 2SM 17/13 A2997 RMK T01700130 IEM_DS3505
ZGGG,2001-01-12 09:00,ZGGG 120900Z AUTO 32004KT 2 1/2SM 17/14 A2997 RMK SLP157 T01700135 52001 IEM_DS3505
ZGGG,2001-01-12 10:00,ZGGG 121000Z AUTO 36004KT 2SM 16/13 A3000 RMK T01600130 IEM_DS3505
ZGGG,2001-01-12 11:00,ZGGG 121100Z AUTO 36006KT 3SM 16/13 A3000 RMK T01600130 IEM_DS3505
ZGGG,2001-01-12 12:00,ZGGG 121200Z AUTO 34004KT 4SM 16/13 A3003 RMK SLP172 T01600133 52015 IEM_DS3505
ZGGG,2001-01-12 13:00,ZGGG 121300Z AUTO 36004KT 3SM 16/13 A3003 RMK T01600130 IEM_DS3505
ZGGG,2001-01-12 14:00,ZGGG 121400Z AUTO 36006KT 3SM 16/13 A3006 RMK T01600130 IEM_DS3505
ZGGG,2001-01-12 15:00,ZGGG 121500Z AUTO 34008KT 5SM 15/13 A3009 RMK SLP193 T01530128 52021 IEM_DS3505
ZGGG,2001-01-12 16:00,ZGGG 121600Z AUTO 02012KT 7SM 13/12 A3009 RMK T01300120 IEM_DS3505
ZGGG,2001-01-12 17:00,ZGGG 121700Z AUTO 36010KT 7SM 13/12 A3009 RMK T01300120 IEM_DS3505
ZGGG,2001-01-12 18:00,ZGGG 121800Z AUTO 34006KT 7SM 13/12 A3012 RMK 60003 SLP199 T01340117 52006 IEM_DS3505
ZGGG,2001-01-12 19:00,ZGGG 121900Z AUTO 01010KT 5SM 12/11 A3009 RMK T01200110 IEM_DS3505
ZGGG,2001-01-12 20:00,ZGGG 122000Z AUTO 36008KT 5SM 11/08 A3012 RMK T01100080 IEM_DS3505
ZGGG,2001-01-12 21:00,ZGGG 122100Z AUTO 34004KT 7SM 11/10 A3012 RMK 70007 SLP201 T01100096 52001 IEM_DS3505
ZGGG,2001-01-12 22:00,ZGGG 122200Z AUTO 36006KT 7SM 11/08 A3012 RMK T01100080 IEM_DS3505
ZGGG,2001-01-12 23:00,ZGGG 122300Z AUTO 36006KT 6SM 11/08 A3012 RMK T01100080 IEM_DS3505
ZGGG,2001-01-13 00:00,ZGGG 130000Z AUTO 34006KT 9SM 10/08 A3012 RMK 60008 SLP208 T01040084 52007 IEM_DS3505
ZGGG,2001-01-13 01:00,ZGGG 130100Z AUTO 01008KT 7SM 12/08 A3015 RMK T01200080 IEM_DS3505
ZGGG,2001-01-13 02:00,ZGGG 130200Z AUTO 36010KT 7SM 13/08 A3015 RMK T01300080 IEM_DS3505
ZGGG,2001-01-13 03:00,ZGGG 130300Z AUTO 34008KT 16SM 14/08 A3015 RMK SLP214 T01420077 52007 IEM_DS3505
ZGGG,2001-01-13 04:00,ZGGG 130400Z AUTO 01010KT 7SM 16/08 A3012 RMK T01600080 IEM_DS3505
ZGGG,2001-01-13 05:00,ZGGG 130500Z AUTO 01008KT 6SM 17/08 A3009 RMK T01700080 IEM_DS3505
ZGGG,2001-01-13 06:00,ZGGG 130600Z AUTO 34008KT 16SM 18/09 A3006 RMK SLP183 T01760087 57031 IEM_DS3505
ZGGG,2001-01-13 07:00,ZGGG 130700Z AUTO 02008KT 6SM 18/08 A3003 RMK T01800080 IEM_DS3505
ZGGG,2001-01-13 08:00,ZGGG 130800Z AUTO 36006KT 6SM 18/08 A3003 RMK T01800080 IEM_DS3505
ZGGG,2001-01-13 09:00,ZGGG 130900Z AUTO 34006KT 17SM 17/08 A3003 RMK SLP174 T01730081 57009 IEM_DS3505
ZGGG,2001-01-13 10:00,ZGGG 131000Z AUTO 36006KT 6SM 16/07 A3003 RMK T01600070 IEM_DS3505
ZGGG,2001-01-13 11:00,ZGGG 131100Z AUTO 36006KT 6SM 16/07 A3006 RMK T01600070 IEM_DS3505
ZGGG,2001-01-13 12:00,ZGGG 131200Z AUTO 34004KT 11SM 14/08 A3009 RMK SLP193 T01400084 52018 IEM_DS3505
ZGGG,2001-01-13 14:00,ZGGG 131400Z AUTO 05006KT 6SM 12/08 A3012 RMK T01200080 IEM_DS3505
ZGGG,2001-01-13 15:00,ZGGG 131500Z AUTO 02004KT 10SM 13/07 A3012 RMK SLP210 T01300068 52017 IEM_DS3505
ZGGG,2001-01-13 16:00,ZGGG 131600Z AUTO 02010KT 6SM 13/06 A3015 RMK T01300060 IEM_DS3505
ZGGG,2001-01-13 17:00,ZGGG 131700Z AUTO 02010KT 6SM 12/05 A3015 RMK T01200050 IEM_DS3505
ZGGG,2001-01-13 18:00,ZGGG 131800Z AUTO 02004KT 9SM 11/04 A3018 RMK SLP224 T01130044 52014 IEM_DS3505
ZGGG,2001-01-13 19:00,ZGGG 131900Z AUTO 03012KT 6SM 11/04 A3018 RMK T01100040 IEM_DS3505
ZGGG,2001-01-13 20:00,ZGGG 132000Z AUTO 02010KT 6SM 11/04 A3018 RMK T01100040 IEM_DS3505
ZGGG,2001-01-13 21:00,ZGGG 132100Z AUTO 07002KT 9SM 10/04 A3021 RMK 70000 SLP232 T00990037 52008 IEM_DS3505
ZGGG,2001-01-13 22:00,ZGGG 132200Z AUTO 03008KT 6SM 10/03 A3021 RMK T01000030 IEM_DS3505
ZGGG,2001-01-13 23:00,ZGGG 132300Z AUTO 02008KT 6SM 10/03 A3024 RMK T01000030 IEM_DS3505
ZGGG,2001-01-14 00:00,ZGGG 140000Z AUTO 29004KT 10SM 10/03 A3024 RMK SLP245 T00990034 52013 IEM_DS3505
ZGGG,2001-01-14 01:00,ZGGG 140100Z AUTO 02010KT 7SM 11/02 A3027 RMK T01100020 IEM_DS3505
ZGGG,2001-01-14 02:00,ZGGG 140200Z AUTO 01008KT 7SM 12/02 A3027 RMK T01200020 IEM_DS3505
ZGGG,2001-01-14 03:00,ZGGG 140300Z AUTO 34006KT 11SM 13/03 A3027 RMK SLP252 T01340030 52007 IEM_DS3505
ZGGG,2001-01-14 04:00,ZGGG 140400Z AUTO 36006KT 7SM 13/02 A3024 RMK T01300020 IEM_DS3505
ZGGG,2001-01-14 05:00,ZGGG 140500Z AUTO 01008KT 6SM 14/02 A3021 RMK T01400020 IEM_DS3505
ZGGG,2001-01-14 06:00,ZGGG 140600Z AUTO 34006KT 11SM 15/03 A3018 RMK SLP224 T01460030 57028 IEM_DS3505
ZGGG,2001-01-14 07:00,ZGGG 140700Z AUTO 02008KT 6SM 16/03 A3015 RMK T01600030 IEM_DS3505
ZGGG,2001-01-14 08:00,ZGGG 140800Z AUTO 36008KT 6SM 16/03 A3015 RMK T01600030 IEM_DS3505
ZGGG,2001-01-14 09:00,ZGGG 140900Z AUTO 02004KT 10SM 16/05 A3015 RMK SLP214 T01590054 57010 IEM_DS3505
ZGGG,2001-01-14 10:00,ZGGG 141000Z AUTO 33004KT 6SM 15/04 A3015 RMK T01500040 IEM_DS3505
ZGGG,2001-01-14 11:00,ZGGG 141100Z AUTO 36004KT 6SM 15/03 A3018 RMK T01500030 IEM_DS3505
ZGGG,2001-01-14 12:00,ZGGG 141200Z AUTO 34004KT 10SM 14/05 A3021 RMK SLP234 T01430054 52020 IEM_DS3505
ZGGG,2001-01-14 13:00,ZGGG 141300Z AUTO 02006KT 6SM 15/04 A3021 RMK T01500040 IEM_DS3505
ZGGG,2001-01-14 14:00,ZGGG 141400Z AUTO 02006KT 6SM 14/04 A3024 RMK T01400040 IEM_DS3505
ZGGG,2001-01-14 15:00,ZGGG 141500Z AUTO 02004KT 10SM 14/05 A3024 RMK SLP251 T01430051 52017 IEM_DS3505
ZGGG,2001-01-14 16:00,ZGGG 141600Z AUTO 04008KT 6SM 13/03 A3024 RMK T01300030 IEM_DS3505
ZGGG,2001-01-14 17:00,ZGGG 141700Z AUTO 04010KT 6SM 12/03 A3024 RMK T01200030 IEM_DS3505
ZGGG,2001-01-14 18:00,ZGGG 141800Z AUTO 32002KT 9SM 11/04 A3027 RMK SLP251 T01120037 54000 IEM_DS3505
ZGGG,2001-01-14 19:00,ZGGG 141900Z AUTO 02008KT 6SM 12/03 A3024 RMK T01200030 IEM_DS3505
ZGGG,2001-01-14 20:00,ZGGG 142000Z AUTO 03008KT 6SM 11/03 A3024 RMK T01100030 IEM_DS3505
ZGGG,2001-01-14 21:00,ZGGG 142100Z AUTO 02004KT 9SM 10/02 A3024 RMK SLP251 T01050025 54000 IEM_DS3505
ZGGG,2001-01-14 22:00,ZGGG 142200Z AUTO 03010KT 6SM 10/01 A3027 RMK T01000010 IEM_DS3505
ZGGG,2001-01-14 23:00,ZGGG 142300Z AUTO 04010KT 6SM 10/01 A3030 RMK T01000010 IEM_DS3505
ZGGG,2001-01-15 00:00,ZGGG 150000Z AUTO 09002KT 9SM 10/02 A3030 RMK SLP268 T01000016 52017 IEM_DS3505
ZGGG,2001-01-15 01:00,ZGGG 150100Z AUTO 03010KT 6SM 11/01 A3036 RMK T01100010 IEM_DS3505
ZGGG,2001-01-15 02:00,ZGGG 150200Z AUTO 03012KT 6SM 12/00 A3036 RMK T01200000 IEM_DS3505
ZGGG,2001-01-15 03:00,ZGGG 150300Z AUTO 34006KT 11SM 12/00 A3036 RMK SLP283 T01180003 52015 IEM_DS3505
ZGGG,2001-01-15 04:00,ZGGG 150400Z AUTO 02010KT 6SM 12/M02 A3033 RMK T01201020 IEM_DS3505
ZGGG,2001-01-15 05:00,ZGGG 150500Z AUTO 04012KT 6SM 12/M01 A3033 RMK T01201010 IEM_DS3505
ZGGG,2001-01-15 06:00,ZGGG 150600Z AUTO 02004KT 11SM 13/02 A3030 RMK 60003 SLP263 T01260022 57020 IEM_DS3505
ZGGG,2001-01-15 07:00,ZGGG 150700Z AUTO 03008KT 6SM 13/M01 A3027 RMK T01301010 IEM_DS3505
ZGGG,2001-01-15 08:00,ZGGG 150800Z AUTO 02008KT 6SM 12/M01 A3027 RMK T01201010 IEM_DS3505
ZGGG,2001-01-15 09:00,ZGGG 150900Z AUTO 02004KT 10SM 12/01 A3030 RMK SLP262 T01160013 57001 IEM_DS3505
ZGGG,2001-01-15 10:00,ZGGG 151000Z AUTO 01008KT 6SM 12/00 A3030 RMK T01200000 IEM_DS3505
ZGGG,2001-01-15 11:00,ZGGG 151100Z AUTO 36006KT 6SM 12/00 A3030 RMK T01200000 IEM_DS3505
ZGGG,2001-01-15 12:00,ZGGG 151200Z AUTO 34004KT 9SM 11/01 A3033 RMK 60003 SLP271 T01120008 52008 IEM_DS3505
ZGGG,2001-01-15 13:00,ZGGG 151300Z AUTO 36006KT 6SM 12/00 A3033 RMK T01200000 IEM_DS3505
ZGGG,2001-01-15 14:00,ZGGG 151400Z AUTO 01006KT 6SM 12/00 A3033 RMK T01200000 IEM_DS3505
ZGGG,2001-01-15 15:00,ZGGG 151500Z AUTO 07002KT 9SM 11/01 A3036 RMK SLP281 T01130012 52011 IEM_DS3505
ZGGG,2001-01-15 16:00,ZGGG 151600Z AUTO 01004KT 6SM 12/01 A3036 RMK T01200010 IEM_DS3505
ZGGG,2001-01-15 17:00,ZGGG 151700Z AUTO 02006KT 7SM 11/02 A3036 RMK T01100020 IEM_DS3505
ZGGG,2001-01-15 18:00,ZGGG 151800Z AUTO 34002KT 9SM 10/03 A3033 RMK 60003 SLP280 T01040030 57001 IEM_DS3505
ZGGG,2001-01-15 19:00,ZGGG 151900Z AUTO 01006KT 6SM 11/01 A3033 RMK T01100010 IEM_DS3505
ZGGG,2001-01-15 20:00,ZGGG 152000Z AUTO 04008KT 6SM 10/02 A3033 RMK T01000020 IEM_DS3505
ZGGG,2001-01-15 21:00,ZGGG 152100Z AUTO 34004KT 9SM 10/03 A3033 RMK 70003 SLP275 T01010034 57006 IEM_DS3505
ZGGG,2001-01-15 22:00,ZGGG 152200Z AUTO 02006KT 6SM 11/01 A3033 RMK T01100010 IEM_DS3505
ZGGG,2001-01-15 23:00,ZGGG 152300Z AUTO 05008KT 6SM 10/02 A3033 RMK T01000020 IEM_DS3505
ZGGG,2001-01-16 00:00,ZGGG 160000Z AUTO 34002KT 10SM 10/01 A3036 RMK 60003 SLP285 T01020012 52010 IEM_DS3505
ZGGG,2001-01-16 01:00,ZGGG 160100Z AUTO 01006KT 6SM 11/00 A3039 RMK T01100000 IEM_DS3505
ZGGG,2001-01-16 02:00,ZGGG 160200Z AUTO 01006KT 6SM 12/02 A3039 RMK T01200020 IEM_DS3505
ZGGG,2001-01-16 03:00,ZGGG 160300Z AUTO 34002KT 9SM 13/02 A3036 RMK SLP289 T01290023 52005 IEM_DS3505
ZGGG,2001-01-16 04:00,ZGGG 160400Z AUTO 02006KT 6SM 15/01 A3033 RMK T01500010 IEM_DS3505
ZGGG,2001-01-16 05:00,ZGGG 160500Z AUTO 02006KT 6SM 16/01 A3030 RMK T01600010 IEM_DS3505
ZGGG,2001-01-16 06:00,ZGGG 160600Z AUTO 29004KT 11SM 17/04 A3027 RMK 60003 SLP250 T01660039 57039 IEM_DS3505
ZGGG,2001-01-16 07:00,ZGGG 160700Z AUTO 36006KT 6SM 17/03 A3024 RMK T01700030 IEM_DS3505
ZGGG,2001-01-16 08:00,ZGGG 160800Z AUTO 03006KT 6SM 17/03 A3021 RMK T01700030 IEM_DS3505
ZGGG,2001-01-16 09:00,ZGGG 160900Z AUTO 34002KT 9SM 16/04 A3024 RMK SLP240 T01630038 57010 IEM_DS3505
ZGGG,2001-01-16 10:00,ZGGG 161000Z AUTO 01004KT 6SM 16/03 A3024 RMK T01600030 IEM_DS3505
ZGGG,2001-01-16 11:00,ZGGG 161100Z AUTO 03002KT 5SM 14/04 A3024 RMK T01400040 IEM_DS3505
ZGGG,2001-01-16 12:00,ZGGG 161200Z AUTO 00000KT 9SM 13/07 A3027 RMK SLP252 T01330066 52012 IEM_DS3505
ZGGG,2001-01-16 13:00,ZGGG 161300Z AUTO 00000KT 14/04 A3027 RMK T01400040 IEM_DS3505
ZGGG,2001-01-16 14:00,ZGGG 161400Z AUTO 00000KT 14/06 A3027 RMK T01400060 IEM_DS3505
ZGGG,2001-01-16 15:00,ZGGG 161500Z AUTO 34002KT 9SM 12/06 A3030 RMK SLP263 T01220065 52011 IEM_DS3505
ZGGG,2001-01-16 16:00,ZGGG 161600Z AUTO 00000KT 3SM 13/07 A3030 RMK T01300070 IEM_DS3505
ZGGG,2001-01-16 17:00,ZGGG 161700Z AUTO 00000KT 3SM 13/06 A3030 RMK T01300060 IEM_DS3505
ZGGG,2001-01-16 18:00,ZGGG 161800Z AUTO 00000KT 9SM 13/09 A3027 RMK SLP260 T01260086 57003 IEM_DS3505
ZGGG,2001-01-16 19:00,ZGGG 161900Z AUTO 00000KT 3SM 14/07 A3030 RMK T01400070 IEM_DS3505
ZGGG,2001-01-16 20:00,ZGGG 162000Z AUTO 00000KT 3SM 14/07 A3024 RMK T01400070 IEM_DS3505
ZGGG,2001-01-16 21:00,ZGGG 162100Z AUTO 00000KT 8SM 13/09 A3024 RMK 70003 SLP250 T01270091 57010 IEM_DS3505
ZGGG,2001-01-16 22:00,ZGGG 162200Z AUTO 07004KT 3SM 13/09 A3027 RMK T01300090 IEM_DS3505
ZGGG,2001-01-16 23:00,ZGGG 162300Z AUTO 04002KT 3SM 13/09 A3027 RMK T01300090 IEM_DS3505
ZGGG,2001-01-17 00:00,ZGGG 170000Z AUTO 07002KT 7SM 13/10 A3027 RMK 70003 SLP260 T01280095 52010 IEM_DS3505
ZGGG,2001-01-17 01:00,ZGGG 170100Z AUTO 12004KT 14/08 A3030 RMK T01400080 IEM_DS3505
ZGGG,2001-01-17 02:00,ZGGG 170200Z AUTO 12004KT 5SM 16/07 A3030 RMK T01600070 IEM_DS3505
ZGGG,2001-01-17 03:00,ZGGG 170300Z AUTO 11002KT 9SM 17/08 A3030 RMK SLP263 T01740077 52003 IEM_DS3505
ZGGG,2001-01-17 04:00,ZGGG 170400Z AUTO 36004KT 19/08 A3027 RMK T01900080 IEM_DS3505
ZGGG,2001-01-17 05:00,ZGGG 170500Z AUTO 36002KT 20/08 A3021 RMK T02000080 IEM_DS3505
ZGGG,2001-01-17 06:00,ZGGG 170600Z AUTO 16006KT 10SM 21/08 A3015 RMK SLP220 T02070078 57042 IEM_DS3505
ZGGG,2001-01-17 07:00,ZGGG 170700Z AUTO 17004KT 5SM 22/07 A3012 RMK T02200070 IEM_DS3505
ZGGG,2001-01-17 08:00,ZGGG 170800Z AUTO 20008KT 5SM 22/07 A3012 RMK T02200070 IEM_DS3505
ZGGG,2001-01-17 09:00,ZGGG 170900Z AUTO 18004KT 7SM 20/09 A3012 RMK SLP205 T02040086 57015 IEM_DS3505
ZGGG,2001-01-17 10:00,ZGGG 171000Z AUTO 17004KT 19/08 A3012 RMK T01900080 IEM_DS3505
ZGGG,2001-01-17 11:00,ZGGG 171100Z AUTO 15004KT 17/09 A3012 RMK T01700090 IEM_DS3505
ZGGG,2001-01-17 12:00,ZGGG 171200Z AUTO 00000KT 7SM 17/11 A3015 RMK SLP213 T01680106 52008 IEM_DS3505
ZGGG,2001-01-17 13:00,ZGGG 171300Z AUTO 16004KT 17/11 A3015 RMK T01700110 IEM_DS3505
ZGGG,2001-01-17 14:00,ZGGG 171400Z AUTO 19002KT 4SM 16/11 A3015 RMK T01600110 IEM_DS3505
ZGGG,2001-01-17 15:00,ZGGG 171500Z AUTO 07002KT 7SM 13/11 A3018 RMK SLP225 T01340111 52012 IEM_DS3505
ZGGG,2001-01-17 16:00,ZGGG 171600Z AUTO 00000KT 3SM 14/11 A3018 RMK T01400110 IEM_DS3505
ZGGG,2001-01-17 17:00,ZGGG 171700Z AUTO 00000KT 4SM 14/11 A3018 RMK T01400110 IEM_DS3505
ZGGG,2001-01-17 18:00,ZGGG 171800Z AUTO 00000KT 6SM 12/11 A3015 RMK SLP220 T01210106 57005 IEM_DS3505
ZGGG,2001-01-17 19:00,ZGGG 171900Z AUTO 06004KT 5SM 14/09 A3015 RMK T01400090 IEM_DS3505
ZGGG,2001-01-17 20:00,ZGGG 172000Z AUTO 12004KT 6SM 15/09 A3015 RMK T01500090 IEM_DS3505
ZGGG,2001-01-17 21:00,ZGGG 172100Z AUTO 12004KT 6SM 15/09 A3015 RMK T01500090 IEM_DS3505
ZGGG,2001-01-17 22:00,ZGGG 172200Z AUTO 13004KT 6SM 14/09 A3015 RMK T01400090 IEM_DS3505
ZGGG,2001-01-17 23:00,ZGGG 172300Z AUTO 29002KT 6SM 14/09 A3015 RMK T01400090 IEM_DS3505
ZGGG,2001-01-18 00:00,ZGGG 180000Z AUTO 00000KT 9SM 13/11 A3018 RMK SLP222 T01270110 52007 IEM_DS3505
ZGGG,2001-01-18 01:00,ZGGG 180100Z AUTO 31002KT 1 1/2SM 16/11 A3018 RMK T01600110 IEM_DS3505
ZGGG,2001-01-18 02:00,ZGGG 180200Z AUTO 36002KT 1 1/2SM 18/11 A3018 RMK T01800110 IEM_DS3505
ZGGG,2001-01-18 03:00,ZGGG 180300Z AUTO 16004KT 9SM 19/11 A3018 RMK SLP228 T01940112 52007 IEM_DS3505
ZGGG,2001-01-18 04:00,ZGGG 180400Z AUTO 14006KT 23/12 A3015 RMK T02300120 IEM_DS3505
ZGGG,2001-01-18 05:00,ZGGG 180500Z AUTO 21008KT 3SM 23/12 A3012 RMK T02300120 IEM_DS3505
ZGGG,2001-01-18 06:00,ZGGG 180600Z AUTO 16006KT 7SM 23/12 A3006 RMK SLP192 T02320124 57036 IEM_DS3505
ZGGG,2001-01-18 07:00,ZGGG 180700Z AUTO 14006KT 6SM 25/12 A3006 RMK T02500120 IEM_DS3505
ZGGG,2001-01-18 08:00,ZGGG 180800Z AUTO 20008KT 6SM 24/12 A3006 RMK T02400120 IEM_DS3505
ZGGG,2001-01-18 09:00,ZGGG 180900Z AUTO 16004KT 10SM 24/14 A3006 RMK SLP185 T02350136 57007 IEM_DS3505
ZGGG,2001-01-18 10:00,ZGGG 181000Z AUTO 17004KT 6SM 22/13 A3006 RMK T02200130 IEM_DS3505
ZGGG,2001-01-18 11:00,ZGGG 181100Z AUTO 13004KT 6SM 20/14 A3006 RMK T02000140 IEM_DS3505
ZGGG,2001-01-18 12:00,ZGGG 181200Z AUTO 07002KT 11SM 18/14 A3009 RMK SLP198 T01820142 52013 IEM_DS3505
ZGGG,2001-01-18 13:00,ZGGG 181300Z AUTO 14004KT 4SM 18/13 A3012 RMK T01800130 IEM_DS3505
ZGGG,2001-01-18 14:00,ZGGG 181400Z AUTO 15004KT 4SM 19/14 A3012 RMK T01900140 IEM_DS3505
ZGGG,2001-01-18 15:00,ZGGG 181500Z AUTO 00000KT 8SM 17/14 A3015 RMK SLP216 T01740143 52018 IEM_DS3505
ZGGG,2001-01-18 16:00,ZGGG 181600Z AUTO 16006KT 5SM 19/14 A3015 RMK T01900140 IEM_DS3505
ZGGG,2001-01-18 17:00,ZGGG 181700Z AUTO 23002KT 4SM 18/14 A3015 RMK T01800140 IEM_DS3505
ZGGG,2001-01-18 18:00,ZGGG 181800Z AUTO 00000KT 8SM 15/14 A3012 RMK SLP213 T01500136 57003 IEM_DS3505
ZGGG,2001-01-18 19:00,ZGGG 181900Z AUTO 00000KT 3SM 17/14 A3012 RMK T01700140 IEM_DS3505
ZGGG,2001-01-18 20:00,ZGGG 182000Z AUTO 03006KT 4SM 17/14 A3012 RMK T01700140 IEM_DS3505
ZGGG,2001-01-18 21:00,ZGGG 182100Z AUTO 00000KT 7SM 14/13 A3012 RMK SLP208 T01440133 57005 IEM_DS3505
ZGGG,2001-01-18 22:00,ZGGG 182200Z AUTO 00000KT 4SM 16/14 A3012 RMK T01600140 IEM_DS3505
ZGGG,2001-01-18 23:00,ZGGG 182300Z AUTO 00000KT 2SM 16/13 A3015 RMK T01600130 IEM_DS3505
ZGGG,2001-01-19 00:00,ZGGG 190000Z AUTO 00000KT 8SM 15/14 A3015 RMK SLP219 T01490140 52011 IEM_DS3505
ZGGG,2001-01-19 01:00,ZGGG 190100Z AUTO 02002KT 1 1/4SM 18/15 A3018 RMK T01800150 IEM_DS3505
ZGGG,2001-01-19 02:00,ZGGG 190200Z AUTO 04006KT 2 1/2SM 19/14 A3021 RMK T01900140 IEM_DS3505
ZGGG,2001-01-19 03:00,ZGGG 190300Z AUTO 14004KT 9SM 21/15 A3018 RMK SLP226 T02120146 52007 IEM_DS3505
ZGGG,2001-01-19 04:00,ZGGG 190400Z AUTO 13006KT 5SM 23/15 A3015 RMK T02300150 IEM_DS3505
ZGGG,2001-01-19 05:00,ZGGG 190500Z AUTO 13004KT 6SM 25/16 A3012 RMK T02500160 IEM_DS3505
ZGGG,2001-01-19 06:00,ZGGG 190600Z AUTO 16006KT 11SM 24/15 A3009 RMK SLP195 T02390149 57031 IEM_DS3505
ZGGG,2001-01-19 07:00,ZGGG 190700Z AUTO 16006KT 6SM 24/16 A3006 RMK T02400160 IEM_DS3505
ZGGG,2001-01-19 08:00,ZGGG 190800Z AUTO 19004KT 24/16 A3003 RMK T02400160 IEM_DS3505
ZGGG,2001-01-19 09:00,ZGGG 190900Z AUTO 16006KT 24/16 A3003 RMK T02400160 IEM_DS3505
ZGGG,2001-01-19 10:00,ZGGG 191000Z AUTO 13004KT 3SM 23/16 A3006 RMK T02300160 IEM_DS3505
ZGGG,2001-01-19 11:00,ZGGG 191100Z AUTO 16002KT 4SM 20/16 A3006 RMK T02000160 IEM_DS3505
ZGGG,2001-01-19 12:00,ZGGG 191200Z AUTO 00000KT 7SM 19/16 A3009 RMK SLP194 T01920164 52011 IEM_DS3505
ZGGG,2001-01-19 13:00,ZGGG 191300Z AUTO 00000KT 4SM 19/16 A3009 RMK T01900160 IEM_DS3505
ZGGG,2001-01-19 14:00,ZGGG 191400Z AUTO 17004KT 4SM 20/16 A3009 RMK T02000160 IEM_DS3505
ZGGG,2001-01-19 15:00,ZGGG 191500Z AUTO 00000KT 7SM 18/16 A3012 RMK SLP201 T01760161 52007 IEM_DS3505
ZGGG,2001-01-19 16:00,ZGGG 191600Z AUTO 17002KT 3SM 19/15 A3012 RMK T01900150 IEM_DS3505
ZGGG,2001-01-19 17:00,ZGGG 191700Z AUTO 15002KT 4SM 19/15 A3012 RMK T01900150 IEM_DS3505
ZGGG,2001-01-19 18:00,ZGGG 191800Z AUTO 00000KT 7SM 17/16 A3012 RMK SLP201 T01700156 52001 IEM_DS3505
ZGGG,2001-01-19 19:00,ZGGG 191900Z AUTO 00000KT 4SM 18/16 A3009 RMK T01800160 IEM_DS3505
ZGGG,2001-01-19 20:00,ZGGG 192000Z AUTO 00000KT 4SM 17/15 A3009 RMK T01700150 IEM_DS3505
ZGGG,2001-01-19 21:00,ZGGG 192100Z AUTO 00000KT 7SM 16/15 A3009 RMK SLP193 T01620153 57008 IEM_DS3505
ZGGG,2001-01-19 22:00,ZGGG 192200Z AUTO 09004KT 3SM 16/14 A3009 RMK T01600140 IEM_DS3505
ZGGG,2001-01-19 23:00,ZGGG 192300Z AUTO 09004KT 2SM 16/14 A3012 RMK T01600140 IEM_DS3505
ZGGG,2001-01-20 00:00,ZGGG 200000Z AUTO 00000KT 6SM 16/15 A3012 RMK SLP205 T01590152 52011 IEM_DS3505
ZGGG,2001-01-20 01:00,ZGGG 200100Z AUTO 05004KT 1 1/2SM 19/16 A3012 RMK T01900160 IEM_DS3505
ZGGG,2001-01-20 02:00,ZGGG 200200Z AUTO 02006KT 2SM 22/16 A3012 RMK T02200160 IEM_DS3505
ZGGG,2001-01-20 03:00,ZGGG 200300Z AUTO 29004KT 8SM 24/16 A3012 RMK SLP205 T02380159 52001 IEM_DS3505
ZGGG,2001-01-20 04:00,ZGGG 200400Z AUTO 36004KT 2 1/2SM 24/16 A3009 RMK T02400160 IEM_DS3505
ZGGG,2001-01-20 05:00,ZGGG 200500Z AUTO 30004KT 3SM 26/16 A3003 RMK T02600160 IEM_DS3505
ZGGG,2001-01-20 06:00,ZGGG 200600Z AUTO 34004KT 10SM 26/14 A3000 RMK SLP167 T02630143 57038 IEM_DS3505
ZGGG,2001-01-20 07:00,ZGGG 200700Z AUTO 33004KT 5SM 27/14 A2997 RMK T02700140 IEM_DS3505
ZGGG,2001-01-20 09:00,ZGGG 200900Z AUTO 25002KT 9SM 26/16 A2997 RMK SLP154 T02600165 57013 IEM_DS3505
ZGGG,2001-01-20 10:00,ZGGG 201000Z AUTO 26002KT 25/15 A2997 RMK T02500150 IEM_DS3505
ZGGG,2001-01-20 11:00,ZGGG 201100Z AUTO 00000KT 22/16 A2997 RMK T02200160 IEM_DS3505
ZGGG,2001-01-20 12:00,ZGGG 201200Z AUTO 00000KT 3SM 22/16 A2997 RMK T02200160 IEM_DS3505
ZGGG,2001-01-20 13:00,ZGGG 201300Z AUTO 06004KT 3SM 21/16 A3000 RMK T02100160 IEM_DS3505
ZGGG,2001-01-20 14:00,ZGGG 201400Z AUTO 15004KT 2 1/2SM 21/16 A3000 RMK T02100160 IEM_DS3505
ZGGG,2001-01-20 15:00,ZGGG 201500Z AUTO 11002KT 6SM 19/16 A3000 RMK SLP173 T01890164 52011 IEM_DS3505
ZGGG,2001-01-20 16:00,ZGGG 201600Z AUTO 13004KT 3SM 19/16 A3000 RMK T01900160 IEM_DS3505
ZGGG,2001-01-20 17:00,ZGGG 201700Z AUTO 13002KT 3SM 19/16 A3000 RMK T01900160 IEM_DS3505
ZGGG,2001-01-20 18:00,ZGGG 201800Z AUTO 00000KT 5SM 18/16 A2997 RMK SLP164 T01780161 57009 IEM_DS3505
ZGGG,2001-01-20 19:00,ZGGG 201900Z AUTO 00000KT 3SM 19/16 A2997 RMK T01900160 IEM_DS3505
ZGGG,2001-01-20 20:00,ZGGG 202000Z AUTO 6SM RMK IEM_DS3505
ZGGG,2001-01-20 21:00,ZGGG 202100Z AUTO 00000KT 4SM 17/16 A2997 RMK SLP157 T01720160 57007 IEM_DS3505
ZGGG,2001-01-20 22:00,ZGGG 202200Z AUTO 00000KT 3SM 18/16 A2997 RMK T01800160 IEM_DS3505
ZGGG,2001-01-20 23:00,ZGGG 202300Z AUTO 00000KT 2 1/2SM 18/16 A3000 RMK T01800160 IEM_DS3505
ZGGG,2001-01-21 00:00,ZGGG 210000Z AUTO 00000KT 3SM 17/16 A3000 RMK SLP171 T01720162 52013 IEM_DS3505
ZGGG,2001-01-21 01:00,ZGGG 210100Z AUTO 12004KT 2 1/2SM 19/16 A3003 RMK T01900160 IEM_DS3505
ZGGG,2001-01-21 02:00,ZGGG 210200Z AUTO 12006KT 2 1/2SM 20/16 A3006 RMK T02000160 IEM_DS3505
ZGGG,2001-01-21 03:00,ZGGG 210300Z AUTO 14006KT 6SM 20/16 A3006 RMK SLP180 T02000162 52010 IEM_DS3505
ZGGG,2001-01-21 04:00,ZGGG 210400Z AUTO 15006KT 2SM 23/17 A3003 RMK T02300170 IEM_DS3505
ZGGG,2001-01-21 05:00,ZGGG 210500Z AUTO 14008KT 2 1/2SM 23/17 A3000 RMK T02300170 IEM_DS3505
ZGGG,2001-01-21 06:00,ZGGG 210600Z AUTO 14008KT 7SM 23/17 A2994 RMK SLP149 T02270169 57031 IEM_DS3505
ZGGG,2001-01-21 07:00,ZGGG 210700Z AUTO 15008KT 5SM 24/17 A2991 RMK T02400170 IEM_DS3505
ZGGG,2001-01-21 08:00,ZGGG 210800Z AUTO 15010KT 5SM 23/17 A2991 RMK T02300170 IEM_DS3505
ZGGG,2001-01-21 09:00,ZGGG 210900Z AUTO 16008KT 11SM 22/16 A2991 RMK SLP136 T02190162 57013 IEM_DS3505
ZGGG,2001-01-21 10:00,ZGGG 211000Z AUTO 15008KT 6SM 21/16 A2991 RMK T02100160 IEM_DS3505
ZGGG,2001-01-21 11:00,ZGGG 211100Z AUTO 16008KT 6SM 21/16 A2994 RMK T02100160 IEM_DS3505
ZGGG,2001-01-21 12:00,ZGGG 211200Z AUTO 16004KT 9SM 20/16 A2994 RMK SLP152 T01970155 52016 IEM_DS3505
ZGGG,2001-01-21 13:00,ZGGG 211300Z AUTO 17008KT 4SM 20/16 A2997 RMK T02000160 IEM_DS3505
ZGGG,2001-01-21 14:00,ZGGG 211400Z AUTO 17006KT 4SM 19/15 A2997 RMK T01900150 IEM_DS3505
ZGGG,2001-01-21 15:00,ZGGG 211500Z AUTO 16002KT 9SM 19/15 A2997 RMK SLP160 T01860152 52008 IEM_DS3505
ZGGG,2001-01-21 16:00,ZGGG 211600Z AUTO 17006KT 4SM 19/15 A2997 RMK T01900150 IEM_DS3505
ZGGG,2001-01-21 17:00,ZGGG 211700Z AUTO 18004KT 4SM 18/14 A2997 RMK T01800140 IEM_DS3505
ZGGG,2001-01-21 18:00,ZGGG 211800Z AUTO 16002KT 9SM 18/15 A2994 RMK SLP152 T01760149 57008 IEM_DS3505
ZGGG,2001-01-21 19:00,ZGGG 211900Z AUTO 06002KT 4SM 18/14 A2994 RMK T01800140 IEM_DS3505
ZGGG,2001-01-21 20:00,ZGGG 212000Z AUTO 06002KT 4SM 18/15 A2994 RMK T01800150 IEM_DS3505
ZGGG,2001-01-21 21:00,ZGGG 212100Z AUTO 00000KT 10SM 17/15 A2994 RMK SLP145 T01720153 57007 IEM_DS3505
ZGGG,2001-01-21 22:00,ZGGG 212200Z AUTO 00000KT 2SM 18/16 A2994 RMK T01800160 IEM_DS3505
ZGGG,2001-01-21 23:00,ZGGG 212300Z AUTO 00000KT 4SM 18/15 A2994 RMK T01800150 IEM_DS3505
ZGGG,2001-01-22 00:00,ZGGG 220000Z AUTO 00000KT 7SM 18/16 A2997 RMK SLP152 T01760159 52007 IEM_DS3505
ZGGG,2001-01-22 01:00,ZGGG 220100Z AUTO 23002KT 2 1/2SM 19/16 A2997 RMK T01900160 IEM_DS3505
ZGGG,2001-01-22 02:00,ZGGG 220200Z AUTO 20010KT 2 1/2SM 21/16 A2997 RMK T02100160 IEM_DS3505
ZGGG,2001-01-22 03:00,ZGGG 220300Z AUTO 16006KT 5SM 21/17 A2997 RMK SLP156 T02090166 52004 IEM_DS3505
ZGGG,2001-01-22 04:00,ZGGG 220400Z AUTO 16008KT 2 1/2SM 24/18 A2994 RMK T02400180 IEM_DS3505
ZGGG,2001-01-22 05:00,ZGGG 220500Z AUTO 19010KT 3SM 25/18 A2988 RMK T02500180 IEM_DS3505
ZGGG,2001-01-22 06:00,ZGGG 220600Z AUTO 16008KT 7SM 25/18 A2985 RMK SLP122 T02480184 57034 IEM_DS3505
ZGGG,2001-01-22 07:00,ZGGG 220700Z AUTO 20010KT 25/18 A2983 RMK T02500180 IEM_DS3505
ZGGG,2001-01-22 08:00,ZGGG 220800Z AUTO 20010KT 5SM 26/18 A2983 RMK T02600180 IEM_DS3505
ZGGG,2001-01-22 09:00,ZGGG 220900Z AUTO 16004KT 8SM 24/19 A2983 RMK SLP113 T02380186 57009 IEM_DS3505
ZGGG,2001-01-22 10:00,ZGGG 221000Z AUTO 16006KT 4SM 23/18 A2983 RMK T02300180 IEM_DS3505
ZGGG,2001-01-22 11:00,ZGGG 221100Z AUTO 15008KT 4SM 23/19 A2985 RMK T02300190 IEM_DS3505
ZGGG,2001-01-22 12:00,ZGGG 221200Z AUTO 16002KT 8SM 22/19 A2988 RMK SLP129 T02220189 52016 IEM_DS3505
ZGGG,2001-01-22 13:00,ZGGG 221300Z AUTO 17008KT 4SM 22/19 A2988 RMK T02200190 IEM_DS3505
ZGGG,2001-01-22 14:00,ZGGG 221400Z AUTO 16006KT 4SM 22/19 A2991 RMK T02200190 IEM_DS3505
ZGGG,2001-01-22 15:00,ZGGG 221500Z AUTO 16004KT 7SM 21/19 A2991 RMK SLP142 T02090188 52013 IEM_DS3505
ZGGG,2001-01-22 16:00,ZGGG 221600Z AUTO 16006KT 4SM 21/19 A2994 RMK T02100190 IEM_DS3505
ZGGG,2001-01-22 17:00,ZGGG 221700Z AUTO 18006KT 4SM 21/19 A2994 RMK T02100190 IEM_DS3505
ZGGG,2001-01-22 18:00,ZGGG 221800Z AUTO 16004KT 7SM 21/19 A2994 RMK SLP145 T02060189 52003 IEM_DS3505
ZGGG,2001-01-22 19:00,ZGGG 221900Z AUTO 19004KT 4SM 21/18 A2991 RMK T02100180 IEM_DS3505
ZGGG,2001-01-22 20:00,ZGGG 222000Z AUTO 16004KT 4SM 20/18 A2991 RMK T02000180 IEM_DS3505
ZGGG,2001-01-22 21:00,ZGGG 222100Z AUTO 11004KT 7SM 20/18 A2991 RMK SLP139 T02010185 57006 IEM_DS3505
ZGGG,2001-01-22 22:00,ZGGG 222200Z AUTO 14004KT 2 1/2SM 20/18 A2991 RMK T02000180 IEM_DS3505
ZGGG,2001-01-22 23:00,ZGGG 222300Z AUTO 08002KT 1 1/2SM 20/18 A2994 RMK T02000180 IEM_DS3505
ZGGG,2001-01-23 00:00,ZGGG 230000Z AUTO 09004KT 4SM 20/18 A2997 RMK SLP159 T01980185 52020 IEM_DS3505
ZGGG,2001-01-23 01:00,ZGGG 230100Z AUTO 18004KT 2 1/2SM 21/18 A3000 RMK T02100180 IEM_DS3505
ZGGG,2001-01-23 02:00,ZGGG 230200Z AUTO 16006KT 2 1/2SM 22/18 A3000 RMK T02200180 IEM_DS3505
ZGGG,2001-01-23 03:00,ZGGG 230300Z AUTO 11006KT 5SM 24/19 A3000 RMK SLP167 T02380188 52008 IEM_DS3505
ZGGG,2001-01-23 04:00,ZGGG 230400Z AUTO 17008KT 25/19 A2997 RMK T02500190 IEM_DS3505
ZGGG,2001-01-23 05:00,ZGGG 230500Z AUTO 17008KT 7SM 26/19 A2994 RMK T02600190 IEM_DS3505
ZGGG,2001-01-23 06:00,ZGGG 230600Z AUTO 16008KT 9SM 25/19 A2991 RMK SLP139 T02500189 57028 IEM_DS3505
ZGGG,2001-01-23 07:00,ZGGG 230700Z AUTO 16008KT 7SM 26/18 A2988 RMK T02600180 IEM_DS3505
ZGGG,2001-01-23 08:00,ZGGG 230800Z AUTO 16010KT 6SM 25/18 A2988 RMK T02500180 IEM_DS3505
ZGGG,2001-01-23 09:00,ZGGG 230900Z AUTO 16008KT 7SM 24/18 A2988 RMK SLP127 T02440184 57012 IEM_DS3505
ZGGG,2001-01-23 10:00,ZGGG 231000Z AUTO 16008KT 6SM 24/19 A2988 RMK T02400190 IEM_DS3505
ZGGG,2001-01-23 11:00,ZGGG 231100Z AUTO 17008KT 6SM 22/18 A2991 RMK T02200180 IEM_DS3505
ZGGG,2001-01-23 12:00,ZGGG 231200Z AUTO 16008KT 9SM 21/18 A2991 RMK SLP143 T02140180 52016 IEM_DS3505
ZGGG,2001-01-23 13:00,ZGGG 231300Z AUTO 16010KT 7SM 21/18 A2994 RMK T02100180 IEM_DS3505
ZGGG,2001-01-23 14:00,ZGGG 231400Z AUTO 15012KT 7SM 21/17 A2994 RMK T02100170 IEM_DS3505
ZGGG,2001-01-23 15:00,ZGGG 231500Z AUTO 16004KT 8SM 20/18 A2994 RMK SLP152 T02040177 52009 IEM_DS3505
ZGGG,2001-01-23 16:00,ZGGG 231600Z AUTO 17006KT 6SM 21/18 A2994 RMK T02100180 IEM_DS3505
ZGGG,2001-01-23 17:00,ZGGG 231700Z AUTO 17006KT 6SM 21/18 A2994 RMK T02100180 IEM_DS3505
ZGGG,2001-01-23 18:00,ZGGG 231800Z AUTO 14006KT 9SM 20/18 A2994 RMK SLP149 T02000176 57003 IEM_DS3505
ZGGG,2001-01-23 19:00,ZGGG 231900Z AUTO 18004KT 5SM 20/17 A2994 RMK T02000170 IEM_DS3505
ZGGG,2001-01-23 20:00,ZGGG 232000Z AUTO 17004KT 7SM 20/17 A2991 RMK T02000170 IEM_DS3505
ZGGG,2001-01-23 21:00,ZGGG 232100Z AUTO 14004KT 5SM 20/18 A2991 RMK SLP134 T01980175 57015 IEM_DS3505
ZGGG,2001-01-23 22:00,ZGGG 232200Z AUTO 17004KT 4SM 20/17 A2991 RMK T02000170 IEM_DS3505
ZGGG,2001-01-23 23:00,ZGGG 232300Z AUTO 15006KT 4SM 20/17 A2991 RMK T02000170 IEM_DS3505
ZGGG,2001-01-24 00:00,ZGGG 240000Z AUTO 11004KT 4SM 20/18 A2991 RMK SLP140 T01950176 52006 IEM_DS3505
ZGGG,2001-01-24 01:00,ZGGG 240100Z AUTO 15006KT 3SM 21/18 A2991 RMK T02100180 IEM_DS3505
ZGGG,2001-01-24 02:00,ZGGG 240200Z AUTO 16008KT 3SM 21/18 A2994 RMK T02100180 IEM_DS3505
ZGGG,2001-01-24 03:00,ZGGG 240300Z AUTO 16006KT 5SM 21/18 A2994 RMK SLP144 T02120182 52004 IEM_DS3505
ZGGG,2001-01-24 04:00,ZGGG 240400Z AUTO 17004KT 4SM 22/18 A2991 RMK T02200180 IEM_DS3505
ZGGG,2001-01-24 05:00,ZGGG 240500Z AUTO 18006KT 4SM 22/18 A2988 RMK T02200180 IEM_DS3505
ZGGG,2001-01-24 06:00,ZGGG 240600Z AUTO 14002KT 7SM 22/19 RMK 60003 SLP119 T02160189 57025 IEM_DS3505
ZGGG,2001-01-24 07:00,ZGGG 240700Z AUTO 26004KT 1 1/4SM 21/19 A2985 RMK T02100190 IEM_DS3505
ZGGG,2001-01-24 08:00,ZGGG 240800Z AUTO 00000KT 1SM 21/19 A2985 RMK T02100190 IEM_DS3505
ZGGG,2001-01-24 09:00,ZGGG 240900Z AUTO 11002KT 4SM 21/20 A2983 RMK SLP112 T02060198 57007 IEM_DS3505
ZGGG,2001-01-24 10:00,ZGGG 241000Z AUTO 12002KT 1 1/4SM 21/20 A2983 RMK T02100200 IEM_DS3505
ZGGG,2001-01-24 11:00,ZGGG 241100Z AUTO 00000KT 2 1/2SM 21/19 A2985 RMK T02100190 IEM_DS3505
ZGGG,2001-01-24 12:00,ZGGG 241200Z AUTO 11002KT 3SM 20/20 A2985 RMK 60024 SLP116 T02040198 52004 IEM_DS3505
ZGGG,2001-01-24 13:00,ZGGG 241300Z AUTO 18004KT 2SM 21/20 A2985 RMK T02100200 IEM_DS3505
ZGGG,2001-01-24 14:00,ZGGG 241400Z AUTO 20004KT 2SM 21/20 A2988 RMK T02100200 IEM_DS3505
ZGGG,2001-01-24 15:00,ZGGG 241500Z AUTO 14006KT 4SM 20/20 A2983 RMK SLP113 T02010196 57003 IEM_DS3505
ZGGG,2001-01-24 16:00,ZGGG 241600Z AUTO 14010KT 2SM 21/20 A2980 RMK T02100200 IEM_DS3505
ZGGG,2001-01-24 17:00,ZGGG 241700Z AUTO 16008KT 2SM 21/20 A2980 RMK T02100200 IEM_DS3505
ZGGG,2001-01-24 18:00,ZGGG 241800Z AUTO 00000KT 3SM 20/20 A2977 RMK 60028 SLP094 T02020197 57019 IEM_DS3505
ZGGG,2001-01-24 19:00,ZGGG 241900Z AUTO 36004KT 1 1/2SM 21/20 A2980 RMK T02100200 IEM_DS3505
ZGGG,2001-01-24 20:00,ZGGG 242000Z AUTO 36004KT 1SM 21/20 A2977 RMK T02100200 IEM_DS3505
ZGGG,2001-01-24 21:00,ZGGG 242100Z AUTO 14004KT 1SM 20/20 A2977 RMK 70096 SLP091 T02020199 57003 IEM_DS3505
ZGGG,2001-01-24 22:00,ZGGG 242200Z AUTO 20004KT 2SM 21/20 A2980 RMK T02100200 IEM_DS3505
ZGGG,2001-01-24 23:00,ZGGG 242300Z AUTO 00000KT 1SM 20/19 A2977 RMK T02000190 IEM_DS3505
ZGGG,2001-01-25 00:00,ZGGG 250000Z AUTO 11006KT 1 1/4SM 20/20 A2980 RMK 60087 SLP097 T02020199 52006 IEM_DS3505
ZGGG,2001-01-25 01:00,ZGGG 250100Z AUTO 35006KT 1SM 18/17 A2983 RMK T01800170 IEM_DS3505
ZGGG,2001-01-25 02:00,ZGGG 250200Z AUTO 36008KT 5SM 16/15 A2985 RMK T01600150 IEM_DS3505
ZGGG,2001-01-25 03:00,ZGGG 250300Z AUTO 34006KT 1 1/4SM 15/14 A2985 RMK SLP115 T01540145 52018 IEM_DS3505
ZGGG,2001-01-25 04:00,ZGGG 250400Z AUTO 36008KT 2 1/2SM RMK IEM_DS3505
ZGGG,2001-01-25 05:00,ZGGG 250500Z AUTO 01012KT 3SM 13/13 A2980 RMK T01300130 IEM_DS3505
ZGGG,2001-01-25 06:00,ZGGG 250600Z AUTO 34008KT 5SM 13/13 A2980 RMK 60008 SLP087 T01320127 57028 IEM_DS3505
ZGGG,2001-01-25 07:00,ZGGG 250700Z AUTO 36012KT 2SM 12/12 A2977 RMK T01200120 IEM_DS3505
ZGGG,2001-01-25 08:00,ZGGG 250800Z AUTO 36012KT 4SM 12/11 A2977 RMK T01200110 IEM_DS3505
ZGGG,2001-01-25 09:00,ZGGG 250900Z AUTO 02008KT 2 1/2SM 11/11 A2980 RMK SLP096 T01130107 52008 IEM_DS3505
ZGGG,2001-01-25 10:00,ZGGG 251000Z AUTO 36012KT 2 1/2SM 11/09 A2983 RMK T01100090 IEM_DS3505
ZGGG,2001-01-25 11:00,ZGGG 251100Z AUTO 36012KT 7SM 10/09 A2983 RMK T01000090 IEM_DS3505
ZGGG,2001-01-25 12:00,ZGGG 251200Z AUTO 34006KT 3SM 10/10 A2985 RMK 60004 SLP116 T01020096 52020 IEM_DS3505
ZGGG,2001-01-25 13:00,ZGGG 251300Z AUTO 36012KT 7SM 11/08 A2988 RMK T01100080 IEM_DS3505
ZGGG,2001-01-25 14:00,ZGGG 251400Z AUTO 36008KT 7SM 10/08 A2991 RMK T01000080 IEM_DS3505
ZGGG,2001-01-25 15:00,ZGGG 251500Z AUTO 34008KT 7SM 09/08 A2994 RMK SLP145 T00920084 52028 IEM_DS3505
ZGGG,2001-01-25 16:00,ZGGG 251600Z AUTO 36012KT 7SM 09/07 A2997 RMK T00900070 IEM_DS3505
ZGGG,2001-01-25 17:00,ZGGG 251700Z AUTO 36012KT 7SM 09/07 A2997 RMK T00900070 IEM_DS3505
ZGGG,2001-01-25 18:00,ZGGG 251800Z AUTO 29004KT 7SM 08/08 A2997 RMK 60008 SLP160 T00830075 52015 IEM_DS3505
ZGGG,2001-01-25 19:00,ZGGG 251900Z AUTO 36008KT 7SM 08/07 A2997 RMK T00800070 IEM_DS3505
ZGGG,2001-01-25 20:00,ZGGG 252000Z AUTO 36010KT 7SM 08/06 A2994 RMK T00800060 IEM_DS3505
ZGGG,2001-01-25 21:00,ZGGG 252100Z AUTO 29008KT 8SM 09/07 A2997 RMK 70065 SLP150 T00880069 57010 IEM_DS3505
ZGGG,2001-01-25 22:00,ZGGG 252200Z AUTO 36008KT 7SM 08/05 A2997 RMK T00800050 IEM_DS3505
ZGGG,2001-01-25 23:00,ZGGG 252300Z AUTO 36010KT 4SM 07/06 A3003 RMK T00700060 IEM_DS3505
ZGGG,2001-01-26 00:00,ZGGG 260000Z AUTO 02006G19KT 8SM 08/06 A3003 RMK 60031 SLP177 T00750062 52027 IEM_DS3505
ZGGG,2001-01-26 01:00,ZGGG 260100Z AUTO 35008KT 3SM 07/06 A3009 RMK T00700060 IEM_DS3505
ZGGG,2001-01-26 02:00,ZGGG 260200Z AUTO 34006KT 4SM 07/06 A3012 RMK T00700060 IEM_DS3505
ZGGG,2001-01-26 03:00,ZGGG 260300Z AUTO 34008KT 14SM 08/07 A3009 RMK SLP193 T00830070 52016 IEM_DS3505
ZGGG,2001-01-26 04:00,ZGGG 260400Z AUTO 36012KT 7SM 10/06 A3006 RMK T01000060 IEM_DS3505
ZGGG,2001-01-26 05:00,ZGGG 260500Z AUTO 01012KT 7SM 12/06 A3003 RMK T01200060 IEM_DS3505
ZGGG,2001-01-26 06:00,ZGGG 260600Z AUTO 02010KT 17SM 13/05 A3000 RMK 60028 SLP166 T01280050 57027 IEM_DS3505
ZGGG,2001-01-26 07:00,ZGGG 260700Z AUTO 36012KT 6SM 13/06 A3000 RMK T01300060 IEM_DS3505
ZGGG,2001-01-26 08:00,ZGGG 260800Z AUTO 01014KT 6SM 13/05 A3000 RMK T01300050 IEM_DS3505
ZGGG,2001-01-26 09:00,ZGGG 260900Z AUTO 34006KT 17SM 12/05 A3000 RMK SLP167 T01240048 52001 IEM_DS3505
ZGGG,2001-01-26 10:00,ZGGG 261000Z AUTO 01010KT 6SM 12/04 A3003 RMK T01200040 IEM_DS3505
ZGGG,2001-01-26 11:00,ZGGG 261100Z AUTO 36008KT 6SM 12/04 A3003 RMK T01200040 IEM_DS3505
ZGGG,2001-01-26 12:00,ZGGG 261200Z AUTO 02006KT 11SM 11/04 A3006 RMK SLP181 T01060038 52014 IEM_DS3505
ZGGG,2001-01-26 13:00,ZGGG 261300Z AUTO 04010KT 6SM 11/04 A3006 RMK T01100040 IEM_DS3505
ZGGG,2001-01-26 14:00,ZGGG 261400Z AUTO 02008KT 6SM 11/03 A3009 RMK T01100030 IEM_DS3505
ZGGG,2001-01-26 15:00,ZGGG 261500Z AUTO 02004KT 12SM 10/03 A3009 RMK SLP199 T00960031 52018 IEM_DS3505
ZGGG,2001-01-26 16:00,ZGGG 261600Z AUTO 02006KT 6SM 10/02 A3009 RMK T01000020 IEM_DS3505
ZGGG,2001-01-26 17:00,ZGGG 261700Z AUTO 01006KT 6SM 10/02 A3012 RMK T01000020 IEM_DS3505
ZGGG,2001-01-26 18:00,ZGGG 261800Z AUTO 02006KT 12SM 09/01 A3006 RMK SLP192 T00880012 57007 IEM_DS3505
ZGGG,2001-01-26 19:00,ZGGG 261900Z AUTO 02010KT 6SM 09/01 A3009 RMK T00900010 IEM_DS3505
ZGGG,2001-01-26 20:00,ZGGG 262000Z AUTO 04012KT 7SM 08/01 A3006 RMK T00800010 IEM_DS3505
ZGGG,2001-01-26 21:00,ZGGG 262100Z AUTO 02002KT 11SM 08/01 A3006 RMK 70056 SLP191 T00840013 57001 IEM_DS3505
ZGGG,2001-01-26 22:00,ZGGG 262200Z AUTO 02008KT 7SM 08/01 A3009 RMK T00800010 IEM_DS3505
ZGGG,2001-01-26 23:00,ZGGG 262300Z AUTO 02008KT 7SM 09/02 A3012 RMK T00900020 IEM_DS3505
ZGGG,2001-01-27 00:00,ZGGG 270000Z AUTO 02004KT 14SM 08/02 A3015 RMK 70027 SLP212 T00840015 52021 IEM_DS3505
ZGGG,2001-01-27 01:00,ZGGG 270100Z AUTO 02008KT 7SM 09/02 A3015 RMK T00900020 IEM_DS3505
ZGGG,2001-01-27 02:00,ZGGG 270200Z AUTO 03010KT 7SM 09/02 A3015 RMK T00900020 IEM_DS3505
ZGGG,2001-01-27 03:00,ZGGG 270300Z AUTO 00000KT 13SM 10/02 A3015 RMK SLP213 T01000022 52001 IEM_DS3505
ZGGG,2001-01-27 04:00,ZGGG 270400Z AUTO 02008KT 7SM 11/02 A3012 RMK T01100020 IEM_DS3505
ZGGG,2001-01-27 05:00,ZGGG 270500Z AUTO 01006KT 7SM 10/02 A3009 RMK T01000020 IEM_DS3505
ZGGG,2001-01-27 06:00,ZGGG 270600Z AUTO 34006KT 13SM 10/03 A3006 RMK SLP190 T01020030 57023 IEM_DS3505
ZGGG,2001-01-27 07:00,ZGGG 270700Z AUTO 01008KT 7SM 10/02 A3006 RMK T01000020 IEM_DS3505
ZGGG,2001-01-27 08:00,ZGGG 270800Z AUTO 36008KT 7SM 10/02 A3006 RMK T01000020 IEM_DS3505
ZGGG,2001-01-27 09:00,ZGGG 270900Z AUTO 02008KT 11SM 09/03 A3006 RMK SLP185 T00920031 57005 IEM_DS3505
ZGGG,2001-01-27 10:00,ZGGG 271000Z AUTO 36006KT 7SM 09/05 A3009 RMK T00900050 IEM_DS3505
ZGGG,2001-01-27 11:00,ZGGG 271100Z AUTO 36008KT 7SM 08/06 A3009 RMK T00800060 IEM_DS3505
ZGGG,2001-01-27 12:00,ZGGG 271200Z AUTO 02004KT 9SM 08/06 A3012 RMK 60004 SLP209 T00780063 52023 IEM_DS3505
ZGGG,2001-01-27 13:00,ZGGG 271300Z AUTO 01008KT 7SM 08/06 A3015 RMK T00800060 IEM_DS3505
ZGGG,2001-01-27 14:00,ZGGG 271400Z AUTO 01008KT 7SM 08/06 A3015 RMK T00800060 IEM_DS3505
ZGGG,2001-01-27 15:00,ZGGG 271500Z AUTO 02008KT 9SM 08/06 A3018 RMK SLP225 T00770059 52016 IEM_DS3505
ZGGG,2001-01-27 16:00,ZGGG 271600Z AUTO 01006KT 7SM 08/07 A3018 RMK T00800070 IEM_DS3505
ZGGG,2001-01-27 17:00,ZGGG 271700Z AUTO 36008KT 7SM 08/06 A3018 RMK T00800060 IEM_DS3505
ZGGG,2001-01-27 18:00,ZGGG 271800Z AUTO 34006KT 8SM 07/06 A3018 RMK 60012 SLP227 T00730062 52002 IEM_DS3505
ZGGG,2001-01-27 19:00,ZGGG 271900Z AUTO 02006KT 7SM 08/06 A3018 RMK T00800060 IEM_DS3505
ZGGG,2001-01-27 20:00,ZGGG 272000Z AUTO 36006KT 7SM 08/06 A3015 RMK T00800060 IEM_DS3505
ZGGG,2001-01-27 21:00,ZGGG 272100Z AUTO 02002KT 8SM 08/06 A3018 RMK 70015 SLP223 T00770057 57004 IEM_DS3505
ZGGG,2001-01-27 22:00,ZGGG 272200Z AUTO 01006KT 6SM 08/06 A3018 RMK T00800060 IEM_DS3505
ZGGG,2001-01-27 23:00,ZGGG 272300Z AUTO 01006KT 6SM 08/06 A3018 RMK T00800060 IEM_DS3505
ZGGG,2001-01-28 00:00,ZGGG 280000Z AUTO 02006KT 11SM 08/05 A3024 RMK 60003 SLP241 T00770050 52018 IEM_DS3505
ZGGG,2001-01-28 01:00,ZGGG 280100Z AUTO 36008KT 6SM 08/04 A3024 RMK T00800040 IEM_DS3505
ZGGG,2001-01-28 02:00,ZGGG 280200Z AUTO 36010KT 6SM 09/04 A3027 RMK T00900040 IEM_DS3505
ZGGG,2001-01-28 03:00,ZGGG 280300Z AUTO 07004KT 12SM 10/04 A3024 RMK SLP245 T01020035 52004 IEM_DS3505
ZGGG,2001-01-28 04:00,ZGGG 280400Z AUTO 01010KT 6SM 11/03 A3021 RMK T01100030 IEM_DS3505
ZGGG,2001-01-28 05:00,ZGGG 280500Z AUTO 03010KT 6SM 13/03 A3018 RMK T01300030 IEM_DS3505
ZGGG,2001-01-28 06:00,ZGGG 280600Z AUTO 02004KT 12SM 13/04 A3015 RMK SLP214 T01330041 57030 IEM_DS3505
ZGGG,2001-01-28 07:00,ZGGG 280700Z AUTO 04010KT 6SM 13/03 A3012 RMK T01300030 IEM_DS3505
ZGGG,2001-01-28 08:00,ZGGG 280800Z AUTO 03010KT 6SM 13/03 A3012 RMK T01300030 IEM_DS3505
ZGGG,2001-01-28 09:00,ZGGG 280900Z AUTO 02002KT 11SM 13/04 A3015 RMK SLP213 T01290038 57001 IEM_DS3505
ZGGG,2001-01-28 10:00,ZGGG 281000Z AUTO 36004KT 6SM 13/04 RMK T01300040 IEM_DS3505
ZGGG,2001-01-28 11:00,ZGGG 281100Z AUTO 36002KT 6SM 12/05 A3018 RMK T01200050 IEM_DS3505
ZGGG,2001-01-28 12:00,ZGGG 281200Z AUTO 00000KT 11SM 12/06 A3018 RMK SLP227 T01200065 52014 IEM_DS3505
ZGGG,2001-01-28 13:00,ZGGG 281300Z AUTO 36006KT 6SM 12/05 A3021 RMK T01200050 IEM_DS3505
ZGGG,2001-01-28 14:00,ZGGG 281400Z AUTO 01006KT 6SM 11/04 A3021 RMK T01100040 IEM_DS3505
ZGGG,2001-01-28 15:00,ZGGG 281500Z AUTO 02004KT 11SM 11/04 A3024 RMK SLP240 T01120037 52013 IEM_DS3505
ZGGG,2001-01-28 16:00,ZGGG 281600Z AUTO 02008KT 7SM 11/03 A3024 RMK T01100030 IEM_DS3505
ZGGG,2001-01-28 17:00,ZGGG 281700Z AUTO 2SM RMK IEM_DS3505
ZGGG,2001-01-28 18:00,ZGGG 281800Z AUTO 02002KT 10SM 11/02 A3021 RMK SLP238 T01070022 57002 IEM_DS3505
ZGGG,2001-01-28 19:00,ZGGG 281900Z AUTO 01006KT 7SM 11/02 A3021 RMK T01100020 IEM_DS3505
ZGGG,2001-01-28 20:00,ZGGG 282000Z AUTO 36004KT 7SM 11/02 A3021 RMK T01100020 IEM_DS3505
ZGGG,2001-01-28 21:00,ZGGG 282100Z AUTO 36002KT 8SM 10/03 A3021 RMK 70003 SLP234 T01020030 57004 IEM_DS3505
ZGGG,2001-01-28 22:00,ZGGG 282200Z AUTO 36006KT 7SM 10/03 A3021 RMK T01000030 IEM_DS3505
ZGGG,2001-01-28 23:00,ZGGG 282300Z AUTO 36006KT 7SM 10/02 A3024 RMK T01000020 IEM_DS3505
ZGGG,2001-01-29 00:00,ZGGG 290000Z AUTO 34006KT 9SM 10/03 A3027 RMK SLP251 T00980030 52017 IEM_DS3505
ZGGG,2001-01-29 01:00,ZGGG 290100Z AUTO 36008KT 7SM 10/02 A3027 RMK T01000020 IEM_DS3505
ZGGG,2001-01-29 02:00,ZGGG 290200Z AUTO 01010KT 6SM 11/02 A3030 RMK T01100020 IEM_DS3505
ZGGG,2001-01-29 03:00,ZGGG 290300Z AUTO 34004KT 11SM 12/02 A3027 RMK SLP256 T01170021 52005 IEM_DS3505
ZGGG,2001-01-29 04:00,ZGGG 290400Z AUTO 35008KT 7SM 12/02 A3024 RMK T01200020 IEM_DS3505
ZGGG,2001-01-29 05:00,ZGGG 290500Z AUTO 36006KT 7SM 12/02 A3021 RMK T01200020 IEM_DS3505
ZGGG,2001-01-29 06:00,ZGGG 290600Z AUTO 29004KT 11SM 13/03 A3018 RMK SLP221 T01310026 57035 IEM_DS3505
ZGGG,2001-01-29 07:00,ZGGG 290700Z AUTO 02006KT 6SM 14/03 A3015 RMK T01400030 IEM_DS3505
ZGGG,2001-01-29 08:00,ZGGG 290800Z AUTO 03004KT 6SM 14/03 A3012 RMK T01400030 IEM_DS3505
ZGGG,2001-01-29 09:00,ZGGG 290900Z AUTO 32004KT 11SM 14/05 A3012 RMK SLP208 T01370046 57013 IEM_DS3505
ZGGG,2001-01-29 12:00,ZGGG 291200Z AUTO 34002KT 12SM 12/06 A3015 RMK SLP212 T01230057 52004 IEM_DS3505
ZGGG,2001-01-29 13:00,ZGGG 291300Z AUTO 06004KT 6SM 12/04 A3015 RMK T01200040 IEM_DS3505
ZGGG,2001-01-29 14:00,ZGGG 291400Z AUTO 05006KT 6SM 12/04 A3015 RMK T01200040 IEM_DS3505
ZGGG,2001-01-29 15:00,ZGGG 291500Z AUTO 00000KT 10SM 11/07 A3015 RMK SLP218 T01110067 52006 IEM_DS3505
ZGGG,2001-01-29 16:00,ZGGG 291600Z AUTO 00000KT 6SM 12/06 A3015 RMK T01200060 IEM_DS3505
ZGGG,2001-01-29 17:00,ZGGG 291700Z AUTO 04004KT 7SM 12/06 A3015 RMK T01200060 IEM_DS3505
ZGGG,2001-01-29 18:00,ZGGG 291800Z AUTO 00000KT 10SM 12/08 A3015 RMK SLP220 T01190080 52002 IEM_DS3505
ZGGG,2001-01-29 19:00,ZGGG 291900Z AUTO 06006KT 6SM 12/07 A3012 RMK T01200070 IEM_DS3505
ZGGG,2001-01-29 20:00,ZGGG 292000Z AUTO 01004KT 7SM 12/07 A3015 RMK T01200070 IEM_DS3505
ZGGG,2001-01-29 21:00,ZGGG 292100Z AUTO 00000KT 10SM 12/08 A3012 RMK 70003 SLP212 T01180077 57008 IEM_DS3505
ZGGG,2001-01-29 22:00,ZGGG 292200Z AUTO 00000KT 7SM 12/07 A3015 RMK T01200070 IEM_DS3505
ZGGG,2001-01-29 23:00,ZGGG 292300Z AUTO 03002KT 7SM 12/07 A3015 RMK T01200070 IEM_DS3505
ZGGG,2001-01-30 00:00,ZGGG 300000Z AUTO 00000KT 9SM 12/07 A3018 RMK 60003 SLP222 T01200072 52010 IEM_DS3505
ZGGG,2001-01-30 01:00,ZGGG 300100Z AUTO 03006KT 13/07 A3018 RMK T01300070 IEM_DS3505
ZGGG,2001-01-30 02:00,ZGGG 300200Z AUTO 02004KT 9SM 13/07 A3018 RMK T01300070 IEM_DS3505
ZGGG,2001-01-30 03:00,ZGGG 300300Z AUTO 34002KT 9SM 14/07 A3015 RMK SLP219 T01390074 57003 IEM_DS3505
ZGGG,2001-01-30 04:00,ZGGG 300400Z AUTO 02006KT 14/07 A3012 RMK T01400070 IEM_DS3505
ZGGG,2001-01-30 05:00,ZGGG 300500Z AUTO 01006KT 16/08 A3009 RMK T01600080 IEM_DS3505
ZGGG,2001-01-30 06:00,ZGGG 300600Z AUTO 29004KT 11SM 16/08 A3006 RMK SLP180 T01630075 57038 IEM_DS3505
ZGGG,2001-01-30 07:00,ZGGG 300700Z AUTO 36006KT 7SM 16/08 A3003 RMK T01600080 IEM_DS3505
ZGGG,2001-01-30 08:00,ZGGG 300800Z AUTO 35006KT 7SM 16/07 A3000 RMK T01600070 IEM_DS3505
ZGGG,2001-01-30 09:00,ZGGG 300900Z AUTO 34004KT 9SM 16/09 A3000 RMK SLP161 T01550089 57019 IEM_DS3505
ZGGG,2001-01-30 10:00,ZGGG 301000Z AUTO 01006KT 7SM 15/08 A3000 RMK T01500080 IEM_DS3505
ZGGG,2001-01-30 11:00,ZGGG 301100Z AUTO 35006KT 7SM 14/08 A3000 RMK T01400080 IEM_DS3505
ZGGG,2001-01-30 12:00,ZGGG 301200Z AUTO 02002KT 9SM 14/09 A3000 RMK SLP169 T01420093 52007 IEM_DS3505
ZGGG,2001-01-30 13:00,ZGGG 301300Z AUTO 32006KT 7SM 14/09 A3003 RMK T01400090 IEM_DS3505
ZGGG,2001-01-30 14:00,ZGGG 301400Z AUTO 35004KT 7SM 14/09 A3003 RMK T01400090 IEM_DS3505
ZGGG,2001-01-30 15:00,ZGGG 301500Z AUTO 32002KT 9SM 14/10 A3003 RMK SLP176 T01370098 52008 IEM_DS3505
ZGGG,2001-01-30 16:00,ZGGG 301600Z AUTO 35004KT 4SM 13/10 A3003 RMK T01300100 IEM_DS3505
ZGGG,2001-01-30 17:00,ZGGG 301700Z AUTO 36004KT 2SM 12/11 A3003 RMK T01200110 IEM_DS3505
ZGGG,2001-01-30 18:00,ZGGG 301800Z AUTO 34002KT 8SM 12/11 A3003 RMK 60004 SLP171 T01220113 57005 IEM_DS3505
ZGGG,2001-01-30 19:00,ZGGG 301900Z AUTO 05006KT 3SM 12/11 A3000 RMK T01200110 IEM_DS3505
ZGGG,2001-01-30 20:00,ZGGG 302000Z AUTO 03004KT 3SM 12/11 A3000 RMK T01200110 IEM_DS3505
ZGGG,2001-01-30 21:00,ZGGG 302100Z AUTO 00000KT 9SM 12/12 A3000 RMK 70005 SLP167 T01240115 57004 IEM_DS3505
ZGGG,2001-01-30 22:00,ZGGG 302200Z AUTO 04006KT 4SM 12/11 A3003 RMK T01200110 IEM_DS3505
ZGGG,2001-01-30 23:00,ZGGG 302300Z AUTO 01004KT 4SM 12/11 A3003 RMK T01200110 IEM_DS3505
ZGGG,2001-01-31 00:00,ZGGG 310000Z AUTO 00000KT 7SM 13/12 A3003 RMK 70005 SLP181 T01260115 52013 IEM_DS3505
ZGGG,2001-01-31 01:00,ZGGG 310100Z AUTO 35002KT 2 1/2SM 13/12 A3006 RMK T01300120 IEM_DS3505
ZGGG,2001-01-31 02:00,ZGGG 310200Z AUTO 00000KT 2SM 14/12 A3006 RMK T01400120 IEM_DS3505
ZGGG,2001-01-31 03:00,ZGGG 310300Z AUTO 11002KT 7SM 15/12 A3006 RMK SLP181 T01520123 52001 IEM_DS3505
ZGGG,2001-01-31 04:00,ZGGG 310400Z AUTO 33004KT 2 1/2SM 15/13 A3003 RMK T01500130 IEM_DS3505
ZGGG,2001-01-31 05:00,ZGGG 310500Z AUTO 35004KT 2 1/2SM 15/12 A3000 RMK T01500120 IEM_DS3505
ZGGG,2001-01-31 06:00,ZGGG 310600Z AUTO 34002KT 6SM 17/13 A2994 RMK 60000 SLP150 T01700131 57031 IEM_DS3505
ZGGG,2001-01-31 07:00,ZGGG 310700Z AUTO 34004KT 3SM 16/13 A2994 RMK T01600130 IEM_DS3505
ZGGG,2001-01-31 08:00,ZGGG 310800Z AUTO 36004KT 3SM 16/13 A2991 RMK T01600130 IEM_DS3505
ZGGG,2001-01-31 09:00,ZGGG 310900Z AUTO 34002KT 6SM 16/14 A2991 RMK SLP141 T01650135 57009 IEM_DS3505
ZGGG,2001-01-31 10:00,ZGGG 311000Z AUTO 00000KT 2 1/2SM 16/13 A2994 RMK T01600130 IEM_DS3505
ZGGG,2001-01-31 11:00,ZGGG 311100Z AUTO 36004KT 4SM 16/13 A2994 RMK T01600130 IEM_DS3505
ZGGG,2001-01-31 12:00,ZGGG 311200Z AUTO 00000KT 7SM 15/14 A2994 RMK 60000 SLP146 T01540138 52005 IEM_DS3505
ZGGG,2001-01-31 13:00,ZGGG 311300Z AUTO 36004KT 3SM 16/13 A2997 RMK T01600130 IEM_DS3505
ZGGG,2001-01-31 14:00,ZGGG 311400Z AUTO 36006KT 3SM 16/13 A2997 RMK T01600130 IEM_DS3505
ZGGG,2001-01-31 15:00,ZGGG 311500Z AUTO 34004KT 8SM 15/13 A2997 RMK SLP156 T01510129 52010 IEM_DS3505
ZGGG,2001-01-31 16:00,ZGGG 311600Z AUTO 36006KT 4SM 15/13 A2997 RMK T01500130 IEM_DS3505
ZGGG,2001-01-31 17:00,ZGGG 311700Z AUTO 01004KT 4SM 15/13 A2997 RMK T01500130 IEM_DS3505
ZGGG,2001-01-31 18:00,ZGGG 311800Z AUTO 34004KT 8SM 15/13 A2997 RMK SLP151 T01490127 57005 IEM_DS3505
ZGGG,2001-01-31 19:00,ZGGG 311900Z AUTO 36008KT 4SM 14/13 A2997 RMK T01400130 IEM_DS3505
ZGGG,2001-01-31 20:00,ZGGG 312000Z AUTO 01008KT 4SM 13/12 A2994 RMK T01300120 IEM_DS3505
ZGGG,2001-01-31 21:00,ZGGG 312100Z AUTO 34004KT 7SM 14/12 A2997 RMK 70001 SLP150 T01390124 57001 IEM_DS3505
ZGGG,2001-01-31 22:00,ZGGG 312200Z AUTO 36006KT 5SM 14/12 A2997 RMK T01400120 IEM_DS3505
ZGGG,2001-01-31 23:00,ZGGG 312300Z AUTO 01006KT 4SM 13/12 A3000 RMK T01300120 IEM_DS3505
ZGGG,2001-02-01 00:00,ZGGG 010000Z AUTO 34004KT 9SM 13/12 A3000 RMK 60000 SLP163 T01290120 52013 IEM_DS3505
ZGGG,2001-02-01 01:00,ZGGG 010100Z AUTO 01008KT 7SM 13/12 A3003 RMK T01300120 IEM_DS3505
ZGGG,2001-02-01 02:00,ZGGG 010200Z AUTO 36008KT 7SM 13/11 A3003 RMK T01300110 IEM_DS3505
ZGGG,2001-02-01 03:00,ZGGG 010300Z AUTO 02006KT 10SM 12/11 A3003 RMK SLP177 T01230106 52014 IEM_DS3505
ZGGG,2001-02-01 04:00,ZGGG 010400Z AUTO 12/11 A3003 RMK T01200110 IEM_DS3505
ZGGG,2001-02-01 05:00,ZGGG 010500Z AUTO 02010KT 2SM 12/11 A3000 RMK T01200110 IEM_DS3505
ZGGG,2001-02-01 06:00,ZGGG 010600Z AUTO 34004KT 11SM 11/10 A2997 RMK 60008 SLP153 T01140102 57024 IEM_DS3505
ZGGG,2001-02-01 07:00,ZGGG 010700Z AUTO 01012KT 7SM 12/10 A2994 RMK T01200100 IEM_DS3505
ZGGG,2001-02-01 08:00,ZGGG 010800Z AUTO 02010KT 7SM 12/09 A2994 RMK T01200090 IEM_DS3505
ZGGG,2001-02-01 09:00,ZGGG 010900Z AUTO 02004KT 14SM 12/09 A2997 RMK SLP158 T01160094 52004 IEM_DS3505
ZGGG,2001-02-01 10:00,ZGGG 011000Z AUTO 04010KT 7SM 11/09 A3000 RMK T01100090 IEM_DS3505
ZGGG,2001-02-01 11:00,ZGGG 011100Z AUTO 01008KT 7SM 11/09 A3000 RMK T01100090 IEM_DS3505
ZGGG,2001-02-01 12:00,ZGGG 011200Z AUTO 02006KT 10SM 10/09 A3003 RMK 60002 SLP175 T01010087 52017 IEM_DS3505
ZGGG,2001-02-01 13:00,ZGGG 011300Z AUTO 02010KT 7SM 10/08 A3006 RMK T01000080 IEM_DS3505
ZGGG,2001-02-01 14:00,ZGGG 011400Z AUTO 03012KT 7SM 09/08 A3006 RMK T00900080 IEM_DS3505
ZGGG,2001-02-01 15:00,ZGGG 011500Z AUTO 34004KT 11SM 10/09 A3006 RMK SLP190 T00960086 52015 IEM_DS3505
ZGGG,2001-02-01 16:00,ZGGG 011600Z AUTO 01008KT 3SM 09/08 A3006 RMK T00900080 IEM_DS3505
ZGGG,2001-02-01 17:00,ZGGG 011700Z AUTO 02010KT 3SM 09/08 A3006 RMK T00900080 IEM_DS3505
ZGGG,2001-02-01 18:00,ZGGG 011800Z AUTO 34004KT 6SM 09/08 A3006 RMK 60008 SLP186 T00860080 57004 IEM_DS3505
ZGGG,2001-02-01 19:00,ZGGG 011900Z AUTO 01008KT 7SM 09/08 A3006 RMK T00900080 IEM_DS3505
ZGGG,2001-02-01 20:00,ZGGG 012000Z AUTO 02010KT 7SM 08/07 A3003 RMK T00800070 IEM_DS3505
ZGGG,2001-02-01 21:00,ZGGG 012100Z AUTO 34004KT 7SM 08/08 A3006 RMK 70020 SLP180 T00810075 57006 IEM_DS3505
ZGGG,2001-02-01 22:00,ZGGG 012200Z AUTO 03008KT 5SM 08/07 A3009 RMK T00800070 IEM_DS3505
ZGGG,2001-02-01 23:00,ZGGG 012300Z AUTO 01008KT 7SM 08/06 A3009 RMK T00800060 IEM_DS3505
ZGGG,2001-02-02 00:00,ZGGG 020000Z AUTO 02004KT 10SM 08/07 A3009 RMK 60008 SLP199 T00780067 52019 IEM_DS3505
ZGGG,2001-02-02 01:00,ZGGG 020100Z AUTO 04008KT 3SM 08/07 A3012 RMK T00800070 IEM_DS3505
ZGGG,2001-02-02 02:00,ZGGG 020200Z AUTO 02008KT 4SM 08/07 A3012 RMK T00800070 IEM_DS3505
ZGGG,2001-02-02 03:00,ZGGG 020300Z AUTO 34006KT 10SM 08/07 A3009 RMK SLP201 T00790070 52001 IEM_DS3505
ZGGG,2001-02-02 04:00,ZGGG 020400Z AUTO 36006KT 2 1/2SM 08/07 A3009 RMK T00800070 IEM_DS3505
ZGGG,2001-02-02 05:00,ZGGG 020500Z AUTO 01008KT 2 1/2SM 08/07 A3003 RMK T00800070 IEM_DS3505
ZGGG,2001-02-02 06:00,ZGGG 020600Z AUTO 34006KT 8SM 08/07 A3000 RMK 60002 SLP169 T00760067 57031 IEM_DS3505
ZGGG,2001-02-02 07:00,ZGGG 020700Z AUTO 01006KT 2SM 08/07 A3000 RMK T00800070 IEM_DS3505
ZGGG,2001-02-02 08:00,ZGGG 020800Z AUTO 02010KT 2SM 08/07 A2997 RMK T00800070 IEM_DS3505
ZGGG,2001-02-02 09:00,ZGGG 020900Z AUTO 34004KT 6SM 08/07 A2997 RMK SLP161 T00800074 57008 IEM_DS3505
ZGGG,2001-02-02 10:00,ZGGG 021000Z AUTO 02008KT 1 1/2SM 08/07 A3000 RMK T00800070 IEM_DS3505
ZGGG,2001-02-02 11:00,ZGGG 021100Z AUTO 02006KT 4SM 08/07 A3000 RMK T00800070 IEM_DS3505
ZGGG,2001-02-02 12:00,ZGGG 021200Z AUTO 02004KT 6SM 08/08 A3003 RMK 60008 SLP173 T00790075 52011 IEM_DS3505
ZGGG,2001-02-02 13:00,ZGGG 021300Z AUTO 01004KT 4SM 08/07 A3003 RMK T00800070 IEM_DS3505
ZGGG,2001-02-02 14:00,ZGGG 021400Z AUTO 01006KT 3SM 08/08 A3003 RMK T00800080 IEM_DS3505
ZGGG,2001-02-02 15:00,ZGGG 021500Z AUTO 29002KT 7SM 08/08 A3003 RMK SLP178 T00800076 52005 IEM_DS3505
ZGGG,2001-02-02 16:00,ZGGG 021600Z AUTO 02006KT 7SM 08/08 A3003 RMK T00800080 IEM_DS3505
ZGGG,2001-02-02 17:00,ZGGG 021700Z AUTO 36004KT 7SM 08/08 A3000 RMK T00800080 IEM_DS3505
ZGGG,2001-02-02 18:00,ZGGG 021800Z AUTO 32002KT 7SM 08/08 A3000 RMK 60003 SLP163 T00850081 57014 IEM_DS3505
ZGGG,2001-02-02 19:00,ZGGG 021900Z AUTO 01006KT 4SM 08/08 A2997 RMK T00800080 IEM_DS3505
ZGGG,2001-02-02 20:00,ZGGG 022000Z AUTO 02006KT 7SM 08/08 A2997 RMK T00800080 IEM_DS3505
ZGGG,2001-02-02 21:00,ZGGG 022100Z AUTO 32002KT 7SM 09/08 A2997 RMK 70021 SLP156 T00860082 57007 IEM_DS3505
ZGGG,2001-02-02 22:00,ZGGG 022200Z AUTO 01006KT 4SM 09/08 A3000 RMK T00900080 IEM_DS3505
ZGGG,2001-02-02 23:00,ZGGG 022300Z AUTO 02006KT 3SM 09/08 A3000 RMK T00900080 IEM_DS3505
ZGGG,2001-02-03 00:00,ZGGG 030000Z AUTO 29002KT 5SM 09/09 A3000 RMK 60002 SLP171 T00880086 52015 IEM_DS3505
ZGGG,2001-02-03 01:00,ZGGG 030100Z AUTO 02008KT 2SM 09/08 A3003 RMK T00900080 IEM_DS3505
ZGGG,2001-02-03 02:00,ZGGG 030200Z AUTO 02006KT 1 1/2SM 09/08 A3003 RMK T00900080 IEM_DS3505
ZGGG,2001-02-03 03:00,ZGGG 030300Z AUTO 32004KT 2SM 09/09 A3003 RMK SLP176 T00940090 52005 IEM_DS3505
ZGGG,2001-02-03 04:00,ZGGG 030400Z AUTO 01004KT 1SM 09/09 A3003 RMK T00900090 IEM_DS3505
ZGGG,2001-02-03 05:00,ZGGG 030500Z AUTO 01006KT 1SM 09/09 A3000 RMK T00900090 IEM_DS3505
ZGGG,2001-02-03 06:00,ZGGG 030600Z AUTO 02006KT 2SM 10/09 A2997 RMK 60002 SLP153 T00960090 57023 IEM_DS3505
ZGGG,2001-02-03 07:00,ZGGG 030700Z AUTO 36006KT 2 1/2SM 09/09 A2994 RMK T00900090 IEM_DS3505
ZGGG,2001-02-03 08:00,ZGGG 030800Z AUTO 36006KT 1SM 09/09 A2994 RMK T00900090 IEM_DS3505
ZGGG,2001-02-03 09:00,ZGGG 030900Z AUTO 34004KT 1 1/2SM 10/09 A2997 RMK SLP151 T00980092 57002 IEM_DS3505
ZGGG,2001-02-03 10:00,ZGGG 031000Z AUTO 36006KT 1 1/2SM 10/09 A2997 RMK T01000090 IEM_DS3505
ZGGG,2001-02-03 11:00,ZGGG 031100Z AUTO 36006KT 2SM 09/09 A3000 RMK T00900090 IEM_DS3505
ZGGG,2001-02-03 12:00,ZGGG 031200Z AUTO 34004KT 2SM 10/09 A3000 RMK 60002 SLP167 T01000094 52016 IEM_DS3505
ZGGG,2001-02-03 13:00,ZGGG 031300Z AUTO 01006KT 2SM 10/09 A3003 RMK T01000090 IEM_DS3505
ZGGG,2001-02-03 14:00,ZGGG 031400Z AUTO 36006KT 2SM 10/09 A3003 RMK T01000090 IEM_DS3505
ZGGG,2001-02-03 15:00,ZGGG 031500Z AUTO 34004KT 6SM 10/10 A3003 RMK SLP177 T01020096 52010 IEM_DS3505
ZGGG,2001-02-03 16:00,ZGGG 031600Z AUTO 36004KT 2 1/2SM 10/09 A3003 RMK T01000090 IEM_DS3505
ZGGG,2001-02-03 17:00,ZGGG 031700Z AUTO 35004KT 3SM 10/09 A3003 RMK T01000090 IEM_DS3505
ZGGG,2001-02-03 18:00,ZGGG 031800Z AUTO 34004KT 5SM 10/10 A3003 RMK 60001 SLP176 T01040098 57001 IEM_DS3505
ZGGG,2001-02-03 19:00,ZGGG 031900Z AUTO 36006KT 4SM 10/09 A3003 RMK T01000090 IEM_DS3505
ZGGG,2001-02-03 20:00,ZGGG 032000Z AUTO 36006KT 3SM 10/09 A3003 RMK T01000090 IEM_DS3505
ZGGG,2001-02-03 21:00,ZGGG 032100Z AUTO 34004KT 6SM 10/10 A3003 RMK 70006 SLP173 T01040096 57003 IEM_DS3505
ZGGG,2001-02-03 22:00,ZGGG 032200Z AUTO 36006KT 4SM 10/09 A3003 RMK T01000090 IEM_DS3505
ZGGG,2001-02-03 23:00,ZGGG 032300Z AUTO 36006KT 3SM 10/09 A3006 RMK T01000090 IEM_DS3505
ZGGG,2001-02-04 00:00,ZGGG 040000Z AUTO 34002KT 8SM 10/09 A3009 RMK 60003 SLP196 T01040094 52023 IEM_DS3505
ZGGG,2001-02-04 01:00,ZGGG 040100Z AUTO 36004KT 7SM 11/08 A3012 RMK T01100080 IEM_DS3505
ZGGG,2001-02-04 02:00,ZGGG 040200Z AUTO 36006KT 7SM 11/08 A3012 RMK T01100080 IEM_DS3505
ZGGG,2001-02-04 03:00,ZGGG 040300Z AUTO 35004KT 7SM 12/09 A3012 RMK T01200090 IEM_DS3505
ZGGG,2001-02-04 04:00,ZGGG 040400Z AUTO 36004KT 7SM 12/09 A3009 RMK T01200090 IEM_DS3505
ZGGG,2001-02-04 05:00,ZGGG 040500Z AUTO 36006KT 7SM 13/09 A3006 RMK T01300090 IEM_DS3505
ZGGG,2001-02-04 06:00,ZGGG 040600Z AUTO 34004KT 10SM 13/10 A3003 RMK SLP177 T01270096 57030 IEM_DS3505
ZGGG,2001-02-04 07:00,ZGGG 040700Z AUTO 36006KT 7SM 13/09 A3000 RMK T01300090 IEM_DS3505
ZGGG,2001-02-04 08:00,ZGGG 040800Z AUTO 36006KT 7SM 13/09 A3000 RMK T01300090 IEM_DS3505
ZGGG,2001-02-04 09:00,ZGGG 040900Z AUTO 34004KT 9SM 13/10 A3000 RMK SLP167 T01270098 57010 IEM_DS3505
ZGGG,2001-02-04 10:00,ZGGG 041000Z AUTO 36006KT 7SM 12/09 A3000 RMK T01200090 IEM_DS3505
ZGGG,2001-02-04 11:00,ZGGG 041100Z AUTO 36006KT 7SM 12/09 A3000 RMK T01200090 IEM_DS3505
ZGGG,2001-02-04 12:00,ZGGG 041200Z AUTO 34004KT 9SM 12/09 A3003 RMK SLP174 T01200094 52007 IEM_DS3505
ZGGG,2001-02-04 13:00,ZGGG 041300Z AUTO 36006KT 7SM 12/09 A3003 RMK T01200090 IEM_DS3505
ZGGG,2001-02-04 14:00,ZGGG 041400Z AUTO 01004KT 7SM 12/09 A3003 RMK T01200090 IEM_DS3505
ZGGG,2001-02-04 15:00,ZGGG 041500Z AUTO 34002KT 9SM 12/10 A3006 RMK SLP178 T01180098 52004 IEM_DS3505
ZGGG,2001-02-04 16:00,ZGGG 041600Z AUTO 01004KT 7SM 12/09 A3003 RMK T01200090 IEM_DS3505
ZGGG,2001-02-04 17:00,ZGGG 041700Z AUTO 01004KT 7SM 12/09 A3003 RMK T01200090 IEM_DS3505
ZGGG,2001-02-04 18:00,ZGGG 041800Z AUTO 34002KT 7SM 12/10 A3003 RMK SLP176 T01180100 57002 IEM_DS3505
ZGGG,2001-02-04 19:00,ZGGG 041900Z AUTO 36002KT 4SM 11/10 A3003 RMK T01100100 IEM_DS3505
ZGGG,2001-02-04 20:00,ZGGG 042000Z AUTO 36002KT 2SM 11/11 A3000 RMK T01100110 IEM_DS3505
ZGGG,2001-02-04 21:00,ZGGG 042100Z AUTO 34002KT 1SM 11/11 A3000 RMK 70002 SLP167 T01120106 57009 IEM_DS3505
ZGGG,2001-02-04 22:00,ZGGG 042200Z AUTO 01004KT 2SM 11/11 A3000 RMK T01100110 IEM_DS3505
ZGGG,2001-02-04 23:00,ZGGG 042300Z AUTO 01004KT 2 1/2SM 11/11 A3003 RMK T01100110 IEM_DS3505
ZGGG,2001-02-05 00:00,ZGGG 050000Z AUTO 00000KT 2SM 12/11 A3006 RMK 60003 SLP182 T01150109 52015 IEM_DS3505
ZGGG,2001-02-05 01:00,ZGGG 050100Z AUTO 36004KT 1SM 12/11 A3006 RMK T01200110 IEM_DS3505
ZGGG,2001-02-05 02:00,ZGGG 050200Z AUTO 02004KT 1SM 12/11 A3009 RMK T01200110 IEM_DS3505
ZGGG,2001-02-05 03:00,ZGGG 050300Z AUTO 02004KT 1 1/2SM 13/12 A3006 RMK SLP189 T01290122 52007 IEM_DS3505
ZGGG,2001-02-05 04:00,ZGGG 050400Z AUTO 02004KT 1SM 13/12 A3006 RMK T01300120 IEM_DS3505
ZGGG,2001-02-05 05:00,ZGGG 050500Z AUTO 36002KT 1SM 13/12 A3000 RMK T01300120 IEM_DS3505
ZGGG,2001-02-05 06:00,ZGGG 050600Z AUTO 00000KT 2 1/2SM 15/13 A2997 RMK 60003 SLP156 T01510133 57032 IEM_DS3505
ZGGG,2001-02-05 07:00,ZGGG 050700Z AUTO 02004KT 1SM 14/13 A2994 RMK T01400130 IEM_DS3505
ZGGG,2001-02-05 08:00,ZGGG 050800Z AUTO 01004KT 1SM 14/13 A2994 RMK T01400130 IEM_DS3505
ZGGG,2001-02-05 09:00,ZGGG 050900Z AUTO 34004KT 2 1/2SM 15/13 A2991 RMK SLP139 T01540134 57017 IEM_DS3505
ZGGG,2001-02-05 10:00,ZGGG 051000Z AUTO 36004KT 1SM 14/13 A2991 RMK T01400130 IEM_DS3505
ZGGG,2001-02-05 11:00,ZGGG 051100Z AUTO 02004KT 1 1/2SM 14/13 A2994 RMK T01400130 IEM_DS3505
ZGGG,2001-02-05 12:00,ZGGG 051200Z AUTO 00000KT 3SM 15/14 A2994 RMK SLP146 T01470136 52007 IEM_DS3505
ZGGG,2001-02-05 13:00,ZGGG 051300Z AUTO 00000KT 1 1/2SM 14/13 A2994 RMK T01400130 IEM_DS3505
ZGGG,2001-02-05 14:00,ZGGG 051400Z AUTO 00000KT 1 1/4SM 14/13 A2994 RMK T01400130 IEM_DS3505
ZGGG,2001-02-05 15:00,ZGGG 051500Z AUTO 00000KT 4SM 15/14 A2991 RMK SLP143 T01480139 57003 IEM_DS3505
ZGGG,2001-02-05 16:00,ZGGG 051600Z AUTO 36002KT 1 1/4SM 15/14 A2991 RMK T01500140 IEM_DS3505
ZGGG,2001-02-05 17:00,ZGGG 051700Z AUTO 00000KT 1 1/4SM 15/14 A2994 RMK T01500140 IEM_DS3505
ZGGG,2001-02-05 18:00,ZGGG 051800Z AUTO 00000KT 1SM 15/14 A2994 RMK SLP144 T01490144 52001 IEM_DS3505
ZGGG,2001-02-05 19:00,ZGGG 051900Z AUTO 00000KT 1 1/4SM 14/14 A2994 RMK T01400140 IEM_DS3505
ZGGG,2001-02-05 20:00,ZGGG 052000Z AUTO 00000KT 1SM 15/14 A2991 RMK T01500140 IEM_DS3505
ZGGG,2001-02-05 21:00,ZGGG 052100Z AUTO 00000KT 1 1/4SM 15/14 RMK 70000 SLP136 T01520145 57008 IEM_DS3505
ZGGG,2001-02-05 22:00,ZGGG 052200Z AUTO 00000KT 1SM 15/14 A2991 RMK T01500140 IEM_DS3505
ZGGG,2001-02-05 23:00,ZGGG 052300Z AUTO 00000KT 1SM 15/14 A2994 RMK T01500140 IEM_DS3505
ZGGG,2001-02-06 00:00,ZGGG 060000Z AUTO 00000KT 2SM 15/15 A2997 RMK 60003 SLP153 T01540149 52017 IEM_DS3505
ZGGG,2001-02-06 01:00,ZGGG 060100Z AUTO 00000KT 1SM 16/14 A2997 RMK T01600140 IEM_DS3505
ZGGG,2001-02-06 02:00,ZGGG 060200Z AUTO 36002KT 1SM 17/16 A2997 RMK T01700160 IEM_DS3505
ZGGG,2001-02-06 03:00,ZGGG 060300Z AUTO 16006KT 2 1/2SM 19/16 A2997 RMK SLP156 T01860159 52003 IEM_DS3505
ZGGG,2001-02-06 04:00,ZGGG 060400Z AUTO 32004KT 2SM 20/16 A2994 RMK T02000160 IEM_DS3505
ZGGG,2001-02-06 05:00,ZGGG 060500Z AUTO 28004KT 1 1/2SM 22/17 A2991 RMK T02200170 IEM_DS3505
ZGGG,2001-02-06 06:00,ZGGG 060600Z AUTO 16006KT 2SM 23/17 A2988 RMK SLP122 T02310173 57033 IEM_DS3505
ZGGG,2001-02-06 07:00,ZGGG 060700Z AUTO 17006KT 2SM 24/18 A2985 RMK T02400180 IEM_DS3505
ZGGG,2001-02-06 08:00,ZGGG 060800Z AUTO 22004KT 2SM 24/18 A2983 RMK T02400180 IEM_DS3505
ZGGG,2001-02-06 09:00,ZGGG 060900Z AUTO 14002KT 6SM 23/18 A2983 RMK SLP110 T02340185 57012 IEM_DS3505
ZGGG,2001-02-06 10:00,ZGGG 061000Z AUTO 15004KT 3SM 23/19 A2983 RMK T02300190 IEM_DS3505
ZGGG,2001-02-06 11:00,ZGGG 061100Z AUTO 16004KT 4SM 22/18 A2985 RMK T02200180 IEM_DS3505
ZGGG,2001-02-06 12:00,ZGGG 061200Z AUTO 18002KT 6SM 21/19 A2985 RMK SLP120 T02120187 52010 IEM_DS3505
ZGGG,2001-02-06 13:00,ZGGG 061300Z AUTO 19006KT 7SM 21/18 A2988 RMK T02100180 IEM_DS3505
ZGGG,2001-02-06 14:00,ZGGG 061400Z AUTO 21004KT 7SM 20/18 A2991 RMK T02000180 IEM_DS3505
ZGGG,2001-02-06 15:00,ZGGG 061500Z AUTO 16002KT 6SM 20/18 A2991 RMK SLP140 T01970181 52020 IEM_DS3505
ZGGG,2001-02-06 16:00,ZGGG 061600Z AUTO 17006KT 2 1/2SM 19/18 A2991 RMK T01900180 IEM_DS3505
ZGGG,2001-02-06 17:00,ZGGG 061700Z AUTO 20004KT 2 1/2SM 19/18 A2994 RMK T01900180 IEM_DS3505
ZGGG,2001-02-06 18:00,ZGGG 061800Z AUTO 00000KT 2 1/2SM 18/18 A2994 RMK SLP147 T01830176 52007 IEM_DS3505
ZGGG,2001-02-06 19:00,ZGGG 061900Z AUTO 35002KT 2 1/2SM 18/18 A2994 RMK T01800180 IEM_DS3505
ZGGG,2001-02-06 20:00,ZGGG 062000Z AUTO 00000KT 2 1/2SM 18/18 A2994 RMK T01800180 IEM_DS3505
ZGGG,2001-02-06 21:00,ZGGG 062100Z AUTO 34002KT 1 1/4SM 18/17 A2994 RMK SLP147 T01770172 54000 IEM_DS3505
ZGGG,2001-02-06 22:00,ZGGG 062200Z AUTO 02006KT 1 1/2SM 18/17 A2997 RMK T01800170 IEM_DS3505
ZGGG,2001-02-06 23:00,ZGGG 062300Z AUTO 03010KT 4SM 17/14 A3000 RMK T01700140 IEM_DS3505
ZGGG,2001-02-07 00:00,ZGGG 070000Z AUTO 34006KT 3SM 17/15 A3003 RMK SLP167 T01700153 52020 IEM_DS3505
ZGGG,2001-02-07 01:00,ZGGG 070100Z AUTO 36012KT 5SM 16/12 A3003 RMK T01600120 IEM_DS3505
ZGGG,2001-02-07 02:00,ZGGG 070200Z AUTO 36012KT 7SM 17/12 A3006 RMK T01700120 IEM_DS3505
ZGGG,2001-02-07 03:00,ZGGG 070300Z AUTO 34010KT 10SM 19/13 A3006 RMK SLP184 T01890133 52016 IEM_DS3505
ZGGG,2001-02-07 04:00,ZGGG 070400Z AUTO 36012KT 7SM 17/12 A3006 RMK T01700120 IEM_DS3505
ZGGG,2001-02-07 05:00,ZGGG 070500Z AUTO 36012KT 7SM 16/11 A3006 RMK T01600110 IEM_DS3505
ZGGG,2001-02-07 06:00,ZGGG 070600Z AUTO 34010KT 10SM 16/11 A3003 RMK SLP174 T01570106 57010 IEM_DS3505
ZGGG,2001-02-07 07:00,ZGGG 070700Z AUTO 36012KT 7SM 15/09 A3003 RMK T01500090 IEM_DS3505
ZGGG,2001-02-07 08:00,ZGGG 070800Z AUTO 36010KT 7SM 16/10 A3003 RMK T01600100 IEM_DS3505
ZGGG,2001-02-07 09:00,ZGGG 070900Z AUTO 34006KT 9SM 15/09 A3003 RMK SLP173 T01480094 57001 IEM_DS3505
ZGGG,2001-02-07 10:00,ZGGG 071000Z AUTO 36010KT 7SM 13/09 A3006 RMK T01300090 IEM_DS3505
ZGGG,2001-02-07 11:00,ZGGG 071100Z AUTO 36010KT 7SM 13/08 A3006 RMK T01300080 IEM_DS3505
ZGGG,2001-02-07 12:00,ZGGG 071200Z AUTO 02008KT 9SM 13/08 A3009 RMK SLP193 T01320082 52020 IEM_DS3505
ZGGG,2001-02-07 13:00,ZGGG 071300Z AUTO 36010KT 7SM 12/08 A3012 RMK T01200080 IEM_DS3505
ZGGG,2001-02-07 14:00,ZGGG 071400Z AUTO 36008KT 7SM 13/08 A3012 RMK T01300080 IEM_DS3505
ZGGG,2001-02-07 15:00,ZGGG 071500Z AUTO 02006KT 12SM 13/07 A3015 RMK SLP213 T01280070 52020 IEM_DS3505
ZGGG,2001-02-07 16:00,ZGGG 071600Z AUTO 03010KT 7SM 13/07 A3015 RMK T01300070 IEM_DS3505
ZGGG,2001-02-07 17:00,ZGGG 071700Z AUTO 01008KT 7SM 12/06 A3015 RMK T01200060 IEM_DS3505
ZGGG,2001-02-07 18:00,ZGGG 071800Z AUTO 36006KT 14SM 12/06 A3015 RMK SLP216 T01200063 52002 IEM_DS3505
ZGGG,2001-02-07 19:00,ZGGG 071900Z AUTO 01008KT 7SM 12/06 A3015 RMK T01200060 IEM_DS3505
ZGGG,2001-02-07 20:00,ZGGG 072000Z AUTO 01008KT 7SM 12/06 A3015 RMK T01200060 IEM_DS3505
ZGGG,2001-02-07 21:00,ZGGG 072100Z AUTO 02004KT 12SM 11/06 A3015 RMK SLP217 T01120056 52001 IEM_DS3505
ZGGG,2001-02-07 22:00,ZGGG 072200Z AUTO 36008KT 7SM 11/06 A3015 RMK T01100060 IEM_DS3505
ZGGG,2001-02-07 23:00,ZGGG 072300Z AUTO 01008KT 7SM 11/06 A3018 RMK T01100060 IEM_DS3505
ZGGG,2001-02-08 00:00,ZGGG 080000Z AUTO 02006KT 12SM 11/05 A3018 RMK SLP228 T01060051 52011 IEM_DS3505
ZGGG,2001-02-08 01:00,ZGGG 080100Z AUTO 01008KT 6SM 11/06 A3021 RMK T01100060 IEM_DS3505
ZGGG,2001-02-08 02:00,ZGGG 080200Z AUTO 01010KT 6SM 12/05 A3021 RMK T01200050 IEM_DS3505
ZGGG,2001-02-08 03:00,ZGGG 080300Z AUTO 34006KT 12SM 13/06 A3021 RMK SLP229 T01300063 52001 IEM_DS3505
ZGGG,2001-02-08 04:00,ZGGG 080400Z AUTO 36006KT 7SM 13/06 A3021 RMK T01300060 IEM_DS3505
ZGGG,2001-02-08 05:00,ZGGG 080500Z AUTO 02010KT 7SM 13/06 A3015 RMK T01300060 IEM_DS3505
ZGGG,2001-02-08 06:00,ZGGG 080600Z AUTO 02006KT 14SM 13/07 A3012 RMK SLP205 T01330069 57024 IEM_DS3505
ZGGG,2001-02-08 07:00,ZGGG 080700Z AUTO 02008KT 7SM 13/07 A3012 RMK T01300070 IEM_DS3505
ZGGG,2001-02-08 08:00,ZGGG 080800Z AUTO 36008KT 7SM 13/06 A3009 RMK T01300060 IEM_DS3505
ZGGG,2001-02-08 09:00,ZGGG 080900Z AUTO 34004KT 9SM 13/07 A3009 RMK SLP199 T01270066 57006 IEM_DS3505
ZGGG,2001-02-08 10:00,ZGGG 081000Z AUTO 03008KT 7SM 13/07 A3012 RMK T01300070 IEM_DS3505
ZGGG,2001-02-08 11:00,ZGGG 081100Z AUTO 04010KT 7SM 12/07 A3012 RMK T01200070 IEM_DS3505
ZGGG,2001-02-08 12:00,ZGGG 081200Z AUTO 36004KT 9SM 12/08 A3015 RMK 60003 SLP210 T01220075 52011 IEM_DS3505
ZGGG,2001-02-08 13:00,ZGGG 081300Z AUTO 04010KT 7SM 12/07 A3015 RMK T01200070 IEM_DS3505
ZGGG,2001-02-08 14:00,ZGGG 081400Z AUTO 03008KT 7SM 12/07 A3015 RMK T01200070 IEM_DS3505
ZGGG,2001-02-08 15:00,ZGGG 081500Z AUTO 34004KT 9SM 12/08 A3015 RMK SLP218 T01210076 52008 IEM_DS3505
ZGGG,2001-02-08 16:00,ZGGG 081600Z AUTO 02006KT 7SM 12/07 A3015 RMK T01200070 IEM_DS3505
ZGGG,2001-02-08 17:00,ZGGG 081700Z AUTO 01006KT 7SM 12/07 A3015 RMK T01200070 IEM_DS3505
ZGGG,2001-02-08 18:00,ZGGG 081800Z AUTO 00000KT 9SM 12/07 A3015 RMK SLP216 T01190071 57002 IEM_DS3505
ZGGG,2001-02-08 19:00,ZGGG 081900Z AUTO 01006KT 7SM 12/08 A3015 RMK T01200080 IEM_DS3505
ZGGG,2001-02-08 20:00,ZGGG 082000Z AUTO 36006KT 7SM 12/07 A3015 RMK T01200070 IEM_DS3505
ZGGG,2001-02-08 21:00,ZGGG 082100Z AUTO 34002KT 9SM 11/08 A3012 RMK 70003 SLP211 T01140075 57005 IEM_DS3505
ZGGG,2001-02-08 22:00,ZGGG 082200Z AUTO 36006KT 7SM 12/07 A3015 RMK T01200070 IEM_DS3505
ZGGG,2001-02-08 23:00,ZGGG 082300Z AUTO 36006KT 7SM 12/08 A3015 RMK T01200080 IEM_DS3505
ZGGG,2001-02-09 00:00,ZGGG 090000Z AUTO 00000KT 10SM 11/07 A3015 RMK 70003 SLP221 T01140068 52010 IEM_DS3505
ZGGG,2001-02-09 01:00,ZGGG 090100Z AUTO 03008KT 7SM 12/07 A3018 RMK T01200070 IEM_DS3505
ZGGG,2001-02-09 02:00,ZGGG 090200Z AUTO 02010KT 7SM 12/07 A3018 RMK T01200070 IEM_DS3505
ZGGG,2001-02-09 03:00,ZGGG 090300Z AUTO 34004KT 9SM 13/07 A3018 RMK SLP227 T01270073 52006 IEM_DS3505
ZGGG,2001-02-09 04:00,ZGGG 090400Z AUTO 35006KT 7SM 12/07 A3018 RMK T01200070 IEM_DS3505
ZGGG,2001-02-09 05:00,ZGGG 090500Z AUTO 36010KT 7SM 13/07 A3015 RMK T01300070 IEM_DS3505
ZGGG,2001-02-09 06:00,ZGGG 090600Z AUTO 34006KT 10SM 13/07 A3012 RMK SLP208 T01330074 57019 IEM_DS3505
ZGGG,2001-02-09 07:00,ZGGG 090700Z AUTO 36010KT 7SM 13/07 A3012 RMK T01300070 IEM_DS3505
ZGGG,2001-02-09 08:00,ZGGG 090800Z AUTO 36010KT 7SM 13/08 A3009 RMK T01300080 IEM_DS3505
ZGGG,2001-02-09 09:00,ZGGG 090900Z AUTO 02006KT 10SM 13/07 A3009 RMK SLP200 T01280070 57008 IEM_DS3505
ZGGG,2001-02-09 10:00,ZGGG 091000Z AUTO 01010KT 7SM 12/07 A3012 RMK T01200070 IEM_DS3505
ZGGG,2001-02-09 11:00,ZGGG 091100Z AUTO 36006KT 7SM 12/07 A3012 RMK T01200070 IEM_DS3505
ZGGG,2001-02-09 12:00,ZGGG 091200Z AUTO 34004KT 9SM 12/07 A3015 RMK SLP215 T01170073 52015 IEM_DS3505
ZGGG,2001-02-09 13:00,ZGGG 091300Z AUTO 36006KT 7SM 12/07 A3018 RMK T01200070 IEM_DS3505
ZGGG,2001-02-09 14:00,ZGGG 091400Z AUTO 36008KT 7SM 12/07 A3018 RMK T01200070 IEM_DS3505
ZGGG,2001-02-09 15:00,ZGGG 091500Z AUTO 34006KT 9SM 11/07 A3018 RMK SLP228 T01100072 52013 IEM_DS3505
ZGGG,2001-02-09 16:00,ZGGG 091600Z AUTO 36010KT 7SM 11/07 A3018 RMK T01100070 IEM_DS3505
ZGGG,2001-02-09 17:00,ZGGG 091700Z AUTO 36008KT 7SM 11/06 A3018 RMK T01100060 IEM_DS3505
ZGGG,2001-02-09 18:00,ZGGG 091800Z AUTO 34006KT 8SM 10/07 A3018 RMK 60001 SLP224 T01010074 57004 IEM_DS3505
ZGGG,2001-02-09 19:00,ZGGG 091900Z AUTO 36010KT 7SM 10/08 A3018 RMK T01000080 IEM_DS3505
ZGGG,2001-02-09 20:00,ZGGG 092000Z AUTO 36006KT 7SM 10/08 A3018 RMK T01000080 IEM_DS3505
ZGGG,2001-02-09 21:00,ZGGG 092100Z AUTO 34002KT 7SM 10/08 A3018 RMK 70001 SLP224 T00960075 54000 IEM_DS3505
ZGGG,2001-02-09 22:00,ZGGG 092200Z AUTO 36008KT 4SM 09/08 A3018 RMK T00900080 IEM_DS3505
ZGGG,2001-02-09 23:00,ZGGG 092300Z AUTO 01006KT 5SM 09/08 A3021 RMK T00900080 IEM_DS3505
ZGGG,2001-02-10 00:00,ZGGG 100000Z AUTO 34004KT 11SM 09/08 A3021 RMK 60008 SLP235 T00900077 52011 IEM_DS3505
ZGGG,2001-02-10 01:00,ZGGG 100100Z AUTO 36006KT 7SM 10/08 A3021 RMK T01000080 IEM_DS3505
ZGGG,2001-02-10 02:00,ZGGG 100200Z AUTO 02008KT 7SM 11/07 A3021 RMK T01100070 IEM_DS3505
ZGGG,2001-02-10 03:00,ZGGG 100300Z AUTO 02004KT 12SM 12/09 A3021 RMK SLP233 T01230087 57002 IEM_DS3505
ZGGG,2001-02-10 04:00,ZGGG 100400Z AUTO 01006KT 7SM 12/07 A3018 RMK T01200070 IEM_DS3505
ZGGG,2001-02-10 05:00,ZGGG 100500Z AUTO 02006KT 7SM 13/07 A3015 RMK T01300070 IEM_DS3505
ZGGG,2001-02-10 06:00,ZGGG 100600Z AUTO 34008KT 14SM 14/08 A3009 RMK 60000 SLP198 T01350076 57035 IEM_DS3505
ZGGG,2001-02-10 07:00,ZGGG 100700Z AUTO 36006KT 6SM 14/08 A3006 RMK T01400080 IEM_DS3505
ZGGG,2001-02-10 08:00,ZGGG 100800Z AUTO 02006KT 6SM 15/08 A3003 RMK T01500080 IEM_DS3505
ZGGG,2001-02-10 09:00,ZGGG 100900Z AUTO 34004KT 14SM 15/08 A3003 RMK SLP181 T01510082 57017 IEM_DS3505
ZGGG,2001-02-10 10:00,ZGGG 101000Z AUTO 36006KT 6SM 14/08 A3006 RMK T01400080 IEM_DS3505
ZGGG,2001-02-10 11:00,ZGGG 101100Z AUTO 01006KT 6SM 14/09 A3006 RMK T01400090 IEM_DS3505
ZGGG,2001-02-10 12:00,ZGGG 101200Z AUTO 00000KT 10SM 14/09 A3009 RMK SLP193 T01370092 52012 IEM_DS3505
ZGGG,2001-02-10 13:00,ZGGG 101300Z AUTO 33004KT 6SM 14/08 A3012 RMK T01400080 IEM_DS3505
ZGGG,2001-02-10 14:00,ZGGG 101400Z AUTO 36004KT 6SM 14/08 A3012 RMK T01400080 IEM_DS3505
ZGGG,2001-02-10 15:00,ZGGG 101500Z AUTO 34004KT 11SM 13/09 A3012 RMK SLP205 T01320086 52012 IEM_DS3505
ZGGG,2001-02-10 16:00,ZGGG 101600Z AUTO 34002KT 6SM 13/09 A3012 RMK T01300090 IEM_DS3505
ZGGG,2001-02-10 17:00,ZGGG 101700Z AUTO 36004KT 6SM 13/09 A3012 RMK T01300090 IEM_DS3505
ZGGG,2001-02-10 18:00,ZGGG 101800Z AUTO 34004KT 9SM 13/09 A3012 RMK SLP204 T01290091 57001 IEM_DS3505
ZGGG,2001-02-10 19:00,ZGGG 101900Z AUTO 02014KT 6SM 16/09 A3012 RMK T01600090 IEM_DS3505
ZGGG,2001-02-10 20:00,ZGGG 102000Z AUTO 03006KT 7SM 13/09 A3012 RMK T01300090 IEM_DS3505
ZGGG,2001-02-10 21:00,ZGGG 102100Z AUTO 34002KT 9SM 13/10 A3012 RMK 70007 SLP201 T01280095 57003 IEM_DS3505
ZGGG,2001-02-10 22:00,ZGGG 102200Z AUTO 36004KT 7SM 13/09 A3012 RMK T01300090 IEM_DS3505
ZGGG,2001-02-10 23:00,ZGGG 102300Z AUTO 36004KT 7SM 13/09 A3012 RMK T01300090 IEM_DS3505
ZGGG,2001-02-11 00:00,ZGGG 110000Z AUTO 34004KT 10SM 13/10 A3015 RMK 70001 SLP211 T01300095 52010 IEM_DS3505
ZGGG,2001-02-11 01:00,ZGGG 110100Z AUTO 02008KT 7SM 14/09 A3015 RMK T01400090 IEM_DS3505
ZGGG,2001-02-11 02:00,ZGGG 110200Z AUTO 01004KT 7SM 15/09 A3015 RMK T01500090 IEM_DS3505
ZGGG,2001-02-11 03:00,ZGGG 110300Z AUTO 11004KT 9SM 17/10 A3012 RMK SLP205 T01730104 57005 IEM_DS3505
ZGGG,2001-02-11 04:00,ZGGG 110400Z AUTO 31002KT 6SM 19/11 A3009 RMK T01900110 IEM_DS3505
ZGGG,2001-02-11 05:00,ZGGG 110500Z AUTO 27004KT 6SM 21/12 A3006 RMK T02100120 IEM_DS3505
ZGGG,2001-02-11 06:00,ZGGG 110600Z AUTO 14006KT 9SM 22/12 A3003 RMK SLP178 T02150123 57027 IEM_DS3505
ZGGG,2001-02-11 07:00,ZGGG 110700Z AUTO 33004KT 6SM 23/13 A2997 RMK T02300130 IEM_DS3505
ZGGG,2001-02-11 08:00,ZGGG 110800Z AUTO 33004KT 6SM 23/13 A2997 RMK T02300130 IEM_DS3505
ZGGG,2001-02-11 09:00,ZGGG 110900Z AUTO 20002KT 7SM 22/13 A2997 RMK SLP159 T02150132 57019 IEM_DS3505
ZGGG,2001-02-11 10:00,ZGGG 111000Z AUTO 36002KT 2 1/2SM 21/13 A3000 RMK T02100130 IEM_DS3505
ZGGG,2001-02-11 11:00,ZGGG 111100Z AUTO 33002KT 2 1/2SM 19/13 A3000 RMK T01900130 IEM_DS3505
ZGGG,2001-02-11 12:00,ZGGG 111200Z AUTO 00000KT 7SM 19/14 A3003 RMK SLP175 T01920140 52016 IEM_DS3505
ZGGG,2001-02-11 13:00,ZGGG 111300Z AUTO 00000KT 2 1/2SM 19/13 A3003 RMK T01900130 IEM_DS3505
ZGGG,2001-02-11 14:00,ZGGG 111400Z AUTO 00000KT 2 1/2SM 19/14 A3003 RMK T01900140 IEM_DS3505
ZGGG,2001-02-11 15:00,ZGGG 111500Z AUTO 00000KT 7SM 18/16 A3003 RMK SLP179 T01790157 52004 IEM_DS3505
ZGGG,2001-02-11 16:00,ZGGG 111600Z AUTO 00000KT 2SM 18/14 A3003 RMK T01800140 IEM_DS3505
ZGGG,2001-02-11 17:00,ZGGG 111700Z AUTO 00000KT 2SM 18/14 A3006 RMK T01800140 IEM_DS3505
ZGGG,2001-02-11 18:00,ZGGG 111800Z AUTO 00000KT 7SM 18/16 A3003 RMK 60003 SLP180 T01750155 52002 IEM_DS3505
ZGGG,2001-02-11 19:00,ZGGG 111900Z AUTO 06002KT 2 1/2SM 17/15 A3003 RMK T01700150 IEM_DS3505
ZGGG,2001-02-11 20:00,ZGGG 112000Z AUTO 36004KT 2 1/2SM 18/14 A3003 RMK T01800140 IEM_DS3505
ZGGG,2001-02-11 21:00,ZGGG 112100Z AUTO 34002KT 7SM 17/15 A3003 RMK 70003 SLP178 T01740154 57002 IEM_DS3505
ZGGG,2001-02-11 22:00,ZGGG 112200Z AUTO 03002KT 2 1/2SM 18/15 A3006 RMK T01800150 IEM_DS3505
ZGGG,2001-02-11 23:00,ZGGG 112300Z AUTO 01004KT 2 1/2SM 18/15 A3006 RMK T01800150 IEM_DS3505
ZGGG,2001-02-12 00:00,ZGGG 120000Z AUTO 29002KT 7SM 18/15 A3009 RMK 70003 SLP193 T01760152 52014 IEM_DS3505
ZGGG,2001-02-12 01:00,ZGGG 120100Z AUTO 35004KT 1 1/2SM 19/14 A3009 RMK T01900140 IEM_DS3505
ZGGG,2001-02-12 02:00,ZGGG 120200Z AUTO 01006KT 9SM 22/14 A3009 RMK T02200140 IEM_DS3505
ZGGG,2001-02-12 03:00,ZGGG 120300Z AUTO 34002KT 9SM 23/15 A3009 RMK SLP196 T02320148 52004 IEM_DS3505
ZGGG,2001-02-12 04:00,ZGGG 120400Z AUTO 36006KT 5SM 24/14 A3006 RMK T02400140 IEM_DS3505
ZGGG,2001-02-12 05:00,ZGGG 120500Z AUTO 35006KT 6SM 24/15 A3003 RMK T02400150 IEM_DS3505
ZGGG,2001-02-12 06:00,ZGGG 120600Z AUTO 34004KT 10SM 26/14 A2997 RMK SLP160 T02580135 57036 IEM_DS3505
ZGGG,2001-02-12 07:00,ZGGG 120700Z AUTO 02004KT 6SM 26/16 A2997 RMK T02600160 IEM_DS3505
ZGGG,2001-02-12 08:00,ZGGG 120800Z AUTO 31004KT 6SM 26/16 A2994 RMK T02600160 IEM_DS3505
ZGGG,2001-02-12 09:00,ZGGG 120900Z AUTO 34002KT 11SM 26/16 A2994 RMK SLP146 T02610165 57014 IEM_DS3505
ZGGG,2001-02-12 10:00,ZGGG 121000Z AUTO 32002KT 6SM 24/16 A2994 RMK T02400160 IEM_DS3505
ZGGG,2001-02-12 11:00,ZGGG 121100Z AUTO 00000KT 6SM 23/16 A2994 RMK T02300160 IEM_DS3505
ZGGG,2001-02-12 12:00,ZGGG 121200Z AUTO 00000KT 9SM 21/16 A2997 RMK SLP153 T02070164 52007 IEM_DS3505
ZGGG,2001-02-12 13:00,ZGGG 121300Z AUTO 02008KT 6SM 21/15 A2997 RMK T02100150 IEM_DS3505
ZGGG,2001-02-12 14:00,ZGGG 121400Z AUTO 01008KT 6SM 20/14 A3000 RMK T02000140 IEM_DS3505
ZGGG,2001-02-12 15:00,ZGGG 121500Z AUTO 34004KT 9SM 19/15 A3000 RMK SLP164 T01920148 52011 IEM_DS3505
ZGGG,2001-02-12 16:00,ZGGG 121600Z AUTO 36008KT 6SM 18/13 A3003 RMK T01800130 IEM_DS3505
ZGGG,2001-02-12 17:00,ZGGG 121700Z AUTO 01010KT 6SM 18/13 A3003 RMK T01800130 IEM_DS3505
ZGGG,2001-02-12 18:00,ZGGG 121800Z AUTO 34004KT 9SM 18/14 A3003 RMK SLP176 T01820135 52012 IEM_DS3505
ZGGG,2001-02-12 19:00,ZGGG 121900Z AUTO 36010KT 7SM 17/12 A3003 RMK T01700120 IEM_DS3505
ZGGG,2001-02-12 20:00,ZGGG 122000Z AUTO 36010KT 7SM 16/11 A3003 RMK T01600110 IEM_DS3505
ZGGG,2001-02-12 21:00,ZGGG 122100Z AUTO 34006KT 9SM 16/12 A3006 RMK SLP181 T01610115 52005 IEM_DS3505
ZGGG,2001-02-12 22:00,ZGGG 122200Z AUTO 36008KT 7SM 15/10 A3006 RMK T01500100 IEM_DS3505
ZGGG,2001-02-12 23:00,ZGGG 122300Z AUTO 36008KT 7SM 14/10 A3009 RMK T01400100 IEM_DS3505
ZGGG,2001-02-13 00:00,ZGGG 130000Z AUTO 34008KT 9SM 15/10 A3012 RMK SLP203 T01480102 52021 IEM_DS3505
ZGGG,2001-02-13 01:00,ZGGG 130100Z AUTO 01010KT 7SM 14/09 A3015 RMK T01400090 IEM_DS3505
ZGGG,2001-02-13 02:00,ZGGG 130200Z AUTO 36010KT 6SM 15/09 A3015 RMK T01500090 IEM_DS3505
ZGGG,2001-02-13 03:00,ZGGG 130300Z AUTO 34008KT 10SM 16/09 A3015 RMK SLP216 T01590089 52013 IEM_DS3505
ZGGG,2001-02-13 04:00,ZGGG 130400Z AUTO 01014KT 7SM 14/08 A3015 RMK T01400080 IEM_DS3505
ZGGG,2001-02-13 05:00,ZGGG 130500Z AUTO 36012KT 7SM 15/08 A3012 RMK T01500080 IEM_DS3505
ZGGG,2001-02-13 06:00,ZGGG 130600Z AUTO 34010KT 10SM 16/08 A3012 RMK SLP201 T01570080 57015 IEM_DS3505
ZGGG,2001-02-13 07:00,ZGGG 130700Z AUTO 36012KT 7SM 14/07 A3012 RMK T01400070 IEM_DS3505
ZGGG,2001-02-13 08:00,ZGGG 130800Z AUTO 36012KT 7SM 13/06 A3012 RMK T01300060 IEM_DS3505
ZGGG,2001-02-13 09:00,ZGGG 130900Z AUTO 34008KT 9SM 13/06 A3015 RMK SLP215 T01260063 52013 IEM_DS3505
ZGGG,2001-02-13 10:00,ZGGG 131000Z AUTO 36012KT 7SM 12/06 A3018 RMK T01200060 IEM_DS3505
ZGGG,2001-02-13 11:00,ZGGG 131100Z AUTO 36010KT 7SM 11/05 A3021 RMK T01100050 IEM_DS3505
ZGGG,2001-02-13 12:00,ZGGG 131200Z AUTO 02010KT 9SM 11/05 A3024 RMK SLP238 T01140050 52023 IEM_DS3505
ZGGG,2001-02-13 13:00,ZGGG 131300Z AUTO 36010KT 6SM 11/04 A3024 RMK T01100040 IEM_DS3505
ZGGG,2001-02-13 14:00,ZGGG 131400Z AUTO 36012KT 6SM 10/03 A3027 RMK T01000030 IEM_DS3505
ZGGG,2001-02-13 15:00,ZGGG 131500Z AUTO 02010KT 9SM 10/04 A3030 RMK SLP258 T01050039 52020 IEM_DS3505
ZGGG,2001-02-13 16:00,ZGGG 131600Z AUTO 36014KT 6SM 09/03 A3030 RMK T00900030 IEM_DS3505
ZGGG,2001-02-13 17:00,ZGGG 131700Z AUTO 36010KT 7SM 09/04 A3030 RMK T00900040 IEM_DS3505
ZGGG,2001-02-13 18:00,ZGGG 131800Z AUTO 02008KT 9SM 09/03 A3030 RMK SLP265 T00920034 52007 IEM_DS3505
ZGGG,2001-02-13 19:00,ZGGG 131900Z AUTO 36008KT 7SM 09/03 A3030 RMK T00900030 IEM_DS3505
ZGGG,2001-02-13 20:00,ZGGG 132000Z AUTO 36008KT 7SM 08/03 A3030 RMK T00800030 IEM_DS3505
ZGGG,2001-02-13 21:00,ZGGG 132100Z AUTO 34006KT 11SM 08/03 A3030 RMK SLP264 T00820030 57002 IEM_DS3505
ZGGG,2001-02-13 22:00,ZGGG 132200Z AUTO 36008KT 7SM 08/02 A3030 RMK T00800020 IEM_DS3505
ZGGG,2001-02-13 23:00,ZGGG 132300Z AUTO 36008KT 7SM 08/03 A3033 RMK T00800030 IEM_DS3505
ZGGG,2001-02-14 00:00,ZGGG 140000Z AUTO 02006KT 15SM 08/02 RMK SLP278 T00820018 52014 IEM_DS3505
ZGGG,2001-02-14 01:00,ZGGG 140100Z AUTO 02012KT 7SM 10/02 A3036 RMK T01000020 IEM_DS3505
ZGGG,2001-02-14 02:00,ZGGG 140200Z AUTO 05012KT 7SM 11/02 A3036 RMK T01100020 IEM_DS3505
ZGGG,2001-02-14 03:00,ZGGG 140300Z AUTO 02008KT 15SM 12/02 A3033 RMK SLP278 T01180016 52001 IEM_DS3505
ZGGG,2001-02-14 04:00,ZGGG 140400Z AUTO 01010KT 6SM 15/02 A3030 RMK T01500020 IEM_DS3505
ZGGG,2001-02-14 05:00,ZGGG 140500Z AUTO 03012KT 6SM 16/02 A3027 RMK T01600020 IEM_DS3505
ZGGG,2001-02-14 06:00,ZGGG 140600Z AUTO 34006KT 14SM 15/02 A3021 RMK SLP237 T01520024 57041 IEM_DS3505
ZGGG,2001-02-14 07:00,ZGGG 140700Z AUTO 03012KT 6SM 19/02 A3018 RMK T01900020 IEM_DS3505
ZGGG,2001-02-14 08:00,ZGGG 140800Z AUTO 03012KT 6SM 19/01 A3018 RMK T01900010 IEM_DS3505
ZGGG,2001-02-14 09:00,ZGGG 140900Z AUTO 34006KT 12SM 16/03 A3018 RMK SLP221 T01570029 57016 IEM_DS3505
ZGGG,2001-02-14 10:00,ZGGG 141000Z AUTO 03008KT 6SM 16/02 A3018 RMK T01600020 IEM_DS3505
ZGGG,2001-02-14 11:00,ZGGG 141100Z AUTO 02008KT 6SM 14/02 A3018 RMK T01400020 IEM_DS3505
ZGGG,2001-02-14 12:00,ZGGG 141200Z AUTO 34004KT 11SM 13/02 A3021 RMK SLP236 T01290023 52015 IEM_DS3505
ZGGG,2001-02-14 13:00,ZGGG 141300Z AUTO 02008KT 6SM 12/03 A3024 RMK T01200030 IEM_DS3505
ZGGG,2001-02-14 14:00,ZGGG 141400Z AUTO 05006KT 6SM 10/04 A3024 RMK T01000040 IEM_DS3505
ZGGG,2001-02-14 15:00,ZGGG 141500Z AUTO 07002KT 10SM 11/04 A3024 RMK SLP248 T01080040 52012 IEM_DS3505
ZGGG,2001-02-14 16:00,ZGGG 141600Z AUTO 06002KT 6SM 09/05 A3024 RMK T00900050 IEM_DS3505
ZGGG,2001-02-14 17:00,ZGGG 141700Z AUTO 03002KT 6SM 08/05 A3027 RMK T00800050 IEM_DS3505
ZGGG,2001-02-14 18:00,ZGGG 141800Z AUTO 02002KT 9SM 09/04 A3027 RMK SLP257 T00920039 52009 IEM_DS3505
ZGGG,2001-02-14 19:00,ZGGG 141900Z AUTO 02002KT 6SM 08/04 A3027 RMK T00800040 IEM_DS3505
ZGGG,2001-02-14 20:00,ZGGG 142000Z AUTO 04004KT 6SM 07/03 A3027 RMK T00700030 IEM_DS3505
ZGGG,2001-02-14 21:00,ZGGG 142100Z AUTO 34002KT 9SM 08/03 A3027 RMK SLP256 T00790032 57001 IEM_DS3505
ZGGG,2001-02-14 22:00,ZGGG 142200Z AUTO 01006KT 6SM 08/02 A3027 RMK T00800020 IEM_DS3505
ZGGG,2001-02-14 23:00,ZGGG 142300Z AUTO 04006KT 6SM 07/02 A3030 RMK T00700020 IEM_DS3505
ZGGG,2001-02-15 00:00,ZGGG 150000Z AUTO 34002KT 10SM 08/03 A3030 RMK SLP267 T00830028 52010 IEM_DS3505
ZGGG,2001-02-15 01:00,ZGGG 150100Z AUTO 02008KT 6SM 14/01 A3030 RMK T01400010 IEM_DS3505
ZGGG,2001-02-15 02:00,ZGGG 150200Z AUTO 02008KT 6SM 18/02 A3033 RMK T01800020 IEM_DS3505
ZGGG,2001-02-15 03:00,ZGGG 150300Z AUTO 34004KT 14SM 16/03 A3030 RMK SLP267 T01550028 52001 IEM_DS3505
ZGGG,2001-02-15 04:00,ZGGG 150400Z AUTO 02006KT 6SM 20/02 A3027 RMK T02000020 IEM_DS3505
ZGGG,2001-02-15 05:00,ZGGG 150500Z AUTO 02008KT 6SM 20/03 A3024 RMK T02000030 IEM_DS3505
ZGGG,2001-02-15 06:00,ZGGG 150600Z AUTO 34002KT 14SM 19/05 A3018 RMK SLP227 T01940047 57040 IEM_DS3505
ZGGG,2001-02-15 07:00,ZGGG 150700Z AUTO 6SM RMK IEM_DS3505
ZGGG,2001-02-15 08:00,ZGGG 150800Z AUTO 02006KT 6SM 24/03 A3015 RMK T02400030 IEM_DS3505
ZGGG,2001-02-15 09:00,ZGGG 150900Z AUTO 34004KT 13SM 19/04 A3015 RMK SLP215 T01920038 57012 IEM_DS3505
ZGGG,2001-02-15 10:00,ZGGG 151000Z AUTO 32006KT 6SM 18/04 A3015 RMK T01800040 IEM_DS3505
ZGGG,2001-02-15 11:00,ZGGG 151100Z AUTO 00000KT 6SM 16/04 A3015 RMK T01600040 IEM_DS3505
ZGGG,2001-02-15 12:00,ZGGG 151200Z AUTO 00000KT 9SM 14/07 A3018 RMK SLP225 T01390067 52010 IEM_DS3505
ZGGG,2001-02-15 13:00,ZGGG 151300Z AUTO 00000KT 6SM 13/06 A3018 RMK T01300060 IEM_DS3505
ZGGG,2001-02-15 14:00,ZGGG 151400Z AUTO 00000KT 6SM 13/07 A3021 RMK T01300070 IEM_DS3505
ZGGG,2001-02-15 15:00,ZGGG 151500Z AUTO 34002KT 9SM 12/08 A3021 RMK SLP237 T01220077 52012 IEM_DS3505
ZGGG,2001-02-15 16:00,ZGGG 151600Z AUTO 03004KT 4SM 11/07 A3024 RMK T01100070 IEM_DS3505
ZGGG,2001-02-15 17:00,ZGGG 151700Z AUTO 03004KT 3SM 11/07 A3024 RMK T01100070 IEM_DS3505
ZGGG,2001-02-15 18:00,ZGGG 151800Z AUTO 00000KT 9SM 11/06 A3024 RMK SLP245 T01120058 52008 IEM_DS3505
ZGGG,2001-02-15 19:00,ZGGG 151900Z AUTO 01006KT 6SM 13/05 A3024 RMK T01300050 IEM_DS3505
ZGGG,2001-02-15 20:00,ZGGG 152000Z AUTO 03006KT 6SM 12/05 A3024 RMK T01200050 IEM_DS3505
ZGGG,2001-02-15 21:00,ZGGG 152100Z AUTO 00000KT 8SM 12/05 A3024 RMK SLP248 T01150049 52003 IEM_DS3505
ZGGG,2001-02-15 22:00,ZGGG 152200Z AUTO 03008KT 6SM 11/04 A3027 RMK T01100040 IEM_DS3505
ZGGG,2001-02-15 23:00,ZGGG 152300Z AUTO 03006KT 6SM 12/02 A3030 RMK T01200020 IEM_DS3505
ZGGG,2001-02-16 00:00,ZGGG 160000Z AUTO 00000KT 9SM 12/06 A3030 RMK SLP268 T01160058 52020 IEM_DS3505
ZGGG,2001-02-16 01:00,ZGGG 160100Z AUTO 01008KT 6SM 17/02 A3033 RMK T01700020 IEM_DS3505
ZGGG,2001-02-16 03:00,ZGGG 160300Z AUTO 07004KT 10SM 18/04 A3033 RMK SLP270 T01820040 52002 IEM_DS3505
ZGGG,2001-02-16 04:00,ZGGG 160400Z AUTO 01008KT 6SM 22/03 A3030 RMK T02200030 IEM_DS3505
ZGGG,2001-02-16 05:00,ZGGG 160500Z AUTO 02006KT 6SM 22/03 A3024 RMK T02200030 IEM_DS3505
ZGGG,2001-02-16 06:00,ZGGG 160600Z AUTO 00000KT 13SM 22/04 A3021 RMK SLP239 T02170043 57030 IEM_DS3505
ZGGG,2001-02-16 07:00,ZGGG 160700Z AUTO 24006KT 6SM 26/05 A3018 RMK T02600050 IEM_DS3505
ZGGG,2001-02-16 08:00,ZGGG 160800Z AUTO 27004KT 6SM 27/05 A3018 RMK T02700050 IEM_DS3505
ZGGG,2001-02-16 09:00,ZGGG 160900Z AUTO 32002KT 11SM 22/06 A3018 RMK SLP224 T02170061 57015 IEM_DS3505
ZGGG,2001-02-16 10:00,ZGGG 161000Z AUTO 30002KT 6SM 21/04 A3018 RMK T02100040 IEM_DS3505
ZGGG,2001-02-16 11:00,ZGGG 161100Z AUTO 00000KT 5SM 17/07 A3018 RMK T01700070 IEM_DS3505
ZGGG,2001-02-16 12:00,ZGGG 161200Z AUTO 00000KT 9SM 16/08 A3018 RMK SLP230 T01600081 52005 IEM_DS3505
ZGGG,2001-02-16 13:00,ZGGG 161300Z AUTO 00000KT 3SM 16/08 A3021 RMK T01600080 IEM_DS3505
ZGGG,2001-02-16 14:00,ZGGG 161400Z AUTO 16004KT 5SM 16/09 A3021 RMK T01600090 IEM_DS3505
ZGGG,2001-02-16 15:00,ZGGG 161500Z AUTO 00000KT 8SM 14/11 A3024 RMK SLP243 T01440106 52014 IEM_DS3505
ZGGG,2001-02-16 16:00,ZGGG 161600Z AUTO 17002KT 5SM 15/11 A3021 RMK T01500110 IEM_DS3505
ZGGG,2001-02-16 17:00,ZGGG 161700Z AUTO 16002KT 6SM 14/11 A3021 RMK T01400110 IEM_DS3505
ZGGG,2001-02-16 18:00,ZGGG 161800Z AUTO 00000KT 5SM 13/11 A3021 RMK SLP236 T01270106 57007 IEM_DS3505
ZGGG,2001-02-16 19:00,ZGGG 161900Z AUTO 00000KT 3SM 12/10 A3018 RMK T01200100 IEM_DS3505
ZGGG,2001-02-16 20:00,ZGGG 162000Z AUTO 14002KT 4SM 13/10 A3018 RMK T01300100 IEM_DS3505
ZGGG,2001-02-16 21:00,ZGGG 162100Z AUTO 00000KT 6SM 11/10 A3015 RMK SLP220 T01140100 57016 IEM_DS3505
ZGGG,2001-02-16 22:00,ZGGG 162200Z AUTO 00000KT 4SM 12/09 A3018 RMK T01200090 IEM_DS3505
ZGGG,2001-02-16 23:00,ZGGG 162300Z AUTO 00000KT 2SM 12/10 A3018 RMK T01200100 IEM_DS3505
ZGGG,2001-02-17 00:00,ZGGG 170000Z AUTO 00000KT 6SM 12/10 A3021 RMK SLP234 T01180104 52013 IEM_DS3505
ZGGG,2001-02-17 01:00,ZGGG 170100Z AUTO 00000KT 2 1/2SM 19/12 A3021 RMK T01900120 IEM_DS3505
ZGGG,2001-02-17 02:00,ZGGG 170200Z AUTO 05002KT 3SM 21/10 A3024 RMK T02100100 IEM_DS3505
ZGGG,2001-02-17 03:00,ZGGG 170300Z AUTO 14006KT 7SM 18/10 A3021 RMK SLP237 T01750095 52004 IEM_DS3505
ZGGG,2001-02-17 04:00,ZGGG 170400Z AUTO 20004KT 23/09 A3018 RMK T02300090 IEM_DS3505
ZGGG,2001-02-17 05:00,ZGGG 170500Z AUTO 21004KT 24/11 A3015 RMK T02400110 IEM_DS3505
ZGGG,2001-02-17 06:00,ZGGG 170600Z AUTO 29002KT 7SM 21/10 A3012 RMK SLP207 T02120104 57030 IEM_DS3505
ZGGG,2001-02-17 07:00,ZGGG 170700Z AUTO 21006KT 25/11 A3009 RMK T02500110 IEM_DS3505
ZGGG,2001-02-17 08:00,ZGGG 170800Z AUTO 15006KT 24/12 A3009 RMK T02400120 IEM_DS3505
ZGGG,2001-02-17 09:00,ZGGG 170900Z AUTO 16006KT 6SM 22/11 A3006 RMK SLP192 T02190111 57015 IEM_DS3505
ZGGG,2001-02-17 10:00,ZGGG 171000Z AUTO 15004KT 21/12 A3006 RMK T02100120 IEM_DS3505
ZGGG,2001-02-17 11:00,ZGGG 171100Z AUTO 13004KT 19/11 A3009 RMK T01900110 IEM_DS3505
ZGGG,2001-02-17 12:00,ZGGG 171200Z AUTO 00000KT 6SM 18/12 A3009 RMK SLP197 T01780124 52005 IEM_DS3505
ZGGG,2001-02-17 13:00,ZGGG 171300Z AUTO 15002KT 4SM 17/12 A3009 RMK T01700120 IEM_DS3505
ZGGG,2001-02-17 14:00,ZGGG 171400Z AUTO 19004KT 17/11 A3012 RMK T01700110 IEM_DS3505
ZGGG,2001-02-17 15:00,ZGGG 171500Z AUTO 00000KT 7SM 15/12 A3009 RMK SLP202 T01510124 52005 IEM_DS3505
ZGGG,2001-02-17 16:00,ZGGG 171600Z AUTO 21002KT 5SM 16/12 A3012 RMK T01600120 IEM_DS3505
ZGGG,2001-02-17 17:00,ZGGG 171700Z AUTO 00000KT 4SM 15/12 A3012 RMK T01500120 IEM_DS3505
ZGGG,2001-02-17 18:00,ZGGG 171800Z AUTO 00000KT 7SM 14/12 A3012 RMK SLP203 T01390121 52001 IEM_DS3505
ZGGG,2001-02-17 19:00,ZGGG 171900Z AUTO 00000KT 5SM 16/12 A3009 RMK T01600120 IEM_DS3505
ZGGG,2001-02-17 20:00,ZGGG 172000Z AUTO 36002KT 5SM 16/12 A3009 RMK T01600120 IEM_DS3505
ZGGG,2001-02-17 21:00,ZGGG 172100Z AUTO 00000KT 7SM 15/13 A3006 RMK SLP193 T01530128 57010 IEM_DS3505
ZGGG,2001-02-17 22:00,ZGGG 172200Z AUTO 06002KT 4SM 16/12 A3009 RMK T01600120 IEM_DS3505
ZGGG,2001-02-17 23:00,ZGGG 172300Z AUTO 00000KT 4SM 16/12 A3009 RMK T01600120 IEM_DS3505
ZGGG,2001-02-18 00:00,ZGGG 180000Z AUTO 00000KT 8SM 16/13 A3009 RMK SLP199 T01560131 52006 IEM_DS3505
ZGGG,2001-02-18 01:00,ZGGG 180100Z AUTO 36002KT 3SM 23/12 A3009 RMK T02300120 IEM_DS3505
ZGGG,2001-02-18 02:00,ZGGG 180200Z AUTO 29002KT 2 1/2SM 27/12 A3012 RMK T02700120 IEM_DS3505
ZGGG,2001-02-18 03:00,ZGGG 180300Z AUTO 16004KT 7SM 23/13 A3009 RMK SLP198 T02270132 57001 IEM_DS3505
ZGGG,2001-02-18 04:00,ZGGG 180400Z AUTO 35002KT 2 1/2SM 23/13 A3006 RMK T02300130 IEM_DS3505
ZGGG,2001-02-18 05:00,ZGGG 180500Z AUTO 31004KT 2 1/2SM 23/13 A3003 RMK T02300130 IEM_DS3505
ZGGG,2001-02-18 06:00,ZGGG 180600Z AUTO 20004KT 7SM 25/13 A3000 RMK SLP161 T02520131 57036 IEM_DS3505
ZGGG,2001-02-18 07:00,ZGGG 180700Z AUTO 29006KT 3SM 24/13 A2997 RMK T02400130 IEM_DS3505
ZGGG,2001-02-18 08:00,ZGGG 180800Z AUTO 36004KT 3SM 24/13 A2994 RMK T02400130 IEM_DS3505
ZGGG,2001-02-18 09:00,ZGGG 180900Z AUTO 00000KT 7SM 25/14 A2994 RMK SLP148 T02460140 57013 IEM_DS3505
ZGGG,2001-02-18 10:00,ZGGG 181000Z AUTO 36004KT 3SM 23/14 A2994 RMK T02300140 IEM_DS3505
ZGGG,2001-02-18 11:00,ZGGG 181100Z AUTO 09004KT 21/14 A2997 RMK T02100140 IEM_DS3505
ZGGG,2001-02-18 12:00,ZGGG 181200Z AUTO 00000KT 7SM 19/15 A2997 RMK SLP159 T01940150 52010 IEM_DS3505
ZGGG,2001-02-18 13:00,ZGGG 181300Z AUTO 00000KT 3SM 20/14 A3000 RMK T02000140 IEM_DS3505
ZGGG,2001-02-18 14:00,ZGGG 181400Z AUTO 15004KT 31SM RMK IEM_DS3505
ZGGG,2001-02-18 15:00,ZGGG 181500Z AUTO 11002KT 7SM 18/16 A3003 RMK SLP174 T01810157 52016 IEM_DS3505
ZGGG,2001-02-18 16:00,ZGGG 181600Z AUTO 14002KT 3SM 18/15 A3003 RMK T01800150 IEM_DS3505
ZGGG,2001-02-18 17:00,ZGGG 181700Z AUTO 00000KT 3SM 18/15 A3003 RMK T01800150 IEM_DS3505
ZGGG,2001-02-18 18:00,ZGGG 181800Z AUTO 00000KT 5SM 16/15 A3003 RMK SLP174 T01610147 54000 IEM_DS3505
ZGGG,2001-02-18 19:00,ZGGG 181900Z AUTO 00000KT 3SM 17/14 A3000 RMK T01700140 IEM_DS3505
ZGGG,2001-02-18 20:00,ZGGG 182000Z AUTO 05002KT 3SM 16/15 A3000 RMK T01600150 IEM_DS3505
ZGGG,2001-02-18 21:00,ZGGG 182100Z AUTO 00000KT 5SM 15/14 A3000 RMK SLP172 T01500139 57002 IEM_DS3505
ZGGG,2001-02-18 22:00,ZGGG 182200Z AUTO 00000KT 2 1/2SM 15/14 A3003 RMK T01500140 IEM_DS3505
ZGGG,2001-02-18 23:00,ZGGG 182300Z AUTO 21004KT 2 1/2SM 16/14 A3003 RMK T01600140 IEM_DS3505
ZGGG,2001-02-19 00:00,ZGGG 190000Z AUTO 00000KT 6SM 15/14 A3006 RMK SLP189 T01520141 52016 IEM_DS3505
ZGGG,2001-02-19 01:00,ZGGG 190100Z AUTO 07002KT 1 1/4SM 18/16 A3009 RMK T01800160 IEM_DS3505
ZGGG,2001-02-19 02:00,ZGGG 190200Z AUTO 03002KT 1 1/4SM 21/16 A3009 RMK T02100160 IEM_DS3505
ZGGG,2001-02-19 03:00,ZGGG 190300Z AUTO 11004KT 5SM 23/16 A3009 RMK SLP192 T02300157 52004 IEM_DS3505
ZGGG,2001-02-19 04:00,ZGGG 190400Z AUTO 02004KT 2SM 23/16 A3006 RMK T02300160 IEM_DS3505
ZGGG,2001-02-19 05:00,ZGGG 190500Z AUTO 30006KT 1 1/2SM 24/16 A3000 RMK T02400160 IEM_DS3505
ZGGG,2001-02-19 06:00,ZGGG 190600Z AUTO 20006KT 7SM 27/13 A2997 RMK SLP160 T02690126 57032 IEM_DS3505
ZGGG,2001-02-19 07:00,ZGGG 190700Z AUTO 26004KT 27/12 A2994 RMK T02700120 IEM_DS3505
ZGGG,2001-02-19 08:00,ZGGG 190800Z AUTO 30006KT 1 1/4SM 26/17 A2994 RMK T02600170 IEM_DS3505
ZGGG,2001-02-19 09:00,ZGGG 190900Z AUTO 00000KT 3SM 26/17 A2994 RMK SLP147 T02650166 57013 IEM_DS3505
ZGGG,2001-02-19 10:00,ZGGG 191000Z AUTO 00000KT 1 1/4SM 24/16 A2994 RMK T02400160 IEM_DS3505
ZGGG,2001-02-19 11:00,ZGGG 191100Z AUTO 09002KT 2 1/2SM 23/16 A2994 RMK T02300160 IEM_DS3505
ZGGG,2001-02-19 12:00,ZGGG 191200Z AUTO 00000KT 4SM 21/17 A2997 RMK SLP155 T02110169 52007 IEM_DS3505
ZGGG,2001-02-19 13:00,ZGGG 191300Z AUTO 07002KT 2 1/2SM 21/16 A2997 RMK T02100160 IEM_DS3505
ZGGG,2001-02-19 15:00,ZGGG 191500Z AUTO 11002KT 6SM 19/16 A3000 RMK SLP170 T01890155 52016 IEM_DS3505
ZGGG,2001-02-19 16:00,ZGGG 191600Z AUTO 17004KT 20/14 A3000 RMK T02000140 IEM_DS3505
ZGGG,2001-02-19 17:00,ZGGG 191700Z AUTO 17004KT 5SM 19/14 A3000 RMK T01900140 IEM_DS3505
ZGGG,2001-02-19 18:00,ZGGG 191800Z AUTO 00000KT 7SM 18/15 A3000 RMK SLP164 T01760154 57006 IEM_DS3505
ZGGG,2001-02-19 19:00,ZGGG 191900Z AUTO 00000KT 4SM 18/15 A3000 RMK T01800150 IEM_DS3505
ZGGG,2001-02-19 20:00,ZGGG 192000Z AUTO 06002KT 3SM 17/15 A3000 RMK T01700150 IEM_DS3505
ZGGG,2001-02-19 21:00,ZGGG 192100Z AUTO 00000KT 7SM 16/15 A3000 RMK SLP164 T01620148 54000 IEM_DS3505
ZGGG,2001-02-19 22:00,ZGGG 192200Z AUTO 00000KT 3SM 16/14 A3000 RMK T01600140 IEM_DS3505
ZGGG,2001-02-19 23:00,ZGGG 192300Z AUTO 06002KT 2 1/2SM 16/14 A3003 RMK T01600140 IEM_DS3505
ZGGG,2001-02-20 00:00,ZGGG 200000Z AUTO 00000KT 4SM 16/15 A3006 RMK SLP183 T01590149 52018 IEM_DS3505
ZGGG,2001-02-20 01:00,ZGGG 200100Z AUTO 15004KT 2SM 19/16 A3006 RMK T01900160 IEM_DS3505
ZGGG,2001-02-20 02:00,ZGGG 200200Z AUTO 15002KT 2SM 21/16 A3006 RMK T02100160 IEM_DS3505
ZGGG,2001-02-20 03:00,ZGGG 200300Z AUTO 16004KT 4SM 22/15 A3006 RMK SLP187 T02250150 52005 IEM_DS3505
ZGGG,2001-02-20 04:00,ZGGG 200400Z AUTO 18006KT 3SM 24/14 A3003 RMK T02400140 IEM_DS3505
ZGGG,2001-02-20 05:00,ZGGG 200500Z AUTO 18006KT 2 1/2SM 25/14 A2997 RMK T02500140 IEM_DS3505
ZGGG,2001-02-20 06:00,ZGGG 200600Z AUTO 14008KT 6SM 26/13 A2994 RMK SLP147 T02610126 57040 IEM_DS3505
ZGGG,2001-02-20 07:00,ZGGG 200700Z AUTO 20006KT 27/12 A2991 RMK T02700120 IEM_DS3505
ZGGG,2001-02-20 08:00,ZGGG 200800Z AUTO 17006KT 5SM 27/13 A2988 RMK T02700130 IEM_DS3505
ZGGG,2001-02-20 09:00,ZGGG 200900Z AUTO 16004KT 7SM 26/13 A2988 RMK SLP128 T02620129 57019 IEM_DS3505
ZGGG,2001-02-20 10:00,ZGGG 201000Z AUTO 17004KT 3SM 25/14 A2988 RMK T02500140 IEM_DS3505
ZGGG,2001-02-20 11:00,ZGGG 201100Z AUTO 15006KT 3SM 24/14 A2988 RMK T02400140 IEM_DS3505
ZGGG,2001-02-20 12:00,ZGGG 201200Z AUTO 00000KT 7SM 21/15 A2991 RMK SLP140 T02130147 52012 IEM_DS3505
ZGGG,2001-02-20 13:00,ZGGG 201300Z AUTO 15004KT 22/14 A2991 RMK T02200140 IEM_DS3505
ZGGG,2001-02-20 14:00,ZGGG 201400Z AUTO 16004KT 5SM 21/15 A2994 RMK T02100150 IEM_DS3505
ZGGG,2001-02-20 15:00,ZGGG 201500Z AUTO 00000KT 7SM 19/15 A2997 RMK SLP155 T01900153 52015 IEM_DS3505
ZGGG,2001-02-20 16:00,ZGGG 201600Z AUTO 16004KT 4SM 19/15 A2997 RMK T01900150 IEM_DS3505
ZGGG,2001-02-20 17:00,ZGGG 201700Z AUTO 18002KT 4SM 19/15 A2994 RMK T01900150 IEM_DS3505
ZGGG,2001-02-20 18:00,ZGGG 201800Z AUTO 00000KT 4SM 17/15 A2994 RMK SLP146 T01740152 57009 IEM_DS3505
ZGGG,2001-02-20 19:00,ZGGG 201900Z AUTO 02002KT 4SM 17/15 A2994 RMK T01700150 IEM_DS3505
ZGGG,2001-02-20 20:00,ZGGG 202000Z AUTO 00000KT 4SM 17/14 A2991 RMK T01700140 IEM_DS3505
ZGGG,2001-02-20 21:00,ZGGG 202100Z AUTO 00000KT 4SM 16/15 A2991 RMK SLP141 T01650150 57005 IEM_DS3505
ZGGG,2001-02-20 22:00,ZGGG 202200Z AUTO 04002KT 3SM 17/14 A2994 RMK T01700140 IEM_DS3505
ZGGG,2001-02-20 23:00,ZGGG 202300Z AUTO 05002KT 3SM 17/15 A2997 RMK T01700150 IEM_DS3505
ZGGG,2001-02-21 00:00,ZGGG 210000Z AUTO 00000KT 4SM 17/15 A2997 RMK SLP159 T01710154 52018 IEM_DS3505
ZGGG,2001-02-21 01:00,ZGGG 210100Z AUTO 02002KT 2 1/2SM 19/16 A2997 RMK T01900160 IEM_DS3505
ZGGG,2001-02-21 02:00,ZGGG 210200Z AUTO 01004KT 2 1/2SM 21/16 A3000 RMK T02100160 IEM_DS3505
ZGGG,2001-02-21 03:00,ZGGG 210300Z AUTO 07002KT 4SM 22/15 A3000 RMK SLP165 T02150151 52006 IEM_DS3505
ZGGG,2001-02-21 04:00,ZGGG 210400Z AUTO 14004KT 3SM 23/17 A2997 RMK T02300170 IEM_DS3505
ZGGG,2001-02-21 05:00,ZGGG 210500Z AUTO 24004KT 3SM 24/17 A2991 RMK T02400170 IEM_DS3505
ZGGG,2001-02-21 06:00,ZGGG 210600Z AUTO 22002KT 8SM 25/16 A2988 RMK SLP134 T02520165 57031 IEM_DS3505
ZGGG,2001-02-21 07:00,ZGGG 210700Z AUTO 03004KT 2 1/2SM 25/17 A2988 RMK T02500170 IEM_DS3505
ZGGG,2001-02-21 08:00,ZGGG 210800Z AUTO 07004KT 3SM 26/17 A2985 RMK T02600170 IEM_DS3505
ZGGG,2001-02-21 09:00,ZGGG 210900Z AUTO 20002KT 7SM 26/17 A2985 RMK SLP121 T02580172 57013 IEM_DS3505
ZGGG,2001-02-21 10:00,ZGGG 211000Z AUTO 13004KT 3SM 25/17 A2985 RMK T02500170 IEM_DS3505
ZGGG,2001-02-21 11:00,ZGGG 211100Z AUTO 14004KT 3SM 24/18 A2988 RMK T02400180 IEM_DS3505
ZGGG,2001-02-21 12:00,ZGGG 211200Z AUTO 00000KT 7SM 22/18 A2988 RMK SLP129 T02160178 52008 IEM_DS3505
ZGGG,2001-02-21 13:00,ZGGG 211300Z AUTO 20004KT 4SM 23/18 A2991 RMK T02300180 IEM_DS3505
ZGGG,2001-02-21 14:00,ZGGG 211400Z AUTO 00000KT 4SM 22/17 A2991 RMK T02200170 IEM_DS3505
ZGGG,2001-02-21 15:00,ZGGG 211500Z AUTO 00000KT 6SM 20/18 A2991 RMK SLP142 T01950177 52013 IEM_DS3505
ZGGG,2001-02-21 16:00,ZGGG 211600Z AUTO 00000KT 3SM 21/17 A2991 RMK T02100170 IEM_DS3505
ZGGG,2001-02-21 17:00,ZGGG 211700Z AUTO 00000KT 2 1/2SM 20/17 A2991 RMK T02000170 IEM_DS3505
ZGGG,2001-02-21 18:00,ZGGG 211800Z AUTO 00000KT 3SM 18/17 A2991 RMK SLP137 T01830172 57005 IEM_DS3505
ZGGG,2001-02-21 19:00,ZGGG 211900Z AUTO 03002KT 2 1/2SM 19/17 A2991 RMK T01900170 IEM_DS3505
ZGGG,2001-02-21 20:00,ZGGG 212000Z AUTO 00000KT 2 1/2SM 18/17 A2988 RMK T01800170 IEM_DS3505
ZGGG,2001-02-21 21:00,ZGGG 212100Z AUTO 00000KT 5SM 17/16 A2988 RMK SLP129 T01740164 57008 IEM_DS3505
ZGGG,2001-02-21 22:00,ZGGG 212200Z AUTO 00000KT 2 1/2SM 18/17 A2991 RMK T01800170 IEM_DS3505
ZGGG,2001-02-21 23:00,ZGGG 212300Z AUTO 00000KT 1 1/4SM 18/17 A2991 RMK T01800170 IEM_DS3505
ZGGG,2001-02-22 00:00,ZGGG 220000Z AUTO 00000KT 2 1/2SM 18/17 A2994 RMK SLP147 T01750168 52018 IEM_DS3505
ZGGG,2001-02-22 01:00,ZGGG 220100Z AUTO 14004KT 1 1/2SM 21/18 A2994 RMK T02100180 IEM_DS3505
ZGGG,2001-02-22 02:00,ZGGG 220200Z AUTO 13004KT 1 1/4SM 23/18 A2994 RMK T02300180 IEM_DS3505
ZGGG,2001-02-22 03:00,ZGGG 220300Z AUTO 20002KT 3SM 24/18 A2994 RMK SLP150 T02450182 52003 IEM_DS3505
ZGGG,2001-02-22 04:00,ZGGG 220400Z AUTO 25004KT 2SM 26/18 A2991 RMK T02600180 IEM_DS3505
ZGGG,2001-02-22 05:00,ZGGG 220500Z AUTO 17006KT 2 1/2SM 26/18 A2988 RMK T02600180 IEM_DS3505
ZGGG,2001-02-22 06:00,ZGGG 220600Z AUTO 22004KT 6SM 28/18 A2985 RMK SLP121 T02780176 57029 IEM_DS3505
ZGGG,2001-02-22 07:00,ZGGG 220700Z AUTO 16006KT 5SM 28/17 A2983 RMK T02800170 IEM_DS3505
ZGGG,2001-02-22 08:00,ZGGG 220800Z AUTO 20006KT 7SM 28/17 A2983 RMK T02800170 IEM_DS3505
ZGGG,2001-02-22 09:00,ZGGG 220900Z AUTO 16004KT 9SM 27/17 A2983 RMK SLP110 T02720171 57011 IEM_DS3505
ZGGG,2001-02-22 10:00,ZGGG 221000Z AUTO 16004KT 6SM 27/17 A2983 RMK T02700170 IEM_DS3505
ZGGG,2001-02-22 11:00,ZGGG 221100Z AUTO 15006KT 26/18 A2983 RMK T02600180 IEM_DS3505
ZGGG,2001-02-22 12:00,ZGGG 221200Z AUTO 18004KT 8SM 24/17 A2983 RMK SLP110 T02400167 54000 IEM_DS3505
ZGGG,2001-02-22 13:00,ZGGG 221300Z AUTO 16006KT 6SM 24/18 A2985 RMK T02400180 IEM_DS3505
ZGGG,2001-02-22 14:00,ZGGG 221400Z AUTO 19004KT 23/17 A2985 RMK T02300170 IEM_DS3505
ZGGG,2001-02-22 15:00,ZGGG 221500Z AUTO 09002KT 7SM 20/18 A2988 RMK SLP127 T02040178 52017 IEM_DS3505
ZGGG,2001-02-22 16:00,ZGGG 221600Z AUTO 17008KT 4SM 22/18 A2988 RMK T02200180 IEM_DS3505
ZGGG,2001-02-22 17:00,ZGGG 221700Z AUTO 19008KT 4SM 22/17 A2988 RMK T02200170 IEM_DS3505
ZGGG,2001-02-22 18:00,ZGGG 221800Z AUTO 14004KT 7SM 20/18 A2985 RMK SLP120 T02010175 57006 IEM_DS3505
ZGGG,2001-02-22 19:00,ZGGG 221900Z AUTO 17006KT 4SM 21/17 A2985 RMK T02100170 IEM_DS3505
ZGGG,2001-02-22 20:00,ZGGG 222000Z AUTO 17006KT 3SM 21/17 A2985 RMK T02100170 IEM_DS3505
ZGGG,2001-02-22 21:00,ZGGG 222100Z AUTO 09002KT 3SM 19/17 A2985 RMK SLP121 T01920174 54000 IEM_DS3505
ZGGG,2001-02-22 22:00,ZGGG 222200Z AUTO 17004KT 3SM 20/17 A2985 RMK T02000170 IEM_DS3505
ZGGG,2001-02-22 23:00,ZGGG 222300Z AUTO 17002KT 2 1/2SM 20/17 A2988 RMK T02000170 IEM_DS3505
ZGGG,2001-02-23 00:00,ZGGG 230000Z AUTO 00000KT 2SM 18/17 A2991 RMK SLP135 T01840173 52014 IEM_DS3505
ZGGG,2001-02-23 01:00,ZGGG 230100Z AUTO 17004KT 2SM 18/17 A2991 RMK SLP135 T01840173 52016 IEM_DS3505
ZGGG,2001-02-23 02:00,ZGGG 230200Z AUTO 17002KT 2SM 22/17 A2991 RMK T02200170 IEM_DS3505
ZGGG,2001-02-23 03:00,ZGGG 230300Z AUTO 22002KT 4SM 24/17 A2991 RMK SLP136 T02400167 52001 IEM_DS3505
ZGGG,2001-02-23 04:00,ZGGG 230400Z AUTO 27004KT 2 1/2SM 26/18 A2988 RMK T02600180 IEM_DS3505
ZGGG,2001-02-23 05:00,ZGGG 230500Z AUTO 26004KT 2 1/2SM 26/17 A2983 RMK T02600170 IEM_DS3505
ZGGG,2001-02-23 06:00,ZGGG 230600Z AUTO 16002KT 6SM 28/18 A2980 RMK SLP097 T02760176 57038 IEM_DS3505
ZGGG,2001-02-23 07:00,ZGGG 230700Z AUTO 24004KT 3SM 28/18 A2977 RMK T02800180 IEM_DS3505
ZGGG,2001-02-23 08:00,ZGGG 230800Z AUTO 23006KT 28/18 A2974 RMK T02800180 IEM_DS3505
ZGGG,2001-02-23 09:00,ZGGG 230900Z AUTO 22002KT 7SM 28/18 A2974 RMK SLP082 T02760185 57015 IEM_DS3505
ZGGG,2001-02-23 10:00,ZGGG 231000Z AUTO 17006KT 5SM 27/18 A2977 RMK T02700180 IEM_DS3505
ZGGG,2001-02-23 11:00,ZGGG 231100Z AUTO 14004KT 26/18 A2977 RMK T02600180 IEM_DS3505
ZGGG,2001-02-23 12:00,ZGGG 231200Z AUTO 11004KT 7SM 24/18 A2980 RMK SLP096 T02380178 52013 IEM_DS3505
ZGGG,2001-02-23 13:00,ZGGG 231300Z AUTO 17004KT 3SM 24/18 A2980 RMK T02400180 IEM_DS3505
ZGGG,2001-02-23 14:00,ZGGG 231400Z AUTO 20002KT 3SM 23/18 A2983 RMK T02300180 IEM_DS3505
ZGGG,2001-02-23 15:00,ZGGG 231500Z AUTO 00000KT 7SM 21/18 A2983 RMK SLP111 T02080179 52015 IEM_DS3505
ZGGG,2001-02-23 16:00,ZGGG 231600Z AUTO 00000KT 3SM 23/18 A2983 RMK T02300180 IEM_DS3505
ZGGG,2001-02-23 17:00,ZGGG 231700Z AUTO 00000KT 3SM 22/18 A2983 RMK T02200180 IEM_DS3505
ZGGG,2001-02-23 18:00,ZGGG 231800Z AUTO 07002KT 3SM 20/18 A2983 RMK SLP110 T01970176 54000 IEM_DS3505
ZGGG,2001-02-23 19:00,ZGGG 231900Z AUTO 00000KT 2 1/2SM 20/18 A2983 RMK T02000180 IEM_DS3505
ZGGG,2001-02-23 20:00,ZGGG 232000Z AUTO 00000KT 2 1/2SM 19/17 A2983 RMK T01900170 IEM_DS3505
ZGGG,2001-02-23 21:00,ZGGG 232100Z AUTO 07002KT 2 1/2SM 19/18 A2985 RMK SLP117 T01870176 52006 IEM_DS3505
ZGGG,2001-02-23 22:00,ZGGG 232200Z AUTO 06002KT 2 1/2SM 21/18 A2985 RMK T02100180 IEM_DS3505
ZGGG,2001-02-23 23:00,ZGGG 232300Z AUTO 20004KT 2SM 21/18 A2988 RMK T02100180 IEM_DS3505
ZGGG,2001-02-24 00:00,ZGGG 240000Z AUTO 00000KT 1 1/4SM 20/18 RMK SLP138 T01980185 52021 IEM_DS3505
ZGGG,2001-02-24 01:00,ZGGG 240100Z AUTO 36008KT 1 1/2SM 22/18 A2994 RMK T02200180 IEM_DS3505
ZGGG,2001-02-24 02:00,ZGGG 240200Z AUTO 36010KT 3SM 23/17 A2994 RMK T02300170 IEM_DS3505
ZGGG,2001-02-24 03:00,ZGGG 240300Z AUTO 02006KT 7SM 24/16 A2994 RMK SLP145 T02380161 52007 IEM_DS3505
ZGGG,2001-02-24 04:00,ZGGG 240400Z AUTO 36012KT 7SM 23/14 A2994 RMK T02300140 IEM_DS3505
ZGGG,2001-02-24 05:00,ZGGG 240500Z AUTO 02017KT 7SM 22/14 A2994 RMK T02200140 IEM_DS3505
ZGGG,2001-02-24 06:00,ZGGG 240600Z AUTO 34010KT 11SM 21/13 A2991 RMK SLP138 T02120134 57007 IEM_DS3505
ZGGG,2001-02-24 07:00,ZGGG 240700Z AUTO 02016KT 7SM 21/13 A2991 RMK T02100130 IEM_DS3505
ZGGG,2001-02-24 08:00,ZGGG 240800Z AUTO 01012KT 7SM 21/12 A2991 RMK T02100120 IEM_DS3505
ZGGG,2001-02-24 09:00,ZGGG 240900Z AUTO 34006KT 11SM 20/11 A2994 RMK SLP145 T01960106 52007 IEM_DS3505
ZGGG,2001-02-24 10:00,ZGGG 241000Z AUTO 02016KT 7SM 19/11 A2997 RMK T01900110 IEM_DS3505
ZGGG,2001-02-24 11:00,ZGGG 241100Z AUTO 36012KT 7SM 18/09 A3000 RMK T01800090 IEM_DS3505
ZGGG,2001-02-24 12:00,ZGGG 241200Z AUTO 02008KT 10SM 18/09 A3003 RMK SLP171 T01760090 52025 IEM_DS3505
ZGGG,2001-02-24 13:00,ZGGG 241300Z AUTO 02012KT 7SM 16/10 A3006 RMK T01600100 IEM_DS3505
ZGGG,2001-02-24 14:00,ZGGG 241400Z AUTO 02014KT 7SM 16/09 A3006 RMK T01600090 IEM_DS3505
ZGGG,2001-02-24 15:00,ZGGG 241500Z AUTO 02004KT 9SM 14/10 A3009 RMK SLP190 T01350098 52019 IEM_DS3505
ZGGG,2001-02-24 16:00,ZGGG 241600Z AUTO 36012KT 4SM 12/09 A3015 RMK T01200090 IEM_DS3505
ZGGG,2001-02-24 17:00,ZGGG 241700Z AUTO 02012KT 1 1/2SM 12/11 A3012 RMK T01200110 IEM_DS3505
ZGGG,2001-02-24 18:00,ZGGG 241800Z AUTO 34004KT 7SM 11/10 A3012 RMK 60087 SLP206 T01080098 52016 IEM_DS3505
ZGGG,2001-02-24 19:00,ZGGG 241900Z AUTO 02010KT 4SM 11/09 A3012 RMK T01100090 IEM_DS3505
ZGGG,2001-02-24 20:00,ZGGG 242000Z AUTO 01010KT 3SM 11/09 A3009 RMK T01100090 IEM_DS3505
ZGGG,2001-02-24 21:00,ZGGG 242100Z AUTO 07004KT 8SM 10/09 A3006 RMK 70118 SLP190 T01010093 57016 IEM_DS3505
ZGGG,2001-02-24 22:00,ZGGG 242200Z AUTO 03010KT 7SM 11/09 A3006 RMK T01100090 IEM_DS3505
ZGGG,2001-02-24 23:00,ZGGG 242300Z AUTO 02010KT 7SM 11/09 A3009 RMK T01100090 IEM_DS3505
ZGGG,2001-02-25 00:00,ZGGG 250000Z AUTO 34004KT 10SM 11/09 A3012 RMK 60031 SLP202 T01070089 52011 IEM_DS3505
ZGGG,2001-02-25 01:00,ZGGG 250100Z AUTO 34008KT 2SM 11/09 A3021 RMK T01100090 IEM_DS3505
ZGGG,2001-02-25 02:00,ZGGG 250200Z AUTO 36010KT 1 1/2SM 10/09 A3021 RMK T01000090 IEM_DS3505
ZGGG,2001-02-25 03:00,ZGGG 250300Z AUTO 07006KT 8SM 10/09 A3018 RMK SLP221 T01000090 52019 IEM_DS3505
ZGGG,2001-02-25 04:00,ZGGG 250400Z AUTO 03014KT 5SM 10/09 A3015 RMK T01000090 IEM_DS3505
ZGGG,2001-02-25 05:00,ZGGG 250500Z AUTO 01008KT 3SM 10/09 A3015 RMK T01000090 IEM_DS3505
ZGGG,2001-02-25 06:00,ZGGG 250600Z AUTO 04004KT 11SM 10/10 A3012 RMK 60087 SLP204 T01030095 57017 IEM_DS3505
ZGGG,2001-02-25 07:00,ZGGG 250700Z AUTO 04008KT 5SM 10/09 A3009 RMK T01000090 IEM_DS3505
ZGGG,2001-02-25 08:00,ZGGG 250800Z AUTO 03008KT 5SM 11/09 A3009 RMK T01100090 IEM_DS3505
ZGGG,2001-02-25 09:00,ZGGG 250900Z AUTO 34004KT 9SM 10/10 A3012 RMK SLP209 T01030095 52005 IEM_DS3505
ZGGG,2001-02-25 10:00,ZGGG 251000Z AUTO 01008KT 4SM 10/08 A3015 RMK T01000080 IEM_DS3505
ZGGG,2001-02-25 11:00,ZGGG 251100Z AUTO 02010KT 4SM 10/09 A3015 RMK T01000090 IEM_DS3505
ZGGG,2001-02-25 12:00,ZGGG 251200Z AUTO 34006KT 8SM 09/08 A3015 RMK 60035 SLP217 T00940079 52008 IEM_DS3505
ZGGG,2001-02-25 13:00,ZGGG 251300Z AUTO 02010KT 7SM 10/08 A3018 RMK T01000080 IEM_DS3505
ZGGG,2001-02-25 14:00,ZGGG 251400Z AUTO 04008KT 7SM 10/08 A3015 RMK T01000080 IEM_DS3505
ZGGG,2001-02-25 15:00,ZGGG 251500Z AUTO 07004KT 8SM 09/08 A3018 RMK SLP230 T00940084 52013 IEM_DS3505
ZGGG,2001-02-25 16:00,ZGGG 251600Z AUTO 03006KT 7SM 10/09 A3018 RMK T01000090 IEM_DS3505
ZGGG,2001-02-25 17:00,ZGGG 251700Z AUTO 04008KT 7SM 09/08 A3018 RMK T00900080 IEM_DS3505
ZGGG,2001-02-25 18:00,ZGGG 251800Z AUTO 02002KT 8SM 09/09 A3018 RMK 60012 SLP224 T00940086 57006 IEM_DS3505
ZGGG,2001-02-25 19:00,ZGGG 251900Z AUTO 02006KT 4SM 09/08 A3015 RMK T00900080 IEM_DS3505
ZGGG,2001-02-25 20:00,ZGGG 252000Z AUTO 03008KT 7SM 09/08 A3015 RMK T00900080 IEM_DS3505
ZGGG,2001-02-25 21:00,ZGGG 252100Z AUTO 34004KT 7SM 09/09 A3015 RMK 70143 SLP216 T00920088 57008 IEM_DS3505
ZGGG,2001-02-25 22:00,ZGGG 252200Z AUTO 36006KT 7SM 09/08 A3015 RMK T00900080 IEM_DS3505
ZGGG,2001-02-25 23:00,ZGGG 252300Z AUTO 03006KT 7SM 09/08 A3018 RMK T00900080 IEM_DS3505
ZGGG,2001-02-26 00:00,ZGGG 260000Z AUTO 34002KT 7SM 09/09 A3018 RMK 60020 SLP224 T00920088 52007 IEM_DS3505
ZGGG,2001-02-26 01:00,ZGGG 260100Z AUTO 05008KT 7SM 10/09 A3018 RMK T01000090 IEM_DS3505
ZGGG,2001-02-26 02:00,ZGGG 260200Z AUTO 03006KT 7SM 11/09 A3018 RMK T01100090 IEM_DS3505
ZGGG,2001-02-26 03:00,ZGGG 260300Z AUTO 32004KT 8SM 11/10 A3018 RMK SLP219 T01140096 57004 IEM_DS3505
ZGGG,2001-02-26 04:00,ZGGG 260400Z AUTO 02004KT 7SM 12/09 A3015 RMK T01200090 IEM_DS3505
ZGGG,2001-02-26 05:00,ZGGG 260500Z AUTO 35002KT 7SM 12/09 A3012 RMK T01200090 IEM_DS3505
ZGGG,2001-02-26 06:00,ZGGG 260600Z AUTO 32004KT 6SM 12/10 A3009 RMK 60004 SLP197 T01180100 57022 IEM_DS3505
ZGGG,2001-02-26 07:00,ZGGG 260700Z AUTO 36006KT 7SM 12/09 A3009 RMK T01200090 IEM_DS3505
ZGGG,2001-02-26 08:00,ZGGG 260800Z AUTO 36006KT 7SM 12/09 A3006 RMK T01200090 IEM_DS3505
ZGGG,2001-02-26 09:00,ZGGG 260900Z AUTO 34004KT 5SM 12/10 A3009 RMK SLP191 T01180100 57006 IEM_DS3505
ZGGG,2001-02-26 10:00,ZGGG 261000Z AUTO 01006KT 4SM 12/10 A3009 RMK T01200100 IEM_DS3505
ZGGG,2001-02-26 11:00,ZGGG 261100Z AUTO 02006KT 4SM 12/10 A3009 RMK T01200100 IEM_DS3505
ZGGG,2001-02-26 12:00,ZGGG 261200Z AUTO 34002KT 7SM 12/10 A3009 RMK SLP200 T01160102 52009 IEM_DS3505
ZGGG,2001-02-26 13:00,ZGGG 261300Z AUTO 36004KT 4SM 12/10 A3012 RMK T01200100 IEM_DS3505
ZGGG,2001-02-26 14:00,ZGGG 261400Z AUTO 01006KT 4SM 12/10 A3012 RMK T01200100 IEM_DS3505
ZGGG,2001-02-26 15:00,ZGGG 261500Z AUTO 34002KT 7SM 12/10 A3012 RMK SLP206 T01180104 52006 IEM_DS3505
ZGGG,2001-02-26 16:00,ZGGG 261600Z AUTO 34004KT 4SM 12/10 A3015 RMK T01200100 IEM_DS3505
ZGGG,2001-02-26 17:00,ZGGG 261700Z AUTO 01004KT 4SM 12/11 A3012 RMK T01200110 IEM_DS3505
ZGGG,2001-02-26 18:00,ZGGG 261800Z AUTO 34004KT 7SM 12/10 A3012 RMK SLP205 T01180104 57001 IEM_DS3505
ZGGG,2001-02-26 19:00,ZGGG 261900Z AUTO 02006KT 4SM 12/11 A3012 RMK T01200110 IEM_DS3505
ZGGG,2001-02-26 20:00,ZGGG 262000Z AUTO 03004KT 4SM 12/11 A3009 RMK T01200110 IEM_DS3505
ZGGG,2001-02-26 21:00,ZGGG 262100Z AUTO 32004KT 7SM 12/11 A3009 RMK 70013 SLP200 T01220113 57005 IEM_DS3505
ZGGG,2001-02-26 22:00,ZGGG 262200Z AUTO 02006KT 4SM 12/11 A3012 RMK T01200110 IEM_DS3505
ZGGG,2001-02-26 23:00,ZGGG 262300Z AUTO 02006KT 5SM 12/11 A3012 RMK T01200110 IEM_DS3505
ZGGG,2001-02-27 00:00,ZGGG 270000Z AUTO 00000KT 7SM 13/12 A3012 RMK 60003 SLP207 T01280117 52007 IEM_DS3505
ZGGG,2001-02-27 01:00,ZGGG 270100Z AUTO 33004KT 3SM 13/11 A3015 RMK T01300110 IEM_DS3505
ZGGG,2001-02-27 02:00,ZGGG 270200Z AUTO 36004KT 2 1/2SM 13/11 A3015 RMK T01300110 IEM_DS3505
ZGGG,2001-02-27 03:00,ZGGG 270300Z AUTO 34004KT 8SM 15/12 A3015 RMK SLP217 T01470119 52010 IEM_DS3505
ZGGG,2001-02-27 04:00,ZGGG 270400Z AUTO 02004KT 2SM 15/13 A3015 RMK T01500130 IEM_DS3505
ZGGG,2001-02-27 05:00,ZGGG 270500Z AUTO 36004KT 1 1/4SM 16/13 A3012 RMK T01600130 IEM_DS3505
ZGGG,2001-02-27 06:00,ZGGG 270600Z AUTO 29004KT 6SM 18/14 A3009 RMK SLP195 T01770140 57021 IEM_DS3505
ZGGG,2001-02-27 07:00,ZGGG 270700Z AUTO 02006KT 2SM 17/14 A3006 RMK T01700140 IEM_DS3505
ZGGG,2001-02-27 08:00,ZGGG 270800Z AUTO 34004KT 1SM 16/14 A3006 RMK T01600140 IEM_DS3505
ZGGG,2001-02-27 09:00,ZGGG 270900Z AUTO 32004KT 3SM 17/14 A3006 RMK SLP186 T01660145 57009 IEM_DS3505
ZGGG,2001-02-27 10:00,ZGGG 271000Z AUTO 02006KT 1 1/2SM 16/14 A3006 RMK T01600140 IEM_DS3505
ZGGG,2001-02-27 11:00,ZGGG 271100Z AUTO 36004KT 3SM 16/14 A3006 RMK T01600140 IEM_DS3505
ZGGG,2001-02-27 12:00,ZGGG 271200Z AUTO 32002KT 5SM 16/14 A3009 RMK SLP191 T01620145 52005 IEM_DS3505
ZGGG,2001-02-27 13:00,ZGGG 271300Z AUTO 35004KT 4SM 16/14 A3009 RMK T01600140 IEM_DS3505
ZGGG,2001-02-27 14:00,ZGGG 271400Z AUTO 36004KT 3SM 16/14 A3009 RMK T01600140 IEM_DS3505
ZGGG,2001-02-27 15:00,ZGGG 271500Z AUTO 34004KT 4SM 15/14 A3012 RMK SLP201 T01530144 52010 IEM_DS3505
ZGGG,2001-02-27 16:00,ZGGG 271600Z AUTO 36006KT 3SM 15/14 A3012 RMK T01500140 IEM_DS3505
ZGGG,2001-02-27 17:00,ZGGG 271700Z AUTO 36006KT 3SM 14/14 A3012 RMK T01400140 IEM_DS3505
ZGGG,2001-02-27 18:00,ZGGG 271800Z AUTO 34002KT 5SM 14/14 A3009 RMK 60003 SLP196 T01430138 57005 IEM_DS3505
ZGGG,2001-02-27 19:00,ZGGG 271900Z AUTO 36008KT 5SM 14/13 A3009 RMK T01400130 IEM_DS3505
ZGGG,2001-02-27 20:00,ZGGG 272000Z AUTO 36006KT 5SM 14/13 A3006 RMK T01400130 IEM_DS3505
ZGGG,2001-02-27 21:00,ZGGG 272100Z AUTO 34004KT 4SM 14/13 A3006 RMK 70004 SLP190 T01350128 57006 IEM_DS3505
ZGGG,2001-02-27 22:00,ZGGG 272200Z AUTO 36008KT 7SM 13/12 A3009 RMK T01300120 IEM_DS3505
ZGGG,2001-02-27 23:00,ZGGG 272300Z AUTO 36006KT 2 1/2SM 13/12 A3012 RMK T01300120 IEM_DS3505
ZGGG,2001-02-28 00:00,ZGGG 280000Z AUTO 34004KT 2 1/2SM 14/13 A3012 RMK 60002 SLP202 T01350126 52012 IEM_DS3505
ZGGG,2001-02-28 01:00,ZGGG 280100Z AUTO 36006KT 5SM 14/12 A3015 RMK T01400120 IEM_DS3505
ZGGG,2001-02-28 02:00,ZGGG 280200Z AUTO 36006KT 7SM 15/12 A3015 RMK T01500120 IEM_DS3505
ZGGG,2001-02-28 03:00,ZGGG 280300Z AUTO 34006KT 9SM 15/12 A3015 RMK SLP213 T01530124 52011 IEM_DS3505
ZGGG,2001-02-28 04:00,ZGGG 280400Z AUTO 35008KT 7SM 15/11 A3012 RMK T01500110 IEM_DS3505
ZGGG,2001-02-28 05:00,ZGGG 280500Z AUTO 36010KT 7SM 15/11 A3012 RMK T01500110 IEM_DS3505
ZGGG,2001-02-28 06:00,ZGGG 280600Z AUTO 34006KT 11SM 15/11 A3009 RMK SLP193 T01540111 57020 IEM_DS3505
ZGGG,2001-02-28 07:00,ZGGG 280700Z AUTO 01010KT 7SM 17/12 A3006 RMK T01700120 IEM_DS3505
ZGGG,2001-02-28 08:00,ZGGG 280800Z AUTO 36010KT 6SM 16/11 A3006 RMK T01600110 IEM_DS3505
ZGGG,2001-02-28 09:00,ZGGG 280900Z AUTO 34006KT 10SM 15/11 A3006 RMK SLP184 T01530110 57009 IEM_DS3505
ZGGG,2001-02-28 10:00,ZGGG 281000Z AUTO 36010KT 7SM 15/11 A3009 RMK T01500110 IEM_DS3505
ZGGG,2001-02-28 11:00,ZGGG 281100Z AUTO 36008KT 7SM 14/10 A3009 RMK T01400100 IEM_DS3505
ZGGG,2001-02-28 12:00,ZGGG 281200Z AUTO 34004KT 9SM 14/10 A3012 RMK SLP207 T01360101 52022 IEM_DS3505
ZGGG,2001-02-28 13:00,ZGGG 281300Z AUTO 36008KT 6SM 14/09 A3015 RMK T01400090 IEM_DS3505
ZGGG,2001-02-28 14:00,ZGGG 281400Z AUTO 36010KT 6SM 14/09 A3015 RMK T01400090 IEM_DS3505
ZGGG,2001-02-28 15:00,ZGGG 281500Z AUTO 34008KT 12SM 14/10 A3015 RMK SLP216 T01360097 52009 IEM_DS3505
ZGGG,2001-02-28 16:00,ZGGG 281600Z AUTO 36008KT 7SM 13/09 A3018 RMK T01300090 IEM_DS3505
ZGGG,2001-02-28 17:00,ZGGG 281700Z AUTO 36008KT 6SM 13/09 A3018 RMK T01300090 IEM_DS3505
ZGGG,2001-02-28 18:00,ZGGG 281800Z AUTO 34004KT 11SM 12/09 A3015 RMK SLP216 T01220092 54000 IEM_DS3505
ZGGG,2001-02-28 19:00,ZGGG 281900Z AUTO 36008KT 6SM 12/08 A3015 RMK T01200080 IEM_DS3505
ZGGG,2001-02-28 20:00,ZGGG 282000Z AUTO 36006KT 6SM 12/08 A3015 RMK T01200080 IEM_DS3505
ZGGG,2001-02-28 21:00,ZGGG 282100Z AUTO 34004KT 11SM 11/08 A3015 RMK SLP217 T01060081 52001 IEM_DS3505
ZGGG,2001-02-28 22:00,ZGGG 282200Z AUTO 36004KT 6SM 11/08 A3018 RMK T01100080 IEM_DS3505
ZGGG,2001-02-28 23:00,ZGGG 282300Z AUTO 36004KT 6SM 11/08 A3018 RMK T01100080 IEM_DS3505
ZGGG,2001-03-01 00:00,ZGGG 010000Z AUTO 34002KT 10SM 11/08 A3021 RMK SLP235 T01100079 52018 IEM_DS3505
ZGGG,2001-03-01 01:00,ZGGG 010100Z AUTO 36004KT 6SM 12/07 A3021 RMK T01200070 IEM_DS3505
ZGGG,2001-03-01 02:00,ZGGG 010200Z AUTO 01006KT 6SM 14/07 A3024 RMK T01400070 IEM_DS3505
ZGGG,2001-03-01 03:00,ZGGG 010300Z AUTO 34002KT 11SM 16/06 A3021 RMK SLP237 T01640056 52002 IEM_DS3505
ZGGG,2001-03-01 04:00,ZGGG 010400Z AUTO 02008KT 6SM 18/05 A3018 RMK T01800050 IEM_DS3505
ZGGG,2001-03-01 05:00,ZGGG 010500Z AUTO 03008KT 6SM 19/04 A3015 RMK T01900040 IEM_DS3505
ZGGG,2001-03-01 06:00,ZGGG 010600Z AUTO 34004KT 12SM 20/05 A3012 RMK SLP208 T02050050 57028 IEM_DS3505
ZGGG,2001-03-01 07:00,ZGGG 010700Z AUTO 36006KT 6SM 20/04 A3009 RMK T02000040 IEM_DS3505
ZGGG,2001-03-01 08:00,ZGGG 010800Z AUTO 02006KT 6SM 21/06 A3009 RMK T02100060 IEM_DS3505
ZGGG,2001-03-01 09:00,ZGGG 010900Z AUTO 04004KT 11SM 21/06 A3006 RMK SLP191 T02100058 57017 IEM_DS3505
ZGGG,2001-03-01 10:00,ZGGG 011000Z AUTO 01004KT 6SM 21/05 A3009 RMK T02100050 IEM_DS3505
ZGGG,2001-03-01 11:00,ZGGG 011100Z AUTO 09004KT 6SM 18/07 A3009 RMK T01800070 IEM_DS3505
ZGGG,2001-03-01 12:00,ZGGG 011200Z AUTO 00000KT 9SM 16/09 A3009 RMK SLP202 T01600088 52010 IEM_DS3505
ZGGG,2001-03-01 13:00,ZGGG 011300Z AUTO 04002KT 6SM 17/08 A3012 RMK T01700080 IEM_DS3505
ZGGG,2001-03-01 14:00,ZGGG 011400Z AUTO 04004KT 6SM 13/09 A3012 RMK T01300090 IEM_DS3505
ZGGG,2001-03-01 15:00,ZGGG 011500Z AUTO 00000KT 8SM 14/10 A3012 RMK SLP207 T01400102 52006 IEM_DS3505
ZGGG,2001-03-01 16:00,ZGGG 011600Z AUTO 05002KT 6SM 14/09 A3012 RMK T01400090 IEM_DS3505
ZGGG,2001-03-01 17:00,ZGGG 011700Z AUTO 00000KT 6SM 14/08 A3012 RMK T01400080 IEM_DS3505
ZGGG,2001-03-01 18:00,ZGGG 011800Z AUTO 00000KT 9SM 12/09 A3012 RMK SLP209 T01230093 52002 IEM_DS3505
ZGGG,2001-03-01 19:00,ZGGG 011900Z AUTO 14004KT 6SM 16/07 A3012 RMK T01600070 IEM_DS3505
ZGGG,2001-03-01 20:00,ZGGG 012000Z AUTO 00000KT 6SM 14/08 A3015 RMK T01400080 IEM_DS3505
ZGGG,2001-03-01 21:00,ZGGG 012100Z AUTO 00000KT 10SM 12/09 A3012 RMK SLP213 T01180094 52004 IEM_DS3505
ZGGG,2001-03-01 22:00,ZGGG 012200Z AUTO 00000KT 6SM 13/09 A3015 RMK T01300090 IEM_DS3505
ZGGG,2001-03-01 23:00,ZGGG 012300Z AUTO 06004KT 3SM 12/09 A3015 RMK T01200090 IEM_DS3505
ZGGG,2001-03-02 00:00,ZGGG 020000Z AUTO 00000KT 12SM 13/10 A3018 RMK SLP224 T01280099 52010 IEM_DS3505
ZGGG,2001-03-02 01:00,ZGGG 020100Z AUTO 00000KT 3SM 16/11 A3018 RMK T01600110 IEM_DS3505
ZGGG,2001-03-02 02:00,ZGGG 020200Z AUTO 14006KT 11SM 18/09 A3018 RMK T01800090 IEM_DS3505
ZGGG,2001-03-02 03:00,ZGGG 020300Z AUTO 16006KT 11SM 20/08 A3015 RMK SLP220 T01950084 57003 IEM_DS3505
ZGGG,2001-03-02 05:00,ZGGG 020500Z AUTO 16006KT 21/11 A3009 RMK T02100110 IEM_DS3505
ZGGG,2001-03-02 06:00,ZGGG 020600Z AUTO 14004KT 9SM 21/11 A3006 RMK SLP187 T02110110 57033 IEM_DS3505
ZGGG,2001-03-02 07:00,ZGGG 020700Z AUTO 18006KT 22/12 A3003 RMK T02200120 IEM_DS3505
ZGGG,2001-03-02 08:00,ZGGG 020800Z AUTO 16006KT 3SM 22/12 A3000 RMK T02200120 IEM_DS3505
ZGGG,2001-03-02 09:00,ZGGG 020900Z AUTO 16006KT 9SM 22/10 RMK SLP173 T02160100 57014 IEM_DS3505
ZGGG,2001-03-02 10:00,ZGGG 021000Z AUTO 16006KT 5SM 21/11 A3003 RMK T02100110 IEM_DS3505
ZGGG,2001-03-02 11:00,ZGGG 021100Z AUTO 16004KT 5SM 21/10 A3003 RMK T02100100 IEM_DS3505
ZGGG,2001-03-02 12:00,ZGGG 021200Z AUTO 16002KT 9SM 20/11 A3006 RMK SLP185 T01960106 52012 IEM_DS3505
ZGGG,2001-03-02 13:00,ZGGG 021300Z AUTO 16004KT 7SM 20/12 A3006 RMK T02000120 IEM_DS3505
ZGGG,2001-03-02 14:00,ZGGG 021400Z AUTO 20004KT 6SM 19/12 A3009 RMK T01900120 IEM_DS3505
ZGGG,2001-03-02 15:00,ZGGG 021500Z AUTO 02002KT 9SM 18/12 A3009 RMK SLP199 T01830124 52014 IEM_DS3505
ZGGG,2001-03-02 16:00,ZGGG 021600Z AUTO 00000KT 4SM 18/13 A3009 RMK T01800130 IEM_DS3505
ZGGG,2001-03-02 17:00,ZGGG 021700Z AUTO 00000KT 5SM 18/12 A3009 RMK T01800120 IEM_DS3505
ZGGG,2001-03-02 18:00,ZGGG 021800Z AUTO 07002KT 7SM 18/14 A3009 RMK SLP196 T01760137 57003 IEM_DS3505
ZGGG,2001-03-02 19:00,ZGGG 021900Z AUTO 00000KT 5SM 18/12 A3009 RMK T01800120 IEM_DS3505
ZGGG,2001-03-02 20:00,ZGGG 022000Z AUTO 00000KT 4SM 18/13 A3009 RMK T01800130 IEM_DS3505
ZGGG,2001-03-02 21:00,ZGGG 022100Z AUTO 00000KT 7SM 17/14 A3009 RMK SLP195 T01720141 57001 IEM_DS3505
ZGGG,2001-03-02 22:00,ZGGG 022200Z AUTO 08002KT 5SM 18/12 A3009 RMK T01800120 IEM_DS3505
ZGGG,2001-03-02 23:00,ZGGG 022300Z AUTO 05004KT 3SM 17/14 A3009 RMK T01700140 IEM_DS3505
ZGGG,2001-03-03 00:00,ZGGG 030000Z AUTO 00000KT 6SM 17/14 A3012 RMK SLP208 T01730140 52013 IEM_DS3505
ZGGG,2001-03-03 01:00,ZGGG 030100Z AUTO 06004KT 2 1/2SM 19/13 A3012 RMK T01900130 IEM_DS3505
ZGGG,2001-03-03 02:00,ZGGG 030200Z AUTO 36004KT 3SM 19/13 A3015 RMK T01900130 IEM_DS3505
ZGGG,2001-03-03 03:00,ZGGG 030300Z AUTO 34002KT 6SM 20/14 A3015 RMK SLP209 T02020136 52001 IEM_DS3505
ZGGG,2001-03-03 04:00,ZGGG 030400Z AUTO 02006KT 2 1/2SM 19/13 A3012 RMK T01900130 IEM_DS3505
ZGGG,2001-03-03 05:00,ZGGG 030500Z AUTO 36006KT 1 1/2SM 19/14 A3009 RMK T01900140 IEM_DS3505
ZGGG,2001-03-03 06:00,ZGGG 030600Z AUTO 34006KT 3SM 18/14 A3009 RMK 60003 SLP194 T01780142 57015 IEM_DS3505
ZGGG,2001-03-03 07:00,ZGGG 030700Z AUTO 34004KT 1SM 16/15 A3006 RMK T01600150 IEM_DS3505
ZGGG,2001-03-03 08:00,ZGGG 030800Z AUTO 35004KT 1SM 17/15 A3006 RMK T01700150 IEM_DS3505
ZGGG,2001-03-03 09:00,ZGGG 030900Z AUTO 34004KT 1 1/4SM 17/16 A3009 RMK SLP191 T01720155 57003 IEM_DS3505
ZGGG,2001-03-03 10:00,ZGGG 031000Z AUTO 36008KT 2 1/2SM 18/14 A3009 RMK T01800140 IEM_DS3505
ZGGG,2001-03-03 11:00,ZGGG 031100Z AUTO 36006KT 3SM 18/13 A3012 RMK T01800130 IEM_DS3505
ZGGG,2001-03-03 12:00,ZGGG 031200Z AUTO 34006KT 7SM 18/11 A3015 RMK 60002 SLP213 T01760114 52022 IEM_DS3505
ZGGG,2001-03-03 13:00,ZGGG 031300Z AUTO 01006KT 18/12 A3018 RMK T01800120 IEM_DS3505
ZGGG,2001-03-03 14:00,ZGGG 031400Z AUTO 01006KT 5SM 18/12 A3018 RMK T01800120 IEM_DS3505
ZGGG,2001-03-03 15:00,ZGGG 031500Z AUTO 02004KT 8SM 18/11 A3021 RMK SLP233 T01750108 52020 IEM_DS3505
ZGGG,2001-03-03 16:00,ZGGG 031600Z AUTO 01006KT 5SM 17/11 A3021 RMK T01700110 IEM_DS3505
ZGGG,2001-03-03 17:00,ZGGG 031700Z AUTO 01006KT 6SM 17/11 A3024 RMK T01700110 IEM_DS3505
ZGGG,2001-03-03 18:00,ZGGG 031800Z AUTO 36002KT 9SM 16/10 A3021 RMK 60003 SLP236 T01590096 52003 IEM_DS3505
ZGGG,2001-03-03 19:00,ZGGG 031900Z AUTO 01004KT 6SM 16/09 A3021 RMK T01600090 IEM_DS3505
ZGGG,2001-03-03 20:00,ZGGG 032000Z AUTO 05004KT 6SM 13/09 A3021 RMK T01300090 IEM_DS3505
ZGGG,2001-03-03 21:00,ZGGG 032100Z AUTO 34004KT 9SM 13/09 A3021 RMK 70002 SLP234 T01340086 57002 IEM_DS3505
ZGGG,2001-03-03 22:00,ZGGG 032200Z AUTO 03006KT 4SM 12/09 A3021 RMK T01200090 IEM_DS3505
ZGGG,2001-03-03 23:00,ZGGG 032300Z AUTO 03004KT 4SM 12/09 A3024 RMK T01200090 IEM_DS3505
ZGGG,2001-03-04 00:00,ZGGG 040000Z AUTO 34002KT 11SM 14/08 A3024 RMK 70002 SLP249 T01350085 52014 IEM_DS3505
ZGGG,2001-03-04 01:00,ZGGG 040100Z AUTO 05004KT 16/08 A3027 RMK T01600080 IEM_DS3505
ZGGG,2001-03-04 02:00,ZGGG 040200Z AUTO 36004KT 17/07 A3027 RMK T01700070 IEM_DS3505
ZGGG,2001-03-04 03:00,ZGGG 040300Z AUTO 00000KT 14SM 20/06 A3024 RMK SLP246 T01970060 57002 IEM_DS3505
ZGGG,2001-03-04 04:00,ZGGG 040400Z AUTO 36006KT 20/07 A3021 RMK T02000070 IEM_DS3505
ZGGG,2001-03-04 05:00,ZGGG 040500Z AUTO 02004KT 6SM 21/06 A3018 RMK T02100060 IEM_DS3505
ZGGG,2001-03-04 06:00,ZGGG 040600Z AUTO 07004KT 14SM 23/04 A3012 RMK SLP207 T02260043 57039 IEM_DS3505
ZGGG,2001-03-04 07:00,ZGGG 040700Z AUTO 36004KT 6SM 23/05 A3009 RMK T02300050 IEM_DS3505
ZGGG,2001-03-04 08:00,ZGGG 040800Z AUTO 33002KT 6SM 24/06 A3006 RMK T02400060 IEM_DS3505
ZGGG,2001-03-04 09:00,ZGGG 040900Z AUTO 34004KT 12SM 24/06 A3006 RMK SLP183 T02380061 57024 IEM_DS3505
ZGGG,2001-03-04 10:00,ZGGG 041000Z AUTO 33002KT 6SM 23/06 A3006 RMK T02300060 IEM_DS3505
ZGGG,2001-03-04 11:00,ZGGG 041100Z AUTO 00000KT 6SM 22/06 A3006 RMK T02200060 IEM_DS3505
ZGGG,2001-03-04 12:00,ZGGG 041200Z AUTO 00000KT 11SM 18/10 A3006 RMK SLP185 T01760096 52002 IEM_DS3505
ZGGG,2001-03-04 13:00,ZGGG 041300Z AUTO 00000KT 18/09 A3006 RMK T01800090 IEM_DS3505
ZGGG,2001-03-04 14:00,ZGGG 041400Z AUTO 00000KT 3SM 17/09 A3006 RMK T01700090 IEM_DS3505
ZGGG,2001-03-04 15:00,ZGGG 041500Z AUTO 07002KT 6SM 15/11 A3009 RMK SLP192 T01510106 52007 IEM_DS3505
ZGGG,2001-03-04 16:00,ZGGG 041600Z AUTO 00000KT 3SM 16/09 A3006 RMK T01600090 IEM_DS3505
ZGGG,2001-03-04 17:00,ZGGG 041700Z AUTO 15004KT 3SM 17/10 A3006 RMK T01700100 IEM_DS3505
ZGGG,2001-03-04 18:00,ZGGG 041800Z AUTO 00000KT 6SM 13/10 A3006 RMK SLP185 T01270102 57007 IEM_DS3505
ZGGG,2001-03-04 19:00,ZGGG 041900Z AUTO 00000KT 3SM 14/09 A3006 RMK T01400090 IEM_DS3505
ZGGG,2001-03-04 20:00,ZGGG 042000Z AUTO 00000KT 4SM 14/09 A3006 RMK T01400090 IEM_DS3505
ZGGG,2001-03-04 21:00,ZGGG 042100Z AUTO 00000KT 6SM 12/09 A3006 RMK SLP189 T01170093 52004 IEM_DS3505
ZGGG,2001-03-04 22:00,ZGGG 042200Z AUTO 00000KT 4SM 13/09 A3009 RMK T01300090 IEM_DS3505
ZGGG,2001-03-04 23:00,ZGGG 042300Z AUTO 00000KT 1 1/2SM 13/09 A3012 RMK T01300090 IEM_DS3505
ZGGG,2001-03-05 00:00,ZGGG 050000Z AUTO 00000KT 7SM 13/10 A3012 RMK SLP208 T01280099 52019 IEM_DS3505
ZGGG,2001-03-05 01:00,ZGGG 050100Z AUTO 13002KT 3SM 18/08 A3012 RMK T01800080 IEM_DS3505
ZGGG,2001-03-05 02:00,ZGGG 050200Z AUTO 12006KT 5SM 20/08 A3012 RMK T02000080 IEM_DS3505
ZGGG,2001-03-05 03:00,ZGGG 050300Z AUTO 16010KT 8SM 21/08 A3012 RMK SLP204 T02100080 57004 IEM_DS3505
ZGGG,2001-03-05 04:00,ZGGG 050400Z AUTO 16008KT 5SM 23/09 A3009 RMK T02300090 IEM_DS3505
ZGGG,2001-03-05 05:00,ZGGG 050500Z AUTO 18010KT 6SM 24/12 A3006 RMK T02400120 IEM_DS3505
ZGGG,2001-03-05 06:00,ZGGG 050600Z AUTO 16004KT 9SM 24/12 A3000 RMK SLP172 T02380125 57032 IEM_DS3505
ZGGG,2001-03-05 07:00,ZGGG 050700Z AUTO 16008KT 7SM 24/13 A2997 RMK T02400130 IEM_DS3505
ZGGG,2001-03-05 08:00,ZGGG 050800Z AUTO 17010KT 7SM 24/13 A2994 RMK T02400130 IEM_DS3505
ZGGG,2001-03-05 09:00,ZGGG 050900Z AUTO 20006KT 9SM 23/14 A2994 RMK SLP151 T02310139 57021 IEM_DS3505
ZGGG,2001-03-05 10:00,ZGGG 051000Z AUTO 14008KT 6SM 23/14 A2994 RMK T02300140 IEM_DS3505
ZGGG,2001-03-05 11:00,ZGGG 051100Z AUTO 16006KT 6SM 22/15 A2997 RMK T02200150 IEM_DS3505
ZGGG,2001-03-05 12:00,ZGGG 051200Z AUTO 18002KT 8SM 21/15 A2997 RMK SLP162 T02140152 52011 IEM_DS3505
ZGGG,2001-03-05 13:00,ZGGG 051300Z AUTO 17006KT 7SM 21/16 A3000 RMK T02100160 IEM_DS3505
ZGGG,2001-03-05 14:00,ZGGG 051400Z AUTO 17008KT 7SM 21/15 A3000 RMK T02100150 IEM_DS3505
ZGGG,2001-03-05 15:00,ZGGG 051500Z AUTO 00000KT 7SM 20/15 A3003 RMK SLP175 T02020151 52014 IEM_DS3505
ZGGG,2001-03-05 16:00,ZGGG 051600Z AUTO 15006KT 5SM 21/15 A3003 RMK T02100150 IEM_DS3505
ZGGG,2001-03-05 17:00,ZGGG 051700Z AUTO 16006KT 7SM 20/15 A3003 RMK T02000150 IEM_DS3505
ZGGG,2001-03-05 18:00,ZGGG 051800Z AUTO 14004KT 7SM 19/16 A3003 RMK SLP174 T01940155 57001 IEM_DS3505
ZGGG,2001-03-05 19:00,ZGGG 051900Z AUTO 18002KT 4SM 19/15 A3000 RMK T01900150 IEM_DS3505
ZGGG,2001-03-05 20:00,ZGGG 052000Z AUTO 08006KT 4SM 19/15 A3000 RMK T01900150 IEM_DS3505
ZGGG,2001-03-05 21:00,ZGGG 052100Z AUTO 11004KT 8SM 18/15 A3000 RMK SLP163 T01840152 57011 IEM_DS3505
ZGGG,2001-03-05 22:00,ZGGG 052200Z AUTO 31002KT 5SM 19/14 A3000 RMK T01900140 IEM_DS3505
ZGGG,2001-03-05 23:00,ZGGG 052300Z AUTO 06006KT 4SM 18/14 A3003 RMK T01800140 IEM_DS3505
ZGGG,2001-03-06 00:00,ZGGG 060000Z AUTO 00000KT 7SM 18/16 A3003 RMK SLP178 T01790155 52015 IEM_DS3505
ZGGG,2001-03-06 01:00,ZGGG 060100Z AUTO 00000KT 4SM 19/15 A3006 RMK T01900150 IEM_DS3505
ZGGG,2001-03-06 02:00,ZGGG 060200Z AUTO 07004KT 3SM 20/16 A3006 RMK T02000160 IEM_DS3505
ZGGG,2001-03-06 03:00,ZGGG 060300Z AUTO 14004KT 5SM 20/16 A3006 RMK SLP185 T02000158 52007 IEM_DS3505
ZGGG,2001-03-06 04:00,ZGGG 060400Z AUTO 16004KT 2 1/2SM 22/17 A3003 RMK T02200170 IEM_DS3505
ZGGG,2001-03-06 05:00,ZGGG 060500Z AUTO 15006KT 2 1/2SM 24/18 A3000 RMK T02400180 IEM_DS3505
ZGGG,2001-03-06 06:00,ZGGG 060600Z AUTO 16004KT 6SM 25/17 A2997 RMK SLP153 T02480171 57032 IEM_DS3505
ZGGG,2001-03-06 07:00,ZGGG 060700Z AUTO 20010KT 5SM 26/17 A2994 RMK T02600170 IEM_DS3505
ZGGG,2001-03-06 08:00,ZGGG 060800Z AUTO 16008KT 7SM 26/17 A2991 RMK T02600170 IEM_DS3505
ZGGG,2001-03-06 09:00,ZGGG 060900Z AUTO 16008KT 10SM 25/16 A2991 RMK SLP137 T02540160 57016 IEM_DS3505
ZGGG,2001-03-06 10:00,ZGGG 061000Z AUTO 16006KT 6SM 25/16 A2991 RMK T02500160 IEM_DS3505
ZGGG,2001-03-06 11:00,ZGGG 061100Z AUTO 15004KT 6SM 24/16 A2994 RMK T02400160 IEM_DS3505
ZGGG,2001-03-06 12:00,ZGGG 061200Z AUTO 16004KT 9SM 23/16 A2997 RMK SLP154 T02280164 52017 IEM_DS3505
ZGGG,2001-03-06 13:00,ZGGG 061300Z AUTO 16004KT 6SM 23/16 A3000 RMK T02300160 IEM_DS3505
ZGGG,2001-03-06 14:00,ZGGG 061400Z AUTO 16004KT 6SM 22/16 A3000 RMK T02200160 IEM_DS3505
ZGGG,2001-03-06 15:00,ZGGG 061500Z AUTO 11002KT 9SM 20/17 A3000 RMK SLP167 T01970167 52013 IEM_DS3505
ZGGG,2001-03-06 17:00,ZGGG 061700Z AUTO 00000KT 6SM 21/17 A3000 RMK T02100170 IEM_DS3505
ZGGG,2001-03-06 18:00,ZGGG 061800Z AUTO 11002KT 7SM 18/17 A2997 RMK SLP158 T01830168 57009 IEM_DS3505
ZGGG,2001-03-06 19:00,ZGGG 061900Z AUTO 00000KT 4SM 19/17 A2994 RMK T01900170 IEM_DS3505
ZGGG,2001-03-06 20:00,ZGGG 062000Z AUTO 00000KT 3SM 19/17 A2994 RMK T01900170 IEM_DS3505
ZGGG,2001-03-06 21:00,ZGGG 062100Z AUTO 00000KT 6SM 17/16 A2994 RMK SLP149 T01720160 57009 IEM_DS3505
ZGGG,2001-03-06 22:00,ZGGG 062200Z AUTO 00000KT 2 1/2SM 17/16 A2997 RMK T01700160 IEM_DS3505
ZGGG,2001-03-06 23:00,ZGGG 062300Z AUTO 02002KT 2 1/2SM 17/16 A3000 RMK T01700160 IEM_DS3505
ZGGG,2001-03-07 00:00,ZGGG 070000Z AUTO 00000KT 7SM 18/17 A3003 RMK SLP173 T01810173 52024 IEM_DS3505
ZGGG,2001-03-07 01:00,ZGGG 070100Z AUTO 15004KT 2 1/2SM 21/17 A3003 RMK T02100170 IEM_DS3505
ZGGG,2001-03-07 02:00,ZGGG 070200Z AUTO 09002KT 3SM 22/18 A3006 RMK T02200180 IEM_DS3505
ZGGG,2001-03-07 03:00,ZGGG 070300Z AUTO 02004KT 1 1/2SM 22/18 A3006 RMK T02200180 IEM_DS3505
ZGGG,2001-03-07 04:00,ZGGG 070400Z AUTO 04006KT 2SM 22/18 A3003 RMK T02200180 IEM_DS3505
ZGGG,2001-03-07 05:00,ZGGG 070500Z AUTO 03006KT 3SM 23/18 A3000 RMK T02300180 IEM_DS3505
ZGGG,2001-03-07 06:00,ZGGG 070600Z AUTO 02006KT 9SM 25/18 A2997 RMK SLP158 T02510177 57025 IEM_DS3505
ZGGG,2001-03-07 07:00,ZGGG 070700Z AUTO 01012KT 5SM 23/17 A2997 RMK T02300170 IEM_DS3505
ZGGG,2001-03-07 08:00,ZGGG 070800Z AUTO 03014KT 5SM 22/15 A2997 RMK T02200150 IEM_DS3505
ZGGG,2001-03-07 09:00,ZGGG 070900Z AUTO 34008KT 10SM 20/14 A2997 RMK SLP160 T02000138 52001 IEM_DS3505
ZGGG,2001-03-07 10:00,ZGGG 071000Z AUTO 03014KT 7SM 19/13 A3000 RMK T01900130 IEM_DS3505
ZGGG,2001-03-07 11:00,ZGGG 071100Z AUTO 02012KT 7SM 19/13 A3000 RMK T01900130 IEM_DS3505
ZGGG,2001-03-07 12:00,ZGGG 071200Z AUTO 34004KT 11SM 18/12 RMK SLP181 T01820123 52021 IEM_DS3505
ZGGG,2001-03-07 13:00,ZGGG 071300Z AUTO 04012KT 7SM 18/12 A3009 RMK T01800120 IEM_DS3505
ZGGG,2001-03-07 14:00,ZGGG 071400Z AUTO 03010KT 7SM 18/12 A3012 RMK T01800120 IEM_DS3505
ZGGG,2001-03-07 15:00,ZGGG 071500Z AUTO 34004KT 8SM 17/13 A3015 RMK SLP212 T01680129 52031 IEM_DS3505
ZGGG,2001-03-07 16:00,ZGGG 071600Z AUTO 04012KT 7SM 17/12 A3012 RMK T01700120 IEM_DS3505
ZGGG,2001-03-07 17:00,ZGGG 071700Z AUTO 03008KT 7SM 17/11 A3015 RMK T01700110 IEM_DS3505
ZGGG,2001-03-07 18:00,ZGGG 071800Z AUTO 02004KT 9SM 15/12 A3015 RMK 60000 SLP211 T01530120 54000 IEM_DS3505
ZGGG,2001-03-07 19:00,ZGGG 071900Z AUTO 03012KT 7SM 14/12 A3015 RMK T01400120 IEM_DS3505
ZGGG,2001-03-07 20:00,ZGGG 072000Z AUTO 02008KT 7SM 14/12 A3015 RMK T01400120 IEM_DS3505
ZGGG,2001-03-07 21:00,ZGGG 072100Z AUTO 02006KT 9SM 14/10 A3015 RMK 70000 SLP218 T01420104 52006 IEM_DS3505
ZGGG,2001-03-07 22:00,ZGGG 072200Z AUTO 04010KT 7SM 14/11 A3018 RMK T01400110 IEM_DS3505
ZGGG,2001-03-07 23:00,ZGGG 072300Z AUTO 03008KT 7SM 14/10 A3021 RMK T01400100 IEM_DS3505
ZGGG,2001-03-08 00:00,ZGGG 080000Z AUTO 04004KT 11SM 14/10 A3027 RMK 60003 SLP253 T01430099 52035 IEM_DS3505
ZGGG,2001-03-08 01:00,ZGGG 080100Z AUTO 02012KT 7SM 15/09 A3030 RMK T01500090 IEM_DS3505
ZGGG,2001-03-08 02:00,ZGGG 080200Z AUTO 02014KT 7SM 14/09 A3033 RMK T01400090 IEM_DS3505
ZGGG,2001-03-08 03:00,ZGGG 080300Z AUTO 34004KT 16SM 14/08 A3033 RMK SLP273 T01430081 52019 IEM_DS3505
ZGGG,2001-03-08 04:00,ZGGG 080400Z AUTO 03014KT 6SM 14/08 A3030 RMK T01400080 IEM_DS3505
ZGGG,2001-03-08 05:00,ZGGG 080500Z AUTO 04016KT 7SM 14/08 A3027 RMK T01400080 IEM_DS3505
ZGGG,2001-03-08 06:00,ZGGG 080600Z AUTO 34008KT 17SM 16/08 RMK 60003 SLP248 T01570082 57025 IEM_DS3505
ZGGG,2001-03-08 07:00,ZGGG 080700Z AUTO 02012KT 6SM 17/06 A3021 RMK T01700060 IEM_DS3505
ZGGG,2001-03-08 08:00,ZGGG 080800Z AUTO 04014KT 6SM 16/05 A3021 RMK T01600050 IEM_DS3505
ZGGG,2001-03-08 09:00,ZGGG 080900Z AUTO 02006KT 11SM 16/05 A3021 RMK SLP235 T01550049 57013 IEM_DS3505
ZGGG,2001-03-08 10:00,ZGGG 081000Z AUTO 03012KT 6SM 15/02 A3021 RMK T01500020 IEM_DS3505
ZGGG,2001-03-08 11:00,ZGGG 081100Z AUTO 03012KT 6SM 14/02 A3024 RMK T01400020 IEM_DS3505
ZGGG,2001-03-08 12:00,ZGGG 081200Z AUTO 02004KT 10SM 14/02 A3024 RMK SLP251 T01350023 52016 IEM_DS3505
ZGGG,2001-03-08 13:00,ZGGG 081300Z AUTO 03008KT 6SM 14/02 A3027 RMK T01400020 IEM_DS3505
ZGGG,2001-03-08 14:00,ZGGG 081400Z AUTO 03008KT 6SM 13/02 A3030 RMK T01300020 IEM_DS3505
ZGGG,2001-03-08 15:00,ZGGG 081500Z AUTO 34004KT 11SM 14/03 A3030 RMK SLP263 T01350029 52012 IEM_DS3505
ZGGG,2001-03-08 16:00,ZGGG 081600Z AUTO 05006KT 6SM 13/03 A3030 RMK T01300030 IEM_DS3505
ZGGG,2001-03-08 17:00,ZGGG 081700Z AUTO 05004KT 6SM 13/03 A3027 RMK T01300030 IEM_DS3505
ZGGG,2001-03-08 18:00,ZGGG 081800Z AUTO 02002KT 9SM 13/04 A3027 RMK SLP254 T01270043 57009 IEM_DS3505
ZGGG,2001-03-08 19:00,ZGGG 081900Z AUTO 03008KT 6SM 13/03 A3024 RMK T01300030 IEM_DS3505
ZGGG,2001-03-08 20:00,ZGGG 082000Z AUTO 04006KT 6SM 12/04 A3024 RMK T01200040 IEM_DS3505
ZGGG,2001-03-08 21:00,ZGGG 082100Z AUTO 36002KT 9SM 12/05 A3021 RMK 70003 SLP239 T01240050 57015 IEM_DS3505
ZGGG,2001-03-08 22:00,ZGGG 082200Z AUTO 01004KT 6SM 13/04 A3024 RMK T01300040 IEM_DS3505
ZGGG,2001-03-08 23:00,ZGGG 082300Z AUTO 04006KT 6SM 12/04 A3024 RMK T01200040 IEM_DS3505
ZGGG,2001-03-09 00:00,ZGGG 090000Z AUTO 32002KT 9SM 13/04 A3027 RMK 70003 SLP254 T01280042 52015 IEM_DS3505
ZGGG,2001-03-09 01:00,ZGGG 090100Z AUTO 05006KT 14/03 A3027 RMK T01400030 IEM_DS3505
ZGGG,2001-03-09 02:00,ZGGG 090200Z AUTO 01006KT 5SM 16/03 A3027 RMK T01600030 IEM_DS3505
ZGGG,2001-03-09 03:00,ZGGG 090300Z AUTO 11006KT 11SM 17/02 A3024 RMK SLP250 T01700024 57004 IEM_DS3505
ZGGG,2001-03-09 04:00,ZGGG 090400Z AUTO 02006KT 5SM 17/04 A3024 RMK T01700040 IEM_DS3505
ZGGG,2001-03-09 05:00,ZGGG 090500Z AUTO 02004KT 5SM 18/04 A3021 RMK T01800040 IEM_DS3505
ZGGG,2001-03-09 06:00,ZGGG 090600Z AUTO 02004KT 11SM 18/05 A3018 RMK SLP224 T01780051 57025 IEM_DS3505
ZGGG,2001-03-09 07:00,ZGGG 090700Z AUTO 36006KT 5SM 17/04 A3015 RMK T01700040 IEM_DS3505
ZGGG,2001-03-09 08:00,ZGGG 090800Z AUTO 01004KT 5SM 18/03 A3015 RMK T01800030 IEM_DS3505
ZGGG,2001-03-09 09:00,ZGGG 090900Z AUTO 02002KT 10SM 17/04 A3015 RMK SLP213 T01710044 57011 IEM_DS3505
ZGGG,2001-03-09 10:00,ZGGG 091000Z AUTO 36006KT 17/04 A3015 RMK T01700040 IEM_DS3505
ZGGG,2001-03-09 11:00,ZGGG 091100Z AUTO 06004KT 16/05 A3015 RMK T01600050 IEM_DS3505
ZGGG,2001-03-09 12:00,ZGGG 091200Z AUTO 00000KT 9SM 16/08 A3015 RMK 60003 SLP222 T01570077 52008 IEM_DS3505
ZGGG,2001-03-09 13:00,ZGGG 091300Z AUTO 00000KT 16/07 A3018 RMK T01600070 IEM_DS3505
ZGGG,2001-03-09 14:00,ZGGG 091400Z AUTO 10002KT 16/07 A3021 RMK T01600070 IEM_DS3505
ZGGG,2001-03-09 15:00,ZGGG 091500Z AUTO 00000KT 7SM 15/08 A3018 RMK SLP226 T01490084 52005 IEM_DS3505
ZGGG,2001-03-09 16:00,ZGGG 091600Z AUTO 06006KT 3SM 14/10 A3021 RMK T01400100 IEM_DS3505
ZGGG,2001-03-09 17:00,ZGGG 091700Z AUTO 08004KT 3SM 13/10 A3018 RMK T01300100 IEM_DS3505
ZGGG,2001-03-09 18:00,ZGGG 091800Z AUTO 34002KT 7SM 13/11 A3018 RMK 60004 SLP222 T01300107 57004 IEM_DS3505
ZGGG,2001-03-09 19:00,ZGGG 091900Z AUTO 03004KT 5SM 12/09 A3015 RMK T01200090 IEM_DS3505
ZGGG,2001-03-09 20:00,ZGGG 092000Z AUTO 00000KT 5SM 13/09 A3012 RMK T01300090 IEM_DS3505
ZGGG,2001-03-09 21:00,ZGGG 092100Z AUTO 00000KT 8SM 13/11 A3012 RMK 70004 SLP204 T01270106 57018 IEM_DS3505
ZGGG,2001-03-09 22:00,ZGGG 092200Z AUTO 06002KT 4SM 13/10 A3012 RMK T01300100 IEM_DS3505
ZGGG,2001-03-09 23:00,ZGGG 092300Z AUTO 05006KT 2 1/2SM 12/10 A3012 RMK T01200100 IEM_DS3505
ZGGG,2001-03-10 00:00,ZGGG 100000Z AUTO 34004KT 7SM 13/10 A3015 RMK 60000 SLP216 T01290104 52011 IEM_DS3505
ZGGG,2001-03-10 01:00,ZGGG 100100Z AUTO 01006KT 3SM 13/10 A3015 RMK T01300100 IEM_DS3505
ZGGG,2001-03-10 02:00,ZGGG 100200Z AUTO 03006KT 3SM 13/10 A3018 RMK T01300100 IEM_DS3505
ZGGG,2001-03-10 03:00,ZGGG 100300Z AUTO 34004KT 7SM 14/10 A3018 RMK SLP222 T01390100 52006 IEM_DS3505
ZGGG,2001-03-10 04:00,ZGGG 100400Z AUTO 04008KT 4SM 14/10 A3015 RMK T01400100 IEM_DS3505
ZGGG,2001-03-10 05:00,ZGGG 100500Z AUTO 01006KT 4SM 14/10 A3015 RMK T01400100 IEM_DS3505
ZGGG,2001-03-10 06:00,ZGGG 100600Z AUTO 29004KT 7SM 15/10 A3012 RMK 60003 SLP206 T01470099 57016 IEM_DS3505
ZGGG,2001-03-10 07:00,ZGGG 100700Z AUTO 02008KT 4SM 14/11 A3012 RMK T01400110 IEM_DS3505
ZGGG,2001-03-10 08:00,ZGGG 100800Z AUTO 36006KT 3SM 14/11 A3012 RMK T01400110 IEM_DS3505
ZGGG,2001-03-10 09:00,ZGGG 100900Z AUTO 00000KT 6SM 14/11 A3012 RMK SLP203 T01410113 57003 IEM_DS3505
ZGGG,2001-03-10 10:00,ZGGG 101000Z AUTO 03008KT 3SM 14/11 A3009 RMK T01400110 IEM_DS3505
ZGGG,2001-03-10 11:00,ZGGG 101100Z AUTO 04006KT 4SM 13/11 A3009 RMK T01300110 IEM_DS3505
ZGGG,2001-03-10 12:00,ZGGG 101200Z AUTO 00000KT 6SM 14/12 A3012 RMK 60002 SLP202 T01400123 57001 IEM_DS3505
ZGGG,2001-03-10 13:00,ZGGG 101300Z AUTO 00000KT 3SM 14/12 A3012 RMK T01400120 IEM_DS3505
ZGGG,2001-03-10 14:00,ZGGG 101400Z AUTO 34004KT 2 1/2SM 14/12 A3012 RMK T01400120 IEM_DS3505
ZGGG,2001-03-10 15:00,ZGGG 101500Z AUTO 34002KT 7SM 14/13 A3012 RMK SLP207 T01410128 52005 IEM_DS3505
ZGGG,2001-03-10 16:00,ZGGG 101600Z AUTO 01006KT 2 1/2SM 14/13 A3015 RMK T01400130 IEM_DS3505
ZGGG,2001-03-10 17:00,ZGGG 101700Z AUTO 36004KT 2 1/2SM 14/12 A3015 RMK T01400120 IEM_DS3505
ZGGG,2001-03-10 18:00,ZGGG 101800Z AUTO 34004KT 6SM 14/13 A3012 RMK 60003 SLP206 T01380129 57001 IEM_DS3505
ZGGG,2001-03-10 19:00,ZGGG 101900Z AUTO 01004KT 2 1/2SM 14/13 A3012 RMK T01400130 IEM_DS3505
ZGGG,2001-03-10 20:00,ZGGG 102000Z AUTO 03004KT 3SM 14/13 A3009 RMK T01400130 IEM_DS3505
ZGGG,2001-03-10 21:00,ZGGG 102100Z AUTO 00000KT 7SM 14/14 A3009 RMK 70005 SLP196 T01420135 57009 IEM_DS3505
ZGGG,2001-03-10 22:00,ZGGG 102200Z AUTO 36004KT 2 1/2SM 14/13 A3009 RMK T01400130 IEM_DS3505
ZGGG,2001-03-10 23:00,ZGGG 102300Z AUTO 03004KT 1 1/2SM 14/13 A3012 RMK T01400130 IEM_DS3505
ZGGG,2001-03-11 00:00,ZGGG 110000Z AUTO 34002KT 2 1/2SM 15/14 A3015 RMK 60004 SLP213 T01460139 52016 IEM_DS3505
ZGGG,2001-03-11 01:00,ZGGG 110100Z AUTO 36004KT 1 1/2SM 15/14 A3015 RMK T01500140 IEM_DS3505
ZGGG,2001-03-11 02:00,ZGGG 110200Z AUTO 03004KT 1 1/2SM 15/14 A3015 RMK T01500140 IEM_DS3505
ZGGG,2001-03-11 03:00,ZGGG 110300Z AUTO 00000KT 2 1/2SM 16/15 A3015 RMK SLP214 T01610147 52002 IEM_DS3505
ZGGG,2001-03-11 04:00,ZGGG 110400Z AUTO 02004KT 2SM 16/14 A3012 RMK T01600140 IEM_DS3505
ZGGG,2001-03-11 05:00,ZGGG 110500Z AUTO 02004KT 1 1/4SM 17/14 A3009 RMK T01700140 IEM_DS3505
ZGGG,2001-03-11 06:00,ZGGG 110600Z AUTO 34004KT 2 1/2SM 18/16 A3009 RMK 60002 SLP192 T01760157 57022 IEM_DS3505
ZGGG,2001-03-11 07:00,ZGGG 110700Z AUTO 01006KT 2SM 17/15 A3006 RMK T01700150 IEM_DS3505
ZGGG,2001-03-11 09:00,ZGGG 110900Z AUTO 02004KT 2 1/2SM 16/15 A3006 RMK SLP188 T01630154 57004 IEM_DS3505
ZGGG,2001-03-11 10:00,ZGGG 111000Z AUTO 36008KT 2 1/2SM 16/14 A3009 RMK T01600140 IEM_DS3505
ZGGG,2001-03-11 11:00,ZGGG 111100Z AUTO 36006KT 2 1/2SM 16/14 A3009 RMK T01600140 IEM_DS3505
ZGGG,2001-03-11 12:00,ZGGG 111200Z AUTO 34004KT 7SM 15/14 A3012 RMK 60012 SLP205 T01520145 52017 IEM_DS3505
ZGGG,2001-03-11 13:00,ZGGG 111300Z AUTO 36006KT 3SM 15/14 A3012 RMK T01500140 IEM_DS3505
ZGGG,2001-03-11 14:00,ZGGG 111400Z AUTO 36006KT 4SM 15/14 A3015 RMK T01500140 IEM_DS3505
ZGGG,2001-03-11 15:00,ZGGG 111500Z AUTO 34006KT 6SM 15/14 A3018 RMK SLP220 T01480141 52015 IEM_DS3505
ZGGG,2001-03-11 16:00,ZGGG 111600Z AUTO 36006KT 5SM 15/14 A3015 RMK T01500140 IEM_DS3505
ZGGG,2001-03-11 17:00,ZGGG 111700Z AUTO 36004KT 5SM 14/13 A3015 RMK T01400130 IEM_DS3505
ZGGG,2001-03-11 18:00,ZGGG 111800Z AUTO 34004KT 7SM 14/13 A3015 RMK 60012 SLP215 T01410134 57005 IEM_DS3505
ZGGG,2001-03-11 19:00,ZGGG 111900Z AUTO 35004KT 7SM 14/13 A3015 RMK T01400130 IEM_DS3505
ZGGG,2001-03-11 20:00,ZGGG 112000Z AUTO 36006KT 5SM 14/13 A3015 RMK T01400130 IEM_DS3505
ZGGG,2001-03-11 21:00,ZGGG 112100Z AUTO 34006KT 8SM 14/13 A3015 RMK 70028 SLP213 T01390126 57002 IEM_DS3505
ZGGG,2001-03-11 22:00,ZGGG 112200Z AUTO 01006KT 5SM 14/13 A3015 RMK T01400130 IEM_DS3505
ZGGG,2001-03-11 23:00,ZGGG 112300Z AUTO 36004KT 5SM 14/13 A3018 RMK T01400130 IEM_DS3505
ZGGG,2001-03-12 00:00,ZGGG 120000Z AUTO 34004KT 9SM 14/13 A3021 RMK 60002 SLP232 T01400129 52018 IEM_DS3505
ZGGG,2001-03-12 01:00,ZGGG 120100Z AUTO 36006KT 5SM 15/12 A3021 RMK T01500120 IEM_DS3505
ZGGG,2001-03-12 02:00,ZGGG 120200Z AUTO 01004KT 5SM 16/12 A3021 RMK T01600120 IEM_DS3505
ZGGG,2001-03-12 03:00,ZGGG 120300Z AUTO 02004KT 12SM 17/10 A3021 RMK SLP232 T01730099 52001 IEM_DS3505
ZGGG,2001-03-12 04:00,ZGGG 120400Z AUTO 02010KT 6SM 18/10 A3018 RMK T01800100 IEM_DS3505
ZGGG,2001-03-12 05:00,ZGGG 120500Z AUTO 04008KT 6SM 19/09 A3015 RMK T01900090 IEM_DS3505
ZGGG,2001-03-12 06:00,ZGGG 120600Z AUTO 07004KT 12SM 20/09 A3012 RMK SLP209 T02020086 57023 IEM_DS3505
ZGGG,2001-03-12 07:00,ZGGG 120700Z AUTO 36006KT 6SM 21/08 A3012 RMK T02100080 IEM_DS3505
ZGGG,2001-03-12 08:00,ZGGG 120800Z AUTO 36004KT 6SM 21/08 A3009 RMK T02100080 IEM_DS3505
ZGGG,2001-03-12 09:00,ZGGG 120900Z AUTO 07004KT 11SM 21/08 A3009 RMK SLP193 T02110079 57016 IEM_DS3505
ZGGG,2001-03-12 10:00,ZGGG 121000Z AUTO 00000KT 6SM 20/08 A3009 RMK T02000080 IEM_DS3505
ZGGG,2001-03-12 11:00,ZGGG 121100Z AUTO 13002KT 6SM 19/11 A3009 RMK T01900110 IEM_DS3505
ZGGG,2001-03-12 12:00,ZGGG 121200Z AUTO 00000KT 11SM 17/13 A3012 RMK SLP204 T01710130 52011 IEM_DS3505
ZGGG,2001-03-12 13:00,ZGGG 121300Z AUTO 06002KT 5SM 17/11 A3012 RMK T01700110 IEM_DS3505
ZGGG,2001-03-12 14:00,ZGGG 121400Z AUTO 00000KT 4SM 17/12 A3015 RMK T01700120 IEM_DS3505
ZGGG,2001-03-12 15:00,ZGGG 121500Z AUTO 00000KT 8SM 16/13 A3015 RMK SLP211 T01570128 52007 IEM_DS3505
ZGGG,2001-03-12 16:00,ZGGG 121600Z AUTO 00000KT 5SM 16/12 A3012 RMK T01600120 IEM_DS3505
ZGGG,2001-03-12 17:00,ZGGG 121700Z AUTO 00000KT 5SM 16/11 A3012 RMK T01600110 IEM_DS3505
ZGGG,2001-03-12 18:00,ZGGG 121800Z AUTO 00000KT 7SM 15/12 A3012 RMK SLP205 T01470125 57006 IEM_DS3505
ZGGG,2001-03-12 19:00,ZGGG 121900Z AUTO 4SM 15/12 A3012 RMK T01500120 IEM_DS3505
ZGGG,2001-03-12 20:00,ZGGG 122000Z AUTO 16004KT 4SM 16/12 A3009 RMK T01600120 IEM_DS3505
ZGGG,2001-03-12 21:00,ZGGG 122100Z AUTO 00000KT 7SM 13/12 A3012 RMK 70001 SLP204 T01330120 57001 IEM_DS3505
ZGGG,2001-03-12 22:00,ZGGG 122200Z AUTO 00000KT 5SM 15/12 A3012 RMK T01500120 IEM_DS3505
ZGGG,2001-03-12 23:00,ZGGG 122300Z AUTO 02002KT 3SM 16/13 A3012 RMK T01600130 IEM_DS3505
ZGGG,2001-03-13 00:00,ZGGG 130000Z AUTO 11002KT 6SM 15/13 A3015 RMK SLP216 T01510126 52012 IEM_DS3505
ZGGG,2001-03-13 01:00,ZGGG 130100Z AUTO 14006KT 3SM 17/10 A3015 RMK T01700100 IEM_DS3505
ZGGG,2001-03-13 02:00,ZGGG 130200Z AUTO 36002KT 7SM 19/10 A3015 RMK T01900100 IEM_DS3505
ZGGG,2001-03-13 03:00,ZGGG 130300Z AUTO 16006KT 7SM 20/10 A3015 RMK SLP214 T02000104 57002 IEM_DS3505
ZGGG,2001-03-13 04:00,ZGGG 130400Z AUTO 17006KT 5SM 21/06 A3015 RMK T02100060 IEM_DS3505
ZGGG,2001-03-13 05:00,ZGGG 130500Z AUTO 10004KT 23/09 A3009 RMK T02300090 IEM_DS3505
ZGGG,2001-03-13 06:00,ZGGG 130600Z AUTO 20004KT 8SM 22/10 A3006 RMK SLP191 T02230101 57023 IEM_DS3505
ZGGG,2001-03-13 07:00,ZGGG 130700Z AUTO 20006KT 5SM 23/08 A3003 RMK T02300080 IEM_DS3505
ZGGG,2001-03-13 08:00,ZGGG 130800Z AUTO 20008KT 5SM 23/09 A3003 RMK T02300090 IEM_DS3505
ZGGG,2001-03-13 09:00,ZGGG 130900Z AUTO 20006KT 9SM 23/09 A3003 RMK SLP175 T02270087 57016 IEM_DS3505
ZGGG,2001-03-13 10:00,ZGGG 131000Z AUTO 18008KT 5SM 22/09 A3003 RMK T02200090 IEM_DS3505
ZGGG,2001-03-13 11:00,ZGGG 131100Z AUTO 17006KT 5SM 21/09 A3003 RMK T02100090 IEM_DS3505
ZGGG,2001-03-13 12:00,ZGGG 131200Z AUTO 16004KT 9SM 20/09 A3006 RMK SLP188 T02030092 52013 IEM_DS3505
ZGGG,2001-03-13 13:00,ZGGG 131300Z AUTO 17006KT 5SM 21/09 A3006 RMK T02100090 IEM_DS3505
ZGGG,2001-03-13 14:00,ZGGG 131400Z AUTO 18006KT 5SM 20/10 A3006 RMK T02000100 IEM_DS3505
ZGGG,2001-03-13 15:00,ZGGG 131500Z AUTO 16004KT 9SM 19/10 A3006 RMK SLP185 T01880105 57002 IEM_DS3505
ZGGG,2001-03-13 16:00,ZGGG 131600Z AUTO 17006KT 6SM 19/11 A3006 RMK T01900110 IEM_DS3505
ZGGG,2001-03-13 17:00,ZGGG 131700Z AUTO 20004KT 6SM 19/11 A3003 RMK T01900110 IEM_DS3505
ZGGG,2001-03-13 18:00,ZGGG 131800Z AUTO 00000KT 9SM 17/13 A3003 RMK SLP178 T01720127 57007 IEM_DS3505
ZGGG,2001-03-13 19:00,ZGGG 131900Z AUTO 07002KT 7SM 18/12 A3006 RMK T01800120 IEM_DS3505
ZGGG,2001-03-13 20:00,ZGGG 132000Z AUTO 06002KT 7SM 17/12 A3003 RMK T01700120 IEM_DS3505
ZGGG,2001-03-13 21:00,ZGGG 132100Z AUTO 00000KT 6SM 17/13 A3003 RMK SLP180 T01740130 52002 IEM_DS3505
ZGGG,2001-03-13 22:00,ZGGG 132200Z AUTO 00000KT 7SM 18/12 A3006 RMK T01800120 IEM_DS3505
ZGGG,2001-03-13 23:00,ZGGG 132300Z AUTO 00000KT 4SM 18/13 A3009 RMK T01800130 IEM_DS3505
ZGGG,2001-03-14 00:00,ZGGG 140000Z AUTO 07002KT 6SM 18/14 A3009 RMK SLP197 T01760139 52016 IEM_DS3505
ZGGG,2001-03-14 01:00,ZGGG 140100Z AUTO 35004KT 2 1/2SM 18/13 A3009 RMK T01800130 IEM_DS3505
ZGGG,2001-03-14 02:00,ZGGG 140200Z AUTO 14002KT 2 1/2SM 18/13 A3012 RMK T01800130 IEM_DS3505
ZGGG,2001-03-14 03:00,ZGGG 140300Z AUTO 07006KT 7SM 19/14 A3009 RMK SLP201 T01880143 52004 IEM_DS3505
ZGGG,2001-03-14 04:00,ZGGG 140400Z AUTO 12004KT 3SM 20/16 A3009 RMK T02000160 IEM_DS3505
ZGGG,2001-03-14 05:00,ZGGG 140500Z AUTO 14004KT 3SM 22/16 A3006 RMK T02200160 IEM_DS3505
ZGGG,2001-03-14 06:00,ZGGG 140600Z AUTO 14004KT 6SM 23/16 A3003 RMK 60000 SLP178 T02310164 57022 IEM_DS3505
ZGGG,2001-03-14 07:00,ZGGG 140700Z AUTO 18006KT 3SM 23/17 A3000 RMK T02300170 IEM_DS3505
ZGGG,2001-03-14 08:00,ZGGG 140800Z AUTO 17006KT 5SM 23/17 A3000 RMK T02300170 IEM_DS3505
ZGGG,2001-03-14 09:00,ZGGG 140900Z AUTO 18004KT 7SM 23/18 A3000 RMK SLP166 T02320178 57012 IEM_DS3505
ZGGG,2001-03-14 10:00,ZGGG 141000Z AUTO 17004KT 4SM 22/17 A3000 RMK T02200170 IEM_DS3505
ZGGG,2001-03-14 11:00,ZGGG 141100Z AUTO 19002KT 5SM 22/17 A3003 RMK T02200170 IEM_DS3505
ZGGG,2001-03-14 12:00,ZGGG 141200Z AUTO 00000KT 7SM 21/18 A3006 RMK SLP183 T02140185 52017 IEM_DS3505
ZGGG,2001-03-14 13:00,ZGGG 141300Z AUTO 17004KT 4SM 22/18 A3006 RMK T02200180 IEM_DS3505
ZGGG,2001-03-14 14:00,ZGGG 141400Z AUTO 14002KT 4SM 22/18 A3006 RMK T02200180 IEM_DS3505
ZGGG,2001-03-14 15:00,ZGGG 141500Z AUTO 00000KT 6SM 21/18 A3009 RMK SLP194 T02080182 52011 IEM_DS3505
ZGGG,2001-03-14 16:00,ZGGG 141600Z AUTO 00000KT 2 1/2SM 21/18 A3006 RMK T02100180 IEM_DS3505
ZGGG,2001-03-14 17:00,ZGGG 141700Z AUTO 00000KT 2 1/2SM 20/18 A3006 RMK T02000180 IEM_DS3505
ZGGG,2001-03-14 18:00,ZGGG 141800Z AUTO 00000KT 4SM 19/18 A3003 RMK SLP178 T01900175 57016 IEM_DS3505
ZGGG,2001-03-14 19:00,ZGGG 141900Z AUTO 00000KT 2 1/2SM 19/17 A3003 RMK T01900170 IEM_DS3505
ZGGG,2001-03-14 20:00,ZGGG 142000Z AUTO 03002KT 2 1/2SM 18/17 A3003 RMK T01800170 IEM_DS3505
ZGGG,2001-03-14 21:00,ZGGG 142100Z AUTO 00000KT 5SM 18/17 A3000 RMK 70000 SLP171 T01830173 57007 IEM_DS3505
ZGGG,2001-03-14 22:00,ZGGG 142200Z AUTO 00000KT 2 1/2SM 18/17 A3003 RMK T01800170 IEM_DS3505
ZGGG,2001-03-14 23:00,ZGGG 142300Z AUTO 09002KT 1 1/2SM 19/18 A3003 RMK T01900180 IEM_DS3505
ZGGG,2001-03-15 00:00,ZGGG 150000Z AUTO 00000KT 7SM 19/18 A3003 RMK 70000 SLP180 T01910178 52009 IEM_DS3505
ZGGG,2001-03-15 01:00,ZGGG 150100Z AUTO 20004KT 2 1/2SM 22/17 A3003 RMK T02200170 IEM_DS3505
ZGGG,2001-03-15 02:00,ZGGG 150200Z AUTO 20006KT 3SM 24/18 A3006 RMK T02400180 IEM_DS3505
ZGGG,2001-03-15 03:00,ZGGG 150300Z AUTO 20004KT 5SM 25/17 A3003 RMK SLP178 T02480166 57002 IEM_DS3505
ZGGG,2001-03-15 04:00,ZGGG 150400Z AUTO 20006KT 26/17 A3000 RMK T02600170 IEM_DS3505
ZGGG,2001-03-15 05:00,ZGGG 150500Z AUTO 25004KT 3SM 26/17 A2997 RMK T02600170 IEM_DS3505
ZGGG,2001-03-15 06:00,ZGGG 150600Z AUTO 20002KT 6SM 27/18 A2994 RMK SLP146 T02740175 57032 IEM_DS3505
ZGGG,2001-03-15 07:00,ZGGG 150700Z AUTO 36006KT 2SM 26/18 A2991 RMK T02600180 IEM_DS3505
ZGGG,2001-03-15 08:00,ZGGG 150800Z AUTO 34004KT 1 1/2SM 25/19 A2991 RMK T02500190 IEM_DS3505
ZGGG,2001-03-15 09:00,ZGGG 150900Z AUTO 22004KT 6SM 27/18 A2988 RMK SLP129 T02700177 57017 IEM_DS3505
ZGGG,2001-03-15 10:00,ZGGG 151000Z AUTO 20004KT 2SM 26/19 A2988 RMK T02600190 IEM_DS3505
ZGGG,2001-03-15 11:00,ZGGG 151100Z AUTO 16006KT 3SM 25/18 A2988 RMK T02500180 IEM_DS3505
ZGGG,2001-03-15 12:00,ZGGG 151200Z AUTO 16004KT 6SM 24/16 A2991 RMK SLP137 T02390155 52008 IEM_DS3505
ZGGG,2001-03-15 13:00,ZGGG 151300Z AUTO 15006KT 6SM 24/17 A2991 RMK T02400170 IEM_DS3505
ZGGG,2001-03-15 14:00,ZGGG 151400Z AUTO 16006KT 6SM 23/17 A2994 RMK T02300170 IEM_DS3505
ZGGG,2001-03-15 15:00,ZGGG 151500Z AUTO 16006KT 8SM 22/18 A2994 RMK SLP151 T02190179 52014 IEM_DS3505
ZGGG,2001-03-15 16:00,ZGGG 151600Z AUTO 17006KT 6SM 22/18 A2994 RMK T02200180 IEM_DS3505
ZGGG,2001-03-15 17:00,ZGGG 151700Z AUTO 18004KT 6SM 22/18 A2997 RMK T02200180 IEM_DS3505
ZGGG,2001-03-15 18:00,ZGGG 151800Z AUTO 16006KT 7SM 21/18 A2994 RMK SLP151 T02090180 54000 IEM_DS3505
ZGGG,2001-03-15 19:00,ZGGG 151900Z AUTO 16006KT 6SM 21/18 A2991 RMK T02100180 IEM_DS3505
ZGGG,2001-03-15 20:00,ZGGG 152000Z AUTO 15006KT 7SM 21/18 A2991 RMK T02100180 IEM_DS3505
ZGGG,2001-03-15 21:00,ZGGG 152100Z AUTO 00000KT 7SM 21/19 A2991 RMK SLP139 T02080192 57011 IEM_DS3505
ZGGG,2001-03-15 22:00,ZGGG 152200Z AUTO 15002KT 3SM 21/19 A2991 RMK T02100190 IEM_DS3505
ZGGG,2001-03-15 23:00,ZGGG 152300Z AUTO 17004KT 1 1/2SM 21/19 A2994 RMK T02100190 IEM_DS3505
ZGGG,2001-03-16 00:00,ZGGG 160000Z AUTO 16002KT 5SM 21/20 A2994 RMK 60003 SLP148 T02090195 52008 IEM_DS3505
ZGGG,2001-03-16 01:00,ZGGG 160100Z AUTO 17006KT 1 1/2SM 22/20 A2994 RMK T02200200 IEM_DS3505
ZGGG,2001-03-16 02:00,ZGGG 160200Z AUTO 16004KT 1 1/2SM 22/20 A2994 RMK T02200200 IEM_DS3505
ZGGG,2001-03-16 03:00,ZGGG 160300Z AUTO 00000KT 2 1/2SM 22/20 A2991 RMK SLP143 T02240199 57005 IEM_DS3505
ZGGG,2001-03-16 04:00,ZGGG 160400Z AUTO 14008KT 2 1/2SM 25/20 A2988 RMK T02500200 IEM_DS3505
ZGGG,2001-03-16 05:00,ZGGG 160500Z AUTO 16008KT 4SM 24/19 A2985 RMK T02400190 IEM_DS3505
ZGGG,2001-03-16 06:00,ZGGG 160600Z AUTO 11008KT 9SM 25/20 A2983 RMK 60003 SLP108 T02500195 57034 IEM_DS3505
ZGGG,2001-03-16 07:00,ZGGG 160700Z AUTO 11006KT 5SM 25/20 A2980 RMK T02500200 IEM_DS3505
ZGGG,2001-03-16 08:00,ZGGG 160800Z AUTO 13008KT 7SM 26/20 A2977 RMK T02600200 IEM_DS3505
ZGGG,2001-03-16 09:00,ZGGG 160900Z AUTO 16006KT 11SM 25/19 A2977 RMK SLP089 T02540191 57019 IEM_DS3505
ZGGG,2001-03-16 10:00,ZGGG 161000Z AUTO 15008KT 7SM 25/19 A2977 RMK T02500190 IEM_DS3505
ZGGG,2001-03-16 11:00,ZGGG 161100Z AUTO 15008KT 6SM 24/18 A2977 RMK T02400180 IEM_DS3505
ZGGG,2001-03-16 12:00,ZGGG 161200Z AUTO 16008KT 9SM 23/19 A2977 RMK SLP094 T02310187 52004 IEM_DS3505
ZGGG,2001-03-16 13:00,ZGGG 161300Z AUTO 16008KT 6SM 23/19 A2980 RMK T02300190 IEM_DS3505
ZGGG,2001-03-16 14:00,ZGGG 161400Z AUTO 16010KT 6SM 22/19 A2983 RMK T02200190 IEM_DS3505
ZGGG,2001-03-16 15:00,ZGGG 161500Z AUTO 16002KT 7SM 22/20 A2985 RMK SLP119 T02190196 52025 IEM_DS3505
ZGGG,2001-03-16 16:00,ZGGG 161600Z AUTO 17006KT 4SM 22/19 A2985 RMK T02200190 IEM_DS3505
ZGGG,2001-03-16 17:00,ZGGG 161700Z AUTO 17006KT 4SM 22/19 A2988 RMK T02200190 IEM_DS3505
ZGGG,2001-03-16 18:00,ZGGG 161800Z AUTO 16002KT 3SM 22/20 A2985 RMK SLP125 T02150198 52006 IEM_DS3505
ZGGG,2001-03-16 19:00,ZGGG 161900Z AUTO 16006KT 3SM 22/19 A2985 RMK T02200190 IEM_DS3505
ZGGG,2001-03-16 20:00,ZGGG 162000Z AUTO 15006KT 3SM 22/20 A2983 RMK T02200200 IEM_DS3505
ZGGG,2001-03-16 21:00,ZGGG 162100Z AUTO 11002KT 1 1/2SM 21/20 A2983 RMK 70003 SLP111 T02110197 57013 IEM_DS3505
ZGGG,2001-03-16 22:00,ZGGG 162200Z AUTO 15004KT 2 1/2SM 22/20 A2985 RMK T02200200 IEM_DS3505
ZGGG,2001-03-16 23:00,ZGGG 162300Z AUTO 07002KT 1 1/2SM 22/20 A2988 RMK T02200200 IEM_DS3505
ZGGG,2001-03-17 00:00,ZGGG 170000Z AUTO 11004KT 1 1/2SM 21/20 A2988 RMK 70003 SLP131 T02120196 52019 IEM_DS3505
ZGGG,2001-03-17 01:00,ZGGG 170100Z AUTO 16004KT 1 1/2SM 22/19 A2988 RMK T02200190 IEM_DS3505
ZGGG,2001-03-17 02:00,ZGGG 170200Z AUTO 17004KT 1 1/2SM 23/19 A2991 RMK T02300190 IEM_DS3505
ZGGG,2001-03-17 03:00,ZGGG 170300Z AUTO 11004KT 6SM 24/20 A2991 RMK SLP139 T02420199 52008 IEM_DS3505
ZGGG,2001-03-17 04:00,ZGGG 170400Z AUTO 16006KT 2 1/2SM 26/20 A2991 RMK T02600200 IEM_DS3505
ZGGG,2001-03-17 05:00,ZGGG 170500Z AUTO 16004KT 3SM 26/19 A2988 RMK T02600190 IEM_DS3505
ZGGG,2001-03-17 06:00,ZGGG 170600Z AUTO 16002KT 9SM 26/20 A2985 RMK SLP114 T02620201 57024 IEM_DS3505
ZGGG,2001-03-17 07:00,ZGGG 170700Z AUTO 16004KT 3SM 27/20 A2983 RMK T02700200 IEM_DS3505
ZGGG,2001-03-17 08:00,ZGGG 170800Z AUTO 16004KT 3SM 27/19 A2983 RMK T02700190 IEM_DS3505
ZGGG,2001-03-17 09:00,ZGGG 170900Z AUTO 00000KT 9SM 27/20 A2983 RMK SLP104 T02700195 57010 IEM_DS3505
ZGGG,2001-03-17 10:00,ZGGG 171000Z AUTO 13004KT 2 1/2SM 26/20 A2983 RMK T02600200 IEM_DS3505
ZGGG,2001-03-17 11:00,ZGGG 171100Z AUTO 13002KT 3SM 26/21 A2983 RMK T02600210 IEM_DS3505
ZGGG,2001-03-17 12:00,ZGGG 171200Z AUTO 11002KT 8SM 25/20 A2985 RMK SLP119 T02460205 52014 IEM_DS3505
ZGGG,2001-03-17 13:00,ZGGG 171300Z AUTO 01008KT 2 1/2SM 22/18 A2988 RMK T02200180 IEM_DS3505
ZGGG,2001-03-17 14:00,ZGGG 171400Z AUTO 03010KT 4SM 20/16 A2991 RMK T02000160 IEM_DS3505
ZGGG,2001-03-17 15:00,ZGGG 171500Z AUTO 34006KT 7SM 20/16 A2994 RMK SLP140 T01990161 52021 IEM_DS3505
ZGGG,2001-03-17 16:00,ZGGG 171600Z AUTO 36012KT 4SM 19/15 A2994 RMK T01900150 IEM_DS3505
ZGGG,2001-03-17 17:00,ZGGG 171700Z AUTO 01010KT 6SM 18/14 A2994 RMK T01800140 IEM_DS3505
ZGGG,2001-03-17 18:00,ZGGG 171800Z AUTO 34006KT 6SM 18/15 A2994 RMK SLP139 T01840148 57001 IEM_DS3505
ZGGG,2001-03-17 19:00,ZGGG 171900Z AUTO 36010KT 7SM 18/14 A2994 RMK T01800140 IEM_DS3505
ZGGG,2001-03-17 20:00,ZGGG 172000Z AUTO 36010KT 7SM 17/13 A2991 RMK T01700130 IEM_DS3505
ZGGG,2001-03-17 21:00,ZGGG 172100Z AUTO 34008KT 8SM 18/14 A2994 RMK SLP145 T01790139 52006 IEM_DS3505
ZGGG,2001-03-17 22:00,ZGGG 172200Z AUTO 36008KT 7SM 18/13 A2997 RMK T01800130 IEM_DS3505
ZGGG,2001-03-17 23:00,ZGGG 172300Z AUTO 36008KT 7SM 17/13 A3000 RMK T01700130 IEM_DS3505
ZGGG,2001-03-18 00:00,ZGGG 180000Z AUTO 34004KT 9SM 18/13 A3003 RMK SLP172 T01790133 52027 IEM_DS3505
ZGGG,2001-03-18 01:00,ZGGG 180100Z AUTO 36006KT 5SM 18/13 A3003 RMK T01800130 IEM_DS3505
ZGGG,2001-03-18 02:00,ZGGG 180200Z AUTO 35006KT 5SM 19/14 A3006 RMK T01900140 IEM_DS3505
ZGGG,2001-03-18 03:00,ZGGG 180300Z AUTO 02006KT 11SM 21/14 A3003 RMK SLP179 T02070138 52007 IEM_DS3505
ZGGG,2001-03-18 04:00,ZGGG 180400Z AUTO 01008KT 7SM 23/15 A3000 RMK T02300150 IEM_DS3505
ZGGG,2001-03-18 05:00,ZGGG 180500Z AUTO 02006KT 7SM 23/15 A3000 RMK T02300150 IEM_DS3505
ZGGG,2001-03-18 06:00,ZGGG 180600Z AUTO 22002KT 11SM 25/16 A2994 RMK SLP160 T02520155 57019 IEM_DS3505
ZGGG,2001-03-18 07:00,ZGGG 180700Z AUTO 30004KT 6SM 25/16 A2991 RMK T02500160 IEM_DS3505
ZGGG,2001-03-18 08:00,ZGGG 180800Z AUTO 30006KT 5SM 26/16 A2991 RMK T02600160 IEM_DS3505
ZGGG,2001-03-18 09:00,ZGGG 180900Z AUTO 29004KT 7SM 26/18 A2991 RMK SLP135 T02620175 57025 IEM_DS3505
ZGGG,2001-03-18 10:00,ZGGG 181000Z AUTO 32004KT 3SM 24/17 A2991 RMK T02400170 IEM_DS3505
ZGGG,2001-03-18 11:00,ZGGG 181100Z AUTO 30004KT 3SM 23/16 A2994 RMK T02300160 IEM_DS3505
ZGGG,2001-03-18 12:00,ZGGG 181200Z AUTO 29002KT 7SM 23/17 A2994 RMK SLP149 T02260169 52014 IEM_DS3505
ZGGG,2001-03-18 13:00,ZGGG 181300Z AUTO 00000KT 4SM 22/17 A2997 RMK T02200170 IEM_DS3505
ZGGG,2001-03-18 14:00,ZGGG 181400Z AUTO 00000KT 22/16 A2997 RMK T02200160 IEM_DS3505
ZGGG,2001-03-18 15:00,ZGGG 181500Z AUTO 16004KT 6SM 22/19 A2997 RMK SLP163 T02240191 52014 IEM_DS3505
ZGGG,2001-03-18 16:00,ZGGG 181600Z AUTO 17004KT 3SM 23/19 A3000 RMK T02300190 IEM_DS3505
ZGGG,2001-03-18 17:00,ZGGG 181700Z AUTO 17010KT 4SM 22/19 A2997 RMK T02200190 IEM_DS3505
ZGGG,2001-03-18 18:00,ZGGG 181800Z AUTO 16006KT 6SM 22/19 A2997 RMK SLP156 T02160189 57007 IEM_DS3505
ZGGG,2001-03-18 19:00,ZGGG 181900Z AUTO 20004KT 3SM 21/18 A2994 RMK T02100180 IEM_DS3505
ZGGG,2001-03-18 20:00,ZGGG 182000Z AUTO 20004KT 4SM 22/19 A2994 RMK T02200190 IEM_DS3505
ZGGG,2001-03-18 21:00,ZGGG 182100Z AUTO 00000KT 6SM 21/19 A2994 RMK SLP150 T02130186 57006 IEM_DS3505
ZGGG,2001-03-18 22:00,ZGGG 182200Z AUTO 17006KT 4SM 21/18 A2994 RMK T02100180 IEM_DS3505
ZGGG,2001-03-18 23:00,ZGGG 182300Z AUTO 19004KT 2 1/2SM 21/18 A2997 RMK T02100180 IEM_DS3505
ZGGG,2001-03-19 00:00,ZGGG 190000Z AUTO 11004KT 7SM 21/18 A3000 RMK SLP163 T02120180 52013 IEM_DS3505
ZGGG,2001-03-19 01:00,ZGGG 190100Z AUTO 17006KT 3SM 22/18 A3000 RMK T02200180 IEM_DS3505
ZGGG,2001-03-19 02:00,ZGGG 190200Z AUTO 20004KT 3SM 23/19 A3000 RMK T02300190 IEM_DS3505
ZGGG,2001-03-19 03:00,ZGGG 190300Z AUTO 16004KT 7SM 24/19 A3000 RMK SLP163 T02440193 54000 IEM_DS3505
ZGGG,2001-03-19 04:00,ZGGG 190400Z AUTO 17006KT 2 1/2SM 24/19 A2997 RMK T02400190 IEM_DS3505
ZGGG,2001-03-19 05:00,ZGGG 190500Z AUTO 17006KT 2 1/2SM 24/19 A2994 RMK T02400190 IEM_DS3505
ZGGG,2001-03-19 06:00,ZGGG 190600Z AUTO 20004KT 6SM 25/20 A2991 RMK SLP138 T02500198 57025 IEM_DS3505
ZGGG,2001-03-19 07:00,ZGGG 190700Z AUTO 17006KT 3SM 25/19 A2988 RMK T02500190 IEM_DS3505
ZGGG,2001-03-19 08:00,ZGGG 190800Z AUTO 15004KT 2 1/2SM 25/20 A2988 RMK T02500200 IEM_DS3505
ZGGG,2001-03-19 09:00,ZGGG 190900Z AUTO 16004KT 7SM 25/20 A2988 RMK SLP126 T02480199 57012 IEM_DS3505
ZGGG,2001-03-19 10:00,ZGGG 191000Z AUTO 15004KT 2 1/2SM 25/20 A2988 RMK T02500200 IEM_DS3505
ZGGG,2001-03-19 11:00,ZGGG 191100Z AUTO 16004KT 3SM 24/20 A2988 RMK T02400200 IEM_DS3505
ZGGG,2001-03-19 12:00,ZGGG 191200Z AUTO 18002KT 5SM 24/20 A2991 RMK SLP138 T02390204 52012 IEM_DS3505
ZGGG,2001-03-19 13:00,ZGGG 191300Z AUTO 16006KT 4SM 24/21 A2991 RMK T02400210 IEM_DS3505
ZGGG,2001-03-19 14:00,ZGGG 191400Z AUTO 19008KT 4SM 24/21 A2994 RMK T02400210 IEM_DS3505
ZGGG,2001-03-19 15:00,ZGGG 191500Z AUTO 18002KT 6SM 23/20 A2994 RMK SLP149 T02300202 52011 IEM_DS3505
ZGGG,2001-03-19 16:00,ZGGG 191600Z AUTO 17006KT 3SM 23/20 A2994 RMK T02300200 IEM_DS3505
ZGGG,2001-03-19 17:00,ZGGG 191700Z AUTO 16008KT 3SM 23/20 A2991 RMK T02300200 IEM_DS3505
ZGGG,2001-03-19 18:00,ZGGG 191800Z AUTO 16004KT 5SM 22/20 A2991 RMK SLP139 T02180199 57010 IEM_DS3505
ZGGG,2001-03-19 19:00,ZGGG 191900Z AUTO 18006KT 2 1/2SM 22/20 A2991 RMK T02200200 IEM_DS3505
ZGGG,2001-03-19 20:00,ZGGG 192000Z AUTO 17006KT 2SM 22/20 A2988 RMK T02200200 IEM_DS3505
ZGGG,2001-03-19 21:00,ZGGG 192100Z AUTO 16004KT 5SM 22/20 A2988 RMK SLP128 T02160204 57011 IEM_DS3505
ZGGG,2001-03-19 22:00,ZGGG 192200Z AUTO 17006KT 2SM 22/21 A2988 RMK T02200210 IEM_DS3505
ZGGG,2001-03-19 23:00,ZGGG 192300Z AUTO 16004KT 1 1/4SM 22/21 A2991 RMK T02200210 IEM_DS3505
ZGGG,2001-03-20 00:00,ZGGG 200000Z AUTO 14004KT 4SM 22/21 A2988 RMK 60002 SLP136 T02170206 52008 IEM_DS3505
ZGGG,2001-03-20 01:00,ZGGG 200100Z AUTO 20004KT 1 1/2SM 22/21 A2991 RMK T02200210 IEM_DS3505
ZGGG,2001-03-20 02:00,ZGGG 200200Z AUTO 18006KT 1 1/4SM 23/21 A2991 RMK T02300210 IEM_DS3505
ZGGG,2001-03-20 03:00,ZGGG 200300Z AUTO 20002KT 2SM 23/21 A2991 RMK SLP142 T02340214 52006 IEM_DS3505
ZGGG,2001-03-20 04:00,ZGGG 200400Z AUTO 21008KT 1 1/2SM 24/21 A2988 RMK T02400210 IEM_DS3505
ZGGG,2001-03-20 05:00,ZGGG 200500Z AUTO 24006KT 1 1/2SM 24/22 A2988 RMK T02400220 IEM_DS3505
ZGGG,2001-03-20 06:00,ZGGG 200600Z AUTO 29002KT 2 1/2SM 24/22 A2985 RMK 60000 SLP117 T02380217 57025 IEM_DS3505
ZGGG,2001-03-20 07:00,ZGGG 200700Z AUTO 05004KT 2 1/2SM 21/21 A2985 RMK T02100210 IEM_DS3505
ZGGG,2001-03-20 08:00,ZGGG 200800Z AUTO 01008KT 7SM 21/19 A2983 RMK T02100190 IEM_DS3505
ZGGG,2001-03-20 09:00,ZGGG 200900Z AUTO 34004KT 9SM 21/20 A2983 RMK SLP111 T02100196 57006 IEM_DS3505
ZGGG,2001-03-20 10:00,ZGGG 201000Z AUTO 01004KT 7SM 21/18 A2985 RMK T02100180 IEM_DS3505
ZGGG,2001-03-20 11:00,ZGGG 201100Z AUTO 36006KT 6SM 21/18 A2985 RMK T02100180 IEM_DS3505
ZGGG,2001-03-20 12:00,ZGGG 201200Z AUTO 34004KT 9SM 20/18 A2988 RMK 60091 SLP124 T01950182 52013 IEM_DS3505
ZGGG,2001-03-20 13:00,ZGGG 201300Z AUTO 36006KT 7SM 19/17 A2988 RMK T01900170 IEM_DS3505
ZGGG,2001-03-20 14:00,ZGGG 201400Z AUTO 01006KT 7SM 19/17 A2991 RMK T01900170 IEM_DS3505
ZGGG,2001-03-20 15:00,ZGGG 201500Z AUTO 34006KT 11SM 18/16 A2991 RMK SLP140 T01800160 52016 IEM_DS3505
ZGGG,2001-03-20 16:00,ZGGG 201600Z AUTO 36006KT 6SM 19/16 A2991 RMK T01900160 IEM_DS3505
ZGGG,2001-03-20 17:00,ZGGG 201700Z AUTO 36008KT 6SM 18/15 A2991 RMK T01800150 IEM_DS3505
ZGGG,2001-03-20 18:00,ZGGG 201800Z AUTO 00000KT 10SM 17/15 A2988 RMK SLP131 T01720148 57009 IEM_DS3505
ZGGG,2001-03-20 19:00,ZGGG 201900Z AUTO 36004KT 6SM 18/14 A2988 RMK T01800140 IEM_DS3505
ZGGG,2001-03-20 20:00,ZGGG 202000Z AUTO 36004KT 6SM 17/14 A2988 RMK T01700140 IEM_DS3505
ZGGG,2001-03-20 21:00,ZGGG 202100Z AUTO 02002KT 9SM 16/15 A2988 RMK 70093 SLP126 T01620146 57005 IEM_DS3505
ZGGG,2001-03-20 22:00,ZGGG 202200Z AUTO 00000KT 4SM 15/14 A2988 RMK T01500140 IEM_DS3505
ZGGG,2001-03-20 23:00,ZGGG 202300Z AUTO 00000KT 4SM 15/14 A2991 RMK T01500140 IEM_DS3505
ZGGG,2001-03-21 00:00,ZGGG 210000Z AUTO 34002KT 9SM 17/15 A2994 RMK 70091 SLP146 T01710147 52020 IEM_DS3505
ZGGG,2001-03-21 01:00,ZGGG 210100Z AUTO 03006KT 4SM 19/14 A2994 RMK T01900140 IEM_DS3505
ZGGG,2001-03-21 02:00,ZGGG 210200Z AUTO 04006KT 6SM 21/15 A2997 RMK T02100150 IEM_DS3505
ZGGG,2001-03-21 03:00,ZGGG 210300Z AUTO 34004KT 10SM 22/15 A2997 RMK SLP151 T02230151 52005 IEM_DS3505
ZGGG,2001-03-21 04:00,ZGGG 210400Z AUTO 03006KT 6SM 23/12 A2994 RMK T02300120 IEM_DS3505
ZGGG,2001-03-21 05:00,ZGGG 210500Z AUTO 03008KT 6SM 24/12 A2988 RMK T02400120 IEM_DS3505
ZGGG,2001-03-21 06:00,ZGGG 210600Z AUTO 25002KT 12SM 26/15 A2985 RMK SLP119 T02570148 57032 IEM_DS3505
ZGGG,2001-03-21 07:00,ZGGG 210700Z AUTO 32004KT 6SM 26/13 A2983 RMK T02600130 IEM_DS3505
ZGGG,2001-03-21 08:00,ZGGG 210800Z AUTO 31004KT 6SM 27/12 A2980 RMK T02700120 IEM_DS3505
ZGGG,2001-03-21 09:00,ZGGG 210900Z AUTO 25002KT 11SM 27/14 A2980 RMK SLP100 T02720139 57019 IEM_DS3505
ZGGG,2001-03-21 10:00,ZGGG 211000Z AUTO 28004KT 26/12 A2980 RMK T02600120 IEM_DS3505
ZGGG,2001-03-21 11:00,ZGGG 211100Z AUTO 00000KT 3SM 24/12 A2980 RMK T02400120 IEM_DS3505
ZGGG,2001-03-21 12:00,ZGGG 211200Z AUTO 00000KT 8SM 22/15 A2980 RMK SLP103 T02170152 52003 IEM_DS3505
ZGGG,2001-03-21 13:00,ZGGG 211300Z AUTO 00000KT 3SM 22/14 A2983 RMK T02200140 IEM_DS3505
ZGGG,2001-03-21 14:00,ZGGG 211400Z AUTO 00000KT 2 1/2SM 21/15 A2983 RMK T02100150 IEM_DS3505
ZGGG,2001-03-21 15:00,ZGGG 211500Z AUTO 00000KT 5SM 19/17 A2985 RMK SLP114 T01910166 52011 IEM_DS3505
ZGGG,2001-03-21 16:00,ZGGG 211600Z AUTO 00000KT 2 1/2SM 21/15 A2985 RMK T02100150 IEM_DS3505
ZGGG,2001-03-21 17:00,ZGGG 211700Z AUTO 19004KT 2 1/2SM 21/16 A2983 RMK T02100160 IEM_DS3505
ZGGG,2001-03-21 18:00,ZGGG 211800Z AUTO 00000KT 2SM 19/17 A2983 RMK SLP106 T01860168 57008 IEM_DS3505
ZGGG,2001-03-21 19:00,ZGGG 211900Z AUTO 17008KT 2SM 20/16 A2980 RMK T02000160 IEM_DS3505
ZGGG,2001-03-21 20:00,ZGGG 212000Z AUTO 17004KT 2SM 20/17 A2980 RMK T02000170 IEM_DS3505
ZGGG,2001-03-21 21:00,ZGGG 212100Z AUTO 00000KT 1 1/2SM 18/17 A2983 RMK SLP104 T01820169 57002 IEM_DS3505
ZGGG,2001-03-21 22:00,ZGGG 212200Z AUTO 07004KT 2SM 18/16 A2983 RMK T01800160 IEM_DS3505
ZGGG,2001-03-21 23:00,ZGGG 212300Z AUTO 05002KT 1SM 19/17 A2985 RMK T01900170 IEM_DS3505
ZGGG,2001-03-22 00:00,ZGGG 220000Z AUTO 11004KT 5SM 19/17 A2988 RMK SLP127 T01940171 52023 IEM_DS3505
ZGGG,2001-03-22 01:00,ZGGG 220100Z AUTO 15006KT 1 1/2SM 22/18 A2988 RMK T02200180 IEM_DS3505
ZGGG,2001-03-22 02:00,ZGGG 220200Z AUTO 36002KT 1 1/2SM 22/17 A2988 RMK T02200170 IEM_DS3505
ZGGG,2001-03-22 03:00,ZGGG 220300Z AUTO 11006KT 4SM 22/16 A2985 RMK SLP125 T02240162 57002 IEM_DS3505
ZGGG,2001-03-22 04:00,ZGGG 220400Z AUTO 15006KT 2 1/2SM 25/17 A2985 RMK T02500170 IEM_DS3505
ZGGG,2001-03-22 05:00,ZGGG 220500Z AUTO 17006KT 2SM 26/18 A2983 RMK T02600180 IEM_DS3505
ZGGG,2001-03-22 06:00,ZGGG 220600Z AUTO 14004KT 7SM 26/18 A2980 RMK SLP096 T02620179 57029 IEM_DS3505
ZGGG,2001-03-22 07:00,ZGGG 220700Z AUTO 16010KT 3SM 27/19 A2977 RMK T02700190 IEM_DS3505
ZGGG,2001-03-22 08:00,ZGGG 220800Z AUTO 15008KT 3SM 26/19 A2974 RMK T02600190 IEM_DS3505
ZGGG,2001-03-22 09:00,ZGGG 220900Z AUTO 16006KT 7SM 26/20 A2977 RMK SLP086 T02560196 57010 IEM_DS3505
ZGGG,2001-03-22 10:00,ZGGG 221000Z AUTO 16008KT 2 1/2SM 25/20 A2977 RMK T02500200 IEM_DS3505
ZGGG,2001-03-22 11:00,ZGGG 221100Z AUTO 16008KT 3SM 24/21 A2977 RMK T02400210 IEM_DS3505
ZGGG,2001-03-22 12:00,ZGGG 221200Z AUTO 16004KT 6SM 23/20 A2977 RMK SLP095 T02330199 52009 IEM_DS3505
ZGGG,2001-03-22 13:00,ZGGG 221300Z AUTO 16008KT 4SM 23/21 A2980 RMK T02300210 IEM_DS3505
ZGGG,2001-03-22 14:00,ZGGG 221400Z AUTO 16008KT 3SM 23/20 A2983 RMK T02300200 IEM_DS3505
ZGGG,2001-03-22 15:00,ZGGG 221500Z AUTO 16006KT 7SM 23/21 A2983 RMK SLP111 T02270207 52016 IEM_DS3505
ZGGG,2001-03-22 17:00,ZGGG 221700Z AUTO 16008KT 2 1/2SM 23/21 A2983 RMK T02300210 IEM_DS3505
ZGGG,2001-03-22 18:00,ZGGG 221800Z AUTO 14006KT 6SM 22/21 RMK SLP101 T02250208 57009 IEM_DS3505
ZGGG,2001-03-22 21:00,ZGGG 222100Z AUTO 16004KT 2SM 22/21 A2980 RMK SLP098 T02240209 57003 IEM_DS3505
ZGGG,2001-03-22 22:00,ZGGG 222200Z AUTO 16004KT 2SM 23/21 A2980 RMK T02300210 IEM_DS3505
ZGGG,2001-03-22 23:00,ZGGG 222300Z AUTO 15006KT 1SM 23/21 A2980 RMK T02300210 IEM_DS3505
ZGGG,2001-03-23 00:00,ZGGG 230000Z AUTO 11004KT 1SM 22/21 A2983 RMK SLP107 T02220207 52008 IEM_DS3505
ZGGG,2001-03-23 01:00,ZGGG 230100Z AUTO 16006KT 1SM 23/21 A2983 RMK T02300210 IEM_DS3505
ZGGG,2001-03-23 02:00,ZGGG 230200Z AUTO 16008KT 1 1/4SM 25/22 A2985 RMK T02500220 IEM_DS3505
ZGGG,2001-03-23 03:00,ZGGG 230300Z AUTO 20006KT 4SM 26/22 A2985 RMK SLP117 T02550219 52011 IEM_DS3505
ZGGG,2001-03-23 04:00,ZGGG 230400Z AUTO 16008KT 2 1/2SM 26/22 A2983 RMK T02600220 IEM_DS3505
ZGGG,2001-03-23 05:00,ZGGG 230500Z AUTO 16008KT 3SM 26/22 A2980 RMK T02600220 IEM_DS3505
ZGGG,2001-03-23 06:00,ZGGG 230600Z AUTO 16008KT 9SM 26/22 A2977 RMK SLP092 T02580218 57025 IEM_DS3505
ZGGG,2001-03-23 07:00,ZGGG 230700Z AUTO 16010KT 4SM 26/22 A2974 RMK T02600220 IEM_DS3505
ZGGG,2001-03-23 08:00,ZGGG 230800Z AUTO 17010KT 5SM 26/22 A2974 RMK T02600220 IEM_DS3505
ZGGG,2001-03-23 09:00,ZGGG 230900Z AUTO 16008KT 10SM 26/22 A2974 RMK SLP076 T02580216 57016 IEM_DS3505
ZGGG,2001-03-23 10:00,ZGGG 231000Z AUTO 16006KT 5SM 26/22 A2974 RMK T02600220 IEM_DS3505
ZGGG,2001-03-23 11:00,ZGGG 231100Z AUTO 17008KT 7SM 26/22 A2974 RMK T02600220 IEM_DS3505
ZGGG,2001-03-23 12:00,ZGGG 231200Z AUTO 16006KT 7SM 25/22 A2977 RMK 60003 SLP085 T02480221 52009 IEM_DS3505
ZGGG,2001-03-23 13:00,ZGGG 231300Z AUTO 16010KT 4SM 25/22 A2977 RMK T02500220 IEM_DS3505
ZGGG,2001-03-23 14:00,ZGGG 231400Z AUTO 16008KT 4SM 24/22 A2980 RMK T02400220 IEM_DS3505
ZGGG,2001-03-23 15:00,ZGGG 231500Z AUTO 14004KT 7SM 24/22 A2980 RMK SLP098 T02400219 52013 IEM_DS3505
ZGGG,2001-03-23 16:00,ZGGG 231600Z AUTO 15006KT 4SM 24/22 A2980 RMK T02400220 IEM_DS3505
ZGGG,2001-03-23 17:00,ZGGG 231700Z AUTO 15006KT 4SM 24/22 A2980 RMK T02400220 IEM_DS3505
ZGGG,2001-03-23 18:00,ZGGG 231800Z AUTO 11004KT 7SM 23/22 A2980 RMK SLP096 T02330221 57002 IEM_DS3505
ZGGG,2001-03-23 19:00,ZGGG 231900Z AUTO 17004KT 4SM 23/22 A2977 RMK T02300220 IEM_DS3505
ZGGG,2001-03-23 20:00,ZGGG 232000Z AUTO 15006KT 4SM 23/22 A2977 RMK T02300220 IEM_DS3505
ZGGG,2001-03-23 21:00,ZGGG 232100Z AUTO 11004KT 4SM 23/22 A2977 RMK 70003 SLP087 T02300221 57009 IEM_DS3505
ZGGG,2001-03-23 22:00,ZGGG 232200Z AUTO 15006KT 3SM 23/22 A2977 RMK T02300220 IEM_DS3505
ZGGG,2001-03-23 23:00,ZGGG 232300Z AUTO 15008KT 2 1/2SM 23/22 A2980 RMK T02300220 IEM_DS3505
ZGGG,2001-03-24 00:00,ZGGG 240000Z AUTO 16004KT 2SM 24/22 A2980 RMK 70003 SLP095 T02350222 52008 IEM_DS3505
ZGGG,2001-03-24 01:00,ZGGG 240100Z AUTO 16008KT 3SM 25/22 A2980 RMK T02500220 IEM_DS3505
ZGGG,2001-03-24 02:00,ZGGG 240200Z AUTO 16008KT 4SM 26/22 A2980 RMK T02600220 IEM_DS3505
ZGGG,2001-03-24 03:00,ZGGG 240300Z AUTO 20004KT 7SM 26/22 A2980 RMK SLP099 T02630222 52004 IEM_DS3505
ZGGG,2001-03-24 04:00,ZGGG 240400Z AUTO 17008KT 7SM 28/21 A2977 RMK T02800210 IEM_DS3505
ZGGG,2001-03-24 05:00,ZGGG 240500Z AUTO 20010KT 7SM 29/21 A2974 RMK T02900210 IEM_DS3505
ZGGG,2001-03-24 06:00,ZGGG 240600Z AUTO 14006KT 6SM 28/23 A2971 RMK SLP068 T02760226 57031 IEM_DS3505
ZGGG,2001-03-24 07:00,ZGGG 240700Z AUTO 14006KT 7SM 27/22 A2968 RMK T02700220 IEM_DS3505
ZGGG,2001-03-24 08:00,ZGGG 240800Z AUTO 13008KT 7SM 28/23 A2965 RMK T02800230 IEM_DS3505
ZGGG,2001-03-24 09:00,ZGGG 240900Z AUTO 14008KT 7SM 27/22 A2965 RMK SLP050 T02660223 57018 IEM_DS3505
ZGGG,2001-03-24 10:00,ZGGG 241000Z AUTO 12008KT 7SM 27/22 A2965 RMK T02700220 IEM_DS3505
ZGGG,2001-03-24 11:00,ZGGG 241100Z AUTO 15008KT 7SM 26/22 A2968 RMK T02600220 IEM_DS3505
ZGGG,2001-03-24 12:00,ZGGG 241200Z AUTO 14006KT 8SM 25/22 A2968 RMK SLP063 T02500225 52013 IEM_DS3505
ZGGG,2001-03-24 13:00,ZGGG 241300Z AUTO 17012KT 7SM 26/22 A2971 RMK T02600220 IEM_DS3505
ZGGG,2001-03-24 14:00,ZGGG 241400Z AUTO 17008KT 7SM 26/23 A2974 RMK T02600230 IEM_DS3505
ZGGG,2001-03-24 15:00,ZGGG 241500Z AUTO 16004KT 7SM 25/22 A2974 RMK SLP081 T02480224 52018 IEM_DS3505
ZGGG,2001-03-24 16:00,ZGGG 241600Z AUTO 17006KT 7SM 25/22 A2977 RMK T02500220 IEM_DS3505
ZGGG,2001-03-24 17:00,ZGGG 241700Z AUTO 16006KT 7SM 25/23 A2974 RMK T02500230 IEM_DS3505
ZGGG,2001-03-24 18:00,ZGGG 241800Z AUTO 14004KT 7SM 24/23 A2971 RMK SLP071 T02410226 57010 IEM_DS3505
ZGGG,2001-03-24 19:00,ZGGG 241900Z AUTO 16004KT 7SM 24/23 A2968 RMK T02400230 IEM_DS3505
ZGGG,2001-03-24 21:00,ZGGG 242100Z AUTO 11004KT 6SM 24/23 A2968 RMK SLP056 T02360226 57015 IEM_DS3505
ZGGG,2001-03-24 22:00,ZGGG 242200Z AUTO 16004KT 3SM 24/23 A2968 RMK T02400230 IEM_DS3505
ZGGG,2001-03-24 23:00,ZGGG 242300Z AUTO 16004KT 2 1/2SM 24/23 A2971 RMK T02400230 IEM_DS3505
ZGGG,2001-03-25 00:00,ZGGG 250000Z AUTO 16004KT 4SM 24/23 A2971 RMK SLP071 T02440231 52015 IEM_DS3505
ZGGG,2001-03-25 01:00,ZGGG 250100Z AUTO 19006KT 2 1/2SM 26/23 A2971 RMK T02600230 IEM_DS3505
ZGGG,2001-03-25 02:00,ZGGG 250200Z AUTO 21008KT 3SM 26/23 A2971 RMK T02600230 IEM_DS3505
ZGGG,2001-03-25 03:00,ZGGG 250300Z AUTO 29004KT 1 1/4SM 19/18 A2983 RMK SLP111 T01900182 52039 IEM_DS3505
ZGGG,2001-03-25 04:00,ZGGG 250400Z AUTO 05008KT 7SM 19/18 A2977 RMK T01900180 IEM_DS3505
ZGGG,2001-03-25 05:00,ZGGG 250500Z AUTO 01008KT 7SM 21/18 A2974 RMK T02100180 IEM_DS3505
ZGGG,2001-03-25 06:00,ZGGG 250600Z AUTO 34006KT 11SM 21/19 A2974 RMK 60146 SLP080 T02060187 57030 IEM_DS3505
ZGGG,2001-03-25 07:00,ZGGG 250700Z AUTO 02010KT 7SM 23/18 A2971 RMK T02300180 IEM_DS3505
ZGGG,2001-03-25 08:00,ZGGG 250800Z AUTO 35008KT 7SM 22/17 A2971 RMK T02200170 IEM_DS3505
ZGGG,2001-03-25 09:00,ZGGG 250900Z AUTO 02004KT 14SM 22/18 A2971 RMK SLP067 T02180175 57013 IEM_DS3505
ZGGG,2001-03-25 10:00,ZGGG 251000Z AUTO 03010KT 7SM 23/17 A2971 RMK T02300170 IEM_DS3505
ZGGG,2001-03-25 11:00,ZGGG 251100Z AUTO 36008KT 7SM 22/16 A2974 RMK T02200160 IEM_DS3505
ZGGG,2001-03-25 12:00,ZGGG 251200Z AUTO 34004KT 12SM 21/16 A2977 RMK SLP087 T02060161 52020 IEM_DS3505
ZGGG,2001-03-25 13:00,ZGGG 251300Z AUTO 03008KT 7SM 21/16 A2980 RMK T02100160 IEM_DS3505
ZGGG,2001-03-25 14:00,ZGGG 251400Z AUTO 01008KT 7SM 21/16 A2983 RMK T02100160 IEM_DS3505
ZGGG,2001-03-25 15:00,ZGGG 251500Z AUTO 34004KT 11SM 19/15 A2983 RMK SLP111 T01910154 52023 IEM_DS3505
ZGGG,2001-03-25 16:00,ZGGG 251600Z AUTO 36008KT 6SM 18/14 A2983 RMK T01800140 IEM_DS3505
ZGGG,2001-03-25 17:00,ZGGG 251700Z AUTO 36012KT 6SM 18/14 A2983 RMK T01800140 IEM_DS3505
ZGGG,2001-03-25 18:00,ZGGG 251800Z AUTO 04004KT 10SM 17/14 A2980 RMK SLP102 T01730144 57009 IEM_DS3505
ZGGG,2001-03-25 19:00,ZGGG 251900Z AUTO 36006KT 6SM 18/14 A2980 RMK T01800140 IEM_DS3505
ZGGG,2001-03-25 20:00,ZGGG 252000Z AUTO 01006KT 6SM 17/13 A2980 RMK T01700130 IEM_DS3505
ZGGG,2001-03-25 21:00,ZGGG 252100Z AUTO 02004KT 10SM 17/14 A2980 RMK 70145 SLP097 T01670135 57005 IEM_DS3505
ZGGG,2001-03-25 22:00,ZGGG 252200Z AUTO 03004KT 6SM 16/13 A2983 RMK T01600130 IEM_DS3505
ZGGG,2001-03-25 23:00,ZGGG 252300Z AUTO 03006KT 7SM 17/14 A2983 RMK T01700140 IEM_DS3505
ZGGG,2001-03-26 00:00,ZGGG 260000Z AUTO 34002KT 11SM 18/14 A2983 RMK 70145 SLP108 T01750138 52011 IEM_DS3505
ZGGG,2001-03-26 01:00,ZGGG 260100Z AUTO 01006KT 6SM 19/14 A2985 RMK T01900140 IEM_DS3505
ZGGG,2001-03-26 02:00,ZGGG 260200Z AUTO 03008KT 7SM 19/14 A2985 RMK T01900140 IEM_DS3505
ZGGG,2001-03-26 03:00,ZGGG 260300Z AUTO 34004KT 11SM 21/15 A2985 RMK SLP117 T02070148 52009 IEM_DS3505
ZGGG,2001-03-26 04:00,ZGGG 260400Z AUTO 04006KT 7SM 22/15 A2983 RMK T02200150 IEM_DS3505
ZGGG,2001-03-26 05:00,ZGGG 260500Z AUTO 06006KT 7SM 22/15 A2980 RMK T02200150 IEM_DS3505
ZGGG,2001-03-26 06:00,ZGGG 260600Z AUTO 11004KT 11SM 23/15 A2977 RMK SLP092 T02320153 57025 IEM_DS3505
ZGGG,2001-03-26 07:00,ZGGG 260700Z AUTO 03004KT 7SM 23/16 A2977 RMK T02300160 IEM_DS3505
ZGGG,2001-03-26 08:00,ZGGG 260800Z AUTO 30004KT 7SM 22/15 A2977 RMK T02200150 IEM_DS3505
ZGGG,2001-03-26 09:00,ZGGG 260900Z AUTO 11004KT 9SM 22/16 A2974 RMK SLP083 T02250159 57009 IEM_DS3505
ZGGG,2001-03-26 10:00,ZGGG 261000Z AUTO 11004KT 22/16 A2974 RMK T02200160 IEM_DS3505
ZGGG,2001-03-26 11:00,ZGGG 261100Z AUTO 14004KT 22/16 A2974 RMK T02200160 IEM_DS3505
ZGGG,2001-03-26 12:00,ZGGG 261200Z AUTO 14004KT 9SM 21/16 A2974 RMK SLP081 T02110163 57002 IEM_DS3505
ZGGG,2001-03-26 13:00,ZGGG 261300Z AUTO 13004KT 4SM 21/17 A2977 RMK T02100170 IEM_DS3505
ZGGG,2001-03-26 14:00,ZGGG 261400Z AUTO 16004KT 4SM 21/17 A2980 RMK T02100170 IEM_DS3505
ZGGG,2001-03-26 15:00,ZGGG 261500Z AUTO 11004KT 6SM 21/17 A2980 RMK SLP099 T02080171 52018 IEM_DS3505
ZGGG,2001-03-26 16:00,ZGGG 261600Z AUTO 00000KT 4SM 21/17 A2980 RMK T02100170 IEM_DS3505
ZGGG,2001-03-26 17:00,ZGGG 261700Z AUTO 09002KT 4SM 21/17 A2980 RMK T02100170 IEM_DS3505
ZGGG,2001-03-26 18:00,ZGGG 261800Z AUTO 11004KT 4SM 20/18 A2977 RMK SLP091 T01990175 57008 IEM_DS3505
ZGGG,2001-03-26 19:00,ZGGG 261900Z AUTO 06004KT 3SM 19/18 A2977 RMK T01900180 IEM_DS3505
ZGGG,2001-03-26 20:00,ZGGG 262000Z AUTO 05004KT 2 1/2SM 19/18 A2977 RMK T01900180 IEM_DS3505
ZGGG,2001-03-26 21:00,ZGGG 262100Z AUTO 11002KT 4SM 19/18 A2974 RMK 70000 SLP081 T01860178 57010 IEM_DS3505
ZGGG,2001-03-26 22:00,ZGGG 262200Z AUTO 08004KT 2SM 19/18 A2974 RMK T01900180 IEM_DS3505
ZGGG,2001-03-26 23:00,ZGGG 262300Z AUTO 00000KT 2SM 19/18 A2974 RMK T01900180 IEM_DS3505
ZGGG,2001-03-27 00:00,ZGGG 270000Z AUTO 00000KT 4SM 19/18 A2977 RMK 60028 SLP084 T01860181 52003 IEM_DS3505
ZGGG,2001-03-27 01:00,ZGGG 270100Z AUTO 00000KT 2 1/2SM 19/18 A2977 RMK T01900180 IEM_DS3505
ZGGG,2001-03-27 02:00,ZGGG 270200Z AUTO 05004KT 1 1/2SM 19/18 A2977 RMK T01900180 IEM_DS3505
ZGGG,2001-03-27 03:00,ZGGG 270300Z AUTO 07002KT 4SM 19/18 A2977 RMK SLP090 T01920181 52006 IEM_DS3505
ZGGG,2001-03-27 04:00,ZGGG 270400Z AUTO 01008KT 1SM 19/18 A2977 RMK T01900180 IEM_DS3505
ZGGG,2001-03-27 05:00,ZGGG 270500Z AUTO 01008KT 3SM 18/17 A2977 RMK T01800170 IEM_DS3505
ZGGG,2001-03-27 06:00,ZGGG 270600Z AUTO 34002KT 9SM 18/17 A2977 RMK 60020 SLP089 T01820174 57001 IEM_DS3505
ZGGG,2001-03-27 07:00,ZGGG 270700Z AUTO 36006KT 5SM 18/17 A2977 RMK T01800170 IEM_DS3505
ZGGG,2001-03-27 08:00,ZGGG 270800Z AUTO 03006KT 5SM 18/17 A2974 RMK T01800170 IEM_DS3505
ZGGG,2001-03-27 09:00,ZGGG 270900Z AUTO 02002KT 10SM 19/17 A2977 RMK SLP082 T01860171 57007 IEM_DS3505
ZGGG,2001-03-27 10:00,ZGGG 271000Z AUTO 02006KT 4SM 18/17 A2977 RMK T01800170 IEM_DS3505
ZGGG,2001-03-27 11:00,ZGGG 271100Z AUTO 01006KT 4SM 18/17 A2977 RMK T01800170 IEM_DS3505
ZGGG,2001-03-27 12:00,ZGGG 271200Z AUTO 34004KT 8SM 18/17 A2980 RMK 60016 SLP097 T01790167 52015 IEM_DS3505
ZGGG,2001-03-27 13:00,ZGGG 271300Z AUTO 02004KT 4SM 18/17 A2983 RMK T01800170 IEM_DS3505
ZGGG,2001-03-27 14:00,ZGGG 271400Z AUTO 02004KT 3SM 18/16 A2985 RMK T01800160 IEM_DS3505
ZGGG,2001-03-27 15:00,ZGGG 271500Z AUTO 34002KT 9SM 17/16 A2985 RMK SLP118 T01740164 52021 IEM_DS3505
ZGGG,2001-03-27 16:00,ZGGG 271600Z AUTO 05004KT 4SM 17/16 A2985 RMK T01700160 IEM_DS3505
ZGGG,2001-03-27 17:00,ZGGG 271700Z AUTO 00000KT 3SM 17/16 A2985 RMK T01700160 IEM_DS3505
ZGGG,2001-03-27 18:00,ZGGG 271800Z AUTO 34002KT 7SM 17/16 A2985 RMK SLP116 T01700160 57002 IEM_DS3505
ZGGG,2001-03-27 19:00,ZGGG 271900Z AUTO 03002KT 3SM 17/16 A2983 RMK T01700160 IEM_DS3505
ZGGG,2001-03-27 20:00,ZGGG 272000Z AUTO 36006KT 4SM 17/16 A2985 RMK T01700160 IEM_DS3505
ZGGG,2001-03-27 21:00,ZGGG 272100Z AUTO 34004KT 7SM 17/15 A2985 RMK 70059 SLP114 T01710152 57002 IEM_DS3505
ZGGG,2001-03-27 22:00,ZGGG 272200Z AUTO 04006KT 5SM 17/15 A2985 RMK T01700150 IEM_DS3505
ZGGG,2001-03-27 23:00,ZGGG 272300Z AUTO 02004KT 6SM 17/14 A2985 RMK T01700140 IEM_DS3505
ZGGG,2001-03-28 00:00,ZGGG 280000Z AUTO 00000KT 9SM 18/15 A2988 RMK 70034 SLP125 T01760150 52011 IEM_DS3505
ZGGG,2001-03-28 01:00,ZGGG 280100Z AUTO 02006KT 6SM 20/14 A2988 RMK T02000140 IEM_DS3505
ZGGG,2001-03-28 02:00,ZGGG 280200Z AUTO 03004KT 6SM 21/15 A2988 RMK T02100150 IEM_DS3505
ZGGG,2001-03-28 03:00,ZGGG 280300Z AUTO 09004KT 12SM 23/15 A2988 RMK SLP127 T02260147 52002 IEM_DS3505
ZGGG,2001-03-28 04:00,ZGGG 280400Z AUTO 15004KT 7SM 23/16 A2985 RMK T02300160 IEM_DS3505
ZGGG,2001-03-28 05:00,ZGGG 280500Z AUTO 12004KT 7SM 23/16 A2983 RMK T02300160 IEM_DS3505
ZGGG,2001-03-28 06:00,ZGGG 280600Z AUTO 16004KT 10SM 23/16 A2983 RMK SLP105 T02320156 57022 IEM_DS3505
ZGGG,2001-03-28 07:00,ZGGG 280700Z AUTO 15006KT 7SM 24/16 A2980 RMK T02400160 IEM_DS3505
ZGGG,2001-03-28 08:00,ZGGG 280800Z AUTO 16004KT 5SM 23/16 A2980 RMK T02300160 IEM_DS3505
ZGGG,2001-03-28 09:00,ZGGG 280900Z AUTO 16002KT 6SM 23/17 A2983 RMK SLP104 T02290168 57001 IEM_DS3505
ZGGG,2001-03-28 10:00,ZGGG 281000Z AUTO 12002KT 3SM 23/17 A2983 RMK T02300170 IEM_DS3505
ZGGG,2001-03-28 11:00,ZGGG 281100Z AUTO 12004KT 4SM 22/17 A2985 RMK T02200170 IEM_DS3505
ZGGG,2001-03-28 12:00,ZGGG 281200Z AUTO 16004KT 6SM 22/17 A2988 RMK 60003 SLP126 T02160172 52022 IEM_DS3505
ZGGG,2001-03-28 13:00,ZGGG 281300Z AUTO 17002KT 3SM 22/17 A2991 RMK T02200170 IEM_DS3505
ZGGG,2001-03-28 14:00,ZGGG 281400Z AUTO 07004KT 2 1/2SM 21/18 A2991 RMK T02100180 IEM_DS3505
ZGGG,2001-03-28 15:00,ZGGG 281500Z AUTO 00000KT 7SM 20/18 A2994 RMK SLP146 T02040182 52020 IEM_DS3505
ZGGG,2001-03-28 16:00,ZGGG 281600Z AUTO 00000KT 3SM 21/18 A2994 RMK T02100180 IEM_DS3505
ZGGG,2001-03-28 17:00,ZGGG 281700Z AUTO 05004KT 3SM 20/18 A2991 RMK T02000180 IEM_DS3505
ZGGG,2001-03-28 18:00,ZGGG 281800Z AUTO 34008KT 2SM 17/15 A2997 RMK 60008 SLP153 T01730151 52007 IEM_DS3505
ZGGG,2001-03-28 19:00,ZGGG 281900Z AUTO 02014KT 7SM 17/13 A2997 RMK T01700130 IEM_DS3505
ZGGG,2001-03-28 20:00,ZGGG 282000Z AUTO 05008KT 6SM 16/13 A2997 RMK T01600130 IEM_DS3505
ZGGG,2001-03-28 21:00,ZGGG 282100Z AUTO 07004KT 11SM 16/13 A2997 RMK 70024 SLP157 T01570130 52004 IEM_DS3505
ZGGG,2001-03-28 22:00,ZGGG 282200Z AUTO 03010KT 6SM 15/12 A3000 RMK T01500120 IEM_DS3505
ZGGG,2001-03-28 23:00,ZGGG 282300Z AUTO 36008KT 7SM 16/12 A3003 RMK T01600120 IEM_DS3505
ZGGG,2001-03-29 00:00,ZGGG 290000Z AUTO 04004KT 13SM 15/11 A3006 RMK 60020 SLP187 T01500107 52029 IEM_DS3505
ZGGG,2001-03-29 01:00,ZGGG 290100Z AUTO 03012KT 6SM 16/10 A3006 RMK T01600100 IEM_DS3505
ZGGG,2001-03-29 02:00,ZGGG 290200Z AUTO 03012KT 6SM 17/09 A3006 RMK T01700090 IEM_DS3505
ZGGG,2001-03-29 03:00,ZGGG 290300Z AUTO 34008KT 12SM 18/11 A3006 RMK SLP184 T01800112 57003 IEM_DS3505
ZGGG,2001-03-29 04:00,ZGGG 290400Z AUTO 04010KT 6SM 19/10 A3003 RMK T01900100 IEM_DS3505
ZGGG,2001-03-29 05:00,ZGGG 290500Z AUTO 04008KT 6SM 20/10 A3000 RMK T02000100 IEM_DS3505
ZGGG,2001-03-29 06:00,ZGGG 290600Z AUTO 34006KT 13SM 22/11 A2994 RMK SLP147 T02150106 57036 IEM_DS3505
ZGGG,2001-03-29 07:00,ZGGG 290700Z AUTO 36008KT 6SM 22/09 A2991 RMK T02200090 IEM_DS3505
ZGGG,2001-03-29 08:00,ZGGG 290800Z AUTO 03006KT 6SM 23/09 A2991 RMK T02300090 IEM_DS3505
ZGGG,2001-03-29 09:00,ZGGG 290900Z AUTO 02004KT 12SM 23/10 A2991 RMK SLP133 T02260096 57014 IEM_DS3505
ZGGG,2001-03-29 10:00,ZGGG 291000Z AUTO 02006KT 6SM 22/08 A2991 RMK T02200080 IEM_DS3505
ZGGG,2001-03-29 11:00,ZGGG 291100Z AUTO 08004KT 6SM 20/09 A2991 RMK T02000090 IEM_DS3505
ZGGG,2001-03-29 12:00,ZGGG 291200Z AUTO 04002KT 11SM 18/12 A2994 RMK SLP146 T01800123 52012 IEM_DS3505
ZGGG,2001-03-29 13:00,ZGGG 291300Z AUTO 08002KT 6SM 17/09 A2994 RMK T01700090 IEM_DS3505
ZGGG,2001-03-29 14:00,ZGGG 291400Z AUTO 06002KT 6SM 17/09 A2997 RMK T01700090 IEM_DS3505
ZGGG,2001-03-29 15:00,ZGGG 291500Z AUTO 00000KT 10SM 16/13 A2997 RMK SLP154 T01550126 52008 IEM_DS3505
ZGGG,2001-03-29 16:00,ZGGG 291600Z AUTO 00000KT 6SM 16/11 A2994 RMK T01600110 IEM_DS3505
ZGGG,2001-03-29 17:00,ZGGG 291700Z AUTO 00000KT 6SM 16/11 A2997 RMK T01600110 IEM_DS3505
ZGGG,2001-03-29 18:00,ZGGG 291800Z AUTO 00000KT 9SM 14/11 A2997 RMK SLP155 T01410111 52001 IEM_DS3505
ZGGG,2001-03-29 19:00,ZGGG 291900Z AUTO 14004KT 6SM 17/13 A2994 RMK T01700130 IEM_DS3505
ZGGG,2001-03-29 20:00,ZGGG 292000Z AUTO 13002KT 6SM 16/11 A2994 RMK T01600110 IEM_DS3505
ZGGG,2001-03-29 21:00,ZGGG 292100Z AUTO 00000KT 9SM 13/11 A2997 RMK 70001 SLP157 T01340109 52002 IEM_DS3505
ZGGG,2001-03-29 22:00,ZGGG 292200Z AUTO 13004KT 4SM 16/13 A2997 RMK T01600130 IEM_DS3505
ZGGG,2001-03-29 23:00,ZGGG 292300Z AUTO 15002KT 2 1/2SM 16/13 A3000 RMK T01600130 IEM_DS3505
ZGGG,2001-03-30 00:00,ZGGG 300000Z AUTO 11004KT 8SM 17/14 A3000 RMK SLP173 T01670135 52016 IEM_DS3505
ZGGG,2001-03-30 01:00,ZGGG 300100Z AUTO 13004KT 3SM 19/14 A3003 RMK T01900140 IEM_DS3505
ZGGG,2001-03-30 02:00,ZGGG 300200Z AUTO 13004KT 11SM 22/15 A3003 RMK T02200150 IEM_DS3505
ZGGG,2001-03-30 03:00,ZGGG 300300Z AUTO 11006KT 11SM 22/14 A3003 RMK SLP176 T02160137 52003 IEM_DS3505
ZGGG,2001-03-30 04:00,ZGGG 300400Z AUTO 16004KT 23/14 A3000 RMK T02300140 IEM_DS3505
ZGGG,2001-03-30 05:00,ZGGG 300500Z AUTO 15004KT 5SM 23/14 A2997 RMK T02300140 IEM_DS3505
ZGGG,2001-03-30 06:00,ZGGG 300600Z AUTO 25004KT 11SM 24/14 A2994 RMK SLP148 T02410136 57027 IEM_DS3505
ZGGG,2001-03-30 07:00,ZGGG 300700Z AUTO 16006KT 5SM 25/14 A2991 RMK T02500140 IEM_DS3505
ZGGG,2001-03-30 08:00,ZGGG 300800Z AUTO 14006KT 7SM 24/13 A2991 RMK T02400130 IEM_DS3505
ZGGG,2001-03-30 09:00,ZGGG 300900Z AUTO 11006KT 11SM 24/13 A2991 RMK SLP136 T02380130 57012 IEM_DS3505
ZGGG,2001-03-30 10:00,ZGGG 301000Z AUTO 15006KT 6SM 23/13 A2991 RMK T02300130 IEM_DS3505
ZGGG,2001-03-30 11:00,ZGGG 301100Z AUTO 17004KT 6SM 23/14 A2994 RMK T02300140 IEM_DS3505
ZGGG,2001-03-30 12:00,ZGGG 301200Z AUTO 00000KT 9SM 21/15 A2997 RMK SLP153 T02060154 52017 IEM_DS3505
ZGGG,2001-03-30 14:00,ZGGG 301400Z AUTO 17004KT 22/16 A3000 RMK T02200160 IEM_DS3505
ZGGG,2001-03-30 15:00,ZGGG 301500Z AUTO 16002KT 9SM 20/16 A3000 RMK SLP169 T02040164 52016 IEM_DS3505
ZGGG,2001-03-30 16:00,ZGGG 301600Z AUTO 18004KT 5SM 21/16 A3003 RMK T02100160 IEM_DS3505
ZGGG,2001-03-30 17:00,ZGGG 301700Z AUTO 16004KT 5SM 21/16 A3000 RMK T02100160 IEM_DS3505
ZGGG,2001-03-30 18:00,ZGGG 301800Z AUTO 00000KT 9SM 19/17 A3000 RMK SLP166 T01940166 57003 IEM_DS3505
ZGGG,2001-03-30 19:00,ZGGG 301900Z AUTO 11002KT 5SM 20/16 A3000 RMK T02000160 IEM_DS3505
ZGGG,2001-03-30 20:00,ZGGG 302000Z AUTO 00000KT 5SM 19/16 A2997 RMK T01900160 IEM_DS3505
ZGGG,2001-03-30 21:00,ZGGG 302100Z AUTO 07002KT 7SM 18/17 A2997 RMK SLP161 T01810168 57005 IEM_DS3505
ZGGG,2001-03-30 22:00,ZGGG 302200Z AUTO 09002KT 4SM 18/16 A3000 RMK T01800160 IEM_DS3505
ZGGG,2001-03-30 23:00,ZGGG 302300Z AUTO 06002KT 2SM 19/17 A3003 RMK T01900170 IEM_DS3505
ZGGG,2001-03-31 00:00,ZGGG 310000Z AUTO 07002KT 5SM 19/17 A3003 RMK SLP180 T01900170 52019 IEM_DS3505
ZGGG,2001-03-31 01:00,ZGGG 310100Z AUTO 04002KT 4SM 21/16 A3006 RMK T02100160 IEM_DS3505
ZGGG,2001-03-31 02:00,ZGGG 310200Z AUTO 10006KT 5SM 22/16 A3006 RMK T02200160 IEM_DS3505
ZGGG,2001-03-31 03:00,ZGGG 310300Z AUTO 14004KT 8SM 23/16 A3003 RMK SLP181 T02330159 52001 IEM_DS3505
ZGGG,2001-03-31 04:00,ZGGG 310400Z AUTO 20004KT 6SM 24/16 A3003 RMK T02400160 IEM_DS3505
ZGGG,2001-03-31 05:00,ZGGG 310500Z AUTO 21002KT 6SM 24/16 A3003 RMK T02400160 IEM_DS3505
ZGGG,2001-03-31 06:00,ZGGG 310600Z AUTO 14002KT 7SM 25/16 A3000 RMK SLP167 T02480164 57014 IEM_DS3505
ZGGG,2001-03-31 07:00,ZGGG 310700Z AUTO 36006KT 24/17 A2997 RMK T02400170 IEM_DS3505
ZGGG,2001-03-31 08:00,ZGGG 310800Z AUTO 36004KT 3SM 24/17 A2997 RMK T02400170 IEM_DS3505
ZGGG,2001-03-31 09:00,ZGGG 310900Z AUTO 34004KT 6SM 24/17 A3000 RMK SLP162 T02380172 57005 IEM_DS3505
ZGGG,2001-03-31 10:00,ZGGG 311000Z AUTO 36004KT 2SM 23/17 A3000 RMK T02300170 IEM_DS3505
ZGGG,2001-03-31 11:00,ZGGG 311100Z AUTO 36006KT 2SM 23/17 A3000 RMK T02300170 IEM_DS3505
ZGGG,2001-03-31 12:00,ZGGG 311200Z AUTO 34002KT 4SM 22/18 A3003 RMK 60003 SLP181 T02220177 52019 IEM_DS3505
ZGGG,2001-03-31 13:00,ZGGG 311300Z AUTO 36004KT 2 1/2SM 22/17 A3006 RMK T02200170 IEM_DS3505
ZGGG,2001-03-31 14:00,ZGGG 311400Z AUTO 33002KT 2 1/2SM 22/17 A3009 RMK T02200170 IEM_DS3505
ZGGG,2001-03-31 15:00,ZGGG 311500Z AUTO 00000KT 4SM 22/18 A3006 RMK SLP190 T02150183 52009 IEM_DS3505
ZGGG,2001-03-31 16:00,ZGGG 311600Z AUTO 00000KT 2 1/2SM 22/17 A3006 RMK T02200170 IEM_DS3505
ZGGG,2001-03-31 18:00,ZGGG 311800Z AUTO 00000KT 2 1/2SM 21/19 A3006 RMK 60003 SLP185 T02110186 57005 IEM_DS3505
ZGGG,2001-03-31 19:00,ZGGG 311900Z AUTO 05004KT 1 1/4SM 20/19 A3003 RMK T02000190 IEM_DS3505
ZGGG,2001-03-31 20:00,ZGGG 312000Z AUTO 03004KT 1SM 19/19 A3003 RMK T01900190 IEM_DS3505
ZGGG,2001-03-31 21:00,ZGGG 312100Z AUTO 11002KT 5SM 20/19 A3003 RMK 70002 SLP172 T02000191 57013 IEM_DS3505
ZGGG,2001-03-31 22:00,ZGGG 312200Z AUTO 17002KT 1 1/4SM 19/19 A3003 RMK T01900190 IEM_DS3505
ZGGG,2001-03-31 23:00,ZGGG 312300Z AUTO 13004KT 2SM 20/18 A3006 RMK T02000180 IEM_DS3505
ZGGG,2001-04-01 00:00,ZGGG 010000Z AUTO 11004KT 3SM 20/19 A3006 RMK 60002 SLP189 T02020191 52017 IEM_DS3505
ZGGG,2001-04-01 01:00,ZGGG 010100Z AUTO 00000KT 3SM 21/18 A3009 RMK T02100180 IEM_DS3505
ZGGG,2001-04-01 02:00,ZGGG 010200Z AUTO 15004KT 4SM 22/17 A3009 RMK T02200170 IEM_DS3505
ZGGG,2001-04-01 03:00,ZGGG 010300Z AUTO 16006KT 9SM 22/17 A3009 RMK SLP194 T02230166 52005 IEM_DS3505
ZGGG,2001-04-01 04:00,ZGGG 010400Z AUTO 17006KT 23/17 A3006 RMK T02300170 IEM_DS3505
ZGGG,2001-04-01 05:00,ZGGG 010500Z AUTO 16004KT 7SM 24/16 A3003 RMK SLP155 T02380158 57011 IEM_DS3505
ZGGG,2001-04-01 06:00,ZGGG 010600Z AUTO 14004KT 7SM 23/17 A3000 RMK SLP166 T02270169 57028 IEM_DS3505
ZGGG,2001-04-01 07:00,ZGGG 010700Z AUTO 16004KT 3SM 23/17 A2997 RMK T02300170 IEM_DS3505
ZGGG,2001-04-01 08:00,ZGGG 010800Z AUTO 14006KT 24/17 A2994 RMK T02400170 IEM_DS3505
ZGGG,2001-04-01 09:00,ZGGG 010900Z AUTO 16004KT 7SM 24/16 A2997 RMK SLP155 T02380158 57011 IEM_DS3505
ZGGG,2001-04-01 10:00,ZGGG 011000Z AUTO 17006KT 3SM 23/17 A2997 RMK T02300170 IEM_DS3505
ZGGG,2001-04-01 11:00,ZGGG 011100Z AUTO 16008KT 23/17 A2997 RMK T02300170 IEM_DS3505
ZGGG,2001-04-01 12:00,ZGGG 011200Z AUTO 18004KT 6SM 22/17 A2997 RMK SLP161 T02150173 52006 IEM_DS3505
ZGGG,2001-04-01 13:00,ZGGG 011300Z AUTO 16008KT 7SM 22/18 A3000 RMK T02200180 IEM_DS3505
ZGGG,2001-04-01 14:00,ZGGG 011400Z AUTO 16008KT 7SM 21/17 A3003 RMK T02100170 IEM_DS3505
ZGGG,2001-04-01 15:00,ZGGG 011500Z AUTO 16006KT 6SM 21/17 A3000 RMK SLP172 T02060172 52011 IEM_DS3505
ZGGG,2001-04-01 16:00,ZGGG 011600Z AUTO 17004KT 5SM 21/17 A3000 RMK T02100170 IEM_DS3505
ZGGG,2001-04-01 17:00,ZGGG 011700Z AUTO 15006KT 4SM 20/17 A2997 RMK T02000170 IEM_DS3505
ZGGG,2001-04-01 18:00,ZGGG 011800Z AUTO 11002KT 6SM 19/17 A2997 RMK SLP158 T01890169 57014 IEM_DS3505
ZGGG,2001-04-01 19:00,ZGGG 011900Z AUTO 15006KT 4SM 19/17 A2994 RMK T01900170 IEM_DS3505
ZGGG,2001-04-01 20:00,ZGGG 012000Z AUTO 14004KT 4SM 20/17 A2994 RMK T02000170 IEM_DS3505
ZGGG,2001-04-01 21:00,ZGGG 012100Z AUTO 11002KT 6SM 19/17 A2991 RMK 70003 SLP141 T01900170 57017 IEM_DS3505
ZGGG,2001-04-01 22:00,ZGGG 012200Z AUTO 21004KT 2 1/2SM 20/17 A2994 RMK T02000170 IEM_DS3505
ZGGG,2001-04-01 23:00,ZGGG 012300Z AUTO 07002KT 2 1/2SM 19/17 A2994 RMK T01900170 IEM_DS3505
ZGGG,2001-04-02 00:00,ZGGG 020000Z AUTO 00000KT 5SM 20/18 A2997 RMK SLP156 T01960175 52015 IEM_DS3505
ZGGG,2001-04-02 01:00,ZGGG 020100Z AUTO 15012KT 2 1/2SM 21/17 A2994 RMK T02100170 IEM_DS3505
ZGGG,2001-04-02 02:00,ZGGG 020200Z AUTO 15008KT 2 1/2SM 22/18 A2994 RMK T02200180 IEM_DS3505
ZGGG,2001-04-02 03:00,ZGGG 020300Z AUTO 16006KT 7SM 23/18 A2994 RMK SLP152 T02340184 57004 IEM_DS3505
ZGGG,2001-04-02 04:00,ZGGG 020400Z AUTO 16006KT 5SM 25/18 A2991 RMK T02500180 IEM_DS3505
ZGGG,2001-04-02 05:00,ZGGG 020500Z AUTO 17008KT 7SM 26/19 A2988 RMK T02600190 IEM_DS3505
ZGGG,2001-04-02 06:00,ZGGG 020600Z AUTO 20004KT 9SM 25/18 A2985 RMK SLP118 T02510182 57034 IEM_DS3505
ZGGG,2001-04-02 07:00,ZGGG 020700Z AUTO 18010KT 7SM 25/18 A2983 RMK T02500180 IEM_DS3505
ZGGG,2001-04-02 08:00,ZGGG 020800Z AUTO 17008KT 5SM 26/19 A2980 RMK T02600190 IEM_DS3505
ZGGG,2001-04-02 09:00,ZGGG 020900Z AUTO 16006KT 7SM 25/19 A2980 RMK SLP101 T02530193 57017 IEM_DS3505
ZGGG,2001-04-02 10:00,ZGGG 021000Z AUTO 16006KT 4SM 25/20 A2980 RMK T02500200 IEM_DS3505
ZGGG,2001-04-02 11:00,ZGGG 021100Z AUTO 16008KT 5SM 24/20 A2980 RMK T02400200 IEM_DS3505
ZGGG,2001-04-02 12:00,ZGGG 021200Z AUTO 14004KT 7SM 23/20 A2983 RMK SLP107 T02340195 52006 IEM_DS3505
ZGGG,2001-04-02 13:00,ZGGG 021300Z AUTO 16006KT 5SM 23/20 A2983 RMK T02300200 IEM_DS3505
ZGGG,2001-04-02 14:00,ZGGG 021400Z AUTO 18004KT 5SM 23/19 A2985 RMK T02300190 IEM_DS3505
ZGGG,2001-04-02 15:00,ZGGG 021500Z AUTO 16004KT 8SM 23/19 A2985 RMK SLP122 T02260193 52015 IEM_DS3505
ZGGG,2001-04-02 16:00,ZGGG 021600Z AUTO 17006KT 7SM 22/19 A2985 RMK T02200190 IEM_DS3505
ZGGG,2001-04-02 17:00,ZGGG 021700Z AUTO 16006KT 7SM 22/19 A2983 RMK T02200190 IEM_DS3505
ZGGG,2001-04-02 18:00,ZGGG 021800Z AUTO 11004KT 6SM 22/20 A2983 RMK SLP113 T02150195 57008 IEM_DS3505
ZGGG,2001-04-02 19:00,ZGGG 021900Z AUTO 17002KT 3SM 22/19 A2983 RMK T02200190 IEM_DS3505
ZGGG,2001-04-02 20:00,ZGGG 022000Z AUTO 17004KT 3SM 22/20 A2983 RMK T02200200 IEM_DS3505
ZGGG,2001-04-02 21:00,ZGGG 022100Z AUTO 16004KT 5SM 22/20 A2983 RMK SLP108 T02160201 57005 IEM_DS3505
ZGGG,2001-04-02 22:00,ZGGG 022200Z AUTO 16006KT 2 1/2SM 22/20 A2983 RMK T02200200 IEM_DS3505
ZGGG,2001-04-02 23:00,ZGGG 022300Z AUTO 17004KT 2SM 22/20 A2985 RMK T02200200 IEM_DS3505
ZGGG,2001-04-03 00:00,ZGGG 030000Z AUTO 14004KT 5SM 22/20 A2985 RMK 60003 SLP119 T02200202 52010 IEM_DS3505
ZGGG,2001-04-03 01:00,ZGGG 030100Z AUTO 17006KT 2 1/2SM 23/20 A2988 RMK T02300200 IEM_DS3505
ZGGG,2001-04-03 02:00,ZGGG 030200Z AUTO 17006KT 2 1/2SM 24/21 A2985 RMK T02400210 IEM_DS3505
ZGGG,2001-04-03 03:00,ZGGG 030300Z AUTO 14004KT 6SM 25/21 A2985 RMK SLP118 T02500209 54000 IEM_DS3505
ZGGG,2001-04-03 04:00,ZGGG 030400Z AUTO 17008KT 27/21 A2983 RMK T02700210 IEM_DS3505
ZGGG,2001-04-03 05:00,ZGGG 030500Z AUTO 16006KT 27/21 A2980 RMK T02700210 IEM_DS3505
ZGGG,2001-04-03 06:00,ZGGG 030600Z AUTO 16004KT 6SM 27/21 A2977 RMK SLP091 T02730210 57027 IEM_DS3505
ZGGG,2001-04-03 07:00,ZGGG 030700Z AUTO 13004KT 7SM 28/21 A2977 RMK T02800210 IEM_DS3505
ZGGG,2001-04-03 08:00,ZGGG 030800Z AUTO 16008KT 3SM 27/22 A2974 RMK T02700220 IEM_DS3505
ZGGG,2001-04-03 09:00,ZGGG 030900Z AUTO 14006KT 7SM 27/22 A2974 RMK SLP079 T02700221 57012 IEM_DS3505
ZGGG,2001-04-03 10:00,ZGGG 031000Z AUTO 14008KT 2 1/2SM 26/22 A2974 RMK T02600220 IEM_DS3505
ZGGG,2001-04-03 11:00,ZGGG 031100Z AUTO 14006KT 2 1/2SM 26/22 A2977 RMK T02600220 IEM_DS3505
ZGGG,2001-04-03 12:00,ZGGG 031200Z AUTO 00000KT 4SM 24/23 A2983 RMK 60020 SLP103 T02400227 52024 IEM_DS3505
ZGGG,2001-04-03 13:00,ZGGG 031300Z AUTO 07004KT 7SM 23/23 A2983 RMK T02300230 IEM_DS3505
ZGGG,2001-04-03 14:00,ZGGG 031400Z AUTO 07004KT 7SM 23/22 A2985 RMK T02300220 IEM_DS3505
ZGGG,2001-04-03 15:00,ZGGG 031500Z AUTO 34004KT 4SM 23/22 A2988 RMK SLP125 T02320223 52022 IEM_DS3505
ZGGG,2001-04-03 16:00,ZGGG 031600Z AUTO 01006KT 2 1/2SM 22/22 A2988 RMK T02200220 IEM_DS3505
ZGGG,2001-04-03 17:00,ZGGG 031700Z AUTO 03006KT 3SM 22/21 A2988 RMK T02200210 IEM_DS3505
ZGGG,2001-04-03 18:00,ZGGG 031800Z AUTO 00000KT 9SM 21/20 A2985 RMK 60110 SLP117 T02140202 57008 IEM_DS3505
ZGGG,2001-04-03 19:00,ZGGG 031900Z AUTO 02008KT 7SM 22/19 A2983 RMK T02200190 IEM_DS3505
ZGGG,2001-04-03 20:00,ZGGG 032000Z AUTO 04008KT 7SM 21/19 A2983 RMK T02100190 IEM_DS3505
ZGGG,2001-04-03 21:00,ZGGG 032100Z AUTO 34004KT 6SM 21/20 A2983 RMK 70130 SLP109 T02120201 57008 IEM_DS3505
ZGGG,2001-04-03 22:00,ZGGG 032200Z AUTO 04008KT 7SM 20/19 A2985 RMK T02000190 IEM_DS3505
ZGGG,2001-04-03 23:00,ZGGG 032300Z AUTO 03006KT 7SM 20/18 A2985 RMK T02000180 IEM_DS3505
ZGGG,2001-04-04 00:00,ZGGG 040000Z AUTO 34002KT 9SM 21/20 A2988 RMK 60008 SLP125 T02060195 52015 IEM_DS3505
ZGGG,2001-04-04 01:00,ZGGG 040100Z AUTO 04010KT 2SM 20/19 A2988 RMK T02000190 IEM_DS3505
ZGGG,2001-04-04 02:00,ZGGG 040200Z AUTO 36010KT 1SM 19/18 A2991 RMK T01900180 IEM_DS3505
ZGGG,2001-04-04 03:00,ZGGG 040300Z AUTO 16002KT 8SM 20/19 A2994 RMK SLP145 T01990194 52020 IEM_DS3505
ZGGG,2001-04-04 04:00,ZGGG 040400Z AUTO 03004KT 3SM 20/19 A2994 RMK T02000190 IEM_DS3505
ZGGG,2001-04-04 05:00,ZGGG 040500Z AUTO 36006KT 3SM 20/19 A2994 RMK T02000190 IEM_DS3505
ZGGG,2001-04-04 06:00,ZGGG 040600Z AUTO 34004KT 5SM 20/19 A2994 RMK 60157 SLP147 T01990194 52002 IEM_DS3505
ZGGG,2001-04-04 07:00,ZGGG 040700Z AUTO 07008KT 5SM 20/19 A2988 RMK T02000190 IEM_DS3505
ZGGG,2001-04-04 08:00,ZGGG 040800Z AUTO 14004KT 7SM 21/19 A2988 RMK T02100190 IEM_DS3505
ZGGG,2001-04-04 09:00,ZGGG 040900Z AUTO 11006KT 12SM 21/19 A2988 RMK SLP124 T02110189 57023 IEM_DS3505
ZGGG,2001-04-04 10:00,ZGGG 041000Z AUTO 10002KT 7SM 21/18 A2988 RMK T02100180 IEM_DS3505
ZGGG,2001-04-04 11:00,ZGGG 041100Z AUTO 07002KT 4SM 21/19 A2991 RMK T02100190 IEM_DS3505
ZGGG,2001-04-04 12:00,ZGGG 041200Z AUTO 02002KT 9SM 20/19 A2991 RMK 60008 SLP133 T02030190 52009 IEM_DS3505
ZGGG,2001-04-04 13:00,ZGGG 041300Z AUTO 08002KT 7SM 21/18 A2994 RMK T02100180 IEM_DS3505
ZGGG,2001-04-04 14:00,ZGGG 041400Z AUTO 11004KT 7SM 21/18 A2994 RMK T02100180 IEM_DS3505
ZGGG,2001-04-04 15:00,ZGGG 041500Z AUTO 34002KT 8SM 20/19 A2997 RMK SLP155 T02010190 52022 IEM_DS3505
ZGGG,2001-04-04 16:00,ZGGG 041600Z AUTO 00000KT 5SM 20/19 A2997 RMK T02000190 IEM_DS3505
ZGGG,2001-04-04 17:00,ZGGG 041700Z AUTO 02002KT 4SM 20/19 A2994 RMK T02000190 IEM_DS3505
ZGGG,2001-04-04 18:00,ZGGG 041800Z AUTO 29002KT 8SM 20/19 A2994 RMK 60012 SLP144 T01980193 57011 IEM_DS3505
ZGGG,2001-04-04 19:00,ZGGG 041900Z AUTO 06002KT 5SM 20/19 A2991 RMK T02000190 IEM_DS3505
ZGGG,2001-04-04 20:00,ZGGG 042000Z AUTO 06002KT 3SM 19/19 A2991 RMK T01900190 IEM_DS3505
ZGGG,2001-04-04 21:00,ZGGG 042100Z AUTO 00000KT 5SM 20/19 A2991 RMK 70179 SLP134 T01960193 57010 IEM_DS3505
ZGGG,2001-04-04 22:00,ZGGG 042200Z AUTO 05002KT 3SM 19/19 A2994 RMK T01900190 IEM_DS3505
ZGGG,2001-04-04 23:00,ZGGG 042300Z AUTO 00000KT 4SM 19/19 A2994 RMK T01900190 IEM_DS3505
ZGGG,2001-04-05 00:00,ZGGG 050000Z AUTO 00000KT 7SM 20/19 A2997 RMK 60003 SLP153 T01990191 52019 IEM_DS3505
ZGGG,2001-04-05 01:00,ZGGG 050100Z AUTO 08002KT 4SM 21/18 A2997 RMK T02100180 IEM_DS3505
ZGGG,2001-04-05 02:00,ZGGG 050200Z AUTO 04004KT 5SM 21/19 A3000 RMK T02100190 IEM_DS3505
ZGGG,2001-04-05 03:00,ZGGG 050300Z AUTO 11004KT 11SM 21/19 A3000 RMK SLP162 T02090187 52009 IEM_DS3505
ZGGG,2001-04-05 04:00,ZGGG 050400Z AUTO 14004KT 7SM 22/19 A2997 RMK T02200190 IEM_DS3505
ZGGG,2001-04-05 05:00,ZGGG 050500Z AUTO 20004KT 4SM 22/19 A2997 RMK T02200190 IEM_DS3505
ZGGG,2001-04-05 06:00,ZGGG 050600Z AUTO 14004KT 9SM 22/19 A2994 RMK 60003 SLP147 T02150187 57015 IEM_DS3505
ZGGG,2001-04-05 07:00,ZGGG 050700Z AUTO 00000KT 4SM 22/18 A2991 RMK T02200180 IEM_DS3505
ZGGG,2001-04-05 08:00,ZGGG 050800Z AUTO 00000KT 2 1/2SM 22/19 A2988 RMK T02200190 IEM_DS3505
ZGGG,2001-04-05 09:00,ZGGG 050900Z AUTO 16004KT 7SM 22/19 A2988 RMK SLP128 T02210190 57019 IEM_DS3505
ZGGG,2001-04-05 11:00,ZGGG 051100Z AUTO 00000KT 4SM 22/19 A2991 RMK T02200190 IEM_DS3505
ZGGG,2001-04-05 12:00,ZGGG 051200Z AUTO 00000KT 7SM 22/19 A2994 RMK SLP143 T02150193 52015 IEM_DS3505
ZGGG,2001-04-05 13:00,ZGGG 051300Z AUTO 35002KT 2 1/2SM 22/19 A2994 RMK T02200190 IEM_DS3505
ZGGG,2001-04-05 14:00,ZGGG 051400Z AUTO 00000KT 2 1/2SM 21/19 A2997 RMK T02100190 IEM_DS3505
ZGGG,2001-04-05 15:00,ZGGG 051500Z AUTO 14004KT 7SM 21/20 A2994 RMK SLP145 T02120195 52002 IEM_DS3505
ZGGG,2001-04-05 16:00,ZGGG 051600Z AUTO 20004KT 3SM 22/19 A2994 RMK T02200190 IEM_DS3505
ZGGG,2001-04-05 17:00,ZGGG 051700Z AUTO 15002KT 4SM 21/18 A2991 RMK T02100180 IEM_DS3505
ZGGG,2001-04-05 18:00,ZGGG 051800Z AUTO 16006KT 6SM 21/19 A2988 RMK SLP129 T02100193 57016 IEM_DS3505
ZGGG,2001-04-05 19:00,ZGGG 051900Z AUTO 17004KT 4SM 21/19 A2988 RMK T02100190 IEM_DS3505
ZGGG,2001-04-05 20:00,ZGGG 052000Z AUTO 28002KT 2 1/2SM 21/19 A2988 RMK T02100190 IEM_DS3505
ZGGG,2001-04-05 21:00,ZGGG 052100Z AUTO 11006KT 7SM 20/20 A2988 RMK 70002 SLP131 T02030195 52002 IEM_DS3505
ZGGG,2001-04-05 22:00,ZGGG 052200Z AUTO 00000KT 2 1/2SM 20/19 A2988 RMK T02000190 IEM_DS3505
ZGGG,2001-04-05 23:00,ZGGG 052300Z AUTO 00000KT 2SM 21/19 A2994 RMK T02100190 IEM_DS3505
ZGGG,2001-04-06 00:00,ZGGG 060000Z AUTO 00000KT 4SM 20/19 A2997 RMK 60008 SLP155 T01980193 52024 IEM_DS3505
ZGGG,2001-04-06 01:00,ZGGG 060100Z AUTO 06004KT 1 1/4SM 20/19 A2997 RMK T02000190 IEM_DS3505
ZGGG,2001-04-06 02:00,ZGGG 060200Z AUTO 11002KT 3SM 20/19 A3000 RMK T02000190 IEM_DS3505
ZGGG,2001-04-06 03:00,ZGGG 060300Z AUTO 14004KT 4SM 20/19 A3000 RMK SLP161 T02030194 52006 IEM_DS3505
ZGGG,2001-04-06 04:00,ZGGG 060400Z AUTO 13002KT 1 1/4SM 21/20 A2997 RMK T02100200 IEM_DS3505
ZGGG,2001-04-06 05:00,ZGGG 060500Z AUTO 12004KT 2SM 21/20 A2997 RMK T02100200 IEM_DS3505
ZGGG,2001-04-06 06:00,ZGGG 060600Z AUTO 11004KT 4SM 20/19 A2994 RMK 60012 SLP142 T02030194 57019 IEM_DS3505
ZGGG,2001-04-06 07:00,ZGGG 060700Z AUTO 00000KT 2 1/2SM 21/20 A2991 RMK T02100200 IEM_DS3505
ZGGG,2001-04-06 08:00,ZGGG 060800Z AUTO 10002KT 4SM 21/19 A2988 RMK T02100190 IEM_DS3505
ZGGG,2001-04-06 09:00,ZGGG 060900Z AUTO 11004KT 5SM 20/19 A2988 RMK SLP129 T02020189 57013 IEM_DS3505
ZGGG,2001-04-06 10:00,ZGGG 061000Z AUTO 3SM 21/19 A2988 RMK T02100190 IEM_DS3505
ZGGG,2001-04-06 11:00,ZGGG 061100Z AUTO 00000KT 3SM 21/19 A2991 RMK T02100190 IEM_DS3505
ZGGG,2001-04-06 12:00,ZGGG 061200Z AUTO 14004KT 4SM 20/19 A2991 RMK 60003 SLP137 T02010193 52008 IEM_DS3505
ZGGG,2001-04-06 13:00,ZGGG 061300Z AUTO 12002KT 2 1/2SM 20/19 A2994 RMK T02000190 IEM_DS3505
ZGGG,2001-04-06 14:00,ZGGG 061400Z AUTO 00000KT 4SM 20/19 A2994 RMK T02000190 IEM_DS3505
ZGGG,2001-04-06 15:00,ZGGG 061500Z AUTO 14004KT 2 1/2SM 20/19 A2997 RMK SLP154 T01960191 52017 IEM_DS3505
ZGGG,2001-04-06 16:00,ZGGG 061600Z AUTO 00000KT 5SM 20/19 A2997 RMK T02000190 IEM_DS3505
ZGGG,2001-04-06 17:00,ZGGG 061700Z AUTO 00000KT 4SM 20/19 A2994 RMK T02000190 IEM_DS3505
ZGGG,2001-04-06 18:00,ZGGG 061800Z AUTO 02002KT 2SM 20/19 A2994 RMK 60004 SLP142 T01980192 57012 IEM_DS3505
ZGGG,2001-04-06 19:00,ZGGG 061900Z AUTO 00000KT 2SM 19/19 A2991 RMK T01900190 IEM_DS3505
ZGGG,2001-04-06 20:00,ZGGG 062000Z AUTO 04004KT 2SM 20/19 A2991 RMK T02000190 IEM_DS3505
ZGGG,2001-04-06 21:00,ZGGG 062100Z AUTO 20002KT 2SM 20/19 A2991 RMK 70025 SLP135 T01990193 57007 IEM_DS3505
ZGGG,2001-04-06 22:00,ZGGG 062200Z AUTO 00000KT 1 1/2SM 20/19 A2991 RMK T02000190 IEM_DS3505
ZGGG,2001-04-06 23:00,ZGGG 062300Z AUTO 00000KT 1 1/4SM 20/19 A2994 RMK T02000190 IEM_DS3505
ZGGG,2001-04-07 00:00,ZGGG 070000Z AUTO 00000KT 2SM 20/20 A2994 RMK 60003 SLP150 T02030197 52015 IEM_DS3505
ZGGG,2001-04-07 01:00,ZGGG 070100Z AUTO 00000KT 2 1/2SM 21/20 A2997 RMK T02100200 IEM_DS3505
ZGGG,2001-04-07 02:00,ZGGG 070200Z AUTO 11002KT 3SM 22/20 A2994 RMK T02200200 IEM_DS3505
ZGGG,2001-04-07 03:00,ZGGG 070300Z AUTO 11004KT 3SM 22/19 A2991 RMK SLP142 T02220194 57008 IEM_DS3505
ZGGG,2001-04-07 04:00,ZGGG 070400Z AUTO 14002KT 2 1/2SM 23/20 A2991 RMK T02300200 IEM_DS3505
ZGGG,2001-04-07 05:00,ZGGG 070500Z AUTO 12002KT 2 1/2SM 23/20 A2988 RMK T02300200 IEM_DS3505
ZGGG,2001-04-07 06:00,ZGGG 070600Z AUTO 00000KT 1 1/4SM 22/20 A2985 RMK 60003 SLP119 T02250202 57023 IEM_DS3505
ZGGG,2001-04-07 07:00,ZGGG 070700Z AUTO 15002KT 1SM 23/21 A2983 RMK T02300210 IEM_DS3505
ZGGG,2001-04-07 08:00,ZGGG 070800Z AUTO 17004KT 1 1/4SM 23/21 A2980 RMK T02300210 IEM_DS3505
ZGGG,2001-04-07 09:00,ZGGG 070900Z AUTO 00000KT 1 1/4SM 22/21 A2980 RMK SLP103 T02200208 57016 IEM_DS3505
ZGGG,2001-04-07 10:00,ZGGG 071000Z AUTO 00000KT 1SM 22/21 A2980 RMK T02200210 IEM_DS3505
ZGGG,2001-04-07 11:00,ZGGG 071100Z AUTO 16002KT 1SM 22/21 A2983 RMK T02200210 IEM_DS3505
ZGGG,2001-04-07 12:00,ZGGG 071200Z AUTO 14004KT 1SM 21/21 A2983 RMK 60002 SLP108 T02130207 52005 IEM_DS3505
ZGGG,2001-04-07 13:00,ZGGG 071300Z AUTO 15004KT 1SM 22/21 A2983 RMK T02200210 IEM_DS3505
ZGGG,2001-04-07 14:00,ZGGG 071400Z AUTO 16004KT 2SM 21/21 A2985 RMK T02100210 IEM_DS3505
ZGGG,2001-04-07 15:00,ZGGG 071500Z AUTO 16004KT 1 1/2SM 21/21 A2985 RMK SLP116 T02140209 52008 IEM_DS3505
ZGGG,2001-04-07 16:00,ZGGG 071600Z AUTO 16004KT 2 1/2SM 22/21 A2983 RMK T02200210 IEM_DS3505
ZGGG,2001-04-07 17:00,ZGGG 071700Z AUTO 17006KT 1 1/2SM 22/21 A2980 RMK T02200210 IEM_DS3505
ZGGG,2001-04-07 18:00,ZGGG 071800Z AUTO 11006KT 2SM 22/21 A2977 RMK 60004 SLP091 T02150209 57025 IEM_DS3505
ZGGG,2001-04-07 19:00,ZGGG 071900Z AUTO 16006KT 2 1/2SM 22/21 A2974 RMK T02200210 IEM_DS3505
ZGGG,2001-04-07 20:00,ZGGG 072000Z AUTO 15006KT 2 1/2SM 22/21 A2971 RMK T02200210 IEM_DS3505
ZGGG,2001-04-07 21:00,ZGGG 072100Z AUTO 16006KT 2 1/2SM 22/21 A2968 RMK 70009 SLP063 T02160210 57027 IEM_DS3505
ZGGG,2001-04-07 22:00,ZGGG 072200Z AUTO 15008KT 2SM 22/22 A2968 RMK T02200220 IEM_DS3505
ZGGG,2001-04-07 23:00,ZGGG 072300Z AUTO 17008KT 1 1/4SM 23/22 A2968 RMK T02300220 IEM_DS3505
ZGGG,2001-04-08 00:00,ZGGG 080000Z AUTO 16006KT 1 1/2SM 23/22 A2968 RMK 70007 SLP063 T02300223 54000 IEM_DS3505
ZGGG,2001-04-08 01:00,ZGGG 080100Z AUTO 20010KT 2 1/2SM 24/24 A2971 RMK T02400240 IEM_DS3505
ZGGG,2001-04-08 02:00,ZGGG 080200Z AUTO 20010KT 3SM 24/24 A2971 RMK T02400240 IEM_DS3505
ZGGG,2001-04-08 03:00,ZGGG 080300Z AUTO 16004KT 2 1/2SM 24/23 A2971 RMK SLP071 T02420233 52008 IEM_DS3505
ZGGG,2001-04-08 04:00,ZGGG 080400Z AUTO 19008KT 4SM 26/24 A2971 RMK T02600240 IEM_DS3505
ZGGG,2001-04-08 05:00,ZGGG 080500Z AUTO 18008KT 4SM 26/24 A2968 RMK T02600240 IEM_DS3505
ZGGG,2001-04-08 06:00,ZGGG 080600Z AUTO 16006KT 7SM 26/24 A2965 RMK SLP051 T02650236 57020 IEM_DS3505
ZGGG,2001-04-08 07:00,ZGGG 080700Z AUTO 20008KT 4SM 27/24 A2962 RMK T02700240 IEM_DS3505
ZGGG,2001-04-08 08:00,ZGGG 080800Z AUTO 17008KT 5SM 27/24 A2962 RMK T02700240 IEM_DS3505
ZGGG,2001-04-08 09:00,ZGGG 080900Z AUTO 16002KT 8SM 26/24 A2962 RMK SLP039 T02620238 57012 IEM_DS3505
ZGGG,2001-04-08 10:00,ZGGG 081000Z AUTO 15006KT 4SM 26/24 A2962 RMK T02600240 IEM_DS3505
ZGGG,2001-04-08 11:00,ZGGG 081100Z AUTO 15006KT 3SM 26/24 A2965 RMK T02600240 IEM_DS3505
ZGGG,2001-04-08 12:00,ZGGG 081200Z AUTO 11004KT 3SM 25/24 A2968 RMK 60003 SLP059 T02470235 52020 IEM_DS3505
ZGGG,2001-04-08 13:00,ZGGG 081300Z AUTO 16006KT 3SM 25/24 A2968 RMK T02500240 IEM_DS3505
ZGGG,2001-04-08 14:00,ZGGG 081400Z AUTO 19002KT 3SM 24/24 A2971 RMK T02400240 IEM_DS3505
ZGGG,2001-04-08 15:00,ZGGG 081500Z AUTO 11004KT 1 1/4SM 24/23 A2974 RMK SLP075 T02420233 52016 IEM_DS3505
ZGGG,2001-04-08 16:00,ZGGG 081600Z AUTO 17002KT 2 1/2SM 24/24 A2974 RMK T02400240 IEM_DS3505
ZGGG,2001-04-08 17:00,ZGGG 081700Z AUTO 33002KT 2 1/2SM 24/24 A2974 RMK T02400240 IEM_DS3505
ZGGG,2001-04-08 18:00,ZGGG 081800Z AUTO 00000KT 1 1/2SM 24/24 A2971 RMK SLP072 T02420236 57003 IEM_DS3505
ZGGG,2001-04-08 19:00,ZGGG 081900Z AUTO 00000KT 2 1/2SM 24/24 A2971 RMK T02400240 IEM_DS3505
ZGGG,2001-04-08 20:00,ZGGG 082000Z AUTO 15002KT 2SM 24/24 A2971 RMK T02400240 IEM_DS3505
ZGGG,2001-04-08 21:00,ZGGG 082100Z AUTO 14002KT 1 1/2SM 24/23 A2971 RMK 70003 SLP072 T02410234 54000 IEM_DS3505
ZGGG,2001-04-08 22:00,ZGGG 082200Z AUTO 00000KT 1 1/2SM 24/24 A2974 RMK T02400240 IEM_DS3505
ZGGG,2001-04-08 23:00,ZGGG 082300Z AUTO 11004KT 1SM 24/24 A2977 RMK T02400240 IEM_DS3505
ZGGG,2001-04-09 00:00,ZGGG 090000Z AUTO 11006KT 1 1/4SM 24/24 A2977 RMK 60003 SLP090 T02440235 52018 IEM_DS3505
ZGGG,2001-04-09 01:00,ZGGG 090100Z AUTO 12004KT 2 1/2SM 26/24 A2980 RMK T02600240 IEM_DS3505
ZGGG,2001-04-09 02:00,ZGGG 090200Z AUTO 12004KT 2 1/2SM 26/24 A2980 RMK T02600240 IEM_DS3505
ZGGG,2001-04-09 03:00,ZGGG 090300Z AUTO 11008KT 3SM 26/23 A2980 RMK SLP098 T02610232 52008 IEM_DS3505
ZGGG,2001-04-09 04:00,ZGGG 090400Z AUTO 11004KT 3SM 27/23 A2980 RMK T02700230 IEM_DS3505
ZGGG,2001-04-09 05:00,ZGGG 090500Z AUTO 11002KT 3SM 26/23 A2980 RMK T02600230 IEM_DS3505
ZGGG,2001-04-09 06:00,ZGGG 090600Z AUTO 09004KT 7SM 26/23 A2977 RMK 60003 SLP085 T02580230 57013 IEM_DS3505
ZGGG,2001-04-09 07:00,ZGGG 090700Z AUTO 09004KT 3SM 26/23 A2974 RMK T02600230 IEM_DS3505
ZGGG,2001-04-09 08:00,ZGGG 090800Z AUTO 05002KT 3SM 24/23 A2971 RMK T02400230 IEM_DS3505
ZGGG,2001-04-09 09:00,ZGGG 090900Z AUTO 11006KT 1 1/4SM 24/23 A2974 RMK SLP077 T02380231 57008 IEM_DS3505
ZGGG,2001-04-09 10:00,ZGGG 091000Z AUTO 09004KT 2 1/2SM 24/23 A2977 RMK T02400230 IEM_DS3505
ZGGG,2001-04-09 11:00,ZGGG 091100Z AUTO 13004KT 1SM 24/24 A2980 RMK T02400240 IEM_DS3505
ZGGG,2001-04-09 12:00,ZGGG 091200Z AUTO 11004KT 2SM 24/23 A2980 RMK 60106 SLP103 T02370231 52026 IEM_DS3505
ZGGG,2001-04-09 13:00,ZGGG 091300Z AUTO 13006KT 4SM 24/23 A2983 RMK T02400230 IEM_DS3505
ZGGG,2001-04-09 14:00,ZGGG 091400Z AUTO 13006KT 5SM 24/23 A2985 RMK T02400230 IEM_DS3505
ZGGG,2001-04-09 15:00,ZGGG 091500Z AUTO 14004KT 8SM 23/22 A2985 RMK SLP124 T02340216 52021 IEM_DS3505
ZGGG,2001-04-09 16:00,ZGGG 091600Z AUTO 13004KT 7SM 24/22 A2985 RMK T02400220 IEM_DS3505
ZGGG,2001-04-09 17:00,ZGGG 091700Z AUTO 13004KT 7SM 24/22 A2985 RMK T02400220 IEM_DS3505
ZGGG,2001-04-09 18:00,ZGGG 091800Z AUTO 14004KT 6SM 23/21 A2985 RMK 60000 SLP115 T02290214 57009 IEM_DS3505
ZGGG,2001-04-09 19:00,ZGGG 091900Z AUTO 15004KT 4SM 23/22 A2983 RMK T02300220 IEM_DS3505
ZGGG,2001-04-09 20:00,ZGGG 092000Z AUTO 14004KT 4SM 23/22 A2983 RMK T02300220 IEM_DS3505
ZGGG,2001-04-09 21:00,ZGGG 092100Z AUTO 11004KT 4SM 22/21 A2983 RMK 70107 SLP113 T02240212 57002 IEM_DS3505
ZGGG,2001-04-09 22:00,ZGGG 092200Z AUTO 13004KT 4SM 23/22 A2985 RMK T02300220 IEM_DS3505
ZGGG,2001-04-09 23:00,ZGGG 092300Z AUTO 15004KT 4SM 23/21 A2988 RMK T02300210 IEM_DS3505
ZGGG,2001-04-10 00:00,ZGGG 100000Z AUTO 11004KT 9SM 22/20 A2991 RMK 60000 SLP135 T02240204 52021 IEM_DS3505
ZGGG,2001-04-10 01:00,ZGGG 100100Z AUTO 14004KT 4SM 23/21 A2991 RMK T02300210 IEM_DS3505
ZGGG,2001-04-10 02:00,ZGGG 100200Z AUTO 13006KT 4SM 24/21 A2991 RMK T02400210 IEM_DS3505
ZGGG,2001-04-10 03:00,ZGGG 100300Z AUTO 11006KT 9SM 24/20 A2991 RMK SLP140 T02360202 52005 IEM_DS3505
ZGGG,2001-04-10 04:00,ZGGG 100400Z AUTO 11004KT 3SM 24/21 A2991 RMK T02400210 IEM_DS3505
ZGGG,2001-04-10 05:00,ZGGG 100500Z AUTO 15004KT 4SM 24/19 A2988 RMK T02400190 IEM_DS3505
ZGGG,2001-04-10 06:00,ZGGG 100600Z AUTO 14004KT 7SM 24/20 A2985 RMK 60003 SLP121 T02440196 57018 IEM_DS3505
ZGGG,2001-04-10 07:00,ZGGG 100700Z AUTO 17002KT 4SM 24/20 A2985 RMK T02400200 IEM_DS3505
ZGGG,2001-04-10 08:00,ZGGG 100800Z AUTO 18002KT 4SM 24/20 A2985 RMK T02400200 IEM_DS3505
ZGGG,2001-04-10 09:00,ZGGG 100900Z AUTO 16002KT 5SM 24/21 A2985 RMK SLP113 T02380208 57008 IEM_DS3505
ZGGG,2001-04-10 10:00,ZGGG 101000Z AUTO 17004KT 1 1/2SM 23/22 A2985 RMK T02300220 IEM_DS3505
ZGGG,2001-04-10 11:00,ZGGG 101100Z AUTO 16004KT 2SM 22/21 A2988 RMK T02200210 IEM_DS3505
ZGGG,2001-04-10 12:00,ZGGG 101200Z AUTO 14002KT 5SM 22/21 A2988 RMK 60002 SLP132 T02220211 52018 IEM_DS3505
ZGGG,2001-04-10 13:00,ZGGG 101300Z AUTO 02004KT 1 1/4SM 22/21 A2994 RMK T02200210 IEM_DS3505
ZGGG,2001-04-10 14:00,ZGGG 101400Z AUTO 36004KT 1 1/4SM 22/21 A2997 RMK T02200210 IEM_DS3505
ZGGG,2001-04-10 15:00,ZGGG 101500Z AUTO 34006KT 4SM 22/21 A2997 RMK SLP155 T02180209 52023 IEM_DS3505
ZGGG,2001-04-10 16:00,ZGGG 101600Z AUTO 01010KT 5SM 18/17 A3000 RMK T01800170 IEM_DS3505
ZGGG,2001-04-10 17:00,ZGGG 101700Z AUTO 36012KT 7SM 17/16 A2997 RMK T01700160 IEM_DS3505
ZGGG,2001-04-10 18:00,ZGGG 101800Z AUTO 34008KT 3SM 16/16 A3000 RMK 60020 SLP161 T01650155 52006 IEM_DS3505
ZGGG,2001-04-10 19:00,ZGGG 101900Z AUTO 36016KT 7SM 15/13 A3000 RMK T01500130 IEM_DS3505
ZGGG,2001-04-10 20:00,ZGGG 102000Z AUTO 36014KT 5SM 14/13 A3000 RMK T01400130 IEM_DS3505
ZGGG,2001-04-10 21:00,ZGGG 102100Z AUTO 34008KT 6SM 13/12 A3003 RMK 70022 SLP169 T01330122 52007 IEM_DS3505
ZGGG,2001-04-10 22:00,ZGGG 102200Z AUTO 01014KT 7SM 13/12 A3006 RMK T01300120 IEM_DS3505
ZGGG,2001-04-10 23:00,ZGGG 102300Z AUTO 36014KT 7SM 13/10 A3009 RMK T01300100 IEM_DS3505
ZGGG,2001-04-11 00:00,ZGGG 110000Z AUTO 34010KT 9SM 13/10 A3012 RMK 60002 SLP202 T01280103 52033 IEM_DS3505
ZGGG,2001-04-11 01:00,ZGGG 110100Z AUTO 01016G27KT 7SM 13/09 A3015 RMK T01300090 IEM_DS3505
ZGGG,2001-04-11 02:00,ZGGG 110200Z AUTO 36014KT 7SM 13/08 A3018 RMK T01300080 IEM_DS3505
ZGGG,2001-04-11 03:00,ZGGG 110300Z AUTO 02008KT 14SM 14/08 A3015 RMK SLP211 T01350085 52009 IEM_DS3505
ZGGG,2001-04-11 04:00,ZGGG 110400Z AUTO 36010KT 6SM 13/08 A3015 RMK T01300080 IEM_DS3505
ZGGG,2001-04-11 05:00,ZGGG 110500Z AUTO 36012KT 6SM 13/08 A3015 RMK T01300080 IEM_DS3505
ZGGG,2001-04-11 06:00,ZGGG 110600Z AUTO 34006KT 14SM 13/08 A3012 RMK SLP200 T01320077 57011 IEM_DS3505
ZGGG,2001-04-11 07:00,ZGGG 110700Z AUTO 01014KT 6SM 13/08 A3009 RMK T01300080 IEM_DS3505
ZGGG,2001-04-11 08:00,ZGGG 110800Z AUTO 01014KT 6SM 14/08 A3006 RMK T01400080 IEM_DS3505
ZGGG,2001-04-11 09:00,ZGGG 110900Z AUTO 02008KT 15SM 14/08 A3006 RMK SLP184 T01400075 57017 IEM_DS3505
ZGGG,2001-04-11 10:00,ZGGG 111000Z AUTO 01010KT 6SM 13/08 A3006 RMK T01300080 IEM_DS3505
ZGGG,2001-04-11 11:00,ZGGG 111100Z AUTO 36010KT 6SM 12/07 A3009 RMK T01200070 IEM_DS3505
ZGGG,2001-04-11 12:00,ZGGG 111200Z AUTO 34002KT 14SM 12/08 A3009 RMK SLP197 T01200079 52013 IEM_DS3505
ZGGG,2001-04-11 13:00,ZGGG 111300Z AUTO 36006KT 6SM 12/08 A3012 RMK T01200080 IEM_DS3505
ZGGG,2001-04-11 14:00,ZGGG 111400Z AUTO 36006KT 6SM 12/07 A3015 RMK T01200070 IEM_DS3505
ZGGG,2001-04-11 15:00,ZGGG 111500Z AUTO 02006KT 11SM 12/09 A3015 RMK SLP216 T01220086 52019 IEM_DS3505
ZGGG,2001-04-11 16:00,ZGGG 111600Z AUTO 36008KT 6SM 12/08 A3015 RMK T01200080 IEM_DS3505
ZGGG,2001-04-11 17:00,ZGGG 111700Z AUTO 36008KT 6SM 12/08 A3012 RMK T01200080 IEM_DS3505
ZGGG,2001-04-11 18:00,ZGGG 111800Z AUTO 02004KT 10SM 12/09 A3012 RMK SLP203 T01160086 57013 IEM_DS3505
ZGGG,2001-04-11 19:00,ZGGG 111900Z AUTO 36008KT 6SM 12/08 A3009 RMK T01200080 IEM_DS3505
ZGGG,2001-04-11 20:00,ZGGG 112000Z AUTO 36008KT 6SM 12/07 A3009 RMK T01200070 IEM_DS3505
ZGGG,2001-04-11 21:00,ZGGG 112100Z AUTO 34002KT 11SM 12/06 A3009 RMK 70000 SLP199 T01160065 57004 IEM_DS3505
ZGGG,2001-04-11 22:00,ZGGG 112200Z AUTO 36006KT 6SM 11/07 A3012 RMK T01100070 IEM_DS3505
ZGGG,2001-04-11 23:00,ZGGG 112300Z AUTO 36006KT 6SM 12/07 A3012 RMK T01200070 IEM_DS3505
ZGGG,2001-04-12 00:00,ZGGG 120000Z AUTO 02006KT 11SM 12/06 A3015 RMK SLP214 T01250059 52015 IEM_DS3505
ZGGG,2001-04-12 01:00,ZGGG 120100Z AUTO 04008KT 6SM 15/07 A3015 RMK T01500070 IEM_DS3505
ZGGG,2001-04-12 02:00,ZGGG 120200Z AUTO 02008KT 6SM 16/07 A3015 RMK T01600070 IEM_DS3505
ZGGG,2001-04-12 03:00,ZGGG 120300Z AUTO 07004KT 12SM 17/07 A3012 RMK SLP204 T01720072 57009 IEM_DS3505
ZGGG,2001-04-12 04:00,ZGGG 120400Z AUTO 01008KT 6SM 19/07 A3006 RMK T01900070 IEM_DS3505
ZGGG,2001-04-12 06:00,ZGGG 120600Z AUTO 16004KT 14SM 21/04 A3003 RMK SLP170 T02090042 57034 IEM_DS3505
ZGGG,2001-04-12 07:00,ZGGG 120700Z AUTO 20006KT 6SM 22/07 A3000 RMK T02200070 IEM_DS3505
ZGGG,2001-04-12 08:00,ZGGG 120800Z AUTO 36004KT 6SM 22/07 A2997 RMK T02200070 IEM_DS3505
ZGGG,2001-04-12 09:00,ZGGG 120900Z AUTO 32004KT 11SM 22/08 A2997 RMK SLP155 T02160084 57015 IEM_DS3505
ZGGG,2001-04-12 10:00,ZGGG 121000Z AUTO 01004KT 6SM 21/07 A2997 RMK T02100070 IEM_DS3505
ZGGG,2001-04-12 11:00,ZGGG 121100Z AUTO 30002KT 6SM 20/08 A2997 RMK T02000080 IEM_DS3505
ZGGG,2001-04-12 12:00,ZGGG 121200Z AUTO 00000KT 11SM 17/12 A3000 RMK SLP165 T01720115 52010 IEM_DS3505
ZGGG,2001-04-12 13:00,ZGGG 121300Z AUTO 00000KT 5SM 17/11 A3003 RMK T01700110 IEM_DS3505
ZGGG,2001-04-12 14:00,ZGGG 121400Z AUTO 14004KT 5SM 18/10 A3003 RMK T01800100 IEM_DS3505
ZGGG,2001-04-12 15:00,ZGGG 121500Z AUTO 00000KT 11SM 15/12 A3003 RMK SLP178 T01530122 52013 IEM_DS3505
ZGGG,2001-04-12 16:00,ZGGG 121600Z AUTO 00000KT 3SM 16/11 A3003 RMK T01600110 IEM_DS3505
ZGGG,2001-04-12 17:00,ZGGG 121700Z AUTO 04002KT 17/11 A3003 RMK T01700110 IEM_DS3505
ZGGG,2001-04-12 18:00,ZGGG 121800Z AUTO 00000KT 10SM 16/13 A3000 RMK SLP169 T01620132 57009 IEM_DS3505
ZGGG,2001-04-12 19:00,ZGGG 121900Z AUTO 12SM 17/11 A3000 RMK T01700110 IEM_DS3505
ZGGG,2001-04-12 20:00,ZGGG 122000Z AUTO 00000KT 17/11 A3000 RMK T01700110 IEM_DS3505
ZGGG,2001-04-12 21:00,ZGGG 122100Z AUTO 00000KT 9SM 16/13 A3000 RMK SLP166 T01600128 57003 IEM_DS3505
ZGGG,2001-04-12 22:00,ZGGG 122200Z AUTO 07004KT 3SM 16/13 A3003 RMK T01600130 IEM_DS3505
ZGGG,2001-04-12 23:00,ZGGG 122300Z AUTO 07002KT 2 1/2SM 16/13 A3003 RMK T01600130 IEM_DS3505
ZGGG,2001-04-13 00:00,ZGGG 130000Z AUTO 00000KT 9SM 17/13 A3003 RMK SLP182 T01700129 52016 IEM_DS3505
ZGGG,2001-04-13 01:00,ZGGG 130100Z AUTO 11004KT 18/12 A3006 RMK T01800120 IEM_DS3505
ZGGG,2001-04-13 02:00,ZGGG 130200Z AUTO 13004KT 5SM 20/12 A3006 RMK T02000120 IEM_DS3505
ZGGG,2001-04-13 03:00,ZGGG 130300Z AUTO 11006KT 10SM 20/12 A3003 RMK SLP182 T02020124 54000 IEM_DS3505
ZGGG,2001-04-13 04:00,ZGGG 130400Z AUTO 12004KT 5SM 21/12 A3003 RMK T02100120 IEM_DS3505
ZGGG,2001-04-13 05:00,ZGGG 130500Z AUTO 14002KT 20/12 A3003 RMK T02000120 IEM_DS3505
ZGGG,2001-04-13 06:00,ZGGG 130600Z AUTO 14002KT 9SM 20/13 A3000 RMK SLP169 T02030131 57013 IEM_DS3505
ZGGG,2001-04-13 07:00,ZGGG 130700Z AUTO 15004KT 20/13 A3000 RMK T02000130 IEM_DS3505
ZGGG,2001-04-13 08:00,ZGGG 130800Z AUTO 09004KT 4SM 19/14 A2997 RMK T01900140 IEM_DS3505
ZGGG,2001-04-13 09:00,ZGGG 130900Z AUTO 00000KT 7SM 19/15 A3000 RMK SLP164 T01940148 57005 IEM_DS3505
ZGGG,2001-04-13 10:00,ZGGG 131000Z AUTO 10002KT 3SM 19/14 A3000 RMK T01900140 IEM_DS3505
ZGGG,2001-04-13 11:00,ZGGG 131100Z AUTO 00000KT 2 1/2SM 19/14 A3000 RMK T01900140 IEM_DS3505
ZGGG,2001-04-13 12:00,ZGGG 131200Z AUTO 00000KT 7SM 19/15 A3003 RMK SLP176 T01900151 52012 IEM_DS3505
ZGGG,2001-04-13 13:00,ZGGG 131300Z AUTO 08002KT 5SM 19/14 A3003 RMK T01900140 IEM_DS3505
ZGGG,2001-04-13 14:00,ZGGG 131400Z AUTO 08002KT 5SM 19/15 A3006 RMK T01900150 IEM_DS3505
ZGGG,2001-04-13 15:00,ZGGG 131500Z AUTO 00000KT 7SM 19/15 A3006 RMK SLP187 T01860150 52011 IEM_DS3505
ZGGG,2001-04-13 16:00,ZGGG 131600Z AUTO 04004KT 3SM 18/15 A3006 RMK T01800150 IEM_DS3505
ZGGG,2001-04-13 17:00,ZGGG 131700Z AUTO 04004KT 3SM 18/15 A3006 RMK T01800150 IEM_DS3505
ZGGG,2001-04-13 18:00,ZGGG 131800Z AUTO 34002KT 7SM 19/15 A3006 RMK 60003 SLP190 T01860152 52003 IEM_DS3505
ZGGG,2001-04-13 19:00,ZGGG 131900Z AUTO 00000KT 3SM 18/16 A3006 RMK T01800160 IEM_DS3505
ZGGG,2001-04-13 20:00,ZGGG 132000Z AUTO 04004KT 3SM 18/16 A3006 RMK T01800160 IEM_DS3505
ZGGG,2001-04-13 21:00,ZGGG 132100Z AUTO 34002KT 6SM 18/16 A3009 RMK 70003 SLP194 T01800155 52004 IEM_DS3505
ZGGG,2001-04-13 22:00,ZGGG 132200Z AUTO 07004KT 1SM 17/16 A3009 RMK T01700160 IEM_DS3505
ZGGG,2001-04-13 23:00,ZGGG 132300Z AUTO 06002KT 1 1/4SM 17/16 A3012 RMK T01700160 IEM_DS3505
ZGGG,2001-04-14 00:00,ZGGG 140000Z AUTO 00000KT 7SM 18/16 A3012 RMK 60008 SLP213 T01750165 52019 IEM_DS3505
ZGGG,2001-04-14 01:00,ZGGG 140100Z AUTO 01006KT 1 1/2SM 18/17 A3015 RMK T01800170 IEM_DS3505
ZGGG,2001-04-14 02:00,ZGGG 140200Z AUTO 35004KT 1SM 17/17 A3018 RMK T01700170 IEM_DS3505
ZGGG,2001-04-14 03:00,ZGGG 140300Z AUTO 32002KT 2SM 18/17 A3018 RMK SLP222 T01790169 52009 IEM_DS3505
ZGGG,2001-04-14 04:00,ZGGG 140400Z AUTO 35004KT 1SM 18/17 A3015 RMK T01800170 IEM_DS3505
ZGGG,2001-04-14 05:00,ZGGG 140500Z AUTO 07004KT 1 1/2SM 18/17 A3012 RMK T01800170 IEM_DS3505
ZGGG,2001-04-14 06:00,ZGGG 140600Z AUTO 02002KT 1SM 19/18 A3009 RMK 60028 SLP200 T01890178 57022 IEM_DS3505
ZGGG,2001-04-14 07:00,ZGGG 140700Z AUTO 36002KT 2 1/2SM 20/17 A3009 RMK T02000170 IEM_DS3505
ZGGG,2001-04-14 08:00,ZGGG 140800Z AUTO 36004KT 1 1/2SM 20/18 A3006 RMK T02000180 IEM_DS3505
ZGGG,2001-04-14 09:00,ZGGG 140900Z AUTO 02002KT 8SM 21/17 A3006 RMK SLP184 T02060167 57016 IEM_DS3505
ZGGG,2001-04-14 10:00,ZGGG 141000Z AUTO 00000KT 2 1/2SM 21/18 A3006 RMK T02100180 IEM_DS3505
ZGGG,2001-04-14 11:00,ZGGG 141100Z AUTO 03002KT 4SM 20/17 A3006 RMK T02000170 IEM_DS3505
ZGGG,2001-04-14 12:00,ZGGG 141200Z AUTO 00000KT 9SM 19/18 A3006 RMK 60002 SLP191 T01920176 52007 IEM_DS3505
ZGGG,2001-04-14 13:00,ZGGG 141300Z AUTO 00000KT 2 1/2SM 19/18 A3009 RMK T01900180 IEM_DS3505
ZGGG,2001-04-14 14:00,ZGGG 141400Z AUTO 00000KT 2 1/2SM 19/18 A3009 RMK T01900180 IEM_DS3505
ZGGG,2001-04-14 15:00,ZGGG 141500Z AUTO 00000KT 6SM 20/18 A3009 RMK SLP200 T01950177 52009 IEM_DS3505
ZGGG,2001-04-14 16:00,ZGGG 141600Z AUTO 00000KT 1 1/2SM 19/18 A3009 RMK T01900180 IEM_DS3505
ZGGG,2001-04-14 17:00,ZGGG 141700Z AUTO 00000KT 1 1/2SM 19/18 A3009 RMK T01900180 IEM_DS3505
ZGGG,2001-04-14 18:00,ZGGG 141800Z AUTO 00000KT 4SM 19/18 A3009 RMK 60003 SLP192 T01910180 57008 IEM_DS3505
ZGGG,2001-04-14 19:00,ZGGG 141900Z AUTO 00000KT 1SM 19/18 A3006 RMK T01900180 IEM_DS3505
ZGGG,2001-04-14 20:00,ZGGG 142000Z AUTO 00000KT 1SM 18/18 A3003 RMK T01800180 IEM_DS3505
ZGGG,2001-04-14 21:00,ZGGG 142100Z AUTO 00000KT 2 1/2SM 19/18 A3006 RMK 70037 SLP181 T01900182 57010 IEM_DS3505
ZGGG,2001-04-14 22:00,ZGGG 142200Z AUTO 00000KT 1SM 19/18 A3006 RMK T01900180 IEM_DS3505
ZGGG,2001-04-14 23:00,ZGGG 142300Z AUTO 00000KT 1SM 19/18 A3006 RMK T01900180 IEM_DS3505
ZGGG,2001-04-15 00:00,ZGGG 150000Z AUTO 00000KT 2 1/2SM 20/19 A3009 RMK 70028 SLP195 T01960186 52013 IEM_DS3505
ZGGG,2001-04-15 01:00,ZGGG 150100Z AUTO 00000KT 1SM 20/18 A3009 RMK T02000180 IEM_DS3505
ZGGG,2001-04-15 02:00,ZGGG 150200Z AUTO 00000KT 1SM 21/18 A3009 RMK T02100180 IEM_DS3505
ZGGG,2001-04-15 03:00,ZGGG 150300Z AUTO 00000KT 2 1/2SM 21/19 A3009 RMK SLP193 T02130189 57001 IEM_DS3505
ZGGG,2001-04-15 04:00,ZGGG 150400Z AUTO 36004KT 1/2SM 23/19 A3006 RMK T02300190 IEM_DS3505
ZGGG,2001-04-15 05:00,ZGGG 150500Z AUTO 36004KT 1SM 23/19 A3003 RMK T02300190 IEM_DS3505
ZGGG,2001-04-15 06:00,ZGGG 150600Z AUTO 07004KT 3SM 26/17 A3000 RMK SLP162 T02600169 57031 IEM_DS3505
ZGGG,2001-04-15 07:00,ZGGG 150700Z AUTO 35006KT 1 1/2SM 26/19 A2997 RMK T02600190 IEM_DS3505
ZGGG,2001-04-15 08:00,ZGGG 150800Z AUTO 34006KT 2SM 26/18 A2994 RMK T02600180 IEM_DS3505
ZGGG,2001-04-15 09:00,ZGGG 150900Z AUTO 32002KT 3SM 26/18 A2994 RMK SLP144 T02580179 57018 IEM_DS3505
ZGGG,2001-04-15 10:00,ZGGG 151000Z AUTO 04004KT 2 1/2SM 24/17 A2994 RMK T02400170 IEM_DS3505
ZGGG,2001-04-15 11:00,ZGGG 151100Z AUTO 09004KT 2 1/2SM 23/18 A2994 RMK T02300180 IEM_DS3505
ZGGG,2001-04-15 12:00,ZGGG 151200Z AUTO 18002KT 3SM 23/18 A2997 RMK SLP155 T02290185 52011 IEM_DS3505
ZGGG,2001-04-15 13:00,ZGGG 151300Z AUTO 36004KT 2 1/2SM 23/18 A2997 RMK T02300180 IEM_DS3505
ZGGG,2001-04-15 14:00,ZGGG 151400Z AUTO 32002KT 2 1/2SM 22/18 A3000 RMK T02200180 IEM_DS3505
ZGGG,2001-04-15 15:00,ZGGG 151500Z AUTO 00000KT 4SM 22/18 A3000 RMK SLP168 T02200184 52013 IEM_DS3505
ZGGG,2001-04-15 16:00,ZGGG 151600Z AUTO 00000KT 4SM 21/17 A3000 RMK T02100170 IEM_DS3505
ZGGG,2001-04-15 17:00,ZGGG 151700Z AUTO 00000KT 4SM 21/17 A2997 RMK T02100170 IEM_DS3505
ZGGG,2001-04-15 18:00,ZGGG 151800Z AUTO 18004KT 4SM 22/18 A2997 RMK SLP158 T02150183 57010 IEM_DS3505
ZGGG,2001-04-15 19:00,ZGGG 151900Z AUTO 00000KT 3SM 21/17 A2997 RMK T02100170 IEM_DS3505
ZGGG,2001-04-15 20:00,ZGGG 152000Z AUTO 00000KT 2 1/2SM 20/18 A2994 RMK T02000180 IEM_DS3505
ZGGG,2001-04-15 21:00,ZGGG 152100Z AUTO 00000KT 4SM 21/18 A2997 RMK SLP153 T02090185 57005 IEM_DS3505
ZGGG,2001-04-15 22:00,ZGGG 152200Z AUTO 06002KT 2SM 20/18 A2997 RMK T02000180 IEM_DS3505
ZGGG,2001-04-15 23:00,ZGGG 152300Z AUTO 00000KT 1 1/4SM 20/18 A2997 RMK T02000180 IEM_DS3505
ZGGG,2001-04-16 00:00,ZGGG 160000Z AUTO 00000KT 2SM 21/18 A2997 RMK SLP160 T02090182 52007 IEM_DS3505
ZGGG,2001-04-16 01:00,ZGGG 160100Z AUTO 07002KT 1 1/2SM 21/18 A3000 RMK T02100180 IEM_DS3505
ZGGG,2001-04-16 02:00,ZGGG 160200Z AUTO 00000KT 2SM 23/18 A3000 RMK T02300180 IEM_DS3505
ZGGG,2001-04-16 03:00,ZGGG 160300Z AUTO 18006KT 2SM 25/19 A2997 RMK SLP158 T02480189 57002 IEM_DS3505
ZGGG,2001-04-16 04:00,ZGGG 160400Z AUTO 18008KT 2SM 26/20 A2994 RMK T02600200 IEM_DS3505
ZGGG,2001-04-16 05:00,ZGGG 160500Z AUTO 16004KT 2SM 26/19 A2991 RMK T02600190 IEM_DS3505
ZGGG,2001-04-16 06:00,ZGGG 160600Z AUTO 11002KT 5SM 27/20 A2988 RMK SLP126 T02660199 57031 IEM_DS3505
ZGGG,2001-04-16 07:00,ZGGG 160700Z AUTO 28004KT 1SM 25/20 A2985 RMK T02500200 IEM_DS3505
ZGGG,2001-04-16 08:00,ZGGG 160800Z AUTO 35004KT 1 1/4SM 25/21 A2985 RMK T02500210 IEM_DS3505
ZGGG,2001-04-16 09:00,ZGGG 160900Z AUTO 34004KT 1 1/2SM 25/20 A2983 RMK SLP114 T02500204 57013 IEM_DS3505
ZGGG,2001-04-16 10:00,ZGGG 161000Z AUTO 36004KT 1 1/4SM 24/21 A2983 RMK T02400210 IEM_DS3505
ZGGG,2001-04-16 11:00,ZGGG 161100Z AUTO 36006KT 1 1/2SM 23/20 A2985 RMK T02300200 IEM_DS3505
ZGGG,2001-04-16 12:00,ZGGG 161200Z AUTO 36002KT 2 1/2SM 24/20 A2985 RMK SLP121 T02350205 52007 IEM_DS3505
ZGGG,2001-04-16 13:00,ZGGG 161300Z AUTO 05006KT 2 1/2SM 22/19 A2988 RMK T02200190 IEM_DS3505
ZGGG,2001-04-16 14:00,ZGGG 161400Z AUTO 00000KT 2 1/2SM 23/20 A2988 RMK T02300200 IEM_DS3505
ZGGG,2001-04-16 15:00,ZGGG 161500Z AUTO 04002KT 1 1/2SM 23/21 A2988 RMK SLP126 T02310210 52006 IEM_DS3505
ZGGG,2001-04-16 16:00,ZGGG 161600Z AUTO 00000KT 2 1/2SM 22/20 A2988 RMK T02200200 IEM_DS3505
ZGGG,2001-04-16 17:00,ZGGG 161700Z AUTO 00000KT 2 1/2SM 22/19 A2988 RMK T02200190 IEM_DS3505
ZGGG,2001-04-16 18:00,ZGGG 161800Z AUTO 00000KT 1 1/2SM 22/20 A2985 RMK SLP116 T02230205 57010 IEM_DS3505
ZGGG,2001-04-16 19:00,ZGGG 161900Z AUTO 00000KT 2 1/2SM 21/19 A2985 RMK T02100190 IEM_DS3505
ZGGG,2001-04-16 20:00,ZGGG 162000Z AUTO 00000KT 2 1/2SM 21/19 A2983 RMK T02100190 IEM_DS3505
ZGGG,2001-04-16 21:00,ZGGG 162100Z AUTO 18002KT 2SM 22/21 A2983 RMK SLP111 T02240206 57005 IEM_DS3505
ZGGG,2001-04-16 22:00,ZGGG 162200Z AUTO 00000KT 2SM 21/20 A2985 RMK T02100200 IEM_DS3505
ZGGG,2001-04-16 23:00,ZGGG 162300Z AUTO 00000KT 1 1/4SM 22/20 A2985 RMK T02200200 IEM_DS3505
ZGGG,2001-04-17 00:00,ZGGG 170000Z AUTO 00000KT 1 1/4SM 22/21 A2988 RMK SLP128 T02240206 52016 IEM_DS3505
ZGGG,2001-04-17 01:00,ZGGG 170100Z AUTO 00000KT 1SM 23/21 A2988 RMK T02300210 IEM_DS3505
ZGGG,2001-04-17 02:00,ZGGG 170200Z AUTO 31004KT 1SM 23/21 A2991 RMK T02300210 IEM_DS3505
ZGGG,2001-04-17 03:00,ZGGG 170300Z AUTO 14004KT 2SM 24/21 RMK SLP123 T02380211 57004 IEM_DS3505
ZGGG,2001-04-17 04:00,ZGGG 170400Z AUTO 21004KT 1 1/4SM 24/21 A2985 RMK T02400210 IEM_DS3505
ZGGG,2001-04-17 05:00,ZGGG 170500Z AUTO 23008KT 2SM 26/21 A2983 RMK T02600210 IEM_DS3505
ZGGG,2001-04-17 06:00,ZGGG 170600Z AUTO 18002KT 3SM 26/22 A2980 RMK 60003 SLP101 T02580215 57022 IEM_DS3505
ZGGG,2001-04-17 07:00,ZGGG 170700Z AUTO 24006KT 1 1/2SM 26/22 A2980 RMK T02600220 IEM_DS3505
ZGGG,2001-04-17 08:00,ZGGG 170800Z AUTO 34004KT 1SM 25/21 A2977 RMK T02500210 IEM_DS3505
ZGGG,2001-04-17 09:00,ZGGG 170900Z AUTO 16004KT 4SM 26/22 A2977 RMK SLP088 T02600219 57013 IEM_DS3505
ZGGG,2001-04-17 10:00,ZGGG 171000Z AUTO 02004KT 1SM 25/22 A2977 RMK T02500220 IEM_DS3505
ZGGG,2001-04-17 11:00,ZGGG 171100Z AUTO 03002KT 1SM 24/22 A2980 RMK T02400220 IEM_DS3505
ZGGG,2001-04-17 12:00,ZGGG 171200Z AUTO 09004KT 5SM 25/23 A2980 RMK SLP096 T02490227 52008 IEM_DS3505
ZGGG,2001-04-17 13:00,ZGGG 171300Z AUTO 11002KT 2 1/2SM 24/22 A2980 RMK T02400220 IEM_DS3505
ZGGG,2001-04-17 14:00,ZGGG 171400Z AUTO 00000KT 2 1/2SM 24/22 A2980 RMK T02400220 IEM_DS3505
ZGGG,2001-04-17 15:00,ZGGG 171500Z AUTO 09002KT 3SM 24/22 A2983 RMK SLP106 T02360220 52010 IEM_DS3505
ZGGG,2001-04-17 16:00,ZGGG 171600Z AUTO 16002KT 2 1/2SM 24/22 A2980 RMK T02400220 IEM_DS3505
ZGGG,2001-04-17 17:00,ZGGG 171700Z AUTO 15004KT 2SM 24/23 A2980 RMK T02400230 IEM_DS3505
ZGGG,2001-04-17 18:00,ZGGG 171800Z AUTO 00000KT 1 1/4SM 23/22 A2977 RMK SLP089 T02330221 57017 IEM_DS3505
ZGGG,2001-04-17 19:00,ZGGG 171900Z AUTO 17004KT 2SM 23/22 A2977 RMK T02300220 IEM_DS3505
ZGGG,2001-04-17 20:00,ZGGG 172000Z AUTO 20006KT 2SM 23/22 A2977 RMK T02300220 IEM_DS3505
ZGGG,2001-04-17 21:00,ZGGG 172100Z AUTO 11004KT 1 1/4SM 23/22 A2977 RMK 70003 SLP086 T02320220 57003 IEM_DS3505
ZGGG,2001-04-17 22:00,ZGGG 172200Z AUTO 17006KT 2SM 23/22 A2977 RMK T02300220 IEM_DS3505
ZGGG,2001-04-17 23:00,ZGGG 172300Z AUTO 16006KT 1 1/4SM 23/22 A2977 RMK T02300220 IEM_DS3505
ZGGG,2001-04-18 00:00,ZGGG 180000Z AUTO 16004KT 1 1/2SM 23/22 A2980 RMK 70003 SLP101 T02340219 52015 IEM_DS3505
ZGGG,2001-04-18 01:00,ZGGG 180100Z AUTO 19008KT 1SM 24/23 A2983 RMK T02400230 IEM_DS3505
ZGGG,2001-04-18 02:00,ZGGG 180200Z AUTO 16006KT 1 1/4SM 24/23 A2983 RMK T02400230 IEM_DS3505
ZGGG,2001-04-18 03:00,ZGGG 180300Z AUTO 14006KT 1 1/4SM 25/22 A2983 RMK SLP110 T02470225 52009 IEM_DS3505
ZGGG,2001-04-18 04:00,ZGGG 180400Z AUTO 15008KT 2SM 25/23 A2980 RMK T02500230 IEM_DS3505
ZGGG,2001-04-18 05:00,ZGGG 180500Z AUTO 15008KT 2 1/2SM 26/23 A2977 RMK T02600230 IEM_DS3505
ZGGG,2001-04-18 06:00,ZGGG 180600Z AUTO 14010KT 6SM 25/22 A2974 RMK 60008 SLP084 T02500222 57026 IEM_DS3505
ZGGG,2001-04-18 07:00,ZGGG 180700Z AUTO 15008KT 3SM 25/22 A2974 RMK T02500220 IEM_DS3505
ZGGG,2001-04-18 08:00,ZGGG 180800Z AUTO 14008KT 3SM 24/23 A2971 RMK T02400230 IEM_DS3505
ZGGG,2001-04-18 09:00,ZGGG 180900Z AUTO 11004KT 2SM 24/22 A2971 RMK SLP075 T02400222 57009 IEM_DS3505
ZGGG,2001-04-18 10:00,ZGGG 181000Z AUTO 14006KT 1SM 23/23 A2974 RMK T02300230 IEM_DS3505
ZGGG,2001-04-18 11:00,ZGGG 181100Z AUTO 14008KT 1 1/2SM 23/23 A2974 RMK T02300230 IEM_DS3505
ZGGG,2001-04-18 12:00,ZGGG 181200Z AUTO 14006KT 1SM 23/23 A2974 RMK 60012 SLP085 T02320226 52010 IEM_DS3505
ZGGG,2001-04-18 13:00,ZGGG 181300Z AUTO 14008KT 3SM 23/23 A2977 RMK T02300230 IEM_DS3505
ZGGG,2001-04-18 14:00,ZGGG 181400Z AUTO 14008KT 3SM 23/22 A2977 RMK T02300220 IEM_DS3505
ZGGG,2001-04-18 15:00,ZGGG 181500Z AUTO 09004KT 1 1/4SM 22/22 A2980 RMK SLP096 T02230217 52011 IEM_DS3505
ZGGG,2001-04-18 16:00,ZGGG 181600Z AUTO 13012KT 2 1/2SM 22/22 A2977 RMK T02200220 IEM_DS3505
ZGGG,2001-04-18 17:00,ZGGG 181700Z AUTO 13010KT 3SM 22/22 A2977 RMK T02200220 IEM_DS3505
ZGGG,2001-04-18 18:00,ZGGG 181800Z AUTO 11006KT 1SM 22/21 A2974 RMK 60003 SLP086 T02200214 57010 IEM_DS3505
ZGGG,2001-04-18 19:00,ZGGG 181900Z AUTO 14008KT 3SM 23/22 A2974 RMK T02300220 IEM_DS3505
ZGGG,2001-04-18 20:00,ZGGG 182000Z AUTO 15010KT 3SM 23/22 A2974 RMK T02300220 IEM_DS3505
ZGGG,2001-04-18 21:00,ZGGG 182100Z AUTO 11006KT 1 1/2SM 22/21 A2974 RMK 70022 SLP080 T02220210 57006 IEM_DS3505
ZGGG,2001-04-18 22:00,ZGGG 182200Z AUTO 15006KT 2 1/2SM 23/22 A2977 RMK T02300220 IEM_DS3505
ZGGG,2001-04-18 23:00,ZGGG 182300Z AUTO 14008KT 2 1/2SM 23/22 A2977 RMK T02300220 IEM_DS3505
ZGGG,2001-04-19 00:00,ZGGG 190000Z AUTO 11004KT 2 1/2SM 22/21 A2980 RMK 70022 SLP096 T02230211 52016 IEM_DS3505
ZGGG,2001-04-19 01:00,ZGGG 190100Z AUTO 15006KT 2SM 24/22 A2980 RMK T02400220 IEM_DS3505
ZGGG,2001-04-19 02:00,ZGGG 190200Z AUTO 14010KT 2SM 24/22 A2980 RMK T02400220 IEM_DS3505
ZGGG,2001-04-19 03:00,ZGGG 190300Z AUTO 14008KT 2SM 24/22 A2977 RMK SLP095 T02420223 57001 IEM_DS3505
ZGGG,2001-04-19 04:00,ZGGG 190400Z AUTO 15010KT 4SM 26/23 A2977 RMK T02600230 IEM_DS3505
ZGGG,2001-04-19 05:00,ZGGG 190500Z AUTO 15010KT 3SM 26/23 A2974 RMK T02600230 IEM_DS3505
ZGGG,2001-04-19 06:00,ZGGG 190600Z AUTO 14006KT 5SM 25/23 A2971 RMK 60002 SLP072 T02510229 57023 IEM_DS3505
ZGGG,2001-04-19 07:00,ZGGG 190700Z AUTO 16012KT 1 1/2SM 25/24 A2968 RMK T02500240 IEM_DS3505
ZGGG,2001-04-19 08:00,ZGGG 190800Z AUTO 14008KT 2SM 24/24 A2968 RMK T02400240 IEM_DS3505
ZGGG,2001-04-19 09:00,ZGGG 190900Z AUTO 14006KT 2SM 24/23 A2968 RMK SLP056 T02430233 57016 IEM_DS3505
ZGGG,2001-04-19 10:00,ZGGG 191000Z AUTO 15010KT 2SM 24/24 A2968 RMK T02400240 IEM_DS3505
ZGGG,2001-04-19 11:00,ZGGG 191100Z AUTO 16010KT 2 1/2SM 24/23 A2968 RMK T02400230 IEM_DS3505
ZGGG,2001-04-19 12:00,ZGGG 191200Z AUTO 14004KT 7SM 24/23 A2971 RMK 60031 SLP068 T02440231 52012 IEM_DS3505
ZGGG,2001-04-19 13:00,ZGGG 191300Z AUTO 16014G23KT 3SM 24/23 A2971 RMK T02400230 IEM_DS3505
ZGGG,2001-04-19 14:00,ZGGG 191400Z AUTO 15012KT 4SM 24/23 A2974 RMK T02400230 IEM_DS3505
ZGGG,2001-04-19 15:00,ZGGG 191500Z AUTO 14004KT 7SM 25/23 A2974 RMK SLP078 T02470229 52010 IEM_DS3505
ZGGG,2001-04-19 16:00,ZGGG 191600Z AUTO 14010KT 4SM 24/23 A2971 RMK T02400230 IEM_DS3505
ZGGG,2001-04-19 17:00,ZGGG 191700Z AUTO 14008KT 4SM 24/23 A2971 RMK T02400230 IEM_DS3505
ZGGG,2001-04-19 18:00,ZGGG 191800Z AUTO 11006KT 7SM 24/23 A2968 RMK SLP063 T02440229 57015 IEM_DS3505
ZGGG,2001-04-19 19:00,ZGGG 191900Z AUTO 15010KT 4SM 24/23 A2968 RMK T02400230 IEM_DS3505
ZGGG,2001-04-19 20:00,ZGGG 192000Z AUTO 14008KT 3SM 24/24 A2968 RMK T02400240 IEM_DS3505
ZGGG,2001-04-19 21:00,ZGGG 192100Z AUTO 17006KT 2 1/2SM 24/23 A2968 RMK T02400230 IEM_DS3505
ZGGG,2001-04-19 22:00,ZGGG 192200Z AUTO 14010KT 4SM 24/24 A2968 RMK T02400240 IEM_DS3505
ZGGG,2001-04-19 23:00,ZGGG 192300Z AUTO 15010KT 3SM 24/24 A2965 RMK T02400240 IEM_DS3505
ZGGG,2001-04-20 00:00,ZGGG 200000Z AUTO 14006KT 5SM 25/23 RMK 60003 SLP055 T02480233 57001 IEM_DS3505
ZGGG,2001-04-20 01:00,ZGGG 200100Z AUTO 16008KT 4SM 26/24 A2968 RMK T02600240 IEM_DS3505
ZGGG,2001-04-20 02:00,ZGGG 200200Z AUTO 15010KT 4SM 26/24 A2968 RMK T02600240 IEM_DS3505
ZGGG,2001-04-20 03:00,ZGGG 200300Z AUTO 14008KT 7SM 27/24 A2965 RMK SLP053 T02680239 57002 IEM_DS3505
ZGGG,2001-04-20 04:00,ZGGG 200400Z AUTO 18010KT 7SM 28/24 A2965 RMK T02800240 IEM_DS3505
ZGGG,2001-04-20 06:00,ZGGG 200600Z AUTO 20006KT 6SM 29/24 A2959 RMK SLP029 T02880235 57023 IEM_DS3505
ZGGG,2001-04-20 07:00,ZGGG 200700Z AUTO 20010KT 7SM 29/23 A2956 RMK T02900230 IEM_DS3505
ZGGG,2001-04-20 08:00,ZGGG 200800Z AUTO 20012KT 7SM 31/24 A2953 RMK T03100240 IEM_DS3505
ZGGG,2001-04-20 09:00,ZGGG 200900Z AUTO 14006KT 9SM 29/24 A2953 RMK SLP011 T02910238 57018 IEM_DS3505
ZGGG,2001-04-20 10:00,ZGGG 201000Z AUTO 16010KT 7SM 28/24 A2956 RMK T02800240 IEM_DS3505
ZGGG,2001-04-20 11:00,ZGGG 201100Z AUTO 15010KT 7SM 28/24 A2956 RMK T02800240 IEM_DS3505
ZGGG,2001-04-20 12:00,ZGGG 201200Z AUTO 14006KT 7SM 26/24 A2956 RMK SLP025 T02640238 52013 IEM_DS3505
ZGGG,2001-04-20 13:00,ZGGG 201300Z AUTO 16008KT 7SM 27/23 A2959 RMK T02700230 IEM_DS3505
ZGGG,2001-04-20 14:00,ZGGG 201400Z AUTO 14008KT 7SM 26/24 A2962 RMK T02600240 IEM_DS3505
ZGGG,2001-04-20 15:00,ZGGG 201500Z AUTO 14006KT 7SM 26/24 A2962 RMK SLP042 T02580238 52017 IEM_DS3505
ZGGG,2001-04-20 16:00,ZGGG 201600Z AUTO 16010KT 7SM 26/24 A2962 RMK T02600240 IEM_DS3505
ZGGG,2001-04-20 17:00,ZGGG 201700Z AUTO 13006KT 7SM 26/24 A2962 RMK T02600240 IEM_DS3505
ZGGG,2001-04-20 18:00,ZGGG 201800Z AUTO 14004KT 8SM 25/24 A2962 RMK SLP037 T02540240 57004 IEM_DS3505
ZGGG,2001-04-20 19:00,ZGGG 201900Z AUTO 16004KT 4SM 26/24 A2959 RMK T02600240 IEM_DS3505
ZGGG,2001-04-20 20:00,ZGGG 202000Z AUTO 14006KT 2 1/2SM 25/24 A2959 RMK T02500240 IEM_DS3505
ZGGG,2001-04-20 21:00,ZGGG 202100Z AUTO 14006KT 2SM 25/24 A2956 RMK 70001 SLP021 T02480242 57016 IEM_DS3505
ZGGG,2001-04-20 22:00,ZGGG 202200Z AUTO 16004KT 2SM 25/24 A2959 RMK T02500240 IEM_DS3505
ZGGG,2001-04-20 23:00,ZGGG 202300Z AUTO 01010KT 5SM 25/24 A2965 RMK T02500240 IEM_DS3505
ZGGG,2001-04-21 00:00,ZGGG 210000Z AUTO 04004KT 9SM 23/22 A2965 RMK 60004 SLP049 T02280219 52027 IEM_DS3505
ZGGG,2001-04-21 01:00,ZGGG 210100Z AUTO 36006KT 7SM 22/22 A2971 RMK T02200220 IEM_DS3505
ZGGG,2001-04-21 02:00,ZGGG 210200Z AUTO 03008KT 7SM 22/22 A2974 RMK T02200220 IEM_DS3505
ZGGG,2001-04-21 03:00,ZGGG 210300Z AUTO 11002KT 9SM 22/22 A2974 RMK SLP073 T02240215 52024 IEM_DS3505
ZGGG,2001-04-21 04:00,ZGGG 210400Z AUTO 09004KT 4SM 22/22 A2974 RMK T02200220 IEM_DS3505
ZGGG,2001-04-21 05:00,ZGGG 210500Z AUTO 00000KT 4SM 23/22 A2971 RMK T02300220 IEM_DS3505
ZGGG,2001-04-21 06:00,ZGGG 210600Z AUTO 00000KT 7SM 23/22 A2971 RMK 60161 SLP066 T02320223 57007 IEM_DS3505
ZGGG,2001-04-21 07:00,ZGGG 210700Z AUTO 00000KT 4SM 23/23 A2968 RMK T02300230 IEM_DS3505
ZGGG,2001-04-21 08:00,ZGGG 210800Z AUTO 00000KT 4SM 24/23 A2968 RMK T02400230 IEM_DS3505
ZGGG,2001-04-21 09:00,ZGGG 210900Z AUTO 09002KT 8SM 24/22 A2968 RMK SLP060 T02350225 57006 IEM_DS3505
ZGGG,2001-04-21 10:00,ZGGG 211000Z AUTO 36006KT 2SM 22/21 A2971 RMK T02200210 IEM_DS3505
ZGGG,2001-04-21 11:00,ZGGG 211100Z AUTO 36006KT 4SM 21/20 A2974 RMK T02100200 IEM_DS3505
ZGGG,2001-04-21 12:00,ZGGG 211200Z AUTO 36002KT 6SM 22/21 A2977 RMK 60003 SLP082 T02200212 52022 IEM_DS3505
ZGGG,2001-04-21 13:00,ZGGG 211300Z AUTO 36008KT 4SM 20/19 A2980 RMK T02000190 IEM_DS3505
ZGGG,2001-04-21 14:00,ZGGG 211400Z AUTO 36008KT 2 1/2SM 19/19 A2983 RMK T01900190 IEM_DS3505
ZGGG,2001-04-21 15:00,ZGGG 211500Z AUTO 36002KT 7SM 19/18 A2983 RMK SLP106 T01930183 52023 IEM_DS3505
ZGGG,2001-04-21 16:00,ZGGG 211600Z AUTO 01008KT 5SM 18/18 A2985 RMK T01800180 IEM_DS3505
ZGGG,2001-04-21 17:00,ZGGG 211700Z AUTO 36008KT 7SM 18/17 A2985 RMK T01800170 IEM_DS3505
ZGGG,2001-04-21 18:00,ZGGG 211800Z AUTO 36006KT 7SM 18/16 A2983 RMK 60000 SLP107 T01820165 52001 IEM_DS3505
ZGGG,2001-04-21 19:00,ZGGG 211900Z AUTO 36008KT 7SM 18/17 A2983 RMK T01800170 IEM_DS3505
ZGGG,2001-04-21 20:00,ZGGG 212000Z AUTO 02008KT 7SM 18/17 A2983 RMK T01800170 IEM_DS3505
ZGGG,2001-04-21 21:00,ZGGG 212100Z AUTO 36004KT 8SM 18/16 A2983 RMK 70171 SLP107 T01770160 54000 IEM_DS3505
ZGGG,2001-04-21 22:00,ZGGG 212200Z AUTO 02008KT 7SM 18/15 A2983 RMK T01800150 IEM_DS3505
ZGGG,2001-04-21 23:00,ZGGG 212300Z AUTO 01008KT 7SM 18/15 A2985 RMK T01800150 IEM_DS3505
ZGGG,2001-04-22 00:00,ZGGG 220000Z AUTO 36004KT 10SM 18/15 A2991 RMK 60000 SLP133 T01780153 52026 IEM_DS3505
ZGGG,2001-04-22 01:00,ZGGG 220100Z AUTO 01010KT 2SM 16/16 A2994 RMK T01600160 IEM_DS3505
ZGGG,2001-04-22 02:00,ZGGG 220200Z AUTO 07006KT 7SM 17/16 A2991 RMK T01700160 IEM_DS3505
ZGGG,2001-04-22 03:00,ZGGG 220300Z AUTO 32002KT 11SM 18/16 A2994 RMK SLP142 T01780165 52009 IEM_DS3505
ZGGG,2001-04-22 04:00,ZGGG 220400Z AUTO 01006KT 3SM 17/16 A2994 RMK T01700160 IEM_DS3505
ZGGG,2001-04-22 05:00,ZGGG 220500Z AUTO 36004KT 2 1/2SM 17/17 A2991 RMK T01700170 IEM_DS3505
ZGGG,2001-04-22 06:00,ZGGG 220600Z AUTO 36002KT 7SM 17/16 A2991 RMK 60012 SLP134 T01740164 57009 IEM_DS3505
ZGGG,2001-04-22 07:00,ZGGG 220700Z AUTO 36008KT 1 1/2SM 16/16 A2991 RMK T01600160 IEM_DS3505
ZGGG,2001-04-22 08:00,ZGGG 220800Z AUTO 02010KT 5SM 17/16 A2988 RMK T01700160 IEM_DS3505
ZGGG,2001-04-22 09:00,ZGGG 220900Z AUTO 07002KT 11SM 18/16 A2985 RMK SLP123 T01760159 57010 IEM_DS3505
ZGGG,2001-04-22 10:00,ZGGG 221000Z AUTO 35006KT 7SM 17/16 A2988 RMK T01700160 IEM_DS3505
ZGGG,2001-04-22 11:00,ZGGG 221100Z AUTO 01004KT 4SM 17/17 A2988 RMK T01700170 IEM_DS3505
ZGGG,2001-04-22 12:00,ZGGG 221200Z AUTO 07002KT 6SM 18/17 A2991 RMK 60051 SLP136 T01750170 52012 IEM_DS3505
ZGGG,2001-04-22 13:00,ZGGG 221300Z AUTO 03004KT 4SM 17/17 A2994 RMK T01700170 IEM_DS3505
ZGGG,2001-04-22 14:00,ZGGG 221400Z AUTO 34004KT 3SM 17/17 A2994 RMK T01700170 IEM_DS3505
ZGGG,2001-04-22 15:00,ZGGG 221500Z AUTO 00000KT 4SM 18/17 A2997 RMK SLP150 T01760171 52014 IEM_DS3505
ZGGG,2001-04-22 16:00,ZGGG 221600Z AUTO 04006KT 1 1/2SM 17/16 A2997 RMK T01700160 IEM_DS3505
ZGGG,2001-04-22 17:00,ZGGG 221700Z AUTO 05006KT 2 1/2SM 17/16 A2994 RMK T01700160 IEM_DS3505
ZGGG,2001-04-22 18:00,ZGGG 221800Z AUTO 00000KT 4SM 17/17 A2994 RMK 60051 SLP142 T01720167 57008 IEM_DS3505
ZGGG,2001-04-22 19:00,ZGGG 221900Z AUTO 03006KT 2 1/2SM 17/16 A2991 RMK T01700160 IEM_DS3505
ZGGG,2001-04-22 20:00,ZGGG 222000Z AUTO 01004KT 1 1/2SM 17/16 A2991 RMK T01700160 IEM_DS3505
ZGGG,2001-04-22 21:00,ZGGG 222100Z AUTO 00000KT 4SM 18/17 A2991 RMK 70113 SLP135 T01750172 57007 IEM_DS3505
ZGGG,2001-04-22 22:00,ZGGG 222200Z AUTO 02004KT 2 1/2SM 17/17 A2991 RMK T01700170 IEM_DS3505
ZGGG,2001-04-22 23:00,ZGGG 222300Z AUTO 04004KT 1SM 17/17 A2991 RMK T01700170 IEM_DS3505
ZGGG,2001-04-23 00:00,ZGGG 230000Z AUTO 00000KT 2 1/2SM 18/18 A2994 RMK 60002 SLP144 T01840179 52009 IEM_DS3505
ZGGG,2001-04-23 01:00,ZGGG 230100Z AUTO 00000KT 1SM 18/18 A2994 RMK T01800180 IEM_DS3505
ZGGG,2001-04-23 02:00,ZGGG 230200Z AUTO 00000KT 1 1/4SM 18/18 A2994 RMK T01800180 IEM_DS3505
ZGGG,2001-04-23 03:00,ZGGG 230300Z AUTO 00000KT 5SM 20/19 A2994 RMK SLP144 T01960186 52001 IEM_DS3505
ZGGG,2001-04-23 04:00,ZGGG 230400Z AUTO 31004KT 1SM 19/18 A2994 RMK T01900180 IEM_DS3505
ZGGG,2001-04-23 05:00,ZGGG 230500Z AUTO 32002KT 1SM 20/19 A2991 RMK T02000190 IEM_DS3505
ZGGG,2001-04-23 06:00,ZGGG 230600Z AUTO 36004KT 2 1/2SM 21/19 A2991 RMK 60003 SLP132 T02130193 57012 IEM_DS3505
ZGGG,2001-04-23 07:00,ZGGG 230700Z AUTO 36004KT 1SM 19/19 A2988 RMK T01900190 IEM_DS3505
ZGGG,2001-04-23 08:00,ZGGG 230800Z AUTO 00000KT 1/2SM 19/19 A2988 RMK T01900190 IEM_DS3505
ZGGG,2001-04-23 09:00,ZGGG 230900Z AUTO 34004KT 2SM 20/19 A2985 RMK SLP114 T02020193 57018 IEM_DS3505
ZGGG,2001-04-23 10:00,ZGGG 231000Z AUTO 03004KT 1 1/4SM 19/19 A2985 RMK T01900190 IEM_DS3505
ZGGG,2001-04-23 11:00,ZGGG 231100Z AUTO 04002KT 1SM 19/19 A2985 RMK T01900190 IEM_DS3505
ZGGG,2001-04-23 12:00,ZGGG 231200Z AUTO 34004KT 1 1/4SM 20/19 A2988 RMK 60000 SLP128 T01980188 52014 IEM_DS3505
ZGGG,2001-04-23 13:00,ZGGG 231300Z AUTO 06004KT 2 1/2SM 19/19 A2988 RMK T01900190 IEM_DS3505
ZGGG,2001-04-23 14:00,ZGGG 231400Z AUTO 01004KT 3SM 19/19 A2991 RMK T01900190 IEM_DS3505
ZGGG,2001-04-23 15:00,ZGGG 231500Z AUTO 34002KT 1 1/4SM 20/19 A2994 RMK SLP144 T01960186 52016 IEM_DS3505
ZGGG,2001-04-23 16:00,ZGGG 231600Z AUTO 02004KT 1 1/2SM 19/19 A2994 RMK T01900190 IEM_DS3505
ZGGG,2001-04-23 17:00,ZGGG 231700Z AUTO 34006KT 1SM 19/19 A2994 RMK T01900190 IEM_DS3505
ZGGG,2001-04-23 18:00,ZGGG 231800Z AUTO 00000KT 1 1/4SM 19/19 A2991 RMK 60035 SLP133 T01920186 57011 IEM_DS3505
ZGGG,2001-04-23 19:00,ZGGG 231900Z AUTO 01002KT 2 1/2SM 19/19 A2988 RMK T01900190 IEM_DS3505
ZGGG,2001-04-23 20:00,ZGGG 232000Z AUTO 06004KT 1 1/2SM 19/19 A2988 RMK T01900190 IEM_DS3505
ZGGG,2001-04-23 21:00,ZGGG 232100Z AUTO 00000KT 3SM 20/19 A2988 RMK 70041 SLP125 T01950190 57008 IEM_DS3505
ZGGG,2001-04-23 22:00,ZGGG 232200Z AUTO 36004KT 2 1/2SM 19/19 A2988 RMK T01900190 IEM_DS3505
ZGGG,2001-04-23 23:00,ZGGG 232300Z AUTO 36004KT 2SM 19/19 A2991 RMK T01900190 IEM_DS3505
ZGGG,2001-04-24 00:00,ZGGG 240000Z AUTO 34002KT 2 1/2SM 20/19 A2994 RMK 60008 SLP144 T01970192 52019 IEM_DS3505
ZGGG,2001-04-24 01:00,ZGGG 240100Z AUTO 05004KT 2 1/2SM 19/19 A2991 RMK T01900190 IEM_DS3505
ZGGG,2001-04-24 02:00,ZGGG 240200Z AUTO 36004KT 1SM 20/20 A2994 RMK T02000200 IEM_DS3505
ZGGG,2001-04-24 03:00,ZGGG 240300Z AUTO 34002KT 3SM 20/20 A2994 RMK SLP149 T02030197 52005 IEM_DS3505
ZGGG,2001-04-24 04:00,ZGGG 240400Z AUTO 36006KT 1 1/4SM 19/19 A2994 RMK T01900190 IEM_DS3505
ZGGG,2001-04-24 05:00,ZGGG 240500Z AUTO 34006KT 1 1/4SM 19/19 A2994 RMK T01900190 IEM_DS3505
ZGGG,2001-04-24 06:00,ZGGG 240600Z AUTO 32002KT 4SM 20/19 A2991 RMK 60055 SLP134 T01960191 57015 IEM_DS3505
ZGGG,2001-04-24 07:00,ZGGG 240700Z AUTO 01008KT 4SM 19/19 A2991 RMK T01900190 IEM_DS3505
ZGGG,2001-04-24 08:00,ZGGG 240800Z AUTO 01008KT 5SM 19/18 A2988 RMK T01900180 IEM_DS3505
ZGGG,2001-04-24 09:00,ZGGG 240900Z AUTO 00000KT 7SM 20/19 RMK SLP125 T01950190 57009 IEM_DS3505
ZGGG,2001-04-24 10:00,ZGGG 241000Z AUTO 35006KT 2SM 19/19 A2988 RMK T01900190 IEM_DS3505
ZGGG,2001-04-24 11:00,ZGGG 241100Z AUTO 36002KT 8SM 18/17 A2991 RMK 60039 SLP149 T01790171 57007 IEM_DS3505
ZGGG,2001-04-24 12:00,ZGGG 241200Z AUTO 32004KT 9SM 19/18 A2991 RMK 60051 SLP140 T01870179 52015 IEM_DS3505
ZGGG,2001-04-24 13:00,ZGGG 241300Z AUTO 01008KT 7SM 19/17 A2994 RMK T01900170 IEM_DS3505
ZGGG,2001-04-24 14:00,ZGGG 241400Z AUTO 02008KT 7SM 19/18 A2994 RMK T01900180 IEM_DS3505
ZGGG,2001-04-24 15:00,ZGGG 241500Z AUTO 36004KT 4SM 18/18 A2997 RMK SLP156 T01820175 52016 IEM_DS3505
ZGGG,2001-04-24 16:00,ZGGG 241600Z AUTO 36006KT 7SM 18/17 A2997 RMK T01800170 IEM_DS3505
ZGGG,2001-04-24 17:00,ZGGG 241700Z AUTO 36006KT 7SM 18/ A2997 RMK IEM_DS3505
ZGGG,2001-04-24 18:00,ZGGG 241800Z AUTO 36002KT 8SM 18/17 A2994 RMK 60039 SLP149 T01790171 57007 IEM_DS3505
ZGGG,2001-04-24 19:00,ZGGG 241900Z AUTO 01008KT 2SM 17/17 A2994 RMK T01700170 IEM_DS3505
ZGGG,2001-04-24 20:00,ZGGG 242000Z AUTO 36006KT 7SM 17/17 A2991 RMK T01700170 IEM_DS3505
ZGGG,2001-04-24 21:00,ZGGG 242100Z AUTO 34004KT 9SM 17/16 A2991 RMK 70156 SLP135 T01710164 57014 IEM_DS3505
ZGGG,2001-04-24 22:00,ZGGG 242200Z AUTO 01006KT 7SM 17/17 A2991 RMK T01700170 IEM_DS3505
ZGGG,2001-04-24 23:00,ZGGG 242300Z AUTO 36006KT 7SM 18/17 A2994 RMK T01800170 IEM_DS3505
ZGGG,2001-04-25 00:00,ZGGG 250000Z AUTO 34004KT 10SM 18/16 A2997 RMK 60012 SLP153 T01760163 52017 IEM_DS3505
ZGGG,2001-04-25 01:00,ZGGG 250100Z AUTO 01006KT 4SM 18/17 A3000 RMK T01800170 IEM_DS3505
ZGGG,2001-04-25 02:00,ZGGG 250200Z AUTO 35006KT 4SM 18/16 A3003 RMK T01800160 IEM_DS3505
ZGGG,2001-04-25 03:00,ZGGG 250300Z AUTO 36008KT 11SM 18/16 A3003 RMK SLP169 T01790161 52016 IEM_DS3505
ZGGG,2001-04-25 04:00,ZGGG 250400Z AUTO 36006KT 7SM 18/16 A3003 RMK T01800160 IEM_DS3505
ZGGG,2001-04-25 05:00,ZGGG 250500Z AUTO 03006KT 4SM 18/17 A3000 RMK T01800170 IEM_DS3505
ZGGG,2001-04-25 06:00,ZGGG 250600Z AUTO 34004KT 5SM 18/17 A2997 RMK 60028 SLP157 T01840173 57012 IEM_DS3505
ZGGG,2001-04-25 07:00,ZGGG 250700Z AUTO 36006KT 4SM 18/17 A2997 RMK T01800170 IEM_DS3505
ZGGG,2001-04-25 08:00,ZGGG 250800Z AUTO 01006KT 5SM 19/17 A2994 RMK T01900170 IEM_DS3505
ZGGG,2001-04-25 09:00,ZGGG 250900Z AUTO 34004KT 10SM 18/16 A2994 RMK SLP148 T01820165 57009 IEM_DS3505
ZGGG,2001-04-25 10:00,ZGGG 251000Z AUTO 04008KT 5SM 18/17 A2994 RMK T01800170 IEM_DS3505
ZGGG,2001-04-25 11:00,ZGGG 251100Z AUTO 04006KT 7SM 18/17 A2994 RMK T01800170 IEM_DS3505
ZGGG,2001-04-25 12:00,ZGGG 251200Z AUTO 34002KT 9SM 18/17 A2997 RMK 60002 SLP156 T01830168 52008 IEM_DS3505
ZGGG,2001-04-25 13:00,ZGGG 251300Z AUTO 06002KT 7SM 18/17 A2997 RMK T01800170 IEM_DS3505
ZGGG,2001-04-25 14:00,ZGGG 251400Z AUTO 36004KT 7SM 19/17 A3000 RMK T01900170 IEM_DS3505
ZGGG,2001-04-25 15:00,ZGGG 251500Z AUTO 00000KT 11SM 18/17 RMK SLP166 T01840171 52010 IEM_DS3505
ZGGG,2001-04-25 16:00,ZGGG 251600Z AUTO 07004KT 7SM 18/18 A3000 RMK T01800180 IEM_DS3505
ZGGG,2001-04-25 17:00,ZGGG 251700Z AUTO 05004KT 7SM 18/18 A3000 RMK T01800180 IEM_DS3505
ZGGG,2001-04-25 18:00,ZGGG 251800Z AUTO 00000KT 11SM 18/17 A3000 RMK 60003 SLP165 T01830172 57001 IEM_DS3505
ZGGG,2001-04-25 19:00,ZGGG 251900Z AUTO 02004KT 7SM 18/18 A3000 RMK T01800180 IEM_DS3505
ZGGG,2001-04-25 20:00,ZGGG 252000Z AUTO 02004KT 7SM 18/17 A3000 RMK T01800170 IEM_DS3505
ZGGG,2001-04-25 21:00,ZGGG 252100Z AUTO 00000KT 11SM 18/17 A3000 RMK 70031 SLP162 T01790167 57003 IEM_DS3505
ZGGG,2001-04-25 22:00,ZGGG 252200Z AUTO 01004KT 7SM 18/17 A3000 RMK T01800170 IEM_DS3505
ZGGG,2001-04-25 23:00,ZGGG 252300Z AUTO 01004KT 7SM 18/17 A3000 RMK T01800170 IEM_DS3505
ZGGG,2001-04-26 00:00,ZGGG 260000Z AUTO 34002KT 11SM 19/17 A3003 RMK 60003 SLP179 T01860168 52017 IEM_DS3505
ZGGG,2001-04-26 01:00,ZGGG 260100Z AUTO 01006KT 7SM 19/16 A3003 RMK T01900160 IEM_DS3505
ZGGG,2001-04-26 02:00,ZGGG 260200Z AUTO 01004KT 7SM 21/17 A3003 RMK T02100170 IEM_DS3505
ZGGG,2001-04-26 03:00,ZGGG 260300Z AUTO 02002KT 10SM 22/17 A3003 RMK SLP175 T02220174 57003 IEM_DS3505
ZGGG,2001-04-26 04:00,ZGGG 260400Z AUTO 04004KT 7SM 23/18 A3000 RMK T02300180 IEM_DS3505
ZGGG,2001-04-26 05:00,ZGGG 260500Z AUTO 21004KT 7SM 23/18 A3000 RMK T02300180 IEM_DS3505
ZGGG,2001-04-26 06:00,ZGGG 260600Z AUTO 09002KT 9SM 24/18 A2997 RMK SLP152 T02380183 57023 IEM_DS3505
ZGGG,2001-04-26 07:00,ZGGG 260700Z AUTO 00000KT 5SM 24/18 A2994 RMK T02400180 IEM_DS3505
ZGGG,2001-04-26 08:00,ZGGG 260800Z AUTO 20004KT 24/18 A2991 RMK T02400180 IEM_DS3505
ZGGG,2001-04-26 09:00,ZGGG 260900Z AUTO 00000KT 6SM 24/19 A2988 RMK SLP131 T02450187 57021 IEM_DS3505
ZGGG,2001-04-26 10:00,ZGGG 261000Z AUTO 00000KT 2 1/2SM 24/19 A2988 RMK T02400190 IEM_DS3505
ZGGG,2001-04-26 11:00,ZGGG 261100Z AUTO 00000KT 2SM 23/19 A2991 RMK T02300190 IEM_DS3505
ZGGG,2001-04-26 12:00,ZGGG 261200Z AUTO 00000KT 5SM 23/20 A2991 RMK SLP139 T02300199 52008 IEM_DS3505
ZGGG,2001-04-26 13:00,ZGGG 261300Z AUTO 26004KT 3SM 22/18 A2997 RMK T02200180 IEM_DS3505
ZGGG,2001-04-26 14:00,ZGGG 261400Z AUTO 00000KT 2 1/2SM 23/19 A2997 RMK T02300190 IEM_DS3505
ZGGG,2001-04-26 15:00,ZGGG 261500Z AUTO 00000KT 4SM 22/19 A3000 RMK SLP163 T02210193 52024 IEM_DS3505
ZGGG,2001-04-26 16:00,ZGGG 261600Z AUTO 22004KT 2 1/2SM 22/19 A3000 RMK T02200190 IEM_DS3505
ZGGG,2001-04-26 17:00,ZGGG 261700Z AUTO 17004KT 3SM 22/19 A2997 RMK T02200190 IEM_DS3505
ZGGG,2001-04-26 18:00,ZGGG 261800Z AUTO 00000KT 3SM 21/19 A2994 RMK SLP149 T02080192 57014 IEM_DS3505
ZGGG,2001-04-26 19:00,ZGGG 261900Z AUTO 17004KT 3SM 21/20 A2994 RMK T02100200 IEM_DS3505
ZGGG,2001-04-26 20:00,ZGGG 262000Z AUTO 20004KT 3SM 21/19 A2994 RMK T02100190 IEM_DS3505
ZGGG,2001-04-26 21:00,ZGGG 262100Z AUTO 14004KT 3SM 21/19 A2991 RMK SLP141 T02060190 57008 IEM_DS3505
ZGGG,2001-04-26 22:00,ZGGG 262200Z AUTO 00000KT 1 1/4SM 20/19 A2994 RMK T02000190 IEM_DS3505
ZGGG,2001-04-26 23:00,ZGGG 262300Z AUTO 06002KT 1 1/4SM 20/20 A2994 RMK T02000200 IEM_DS3505
ZGGG,2001-04-27 00:00,ZGGG 270000Z AUTO 11004KT 3SM 21/19 A2994 RMK SLP148 T02080189 52007 IEM_DS3505
ZGGG,2001-04-27 01:00,ZGGG 270100Z AUTO 18006KT 2 1/2SM 23/19 A2994 RMK T02300190 IEM_DS3505
ZGGG,2001-04-27 02:00,ZGGG 270200Z AUTO 16008KT 3SM 24/19 A2994 RMK T02400190 IEM_DS3505
ZGGG,2001-04-27 03:00,ZGGG 270300Z AUTO 18006KT 3SM 24/18 A2994 RMK SLP146 T02420184 57002 IEM_DS3505
ZGGG,2001-04-27 04:00,ZGGG 270400Z AUTO 16008KT 26/19 A2991 RMK T02600190 IEM_DS3505
ZGGG,2001-04-27 05:00,ZGGG 270500Z AUTO 17010KT 27/19 A2988 RMK T02700190 IEM_DS3505
ZGGG,2001-04-27 06:00,ZGGG 270600Z AUTO 16006KT 5SM 26/20 A2985 RMK SLP119 T02640195 57026 IEM_DS3505
ZGGG,2001-04-27 07:00,ZGGG 270700Z AUTO 16008KT 7SM 28/21 A2983 RMK T02800210 IEM_DS3505
ZGGG,2001-04-27 08:00,ZGGG 270800Z AUTO 17008KT 7SM 27/20 A2983 RMK T02700200 IEM_DS3505
ZGGG,2001-04-27 09:00,ZGGG 270900Z AUTO 18008KT 7SM 27/20 A2980 RMK SLP100 T02710205 57019 IEM_DS3505
ZGGG,2001-04-27 10:00,ZGGG 271000Z AUTO 16008KT 7SM 26/21 A2980 RMK T02600210 IEM_DS3505
ZGGG,2001-04-27 11:00,ZGGG 271100Z AUTO 15006KT 5SM 26/21 A2983 RMK T02600210 IEM_DS3505
ZGGG,2001-04-27 12:00,ZGGG 271200Z AUTO 16002KT 7SM 25/21 A2983 RMK SLP110 T02480206 52009 IEM_DS3505
ZGGG,2001-04-27 13:00,ZGGG 271300Z AUTO 17006KT 7SM 25/21 A2985 RMK T02500210 IEM_DS3505
ZGGG,2001-04-27 14:00,ZGGG 271400Z AUTO 17004KT 7SM 24/21 A2988 RMK T02400210 IEM_DS3505
ZGGG,2001-04-27 15:00,ZGGG 271500Z AUTO 16002KT 6SM 24/21 A2988 RMK SLP128 T02410208 52019 IEM_DS3505
ZGGG,2001-04-27 16:00,ZGGG 271600Z AUTO 16004KT 4SM 24/21 A2988 RMK T02400210 IEM_DS3505
ZGGG,2001-04-27 17:00,ZGGG 271700Z AUTO 16004KT 4SM 24/21 A2985 RMK T02400210 IEM_DS3505
ZGGG,2001-04-27 18:00,ZGGG 271800Z AUTO 09004KT 5SM 23/21 A2983 RMK SLP110 T02340213 57018 IEM_DS3505
ZGGG,2001-04-27 20:00,ZGGG 272000Z AUTO 00000KT 3SM 23/21 A2980 RMK T02300210 IEM_DS3505
ZGGG,2001-04-27 21:00,ZGGG 272100Z AUTO 16002KT 4SM 23/21 A2983 RMK SLP105 T02280207 57005 IEM_DS3505
ZGGG,2001-04-27 22:00,ZGGG 272200Z AUTO 00000KT 3SM 23/21 A2983 RMK T02300210 IEM_DS3505
ZGGG,2001-04-27 23:00,ZGGG 272300Z AUTO 00000KT 2 1/2SM 23/21 A2983 RMK T02300210 IEM_DS3505
ZGGG,2001-04-28 00:00,ZGGG 280000Z AUTO 09004KT 2 1/2SM 23/21 A2985 RMK 60003 SLP114 T02340213 52009 IEM_DS3505
ZGGG,2001-04-28 01:00,ZGGG 280100Z AUTO 14006KT 2 1/2SM 25/22 A2983 RMK T02500220 IEM_DS3505
ZGGG,2001-04-28 02:00,ZGGG 280200Z AUTO 16008KT 2SM 27/22 A2983 RMK T02700220 IEM_DS3505
ZGGG,2001-04-28 03:00,ZGGG 280300Z AUTO 16006KT 7SM 28/23 A2983 RMK SLP114 T02760226 54000 IEM_DS3505
ZGGG,2001-04-28 04:00,ZGGG 280400Z AUTO 16010KT 5SM 29/23 A2983 RMK T02900230 IEM_DS3505
ZGGG,2001-04-28 05:00,ZGGG 280500Z AUTO 15012KT 7SM 30/22 A2980 RMK T03000220 IEM_DS3505
ZGGG,2001-04-28 06:00,ZGGG 280600Z AUTO 18006KT 11SM 30/23 A2977 RMK SLP092 T02990231 57022 IEM_DS3505
ZGGG,2001-04-28 07:00,ZGGG 280700Z AUTO 17010KT 7SM 30/23 A2974 RMK T03000230 IEM_DS3505
ZGGG,2001-04-28 08:00,ZGGG 280800Z AUTO 16010KT 7SM 29/23 A2974 RMK T02900230 IEM_DS3505
ZGGG,2001-04-28 09:00,ZGGG 280900Z AUTO 14008KT 11SM 29/23 A2974 RMK SLP076 T02860234 57016 IEM_DS3505
ZGGG,2001-04-28 10:00,ZGGG 281000Z AUTO 15010KT 7SM 28/24 A2974 RMK T02800240 IEM_DS3505
ZGGG,2001-04-28 11:00,ZGGG 281100Z AUTO 16010KT 7SM 27/24 A2974 RMK T02700240 IEM_DS3505
ZGGG,2001-04-28 12:00,ZGGG 281200Z AUTO 18006KT 10SM 26/24 A2977 RMK SLP089 T02620236 52013 IEM_DS3505
ZGGG,2001-04-28 13:00,ZGGG 281300Z AUTO 16008KT 7SM 26/24 A2977 RMK T02600240 IEM_DS3505
ZGGG,2001-04-28 14:00,ZGGG 281400Z AUTO 16008KT 7SM 26/24 A2980 RMK T02600240 IEM_DS3505
ZGGG,2001-04-28 15:00,ZGGG 281500Z AUTO 14004KT 10SM 26/24 A2980 RMK SLP100 T02560239 52011 IEM_DS3505
ZGGG,2001-04-28 16:00,ZGGG 281600Z AUTO 16006KT 7SM 26/24 A2980 RMK T02600240 IEM_DS3505
ZGGG,2001-04-28 17:00,ZGGG 281700Z AUTO 17006KT 7SM 26/24 A2980 RMK T02600240 IEM_DS3505
ZGGG,2001-04-28 18:00,ZGGG 281800Z AUTO 16006KT 9SM 26/24 A2977 RMK SLP086 T02550239 57014 IEM_DS3505
ZGGG,2001-04-28 19:00,ZGGG 281900Z AUTO 15006KT 7SM 25/24 A2977 RMK T02500240 IEM_DS3505
ZGGG,2001-04-28 21:00,ZGGG 282100Z AUTO 16002KT 6SM 25/24 A2977 RMK 70003 SLP092 T02510239 52006 IEM_DS3505
ZGGG,2001-04-28 22:00,ZGGG 282200Z AUTO 16006KT 3SM 25/24 A2977 RMK T02500240 IEM_DS3505
ZGGG,2001-04-28 23:00,ZGGG 282300Z AUTO 16006KT 2SM 25/24 A2983 RMK T02500240 IEM_DS3505
ZGGG,2001-04-29 00:00,ZGGG 290000Z AUTO 14002KT 3SM 26/24 A2983 RMK SLP110 T02550241 52018 IEM_DS3505
ZGGG,2001-04-29 01:00,ZGGG 290100Z AUTO 16008KT 3SM 28/24 A2983 RMK T02800240 IEM_DS3505
ZGGG,2001-04-29 02:00,ZGGG 290200Z AUTO 17006KT 5SM 29/24 A2983 RMK T02900240 IEM_DS3505
ZGGG,2001-04-29 03:00,ZGGG 290300Z AUTO 27004KT 8SM 29/24 A2983 RMK SLP110 T02920244 54000 IEM_DS3505
ZGGG,2001-04-29 04:00,ZGGG 290400Z AUTO 17012KT 7SM 31/24 A2980 RMK T03100240 IEM_DS3505
ZGGG,2001-04-29 05:00,ZGGG 290500Z AUTO 16012KT 7SM 31/24 A2977 RMK T03100240 IEM_DS3505
ZGGG,2001-04-29 06:00,ZGGG 290600Z AUTO 16006KT 9SM 31/24 A2977 RMK SLP087 T03090244 57023 IEM_DS3505
ZGGG,2001-04-29 07:00,ZGGG 290700Z AUTO 14010KT 7SM 33/24 A2974 RMK T03300240 IEM_DS3505
ZGGG,2001-04-29 08:00,ZGGG 290800Z AUTO 16010KT 7SM 32/24 A2971 RMK T03200240 IEM_DS3505
ZGGG,2001-04-29 09:00,ZGGG 290900Z AUTO 14006KT 10SM 30/24 A2971 RMK SLP072 T03040235 57015 IEM_DS3505
ZGGG,2001-04-29 10:00,ZGGG 291000Z AUTO 16012KT 7SM 30/24 A2971 RMK T03000240 IEM_DS3505
ZGGG,2001-04-29 11:00,ZGGG 291100Z AUTO 16010KT 7SM 29/24 A2974 RMK T02900240 IEM_DS3505
ZGGG,2001-04-29 12:00,ZGGG 291200Z AUTO 11008KT 9SM 27/25 A2977 RMK SLP092 T02710247 52020 IEM_DS3505
ZGGG,2001-04-29 13:00,ZGGG 291300Z AUTO 15008KT 7SM 28/24 A2980 RMK T02800240 IEM_DS3505
ZGGG,2001-04-29 14:00,ZGGG 291400Z AUTO 16008KT 7SM 27/25 A2983 RMK T02700250 IEM_DS3505
ZGGG,2001-04-29 15:00,ZGGG 291500Z AUTO 11004KT 4SM 26/25 A2985 RMK SLP116 T02600246 52024 IEM_DS3505
ZGGG,2001-04-29 16:00,ZGGG 291600Z AUTO 14006KT 4SM 26/25 A2985 RMK T02600250 IEM_DS3505
ZGGG,2001-04-29 17:00,ZGGG 291700Z AUTO 17004KT 4SM 26/25 A2983 RMK T02600250 IEM_DS3505
ZGGG,2001-04-29 18:00,ZGGG 291800Z AUTO 09004KT 4SM 26/24 A2983 RMK SLP113 T02590245 57003 IEM_DS3505
ZGGG,2001-04-29 19:00,ZGGG 291900Z AUTO 15004KT 4SM 26/24 A2983 RMK T02600240 IEM_DS3505
ZGGG,2001-04-29 20:00,ZGGG 292000Z AUTO 16004KT 3SM 26/26 A2983 RMK T02600260 IEM_DS3505
ZGGG,2001-04-29 21:00,ZGGG 292100Z AUTO 11002KT 4SM 25/24 A2983 RMK SLP114 T02530243 52001 IEM_DS3505
ZGGG,2001-04-29 22:00,ZGGG 292200Z AUTO 16006KT 3SM 26/25 A2985 RMK T02600250 IEM_DS3505
ZGGG,2001-04-29 23:00,ZGGG 292300Z AUTO 17006KT 2 1/2SM 26/25 A2985 RMK T02600250 IEM_DS3505
ZGGG,2001-04-30 00:00,ZGGG 300000Z AUTO 14002KT 3SM 27/25 A2988 RMK SLP129 T02680247 52015 IEM_DS3505
ZGGG,2001-04-30 01:00,ZGGG 300100Z AUTO 17006KT 4SM 29/25 A2988 RMK T02900250 IEM_DS3505
ZGGG,2001-04-30 02:00,ZGGG 300200Z AUTO 20008KT 7SM 28/24 A2988 RMK T02800240 IEM_DS3505
ZGGG,2001-04-30 03:00,ZGGG 300300Z AUTO 27002KT 8SM 29/25 A2988 RMK SLP129 T02930246 54000 IEM_DS3505
ZGGG,2001-04-30 04:00,ZGGG 300400Z AUTO 21008KT 7SM 31/24 A2988 RMK T03100240 IEM_DS3505
ZGGG,2001-04-30 05:00,ZGGG 300500Z AUTO 18006KT 7SM 32/24 A2985 RMK T03200240 IEM_DS3505
ZGGG,2001-04-30 06:00,ZGGG 300600Z AUTO 25004KT 14SM 32/24 A2983 RMK SLP108 T03170239 57021 IEM_DS3505
ZGGG,2001-04-30 07:00,ZGGG 300700Z AUTO 18008KT 7SM 32/23 A2980 RMK T03200230 IEM_DS3505
ZGGG,2001-04-30 08:00,ZGGG 300800Z AUTO 17006KT 7SM 33/23 A2977 RMK T03300230 IEM_DS3505
ZGGG,2001-04-30 09:00,ZGGG 300900Z AUTO 14006KT 13SM 31/25 RMK SLP088 T03090249 57020 IEM_DS3505
ZGGG,2001-04-30 10:00,ZGGG 301000Z AUTO 15008KT 6SM 31/25 A2977 RMK T03100250 IEM_DS3505
ZGGG,2001-04-30 11:00,ZGGG 301100Z AUTO 13006KT 6SM 29/25 A2977 RMK T02900250 IEM_DS3505
ZGGG,2001-04-30 12:00,ZGGG 301200Z AUTO 14006KT 12SM 28/25 A2977 RMK 60003 SLP094 T02790248 52006 IEM_DS3505
ZGGG,2001-04-30 13:00,ZGGG 301300Z AUTO 15004KT 7SM 28/25 A2985 RMK T02800250 IEM_DS3505
ZGGG,2001-04-30 14:00,ZGGG 301400Z AUTO 02010KT 7SM 25/22 A2988 RMK T02500220 IEM_DS3505
ZGGG,2001-04-30 15:00,ZGGG 301500Z AUTO 36004KT 1 1/4SM 22/21 A2991 RMK SLP136 T02220213 52042 IEM_DS3505
ZGGG,2001-04-30 16:00,ZGGG 301600Z AUTO 23012KT 1SM 23/23 A2991 RMK T02300230 IEM_DS3505
ZGGG,2001-04-30 17:00,ZGGG 301700Z AUTO 04006KT 7SM 23/22 A2988 RMK T02300220 IEM_DS3505
ZGGG,2001-04-30 18:00,ZGGG 301800Z AUTO 32002KT 2SM 23/23 A2988 RMK 60437 SLP125 T02310227 57011 IEM_DS3505
ZGGG,2001-04-30 19:00,ZGGG 301900Z AUTO 04006KT 7SM 23/23 A2985 RMK T02300230 IEM_DS3505
ZGGG,2001-04-30 20:00,ZGGG 302000Z AUTO 02006KT 4SM 23/23 A2988 RMK T02300230 IEM_DS3505
ZGGG,2001-04-30 21:00,ZGGG 302100Z AUTO 29002KT 7SM 23/22 A2988 RMK 70442 SLP125 T02260217 54000 IEM_DS3505
ZGGG,2001-04-30 22:00,ZGGG 302200Z AUTO 36006KT 4SM 23/22 A2988 RMK T02300220 IEM_DS3505
ZGGG,2001-04-30 23:00,ZGGG 302300Z AUTO 36006KT 7SM 23/22 A2988 RMK T02300220 IEM_DS3505
ZGGG,2001-05-01 00:00,ZGGG 010000Z AUTO 00000KT 7SM 23/22 A2991 RMK 60004 SLP137 T02280221 52012 IEM_DS3505
ZGGG,2001-05-01 01:00,ZGGG 010100Z AUTO 35004KT 7SM 23/22 A2994 RMK T02300220 IEM_DS3505
ZGGG,2001-05-01 02:00,ZGGG 010200Z AUTO 36004KT 7SM 23/21 A2997 RMK T02300210 IEM_DS3505
ZGGG,2001-05-01 03:00,ZGGG 010300Z AUTO 29002KT 9SM 23/21 A2994 RMK SLP149 T02310211 52011 IEM_DS3505
ZGGG,2001-05-01 04:00,ZGGG 010400Z AUTO 36006KT 7SM 24/21 A2994 RMK T02400210 IEM_DS3505
ZGGG,2001-05-01 05:00,ZGGG 010500Z AUTO 04006KT 7SM 24/21 A2988 RMK T02400210 IEM_DS3505
ZGGG,2001-05-01 06:00,ZGGG 010600Z AUTO 32002KT 9SM 24/21 A2988 RMK 60003 SLP129 T02370211 57020 IEM_DS3505
ZGGG,2001-05-01 07:00,ZGGG 010700Z AUTO 36006KT 7SM 25/21 A2985 RMK T02500210 IEM_DS3505
ZGGG,2001-05-01 08:00,ZGGG 010800Z AUTO 01006KT 7SM 25/21 A2985 RMK T02500210 IEM_DS3505
ZGGG,2001-05-01 09:00,ZGGG 010900Z AUTO 32002KT 10SM 26/21 A2983 RMK SLP108 T02560206 57020 IEM_DS3505
ZGGG,2001-05-01 10:00,ZGGG 011000Z AUTO 36006KT 7SM 24/21 A2983 RMK T02400210 IEM_DS3505
ZGGG,2001-05-01 11:00,ZGGG 011100Z AUTO 36008KT 7SM 24/21 A2985 RMK T02400210 IEM_DS3505
ZGGG,2001-05-01 12:00,ZGGG 011200Z AUTO 32004KT 8SM 24/20 A2985 RMK SLP116 T02370203 52008 IEM_DS3505
ZGGG,2001-05-01 13:00,ZGGG 011300Z AUTO 36006KT 7SM 23/20 A2985 RMK T02300200 IEM_DS3505
ZGGG,2001-05-01 14:00,ZGGG 011400Z AUTO 36006KT 7SM 23/19 A2988 RMK T02300190 IEM_DS3505
ZGGG,2001-05-01 15:00,ZGGG 011500Z AUTO 32002KT 7SM 23/19 A2988 RMK SLP125 T02280194 52008 IEM_DS3505
ZGGG,2001-05-01 16:00,ZGGG 011600Z AUTO 36008KT 7SM 23/19 A2985 RMK T02300190 IEM_DS3505
ZGGG,2001-05-01 17:00,ZGGG 011700Z AUTO 36008KT 4SM 22/19 A2985 RMK T02200190 IEM_DS3505
ZGGG,2001-05-01 18:00,ZGGG 011800Z AUTO 00000KT 7SM 22/19 A2985 RMK SLP114 T02190192 57011 IEM_DS3505
ZGGG,2001-05-01 19:00,ZGGG 011900Z AUTO 01006KT 4SM 22/18 A2983 RMK T02200180 IEM_DS3505
ZGGG,2001-05-01 20:00,ZGGG 012000Z AUTO 01004KT 7SM 22/18 A2983 RMK T02200180 IEM_DS3505
ZGGG,2001-05-01 21:00,ZGGG 012100Z AUTO 00000KT 7SM 22/19 A2983 RMK 70003 SLP104 T02160188 57009 IEM_DS3505
ZGGG,2001-05-01 22:00,ZGGG 012200Z AUTO 02006KT 7SM 22/18 A2985 RMK T02200180 IEM_DS3505
ZGGG,2001-05-01 23:00,ZGGG 012300Z AUTO 02004KT 3SM 22/18 A2985 RMK T02200180 IEM_DS3505
ZGGG,2001-05-02 00:00,ZGGG 020000Z AUTO 32002KT 8SM 22/18 A2985 RMK 70003 SLP120 T02210178 52015 IEM_DS3505
ZGGG,2001-05-02 01:00,ZGGG 020100Z AUTO 01006KT 4SM 24/19 A2988 RMK T02400190 IEM_DS3505
ZGGG,2001-05-02 02:00,ZGGG 020200Z AUTO 03006KT 9SM 24/18 A2988 RMK T02400180 IEM_DS3505
ZGGG,2001-05-02 03:00,ZGGG 020300Z AUTO 00000KT 9SM 25/19 A2988 RMK SLP124 T02480191 52005 IEM_DS3505
ZGGG,2001-05-02 04:00,ZGGG 020400Z AUTO 06004KT 3SM 26/19 A2985 RMK T02600190 IEM_DS3505
ZGGG,2001-05-02 05:00,ZGGG 020500Z AUTO 30002KT 2 1/2SM 26/19 A2985 RMK T02600190 IEM_DS3505
ZGGG,2001-05-02 06:00,ZGGG 020600Z AUTO 18002KT 7SM 27/20 A2983 RMK SLP108 T02670197 57016 IEM_DS3505
ZGGG,2001-05-02 07:00,ZGGG 020700Z AUTO 05002KT 2 1/2SM 27/20 A2980 RMK T02700200 IEM_DS3505
ZGGG,2001-05-02 08:00,ZGGG 020800Z AUTO 01004KT 2SM 26/19 A2980 RMK T02600190 IEM_DS3505
ZGGG,2001-05-02 09:00,ZGGG 020900Z AUTO 00000KT 7SM 27/20 A2977 RMK SLP092 T02660204 57016 IEM_DS3505
ZGGG,2001-05-02 10:00,ZGGG 021000Z AUTO 34002KT 2 1/2SM 26/20 A2977 RMK T02600200 IEM_DS3505
ZGGG,2001-05-02 11:00,ZGGG 021100Z AUTO 36004KT 2 1/2SM 26/21 A2980 RMK T02600210 IEM_DS3505
ZGGG,2001-05-02 12:00,ZGGG 021200Z AUTO 00000KT 6SM 25/21 A2980 RMK 60003 SLP099 T02490213 52007 IEM_DS3505
ZGGG,2001-05-02 13:00,ZGGG 021300Z AUTO 08004KT 2 1/2SM 24/21 A2980 RMK T02400210 IEM_DS3505
ZGGG,2001-05-02 14:00,ZGGG 021400Z AUTO 00000KT 2 1/2SM 24/21 A2983 RMK T02400210 IEM_DS3505
ZGGG,2001-05-02 15:00,ZGGG 021500Z AUTO 00000KT 2SM 24/22 A2983 RMK SLP113 T02420220 52014 IEM_DS3505
ZGGG,2001-05-02 16:00,ZGGG 021600Z AUTO 00000KT 1 1/2SM 24/23 A2983 RMK T02400230 IEM_DS3505
ZGGG,2001-05-02 17:00,ZGGG 021700Z AUTO 00000KT 1 1/2SM 24/23 A2983 RMK T02400230 IEM_DS3505
ZGGG,2001-05-02 18:00,ZGGG 021800Z AUTO 00000KT 1SM 24/23 A2983 RMK 60003 SLP104 T02390229 57009 IEM_DS3505
ZGGG,2001-05-02 19:00,ZGGG 021900Z AUTO 32004KT 1 1/2SM 23/23 A2983 RMK T02300230 IEM_DS3505
ZGGG,2001-05-02 20:00,ZGGG 022000Z AUTO 00000KT 1 1/4SM 23/23 A2980 RMK T02300230 IEM_DS3505
ZGGG,2001-05-02 21:00,ZGGG 022100Z AUTO 11002KT 1SM 24/23 A2983 RMK 70006 SLP105 T02350228 52001 IEM_DS3505
ZGGG,2001-05-02 22:00,ZGGG 022200Z AUTO 00000KT 1SM 24/24 A2983 RMK T02400240 IEM_DS3505
ZGGG,2001-05-02 23:00,ZGGG 022300Z AUTO 31004KT 1SM 23/23 A2985 RMK T02300230 IEM_DS3505
ZGGG,2001-05-03 00:00,ZGGG 030000Z AUTO 11002KT 1SM 24/23 A2985 RMK 60008 SLP123 T02410234 52018 IEM_DS3505
ZGGG,2001-05-03 01:00,ZGGG 030100Z AUTO 00000KT 1SM 24/24 A2991 RMK T02400240 IEM_DS3505
ZGGG,2001-05-03 02:00,ZGGG 030200Z AUTO 35004KT 1SM 24/24 A2991 RMK T02400240 IEM_DS3505
ZGGG,2001-05-03 03:00,ZGGG 030300Z AUTO 16004KT 2SM 26/24 A2988 RMK SLP131 T02580241 52008 IEM_DS3505
ZGGG,2001-05-03 04:00,ZGGG 030400Z AUTO 00000KT 1SM 26/24 A2988 RMK T02600240 IEM_DS3505
ZGGG,2001-05-03 05:00,ZGGG 030500Z AUTO 00000KT 1SM 26/24 A2988 RMK T02600240 IEM_DS3505
ZGGG,2001-05-03 06:00,ZGGG 030600Z AUTO 20002KT 1 1/4SM 25/24 A2985 RMK 60012 SLP118 T02540240 57013 IEM_DS3505
ZGGG,2001-05-03 07:00,ZGGG 030700Z AUTO 15002KT 1 1/2SM 26/24 A2985 RMK T02600240 IEM_DS3505
ZGGG,2001-05-03 08:00,ZGGG 030800Z AUTO 15006KT 2SM 26/24 A2983 RMK T02600240 IEM_DS3505
ZGGG,2001-05-03 09:00,ZGGG 030900Z AUTO 18002KT 3SM 26/24 A2983 RMK SLP109 T02570238 57009 IEM_DS3505
ZGGG,2001-05-03 10:00,ZGGG 031000Z AUTO 17006KT 3SM 26/24 A2983 RMK T02600240 IEM_DS3505
ZGGG,2001-05-03 11:00,ZGGG 031100Z AUTO 14004KT 3SM 25/24 A2985 RMK T02500240 IEM_DS3505
ZGGG,2001-05-03 12:00,ZGGG 031200Z AUTO 18002KT 2 1/2SM 25/23 A2988 RMK 60020 SLP131 T02460231 52022 IEM_DS3505
ZGGG,2001-05-03 13:00,ZGGG 031300Z AUTO 17004KT 3SM 24/24 A2991 RMK T02400240 IEM_DS3505
ZGGG,2001-05-03 14:00,ZGGG 031400Z AUTO 15004KT 3SM 24/24 A2994 RMK T02400240 IEM_DS3505
ZGGG,2001-05-03 15:00,ZGGG 031500Z AUTO 18002KT 3SM 24/23 RMK SLP144 T02360226 52013 IEM_DS3505
ZGGG,2001-05-03 16:00,ZGGG 031600Z AUTO 17004KT 2 1/2SM 24/23 A2991 RMK T02400230 IEM_DS3505
ZGGG,2001-05-03 17:00,ZGGG 031700Z AUTO 16006KT 2 1/2SM 23/23 A2988 RMK T02300230 IEM_DS3505
ZGGG,2001-05-03 18:00,ZGGG 031800Z AUTO 16004KT 2SM 23/22 A2988 RMK 60004 SLP124 T02300223 57020 IEM_DS3505
ZGGG,2001-05-03 19:00,ZGGG 031900Z AUTO 14002KT 2 1/2SM 23/23 A2988 RMK T02300230 IEM_DS3505
ZGGG,2001-05-03 20:00,ZGGG 032000Z AUTO 14004KT 2 1/2SM 23/23 A2988 RMK T02300230 IEM_DS3505
ZGGG,2001-05-03 21:00,ZGGG 032100Z AUTO 00000KT 3SM 23/22 A2988 RMK 70039 SLP130 T02300221 52006 IEM_DS3505
ZGGG,2001-05-03 22:00,ZGGG 032200Z AUTO 16004KT 2SM 23/23 A2991 RMK T02300230 IEM_DS3505
ZGGG,2001-05-03 23:00,ZGGG 032300Z AUTO 12002KT 1SM 23/23 A2991 RMK T02300230 IEM_DS3505
ZGGG,2001-05-04 00:00,ZGGG 040000Z AUTO 09002KT 2SM 23/22 A2991 RMK 60003 SLP139 T02340222 52009 IEM_DS3505
ZGGG,2001-05-04 01:00,ZGGG 040100Z AUTO 11004KT 1 1/4SM 25/22 A2994 RMK T02500220 IEM_DS3505
ZGGG,2001-05-04 02:00,ZGGG 040200Z AUTO 17004KT 2 1/2SM 26/22 A2997 RMK T02600220 IEM_DS3505
ZGGG,2001-05-04 03:00,ZGGG 040300Z AUTO 16004KT 4SM 26/22 A2994 RMK SLP148 T02640215 52009 IEM_DS3505
ZGGG,2001-05-04 04:00,ZGGG 040400Z AUTO 19004KT 2 1/2SM 27/23 A2994 RMK T02700230 IEM_DS3505
ZGGG,2001-05-04 06:00,ZGGG 040600Z AUTO 20004KT 4SM 28/23 A2988 RMK 60003 SLP128 T02770231 57020 IEM_DS3505
ZGGG,2001-05-04 07:00,ZGGG 040700Z AUTO 09002KT 3SM 28/22 A2985 RMK T02800220 IEM_DS3505
ZGGG,2001-05-04 08:00,ZGGG 040800Z AUTO 03004KT 2 1/2SM 28/23 A2985 RMK T02800230 IEM_DS3505
ZGGG,2001-05-04 09:00,ZGGG 040900Z AUTO 20004KT 2SM 25/24 A2985 RMK SLP120 T02510235 57008 IEM_DS3505
ZGGG,2001-05-04 10:00,ZGGG 041000Z AUTO 19008KT 3SM 24/24 A2988 RMK T02400240 IEM_DS3505
ZGGG,2001-05-04 11:00,ZGGG 041100Z AUTO 16004KT 2 1/2SM 24/24 RMK T02400240 IEM_DS3505
ZGGG,2001-05-04 12:00,ZGGG 041200Z AUTO 11004KT 1SM 24/23 A2985 RMK 60055 SLP122 T02400234 52002 IEM_DS3505
ZGGG,2001-05-04 13:00,ZGGG 041300Z AUTO 15006KT 2 1/2SM 24/24 A2988 RMK T02400240 IEM_DS3505
ZGGG,2001-05-04 14:00,ZGGG 041400Z AUTO 20004KT 3SM 24/24 A2988 RMK T02400240 IEM_DS3505
ZGGG,2001-05-04 15:00,ZGGG 041500Z AUTO 00000KT 3SM 24/24 A2988 RMK SLP133 T02410235 52011 IEM_DS3505
ZGGG,2001-05-04 16:00,ZGGG 041600Z AUTO 16006KT 3SM 24/23 A2988 RMK T02400230 IEM_DS3505
ZGGG,2001-05-04 17:00,ZGGG 041700Z AUTO 18004KT 2 1/2SM 24/24 A2988 RMK T02400240 IEM_DS3505
ZGGG,2001-05-04 18:00,ZGGG 041800Z AUTO 14004KT 3SM 24/23 A2985 RMK 60003 SLP122 T02410229 57011 IEM_DS3505
ZGGG,2001-05-04 19:00,ZGGG 041900Z AUTO 19006KT 2 1/2SM 24/24 A2985 RMK T02400240 IEM_DS3505
ZGGG,2001-05-04 20:00,ZGGG 042000Z AUTO 20006KT 2 1/2SM 24/23 A2985 RMK T02400230 IEM_DS3505
ZGGG,2001-05-04 21:00,ZGGG 042100Z AUTO 00000KT 1 1/4SM 24/23 A2985 RMK 70056 SLP116 T02370230 57006 IEM_DS3505
ZGGG,2001-05-04 22:00,ZGGG 042200Z AUTO 17002KT 1 1/4SM 24/24 A2985 RMK T02400240 IEM_DS3505
ZGGG,2001-05-04 23:00,ZGGG 042300Z AUTO 17006KT 1 1/4SM 24/24 A2985 RMK T02400240 IEM_DS3505
ZGGG,2001-05-05 00:00,ZGGG 050000Z AUTO 16002KT 2 1/2SM 25/23 A2988 RMK 70056 SLP128 T02460234 52012 IEM_DS3505
ZGGG,2001-05-05 01:00,ZGGG 050100Z AUTO 17006KT 1 1/2SM 27/24 A2991 RMK T02700240 IEM_DS3505
ZGGG,2001-05-05 02:00,ZGGG 050200Z AUTO 18006KT 2 1/2SM 27/24 A2988 RMK T02700240 IEM_DS3505
ZGGG,2001-05-05 03:00,ZGGG 050300Z AUTO 11006KT 7SM 28/24 A2988 RMK SLP126 T02790237 57002 IEM_DS3505
ZGGG,2001-05-05 04:00,ZGGG 050400Z AUTO 17008KT 3SM 29/23 A2985 RMK T02900230 IEM_DS3505
ZGGG,2001-05-05 05:00,ZGGG 050500Z AUTO 17006KT 5SM 31/23 A2983 RMK T03100230 IEM_DS3505
ZGGG,2001-05-05 06:00,ZGGG 050600Z AUTO 16004KT 10SM 30/24 A2980 RMK SLP101 T03040235 57025 IEM_DS3505
ZGGG,2001-05-05 07:00,ZGGG 050700Z AUTO 20008KT 7SM 31/23 A2977 RMK T03100230 IEM_DS3505
ZGGG,2001-05-05 08:00,ZGGG 050800Z AUTO 15008KT 7SM 31/23 A2974 RMK T03100230 IEM_DS3505
ZGGG,2001-05-05 09:00,ZGGG 050900Z AUTO 14006KT 9SM 30/24 A2974 RMK SLP081 T02970242 57020 IEM_DS3505
ZGGG,2001-05-05 10:00,ZGGG 051000Z AUTO 15008KT 7SM 30/24 A2974 RMK T03000240 IEM_DS3505
ZGGG,2001-05-05 11:00,ZGGG 051100Z AUTO 15006KT 4SM 29/25 A2977 RMK T02900250 IEM_DS3505
ZGGG,2001-05-05 12:00,ZGGG 051200Z AUTO 14004KT 9SM 28/24 A2977 RMK SLP089 T02760245 52008 IEM_DS3505
ZGGG,2001-05-05 13:00,ZGGG 051300Z AUTO 16008KT 5SM 28/24 A2980 RMK T02800240 IEM_DS3505
ZGGG,2001-05-05 14:00,ZGGG 051400Z AUTO 17006KT 6SM 27/24 A2983 RMK T02700240 IEM_DS3505
ZGGG,2001-05-05 15:00,ZGGG 051500Z AUTO 16006KT 9SM 26/24 A2983 RMK SLP110 T02650238 52021 IEM_DS3505
ZGGG,2001-05-05 16:00,ZGGG 051600Z AUTO 20006KT 7SM 27/24 A2983 RMK T02700240 IEM_DS3505
ZGGG,2001-05-05 17:00,ZGGG 051700Z AUTO 20008KT 9SM RMK IEM_DS3505
ZGGG,2001-05-05 18:00,ZGGG 051800Z AUTO 11004KT 9SM 26/24 A2980 RMK SLP099 T02580241 57011 IEM_DS3505
ZGGG,2001-05-05 19:00,ZGGG 051900Z AUTO 17006KT 7SM 26/24 A2980 RMK T02600240 IEM_DS3505
ZGGG,2001-05-05 20:00,ZGGG 052000Z AUTO 16004KT 4SM 26/24 A2977 RMK T02600240 IEM_DS3505
ZGGG,2001-05-05 21:00,ZGGG 052100Z AUTO 00000KT 6SM 25/24 A2980 RMK SLP095 T02540240 57004 IEM_DS3505
ZGGG,2001-05-05 22:00,ZGGG 052200Z AUTO 19004KT 2 1/2SM 26/24 A2980 RMK T02600240 IEM_DS3505
ZGGG,2001-05-05 23:00,ZGGG 052300Z AUTO 17004KT 2SM 26/25 A2980 RMK T02600250 IEM_DS3505
ZGGG,2001-05-06 00:00,ZGGG 060000Z AUTO 18004KT 4SM 26/24 A2983 RMK SLP105 T02630243 52010 IEM_DS3505
ZGGG,2001-05-06 01:00,ZGGG 060100Z AUTO 20006KT 3SM 28/24 A2983 RMK T02800240 IEM_DS3505
ZGGG,2001-05-06 02:00,ZGGG 060200Z AUTO 20006KT 4SM 29/24 A2983 RMK T02900240 IEM_DS3505
ZGGG,2001-05-06 03:00,ZGGG 060300Z AUTO 22006KT 7SM 30/24 A2983 RMK SLP105 T02990239 54000 IEM_DS3505
ZGGG,2001-05-06 04:00,ZGGG 060400Z AUTO 19006KT 7SM 30/24 A2980 RMK T03000240 IEM_DS3505
ZGGG,2001-05-06 05:00,ZGGG 060500Z AUTO 20008KT 7SM 32/24 A2977 RMK T03200240 IEM_DS3505
ZGGG,2001-05-06 06:00,ZGGG 060600Z AUTO 25006KT 9SM 32/24 A2974 RMK SLP077 T03250238 57027 IEM_DS3505
ZGGG,2001-05-06 07:00,ZGGG 060700Z AUTO 16008KT 7SM 32/24 A2971 RMK T03200240 IEM_DS3505
ZGGG,2001-05-06 08:00,ZGGG 060800Z AUTO 17008KT 7SM 33/25 A2968 RMK T03300250 IEM_DS3505
ZGGG,2001-05-06 09:00,ZGGG 060900Z AUTO 14006KT 7SM 30/26 A2968 RMK SLP055 T02990256 57022 IEM_DS3505
ZGGG,2001-05-06 10:00,ZGGG 061000Z AUTO 15010KT 7SM 30/26 A2968 RMK T03000260 IEM_DS3505
ZGGG,2001-05-06 11:00,ZGGG 061100Z AUTO 17006KT 7SM 29/26 A2968 RMK T02900260 IEM_DS3505
ZGGG,2001-05-06 12:00,ZGGG 061200Z AUTO 18002KT 7SM 28/26 A2971 RMK 60003 SLP070 T02840255 52014 IEM_DS3505
ZGGG,2001-05-06 13:00,ZGGG 061300Z AUTO 16008KT 6SM 28/25 A2971 RMK T02800250 IEM_DS3505
ZGGG,2001-05-06 14:00,ZGGG 061400Z AUTO 17006KT 6SM 28/25 A2974 RMK T02800250 IEM_DS3505
ZGGG,2001-05-06 15:00,ZGGG 061500Z AUTO 16004KT 9SM 28/25 A2974 RMK SLP081 T02760249 52012 IEM_DS3505
ZGGG,2001-05-06 16:00,ZGGG 061600Z AUTO 16006KT 7SM 28/26 A2974 RMK T02800260 IEM_DS3505
ZGGG,2001-05-06 17:00,ZGGG 061700Z AUTO 17006KT 7SM 28/26 A2977 RMK T02800260 IEM_DS3505
ZGGG,2001-05-06 18:00,ZGGG 061800Z AUTO 17004KT 7SM 28/26 A2974 RMK T02800260 IEM_DS3505
ZGGG,2001-05-06 19:00,ZGGG 061900Z AUTO 16006KT 7SM 27/26 A2971 RMK T02700260 IEM_DS3505
ZGGG,2001-05-06 20:00,ZGGG 062000Z AUTO 16004KT 7SM 27/26 A2971 RMK T02700260 IEM_DS3505
ZGGG,2001-05-06 21:00,ZGGG 062100Z AUTO 14004KT 6SM 27/25 A2971 RMK 70003 SLP074 T02670253 57006 IEM_DS3505
ZGGG,2001-05-06 22:00,ZGGG 062200Z AUTO 16004KT 4SM 27/26 A2974 RMK T02700260 IEM_DS3505
ZGGG,2001-05-06 23:00,ZGGG 062300Z AUTO 15004KT 3SM 27/26 A2974 RMK T02700260 IEM_DS3505
ZGGG,2001-05-07 00:00,ZGGG 070000Z AUTO 16004KT 5SM 28/26 A2977 RMK 70003 SLP087 T02750255 52012 IEM_DS3505
ZGGG,2001-05-07 01:00,ZGGG 070100Z AUTO 16008KT 7SM 29/26 A2974 RMK T02900260 IEM_DS3505
ZGGG,2001-05-07 02:00,ZGGG 070200Z AUTO 20008KT 7SM 29/26 A2977 RMK T02900260 IEM_DS3505
ZGGG,2001-05-07 03:00,ZGGG 070300Z AUTO 20004KT 9SM 30/26 A2974 RMK SLP081 T03040255 57005 IEM_DS3505
ZGGG,2001-05-07 04:00,ZGGG 070400Z AUTO 20010KT 7SM 32/26 A2974 RMK T03200260 IEM_DS3505
ZGGG,2001-05-07 05:00,ZGGG 070500Z AUTO 19008KT 7SM 33/26 A2971 RMK T03300260 IEM_DS3505
ZGGG,2001-05-07 06:00,ZGGG 070600Z AUTO 25006KT 12SM 33/25 A2965 RMK SLP054 T03320251 57027 IEM_DS3505
ZGGG,2001-05-07 07:00,ZGGG 070700Z AUTO 21012KT 7SM 32/26 A2962 RMK T03200260 IEM_DS3505
ZGGG,2001-05-07 08:00,ZGGG 070800Z AUTO 17008KT 7SM 30/27 A2962 RMK T03000270 IEM_DS3505
ZGGG,2001-05-07 09:00,ZGGG 070900Z AUTO 18006KT 9SM 29/26 A2959 RMK SLP030 T02890264 57024 IEM_DS3505
ZGGG,2001-05-07 11:00,ZGGG 071100Z AUTO 10002KT 7SM 27/24 A2962 RMK T02700240 IEM_DS3505
ZGGG,2001-05-07 12:00,ZGGG 071200Z AUTO 07002KT 9SM 27/25 A2965 RMK 60008 SLP046 T02700249 52016 IEM_DS3505
ZGGG,2001-05-07 13:00,ZGGG 071300Z AUTO 00000KT 6SM 28/25 A2965 RMK T02800250 IEM_DS3505
ZGGG,2001-05-07 14:00,ZGGG 071400Z AUTO 08002KT 6SM 27/25 A2968 RMK T02700250 IEM_DS3505
ZGGG,2001-05-07 15:00,ZGGG 071500Z AUTO 00000KT 8SM 27/25 A2968 RMK SLP060 T02710254 52014 IEM_DS3505
ZGGG,2001-05-07 16:00,ZGGG 071600Z AUTO 02012KT 24/22 A2968 RMK T02400220 IEM_DS3505
ZGGG,2001-05-07 17:00,ZGGG 071700Z AUTO 6SM 24/23 A2968 RMK T02400230 IEM_DS3505
ZGGG,2001-05-07 18:00,ZGGG 071800Z AUTO 00000KT 8SM 24/23 A2968 RMK 60039 SLP057 T02350226 57003 IEM_DS3505
ZGGG,2001-05-07 19:00,ZGGG 071900Z AUTO 12SM 24/23 A2968 RMK T02400230 IEM_DS3505
ZGGG,2001-05-07 20:00,ZGGG 072000Z AUTO 07008KT 6SM 23/23 A2968 RMK T02300230 IEM_DS3505
ZGGG,2001-05-07 21:00,ZGGG 072100Z AUTO 00000KT 9SM 24/23 A2968 RMK 70087 SLP058 T02370231 54000 IEM_DS3505
ZGGG,2001-05-07 22:00,ZGGG 072200Z AUTO 04004KT 6SM 24/24 A2968 RMK T02400240 IEM_DS3505
ZGGG,2001-05-07 23:00,ZGGG 072300Z AUTO 05004KT 6SM 24/24 A2971 RMK T02400240 IEM_DS3505
ZGGG,2001-05-08 00:00,ZGGG 080000Z AUTO 00000KT 9SM 26/24 A2971 RMK 60043 SLP069 T02560236 52011 IEM_DS3505
ZGGG,2001-05-08 01:00,ZGGG 080100Z AUTO 36004KT 16SM 27/24 A2974 RMK T02700240 IEM_DS3505
ZGGG,2001-05-08 02:00,ZGGG 080200Z AUTO 02002KT 6SM RMK IEM_DS3505
ZGGG,2001-05-08 03:00,ZGGG 080300Z AUTO 07002KT 16SM 28/24 RMK SLP074 T02840238 52005 IEM_DS3505
ZGGG,2001-05-08 04:00,ZGGG 080400Z AUTO 36004KT 6SM 28/24 A2971 RMK T02800240 IEM_DS3505
ZGGG,2001-05-08 05:00,ZGGG 080500Z AUTO 08004KT 6SM RMK IEM_DS3505
ZGGG,2001-05-08 06:00,ZGGG 080600Z AUTO 00000KT 11SM 30/24 A2965 RMK SLP052 T03020244 57022 IEM_DS3505
ZGGG,2001-05-08 07:00,ZGGG 080700Z AUTO 33008KT 6SM 28/24 A2965 RMK T02800240 IEM_DS3505
ZGGG,2001-05-08 08:00,ZGGG 080800Z AUTO 01010KT 6SM 27/23 A2965 RMK T02700230 IEM_DS3505
ZGGG,2001-05-08 09:00,ZGGG 080900Z AUTO 02002KT 9SM 26/23 A2962 RMK SLP039 T02640228 57013 IEM_DS3505
ZGGG,2001-05-08 10:00,ZGGG 081000Z AUTO 04008KT 6SM RMK IEM_DS3505
ZGGG,2001-05-08 11:00,ZGGG 081100Z AUTO 03008KT 6SM 25/22 A2965 RMK T02500220 IEM_DS3505
ZGGG,2001-05-08 12:00,ZGGG 081200Z AUTO 00000KT 8SM 25/23 A2968 RMK 60002 SLP061 T02520232 52022 IEM_DS3505
ZGGG,2001-05-08 13:00,ZGGG 081300Z AUTO 04008KT 6SM 26/23 A2971 RMK T02600230 IEM_DS3505
ZGGG,2001-05-08 14:00,ZGGG 081400Z AUTO 03010KT 6SM 24/23 A2971 RMK T02400230 IEM_DS3505
ZGGG,2001-05-08 15:00,ZGGG 081500Z AUTO 00000KT 8SM 24/23 A2974 RMK SLP077 T02440226 52016 IEM_DS3505
ZGGG,2001-05-08 16:00,ZGGG 081600Z AUTO 05004KT 6SM 24/23 A2974 RMK T02400230 IEM_DS3505
ZGGG,2001-05-08 17:00,ZGGG 081700Z AUTO 04004KT 6SM 24/22 A2971 RMK T02400220 IEM_DS3505
ZGGG,2001-05-08 18:00,ZGGG 081800Z AUTO 00000KT 9SM 24/22 A2971 RMK 60003 SLP067 T02430224 57010 IEM_DS3505
ZGGG,2001-05-08 19:00,ZGGG 081900Z AUTO 06002KT 6SM 23/23 A2968 RMK T02300230 IEM_DS3505
ZGGG,2001-05-08 20:00,ZGGG 082000Z AUTO 04004KT 23/23 A2968 RMK T02300230 IEM_DS3505
ZGGG,2001-05-08 21:00,ZGGG 082100Z AUTO 09002KT 10SM 24/22 A2968 RMK 70002 SLP058 T02410225 57009 IEM_DS3505
ZGGG,2001-05-08 22:00,ZGGG 082200Z AUTO 6SM 24/23 A2968 RMK T02400230 IEM_DS3505
ZGGG,2001-05-08 23:00,ZGGG 082300Z AUTO 12004KT 6SM 24/24 A2968 RMK T02400240 IEM_DS3505
ZGGG,2001-05-09 00:00,ZGGG 090000Z AUTO 11006KT 6SM 25/23 A2968 RMK 70002 SLP055 T02480229 57003 IEM_DS3505
ZGGG,2001-05-09 01:00,ZGGG 090100Z AUTO 12004KT 6SM 26/24 A2968 RMK T02600240 IEM_DS3505
ZGGG,2001-05-09 02:00,ZGGG 090200Z AUTO 17004KT 26/24 A2968 RMK T02600240 IEM_DS3505
ZGGG,2001-05-09 03:00,ZGGG 090300Z AUTO 14004KT 4SM 27/24 A2965 RMK SLP053 T02730242 57002 IEM_DS3505
ZGGG,2001-05-09 04:00,ZGGG 090400Z AUTO 21004KT 6SM 27/26 A2968 RMK T02700260 IEM_DS3505
ZGGG,2001-05-09 05:00,ZGGG 090500Z AUTO 26006KT 6SM 22/22 A2974 RMK T02200220 IEM_DS3505
ZGGG,2001-05-09 06:00,ZGGG 090600Z AUTO 34002KT 8SM 23/22 A2968 RMK 60094 SLP051 T02300221 57002 IEM_DS3505
ZGGG,2001-05-09 07:00,ZGGG 090700Z AUTO 23/23 A2968 RMK T02300230 IEM_DS3505
ZGGG,2001-05-09 08:00,ZGGG 090800Z AUTO 32002KT 6SM 24/23 A2968 RMK T02400230 IEM_DS3505
ZGGG,2001-05-09 09:00,ZGGG 090900Z AUTO 32002KT 7SM 24/23 A2965 RMK SLP053 T02450229 52002 IEM_DS3505
ZGGG,2001-05-09 10:00,ZGGG 091000Z AUTO 34004KT 6SM 24/23 A2968 RMK T02400230 IEM_DS3505
ZGGG,2001-05-09 11:00,ZGGG 091100Z AUTO 03004KT 6SM 24/23 A2971 RMK T02400230 IEM_DS3505
ZGGG,2001-05-09 12:00,ZGGG 091200Z AUTO 36004KT 9SM 24/21 A2974 RMK 60004 SLP077 T02350214 52024 IEM_DS3505
ZGGG,2001-05-09 13:00,ZGGG 091300Z AUTO 36006KT 6SM 24/21 A2977 RMK T02400210 IEM_DS3505
ZGGG,2001-05-09 14:00,ZGGG 091400Z AUTO 36006KT 6SM 24/20 A2980 RMK T02400200 IEM_DS3505
ZGGG,2001-05-09 15:00,ZGGG 091500Z AUTO 36006KT 11SM 23/19 A2980 RMK SLP101 T02300193 52024 IEM_DS3505
ZGGG,2001-05-09 16:00,ZGGG 091600Z AUTO 01008KT 6SM 23/19 A2983 RMK T02300190 IEM_DS3505
ZGGG,2001-05-09 17:00,ZGGG 091700Z AUTO 01008KT 6SM 22/18 A2980 RMK T02200180 IEM_DS3505
ZGGG,2001-05-09 18:00,ZGGG 091800Z AUTO 34004KT 11SM 22/17 A2980 RMK SLP099 T02160174 57003 IEM_DS3505
ZGGG,2001-05-09 19:00,ZGGG 091900Z AUTO 36008KT 6SM 22/17 A2980 RMK T02200170 IEM_DS3505
ZGGG,2001-05-09 20:00,ZGGG 092000Z AUTO 36008KT 6SM 21/17 A2983 RMK T02100170 IEM_DS3505
ZGGG,2001-05-09 21:00,ZGGG 092100Z AUTO 02004KT 11SM 21/16 A2983 RMK 70097 SLP107 T02080165 52008 IEM_DS3505
ZGGG,2001-05-09 22:00,ZGGG 092200Z AUTO 36008KT 6SM 21/16 A2983 RMK T02100160 IEM_DS3505
ZGGG,2001-05-09 23:00,ZGGG 092300Z AUTO 36008KT 6SM 21/16 A2985 RMK T02100160 IEM_DS3505
ZGGG,2001-05-10 00:00,ZGGG 100000Z AUTO 36004KT 16SM 21/15 A2988 RMK 70097 SLP123 T02140150 52016 IEM_DS3505
ZGGG,2001-05-10 01:00,ZGGG 100100Z AUTO 01010KT 6SM 23/16 A2988 RMK T02300160 IEM_DS3505
ZGGG,2001-05-10 02:00,ZGGG 100200Z AUTO 01012KT 6SM 24/17 A2988 RMK T02400170 IEM_DS3505
ZGGG,2001-05-10 03:00,ZGGG 100300Z AUTO 36006KT 17SM 25/17 RMK SLP123 T02520169 52001 IEM_DS3505
ZGGG,2001-05-10 04:00,ZGGG 100400Z AUTO 03010KT 26/17 A2988 RMK T02600170 IEM_DS3505
ZGGG,2001-05-10 05:00,ZGGG 100500Z AUTO 03010KT 6SM 27/18 A2985 RMK T02700180 IEM_DS3505
ZGGG,2001-05-10 06:00,ZGGG 100600Z AUTO 32004KT 17SM 27/18 A2983 RMK SLP109 T02670176 57014 IEM_DS3505
ZGGG,2001-05-10 07:00,ZGGG 100700Z AUTO 03012KT 6SM 27/17 A2983 RMK T02700170 IEM_DS3505
ZGGG,2001-05-10 08:00,ZGGG 100800Z AUTO 01010KT 6SM 26/17 A2983 RMK T02600170 IEM_DS3505
ZGGG,2001-05-10 09:00,ZGGG 100900Z AUTO 36006KT 16SM 26/17 A2983 RMK SLP106 T02580167 57003 IEM_DS3505
ZGGG,2001-05-10 10:00,ZGGG 101000Z AUTO 04012KT 6SM 26/17 A2985 RMK T02600170 IEM_DS3505
ZGGG,2001-05-10 11:00,ZGGG 101100Z AUTO 02010KT 6SM 25/17 A2985 RMK T02500170 IEM_DS3505
ZGGG,2001-05-10 12:00,ZGGG 101200Z AUTO 02002KT 12SM 24/17 RMK SLP124 T02370171 52017 IEM_DS3505
ZGGG,2001-05-10 13:00,ZGGG 101300Z AUTO 04010KT 6SM 23/17 A2988 RMK T02300170 IEM_DS3505
ZGGG,2001-05-10 14:00,ZGGG 101400Z AUTO 04010KT 6SM 22/16 A2991 RMK T02200160 IEM_DS3505
ZGGG,2001-05-10 15:00,ZGGG 101500Z AUTO 36002KT 11SM 22/17 A2994 RMK SLP142 T02220167 52018 IEM_DS3505
ZGGG,2001-05-10 16:00,ZGGG 101600Z AUTO 04006KT 6SM 21/17 A2991 RMK T02100170 IEM_DS3505
ZGGG,2001-05-10 17:00,ZGGG 101700Z AUTO 04008KT 21/17 A2991 RMK T02100170 IEM_DS3505
ZGGG,2001-05-10 18:00,ZGGG 101800Z AUTO 34002KT 11SM 21/17 RMK SLP133 T02090168 57008 IEM_DS3505
ZGGG,2001-05-10 19:00,ZGGG 101900Z AUTO 05006KT 6SM 20/17 A2991 RMK T02000170 IEM_DS3505
ZGGG,2001-05-10 20:00,ZGGG 102000Z AUTO 04006KT 6SM 21/17 A2988 RMK T02100170 IEM_DS3505
ZGGG,2001-05-10 21:00,ZGGG 102100Z AUTO 32004KT 10SM 21/17 A2988 RMK SLP129 T02110169 57005 IEM_DS3505
ZGGG,2001-05-10 22:00,ZGGG 102200Z AUTO 04006KT 6SM 21/17 A2988 RMK T02100170 IEM_DS3505
ZGGG,2001-05-10 23:00,ZGGG 102300Z AUTO 02006KT 6SM 21/17 A2991 RMK T02100170 IEM_DS3505
ZGGG,2001-05-11 00:00,ZGGG 110000Z AUTO 36002KT 11SM 23/17 A2991 RMK SLP138 T02280170 52009 IEM_DS3505
ZGGG,2001-05-11 01:00,ZGGG 110100Z AUTO 02006KT RMK IEM_DS3505
ZGGG,2001-05-11 02:00,ZGGG 110200Z AUTO 04006KT 6SM 26/18 A2991 RMK T02600180 IEM_DS3505
ZGGG,2001-05-11 03:00,ZGGG 110300Z AUTO 32002KT 11SM 26/18 A2988 RMK SLP128 T02620184 57009 IEM_DS3505
ZGGG,2001-05-11 04:00,ZGGG 110400Z AUTO 03004KT 6SM 27/19 A2988 RMK T02700190 IEM_DS3505
ZGGG,2001-05-11 05:00,ZGGG 110500Z AUTO 35006KT 6SM 28/19 A2985 RMK T02800190 IEM_DS3505
ZGGG,2001-05-11 06:00,ZGGG 110600Z AUTO 32002KT 16SM 28/18 A2985 RMK SLP113 T02840183 57015 IEM_DS3505
ZGGG,2001-05-11 07:00,ZGGG 110700Z AUTO 35008KT 6SM 29/19 A2983 RMK T02900190 IEM_DS3505
ZGGG,2001-05-11 08:00,ZGGG 110800Z AUTO 36008KT 6SM RMK IEM_DS3505
ZGGG,2001-05-11 09:00,ZGGG 110900Z AUTO 36006KT 16SM 29/18 A2980 RMK SLP098 T02860184 57015 IEM_DS3505
ZGGG,2001-05-11 10:00,ZGGG 111000Z AUTO 04008KT 6SM 27/19 A2980 RMK T02700190 IEM_DS3505
ZGGG,2001-05-11 11:00,ZGGG 111100Z AUTO 05008KT 6SM 26/18 A2980 RMK T02600180 IEM_DS3505
ZGGG,2001-05-11 12:00,ZGGG 111200Z AUTO 02002KT 12SM 26/19 A2983 RMK SLP109 T02560191 52011 IEM_DS3505
ZGGG,2001-05-11 13:00,ZGGG 111300Z AUTO 07004KT 6SM 25/19 A2983 RMK T02500190 IEM_DS3505
ZGGG,2001-05-11 14:00,ZGGG 111400Z AUTO 06004KT 6SM 24/19 A2985 RMK T02400190 IEM_DS3505
ZGGG,2001-05-11 15:00,ZGGG 111500Z AUTO 02002KT 11SM 24/19 A2985 RMK SLP119 T02450192 52010 IEM_DS3505
ZGGG,2001-05-11 16:00,ZGGG 111600Z AUTO 04006KT 6SM 24/19 A2985 RMK T02400190 IEM_DS3505
ZGGG,2001-05-11 17:00,ZGGG 111700Z AUTO 05006KT 6SM 23/19 A2985 RMK T02300190 IEM_DS3505
ZGGG,2001-05-11 18:00,ZGGG 111800Z AUTO 00000KT 11SM 22/19 A2983 RMK SLP112 T02240194 57007 IEM_DS3505
ZGGG,2001-05-11 19:00,ZGGG 111900Z AUTO 04006KT 6SM 22/19 A2983 RMK T02200190 IEM_DS3505
ZGGG,2001-05-11 20:00,ZGGG 112000Z AUTO 04006KT 6SM 22/18 A2983 RMK T02200180 IEM_DS3505
ZGGG,2001-05-11 21:00,ZGGG 112100Z AUTO 00000KT 10SM 21/19 A2983 RMK SLP108 T02140189 57004 IEM_DS3505
ZGGG,2001-05-11 22:00,ZGGG 112200Z AUTO 03006KT 6SM 22/18 A2983 RMK T02200180 IEM_DS3505
ZGGG,2001-05-11 23:00,ZGGG 112300Z AUTO 04006KT 6SM 23/19 A2983 RMK T02300190 IEM_DS3505
ZGGG,2001-05-12 00:00,ZGGG 120000Z AUTO 34004KT 11SM 24/18 A2985 RMK SLP113 T02440184 52005 IEM_DS3505
ZGGG,2001-05-12 01:00,ZGGG 120100Z AUTO 03010KT 6SM 26/18 A2985 RMK T02600180 IEM_DS3505
ZGGG,2001-05-12 02:00,ZGGG 120200Z AUTO 04010KT 6SM 27/19 A2985 RMK T02700190 IEM_DS3505
ZGGG,2001-05-12 03:00,ZGGG 120300Z AUTO 07006KT 16SM 28/18 A2983 RMK SLP105 T02830182 57008 IEM_DS3505
ZGGG,2001-05-12 04:00,ZGGG 120400Z AUTO 03008KT 29/19 A2980 RMK T02900190 IEM_DS3505
ZGGG,2001-05-12 05:00,ZGGG 120500Z AUTO 02006KT 6SM RMK IEM_DS3505
ZGGG,2001-05-12 06:00,ZGGG 120600Z AUTO 29002KT 18SM 31/18 A2974 RMK SLP083 T03070182 57022 IEM_DS3505
ZGGG,2001-05-12 07:00,ZGGG 120700Z AUTO 01006KT 16SM 30/17 A2974 RMK T03000170 IEM_DS3505
ZGGG,2001-05-12 08:00,ZGGG 120800Z AUTO 04006KT 6SM RMK IEM_DS3505
ZGGG,2001-05-12 09:00,ZGGG 120900Z AUTO 34004KT 17SM 31/19 RMK SLP072 T03120187 57011 IEM_DS3505
ZGGG,2001-05-12 10:00,ZGGG 121000Z AUTO 31006KT 6SM 31/18 A2974 RMK T03100180 IEM_DS3505
ZGGG,2001-05-12 11:00,ZGGG 121100Z AUTO 03002KT 6SM 29/18 A2974 RMK T02900180 IEM_DS3505
ZGGG,2001-05-12 12:00,ZGGG 121200Z AUTO 00000KT 12SM 27/20 A2974 RMK SLP083 T02700200 52011 IEM_DS3505
ZGGG,2001-05-12 13:00,ZGGG 121300Z AUTO 09004KT 6SM 27/19 A2977 RMK T02700190 IEM_DS3505
ZGGG,2001-05-12 14:00,ZGGG 121400Z AUTO 09002KT 6SM 26/19 A2977 RMK T02600190 IEM_DS3505
ZGGG,2001-05-12 15:00,ZGGG 121500Z AUTO 00000KT 11SM 26/21 A2980 RMK SLP094 T02560214 52011 IEM_DS3505
ZGGG,2001-05-12 16:00,ZGGG 121600Z AUTO 14004KT 6SM 26/22 A2977 RMK T02600220 IEM_DS3505
ZGGG,2001-05-12 17:00,ZGGG 121700Z AUTO 22008KT 26/22 A2977 RMK T02600220 IEM_DS3505
ZGGG,2001-05-12 18:00,ZGGG 121800Z AUTO 00000KT 11SM 25/22 A2977 RMK SLP085 T02500222 57009 IEM_DS3505
ZGGG,2001-05-12 19:00,ZGGG 121900Z AUTO 19004KT 6SM 25/22 A2974 RMK T02500220 IEM_DS3505
ZGGG,2001-05-12 20:00,ZGGG 122000Z AUTO 20004KT 7SM 24/22 A2974 RMK T02400220 IEM_DS3505
ZGGG,2001-05-12 21:00,ZGGG 122100Z AUTO 07004KT 1 1/4SM 24/22 A2977 RMK SLP084 T02360218 57001 IEM_DS3505
ZGGG,2001-05-12 22:00,ZGGG 122200Z AUTO 14002KT 6SM 24/22 A2977 RMK T02400220 IEM_DS3505
ZGGG,2001-05-12 23:00,ZGGG 122300Z AUTO 6SM 24/23 A2977 RMK T02400230 IEM_DS3505
ZGGG,2001-05-13 00:00,ZGGG 130000Z AUTO 11002KT 1 1/4SM 25/22 A2980 RMK SLP097 T02480221 52013 IEM_DS3505
ZGGG,2001-05-13 01:00,ZGGG 130100Z AUTO 6SM 27/22 A2980 RMK T02700220 IEM_DS3505
ZGGG,2001-05-13 02:00,ZGGG 130200Z AUTO 01004KT 28/21 A2977 RMK T02800210 IEM_DS3505
ZGGG,2001-05-13 03:00,ZGGG 130300Z AUTO 34002KT 7SM 29/21 A2977 RMK SLP088 T02920209 57009 IEM_DS3505
ZGGG,2001-05-13 04:00,ZGGG 130400Z AUTO 35006KT 6SM RMK IEM_DS3505
ZGGG,2001-05-13 05:00,ZGGG 130500Z AUTO 30004KT 6SM RMK IEM_DS3505
ZGGG,2001-05-13 06:00,ZGGG 130600Z AUTO 29002KT 11SM 32/18 A2971 RMK SLP070 T03230180 57017 IEM_DS3505
ZGGG,2001-05-13 07:00,ZGGG 130700Z AUTO 30004KT 6SM 33/19 A2968 RMK T03300190 IEM_DS3505
ZGGG,2001-05-13 08:00,ZGGG 130800Z AUTO 34004KT 6SM RMK IEM_DS3505
ZGGG,2001-05-13 09:00,ZGGG 130900Z AUTO 00000KT 11SM 32/19 A2968 RMK SLP057 T03240186 57013 IEM_DS3505
ZGGG,2001-05-13 10:00,ZGGG 131000Z AUTO 02004KT 6SM 32/17 A2968 RMK T03200170 IEM_DS3505
ZGGG,2001-05-13 11:00,ZGGG 131100Z AUTO 10004KT 6SM 30/19 A2968 RMK T03000190 IEM_DS3505
ZGGG,2001-05-13 12:00,ZGGG 131200Z AUTO 18002KT 6SM 29/21 RMK SLP070 T02900213 52012 IEM_DS3505
ZGGG,2001-05-13 13:00,ZGGG 131300Z AUTO 16004KT 6SM 28/21 A2974 RMK T02800210 IEM_DS3505
ZGGG,2001-05-13 14:00,ZGGG 131400Z AUTO 16004KT 6SM 28/22 A2974 RMK T02800220 IEM_DS3505
ZGGG,2001-05-13 15:00,ZGGG 131500Z AUTO 00000KT 6SM 26/22 A2977 RMK SLP084 T02630220 52014 IEM_DS3505
ZGGG,2001-05-13 16:00,ZGGG 131600Z AUTO 16006KT 6SM 27/23 A2974 RMK T02700230 IEM_DS3505
ZGGG,2001-05-13 17:00,ZGGG 131700Z AUTO 17004KT 6SM 27/23 A2974 RMK T02700230 IEM_DS3505
ZGGG,2001-05-13 18:00,ZGGG 131800Z AUTO 11002KT 5SM 26/23 A2974 RMK SLP080 T02550233 57003 IEM_DS3505
ZGGG,2001-05-13 19:00,ZGGG 131900Z AUTO 15004KT 6SM 26/23 A2974 RMK T02600230 IEM_DS3505
ZGGG,2001-05-13 20:00,ZGGG 132000Z AUTO 13002KT 6SM 26/24 A2974 RMK T02600240 IEM_DS3505
ZGGG,2001-05-14 00:00,ZGGG 140000Z AUTO 14004KT 2SM 26/24 A2980 RMK SLP099 T02590236 52016 IEM_DS3505
ZGGG,2001-05-14 01:00,ZGGG 140100Z AUTO 15004KT 6SM 28/24 A2980 RMK T02800240 IEM_DS3505
ZGGG,2001-05-14 02:00,ZGGG 140200Z AUTO 16004KT 6SM 29/24 A2983 RMK T02900240 IEM_DS3505
ZGGG,2001-05-14 03:00,ZGGG 140300Z AUTO 18002KT 2 1/2SM 30/24 A2983 RMK SLP106 T02960236 52007 IEM_DS3505
ZGGG,2001-05-14 04:00,ZGGG 140400Z AUTO 17004KT 6SM 30/23 A2980 RMK T03000230 IEM_DS3505
ZGGG,2001-05-14 05:00,ZGGG 140500Z AUTO 15004KT 6SM 31/23 A2980 RMK T03100230 IEM_DS3505
ZGGG,2001-05-14 06:00,ZGGG 140600Z AUTO 18004KT 6SM 32/22 A2977 RMK SLP091 T03180222 57014 IEM_DS3505
ZGGG,2001-05-14 07:00,ZGGG 140700Z AUTO 05012KT 6SM 27/23 A2977 RMK T02700230 IEM_DS3505
ZGGG,2001-05-14 08:00,ZGGG 140800Z AUTO 28/24 A2974 RMK T02800240 IEM_DS3505
ZGGG,2001-05-14 09:00,ZGGG 140900Z AUTO 00000KT 4SM 30/23 RMK SLP080 T03010229 57012 IEM_DS3505
ZGGG,2001-05-14 10:00,ZGGG 141000Z AUTO 13004KT 6SM 30/24 A2974 RMK T03000240 IEM_DS3505
ZGGG,2001-05-14 11:00,ZGGG 141100Z AUTO 14004KT 6SM 29/23 A2977 RMK T02900230 IEM_DS3505
ZGGG,2001-05-14 12:00,ZGGG 141200Z AUTO 16004KT 4SM 28/23 A2977 RMK 60003 SLP092 T02840232 52012 IEM_DS3505
ZGGG,2001-05-14 13:00,ZGGG 141300Z AUTO 14004KT 6SM 28/23 A2980 RMK T02800230 IEM_DS3505
ZGGG,2001-05-14 14:00,ZGGG 141400Z AUTO 15004KT 6SM 27/23 A2980 RMK T02700230 IEM_DS3505
ZGGG,2001-05-14 15:00,ZGGG 141500Z AUTO 09002KT 7SM 26/24 A2983 RMK SLP110 T02640235 52018 IEM_DS3505
ZGGG,2001-05-14 16:00,ZGGG 141600Z AUTO 17004KT 6SM 27/23 A2983 RMK T02700230 IEM_DS3505
ZGGG,2001-05-14 18:00,ZGGG 141800Z AUTO 14002KT 7SM 26/23 RMK SLP114 T02580232 52004 IEM_DS3505
ZGGG,2001-05-14 21:00,ZGGG 142100Z AUTO 00000KT 6SM 25/23 A2985 RMK 70003 SLP114 T02480230 54000 IEM_DS3505
ZGGG,2001-05-14 22:00,ZGGG 142200Z AUTO 05002KT 12SM 25/23 A2985 RMK T02500230 IEM_DS3505
ZGGG,2001-05-14 23:00,ZGGG 142300Z AUTO 12002KT 6SM 26/23 A2985 RMK T02600230 IEM_DS3505
ZGGG,2001-05-15 00:00,ZGGG 150000Z AUTO 11002KT 5SM 27/23 A2988 RMK 70003 SLP128 T02660231 52014 IEM_DS3505
ZGGG,2001-05-15 01:00,ZGGG 150100Z AUTO 17006KT RMK IEM_DS3505
ZGGG,2001-05-15 02:00,ZGGG 150200Z AUTO 19002KT 6SM 28/22 A2991 RMK T02800220 IEM_DS3505
ZGGG,2001-05-15 03:00,ZGGG 150300Z AUTO 14004KT 8SM 29/23 A2991 RMK SLP136 T02880232 52008 IEM_DS3505
ZGGG,2001-05-15 04:00,ZGGG 150400Z AUTO 14SM 30/24 A2988 RMK T03000240 IEM_DS3505
ZGGG,2001-05-15 05:00,ZGGG 150500Z AUTO 04004KT 6SM 31/24 A2985 RMK T03100240 IEM_DS3505
ZGGG,2001-05-15 06:00,ZGGG 150600Z AUTO 18002KT 6SM 32/23 A2983 RMK SLP113 T03170231 57023 IEM_DS3505
ZGGG,2001-05-15 07:00,ZGGG 150700Z AUTO 10004KT 6SM 31/23 A2983 RMK T03100230 IEM_DS3505
ZGGG,2001-05-15 08:00,ZGGG 150800Z AUTO 21004KT 6SM 32/23 A2980 RMK T03200230 IEM_DS3505
ZGGG,2001-05-15 09:00,ZGGG 150900Z AUTO 16004KT 7SM 32/23 A2980 RMK SLP105 T03210232 57008 IEM_DS3505
ZGGG,2001-05-15 10:00,ZGGG 151000Z AUTO 33002KT 6SM 31/22 A2983 RMK T03100220 IEM_DS3505
ZGGG,2001-05-15 11:00,ZGGG 151100Z AUTO 04006KT 6SM 27/23 A2985 RMK T02700230 IEM_DS3505
ZGGG,2001-05-15 12:00,ZGGG 151200Z AUTO 29006KT 4SM 24/22 A2988 RMK 60075 SLP125 T02420224 52020 IEM_DS3505
ZGGG,2001-05-15 13:00,ZGGG 151300Z AUTO 27006KT 6SM 26/23 A2991 RMK T02600230 IEM_DS3505
ZGGG,2001-05-15 14:00,ZGGG 151400Z AUTO 07004KT 6SM 24/23 A2991 RMK T02400230 IEM_DS3505
ZGGG,2001-05-15 15:00,ZGGG 151500Z AUTO 00000KT 2 1/2SM 25/24 RMK SLP135 T02510241 52010 IEM_DS3505
ZGGG,2001-05-15 16:00,ZGGG 151600Z AUTO 06002KT 6SM 25/24 A2988 RMK T02500240 IEM_DS3505
ZGGG,2001-05-15 17:00,ZGGG 151700Z AUTO 6SM 24/24 A2988 RMK T02400240 IEM_DS3505
ZGGG,2001-05-15 20:00,ZGGG 152000Z AUTO 07002KT 6SM 25/24 A2985 RMK T02500240 IEM_DS3505
ZGGG,2001-05-15 21:00,ZGGG 152100Z AUTO 07004KT 3SM 25/24 A2985 RMK 70105 SLP123 T02500238 57003 IEM_DS3505
ZGGG,2001-05-15 22:00,ZGGG 152200Z AUTO 06004KT 6SM 25/24 A2988 RMK T02500240 IEM_DS3505
ZGGG,2001-05-15 23:00,ZGGG 152300Z AUTO 05002KT 6SM 25/24 A2991 RMK T02500240 IEM_DS3505
ZGGG,2001-05-16 00:00,ZGGG 160000Z AUTO 09002KT 3SM 26/24 A2991 RMK 60002 SLP140 T02560245 52017 IEM_DS3505
ZGGG,2001-05-16 01:00,ZGGG 160100Z AUTO 13002KT 3SM 26/24 A2994 RMK T02600240 IEM_DS3505
ZGGG,2001-05-16 02:00,ZGGG 160200Z AUTO 08002KT 6SM 26/24 A2994 RMK T02600240 IEM_DS3505
ZGGG,2001-05-16 03:00,ZGGG 160300Z AUTO 09004KT 2SM 27/24 A2994 RMK SLP144 T02670244 52004 IEM_DS3505
ZGGG,2001-05-16 04:00,ZGGG 160400Z AUTO 09006KT 4SM 28/23 A2991 RMK T02800230 IEM_DS3505
ZGGG,2001-05-16 05:00,ZGGG 160500Z AUTO 05006KT 28/23 A2991 RMK T02800230 IEM_DS3505
ZGGG,2001-05-16 06:00,ZGGG 160600Z AUTO 02006KT 11SM 28/23 A2988 RMK 60012 SLP126 T02790226 57018 IEM_DS3505
ZGGG,2001-05-16 07:00,ZGGG 160700Z AUTO 06006KT 6SM 26/22 A2985 RMK T02600220 IEM_DS3505
ZGGG,2001-05-16 08:00,ZGGG 160800Z AUTO 6SM 24/22 A2988 RMK T02400220 IEM_DS3505
ZGGG,2001-05-16 09:00,ZGGG 160900Z AUTO 34002KT 2 1/2SM 23/22 A2988 RMK SLP125 T02340222 57001 IEM_DS3505
ZGGG,2001-05-16 10:00,ZGGG 161000Z AUTO 05006KT 11SM 23/23 A2988 RMK T02300230 IEM_DS3505
ZGGG,2001-05-16 11:00,ZGGG 161100Z AUTO 04008KT 6SM 23/22 A2988 RMK T02300220 IEM_DS3505
ZGGG,2001-05-16 12:00,ZGGG 161200Z AUTO 02004KT 10SM 23/22 RMK 60114 SLP134 T02310218 52009 IEM_DS3505
ZGGG,2001-05-16 13:00,ZGGG 161300Z AUTO 05006KT 6SM 23/22 A2991 RMK T02300220 IEM_DS3505
ZGGG,2001-05-16 14:00,ZGGG 161400Z AUTO 04004KT 6SM 23/22 A2991 RMK T02300220 IEM_DS3505
ZGGG,2001-05-16 15:00,ZGGG 161500Z AUTO 00000KT 11SM 23/22 A2991 RMK SLP140 T02320217 52006 IEM_DS3505
ZGGG,2001-05-16 16:00,ZGGG 161600Z AUTO 9SM 24/22 A2991 RMK T02400220 IEM_DS3505
ZGGG,2001-05-16 17:00,ZGGG 161700Z AUTO 12002KT 6SM 24/23 A2991 RMK T02400230 IEM_DS3505
ZGGG,2001-05-16 18:00,ZGGG 161800Z AUTO 04002KT 9SM 23/22 A2988 RMK 60003 SLP125 T02310218 57015 IEM_DS3505
ZGGG,2001-05-16 19:00,ZGGG 161900Z AUTO 08002KT 6SM 23/22 A2985 RMK T02300220 IEM_DS3505
ZGGG,2001-05-16 20:00,ZGGG 162000Z AUTO 03002KT 23/23 A2985 RMK T02300230 IEM_DS3505
ZGGG,2001-05-16 21:00,ZGGG 162100Z AUTO 00000KT 9SM 23/22 A2985 RMK 70126 SLP115 T02290219 57010 IEM_DS3505
ZGGG,2001-05-16 22:00,ZGGG 162200Z AUTO 05002KT 6SM 23/22 A2985 RMK T02300220 IEM_DS3505
ZGGG,2001-05-16 23:00,ZGGG 162300Z AUTO 04002KT 6SM 24/22 A2985 RMK T02400220 IEM_DS3505
ZGGG,2001-05-17 00:00,ZGGG 170000Z AUTO 09002KT 9SM 24/22 A2988 RMK 70126 SLP127 T02400219 52012 IEM_DS3505
ZGGG,2001-05-17 02:00,ZGGG 170200Z AUTO 12006KT 6SM 26/23 A2988 RMK T02600230 IEM_DS3505
ZGGG,2001-05-17 03:00,ZGGG 170300Z AUTO 14006KT 7SM 26/23 A2988 RMK SLP128 T02650228 52001 IEM_DS3505
ZGGG,2001-05-17 04:00,ZGGG 170400Z AUTO 11006KT 6SM 28/23 A2985 RMK T02800230 IEM_DS3505
ZGGG,2001-05-17 05:00,ZGGG 170500Z AUTO 14004KT 6SM 27/23 A2983 RMK T02700230 IEM_DS3505
ZGGG,2001-05-17 06:00,ZGGG 170600Z AUTO 09004KT 6SM 27/24 A2980 RMK SLP101 T02720237 57027 IEM_DS3505
ZGGG,2001-05-17 07:00,ZGGG 170700Z AUTO 11006KT 27/24 A2977 RMK T02700240 IEM_DS3505
ZGGG,2001-05-17 08:00,ZGGG 170800Z AUTO 21002KT 6SM 25/24 A2980 RMK T02500240 IEM_DS3505
ZGGG,2001-05-17 09:00,ZGGG 170900Z AUTO 11004KT 4SM 26/25 A2977 RMK SLP089 T02560247 57012 IEM_DS3505
ZGGG,2001-05-17 11:00,ZGGG 171100Z AUTO 14004KT 6SM 26/25 A2980 RMK T02600250 IEM_DS3505
ZGGG,2001-05-17 12:00,ZGGG 171200Z AUTO 11004KT 4SM 25/24 A2980 RMK 60043 SLP095 T02520245 52006 IEM_DS3505
ZGGG,2001-05-17 13:00,ZGGG 171300Z AUTO 14004KT 6SM 26/25 A2983 RMK T02600250 IEM_DS3505
ZGGG,2001-05-17 14:00,ZGGG 171400Z AUTO 13004KT 6SM RMK IEM_DS3505
ZGGG,2001-05-17 15:00,ZGGG 171500Z AUTO 11004KT 3SM 25/24 A2983 RMK SLP104 T02510244 52009 IEM_DS3505
ZGGG,2001-05-17 16:00,ZGGG 171600Z AUTO 12006KT 6SM 26/24 A2980 RMK T02600240 IEM_DS3505
ZGGG,2001-05-17 17:00,ZGGG 171700Z AUTO 14004KT 6SM 25/24 A2977 RMK T02500240 IEM_DS3505
ZGGG,2001-05-17 18:00,ZGGG 171800Z AUTO 11002KT 16SM 25/24 A2977 RMK T02500240 IEM_DS3505
ZGGG,2001-05-17 20:00,ZGGG 172000Z AUTO 10002KT 6SM 25/25 A2974 RMK T02500250 IEM_DS3505
ZGGG,2001-05-17 21:00,ZGGG 172100Z AUTO 16004KT 2 1/2SM 25/24 A2971 RMK 70100 SLP073 T02480244 57016 IEM_DS3505
ZGGG,2001-05-17 22:00,ZGGG 172200Z AUTO 21004KT 6SM 25/25 A2971 RMK T02500250 IEM_DS3505
ZGGG,2001-05-18 00:00,ZGGG 180000Z AUTO 11002KT 5SM 25/24 A2974 RMK 60213 SLP082 T02470243 52009 IEM_DS3505
ZGGG,2001-05-18 01:00,ZGGG 180100Z AUTO 26/26 A2977 RMK T02600260 IEM_DS3505
ZGGG,2001-05-18 02:00,ZGGG 180200Z AUTO 09002KT 6SM 26/25 A2977 RMK T02600250 IEM_DS3505
ZGGG,2001-05-18 03:00,ZGGG 180300Z AUTO 14004KT 6SM 26/25 A2974 RMK SLP081 T02600250 57001 IEM_DS3505
ZGGG,2001-05-18 04:00,ZGGG 180400Z AUTO 17006KT RMK IEM_DS3505
ZGGG,2001-05-18 05:00,ZGGG 180500Z AUTO 17006KT 6SM 28/25 A2971 RMK T02800250 IEM_DS3505
ZGGG,2001-05-18 06:00,ZGGG 180600Z AUTO 18006KT 7SM 28/25 RMK 60002 SLP057 T02840246 57024 IEM_DS3505
ZGGG,2001-05-18 07:00,ZGGG 180700Z AUTO 20006KT 7SM RMK IEM_DS3505
ZGGG,2001-05-18 08:00,ZGGG 180800Z AUTO 15004KT 6SM 29/24 A2962 RMK T02900240 IEM_DS3505
ZGGG,2001-05-18 09:00,ZGGG 180900Z AUTO 22004KT 7SM 29/25 A2962 RMK SLP046 T02860246 57011 IEM_DS3505
ZGGG,2001-05-18 10:00,ZGGG 181000Z AUTO 15006KT 6SM 28/24 A2965 RMK T02800240 IEM_DS3505
ZGGG,2001-05-18 11:00,ZGGG 181100Z AUTO 20008KT 6SM 27/24 A2968 RMK T02700240 IEM_DS3505
ZGGG,2001-05-18 12:00,ZGGG 181200Z AUTO 11004KT 5SM 27/26 A2968 RMK 60002 SLP058 T02660255 52012 IEM_DS3505
ZGGG,2001-05-18 13:00,ZGGG 181300Z AUTO 10002KT 6SM 26/26 A2971 RMK T02600260 IEM_DS3505
ZGGG,2001-05-18 14:00,ZGGG 181400Z AUTO 28004KT 6SM 26/26 A2971 RMK T02600260 IEM_DS3505
ZGGG,2001-05-18 15:00,ZGGG 181500Z AUTO 11002KT 2 1/2SM 26/25 A2971 RMK SLP068 T02590250 52010 IEM_DS3505
ZGGG,2001-05-18 16:00,ZGGG 181600Z AUTO 06004KT 19SM 25/25 A2971 RMK T02500250 IEM_DS3505
ZGGG,2001-05-18 17:00,ZGGG 181700Z AUTO 06002KT 6SM 25/25 A2968 RMK T02500250 IEM_DS3505
ZGGG,2001-05-18 18:00,ZGGG 181800Z AUTO 11002KT 2SM 26/25 A2968 RMK 60002 SLP055 T02570248 57013 IEM_DS3505
ZGGG,2001-05-18 20:00,ZGGG 182000Z AUTO 02002KT 6SM 24/24 A2965 RMK T02400240 IEM_DS3505
ZGGG,2001-05-18 21:00,ZGGG 182100Z AUTO 00000KT 1 1/2SM 25/24 A2965 RMK 70169 SLP047 T02530244 57008 IEM_DS3505
ZGGG,2001-05-18 22:00,ZGGG 182200Z AUTO 06004KT 24/24 A2965 RMK T02400240 IEM_DS3505
ZGGG,2001-05-18 23:00,ZGGG 182300Z AUTO 01004KT 6SM 24/24 A2968 RMK T02400240 IEM_DS3505
ZGGG,2001-05-19 00:00,ZGGG 190000Z AUTO 32002KT 2SM 25/24 A2968 RMK 60002 SLP060 T02510244 52013 IEM_DS3505
ZGGG,2001-05-19 01:00,ZGGG 190100Z AUTO 01006KT 6SM 25/24 A2971 RMK T02500240 IEM_DS3505
ZGGG,2001-05-19 02:00,ZGGG 190200Z AUTO 02006KT 6SM 26/25 A2971 RMK T02600250 IEM_DS3505
ZGGG,2001-05-19 03:00,ZGGG 190300Z AUTO 34004KT 9SM 27/24 A2971 RMK SLP066 T02680245 52006 IEM_DS3505
ZGGG,2001-05-19 04:00,ZGGG 190400Z AUTO 35004KT 6SM 26/24 A2968 RMK T02600240 IEM_DS3505
ZGGG,2001-05-19 05:00,ZGGG 190500Z AUTO 36006KT 28/24 A2968 RMK T02800240 IEM_DS3505
ZGGG,2001-05-19 06:00,ZGGG 190600Z AUTO 34006KT 11SM 29/24 RMK 60003 SLP052 T02900239 57013 IEM_DS3505
ZGGG,2001-05-19 08:00,ZGGG 190800Z AUTO 36006KT 29/24 A2962 RMK T02900240 IEM_DS3505
ZGGG,2001-05-19 09:00,ZGGG 190900Z AUTO 34004KT 11SM 30/24 A2962 RMK SLP034 T02950236 57018 IEM_DS3505
ZGGG,2001-05-19 10:00,ZGGG 191000Z AUTO 36006KT 6SM 29/23 A2959 RMK T02900230 IEM_DS3505
ZGGG,2001-05-19 11:00,ZGGG 191100Z AUTO 07004KT 6SM 28/23 A2962 RMK T02800230 IEM_DS3505
ZGGG,2001-05-19 12:00,ZGGG 191200Z AUTO 00000KT 10SM 27/24 A2965 RMK SLP047 T02710244 52012 IEM_DS3505
ZGGG,2001-05-19 13:00,ZGGG 191300Z AUTO 6SM 27/24 A2965 RMK T02700240 IEM_DS3505
ZGGG,2001-05-19 14:00,ZGGG 191400Z AUTO 6SM 27/24 A2968 RMK T02700240 IEM_DS3505
ZGGG,2001-05-19 15:00,ZGGG 191500Z AUTO 00000KT 8SM 27/25 A2968 RMK SLP064 T02670246 52017 IEM_DS3505
ZGGG,2001-05-19 16:00,ZGGG 191600Z AUTO 6SM 27/24 A2968 RMK T02700240 IEM_DS3505
ZGGG,2001-05-19 18:00,ZGGG 191800Z AUTO 00000KT 7SM 26/25 A2965 RMK SLP049 T02620248 57014 IEM_DS3505
ZGGG,2001-05-19 19:00,ZGGG 191900Z AUTO 6SM 26/24 A2965 RMK T02600240 IEM_DS3505
ZGGG,2001-05-19 20:00,ZGGG 192000Z AUTO 6SM 26/24 A2965 RMK T02600240 IEM_DS3505
ZGGG,2001-05-19 21:00,ZGGG 192100Z AUTO 00000KT 4SM 26/24 A2965 RMK 70002 SLP044 T02570241 57005 IEM_DS3505
ZGGG,2001-05-19 22:00,ZGGG 192200Z AUTO 6SM 26/25 A2965 RMK T02600250 IEM_DS3505
ZGGG,2001-05-19 23:00,ZGGG 192300Z AUTO 6SM 26/26 A2968 RMK T02600260 IEM_DS3505
ZGGG,2001-05-20 00:00,ZGGG 200000Z AUTO 00000KT 2SM 28/25 A2968 RMK 70003 SLP061 T02750250 52016 IEM_DS3505
ZGGG,2001-05-20 01:30,ZGGG 200130Z AUTO 25004KT 30/25 A2968 RMK T03000250 IEM_DS3505
ZGGG,2001-05-20 02:00,ZGGG 200200Z AUTO 29004KT 30/25 A2968 RMK T03000250 IEM_DS3505
ZGGG,2001-05-20 03:00,ZGGG 200300Z AUTO 22004KT 7SM 32/25 A2965 RMK SLP053 T03170247 57007 IEM_DS3505
ZGGG,2001-05-20 04:00,ZGGG 200400Z AUTO 30004KT 6SM RMK IEM_DS3505
ZGGG,2001-05-20 05:00,ZGGG 200500Z AUTO 31004KT 6SM RMK IEM_DS3505
ZGGG,2001-05-20 06:00,ZGGG 200600Z AUTO 27006KT 9SM 34/24 RMK SLP032 T03350244 57021 IEM_DS3505
ZGGG,2001-05-20 07:00,ZGGG 200700Z AUTO 6SM 33/23 A2956 RMK T03300230 IEM_DS3505
ZGGG,2001-05-20 08:00,ZGGG 200800Z AUTO 22004KT 6SM 33/24 A2956 RMK T03300240 IEM_DS3505
ZGGG,2001-05-20 09:00,ZGGG 200900Z AUTO 14004KT 9SM 33/24 RMK SLP014 T03280236 57018 IEM_DS3505
ZGGG,2001-05-20 10:00,ZGGG 201000Z AUTO 17008KT 6SM 32/24 A2956 RMK T03200240 IEM_DS3505
ZGGG,2001-05-20 11:00,ZGGG 201100Z AUTO 17008KT 6SM 30/24 A2959 RMK T03000240 IEM_DS3505
ZGGG,2001-05-20 12:00,ZGGG 201200Z AUTO 18004KT 9SM 29/24 A2959 RMK SLP034 T02860239 52020 IEM_DS3505
ZGGG,2001-05-20 13:00,ZGGG 201300Z AUTO 17006KT 6SM 28/24 A2962 RMK T02800240 IEM_DS3505
ZGGG,2001-05-20 14:00,ZGGG 201400Z AUTO 17004KT 6SM 28/24 A2962 RMK T02800240 IEM_DS3505
ZGGG,2001-05-20 15:00,ZGGG 201500Z AUTO 11002KT 9SM 27/25 A2965 RMK SLP046 T02730249 52012 IEM_DS3505
ZGGG,2001-05-20 16:00,ZGGG 201600Z AUTO 16002KT 6SM 28/24 A2965 RMK T02800240 IEM_DS3505
ZGGG,2001-05-20 17:00,ZGGG 201700Z AUTO 16002KT 6SM RMK IEM_DS3505
ZGGG,2001-05-20 18:00,ZGGG 201800Z AUTO 14004KT 7SM 27/25 A2962 RMK SLP039 T02700247 57007 IEM_DS3505
ZGGG,2001-05-20 19:00,ZGGG 201900Z AUTO 20006KT 6SM 27/24 A2962 RMK T02700240 IEM_DS3505
ZGGG,2001-05-20 20:00,ZGGG 202000Z AUTO 18006KT 6SM 27/25 A2959 RMK T02700250 IEM_DS3505
ZGGG,2001-05-20 21:00,ZGGG 202100Z AUTO 16002KT 4SM 26/25 A2959 RMK 70003 SLP029 T02650249 57010 IEM_DS3505
ZGGG,2001-05-20 22:00,ZGGG 202200Z AUTO 18004KT 6SM 27/25 A2959 RMK T02700250 IEM_DS3505
ZGGG,2001-05-20 23:00,ZGGG 202300Z AUTO 19006KT 6SM 27/25 A2962 RMK T02700250 IEM_DS3505
ZGGG,2001-05-21 00:00,ZGGG 210000Z AUTO 20004KT 5SM 28/25 RMK 60003 SLP042 T02750252 52013 IEM_DS3505
ZGGG,2001-05-21 01:00,ZGGG 210100Z AUTO 25004KT 6SM 28/26 A2965 RMK T02800260 IEM_DS3505
ZGGG,2001-05-21 02:00,ZGGG 210200Z AUTO 23006KT 1SM 28/26 A2965 RMK T02800260 IEM_DS3505
ZGGG,2001-05-21 03:00,ZGGG 210300Z AUTO 20002KT 5SM 30/26 A2962 RMK SLP042 T02950260 54000 IEM_DS3505
ZGGG,2001-05-21 04:00,ZGGG 210400Z AUTO 23004KT 11SM RMK IEM_DS3505
ZGGG,2001-05-21 05:00,ZGGG 210500Z AUTO 01012KT 6SM 28/24 A2962 RMK T02800240 IEM_DS3505
ZGGG,2001-05-21 06:00,ZGGG 210600Z AUTO 04002KT 2 1/2SM 26/24 A2959 RMK 60031 SLP030 T02550241 57013 IEM_DS3505
ZGGG,2001-05-21 07:00,ZGGG 210700Z AUTO 15002KT 2SM 26/25 A2959 RMK T02600250 IEM_DS3505
ZGGG,2001-05-21 08:00,ZGGG 210800Z AUTO 05004KT 6SM 27/25 A2956 RMK T02700250 IEM_DS3505
ZGGG,2001-05-21 09:00,ZGGG 210900Z AUTO 22004KT 6SM 26/24 A2959 RMK SLP032 T02580241 52002 IEM_DS3505
ZGGG,2001-05-21 10:00,ZGGG 211000Z AUTO 16006KT 6SM 26/25 A2959 RMK T02600250 IEM_DS3505
ZGGG,2001-05-21 11:00,ZGGG 211100Z AUTO 26002KT 6SM 25/25 A2959 RMK T02500250 IEM_DS3505
ZGGG,2001-05-21 12:00,ZGGG 211200Z AUTO 00000KT 1 1/2SM 25/24 RMK 60039 SLP037 T02460240 52005 IEM_DS3505
ZGGG,2001-05-21 13:00,ZGGG 211300Z AUTO 17006KT 7SM RMK IEM_DS3505
ZGGG,2001-05-21 14:00,ZGGG 211400Z AUTO 16006KT 6SM 24/23 A2965 RMK T02400230 IEM_DS3505
ZGGG,2001-05-21 15:00,ZGGG 211500Z AUTO 00000KT 8SM 24/23 A2965 RMK SLP052 T02410229 52015 IEM_DS3505
ZGGG,2001-05-21 16:00,ZGGG 211600Z AUTO 15002KT 6SM 25/24 A2965 RMK T02500240 IEM_DS3505
ZGGG,2001-05-21 17:00,ZGGG 211700Z AUTO 05002KT 6SM 24/23 A2962 RMK T02400230 IEM_DS3505
ZGGG,2001-05-21 18:00,ZGGG 211800Z AUTO 00000KT 7SM 24/23 A2962 RMK 60002 SLP036 T02400231 57016 IEM_DS3505
ZGGG,2001-05-21 19:00,ZGGG 211900Z AUTO 22002KT 6SM 24/24 A2959 RMK T02400240 IEM_DS3505
ZGGG,2001-05-21 20:00,ZGGG 212000Z AUTO 05002KT RMK IEM_DS3505
ZGGG,2001-05-21 21:00,ZGGG 212100Z AUTO 02002KT 6SM 24/23 A2959 RMK 70074 SLP031 T02420233 57005 IEM_DS3505
ZGGG,2001-05-21 22:00,ZGGG 212200Z AUTO 6SM 24/24 A2962 RMK T02400240 IEM_DS3505
ZGGG,2001-05-21 23:00,ZGGG 212300Z AUTO 6SM 24/24 A2962 RMK T02400240 IEM_DS3505
ZGGG,2001-05-22 00:00,ZGGG 220000Z AUTO 00000KT 4SM 25/24 A2965 RMK 60002 SLP043 T02540240 52012 IEM_DS3505
ZGGG,2001-05-22 01:00,ZGGG 220100Z AUTO 35002KT 6SM 26/24 A2965 RMK T02600240 IEM_DS3505
ZGGG,2001-05-22 02:00,ZGGG 220200Z AUTO 7SM 27/24 A2965 RMK T02700240 IEM_DS3505
ZGGG,2001-05-22 03:00,ZGGG 220300Z AUTO 25002KT 7SM 29/24 A2965 RMK SLP048 T02880242 52005 IEM_DS3505
ZGGG,2001-05-22 04:00,ZGGG 220400Z AUTO 24004KT 6SM 27/26 A2965 RMK T02700260 IEM_DS3505
ZGGG,2001-05-22 05:00,ZGGG 220500Z AUTO 28004KT 6SM 29/25 A2962 RMK T02900250 IEM_DS3505
ZGGG,2001-05-22 06:00,ZGGG 220600Z AUTO 32002KT 9SM 31/25 RMK 60008 SLP031 T03070248 57016 IEM_DS3505
ZGGG,2001-05-22 07:00,ZGGG 220700Z AUTO 26004KT 6SM RMK IEM_DS3505
ZGGG,2001-05-22 08:00,ZGGG 220800Z AUTO 26002KT 31/23 A2956 RMK T03100230 IEM_DS3505
ZGGG,2001-05-22 09:00,ZGGG 220900Z AUTO 18002KT 10SM 32/24 A2956 RMK SLP019 T03210240 57012 IEM_DS3505
ZGGG,2001-05-22 10:00,ZGGG 221000Z AUTO 25002KT 6SM 32/23 A2956 RMK T03200230 IEM_DS3505
ZGGG,2001-05-22 11:00,ZGGG 221100Z AUTO 29002KT 6SM 31/24 A2959 RMK T03100240 IEM_DS3505
ZGGG,2001-05-22 12:00,ZGGG 221200Z AUTO 16002KT 9SM 29/25 A2959 RMK SLP032 T02870250 52013 IEM_DS3505
ZGGG,2001-05-22 13:00,ZGGG 221300Z AUTO 17006KT 6SM 28/25 A2962 RMK T02800250 IEM_DS3505
ZGGG,2001-05-22 14:00,ZGGG 221400Z AUTO 16004KT 6SM RMK IEM_DS3505
ZGGG,2001-05-22 15:00,ZGGG 221500Z AUTO 11004KT 8SM 27/25 RMK SLP057 T02690248 52025 IEM_DS3505
ZGGG,2001-05-22 16:00,ZGGG 221600Z AUTO 16002KT 16SM 27/25 A2968 RMK T02700250 IEM_DS3505
ZGGG,2001-05-22 17:00,ZGGG 221700Z AUTO 6SM 26/24 A2965 RMK T02600240 IEM_DS3505
ZGGG,2001-05-22 18:00,ZGGG 221800Z AUTO 04002KT 7SM 26/24 A2965 RMK SLP048 T02580245 57009 IEM_DS3505
ZGGG,2001-05-22 19:00,ZGGG 221900Z AUTO 6SM 26/25 A2965 RMK T02600250 IEM_DS3505
ZGGG,2001-05-22 20:00,ZGGG 222000Z AUTO 26/25 A2965 RMK T02600250 IEM_DS3505
ZGGG,2001-05-22 21:00,ZGGG 222100Z AUTO 00000KT 6SM 25/24 A2965 RMK 70006 SLP046 T02500241 57002 IEM_DS3505
ZGGG,2001-05-22 22:00,ZGGG 222200Z AUTO 6SM 25/24 A2965 RMK T02500240 IEM_DS3505
ZGGG,2001-05-22 23:00,ZGGG 222300Z AUTO 26/25 A2965 RMK T02600250 IEM_DS3505
ZGGG,2001-05-23 00:00,ZGGG 230000Z AUTO 00000KT 5SM 27/25 A2968 RMK 70006 SLP056 T02680247 52010 IEM_DS3505
ZGGG,2001-05-23 02:00,ZGGG 230200Z AUTO 14004KT 6SM 29/25 A2968 RMK T02900250 IEM_DS3505
ZGGG,2001-05-23 03:00,ZGGG 230300Z AUTO 22002KT 8SM 31/25 RMK SLP058 T03110249 52002 IEM_DS3505
ZGGG,2001-05-23 04:00,ZGGG 230400Z AUTO 10004KT 6SM RMK IEM_DS3505
ZGGG,2001-05-23 05:00,ZGGG 230500Z AUTO 11004KT 33/23 A2962 RMK T03300230 IEM_DS3505
ZGGG,2001-05-23 06:00,ZGGG 230600Z AUTO 11006KT 10SM 33/22 RMK SLP035 T03310219 57023 IEM_DS3505
ZGGG,2001-05-23 07:00,ZGGG 230700Z AUTO 10006KT 6SM 34/23 A2959 RMK T03400230 IEM_DS3505
ZGGG,2001-05-23 08:00,ZGGG 230800Z AUTO 13006KT 6SM 34/22 A2959 RMK T03400220 IEM_DS3505
ZGGG,2001-05-23 09:00,ZGGG 230900Z AUTO 16006KT 9SM 33/22 A2956 RMK SLP022 T03290215 57013 IEM_DS3505
ZGGG,2001-05-23 10:00,ZGGG 231000Z AUTO 17008KT 12SM 32/25 A2956 RMK T03200250 IEM_DS3505
ZGGG,2001-05-23 12:00,ZGGG 231200Z AUTO 14008KT 7SM 28/24 A2962 RMK SLP042 T02850244 52020 IEM_DS3505
ZGGG,2001-05-23 13:00,ZGGG 231300Z AUTO 18010KT 6SM 28/23 A2965 RMK T02800230 IEM_DS3505
ZGGG,2001-05-23 14:00,ZGGG 231400Z AUTO 17008KT 27/23 A2968 RMK T02700230 IEM_DS3505
ZGGG,2001-05-23 15:00,ZGGG 231500Z AUTO 16004KT 5SM 27/24 A2968 RMK SLP059 T02700238 52017 IEM_DS3505
ZGGG,2001-05-23 18:00,ZGGG 231800Z AUTO 09004KT 4SM 26/24 RMK SLP056 T02570238 57003 IEM_DS3505
ZGGG,2001-05-23 21:00,ZGGG 232100Z AUTO 09002KT 4SM 25/23 RMK SLP055 T02490232 57001 IEM_DS3505
ZGGG,2001-05-24 00:00,ZGGG 240000Z AUTO 11004KT 5SM 27/24 RMK SLP063 T02690239 52008 IEM_DS3505
ZGGG,2001-05-24 03:00,ZGGG 240300Z AUTO 18004KT 7SM 31/23 A2968 RMK SLP061 T03080233 57002 IEM_DS3505
ZGGG,2001-05-24 04:00,ZGGG 240400Z AUTO 6SM 32/23 A2965 RMK T03200230 IEM_DS3505
ZGGG,2001-05-24 05:00,ZGGG 240500Z AUTO 09004KT 6SM RMK IEM_DS3505
ZGGG,2001-05-24 06:00,ZGGG 240600Z AUTO 20004KT 8SM 33/22 A2962 RMK SLP039 T03260215 57022 IEM_DS3505
ZGGG,2001-05-24 07:00,ZGGG 240700Z AUTO 17006KT 6SM 33/21 A2959 RMK T03300210 IEM_DS3505
ZGGG,2001-05-24 08:00,ZGGG 240800Z AUTO 11006KT 33/22 A2959 RMK T03300220 IEM_DS3505
ZGGG,2001-05-24 09:00,ZGGG 240900Z AUTO 14006KT 7SM 33/23 A2959 RMK SLP029 T03270228 57010 IEM_DS3505
ZGGG,2001-05-24 10:00,ZGGG 241000Z AUTO 17008KT 6SM 32/23 A2962 RMK T03200230 IEM_DS3505
ZGGG,2001-05-24 11:00,ZGGG 241100Z AUTO 19008KT 19SM 31/24 A2962 RMK T03100240 IEM_DS3505
ZGGG,2001-05-24 12:00,ZGGG 241200Z AUTO 11006KT 6SM 29/24 A2962 RMK SLP043 T02930245 52014 IEM_DS3505
ZGGG,2001-05-24 13:00,ZGGG 241300Z AUTO 16006KT 6SM 28/25 A2965 RMK T02800250 IEM_DS3505
ZGGG,2001-05-24 14:00,ZGGG 241400Z AUTO 18006KT 1SM 28/24 A2968 RMK T02800240 IEM_DS3505
ZGGG,2001-05-24 15:00,ZGGG 241500Z AUTO 20002KT 8SM 27/24 RMK SLP068 T02730236 52025 IEM_DS3505
ZGGG,2001-05-24 16:00,ZGGG 241600Z AUTO 16004KT 27/24 A2968 RMK T02700240 IEM_DS3505
ZGGG,2001-05-24 17:00,ZGGG 241700Z AUTO 14002KT 6SM 27/24 A2968 RMK T02700240 IEM_DS3505
ZGGG,2001-05-24 18:00,ZGGG 241800Z AUTO 00000KT 7SM 26/24 A2968 RMK SLP060 T02610236 57008 IEM_DS3505
ZGGG,2001-05-24 19:00,ZGGG 241900Z AUTO 15002KT 6SM 27/24 A2968 RMK T02700240 IEM_DS3505
ZGGG,2001-05-24 20:00,ZGGG 242000Z AUTO 10004KT 6SM 26/23 A2965 RMK T02600230 IEM_DS3505
ZGGG,2001-05-24 21:00,ZGGG 242100Z AUTO 00000KT 6SM 25/24 A2968 RMK SLP058 T02520235 57002 IEM_DS3505
ZGGG,2001-05-24 22:00,ZGGG 242200Z AUTO 6SM 25/23 A2968 RMK T02500230 IEM_DS3505
ZGGG,2001-05-24 23:00,ZGGG 242300Z AUTO 02002KT 12SM 26/23 A2971 RMK T02600230 IEM_DS3505
ZGGG,2001-05-25 00:00,ZGGG 250000Z AUTO 14006KT 7SM 26/23 A2971 RMK SLP074 T02610230 52015 IEM_DS3505
ZGGG,2001-05-25 01:00,ZGGG 250100Z AUTO 12006KT 6SM 27/23 A2974 RMK T02700230 IEM_DS3505
ZGGG,2001-05-25 02:00,ZGGG 250200Z AUTO 13006KT 6SM 29/23 A2974 RMK T02900230 IEM_DS3505
ZGGG,2001-05-25 03:00,ZGGG 250300Z AUTO 09004KT 7SM 30/23 A2974 RMK SLP074 T02990234 52001 IEM_DS3505
ZGGG,2001-05-25 04:00,ZGGG 250400Z AUTO 12006KT 6SM 31/23 A2971 RMK T03100230 IEM_DS3505
ZGGG,2001-05-25 05:00,ZGGG 250500Z AUTO 13006KT 6SM 31/23 A2971 RMK T03100230 IEM_DS3505
ZGGG,2001-05-25 06:00,ZGGG 250600Z AUTO 09004KT 6SM 32/23 RMK SLP059 T03150227 57015 IEM_DS3505
ZGGG,2001-05-25 07:00,ZGGG 250700Z AUTO 13006KT 6SM 32/24 A2965 RMK T03200240 IEM_DS3505
ZGGG,2001-05-25 08:00,ZGGG 250800Z AUTO 09004KT 6SM 33/23 A2965 RMK T03300230 IEM_DS3505
ZGGG,2001-05-25 09:00,ZGGG 250900Z AUTO 18006KT 7SM 31/23 A2965 RMK SLP049 T03140234 57010 IEM_DS3505
ZGGG,2001-05-25 10:00,ZGGG 251000Z AUTO 15008KT 6SM 31/23 A2965 RMK T03100230 IEM_DS3505
ZGGG,2001-05-25 11:00,ZGGG 251100Z AUTO 18008KT 6SM 30/23 A2968 RMK T03000230 IEM_DS3505
ZGGG,2001-05-25 12:00,ZGGG 251200Z AUTO 20002KT 7SM 29/23 A2971 RMK SLP071 T02870227 52021 IEM_DS3505
ZGGG,2001-05-25 13:00,ZGGG 251300Z AUTO 17006KT 6SM 29/23 A2974 RMK T02900230 IEM_DS3505
ZGGG,2001-05-25 14:00,ZGGG 251400Z AUTO 15006KT 6SM 28/23 A2977 RMK T02800230 IEM_DS3505
ZGGG,2001-05-25 15:00,ZGGG 251500Z AUTO 14004KT 9SM 28/22 A2977 RMK SLP090 T02770223 52020 IEM_DS3505
ZGGG,2001-05-25 16:00,ZGGG 251600Z AUTO 14004KT 6SM 27/22 A2977 RMK T02700220 IEM_DS3505
ZGGG,2001-05-25 17:00,ZGGG 251700Z AUTO 10004KT 6SM 27/23 A2974 RMK T02700230 IEM_DS3505
ZGGG,2001-05-25 18:00,ZGGG 251800Z AUTO 00000KT 7SM 26/23 A2974 RMK SLP081 T02580229 57009 IEM_DS3505
ZGGG,2001-05-25 19:00,ZGGG 251900Z AUTO 6SM 26/23 A2974 RMK T02600230 IEM_DS3505
ZGGG,2001-05-25 20:00,ZGGG 252000Z AUTO 04002KT 6SM 25/23 A2974 RMK T02500230 IEM_DS3505
ZGGG,2001-05-25 21:00,ZGGG 252100Z AUTO 09004KT 7SM 25/23 A2977 RMK SLP085 T02520229 52004 IEM_DS3505
ZGGG,2001-05-25 22:00,ZGGG 252200Z AUTO 36004KT 6SM 25/23 A2977 RMK T02500230 IEM_DS3505
ZGGG,2001-05-25 23:00,ZGGG 252300Z AUTO 02004KT 6SM 26/23 A2977 RMK T02600230 IEM_DS3505
ZGGG,2001-05-26 00:00,ZGGG 260000Z AUTO 09004KT 8SM 27/23 A2980 RMK SLP094 T02700231 52008 IEM_DS3505
ZGGG,2001-05-26 01:00,ZGGG 260100Z AUTO 08004KT 6SM 28/23 A2980 RMK T02800230 IEM_DS3505
ZGGG,2001-05-26 02:00,ZGGG 260200Z AUTO 12006KT 6SM 30/23 A2980 RMK T03000230 IEM_DS3505
ZGGG,2001-05-26 03:00,ZGGG 260300Z AUTO 14006KT 11SM 31/22 RMK SLP097 T03100223 52004 IEM_DS3505
ZGGG,2001-05-26 04:00,ZGGG 260400Z AUTO 06004KT RMK IEM_DS3505
ZGGG,2001-05-26 05:00,ZGGG 260500Z AUTO 23004KT 6SM RMK IEM_DS3505
ZGGG,2001-05-26 06:00,ZGGG 260600Z AUTO 14004KT 9SM 32/22 RMK SLP078 T03240219 57019 IEM_DS3505
ZGGG,2001-05-26 07:00,ZGGG 260700Z AUTO 12006KT 6SM RMK IEM_DS3505
ZGGG,2001-05-26 08:00,ZGGG 260800Z AUTO 12006KT 6SM RMK IEM_DS3505
ZGGG,2001-05-26 09:00,ZGGG 260900Z AUTO 09006KT 9SM 33/22 A2971 RMK SLP067 T03270221 57011 IEM_DS3505
ZGGG,2001-05-26 10:00,ZGGG 261000Z AUTO 10006KT 6SM 32/22 A2971 RMK T03200220 IEM_DS3505
ZGGG,2001-05-26 11:00,ZGGG 261100Z AUTO 15006KT 6SM 31/23 A2974 RMK T03100230 IEM_DS3505
ZGGG,2001-05-26 12:00,ZGGG 261200Z AUTO 14004KT 9SM 29/22 A2977 RMK SLP090 T02940221 52022 IEM_DS3505
ZGGG,2001-05-26 13:00,ZGGG 261300Z AUTO 17008KT 6SM 29/22 A2980 RMK T02900220 IEM_DS3505
ZGGG,2001-05-26 14:00,ZGGG 261400Z AUTO 16008KT 6SM 29/21 A2983 RMK T02900210 IEM_DS3505
ZGGG,2001-05-26 15:00,ZGGG 261500Z AUTO 16002KT 9SM 28/22 A2983 RMK SLP109 T02780225 IEM_DS3505
ZGGG,2001-05-26 16:00,ZGGG 261600Z AUTO 16004KT 6SM 28/23 A2983 RMK T02800230 IEM_DS3505
ZGGG,2001-05-26 17:00,ZGGG 261700Z AUTO 6SM 27/23 A2980 RMK T02700230 IEM_DS3505
ZGGG,2001-05-26 18:00,ZGGG 261800Z AUTO 00000KT 7SM 26/24 A2977 RMK SLP092 T02640237 57017 IEM_DS3505
ZGGG,2001-05-26 19:00,ZGGG 261900Z AUTO 08002KT 6SM 26/23 A2977 RMK T02600230 IEM_DS3505
ZGGG,2001-05-26 20:00,ZGGG 262000Z AUTO 13002KT 6SM 26/23 A2977 RMK T02600230 IEM_DS3505
ZGGG,2001-05-26 21:00,ZGGG 262100Z AUTO 00000KT 6SM 26/23 A2977 RMK SLP092 T02550233 54000 IEM_DS3505
ZGGG,2001-05-26 22:00,ZGGG 262200Z AUTO 08002KT 6SM 24/23 A2980 RMK T02400230 IEM_DS3505
ZGGG,2001-05-26 23:00,ZGGG 262300Z AUTO 31SM 26/23 A2980 RMK T02600230 IEM_DS3505
ZGGG,2001-05-27 00:00,ZGGG 270000Z AUTO 00000KT 8SM 27/22 A2980 RMK SLP099 T02720222 52006 IEM_DS3505
ZGGG,2001-05-27 01:00,ZGGG 270100Z AUTO 6SM 29/22 A2980 RMK T02900220 IEM_DS3505
ZGGG,2001-05-27 02:00,ZGGG 270200Z AUTO 14002KT 6SM 29/21 A2980 RMK T02900210 IEM_DS3505
ZGGG,2001-05-27 03:00,ZGGG 270300Z AUTO 27002KT 7SM 31/21 RMK SLP098 T03090210 54000 IEM_DS3505
ZGGG,2001-05-27 04:00,ZGGG 270400Z AUTO 01004KT 6SM 31/23 A2980 RMK T03100230 IEM_DS3505
ZGGG,2001-05-27 05:00,ZGGG 270500Z AUTO 12004KT 6SM 32/23 A2977 RMK T03200230 IEM_DS3505
ZGGG,2001-05-27 06:00,ZGGG 270600Z AUTO 18004KT 9SM 32/21 RMK SLP077 T03240214 57021 IEM_DS3505
ZGGG,2001-05-27 07:00,ZGGG 270700Z AUTO 12004KT 6SM RMK IEM_DS3505
ZGGG,2001-05-27 08:00,ZGGG 270800Z AUTO 11004KT 6SM 33/21 A2968 RMK T03300210 IEM_DS3505
ZGGG,2001-05-27 09:00,ZGGG 270900Z AUTO 07004KT 9SM 33/20 A2968 RMK SLP057 T03340197 57020 IEM_DS3505
ZGGG,2001-05-27 10:00,ZGGG 271000Z AUTO 03010KT RMK IEM_DS3505
ZGGG,2001-05-27 11:00,ZGGG 271100Z AUTO 06006KT 6SM 30/23 A2971 RMK T03000230 IEM_DS3505
ZGGG,2001-05-27 12:00,ZGGG 271200Z AUTO 00000KT 8SM 30/23 A2971 RMK SLP074 T03030231 52017 IEM_DS3505
ZGGG,2001-05-27 13:00,ZGGG 271300Z AUTO 10004KT 6SM 29/23 A2974 RMK T02900230 IEM_DS3505
ZGGG,2001-05-27 14:00,ZGGG 271400Z AUTO 16006KT 6SM 31/20 A2977 RMK T03100200 IEM_DS3505
ZGGG,2001-05-27 15:00,ZGGG 271500Z AUTO 11004KT 7SM 29/22 A2977 RMK SLP088 T02860222 52014 IEM_DS3505
ZGGG,2001-05-27 16:00,ZGGG 271600Z AUTO 15004KT 6SM 29/23 A2977 RMK T02900230 IEM_DS3505
ZGGG,2001-05-27 17:00,ZGGG 271700Z AUTO 15004KT 6SM 28/20 A2977 RMK T02800200 IEM_DS3505
ZGGG,2001-05-27 18:00,ZGGG 271800Z AUTO 00000KT 7SM 27/22 A2974 RMK SLP083 T02670215 57005 IEM_DS3505
ZGGG,2001-05-27 19:00,ZGGG 271900Z AUTO 07002KT 6SM 26/22 A2974 RMK T02600220 IEM_DS3505
ZGGG,2001-05-27 20:00,ZGGG 272000Z AUTO 6SM 26/22 A2974 RMK T02600220 IEM_DS3505
ZGGG,2001-05-27 21:00,ZGGG 272100Z AUTO 07004KT 7SM 26/22 A2974 RMK SLP079 T02620225 57004 IEM_DS3505
ZGGG,2001-05-27 22:00,ZGGG 272200Z AUTO 04006KT 6SM 26/23 A2974 RMK T02600230 IEM_DS3505
ZGGG,2001-05-27 23:00,ZGGG 272300Z AUTO 04006KT 6SM 26/23 A2977 RMK T02600230 IEM_DS3505
ZGGG,2001-05-28 00:00,ZGGG 280000Z AUTO 36004KT 7SM 27/23 A2977 RMK SLP087 T02700231 52008 IEM_DS3505
ZGGG,2001-05-28 01:00,ZGGG 280100Z AUTO 02006KT 6SM 28/23 A2977 RMK T02800230 IEM_DS3505
ZGGG,2001-05-28 02:00,ZGGG 280200Z AUTO 02006KT 6SM 28/23 A2974 RMK T02800230 IEM_DS3505
ZGGG,2001-05-28 03:00,ZGGG 280300Z AUTO 36004KT 9SM 30/23 A2974 RMK SLP078 T03000232 57009 IEM_DS3505
ZGGG,2001-05-28 04:00,ZGGG 280400Z AUTO 03006KT 6SM 30/23 A2971 RMK T03000230 IEM_DS3505
ZGGG,2001-05-28 05:00,ZGGG 280500Z AUTO 03008KT 6SM 31/24 A2968 RMK T03100240 IEM_DS3505
ZGGG,2001-05-28 06:00,ZGGG 280600Z AUTO 36006KT 9SM 32/24 A2968 RMK SLP058 T03200238 57020 IEM_DS3505
ZGGG,2001-05-28 07:00,ZGGG 280700Z AUTO 04010KT 6SM 31/23 A2965 RMK T03100230 IEM_DS3505
ZGGG,2001-05-28 08:00,ZGGG 280800Z AUTO 03010KT 31/23 A2962 RMK T03100230 IEM_DS3505
ZGGG,2001-05-28 09:00,ZGGG 280900Z AUTO 02004KT 9SM 30/23 RMK SLP043 T03040231 57015 IEM_DS3505
ZGGG,2001-05-28 10:00,ZGGG 281000Z AUTO 16012KT 28/24 A2965 RMK T02800240 IEM_DS3505
ZGGG,2001-05-28 12:00,ZGGG 281200Z AUTO 00000KT 1 1/4SM 26/24 A2971 RMK 60138 SLP066 T02550245 52022 IEM_DS3505
ZGGG,2001-05-28 13:00,ZGGG 281300Z AUTO 16004KT 6SM 25/25 A2971 RMK T02500250 IEM_DS3505
ZGGG,2001-05-28 14:00,ZGGG 281400Z AUTO 10002KT 12SM 25/24 A2974 RMK T02500240 IEM_DS3505
ZGGG,2001-05-28 15:00,ZGGG 281500Z AUTO 34004KT 2SM 25/24 A2974 RMK SLP080 T02540244 52014 IEM_DS3505
ZGGG,2001-05-28 16:00,ZGGG 281600Z AUTO 02004KT 25/24 A2974 RMK T02500240 IEM_DS3505
ZGGG,2001-05-28 17:00,ZGGG 281700Z AUTO 05006KT 24/24 A2971 RMK T02400240 IEM_DS3505
ZGGG,2001-05-28 18:00,ZGGG 281800Z AUTO 34006KT 1 1/2SM 25/24 A2971 RMK 60035 SLP066 T02460236 57013 IEM_DS3505
ZGGG,2001-05-28 19:00,ZGGG 281900Z AUTO 05006KT 6SM 24/24 A2968 RMK T02400240 IEM_DS3505
ZGGG,2001-05-28 20:00,ZGGG 282000Z AUTO 04006KT 6SM 24/24 A2968 RMK T02400240 IEM_DS3505
ZGGG,2001-05-28 21:00,ZGGG 282100Z AUTO 00000KT 3SM 25/24 A2968 RMK 70174 SLP055 T02470237 57011 IEM_DS3505
ZGGG,2001-05-28 22:00,ZGGG 282200Z AUTO 02002KT 6SM 24/24 A2968 RMK T02400240 IEM_DS3505
ZGGG,2001-05-28 23:00,ZGGG 282300Z AUTO 03004KT 6SM 25/24 A2971 RMK T02500240 IEM_DS3505
ZGGG,2001-05-29 00:00,ZGGG 290000Z AUTO 09004KT 4SM 26/24 A2971 RMK 60003 SLP067 T02630243 52011 IEM_DS3505
ZGGG,2001-05-29 01:00,ZGGG 290100Z AUTO 05004KT 6SM 26/24 A2971 RMK T02600240 IEM_DS3505
ZGGG,2001-05-29 02:00,ZGGG 290200Z AUTO 04002KT 1/8SM 27/24 A2971 RMK T02700240 IEM_DS3505
ZGGG,2001-05-29 03:00,ZGGG 290300Z AUTO 09004KT 6SM 29/24 A2968 RMK SLP063 T02880236 57004 IEM_DS3505
ZGGG,2001-05-29 04:00,ZGGG 290400Z AUTO 7SM 29/23 A2968 RMK T02900230 IEM_DS3505
ZGGG,2001-05-29 05:00,ZGGG 290500Z AUTO 33004KT 28/24 A2965 RMK T02800240 IEM_DS3505
ZGGG,2001-05-29 06:00,ZGGG 290600Z AUTO 27002KT 8SM 30/23 A2965 RMK SLP047 T03020228 57015 IEM_DS3505
ZGGG,2001-05-29 07:00,ZGGG 290700Z AUTO 02004KT 6SM 28/25 A2962 RMK T02800250 IEM_DS3505
ZGGG,2001-05-29 08:00,ZGGG 290800Z AUTO 04006KT 6SM 28/24 A2962 RMK T02800240 IEM_DS3505
ZGGG,2001-05-29 09:00,ZGGG 290900Z AUTO 34006KT 7SM 28/24 A2959 RMK SLP033 T02780245 57015 IEM_DS3505
ZGGG,2001-05-29 10:00,ZGGG 291000Z AUTO 36002KT 6SM 28/24 A2962 RMK T02800240 IEM_DS3505
ZGGG,2001-05-29 11:00,ZGGG 291100Z AUTO 17004KT 6SM 25/25 A2965 RMK T02500250 IEM_DS3505
ZGGG,2001-05-29 12:00,ZGGG 291200Z AUTO 00000KT 5SM 25/24 A2968 RMK 60091 SLP056 T02510239 52023 IEM_DS3505
ZGGG,2001-05-29 13:00,ZGGG 291300Z AUTO 34004KT 6SM 25/24 A2968 RMK T02500240 IEM_DS3505
ZGGG,2001-05-29 14:00,ZGGG 291400Z AUTO 35002KT 6SM 24/24 A2968 RMK T02400240 IEM_DS3505
ZGGG,2001-05-29 15:00,ZGGG 291500Z AUTO 34004KT 4SM 25/24 A2968 RMK SLP064 T02480238 52008 IEM_DS3505
ZGGG,2001-05-29 16:00,ZGGG 291600Z AUTO 35002KT 6SM 25/25 A2968 RMK T02500250 IEM_DS3505
ZGGG,2001-05-29 17:00,ZGGG 291700Z AUTO 08002KT 25/25 A2968 RMK T02500250 IEM_DS3505
ZGGG,2001-05-29 18:00,ZGGG 291800Z AUTO 00000KT 3SM 25/24 A2965 RMK 60020 SLP050 T02500241 57013 IEM_DS3505
ZGGG,2001-05-29 19:00,ZGGG 291900Z AUTO 6SM 25/25 A2965 RMK T02500250 IEM_DS3505
ZGGG,2001-05-29 20:00,ZGGG 292000Z AUTO 32002KT 6SM 25/24 A2965 RMK T02500240 IEM_DS3505
ZGGG,2001-05-29 21:00,ZGGG 292100Z AUTO 00000KT 4SM 25/24 A2965 RMK 70111 SLP047 T02510242 57004 IEM_DS3505
ZGGG,2001-05-29 22:00,ZGGG 292200Z AUTO 35002KT 6SM 25/25 A2965 RMK T02500250 IEM_DS3505
ZGGG,2001-05-29 23:00,ZGGG 292300Z AUTO 35004KT 6SM 25/24 A2968 RMK T02500240 IEM_DS3505
ZGGG,2001-05-30 00:00,ZGGG 300000Z AUTO 00000KT 2 1/2SM 25/24 A2968 RMK 60002 SLP062 T02540243 52015 IEM_DS3505
ZGGG,2001-05-30 01:00,ZGGG 300100Z AUTO 02008KT 6SM 26/24 A2971 RMK T02600240 IEM_DS3505
ZGGG,2001-05-30 02:00,ZGGG 300200Z AUTO 01008KT 24/23 A2974 RMK T02400230 IEM_DS3505
ZGGG,2001-05-30 03:00,ZGGG 300300Z AUTO 02006KT 5SM 24/23 A2974 RMK SLP073 T02450232 52011 IEM_DS3505
ZGGG,2001-05-30 04:00,ZGGG 300400Z AUTO 02008KT 6SM RMK IEM_DS3505
ZGGG,2001-05-30 05:00,ZGGG 300500Z AUTO 36008KT 6SM RMK IEM_DS3505
ZGGG,2001-05-30 06:00,ZGGG 300600Z AUTO 36004KT 7SM 26/22 RMK 60002 SLP066 T02620221 57007 IEM_DS3505
ZGGG,2001-05-30 07:00,ZGGG 300700Z AUTO 02004KT 6SM 27/22 A2968 RMK T02700220 IEM_DS3505
ZGGG,2001-05-30 08:00,ZGGG 300800Z AUTO 03006KT 6SM 28/21 A2968 RMK T02800210 IEM_DS3505
ZGGG,2001-05-30 09:00,ZGGG 300900Z AUTO 16004KT 9SM 28/22 A2968 RMK SLP061 T02820222 57005 IEM_DS3505
ZGGG,2001-05-30 10:00,ZGGG 301000Z AUTO 14004KT 28/23 A2971 RMK T02800230 IEM_DS3505
ZGGG,2001-05-30 11:00,ZGGG 301100Z AUTO 15006KT 6SM 27/23 A2971 RMK T02700230 IEM_DS3505
ZGGG,2001-05-30 12:00,ZGGG 301200Z AUTO 14002KT 6SM 26/23 A2974 RMK SLP078 T02630233 52017 IEM_DS3505
ZGGG,2001-05-30 13:00,ZGGG 301300Z AUTO 16004KT 6SM 26/23 A2977 RMK T02600230 IEM_DS3505
ZGGG,2001-05-30 14:00,ZGGG 301400Z AUTO 14002KT 6SM 26/23 A2977 RMK T02600230 IEM_DS3505
ZGGG,2001-05-30 15:00,ZGGG 301500Z AUTO 00000KT 3SM 25/23 A2977 RMK SLP089 T02500233 52011 IEM_DS3505
ZGGG,2001-05-30 16:00,ZGGG 301600Z AUTO 16SM 24/24 A2977 RMK T02400240 IEM_DS3505
ZGGG,2001-05-30 18:00,ZGGG 301800Z AUTO 00000KT 1 1/2SM 24/23 A2977 RMK SLP087 T02430230 57002 IEM_DS3505
ZGGG,2001-05-30 19:00,ZGGG 301900Z AUTO 6SM 24/23 A2977 RMK T02400230 IEM_DS3505
ZGGG,2001-05-30 20:00,ZGGG 302000Z AUTO 24/24 A2977 RMK T02400240 IEM_DS3505
ZGGG,2001-05-30 21:00,ZGGG 302100Z AUTO 34002KT 7SM 24/23 A2977 RMK 70004 SLP090 T02400227 52003 IEM_DS3505
ZGGG,2001-05-30 22:00,ZGGG 302200Z AUTO 04006KT 6SM 24/22 A2980 RMK T02400220 IEM_DS3505
ZGGG,2001-05-30 23:00,ZGGG 302300Z AUTO 04006KT 6SM 24/21 A2980 RMK T02400210 IEM_DS3505
ZGGG,2001-05-31 00:00,ZGGG 310000Z AUTO 36004KT 11SM 26/21 A2983 RMK 70002 SLP106 T02560214 52016 IEM_DS3505
ZGGG,2001-05-31 01:00,ZGGG 310100Z AUTO 03008KT 6SM 26/20 A2983 RMK T02600200 IEM_DS3505
ZGGG,2001-05-31 02:00,ZGGG 310200Z AUTO 04006KT 6SM 27/21 A2985 RMK T02700210 IEM_DS3505
ZGGG,2001-05-31 03:00,ZGGG 310300Z AUTO 32002KT 11SM 28/20 A2983 RMK SLP114 T02820205 52008 IEM_DS3505
ZGGG,2001-05-31 04:00,ZGGG 310400Z AUTO 03006KT 6SM 29/21 A2983 RMK T02900210 IEM_DS3505
ZGGG,2001-05-31 05:00,ZGGG 310500Z AUTO 01008KT 6SM 30/20 A2980 RMK T03000200 IEM_DS3505
ZGGG,2001-05-31 06:00,ZGGG 310600Z AUTO 18004KT 11SM 31/21 A2980 RMK SLP094 T03060210 57020 IEM_DS3505
ZGGG,2001-05-31 07:00,ZGGG 310700Z AUTO 02006KT 6SM 31/20 A2977 RMK T03100200 IEM_DS3505
ZGGG,2001-05-31 08:00,ZGGG 310800Z AUTO 05004KT 6SM RMK IEM_DS3505
ZGGG,2001-05-31 09:00,ZGGG 310900Z AUTO 00000KT 11SM 30/22 RMK SLP086 T03010221 57008 IEM_DS3505
ZGGG,2001-05-31 10:00,ZGGG 311000Z AUTO 08004KT 6SM RMK IEM_DS3505
ZGGG,2001-05-31 11:00,ZGGG 311100Z AUTO 09004KT 6SM 29/21 A2980 RMK T02900210 IEM_DS3505
ZGGG,2001-05-31 12:00,ZGGG 311200Z AUTO 00000KT 10SM 28/22 A2983 RMK 60003 SLP104 T02820222 52018 IEM_DS3505
ZGGG,2001-05-31 13:00,ZGGG 311300Z AUTO 14002KT 6SM 28/23 A2985 RMK T02800230 IEM_DS3505
ZGGG,2001-05-31 14:00,ZGGG 311400Z AUTO 16004KT 6SM RMK IEM_DS3505
ZGGG,2001-05-31 15:00,ZGGG 311500Z AUTO 11002KT 9SM 27/23 A2988 RMK SLP126 T02700228 52022 IEM_DS3505
ZGGG,2001-05-31 16:00,ZGGG 311600Z AUTO 06004KT 27/23 A2985 RMK T02700230 IEM_DS3505
ZGGG,2001-05-31 17:00,ZGGG 311700Z AUTO 19SM 26/24 A2985 RMK T02600240 IEM_DS3505
ZGGG,2001-05-31 18:00,ZGGG 311800Z AUTO 09002KT 6SM 26/22 A2985 RMK 60003 SLP114 T02590224 57012 IEM_DS3505
ZGGG,2001-05-31 19:00,ZGGG 311900Z AUTO 03002KT 6SM 24/23 A2983 RMK T02400230 IEM_DS3505
ZGGG,2001-05-31 20:00,ZGGG 312000Z AUTO 43SM 24/22 A2983 RMK T02400220 IEM_DS3505
ZGGG,2001-05-31 21:00,ZGGG 312100Z AUTO 09004KT 7SM 25/23 A2983 RMK 70002 SLP112 T02460228 57002 IEM_DS3505
ZGGG,2001-05-31 22:00,ZGGG 312200Z AUTO 02002KT 6SM 24/23 A2985 RMK T02400230 IEM_DS3505
ZGGG,2001-05-31 23:00,ZGGG 312300Z AUTO 02004KT 6SM 24/23 A2988 RMK T02400230 IEM_DS3505
ZGGG,2001-06-01 00:00,ZGGG 010000Z AUTO 11004KT 9SM 25/22 A2988 RMK 60002 SLP127 T02470220 52015 IEM_DS3505
ZGGG,2001-06-01 01:00,ZGGG 010100Z AUTO 06002KT 6SM 25/22 A2991 RMK T02500220 IEM_DS3505
ZGGG,2001-06-01 02:00,ZGGG 010200Z AUTO 08004KT 6SM 26/22 A2991 RMK T02600220 IEM_DS3505
ZGGG,2001-06-01 03:00,ZGGG 010300Z AUTO 14002KT 9SM 26/22 A2991 RMK SLP136 T02620217 52009 IEM_DS3505
ZGGG,2001-06-01 04:00,ZGGG 010400Z AUTO 15004KT 6SM 27/18 A2988 RMK T02700180 IEM_DS3505
ZGGG,2001-06-01 05:00,ZGGG 010500Z AUTO 11002KT 6SM 27/20 A2988 RMK T02700200 IEM_DS3505
ZGGG,2001-06-01 06:00,ZGGG 010600Z AUTO 07004KT 9SM 28/20 A2985 RMK 60003 SLP120 T02800201 57016 IEM_DS3505
ZGGG,2001-06-01 07:00,ZGGG 010700Z AUTO 07006KT 12SM 27/23 A2983 RMK T02700230 IEM_DS3505
ZGGG,2001-06-01 08:00,ZGGG 010800Z AUTO 06006KT 6SM 27/23 A2983 RMK T02700230 IEM_DS3505
ZGGG,2001-06-01 09:00,ZGGG 010900Z AUTO 04002KT 8SM 28/22 A2983 RMK SLP104 T02840216 57016 IEM_DS3505
ZGGG,2001-06-01 10:00,ZGGG 011000Z AUTO 04006KT 6SM 27/22 A2983 RMK T02700220 IEM_DS3505
ZGGG,2001-06-01 11:00,ZGGG 011100Z AUTO 05004KT 6SM 26/22 A2983 RMK T02600220 IEM_DS3505
ZGGG,2001-06-01 12:00,ZGGG 011200Z AUTO 16002KT 7SM 27/22 A2985 RMK SLP116 T02660219 52012 IEM_DS3505
ZGGG,2001-06-01 13:00,ZGGG 011300Z AUTO 18004KT 6SM 27/21 A2985 RMK T02700210 IEM_DS3505
ZGGG,2001-06-01 14:00,ZGGG 011400Z AUTO 16002KT 25SM 27/21 A2988 RMK T02700210 IEM_DS3505
ZGGG,2001-06-01 15:00,ZGGG 011500Z AUTO 00000KT 7SM 26/21 A2991 RMK SLP134 T02570210 52018 IEM_DS3505
ZGGG,2001-06-01 16:00,ZGGG 011600Z AUTO 13004KT 6SM 26/19 A2988 RMK T02600190 IEM_DS3505
ZGGG,2001-06-01 17:00,ZGGG 011700Z AUTO 6SM 26/20 A2988 RMK T02600200 IEM_DS3505
ZGGG,2001-06-01 18:00,ZGGG 011800Z AUTO 07002KT 7SM 25/21 A2985 RMK SLP120 T02480209 57014 IEM_DS3505
ZGGG,2001-06-01 19:00,ZGGG 011900Z AUTO 22SM 24/21 A2985 RMK T02400210 IEM_DS3505
ZGGG,2001-06-01 20:00,ZGGG 012000Z AUTO 6SM 24/21 A2985 RMK T02400210 IEM_DS3505
ZGGG,2001-06-01 21:00,ZGGG 012100Z AUTO 00000KT 5SM 24/21 A2985 RMK 70003 SLP118 T02430210 57002 IEM_DS3505
ZGGG,2001-06-01 22:00,ZGGG 012200Z AUTO 6SM 24/21 A2985 RMK T02400210 IEM_DS3505
ZGGG,2001-06-01 23:00,ZGGG 012300Z AUTO 06002KT 24/21 A2988 RMK T02400210 IEM_DS3505
ZGGG,2001-06-02 00:00,ZGGG 020000Z AUTO 07002KT 6SM 25/21 A2991 RMK 70003 SLP133 T02480206 52015 IEM_DS3505
ZGGG,2001-06-02 01:00,ZGGG 020100Z AUTO 04002KT 26/20 A2991 RMK T02600200 IEM_DS3505
ZGGG,2001-06-02 02:00,ZGGG 020200Z AUTO 06004KT 12SM RMK IEM_DS3505
ZGGG,2001-06-02 04:00,ZGGG 020400Z AUTO 08006KT 6SM 28/21 A2991 RMK T02800210 IEM_DS3505
ZGGG,2001-06-02 05:00,ZGGG 020500Z AUTO 12004KT 6SM 28/21 A2988 RMK T02800210 IEM_DS3505
ZGGG,2001-06-02 06:00,ZGGG 020600Z AUTO 07004KT 7SM 28/20 A2985 RMK SLP120 T02790205 57018 IEM_DS3505
ZGGG,2001-06-02 07:00,ZGGG 020700Z AUTO 08004KT 6SM 27/22 A2985 RMK T02700220 IEM_DS3505
ZGGG,2001-06-02 08:00,ZGGG 020800Z AUTO 02002KT 6SM 26/22 A2983 RMK T02600220 IEM_DS3505
ZGGG,2001-06-02 09:00,ZGGG 020900Z AUTO 14004KT 6SM 26/23 A2983 RMK SLP108 T02580233 57012 IEM_DS3505
ZGGG,2001-06-02 10:00,ZGGG 021000Z AUTO 14004KT 6SM 26/23 A2983 RMK T02600230 IEM_DS3505
ZGGG,2001-06-02 11:00,ZGGG 021100Z AUTO 10006KT 6SM 26/24 A2983 RMK T02600240 IEM_DS3505
ZGGG,2001-06-02 12:00,ZGGG 021200Z AUTO 11002KT 7SM 25/24 RMK 60004 SLP117 T02540235 52009 IEM_DS3505
ZGGG,2001-06-02 13:00,ZGGG 021300Z AUTO 17006KT 6SM 26/24 A2988 RMK T02600240 IEM_DS3505
ZGGG,2001-06-02 14:00,ZGGG 021400Z AUTO 17006KT 6SM 26/24 A2988 RMK T02600240 IEM_DS3505
ZGGG,2001-06-02 15:00,ZGGG 021500Z AUTO 16004KT 6SM 26/24 A2988 RMK SLP131 T02560242 52014 IEM_DS3505
ZGGG,2001-06-02 16:00,ZGGG 021600Z AUTO 17004KT 6SM 26/24 A2988 RMK T02600240 IEM_DS3505
ZGGG,2001-06-02 17:00,ZGGG 021700Z AUTO 16006KT 6SM 26/24 A2988 RMK T02600240 IEM_DS3505
ZGGG,2001-06-02 18:00,ZGGG 021800Z AUTO 09004KT 5SM 25/24 A2985 RMK SLP120 T02520238 57011 IEM_DS3505
ZGGG,2001-06-02 19:00,ZGGG 021900Z AUTO 15006KT 6SM 25/24 A2985 RMK T02500240 IEM_DS3505
ZGGG,2001-06-02 20:00,ZGGG 022000Z AUTO 16006KT 25/24 A2985 RMK T02500240 IEM_DS3505
ZGGG,2001-06-02 21:00,ZGGG 022100Z AUTO 18002KT 5SM 25/24 A2985 RMK 70004 SLP113 T02500237 57007 IEM_DS3505
ZGGG,2001-06-02 22:00,ZGGG 022200Z AUTO 17004KT 6SM 25/24 A2985 RMK T02500240 IEM_DS3505
ZGGG,2001-06-02 23:00,ZGGG 022300Z AUTO 17008KT 26/25 A2985 RMK T02600250 IEM_DS3505
ZGGG,2001-06-03 00:00,ZGGG 030000Z AUTO 14006KT 2 1/2SM 26/24 A2985 RMK 60000 SLP121 T02580244 52008 IEM_DS3505
ZGGG,2001-06-03 01:00,ZGGG 030100Z AUTO 17008KT 27/25 A2988 RMK T02700250 IEM_DS3505
ZGGG,2001-06-03 02:00,ZGGG 030200Z AUTO 16008KT 28/24 A2988 RMK T02800240 IEM_DS3505
ZGGG,2001-06-03 03:00,ZGGG 030300Z AUTO 16006KT 7SM 28/24 RMK SLP123 T02800240 52002 IEM_DS3505
ZGGG,2001-06-03 04:00,ZGGG 030400Z AUTO 20010KT 28/25 A2985 RMK T02800250 IEM_DS3505
ZGGG,2001-06-03 05:00,ZGGG 030500Z AUTO 18008KT 6SM RMK IEM_DS3505
ZGGG,2001-06-03 06:00,ZGGG 030600Z AUTO 16006KT 6SM 28/25 A2983 RMK 60003 SLP109 T02760249 57014 IEM_DS3505
ZGGG,2001-06-03 07:00,ZGGG 030700Z AUTO 20008KT 6SM 26/25 A2983 RMK T02600250 IEM_DS3505
ZGGG,2001-06-03 08:00,ZGGG 030800Z AUTO 20008KT 6SM RMK IEM_DS3505
ZGGG,2001-06-03 09:00,ZGGG 030900Z AUTO 22004KT 7SM 28/24 A2977 RMK SLP089 T02760245 57020 IEM_DS3505
ZGGG,2001-06-03 10:00,ZGGG 031000Z AUTO 17008KT 9SM 27/23 A2977 RMK T02700230 IEM_DS3505
ZGGG,2001-06-03 11:00,ZGGG 031100Z AUTO 17004KT 6SM 27/24 A2977 RMK T02700240 IEM_DS3505
ZGGG,2001-06-03 12:00,ZGGG 031200Z AUTO 14004KT 9SM 26/24 A2980 RMK 60004 SLP095 T02640235 52006 IEM_DS3505
ZGGG,2001-06-03 13:00,ZGGG 031300Z AUTO 18006KT 6SM 26/23 A2980 RMK T02600230 IEM_DS3505
ZGGG,2001-06-03 14:00,ZGGG 031400Z AUTO 19004KT 6SM 26/24 A2983 RMK T02600240 IEM_DS3505
ZGGG,2001-06-03 15:00,ZGGG 031500Z AUTO 00000KT 9SM 26/24 A2983 RMK SLP107 T02590240 52012 IEM_DS3505
ZGGG,2001-06-03 16:00,ZGGG 031600Z AUTO 17004KT 6SM 26/24 A2980 RMK T02600240 IEM_DS3505
ZGGG,2001-06-03 17:00,ZGGG 031700Z AUTO 18004KT 6SM 26/24 A2980 RMK T02600240 IEM_DS3505
ZGGG,2001-06-03 18:00,ZGGG 031800Z AUTO 16002KT 7SM 26/24 A2977 RMK SLP089 T02560240 57018 IEM_DS3505
ZGGG,2001-06-03 19:00,ZGGG 031900Z AUTO 17006KT 26/24 A2974 RMK T02600240 IEM_DS3505
ZGGG,2001-06-03 20:00,ZGGG 032000Z AUTO 17006KT 6SM 26/24 A2974 RMK T02600240 IEM_DS3505
ZGGG,2001-06-03 21:00,ZGGG 032100Z AUTO 14002KT 5SM 26/24 RMK 70008 SLP071 T02550245 57018 IEM_DS3505
ZGGG,2001-06-03 22:00,ZGGG 032200Z AUTO 18004KT 6SM 26/24 A2971 RMK T02600240 IEM_DS3505
ZGGG,2001-06-03 23:00,ZGGG 032300Z AUTO 17004KT 26/25 A2974 RMK T02600250 IEM_DS3505
ZGGG,2001-06-04 00:00,ZGGG 040000Z AUTO 16004KT 4SM 26/25 A2974 RMK 60008 SLP080 T02640250 52009 IEM_DS3505
ZGGG,2001-06-04 01:00,ZGGG 040100Z AUTO 18008KT 35SM RMK IEM_DS3505
ZGGG,2001-06-04 02:00,ZGGG 040200Z AUTO 21012KT 6SM 29/26 A2974 RMK T02900260 IEM_DS3505
ZGGG,2001-06-04 03:00,ZGGG 040300Z AUTO 25006KT 11SM 30/25 A2974 RMK SLP077 T02990247 57003 IEM_DS3505
ZGGG,2001-06-04 04:00,ZGGG 040400Z AUTO 21016KT 31/24 A2971 RMK T03100240 IEM_DS3505
ZGGG,2001-06-04 05:00,ZGGG 040500Z AUTO 23008KT 6SM 30/25 A2968 RMK T03000250 IEM_DS3505
ZGGG,2001-06-04 06:00,ZGGG 040600Z AUTO 27006KT 9SM 30/25 RMK SLP062 T03020248 57014 IEM_DS3505
ZGGG,2001-06-04 07:00,ZGGG 040700Z AUTO 35008KT 6SM RMK IEM_DS3505
ZGGG,2001-06-04 08:00,ZGGG 040800Z AUTO 02004KT 6SM 26/23 A2968 RMK T02600230 IEM_DS3505
ZGGG,2001-06-04 09:00,ZGGG 040900Z AUTO 02002KT 14SM 26/24 A2968 RMK SLP054 T02600235 57009 IEM_DS3505
ZGGG,2001-06-04 10:00,ZGGG 041000Z AUTO 05002KT 25/23 A2968 RMK T02500230 IEM_DS3505
ZGGG,2001-06-04 11:00,ZGGG 041100Z AUTO 09002KT 6SM RMK IEM_DS3505
ZGGG,2001-06-04 12:00,ZGGG 041200Z AUTO 00000KT 10SM 24/24 RMK 60016 SLP063 T02450235 52009 IEM_DS3505
ZGGG,2001-06-04 13:00,ZGGG 041300Z AUTO 6SM 25/23 A2971 RMK T02500230 IEM_DS3505
ZGGG,2001-06-04 14:00,ZGGG 041400Z AUTO 6SM RMK IEM_DS3505
ZGGG,2001-06-04 15:00,ZGGG 041500Z AUTO 00000KT 10SM 24/24 A2971 RMK SLP070 T02440235 52007 IEM_DS3505
ZGGG,2001-06-04 16:00,ZGGG 041600Z AUTO 6SM 25/23 A2971 RMK T02500230 IEM_DS3505
ZGGG,2001-06-04 17:00,ZGGG 041700Z AUTO 6SM 25/23 A2971 RMK T02500230 IEM_DS3505
ZGGG,2001-06-04 18:00,ZGGG 041800Z AUTO 00000KT 9SM 24/24 A2968 RMK SLP060 T02440235 57010 IEM_DS3505
ZGGG,2001-06-04 19:00,ZGGG 041900Z AUTO 6SM 24/24 A2968 RMK T02400240 IEM_DS3505
ZGGG,2001-06-04 20:00,ZGGG 042000Z AUTO 04004KT 24/24 A2968 RMK T02400240 IEM_DS3505
ZGGG,2001-06-04 21:00,ZGGG 042100Z AUTO 00000KT 8SM 24/24 RMK 70024 SLP054 T02450238 57006 IEM_DS3505
ZGGG,2001-06-04 22:00,ZGGG 042200Z AUTO 24/24 A2968 RMK T02400240 IEM_DS3505
ZGGG,2001-06-04 23:00,ZGGG 042300Z AUTO 35002KT 6SM 25/25 A2968 RMK T02500250 IEM_DS3505
ZGGG,2001-06-05 00:00,ZGGG 050000Z AUTO 09002KT 4SM 25/24 A2968 RMK 60002 SLP057 T02480241 52003 IEM_DS3505
ZGGG,2001-06-05 01:00,ZGGG 050100Z AUTO 6SM 24/24 A2971 RMK T02400240 IEM_DS3505
ZGGG,2001-06-05 02:00,ZGGG 050200Z AUTO 01006KT 6SM 24/24 A2974 RMK T02400240 IEM_DS3505
ZGGG,2001-06-05 03:00,ZGGG 050300Z AUTO 34002KT 9SM 24/23 A2974 RMK SLP072 T02400234 52015 IEM_DS3505
ZGGG,2001-06-05 04:00,ZGGG 050400Z AUTO 02010KT 6SM 24/24 A2971 RMK T02400240 IEM_DS3505
ZGGG,2001-06-05 05:00,ZGGG 050500Z AUTO 03006KT 6SM 24/24 A2971 RMK T02400240 IEM_DS3505
ZGGG,2001-06-05 06:00,ZGGG 050600Z AUTO 34002KT 6SM 25/24 A2968 RMK 60110 SLP056 T02510238 57016 IEM_DS3505
ZGGG,2001-06-05 07:00,ZGGG 050700Z AUTO 36004KT 6SM 26/24 A2965 RMK T02600240 IEM_DS3505
ZGGG,2001-06-05 08:00,ZGGG 050800Z AUTO 03004KT 27/24 A2965 RMK T02700240 IEM_DS3505
ZGGG,2001-06-05 09:00,ZGGG 050900Z AUTO 34004KT 10SM 28/24 A2962 RMK SLP042 T02830242 57014 IEM_DS3505
ZGGG,2001-06-05 10:00,ZGGG 051000Z AUTO 17004KT 6SM 28/24 A2965 RMK T02800240 IEM_DS3505
ZGGG,2001-06-05 11:00,ZGGG 051100Z AUTO 13004KT 6SM 27/24 A2965 RMK T02700240 IEM_DS3505
ZGGG,2001-06-05 12:00,ZGGG 051200Z AUTO 14002KT 4SM 26/24 A2965 RMK SLP052 T02640244 52010 IEM_DS3505
ZGGG,2001-06-05 13:00,ZGGG 051300Z AUTO 18002KT 26/24 A2968 RMK T02600240 IEM_DS3505
ZGGG,2001-06-05 14:00,ZGGG 051400Z AUTO 16004KT 6SM 26/25 A2971 RMK T02600250 IEM_DS3505
ZGGG,2001-06-05 15:00,ZGGG 051500Z AUTO 11004KT 5SM 26/24 A2971 RMK SLP067 T02580245 52015 IEM_DS3505
ZGGG,2001-06-05 16:00,ZGGG 051600Z AUTO 6SM 26/24 A2971 RMK T02600240 IEM_DS3505
ZGGG,2001-06-05 17:00,ZGGG 051700Z AUTO 13002KT 6SM 26/25 A2971 RMK T02600250 IEM_DS3505
ZGGG,2001-06-05 18:00,ZGGG 051800Z AUTO 00000KT 3SM 25/24 A2968 RMK 60003 SLP060 T02510241 57007 IEM_DS3505
ZGGG,2001-06-05 19:00,ZGGG 051900Z AUTO 12002KT 6SM 25/24 A2968 RMK T02500240 IEM_DS3505
ZGGG,2001-06-05 20:00,ZGGG 052000Z AUTO 13004KT 6SM 25/24 A2968 RMK T02500240 IEM_DS3505
ZGGG,2001-06-05 21:00,ZGGG 052100Z AUTO 00000KT 3SM 25/24 A2968 RMK 70112 SLP059 T02500240 57001 IEM_DS3505
ZGGG,2001-06-05 22:00,ZGGG 052200Z AUTO 12002KT 6SM 25/24 A2968 RMK T02500240 IEM_DS3505
ZGGG,2001-06-05 23:00,ZGGG 052300Z AUTO 26/25 A2971 RMK T02600250 IEM_DS3505
ZGGG,2001-06-06 00:00,ZGGG 060000Z AUTO 11004KT 4SM 26/24 A2971 RMK 60003 SLP072 T02620243 52013 IEM_DS3505
ZGGG,2001-06-06 01:00,ZGGG 060100Z AUTO 15004KT 6SM 25/25 A2974 RMK T02500250 IEM_DS3505
ZGGG,2001-06-06 02:00,ZGGG 060200Z AUTO 6SM 27/26 A2974 RMK T02700260 IEM_DS3505
ZGGG,2001-06-06 03:00,ZGGG 060300Z AUTO 14002KT 7SM 28/25 A2974 RMK SLP076 T02790249 52004 IEM_DS3505
ZGGG,2001-06-06 04:00,ZGGG 060400Z AUTO 34002KT 6SM 24/24 A2977 RMK SLP089 T02400240 IEM_DS3505
ZGGG,2001-06-06 05:00,ZGGG 060500Z AUTO 6SM 24/24 A2974 RMK SLP079 T02400240 IEM_DS3505
ZGGG,2001-06-06 06:00,ZGGG 060600Z AUTO 11004KT 4SM 25/24 A2974 RMK 60213 SLP074 T02540245 57002 IEM_DS3505
ZGGG,2001-06-06 07:00,ZGGG 060700Z AUTO 26/25 A2971 RMK SLP068 T02600250 IEM_DS3505
ZGGG,2001-06-06 08:00,ZGGG 060800Z AUTO 6SM 26/26 A2968 RMK SLP058 T02600260 IEM_DS3505
ZGGG,2001-06-06 09:00,ZGGG 060900Z AUTO 09004KT 6SM 26/24 A2968 RMK SLP061 T02570244 57013 IEM_DS3505
ZGGG,2001-06-06 10:00,ZGGG 061000Z AUTO 6SM 26/26 A2971 RMK SLP068 T02600260 IEM_DS3505
ZGGG,2001-06-06 11:00,ZGGG 061100Z AUTO 06004KT 26/25 A2971 RMK SLP068 T02600250 IEM_DS3505
ZGGG,2001-06-06 12:00,ZGGG 061200Z AUTO 09004KT 2 1/2SM 25/25 A2974 RMK 60002 SLP076 T02540247 52015 IEM_DS3505
ZGGG,2001-06-06 13:00,ZGGG 061300Z AUTO 13006KT 10SM 26/26 A2974 RMK SLP078 T02600260 IEM_DS3505
ZGGG,2001-06-06 14:00,ZGGG 061400Z AUTO 16006KT RMK IEM_DS3505
ZGGG,2001-06-06 15:00,ZGGG 061500Z AUTO 11002KT 4SM 25/25 A2974 RMK SLP082 T02520246 52006 IEM_DS3505
ZGGG,2001-06-06 16:00,ZGGG 061600Z AUTO 19SM 26/26 A2974 RMK SLP078 T02600260 IEM_DS3505
ZGGG,2001-06-06 17:00,ZGGG 061700Z AUTO 18002KT 6SM 26/26 A2974 RMK SLP078 T02600260 IEM_DS3505
ZGGG,2001-06-06 18:00,ZGGG 061800Z AUTO 18002KT 1 1/4SM 25/25 A2971 RMK 60035 SLP073 T02510247 57009 IEM_DS3505
ZGGG,2001-06-06 19:00,ZGGG 061900Z AUTO 6SM 26/26 A2971 RMK SLP068 T02600260 IEM_DS3505
ZGGG,2001-06-06 20:00,ZGGG 062000Z AUTO 14002KT 26/26 A2971 RMK SLP068 T02600260 IEM_DS3505
ZGGG,2001-06-06 21:00,ZGGG 062100Z AUTO 09004KT 1SM 25/24 A2971 RMK 70267 SLP068 T02490245 57005 IEM_DS3505
ZGGG,2001-06-06 22:00,ZGGG 062200Z AUTO 12006KT 6SM 25/25 A2971 RMK SLP068 T02500250 IEM_DS3505
ZGGG,2001-06-06 23:00,ZGGG 062300Z AUTO 13006KT 6SM 25/25 A2971 RMK SLP068 T02500250 IEM_DS3505
ZGGG,2001-06-07 00:00,ZGGG 070000Z AUTO 11004KT 1 1/2SM 25/24 A2974 RMK 60020 SLP078 T02500244 52010 IEM_DS3505
ZGGG,2001-06-07 01:00,ZGGG 070100Z AUTO 16006KT 6SM 26/25 A2974 RMK SLP078 T02600250 IEM_DS3505
ZGGG,2001-06-07 02:00,ZGGG 070200Z AUTO 17006KT 6SM 26/25 A2974 RMK SLP078 T02600250 IEM_DS3505
ZGGG,2001-06-07 03:00,ZGGG 070300Z AUTO 16004KT 4SM 26/25 A2977 RMK SLP084 T02560247 52006 IEM_DS3505
ZGGG,2001-06-07 04:00,ZGGG 070400Z AUTO 16006KT 6SM 26/25 A2974 RMK SLP078 T02600250 IEM_DS3505
ZGGG,2001-06-07 05:00,ZGGG 070500Z AUTO 18008KT 6SM 26/24 A2974 RMK SLP078 T02600240 IEM_DS3505
ZGGG,2001-06-07 06:00,ZGGG 070600Z AUTO 16004KT 6SM 26/24 A2971 RMK 60008 SLP074 T02600243 57010 IEM_DS3505
ZGGG,2001-06-07 07:00,ZGGG 070700Z AUTO 17006KT 6SM 27/25 A2971 RMK SLP068 T02700250 IEM_DS3505
ZGGG,2001-06-07 08:00,ZGGG 070800Z AUTO 15008KT 6SM RMK IEM_DS3505
ZGGG,2001-06-07 09:00,ZGGG 070900Z AUTO 18006KT 9SM 26/24 A2968 RMK SLP062 T02630236 57012 IEM_DS3505
ZGGG,2001-06-07 10:00,ZGGG 071000Z AUTO 16008KT 6SM RMK IEM_DS3505
ZGGG,2001-06-07 11:00,ZGGG 071100Z AUTO 17006KT 6SM RMK IEM_DS3505
ZGGG,2001-06-07 12:00,ZGGG 071200Z AUTO 14004KT 5SM 25/24 A2968 RMK 60000 SLP059 T02500236 57003 IEM_DS3505
ZGGG,2001-06-07 13:00,ZGGG 071300Z AUTO 16004KT 37SM RMK IEM_DS3505
ZGGG,2001-06-07 14:00,ZGGG 071400Z AUTO 14006KT RMK IEM_DS3505
ZGGG,2001-06-07 15:00,ZGGG 071500Z AUTO 14004KT 8SM 25/23 A2972 RMK SLP071 T02480233 52012 IEM_DS3505
ZGGG,2001-06-07 16:00,ZGGG 071600Z AUTO 16002KT 25/24 A2971 RMK SLP068 T02500240 IEM_DS3505
ZGGG,2001-06-07 17:00,ZGGG 071700Z AUTO 14002KT 6SM 25/24 A2971 RMK SLP068 T02500240 IEM_DS3505
ZGGG,2001-06-07 18:00,ZGGG 071800Z AUTO 09004KT 5SM 25/24 A2968 RMK SLP063 T02470235 57008 IEM_DS3505
ZGGG,2001-06-07 19:00,ZGGG 071900Z AUTO 16006KT 6SM RMK IEM_DS3505
ZGGG,2001-06-07 20:00,ZGGG 072000Z AUTO 15004KT 6SM 24/24 A2968 RMK SLP059 T02400240 IEM_DS3505
ZGGG,2001-06-07 21:00,ZGGG 072100Z AUTO 14004KT 2 1/2SM 24/23 A2968 RMK 70033 SLP059 T02400234 57004 IEM_DS3505
ZGGG,2001-06-07 22:00,ZGGG 072200Z AUTO 15006KT 6SM 24/24 A2968 RMK SLP059 T02400240 IEM_DS3505
ZGGG,2001-06-07 23:00,ZGGG 072300Z AUTO 16008KT 6SM RMK IEM_DS3505
ZGGG,2001-06-08 00:00,ZGGG 080000Z AUTO 16002KT 3SM 25/24 A2971 RMK 60028 SLP071 T02480239 52012 IEM_DS3505
ZGGG,2001-06-08 01:00,ZGGG 080100Z AUTO 16010KT 6SM 26/25 A2974 RMK SLP078 T02600250 IEM_DS3505
ZGGG,2001-06-08 03:00,ZGGG 080300Z AUTO 18004KT 6SM 26/24 A2974 RMK SLP079 T02560245 52008 IEM_DS3505
ZGGG,2001-06-08 04:00,ZGGG 080400Z AUTO 16008KT 6SM 26/25 A2974 RMK SLP078 T02600250 IEM_DS3505
ZGGG,2001-06-08 05:00,ZGGG 080500Z AUTO 16008KT 6SM 27/24 A2971 RMK SLP068 T02700240 IEM_DS3505
ZGGG,2001-06-08 06:00,ZGGG 080600Z AUTO 14008KT 10SM 27/24 A2971 RMK 60012 SLP066 T02710238 57013 IEM_DS3505
ZGGG,2001-06-08 07:00,ZGGG 080700Z AUTO 17008KT RMK IEM_DS3505
ZGGG,2001-06-08 08:00,ZGGG 080800Z AUTO 16008KT 6SM RMK IEM_DS3505
ZGGG,2001-06-08 09:00,ZGGG 080900Z AUTO 11004KT 9SM 26/24 A2967 RMK SLP056 T02590237 57010 IEM_DS3505
ZGGG,2001-06-08 10:00,ZGGG 081000Z AUTO 16006KT 6SM RMK IEM_DS3505
ZGGG,2001-06-08 11:00,ZGGG 081100Z AUTO 16006KT 6SM RMK IEM_DS3505
ZGGG,2001-06-08 12:00,ZGGG 081200Z AUTO 09002KT 8SM 25/24 A2968 RMK 60003 SLP062 T02520239 52006 IEM_DS3505
ZGGG,2001-06-08 13:00,ZGGG 081300Z AUTO 14006KT 6SM 26/25 A2968 RMK SLP058 T02600250 IEM_DS3505
ZGGG,2001-06-08 14:00,ZGGG 081400Z AUTO 12004KT 25SM RMK IEM_DS3505
ZGGG,2001-06-08 15:00,ZGGG 081500Z AUTO 11004KT 7SM 25/24 A2972 RMK SLP071 T02530242 52009 IEM_DS3505
ZGGG,2001-06-08 16:00,ZGGG 081600Z AUTO 15004KT 6SM 26/25 A2971 RMK SLP068 T02600250 IEM_DS3505
ZGGG,2001-06-08 17:00,ZGGG 081700Z AUTO 17004KT 6SM 26/25 A2971 RMK SLP068 T02600250 IEM_DS3505
ZGGG,2001-06-08 18:00,ZGGG 081800Z AUTO 09002KT 4SM 25/24 A2968 RMK 60004 SLP064 T02510239 57007 IEM_DS3505
ZGGG,2001-06-08 19:00,ZGGG 081900Z AUTO 16004KT 6SM 26/26 A2968 RMK SLP058 T02600260 IEM_DS3505
ZGGG,2001-06-08 20:00,ZGGG 082000Z AUTO 9SM 26/26 A2968 RMK SLP058 T02600260 IEM_DS3505
ZGGG,2001-06-08 21:00,ZGGG 082100Z AUTO 09004KT 1 1/4SM 25/24 A2965 RMK 70019 SLP054 T02510244 57010 IEM_DS3505
ZGGG,2001-06-08 22:00,ZGGG 082200Z AUTO 12004KT 6SM 26/25 A2968 RMK SLP058 T02600250 IEM_DS3505
ZGGG,2001-06-08 23:00,ZGGG 082300Z AUTO 25008KT 6SM 23/23 A2971 RMK SLP069 T02300230 IEM_DS3505
ZGGG,2001-06-09 00:00,ZGGG 090000Z AUTO 00000KT 10SM 23/23 A2974 RMK 60063 SLP076 T02320226 52022 IEM_DS3505
ZGGG,2001-06-09 03:00,ZGGG 090300Z AUTO 09004KT 2 1/2SM 25/24 A2977 RMK SLP085 T02460242 52009 IEM_DS3505
ZGGG,2001-06-09 04:00,ZGGG 090400Z AUTO 18006KT 6SM 25/25 A2974 RMK SLP078 T02500250 IEM_DS3505
ZGGG,2001-06-09 05:00,ZGGG 090500Z AUTO 16006KT 6SM 26/25 A2974 RMK SLP078 T02600250 IEM_DS3505
ZGGG,2001-06-09 06:00,ZGGG 090600Z AUTO 14004KT 5SM 25/24 A2974 RMK 60016 SLP077 T02540243 57008 IEM_DS3505
ZGGG,2001-06-09 07:00,ZGGG 090700Z AUTO 14002KT 12SM 26/25 A2971 RMK SLP068 T02600250 IEM_DS3505
ZGGG,2001-06-09 08:00,ZGGG 090800Z AUTO 11004KT 6SM 26/25 A2971 RMK SLP068 T02600250 IEM_DS3505
ZGGG,2001-06-09 09:00,ZGGG 090900Z AUTO 11002KT 5SM 26/25 A2968 RMK SLP060 T02580248 57017 IEM_DS3505
ZGGG,2001-06-09 10:00,ZGGG 091000Z AUTO 16006KT 6SM 26/26 A2968 RMK SLP058 T02600260 IEM_DS3505
ZGGG,2001-06-09 11:00,ZGGG 091100Z AUTO 16006KT 6SM 26/26 A2965 RMK SLP048 T02600260 IEM_DS3505
ZGGG,2001-06-09 12:00,ZGGG 091200Z AUTO 16004KT 3SM 26/25 A2968 RMK 60003 SLP063 T02580248 52003 IEM_DS3505
ZGGG,2001-06-09 13:00,ZGGG 091300Z AUTO 15006KT 6SM RMK IEM_DS3505
ZGGG,2001-06-09 14:00,ZGGG 091400Z AUTO 14006KT 6SM 26/26 A2971 RMK SLP068 T02600260 IEM_DS3505
ZGGG,2001-06-09 15:00,ZGGG 091500Z AUTO 11004KT 1 1/4SM 26/25 A2971 RMK SLP071 T02560249 52008 IEM_DS3505
ZGGG,2001-06-09 16:00,ZGGG 091600Z AUTO 15002KT 17SM 26/26 A2971 RMK SLP068 T02600260 IEM_DS3505
ZGGG,2001-06-09 17:00,ZGGG 091700Z AUTO 15004KT 6SM 26/26 A2968 RMK SLP058 T02600260 IEM_DS3505
ZGGG,2001-06-09 18:00,ZGGG 091800Z AUTO 11004KT 1 1/4SM 25/24 A2968 RMK 60002 SLP060 T02520245 57011 IEM_DS3505
ZGGG,2001-06-09 19:00,ZGGG 091900Z AUTO 14004KT 6SM 26/26 A2968 RMK SLP058 T02600260 IEM_DS3505
ZGGG,2001-06-09 20:00,ZGGG 092000Z AUTO 14006KT 6SM 26/26 A2965 RMK SLP048 T02600260 IEM_DS3505
ZGGG,2001-06-09 21:00,ZGGG 092100Z AUTO 11004KT 1 1/2SM 26/25 A2965 RMK 70083 SLP055 T02560250 57005 IEM_DS3505
ZGGG,2001-06-09 22:00,ZGGG 092200Z AUTO 17006KT 37SM RMK IEM_DS3505
ZGGG,2001-06-09 23:00,ZGGG 092300Z AUTO 20006KT 6SM 26/26 A2971 RMK SLP068 T02600260 IEM_DS3505
ZGGG,2001-06-10 00:00,ZGGG 100000Z AUTO 22006KT 7SM 25/24 A2971 RMK 60024 SLP066 T02490239 52011 IEM_DS3505
ZGGG,2001-06-10 01:00,ZGGG 100100Z AUTO 17006KT 19SM 25/25 A2971 RMK SLP068 T02500250 IEM_DS3505
ZGGG,2001-06-10 02:00,ZGGG 100200Z AUTO 20004KT 6SM 26/26 A2971 RMK SLP068 T02600260 IEM_DS3505
ZGGG,2001-06-10 03:00,ZGGG 100300Z AUTO 00000KT 6SM 26/25 A2971 RMK SLP073 T02550248 52007 IEM_DS3505
ZGGG,2001-06-10 04:00,ZGGG 100400Z AUTO 14006KT 6SM 27/27 A2971 RMK SLP068 T02700270 IEM_DS3505
ZGGG,2001-06-10 05:00,ZGGG 100500Z AUTO 12012KT 28/26 A2968 RMK SLP058 T02800260 IEM_DS3505
ZGGG,2001-06-10 06:00,ZGGG 100600Z AUTO 25004KT 2 1/2SM 26/25 A2971 RMK 60059 SLP069 T02620254 57004 IEM_DS3505
ZGGG,2001-06-10 07:00,ZGGG 100700Z AUTO 19004KT 6SM 26/26 A2968 RMK SLP058 T02600260 IEM_DS3505
ZGGG,2001-06-10 08:00,ZGGG 100800Z AUTO 04004KT 6SM 26/26 A2968 RMK SLP058 T02600260 IEM_DS3505
ZGGG,2001-06-10 09:00,ZGGG 100900Z AUTO 11004KT 3SM 26/26 A2965 RMK SLP052 T02640257 57017 IEM_DS3505
ZGGG,2001-06-10 10:00,ZGGG 101000Z AUTO 23002KT 27/27 A2965 RMK SLP048 T02700270 IEM_DS3505
ZGGG,2001-06-10 11:00,ZGGG 101100Z AUTO 36002KT 6SM 27/27 A2968 RMK SLP058 T02700270 IEM_DS3505
ZGGG,2001-06-10 12:00,ZGGG 101200Z AUTO 00000KT 3SM 26/26 A2968 RMK 60091 SLP058 T02620256 52006 IEM_DS3505
ZGGG,2001-06-10 13:00,ZGGG 101300Z AUTO 36002KT 6SM RMK IEM_DS3505
ZGGG,2001-06-10 14:00,ZGGG 101400Z AUTO 6SM 26/26 A2968 RMK SLP058 T02600260 IEM_DS3505
ZGGG,2001-06-10 15:00,ZGGG 101500Z AUTO 00000KT 2 1/2SM 26/26 A2971 RMK SLP067 T02620258 52009 IEM_DS3505
ZGGG,2001-06-10 16:00,ZGGG 101600Z AUTO 16004KT 6SM RMK IEM_DS3505
ZGGG,2001-06-10 17:00,ZGGG 101700Z AUTO 17006KT 6SM RMK IEM_DS3505
ZGGG,2001-06-10 18:00,ZGGG 101800Z AUTO 14002KT 2 1/2SM 26/26 A2968 RMK 60002 SLP056 T02620256 57011 IEM_DS3505
ZGGG,2001-06-10 19:00,ZGGG 101900Z AUTO 18006KT 6SM 26/26 A2965 RMK SLP048 T02600260 IEM_DS3505
ZGGG,2001-06-10 20:00,ZGGG 102000Z AUTO 20004KT 6SM RMK IEM_DS3505
ZGGG,2001-06-10 21:00,ZGGG 102100Z AUTO 16002KT 2SM 26/26 A2965 RMK 70173 SLP054 T02610255 57002 IEM_DS3505
ZGGG,2001-06-10 22:00,ZGGG 102200Z AUTO 19002KT 19SM 26/26 A2968 RMK SLP058 T02600260 IEM_DS3505
ZGGG,2001-06-10 23:00,ZGGG 102300Z AUTO 18004KT 6SM 26/26 A2971 RMK SLP068 T02600260 IEM_DS3505
ZGGG,2001-06-11 00:00,ZGGG 110000Z AUTO 00000KT 4SM 26/26 A2971 RMK 60000 SLP067 T02620255 52013 IEM_DS3505
ZGGG,2001-06-11 01:00,ZGGG 110100Z AUTO 16004KT 6SM 27/26 A2971 RMK SLP068 T02700260 IEM_DS3505
ZGGG,2001-06-11 02:00,ZGGG 110200Z AUTO 17004KT 12SM 29/26 A2971 RMK SLP068 T02900260 IEM_DS3505
ZGGG,2001-06-11 03:00,ZGGG 110300Z AUTO 09004KT 8SM 28/26 A2971 RMK SLP073 T02850256 52006 IEM_DS3505
ZGGG,2001-06-11 04:00,ZGGG 110400Z AUTO 16004KT 6SM 31/26 A2971 RMK SLP067 T03100260 IEM_DS3505
ZGGG,2001-06-11 06:00,ZGGG 110600Z AUTO 00000KT 12SM 25/24 A2968 RMK 60094 SLP065 T02460239 57008 IEM_DS3505
ZGGG,2001-06-11 07:00,ZGGG 110700Z AUTO 14008KT 6SM 27/26 A2968 RMK SLP058 T02700260 IEM_DS3505
ZGGG,2001-06-11 08:00,ZGGG 110800Z AUTO 15008KT 19SM 28/26 A2965 RMK SLP048 T02800260 IEM_DS3505
ZGGG,2001-06-11 09:00,ZGGG 110900Z AUTO 16004G27KT 10SM 27/25 A2974 RMK SLP070 T02680248 52005 IEM_DS3505
ZGGG,2001-06-11 10:00,ZGGG 111000Z AUTO 29004KT 6SM 24/23 A2971 RMK SLP069 T02400230 IEM_DS3505
ZGGG,2001-06-11 11:00,ZGGG 111100Z AUTO 08002KT 24/23 A2971 RMK SLP069 T02400230 IEM_DS3505
ZGGG,2001-06-11 12:00,ZGGG 111200Z AUTO 00000KT 11SM 24/23 A2971 RMK 60035 SLP066 T02360229 57004 IEM_DS3505
ZGGG,2001-06-11 13:00,ZGGG 111300Z AUTO 15002KT 6SM 24/24 A2971 RMK SLP069 T02400240 IEM_DS3505
ZGGG,2001-06-11 14:00,ZGGG 111400Z AUTO 15004KT 6SM 24/24 A2971 RMK SLP069 T02400240 IEM_DS3505
ZGGG,2001-06-11 15:00,ZGGG 111500Z AUTO 09002KT 10SM 23/23 A2974 RMK SLP078 T02340228 52012 IEM_DS3505
ZGGG,2001-06-11 18:00,ZGGG 111800Z AUTO 00000KT 8SM 24/23 A2973 RMK SLP075 T02370231 57003 IEM_DS3505
ZGGG,2001-06-11 20:00,ZGGG 112000Z AUTO 6SM 24/24 A2971 RMK SLP069 T02400240 IEM_DS3505
ZGGG,2001-06-11 21:00,ZGGG 112100Z AUTO 18004KT 7SM 24/24 A2971 RMK 70128 SLP069 T02430236 57006 IEM_DS3505
ZGGG,2001-06-11 22:00,ZGGG 112200Z AUTO 17004KT 15SM 25/25 A2971 RMK SLP068 T02500250 IEM_DS3505
ZGGG,2001-06-11 23:00,ZGGG 112300Z AUTO 17004KT 6SM 26/26 A2971 RMK SLP068 T02600260 IEM_DS3505
ZGGG,2001-06-12 00:00,ZGGG 120000Z AUTO 16002KT 7SM 25/24 A2971 RMK 60000 SLP074 T02540244 52005 IEM_DS3505
ZGGG,2001-06-12 01:00,ZGGG 120100Z AUTO 19004KT 6SM 27/26 A2971 RMK SLP068 T02700260 IEM_DS3505
ZGGG,2001-06-12 02:00,ZGGG 120200Z AUTO 19004KT 6SM 28/26 A2971 RMK SLP068 T02800260 IEM_DS3505
ZGGG,2001-06-12 03:00,ZGGG 120300Z AUTO 20006KT 8SM 30/25 A2971 RMK SLP067 T03010247 57007 IEM_DS3505
ZGGG,2001-06-12 04:00,ZGGG 120400Z AUTO 20012KT 6SM RMK IEM_DS3505
ZGGG,2001-06-12 05:00,ZGGG 120500Z AUTO 20010KT RMK IEM_DS3505
ZGGG,2001-06-12 06:00,ZGGG 120600Z AUTO 20004KT 12SM 32/24 A2964 RMK 60003 SLP044 T03150243 57022 IEM_DS3505
ZGGG,2001-06-12 08:00,ZGGG 120800Z AUTO 18008KT 6SM 32/24 A2959 RMK SLP026 T03200240 IEM_DS3505
ZGGG,2001-06-12 09:00,ZGGG 120900Z AUTO 16006KT 11SM 31/24 A2959 RMK SLP031 T03100242 57013 IEM_DS3505
ZGGG,2001-06-12 10:00,ZGGG 121000Z AUTO 24010G19KT 6SM 29/23 A2965 RMK SLP048 T02900230 IEM_DS3505
ZGGG,2001-06-12 11:00,ZGGG 121100Z AUTO 6SM 24/23 A2965 RMK SLP048 T02400230 IEM_DS3505
ZGGG,2001-06-12 12:00,ZGGG 121200Z AUTO 00000KT 9SM 25/23 A2965 RMK 60087 SLP055 T02460231 52023 IEM_DS3505
ZGGG,2001-06-12 13:00,ZGGG 121300Z AUTO 10002KT 25/24 A2968 RMK SLP058 T02500240 IEM_DS3505
ZGGG,2001-06-12 14:00,ZGGG 121400Z AUTO 6SM 26/24 A2968 RMK SLP058 T02600240 IEM_DS3505
ZGGG,2001-06-12 15:00,ZGGG 121500Z AUTO 00000KT 11SM 25/24 A2968 RMK SLP058 T02480235 52004 IEM_DS3505
ZGGG,2001-06-12 16:00,ZGGG 121600Z AUTO 17002KT 6SM 26/25 A2968 RMK SLP058 T02600250 IEM_DS3505
ZGGG,2001-06-12 17:00,ZGGG 121700Z AUTO 17004KT 6SM 26/25 A2965 RMK SLP048 T02600250 IEM_DS3505
ZGGG,2001-06-12 18:00,ZGGG 121800Z AUTO 00000KT 6SM 24/24 A2965 RMK 60004 SLP048 T02450235 57010 IEM_DS3505
ZGGG,2001-06-12 19:00,ZGGG 121900Z AUTO 20002KT 22SM 25/25 A2962 RMK SLP038 T02500250 IEM_DS3505
ZGGG,2001-06-12 20:00,ZGGG 122000Z AUTO 32004KT 6SM 26/26 A2962 RMK SLP038 T02600260 IEM_DS3505
ZGGG,2001-06-12 21:00,ZGGG 122100Z AUTO 00000KT 2SM 25/24 A2962 RMK 70093 SLP036 T02480242 57012 IEM_DS3505
ZGGG,2001-06-12 22:00,ZGGG 122200Z AUTO 04002KT 26/26 A2959 RMK SLP027 T02600260 IEM_DS3505
ZGGG,2001-06-12 23:00,ZGGG 122300Z AUTO 18004KT 6SM 26/26 A2959 RMK SLP027 T02600260 IEM_DS3505
ZGGG,2001-06-13 00:00,ZGGG 130000Z AUTO 18004KT 6SM 27/25 A2962 RMK 60016 SLP037 T02680254 54000 IEM_DS3505
ZGGG,2001-06-13 01:00,ZGGG 130100Z AUTO 20008KT 6SM RMK IEM_DS3505
ZGGG,2001-06-13 02:00,ZGGG 130200Z AUTO 19006KT 6SM 28/26 A2959 RMK SLP027 T02800260 IEM_DS3505
ZGGG,2001-06-13 03:00,ZGGG 130300Z AUTO 16006KT 9SM 30/25 A2959 RMK SLP029 T02980249 57007 IEM_DS3505
ZGGG,2001-06-13 04:00,ZGGG 130400Z AUTO 22008KT 28/25 A2959 RMK SLP027 T02800250 IEM_DS3505
ZGGG,2001-06-13 05:00,ZGGG 130500Z AUTO 20008KT 6SM 30/26 A2953 RMK SLP006 T03000260 IEM_DS3505
ZGGG,2001-06-13 06:00,ZGGG 130600Z AUTO 27004KT 11SM 28/24 A2957 RMK 60008 SLP020 T02790239 57010 IEM_DS3505
ZGGG,2001-06-13 07:00,ZGGG 130700Z AUTO 35004KT 6SM 28/25 A2956 RMK SLP017 T02800250 IEM_DS3505
ZGGG,2001-06-13 08:00,ZGGG 130800Z AUTO 34006KT 12SM 27/25 A2956 RMK SLP017 T02700250 IEM_DS3505
ZGGG,2001-06-13 09:00,ZGGG 130900Z AUTO 34002KT 9SM 27/25 A2954 RMK SLP010 T02680248 57010 IEM_DS3505
ZGGG,2001-06-13 10:00,ZGGG 131000Z AUTO 01008KT 6SM 26/24 A2953 RMK SLP007 T02600240 IEM_DS3505
ZGGG,2001-06-13 11:00,ZGGG 131100Z AUTO 01004KT 6SM 25/24 A2956 RMK SLP017 T02500240 IEM_DS3505
ZGGG,2001-06-13 12:00,ZGGG 131200Z AUTO 34002KT 8SM 25/23 A2957 RMK 60004 SLP019 T02470232 52009 IEM_DS3505
ZGGG,2001-06-13 13:00,ZGGG 131300Z AUTO 02006KT 6SM 24/23 A2959 RMK SLP027 T02400230 IEM_DS3505
ZGGG,2001-06-13 14:00,ZGGG 131400Z AUTO 36004KT 6SM 24/23 A2962 RMK SLP038 T02400230 IEM_DS3505
ZGGG,2001-06-13 15:00,ZGGG 131500Z AUTO 34004KT 8SM 23/22 A2962 RMK SLP039 T02300221 52020 IEM_DS3505
ZGGG,2001-06-13 16:00,ZGGG 131600Z AUTO 36006KT 6SM RMK IEM_DS3505
ZGGG,2001-06-13 17:00,ZGGG 131700Z AUTO 11002KT 6SM 23/23 A2962 RMK SLP039 T02300230 IEM_DS3505
ZGGG,2001-06-13 18:00,ZGGG 131800Z AUTO 34002KT 12SM 23/22 A2960 RMK 60008 SLP032 T02280216 57007 IEM_DS3505
ZGGG,2001-06-13 19:00,ZGGG 131900Z AUTO 01004KT 6SM RMK IEM_DS3505
ZGGG,2001-06-13 20:00,ZGGG 132000Z AUTO 01004KT 10SM RMK IEM_DS3505
ZGGG,2001-06-13 21:00,ZGGG 132100Z AUTO 34002KT 11SM 23/21 A2959 RMK 70036 SLP033 T02260214 52001 IEM_DS3505
ZGGG,2001-06-13 22:00,ZGGG 132200Z AUTO 36004KT 15SM 23/22 A2962 RMK SLP039 T02300220 IEM_DS3505
ZGGG,2001-06-13 23:00,ZGGG 132300Z AUTO 23/22 A2965 RMK SLP049 T02300220 IEM_DS3505
ZGGG,2001-06-14 00:00,ZGGG 140000Z AUTO 34004KT 11SM 23/22 A2965 RMK 70020 SLP044 T02330217 52011 IEM_DS3505
ZGGG,2001-06-14 01:00,ZGGG 140100Z AUTO 36002KT RMK IEM_DS3505
ZGGG,2001-06-14 02:00,ZGGG 140200Z AUTO 02004KT 6SM RMK IEM_DS3505
ZGGG,2001-06-14 03:00,ZGGG 140300Z AUTO 25002KT 11SM 28/21 A2965 RMK SLP046 T02780214 52002 IEM_DS3505
ZGGG,2001-06-14 04:00,ZGGG 140400Z AUTO 35004KT 6SM 28/21 A2965 RMK SLP048 T02800210 IEM_DS3505
ZGGG,2001-06-14 05:00,ZGGG 140500Z AUTO 08006KT 6SM 29/21 A2962 RMK SLP038 T02900210 IEM_DS3505
ZGGG,2001-06-14 06:00,ZGGG 140600Z AUTO 25002KT 12SM 31/21 A2962 RMK SLP037 T03100213 57008 IEM_DS3505
ZGGG,2001-06-14 07:00,ZGGG 140700Z AUTO 36006KT 28SM 32/19 A2962 RMK SLP037 T03200190 IEM_DS3505
ZGGG,2001-06-14 08:00,ZGGG 140800Z AUTO 02006KT 6SM 32/20 A2959 RMK SLP026 T03200200 IEM_DS3505
ZGGG,2001-06-14 09:00,ZGGG 140900Z AUTO 14004KT 11SM 31/20 A2959 RMK SLP034 T03090200 57003 IEM_DS3505
ZGGG,2001-06-14 10:00,ZGGG 141000Z AUTO 14004KT 6SM 31/21 A2962 RMK SLP037 T03100210 IEM_DS3505
ZGGG,2001-06-14 11:00,ZGGG 141100Z AUTO 15006KT 6SM 31/21 A2962 RMK SLP037 T03100210 IEM_DS3505
ZGGG,2001-06-14 12:00,ZGGG 141200Z AUTO 00000KT 9SM 28/22 A2962 RMK SLP046 T02780218 52011 IEM_DS3505
ZGGG,2001-06-14 13:00,ZGGG 141300Z AUTO 13004KT 6SM 28/22 A2965 RMK SLP048 T02800220 IEM_DS3505
ZGGG,2001-06-14 14:00,ZGGG 141400Z AUTO 14004KT 6SM 27/23 A2965 RMK SLP048 T02700230 IEM_DS3505
ZGGG,2001-06-14 15:00,ZGGG 141500Z AUTO 00000KT 2SM 26/24 A2968 RMK SLP059 T02610238 52013 IEM_DS3505
ZGGG,2001-06-14 17:00,ZGGG 141700Z AUTO 17004KT 9SM 26/23 A2968 RMK SLP058 T02600230 IEM_DS3505
ZGGG,2001-06-14 18:00,ZGGG 141800Z AUTO 09002KT 1 1/4SM 25/23 A2965 RMK SLP054 T02500233 57004 IEM_DS3505
ZGGG,2001-06-14 19:00,ZGGG 141900Z AUTO 15004KT 6SM 26/23 A2968 RMK SLP058 T02600230 IEM_DS3505
ZGGG,2001-06-14 20:00,ZGGG 142000Z AUTO 6SM 25/23 A2965 RMK SLP048 T02500230 IEM_DS3505
ZGGG,2001-06-14 21:00,ZGGG 142100Z AUTO 00000KT 2SM 24/23 A2967 RMK SLP054 T02430231 54000 IEM_DS3505
ZGGG,2001-06-14 22:00,ZGGG 142200Z AUTO 24/24 A2968 RMK SLP059 T02400240 IEM_DS3505
ZGGG,2001-06-14 23:00,ZGGG 142300Z AUTO 6SM 25/24 A2968 RMK SLP058 T02500240 IEM_DS3505
ZGGG,2001-06-15 00:00,ZGGG 150000Z AUTO 14002KT 3SM 26/24 A2968 RMK SLP064 T02650241 52009 IEM_DS3505
ZGGG,2001-06-15 01:00,ZGGG 150100Z AUTO 02004KT 6SM 27/24 A2971 RMK SLP068 T02700240 IEM_DS3505
ZGGG,2001-06-15 02:00,ZGGG 150200Z AUTO 04006KT 10SM 28/24 A2971 RMK SLP068 T02800240 IEM_DS3505
ZGGG,2001-06-15 03:00,ZGGG 150300Z AUTO 07004KT 3SM 28/23 A2971 RMK SLP064 T02820234 54000 IEM_DS3505
ZGGG,2001-06-15 04:00,ZGGG 150400Z AUTO 14006KT 25SM 29/23 A2968 RMK SLP058 T02900230 IEM_DS3505
ZGGG,2001-06-15 05:00,ZGGG 150500Z AUTO 15006KT 10SM 31/23 A2965 RMK SLP047 T03100230 IEM_DS3505
ZGGG,2001-06-15 06:00,ZGGG 150600Z AUTO 11006KT 7SM 30/23 A2965 RMK SLP046 T02990233 57017 IEM_DS3505
ZGGG,2001-06-15 07:00,ZGGG 150700Z AUTO 12004KT 6SM RMK IEM_DS3505
ZGGG,2001-06-15 08:00,ZGGG 150800Z AUTO 14004KT 6SM 32/24 A2959 RMK SLP026 T03200240 IEM_DS3505
ZGGG,2001-06-15 09:00,ZGGG 150900Z AUTO 16006KT 7SM 31/24 A2960 RMK SLP029 T03060244 57017 IEM_DS3505
ZGGG,2001-06-15 10:00,ZGGG 151000Z AUTO 14006KT 6SM 31/24 A2959 RMK SLP026 T03100240 IEM_DS3505
ZGGG,2001-06-15 11:00,ZGGG 151100Z AUTO 14006KT 6SM 29/24 A2962 RMK SLP038 T02900240 IEM_DS3505
ZGGG,2001-06-15 12:00,ZGGG 151200Z AUTO 18004KT 9SM 29/24 A2962 RMK SLP043 T02870243 52014 IEM_DS3505
ZGGG,2001-06-15 14:00,ZGGG 151400Z AUTO 16008KT 6SM 28/25 A2965 RMK SLP048 T02800250 IEM_DS3505
ZGGG,2001-06-15 15:00,ZGGG 151500Z AUTO 20004KT 9SM 27/25 A2968 RMK SLP055 T02740246 52012 IEM_DS3505
ZGGG,2001-06-15 16:00,ZGGG 151600Z AUTO 15008KT 6SM 27/24 A2968 RMK SLP058 T02700240 IEM_DS3505
ZGGG,2001-06-15 17:00,ZGGG 151700Z AUTO 15008KT 6SM 27/25 A2968 RMK SLP058 T02700250 IEM_DS3505
ZGGG,2001-06-15 18:00,ZGGG 151800Z AUTO 11004KT 7SM 27/25 A2965 RMK SLP053 T02710248 57002 IEM_DS3505
ZGGG,2001-06-15 19:00,ZGGG 151900Z AUTO 15006KT 27/25 A2965 RMK SLP048 T02700250 IEM_DS3505
ZGGG,2001-06-15 20:00,ZGGG 152000Z AUTO 16006KT 6SM RMK IEM_DS3505
ZGGG,2001-06-15 21:00,ZGGG 152100Z AUTO 11002KT 6SM 26/25 A2966 RMK SLP050 T02640247 57003 IEM_DS3505
ZGGG,2001-06-15 22:00,ZGGG 152200Z AUTO 16006KT 6SM 27/26 A2965 RMK SLP048 T02700260 IEM_DS3505
ZGGG,2001-06-15 23:00,ZGGG 152300Z AUTO 14008KT 6SM RMK IEM_DS3505
ZGGG,2001-06-16 00:00,ZGGG 160000Z AUTO 14004KT 7SM 28/25 A2968 RMK SLP063 T02840250 52013 IEM_DS3505
ZGGG,2001-06-16 01:00,ZGGG 160100Z AUTO 16006KT 6SM RMK IEM_DS3505
ZGGG,2001-06-16 02:00,ZGGG 160200Z AUTO 19006KT RMK IEM_DS3505
ZGGG,2001-06-16 03:00,ZGGG 160300Z AUTO 20004KT 9SM 31/25 A2968 RMK SLP058 T03140248 57005 IEM_DS3505
ZGGG,2001-06-16 04:00,ZGGG 160400Z AUTO 17006KT 6SM 32/24 A2968 RMK SLP057 T03200240 IEM_DS3505
ZGGG,2001-06-16 05:00,ZGGG 160500Z AUTO 14008KT RMK IEM_DS3505
ZGGG,2001-06-16 06:00,ZGGG 160600Z AUTO 15008KT 6SM 33/23 A2962 RMK SLP037 T03300230 IEM_DS3505
ZGGG,2001-06-16 07:00,ZGGG 160700Z AUTO 14010KT RMK IEM_DS3505
ZGGG,2001-06-16 08:00,ZGGG 160800Z AUTO 14008KT 6SM 33/26 A2962 RMK SLP037 T03300260 IEM_DS3505
ZGGG,2001-06-16 09:00,ZGGG 160900Z AUTO 14008KT 11SM 32/24 A2963 RMK SLP039 T03190244 57004 IEM_DS3505
ZGGG,2001-06-16 10:00,ZGGG 161000Z AUTO 14010KT 6SM 31/24 A2962 RMK SLP037 T03100240 IEM_DS3505
ZGGG,2001-06-16 11:00,ZGGG 161100Z AUTO 14008KT 6SM 30/24 A2962 RMK SLP037 T03000240 IEM_DS3505
ZGGG,2001-06-16 12:00,ZGGG 161200Z AUTO 11006KT 10SM 29/24 A2965 RMK SLP049 T02900245 52010 IEM_DS3505
ZGGG,2001-06-16 13:00,ZGGG 161300Z AUTO 15008KT 6SM 28/25 A2965 RMK SLP048 T02800250 IEM_DS3505
ZGGG,2001-06-16 14:00,ZGGG 161400Z AUTO 14006KT 6SM 28/25 A2968 RMK SLP058 T02800250 IEM_DS3505
ZGGG,2001-06-16 15:00,ZGGG 161500Z AUTO 16006KT 10SM 28/25 A2971 RMK SLP067 T02780248 52018 IEM_DS3505
ZGGG,2001-06-16 16:00,ZGGG 161600Z AUTO 16006KT 6SM 28/25 A2971 RMK SLP068 T02800250 IEM_DS3505
ZGGG,2001-06-16 17:00,ZGGG 161700Z AUTO 15006KT 6SM 27/25 A2971 RMK SLP068 T02700250 IEM_DS3505
ZGGG,2001-06-16 18:00,ZGGG 161800Z AUTO 14004KT 9SM 27/25 A2968 RMK SLP063 T02720252 57004 IEM_DS3505
ZGGG,2001-06-16 19:00,ZGGG 161900Z AUTO 15006KT 6SM 27/26 A2968 RMK SLP058 T02700260 IEM_DS3505
ZGGG,2001-06-16 20:00,ZGGG 162000Z AUTO 15006KT 6SM 27/25 A2968 RMK SLP058 T02700250 IEM_DS3505
ZGGG,2001-06-16 21:00,ZGGG 162100Z AUTO 09002KT 9SM 26/25 A2971 RMK SLP067 T02650249 52004 IEM_DS3505
ZGGG,2001-06-16 22:00,ZGGG 162200Z AUTO 16008KT 12SM 27/25 A2971 RMK SLP068 T02700250 IEM_DS3505
ZGGG,2001-06-16 23:00,ZGGG 162300Z AUTO 16004KT 22SM 27/25 A2974 RMK SLP078 T02700250 IEM_DS3505
ZGGG,2001-06-17 00:00,ZGGG 170000Z AUTO 09004KT 6SM 28/25 A2974 RMK SLP081 T02760253 52014 IEM_DS3505
ZGGG,2001-06-17 01:00,ZGGG 170100Z AUTO 16006KT 6SM 29/25 A2974 RMK SLP078 T02900250 IEM_DS3505
ZGGG,2001-06-17 02:00,ZGGG 170200Z AUTO 16008KT 31/24 A2974 RMK SLP077 T03100240 IEM_DS3505
ZGGG,2001-06-17 03:00,ZGGG 170300Z AUTO 16004KT 11SM 31/24 A2974 RMK SLP080 T03060242 57001 IEM_DS3505
ZGGG,2001-06-17 04:00,ZGGG 170400Z AUTO 20006KT 6SM 33/22 A2971 RMK SLP067 T03300220 IEM_DS3505
ZGGG,2001-06-17 05:00,ZGGG 170500Z AUTO 16006KT 15SM 33/23 A2971 RMK SLP067 T03300230 IEM_DS3505
ZGGG,2001-06-17 06:00,ZGGG 170600Z AUTO 16010KT 10SM 31/24 A2970 RMK 60003 SLP065 T03080235 57015 IEM_DS3505
ZGGG,2001-06-17 07:00,ZGGG 170700Z AUTO 14002KT 6SM 26/26 A2971 RMK SLP068 T02600260 IEM_DS3505
ZGGG,2001-06-17 08:00,ZGGG 170800Z AUTO 15006KT 6SM 30/24 A2965 RMK SLP047 T03000240 IEM_DS3505
ZGGG,2001-06-17 09:00,ZGGG 170900Z AUTO 14004KT 12SM 31/24 A2965 RMK SLP047 T03080235 57018 IEM_DS3505
ZGGG,2001-06-17 10:00,ZGGG 171000Z AUTO 16004KT 7SM 31/24 A2965 RMK SLP047 T03100240 IEM_DS3505
ZGGG,2001-06-17 11:00,ZGGG 171100Z AUTO 15006KT 6SM 30/24 A2965 RMK SLP047 T03000240 IEM_DS3505
ZGGG,2001-06-17 12:00,ZGGG 171200Z AUTO 11006KT 11SM 29/25 A2965 RMK 60020 SLP052 T02860248 52005 IEM_DS3505
ZGGG,2001-06-17 13:00,ZGGG 171300Z AUTO 16008KT 6SM 29/26 A2968 RMK SLP058 T02900260 IEM_DS3505
ZGGG,2001-06-17 14:00,ZGGG 171400Z AUTO 15008KT 6SM 28/26 A2971 RMK SLP068 T02800260 IEM_DS3505
ZGGG,2001-06-17 15:00,ZGGG 171500Z AUTO 16002KT 10SM 28/25 A2971 RMK SLP068 T02780253 52016 IEM_DS3505
ZGGG,2001-06-17 16:00,ZGGG 171600Z AUTO 16006KT 6SM RMK IEM_DS3505
ZGGG,2001-06-17 17:00,ZGGG 171700Z AUTO 15004KT 6SM 28/26 A2971 RMK SLP068 T02800260 IEM_DS3505
ZGGG,2001-06-17 18:00,ZGGG 171800Z AUTO 16006KT 9SM 28/25 A2968 RMK SLP059 T02760253 57009 IEM_DS3505
ZGGG,2001-06-17 19:00,ZGGG 171900Z AUTO 15004KT 9SM 27/26 A2968 RMK SLP058 T02700260 IEM_DS3505
ZGGG,2001-06-17 20:00,ZGGG 172000Z AUTO 20004KT RMK IEM_DS3505
ZGGG,2001-06-17 21:00,ZGGG 172100Z AUTO 16004KT 7SM 27/25 A2968 RMK 70020 SLP055 T02700253 57004 IEM_DS3505
ZGGG,2001-06-17 22:00,ZGGG 172200Z AUTO 20004KT 6SM 27/27 A2968 RMK SLP058 T02700270 IEM_DS3505
ZGGG,2001-06-17 23:00,ZGGG 172300Z AUTO 16002KT 20SM 28/27 A2968 RMK SLP058 T02800270 IEM_DS3505
ZGGG,2001-06-18 00:00,ZGGG 180000Z AUTO 27004KT 7SM 28/25 A2970 RMK 60000 SLP064 T02830252 52009 IEM_DS3505
ZGGG,2001-06-18 01:00,ZGGG 180100Z AUTO 17006KT 6SM RMK IEM_DS3505
ZGGG,2001-06-18 02:00,ZGGG 180200Z AUTO 20010KT RMK IEM_DS3505
ZGGG,2001-06-18 03:00,ZGGG 180300Z AUTO 16006KT 11SM 31/24 A2968 RMK SLP059 T03100245 57005 IEM_DS3505
ZGGG,2001-06-18 04:00,ZGGG 180400Z AUTO 21010KT 6SM RMK IEM_DS3505
ZGGG,2001-06-18 06:00,ZGGG 180600Z AUTO 16006KT 14SM 33/24 A2962 RMK 60003 SLP037 T03300238 57022 IEM_DS3505
ZGGG,2001-06-18 07:00,ZGGG 180700Z AUTO 20008KT 6SM 33/24 A2959 RMK SLP026 T03300240 IEM_DS3505
ZGGG,2001-06-18 08:00,ZGGG 180800Z AUTO 14006KT 6SM 32/26 A2956 RMK SLP016 T03200260 IEM_DS3505
ZGGG,2001-06-18 09:00,ZGGG 180900Z AUTO 09006KT 16SM 31/26 A2956 RMK SLP020 T03100257 57017 IEM_DS3505
ZGGG,2001-06-18 10:00,ZGGG 181000Z AUTO 15006KT 32/26 A2956 RMK SLP016 T03200260 IEM_DS3505
ZGGG,2001-06-18 11:00,ZGGG 181100Z AUTO 16008KT 31/26 A2956 RMK SLP016 T03100260 IEM_DS3505
ZGGG,2001-06-18 12:00,ZGGG 181200Z AUTO 14004KT 11SM 29/24 A2959 RMK 60004 SLP030 T02910244 52010 IEM_DS3505
ZGGG,2001-06-18 13:00,ZGGG 181300Z AUTO 16008KT 6SM 29/26 A2959 RMK SLP027 T02900260 IEM_DS3505
ZGGG,2001-06-18 14:00,ZGGG 181400Z AUTO 16006KT 6SM 29/26 A2962 RMK SLP038 T02900260 IEM_DS3505
ZGGG,2001-06-18 15:00,ZGGG 181500Z AUTO 18002KT 11SM 28/25 A2962 RMK SLP039 T02830254 52009 IEM_DS3505
ZGGG,2001-06-18 16:00,ZGGG 181600Z AUTO 17004KT 6SM RMK IEM_DS3505
ZGGG,2001-06-18 17:00,ZGGG 181700Z AUTO 19006KT 6SM 28/25 A2959 RMK SLP027 T02800250 IEM_DS3505
ZGGG,2001-06-18 18:00,ZGGG 181800Z AUTO 18002KT 9SM 27/25 A2958 RMK SLP022 T02710254 57017 IEM_DS3505
ZGGG,2001-06-18 19:00,ZGGG 181900Z AUTO 16002KT 6SM 27/24 A2956 RMK SLP017 T02700240 IEM_DS3505
ZGGG,2001-06-18 20:00,ZGGG 182000Z AUTO 17004KT 6SM 27/25 A2956 RMK SLP017 T02700250 IEM_DS3505
ZGGG,2001-06-18 21:00,ZGGG 182100Z AUTO 00000KT 9SM 26/25 A2956 RMK 70006 SLP021 T02640251 57001 IEM_DS3505
ZGGG,2001-06-18 22:00,ZGGG 182200Z AUTO 18006KT 7SM RMK IEM_DS3505
ZGGG,2001-06-18 23:00,ZGGG 182300Z AUTO 17004KT 4SM 28/25 A2959 RMK SLP027 T02800250 IEM_DS3505
ZGGG,2001-06-19 00:00,ZGGG 190000Z AUTO 16002KT 8SM 28/25 A2959 RMK 70006 SLP029 T02840253 52008 IEM_DS3505
ZGGG,2001-06-19 01:00,ZGGG 190100Z AUTO 19006KT 6SM 29/24 A2959 RMK SLP027 T02900240 IEM_DS3505
ZGGG,2001-06-19 02:00,ZGGG 190200Z AUTO 18006KT RMK IEM_DS3505
ZGGG,2001-06-19 03:00,ZGGG 190300Z AUTO 16004KT 10SM 32/24 A2959 RMK SLP028 T03160243 57001 IEM_DS3505
ZGGG,2001-06-19 04:00,ZGGG 190400Z AUTO 24004KT 6SM 31/24 A2956 RMK SLP016 T03100240 IEM_DS3505
ZGGG,2001-06-19 05:00,ZGGG 190500Z AUTO 20004KT 6SM 33/24 A2956 RMK SLP016 T03300240 IEM_DS3505
ZGGG,2001-06-19 06:00,ZGGG 190600Z AUTO 00000KT 11SM 33/24 A2954 RMK SLP008 T03310239 57020 IEM_DS3505
ZGGG,2001-06-19 07:00,ZGGG 190700Z AUTO 6SM RMK IEM_DS3505
ZGGG,2001-06-19 08:00,ZGGG 190800Z AUTO 14006KT 6SM 33/26 A2950 RMK SLP996 T03300260 IEM_DS3505
ZGGG,2001-06-19 09:00,ZGGG 190900Z AUTO 18004KT 9SM 32/25 A2947 RMK SLP997 T03150251 57011 IEM_DS3505
ZGGG,2001-06-19 10:00,ZGGG 191000Z AUTO 18008KT 6SM 30/24 A2950 RMK SLP996 T03000240 IEM_DS3505
ZGGG,2001-06-19 11:00,ZGGG 191100Z AUTO 20008KT 6SM 29/24 A2950 RMK SLP996 T02900240 IEM_DS3505
ZGGG,2001-06-19 12:00,ZGGG 191200Z AUTO 22002KT 11SM 29/24 A2953 RMK 60004 SLP012 T02870241 52015 IEM_DS3505
ZGGG,2001-06-19 13:00,ZGGG 191300Z AUTO 18006KT 6SM 29/24 A2956 RMK SLP016 T02900240 IEM_DS3505
ZGGG,2001-06-19 14:00,ZGGG 191400Z AUTO 18006KT 6SM 29/24 A2956 RMK SLP016 T02900240 IEM_DS3505
ZGGG,2001-06-19 15:00,ZGGG 191500Z AUTO 00000KT 11SM 28/25 A2959 RMK SLP029 T02830252 52017 IEM_DS3505
ZGGG,2001-06-19 16:00,ZGGG 191600Z AUTO 15004KT 29/26 A2959 RMK SLP027 T02900260 IEM_DS3505
ZGGG,2001-06-19 17:00,ZGGG 191700Z AUTO 17004KT 6SM 29/26 A2959 RMK SLP027 T02900260 IEM_DS3505
ZGGG,2001-06-19 18:00,ZGGG 191800Z AUTO 00000KT 10SM 28/26 A2958 RMK SLP022 T02780258 57007 IEM_DS3505
ZGGG,2001-06-19 19:00,ZGGG 191900Z AUTO 17004KT RMK IEM_DS3505
ZGGG,2001-06-19 20:00,ZGGG 192000Z AUTO 15004KT 6SM RMK IEM_DS3505
ZGGG,2001-06-19 21:00,ZGGG 192100Z AUTO 09002KT 8SM 27/26 A2956 RMK 70005 SLP017 T02720258 57005 IEM_DS3505
ZGGG,2001-06-19 22:00,ZGGG 192200Z AUTO 15004KT 6SM 28/27 A2956 RMK SLP017 T02800270 IEM_DS3505
ZGGG,2001-06-19 23:00,ZGGG 192300Z AUTO 15004KT 6SM RMK IEM_DS3505
ZGGG,2001-06-20 00:00,ZGGG 200000Z AUTO 16004KT 8SM 29/26 A2959 RMK 70005 SLP028 T02880260 52011 IEM_DS3505
ZGGG,2001-06-20 01:00,ZGGG 200100Z AUTO 16006KT 6SM 31/26 A2959 RMK SLP026 T03100260 IEM_DS3505
ZGGG,2001-06-20 02:00,ZGGG 200200Z AUTO 20006KT 6SM 32/26 A2959 RMK SLP026 T03200260 IEM_DS3505
ZGGG,2001-06-20 03:00,ZGGG 200300Z AUTO 14006KT 10SM 32/26 A2959 RMK SLP027 T03230259 57001 IEM_DS3505
ZGGG,2001-06-20 04:00,ZGGG 200400Z AUTO 21006KT 6SM 32/25 A2959 RMK SLP026 T03200250 IEM_DS3505
ZGGG,2001-06-20 05:00,ZGGG 200500Z AUTO 04010KT 8SM 29/26 A2956 RMK SLP016 T02900260 IEM_DS3505
ZGGG,2001-06-20 06:00,ZGGG 200600Z AUTO 16006KT 9SM 32/26 A2956 RMK 60003 SLP020 T03160262 57007 IEM_DS3505
ZGGG,2001-06-20 07:00,ZGGG 200700Z AUTO 17008KT 6SM 28/26 A2956 RMK SLP017 T02800260 IEM_DS3505
ZGGG,2001-06-20 08:00,ZGGG 200800Z AUTO 20006KT 6SM 31/26 A2953 RMK SLP006 T03100260 IEM_DS3505
ZGGG,2001-06-20 09:00,ZGGG 200900Z AUTO 18004KT 9SM 31/25 A2953 RMK SLP012 T03100253 57008 IEM_DS3505
ZGGG,2001-06-20 10:00,ZGGG 201000Z AUTO 15006KT 6SM 31/26 A2953 RMK SLP006 T03100260 IEM_DS3505
ZGGG,2001-06-20 11:00,ZGGG 201100Z AUTO 15006KT 6SM 30/26 A2953 RMK SLP006 T03000260 IEM_DS3505
ZGGG,2001-06-20 12:00,ZGGG 201200Z AUTO 14002KT 9SM 29/26 A2959 RMK 60003 SLP027 T02930255 52015 IEM_DS3505
ZGGG,2001-06-20 13:00,ZGGG 201300Z AUTO 16004KT 29/26 A2962 RMK SLP038 T02900260 IEM_DS3505
ZGGG,2001-06-20 14:00,ZGGG 201400Z AUTO 15004KT 6SM 29/26 A2962 RMK SLP038 T02900260 IEM_DS3505
ZGGG,2001-06-20 15:00,ZGGG 201500Z AUTO 18002KT 9SM 29/26 A2965 RMK SLP044 T02870261 52017 IEM_DS3505
ZGGG,2001-06-20 16:00,ZGGG 201600Z AUTO 16004KT 6SM 29/26 A2962 RMK SLP038 T02900260 IEM_DS3505
ZGGG,2001-06-20 17:00,ZGGG 201700Z AUTO 15004KT 6SM 28/26 A2962 RMK SLP038 T02800260 IEM_DS3505
ZGGG,2001-06-20 18:00,ZGGG 201800Z AUTO 09002KT 9SM 28/26 A2959 RMK SLP033 T02760256 57011 IEM_DS3505
ZGGG,2001-06-20 19:00,ZGGG 201900Z AUTO 6SM 28/26 A2962 RMK SLP038 T02800260 IEM_DS3505
ZGGG,2001-06-20 20:00,ZGGG 202000Z AUTO 15004KT 6SM 28/26 A2962 RMK SLP038 T02800260 IEM_DS3505
ZGGG,2001-06-20 21:00,ZGGG 202100Z AUTO 11002KT 9SM 28/26 A2962 RMK 70003 SLP036 T02800261 52003 IEM_DS3505
ZGGG,2001-06-20 22:00,ZGGG 202200Z AUTO 15006KT 6SM RMK IEM_DS3505
ZGGG,2001-06-20 23:00,ZGGG 202300Z AUTO 13002KT 6SM 28/26 A2962 RMK SLP038 T02800260 IEM_DS3505
ZGGG,2001-06-21 00:00,ZGGG 210000Z AUTO 09002KT 6SM 29/26 A2965 RMK 70003 SLP046 T02860264 52010 IEM_DS3505
ZGGG,2001-06-21 01:00,ZGGG 210100Z AUTO 14004KT 6SM RMK IEM_DS3505
ZGGG,2001-06-21 02:00,ZGGG 210200Z AUTO 15004KT 6SM 32/25 A2965 RMK SLP047 T03200250 IEM_DS3505
ZGGG,2001-06-21 03:00,ZGGG 210300Z AUTO 16004KT 10SM 32/25 A2965 RMK SLP051 T03220249 52005 IEM_DS3505
ZGGG,2001-06-21 04:00,ZGGG 210400Z AUTO 16004KT 6SM RMK IEM_DS3505
ZGGG,2001-06-21 05:00,ZGGG 210500Z AUTO 33006KT 6SM RMK IEM_DS3505
ZGGG,2001-06-21 06:00,ZGGG 210600Z AUTO 20002KT 11SM 33/25 A2961 RMK SLP033 T03310247 57018 IEM_DS3505
ZGGG,2001-06-21 07:00,ZGGG 210700Z AUTO 19006KT 6SM 33/25 A2959 RMK SLP026 T03300250 IEM_DS3505
ZGGG,2001-06-21 08:00,ZGGG 210800Z AUTO 34006KT 6SM 28/25 A2959 RMK SLP027 T02800250 IEM_DS3505
ZGGG,2001-06-21 09:00,ZGGG 210900Z AUTO 22006KT 12SM 30/25 A2960 RMK SLP030 T03050247 57003 IEM_DS3505
ZGGG,2001-06-21 10:00,ZGGG 211000Z AUTO 6SM RMK IEM_DS3505
ZGGG,2001-06-21 12:00,ZGGG 211200Z AUTO 00000KT 10SM 30/25 A2962 RMK SLP043 T03000249 52013 IEM_DS3505
ZGGG,2001-06-21 13:00,ZGGG 211300Z AUTO 15004KT 6SM 30/25 A2965 RMK SLP047 T03000250 IEM_DS3505
ZGGG,2001-06-21 14:00,ZGGG 211400Z AUTO 14004KT 6SM 29/24 A2965 RMK SLP048 T02900240 IEM_DS3505
ZGGG,2001-06-21 15:00,ZGGG 211500Z AUTO 14002KT 9SM 29/25 A2968 RMK SLP059 T02900254 52016 IEM_DS3505
ZGGG,2001-06-21 16:00,ZGGG 211600Z AUTO 17004KT 6SM 29/25 A2968 RMK SLP058 T02900250 IEM_DS3505
ZGGG,2001-06-21 17:00,ZGGG 211700Z AUTO 15002KT 6SM 29/25 A2968 RMK SLP058 T02900250 IEM_DS3505
ZGGG,2001-06-21 18:00,ZGGG 211800Z AUTO 07002KT 9SM 28/25 A2965 RMK SLP053 T02810251 57006 IEM_DS3505
ZGGG,2001-06-21 19:00,ZGGG 211900Z AUTO 10004KT 6SM 27/25 A2965 RMK SLP048 T02700250 IEM_DS3505
ZGGG,2001-06-21 20:00,ZGGG 212000Z AUTO 05004KT 6SM 27/26 A2965 RMK SLP048 T02700260 IEM_DS3505
ZGGG,2001-06-21 21:00,ZGGG 212100Z AUTO 00000KT 3SM 27/25 A2965 RMK SLP047 T02690254 57006 IEM_DS3505
ZGGG,2001-06-21 22:00,ZGGG 212200Z AUTO 02002KT 6SM 27/25 A2965 RMK SLP048 T02700250 IEM_DS3505
ZGGG,2001-06-21 23:00,ZGGG 212300Z AUTO 6SM 28/26 A2965 RMK SLP048 T02800260 IEM_DS3505
ZGGG,2001-06-22 00:00,ZGGG 220000Z AUTO 09006KT 8SM 29/25 A2968 RMK SLP055 T02870247 52008 IEM_DS3505
ZGGG,2001-06-22 01:00,ZGGG 220100Z AUTO 03002KT 6SM RMK IEM_DS3505
ZGGG,2001-06-22 02:00,ZGGG 220200Z AUTO 04004KT 31/24 A2968 RMK SLP057 T03100240 IEM_DS3505
ZGGG,2001-06-22 04:00,ZGGG 220400Z AUTO 36002KT 6SM RMK IEM_DS3505
ZGGG,2001-06-22 05:00,ZGGG 220500Z AUTO 23004KT RMK IEM_DS3505
ZGGG,2001-06-22 06:00,ZGGG 220600Z AUTO 36002KT 11SM 34/23 A2962 RMK SLP042 T03430234 57014 IEM_DS3505
ZGGG,2001-06-22 07:00,ZGGG 220700Z AUTO 09004KT 6SM 34/23 A2959 RMK SLP026 T03400230 IEM_DS3505
ZGGG,2001-06-22 08:00,ZGGG 220800Z AUTO 12004KT 6SM 34/23 A2956 RMK SLP016 T03400230 IEM_DS3505
ZGGG,2001-06-22 09:00,ZGGG 220900Z AUTO 16004KT 10SM 35/23 A2956 RMK SLP017 T03460232 57025 IEM_DS3505
ZGGG,2001-06-22 10:00,ZGGG 221000Z AUTO 13004KT 6SM 34/24 A2953 RMK SLP006 T03400240 IEM_DS3505
ZGGG,2001-06-22 11:00,ZGGG 221100Z AUTO 12004KT 6SM 33/24 A2956 RMK SLP016 T03300240 IEM_DS3505
ZGGG,2001-06-22 12:00,ZGGG 221200Z AUTO 18002KT 8SM 31/25 A2960 RMK SLP031 T03140251 52014 IEM_DS3505
ZGGG,2001-06-22 13:00,ZGGG 221300Z AUTO 17002KT 6SM 32/26 A2962 RMK SLP037 T03200260 IEM_DS3505
ZGGG,2001-06-22 14:00,ZGGG 221400Z AUTO 17004KT 6SM 31/26 A2962 RMK SLP037 T03100260 IEM_DS3505
ZGGG,2001-06-22 15:00,ZGGG 221500Z AUTO 00000KT 9SM 30/25 A2962 RMK SLP042 T02970254 52011 IEM_DS3505
ZGGG,2001-06-22 16:00,ZGGG 221600Z AUTO 21006KT 6SM 30/25 A2962 RMK SLP037 T03000250 IEM_DS3505
ZGGG,2001-06-22 17:00,ZGGG 221700Z AUTO 19002KT 6SM 30/25 A2962 RMK SLP037 T03000250 IEM_DS3505
ZGGG,2001-06-22 18:00,ZGGG 221800Z AUTO 00000KT 8SM 29/25 A2959 RMK SLP029 T02920251 57013 IEM_DS3505
ZGGG,2001-06-22 19:00,ZGGG 221900Z AUTO 26004KT 6SM 29/25 A2959 RMK SLP027 T02900250 IEM_DS3505
ZGGG,2001-06-22 20:00,ZGGG 222000Z AUTO 21002KT 6SM 29/25 A2956 RMK SLP016 T02900250 IEM_DS3505
ZGGG,2001-06-22 21:00,ZGGG 222100Z AUTO 29002KT 7SM 28/25 A2959 RMK SLP025 T02800250 57004 IEM_DS3505
ZGGG,2001-06-22 22:00,ZGGG 222200Z AUTO 36006KT 6SM 28/25 A2959 RMK SLP027 T02800250 IEM_DS3505
ZGGG,2001-06-22 23:00,ZGGG 222300Z AUTO 02006KT 6SM 28/24 A2959 RMK SLP027 T02800240 IEM_DS3505
ZGGG,2001-06-23 00:00,ZGGG 230000Z AUTO 34006KT 10SM 30/25 A2959 RMK SLP032 T02950249 52007 IEM_DS3505
ZGGG,2001-06-23 01:00,ZGGG 230100Z AUTO 02010KT 6SM 31/24 A2962 RMK SLP037 T03100240 IEM_DS3505
ZGGG,2001-06-23 02:00,ZGGG 230200Z AUTO 02006KT 6SM 31/25 A2962 RMK SLP037 T03100250 IEM_DS3505
ZGGG,2001-06-23 03:00,ZGGG 230300Z AUTO 07004KT 9SM 33/25 A2959 RMK SLP029 T03280253 57003 IEM_DS3505
ZGGG,2001-06-23 04:00,ZGGG 230400Z AUTO 36006KT 6SM 33/25 A2959 RMK SLP026 T03300250 IEM_DS3505
ZGGG,2001-06-23 05:00,ZGGG 230500Z AUTO 02008KT 6SM 34/25 A2959 RMK SLP026 T03400250 IEM_DS3505
ZGGG,2001-06-23 06:00,ZGGG 230600Z AUTO 02004KT 8SM 34/25 A2956 RMK SLP018 T03420247 57011 IEM_DS3505
ZGGG,2001-06-23 07:00,ZGGG 230700Z AUTO 01008KT 6SM 34/24 A2953 RMK SLP006 T03400240 IEM_DS3505
ZGGG,2001-06-23 08:00,ZGGG 230800Z AUTO 34008KT 6SM 35/24 A2950 RMK SLP995 T03500240 IEM_DS3505
ZGGG,2001-06-23 09:00,ZGGG 230900Z AUTO 34004KT 9SM 35/24 A2950 RMK SLP003 T03500237 57015 IEM_DS3505
ZGGG,2001-06-23 10:00,ZGGG 231000Z AUTO 35006KT 6SM 34/24 A2953 RMK SLP006 T03400240 IEM_DS3505
ZGGG,2001-06-23 11:00,ZGGG 231100Z AUTO 32006KT 6SM 33/25 A2953 RMK SLP006 T03300250 IEM_DS3505
ZGGG,2001-06-23 12:00,ZGGG 231200Z AUTO 32002KT 7SM 32/25 A2956 RMK SLP014 T03200252 52011 IEM_DS3505
ZGGG,2001-06-23 13:00,ZGGG 231300Z AUTO 29004KT 6SM 31/26 A2956 RMK SLP016 T03100260 IEM_DS3505
ZGGG,2001-06-23 14:00,ZGGG 231400Z AUTO 26002KT 6SM RMK IEM_DS3505
ZGGG,2001-06-23 15:00,ZGGG 231500Z AUTO 27004KT 7SM 30/25 A2962 RMK SLP039 T03050253 52025 IEM_DS3505
ZGGG,2001-06-23 16:00,ZGGG 231600Z AUTO 27006KT 6SM 30/25 A2962 RMK SLP037 T03000250 IEM_DS3505
ZGGG,2001-06-23 17:00,ZGGG 231700Z AUTO 25006KT 25SM 30/25 A2962 RMK SLP037 T03000250 IEM_DS3505
ZGGG,2001-06-23 18:00,ZGGG 231800Z AUTO 11008KT 6SM 27/24 A2962 RMK 60012 SLP045 T02710236 52006 IEM_DS3505
ZGGG,2001-06-23 19:00,ZGGG 231900Z AUTO 11006KT 6SM 26/23 A2965 RMK SLP048 T02600230 IEM_DS3505
ZGGG,2001-06-23 20:00,ZGGG 232000Z AUTO 02004KT 6SM RMK IEM_DS3505
ZGGG,2001-06-23 21:00,ZGGG 232100Z AUTO 09004KT 8SM 25/24 A2962 RMK 70022 SLP045 T02520240 54000 IEM_DS3505
ZGGG,2001-06-23 22:00,ZGGG 232200Z AUTO 02004KT 6SM 27/25 A2965 RMK SLP048 T02700250 IEM_DS3505
ZGGG,2001-06-23 23:00,ZGGG 232300Z AUTO 04002KT 6SM 27/24 A2965 RMK SLP048 T02700240 IEM_DS3505
ZGGG,2001-06-24 00:00,ZGGG 240000Z AUTO 14004KT 8SM 27/25 A2965 RMK 60012 SLP054 T02680247 52009 IEM_DS3505
ZGGG,2001-06-24 01:00,ZGGG 240100Z AUTO 12004KT 19SM RMK IEM_DS3505
ZGGG,2001-06-24 02:00,ZGGG 240200Z AUTO 12004KT 6SM 28/25 A2968 RMK SLP058 T02800250 IEM_DS3505
ZGGG,2001-06-24 03:00,ZGGG 240300Z AUTO 09004KT 7SM 28/25 A2968 RMK SLP061 T02840249 52007 IEM_DS3505
ZGGG,2001-06-24 04:00,ZGGG 240400Z AUTO 6SM 30/24 A2968 RMK SLP058 T03000240 IEM_DS3505
ZGGG,2001-06-24 05:00,ZGGG 240500Z AUTO 06004KT 19SM RMK IEM_DS3505
ZGGG,2001-06-24 06:00,ZGGG 240600Z AUTO 07006KT 11SM 32/25 A2962 RMK SLP045 T03180248 57016 IEM_DS3505
ZGGG,2001-06-24 07:00,ZGGG 240700Z AUTO 09006KT 6SM RMK IEM_DS3505
ZGGG,2001-06-24 08:00,ZGGG 240800Z AUTO 12006KT 6SM 33/26 A2959 RMK SLP026 T03300260 IEM_DS3505
ZGGG,2001-06-24 09:00,ZGGG 240900Z AUTO 18004KT 7SM 31/25 A2959 RMK SLP033 T03120250 57012 IEM_DS3505
ZGGG,2001-06-24 10:00,ZGGG 241000Z AUTO 32006KT 6SM RMK IEM_DS3505
ZGGG,2001-06-24 11:00,ZGGG 241100Z AUTO 08006KT 6SM 27/26 A2965 RMK SLP048 T02700260 IEM_DS3505
ZGGG,2001-06-24 12:00,ZGGG 241200Z AUTO 00000KT 4SM 26/25 A2968 RMK 60205 SLP060 T02600252 52026 IEM_DS3505
ZGGG,2001-06-24 13:00,ZGGG 241300Z AUTO 13004KT 6SM 27/25 A2968 RMK SLP058 T02700250 IEM_DS3505
ZGGG,2001-06-24 14:00,ZGGG 241400Z AUTO 32006KT 16SM 26/26 A2971 RMK SLP068 T02600260 IEM_DS3505
ZGGG,2001-06-24 15:00,ZGGG 241500Z AUTO 07002KT 5SM 26/25 A2971 RMK SLP071 T02600252 52011 IEM_DS3505
ZGGG,2001-06-24 16:00,ZGGG 241600Z AUTO 05004KT 6SM 26/26 A2971 RMK SLP068 T02600260 IEM_DS3505
ZGGG,2001-06-24 17:00,ZGGG 241700Z AUTO 04004KT 6SM 26/26 A2971 RMK SLP068 T02600260 IEM_DS3505
ZGGG,2001-06-24 18:00,ZGGG 241800Z AUTO 09004KT 8SM 26/25 A2968 RMK 60071 SLP062 T02590249 57008 IEM_DS3505
ZGGG,2001-06-24 19:00,ZGGG 241900Z AUTO 10004KT 6SM 26/25 A2968 RMK SLP058 T02600250 IEM_DS3505
ZGGG,2001-06-24 20:00,ZGGG 242000Z AUTO 11004KT 6SM 26/25 A2965 RMK SLP048 T02600250 IEM_DS3505
ZGGG,2001-06-24 21:00,ZGGG 242100Z AUTO 11002KT 9SM 25/24 A2965 RMK 70274 SLP049 T02540244 57013 IEM_DS3505
ZGGG,2001-06-24 22:00,ZGGG 242200Z AUTO 09006KT 6SM 26/24 A2965 RMK SLP048 T02600240 IEM_DS3505
ZGGG,2001-06-24 23:00,ZGGG 242300Z AUTO 10004KT 6SM 27/24 A2968 RMK SLP058 T02700240 IEM_DS3505
ZGGG,2001-06-25 00:00,ZGGG 250000Z AUTO 09002KT 11SM 26/24 A2970 RMK 60003 SLP065 T02650244 52015 IEM_DS3505
ZGGG,2001-06-25 01:00,ZGGG 250100Z AUTO 09006KT 6SM RMK IEM_DS3505
ZGGG,2001-06-25 02:00,ZGGG 250200Z AUTO 08006KT 6SM 28/24 A2968 RMK SLP058 T02800240 IEM_DS3505
ZGGG,2001-06-25 03:00,ZGGG 250300Z AUTO 11006KT 14SM 29/24 A2969 RMK SLP061 T02880242 57004 IEM_DS3505
ZGGG,2001-06-25 04:00,ZGGG 250400Z AUTO 09010KT 6SM 30/25 A2965 RMK SLP047 T03000250 IEM_DS3505
ZGGG,2001-06-25 05:00,ZGGG 250500Z AUTO 12008KT 2SM RMK IEM_DS3505
ZGGG,2001-06-25 06:00,ZGGG 250600Z AUTO 14004KT 16SM 31/24 A2962 RMK 60002 SLP043 T03120241 57017 IEM_DS3505
ZGGG,2001-06-25 07:00,ZGGG 250700Z AUTO 13014KT 6SM 29/24 A2962 RMK SLP038 T02900240 IEM_DS3505
ZGGG,2001-06-25 08:00,ZGGG 250800Z AUTO 16008KT 9SM 26/24 A2962 RMK SLP038 T02600240 IEM_DS3505
ZGGG,2001-06-25 09:00,ZGGG 250900Z AUTO 11004KT 10SM 27/26 A2962 RMK SLP038 T02710256 57006 IEM_DS3505
ZGGG,2001-06-25 10:00,ZGGG 251000Z AUTO 11006KT 6SM 27/25 A2962 RMK SLP038 T02700250 IEM_DS3505
ZGGG,2001-06-25 11:00,ZGGG 251100Z AUTO 10006KT 27/26 A2962 RMK SLP038 T02700260 IEM_DS3505
ZGGG,2001-06-25 12:00,ZGGG 251200Z AUTO 09006KT 11SM 26/25 A2965 RMK 60063 SLP047 T02620246 52009 IEM_DS3505
ZGGG,2001-06-25 13:00,ZGGG 251300Z AUTO 10008KT 6SM 26/24 A2965 RMK SLP048 T02600240 IEM_DS3505
ZGGG,2001-06-25 14:00,ZGGG 251400Z AUTO 10006KT 12SM 26/24 A2968 RMK SLP058 T02600240 IEM_DS3505
ZGGG,2001-06-25 15:00,ZGGG 251500Z AUTO 09006KT 10SM 26/24 A2968 RMK SLP056 T02560240 52009 IEM_DS3505
ZGGG,2001-06-25 16:00,ZGGG 251600Z AUTO 10008KT RMK IEM_DS3505
ZGGG,2001-06-25 17:00,ZGGG 251700Z AUTO 10006KT 6SM RMK IEM_DS3505
ZGGG,2001-06-25 18:00,ZGGG 251800Z AUTO 09006KT 7SM 25/24 A2963 RMK 60000 SLP039 T02540241 57016 IEM_DS3505
ZGGG,2001-06-25 19:00,ZGGG 251900Z AUTO 11004KT 6SM 26/24 A2962 RMK SLP038 T02600240 IEM_DS3505
ZGGG,2001-06-25 20:00,ZGGG 252000Z AUTO 10006KT 6SM 26/25 A2962 RMK SLP038 T02600250 IEM_DS3505
ZGGG,2001-06-25 21:00,ZGGG 252100Z AUTO 09006KT 8SM 25/24 A2962 RMK 70067 SLP040 T02530242 54000 IEM_DS3505
ZGGG,2001-06-25 22:00,ZGGG 252200Z AUTO 11006KT 6SM 26/24 A2962 RMK SLP038 T02600240 IEM_DS3505
ZGGG,2001-06-25 23:00,ZGGG 252300Z AUTO 11006KT 6SM RMK IEM_DS3505
ZGGG,2001-06-26 00:00,ZGGG 260000Z AUTO 11006KT 15SM 27/24 A2965 RMK 60002 SLP047 T02680245 52007 IEM_DS3505
ZGGG,2001-06-26 01:00,ZGGG 260100Z AUTO 10010KT 6SM RMK IEM_DS3505
ZGGG,2001-06-26 02:00,ZGGG 260200Z AUTO 12008KT 6SM 27/26 A2965 RMK SLP048 T02700260 IEM_DS3505
ZGGG,2001-06-26 03:00,ZGGG 260300Z AUTO 14004KT 9SM 27/25 A2965 RMK SLP048 T02740247 52001 IEM_DS3505
ZGGG,2001-06-26 04:00,ZGGG 260400Z AUTO 10006KT 6SM 28/26 A2962 RMK SLP038 T02800260 IEM_DS3505
ZGGG,2001-06-26 06:00,ZGGG 260600Z AUTO 14004KT 16SM 27/25 A2959 RMK 60012 SLP036 T02740249 57012 IEM_DS3505
ZGGG,2001-06-26 07:00,ZGGG 260700Z AUTO 14008KT 6SM 29/26 A2959 RMK SLP027 T02900260 IEM_DS3505
ZGGG,2001-06-26 08:00,ZGGG 260800Z AUTO 17016KT 6SM 26/25 A2959 RMK SLP027 T02600250 IEM_DS3505
ZGGG,2001-06-26 09:00,ZGGG 260900Z AUTO 14006KT 11SM 26/24 A2959 RMK SLP031 T02560240 57005 IEM_DS3505
ZGGG,2001-06-26 10:00,ZGGG 261000Z AUTO 09008KT 6SM 26/25 A2959 RMK SLP027 T02600250 IEM_DS3505
ZGGG,2001-06-26 11:00,ZGGG 261100Z AUTO 11008KT 6SM 26/24 A2962 RMK SLP038 T02600240 IEM_DS3505
ZGGG,2001-06-26 12:00,ZGGG 261200Z AUTO 12010KT 6SM RMK IEM_DS3505
ZGGG,2001-06-26 13:00,ZGGG 261300Z AUTO 13008KT 6SM RMK IEM_DS3505
ZGGG,2001-06-26 14:00,ZGGG 261400Z AUTO 12010KT 6SM 25/24 A2968 RMK SLP058 T02500240 IEM_DS3505
ZGGG,2001-06-26 15:00,ZGGG 261500Z AUTO 11004KT 7SM 25/24 A2969 RMK SLP062 T02490239 52017 IEM_DS3505
ZGGG,2001-06-26 16:00,ZGGG 261600Z AUTO 10010KT 6SM 25/24 A2968 RMK SLP058 T02500240 IEM_DS3505
ZGGG,2001-06-26 17:00,ZGGG 261700Z AUTO 10010KT 6SM 25/24 A2968 RMK SLP058 T02500240 IEM_DS3505
ZGGG,2001-06-26 18:00,ZGGG 261800Z AUTO 09004KT 5SM 25/24 A2965 RMK 60004 SLP052 T02510241 57010 IEM_DS3505
ZGGG,2001-06-26 19:00,ZGGG 261900Z AUTO 07004KT 6SM 25/25 A2965 RMK SLP048 T02500250 IEM_DS3505
ZGGG,2001-06-26 20:00,ZGGG 262000Z AUTO 09006KT 25/25 A2965 RMK SLP048 T02500250 IEM_DS3505
ZGGG,2001-06-26 21:00,ZGGG 262100Z AUTO 11004KT 7SM 25/24 A2965 RMK 70022 SLP049 T02530243 57003 IEM_DS3505
ZGGG,2001-06-26 22:00,ZGGG 262200Z AUTO 23002KT 6SM 25/25 A2968 RMK SLP058 T02500250 IEM_DS3505
ZGGG,2001-06-26 23:00,ZGGG 262300Z AUTO 11006KT 6SM 25/25 A2968 RMK SLP058 T02500250 IEM_DS3505
ZGGG,2001-06-27 00:00,ZGGG 270000Z AUTO 14004KT 7SM 25/25 A2968 RMK 60051 SLP060 T02540247 52011 IEM_DS3505
ZGGG,2001-06-27 01:00,ZGGG 270100Z AUTO 16004KT 6SM 25/25 A2968 RMK SLP058 T02500250 IEM_DS3505
ZGGG,2001-06-27 02:00,ZGGG 270200Z AUTO 15004KT 6SM 26/26 A2971 RMK SLP068 T02600260 IEM_DS3505
ZGGG,2001-06-27 03:00,ZGGG 270300Z AUTO 14006KT 9SM 27/25 A2968 RMK SLP067 T02710253 52007 IEM_DS3505
ZGGG,2001-06-27 04:00,ZGGG 270400Z AUTO 17006KT 6SM 24/24 A2974 RMK SLP079 T02400240 IEM_DS3505
ZGGG,2001-06-27 05:30,ZGGG 270530Z AUTO 13004KT 9SM 24/24 A2971 RMK SLP069 T02400240 IEM_DS3505
ZGGG,2001-06-27 06:00,ZGGG 270600Z AUTO 09004KT 2 1/2SM 24/24 A2972 RMK 60217 SLP071 T02400236 52004 IEM_DS3505
ZGGG,2001-06-27 07:30,ZGGG 270730Z AUTO 15006KT 6SM 24/24 A2971 RMK SLP069 T02400240 IEM_DS3505
ZGGG,2001-06-27 08:00,ZGGG 270800Z AUTO 14004KT 6SM 24/24 A2971 RMK SLP069 T02400240 IEM_DS3505
ZGGG,2001-06-27 09:00,ZGGG 270900Z AUTO 18004KT 2 1/2SM 25/24 A2971 RMK SLP068 T02460240 57003 IEM_DS3505
ZGGG,2001-06-27 10:00,ZGGG 271000Z AUTO 12008KT 15SM 25/25 A2971 RMK SLP068 T02500250 IEM_DS3505
ZGGG,2001-06-27 11:00,ZGGG 271100Z AUTO 12006KT 6SM 24/24 A2971 RMK SLP069 T02400240 IEM_DS3505
ZGGG,2001-06-27 12:00,ZGGG 271200Z AUTO 14006KT 2SM 24/23 A2974 RMK 60035 SLP075 T02410234 52007 IEM_DS3505
ZGGG,2001-06-27 13:00,ZGGG 271300Z AUTO 11010KT 6SM 24/24 A2974 RMK SLP079 T02400240 IEM_DS3505
ZGGG,2001-06-27 14:00,ZGGG 271400Z AUTO 11006KT 6SM RMK IEM_DS3505
ZGGG,2001-06-27 15:00,ZGGG 271500Z AUTO 09004KT 2SM 24/23 A2974 RMK SLP077 T02380231 52002 IEM_DS3505
ZGGG,2001-06-27 16:00,ZGGG 271600Z AUTO 6SM 24/24 A2974 RMK SLP079 T02400240 IEM_DS3505
ZGGG,2001-06-27 17:00,ZGGG 271700Z AUTO 30002KT 24/24 A2971 RMK SLP069 T02400240 IEM_DS3505
ZGGG,2001-06-27 18:00,ZGGG 271800Z AUTO 14004KT 7SM 24/23 A2971 RMK 60001 SLP074 T02380232 57003 IEM_DS3505
ZGGG,2001-06-27 19:00,ZGGG 271900Z AUTO 10008KT 6SM 24/24 A2971 RMK SLP069 T02400240 IEM_DS3505
ZGGG,2001-06-27 20:00,ZGGG 272000Z AUTO 10SM 24/24 A2971 RMK SLP069 T02400240 IEM_DS3505
ZGGG,2001-06-27 21:00,ZGGG 272100Z AUTO 09002KT 6SM 24/23 A2971 RMK 70301 SLP065 T02400233 57009 IEM_DS3505
ZGGG,2001-06-27 22:00,ZGGG 272200Z AUTO 08008KT 6SM RMK IEM_DS3505
ZGGG,2001-06-27 23:00,ZGGG 272300Z AUTO 10008KT 6SM 25/25 A2974 RMK SLP078 T02500250 IEM_DS3505
ZGGG,2001-06-28 00:00,ZGGG 280000Z AUTO 14004G21KT 5SM 25/24 A2974 RMK 60028 SLP079 T02500244 52014 IEM_DS3505
ZGGG,2001-06-28 01:00,ZGGG 280100Z AUTO 11008KT 12SM RMK IEM_DS3505
ZGGG,2001-06-28 02:00,ZGGG 280200Z AUTO 12004KT 6SM 27/26 A2977 RMK SLP088 T02700260 IEM_DS3505
ZGGG,2001-06-28 03:00,ZGGG 280300Z AUTO 11002KT 7SM 25/25 A2977 RMK SLP089 T02530246 52010 IEM_DS3505
ZGGG,2001-06-28 04:00,ZGGG 280400Z AUTO 14004KT 6SM 28/26 A2974 RMK SLP078 T02800260 IEM_DS3505
ZGGG,2001-06-28 05:00,ZGGG 280500Z AUTO 16008KT 6SM RMK IEM_DS3505
ZGGG,2001-06-28 06:00,ZGGG 280600Z AUTO 16006KT 17SM 31/26 A2973 RMK 60043 SLP074 T03060262 57015 IEM_DS3505
ZGGG,2001-06-28 07:00,ZGGG 280700Z AUTO 17010KT 6SM 32/25 A2971 RMK SLP067 T03200250 IEM_DS3505
ZGGG,2001-06-28 08:00,ZGGG 280800Z AUTO 16012KT 6SM 32/24 A2968 RMK SLP057 T03200240 IEM_DS3505
ZGGG,2001-06-28 09:00,ZGGG 280900Z AUTO 16008KT 19SM 31/23 A2968 RMK SLP061 T03140231 57012 IEM_DS3505
ZGGG,2001-06-28 10:00,ZGGG 281000Z AUTO 16010KT 6SM 31/24 A2968 RMK SLP057 T03100240 IEM_DS3505
ZGGG,2001-06-28 11:00,ZGGG 281100Z AUTO 16006KT 6SM 30/24 A2971 RMK SLP068 T03000240 IEM_DS3505
ZGGG,2001-06-28 12:00,ZGGG 281200Z AUTO 16004KT 14SM 29/25 A2974 RMK SLP075 T02870246 52013 IEM_DS3505
ZGGG,2001-06-28 13:00,ZGGG 281300Z AUTO 16006KT 28/24 A2974 RMK SLP078 T02800240 IEM_DS3505
ZGGG,2001-06-28 14:00,ZGGG 281400Z AUTO 16006KT 6SM 28/25 A2977 RMK SLP088 T02800250 IEM_DS3505
ZGGG,2001-06-28 15:00,ZGGG 281500Z AUTO 09002KT 12SM 27/25 A2980 RMK SLP096 T02700247 52021 IEM_DS3505
ZGGG,2001-06-28 16:00,ZGGG 281600Z AUTO 14002KT 6SM 27/24 A2977 RMK SLP088 T02700240 IEM_DS3505
ZGGG,2001-06-28 17:00,ZGGG 281700Z AUTO 13002KT 6SM 27/24 A2974 RMK SLP078 T02700240 IEM_DS3505
ZGGG,2001-06-28 18:00,ZGGG 281800Z AUTO 00000KT 11SM 26/24 A2974 RMK SLP076 T02560237 57019 IEM_DS3505
ZGGG,2001-06-28 19:00,ZGGG 281900Z AUTO 09006KT 6SM 27/24 A2974 RMK SLP078 T02700240 IEM_DS3505
ZGGG,2001-06-28 20:00,ZGGG 282000Z AUTO 04004KT 6SM 26/24 A2971 RMK SLP068 T02600240 IEM_DS3505
ZGGG,2001-06-28 21:00,ZGGG 282100Z AUTO 00000KT 12SM 26/24 A2974 RMK 70070 SLP075 T02560242 57001 IEM_DS3505
ZGGG,2001-06-28 22:00,ZGGG 282200Z AUTO 06004KT 6SM 25/25 A2974 RMK SLP078 T02500250 IEM_DS3505
ZGGG,2001-06-28 23:00,ZGGG 282300Z AUTO 6SM 26/26 A2977 RMK SLP088 T02600260 IEM_DS3505
ZGGG,2001-06-29 00:00,ZGGG 290000Z AUTO 00000KT 11SM 27/25 A2977 RMK 70043 SLP089 T02730252 52013 IEM_DS3505
ZGGG,2001-06-29 01:00,ZGGG 290100Z AUTO 08004KT 28/25 A2977 RMK SLP088 T02800250 IEM_DS3505
ZGGG,2001-06-29 02:00,ZGGG 290200Z AUTO 03004KT RMK IEM_DS3505
ZGGG,2001-06-29 03:00,ZGGG 290300Z AUTO 16004KT 11SM 31/24 A2977 RMK SLP090 T03110245 52002 IEM_DS3505
ZGGG,2001-06-29 04:00,ZGGG 290400Z AUTO 15004KT 6SM 32/24 A2977 RMK SLP087 T03200240 IEM_DS3505
ZGGG,2001-06-29 05:00,ZGGG 290500Z AUTO 13006KT 6SM 33/24 A2974 RMK SLP077 T03300240 IEM_DS3505
ZGGG,2001-06-29 06:00,ZGGG 290600Z AUTO 11008KT 13SM 31/24 A2974 RMK 60003 SLP077 T03130241 57013 IEM_DS3505
ZGGG,2001-06-29 07:00,ZGGG 290700Z AUTO 12008KT 6SM RMK IEM_DS3505
ZGGG,2001-06-29 08:00,ZGGG 290800Z AUTO 13006KT 9SM RMK IEM_DS3505
ZGGG,2001-06-29 09:00,ZGGG 290900Z AUTO 00000KT 11SM 30/24 A2968 RMK SLP061 T02980241 57016 IEM_DS3505
ZGGG,2001-06-29 10:00,ZGGG 291000Z AUTO 11002KT 6SM 31/23 A2968 RMK SLP057 T03100230 IEM_DS3505
ZGGG,2001-06-29 11:00,ZGGG 291100Z AUTO 10006KT 6SM 28/24 A2968 RMK SLP058 T02800240 IEM_DS3505
ZGGG,2001-06-29 12:00,ZGGG 291200Z AUTO 00000KT 11SM 28/25 A2973 RMK 60000 SLP076 T02800246 52014 IEM_DS3505
ZGGG,2001-06-29 13:00,ZGGG 291300Z AUTO 10004KT 6SM 28/24 A2974 RMK SLP078 T02800240 IEM_DS3505
ZGGG,2001-06-29 14:00,ZGGG 291400Z AUTO 08002KT 6SM 28/24 A2977 RMK SLP088 T02800240 IEM_DS3505
ZGGG,2001-06-29 15:00,ZGGG 291500Z AUTO 11004KT 11SM 27/24 A2977 RMK SLP086 T02740237 52011 IEM_DS3505
ZGGG,2001-06-29 16:00,ZGGG 291600Z AUTO 09004KT 6SM 28/24 A2974 RMK SLP078 T02800240 IEM_DS3505
ZGGG,2001-06-29 17:00,ZGGG 291700Z AUTO 11002KT 6SM 27/24 A2974 RMK SLP078 T02700240 IEM_DS3505
ZGGG,2001-06-29 18:00,ZGGG 291800Z AUTO 09002KT 9SM 26/24 A2971 RMK SLP071 T02600238 57015 IEM_DS3505
ZGGG,2001-06-29 19:00,ZGGG 291900Z AUTO 6SM 27/24 A2971 RMK SLP068 T02700240 IEM_DS3505
ZGGG,2001-06-29 20:00,ZGGG 292000Z AUTO 6SM 27/24 A2971 RMK SLP068 T02700240 IEM_DS3505
ZGGG,2001-06-29 21:00,ZGGG 292100Z AUTO 00000KT 9SM 26/24 A2971 RMK 70004 SLP070 T02620239 57001 IEM_DS3505
ZGGG,2001-06-29 22:00,ZGGG 292200Z AUTO 03004KT 6SM 27/24 A2974 RMK SLP078 T02700240 IEM_DS3505
ZGGG,2001-06-29 23:00,ZGGG 292300Z AUTO 05006KT 6SM 27/24 A2971 RMK SLP068 T02700240 IEM_DS3505
ZGGG,2001-06-30 00:00,ZGGG 300000Z AUTO 07006KT 16SM 29/24 A2972 RMK 70004 SLP072 T02910243 52002 IEM_DS3505
ZGGG,2001-06-30 01:00,ZGGG 300100Z AUTO 05008KT 6SM RMK IEM_DS3505
ZGGG,2001-06-30 02:00,ZGGG 300200Z AUTO 07006KT 6SM 31/24 A2971 RMK SLP067 T03100240 IEM_DS3505
ZGGG,2001-06-30 03:00,ZGGG 300300Z AUTO 09004KT 16SM 32/24 A2971 RMK SLP065 T03210240 57007 IEM_DS3505
ZGGG,2001-06-30 04:00,ZGGG 300400Z AUTO 12008KT 6SM 32/24 A2968 RMK SLP057 T03200240 IEM_DS3505
ZGGG,2001-06-30 06:00,ZGGG 300600Z AUTO 09008KT 17SM 33/24 A2965 RMK SLP045 T03320239 57020 IEM_DS3505
ZGGG,2001-06-30 08:00,ZGGG 300800Z AUTO 10008KT 6SM RMK IEM_DS3505
ZGGG,2001-06-30 09:00,ZGGG 300900Z AUTO 14006KT 17SM 32/24 A2959 RMK SLP033 T03200238 57012 IEM_DS3505
ZGGG,2001-06-30 10:00,ZGGG 301000Z AUTO 10006KT RMK IEM_DS3505
ZGGG,2001-06-30 11:00,ZGGG 301100Z AUTO 13006KT 6SM 30/25 A2965 RMK SLP047 T03000250 IEM_DS3505
ZGGG,2001-06-30 12:00,ZGGG 301200Z AUTO 00000KT 12SM 26/25 A2968 RMK 60110 SLP052 T02590246 52019 IEM_DS3505
ZGGG,2001-06-30 13:00,ZGGG 301300Z AUTO 10004KT 6SM 27/26 A2968 RMK SLP058 T02700260 IEM_DS3505
ZGGG,2001-06-30 14:00,ZGGG 301400Z AUTO 10006KT 6SM 27/25 A2968 RMK SLP058 T02700250 IEM_DS3505
ZGGG,2001-06-30 15:00,ZGGG 301500Z AUTO 00000KT 10SM 26/25 A2968 RMK SLP057 T02640250 52005 IEM_DS3505
ZGGG,2001-06-30 16:00,ZGGG 301600Z AUTO 05004KT 6SM 27/25 A2965 RMK SLP048 T02700250 IEM_DS3505
ZGGG,2001-06-30 17:00,ZGGG 301700Z AUTO 06004KT 6SM 27/24 A2962 RMK SLP038 T02700240 IEM_DS3505
ZGGG,2001-06-30 18:00,ZGGG 301800Z AUTO 36002KT 11SM 26/25 A2962 RMK 60000 SLP041 T02560246 57016 IEM_DS3505
ZGGG,2001-06-30 19:00,ZGGG 301900Z AUTO 04008KT 6SM 27/24 A2962 RMK SLP038 T02700240 IEM_DS3505
ZGGG,2001-06-30 20:00,ZGGG 302000Z AUTO 04006KT 6SM 26/24 A2959 RMK SLP027 T02600240 IEM_DS3505
ZGGG,2001-06-30 21:00,ZGGG 302100Z AUTO 36004KT 11SM 26/24 A2962 RMK 70112 SLP035 T02640235 57006 IEM_DS3505
ZGGG,2001-06-30 22:00,ZGGG 302200Z AUTO 04006KT 6SM 26/24 A2962 RMK SLP038 T02600240 IEM_DS3505
ZGGG,2001-06-30 23:00,ZGGG 302300Z AUTO 05008KT 13SM 27/24 A2962 RMK SLP038 T02700240 IEM_DS3505
ZGGG,2001-07-01 00:00,ZGGG 010000Z AUTO 34002KT 12SM 26/24 A2965 RMK 60004 SLP048 T02610241 52012 IEM_DS3505
ZGGG,2001-07-01 01:00,ZGGG 010100Z AUTO 05006KT 6SM 27/25 A2965 RMK T02700250 IEM_DS3505
ZGGG,2001-07-01 02:00,ZGGG 010200Z AUTO 05008KT 6SM 28/25 A2965 RMK T02800250 IEM_DS3505
ZGGG,2001-07-01 03:00,ZGGG 010300Z AUTO 11006KT 16SM 30/24 RMK SLP041 T03010241 57006 IEM_DS3505
ZGGG,2001-07-01 04:00,ZGGG 010400Z AUTO 07010KT 31/24 A2962 RMK T03100240 IEM_DS3505
ZGGG,2001-07-01 05:00,ZGGG 010500Z AUTO 07008KT 6SM RMK IEM_DS3505
ZGGG,2001-07-01 06:00,ZGGG 010600Z AUTO 09008G19KT 17SM 29/25 RMK 60004 SLP024 T02920248 57017 IEM_DS3505
ZGGG,2001-07-01 07:00,ZGGG 010700Z AUTO 10012KT 6SM 30/24 A2956 RMK T03000240 IEM_DS3505
ZGGG,2001-07-01 08:00,ZGGG 010800Z AUTO 09010KT 6SM RMK IEM_DS3505
ZGGG,2001-07-01 09:00,ZGGG 010900Z AUTO 09010G25KT 19SM 29/24 A2956 RMK SLP016 T02870240 57008 IEM_DS3505
ZGGG,2001-07-01 10:00,ZGGG 011000Z AUTO 09012KT 6SM RMK IEM_DS3505
ZGGG,2001-07-01 12:00,ZGGG 011200Z AUTO 11006KT 16SM 26/24 A2959 RMK 60008 SLP032 T02580239 52015 IEM_DS3505
ZGGG,2001-07-01 13:00,ZGGG 011300Z AUTO 09012KT 6SM 27/24 A2962 RMK T02700240 IEM_DS3505
ZGGG,2001-07-01 14:00,ZGGG 011400Z AUTO 10010KT 26/24 A2965 RMK T02600240 IEM_DS3505
ZGGG,2001-07-01 15:00,ZGGG 011500Z AUTO 11008KT 12SM 26/24 A2965 RMK SLP047 T02560239 52016 IEM_DS3505
ZGGG,2001-07-01 16:00,ZGGG 011600Z AUTO 08014KT 6SM RMK IEM_DS3505
ZGGG,2001-07-01 17:00,ZGGG 011700Z AUTO 09010KT 6SM 26/24 A2962 RMK T02600240 IEM_DS3505
ZGGG,2001-07-01 18:00,ZGGG 011800Z AUTO 09006KT 11SM 25/24 A2962 RMK 60031 SLP037 T02520243 57010 IEM_DS3505
ZGGG,2001-07-01 19:00,ZGGG 011900Z AUTO 08010KT 6SM 26/25 A2959 RMK T02600250 IEM_DS3505
ZGGG,2001-07-01 20:00,ZGGG 012000Z AUTO 09010KT RMK IEM_DS3505
ZGGG,2001-07-01 21:00,ZGGG 012100Z AUTO 11008KT 11SM 25/24 RMK 70050 SLP034 T02510241 57003 IEM_DS3505
ZGGG,2001-07-01 23:00,ZGGG 012300Z AUTO 09014G23KT 26/24 A2962 RMK T02600240 IEM_DS3505
ZGGG,2001-07-02 00:00,ZGGG 020000Z AUTO 14004KT 11SM 25/24 RMK 60016 SLP045 T02530242 52010 IEM_DS3505
ZGGG,2001-07-02 01:00,ZGGG 020100Z AUTO 10012KT RMK IEM_DS3505
ZGGG,2001-07-02 02:00,ZGGG 020200Z AUTO 10012KT 6SM RMK IEM_DS3505
ZGGG,2001-07-02 03:00,ZGGG 020300Z AUTO 11010KT 16SM 28/24 RMK SLP056 T02760242 52011 IEM_DS3505
ZGGG,2001-07-02 04:00,ZGGG 020400Z AUTO 11012KT 6SM RMK IEM_DS3505
ZGGG,2001-07-02 05:00,ZGGG 020500Z AUTO 11010KT 14SM RMK IEM_DS3505
ZGGG,2001-07-02 06:00,ZGGG 020600Z AUTO 04004KT 5SM 26/25 A2965 RMK 60028 SLP048 T02640254 57008 IEM_DS3505
ZGGG,2001-07-02 07:00,ZGGG 020700Z AUTO 11010G19KT RMK IEM_DS3505
ZGGG,2001-07-02 08:00,ZGGG 020800Z AUTO 10012KT 6SM 28/24 A2965 RMK T02800240 IEM_DS3505
ZGGG,2001-07-02 09:00,ZGGG 020900Z AUTO 11006KT 14SM 28/24 RMK SLP045 T02780242 57003 IEM_DS3505
ZGGG,2001-07-02 10:00,ZGGG 021000Z AUTO 10010KT 6SM 28/24 A2965 RMK T02800240 IEM_DS3505
ZGGG,2001-07-02 11:00,ZGGG 021100Z AUTO 10008KT RMK IEM_DS3505
ZGGG,2001-07-02 12:00,ZGGG 021200Z AUTO 11006KT 11SM 26/24 A2968 RMK 60016 SLP062 T02590245 52017 IEM_DS3505
ZGGG,2001-07-02 13:00,ZGGG 021300Z AUTO 11006KT 6SM 26/25 A2971 RMK T02600250 IEM_DS3505
ZGGG,2001-07-02 14:00,ZGGG 021400Z AUTO 11004KT 6SM 26/25 A2971 RMK T02600250 IEM_DS3505
ZGGG,2001-07-02 15:00,ZGGG 021500Z AUTO 09004KT 12SM 26/25 A2974 RMK SLP074 T02600246 52012 IEM_DS3505
ZGGG,2001-07-02 16:00,ZGGG 021600Z AUTO 10006KT 6SM 26/25 A2974 RMK T02600250 IEM_DS3505
ZGGG,2001-07-02 18:00,ZGGG 021800Z AUTO 09004KT 10SM 26/24 RMK SLP065 T02560245 57009 IEM_DS3505
ZGGG,2001-07-02 19:00,ZGGG 021900Z AUTO 12006KT 6SM RMK IEM_DS3505
ZGGG,2001-07-02 20:00,ZGGG 022000Z AUTO 10006KT 6SM RMK IEM_DS3505
ZGGG,2001-07-02 21:00,ZGGG 022100Z AUTO 11004KT 9SM 25/24 A2968 RMK 70057 SLP064 T02510242 57001 IEM_DS3505
ZGGG,2001-07-02 22:00,ZGGG 022200Z AUTO 10006KT 6SM 25/23 A2968 RMK T02500230 IEM_DS3505
ZGGG,2001-07-02 23:00,ZGGG 022300Z AUTO 10008KT 45SM RMK IEM_DS3505
ZGGG,2001-07-03 00:00,ZGGG 030000Z AUTO 09006KT 14SM 26/24 A2971 RMK 60004 SLP070 T02630241 52006 IEM_DS3505
ZGGG,2001-07-03 01:00,ZGGG 030100Z AUTO 09010KT RMK IEM_DS3505
ZGGG,2001-07-03 02:00,ZGGG 030200Z AUTO 11008KT 1/8SM 29/24 A2971 RMK T02900240 IEM_DS3505
ZGGG,2001-07-03 03:00,ZGGG 030300Z AUTO 11008KT 14SM 30/24 A2971 RMK SLP067 T02990241 57002 IEM_DS3505
ZGGG,2001-07-03 04:00,ZGGG 030400Z AUTO 11010KT 6SM 31/25 A2968 RMK T03100250 IEM_DS3505
ZGGG,2001-07-03 05:00,ZGGG 030500Z AUTO 12008KT RMK IEM_DS3505
ZGGG,2001-07-03 06:00,ZGGG 030600Z AUTO 11006KT 14SM 30/24 A2965 RMK SLP051 T03050236 57016 IEM_DS3505
ZGGG,2001-07-03 07:00,ZGGG 030700Z AUTO 12010KT 6SM RMK IEM_DS3505
ZGGG,2001-07-03 08:00,ZGGG 030800Z AUTO 14008KT 6SM RMK IEM_DS3505
ZGGG,2001-07-03 09:00,ZGGG 030900Z AUTO 14006KT 13SM 32/22 RMK SLP043 T03160217 57008 IEM_DS3505
ZGGG,2001-07-03 10:00,ZGGG 031000Z AUTO 14008KT 6SM 32/23 A2965 RMK T03200230 IEM_DS3505
ZGGG,2001-07-03 11:00,ZGGG 031100Z AUTO 16004KT 6SM 31/22 A2965 RMK T03100220 IEM_DS3505
ZGGG,2001-07-03 12:00,ZGGG 031200Z AUTO 00000KT 12SM 29/24 A2965 RMK SLP054 T02920235 52011 IEM_DS3505
ZGGG,2001-07-03 13:00,ZGGG 031300Z AUTO 16004KT 6SM 29/24 A2968 RMK T02900240 IEM_DS3505
ZGGG,2001-07-03 14:00,ZGGG 031400Z AUTO 10002KT 6SM 28/25 A2971 RMK T02800250 IEM_DS3505
ZGGG,2001-07-03 15:00,ZGGG 031500Z AUTO 00000KT 12SM 27/24 A2971 RMK SLP069 T02670243 52015 IEM_DS3505
ZGGG,2001-07-03 16:00,ZGGG 031600Z AUTO 6SM 26/24 A2971 RMK T02600240 IEM_DS3505
ZGGG,2001-07-03 17:00,ZGGG 031700Z AUTO 08002KT 6SM 26/24 A2968 RMK T02600240 IEM_DS3505
ZGGG,2001-07-03 18:00,ZGGG 031800Z AUTO 00000KT 10SM 25/24 A2965 RMK SLP052 T02510237 57017 IEM_DS3505
ZGGG,2001-07-03 19:00,ZGGG 031900Z AUTO 10002KT 6SM 25/24 A2965 RMK T02500240 IEM_DS3505
ZGGG,2001-07-03 20:00,ZGGG 032000Z AUTO 6SM 25/24 A2962 RMK T02500240 IEM_DS3505
ZGGG,2001-07-03 21:00,ZGGG 032100Z AUTO 36004KT 4SM 25/24 A2962 RMK 70000 SLP038 T02500238 57014 IEM_DS3505
ZGGG,2001-07-03 22:00,ZGGG 032200Z AUTO 6SM 24/24 A2962 RMK T02400240 IEM_DS3505
ZGGG,2001-07-03 23:00,ZGGG 032300Z AUTO 27/24 A2962 RMK T02700240 IEM_DS3505
ZGGG,2001-07-04 00:00,ZGGG 040000Z AUTO 32002KT 2 1/2SM 27/24 A2962 RMK SLP039 T02700241 52001 IEM_DS3505
ZGGG,2001-07-04 01:00,ZGGG 040100Z AUTO 34006KT 6SM 29/24 A2962 RMK T02900240 IEM_DS3505
ZGGG,2001-07-04 02:00,ZGGG 040200Z AUTO 34006KT 6SM 30/24 A2962 RMK T03000240 IEM_DS3505
ZGGG,2001-07-04 03:00,ZGGG 040300Z AUTO 32004KT 7SM 32/24 A2959 RMK SLP025 T03160243 57014 IEM_DS3505
ZGGG,2001-07-04 04:00,ZGGG 040400Z AUTO 33008KT 6SM 32/24 A2956 RMK T03200240 IEM_DS3505
ZGGG,2001-07-04 05:00,ZGGG 040500Z AUTO 35008KT 6SM 33/24 A2953 RMK T03300240 IEM_DS3505
ZGGG,2001-07-04 06:00,ZGGG 040600Z AUTO 36008KT 11SM 34/24 A2950 RMK SLP996 T03440241 57029 IEM_DS3505
ZGGG,2001-07-04 07:00,ZGGG 040700Z AUTO 35008KT 6SM 35/24 A2947 RMK T03500240 IEM_DS3505
ZGGG,2001-07-04 08:00,ZGGG 040800Z AUTO 35008KT 6SM 36/24 A2944 RMK T03600240 IEM_DS3505
ZGGG,2001-07-04 09:00,ZGGG 040900Z AUTO 34008KT 10SM 36/20 RMK SLP968 T03550204 57028 IEM_DS3505
ZGGG,2001-07-04 10:00,ZGGG 041000Z AUTO 34006KT 6SM 35/21 A2941 RMK T03500210 IEM_DS3505
ZGGG,2001-07-04 11:00,ZGGG 041100Z AUTO 32006KT 6SM 34/23 A2941 RMK T03400230 IEM_DS3505
ZGGG,2001-07-04 12:00,ZGGG 041200Z AUTO 32002KT 10SM 33/22 A2941 RMK SLP968 T03260224 54000 IEM_DS3505
ZGGG,2001-07-04 13:00,ZGGG 041300Z AUTO 32004KT 6SM 33/23 A2941 RMK T03300230 IEM_DS3505
ZGGG,2001-07-04 14:00,ZGGG 041400Z AUTO 33006KT 6SM 32/24 A2941 RMK T03200240 IEM_DS3505
ZGGG,2001-07-04 15:00,ZGGG 041500Z AUTO 34002KT 9SM 30/24 A2941 RMK SLP971 T03010235 52003 IEM_DS3505
ZGGG,2001-07-04 16:00,ZGGG 041600Z AUTO 34002KT 6SM 31/24 A2941 RMK T03100240 IEM_DS3505
ZGGG,2001-07-04 17:00,ZGGG 041700Z AUTO 35004KT 6SM 30/24 A2938 RMK T03000240 IEM_DS3505
ZGGG,2001-07-04 18:00,ZGGG 041800Z AUTO 34006KT 9SM 29/22 A2935 RMK SLP947 T02920224 57023 IEM_DS3505
ZGGG,2001-07-04 19:00,ZGGG 041900Z AUTO 36006KT 6SM 29/23 A2932 RMK T02900230 IEM_DS3505
ZGGG,2001-07-04 20:00,ZGGG 042000Z AUTO 36004KT 6SM 29/23 A2932 RMK T02900230 IEM_DS3505
ZGGG,2001-07-04 21:00,ZGGG 042100Z AUTO 34006KT 10SM 29/22 A2929 RMK SLP928 T02880219 57019 IEM_DS3505
ZGGG,2001-07-04 22:00,ZGGG 042200Z AUTO 34004KT 6SM 28/23 A2929 RMK T02800230 IEM_DS3505
ZGGG,2001-07-04 23:00,ZGGG 042300Z AUTO 34006KT 6SM 28/22 A2929 RMK T02800220 IEM_DS3505
ZGGG,2001-07-05 00:00,ZGGG 050000Z AUTO 34006KT 12SM 30/22 A2929 RMK SLP933 T03040223 52005 IEM_DS3505
ZGGG,2001-07-05 01:00,ZGGG 050100Z AUTO 36012KT 6SM 33/22 A2929 RMK T03300220 IEM_DS3505
ZGGG,2001-07-05 02:00,ZGGG 050200Z AUTO 36010KT 6SM 34/23 A2929 RMK T03400230 IEM_DS3505
ZGGG,2001-07-05 03:00,ZGGG 050300Z AUTO 36008KT 12SM 35/23 A2929 RMK SLP932 T03470232 57001 IEM_DS3505
ZGGG,2001-07-05 04:00,ZGGG 050400Z AUTO 02016KT 6SM RMK IEM_DS3505
ZGGG,2001-07-05 05:00,ZGGG 050500Z AUTO 02014KT 6SM RMK IEM_DS3505
ZGGG,2001-07-05 06:00,ZGGG 050600Z AUTO 04004KT 14SM 35/24 A2926 RMK SLP920 T03500239 57012 IEM_DS3505
ZGGG,2001-07-05 07:00,ZGGG 050700Z AUTO 01012KT 6SM RMK IEM_DS3505
ZGGG,2001-07-05 08:00,ZGGG 050800Z AUTO 02012KT 6SM 35/23 A2923 RMK T03500230 IEM_DS3505
ZGGG,2001-07-05 09:00,ZGGG 050900Z AUTO 36004KT 11SM 33/24 A2923 RMK SLP905 T03300240 57015 IEM_DS3505
ZGGG,2001-07-05 10:00,ZGGG 051000Z AUTO 32004KT 10SM 33/24 A2921 RMK SLP901 T03300238 57014 IEM_DS3505
ZGGG,2001-07-05 11:00,ZGGG 051100Z AUTO 36006KT 6SM 34/24 A2923 RMK T03400240 IEM_DS3505
ZGGG,2001-07-05 12:00,ZGGG 051200Z AUTO 34004KT 9SM 32/24 A2923 RMK SLP907 T03230243 52002 IEM_DS3505
ZGGG,2001-07-05 13:00,ZGGG 051300Z AUTO 07014KT 6SM 31/25 A2926 RMK T03100250 IEM_DS3505
ZGGG,2001-07-05 14:00,ZGGG 051400Z AUTO 07012KT 6SM 28/24 A2929 RMK T02800240 IEM_DS3505
ZGGG,2001-07-05 15:00,ZGGG 051500Z AUTO 36006KT 10SM 28/24 A2926 RMK SLP916 T02750244 52009 IEM_DS3505
ZGGG,2001-07-05 16:00,ZGGG 051600Z AUTO 35006KT RMK IEM_DS3505
ZGGG,2001-07-05 17:00,ZGGG 051700Z AUTO 34006KT 9SM 27/24 A2923 RMK SLP907 T02720235 57016 IEM_DS3505
ZGGG,2001-07-05 18:00,ZGGG 051800Z AUTO 34006KT 9SM 27/24 A2921 RMK 60002 SLP894 T02700239 57022 IEM_DS3505
ZGGG,2001-07-05 19:00,ZGGG 051900Z AUTO 36008KT 28/23 A2918 RMK T02800230 IEM_DS3505
ZGGG,2001-07-05 20:00,ZGGG 052000Z AUTO 36014KT 6SM 27/23 A2918 RMK T02700230 IEM_DS3505
ZGGG,2001-07-05 21:00,ZGGG 052100Z AUTO 36010KT 6SM RMK IEM_DS3505
ZGGG,2001-07-05 22:30,ZGGG 052230Z AUTO 35010KT 7SM RMK IEM_DS3505
ZGGG,2001-07-05 23:00,ZGGG 052300Z AUTO 35010KT 6SM RMK IEM_DS3505
ZGGG,2001-07-06 00:00,ZGGG 060000Z AUTO 32008KT 7SM 26/23 RMK 60016 SLP840 T02630234 57024 IEM_DS3505
ZGGG,2001-07-06 01:00,ZGGG 060100Z AUTO 34010KT 6SM 26/24 A2903 RMK T02600240 IEM_DS3505
ZGGG,2001-07-06 02:00,ZGGG 060200Z AUTO 10SM RMK IEM_DS3505
ZGGG,2001-07-06 03:00,ZGGG 060300Z AUTO 36008G21KT 4SM 25/24 A2900 RMK SLP823 T02480239 57018 IEM_DS3505
ZGGG,2001-07-06 04:00,ZGGG 060400Z AUTO 36012G23KT 6SM 25/24 A2900 RMK T02500240 IEM_DS3505
ZGGG,2001-07-06 05:00,ZGGG 060500Z AUTO 01010KT 6SM 25/25 A2903 RMK T02500250 IEM_DS3505
ZGGG,2001-07-06 06:00,ZGGG 060600Z AUTO 36004KT 6SM 25/25 A2903 RMK 60185 SLP830 T02520246 52007 IEM_DS3505
ZGGG,2001-07-06 07:00,ZGGG 060700Z AUTO 36008KT 6SM 25/25 A2900 RMK T02500250 IEM_DS3505
ZGGG,2001-07-06 08:00,ZGGG 060800Z AUTO 10008KT 6SM RMK IEM_DS3505
ZGGG,2001-07-06 09:00,ZGGG 060900Z AUTO 09006KT 2 1/2SM 25/25 RMK SLP848 T02540247 52018 IEM_DS3505
ZGGG,2001-07-06 10:00,ZGGG 061000Z AUTO 14012KT RMK IEM_DS3505
ZGGG,2001-07-06 11:00,ZGGG 061100Z AUTO 15008KT 6SM 26/26 A2912 RMK T02600260 IEM_DS3505
ZGGG,2001-07-06 12:00,ZGGG 061200Z AUTO 14004KT 3SM 26/25 A2918 RMK 60079 SLP887 T02560249 52039 IEM_DS3505
ZGGG,2001-07-06 13:00,ZGGG 061300Z AUTO 14008KT 6SM 26/26 A2921 RMK T02600260 IEM_DS3505
ZGGG,2001-07-06 15:00,ZGGG 061500Z AUTO 14008KT 7SM 26/25 RMK SLP924 T02560247 52037 IEM_DS3505
ZGGG,2001-07-06 18:00,ZGGG 061800Z AUTO 16006KT 10SM 26/25 RMK 60138 SLP937 T02590252 52013 IEM_DS3505
ZGGG,2001-07-06 19:00,ZGGG 061900Z AUTO 17017KT 6SM 26/26 A2932 RMK T02600260 IEM_DS3505
ZGGG,2001-07-06 20:00,ZGGG 062000Z AUTO 16017G27KT 6SM 26/26 A2935 RMK T02600260 IEM_DS3505
ZGGG,2001-07-06 21:00,ZGGG 062100Z AUTO 07010KT 7SM 26/25 A2935 RMK 70458 SLP955 T02570248 52018 IEM_DS3505
ZGGG,2001-07-06 22:00,ZGGG 062200Z AUTO 15014KT 6SM 26/26 A2938 RMK T02600260 IEM_DS3505
ZGGG,2001-07-06 23:00,ZGGG 062300Z AUTO 16016G25KT 6SM 26/26 A2944 RMK T02600260 IEM_DS3505
ZGGG,2001-07-07 00:00,ZGGG 070000Z AUTO 11004G25KT 2 1/2SM 26/25 A2947 RMK 60205 SLP988 T02590253 52033 IEM_DS3505
ZGGG,2001-07-07 01:00,ZGGG 070100Z AUTO 14010KT 10SM RMK IEM_DS3505
ZGGG,2001-07-07 02:00,ZGGG 070200Z AUTO 14014KT 6SM RMK IEM_DS3505
ZGGG,2001-07-07 03:00,ZGGG 070300Z AUTO 11010KT 8SM 28/26 RMK SLP016 T02820255 52028 IEM_DS3505
ZGGG,2001-07-07 04:00,ZGGG 070400Z AUTO 15014KT 6SM 29/27 A2956 RMK T02900270 IEM_DS3505
ZGGG,2001-07-07 05:00,ZGGG 070500Z AUTO 15016KT 29/26 A2956 RMK T02900260 IEM_DS3505
ZGGG,2001-07-07 06:00,ZGGG 070600Z AUTO 18008KT 10SM 29/26 A2959 RMK 60000 SLP034 T02890255 52018 IEM_DS3505
ZGGG,2001-07-07 07:00,ZGGG 070700Z AUTO 14014KT 6SM 29/26 A2959 RMK T02900260 IEM_DS3505
ZGGG,2001-07-07 08:00,ZGGG 070800Z AUTO 14016KT 6SM 30/26 A2959 RMK T03000260 IEM_DS3505
ZGGG,2001-07-07 09:00,ZGGG 070900Z AUTO 16008KT 11SM 30/26 A2959 RMK SLP035 T02950257 52001 IEM_DS3505
ZGGG,2001-07-07 10:00,ZGGG 071000Z AUTO 14014KT 6SM 29/26 A2962 RMK T02900260 IEM_DS3505
ZGGG,2001-07-07 11:00,ZGGG 071100Z AUTO 15012KT 6SM 28/26 A2965 RMK T02800260 IEM_DS3505
ZGGG,2001-07-07 12:00,ZGGG 071200Z AUTO 14006KT 10SM 28/25 A2965 RMK 60003 SLP054 T02820254 52018 IEM_DS3505
ZGGG,2001-07-07 13:00,ZGGG 071300Z AUTO 15008KT 6SM 28/26 A2968 RMK T02800260 IEM_DS3505
ZGGG,2001-07-07 14:00,ZGGG 071400Z AUTO 13008KT 6SM 28/26 A2971 RMK T02800260 IEM_DS3505
ZGGG,2001-07-07 15:00,ZGGG 071500Z AUTO 07004KT 9SM 27/26 RMK SLP075 T02740257 52021 IEM_DS3505
ZGGG,2001-07-07 16:00,ZGGG 071600Z AUTO 10008KT 6SM 27/26 A2974 RMK T02700260 IEM_DS3505
ZGGG,2001-07-07 17:00,ZGGG 071700Z AUTO 10010KT 6SM 27/26 A2974 RMK T02700260 IEM_DS3505
ZGGG,2001-07-07 18:00,ZGGG 071800Z AUTO 11002KT 9SM 27/25 A2974 RMK 60003 SLP076 T02680252 52001 IEM_DS3505
ZGGG,2001-07-07 19:00,ZGGG 071900Z AUTO 10010KT 6SM 27/26 A2974 RMK T02700260 IEM_DS3505
ZGGG,2001-07-07 20:00,ZGGG 072000Z AUTO 10008KT 6SM 26/26 A2974 RMK T02600260 IEM_DS3505
ZGGG,2001-07-07 21:00,ZGGG 072100Z AUTO 11006KT 6SM 26/25 A2974 RMK 70176 SLP081 T02600253 52005 IEM_DS3505
ZGGG,2001-07-07 22:00,ZGGG 072200Z AUTO 12008KT 6SM RMK IEM_DS3505
ZGGG,2001-07-07 23:00,ZGGG 072300Z AUTO 10008KT 12SM 27/26 A2977 RMK T02700260 IEM_DS3505
ZGGG,2001-07-08 00:00,ZGGG 080000Z AUTO 09004KT 7SM 27/26 A2980 RMK 60024 SLP096 T02690258 52015 IEM_DS3505
ZGGG,2001-07-08 01:00,ZGGG 080100Z AUTO 10008KT 6SM RMK IEM_DS3505
ZGGG,2001-07-08 02:00,ZGGG 080200Z AUTO 11004KT 6SM 29/26 A2980 RMK T02900260 IEM_DS3505
ZGGG,2001-07-08 03:00,ZGGG 080300Z AUTO 11006KT 7SM 30/25 A2980 RMK SLP101 T02960254 52005 IEM_DS3505
ZGGG,2001-07-08 04:00,ZGGG 080400Z AUTO 14010KT 6SM 31/25 A2980 RMK T03100250 IEM_DS3505
ZGGG,2001-07-08 05:00,ZGGG 080500Z AUTO 14008KT 6SM RMK IEM_DS3505
ZGGG,2001-07-08 06:00,ZGGG 080600Z AUTO 16004KT 7SM 32/25 RMK SLP090 T03210253 57010 IEM_DS3505
ZGGG,2001-07-08 07:00,ZGGG 080700Z AUTO 13006KT 6SM 32/25 A2977 RMK T03200250 IEM_DS3505
ZGGG,2001-07-08 08:00,ZGGG 080800Z AUTO 14006KT 6SM 32/24 A2974 RMK T03200240 IEM_DS3505
ZGGG,2001-07-08 09:00,ZGGG 080900Z AUTO 16004KT 10SM 31/26 A2974 RMK SLP076 T03130257 57014 IEM_DS3505
ZGGG,2001-07-08 10:00,ZGGG 081000Z AUTO 15008KT 6SM 32/25 A2974 RMK T03200250 IEM_DS3505
ZGGG,2001-07-08 11:00,ZGGG 081100Z AUTO 15006KT 6SM 31/25 A2974 RMK T03100250 IEM_DS3505
ZGGG,2001-07-08 12:00,ZGGG 081200Z AUTO 14004KT 9SM 29/25 A2977 RMK 60003 SLP089 T02920250 52012 IEM_DS3505
ZGGG,2001-07-08 13:00,ZGGG 081300Z AUTO 16008KT 6SM 29/25 A2977 RMK T02900250 IEM_DS3505
ZGGG,2001-07-08 14:00,ZGGG 081400Z AUTO 15006KT 6SM 28/25 A2980 RMK T02800250 IEM_DS3505
ZGGG,2001-07-08 15:00,ZGGG 081500Z AUTO 00000KT 9SM 28/25 A2983 RMK SLP106 T02780253 52017 IEM_DS3505
ZGGG,2001-07-08 16:00,ZGGG 081600Z AUTO 6SM 28/25 A2980 RMK T02800250 IEM_DS3505
ZGGG,2001-07-08 17:00,ZGGG 081700Z AUTO 6SM 28/25 A2980 RMK T02800250 IEM_DS3505
ZGGG,2001-07-08 18:00,ZGGG 081800Z AUTO 07002KT 8SM 27/26 A2980 RMK SLP094 T02720255 57011 IEM_DS3505
ZGGG,2001-07-08 19:00,ZGGG 081900Z AUTO 6SM RMK IEM_DS3505
ZGGG,2001-07-08 20:00,ZGGG 082000Z AUTO 6SM 27/26 A2977 RMK T02700260 IEM_DS3505
ZGGG,2001-07-08 21:00,ZGGG 082100Z AUTO 07002KT 5SM 26/25 A2980 RMK 70000 SLP093 T02630249 57001 IEM_DS3505
ZGGG,2001-07-08 22:00,ZGGG 082200Z AUTO 10002KT 6SM 26/25 A2980 RMK T02600250 IEM_DS3505
ZGGG,2001-07-08 23:00,ZGGG 082300Z AUTO 6SM 27/26 A2980 RMK T02700260 IEM_DS3505
ZGGG,2001-07-09 00:00,ZGGG 090000Z AUTO 09002KT 7SM 28/25 A2983 RMK 70003 SLP107 T02780251 52013 IEM_DS3505
ZGGG,2001-07-09 01:00,ZGGG 090100Z AUTO 16004KT 6SM 29/26 A2983 RMK T02900260 IEM_DS3505
ZGGG,2001-07-09 02:00,ZGGG 090200Z AUTO 14004KT 6SM RMK IEM_DS3505
ZGGG,2001-07-09 03:00,ZGGG 090300Z AUTO 09002KT 7SM 31/25 RMK SLP109 T03090250 52003 IEM_DS3505
ZGGG,2001-07-09 04:00,ZGGG 090400Z AUTO 25002KT 6SM RMK IEM_DS3505
ZGGG,2001-07-09 05:00,ZGGG 090500Z AUTO 15002KT 6SM RMK IEM_DS3505
ZGGG,2001-07-09 06:00,ZGGG 090600Z AUTO 14004KT 9SM 33/24 A2977 RMK SLP092 T03320242 57017 IEM_DS3505
ZGGG,2001-07-09 07:00,ZGGG 090700Z AUTO 04002KT 33/25 A2977 RMK T03300250 IEM_DS3505
ZGGG,2001-07-09 08:00,ZGGG 090800Z AUTO 11004KT 33/24 A2974 RMK T03300240 IEM_DS3505
ZGGG,2001-07-09 09:00,ZGGG 090900Z AUTO 14002KT 9SM 33/24 A2974 RMK SLP073 T03330243 57019 IEM_DS3505
ZGGG,2001-07-09 10:00,ZGGG 091000Z AUTO 12004KT 6SM 33/25 A2971 RMK T03300250 IEM_DS3505
ZGGG,2001-07-09 11:00,ZGGG 091100Z AUTO 13004KT 6SM 32/25 A2971 RMK T03200250 IEM_DS3505
ZGGG,2001-07-09 12:00,ZGGG 091200Z AUTO 20002KT 10SM 31/25 A2974 RMK SLP078 T03090247 52005 IEM_DS3505
ZGGG,2001-07-09 13:00,ZGGG 091300Z AUTO 16004KT 6SM 31/25 A2974 RMK T03100250 IEM_DS3505
ZGGG,2001-07-09 14:00,ZGGG 091400Z AUTO 18006KT 6SM 30/26 A2977 RMK T03000260 IEM_DS3505
ZGGG,2001-07-09 15:00,ZGGG 091500Z AUTO 22002KT 9SM 30/26 A2977 RMK SLP088 T02950262 52010 IEM_DS3505
ZGGG,2001-07-09 16:00,ZGGG 091600Z AUTO 21010KT 6SM 28/26 A2977 RMK T02800260 IEM_DS3505
ZGGG,2001-07-09 17:00,ZGGG 091700Z AUTO 20006KT 6SM 28/26 A2977 RMK T02800260 IEM_DS3505
ZGGG,2001-07-09 18:00,ZGGG 091800Z AUTO 14004KT 9SM 28/25 A2974 RMK SLP081 T02790251 57007 IEM_DS3505
ZGGG,2001-07-09 19:00,ZGGG 091900Z AUTO 20006KT 28/26 A2974 RMK T02800260 IEM_DS3505
ZGGG,2001-07-09 20:00,ZGGG 092000Z AUTO 6SM 27/25 A2974 RMK T02700250 IEM_DS3505
ZGGG,2001-07-09 21:00,ZGGG 092100Z AUTO 00000KT 8SM 27/25 A2974 RMK SLP077 T02730252 57004 IEM_DS3505
ZGGG,2001-07-09 22:00,ZGGG 092200Z AUTO 6SM 27/26 A2974 RMK T02700260 IEM_DS3505
ZGGG,2001-07-09 23:00,ZGGG 092300Z AUTO 6SM 28/26 A2974 RMK T02800260 IEM_DS3505
ZGGG,2001-07-10 00:00,ZGGG 100000Z AUTO 14004KT 7SM 28/25 A2977 RMK SLP086 T02810254 52009 IEM_DS3505
ZGGG,2001-07-10 01:00,ZGGG 100100Z AUTO 17004KT 6SM 29/25 A2977 RMK T02900250 IEM_DS3505
ZGGG,2001-07-10 02:00,ZGGG 100200Z AUTO 23004KT 6SM 31/26 A2977 RMK T03100260 IEM_DS3505
ZGGG,2001-07-10 03:00,ZGGG 100300Z AUTO 18004KT 7SM 32/26 A2974 RMK SLP082 T03170257 57004 IEM_DS3505
ZGGG,2001-07-10 04:00,ZGGG 100400Z AUTO 21004KT 6SM 32/25 A2974 RMK T03200250 IEM_DS3505
ZGGG,2001-07-10 06:00,ZGGG 100600Z AUTO 20002KT 9SM 34/24 A2968 RMK SLP062 T03420245 57020 IEM_DS3505
ZGGG,2001-07-10 07:00,ZGGG 100700Z AUTO 24006KT 6SM 34/24 A2968 RMK T03400240 IEM_DS3505
ZGGG,2001-07-10 08:00,ZGGG 100800Z AUTO 22006KT 6SM 35/24 A2965 RMK T03500240 IEM_DS3505
ZGGG,2001-07-10 09:00,ZGGG 100900Z AUTO 22004KT 10SM 34/24 A2965 RMK SLP048 T03440240 57014 IEM_DS3505
ZGGG,2001-07-10 10:00,ZGGG 101000Z AUTO 22008KT 6SM 34/25 A2965 RMK T03400250 IEM_DS3505
ZGGG,2001-07-10 11:00,ZGGG 101100Z AUTO 20008KT 6SM 33/24 A2965 RMK T03300240 IEM_DS3505
ZGGG,2001-07-10 12:00,ZGGG 101200Z AUTO 11004KT 10SM 31/24 A2965 RMK SLP055 T03100239 52007 IEM_DS3505
ZGGG,2001-07-10 13:00,ZGGG 101300Z AUTO 16004KT 6SM 31/25 A2968 RMK T03100250 IEM_DS3505
ZGGG,2001-07-10 14:00,ZGGG 101400Z AUTO 17006KT 6SM 31/26 A2968 RMK T03100260 IEM_DS3505
ZGGG,2001-07-10 15:00,ZGGG 101500Z AUTO 14002KT 9SM 29/26 A2971 RMK SLP071 T02930264 52016 IEM_DS3505
ZGGG,2001-07-10 16:00,ZGGG 101600Z AUTO 17006KT 6SM 30/27 A2971 RMK T03000270 IEM_DS3505
ZGGG,2001-07-10 17:00,ZGGG 101700Z AUTO 19006KT 6SM 29/26 A2971 RMK T02900260 IEM_DS3505
ZGGG,2001-07-10 18:00,ZGGG 101800Z AUTO 22002KT 7SM 29/25 A2968 RMK SLP060 T02870252 57011 IEM_DS3505
ZGGG,2001-07-10 19:00,ZGGG 101900Z AUTO 21006KT 6SM 28/25 A2968 RMK T02800250 IEM_DS3505
ZGGG,2001-07-10 20:00,ZGGG 102000Z AUTO 6SM 28/24 A2968 RMK T02800240 IEM_DS3505
ZGGG,2001-07-10 21:00,ZGGG 102100Z AUTO 00000KT 8SM 28/25 A2965 RMK SLP053 T02750251 57007 IEM_DS3505
ZGGG,2001-07-10 22:00,ZGGG 102200Z AUTO 22004KT 6SM 27/25 A2968 RMK T02700250 IEM_DS3505
ZGGG,2001-07-10 23:00,ZGGG 102300Z AUTO 21004KT 6SM 28/25 A2968 RMK T02800250 IEM_DS3505
ZGGG,2001-07-11 00:00,ZGGG 110000Z AUTO 00000KT 7SM 29/26 A2968 RMK SLP062 T02890257 52009 IEM_DS3505
ZGGG,2001-07-11 01:00,ZGGG 110100Z AUTO 26004KT 29/26 A2968 RMK T02900260 IEM_DS3505
ZGGG,2001-07-11 02:00,ZGGG 110200Z AUTO 20004KT 6SM 31/26 A2968 RMK T03100260 IEM_DS3505
ZGGG,2001-07-11 03:00,ZGGG 110300Z AUTO 32002KT 9SM 32/26 A2968 RMK SLP056 T03210256 57006 IEM_DS3505
ZGGG,2001-07-11 04:00,ZGGG 110400Z AUTO 25004KT 6SM 32/26 A2965 RMK T03200260 IEM_DS3505
ZGGG,2001-07-11 05:00,ZGGG 110500Z AUTO 33004KT 33/26 A2962 RMK T03300260 IEM_DS3505
ZGGG,2001-07-11 06:00,ZGGG 110600Z AUTO 22004KT 10SM 35/25 RMK SLP034 T03510253 57022 IEM_DS3505
ZGGG,2001-07-11 07:00,ZGGG 110700Z AUTO 23006KT 34/26 A2959 RMK T03400260 IEM_DS3505
ZGGG,2001-07-11 08:00,ZGGG 110800Z AUTO 25006KT 6SM 35/26 A2956 RMK T03500260 IEM_DS3505
ZGGG,2001-07-11 09:00,ZGGG 110900Z AUTO 27006KT 11SM 34/26 A2956 RMK SLP019 T03420259 57015 IEM_DS3505
ZGGG,2001-07-11 10:00,ZGGG 111000Z AUTO 24006KT 6SM 34/25 A2956 RMK T03400250 IEM_DS3505
ZGGG,2001-07-11 11:00,ZGGG 111100Z AUTO 20006KT 6SM 33/26 A2956 RMK T03300260 IEM_DS3505
ZGGG,2001-07-11 12:00,ZGGG 111200Z AUTO 22002KT 9SM 32/26 A2959 RMK SLP027 T03220258 52008 IEM_DS3505
ZGGG,2001-07-11 13:00,ZGGG 111300Z AUTO 20008KT 32/26 A2959 RMK T03200260 IEM_DS3505
ZGGG,2001-07-11 14:00,ZGGG 111400Z AUTO 20006KT 6SM 31/27 A2959 RMK T03100270 IEM_DS3505
ZGGG,2001-07-11 15:00,ZGGG 111500Z AUTO 22002KT 7SM 31/27 A2962 RMK SLP036 T03070267 52009 IEM_DS3505
ZGGG,2001-07-11 16:00,ZGGG 111600Z AUTO 17006KT 6SM 30/27 A2959 RMK T03000270 IEM_DS3505
ZGGG,2001-07-11 17:00,ZGGG 111700Z AUTO 20006KT 19SM 29/26 A2959 RMK T02900260 IEM_DS3505
ZGGG,2001-07-11 18:00,ZGGG 111800Z AUTO 00000KT 7SM 29/26 A2956 RMK SLP023 T02920263 57013 IEM_DS3505
ZGGG,2001-07-11 19:00,ZGGG 111900Z AUTO 6SM 29/26 A2959 RMK T02900260 IEM_DS3505
ZGGG,2001-07-11 20:00,ZGGG 112000Z AUTO 22008KT 6SM RMK IEM_DS3505
ZGGG,2001-07-11 21:00,ZGGG 112100Z AUTO 00000KT 7SM 28/26 A2959 RMK SLP026 T02840262 52003 IEM_DS3505
ZGGG,2001-07-11 22:00,ZGGG 112200Z AUTO 6SM 28/26 A2959 RMK T02800260 IEM_DS3505
ZGGG,2001-07-11 23:00,ZGGG 112300Z AUTO 20004KT 31SM 29/26 A2959 RMK T02900260 IEM_DS3505
ZGGG,2001-07-12 00:00,ZGGG 120000Z AUTO 18002KT 7SM 30/27 A2959 RMK SLP030 T02980268 52004 IEM_DS3505
ZGGG,2001-07-12 01:00,ZGGG 120100Z AUTO 26006KT 6SM 31/26 A2959 RMK T03100260 IEM_DS3505
ZGGG,2001-07-12 02:00,ZGGG 120200Z AUTO 24006KT 6SM RMK IEM_DS3505
ZGGG,2001-07-12 03:00,ZGGG 120300Z AUTO 27002KT 7SM 33/26 A2959 RMK SLP030 T03280262 54000 IEM_DS3505
ZGGG,2001-07-12 04:00,ZGGG 120400Z AUTO 27006KT 6SM 33/26 A2959 RMK T03300260 IEM_DS3505
ZGGG,2001-07-12 05:00,ZGGG 120500Z AUTO 27004KT 6SM 34/26 A2956 RMK T03400260 IEM_DS3505
ZGGG,2001-07-12 06:00,ZGGG 120600Z AUTO 29002KT 9SM 34/25 A2953 RMK SLP012 T03410252 57018 IEM_DS3505
ZGGG,2001-07-12 07:00,ZGGG 120700Z AUTO 26006KT 6SM 34/26 A2953 RMK T03400260 IEM_DS3505
ZGGG,2001-07-12 08:00,ZGGG 120800Z AUTO 25008KT 6SM RMK IEM_DS3505
ZGGG,2001-07-12 09:00,ZGGG 120900Z AUTO 22004KT 9SM 34/26 A2950 RMK SLP999 T03360256 57013 IEM_DS3505
ZGGG,2001-07-12 10:00,ZGGG 121000Z AUTO 24008KT 6SM RMK IEM_DS3505
ZGGG,2001-07-12 11:00,ZGGG 121100Z AUTO 22006KT 6SM 33/26 A2950 RMK T03300260 IEM_DS3505
ZGGG,2001-07-12 12:00,ZGGG 121200Z AUTO 18004KT 7SM 32/26 A2953 RMK SLP012 T03180260 52013 IEM_DS3505
ZGGG,2001-07-12 13:00,ZGGG 121300Z AUTO 16008KT 6SM 32/26 A2956 RMK T03200260 IEM_DS3505
ZGGG,2001-07-12 14:00,ZGGG 121400Z AUTO 15006KT 6SM 31/27 A2956 RMK T03100270 IEM_DS3505
ZGGG,2001-07-12 15:00,ZGGG 121500Z AUTO 14006KT 6SM 30/27 A2959 RMK SLP028 T02980269 52016 IEM_DS3505
ZGGG,2001-07-12 16:00,ZGGG 121600Z AUTO 13012G23KT 6SM RMK IEM_DS3505
ZGGG,2001-07-12 17:00,ZGGG 121700Z AUTO 11004KT 5SM 26/22 A2962 RMK SLP029 T02600220 52001 IEM_DS3505
ZGGG,2001-07-12 18:00,ZGGG 121800Z AUTO 11004KT 5SM 24/23 A2959 RMK 60016 SLP029 T02440229 52001 IEM_DS3505
ZGGG,2001-07-12 19:00,ZGGG 121900Z AUTO 19010KT 6SM 25/24 A2959 RMK T02500240 IEM_DS3505
ZGGG,2001-07-12 20:00,ZGGG 122000Z AUTO 15008KT 6SM 25/23 A2953 RMK T02500230 IEM_DS3505
ZGGG,2001-07-12 21:00,ZGGG 122100Z AUTO 00000KT 4SM 25/24 A2956 RMK 70034 SLP016 T02460236 57013 IEM_DS3505
ZGGG,2001-07-12 22:00,ZGGG 122200Z AUTO 05008KT 24/24 A2959 RMK T02400240 IEM_DS3505
ZGGG,2001-07-12 23:00,ZGGG 122300Z AUTO 05006KT 24/24 A2962 RMK T02400240 IEM_DS3505
ZGGG,2001-07-13 00:00,ZGGG 130000Z AUTO 09002KT 4SM 25/24 A2965 RMK 60020 SLP045 T02540240 52029 IEM_DS3505
ZGGG,2001-07-13 01:00,ZGGG 130100Z AUTO 05006KT 6SM 26/24 A2965 RMK T02600240 IEM_DS3505
ZGGG,2001-07-13 02:00,ZGGG 130200Z AUTO 6SM 26/25 A2965 RMK T02600250 IEM_DS3505
ZGGG,2001-07-13 03:00,ZGGG 130300Z AUTO 09002KT 3SM 27/24 RMK SLP047 T02720242 52002 IEM_DS3505
ZGGG,2001-07-13 04:00,ZGGG 130400Z AUTO 16004KT 6SM 28/24 A2962 RMK T02800240 IEM_DS3505
ZGGG,2001-07-13 05:00,ZGGG 130500Z AUTO 13002KT 6SM 28/24 A2962 RMK T02800240 IEM_DS3505
ZGGG,2001-07-13 06:00,ZGGG 130600Z AUTO 18004KT 4SM 28/24 A2962 RMK 60003 SLP038 T02840243 57010 IEM_DS3505
ZGGG,2001-07-13 07:00,ZGGG 130700Z AUTO 20002KT 6SM RMK IEM_DS3505
ZGGG,2001-07-13 08:00,ZGGG 130800Z AUTO 14004KT 6SM 29/23 A2962 RMK T02900230 IEM_DS3505
ZGGG,2001-07-13 09:00,ZGGG 130900Z AUTO 16004KT 2 1/2SM 28/24 A2962 RMK SLP040 T02800244 52002 IEM_DS3505
ZGGG,2001-07-13 10:00,ZGGG 131000Z AUTO 15004KT 6SM RMK IEM_DS3505
ZGGG,2001-07-13 11:00,ZGGG 131100Z AUTO 15004KT 6SM RMK IEM_DS3505
ZGGG,2001-07-13 12:00,ZGGG 131200Z AUTO 11004KT 7SM 27/25 RMK 60003 SLP041 T02680250 52001 IEM_DS3505
ZGGG,2001-07-13 13:00,ZGGG 131300Z AUTO 17004KT 7SM RMK IEM_DS3505
ZGGG,2001-07-13 14:00,ZGGG 131400Z AUTO 06002KT 6SM 27/24 A2968 RMK T02700240 IEM_DS3505
ZGGG,2001-07-13 15:00,ZGGG 131500Z AUTO 11002KT 6SM 27/25 A2968 RMK SLP058 T02670250 52017 IEM_DS3505
ZGGG,2001-07-13 16:00,ZGGG 131600Z AUTO 17004KT 27/24 A2968 RMK T02700240 IEM_DS3505
ZGGG,2001-07-13 17:00,ZGGG 131700Z AUTO 19004KT 6SM 27/24 A2965 RMK T02700240 IEM_DS3505
ZGGG,2001-07-13 18:00,ZGGG 131800Z AUTO 11002KT 9SM 26/25 RMK 60106 SLP050 T02590252 57008 IEM_DS3505
ZGGG,2001-07-13 19:00,ZGGG 131900Z AUTO 15006KT 6SM 27/26 A2965 RMK T02700260 IEM_DS3505
ZGGG,2001-07-13 20:00,ZGGG 132000Z AUTO 14006KT 6SM 27/26 A2965 RMK T02700260 IEM_DS3505
ZGGG,2001-07-13 21:00,ZGGG 132100Z AUTO 11002KT 3SM 26/25 A2965 RMK 70106 SLP055 T02580249 52005 IEM_DS3505
ZGGG,2001-07-13 22:00,ZGGG 132200Z AUTO 15006KT 6SM 27/26 A2965 RMK T02700260 IEM_DS3505
ZGGG,2001-07-13 23:00,ZGGG 132300Z AUTO 13004KT 6SM 27/26 A2968 RMK T02700260 IEM_DS3505
ZGGG,2001-07-14 00:00,ZGGG 140000Z AUTO 11004KT 2 1/2SM 26/25 A2968 RMK 70106 SLP063 T02650251 52008 IEM_DS3505
ZGGG,2001-07-14 01:00,ZGGG 140100Z AUTO 15006KT 6SM 28/26 A2971 RMK T02800260 IEM_DS3505
ZGGG,2001-07-14 02:00,ZGGG 140200Z AUTO 15006KT 6SM 30/26 A2971 RMK T03000260 IEM_DS3505
ZGGG,2001-07-14 03:00,ZGGG 140300Z AUTO 14006KT 4SM 30/26 RMK SLP063 T02950260 52001 IEM_DS3505
ZGGG,2001-07-14 04:00,ZGGG 140400Z AUTO 16006KT 6SM 31/26 A2968 RMK T03100260 IEM_DS3505
ZGGG,2001-07-14 05:00,ZGGG 140500Z AUTO 14008KT 25SM RMK IEM_DS3505
ZGGG,2001-07-14 06:00,ZGGG 140600Z AUTO 16004KT 11SM 30/23 RMK 60003 SLP056 T02950233 57007 IEM_DS3505
ZGGG,2001-07-14 07:00,ZGGG 140700Z AUTO 04006KT 6SM 26/24 A2968 RMK T02600240 IEM_DS3505
ZGGG,2001-07-14 08:00,ZGGG 140800Z AUTO 29004KT 6SM 25/22 A2971 RMK T02500220 IEM_DS3505
ZGGG,2001-07-14 09:00,ZGGG 140900Z AUTO 00000KT 9SM 24/22 A2971 RMK SLP069 T02380223 52012 IEM_DS3505
ZGGG,2001-07-14 10:00,ZGGG 141000Z AUTO 09002KT 6SM 24/23 A2971 RMK T02400230 IEM_DS3505
ZGGG,2001-07-14 11:00,ZGGG 141100Z AUTO 03004KT 6SM 25/23 A2971 RMK T02500230 IEM_DS3505
ZGGG,2001-07-14 12:00,ZGGG 141200Z AUTO 09002KT 11SM 24/23 A2974 RMK 60126 SLP078 T02420233 52009 IEM_DS3505
ZGGG,2001-07-14 13:00,ZGGG 141300Z AUTO 6SM 25/24 A2974 RMK T02500240 IEM_DS3505
ZGGG,2001-07-14 14:00,ZGGG 141400Z AUTO 02002KT 6SM 26/23 A2977 RMK T02600230 IEM_DS3505
ZGGG,2001-07-14 15:00,ZGGG 141500Z AUTO 00000KT 10SM 25/24 A2977 RMK SLP090 T02460239 52012 IEM_DS3505
ZGGG,2001-07-14 16:00,ZGGG 141600Z AUTO 6SM 25/25 A2977 RMK T02500250 IEM_DS3505
ZGGG,2001-07-14 17:00,ZGGG 141700Z AUTO 6SM 25/25 A2974 RMK T02500250 IEM_DS3505
ZGGG,2001-07-14 18:00,ZGGG 141800Z AUTO 07002KT 9SM 25/24 A2971 RMK 60002 SLP070 T02470241 57020 IEM_DS3505
ZGGG,2001-07-14 19:00,ZGGG 141900Z AUTO 6SM 26/26 A2971 RMK T02600260 IEM_DS3505
ZGGG,2001-07-14 20:00,ZGGG 142000Z AUTO 6SM 26/26 A2971 RMK T02600260 IEM_DS3505
ZGGG,2001-07-14 21:00,ZGGG 142100Z AUTO 09002KT 4SM 25/24 A2971 RMK 70130 SLP068 T02510244 57002 IEM_DS3505
ZGGG,2001-07-14 22:00,ZGGG 142200Z AUTO 6SM 26/26 A2974 RMK T02600260 IEM_DS3505
ZGGG,2001-07-14 23:00,ZGGG 142300Z AUTO 26/26 A2974 RMK T02600260 IEM_DS3505
ZGGG,2001-07-15 00:00,ZGGG 150000Z AUTO 11004KT 5SM 27/26 A2974 RMK 70130 SLP081 T02660255 52013 IEM_DS3505
ZGGG,2001-07-15 01:00,ZGGG 150100Z AUTO 16004KT 6SM 28/26 A2974 RMK T02800260 IEM_DS3505
ZGGG,2001-07-15 02:00,ZGGG 150200Z AUTO 15006KT 6SM 29/25 A2974 RMK T02900250 IEM_DS3505
ZGGG,2001-07-15 03:00,ZGGG 150300Z AUTO 11004KT 7SM 27/25 A2974 RMK SLP081 T02730253 54000 IEM_DS3505
ZGGG,2001-07-15 04:00,ZGGG 150400Z AUTO 09002KT 4SM 24/23 A2977 RMK T02400230 IEM_DS3505
ZGGG,2001-07-15 05:00,ZGGG 150500Z AUTO 13004KT 6SM 24/24 A2974 RMK T02400240 IEM_DS3505
ZGGG,2001-07-15 06:00,ZGGG 150600Z AUTO 14004KT 4SM 24/24 A2971 RMK 60059 SLP075 T02430236 57006 IEM_DS3505
ZGGG,2001-07-15 07:00,ZGGG 150700Z AUTO 19006KT 6SM 25/25 A2971 RMK T02500250 IEM_DS3505
ZGGG,2001-07-15 08:00,ZGGG 150800Z AUTO 17006KT 16SM 26/24 A2971 RMK T02600240 IEM_DS3505
ZGGG,2001-07-15 09:00,ZGGG 150900Z AUTO 22004KT 8SM 25/24 A2971 RMK SLP068 T02500236 57007 IEM_DS3505
ZGGG,2001-07-15 10:00,ZGGG 151000Z AUTO 16006KT 6SM 26/24 A2971 RMK T02600240 IEM_DS3505
ZGGG,2001-07-15 11:00,ZGGG 151100Z AUTO 16008KT 6SM RMK IEM_DS3505
ZGGG,2001-07-15 12:00,ZGGG 151200Z AUTO 11002KT 4SM 25/24 A2974 RMK 60004 SLP078 T02490239 52010 IEM_DS3505
ZGGG,2001-07-15 13:00,ZGGG 151300Z AUTO 6SM RMK IEM_DS3505
ZGGG,2001-07-15 14:00,ZGGG 151400Z AUTO 20002KT 6SM RMK IEM_DS3505
ZGGG,2001-07-15 15:00,ZGGG 151500Z AUTO 09002KT 2 1/2SM 25/24 A2977 RMK SLP090 T02460239 52012 IEM_DS3505
ZGGG,2001-07-15 16:00,ZGGG 151600Z AUTO 6SM 25/24 A2977 RMK T02500240 IEM_DS3505
ZGGG,2001-07-15 17:00,ZGGG 151700Z AUTO 6SM RMK IEM_DS3505
ZGGG,2001-07-15 18:00,ZGGG 151800Z AUTO 00000KT 2SM 24/24 A2974 RMK 60003 SLP076 T02450238 57014 IEM_DS3505
ZGGG,2001-07-15 19:00,ZGGG 151900Z AUTO 6SM 25/24 A2974 RMK T02500240 IEM_DS3505
ZGGG,2001-07-15 20:00,ZGGG 152000Z AUTO 6SM 25/24 A2974 RMK T02500240 IEM_DS3505
ZGGG,2001-07-15 21:00,ZGGG 152100Z AUTO 00000KT 1 1/2SM 24/24 A2974 RMK 70061 SLP075 T02450238 57001 IEM_DS3505
ZGGG,2001-07-15 22:00,ZGGG 152200Z AUTO 6SM 25/24 A2974 RMK T02500240 IEM_DS3505
ZGGG,2001-07-15 23:00,ZGGG 152300Z AUTO 6SM 25/24 A2974 RMK T02500240 IEM_DS3505
ZGGG,2001-07-16 00:00,ZGGG 160000Z AUTO 09004KT 1 1/2SM 25/24 A2974 RMK 70061 SLP077 T02490237 52002 IEM_DS3505
ZGGG,2001-07-16 01:00,ZGGG 160100Z AUTO 08004KT 6SM 26/24 A2974 RMK T02600240 IEM_DS3505
ZGGG,2001-07-16 02:00,ZGGG 160200Z AUTO 15002KT 6SM 26/25 A2977 RMK T02600250 IEM_DS3505
ZGGG,2001-07-16 03:00,ZGGG 160300Z AUTO 00000KT 2SM 27/25 A2977 RMK SLP085 T02730246 52008 IEM_DS3505
ZGGG,2001-07-16 04:00,ZGGG 160400Z AUTO 18004KT 6SM 28/24 A2974 RMK T02800240 IEM_DS3505
ZGGG,2001-07-16 05:00,ZGGG 160500Z AUTO 16004KT 6SM 29/24 A2971 RMK T02900240 IEM_DS3505
ZGGG,2001-07-16 06:00,ZGGG 160600Z AUTO 16006KT 9SM 31/25 A2968 RMK 60003 SLP054 T03130247 57030 IEM_DS3505
ZGGG,2001-07-16 07:00,ZGGG 160700Z AUTO 27002KT 6SM 31/24 A2965 RMK T03100240 IEM_DS3505
ZGGG,2001-07-16 08:00,ZGGG 160800Z AUTO 24014G25KT 6SM A2968 RMK IEM_DS3505
ZGGG,2001-07-16 09:00,ZGGG 160900Z AUTO 25004KT 9SM 24/23 A2968 RMK SLP058 T02450227 52003 IEM_DS3505
ZGGG,2001-07-16 11:00,ZGGG 161100Z AUTO 17004KT 6SM 24/23 A2968 RMK T02400230 IEM_DS3505
ZGGG,2001-07-16 12:00,ZGGG 161200Z AUTO 11002KT 6SM 24/23 A2968 RMK 60020 SLP061 T02430231 52003 IEM_DS3505
ZGGG,2001-07-16 13:00,ZGGG 161300Z AUTO 6SM 24/24 A2968 RMK T02400240 IEM_DS3505
ZGGG,2001-07-16 14:00,ZGGG 161400Z AUTO 6SM RMK IEM_DS3505
ZGGG,2001-07-16 15:00,ZGGG 161500Z AUTO 00000KT 2 1/2SM 24/23 A2968 RMK SLP062 T02400230 52001 IEM_DS3505
ZGGG,2001-07-16 16:00,ZGGG 161600Z AUTO 6SM 24/24 A2968 RMK T02400240 IEM_DS3505
ZGGG,2001-07-16 17:00,ZGGG 161700Z AUTO 6SM 24/24 A2968 RMK T02400240 IEM_DS3505
ZGGG,2001-07-16 18:00,ZGGG 161800Z AUTO 00000KT 2SM 24/23 A2965 RMK 60000 SLP048 T02400233 57013 IEM_DS3505
ZGGG,2001-07-16 19:00,ZGGG 161900Z AUTO 10SM 24/24 A2962 RMK T02400240 IEM_DS3505
ZGGG,2001-07-16 20:00,ZGGG 162000Z AUTO 01004KT 6SM 24/24 A2962 RMK T02400240 IEM_DS3505
ZGGG,2001-07-16 21:00,ZGGG 162100Z AUTO 09002KT 5SM 24/23 A2962 RMK 70025 SLP038 T02400234 57011 IEM_DS3505
ZGGG,2001-07-16 22:00,ZGGG 162200Z AUTO 22002KT 24/24 A2962 RMK T02400240 IEM_DS3505
ZGGG,2001-07-16 23:00,ZGGG 162300Z AUTO 6SM 24/24 A2962 RMK T02400240 IEM_DS3505
ZGGG,2001-07-17 00:00,ZGGG 170000Z AUTO 11004KT 5SM 24/24 A2962 RMK 60024 SLP043 T02420236 52005 IEM_DS3505
ZGGG,2001-07-17 01:00,ZGGG 170100Z AUTO 14004KT 6SM 26/25 A2962 RMK T02600250 IEM_DS3505
ZGGG,2001-07-17 02:00,ZGGG 170200Z AUTO 12004KT 6SM 26/25 A2962 RMK T02600250 IEM_DS3505
ZGGG,2001-07-17 03:00,ZGGG 170300Z AUTO 11006KT 4SM 26/25 RMK SLP039 T02630250 57004 IEM_DS3505
ZGGG,2001-07-17 05:00,ZGGG 170500Z AUTO 14006KT 3/8SM 26/26 A2962 RMK T02600260 IEM_DS3505
ZGGG,2001-07-17 06:00,ZGGG 170600Z AUTO 18004KT 6SM 26/25 A2959 RMK 60154 SLP033 T02590249 57006 IEM_DS3505
ZGGG,2001-07-17 07:00,ZGGG 170700Z AUTO 15006KT 6SM 27/26 A2959 RMK T02700260 IEM_DS3505
ZGGG,2001-07-17 08:00,ZGGG 170800Z AUTO 16006KT 6SM RMK IEM_DS3505
ZGGG,2001-07-17 09:00,ZGGG 170900Z AUTO 14006KT 9SM 27/25 A2956 RMK SLP020 T02670249 57013 IEM_DS3505
ZGGG,2001-07-17 10:00,ZGGG 171000Z AUTO 13006KT 6SM 27/26 A2956 RMK T02700260 IEM_DS3505
ZGGG,2001-07-17 11:00,ZGGG 171100Z AUTO 15008KT 6SM 26/26 A2956 RMK T02600260 IEM_DS3505
ZGGG,2001-07-17 12:00,ZGGG 171200Z AUTO 11004KT 7SM 24/23 A2956 RMK 60024 SLP023 T02450233 52003 IEM_DS3505
ZGGG,2001-07-17 13:00,ZGGG 171300Z AUTO 15008KT 6SM 24/24 A2959 RMK T02400240 IEM_DS3505
ZGGG,2001-07-17 14:00,ZGGG 171400Z AUTO 17006KT 6SM 25/25 A2959 RMK T02500250 IEM_DS3505
ZGGG,2001-07-17 15:00,ZGGG 171500Z AUTO 09004KT 6SM 24/24 A2959 RMK SLP032 T02440235 52009 IEM_DS3505
ZGGG,2001-07-17 16:00,ZGGG 171600Z AUTO 24/24 A2959 RMK T02400240 IEM_DS3505
ZGGG,2001-07-17 17:00,ZGGG 171700Z AUTO 12008KT 6SM 24/24 A2956 RMK T02400240 IEM_DS3505
ZGGG,2001-07-17 18:00,ZGGG 171800Z AUTO 11002KT 2SM 24/24 A2953 RMK 60002 SLP011 T02440238 57021 IEM_DS3505
ZGGG,2001-07-17 19:00,ZGGG 171900Z AUTO 13004KT 6SM 25/25 A2953 RMK T02500250 IEM_DS3505
ZGGG,2001-07-17 20:00,ZGGG 172000Z AUTO 15004KT 6SM 25/25 A2950 RMK T02500250 IEM_DS3505
ZGGG,2001-07-17 21:00,ZGGG 172100Z AUTO 16002KT 3SM 25/24 A2950 RMK 70198 SLP003 T02470241 57008 IEM_DS3505
ZGGG,2001-07-17 22:00,ZGGG 172200Z AUTO 17004KT 6SM RMK IEM_DS3505
ZGGG,2001-07-17 23:00,ZGGG 172300Z AUTO 18004KT 6SM 26/24 A2953 RMK T02600240 IEM_DS3505
ZGGG,2001-07-18 00:00,ZGGG 180000Z AUTO 20006KT 4SM 26/25 A2956 RMK 60000 SLP023 T02600249 52020 IEM_DS3505
ZGGG,2001-07-18 01:00,ZGGG 180100Z AUTO 21008KT 6SM 27/26 A2956 RMK T02700260 IEM_DS3505
ZGGG,2001-07-18 02:00,ZGGG 180200Z AUTO 20008KT 6SM 27/24 A2959 RMK T02700240 IEM_DS3505
ZGGG,2001-07-18 03:00,ZGGG 180300Z AUTO 18004KT 8SM 28/25 A2959 RMK SLP029 T02750247 52006 IEM_DS3505
ZGGG,2001-07-18 04:00,ZGGG 180400Z AUTO 18008KT 6SM 29/25 A2956 RMK T02900250 IEM_DS3505
ZGGG,2001-07-18 05:00,ZGGG 180500Z AUTO 21006KT 6SM 31/25 A2956 RMK T03100250 IEM_DS3505
ZGGG,2001-07-18 06:00,ZGGG 180600Z AUTO 25006KT 14SM 31/24 A2956 RMK SLP017 T03080244 57011 IEM_DS3505
ZGGG,2001-07-18 07:00,ZGGG 180700Z AUTO 21010KT 6SM 31/24 A2953 RMK T03100240 IEM_DS3505
ZGGG,2001-07-18 08:00,ZGGG 180800Z AUTO 18008KT 6SM 29/24 A2953 RMK T02900240 IEM_DS3505
ZGGG,2001-07-18 09:00,ZGGG 180900Z AUTO 16006KT 9SM 28/25 A2956 RMK SLP015 T02810249 57002 IEM_DS3505
ZGGG,2001-07-18 10:00,ZGGG 181000Z AUTO 11004KT 9SM 26/24 RMK SLP024 T02650242 52008 IEM_DS3505
ZGGG,2001-07-18 11:00,ZGGG 181100Z AUTO 15006KT 6SM RMK IEM_DS3505
ZGGG,2001-07-18 12:00,ZGGG 181200Z AUTO 11004KT 9SM 26/24 A2956 RMK SLP024 T02650242 52008 IEM_DS3505
ZGGG,2001-07-18 13:00,ZGGG 181300Z AUTO 15006KT 6SM 27/24 A2959 RMK T02700240 IEM_DS3505
ZGGG,2001-07-18 14:00,ZGGG 181400Z AUTO 14006KT 6SM RMK IEM_DS3505
ZGGG,2001-07-18 15:00,ZGGG 181500Z AUTO 11002KT 8SM 27/25 A2965 RMK SLP047 T02660248 52023 IEM_DS3505
ZGGG,2001-07-18 16:00,ZGGG 181600Z AUTO 15004KT 6SM 27/25 A2965 RMK T02700250 IEM_DS3505
ZGGG,2001-07-18 17:00,ZGGG 181700Z AUTO 16006KT 6SM 27/25 A2962 RMK T02700250 IEM_DS3505
ZGGG,2001-07-18 18:00,ZGGG 181800Z AUTO 09002KT 2 1/2SM 26/25 RMK SLP040 T02570246 57006 IEM_DS3505
ZGGG,2001-07-18 20:00,ZGGG 182000Z AUTO 6SM 26/25 A2962 RMK T02600250 IEM_DS3505
ZGGG,2001-07-18 21:00,ZGGG 182100Z AUTO 00000KT 2 1/2SM 25/24 A2962 RMK SLP039 T02540244 57002 IEM_DS3505
ZGGG,2001-07-18 22:00,ZGGG 182200Z AUTO 26/25 A2962 RMK T02600250 IEM_DS3505
ZGGG,2001-07-18 23:00,ZGGG 182300Z AUTO 6SM 26/25 A2965 RMK T02600250 IEM_DS3505
ZGGG,2001-07-19 00:00,ZGGG 190000Z AUTO 11004KT 5SM 27/25 A2965 RMK SLP052 T02660246 52013 IEM_DS3505
ZGGG,2001-07-19 01:00,ZGGG 190100Z AUTO 14004KT 6SM 28/25 A2965 RMK T02800250 IEM_DS3505
ZGGG,2001-07-19 02:00,ZGGG 190200Z AUTO 15004KT 6SM 29/24 A2968 RMK T02900240 IEM_DS3505
ZGGG,2001-07-19 03:00,ZGGG 190300Z AUTO 14006KT 6SM 30/25 A2968 RMK SLP053 T02990247 52002 IEM_DS3505
ZGGG,2001-07-19 04:00,ZGGG 190400Z AUTO 20006KT 6SM 31/24 A2965 RMK T03100240 IEM_DS3505
ZGGG,2001-07-19 05:00,ZGGG 190500Z AUTO 21008KT 6SM RMK IEM_DS3505
ZGGG,2001-07-19 06:00,ZGGG 190600Z AUTO 14006KT 9SM 32/24 RMK SLP038 T03220238 57015 IEM_DS3505
ZGGG,2001-07-19 07:00,ZGGG 190700Z AUTO 13006KT 6SM 33/24 A2959 RMK T03300240 IEM_DS3505
ZGGG,2001-07-19 08:00,ZGGG 190800Z AUTO 16006KT 6SM RMK IEM_DS3505
ZGGG,2001-07-19 09:00,ZGGG 190900Z AUTO 11008KT 9SM 31/24 RMK SLP029 T03110242 57009 IEM_DS3505
ZGGG,2001-07-19 10:00,ZGGG 191000Z AUTO 15010KT 6SM 31/24 A2959 RMK T03100240 IEM_DS3505
ZGGG,2001-07-19 11:00,ZGGG 191100Z AUTO 16008KT 6SM 30/24 A2962 RMK T03000240 IEM_DS3505
ZGGG,2001-07-19 12:00,ZGGG 191200Z AUTO 16006KT 9SM 29/25 A2962 RMK SLP046 T02860246 52017 IEM_DS3505
ZGGG,2001-07-19 13:00,ZGGG 191300Z AUTO 16006KT 6SM 28/24 A2965 RMK T02800240 IEM_DS3505
ZGGG,2001-07-19 14:00,ZGGG 191400Z AUTO 16008KT 6SM 28/24 A2968 RMK T02800240 IEM_DS3505
ZGGG,2001-07-19 15:00,ZGGG 191500Z AUTO 16006KT 9SM 28/25 A2971 RMK SLP067 T02760249 52021 IEM_DS3505
ZGGG,2001-07-19 16:00,ZGGG 191600Z AUTO 16004KT 6SM 28/26 A2968 RMK T02800260 IEM_DS3505
ZGGG,2001-07-19 17:00,ZGGG 191700Z AUTO 15004KT 6SM 27/25 A2968 RMK T02700250 IEM_DS3505
ZGGG,2001-07-19 18:00,ZGGG 191800Z AUTO 09004KT 7SM 27/24 A2968 RMK SLP057 T02690245 57010 IEM_DS3505
ZGGG,2001-07-19 20:00,ZGGG 192000Z AUTO 6SM 26/24 A2965 RMK T02600240 IEM_DS3505
ZGGG,2001-07-19 21:00,ZGGG 192100Z AUTO 11004KT 5SM 26/24 A2965 RMK SLP048 T02620245 57009 IEM_DS3505
ZGGG,2001-07-19 22:00,ZGGG 192200Z AUTO 13004KT 6SM 26/25 A2965 RMK T02600250 IEM_DS3505
ZGGG,2001-07-19 23:00,ZGGG 192300Z AUTO 11006KT 6SM 26/24 A2968 RMK T02600240 IEM_DS3505
ZGGG,2001-07-20 00:00,ZGGG 200000Z AUTO 11004KT 7SM 27/25 RMK SLP058 T02740249 52010 IEM_DS3505
ZGGG,2001-07-20 01:00,ZGGG 200100Z AUTO 6SM 28/25 A2968 RMK T02800250 IEM_DS3505
ZGGG,2001-07-20 02:00,ZGGG 200200Z AUTO 12008KT 6SM 30/26 A2968 RMK T03000260 IEM_DS3505
ZGGG,2001-07-20 03:00,ZGGG 200300Z AUTO 14006KT 9SM 31/25 RMK SLP057 T03060253 57001 IEM_DS3505
ZGGG,2001-07-20 04:00,ZGGG 200400Z AUTO 33004KT 6SM RMK IEM_DS3505
ZGGG,2001-07-20 06:00,ZGGG 200600Z AUTO 18004KT 9SM 32/24 RMK SLP041 T03180245 57016 IEM_DS3505
ZGGG,2001-07-20 07:00,ZGGG 200700Z AUTO 07006KT 6SM 27/24 A2962 RMK T02700240 IEM_DS3505
ZGGG,2001-07-20 08:00,ZGGG 200800Z AUTO 12004KT 6SM 28/24 A2959 RMK T02800240 IEM_DS3505
ZGGG,2001-07-20 09:00,ZGGG 200900Z AUTO 07002KT 7SM 29/26 A2962 RMK SLP035 T02880257 57006 IEM_DS3505
ZGGG,2001-07-20 10:00,ZGGG 201000Z AUTO 16006KT 6SM 30/24 A2962 RMK T03000240 IEM_DS3505
ZGGG,2001-07-20 11:00,ZGGG 201100Z AUTO 17004KT 6SM 29/24 A2962 RMK T02900240 IEM_DS3505
ZGGG,2001-07-20 12:00,ZGGG 201200Z AUTO 00000KT 9SM 28/25 A2965 RMK 60004 SLP047 T02780253 52012 IEM_DS3505
ZGGG,2001-07-20 13:00,ZGGG 201300Z AUTO 16004KT 6SM 28/24 A2968 RMK T02800240 IEM_DS3505
ZGGG,2001-07-20 14:00,ZGGG 201400Z AUTO 16006KT 6SM 28/25 A2968 RMK T02800250 IEM_DS3505
ZGGG,2001-07-20 15:00,ZGGG 201500Z AUTO 00000KT 7SM 27/25 A2968 RMK SLP058 T02720251 52011 IEM_DS3505
ZGGG,2001-07-20 16:00,ZGGG 201600Z AUTO 12004KT 6SM 27/24 A2968 RMK T02700240 IEM_DS3505
ZGGG,2001-07-20 17:00,ZGGG 201700Z AUTO 09004KT 6SM 27/24 A2965 RMK T02700240 IEM_DS3505
ZGGG,2001-07-20 18:00,ZGGG 201800Z AUTO 00000KT 7SM 26/24 A2965 RMK SLP045 T02620243 57013 IEM_DS3505
ZGGG,2001-07-20 19:00,ZGGG 201900Z AUTO 08004KT 6SM 26/24 A2965 RMK T02600240 IEM_DS3505
ZGGG,2001-07-20 20:00,ZGGG 202000Z AUTO 06002KT 6SM 27/24 A2965 RMK T02700240 IEM_DS3505
ZGGG,2001-07-20 21:00,ZGGG 202100Z AUTO 14002KT 8SM 26/24 A2965 RMK 70004 SLP049 T02620242 52004 IEM_DS3505
ZGGG,2001-07-20 22:00,ZGGG 202200Z AUTO 14004KT 6SM 26/25 A2968 RMK T02600250 IEM_DS3505
ZGGG,2001-07-20 23:00,ZGGG 202300Z AUTO 6SM 26/25 A2968 RMK T02600250 IEM_DS3505
ZGGG,2001-07-21 00:00,ZGGG 210000Z AUTO 34002KT 7SM 27/25 A2968 RMK 60004 SLP060 T02690252 52010 IEM_DS3505
ZGGG,2001-07-21 01:00,ZGGG 210100Z AUTO 6SM RMK IEM_DS3505
ZGGG,2001-07-21 02:00,ZGGG 210200Z AUTO 01006KT 6SM RMK IEM_DS3505
ZGGG,2001-07-21 03:00,ZGGG 210300Z AUTO 07004KT 9SM 27/24 RMK SLP068 T02740235 52008 IEM_DS3505
ZGGG,2001-07-21 04:00,ZGGG 210400Z AUTO 08002KT 6SM 28/24 A2971 RMK T02800240 IEM_DS3505
ZGGG,2001-07-21 05:00,ZGGG 210500Z AUTO 14004KT 6SM 28/24 A2971 RMK T02800240 IEM_DS3505
ZGGG,2001-07-21 06:00,ZGGG 210600Z AUTO 11004KT 7SM 27/25 A2968 RMK 60004 SLP063 T02730253 57005 IEM_DS3505
ZGGG,2001-07-21 07:00,ZGGG 210700Z 12002MPS 9999 FEW020 BKN070 29/26 Q1005 NOSIG
ZGGG,2001-07-21 07:30,ZGGG 210730Z 11003MPS 070V210 9999 FEW020 FEW040CB BKN040 29/25 Q1005 TEMPO 1200 TSRA SCT010 SCT025CB OVC030
ZGGG,2001-07-21 08:30,ZGGG 210830Z 10005MPS 050V130 9999 -TSRA FEW033CB BKN033 28/24 Q1005 TEMPO 1200 TSRA SCT010 SCT025CB OVC030
ZGGG,2001-07-21 09:00,ZGGG 210900Z 11003MPS 070V140 9999 FEW020 OVC070 27/25 Q1005 RETS TEMPO 1200 TSRA SCT010 SCT025CB OVC030
ZGGG,2001-07-21 09:30,ZGGG 210930Z 12002MPS CAVOK 28/24 Q1005 NOSIG
ZGGG,2001-07-21 10:00,ZGGG 211000Z 11002MPS 9999 FEW016 BKN130 28/25 Q1005 NOSIG
ZGGG,2001-07-21 10:30,ZGGG 211030Z 12002MPS 9999 FEW020 BKN160 27/24 Q1005 NOSIG
ZGGG,2001-07-21 11:00,ZGGG 211100Z 12002MPS CAVOK 27/24 Q1005 NOSIG
ZGGG,2001-07-21 12:00,ZGGG 211200Z 10002MPS 8000 FEW020 BKN200 27/24 Q1006 NOSIG
ZGGG,2001-07-21 13:00,ZGGG 211300Z AUTO 10004KT 6SM 27/25 A2971 RMK T02700250 IEM_DS3505
ZGGG,2001-07-21 14:00,ZGGG 211400Z AUTO 12004KT 6SM 27/25 A2974 RMK T02700250 IEM_DS3505
ZGGG,2001-07-21 15:00,ZGGG 211500Z AUTO 00000KT 9SM 26/25 A2977 RMK SLP084 T02620251 52018 IEM_DS3505
ZGGG,2001-07-21 16:00,ZGGG 211600Z AUTO 05002KT 6SM 27/25 A2977 RMK T02700250 IEM_DS3505
ZGGG,2001-07-21 17:00,ZGGG 211700Z AUTO 07002KT 10SM 27/24 A2977 RMK T02700240 IEM_DS3505
ZGGG,2001-07-21 18:00,ZGGG 211800Z AUTO 07004KT 10SM 26/25 A2974 RMK SLP077 T02620246 57007 IEM_DS3505
ZGGG,2001-07-21 19:00,ZGGG 211900Z AUTO 09004KT 6SM 27/24 A2974 RMK T02700240 IEM_DS3505
ZGGG,2001-07-21 20:00,ZGGG 212000Z AUTO 6SM 26/25 A2974 RMK T02600250 IEM_DS3505
ZGGG,2001-07-21 21:00,ZGGG 212100Z AUTO 09006KT 10SM 26/24 RMK 70017 SLP077 T02590240 54000 IEM_DS3505
ZGGG,2001-07-21 22:00,ZGGG 212200Z AUTO 10004KT 6SM RMK IEM_DS3505
ZGGG,2001-07-21 23:00,ZGGG 212300Z AUTO 10004KT 6SM RMK IEM_DS3505
ZGGG,2001-07-22 00:00,ZGGG 220000Z AUTO 09006KT 7SM 26/24 RMK 60002 SLP083 T02640243 52006 IEM_DS3505
ZGGG,2001-07-22 01:00,ZGGG 220100Z AUTO 10006KT 6SM 28/25 A2977 RMK T02800250 IEM_DS3505
ZGGG,2001-07-22 02:00,ZGGG 220200Z AUTO 11008KT 29/25 A2977 RMK T02900250 IEM_DS3505
ZGGG,2001-07-22 03:00,ZGGG 220300Z AUTO 11006KT 9SM 30/25 RMK SLP094 T02960252 52011 IEM_DS3505
ZGGG,2001-07-22 04:00,ZGGG 220400Z AUTO 15008KT 6SM 32/25 A2977 RMK T03200250 IEM_DS3505
ZGGG,2001-07-22 05:00,ZGGG 220500Z AUTO 09008KT 6SM 32/25 A2977 RMK T03200250 IEM_DS3505
ZGGG,2001-07-22 06:00,ZGGG 220600Z AUTO 16008KT 9SM 29/26 A2974 RMK 60002 SLP086 T02900259 57008 IEM_DS3505
ZGGG,2001-07-22 07:00,ZGGG 220700Z AUTO 14008KT 6SM 31/25 A2974 RMK T03100250 IEM_DS3505
ZGGG,2001-07-22 08:00,ZGGG 220800Z AUTO 12010KT 6SM 29/25 A2974 RMK T02900250 IEM_DS3505
ZGGG,2001-07-22 09:00,ZGGG 220900Z AUTO 09004KT 9SM 28/26 A2974 RMK SLP080 T02800255 57006 IEM_DS3505
ZGGG,2001-07-22 10:00,ZGGG 221000Z AUTO 13008KT 2 1/2SM 29/26 A2974 RMK T02900260 IEM_DS3505
ZGGG,2001-07-22 11:00,ZGGG 221100Z AUTO 12006KT 6SM 29/25 A2974 RMK T02900250 IEM_DS3505
ZGGG,2001-07-22 12:00,ZGGG 221200Z AUTO 11004KT 8SM 27/25 A2977 RMK 60003 SLP087 T02740251 52007 IEM_DS3505
ZGGG,2001-07-22 13:00,ZGGG 221300Z AUTO 12004KT 6SM 27/24 A2977 RMK T02700240 IEM_DS3505
ZGGG,2001-07-22 14:00,ZGGG 221400Z AUTO 12006KT 6SM 27/25 A2980 RMK T02700250 IEM_DS3505
ZGGG,2001-07-22 15:00,ZGGG 221500Z AUTO 09004KT 3SM 26/25 A2980 RMK SLP102 T02650252 52015 IEM_DS3505
ZGGG,2001-07-22 16:00,ZGGG 221600Z AUTO 19SM RMK IEM_DS3505
ZGGG,2001-07-22 17:00,ZGGG 221700Z AUTO 16002KT 6SM RMK IEM_DS3505
ZGGG,2001-07-22 18:00,ZGGG 221800Z AUTO 07002KT 5SM 26/25 RMK SLP100 T02620249 57002 IEM_DS3505
ZGGG,2001-07-22 19:00,ZGGG 221900Z AUTO 6SM RMK IEM_DS3505
ZGGG,2001-07-22 20:00,ZGGG 222000Z AUTO A2980 RMK IEM_DS3505
ZGGG,2001-07-22 21:00,ZGGG 222100Z AUTO 00000KT 2SM 26/25 A2977 RMK 70003 SLP091 T02550246 57009 IEM_DS3505
ZGGG,2001-07-22 22:00,ZGGG 222200Z AUTO 04004KT 6SM 26/26 A2980 RMK T02600260 IEM_DS3505
ZGGG,2001-07-22 23:00,ZGGG 222300Z AUTO 6SM 26/26 A2980 RMK T02600260 IEM_DS3505
ZGGG,2001-07-23 00:00,ZGGG 230000Z AUTO 00000KT 8SM 28/25 A2980 RMK 70002 SLP097 T02790251 52006 IEM_DS3505
ZGGG,2001-07-23 01:00,ZGGG 230100Z AUTO 17004KT 6SM 29/25 A2980 RMK T02900250 IEM_DS3505
ZGGG,2001-07-23 02:00,ZGGG 230200Z AUTO 14002KT 6SM 31/24 A2977 RMK T03100240 IEM_DS3505
ZGGG,2001-07-23 03:00,ZGGG 230300Z AUTO 16002KT 8SM 31/24 A2977 RMK SLP087 T03120238 57009 IEM_DS3505
ZGGG,2001-07-23 04:00,ZGGG 230400Z AUTO 03004KT 6SM 32/24 A2974 RMK T03200240 IEM_DS3505
ZGGG,2001-07-23 05:00,ZGGG 230500Z AUTO 30004KT 6SM 32/24 A2974 RMK T03200240 IEM_DS3505
ZGGG,2001-07-23 06:00,ZGGG 230600Z AUTO 00000KT 9SM 32/24 A2971 RMK SLP068 T03240240 57019 IEM_DS3505
ZGGG,2001-07-23 07:00,ZGGG 230700Z AUTO 36004KT 6SM 33/25 A2968 RMK T03300250 IEM_DS3505
ZGGG,2001-07-23 09:00,ZGGG 230900Z AUTO 14002KT 7SM 33/25 RMK SLP054 T03260246 57014 IEM_DS3505
ZGGG,2001-07-23 10:00,ZGGG 231000Z AUTO 01002KT 6SM 33/24 A2965 RMK T03300240 IEM_DS3505
ZGGG,2001-07-23 11:00,ZGGG 231100Z AUTO 12002KT 6SM 32/23 A2962 RMK T03200230 IEM_DS3505
ZGGG,2001-07-23 12:00,ZGGG 231200Z AUTO 00000KT 7SM 30/25 A2965 RMK SLP047 T03000254 57007 IEM_DS3505
ZGGG,2001-07-23 13:00,ZGGG 231300Z AUTO 6SM 30/24 A2965 RMK T03000240 IEM_DS3505
ZGGG,2001-07-23 14:00,ZGGG 231400Z AUTO 6SM 29/25 A2968 RMK T02900250 IEM_DS3505
ZGGG,2001-07-23 15:00,ZGGG 231500Z AUTO 00000KT 2 1/2SM 28/26 A2968 RMK SLP055 T02840257 52008 IEM_DS3505
ZGGG,2001-07-23 16:00,ZGGG 231600Z AUTO 20004KT 6SM 29/26 A2965 RMK T02900260 IEM_DS3505
ZGGG,2001-07-23 17:00,ZGGG 231700Z AUTO 17004KT 6SM 28/26 A2965 RMK T02800260 IEM_DS3505
ZGGG,2001-07-23 18:00,ZGGG 231800Z AUTO 00000KT 6SM 28/26 A2965 RMK SLP048 T02760258 57007 IEM_DS3505
ZGGG,2001-07-23 19:00,ZGGG 231900Z AUTO 23004KT 6SM 28/26 A2965 RMK T02800260 IEM_DS3505
ZGGG,2001-07-23 20:00,ZGGG 232000Z AUTO 6SM 28/24 A2965 RMK T02800240 IEM_DS3505
ZGGG,2001-07-23 21:00,ZGGG 232100Z AUTO 00000KT 6SM 27/25 A2965 RMK SLP046 T02690254 57002 IEM_DS3505
ZGGG,2001-07-23 22:00,ZGGG 232200Z AUTO 6SM 28/26 A2965 RMK T02800260 IEM_DS3505
ZGGG,2001-07-23 23:00,ZGGG 232300Z AUTO 14002KT 6SM 28/26 A2965 RMK T02800260 IEM_DS3505
ZGGG,2001-07-24 00:00,ZGGG 240000Z AUTO 22002KT 6SM 30/26 A2965 RMK SLP050 T02950262 52004 IEM_DS3505
ZGGG,2001-07-24 01:30,ZGGG 240130Z AUTO 10SM 31/25 A2965 RMK T03100250 IEM_DS3505
ZGGG,2001-07-24 02:00,ZGGG 240200Z AUTO 36004KT 31/26 A2965 RMK T03100260 IEM_DS3505
ZGGG,2001-07-24 03:00,ZGGG 240300Z AUTO 34002KT 8SM 33/26 A2965 RMK SLP049 T03340262 57001 IEM_DS3505
ZGGG,2001-07-24 04:00,ZGGG 240400Z AUTO 34004KT 6SM 34/25 A2962 RMK T03400250 IEM_DS3505
ZGGG,2001-07-24 05:00,ZGGG 240500Z AUTO 32006KT 34/23 A2962 RMK T03400230 IEM_DS3505
ZGGG,2001-07-24 06:00,ZGGG 240600Z AUTO 32002KT 9SM 35/24 A2959 RMK SLP029 T03540242 57020 IEM_DS3505
ZGGG,2001-07-24 07:00,ZGGG 240700Z AUTO 33006KT 5SM 35/24 A2956 RMK T03500240 IEM_DS3505
ZGGG,2001-07-24 08:00,ZGGG 240800Z AUTO 29006KT 6SM 35/22 A2956 RMK T03500220 IEM_DS3505
ZGGG,2001-07-24 09:00,ZGGG 240900Z AUTO 02006G37KT 1 1/4SM A2962 RMK SLP051 52021 IEM_DS3505
ZGGG,2001-07-24 10:00,ZGGG 241000Z AUTO 06004KT 6SM 25/22 A2968 RMK T02500220 IEM_DS3505
ZGGG,2001-07-24 11:00,ZGGG 241100Z AUTO 15002KT 6SM 25/23 A2965 RMK T02500230 IEM_DS3505
ZGGG,2001-07-24 12:00,ZGGG 241200Z AUTO 00000KT 7SM 24/24 A2965 RMK 60189 SLP048 T02410240 57003 IEM_DS3505
ZGGG,2001-07-24 13:00,ZGGG 241300Z AUTO 07006KT 25/24 A2965 RMK T02500240 IEM_DS3505
ZGGG,2001-07-24 14:00,ZGGG 241400Z AUTO 06004KT 6SM 25/23 A2965 RMK T02500230 IEM_DS3505
ZGGG,2001-07-24 15:00,ZGGG 241500Z AUTO 34004KT 9SM 24/24 A2965 RMK SLP049 T02400236 52002 IEM_DS3505
ZGGG,2001-07-24 16:00,ZGGG 241600Z AUTO 01004KT 6SM 25/23 A2965 RMK T02500230 IEM_DS3505
ZGGG,2001-07-24 17:00,ZGGG 241700Z AUTO 04008KT 6SM 25/24 A2965 RMK T02500240 IEM_DS3505
ZGGG,2001-07-24 18:00,ZGGG 241800Z AUTO 29002KT 9SM 25/24 A2965 RMK 60003 SLP044 T02480236 57005 IEM_DS3505
ZGGG,2001-07-24 19:00,ZGGG 241900Z AUTO 02004KT 6SM 26/24 A2962 RMK T02600240 IEM_DS3505
ZGGG,2001-07-24 20:00,ZGGG 242000Z AUTO 04008KT 6SM 25/23 A2962 RMK T02500230 IEM_DS3505
ZGGG,2001-07-24 21:00,ZGGG 242100Z AUTO 00000KT 10SM 25/23 A2962 RMK 70189 SLP040 T02500230 57005 IEM_DS3505
ZGGG,2001-07-24 22:00,ZGGG 242200Z AUTO 04006KT 6SM 24/24 A2962 RMK T02400240 IEM_DS3505
ZGGG,2001-07-24 23:00,ZGGG 242300Z AUTO 04006KT 6SM 26/24 A2965 RMK T02600240 IEM_DS3505
ZGGG,2001-07-25 00:00,ZGGG 250000Z AUTO 04006KT 10SM 27/23 A2968 RMK 70189 SLP052 T02740229 52012 IEM_DS3505
ZGGG,2001-07-25 01:00,ZGGG 250100Z AUTO 02008KT 6SM 28/23 A2965 RMK T02800230 IEM_DS3505
ZGGG,2001-07-25 02:00,ZGGG 250200Z AUTO 05012KT 6SM 30/23 A2965 RMK T03000230 IEM_DS3505
ZGGG,2001-07-25 03:00,ZGGG 250300Z AUTO 09006G25KT 16SM 31/23 RMK SLP049 T03080230 57002 IEM_DS3505
ZGGG,2001-07-25 04:00,ZGGG 250400Z AUTO 05014KT 31/22 A2965 RMK T03100220 IEM_DS3505
ZGGG,2001-07-25 05:00,ZGGG 250500Z AUTO 05014KT 31/22 A2965 RMK T03100220 IEM_DS3505
ZGGG,2001-07-25 06:00,ZGGG 250600Z AUTO 09004KT 14SM 27/25 RMK 60012 SLP049 T02720251 57001 IEM_DS3505
ZGGG,2001-07-25 07:00,ZGGG 250700Z AUTO 09006KT 6SM 26/24 A2965 RMK T02600240 IEM_DS3505
ZGGG,2001-07-25 08:00,ZGGG 250800Z AUTO 07012KT 6SM 27/23 A2962 RMK T02700230 IEM_DS3505
ZGGG,2001-07-25 09:00,ZGGG 250900Z AUTO 11006KT 19SM 27/23 A2962 RMK SLP044 T02680233 57005 IEM_DS3505
ZGGG,2001-07-25 10:00,ZGGG 251000Z AUTO 08008KT 6SM 27/23 A2965 RMK T02700230 IEM_DS3505
ZGGG,2001-07-25 11:00,ZGGG 251100Z AUTO 07010KT 6SM 27/22 A2965 RMK T02700220 IEM_DS3505
ZGGG,2001-07-25 12:00,ZGGG 251200Z AUTO 07006G23KT 14SM 27/23 A2965 RMK 60028 SLP049 T02680226 52005 IEM_DS3505
ZGGG,2001-07-25 13:00,ZGGG 251300Z AUTO 10012G21KT 6SM RMK IEM_DS3505
ZGGG,2001-07-25 14:00,ZGGG 251400Z AUTO 08012KT 27/23 A2968 RMK T02700230 IEM_DS3505
ZGGG,2001-07-25 15:00,ZGGG 251500Z AUTO 09006KT 11SM 27/23 A2968 RMK SLP062 T02680227 52014 IEM_DS3505
ZGGG,2001-07-25 16:00,ZGGG 251600Z AUTO 10010G19KT RMK IEM_DS3505
ZGGG,2001-07-25 17:00,ZGGG 251700Z AUTO 10012KT 6SM RMK IEM_DS3505
ZGGG,2001-07-25 18:00,ZGGG 251800Z AUTO 09006KT 10SM 26/23 RMK SLP057 T02630226 57006 IEM_DS3505
ZGGG,2001-07-25 19:00,ZGGG 251900Z AUTO 11012KT 6SM 26/23 A2968 RMK T02600230 IEM_DS3505
ZGGG,2001-07-25 20:00,ZGGG 252000Z AUTO 11008KT 6SM 26/23 A2965 RMK T02600230 IEM_DS3505
ZGGG,2001-07-25 21:00,ZGGG 252100Z AUTO 09008KT 12SM 26/23 A2965 RMK 70039 SLP054 T02570231 57003 IEM_DS3505
ZGGG,2001-07-25 22:00,ZGGG 252200Z AUTO 10008KT 6SM 26/23 A2968 RMK T02600230 IEM_DS3505
ZGGG,2001-07-25 23:00,ZGGG 252300Z AUTO 10010KT 6SM RMK IEM_DS3505
ZGGG,2001-07-26 00:00,ZGGG 260000Z AUTO 09006KT 14SM 27/24 RMK 70039 SLP068 T02660237 52014 IEM_DS3505
ZGGG,2001-07-26 01:00,ZGGG 260100Z AUTO 12008KT 6SM RMK IEM_DS3505
ZGGG,2001-07-26 02:00,ZGGG 260200Z AUTO 12008KT 6SM 28/24 A2974 RMK T02800240 IEM_DS3505
ZGGG,2001-07-26 03:00,ZGGG 260300Z AUTO 14006KT 6SM 28/25 RMK SLP075 T02780250 52007 IEM_DS3505
ZGGG,2001-07-26 04:00,ZGGG 260400Z AUTO 13008KT 6SM RMK IEM_DS3505
ZGGG,2001-07-26 05:00,ZGGG 260500Z AUTO 14010KT 6SM RMK IEM_DS3505
ZGGG,2001-07-26 06:00,ZGGG 260600Z AUTO 22008G31KT 12SM 30/24 A2971 RMK 60000 SLP065 T03000243 57009 IEM_DS3505
ZGGG,2001-07-26 07:00,ZGGG 260700Z AUTO 16008KT 6SM 27/24 A2965 RMK T02700240 IEM_DS3505
ZGGG,2001-07-26 08:00,ZGGG 260800Z AUTO 14006KT 6SM 28/24 A2968 RMK T02800240 IEM_DS3505
ZGGG,2001-07-26 09:00,ZGGG 260900Z AUTO 14006KT 11SM 28/25 RMK SLP056 T02760249 57010 IEM_DS3505
ZGGG,2001-07-26 10:00,ZGGG 261000Z AUTO 13008KT 6SM 28/24 A2968 RMK T02800240 IEM_DS3505
ZGGG,2001-07-26 11:00,ZGGG 261100Z AUTO 14004KT 6SM RMK IEM_DS3505
ZGGG,2001-07-26 12:00,ZGGG 261200Z AUTO 11004KT 9SM 27/24 A2971 RMK 60020 SLP067 T02700243 52011 IEM_DS3505
ZGGG,2001-07-26 13:00,ZGGG 261300Z AUTO 09006KT 6SM RMK IEM_DS3505
ZGGG,2001-07-26 14:00,ZGGG 261400Z AUTO 07004KT 6SM 26/24 A2977 RMK T02600240 IEM_DS3505
ZGGG,2001-07-26 15:00,ZGGG 261500Z AUTO 16002KT 7SM 26/24 A2977 RMK SLP089 T02580242 52022 IEM_DS3505
ZGGG,2001-07-26 16:00,ZGGG 261600Z AUTO 12006KT 6SM 26/24 A2977 RMK T02600240 IEM_DS3505
ZGGG,2001-07-26 17:00,ZGGG 261700Z AUTO 06004KT 6SM 26/25 A2974 RMK T02600250 IEM_DS3505
ZGGG,2001-07-26 18:00,ZGGG 261800Z AUTO 09004KT 6SM 25/24 A2974 RMK 60012 SLP081 T02540245 57008 IEM_DS3505
ZGGG,2001-07-26 19:00,ZGGG 261900Z AUTO 07002KT 6SM 26/25 A2974 RMK T02600250 IEM_DS3505
ZGGG,2001-07-26 20:00,ZGGG 262000Z AUTO 14008KT 6SM RMK IEM_DS3505
ZGGG,2001-07-26 21:00,ZGGG 262100Z AUTO 00000KT 4SM 25/24 A2974 RMK 70061 SLP074 T02520245 57007 IEM_DS3505
ZGGG,2001-07-26 22:00,ZGGG 262200Z AUTO 6SM 25/25 A2971 RMK T02500250 IEM_DS3505
ZGGG,2001-07-26 23:00,ZGGG 262300Z AUTO 6SM 25/25 A2974 RMK T02500250 IEM_DS3505
ZGGG,2001-07-27 00:00,ZGGG 270000Z AUTO 14002KT 4SM 26/25 A2974 RMK 60039 SLP074 T02600253 54000 IEM_DS3505
ZGGG,2001-07-27 01:00,ZGGG 270100Z AUTO 12004KT 6SM RMK IEM_DS3505
ZGGG,2001-07-27 02:00,ZGGG 270200Z AUTO 13006KT 6SM 29/26 A2971 RMK T02900260 IEM_DS3505
ZGGG,2001-07-27 03:00,ZGGG 270300Z AUTO 14006KT 8SM 30/25 RMK SLP070 T02980253 57003 IEM_DS3505
ZGGG,2001-07-27 04:00,ZGGG 270400Z AUTO 16008KT 6SM 31/26 A2971 RMK T03100260 IEM_DS3505
ZGGG,2001-07-27 06:00,ZGGG 270600Z AUTO 20006KT 10SM 30/26 A2971 RMK 60008 SLP064 T03010258 57006 IEM_DS3505
ZGGG,2001-07-27 07:00,ZGGG 270700Z AUTO 16010KT 6SM 31/26 A2968 RMK T03100260 IEM_DS3505
ZGGG,2001-07-27 08:00,ZGGG 270800Z AUTO 15008KT 6SM 30/26 A2965 RMK T03000260 IEM_DS3505
ZGGG,2001-07-27 09:00,ZGGG 270900Z AUTO 14004KT 11SM 30/25 A2965 RMK SLP051 T03000249 57013 IEM_DS3505
ZGGG,2001-07-27 10:00,ZGGG 271000Z AUTO 15006KT 6SM 30/25 A2968 RMK T03000250 IEM_DS3505
ZGGG,2001-07-27 11:00,ZGGG 271100Z AUTO 15006KT 6SM 29/25 A2968 RMK T02900250 IEM_DS3505
ZGGG,2001-07-27 12:00,ZGGG 271200Z AUTO 18004KT 10SM 29/25 A2971 RMK 60000 SLP066 T02860252 52014 IEM_DS3505
ZGGG,2001-07-27 13:00,ZGGG 271300Z AUTO 15006KT 6SM 28/26 A2971 RMK T02800260 IEM_DS3505
ZGGG,2001-07-27 14:00,ZGGG 271400Z AUTO 15006KT 6SM 28/26 A2974 RMK T02800260 IEM_DS3505
ZGGG,2001-07-27 15:00,ZGGG 271500Z AUTO 18004KT 10SM 28/25 A2974 RMK SLP078 T02760252 52013 IEM_DS3505
ZGGG,2001-07-27 16:00,ZGGG 271600Z AUTO 16006KT 6SM 27/26 A2974 RMK T02700260 IEM_DS3505
ZGGG,2001-07-27 17:00,ZGGG 271700Z AUTO 18004KT 6SM 27/26 A2971 RMK T02700260 IEM_DS3505
ZGGG,2001-07-27 18:00,ZGGG 271800Z AUTO 18002KT 9SM 27/26 RMK SLP070 T02690255 57008 IEM_DS3505
ZGGG,2001-07-27 19:00,ZGGG 271900Z AUTO 17004KT 6SM 27/26 A2971 RMK T02700260 IEM_DS3505
ZGGG,2001-07-27 20:00,ZGGG 272000Z AUTO 16004KT 6SM 27/26 A2971 RMK T02700260 IEM_DS3505
ZGGG,2001-07-27 21:00,ZGGG 272100Z AUTO 14002KT 8SM 27/25 A2971 RMK 70020 SLP064 T02660252 57006 IEM_DS3505
ZGGG,2001-07-27 22:00,ZGGG 272200Z AUTO 16002KT 6SM 27/26 A2971 RMK T02700260 IEM_DS3505
ZGGG,2001-07-27 23:00,ZGGG 272300Z AUTO 16004KT 6SM 27/26 A2971 RMK T02700260 IEM_DS3505
ZGGG,2001-07-28 00:00,ZGGG 280000Z AUTO 09002KT 2SM 27/25 A2974 RMK 70009 SLP076 T02720254 52011 IEM_DS3505
ZGGG,2001-07-28 01:00,ZGGG 280100Z AUTO 14004KT 6SM 29/26 A2974 RMK T02900260 IEM_DS3505
ZGGG,2001-07-28 02:00,ZGGG 280200Z AUTO 13006KT 6SM 30/25 A2974 RMK T03000250 IEM_DS3505
ZGGG,2001-07-28 03:00,ZGGG 280300Z AUTO 22002KT 7SM 31/25 A2974 RMK SLP077 T03080250 52002 IEM_DS3505
ZGGG,2001-07-28 04:00,ZGGG 280400Z AUTO 17004KT 6SM 31/24 A2971 RMK T03100240 IEM_DS3505
ZGGG,2001-07-28 05:00,ZGGG 280500Z AUTO 13002KT 6SM 32/23 A2971 RMK T03200230 IEM_DS3505
ZGGG,2001-07-28 06:00,ZGGG 280600Z AUTO 18004KT 9SM 33/24 A2968 RMK SLP062 T03270241 57015 IEM_DS3505
ZGGG,2001-07-28 07:00,ZGGG 280700Z AUTO 11004KT 19SM 33/24 A2965 RMK T03300240 IEM_DS3505
ZGGG,2001-07-28 08:00,ZGGG 280800Z AUTO 19002KT RMK IEM_DS3505
ZGGG,2001-07-28 09:00,ZGGG 280900Z AUTO 00000KT 9SM 33/24 A2962 RMK SLP042 T03320245 57020 IEM_DS3505
ZGGG,2001-07-28 10:00,ZGGG 281000Z AUTO 12004KT 6SM 32/24 A2962 RMK T03200240 IEM_DS3505
ZGGG,2001-07-28 11:00,ZGGG 281100Z AUTO 14004KT 6SM 32/24 A2962 RMK T03200240 IEM_DS3505
ZGGG,2001-07-28 12:00,ZGGG 281200Z AUTO 18004KT 10SM 30/25 A2965 RMK SLP053 T03050253 52011 IEM_DS3505
ZGGG,2001-07-28 13:00,ZGGG 281300Z AUTO 17008KT 6SM 30/25 A2968 RMK T03000250 IEM_DS3505
ZGGG,2001-07-28 14:00,ZGGG 281400Z AUTO 17006KT 6SM 29/26 A2971 RMK T02900260 IEM_DS3505
ZGGG,2001-07-28 15:00,ZGGG 281500Z AUTO 14006KT 11SM 29/25 A2971 RMK SLP069 T02880251 52016 IEM_DS3505
ZGGG,2001-07-28 16:00,ZGGG 281600Z AUTO 19006KT 6SM 28/25 A2971 RMK T02800250 IEM_DS3505
ZGGG,2001-07-28 17:00,ZGGG 281700Z AUTO 20006KT 6SM 28/25 A2971 RMK T02800250 IEM_DS3505
ZGGG,2001-07-28 18:00,ZGGG 281800Z AUTO 14002KT 9SM 28/25 A2968 RMK SLP060 T02760251 57009 IEM_DS3505
ZGGG,2001-07-28 19:00,ZGGG 281900Z AUTO 13004KT 6SM 27/24 A2968 RMK T02700240 IEM_DS3505
ZGGG,2001-07-28 20:00,ZGGG 282000Z AUTO 27/24 A2968 RMK T02700240 IEM_DS3505
ZGGG,2001-07-28 21:00,ZGGG 282100Z AUTO 00000KT 9SM 27/25 A2968 RMK SLP060 T02660249 54000 IEM_DS3505
ZGGG,2001-07-28 22:00,ZGGG 282200Z AUTO 19002KT 1 1/4SM 27/24 A2968 RMK T02700240 IEM_DS3505
ZGGG,2001-07-28 23:00,ZGGG 282300Z AUTO 13002KT 6SM 28/25 A2968 RMK T02800250 IEM_DS3505
ZGGG,2001-07-29 00:00,ZGGG 290000Z AUTO 14004KT 7SM 29/26 RMK SLP068 T02860255 52008 IEM_DS3505
ZGGG,2001-07-29 01:00,ZGGG 290100Z AUTO 24002KT 6SM 29/24 A2974 RMK T02900240 IEM_DS3505
ZGGG,2001-07-29 02:00,ZGGG 290200Z AUTO 25004KT 6SM 30/24 A2974 RMK T03000240 IEM_DS3505
ZGGG,2001-07-29 03:00,ZGGG 290300Z AUTO 27004KT 7SM 32/24 A2974 RMK SLP073 T03150243 52005 IEM_DS3505
ZGGG,2001-07-29 04:00,ZGGG 290400Z AUTO 26002KT 6SM 31/24 A2971 RMK T03100240 IEM_DS3505
ZGGG,2001-07-29 05:00,ZGGG 290500Z AUTO 26004KT 32/23 A2968 RMK T03200230 IEM_DS3505
ZGGG,2001-07-29 06:00,ZGGG 290600Z AUTO 27004KT 8SM 34/24 A2965 RMK SLP054 T03380242 57019 IEM_DS3505
ZGGG,2001-07-29 07:00,ZGGG 290700Z AUTO 26006KT 6SM 34/22 A2965 RMK T03400220 IEM_DS3505
ZGGG,2001-07-29 08:00,ZGGG 290800Z AUTO 28004KT 6SM RMK IEM_DS3505
ZGGG,2001-07-29 09:00,ZGGG 290900Z AUTO 16004KT 9SM 34/24 RMK SLP040 T03390239 57014 IEM_DS3505
ZGGG,2001-07-29 10:00,ZGGG 291000Z AUTO 15004KT 6SM RMK IEM_DS3505
ZGGG,2001-07-29 11:00,ZGGG 291100Z AUTO 16006KT 6SM 33/23 A2962 RMK T03300230 IEM_DS3505
ZGGG,2001-07-29 12:00,ZGGG 291200Z AUTO 20004KT 9SM 31/25 A2962 RMK SLP044 T03140254 52004 IEM_DS3505
ZGGG,2001-07-29 13:00,ZGGG 291300Z AUTO 17006KT 6SM 31/26 A2965 RMK T03100260 IEM_DS3505
ZGGG,2001-07-29 14:00,ZGGG 291400Z AUTO 21010KT 6SM 30/25 A2968 RMK T03000250 IEM_DS3505
ZGGG,2001-07-29 15:00,ZGGG 291500Z AUTO 18004KT 11SM 30/26 RMK SLP062 T02970262 52018 IEM_DS3505
ZGGG,2001-07-29 16:00,ZGGG 291600Z AUTO 19006KT 6SM 29/25 A2968 RMK T02900250 IEM_DS3505
ZGGG,2001-07-29 17:00,ZGGG 291700Z AUTO 20008KT 6SM 29/25 A2968 RMK T02900250 IEM_DS3505
ZGGG,2001-07-29 18:00,ZGGG 291800Z AUTO 22002KT 10SM 28/25 A2968 RMK SLP054 T02850250 57008 IEM_DS3505
ZGGG,2001-07-29 19:00,ZGGG 291900Z AUTO 17004KT 6SM 28/25 A2968 RMK T02800250 IEM_DS3505
ZGGG,2001-07-29 20:00,ZGGG 292000Z AUTO 17004KT 6SM 28/25 A2968 RMK T02800250 IEM_DS3505
ZGGG,2001-07-29 21:00,ZGGG 292100Z AUTO 14004KT 9SM 27/25 A2968 RMK SLP058 T02730249 52004 IEM_DS3505
ZGGG,2001-07-29 22:00,ZGGG 292200Z AUTO 6SM 28/24 A2971 RMK T02800240 IEM_DS3505
ZGGG,2001-07-29 23:00,ZGGG 292300Z AUTO 20006KT 31SM 28/24 A2971 RMK T02800240 IEM_DS3505
ZGGG,2001-07-30 00:00,ZGGG 300000Z AUTO 22004KT 11SM 29/25 A2971 RMK SLP066 T02910252 52008 IEM_DS3505
ZGGG,2001-07-30 01:00,ZGGG 300100Z AUTO 22004KT 6SM 30/24 A2971 RMK T03000240 IEM_DS3505
ZGGG,2001-07-30 02:00,ZGGG 300200Z AUTO 24004KT 6SM RMK IEM_DS3505
ZGGG,2001-07-30 03:00,ZGGG 300300Z AUTO 18002KT 10SM 32/25 A2971 RMK SLP067 T03190246 52001 IEM_DS3505
ZGGG,2001-07-30 04:00,ZGGG 300400Z AUTO 23004KT 6SM 33/24 A2968 RMK T03300240 IEM_DS3505
ZGGG,2001-07-30 05:00,ZGGG 300500Z AUTO 21008KT 9SM 33/23 A2965 RMK T03300230 IEM_DS3505
ZGGG,2001-07-30 06:00,ZGGG 300600Z AUTO 00000KT 11SM 34/24 A2965 RMK SLP045 T03430242 57022 IEM_DS3505
ZGGG,2001-07-30 07:00,ZGGG 300700Z AUTO 24006KT 6SM RMK IEM_DS3505
ZGGG,2001-07-30 08:00,ZGGG 300800Z AUTO 32004KT 6SM RMK IEM_DS3505
ZGGG,2001-07-30 09:00,ZGGG 300900Z AUTO 20004KT 10SM 34/26 RMK SLP032 T03350256 57013 IEM_DS3505
ZGGG,2001-07-30 10:00,ZGGG 301000Z AUTO 20010KT 33/25 A2959 RMK T03300250 IEM_DS3505
ZGGG,2001-07-30 11:00,ZGGG 301100Z AUTO 18008KT 6SM 32/24 A2962 RMK T03200240 IEM_DS3505
ZGGG,2001-07-30 12:00,ZGGG 301200Z AUTO 16002KT 9SM 31/25 A2962 RMK SLP044 T03110251 52012 IEM_DS3505
ZGGG,2001-07-30 13:00,ZGGG 301300Z AUTO 15006KT 6SM 32/26 A2965 RMK T03200260 IEM_DS3505
ZGGG,2001-07-30 14:00,ZGGG 301400Z AUTO 16008KT 6SM 31/26 A2968 RMK T03100260 IEM_DS3505
ZGGG,2001-07-30 15:00,ZGGG 301500Z AUTO 18002KT 10SM 30/26 A2971 RMK SLP067 T03010265 52023 IEM_DS3505
ZGGG,2001-07-30 16:00,ZGGG 301600Z AUTO 19006KT 7SM 30/26 A2971 RMK T03000260 IEM_DS3505
ZGGG,2001-07-30 17:00,ZGGG 301700Z AUTO 21010KT 7SM 29/26 A2968 RMK T02900260 IEM_DS3505
ZGGG,2001-07-30 18:00,ZGGG 301800Z AUTO 20006KT 10SM 29/26 A2965 RMK SLP051 T02920261 57016 IEM_DS3505
ZGGG,2001-07-30 19:00,ZGGG 301900Z AUTO 21008KT 7SM 29/26 A2965 RMK T02900260 IEM_DS3505
ZGGG,2001-07-30 20:00,ZGGG 302000Z AUTO 20006KT 7SM 28/26 A2965 RMK T02800260 IEM_DS3505
ZGGG,2001-07-30 21:00,ZGGG 302100Z AUTO 20004KT 9SM 29/26 A2965 RMK SLP050 T02860261 57001 IEM_DS3505
ZGGG,2001-07-30 23:00,ZGGG 302300Z AUTO 7SM 29/26 A2968 RMK T02900260 IEM_DS3505
ZGGG,2001-07-31 00:00,ZGGG 310000Z AUTO 18002KT 9SM 30/26 A2968 RMK SLP062 T02970259 52012 IEM_DS3505
ZGGG,2001-07-31 01:00,ZGGG 310100Z AUTO 20004KT 7SM 31/26 A2971 RMK T03100260 IEM_DS3505
ZGGG,2001-07-31 02:00,ZGGG 310200Z AUTO 20006KT 7SM 31/25 A2971 RMK T03100250 IEM_DS3505
ZGGG,2001-07-31 03:00,ZGGG 310300Z AUTO 22004KT 11SM 32/26 A2968 RMK SLP063 T03200259 52001 IEM_DS3505
ZGGG,2001-07-31 04:00,ZGGG 310400Z AUTO 24008KT 7SM 33/24 A2968 RMK T03300240 IEM_DS3505
ZGGG,2001-07-31 05:00,ZGGG 310500Z AUTO 26004KT 7SM 34/24 A2965 RMK T03400240 IEM_DS3505
ZGGG,2001-07-31 06:00,ZGGG 310600Z AUTO 32004KT 14SM 33/25 A2962 RMK SLP043 T03300252 57020 IEM_DS3505
ZGGG,2001-07-31 07:00,ZGGG 310700Z AUTO 31004KT 7SM 33/24 A2959 RMK T03300240 IEM_DS3505
ZGGG,2001-07-31 08:00,ZGGG 310800Z AUTO 7SM 34/23 A2959 RMK T03400230 IEM_DS3505
ZGGG,2001-07-31 09:00,ZGGG 310900Z AUTO 16004KT 11SM 34/24 A2956 RMK SLP023 T03390245 57020 IEM_DS3505
ZGGG,2001-07-31 10:00,ZGGG 311000Z AUTO 14006KT 7SM 34/23 A2956 RMK T03400230 IEM_DS3505
ZGGG,2001-07-31 11:00,ZGGG 311100Z AUTO 17006KT 6SM 32/24 A2959 RMK T03200240 IEM_DS3505
ZGGG,2001-07-31 12:00,ZGGG 311200Z AUTO 14006KT 11SM 31/26 A2959 RMK SLP033 T03110255 52010 IEM_DS3505
ZGGG,2001-07-31 13:00,ZGGG 311300Z AUTO 15004KT 6SM 31/26 A2962 RMK T03100260 IEM_DS3505
ZGGG,2001-07-31 14:00,ZGGG 311400Z AUTO 16006KT 6SM 31/27 A2965 RMK T03100270 IEM_DS3505
ZGGG,2001-07-31 15:00,ZGGG 311500Z AUTO 16004KT 9SM 30/27 A2965 RMK SLP054 T02960266 52021 IEM_DS3505
ZGGG,2001-07-31 16:00,ZGGG 311600Z AUTO 15004KT 7SM 30/26 A2965 RMK T03000260 IEM_DS3505
ZGGG,2001-07-31 17:00,ZGGG 311700Z AUTO 20008KT 7SM 30/26 A2965 RMK T03000260 IEM_DS3505
ZGGG,2001-07-31 18:00,ZGGG 311800Z AUTO 25004KT 9SM 29/27 A2962 RMK SLP040 T02930267 57014 IEM_DS3505
ZGGG,2001-07-31 19:00,ZGGG 311900Z AUTO 21008KT 7SM 29/26 A2959 RMK T02900260 IEM_DS3505
ZGGG,2001-07-31 20:00,ZGGG 312000Z AUTO 19006KT 7SM 29/26 A2959 RMK T02900260 IEM_DS3505
ZGGG,2001-07-31 21:00,ZGGG 312100Z AUTO 22004KT 10SM 29/26 A2959 RMK SLP035 T02880257 57005 IEM_DS3505
ZGGG,2001-07-31 22:00,ZGGG 312200Z AUTO 19010KT 7SM 29/26 A2959 RMK T02900260 IEM_DS3505
ZGGG,2001-07-31 23:00,ZGGG 312300Z AUTO 19006KT 7SM 29/25 A2962 RMK T02900250 IEM_DS3505
ZGGG,2001-08-01 00:00,ZGGG 010000Z AUTO 16004KT 9SM 29/26 RMK SLP046 T02860264 52011 IEM_DS3505
ZGGG,2001-08-01 01:00,ZGGG 010100Z AUTO 20004KT 7SM 29/26 A2965 RMK T02900260 IEM_DS3505
ZGGG,2001-08-01 02:00,ZGGG 010200Z AUTO 22004KT 5SM 29/25 A2968 RMK T02900250 IEM_DS3505
ZGGG,2001-08-01 03:00,ZGGG 010300Z AUTO 29006KT 1SM 26/25 A2968 RMK SLP059 T02600252 52013 IEM_DS3505
ZGGG,2001-08-01 04:00,ZGGG 010400Z AUTO 7SM 27/24 A2965 RMK T02700240 IEM_DS3505
ZGGG,2001-08-01 05:00,ZGGG 010500Z AUTO 05006KT 5SM 27/25 A2965 RMK T02700250 IEM_DS3505
ZGGG,2001-08-01 06:00,ZGGG 010600Z AUTO 14004KT 9SM 27/25 A2965 RMK 60224 SLP046 T02690252 57013 IEM_DS3505
ZGGG,2001-08-01 07:00,ZGGG 010700Z AUTO 07004KT 6SM 28/26 A2962 RMK T02800260 IEM_DS3505
ZGGG,2001-08-01 08:00,ZGGG 010800Z AUTO 12006KT 7SM 28/24 A2962 RMK T02800240 IEM_DS3505
ZGGG,2001-08-01 09:00,ZGGG 010900Z AUTO 11004KT 9SM 28/25 A2962 RMK SLP040 T02770246 57006 IEM_DS3505
ZGGG,2001-08-01 10:00,ZGGG 011000Z AUTO 16002KT 2 1/2SM 25/25 A2962 RMK T02500250 IEM_DS3505
ZGGG,2001-08-01 11:00,ZGGG 011100Z AUTO 20002KT 4SM 26/25 A2965 RMK T02600250 IEM_DS3505
ZGGG,2001-08-01 12:00,ZGGG 011200Z AUTO 32004KT 7SM 25/23 A2968 RMK 60008 SLP059 T02530231 52018 IEM_DS3505
ZGGG,2001-08-01 13:00,ZGGG 011300Z AUTO 01006KT 7SM 25/22 A2968 RMK T02500220 IEM_DS3505
ZGGG,2001-08-01 14:00,ZGGG 011400Z AUTO 05006KT 7SM 24/23 A2968 RMK T02400230 IEM_DS3505
ZGGG,2001-08-01 15:00,ZGGG 011500Z AUTO 00000KT 9SM 24/22 A2968 RMK SLP062 T02450223 52003 IEM_DS3505
ZGGG,2001-08-01 16:00,ZGGG 011600Z AUTO 13006KT 6SM 25/22 A2968 RMK T02500220 IEM_DS3505
ZGGG,2001-08-01 17:00,ZGGG 011700Z AUTO 20002KT 7SM 25/22 A2968 RMK T02500220 IEM_DS3505
ZGGG,2001-08-01 18:00,ZGGG 011800Z AUTO 09004KT 8SM 24/23 A2965 RMK 60001 SLP053 T02450230 57009 IEM_DS3505
ZGGG,2001-08-01 19:00,ZGGG 011900Z AUTO 7SM 26/23 A2968 RMK T02600230 IEM_DS3505
ZGGG,2001-08-01 20:00,ZGGG 012000Z AUTO 04006KT 7SM 24/23 A2965 RMK T02400230 IEM_DS3505
ZGGG,2001-08-01 21:00,ZGGG 012100Z AUTO 02002KT 6SM 25/24 A2965 RMK 70233 SLP053 T02480236 54000 IEM_DS3505
ZGGG,2001-08-01 22:00,ZGGG 012200Z AUTO 04006KT 7SM 24/23 A2968 RMK T02400230 IEM_DS3505
ZGGG,2001-08-01 23:00,ZGGG 012300Z AUTO 06004KT 4SM 24/24 A2968 RMK T02400240 IEM_DS3505
ZGGG,2001-08-02 00:00,ZGGG 020000Z AUTO 00000KT 6SM 26/24 A2968 RMK 70233 SLP061 T02560240 52008 IEM_DS3505
ZGGG,2001-08-02 01:00,ZGGG 020100Z AUTO 05004KT 3SM 26/24 A2971 RMK T02600240 IEM_DS3505
ZGGG,2001-08-02 02:00,ZGGG 020200Z AUTO 07002KT 3SM 27/24 A2971 RMK T02700240 IEM_DS3505
ZGGG,2001-08-02 03:00,ZGGG 020300Z AUTO 07006KT 6SM 29/25 A2971 RMK SLP071 T02890247 52010 IEM_DS3505
ZGGG,2001-08-02 04:00,ZGGG 020400Z AUTO 09006KT 7SM 30/25 A2971 RMK T03000250 IEM_DS3505
ZGGG,2001-08-02 05:00,ZGGG 020500Z AUTO 09006KT 7SM 30/24 A2968 RMK T03000240 IEM_DS3505
ZGGG,2001-08-02 06:00,ZGGG 020600Z AUTO 20004KT 9SM 30/24 A2968 RMK SLP060 T02980241 57011 IEM_DS3505
ZGGG,2001-08-02 07:00,ZGGG 020700Z AUTO 33004KT 2SM 24/24 A2971 RMK T02400240 IEM_DS3505
ZGGG,2001-08-02 08:00,ZGGG 020800Z AUTO 33004KT 2 1/2SM 24/24 A2971 RMK T02400240 IEM_DS3505
ZGGG,2001-08-02 09:00,ZGGG 020900Z AUTO 02004KT 6SM 25/23 A2974 RMK SLP072 T02460234 52012 IEM_DS3505
ZGGG,2001-08-02 10:00,ZGGG 021000Z AUTO 03004KT 4SM 24/24 A2974 RMK T02400240 IEM_DS3505
ZGGG,2001-08-02 11:00,ZGGG 021100Z AUTO 07002KT 4SM 24/24 A2974 RMK T02400240 IEM_DS3505
ZGGG,2001-08-02 12:00,ZGGG 021200Z AUTO 04004KT 7SM 25/24 A2974 RMK 60079 SLP079 T02460237 52007 IEM_DS3505
ZGGG,2001-08-02 13:00,ZGGG 021300Z AUTO 06004KT 7SM 24/24 A2974 RMK T02400240 IEM_DS3505
ZGGG,2001-08-02 14:00,ZGGG 021400Z AUTO 13002KT 7SM 24/24 A2980 RMK T02400240 IEM_DS3505
ZGGG,2001-08-02 15:00,ZGGG 021500Z AUTO 09002KT 7SM 24/24 A2980 RMK SLP100 T02430236 52021 IEM_DS3505
ZGGG,2001-08-02 16:00,ZGGG 021600Z AUTO 16004KT 6SM 24/23 A2980 RMK T02400230 IEM_DS3505
ZGGG,2001-08-02 17:00,ZGGG 021700Z AUTO 04004KT 6SM 24/23 A2980 RMK T02400230 IEM_DS3505
ZGGG,2001-08-02 18:00,ZGGG 021800Z AUTO 00000KT 8SM 24/23 A2980 RMK 60000 SLP098 T02370228 57002 IEM_DS3505
ZGGG,2001-08-02 19:00,ZGGG 021900Z AUTO 6SM 24/24 A2980 RMK T02400240 IEM_DS3505
ZGGG,2001-08-02 20:00,ZGGG 022000Z AUTO 6SM 24/23 A2980 RMK T02400230 IEM_DS3505
ZGGG,2001-08-02 21:00,ZGGG 022100Z AUTO 34002KT 7SM 24/23 A2980 RMK 70079 SLP099 T02360227 52001 IEM_DS3505
ZGGG,2001-08-02 22:00,ZGGG 022200Z AUTO 05002KT 4SM 24/23 A2980 RMK T02400230 IEM_DS3505
ZGGG,2001-08-02 23:00,ZGGG 022300Z AUTO 04004KT 6SM 24/23 A2983 RMK T02400230 IEM_DS3505
ZGGG,2001-08-03 00:00,ZGGG 030000Z AUTO 29002KT 9SM 26/24 A2983 RMK 70079 SLP105 T02560237 52006 IEM_DS3505
ZGGG,2001-08-03 01:00,ZGGG 030100Z AUTO 03008KT 7SM 26/23 A2983 RMK T02600230 IEM_DS3505
ZGGG,2001-08-03 02:00,ZGGG 030200Z AUTO 04002KT 7SM 28/24 A2985 RMK T02800240 IEM_DS3505
ZGGG,2001-08-03 03:00,ZGGG 030300Z AUTO 09004KT 12SM 30/24 A2985 RMK SLP116 T02950239 52011 IEM_DS3505
ZGGG,2001-08-03 04:00,ZGGG 030400Z AUTO 04002KT 7SM 29/24 A2985 RMK T02900240 IEM_DS3505
ZGGG,2001-08-03 05:00,ZGGG 030500Z AUTO 05004KT 7SM 30/24 A2985 RMK T03000240 IEM_DS3505
ZGGG,2001-08-03 06:00,ZGGG 030600Z AUTO 02006KT 12SM 32/25 A2983 RMK 60003 SLP106 T03150249 57010 IEM_DS3505
ZGGG,2001-08-03 07:00,ZGGG 030700Z AUTO 01006KT 7SM 32/23 A2980 RMK T03200230 IEM_DS3505
ZGGG,2001-08-03 08:00,ZGGG 030800Z AUTO 02008KT 7SM 33/25 A2983 RMK T03300250 IEM_DS3505
ZGGG,2001-08-03 09:00,ZGGG 030900Z AUTO 34002KT 3SM 27/25 A2983 RMK SLP108 T02720252 52002 IEM_DS3505
ZGGG,2001-08-03 10:00,ZGGG 031000Z AUTO 17004KT 7SM 26/24 A2983 RMK T02600240 IEM_DS3505
ZGGG,2001-08-03 11:00,ZGGG 031100Z AUTO 5SM 27/24 A2985 RMK T02700240 IEM_DS3505
ZGGG,2001-08-03 12:00,ZGGG 031200Z AUTO 00000KT 7SM 27/25 A2988 RMK 60008 SLP123 T02680250 52015 IEM_DS3505
ZGGG,2001-08-03 13:00,ZGGG 031300Z AUTO 20002KT 4SM 27/25 A2988 RMK T02700250 IEM_DS3505
ZGGG,2001-08-03 15:00,ZGGG 031500Z AUTO 00000KT 9SM 26/25 A2991 RMK SLP133 T02630252 52010 IEM_DS3505
ZGGG,2001-08-03 16:00,ZGGG 031600Z AUTO 2SM 26/25 A2991 RMK T02600250 IEM_DS3505
ZGGG,2001-08-03 17:00,ZGGG 031700Z AUTO 2SM 25/25 A2988 RMK T02500250 IEM_DS3505
ZGGG,2001-08-03 18:00,ZGGG 031800Z AUTO 00000KT 5SM 26/25 A2985 RMK SLP122 T02550246 57011 IEM_DS3505
ZGGG,2001-08-03 19:00,ZGGG 031900Z AUTO 2SM 25/25 A2985 RMK T02500250 IEM_DS3505
ZGGG,2001-08-03 20:00,ZGGG 032000Z AUTO 2SM 25/25 A2985 RMK T02500250 IEM_DS3505
ZGGG,2001-08-03 21:00,ZGGG 032100Z AUTO 09002KT 2 1/2SM 25/24 A2985 RMK 70008 SLP116 T02500244 57006 IEM_DS3505
ZGGG,2001-08-03 22:00,ZGGG 032200Z AUTO 2SM 25/25 A2985 RMK T02500250 IEM_DS3505
ZGGG,2001-08-03 23:00,ZGGG 032300Z AUTO 1 1/4SM 26/25 A2988 RMK T02600250 IEM_DS3505
ZGGG,2001-08-04 00:00,ZGGG 040000Z AUTO 00000KT 3SM 27/25 A2988 RMK 70008 SLP126 T02690251 52010 IEM_DS3505
ZGGG,2001-08-04 01:00,ZGGG 040100Z AUTO 4SM 28/23 A2988 RMK T02800230 IEM_DS3505
ZGGG,2001-08-04 02:00,ZGGG 040200Z AUTO 01002KT 9SM 29/23 A2988 RMK T02900230 IEM_DS3505
ZGGG,2001-08-04 03:00,ZGGG 040300Z AUTO 32004KT 9SM 32/25 A2988 RMK SLP128 T03160250 52002 IEM_DS3505
ZGGG,2001-08-04 04:00,ZGGG 040400Z AUTO 33002KT 2 1/2SM 31/23 A2988 RMK T03100230 IEM_DS3505
ZGGG,2001-08-04 05:00,ZGGG 040500Z AUTO 2 1/2SM 32/23 A2985 RMK T03200230 IEM_DS3505
ZGGG,2001-08-04 06:00,ZGGG 040600Z AUTO 07004KT 11SM 34/25 A2985 RMK SLP114 T03360254 57013 IEM_DS3505
ZGGG,2001-08-04 07:00,ZGGG 040700Z AUTO 33/24 A2983 RMK T03300240 IEM_DS3505
ZGGG,2001-08-04 08:00,ZGGG 040800Z AUTO 16004KT 33/23 A2980 RMK T03300230 IEM_DS3505
ZGGG,2001-08-04 09:00,ZGGG 040900Z AUTO 00000KT 9SM 34/25 A2980 RMK SLP099 T03400249 57015 IEM_DS3505
ZGGG,2001-08-04 10:00,ZGGG 041000Z AUTO 36006KT 3SM 32/24 A2980 RMK T03200240 IEM_DS3505
ZGGG,2001-08-04 11:00,ZGGG 041100Z AUTO 05004KT 3SM 31/24 A2980 RMK T03100240 IEM_DS3505
ZGGG,2001-08-04 12:00,ZGGG 041200Z AUTO 34002KT 7SM 30/26 A2983 RMK SLP108 T03010255 52008 IEM_DS3505
ZGGG,2001-08-04 13:00,ZGGG 041300Z AUTO 11006KT 30/24 A2985 RMK T03000240 IEM_DS3505
ZGGG,2001-08-04 14:00,ZGGG 041400Z AUTO 15004KT 3SM 30/25 A2985 RMK T03000250 IEM_DS3505
ZGGG,2001-08-04 15:00,ZGGG 041500Z AUTO 16004KT 7SM 29/25 A2985 RMK SLP122 T02940249 52015 IEM_DS3505
ZGGG,2001-08-04 16:00,ZGGG 041600Z AUTO 15006KT 29/23 A2985 RMK T02900230 IEM_DS3505
ZGGG,2001-08-04 17:00,ZGGG 041700Z AUTO 5SM 29/23 A2985 RMK T02900230 IEM_DS3505
ZGGG,2001-08-04 18:00,ZGGG 041800Z AUTO 07002KT 6SM 28/26 A2985 RMK SLP115 T02800256 57007 IEM_DS3505
ZGGG,2001-08-04 19:00,ZGGG 041900Z AUTO 4SM 28/24 A2983 RMK T02800240 IEM_DS3505
ZGGG,2001-08-04 20:00,ZGGG 042000Z AUTO 4SM 28/23 A2985 RMK T02800230 IEM_DS3505
ZGGG,2001-08-04 21:00,ZGGG 042100Z AUTO 00000KT 7SM 27/24 A2985 RMK SLP113 T02700244 57002 IEM_DS3505
ZGGG,2001-08-04 22:00,ZGGG 042200Z AUTO 6SM 27/23 A2985 RMK T02700230 IEM_DS3505
ZGGG,2001-08-04 23:00,ZGGG 042300Z AUTO 3SM 27/23 A2985 RMK T02700230 IEM_DS3505
ZGGG,2001-08-05 00:00,ZGGG 050000Z AUTO 11004KT 6SM 29/25 A2985 RMK SLP121 T02860252 52008 IEM_DS3505
ZGGG,2001-08-05 01:00,ZGGG 050100Z AUTO 06002KT 5SM 29/23 A2988 RMK T02900230 IEM_DS3505
ZGGG,2001-08-05 02:00,ZGGG 050200Z AUTO 13002KT 5SM 31/23 A2988 RMK T03100230 IEM_DS3505
ZGGG,2001-08-05 03:00,ZGGG 050300Z AUTO 18002KT 11SM 32/25 A2988 RMK SLP124 T03200248 52003 IEM_DS3505
ZGGG,2001-08-05 04:00,ZGGG 050400Z AUTO 13004KT 7SM 32/23 A2985 RMK T03200230 IEM_DS3505
ZGGG,2001-08-05 05:00,ZGGG 050500Z AUTO 08006KT 7SM 33/21 A2983 RMK T03300210 IEM_DS3505
ZGGG,2001-08-05 06:00,ZGGG 050600Z AUTO 04006KT 19SM 34/23 A2983 RMK SLP105 T03420234 57019 IEM_DS3505
ZGGG,2001-08-05 07:00,ZGGG 050700Z AUTO 11006KT 7SM 34/22 A2980 RMK T03400220 IEM_DS3505
ZGGG,2001-08-05 08:00,ZGGG 050800Z AUTO 10004KT 7SM 34/22 A2977 RMK T03400220 IEM_DS3505
ZGGG,2001-08-05 09:00,ZGGG 050900Z AUTO 18002KT 11SM 34/24 A2974 RMK SLP084 T03400244 57021 IEM_DS3505
ZGGG,2001-08-05 10:00,ZGGG 051000Z AUTO 16006KT 7SM 33/22 A2977 RMK T03300220 IEM_DS3505
ZGGG,2001-08-05 11:00,ZGGG 051100Z AUTO 16006KT 7SM 32/23 A2977 RMK T03200230 IEM_DS3505
ZGGG,2001-08-05 12:00,ZGGG 051200Z AUTO 20006KT 10SM 31/25 A2977 RMK SLP093 T03100248 52009 IEM_DS3505
ZGGG,2001-08-05 13:00,ZGGG 051300Z AUTO 16010KT 6SM 30/23 A2980 RMK T03000230 IEM_DS3505
ZGGG,2001-08-05 14:00,ZGGG 051400Z AUTO 17008KT 6SM 29/23 A2983 RMK T02900230 IEM_DS3505
ZGGG,2001-08-05 15:00,ZGGG 051500Z AUTO 16002KT 11SM 29/26 A2985 RMK SLP115 T02900258 52022 IEM_DS3505
ZGGG,2001-08-05 16:00,ZGGG 051600Z AUTO 16006KT 7SM 29/23 A2985 RMK T02900230 IEM_DS3505
ZGGG,2001-08-05 17:00,ZGGG 051700Z AUTO 16004KT 7SM 29/24 A2983 RMK T02900240 IEM_DS3505
ZGGG,2001-08-05 18:00,ZGGG 051800Z AUTO 18004KT 10SM 28/25 A2980 RMK SLP102 T02820254 57013 IEM_DS3505
ZGGG,2001-08-05 19:00,ZGGG 051900Z AUTO 7SM 28/24 A2980 RMK T02800240 IEM_DS3505
ZGGG,2001-08-05 20:00,ZGGG 052000Z AUTO 7SM 28/24 A2980 RMK T02800240 IEM_DS3505
ZGGG,2001-08-05 21:00,ZGGG 052100Z AUTO 07002KT 9SM 28/26 A2977 RMK SLP093 T02760256 57009 IEM_DS3505
ZGGG,2001-08-05 22:00,ZGGG 052200Z AUTO 7SM 27/24 A2977 RMK T02700240 IEM_DS3505
ZGGG,2001-08-05 23:00,ZGGG 052300Z AUTO 7SM 28/24 A2977 RMK T02800240 IEM_DS3505
ZGGG,2001-08-06 00:00,ZGGG 060000Z AUTO 09002KT 8SM 29/26 A2980 RMK SLP097 T02900255 52004 IEM_DS3505
ZGGG,2001-08-06 01:00,ZGGG 060100Z AUTO 20002KT 7SM 29/24 A2980 RMK T02900240 IEM_DS3505
ZGGG,2001-08-06 02:00,ZGGG 060200Z AUTO 5SM 29/24 A2983 RMK T02900240 IEM_DS3505
ZGGG,2001-08-06 03:00,ZGGG 060300Z AUTO 27004KT 9SM 30/25 A2980 RMK SLP102 T03020251 52005 IEM_DS3505
ZGGG,2001-08-06 04:00,ZGGG 060400Z AUTO 22002KT 5SM 32/23 A2980 RMK T03200230 IEM_DS3505
ZGGG,2001-08-06 05:00,ZGGG 060500Z AUTO 7SM 33/23 A2977 RMK T03300230 IEM_DS3505
ZGGG,2001-08-06 06:00,ZGGG 060600Z AUTO 25002KT 10SM 34/24 A2974 RMK 60003 SLP081 T03410244 57021 IEM_DS3505
ZGGG,2001-08-06 07:00,ZGGG 060700Z AUTO 31004KT 7SM 34/22 A2971 RMK T03400220 IEM_DS3505
ZGGG,2001-08-06 08:00,ZGGG 060800Z AUTO 31004KT 7SM 34/22 A2968 RMK T03400220 IEM_DS3505
ZGGG,2001-08-06 09:00,ZGGG 060900Z AUTO 09004KT 9SM 34/25 A2965 RMK SLP055 T03360251 57026 IEM_DS3505
ZGGG,2001-08-06 10:00,ZGGG 061000Z AUTO 25002KT 7SM 34/22 A2965 RMK T03400220 IEM_DS3505
ZGGG,2001-08-06 11:00,ZGGG 061100Z AUTO 15004KT 7SM 33/23 A2965 RMK T03300230 IEM_DS3505
ZGGG,2001-08-06 12:00,ZGGG 061200Z AUTO 16004KT 9SM 32/26 A2968 RMK SLP056 T03150261 52001 IEM_DS3505
ZGGG,2001-08-06 13:00,ZGGG 061300Z AUTO 16008KT 6SM 32/25 A2968 RMK T03200250 IEM_DS3505
ZGGG,2001-08-06 14:00,ZGGG 061400Z AUTO 16008KT 7SM 31/25 A2971 RMK T03100250 IEM_DS3505
ZGGG,2001-08-06 15:00,ZGGG 061500Z AUTO 14004KT 9SM 30/26 A2974 RMK SLP076 T02980262 52020 IEM_DS3505
ZGGG,2001-08-06 16:00,ZGGG 061600Z AUTO 18008KT 6SM 29/23 A2974 RMK T02900230 IEM_DS3505
ZGGG,2001-08-06 17:00,ZGGG 061700Z AUTO 17004KT 6SM 29/24 A2971 RMK T02900240 IEM_DS3505
ZGGG,2001-08-06 18:00,ZGGG 061800Z AUTO 18002KT 8SM 29/25 A2971 RMK SLP069 T02860252 57007 IEM_DS3505
ZGGG,2001-08-06 19:00,ZGGG 061900Z AUTO 21006KT 6SM 29/24 A2971 RMK T02900240 IEM_DS3505
ZGGG,2001-08-06 20:00,ZGGG 062000Z AUTO 21006KT 7SM 28/24 A2971 RMK T02800240 IEM_DS3505
ZGGG,2001-08-06 21:00,ZGGG 062100Z AUTO 00000KT 9SM 28/25 A2971 RMK 70003 SLP070 T02780254 52001 IEM_DS3505
ZGGG,2001-08-06 22:00,ZGGG 062200Z AUTO 7SM 28/24 A2971 RMK T02800240 IEM_DS3505
ZGGG,2001-08-06 23:00,ZGGG 062300Z AUTO 14002KT 6SM 28/24 A2971 RMK T02800240 IEM_DS3505
ZGGG,2001-08-07 00:00,ZGGG 070000Z AUTO 22002KT 11SM 29/26 A2974 RMK 70003 SLP077 T02930258 52007 IEM_DS3505
ZGGG,2001-08-07 01:00,ZGGG 070100Z AUTO 24006KT 7SM 30/23 A2974 RMK T03000230 IEM_DS3505
ZGGG,2001-08-07 02:00,ZGGG 070200Z AUTO 27004KT 7SM 32/22 A2974 RMK T03200220 IEM_DS3505
ZGGG,2001-08-07 03:00,ZGGG 070300Z AUTO 25004KT 10SM 33/24 A2971 RMK SLP070 T03300239 57007 IEM_DS3505
ZGGG,2001-08-07 04:00,ZGGG 070400Z AUTO 24006KT 7SM 33/21 A2971 RMK T03300210 IEM_DS3505
ZGGG,2001-08-07 05:00,ZGGG 070500Z AUTO 30002KT 7SM 34/23 A2968 RMK T03400230 IEM_DS3505
ZGGG,2001-08-07 06:00,ZGGG 070600Z AUTO 34002KT 12SM 35/24 A2965 RMK SLP050 T03520243 57020 IEM_DS3505
ZGGG,2001-08-07 07:00,ZGGG 070700Z AUTO 36004KT 7SM 35/21 A2962 RMK T03500210 IEM_DS3505
ZGGG,2001-08-07 08:00,ZGGG 070800Z AUTO 02006KT 7SM 35/22 A2962 RMK T03500220 IEM_DS3505
ZGGG,2001-08-07 09:00,ZGGG 070900Z AUTO 22002KT 9SM 36/24 A2959 RMK SLP029 T03560241 57021 IEM_DS3505
ZGGG,2001-08-07 10:00,ZGGG 071000Z AUTO 26004KT 7SM 35/22 A2959 RMK T03500220 IEM_DS3505
ZGGG,2001-08-07 11:00,ZGGG 071100Z AUTO 16004KT 7SM 34/21 A2959 RMK T03400210 IEM_DS3505
ZGGG,2001-08-07 12:00,ZGGG 071200Z AUTO 14004KT 9SM 33/25 A2962 RMK SLP038 T03280254 52009 IEM_DS3505
ZGGG,2001-08-07 13:00,ZGGG 071300Z AUTO 15006KT 7SM 33/24 A2962 RMK T03300240 IEM_DS3505
ZGGG,2001-08-07 14:00,ZGGG 071400Z AUTO 19006KT 7SM 32/25 A2965 RMK T03200250 IEM_DS3505
ZGGG,2001-08-07 15:00,ZGGG 071500Z AUTO 18004KT 9SM 31/27 A2968 RMK SLP058 T03070266 52020 IEM_DS3505
ZGGG,2001-08-07 16:00,ZGGG 071600Z AUTO 20008KT 6SM 31/25 A2968 RMK T03100250 IEM_DS3505
ZGGG,2001-08-07 17:00,ZGGG 071700Z AUTO 20010KT 6SM 30/24 A2968 RMK T03000240 IEM_DS3505
ZGGG,2001-08-07 18:00,ZGGG 071800Z AUTO 14002KT 9SM 30/26 A2968 RMK SLP057 T02950259 57001 IEM_DS3505
ZGGG,2001-08-07 19:00,ZGGG 071900Z AUTO 19006KT 7SM 29/24 A2968 RMK T02900240 IEM_DS3505
ZGGG,2001-08-07 20:00,ZGGG 072000Z AUTO 21006KT 7SM 29/24 A2971 RMK T02900240 IEM_DS3505
ZGGG,2001-08-07 21:00,ZGGG 072100Z AUTO 00000KT 8SM 29/25 A2971 RMK SLP066 T02890254 52009 IEM_DS3505
ZGGG,2001-08-07 22:00,ZGGG 072200Z AUTO 13002KT 6SM 28/24 A2971 RMK T02800240 IEM_DS3505
ZGGG,2001-08-07 23:00,ZGGG 072300Z AUTO 6SM 29/24 A2971 RMK T02900240 IEM_DS3505
ZGGG,2001-08-08 00:00,ZGGG 080000Z AUTO 16002KT 10SM 29/25 A2971 RMK SLP070 T02930254 52004 IEM_DS3505
ZGGG,2001-08-08 01:00,ZGGG 080100Z AUTO 13002KT 7SM 31/24 A2971 RMK T03100240 IEM_DS3505
ZGGG,2001-08-08 02:00,ZGGG 080200Z AUTO 7SM 32/23 A2974 RMK T03200230 IEM_DS3505
ZGGG,2001-08-08 03:00,ZGGG 080300Z AUTO 14004KT 9SM 33/26 A2971 RMK SLP073 T03280259 52003 IEM_DS3505
ZGGG,2001-08-08 04:00,ZGGG 080400Z AUTO 26002KT 7SM 33/23 A2971 RMK T03300230 IEM_DS3505
ZGGG,2001-08-08 05:00,ZGGG 080500Z AUTO 12002KT 7SM 34/22 A2968 RMK T03400220 IEM_DS3505
ZGGG,2001-08-08 06:00,ZGGG 080600Z AUTO 18004KT 9SM 34/26 A2968 RMK SLP056 T03420255 57017 IEM_DS3505
ZGGG,2001-08-08 07:00,ZGGG 080700Z AUTO 16004KT 5SM 34/23 A2965 RMK T03400230 IEM_DS3505
ZGGG,2001-08-08 08:00,ZGGG 080800Z AUTO 14004KT 7SM 34/23 A2965 RMK T03400230 IEM_DS3505
ZGGG,2001-08-08 09:00,ZGGG 080900Z AUTO 22002KT 9SM 34/25 A2962 RMK SLP045 T03430246 57011 IEM_DS3505
ZGGG,2001-08-08 10:00,ZGGG 081000Z AUTO 05006KT 33/23 A2965 RMK T03300230 IEM_DS3505
ZGGG,2001-08-08 11:00,ZGGG 081100Z AUTO 36004KT 3SM 32/23 A2965 RMK T03200230 IEM_DS3505
ZGGG,2001-08-08 12:00,ZGGG 081200Z AUTO 00000KT 8SM 31/26 A2968 RMK SLP062 T03140261 52017 IEM_DS3505
ZGGG,2001-08-08 13:00,ZGGG 081300Z AUTO 13004KT 32/23 A2971 RMK T03200230 IEM_DS3505
ZGGG,2001-08-08 14:00,ZGGG 081400Z AUTO 16004KT 32/24 A2974 RMK T03200240 IEM_DS3505
ZGGG,2001-08-08 15:00,ZGGG 081500Z AUTO 09004KT 8SM 30/26 A2974 RMK SLP076 T03010264 52014 IEM_DS3505
ZGGG,2001-08-08 16:00,ZGGG 081600Z AUTO 16006KT 31/24 A2974 RMK T03100240 IEM_DS3505
ZGGG,2001-08-08 17:00,ZGGG 081700Z AUTO 17006KT 6SM 30/23 A2977 RMK T03000230 IEM_DS3505
ZGGG,2001-08-08 18:00,ZGGG 081800Z AUTO 18004KT 9SM 29/26 A2977 RMK SLP078 T02940256 52002 IEM_DS3505
ZGGG,2001-08-08 19:00,ZGGG 081900Z AUTO 7SM 29/24 A2977 RMK T02900240 IEM_DS3505
ZGGG,2001-08-08 20:00,ZGGG 082000Z AUTO 13002KT 7SM 29/24 A2977 RMK T02900240 IEM_DS3505
ZGGG,2001-08-08 21:00,ZGGG 082100Z AUTO 20004KT 9SM 29/26 A2977 RMK SLP086 T02880259 52008 IEM_DS3505
ZGGG,2001-08-08 22:00,ZGGG 082200Z AUTO 17002KT 7SM 29/23 A2977 RMK T02900230 IEM_DS3505
ZGGG,2001-08-08 23:00,ZGGG 082300Z AUTO 14002KT 7SM 29/23 A2980 RMK T02900230 IEM_DS3505
ZGGG,2001-08-09 00:00,ZGGG 090000Z AUTO 14004KT 9SM 29/26 A2980 RMK 60003 SLP094 T02910260 52008 IEM_DS3505
ZGGG,2001-08-09 01:00,ZGGG 090100Z AUTO 08002KT 7SM 30/24 A2980 RMK T03000240 IEM_DS3505
ZGGG,2001-08-09 02:00,ZGGG 090200Z AUTO 07006KT 7SM 32/24 A2980 RMK T03200240 IEM_DS3505
ZGGG,2001-08-09 03:00,ZGGG 090300Z AUTO 18002KT 11SM 32/25 A2980 RMK SLP091 T03230252 57003 IEM_DS3505
ZGGG,2001-08-09 04:00,ZGGG 090400Z AUTO 09004KT 7SM 32/23 A2977 RMK T03200230 IEM_DS3505
ZGGG,2001-08-09 05:00,ZGGG 090500Z AUTO 10006KT 7SM 33/22 A2977 RMK T03300220 IEM_DS3505
ZGGG,2001-08-09 06:00,ZGGG 090600Z AUTO 07004KT 14SM 34/24 A2974 RMK SLP077 T03390239 57014 IEM_DS3505
ZGGG,2001-08-09 08:00,ZGGG 090800Z AUTO 07006KT 7SM 34/21 A2971 RMK T03400210 IEM_DS3505
ZGGG,2001-08-09 09:00,ZGGG 090900Z AUTO 10006KT 7SM 34/21 A2971 RMK T03400210 IEM_DS3505
ZGGG,2001-08-09 10:00,ZGGG 091000Z AUTO 14006KT 7SM 33/22 A2971 RMK T03300220 IEM_DS3505
ZGGG,2001-08-09 11:00,ZGGG 091100Z AUTO 16004KT 7SM 33/22 A2974 RMK T03300220 IEM_DS3505
ZGGG,2001-08-09 12:00,ZGGG 091200Z AUTO 16004KT 12SM 32/25 A2974 RMK SLP075 T03160246 52014 IEM_DS3505
ZGGG,2001-08-09 13:00,ZGGG 091300Z AUTO 15006KT 6SM 32/23 A2977 RMK T03200230 IEM_DS3505
ZGGG,2001-08-09 14:00,ZGGG 091400Z AUTO 16006KT 6SM 31/23 A2980 RMK T03100230 IEM_DS3505
ZGGG,2001-08-09 15:00,ZGGG 091500Z AUTO 11004KT 11SM 30/25 A2980 RMK SLP093 T03010246 52018 IEM_DS3505
ZGGG,2001-08-09 16:00,ZGGG 091600Z AUTO 11006KT 6SM 30/23 A2980 RMK T03000230 IEM_DS3505
ZGGG,2001-08-09 17:00,ZGGG 091700Z AUTO 11008KT 6SM 29/23 A2980 RMK T02900230 IEM_DS3505
ZGGG,2001-08-09 18:00,ZGGG 091800Z AUTO 11004KT 11SM 29/25 A2977 RMK SLP084 T02860249 57009 IEM_DS3505
ZGGG,2001-08-09 19:00,ZGGG 091900Z AUTO 08004KT 6SM 28/23 A2977 RMK T02800230 IEM_DS3505
ZGGG,2001-08-09 20:00,ZGGG 092000Z AUTO 07004KT 6SM 28/24 A2977 RMK T02800240 IEM_DS3505
ZGGG,2001-08-09 21:00,ZGGG 092100Z AUTO 07002KT 10SM 28/25 A2977 RMK 70003 SLP081 T02780250 57003 IEM_DS3505
ZGGG,2001-08-09 22:00,ZGGG 092200Z AUTO 07002KT 6SM 27/23 A2977 RMK T02700230 IEM_DS3505
ZGGG,2001-08-09 23:00,ZGGG 092300Z AUTO 09004KT 6SM 28/23 A2977 RMK T02800230 IEM_DS3505
ZGGG,2001-08-10 00:00,ZGGG 100000Z AUTO 09004KT 16SM 30/25 A2980 RMK SLP090 T02960251 52009 IEM_DS3505
ZGGG,2001-08-10 01:00,ZGGG 100100Z AUTO 12008KT 7SM 30/24 A2980 RMK T03000240 IEM_DS3505
ZGGG,2001-08-10 02:00,ZGGG 100200Z AUTO 11006KT 7SM 31/23 A2980 RMK T03100230 IEM_DS3505
ZGGG,2001-08-10 03:00,ZGGG 100300Z AUTO 09006KT 14SM 32/24 A2980 RMK SLP094 T03150240 52004 IEM_DS3505
ZGGG,2001-08-10 04:00,ZGGG 100400Z AUTO 11008KT 7SM 32/23 A2980 RMK T03200230 IEM_DS3505
ZGGG,2001-08-10 05:00,ZGGG 100500Z AUTO 10010KT 7SM 32/22 A2977 RMK T03200220 IEM_DS3505
ZGGG,2001-08-10 06:00,ZGGG 100600Z AUTO 09008KT 17SM 34/24 A2974 RMK SLP078 T03390240 57016 IEM_DS3505
ZGGG,2001-08-10 07:00,ZGGG 100700Z AUTO 12006KT 7SM 34/22 A2974 RMK T03400220 IEM_DS3505
ZGGG,2001-08-10 08:00,ZGGG 100800Z AUTO 13006KT 7SM 32/23 A2974 RMK T03200230 IEM_DS3505
ZGGG,2001-08-10 09:00,ZGGG 100900Z AUTO 11004KT 19SM 29/26 A2974 RMK SLP074 T02910259 57004 IEM_DS3505
ZGGG,2001-08-10 10:00,ZGGG 101000Z AUTO 14008KT 7SM 31/23 A2971 RMK T03100230 IEM_DS3505
ZGGG,2001-08-10 11:00,ZGGG 101100Z AUTO 14006KT 7SM 31/23 A2974 RMK T03100230 IEM_DS3505
ZGGG,2001-08-10 12:00,ZGGG 101200Z AUTO 14004KT 12SM 29/25 A2977 RMK 60020 SLP091 T02940252 52017 IEM_DS3505
ZGGG,2001-08-10 13:00,ZGGG 101300Z AUTO 13004KT 6SM 30/23 A2980 RMK T03000230 IEM_DS3505
ZGGG,2001-08-10 14:00,ZGGG 101400Z AUTO 12006KT 6SM 30/23 A2983 RMK T03000230 IEM_DS3505
ZGGG,2001-08-10 15:00,ZGGG 101500Z AUTO 14006KT 12SM 29/23 A2985 RMK SLP108 T02900230 52017 IEM_DS3505
ZGGG,2001-08-10 16:00,ZGGG 101600Z AUTO 07004KT 7SM 29/23 A2985 RMK T02900230 IEM_DS3505
ZGGG,2001-08-10 17:00,ZGGG 101700Z AUTO 08002KT 7SM 28/23 A2983 RMK T02800230 IEM_DS3505
ZGGG,2001-08-10 18:00,ZGGG 101800Z AUTO 14002KT 11SM 28/25 A2983 RMK SLP100 T02790252 57008 IEM_DS3505
ZGGG,2001-08-10 19:00,ZGGG 101900Z AUTO 09004KT 7SM 28/24 A2980 RMK T02800240 IEM_DS3505
ZGGG,2001-08-10 20:00,ZGGG 102000Z AUTO 10006KT 7SM 28/24 A2980 RMK T02800240 IEM_DS3505
ZGGG,2001-08-10 21:00,ZGGG 102100Z AUTO 09004KT 9SM 27/25 A2980 RMK 70019 SLP091 T02740254 57010 IEM_DS3505
ZGGG,2001-08-10 22:00,ZGGG 102200Z AUTO 08004KT 7SM 27/23 A2980 RMK T02700230 IEM_DS3505
ZGGG,2001-08-10 23:00,ZGGG 102300Z AUTO 06002KT 7SM 28/24 A2983 RMK T02800240 IEM_DS3505
ZGGG,2001-08-11 00:00,ZGGG 110000Z AUTO 11006KT 9SM 28/25 A2983 RMK 70019 SLP106 T02820251 52015 IEM_DS3505
ZGGG,2001-08-11 01:00,ZGGG 110100Z AUTO 11006KT 7SM 28/24 A2985 RMK T02800240 IEM_DS3505
ZGGG,2001-08-11 02:00,ZGGG 110200Z AUTO 13002KT 7SM 28/25 A2985 RMK T02800250 IEM_DS3505
ZGGG,2001-08-11 03:00,ZGGG 110300Z AUTO 18006KT 7SM 30/26 A2983 RMK SLP108 T03030257 52003 IEM_DS3505
ZGGG,2001-08-11 04:00,ZGGG 110400Z AUTO 14006KT 7SM 31/22 A2983 RMK T03100220 IEM_DS3505
ZGGG,2001-08-11 05:00,ZGGG 110500Z AUTO 31004KT 7SM 29/24 A2983 RMK T02900240 IEM_DS3505
ZGGG,2001-08-11 06:00,ZGGG 110600Z AUTO 03006KT 7SM 29/24 A2983 RMK T02900240 IEM_DS3505
ZGGG,2001-08-11 07:00,ZGGG 110700Z AUTO 02008KT 7SM 29/24 A2980 RMK T02900240 IEM_DS3505
ZGGG,2001-08-11 12:00,ZGGG 111200Z AUTO 07002KT 8SM 29/25 A2980 RMK SLP097 T02880247 52012 IEM_DS3505
ZGGG,2001-08-11 13:00,ZGGG 111300Z AUTO 08002KT 6SM 28/23 A2983 RMK T02800230 IEM_DS3505
ZGGG,2001-08-11 15:00,ZGGG 111500Z AUTO 10004KT 6SM 28/24 A2985 RMK T02800240 IEM_DS3505
ZGGG,2001-08-11 16:00,ZGGG 111600Z AUTO 6SM 28/23 A2985 RMK T02800230 IEM_DS3505
ZGGG,2001-08-11 17:00,ZGGG 111700Z AUTO 13002KT 6SM 28/23 A2985 RMK T02800230 IEM_DS3505
ZGGG,2001-08-11 18:00,ZGGG 111800Z AUTO 09004KT 7SM 30/26 A2983 RMK 60008 SLP097 T02950256 57011 IEM_DS3505
ZGGG,2001-08-11 19:00,ZGGG 111900Z AUTO 4SM 27/23 A2983 RMK T02700230 IEM_DS3505
ZGGG,2001-08-11 20:00,ZGGG 112000Z AUTO 05004KT 4SM 27/24 A2980 RMK T02700240 IEM_DS3505
ZGGG,2001-08-11 21:00,ZGGG 112100Z AUTO 04002KT 7SM 26/25 A2980 RMK 70009 SLP096 T02640250 57009 IEM_DS3505
ZGGG,2001-08-11 22:00,ZGGG 112200Z AUTO 05004KT 3SM 26/24 A2983 RMK T02600240 IEM_DS3505
ZGGG,2001-08-11 23:00,ZGGG 112300Z AUTO 05002KT 2 1/2SM 26/24 A2983 RMK T02600240 IEM_DS3505
ZGGG,2001-08-12 00:00,ZGGG 120000Z AUTO 00000KT 6SM 28/25 A2983 RMK 70009 SLP104 T02760248 52008 IEM_DS3505
ZGGG,2001-08-12 01:00,ZGGG 120100Z AUTO 06004KT 4SM 29/24 A2983 RMK T02900240 IEM_DS3505
ZGGG,2001-08-12 02:00,ZGGG 120200Z AUTO 04004KT 3SM 30/24 A2983 RMK T03000240 IEM_DS3505
ZGGG,2001-08-12 03:00,ZGGG 120300Z AUTO 09004KT 9SM 32/25 A2983 RMK SLP098 T03160247 57005 IEM_DS3505
ZGGG,2001-08-12 04:00,ZGGG 120400Z AUTO 04004KT 7SM 32/22 A2980 RMK T03200220 IEM_DS3505
ZGGG,2001-08-12 05:00,ZGGG 120500Z AUTO 7SM 33/22 A2977 RMK T03300220 IEM_DS3505
ZGGG,2001-08-12 06:00,ZGGG 120600Z AUTO 09006KT 11SM 33/23 A2974 RMK SLP077 T03270234 57021 IEM_DS3505
ZGGG,2001-08-12 07:00,ZGGG 120700Z AUTO 35004KT 5SM 33/22 A2974 RMK T03300220 IEM_DS3505
ZGGG,2001-08-12 08:00,ZGGG 120800Z AUTO 07002KT 5SM 33/22 A2971 RMK T03300220 IEM_DS3505
ZGGG,2001-08-12 09:00,ZGGG 120900Z AUTO 32002KT 11SM 33/24 A2971 RMK SLP069 T03320240 57008 IEM_DS3505
ZGGG,2001-08-12 10:00,ZGGG 121000Z AUTO 13010KT 4SM 30/22 A2974 RMK T03000220 IEM_DS3505
ZGGG,2001-08-12 11:00,ZGGG 121100Z AUTO 3SM 31/22 A2977 RMK T03100220 IEM_DS3505
ZGGG,2001-08-12 13:00,ZGGG 121300Z AUTO 7SM 25/22 A2983 RMK T02500220 IEM_DS3505
ZGGG,2001-08-12 14:00,ZGGG 121400Z AUTO 09002KT 5SM 25/23 A2983 RMK T02500230 IEM_DS3505
ZGGG,2001-08-12 15:00,ZGGG 121500Z AUTO 12002KT 5SM 25/23 A2983 RMK T02500230 IEM_DS3505
ZGGG,2001-08-12 16:00,ZGGG 121600Z AUTO 05008KT 3SM 25/23 A2983 RMK T02500230 IEM_DS3505
ZGGG,2001-08-12 17:00,ZGGG 121700Z AUTO 05004KT 5SM 25/22 A2983 RMK T02500220 IEM_DS3505
ZGGG,2001-08-12 18:00,ZGGG 121800Z AUTO 00000KT 9SM 25/24 A2980 RMK 60134 SLP097 T02490240 57009 IEM_DS3505
ZGGG,2001-08-12 19:00,ZGGG 121900Z AUTO 05004KT 5SM 25/22 A2980 RMK T02500220 IEM_DS3505
ZGGG,2001-08-12 20:00,ZGGG 122000Z AUTO 4SM 26/22 A2980 RMK T02600220 IEM_DS3505
ZGGG,2001-08-12 21:00,ZGGG 122100Z AUTO 34002KT 9SM 25/24 A2977 RMK 70260 SLP085 T02470237 57012 IEM_DS3505
ZGGG,2001-08-12 22:00,ZGGG 122200Z AUTO 07004KT 3SM 25/23 A2980 RMK T02500230 IEM_DS3505
ZGGG,2001-08-12 23:00,ZGGG 122300Z AUTO 2 1/2SM 26/23 A2980 RMK T02600230 IEM_DS3505
ZGGG,2001-08-13 00:00,ZGGG 130000Z AUTO 32002KT 10SM 27/24 A2983 RMK 70260 SLP101 T02720239 52015 IEM_DS3505
ZGGG,2001-08-13 01:00,ZGGG 130100Z AUTO 07006KT 4SM 27/23 A2983 RMK T02700230 IEM_DS3505
ZGGG,2001-08-13 02:00,ZGGG 130200Z AUTO 05006KT 10SM 29/23 A2983 RMK T02900230 IEM_DS3505
ZGGG,2001-08-13 03:00,ZGGG 130300Z AUTO 07004KT 10SM 31/24 A2983 RMK SLP105 T03070243 52004 IEM_DS3505
ZGGG,2001-08-13 04:00,ZGGG 130400Z AUTO 07004KT 7SM 31/22 A2983 RMK T03100220 IEM_DS3505
ZGGG,2001-08-13 05:00,ZGGG 130500Z AUTO 15002KT 7SM 32/22 A2980 RMK T03200220 IEM_DS3505
ZGGG,2001-08-13 06:00,ZGGG 130600Z AUTO 27002KT 12SM 33/23 A2977 RMK SLP080 T03300231 57024 IEM_DS3505
ZGGG,2001-08-13 07:00,ZGGG 130700Z AUTO 02004KT 7SM 33/21 A2971 RMK T03300210 IEM_DS3505
ZGGG,2001-08-13 08:00,ZGGG 130800Z AUTO 04004KT 7SM 34/21 A2971 RMK T03400210 IEM_DS3505
ZGGG,2001-08-13 09:00,ZGGG 130900Z AUTO 00000KT 12SM 33/24 A2971 RMK SLP066 T03310237 57014 IEM_DS3505
ZGGG,2001-08-13 10:00,ZGGG 131000Z AUTO 03010KT 7SM 32/23 A2974 RMK T03200230 IEM_DS3505
ZGGG,2001-08-13 11:00,ZGGG 131100Z AUTO 14014KT 2SM 27/22 A2977 RMK T02700220 IEM_DS3505
ZGGG,2001-08-13 12:00,ZGGG 131200Z AUTO 00000KT 10SM 27/24 A2980 RMK 60003 SLP093 T02720237 52026 IEM_DS3505
ZGGG,2001-08-13 13:00,ZGGG 131300Z AUTO 20002KT 7SM 27/23 A2980 RMK T02700230 IEM_DS3505
ZGGG,2001-08-13 14:00,ZGGG 131400Z AUTO 7SM 27/23 A2983 RMK T02700230 IEM_DS3505
ZGGG,2001-08-13 15:00,ZGGG 131500Z AUTO 00000KT 7SM 27/25 A2983 RMK SLP105 T02730246 52013 IEM_DS3505
ZGGG,2001-08-13 16:00,ZGGG 131600Z AUTO 4SM 27/23 A2983 RMK T02700230 IEM_DS3505
ZGGG,2001-08-13 17:00,ZGGG 131700Z AUTO 5SM 27/23 A2983 RMK T02700230 IEM_DS3505
ZGGG,2001-08-13 18:00,ZGGG 131800Z AUTO 00000KT 9SM 27/24 A2980 RMK 60000 SLP097 T02700238 57008 IEM_DS3505
ZGGG,2001-08-13 19:00,ZGGG 131900Z AUTO 5SM 27/22 A2980 RMK T02700220 IEM_DS3505
ZGGG,2001-08-13 20:00,ZGGG 132000Z AUTO 5SM 26/22 A2980 RMK T02600220 IEM_DS3505
ZGGG,2001-08-13 21:00,ZGGG 132100Z AUTO 6SM 26/23 A2980 RMK T02600230 IEM_DS3505
ZGGG,2001-08-13 22:00,ZGGG 132200Z AUTO 6SM 26/22 A2980 RMK T02600220 IEM_DS3505
ZGGG,2001-08-13 23:00,ZGGG 132300Z AUTO 5SM 27/23 A2980 RMK T02700230 IEM_DS3505
ZGGG,2001-08-14 00:00,ZGGG 140000Z AUTO 00000KT 11SM 27/24 A2983 RMK 70001 SLP104 T02740237 52013 IEM_DS3505
ZGGG,2001-08-14 01:00,ZGGG 140100Z AUTO 04002KT 7SM 28/22 A2983 RMK T02800220 IEM_DS3505
ZGGG,2001-08-14 02:00,ZGGG 140200Z AUTO 18002KT 7SM 29/23 A2985 RMK T02900230 IEM_DS3505
ZGGG,2001-08-14 03:00,ZGGG 140300Z AUTO 09004KT 11SM 31/24 A2983 RMK SLP105 T03100239 52002 IEM_DS3505
ZGGG,2001-08-14 04:00,ZGGG 140400Z AUTO 07002KT 7SM 31/22 A2983 RMK T03100220 IEM_DS3505
ZGGG,2001-08-14 05:00,ZGGG 140500Z AUTO 7SM 32/23 A2977 RMK T03200230 IEM_DS3505
ZGGG,2001-08-14 06:00,ZGGG 140600Z AUTO 00000KT 10SM 33/23 A2977 RMK SLP081 T03340234 57024 IEM_DS3505
ZGGG,2001-08-14 07:00,ZGGG 140700Z AUTO 23002KT 5SM 32/22 A2974 RMK T03200220 IEM_DS3505
ZGGG,2001-08-14 08:00,ZGGG 140800Z AUTO 11002KT 32/23 A2971 RMK T03200230 IEM_DS3505
ZGGG,2001-08-14 09:00,ZGGG 140900Z AUTO 25004KT 7SM 33/25 A2971 RMK SLP067 T03300252 57014 IEM_DS3505
ZGGG,2001-08-14 10:00,ZGGG 141000Z AUTO 34006KT 2 1/2SM 30/22 A2974 RMK T03000220 IEM_DS3505
ZGGG,2001-08-14 11:00,ZGGG 141100Z AUTO 04004KT 4SM 27/23 A2977 RMK T02700230 IEM_DS3505
ZGGG,2001-08-14 12:00,ZGGG 141200Z AUTO 18002KT 7SM 26/25 A2980 RMK 60035 SLP090 T02640253 52022 IEM_DS3505
ZGGG,2001-08-14 13:00,ZGGG 141300Z AUTO 4SM 26/23 A2980 RMK T02600230 IEM_DS3505
ZGGG,2001-08-14 14:00,ZGGG 141400Z AUTO 16002KT 4SM 26/23 A2980 RMK T02600230 IEM_DS3505
ZGGG,2001-08-14 15:00,ZGGG 141500Z AUTO 00000KT 3SM 26/25 A2983 RMK SLP103 T02640253 52013 IEM_DS3505
ZGGG,2001-08-14 16:00,ZGGG 141600Z AUTO 3SM 26/24 A2983 RMK T02600240 IEM_DS3505
ZGGG,2001-08-14 17:00,ZGGG 141700Z AUTO 3SM 26/23 A2980 RMK T02600230 IEM_DS3505
ZGGG,2001-08-14 18:00,ZGGG 141800Z AUTO 00000KT 7SM 26/24 A2980 RMK 60008 SLP087 T02580244 57015 IEM_DS3505
ZGGG,2001-08-14 19:00,ZGGG 141900Z AUTO 4SM 26/23 A2977 RMK T02600230 IEM_DS3505
ZGGG,2001-08-14 20:00,ZGGG 142000Z AUTO 4SM 26/23 A2977 RMK T02600230 IEM_DS3505
ZGGG,2001-08-14 21:00,ZGGG 142100Z AUTO 7SM 26/23 A2977 RMK T02600230 IEM_DS3505
ZGGG,2001-08-14 22:00,ZGGG 142200Z AUTO 7SM 26/23 A2977 RMK T02600230 IEM_DS3505
ZGGG,2001-08-14 23:00,ZGGG 142300Z AUTO 08002KT 4SM 26/22 A2977 RMK T02600220 IEM_DS3505
ZGGG,2001-08-15 00:00,ZGGG 150000Z AUTO 09004KT 9SM 27/24 A2977 RMK 60003 SLP086 T02680242 52004 IEM_DS3505
ZGGG,2001-08-15 01:00,ZGGG 150100Z AUTO 5SM 28/23 A2977 RMK T02800230 IEM_DS3505
ZGGG,2001-08-15 02:00,ZGGG 150200Z AUTO 01002KT 5SM 28/22 A2977 RMK T02800220 IEM_DS3505
ZGGG,2001-08-15 03:00,ZGGG 150300Z AUTO 34002KT 11SM 31/25 A2977 RMK SLP086 T03080247 52001 IEM_DS3505
ZGGG,2001-08-15 04:00,ZGGG 150400Z AUTO 33004KT 5SM 31/23 A2977 RMK T03100230 IEM_DS3505
ZGGG,2001-08-15 05:00,ZGGG 150500Z AUTO 6SM 32/22 A2974 RMK T03200220 IEM_DS3505
ZGGG,2001-08-15 06:00,ZGGG 150600Z AUTO 34004KT 15SM 33/25 A2971 RMK SLP063 T03300246 57023 IEM_DS3505
ZGGG,2001-08-15 07:00,ZGGG 150700Z AUTO 32006KT 7SM 33/22 A2968 RMK T03300220 IEM_DS3505
ZGGG,2001-08-15 08:00,ZGGG 150800Z AUTO 35006KT 5SM 32/23 A2965 RMK T03200230 IEM_DS3505
ZGGG,2001-08-15 09:00,ZGGG 150900Z AUTO 34004KT 10SM 32/25 A2965 RMK SLP045 T03200247 57018 IEM_DS3505
ZGGG,2001-08-15 10:00,ZGGG 151000Z AUTO 35008KT 7SM 31/22 A2965 RMK T03100220 IEM_DS3505
ZGGG,2001-08-15 11:00,ZGGG 151100Z AUTO 35006KT 7SM 31/22 A2968 RMK T03100220 IEM_DS3505
ZGGG,2001-08-15 12:00,ZGGG 151200Z AUTO 00000KT 9SM 30/25 A2968 RMK SLP056 T02960248 52011 IEM_DS3505
ZGGG,2001-08-15 13:00,ZGGG 151300Z AUTO 07004KT 7SM 29/23 A2971 RMK T02900230 IEM_DS3505
ZGGG,2001-08-15 14:00,ZGGG 151400Z AUTO 12006KT 4SM 28/23 A2974 RMK T02800230 IEM_DS3505
ZGGG,2001-08-15 15:00,ZGGG 151500Z AUTO 04002KT 7SM 27/24 A2974 RMK SLP075 T02740243 52019 IEM_DS3505
ZGGG,2001-08-15 16:00,ZGGG 151600Z AUTO 4SM 27/22 A2971 RMK T02700220 IEM_DS3505
ZGGG,2001-08-15 17:00,ZGGG 151700Z AUTO 10004KT 4SM 27/22 A2971 RMK T02700220 IEM_DS3505
ZGGG,2001-08-15 18:00,ZGGG 151800Z AUTO 00000KT 7SM 26/24 A2971 RMK SLP061 T02640238 57014 IEM_DS3505
ZGGG,2001-08-15 19:00,ZGGG 151900Z AUTO 14002KT 4SM 27/22 A2968 RMK T02700220 IEM_DS3505
ZGGG,2001-08-15 20:00,ZGGG 152000Z AUTO 06004KT 4SM 26/22 A2968 RMK T02600220 IEM_DS3505
ZGGG,2001-08-15 21:00,ZGGG 152100Z AUTO 00000KT 7SM 26/24 A2968 RMK 70003 SLP054 T02570240 57007 IEM_DS3505
ZGGG,2001-08-15 22:00,ZGGG 152200Z AUTO 06002KT 4SM 26/22 A2968 RMK T02600220 IEM_DS3505
ZGGG,2001-08-15 23:00,ZGGG 152300Z AUTO 06006KT 3SM 26/23 A2968 RMK T02600230 IEM_DS3505
ZGGG,2001-08-16 00:00,ZGGG 160000Z AUTO 00000KT 9SM 28/24 A2968 RMK SLP058 T02850239 52004 IEM_DS3505
ZGGG,2001-08-16 01:00,ZGGG 160100Z AUTO 03006KT 6SM 28/22 A2971 RMK T02800220 IEM_DS3505
ZGGG,2001-08-16 02:00,ZGGG 160200Z AUTO 36004KT 7SM 29/22 A2971 RMK T02900220 IEM_DS3505
ZGGG,2001-08-16 03:00,ZGGG 160300Z AUTO 34004KT 13SM 31/24 A2971 RMK SLP060 T03060245 52002 IEM_DS3505
ZGGG,2001-08-16 04:00,ZGGG 160400Z AUTO 02004KT 7SM 30/22 A2968 RMK T03000220 IEM_DS3505
ZGGG,2001-08-16 05:00,ZGGG 160500Z AUTO 06006KT 7SM 31/22 A2968 RMK T03100220 IEM_DS3505
ZGGG,2001-08-16 06:00,ZGGG 160600Z AUTO 36002KT 17SM 32/23 A2965 RMK SLP039 T03210232 57021 IEM_DS3505
ZGGG,2001-08-16 07:00,ZGGG 160700Z AUTO 05006KT 7SM 33/22 A2959 RMK T03300220 IEM_DS3505
ZGGG,2001-08-16 08:00,ZGGG 160800Z AUTO 06006KT 7SM 32/21 A2959 RMK T03200210 IEM_DS3505
ZGGG,2001-08-16 09:00,ZGGG 160900Z AUTO 34002KT 14SM 32/23 A2959 RMK SLP020 T03200234 57019 IEM_DS3505
ZGGG,2001-08-16 10:00,ZGGG 161000Z AUTO 12004KT 1 1/4SM A2965 RMK IEM_DS3505
ZGGG,2001-08-16 11:00,ZGGG 161100Z AUTO 06008KT 4SM 25/23 A2965 RMK T02500230 IEM_DS3505
ZGGG,2001-08-16 12:00,ZGGG 161200Z AUTO 00000KT 11SM 26/24 A2968 RMK 60051 SLP058 T02560240 52037 IEM_DS3505
ZGGG,2001-08-16 13:00,ZGGG 161300Z AUTO 10004KT 7SM 25/23 A2968 RMK T02500230 IEM_DS3505
ZGGG,2001-08-16 14:00,ZGGG 161400Z AUTO 07004KT 7SM 26/22 A2968 RMK T02600220 IEM_DS3505
ZGGG,2001-08-16 15:00,ZGGG 161500Z AUTO 32004KT 10SM 25/24 A2968 RMK SLP053 T02520238 57004 IEM_DS3505
ZGGG,2001-08-16 16:00,ZGGG 161600Z AUTO 34004KT 4SM 26/23 A2968 RMK T02600230 IEM_DS3505
ZGGG,2001-08-16 18:00,ZGGG 161800Z AUTO 34002KT 10SM 25/24 RMK 60020 SLP044 T02540243 57009 IEM_DS3505
ZGGG,2001-08-16 21:00,ZGGG 162100Z AUTO 34002KT 7SM 25/24 RMK 70071 SLP042 T02500236 57002 IEM_DS3505
ZGGG,2001-08-16 23:00,ZGGG 162300Z AUTO 6SM 26/22 A2968 RMK T02600220 IEM_DS3505
ZGGG,2001-08-17 00:00,ZGGG 170000Z AUTO 33004KT 4SM 26/23 A2968 RMK T02600230 IEM_DS3505
ZGGG,2001-08-17 01:00,ZGGG 170100Z AUTO 01004KT 5SM 28/23 A2971 RMK T02800230 IEM_DS3505
ZGGG,2001-08-17 02:00,ZGGG 170200Z AUTO 03006KT 5SM 28/22 A2971 RMK T02800220 IEM_DS3505
ZGGG,2001-08-17 03:00,ZGGG 170300Z AUTO 32002KT 9SM 30/25 A2968 RMK SLP057 T03020252 52001 IEM_DS3505
ZGGG,2001-08-17 04:00,ZGGG 170400Z AUTO 36004KT 7SM 31/23 A2968 RMK T03100230 IEM_DS3505
ZGGG,2001-08-17 05:00,ZGGG 170500Z AUTO 36004KT 7SM 32/23 A2965 RMK T03200230 IEM_DS3505
ZGGG,2001-08-17 06:00,ZGGG 170600Z AUTO 34002KT 11SM 32/25 A2962 RMK SLP039 T03240247 57018 IEM_DS3505
ZGGG,2001-08-17 07:00,ZGGG 170700Z AUTO 32004KT 4SM 32/22 A2962 RMK T03200220 IEM_DS3505
ZGGG,2001-08-17 08:00,ZGGG 170800Z AUTO 21006KT 7SM 28/23 A2962 RMK T02800230 IEM_DS3505
ZGGG,2001-08-17 09:00,ZGGG 170900Z AUTO 00000KT 9SM 29/26 A2962 RMK SLP028 T02920263 57011 IEM_DS3505
ZGGG,2001-08-17 10:00,ZGGG 171000Z AUTO 34004KT 5SM 29/23 A2959 RMK T02900230 IEM_DS3505
ZGGG,2001-08-17 11:00,ZGGG 171100Z AUTO 36006KT 5SM 29/23 A2962 RMK T02900230 IEM_DS3505
ZGGG,2001-08-17 12:00,ZGGG 171200Z AUTO 32004KT 9SM 28/24 A2962 RMK 60012 SLP040 T02820238 52012 IEM_DS3505
ZGGG,2001-08-17 13:00,ZGGG 171300Z AUTO 04006KT 5SM 28/23 A2968 RMK T02800230 IEM_DS3505
ZGGG,2001-08-17 14:00,ZGGG 171400Z AUTO 06006KT 5SM 28/22 A2971 RMK T02800220 IEM_DS3505
ZGGG,2001-08-17 15:00,ZGGG 171500Z AUTO 11004KT 8SM 26/25 A2971 RMK SLP063 T02640247 52023 IEM_DS3505
ZGGG,2001-08-17 16:00,ZGGG 171600Z AUTO 7SM 27/23 A2971 RMK T02700230 IEM_DS3505
ZGGG,2001-08-17 17:00,ZGGG 171700Z AUTO 3SM 26/23 A2968 RMK T02600230 IEM_DS3505
ZGGG,2001-08-17 18:00,ZGGG 171800Z AUTO 00000KT 4SM 26/25 A2968 RMK 60012 SLP051 T02640253 57012 IEM_DS3505
ZGGG,2001-08-17 19:00,ZGGG 171900Z AUTO 3SM 26/24 A2965 RMK T02600240 IEM_DS3505
ZGGG,2001-08-17 20:00,ZGGG 172000Z AUTO 3SM 27/24 A2965 RMK T02700240 IEM_DS3505
ZGGG,2001-08-17 21:00,ZGGG 172100Z AUTO 36004KT 4SM 26/25 A2965 RMK 70020 SLP047 T02580248 57004 IEM_DS3505
ZGGG,2001-08-17 22:00,ZGGG 172200Z AUTO 2 1/2SM 26/24 A2965 RMK T02600240 IEM_DS3505
ZGGG,2001-08-17 23:00,ZGGG 172300Z AUTO 2 1/2SM 26/23 A2968 RMK T02600230 IEM_DS3505
ZGGG,2001-08-18 00:00,ZGGG 180000Z AUTO 00000KT 6SM 27/25 A2968 RMK 70020 SLP055 T02660252 52008 IEM_DS3505
ZGGG,2001-08-18 01:00,ZGGG 180100Z AUTO 02002KT 2 1/2SM 27/24 A2971 RMK T02700240 IEM_DS3505
ZGGG,2001-08-18 02:00,ZGGG 180200Z AUTO 04004KT 3SM 28/23 A2971 RMK T02800230 IEM_DS3505
ZGGG,2001-08-18 03:00,ZGGG 180300Z AUTO 00000KT 6SM 27/25 RMK SLP055 T02660253 52008 IEM_DS3505
ZGGG,2001-08-18 04:00,ZGGG 180400Z AUTO 36002KT 29/22 A2971 RMK T02900220 IEM_DS3505
ZGGG,2001-08-18 05:00,ZGGG 180500Z AUTO 05004KT 29/23 A2968 RMK T02900230 IEM_DS3505
ZGGG,2001-08-18 06:00,ZGGG 180600Z AUTO 36004KT 11SM 32/24 A2965 RMK SLP046 T03220243 57017 IEM_DS3505
ZGGG,2001-08-18 07:00,ZGGG 180700Z AUTO 7SM 32/22 A2962 RMK T03200220 IEM_DS3505
ZGGG,2001-08-18 08:00,ZGGG 180800Z AUTO 18002KT 7SM 32/21 A2959 RMK T03200210 IEM_DS3505
ZGGG,2001-08-18 09:00,ZGGG 180900Z AUTO 32002KT 12SM 33/23 A2959 RMK SLP023 T03320234 57023 IEM_DS3505
ZGGG,2001-08-18 10:00,ZGGG 181000Z AUTO 7SM 32/21 A2959 RMK T03200210 IEM_DS3505
ZGGG,2001-08-18 11:00,ZGGG 181100Z AUTO 32/22 A2959 RMK T03200220 IEM_DS3505
ZGGG,2001-08-18 12:00,ZGGG 181200Z AUTO 00000KT 9SM 29/25 A2962 RMK SLP033 T02930251 52010 IEM_DS3505
ZGGG,2001-08-18 13:00,ZGGG 181300Z AUTO 29/23 A2965 RMK T02900230 IEM_DS3505
ZGGG,2001-08-18 14:00,ZGGG 181400Z AUTO 17006KT 29/23 A2968 RMK T02900230 IEM_DS3505
ZGGG,2001-08-18 15:00,ZGGG 181500Z AUTO 00000KT 11SM 28/23 A2968 RMK SLP059 T02780233 52026 IEM_DS3505
ZGGG,2001-08-18 16:00,ZGGG 181600Z AUTO 20006KT 7SM 28/21 A2968 RMK T02800210 IEM_DS3505
ZGGG,2001-08-18 17:00,ZGGG 181700Z AUTO 22006KT 7SM 28/22 A2968 RMK T02800220 IEM_DS3505
ZGGG,2001-08-18 18:00,ZGGG 181800Z AUTO 00000KT 9SM 27/24 A2968 RMK 60002 SLP054 T02660240 57005 IEM_DS3505
ZGGG,2001-08-18 19:00,ZGGG 181900Z AUTO 21002KT 3SM 27/23 A2968 RMK T02700230 IEM_DS3505
ZGGG,2001-08-18 20:00,ZGGG 182000Z AUTO 4SM 27/23 A2968 RMK T02700230 IEM_DS3505
ZGGG,2001-08-18 21:00,ZGGG 182100Z AUTO 34002KT 9SM 26/25 A2968 RMK 70004 SLP050 T02640247 57004 IEM_DS3505
ZGGG,2001-08-18 22:00,ZGGG 182200Z AUTO 4SM 27/23 A2968 RMK T02700230 IEM_DS3505
ZGGG,2001-08-18 23:00,ZGGG 182300Z AUTO 3SM 27/23 A2968 RMK T02700230 IEM_DS3505
ZGGG,2001-08-19 00:00,ZGGG 190000Z AUTO 34004KT 7SM 27/24 A2971 RMK 60003 SLP060 T02660243 52010 IEM_DS3505
ZGGG,2001-08-19 01:00,ZGGG 190100Z AUTO 03010KT 2 1/2SM 27/23 A2971 RMK T02700230 IEM_DS3505
ZGGG,2001-08-19 02:00,ZGGG 190200Z AUTO 06004KT 2 1/2SM 26/24 A2971 RMK T02600240 IEM_DS3505
ZGGG,2001-08-19 03:00,ZGGG 190300Z AUTO 29004KT 8SM 28/25 A2971 RMK SLP064 T02780247 52004 IEM_DS3505
ZGGG,2001-08-19 04:00,ZGGG 190400Z AUTO 34002KT 2SM 28/23 A2971 RMK T02800230 IEM_DS3505
ZGGG,2001-08-19 05:00,ZGGG 190500Z AUTO 36002KT 1 1/4SM 29/24 A2968 RMK T02900240 IEM_DS3505
ZGGG,2001-08-19 06:00,ZGGG 190600Z AUTO 34002KT 5SM 31/25 A2965 RMK 60000 SLP047 T03080251 57017 IEM_DS3505
ZGGG,2001-08-19 07:00,ZGGG 190700Z AUTO 06002KT 2 1/2SM 31/23 A2965 RMK T03100230 IEM_DS3505
ZGGG,2001-08-19 08:00,ZGGG 190800Z AUTO 11002KT 32/23 A2962 RMK T03200230 IEM_DS3505
ZGGG,2001-08-19 09:00,ZGGG 190900Z AUTO 00000KT 9SM 32/26 A2962 RMK SLP034 T03250257 57013 IEM_DS3505
ZGGG,2001-08-19 10:00,ZGGG 191000Z AUTO 2 1/2SM 32/23 A2962 RMK T03200230 IEM_DS3505
ZGGG,2001-08-19 11:00,ZGGG 191100Z AUTO 08002KT 2 1/2SM 31/23 A2962 RMK T03100230 IEM_DS3505
ZGGG,2001-08-19 12:00,ZGGG 191200Z AUTO 14004KT 6SM 30/26 A2965 RMK SLP048 T03040265 52014 IEM_DS3505
ZGGG,2001-08-19 14:00,ZGGG 191400Z AUTO 04006KT 5SM 28/22 A2971 RMK T02800220 IEM_DS3505
ZGGG,2001-08-19 15:00,ZGGG 191500Z AUTO 14004KT 7SM 28/25 A2974 RMK SLP073 T02840246 52025 IEM_DS3505
ZGGG,2001-08-19 16:00,ZGGG 191600Z AUTO 20006KT 2 1/2SM 29/23 A2974 RMK T02900230 IEM_DS3505
ZGGG,2001-08-19 17:00,ZGGG 191700Z AUTO 18008KT 3SM 28/23 A2974 RMK T02800230 IEM_DS3505
ZGGG,2001-08-19 18:00,ZGGG 191800Z AUTO 00000KT 8SM 28/25 A2974 RMK SLP072 T02780251 57001 IEM_DS3505
ZGGG,2001-08-19 19:00,ZGGG 191900Z AUTO 22004KT 3SM 28/23 A2971 RMK T02800230 IEM_DS3505
ZGGG,2001-08-19 20:00,ZGGG 192000Z AUTO 23004KT 2 1/2SM 28/23 A2971 RMK T02800230 IEM_DS3505
ZGGG,2001-08-19 21:00,ZGGG 192100Z AUTO 00000KT 4SM 27/25 A2974 RMK 70001 SLP070 T02680254 57002 IEM_DS3505
ZGGG,2001-08-19 22:00,ZGGG 192200Z AUTO 2SM 26/23 A2974 RMK T02600230 IEM_DS3505
ZGGG,2001-08-19 23:00,ZGGG 192300Z AUTO 04002KT 1 1/4SM 26/24 A2974 RMK T02600240 IEM_DS3505
ZGGG,2001-08-20 00:00,ZGGG 200000Z AUTO 32002KT 3SM 28/25 A2974 RMK 70001 SLP073 T02820252 52003 IEM_DS3505
ZGGG,2001-08-20 01:00,ZGGG 200100Z AUTO 35002KT 1 1/2SM 29/23 A2974 RMK T02900230 IEM_DS3505
ZGGG,2001-08-20 02:00,ZGGG 200200Z AUTO 01004KT 2SM 31/24 A2974 RMK T03100240 IEM_DS3505
ZGGG,2001-08-20 03:00,ZGGG 200300Z AUTO 36004KT 7SM 32/25 A2974 RMK SLP076 T03190247 52003 IEM_DS3505
ZGGG,2001-08-20 04:00,ZGGG 200400Z AUTO 36004KT 2 1/2SM 32/23 A2974 RMK T03200230 IEM_DS3505
ZGGG,2001-08-20 05:00,ZGGG 200500Z AUTO 01004KT 2 1/2SM 32/23 A2971 RMK T03200230 IEM_DS3505
ZGGG,2001-08-20 06:00,ZGGG 200600Z AUTO 04002KT 8SM 34/24 A2971 RMK SLP061 T03430240 57015 IEM_DS3505
ZGGG,2001-08-20 08:00,ZGGG 200800Z AUTO 34004KT 34/22 A2965 RMK T03400220 IEM_DS3505
ZGGG,2001-08-20 09:00,ZGGG 200900Z AUTO 07002KT 10SM 34/23 A2965 RMK SLP046 T03440228 57015 IEM_DS3505
ZGGG,2001-08-20 10:00,ZGGG 201000Z AUTO 04002KT 34/21 A2965 RMK T03400210 IEM_DS3505
ZGGG,2001-08-20 11:00,ZGGG 201100Z AUTO 31004KT 3SM 34/21 A2965 RMK T03400210 IEM_DS3505
ZGGG,2001-08-20 12:00,ZGGG 201200Z AUTO 00000KT 8SM 31/26 A2968 RMK SLP054 T03100259 52008 IEM_DS3505
ZGGG,2001-08-20 13:00,ZGGG 201300Z AUTO 11002KT 3SM 31/23 A2968 RMK T03100230 IEM_DS3505
ZGGG,2001-08-20 14:00,ZGGG 201400Z AUTO 14004KT 2 1/2SM 31/24 A2971 RMK T03100240 IEM_DS3505
ZGGG,2001-08-20 15:00,ZGGG 201500Z AUTO 07002KT 5SM 29/26 A2971 RMK SLP066 T02930264 52012 IEM_DS3505
ZGGG,2001-08-20 16:00,ZGGG 201600Z AUTO 15002KT 2 1/2SM 30/24 A2971 RMK T03000240 IEM_DS3505
ZGGG,2001-08-20 17:00,ZGGG 201700Z AUTO 16006KT 2 1/2SM 30/24 A2971 RMK T03000240 IEM_DS3505
ZGGG,2001-08-20 18:00,ZGGG 201800Z AUTO 14004KT 7SM 29/25 A2971 RMK SLP069 T02860249 52003 IEM_DS3505
ZGGG,2001-08-20 19:00,ZGGG 201900Z AUTO 16004KT 3SM 29/23 A2971 RMK T02900230 IEM_DS3505
ZGGG,2001-08-20 20:00,ZGGG 202000Z AUTO 18008KT 4SM 28/23 A2971 RMK T02800230 IEM_DS3505
ZGGG,2001-08-20 21:00,ZGGG 202100Z AUTO 14004KT 6SM 28/25 A2971 RMK SLP067 T02800249 57002 IEM_DS3505
ZGGG,2001-08-20 22:00,ZGGG 202200Z AUTO 19004KT 4SM 28/23 A2974 RMK T02800230 IEM_DS3505
ZGGG,2001-08-20 23:00,ZGGG 202300Z AUTO 2 1/2SM 28/24 A2974 RMK T02800240 IEM_DS3505
ZGGG,2001-08-21 00:00,ZGGG 210000Z AUTO 07002KT 5SM 29/26 A2974 RMK SLP074 T02890257 52007 IEM_DS3505
ZGGG,2001-08-21 01:00,ZGGG 210100Z AUTO 3SM 29/23 A2974 RMK T02900230 IEM_DS3505
ZGGG,2001-08-21 02:00,ZGGG 210200Z AUTO 3SM 31/24 A2974 RMK T03100240 IEM_DS3505
ZGGG,2001-08-21 03:00,ZGGG 210300Z AUTO 11004KT 4SM 33/26 A2974 RMK SLP070 T03260257 57004 IEM_DS3505
ZGGG,2001-08-21 04:00,ZGGG 210400Z AUTO 2SM 33/24 A2971 RMK T03300240 IEM_DS3505
ZGGG,2001-08-21 05:00,ZGGG 210500Z AUTO 06004KT 3SM 33/23 A2968 RMK T03300230 IEM_DS3505
ZGGG,2001-08-21 06:00,ZGGG 210600Z AUTO 00000KT 6SM 35/25 A2965 RMK SLP047 T03480246 57023 IEM_DS3505
ZGGG,2001-08-21 07:00,ZGGG 210700Z AUTO 08004KT 5SM 34/22 A2962 RMK T03400220 IEM_DS3505
ZGGG,2001-08-21 08:00,ZGGG 210800Z AUTO 06004KT 5SM 35/21 A2962 RMK T03500210 IEM_DS3505
ZGGG,2001-08-21 09:00,ZGGG 210900Z AUTO 00000KT 7SM 35/24 A2959 RMK SLP027 T03510243 57020 IEM_DS3505
ZGGG,2001-08-21 10:00,ZGGG 211000Z AUTO 10004KT 5SM 34/22 A2959 RMK T03400220 IEM_DS3505
ZGGG,2001-08-21 11:00,ZGGG 211100Z AUTO 13004KT 33/22 A2962 RMK T03300220 IEM_DS3505
ZGGG,2001-08-21 12:00,ZGGG 211200Z AUTO 00000KT 6SM 32/26 A2962 RMK SLP035 T03170260 52008 IEM_DS3505
ZGGG,2001-08-21 13:00,ZGGG 211300Z AUTO 12004KT 3SM 32/24 A2965 RMK T03200240 IEM_DS3505
ZGGG,2001-08-21 14:00,ZGGG 211400Z AUTO 16006KT 1 1/2SM 31/25 A2965 RMK T03100250 IEM_DS3505
ZGGG,2001-08-21 15:00,ZGGG 211500Z AUTO 16002KT 3SM 30/27 A2965 RMK SLP048 T03040268 52013 IEM_DS3505
ZGGG,2001-08-21 16:00,ZGGG 211600Z AUTO 17004KT 2 1/2SM 30/25 A2965 RMK T03000250 IEM_DS3505
ZGGG,2001-08-21 17:00,ZGGG 211700Z AUTO 17006KT 2SM 30/25 A2968 RMK T03000250 IEM_DS3505
ZGGG,2001-08-21 18:00,ZGGG 211800Z AUTO 16004KT 4SM 29/26 A2965 RMK SLP047 T02920261 57001 IEM_DS3505
ZGGG,2001-08-21 19:00,ZGGG 211900Z AUTO 18004KT 2 1/2SM 29/25 A2965 RMK T02900250 IEM_DS3505
ZGGG,2001-08-21 20:00,ZGGG 212000Z AUTO 17002KT 3SM 29/25 A2965 RMK T02900250 IEM_DS3505
ZGGG,2001-08-21 21:00,ZGGG 212100Z AUTO 14002KT 4SM 29/26 A2965 RMK SLP047 T02860260 54000 IEM_DS3505
ZGGG,2001-08-21 22:00,ZGGG 212200Z AUTO 3SM 28/24 A2965 RMK T02800240 IEM_DS3505
ZGGG,2001-08-21 23:00,ZGGG 212300Z AUTO 2SM 28/24 A2965 RMK T02800240 IEM_DS3505
ZGGG,2001-08-22 00:00,ZGGG 220000Z AUTO 09002KT 3SM 29/26 A2968 RMK SLP053 T02900265 52006 IEM_DS3505
ZGGG,2001-08-22 01:00,ZGGG 220100Z AUTO 2 1/2SM 30/24 A2968 RMK T03000240 IEM_DS3505
ZGGG,2001-08-22 02:00,ZGGG 220200Z AUTO 2 1/2SM 31/24 A2968 RMK T03100240 IEM_DS3505
ZGGG,2001-08-22 03:00,ZGGG 220300Z AUTO 11004KT 4SM 33/27 A2968 RMK SLP049 T03260266 57004 IEM_DS3505
ZGGG,2001-08-22 04:00,ZGGG 220400Z AUTO 2 1/2SM 33/23 A2965 RMK T03300230 IEM_DS3505
ZGGG,2001-08-22 05:00,ZGGG 220500Z AUTO 2 1/2SM 34/23 A2962 RMK T03400230 IEM_DS3505
ZGGG,2001-08-22 06:00,ZGGG 220600Z AUTO 00000KT 5SM 34/26 A2959 RMK SLP026 T03430257 57023 IEM_DS3505
ZGGG,2001-08-22 07:00,ZGGG 220700Z AUTO 17004KT 3SM 34/23 A2956 RMK T03400230 IEM_DS3505
ZGGG,2001-08-22 08:00,ZGGG 220800Z AUTO 36006KT 3SM 35/23 A2956 RMK T03500230 IEM_DS3505
ZGGG,2001-08-22 09:00,ZGGG 220900Z AUTO 18004KT 7SM 34/24 A2956 RMK SLP014 T03390240 57012 IEM_DS3505
ZGGG,2001-08-22 10:00,ZGGG 221000Z AUTO 13006KT 3SM 33/24 A2956 RMK T03300240 IEM_DS3505
ZGGG,2001-08-22 11:00,ZGGG 221100Z AUTO 2 1/2SM 32/23 A2959 RMK T03200230 IEM_DS3505
ZGGG,2001-08-22 12:00,ZGGG 221200Z AUTO 00000KT 6SM 30/26 A2959 RMK SLP028 T03020255 52014 IEM_DS3505
ZGGG,2001-08-22 13:00,ZGGG 221300Z AUTO 3SM 32/23 A2959 RMK T03200230 IEM_DS3505
ZGGG,2001-08-22 14:00,ZGGG 221400Z AUTO 17006KT 3SM 32/23 A2962 RMK T03200230 IEM_DS3505
ZGGG,2001-08-22 15:00,ZGGG 221500Z AUTO 00000KT 4SM 30/26 A2962 RMK SLP030 T02960260 52002 IEM_DS3505
ZGGG,2001-08-22 16:00,ZGGG 221600Z AUTO 18004KT 31/24 A2962 RMK T03100240 IEM_DS3505
ZGGG,2001-08-22 17:00,ZGGG 221700Z AUTO 17004KT 31/25 A2962 RMK T03100250 IEM_DS3505
ZGGG,2001-08-22 18:00,ZGGG 221800Z AUTO 00000KT 4SM 29/27 A2959 RMK SLP030 T02910268 54000 IEM_DS3505
ZGGG,2001-08-22 19:00,ZGGG 221900Z AUTO 3SM 30/25 A2962 RMK T03000250 IEM_DS3505
ZGGG,2001-08-22 20:00,ZGGG 222000Z AUTO 17004KT 3SM 29/24 A2962 RMK T02900240 IEM_DS3505
ZGGG,2001-08-22 21:00,ZGGG 222100Z AUTO 00000KT 4SM 29/27 A2962 RMK SLP034 T02870271 52004 IEM_DS3505
ZGGG,2001-08-22 22:00,ZGGG 222200Z AUTO 15002KT 3SM 29/24 A2962 RMK T02900240 IEM_DS3505
ZGGG,2001-08-22 23:00,ZGGG 222300Z AUTO 3SM 29/24 A2962 RMK T02900240 IEM_DS3505
ZGGG,2001-08-23 00:00,ZGGG 230000Z AUTO 00000KT 2SM 30/27 A2965 RMK SLP039 T02960270 52005 IEM_DS3505
ZGGG,2001-08-23 01:00,ZGGG 230100Z AUTO 24004KT 2 1/2SM 31/24 A2965 RMK T03100240 IEM_DS3505
ZGGG,2001-08-23 02:00,ZGGG 230200Z AUTO 27004KT 3SM 32/24 A2962 RMK T03200240 IEM_DS3505
ZGGG,2001-08-23 03:00,ZGGG 230300Z AUTO 25004KT 5SM 34/26 A2962 RMK SLP033 T03360257 57006 IEM_DS3505
ZGGG,2001-08-23 04:00,ZGGG 230400Z AUTO 34004KT 3SM 33/24 A2959 RMK T03300240 IEM_DS3505
ZGGG,2001-08-23 05:00,ZGGG 230500Z AUTO 33006KT 2 1/2SM 34/24 A2959 RMK T03400240 IEM_DS3505
ZGGG,2001-08-23 06:00,ZGGG 230600Z AUTO 02006KT 7SM 35/23 A2956 RMK T03500230 IEM_DS3505
ZGGG,2001-08-23 07:00,ZGGG 230700Z AUTO 31004KT 5SM 36/22 A2953 RMK T03600220 IEM_DS3505
ZGGG,2001-08-23 08:00,ZGGG 230800Z AUTO 29002KT 7SM 36/22 A2953 RMK T03600220 IEM_DS3505
ZGGG,2001-08-23 09:00,ZGGG 230900Z AUTO 20002KT 9SM 35/25 A2950 RMK SLP000 T03490252 57013 IEM_DS3505
ZGGG,2001-08-23 10:00,ZGGG 231000Z AUTO 16006KT 3SM 33/23 A2953 RMK T03300230 IEM_DS3505
ZGGG,2001-08-23 11:00,ZGGG 231100Z AUTO 3SM 33/22 A2956 RMK T03300220 IEM_DS3505
ZGGG,2001-08-23 12:00,ZGGG 231200Z AUTO 09002KT 5SM 30/25 A2956 RMK SLP018 T03020250 52018 IEM_DS3505
ZGGG,2001-08-23 13:00,ZGGG 231300Z AUTO 15004KT 3SM 32/23 A2959 RMK T03200230 IEM_DS3505
ZGGG,2001-08-23 14:00,ZGGG 231400Z AUTO 16004KT 32/23 A2959 RMK T03200230 IEM_DS3505
ZGGG,2001-08-23 15:00,ZGGG 231500Z AUTO 00000KT 5SM 30/26 A2959 RMK SLP029 T02960263 52011 IEM_DS3505
ZGGG,2001-08-23 16:00,ZGGG 231600Z AUTO 15002KT 3SM 31/24 A2959 RMK T03100240 IEM_DS3505
ZGGG,2001-08-23 17:00,ZGGG 231700Z AUTO 3SM 31/24 A2959 RMK T03100240 IEM_DS3505
ZGGG,2001-08-23 18:00,ZGGG 231800Z AUTO 07002KT 4SM 29/26 A2956 RMK SLP016 T02900264 57013 IEM_DS3505
ZGGG,2001-08-23 19:00,ZGGG 231900Z AUTO 3SM 30/23 A2956 RMK T03000230 IEM_DS3505
ZGGG,2001-08-23 20:00,ZGGG 232000Z AUTO 3SM 30/24 A2956 RMK T03000240 IEM_DS3505
ZGGG,2001-08-23 21:00,ZGGG 232100Z AUTO 00000KT 4SM 28/26 A2959 RMK SLP021 T02840262 52005 IEM_DS3505
ZGGG,2001-08-23 22:00,ZGGG 232200Z AUTO 3SM 29/24 A2959 RMK T02900240 IEM_DS3505
ZGGG,2001-08-23 23:00,ZGGG 232300Z AUTO 2SM 30/28 A2959 RMK T03000280 IEM_DS3505
ZGGG,2001-08-24 00:00,ZGGG 240000Z AUTO 14002KT 4SM 30/27 A2959 RMK SLP026 T02950267 52005 IEM_DS3505
ZGGG,2001-08-24 01:00,ZGGG 240100Z AUTO 17004KT 1 1/2SM 31/25 A2962 RMK T03100250 IEM_DS3505
ZGGG,2001-08-24 02:00,ZGGG 240200Z AUTO 1 1/2SM 31/24 A2962 RMK T03100240 IEM_DS3505
ZGGG,2001-08-24 03:00,ZGGG 240300Z AUTO 14006KT 3SM 33/26 A2962 RMK SLP032 T03270265 52006 IEM_DS3505
ZGGG,2001-08-24 04:00,ZGGG 240400Z AUTO 23006KT 2 1/2SM 32/23 A2959 RMK T03200230 IEM_DS3505
ZGGG,2001-08-24 06:00,ZGGG 240600Z AUTO 14004KT 7SM 34/26 A2956 RMK SLP011 T03430259 57021 IEM_DS3505
ZGGG,2001-08-24 07:00,ZGGG 240700Z AUTO 05004KT 3SM 34/24 A2953 RMK T03400240 IEM_DS3505
ZGGG,2001-08-24 08:00,ZGGG 240800Z AUTO 06004KT 3SM 34/23 A2953 RMK T03400230 IEM_DS3505
ZGGG,2001-08-24 09:00,ZGGG 240900Z AUTO 14004KT 7SM 34/25 A2953 RMK SLP003 T03390250 57008 IEM_DS3505
ZGGG,2001-08-24 10:00,ZGGG 241000Z AUTO 16006KT 3SM 33/24 A2953 RMK T03300240 IEM_DS3505
ZGGG,2001-08-24 11:00,ZGGG 241100Z AUTO 15004KT 33/23 A2956 RMK T03300230 IEM_DS3505
ZGGG,2001-08-24 12:00,ZGGG 241200Z AUTO 14002KT 7SM 32/26 A2956 RMK SLP017 T03170257 52014 IEM_DS3505
ZGGG,2001-08-24 13:00,ZGGG 241300Z AUTO 13006KT 31/24 A2959 RMK T03100240 IEM_DS3505
ZGGG,2001-08-24 14:00,ZGGG 241400Z AUTO 15004KT 31/25 A2959 RMK T03100250 IEM_DS3505
ZGGG,2001-08-24 15:00,ZGGG 241500Z AUTO 07002KT 6SM 30/26 A2959 RMK SLP029 T03030263 52012 IEM_DS3505
ZGGG,2001-08-24 16:00,ZGGG 241600Z AUTO 14004KT 31/25 A2959 RMK T03100250 IEM_DS3505
ZGGG,2001-08-24 17:00,ZGGG 241700Z AUTO 14004KT 4SM 30/25 A2959 RMK T03000250 IEM_DS3505
ZGGG,2001-08-24 18:00,ZGGG 241800Z AUTO 09002KT 7SM 30/27 A2959 RMK SLP024 T02950266 57005 IEM_DS3505
ZGGG,2001-08-24 19:00,ZGGG 241900Z AUTO 14006KT 4SM 29/25 A2959 RMK T02900250 IEM_DS3505
ZGGG,2001-08-24 20:00,ZGGG 242000Z AUTO 14004KT 4SM 29/25 A2959 RMK T02900250 IEM_DS3505
ZGGG,2001-08-24 21:00,ZGGG 242100Z AUTO 16002KT 4SM 29/27 A2962 RMK SLP031 T02920266 52007 IEM_DS3505
ZGGG,2001-08-24 22:00,ZGGG 242200Z AUTO 13002KT 3SM 29/26 A2962 RMK T02900260 IEM_DS3505
ZGGG,2001-08-24 23:00,ZGGG 242300Z AUTO 2 1/2SM 29/25 A2962 RMK T02900250 IEM_DS3505
ZGGG,2001-08-25 00:00,ZGGG 250000Z AUTO 09002KT 7SM 30/27 A2965 RMK SLP024 T02950266 57005 IEM_DS3505
ZGGG,2001-08-25 01:00,ZGGG 250100Z AUTO 14006KT 3SM 31/24 A2965 RMK T03100240 IEM_DS3505
ZGGG,2001-08-25 02:00,ZGGG 250200Z AUTO 16006KT 5SM 32/24 A2965 RMK T03200240 IEM_DS3505
ZGGG,2001-08-25 03:00,ZGGG 250300Z AUTO 14004KT 9SM 32/25 A2965 RMK SLP044 T03250253 52004 IEM_DS3505
ZGGG,2001-08-25 04:00,ZGGG 250400Z AUTO 14004KT 32/23 A2962 RMK T03200230 IEM_DS3505
ZGGG,2001-08-25 05:00,ZGGG 250500Z AUTO 35008KT 3SM 29/24 A2962 RMK T02900240 IEM_DS3505
ZGGG,2001-08-25 06:00,ZGGG 250600Z AUTO 34004KT 7SM 32/26 A2959 RMK SLP027 T03150257 57017 IEM_DS3505
ZGGG,2001-08-25 07:00,ZGGG 250700Z AUTO 34004KT 2SM 30/25 A2959 RMK T03000250 IEM_DS3505
ZGGG,2001-08-25 08:00,ZGGG 250800Z AUTO 36004KT 2 1/2SM 31/24 A2959 RMK T03100240 IEM_DS3505
ZGGG,2001-08-25 09:00,ZGGG 250900Z AUTO 25006KT 8SM 28/25 A2962 RMK SLP026 T02820247 57001 IEM_DS3505
ZGGG,2001-08-25 10:00,ZGGG 251000Z AUTO 06002KT 4SM 26/22 A2962 RMK T02600220 IEM_DS3505
ZGGG,2001-08-25 11:00,ZGGG 251100Z AUTO 2 1/2SM 28/24 A2962 RMK T02800240 IEM_DS3505
ZGGG,2001-08-25 12:00,ZGGG 251200Z AUTO 36002KT 6SM 28/26 A2965 RMK 60002 SLP042 T02840263 52016 IEM_DS3505
ZGGG,2001-08-25 13:00,ZGGG 251300Z AUTO 34004KT 3SM 28/23 A2965 RMK T02800230 IEM_DS3505
ZGGG,2001-08-25 14:00,ZGGG 251400Z AUTO 34004KT 3SM 28/23 A2968 RMK T02800230 IEM_DS3505
ZGGG,2001-08-25 15:00,ZGGG 251500Z AUTO 34004KT 6SM 27/25 A2968 RMK SLP049 T02740247 52007 IEM_DS3505
ZGGG,2001-08-25 16:00,ZGGG 251600Z AUTO 07004KT 2 1/2SM 27/24 A2965 RMK T02700240 IEM_DS3505
ZGGG,2001-08-25 17:00,ZGGG 251700Z AUTO 03006KT 3SM 27/23 A2965 RMK T02700230 IEM_DS3505
ZGGG,2001-08-25 18:00,ZGGG 251800Z AUTO 04002KT 5SM 27/24 A2962 RMK SLP033 T02720242 57016 IEM_DS3505
ZGGG,2001-08-25 19:00,ZGGG 251900Z AUTO 04004KT 3SM 27/23 A2962 RMK T02700230 IEM_DS3505
ZGGG,2001-08-25 20:00,ZGGG 252000Z AUTO 3SM 27/23 A2962 RMK T02700230 IEM_DS3505
ZGGG,2001-08-25 21:00,ZGGG 252100Z AUTO 00000KT 5SM 27/25 A2965 RMK SLP040 T02690248 52007 IEM_DS3505
ZGGG,2001-08-25 22:00,ZGGG 252200Z AUTO 02004KT 2 1/2SM 26/23 A2965 RMK T02600230 IEM_DS3505
ZGGG,2001-08-25 23:00,ZGGG 252300Z AUTO 04006KT 2SM 27/24 A2968 RMK T02700240 IEM_DS3505
ZGGG,2001-08-26 00:00,ZGGG 260000Z AUTO 36004KT 7SM 27/25 A2968 RMK 70002 SLP047 T02730249 52007 IEM_DS3505
ZGGG,2001-08-26 01:00,ZGGG 260100Z AUTO 03006KT 2SM 28/23 A2968 RMK T02800230 IEM_DS3505
ZGGG,2001-08-26 02:00,ZGGG 260200Z AUTO 02008KT 3SM 29/23 A2968 RMK T02900230 IEM_DS3505
ZGGG,2001-08-26 03:00,ZGGG 260300Z AUTO 04002KT 9SM 32/25 A2965 RMK SLP047 T03180251 54000 IEM_DS3505
ZGGG,2001-08-26 04:00,ZGGG 260400Z AUTO 01004KT 3SM 32/24 A2965 RMK T03200240 IEM_DS3505
ZGGG,2001-08-26 05:00,ZGGG 260500Z AUTO 03004KT 32/23 A2962 RMK T03200230 IEM_DS3505
ZGGG,2001-08-26 06:00,ZGGG 260600Z AUTO 36004KT 10SM 34/25 A2962 RMK SLP029 T03360254 57018 IEM_DS3505
ZGGG,2001-08-26 07:00,ZGGG 260700Z AUTO 01004KT 7SM 33/23 A2959 RMK T03300230 IEM_DS3505
ZGGG,2001-08-26 08:00,ZGGG 260800Z AUTO 06004KT 33/22 A2959 RMK T03300220 IEM_DS3505
ZGGG,2001-08-26 09:00,ZGGG 260900Z AUTO 04002KT 11SM 33/25 A2956 RMK SLP019 T03280250 57010 IEM_DS3505
ZGGG,2001-08-26 10:00,ZGGG 261000Z AUTO 36008KT 1 1/4SM 31/24 A2959 RMK T03100240 IEM_DS3505
ZGGG,2001-08-26 11:00,ZGGG 261100Z AUTO 18006KT 2 1/2SM 25/24 A2959 RMK T02500240 IEM_DS3505
ZGGG,2001-08-26 12:00,ZGGG 261200Z AUTO 00000KT 8SM 29/25 A2962 RMK SLP037 T02880246 52018 IEM_DS3505
ZGGG,2001-08-26 13:00,ZGGG 261300Z AUTO 20004KT 3SM 26/25 A2965 RMK T02600250 IEM_DS3505
ZGGG,2001-08-26 14:00,ZGGG 261400Z AUTO 4SM 27/24 A2968 RMK T02700240 IEM_DS3505
ZGGG,2001-08-26 15:00,ZGGG 261500Z AUTO 00000KT 8SM 27/26 A2968 RMK SLP051 T02740261 52014 IEM_DS3505
ZGGG,2001-08-26 16:00,ZGGG 261600Z AUTO 3SM 27/26 A2965 RMK T02700260 IEM_DS3505
ZGGG,2001-08-26 17:00,ZGGG 261700Z AUTO 2 1/2SM 27/26 A2965 RMK T02700260 IEM_DS3505
ZGGG,2001-08-26 18:00,ZGGG 261800Z AUTO 00000KT 7SM 27/26 A2965 RMK 60020 SLP046 T02730260 57005 IEM_DS3505
ZGGG,2001-08-26 19:00,ZGGG 261900Z AUTO 05006KT 3SM 27/26 A2965 RMK T02700260 IEM_DS3505
ZGGG,2001-08-26 20:00,ZGGG 262000Z AUTO 02004KT 5SM 26/23 A2962 RMK T02600230 IEM_DS3505
ZGGG,2001-08-26 21:00,ZGGG 262100Z AUTO 36002KT 7SM 26/24 A2962 RMK 70026 SLP033 T02560242 57013 IEM_DS3505
ZGGG,2001-08-26 22:00,ZGGG 262200Z AUTO 03006KT 4SM 26/24 A2962 RMK T02600240 IEM_DS3505
ZGGG,2001-08-26 23:00,ZGGG 262300Z AUTO 01004KT 4SM 26/24 A2962 RMK T02600240 IEM_DS3505
ZGGG,2001-08-27 00:00,ZGGG 270000Z AUTO 36004KT 10SM 27/24 A2962 RMK 60004 SLP033 T02660240 54000 IEM_DS3505
ZGGG,2001-08-27 01:00,ZGGG 270100Z AUTO 36008KT 7SM 28/22 A2962 RMK T02800220 IEM_DS3505
ZGGG,2001-08-27 02:00,ZGGG 270200Z AUTO 01008KT 7SM 29/22 A2965 RMK T02900220 IEM_DS3505
ZGGG,2001-08-27 03:00,ZGGG 270300Z AUTO 09006KT 11SM 29/24 A2965 RMK SLP044 T02870235 52011 IEM_DS3505
ZGGG,2001-08-27 04:00,ZGGG 270400Z AUTO 04012KT 7SM 30/22 A2965 RMK T03000220 IEM_DS3505
ZGGG,2001-08-27 05:00,ZGGG 270500Z AUTO 02010KT 6SM 30/22 A2962 RMK T03000220 IEM_DS3505
ZGGG,2001-08-27 06:00,ZGGG 270600Z AUTO 07004KT 12SM 31/24 A2959 RMK SLP027 T03100239 57017 IEM_DS3505
ZGGG,2001-08-27 07:00,ZGGG 270700Z AUTO 36008KT 6SM 31/22 A2956 RMK T03100220 IEM_DS3505
ZGGG,2001-08-27 08:00,ZGGG 270800Z AUTO 02008KT 6SM 32/23 A2956 RMK T03200230 IEM_DS3505
ZGGG,2001-08-27 09:00,ZGGG 270900Z AUTO 02006KT 11SM 32/24 A2953 RMK SLP009 T03160243 57018 IEM_DS3505
ZGGG,2001-08-27 10:00,ZGGG 271000Z AUTO 02010KT 7SM 31/22 A2956 RMK T03100220 IEM_DS3505
ZGGG,2001-08-27 11:00,ZGGG 271100Z AUTO 04012KT 7SM 29/22 A2956 RMK T02900220 IEM_DS3505
ZGGG,2001-08-27 12:00,ZGGG 271200Z AUTO 32004KT 10SM 29/23 A2959 RMK SLP023 T02930234 52014 IEM_DS3505
ZGGG,2001-08-27 13:00,ZGGG 271300Z AUTO 02008KT 7SM 29/22 A2962 RMK T02900220 IEM_DS3505
ZGGG,2001-08-27 14:00,ZGGG 271400Z AUTO 02008KT 6SM 29/22 A2962 RMK T02900220 IEM_DS3505
ZGGG,2001-08-27 15:00,ZGGG 271500Z AUTO 02004KT 10SM 28/23 A2965 RMK SLP038 T02850227 52015 IEM_DS3505
ZGGG,2001-08-27 16:00,ZGGG 271600Z AUTO 05008KT 7SM 28/21 A2965 RMK T02800210 IEM_DS3505
ZGGG,2001-08-27 17:00,ZGGG 271700Z AUTO 05006KT 7SM 27/21 A2962 RMK T02700210 IEM_DS3505
ZGGG,2001-08-27 18:00,ZGGG 271800Z AUTO 00000KT 9SM 27/23 A2962 RMK 60003 SLP029 T02740229 57009 IEM_DS3505
ZGGG,2001-08-27 19:00,ZGGG 271900Z AUTO 01008KT 7SM 28/22 A2959 RMK T02800220 IEM_DS3505
ZGGG,2001-08-27 20:00,ZGGG 272000Z AUTO 02008KT 7SM 27/21 A2959 RMK T02700210 IEM_DS3505
ZGGG,2001-08-27 21:00,ZGGG 272100Z AUTO 34002KT 11SM 27/22 A2956 RMK 70003 SLP016 T02700220 57013 IEM_DS3505
ZGGG,2001-08-27 22:00,ZGGG 272200Z AUTO 02008KT 7SM 27/21 A2959 RMK T02700210 IEM_DS3505
ZGGG,2001-08-27 23:00,ZGGG 272300Z AUTO 02008KT 6SM 27/21 A2959 RMK T02700210 IEM_DS3505
ZGGG,2001-08-28 00:00,ZGGG 280000Z AUTO 02006KT 12SM 28/22 A2959 RMK 70003 SLP024 T02760223 52008 IEM_DS3505
ZGGG,2001-08-28 01:00,ZGGG 280100Z AUTO 01010KT 6SM 29/21 A2959 RMK T02900210 IEM_DS3505
ZGGG,2001-08-28 02:00,ZGGG 280200Z AUTO 04014KT 6SM 30/22 A2962 RMK T03000220 IEM_DS3505
ZGGG,2001-08-28 03:00,ZGGG 280300Z AUTO 04004KT 14SM 31/23 A2962 RMK SLP028 T03140234 52004 IEM_DS3505
ZGGG,2001-08-28 04:00,ZGGG 280400Z AUTO 04010KT 7SM 30/22 A2959 RMK T03000220 IEM_DS3505
ZGGG,2001-08-28 05:00,ZGGG 280500Z AUTO 02010KT 5SM 30/22 A2959 RMK T03000220 IEM_DS3505
ZGGG,2001-08-28 06:00,ZGGG 280600Z AUTO 36006KT 14SM 31/24 A2956 RMK SLP011 T03060244 57017 IEM_DS3505
ZGGG,2001-08-28 07:00,ZGGG 280700Z AUTO 03014KT 7SM 31/23 A2953 RMK T03100230 IEM_DS3505
ZGGG,2001-08-28 08:00,ZGGG 280800Z AUTO 03012KT 7SM 31/22 A2953 RMK T03100220 IEM_DS3505
ZGGG,2001-08-28 09:00,ZGGG 280900Z AUTO 04002KT 12SM 30/25 A2953 RMK SLP000 T02990250 57011 IEM_DS3505
ZGGG,2001-08-28 10:00,ZGGG 281000Z AUTO 04010KT 7SM 26/24 A2953 RMK T02600240 IEM_DS3505
ZGGG,2001-08-28 11:00,ZGGG 281100Z AUTO 05010KT 4SM 27/24 A2953 RMK T02700240 IEM_DS3505
ZGGG,2001-08-28 12:00,ZGGG 281200Z AUTO 04004KT 11SM 28/24 A2956 RMK 60008 SLP012 T02750244 52012 IEM_DS3505
ZGGG,2001-08-28 13:00,ZGGG 281300Z AUTO 05008KT 7SM 27/23 A2959 RMK T02700230 IEM_DS3505
ZGGG,2001-08-28 14:00,ZGGG 281400Z AUTO 04008KT 7SM 26/24 A2959 RMK T02600240 IEM_DS3505
ZGGG,2001-08-28 15:00,ZGGG 281500Z AUTO 36002KT 11SM 27/24 A2959 RMK SLP027 T02740243 52015 IEM_DS3505
ZGGG,2001-08-28 16:00,ZGGG 281600Z AUTO 04008KT 6SM 26/23 A2959 RMK T02600230 IEM_DS3505
ZGGG,2001-08-28 17:00,ZGGG 281700Z AUTO 03006KT 7SM 27/23 A2959 RMK T02700230 IEM_DS3505
ZGGG,2001-08-28 18:00,ZGGG 281800Z AUTO 07004KT 11SM 27/24 A2959 RMK SLP018 T02720241 57009 IEM_DS3505
ZGGG,2001-08-28 19:00,ZGGG 281900Z AUTO 04008KT 7SM 26/23 A2956 RMK T02600230 IEM_DS3505
ZGGG,2001-08-28 20:00,ZGGG 282000Z AUTO 04008KT 7SM 26/23 A2956 RMK T02600230 IEM_DS3505
ZGGG,2001-08-28 21:00,ZGGG 282100Z AUTO 07004KT 9SM 27/24 A2956 RMK 70006 SLP013 T02730237 57005 IEM_DS3505
ZGGG,2001-08-28 22:00,ZGGG 282200Z AUTO 04006KT 5SM 26/23 A2956 RMK T02600230 IEM_DS3505
ZGGG,2001-08-28 23:00,ZGGG 282300Z AUTO 04008KT 7SM 26/24 A2956 RMK T02600240 IEM_DS3505
ZGGG,2001-08-29 00:00,ZGGG 290000Z AUTO 04008KT 14SM 28/24 A2959 RMK 60000 SLP021 T02820236 52008 IEM_DS3505
ZGGG,2001-08-29 01:00,ZGGG 290100Z AUTO 05012KT 7SM 29/23 A2959 RMK T02900230 IEM_DS3505
ZGGG,2001-08-29 03:00,ZGGG 290300Z AUTO 07008KT 17SM 30/24 A2956 RMK SLP018 T03040240 57003 IEM_DS3505
ZGGG,2001-08-29 04:00,ZGGG 290400Z AUTO 07012KT 7SM 31/22 A2956 RMK T03100220 IEM_DS3505
ZGGG,2001-08-29 05:00,ZGGG 290500Z AUTO 08008KT 5SM 30/23 A2953 RMK T03000230 IEM_DS3505
ZGGG,2001-08-29 06:00,ZGGG 290600Z AUTO 07006KT 17SM 30/26 A2953 RMK 60004 SLP003 T02950260 57015 IEM_DS3505
ZGGG,2001-08-29 07:00,ZGGG 290700Z AUTO 09012KT 7SM 29/23 A2950 RMK T02900230 IEM_DS3505
ZGGG,2001-08-29 08:00,ZGGG 290800Z AUTO 09008KT 7SM 31/24 A2950 RMK T03100240 IEM_DS3505
ZGGG,2001-08-29 09:00,ZGGG 290900Z AUTO 09004KT 17SM 29/26 A2950 RMK SLP993 T02920257 57010 IEM_DS3505
ZGGG,2001-08-29 10:00,ZGGG 291000Z AUTO 11008KT 4SM 28/23 A2953 RMK T02800230 IEM_DS3505
ZGGG,2001-08-29 11:00,ZGGG 291100Z AUTO 10010KT 3SM 26/24 A2953 RMK T02600240 IEM_DS3505
ZGGG,2001-08-29 12:00,ZGGG 291200Z AUTO 04002KT 8SM 26/25 A2956 RMK 60024 SLP013 T02600249 52020 IEM_DS3505
ZGGG,2001-08-29 13:00,ZGGG 291300Z AUTO 09008KT 7SM 26/23 A2956 RMK T02600230 IEM_DS3505
ZGGG,2001-08-29 14:00,ZGGG 291400Z AUTO 09008KT 6SM 26/22 A2959 RMK T02600220 IEM_DS3505
ZGGG,2001-08-29 15:00,ZGGG 291500Z AUTO 09006KT 11SM 27/22 A2962 RMK T02700220 IEM_DS3505
ZGGG,2001-08-29 16:00,ZGGG 291600Z AUTO 10006KT 7SM 27/22 A2959 RMK T02700220 IEM_DS3505
ZGGG,2001-08-29 17:00,ZGGG 291700Z AUTO 05006KT 6SM 26/22 A2959 RMK T02600220 IEM_DS3505
ZGGG,2001-08-29 18:00,ZGGG 291800Z AUTO 07002KT 11SM 26/24 A2956 RMK 60003 SLP015 T02590243 57014 IEM_DS3505
ZGGG,2001-08-29 19:00,ZGGG 291900Z AUTO 05006KT 7SM 26/23 A2956 RMK T02600230 IEM_DS3505
ZGGG,2001-08-29 20:00,ZGGG 292000Z AUTO 05006KT 7SM 26/23 A2956 RMK T02600230 IEM_DS3505
ZGGG,2001-08-29 21:00,ZGGG 292100Z AUTO 02002KT 11SM 26/24 A2956 RMK 70030 SLP010 T02600237 57005 IEM_DS3505
ZGGG,2001-08-29 22:00,ZGGG 292200Z AUTO 05006KT 7SM 26/23 A2956 RMK T02600230 IEM_DS3505
ZGGG,2001-08-29 23:00,ZGGG 292300Z AUTO 06008KT 7SM 27/22 A2956 RMK T02700220 IEM_DS3505
ZGGG,2001-08-30 00:00,ZGGG 300000Z AUTO 04006KT 14SM 28/24 RMK 60003 SLP021 T02770240 52011 IEM_DS3505
ZGGG,2001-08-30 01:00,ZGGG 300100Z AUTO 06008KT 7SM 28/22 A2959 RMK T02800220 IEM_DS3505
ZGGG,2001-08-30 02:00,ZGGG 300200Z AUTO 06010KT 7SM 29/23 A2959 RMK T02900230 IEM_DS3505
ZGGG,2001-08-30 03:00,ZGGG 300300Z AUTO 07006KT 17SM 30/24 A2959 RMK SLP026 T02980241 52005 IEM_DS3505
ZGGG,2001-08-30 04:00,ZGGG 300400Z AUTO 07008KT 7SM 29/23 A2959 RMK T02900230 IEM_DS3505
ZGGG,2001-08-30 06:00,ZGGG 300600Z AUTO 11008KT 12SM 27/25 A2956 RMK 60000 SLP018 T02740251 57008 IEM_DS3505
ZGGG,2001-08-30 07:00,ZGGG 300700Z AUTO 10010KT 3SM 27/24 A2956 RMK T02700240 IEM_DS3505
ZGGG,2001-08-30 08:00,ZGGG 300800Z AUTO 10010KT 4SM 26/24 A2956 RMK T02600240 IEM_DS3505
ZGGG,2001-08-30 09:00,ZGGG 300900Z AUTO 09004KT 6SM 26/25 A2956 RMK SLP017 T02620252 57002 IEM_DS3505
ZGGG,2001-08-30 10:00,ZGGG 301000Z AUTO 12006KT 3SM 26/24 A2956 RMK T02600240 IEM_DS3505
ZGGG,2001-08-30 11:00,ZGGG 301100Z AUTO 12006KT 2 1/2SM 26/24 A2959 RMK T02600240 IEM_DS3505
ZGGG,2001-08-30 12:00,ZGGG 301200Z AUTO 11004KT 2 1/2SM 26/25 A2962 RMK 60047 SLP031 T02580251 52015 IEM_DS3505
ZGGG,2001-08-30 13:00,ZGGG 301300Z AUTO 10008KT 4SM 26/25 A2962 RMK T02600250 IEM_DS3505
ZGGG,2001-08-30 14:00,ZGGG 301400Z AUTO 09008KT 4SM 26/24 A2965 RMK T02600240 IEM_DS3505
ZGGG,2001-08-30 15:00,ZGGG 301500Z AUTO 11006KT 4SM 26/25 A2965 RMK SLP041 T02570247 52010 IEM_DS3505
ZGGG,2001-08-30 16:00,ZGGG 301600Z AUTO 11008KT 4SM 26/24 A2965 RMK T02600240 IEM_DS3505
ZGGG,2001-08-30 17:00,ZGGG 301700Z AUTO 11008KT 4SM 26/24 A2962 RMK T02600240 IEM_DS3505
ZGGG,2001-08-30 18:00,ZGGG 301800Z AUTO 09004KT 5SM 25/25 A2962 RMK 60075 SLP032 T02540248 57010 IEM_DS3505
ZGGG,2001-08-30 19:00,ZGGG 301900Z AUTO 10006KT 7SM 26/24 A2962 RMK T02600240 IEM_DS3505
ZGGG,2001-08-30 20:00,ZGGG 302000Z AUTO 11006KT 7SM 26/24 A2959 RMK T02600240 IEM_DS3505
ZGGG,2001-08-30 21:00,ZGGG 302100Z AUTO 07006KT 8SM 26/25 A2959 RMK 70121 SLP028 T02570246 57004 IEM_DS3505
ZGGG,2001-08-30 22:00,ZGGG 302200Z AUTO 1 1/2SM 25/24 A2962 RMK T02500240 IEM_DS3505
ZGGG,2001-08-30 23:00,ZGGG 302300Z AUTO 08004KT 7SM 25/24 A2962 RMK T02500240 IEM_DS3505
ZGGG,2001-08-31 00:00,ZGGG 310000Z AUTO 07006KT 3SM 25/25 RMK 60134 SLP043 T02520246 52015 IEM_DS3505
ZGGG,2001-08-31 01:00,ZGGG 310100Z AUTO 11006KT 4SM 25/24 A2965 RMK T02500240 IEM_DS3505
ZGGG,2001-08-31 02:00,ZGGG 310200Z AUTO 13008KT 2 1/2SM 26/25 A2965 RMK T02600250 IEM_DS3505
ZGGG,2001-08-31 03:00,ZGGG 310300Z AUTO 09004KT 6SM 27/26 A2965 RMK SLP047 T02680255 52004 IEM_DS3505
ZGGG,2001-08-31 04:00,ZGGG 310400Z AUTO 12006KT 2 1/2SM 26/25 A2965 RMK T02600250 IEM_DS3505
ZGGG,2001-08-31 05:00,ZGGG 310500Z AUTO 12006KT 4SM 27/26 A2962 RMK T02700260 IEM_DS3505
ZGGG,2001-08-31 06:00,ZGGG 310600Z AUTO 27004KT 1 1/4SM 26/25 A2962 RMK 60307 SLP035 T02580254 57012 IEM_DS3505
ZGGG,2001-08-31 07:00,ZGGG 310700Z AUTO 16004KT 2 1/2SM 27/26 A2962 RMK T02700260 IEM_DS3505
ZGGG,2001-08-31 08:00,ZGGG 310800Z AUTO 16004KT 4SM 27/26 A2959 RMK T02700260 IEM_DS3505
ZGGG,2001-08-31 09:00,ZGGG 310900Z AUTO 00000KT 5SM 27/26 A2959 RMK SLP029 T02680262 57006 IEM_DS3505
ZGGG,2001-08-31 10:00,ZGGG 311000Z AUTO 17004KT 4SM 27/26 A2959 RMK T02700260 IEM_DS3505
ZGGG,2001-08-31 11:00,ZGGG 311100Z AUTO 14006KT 4SM 27/26 A2962 RMK T02700260 IEM_DS3505
ZGGG,2001-08-31 12:00,ZGGG 311200Z AUTO 09004KT 6SM 27/26 A2962 RMK 60130 SLP039 T02700264 52010 IEM_DS3505
ZGGG,2001-08-31 14:00,ZGGG 311400Z AUTO 14010KT 7SM 28/26 A2965 RMK T02800260 IEM_DS3505
ZGGG,2001-08-31 15:00,ZGGG 311500Z AUTO 11004KT 7SM 27/26 A2965 RMK SLP045 T02710260 52006 IEM_DS3505
ZGGG,2001-08-31 16:00,ZGGG 311600Z AUTO 13006KT 7SM 28/26 A2965 RMK T02800260 IEM_DS3505
ZGGG,2001-08-31 17:00,ZGGG 311700Z AUTO 12006KT 4SM 28/26 A2965 RMK T02800260 IEM_DS3505
ZGGG,2001-08-31 18:00,ZGGG 311800Z AUTO 11004KT 4SM 27/26 A2962 RMK 60003 SLP036 T02680257 57009 IEM_DS3505
ZGGG,2001-08-31 19:00,ZGGG 311900Z AUTO 14008KT 2 1/2SM 27/26 A2962 RMK T02700260 IEM_DS3505
ZGGG,2001-08-31 20:00,ZGGG 312000Z AUTO 19008KT 1 1/4SM 26/26 A2962 RMK T02600260 IEM_DS3505
ZGGG,2001-08-31 21:00,ZGGG 312100Z AUTO 25004KT 2SM 26/25 A2962 RMK 70646 SLP035 T02580251 57001 IEM_DS3505
ZGGG,2001-08-31 22:00,ZGGG 312200Z AUTO 16004KT 7SM 25/24 A2962 RMK T02500240 IEM_DS3505
ZGGG,2001-08-31 23:00,ZGGG 312300Z AUTO 6SM 25/24 A2965 RMK T02500240 IEM_DS3505
ZGGG,2001-09-01 00:00,ZGGG 010000Z AUTO 00000KT 8SM 25/25 A2965 RMK 60122 SLP048 T02520248 52013 IEM_DS3505
ZGGG,2001-09-01 01:00,ZGGG 010100Z AUTO 6SM 26/24 A2968 RMK T02600240 IEM_DS3505
ZGGG,2001-09-01 02:00,ZGGG 010200Z AUTO 6SM 27/24 A2968 RMK T02700240 IEM_DS3505
ZGGG,2001-09-01 03:00,ZGGG 010300Z AUTO 09006KT 7SM 27/25 RMK SLP054 T02670254 52006 IEM_DS3505
ZGGG,2001-09-01 04:00,ZGGG 010400Z AUTO 12004KT 2 1/2SM 28/25 A2968 RMK T02800250 IEM_DS3505
ZGGG,2001-09-01 05:00,ZGGG 010500Z AUTO 12006KT 3SM 29/24 A2965 RMK T02900240 IEM_DS3505
ZGGG,2001-09-01 06:00,ZGGG 010600Z AUTO 09006KT 9SM 29/26 A2962 RMK 60003 SLP037 T02900256 57016 IEM_DS3505
ZGGG,2001-09-01 07:00,ZGGG 010700Z AUTO 11006KT 3SM 28/24 A2962 RMK T02800240 IEM_DS3505
ZGGG,2001-09-01 08:00,ZGGG 010800Z AUTO 12008KT 1SM 27/25 A2962 RMK T02700250 IEM_DS3505
ZGGG,2001-09-01 09:00,ZGGG 010900Z AUTO 07004KT 6SM 27/26 A2962 RMK SLP030 T02680257 57008 IEM_DS3505
ZGGG,2001-09-01 10:00,ZGGG 011000Z AUTO 04008KT 4SM 25/24 A2962 RMK T02500240 IEM_DS3505
ZGGG,2001-09-01 11:00,ZGGG 011100Z AUTO 11002KT 5SM 25/24 A2962 RMK T02500240 IEM_DS3505
ZGGG,2001-09-01 12:00,ZGGG 011200Z AUTO 00000KT 8SM 26/25 A2965 RMK 60098 SLP043 T02550248 52013 IEM_DS3505
ZGGG,2001-09-01 13:00,ZGGG 011300Z AUTO 11002KT 7SM 26/25 A2968 RMK T02600250 IEM_DS3505
ZGGG,2001-09-01 14:00,ZGGG 011400Z AUTO 09006KT 7SM 26/24 A2968 RMK T02600240 IEM_DS3505
ZGGG,2001-09-01 15:00,ZGGG 011500Z AUTO 11006KT 1 1/4SM 25/25 A2968 RMK SLP051 T02500246 52008 IEM_DS3505
ZGGG,2001-09-01 16:00,ZGGG 011600Z AUTO 12004KT 4SM 26/25 A2968 RMK T02600250 IEM_DS3505
ZGGG,2001-09-01 17:00,ZGGG 011700Z AUTO 10008KT 4SM 26/25 A2965 RMK T02600250 IEM_DS3505
ZGGG,2001-09-01 18:00,ZGGG 011800Z AUTO 09002KT 1 1/4SM 25/24 A2965 RMK 60378 SLP046 T02480244 57005 IEM_DS3505
ZGGG,2001-09-01 19:00,ZGGG 011900Z AUTO 12004KT 3SM 24/24 A2965 RMK T02400240 IEM_DS3505
ZGGG,2001-09-01 20:00,ZGGG 012000Z AUTO 10006KT 4SM 24/24 A2962 RMK T02400240 IEM_DS3505
ZGGG,2001-09-01 21:00,ZGGG 012100Z AUTO 09002KT 8SM 24/24 A2962 RMK 70574 SLP036 T02420236 57010 IEM_DS3505
ZGGG,2001-09-01 22:00,ZGGG 012200Z AUTO 04008KT 7SM 24/24 A2962 RMK T02400240 IEM_DS3505
ZGGG,2001-09-01 23:00,ZGGG 012300Z AUTO 04008KT 7SM 25/24 A2965 RMK T02500240 IEM_DS3505
ZGGG,2001-09-02 00:00,ZGGG 020000Z AUTO 00000KT 11SM 25/24 A2968 RMK 60055 SLP048 T02510242 52012 IEM_DS3505
ZGGG,2001-09-02 01:00,ZGGG 020100Z AUTO 02004KT 7SM 26/23 A2968 RMK T02600230 IEM_DS3505
ZGGG,2001-09-02 02:00,ZGGG 020200Z AUTO 02006KT 7SM 27/24 A2971 RMK T02700240 IEM_DS3505
ZGGG,2001-09-02 03:00,ZGGG 020300Z AUTO 07004KT 19SM 27/24 A2971 RMK SLP060 T02680241 52012 IEM_DS3505
ZGGG,2001-09-02 04:00,ZGGG 020400Z AUTO 05006KT 7SM 27/23 A2968 RMK T02700230 IEM_DS3505
ZGGG,2001-09-02 05:00,ZGGG 020500Z AUTO 07006KT 7SM 28/23 A2968 RMK T02800230 IEM_DS3505
ZGGG,2001-09-02 06:00,ZGGG 020600Z AUTO 04004KT 19SM 28/24 A2968 RMK 60003 SLP051 T02750245 57009 IEM_DS3505
ZGGG,2001-09-02 07:00,ZGGG 020700Z AUTO 06006KT 7SM 28/23 A2965 RMK T02800230 IEM_DS3505
ZGGG,2001-09-02 08:00,ZGGG 020800Z AUTO 02006KT 4SM 27/23 A2968 RMK T02700230 IEM_DS3505
ZGGG,2001-09-02 09:00,ZGGG 020900Z AUTO 09004KT 19SM 27/24 A2968 RMK SLP052 T02720241 52001 IEM_DS3505
ZGGG,2001-09-02 10:00,ZGGG 021000Z AUTO 06006KT 7SM 26/23 A2968 RMK T02600230 IEM_DS3505
ZGGG,2001-09-02 11:00,ZGGG 021100Z AUTO 05006KT 5SM 25/22 A2971 RMK T02500220 IEM_DS3505
ZGGG,2001-09-02 12:00,ZGGG 021200Z AUTO 00000KT 14SM 25/24 A2971 RMK 60003 SLP062 T02530236 52010 IEM_DS3505
ZGGG,2001-09-02 13:00,ZGGG 021300Z AUTO 04006KT 7SM 25/24 A2971 RMK T02500240 IEM_DS3505
ZGGG,2001-09-02 14:00,ZGGG 021400Z AUTO 04004KT 7SM 25/23 A2974 RMK T02500230 IEM_DS3505
ZGGG,2001-09-02 15:00,ZGGG 021500Z AUTO 00000KT 12SM 25/24 A2974 RMK SLP074 T02520238 52012 IEM_DS3505
ZGGG,2001-09-02 16:00,ZGGG 021600Z AUTO 04004KT 7SM 25/24 A2974 RMK T02500240 IEM_DS3505
ZGGG,2001-09-02 17:00,ZGGG 021700Z AUTO 05004KT 4SM 25/24 A2974 RMK T02500240 IEM_DS3505
ZGGG,2001-09-02 18:00,ZGGG 021800Z AUTO 07002KT 11SM 25/24 A2974 RMK SLP070 T02520235 57004 IEM_DS3505
ZGGG,2001-09-02 19:00,ZGGG 021900Z AUTO 04004KT 4SM 25/24 A2974 RMK T02500240 IEM_DS3505
ZGGG,2001-09-02 20:00,ZGGG 022000Z AUTO 01004KT 5SM 25/23 A2971 RMK T02500230 IEM_DS3505
ZGGG,2001-09-02 21:00,ZGGG 022100Z AUTO 04004KT 11SM 25/23 A2971 RMK 70000 SLP066 T02510229 57004 IEM_DS3505
ZGGG,2001-09-02 22:00,ZGGG 022200Z AUTO 36004KT 3SM 25/23 A2974 RMK T02500230 IEM_DS3505
ZGGG,2001-09-03 00:00,ZGGG 030000Z AUTO 02002KT 16SM 25/23 A2977 RMK 70003 SLP080 T02540231 52014 IEM_DS3505
ZGGG,2001-09-03 01:00,ZGGG 030100Z AUTO 02004KT 7SM 26/22 A2977 RMK T02600220 IEM_DS3505
ZGGG,2001-09-03 02:00,ZGGG 030200Z AUTO 02004KT 7SM 26/22 A2980 RMK T02600220 IEM_DS3505
ZGGG,2001-09-03 03:00,ZGGG 030300Z AUTO 09006KT 17SM 28/24 A2980 RMK SLP089 T02800240 52009 IEM_DS3505
ZGGG,2001-09-03 04:00,ZGGG 030400Z AUTO 11006KT 7SM 28/23 A2977 RMK T02800230 IEM_DS3505
ZGGG,2001-09-03 05:00,ZGGG 030500Z AUTO 10008KT 7SM 28/23 A2977 RMK T02800230 IEM_DS3505
ZGGG,2001-09-03 06:00,ZGGG 030600Z AUTO 07004KT 17SM 28/24 A2977 RMK 60003 SLP079 T02830242 57010 IEM_DS3505
ZGGG,2001-09-03 07:00,ZGGG 030700Z AUTO 11006KT 7SM 28/23 A2974 RMK T02800230 IEM_DS3505
ZGGG,2001-09-03 08:00,ZGGG 030800Z AUTO 08006KT 7SM 28/23 A2974 RMK T02800230 IEM_DS3505
ZGGG,2001-09-03 09:00,ZGGG 030900Z AUTO 04004KT 16SM 28/24 A2974 RMK SLP070 T02820242 57009 IEM_DS3505
ZGGG,2001-09-03 10:00,ZGGG 031000Z AUTO 07004KT 7SM 28/22 A2974 RMK T02800220 IEM_DS3505
ZGGG,2001-09-03 11:00,ZGGG 031100Z AUTO 06006KT 7SM 28/23 A2974 RMK T02800230 IEM_DS3505
ZGGG,2001-09-03 12:00,ZGGG 031200Z AUTO 07002KT 11SM 27/24 A2977 RMK 60003 SLP082 T02740243 52012 IEM_DS3505
ZGGG,2001-09-03 13:00,ZGGG 031300Z AUTO 08004KT 7SM 27/23 A2980 RMK T02700230 IEM_DS3505
ZGGG,2001-09-03 14:00,ZGGG 031400Z AUTO 02004KT 7SM 27/24 A2980 RMK T02700240 IEM_DS3505
ZGGG,2001-09-03 15:00,ZGGG 031500Z AUTO 07002KT 8SM 27/25 A2980 RMK SLP096 T02700247 52014 IEM_DS3505
ZGGG,2001-09-03 16:00,ZGGG 031600Z AUTO 04002KT 4SM 26/24 A2980 RMK T02600240 IEM_DS3505
ZGGG,2001-09-03 17:00,ZGGG 031700Z AUTO 05002KT 4SM 26/25 A2980 RMK T02600250 IEM_DS3505
ZGGG,2001-09-03 18:00,ZGGG 031800Z AUTO 00000KT 7SM 26/24 A2980 RMK SLP090 T02610244 57006 IEM_DS3505
ZGGG,2001-09-03 19:00,ZGGG 031900Z AUTO 06002KT 4SM 26/24 A2977 RMK T02600240 IEM_DS3505
ZGGG,2001-09-03 20:00,ZGGG 032000Z AUTO 5SM 26/24 A2977 RMK T02600240 IEM_DS3505
ZGGG,2001-09-03 21:00,ZGGG 032100Z AUTO 02002KT 8SM 26/24 A2977 RMK 70003 SLP079 T02570241 57011 IEM_DS3505
ZGGG,2001-09-03 22:00,ZGGG 032200Z AUTO 04002KT 4SM 26/24 A2977 RMK T02600240 IEM_DS3505
ZGGG,2001-09-03 23:00,ZGGG 032300Z AUTO 5SM 26/24 A2977 RMK T02600240 IEM_DS3505
ZGGG,2001-09-04 00:00,ZGGG 040000Z AUTO 03004KT 7SM 26/23 A2977 RMK T02600230 IEM_DS3505
ZGGG,2001-09-04 01:00,ZGGG 040100Z AUTO 04004KT 7SM 28/22 A2977 RMK T02800220 IEM_DS3505
ZGGG,2001-09-04 03:00,ZGGG 040300Z AUTO 02004KT 16SM 30/24 A2977 RMK SLP083 T02970242 54000 IEM_DS3505
ZGGG,2001-09-04 04:00,ZGGG 040400Z AUTO 04004KT 7SM 29/23 A2977 RMK T02900230 IEM_DS3505
ZGGG,2001-09-04 05:00,ZGGG 040500Z AUTO 08004KT 7SM 29/23 A2974 RMK T02900230 IEM_DS3505
ZGGG,2001-09-04 06:00,ZGGG 040600Z AUTO 09002KT 17SM 30/24 A2971 RMK SLP062 T03030242 57021 IEM_DS3505
ZGGG,2001-09-04 07:00,ZGGG 040700Z AUTO 33006KT 5SM 28/24 A2968 RMK T02800240 IEM_DS3505
ZGGG,2001-09-04 08:00,ZGGG 040800Z AUTO 02004KT 5SM 26/24 A2971 RMK T02600240 IEM_DS3505
ZGGG,2001-09-04 09:00,ZGGG 040900Z AUTO 09004KT 5SM 26/25 A2971 RMK SLP060 T02640250 57003 IEM_DS3505
ZGGG,2001-09-04 10:00,ZGGG 041000Z AUTO 26002KT 2 1/2SM 26/24 A2971 RMK T02600240 IEM_DS3505
ZGGG,2001-09-04 11:00,ZGGG 041100Z AUTO 2 1/2SM 26/24 A2971 RMK T02600240 IEM_DS3505
ZGGG,2001-09-04 12:00,ZGGG 041200Z AUTO 00000KT 2SM 26/25 A2974 RMK 60020 SLP069 T02610250 52009 IEM_DS3505
ZGGG,2001-09-04 13:00,ZGGG 041300Z AUTO 05004KT 2 1/2SM 26/24 A2974 RMK T02600240 IEM_DS3505
ZGGG,2001-09-04 14:00,ZGGG 041400Z AUTO 10004KT 2 1/2SM 26/24 A2977 RMK T02600240 IEM_DS3505
ZGGG,2001-09-04 15:00,ZGGG 041500Z AUTO 00000KT 5SM 26/25 A2977 RMK SLP081 T02570247 52012 IEM_DS3505
ZGGG,2001-09-04 16:00,ZGGG 041600Z AUTO 10002KT 5SM 26/24 A2977 RMK T02600240 IEM_DS3505
ZGGG,2001-09-04 17:00,ZGGG 041700Z AUTO 11002KT 4SM 26/24 A2974 RMK T02600240 IEM_DS3505
ZGGG,2001-09-04 18:00,ZGGG 041800Z AUTO 07002KT 6SM 25/24 A2974 RMK 60002 SLP068 T02530243 57012 IEM_DS3505
ZGGG,2001-09-04 19:00,ZGGG 041900Z AUTO 06002KT 3SM 25/24 A2971 RMK T02500240 IEM_DS3505
ZGGG,2001-09-04 20:00,ZGGG 042000Z AUTO 08002KT 4SM 26/24 A2971 RMK T02600240 IEM_DS3505
ZGGG,2001-09-04 21:00,ZGGG 042100Z AUTO 07002KT 4SM 25/24 A2971 RMK 70021 SLP065 T02480236 57004 IEM_DS3505
ZGGG,2001-09-04 22:00,ZGGG 042200Z AUTO 04004KT 3SM 24/24 A2971 RMK T02400240 IEM_DS3505
ZGGG,2001-09-05 00:00,ZGGG 050000Z AUTO 09004KT 6SM 24/24 RMK 60012 SLP073 T02440237 52008 IEM_DS3505
ZGGG,2001-09-05 01:00,ZGGG 050100Z AUTO 11006KT 4SM 25/24 A2977 RMK T02500240 IEM_DS3505
ZGGG,2001-09-05 02:00,ZGGG 050200Z AUTO 11006KT 5SM 26/24 A2977 RMK T02600240 IEM_DS3505
ZGGG,2001-09-05 03:00,ZGGG 050300Z AUTO 04004KT 7SM 25/24 A2977 RMK SLP081 T02520242 52008 IEM_DS3505
ZGGG,2001-09-05 04:00,ZGGG 050400Z AUTO 10006KT 2 1/2SM 26/24 A2974 RMK T02600240 IEM_DS3505
ZGGG,2001-09-05 05:00,ZGGG 050500Z AUTO 11002KT 2 1/2SM 26/24 A2971 RMK T02600240 IEM_DS3505
ZGGG,2001-09-05 06:00,ZGGG 050600Z AUTO 11002KT 5SM 26/25 A2971 RMK 60012 SLP064 T02570247 57017 IEM_DS3505
ZGGG,2001-09-05 07:00,ZGGG 050700Z AUTO 2 1/2SM 27/25 A2971 RMK T02700250 IEM_DS3505
ZGGG,2001-09-05 08:00,ZGGG 050800Z AUTO 08004KT 2 1/2SM 26/24 A2971 RMK T02600240 IEM_DS3505
ZGGG,2001-09-05 09:00,ZGGG 050900Z AUTO 09004KT 2 1/2SM 26/25 A2971 RMK SLP060 T02580248 57004 IEM_DS3505
ZGGG,2001-09-05 10:00,ZGGG 051000Z AUTO 2 1/2SM 26/24 A2971 RMK T02600240 IEM_DS3505
ZGGG,2001-09-05 11:00,ZGGG 051100Z AUTO 3SM 26/24 A2971 RMK T02600240 IEM_DS3505
ZGGG,2001-09-05 12:00,ZGGG 051200Z AUTO 07004KT 1 1/2SM 25/25 A2974 RMK 60028 SLP072 T02530247 52012 IEM_DS3505
ZGGG,2001-09-05 13:00,ZGGG 051300Z AUTO 14004KT 3SM 24/24 A2977 RMK T02400240 IEM_DS3505
ZGGG,2001-09-05 15:00,ZGGG 051500Z AUTO 00000KT 2SM 25/25 A2977 RMK SLP078 T02510247 52006 IEM_DS3505
ZGGG,2001-09-05 16:00,ZGGG 051600Z AUTO 3SM 25/24 A2977 RMK T02500240 IEM_DS3505
ZGGG,2001-09-05 17:00,ZGGG 051700Z AUTO 3SM 25/24 A2974 RMK T02500240 IEM_DS3505
ZGGG,2001-09-05 18:00,ZGGG 051800Z AUTO 00000KT 3SM 25/25 A2974 RMK 60083 SLP076 T02520246 57002 IEM_DS3505
ZGGG,2001-09-05 19:00,ZGGG 051900Z AUTO 2 1/2SM 25/24 A2974 RMK T02500240 IEM_DS3505
ZGGG,2001-09-05 20:00,ZGGG 052000Z AUTO 2 1/2SM 25/24 A2974 RMK T02500240 IEM_DS3505
ZGGG,2001-09-05 21:00,ZGGG 052100Z AUTO 00000KT 2 1/2SM 25/25 A2974 RMK 70135 SLP073 T02510247 57003 IEM_DS3505
ZGGG,2001-09-05 22:00,ZGGG 052200Z AUTO 2 1/2SM 25/24 A2974 RMK T02500240 IEM_DS3505
ZGGG,2001-09-05 23:00,ZGGG 052300Z AUTO 2SM 25/24 A2974 RMK T02500240 IEM_DS3505
ZGGG,2001-09-06 00:00,ZGGG 060000Z AUTO 00000KT 5SM 26/25 A2977 RMK 70124 SLP085 T02560250 52012 IEM_DS3505
ZGGG,2001-09-06 01:00,ZGGG 060100Z AUTO 03004KT 1 1/2SM 26/24 A2980 RMK T02600240 IEM_DS3505
ZGGG,2001-09-06 02:00,ZGGG 060200Z AUTO 03002KT 3SM 27/24 A2980 RMK T02700240 IEM_DS3505
ZGGG,2001-09-06 03:00,ZGGG 060300Z AUTO 00000KT 10SM 28/25 A2977 RMK SLP085 T02800247 54000 IEM_DS3505
ZGGG,2001-09-06 04:00,ZGGG 060400Z AUTO 01006KT 4SM 28/24 A2977 RMK T02800240 IEM_DS3505
ZGGG,2001-09-06 05:00,ZGGG 060500Z AUTO 35004KT 5SM 28/23 A2974 RMK T02800230 IEM_DS3505
ZGGG,2001-09-06 06:00,ZGGG 060600Z AUTO 14004KT 9SM 28/25 A2974 RMK 60003 SLP076 T02780247 57009 IEM_DS3505
ZGGG,2001-09-06 07:00,ZGGG 060700Z AUTO 14006KT 7SM 28/23 A2974 RMK T02800230 IEM_DS3505
ZGGG,2001-09-06 08:00,ZGGG 060800Z AUTO 14004KT 7SM 28/23 A2974 RMK T02800230 IEM_DS3505
ZGGG,2001-09-06 09:00,ZGGG 060900Z AUTO 00000KT 9SM 28/25 A2971 RMK SLP069 T02800246 57007 IEM_DS3505
ZGGG,2001-09-06 10:00,ZGGG 061000Z AUTO 13002KT 4SM 28/23 A2974 RMK T02800230 IEM_DS3505
ZGGG,2001-09-06 11:00,ZGGG 061100Z AUTO 4SM 28/23 A2974 RMK T02800230 IEM_DS3505
ZGGG,2001-09-06 12:00,ZGGG 061200Z AUTO 00000KT 7SM 28/26 A2977 RMK 60003 SLP082 T02750257 52013 IEM_DS3505
ZGGG,2001-09-06 13:00,ZGGG 061300Z AUTO 4SM 27/23 A2977 RMK T02700230 IEM_DS3505
ZGGG,2001-09-06 14:00,ZGGG 061400Z AUTO 10002KT 4SM 27/24 A2980 RMK T02700240 IEM_DS3505
ZGGG,2001-09-06 15:00,ZGGG 061500Z AUTO 00000KT 2 1/2SM 26/25 A2980 RMK SLP094 T02650251 52012 IEM_DS3505
ZGGG,2001-09-06 16:00,ZGGG 061600Z AUTO 07002KT 3SM 26/24 A2977 RMK T02600240 IEM_DS3505
ZGGG,2001-09-06 17:00,ZGGG 061700Z AUTO 3SM 26/24 A2977 RMK T02600240 IEM_DS3505
ZGGG,2001-09-06 18:00,ZGGG 061800Z AUTO 00000KT 2 1/2SM 26/25 A2974 RMK SLP077 T02580248 57017 IEM_DS3505
ZGGG,2001-09-06 19:00,ZGGG 061900Z AUTO 07002KT 2SM 26/25 A2977 RMK T02600250 IEM_DS3505
ZGGG,2001-09-06 20:00,ZGGG 062000Z AUTO 2SM 26/24 A2977 RMK T02600240 IEM_DS3505
ZGGG,2001-09-06 21:00,ZGGG 062100Z AUTO 00000KT 4SM 26/25 A2977 RMK 70003 SLP080 T02580248 52003 IEM_DS3505
ZGGG,2001-09-06 22:00,ZGGG 062200Z AUTO 2SM 26/24 A2977 RMK T02600240 IEM_DS3505
ZGGG,2001-09-06 23:00,ZGGG 062300Z AUTO 1SM 26/25 A2977 RMK T02600250 IEM_DS3505
ZGGG,2001-09-07 00:00,ZGGG 070000Z AUTO 00000KT 4SM 26/25 A2980 RMK 70003 SLP092 T02620248 52012 IEM_DS3505
ZGGG,2001-09-07 01:00,ZGGG 070100Z AUTO 05002KT 3SM 27/23 A2980 RMK T02700230 IEM_DS3505
ZGGG,2001-09-07 02:00,ZGGG 070200Z AUTO 04004KT 4SM 28/23 A2980 RMK T02800230 IEM_DS3505
ZGGG,2001-09-07 03:00,ZGGG 070300Z AUTO 32002KT 6SM 30/25 A2980 RMK SLP094 T02980253 52002 IEM_DS3505
ZGGG,2001-09-07 04:00,ZGGG 070400Z AUTO 06004KT 29/23 A2977 RMK T02900230 IEM_DS3505
ZGGG,2001-09-07 05:00,ZGGG 070500Z AUTO 05002KT 30/24 A2974 RMK T03000240 IEM_DS3505
ZGGG,2001-09-07 06:00,ZGGG 070600Z AUTO 11002KT 6SM 31/25 A2971 RMK SLP069 T03100251 57024 IEM_DS3505
ZGGG,2001-09-07 07:00,ZGGG 070700Z AUTO 11004KT 3SM 32/23 A2971 RMK T03200230 IEM_DS3505
ZGGG,2001-09-07 08:00,ZGGG 070800Z AUTO 04012KT 2 1/2SM 29/24 A2971 RMK T02900240 IEM_DS3505
ZGGG,2001-09-07 09:00,ZGGG 070900Z AUTO 14004KT 1 1/4SM 26/25 A2971 RMK SLP071 T02550249 52001 IEM_DS3505
ZGGG,2001-09-07 10:00,ZGGG 071000Z AUTO 13010KT 1 1/2SM 27/25 A2971 RMK T02700250 IEM_DS3505
ZGGG,2001-09-07 11:00,ZGGG 071100Z AUTO 13008KT 4SM 27/24 A2974 RMK T02700240 IEM_DS3505
ZGGG,2001-09-07 12:00,ZGGG 071200Z AUTO 09006KT 6SM 26/25 A2977 RMK 60177 SLP090 T02630247 52019 IEM_DS3505
ZGGG,2001-09-07 13:00,ZGGG 071300Z AUTO 11008KT 5SM 26/22 A2980 RMK T02600220 IEM_DS3505
ZGGG,2001-09-07 14:00,ZGGG 071400Z AUTO 13006KT 5SM 27/22 A2983 RMK T02700220 IEM_DS3505
ZGGG,2001-09-07 15:00,ZGGG 071500Z AUTO 04002KT 9SM 26/24 A2983 RMK SLP098 T02560236 52008 IEM_DS3505
ZGGG,2001-09-07 16:00,ZGGG 071600Z AUTO 02002KT 4SM 26/22 A2980 RMK T02600220 IEM_DS3505
ZGGG,2001-09-07 17:00,ZGGG 071700Z AUTO 4SM 26/22 A2980 RMK T02600220 IEM_DS3505
ZGGG,2001-09-07 18:00,ZGGG 071800Z AUTO 00000KT 7SM 25/24 A2977 RMK SLP089 T02510239 57009 IEM_DS3505
ZGGG,2001-09-07 19:00,ZGGG 071900Z AUTO 2 1/2SM 25/23 A2977 RMK T02500230 IEM_DS3505
ZGGG,2001-09-07 20:00,ZGGG 072000Z AUTO 2SM 24/23 A2977 RMK T02400230 IEM_DS3505
ZGGG,2001-09-07 21:00,ZGGG 072100Z AUTO 00000KT 7SM 24/23 A2977 RMK 70176 SLP083 T02420230 57006 IEM_DS3505
ZGGG,2001-09-07 22:00,ZGGG 072200Z AUTO 35002KT 2 1/2SM 24/23 A2977 RMK T02400230 IEM_DS3505
ZGGG,2001-09-07 23:00,ZGGG 072300Z AUTO 04004KT 2 1/2SM 26/21 A2977 RMK T02600210 IEM_DS3505
ZGGG,2001-09-08 00:00,ZGGG 080000Z AUTO 00000KT 8SM 26/23 A2977 RMK 70176 SLP087 T02620227 52004 IEM_DS3505
ZGGG,2001-09-08 01:00,ZGGG 080100Z AUTO 06004KT 3SM 28/21 A2980 RMK T02800210 IEM_DS3505
ZGGG,2001-09-08 02:00,ZGGG 080200Z AUTO 06004KT 3SM 29/22 A2980 RMK T02900220 IEM_DS3505
ZGGG,2001-09-08 03:00,ZGGG 080300Z AUTO 09004KT 9SM 31/22 A2980 RMK SLP091 T03070218 52004 IEM_DS3505
ZGGG,2001-09-08 04:00,ZGGG 080400Z AUTO 10004KT 6SM 31/19 A2977 RMK T03100190 IEM_DS3505
ZGGG,2001-09-08 05:00,ZGGG 080500Z AUTO 10006KT 7SM 32/19 A2974 RMK T03200190 IEM_DS3505
ZGGG,2001-09-08 06:00,ZGGG 080600Z AUTO 14002KT 11SM 33/21 A2971 RMK SLP067 T03260208 57023 IEM_DS3505
ZGGG,2001-09-08 07:00,ZGGG 080700Z AUTO 14004KT 7SM 33/21 A2971 RMK T03300210 IEM_DS3505
ZGGG,2001-09-08 08:00,ZGGG 080800Z AUTO 16006KT 7SM 32/20 A2968 RMK T03200200 IEM_DS3505
ZGGG,2001-09-08 09:00,ZGGG 080900Z AUTO 16002KT 8SM 32/21 A2968 RMK SLP054 T03210211 57013 IEM_DS3505
ZGGG,2001-09-08 10:00,ZGGG 081000Z AUTO 3SM 31/19 A2968 RMK T03100190 IEM_DS3505
ZGGG,2001-09-08 11:00,ZGGG 081100Z AUTO 15004KT 31/20 A2971 RMK T03100200 IEM_DS3505
ZGGG,2001-09-08 12:00,ZGGG 081200Z AUTO 14004KT 8SM 28/23 A2974 RMK 60003 SLP074 T02770231 52019 IEM_DS3505
ZGGG,2001-09-08 13:00,ZGGG 081300Z AUTO 18006KT 4SM 28/21 A2974 RMK T02800210 IEM_DS3505
ZGGG,2001-09-08 14:00,ZGGG 081400Z AUTO 16006KT 3SM 28/21 A2977 RMK T02800210 IEM_DS3505
ZGGG,2001-09-08 15:00,ZGGG 081500Z AUTO 00000KT 7SM 27/24 A2980 RMK SLP092 T02680235 52019 IEM_DS3505
ZGGG,2001-09-08 16:00,ZGGG 081600Z AUTO 18004KT 27/21 A2980 RMK T02700210 IEM_DS3505
ZGGG,2001-09-08 17:00,ZGGG 081700Z AUTO 07002KT 3SM 26/22 A2980 RMK T02600220 IEM_DS3505
ZGGG,2001-09-08 18:00,ZGGG 081800Z AUTO 00000KT 7SM 26/23 A2977 RMK 60003 SLP085 T02600232 57007 IEM_DS3505
ZGGG,2001-09-08 19:00,ZGGG 081900Z AUTO 05008KT 1 1/4SM 26/24 A2977 RMK T02600240 IEM_DS3505
ZGGG,2001-09-08 20:00,ZGGG 082000Z AUTO 05004KT 1 1/4SM 24/23 A2977 RMK T02400230 IEM_DS3505
ZGGG,2001-09-08 21:00,ZGGG 082100Z AUTO 36004KT 2SM 25/23 A2977 RMK 70003 SLP080 T02480229 57005 IEM_DS3505
ZGGG,2001-09-08 22:00,ZGGG 082200Z AUTO 05006KT 1 1/2SM 24/23 A2977 RMK T02400230 IEM_DS3505
ZGGG,2001-09-08 23:00,ZGGG 082300Z AUTO 05006KT 1SM 24/24 A2980 RMK T02400240 IEM_DS3505
ZGGG,2001-09-09 00:00,ZGGG 090000Z AUTO 34004KT 6SM 26/23 A2980 RMK 70003 SLP091 T02610227 52010 IEM_DS3505
ZGGG,2001-09-09 01:00,ZGGG 090100Z AUTO 03010KT 2 1/2SM 27/21 A2980 RMK T02700210 IEM_DS3505
ZGGG,2001-09-09 02:00,ZGGG 090200Z AUTO 04010KT 7SM 29/20 A2980 RMK T02900200 IEM_DS3505
ZGGG,2001-09-09 03:00,ZGGG 090300Z AUTO 07004KT 7SM 30/20 A2980 RMK SLP090 T03050205 54000 IEM_DS3505
ZGGG,2001-09-09 04:00,ZGGG 090400Z AUTO 05008KT 7SM 31/19 A2977 RMK T03100190 IEM_DS3505
ZGGG,2001-09-09 05:00,ZGGG 090500Z AUTO 04008KT 7SM 32/18 A2974 RMK T03200180 IEM_DS3505
ZGGG,2001-09-09 06:00,ZGGG 090600Z AUTO 07006KT 9SM 32/21 A2971 RMK SLP068 T03220210 57022 IEM_DS3505
ZGGG,2001-09-09 07:00,ZGGG 090700Z AUTO 36006KT 7SM 32/17 A2971 RMK T03200170 IEM_DS3505
ZGGG,2001-09-09 08:00,ZGGG 090800Z AUTO 02006KT 7SM 32/15 A2968 RMK T03200150 IEM_DS3505
ZGGG,2001-09-09 09:00,ZGGG 090900Z AUTO 36004KT 9SM 32/19 A2971 RMK SLP057 T03200193 57011 IEM_DS3505
ZGGG,2001-09-09 10:00,ZGGG 091000Z AUTO 05008KT 6SM 31/14 A2971 RMK T03100140 IEM_DS3505
ZGGG,2001-09-09 11:00,ZGGG 091100Z AUTO 08004KT 7SM 29/17 A2974 RMK T02900170 IEM_DS3505
ZGGG,2001-09-09 12:00,ZGGG 091200Z AUTO 00000KT 9SM 28/21 A2974 RMK SLP078 T02780206 52020 IEM_DS3505
ZGGG,2001-09-09 13:00,ZGGG 091300Z AUTO 14006KT 6SM 28/19 A2977 RMK T02800190 IEM_DS3505
ZGGG,2001-09-09 14:00,ZGGG 091400Z AUTO 14004KT 6SM 28/21 A2980 RMK T02800210 IEM_DS3505
ZGGG,2001-09-09 15:00,ZGGG 091500Z AUTO 00000KT 8SM 27/23 A2980 RMK SLP092 T02670229 52015 IEM_DS3505
ZGGG,2001-09-09 16:00,ZGGG 091600Z AUTO 13002KT 6SM 27/22 A2980 RMK T02700220 IEM_DS3505
ZGGG,2001-09-09 17:00,ZGGG 091700Z AUTO 07004KT 3SM 25/22 A2980 RMK T02500220 IEM_DS3505
ZGGG,2001-09-09 18:00,ZGGG 091800Z AUTO 04002KT 5SM 25/23 A2980 RMK SLP089 T02540231 57003 IEM_DS3505
ZGGG,2001-09-09 19:00,ZGGG 091900Z AUTO 05002KT 3SM 24/22 A2977 RMK T02400220 IEM_DS3505
ZGGG,2001-09-09 20:00,ZGGG 092000Z AUTO 07004KT 2 1/2SM 24/22 A2977 RMK T02400220 IEM_DS3505
ZGGG,2001-09-09 21:00,ZGGG 092100Z AUTO 00000KT 2 1/2SM 24/23 A2977 RMK SLP085 T02420226 57005 IEM_DS3505
ZGGG,2001-09-09 22:00,ZGGG 092200Z AUTO 04006KT 4SM 23/20 A2980 RMK T02300200 IEM_DS3505
ZGGG,2001-09-09 23:00,ZGGG 092300Z AUTO 04006KT 3SM 23/19 A2980 RMK T02300190 IEM_DS3505
ZGGG,2001-09-10 00:00,ZGGG 100000Z AUTO 36002KT 9SM 25/20 A2983 RMK SLP101 T02540199 52016 IEM_DS3505
ZGGG,2001-09-10 01:00,ZGGG 100100Z AUTO 05012KT 6SM 27/17 A2983 RMK T02700170 IEM_DS3505
ZGGG,2001-09-10 02:00,ZGGG 100200Z AUTO 04012KT 6SM 28/17 A2983 RMK T02800170 IEM_DS3505
ZGGG,2001-09-10 03:00,ZGGG 100300Z AUTO 07006KT 12SM 30/19 A2983 RMK SLP103 T02970194 52002 IEM_DS3505
ZGGG,2001-09-10 04:00,ZGGG 100400Z AUTO 02008KT 6SM 30/18 A2983 RMK T03000180 IEM_DS3505
ZGGG,2001-09-10 05:00,ZGGG 100500Z AUTO 09006KT 7SM 31/18 A2980 RMK T03100180 IEM_DS3505
ZGGG,2001-09-10 06:00,ZGGG 100600Z AUTO 09006KT 15SM 32/19 A2977 RMK SLP087 T03180193 57015 IEM_DS3505
ZGGG,2001-09-10 07:00,ZGGG 100700Z AUTO 06006KT 7SM 31/18 A2977 RMK T03100180 IEM_DS3505
ZGGG,2001-09-10 08:00,ZGGG 100800Z AUTO 11004KT 6SM 31/17 A2977 RMK T03100170 IEM_DS3505
ZGGG,2001-09-10 09:00,ZGGG 100900Z AUTO 14002KT 11SM 31/20 A2977 RMK SLP081 T03110202 57007 IEM_DS3505
ZGGG,2001-09-10 10:00,ZGGG 101000Z AUTO 09004KT 5SM 30/18 A2977 RMK T03000180 IEM_DS3505
ZGGG,2001-09-10 11:00,ZGGG 101100Z AUTO 07006KT 5SM 29/19 A2977 RMK T02900190 IEM_DS3505
ZGGG,2001-09-10 12:00,ZGGG 101200Z AUTO 00000KT 8SM 29/22 A2977 RMK SLP087 T02910224 52006 IEM_DS3505
ZGGG,2001-09-10 13:00,ZGGG 101300Z AUTO 08002KT 6SM 28/19 A2980 RMK T02800190 IEM_DS3505
ZGGG,2001-09-10 14:00,ZGGG 101400Z AUTO 07004KT 6SM 28/20 A2980 RMK T02800200 IEM_DS3505
ZGGG,2001-09-10 15:00,ZGGG 101500Z AUTO 07002KT 4SM 28/23 A2980 RMK SLP098 T02790234 52012 IEM_DS3505
ZGGG,2001-09-10 16:00,ZGGG 101600Z AUTO 15002KT 2 1/2SM 28/21 A2980 RMK T02800210 IEM_DS3505
ZGGG,2001-09-10 17:00,ZGGG 101700Z AUTO 2 1/2SM 27/21 A2980 RMK T02700210 IEM_DS3505
ZGGG,2001-09-10 18:00,ZGGG 101800Z AUTO 00000KT 3SM 27/23 A2980 RMK SLP090 T02690230 57008 IEM_DS3505
ZGGG,2001-09-10 19:00,ZGGG 101900Z AUTO 2 1/2SM 27/22 A2977 RMK T02700220 IEM_DS3505
ZGGG,2001-09-10 20:00,ZGGG 102000Z AUTO 06006KT 2 1/2SM 26/22 A2977 RMK T02600220 IEM_DS3505
ZGGG,2001-09-10 21:00,ZGGG 102100Z AUTO 02004KT 7SM 26/22 A2980 RMK SLP089 T02650216 57001 IEM_DS3505
ZGGG,2001-09-10 22:00,ZGGG 102200Z AUTO 02008KT 26/18 A2980 RMK T02600180 IEM_DS3505
ZGGG,2001-09-10 23:00,ZGGG 102300Z AUTO 04010KT 26/19 A2983 RMK T02600190 IEM_DS3505
ZGGG,2001-09-11 00:00,ZGGG 110000Z AUTO 36002KT 8SM 26/20 A2983 RMK SLP109 T02650201 52019 IEM_DS3505
ZGGG,2001-09-11 01:00,ZGGG 110100Z AUTO 03008KT 6SM 27/18 A2985 RMK T02700180 IEM_DS3505
ZGGG,2001-09-11 02:00,ZGGG 110200Z AUTO 02010KT 5SM 27/18 A2985 RMK T02700180 IEM_DS3505
ZGGG,2001-09-11 03:00,ZGGG 110300Z AUTO 00000KT 8SM 29/21 A2985 RMK SLP109 T02900208 54000 IEM_DS3505
ZGGG,2001-09-11 04:00,ZGGG 110400Z AUTO 02006KT 5SM 30/19 A2983 RMK T03000190 IEM_DS3505
ZGGG,2001-09-11 05:00,ZGGG 110500Z AUTO 06006KT 5SM 31/20 A2980 RMK T03100200 IEM_DS3505
ZGGG,2001-09-11 06:00,ZGGG 110600Z AUTO 02006KT 10SM 32/21 A2977 RMK SLP087 T03220210 57021 IEM_DS3505
ZGGG,2001-09-11 07:00,ZGGG 110700Z AUTO 07006KT 7SM 32/18 A2977 RMK T03200180 IEM_DS3505
ZGGG,2001-09-11 08:00,ZGGG 110800Z AUTO 08006KT 7SM 32/18 A2977 RMK T03200180 IEM_DS3505
ZGGG,2001-09-11 09:00,ZGGG 110900Z AUTO 04004KT 9SM 32/22 A2977 RMK SLP081 T03150219 57006 IEM_DS3505
ZGGG,2001-09-11 10:00,ZGGG 111000Z AUTO 04012KT 30/19 A2977 RMK T03000190 IEM_DS3505
ZGGG,2001-09-11 11:00,ZGGG 111100Z AUTO 07004KT 5SM 29/20 A2980 RMK T02900200 IEM_DS3505
ZGGG,2001-09-11 12:00,ZGGG 111200Z AUTO 09002KT 8SM 30/22 A2980 RMK SLP093 T02960223 52011 IEM_DS3505
ZGGG,2001-09-11 13:00,ZGGG 111300Z AUTO 6SM 29/19 A2983 RMK T02900190 IEM_DS3505
ZGGG,2001-09-11 14:00,ZGGG 111400Z AUTO 15002KT 6SM 29/20 A2983 RMK T02900200 IEM_DS3505
ZGGG,2001-09-11 15:00,ZGGG 111500Z AUTO 00000KT 7SM 28/23 A2983 RMK SLP103 T02850231 52010 IEM_DS3505
ZGGG,2001-09-11 16:00,ZGGG 111600Z AUTO 13002KT 6SM 28/21 A2983 RMK T02800210 IEM_DS3505
ZGGG,2001-09-11 17:00,ZGGG 111700Z AUTO 09004KT 4SM 27/22 A2980 RMK T02700220 IEM_DS3505
ZGGG,2001-09-11 18:00,ZGGG 111800Z AUTO 04002KT 7SM 28/24 A2980 RMK SLP095 T02760239 57007 IEM_DS3505
ZGGG,2001-09-11 19:00,ZGGG 111900Z AUTO 06004KT 3SM 27/22 A2980 RMK T02700220 IEM_DS3505
ZGGG,2001-09-11 20:00,ZGGG 112000Z AUTO 04004KT 4SM 27/22 A2980 RMK T02700220 IEM_DS3505
ZGGG,2001-09-11 21:00,ZGGG 112100Z AUTO 02002KT 6SM 27/24 A2980 RMK SLP097 T02690237 52002 IEM_DS3505
ZGGG,2001-09-11 22:00,ZGGG 112200Z AUTO 04008KT 3SM 26/22 A2983 RMK T02600220 IEM_DS3505
ZGGG,2001-09-11 23:00,ZGGG 112300Z AUTO 05006KT 26/18 A2985 RMK T02600180 IEM_DS3505
ZGGG,2001-09-12 00:00,ZGGG 120000Z AUTO 07002KT 9SM 26/21 A2988 RMK SLP119 T02630206 52021 IEM_DS3505
ZGGG,2001-09-12 01:00,ZGGG 120100Z AUTO 06008KT 5SM 27/16 A2988 RMK T02700160 IEM_DS3505
ZGGG,2001-09-12 02:00,ZGGG 120200Z AUTO 03010KT 5SM 29/17 A2988 RMK T02900170 IEM_DS3505
ZGGG,2001-09-12 03:00,ZGGG 120300Z AUTO 07006KT 11SM 31/21 A2988 RMK SLP116 T03100209 57002 IEM_DS3505
ZGGG,2001-09-12 04:00,ZGGG 120400Z AUTO 03006KT 5SM 31/17 A2985 RMK T03100170 IEM_DS3505
ZGGG,2001-09-12 06:00,ZGGG 120600Z AUTO 36004KT 11SM 33/19 A2980 RMK SLP093 T03280192 57023 IEM_DS3505
ZGGG,2001-09-12 07:00,ZGGG 120700Z AUTO 03008KT 6SM 33/16 A2977 RMK T03300160 IEM_DS3505
ZGGG,2001-09-12 08:00,ZGGG 120800Z AUTO 04006KT 6SM 33/16 A2977 RMK T03300160 IEM_DS3505
ZGGG,2001-09-12 09:00,ZGGG 120900Z AUTO 04004KT 11SM 33/20 A2977 RMK SLP084 T03270202 57009 IEM_DS3505
ZGGG,2001-09-12 10:00,ZGGG 121000Z AUTO 35006KT 6SM 32/17 A2977 RMK T03200170 IEM_DS3505
ZGGG,2001-09-12 11:00,ZGGG 121100Z AUTO 01004KT 6SM 31/17 A2977 RMK T03100170 IEM_DS3505
ZGGG,2001-09-12 12:00,ZGGG 121200Z AUTO 00000KT 10SM 29/22 A2980 RMK SLP091 T02860215 52006 IEM_DS3505
ZGGG,2001-09-12 13:00,ZGGG 121300Z AUTO 07004KT 28/19 A2980 RMK T02800190 IEM_DS3505
ZGGG,2001-09-12 14:00,ZGGG 121400Z AUTO 07004KT 28/18 A2980 RMK T02800180 IEM_DS3505
ZGGG,2001-09-12 15:00,ZGGG 121500Z AUTO 00000KT 10SM 27/22 A2980 RMK SLP096 T02680218 52006 IEM_DS3505
ZGGG,2001-09-12 16:00,ZGGG 121600Z AUTO 05004KT 6SM 26/19 A2980 RMK T02600190 IEM_DS3505
ZGGG,2001-09-12 17:00,ZGGG 121700Z AUTO 05004KT 6SM 26/19 A2980 RMK T02600190 IEM_DS3505
ZGGG,2001-09-12 18:00,ZGGG 121800Z AUTO 00000KT 10SM 26/22 A2980 RMK SLP093 T02560216 57003 IEM_DS3505
ZGGG,2001-09-12 19:00,ZGGG 121900Z AUTO 07002KT 6SM 26/19 A2980 RMK T02600190 IEM_DS3505
ZGGG,2001-09-12 20:00,ZGGG 122000Z AUTO 4SM 25/20 A2980 RMK T02500200 IEM_DS3505
ZGGG,2001-09-12 21:00,ZGGG 122100Z AUTO 04004KT 5SM 26/22 A2980 RMK SLP091 T02560224 57002 IEM_DS3505
ZGGG,2001-09-12 22:00,ZGGG 122200Z AUTO 04004KT 3SM 25/20 A2980 RMK T02500200 IEM_DS3505
ZGGG,2001-09-12 23:00,ZGGG 122300Z AUTO 05006KT 2SM 24/20 A2983 RMK T02400200 IEM_DS3505
ZGGG,2001-09-13 00:00,ZGGG 130000Z AUTO 09004KT 6SM 27/23 A2983 RMK SLP105 T02700226 52013 IEM_DS3505
ZGGG,2001-09-13 01:00,ZGGG 130100Z AUTO 05006KT 28/18 A2983 RMK T02800180 IEM_DS3505
ZGGG,2001-09-13 02:00,ZGGG 130200Z AUTO 02006KT 10SM 29/18 A2983 RMK T02900180 IEM_DS3505
ZGGG,2001-09-13 03:00,ZGGG 130300Z AUTO 36006KT 10SM 31/20 A2983 RMK SLP099 T03100201 57005 IEM_DS3505
ZGGG,2001-09-13 04:00,ZGGG 130400Z AUTO 05004KT 6SM 32/18 A2980 RMK T03200180 IEM_DS3505
ZGGG,2001-09-13 05:00,ZGGG 130500Z AUTO 06004KT 6SM 33/17 A2977 RMK T03300170 IEM_DS3505
ZGGG,2001-09-13 06:00,ZGGG 130600Z AUTO 07004KT 11SM 32/21 A2974 RMK SLP075 T03250207 57024 IEM_DS3505
ZGGG,2001-09-13 07:00,ZGGG 130700Z AUTO 06006KT 6SM 33/16 A2974 RMK T03300160 IEM_DS3505
ZGGG,2001-09-13 08:00,ZGGG 130800Z AUTO 35006KT 7SM 33/16 A2971 RMK T03300160 IEM_DS3505
ZGGG,2001-09-13 09:00,ZGGG 130900Z AUTO 36004KT 11SM 32/20 A2971 RMK SLP064 T03230197 57011 IEM_DS3505
ZGGG,2001-09-13 10:00,ZGGG 131000Z AUTO 08004KT 6SM 32/17 A2971 RMK T03200170 IEM_DS3505
ZGGG,2001-09-13 11:00,ZGGG 131100Z AUTO 09004KT 6SM 30/17 A2971 RMK T03000170 IEM_DS3505
ZGGG,2001-09-13 12:00,ZGGG 131200Z AUTO 00000KT 9SM 29/22 A2974 RMK SLP076 T02880221 52011 IEM_DS3505
ZGGG,2001-09-13 13:00,ZGGG 131300Z AUTO 06002KT 6SM 28/18 A2977 RMK T02800180 IEM_DS3505
ZGGG,2001-09-13 14:00,ZGGG 131400Z AUTO 08002KT 6SM 28/19 A2980 RMK T02800190 IEM_DS3505
ZGGG,2001-09-13 15:00,ZGGG 131500Z AUTO 07002KT 7SM 28/24 A2980 RMK SLP092 T02750236 52017 IEM_DS3505
ZGGG,2001-09-13 16:00,ZGGG 131600Z AUTO 17004KT 2 1/2SM 28/23 A2980 RMK T02800230 IEM_DS3505
ZGGG,2001-09-13 17:00,ZGGG 131700Z AUTO 18006KT 2 1/2SM 28/23 A2980 RMK T02800230 IEM_DS3505
ZGGG,2001-09-13 18:00,ZGGG 131800Z AUTO 11004KT 2 1/2SM 28/25 A2980 RMK SLP087 T02760248 57005 IEM_DS3505
ZGGG,2001-09-13 19:00,ZGGG 131900Z AUTO 2 1/2SM 27/23 A2977 RMK T02700230 IEM_DS3505
ZGGG,2001-09-13 20:00,ZGGG 132000Z AUTO 2 1/2SM 27/23 A2977 RMK T02700230 IEM_DS3505
ZGGG,2001-09-13 21:00,ZGGG 132100Z AUTO 00000KT 5SM 26/25 A2977 RMK SLP084 T02650248 57003 IEM_DS3505
ZGGG,2001-09-13 22:00,ZGGG 132200Z AUTO 05004KT 2SM 26/23 A2980 RMK T02600230 IEM_DS3505
ZGGG,2001-09-14 00:00,ZGGG 140000Z AUTO 36002KT 4SM 27/25 A2983 RMK SLP102 T02720249 52017 IEM_DS3505
ZGGG,2001-09-14 02:00,ZGGG 140200Z AUTO 03008KT 2SM 30/22 A2985 RMK T03000220 IEM_DS3505
ZGGG,2001-09-14 03:00,ZGGG 140300Z AUTO 36004KT 7SM 31/23 A2985 RMK SLP105 T03120232 52004 IEM_DS3505
ZGGG,2001-09-14 04:00,ZGGG 140400Z AUTO 04008KT 32/19 A2983 RMK T03200190 IEM_DS3505
ZGGG,2001-09-14 05:00,ZGGG 140500Z AUTO 02008KT 6SM 33/16 A2980 RMK T03300160 IEM_DS3505
ZGGG,2001-09-14 06:00,ZGGG 140600Z AUTO 36010KT 11SM 33/19 A2977 RMK SLP086 T03340193 57019 IEM_DS3505
ZGGG,2001-09-14 07:00,ZGGG 140700Z AUTO 34008KT 7SM 34/16 A2974 RMK T03400160 IEM_DS3505
ZGGG,2001-09-14 08:00,ZGGG 140800Z AUTO 36008KT 6SM 34/16 A2974 RMK T03400160 IEM_DS3505
ZGGG,2001-09-14 09:00,ZGGG 140900Z AUTO 02004KT 11SM 33/20 A2974 RMK SLP073 T03290203 57013 IEM_DS3505
ZGGG,2001-09-14 10:00,ZGGG 141000Z AUTO 07006KT 6SM 32/18 A2974 RMK T03200180 IEM_DS3505
ZGGG,2001-09-14 11:00,ZGGG 141100Z AUTO 07004KT 5SM 31/19 A2974 RMK T03100190 IEM_DS3505
ZGGG,2001-09-14 12:00,ZGGG 141200Z AUTO 09002KT 9SM 30/22 A2977 RMK SLP082 T02960221 52009 IEM_DS3505
ZGGG,2001-09-14 13:00,ZGGG 141300Z AUTO 08004KT 29/20 A2980 RMK T02900200 IEM_DS3505
ZGGG,2001-09-14 14:00,ZGGG 141400Z AUTO 07002KT 29/21 A2980 RMK T02900210 IEM_DS3505
ZGGG,2001-09-14 15:00,ZGGG 141500Z AUTO 00000KT 7SM 28/23 A2980 RMK SLP094 T02760229 52012 IEM_DS3505
ZGGG,2001-09-14 16:00,ZGGG 141600Z AUTO 05002KT 28/20 A2980 RMK T02800200 IEM_DS3505
ZGGG,2001-09-14 17:00,ZGGG 141700Z AUTO 05004KT 4SM 25/20 A2980 RMK T02500200 IEM_DS3505
ZGGG,2001-09-14 18:00,ZGGG 141800Z AUTO 00000KT 6SM 26/22 A2980 RMK SLP089 T02630225 57005 IEM_DS3505
ZGGG,2001-09-14 19:00,ZGGG 141900Z AUTO 04004KT 27/20 A2977 RMK T02700200 IEM_DS3505
ZGGG,2001-09-14 21:00,ZGGG 142100Z AUTO 00000KT 10SM 25/22 A2980 RMK SLP089 T02530224 54000 IEM_DS3505
ZGGG,2001-09-14 22:00,ZGGG 142200Z AUTO 06004KT 3SM 25/20 A2980 RMK T02500200 IEM_DS3505
ZGGG,2001-09-14 23:00,ZGGG 142300Z AUTO 04004KT 2 1/2SM 25/21 A2980 RMK T02500210 IEM_DS3505
ZGGG,2001-09-15 00:00,ZGGG 150000Z AUTO 00000KT 11SM 27/20 A2983 RMK SLP102 T02730202 52012 IEM_DS3505
ZGGG,2001-09-15 01:00,ZGGG 150100Z AUTO 02008KT 6SM 29/17 A2983 RMK T02900170 IEM_DS3505
ZGGG,2001-09-15 02:00,ZGGG 150200Z AUTO 03008KT 6SM 31/18 A2983 RMK T03100180 IEM_DS3505
ZGGG,2001-09-15 03:00,ZGGG 150300Z AUTO 02006KT 12SM 32/21 A2983 RMK SLP100 T03220210 57001 IEM_DS3505
ZGGG,2001-09-15 04:00,ZGGG 150400Z AUTO 36006KT 6SM 33/17 A2980 RMK T03300170 IEM_DS3505
ZGGG,2001-09-15 05:00,ZGGG 150500Z AUTO 01008KT 6SM 33/16 A2977 RMK T03300160 IEM_DS3505
ZGGG,2001-09-15 06:00,ZGGG 150600Z AUTO 32004KT 11SM 34/20 A2974 RMK SLP073 T03380202 57027 IEM_DS3505
ZGGG,2001-09-15 07:00,ZGGG 150700Z AUTO 35006KT 6SM 34/17 A2971 RMK T03400170 IEM_DS3505
ZGGG,2001-09-15 08:00,ZGGG 150800Z AUTO 35006KT 7SM 34/17 A2971 RMK T03400170 IEM_DS3505
ZGGG,2001-09-15 09:00,ZGGG 150900Z AUTO 09002KT 11SM 33/21 A2971 RMK SLP063 T03340209 57010 IEM_DS3505
ZGGG,2001-09-15 10:00,ZGGG 151000Z AUTO 08004KT 6SM 32/18 A2971 RMK T03200180 IEM_DS3505
ZGGG,2001-09-15 11:00,ZGGG 151100Z AUTO 08004KT 6SM 31/18 A2974 RMK T03100180 IEM_DS3505
ZGGG,2001-09-15 12:00,ZGGG 151200Z AUTO 04002KT 10SM 30/23 A2974 RMK SLP074 T03030226 52011 IEM_DS3505
ZGGG,2001-09-15 13:00,ZGGG 151300Z AUTO 07002KT 6SM 29/19 A2977 RMK T02900190 IEM_DS3505
ZGGG,2001-09-15 14:00,ZGGG 151400Z AUTO 04004KT 6SM 31/18 A2977 RMK T03100180 IEM_DS3505
ZGGG,2001-09-15 15:00,ZGGG 151500Z AUTO 00000KT 9SM 28/22 A2977 RMK SLP087 T02800220 52013 IEM_DS3505
ZGGG,2001-09-15 16:00,ZGGG 151600Z AUTO 03002KT 6SM 29/16 A2977 RMK T02900160 IEM_DS3505
ZGGG,2001-09-15 17:00,ZGGG 151700Z AUTO 6SM 29/17 A2977 RMK T02900170 IEM_DS3505
ZGGG,2001-09-15 18:00,ZGGG 151800Z AUTO 00000KT 9SM 26/21 A2977 RMK SLP087 T02610210 54000 IEM_DS3505
ZGGG,2001-09-15 19:00,ZGGG 151900Z AUTO 06002KT 6SM 27/18 A2977 RMK T02700180 IEM_DS3505
ZGGG,2001-09-15 20:00,ZGGG 152000Z AUTO 6SM 26/17 A2977 RMK T02600170 IEM_DS3505
ZGGG,2001-09-15 21:00,ZGGG 152100Z AUTO 07002KT 9SM 25/20 A2980 RMK SLP088 T02460200 52001 IEM_DS3505
ZGGG,2001-09-15 22:00,ZGGG 152200Z AUTO 04004KT 6SM 24/16 A2980 RMK T02400160 IEM_DS3505
ZGGG,2001-09-15 23:00,ZGGG 152300Z AUTO 03006KT 6SM 25/16 A2983 RMK T02500160 IEM_DS3505
ZGGG,2001-09-16 00:00,ZGGG 160000Z AUTO 34002KT 11SM 26/18 A2983 RMK SLP104 T02610185 52015 IEM_DS3505
ZGGG,2001-09-16 01:00,ZGGG 160100Z AUTO 02006KT 6SM 28/15 A2983 RMK T02800150 IEM_DS3505
ZGGG,2001-09-16 02:00,ZGGG 160200Z AUTO 04008KT 6SM 29/16 A2983 RMK T02900160 IEM_DS3505
ZGGG,2001-09-16 03:00,ZGGG 160300Z AUTO 36002KT 9SM 31/19 A2983 RMK SLP100 T03100194 57003 IEM_DS3505
ZGGG,2001-09-16 04:00,ZGGG 160400Z AUTO 04008KT 6SM 32/16 A2980 RMK T03200160 IEM_DS3505
ZGGG,2001-09-16 05:00,ZGGG 160500Z AUTO 02006KT 6SM 32/16 A2977 RMK T03200160 IEM_DS3505
ZGGG,2001-09-16 06:00,ZGGG 160600Z AUTO 02006KT 10SM 33/20 A2974 RMK SLP073 T03300199 57027 IEM_DS3505
ZGGG,2001-09-16 07:00,ZGGG 160700Z AUTO 35004KT 6SM 33/16 A2971 RMK T03300160 IEM_DS3505
ZGGG,2001-09-16 08:00,ZGGG 160800Z AUTO 35006KT 7SM 33/16 A2971 RMK T03300160 IEM_DS3505
ZGGG,2001-09-16 09:00,ZGGG 160900Z AUTO 34004KT 10SM 33/19 A2971 RMK SLP062 T03290192 57011 IEM_DS3505
ZGGG,2001-09-16 10:00,ZGGG 161000Z AUTO 36006KT 6SM 32/15 A2971 RMK T03200150 IEM_DS3505
ZGGG,2001-09-16 11:00,ZGGG 161100Z AUTO 02004KT 6SM 31/16 A2974 RMK T03100160 IEM_DS3505
ZGGG,2001-09-16 12:00,ZGGG 161200Z AUTO 00000KT 9SM 29/21 A2974 RMK SLP074 T02870211 52011 IEM_DS3505
ZGGG,2001-09-16 13:00,ZGGG 161300Z AUTO 07002KT 6SM 27/17 A2977 RMK T02700170 IEM_DS3505
ZGGG,2001-09-16 14:00,ZGGG 161400Z AUTO 6SM 27/17 A2980 RMK T02700170 IEM_DS3505
ZGGG,2001-09-16 15:00,ZGGG 161500Z AUTO 00000KT 7SM 26/22 A2977 RMK SLP087 T02650225 52014 IEM_DS3505
ZGGG,2001-09-16 16:00,ZGGG 161600Z AUTO 06002KT 3SM 27/17 A2977 RMK T02700170 IEM_DS3505
ZGGG,2001-09-16 17:00,ZGGG 161700Z AUTO 05004KT 26/18 A2977 RMK T02600180 IEM_DS3505
ZGGG,2001-09-16 18:00,ZGGG 161800Z AUTO 00000KT 7SM 25/22 A2977 RMK SLP083 T02520215 57004 IEM_DS3505
ZGGG,2001-09-16 19:00,ZGGG 161900Z AUTO 26/19 A2977 RMK T02600190 IEM_DS3505
ZGGG,2001-09-16 20:00,ZGGG 162000Z AUTO 6SM 25/18 A2974 RMK T02500180 IEM_DS3505
ZGGG,2001-09-16 21:00,ZGGG 162100Z AUTO 00000KT 5SM 24/22 A2974 RMK SLP075 T02430216 57008 IEM_DS3505
ZGGG,2001-09-16 22:00,ZGGG 162200Z AUTO 04004KT 4SM 24/20 A2977 RMK T02400200 IEM_DS3505
ZGGG,2001-09-16 23:00,ZGGG 162300Z AUTO 06002KT 2 1/2SM 24/20 A2977 RMK T02400200 IEM_DS3505
ZGGG,2001-09-17 00:00,ZGGG 170000Z AUTO 34002KT 9SM 27/21 A2977 RMK SLP085 T02700209 52009 IEM_DS3505
ZGGG,2001-09-17 01:00,ZGGG 170100Z AUTO 03004KT 3SM 29/19 A2980 RMK T02900190 IEM_DS3505
ZGGG,2001-09-17 02:00,ZGGG 170200Z AUTO 36006KT 11SM 30/18 A2980 RMK T03000180 IEM_DS3505
ZGGG,2001-09-17 03:00,ZGGG 170300Z AUTO 34004KT 11SM 32/21 A2977 RMK SLP085 T03220212 52001 IEM_DS3505
ZGGG,2001-09-17 04:00,ZGGG 170400Z AUTO 02006KT 6SM 32/18 A2977 RMK T03200180 IEM_DS3505
ZGGG,2001-09-17 05:00,ZGGG 170500Z AUTO 03006KT 6SM 34/17 A2974 RMK T03400170 IEM_DS3505
ZGGG,2001-09-17 06:00,ZGGG 170600Z AUTO 02004KT 11SM 34/21 A2971 RMK SLP060 T03420208 57025 IEM_DS3505
ZGGG,2001-09-17 07:00,ZGGG 170700Z AUTO 34006KT 6SM 34/17 A2968 RMK T03400170 IEM_DS3505
ZGGG,2001-09-17 08:00,ZGGG 170800Z AUTO 02006KT 6SM 34/16 A2965 RMK T03400160 IEM_DS3505
ZGGG,2001-09-17 09:00,ZGGG 170900Z AUTO 34002KT 11SM 34/20 A2965 RMK SLP049 T03390205 57011 IEM_DS3505
ZGGG,2001-09-17 10:00,ZGGG 171000Z AUTO 32004KT 6SM 33/18 A2968 RMK T03300180 IEM_DS3505
ZGGG,2001-09-17 11:00,ZGGG 171100Z AUTO 34004KT 6SM 33/19 A2968 RMK T03300190 IEM_DS3505
ZGGG,2001-09-17 12:00,ZGGG 171200Z AUTO 00000KT 10SM 30/24 A2971 RMK SLP064 T02990238 52015 IEM_DS3505
ZGGG,2001-09-17 13:00,ZGGG 171300Z AUTO 08004KT 6SM 29/20 A2971 RMK T02900200 IEM_DS3505
ZGGG,2001-09-17 14:00,ZGGG 171400Z AUTO 07002KT 29/21 A2974 RMK T02900210 IEM_DS3505
ZGGG,2001-09-17 15:00,ZGGG 171500Z AUTO 00000KT 7SM 28/24 A2974 RMK SLP074 T02800240 52010 IEM_DS3505
ZGGG,2001-09-17 16:00,ZGGG 171600Z AUTO 08002KT 3SM 28/21 A2974 RMK T02800210 IEM_DS3505
ZGGG,2001-09-17 17:00,ZGGG 171700Z AUTO 28/20 A2971 RMK T02800200 IEM_DS3505
ZGGG,2001-09-17 18:00,ZGGG 171800Z AUTO 00000KT 6SM 27/23 A2974 RMK SLP067 T02660234 57007 IEM_DS3505
ZGGG,2001-09-17 19:00,ZGGG 171900Z AUTO 3SM 28/22 A2971 RMK T02800220 IEM_DS3505
ZGGG,2001-09-17 20:00,ZGGG 172000Z AUTO 1 1/4SM 27/22 A2971 RMK T02700220 IEM_DS3505
ZGGG,2001-09-17 21:00,ZGGG 172100Z AUTO 00000KT 2 1/2SM 26/24 A2971 RMK SLP067 T02610238 54000 IEM_DS3505
ZGGG,2001-09-17 22:00,ZGGG 172200Z AUTO 29004KT 2 1/2SM 28/22 A2974 RMK T02800220 IEM_DS3505
ZGGG,2001-09-18 00:00,ZGGG 180000Z AUTO 32004KT 7SM 28/23 A2977 RMK SLP083 T02770227 52016 IEM_DS3505
ZGGG,2001-09-18 01:00,ZGGG 180100Z AUTO 04006KT 3SM 29/20 A2980 RMK T02900200 IEM_DS3505
ZGGG,2001-09-18 02:00,ZGGG 180200Z AUTO 02008KT 11SM 31/18 A2980 RMK T03100180 IEM_DS3505
ZGGG,2001-09-18 03:00,ZGGG 180300Z AUTO 32004KT 11SM 33/21 A2977 RMK SLP088 T03260211 52005 IEM_DS3505
ZGGG,2001-09-18 04:00,ZGGG 180400Z AUTO 36006KT 6SM 33/17 A2977 RMK T03300170 IEM_DS3505
ZGGG,2001-09-18 05:00,ZGGG 180500Z AUTO 06006KT 7SM 34/17 A2974 RMK T03400170 IEM_DS3505
ZGGG,2001-09-18 06:00,ZGGG 180600Z AUTO 36004KT 17SM 34/20 A2971 RMK SLP061 T03450196 57027 IEM_DS3505
ZGGG,2001-09-18 07:00,ZGGG 180700Z AUTO 33006KT 7SM 34/16 A2968 RMK T03400160 IEM_DS3505
ZGGG,2001-09-18 08:00,ZGGG 180800Z AUTO 36006KT 7SM 35/16 A2965 RMK T03500160 IEM_DS3505
ZGGG,2001-09-18 09:00,ZGGG 180900Z AUTO 36002KT 17SM 34/19 A2965 RMK SLP050 T03400188 57011 IEM_DS3505
ZGGG,2001-09-18 10:00,ZGGG 181000Z AUTO 08006KT 6SM 33/17 A2968 RMK T03300170 IEM_DS3505
ZGGG,2001-09-18 11:00,ZGGG 181100Z AUTO 07002KT 6SM 32/18 A2968 RMK T03200180 IEM_DS3505
ZGGG,2001-09-18 12:00,ZGGG 181200Z AUTO 00000KT 12SM 30/23 A2971 RMK SLP062 T02990227 52012 IEM_DS3505
ZGGG,2001-09-18 13:00,ZGGG 181300Z AUTO 08004KT 6SM 30/19 A2971 RMK T03000190 IEM_DS3505
ZGGG,2001-09-18 14:00,ZGGG 181400Z AUTO 06004KT 6SM 29/19 A2971 RMK T02900190 IEM_DS3505
ZGGG,2001-09-18 15:00,ZGGG 181500Z AUTO 00000KT 11SM 28/23 A2971 RMK SLP066 T02800231 52004 IEM_DS3505
ZGGG,2001-09-18 16:00,ZGGG 181600Z AUTO 04006KT 5SM 28/20 A2971 RMK T02800200 IEM_DS3505
ZGGG,2001-09-18 17:00,ZGGG 181700Z AUTO 07004KT 5SM 28/20 A2971 RMK T02800200 IEM_DS3505
ZGGG,2001-09-18 18:00,ZGGG 181800Z AUTO 00000KT 10SM 27/23 A2971 RMK SLP061 T02680226 57005 IEM_DS3505
ZGGG,2001-09-18 19:00,ZGGG 181900Z AUTO 04008KT 5SM 26/18 A2971 RMK T02600180 IEM_DS3505
ZGGG,2001-09-18 20:00,ZGGG 182000Z AUTO 04006KT 6SM 27/17 A2971 RMK T02700170 IEM_DS3505
ZGGG,2001-09-18 21:00,ZGGG 182100Z AUTO 00000KT 10SM 25/21 A2971 RMK SLP068 T02520208 52007 IEM_DS3505
ZGGG,2001-09-18 22:00,ZGGG 182200Z AUTO 02006KT 6SM 27/18 A2974 RMK T02700180 IEM_DS3505
ZGGG,2001-09-18 23:00,ZGGG 182300Z AUTO 04006KT 6SM 25/18 A2974 RMK T02500180 IEM_DS3505
ZGGG,2001-09-19 00:00,ZGGG 190000Z AUTO 36002KT 10SM 28/21 A2977 RMK SLP078 T02790207 52010 IEM_DS3505
ZGGG,2001-09-19 01:00,ZGGG 190100Z AUTO 02006KT 30/19 A2977 RMK T03000190 IEM_DS3505
ZGGG,2001-09-19 02:00,ZGGG 190200Z AUTO 03010KT 11SM 31/19 A2977 RMK T03100190 IEM_DS3505
ZGGG,2001-09-19 03:00,ZGGG 190300Z AUTO 36006KT 11SM 32/22 A2977 RMK SLP085 T03220222 52007 IEM_DS3505
ZGGG,2001-09-19 04:00,ZGGG 190400Z AUTO 01008KT 6SM 33/18 A2977 RMK T03300180 IEM_DS3505
ZGGG,2001-09-19 05:00,ZGGG 190500Z AUTO 01010KT 6SM 34/18 A2974 RMK T03400180 IEM_DS3505
ZGGG,2001-09-19 06:00,ZGGG 190600Z AUTO 36006KT 14SM 34/21 A2971 RMK SLP059 T03380214 57026 IEM_DS3505
ZGGG,2001-09-19 07:00,ZGGG 190700Z AUTO 36008KT 7SM 34/18 A2968 RMK T03400180 IEM_DS3505
ZGGG,2001-09-19 08:00,ZGGG 190800Z AUTO 02010KT 7SM 34/17 A2965 RMK T03400170 IEM_DS3505
ZGGG,2001-09-19 09:00,ZGGG 190900Z AUTO 34006KT 11SM 33/22 A2965 RMK SLP048 T03330217 57011 IEM_DS3505
ZGGG,2001-09-19 10:00,ZGGG 191000Z AUTO 36008KT 6SM 33/17 A2965 RMK T03300170 IEM_DS3505
ZGGG,2001-09-19 11:00,ZGGG 191100Z AUTO 36008KT 6SM 32/18 A2968 RMK T03200180 IEM_DS3505
ZGGG,2001-09-19 12:00,ZGGG 191200Z AUTO 34004KT 12SM 31/21 A2968 RMK SLP056 T03070214 52008 IEM_DS3505
ZGGG,2001-09-19 13:00,ZGGG 191300Z AUTO 04006KT 6SM 30/19 A2971 RMK T03000190 IEM_DS3505
ZGGG,2001-09-19 14:00,ZGGG 191400Z AUTO 04006KT 6SM 29/21 A2971 RMK T02900210 IEM_DS3505
ZGGG,2001-09-19 15:00,ZGGG 191500Z AUTO 34004KT 11SM 30/21 A2974 RMK SLP068 T02970208 52012 IEM_DS3505
ZGGG,2001-09-19 16:00,ZGGG 191600Z AUTO 04008KT 28/21 A2974 RMK T02800210 IEM_DS3505
ZGGG,2001-09-19 17:00,ZGGG 191700Z AUTO 04008KT 6SM 28/20 A2974 RMK T02800200 IEM_DS3505
ZGGG,2001-09-19 18:00,ZGGG 191800Z AUTO 36002KT 10SM 28/21 A2971 RMK SLP068 T02830210 54000 IEM_DS3505
ZGGG,2001-09-19 19:00,ZGGG 191900Z AUTO 05006KT 6SM 27/20 A2971 RMK T02700200 IEM_DS3505
ZGGG,2001-09-19 20:00,ZGGG 192000Z AUTO 05006KT 6SM 27/20 A2971 RMK T02700200 IEM_DS3505
ZGGG,2001-09-19 21:00,ZGGG 192100Z AUTO 34004KT 9SM 28/21 A2974 RMK SLP070 T02800212 52002 IEM_DS3505
ZGGG,2001-09-19 22:00,ZGGG 192200Z AUTO 03004KT 6SM 27/19 A2974 RMK T02700190 IEM_DS3505
ZGGG,2001-09-19 23:00,ZGGG 192300Z AUTO 01006KT 5SM 28/20 A2974 RMK T02800200 IEM_DS3505
ZGGG,2001-09-20 00:00,ZGGG 200000Z AUTO 36004KT 9SM 28/22 A2977 RMK SLP079 T02800218 52009 IEM_DS3505
ZGGG,2001-09-20 01:00,ZGGG 200100Z AUTO 02012KT 5SM 29/21 A2977 RMK T02900210 IEM_DS3505
ZGGG,2001-09-20 02:00,ZGGG 200200Z AUTO 02012KT 5SM 29/20 A2977 RMK T02900200 IEM_DS3505
ZGGG,2001-09-20 03:00,ZGGG 200300Z AUTO 34008KT 9SM 29/22 A2977 RMK SLP083 T02890225 52004 IEM_DS3505
ZGGG,2001-09-20 04:00,ZGGG 200400Z AUTO 36012KT 5SM 28/21 A2977 RMK T02800210 IEM_DS3505
ZGGG,2001-09-20 05:00,ZGGG 200500Z AUTO 01014KT 6SM 29/21 A2974 RMK T02900210 IEM_DS3505
ZGGG,2001-09-20 06:00,ZGGG 200600Z AUTO 34008KT 11SM 30/23 A2971 RMK SLP062 T02970232 57021 IEM_DS3505
ZGGG,2001-09-20 07:00,ZGGG 200700Z AUTO 32008KT 11SM 30/22 A2968 RMK SLP056 T02990223 57015 IEM_DS3505
ZGGG,2001-09-20 08:00,ZGGG 200800Z AUTO 36006KT 10SM 28/24 A2968 RMK SLP057 T02780236 57015 IEM_DS3505
ZGGG,2001-09-20 09:00,ZGGG 200900Z AUTO 32004KT 10SM 28/23 A2968 RMK SLP056 T02770229 57006 IEM_DS3505
ZGGG,2001-09-20 10:00,ZGGG 201000Z AUTO 34006KT 11SM 28/23 A2971 RMK SLP057 T02780227 52001 IEM_DS3505
ZGGG,2001-09-20 11:00,ZGGG 201100Z AUTO 34006KT 10SM 28/22 A2971 RMK SLP055 T02770224 57002 IEM_DS3505
ZGGG,2001-09-20 12:00,ZGGG 201200Z AUTO 34010KT 10SM 28/22 A2971 RMK 60002 SLP060 T02770221 52004 IEM_DS3505
ZGGG,2001-09-20 13:00,ZGGG 201300Z AUTO 34006KT 10SM 27/22 A2971 RMK SLP064 T02730223 52007 IEM_DS3505
ZGGG,2001-09-20 14:00,ZGGG 201400Z AUTO 34006KT 10SM 26/23 A2974 RMK SLP069 T02570229 52013 IEM_DS3505
ZGGG,2001-09-20 15:00,ZGGG 201500Z AUTO 34006KT 9SM 25/23 A2974 RMK SLP068 T02470234 52007 IEM_DS3505
ZGGG,2001-09-20 16:00,ZGGG 201600Z AUTO 03010KT 1 1/4SM 24/23 A2971 RMK T02400230 IEM_DS3505
ZGGG,2001-09-20 17:00,ZGGG 201700Z AUTO 09012KT 2SM 24/24 A2974 RMK T02400240 IEM_DS3505
ZGGG,2001-09-20 18:00,ZGGG 201800Z AUTO 09008KT 4SM 25/24 A2974 RMK 60051 SLP075 T02480239 52007 IEM_DS3505
ZGGG,2001-09-20 19:00,ZGGG 201900Z AUTO 12010KT 4SM 24/24 A2974 RMK T02400240 IEM_DS3505
ZGGG,2001-09-20 20:00,ZGGG 202000Z AUTO 14008KT 3SM 24/23 A2974 RMK T02400230 IEM_DS3505
ZGGG,2001-09-20 21:00,ZGGG 202100Z AUTO 09002KT 6SM 25/24 A2977 RMK 70173 SLP080 T02480242 52005 IEM_DS3505
ZGGG,2001-09-20 22:00,ZGGG 202200Z AUTO 12008KT 3SM 24/23 A2977 RMK T02400230 IEM_DS3505
ZGGG,2001-09-20 23:00,ZGGG 202300Z AUTO 11014G25KT 3SM 23/21 A2980 RMK T02300210 IEM_DS3505
ZGGG,2001-09-21 00:00,ZGGG 210000Z AUTO 09008KT 5SM 24/24 A2983 RMK 60256 SLP103 T02420235 52023 IEM_DS3505
ZGGG,2001-09-21 01:00,ZGGG 210100Z AUTO 10014KT 3SM 23/22 A2985 RMK T02300220 IEM_DS3505
ZGGG,2001-09-21 02:00,ZGGG 210200Z AUTO 10012KT 7SM 23/22 A2988 RMK T02300220 IEM_DS3505
ZGGG,2001-09-21 03:00,ZGGG 210300Z AUTO 09006KT 8SM 24/24 A2988 RMK SLP126 T02440235 52023 IEM_DS3505
ZGGG,2001-09-21 04:00,ZGGG 210400Z AUTO 09012KT 5SM 24/22 A2988 RMK T02400220 IEM_DS3505
ZGGG,2001-09-21 05:00,ZGGG 210500Z AUTO 09010KT 5SM 24/23 A2988 RMK T02400230 IEM_DS3505
ZGGG,2001-09-21 06:00,ZGGG 210600Z AUTO 11002KT 11SM 26/24 A2985 RMK 60031 SLP112 T02550239 57014 IEM_DS3505
ZGGG,2001-09-21 07:00,ZGGG 210700Z AUTO 10012KT 5SM 27/22 A2985 RMK T02700220 IEM_DS3505
ZGGG,2001-09-21 08:00,ZGGG 210800Z AUTO 09008KT 7SM 26/22 A2983 RMK T02600220 IEM_DS3505
ZGGG,2001-09-21 09:00,ZGGG 210900Z AUTO 09004KT 12SM 26/23 A2983 RMK SLP107 T02620231 57005 IEM_DS3505
ZGGG,2001-09-21 10:00,ZGGG 211000Z AUTO 11004KT 6SM 26/22 A2985 RMK T02600220 IEM_DS3505
ZGGG,2001-09-21 11:00,ZGGG 211100Z AUTO 08002KT 6SM 26/22 A2988 RMK T02600220 IEM_DS3505
ZGGG,2001-09-21 12:00,ZGGG 211200Z AUTO 00000KT 10SM 25/24 A2988 RMK 60003 SLP126 T02510235 52019 IEM_DS3505
ZGGG,2001-09-21 13:00,ZGGG 211300Z AUTO 6SM 26/22 A2991 RMK T02600220 IEM_DS3505
ZGGG,2001-09-21 14:00,ZGGG 211400Z AUTO 04004KT 6SM 26/22 A2991 RMK T02600220 IEM_DS3505
ZGGG,2001-09-21 15:00,ZGGG 211500Z AUTO 00000KT 11SM 25/24 A2991 RMK SLP136 T02470237 52010 IEM_DS3505
ZGGG,2001-09-21 16:00,ZGGG 211600Z AUTO 05004KT 4SM 25/23 A2991 RMK T02500230 IEM_DS3505
ZGGG,2001-09-21 17:00,ZGGG 211700Z AUTO 01002KT 5SM 25/22 A2991 RMK T02500220 IEM_DS3505
ZGGG,2001-09-21 18:00,ZGGG 211800Z AUTO 34002KT 9SM 25/23 A2991 RMK SLP124 T02470229 57012 IEM_DS3505
ZGGG,2001-09-21 19:00,ZGGG 211900Z AUTO 04008KT 4SM 24/23 A2988 RMK T02400230 IEM_DS3505
ZGGG,2001-09-21 20:00,ZGGG 212000Z AUTO 01004KT 3SM 25/23 A2988 RMK T02500230 IEM_DS3505
ZGGG,2001-09-21 21:00,ZGGG 212100Z AUTO 00000KT 8SM 24/23 A2988 RMK 70165 SLP124 T02440234 54000 IEM_DS3505
ZGGG,2001-09-21 22:00,ZGGG 212200Z AUTO 04004KT 5SM 24/23 A2991 RMK T02400230 IEM_DS3505
ZGGG,2001-09-21 23:00,ZGGG 212300Z AUTO 36004KT 2SM 25/23 A2991 RMK T02500230 IEM_DS3505
ZGGG,2001-09-22 00:00,ZGGG 220000Z AUTO 00000KT 11SM 26/23 A2991 RMK 70031 SLP135 T02600231 52011 IEM_DS3505
ZGGG,2001-09-22 01:00,ZGGG 220100Z AUTO 03008KT 7SM 27/22 A2994 RMK T02700220 IEM_DS3505
ZGGG,2001-09-22 02:00,ZGGG 220200Z AUTO 03006KT 7SM 28/22 A2994 RMK T02800220 IEM_DS3505
ZGGG,2001-09-22 03:00,ZGGG 220300Z AUTO 07008KT 19SM 30/23 A2994 RMK SLP140 T03020227 52005 IEM_DS3505
ZGGG,2001-09-22 04:00,ZGGG 220400Z AUTO 06008KT 7SM 31/19 A2991 RMK T03100190 IEM_DS3505
ZGGG,2001-09-22 05:00,ZGGG 220500Z AUTO 02008KT 7SM 30/21 A2988 RMK T03000210 IEM_DS3505
ZGGG,2001-09-22 06:00,ZGGG 220600Z AUTO 32004KT 19SM 31/23 A2985 RMK SLP117 T03130228 57023 IEM_DS3505
ZGGG,2001-09-22 07:00,ZGGG 220700Z AUTO 02008KT 7SM 32/21 A2985 RMK T03200210 IEM_DS3505
ZGGG,2001-09-22 09:00,ZGGG 220900Z AUTO 36006KT 17SM 31/22 A2983 RMK SLP106 T03090220 57011 IEM_DS3505
ZGGG,2001-09-22 10:00,ZGGG 221000Z AUTO 05008KT 7SM 30/19 A2983 RMK T03000190 IEM_DS3505
ZGGG,2001-09-22 11:00,ZGGG 221100Z AUTO 04006KT 7SM 29/21 A2985 RMK T02900210 IEM_DS3505
ZGGG,2001-09-22 12:00,ZGGG 221200Z AUTO 36004KT 16SM 28/21 A2985 RMK SLP119 T02810213 52013 IEM_DS3505
ZGGG,2001-09-22 13:00,ZGGG 221300Z AUTO 01006KT 6SM 28/21 A2988 RMK T02800210 IEM_DS3505
ZGGG,2001-09-22 14:00,ZGGG 221400Z AUTO 04010KT 7SM 27/21 A2988 RMK T02700210 IEM_DS3505
ZGGG,2001-09-22 15:00,ZGGG 221500Z AUTO 02004KT 11SM 27/20 A2991 RMK SLP127 T02700204 52008 IEM_DS3505
ZGGG,2001-09-22 16:00,ZGGG 221600Z AUTO 04008KT 6SM 26/19 A2988 RMK T02600190 IEM_DS3505
ZGGG,2001-09-22 17:00,ZGGG 221700Z AUTO 04006KT 6SM 26/19 A2988 RMK T02600190 IEM_DS3505
ZGGG,2001-09-22 18:00,ZGGG 221800Z AUTO 00000KT 11SM 25/21 A2988 RMK SLP118 T02540210 57009 IEM_DS3505
ZGGG,2001-09-22 19:00,ZGGG 221900Z AUTO 04006KT 7SM 25/19 A2988 RMK T02500190 IEM_DS3505
ZGGG,2001-09-22 20:00,ZGGG 222000Z AUTO 04006KT 7SM 24/19 A2988 RMK T02400190 IEM_DS3505
ZGGG,2001-09-22 21:00,ZGGG 222100Z AUTO 34004KT 9SM 25/19 A2988 RMK SLP118 T02490193 54000 IEM_DS3505
ZGGG,2001-09-22 22:00,ZGGG 222200Z AUTO 03006KT 6SM 24/19 A2988 RMK T02400190 IEM_DS3505
ZGGG,2001-09-22 23:00,ZGGG 222300Z AUTO 02006KT 24/18 A2991 RMK T02400180 IEM_DS3505
ZGGG,2001-09-23 00:00,ZGGG 230000Z AUTO 32006KT 11SM 26/20 A2991 RMK SLP132 T02560198 52014 IEM_DS3505
ZGGG,2001-09-23 01:00,ZGGG 230100Z AUTO 02008KT 6SM 27/18 A2991 RMK T02700180 IEM_DS3505
ZGGG,2001-09-23 02:00,ZGGG 230200Z AUTO 04014KT 6SM 28/18 A2991 RMK T02800180 IEM_DS3505
ZGGG,2001-09-23 03:00,ZGGG 230300Z AUTO 36006KT 12SM 29/20 RMK SLP131 T02920200 57001 IEM_DS3505
ZGGG,2001-09-23 04:00,ZGGG 230400Z AUTO 04010KT 6SM 30/18 A2988 RMK T03000180 IEM_DS3505
ZGGG,2001-09-23 05:00,ZGGG 230500Z AUTO 01012KT 7SM 31/18 A2985 RMK T03100180 IEM_DS3505
ZGGG,2001-09-23 06:00,ZGGG 230600Z AUTO 04008KT 16SM 31/19 A2983 RMK SLP100 T03060194 57031 IEM_DS3505
ZGGG,2001-09-23 07:00,ZGGG 230700Z AUTO 36008KT 7SM 31/18 A2980 RMK T03100180 IEM_DS3505
ZGGG,2001-09-23 08:00,ZGGG 230800Z AUTO 02010KT 6SM 31/17 A2977 RMK T03100170 IEM_DS3505
ZGGG,2001-09-23 09:00,ZGGG 230900Z AUTO 36004KT 11SM 31/21 A2977 RMK SLP084 T03060206 57016 IEM_DS3505
ZGGG,2001-09-23 10:00,ZGGG 231000Z AUTO 36008KT 6SM 30/17 A2977 RMK T03000170 IEM_DS3505
ZGGG,2001-09-23 11:00,ZGGG 231100Z AUTO 36006KT 6SM 29/17 A2980 RMK T02900170 IEM_DS3505
ZGGG,2001-09-23 12:00,ZGGG 231200Z AUTO 02004KT 11SM 28/21 A2980 RMK SLP094 T02790207 52010 IEM_DS3505
ZGGG,2001-09-23 13:00,ZGGG 231300Z AUTO 04006KT 6SM 28/19 A2983 RMK T02800190 IEM_DS3505
ZGGG,2001-09-23 14:00,ZGGG 231400Z AUTO 05006KT 6SM 26/19 A2985 RMK T02600190 IEM_DS3505
ZGGG,2001-09-23 15:00,ZGGG 231500Z AUTO 36002KT 11SM 26/17 A2983 RMK SLP105 T02600173 52011 IEM_DS3505
ZGGG,2001-09-23 16:00,ZGGG 231600Z AUTO 05006KT 6SM 25/17 A2983 RMK T02500170 IEM_DS3505
ZGGG,2001-09-23 17:00,ZGGG 231700Z AUTO 05006KT 6SM 24/17 A2983 RMK T02400170 IEM_DS3505
ZGGG,2001-09-23 18:00,ZGGG 231800Z AUTO 32004KT 9SM 24/18 A2983 RMK SLP101 T02430180 57004 IEM_DS3505
ZGGG,2001-09-23 19:00,ZGGG 231900Z AUTO 36006KT 6SM 25/17 A2983 RMK T02500170 IEM_DS3505
ZGGG,2001-09-23 20:00,ZGGG 232000Z AUTO 03004KT 6SM 23/17 A2983 RMK T02300170 IEM_DS3505
ZGGG,2001-09-23 21:00,ZGGG 232100Z AUTO 34002KT 11SM 24/18 A2983 RMK SLP099 T02370177 57002 IEM_DS3505
ZGGG,2001-09-23 22:00,ZGGG 232200Z AUTO 36004KT 6SM 24/17 A2983 RMK T02400170 IEM_DS3505
ZGGG,2001-09-23 23:00,ZGGG 232300Z AUTO 06006KT 6SM 23/17 A2985 RMK T02300170 IEM_DS3505
ZGGG,2001-09-24 00:00,ZGGG 240000Z AUTO 32004KT 12SM 26/18 A2985 RMK SLP110 T02550183 52011 IEM_DS3505
ZGGG,2001-09-24 01:00,ZGGG 240100Z AUTO 02010KT 5SM 27/17 A2988 RMK T02700170 IEM_DS3505
ZGGG,2001-09-24 02:00,ZGGG 240200Z AUTO 02008KT 6SM 28/16 A2985 RMK T02800160 IEM_DS3505
ZGGG,2001-09-24 03:00,ZGGG 240300Z AUTO 32006KT 12SM 30/19 A2985 RMK SLP110 T02990193 54000 IEM_DS3505
ZGGG,2001-09-24 04:00,ZGGG 240400Z AUTO 03008KT 6SM 30/16 A2983 RMK T03000160 IEM_DS3505
ZGGG,2001-09-24 05:00,ZGGG 240500Z AUTO 02008KT 6SM 31/17 A2980 RMK T03100170 IEM_DS3505
ZGGG,2001-09-24 06:00,ZGGG 240600Z AUTO 32008KT 14SM 32/20 A2977 RMK SLP078 T03210204 57031 IEM_DS3505
ZGGG,2001-09-24 07:00,ZGGG 240700Z AUTO 02010KT 7SM 32/16 A2974 RMK T03200160 IEM_DS3505
ZGGG,2001-09-24 08:00,ZGGG 240800Z AUTO 01010KT 7SM 32/16 A2971 RMK T03200160 IEM_DS3505
ZGGG,2001-09-24 09:00,ZGGG 240900Z AUTO 34004KT 14SM 31/19 A2974 RMK SLP068 T03140193 57011 IEM_DS3505
ZGGG,2001-09-24 10:00,ZGGG 241000Z AUTO 36010KT 6SM 31/16 A2974 RMK T03100160 IEM_DS3505
ZGGG,2001-09-24 12:00,ZGGG 241200Z AUTO 34006KT 12SM 29/20 A2977 RMK SLP085 T02890200 52017 IEM_DS3505
ZGGG,2001-09-24 13:00,ZGGG 241300Z AUTO 03006KT 6SM 29/18 A2980 RMK T02900180 IEM_DS3505
ZGGG,2001-09-24 14:00,ZGGG 241400Z AUTO 06004KT 6SM 27/18 A2980 RMK T02700180 IEM_DS3505
ZGGG,2001-09-24 15:00,ZGGG 241500Z AUTO 36006KT 11SM 28/20 A2980 RMK SLP092 T02790195 52008 IEM_DS3505
ZGGG,2001-09-24 16:00,ZGGG 241600Z AUTO 07006KT 6SM 26/19 A2980 RMK T02600190 IEM_DS3505
ZGGG,2001-09-24 17:00,ZGGG 241700Z AUTO 01008KT 6SM 27/18 A2977 RMK T02700180 IEM_DS3505
ZGGG,2001-09-24 18:00,ZGGG 241800Z AUTO 32004KT 12SM 26/19 A2977 RMK SLP082 T02640188 57010 IEM_DS3505
ZGGG,2001-09-24 19:00,ZGGG 241900Z AUTO 02008KT 6SM 26/16 A2977 RMK T02600160 IEM_DS3505
ZGGG,2001-09-24 21:00,ZGGG 242100Z AUTO 34004KT 10SM 25/18 A2977 RMK SLP083 T02470184 54000 IEM_DS3505
ZGGG,2001-09-24 22:00,ZGGG 242200Z AUTO 04006KT 6SM 24/17 A2977 RMK T02400170 IEM_DS3505
ZGGG,2001-09-24 23:00,ZGGG 242300Z AUTO 04008KT 6SM 23/17 A2980 RMK T02300170 IEM_DS3505
ZGGG,2001-09-25 00:00,ZGGG 250000Z AUTO 36006KT 12SM 27/16 A2980 RMK SLP093 T02660161 52010 IEM_DS3505
ZGGG,2001-09-25 01:00,ZGGG 250100Z AUTO 02010KT 6SM 28/15 A2980 RMK T02800150 IEM_DS3505
ZGGG,2001-09-25 02:00,ZGGG 250200Z AUTO 01012KT 6SM 30/14 A2980 RMK T03000140 IEM_DS3505
ZGGG,2001-09-25 03:00,ZGGG 250300Z AUTO 04006KT 17SM 30/17 A2980 RMK SLP092 T02960172 54000 IEM_DS3505
ZGGG,2001-09-25 04:00,ZGGG 250400Z AUTO 03016KT 6SM 31/14 A2977 RMK T03100140 IEM_DS3505
ZGGG,2001-09-25 05:00,ZGGG 250500Z AUTO 36010KT 6SM 32/16 A2974 RMK T03200160 IEM_DS3505
ZGGG,2001-09-25 06:00,ZGGG 250600Z AUTO 32006KT 19SM 31/19 A2971 RMK SLP067 T03120189 57025 IEM_DS3505
ZGGG,2001-09-25 07:00,ZGGG 250700Z AUTO 36010KT 6SM 32/15 A2971 RMK T03200150 IEM_DS3505
ZGGG,2001-09-25 08:00,ZGGG 250800Z AUTO 36010KT 6SM 32/15 A2971 RMK T03200150 IEM_DS3505
ZGGG,2001-09-25 09:00,ZGGG 250900Z AUTO 34008KT 16SM 32/19 A2971 RMK SLP060 T03150191 57007 IEM_DS3505
ZGGG,2001-09-25 10:00,ZGGG 251000Z AUTO 36010KT 6SM 31/16 A2971 RMK T03100160 IEM_DS3505
ZGGG,2001-09-25 11:00,ZGGG 251100Z AUTO 36006KT 6SM 31/16 A2971 RMK T03100160 IEM_DS3505
ZGGG,2001-09-25 12:00,ZGGG 251200Z AUTO 36006KT 12SM 29/19 A2974 RMK SLP071 T02940190 52011 IEM_DS3505
ZGGG,2001-09-25 13:00,ZGGG 251300Z AUTO 01008KT 6SM 30/16 A2974 RMK T03000160 IEM_DS3505
ZGGG,2001-09-25 14:00,ZGGG 251400Z AUTO 03008KT 6SM 28/17 A2977 RMK T02800170 IEM_DS3505
ZGGG,2001-09-25 15:00,ZGGG 251500Z AUTO 02006KT 12SM 29/18 A2977 RMK SLP078 T02870180 52007 IEM_DS3505
ZGGG,2001-09-25 16:00,ZGGG 251600Z AUTO 03010KT 6SM 28/17 A2974 RMK T02800170 IEM_DS3505
ZGGG,2001-09-25 17:00,ZGGG 251700Z AUTO 02010KT 6SM 28/16 A2974 RMK T02800160 IEM_DS3505
ZGGG,2001-09-25 18:00,ZGGG 251800Z AUTO 32004KT 11SM 27/19 A2974 RMK SLP068 T02710186 57010 IEM_DS3505
ZGGG,2001-09-25 19:00,ZGGG 251900Z AUTO 01008KT 6SM 27/17 A2974 RMK T02700170 IEM_DS3505
ZGGG,2001-09-25 20:00,ZGGG 252000Z AUTO 36008KT 6SM 27/16 A2974 RMK T02700160 IEM_DS3505
ZGGG,2001-09-25 21:00,ZGGG 252100Z AUTO 36004KT 10SM 27/18 A2974 RMK SLP072 T02660178 52004 IEM_DS3505
ZGGG,2001-09-25 23:00,ZGGG 252300Z AUTO 36008KT 5SM 26/16 A2977 RMK T02600160 IEM_DS3505
ZGGG,2001-09-26 00:00,ZGGG 260000Z AUTO 02004KT 8SM 26/19 A2977 RMK SLP089 T02630187 52016 IEM_DS3505
ZGGG,2001-09-26 01:00,ZGGG 260100Z AUTO 36010KT 5SM 27/16 A2980 RMK T02700160 IEM_DS3505
ZGGG,2001-09-26 02:00,ZGGG 260200Z AUTO 01008KT 5SM 28/17 A2980 RMK T02800170 IEM_DS3505
ZGGG,2001-09-26 03:00,ZGGG 260300Z AUTO 36008KT 11SM 28/18 A2977 RMK SLP084 T02820185 57004 IEM_DS3505
ZGGG,2001-09-26 04:00,ZGGG 260400Z AUTO 36010KT 29/17 A2974 RMK T02900170 IEM_DS3505
ZGGG,2001-09-26 05:00,ZGGG 260500Z AUTO 36010KT 29/17 A2971 RMK T02900170 IEM_DS3505
ZGGG,2001-09-26 06:00,ZGGG 260600Z AUTO 02006KT 14SM 31/20 A2968 RMK SLP051 T03140200 57033 IEM_DS3505
ZGGG,2001-09-26 07:00,ZGGG 260700Z AUTO 01012KT 6SM 32/16 A2965 RMK T03200160 IEM_DS3505
ZGGG,2001-09-26 08:00,ZGGG 260800Z AUTO 01012KT 6SM 32/16 A2965 RMK T03200160 IEM_DS3505
ZGGG,2001-09-26 09:00,ZGGG 260900Z AUTO 36006KT 16SM 31/19 A2965 RMK SLP045 T03120189 57006 IEM_DS3505
ZGGG,2001-09-26 10:00,ZGGG 261000Z AUTO 36008KT 6SM 31/16 A2968 RMK T03100160 IEM_DS3505
ZGGG,2001-09-26 11:00,ZGGG 261100Z AUTO 36008KT 6SM 30/16 A2968 RMK T03000160 IEM_DS3505
ZGGG,2001-09-26 12:00,ZGGG 261200Z AUTO 20004KT 11SM 29/19 A2971 RMK SLP065 T02860188 52019 IEM_DS3505
ZGGG,2001-09-26 13:00,ZGGG 261300Z AUTO 35006KT 28/18 A2974 RMK T02800180 IEM_DS3505
ZGGG,2001-09-26 14:00,ZGGG 261400Z AUTO 36006KT 27/17 A2977 RMK T02700170 IEM_DS3505
ZGGG,2001-09-26 15:00,ZGGG 261500Z AUTO 34004KT 10SM 26/19 A2977 RMK SLP079 T02650193 52014 IEM_DS3505
ZGGG,2001-09-26 16:00,ZGGG 261600Z AUTO 36004KT 27/17 A2977 RMK T02700170 IEM_DS3505
ZGGG,2001-09-26 17:00,ZGGG 261700Z AUTO 34006KT 26/18 A2974 RMK T02600180 IEM_DS3505
ZGGG,2001-09-26 18:00,ZGGG 261800Z AUTO 34006KT 10SM 25/19 A2974 RMK SLP071 T02500188 57007 IEM_DS3505
ZGGG,2001-09-26 19:00,ZGGG 261900Z AUTO 36008KT 5SM 26/16 A2974 RMK T02600160 IEM_DS3505
ZGGG,2001-09-26 20:00,ZGGG 262000Z AUTO 36008KT 6SM 25/16 A2974 RMK T02500160 IEM_DS3505
ZGGG,2001-09-26 21:00,ZGGG 262100Z AUTO 34006KT 9SM 24/18 A2974 RMK SLP074 T02380183 52002 IEM_DS3505
ZGGG,2001-09-26 22:00,ZGGG 262200Z AUTO 36008KT RMK IEM_DS3505
ZGGG,2001-09-26 23:00,ZGGG 262300Z AUTO 35006KT 24/16 A2977 RMK T02400160 IEM_DS3505
ZGGG,2001-09-27 00:00,ZGGG 270000Z AUTO 36006KT 9SM 25/19 A2980 RMK SLP092 T02520190 52018 IEM_DS3505
ZGGG,2001-09-27 01:00,ZGGG 270100Z AUTO 36010KT 5SM 27/16 A2980 RMK T02700160 IEM_DS3505
ZGGG,2001-09-27 02:00,ZGGG 270200Z AUTO 36010KT 5SM 28/16 A2980 RMK T02800160 IEM_DS3505
ZGGG,2001-09-27 03:00,ZGGG 270300Z AUTO 36008KT 16SM 30/18 A2977 RMK SLP087 T02960178 57005 IEM_DS3505
ZGGG,2001-09-27 04:00,ZGGG 270400Z AUTO 36008KT 6SM 29/16 A2977 RMK T02900160 IEM_DS3505
ZGGG,2001-09-27 05:00,ZGGG 270500Z AUTO 01010KT 6SM 31/17 A2974 RMK T03100170 IEM_DS3505
ZGGG,2001-09-27 06:00,ZGGG 270600Z AUTO 34008KT 17SM 32/19 A2971 RMK SLP059 T03160190 57027 IEM_DS3505
ZGGG,2001-09-27 07:00,ZGGG 270700Z AUTO 36010KT 6SM 32/16 A2968 RMK T03200160 IEM_DS3505
ZGGG,2001-09-27 08:00,ZGGG 270800Z AUTO 36010KT 6SM 32/17 A2968 RMK T03200170 IEM_DS3505
ZGGG,2001-09-27 09:00,ZGGG 270900Z AUTO 34008KT 17SM 32/19 A2971 RMK SLP059 T03160190 57027 IEM_DS3505
ZGGG,2001-09-27 10:00,ZGGG 271000Z AUTO 01012KT 6SM 31/16 A2971 RMK T03100160 IEM_DS3505
ZGGG,2001-09-27 11:00,ZGGG 271100Z AUTO 03008KT 6SM 29/17 A2974 RMK T02900170 IEM_DS3505
ZGGG,2001-09-27 12:00,ZGGG 271200Z AUTO 36004KT 11SM 28/19 A2977 RMK SLP081 T02840192 52022 IEM_DS3505
ZGGG,2001-09-27 13:00,ZGGG 271300Z AUTO 05006KT 6SM 27/18 A2980 RMK T02700180 IEM_DS3505
ZGGG,2001-09-27 14:00,ZGGG 271400Z AUTO 03006KT 6SM 27/18 A2980 RMK T02700180 IEM_DS3505
ZGGG,2001-09-27 15:00,ZGGG 271500Z AUTO 04006KT 11SM 28/18 A2980 RMK SLP095 T02750180 52015 IEM_DS3505
ZGGG,2001-09-27 16:00,ZGGG 271600Z AUTO 05006KT 6SM 26/17 A2980 RMK T02600170 IEM_DS3505
ZGGG,2001-09-27 17:00,ZGGG 271700Z AUTO 08004KT 6SM 25/17 A2980 RMK T02500170 IEM_DS3505
ZGGG,2001-09-27 18:00,ZGGG 271800Z AUTO 34002KT 10SM 25/19 A2980 RMK SLP091 T02540192 57004 IEM_DS3505
ZGGG,2001-09-27 19:00,ZGGG 271900Z AUTO 36006KT 6SM 26/17 A2980 RMK T02600170 IEM_DS3505
ZGGG,2001-09-27 20:00,ZGGG 272000Z AUTO 36004KT 6SM 26/16 A2980 RMK T02600160 IEM_DS3505
ZGGG,2001-09-27 21:00,ZGGG 272100Z AUTO 34004KT 9SM 24/18 A2980 RMK SLP091 T02440185 57001 IEM_DS3505
ZGGG,2001-09-27 22:00,ZGGG 272200Z AUTO 01006KT 6SM 26/16 A2980 RMK T02600160 IEM_DS3505
ZGGG,2001-09-27 23:00,ZGGG 272300Z AUTO 36004KT 6SM 25/16 A2983 RMK T02500160 IEM_DS3505
ZGGG,2001-09-28 00:00,ZGGG 280000Z AUTO 32006KT 9SM 26/18 A2985 RMK SLP108 T02580181 52017 IEM_DS3505
ZGGG,2001-09-28 01:00,ZGGG 280100Z AUTO 01010KT 6SM 27/15 A2985 RMK T02700150 IEM_DS3505
ZGGG,2001-09-28 02:00,ZGGG 280200Z AUTO 03014KT 6SM 28/16 A2985 RMK T02800160 IEM_DS3505
ZGGG,2001-09-28 03:00,ZGGG 280300Z AUTO 36006KT 11SM 30/18 A2985 RMK SLP108 T02980184 54000 IEM_DS3505
ZGGG,2001-09-28 04:00,ZGGG 280400Z AUTO 03014KT 6SM 31/17 A2983 RMK T03100170 IEM_DS3505
ZGGG,2001-09-28 05:00,ZGGG 280500Z AUTO 03012KT 6SM 31/17 A2980 RMK T03100170 IEM_DS3505
ZGGG,2001-09-28 06:00,ZGGG 280600Z AUTO 34004KT 12SM 31/20 A2977 RMK SLP084 T03140200 57023 IEM_DS3505
ZGGG,2001-09-28 07:00,ZGGG 280700Z AUTO 03010KT RMK IEM_DS3505
ZGGG,2001-09-28 08:00,ZGGG 280800Z AUTO 02008KT 6SM 31/17 A2974 RMK T03100170 IEM_DS3505
ZGGG,2001-09-28 09:00,ZGGG 280900Z AUTO 02006KT 9SM 31/21 A2974 RMK SLP080 T03120210 57005 IEM_DS3505
ZGGG,2001-09-28 10:00,ZGGG 281000Z AUTO 36008KT 6SM 30/17 A2977 RMK T03000170 IEM_DS3505
ZGGG,2001-09-28 11:00,ZGGG 281100Z AUTO 36008KT 6SM 29/17 A2977 RMK T02900170 IEM_DS3505
ZGGG,2001-09-28 12:00,ZGGG 281200Z AUTO 36006KT 9SM 28/20 A2980 RMK SLP091 T02830203 52011 IEM_DS3505
ZGGG,2001-09-28 13:00,ZGGG 281300Z AUTO 04010KT 6SM 28/18 A2980 RMK T02800180 IEM_DS3505
ZGGG,2001-09-28 14:00,ZGGG 281400Z AUTO 03010KT 6SM 28/18 A2983 RMK T02800180 IEM_DS3505
ZGGG,2001-09-28 15:00,ZGGG 281500Z AUTO 34004KT 10SM 27/18 A2983 RMK SLP100 T02720185 52009 IEM_DS3505
ZGGG,2001-09-28 17:00,ZGGG 281700Z AUTO 04008KT 6SM 25/17 A2983 RMK T02500170 IEM_DS3505
ZGGG,2001-09-28 18:00,ZGGG 281800Z AUTO 04004KT 9SM 26/18 A2983 RMK SLP101 T02580179 52001 IEM_DS3505
ZGGG,2001-09-28 19:00,ZGGG 281900Z AUTO 01010KT 6SM 26/17 A2983 RMK T02600170 IEM_DS3505
ZGGG,2001-09-28 20:00,ZGGG 282000Z AUTO 36008KT 6SM 25/17 A2983 RMK T02500170 IEM_DS3505
ZGGG,2001-09-28 21:00,ZGGG 282100Z AUTO 34006KT 10SM 24/18 A2983 RMK SLP103 T02420182 52002 IEM_DS3505
ZGGG,2001-09-28 22:00,ZGGG 282200Z AUTO 36008KT 6SM 24/17 A2985 RMK T02400170 IEM_DS3505
ZGGG,2001-09-28 23:00,ZGGG 282300Z AUTO 36008KT 6SM 24/17 A2985 RMK T02400170 IEM_DS3505
ZGGG,2001-09-29 00:00,ZGGG 290000Z AUTO 36006KT 11SM 25/18 A2985 RMK SLP117 T02540185 52014 IEM_DS3505
ZGGG,2001-09-29 01:00,ZGGG 290100Z AUTO 01008KT 6SM 27/17 A2988 RMK T02700170 IEM_DS3505
ZGGG,2001-09-29 02:00,ZGGG 290200Z AUTO 02010KT 6SM 28/17 A2988 RMK T02800170 IEM_DS3505
ZGGG,2001-09-29 03:00,ZGGG 290300Z AUTO 32004KT 12SM 30/20 A2988 RMK SLP119 T02950198 52002 IEM_DS3505
ZGGG,2001-09-29 04:00,ZGGG 290400Z AUTO 03014KT 6SM 30/16 A2985 RMK T03000160 IEM_DS3505
ZGGG,2001-09-29 05:00,ZGGG 290500Z AUTO 01008KT 7SM 31/18 A2983 RMK T03100180 IEM_DS3505
ZGGG,2001-09-29 06:00,ZGGG 290600Z AUTO 32008KT 12SM 32/21 A2980 RMK SLP090 T03170207 57028 IEM_DS3505
ZGGG,2001-09-29 07:00,ZGGG 290700Z AUTO 36010KT 6SM 31/17 A2977 RMK T03100170 IEM_DS3505
ZGGG,2001-09-29 08:00,ZGGG 290800Z AUTO 36010KT 6SM 32/17 A2977 RMK T03200170 IEM_DS3505
ZGGG,2001-09-29 09:00,ZGGG 290900Z AUTO 32008KT 12SM 31/21 A2977 RMK SLP084 T03130208 57007 IEM_DS3505
ZGGG,2001-09-29 10:00,ZGGG 291000Z AUTO 01010KT 6SM 31/17 A2977 RMK T03100170 IEM_DS3505
ZGGG,2001-09-29 11:00,ZGGG 291100Z AUTO 02008KT 6SM 30/18 A2980 RMK T03000180 IEM_DS3505
ZGGG,2001-09-29 12:00,ZGGG 291200Z AUTO 00000KT 11SM 29/21 A2980 RMK SLP097 T02880206 52013 IEM_DS3505
ZGGG,2001-09-29 13:00,ZGGG 291300Z AUTO 05008KT 6SM 28/19 A2983 RMK T02800190 IEM_DS3505
ZGGG,2001-09-29 14:00,ZGGG 291400Z AUTO 06006KT 6SM 27/19 A2985 RMK T02700190 IEM_DS3505
ZGGG,2001-09-29 15:00,ZGGG 291500Z AUTO 36006KT 10SM 28/20 A2985 RMK SLP114 T02760199 52017 IEM_DS3505
ZGGG,2001-09-29 16:00,ZGGG 291600Z AUTO 01004KT 6SM 27/19 A2985 RMK T02700190 IEM_DS3505
ZGGG,2001-09-29 17:00,ZGGG 291700Z AUTO 05004KT 6SM 26/19 A2985 RMK T02600190 IEM_DS3505
ZGGG,2001-09-29 18:00,ZGGG 291800Z AUTO 36004KT 9SM 26/20 A2985 RMK SLP110 T02590203 57004 IEM_DS3505
ZGGG,2001-09-29 19:00,ZGGG 291900Z AUTO 05004KT 6SM 25/19 A2985 RMK T02500190 IEM_DS3505
ZGGG,2001-09-29 20:00,ZGGG 292000Z AUTO 05004KT 6SM 25/19 A2985 RMK T02500190 IEM_DS3505
ZGGG,2001-09-29 21:00,ZGGG 292100Z AUTO 34004KT 9SM 25/20 A2985 RMK SLP110 T02480196 54000 IEM_DS3505
ZGGG,2001-09-29 22:00,ZGGG 292200Z AUTO 36006KT 6SM 26/18 A2985 RMK T02600180 IEM_DS3505
ZGGG,2001-09-29 23:00,ZGGG 292300Z AUTO 01006KT 26/18 A2988 RMK T02600180 IEM_DS3505
ZGGG,2001-09-30 00:00,ZGGG 300000Z AUTO 32004KT 7SM 26/20 A2991 RMK SLP125 T02620200 52015 IEM_DS3505
ZGGG,2001-09-30 02:00,ZGGG 300200Z AUTO 01008KT 7SM 29/18 A2991 RMK T02900180 IEM_DS3505
ZGGG,2001-09-30 03:00,ZGGG 300300Z AUTO 02006KT 7SM 30/20 A2991 RMK SLP130 T03000197 52005 IEM_DS3505
ZGGG,2001-09-30 04:00,ZGGG 300400Z AUTO 03012KT 6SM 31/17 A2988 RMK T03100170 IEM_DS3505
ZGGG,2001-09-30 05:00,ZGGG 300500Z AUTO 03010KT 7SM 32/17 A2985 RMK T03200170 IEM_DS3505
ZGGG,2001-09-30 06:00,ZGGG 300600Z AUTO 36008KT 10SM 33/20 A2983 RMK SLP100 T03260204 57029 IEM_DS3505
ZGGG,2001-09-30 07:00,ZGGG 300700Z AUTO 04010KT 7SM 33/17 A2980 RMK T03300170 IEM_DS3505
ZGGG,2001-09-30 08:00,ZGGG 300800Z AUTO 01008KT 7SM 33/17 A2980 RMK T03300170 IEM_DS3505
ZGGG,2001-09-30 09:00,ZGGG 300900Z AUTO 04002KT 10SM 32/20 A2980 RMK SLP093 T03200202 57008 IEM_DS3505
ZGGG,2001-09-30 10:00,ZGGG 301000Z AUTO 36006KT 6SM 32/17 A2983 RMK T03200170 IEM_DS3505
ZGGG,2001-09-30 11:00,ZGGG 301100Z AUTO 02008KT 6SM 31/17 A2983 RMK T03100170 IEM_DS3505
ZGGG,2001-09-30 12:00,ZGGG 301200Z AUTO 00000KT 9SM 29/21 A2985 RMK SLP112 T02940211 52019 IEM_DS3505
ZGGG,2001-09-30 13:00,ZGGG 301300Z AUTO 07004KT 29/19 A2988 RMK T02900190 IEM_DS3505
ZGGG,2001-09-30 14:00,ZGGG 301400Z AUTO 05006KT 6SM 28/19 A2988 RMK T02800190 IEM_DS3505
ZGGG,2001-09-30 15:00,ZGGG 301500Z AUTO 02002KT 9SM 28/21 A2988 RMK SLP127 T02820207 52015 IEM_DS3505
ZGGG,2001-09-30 16:00,ZGGG 301600Z AUTO 04008KT 6SM 27/18 A2991 RMK T02700180 IEM_DS3505
ZGGG,2001-09-30 17:00,ZGGG 301700Z AUTO 05006KT 6SM 27/18 A2991 RMK T02700180 IEM_DS3505
ZGGG,2001-09-30 18:00,ZGGG 301800Z AUTO 36004KT 9SM 27/20 A2988 RMK SLP123 T02660202 57003 IEM_DS3505
ZGGG,2001-09-30 19:00,ZGGG 301900Z AUTO 05006KT 6SM 26/19 A2988 RMK T02600190 IEM_DS3505
ZGGG,2001-09-30 20:00,ZGGG 302000Z AUTO 03008KT 6SM 26/18 A2988 RMK T02600180 IEM_DS3505
ZGGG,2001-09-30 21:00,ZGGG 302100Z AUTO 34002KT 9SM 25/20 A2991 RMK SLP129 T02530200 52005 IEM_DS3505
ZGGG,2001-09-30 22:00,ZGGG 302200Z AUTO 04004KT 6SM 24/19 A2991 RMK T02400190 IEM_DS3505
ZGGG,2001-09-30 23:00,ZGGG 302300Z AUTO 06006KT 3SM 24/19 A2994 RMK T02400190 IEM_DS3505
ZGGG,2001-10-01 00:00,ZGGG 010000Z AUTO 36004KT 10SM 26/19 A2997 RMK SLP150 T02640188 52021 IEM_DS3505
ZGGG,2001-10-01 01:00,ZGGG 010100Z AUTO 03008KT 6SM 27/17 A2997 RMK T02700170 IEM_DS3505
ZGGG,2001-10-01 02:00,ZGGG 010200Z AUTO 02010KT 6SM 28/17 A2997 RMK T02800170 IEM_DS3505
ZGGG,2001-10-01 03:00,ZGGG 010300Z AUTO 04004KT 11SM 30/18 A2997 RMK SLP154 T03040180 52004 IEM_DS3505
ZGGG,2001-10-01 04:00,ZGGG 010400Z AUTO 02008KT 6SM 31/15 A2994 RMK T03100150 IEM_DS3505
ZGGG,2001-10-01 05:00,ZGGG 010500Z AUTO 04008KT 6SM 32/15 A2994 RMK T03200150 IEM_DS3505
ZGGG,2001-10-01 06:00,ZGGG 010600Z AUTO 36006KT 15SM 32/19 A2991 RMK SLP131 T03220188 57023 IEM_DS3505
ZGGG,2001-10-01 07:00,ZGGG 010700Z AUTO 04004KT 6SM 32/16 A2988 RMK T03200160 IEM_DS3505
ZGGG,2001-10-01 08:00,ZGGG 010800Z AUTO 04004KT 7SM 32/16 A2988 RMK T03200160 IEM_DS3505
ZGGG,2001-10-01 09:00,ZGGG 010900Z AUTO 02004KT 12SM 32/18 A2988 RMK SLP122 T03170184 57009 IEM_DS3505
ZGGG,2001-10-01 10:00,ZGGG 011000Z AUTO 09004KT 6SM 30/17 A2988 RMK T03000170 IEM_DS3505
ZGGG,2001-10-01 11:00,ZGGG 011100Z AUTO 09004KT 6SM 29/16 A2991 RMK T02900160 IEM_DS3505
ZGGG,2001-10-01 12:00,ZGGG 011200Z AUTO 04002KT 11SM 28/21 A2991 RMK SLP136 T02830207 52014 IEM_DS3505
ZGGG,2001-10-01 13:00,ZGGG 011300Z AUTO 09004KT 6SM 29/16 A2994 RMK T02900160 IEM_DS3505
ZGGG,2001-10-01 14:00,ZGGG 011400Z AUTO 15004KT 6SM 29/18 A2994 RMK T02900180 IEM_DS3505
ZGGG,2001-10-01 15:00,ZGGG 011500Z AUTO 11004KT 9SM 27/21 A2997 RMK SLP149 T02720212 52013 IEM_DS3505
ZGGG,2001-10-01 16:00,ZGGG 011600Z AUTO 6SM 27/21 A2997 RMK T02700210 IEM_DS3505
ZGGG,2001-10-01 17:00,ZGGG 011700Z AUTO 19002KT 6SM 27/21 A2994 RMK T02700210 IEM_DS3505
ZGGG,2001-10-01 18:00,ZGGG 011800Z AUTO 11002KT 9SM 26/23 A2994 RMK SLP146 T02590228 57003 IEM_DS3505
ZGGG,2001-10-01 19:00,ZGGG 011900Z AUTO 06004KT 6SM 26/21 A2994 RMK T02600210 IEM_DS3505
ZGGG,2001-10-01 20:00,ZGGG 012000Z AUTO 4SM 25/21 A2994 RMK T02500210 IEM_DS3505
ZGGG,2001-10-01 21:00,ZGGG 012100Z AUTO 09004KT 7SM 25/23 A2997 RMK SLP150 T02530228 52004 IEM_DS3505
ZGGG,2001-10-01 22:00,ZGGG 012200Z AUTO 06004KT 3SM 25/21 A2997 RMK T02500210 IEM_DS3505
ZGGG,2001-10-01 23:00,ZGGG 012300Z AUTO 2 1/2SM 25/21 A3000 RMK T02500210 IEM_DS3505
ZGGG,2001-10-02 00:00,ZGGG 020000Z AUTO 16004KT 6SM 26/23 A3000 RMK SLP165 T02570226 52015 IEM_DS3505
ZGGG,2001-10-02 01:00,ZGGG 020100Z AUTO 08004KT 3SM 27/22 A3003 RMK T02700220 IEM_DS3505
ZGGG,2001-10-02 02:00,ZGGG 020200Z AUTO 12008KT 8SM 28/21 A3003 RMK T02800210 IEM_DS3505
ZGGG,2001-10-02 03:00,ZGGG 020300Z AUTO 11004KT 8SM 29/22 A3000 RMK SLP165 T02880225 54000 IEM_DS3505
ZGGG,2001-10-02 04:00,ZGGG 020400Z AUTO 09006KT 29/21 A2997 RMK T02900210 IEM_DS3505
ZGGG,2001-10-02 05:00,ZGGG 020500Z AUTO 09006KT 3SM 29/20 A2994 RMK T02900200 IEM_DS3505
ZGGG,2001-10-02 06:00,ZGGG 020600Z AUTO 07002KT 8SM 30/22 A2991 RMK SLP136 T03020220 57029 IEM_DS3505
ZGGG,2001-10-02 07:00,ZGGG 020700Z AUTO 14004KT 5SM 30/19 A2991 RMK T03000190 IEM_DS3505
ZGGG,2001-10-02 08:00,ZGGG 020800Z AUTO 14004KT 7SM 31/19 A2988 RMK T03100190 IEM_DS3505
ZGGG,2001-10-02 09:00,ZGGG 020900Z AUTO 00000KT 8SM 30/22 A2988 RMK SLP126 T03000221 57010 IEM_DS3505
ZGGG,2001-10-02 10:00,ZGGG 021000Z AUTO 12004KT 28/22 A2988 RMK T02800220 IEM_DS3505
ZGGG,2001-10-02 11:00,ZGGG 021100Z AUTO 16006KT 7SM 29/19 A2991 RMK T02900190 IEM_DS3505
ZGGG,2001-10-02 12:00,ZGGG 021200Z AUTO 20002KT 9SM 28/21 A2994 RMK SLP141 T02760214 52015 IEM_DS3505
ZGGG,2001-10-02 13:00,ZGGG 021300Z AUTO 17006KT 7SM 27/19 A2997 RMK T02700190 IEM_DS3505
ZGGG,2001-10-02 14:00,ZGGG 021400Z AUTO 17006KT 7SM 27/19 A2997 RMK T02700190 IEM_DS3505
ZGGG,2001-10-02 15:00,ZGGG 021500Z AUTO 18004KT 9SM 26/21 A2997 RMK SLP154 T02640207 52013 IEM_DS3505
ZGGG,2001-10-02 16:00,ZGGG 021600Z AUTO 20004KT 6SM 26/19 A2997 RMK T02600190 IEM_DS3505
ZGGG,2001-10-02 17:00,ZGGG 021700Z AUTO 6SM 26/19 A2997 RMK T02600190 IEM_DS3505
ZGGG,2001-10-02 18:00,ZGGG 021800Z AUTO 04002KT 7SM 25/22 A2997 RMK SLP147 T02510217 57007 IEM_DS3505
ZGGG,2001-10-02 19:00,ZGGG 021900Z AUTO 13002KT 26/19 A2997 RMK T02600190 IEM_DS3505
ZGGG,2001-10-02 20:00,ZGGG 022000Z AUTO 4SM 24/20 A2994 RMK T02400200 IEM_DS3505
ZGGG,2001-10-02 21:00,ZGGG 022100Z AUTO 07002KT 7SM 24/21 A2994 RMK SLP145 T02400214 57002 IEM_DS3505
ZGGG,2001-10-02 23:00,ZGGG 022300Z AUTO 1 1/4SM 24/20 A2997 RMK T02400200 IEM_DS3505
ZGGG,2001-10-03 00:00,ZGGG 030000Z AUTO 18002KT 6SM 25/22 RMK SLP161 T02510217 52016 IEM_DS3505
ZGGG,2001-10-03 03:00,ZGGG 030300Z AUTO 14004KT 9SM 28/22 RMK SLP168 T02780216 52007 IEM_DS3505
ZGGG,2001-10-03 04:00,ZGGG 030400Z AUTO 07002KT 3SM 29/19 A2997 RMK T02900190 IEM_DS3505
ZGGG,2001-10-03 05:00,ZGGG 030500Z AUTO 11004KT 3SM 29/19 A2994 RMK T02900190 IEM_DS3505
ZGGG,2001-10-03 06:00,ZGGG 030600Z AUTO 04002KT 8SM 30/22 A2991 RMK SLP136 T02990218 57032 IEM_DS3505
ZGGG,2001-10-03 07:00,ZGGG 030700Z AUTO 3SM 30/19 A2988 RMK T03000190 IEM_DS3505
ZGGG,2001-10-03 08:00,ZGGG 030800Z AUTO 3SM 30/19 A2985 RMK T03000190 IEM_DS3505
ZGGG,2001-10-03 09:00,ZGGG 030900Z AUTO 00000KT 7SM 30/23 A2985 RMK SLP119 T03000228 57017 IEM_DS3505
ZGGG,2001-10-03 10:00,ZGGG 031000Z AUTO 11004KT 2 1/2SM 29/21 A2985 RMK T02900210 IEM_DS3505
ZGGG,2001-10-03 11:00,ZGGG 031100Z AUTO 06002KT 2 1/2SM 28/20 A2988 RMK T02800200 IEM_DS3505
ZGGG,2001-10-03 12:00,ZGGG 031200Z AUTO 00000KT 8SM 27/23 A2991 RMK SLP135 T02720233 52016 IEM_DS3505
ZGGG,2001-10-03 13:00,ZGGG 031300Z AUTO 09002KT 2 1/2SM 28/21 A2994 RMK T02800210 IEM_DS3505
ZGGG,2001-10-03 14:00,ZGGG 031400Z AUTO 13002KT 2 1/2SM 28/21 A2994 RMK T02800210 IEM_DS3505
ZGGG,2001-10-03 15:00,ZGGG 031500Z AUTO 11002KT 7SM 27/23 A2997 RMK SLP152 T02680230 52017 IEM_DS3505
ZGGG,2001-10-03 16:00,ZGGG 031600Z AUTO 34004KT 2SM 25/21 A2997 RMK T02500210 IEM_DS3505
ZGGG,2001-10-03 17:00,ZGGG 031700Z AUTO 36006KT 7SM 24/20 A2997 RMK T02400200 IEM_DS3505
ZGGG,2001-10-03 18:00,ZGGG 031800Z AUTO 34004KT 7SM 24/22 A2997 RMK 60047 SLP151 T02400225 57001 IEM_DS3505
ZGGG,2001-10-03 19:00,ZGGG 031900Z AUTO 03008KT 7SM 23/19 A2997 RMK T02300190 IEM_DS3505
ZGGG,2001-10-03 20:00,ZGGG 032000Z AUTO 36008KT 7SM 24/18 A2997 RMK T02400180 IEM_DS3505
ZGGG,2001-10-03 21:00,ZGGG 032100Z AUTO 34004KT 8SM 23/20 A2997 RMK 70048 SLP145 T02280203 57006 IEM_DS3505
ZGGG,2001-10-03 22:00,ZGGG 032200Z AUTO 02006KT 7SM 23/17 A2997 RMK T02300170 IEM_DS3505
ZGGG,2001-10-03 23:00,ZGGG 032300Z AUTO 36008KT 6SM 23/17 A3000 RMK T02300170 IEM_DS3505
ZGGG,2001-10-04 00:00,ZGGG 040000Z AUTO 36006KT 9SM 23/20 A3000 RMK 70048 SLP163 T02330197 52018 IEM_DS3505
ZGGG,2001-10-04 01:00,ZGGG 040100Z AUTO 36008KT 5SM 24/18 A3003 RMK T02400180 IEM_DS3505
ZGGG,2001-10-04 02:00,ZGGG 040200Z AUTO 02008KT 7SM 25/18 A3003 RMK T02500180 IEM_DS3505
ZGGG,2001-10-04 03:00,ZGGG 040300Z AUTO 02004KT 10SM 25/20 A3003 RMK SLP174 T02460195 52011 IEM_DS3505
ZGGG,2001-10-04 04:00,ZGGG 040400Z AUTO 03010KT 5SM 26/17 A3003 RMK T02600170 IEM_DS3505
ZGGG,2001-10-04 05:00,ZGGG 040500Z AUTO 03012KT 7SM 26/17 A3000 RMK T02600170 IEM_DS3505
ZGGG,2001-10-04 06:00,ZGGG 040600Z AUTO 04004KT 10SM 27/20 A2997 RMK SLP152 T02710198 57022 IEM_DS3505
ZGGG,2001-10-04 07:00,ZGGG 040700Z AUTO 01010KT 7SM 26/17 A2997 RMK T02600170 IEM_DS3505
ZGGG,2001-10-04 08:00,ZGGG 040800Z AUTO 36008KT 7SM 26/17 A2997 RMK T02600170 IEM_DS3505
ZGGG,2001-10-04 09:00,ZGGG 040900Z AUTO 36008KT 10SM 25/18 A2997 RMK SLP151 T02490185 57002 IEM_DS3505
ZGGG,2001-10-04 10:00,ZGGG 041000Z AUTO 36006KT 11SM 24/18 A2997 RMK SLP163 T02360181 52012 IEM_DS3505
ZGGG,2001-10-04 11:00,ZGGG 041100Z AUTO 01008KT 7SM 24/16 A3000 RMK T02400160 IEM_DS3505
ZGGG,2001-10-04 12:00,ZGGG 041200Z AUTO 36006KT 11SM 24/18 A3000 RMK SLP163 T02360181 52012 IEM_DS3505
ZGGG,2001-10-04 13:00,ZGGG 041300Z AUTO 02008KT 7SM 24/16 A3003 RMK T02400160 IEM_DS3505
ZGGG,2001-10-04 14:00,ZGGG 041400Z AUTO 04010KT 7SM 23/16 A3003 RMK T02300160 IEM_DS3505
ZGGG,2001-10-04 15:00,ZGGG 041500Z AUTO 36002KT 10SM 23/18 A3003 RMK SLP167 T02290183 52004 IEM_DS3505
ZGGG,2001-10-04 16:00,ZGGG 041600Z AUTO 03008KT 6SM 23/16 A3003 RMK T02300160 IEM_DS3505
ZGGG,2001-10-04 17:00,ZGGG 041700Z AUTO 04008KT 6SM 22/16 A3000 RMK T02200160 IEM_DS3505
ZGGG,2001-10-04 18:00,ZGGG 041800Z AUTO 32002KT 10SM 22/18 A3000 RMK SLP157 T02210180 57009 IEM_DS3505
ZGGG,2001-10-04 19:00,ZGGG 041900Z AUTO 04008KT 6SM 22/16 A2997 RMK T02200160 IEM_DS3505
ZGGG,2001-10-04 20:00,ZGGG 042000Z AUTO 02006KT 6SM 22/16 A2997 RMK T02200160 IEM_DS3505
ZGGG,2001-10-04 21:00,ZGGG 042100Z AUTO 34004KT 9SM 22/18 A2997 RMK SLP155 T02150178 57003 IEM_DS3505
ZGGG,2001-10-04 22:00,ZGGG 042200Z AUTO 04006KT 6SM 22/17 A3000 RMK T02200170 IEM_DS3505
ZGGG,2001-10-04 23:00,ZGGG 042300Z AUTO 05006KT 7SM 22/17 A3000 RMK T02200170 IEM_DS3505
ZGGG,2001-10-05 00:00,ZGGG 050000Z AUTO 02002KT 10SM 22/18 A3000 RMK SLP165 T02220182 52010 IEM_DS3505
ZGGG,2001-10-05 01:00,ZGGG 050100Z AUTO 04006KT 7SM 22/16 A3003 RMK T02200160 IEM_DS3505
ZGGG,2001-10-05 02:00,ZGGG 050200Z AUTO 04008KT 7SM 23/17 A3003 RMK T02300170 IEM_DS3505
ZGGG,2001-10-05 03:00,ZGGG 050300Z AUTO 09006KT 10SM 26/20 A3003 RMK SLP167 T02620198 52002 IEM_DS3505
ZGGG,2001-10-05 04:00,ZGGG 050400Z AUTO 01006KT 5SM 26/17 A3000 RMK T02600170 IEM_DS3505
ZGGG,2001-10-05 05:00,ZGGG 050500Z AUTO 02004KT 5SM 27/18 A2997 RMK T02700180 IEM_DS3505
ZGGG,2001-10-05 06:00,ZGGG 050600Z AUTO 34004KT 9SM 26/21 A2994 RMK SLP141 T02650206 57025 IEM_DS3505
ZGGG,2001-10-05 07:00,ZGGG 050700Z AUTO 03006KT 5SM 27/18 A2991 RMK T02700180 IEM_DS3505
ZGGG,2001-10-05 08:00,ZGGG 050800Z AUTO 02006KT 5SM 27/18 A2991 RMK T02700180 IEM_DS3505
ZGGG,2001-10-05 09:00,ZGGG 050900Z AUTO 32002KT 9SM 27/21 A2994 RMK SLP138 T02710208 57003 IEM_DS3505
ZGGG,2001-10-05 10:00,ZGGG 051000Z AUTO 36006KT 26/18 A2994 RMK T02600180 IEM_DS3505
ZGGG,2001-10-05 11:00,ZGGG 051100Z AUTO 01006KT 26/18 A2994 RMK T02600180 IEM_DS3505
ZGGG,2001-10-05 12:00,ZGGG 051200Z AUTO 34002KT 7SM 25/21 A2997 RMK SLP147 T02490207 52008 IEM_DS3505
ZGGG,2001-10-05 13:00,ZGGG 051300Z AUTO 03008KT 5SM 24/18 A2997 RMK T02400180 IEM_DS3505
ZGGG,2001-10-05 14:00,ZGGG 051400Z AUTO 05008KT 6SM 23/18 A2997 RMK T02300180 IEM_DS3505
ZGGG,2001-10-05 15:00,ZGGG 051500Z AUTO 00000KT 9SM 24/20 A2997 RMK SLP153 T02380203 52007 IEM_DS3505
ZGGG,2001-10-05 16:00,ZGGG 051600Z AUTO 04004KT 4SM 23/18 A3000 RMK T02300180 IEM_DS3505
ZGGG,2001-10-05 17:00,ZGGG 051700Z AUTO 05004KT 4SM 22/18 A2997 RMK T02200180 IEM_DS3505
ZGGG,2001-10-05 18:00,ZGGG 051800Z AUTO 00000KT 9SM 23/20 A2997 RMK SLP146 T02320205 57007 IEM_DS3505
ZGGG,2001-10-05 19:00,ZGGG 051900Z AUTO 02004KT 4SM 23/19 A2994 RMK T02300190 IEM_DS3505
ZGGG,2001-10-05 20:00,ZGGG 052000Z AUTO 02006KT 4SM 23/18 A2994 RMK T02300180 IEM_DS3505
ZGGG,2001-10-05 21:00,ZGGG 052100Z AUTO 36004KT 8SM 23/20 A2994 RMK SLP142 T02320203 57004 IEM_DS3505
ZGGG,2001-10-05 22:00,ZGGG 052200Z AUTO 06004KT 4SM 23/19 A2994 RMK T02300190 IEM_DS3505
ZGGG,2001-10-05 23:00,ZGGG 052300Z AUTO 06004KT 3SM 23/19 A2997 RMK T02300190 IEM_DS3505
ZGGG,2001-10-06 00:00,ZGGG 060000Z AUTO 14002KT 7SM 24/21 A3000 RMK SLP155 T02410209 52013 IEM_DS3505
ZGGG,2001-10-06 01:00,ZGGG 060100Z AUTO 05002KT 2 1/2SM 24/19 A3000 RMK T02400190 IEM_DS3505
ZGGG,2001-10-06 02:00,ZGGG 060200Z AUTO 12004KT 3SM 26/19 A3000 RMK T02600190 IEM_DS3505
ZGGG,2001-10-06 03:00,ZGGG 060300Z AUTO 04004KT 7SM 27/21 A3000 RMK SLP158 T02680211 52003 IEM_DS3505
ZGGG,2001-10-06 04:00,ZGGG 060400Z AUTO 06002KT 3SM 28/19 A2997 RMK T02800190 IEM_DS3505
ZGGG,2001-10-06 05:00,ZGGG 060500Z AUTO 12004KT 3SM 28/19 A2994 RMK T02800190 IEM_DS3505
ZGGG,2001-10-06 06:00,ZGGG 060600Z AUTO 04002KT 6SM 29/20 A2991 RMK SLP129 T02900203 57029 IEM_DS3505
ZGGG,2001-10-06 07:00,ZGGG 060700Z AUTO 11004KT 3SM 29/18 A2988 RMK T02900180 IEM_DS3505
ZGGG,2001-10-06 08:00,ZGGG 060800Z AUTO 17004KT 3SM 29/18 A2988 RMK T02900180 IEM_DS3505
ZGGG,2001-10-06 09:00,ZGGG 060900Z AUTO 20004KT 6SM 29/21 A2988 RMK SLP122 T02940206 57007 IEM_DS3505
ZGGG,2001-10-06 10:00,ZGGG 061000Z AUTO 14002KT 2 1/2SM 29/18 A2988 RMK T02900180 IEM_DS3505
ZGGG,2001-10-06 11:00,ZGGG 061100Z AUTO 14004KT 3SM 27/19 A2988 RMK T02700190 IEM_DS3505
ZGGG,2001-10-06 12:00,ZGGG 061200Z AUTO 16006KT 5SM 27/21 A2991 RMK SLP130 T02720209 52008 IEM_DS3505
ZGGG,2001-10-06 13:00,ZGGG 061300Z AUTO 16006KT 6SM 27/19 A2991 RMK T02700190 IEM_DS3505
ZGGG,2001-10-06 14:00,ZGGG 061400Z AUTO 16006KT 6SM 27/19 A2994 RMK T02700190 IEM_DS3505
ZGGG,2001-10-06 15:00,ZGGG 061500Z AUTO 09004KT 7SM 25/22 A2994 RMK SLP138 T02540215 52008 IEM_DS3505
ZGGG,2001-10-06 16:00,ZGGG 061600Z AUTO 6SM 26/19 A2994 RMK T02600190 IEM_DS3505
ZGGG,2001-10-06 17:00,ZGGG 061700Z AUTO 08004KT 6SM 25/19 A2991 RMK T02500190 IEM_DS3505
ZGGG,2001-10-06 18:00,ZGGG 061800Z AUTO 09002KT 6SM 24/21 A2991 RMK SLP134 T02420212 57004 IEM_DS3505
ZGGG,2001-10-06 19:00,ZGGG 061900Z AUTO 6SM 24/20 A2991 RMK T02400200 IEM_DS3505
ZGGG,2001-10-06 20:00,ZGGG 062000Z AUTO 5SM 24/19 A2991 RMK T02400190 IEM_DS3505
ZGGG,2001-10-06 21:00,ZGGG 062100Z AUTO 00000KT 5SM 23/21 A2991 RMK SLP134 T02280211 54000 IEM_DS3505
ZGGG,2001-10-06 22:00,ZGGG 062200Z AUTO 06004KT 4SM 23/20 A2994 RMK T02300200 IEM_DS3505
ZGGG,2001-10-06 23:00,ZGGG 062300Z AUTO 06002KT 2SM 23/21 A2994 RMK T02300210 IEM_DS3505
ZGGG,2001-10-07 00:00,ZGGG 070000Z AUTO 11004KT 6SM 25/22 A2997 RMK SLP148 T02470216 52014 IEM_DS3505
ZGGG,2001-10-07 01:00,ZGGG 070100Z AUTO 15002KT 2 1/2SM 26/21 A2997 RMK T02600210 IEM_DS3505
ZGGG,2001-10-07 02:00,ZGGG 070200Z AUTO 15006KT 2 1/2SM 27/21 A2997 RMK T02700210 IEM_DS3505
ZGGG,2001-10-07 03:00,ZGGG 070300Z AUTO 14004KT 6SM 29/22 A2994 RMK SLP146 T02880224 57002 IEM_DS3505
ZGGG,2001-10-07 04:00,ZGGG 070400Z AUTO 20004KT 29/20 A2991 RMK T02900200 IEM_DS3505
ZGGG,2001-10-07 05:00,ZGGG 070500Z AUTO 17004KT 5SM 29/20 A2988 RMK T02900200 IEM_DS3505
ZGGG,2001-10-07 06:00,ZGGG 070600Z AUTO 14004KT 7SM 29/22 A2988 RMK SLP118 T02940221 57028 IEM_DS3505
ZGGG,2001-10-07 07:00,ZGGG 070700Z AUTO 16006KT 5SM 30/20 A2985 RMK T03000200 IEM_DS3505
ZGGG,2001-10-07 08:00,ZGGG 070800Z AUTO 13004KT 5SM 30/20 A2985 RMK T03000200 IEM_DS3505
ZGGG,2001-10-07 09:00,ZGGG 070900Z AUTO 00000KT 6SM 30/23 A2985 RMK SLP113 T03000234 57005 IEM_DS3505
ZGGG,2001-10-07 10:00,ZGGG 071000Z AUTO 09002KT 3SM 29/21 A2985 RMK T02900210 IEM_DS3505
ZGGG,2001-10-07 11:00,ZGGG 071100Z AUTO 08004KT 28/21 A2988 RMK T02800210 IEM_DS3505
ZGGG,2001-10-07 12:00,ZGGG 071200Z AUTO 00000KT 6SM 27/24 A2988 RMK SLP122 T02700235 52009 IEM_DS3505
ZGGG,2001-10-07 13:00,ZGGG 071300Z AUTO 14004KT 3SM 27/21 A2991 RMK T02700210 IEM_DS3505
ZGGG,2001-10-07 14:00,ZGGG 071400Z AUTO 16004KT 5SM 28/22 A2991 RMK T02800220 IEM_DS3505
ZGGG,2001-10-07 15:00,ZGGG 071500Z AUTO 14004KT 6SM 26/23 A2991 RMK SLP131 T02640234 52009 IEM_DS3505
ZGGG,2001-10-07 16:00,ZGGG 071600Z AUTO 17004KT 4SM 27/22 A2991 RMK T02700220 IEM_DS3505
ZGGG,2001-10-07 17:00,ZGGG 071700Z AUTO 17004KT 4SM 27/22 A2991 RMK T02700220 IEM_DS3505
ZGGG,2001-10-07 18:00,ZGGG 071800Z AUTO 18002KT 4SM 26/23 A2991 RMK SLP128 T02600232 57003 IEM_DS3505
ZGGG,2001-10-07 19:00,ZGGG 071900Z AUTO 17004KT 5SM 26/22 A2988 RMK T02600220 IEM_DS3505
ZGGG,2001-10-07 20:00,ZGGG 072000Z AUTO 16002KT 5SM 26/21 A2988 RMK T02600210 IEM_DS3505
ZGGG,2001-10-07 21:00,ZGGG 072100Z AUTO 00000KT 7SM 25/23 A2988 RMK SLP125 T02540234 57003 IEM_DS3505
ZGGG,2001-10-07 22:00,ZGGG 072200Z AUTO 21002KT 4SM 26/22 A2991 RMK T02600220 IEM_DS3505
ZGGG,2001-10-07 23:00,ZGGG 072300Z AUTO 4SM 26/22 A2991 RMK T02600220 IEM_DS3505
ZGGG,2001-10-08 00:00,ZGGG 080000Z AUTO 07002KT 7SM 26/24 A2994 RMK SLP139 T02590236 52014 IEM_DS3505
ZGGG,2001-10-08 01:00,ZGGG 080100Z AUTO 26004KT 3SM 27/22 A2994 RMK T02700220 IEM_DS3505
ZGGG,2001-10-08 02:00,ZGGG 080200Z AUTO 05002KT 3SM 27/22 A2994 RMK T02700220 IEM_DS3505
ZGGG,2001-10-08 03:00,ZGGG 080300Z AUTO 00000KT 7SM 29/24 A2991 RMK SLP139 T02880236 54000 IEM_DS3505
ZGGG,2001-10-08 04:00,ZGGG 080400Z AUTO 3SM 30/21 A2991 RMK T03000210 IEM_DS3505
ZGGG,2001-10-08 05:00,ZGGG 080500Z AUTO 15004KT 3SM 30/21 A2988 RMK T03000210 IEM_DS3505
ZGGG,2001-10-08 06:00,ZGGG 080600Z AUTO 00000KT 8SM 30/23 A2985 RMK SLP112 T03040232 57027 IEM_DS3505
ZGGG,2001-10-08 07:00,ZGGG 080700Z AUTO 19004KT 3SM 32/22 A2983 RMK T03200220 IEM_DS3505
ZGGG,2001-10-08 09:00,ZGGG 080900Z AUTO 09002KT 7SM 31/23 A2983 RMK SLP102 T03070232 57010 IEM_DS3505
ZGGG,2001-10-08 10:00,ZGGG 081000Z AUTO 13002KT 3SM 29/21 A2983 RMK T02900210 IEM_DS3505
ZGGG,2001-10-08 11:00,ZGGG 081100Z AUTO 36006KT 3SM 29/22 A2985 RMK T02900220 IEM_DS3505
ZGGG,2001-10-08 12:00,ZGGG 081200Z AUTO 09004KT 4SM 26/25 A2988 RMK 60067 SLP124 T02620246 52022 IEM_DS3505
ZGGG,2001-10-08 13:00,ZGGG 081300Z AUTO 36010KT 7SM 27/20 A2991 RMK T02700200 IEM_DS3505
ZGGG,2001-10-08 14:00,ZGGG 081400Z AUTO 02012KT 7SM 26/18 A2991 RMK T02600180 IEM_DS3505
ZGGG,2001-10-08 15:00,ZGGG 081500Z AUTO 36008KT 11SM 24/21 A2994 RMK SLP137 T02400207 52013 IEM_DS3505
ZGGG,2001-10-08 16:00,ZGGG 081600Z AUTO 36010KT 6SM 24/17 A2994 RMK T02400170 IEM_DS3505
ZGGG,2001-10-08 17:00,ZGGG 081700Z AUTO 36012KT 6SM 23/17 A2991 RMK T02300170 IEM_DS3505
ZGGG,2001-10-08 18:00,ZGGG 081800Z AUTO 36004KT 10SM 23/19 A2991 RMK 60001 SLP130 T02320186 57007 IEM_DS3505
ZGGG,2001-10-08 19:00,ZGGG 081900Z AUTO 36010KT 7SM 23/16 A2991 RMK T02300160 IEM_DS3505
ZGGG,2001-10-08 20:00,ZGGG 082000Z AUTO 36010KT 6SM 23/16 A2991 RMK T02300160 IEM_DS3505
ZGGG,2001-10-08 21:00,ZGGG 082100Z AUTO 34004KT 10SM 22/18 A2994 RMK 70068 SLP136 T02240181 52006 IEM_DS3505
ZGGG,2001-10-08 22:00,ZGGG 082200Z AUTO 36010KT 6SM 22/15 A2994 RMK T02200150 IEM_DS3505
ZGGG,2001-10-08 23:00,ZGGG 082300Z AUTO 36010KT 6SM 22/15 A2994 RMK T02200150 IEM_DS3505
ZGGG,2001-10-09 00:00,ZGGG 090000Z AUTO 02006KT 12SM 22/18 A2997 RMK 70068 SLP153 T02240176 52017 IEM_DS3505
ZGGG,2001-10-09 01:00,ZGGG 090100Z AUTO 36010KT 6SM 22/15 A3000 RMK T02200150 IEM_DS3505
ZGGG,2001-10-09 02:00,ZGGG 090200Z AUTO 35008KT 6SM 22/16 A3000 RMK T02200160 IEM_DS3505
ZGGG,2001-10-09 03:00,ZGGG 090300Z AUTO 04006KT 14SM 23/18 A3000 RMK SLP159 T02340178 52005 IEM_DS3505
ZGGG,2001-10-09 04:00,ZGGG 090400Z AUTO 36008KT 7SM 23/17 A2997 RMK T02300170 IEM_DS3505
ZGGG,2001-10-09 05:00,ZGGG 090500Z AUTO 01010KT 7SM 24/17 A2994 RMK T02400170 IEM_DS3505
ZGGG,2001-10-09 06:00,ZGGG 090600Z AUTO 07008KT 14SM 26/18 RMK 60003 SLP136 T02650184 57022 IEM_DS3505
ZGGG,2001-10-09 07:00,ZGGG 090700Z AUTO 02010KT 7SM 26/16 A2991 RMK T02600160 IEM_DS3505
ZGGG,2001-10-09 08:00,ZGGG 090800Z AUTO 04010KT 7SM 26/16 A2991 RMK T02600160 IEM_DS3505
ZGGG,2001-10-09 09:00,ZGGG 090900Z AUTO 36004KT 12SM 25/18 A2991 RMK SLP132 T02540180 57004 IEM_DS3505
ZGGG,2001-10-09 10:00,ZGGG 091000Z AUTO 01010KT 6SM 26/16 A2994 RMK T02600160 IEM_DS3505
ZGGG,2001-10-09 11:00,ZGGG 091100Z AUTO 01010KT 6SM 25/15 A2994 RMK T02500150 IEM_DS3505
ZGGG,2001-10-09 12:00,ZGGG 091200Z AUTO 02006KT 11SM 24/17 A2997 RMK SLP152 T02420166 52019 IEM_DS3505
ZGGG,2001-10-09 13:00,ZGGG 091300Z AUTO 03008KT 6SM 24/16 A3000 RMK T02400160 IEM_DS3505
ZGGG,2001-10-09 14:00,ZGGG 091400Z AUTO 05008KT 6SM 22/15 A3000 RMK T02200150 IEM_DS3505
ZGGG,2001-10-09 15:00,ZGGG 091500Z AUTO 00000KT 12SM 22/17 A3000 RMK SLP162 T02210169 52010 IEM_DS3505
ZGGG,2001-10-09 16:00,ZGGG 091600Z AUTO 05004KT 6SM 22/14 A3000 RMK T02200140 IEM_DS3505
ZGGG,2001-10-09 17:00,ZGGG 091700Z AUTO 03006KT 6SM 22/15 A3000 RMK T02200150 IEM_DS3505
ZGGG,2001-10-09 18:00,ZGGG 091800Z AUTO 00000KT 11SM 22/16 A2997 RMK SLP153 T02190163 57009 IEM_DS3505
ZGGG,2001-10-09 19:00,ZGGG 091900Z AUTO 04008KT 6SM 21/15 A2997 RMK T02100150 IEM_DS3505
ZGGG,2001-10-09 20:00,ZGGG 092000Z AUTO 03008KT 6SM 21/14 A2997 RMK T02100140 IEM_DS3505
ZGGG,2001-10-09 21:00,ZGGG 092100Z AUTO 00000KT 11SM 21/16 A2997 RMK 70003 SLP150 T02110160 57003 IEM_DS3505
ZGGG,2001-10-09 22:00,ZGGG 092200Z AUTO 02008KT 6SM 22/14 A2997 RMK T02200140 IEM_DS3505
ZGGG,2001-10-09 23:00,ZGGG 092300Z AUTO 36004KT 6SM 22/14 A3000 RMK T02200140 IEM_DS3505
ZGGG,2001-10-10 00:00,ZGGG 100000Z AUTO 34002KT 11SM 22/16 A3003 RMK 70003 SLP173 T02180160 52023 IEM_DS3505
ZGGG,2001-10-10 01:00,ZGGG 100100Z AUTO 03008KT 6SM 23/13 A3006 RMK T02300130 IEM_DS3505
ZGGG,2001-10-10 02:00,ZGGG 100200Z AUTO 03008KT 6SM 24/12 A3006 RMK T02400120 IEM_DS3505
ZGGG,2001-10-10 03:00,ZGGG 100300Z AUTO 32002KT 14SM 26/15 A3003 RMK SLP174 T02630153 52001 IEM_DS3505
ZGGG,2001-10-10 04:00,ZGGG 100400Z AUTO 03006KT 7SM 27/12 A3003 RMK T02700120 IEM_DS3505
ZGGG,2001-10-10 05:00,ZGGG 100500Z AUTO 04004KT 7SM 28/13 A3000 RMK T02800130 IEM_DS3505
ZGGG,2001-10-10 06:00,ZGGG 100600Z AUTO 18002KT 16SM 29/18 A2997 RMK SLP149 T02860175 57024 IEM_DS3505
ZGGG,2001-10-10 08:00,ZGGG 100800Z AUTO 35006KT 6SM 29/13 A2994 RMK T02900130 IEM_DS3505
ZGGG,2001-10-10 09:00,ZGGG 100900Z AUTO 00000KT 13SM 28/18 A2994 RMK SLP141 T02840183 57008 IEM_DS3505
ZGGG,2001-10-10 10:00,ZGGG 101000Z AUTO 33004KT 6SM 28/13 A2994 RMK T02800130 IEM_DS3505
ZGGG,2001-10-10 11:00,ZGGG 101100Z AUTO 14002KT 6SM 27/14 A2997 RMK T02700140 IEM_DS3505
ZGGG,2001-10-10 12:00,ZGGG 101200Z AUTO 00000KT 9SM 25/20 A2997 RMK SLP151 T02470198 52009 IEM_DS3505
ZGGG,2001-10-10 13:00,ZGGG 101300Z AUTO 10002KT 25/16 A2997 RMK T02500160 IEM_DS3505
ZGGG,2001-10-10 14:00,ZGGG 101400Z AUTO 25/17 A3000 RMK T02500170 IEM_DS3505
ZGGG,2001-10-10 15:00,ZGGG 101500Z AUTO 00000KT 11SM 24/20 A3000 RMK SLP160 T02410198 52010 IEM_DS3505
ZGGG,2001-10-10 16:00,ZGGG 101600Z AUTO 3SM 24/17 A3000 RMK T02400170 IEM_DS3505
ZGGG,2001-10-10 17:00,ZGGG 101700Z AUTO 3SM 24/17 A2997 RMK T02400170 IEM_DS3505
ZGGG,2001-10-10 18:00,ZGGG 101800Z AUTO 00000KT 10SM 22/19 A2997 RMK SLP155 T02250189 57005 IEM_DS3505
ZGGG,2001-10-10 19:00,ZGGG 101900Z AUTO 2 1/2SM 23/17 A2997 RMK T02300170 IEM_DS3505
ZGGG,2001-10-10 20:00,ZGGG 102000Z AUTO 06004KT 4SM 22/17 A2997 RMK T02200170 IEM_DS3505
ZGGG,2001-10-10 21:00,ZGGG 102100Z AUTO 07002KT 6SM 21/19 A3000 RMK SLP158 T02140189 52003 IEM_DS3505
ZGGG,2001-10-10 22:00,ZGGG 102200Z AUTO 03004KT 3SM 21/17 A3000 RMK T02100170 IEM_DS3505
ZGGG,2001-10-10 23:00,ZGGG 102300Z AUTO 06004KT 2 1/2SM 22/18 A3003 RMK T02200180 IEM_DS3505
ZGGG,2001-10-11 00:00,ZGGG 110000Z AUTO 07004KT 7SM 24/19 A3003 RMK SLP177 T02370194 52018 IEM_DS3505
ZGGG,2001-10-11 01:00,ZGGG 110100Z AUTO 2SM 25/17 A3006 RMK T02500170 IEM_DS3505
ZGGG,2001-10-11 02:00,ZGGG 110200Z AUTO 03004KT 9SM 27/17 A3006 RMK T02700170 IEM_DS3505
ZGGG,2001-10-11 03:00,ZGGG 110300Z AUTO 32002KT 9SM 28/18 A3003 RMK SLP175 T02820183 57001 IEM_DS3505
ZGGG,2001-10-11 04:00,ZGGG 110400Z AUTO 05004KT 6SM 29/15 A3000 RMK T02900150 IEM_DS3505
ZGGG,2001-10-11 05:00,ZGGG 110500Z AUTO 10006KT 6SM 30/14 A2997 RMK T03000140 IEM_DS3505
ZGGG,2001-10-11 06:00,ZGGG 110600Z AUTO 34002KT 12SM 31/17 A2994 RMK SLP145 T03080174 57030 IEM_DS3505
ZGGG,2001-10-11 07:00,ZGGG 110700Z AUTO 09004KT 7SM 30/14 A2991 RMK T03000140 IEM_DS3505
ZGGG,2001-10-11 08:00,ZGGG 110800Z AUTO 11004KT 7SM 31/14 A2991 RMK T03100140 IEM_DS3505
ZGGG,2001-10-11 09:00,ZGGG 110900Z AUTO 00000KT 9SM 30/18 A2991 RMK SLP135 T03000181 57010 IEM_DS3505
ZGGG,2001-10-11 10:00,ZGGG 111000Z AUTO 12004KT 6SM 29/13 A2994 RMK T02900130 IEM_DS3505
ZGGG,2001-10-11 11:00,ZGGG 111100Z AUTO 16002KT 28/15 A2994 RMK T02800150 IEM_DS3505
ZGGG,2001-10-11 12:00,ZGGG 111200Z AUTO 04002KT 9SM 26/20 A2997 RMK SLP151 T02560198 52016 IEM_DS3505
ZGGG,2001-10-11 13:00,ZGGG 111300Z AUTO 14006KT 26/17 A3000 RMK T02600170 IEM_DS3505
ZGGG,2001-10-11 14:00,ZGGG 111400Z AUTO 19004KT 6SM 27/18 A3000 RMK T02700180 IEM_DS3505
ZGGG,2001-10-11 15:00,ZGGG 111500Z AUTO 00000KT 8SM 25/20 A3000 RMK SLP164 T02530196 52013 IEM_DS3505
ZGGG,2001-10-11 16:00,ZGGG 111600Z AUTO 17002KT 6SM 25/18 A3000 RMK T02500180 IEM_DS3505
ZGGG,2001-10-11 17:00,ZGGG 111700Z AUTO 20004KT 6SM 25/18 A3000 RMK T02500180 IEM_DS3505
ZGGG,2001-10-11 18:00,ZGGG 111800Z AUTO 07002KT 8SM 24/20 A3000 RMK SLP157 T02360202 57007 IEM_DS3505
ZGGG,2001-10-11 19:00,ZGGG 111900Z AUTO 6SM 23/18 A2997 RMK T02300180 IEM_DS3505
ZGGG,2001-10-11 20:00,ZGGG 112000Z AUTO 06002KT 6SM 22/18 A2997 RMK T02200180 IEM_DS3505
ZGGG,2001-10-11 21:00,ZGGG 112100Z AUTO 00000KT 7SM 22/20 A2997 RMK SLP153 T02240201 57004 IEM_DS3505
ZGGG,2001-10-11 22:00,ZGGG 112200Z AUTO 06002KT 4SM 22/18 A3000 RMK T02200180 IEM_DS3505
ZGGG,2001-10-11 23:00,ZGGG 112300Z AUTO 2 1/2SM 22/18 A3000 RMK T02200180 IEM_DS3505
ZGGG,2001-10-12 00:00,ZGGG 120000Z AUTO 09002KT 6SM 24/20 A3003 RMK SLP170 T02420205 52017 IEM_DS3505
ZGGG,2001-10-12 01:00,ZGGG 120100Z AUTO 04004KT 3SM 26/19 A3003 RMK T02600190 IEM_DS3505
ZGGG,2001-10-12 02:00,ZGGG 120200Z AUTO 09004KT 7SM 26/18 A3003 RMK T02600180 IEM_DS3505
ZGGG,2001-10-12 03:00,ZGGG 120300Z AUTO 09002KT 7SM 29/20 A3003 RMK SLP167 T02860203 57003 IEM_DS3505
ZGGG,2001-10-12 04:00,ZGGG 120400Z AUTO 02004KT 29/17 A3000 RMK T02900170 IEM_DS3505
ZGGG,2001-10-12 05:00,ZGGG 120500Z AUTO 05006KT 29/18 A2997 RMK T02900180 IEM_DS3505
ZGGG,2001-10-12 06:00,ZGGG 120600Z AUTO 07004KT 12SM 30/20 A2994 RMK SLP138 T03020200 57029 IEM_DS3505
ZGGG,2001-10-12 07:00,ZGGG 120700Z AUTO 08004KT 29/17 A2991 RMK T02900170 IEM_DS3505
ZGGG,2001-10-12 08:00,ZGGG 120800Z AUTO 13004KT 30/17 A2991 RMK T03000170 IEM_DS3505
ZGGG,2001-10-12 09:00,ZGGG 120900Z AUTO 16002KT 11SM 30/20 A2988 RMK SLP127 T03010197 57011 IEM_DS3505
ZGGG,2001-10-12 10:00,ZGGG 121000Z AUTO 13004KT 3SM 29/18 A2988 RMK T02900180 IEM_DS3505
ZGGG,2001-10-12 11:00,ZGGG 121100Z AUTO 14004KT 3SM 28/18 A2991 RMK T02800180 IEM_DS3505
ZGGG,2001-10-12 12:00,ZGGG 121200Z AUTO 16004KT 9SM 27/21 A2991 RMK SLP139 T02660209 52012 IEM_DS3505
ZGGG,2001-10-12 13:00,ZGGG 121300Z AUTO 16006KT 27/19 A2994 RMK T02700190 IEM_DS3505
ZGGG,2001-10-12 14:00,ZGGG 121400Z AUTO 17006KT 5SM 26/19 A2997 RMK T02600190 IEM_DS3505
ZGGG,2001-10-12 15:00,ZGGG 121500Z AUTO 18004KT 8SM 25/21 A2997 RMK SLP151 T02520207 52012 IEM_DS3505
ZGGG,2001-10-12 16:00,ZGGG 121600Z AUTO 17004KT 6SM 25/18 A2997 RMK T02500180 IEM_DS3505
ZGGG,2001-10-12 17:00,ZGGG 121700Z AUTO 16002KT 6SM 25/19 A2997 RMK T02500190 IEM_DS3505
ZGGG,2001-10-12 18:00,ZGGG 121800Z AUTO 09002KT 7SM 24/21 A2994 RMK SLP141 T02350206 57010 IEM_DS3505
ZGGG,2001-10-12 19:00,ZGGG 121900Z AUTO 6SM 23/19 A2991 RMK T02300190 IEM_DS3505
ZGGG,2001-10-12 20:00,ZGGG 122000Z AUTO 08002KT 4SM 23/19 A2991 RMK T02300190 IEM_DS3505
ZGGG,2001-10-12 21:00,ZGGG 122100Z AUTO 00000KT 7SM 23/20 A2991 RMK SLP136 T02260201 57005 IEM_DS3505
ZGGG,2001-10-12 22:00,ZGGG 122200Z AUTO 4SM 23/19 A2994 RMK T02300190 IEM_DS3505
ZGGG,2001-10-12 23:00,ZGGG 122300Z AUTO 2 1/2SM 23/19 A2994 RMK T02300190 IEM_DS3505
ZGGG,2001-10-13 00:00,ZGGG 130000Z AUTO 00000KT 6SM 24/21 A2997 RMK SLP151 T02360207 52015 IEM_DS3505
ZGGG,2001-10-13 01:00,ZGGG 130100Z AUTO 19004KT 3SM 26/19 A2997 RMK T02600190 IEM_DS3505
ZGGG,2001-10-13 02:00,ZGGG 130200Z AUTO 16004KT 3SM 27/19 A2997 RMK T02700190 IEM_DS3505
ZGGG,2001-10-13 03:00,ZGGG 130300Z AUTO 25002KT 6SM 27/21 A2994 RMK SLP148 T02670208 57003 IEM_DS3505
ZGGG,2001-10-13 04:00,ZGGG 130400Z AUTO 15004KT 3SM 28/19 A2994 RMK T02800190 IEM_DS3505
ZGGG,2001-10-13 05:00,ZGGG 130500Z AUTO 12004KT 3SM 29/18 A2991 RMK T02900180 IEM_DS3505
ZGGG,2001-10-13 06:00,ZGGG 130600Z AUTO 16002KT 9SM 29/21 A2988 RMK SLP120 T02940207 57028 IEM_DS3505
ZGGG,2001-10-13 07:00,ZGGG 130700Z AUTO 18004KT 3SM 28/18 A2985 RMK T02800180 IEM_DS3505
ZGGG,2001-10-13 08:00,ZGGG 130800Z AUTO 17006KT 3SM 29/18 A2985 RMK T02900180 IEM_DS3505
ZGGG,2001-10-13 09:00,ZGGG 130900Z AUTO 16004KT 7SM 28/21 A2985 RMK SLP109 T02800207 57011 IEM_DS3505
ZGGG,2001-10-13 10:00,ZGGG 131000Z AUTO 15006KT 3SM 27/18 A2985 RMK T02700180 IEM_DS3505
ZGGG,2001-10-13 11:00,ZGGG 131100Z AUTO 16002KT 3SM 27/18 A2985 RMK T02700180 IEM_DS3505
ZGGG,2001-10-13 12:00,ZGGG 131200Z AUTO 00000KT 7SM 26/21 A2988 RMK SLP122 T02550210 52013 IEM_DS3505
ZGGG,2001-10-13 13:00,ZGGG 131300Z AUTO 18002KT 3SM 27/19 A2988 RMK T02700190 IEM_DS3505
ZGGG,2001-10-13 14:00,ZGGG 131400Z AUTO 3SM 26/19 A2991 RMK T02600190 IEM_DS3505
ZGGG,2001-10-13 15:00,ZGGG 131500Z AUTO 09002KT 6SM 24/21 A2991 RMK SLP130 T02430210 52008 IEM_DS3505
ZGGG,2001-10-13 16:00,ZGGG 131600Z AUTO 12002KT 3SM 26/19 A2991 RMK T02600190 IEM_DS3505
ZGGG,2001-10-13 17:00,ZGGG 131700Z AUTO 17004KT 25/18 A2991 RMK T02500180 IEM_DS3505
ZGGG,2001-10-13 18:00,ZGGG 131800Z AUTO 14006KT 7SM 24/21 A2991 RMK SLP129 T02420206 57001 IEM_DS3505
ZGGG,2001-10-13 19:00,ZGGG 131900Z AUTO 17006KT 4SM 24/19 A2988 RMK T02400190 IEM_DS3505
ZGGG,2001-10-13 20:00,ZGGG 132000Z AUTO 13002KT 7SM 24/18 A2991 RMK T02400180 IEM_DS3505
ZGGG,2001-10-13 21:00,ZGGG 132100Z AUTO 09002KT 7SM 23/20 A2991 RMK SLP128 T02330204 57001 IEM_DS3505
ZGGG,2001-10-13 22:00,ZGGG 132200Z AUTO 4SM 24/19 A2991 RMK T02400190 IEM_DS3505
ZGGG,2001-10-13 23:00,ZGGG 132300Z AUTO 05004KT 3SM 23/19 A2991 RMK T02300190 IEM_DS3505
ZGGG,2001-10-14 00:00,ZGGG 140000Z AUTO 07002KT 7SM 24/20 A2994 RMK SLP139 T02420204 52011 IEM_DS3505
ZGGG,2001-10-14 01:00,ZGGG 140100Z AUTO 08004KT 3SM 25/18 A2994 RMK T02500180 IEM_DS3505
ZGGG,2001-10-14 02:00,ZGGG 140200Z AUTO 36004KT 2 1/2SM 26/19 A2994 RMK T02600190 IEM_DS3505
ZGGG,2001-10-14 03:00,ZGGG 140300Z AUTO 09002KT 6SM 28/21 A2991 RMK SLP134 T02830210 57005 IEM_DS3505
ZGGG,2001-10-14 04:00,ZGGG 140400Z AUTO 31006KT 2SM 27/19 A2988 RMK T02700190 IEM_DS3505
ZGGG,2001-10-14 05:00,ZGGG 140500Z AUTO 28004KT 2SM 28/19 A2985 RMK T02800190 IEM_DS3505
ZGGG,2001-10-14 06:00,ZGGG 140600Z AUTO 36004KT 6SM 30/20 A2983 RMK SLP104 T03020196 57030 IEM_DS3505
ZGGG,2001-10-14 07:00,ZGGG 140700Z AUTO 28004KT 2 1/2SM 29/17 A2980 RMK T02900170 IEM_DS3505
ZGGG,2001-10-14 08:00,ZGGG 140800Z AUTO 36002KT 3SM 29/17 A2980 RMK T02900170 IEM_DS3505
ZGGG,2001-10-14 09:00,ZGGG 140900Z AUTO 14004KT 7SM 29/20 A2980 RMK SLP097 T02930198 57007 IEM_DS3505
ZGGG,2001-10-14 10:00,ZGGG 141000Z AUTO 24004KT 2SM 28/17 A2983 RMK T02800170 IEM_DS3505
ZGGG,2001-10-14 11:00,ZGGG 141100Z AUTO 25002KT 2 1/2SM 28/17 A2983 RMK T02800170 IEM_DS3505
ZGGG,2001-10-14 12:00,ZGGG 141200Z AUTO 00000KT 5SM 26/22 A2985 RMK SLP114 T02630217 52017 IEM_DS3505
ZGGG,2001-10-14 13:00,ZGGG 141300Z AUTO 14002KT 2 1/2SM 27/19 A2988 RMK T02700190 IEM_DS3505
ZGGG,2001-10-14 14:00,ZGGG 141400Z AUTO 14006KT 26/19 A2991 RMK T02600190 IEM_DS3505
ZGGG,2001-10-14 15:00,ZGGG 141500Z AUTO 16004KT 9SM 25/20 A2991 RMK SLP137 T02500203 52023 IEM_DS3505
ZGGG,2001-10-14 16:00,ZGGG 141600Z AUTO 17006KT 6SM 26/19 A2991 RMK T02600190 IEM_DS3505
ZGGG,2001-10-14 17:00,ZGGG 141700Z AUTO 18006KT 6SM 25/18 A2991 RMK T02500180 IEM_DS3505
ZGGG,2001-10-14 18:00,ZGGG 141800Z AUTO 00000KT 8SM 24/21 A2991 RMK SLP134 T02380206 57003 IEM_DS3505
ZGGG,2001-10-14 19:00,ZGGG 141900Z AUTO 7SM 24/19 A2991 RMK T02400190 IEM_DS3505
ZGGG,2001-10-14 20:00,ZGGG 142000Z AUTO 7SM 23/19 A2991 RMK T02300190 IEM_DS3505
ZGGG,2001-10-14 21:00,ZGGG 142100Z AUTO 07002KT 7SM 23/21 A2991 RMK SLP131 T02330207 57003 IEM_DS3505
ZGGG,2001-10-14 22:00,ZGGG 142200Z AUTO 7SM 23/19 A2991 RMK T02300190 IEM_DS3505
ZGGG,2001-10-14 23:00,ZGGG 142300Z AUTO 07002KT 2 1/2SM 22/19 A2994 RMK T02200190 IEM_DS3505
ZGGG,2001-10-15 00:00,ZGGG 150000Z AUTO 34004KT 6SM 24/21 A2994 RMK SLP141 T02390210 52010 IEM_DS3505
ZGGG,2001-10-15 01:00,ZGGG 150100Z AUTO 03004KT 2SM 25/19 A2994 RMK T02500190 IEM_DS3505
ZGGG,2001-10-15 02:00,ZGGG 150200Z AUTO 34004KT 2SM 26/19 A2994 RMK T02600190 IEM_DS3505
ZGGG,2001-10-15 03:00,ZGGG 150300Z AUTO 29004KT 6SM 28/21 A2994 RMK SLP143 T02830210 52002 IEM_DS3505
ZGGG,2001-10-15 04:00,ZGGG 150400Z AUTO 01006KT 2SM 29/19 A2991 RMK T02900190 IEM_DS3505
ZGGG,2001-10-15 05:00,ZGGG 150500Z AUTO 02006KT 3SM 30/18 A2988 RMK T03000180 IEM_DS3505
ZGGG,2001-10-15 06:00,ZGGG 150600Z AUTO 09004KT 9SM 31/20 A2985 RMK SLP114 T03100195 57029 IEM_DS3505
ZGGG,2001-10-15 07:00,ZGGG 150700Z AUTO 36004KT 5SM 32/17 A2983 RMK T03200170 IEM_DS3505
ZGGG,2001-10-15 08:00,ZGGG 150800Z AUTO 34006KT 5SM 32/16 A2983 RMK T03200160 IEM_DS3505
ZGGG,2001-10-15 09:00,ZGGG 150900Z AUTO 32004KT 10SM 31/20 A2983 RMK SLP100 T03080195 57014 IEM_DS3505
ZGGG,2001-10-15 10:00,ZGGG 151000Z AUTO 36004KT 31/15 A2983 RMK T03100150 IEM_DS3505
ZGGG,2001-10-15 11:00,ZGGG 151100Z AUTO 29/17 A2985 RMK T02900170 IEM_DS3505
ZGGG,2001-10-15 12:00,ZGGG 151200Z AUTO 34002KT 9SM 27/20 A2985 RMK SLP118 T02660201 52018 IEM_DS3505
ZGGG,2001-10-15 13:00,ZGGG 151300Z AUTO 05004KT 27/18 A2988 RMK T02700180 IEM_DS3505
ZGGG,2001-10-15 14:00,ZGGG 151400Z AUTO 03006KT 3SM 27/19 A2988 RMK T02700190 IEM_DS3505
ZGGG,2001-10-15 15:00,ZGGG 151500Z AUTO 01010KT 27/18 A2991 RMK T02700180 IEM_DS3505
ZGGG,2001-10-15 16:00,ZGGG 151600Z AUTO 02008KT 26/18 A2991 RMK T02600180 IEM_DS3505
ZGGG,2001-10-15 17:00,ZGGG 151700Z AUTO 36008KT 26/18 A2991 RMK T02600180 IEM_DS3505
ZGGG,2001-10-15 18:00,ZGGG 151800Z AUTO 34004KT 9SM 24/19 A2991 RMK SLP127 T02410193 52001 IEM_DS3505
ZGGG,2001-10-15 19:00,ZGGG 151900Z AUTO 02012KT 6SM 25/17 A2988 RMK T02500170 IEM_DS3505
ZGGG,2001-10-15 20:00,ZGGG 152000Z AUTO 03008KT 6SM 23/16 A2988 RMK T02300160 IEM_DS3505
ZGGG,2001-10-15 21:00,ZGGG 152100Z AUTO 34004KT 8SM 23/17 A2988 RMK SLP122 T02320174 57005 IEM_DS3505
ZGGG,2001-10-15 22:00,ZGGG 152200Z AUTO 01006KT 6SM 23/16 A2991 RMK T02300160 IEM_DS3505
ZGGG,2001-10-15 23:00,ZGGG 152300Z AUTO 01006KT 23/16 A2991 RMK T02300160 IEM_DS3505
ZGGG,2001-10-16 00:00,ZGGG 160000Z AUTO 36006KT 8SM 23/18 A2994 RMK SLP138 T02300177 52016 IEM_DS3505
ZGGG,2001-10-16 01:00,ZGGG 160100Z AUTO 36010KT 24/16 A2994 RMK T02400160 IEM_DS3505
ZGGG,2001-10-16 02:00,ZGGG 160200Z AUTO 36008KT 8SM 25/16 A2994 RMK T02500160 IEM_DS3505
ZGGG,2001-10-16 03:00,ZGGG 160300Z AUTO 36006KT 8SM 27/17 A2991 RMK SLP133 T02740173 57005 IEM_DS3505
ZGGG,2001-10-16 04:00,ZGGG 160400Z AUTO 36008KT 5SM 28/14 A2988 RMK T02800140 IEM_DS3505
ZGGG,2001-10-16 05:00,ZGGG 160500Z AUTO 36010KT 5SM 29/16 A2985 RMK T02900160 IEM_DS3505
ZGGG,2001-10-16 06:00,ZGGG 160600Z AUTO 34006KT 9SM 30/18 A2983 RMK SLP099 T03000181 57034 IEM_DS3505
ZGGG,2001-10-16 07:00,ZGGG 160700Z AUTO 02012KT 6SM 30/14 A2980 RMK T03000140 IEM_DS3505
ZGGG,2001-10-16 08:00,ZGGG 160800Z AUTO 36012KT 6SM 31/12 A2980 RMK T03100120 IEM_DS3505
ZGGG,2001-10-16 09:00,ZGGG 160900Z AUTO 22004KT 10SM 29/16 A2980 RMK SLP092 T02930157 57007 IEM_DS3505
ZGGG,2001-10-16 10:00,ZGGG 161000Z AUTO 01008KT 6SM 29/12 A2980 RMK T02900120 IEM_DS3505
ZGGG,2001-10-16 11:00,ZGGG 161100Z AUTO 36006KT 6SM 29/13 A2983 RMK T02900130 IEM_DS3505
ZGGG,2001-10-16 12:00,ZGGG 161200Z AUTO 34006KT 9SM 27/16 A2985 RMK SLP113 T02720161 52021 IEM_DS3505
ZGGG,2001-10-16 13:00,ZGGG 161300Z AUTO 36008KT 6SM 26/15 A2988 RMK T02600150 IEM_DS3505
ZGGG,2001-10-16 14:00,ZGGG 161400Z AUTO 36008KT 6SM 25/14 A2991 RMK T02500140 IEM_DS3505
ZGGG,2001-10-16 15:00,ZGGG 161500Z AUTO 32006KT 8SM 24/17 A2991 RMK SLP132 T02440167 52019 IEM_DS3505
ZGGG,2001-10-16 16:00,ZGGG 161600Z AUTO 36010KT 6SM 24/14 A2991 RMK T02400140 IEM_DS3505
ZGGG,2001-10-16 17:00,ZGGG 161700Z AUTO 35006KT 6SM 23/15 A2991 RMK T02300150 IEM_DS3505
ZGGG,2001-10-16 18:00,ZGGG 161800Z AUTO 34004KT 9SM 22/16 A2991 RMK SLP130 T02220163 57002 IEM_DS3505
ZGGG,2001-10-16 19:00,ZGGG 161900Z AUTO 36008KT 6SM 22/14 A2991 RMK T02200140 IEM_DS3505
ZGGG,2001-10-16 20:00,ZGGG 162000Z AUTO 01008KT 6SM 22/14 A2991 RMK T02200140 IEM_DS3505
ZGGG,2001-10-16 21:00,ZGGG 162100Z AUTO 02004KT 10SM 21/16 A2991 RMK SLP134 T02090159 52004 IEM_DS3505
ZGGG,2001-10-16 22:00,ZGGG 162200Z AUTO 36010KT 6SM 22/14 A2994 RMK T02200140 IEM_DS3505
ZGGG,2001-10-16 23:00,ZGGG 162300Z AUTO 01010KT 6SM 21/14 A2994 RMK T02100140 IEM_DS3505
ZGGG,2001-10-17 00:00,ZGGG 170000Z AUTO 36006KT 11SM 22/16 A2997 RMK SLP153 T02160164 52019 IEM_DS3505
ZGGG,2001-10-17 01:00,ZGGG 170100Z AUTO 01008KT 6SM 23/15 A3000 RMK T02300150 IEM_DS3505
ZGGG,2001-10-17 02:00,ZGGG 170200Z AUTO 01012KT 6SM 24/14 A2997 RMK T02400140 IEM_DS3505
ZGGG,2001-10-17 03:00,ZGGG 170300Z AUTO 36006KT 11SM 26/17 A2997 RMK SLP152 T02630173 57001 IEM_DS3505
ZGGG,2001-10-17 04:00,ZGGG 170400Z AUTO 03010KT 6SM 27/14 A2994 RMK T02700140 IEM_DS3505
ZGGG,2001-10-17 05:00,ZGGG 170500Z AUTO 02010KT 6SM 28/14 A2991 RMK T02800140 IEM_DS3505
ZGGG,2001-10-17 06:00,ZGGG 170600Z AUTO 36006KT 15SM 29/17 A2988 RMK SLP124 T02930170 57028 IEM_DS3505
ZGGG,2001-10-17 07:00,ZGGG 170700Z AUTO 36008KT 6SM 29/14 A2988 RMK T02900140 IEM_DS3505
ZGGG,2001-10-17 08:00,ZGGG 170800Z AUTO 36008KT 6SM 29/14 A2985 RMK T02900140 IEM_DS3505
ZGGG,2001-10-17 09:00,ZGGG 170900Z AUTO 02004KT 12SM 28/18 A2988 RMK SLP119 T02830175 57005 IEM_DS3505
ZGGG,2001-10-17 10:00,ZGGG 171000Z AUTO 36010KT 6SM 27/14 A2988 RMK T02700140 IEM_DS3505
ZGGG,2001-10-17 11:00,ZGGG 171100Z AUTO 01010KT 6SM 27/14 A2988 RMK T02700140 IEM_DS3505
ZGGG,2001-10-17 12:00,ZGGG 171200Z AUTO 36004KT 10SM 26/17 A2991 RMK SLP136 T02560173 52016 IEM_DS3505
ZGGG,2001-10-17 13:00,ZGGG 171300Z AUTO 02008KT 6SM 26/15 A2994 RMK T02600150 IEM_DS3505
ZGGG,2001-10-17 14:00,ZGGG 171400Z AUTO 02008KT 6SM 25/15 A2997 RMK T02500150 IEM_DS3505
ZGGG,2001-10-17 15:00,ZGGG 171500Z AUTO 04002KT 7SM 24/17 A2997 RMK SLP149 T02440167 52014 IEM_DS3505
ZGGG,2001-10-17 16:00,ZGGG 171600Z AUTO 03008KT 6SM 24/16 A2997 RMK T02400160 IEM_DS3505
ZGGG,2001-10-17 17:00,ZGGG 171700Z AUTO 03010KT 6SM 23/14 A2997 RMK T02300140 IEM_DS3505
ZGGG,2001-10-17 18:00,ZGGG 171800Z AUTO 34002KT 8SM 22/16 A3000 RMK SLP154 T02220159 52005 IEM_DS3505
ZGGG,2001-10-17 19:00,ZGGG 171900Z AUTO 03010KT 6SM 22/14 A3000 RMK T02200140 IEM_DS3505
ZGGG,2001-10-17 20:00,ZGGG 172000Z AUTO 36008KT 22/14 A3000 RMK T02200140 IEM_DS3505
ZGGG,2001-10-17 21:00,ZGGG 172100Z AUTO 36002KT 7SM 22/15 A3000 RMK SLP157 T02190154 52003 IEM_DS3505
ZGGG,2001-10-17 22:00,ZGGG 172200Z AUTO 03010KT 22/14 A3003 RMK T02200140 IEM_DS3505
ZGGG,2001-10-17 23:00,ZGGG 172300Z AUTO 03008KT 3SM 22/14 A3003 RMK T02200140 IEM_DS3505
ZGGG,2001-10-18 00:00,ZGGG 180000Z AUTO 07002KT 8SM 22/16 A3006 RMK SLP179 T02200155 52021 IEM_DS3505
ZGGG,2001-10-18 01:00,ZGGG 180100Z AUTO 03010KT 23/14 A3006 RMK T02300140 IEM_DS3505
ZGGG,2001-10-18 02:00,ZGGG 180200Z AUTO 01008KT 3SM 24/14 A3009 RMK T02400140 IEM_DS3505
ZGGG,2001-10-18 03:00,ZGGG 180300Z AUTO 22002KT 7SM 26/16 A3006 RMK SLP185 T02580161 52006 IEM_DS3505
ZGGG,2001-10-18 04:00,ZGGG 180400Z AUTO 05006KT 3SM 27/14 A3006 RMK T02700140 IEM_DS3505
ZGGG,2001-10-18 05:00,ZGGG 180500Z AUTO 01006KT 3SM 27/14 A3003 RMK T02700140 IEM_DS3505
ZGGG,2001-10-18 06:00,ZGGG 180600Z AUTO 11002KT 9SM 28/17 A3000 RMK SLP160 T02800173 57024 IEM_DS3505
ZGGG,2001-10-18 07:00,ZGGG 180700Z AUTO 35004KT 3SM 28/15 A2997 RMK T02800150 IEM_DS3505
ZGGG,2001-10-18 08:00,ZGGG 180800Z AUTO 34004KT 3SM 28/14 A2997 RMK T02800140 IEM_DS3505
ZGGG,2001-10-18 09:00,ZGGG 180900Z AUTO 00000KT 9SM 28/18 RMK SLP149 T02790184 57011 IEM_DS3505
ZGGG,2001-10-18 10:00,ZGGG 181000Z AUTO 09002KT 3SM 27/16 A2997 RMK T02700160 IEM_DS3505
ZGGG,2001-10-18 11:00,ZGGG 181100Z AUTO 10004KT 26/16 A3000 RMK T02600160 IEM_DS3505
ZGGG,2001-10-18 12:00,ZGGG 181200Z AUTO 04002KT 9SM 25/20 A3003 RMK SLP169 T02490195 52019 IEM_DS3505
ZGGG,2001-10-18 13:00,ZGGG 181300Z AUTO 09002KT 24/17 A3003 RMK T02400170 IEM_DS3505
ZGGG,2001-10-18 14:00,ZGGG 181400Z AUTO 24/17 A3006 RMK T02400170 IEM_DS3505
ZGGG,2001-10-18 15:00,ZGGG 181500Z AUTO 00000KT 9SM 25/20 A3006 RMK SLP182 T02460198 52014 IEM_DS3505
ZGGG,2001-10-18 16:00,ZGGG 181600Z AUTO 13004KT 26/17 A3006 RMK T02600170 IEM_DS3505
ZGGG,2001-10-18 17:00,ZGGG 181700Z AUTO 12002KT 3SM 26/19 A3006 RMK T02600190 IEM_DS3505
ZGGG,2001-10-18 18:00,ZGGG 181800Z AUTO 09002KT 7SM 24/20 A3006 RMK SLP183 T02450199 52001 IEM_DS3505
ZGGG,2001-10-18 19:00,ZGGG 181900Z AUTO 11002KT 3SM 24/19 A3006 RMK T02400190 IEM_DS3505
ZGGG,2001-10-18 20:00,ZGGG 182000Z AUTO 12002KT 4SM 24/19 A3006 RMK T02400190 IEM_DS3505
ZGGG,2001-10-18 21:00,ZGGG 182100Z AUTO 00000KT 6SM 24/20 A3009 RMK SLP187 T02400205 52004 IEM_DS3505
ZGGG,2001-10-18 22:00,ZGGG 182200Z AUTO 04002KT 4SM 23/19 A3009 RMK T02300190 IEM_DS3505
ZGGG,2001-10-18 23:00,ZGGG 182300Z AUTO 2SM 24/19 A3012 RMK T02400190 IEM_DS3505
ZGGG,2001-10-19 00:00,ZGGG 190000Z AUTO 11002KT 6SM 24/20 A3015 RMK SLP210 T02420202 52022 IEM_DS3505
ZGGG,2001-10-19 01:00,ZGGG 190100Z AUTO 07006KT 3SM 25/18 A3015 RMK T02500180 IEM_DS3505
ZGGG,2001-10-19 02:00,ZGGG 190200Z AUTO 06006KT 7SM 27/17 A3015 RMK T02700170 IEM_DS3505
ZGGG,2001-10-19 03:00,ZGGG 190300Z AUTO 11004KT 7SM 27/18 A3015 RMK SLP207 T02740180 57002 IEM_DS3505
ZGGG,2001-10-19 04:00,ZGGG 190400Z AUTO 10002KT 28/17 A3012 RMK T02800170 IEM_DS3505
ZGGG,2001-10-19 05:00,ZGGG 190500Z AUTO 06004KT 5SM 29/17 A3009 RMK T02900170 IEM_DS3505
ZGGG,2001-10-19 06:00,ZGGG 190600Z AUTO 32002KT 8SM 30/19 A3006 RMK SLP176 T03000186 57031 IEM_DS3505
ZGGG,2001-10-19 07:00,ZGGG 190700Z AUTO 05006KT 29/16 A3003 RMK T02900160 IEM_DS3505
ZGGG,2001-10-19 08:00,ZGGG 190800Z AUTO 35006KT 5SM 30/15 A3000 RMK T03000150 IEM_DS3505
ZGGG,2001-10-19 09:00,ZGGG 190900Z AUTO 00000KT 8SM 29/18 A3000 RMK SLP162 T02940184 57014 IEM_DS3505
ZGGG,2001-10-19 10:00,ZGGG 191000Z AUTO 29002KT 29/16 A3000 RMK T02900160 IEM_DS3505
ZGGG,2001-10-19 11:00,ZGGG 191100Z AUTO 05002KT 27/17 A3003 RMK T02700170 IEM_DS3505
ZGGG,2001-10-19 12:00,ZGGG 191200Z AUTO 02002KT 7SM 26/20 A3003 RMK SLP172 T02620204 52010 IEM_DS3505
ZGGG,2001-10-19 13:00,ZGGG 191300Z AUTO 10004KT 26/17 A3006 RMK T02600170 IEM_DS3505
ZGGG,2001-10-19 14:00,ZGGG 191400Z AUTO 15006KT 26/18 A3006 RMK T02600180 IEM_DS3505
ZGGG,2001-10-19 15:00,ZGGG 191500Z AUTO 14004KT 7SM 25/20 A3009 RMK SLP189 T02500204 52017 IEM_DS3505
ZGGG,2001-10-19 16:00,ZGGG 191600Z AUTO 20004KT 25/19 A3009 RMK T02500190 IEM_DS3505
ZGGG,2001-10-19 17:00,ZGGG 191700Z AUTO 17006KT 24/18 A3009 RMK T02400180 IEM_DS3505
ZGGG,2001-10-19 18:00,ZGGG 191800Z AUTO 14002KT 7SM 24/19 A3006 RMK SLP186 T02430193 57003 IEM_DS3505
ZGGG,2001-10-19 19:00,ZGGG 191900Z AUTO 15004KT 7SM 24/18 A3006 RMK T02400180 IEM_DS3505
ZGGG,2001-10-19 20:00,ZGGG 192000Z AUTO 14002KT 7SM 24/19 A3006 RMK T02400190 IEM_DS3505
ZGGG,2001-10-19 21:00,ZGGG 192100Z AUTO 09006KT 7SM 23/20 A3006 RMK SLP183 T02340200 57003 IEM_DS3505
ZGGG,2001-10-19 22:00,ZGGG 192200Z AUTO 08006KT 7SM 23/18 A3009 RMK T02300180 IEM_DS3505
ZGGG,2001-10-19 23:00,ZGGG 192300Z AUTO 5SM 22/17 A3009 RMK T02200170 IEM_DS3505
ZGGG,2001-10-20 00:00,ZGGG 200000Z AUTO 09004KT 6SM 23/19 A3009 RMK SLP195 T02330193 52011 IEM_DS3505
ZGGG,2001-10-20 01:00,ZGGG 200100Z AUTO 04002KT 6SM 24/17 A3009 RMK T02400170 IEM_DS3505
ZGGG,2001-10-20 02:00,ZGGG 200200Z AUTO 06004KT 5SM 26/17 A3009 RMK T02600170 IEM_DS3505
ZGGG,2001-10-20 03:00,ZGGG 200300Z AUTO 09002KT 11SM 27/19 A3009 RMK SLP190 T02730191 57004 IEM_DS3505
ZGGG,2001-10-20 04:00,ZGGG 200400Z AUTO 01006KT 5SM 28/17 A3006 RMK T02800170 IEM_DS3505
ZGGG,2001-10-20 05:00,ZGGG 200500Z AUTO 02006KT 5SM 28/16 A3003 RMK T02800160 IEM_DS3505
ZGGG,2001-10-20 06:00,ZGGG 200600Z AUTO 11002KT 11SM 30/19 A3000 RMK SLP157 T03000194 57033 IEM_DS3505
ZGGG,2001-10-20 07:00,ZGGG 200700Z AUTO 05006KT 5SM 30/17 A2997 RMK T03000170 IEM_DS3505
ZGGG,2001-10-20 08:00,ZGGG 200800Z AUTO 01004KT 5SM 29/16 A2994 RMK T02900160 IEM_DS3505
ZGGG,2001-10-20 09:00,ZGGG 200900Z AUTO 04002KT 10SM 29/19 A2997 RMK SLP148 T02940192 57009 IEM_DS3505
ZGGG,2001-10-20 10:00,ZGGG 201000Z AUTO 09002KT 5SM 29/17 A2997 RMK T02900170 IEM_DS3505
ZGGG,2001-10-20 11:00,ZGGG 201100Z AUTO 12004KT 27/18 A2997 RMK T02700180 IEM_DS3505
ZGGG,2001-10-20 12:00,ZGGG 201200Z AUTO 07002KT 7SM 26/20 A3000 RMK SLP163 T02600202 52015 IEM_DS3505
ZGGG,2001-10-20 13:00,ZGGG 201300Z AUTO 13006KT 3SM 26/19 A3003 RMK T02600190 IEM_DS3505
ZGGG,2001-10-20 14:00,ZGGG 201400Z AUTO 17008KT 6SM 26/18 A3006 RMK T02600180 IEM_DS3505
ZGGG,2001-10-20 15:00,ZGGG 201500Z AUTO 20002KT 10SM 25/20 A3006 RMK SLP180 T02460200 52017 IEM_DS3505
ZGGG,2001-10-20 16:00,ZGGG 201600Z AUTO 18004KT 6SM 24/18 A3006 RMK T02400180 IEM_DS3505
ZGGG,2001-10-20 17:00,ZGGG 201700Z AUTO 20004KT 6SM 24/18 A3003 RMK T02400180 IEM_DS3505
ZGGG,2001-10-20 18:00,ZGGG 201800Z AUTO 07002KT 9SM 23/20 A3003 RMK SLP168 T02290195 57012 IEM_DS3505
ZGGG,2001-10-20 19:00,ZGGG 201900Z AUTO 6SM 23/18 A3003 RMK T02300180 IEM_DS3505
ZGGG,2001-10-20 20:00,ZGGG 202000Z AUTO 4SM 23/18 A3000 RMK T02300180 IEM_DS3505
ZGGG,2001-10-20 21:00,ZGGG 202100Z AUTO 00000KT 7SM 22/19 RMK SLP162 T02170194 57006 IEM_DS3505
ZGGG,2001-10-20 22:00,ZGGG 202200Z AUTO 03002KT 3SM 22/17 A3003 RMK T02200170 IEM_DS3505
ZGGG,2001-10-20 23:00,ZGGG 202300Z AUTO 3SM 22/18 A3003 RMK T02200180 IEM_DS3505
ZGGG,2001-10-21 00:00,ZGGG 210000Z AUTO 36002KT 6SM 23/19 A3003 RMK SLP175 T02300194 52012 IEM_DS3505
ZGGG,2001-10-21 01:00,ZGGG 210100Z AUTO 06004KT 24/18 A3006 RMK T02400180 IEM_DS3505
ZGGG,2001-10-21 02:00,ZGGG 210200Z AUTO 07004KT 3SM 25/18 A3006 RMK T02500180 IEM_DS3505
ZGGG,2001-10-21 03:00,ZGGG 210300Z AUTO 32002KT 8SM 27/20 A3006 RMK SLP176 T02740200 52002 IEM_DS3505
ZGGG,2001-10-21 04:00,ZGGG 210400Z AUTO 36004KT 3SM 28/18 A3000 RMK T02800180 IEM_DS3505
ZGGG,2001-10-21 05:00,ZGGG 210500Z AUTO 09002KT 3SM 28/18 A2997 RMK T02800180 IEM_DS3505
ZGGG,2001-10-21 06:00,ZGGG 210600Z AUTO 14004KT 9SM 30/20 A2994 RMK SLP141 T03030196 57035 IEM_DS3505
ZGGG,2001-10-21 07:00,ZGGG 210700Z AUTO 10006KT 5SM 31/17 A2991 RMK T03100170 IEM_DS3505
ZGGG,2001-10-21 08:00,ZGGG 210800Z AUTO 08004KT 7SM 31/17 A2991 RMK T03100170 IEM_DS3505
ZGGG,2001-10-21 09:00,ZGGG 210900Z AUTO 09004KT 11SM 30/20 A2991 RMK SLP134 T03040199 57007 IEM_DS3505
ZGGG,2001-10-21 10:00,ZGGG 211000Z AUTO 10002KT 6SM 29/18 A2991 RMK T02900180 IEM_DS3505
ZGGG,2001-10-21 11:00,ZGGG 211100Z AUTO 15002KT 6SM 28/18 A2994 RMK T02800180 IEM_DS3505
ZGGG,2001-10-21 12:00,ZGGG 211200Z AUTO 00000KT 9SM 26/21 A2994 RMK SLP147 T02650209 52013 IEM_DS3505
ZGGG,2001-10-21 13:00,ZGGG 211300Z AUTO 13006KT 27/18 A2997 RMK T02700180 IEM_DS3505
ZGGG,2001-10-21 14:00,ZGGG 211400Z AUTO 16004KT 27/18 A3000 RMK T02700180 IEM_DS3505
ZGGG,2001-10-21 15:00,ZGGG 211500Z AUTO 25002KT 11SM 25/21 A3000 RMK SLP163 T02520207 52016 IEM_DS3505
ZGGG,2001-10-21 16:00,ZGGG 211600Z AUTO 17006KT 6SM 25/18 A3000 RMK T02500180 IEM_DS3505
ZGGG,2001-10-21 17:00,ZGGG 211700Z AUTO 17008KT 6SM 25/19 A3003 RMK T02500190 IEM_DS3505
ZGGG,2001-10-21 18:00,ZGGG 211800Z AUTO 00000KT 9SM 24/21 A3003 RMK SLP168 T02430207 52005 IEM_DS3505
ZGGG,2001-10-21 19:00,ZGGG 211900Z AUTO 15002KT 6SM 24/18 A3003 RMK T02400180 IEM_DS3505
ZGGG,2001-10-21 20:00,ZGGG 212000Z AUTO 6SM 24/19 A3000 RMK T02400190 IEM_DS3505
ZGGG,2001-10-21 21:00,ZGGG 212100Z AUTO 00000KT 8SM 23/21 A3000 RMK SLP164 T02270209 57004 IEM_DS3505
ZGGG,2001-10-21 22:00,ZGGG 212200Z AUTO 04004KT 6SM 22/19 A3000 RMK T02200190 IEM_DS3505
ZGGG,2001-10-21 23:00,ZGGG 212300Z AUTO 04006KT 4SM 22/19 A3003 RMK T02200190 IEM_DS3505
ZGGG,2001-10-22 00:00,ZGGG 220000Z AUTO 32002KT 9SM 24/21 A3003 RMK SLP175 T02430213 52011 IEM_DS3505
ZGGG,2001-10-22 01:00,ZGGG 220100Z AUTO 04008KT 3SM 25/20 A3006 RMK T02500200 IEM_DS3505
ZGGG,2001-10-22 02:00,ZGGG 220200Z AUTO 01006KT 3SM 26/19 A3006 RMK T02600190 IEM_DS3505
ZGGG,2001-10-22 03:00,ZGGG 220300Z AUTO 36004KT 9SM 28/21 A3006 RMK SLP178 T02800208 52003 IEM_DS3505
ZGGG,2001-10-22 04:00,ZGGG 220400Z AUTO 03006KT 5SM 28/18 A3003 RMK T02800180 IEM_DS3505
ZGGG,2001-10-22 05:00,ZGGG 220500Z AUTO 04004KT 5SM 29/18 A3000 RMK T02900180 IEM_DS3505
ZGGG,2001-10-22 06:00,ZGGG 220600Z AUTO 09002KT 9SM 30/19 A2997 RMK SLP154 T03040191 57024 IEM_DS3505
ZGGG,2001-10-22 07:00,ZGGG 220700Z AUTO 12004KT 7SM 31/17 A2997 RMK T03100170 IEM_DS3505
ZGGG,2001-10-22 08:00,ZGGG 220800Z AUTO 11004KT 7SM 31/16 A2994 RMK T03100160 IEM_DS3505
ZGGG,2001-10-22 09:00,ZGGG 220900Z AUTO 14004KT 8SM 30/20 A2994 RMK SLP146 T03010200 57008 IEM_DS3505
ZGGG,2001-10-22 10:00,ZGGG 221000Z AUTO 14004KT 6SM 29/17 A2997 RMK T02900170 IEM_DS3505
ZGGG,2001-10-22 11:00,ZGGG 221100Z AUTO 13002KT 29/17 A2997 RMK T02900170 IEM_DS3505
ZGGG,2001-10-22 12:00,ZGGG 221200Z AUTO 00000KT 8SM 26/21 A3000 RMK SLP159 T02600212 52013 IEM_DS3505
ZGGG,2001-10-22 13:00,ZGGG 221300Z AUTO 28/18 A3000 RMK T02800180 IEM_DS3505
ZGGG,2001-10-22 14:00,ZGGG 221400Z AUTO 13004KT 27/18 A3003 RMK T02700180 IEM_DS3505
ZGGG,2001-10-22 15:00,ZGGG 221500Z AUTO 16002KT 7SM 26/20 A3003 RMK SLP171 T02560201 52012 IEM_DS3505
ZGGG,2001-10-22 16:00,ZGGG 221600Z AUTO 15006KT 6SM 26/18 A3003 RMK T02600180 IEM_DS3505
ZGGG,2001-10-22 17:00,ZGGG 221700Z AUTO 17004KT 6SM 25/18 A3003 RMK T02500180 IEM_DS3505
ZGGG,2001-10-22 18:00,ZGGG 221800Z AUTO 00000KT 9SM 24/21 A3003 RMK SLP169 T02350206 57002 IEM_DS3505
ZGGG,2001-10-22 19:00,ZGGG 221900Z AUTO 6SM 24/18 A3003 RMK T02400180 IEM_DS3505
ZGGG,2001-10-22 20:00,ZGGG 222000Z AUTO 6SM 23/18 A3003 RMK T02300180 IEM_DS3505
ZGGG,2001-10-22 21:00,ZGGG 222100Z AUTO 00000KT 9SM 22/20 A3003 RMK SLP170 T02240202 52001 IEM_DS3505
ZGGG,2001-10-22 22:00,ZGGG 222200Z AUTO 04002KT 4SM 22/19 A3003 RMK T02200190 IEM_DS3505
ZGGG,2001-10-22 23:00,ZGGG 222300Z AUTO 04006KT 2SM 23/19 A3006 RMK T02300190 IEM_DS3505
ZGGG,2001-10-23 00:00,ZGGG 230000Z AUTO 00000KT 5SM 24/21 A3006 RMK SLP184 T02440208 52014 IEM_DS3505
ZGGG,2001-10-23 01:00,ZGGG 230100Z AUTO 07004KT 2 1/2SM 25/18 A3009 RMK T02500180 IEM_DS3505
ZGGG,2001-10-23 02:00,ZGGG 230200Z AUTO 01006KT 2 1/2SM 27/18 A3009 RMK T02700180 IEM_DS3505
ZGGG,2001-10-23 03:00,ZGGG 230300Z AUTO 14004KT 9SM 29/20 A3006 RMK SLP184 T02930196 54000 IEM_DS3505
ZGGG,2001-10-23 04:00,ZGGG 230400Z AUTO 02002KT 29/17 A3006 RMK T02900170 IEM_DS3505
ZGGG,2001-10-23 05:00,ZGGG 230500Z AUTO 36004KT 7SM 30/17 A3003 RMK T03000170 IEM_DS3505
ZGGG,2001-10-23 06:00,ZGGG 230600Z AUTO 00000KT 11SM 30/19 A3000 RMK SLP162 T03010186 57022 IEM_DS3505
ZGGG,2001-10-23 07:00,ZGGG 230700Z AUTO 08006KT 7SM 30/16 A2997 RMK T03000160 IEM_DS3505
ZGGG,2001-10-23 08:00,ZGGG 230800Z AUTO 11002KT 7SM 31/16 A2997 RMK T03100160 IEM_DS3505
ZGGG,2001-10-23 09:00,ZGGG 230900Z AUTO 14002KT 9SM 30/18 A2997 RMK SLP153 T02990183 57009 IEM_DS3505
ZGGG,2001-10-23 10:00,ZGGG 231000Z AUTO 15004KT 6SM 29/16 A2997 RMK T02900160 IEM_DS3505
ZGGG,2001-10-23 11:00,ZGGG 231100Z AUTO 14004KT 6SM 28/16 A3000 RMK T02800160 IEM_DS3505
ZGGG,2001-10-23 12:00,ZGGG 231200Z AUTO 14004KT 9SM 28/20 A3000 RMK SLP168 T02750197 52015 IEM_DS3505
ZGGG,2001-10-23 13:00,ZGGG 231300Z AUTO 16006KT 6SM 27/18 A3003 RMK T02700180 IEM_DS3505
ZGGG,2001-10-23 14:00,ZGGG 231400Z AUTO 17006KT 6SM 26/19 A3006 RMK T02600190 IEM_DS3505
ZGGG,2001-10-23 15:00,ZGGG 231500Z AUTO 00000KT 9SM 26/22 A3003 RMK SLP177 T02550215 52009 IEM_DS3505
ZGGG,2001-10-23 16:00,ZGGG 231600Z AUTO 16006KT 6SM 26/19 A3003 RMK T02600190 IEM_DS3505
ZGGG,2001-10-23 17:00,ZGGG 231700Z AUTO 6SM 25/19 A3003 RMK T02500190 IEM_DS3505
ZGGG,2001-10-23 18:00,ZGGG 231800Z AUTO 09002KT 8SM 24/22 A3003 RMK SLP166 T02400216 57011 IEM_DS3505
ZGGG,2001-10-23 19:00,ZGGG 231900Z AUTO 6SM 23/19 A3000 RMK T02300190 IEM_DS3505
ZGGG,2001-10-23 20:00,ZGGG 232000Z AUTO 4SM 23/19 A3000 RMK T02300190 IEM_DS3505
ZGGG,2001-10-23 21:00,ZGGG 232100Z AUTO 00000KT 7SM 23/21 A3000 RMK SLP160 T02310214 57006 IEM_DS3505
ZGGG,2001-10-23 22:00,ZGGG 232200Z AUTO 3SM 23/19 A3000 RMK T02300190 IEM_DS3505
ZGGG,2001-10-23 23:00,ZGGG 232300Z AUTO 2 1/2SM 23/19 A3003 RMK T02300190 IEM_DS3505
ZGGG,2001-10-24 00:00,ZGGG 240000Z AUTO 00000KT 6SM 24/21 A3003 RMK SLP171 T02380214 52011 IEM_DS3505
ZGGG,2001-10-24 01:00,ZGGG 240100Z AUTO 2 1/2SM 26/19 A3003 RMK T02600190 IEM_DS3505
ZGGG,2001-10-24 02:00,ZGGG 240200Z AUTO 3SM 27/19 A3003 RMK T02700190 IEM_DS3505
ZGGG,2001-10-24 03:00,ZGGG 240300Z AUTO 14004KT 7SM 28/21 A3003 RMK SLP168 T02800211 57003 IEM_DS3505
ZGGG,2001-10-24 04:00,ZGGG 240400Z AUTO 05004KT 2 1/2SM 28/19 A3000 RMK T02800190 IEM_DS3505
ZGGG,2001-10-24 05:00,ZGGG 240500Z AUTO 16004KT 3SM 30/19 A2997 RMK T03000190 IEM_DS3505
ZGGG,2001-10-24 06:00,ZGGG 240600Z AUTO 20004KT 10SM 31/20 RMK SLP141 T03080202 57027 IEM_DS3505
ZGGG,2001-10-24 07:00,ZGGG 240700Z AUTO 16004KT 31/17 A2991 RMK T03100170 IEM_DS3505
ZGGG,2001-10-24 08:00,ZGGG 240800Z AUTO 07004KT 5SM 31/18 A2991 RMK T03100180 IEM_DS3505
ZGGG,2001-10-24 09:00,ZGGG 240900Z AUTO 00000KT 11SM 30/21 A2991 RMK SLP137 T02970206 57004 IEM_DS3505
ZGGG,2001-10-24 10:00,ZGGG 241000Z AUTO 09002KT 2 1/2SM 29/19 A2994 RMK T02900190 IEM_DS3505
ZGGG,2001-10-24 11:00,ZGGG 241100Z AUTO 2 1/2SM 29/19 A2994 RMK T02900190 IEM_DS3505
ZGGG,2001-10-24 12:00,ZGGG 241200Z AUTO 00000KT 10SM 26/22 A2997 RMK SLP152 T02640218 52015 IEM_DS3505
ZGGG,2001-10-24 13:00,ZGGG 241300Z AUTO 14004KT 2 1/2SM 28/20 A2997 RMK T02800200 IEM_DS3505
ZGGG,2001-10-24 14:00,ZGGG 241400Z AUTO 14004KT 2 1/2SM 27/20 A3000 RMK T02700200 IEM_DS3505
ZGGG,2001-10-24 15:00,ZGGG 241500Z AUTO 16004KT 6SM 26/21 A3000 RMK SLP161 T02560213 52009 IEM_DS3505
ZGGG,2001-10-24 16:00,ZGGG 241600Z AUTO 15004KT 3SM 26/19 A3000 RMK T02600190 IEM_DS3505
ZGGG,2001-10-24 17:00,ZGGG 241700Z AUTO 18006KT 3SM 25/19 A2997 RMK T02500190 IEM_DS3505
ZGGG,2001-10-24 18:00,ZGGG 241800Z AUTO 16006KT 4SM 25/22 A2997 RMK SLP153 T02480217 57008 IEM_DS3505
ZGGG,2001-10-24 19:00,ZGGG 241900Z AUTO 15006KT 3SM 24/19 A2997 RMK T02400190 IEM_DS3505
ZGGG,2001-10-24 20:00,ZGGG 242000Z AUTO 18002KT 3SM 24/19 A2997 RMK T02400190 IEM_DS3505
ZGGG,2001-10-24 21:00,ZGGG 242100Z AUTO 07002KT 2SM 24/21 A2997 RMK SLP154 T02350212 52001 IEM_DS3505
ZGGG,2001-10-24 22:00,ZGGG 242200Z AUTO 06002KT 2 1/2SM 24/19 A2997 RMK T02400190 IEM_DS3505
ZGGG,2001-10-24 23:00,ZGGG 242300Z AUTO 2SM 24/18 A3000 RMK T02400180 IEM_DS3505
ZGGG,2001-10-25 00:00,ZGGG 250000Z AUTO 11004KT 5SM 24/20 A3003 RMK SLP168 T02400203 52014 IEM_DS3505
ZGGG,2001-10-25 01:00,ZGGG 250100Z AUTO 15004KT 26/17 A3003 RMK T02600170 IEM_DS3505
ZGGG,2001-10-25 02:00,ZGGG 250200Z AUTO 08002KT 7SM 27/17 A3003 RMK T02700170 IEM_DS3505
ZGGG,2001-10-25 03:00,ZGGG 250300Z AUTO 14002KT 7SM 28/20 A3003 RMK SLP170 T02810197 52002 IEM_DS3505
ZGGG,2001-10-25 04:00,ZGGG 250400Z AUTO 09004KT 3SM 29/17 A3000 RMK T02900170 IEM_DS3505
ZGGG,2001-10-25 05:00,ZGGG 250500Z AUTO 14006KT 3SM 30/17 A2997 RMK T03000170 IEM_DS3505
ZGGG,2001-10-25 06:00,ZGGG 250600Z AUTO 16004KT 9SM 30/18 A2994 RMK SLP139 T03040182 57031 IEM_DS3505
ZGGG,2001-10-25 07:00,ZGGG 250700Z AUTO 10006KT 3SM 31/16 A2991 RMK T03100160 IEM_DS3505
ZGGG,2001-10-25 08:00,ZGGG 250800Z AUTO 14006KT 3SM 31/15 A2991 RMK T03100150 IEM_DS3505
ZGGG,2001-10-25 09:00,ZGGG 250900Z AUTO 11002KT 9SM 30/18 A2991 RMK SLP131 T02960185 57008 IEM_DS3505
ZGGG,2001-10-25 10:00,ZGGG 251000Z AUTO 11004KT 3SM 28/16 A2991 RMK T02800160 IEM_DS3505
ZGGG,2001-10-25 11:00,ZGGG 251100Z AUTO 16006KT 28/16 A2994 RMK T02800160 IEM_DS3505
ZGGG,2001-10-25 12:00,ZGGG 251200Z AUTO 16004KT 9SM 27/19 A2994 RMK SLP147 T02690187 52016 IEM_DS3505
ZGGG,2001-10-25 13:00,ZGGG 251300Z AUTO 17006KT 26/18 A2997 RMK T02600180 IEM_DS3505
ZGGG,2001-10-25 14:00,ZGGG 251400Z AUTO 18006KT 5SM 26/19 A2997 RMK T02600190 IEM_DS3505
ZGGG,2001-10-25 15:00,ZGGG 251500Z AUTO 25002KT 8SM 25/20 A2997 RMK SLP156 T02460202 52009 IEM_DS3505
ZGGG,2001-10-25 16:00,ZGGG 251600Z AUTO 19004KT 5SM 25/18 A2997 RMK T02500180 IEM_DS3505
ZGGG,2001-10-25 17:00,ZGGG 251700Z AUTO 14004KT 24/18 A2997 RMK T02400180 IEM_DS3505
ZGGG,2001-10-25 18:00,ZGGG 251800Z AUTO 07002KT 7SM 24/20 A2997 RMK SLP152 T02360202 57004 IEM_DS3505
ZGGG,2001-10-25 19:00,ZGGG 251900Z AUTO 24/18 A2997 RMK T02400180 IEM_DS3505
ZGGG,2001-10-25 20:00,ZGGG 252000Z AUTO 4SM 23/18 A2994 RMK T02300180 IEM_DS3505
ZGGG,2001-10-25 21:00,ZGGG 252100Z AUTO 00000KT 7SM 22/20 A2994 RMK SLP144 T02190199 57008 IEM_DS3505
ZGGG,2001-10-25 22:00,ZGGG 252200Z AUTO 2 1/2SM 22/18 A2997 RMK T02200180 IEM_DS3505
ZGGG,2001-10-25 23:00,ZGGG 252300Z AUTO 2SM 22/18 A2997 RMK T02200180 IEM_DS3505
ZGGG,2001-10-26 00:00,ZGGG 260000Z AUTO 07004KT 6SM 23/20 A3000 RMK SLP161 T02320200 52017 IEM_DS3505
ZGGG,2001-10-26 02:00,ZGGG 260200Z AUTO 16006KT 7SM 27/17 A3003 RMK T02700170 IEM_DS3505
ZGGG,2001-10-26 03:00,ZGGG 260300Z AUTO 16002KT 7SM 27/19 A3003 RMK SLP167 T02710191 52006 IEM_DS3505
ZGGG,2001-10-26 04:00,ZGGG 260400Z AUTO 14006KT 27/17 A3000 RMK T02700170 IEM_DS3505
ZGGG,2001-10-26 05:00,ZGGG 260500Z AUTO 18006KT 5SM 29/17 A2997 RMK T02900170 IEM_DS3505
ZGGG,2001-10-26 06:00,ZGGG 260600Z AUTO 22004KT 8SM 29/19 A2994 RMK SLP142 T02940192 57025 IEM_DS3505
ZGGG,2001-10-26 07:00,ZGGG 260700Z AUTO 15004KT 5SM 29/16 A2991 RMK T02900160 IEM_DS3505
ZGGG,2001-10-26 08:00,ZGGG 260800Z AUTO 13006KT 5SM 29/16 A2991 RMK T02900160 IEM_DS3505
ZGGG,2001-10-26 09:00,ZGGG 260900Z AUTO 16002KT 8SM 29/19 A2991 RMK SLP136 T02890189 57006 IEM_DS3505
ZGGG,2001-10-26 10:00,ZGGG 261000Z AUTO 14004KT 28/17 A2994 RMK T02800170 IEM_DS3505
ZGGG,2001-10-26 11:00,ZGGG 261100Z AUTO 13004KT 5SM 26/18 A2994 RMK T02600180 IEM_DS3505
ZGGG,2001-10-26 12:00,ZGGG 261200Z AUTO 00000KT 9SM 26/20 A2997 RMK SLP150 T02550205 52014 IEM_DS3505
ZGGG,2001-10-26 13:00,ZGGG 261300Z AUTO 10002KT 5SM 25/18 A2997 RMK T02500180 IEM_DS3505
ZGGG,2001-10-26 14:00,ZGGG 261400Z AUTO 15004KT 26/19 A2997 RMK T02600190 IEM_DS3505
ZGGG,2001-10-26 15:00,ZGGG 261500Z AUTO 00000KT 7SM 25/21 A2997 RMK SLP153 T02460210 52003 IEM_DS3505
ZGGG,2001-10-26 16:00,ZGGG 261600Z AUTO 17004KT 6SM 26/19 A2997 RMK T02600190 IEM_DS3505
ZGGG,2001-10-26 17:00,ZGGG 261700Z AUTO 20004KT 6SM 25/20 A2997 RMK T02500200 IEM_DS3505
ZGGG,2001-10-26 18:00,ZGGG 261800Z AUTO 00000KT 7SM 24/22 A2997 RMK SLP148 T02360215 57005 IEM_DS3505
ZGGG,2001-10-26 19:00,ZGGG 261900Z AUTO 4SM 24/20 A2994 RMK T02400200 IEM_DS3505
ZGGG,2001-10-26 20:00,ZGGG 262000Z AUTO 5SM 24/19 A2994 RMK T02400190 IEM_DS3505
ZGGG,2001-10-26 21:00,ZGGG 262100Z AUTO 00000KT 6SM 23/21 A2994 RMK SLP145 T02320212 57003 IEM_DS3505
ZGGG,2001-10-27 00:00,ZGGG 270000Z AUTO 00000KT 5SM 24/22 A3000 RMK SLP165 T02360218 52019 IEM_DS3505
ZGGG,2001-10-27 01:00,ZGGG 270100Z AUTO 06004KT 2 1/2SM 26/20 A3003 RMK T02600200 IEM_DS3505
ZGGG,2001-10-27 02:00,ZGGG 270200Z AUTO 36002KT 3SM 27/19 A3003 RMK T02700190 IEM_DS3505
ZGGG,2001-10-27 03:00,ZGGG 270300Z AUTO 04002KT 7SM 29/21 A3000 RMK SLP167 T02870208 52003 IEM_DS3505
ZGGG,2001-10-27 04:00,ZGGG 270400Z AUTO 34002KT 3SM 28/18 A2997 RMK T02800180 IEM_DS3505
ZGGG,2001-10-27 05:00,ZGGG 270500Z AUTO 28004KT 2 1/2SM 29/18 A2994 RMK T02900180 IEM_DS3505
ZGGG,2001-10-27 06:00,ZGGG 270600Z AUTO 00000KT 8SM 30/20 A2994 RMK SLP137 T03050201 57030 IEM_DS3505
ZGGG,2001-10-27 07:00,ZGGG 270700Z AUTO 23004KT 2 1/2SM 29/18 A2991 RMK T02900180 IEM_DS3505
ZGGG,2001-10-27 08:00,ZGGG 270800Z AUTO 34006KT 3SM 30/18 A2991 RMK T03000180 IEM_DS3505
ZGGG,2001-10-27 09:00,ZGGG 270900Z AUTO 34006KT 7SM 29/21 A2991 RMK SLP129 T02880207 57008 IEM_DS3505
ZGGG,2001-10-27 10:00,ZGGG 271000Z AUTO 03010KT 2SM 28/18 A2991 RMK T02800180 IEM_DS3505
ZGGG,2001-10-27 11:00,ZGGG 271100Z AUTO 01010KT 27/18 A2994 RMK T02700180 IEM_DS3505
ZGGG,2001-10-27 12:00,ZGGG 271200Z AUTO 34006KT 7SM 26/20 A2997 RMK SLP147 T02610202 52018 IEM_DS3505
ZGGG,2001-10-27 13:00,ZGGG 271300Z AUTO 36010KT 26/19 A2997 RMK T02600190 IEM_DS3505
ZGGG,2001-10-27 14:00,ZGGG 271400Z AUTO 36010KT 5SM 25/18 A3000 RMK T02500180 IEM_DS3505
ZGGG,2001-10-27 15:00,ZGGG 271500Z AUTO 36008KT 8SM 24/20 A2997 RMK SLP155 T02440196 52008 IEM_DS3505
ZGGG,2001-10-27 16:00,ZGGG 271600Z AUTO 36008KT 6SM 24/17 A3000 RMK T02400170 IEM_DS3505
ZGGG,2001-10-27 17:00,ZGGG 271700Z AUTO 01010KT 6SM 24/16 A3000 RMK T02400160 IEM_DS3505
ZGGG,2001-10-27 18:00,ZGGG 271800Z AUTO 34006KT 9SM 23/18 A2997 RMK SLP153 T02290176 57002 IEM_DS3505
ZGGG,2001-10-27 19:00,ZGGG 271900Z AUTO 01010KT 6SM 23/15 A2997 RMK T02300150 IEM_DS3505
ZGGG,2001-10-27 20:00,ZGGG 272000Z AUTO 01008KT 6SM 23/15 A2997 RMK T02300150 IEM_DS3505
ZGGG,2001-10-27 21:00,ZGGG 272100Z AUTO 34004KT 7SM 23/17 A2997 RMK SLP152 T02280166 57001 IEM_DS3505
ZGGG,2001-10-27 22:00,ZGGG 272200Z AUTO 01008KT 6SM 22/14 A3000 RMK T02200140 IEM_DS3505
ZGGG,2001-10-27 23:00,ZGGG 272300Z AUTO 36008KT 7SM 22/14 A3003 RMK T02200140 IEM_DS3505
ZGGG,2001-10-28 00:00,ZGGG 280000Z AUTO 36006KT 9SM 22/16 A3006 RMK SLP178 T02200164 52025 IEM_DS3505
ZGGG,2001-10-28 01:00,ZGGG 280100Z AUTO 36008KT 7SM 22/14 A3006 RMK T02200140 IEM_DS3505
ZGGG,2001-10-28 02:00,ZGGG 280200Z AUTO 36006KT 7SM 23/15 A3009 RMK T02300150 IEM_DS3505
ZGGG,2001-10-28 03:00,ZGGG 280300Z AUTO 07004KT 11SM 23/17 A3009 RMK SLP188 T02290166 52010 IEM_DS3505
ZGGG,2001-10-28 04:00,ZGGG 280400Z AUTO 36010KT 7SM 23/14 A3006 RMK T02300140 IEM_DS3505
ZGGG,2001-10-28 05:00,ZGGG 280500Z AUTO 02012KT 7SM 24/14 A3003 RMK T02400140 IEM_DS3505
ZGGG,2001-10-28 06:00,ZGGG 280600Z AUTO 02006KT 12SM 25/17 A3000 RMK SLP165 T02460169 57023 IEM_DS3505
ZGGG,2001-10-28 07:00,ZGGG 280700Z AUTO 36010KT 7SM 24/14 A3000 RMK T02400140 IEM_DS3505
ZGGG,2001-10-28 08:00,ZGGG 280800Z AUTO 02006KT 7SM 25/14 A3000 RMK T02500140 IEM_DS3505
ZGGG,2001-10-28 09:00,ZGGG 280900Z AUTO 02004KT 11SM 24/17 A3000 RMK SLP160 T02430169 57005 IEM_DS3505
ZGGG,2001-10-28 10:00,ZGGG 281000Z AUTO 01008KT 7SM 24/14 A3000 RMK T02400140 IEM_DS3505
ZGGG,2001-10-28 11:00,ZGGG 281100Z AUTO 02010KT 6SM 24/14 A3003 RMK T02400140 IEM_DS3505
ZGGG,2001-10-28 12:00,ZGGG 281200Z AUTO 02004KT 10SM 24/17 A3006 RMK SLP179 T02380167 52019 IEM_DS3505
ZGGG,2001-10-28 13:00,ZGGG 281300Z AUTO 03008KT 6SM 24/14 A3006 RMK T02400140 IEM_DS3505
ZGGG,2001-10-28 14:00,ZGGG 281400Z AUTO 04008KT 6SM 23/13 A3006 RMK T02300130 IEM_DS3505
ZGGG,2001-10-28 15:00,ZGGG 281500Z AUTO 04006KT 11SM 23/15 A3009 RMK SLP187 T02340153 52008 IEM_DS3505
ZGGG,2001-10-28 16:00,ZGGG 281600Z AUTO 01006KT 6SM 23/13 A3006 RMK T02300130 IEM_DS3505
ZGGG,2001-10-28 17:00,ZGGG 281700Z AUTO 36006KT 6SM 23/14 A3006 RMK T02300140 IEM_DS3505
ZGGG,2001-10-28 18:00,ZGGG 281800Z AUTO 36004KT 9SM 23/15 A3006 RMK SLP180 T02270154 57007 IEM_DS3505
ZGGG,2001-10-28 19:00,ZGGG 281900Z AUTO 01010KT 7SM 22/14 A3006 RMK T02200140 IEM_DS3505
ZGGG,2001-10-28 20:00,ZGGG 282000Z AUTO 01008KT 6SM 22/14 A3006 RMK T02200140 IEM_DS3505
ZGGG,2001-10-28 21:00,ZGGG 282100Z AUTO 34004KT 10SM 22/15 A3006 RMK SLP179 T02190148 57001 IEM_DS3505
ZGGG,2001-10-28 22:00,ZGGG 282200Z AUTO 03012KT 4SM 19/15 A3009 RMK T01900150 IEM_DS3505
ZGGG,2001-10-28 23:00,ZGGG 282300Z AUTO 03010KT 3SM 19/16 A3009 RMK T01900160 IEM_DS3505
ZGGG,2001-10-29 00:00,ZGGG 290000Z AUTO 34004KT 5SM 19/18 A3012 RMK 60002 SLP201 T01910176 52022 IEM_DS3505
ZGGG,2001-10-29 01:00,ZGGG 290100Z AUTO 04012KT 4SM 18/15 A3015 RMK T01800150 IEM_DS3505
ZGGG,2001-10-29 02:00,ZGGG 290200Z AUTO 03012KT 1 1/2SM 18/16 A3018 RMK T01800160 IEM_DS3505
ZGGG,2001-10-29 03:00,ZGGG 290300Z AUTO 34002KT 7SM 18/17 A3015 RMK SLP213 T01850174 52012 IEM_DS3505
ZGGG,2001-10-29 04:00,ZGGG 290400Z AUTO 05006KT 2SM 18/16 A3015 RMK T01800160 IEM_DS3505
ZGGG,2001-10-29 05:00,ZGGG 290500Z AUTO 02008KT 1 1/2SM 18/17 A3012 RMK T01800170 IEM_DS3505
ZGGG,2001-10-29 06:00,ZGGG 290600Z AUTO 02004KT 6SM 19/18 A3009 RMK 60028 SLP191 T01890181 57022 IEM_DS3505
ZGGG,2001-10-29 07:00,ZGGG 290700Z AUTO 04004KT 4SM 18/17 A3009 RMK T01800170 IEM_DS3505
ZGGG,2001-10-29 08:00,ZGGG 290800Z AUTO 06004KT 2 1/2SM 19/18 A3009 RMK T01900180 IEM_DS3505
ZGGG,2001-10-29 09:00,ZGGG 290900Z AUTO 00000KT 9SM 19/18 A3009 RMK SLP189 T01920177 57002 IEM_DS3505
ZGGG,2001-10-29 10:00,ZGGG 291000Z AUTO 03004KT 3SM 19/17 A3009 RMK T01900170 IEM_DS3505
ZGGG,2001-10-29 11:00,ZGGG 291100Z AUTO 06004KT 3SM 19/17 A3009 RMK T01900170 IEM_DS3505
ZGGG,2001-10-29 12:00,ZGGG 291200Z AUTO 04002KT 10SM 20/18 A3012 RMK 60002 SLP199 T01960178 52009 IEM_DS3505
ZGGG,2001-10-29 13:00,ZGGG 291300Z AUTO 07002KT 4SM 20/17 A3012 RMK T02000170 IEM_DS3505
ZGGG,2001-10-29 14:00,ZGGG 291400Z AUTO 01004KT 5SM 20/16 A3012 RMK T02000160 IEM_DS3505
ZGGG,2001-10-29 15:00,ZGGG 291500Z AUTO 34004KT 9SM 19/18 A3012 RMK SLP202 T01940179 52003 IEM_DS3505
ZGGG,2001-10-29 16:00,ZGGG 291600Z AUTO 02006KT 6SM 19/15 A3012 RMK T01900150 IEM_DS3505
ZGGG,2001-10-29 17:00,ZGGG 291700Z AUTO 36004KT 6SM 19/16 A3012 RMK T01900160 IEM_DS3505
ZGGG,2001-10-29 18:00,ZGGG 291800Z AUTO 36004KT 8SM 19/17 RMK SLP193 T01910170 57009 IEM_DS3505
ZGGG,2001-10-29 19:00,ZGGG 291900Z AUTO 04004KT 6SM 19/16 A3009 RMK T01900160 IEM_DS3505
ZGGG,2001-10-29 20:00,ZGGG 292000Z AUTO 03004KT 6SM 19/16 A3009 RMK T01900160 IEM_DS3505
ZGGG,2001-10-29 21:00,ZGGG 292100Z AUTO 34002KT 7SM 19/17 A3009 RMK 70030 SLP191 T01920171 57002 IEM_DS3505
ZGGG,2001-10-29 22:00,ZGGG 292200Z AUTO 6SM 19/16 A3009 RMK T01900160 IEM_DS3505
ZGGG,2001-10-29 23:00,ZGGG 292300Z AUTO 02004KT 6SM 19/15 A3012 RMK T01900150 IEM_DS3505
ZGGG,2001-10-30 00:00,ZGGG 300000Z AUTO 00000KT 9SM 20/18 A3012 RMK 70028 SLP202 T01980175 52011 IEM_DS3505
ZGGG,2001-10-30 01:00,ZGGG 300100Z AUTO 04006KT 5SM 20/16 A3015 RMK T02000160 IEM_DS3505
ZGGG,2001-10-30 02:00,ZGGG 300200Z AUTO 03006KT 5SM 21/16 A3015 RMK T02100160 IEM_DS3505
ZGGG,2001-10-30 03:00,ZGGG 300300Z AUTO 02002KT 10SM 23/18 A3012 RMK SLP202 T02270177 52001 IEM_DS3505
ZGGG,2001-10-30 04:00,ZGGG 300400Z AUTO 36004KT 5SM 23/16 A3009 RMK T02300160 IEM_DS3505
ZGGG,2001-10-30 05:00,ZGGG 300500Z AUTO 02004KT 5SM 24/16 A3009 RMK T02400160 IEM_DS3505
ZGGG,2001-10-30 06:00,ZGGG 300600Z AUTO 32002KT 11SM 26/19 A3006 RMK SLP177 T02630189 57025 IEM_DS3505
ZGGG,2001-10-30 07:00,ZGGG 300700Z AUTO 36004KT 5SM 24/16 A3003 RMK T02400160 IEM_DS3505
ZGGG,2001-10-30 08:00,ZGGG 300800Z AUTO 02006KT 6SM 25/15 A3003 RMK T02500150 IEM_DS3505
ZGGG,2001-10-30 09:00,ZGGG 300900Z AUTO 02004KT 9SM 25/18 A3003 RMK SLP174 T02470181 57003 IEM_DS3505
ZGGG,2001-10-30 10:00,ZGGG 301000Z AUTO 04008KT 6SM 23/16 A3006 RMK T02300160 IEM_DS3505
ZGGG,2001-10-30 11:00,ZGGG 301100Z AUTO 04008KT 6SM 23/16 A3006 RMK T02300160 IEM_DS3505
ZGGG,2001-10-30 12:00,ZGGG 301200Z AUTO 32004KT 9SM 22/18 A3006 RMK SLP185 T02220177 52011 IEM_DS3505
ZGGG,2001-10-30 13:00,ZGGG 301300Z AUTO 04006KT 6SM 22/16 A3009 RMK T02200160 IEM_DS3505
ZGGG,2001-10-30 14:00,ZGGG 301400Z AUTO 05002KT 6SM 22/16 A3009 RMK T02200160 IEM_DS3505
ZGGG,2001-10-30 15:00,ZGGG 301500Z AUTO 00000KT 10SM 22/19 A3009 RMK SLP188 T02180186 52003 IEM_DS3505
ZGGG,2001-10-30 16:00,ZGGG 301600Z AUTO 06002KT 4SM 21/17 A3009 RMK T02100170 IEM_DS3505
ZGGG,2001-10-30 17:00,ZGGG 301700Z AUTO 06004KT 5SM 21/17 A3006 RMK T02100170 IEM_DS3505
ZGGG,2001-10-30 18:00,ZGGG 301800Z AUTO 04002KT 9SM 22/18 A3006 RMK SLP182 T02160184 57006 IEM_DS3505
ZGGG,2001-10-30 19:00,ZGGG 301900Z AUTO 07004KT 4SM 21/18 A3006 RMK T02100180 IEM_DS3505
ZGGG,2001-10-30 20:00,ZGGG 302000Z AUTO 01002KT 3SM 21/17 A3006 RMK T02100170 IEM_DS3505
ZGGG,2001-10-30 21:00,ZGGG 302100Z AUTO 36002KT 4SM 21/17 A3006 RMK T02100170 IEM_DS3505
ZGGG,2001-10-30 22:00,ZGGG 302200Z AUTO 4SM 21/17 A3006 RMK T02100170 IEM_DS3505
ZGGG,2001-10-30 23:00,ZGGG 302300Z AUTO 3SM 20/17 A3009 RMK T02000170 IEM_DS3505
ZGGG,2001-10-31 00:00,ZGGG 310000Z AUTO 36002KT 9SM 22/19 A3009 RMK SLP196 T02170189 52018 IEM_DS3505
ZGGG,2001-10-31 01:00,ZGGG 310100Z AUTO 10002KT 3SM 24/18 A3012 RMK T02400180 IEM_DS3505
ZGGG,2001-10-31 02:00,ZGGG 310200Z AUTO 36006KT 3SM 24/20 A3012 RMK T02400200 IEM_DS3505
ZGGG,2001-10-31 03:00,ZGGG 310300Z AUTO 09004KT 6SM 25/19 A3012 RMK SLP198 T02480194 52002 IEM_DS3505
ZGGG,2001-10-31 04:00,ZGGG 310400Z AUTO 08002KT 3SM 26/17 A3009 RMK T02600170 IEM_DS3505
ZGGG,2001-10-31 05:00,ZGGG 310500Z AUTO 30004KT 3SM 27/17 A3006 RMK T02700170 IEM_DS3505
ZGGG,2001-10-31 06:00,ZGGG 310600Z AUTO 14004KT 6SM 29/20 A3000 RMK SLP167 T02860198 57030 IEM_DS3505
ZGGG,2001-10-31 08:00,ZGGG 310800Z AUTO 33004KT 2 1/2SM 27/17 A3000 RMK T02700170 IEM_DS3505
ZGGG,2001-10-31 09:00,ZGGG 310900Z AUTO 18002KT 6SM 28/20 A3000 RMK SLP162 T02780196 57006 IEM_DS3505
ZGGG,2001-10-31 10:00,ZGGG 311000Z AUTO 10002KT 2 1/2SM 27/17 A3000 RMK T02700170 IEM_DS3505
ZGGG,2001-10-31 11:00,ZGGG 311100Z AUTO 08002KT 3SM 25/18 A3003 RMK T02500180 IEM_DS3505
ZGGG,2001-10-31 12:00,ZGGG 311200Z AUTO 00000KT 4SM 25/21 A3003 RMK SLP174 T02490213 52012 IEM_DS3505
ZGGG,2001-10-31 13:00,ZGGG 311300Z AUTO 05002KT 2 1/2SM 24/18 A3006 RMK T02400180 IEM_DS3505
ZGGG,2001-10-31 14:00,ZGGG 311400Z AUTO 06002KT 3SM 23/18 A3006 RMK T02300180 IEM_DS3505
ZGGG,2001-10-31 15:00,ZGGG 311500Z AUTO 00000KT 4SM 24/21 A3006 RMK SLP186 T02350208 52012 IEM_DS3505
ZGGG,2001-10-31 16:00,ZGGG 311600Z AUTO 3SM 24/18 A3006 RMK T02400180 IEM_DS3505
ZGGG,2001-10-31 17:00,ZGGG 311700Z AUTO 2 1/2SM 24/18 A3006 RMK T02400180 IEM_DS3505
ZGGG,2001-10-31 18:00,ZGGG 311800Z AUTO 00000KT 3SM 23/21 A3006 RMK SLP180 T02260208 57005 IEM_DS3505
ZGGG,2001-10-31 19:00,ZGGG 311900Z AUTO 2 1/2SM 23/18 A3003 RMK T02300180 IEM_DS3505
ZGGG,2001-10-31 20:00,ZGGG 312000Z AUTO 3SM 22/18 A3003 RMK T02200180 IEM_DS3505
ZGGG,2001-10-31 21:00,ZGGG 312100Z AUTO 00000KT 2 1/2SM 22/20 A3003 RMK SLP177 T02190204 57004 IEM_DS3505
ZGGG,2001-10-31 22:00,ZGGG 312200Z AUTO 2 1/2SM 22/18 A3006 RMK T02200180 IEM_DS3505
ZGGG,2001-10-31 23:00,ZGGG 312300Z AUTO 1 1/4SM 22/18 A3006 RMK T02200180 IEM_DS3505
ZGGG,2001-11-01 00:00,ZGGG 010000Z AUTO 00000KT 4SM 23/21 A3009 RMK SLP192 T02310210 52015 IEM_DS3505
ZGGG,2001-11-01 01:00,ZGGG 010100Z AUTO 03004KT 2SM 25/18 A3012 RMK T02500180 IEM_DS3505
ZGGG,2001-11-01 02:00,ZGGG 010200Z AUTO 3SM 26/17 A3009 RMK T02600170 IEM_DS3505
ZGGG,2001-11-01 03:00,ZGGG 010300Z AUTO 18002KT 7SM 28/20 A3009 RMK SLP190 T02780202 57001 IEM_DS3505
ZGGG,2001-11-01 04:00,ZGGG 010400Z AUTO 16004KT 7SM 29/17 A3006 RMK T02900170 IEM_DS3505
ZGGG,2001-11-01 05:00,ZGGG 010500Z AUTO 16002KT 7SM 29/17 A3003 RMK T02900170 IEM_DS3505
ZGGG,2001-11-01 06:00,ZGGG 010600Z AUTO 14004KT 10SM 30/19 A3000 RMK SLP159 T03040191 57031 IEM_DS3505
ZGGG,2001-11-01 07:00,ZGGG 010700Z AUTO 09004KT 7SM 29/16 A2997 RMK T02900160 IEM_DS3505
ZGGG,2001-11-01 08:00,ZGGG 010800Z AUTO 13004KT 7SM 31/17 A2994 RMK T03100170 IEM_DS3505
ZGGG,2001-11-01 09:00,ZGGG 010900Z AUTO 00000KT 9SM 29/20 A2997 RMK SLP153 T02930205 57006 IEM_DS3505
ZGGG,2001-11-01 10:00,ZGGG 011000Z AUTO 3SM 28/17 A2997 RMK T02800170 IEM_DS3505
ZGGG,2001-11-01 11:00,ZGGG 011100Z AUTO 16004KT 28/18 A3000 RMK T02800180 IEM_DS3505
ZGGG,2001-11-01 12:00,ZGGG 011200Z AUTO 20002KT 9SM 27/21 A3000 RMK SLP165 T02710213 52012 IEM_DS3505
ZGGG,2001-11-01 13:00,ZGGG 011300Z AUTO 17006KT 6SM 27/18 A3003 RMK T02700180 IEM_DS3505
ZGGG,2001-11-01 14:00,ZGGG 011400Z AUTO 15004KT 6SM 26/18 A3003 RMK T02600180 IEM_DS3505
ZGGG,2001-11-01 15:00,ZGGG 011500Z AUTO 00000KT 9SM 25/21 A3003 RMK SLP173 T02460207 52008 IEM_DS3505
ZGGG,2001-11-01 17:00,ZGGG 011700Z AUTO 16006KT 6SM 25/17 A3003 RMK T02500170 IEM_DS3505
ZGGG,2001-11-01 18:00,ZGGG 011800Z AUTO 00000KT 9SM 24/20 A3000 RMK SLP165 T02350204 57008 IEM_DS3505
ZGGG,2001-11-01 19:00,ZGGG 011900Z AUTO 6SM 23/18 A3000 RMK T02300180 IEM_DS3505
ZGGG,2001-11-01 20:00,ZGGG 012000Z AUTO 6SM 23/18 A3000 RMK T02300180 IEM_DS3505
ZGGG,2001-11-01 21:00,ZGGG 012100Z AUTO 00000KT 9SM 23/20 A3000 RMK SLP158 T02260205 57007 IEM_DS3505
ZGGG,2001-11-01 22:00,ZGGG 012200Z AUTO 5SM 24/18 A3000 RMK T02400180 IEM_DS3505
ZGGG,2001-11-01 23:00,ZGGG 012300Z AUTO 2SM 23/18 A3003 RMK T02300180 IEM_DS3505
ZGGG,2001-11-02 00:00,ZGGG 020000Z AUTO 00000KT 7SM 24/20 A3003 RMK SLP174 T02380204 52016 IEM_DS3505
ZGGG,2001-11-02 01:00,ZGGG 020100Z AUTO 12004KT 3SM 25/18 A3003 RMK T02500180 IEM_DS3505
ZGGG,2001-11-02 02:00,ZGGG 020200Z AUTO 14006KT 3SM 26/18 A3003 RMK T02600180 IEM_DS3505
ZGGG,2001-11-02 03:00,ZGGG 020300Z AUTO 20004KT 7SM 28/22 A3003 RMK SLP171 T02750216 57003 IEM_DS3505
ZGGG,2001-11-02 04:00,ZGGG 020400Z AUTO 16008KT 3SM 28/18 A3000 RMK T02800180 IEM_DS3505
ZGGG,2001-11-02 05:00,ZGGG 020500Z AUTO 15008KT 28/18 A2997 RMK T02800180 IEM_DS3505
ZGGG,2001-11-02 06:00,ZGGG 020600Z AUTO 14004KT 9SM 29/21 A2994 RMK SLP147 T02920210 57024 IEM_DS3505
ZGGG,2001-11-02 07:00,ZGGG 020700Z AUTO 17006KT 7SM 29/18 A2994 RMK T02900180 IEM_DS3505
ZGGG,2001-11-02 08:00,ZGGG 020800Z AUTO 16006KT 7SM 29/18 A2991 RMK T02900180 IEM_DS3505
ZGGG,2001-11-02 09:00,ZGGG 020900Z AUTO 16004KT 9SM 28/21 A2991 RMK SLP135 T02830210 57012 IEM_DS3505
ZGGG,2001-11-02 10:00,ZGGG 021000Z AUTO 15004KT 5SM 28/18 A2991 RMK T02800180 IEM_DS3505
ZGGG,2001-11-02 11:00,ZGGG 021100Z AUTO 14004KT 5SM 27/18 A2994 RMK T02700180 IEM_DS3505
ZGGG,2001-11-02 12:00,ZGGG 021200Z AUTO 16004KT 9SM 27/21 A2994 RMK SLP144 T02670207 52009 IEM_DS3505
ZGGG,2001-11-02 13:00,ZGGG 021300Z AUTO 17006KT 7SM 26/18 A2997 RMK T02600180 IEM_DS3505
ZGGG,2001-11-02 14:00,ZGGG 021400Z AUTO 17004KT 26/19 A2997 RMK T02600190 IEM_DS3505
ZGGG,2001-11-02 15:00,ZGGG 021500Z AUTO 20002KT 7SM 25/22 A2997 RMK SLP154 T02520215 52010 IEM_DS3505
ZGGG,2001-11-02 16:00,ZGGG 021600Z AUTO 17008KT 6SM 26/19 A2997 RMK T02600190 IEM_DS3505
ZGGG,2001-11-02 17:00,ZGGG 021700Z AUTO 17008KT 26/19 A2997 RMK T02600190 IEM_DS3505
ZGGG,2001-11-02 18:00,ZGGG 021800Z AUTO 14004KT 2 1/2SM 25/22 A2994 RMK SLP146 T02480221 57008 IEM_DS3505
ZGGG,2001-11-02 19:00,ZGGG 021900Z AUTO 15004KT 3SM 25/20 A2997 RMK T02500200 IEM_DS3505
ZGGG,2001-11-02 20:00,ZGGG 022000Z AUTO 16004KT 3SM 25/20 A2997 RMK T02500200 IEM_DS3505
ZGGG,2001-11-02 21:00,ZGGG 022100Z AUTO 11002KT 2 1/2SM 25/22 A2997 RMK SLP151 T02480224 52005 IEM_DS3505
ZGGG,2001-11-02 22:00,ZGGG 022200Z AUTO 15006KT 3SM 25/20 A2997 RMK T02500200 IEM_DS3505
ZGGG,2001-11-02 23:00,ZGGG 022300Z AUTO 14004KT 1 1/2SM 24/20 A2997 RMK T02400200 IEM_DS3505
ZGGG,2001-11-03 00:00,ZGGG 030000Z AUTO 11004KT 3SM 25/22 A3000 RMK SLP163 T02510220 52012 IEM_DS3505
ZGGG,2001-11-03 01:00,ZGGG 030100Z AUTO 16004KT 2 1/2SM 26/19 A3003 RMK T02600190 IEM_DS3505
ZGGG,2001-11-03 02:00,ZGGG 030200Z AUTO 17006KT 3SM 27/19 A3003 RMK T02700190 IEM_DS3505
ZGGG,2001-11-03 03:00,ZGGG 030300Z AUTO 16002KT 4SM 28/22 A3003 RMK SLP170 T02770219 52007 IEM_DS3505
ZGGG,2001-11-03 04:00,ZGGG 030400Z AUTO 18004KT 3SM 29/19 A3000 RMK T02900190 IEM_DS3505
ZGGG,2001-11-03 05:00,ZGGG 030500Z AUTO 32006KT 3SM 29/19 A2997 RMK T02900190 IEM_DS3505
ZGGG,2001-11-03 06:00,ZGGG 030600Z AUTO 34004KT 5SM 29/22 A2994 RMK SLP138 T02890223 57032 IEM_DS3505
ZGGG,2001-11-03 07:00,ZGGG 030700Z AUTO 35008KT 3SM 27/20 A2991 RMK T02700200 IEM_DS3505
ZGGG,2001-11-03 08:00,ZGGG 030800Z AUTO 36008KT 5SM 27/19 A2991 RMK T02700190 IEM_DS3505
ZGGG,2001-11-03 09:00,ZGGG 030900Z AUTO 36006KT 9SM 27/22 A2991 RMK SLP132 T02680219 57006 IEM_DS3505
ZGGG,2001-11-03 10:00,ZGGG 031000Z AUTO 36008KT 6SM 25/18 A2991 RMK T02500180 IEM_DS3505
ZGGG,2001-11-03 11:00,ZGGG 031100Z AUTO 01010KT 6SM 24/18 A2994 RMK T02400180 IEM_DS3505
ZGGG,2001-11-03 12:00,ZGGG 031200Z AUTO 34006KT 11SM 24/20 A2997 RMK SLP145 T02390201 52013 IEM_DS3505
ZGGG,2001-11-03 13:00,ZGGG 031300Z AUTO 02010KT 7SM 23/17 A2997 RMK T02300170 IEM_DS3505
ZGGG,2001-11-03 14:00,ZGGG 031400Z AUTO 04014KT 7SM 23/16 A3000 RMK T02300160 IEM_DS3505
ZGGG,2001-11-03 15:00,ZGGG 031500Z AUTO 36002KT 11SM 23/19 A3000 RMK SLP164 T02320191 52019 IEM_DS3505
ZGGG,2001-11-03 16:00,ZGGG 031600Z AUTO 03006KT 7SM 23/16 A3000 RMK T02300160 IEM_DS3505
ZGGG,2001-11-03 17:00,ZGGG 031700Z AUTO 04008KT 7SM 22/16 A3000 RMK T02200160 IEM_DS3505
ZGGG,2001-11-03 18:00,ZGGG 031800Z AUTO 02002KT 11SM 23/19 A3000 RMK SLP164 T02310189 54000 IEM_DS3505
ZGGG,2001-11-03 19:00,ZGGG 031900Z AUTO 04008KT 7SM 22/16 A3000 RMK T02200160 IEM_DS3505
ZGGG,2001-11-03 20:00,ZGGG 032000Z AUTO 03004KT 4SM 21/17 A3000 RMK T02100170 IEM_DS3505
ZGGG,2001-11-03 21:00,ZGGG 032100Z AUTO 09002KT 9SM 23/19 A3000 RMK SLP161 T02270191 57003 IEM_DS3505
ZGGG,2001-11-03 22:00,ZGGG 032200Z AUTO 05006KT 7SM 21/17 A3000 RMK T02100170 IEM_DS3505
ZGGG,2001-11-03 23:00,ZGGG 032300Z AUTO 04006KT 7SM 21/17 A3003 RMK T02100170 IEM_DS3505
ZGGG,2001-11-04 00:00,ZGGG 040000Z AUTO 09004KT 12SM 23/20 A3003 RMK 60000 SLP177 T02320196 52015 IEM_DS3505
ZGGG,2001-11-04 01:00,ZGGG 040100Z AUTO 09004KT 7SM 24/18 A3006 RMK T02400180 IEM_DS3505
ZGGG,2001-11-04 02:00,ZGGG 040200Z AUTO 12004KT 7SM 25/18 A3006 RMK T02500180 IEM_DS3505
ZGGG,2001-11-04 03:00,ZGGG 040300Z AUTO 14006KT 11SM 26/20 A3003 RMK SLP175 T02600202 57002 IEM_DS3505
ZGGG,2001-11-04 04:00,ZGGG 040400Z AUTO 17008KT 5SM 26/18 A3003 RMK T02600180 IEM_DS3505
ZGGG,2001-11-04 05:00,ZGGG 040500Z AUTO 16004KT 5SM 27/18 A3000 RMK T02700180 IEM_DS3505
ZGGG,2001-11-04 06:00,ZGGG 040600Z AUTO 14006KT 10SM 26/21 A3000 RMK 60003 SLP158 T02620208 57016 IEM_DS3505
ZGGG,2001-11-04 07:00,ZGGG 040700Z AUTO 19006KT 5SM 26/18 A2997 RMK T02600180 IEM_DS3505
ZGGG,2001-11-04 08:00,ZGGG 040800Z AUTO 19004KT 5SM 27/18 A2997 RMK T02700180 IEM_DS3505
ZGGG,2001-11-04 09:00,ZGGG 040900Z AUTO 14006KT 11SM 27/20 A2997 RMK SLP154 T02680198 57004 IEM_DS3505
ZGGG,2001-11-04 10:00,ZGGG 041000Z AUTO 15002KT 7SM 26/17 A3000 RMK T02600170 IEM_DS3505
ZGGG,2001-11-04 11:00,ZGGG 041100Z AUTO 16004KT 7SM 26/18 A3000 RMK T02600180 IEM_DS3505
ZGGG,2001-11-04 12:00,ZGGG 041200Z AUTO 14004KT 11SM 26/20 A3003 RMK SLP173 T02570199 52018 IEM_DS3505
ZGGG,2001-11-04 13:00,ZGGG 041300Z AUTO 13002KT 6SM 26/18 A3006 RMK T02600180 IEM_DS3505
ZGGG,2001-11-04 14:00,ZGGG 041400Z AUTO 20004KT 6SM 25/17 A3006 RMK T02500170 IEM_DS3505
ZGGG,2001-11-04 15:00,ZGGG 041500Z AUTO 16004KT 9SM 25/20 A3006 RMK SLP182 T02470201 52010 IEM_DS3505
ZGGG,2001-11-04 16:00,ZGGG 041600Z AUTO 20002KT 7SM 24/18 A3006 RMK T02400180 IEM_DS3505
ZGGG,2001-11-04 17:00,ZGGG 041700Z AUTO 7SM 24/18 A3006 RMK T02400180 IEM_DS3505
ZGGG,2001-11-04 18:00,ZGGG 041800Z AUTO 00000KT 8SM 23/20 A3006 RMK SLP183 T02340205 54000 IEM_DS3505
ZGGG,2001-11-04 19:00,ZGGG 041900Z AUTO 6SM 23/19 A3006 RMK T02300190 IEM_DS3505
ZGGG,2001-11-04 20:00,ZGGG 042000Z AUTO 09002KT 5SM 22/18 A3006 RMK T02200180 IEM_DS3505
ZGGG,2001-11-04 21:00,ZGGG 042100Z AUTO 07004KT 8SM 22/20 A3006 RMK 70000 SLP179 T02160204 57004 IEM_DS3505
ZGGG,2001-11-04 22:00,ZGGG 042200Z AUTO 4SM 22/18 A3006 RMK T02200180 IEM_DS3505
ZGGG,2001-11-04 23:00,ZGGG 042300Z AUTO 06004KT 1 1/2SM 22/19 A3009 RMK T02200190 IEM_DS3505
ZGGG,2001-11-05 00:00,ZGGG 050000Z AUTO 34002KT 7SM 23/21 A3012 RMK 70003 SLP200 T02280210 52021 IEM_DS3505
ZGGG,2001-11-05 01:00,ZGGG 050100Z AUTO 04002KT 3SM 24/19 A3012 RMK T02400190 IEM_DS3505
ZGGG,2001-11-05 02:00,ZGGG 050200Z AUTO 04004KT 9SM 25/18 A3015 RMK T02500180 IEM_DS3505
ZGGG,2001-11-05 03:00,ZGGG 050300Z AUTO 32006KT 9SM 26/20 A3015 RMK SLP208 T02600205 52008 IEM_DS3505
ZGGG,2001-11-05 04:00,ZGGG 050400Z AUTO 04010KT 3SM 27/18 A3012 RMK T02700180 IEM_DS3505
ZGGG,2001-11-05 05:00,ZGGG 050500Z AUTO 01006KT 3SM 26/17 A3012 RMK T02600170 IEM_DS3505
ZGGG,2001-11-05 06:00,ZGGG 050600Z AUTO 02006KT 9SM 28/20 A3009 RMK SLP192 T02820204 57015 IEM_DS3505
ZGGG,2001-11-05 07:00,ZGGG 050700Z AUTO 36012KT 6SM 26/16 A3009 RMK T02600160 IEM_DS3505
ZGGG,2001-11-05 08:00,ZGGG 050800Z AUTO 36016KT 6SM 24/15 A3012 RMK T02400150 IEM_DS3505
ZGGG,2001-11-05 09:00,ZGGG 050900Z AUTO 36010KT 11SM 23/17 A3012 RMK SLP201 T02320171 52008 IEM_DS3505
ZGGG,2001-11-05 10:00,ZGGG 051000Z AUTO 36014KT 6SM 21/14 A3015 RMK T02100140 IEM_DS3505
ZGGG,2001-11-05 11:00,ZGGG 051100Z AUTO 36012KT 6SM 21/13 A3015 RMK T02100130 IEM_DS3505
ZGGG,2001-11-05 12:00,ZGGG 051200Z AUTO 36006KT 11SM 20/16 A3018 RMK SLP217 T02050157 52016 IEM_DS3505
ZGGG,2001-11-05 13:00,ZGGG 051300Z AUTO 36010KT 6SM 21/13 A3018 RMK T02100130 IEM_DS3505
ZGGG,2001-11-05 14:00,ZGGG 051400Z AUTO 36010KT 6SM 20/13 A3021 RMK T02000130 IEM_DS3505
ZGGG,2001-11-05 15:00,ZGGG 051500Z AUTO 36006KT 12SM 20/15 A3021 RMK SLP226 T01990146 52009 IEM_DS3505
ZGGG,2001-11-05 16:00,ZGGG 051600Z AUTO 02010KT 6SM 19/12 A3021 RMK T01900120 IEM_DS3505
ZGGG,2001-11-05 17:00,ZGGG 051700Z AUTO 01010KT 6SM 19/12 A3021 RMK T01900120 IEM_DS3505
ZGGG,2001-11-05 18:00,ZGGG 051800Z AUTO 02004KT 11SM 19/14 A3018 RMK SLP224 T01900136 57002 IEM_DS3505
ZGGG,2001-11-05 19:00,ZGGG 051900Z AUTO 02010KT 6SM 19/11 A3018 RMK T01900110 IEM_DS3505
ZGGG,2001-11-05 20:00,ZGGG 052000Z AUTO 02010KT 6SM 19/11 A3018 RMK T01900110 IEM_DS3505
ZGGG,2001-11-05 21:00,ZGGG 052100Z AUTO 02004KT 11SM 19/13 A3018 RMK SLP224 T01880128 54000 IEM_DS3505
ZGGG,2001-11-05 22:00,ZGGG 052200Z AUTO 01008KT 6SM 19/10 A3021 RMK T01900100 IEM_DS3505
ZGGG,2001-11-05 23:00,ZGGG 052300Z AUTO 03014KT 6SM 19/08 A3024 RMK T01900080 IEM_DS3505
ZGGG,2001-11-06 00:00,ZGGG 060000Z AUTO 02006KT 14SM 19/11 A3027 RMK SLP250 T01900107 52025 IEM_DS3505
ZGGG,2001-11-06 01:00,ZGGG 060100Z AUTO 02012KT 6SM 19/07 A3027 RMK T01900070 IEM_DS3505
ZGGG,2001-11-06 02:00,ZGGG 060200Z AUTO 02010KT 6SM 20/07 A3030 RMK T02000070 IEM_DS3505
ZGGG,2001-11-06 03:00,ZGGG 060300Z AUTO 02004KT 14SM 20/11 A3027 RMK SLP252 T02010110 52002 IEM_DS3505
ZGGG,2001-11-06 04:00,ZGGG 060400Z AUTO 04010KT 6SM 22/06 A3024 RMK T02200060 IEM_DS3505
ZGGG,2001-11-06 05:00,ZGGG 060500Z AUTO 02008KT 6SM 23/06 A3021 RMK T02300060 IEM_DS3505
ZGGG,2001-11-06 06:00,ZGGG 060600Z AUTO 02004KT 16SM 24/11 A3018 RMK SLP217 T02400112 57034 IEM_DS3505
ZGGG,2001-11-06 07:00,ZGGG 060700Z AUTO 04010KT 6SM 24/05 A3015 RMK T02400050 IEM_DS3505
ZGGG,2001-11-06 08:00,ZGGG 060800Z AUTO 05012KT 6SM 25/08 A3015 RMK T02500080 IEM_DS3505
ZGGG,2001-11-06 09:00,ZGGG 060900Z AUTO 34004KT 16SM 23/11 A3015 RMK SLP208 T02340113 57009 IEM_DS3505
ZGGG,2001-11-06 10:00,ZGGG 061000Z AUTO 36006KT 6SM 23/12 A3015 RMK T02300120 IEM_DS3505
ZGGG,2001-11-06 11:00,ZGGG 061100Z AUTO 01008KT 6SM 22/12 A3015 RMK T02200120 IEM_DS3505
ZGGG,2001-11-06 12:00,ZGGG 061200Z AUTO 36004KT 14SM 21/12 A3018 RMK SLP218 T02070120 52009 IEM_DS3505
ZGGG,2001-11-06 13:00,ZGGG 061300Z AUTO 01010KT 6SM 21/13 A3018 RMK T02100130 IEM_DS3505
ZGGG,2001-11-06 14:00,ZGGG 061400Z AUTO 04012KT 6SM 19/13 A3018 RMK T01900130 IEM_DS3505
ZGGG,2001-11-06 15:00,ZGGG 061500Z AUTO 02006KT 14SM 19/11 A3021 RMK SLP226 T01880113 52008 IEM_DS3505
ZGGG,2001-11-06 16:00,ZGGG 061600Z AUTO 02006KT 6SM 19/12 A3018 RMK T01900120 IEM_DS3505
ZGGG,2001-11-06 17:00,ZGGG 061700Z AUTO 02006KT 6SM 18/13 A3018 RMK T01800130 IEM_DS3505
ZGGG,2001-11-06 18:00,ZGGG 061800Z AUTO 34004KT 12SM 17/11 A3018 RMK SLP213 T01740109 57012 IEM_DS3505
ZGGG,2001-11-06 19:00,ZGGG 061900Z AUTO 36006KT 6SM 18/13 A3015 RMK T01800130 IEM_DS3505
ZGGG,2001-11-06 20:00,ZGGG 062000Z AUTO 02006KT 6SM 17/12 A3015 RMK T01700120 IEM_DS3505
ZGGG,2001-11-06 21:00,ZGGG 062100Z AUTO 34004KT 9SM 17/10 A3015 RMK SLP214 T01660097 54000 IEM_DS3505
ZGGG,2001-11-06 22:00,ZGGG 062200Z AUTO 04008KT 6SM 16/13 A3018 RMK T01600130 IEM_DS3505
ZGGG,2001-11-06 23:00,ZGGG 062300Z AUTO 02008KT 6SM 17/11 A3021 RMK T01700110 IEM_DS3505
ZGGG,2001-11-07 00:00,ZGGG 070000Z AUTO 34004KT 9SM 18/10 A3021 RMK SLP232 T01780099 52018 IEM_DS3505
ZGGG,2001-11-07 01:00,ZGGG 070100Z AUTO 02008KT 6SM 19/11 A3021 RMK T01900110 IEM_DS3505
ZGGG,2001-11-07 02:00,ZGGG 070200Z AUTO 03010KT 6SM 19/11 A3021 RMK T01900110 IEM_DS3505
ZGGG,2001-11-07 03:00,ZGGG 070300Z AUTO 04006KT 11SM 22/11 A3018 RMK SLP220 T02240113 57011 IEM_DS3505
ZGGG,2001-11-07 04:00,ZGGG 070400Z AUTO 02006KT 6SM 22/11 A3015 RMK T02200110 IEM_DS3505
ZGGG,2001-11-07 05:00,ZGGG 070500Z AUTO 01006KT 6SM 23/11 A3009 RMK T02300110 IEM_DS3505
ZGGG,2001-11-07 06:00,ZGGG 070600Z AUTO 32004KT 11SM 25/12 A3006 RMK SLP181 T02480123 57039 IEM_DS3505
ZGGG,2001-11-07 07:00,ZGGG 070700Z AUTO 36006KT 6SM 24/11 A3003 RMK T02400110 IEM_DS3505
ZGGG,2001-11-07 08:00,ZGGG 070800Z AUTO 05006KT 6SM 25/11 A3003 RMK T02500110 IEM_DS3505
ZGGG,2001-11-07 09:00,ZGGG 070900Z AUTO 34004KT 11SM 24/13 A3003 RMK SLP172 T02420128 57009 IEM_DS3505
ZGGG,2001-11-07 10:00,ZGGG 071000Z AUTO 07004KT 6SM 23/13 A3003 RMK T02300130 IEM_DS3505
ZGGG,2001-11-07 11:00,ZGGG 071100Z AUTO 07002KT 6SM 22/14 A3006 RMK T02200140 IEM_DS3505
ZGGG,2001-11-07 12:00,ZGGG 071200Z AUTO 00000KT 10SM 21/14 A3009 RMK SLP188 T02070144 52015 IEM_DS3505
ZGGG,2001-11-07 13:00,ZGGG 071300Z AUTO 06004KT 6SM 21/16 A3009 RMK T02100160 IEM_DS3505
ZGGG,2001-11-07 14:00,ZGGG 071400Z AUTO 05004KT 5SM 20/17 A3009 RMK T02000170 IEM_DS3505
ZGGG,2001-11-07 15:00,ZGGG 071500Z AUTO 07002KT 10SM 19/13 A3009 RMK SLP192 T01930132 52005 IEM_DS3505
ZGGG,2001-11-07 16:00,ZGGG 071600Z AUTO 6SM 20/14 A3009 RMK T02000140 IEM_DS3505
ZGGG,2001-11-07 17:00,ZGGG 071700Z AUTO 08002KT 6SM 20/16 A3009 RMK T02000160 IEM_DS3505
ZGGG,2001-11-07 18:00,ZGGG 071800Z AUTO 00000KT 9SM 18/14 A3009 RMK SLP187 T01760141 57005 IEM_DS3505
ZGGG,2001-11-07 19:00,ZGGG 071900Z AUTO 05006KT 6SM 18/18 A3009 RMK T01800180 IEM_DS3505
ZGGG,2001-11-07 20:00,ZGGG 072000Z AUTO 04008KT 5SM 18/17 A3006 RMK T01800170 IEM_DS3505
ZGGG,2001-11-07 21:00,ZGGG 072100Z AUTO 00000KT 9SM 18/13 A3006 RMK SLP180 T01750134 57007 IEM_DS3505
ZGGG,2001-11-07 22:00,ZGGG 072200Z AUTO 04006KT 5SM 17/17 A3006 RMK T01700170 IEM_DS3505
ZGGG,2001-11-07 23:00,ZGGG 072300Z AUTO 02006KT 5SM 17/16 A3009 RMK T01700160 IEM_DS3505
ZGGG,2001-11-08 00:00,ZGGG 080000Z AUTO 00000KT 11SM 19/12 A3012 RMK SLP196 T01880124 52016 IEM_DS3505
ZGGG,2001-11-08 01:00,ZGGG 080100Z AUTO 04008KT 6SM 21/13 A3012 RMK T02100130 IEM_DS3505
ZGGG,2001-11-08 02:00,ZGGG 080200Z AUTO 03006KT 6SM 22/11 A3012 RMK T02200110 IEM_DS3505
ZGGG,2001-11-08 03:00,ZGGG 080300Z AUTO 02004KT 11SM 24/12 A3009 RMK SLP192 T02380121 57004 IEM_DS3505
ZGGG,2001-11-08 04:00,ZGGG 080400Z AUTO 36006KT 6SM 24/07 A3006 RMK T02400070 IEM_DS3505
ZGGG,2001-11-08 05:00,ZGGG 080500Z AUTO 02006KT 6SM 25/01 A3003 RMK T02500010 IEM_DS3505
ZGGG,2001-11-08 06:00,ZGGG 080600Z AUTO 34002KT 14SM 26/ A3000 RMK SLP159 57033 IEM_DS3505
ZGGG,2001-11-08 07:00,ZGGG 080700Z AUTO 04008KT 6SM 26/M05 A2997 RMK T02601050 IEM_DS3505
ZGGG,2001-11-08 08:00,ZGGG 080800Z AUTO 02008KT 6SM 27/M04 A2997 RMK T02701040 IEM_DS3505
ZGGG,2001-11-08 09:00,ZGGG 080900Z AUTO 36002KT 12SM 26/11 A3000 RMK SLP157 T02560112 57002 IEM_DS3505
ZGGG,2001-11-08 10:00,ZGGG 081000Z AUTO 36004KT 6SM 26/06 A3000 RMK T02600060 IEM_DS3505
ZGGG,2001-11-08 11:00,ZGGG 081100Z AUTO 36006KT 6SM 25/06 A3000 RMK T02500060 IEM_DS3505
ZGGG,2001-11-08 12:00,ZGGG 081200Z AUTO 00000KT 10SM 23/13 A3003 RMK SLP174 T02280127 52017 IEM_DS3505
ZGGG,2001-11-08 13:00,ZGGG 081300Z AUTO 04008KT 6SM 21/13 A3006 RMK T02100130 IEM_DS3505
ZGGG,2001-11-08 14:00,ZGGG 081400Z AUTO 04006KT 6SM 21/15 A3006 RMK T02100150 IEM_DS3505
ZGGG,2001-11-08 15:00,ZGGG 081500Z AUTO 02004KT 9SM 21/13 A3006 RMK SLP181 T02140130 52007 IEM_DS3505
ZGGG,2001-11-08 16:00,ZGGG 081600Z AUTO 04008KT 6SM 20/15 A3006 RMK T02000150 IEM_DS3505
ZGGG,2001-11-08 17:00,ZGGG 081700Z AUTO 04006KT 6SM 19/16 A3006 RMK T01900160 IEM_DS3505
ZGGG,2001-11-08 18:00,ZGGG 081800Z AUTO 34004KT 10SM 20/11 A3003 RMK SLP174 T01960108 57007 IEM_DS3505
ZGGG,2001-11-08 19:00,ZGGG 081900Z AUTO 05006KT 6SM 18/13 A3003 RMK T01800130 IEM_DS3505
ZGGG,2001-11-08 20:00,ZGGG 082000Z AUTO 36008KT 6SM 19/08 A3006 RMK T01900080 IEM_DS3505
ZGGG,2001-11-08 21:00,ZGGG 082100Z AUTO 02006KT 11SM 19/06 A3006 RMK SLP178 T01900064 52004 IEM_DS3505
ZGGG,2001-11-08 22:00,ZGGG 082200Z AUTO 01008KT 6SM 18/08 A3009 RMK T01800080 IEM_DS3505
ZGGG,2001-11-08 23:00,ZGGG 082300Z AUTO 01008KT 6SM 18/09 A3009 RMK T01800090 IEM_DS3505
ZGGG,2001-11-09 00:00,ZGGG 090000Z AUTO 34006KT 14SM 18/08 A3012 RMK SLP198 T01820083 52020 IEM_DS3505
ZGGG,2001-11-09 01:00,ZGGG 090100Z AUTO 01012KT 6SM 20/03 A3012 RMK T02000030 IEM_DS3505
ZGGG,2001-11-09 02:00,ZGGG 090200Z AUTO 02014KT 6SM 22/M04 A3015 RMK T02201040 IEM_DS3505
ZGGG,2001-11-09 03:00,ZGGG 090300Z AUTO 36006KT 12SM 23/08 A3012 RMK SLP202 T02310080 52004 IEM_DS3505
ZGGG,2001-11-09 04:00,ZGGG 090400Z AUTO 02012KT 6SM 24/05 A3009 RMK T02400050 IEM_DS3505
ZGGG,2001-11-09 05:00,ZGGG 090500Z AUTO 36010KT 6SM 24/07 A3006 RMK T02400070 IEM_DS3505
ZGGG,2001-11-09 06:00,ZGGG 090600Z AUTO 36010KT 14SM 25/08 A3003 RMK SLP173 T02530080 57029 IEM_DS3505
ZGGG,2001-11-09 07:00,ZGGG 090700Z AUTO 01012KT 6SM 26/06 A3000 RMK T02600060 IEM_DS3505
ZGGG,2001-11-09 08:00,ZGGG 090800Z AUTO 36012KT 6SM 25/04 A3000 RMK T02500040 IEM_DS3505
ZGGG,2001-11-09 09:00,ZGGG 090900Z AUTO 36006KT 14SM 24/08 A3000 RMK SLP163 T02420078 57010 IEM_DS3505
ZGGG,2001-11-09 10:00,ZGGG 091000Z AUTO 02012KT 6SM 24/04 A3003 RMK T02400040 IEM_DS3505
ZGGG,2001-11-09 11:00,ZGGG 091100Z AUTO 36008KT 6SM 23/09 A3003 RMK T02300090 IEM_DS3505
ZGGG,2001-11-09 12:00,ZGGG 091200Z AUTO 36008KT 12SM 22/05 A3006 RMK SLP179 T02190047 52016 IEM_DS3505
ZGGG,2001-11-09 13:00,ZGGG 091300Z AUTO 02012KT 6SM 22/07 A3009 RMK T02200070 IEM_DS3505
ZGGG,2001-11-09 14:00,ZGGG 091400Z AUTO 02010KT 6SM 21/07 A3009 RMK T02100070 IEM_DS3505
ZGGG,2001-11-09 15:00,ZGGG 091500Z AUTO 36006KT 11SM 20/05 A3009 RMK SLP188 T02010050 52009 IEM_DS3505
ZGGG,2001-11-09 16:00,ZGGG 091600Z AUTO 01006KT 6SM 19/07 A3009 RMK T01900070 IEM_DS3505
ZGGG,2001-11-09 17:00,ZGGG 091700Z AUTO 02008KT 6SM 19/07 A3009 RMK T01900070 IEM_DS3505
ZGGG,2001-11-09 18:00,ZGGG 091800Z AUTO 36004KT 11SM 18/05 A3006 RMK SLP181 T01840052 57007 IEM_DS3505
ZGGG,2001-11-09 19:00,ZGGG 091900Z AUTO 02008KT 6SM 18/09 A3006 RMK T01800090 IEM_DS3505
ZGGG,2001-11-09 20:00,ZGGG 092000Z AUTO 03010KT 6SM 17/09 A3006 RMK T01700090 IEM_DS3505
ZGGG,2001-11-09 21:00,ZGGG 092100Z AUTO 36006KT 11SM 17/07 A3009 RMK SLP186 T01720072 52005 IEM_DS3505
ZGGG,2001-11-09 22:00,ZGGG 092200Z AUTO 03010KT 6SM 17/11 A3009 RMK T01700110 IEM_DS3505
ZGGG,2001-11-09 23:00,ZGGG 092300Z AUTO 02008KT 6SM 17/11 A3009 RMK T01700110 IEM_DS3505
ZGGG,2001-11-10 00:00,ZGGG 100000Z AUTO 36008KT 10SM 17/08 A3012 RMK SLP194 T01740080 52008 IEM_DS3505
ZGGG,2001-11-10 01:00,ZGGG 100100Z AUTO 03014KT 6SM 19/12 A3012 RMK T01900120 IEM_DS3505
ZGGG,2001-11-10 02:00,ZGGG 100200Z AUTO 01012KT 6SM 20/11 A3012 RMK T02000110 IEM_DS3505
ZGGG,2001-11-10 03:00,ZGGG 100300Z AUTO 32008KT 10SM 21/10 A3012 RMK SLP196 T02120095 52002 IEM_DS3505
ZGGG,2001-11-10 04:00,ZGGG 100400Z AUTO 03012KT 6SM 22/12 A3006 RMK T02200120 IEM_DS3505
ZGGG,2001-11-10 05:00,ZGGG 100500Z AUTO 03014KT 6SM 23/11 A3003 RMK T02300110 IEM_DS3505
ZGGG,2001-11-10 06:00,ZGGG 100600Z AUTO 34008KT 11SM 24/10 A3000 RMK SLP164 T02430100 57032 IEM_DS3505
ZGGG,2001-11-10 07:00,ZGGG 100700Z AUTO 02010KT 6SM 24/11 A3000 RMK T02400110 IEM_DS3505
ZGGG,2001-11-10 08:00,ZGGG 100800Z AUTO 35008KT 6SM 24/12 A3000 RMK T02400120 IEM_DS3505
ZGGG,2001-11-10 09:00,ZGGG 100900Z AUTO 34006KT 11SM 23/10 A3000 RMK SLP160 T02330103 57004 IEM_DS3505
ZGGG,2001-11-10 10:00,ZGGG 101000Z AUTO 36010KT 6SM 22/12 A3003 RMK T02200120 IEM_DS3505
ZGGG,2001-11-10 11:00,ZGGG 101100Z AUTO 36008KT 6SM 22/13 A3003 RMK T02200130 IEM_DS3505
ZGGG,2001-11-10 12:00,ZGGG 101200Z AUTO 34004KT 10SM 20/11 A3006 RMK SLP179 T02030113 52018 IEM_DS3505
ZGGG,2001-11-10 13:00,ZGGG 101300Z AUTO 02008KT 6SM 21/14 A3006 RMK T02100140 IEM_DS3505
ZGGG,2001-11-10 14:00,ZGGG 101400Z AUTO 04006KT 6SM 19/14 A3009 RMK T01900140 IEM_DS3505
ZGGG,2001-11-10 15:00,ZGGG 101500Z AUTO 34004KT 10SM 19/11 A3009 RMK SLP190 T01890106 52012 IEM_DS3505
ZGGG,2001-11-10 16:00,ZGGG 101600Z AUTO 01006KT 6SM 19/12 A3006 RMK T01900120 IEM_DS3505
ZGGG,2001-11-10 17:00,ZGGG 101700Z AUTO 01008KT 6SM 19/12 A3006 RMK T01900120 IEM_DS3505
ZGGG,2001-11-10 18:00,ZGGG 101800Z AUTO 34004KT 9SM 18/09 A3006 RMK SLP183 T01810087 57007 IEM_DS3505
ZGGG,2001-11-10 19:00,ZGGG 101900Z AUTO 03008KT 6SM 18/13 A3006 RMK T01800130 IEM_DS3505
ZGGG,2001-11-10 20:00,ZGGG 102000Z AUTO 02008KT 6SM 17/12 A3006 RMK T01700120 IEM_DS3505
ZGGG,2001-11-10 21:00,ZGGG 102100Z AUTO 36002KT 10SM 17/08 A3006 RMK SLP177 T01660079 57006 IEM_DS3505
ZGGG,2001-11-10 22:00,ZGGG 102200Z AUTO 04006KT 6SM 15/13 A3006 RMK T01500130 IEM_DS3505
ZGGG,2001-11-10 23:00,ZGGG 102300Z AUTO 01006KT 6SM 17/12 A3009 RMK T01700120 IEM_DS3505
ZGGG,2001-11-11 00:00,ZGGG 110000Z AUTO 34004KT 11SM 18/08 A3009 RMK SLP190 T01750081 52012 IEM_DS3505
ZGGG,2001-11-11 01:00,ZGGG 110100Z AUTO 02012KT 6SM 19/11 A3012 RMK T01900110 IEM_DS3505
ZGGG,2001-11-11 02:00,ZGGG 110200Z AUTO 01012KT 6SM 20/09 A3012 RMK T02000090 IEM_DS3505
ZGGG,2001-11-11 03:00,ZGGG 110300Z AUTO 07004KT 14SM 22/08 A3009 RMK SLP193 T02190077 52004 IEM_DS3505
ZGGG,2001-11-11 04:00,ZGGG 110400Z AUTO 02010KT 6SM 22/08 A3006 RMK T02200080 IEM_DS3505
ZGGG,2001-11-11 05:00,ZGGG 110500Z AUTO 03010KT 6SM 24/07 A3003 RMK T02400070 IEM_DS3505
ZGGG,2001-11-11 06:00,ZGGG 110600Z AUTO 36010KT 6SM 24/04 A3000 RMK T02400040 IEM_DS3505
ZGGG,2001-11-11 07:00,ZGGG 110700Z AUTO 02012KT 6SM 25/03 A3000 RMK T02500030 IEM_DS3505
ZGGG,2001-11-11 08:00,ZGGG 110800Z AUTO 03012KT 6SM 25/04 A2997 RMK T02500040 IEM_DS3505
ZGGG,2001-11-11 09:00,ZGGG 110900Z AUTO 36006KT 16SM 24/07 A3000 RMK SLP160 T02370073 54000 IEM_DS3505
ZGGG,2001-11-11 10:00,ZGGG 111000Z AUTO 02008KT 6SM 23/06 A3003 RMK T02300060 IEM_DS3505
ZGGG,2001-11-11 11:00,ZGGG 111100Z AUTO 36008KT 6SM 22/11 A3003 RMK T02200110 IEM_DS3505
ZGGG,2001-11-11 12:00,ZGGG 111200Z AUTO 02006KT 12SM 22/07 A3006 RMK SLP179 T02170069 52019 IEM_DS3505
ZGGG,2001-11-11 13:00,ZGGG 111300Z AUTO 04008KT 6SM 19/12 A3009 RMK T01900120 IEM_DS3505
ZGGG,2001-11-11 14:00,ZGGG 111400Z AUTO 03006KT 6SM 19/10 A3009 RMK T01900100 IEM_DS3505
ZGGG,2001-11-11 15:00,ZGGG 111500Z AUTO 02002KT 12SM 19/05 A3009 RMK SLP187 T01940051 52008 IEM_DS3505
ZGGG,2001-11-11 16:00,ZGGG 111600Z AUTO 02006KT 6SM 19/06 A3009 RMK T01900060 IEM_DS3505
ZGGG,2001-11-11 17:00,ZGGG 111700Z AUTO 05006KT 6SM 17/07 A3009 RMK T01700070 IEM_DS3505
ZGGG,2001-11-11 18:00,ZGGG 111800Z AUTO 36002KT 9SM 16/06 A3006 RMK SLP185 T01600061 57002 IEM_DS3505
ZGGG,2001-11-11 19:00,ZGGG 111900Z AUTO 03010KT 6SM 17/07 A3006 RMK T01700070 IEM_DS3505
ZGGG,2001-11-11 20:00,ZGGG 112000Z AUTO 02006KT 6SM 17/08 A3006 RMK T01700080 IEM_DS3505
ZGGG,2001-11-11 21:00,ZGGG 112100Z AUTO 00000KT 9SM 16/06 A3006 RMK SLP181 T01580061 57004 IEM_DS3505
ZGGG,2001-11-11 22:00,ZGGG 112200Z AUTO 03008KT 6SM 17/07 A3009 RMK T01700070 IEM_DS3505
ZGGG,2001-11-11 23:00,ZGGG 112300Z AUTO 04010KT 6SM 16/08 A3009 RMK T01600080 IEM_DS3505
ZGGG,2001-11-12 00:00,ZGGG 120000Z AUTO 07002KT 10SM 18/07 A3012 RMK SLP197 T01750066 52015 IEM_DS3505
ZGGG,2001-11-12 01:00,ZGGG 120100Z AUTO 04012KT 6SM 19/08 A3012 RMK T01900080 IEM_DS3505
ZGGG,2001-11-12 02:00,ZGGG 120200Z AUTO 04014KT 6SM 21/07 A3012 RMK T02100070 IEM_DS3505
ZGGG,2001-11-12 03:00,ZGGG 120300Z AUTO 07004KT 12SM 22/08 A3012 RMK SLP198 T02240077 52002 IEM_DS3505
ZGGG,2001-11-12 04:00,ZGGG 120400Z AUTO 36004KT 6SM 23/07 A3009 RMK T02300070 IEM_DS3505
ZGGG,2001-11-12 05:00,ZGGG 120500Z AUTO 35004KT 6SM 24/07 A3006 RMK T02400070 IEM_DS3505
ZGGG,2001-11-12 06:00,ZGGG 120600Z AUTO 00000KT 12SM 26/07 A3003 RMK SLP168 T02560074 57030 IEM_DS3505
ZGGG,2001-11-12 07:00,ZGGG 120700Z AUTO 32004KT 6SM 25/07 A3000 RMK T02500070 IEM_DS3505
ZGGG,2001-11-12 09:00,ZGGG 120900Z AUTO 00000KT 11SM 24/09 A3000 RMK SLP161 T02440092 57007 IEM_DS3505
ZGGG,2001-11-12 10:00,ZGGG 121000Z AUTO 6SM 24/08 A3000 RMK T02400080 IEM_DS3505
ZGGG,2001-11-12 11:00,ZGGG 121100Z AUTO 11002KT 6SM 24/11 A3003 RMK T02400110 IEM_DS3505
ZGGG,2001-11-12 12:00,ZGGG 121200Z AUTO 00000KT 9SM 22/12 A3003 RMK SLP175 T02220124 52014 IEM_DS3505
ZGGG,2001-11-12 13:00,ZGGG 121300Z AUTO 08002KT 5SM 22/12 A3006 RMK T02200120 IEM_DS3505
ZGGG,2001-11-12 14:00,ZGGG 121400Z AUTO 10004KT 5SM 22/12 A3006 RMK T02200120 IEM_DS3505
ZGGG,2001-11-12 15:00,ZGGG 121500Z AUTO 00000KT 7SM 21/13 A3006 RMK SLP187 T02140133 52012 IEM_DS3505
ZGGG,2001-11-12 16:00,ZGGG 121600Z AUTO 6SM 22/14 A3009 RMK T02200140 IEM_DS3505
ZGGG,2001-11-12 17:00,ZGGG 121700Z AUTO 05002KT 6SM 22/14 A3006 RMK T02200140 IEM_DS3505
ZGGG,2001-11-12 18:00,ZGGG 121800Z AUTO 00000KT 5SM 21/14 A3006 RMK SLP183 T02110143 57004 IEM_DS3505
ZGGG,2001-11-12 19:00,ZGGG 121900Z AUTO 01004KT 6SM 22/13 A3006 RMK T02200130 IEM_DS3505
ZGGG,2001-11-12 20:00,ZGGG 122000Z AUTO 04008KT 6SM 21/14 A3006 RMK T02100140 IEM_DS3505
ZGGG,2001-11-12 21:00,ZGGG 122100Z AUTO 36006KT 7SM 20/11 A3009 RMK 70003 SLP189 T02020109 52006 IEM_DS3505
ZGGG,2001-11-12 22:00,ZGGG 122200Z AUTO 04014KT 6SM 17/16 A3012 RMK T01700160 IEM_DS3505
ZGGG,2001-11-12 23:00,ZGGG 122300Z AUTO 03008KT 6SM 17/17 A3012 RMK T01700170 IEM_DS3505
ZGGG,2001-11-13 00:00,ZGGG 130000Z AUTO 36004KT 8SM 18/15 A3015 RMK 60003 SLP210 T01810147 52021 IEM_DS3505
ZGGG,2001-11-13 01:00,ZGGG 130100Z AUTO 03006KT 5SM 17/17 A3018 RMK T01700170 IEM_DS3505
ZGGG,2001-11-13 02:00,ZGGG 130200Z AUTO 35002KT 5SM 19/17 A3018 RMK T01900170 IEM_DS3505
ZGGG,2001-11-13 03:00,ZGGG 130300Z AUTO 32004KT 9SM 20/14 A3018 RMK SLP215 T01970144 52005 IEM_DS3505
ZGGG,2001-11-13 04:00,ZGGG 130400Z AUTO 04004KT 5SM 20/18 A3015 RMK T02000180 IEM_DS3505
ZGGG,2001-11-13 05:00,ZGGG 130500Z AUTO 04002KT 5SM 21/17 A3012 RMK T02100170 IEM_DS3505
ZGGG,2001-11-13 06:00,ZGGG 130600Z AUTO 34004KT 7SM 22/12 A3006 RMK 60000 SLP183 T02180125 57032 IEM_DS3505
ZGGG,2001-11-13 07:00,ZGGG 130700Z AUTO 35006KT 6SM 23/15 A3006 RMK T02300150 IEM_DS3505
ZGGG,2001-11-13 08:00,ZGGG 130800Z AUTO 36006KT 6SM 23/14 A3006 RMK T02300140 IEM_DS3505
ZGGG,2001-11-13 09:00,ZGGG 130900Z AUTO 34004KT 9SM 22/12 A3006 RMK SLP178 T02230125 57005 IEM_DS3505
ZGGG,2001-11-13 10:00,ZGGG 131000Z AUTO 35004KT 22/16 A3006 RMK T02200160 IEM_DS3505
ZGGG,2001-11-13 11:00,ZGGG 131100Z AUTO 33004KT 4SM 22/17 A3009 RMK T02200170 IEM_DS3505
ZGGG,2001-11-13 12:00,ZGGG 131200Z AUTO 36004KT 8SM 21/13 A3012 RMK SLP196 T02140132 52018 IEM_DS3505
ZGGG,2001-11-13 13:00,ZGGG 131300Z AUTO 03008KT 4SM 21/16 A3012 RMK T02100160 IEM_DS3505
ZGGG,2001-11-13 14:00,ZGGG 131400Z AUTO 02010KT 5SM 22/12 A3015 RMK T02200120 IEM_DS3505
ZGGG,2001-11-13 15:00,ZGGG 131500Z AUTO 04006KT 9SM 22/ A3018 RMK SLP219 52023 IEM_DS3505
ZGGG,2001-11-13 16:00,ZGGG 131600Z AUTO 02008KT 6SM 21/08 A3018 RMK T02100080 IEM_DS3505
ZGGG,2001-11-13 17:00,ZGGG 131700Z AUTO 02012KT 6SM 21/08 A3018 RMK T02100080 IEM_DS3505
ZGGG,2001-11-13 18:00,ZGGG 131800Z AUTO 07006KT 9SM 20/03 A3018 RMK 60003 SLP220 T02040033 52001 IEM_DS3505
ZGGG,2001-11-13 19:00,ZGGG 131900Z AUTO 02008KT 6SM 19/11 A3018 RMK T01900110 IEM_DS3505
ZGGG,2001-11-13 20:00,ZGGG 132000Z AUTO 04010KT 6SM 19/09 A3018 RMK T01900090 IEM_DS3505
ZGGG,2001-11-13 21:00,ZGGG 132100Z AUTO 36004KT 9SM 19/05 A3018 RMK 70001 SLP221 T01900050 52001 IEM_DS3505
ZGGG,2001-11-13 22:00,ZGGG 132200Z AUTO 02012KT 6SM 19/09 A3018 RMK T01900090 IEM_DS3505
ZGGG,2001-11-13 23:00,ZGGG 132300Z AUTO 03014KT 7SM 18/10 A3024 RMK T01800100 IEM_DS3505
ZGGG,2001-11-14 00:00,ZGGG 140000Z AUTO 36008KT 8SM 18/06 A3024 RMK 60003 SLP242 T01760059 52020 IEM_DS3505
ZGGG,2001-11-14 01:00,ZGGG 140100Z AUTO 04014KT 5SM 16/12 A3027 RMK T01600120 IEM_DS3505
ZGGG,2001-11-14 02:00,ZGGG 140200Z AUTO 04012KT 5SM 17/11 A3027 RMK T01700110 IEM_DS3505
ZGGG,2001-11-14 03:00,ZGGG 140300Z AUTO 04004KT 9SM 17/05 A3027 RMK SLP252 T01720048 52010 IEM_DS3505
ZGGG,2001-11-14 04:00,ZGGG 140400Z AUTO 02016KT 7SM 17/03 A3024 RMK T01700030 IEM_DS3505
ZGGG,2001-11-14 05:00,ZGGG 140500Z AUTO 03014KT 7SM 17/03 A3024 RMK T01700030 IEM_DS3505
ZGGG,2001-11-14 06:00,ZGGG 140600Z AUTO 02006KT 10SM 16/03 A3021 RMK SLP233 T01630032 57019 IEM_DS3505
ZGGG,2001-11-14 07:00,ZGGG 140700Z AUTO 03010KT 7SM 14/05 A3021 RMK T01400050 IEM_DS3505
ZGGG,2001-11-14 08:00,ZGGG 140800Z AUTO 02012KT 7SM 15/04 A3021 RMK T01500040 IEM_DS3505
ZGGG,2001-11-14 09:00,ZGGG 140900Z AUTO 34004KT 9SM 13/06 A3021 RMK SLP235 T01270064 52002 IEM_DS3505
ZGGG,2001-11-14 10:00,ZGGG 141000Z AUTO 05006KT 7SM 12/06 A3024 RMK T01200060 IEM_DS3505
ZGGG,2001-11-14 11:00,ZGGG 141100Z AUTO 02006KT 7SM 13/06 A3027 RMK T01300060 IEM_DS3505
ZGGG,2001-11-14 12:00,ZGGG 141200Z AUTO 34002KT 9SM 13/06 A3027 RMK 60004 SLP256 T01300065 52020 IEM_DS3505
ZGGG,2001-11-14 13:00,ZGGG 141300Z AUTO 36006KT 7SM 14/07 A3030 RMK T01400070 IEM_DS3505
ZGGG,2001-11-14 14:00,ZGGG 141400Z AUTO 01008KT 7SM 14/06 A3027 RMK T01400060 IEM_DS3505
ZGGG,2001-11-14 15:00,ZGGG 141500Z AUTO 34004KT 10SM 13/06 A3030 RMK SLP263 T01310056 52007 IEM_DS3505
ZGGG,2001-11-14 16:00,ZGGG 141600Z AUTO 01004KT 7SM 14/06 A3030 RMK T01400060 IEM_DS3505
ZGGG,2001-11-14 17:00,ZGGG 141700Z AUTO 36004KT 7SM 14/05 A3030 RMK T01400050 IEM_DS3505
ZGGG,2001-11-14 18:00,ZGGG 141800Z AUTO 34004KT 11SM 13/06 A3027 RMK 60000 SLP257 T01290059 57006 IEM_DS3505
ZGGG,2001-11-14 19:00,ZGGG 141900Z AUTO 02004KT 6SM 14/03 A3027 RMK T01400030 IEM_DS3505
ZGGG,2001-11-14 20:00,ZGGG 142000Z AUTO 01004KT 6SM 14/01 A3027 RMK T01400010 IEM_DS3505
ZGGG,2001-11-14 21:00,ZGGG 142100Z AUTO 00000KT 10SM 13/01 A3024 RMK 70005 SLP243 T01310014 57014 IEM_DS3505
ZGGG,2001-11-14 22:00,ZGGG 142200Z AUTO 04004KT 6SM 13/02 A3024 RMK T01300020 IEM_DS3505
ZGGG,2001-11-14 23:00,ZGGG 142300Z AUTO 36006KT 6SM 14/01 A3027 RMK T01400010 IEM_DS3505
ZGGG,2001-11-15 00:00,ZGGG 150000Z AUTO 34004KT 14SM 14/00 A3030 RMK 60003 SLP260 T01370000 52017 IEM_DS3505
ZGGG,2001-11-15 01:00,ZGGG 150100Z AUTO 02008KT 6SM 15/01 A3030 RMK T01500010 IEM_DS3505
ZGGG,2001-11-15 02:00,ZGGG 150200Z AUTO 02010KT 6SM 16/01 A3030 RMK T01600010 IEM_DS3505
ZGGG,2001-11-15 03:00,ZGGG 150300Z AUTO 34004KT 14SM 17/02 A3027 RMK SLP256 T01660021 57004 IEM_DS3505
ZGGG,2001-11-15 04:00,ZGGG 150400Z AUTO 04010KT 6SM 18/01 A3027 RMK T01800010 IEM_DS3505
ZGGG,2001-11-15 05:00,ZGGG 150500Z AUTO 02010KT 6SM 18/M01 A3024 RMK T01801010 IEM_DS3505
ZGGG,2001-11-15 06:00,ZGGG 150600Z AUTO 04006KT 15SM 19/00 A3018 RMK SLP223 T01880001 57032 IEM_DS3505
ZGGG,2001-11-15 07:00,ZGGG 150700Z AUTO 03012KT 6SM 19/M01 A3015 RMK T01901010 IEM_DS3505
ZGGG,2001-11-15 08:00,ZGGG 150800Z AUTO 02010KT 6SM 19/M02 A3018 RMK T01901020 IEM_DS3505
ZGGG,2001-11-15 09:00,ZGGG 150900Z AUTO 36004KT 12SM 18/M01 A3018 RMK SLP221 T01761011 57002 IEM_DS3505
ZGGG,2001-11-15 10:00,ZGGG 151000Z AUTO 03008KT 6SM 17/M01 A3018 RMK T01701010 IEM_DS3505
ZGGG,2001-11-15 11:00,ZGGG 151100Z AUTO 06006KT 6SM 16/01 A3021 RMK T01600010 IEM_DS3505
ZGGG,2001-11-15 12:00,ZGGG 151200Z AUTO 02004KT 11SM 16/00 A3024 RMK SLP242 T01560004 52020 IEM_DS3505
ZGGG,2001-11-15 13:00,ZGGG 151300Z AUTO 06004KT 6SM 15/02 A3027 RMK T01500020 IEM_DS3505
ZGGG,2001-11-15 14:00,ZGGG 151400Z AUTO 07004KT 6SM 14/02 A3027 RMK T01400020 IEM_DS3505
ZGGG,2001-11-15 15:00,ZGGG 151500Z AUTO 36002KT 12SM 13/02 A3027 RMK SLP252 T01340018 52010 IEM_DS3505
ZGGG,2001-11-15 16:00,ZGGG 151600Z AUTO 04008KT 6SM 12/03 A3027 RMK T01200030 IEM_DS3505
ZGGG,2001-11-15 17:00,ZGGG 151700Z AUTO 02002KT 6SM 12/02 A3027 RMK T01200020 IEM_DS3505
ZGGG,2001-11-15 18:00,ZGGG 151800Z AUTO 00000KT 13SM 10/03 A3027 RMK SLP247 T00980030 57005 IEM_DS3505
ZGGG,2001-11-15 19:00,ZGGG 151900Z AUTO 05002KT 6SM 12/01 A3024 RMK T01200010 IEM_DS3505
ZGGG,2001-11-15 20:00,ZGGG 152000Z AUTO 04004KT 6SM 11/00 A3024 RMK T01100000 IEM_DS3505
ZGGG,2001-11-15 21:00,ZGGG 152100Z AUTO 29002KT 12SM 09/03 A3021 RMK SLP236 T00910027 57011 IEM_DS3505
ZGGG,2001-11-15 22:00,ZGGG 152200Z AUTO 6SM 11/01 A3021 RMK T01100010 IEM_DS3505
ZGGG,2001-11-15 23:00,ZGGG 152300Z AUTO 04004KT 6SM 11/02 A3024 RMK T01100020 IEM_DS3505
ZGGG,2001-11-16 00:00,ZGGG 160000Z AUTO 36004KT 15SM 13/02 A3024 RMK SLP245 T01290023 52009 IEM_DS3505
ZGGG,2001-11-16 01:00,ZGGG 160100Z AUTO 01006KT 6SM 14/02 A3027 RMK T01400020 IEM_DS3505
ZGGG,2001-11-16 02:00,ZGGG 160200Z AUTO 02008KT 6SM 16/02 A3027 RMK T01600020 IEM_DS3505
ZGGG,2001-11-16 03:00,ZGGG 160300Z AUTO 07004KT 15SM 19/M01 A3024 RMK SLP241 T01931009 57003 IEM_DS3505
ZGGG,2001-11-16 04:00,ZGGG 160400Z AUTO 35006KT 6SM 19/00 A3021 RMK T01900000 IEM_DS3505
ZGGG,2001-11-16 05:00,ZGGG 160500Z AUTO 05006KT 6SM 21/01 A3018 RMK T02100010 IEM_DS3505
ZGGG,2001-11-16 06:00,ZGGG 160600Z AUTO 04004KT 14SM 22/01 A3015 RMK SLP212 T02240012 57029 IEM_DS3505
ZGGG,2001-11-16 07:00,ZGGG 160700Z AUTO 35004KT 6SM 22/01 A3015 RMK T02200010 IEM_DS3505
ZGGG,2001-11-16 08:00,ZGGG 160800Z AUTO 31004KT 6SM 22/00 A3012 RMK T02200000 IEM_DS3505
ZGGG,2001-11-16 09:00,ZGGG 160900Z AUTO 32004KT 12SM 21/04 A3012 RMK SLP207 T02140038 57005 IEM_DS3505
ZGGG,2001-11-16 10:00,ZGGG 161000Z AUTO 36004KT 6SM 21/01 A3015 RMK T02100010 IEM_DS3505
ZGGG,2001-11-16 11:00,ZGGG 161100Z AUTO 04004KT 6SM 19/03 A3015 RMK T01900030 IEM_DS3505
ZGGG,2001-11-16 12:00,ZGGG 161200Z AUTO 34002KT 11SM 16/05 A3018 RMK SLP224 T01600050 52016 IEM_DS3505
ZGGG,2001-11-16 14:00,ZGGG 161400Z AUTO 03006KT 6SM 16/04 A3021 RMK T01600040 IEM_DS3505
ZGGG,2001-11-16 15:00,ZGGG 161500Z AUTO 34002KT 12SM 17/03 A3021 RMK SLP232 T01670026 52009 IEM_DS3505
ZGGG,2001-11-16 16:00,ZGGG 161600Z AUTO 05008KT 6SM 14/02 A3021 RMK T01400020 IEM_DS3505
ZGGG,2001-11-16 17:00,ZGGG 161700Z AUTO 04008KT 6SM 13/03 A3021 RMK T01300030 IEM_DS3505
ZGGG,2001-11-16 18:00,ZGGG 161800Z AUTO 36002KT 11SM 12/04 A3021 RMK SLP230 T01240042 57002 IEM_DS3505
ZGGG,2001-11-16 19:00,ZGGG 161900Z AUTO 6SM 14/02 A3021 RMK T01400020 IEM_DS3505
ZGGG,2001-11-16 20:00,ZGGG 162000Z AUTO 03004KT 6SM 10/03 A3021 RMK T01000030 IEM_DS3505
ZGGG,2001-11-16 21:00,ZGGG 162100Z AUTO 00000KT 10SM 12/04 A3021 RMK SLP234 T01150036 52004 IEM_DS3505
ZGGG,2001-11-16 22:00,ZGGG 162200Z AUTO 02004KT 6SM 13/03 A3024 RMK T01300030 IEM_DS3505
ZGGG,2001-11-16 23:00,ZGGG 162300Z AUTO 02004KT 6SM 13/03 A3024 RMK T01300030 IEM_DS3505
ZGGG,2001-11-17 00:00,ZGGG 170000Z AUTO 36002KT 11SM 14/04 A3027 RMK SLP248 T01410043 52013 IEM_DS3505
ZGGG,2001-11-17 01:00,ZGGG 170100Z AUTO 02006KT 6SM 17/02 A3027 RMK T01700020 IEM_DS3505
ZGGG,2001-11-17 02:00,ZGGG 170200Z AUTO 03010KT 6SM 18/02 A3027 RMK T01800020 IEM_DS3505
ZGGG,2001-11-17 03:00,ZGGG 170300Z AUTO 04002KT 16SM 21/02 A3024 RMK SLP246 T02100020 57001 IEM_DS3505
ZGGG,2001-11-17 04:00,ZGGG 170400Z AUTO 36006KT 6SM 21/02 A3021 RMK T02100020 IEM_DS3505
ZGGG,2001-11-17 05:00,ZGGG 170500Z AUTO 01008KT 6SM 23/01 A3018 RMK T02300010 IEM_DS3505
ZGGG,2001-11-17 06:00,ZGGG 170600Z AUTO 27004KT 17SM 25/02 A3015 RMK SLP211 T02500021 57035 IEM_DS3505
ZGGG,2001-11-17 07:00,ZGGG 170700Z AUTO 36006KT 6SM 24/02 A3012 RMK T02400020 IEM_DS3505
ZGGG,2001-11-17 08:00,ZGGG 170800Z AUTO 02006KT 6SM 24/02 A3012 RMK T02400020 IEM_DS3505
ZGGG,2001-11-17 09:00,ZGGG 170900Z AUTO 36004KT 13SM 24/03 A3012 RMK SLP204 T02350033 57007 IEM_DS3505
ZGGG,2001-11-17 10:00,ZGGG 171000Z AUTO 07002KT 6SM 22/04 A3012 RMK T02200040 IEM_DS3505
ZGGG,2001-11-17 11:00,ZGGG 171100Z AUTO 05006KT 6SM 19/05 A3015 RMK T01900050 IEM_DS3505
ZGGG,2001-11-17 12:00,ZGGG 171200Z AUTO 34004KT 12SM 18/06 A3015 RMK SLP216 T01810059 52012 IEM_DS3505
ZGGG,2001-11-17 13:00,ZGGG 171300Z AUTO 03006KT 6SM 18/06 A3018 RMK T01800060 IEM_DS3505
ZGGG,2001-11-17 14:00,ZGGG 171400Z AUTO 03008KT 6SM 18/04 A3021 RMK T01800040 IEM_DS3505
ZGGG,2001-11-17 15:00,ZGGG 171500Z AUTO 36002KT 11SM 17/04 A3021 RMK SLP235 T01670044 52019 IEM_DS3505
ZGGG,2001-11-17 16:00,ZGGG 171600Z AUTO 02008KT 6SM 18/02 A3024 RMK T01800020 IEM_DS3505
ZGGG,2001-11-17 17:00,ZGGG 171700Z AUTO 03008KT 6SM 17/02 A3021 RMK T01700020 IEM_DS3505
ZGGG,2001-11-17 18:00,ZGGG 171800Z AUTO 20002KT 11SM 14/04 A3021 RMK SLP234 T01380044 57001 IEM_DS3505
ZGGG,2001-11-17 19:00,ZGGG 171900Z AUTO 03008KT 6SM 16/02 A3021 RMK T01600020 IEM_DS3505
ZGGG,2001-11-17 20:00,ZGGG 172000Z AUTO 03008KT 6SM 16/03 A3021 RMK T01600030 IEM_DS3505
ZGGG,2001-11-17 21:00,ZGGG 172100Z AUTO 00000KT 11SM 13/04 A3021 RMK SLP232 T01340045 57002 IEM_DS3505
ZGGG,2001-11-17 22:00,ZGGG 172200Z AUTO 02006KT 6SM 16/03 A3024 RMK T01600030 IEM_DS3505
ZGGG,2001-11-17 23:00,ZGGG 172300Z AUTO 01006KT 6SM 16/03 A3024 RMK T01600030 IEM_DS3505
ZGGG,2001-11-18 00:00,ZGGG 180000Z AUTO 29002KT 14SM 16/05 A3024 RMK SLP245 T01560050 52013 IEM_DS3505
ZGGG,2001-11-18 01:00,ZGGG 180100Z AUTO 02010KT 6SM 17/04 A3027 RMK T01700040 IEM_DS3505
ZGGG,2001-11-18 02:00,ZGGG 180200Z AUTO 01008KT 6SM 19/04 A3027 RMK T01900040 IEM_DS3505
ZGGG,2001-11-18 03:00,ZGGG 180300Z AUTO 09004KT 15SM 22/04 A3024 RMK SLP245 T02150039 54000 IEM_DS3505
ZGGG,2001-11-18 04:00,ZGGG 180400Z AUTO 03010KT 6SM 22/04 A3024 RMK T02200040 IEM_DS3505
ZGGG,2001-11-18 05:00,ZGGG 180500Z AUTO 03008KT 6SM 23/03 A3021 RMK T02300030 IEM_DS3505
ZGGG,2001-11-18 06:00,ZGGG 180600Z AUTO 36006KT 17SM 26/06 A3018 RMK SLP215 T02560058 57030 IEM_DS3505
ZGGG,2001-11-18 07:00,ZGGG 180700Z AUTO 36006KT 6SM 24/03 A3015 RMK T02400030 IEM_DS3505
ZGGG,2001-11-18 08:00,ZGGG 180800Z AUTO 01006KT 6SM 24/02 A3015 RMK T02400020 IEM_DS3505
ZGGG,2001-11-18 09:00,ZGGG 180900Z AUTO 02002KT 13SM 24/04 A3015 RMK SLP212 T02350040 57003 IEM_DS3505
ZGGG,2001-11-18 10:00,ZGGG 181000Z AUTO 36006KT 6SM 23/03 A3018 RMK T02300030 IEM_DS3505
ZGGG,2001-11-18 11:00,ZGGG 181100Z AUTO 04006KT 6SM 19/04 A3018 RMK T01900040 IEM_DS3505
ZGGG,2001-11-18 12:00,ZGGG 181200Z AUTO 34004KT 13SM 19/05 A3021 RMK SLP226 T01870054 52014 IEM_DS3505
ZGGG,2001-11-18 13:00,ZGGG 181300Z AUTO 03008KT 6SM 19/04 A3021 RMK T01900040 IEM_DS3505
ZGGG,2001-11-18 14:00,ZGGG 181400Z AUTO 02008KT 6SM 19/03 A3024 RMK T01900030 IEM_DS3505
ZGGG,2001-11-18 15:00,ZGGG 181500Z AUTO 02004KT 12SM 17/03 A3024 RMK SLP241 T01720033 52015 IEM_DS3505
ZGGG,2001-11-18 16:00,ZGGG 181600Z AUTO 03006KT 6SM 16/02 A3024 RMK T01600020 IEM_DS3505
ZGGG,2001-11-18 17:00,ZGGG 181700Z AUTO 02008KT 6SM 18/01 A3021 RMK T01800010 IEM_DS3505
ZGGG,2001-11-18 18:00,ZGGG 181800Z AUTO 36004KT 9SM 16/03 A3021 RMK SLP235 T01550032 57006 IEM_DS3505
ZGGG,2001-11-18 19:00,ZGGG 181900Z AUTO 03006KT 6SM 13/04 A3021 RMK T01300040 IEM_DS3505
ZGGG,2001-11-18 20:00,ZGGG 182000Z AUTO 02004KT 6SM 14/03 A3021 RMK T01400030 IEM_DS3505
ZGGG,2001-11-18 21:00,ZGGG 182100Z AUTO 36002KT 10SM 14/04 RMK SLP231 T01390035 57004 IEM_DS3505
ZGGG,2001-11-18 23:00,ZGGG 182300Z AUTO 03006KT 6SM 13/03 A3024 RMK T01300030 IEM_DS3505
ZGGG,2001-11-19 00:00,ZGGG 190000Z AUTO 00000KT 12SM 15/05 RMK SLP243 T01530051 52012 IEM_DS3505
ZGGG,2001-11-19 01:00,ZGGG 190100Z AUTO 01008KT 6SM 17/02 A3027 RMK T01700020 IEM_DS3505
ZGGG,2001-11-19 02:00,ZGGG 190200Z AUTO 04010KT 6SM 19/02 A3027 RMK T01900020 IEM_DS3505
ZGGG,2001-11-19 03:00,ZGGG 190300Z AUTO 32008KT 12SM 21/02 RMK SLP243 T02140024 54000 IEM_DS3505
ZGGG,2001-11-19 04:00,ZGGG 190400Z AUTO 03006KT 6SM 22/02 A3021 RMK T02200020 IEM_DS3505
ZGGG,2001-11-19 05:00,ZGGG 190500Z AUTO 03008KT 6SM 23/02 A3018 RMK T02300020 IEM_DS3505
ZGGG,2001-11-19 06:00,ZGGG 190600Z AUTO 04006KT 13SM 24/02 A3015 RMK SLP211 T02410021 57032 IEM_DS3505
ZGGG,2001-11-19 07:00,ZGGG 190700Z AUTO 01010KT 6SM 24/01 A3012 RMK T02400010 IEM_DS3505
ZGGG,2001-11-19 08:00,ZGGG 190800Z AUTO 01010KT 6SM 23/02 A3012 RMK T02300020 IEM_DS3505
ZGGG,2001-11-19 09:00,ZGGG 190900Z AUTO 02004KT 12SM 22/03 A3012 RMK SLP205 T02230028 57006 IEM_DS3505
ZGGG,2001-11-19 10:00,ZGGG 191000Z AUTO 34002KT 11SM 17/06 A3015 RMK SLP223 T01740065 52018 IEM_DS3505
ZGGG,2001-11-19 11:00,ZGGG 191100Z AUTO 07006KT 6SM 19/04 A3015 RMK T01900040 IEM_DS3505
ZGGG,2001-11-19 12:00,ZGGG 191200Z AUTO 34002KT 11SM 17/06 A3018 RMK SLP223 T01740065 52018 IEM_DS3505
ZGGG,2001-11-19 13:00,ZGGG 191300Z AUTO 04006KT 6SM 17/06 A3021 RMK T01700060 IEM_DS3505
ZGGG,2001-11-19 14:00,ZGGG 191400Z AUTO 04006KT 6SM 16/05 A3021 RMK T01600050 IEM_DS3505
ZGGG,2001-11-19 15:00,ZGGG 191500Z AUTO 00000KT 11SM 16/06 A3024 RMK SLP239 T01620056 52016 IEM_DS3505
ZGGG,2001-11-19 16:00,ZGGG 191600Z AUTO 02006KT 6SM 17/03 A3024 RMK T01700030 IEM_DS3505
ZGGG,2001-11-19 18:00,ZGGG 191800Z AUTO 34004KT 11SM 14/06 A3024 RMK SLP235 T01440058 57004 IEM_DS3505
ZGGG,2001-11-19 20:00,ZGGG 192000Z AUTO 02004KT 6SM 14/04 A3024 RMK T01400040 IEM_DS3505
ZGGG,2001-11-19 21:00,ZGGG 192100Z AUTO 32004KT 10SM 16/02 A3021 RMK SLP232 T01570022 57003 IEM_DS3505
ZGGG,2001-11-19 22:00,ZGGG 192200Z AUTO 03006KT 6SM 13/05 A3021 RMK T01300050 IEM_DS3505
ZGGG,2001-11-19 23:00,ZGGG 192300Z AUTO 04008KT 6SM 12/05 A3024 RMK T01200050 IEM_DS3505
ZGGG,2001-11-20 00:00,ZGGG 200000Z AUTO 02002KT 11SM 15/05 A3024 RMK SLP244 T01520047 52012 IEM_DS3505
ZGGG,2001-11-20 01:00,ZGGG 200100Z AUTO 02010KT 6SM 16/02 A3027 RMK T01600020 IEM_DS3505
ZGGG,2001-11-20 02:00,ZGGG 200200Z AUTO 03010KT 6SM 18/01 A3027 RMK T01800010 IEM_DS3505
ZGGG,2001-11-20 03:00,ZGGG 200300Z AUTO 04004KT 17SM 20/02 A3027 RMK SLP245 T02050018 52001 IEM_DS3505
ZGGG,2001-11-20 04:00,ZGGG 200400Z AUTO 02008KT 6SM 21/00 A3021 RMK T02100000 IEM_DS3505
ZGGG,2001-11-20 05:00,ZGGG 200500Z AUTO 01008KT 6SM 22/M01 A3018 RMK T02201010 IEM_DS3505
ZGGG,2001-11-20 06:00,ZGGG 200600Z AUTO 32004KT 17SM 23/M01 A3015 RMK SLP215 T02301011 57030 IEM_DS3505
ZGGG,2001-11-20 07:00,ZGGG 200700Z AUTO 03010KT 6SM 23/M02 A3012 RMK T02301020 IEM_DS3505
ZGGG,2001-11-20 08:00,ZGGG 200800Z AUTO 03010KT 6SM 23/M02 A3012 RMK T02301020 IEM_DS3505
ZGGG,2001-11-20 09:00,ZGGG 200900Z AUTO 07004KT 16SM 22/01 A3015 RMK SLP210 T02200008 57005 IEM_DS3505
ZGGG,2001-11-20 10:00,ZGGG 201000Z AUTO 36004KT 6SM 22/01 A3015 RMK T02200010 IEM_DS3505
ZGGG,2001-11-20 11:00,ZGGG 201100Z AUTO 06004KT 6SM 18/02 A3018 RMK T01800020 IEM_DS3505
ZGGG,2001-11-20 12:00,ZGGG 201200Z AUTO 00000KT 13SM 16/04 A3018 RMK SLP222 T01600036 52012 IEM_DS3505
ZGGG,2001-11-20 13:00,ZGGG 201300Z AUTO 04006KT 6SM 16/03 A3021 RMK T01600030 IEM_DS3505
ZGGG,2001-11-20 14:00,ZGGG 201400Z AUTO 05006KT 6SM 16/03 A3021 RMK T01600030 IEM_DS3505
ZGGG,2001-11-20 15:00,ZGGG 201500Z AUTO 00000KT 12SM 14/04 A3021 RMK SLP233 T01430043 52011 IEM_DS3505
ZGGG,2001-11-20 16:00,ZGGG 201600Z AUTO 02006KT 6SM 15/02 A3021 RMK T01500020 IEM_DS3505
ZGGG,2001-11-20 17:00,ZGGG 201700Z AUTO 03004KT 6SM 12/03 A3021 RMK T01200030 IEM_DS3505
ZGGG,2001-11-20 18:00,ZGGG 201800Z AUTO 34002KT 11SM 12/04 A3021 RMK SLP227 T01180040 57006 IEM_DS3505
ZGGG,2001-11-20 19:00,ZGGG 201900Z AUTO 02006KT 6SM 14/01 A3018 RMK T01400010 IEM_DS3505
ZGGG,2001-11-20 20:00,ZGGG 202000Z AUTO 03006KT 6SM 11/03 A3018 RMK T01100030 IEM_DS3505
ZGGG,2001-11-20 21:00,ZGGG 202100Z AUTO 00000KT 9SM 11/02 A3018 RMK SLP226 T01100023 57001 IEM_DS3505
ZGGG,2001-11-20 22:00,ZGGG 202200Z AUTO 01008KT 6SM 15/01 A3021 RMK T01500010 IEM_DS3505
ZGGG,2001-11-20 23:00,ZGGG 202300Z AUTO 02006KT 6SM 13/01 A3021 RMK T01300010 IEM_DS3505
ZGGG,2001-11-21 00:00,ZGGG 210000Z AUTO 34002KT 10SM 15/02 A3021 RMK SLP235 T01470022 52009 IEM_DS3505
ZGGG,2001-11-21 01:00,ZGGG 210100Z AUTO 02014KT 6SM 16/00 A3024 RMK T01600000 IEM_DS3505
ZGGG,2001-11-21 02:00,ZGGG 210200Z AUTO 03012KT 6SM 18/01 A3024 RMK T01800010 IEM_DS3505
ZGGG,2001-11-21 03:00,ZGGG 210300Z AUTO 34004KT 12SM 20/02 A3024 RMK SLP238 T02050015 52003 IEM_DS3505
ZGGG,2001-11-21 04:00,ZGGG 210400Z AUTO 02008KT 6SM 21/02 A3021 RMK T02100020 IEM_DS3505
ZGGG,2001-11-21 05:00,ZGGG 210500Z AUTO 02008KT 6SM 22/03 A3015 RMK T02200030 IEM_DS3505
ZGGG,2001-11-21 06:00,ZGGG 210600Z AUTO 36004KT 14SM 23/02 A3012 RMK SLP203 T02340018 57035 IEM_DS3505
ZGGG,2001-11-21 07:00,ZGGG 210700Z AUTO 01006KT 6SM 23/00 A3012 RMK T02300000 IEM_DS3505
ZGGG,2001-11-21 08:00,ZGGG 210800Z AUTO 01006KT 6SM 23/00 A3012 RMK T02300000 IEM_DS3505
ZGGG,2001-11-21 09:00,ZGGG 210900Z AUTO 34002KT 14SM 22/03 A3012 RMK SLP198 T02200029 57005 IEM_DS3505
ZGGG,2001-11-21 10:00,ZGGG 211000Z AUTO 08004KT 6SM 19/02 A3012 RMK T01900020 IEM_DS3505
ZGGG,2001-11-21 11:00,ZGGG 211100Z AUTO 06004KT 6SM 18/02 A3015 RMK T01800020 IEM_DS3505
ZGGG,2001-11-21 12:00,ZGGG 211200Z AUTO 00000KT 12SM 15/05 A3018 RMK SLP218 T01520053 52020 IEM_DS3505
ZGGG,2001-11-21 13:00,ZGGG 211300Z AUTO 05004KT 6SM 17/01 A3018 RMK T01700010 IEM_DS3505
ZGGG,2001-11-21 14:00,ZGGG 211400Z AUTO 05004KT 6SM 16/03 A3018 RMK T01600030 IEM_DS3505
ZGGG,2001-11-21 15:00,ZGGG 211500Z AUTO 00000KT 11SM 13/07 A3021 RMK SLP229 T01340068 52011 IEM_DS3505
ZGGG,2001-11-21 18:00,ZGGG 211800Z AUTO 00000KT 11SM 12/06 A3018 RMK SLP223 T01230064 57006 IEM_DS3505
ZGGG,2001-11-21 19:00,ZGGG 211900Z AUTO 03006KT 6SM 14/05 A3018 RMK T01400050 IEM_DS3505
ZGGG,2001-11-21 20:00,ZGGG 212000Z AUTO 03004KT 6SM 12/03 A3018 RMK T01200030 IEM_DS3505
ZGGG,2001-11-21 21:00,ZGGG 212100Z AUTO 00000KT 9SM 10/07 RMK SLP216 T01050067 57007 IEM_DS3505
ZGGG,2001-11-21 21:30,ZGGG 212130Z AUTO 02002KT 6SM 11/03 A3018 RMK T01100030 IEM_DS3505
ZGGG,2001-11-21 22:00,ZGGG 212200Z AUTO 06004KT 6SM 11/02 A3018 RMK T01100020 IEM_DS3505
ZGGG,2001-11-21 23:00,ZGGG 212300Z AUTO 05006KT 11/03 A3018 RMK T01100030 IEM_DS3505
ZGGG,2001-11-22 00:00,ZGGG 220000Z AUTO 00000KT 11SM 14/05 A3021 RMK SLP226 T01360050 52009 IEM_DS3505
ZGGG,2001-11-22 01:00,ZGGG 220100Z AUTO 02010KT 6SM 16/01 A3021 RMK T01600010 IEM_DS3505
ZGGG,2001-11-22 02:00,ZGGG 220200Z AUTO 02008KT 6SM 18/02 A3021 RMK T01800020 IEM_DS3505
ZGGG,2001-11-22 03:00,ZGGG 220300Z AUTO 02006KT 12SM 22/04 RMK SLP224 T02170037 57001 IEM_DS3505
ZGGG,2001-11-22 04:00,ZGGG 220400Z AUTO 02006KT 6SM 21/03 A3018 RMK T02100030 IEM_DS3505
ZGGG,2001-11-22 05:00,ZGGG 220500Z AUTO 02006KT 6SM 22/03 A3012 RMK T02200030 IEM_DS3505
ZGGG,2001-11-22 06:00,ZGGG 220600Z AUTO 34002KT 14SM 25/05 A3009 RMK SLP194 T02480048 57030 IEM_DS3505
ZGGG,2001-11-22 07:00,ZGGG 220700Z AUTO 03004KT 6SM 24/02 A3006 RMK T02400020 IEM_DS3505
ZGGG,2001-11-22 08:00,ZGGG 220800Z AUTO 03006KT 6SM 24/00 A3006 RMK T02400000 IEM_DS3505
ZGGG,2001-11-22 09:00,ZGGG 220900Z AUTO 34004KT 13SM 22/04 A3006 RMK SLP187 T02240043 57007 IEM_DS3505
ZGGG,2001-11-22 10:00,ZGGG 221000Z AUTO 6SM 21/03 A3009 RMK T02100030 IEM_DS3505
ZGGG,2001-11-22 11:00,ZGGG 221100Z AUTO 06002KT 6SM 18/03 A3009 RMK T01800030 IEM_DS3505
ZGGG,2001-11-22 12:00,ZGGG 221200Z AUTO 00000KT 11SM 16/08 A3012 RMK SLP200 T01550075 52013 IEM_DS3505
ZGGG,2001-11-22 13:00,ZGGG 221300Z AUTO 04002KT 6SM 17/04 A3012 RMK T01700040 IEM_DS3505
ZGGG,2001-11-22 14:00,ZGGG 221400Z AUTO 05004KT 6SM 16/05 A3012 RMK T01600050 IEM_DS3505
ZGGG,2001-11-22 15:00,ZGGG 221500Z AUTO 00000KT 12SM 14/08 A3012 RMK SLP205 T01360082 52005 IEM_DS3505
ZGGG,2001-11-22 16:00,ZGGG 221600Z AUTO 04002KT 5SM 15/06 A3012 RMK T01500060 IEM_DS3505
ZGGG,2001-11-22 17:00,ZGGG 221700Z AUTO 10002KT 14/06 A3012 RMK T01400060 IEM_DS3505
ZGGG,2001-11-22 18:00,ZGGG 221800Z AUTO 00000KT 11SM 12/08 A3012 RMK SLP200 T01190076 57005 IEM_DS3505
ZGGG,2001-11-22 19:00,ZGGG 221900Z AUTO 06002KT 6SM 13/06 A3012 RMK T01300060 IEM_DS3505
ZGGG,2001-11-22 20:00,ZGGG 222000Z AUTO 6SM 12/06 A3012 RMK T01200060 IEM_DS3505
ZGGG,2001-11-22 21:00,ZGGG 222100Z AUTO 00000KT 9SM 11/08 A3012 RMK SLP200 T01140079 54000 IEM_DS3505
ZGGG,2001-11-22 22:00,ZGGG 222200Z AUTO 5SM 12/07 A3012 RMK T01200070 IEM_DS3505
ZGGG,2001-11-22 23:00,ZGGG 222300Z AUTO 05004KT 4SM 12/07 A3015 RMK T01200070 IEM_DS3505
ZGGG,2001-11-23 00:00,ZGGG 230000Z AUTO 00000KT 9SM 12/09 A3015 RMK SLP215 T01230089 52014 IEM_DS3505
ZGGG,2001-11-23 01:00,ZGGG 230100Z AUTO 04006KT 3SM 16/00 A3018 RMK T01600000 IEM_DS3505
ZGGG,2001-11-23 02:00,ZGGG 230200Z AUTO 02006KT 5SM 18/04 A3018 RMK T01800040 IEM_DS3505
ZGGG,2001-11-23 03:00,ZGGG 230300Z AUTO 29004KT 10SM 22/04 A3015 RMK SLP211 T02230038 57003 IEM_DS3505
ZGGG,2001-11-23 04:00,ZGGG 230400Z AUTO 02006KT 6SM 22/03 A3012 RMK T02200030 IEM_DS3505
ZGGG,2001-11-23 05:00,ZGGG 230500Z AUTO 35004KT 6SM 23/04 A3009 RMK T02300040 IEM_DS3505
ZGGG,2001-11-23 06:00,ZGGG 230600Z AUTO 34006KT 11SM 24/03 A3006 RMK SLP180 T02440034 57031 IEM_DS3505
ZGGG,2001-11-23 07:00,ZGGG 230700Z AUTO 05006KT 6SM 23/03 A3003 RMK T02300030 IEM_DS3505
ZGGG,2001-11-23 08:00,ZGGG 230800Z AUTO 6SM 23/03 A3003 RMK T02300030 IEM_DS3505
ZGGG,2001-11-23 09:00,ZGGG 230900Z AUTO 32002KT 10SM 22/06 A3000 RMK SLP167 T02220058 57013 IEM_DS3505
ZGGG,2001-11-23 10:00,ZGGG 231000Z AUTO 20/06 A3003 RMK T02000060 IEM_DS3505
ZGGG,2001-11-23 11:00,ZGGG 231100Z AUTO 5SM 18/06 A3003 RMK T01800060 IEM_DS3505
ZGGG,2001-11-23 12:00,ZGGG 231200Z AUTO 00000KT 10SM 16/08 A3006 RMK SLP179 T01570082 52012 IEM_DS3505
ZGGG,2001-11-23 13:00,ZGGG 231300Z AUTO 06002KT 5SM 17/06 A3006 RMK T01700060 IEM_DS3505
ZGGG,2001-11-23 14:00,ZGGG 231400Z AUTO 5SM 16/06 A3006 RMK T01600060 IEM_DS3505
ZGGG,2001-11-23 15:00,ZGGG 231500Z AUTO 00000KT 8SM 14/09 A3006 RMK SLP185 T01360091 52006 IEM_DS3505
ZGGG,2001-11-23 16:00,ZGGG 231600Z AUTO 15/06 A3006 RMK T01500060 IEM_DS3505
ZGGG,2001-11-23 17:00,ZGGG 231700Z AUTO 14/06 A3006 RMK T01400060 IEM_DS3505
ZGGG,2001-11-23 18:00,ZGGG 231800Z AUTO 00000KT 7SM 12/08 A3006 RMK SLP181 T01190083 57004 IEM_DS3505
ZGGG,2001-11-23 19:00,ZGGG 231900Z AUTO 13/07 A3006 RMK T01300070 IEM_DS3505
ZGGG,2001-11-23 20:00,ZGGG 232000Z AUTO 3SM 13/07 A3006 RMK T01300070 IEM_DS3505
ZGGG,2001-11-23 21:00,ZGGG 232100Z AUTO 00000KT 7SM 11/08 A3006 RMK SLP179 T01100081 57002 IEM_DS3505
ZGGG,2001-11-23 22:00,ZGGG 232200Z AUTO 2 1/2SM 12/07 A3006 RMK T01200070 IEM_DS3505
ZGGG,2001-11-23 23:00,ZGGG 232300Z AUTO 08002KT 1 1/4SM 12/08 A3009 RMK T01200080 IEM_DS3505
ZGGG,2001-11-24 00:00,ZGGG 240000Z AUTO 00000KT 7SM 12/09 A3009 RMK SLP192 T01210089 52012 IEM_DS3505
ZGGG,2001-11-24 01:00,ZGGG 240100Z AUTO 04004KT 2SM 16/09 A3012 RMK T01600090 IEM_DS3505
ZGGG,2001-11-24 02:00,ZGGG 240200Z AUTO 05006KT 7SM 18/06 A3009 RMK T01800060 IEM_DS3505
ZGGG,2001-11-24 03:00,ZGGG 240300Z AUTO 34002KT 7SM 22/08 A3009 RMK SLP189 T02230078 57002 IEM_DS3505
ZGGG,2001-11-24 04:00,ZGGG 240400Z AUTO 36004KT 5SM 22/06 A3006 RMK T02200060 IEM_DS3505
ZGGG,2001-11-24 05:00,ZGGG 240500Z AUTO 01006KT 6SM 23/06 A3000 RMK T02300060 IEM_DS3505
ZGGG,2001-11-24 06:00,ZGGG 240600Z AUTO 32006KT 11SM 26/05 A2997 RMK SLP154 T02560053 57034 IEM_DS3505
ZGGG,2001-11-24 07:00,ZGGG 240700Z AUTO 01004KT 6SM 24/04 A2994 RMK T02400040 IEM_DS3505
ZGGG,2001-11-24 08:00,ZGGG 240800Z AUTO 30004KT 6SM 24/05 A2994 RMK T02400050 IEM_DS3505
ZGGG,2001-11-24 09:00,ZGGG 240900Z AUTO 34002KT 9SM 23/07 A2994 RMK SLP147 T02300071 57008 IEM_DS3505
ZGGG,2001-11-24 10:00,ZGGG 241000Z AUTO 21/07 A2997 RMK T02100070 IEM_DS3505
ZGGG,2001-11-24 11:00,ZGGG 241100Z AUTO 09002KT 19/07 A2997 RMK T01900070 IEM_DS3505
ZGGG,2001-11-24 12:00,ZGGG 241200Z AUTO 00000KT 11SM 16/10 A3000 RMK SLP158 T01570096 52011 IEM_DS3505
ZGGG,2001-11-24 13:00,ZGGG 241300Z AUTO 05002KT 17/06 A3000 RMK T01700060 IEM_DS3505
ZGGG,2001-11-24 14:00,ZGGG 241400Z AUTO 04004KT 5SM 17/06 A3000 RMK T01700060 IEM_DS3505
ZGGG,2001-11-24 15:00,ZGGG 241500Z AUTO 34002KT 9SM 15/06 A3000 RMK SLP167 T01500061 52009 IEM_DS3505
ZGGG,2001-11-24 16:00,ZGGG 241600Z AUTO 05006KT 6SM 14/06 A3000 RMK T01400060 IEM_DS3505
ZGGG,2001-11-24 17:00,ZGGG 241700Z AUTO 04006KT 6SM 13/06 A3000 RMK T01300060 IEM_DS3505
ZGGG,2001-11-24 18:00,ZGGG 241800Z AUTO 00000KT 9SM 15/05 A3000 RMK SLP157 T01470049 57009 IEM_DS3505
ZGGG,2001-11-24 19:00,ZGGG 241900Z AUTO 01006KT 6SM 17/05 A2997 RMK T01700050 IEM_DS3505
ZGGG,2001-11-24 20:00,ZGGG 242000Z AUTO 04004KT 6SM 12/06 A2997 RMK T01200060 IEM_DS3505
ZGGG,2001-11-24 21:00,ZGGG 242100Z AUTO 00000KT 9SM 12/06 A3000 RMK SLP156 T01230064 57002 IEM_DS3505
ZGGG,2001-11-24 22:00,ZGGG 242200Z AUTO 04002KT 13/06 A3000 RMK T01300060 IEM_DS3505
ZGGG,2001-11-24 23:00,ZGGG 242300Z AUTO 04002KT 13/07 A3003 RMK T01300070 IEM_DS3505
ZGGG,2001-11-25 00:00,ZGGG 250000Z AUTO 00000KT 7SM 14/08 A3003 RMK SLP175 T01360082 52019 IEM_DS3505
ZGGG,2001-11-25 01:00,ZGGG 250100Z AUTO 35004KT 18/05 A3006 RMK T01800050 IEM_DS3505
ZGGG,2001-11-25 02:00,ZGGG 250200Z AUTO 02006KT 12SM 19/04 A3006 RMK T01900040 IEM_DS3505
ZGGG,2001-11-25 03:00,ZGGG 250300Z AUTO 34004KT 12SM 23/05 A3006 RMK SLP180 T02280053 52005 IEM_DS3505
ZGGG,2001-11-25 04:00,ZGGG 250400Z AUTO 36006KT 6SM 23/05 A3003 RMK T02300050 IEM_DS3505
ZGGG,2001-11-25 05:00,ZGGG 250500Z AUTO 01006KT 6SM 24/06 A3000 RMK T02400060 IEM_DS3505
ZGGG,2001-11-25 06:00,ZGGG 250600Z AUTO 36004KT 15SM 26/06 A2997 RMK SLP153 T02560062 57026 IEM_DS3505
ZGGG,2001-11-25 07:00,ZGGG 250700Z AUTO 02006KT 6SM 25/06 A2997 RMK T02500060 IEM_DS3505
ZGGG,2001-11-25 08:00,ZGGG 250800Z AUTO 02006KT 6SM 25/06 A2997 RMK T02500060 IEM_DS3505
ZGGG,2001-11-25 09:00,ZGGG 250900Z AUTO 00000KT 11SM 24/08 A2997 RMK SLP157 T02420076 52003 IEM_DS3505
ZGGG,2001-11-25 10:00,ZGGG 251000Z AUTO 09004KT 6SM 21/07 A3000 RMK T02100070 IEM_DS3505
ZGGG,2001-11-25 11:00,ZGGG 251100Z AUTO 6SM 21/07 A3003 RMK T02100070 IEM_DS3505
ZGGG,2001-11-25 12:00,ZGGG 251200Z AUTO 00000KT 9SM 17/10 A3006 RMK SLP182 T01720103 52025 IEM_DS3505
ZGGG,2001-11-25 13:00,ZGGG 251300Z AUTO 03004KT 6SM 19/08 A3009 RMK T01900080 IEM_DS3505
ZGGG,2001-11-25 14:00,ZGGG 251400Z AUTO 03004KT 6SM 17/08 A3009 RMK T01700080 IEM_DS3505
ZGGG,2001-11-25 15:00,ZGGG 251500Z AUTO 00000KT 10SM 16/09 A3012 RMK SLP199 T01570093 52017 IEM_DS3505
ZGGG,2001-11-25 16:00,ZGGG 251600Z AUTO 18/08 A3012 RMK T01800080 IEM_DS3505
ZGGG,2001-11-25 17:00,ZGGG 251700Z AUTO 06002KT 5SM 16/07 A3012 RMK T01600070 IEM_DS3505
ZGGG,2001-11-25 18:00,ZGGG 251800Z AUTO 00000KT 7SM 14/09 A3012 RMK SLP206 T01400093 52007 IEM_DS3505
ZGGG,2001-11-25 19:00,ZGGG 251900Z AUTO 03004KT 6SM 14/09 A3012 RMK T01400090 IEM_DS3505
ZGGG,2001-11-25 20:00,ZGGG 252000Z AUTO 05002KT 6SM 13/08 A3012 RMK T01300080 IEM_DS3505
ZGGG,2001-11-25 21:00,ZGGG 252100Z AUTO 34004KT 7SM 13/09 A3015 RMK SLP208 T01270091 52002 IEM_DS3505
ZGGG,2001-11-25 22:00,ZGGG 252200Z AUTO 02004KT 6SM 14/07 A3015 RMK T01400070 IEM_DS3505
ZGGG,2001-11-25 23:00,ZGGG 252300Z AUTO 02006KT 6SM 13/07 A3018 RMK T01300070 IEM_DS3505
ZGGG,2001-11-26 00:00,ZGGG 260000Z AUTO 36002KT 9SM 15/08 A3021 RMK SLP229 T01460084 52021 IEM_DS3505
ZGGG,2001-11-26 01:00,ZGGG 260100Z AUTO 04004KT 5SM 19/07 A3021 RMK T01900070 IEM_DS3505
ZGGG,2001-11-26 02:00,ZGGG 260200Z AUTO 01006KT 5SM 20/07 A3024 RMK T02000070 IEM_DS3505
ZGGG,2001-11-26 03:00,ZGGG 260300Z AUTO 09004KT 11SM 23/09 A3021 RMK SLP230 T02300091 52001 IEM_DS3505
ZGGG,2001-11-26 04:00,ZGGG 260400Z AUTO 36004KT 5SM 22/08 A3018 RMK T02200080 IEM_DS3505
ZGGG,2001-11-26 05:00,ZGGG 260500Z AUTO 36004KT 5SM 23/08 A3015 RMK T02300080 IEM_DS3505
ZGGG,2001-11-26 06:00,ZGGG 260600Z AUTO 22002KT 12SM 25/08 A3012 RMK SLP200 T02520080 57030 IEM_DS3505
ZGGG,2001-11-26 07:00,ZGGG 260700Z AUTO 34004KT 6SM 25/08 A3009 RMK T02500080 IEM_DS3505
ZGGG,2001-11-26 08:00,ZGGG 260800Z AUTO 36004KT 6SM 24/08 A3009 RMK T02400080 IEM_DS3505
ZGGG,2001-11-26 09:00,ZGGG 260900Z AUTO 00000KT 10SM 24/11 A3009 RMK SLP196 T02360107 57004 IEM_DS3505
ZGGG,2001-11-26 10:00,ZGGG 261000Z AUTO 3SM 22/09 A3012 RMK T02200090 IEM_DS3505
ZGGG,2001-11-26 11:00,ZGGG 261100Z AUTO 20/09 A3012 RMK T02000090 IEM_DS3505
ZGGG,2001-11-26 12:00,ZGGG 261200Z AUTO 00000KT 8SM 17/11 A3015 RMK SLP213 T01730110 52017 IEM_DS3505
ZGGG,2001-11-26 13:00,ZGGG 261300Z AUTO 06002KT 18/09 A3018 RMK T01800090 IEM_DS3505
ZGGG,2001-11-26 14:00,ZGGG 261400Z 00000MPS 7000 SKC 17/09 Q1022 NOSIG
ZGGG,2001-11-26 15:00,ZGGG 261500Z 00000MPS CAVOK 17/09 Q1022 NOSIG
ZGGG,2001-11-26 16:00,ZGGG 261600Z AUTO 21002KT 17/09 A3018 RMK T01700090 IEM_DS3505
ZGGG,2001-11-26 17:00,ZGGG 261700Z AUTO 3SM 18/11 A3018 RMK T01800110 IEM_DS3505
ZGGG,2001-11-26 18:00,ZGGG 261800Z AUTO 00000KT 7SM 14/11 A3018 RMK SLP218 T01410111 57007 IEM_DS3505
ZGGG,2001-11-26 19:00,ZGGG 261900Z AUTO 2 1/2SM 15/11 A3015 RMK T01500110 IEM_DS3505
ZGGG,2001-11-26 20:00,ZGGG 262000Z AUTO 04004KT 2 1/2SM 15/13 A3015 RMK T01500130 IEM_DS3505
ZGGG,2001-11-26 21:00,ZGGG 262100Z AUTO 00000KT 3SM 13/11 A3015 RMK SLP214 T01340113 57004 IEM_DS3505
ZGGG,2001-11-26 22:00,ZGGG 262200Z AUTO 05006KT 2SM 13/12 A3018 RMK T01300120 IEM_DS3505
ZGGG,2001-11-26 23:00,ZGGG 262300Z AUTO 04004KT 1 1/2SM 13/12 A3018 RMK T01300120 IEM_DS3505
ZGGG,2001-11-27 00:00,ZGGG 270000Z AUTO 00000KT 5SM 15/13 A3021 RMK SLP228 T01510126 52014 IEM_DS3505
ZGGG,2001-11-27 01:00,ZGGG 270100Z AUTO 07004KT 1 1/2SM 18/12 A3021 RMK T01800120 IEM_DS3505
ZGGG,2001-11-27 02:00,ZGGG 270200Z AUTO 07002KT 7SM 20/11 A3021 RMK T02000110 IEM_DS3505
ZGGG,2001-11-27 03:00,ZGGG 270300Z AUTO 00000KT 7SM 22/10 A3021 RMK SLP234 T02160098 52006 IEM_DS3505
ZGGG,2001-11-27 04:00,ZGGG 270400Z AUTO 04004KT 22/09 A3018 RMK T02200090 IEM_DS3505
ZGGG,2001-11-27 05:00,ZGGG 270500Z AUTO 36004KT 5SM 24/10 A3015 RMK T02400100 IEM_DS3505
ZGGG,2001-11-27 06:00,ZGGG 270600Z AUTO 27004KT 10SM 25/09 A3009 RMK SLP196 T02490089 57038 IEM_DS3505
ZGGG,2001-11-27 07:00,ZGGG 270700Z AUTO 16006KT 5SM 25/08 A3009 RMK T02500080 IEM_DS3505
ZGGG,2001-11-27 08:00,ZGGG 270800Z AUTO 17008KT 24/08 A3006 RMK T02400080 IEM_DS3505
ZGGG,2001-11-27 09:00,ZGGG 270900Z AUTO 14004KT 10SM 24/08 RMK SLP186 T02390082 57010 IEM_DS3505
ZGGG,2001-11-27 10:00,ZGGG 271000Z AUTO 14004KT 22/09 A3006 RMK T02200090 IEM_DS3505
ZGGG,2001-11-27 11:00,ZGGG 271100Z AUTO 3SM 20/11 A3009 RMK T02000110 IEM_DS3505
ZGGG,2001-11-27 12:00,ZGGG 271200Z AUTO 00000KT 7SM 19/11 A3009 RMK SLP198 T01860109 52012 IEM_DS3505
ZGGG,2001-11-27 13:00,ZGGG 271300Z AUTO 06002KT 3SM 19/11 A3012 RMK T01900110 IEM_DS3505
ZGGG,2001-11-27 14:00,ZGGG 271400Z AUTO 3SM 19/11 A3012 RMK T01900110 IEM_DS3505
ZGGG,2001-11-27 15:00,ZGGG 271500Z AUTO 00000KT 7SM 17/12 A3012 RMK SLP200 T01710120 52002 IEM_DS3505
ZGGG,2001-11-27 16:00,ZGGG 271600Z AUTO 02002KT 19/12 A3009 RMK T01900120 IEM_DS3505
ZGGG,2001-11-27 17:00,ZGGG 271700Z AUTO 19/13 A3009 RMK T01900130 IEM_DS3505
ZGGG,2001-11-27 18:00,ZGGG 271800Z AUTO 00000KT 7SM 17/13 A3009 RMK SLP190 T01720129 57009 IEM_DS3505
ZGGG,2001-11-27 19:00,ZGGG 271900Z AUTO 04002KT 2SM 17/13 A3006 RMK T01700130 IEM_DS3505
ZGGG,2001-11-27 20:00,ZGGG 272000Z AUTO 07002KT 2SM 17/13 A3006 RMK T01700130 IEM_DS3505
ZGGG,2001-11-27 21:00,ZGGG 272100Z AUTO 00000KT 7SM 16/13 A3003 RMK SLP174 T01570132 57016 IEM_DS3505
ZGGG,2001-11-27 22:00,ZGGG 272200Z AUTO 02002KT 2SM 17/13 A3003 RMK T01700130 IEM_DS3505
ZGGG,2001-11-27 23:00,ZGGG 272300Z AUTO 2 1/2SM 17/13 A3006 RMK T01700130 IEM_DS3505
ZGGG,2001-11-28 00:00,ZGGG 280000Z AUTO 11002KT 7SM 18/13 A3006 RMK SLP184 T01770133 52009 IEM_DS3505
ZGGG,2001-11-28 01:00,ZGGG 280100Z AUTO 14004KT 5SM 20/12 A3006 RMK SLP138 T02000120 IEM_DS3505
ZGGG,2001-11-28 02:00,ZGGG 280200Z AUTO 11006KT 5SM 22/14 A3006 RMK T02200140 IEM_DS3505
ZGGG,2001-11-28 03:00,ZGGG 280300Z AUTO 14006KT 5SM 23/15 A3006 RMK SLP181 T02300146 57002 IEM_DS3505
ZGGG,2001-11-28 04:00,ZGGG 280400Z AUTO 15006KT 3SM 23/16 A3003 RMK T02300160 IEM_DS3505
ZGGG,2001-11-28 05:00,ZGGG 280500Z AUTO 13008KT 3SM 24/16 A3000 RMK T02400160 IEM_DS3505
ZGGG,2001-11-28 06:00,ZGGG 280600Z AUTO 11004KT 6SM 24/16 RMK SLP148 T02360163 57033 IEM_DS3505
ZGGG,2001-11-28 07:00,ZGGG 280700Z AUTO 13010KT 25/17 A2994 RMK T02500170 IEM_DS3505
ZGGG,2001-11-28 08:00,ZGGG 280800Z AUTO 14008KT 5SM 24/17 A2994 RMK T02400170 IEM_DS3505
ZGGG,2001-11-28 09:00,ZGGG 280900Z AUTO 14004KT 5SM 24/17 RMK SLP138 T02380171 57010 IEM_DS3505
ZGGG,2001-11-28 11:00,ZGGG 281100Z AUTO 15006KT 5SM 23/18 A2994 RMK T02300180 IEM_DS3505
ZGGG,2001-11-28 12:00,ZGGG 281200Z AUTO 16004KT 6SM 22/18 A2997 RMK SLP147 T02250175 52009 IEM_DS3505
ZGGG,2001-11-28 13:00,ZGGG 281300Z AUTO 13006KT 6SM 22/17 A2997 RMK T02200170 IEM_DS3505
ZGGG,2001-11-28 14:00,ZGGG 281400Z AUTO 14006KT 6SM 22/18 A2997 RMK T02200180 IEM_DS3505
ZGGG,2001-11-28 15:00,ZGGG 281500Z AUTO 09004KT 7SM 21/18 A2997 RMK SLP156 T02140179 52009 IEM_DS3505
ZGGG,2001-11-28 16:00,ZGGG 281600Z AUTO 13008KT 4SM 22/18 A2997 RMK T02200180 IEM_DS3505
ZGGG,2001-11-28 17:00,ZGGG 281700Z AUTO 12010KT 4SM 22/18 A2997 RMK T02200180 IEM_DS3505
ZGGG,2001-11-28 18:00,ZGGG 281800Z AUTO 11004KT 6SM 20/18 A2994 RMK SLP147 T02050178 57009 IEM_DS3505
ZGGG,2001-11-28 19:00,ZGGG 281900Z AUTO 12006KT 4SM 21/18 A2994 RMK T02100180 IEM_DS3505
ZGGG,2001-11-28 20:00,ZGGG 282000Z AUTO 11008KT 4SM 21/18 A2994 RMK T02100180 IEM_DS3505
ZGGG,2001-11-28 21:00,ZGGG 282100Z AUTO 09004KT 6SM 21/18 A2994 RMK 70003 SLP142 T02060182 57005 IEM_DS3505
ZGGG,2001-11-28 22:00,ZGGG 282200Z AUTO 10012KT 3SM 20/18 A2994 RMK T02000180 IEM_DS3505
ZGGG,2001-11-28 23:00,ZGGG 282300Z AUTO 12006KT 3SM 21/19 A2997 RMK T02100190 IEM_DS3505
ZGGG,2001-11-29 00:00,ZGGG 290000Z AUTO 00000KT 4SM 20/19 A3000 RMK 60004 SLP160 T02040191 52018 IEM_DS3505
ZGGG,2001-11-29 01:00,ZGGG 290100Z AUTO 10006KT 1 1/2SM 21/19 A3000 RMK T02100190 IEM_DS3505
ZGGG,2001-11-29 02:00,ZGGG 290200Z AUTO 15002KT 1SM 21/20 A3003 RMK T02100200 IEM_DS3505
ZGGG,2001-11-29 03:00,ZGGG 290300Z AUTO 25002KT 1 1/4SM 21/20 A3003 RMK SLP168 T02060200 52008 IEM_DS3505
ZGGG,2001-11-29 04:00,ZGGG 290400Z AUTO 17004KT 1SM 21/21 A3000 RMK T02100210 IEM_DS3505
ZGGG,2001-11-29 05:00,ZGGG 290500Z AUTO 09002KT 3SM 21/21 A2997 RMK T02100210 IEM_DS3505
ZGGG,2001-11-29 06:00,ZGGG 290600Z AUTO 11004KT 3SM 23/21 A2994 RMK 60067 SLP142 T02260208 57026 IEM_DS3505
ZGGG,2001-11-29 07:00,ZGGG 290700Z AUTO 09004KT 3SM 23/21 A2994 RMK T02300210 IEM_DS3505
ZGGG,2001-11-29 08:00,ZGGG 290800Z AUTO 11002KT 2 1/2SM 23/21 A2991 RMK T02300210 IEM_DS3505
ZGGG,2001-11-29 09:00,ZGGG 290900Z AUTO 14004KT 6SM 23/20 A2994 RMK SLP139 T02300202 57003 IEM_DS3505
ZGGG,2001-11-29 10:00,ZGGG 291000Z AUTO 3SM 22/21 A2994 RMK T02200210 IEM_DS3505
ZGGG,2001-11-29 11:00,ZGGG 291100Z AUTO 06004KT 3SM 22/21 A2994 RMK T02200210 IEM_DS3505
ZGGG,2001-11-29 12:00,ZGGG 291200Z AUTO 14002KT 6SM 22/20 A2994 RMK SLP147 T02150204 52008 IEM_DS3505
ZGGG,2001-11-29 13:00,ZGGG 291300Z AUTO 06004KT 3SM 22/21 A2997 RMK T02200210 IEM_DS3505
ZGGG,2001-11-29 14:00,ZGGG 291400Z AUTO 03002KT 3SM 22/21 A2997 RMK T02200210 IEM_DS3505
ZGGG,2001-11-29 15:00,ZGGG 291500Z AUTO 09002KT 2 1/2SM 21/20 A2997 RMK SLP158 T02140202 52011 IEM_DS3505
ZGGG,2001-11-29 16:00,ZGGG 291600Z AUTO 12004KT 2 1/2SM 21/20 A2997 RMK T02100200 IEM_DS3505
ZGGG,2001-11-29 17:00,ZGGG 291700Z AUTO 12002KT 2 1/2SM 21/20 A3000 RMK T02100200 IEM_DS3505
ZGGG,2001-11-29 18:00,ZGGG 291800Z AUTO 16002KT 1SM 21/20 A2997 RMK SLP156 T02100198 57002 IEM_DS3505
ZGGG,2001-11-29 19:00,ZGGG 291900Z AUTO 2SM 21/21 A2997 RMK T02100210 IEM_DS3505
ZGGG,2001-11-29 20:00,ZGGG 292000Z AUTO 2SM 21/21 A2997 RMK T02100210 IEM_DS3505
ZGGG,2001-11-29 21:00,ZGGG 292100Z AUTO 00000KT 1 1/2SM 21/20 A2997 RMK 70071 SLP156 T02070198 54000 IEM_DS3505
ZGGG,2001-11-29 22:00,ZGGG 292200Z AUTO 2SM 21/21 A3000 RMK T02100210 IEM_DS3505
ZGGG,2001-11-29 23:00,ZGGG 292300Z AUTO 1 1/4SM 21/21 A3000 RMK T02100210 IEM_DS3505
ZGGG,2001-11-30 00:00,ZGGG 300000Z AUTO 16002KT 1SM 20/20 A3003 RMK 70068 SLP172 T02050197 52016 IEM_DS3505
ZGGG,2001-11-30 01:00,ZGGG 300100Z AUTO 08004KT 1 1/4SM 22/20 A3003 RMK T02200200 IEM_DS3505
ZGGG,2001-11-30 02:00,ZGGG 300200Z AUTO 13004KT 1 1/2SM 22/20 A3003 RMK T02200200 IEM_DS3505
ZGGG,2001-11-30 03:00,ZGGG 300300Z AUTO 16004KT 1 1/2SM 24/20 A3003 RMK SLP171 T02380204 57001 IEM_DS3505
ZGGG,2001-11-30 04:00,ZGGG 300400Z AUTO 17006KT 2 1/2SM 24/20 A3000 RMK T02400200 IEM_DS3505
ZGGG,2001-11-30 05:00,ZGGG 300500Z AUTO 19006KT 3SM 25/19 A2997 RMK T02500190 IEM_DS3505
ZGGG,2001-11-30 06:00,ZGGG 300600Z AUTO 20004KT 7SM 26/19 A2994 RMK SLP142 T02560191 57029 IEM_DS3505
ZGGG,2001-11-30 07:00,ZGGG 300700Z AUTO 21006KT 2 1/2SM 26/19 A2991 RMK T02600190 IEM_DS3505
ZGGG,2001-11-30 08:00,ZGGG 300800Z AUTO 21006KT 2 1/2SM 26/19 A2991 RMK T02600190 IEM_DS3505
ZGGG,2001-11-30 09:00,ZGGG 300900Z AUTO 14002KT 5SM 25/20 A2991 RMK SLP131 T02520197 57011 IEM_DS3505
ZGGG,2001-11-30 10:00,ZGGG 301000Z AUTO 12002KT 2 1/2SM 24/19 A2991 RMK T02400190 IEM_DS3505
ZGGG,2001-11-30 11:00,ZGGG 301100Z AUTO 14004KT 2 1/2SM 23/19 A2994 RMK T02300190 IEM_DS3505
ZGGG,2001-11-30 12:00,ZGGG 301200Z AUTO 00000KT 6SM 22/20 A2994 RMK SLP145 T02190196 52014 IEM_DS3505
ZGGG,2001-11-30 13:00,ZGGG 301300Z AUTO 18004KT 2 1/2SM 23/19 A2994 RMK T02300190 IEM_DS3505
ZGGG,2001-11-30 14:00,ZGGG 301400Z AUTO 03002KT 2 1/2SM 22/19 A2997 RMK T02200190 IEM_DS3505
ZGGG,2001-11-30 15:00,ZGGG 301500Z AUTO 00000KT 7SM 20/19 A2997 RMK SLP157 T02050192 52012 IEM_DS3505
ZGGG,2001-11-30 16:00,ZGGG 301600Z AUTO 16004KT 2 1/2SM 22/20 A3000 RMK T02200200 IEM_DS3505
ZGGG,2001-11-30 17:00,ZGGG 301700Z AUTO 17004KT 3SM 22/20 A3000 RMK T02200200 IEM_DS3505
ZGGG,2001-11-30 18:00,ZGGG 301800Z AUTO 14006KT 6SM 21/19 A3000 RMK SLP161 T02130189 52004 IEM_DS3505
ZGGG,2001-11-30 19:00,ZGGG 301900Z AUTO 15004KT 4SM 22/19 A3000 RMK T02200190 IEM_DS3505
ZGGG,2001-11-30 20:00,ZGGG 302000Z AUTO 15004KT 4SM 21/19 A2997 RMK T02100190 IEM_DS3505
ZGGG,2001-11-30 21:00,ZGGG 302100Z AUTO 00000KT 6SM 20/19 A2997 RMK SLP155 T02020193 57006 IEM_DS3505
ZGGG,2001-11-30 22:00,ZGGG 302200Z AUTO 2 1/2SM 21/19 A3000 RMK T02100190 IEM_DS3505
ZGGG,2001-11-30 23:00,ZGGG 302300Z AUTO 2 1/2SM 21/19 A3000 RMK T02100190 IEM_DS3505
ZGGG,2001-12-01 00:00,ZGGG 010000Z AUTO 09002KT 5SM 20/19 A3003 RMK SLP170 T02040191 52015 IEM_DS3505
ZGGG,2001-12-01 01:00,ZGGG 010100Z AUTO 13002KT 1 1/4SM 22/19 A3003 RMK T02200190 IEM_DS3505
ZGGG,2001-12-01 02:00,ZGGG 010200Z AUTO 14004KT 2SM 23/19 A3006 RMK T02300190 IEM_DS3505
ZGGG,2001-12-01 03:00,ZGGG 010300Z AUTO 16004KT 4SM 23/19 A3003 RMK SLP176 T02320188 52006 IEM_DS3505
ZGGG,2001-12-01 04:00,ZGGG 010400Z AUTO 14004KT 2 1/2SM 25/19 A3000 RMK T02500190 IEM_DS3505
ZGGG,2001-12-01 05:00,ZGGG 010500Z AUTO 13004KT 3SM 25/18 A2997 RMK T02500180 IEM_DS3505
ZGGG,2001-12-01 06:00,ZGGG 010600Z AUTO 18002KT 7SM 27/18 A2994 RMK SLP146 T02660182 57030 IEM_DS3505
ZGGG,2001-12-01 07:00,ZGGG 010700Z AUTO 16004KT 3SM 26/19 A2994 RMK T02600190 IEM_DS3505
ZGGG,2001-12-01 08:00,ZGGG 010800Z AUTO 14002KT 3SM 26/19 A2994 RMK T02600190 IEM_DS3505
ZGGG,2001-12-01 09:00,ZGGG 010900Z AUTO 09004KT 7SM 26/18 A2994 RMK SLP141 T02560184 57005 IEM_DS3505
ZGGG,2001-12-01 10:00,ZGGG 011000Z AUTO 11002KT 3SM 24/18 A2994 RMK T02400180 IEM_DS3505
ZGGG,2001-12-01 11:00,ZGGG 011100Z AUTO 24/18 A2994 RMK T02400180 IEM_DS3505
ZGGG,2001-12-01 12:00,ZGGG 011200Z AUTO 16002KT 6SM 23/18 A2997 RMK SLP154 T02320178 52013 IEM_DS3505
ZGGG,2001-12-01 13:00,ZGGG 011300Z AUTO 17004KT 5SM 23/18 A3000 RMK T02300180 IEM_DS3505
ZGGG,2001-12-01 14:00,ZGGG 011400Z AUTO 15004KT 5SM 23/19 A3000 RMK T02300190 IEM_DS3505
ZGGG,2001-12-01 15:00,ZGGG 011500Z AUTO 00000KT 7SM 22/19 A3000 RMK SLP163 T02180190 52009 IEM_DS3505
ZGGG,2001-12-01 16:00,ZGGG 011600Z AUTO 4SM 22/18 A3000 RMK T02200180 IEM_DS3505
ZGGG,2001-12-01 17:00,ZGGG 011700Z AUTO 4SM 22/19 A3000 RMK T02200190 IEM_DS3505
ZGGG,2001-12-01 18:00,ZGGG 011800Z AUTO 00000KT 6SM 21/19 A3000 RMK SLP163 T02090192 54000 IEM_DS3505
ZGGG,2001-12-01 19:00,ZGGG 011900Z AUTO 4SM 21/18 A3000 RMK T02100180 IEM_DS3505
ZGGG,2001-12-01 20:00,ZGGG 012000Z AUTO 08002KT 4SM 21/18 A3000 RMK T02100180 IEM_DS3505
ZGGG,2001-12-01 21:00,ZGGG 012100Z AUTO 04002KT 2SM 20/19 A3000 RMK SLP161 T01990186 57002 IEM_DS3505
ZGGG,2001-12-01 22:00,ZGGG 012200Z AUTO 2SM 20/18 A3000 RMK T02000180 IEM_DS3505
ZGGG,2001-12-01 23:00,ZGGG 012300Z AUTO 06004KT 2SM 20/19 A3003 RMK T02000190 IEM_DS3505
ZGGG,2001-12-02 00:00,ZGGG 020000Z AUTO 00000KT 2SM 20/19 A3003 RMK SLP174 T02040190 52013 IEM_DS3505
ZGGG,2001-12-02 01:00,ZGGG 020100Z AUTO 05004KT 1 1/4SM 21/18 A3006 RMK T02100180 IEM_DS3505
ZGGG,2001-12-02 02:00,ZGGG 020200Z AUTO 02004KT 1 1/4SM 22/19 A3006 RMK T02200190 IEM_DS3505
ZGGG,2001-12-02 03:00,ZGGG 020300Z AUTO 16004KT 6SM 24/18 A3006 RMK SLP183 T02390182 52009 IEM_DS3505
ZGGG,2001-12-02 04:00,ZGGG 020400Z AUTO 33004KT 1 1/2SM 24/19 A3003 RMK T02400190 IEM_DS3505
ZGGG,2001-12-02 05:00,ZGGG 020500Z AUTO 1 1/2SM 24/19 A3000 RMK T02400190 IEM_DS3505
ZGGG,2001-12-02 06:00,ZGGG 020600Z AUTO 18002KT 2 1/2SM 26/18 A2997 RMK SLP157 T02550181 57026 IEM_DS3505
ZGGG,2001-12-02 07:00,ZGGG 020700Z AUTO 14004KT 1 1/2SM 26/18 A2997 RMK T02600180 IEM_DS3505
ZGGG,2001-12-02 08:00,ZGGG 020800Z AUTO 17006KT 2 1/2SM 26/18 A2997 RMK T02600180 IEM_DS3505
ZGGG,2001-12-02 09:00,ZGGG 020900Z AUTO 18002KT 6SM 25/19 A2997 RMK SLP152 T02510187 57005 IEM_DS3505
ZGGG,2001-12-02 10:00,ZGGG 021000Z AUTO 16004KT 3SM 24/18 A2997 RMK T02400180 IEM_DS3505
ZGGG,2001-12-02 11:00,ZGGG 021100Z AUTO 16004KT 24/18 A3000 RMK T02400180 IEM_DS3505
ZGGG,2001-12-02 12:00,ZGGG 021200Z AUTO 16006KT 6SM 23/18 A3000 RMK SLP167 T02330182 52015 IEM_DS3505
ZGGG,2001-12-02 13:00,ZGGG 021300Z AUTO 17006KT 4SM 23/18 A3003 RMK T02300180 IEM_DS3505
ZGGG,2001-12-02 14:00,ZGGG 021400Z AUTO 18008KT 4SM 22/18 A3003 RMK T02200180 IEM_DS3505
ZGGG,2001-12-02 15:00,ZGGG 021500Z AUTO 16004KT 5SM 21/18 A3003 RMK SLP176 T02100180 52009 IEM_DS3505
ZGGG,2001-12-02 16:00,ZGGG 021600Z AUTO 14006KT 4SM 21/18 A3003 RMK T02100180 IEM_DS3505
ZGGG,2001-12-02 17:00,ZGGG 021700Z AUTO 5SM 21/17 A3003 RMK T02100170 IEM_DS3505
ZGGG,2001-12-02 18:00,ZGGG 021800Z AUTO 09002KT 6SM 19/17 A3003 RMK SLP171 T01920171 57005 IEM_DS3505
ZGGG,2001-12-02 19:00,ZGGG 021900Z AUTO 01004KT 5SM 19/17 A3003 RMK T01900170 IEM_DS3505
ZGGG,2001-12-02 20:00,ZGGG 022000Z AUTO 4SM 19/17 A3003 RMK T01900170 IEM_DS3505
ZGGG,2001-12-02 21:00,ZGGG 022100Z AUTO 00000KT 7SM 19/17 A3003 RMK SLP169 T01930170 57002 IEM_DS3505
ZGGG,2001-12-02 22:00,ZGGG 022200Z AUTO 10004KT 5SM 20/17 A3003 RMK T02000170 IEM_DS3505
ZGGG,2001-12-02 23:00,ZGGG 022300Z AUTO 05004KT 4SM 19/17 A3006 RMK T01900170 IEM_DS3505
ZGGG,2001-12-03 00:00,ZGGG 030000Z AUTO 09004KT 7SM 20/17 A3006 RMK SLP184 T02000169 52015 IEM_DS3505
ZGGG,2001-12-03 01:00,ZGGG 030100Z AUTO 06004KT 5SM 21/17 A3009 RMK T02100170 IEM_DS3505
ZGGG,2001-12-03 02:00,ZGGG 030200Z AUTO 03002KT 3SM 21/17 A3009 RMK T02100170 IEM_DS3505
ZGGG,2001-12-03 03:00,ZGGG 030300Z AUTO 11004KT 6SM 22/18 A3009 RMK SLP188 T02180176 52004 IEM_DS3505
ZGGG,2001-12-03 04:00,ZGGG 030400Z AUTO 10004KT 5SM 22/17 A3006 RMK T02200170 IEM_DS3505
ZGGG,2001-12-03 05:00,ZGGG 030500Z AUTO 19004KT 7SM 23/17 A3003 RMK T02300170 IEM_DS3505
ZGGG,2001-12-03 06:00,ZGGG 030600Z AUTO 16002KT 8SM 24/17 A3000 RMK 60003 SLP163 T02350174 57025 IEM_DS3505
ZGGG,2001-12-03 07:00,ZGGG 030700Z AUTO 12004KT 6SM 24/18 A2997 RMK T02400180 IEM_DS3505
ZGGG,2001-12-03 08:00,ZGGG 030800Z AUTO 11002KT 5SM 24/17 A2997 RMK T02400170 IEM_DS3505
ZGGG,2001-12-03 09:00,ZGGG 030900Z AUTO 00000KT 7SM 24/19 A2997 RMK SLP158 T02380186 57005 IEM_DS3505
ZGGG,2001-12-03 10:00,ZGGG 031000Z AUTO 32002KT 2 1/2SM 23/18 A3000 RMK T02300180 IEM_DS3505
ZGGG,2001-12-03 11:00,ZGGG 031100Z AUTO 08004KT 4SM 23/18 A3000 RMK T02300180 IEM_DS3505
ZGGG,2001-12-03 12:00,ZGGG 031200Z AUTO 00000KT 7SM 22/19 RMK SLP162 T02220191 52004 IEM_DS3505
ZGGG,2001-12-03 13:00,ZGGG 031300Z AUTO 4SM 22/18 A3000 RMK T02200180 IEM_DS3505
ZGGG,2001-12-03 14:00,ZGGG 031400Z AUTO 08002KT 2 1/2SM 21/18 A3003 RMK T02100180 IEM_DS3505
ZGGG,2001-12-03 15:00,ZGGG 031500Z AUTO 00000KT 6SM 20/18 A3003 RMK SLP173 T02020184 52011 IEM_DS3505
ZGGG,2001-12-03 16:00,ZGGG 031600Z AUTO 2 1/2SM 20/18 A3003 RMK T02000180 IEM_DS3505
ZGGG,2001-12-03 17:00,ZGGG 031700Z AUTO 2 1/2SM 21/18 A3003 RMK T02100180 IEM_DS3505
ZGGG,2001-12-03 18:00,ZGGG 031800Z AUTO 00000KT 5SM 20/19 A3003 RMK SLP168 T02030186 57005 IEM_DS3505
ZGGG,2001-12-03 19:00,ZGGG 031900Z AUTO 3SM 21/18 A3000 RMK T02100180 IEM_DS3505
ZGGG,2001-12-03 20:00,ZGGG 032000Z AUTO 07002KT 2 1/2SM 20/18 A3000 RMK T02000180 IEM_DS3505
ZGGG,2001-12-03 21:00,ZGGG 032100Z AUTO 00000KT 2 1/2SM 20/18 A3000 RMK 70003 SLP164 T01980184 57004 IEM_DS3505
ZGGG,2001-12-03 23:00,ZGGG 032300Z AUTO 04004KT 1 1/2SM 19/18 A3003 RMK T01900180 IEM_DS3505
ZGGG,2001-12-04 00:00,ZGGG 040000Z AUTO 00000KT 9SM 20/18 A3003 RMK 70003 SLP173 T01980185 52009 IEM_DS3505
ZGGG,2001-12-04 01:00,ZGGG 040100Z AUTO 36004KT 2 1/2SM 22/18 A3003 RMK T02200180 IEM_DS3505
ZGGG,2001-12-04 02:00,ZGGG 040200Z AUTO 04004KT 3SM 24/18 A3003 RMK T02400180 IEM_DS3505
ZGGG,2001-12-04 03:00,ZGGG 040300Z AUTO 25002KT 8SM 26/18 A3000 RMK SLP166 T02640183 57007 IEM_DS3505
ZGGG,2001-12-04 04:00,ZGGG 040400Z AUTO 36002KT 5SM 26/18 A2997 RMK T02600180 IEM_DS3505
ZGGG,2001-12-04 05:00,ZGGG 040500Z AUTO 11004KT 7SM 27/18 A2994 RMK T02700180 IEM_DS3505
ZGGG,2001-12-04 06:00,ZGGG 040600Z AUTO 11004KT 7SM 29/17 A2991 RMK SLP129 T02870166 57036 IEM_DS3505
ZGGG,2001-12-04 07:00,ZGGG 040700Z AUTO 20008KT 7SM 28/16 A2988 RMK T02800160 IEM_DS3505
ZGGG,2001-12-04 08:00,ZGGG 040800Z AUTO 18006KT 6SM 28/16 A2988 RMK T02800160 IEM_DS3505
ZGGG,2001-12-04 09:00,ZGGG 040900Z AUTO 16002KT 9SM 28/17 A2988 RMK SLP121 T02770171 57008 IEM_DS3505
ZGGG,2001-12-04 10:00,ZGGG 041000Z AUTO 13004KT 27/17 A2988 RMK T02700170 IEM_DS3505
ZGGG,2001-12-04 11:00,ZGGG 041100Z AUTO 13004KT 24/18 A2991 RMK T02400180 IEM_DS3505
ZGGG,2001-12-04 12:00,ZGGG 041200Z AUTO 14004KT 7SM 23/18 A2991 RMK SLP138 T02320185 52016 IEM_DS3505
ZGGG,2001-12-04 13:00,ZGGG 041300Z AUTO 17006KT 3SM 25/18 A2994 RMK T02500180 IEM_DS3505
ZGGG,2001-12-04 14:00,ZGGG 041400Z AUTO 17004KT 3SM 22/18 A2994 RMK T02200180 IEM_DS3505
ZGGG,2001-12-04 16:00,ZGGG 041600Z AUTO 06002KT 3SM 22/17 A2997 RMK T02200170 IEM_DS3505
ZGGG,2001-12-04 17:00,ZGGG 041700Z AUTO 12004KT 3SM 22/17 A2997 RMK T02200170 IEM_DS3505
ZGGG,2001-12-04 18:00,ZGGG 041800Z AUTO 09004KT 6SM 21/18 A2997 RMK SLP152 T02080179 52003 IEM_DS3505
ZGGG,2001-12-04 19:00,ZGGG 041900Z AUTO 13002KT 4SM 22/18 A2997 RMK T02200180 IEM_DS3505
ZGGG,2001-12-04 20:00,ZGGG 042000Z AUTO 07006KT 4SM 21/17 A3000 RMK T02100170 IEM_DS3505
ZGGG,2001-12-04 21:00,ZGGG 042100Z AUTO 11002KT 6SM 21/17 A3000 RMK SLP158 T02060174 52005 IEM_DS3505
ZGGG,2001-12-04 22:00,ZGGG 042200Z AUTO 07004KT 4SM 21/18 A3000 RMK T02100180 IEM_DS3505
ZGGG,2001-12-04 23:00,ZGGG 042300Z AUTO 4SM 21/18 A3003 RMK T02100180 IEM_DS3505
ZGGG,2001-12-05 00:00,ZGGG 050000Z AUTO 09002KT 6SM 21/18 A3003 RMK SLP176 T02080176 52018 IEM_DS3505
ZGGG,2001-12-05 03:00,ZGGG 050300Z AUTO 16006KT 7SM 25/17 A3003 RMK SLP173 T02510171 57003 IEM_DS3505
ZGGG,2001-12-05 04:00,ZGGG 050400Z AUTO 19006KT 26/18 A3000 RMK T02600180 IEM_DS3505
ZGGG,2001-12-05 05:00,ZGGG 050500Z AUTO 21008KT 26/18 A2997 RMK T02600180 IEM_DS3505
ZGGG,2001-12-05 06:00,ZGGG 050600Z AUTO 16004KT 9SM 26/18 A2994 RMK SLP148 T02570178 57025 IEM_DS3505
ZGGG,2001-12-05 07:00,ZGGG 050700Z AUTO 20006KT 26/19 A2994 RMK T02600190 IEM_DS3505
ZGGG,2001-12-05 08:00,ZGGG 050800Z AUTO 17006KT 3SM 25/18 A2994 RMK T02500180 IEM_DS3505
ZGGG,2001-12-05 09:00,ZGGG 050900Z AUTO 25002KT 7SM 25/19 A2994 RMK SLP143 T02510191 57005 IEM_DS3505
ZGGG,2001-12-05 10:00,ZGGG 051000Z AUTO 15004KT 3SM 24/19 A2997 RMK T02400190 IEM_DS3505
ZGGG,2001-12-05 11:00,ZGGG 051100Z AUTO 15004KT 24/18 A2997 RMK T02400180 IEM_DS3505
ZGGG,2001-12-05 12:00,ZGGG 051200Z AUTO 14002KT 7SM 24/19 A3000 RMK SLP161 T02420189 52018 IEM_DS3505
ZGGG,2001-12-05 13:00,ZGGG 051300Z AUTO 14004KT 4SM 24/19 A3000 RMK T02400190 IEM_DS3505
ZGGG,2001-12-05 14:00,ZGGG 051400Z AUTO 08002KT 4SM 23/18 A3003 RMK T02300180 IEM_DS3505
ZGGG,2001-12-05 15:00,ZGGG 051500Z AUTO 00000KT 6SM 23/19 A3003 RMK SLP173 T02320191 52012 IEM_DS3505
ZGGG,2001-12-05 16:00,ZGGG 051600Z AUTO 4SM 23/19 A3003 RMK T02300190 IEM_DS3505
ZGGG,2001-12-05 17:00,ZGGG 051700Z AUTO 34002KT 4SM 23/19 A3003 RMK T02300190 IEM_DS3505
ZGGG,2001-12-05 18:00,ZGGG 051800Z AUTO 34004KT 7SM 22/18 RMK SLP177 T02240178 52004 IEM_DS3505
ZGGG,2001-12-05 21:00,ZGGG 052100Z AUTO 36006KT 8SM 17/12 RMK SLP185 T01700115 52008 IEM_DS3505
ZGGG,2001-12-06 00:00,ZGGG 060000Z AUTO 32006KT 9SM 15/10 A3015 RMK SLP208 T01510101 52022 IEM_DS3505
ZGGG,2001-12-06 01:00,ZGGG 060100Z AUTO 36012KT 7SM 14/09 A3015 RMK T01400090 IEM_DS3505
ZGGG,2001-12-06 02:00,ZGGG 060200Z AUTO 35012KT 7SM 15/09 A3018 RMK T01500090 IEM_DS3505
ZGGG,2001-12-06 03:00,ZGGG 060300Z AUTO 34008KT 11SM 16/09 A3018 RMK SLP219 T01600092 52011 IEM_DS3505
ZGGG,2001-12-06 04:00,ZGGG 060400Z AUTO 35012KT 7SM 15/08 A3018 RMK T01500080 IEM_DS3505
ZGGG,2001-12-06 05:00,ZGGG 060500Z AUTO 36012KT 7SM 15/09 A3015 RMK T01500090 IEM_DS3505
ZGGG,2001-12-06 06:00,ZGGG 060600Z AUTO 34006KT 12SM 16/09 A3012 RMK SLP194 T01640088 57025 IEM_DS3505
ZGGG,2001-12-06 07:00,ZGGG 060700Z AUTO 36012KT 6SM 15/08 A3009 RMK T01500080 IEM_DS3505
ZGGG,2001-12-06 08:00,ZGGG 060800Z AUTO 35012KT 6SM 15/08 A3009 RMK T01500080 IEM_DS3505
ZGGG,2001-12-06 09:00,ZGGG 060900Z AUTO 34008KT 9SM 14/07 A3012 RMK SLP195 T01440073 52001 IEM_DS3505
ZGGG,2001-12-06 10:00,ZGGG 061000Z AUTO 36010KT 7SM 13/07 A3015 RMK T01300070 IEM_DS3505
ZGGG,2001-12-06 11:00,ZGGG 061100Z AUTO 36012KT 7SM 13/07 A3018 RMK T01300070 IEM_DS3505
ZGGG,2001-12-06 12:00,ZGGG 061200Z AUTO 29004KT 9SM 13/07 A3021 RMK SLP228 T01330074 52032 IEM_DS3505
ZGGG,2001-12-06 13:00,ZGGG 061300Z AUTO 01010KT 7SM 13/07 A3021 RMK T01300070 IEM_DS3505
ZGGG,2001-12-06 14:00,ZGGG 061400Z AUTO 36010KT 7SM 13/07 A3021 RMK T01300070 IEM_DS3505
ZGGG,2001-12-06 15:00,ZGGG 061500Z AUTO 02006KT 9SM 13/08 A3021 RMK SLP232 T01340075 52004 IEM_DS3505
ZGGG,2001-12-06 16:00,ZGGG 061600Z AUTO 36008KT 7SM 13/07 A3021 RMK T01300070 IEM_DS3505
ZGGG,2001-12-06 17:00,ZGGG 061700Z AUTO 36008KT 7SM 13/07 A3018 RMK T01300070 IEM_DS3505
ZGGG,2001-12-06 18:00,ZGGG 061800Z AUTO 04004KT 9SM 13/07 A3018 RMK SLP218 T01310074 57013 IEM_DS3505
ZGGG,2001-12-06 19:00,ZGGG 061900Z AUTO 36006KT 7SM 13/07 A3015 RMK T01300070 IEM_DS3505
ZGGG,2001-12-06 20:00,ZGGG 062000Z AUTO 36008KT 7SM 13/07 A3015 RMK T01300070 IEM_DS3505
ZGGG,2001-12-06 21:00,ZGGG 062100Z AUTO 36004KT 10SM 13/07 A3015 RMK SLP211 T01270066 57008 IEM_DS3505
ZGGG,2001-12-06 22:00,ZGGG 062200Z AUTO 36010KT 7SM 12/07 A3015 RMK T01200070 IEM_DS3505
ZGGG,2001-12-06 23:00,ZGGG 062300Z AUTO 36008KT 7SM 12/07 A3018 RMK T01200070 IEM_DS3505
ZGGG,2001-12-07 00:00,ZGGG 070000Z AUTO 34004KT 10SM 12/07 A3018 RMK SLP217 T01240068 52006 IEM_DS3505
ZGGG,2001-12-07 01:00,ZGGG 070100Z AUTO 01006KT 6SM 13/07 A3018 RMK T01300070 IEM_DS3505
ZGGG,2001-12-07 02:00,ZGGG 070200Z AUTO 35006KT 6SM 15/08 A3021 RMK T01500080 IEM_DS3505
ZGGG,2001-12-07 03:00,ZGGG 070300Z AUTO 34004KT 14SM 18/08 A3018 RMK SLP220 T01770084 52004 IEM_DS3505
ZGGG,2001-12-07 04:00,ZGGG 070400Z AUTO 35006KT 6SM 17/09 A3015 RMK T01700090 IEM_DS3505
ZGGG,2001-12-07 05:00,ZGGG 070500Z AUTO 02006KT 6SM 18/10 A3012 RMK T01800100 IEM_DS3505
ZGGG,2001-12-07 06:00,ZGGG 070600Z AUTO 34004KT 13SM 21/11 A3009 RMK SLP191 T02100111 57029 IEM_DS3505
ZGGG,2001-12-07 07:00,ZGGG 070700Z AUTO 01006KT 6SM 20/11 A3006 RMK T02000110 IEM_DS3505
ZGGG,2001-12-07 08:00,ZGGG 070800Z AUTO 36006KT 6SM 20/11 A3006 RMK T02000110 IEM_DS3505
ZGGG,2001-12-07 09:00,ZGGG 070900Z AUTO 34004KT 11SM 20/11 A3006 RMK SLP182 T02030110 57009 IEM_DS3505
ZGGG,2001-12-07 10:00,ZGGG 071000Z AUTO 36004KT 6SM 20/11 A3006 RMK T02000110 IEM_DS3505
ZGGG,2001-12-07 11:00,ZGGG 071100Z AUTO 36006KT 6SM 19/11 A3009 RMK T01900110 IEM_DS3505
ZGGG,2001-12-07 12:00,ZGGG 071200Z AUTO 34004KT 9SM 18/11 A3009 RMK SLP193 T01810111 52011 IEM_DS3505
ZGGG,2001-12-07 13:00,ZGGG 071300Z AUTO 01006KT 6SM 18/11 A3009 RMK T01800110 IEM_DS3505
ZGGG,2001-12-07 14:00,ZGGG 071400Z AUTO 36004KT 6SM 18/11 A3012 RMK T01800110 IEM_DS3505
ZGGG,2001-12-07 15:00,ZGGG 071500Z AUTO 34002KT 9SM 18/12 A3012 RMK SLP198 T01760120 52005 IEM_DS3505
ZGGG,2001-12-07 16:00,ZGGG 071600Z AUTO 01004KT 6SM 18/12 A3012 RMK T01800120 IEM_DS3505
ZGGG,2001-12-07 17:00,ZGGG 071700Z AUTO 01004KT 6SM 18/12 A3009 RMK T01800120 IEM_DS3505
ZGGG,2001-12-07 18:00,ZGGG 071800Z AUTO 34002KT 7SM 18/11 A3009 RMK SLP195 T01750110 57003 IEM_DS3505
ZGGG,2001-12-07 19:00,ZGGG 071900Z AUTO 01006KT 6SM 17/11 A3009 RMK T01700110 IEM_DS3505
ZGGG,2001-12-07 20:00,ZGGG 072000Z AUTO 01006KT 6SM 17/11 A3009 RMK T01700110 IEM_DS3505
ZGGG,2001-12-07 21:00,ZGGG 072100Z AUTO 34004KT 8SM 17/12 A3009 RMK SLP187 T01680115 57008 IEM_DS3505
ZGGG,2001-12-07 22:00,ZGGG 072200Z AUTO 01006KT 6SM 17/11 A3009 RMK T01700110 IEM_DS3505
ZGGG,2001-12-07 23:00,ZGGG 072300Z AUTO 03006KT 6SM 17/12 A3012 RMK T01700120 IEM_DS3505
ZGGG,2001-12-08 00:00,ZGGG 080000Z AUTO 32002KT 10SM 17/11 A3012 RMK SLP202 T01710112 52015 IEM_DS3505
ZGGG,2001-12-08 01:00,ZGGG 080100Z AUTO 36006KT 6SM 17/11 A3015 RMK T01700110 IEM_DS3505
ZGGG,2001-12-08 02:00,ZGGG 080200Z AUTO 01004KT 6SM 18/12 A3018 RMK T01800120 IEM_DS3505
ZGGG,2001-12-08 03:00,ZGGG 080300Z AUTO 36004KT 11SM 20/12 A3015 RMK SLP213 T02030125 52011 IEM_DS3505
ZGGG,2001-12-08 04:00,ZGGG 080400Z AUTO 02006KT 6SM 20/12 A3015 RMK T02000120 IEM_DS3505
ZGGG,2001-12-08 05:00,ZGGG 080500Z AUTO 02008KT 6SM 20/12 A3012 RMK T02000120 IEM_DS3505
ZGGG,2001-12-08 06:00,ZGGG 080600Z AUTO 36002KT 11SM 20/13 A3009 RMK 60003 SLP191 T02020128 57022 IEM_DS3505
ZGGG,2001-12-08 07:00,ZGGG 080700Z AUTO 03008KT 5SM 20/13 A3006 RMK T02000130 IEM_DS3505
ZGGG,2001-12-08 08:00,ZGGG 080800Z AUTO 04008KT 6SM 20/12 A3006 RMK T02000120 IEM_DS3505
ZGGG,2001-12-08 09:00,ZGGG 080900Z AUTO 00000KT 10SM 20/13 A3009 RMK SLP190 T01990131 57001 IEM_DS3505
ZGGG,2001-12-08 10:00,ZGGG 081000Z AUTO 06006KT 19/13 A3009 RMK T01900130 IEM_DS3505
ZGGG,2001-12-08 11:00,ZGGG 081100Z AUTO 05004KT 4SM 18/14 A3009 RMK T01800140 IEM_DS3505
ZGGG,2001-12-08 12:00,ZGGG 081200Z AUTO 34002KT 8SM 17/16 A3012 RMK 60012 SLP202 T01740157 52012 IEM_DS3505
ZGGG,2001-12-08 13:00,ZGGG 081300Z AUTO 02004KT 4SM 17/15 A3015 RMK T01700150 IEM_DS3505
ZGGG,2001-12-08 14:00,ZGGG 081400Z AUTO 36004KT 3SM 17/15 A3015 RMK T01700150 IEM_DS3505
ZGGG,2001-12-08 15:00,ZGGG 081500Z AUTO 32002KT 6SM 17/16 A3015 RMK SLP212 T01720162 52010 IEM_DS3505
ZGGG,2001-12-08 16:00,ZGGG 081600Z AUTO 03008KT 3SM 16/15 A3015 RMK T01600150 IEM_DS3505
ZGGG,2001-12-08 17:00,ZGGG 081700Z AUTO 01006KT 2 1/2SM 16/16 A3015 RMK T01600160 IEM_DS3505
ZGGG,2001-12-08 18:00,ZGGG 081800Z AUTO 34004KT 4SM 16/16 A3015 RMK 60067 SLP205 T01640157 57007 IEM_DS3505
ZGGG,2001-12-08 19:00,ZGGG 081900Z AUTO 02010KT 2 1/2SM 16/15 A3012 RMK T01600150 IEM_DS3505
ZGGG,2001-12-08 20:00,ZGGG 082000Z AUTO 02008KT 3SM 16/16 A3012 RMK T01600160 IEM_DS3505
ZGGG,2001-12-08 21:00,ZGGG 082100Z AUTO 34004KT 4SM 16/15 A3012 RMK 70118 SLP203 T01560153 57002 IEM_DS3505
ZGGG,2001-12-08 22:00,ZGGG 082200Z AUTO 01008KT 4SM 16/16 A3015 RMK T01600160 IEM_DS3505
ZGGG,2001-12-08 23:00,ZGGG 082300Z AUTO 01008KT 3SM 15/15 A3018 RMK T01500150 IEM_DS3505
ZGGG,2001-12-09 00:00,ZGGG 090000Z AUTO 34004KT 7SM 16/15 A3018 RMK 60059 SLP221 T01550152 52018 IEM_DS3505
ZGGG,2001-12-09 01:00,ZGGG 090100Z AUTO 01008KT 2 1/2SM 15/15 A3021 RMK T01500150 IEM_DS3505
ZGGG,2001-12-09 02:00,ZGGG 090200Z AUTO 01008KT 2 1/2SM 16/16 A3021 RMK T01600160 IEM_DS3505
ZGGG,2001-12-09 03:00,ZGGG 090300Z AUTO 34006KT 4SM 16/15 A3021 RMK SLP225 T01560149 52004 IEM_DS3505
ZGGG,2001-12-09 04:00,ZGGG 090400Z AUTO 36008KT 3SM 15/15 A3018 RMK T01500150 IEM_DS3505
ZGGG,2001-12-09 05:00,ZGGG 090500Z AUTO 36008KT 4SM 15/15 A3015 RMK T01500150 IEM_DS3505
ZGGG,2001-12-09 06:00,ZGGG 090600Z AUTO 36004KT 9SM 16/15 A3012 RMK 60043 SLP200 T01640148 57025 IEM_DS3505
ZGGG,2001-12-09 07:00,ZGGG 090700Z AUTO 36006KT 2 1/2SM 16/16 A3012 RMK T01600160 IEM_DS3505
ZGGG,2001-12-09 08:00,ZGGG 090800Z AUTO 36008KT 4SM 15/15 A3012 RMK T01500150 IEM_DS3505
ZGGG,2001-12-09 09:00,ZGGG 090900Z AUTO 34006KT 10SM 16/15 A3012 RMK SLP199 T01570147 57001 IEM_DS3505
ZGGG,2001-12-09 10:00,ZGGG 091000Z AUTO 36006KT 4SM 15/15 A3015 RMK T01500150 IEM_DS3505
ZGGG,2001-12-09 11:00,ZGGG 091100Z AUTO 36006KT 5SM 16/15 A3015 RMK T01600150 IEM_DS3505
ZGGG,2001-12-09 12:00,ZGGG 091200Z AUTO 36006KT 8SM 16/14 A3015 RMK 60003 SLP209 T01560142 52010 IEM_DS3505
ZGGG,2001-12-09 13:00,ZGGG 091300Z AUTO 36006KT 7SM 16/15 A3015 RMK T01600150 IEM_DS3505
ZGGG,2001-12-09 14:00,ZGGG 091400Z AUTO 36006KT 5SM 15/14 A3018 RMK T01500140 IEM_DS3505
ZGGG,2001-12-09 15:00,ZGGG 091500Z AUTO 36006KT 11SM 15/14 A3018 RMK SLP215 T01530141 52006 IEM_DS3505
ZGGG,2001-12-09 16:00,ZGGG 091600Z AUTO 36008KT 5SM 14/14 A3018 RMK T01400140 IEM_DS3505
ZGGG,2001-12-09 17:00,ZGGG 091700Z AUTO 36008KT 7SM 14/13 A3015 RMK T01400130 IEM_DS3505
ZGGG,2001-12-09 18:00,ZGGG 091800Z AUTO 34004KT 7SM 14/13 A3015 RMK 60012 SLP206 T01430134 57009 IEM_DS3505
ZGGG,2001-12-09 19:00,ZGGG 091900Z AUTO 01008KT 4SM 13/13 A3015 RMK T01300130 IEM_DS3505
ZGGG,2001-12-09 20:00,ZGGG 092000Z AUTO 36008KT 4SM 13/13 A3012 RMK T01300130 IEM_DS3505
ZGGG,2001-12-09 21:00,ZGGG 092100Z AUTO 34006KT 7SM 14/13 A3015 RMK 70112 SLP205 T01380131 57001 IEM_DS3505
ZGGG,2001-12-09 22:00,ZGGG 092200Z AUTO 36006KT 4SM 13/13 A3015 RMK T01300130 IEM_DS3505
ZGGG,2001-12-09 23:00,ZGGG 092300Z AUTO 36006KT 7SM 13/13 A3018 RMK T01300130 IEM_DS3505
ZGGG,2001-12-10 00:00,ZGGG 100000Z AUTO 32006KT 9SM 14/13 A3018 RMK 60039 SLP223 T01380127 52017 IEM_DS3505
ZGGG,2001-12-10 01:00,ZGGG 100100Z AUTO 36008KT 7SM 13/12 A3021 RMK T01300120 IEM_DS3505
ZGGG,2001-12-10 02:00,ZGGG 100200Z AUTO 36006KT 7SM 14/13 A3021 RMK T01400130 IEM_DS3505
ZGGG,2001-12-10 03:00,ZGGG 100300Z AUTO 34008KT 12SM 15/13 A3021 RMK SLP224 T01510126 52002 IEM_DS3505
ZGGG,2001-12-10 04:00,ZGGG 100400Z AUTO 35008KT 7SM 14/12 A3018 RMK T01400120 IEM_DS3505
ZGGG,2001-12-10 05:00,ZGGG 100500Z AUTO 36010KT 7SM 14/12 A3015 RMK T01400120 IEM_DS3505
ZGGG,2001-12-10 06:00,ZGGG 100600Z AUTO 36008KT 14SM 15/12 A3015 RMK 60000 SLP205 T01510122 57019 IEM_DS3505
ZGGG,2001-12-10 07:00,ZGGG 100700Z AUTO 36006KT 7SM 14/12 A3015 RMK T01400120 IEM_DS3505
ZGGG,2001-12-10 08:00,ZGGG 100800Z AUTO 36008KT 7SM 14/11 A3012 RMK T01400110 IEM_DS3505
ZGGG,2001-12-10 09:00,ZGGG 100900Z AUTO 36006KT 12SM 14/11 A3015 RMK SLP209 T01450111 52003 IEM_DS3505
ZGGG,2001-12-10 10:00,ZGGG 101000Z AUTO 36010KT 7SM 13/11 A3015 RMK T01300110 IEM_DS3505
ZGGG,2001-12-10 11:00,ZGGG 101100Z AUTO 36010KT 7SM 13/12 A3018 RMK T01300120 IEM_DS3505
ZGGG,2001-12-10 12:00,ZGGG 101200Z AUTO 34004KT 12SM 14/11 A3018 RMK 60003 SLP221 T01370111 52012 IEM_DS3505
ZGGG,2001-12-10 13:00,ZGGG 101300Z AUTO 36008KT 7SM 13/11 A3018 RMK T01300110 IEM_DS3505
ZGGG,2001-12-10 14:00,ZGGG 101400Z AUTO 36006KT 7SM 13/11 A3018 RMK T01300110 IEM_DS3505
ZGGG,2001-12-10 15:00,ZGGG 101500Z AUTO 36004KT 11SM 14/11 A3018 RMK SLP224 T01380110 52003 IEM_DS3505
ZGGG,2001-12-10 16:00,ZGGG 101600Z AUTO 01006KT 6SM 13/11 A3018 RMK T01300110 IEM_DS3505
ZGGG,2001-12-10 17:00,ZGGG 101700Z AUTO 35004KT 6SM 13/11 A3018 RMK T01300110 IEM_DS3505
ZGGG,2001-12-10 18:00,ZGGG 101800Z AUTO 36004KT 11SM 13/11 A3015 RMK SLP213 T01310110 57011 IEM_DS3505
ZGGG,2001-12-10 19:00,ZGGG 101900Z AUTO 36004KT 6SM 13/11 A3015 RMK T01300110 IEM_DS3505
ZGGG,2001-12-10 20:00,ZGGG 102000Z AUTO 36006KT 7SM 13/11 A3015 RMK T01300110 IEM_DS3505
ZGGG,2001-12-10 21:00,ZGGG 102100Z AUTO 34004KT 11SM 14/11 A3015 RMK 70005 SLP206 T01350108 57007 IEM_DS3505
ZGGG,2001-12-10 22:00,ZGGG 102200Z AUTO 36006KT 6SM 13/11 A3015 RMK T01300110 IEM_DS3505
ZGGG,2001-12-10 23:00,ZGGG 102300Z AUTO 36004KT 7SM 13/11 A3015 RMK T01300110 IEM_DS3505
ZGGG,2001-12-11 00:00,ZGGG 110000Z AUTO 34004KT 14SM 14/11 A3018 RMK 70000 SLP217 T01400108 52011 IEM_DS3505
ZGGG,2001-12-11 01:00,ZGGG 110100Z AUTO 36006KT 7SM 14/11 A3018 RMK T01400110 IEM_DS3505
ZGGG,2001-12-11 02:00,ZGGG 110200Z AUTO 36004KT 6SM 15/12 A3021 RMK T01500120 IEM_DS3505
ZGGG,2001-12-11 03:00,ZGGG 110300Z AUTO 07002KT 14SM 17/12 A3018 RMK SLP217 T01700121 52001 IEM_DS3505
ZGGG,2001-12-11 04:00,ZGGG 110400Z AUTO 01004KT 6SM 18/13 A3015 RMK T01800130 IEM_DS3505
ZGGG,2001-12-11 05:00,ZGGG 110500Z AUTO 03006KT 7SM 18/13 A3009 RMK T01800130 IEM_DS3505
ZGGG,2001-12-11 06:00,ZGGG 110600Z AUTO 32004KT 12SM 19/13 A3006 RMK SLP185 T01860131 57032 IEM_DS3505
ZGGG,2001-12-11 07:00,ZGGG 110700Z AUTO 35006KT 7SM 18/13 A3006 RMK T01800130 IEM_DS3505
ZGGG,2001-12-11 08:00,ZGGG 110800Z AUTO 01006KT 7SM 18/13 A3003 RMK T01800130 IEM_DS3505
ZGGG,2001-12-11 09:00,ZGGG 110900Z AUTO 34004KT 11SM 18/14 A3006 RMK SLP179 T01850138 57006 IEM_DS3505
ZGGG,2001-12-11 10:00,ZGGG 111000Z AUTO 36008KT 7SM 18/13 A3006 RMK T01800130 IEM_DS3505
ZGGG,2001-12-11 11:00,ZGGG 111100Z AUTO 36006KT 7SM 17/13 A3009 RMK T01700130 IEM_DS3505
ZGGG,2001-12-11 12:00,ZGGG 111200Z AUTO 32002KT 11SM 17/14 A3012 RMK SLP198 T01720139 52019 IEM_DS3505
ZGGG,2001-12-11 13:00,ZGGG 111300Z AUTO 36004KT 7SM 17/13 A3012 RMK T01700130 IEM_DS3505
ZGGG,2001-12-11 14:00,ZGGG 111400Z AUTO 01004KT 7SM 17/13 A3015 RMK T01700130 IEM_DS3505
ZGGG,2001-12-11 15:00,ZGGG 111500Z AUTO 34004KT 9SM 17/14 A3015 RMK SLP208 T01680138 52010 IEM_DS3505
ZGGG,2001-12-11 16:00,ZGGG 111600Z AUTO 02006KT 7SM 17/13 A3015 RMK T01700130 IEM_DS3505
ZGGG,2001-12-11 17:00,ZGGG 111700Z AUTO 02006KT 7SM 17/14 A3012 RMK T01700140 IEM_DS3505
ZGGG,2001-12-11 18:00,ZGGG 111800Z AUTO 34002KT 9SM 16/14 A3012 RMK SLP201 T01650135 57007 IEM_DS3505
ZGGG,2001-12-11 19:00,ZGGG 111900Z AUTO 36006KT 7SM 16/13 A3012 RMK T01600130 IEM_DS3505
ZGGG,2001-12-11 20:00,ZGGG 112000Z AUTO 36006KT 7SM 16/13 A3012 RMK T01600130 IEM_DS3505
ZGGG,2001-12-11 21:00,ZGGG 112100Z AUTO 34004KT 9SM 16/13 A3012 RMK SLP198 T01620130 57003 IEM_DS3505
ZGGG,2001-12-11 22:00,ZGGG 112200Z AUTO 02006KT 7SM 16/13 A3012 RMK T01600130 IEM_DS3505
ZGGG,2001-12-11 23:00,ZGGG 112300Z AUTO 36006KT 7SM 16/13 A3012 RMK T01600130 IEM_DS3505
ZGGG,2001-12-12 00:00,ZGGG 120000Z AUTO 00000KT 10SM 16/14 A3012 RMK 60003 SLP204 T01650140 52006 IEM_DS3505
ZGGG,2001-12-12 01:00,ZGGG 120100Z AUTO 36004KT 4SM 17/14 A3015 RMK T01700140 IEM_DS3505
ZGGG,2001-12-12 02:00,ZGGG 120200Z AUTO 35004KT 4SM 18/14 A3015 RMK T01800140 IEM_DS3505
ZGGG,2001-12-12 03:00,ZGGG 120300Z AUTO 18002KT 9SM 21/15 A3015 RMK SLP209 T02140154 52005 IEM_DS3505
ZGGG,2001-12-12 04:00,ZGGG 120400Z AUTO 33004KT 3SM 20/15 A3012 RMK T02000150 IEM_DS3505
ZGGG,2001-12-12 05:00,ZGGG 120500Z AUTO 03006KT 3SM 21/16 A3009 RMK T02100160 IEM_DS3505
ZGGG,2001-12-12 06:00,ZGGG 120600Z AUTO 32004KT 9SM 23/16 A3006 RMK 60003 SLP186 T02330165 57022 IEM_DS3505
ZGGG,2001-12-12 07:00,ZGGG 120700Z AUTO 34006KT 3SM 23/17 A3006 RMK T02300170 IEM_DS3505
ZGGG,2001-12-12 08:00,ZGGG 120800Z AUTO 33006KT 3SM 22/17 A3006 RMK T02200170 IEM_DS3505
ZGGG,2001-12-12 09:00,ZGGG 120900Z AUTO 34004KT 9SM 22/16 A3009 RMK SLP189 T02190158 52002 IEM_DS3505
ZGGG,2001-12-12 10:00,ZGGG 121000Z AUTO 36010KT 4SM 19/14 A3012 RMK T01900140 IEM_DS3505
ZGGG,2001-12-12 11:00,ZGGG 121100Z AUTO 02012KT 5SM 18/13 A3012 RMK T01800130 IEM_DS3505
ZGGG,2001-12-12 12:00,ZGGG 121200Z AUTO 34008KT 9SM 17/12 A3015 RMK SLP208 T01660124 52019 IEM_DS3505
ZGGG,2001-12-12 13:00,ZGGG 121300Z AUTO 36010KT 6SM 16/12 A3018 RMK T01600120 IEM_DS3505
ZGGG,2001-12-12 14:00,ZGGG 121400Z AUTO 36012KT 6SM 15/11 A3018 RMK T01500110 IEM_DS3505
ZGGG,2001-12-12 15:00,ZGGG 121500Z AUTO 32006KT 9SM 15/12 A3021 RMK SLP224 T01500115 52016 IEM_DS3505
ZGGG,2001-12-12 16:00,ZGGG 121600Z AUTO 36014KT 6SM 14/10 A3021 RMK T01400100 IEM_DS3505
ZGGG,2001-12-12 17:00,ZGGG 121700Z AUTO 36012KT 7SM 14/10 A3021 RMK T01400100 IEM_DS3505
ZGGG,2001-12-12 18:00,ZGGG 121800Z AUTO 34006KT 9SM 14/10 A3021 RMK SLP227 T01410105 52003 IEM_DS3505
ZGGG,2001-12-12 19:00,ZGGG 121900Z AUTO 36012KT 6SM 13/09 A3021 RMK T01300090 IEM_DS3505
ZGGG,2001-12-12 20:00,ZGGG 122000Z AUTO 36014KT 6SM 13/09 A3021 RMK T01300090 IEM_DS3505
ZGGG,2001-12-12 21:00,ZGGG 122100Z AUTO 34006KT 10SM 13/10 A3021 RMK 70003 SLP230 T01330098 52003 IEM_DS3505
ZGGG,2001-12-12 22:00,ZGGG 122200Z AUTO 36012KT 7SM 12/08 A3024 RMK T01200080 IEM_DS3505
ZGGG,2001-12-12 23:00,ZGGG 122300Z AUTO 36012KT 7SM 12/08 A3027 RMK T01200080 IEM_DS3505
ZGGG,2001-12-13 00:00,ZGGG 130000Z AUTO 36006KT 12SM 13/08 A3030 RMK 70003 SLP262 T01320081 52031 IEM_DS3505
ZGGG,2001-12-13 01:00,ZGGG 130100Z AUTO 36010KT 7SM 12/09 A3033 RMK T01200090 IEM_DS3505
ZGGG,2001-12-13 02:00,ZGGG 130200Z AUTO 36010KT 7SM 12/08 A3036 RMK T01200080 IEM_DS3505
ZGGG,2001-12-13 03:00,ZGGG 130300Z AUTO 04006KT 15SM 13/09 A3036 RMK SLP281 T01270087 52019 IEM_DS3505
ZGGG,2001-12-13 04:00,ZGGG 130400Z AUTO 36010KT 7SM 13/08 A3036 RMK T01300080 IEM_DS3505
ZGGG,2001-12-13 05:00,ZGGG 130500Z AUTO 01014KT 7SM 13/07 A3033 RMK T01300070 IEM_DS3505
ZGGG,2001-12-13 06:00,ZGGG 130600Z AUTO 36006KT 16SM 14/07 A3030 RMK 60003 SLP260 T01380070 57021 IEM_DS3505
ZGGG,2001-12-13 07:00,ZGGG 130700Z AUTO 36010KT 7SM 14/08 A3027 RMK T01400080 IEM_DS3505
ZGGG,2001-12-13 08:00,ZGGG 130800Z AUTO 36010KT 7SM 14/08 A3027 RMK T01400080 IEM_DS3505
ZGGG,2001-12-13 09:00,ZGGG 130900Z AUTO 36006KT 16SM 14/07 A3030 RMK SLP262 T01360068 52002 IEM_DS3505
ZGGG,2001-12-13 10:00,ZGGG 131000Z AUTO 36008KT 6SM 13/07 A3033 RMK T01300070 IEM_DS3505
ZGGG,2001-12-13 11:00,ZGGG 131100Z AUTO 36008KT 7SM 13/08 A3036 RMK T01300080 IEM_DS3505
ZGGG,2001-12-13 12:00,ZGGG 131200Z AUTO 34008KT 12SM 13/06 A3039 RMK SLP289 T01260065 52027 IEM_DS3505
ZGGG,2001-12-13 13:00,ZGGG 131300Z AUTO 01012KT 7SM 12/06 A3042 RMK T01200060 IEM_DS3505
ZGGG,2001-12-13 14:00,ZGGG 131400Z AUTO 02014KT 7SM 12/06 A3045 RMK T01200060 IEM_DS3505
ZGGG,2001-12-13 15:00,ZGGG 131500Z AUTO 36010KT 14SM 11/06 A3045 RMK SLP312 T01130057 52023 IEM_DS3505
ZGGG,2001-12-13 16:00,ZGGG 131600Z AUTO 03017KT 7SM 11/04 A3047 RMK T01100040 IEM_DS3505
ZGGG,2001-12-13 17:00,ZGGG 131700Z AUTO 02014KT 7SM 11/03 A3047 RMK T01100030 IEM_DS3505
ZGGG,2001-12-13 18:00,ZGGG 131800Z AUTO 36006KT 12SM 10/03 RMK 60003 SLP310 T01040029 57002 IEM_DS3505
ZGGG,2001-12-13 19:00,ZGGG 131900Z AUTO 02014KT 7SM 10/03 A3045 RMK T01000030 IEM_DS3505
ZGGG,2001-12-13 20:00,ZGGG 132000Z AUTO 03014KT 7SM 10/02 A3042 RMK T01000020 IEM_DS3505
ZGGG,2001-12-13 21:00,ZGGG 132100Z AUTO 36008KT 11SM 10/01 A3042 RMK 70003 SLP301 T00980010 57009 IEM_DS3505
ZGGG,2001-12-13 22:00,ZGGG 132200Z AUTO 01010KT 7SM 10/01 A3045 RMK T01000010 IEM_DS3505
ZGGG,2001-12-13 23:00,ZGGG 132300Z AUTO 01008KT 7SM 10/01 A3045 RMK T01000010 IEM_DS3505
ZGGG,2001-12-14 00:00,ZGGG 140000Z AUTO 36006KT 11SM 10/M00 A3047 RMK 70003 SLP315 T00981003 52013 IEM_DS3505
ZGGG,2001-12-14 01:00,ZGGG 140100Z AUTO 02008KT 7SM 11/00 A3047 RMK T01100000 IEM_DS3505
ZGGG,2001-12-14 02:00,ZGGG 140200Z AUTO 02010KT 7SM 11/01 A3050 RMK T01100010 IEM_DS3505
ZGGG,2001-12-14 03:00,ZGGG 140300Z AUTO 04004KT 11SM 12/02 A3047 RMK SLP322 T01180016 52007 IEM_DS3505
ZGGG,2001-12-14 04:00,ZGGG 140400Z AUTO 03010KT 6SM 12/01 A3045 RMK T01200010 IEM_DS3505
ZGGG,2001-12-14 05:00,ZGGG 140500Z AUTO 02010KT 6SM 13/01 A3042 RMK T01300010 IEM_DS3505
ZGGG,2001-12-14 06:00,ZGGG 140600Z AUTO 36008KT 12SM 14/02 A3036 RMK SLP281 T01380015 57040 IEM_DS3505
ZGGG,2001-12-14 07:00,ZGGG 140700Z AUTO 01010KT 6SM 14/01 A3033 RMK T01400010 IEM_DS3505
ZGGG,2001-12-14 08:00,ZGGG 140800Z AUTO 36006KT 6SM 14/02 A3033 RMK T01400020 IEM_DS3505
ZGGG,2001-12-14 09:00,ZGGG 140900Z AUTO 36006KT 11SM 14/02 A3033 RMK SLP269 T01430019 57012 IEM_DS3505
ZGGG,2001-12-14 10:00,ZGGG 141000Z AUTO 36008KT 5SM 14/02 A3036 RMK T01400020 IEM_DS3505
ZGGG,2001-12-14 11:00,ZGGG 141100Z AUTO 36006KT 5SM 13/02 A3036 RMK T01300020 IEM_DS3505
ZGGG,2001-12-14 12:00,ZGGG 141200Z AUTO 34006KT 10SM 12/02 A3036 RMK SLP283 T01250023 52014 IEM_DS3505
ZGGG,2001-12-14 13:00,ZGGG 141300Z AUTO 02008KT 6SM 13/02 A3039 RMK T01300020 IEM_DS3505
ZGGG,2001-12-14 14:00,ZGGG 141400Z AUTO 02006KT 6SM 13/02 A3039 RMK T01300020 IEM_DS3505
ZGGG,2001-12-14 15:00,ZGGG 141500Z AUTO 36004KT 11SM 13/03 A3039 RMK SLP292 T01280027 52009 IEM_DS3505
ZGGG,2001-12-14 16:00,ZGGG 141600Z AUTO 02006KT 6SM 13/03 A3039 RMK T01300030 IEM_DS3505
ZGGG,2001-12-14 17:00,ZGGG 141700Z AUTO 02006KT 6SM 13/03 A3039 RMK T01300030 IEM_DS3505
ZGGG,2001-12-14 18:00,ZGGG 141800Z AUTO 34004KT 9SM 12/04 A3036 RMK SLP285 T01220036 57007 IEM_DS3505
ZGGG,2001-12-14 19:00,ZGGG 141900Z AUTO 03008KT 6SM 12/03 A3036 RMK T01200030 IEM_DS3505
ZGGG,2001-12-14 20:00,ZGGG 142000Z AUTO 03010KT 7SM 12/02 A3033 RMK T01200020 IEM_DS3505
ZGGG,2001-12-14 21:00,ZGGG 142100Z AUTO 02004KT 9SM 12/03 A3033 RMK SLP271 T01170030 57014 IEM_DS3505
ZGGG,2001-12-14 22:00,ZGGG 142200Z AUTO 03006KT 7SM 12/03 A3033 RMK T01200030 IEM_DS3505
ZGGG,2001-12-14 23:00,ZGGG 142300Z AUTO 01006KT 7SM 12/03 A3036 RMK T01200030 IEM_DS3505
ZGGG,2001-12-15 00:00,ZGGG 150000Z AUTO 00000KT 9SM 12/05 A3036 RMK SLP281 T01210046 52010 IEM_DS3505
ZGGG,2001-12-15 01:00,ZGGG 150100Z AUTO 02004KT 5SM 13/04 A3039 RMK T01300040 IEM_DS3505
ZGGG,2001-12-15 02:00,ZGGG 150200Z AUTO 06002KT 5SM 14/05 A3039 RMK T01400050 IEM_DS3505
ZGGG,2001-12-15 03:00,ZGGG 150300Z AUTO 16004KT 12SM 16/05 A3036 RMK SLP282 T01640050 52001 IEM_DS3505
ZGGG,2001-12-15 04:00,ZGGG 150400Z AUTO 01004KT 17/06 A3033 RMK T01700060 IEM_DS3505
ZGGG,2001-12-15 05:00,ZGGG 150500Z AUTO 29004KT 3SM 17/07 A3030 RMK T01700070 IEM_DS3505
ZGGG,2001-12-15 06:00,ZGGG 150600Z AUTO 14002KT 11SM 19/07 A3024 RMK SLP241 T01940074 57040 IEM_DS3505
ZGGG,2001-12-15 07:00,ZGGG 150700Z AUTO 09002KT 3SM 19/08 A3021 RMK T01900080 IEM_DS3505
ZGGG,2001-12-15 08:00,ZGGG 150800Z AUTO 30004KT 2 1/2SM 19/08 A3021 RMK T01900080 IEM_DS3505
ZGGG,2001-12-15 09:00,ZGGG 150900Z AUTO 16002KT 7SM 19/09 A3021 RMK SLP232 T01880086 57009 IEM_DS3505
ZGGG,2001-12-15 10:00,ZGGG 151000Z AUTO 2 1/2SM 17/08 A3021 RMK T01700080 IEM_DS3505
ZGGG,2001-12-15 11:00,ZGGG 151100Z AUTO 29004KT 3SM 17/09 A3024 RMK T01700090 IEM_DS3505
ZGGG,2001-12-15 12:00,ZGGG 151200Z AUTO 29002KT 6SM 17/11 A3027 RMK SLP250 T01660110 52017 IEM_DS3505
ZGGG,2001-12-15 13:00,ZGGG 151300Z AUTO 3SM 16/08 A3027 RMK T01600080 IEM_DS3505
ZGGG,2001-12-15 14:00,ZGGG 151400Z AUTO 36002KT 16/08 A3027 RMK T01600080 IEM_DS3505
ZGGG,2001-12-15 15:00,ZGGG 151500Z AUTO 34004KT 8SM 16/09 A3027 RMK SLP253 T01600094 52004 IEM_DS3505
ZGGG,2001-12-15 16:00,ZGGG 151600Z AUTO 04004KT 3SM 16/10 A3027 RMK T01600100 IEM_DS3505
ZGGG,2001-12-15 17:00,ZGGG 151700Z AUTO 04004KT 3SM 16/09 A3024 RMK T01600090 IEM_DS3505
ZGGG,2001-12-15 18:00,ZGGG 151800Z AUTO 34002KT 6SM 16/12 A3024 RMK SLP239 T01590115 57014 IEM_DS3505
ZGGG,2001-12-15 19:00,ZGGG 151900Z AUTO 04006KT 3SM 16/11 A3021 RMK T01600110 IEM_DS3505
ZGGG,2001-12-15 20:00,ZGGG 152000Z AUTO 03004KT 3SM 16/11 A3021 RMK T01600110 IEM_DS3505
ZGGG,2001-12-15 21:00,ZGGG 152100Z AUTO 00000KT 6SM 16/11 A3021 RMK SLP228 T01570114 57011 IEM_DS3505
ZGGG,2001-12-15 22:00,ZGGG 152200Z AUTO 03006KT 3SM 16/11 A3021 RMK T01600110 IEM_DS3505
ZGGG,2001-12-15 23:00,ZGGG 152300Z AUTO 36004KT 2 1/2SM 16/11 A3021 RMK T01600110 IEM_DS3505
ZGGG,2001-12-16 00:00,ZGGG 160000Z AUTO 00000KT 7SM 16/13 A3024 RMK 60003 SLP240 T01590130 52012 IEM_DS3505
ZGGG,2001-12-16 01:00,ZGGG 160100Z AUTO 36004KT 2 1/2SM 16/13 A3024 RMK T01600130 IEM_DS3505
ZGGG,2001-12-16 02:00,ZGGG 160200Z AUTO 01006KT 3SM 16/11 A3027 RMK T01600110 IEM_DS3505
ZGGG,2001-12-16 03:00,ZGGG 160300Z AUTO 34006KT 7SM 17/11 A3027 RMK SLP242 T01660112 52002 IEM_DS3505
ZGGG,2001-12-16 04:00,ZGGG 160400Z AUTO 01006KT 2SM 16/12 A3024 RMK T01600120 IEM_DS3505
ZGGG,2001-12-16 05:00,ZGGG 160500Z AUTO 02006KT 2 1/2SM 16/12 A3018 RMK T01600120 IEM_DS3505
ZGGG,2001-12-16 06:00,ZGGG 160600Z AUTO 34004KT 6SM 17/12 A3015 RMK 60000 SLP212 T01740124 57030 IEM_DS3505
ZGGG,2001-12-16 07:00,ZGGG 160700Z AUTO 34004KT 2SM 17/13 A3015 RMK T01700130 IEM_DS3505
ZGGG,2001-12-16 08:00,ZGGG 160800Z AUTO 02006KT 2SM 17/13 A3015 RMK T01700130 IEM_DS3505
ZGGG,2001-12-16 09:00,ZGGG 160900Z AUTO 32006KT 6SM 17/13 A3015 RMK SLP211 T01680131 57001 IEM_DS3505
ZGGG,2001-12-16 10:00,ZGGG 161000Z AUTO 36006KT 2SM 16/13 A3018 RMK T01600130 IEM_DS3505
ZGGG,2001-12-16 11:00,ZGGG 161100Z AUTO 01006KT 2 1/2SM 16/14 A3018 RMK T01600140 IEM_DS3505
ZGGG,2001-12-16 12:00,ZGGG 161200Z AUTO 34002KT 6SM 16/14 A3018 RMK SLP222 T01620137 52011 IEM_DS3505
ZGGG,2001-12-16 13:00,ZGGG 161300Z AUTO 02008KT 3SM 16/14 A3018 RMK T01600140 IEM_DS3505
ZGGG,2001-12-16 14:00,ZGGG 161400Z AUTO 36006KT 3SM 16/14 A3021 RMK T01600140 IEM_DS3505
ZGGG,2001-12-16 15:00,ZGGG 161500Z AUTO 34004KT 4SM 16/14 A3021 RMK SLP226 T01620139 52004 IEM_DS3505
ZGGG,2001-12-16 16:00,ZGGG 161600Z AUTO 36006KT 2 1/2SM 16/14 A3018 RMK T01600140 IEM_DS3505
ZGGG,2001-12-16 17:00,ZGGG 161700Z AUTO 35004KT 2 1/2SM 16/14 A3018 RMK T01600140 IEM_DS3505
ZGGG,2001-12-16 18:00,ZGGG 161800Z AUTO 34004KT 3SM 16/14 A3015 RMK 60003 SLP214 T01560138 57012 IEM_DS3505
ZGGG,2001-12-16 19:00,ZGGG 161900Z AUTO 36004KT 2 1/2SM 16/14 A3015 RMK T01600140 IEM_DS3505
ZGGG,2001-12-16 20:00,ZGGG 162000Z AUTO 01004KT 2 1/2SM 16/14 A3015 RMK T01600140 IEM_DS3505
ZGGG,2001-12-16 21:00,ZGGG 162100Z AUTO 36002KT 3SM 16/14 A3015 RMK 70000 SLP211 T01570138 57003 IEM_DS3505
ZGGG,2001-12-16 22:00,ZGGG 162200Z AUTO 36006KT 3SM 16/14 A3018 RMK T01600140 IEM_DS3505
ZGGG,2001-12-16 23:00,ZGGG 162300Z AUTO 36006KT 3SM 16/ A3018 RMK IEM_DS3505
ZGGG,2001-12-17 00:00,ZGGG 170000Z AUTO 36004KT 6SM 16/14 A3021 RMK 60003 SLP226 T01620139 52015 IEM_DS3505
ZGGG,2001-12-17 01:00,ZGGG 170100Z AUTO 36006KT 2 1/2SM 16/14 A3021 RMK T01600140 IEM_DS3505
ZGGG,2001-12-17 02:00,ZGGG 170200Z AUTO 36006KT 2 1/2SM 16/14 A3024 RMK T01600140 IEM_DS3505
ZGGG,2001-12-17 03:00,ZGGG 170300Z AUTO 32004KT 7SM 18/15 A3021 RMK SLP232 T01750146 52006 IEM_DS3505
ZGGG,2001-12-17 04:00,ZGGG 170400Z AUTO 36008KT 3SM 16/14 A3021 RMK T01600140 IEM_DS3505
ZGGG,2001-12-17 05:00,ZGGG 170500Z AUTO 01008KT 4SM 16/13 A3018 RMK T01600130 IEM_DS3505
ZGGG,2001-12-17 06:00,ZGGG 170600Z AUTO 36004KT 2 1/2SM 16/14 A3015 RMK 60003 SLP209 T01580142 57023 IEM_DS3505
ZGGG,2001-12-17 07:00,ZGGG 170700Z AUTO 36008KT 3SM 15/13 A3015 RMK T01500130 IEM_DS3505
ZGGG,2001-12-17 08:00,ZGGG 170800Z AUTO 36008KT 3SM 14/13 A3015 RMK T01400130 IEM_DS3505
ZGGG,2001-12-17 09:00,ZGGG 170900Z AUTO 34006KT 7SM 14/13 A3015 RMK SLP211 T01410132 52002 IEM_DS3505
ZGGG,2001-12-17 10:00,ZGGG 171000Z AUTO 36008KT 4SM 13/12 A3018 RMK T01300120 IEM_DS3505
ZGGG,2001-12-17 11:00,ZGGG 171100Z AUTO 36008KT 5SM 13/13 A3018 RMK T01300130 IEM_DS3505
ZGGG,2001-12-17 12:00,ZGGG 171200Z AUTO 36008KT 7SM 13/12 A3021 RMK 60020 SLP229 T01330124 52017 IEM_DS3505
ZGGG,2001-12-17 13:00,ZGGG 171300Z AUTO 36010KT 4SM 13/12 A3024 RMK T01300120 IEM_DS3505
ZGGG,2001-12-17 14:00,ZGGG 171400Z AUTO 36010KT 2 1/2SM 12/11 A3024 RMK T01200110 IEM_DS3505
ZGGG,2001-12-17 15:00,ZGGG 171500Z AUTO 34006KT 6SM 12/12 A3024 RMK SLP238 T01240115 52009 IEM_DS3505
ZGGG,2001-12-17 16:00,ZGGG 171600Z AUTO 01008KT 2 1/2SM 12/12 A3024 RMK T01200120 IEM_DS3505
ZGGG,2001-12-17 17:00,ZGGG 171700Z AUTO 36010KT 2 1/2SM 12/12 A3024 RMK T01200120 IEM_DS3505
ZGGG,2001-12-17 18:00,ZGGG 171800Z AUTO 36006KT 7SM 12/11 A3024 RMK 60004 SLP237 T01180108 57001 IEM_DS3505
ZGGG,2001-12-17 19:00,ZGGG 171900Z AUTO 36008KT 2 1/2SM 11/11 A3024 RMK T01100110 IEM_DS3505
ZGGG,2001-12-17 20:00,ZGGG 172000Z AUTO 36008KT 4SM 11/11 A3024 RMK T01100110 IEM_DS3505
ZGGG,2001-12-17 21:00,ZGGG 172100Z AUTO 34006KT 7SM 11/10 A3024 RMK 70052 SLP233 T01080102 57004 IEM_DS3505
ZGGG,2001-12-17 22:00,ZGGG 172200Z AUTO 36008KT 7SM 10/10 A3027 RMK T01000100 IEM_DS3505
ZGGG,2001-12-17 23:00,ZGGG 172300Z AUTO 01008KT 3SM 10/10 A3027 RMK T01000100 IEM_DS3505
ZGGG,2001-12-18 00:00,ZGGG 180000Z AUTO 04004KT 8SM 10/10 A3030 RMK 60039 SLP258 T01030095 52025 IEM_DS3505
ZGGG,2001-12-18 01:00,ZGGG 180100Z AUTO 36008KT 4SM 10/10 A3033 RMK T01000100 IEM_DS3505
ZGGG,2001-12-18 02:00,ZGGG 180200Z AUTO 01008KT 7SM 11/11 A3033 RMK T01100110 IEM_DS3505
ZGGG,2001-12-18 03:00,ZGGG 180300Z AUTO 36006KT 6SM 11/10 A3033 RMK SLP269 T01080098 52011 IEM_DS3505
ZGGG,2001-12-18 04:00,ZGGG 180400Z AUTO 36008KT 7SM 11/10 A3033 RMK T01100100 IEM_DS3505
ZGGG,2001-12-18 05:00,ZGGG 180500Z AUTO 35008KT 4SM 11/10 A3030 RMK T01100100 IEM_DS3505
ZGGG,2001-12-18 06:00,ZGGG 180600Z AUTO 34006KT 8SM 11/09 A3027 RMK 60004 SLP253 T01080094 57016 IEM_DS3505
ZGGG,2001-12-18 07:00,ZGGG 180700Z AUTO 36010KT 3SM 10/09 A3027 RMK T01000090 IEM_DS3505
ZGGG,2001-12-18 08:00,ZGGG 180800Z AUTO 35006KT 3SM 10/10 A3027 RMK T01000100 IEM_DS3505
ZGGG,2001-12-18 09:00,ZGGG 180900Z AUTO 02002KT 2SM 10/10 A3027 RMK SLP252 T01050099 57001 IEM_DS3505
ZGGG,2001-12-18 10:00,ZGGG 181000Z AUTO 35006KT 2 1/2SM 10/10 A3030 RMK T01000100 IEM_DS3505
ZGGG,2001-12-18 11:00,ZGGG 181100Z AUTO 35006KT 3SM 10/10 A3030 RMK T01000100 IEM_DS3505
ZGGG,2001-12-18 12:00,ZGGG 181200Z AUTO 36006KT 7SM 11/10 A3033 RMK 60024 SLP268 T01060100 52015 IEM_DS3505
ZGGG,2001-12-18 13:00,ZGGG 181300Z AUTO 36008KT 7SM 11/10 A3033 RMK T01100100 IEM_DS3505
ZGGG,2001-12-18 14:00,ZGGG 181400Z AUTO 36006KT 7SM 11/10 A3033 RMK T01100100 IEM_DS3505
ZGGG,2001-12-18 15:00,ZGGG 181500Z AUTO 27002KT 6SM 10/10 A3033 RMK SLP272 T01040096 52004 IEM_DS3505
ZGGG,2001-12-18 16:00,ZGGG 181600Z AUTO 36008KT 7SM 11/09 A3033 RMK T01100090 IEM_DS3505
ZGGG,2001-12-18 17:00,ZGGG 181700Z AUTO 36006KT 7SM 11/09 A3033 RMK T01100090 IEM_DS3505
ZGGG,2001-12-18 18:00,ZGGG 181800Z AUTO 32004KT 9SM 11/09 A3033 RMK 60003 SLP270 T01080092 57001 IEM_DS3505
ZGGG,2001-12-18 19:00,ZGGG 181900Z AUTO 36006KT 7SM 11/09 A3033 RMK T01100090 IEM_DS3505
ZGGG,2001-12-18 20:00,ZGGG 182000Z AUTO 01006KT 7SM 11/09 A3030 RMK T01100090 IEM_DS3505
ZGGG,2001-12-18 21:00,ZGGG 182100Z AUTO 29002KT 9SM 11/09 A3033 RMK 70044 SLP270 T01090087 57001 IEM_DS3505
ZGGG,2001-12-18 22:00,ZGGG 182200Z AUTO 36008KT 7SM 11/09 A3033 RMK T01100090 IEM_DS3505
ZGGG,2001-12-18 23:00,ZGGG 182300Z AUTO 36006KT 7SM 11/09 A3033 RMK T01100090 IEM_DS3505
ZGGG,2001-12-19 00:00,ZGGG 190000Z AUTO 02004KT 10SM 11/08 A3036 RMK 60003 SLP281 T01120083 52011 IEM_DS3505
ZGGG,2001-12-19 01:00,ZGGG 190100Z AUTO 5SM A3039 RMK IEM_DS3505
ZGGG,2001-12-19 02:00,ZGGG 190200Z AUTO 36004KT 5SM 12/09 A3039 RMK T01200090 IEM_DS3505
ZGGG,2001-12-19 03:00,ZGGG 190300Z AUTO 36006KT 11SM 14/08 A3039 RMK SLP291 T01360084 52011 IEM_DS3505
ZGGG,2001-12-19 04:00,ZGGG 190400Z AUTO 02008KT 7SM 14/09 A3036 RMK T01400090 IEM_DS3505
ZGGG,2001-12-19 05:00,ZGGG 190500Z AUTO 03008KT 7SM 14/09 A3033 RMK T01400090 IEM_DS3505
ZGGG,2001-12-19 06:00,ZGGG 190600Z AUTO 34006KT 11SM 15/09 A3030 RMK SLP261 T01480091 57030 IEM_DS3505
ZGGG,2001-12-19 07:00,ZGGG 190700Z AUTO 36008KT 7SM 14/09 A3027 RMK T01400090 IEM_DS3505
ZGGG,2001-12-19 08:00,ZGGG 190800Z AUTO 36006KT 7SM 15/09 A3027 RMK T01500090 IEM_DS3505
ZGGG,2001-12-19 09:00,ZGGG 190900Z AUTO 36006KT 11SM 14/09 A3027 RMK SLP253 T01430092 57008 IEM_DS3505
ZGGG,2001-12-19 10:00,ZGGG 191000Z AUTO 36004KT 4SM 13/10 A3027 RMK T01300100 IEM_DS3505
ZGGG,2001-12-19 11:00,ZGGG 191100Z AUTO 35004KT 5SM 14/11 A3030 RMK T01400110 IEM_DS3505
ZGGG,2001-12-19 12:00,ZGGG 191200Z AUTO 34004KT 9SM 13/11 A3030 RMK 60000 SLP259 T01290110 52006 IEM_DS3505
ZGGG,2001-12-19 13:00,ZGGG 191300Z AUTO 36004KT 5SM 13/10 A3030 RMK T01300100 IEM_DS3505
ZGGG,2001-12-19 14:00,ZGGG 191400Z AUTO 5SM 13/11 A3033 RMK T01300110 IEM_DS3505
ZGGG,2001-12-19 15:00,ZGGG 191500Z AUTO 34004KT 9SM 12/10 A3033 RMK SLP268 T01240105 52009 IEM_DS3505
ZGGG,2001-12-19 16:00,ZGGG 191600Z AUTO 04004KT 4SM 12/11 A3033 RMK T01200110 IEM_DS3505
ZGGG,2001-12-19 17:00,ZGGG 191700Z AUTO 36004KT 4SM 13/11 A3030 RMK T01300110 IEM_DS3505
ZGGG,2001-12-19 18:00,ZGGG 191800Z AUTO 34004KT 9SM 13/11 A3030 RMK 60003 SLP262 T01290106 57006 IEM_DS3505
ZGGG,2001-12-19 19:00,ZGGG 191900Z AUTO 36004KT 5SM 13/10 A3030 RMK T01300100 IEM_DS3505
ZGGG,2001-12-19 20:00,ZGGG 192000Z AUTO 01004KT 5SM 13/10 A3030 RMK T01300100 IEM_DS3505
ZGGG,2001-12-19 21:00,ZGGG 192100Z AUTO 34002KT 10SM 13/10 A3030 RMK 70001 SLP258 T01300101 57004 IEM_DS3505
ZGGG,2001-12-19 22:00,ZGGG 192200Z AUTO 36004KT 5SM 13/10 A3030 RMK T01300100 IEM_DS3505
ZGGG,2001-12-19 23:00,ZGGG 192300Z AUTO 36004KT 5SM 13/10 A3033 RMK T01300100 IEM_DS3505
ZGGG,2001-12-20 00:00,ZGGG 200000Z AUTO 02002KT 9SM 13/10 A3036 RMK 70001 SLP273 T01320099 52015 IEM_DS3505
ZGGG,2001-12-20 01:00,ZGGG 200100Z AUTO 36002KT 4SM 13/10 A3039 RMK T01300100 IEM_DS3505
ZGGG,2001-12-20 02:00,ZGGG 200200Z AUTO 36004KT 4SM 14/11 A3039 RMK T01400110 IEM_DS3505
ZGGG,2001-12-20 03:00,ZGGG 200300Z AUTO 36006KT 10SM 15/10 A3039 RMK SLP288 T01500102 52015 IEM_DS3505
ZGGG,2001-12-20 04:00,ZGGG 200400Z AUTO 04008KT 7SM 16/11 A3033 RMK T01600110 IEM_DS3505
ZGGG,2001-12-20 05:00,ZGGG 200500Z AUTO 02008KT 7SM 17/11 A3030 RMK T01700110 IEM_DS3505
ZGGG,2001-12-20 06:00,ZGGG 200600Z AUTO 36008KT 11SM 19/12 A3027 RMK SLP253 T01880117 57034 IEM_DS3505
ZGGG,2001-12-20 07:00,ZGGG 200700Z AUTO 02010KT 7SM 17/12 A3027 RMK T01700120 IEM_DS3505
ZGGG,2001-12-20 08:00,ZGGG 200800Z AUTO 01010KT 6SM 18/12 A3027 RMK T01800120 IEM_DS3505
ZGGG,2001-12-20 09:00,ZGGG 200900Z AUTO 32008KT 9SM 16/11 A3030 RMK SLP257 T01630111 52003 IEM_DS3505
ZGGG,2001-12-20 10:00,ZGGG 201000Z AUTO 36010KT 7SM 14/10 A3033 RMK T01400100 IEM_DS3505
ZGGG,2001-12-20 11:00,ZGGG 201100Z AUTO 36010KT 6SM 14/09 A3033 RMK T01400090 IEM_DS3505
ZGGG,2001-12-20 12:00,ZGGG 201200Z AUTO 34006KT 11SM 13/09 A3036 RMK SLP277 T01290091 52020 IEM_DS3505
ZGGG,2001-12-20 13:00,ZGGG 201300Z AUTO 36012KT 6SM 12/08 A3039 RMK T01200080 IEM_DS3505
ZGGG,2001-12-20 14:00,ZGGG 201400Z AUTO 36014KT 6SM 12/08 A3039 RMK T01200080 IEM_DS3505
ZGGG,2001-12-20 15:00,ZGGG 201500Z AUTO 36008KT 12SM 11/08 A3042 RMK SLP296 T01130078 52019 IEM_DS3505
ZGGG,2001-12-20 16:00,ZGGG 201600Z AUTO 36014KT 6SM 11/07 A3042 RMK T01100070 IEM_DS3505
ZGGG,2001-12-20 17:00,ZGGG 201700Z AUTO 36014KT 7SM 11/06 A3042 RMK T01100060 IEM_DS3505
ZGGG,2001-12-20 18:00,ZGGG 201800Z AUTO 02006KT 14SM 11/06 A3042 RMK SLP295 T01100058 57001 IEM_DS3505
ZGGG,2001-12-20 19:00,ZGGG 201900Z AUTO 35008KT 7SM 10/05 A3042 RMK T01000050 IEM_DS3505
ZGGG,2001-12-20 20:00,ZGGG 202000Z AUTO 36010KT 6SM 10/04 A3042 RMK T01000040 IEM_DS3505
ZGGG,2001-12-20 21:00,ZGGG 202100Z AUTO 36008KT 13SM 10/05 A3042 RMK SLP296 T01040051 52001 IEM_DS3505
ZGGG,2001-12-20 22:00,ZGGG 202200Z AUTO 36010KT 6SM 10/04 A3042 RMK T01000040 IEM_DS3505
ZGGG,2001-12-20 23:00,ZGGG 202300Z AUTO 36010KT 6SM 09/04 A3045 RMK T00900040 IEM_DS3505
ZGGG,2001-12-21 00:00,ZGGG 210000Z AUTO 34006KT 19SM 09/04 A3047 RMK SLP318 T00940039 52021 IEM_DS3505
ZGGG,2001-12-21 01:00,ZGGG 210100Z AUTO 36012KT 7SM 09/04 A3050 RMK T00900040 IEM_DS3505
ZGGG,2001-12-21 02:00,ZGGG 210200Z AUTO 36010KT 7SM 11/04 A3050 RMK T01100040 IEM_DS3505
ZGGG,2001-12-21 03:00,ZGGG 210300Z AUTO 36008KT 19SM 12/03 A3050 RMK SLP326 T01180034 52008 IEM_DS3505
ZGGG,2001-12-21 04:00,ZGGG 210400Z AUTO 03016KT 7SM 13/03 A3045 RMK T01300030 IEM_DS3505
ZGGG,2001-12-21 05:00,ZGGG 210500Z AUTO 02016KT 6SM 13/03 A3042 RMK T01300030 IEM_DS3505
ZGGG,2001-12-21 06:00,ZGGG 210600Z AUTO 36008KT 19SM 12/01 A3039 RMK SLP287 T01250014 57038 IEM_DS3505
ZGGG,2001-12-21 07:00,ZGGG 210700Z AUTO 02014KT 6SM 13/03 A3036 RMK T01300030 IEM_DS3505
ZGGG,2001-12-21 08:00,ZGGG 210800Z AUTO 01010KT 6SM 13/03 A3036 RMK T01300030 IEM_DS3505
ZGGG,2001-12-21 09:00,ZGGG 210900Z AUTO 02006KT 19SM 12/02 A3036 RMK SLP284 T01250017 57003 IEM_DS3505
ZGGG,2001-12-21 10:00,ZGGG 211000Z AUTO 02012KT 6SM 12/01 A3039 RMK T01200010 IEM_DS3505
ZGGG,2001-12-21 11:00,ZGGG 211100Z AUTO 01012KT 6SM 11/01 A3042 RMK T01100010 IEM_DS3505
ZGGG,2001-12-21 12:00,ZGGG 211200Z AUTO 36006KT 15SM 10/02 A3042 RMK SLP305 T01020015 52020 IEM_DS3505
ZGGG,2001-12-21 13:00,ZGGG 211300Z AUTO 36010KT 6SM 10/01 A3045 RMK T01000010 IEM_DS3505
ZGGG,2001-12-21 14:00,ZGGG 211400Z AUTO 36008KT 6SM 10/01 A3047 RMK T01000010 IEM_DS3505
ZGGG,2001-12-21 15:00,ZGGG 211500Z AUTO 34006KT 11SM 08/00 A3045 RMK SLP317 T00850001 52012 IEM_DS3505
ZGGG,2001-12-21 16:00,ZGGG 211600Z AUTO 01010KT 6SM 09/01 A3047 RMK T00900010 IEM_DS3505
ZGGG,2001-12-21 17:00,ZGGG 211700Z AUTO 01010KT 6SM 08/00 A3047 RMK T00800000 IEM_DS3505
ZGGG,2001-12-21 18:00,ZGGG 211800Z AUTO 36008KT 8SM 07/00 A3045 RMK SLP314 T00730001 57003 IEM_DS3505
ZGGG,2001-12-21 19:00,ZGGG 211900Z AUTO 01008KT 6SM 07/00 A3045 RMK T00700000 IEM_DS3505
ZGGG,2001-12-21 20:00,ZGGG 212000Z AUTO 36008KT 6SM 07/00 A3045 RMK T00700000 IEM_DS3505
ZGGG,2001-12-21 21:00,ZGGG 212100Z AUTO 36006KT 9SM 06/M02 A3045 RMK SLP315 T00631016 52001 IEM_DS3505
ZGGG,2001-12-21 22:00,ZGGG 212200Z AUTO 01008KT 6SM 06/M01 A3047 RMK T00601010 IEM_DS3505
ZGGG,2001-12-21 23:00,ZGGG 212300Z AUTO 01008KT 6SM 06/00 A3047 RMK T00600000 IEM_DS3505
ZGGG,2001-12-22 00:00,ZGGG 220000Z AUTO 02006KT 11SM 06/M01 A3050 RMK SLP327 T00571014 52012 IEM_DS3505
ZGGG,2001-12-22 01:00,ZGGG 220100Z AUTO 02008KT 07/M01 A3050 RMK T00701010 IEM_DS3505
ZGGG,2001-12-22 02:00,ZGGG 220200Z AUTO 01012KT 5SM 08/M02 A3050 RMK T00801020 IEM_DS3505
ZGGG,2001-12-22 03:00,ZGGG 220300Z AUTO 34006KT 12SM 10/M02 A3047 RMK SLP323 T01001018 57004 IEM_DS3505
ZGGG,2001-12-22 04:00,ZGGG 220400Z AUTO 02010KT 6SM 10/M03 A3045 RMK T01001030 IEM_DS3505
ZGGG,2001-12-22 05:00,ZGGG 220500Z AUTO 02008KT 6SM 11/M03 A3039 RMK T01101030 IEM_DS3505
ZGGG,2001-12-22 06:00,ZGGG 220600Z AUTO 32006KT 14SM 13/M03 A3033 RMK SLP274 T01271033 57049 IEM_DS3505
ZGGG,2001-12-22 07:00,ZGGG 220700Z AUTO 35006KT 6SM 13/M03 A3030 RMK T01301030 IEM_DS3505
ZGGG,2001-12-22 08:00,ZGGG 220800Z AUTO 35008KT 6SM 14/M03 A3033 RMK T01401030 IEM_DS3505
ZGGG,2001-12-22 09:00,ZGGG 220900Z AUTO 34004KT 11SM 13/M01 A3033 RMK SLP269 T01311007 57005 IEM_DS3505
ZGGG,2001-12-22 10:00,ZGGG 221000Z AUTO 36004KT 6SM 13/M04 A3033 RMK T01301040 IEM_DS3505
ZGGG,2001-12-22 11:00,ZGGG 221100Z AUTO 02004KT 6SM 11/M04 A3036 RMK T01101040 IEM_DS3505
ZGGG,2001-12-22 12:00,ZGGG 221200Z AUTO 34002KT 11SM 09/00 A3036 RMK SLP284 T00870001 52015 IEM_DS3505
ZGGG,2001-12-22 13:00,ZGGG 221300Z AUTO 06004KT 6SM 09/M01 A3036 RMK T00901010 IEM_DS3505
ZGGG,2001-12-22 14:00,ZGGG 221400Z AUTO 04004KT 6SM 09/M01 A3039 RMK T00901010 IEM_DS3505
ZGGG,2001-12-22 15:00,ZGGG 221500Z AUTO 34002KT 13SM 08/01 A3039 RMK SLP287 T00770006 52003 IEM_DS3505
ZGGG,2001-12-22 17:00,ZGGG 221700Z AUTO 03006KT 6SM 07/01 A3036 RMK T00700010 IEM_DS3505
ZGGG,2001-12-22 18:00,ZGGG 221800Z AUTO 29002KT 11SM 06/02 A3036 RMK SLP277 T00630015 57010 IEM_DS3505
ZGGG,2001-12-22 19:00,ZGGG 221900Z AUTO 04006KT 6SM 07/M01 A3033 RMK T00701010 IEM_DS3505
ZGGG,2001-12-22 20:00,ZGGG 222000Z AUTO 03004KT 6SM 06/01 A3033 RMK T00600010 IEM_DS3505
ZGGG,2001-12-22 21:00,ZGGG 222100Z AUTO 00000KT 11SM 06/01 A3033 RMK SLP270 T00640014 57007 IEM_DS3505
ZGGG,2001-12-22 22:00,ZGGG 222200Z AUTO 36006KT 6SM 09/M03 A3033 RMK T00901030 IEM_DS3505
ZGGG,2001-12-22 23:00,ZGGG 222300Z AUTO 36006KT 6SM 08/M02 A3036 RMK T00801020 IEM_DS3505
ZGGG,2001-12-23 00:00,ZGGG 230000Z AUTO 00000KT 12SM 06/01 A3039 RMK SLP291 T00630006 52021 IEM_DS3505
ZGGG,2001-12-23 01:00,ZGGG 230100Z AUTO 01006KT 6SM 09/M05 A3039 RMK T00901050 IEM_DS3505
ZGGG,2001-12-23 02:00,ZGGG 230200Z AUTO 36008KT 6SM 11/M05 A3039 RMK T01101050 IEM_DS3505
ZGGG,2001-12-23 03:00,ZGGG 230300Z AUTO 04004KT 19SM 14/M05 A3036 RMK SLP284 T01441052 57007 IEM_DS3505
ZGGG,2001-12-23 04:00,ZGGG 230400Z AUTO 02006KT 6SM 14/M04 A3033 RMK T01401040 IEM_DS3505
ZGGG,2001-12-23 05:00,ZGGG 230500Z AUTO 02006KT 6SM 15/M04 A3030 RMK T01501040 IEM_DS3505
ZGGG,2001-12-23 06:00,ZGGG 230600Z AUTO 29004KT 19SM 18/M03 A3027 RMK SLP249 T01761032 57034 IEM_DS3505
ZGGG,2001-12-23 07:00,ZGGG 230700Z AUTO 34006KT 6SM 17/M02 A3024 RMK T01701020 IEM_DS3505
ZGGG,2001-12-23 08:00,ZGGG 230800Z AUTO 33004KT 6SM 17/M01 A3024 RMK T01701010 IEM_DS3505
ZGGG,2001-12-23 09:00,ZGGG 230900Z AUTO 32002KT 16SM 17/01 A3027 RMK SLP250 T01710009 52001 IEM_DS3505
ZGGG,2001-12-23 10:00,ZGGG 231000Z AUTO 16/01 A3027 RMK T01600010 IEM_DS3505
ZGGG,2001-12-23 11:00,ZGGG 231100Z AUTO 08002KT 12/02 A3030 RMK T01200020 IEM_DS3505
ZGGG,2001-12-23 12:00,ZGGG 231200Z AUTO 00000KT 6SM 10/04 A3033 RMK SLP269 T00990045 52018 IEM_DS3505
ZGGG,2001-12-23 13:00,ZGGG 231300Z AUTO 07002KT 11/02 A3033 RMK T01100020 IEM_DS3505
ZGGG,2001-12-23 14:00,ZGGG 231400Z AUTO 08004KT 5SM 11/02 A3033 RMK T01100020 IEM_DS3505
ZGGG,2001-12-23 15:00,ZGGG 231500Z AUTO 04002KT 7SM 08/05 A3033 RMK SLP270 T00770050 52002 IEM_DS3505
ZGGG,2001-12-23 16:00,ZGGG 231600Z AUTO 07002KT 5SM 09/03 A3033 RMK T00900030 IEM_DS3505
ZGGG,2001-12-23 17:00,ZGGG 231700Z AUTO 04002KT 4SM 07/03 A3030 RMK T00700030 IEM_DS3505
ZGGG,2001-12-23 18:00,ZGGG 231800Z AUTO 34002KT 7SM 06/05 A3030 RMK SLP259 T00620046 57011 IEM_DS3505
ZGGG,2001-12-23 19:00,ZGGG 231900Z AUTO 04002KT 3SM 07/03 A3030 RMK T00700030 IEM_DS3505
ZGGG,2001-12-23 20:00,ZGGG 232000Z AUTO 05002KT 4SM 07/03 A3027 RMK T00700030 IEM_DS3505
ZGGG,2001-12-23 21:00,ZGGG 232100Z AUTO 00000KT 7SM 05/03 A3027 RMK SLP257 T00530031 57002 IEM_DS3505
ZGGG,2001-12-23 22:00,ZGGG 232200Z AUTO 3SM 06/03 A3030 RMK T00600030 IEM_DS3505
ZGGG,2001-12-23 23:00,ZGGG 232300Z AUTO 2 1/2SM 06/03 A3033 RMK T00600030 IEM_DS3505
ZGGG,2001-12-24 00:00,ZGGG 240000Z AUTO 00000KT 8SM 05/04 A3036 RMK SLP280 T00540037 52022 IEM_DS3505
ZGGG,2001-12-24 01:00,ZGGG 240100Z AUTO 05002KT 1 1/2SM 09/04 A3036 RMK T00900040 IEM_DS3505
ZGGG,2001-12-24 02:00,ZGGG 240200Z AUTO 35004KT 1 1/2SM 12/04 A3036 RMK T01200040 IEM_DS3505
ZGGG,2001-12-24 03:00,ZGGG 240300Z AUTO 34002KT 6SM 16/01 A3033 RMK SLP273 T01620014 57006 IEM_DS3505
ZGGG,2001-12-24 04:00,ZGGG 240400Z AUTO 32004KT 16/03 A3033 RMK T01600030 IEM_DS3505
ZGGG,2001-12-24 05:00,ZGGG 240500Z AUTO 35004KT 6SM 17/02 A3027 RMK T01700020 IEM_DS3505
ZGGG,2001-12-24 06:00,ZGGG 240600Z AUTO 27002KT 11SM 20/02 A3024 RMK SLP244 T01960015 57029 IEM_DS3505
ZGGG,2001-12-24 07:00,ZGGG 240700Z AUTO 33004KT 6SM 18/01 A3024 RMK T01800010 IEM_DS3505
ZGGG,2001-12-24 08:00,ZGGG 240800Z AUTO 32004KT 6SM 19/01 A3024 RMK T01900010 IEM_DS3505
ZGGG,2001-12-24 09:00,ZGGG 240900Z AUTO 32002KT 9SM 18/02 A3024 RMK SLP242 T01830020 57002 IEM_DS3505
ZGGG,2001-12-24 10:00,ZGGG 241000Z AUTO 2 1/2SM 16/02 A3024 RMK T01600020 IEM_DS3505
ZGGG,2001-12-24 11:00,ZGGG 241100Z AUTO 08002KT 14/02 A3024 RMK T01400020 IEM_DS3505
ZGGG,2001-12-24 12:00,ZGGG 241200Z AUTO 00000KT 8SM 11/05 A3027 RMK SLP251 T01110054 52008 IEM_DS3505
ZGGG,2001-12-24 13:00,ZGGG 241300Z AUTO 05002KT 12/03 A3027 RMK T01200030 IEM_DS3505
ZGGG,2001-12-24 14:00,ZGGG 241400Z AUTO 12/03 A3030 RMK T01200030 IEM_DS3505
ZGGG,2001-12-24 15:00,ZGGG 241500Z AUTO 00000KT 8SM 09/06 A3030 RMK SLP265 T00880059 52015 IEM_DS3505
ZGGG,2001-12-24 16:00,ZGGG 241600Z AUTO 05002KT 5SM 09/03 A3033 RMK T00900030 IEM_DS3505
ZGGG,2001-12-24 17:00,ZGGG 241700Z AUTO 5SM 09/03 A3033 RMK T00900030 IEM_DS3505
ZGGG,2001-12-24 18:00,ZGGG 241800Z AUTO 00000KT 6SM 08/06 A3033 RMK SLP268 T00750055 52003 IEM_DS3505
ZGGG,2001-12-24 19:00,ZGGG 241900Z AUTO 3SM 09/04 A3033 RMK T00900040 IEM_DS3505
ZGGG,2001-12-24 20:00,ZGGG 242000Z AUTO 05004KT 2 1/2SM 08/04 A3033 RMK T00800040 IEM_DS3505
ZGGG,2001-12-24 21:00,ZGGG 242100Z AUTO 00000KT 8SM 07/05 A3033 RMK SLP274 T00670049 52006 IEM_DS3505
ZGGG,2001-12-24 22:00,ZGGG 242200Z AUTO 02006KT 4SM 07/03 A3036 RMK T00700030 IEM_DS3505
ZGGG,2001-12-24 23:00,ZGGG 242300Z AUTO 03006KT 4SM 07/03 A3039 RMK T00700030 IEM_DS3505
ZGGG,2001-12-25 00:00,ZGGG 250000Z AUTO 00000KT 11SM 08/03 A3042 RMK SLP305 T00850028 52030 IEM_DS3505
ZGGG,2001-12-25 01:00,ZGGG 250100Z AUTO 03008KT 6SM 12/01 RMK T01200010 IEM_DS3505
ZGGG,2001-12-25 02:00,ZGGG 250200Z AUTO 04014KT 6SM 14/01 A3045 RMK T01400010 IEM_DS3505
ZGGG,2001-12-25 03:00,ZGGG 250300Z AUTO 36006KT 14SM 16/00 A3045 RMK SLP307 T01640003 52003 IEM_DS3505
ZGGG,2001-12-25 04:00,ZGGG 250400Z AUTO 01010KT 6SM 17/01 A3042 RMK T01700010 IEM_DS3505
ZGGG,2001-12-25 05:00,ZGGG 250500Z AUTO 02010KT 6SM 18/01 A3036 RMK T01800010 IEM_DS3505
ZGGG,2001-12-25 06:00,ZGGG 250600Z AUTO 11006KT 16SM 20/M02 A3033 RMK SLP275 T01951017 57032 IEM_DS3505
ZGGG,2001-12-25 07:00,ZGGG 250700Z AUTO 36008KT 6SM 19/02 A3033 RMK T01900020 IEM_DS3505
ZGGG,2001-12-25 08:00,ZGGG 250800Z AUTO 01006KT 6SM 19/02 A3033 RMK T01900020 IEM_DS3505
ZGGG,2001-12-25 09:00,ZGGG 250900Z AUTO 34002KT 13SM 18/03 A3033 RMK SLP275 T01830026 54000 IEM_DS3505
ZGGG,2001-12-25 10:00,ZGGG 251000Z AUTO 03006KT 16/03 A3036 RMK T01600030 IEM_DS3505
ZGGG,2001-12-25 11:00,ZGGG 251100Z AUTO 04008KT 15/03 A3036 RMK T01500030 IEM_DS3505
ZGGG,2001-12-25 12:00,ZGGG 251200Z AUTO 34004KT 11SM 13/04 A3039 RMK SLP288 T01340039 52012 IEM_DS3505
ZGGG,2001-12-25 13:00,ZGGG 251300Z AUTO 04008KT 13/05 A3039 RMK T01300050 IEM_DS3505
ZGGG,2001-12-25 14:00,ZGGG 251400Z AUTO 04008KT 11/04 A3042 RMK T01100040 IEM_DS3505
ZGGG,2001-12-25 15:00,ZGGG 251500Z AUTO 20004KT 9SM 11/04 A3039 RMK SLP298 T01060035 52011 IEM_DS3505
ZGGG,2001-12-25 16:00,ZGGG 251600Z AUTO 02004KT 6SM 12/02 A3042 RMK T01200020 IEM_DS3505
ZGGG,2001-12-25 17:00,ZGGG 251700Z AUTO 03004KT 6SM 11/01 A3042 RMK T01100010 IEM_DS3505
ZGGG,2001-12-25 18:00,ZGGG 251800Z AUTO 34002KT 8SM 09/03 A3042 RMK SLP297 T00860032 57001 IEM_DS3505
ZGGG,2001-12-25 19:00,ZGGG 251900Z AUTO 05004KT 6SM 11/01 A3042 RMK T01100010 IEM_DS3505
ZGGG,2001-12-25 20:00,ZGGG 252000Z AUTO 03006KT 6SM 10/01 A3039 RMK T01000010 IEM_DS3505
ZGGG,2001-12-25 21:00,ZGGG 252100Z AUTO 34002KT 9SM 08/02 A3042 RMK SLP297 T00750024 54000 IEM_DS3505
ZGGG,2001-12-25 22:00,ZGGG 252200Z AUTO 02008KT 6SM 09/01 A3042 RMK T00900010 IEM_DS3505
ZGGG,2001-12-25 23:00,ZGGG 252300Z AUTO 04008KT 6SM 07/01 A3045 RMK T00700010 IEM_DS3505
ZGGG,2001-12-26 00:00,ZGGG 260000Z AUTO 34004KT 9SM 08/01 A3045 RMK SLP315 T00820009 52017 IEM_DS3505
ZGGG,2001-12-26 01:00,ZGGG 260100Z AUTO 02010KT 10/00 A3047 RMK T01000000 IEM_DS3505
ZGGG,2001-12-26 02:00,ZGGG 260200Z AUTO 02008KT 10SM 12/M01 A3047 RMK T01201010 IEM_DS3505
ZGGG,2001-12-26 03:00,ZGGG 260300Z AUTO 34002KT 10SM 15/01 A3045 RMK SLP313 T01460011 57001 IEM_DS3505
ZGGG,2001-12-26 04:00,ZGGG 260400Z AUTO 03010KT 14/01 A3042 RMK T01400010 IEM_DS3505
ZGGG,2001-12-26 05:00,ZGGG 260500Z AUTO 03008KT 6SM 16/01 A3039 RMK T01600010 IEM_DS3505
ZGGG,2001-12-26 06:00,ZGGG 260600Z AUTO 32004KT 11SM 17/01 A3033 RMK SLP278 T01740014 57035 IEM_DS3505
ZGGG,2001-12-26 07:00,ZGGG 260700Z AUTO 36006KT 6SM 17/01 A3033 RMK T01700010 IEM_DS3505
ZGGG,2001-12-26 08:00,ZGGG 260800Z AUTO 01006KT 6SM 17/01 A3030 RMK T01700010 IEM_DS3505
ZGGG,2001-12-26 09:00,ZGGG 260900Z AUTO 07002KT 12SM 17/02 A3033 RMK SLP269 T01710016 57009 IEM_DS3505
ZGGG,2001-12-26 10:00,ZGGG 261000Z AUTO 10004KT 6SM 16/03 A3033 RMK T01600030 IEM_DS3505
ZGGG,2001-12-26 11:00,ZGGG 261100Z AUTO 05004KT 6SM 13/04 A3033 RMK T01300040 IEM_DS3505
ZGGG,2001-12-26 12:00,ZGGG 261200Z AUTO 00000KT 9SM 12/05 A3033 RMK SLP275 T01160048 52005 IEM_DS3505
ZGGG,2001-12-26 13:00,ZGGG 261300Z AUTO 04004KT 12/04 A3036 RMK T01200040 IEM_DS3505
ZGGG,2001-12-26 14:00,ZGGG 261400Z AUTO 05004KT 3SM 12/04 A3036 RMK T01200040 IEM_DS3505
ZGGG,2001-12-26 15:00,ZGGG 261500Z AUTO 34002KT 9SM 10/06 A3039 RMK SLP285 T01000056 52011 IEM_DS3505
ZGGG,2001-12-26 16:00,ZGGG 261600Z AUTO 03006KT 3SM 08/04 A3036 RMK T00800040 IEM_DS3505
ZGGG,2001-12-26 17:00,ZGGG 261700Z AUTO 06002KT 11/04 A3036 RMK T01100040 IEM_DS3505
ZGGG,2001-12-26 18:00,ZGGG 261800Z AUTO 00000KT 9SM 09/06 A3036 RMK SLP281 T00890060 57004 IEM_DS3505
ZGGG,2001-12-26 19:00,ZGGG 261900Z AUTO 04006KT 4SM 08/05 A3036 RMK T00800050 IEM_DS3505
ZGGG,2001-12-26 20:00,ZGGG 262000Z AUTO 03004KT 6SM 09/03 A3036 RMK T00900030 IEM_DS3505
ZGGG,2001-12-26 21:00,ZGGG 262100Z AUTO 36004KT 8SM 09/04 A3036 RMK SLP286 T00860042 52005 IEM_DS3505
ZGGG,2001-12-26 22:00,ZGGG 262200Z AUTO 03006KT 6SM 11/02 A3039 RMK T01100020 IEM_DS3505
ZGGG,2001-12-26 23:00,ZGGG 262300Z AUTO 02006KT 6SM 11/02 A3039 RMK T01100020 IEM_DS3505
ZGGG,2001-12-27 00:00,ZGGG 270000Z AUTO 00000KT 9SM 10/03 A3042 RMK SLP303 T01020030 52016 IEM_DS3505
ZGGG,2001-12-27 01:00,ZGGG 270100Z AUTO 36006KT 12/01 A3045 RMK T01200010 IEM_DS3505
ZGGG,2001-12-27 02:00,ZGGG 270200Z AUTO 01006KT 10SM 13/01 A3045 RMK T01300010 IEM_DS3505
ZGGG,2001-12-27 03:00,ZGGG 270300Z AUTO 07002KT 10SM 16/03 RMK SLP306 T01570034 52004 IEM_DS3505
ZGGG,2001-12-27 04:00,ZGGG 270400Z AUTO 02008KT 15/01 A3042 RMK T01500010 IEM_DS3505
ZGGG,2001-12-27 05:00,ZGGG 270500Z AUTO 04004KT 16/02 A3039 RMK T01600020 IEM_DS3505
ZGGG,2001-12-27 06:00,ZGGG 270600Z AUTO 32004KT 8SM 18/01 A3036 RMK SLP276 T01830009 57030 IEM_DS3505
ZGGG,2001-12-27 07:00,ZGGG 270700Z AUTO 02006KT 5SM 18/01 A3033 RMK T01800010 IEM_DS3505
ZGGG,2001-12-27 08:00,ZGGG 270800Z AUTO 01006KT 5SM 18/01 A3033 RMK T01800010 IEM_DS3505
ZGGG,2001-12-27 09:00,ZGGG 270900Z AUTO 32002KT 9SM 17/01 A3033 RMK SLP270 T01700007 57006 IEM_DS3505
ZGGG,2001-12-27 10:00,ZGGG 271000Z AUTO 03004KT 15/01 A3036 RMK T01500010 IEM_DS3505
ZGGG,2001-12-27 11:00,ZGGG 271100Z AUTO 01006KT 16/03 A3036 RMK T01600030 IEM_DS3505
ZGGG,2001-12-27 12:00,ZGGG 271200Z AUTO 34004KT 8SM 13/03 A3036 RMK SLP280 T01290029 52010 IEM_DS3505
ZGGG,2001-12-27 13:00,ZGGG 271300Z AUTO 04006KT 12/03 A3036 RMK T01200030 IEM_DS3505
ZGGG,2001-12-27 14:00,ZGGG 271400Z AUTO 04006KT 11/03 A3039 RMK T01100030 IEM_DS3505
ZGGG,2001-12-27 15:00,ZGGG 271500Z AUTO 02002KT 9SM 11/03 A3039 RMK SLP289 T01080029 52009 IEM_DS3505
ZGGG,2001-12-27 16:00,ZGGG 271600Z AUTO 04008KT 09/03 A3039 RMK T00900030 IEM_DS3505
ZGGG,2001-12-27 17:00,ZGGG 271700Z AUTO 01006KT 5SM 12/02 A3039 RMK T01200020 IEM_DS3505
ZGGG,2001-12-27 18:00,ZGGG 271800Z AUTO 34004KT 7SM 10/02 A3036 RMK SLP282 T01040015 57007 IEM_DS3505
ZGGG,2001-12-27 19:00,ZGGG 271900Z AUTO 03008KT 5SM 09/02 A3036 RMK T00900020 IEM_DS3505
ZGGG,2001-12-27 20:00,ZGGG 272000Z AUTO 06004KT 5SM 09/02 A3039 RMK T00900020 IEM_DS3505
ZGGG,2001-12-27 21:00,ZGGG 272100Z AUTO 00000KT 8SM 08/01 A3039 RMK SLP288 T00770009 52006 IEM_DS3505
ZGGG,2001-12-27 22:00,ZGGG 272200Z AUTO 01006KT 5SM 10/M01 A3039 RMK T01001010 IEM_DS3505
ZGGG,2001-12-27 23:00,ZGGG 272300Z AUTO 01006KT 5SM 09/M01 A3042 RMK T00901010 IEM_DS3505
ZGGG,2001-12-28 00:00,ZGGG 280000Z AUTO 34002KT 9SM 08/01 A3045 RMK SLP309 T00790009 52020 IEM_DS3505
ZGGG,2001-12-28 01:00,ZGGG 280100Z AUTO 01006KT 11/M01 A3047 RMK T01101010 IEM_DS3505
ZGGG,2001-12-28 02:00,ZGGG 280200Z AUTO 03006KT 6SM 12/M01 A3047 RMK T01201010 IEM_DS3505
ZGGG,2001-12-28 03:00,ZGGG 280300Z AUTO 07002KT 10SM 15/M01 A3045 RMK SLP308 T01521007 54000 IEM_DS3505
ZGGG,2001-12-28 04:00,ZGGG 280400Z AUTO 01008KT 6SM 15/00 A3042 RMK T01500000 IEM_DS3505
ZGGG,2001-12-28 05:00,ZGGG 280500Z AUTO 02008KT 6SM 16/M01 A3039 RMK T01601010 IEM_DS3505
ZGGG,2001-12-28 06:00,ZGGG 280600Z AUTO 32006KT 9SM 17/M01 A3036 RMK SLP278 T01721012 57030 IEM_DS3505
ZGGG,2001-12-28 07:00,ZGGG 280700Z AUTO 01006KT 6SM 17/01 A3033 RMK T01700010 IEM_DS3505
ZGGG,2001-12-28 08:00,ZGGG 280800Z AUTO 36008KT 6SM 17/01 A3033 RMK T01700010 IEM_DS3505
ZGGG,2001-12-28 09:00,ZGGG 280900Z AUTO 36004KT 8SM 16/02 A3036 RMK SLP278 T01610015 54000 IEM_DS3505
ZGGG,2001-12-28 10:00,ZGGG 281000Z AUTO 36006KT 16/02 A3036 RMK T01600020 IEM_DS3505
ZGGG,2001-12-28 11:00,ZGGG 281100Z AUTO 01006KT 15/02 A3036 RMK T01500020 IEM_DS3505
ZGGG,2001-12-28 12:00,ZGGG 281200Z AUTO 04002KT 9SM 13/03 A3036 RMK SLP283 T01310026 52004 IEM_DS3505
ZGGG,2001-12-28 13:00,ZGGG 281300Z AUTO 01006KT 13/02 A3036 RMK T01300020 IEM_DS3505
ZGGG,2001-12-28 14:00,ZGGG 281400Z AUTO 05006KT 11/03 A3036 RMK T01100030 IEM_DS3505
ZGGG,2001-12-28 15:00,ZGGG 281500Z AUTO 34004KT 9SM 11/03 A3036 RMK SLP282 T01140026 54000 IEM_DS3505
ZGGG,2001-12-28 16:00,ZGGG 281600Z AUTO 01006KT 12/03 A3039 RMK T01200030 IEM_DS3505
ZGGG,2001-12-28 17:00,ZGGG 281700Z AUTO 07004KT 11/03 A3036 RMK T01100030 IEM_DS3505
ZGGG,2001-12-28 18:00,ZGGG 281800Z AUTO 02006KT 8SM 10/02 A3036 RMK SLP281 T01050019 57001 IEM_DS3505
ZGGG,2001-12-28 19:00,ZGGG 281900Z AUTO 03006KT 09/03 A3036 RMK T00900030 IEM_DS3505
ZGGG,2001-12-28 20:00,ZGGG 282000Z AUTO 04006KT 09/03 A3036 RMK T00900030 IEM_DS3505
ZGGG,2001-12-28 21:00,ZGGG 282100Z AUTO 34006KT 8SM 09/02 A3036 RMK SLP274 T00880020 57007 IEM_DS3505
ZGGG,2001-12-28 22:00,ZGGG 282200Z AUTO 04006KT 09/03 A3036 RMK T00900030 IEM_DS3505
ZGGG,2001-12-28 23:00,ZGGG 282300Z AUTO 04004KT 3SM 07/02 A3036 RMK T00700020 IEM_DS3505
ZGGG,2001-12-29 00:00,ZGGG 290000Z AUTO 34002KT 9SM 09/02 A3036 RMK SLP287 T00880023 52012 IEM_DS3505
ZGGG,2001-12-29 01:00,ZGGG 290100Z AUTO 36006KT 2 1/2SM 10/02 A3039 RMK T01000020 IEM_DS3505
ZGGG,2001-12-29 02:00,ZGGG 290200Z AUTO 02006KT 2 1/2SM 11/02 A3039 RMK T01100020 IEM_DS3505
ZGGG,2001-12-29 03:00,ZGGG 290300Z AUTO 34004KT 7SM 14/01 A3036 RMK SLP284 T01390013 57002 IEM_DS3505
ZGGG,2001-12-29 04:00,ZGGG 290400Z AUTO 01008KT 3SM 14/02 A3033 RMK T01400020 IEM_DS3505
ZGGG,2001-12-29 05:00,ZGGG 290500Z AUTO 03006KT 3SM 16/02 A3030 RMK T01600020 IEM_DS3505
ZGGG,2001-12-29 06:00,ZGGG 290600Z AUTO 32002KT 8SM 18/02 A3024 RMK SLP244 T01790016 57040 IEM_DS3505
ZGGG,2001-12-29 07:00,ZGGG 290700Z AUTO 02004KT 17/02 A3024 RMK T01700020 IEM_DS3505
ZGGG,2001-12-29 08:00,ZGGG 290800Z AUTO 01004KT 17/02 A3021 RMK T01700020 IEM_DS3505
ZGGG,2001-12-29 09:00,ZGGG 290900Z AUTO 34004KT 7SM 17/04 A3021 RMK SLP234 T01680036 57010 IEM_DS3505
ZGGG,2001-12-29 10:00,ZGGG 291000Z AUTO 31002KT 2 1/2SM 16/03 A3024 RMK T01600030 IEM_DS3505
ZGGG,2001-12-29 11:00,ZGGG 291100Z AUTO 05004KT 3SM 14/04 A3024 RMK T01400040 IEM_DS3505
ZGGG,2001-12-29 12:00,ZGGG 291200Z AUTO 34002KT 7SM 12/05 A3024 RMK SLP238 T01150054 52004 IEM_DS3505
ZGGG,2001-12-29 13:00,ZGGG 291300Z AUTO 03004KT 3SM 12/04 A3024 RMK T01200040 IEM_DS3505
ZGGG,2001-12-29 14:00,ZGGG 291400Z AUTO 04002KT 12/04 A3024 RMK T01200040 IEM_DS3505
ZGGG,2001-12-29 15:00,ZGGG 291500Z AUTO 00000KT 8SM 09/06 A3024 RMK SLP243 T00930058 52005 IEM_DS3505
ZGGG,2001-12-29 16:00,ZGGG 291600Z AUTO 05004KT 3SM 09/04 A3024 RMK T00900040 IEM_DS3505
ZGGG,2001-12-29 17:00,ZGGG 291700Z AUTO 06004KT 3SM 08/04 A3024 RMK T00800040 IEM_DS3505
ZGGG,2001-12-29 18:00,ZGGG 291800Z AUTO 00000KT 7SM 08/05 A3024 RMK SLP242 T00820048 57001 IEM_DS3505
ZGGG,2001-12-29 19:00,ZGGG 291900Z AUTO 04004KT 3SM 08/04 A3024 RMK T00800040 IEM_DS3505
ZGGG,2001-12-29 20:00,ZGGG 292000Z AUTO 03004KT 4SM 07/03 A3021 RMK T00700030 IEM_DS3505
ZGGG,2001-12-29 21:00,ZGGG 292100Z AUTO 00000KT 8SM 07/03 A3021 RMK SLP233 T00710030 57009 IEM_DS3505
ZGGG,2001-12-29 22:00,ZGGG 292200Z AUTO 04004KT 4SM 07/03 A3021 RMK T00700030 IEM_DS3505
ZGGG,2001-12-29 23:00,ZGGG 292300Z AUTO 3SM 08/02 A3024 RMK T00800020 IEM_DS3505
ZGGG,2001-12-30 00:00,ZGGG 300000Z AUTO 00000KT 8SM 07/03 A3027 RMK SLP248 T00670034 52014 IEM_DS3505
ZGGG,2001-12-30 01:00,ZGGG 300100Z AUTO 03004KT 3SM 11/02 A3027 RMK T01100020 IEM_DS3505
ZGGG,2001-12-30 03:00,ZGGG 300300Z AUTO 20002KT 7SM 16/M00 A3027 RMK SLP246 T01601003 57001 IEM_DS3505
ZGGG,2001-12-30 04:00,ZGGG 300400Z AUTO 33004KT 16/01 A3021 RMK T01600010 IEM_DS3505
ZGGG,2001-12-30 05:00,ZGGG 300500Z AUTO 36004KT 17/01 A3018 RMK T01700010 IEM_DS3505
ZGGG,2001-12-30 06:00,ZGGG 300600Z AUTO 16004KT 9SM 20/M01 A3015 RMK SLP210 T01951008 57036 IEM_DS3505
ZGGG,2001-12-30 07:00,ZGGG 300700Z AUTO 30002KT 18/01 A3012 RMK T01800010 IEM_DS3505
ZGGG,2001-12-30 08:00,ZGGG 300800Z AUTO 35004KT 19/01 A3012 RMK T01900010 IEM_DS3505
ZGGG,2001-12-30 09:00,ZGGG 300900Z AUTO 14002KT 8SM 19/00 A3012 RMK SLP204 T01920005 57006 IEM_DS3505
ZGGG,2001-12-30 10:00,ZGGG 301000Z AUTO 08002KT 2SM 16/04 A3015 RMK T01600040 IEM_DS3505
ZGGG,2001-12-30 11:00,ZGGG 301100Z AUTO 08004KT 15/03 A3012 RMK T01500030 IEM_DS3505
ZGGG,2001-12-30 12:00,ZGGG 301200Z AUTO 00000KT 7SM 12/06 A3015 RMK SLP210 T01220060 52006 IEM_DS3505
ZGGG,2001-12-30 13:00,ZGGG 301300Z AUTO 3SM 14/04 A3015 RMK T01400040 IEM_DS3505
ZGGG,2001-12-30 14:00,ZGGG 301400Z AUTO 3SM 13/04 A3015 RMK T01300040 IEM_DS3505
ZGGG,2001-12-30 15:00,ZGGG 301500Z AUTO 00000KT 7SM 10/06 A3015 RMK SLP211 T01020056 52001 IEM_DS3505
ZGGG,2001-12-30 16:00,ZGGG 301600Z AUTO 04002KT 3SM 11/05 A3015 RMK T01100050 IEM_DS3505
ZGGG,2001-12-30 17:00,ZGGG 301700Z AUTO 2 1/2SM 11/06 A3015 RMK T01100060 IEM_DS3505
ZGGG,2001-12-30 18:00,ZGGG 301800Z AUTO 04002KT 5SM 09/06 A3018 RMK SLP219 T00910058 52008 IEM_DS3505
ZGGG,2001-12-30 19:00,ZGGG 301900Z AUTO 2SM 10/06 A3015 RMK T01000060 IEM_DS3505
ZGGG,2001-12-30 20:00,ZGGG 302000Z AUTO 1 1/2SM 10/07 A3015 RMK T01000070 IEM_DS3505
ZGGG,2001-12-30 21:00,ZGGG 302100Z AUTO 00000KT 6SM 09/06 A3015 RMK SLP212 T00870061 57007 IEM_DS3505
ZGGG,2001-12-30 22:00,ZGGG 302200Z AUTO 1 1/2SM 10/06 A3015 RMK T01000060 IEM_DS3505
ZGGG,2001-12-30 23:00,ZGGG 302300Z AUTO 07004KT 1 1/2SM 09/06 A3015 RMK T00900060 IEM_DS3505
