station,valid,metar
ZHNY,2017-05-10 02:00,ZHNY 100200Z 22003MPS 170V270 CAVOK 25/19 Q1012
