station,valid,metar
ZGHC,2017-08-02 16:00,ZGHC 021600Z VRB01MPS 7000 NSC 28/26 Q1000 NOSIG
