station,valid,metar
ZBLA,2021-05-26 09:00,COR ZBLA 260900Z 10006MPS 9999 -SHRA FEW033CB 09/04 Q0999 BECMG TL0930 18004MPS SHRA
