station,valid,metar
ZGBH,2018-04-01 08:00,ZGBH 010800Z 26003MPS CAVOK 28/16 Q1013 NOSIG
