station,valid,metar
ZGBH,2011-01-23 01:00,COR ZGBH 230100Z 35005MPS 3000 -DZ BR SCT007 0VC030 08/07 Q1024 NOSIG
