station,valid,metar
ZGBH,2017-12-01 07:00,ZGBH 010700Z 35007MPS 9999 SCT040 20/13 Q1017 NOSIG
ZGBH,2017-12-22 06:00,ZGBH 220600Z VRB01MPS 9999 OVC040 21/07 Q1018 NOSIG
