station,valid,metar
ZGBH,2010-06-02 13:00,ZGBH 021300Z AUTO 36008KT 7SM 24/21 A2980 RMK T02400210 IEM_DS3505
ZGBH,2010-07-27 00:00,ZGBH 270000Z AUTO 08004KT 3SM 27/27 A2971 RMK T02700270 IEM_DS3505
ZGBH,2010-12-05 05:00,ZGBH 050500Z 12003MPS 070V160 9999 FEW016 BKN046 26/20 Q1013 NOSIG
ZGBH,2010-12-05 06:00,ZGBH 050600Z 11003MPS 060V150 9999 FEW016 BKN046 27/19 Q1012 NOSIG
ZGBH,2010-12-05 07:00,ZGBH 050700Z 12003MPS 090V160 9999 FEW016 BKN046 27/20 Q1011 NOSIG
ZGBH,2010-12-05 08:00,ZGBH 050800Z 13004MPS 100V170 9999 FEW016 27/20 Q1011 NOSIG
ZGBH,2010-12-08 06:00,ZGBH 080600Z 35004MPS 9999 SCT043 22/01 Q1015 NOSIG
