station,valid,metar
ZBSJ,2015-01-01 00:00,ZBSJ 010000Z 23001MPS 6000 NSC M10/M19 Q1035 NOSIG
ZBSJ,2015-01-01 01:00,ZBSJ 010100Z 28001MPS 2700 HZ NSC M05/M16 Q1035 BECMG 3500
ZBSJ,2015-01-01 02:00,ZBSJ 010200Z 27002MPS 3500 HZ NSC M02/M17 Q1035 NOSIG
ZBSJ,2015-01-01 03:00,ZBSJ 010300Z 23002MPS 200V260 6000 NSC 01/M19 Q1034 NOSIG
ZBSJ,2015-01-01 04:00,ZBSJ 010400Z 22003MPS 8000 NSC 03/M21 Q1032 NOSIG
ZBSJ,2015-01-01 05:00,ZBSJ 010500Z 25003MPS 140V310 CAVOK 04/M24 Q1031 NOSIG
ZBSJ,2015-01-01 06:00,ZBSJ 010600Z 21003MPS 160V240 CAVOK 05/M22 Q1029 NOSIG
ZBSJ,2015-01-01 07:00,ZBSJ 010700Z 21003MPS 170V240 CAVOK 05/M22 Q1028 NOSIG
ZBSJ,2015-01-01 08:00,ZBSJ 010800Z 19004MPS CAVOK 05/M22 Q1027 NOSIG
ZBSJ,2015-01-01 09:00,ZBSJ 010900Z 15003MPS 7000 NSC 01/M20 Q1027 NOSIG
ZBSJ,2015-01-01 10:00,ZBSJ 011000Z 16003MPS 7000 NSC M02/M18 Q1026 NOSIG
ZBSJ,2015-01-01 11:00,ZBSJ 011100Z 17002MPS 6000 NSC M02/M18 Q1026 NOSIG
ZBSJ,2015-01-01 12:00,ZBSJ 011200Z 08003MPS 4500 FU NSC M04/M16 Q1026 NOSIG
ZBSJ,2015-01-01 13:00,ZBSJ 011300Z 12002MPS 6000 NSC M06/M16 Q1026 NOSIG
ZBSJ,2015-01-01 14:00,ZBSJ 011400Z 23004MPS 5000 FU NSC M04/M16 Q1026 NOSIG
ZBSJ,2015-01-01 15:00,ZBSJ 011500Z 30003MPS 4000 FU NSC M06/M16 Q1027 NOSIG
ZBSJ,2015-01-01 16:00,ZBSJ 011600Z 10002MPS 3500 FU NSC M07/M16 Q1027 NOSIG
ZBSJ,2015-01-01 17:00,ZBSJ 011700Z 26003MPS 3000 FU NSC M05/M15 Q1027 NOSIG
ZBSJ,2015-01-01 18:00,ZBSJ 011800Z VRB03MPS 4000 FU NSC M05/M17 Q1027 NOSIG
ZBSJ,2015-01-01 19:00,ZBSJ 011900Z 28003MPS 5000 FU NSC M06/M17 Q1027 NOSIG
ZBSJ,2015-01-01 20:00,ZBSJ 012000Z 28001MPS 5000 FU NSC M07/M17 Q1027 NOSIG
ZBSJ,2015-01-01 21:00,ZBSJ 012100Z 07001MPS 5000 FU NSC M09/M16 Q1028 NOSIG
ZBSJ,2015-01-01 22:00,ZBSJ 012200Z 02003MPS 350V050 4500 FU NSC M09/M16 Q1029 NOSIG
ZBSJ,2015-01-01 23:00,ZBSJ 012300Z 03002MPS 4000 FU NSC M09/M16 Q1031 NOSIG
ZBSJ,2015-01-02 00:00,ZBSJ 020000Z 04002MPS 1600 HZ NSC M08/M16 Q1032 BECMG 3500
ZBSJ,2015-01-02 01:00,ZBSJ 020100Z 02002MPS 1400 R33/1200D HZ NSC M05/M14 Q1033 NOSIG
ZBSJ,2015-01-02 02:00,ZBSJ 020200Z 33002MPS 1400 R33/1200N HZ NSC M01/M14 Q1034 NOSIG
ZBSJ,2015-01-02 03:00,ZBSJ 020300Z 28002MPS 1400 R33/1100N HZ NSC 01/M15 Q1034 NOSIG
ZBSJ,2015-01-02 04:00,ZBSJ 020400Z 19002MPS 1600 HZ NSC 03/M17 Q1032 NOSIG
ZBSJ,2015-01-02 05:00,ZBSJ 020500Z 13003MPS 100V170 7000 NSC 04/M18 Q1031 NOSIG
ZBSJ,2015-01-02 06:00,ZBSJ 020600Z 13003MPS 100V180 6000 NSC 04/M17 Q1030 NOSIG
ZBSJ,2015-01-02 07:00,ZBSJ 020700Z 14003MPS 5000 HZ NSC 04/M16 Q1029 NOSIG
ZBSJ,2015-01-02 08:00,ZBSJ 020800Z 14002MPS 6000 NSC 03/M16 Q1029 NOSIG
ZBSJ,2015-01-02 09:00,ZBSJ 020900Z 14002MPS 5000 HZ NSC 00/M16 Q1029 NOSIG
ZBSJ,2015-01-02 10:00,ZBSJ 021000Z 12001MPS 2700 HZ NSC M01/M14 Q1029 NOSIG
ZBSJ,2015-01-02 11:00,ZBSJ 021100Z 07001MPS 2700 HZ NSC M03/M14 Q1028 NOSIG
ZBSJ,2015-01-02 12:00,ZBSJ 021200Z 04001MPS 2200 HZ NSC M03/M14 Q1028 NOSIG
ZBSJ,2015-01-02 13:00,ZBSJ 021300Z 11001MPS 2200 HZ NSC M05/M14 Q1027 NOSIG
ZBSJ,2015-01-02 14:00,ZBSJ 021400Z 27001MPS 2000 HZ NSC M05/M14 Q1027 NOSIG
ZBSJ,2015-01-02 15:00,ZBSJ 021500Z 35001MPS 1600 FU NSC M07/M15 Q1025 NOSIG
ZBSJ,2015-01-02 16:00,ZBSJ 021600Z 31001MPS 1600 FU NSC M08/M15 Q1025 NOSIG
ZBSJ,2015-01-02 17:00,ZBSJ 021700Z 32001MPS 2000 FU NSC M06/M15 Q1023 NOSIG
ZBSJ,2015-01-02 18:00,ZBSJ 021800Z 29001MPS 1800 FU NSC M08/M15 Q1022 NOSIG
ZBSJ,2015-01-02 19:00,ZBSJ 021900Z 31002MPS 1800 FU NSC M07/M15 Q1021 NOSIG
ZBSJ,2015-01-02 20:00,ZBSJ 022000Z 28002MPS 2000 FU NSC M08/M15 Q1021 NOSIG
ZBSJ,2015-01-02 21:00,ZBSJ 022100Z 30002MPS 2300 FU NSC M08/M15 Q1019 NOSIG
ZBSJ,2015-01-02 22:00,ZBSJ 022200Z 31002MPS 2700 FU NSC M07/M15 Q1018 NOSIG
ZBSJ,2015-01-02 23:00,ZBSJ 022300Z 27001MPS 2700 FU NSC M07/M14 Q1018 NOSIG
ZBSJ,2015-01-03 00:00,ZBSJ 030000Z 34002MPS 1800 FU NSC M08/M15 Q1018 NOSIG
ZBSJ,2015-01-03 01:00,ZBSJ 030100Z 34002MPS 2000 FU NSC M05/M12 Q1018 BECMG 3500
ZBSJ,2015-01-03 02:00,ZBSJ 030200Z 28002MPS 2500 FU NSC M02/M13 Q1018 NOSIG
ZBSJ,2015-01-03 03:00,ZBSJ 030300Z 36001MPS 2500 FU NSC 00/M14 Q1017 NOSIG
ZBSJ,2015-01-03 04:00,ZBSJ 030400Z 35001MPS 3000 FU NSC 03/M14 Q1016 NOSIG
ZBSJ,2015-01-03 05:00,ZBSJ 030500Z 11001MPS 3000 FU NSC 05/M14 Q1014 NOSIG
ZBSJ,2015-01-03 06:00,ZBSJ 030600Z 11001MPS 3000 FU NSC 05/M14 Q1013 NOSIG
ZBSJ,2015-01-03 07:00,ZBSJ 030700Z 12002MPS 3000 HZ NSC 06/M14 Q1013 NOSIG
ZBSJ,2015-01-03 08:00,ZBSJ 030800Z 14002MPS 2200 HZ NSC 05/M13 Q1013 NOSIG
ZBSJ,2015-01-03 09:00,ZBSJ 030900Z 07001MPS 1400 R15/P2000D FU NSC 00/M13 Q1014 NOSIG
ZBSJ,2015-01-03 10:00,ZBSJ 031000Z 05002MPS 1500 FU NSC M01/M12 Q1014 NOSIG
ZBSJ,2015-01-03 11:00,ZBSJ 031100Z 04002MPS 1600 FU NSC M01/M12 Q1015 NOSIG
ZBSJ,2015-01-03 12:00,ZBSJ 031200Z 03001MPS 1600 FU NSC M03/M12 Q1015 NOSIG
ZBSJ,2015-01-03 13:00,ZBSJ 031300Z 02001MPS 1800 FU NSC M03/M12 Q1016 NOSIG
ZBSJ,2015-01-03 14:00,ZBSJ 031400Z 34001MPS 1800 FU NSC M06/M13 Q1016 NOSIG
ZBSJ,2015-01-03 15:00,ZBSJ 031500Z 28003MPS 1400 R15/1400N FU NSC M04/M12 Q1016 NOSIG
ZBSJ,2015-01-03 16:00,ZBSJ 031600Z 00000MPS 1500 FU NSC M06/M12 Q1016 NOSIG
ZBSJ,2015-01-03 17:00,ZBSJ 031700Z 33001MPS 1600 FU NSC M07/M13 Q1016 NOSIG
ZBSJ,2015-01-03 18:00,ZBSJ 031800Z 32001MPS 1700 FU NSC M06/M13 Q1015 NOSIG
ZBSJ,2015-01-03 19:00,ZBSJ 031900Z 25002MPS 1300 R15/1900D FU NSC M06/M12 Q1015 NOSIG
ZBSJ,2015-01-03 20:00,ZBSJ 032000Z 25002MPS 1400 R15/1800N FU NSC M07/M13 Q1015 NOSIG
ZBSJ,2015-01-03 21:00,ZBSJ 032100Z 33001MPS 1400 R15/1800N FU NSC M08/M13 Q1014 NOSIG
ZBSJ,2015-01-03 22:00,ZBSJ 032200Z 00000MPS 1400 R15/1900N FU NSC M08/M13 Q1015 NOSIG
ZBSJ,2015-01-03 23:00,ZBSJ 032300Z 02002MPS 1400 R15/1900N FU NSC M09/M13 Q1016 NOSIG
ZBSJ,2015-01-04 00:00,ZBSJ 040000Z 33002MPS 0900 R15/1100N FU NSC M07/M12 Q1017 BECMG 1600
ZBSJ,2015-01-04 01:00,ZBSJ 040100Z 34002MPS 0800 R33/0800N FU NSC M05/M10 Q1018 NOSIG
ZBSJ,2015-01-04 02:00,ZBSJ 040200Z 02001MPS 1000 R33/0900N FU NSC M01/M09 Q1017 BECMG 1600
ZBSJ,2015-01-04 03:00,ZBSJ 040300Z 00000MPS 1000 R33/1000N FU NSC 01/M10 Q1017 BECMG 1600
ZBSJ,2015-01-04 04:00,ZBSJ 040400Z 11001MPS 1000 R33/1000N FU NSC 04/M10 Q1016 NOSIG
ZBSJ,2015-01-04 05:00,ZBSJ 040500Z 16002MPS 120V190 1100 R15/1100N FU NSC 06/M09 Q1016 NOSIG
ZBSJ,2015-01-04 06:00,ZBSJ 040600Z 12002MPS 0800 R15/0900N FU NSC 05/M09 Q1015 NOSIG
ZBSJ,2015-01-04 07:00,ZBSJ 040700Z 05002MPS 0600 R15/0750N HZ NSC 06/M08 Q1015 NOSIG
ZBSJ,2015-01-04 08:00,ZBSJ 040800Z 05002MPS 0800 R15/1000U HZ NSC 05/M09 Q1015 NOSIG
ZBSJ,2015-01-04 09:00,ZBSJ 040900Z 01001MPS 0800 R15/1100N HZ NSC 02/M10 Q1015 NOSIG
ZBSJ,2015-01-04 10:00,ZBSJ 041000Z 01001MPS 0900 R15/1500N HZ NSC 02/M09 Q1015 NOSIG
ZBSJ,2015-01-04 11:00,ZBSJ 041100Z 32003MPS 0900 R33/1400N HZ NSC 02/M09 Q1016 NOSIG
ZBSJ,2015-01-04 12:00,ZBSJ 041200Z 19001MPS 0900 R33/1100D HZ NSC 01/M09 Q1016 NOSIG
ZBSJ,2015-01-04 13:00,ZBSJ 041300Z 31001MPS 0900 R33/1300N FU NSC 01/M09 Q1016 NOSIG
ZBSJ,2015-01-04 14:00,ZBSJ 041400Z 28002MPS 0900 R33/1300N FU NSC 02/M09 Q1016 NOSIG
ZBSJ,2015-01-04 15:00,ZBSJ 041500Z 08002MPS 0800 R33/1200N FU NSC 01/M08 Q1016 NOSIG
ZBSJ,2015-01-04 16:00,ZBSJ 041600Z 04002MPS 0800 R33/1100N FU NSC 01/M07 Q1016 NOSIG
ZBSJ,2015-01-04 17:00,ZBSJ 041700Z 00000MPS 0800 R33/1200N FU NSC 01/M08 Q1016 NOSIG
ZBSJ,2015-01-04 18:00,ZBSJ 041800Z 35002MPS 0800 R33/1400N FU NSC 01/M07 Q1016 NOSIG
ZBSJ,2015-01-04 19:00,ZBSJ 041900Z 33002MPS 1000 R33/1500N FU NSC 02/M08 Q1016 NOSIG
ZBSJ,2015-01-04 20:00,ZBSJ 042000Z 27001MPS 1200 R33/1500N FU NSC 01/M08 Q1015 NOSIG
ZBSJ,2015-01-04 21:00,ZBSJ 042100Z 29002MPS 1300 R33/1700N FU NSC 02/M08 Q1015 NOSIG
ZBSJ,2015-01-04 22:00,ZBSJ 042200Z 33002MPS 1400 R33/1700N FU NSC 01/M08 Q1015 NOSIG
ZBSJ,2015-01-04 23:00,ZBSJ 042300Z 36002MPS 1600 FU NSC 01/M08 Q1015 NOSIG
ZBSJ,2015-01-05 00:00,ZBSJ 050000Z 36002MPS 1000 R33/1500D HZ NSC 01/M08 Q1016 BECMG 1600
ZBSJ,2015-01-05 01:00,ZBSJ 050100Z 32002MPS 1100 R33/1400N HZ NSC 03/M09 Q1017 BECMG 1600
ZBSJ,2015-01-05 02:00,ZBSJ 050200Z 01003MPS 0900 R33/1100N HZ NSC 03/M08 Q1017 BECMG 1600
ZBSJ,2015-01-05 03:00,ZBSJ 050300Z 02002MPS 1200 R33/1200N HZ NSC 05/M08 Q1017 BECMG 1600
ZBSJ,2015-01-05 04:00,ZBSJ 050400Z 35002MPS 1500 R33/1300D HZ NSC 06/M07 Q1017 NOSIG
ZBSJ,2015-01-05 05:00,ZBSJ 050500Z 35001MPS 1600 R33/1300N HZ NSC 07/M08 Q1016 NOSIG
ZBSJ,2015-01-05 06:00,ZBSJ 050600Z 35001MPS 1600 R33/1400N HZ NSC 08/M08 Q1017 BECMG 33007MPS 5000
ZBSJ,2015-01-05 07:00,ZBSJ 050700Z 07001MPS 1800 R33/1400N HZ NSC 08/M09 Q1018 BECMG 3500
ZBSJ,2015-01-05 08:00,ZBSJ 050800Z 36002MPS 1700 R33/1300D HZ NSC 07/M07 Q1019 BECMG 3500
ZBSJ,2015-01-05 09:00,ZBSJ 050900Z 36003MPS 1700 HZ NSC 05/M08 Q1020 NOSIG
ZBSJ,2015-01-05 10:00,ZBSJ 051000Z 01007MPS CAVOK 07/M14 Q1022 NOSIG
ZBSJ,2015-01-05 11:00,ZBSJ 051100Z 02006MPS CAVOK 06/M15 Q1023 NOSIG
ZBSJ,2015-01-05 12:00,ZBSJ 051200Z 01005MPS CAVOK 05/M15 Q1024 NOSIG
ZBSJ,2015-01-05 13:00,ZBSJ 051300Z 01004MPS CAVOK 04/M15 Q1025 NOSIG
ZBSJ,2015-01-05 14:00,ZBSJ 051400Z 02006MPS CAVOK 03/M16 Q1026 NOSIG
ZBSJ,2015-01-05 15:00,ZBSJ 051500Z 05003MPS CAVOK 01/M17 Q1027 NOSIG
ZBSJ,2015-01-05 16:00,ZBSJ 051600Z 15001MPS CAVOK M02/M16 Q1028 NOSIG
ZBSJ,2015-01-05 17:00,ZBSJ 051700Z 09002MPS 8000 NSC M04/M15 Q1028 NOSIG
ZBSJ,2015-01-05 18:00,ZBSJ 051800Z 10002MPS 7000 NSC M04/M16 Q1029 NOSIG
ZBSJ,2015-01-05 19:00,ZBSJ 051900Z 18002MPS 7000 NSC M05/M17 Q1030 NOSIG
ZBSJ,2015-01-05 20:00,ZBSJ 052000Z 17002MPS 8000 NSC M06/M17 Q1030 NOSIG
ZBSJ,2015-01-05 21:00,ZBSJ 052100Z 16001MPS 8000 NSC M06/M17 Q1030 NOSIG
ZBSJ,2015-01-05 22:00,ZBSJ 052200Z 18002MPS 8000 NSC M07/M18 Q1030 NOSIG
ZBSJ,2015-01-05 23:00,ZBSJ 052300Z 19001MPS CAVOK M07/M18 Q1030 NOSIG
ZBSJ,2015-01-06 00:00,ZBSJ 060000Z 20002MPS 5000 FU NSC M08/M18 Q1030 NOSIG
ZBSJ,2015-01-06 01:00,ZBSJ 060100Z 16001MPS 3000 FU NSC M03/M14 Q1031 NOSIG
ZBSJ,2015-01-06 02:00,ZBSJ 060200Z 19004MPS 8000 NSC 00/M19 Q1031 NOSIG
ZBSJ,2015-01-06 03:00,ZBSJ 060300Z 18005MPS CAVOK 02/M22 Q1030 NOSIG
ZBSJ,2015-01-06 04:00,ZBSJ 060400Z 22005MPS CAVOK 03/M20 Q1029 NOSIG
ZBSJ,2015-01-06 05:00,ZBSJ 060500Z 20004MPS CAVOK 03/M21 Q1027 NOSIG
ZBSJ,2015-01-06 06:00,ZBSJ 060600Z 18004MPS CAVOK 04/M18 Q1027 NOSIG
ZBSJ,2015-01-06 07:00,ZBSJ 060700Z 17006MPS CAVOK 04/M18 Q1026 NOSIG
ZBSJ,2015-01-06 08:00,ZBSJ 060800Z 18005MPS CAVOK 03/M19 Q1026 NOSIG
ZBSJ,2015-01-06 09:00,ZBSJ 060900Z 18003MPS CAVOK 01/M19 Q1026 NOSIG
ZBSJ,2015-01-06 10:00,ZBSJ 061000Z 17003MPS CAVOK M01/M17 Q1026 NOSIG
ZBSJ,2015-01-06 11:00,ZBSJ 061100Z 18002MPS CAVOK M02/M17 Q1026 NOSIG
ZBSJ,2015-01-06 12:00,ZBSJ 061200Z 18003MPS 7000 NSC M02/M16 Q1026 NOSIG
ZBSJ,2015-01-06 13:00,ZBSJ 061300Z 17003MPS 7000 NSC M04/M16 Q1026 NOSIG
ZBSJ,2015-01-06 14:00,ZBSJ 061400Z 15002MPS 6000 NSC M04/M16 Q1027 NOSIG
ZBSJ,2015-01-06 15:00,ZBSJ 061500Z 12001MPS 5000 FU NSC M05/M15 Q1027 NOSIG
ZBSJ,2015-01-06 16:00,ZBSJ 061600Z 15001MPS 4000 FU NSC M05/M16 Q1027 NOSIG
ZBSJ,2015-01-06 17:00,ZBSJ 061700Z 15001MPS 4000 FU NSC M05/M16 Q1027 NOSIG
ZBSJ,2015-01-06 18:00,ZBSJ 061800Z 21001MPS 3500 FU NSC M04/M15 Q1027 NOSIG
ZBSJ,2015-01-06 19:00,ZBSJ 061900Z 28001MPS 4000 FU NSC M06/M15 Q1027 NOSIG
ZBSJ,2015-01-06 20:00,ZBSJ 062000Z 30001MPS 4000 FU NSC M07/M15 Q1027 NOSIG
ZBSJ,2015-01-06 21:00,ZBSJ 062100Z 33001MPS 3000 FU NSC M08/M15 Q1027 NOSIG
ZBSJ,2015-01-06 22:00,ZBSJ 062200Z 18001MPS 2500 FU NSC M07/M15 Q1027 NOSIG
ZBSJ,2015-01-06 23:00,ZBSJ 062300Z 30001MPS 2500 FU NSC M07/M14 Q1028 NOSIG
ZBSJ,2015-01-07 00:00,ZBSJ 070000Z 32001MPS 2000 FU NSC M08/M14 Q1029 BECMG 3000
ZBSJ,2015-01-07 01:00,ZBSJ 070100Z 09001MPS 1600 R33/1300N FU NSC M06/M12 Q1029 BECMG 3500
ZBSJ,2015-01-07 02:00,ZBSJ 070200Z 04002MPS 1300 R33/1100N FU NSC M02/M11 Q1030 BECMG 1600
ZBSJ,2015-01-07 03:00,ZBSJ 070300Z 02002MPS 350V060 3500 FU NSC 01/M15 Q1030 NOSIG
ZBSJ,2015-01-07 04:00,ZBSJ 070400Z 05002MPS 4000 FU NSC 03/M16 Q1029 NOSIG
ZBSJ,2015-01-07 05:00,ZBSJ 070500Z 06002MPS 030V100 4000 HZ NSC 04/M16 Q1029 NOSIG
ZBSJ,2015-01-07 06:00,ZBSJ 070600Z 09003MPS 3500 HZ NSC 04/M16 Q1029 NOSIG
ZBSJ,2015-01-07 07:00,ZBSJ 070700Z 10003MPS 060V120 4000 HZ NSC 05/M16 Q1029 NOSIG
ZBSJ,2015-01-07 08:00,ZBSJ 070800Z 09003MPS 5000 HZ NSC 04/M16 Q1029 NOSIG
ZBSJ,2015-01-07 09:00,ZBSJ 070900Z 10002MPS 2800 HZ NSC 01/M16 Q1030 NOSIG
ZBSJ,2015-01-07 10:00,ZBSJ 071000Z 36001MPS 4000 HZ NSC M02/M15 Q1031 NOSIG
ZBSJ,2015-01-07 11:00,ZBSJ 071100Z 03003MPS 3000 HZ NSC M03/M14 Q1031 BECMG 2000 FU
ZBSJ,2015-01-07 12:00,ZBSJ 071200Z 35001MPS 3000 HZ NSC M04/M15 Q1031 BECMG TL1320 2000 HZ
ZBSJ,2015-01-07 13:00,ZBSJ 071300Z 02002MPS 2300 HZ NSC M05/M16 Q1031 NOSIG
ZBSJ,2015-01-07 14:00,ZBSJ 071400Z 01001MPS 1800 HZ NSC M06/M15 Q1032 NOSIG
ZBSJ,2015-01-07 15:00,ZBSJ 071500Z 33001MPS 1800 HZ NSC M06/M15 Q1031 NOSIG
ZBSJ,2015-01-07 16:00,ZBSJ 071600Z 28002MPS 1600 HZ NSC M05/M14 Q1032 NOSIG
ZBSJ,2015-01-07 17:00,ZBSJ 071700Z 31003MPS 1600 HZ NSC M08/M16 Q1032 NOSIG
ZBSJ,2015-01-07 18:00,ZBSJ 071800Z 33003MPS 1800 HZ NSC M07/M14 Q1031 NOSIG
ZBSJ,2015-01-07 19:00,ZBSJ 071900Z 32002MPS 2500 HZ NSC M07/M15 Q1031 NOSIG
ZBSJ,2015-01-07 20:00,ZBSJ 072000Z 29001MPS 3000 HZ NSC M07/M15 Q1031 NOSIG
ZBSJ,2015-01-07 21:00,ZBSJ 072100Z 30002MPS 3000 HZ NSC M07/M14 Q1031 NOSIG
ZBSJ,2015-01-07 22:00,ZBSJ 072200Z 31002MPS 3500 HZ NSC M08/M15 Q1031 NOSIG
ZBSJ,2015-01-07 23:00,ZBSJ 072300Z 27001MPS 3500 HZ NSC M08/M15 Q1031 NOSIG
ZBSJ,2015-01-08 00:00,ZBSJ 080000Z 30002MPS 2500 HZ NSC M08/M15 Q1031 NOSIG
ZBSJ,2015-01-08 01:00,ZBSJ 080100Z 28001MPS 1800 HZ NSC M05/M13 Q1032 NOSIG
ZBSJ,2015-01-08 02:00,ZBSJ 080200Z 30002MPS 2700 HZ NSC M02/M13 Q1032 NOSIG
ZBSJ,2015-01-08 03:00,ZBSJ 080300Z 32002MPS 3000 HZ NSC 01/M14 Q1031 NOSIG
ZBSJ,2015-01-08 04:00,ZBSJ 080400Z 36002MPS 3000 HZ NSC 03/M14 Q1030 NOSIG
ZBSJ,2015-01-08 05:00,ZBSJ 080500Z 03001MPS 3000 HZ NSC 05/M14 Q1028 NOSIG
ZBSJ,2015-01-08 06:00,ZBSJ 080600Z 03001MPS 3500 HZ NSC 07/M14 Q1027 NOSIG
ZBSJ,2015-01-08 07:00,ZBSJ 080700Z 11002MPS 4000 HZ NSC 07/M13 Q1027 NOSIG
ZBSJ,2015-01-08 08:00,ZBSJ 080800Z 14002MPS 3500 HZ NSC 07/M13 Q1027 NOSIG
ZBSJ,2015-01-08 09:00,ZBSJ 080900Z 17003MPS 2200 HZ NSC 03/M12 Q1027 NOSIG
ZBSJ,2015-01-08 10:00,ZBSJ 081000Z 21003MPS 2500 HZ NSC 01/M13 Q1028 NOSIG
ZBSJ,2015-01-08 11:00,ZBSJ 081100Z 20004MPS 2000 HZ NSC 01/M12 Q1028 NOSIG
ZBSJ,2015-01-08 12:00,ZBSJ 081200Z 03003MPS 1800 HZ NSC M02/M11 Q1028 NOSIG
ZBSJ,2015-01-08 13:00,ZBSJ 081300Z 04001MPS 1600 HZ NSC M03/M12 Q1028 NOSIG
ZBSJ,2015-01-08 14:00,ZBSJ 081400Z 04001MPS 1400 R15/1700N HZ NSC M05/M11 Q1028 NOSIG
ZBSJ,2015-01-08 15:00,ZBSJ 081500Z 36001MPS 1200 R15/1400N HZ NSC M05/M12 Q1028 NOSIG
ZBSJ,2015-01-08 16:00,ZBSJ 081600Z 30001MPS 1200 R15/1400N HZ NSC M05/M12 Q1028 NOSIG
ZBSJ,2015-01-08 17:00,ZBSJ 081700Z 31001MPS 1300 R15/1600N HZ NSC M06/M12 Q1028 NOSIG
ZBSJ,2015-01-08 18:00,ZBSJ 081800Z 30002MPS 1500 HZ NSC M07/M13 Q1028 NOSIG
ZBSJ,2015-01-08 19:00,ZBSJ 081900Z 30002MPS 1800 HZ NSC M06/M12 Q1028 NOSIG
ZBSJ,2015-01-08 20:00,ZBSJ 082000Z 29002MPS 2200 HZ NSC M05/M12 Q1028 NOSIG
ZBSJ,2015-01-08 21:00,ZBSJ 082100Z 31002MPS 3000 HZ NSC M07/M13 Q1027 NOSIG
ZBSJ,2015-01-08 22:00,ZBSJ 082200Z 31002MPS 3500 HZ NSC M06/M13 Q1028 NOSIG
ZBSJ,2015-01-08 23:00,ZBSJ 082300Z 02002MPS 350V050 3000 HZ NSC M06/M12 Q1029 NOSIG
ZBSJ,2015-01-09 00:00,ZBSJ 090000Z 33001MPS 0900 R15/1100D HZ NSC M06/M12 Q1030 NOSIG
ZBSJ,2015-01-09 01:00,ZBSJ 090100Z 34002MPS 0800 R15/0900N HZ NSC M05/M10 Q1031 NOSIG
ZBSJ,2015-01-09 02:00,ZBSJ 090200Z 34002MPS 0800 R33/0900N HZ NSC M01/M09 Q1031 BECMG 1600
ZBSJ,2015-01-09 03:00,ZBSJ 090300Z 29002MPS 0900 R33/0900N HZ NSC 03/M10 Q1031 BECMG 1600
ZBSJ,2015-01-09 04:00,ZBSJ 090400Z 14001MPS 1000 R33/1100N HZ NSC 06/M11 Q1030 BECMG 1600
ZBSJ,2015-01-09 05:00,ZBSJ 090500Z 18002MPS 1200 R15/1100N HZ NSC 07/M12 Q1029 BECMG 1600
ZBSJ,2015-01-09 06:00,ZBSJ 090600Z 16001MPS 1800 R15/1300N HZ NSC 08/M12 Q1028 NOSIG
ZBSJ,2015-01-09 07:00,ZBSJ 090700Z 02001MPS 1800 HZ NSC 09/M12 Q1028 NOSIG
ZBSJ,2015-01-09 08:00,ZBSJ 090800Z 09001MPS 2200 HZ NSC 09/M12 Q1028 NOSIG
ZBSJ,2015-01-09 09:00,ZBSJ 090900Z 18003MPS 1600 HZ NSC 05/M12 Q1028 NOSIG
ZBSJ,2015-01-09 10:00,ZBSJ 091000Z 20002MPS 2500 HZ NSC 03/M12 Q1028 NOSIG
ZBSJ,2015-01-09 11:00,ZBSJ 091100Z 21003MPS 2500 HZ NSC 01/M12 Q1028 NOSIG
ZBSJ,2015-01-09 12:00,ZBSJ 091200Z 20003MPS 2500 HZ NSC 01/M12 Q1028 NOSIG
ZBSJ,2015-01-09 13:00,ZBSJ 091300Z 20002MPS 2300 HZ NSC 00/M11 Q1028 NOSIG
ZBSJ,2015-01-09 14:00,ZBSJ 091400Z 20001MPS 2300 HZ NSC M01/M11 Q1027 NOSIG
ZBSJ,2015-01-09 15:00,ZBSJ 091500Z 04002MPS 1800 HZ NSC M06/M13 Q1027 NOSIG
ZBSJ,2015-01-09 16:00,ZBSJ 091600Z 03001MPS 1500 HZ NSC M06/M12 Q1027 NOSIG
ZBSJ,2015-01-09 17:00,ZBSJ 091700Z 21001MPS 1500 HZ NSC M06/M12 Q1027 NOSIG
ZBSJ,2015-01-09 18:00,ZBSJ 091800Z 27001MPS 1500 FU NSC M06/M12 Q1026 NOSIG
ZBSJ,2015-01-09 19:00,ZBSJ 091900Z 26002MPS 2000 FU NSC M04/M11 Q1026 NOSIG
ZBSJ,2015-01-09 20:00,ZBSJ 092000Z 28002MPS 2000 FU NSC M04/M12 Q1026 NOSIG
ZBSJ,2015-01-09 21:00,ZBSJ 092100Z 25001MPS 1800 FU NSC M07/M12 Q1025 NOSIG
ZBSJ,2015-01-09 22:00,ZBSJ 092200Z 34001MPS 2200 FU NSC M08/M13 Q1025 NOSIG
ZBSJ,2015-01-09 23:00,ZBSJ 092300Z 20002MPS 2200 FU NSC M09/M14 Q1024 NOSIG
ZBSJ,2015-01-10 00:00,ZBSJ 100000Z 25004MPS 1600 FU NSC M06/M12 Q1024 NOSIG
ZBSJ,2015-01-10 01:00,ZBSJ 100100Z 32001MPS 1600 R33/1300N FU NSC M03/M09 Q1025 NOSIG
ZBSJ,2015-01-10 02:00,ZBSJ 100200Z 25002MPS 2500 FU NSC 03/M12 Q1025 NOSIG
ZBSJ,2015-01-10 03:00,ZBSJ 100300Z 26003MPS 6000 NSC 08/M13 Q1024 NOSIG
ZBSJ,2015-01-10 04:00,ZBSJ 100400Z 26003MPS 240V300 6000 NSC 10/M13 Q1023 NOSIG
ZBSJ,2015-01-10 05:00,ZBSJ 100500Z 26003MPS CAVOK 13/M13 Q1021 NOSIG
ZBSJ,2015-01-10 06:00,ZBSJ 100600Z 29003MPS 230V320 CAVOK 14/M14 Q1020 NOSIG
ZBSJ,2015-01-10 07:00,ZBSJ 100700Z 13001MPS CAVOK 14/M14 Q1020 NOSIG
ZBSJ,2015-01-10 08:00,ZBSJ 100800Z 14002MPS CAVOK 13/M13 Q1021 NOSIG
ZBSJ,2015-01-10 09:00,ZBSJ 100900Z 16003MPS 4000 FU NSC 08/M11 Q1021 NOSIG
ZBSJ,2015-01-10 10:00,ZBSJ 101000Z 19003MPS 3000 FU NSC 06/M13 Q1022 NOSIG
ZBSJ,2015-01-10 11:00,ZBSJ 101100Z 20004MPS 2200 FU NSC 04/M12 Q1022 NOSIG
ZBSJ,2015-01-10 12:00,ZBSJ 101200Z 21004MPS 2000 FU NSC 04/M12 Q1022 NOSIG
ZBSJ,2015-01-10 13:00,ZBSJ 101300Z 22004MPS 2500 FU NSC 02/M12 Q1022 NOSIG
ZBSJ,2015-01-10 14:00,ZBSJ 101400Z 32002MPS 2800 FU NSC 01/M12 Q1023 NOSIG
ZBSJ,2015-01-10 15:00,ZBSJ 101500Z 32003MPS 2200 FU NSC M03/M12 Q1023 NOSIG
ZBSJ,2015-01-10 16:00,ZBSJ 101600Z 28003MPS 2300 FU NSC 03/M11 Q1023 NOSIG
ZBSJ,2015-01-10 17:00,ZBSJ 101700Z 32003MPS 2300 FU NSC M03/M12 Q1024 NOSIG
ZBSJ,2015-01-10 18:00,ZBSJ 101800Z 30004MPS 4000 FU NSC M01/M13 Q1025 NOSIG
ZBSJ,2015-01-10 19:00,ZBSJ 101900Z 08001MPS 3000 FU NSC M02/M12 Q1027 NOSIG
ZBSJ,2015-01-10 20:00,ZBSJ 102000Z 03003MPS 3000 FU NSC 01/M12 Q1027 NOSIG
ZBSJ,2015-01-10 21:00,ZBSJ 102100Z 05003MPS 4000 FU NSC 00/M13 Q1028 NOSIG
ZBSJ,2015-01-10 22:00,ZBSJ 102200Z 04004MPS 4000 FU NSC 00/M13 Q1030 NOSIG
ZBSJ,2015-01-10 23:00,ZBSJ 102300Z 02003MPS 4000 FU NSC M00/M12 Q1031 NOSIG
ZBSJ,2015-01-11 00:00,ZBSJ 110000Z 01002MPS 4000 HZ NSC M03/M12 Q1033 NOSIG
ZBSJ,2015-01-11 01:00,ZBSJ 110100Z 35003MPS 3500 HZ NSC 00/M11 Q1034 NOSIG
ZBSJ,2015-01-11 02:00,ZBSJ 110200Z 05003MPS 5000 HZ NSC 03/M07 Q1035 NOSIG
ZBSJ,2015-01-11 03:00,ZBSJ 110300Z 10003MPS 060V140 7000 NSC 04/M06 Q1035 NOSIG
ZBSJ,2015-01-11 04:00,ZBSJ 110400Z 14002MPS 080V180 8000 NSC 05/M07 Q1035 NOSIG
ZBSJ,2015-01-11 05:00,ZBSJ 110500Z 08002MPS 040V140 8000 NSC 06/M06 Q1033 NOSIG
ZBSJ,2015-01-11 06:00,ZBSJ 110600Z 12002MPS CAVOK 06/M09 Q1032 NOSIG
ZBSJ,2015-01-11 07:00,ZBSJ 110700Z 10002MPS CAVOK 07/M09 Q1032 NOSIG
ZBSJ,2015-01-11 08:00,ZBSJ 110800Z 10003MPS CAVOK 06/M09 Q1032 NOSIG
ZBSJ,2015-01-11 09:00,ZBSJ 110900Z 11003MPS 8000 NSC 04/M09 Q1033 NOSIG
ZBSJ,2015-01-11 10:00,ZBSJ 111000Z 10003MPS 7000 NSC 01/M09 Q1034 NOSIG
ZBSJ,2015-01-11 11:00,ZBSJ 111100Z 13001MPS 5000 HZ NSC M01/M09 Q1035 NOSIG
ZBSJ,2015-01-11 12:00,ZBSJ 111200Z 08001MPS 5000 HZ NSC M03/M09 Q1035 NOSIG
ZBSJ,2015-01-11 13:00,ZBSJ 111300Z 13001MPS 4000 HZ NSC M04/M10 Q1036 NOSIG
ZBSJ,2015-01-11 14:00,ZBSJ 111400Z 12001MPS 3500 HZ NSC M04/M09 Q1036 NOSIG
ZBSJ,2015-01-11 15:00,ZBSJ 111500Z 00000MPS 3500 HZ NSC M05/M10 Q1036 NOSIG
ZBSJ,2015-01-11 16:00,ZBSJ 111600Z 28001MPS 3500 HZ NSC M07/M10 Q1036 NOSIG
ZBSJ,2015-01-11 17:00,ZBSJ 111700Z 36001MPS 3000 HZ NSC M06/M10 Q1037 NOSIG
ZBSJ,2015-01-11 18:00,ZBSJ 111800Z 04001MPS 3000 HZ NSC M07/M11 Q1037 NOSIG
ZBSJ,2015-01-11 19:00,ZBSJ 111900Z 06001MPS 2300 HZ NSC M06/M10 Q1037 NOSIG
ZBSJ,2015-01-11 20:00,ZBSJ 112000Z 07002MPS 2300 HZ NSC M07/M10 Q1037 NOSIG
ZBSJ,2015-01-11 21:00,ZBSJ 112100Z 09002MPS 2300 HZ NSC M07/M10 Q1037 NOSIG
ZBSJ,2015-01-11 22:00,ZBSJ 112200Z 22001MPS 2300 HZ NSC M06/M10 Q1037 NOSIG
ZBSJ,2015-01-11 23:00,ZBSJ 112300Z 22001MPS 2300 HZ NSC M08/M11 Q1038 BECMG 3500
ZBSJ,2015-01-12 00:00,ZBSJ 120000Z 32002MPS 1400 R15/1400D HZ NSC M09/M11 Q1038 BECMG TL0040 1600
ZBSJ,2015-01-12 01:00,ZBSJ 120100Z 35002MPS 0900 R33/1000U HZ NSC M05/M08 Q1039 NOSIG
ZBSJ,2015-01-12 02:00,ZBSJ 120200Z 01002MPS 1100 R33/1200N HZ NSC M01/M07 Q1039 NOSIG
ZBSJ,2015-01-12 03:00,ZBSJ 120300Z 04001MPS 1600 R33/1300U HZ NSC 02/M08 Q1038 NOSIG
ZBSJ,2015-01-12 04:00,ZBSJ 120400Z 03001MPS 4000 HZ NSC 03/M11 Q1037 NOSIG
ZBSJ,2015-01-12 05:00,ZBSJ 120500Z 06001MPS 8000 NSC 04/M13 Q1036 NOSIG
ZBSJ,2015-01-12 06:00,ZBSJ 120600Z 05002MPS 8000 NSC 05/M13 Q1035 NOSIG
ZBSJ,2015-01-12 07:00,ZBSJ 120700Z 07002MPS CAVOK 05/M15 Q1034 NOSIG
ZBSJ,2015-01-12 08:00,ZBSJ 120800Z 08003MPS CAVOK 04/M15 Q1034 NOSIG
ZBSJ,2015-01-12 09:00,ZBSJ 120900Z 10002MPS 6000 NSC 01/M14 Q1035 NOSIG
ZBSJ,2015-01-12 10:00,ZBSJ 121000Z 13002MPS 5000 HZ NSC M02/M13 Q1035 NOSIG
ZBSJ,2015-01-12 11:00,ZBSJ 121100Z 24001MPS 5000 HZ NSC M02/M12 Q1035 NOSIG
ZBSJ,2015-01-12 12:00,ZBSJ 121200Z 30001MPS 5000 HZ NSC M03/M12 Q1035 NOSIG
ZBSJ,2015-01-12 13:00,ZBSJ 121300Z 33001MPS 4000 HZ NSC M04/M12 Q1035 NOSIG
ZBSJ,2015-01-12 14:00,ZBSJ 121400Z 32002MPS 3000 HZ NSC M04/M12 Q1035 NOSIG
ZBSJ,2015-01-12 15:00,ZBSJ 121500Z 00000MPS 3000 HZ NSC M04/M12 Q1034 NOSIG
ZBSJ,2015-01-12 16:00,ZBSJ 121600Z 00000MPS 2500 HZ NSC M05/M12 Q1034 NOSIG
ZBSJ,2015-01-12 17:00,ZBSJ 121700Z 27001MPS 1800 HZ NSC M06/M12 Q1034 NOSIG
ZBSJ,2015-01-12 18:00,ZBSJ 121800Z 30001MPS 2500 HZ NSC M06/M13 Q1033 NOSIG
ZBSJ,2015-01-12 19:00,ZBSJ 121900Z 30001MPS 2800 FU NSC M05/M13 Q1033 NOSIG
ZBSJ,2015-01-12 20:00,ZBSJ 122000Z 30001MPS 3500 FU NSC M05/M13 Q1032 NOSIG
ZBSJ,2015-01-12 21:00,ZBSJ 122100Z 24001MPS 3500 FU NSC M05/M12 Q1032 NOSIG
ZBSJ,2015-01-12 22:00,ZBSJ 122200Z 26002MPS 3500 FU NSC M05/M11 Q1032 NOSIG
ZBSJ,2015-01-12 23:00,ZBSJ 122300Z 32002MPS 4000 FU NSC M06/M12 Q1032 NOSIG
ZBSJ,2015-01-13 00:00,ZBSJ 130000Z 33002MPS 2500 FU NSC M07/M12 Q1033 NOSIG
ZBSJ,2015-01-13 01:00,ZBSJ 130100Z 32002MPS 3000 FU NSC M04/M10 Q1033 NOSIG
ZBSJ,2015-01-13 02:00,ZBSJ 130200Z 33001MPS 2500 FU NSC M01/M10 Q1033 NOSIG
ZBSJ,2015-01-13 03:00,ZBSJ 130300Z 35001MPS 2000 FU NSC 01/M11 Q1033 NOSIG
ZBSJ,2015-01-13 04:00,ZBSJ 130400Z 03001MPS 2700 FU NSC 02/M12 Q1031 NOSIG
ZBSJ,2015-01-13 05:00,ZBSJ 130500Z 08001MPS 3000 HZ NSC 03/M11 Q1030 NOSIG
ZBSJ,2015-01-13 06:00,ZBSJ 130600Z 09002MPS 3000 HZ NSC 04/M09 Q1029 NOSIG
ZBSJ,2015-01-13 07:00,ZBSJ 130700Z 16002MPS 100V190 2300 HZ NSC 04/M07 Q1029 NOSIG
ZBSJ,2015-01-13 08:00,ZBSJ 130800Z 15001MPS 2000 HZ NSC 04/M07 Q1029 NOSIG
ZBSJ,2015-01-13 09:00,ZBSJ 130900Z 08001MPS 1600 HZ NSC 01/M07 Q1029 NOSIG
ZBSJ,2015-01-13 10:00,ZBSJ 131000Z 04001MPS 1800 FU NSC M00/M06 Q1029 NOSIG
ZBSJ,2015-01-13 11:00,ZBSJ 131100Z 35001MPS 1600 FU NSC M03/M07 Q1030 NOSIG
ZBSJ,2015-01-13 12:00,ZBSJ 131200Z 34001MPS 1600 FU NSC M04/M07 Q1030 NOSIG
ZBSJ,2015-01-13 13:00,ZBSJ 131300Z 02001MPS 1500 FU NSC M04/M07 Q1030 NOSIG
ZBSJ,2015-01-13 14:00,ZBSJ 131400Z 36002MPS 1500 FU NSC M05/M09 Q1031 NOSIG
ZBSJ,2015-01-13 15:00,ZBSJ 131500Z 35002MPS 1600 FU NSC M05/M09 Q1031 NOSIG
ZBSJ,2015-01-13 16:00,ZBSJ 131600Z 33001MPS 1800 FU NSC M02/M08 Q1031 NOSIG
ZBSJ,2015-01-13 17:00,ZBSJ 131700Z 33002MPS 2000 FU NSC M02/M08 Q1030 NOSIG
ZBSJ,2015-01-13 18:00,ZBSJ 131800Z 32002MPS 2000 FU NSC M01/M08 Q1030 NOSIG
ZBSJ,2015-01-13 19:00,ZBSJ 131900Z 34002MPS 2500 FU NSC M01/M08 Q1030 NOSIG
ZBSJ,2015-01-13 20:00,ZBSJ 132000Z 32002MPS 3000 FU NSC M01/M08 Q1029 NOSIG
ZBSJ,2015-01-13 21:00,ZBSJ 132100Z 33002MPS 3500 FU NSC M01/M09 Q1029 NOSIG
ZBSJ,2015-01-13 22:00,ZBSJ 132200Z 32002MPS 3500 FU NSC M01/M09 Q1029 NOSIG
ZBSJ,2015-01-13 23:00,ZBSJ 132300Z 32002MPS 3500 FU NSC M01/M08 Q1030 NOSIG
ZBSJ,2015-01-14 00:00,ZBSJ 140000Z 32003MPS 2200 FU NSC M01/M09 Q1030 NOSIG
ZBSJ,2015-01-14 01:00,ZBSJ 140100Z 34002MPS 1600 FU NSC M00/M08 Q1030 NOSIG
ZBSJ,2015-01-14 02:00,ZBSJ 140200Z 01003MPS 1500 FU NSC 01/M08 Q1031 NOSIG
ZBSJ,2015-01-14 03:00,ZBSJ 140300Z 36002MPS 1400 R33/1600N FU NSC 01/M08 Q1031 NOSIG
ZBSJ,2015-01-14 04:00,ZBSJ 140400Z 01003MPS 1600 FU NSC 01/M08 Q1030 NOSIG
ZBSJ,2015-01-14 05:00,ZBSJ 140500Z 02004MPS 1800 HZ NSC 02/M08 Q1028 NOSIG
ZBSJ,2015-01-14 06:00,ZBSJ 140600Z 04003MPS 1800 HZ NSC 02/M08 Q1028 NOSIG
ZBSJ,2015-01-14 07:00,ZBSJ 140700Z 05003MPS 1500 HZ NSC 02/M07 Q1028 NOSIG
ZBSJ,2015-01-14 08:00,ZBSJ 140800Z 05002MPS 1400 R33/1700U HZ NSC 01/M07 Q1029 NOSIG
ZBSJ,2015-01-14 09:00,ZBSJ 140900Z 06002MPS 1400 R33/P2000N HZ NSC 00/M07 Q1029 NOSIG
ZBSJ,2015-01-14 10:00,ZBSJ 141000Z 04002MPS 1700 HZ NSC M02/M07 Q1030 NOSIG
ZBSJ,2015-01-14 11:00,ZBSJ 141100Z 04001MPS 1700 HZ NSC M03/M07 Q1030 NOSIG
ZBSJ,2015-01-14 12:00,ZBSJ 141200Z 25002MPS 1700 HZ NSC M02/M07 Q1031 BECMG 1000 HZ
ZBSJ,2015-01-14 13:00,ZBSJ 141300Z 35002MPS 1600 HZ NSC M04/M08 Q1030 BECMG TL1420 1000 HZ
ZBSJ,2015-01-14 14:00,ZBSJ 141400Z 04001MPS 1400 R33/1800D BR NSC M06/M09 Q1030 NOSIG
ZBSJ,2015-01-14 15:00,ZBSJ 141500Z 01001MPS 1400 R33/1600N BR NSC M06/M08 Q1030 NOSIG
ZBSJ,2015-01-14 16:00,ZBSJ 141600Z 26001MPS 1400 R33/1700N BR NSC M05/M07 Q1030 NOSIG
ZBSJ,2015-01-14 17:00,ZBSJ 141700Z 31001MPS 1100 R33/1500N BR NSC M06/M07 Q1030 NOSIG
ZBSJ,2015-01-14 18:00,ZBSJ 141800Z 32001MPS 1100 R33/1500U BR NSC M07/M08 Q1030 NOSIG
ZBSJ,2015-01-14 19:00,ZBSJ 141900Z 09002MPS 0700 R33/0150V0300N FZFG NSC M08/M08 Q1030 NOSIG
ZBSJ,2015-01-14 20:00,ZBSJ 142000Z 23001MPS 0050 R33/0175V0325N FZFG VV001 M06/M06 Q1029 NOSIG
ZBSJ,2015-01-14 21:00,ZBSJ 142100Z 00000MPS 0050 R33/0100N FZFG VV001 M05/M06 Q1029 NOSIG
ZBSJ,2015-01-14 22:00,ZBSJ 142200Z 23001MPS 0050 R33/0100N FZFG VV001 M05/M06 Q1029 NOSIG
ZBSJ,2015-01-14 23:00,ZBSJ 142300Z 04001MPS 0050 R33/0100N FZFG VV001 M05/M06 Q1029 NOSIG
ZBSJ,2015-01-15 00:00,ZBSJ 150000Z 00000MPS 0050 R33/0075N FZFG VV001 M07/M07 Q1030 NOSIG
ZBSJ,2015-01-15 01:00,ZBSJ 150100Z 18001MPS 0050 R33/0075N FZFG VV001 M06/M06 Q1030 NOSIG
ZBSJ,2015-01-15 02:00,ZBSJ 150200Z 04001MPS 0050 R33/0100N FZFG VV001 M05/M06 Q1030 NOSIG
ZBSJ,2015-01-15 03:00,ZBSJ 150300Z 05001MPS 0250 R15/0500N FZFG NSC M04/M04 Q1030 NOSIG
ZBSJ,2015-01-15 04:00,ZBSJ 150400Z 10002MPS 0450 R15/0600N FZFG NSC M03/M03 Q1028 NOSIG
ZBSJ,2015-01-15 05:00,ZBSJ 150500Z 10003MPS 070V130 0500 R15/0650N FZFG NSC M02/M02 Q1027 NOSIG
ZBSJ,2015-01-15 06:00,ZBSJ 150600Z 08002MPS 0700 R15/0750N FZFG NSC M01/M02 Q1026 NOSIG
ZBSJ,2015-01-15 07:00,ZBSJ 150700Z 08002MPS 0700 R15/0800N FZFG NSC M00/M03 Q1026 NOSIG
ZBSJ,2015-01-15 08:00,ZBSJ 150800Z 08002MPS 0700 R15/0800N FZFG NSC M00/M02 Q1026 NOSIG
ZBSJ,2015-01-15 09:00,ZBSJ 150900Z 14003MPS 0800 R15/1200N FZFG NSC M01/M02 Q1025 NOSIG
ZBSJ,2015-01-15 10:00,ZBSJ 151000Z 02001MPS 1000 R15/1500N BR NSC M02/M03 Q1026 NOSIG
ZBSJ,2015-01-15 11:00,ZBSJ 151100Z 13001MPS 1000 R15/1400N BR NSC M03/M03 Q1026 NOSIG
ZBSJ,2015-01-15 12:00,ZBSJ 151200Z 13002MPS 0600 R15/1000U FZFG NSC M02/M03 Q1026 NOSIG
ZBSJ,2015-01-15 13:00,ZBSJ 151300Z 19002MPS 0200 R15/0250N FZFG VV016 M03/M03 Q1026 NOSIG
ZBSJ,2015-01-15 14:00,ZBSJ 151400Z 21001MPS 0050 R15/0300N FZFG VV010 M03/M03 Q1026 NOSIG
ZBSJ,2015-01-15 15:00,ZBSJ 151500Z 20002MPS 160V230 0050 R15/0200N FZFG VV001 M03/M03 Q1026 NOSIG
ZBSJ,2015-01-15 16:00,ZBSJ 151600Z 23002MPS 0050 R15/0125N FZFG VV001 M03/M03 Q1026 NOSIG
ZBSJ,2015-01-15 17:00,ZBSJ 151700Z 00000MPS 0050 R15/0100N FZFG VV001 M04/M04 Q1025 NOSIG
ZBSJ,2015-01-15 18:00,ZBSJ 151800Z 25002MPS 230V290 0050 R15/0125N FZFG VV001 M04/M04 Q1025 NOSIG
ZBSJ,2015-01-15 19:00,ZBSJ 151900Z 29002MPS 260V320 0050 R15/0100N FZFG VV001 M04/M04 Q1025 NOSIG
ZBSJ,2015-01-15 20:00,ZBSJ 152000Z 29002MPS 0050 R15/0100N FZFG VV001 M05/M05 Q1025 NOSIG
ZBSJ,2015-01-15 21:00,ZBSJ 152100Z 29002MPS 0050 R15/0100N FZFG VV001 M06/M06 Q1025 NOSIG
ZBSJ,2015-01-15 22:00,ZBSJ 152200Z 29003MPS 0050 R15/0100N FZFG VV001 M06/M06 Q1026 NOSIG
ZBSJ,2015-01-15 23:00,ZBSJ 152300Z 30002MPS 0400 R33/0400N FZFG NSC M07/M08 Q1027 NOSIG
ZBSJ,2015-01-16 00:00,ZBSJ 160000Z 28002MPS 0800 R33/0250V0700U FZFG NSC M10/M10 Q1028 BECMG 1600 HZ
ZBSJ,2015-01-16 01:00,ZBSJ 160100Z 33005MPS 3000 BR NSC M02/M02 Q1029 NOSIG
ZBSJ,2015-01-16 02:00,ZBSJ 160200Z 34010MPS CAVOK 06/M12 Q1029 NOSIG
ZBSJ,2015-01-16 03:00,ZBSJ 160300Z 33008MPS CAVOK 07/M14 Q1030 NOSIG
ZBSJ,2015-01-16 04:00,ZBSJ 160400Z 34007MPS CAVOK 07/M15 Q1029 NOSIG
ZBSJ,2015-01-16 05:00,ZBSJ 160500Z 31006MPS 280V350 CAVOK 09/M15 Q1028 NOSIG
ZBSJ,2015-01-16 06:00,ZBSJ 160600Z 34007MPS 310V010 CAVOK 08/M15 Q1029 NOSIG
ZBSJ,2015-01-16 07:00,ZBSJ 160700Z 35006MPS CAVOK 08/M15 Q1029 NOSIG
ZBSJ,2015-01-16 08:00,ZBSJ 160800Z 36007MPS 330V030 CAVOK 07/M16 Q1030 NOSIG
ZBSJ,2015-01-16 09:00,ZBSJ 160900Z 36005MPS CAVOK 06/M15 Q1030 NOSIG
ZBSJ,2015-01-16 10:00,ZBSJ 161000Z 03004MPS CAVOK 02/M15 Q1031 NOSIG
ZBSJ,2015-01-16 11:00,ZBSJ 161100Z 02004MPS CAVOK 02/M15 Q1032 NOSIG
ZBSJ,2015-01-16 12:00,ZBSJ 161200Z 03002MPS CAVOK 00/M15 Q1033 NOSIG
ZBSJ,2015-01-16 13:00,ZBSJ 161300Z 08003MPS CAVOK M03/M14 Q1034 NOSIG
ZBSJ,2015-01-16 14:00,ZBSJ 161400Z 21002MPS 5000 FU NSC M03/M14 Q1034 NOSIG
ZBSJ,2015-01-16 15:00,ZBSJ 161500Z 21002MPS 3000 FU NSC M03/M13 Q1035 NOSIG
ZBSJ,2015-01-16 16:00,ZBSJ 161600Z 15001MPS 4000 FU NSC M03/M13 Q1035 NOSIG
ZBSJ,2015-01-16 17:00,ZBSJ 161700Z 19002MPS 3500 FU NSC M04/M13 Q1035 NOSIG
ZBSJ,2015-01-16 18:00,ZBSJ 161800Z 17003MPS 4000 FU NSC M04/M13 Q1035 NOSIG
ZBSJ,2015-01-16 19:00,ZBSJ 161900Z 16002MPS 4500 FU NSC M06/M13 Q1035 NOSIG
ZBSJ,2015-01-16 20:00,ZBSJ 162000Z 15002MPS 5000 FU NSC M06/M13 Q1035 NOSIG
ZBSJ,2015-01-16 21:00,ZBSJ 162100Z 16003MPS 5000 FU NSC M05/M13 Q1034 NOSIG
ZBSJ,2015-01-16 22:00,ZBSJ 162200Z 18002MPS 4500 FU NSC M07/M14 Q1035 NOSIG
ZBSJ,2015-01-16 23:00,ZBSJ 162300Z 16002MPS 4500 FU NSC M07/M14 Q1035 NOSIG
ZBSJ,2015-01-17 00:00,ZBSJ 170000Z 18003MPS 3000 FU NSC M07/M13 Q1035 NOSIG
ZBSJ,2015-01-17 01:00,ZBSJ 170100Z 15002MPS 2500 FU NSC M03/M11 Q1034 NOSIG
ZBSJ,2015-01-17 02:00,ZBSJ 170200Z 21002MPS 170V240 2500 FU NSC M01/M11 Q1035 NOSIG
ZBSJ,2015-01-17 03:00,ZBSJ 170300Z 21005MPS 5000 FU NSC 02/M13 Q1034 NOSIG
ZBSJ,2015-01-17 04:00,ZBSJ 170400Z 19006MPS CAVOK 03/M14 Q1033 NOSIG
ZBSJ,2015-01-17 05:00,ZBSJ 170500Z 20004MPS CAVOK 04/M13 Q1031 NOSIG
ZBSJ,2015-01-17 06:00,ZBSJ 170600Z VRB03MPS CAVOK 05/M13 Q1030 NOSIG
ZBSJ,2015-01-17 07:00,ZBSJ 170700Z 16005MPS CAVOK 05/M13 Q1029 NOSIG
ZBSJ,2015-01-17 08:00,ZBSJ 170800Z 17003MPS 8000 NSC 04/M13 Q1028 NOSIG
ZBSJ,2015-01-17 09:00,ZBSJ 170900Z 15002MPS 6000 NSC 01/M12 Q1028 NOSIG
ZBSJ,2015-01-17 10:00,ZBSJ 171000Z 11001MPS 4000 HZ NSC M00/M11 Q1028 NOSIG
ZBSJ,2015-01-17 11:00,ZBSJ 171100Z 09002MPS 3000 FU NSC 00/M12 Q1028 NOSIG
ZBSJ,2015-01-17 12:00,ZBSJ 171200Z 10002MPS 2500 FU NSC M00/M11 Q1027 NOSIG
ZBSJ,2015-01-17 13:00,ZBSJ 171300Z 15001MPS 2500 FU NSC M01/M11 Q1027 NOSIG
ZBSJ,2015-01-17 14:00,ZBSJ 171400Z 13001MPS 2300 FU NSC M01/M10 Q1026 NOSIG
ZBSJ,2015-01-17 15:00,ZBSJ 171500Z 16001MPS 2300 FU NSC M01/M10 Q1025 NOSIG
ZBSJ,2015-01-17 16:00,ZBSJ 171600Z 26001MPS 2300 FU NSC M01/M10 Q1025 NOSIG
ZBSJ,2015-01-17 17:00,ZBSJ 171700Z 09001MPS 2300 FU NSC M01/M09 Q1023 NOSIG
ZBSJ,2015-01-17 18:00,ZBSJ 171800Z 33001MPS 2300 FU NSC M02/M09 Q1023 NOSIG
ZBSJ,2015-01-17 19:00,ZBSJ 171900Z 24002MPS 2300 FU NSC M02/M10 Q1022 NOSIG
ZBSJ,2015-01-17 20:00,ZBSJ 172000Z 28002MPS 2300 FU NSC M02/M10 Q1021 NOSIG
ZBSJ,2015-01-17 21:00,ZBSJ 172100Z 00000MPS 2500 FU NSC M05/M11 Q1021 NOSIG
ZBSJ,2015-01-17 22:00,ZBSJ 172200Z 21002MPS 2500 FU NSC M04/M11 Q1020 NOSIG
ZBSJ,2015-01-17 23:00,ZBSJ 172300Z 18003MPS 2200 FU NSC M06/M11 Q1020 NOSIG
ZBSJ,2015-01-18 00:00,ZBSJ 180000Z 19002MPS 2200 FU NSC M05/M11 Q1020 NOSIG
ZBSJ,2015-01-18 01:00,ZBSJ 180100Z 24001MPS 3000 FU NSC 02/M08 Q1020 NOSIG
ZBSJ,2015-01-18 02:00,ZBSJ 180200Z 30002MPS 240V340 4000 FU NSC 06/M09 Q1020 NOSIG
ZBSJ,2015-01-18 03:00,ZBSJ 180300Z 28009MPS CAVOK 09/M10 Q1019 NOSIG
ZBSJ,2015-01-18 04:00,ZBSJ 180400Z 28010MPS 9999 FEW033 09/M11 Q1019 NOSIG
ZBSJ,2015-01-18 05:00,ZBSJ 180500Z 28013MPS 9999 FEW033 09/M11 Q1018 NOSIG
ZBSJ,2015-01-18 06:00,ZBSJ 180600Z 29011G16MPS 9999 FEW033 10/M14 Q1019 NOSIG
ZBSJ,2015-01-18 07:00,ZBSJ 180700Z 30012G17MPS 9999 FEW033 09/M16 Q1020 NOSIG
ZBSJ,2015-01-18 08:00,ZBSJ 180800Z 31009MPS CAVOK 09/M16 Q1020 NOSIG
ZBSJ,2015-01-18 09:00,ZBSJ 180900Z 31007MPS CAVOK 07/M16 Q1021 NOSIG
ZBSJ,2015-01-18 10:00,ZBSJ 181000Z 30007MPS CAVOK 06/M16 Q1022 NOSIG
ZBSJ,2015-01-18 11:00,ZBSJ 181100Z 29005MPS CAVOK 05/M15 Q1023 NOSIG
ZBSJ,2015-01-18 12:00,ZBSJ 181200Z 29005MPS CAVOK 03/M16 Q1024 NOSIG
ZBSJ,2015-01-18 13:00,ZBSJ 181300Z 05002MPS CAVOK 00/M16 Q1024 NOSIG
ZBSJ,2015-01-18 14:00,ZBSJ 181400Z 30001MPS CAVOK M00/M14 Q1024 NOSIG
ZBSJ,2015-01-18 15:00,ZBSJ 181500Z 09001MPS 6000 NSC M03/M13 Q1025 NOSIG
ZBSJ,2015-01-18 16:00,ZBSJ 181600Z 09001MPS 4000 FU NSC M04/M14 Q1025 NOSIG
ZBSJ,2015-01-18 17:00,ZBSJ 181700Z 13002MPS 4000 FU NSC M02/M14 Q1025 NOSIG
ZBSJ,2015-01-18 18:00,ZBSJ 181800Z 15002MPS 4000 FU NSC M05/M15 Q1026 NOSIG
ZBSJ,2015-01-18 19:00,ZBSJ 181900Z 17001MPS 4000 FU NSC M05/M14 Q1026 NOSIG
ZBSJ,2015-01-18 20:00,ZBSJ 182000Z 21001MPS 4000 FU NSC M05/M14 Q1025 NOSIG
ZBSJ,2015-01-18 21:00,ZBSJ 182100Z 18001MPS 4000 FU NSC M06/M14 Q1025 NOSIG
ZBSJ,2015-01-18 22:00,ZBSJ 182200Z 32002MPS 5000 FU NSC M06/M14 Q1026 NOSIG
ZBSJ,2015-01-18 23:00,ZBSJ 182300Z 26001MPS 5000 FU NSC M07/M14 Q1026 NOSIG
ZBSJ,2015-01-19 00:00,ZBSJ 190000Z 28001MPS 1800 FU NSC M06/M13 Q1027 NOSIG
ZBSJ,2015-01-19 01:00,ZBSJ 190100Z 32002MPS 280V350 2000 FU NSC M02/M12 Q1027 BECMG 3500
ZBSJ,2015-01-19 02:00,ZBSJ 190200Z 22002MPS 3000 FU NSC 02/M13 Q1027 NOSIG
ZBSJ,2015-01-19 03:00,ZBSJ 190300Z 28001MPS 5000 FU NSC 06/M13 Q1027 NOSIG
ZBSJ,2015-01-19 04:00,ZBSJ 190400Z 10001MPS CAVOK 08/M13 Q1026 NOSIG
ZBSJ,2015-01-19 05:00,ZBSJ 190500Z 12002MPS 070V190 CAVOK 08/M13 Q1025 NOSIG
ZBSJ,2015-01-19 06:00,ZBSJ 190600Z 13005MPS CAVOK 09/M12 Q1023 NOSIG
ZBSJ,2015-01-19 07:00,ZBSJ 190700Z 17006MPS CAVOK 10/M13 Q1023 NOSIG
ZBSJ,2015-01-19 08:00,ZBSJ 190800Z 17005MPS CAVOK 10/M14 Q1022 NOSIG
ZBSJ,2015-01-19 09:00,ZBSJ 190900Z 14002MPS CAVOK 07/M13 Q1022 NOSIG
ZBSJ,2015-01-19 10:00,ZBSJ 191000Z 08002MPS 6000 NSC 04/M13 Q1022 NOSIG
ZBSJ,2015-01-19 11:00,ZBSJ 191100Z 06002MPS 3000 FU NSC 01/M14 Q1022 NOSIG
ZBSJ,2015-01-19 12:00,ZBSJ 191200Z 03002MPS 3000 FU NSC M00/M13 Q1022 NOSIG
ZBSJ,2015-01-19 13:00,ZBSJ 191300Z 01002MPS 3000 FU NSC M02/M12 Q1022 NOSIG
ZBSJ,2015-01-19 14:00,ZBSJ 191400Z 35002MPS 3000 FU NSC M01/M12 Q1023 NOSIG
ZBSJ,2015-01-19 15:00,ZBSJ 191500Z 02001MPS 3000 FU NSC M02/M13 Q1022 NOSIG
ZBSJ,2015-01-19 16:00,ZBSJ 191600Z 01001MPS 3000 FU NSC M03/M12 Q1022 NOSIG
ZBSJ,2015-01-19 17:00,ZBSJ 191700Z 33002MPS 3000 FU NSC M03/M12 Q1022 NOSIG
ZBSJ,2015-01-19 18:00,ZBSJ 191800Z 32003MPS 4000 FU NSC M04/M12 Q1021 NOSIG
ZBSJ,2015-01-19 19:00,ZBSJ 191900Z 32004MPS 4000 HZ NSC M05/M12 Q1021 NOSIG
ZBSJ,2015-01-19 20:00,ZBSJ 192000Z 34002MPS 4000 HZ NSC M06/M13 Q1021 NOSIG
ZBSJ,2015-01-19 21:00,ZBSJ 192100Z 35003MPS 3500 HZ NSC M05/M12 Q1021 NOSIG
ZBSJ,2015-01-19 22:00,ZBSJ 192200Z 01003MPS 4000 HZ NSC M03/M12 Q1021 NOSIG
ZBSJ,2015-01-19 23:00,ZBSJ 192300Z 02003MPS 5000 HZ NSC M03/M10 Q1021 NOSIG
ZBSJ,2015-01-20 00:00,ZBSJ 200000Z 03003MPS 3500 HZ NSC M03/M10 Q1021 NOSIG
ZBSJ,2015-01-20 01:00,ZBSJ 200100Z 03004MPS 6000 NSC M02/M08 Q1022 NOSIG
ZBSJ,2015-01-20 02:00,ZBSJ 200200Z 04004MPS 7000 NSC M00/M07 Q1022 NOSIG
ZBSJ,2015-01-20 03:00,ZBSJ 200300Z 04004MPS 7000 NSC 01/M07 Q1022 NOSIG
ZBSJ,2015-01-20 04:00,ZBSJ 200400Z 05003MPS 6000 NSC 03/M07 Q1021 NOSIG
ZBSJ,2015-01-20 05:00,ZBSJ 200500Z 04003MPS 010V100 8000 NSC 04/M07 Q1020 NOSIG
ZBSJ,2015-01-20 06:00,ZBSJ 200600Z 04003MPS 010V100 8000 NSC 04/M07 Q1019 NOSIG
ZBSJ,2015-01-20 07:00,ZBSJ 200700Z 06003MPS 7000 NSC 05/M07 Q1019 NOSIG
ZBSJ,2015-01-20 08:00,ZBSJ 200800Z 07003MPS 7000 NSC 05/M07 Q1019 NOSIG
ZBSJ,2015-01-20 09:00,ZBSJ 200900Z 04004MPS 5000 HZ NSC 02/M07 Q1020 NOSIG
ZBSJ,2015-01-20 10:00,ZBSJ 201000Z 04002MPS 4500 HZ NSC M00/M07 Q1022 NOSIG
ZBSJ,2015-01-20 11:00,ZBSJ 201100Z 01001MPS 4000 HZ NSC M01/M07 Q1022 NOSIG
ZBSJ,2015-01-20 12:00,ZBSJ 201200Z 30001MPS 3500 HZ NSC M02/M08 Q1023 NOSIG
ZBSJ,2015-01-20 13:00,ZBSJ 201300Z 31002MPS 2500 HZ NSC M02/M07 Q1024 NOSIG
ZBSJ,2015-01-20 14:00,ZBSJ 201400Z 28002MPS 2500 HZ NSC M00/M08 Q1024 NOSIG
ZBSJ,2015-01-20 15:00,ZBSJ 201500Z 32003MPS 2500 HZ NSC M03/M08 Q1025 NOSIG
ZBSJ,2015-01-20 16:00,ZBSJ 201600Z 32002MPS 2500 HZ NSC M03/M08 Q1025 NOSIG
ZBSJ,2015-01-20 17:00,ZBSJ 201700Z 31003MPS 3000 HZ NSC M04/M09 Q1025 NOSIG
ZBSJ,2015-01-20 18:00,ZBSJ 201800Z 30003MPS 3500 HZ NSC M03/M09 Q1025 NOSIG
ZBSJ,2015-01-20 19:00,ZBSJ 201900Z 33003MPS 3500 HZ NSC M04/M10 Q1025 NOSIG
ZBSJ,2015-01-20 20:00,ZBSJ 202000Z 35005MPS CAVOK 02/M10 Q1025 NOSIG
ZBSJ,2015-01-20 21:00,ZBSJ 202100Z 35006MPS CAVOK 02/M12 Q1026 NOSIG
ZBSJ,2015-01-20 22:00,ZBSJ 202200Z 35005MPS CAVOK 02/M13 Q1026 NOSIG
ZBSJ,2015-01-20 23:00,ZBSJ 202300Z 34005MPS CAVOK 00/M14 Q1027 NOSIG
ZBSJ,2015-01-21 00:00,ZBSJ 210000Z 33004MPS CAVOK M04/M13 Q1028 NOSIG
ZBSJ,2015-01-21 01:00,ZBSJ 210100Z 33003MPS CAVOK 03/M12 Q1029 NOSIG
ZBSJ,2015-01-21 02:00,ZBSJ 210200Z 35006MPS CAVOK 05/M13 Q1029 NOSIG
ZBSJ,2015-01-21 03:00,ZBSJ 210300Z 01005MPS 340V040 CAVOK 06/M13 Q1030 NOSIG
ZBSJ,2015-01-21 04:00,ZBSJ 210400Z 04003MPS 340V090 CAVOK 07/M13 Q1029 NOSIG
ZBSJ,2015-01-21 05:00,ZBSJ 210500Z 07003MPS 320V130 CAVOK 07/M13 Q1028 NOSIG
ZBSJ,2015-01-21 06:00,ZBSJ 210600Z 12002MPS 060V170 CAVOK 07/M13 Q1027 NOSIG
ZBSJ,2015-01-21 07:00,ZBSJ 210700Z 06002MPS CAVOK 07/M13 Q1027 NOSIG
ZBSJ,2015-01-21 08:00,ZBSJ 210800Z 09003MPS CAVOK 07/M14 Q1027 NOSIG
ZBSJ,2015-01-21 10:00,ZBSJ 211000Z 13002MPS 7000 NSC 02/M14 Q1028 NOSIG
ZBSJ,2015-01-21 11:00,ZBSJ 211100Z 12003MPS 5000 HZ NSC 00/M14 Q1028 NOSIG
ZBSJ,2015-01-21 12:00,ZBSJ 211200Z 14002MPS 5000 HZ NSC M01/M13 Q1029 NOSIG
ZBSJ,2015-01-21 13:00,ZBSJ 211300Z 16001MPS 4000 HZ NSC M03/M13 Q1029 NOSIG
ZBSJ,2015-01-21 14:00,ZBSJ 211400Z 08001MPS 2200 HZ NSC M05/M13 Q1029 NOSIG
ZBSJ,2015-01-21 15:00,ZBSJ 211500Z 09001MPS 2200 HZ NSC M05/M13 Q1029 NOSIG
ZBSJ,2015-01-21 16:00,ZBSJ 211600Z 13001MPS 1800 HZ NSC M06/M13 Q1029 NOSIG
ZBSJ,2015-01-21 17:00,ZBSJ 211700Z 15002MPS 1600 HZ NSC M06/M13 Q1028 NOSIG
ZBSJ,2015-01-21 18:00,ZBSJ 211800Z 17003MPS 1600 HZ NSC M05/M11 Q1028 NOSIG
ZBSJ,2015-01-21 19:00,ZBSJ 211900Z 21002MPS 3000 HZ NSC M06/M11 Q1028 NOSIG
ZBSJ,2015-01-21 20:00,ZBSJ 212000Z 20002MPS 3000 HZ NSC M06/M10 Q1028 NOSIG
ZBSJ,2015-01-21 21:00,ZBSJ 212100Z 23003MPS 2700 HZ NSC M06/M11 Q1027 NOSIG
ZBSJ,2015-01-21 22:00,ZBSJ 212200Z 25002MPS 2500 HZ NSC M07/M11 Q1027 NOSIG
ZBSJ,2015-01-21 23:00,ZBSJ 212300Z 21001MPS 2500 HZ NSC M09/M12 Q1027 NOSIG
ZBSJ,2015-01-22 00:00,ZBSJ 220000Z 01001MPS 1700 HZ NSC M10/M14 Q1027 NOSIG
ZBSJ,2015-01-22 01:00,ZBSJ 220100Z 00000MPS 1800 R15/1400D HZ NSC M04/M09 Q1027 NOSIG
ZBSJ,2015-01-22 02:00,ZBSJ 220200Z 00000MPS 2100 HZ NSC M01/M10 Q1027 NOSIG
ZBSJ,2015-01-22 03:00,ZBSJ 220300Z 29001MPS 2300 HZ NSC 01/M12 Q1026 NOSIG
ZBSJ,2015-01-22 04:00,ZBSJ 220400Z 21001MPS 3000 HZ NSC 04/M12 Q1025 NOSIG
ZBSJ,2015-01-22 05:00,ZBSJ 220500Z 14002MPS 090V180 4000 HZ NSC 05/M11 Q1024 NOSIG
ZBSJ,2015-01-22 06:00,ZBSJ 220600Z 17003MPS 110V200 2700 HZ NSC 05/M08 Q1023 NOSIG
ZBSJ,2015-01-22 07:00,ZBSJ 220700Z 18004MPS 2500 HZ NSC 07/M08 Q1022 NOSIG
ZBSJ,2015-01-22 08:00,ZBSJ 220800Z 21002MPS 170V240 3000 HZ NSC 06/M08 Q1022 NOSIG
ZBSJ,2015-01-22 09:00,ZBSJ 220900Z 17003MPS 6000 NSC 05/M09 Q1021 NOSIG
ZBSJ,2015-01-22 10:00,ZBSJ 221000Z 15002MPS 4000 HZ NSC 01/M10 Q1021 NOSIG
ZBSJ,2015-01-22 11:00,ZBSJ 221100Z 13002MPS 4000 HZ NSC 01/M10 Q1021 NOSIG
ZBSJ,2015-01-22 12:00,ZBSJ 221200Z 13002MPS 3000 HZ NSC M02/M11 Q1021 NOSIG
ZBSJ,2015-01-22 13:00,ZBSJ 221300Z 10001MPS 2700 HZ NSC M04/M10 Q1021 NOSIG
ZBSJ,2015-01-22 14:00,ZBSJ 221400Z 12001MPS 2000 HZ NSC M04/M10 Q1021 NOSIG
ZBSJ,2015-01-22 15:00,ZBSJ 221500Z 15002MPS 2200 HZ NSC M03/M10 Q1020 NOSIG
ZBSJ,2015-01-22 16:00,ZBSJ 221600Z 24001MPS 2200 HZ NSC M03/M10 Q1020 NOSIG
ZBSJ,2015-01-22 17:00,ZBSJ 221700Z 25001MPS 1800 HZ NSC M05/M10 Q1019 NOSIG
ZBSJ,2015-01-22 18:00,ZBSJ 221800Z 28002MPS 1600 HZ NSC M05/M10 Q1019 NOSIG
ZBSJ,2015-01-22 19:00,ZBSJ 221900Z 32002MPS 2500 HZ NSC M06/M12 Q1019 NOSIG
ZBSJ,2015-01-22 20:00,ZBSJ 222000Z 22002MPS 2500 HZ NSC M07/M13 Q1018 NOSIG
ZBSJ,2015-01-22 21:00,ZBSJ 222100Z 26001MPS 2500 HZ NSC M06/M12 Q1018 NOSIG
ZBSJ,2015-01-22 22:00,ZBSJ 222200Z 01001MPS 2500 HZ NSC M08/M13 Q1018 NOSIG
ZBSJ,2015-01-22 23:00,ZBSJ 222300Z 17002MPS 2500 HZ NSC M08/M13 Q1018 NOSIG
ZBSJ,2015-01-23 00:00,ZBSJ 230000Z 30002MPS 1700 HZ NSC M07/M12 Q1018 NOSIG
ZBSJ,2015-01-23 01:00,ZBSJ 230100Z 33001MPS 1800 HZ NSC M03/M10 Q1018 NOSIG
ZBSJ,2015-01-23 02:00,ZBSJ 230200Z 36002MPS 1600 R33/1400D HZ NSC M00/M10 Q1019 NOSIG
ZBSJ,2015-01-23 03:00,ZBSJ 230300Z 06003MPS 020V090 1500 R33/1200N HZ NSC 02/M09 Q1018 NOSIG
ZBSJ,2015-01-23 04:00,ZBSJ 230400Z 04002MPS 010V080 1600 HZ NSC 04/M09 Q1018 NOSIG
ZBSJ,2015-01-23 05:00,ZBSJ 230500Z 06003MPS 030V110 2000 HZ NSC 05/M10 Q1017 NOSIG
ZBSJ,2015-01-23 06:00,ZBSJ 230600Z 10002MPS 060V180 2300 HZ NSC 07/M09 Q1016 NOSIG
ZBSJ,2015-01-23 07:00,ZBSJ 230700Z 11003MPS 2300 HZ NSC 07/M09 Q1016 NOSIG
ZBSJ,2015-01-23 08:00,ZBSJ 230800Z 11002MPS 2300 HZ NSC 07/M10 Q1017 NOSIG
ZBSJ,2015-01-23 09:00,ZBSJ 230900Z 07001MPS 1600 HZ NSC 04/M09 Q1017 NOSIG
ZBSJ,2015-01-23 10:00,ZBSJ 231000Z 00000MPS 2000 HZ NSC 01/M11 Q1018 NOSIG
ZBSJ,2015-01-23 11:00,ZBSJ 231100Z 33001MPS 2000 HZ NSC M01/M10 Q1019 BECMG 1400 HZ
ZBSJ,2015-01-23 12:00,ZBSJ 231200Z 33001MPS 2000 HZ NSC M01/M10 Q1020 BECMG 1400 HZ
ZBSJ,2015-01-23 13:00,ZBSJ 231300Z 01001MPS 1800 HZ NSC M03/M11 Q1020 BECMG 1400 HZ
ZBSJ,2015-01-23 14:00,ZBSJ 231400Z 36001MPS 1400 R15/1500D HZ NSC M04/M10 Q1021 NOSIG
ZBSJ,2015-01-23 15:00,ZBSJ 231500Z 30001MPS 1300 R15/1500N HZ NSC M04/M10 Q1021 NOSIG
ZBSJ,2015-01-23 16:00,ZBSJ 231600Z 32002MPS 1200 R15/1400D HZ NSC M05/M10 Q1021 NOSIG
ZBSJ,2015-01-23 17:00,ZBSJ 231700Z 30001MPS 1200 R15/1700N HZ NSC M05/M10 Q1021 NOSIG
ZBSJ,2015-01-23 18:00,ZBSJ 231800Z 30002MPS 1500 HZ NSC M05/M10 Q1022 NOSIG
ZBSJ,2015-01-23 19:00,ZBSJ 231900Z 32002MPS 1500 HZ NSC M05/M11 Q1023 NOSIG
ZBSJ,2015-01-23 20:00,ZBSJ 232000Z 35001MPS 1600 HZ NSC M06/M11 Q1023 NOSIG
ZBSJ,2015-01-23 21:00,ZBSJ 232100Z 01001MPS 1800 HZ NSC M05/M11 Q1023 NOSIG
ZBSJ,2015-01-23 22:00,ZBSJ 232200Z 30002MPS 1800 HZ NSC M06/M11 Q1024 NOSIG
ZBSJ,2015-01-23 23:00,ZBSJ 232300Z 27002MPS 1800 HZ NSC M06/M10 Q1025 NOSIG
ZBSJ,2015-01-24 00:00,ZBSJ 240000Z 30002MPS 1300 HZ NSC M05/M09 Q1026
ZBSJ,2015-01-24 01:00,ZBSJ 240100Z 34003MPS 1300 R33/1300D HZ NSC M03/M09 Q1026 BECMG 1600
ZBSJ,2015-01-24 02:00,ZBSJ 240200Z 04004MPS 1600 HZ NSC 01/M10 Q1025 NOSIG
ZBSJ,2015-01-24 03:00,ZBSJ 240300Z 04002MPS 010V070 1700 HZ NSC 02/M09 Q1026 NOSIG
ZBSJ,2015-01-24 04:00,ZBSJ 240400Z 35002MPS 1700 HZ NSC 02/M09 Q1026 NOSIG
ZBSJ,2015-01-24 05:00,ZBSJ 240500Z 04004MPS 2000 HZ NSC 03/M07 Q1025 NOSIG
ZBSJ,2015-01-24 06:00,ZBSJ 240600Z 05004MPS 2000 HZ NSC 03/M05 Q1025 NOSIG
ZBSJ,2015-01-24 07:00,ZBSJ 240700Z 05003MPS 2000 HZ NSC 03/M05 Q1025 NOSIG
ZBSJ,2015-01-24 08:00,ZBSJ 240800Z 02003MPS 2000 HZ NSC 03/M05 Q1025 NOSIG
ZBSJ,2015-01-24 09:00,ZBSJ 240900Z 01004MPS 1600 -SN BR OVC046 01/M02 Q1026 BECMG TL1000 1400 -SN BR
ZBSJ,2015-01-24 10:00,ZBSJ 241000Z 03004MPS 2000 -SN BR OVC046 M00/M01 Q1026 NOSIG
ZBSJ,2015-01-24 11:00,ZBSJ 241100Z 02003MPS 1800 -SN BR OVC046 M00/M00 Q1027 NOSIG
ZBSJ,2015-01-24 12:00,ZBSJ 241200Z 02002MPS 2500 -SN BR OVC046 M00/M00 Q1027 NOSIG
ZBSJ,2015-01-24 13:00,ZBSJ 241300Z 01002MPS 2700 -SN BR OVC046 M00/M01 Q1028 NOSIG
ZBSJ,2015-01-24 14:00,ZBSJ 241400Z 04002MPS 2800 -SN BR OVC046 M00/M01 Q1028 NOSIG
ZBSJ,2015-01-24 15:00,ZBSJ 241500Z 02001MPS 2700 BR OVC046 M00/M01 Q1028 NOSIG
ZBSJ,2015-01-24 16:00,ZBSJ 241600Z 04001MPS 2700 BR OVC046 M01/M01 Q1027 NOSIG
ZBSJ,2015-01-24 17:00,ZBSJ 241700Z 04001MPS 2500 BR OVC046 M01/M01 Q1027 NOSIG
ZBSJ,2015-01-24 18:00,ZBSJ 241800Z 04001MPS 2300 BR OVC046 M01/M01 Q1027 NOSIG
ZBSJ,2015-01-24 19:00,ZBSJ 241900Z 15001MPS 2300 BR OVC046 M01/M01 Q1027 NOSIG
ZBSJ,2015-01-24 20:00,ZBSJ 242000Z 07002MPS 2300 BR OVC046 M01/M01 Q1026 NOSIG
ZBSJ,2015-01-24 21:00,ZBSJ 242100Z 10001MPS 2500 BR OVC046 M01/M01 Q1026 NOSIG
ZBSJ,2015-01-24 22:00,ZBSJ 242200Z 13001MPS 2700 BR OVC046 M02/M02 Q1026 NOSIG
ZBSJ,2015-01-24 23:00,ZBSJ 242300Z 17001MPS 3000 BR OVC046 M02/M02 Q1026 NOSIG
ZBSJ,2015-01-25 00:00,ZBSJ 250000Z 18001MPS 1600 BR OVC046 M02/M02 Q1027 BECMG 3000
ZBSJ,2015-01-25 01:00,ZBSJ 250100Z 17002MPS 1800 BR OVC046 M01/M02 Q1027 NOSIG
ZBSJ,2015-01-25 02:00,ZBSJ 250200Z 17002MPS 2700 BR NSC M01/M02 Q1027 NOSIG
ZBSJ,2015-01-25 03:00,ZBSJ 250300Z 19002MPS 3000 BR NSC 00/M02 Q1027 NOSIG
ZBSJ,2015-01-25 04:00,ZBSJ 250400Z 19002MPS 1600 R15/1400U BR NSC 01/M01 Q1026 NOSIG
ZBSJ,2015-01-25 05:00,ZBSJ 250500Z 19002MPS 1800 R15/1400N BR NSC 02/M01 Q1025 NOSIG
ZBSJ,2015-01-25 06:00,ZBSJ 250600Z 17002MPS 140V230 2000 BR NSC 03/M01 Q1023 NOSIG
ZBSJ,2015-01-25 07:00,ZBSJ 250700Z 18003MPS 2000 HZ NSC 03/M01 Q1023 NOSIG
ZBSJ,2015-01-25 08:00,ZBSJ 250800Z 18004MPS 1800 BR NSC 02/M02 Q1023 NOSIG
ZBSJ,2015-01-25 09:00,ZBSJ 250900Z 20003MPS 1600 BR NSC 01/M02 Q1023 NOSIG
ZBSJ,2015-01-25 10:00,ZBSJ 251000Z 19002MPS 2000 BR NSC M00/M02 Q1024 NOSIG
ZBSJ,2015-01-25 11:00,ZBSJ 251100Z 19002MPS 2500 BR NSC M01/M02 Q1024 NOSIG
ZBSJ,2015-01-25 12:00,ZBSJ 251200Z 16002MPS 2000 BR NSC M02/M03 Q1025 NOSIG
ZBSJ,2015-01-25 13:00,ZBSJ 251300Z 17002MPS 2000 BR NSC M02/M03 Q1025 NOSIG
ZBSJ,2015-01-25 14:00,ZBSJ 251400Z 17001MPS 1600 BR NSC M04/M05 Q1025 NOSIG
ZBSJ,2015-01-25 15:00,ZBSJ 251500Z 18001MPS 1400 R15/1500N BR NSC M05/M05 Q1025 NOSIG
ZBSJ,2015-01-25 16:00,ZBSJ 251600Z 19001MPS 0900 R15/1100N FZFG NSC M05/M05 Q1024 NOSIG
ZBSJ,2015-01-25 17:00,ZBSJ 251700Z 13001MPS 0900 R15/1000N FZFG NSC M05/M06 Q1025 NOSIG
ZBSJ,2015-01-25 18:00,ZBSJ 251800Z 18004MPS 0900 R15/1400U FZFG NSC M05/M05 Q1023 NOSIG
ZBSJ,2015-01-25 19:00,ZBSJ 251900Z 26001MPS 0700 R15/1000D FZFG NSC M05/M05 Q1022 NOSIG
ZBSJ,2015-01-25 20:00,ZBSJ 252000Z 34002MPS 0500 R15/0175V0325N FZFG NSC M04/M04 Q1023 NOSIG
ZBSJ,2015-01-25 21:00,ZBSJ 252100Z 30001MPS 0200 R15/0125N FZFG VV006 M04/M04 Q1022 NOSIG
ZBSJ,2015-01-25 22:00,ZBSJ 252200Z 23001MPS 0100 R15/0125N FZFG VV003 M04/M04 Q1023 NOSIG
ZBSJ,2015-01-25 23:00,ZBSJ 252300Z 26001MPS 0100 R15/0150N FZFG VV003 M03/M03 Q1023 NOSIG
ZBSJ,2015-01-26 00:00,ZBSJ 260000Z 20001MPS 0100 R15/0125N FZFG VV003 M02/M02 Q1024 NOSIG
ZBSJ,2015-01-26 01:00,ZBSJ 260100Z 01001MPS 0050 R15/0125N FZFG VV001 M02/M02 Q1026 NOSIG
ZBSJ,2015-01-26 02:00,ZBSJ 260200Z 04002MPS 360V070 0050 R15/0125N FZFG VV001 M02/M02 Q1027 NOSIG
ZBSJ,2015-01-26 03:00,ZBSJ 260300Z 03002MPS 0050 R15/0150N FZFG VV001 M02/M02 Q1027 NOSIG
ZBSJ,2015-01-26 04:00,ZBSJ 260400Z 04004MPS 0400 R33/0600U FZFG NSC M01/M01 Q1027 BECMG 1500
ZBSJ,2015-01-26 05:00,ZBSJ 260500Z 05004MPS 0700 R33/0800N FG NSC 01/01 Q1027 BECMG 1500
ZBSJ,2015-01-26 06:00,ZBSJ 260600Z 07003MPS 0800 R33/0900N FG NSC 01/M00 Q1028 BECMG 1500
ZBSJ,2015-01-26 07:00,ZBSJ 260700Z 08003MPS 1000 R33/1000N BR NSC 02/M01 Q1028 BECMG 1500
ZBSJ,2015-01-26 08:00,ZBSJ 260800Z 10002MPS 1100 R33/1500N BR NSC 02/M02 Q1029 NOSIG
ZBSJ,2015-01-26 09:00,ZBSJ 260900Z 00000MPS 1300 R33/1700N HZ NSC 02/M02 Q1031 NOSIG
ZBSJ,2015-01-26 10:00,ZBSJ 261000Z 35003MPS 1600 BR NSC 01/M02 Q1032 NOSIG
ZBSJ,2015-01-26 11:00,ZBSJ 261100Z 02002MPS 1800 BR NSC 01/M03 Q1033 NOSIG
ZBSJ,2015-01-26 12:00,ZBSJ 261200Z 03003MPS 2500 BR NSC M01/M04 Q1034 NOSIG
ZBSJ,2015-01-26 13:00,ZBSJ 261300Z 04003MPS 8000 NSC 00/M10 Q1035 NOSIG
ZBSJ,2015-01-26 14:00,ZBSJ 261400Z 06002MPS CAVOK M00/M10 Q1036 NOSIG
ZBSJ,2015-01-26 15:00,ZBSJ 261500Z 07002MPS CAVOK M01/M10 Q1036 NOSIG
ZBSJ,2015-01-26 16:00,ZBSJ 261600Z 16001MPS CAVOK M01/M12 Q1037 NOSIG
ZBSJ,2015-01-26 17:00,ZBSJ 261700Z 16001MPS CAVOK M01/M13 Q1037 NOSIG
ZBSJ,2015-01-26 18:00,ZBSJ 261800Z 09002MPS CAVOK M01/M13 Q1037 NOSIG
ZBSJ,2015-01-26 19:00,ZBSJ 261900Z 13002MPS CAVOK M02/M13 Q1037 NOSIG
ZBSJ,2015-01-26 20:00,ZBSJ 262000Z 10002MPS CAVOK M03/M15 Q1036 NOSIG
ZBSJ,2015-01-26 21:00,ZBSJ 262100Z 08002MPS CAVOK M06/M15 Q1036 NOSIG
ZBSJ,2015-01-26 22:00,ZBSJ 262200Z 12002MPS CAVOK M06/M16 Q1037 NOSIG
ZBSJ,2015-01-26 23:00,ZBSJ 262300Z 14002MPS CAVOK M07/M15 Q1037 NOSIG
ZBSJ,2015-01-27 00:00,ZBSJ 270000Z 15001MPS CAVOK M07/M16 Q1038 NOSIG
ZBSJ,2015-01-27 01:00,ZBSJ 270100Z 09001MPS 7000 NSC M05/M13 Q1038 NOSIG
ZBSJ,2015-01-27 02:00,ZBSJ 270200Z 15002MPS 120V180 7000 NSC M02/M15 Q1038 NOSIG
ZBSJ,2015-01-27 03:00,ZBSJ 270300Z 17002MPS 7000 NSC M01/M15 Q1038 NOSIG
ZBSJ,2015-01-27 04:00,ZBSJ 270400Z 21002MPS 140V300 CAVOK 00/M17 Q1037 NOSIG
ZBSJ,2015-01-27 05:00,ZBSJ 270500Z 15001MPS CAVOK 01/M17 Q1036 NOSIG
ZBSJ,2015-01-27 06:00,ZBSJ 270600Z 12002MPS CAVOK 02/M18 Q1034 NOSIG
ZBSJ,2015-01-27 07:00,ZBSJ 270700Z 12002MPS CAVOK 02/M18 Q1034 NOSIG
ZBSJ,2015-01-27 08:00,ZBSJ 270800Z 15003MPS CAVOK 01/M18 Q1034 NOSIG
ZBSJ,2015-01-27 09:00,ZBSJ 270900Z 15003MPS CAVOK M01/M16 Q1034 NOSIG
ZBSJ,2015-01-27 10:00,ZBSJ 271000Z 17002MPS 7000 NSC M03/M16 Q1034 NOSIG
ZBSJ,2015-01-27 11:00,ZBSJ 271100Z 14001MPS 7000 NSC M04/M16 Q1035 NOSIG
ZBSJ,2015-01-27 12:00,ZBSJ 271200Z 18001MPS 7000 NSC M04/M15 Q1035 NOSIG
ZBSJ,2015-01-27 13:00,ZBSJ 271300Z 13001MPS 6000 NSC M04/M14 Q1036 NOSIG
ZBSJ,2015-01-27 14:00,ZBSJ 271400Z 10002MPS 4500 HZ NSC M04/M13 Q1036 NOSIG
ZBSJ,2015-01-27 15:00,ZBSJ 271500Z 08001MPS 3000 HZ NSC M04/M13 Q1036 NOSIG
ZBSJ,2015-01-27 16:00,ZBSJ 271600Z 25001MPS 3000 HZ NSC M04/M13 Q1036 NOSIG
ZBSJ,2015-01-27 17:00,ZBSJ 271700Z 16002MPS 3000 HZ NSC M04/M13 Q1036 NOSIG
ZBSJ,2015-01-27 18:00,ZBSJ 271800Z 15001MPS 3000 HZ NSC M05/M13 Q1035 NOSIG
ZBSJ,2015-01-27 19:00,ZBSJ 271900Z 19001MPS 2500 HZ NSC M06/M13 Q1035 NOSIG
ZBSJ,2015-01-27 20:00,ZBSJ 272000Z 07001MPS 2500 HZ NSC M09/M14 Q1035 NOSIG
ZBSJ,2015-01-27 21:00,ZBSJ 272100Z 13001MPS 2500 HZ NSC M08/M14 Q1035 NOSIG
ZBSJ,2015-01-27 22:00,ZBSJ 272200Z 31001MPS 2300 HZ NSC M09/M14 Q1035 NOSIG
ZBSJ,2015-01-27 23:00,ZBSJ 272300Z 33001MPS 2100 HZ NSC M09/M14 Q1035 NOSIG
ZBSJ,2015-01-28 00:00,ZBSJ 280000Z 05002MPS 1000 R15/1400D HZ NSC M08/M12 Q1035 BECMG 2000
ZBSJ,2015-01-28 01:00,ZBSJ 280100Z 14001MPS 0800 R15/1000N HZ NSC M05/M11 Q1035 NOSIG
ZBSJ,2015-01-28 02:00,ZBSJ 280200Z 19001MPS 1000 R15/1400U HZ NSC M02/M12 Q1036 BECMG 1600
ZBSJ,2015-01-28 03:00,ZBSJ 280300Z 18002MPS 4500 HZ NSC M00/M15 Q1036 NOSIG
ZBSJ,2015-01-28 04:00,ZBSJ 280400Z 14002MPS 090V220 5000 HZ NSC 00/M17 Q1035 NOSIG
ZBSJ,2015-01-28 05:00,ZBSJ 280500Z 13002MPS 090V170 7000 NSC 01/M19 Q1034 NOSIG
ZBSJ,2015-01-28 06:00,ZBSJ 280600Z 15003MPS 120V180 CAVOK 01/M19 Q1033 NOSIG
ZBSJ,2015-01-28 07:00,ZBSJ 280700Z 17003MPS 120V210 CAVOK 01/M19 Q1032 NOSIG
ZBSJ,2015-01-28 08:00,ZBSJ 280800Z 17004MPS 130V210 CAVOK 01/M19 Q1032 NOSIG
ZBSJ,2015-01-28 09:00,ZBSJ 280900Z 14002MPS CAVOK 00/M19 Q1032 NOSIG
ZBSJ,2015-01-28 10:00,ZBSJ 281000Z 14002MPS CAVOK M01/M16 Q1032 NOSIG
ZBSJ,2015-01-28 11:00,ZBSJ 281100Z 18003MPS CAVOK M01/M16 Q1032 NOSIG
ZBSJ,2015-01-28 12:00,ZBSJ 281200Z 19003MPS CAVOK M01/M16 Q1032 NOSIG
ZBSJ,2015-01-28 13:00,ZBSJ 281300Z 19003MPS 7000 NSC M01/M15 Q1033 NOSIG
ZBSJ,2015-01-28 14:00,ZBSJ 281400Z 18003MPS 5000 HZ NSC M01/M14 Q1033 NOSIG
ZBSJ,2015-01-28 15:00,ZBSJ 281500Z 18003MPS 5000 HZ NSC M02/M13 Q1032 NOSIG
ZBSJ,2015-01-28 16:00,ZBSJ 281600Z 16001MPS 5000 HZ NSC M02/M12 Q1032 NOSIG
ZBSJ,2015-01-28 17:00,ZBSJ 281700Z 22003MPS 190V260 7000 -SN OVC040 M01/M09 Q1031 NOSIG
ZBSJ,2015-01-28 18:00,ZBSJ 281800Z 24002MPS 8000 OVC046 M03/M08 Q1031 NOSIG
ZBSJ,2015-01-28 19:00,ZBSJ 281900Z 27002MPS 8000 -SN OVC046 M03/M06 Q1030 NOSIG
ZBSJ,2015-01-28 20:00,ZBSJ 282000Z 20001MPS 8000 -SN OVC046 M03/M06 Q1029 NOSIG
ZBSJ,2015-01-28 21:00,ZBSJ 282100Z 18003MPS 8000 OVC046 M03/M07 Q1029 NOSIG
ZBSJ,2015-01-28 22:00,ZBSJ 282200Z 22001MPS 8000 OVC046 M04/M07 Q1028 NOSIG
ZBSJ,2015-01-28 23:00,ZBSJ 282300Z 17001MPS 7000 OVC046 M04/M07 Q1029 NOSIG
ZBSJ,2015-01-29 00:00,ZBSJ 290000Z 06002MPS 3500 BR NSC M05/M08 Q1029 NOSIG
ZBSJ,2015-01-29 01:00,ZBSJ 290100Z 03002MPS 2200 BR NSC M04/M06 Q1030 NOSIG
ZBSJ,2015-01-29 02:00,ZBSJ 290200Z 03001MPS 2500 HZ NSC M02/M06 Q1030 BECMG 3500
ZBSJ,2015-01-29 03:00,ZBSJ 290300Z 34001MPS 3500 HZ NSC M00/M05 Q1030 NOSIG
ZBSJ,2015-01-29 04:00,ZBSJ 290400Z 28002MPS 5000 HZ NSC 00/M06 Q1029 NOSIG
ZBSJ,2015-01-29 05:00,ZBSJ 290500Z 29002MPS 5000 HZ NSC 02/M06 Q1028 NOSIG
ZBSJ,2015-01-29 06:00,ZBSJ 290600Z 29001MPS 4000 HZ NSC 04/M06 Q1027 NOSIG
ZBSJ,2015-01-29 07:00,ZBSJ 290700Z 22001MPS 3500 HZ NSC 04/M08 Q1027 NOSIG
ZBSJ,2015-01-29 08:00,ZBSJ 290800Z 13001MPS 5000 HZ NSC 05/M09 Q1027 NOSIG
ZBSJ,2015-01-29 09:00,ZBSJ 290900Z 13002MPS 5000 HZ NSC 04/M09 Q1027 BECMG 2800 HZ
ZBSJ,2015-01-29 10:00,ZBSJ 291000Z 15001MPS 4000 HZ NSC 00/M09 Q1028 BECMG 2800 HZ
ZBSJ,2015-01-29 11:00,ZBSJ 291100Z 13001MPS 3500 HZ NSC M01/M08 Q1029 BECMG 2800 HZ
ZBSJ,2015-01-29 12:00,ZBSJ 291200Z 04001MPS 2500 HZ NSC M04/M08 Q1030 BECMG 1400 HZ
ZBSJ,2015-01-29 13:00,ZBSJ 291300Z 03002MPS 360V060 2300 HZ NSC M04/M09 Q1031 NOSIG
ZBSJ,2015-01-29 14:00,ZBSJ 291400Z 02001MPS 1800 HZ NSC M05/M09 Q1032 NOSIG
ZBSJ,2015-01-29 15:00,ZBSJ 291500Z 32001MPS 1600 HZ NSC M07/M10 Q1033 BECMG 1400 HZ
ZBSJ,2015-01-29 16:00,ZBSJ 291600Z 32002MPS 1600 BR NSC M07/M10 Q1033 NOSIG
ZBSJ,2015-01-29 17:00,ZBSJ 291700Z 33002MPS 2200 HZ NSC M06/M13 Q1033 NOSIG
ZBSJ,2015-01-29 18:00,ZBSJ 291800Z 35004MPS CAVOK M05/M16 Q1033 NOSIG
ZBSJ,2015-01-29 19:00,ZBSJ 291900Z 34004MPS CAVOK M05/M17 Q1033 NOSIG
ZBSJ,2015-01-29 20:00,ZBSJ 292000Z 33004MPS CAVOK M06/M18 Q1033 NOSIG
ZBSJ,2015-01-29 21:00,ZBSJ 292100Z 33002MPS CAVOK M08/M17 Q1034 NOSIG
ZBSJ,2015-01-29 22:00,ZBSJ 292200Z 34003MPS 320V020 CAVOK M06/M17 Q1034 NOSIG
ZBSJ,2015-01-29 23:00,ZBSJ 292300Z 05001MPS CAVOK M08/M18 Q1035 NOSIG
ZBSJ,2015-01-30 00:00,ZBSJ 300000Z 22002MPS 3500 FU NSC M09/M17 Q1036 BECMG 2500 FU
ZBSJ,2015-01-30 01:00,ZBSJ 300100Z 23003MPS 220V290 4000 FU NSC M03/M14 Q1037 BECMG 36005MPS
ZBSJ,2015-01-30 02:00,ZBSJ 300200Z 31002MPS 270V360 8000 NSC 01/M17 Q1037 NOSIG
ZBSJ,2015-01-30 03:00,ZBSJ 300300Z 33006MPS CAVOK 03/M18 Q1037 NOSIG
ZBSJ,2015-01-30 04:00,ZBSJ 300400Z 31003MPS 260V360 CAVOK 03/M18 Q1036 NOSIG
ZBSJ,2015-01-30 05:00,ZBSJ 300500Z 29002MPS CAVOK 03/M17 Q1035 NOSIG
ZBSJ,2015-01-30 06:00,ZBSJ 300600Z 28002MPS 230V330 CAVOK 04/M18 Q1034 NOSIG
ZBSJ,2015-01-30 07:00,ZBSJ 300700Z 29002MPS 250V350 CAVOK 05/M18 Q1034 NOSIG
ZBSJ,2015-01-30 08:00,ZBSJ 300800Z 06001MPS CAVOK 04/M19 Q1034 NOSIG
ZBSJ,2015-01-30 09:00,ZBSJ 300900Z 11001MPS CAVOK 04/M19 Q1034 NOSIG
ZBSJ,2015-01-30 10:00,ZBSJ 301000Z 13004MPS 6000 NSC 00/M17 Q1035 NOSIG
ZBSJ,2015-01-30 11:00,ZBSJ 301100Z 14003MPS 6000 NSC M02/M15 Q1036 NOSIG
ZBSJ,2015-01-30 12:00,ZBSJ 301200Z 17002MPS 5000 HZ NSC M03/M16 Q1037 NOSIG
ZBSJ,2015-01-30 13:00,ZBSJ 301300Z 08002MPS 4000 HZ NSC M07/M16 Q1038 NOSIG
ZBSJ,2015-01-30 14:00,ZBSJ 301400Z 14002MPS 3500 HZ NSC M06/M16 Q1038 NOSIG
ZBSJ,2015-01-30 15:00,ZBSJ 301500Z 08001MPS 2500 HZ NSC M08/M16 Q1038 NOSIG
ZBSJ,2015-01-30 16:00,ZBSJ 301600Z 10002MPS 2000 HZ NSC M08/M16 Q1038 NOSIG
ZBSJ,2015-01-30 17:00,ZBSJ 301700Z 09002MPS 2000 HZ NSC M07/M16 Q1039 NOSIG
ZBSJ,2015-01-30 18:00,ZBSJ 301800Z 14001MPS 1800 HZ NSC M08/M16 Q1039 NOSIG
ZBSJ,2015-01-30 19:00,ZBSJ 301900Z 30002MPS 1800 HZ NSC M09/M17 Q1039 NOSIG
ZBSJ,2015-01-30 20:00,ZBSJ 302000Z 36002MPS 1800 HZ NSC M10/M16 Q1039 NOSIG
ZBSJ,2015-01-30 21:00,ZBSJ 302100Z 24002MPS 1800 HZ NSC M09/M15 Q1038 NOSIG
ZBSJ,2015-01-30 22:00,ZBSJ 302200Z 31002MPS 1800 HZ NSC M08/M16 Q1039 NOSIG
ZBSJ,2015-01-30 23:00,ZBSJ 302300Z 28001MPS 2500 HZ NSC M10/M16 Q1039 NOSIG
ZBSJ,2015-01-31 00:00,ZBSJ 310000Z 31002MPS 2500 HZ NSC M08/M15 Q1040 BECMG 3500
ZBSJ,2015-01-31 01:00,ZBSJ 310100Z 35002MPS 2500 HZ NSC M05/M14 Q1040 BECMG 3500
ZBSJ,2015-01-31 02:00,ZBSJ 310200Z 04002MPS 2200 HZ NSC M03/M14 Q1040 BECMG 3500
ZBSJ,2015-01-31 03:00,ZBSJ 310300Z 11002MPS 1700 R33/1400N HZ NSC M00/M14 Q1040 NOSIG
ZBSJ,2015-01-31 04:00,ZBSJ 310400Z 11002MPS 070V160 1800 HZ NSC 01/M15 Q1039 BECMG 3500
ZBSJ,2015-01-31 05:00,ZBSJ 310500Z 10002MPS 2300 HZ NSC 02/M15 Q1038 NOSIG
ZBSJ,2015-01-31 06:00,ZBSJ 310600Z 09002MPS 2000 HZ NSC 03/M14 Q1036 NOSIG
ZBSJ,2015-01-31 07:00,ZBSJ 310700Z 18003MPS 2200 HZ NSC 04/M14 Q1036 BECMG 3500
ZBSJ,2015-01-31 08:00,ZBSJ 310800Z 19004MPS 3000 HZ NSC 04/M13 Q1035 BECMG 2500
ZBSJ,2015-01-31 09:00,ZBSJ 310900Z 18002MPS 2500 HZ NSC 02/M13 Q1035 NOSIG
ZBSJ,2015-01-31 10:00,ZBSJ 311000Z 17002MPS 2500 HZ NSC M00/M11 Q1036 NOSIG
ZBSJ,2015-01-31 11:00,ZBSJ 311100Z 14001MPS 2500 HZ NSC M03/M12 Q1036 BECMG 1400
ZBSJ,2015-01-31 12:00,ZBSJ 311200Z 09001MPS 2500 HZ NSC M05/M13 Q1036 BECMG 1400
ZBSJ,2015-01-31 13:00,ZBSJ 311300Z 08001MPS 2200 HZ NSC M04/M12 Q1036 NOSIG
ZBSJ,2015-01-31 14:00,ZBSJ 311400Z 12001MPS 2000 HZ NSC M06/M12 Q1036 NOSIG
ZBSJ,2015-01-31 15:00,ZBSJ 311500Z 13001MPS 1700 HZ NSC M07/M12 Q1036 NOSIG
ZBSJ,2015-01-31 16:00,ZBSJ 311600Z 16001MPS 1700 HZ NSC M06/M13 Q1036 NOSIG
ZBSJ,2015-01-31 17:00,ZBSJ 311700Z 17001MPS 1700 HZ NSC M07/M13 Q1036 NOSIG
ZBSJ,2015-01-31 18:00,ZBSJ 311800Z 34001MPS 1700 HZ NSC M08/M14 Q1036 NOSIG
ZBSJ,2015-01-31 19:00,ZBSJ 311900Z 07001MPS 1700 HZ NSC M08/M13 Q1036 NOSIG
ZBSJ,2015-01-31 20:00,ZBSJ 312000Z 31001MPS 1700 HZ NSC M08/M14 Q1035 NOSIG
ZBSJ,2015-01-31 21:00,ZBSJ 312100Z 00000MPS 2000 HZ NSC M08/M13 Q1035 NOSIG
ZBSJ,2015-01-31 22:00,ZBSJ 312200Z 27001MPS 2500 HZ NSC M09/M15 Q1034 NOSIG
ZBSJ,2015-01-31 23:00,ZBSJ 312300Z 33002MPS 2200 HZ NSC M07/M13 Q1034 NOSIG
ZBSJ,2015-02-01 00:00,ZBSJ 010000Z 33002MPS 1800 HZ NSC M07/M13 Q1035 NOSIG
ZBSJ,2015-02-01 01:00,ZBSJ 010100Z 02001MPS 1800 HZ NSC M04/M12 Q1035 NOSIG
ZBSJ,2015-02-01 02:00,ZBSJ 010200Z 09002MPS 1500 R15/1300N HZ NSC M03/M12 Q1036 NOSIG
ZBSJ,2015-02-01 03:00,ZBSJ 010300Z 00000MPS 1200 R15/1100N HZ NSC M01/M12 Q1036 NOSIG
ZBSJ,2015-02-01 04:00,ZBSJ 010400Z 25001MPS 1200 R15/1100N HZ NSC 00/M13 Q1035 NOSIG
ZBSJ,2015-02-01 05:00,ZBSJ 010500Z 13001MPS 1200 R15/1100N HZ NSC 02/M13 Q1034 NOSIG
ZBSJ,2015-02-01 06:00,ZBSJ 010600Z 18003MPS 2000 R15/1400V1700U HZ NSC 03/M13 Q1033 NOSIG
ZBSJ,2015-02-01 07:00,ZBSJ 010700Z 17004MPS 150V210 2700 HZ NSC 04/M13 Q1032 NOSIG
ZBSJ,2015-02-01 08:00,ZBSJ 010800Z 18004MPS 3500 HZ NSC 03/M13 Q1032 NOSIG
ZBSJ,2015-02-01 09:00,ZBSJ 010900Z 18003MPS 4500 HZ NSC 02/M14 Q1032 BECMG 2500 HZ
ZBSJ,2015-02-01 10:00,ZBSJ 011000Z 17002MPS 4500 HZ NSC 01/M14 Q1032 BECMG 2500 HZ
ZBSJ,2015-02-01 11:00,ZBSJ 011100Z 17002MPS 5000 HZ NSC M00/M14 Q1033 BECMG 2500 HZ
ZBSJ,2015-02-01 12:00,ZBSJ 011200Z 16002MPS 4500 HZ NSC M01/M13 Q1033 BECMG 2500 HZ
ZBSJ,2015-02-01 13:00,ZBSJ 011300Z 09001MPS 4000 HZ NSC M03/M12 Q1033 BECMG 2500 HZ
ZBSJ,2015-02-01 14:00,ZBSJ 011400Z 07001MPS 2500 FU NSC M05/M13 Q1034 BECMG 1400 HZ
ZBSJ,2015-02-01 15:00,ZBSJ 011500Z 07001MPS 2200 FU NSC M05/M13 Q1034 BECMG 1400 HZ
ZBSJ,2015-02-01 16:00,ZBSJ 011600Z 02001MPS 2000 FU NSC M06/M12 Q1033 BECMG 1400 HZ
ZBSJ,2015-02-01 17:00,ZBSJ 011700Z 00000MPS 1800 FU NSC M07/M13 Q1033 NOSIG
ZBSJ,2015-02-01 18:00,ZBSJ 011800Z 01001MPS 1800 FU NSC M07/M13 Q1033 NOSIG
ZBSJ,2015-02-01 19:00,ZBSJ 011900Z 36001MPS 1800 FU NSC M07/M13 Q1033 NOSIG
ZBSJ,2015-02-01 20:00,ZBSJ 012000Z 26001MPS 1800 FU NSC M08/M13 Q1033 NOSIG
ZBSJ,2015-02-01 21:00,ZBSJ 012100Z 34001MPS 1600 FU NSC M08/M14 Q1032 NOSIG
ZBSJ,2015-02-01 22:00,ZBSJ 012200Z 32001MPS 1600 FU NSC M09/M13 Q1032 NOSIG
ZBSJ,2015-02-01 23:00,ZBSJ 012300Z 29002MPS 2000 FU NSC M09/M14 Q1033 BECMG TL2340 1400 HZ
ZBSJ,2015-02-02 00:00,ZBSJ 020000Z 32002MPS 1400 R33/1400N HZ NSC M07/M12 Q1033 BECMG TL0140 1600
ZBSJ,2015-02-02 01:00,ZBSJ 020100Z 33002MPS 1200 R33/1200N HZ NSC M04/M11 Q1033 BECMG 1800
ZBSJ,2015-02-02 02:00,ZBSJ 020200Z 05001MPS 1200 R33/1100N HZ NSC M03/M11 Q1033 BECMG 1800
ZBSJ,2015-02-02 03:00,ZBSJ 020300Z 29001MPS 1400 R33/1200U HZ NSC M00/M11 Q1034 BECMG 1800
ZBSJ,2015-02-02 04:00,ZBSJ 020400Z 05001MPS 1600 R33/1400N HZ NSC 01/M13 Q1033 NOSIG
ZBSJ,2015-02-02 05:00,ZBSJ 020500Z 04001MPS 1800 HZ NSC 02/M12 Q1032 NOSIG
ZBSJ,2015-02-02 06:00,ZBSJ 020600Z 11002MPS 1800 HZ NSC 02/M12 Q1031 NOSIG
ZBSJ,2015-02-02 07:00,ZBSJ 020700Z 14002MPS 090V180 2000 HZ NSC 03/M11 Q1031 NOSIG
ZBSJ,2015-02-02 08:00,ZBSJ 020800Z 16002MPS 2000 HZ NSC 03/M11 Q1031 NOSIG
ZBSJ,2015-02-02 09:00,ZBSJ 020900Z 18001MPS 2200 HZ NSC 02/M11 Q1031 BECMG 1400
ZBSJ,2015-02-02 10:00,ZBSJ 021000Z 19001MPS 2800 HZ NSC 01/M11 Q1032 NOSIG
ZBSJ,2015-02-02 11:00,ZBSJ 021100Z 22001MPS 2800 HZ NSC 01/M10 Q1033 NOSIG
ZBSJ,2015-02-02 12:00,ZBSJ 021200Z 32001MPS 2500 HZ NSC M01/M10 Q1033 BECMG 1400
ZBSJ,2015-02-02 13:00,ZBSJ 021300Z 32003MPS 2500 HZ NSC M02/M10 Q1034 NOSIG
ZBSJ,2015-02-02 14:00,ZBSJ 021400Z 32003MPS 2500 HZ NSC M04/M10 Q1033 NOSIG
ZBSJ,2015-02-02 15:00,ZBSJ 021500Z 32003MPS 2500 HZ NSC M05/M09 Q1033 BECMG 1400
ZBSJ,2015-02-02 16:00,ZBSJ 021600Z 32003MPS 2500 HZ NSC M06/M09 Q1033 NOSIG
ZBSJ,2015-02-02 17:00,ZBSJ 021700Z 31002MPS 2500 HZ NSC M05/M07 Q1033 NOSIG
ZBSJ,2015-02-02 18:00,ZBSJ 021800Z 28002MPS 2500 HZ NSC M04/M08 Q1033 NOSIG
ZBSJ,2015-02-02 19:00,ZBSJ 021900Z 30001MPS 2500 HZ NSC M06/M09 Q1032 NOSIG
ZBSJ,2015-02-02 20:00,ZBSJ 022000Z 34002MPS 2300 HZ NSC M08/M11 Q1032 NOSIG
ZBSJ,2015-02-02 21:00,ZBSJ 022100Z 30002MPS 2300 HZ NSC M07/M11 Q1032 NOSIG
ZBSJ,2015-02-02 22:00,ZBSJ 022200Z 28002MPS 2300 HZ NSC M07/M10 Q1033 NOSIG
ZBSJ,2015-02-02 23:00,ZBSJ 022300Z 30001MPS 2200 HZ NSC M06/M10 Q1032 BECMG 1400
ZBSJ,2015-02-03 00:00,ZBSJ 030000Z 27002MPS 1600 HZ NSC M06/M09 Q1033 BECMG 1400
ZBSJ,2015-02-03 01:00,ZBSJ 030100Z 32003MPS 1500 R33/1400N HZ NSC M04/M08 Q1033 BECMG 1400 BR
ZBSJ,2015-02-03 02:00,ZBSJ 030200Z 28002MPS 240V300 1800 R33/1400N HZ NSC M01/M08 Q1034 NOSIG
ZBSJ,2015-02-03 03:00,ZBSJ 030300Z 23003MPS 1800 HZ NSC 02/M09 Q1034 NOSIG
ZBSJ,2015-02-03 04:00,ZBSJ 030400Z 24003MPS 210V300 1700 R33/1400D HZ NSC 04/M09 Q1033 NOSIG
ZBSJ,2015-02-03 05:00,ZBSJ 030500Z 23003MPS 200V260 1800 HZ NSC 06/M08 Q1032 NOSIG
ZBSJ,2015-02-03 06:00,ZBSJ 030600Z 27001MPS 1800 HZ NSC 07/M08 Q1030 NOSIG
ZBSJ,2015-02-03 07:00,ZBSJ 030700Z 29001MPS 2500 HZ NSC 08/M08 Q1030 BECMG 3000
ZBSJ,2015-02-03 08:00,ZBSJ 030800Z 23001MPS 2700 HZ NSC 08/M07 Q1030 BECMG 3000
ZBSJ,2015-02-03 09:00,ZBSJ 030900Z 17001MPS 3000 HZ NSC 07/M07 Q1030 BECMG 2200 HZ
ZBSJ,2015-02-03 10:00,ZBSJ 031000Z 16002MPS 2500 HZ NSC 02/M09 Q1030 NOSIG
ZBSJ,2015-02-03 11:00,ZBSJ 031100Z 23002MPS 2500 HZ NSC 03/M08 Q1031 NOSIG
ZBSJ,2015-02-03 12:00,ZBSJ 031200Z 11001MPS 2500 HZ NSC M01/M09 Q1031 NOSIG
ZBSJ,2015-02-03 13:00,ZBSJ 031300Z 25003MPS 2500 HZ NSC M01/M09 Q1031 NOSIG
ZBSJ,2015-02-03 14:00,ZBSJ 031400Z 30005MPS 6000 NSC 03/M10 Q1031 NOSIG
ZBSJ,2015-02-03 15:00,ZBSJ 031500Z 31006MPS CAVOK 03/M09 Q1032 NOSIG
ZBSJ,2015-02-03 16:00,ZBSJ 031600Z 31007MPS CAVOK 03/M14 Q1032 NOSIG
ZBSJ,2015-02-03 17:00,ZBSJ 031700Z 36010G15MPS CAVOK 04/M17 Q1032 NOSIG
ZBSJ,2015-02-03 18:00,ZBSJ 031800Z 36008MPS CAVOK 03/M18 Q1032 NOSIG
ZBSJ,2015-02-03 19:00,ZBSJ 031900Z 01005MPS CAVOK 01/M17 Q1032 NOSIG
ZBSJ,2015-02-03 20:00,ZBSJ 032000Z 36003MPS CAVOK 00/M17 Q1032 NOSIG
ZBSJ,2015-02-03 21:00,ZBSJ 032100Z 35005MPS CAVOK M02/M16 Q1032 NOSIG
ZBSJ,2015-02-03 22:00,ZBSJ 032200Z 34007MPS CAVOK 00/M17 Q1032 NOSIG
ZBSJ,2015-02-03 23:00,ZBSJ 032300Z 34006MPS CAVOK M00/M16 Q1033 NOSIG
ZBSJ,2015-02-04 00:00,ZBSJ 040000Z 35008MPS CAVOK 01/M17 Q1033 NOSIG
ZBSJ,2015-02-04 01:00,ZBSJ 040100Z 34007MPS CAVOK 02/M17 Q1034 NOSIG
ZBSJ,2015-02-04 02:00,ZBSJ 040200Z 34007MPS CAVOK 04/M17 Q1034 NOSIG
ZBSJ,2015-02-04 03:00,ZBSJ 040300Z 34006MPS CAVOK 07/M17 Q1033 NOSIG
ZBSJ,2015-02-04 04:00,ZBSJ 040400Z 35007MPS CAVOK 07/M17 Q1032 NOSIG
ZBSJ,2015-02-04 05:00,ZBSJ 040500Z 34006MPS 310V010 CAVOK 08/M17 Q1031 NOSIG
ZBSJ,2015-02-04 06:00,ZBSJ 040600Z 33008MPS CAVOK 09/M17 Q1030 NOSIG
ZBSJ,2015-02-04 07:00,ZBSJ 040700Z 29005MPS 250V310 CAVOK 09/M18 Q1030 NOSIG
ZBSJ,2015-02-04 08:00,ZBSJ 040800Z 32006MPS CAVOK 09/M17 Q1029 NOSIG
ZBSJ,2015-02-04 09:00,ZBSJ 040900Z 32005MPS CAVOK 08/M16 Q1029 NOSIG
ZBSJ,2015-02-04 10:00,ZBSJ 041000Z 34005MPS CAVOK 05/M15 Q1030 NOSIG
ZBSJ,2015-02-04 11:00,ZBSJ 041100Z 35006MPS CAVOK 06/M15 Q1030 NOSIG
ZBSJ,2015-02-04 12:00,ZBSJ 041200Z 34006MPS CAVOK 06/M15 Q1031 NOSIG
ZBSJ,2015-02-04 13:00,ZBSJ 041300Z 31005MPS CAVOK 04/M15 Q1032 NOSIG
ZBSJ,2015-02-04 14:00,ZBSJ 041400Z 35003MPS CAVOK 01/M16 Q1033 NOSIG
ZBSJ,2015-02-04 15:00,ZBSJ 041500Z 36004MPS CAVOK 02/M14 Q1033 NOSIG
ZBSJ,2015-02-04 16:00,ZBSJ 041600Z 03004MPS 010V090 CAVOK 01/M13 Q1034 NOSIG
ZBSJ,2015-02-04 17:00,ZBSJ 041700Z 05003MPS CAVOK 00/M14 Q1034 NOSIG
ZBSJ,2015-02-04 18:00,ZBSJ 041800Z 02003MPS CAVOK M01/M12 Q1035 NOSIG
ZBSJ,2015-02-04 19:00,ZBSJ 041900Z 35004MPS CAVOK M01/M12 Q1034 NOSIG
ZBSJ,2015-02-04 20:00,ZBSJ 042000Z 35004MPS CAVOK 00/M14 Q1034 NOSIG
ZBSJ,2015-02-04 21:00,ZBSJ 042100Z 18001MPS CAVOK M04/M14 Q1035 NOSIG
ZBSJ,2015-02-04 22:00,ZBSJ 042200Z 25001MPS CAVOK M05/M13 Q1035 NOSIG
ZBSJ,2015-02-04 23:00,ZBSJ 042300Z 20001MPS CAVOK M06/M14 Q1035 NOSIG
ZBSJ,2015-02-05 00:00,ZBSJ 050000Z 22002MPS 210V270 5000 HZ NSC M04/M13 Q1035 NOSIG
ZBSJ,2015-02-05 01:00,ZBSJ 050100Z 22003MPS 2500 HZ NSC 01/M12 Q1035 NOSIG
ZBSJ,2015-02-05 02:00,ZBSJ 050200Z 23004MPS 5000 HZ NSC 04/M12 Q1035 NOSIG
ZBSJ,2015-02-05 03:00,ZBSJ 050300Z 25004MPS 220V290 CAVOK 06/M13 Q1035 NOSIG
ZBSJ,2015-02-05 04:00,ZBSJ 050400Z VRB03MPS CAVOK 06/M13 Q1034 NOSIG
ZBSJ,2015-02-05 05:00,ZBSJ 050500Z 29003MPS 200V350 CAVOK 08/M13 Q1032 NOSIG
ZBSJ,2015-02-05 06:00,ZBSJ 050600Z 23002MPS 180V270 CAVOK 08/M14 Q1031 NOSIG
ZBSJ,2015-02-05 07:00,ZBSJ 050700Z 23001MPS CAVOK 09/M14 Q1030 NOSIG
ZBSJ,2015-02-05 08:00,ZBSJ 050800Z 17002MPS 110V210 CAVOK 08/M14 Q1029 NOSIG
ZBSJ,2015-02-05 09:00,ZBSJ 050900Z 17003MPS CAVOK 07/M14 Q1029 NOSIG
ZBSJ,2015-02-05 10:00,ZBSJ 051000Z 17003MPS 8000 NSC 03/M14 Q1029 NOSIG
ZBSJ,2015-02-05 11:00,ZBSJ 051100Z 18004MPS 7000 NSC 02/M13 Q1029 NOSIG
ZBSJ,2015-02-05 12:00,ZBSJ 051200Z 18003MPS 6000 NSC 00/M14 Q1029 NOSIG
ZBSJ,2015-02-05 13:00,ZBSJ 051300Z 19003MPS 6000 NSC M00/M12 Q1029 NOSIG
ZBSJ,2015-02-05 14:00,ZBSJ 051400Z 19002MPS 6000 NSC M01/M12 Q1029 NOSIG
ZBSJ,2015-02-05 15:00,ZBSJ 051500Z 20003MPS 5000 FU NSC M01/M11 Q1029 NOSIG
ZBSJ,2015-02-05 16:00,ZBSJ 051600Z 20001MPS 5000 FU NSC M03/M12 Q1028 NOSIG
ZBSJ,2015-02-05 17:00,ZBSJ 051700Z 24001MPS 4000 FU NSC M05/M13 Q1027 NOSIG
ZBSJ,2015-02-05 18:00,ZBSJ 051800Z 24002MPS 4000 FU NSC M05/M13 Q1027 NOSIG
ZBSJ,2015-02-05 19:00,ZBSJ 051900Z 25002MPS 3500 FU NSC M04/M11 Q1026 NOSIG
ZBSJ,2015-02-05 20:00,ZBSJ 052000Z 22002MPS 3500 FU NSC M04/M12 Q1025 NOSIG
ZBSJ,2015-02-05 21:00,ZBSJ 052100Z 23001MPS 4000 FU NSC M04/M13 Q1024 NOSIG
ZBSJ,2015-02-05 22:00,ZBSJ 052200Z 00000MPS 5000 FU NSC M05/M13 Q1024 NOSIG
ZBSJ,2015-02-05 23:00,ZBSJ 052300Z 00000MPS 4000 FU NSC M07/M13 Q1024 NOSIG
ZBSJ,2015-02-06 00:00,ZBSJ 060000Z 14001MPS 2500 FU NSC M06/M12 Q1024 BECMG 3500
ZBSJ,2015-02-06 01:00,ZBSJ 060100Z 17002MPS 1600 FU NSC M02/M10 Q1024 BECMG 3500
ZBSJ,2015-02-06 02:00,ZBSJ 060200Z 20001MPS 1600 FU NSC 03/M10 Q1024 BECMG 3500
ZBSJ,2015-02-06 03:00,ZBSJ 060300Z 24002MPS 180V280 3000 FU NSC 05/M12 Q1023 NOSIG
ZBSJ,2015-02-06 04:00,ZBSJ 060400Z 27002MPS 230V330 4000 FU NSC 07/M11 Q1023 NOSIG
ZBSJ,2015-02-06 05:00,ZBSJ 060500Z 29002MPS 240V360 CAVOK 09/M12 Q1022 NOSIG
ZBSJ,2015-02-06 06:00,ZBSJ 060600Z 36003MPS 320V030 CAVOK 09/M12 Q1021 NOSIG
ZBSJ,2015-02-06 07:00,ZBSJ 060700Z 35002MPS CAVOK 10/M12 Q1021 NOSIG
ZBSJ,2015-02-06 08:00,ZBSJ 060800Z 30001MPS CAVOK 11/M12 Q1021 NOSIG
ZBSJ,2015-02-06 09:00,ZBSJ 060900Z 10002MPS CAVOK 09/M12 Q1020 NOSIG
ZBSJ,2015-02-06 10:00,ZBSJ 061000Z 13002MPS 5000 FU NSC 05/M12 Q1021 BECMG 2500 FU
ZBSJ,2015-02-06 11:00,ZBSJ 061100Z 18002MPS 7000 NSC 02/M14 Q1022 NOSIG
ZBSJ,2015-02-06 12:00,ZBSJ 061200Z 20001MPS 3500 FU NSC 02/M12 Q1022 BECMG 2500 FU
ZBSJ,2015-02-06 13:00,ZBSJ 061300Z 22001MPS 3500 FU NSC 01/M12 Q1022 BECMG 2500 FU
ZBSJ,2015-02-06 14:00,ZBSJ 061400Z 29001MPS 2500 FU NSC M01/M12 Q1023 NOSIG
ZBSJ,2015-02-06 15:00,ZBSJ 061500Z 32003MPS 2500 FU NSC M02/M11 Q1023 NOSIG
ZBSJ,2015-02-06 16:00,ZBSJ 061600Z 31002MPS 2300 FU NSC M02/M12 Q1022 NOSIG
ZBSJ,2015-02-06 17:00,ZBSJ 061700Z 25001MPS 2500 FU NSC M01/M11 Q1023 NOSIG
ZBSJ,2015-02-06 18:00,ZBSJ 061800Z 31003MPS 3000 FU NSC M04/M12 Q1022 NOSIG
ZBSJ,2015-02-06 19:00,ZBSJ 061900Z 32005MPS 8000 NSC M00/M11 Q1023 NOSIG
ZBSJ,2015-02-06 20:00,ZBSJ 062000Z 35004MPS CAVOK 00/M12 Q1023 NOSIG
ZBSJ,2015-02-06 21:00,ZBSJ 062100Z 34004MPS CAVOK 00/M13 Q1024 NOSIG
ZBSJ,2015-02-06 22:00,ZBSJ 062200Z 36003MPS CAVOK M02/M12 Q1024 NOSIG
ZBSJ,2015-02-06 23:00,ZBSJ 062300Z 17001MPS CAVOK M03/M12 Q1026 NOSIG
ZBSJ,2015-02-07 00:00,ZBSJ 070000Z 12001MPS 8000 NSC M02/M12 Q1027 NOSIG
ZBSJ,2015-02-07 01:00,ZBSJ 070100Z 07003MPS 6000 NSC 03/M11 Q1029 NOSIG
ZBSJ,2015-02-07 02:00,ZBSJ 070200Z 06006MPS CAVOK 05/M12 Q1030 NOSIG
ZBSJ,2015-02-07 03:00,ZBSJ 070300Z 09004MPS 060V130 CAVOK 06/M12 Q1030 NOSIG
ZBSJ,2015-02-07 04:00,ZBSJ 070400Z VRB03MPS CAVOK 07/M13 Q1030 NOSIG
ZBSJ,2015-02-07 05:00,ZBSJ 070500Z 07002MPS CAVOK 08/M14 Q1029 NOSIG
ZBSJ,2015-02-07 06:00,ZBSJ 070600Z 03004MPS 330V080 CAVOK 08/M14 Q1028 NOSIG
ZBSJ,2015-02-07 07:00,ZBSJ 070700Z 06003MPS 010V100 CAVOK 08/M15 Q1028 NOSIG
ZBSJ,2015-02-07 08:00,ZBSJ 070800Z 03006MPS 360V060 CAVOK 08/M19 Q1029 NOSIG
ZBSJ,2015-02-07 09:00,ZBSJ 070900Z 04005MPS CAVOK 07/M17 Q1030 NOSIG
ZBSJ,2015-02-07 10:00,ZBSJ 071000Z 09003MPS CAVOK 03/M17 Q1031 NOSIG
ZBSJ,2015-02-07 11:00,ZBSJ 071100Z 08004MPS CAVOK 02/M18 Q1032 NOSIG
ZBSJ,2015-02-07 12:00,ZBSJ 071200Z 08004MPS CAVOK 00/M20 Q1033 NOSIG
ZBSJ,2015-02-07 13:00,ZBSJ 071300Z 11002MPS CAVOK M02/M17 Q1034 NOSIG
ZBSJ,2015-02-07 14:00,ZBSJ 071400Z 07001MPS 8000 NSC M03/M18 Q1035 NOSIG
ZBSJ,2015-02-07 15:00,ZBSJ 071500Z 05001MPS 7000 NSC M05/M16 Q1035 NOSIG
ZBSJ,2015-02-07 16:00,ZBSJ 071600Z 08001MPS 7000 NSC M05/M16 Q1036 NOSIG
ZBSJ,2015-02-07 17:00,ZBSJ 071700Z 05002MPS 6000 NSC M06/M15 Q1036 NOSIG
ZBSJ,2015-02-07 18:00,ZBSJ 071800Z 01001MPS 6000 NSC M07/M15 Q1036 NOSIG
ZBSJ,2015-02-07 19:00,ZBSJ 071900Z 04002MPS 6000 NSC M08/M14 Q1037 NOSIG
ZBSJ,2015-02-07 20:00,ZBSJ 072000Z 04002MPS 010V080 CAVOK M07/M19 Q1037 NOSIG
ZBSJ,2015-02-07 21:00,ZBSJ 072100Z 05002MPS 4000 HZ NSC M08/M13 Q1037 NOSIG
ZBSJ,2015-02-07 22:00,ZBSJ 072200Z 07002MPS 4000 HZ NSC M10/M14 Q1037 NOSIG
ZBSJ,2015-02-07 23:00,ZBSJ 072300Z 14001MPS 4000 HZ NSC M10/M14 Q1038 NOSIG
ZBSJ,2015-02-08 00:00,ZBSJ 080000Z 16001MPS 2000 HZ NSC M09/M13 Q1039 NOSIG
ZBSJ,2015-02-08 01:00,ZBSJ 080100Z 19002MPS 2200 HZ NSC M04/M12 Q1039 BECMG 3500
ZBSJ,2015-02-08 02:00,ZBSJ 080200Z 16005MPS 8000 NSC M02/M17 Q1039 NOSIG
ZBSJ,2015-02-08 03:00,ZBSJ 080300Z 17005MPS CAVOK M01/M18 Q1039 NOSIG
ZBSJ,2015-02-08 04:00,ZBSJ 080400Z 17005MPS CAVOK M00/M18 Q1037 NOSIG
ZBSJ,2015-02-08 05:00,ZBSJ 080500Z 18004MPS 140V210 CAVOK 01/M19 Q1036 NOSIG
ZBSJ,2015-02-08 06:00,ZBSJ 080600Z 17005MPS 130V200 CAVOK 01/M19 Q1034 NOSIG
ZBSJ,2015-02-08 07:00,ZBSJ 080700Z 18006MPS CAVOK 02/M18 Q1033 NOSIG
ZBSJ,2015-02-08 08:00,ZBSJ 080800Z 19005MPS 160V230 CAVOK 02/M18 Q1033 NOSIG
ZBSJ,2015-02-08 09:00,ZBSJ 080900Z 17005MPS CAVOK 01/M19 Q1033 NOSIG
ZBSJ,2015-02-08 10:00,ZBSJ 081000Z 16003MPS CAVOK M03/M17 Q1033 NOSIG
ZBSJ,2015-02-08 11:00,ZBSJ 081100Z 11001MPS CAVOK M04/M18 Q1033 NOSIG
ZBSJ,2015-02-08 12:00,ZBSJ 081200Z 11002MPS 6000 NSC M05/M17 Q1033 NOSIG
ZBSJ,2015-02-08 13:00,ZBSJ 081300Z 11002MPS 5000 FU NSC M06/M18 Q1033 NOSIG
ZBSJ,2015-02-08 14:00,ZBSJ 081400Z 09002MPS 4000 FU NSC M06/M16 Q1034 BECMG TL1530 3500
ZBSJ,2015-02-08 15:00,ZBSJ 081500Z 14001MPS 3000 FU NSC M06/M16 Q1033 BECMG TL1630 2500 FU
ZBSJ,2015-02-08 16:00,ZBSJ 081600Z 15002MPS 3000 FU NSC M07/M18 Q1033 NOSIG
ZBSJ,2015-02-08 17:00,ZBSJ 081700Z 18001MPS 3000 FU NSC M07/M17 Q1033 NOSIG
ZBSJ,2015-02-08 18:00,ZBSJ 081800Z 27001MPS 2800 FU NSC M07/M16 Q1033 NOSIG
ZBSJ,2015-02-08 19:00,ZBSJ 081900Z 30001MPS 2800 FU NSC M08/M16 Q1032 NOSIG
ZBSJ,2015-02-08 20:00,ZBSJ 082000Z 29001MPS 2800 FU NSC M08/M16 Q1032 NOSIG
ZBSJ,2015-02-08 21:00,ZBSJ 082100Z 32001MPS 3500 FU NSC M09/M16 Q1031 NOSIG
ZBSJ,2015-02-08 22:00,ZBSJ 082200Z 24001MPS 4000 FU NSC M08/M16 Q1031 NOSIG
ZBSJ,2015-02-08 23:00,ZBSJ 082300Z 31001MPS 3500 FU NSC M09/M16 Q1031 NOSIG
ZBSJ,2015-02-09 00:00,ZBSJ 090000Z 23001MPS 2000 FU NSC M08/M15 Q1031 NOSIG
ZBSJ,2015-02-09 01:00,ZBSJ 090100Z 29002MPS 260V320 2700 FU NSC M03/M13 Q1031 BECMG 3500
ZBSJ,2015-02-09 02:00,ZBSJ 090200Z 30001MPS 2500 FU NSC 00/M14 Q1031 BECMG 3500
ZBSJ,2015-02-09 03:00,ZBSJ 090300Z 22002MPS 4000 FU NSC 02/M14 Q1030 NOSIG
ZBSJ,2015-02-09 04:00,ZBSJ 090400Z 21002MPS 160V250 5000 FU NSC 05/M13 Q1029 NOSIG
ZBSJ,2015-02-09 05:00,ZBSJ 090500Z 20003MPS 170V240 5000 HZ NSC 07/M13 Q1028 NOSIG
ZBSJ,2015-02-09 06:00,ZBSJ 090600Z 17003MPS 4000 HZ NSC 08/M12 Q1026 NOSIG
ZBSJ,2015-02-09 07:00,ZBSJ 090700Z 17004MPS 130V200 5000 HZ NSC 09/M13 Q1025 NOSIG
ZBSJ,2015-02-09 08:00,ZBSJ 090800Z 17005MPS 7000 NSC 09/M12 Q1025 NOSIG
ZBSJ,2015-02-09 09:00,ZBSJ 090900Z 18004MPS 6000 NSC 07/M11 Q1025 NOSIG
ZBSJ,2015-02-09 10:00,ZBSJ 091000Z 17002MPS 2500 HZ NSC 04/M12 Q1024 NOSIG
ZBSJ,2015-02-09 11:00,ZBSJ 091100Z 16002MPS 4000 HZ NSC 02/M13 Q1024 NOSIG
ZBSJ,2015-02-09 12:00,ZBSJ 091200Z 17002MPS 3500 HZ NSC 01/M11 Q1024 NOSIG
ZBSJ,2015-02-09 13:00,ZBSJ 091300Z 17003MPS 3000 HZ NSC M01/M11 Q1024 NOSIG
ZBSJ,2015-02-09 14:00,ZBSJ 091400Z 21002MPS 3500 HZ NSC M00/M10 Q1023 NOSIG
ZBSJ,2015-02-09 15:00,ZBSJ 091500Z 26003MPS 2500 HZ NSC M00/M10 Q1022 NOSIG
ZBSJ,2015-02-09 16:00,ZBSJ 091600Z 27001MPS 2500 HZ NSC M02/M11 Q1022 NOSIG
ZBSJ,2015-02-09 17:00,ZBSJ 091700Z 28001MPS 2500 HZ NSC M04/M12 Q1021 NOSIG
ZBSJ,2015-02-09 18:00,ZBSJ 091800Z 25002MPS 230V330 2200 HZ NSC M04/M11 Q1020 NOSIG
ZBSJ,2015-02-09 19:00,ZBSJ 091900Z 22001MPS 2500 HZ NSC M05/M12 Q1020 NOSIG
ZBSJ,2015-02-09 20:00,ZBSJ 092000Z 24003MPS 3000 HZ NSC M07/M13 Q1019 NOSIG
ZBSJ,2015-02-09 21:00,ZBSJ 092100Z 36002MPS 3000 HZ NSC M08/M13 Q1019 NOSIG
ZBSJ,2015-02-09 22:00,ZBSJ 092200Z 03001MPS 4000 HZ NSC M06/M12 Q1018 NOSIG
ZBSJ,2015-02-09 23:00,ZBSJ 092300Z 33001MPS 4000 HZ NSC M06/M13 Q1018 NOSIG
ZBSJ,2015-02-10 00:00,ZBSJ 100000Z 32003MPS 280V350 4000 HZ NSC M02/M11 Q1018 NOSIG
ZBSJ,2015-02-10 01:00,ZBSJ 100100Z 04001MPS 2700 HZ NSC 00/M12 Q1018 NOSIG
ZBSJ,2015-02-10 02:00,ZBSJ 100200Z 28002MPS 3000 HZ NSC 06/M11 Q1018 NOSIG
ZBSJ,2015-02-10 03:00,ZBSJ 100300Z 26003MPS 230V330 5000 HZ NSC 11/M11 Q1018 NOSIG
ZBSJ,2015-02-10 04:00,ZBSJ 100400Z 29004MPS 260V340 CAVOK 14/M13 Q1016 NOSIG
ZBSJ,2015-02-10 05:00,ZBSJ 100500Z VRB02MPS CAVOK 15/M12 Q1015 NOSIG
ZBSJ,2015-02-10 06:00,ZBSJ 100600Z 27002MPS CAVOK 16/M13 Q1014 NOSIG
ZBSJ,2015-02-10 07:00,ZBSJ 100700Z 34001MPS CAVOK 16/M14 Q1013 NOSIG
ZBSJ,2015-02-10 08:00,ZBSJ 100800Z 23001MPS CAVOK 15/M14 Q1012 NOSIG
ZBSJ,2015-02-10 09:00,ZBSJ 100900Z 16002MPS CAVOK 13/M13 Q1012 NOSIG
ZBSJ,2015-02-10 10:00,ZBSJ 101000Z 16002MPS 7000 NSC 09/M13 Q1013 NOSIG
ZBSJ,2015-02-10 11:00,ZBSJ 101100Z 17003MPS 7000 NSC 07/M13 Q1013 NOSIG
ZBSJ,2015-02-10 12:00,ZBSJ 101200Z 18003MPS 7000 NSC 07/M14 Q1014 NOSIG
ZBSJ,2015-02-10 13:00,ZBSJ 101300Z 15002MPS 6000 NSC 06/M13 Q1014 NOSIG
ZBSJ,2015-02-10 14:00,ZBSJ 101400Z 02002MPS 5000 HZ NSC 02/M13 Q1014 BECMG 2800 HZ
ZBSJ,2015-02-10 15:00,ZBSJ 101500Z 02002MPS 320V030 3500 HZ NSC 02/M13 Q1014 BECMG 2500 HZ
ZBSJ,2015-02-10 16:00,ZBSJ 101600Z 30001MPS 3500 HZ NSC 02/M13 Q1014 NOSIG
ZBSJ,2015-02-10 17:00,ZBSJ 101700Z 24002MPS 3500 HZ NSC M00/M13 Q1014 NOSIG
ZBSJ,2015-02-10 18:00,ZBSJ 101800Z 31003MPS 4000 HZ NSC 01/M13 Q1014 NOSIG
ZBSJ,2015-02-10 19:00,ZBSJ 101900Z 31003MPS 8000 NSC 01/M13 Q1013 NOSIG
ZBSJ,2015-02-10 20:00,ZBSJ 102000Z 31004MPS CAVOK M00/M12 Q1013 NOSIG
ZBSJ,2015-02-10 21:00,ZBSJ 102100Z 32003MPS CAVOK 01/M13 Q1013 NOSIG
ZBSJ,2015-02-10 22:00,ZBSJ 102200Z 36004MPS 8000 NSC 01/M12 Q1014 NOSIG
ZBSJ,2015-02-10 23:00,ZBSJ 102300Z 03004MPS 5000 HZ NSC 01/M13 Q1015 NOSIG
ZBSJ,2015-02-11 00:00,ZBSJ 110000Z 04004MPS 4000 HZ NSC 01/M13 Q1017 NOSIG
ZBSJ,2015-02-11 01:00,ZBSJ 110100Z 04005MPS 3000 HZ NSC 04/M10 Q1018 NOSIG
ZBSJ,2015-02-11 02:00,ZBSJ 110200Z 05006MPS 4000 HZ NSC 05/M11 Q1018 NOSIG
ZBSJ,2015-02-11 03:00,ZBSJ 110300Z 05006MPS 4000 HZ NSC 06/M11 Q1018 NOSIG
ZBSJ,2015-02-11 04:00,ZBSJ 110400Z 04004MPS 010V080 6000 NSC 08/M11 Q1018 NOSIG
ZBSJ,2015-02-11 05:00,ZBSJ 110500Z 08003MPS 020V130 8000 NSC 09/M12 Q1017 NOSIG
ZBSJ,2015-02-11 06:00,ZBSJ 110600Z 05001MPS 8000 NSC 09/M13 Q1016 NOSIG
ZBSJ,2015-02-11 07:00,ZBSJ 110700Z 05001MPS CAVOK 10/M13 Q1015 NOSIG
ZBSJ,2015-02-11 08:00,ZBSJ 110800Z 12002MPS CAVOK 10/M13 Q1015 NOSIG
ZBSJ,2015-02-11 09:00,ZBSJ 110900Z 11002MPS CAVOK 09/M13 Q1015 NOSIG
ZBSJ,2015-02-11 10:00,ZBSJ 111000Z 09002MPS 8000 NSC 06/M13 Q1016 NOSIG
ZBSJ,2015-02-11 11:00,ZBSJ 111100Z 16001MPS 5000 FU NSC 03/M14 Q1017 NOSIG
ZBSJ,2015-02-11 12:00,ZBSJ 111200Z 15001MPS 5000 FU NSC 01/M14 Q1017 NOSIG
ZBSJ,2015-02-11 13:00,ZBSJ 111300Z 00000MPS 3000 FU NSC M01/M12 Q1018 NOSIG
ZBSJ,2015-02-11 14:00,ZBSJ 111400Z 17001MPS 2500 FU NSC M01/M12 Q1018 NOSIG
ZBSJ,2015-02-11 15:00,ZBSJ 111500Z 17001MPS 2500 FU NSC M02/M12 Q1018 NOSIG
ZBSJ,2015-02-11 16:00,ZBSJ 111600Z 03001MPS 2000 FU NSC M04/M13 Q1019 NOSIG
ZBSJ,2015-02-11 17:00,ZBSJ 111700Z 04001MPS 1800 FU NSC M03/M11 Q1019 NOSIG
ZBSJ,2015-02-11 18:00,ZBSJ 111800Z 33001MPS 1800 FU NSC M04/M12 Q1019 NOSIG
ZBSJ,2015-02-11 19:00,ZBSJ 111900Z 25001MPS 1800 FU NSC M04/M12 Q1019 NOSIG
ZBSJ,2015-02-11 20:00,ZBSJ 112000Z 36002MPS 2500 FU NSC M05/M12 Q1019 NOSIG
ZBSJ,2015-02-11 21:00,ZBSJ 112100Z 02002MPS 2500 FU NSC M06/M13 Q1019 NOSIG
ZBSJ,2015-02-11 22:00,ZBSJ 112200Z 02002MPS 2200 FU NSC M05/M12 Q1019 NOSIG
ZBSJ,2015-02-11 23:00,ZBSJ 112300Z 34002MPS 1800 FU NSC M05/M11 Q1020 BECMG TL2340 1400 FU
ZBSJ,2015-02-12 00:00,ZBSJ 120000Z 27002MPS 1300 R15/1500D FU NSC M03/M10 Q1021 BECMG TL0120 1600
ZBSJ,2015-02-12 01:00,ZBSJ 120100Z 33002MPS 1200 R15/1200N FU NSC M01/M09 Q1022 BECMG TL0200 1600
ZBSJ,2015-02-12 02:00,ZBSJ 120200Z 01002MPS 1600 FU NSC 02/M09 Q1022 NOSIG
ZBSJ,2015-02-12 03:00,ZBSJ 120300Z 09002MPS 040V140 4000 FU NSC 05/M11 Q1021 NOSIG
ZBSJ,2015-02-12 04:00,ZBSJ 120400Z 15003MPS 7000 NSC 06/M12 Q1021 NOSIG
ZBSJ,2015-02-12 05:00,ZBSJ 120500Z 14003MPS 080V180 CAVOK 07/M13 Q1020 NOSIG
ZBSJ,2015-02-12 06:00,ZBSJ 120600Z 14003MPS 100V210 CAVOK 07/M13 Q1018 NOSIG
ZBSJ,2015-02-12 07:00,ZBSJ 120700Z 13003MPS 090V180 CAVOK 08/M13 Q1018 NOSIG
ZBSJ,2015-02-12 08:00,ZBSJ 120800Z 17002MPS CAVOK 07/M13 Q1018 NOSIG
ZBSJ,2015-02-12 09:00,ZBSJ 120900Z 20001MPS CAVOK 06/M13 Q1019 NOSIG
ZBSJ,2015-02-12 10:00,ZBSJ 121000Z 19001MPS 6000 NSC 03/M13 Q1019 NOSIG
ZBSJ,2015-02-12 11:00,ZBSJ 121100Z 25001MPS 6000 NSC 02/M13 Q1020 NOSIG
ZBSJ,2015-02-12 12:00,ZBSJ 121200Z 24002MPS 3500 HZ NSC 02/M13 Q1020 NOSIG
ZBSJ,2015-02-12 13:00,ZBSJ 121300Z 20001MPS 3500 HZ NSC M01/M11 Q1020 NOSIG
ZBSJ,2015-02-12 14:00,ZBSJ 121400Z 19001MPS 3000 HZ NSC M02/M12 Q1020 NOSIG
ZBSJ,2015-02-12 15:00,ZBSJ 121500Z 18002MPS 2000 HZ NSC M03/M12 Q1020 NOSIG
ZBSJ,2015-02-12 16:00,ZBSJ 121600Z 26001MPS 1800 HZ NSC M03/M12 Q1020 NOSIG
ZBSJ,2015-02-12 17:00,ZBSJ 121700Z 00000MPS 1800 HZ NSC M04/M11 Q1020 NOSIG
ZBSJ,2015-02-12 18:00,ZBSJ 121800Z 30002MPS 2200 HZ NSC M04/M10 Q1020 NOSIG
ZBSJ,2015-02-12 19:00,ZBSJ 121900Z 23002MPS 2500 HZ NSC M04/M11 Q1020 NOSIG
ZBSJ,2015-02-12 20:00,ZBSJ 122000Z 31001MPS 3000 HZ NSC M03/M10 Q1019 NOSIG
ZBSJ,2015-02-12 21:00,ZBSJ 122100Z 31001MPS 2500 HZ NSC M05/M11 Q1019 NOSIG
ZBSJ,2015-02-12 22:00,ZBSJ 122200Z 26001MPS 3500 HZ NSC M05/M11 Q1019 NOSIG
ZBSJ,2015-02-12 23:00,ZBSJ 122300Z 21001MPS 2500 HZ NSC M07/M11 Q1019 NOSIG
ZBSJ,2015-02-13 00:00,ZBSJ 130000Z 00000MPS 2000 HZ NSC M06/M10 Q1019 BECMG 3500
ZBSJ,2015-02-13 01:00,ZBSJ 130100Z 31002MPS 2300 HZ NSC 00/M09 Q1019 BECMG 3500
ZBSJ,2015-02-13 02:00,ZBSJ 130200Z 28001MPS 2700 HZ NSC 03/M09 Q1019 BECMG 3500
ZBSJ,2015-02-13 03:00,ZBSJ 130300Z 22002MPS 190V250 4000 HZ NSC 07/M09 Q1019 NOSIG
ZBSJ,2015-02-13 04:00,ZBSJ 130400Z 25003MPS 210V290 7000 NSC 10/M10 Q1018 NOSIG
ZBSJ,2015-02-13 05:00,ZBSJ 130500Z 25002MPS CAVOK 11/M10 Q1017 NOSIG
ZBSJ,2015-02-13 06:00,ZBSJ 130600Z 23003MPS 160V290 CAVOK 12/M11 Q1015 NOSIG
ZBSJ,2015-02-13 07:00,ZBSJ 130700Z 22002MPS CAVOK 14/M11 Q1015 NOSIG
ZBSJ,2015-02-13 08:00,ZBSJ 130800Z 17004MPS CAVOK 13/M11 Q1014 NOSIG
ZBSJ,2015-02-13 09:00,ZBSJ 130900Z 16004MPS CAVOK 12/M10 Q1014 NOSIG
ZBSJ,2015-02-13 10:00,ZBSJ 131000Z 17004MPS 5000 HZ NSC 07/M12 Q1014 BECMG 2900 FU
ZBSJ,2015-02-13 11:00,ZBSJ 131100Z 16003MPS 5000 HZ NSC 04/M12 Q1015 BECMG 2900 FU
ZBSJ,2015-02-13 12:00,ZBSJ 131200Z 17004MPS 5000 HZ NSC 03/M11 Q1015 NOSIG
ZBSJ,2015-02-13 13:00,ZBSJ 131300Z 18004MPS 5000 HZ NSC 05/M09 Q1014 NOSIG
ZBSJ,2015-02-13 14:00,ZBSJ 131400Z 18004MPS 5000 HZ NSC 04/M09 Q1014 NOSIG
ZBSJ,2015-02-13 15:00,ZBSJ 131500Z 22003MPS 4000 HZ NSC 04/M09 Q1014 NOSIG
ZBSJ,2015-02-13 16:00,ZBSJ 131600Z 20002MPS 4000 HZ NSC 02/M09 Q1013 NOSIG
ZBSJ,2015-02-13 17:00,ZBSJ 131700Z 22003MPS 3500 HZ NSC 01/M09 Q1013 NOSIG
ZBSJ,2015-02-13 18:00,ZBSJ 131800Z 33001MPS 3000 HZ NSC M01/M09 Q1013 NOSIG
ZBSJ,2015-02-13 19:00,ZBSJ 131900Z 22002MPS 3000 HZ NSC M02/M10 Q1013 NOSIG
ZBSJ,2015-02-13 20:00,ZBSJ 132000Z 30001MPS 3000 HZ NSC M05/M10 Q1012 NOSIG
ZBSJ,2015-02-13 21:00,ZBSJ 132100Z 24001MPS 3000 HZ NSC M03/M10 Q1011 NOSIG
ZBSJ,2015-02-13 22:00,ZBSJ 132200Z 12001MPS 3000 HZ NSC M05/M11 Q1011 NOSIG
ZBSJ,2015-02-13 23:00,ZBSJ 132300Z 21001MPS 2500 HZ NSC M03/M09 Q1011 NOSIG
ZBSJ,2015-02-14 00:00,ZBSJ 140000Z 20001MPS 1200 R15/1700N HZ NSC M02/M08 Q1011 BECMG 2500
ZBSJ,2015-02-14 01:00,ZBSJ 140100Z 08001MPS 1100 R15/1100U HZ NSC 01/M07 Q1012 BECMG 1500
ZBSJ,2015-02-14 02:00,ZBSJ 140200Z 21001MPS 1600 R15/1400N HZ NSC 05/M08 Q1012 BECMG 3500
ZBSJ,2015-02-14 03:00,ZBSJ 140300Z 27001MPS 2000 HZ NSC 09/M08 Q1011 BECMG 3500
ZBSJ,2015-02-14 04:00,ZBSJ 140400Z 07001MPS 3500 HZ NSC 10/M10 Q1011 NOSIG
ZBSJ,2015-02-14 05:00,ZBSJ 140500Z 10001MPS 3500 HZ NSC 13/M08 Q1010 NOSIG
ZBSJ,2015-02-14 06:00,ZBSJ 140600Z 13003MPS 090V150 2500 HZ NSC 14/M05 Q1009 NOSIG
ZBSJ,2015-02-14 07:00,ZBSJ 140700Z 10002MPS 060V160 1800 HZ NSC 15/M04 Q1009 BECMG 3500
ZBSJ,2015-02-14 08:00,ZBSJ 140800Z 07003MPS 1600 R15/1400V1700D HZ NSC 15/M03 Q1009 BECMG 1500 FU
ZBSJ,2015-02-14 09:00,ZBSJ 140900Z 04004MPS 1600 HZ NSC 12/M05 Q1009 BECMG 1200 FU
ZBSJ,2015-02-14 10:00,ZBSJ 141000Z 03002MPS 1800 HZ NSC 08/M07 Q1010 NOSIG
ZBSJ,2015-02-14 11:00,ZBSJ 141100Z 02002MPS 2300 HZ NSC 06/M08 Q1011 NOSIG
ZBSJ,2015-02-14 12:00,ZBSJ 141200Z 03002MPS 2300 HZ NSC 06/M08 Q1012 NOSIG
ZBSJ,2015-02-14 13:00,ZBSJ 141300Z 36002MPS 2000 HZ NSC 04/M08 Q1013 NOSIG
ZBSJ,2015-02-14 14:00,ZBSJ 141400Z 33003MPS 1800 HZ NSC 02/M09 Q1013 BECMG 1400 FU
ZBSJ,2015-02-14 15:00,ZBSJ 141500Z 35003MPS 1800 HZ NSC 02/M09 Q1013 NOSIG
ZBSJ,2015-02-14 16:00,ZBSJ 141600Z 35003MPS 2500 HZ NSC 02/M09 Q1014 NOSIG
ZBSJ,2015-02-14 17:00,ZBSJ 141700Z 01004MPS 2300 HZ NSC 04/M08 Q1014 NOSIG
ZBSJ,2015-02-14 18:00,ZBSJ 141800Z 36004MPS 2500 HZ NSC 05/M08 Q1014 NOSIG
ZBSJ,2015-02-14 19:00,ZBSJ 141900Z 01003MPS 2500 HZ NSC 04/M08 Q1015 NOSIG
ZBSJ,2015-02-14 20:00,ZBSJ 142000Z 35003MPS 2700 HZ NSC M00/M09 Q1015 NOSIG
ZBSJ,2015-02-14 21:00,ZBSJ 142100Z 36003MPS 2700 HZ NSC 03/M07 Q1015 NOSIG
ZBSJ,2015-02-14 22:00,ZBSJ 142200Z 03002MPS 2000 HZ NSC 03/M05 Q1016 NOSIG
ZBSJ,2015-02-14 23:00,ZBSJ 142300Z 03003MPS 2000 HZ NSC 02/M04 Q1017 NOSIG
ZBSJ,2015-02-15 00:00,ZBSJ 150000Z 05004MPS 1600 HZ NSC 03/M03 Q1018 NOSIG
ZBSJ,2015-02-15 01:00,ZBSJ 150100Z 03004MPS 1800 HZ NSC 04/M04 Q1019 BECMG 3500
ZBSJ,2015-02-15 02:00,ZBSJ 150200Z 03006MPS 3000 HZ NSC 05/M05 Q1019 NOSIG
ZBSJ,2015-02-15 03:00,ZBSJ 150300Z 03005MPS 4000 HZ NSC 06/M06 Q1019 NOSIG
ZBSJ,2015-02-15 04:00,ZBSJ 150400Z 02005MPS 3000 HZ NSC 07/M05 Q1019 NOSIG
ZBSJ,2015-02-15 05:00,ZBSJ 150500Z 05005MPS 3000 HZ NSC 07/M05 Q1018 NOSIG
ZBSJ,2015-02-15 06:00,ZBSJ 150600Z 07004MPS 040V110 3000 HZ NSC 07/M05 Q1018 NOSIG
ZBSJ,2015-02-15 07:00,ZBSJ 150700Z 06001MPS 3000 HZ NSC 06/M05 Q1018 NOSIG
ZBSJ,2015-02-15 08:00,ZBSJ 150800Z 08003MPS 3000 HZ NSC 06/M05 Q1018 BECMG 2000 HZ
ZBSJ,2015-02-15 09:00,ZBSJ 150900Z 07003MPS 2500 HZ NSC 06/M05 Q1018 NOSIG
ZBSJ,2015-02-15 10:00,ZBSJ 151000Z 10002MPS 3000 HZ NSC 04/M06 Q1018 NOSIG
ZBSJ,2015-02-15 11:00,ZBSJ 151100Z 17002MPS 5000 HZ NSC 03/M06 Q1019 NOSIG
ZBSJ,2015-02-15 12:00,ZBSJ 151200Z 00000MPS 5000 HZ NSC 01/M06 Q1019 NOSIG
ZBSJ,2015-02-15 13:00,ZBSJ 151300Z 22001MPS 4000 HZ NSC 00/M07 Q1020 NOSIG
ZBSJ,2015-02-15 14:00,ZBSJ 151400Z 21001MPS 3000 HZ NSC 01/M06 Q1020 NOSIG
ZBSJ,2015-02-15 15:00,ZBSJ 151500Z 18002MPS 2300 HZ NSC M01/M06 Q1020 NOSIG
ZBSJ,2015-02-15 16:00,ZBSJ 151600Z 34002MPS 2000 HZ NSC M02/M06 Q1021 NOSIG
ZBSJ,2015-02-15 17:00,ZBSJ 151700Z 24003MPS 2000 HZ NSC M01/M05 Q1020 NOSIG
ZBSJ,2015-02-15 18:00,ZBSJ 151800Z 27001MPS 2200 HZ NSC M01/M05 Q1020 NOSIG
ZBSJ,2015-02-15 19:00,ZBSJ 151900Z 26001MPS 2200 HZ NSC M01/M05 Q1019 NOSIG
ZBSJ,2015-02-15 20:00,ZBSJ 152000Z 27002MPS 230V010 1800 HZ NSC M02/M05 Q1019 NOSIG
ZBSJ,2015-02-15 21:00,ZBSJ 152100Z 30002MPS 1800 HZ NSC M02/M06 Q1019 NOSIG
ZBSJ,2015-02-15 22:00,ZBSJ 152200Z 26002MPS 1800 HZ NSC M01/M06 Q1019 NOSIG
ZBSJ,2015-02-15 23:00,ZBSJ 152300Z 26003MPS 1600 HZ NSC M02/M06 Q1020 BECMG TL2340 1400 HZ
ZBSJ,2015-02-16 00:00,ZBSJ 160000Z 24003MPS 1600 R33/1100N HZ NSC M01/M06 Q1020 BECMG 3000
ZBSJ,2015-02-16 01:00,ZBSJ 160100Z 12002MPS 070V170 1100 R33/1000U HZ NSC 03/M05 Q1021 BECMG 1600
ZBSJ,2015-02-16 02:00,ZBSJ 160200Z 25002MPS 230V290 2700 HZ NSC 09/M10 Q1020 BECMG TL0240 3500
ZBSJ,2015-02-16 03:00,ZBSJ 160300Z 28004MPS 240V310 CAVOK 11/M13 Q1020 NOSIG
ZBSJ,2015-02-16 04:00,ZBSJ 160400Z 25005MPS 220V290 CAVOK 13/M14 Q1019 NOSIG
ZBSJ,2015-02-16 05:00,ZBSJ 160500Z 27004MPS 220V310 CAVOK 15/M15 Q1018 NOSIG
ZBSJ,2015-02-16 06:00,ZBSJ 160600Z 30002MPS 230V350 CAVOK 15/M14 Q1016 NOSIG
ZBSJ,2015-02-16 07:00,ZBSJ 160700Z 30002MPS 200V010 CAVOK 16/M15 Q1016 NOSIG
ZBSJ,2015-02-16 08:00,ZBSJ 160800Z 32004MPS 290V350 CAVOK 17/M14 Q1015 NOSIG
ZBSJ,2015-02-16 09:00,ZBSJ 160900Z 01002MPS CAVOK 15/M12 Q1016 NOSIG
ZBSJ,2015-02-16 10:00,ZBSJ 161000Z 01001MPS 7000 NSC 10/M13 Q1016 NOSIG
ZBSJ,2015-02-16 11:00,ZBSJ 161100Z 19004MPS 6000 NSC 10/M12 Q1017 NOSIG
ZBSJ,2015-02-16 12:00,ZBSJ 161200Z 23002MPS 5000 FU NSC 08/M11 Q1017 NOSIG
ZBSJ,2015-02-16 13:00,ZBSJ 161300Z 22003MPS 5000 FU NSC 06/M11 Q1018 NOSIG
ZBSJ,2015-02-16 14:00,ZBSJ 161400Z 07003MPS 020V100 3500 FU NSC 04/M10 Q1019 NOSIG
ZBSJ,2015-02-16 15:00,ZBSJ 161500Z 04002MPS 3000 FU NSC 03/M10 Q1019 NOSIG
ZBSJ,2015-02-16 16:00,ZBSJ 161600Z 03002MPS 3000 FU NSC M01/M10 Q1019 NOSIG
ZBSJ,2015-02-16 17:00,ZBSJ 161700Z 03002MPS 3200 FU NSC M00/M11 Q1019 NOSIG
ZBSJ,2015-02-16 18:00,ZBSJ 161800Z 03002MPS 3000 FU NSC 01/M11 Q1020 NOSIG
ZBSJ,2015-02-16 19:00,ZBSJ 161900Z 02002MPS 3000 FU NSC M01/M10 Q1020 NOSIG
ZBSJ,2015-02-16 20:00,ZBSJ 162000Z 01002MPS 3500 FU NSC M01/M09 Q1020 NOSIG
ZBSJ,2015-02-16 21:00,ZBSJ 162100Z 35002MPS 4000 FU NSC M01/M10 Q1020 NOSIG
ZBSJ,2015-02-16 22:00,ZBSJ 162200Z 33002MPS 4500 FU NSC M02/M10 Q1021 NOSIG
ZBSJ,2015-02-16 23:00,ZBSJ 162300Z 32003MPS 4000 FU NSC M02/M10 Q1021 BECMG 2500 FU
ZBSJ,2015-02-17 00:00,ZBSJ 170000Z 32002MPS 3500 FU NSC M01/M09 Q1022 BECMG 2500 FU
ZBSJ,2015-02-17 01:00,ZBSJ 170100Z 04002MPS 360V080 3000 HZ NSC 04/M10 Q1023 NOSIG
ZBSJ,2015-02-17 02:00,ZBSJ 170200Z 07005MPS 8000 NSC 06/M09 Q1024 NOSIG
ZBSJ,2015-02-17 03:00,ZBSJ 170300Z 06005MPS CAVOK 08/M09 Q1024 NOSIG
ZBSJ,2015-02-17 04:00,ZBSJ 170400Z 07004MPS 040V110 CAVOK 09/M09 Q1024 NOSIG
ZBSJ,2015-02-17 05:00,ZBSJ 170500Z 11004MPS 070V150 CAVOK 10/M09 Q1023 NOSIG
ZBSJ,2015-02-17 06:00,ZBSJ 170600Z 11003MPS 070V160 CAVOK 10/M08 Q1023 NOSIG
ZBSJ,2015-02-17 07:00,ZBSJ 170700Z 11003MPS 050V150 CAVOK 11/M08 Q1023 NOSIG
ZBSJ,2015-02-17 08:00,ZBSJ 170800Z 10003MPS CAVOK 11/M08 Q1023 NOSIG
ZBSJ,2015-02-17 09:00,ZBSJ 170900Z 09003MPS CAVOK 10/M08 Q1023 NOSIG
ZBSJ,2015-02-17 10:00,ZBSJ 171000Z 06002MPS 7000 NSC 07/M08 Q1024 NOSIG
ZBSJ,2015-02-17 11:00,ZBSJ 171100Z 08001MPS 6000 NSC 05/M08 Q1025 BECMG 2800 FU
ZBSJ,2015-02-17 12:00,ZBSJ 171200Z 06002MPS 3500 FU NSC 02/M09 Q1025 NOSIG
ZBSJ,2015-02-17 13:00,ZBSJ 171300Z 06001MPS 3500 FU NSC 02/M09 Q1026 NOSIG
ZBSJ,2015-02-17 14:00,ZBSJ 171400Z 12001MPS 3000 FU NSC 01/M08 Q1027 BECMG 2500 FU
ZBSJ,2015-02-17 15:00,ZBSJ 171500Z 13001MPS 2300 FU NSC 01/M09 Q1028 NOSIG
ZBSJ,2015-02-17 16:00,ZBSJ 171600Z 10001MPS 2300 FU NSC M01/M08 Q1028 NOSIG
ZBSJ,2015-02-17 17:00,ZBSJ 171700Z 10001MPS 2000 FU NSC M01/M08 Q1029 NOSIG
ZBSJ,2015-02-17 18:00,ZBSJ 171800Z 00000MPS 2000 FU NSC M03/M08 Q1029 NOSIG
ZBSJ,2015-02-17 19:00,ZBSJ 171900Z 34001MPS 2000 FU NSC M03/M08 Q1029 NOSIG
ZBSJ,2015-02-17 20:00,ZBSJ 172000Z 01001MPS 2000 FU NSC M03/M08 Q1029 NOSIG
ZBSJ,2015-02-17 21:00,ZBSJ 172100Z 32001MPS 2000 FU NSC M04/M08 Q1030 NOSIG
ZBSJ,2015-02-17 22:00,ZBSJ 172200Z 24002MPS 2000 FU NSC M04/M09 Q1030 NOSIG
ZBSJ,2015-02-17 23:00,ZBSJ 172300Z 30001MPS 1800 FU NSC M04/M08 Q1031 BECMG TL2330 1400 FU
ZBSJ,2015-02-18 00:00,ZBSJ 180000Z 27001MPS 1700 FU NSC M03/M07 Q1032 BECMG 3000
ZBSJ,2015-02-18 01:00,ZBSJ 180100Z 27001MPS 2000 FU NSC 02/M08 Q1032 BECMG 3000
ZBSJ,2015-02-18 02:00,ZBSJ 180200Z 35002MPS 320V020 3000 FU NSC 05/M08 Q1032 NOSIG
ZBSJ,2015-02-18 03:00,ZBSJ 180300Z 35001MPS 3000 FU NSC 08/M07 Q1032 NOSIG
ZBSJ,2015-02-18 04:00,ZBSJ 180400Z 08003MPS 030V120 4000 FU NSC 09/M06 Q1032 NOSIG
ZBSJ,2015-02-18 05:00,ZBSJ 180500Z 08002MPS 010V130 3500 FU NSC 10/M04 Q1031 NOSIG
ZBSJ,2015-02-18 06:00,ZBSJ 180600Z 16003MPS 120V210 5000 FU NSC 10/M07 Q1030 NOSIG
ZBSJ,2015-02-18 07:00,ZBSJ 180700Z 12002MPS 090V160 7000 NSC 10/M06 Q1029 NOSIG
ZBSJ,2015-02-18 08:00,ZBSJ 180800Z 14003MPS 100V170 6000 NSC 10/M07 Q1029 NOSIG
ZBSJ,2015-02-18 09:00,ZBSJ 180900Z 15003MPS 6000 NSC 09/M07 Q1029 NOSIG
ZBSJ,2015-02-18 10:00,ZBSJ 181000Z 14002MPS 3000 FU NSC 06/M07 Q1029 NOSIG
ZBSJ,2015-02-18 11:00,ZBSJ 181100Z 15002MPS 5000 FU NSC 04/M08 Q1030 NOSIG
ZBSJ,2015-02-18 12:00,ZBSJ 181200Z 17002MPS 5000 FU NSC 03/M08 Q1030 NOSIG
ZBSJ,2015-02-18 13:00,ZBSJ 181300Z 17002MPS 3000 FU NSC 02/M08 Q1030 NOSIG
ZBSJ,2015-02-18 14:00,ZBSJ 181400Z 08002MPS 2100 FU NSC 00/M07 Q1031 NOSIG
ZBSJ,2015-02-18 15:00,ZBSJ 181500Z 09002MPS 1800 FU NSC M01/M07 Q1030 NOSIG
ZBSJ,2015-02-18 16:00,ZBSJ 181600Z 13001MPS 1800 FU NSC M01/M07 Q1030 BECMG 1400 FU
ZBSJ,2015-02-18 17:00,ZBSJ 181700Z 14002MPS 1800 FU NSC M01/M07 Q1030 NOSIG
ZBSJ,2015-02-18 18:00,ZBSJ 181800Z 14004MPS 1800 FU NSC M02/M06 Q1030 NOSIG
ZBSJ,2015-02-18 19:00,ZBSJ 181900Z 15003MPS 2500 FU NSC M02/M05 Q1029 NOSIG
ZBSJ,2015-02-18 20:00,ZBSJ 182000Z 17004MPS 3500 FU NSC M01/M05 Q1029 NOSIG
ZBSJ,2015-02-18 21:00,ZBSJ 182100Z 16001MPS 3500 FU NSC M03/M06 Q1029 NOSIG
ZBSJ,2015-02-18 22:00,ZBSJ 182200Z 04001MPS 3000 FU NSC M03/M06 Q1029 NOSIG
ZBSJ,2015-02-18 23:00,ZBSJ 182300Z 04002MPS 1700 BR NSC M02/M05 Q1029 NOSIG
ZBSJ,2015-02-19 00:00,ZBSJ 190000Z 06002MPS 1300 R15/1700U FU NSC M01/M04 Q1029 NOSIG
ZBSJ,2015-02-19 01:00,ZBSJ 190100Z 08002MPS 1700 FU NSC 01/M05 Q1030 NOSIG
ZBSJ,2015-02-19 02:00,ZBSJ 190200Z 11001MPS 1700 FU NSC 02/M05 Q1030 NOSIG
ZBSJ,2015-02-19 03:00,ZBSJ 190300Z 08001MPS 1700 FU NSC 03/M04 Q1030 NOSIG
ZBSJ,2015-02-19 04:00,ZBSJ 190400Z 01001MPS 1700 FU NSC 03/M04 Q1029 NOSIG
ZBSJ,2015-02-19 05:00,ZBSJ 190500Z 03002MPS 1700 FU NSC 03/M04 Q1028 NOSIG
ZBSJ,2015-02-19 06:00,ZBSJ 190600Z 03002MPS 1800 FU NSC 03/M03 Q1027 BECMG 1400 FU
ZBSJ,2015-02-19 07:00,ZBSJ 190700Z 03001MPS 2000 FU NSC 03/M04 Q1027 NOSIG
ZBSJ,2015-02-19 08:00,ZBSJ 190800Z 34003MPS 0700 R33/0700D SN FG OVC026 01/M00 Q1027 NOSIG
ZBSJ,2015-02-19 09:00,ZBSJ 190900Z 34002MPS 0500 R33/0700N FG OVC026 01/00 Q1026 RESN NOSIG
ZBSJ,2015-02-19 10:00,ZBSJ 191000Z 34001MPS 0800 R33/0900U FG OVC026 01/01 Q1026 BECMG 0600 FG
ZBSJ,2015-02-19 11:00,ZBSJ 191100Z 36002MPS 0800 R33/1300N FG OVC026 01/01 Q1026 BECMG 0500 FZFG
ZBSJ,2015-02-19 12:00,ZBSJ 191200Z 32001MPS 0900 R33/1400U FG OVC026 01/01 Q1026 BECMG 0500 FZFG
ZBSJ,2015-02-19 13:00,ZBSJ 191300Z 34002MPS 0700 R33/0900N FG OVC026 01/01 Q1026 BECMG 0500 FZFG
ZBSJ,2015-02-19 14:00,ZBSJ 191400Z 33002MPS 0700 R33/1100D FG OVC026 01/01 Q1026 BECMG 0500 FZFG
ZBSJ,2015-02-19 15:00,ZBSJ 191500Z 34002MPS 0700 R33/0900D FG OVC026 01/01 Q1025 NOSIG
ZBSJ,2015-02-19 16:00,ZBSJ 191600Z 28001MPS 0700 R33/0900N FG NSC 01/01 Q1025 NOSIG
ZBSJ,2015-02-19 17:00,ZBSJ 191700Z 00000MPS 0700 R33/1300N -RA FG OVC046 01/01 Q1025 NOSIG
ZBSJ,2015-02-19 18:00,ZBSJ 191800Z 00000MPS 0700 R33/1100N -SN FG OVC046 01/01 Q1024 NOSIG
ZBSJ,2015-02-19 19:00,ZBSJ 191900Z 00000MPS 0400 R33/0400N -SN FG OVC046 00/00 Q1023 NOSIG
ZBSJ,2015-02-19 20:00,ZBSJ 192000Z 03001MPS 0300 R33/0325N -SN FG OVC046 00/00 Q1022 NOSIG
ZBSJ,2015-02-19 21:00,ZBSJ 192100Z 02001MPS 0400 R33/0550N -SN FG OVC030 00/00 Q1022 NOSIG
ZBSJ,2015-02-19 22:00,ZBSJ 192200Z 08001MPS 0400 R33/0400N SN FG OVC030 00/00 Q1022 NOSIG
ZBSJ,2015-02-19 23:00,ZBSJ 192300Z 00000MPS 0400 R33/0500N -SN FG OVC030 00/00 Q1022 RESN NOSIG
ZBSJ,2015-02-20 00:00,ZBSJ 200000Z 12001MPS 0400 R33/0600U -SN FG OVC030 00/00 Q1022 BECMG 0600
ZBSJ,2015-02-20 01:00,ZBSJ 200100Z 04001MPS 0400 R15/0600N -SN FG OVC030 00/00 Q1023 BECMG 0600
ZBSJ,2015-02-20 02:00,ZBSJ 200200Z 09001MPS 0200 R15/0400N -SN FG OVC030 00/00 Q1022 BECMG 0450
ZBSJ,2015-02-20 03:00,ZBSJ 200300Z 04001MPS 0200 R15/0450N -SN FG OVC030 00/00 Q1022 BECMG 0400
ZBSJ,2015-02-20 04:00,ZBSJ 200400Z 35001MPS 0350 R15/0500N -SN FG OVC030 00/00 Q1022 NOSIG
ZBSJ,2015-02-20 05:00,ZBSJ 200500Z 05001MPS 0350 R15/0550N FG OVC030 00/00 Q1020 NOSIG
ZBSJ,2015-02-20 06:00,ZBSJ 200600Z 09001MPS 0350 R15/0500N FG NSC 01/01 Q1019 NOSIG
ZBSJ,2015-02-20 07:00,ZBSJ 200700Z 03001MPS 0400 R15/0650N FG NSC 01/01 Q1019 NOSIG
ZBSJ,2015-02-20 08:00,ZBSJ 200800Z 09001MPS 0400 R15/0650N FG -SN NSC 01/01 Q1018 NOSIG
ZBSJ,2015-02-20 09:00,ZBSJ 200900Z 36001MPS 0300 R15/0750N FG -SN NSC 01/01 Q1019 NOSIG
ZBSJ,2015-02-20 10:00,ZBSJ 201000Z 06001MPS 0300 R15/0900N -RA FG NSC 01/01 Q1018 NOSIG
ZBSJ,2015-02-20 11:00,ZBSJ 201100Z 08001MPS 0300 R15/0900D -RA FG NSC 01/01 Q1019 NOSIG
ZBSJ,2015-02-20 12:00,ZBSJ 201200Z 11001MPS 0300 R15/0750N FG NSC 01/01 Q1019 NOSIG
ZBSJ,2015-02-20 13:00,ZBSJ 201300Z 03001MPS 0300 R15/0700N FG NSC 01/01 Q1020 NOSIG
ZBSJ,2015-02-20 14:00,ZBSJ 201400Z 33002MPS 0500 R15/0700D FG NSC 01/01 Q1020 NOSIG
ZBSJ,2015-02-20 15:00,ZBSJ 201500Z 00000MPS 0400 R15/0800N FG NSC 01/01 Q1020 NOSIG
ZBSJ,2015-02-20 16:00,ZBSJ 201600Z 00000MPS 0550 R15/0900N FG NSC 01/01 Q1019 NOSIG
ZBSJ,2015-02-20 17:00,ZBSJ 201700Z 29003MPS 0800 R15/0800V1300U FG NSC 01/01 Q1019 NOSIG
ZBSJ,2015-02-20 18:00,ZBSJ 201800Z 29002MPS 1200 R15/0900U BR NSC 01/01 Q1018 NOSIG
ZBSJ,2015-02-20 19:00,ZBSJ 201900Z 17002MPS 1200 R15/1100D BR NSC 01/01 Q1018 NOSIG
ZBSJ,2015-02-20 20:00,ZBSJ 202000Z 24001MPS 1000 R15/0900U BR NSC 00/00 Q1017 NOSIG
ZBSJ,2015-02-20 21:00,ZBSJ 202100Z 19001MPS 0500 R15/0400V0550D FZFG NSC M01/M01 Q1017 NOSIG
ZBSJ,2015-02-20 22:00,ZBSJ 202200Z 21001MPS 0050 R15/0100N FZFG VV010 M02/M02 Q1017 NOSIG
ZBSJ,2015-02-20 23:00,ZBSJ 202300Z 15001MPS 0050 R15/0100N FZFG VV010 M01/M01 Q1017 BECMG 0200
ZBSJ,2015-02-21 00:00,ZBSJ 210000Z 19003MPS 0100 R15/0200N FZFG VV010 M00/M00 Q1016 BECMG TL0120 0200
ZBSJ,2015-02-21 01:00,ZBSJ 210100Z 19003MPS 0200 R15/0350V0450N FZFG VV006 M00/M00 Q1017 BECMG 0400
ZBSJ,2015-02-21 02:00,ZBSJ 210200Z 19003MPS 0400 R15/0600N FG VV013 01/01 Q1016 NOSIG
ZBSJ,2015-02-21 03:00,ZBSJ 210300Z 19005MPS 0700 R15/0800N FG NSC 01/01 Q1016 NOSIG
ZBSJ,2015-02-21 04:00,ZBSJ 210400Z 19005MPS 0700 R15/0700N FG NSC 03/03 Q1015 NOSIG
ZBSJ,2015-02-21 05:00,ZBSJ 210500Z 20005MPS 0900 R15/0900N FG NSC 05/05 Q1014 NOSIG
ZBSJ,2015-02-21 06:00,ZBSJ 210600Z 24003MPS 200V270 1000 R15/1000N BR NSC 08/05 Q1013 BECMG TL0720 1600
ZBSJ,2015-02-21 07:00,ZBSJ 210700Z 27002MPS 1000 R15/1000U FU NSC 09/05 Q1013 BECMG 1600
ZBSJ,2015-02-21 08:00,ZBSJ 210800Z 23001MPS 1100 R33/1200N FU NSC 10/04 Q1013 BECMG 1600
ZBSJ,2015-02-21 09:00,ZBSJ 210900Z 35009MPS 2300 FU NSC 08/M00 Q1015 BECMG TL0920 3500
ZBSJ,2015-02-21 10:00,ZBSJ 211000Z 35009G14MPS CAVOK 05/M10 Q1017 NOSIG
ZBSJ,2015-02-21 11:00,ZBSJ 211100Z 35009MPS CAVOK 03/M12 Q1019 NOSIG
ZBSJ,2015-02-21 12:00,ZBSJ 211200Z 34010MPS CAVOK 02/M14 Q1021 NOSIG
ZBSJ,2015-02-21 13:00,ZBSJ 211300Z 34010MPS CAVOK 01/M16 Q1022 NOSIG
ZBSJ,2015-02-21 14:00,ZBSJ 211400Z 35008G14MPS CAVOK 00/M17 Q1024 NOSIG
ZBSJ,2015-02-21 15:00,ZBSJ 211500Z 34007MPS CAVOK M01/M16 Q1025 NOSIG
ZBSJ,2015-02-21 16:00,ZBSJ 211600Z 34007MPS CAVOK M01/M18 Q1024 NOSIG
ZBSJ,2015-02-21 17:00,ZBSJ 211700Z 35006G11MPS CAVOK M02/M18 Q1025 NOSIG
ZBSJ,2015-02-21 18:00,ZBSJ 211800Z 35007MPS CAVOK M02/M18 Q1025 NOSIG
ZBSJ,2015-02-21 19:00,ZBSJ 211900Z 34004MPS CAVOK M03/M18 Q1026 NOSIG
ZBSJ,2015-02-21 20:00,ZBSJ 212000Z 31005MPS CAVOK M03/M17 Q1026 NOSIG
ZBSJ,2015-02-21 21:00,ZBSJ 212100Z 33005MPS CAVOK M05/M18 Q1026 NOSIG
ZBSJ,2015-02-21 22:00,ZBSJ 212200Z 32005MPS CAVOK M05/M18 Q1027 NOSIG
ZBSJ,2015-02-21 23:00,ZBSJ 212300Z 31005MPS CAVOK M05/M18 Q1027 NOSIG
ZBSJ,2015-02-22 00:00,ZBSJ 220000Z 31005MPS CAVOK M04/M17 Q1027 NOSIG
ZBSJ,2015-02-22 01:00,ZBSJ 220100Z 32006MPS CAVOK M01/M17 Q1027 NOSIG
ZBSJ,2015-02-22 02:00,ZBSJ 220200Z 32007MPS CAVOK 01/M20 Q1027 NOSIG
ZBSJ,2015-02-22 03:00,ZBSJ 220300Z 30006MPS CAVOK 02/M20 Q1026 NOSIG
ZBSJ,2015-02-22 04:00,ZBSJ 220400Z 30006MPS 250V330 CAVOK 03/M18 Q1025 NOSIG
ZBSJ,2015-02-22 05:00,ZBSJ 220500Z 30007MPS 260V330 CAVOK 05/M18 Q1024 NOSIG
ZBSJ,2015-02-22 06:00,ZBSJ 220600Z 28005MPS CAVOK 05/M19 Q1023 NOSIG
ZBSJ,2015-02-22 07:00,ZBSJ 220700Z 27003MPS 220V300 CAVOK 06/M18 Q1022 NOSIG
ZBSJ,2015-02-22 08:00,ZBSJ 220800Z 32002MPS 280V360 CAVOK 06/M21 Q1021 NOSIG
ZBSJ,2015-02-22 09:00,ZBSJ 220900Z 14001MPS CAVOK 06/M23 Q1021 NOSIG
ZBSJ,2015-02-22 10:00,ZBSJ 221000Z 34001MPS CAVOK 04/M22 Q1021 NOSIG
ZBSJ,2015-02-22 11:00,ZBSJ 221100Z 25002MPS CAVOK 03/M19 Q1022 NOSIG
ZBSJ,2015-02-22 12:00,ZBSJ 221200Z 11001MPS 7000 NSC M00/M14 Q1022 BECMG 2500 FU
ZBSJ,2015-02-22 13:00,ZBSJ 221300Z 25002MPS 5000 FU NSC M01/M13 Q1022 NOSIG
ZBSJ,2015-02-22 14:00,ZBSJ 221400Z 34001MPS 4000 FU NSC M03/M11 Q1022 BECMG 2500 FU
ZBSJ,2015-02-22 15:00,ZBSJ 221500Z 00000MPS 4000 FU NSC M02/M12 Q1022 BECMG 2500 FU
ZBSJ,2015-02-22 16:00,ZBSJ 221600Z 07001MPS 3000 FU NSC M04/M11 Q1022 NOSIG
ZBSJ,2015-02-22 17:00,ZBSJ 221700Z 01003MPS 4000 FU NSC M04/M11 Q1022 NOSIG
ZBSJ,2015-02-22 18:00,ZBSJ 221800Z 01002MPS 4000 FU NSC M06/M11 Q1022 NOSIG
ZBSJ,2015-02-22 19:00,ZBSJ 221900Z 36002MPS 5000 FU NSC M06/M12 Q1022 NOSIG
ZBSJ,2015-02-22 20:00,ZBSJ 222000Z 35001MPS 6000 NSC M05/M12 Q1023 NOSIG
ZBSJ,2015-02-22 21:00,ZBSJ 222100Z 36001MPS 6000 NSC M05/M12 Q1022 NOSIG
ZBSJ,2015-02-22 22:00,ZBSJ 222200Z 31002MPS 6000 NSC M07/M12 Q1022 NOSIG
ZBSJ,2015-02-22 23:00,ZBSJ 222300Z 33003MPS 6000 NSC M05/M10 Q1023 NOSIG
ZBSJ,2015-02-23 00:00,ZBSJ 230000Z 32002MPS 6000 NSC M03/M09 Q1023 NOSIG
ZBSJ,2015-02-23 01:00,ZBSJ 230100Z 31002MPS 6000 NSC M00/M09 Q1024 NOSIG
ZBSJ,2015-02-23 02:00,ZBSJ 230200Z 30002MPS 270V330 6000 NSC 03/M10 Q1023 NOSIG
ZBSJ,2015-02-23 03:00,ZBSJ 230300Z 01002MPS 7000 NSC 03/M12 Q1023 NOSIG
ZBSJ,2015-02-23 04:00,ZBSJ 230400Z 03002MPS 8000 NSC 05/M13 Q1022 NOSIG
ZBSJ,2015-02-23 05:00,ZBSJ 230500Z 19002MPS CAVOK 06/M14 Q1021 NOSIG
ZBSJ,2015-02-23 06:00,ZBSJ 230600Z VRB02MPS CAVOK 07/M13 Q1019 NOSIG
ZBSJ,2015-02-23 07:00,ZBSJ 230700Z 11002MPS CAVOK 07/M13 Q1018 NOSIG
ZBSJ,2015-02-23 08:00,ZBSJ 230800Z 12002MPS 090V190 8000 NSC 07/M14 Q1018 NOSIG
ZBSJ,2015-02-23 09:00,ZBSJ 230900Z 17002MPS 8000 NSC 07/M13 Q1017 NOSIG
ZBSJ,2015-02-23 10:00,ZBSJ 231000Z 15002MPS 7000 NSC 05/M12 Q1017 NOSIG
ZBSJ,2015-02-23 11:00,ZBSJ 231100Z 16002MPS 6000 NSC 03/M10 Q1018 NOSIG
ZBSJ,2015-02-23 12:00,ZBSJ 231200Z 17002MPS 5000 FU NSC 01/M08 Q1018 NOSIG
ZBSJ,2015-02-23 13:00,ZBSJ 231300Z 16002MPS 4000 FU NSC 01/M08 Q1018 BECMG 2800 FU
ZBSJ,2015-02-23 14:00,ZBSJ 231400Z 15002MPS 3000 FU NSC M01/M08 Q1018 NOSIG
ZBSJ,2015-02-23 15:00,ZBSJ 231500Z 15003MPS 2700 FU NSC M02/M07 Q1018 NOSIG
ZBSJ,2015-02-23 16:00,ZBSJ 231600Z 17003MPS 2500 FU NSC M00/M07 Q1017 NOSIG
ZBSJ,2015-02-23 17:00,ZBSJ 231700Z 17001MPS 2200 FU NSC M02/M07 Q1016 NOSIG
ZBSJ,2015-02-23 18:00,ZBSJ 231800Z 33001MPS 2200 FU NSC M03/M07 Q1016 NOSIG
ZBSJ,2015-02-23 19:00,ZBSJ 231900Z 19001MPS 2200 FU NSC M04/M07 Q1015 NOSIG
ZBSJ,2015-02-23 20:00,ZBSJ 232000Z 28001MPS 2200 FU NSC M03/M07 Q1015 NOSIG
ZBSJ,2015-02-23 21:00,ZBSJ 232100Z 00000MPS 2500 FU NSC M05/M07 Q1015 NOSIG
ZBSJ,2015-02-23 22:00,ZBSJ 232200Z 32001MPS 4000 FU NSC M05/M08 Q1014 NOSIG
ZBSJ,2015-02-23 23:00,ZBSJ 232300Z 16001MPS 2200 FU NSC M05/M07 Q1014 BECMG 3000
ZBSJ,2015-02-24 00:00,ZBSJ 240000Z 24002MPS 2000 FU NSC M03/M06 Q1015 BECMG 3000
ZBSJ,2015-02-24 01:00,ZBSJ 240100Z 32001MPS 2800 FU NSC 01/M07 Q1015 BECMG TL0130 3000
ZBSJ,2015-02-24 02:00,ZBSJ 240200Z 29001MPS 2100 FU NSC 02/M06 Q1015 BECMG TL0300 3500
ZBSJ,2015-02-24 03:00,ZBSJ 240300Z 06002MPS 020V090 1200 R33/1400D FU NSC 03/M05 Q1015 BECMG 1500
ZBSJ,2015-02-24 04:00,ZBSJ 240400Z 08003MPS 050V130 0800 R33/1100N FU NSC 04/M03 Q1014 BECMG 1500
ZBSJ,2015-02-24 05:00,ZBSJ 240500Z 08002MPS 040V120 0800 R33/1000N FU NSC 05/M02 Q1013 BECMG 1500
ZBSJ,2015-02-24 06:00,ZBSJ 240600Z 12002MPS 080V170 1000 R15/1100N FU NSC 06/M02 Q1012 BECMG 1500
ZBSJ,2015-02-24 07:00,ZBSJ 240700Z 14003MPS 110V180 1200 R15/1200N FU NSC 06/M03 Q1012 BECMG 1500
ZBSJ,2015-02-24 08:00,ZBSJ 240800Z 14003MPS 1600 FU NSC 07/M04 Q1011 BECMG 1400 FU
ZBSJ,2015-02-24 09:00,ZBSJ 240900Z 12002MPS 1600 FU NSC 06/M04 Q1012 BECMG 1400 FU
ZBSJ,2015-02-24 10:00,ZBSJ 241000Z 08003MPS 1300 R15/1800U FU NSC 03/M02 Q1013 NOSIG
ZBSJ,2015-02-24 11:00,ZBSJ 241100Z 06003MPS 1700 FU NSC 02/M02 Q1014 NOSIG
ZBSJ,2015-02-24 12:00,ZBSJ 241200Z 07002MPS 1700 BR NSC 00/M02 Q1014 NOSIG
ZBSJ,2015-02-24 13:00,ZBSJ 241300Z 01002MPS 1600 BR NSC 00/M02 Q1014 NOSIG
ZBSJ,2015-02-24 14:00,ZBSJ 241400Z 33003MPS 1600 BR NSC M00/M02 Q1015 NOSIG
ZBSJ,2015-02-24 15:00,ZBSJ 241500Z 27001MPS 1600 BR NSC M01/M02 Q1015 NOSIG
ZBSJ,2015-02-24 16:00,ZBSJ 241600Z 28003MPS 1600 BR NSC 01/M01 Q1016 NOSIG
ZBSJ,2015-02-24 17:00,ZBSJ 241700Z 27001MPS 1400 R33/1700N BR NSC M00/M01 Q1015 NOSIG
ZBSJ,2015-02-24 18:00,ZBSJ 241800Z 34002MPS 1400 R33/1500N BR NSC M01/M02 Q1015 NOSIG
ZBSJ,2015-02-24 19:00,ZBSJ 241900Z 28001MPS 1200 R33/1400U BR NSC M02/M03 Q1015 NOSIG
ZBSJ,2015-02-24 20:00,ZBSJ 242000Z 29001MPS 1200 R33/1100N BR NSC M03/M03 Q1015 NOSIG
ZBSJ,2015-02-24 21:00,ZBSJ 242100Z 31001MPS 1200 R33/1400N BR NSC M03/M04 Q1016 NOSIG
ZBSJ,2015-02-24 22:00,ZBSJ 242200Z 30002MPS 1200 BR NSC M04/M04 Q1017 NOSIG
ZBSJ,2015-02-24 23:00,ZBSJ 242300Z 33002MPS 1000 R33/1200N BR NSC M03/M03 Q1018 NOSIG
ZBSJ,2015-02-25 00:00,ZBSJ 250000Z 29002MPS 0700 R33/1000D FZFG NSC M01/M02 Q1019 BECMG 0800
ZBSJ,2015-02-25 01:00,ZBSJ 250100Z 23001MPS 0900 R33/0800N FG NSC 02/M00 Q1019 NOSIG
ZBSJ,2015-02-25 02:00,ZBSJ 250200Z 09001MPS 0900 R33/0800N HZ NSC 04/M00 Q1020 BECMG 1600
ZBSJ,2015-02-25 03:00,ZBSJ 250300Z 36003MPS 300V100 4000 HZ NSC 08/M06 Q1019 NOSIG
ZBSJ,2015-02-25 04:00,ZBSJ 250400Z 01005MPS 330V050 CAVOK 09/M10 Q1019 NOSIG
ZBSJ,2015-02-25 05:00,ZBSJ 250500Z 36004MPS 310V050 CAVOK 10/M12 Q1018 NOSIG
ZBSJ,2015-02-25 06:00,ZBSJ 250600Z 36005MPS 340V040 CAVOK 10/M13 Q1018 NOSIG
ZBSJ,2015-02-25 07:00,ZBSJ 250700Z 36004MPS 330V030 CAVOK 11/M12 Q1018 NOSIG
ZBSJ,2015-02-25 08:00,ZBSJ 250800Z 01005MPS CAVOK 10/M13 Q1018 NOSIG
ZBSJ,2015-02-25 09:00,ZBSJ 250900Z 01006MPS CAVOK 09/M14 Q1018 NOSIG
ZBSJ,2015-02-25 10:00,ZBSJ 251000Z 36004MPS CAVOK 07/M14 Q1019 NOSIG
ZBSJ,2015-02-25 11:00,ZBSJ 251100Z 05003MPS CAVOK 04/M14 Q1020 NOSIG
ZBSJ,2015-02-25 12:00,ZBSJ 251200Z 14002MPS CAVOK 02/M13 Q1021 NOSIG
ZBSJ,2015-02-25 13:00,ZBSJ 251300Z 14001MPS CAVOK 01/M13 Q1022 NOSIG
ZBSJ,2015-02-25 14:00,ZBSJ 251400Z 07001MPS CAVOK 02/M12 Q1023 NOSIG
ZBSJ,2015-02-25 15:00,ZBSJ 251500Z 09002MPS CAVOK 01/M13 Q1023 NOSIG
ZBSJ,2015-02-25 16:00,ZBSJ 251600Z 16001MPS CAVOK M00/M11 Q1023 NOSIG
ZBSJ,2015-02-25 17:00,ZBSJ 251700Z 32001MPS CAVOK M02/M11 Q1023 NOSIG
ZBSJ,2015-02-25 18:00,ZBSJ 251800Z 31002MPS CAVOK M04/M11 Q1023 NOSIG
ZBSJ,2015-02-25 19:00,ZBSJ 251900Z 29001MPS 6000 NSC M02/M11 Q1024 NOSIG
ZBSJ,2015-02-25 20:00,ZBSJ 252000Z 34001MPS 5000 HZ NSC M05/M11 Q1023 NOSIG
ZBSJ,2015-02-25 21:00,ZBSJ 252100Z 02002MPS 7000 NSC M04/M10 Q1024 NOSIG
ZBSJ,2015-02-25 22:00,ZBSJ 252200Z 04003MPS 8000 NSC M04/M10 Q1024 NOSIG
ZBSJ,2015-02-25 23:00,ZBSJ 252300Z 04005MPS 5000 HZ NSC M02/M11 Q1025 NOSIG
ZBSJ,2015-02-26 00:00,ZBSJ 260000Z 06004MPS 7000 NSC M01/M10 Q1026 NOSIG
ZBSJ,2015-02-26 01:00,ZBSJ 260100Z 07005MPS 8000 NSC 02/M13 Q1026 NOSIG
ZBSJ,2015-02-26 02:00,ZBSJ 260200Z 08004MPS CAVOK 03/M14 Q1026 NOSIG
ZBSJ,2015-02-26 03:00,ZBSJ 260300Z 09003MPS 040V120 CAVOK 04/M14 Q1026 NOSIG
ZBSJ,2015-02-26 04:00,ZBSJ 260400Z 11002MPS CAVOK 05/M15 Q1026 NOSIG
ZBSJ,2015-02-26 05:00,ZBSJ 260500Z 08002MPS CAVOK 06/M15 Q1025 NOSIG
ZBSJ,2015-02-26 06:00,ZBSJ 260600Z 08002MPS 020V120 CAVOK 07/M14 Q1024 NOSIG
ZBSJ,2015-02-26 07:00,ZBSJ 260700Z 08003MPS 350V120 CAVOK 07/M15 Q1024 NOSIG
ZBSJ,2015-02-26 08:00,ZBSJ 260800Z 08003MPS 040V140 CAVOK 07/M15 Q1024 NOSIG
ZBSJ,2015-02-26 09:00,ZBSJ 260900Z 15003MPS CAVOK 07/M15 Q1024 NOSIG
ZBSJ,2015-02-26 10:00,ZBSJ 261000Z 14002MPS CAVOK 04/M13 Q1024 NOSIG
ZBSJ,2015-02-26 11:00,ZBSJ 261100Z 14002MPS CAVOK 03/M12 Q1026 NOSIG
ZBSJ,2015-02-26 12:00,ZBSJ 261200Z 13002MPS 8000 NSC 00/M12 Q1027 NOSIG
ZBSJ,2015-02-26 13:00,ZBSJ 261300Z 11001MPS 6000 NSC M00/M10 Q1028 NOSIG
ZBSJ,2015-02-26 14:00,ZBSJ 261400Z 09002MPS 5000 FU NSC M01/M10 Q1028 NOSIG
ZBSJ,2015-02-26 15:00,ZBSJ 261500Z 10002MPS 5000 FU NSC 00/M10 Q1028 BECMG 2500 FU
ZBSJ,2015-02-26 16:00,ZBSJ 261600Z 12002MPS 4000 FU NSC 01/M11 Q1029 BECMG 2500 FU
ZBSJ,2015-02-26 17:00,ZBSJ 261700Z 12001MPS 6000 NSC 01/M09 Q1029 NOSIG
ZBSJ,2015-02-26 18:00,ZBSJ 261800Z 00000MPS 6000 NSC 00/M10 Q1030 NOSIG
ZBSJ,2015-02-26 19:00,ZBSJ 261900Z 01002MPS 6000 NSC M00/M06 Q1030 NOSIG
ZBSJ,2015-02-26 20:00,ZBSJ 262000Z 34001MPS 6000 NSC M00/M09 Q1030 NOSIG
ZBSJ,2015-02-26 21:00,ZBSJ 262100Z 05003MPS 5000 FU NSC 00/M11 Q1031 NOSIG
ZBSJ,2015-02-26 22:00,ZBSJ 262200Z 05005MPS CAVOK M00/M12 Q1031 NOSIG
ZBSJ,2015-02-26 23:00,ZBSJ 262300Z 05005MPS CAVOK M00/M12 Q1032 NOSIG
ZBSJ,2015-02-27 00:00,ZBSJ 270000Z 05005MPS CAVOK M00/M12 Q1033 NOSIG
ZBSJ,2015-02-27 01:00,ZBSJ 270100Z 05006MPS CAVOK 00/M13 Q1034 NOSIG
ZBSJ,2015-02-27 02:00,ZBSJ 270200Z 06004MPS CAVOK 00/M13 Q1034 NOSIG
ZBSJ,2015-02-27 03:00,ZBSJ 270300Z 06004MPS CAVOK 01/M12 Q1034 NOSIG
ZBSJ,2015-02-27 04:00,ZBSJ 270400Z 05003MPS 010V080 CAVOK 02/M12 Q1034 NOSIG
ZBSJ,2015-02-27 05:00,ZBSJ 270500Z 06003MPS 010V090 CAVOK 02/M11 Q1033 NOSIG
ZBSJ,2015-02-27 06:00,ZBSJ 270600Z 07002MPS 040V110 CAVOK 02/M10 Q1032 NOSIG
ZBSJ,2015-02-27 07:00,ZBSJ 270700Z 07001MPS CAVOK 02/M11 Q1032 NOSIG
ZBSJ,2015-02-27 08:00,ZBSJ 270800Z 04002MPS CAVOK 03/M10 Q1031 NOSIG
ZBSJ,2015-02-27 09:00,ZBSJ 270900Z 03003MPS CAVOK 02/M09 Q1031 NOSIG
ZBSJ,2015-02-27 10:00,ZBSJ 271000Z 04002MPS 6000 NSC 02/M08 Q1031 NOSIG
ZBSJ,2015-02-27 11:00,ZBSJ 271100Z 03002MPS 5000 FU NSC 01/M08 Q1032 NOSIG
ZBSJ,2015-02-27 12:00,ZBSJ 271200Z 03002MPS 5000 FU NSC 01/M07 Q1032 NOSIG
ZBSJ,2015-02-27 13:00,ZBSJ 271300Z 19004MPS 170V240 6000 -SN OVC046 01/M07 Q1032 NOSIG
ZBSJ,2015-02-27 14:00,ZBSJ 271400Z 14003MPS 5000 -SN BR OVC046 M00/M04 Q1032 NOSIG
ZBSJ,2015-02-27 15:00,ZBSJ 271500Z 17003MPS 4000 BR OVC046 M01/M03 Q1032 NOSIG
ZBSJ,2015-02-27 16:00,ZBSJ 271600Z 19002MPS 3500 -SN BR OVC046 M01/M02 Q1032 NOSIG
ZBSJ,2015-02-27 17:00,ZBSJ 271700Z 23002MPS 3500 -SN BR OVC046 M01/M02 Q1031 NOSIG
ZBSJ,2015-02-27 18:00,ZBSJ 271800Z 27002MPS 4000 -SN BR OVC046 M02/M03 Q1031 NOSIG
ZBSJ,2015-02-27 19:00,ZBSJ 271900Z 26001MPS 4000 -SN BR OVC046 M02/M03 Q1030 NOSIG
ZBSJ,2015-02-27 20:00,ZBSJ 272000Z 14001MPS 4000 -SN BR OVC046 M01/M02 Q1028 NOSIG
ZBSJ,2015-02-27 21:00,ZBSJ 272100Z 17002MPS 3000 -SN BR OVC046 M01/M02 Q1028 NOSIG
ZBSJ,2015-02-27 22:00,ZBSJ 272200Z 18003MPS 2500 -SN BR OVC040 M01/M02 Q1028 NOSIG
ZBSJ,2015-02-27 23:00,ZBSJ 272300Z 16003MPS 1600 BR OVC040 M01/M02 Q1028 BECMG 1400 BR
ZBSJ,2015-02-28 00:00,ZBSJ 280000Z 17004MPS 1800 -SN BR OVC040 M01/M02 Q1028 BECMG 3000
ZBSJ,2015-02-28 01:00,ZBSJ 280100Z 17005MPS 1600 BR OVC040 M01/M01 Q1028 NOSIG
ZBSJ,2015-02-28 02:00,ZBSJ 280200Z 19004MPS 1600 -SN BR OVC040 00/M01 Q1028 NOSIG
ZBSJ,2015-02-28 03:00,ZBSJ 280300Z 21003MPS 2000 BR BKN046 01/M01 Q1027 BECMG 3000
ZBSJ,2015-02-28 04:00,ZBSJ 280400Z 21004MPS 180V240 2500 HZ NSC 03/M02 Q1026 BECMG 3000
ZBSJ,2015-02-28 05:00,ZBSJ 280500Z 20005MPS 2300 HZ NSC 03/M02 Q1025 BECMG 3000
ZBSJ,2015-02-28 06:00,ZBSJ 280600Z 21004MPS 2500 HZ NSC 04/M01 Q1024 BECMG 3000
ZBSJ,2015-02-28 07:00,ZBSJ 280700Z 19004MPS 2100 HZ NSC 05/M01 Q1023 NOSIG
ZBSJ,2015-02-28 08:00,ZBSJ 280800Z 22002MPS 170V250 2000 HZ NSC 05/M01 Q1023 NOSIG
ZBSJ,2015-02-28 09:00,ZBSJ 280900Z 22003MPS 2300 HZ NSC 06/M01 Q1023 NOSIG
ZBSJ,2015-02-28 10:00,ZBSJ 281000Z 22003MPS 2100 HZ NSC 04/M01 Q1023 NOSIG
ZBSJ,2015-02-28 11:00,ZBSJ 281100Z 25002MPS 2700 HZ NSC 02/M01 Q1024 NOSIG
ZBSJ,2015-02-28 12:00,ZBSJ 281200Z 06002MPS 2100 HZ NSC 00/M02 Q1026 NOSIG
ZBSJ,2015-02-28 13:00,ZBSJ 281300Z 29002MPS 2300 HZ NSC 01/M02 Q1026 NOSIG
ZBSJ,2015-02-28 14:00,ZBSJ 281400Z 20002MPS 2100 HZ NSC M02/M05 Q1026 NOSIG
ZBSJ,2015-02-28 15:00,ZBSJ 281500Z 26003MPS 2100 HZ NSC 00/M03 Q1026 NOSIG
ZBSJ,2015-02-28 16:00,ZBSJ 281600Z 27004MPS 3000 HZ NSC 02/M07 Q1026 NOSIG
ZBSJ,2015-02-28 17:00,ZBSJ 281700Z 29002MPS 5000 HZ NSC M00/M07 Q1026 NOSIG
ZBSJ,2015-02-28 18:00,ZBSJ 281800Z 26002MPS 5000 HZ NSC M02/M08 Q1026 NOSIG
ZBSJ,2015-02-28 19:00,ZBSJ 281900Z 28002MPS CAVOK M04/M10 Q1025 NOSIG
ZBSJ,2015-02-28 20:00,ZBSJ 282000Z 18001MPS CAVOK M04/M09 Q1025 NOSIG
ZBSJ,2015-02-28 21:00,ZBSJ 282100Z 24002MPS CAVOK M05/M10 Q1025 NOSIG
ZBSJ,2015-02-28 22:00,ZBSJ 282200Z 22002MPS CAVOK M02/M09 Q1024 NOSIG
ZBSJ,2015-02-28 23:00,ZBSJ 282300Z 22002MPS 7000 NSC M03/M10 Q1024 NOSIG
ZBSJ,2015-03-01 00:00,ZBSJ 010000Z 32001MPS 3000 HZ NSC M01/M06 Q1025 NOSIG
ZBSJ,2015-03-01 01:00,ZBSJ 010100Z 03001MPS 3000 HZ NSC 03/M05 Q1025 NOSIG
ZBSJ,2015-03-01 02:00,ZBSJ 010200Z 23002MPS 190V280 CAVOK 07/M12 Q1025 NOSIG
ZBSJ,2015-03-01 03:00,ZBSJ 010300Z 26003MPS 220V320 CAVOK 10/M13 Q1024 NOSIG
ZBSJ,2015-03-01 04:00,ZBSJ 010400Z 28003MPS 240V310 CAVOK 11/M14 Q1023 NOSIG
ZBSJ,2015-03-01 05:00,ZBSJ 010500Z 29002MPS 220V350 CAVOK 11/M14 Q1021 NOSIG
ZBSJ,2015-03-01 05:30,ZBSJ 010530Z 32003MPS 280V040 CAVOK 13/M13 Q1020 NOSIG
ZBSJ,2015-03-01 06:00,ZBSJ 010600Z VRB02MPS CAVOK 13/M13 Q1020 NOSIG
ZBSJ,2015-03-01 06:30,ZBSJ 010630Z 29002MPS CAVOK 14/M14 Q1019 NOSIG
ZBSJ,2015-03-01 07:00,ZBSJ 010700Z 14001MPS CAVOK 13/M15 Q1019 NOSIG
ZBSJ,2015-03-01 07:30,ZBSJ 010730Z VRB03MPS CAVOK 14/M14 Q1018 NOSIG
ZBSJ,2015-03-01 08:00,ZBSJ 010800Z 16003MPS CAVOK 14/M16 Q1018 NOSIG
ZBSJ,2015-03-01 09:00,ZBSJ 010900Z 19003MPS 150V220 CAVOK 14/M14 Q1017 NOSIG
ZBSJ,2015-03-01 10:00,ZBSJ 011000Z 17005MPS CAVOK 10/M12 Q1017 NOSIG
ZBSJ,2015-03-01 11:00,ZBSJ 011100Z 18004MPS CAVOK 08/M11 Q1017 NOSIG
ZBSJ,2015-03-01 12:00,ZBSJ 011200Z 19004MPS CAVOK 07/M11 Q1017 NOSIG
ZBSJ,2015-03-01 13:00,ZBSJ 011300Z 19005MPS CAVOK 08/M10 Q1017 NOSIG
ZBSJ,2015-03-01 14:00,ZBSJ 011400Z 19003MPS CAVOK 06/M10 Q1017 NOSIG
ZBSJ,2015-03-01 15:00,ZBSJ 011500Z 24002MPS 210V270 8000 NSC 05/M09 Q1016 NOSIG
ZBSJ,2015-03-01 16:00,ZBSJ 011600Z 12001MPS 6000 NSC 02/M09 Q1016 NOSIG
ZBSJ,2015-03-01 17:00,ZBSJ 011700Z 19002MPS 3500 FU NSC 01/M09 Q1015 NOSIG
ZBSJ,2015-03-01 18:00,ZBSJ 011800Z 29002MPS 4000 FU NSC 02/M09 Q1015 NOSIG
ZBSJ,2015-03-01 19:00,ZBSJ 011900Z 25002MPS 4000 FU NSC 02/M10 Q1014 NOSIG
ZBSJ,2015-03-01 20:00,ZBSJ 012000Z 01001MPS 4000 FU NSC M03/M09 Q1013 NOSIG
ZBSJ,2015-03-01 21:00,ZBSJ 012100Z 34002MPS 4000 FU NSC M01/M09 Q1012 NOSIG
ZBSJ,2015-03-01 22:00,ZBSJ 012200Z 33002MPS 7000 NSC 00/M10 Q1012 NOSIG
ZBSJ,2015-03-01 22:30,ZBSJ 012230Z 26002MPS 7000 NSC M02/M10 Q1013 NOSIG
ZBSJ,2015-03-01 23:00,ZBSJ 012300Z 26003MPS 240V340 5000 FU NSC M03/M09 Q1012 NOSIG
ZBSJ,2015-03-01 23:30,ZBSJ 012330Z 35001MPS 7000 NSC M02/M08 Q1013 NOSIG
ZBSJ,2015-03-02 00:00,ZBSJ 020000Z 32003MPS 7000 NSC 01/M07 Q1013 NOSIG
ZBSJ,2015-03-02 00:30,ZBSJ 020030Z 35003MPS 7000 NSC 03/M08 Q1013 NOSIG
ZBSJ,2015-03-02 01:00,ZBSJ 020100Z 34002MPS 7000 NSC 05/M08 Q1013 NOSIG
ZBSJ,2015-03-02 01:30,ZBSJ 020130Z 33004MPS CAVOK 08/M08 Q1013 NOSIG
ZBSJ,2015-03-02 02:00,ZBSJ 020200Z 31004MPS CAVOK 10/M08 Q1012 NOSIG
ZBSJ,2015-03-02 02:30,ZBSJ 020230Z 32005MPS CAVOK 11/M08 Q1012 NOSIG
ZBSJ,2015-03-02 03:00,ZBSJ 020300Z 30003MPS CAVOK 11/M10 Q1012 NOSIG
ZBSJ,2015-03-02 04:00,ZBSJ 020400Z 28003MPS CAVOK 14/M11 Q1011 NOSIG
ZBSJ,2015-03-02 05:00,ZBSJ 020500Z 26002MPS CAVOK 13/M14 Q1010 NOSIG
ZBSJ,2015-03-02 06:00,ZBSJ 020600Z 28002MPS CAVOK 14/M12 Q1009 NOSIG
ZBSJ,2015-03-02 07:00,ZBSJ 020700Z 05001MPS CAVOK 14/M12 Q1009 NOSIG
ZBSJ,2015-03-02 08:00,ZBSJ 020800Z 02002MPS CAVOK 15/M11 Q1009 NOSIG
ZBSJ,2015-03-02 09:00,ZBSJ 020900Z 18001MPS CAVOK 14/M11 Q1009 NOSIG
ZBSJ,2015-03-02 10:00,ZBSJ 021000Z 18002MPS CAVOK 12/M11 Q1009 BECMG 33006MPS
ZBSJ,2015-03-02 11:00,ZBSJ 021100Z 18003MPS 7000 NSC 10/M08 Q1010 BECMG 33006MPS
ZBSJ,2015-03-02 12:00,ZBSJ 021200Z 20003MPS 6000 NSC 09/M07 Q1010 NOSIG
ZBSJ,2015-03-02 13:00,ZBSJ 021300Z 22004MPS 5000 HZ NSC 08/M07 Q1011 NOSIG
ZBSJ,2015-03-02 14:00,ZBSJ 021400Z 31001MPS 7000 NSC 09/M08 Q1012 NOSIG
ZBSJ,2015-03-02 15:00,ZBSJ 021500Z 35007MPS CAVOK 10/M09 Q1013 NOSIG
ZBSJ,2015-03-02 16:00,ZBSJ 021600Z 35007MPS CAVOK 09/M07 Q1015 NOSIG
ZBSJ,2015-03-02 17:00,ZBSJ 021700Z 33009MPS CAVOK 06/M06 Q1016 NOSIG
ZBSJ,2015-03-02 18:00,ZBSJ 021800Z 34010MPS CAVOK 06/M07 Q1018 NOSIG
ZBSJ,2015-03-02 19:00,ZBSJ 021900Z 33008MPS CAVOK 05/M09 Q1019 NOSIG
ZBSJ,2015-03-02 20:00,ZBSJ 022000Z 33007MPS CAVOK 03/M11 Q1020 NOSIG
ZBSJ,2015-03-02 21:00,ZBSJ 022100Z 33008MPS CAVOK 04/M19 Q1021 NOSIG
ZBSJ,2015-03-02 22:00,ZBSJ 022200Z 34007MPS CAVOK 02/M19 Q1022 NOSIG
ZBSJ,2015-03-02 23:00,ZBSJ 022300Z 36007MPS CAVOK 02/M20 Q1023 NOSIG
ZBSJ,2015-03-03 00:00,ZBSJ 030000Z 35014MPS CAVOK 02/M24 Q1024 NOSIG
ZBSJ,2015-03-03 01:00,ZBSJ 030100Z 35012G18MPS CAVOK 03/M24 Q1025 NOSIG
ZBSJ,2015-03-03 02:00,ZBSJ 030200Z 34012MPS CAVOK 03/M25 Q1026 NOSIG
ZBSJ,2015-03-03 03:00,ZBSJ 030300Z 34009G14MPS 320V020 CAVOK 04/M25 Q1027 NOSIG
ZBSJ,2015-03-03 04:00,ZBSJ 030400Z 34009MPS CAVOK 06/M25 Q1027 NOSIG
ZBSJ,2015-03-03 05:00,ZBSJ 030500Z 35007MPS CAVOK 05/M26 Q1026 NOSIG
ZBSJ,2015-03-03 06:00,ZBSJ 030600Z 36006MPS 330V030 CAVOK 06/M25 Q1025 NOSIG
ZBSJ,2015-03-03 07:00,ZBSJ 030700Z 36006MPS 330V030 CAVOK 06/M25 Q1024 NOSIG
ZBSJ,2015-03-03 08:00,ZBSJ 030800Z 36006MPS 330V030 CAVOK 06/M25 Q1024 NOSIG
ZBSJ,2015-03-03 09:00,ZBSJ 030900Z 34006MPS 320V020 CAVOK 06/M25 Q1024 NOSIG
ZBSJ,2015-03-03 10:00,ZBSJ 031000Z 34007MPS CAVOK 04/M24 Q1024 NOSIG
ZBSJ,2015-03-03 11:00,ZBSJ 031100Z 36002MPS CAVOK 01/M20 Q1024 NOSIG
ZBSJ,2015-03-03 12:00,ZBSJ 031200Z 36002MPS CAVOK M00/M19 Q1025 NOSIG
ZBSJ,2015-03-03 13:00,ZBSJ 031300Z 03001MPS CAVOK M02/M18 Q1026 NOSIG
ZBSJ,2015-03-03 14:00,ZBSJ 031400Z 03001MPS 8000 NSC M02/M18 Q1026 NOSIG
ZBSJ,2015-03-03 15:00,ZBSJ 031500Z 26001MPS 7000 NSC M02/M17 Q1027 NOSIG
ZBSJ,2015-03-03 16:00,ZBSJ 031600Z 22001MPS 5000 FU NSC M02/M18 Q1027 NOSIG
ZBSJ,2015-03-03 17:00,ZBSJ 031700Z 00000MPS 4000 FU NSC M05/M16 Q1028 NOSIG
ZBSJ,2015-03-03 18:00,ZBSJ 031800Z 30001MPS 5000 FU NSC M05/M16 Q1028 NOSIG
ZBSJ,2015-03-03 19:00,ZBSJ 031900Z 30001MPS 5000 FU NSC M05/M16 Q1028 NOSIG
ZBSJ,2015-03-03 20:00,ZBSJ 032000Z 05001MPS 6000 NSC M07/M15 Q1028 NOSIG
ZBSJ,2015-03-03 21:00,ZBSJ 032100Z 09001MPS 5000 FU NSC M07/M15 Q1029 NOSIG
ZBSJ,2015-03-03 22:00,ZBSJ 032200Z 15001MPS 5000 FU NSC M07/M16 Q1029 NOSIG
ZBSJ,2015-03-03 23:00,ZBSJ 032300Z 17001MPS 3500 FU NSC M07/M16 Q1030 NOSIG
ZBSJ,2015-03-04 00:00,ZBSJ 040000Z 19001MPS 3000 FU NSC M02/M12 Q1031 NOSIG
ZBSJ,2015-03-04 01:00,ZBSJ 040100Z 19004MPS 4000 HZ NSC 01/M16 Q1031 NOSIG
ZBSJ,2015-03-04 02:00,ZBSJ 040200Z 18005MPS CAVOK 03/M20 Q1031 NOSIG
ZBSJ,2015-03-04 03:00,ZBSJ 040300Z 19005MPS CAVOK 04/M21 Q1031 NOSIG
ZBSJ,2015-03-04 04:00,ZBSJ 040400Z 19003MPS 140V230 CAVOK 05/M21 Q1029 NOSIG
ZBSJ,2015-03-04 05:00,ZBSJ 040500Z 19002MPS 120V290 CAVOK 06/M21 Q1028 NOSIG
ZBSJ,2015-03-04 06:00,ZBSJ 040600Z VRB02MPS CAVOK 07/M22 Q1027 NOSIG
ZBSJ,2015-03-04 07:00,ZBSJ 040700Z 16003MPS CAVOK 06/M22 Q1027 NOSIG
ZBSJ,2015-03-04 08:00,ZBSJ 040800Z 20004MPS CAVOK 06/M22 Q1026 NOSIG
ZBSJ,2015-03-04 09:00,ZBSJ 040900Z 17005MPS CAVOK 06/M20 Q1026 NOSIG
ZBSJ,2015-03-04 10:00,ZBSJ 041000Z 16004MPS CAVOK 02/M19 Q1026 NOSIG
ZBSJ,2015-03-04 11:00,ZBSJ 041100Z 14002MPS CAVOK 01/M18 Q1027 NOSIG
ZBSJ,2015-03-04 12:00,ZBSJ 041200Z 15002MPS CAVOK 01/M18 Q1028 NOSIG
ZBSJ,2015-03-04 13:00,ZBSJ 041300Z 16002MPS CAVOK 00/M18 Q1028 NOSIG
ZBSJ,2015-03-04 14:00,ZBSJ 041400Z 15002MPS 6000 NSC 00/M17 Q1028 NOSIG
ZBSJ,2015-03-04 15:00,ZBSJ 041500Z 15002MPS 6000 NSC M00/M16 Q1028 NOSIG
ZBSJ,2015-03-04 16:00,ZBSJ 041600Z 17001MPS 6000 NSC M01/M14 Q1028 NOSIG
ZBSJ,2015-03-04 17:00,ZBSJ 041700Z 12002MPS 5000 HZ NSC M02/M13 Q1028 NOSIG
ZBSJ,2015-03-04 18:00,ZBSJ 041800Z 00000MPS 6000 NSC M02/M14 Q1028 NOSIG
ZBSJ,2015-03-04 19:00,ZBSJ 041900Z 05001MPS 6000 NSC M02/M12 Q1028 NOSIG
ZBSJ,2015-03-04 20:00,ZBSJ 042000Z 07002MPS 6000 NSC M03/M11 Q1027 NOSIG
ZBSJ,2015-03-04 21:00,ZBSJ 042100Z 08001MPS 6000 NSC M03/M12 Q1027 NOSIG
ZBSJ,2015-03-04 22:00,ZBSJ 042200Z 09002MPS 5000 HZ NSC M05/M12 Q1027 NOSIG
ZBSJ,2015-03-04 23:00,ZBSJ 042300Z 18001MPS 4500 HZ NSC M04/M12 Q1027 NOSIG
ZBSJ,2015-03-05 00:00,ZBSJ 050000Z 22001MPS 4000 HZ NSC M02/M11 Q1028 NOSIG
ZBSJ,2015-03-05 01:00,ZBSJ 050100Z 24001MPS 3000 HZ NSC 00/M13 Q1028 NOSIG
ZBSJ,2015-03-05 02:00,ZBSJ 050200Z 24001MPS 3500 HZ NSC 03/M13 Q1028 NOSIG
ZBSJ,2015-03-05 03:00,ZBSJ 050300Z 17002MPS 100V210 4000 HZ NSC 05/M13 Q1027 NOSIG
ZBSJ,2015-03-05 04:00,ZBSJ 050400Z 17003MPS 130V210 5000 HZ NSC 06/M13 Q1027 NOSIG
ZBSJ,2015-03-05 05:00,ZBSJ 050500Z 17004MPS 8000 NSC 08/M12 Q1025 NOSIG
ZBSJ,2015-03-05 06:00,ZBSJ 050600Z 17005MPS 120V200 CAVOK 08/M13 Q1024 NOSIG
ZBSJ,2015-03-05 07:00,ZBSJ 050700Z 18005MPS 140V220 CAVOK 08/M12 Q1023 NOSIG
ZBSJ,2015-03-05 08:00,ZBSJ 050800Z 18005MPS CAVOK 09/M10 Q1022 NOSIG
ZBSJ,2015-03-05 09:00,ZBSJ 050900Z 18005MPS CAVOK 09/M09 Q1022 NOSIG
ZBSJ,2015-03-05 10:00,ZBSJ 051000Z 17004MPS CAVOK 06/M09 Q1022 NOSIG
ZBSJ,2015-03-05 11:00,ZBSJ 051100Z 14002MPS 8000 NSC 04/M09 Q1022 NOSIG
ZBSJ,2015-03-05 12:00,ZBSJ 051200Z 15003MPS 8000 NSC 03/M09 Q1022 NOSIG
ZBSJ,2015-03-05 13:00,ZBSJ 051300Z 15003MPS 8000 NSC 02/M10 Q1023 NOSIG
ZBSJ,2015-03-05 14:00,ZBSJ 051400Z 15003MPS 8000 NSC 00/M09 Q1023 NOSIG
ZBSJ,2015-03-05 15:00,ZBSJ 051500Z 14002MPS 8000 NSC 01/M10 Q1023 NOSIG
ZBSJ,2015-03-05 16:00,ZBSJ 051600Z 17003MPS 8000 NSC M01/M09 Q1022 NOSIG
ZBSJ,2015-03-05 17:00,ZBSJ 051700Z 18003MPS 8000 NSC M01/M08 Q1022 NOSIG
ZBSJ,2015-03-05 18:00,ZBSJ 051800Z 21002MPS 8000 NSC M02/M08 Q1022 NOSIG
ZBSJ,2015-03-05 19:00,ZBSJ 051900Z 23002MPS 4000 FU NSC M01/M07 Q1021 NOSIG
ZBSJ,2015-03-05 20:00,ZBSJ 052000Z 23003MPS 3500 FU NSC M02/M08 Q1021 NOSIG
ZBSJ,2015-03-05 21:00,ZBSJ 052100Z 26002MPS 3500 FU NSC M02/M08 Q1021 NOSIG
ZBSJ,2015-03-05 22:00,ZBSJ 052200Z 24001MPS 3500 FU NSC M03/M08 Q1021 NOSIG
ZBSJ,2015-03-05 23:00,ZBSJ 052300Z 21001MPS 2000 FU NSC M04/M09 Q1020 BECMG 3500
ZBSJ,2015-03-06 00:00,ZBSJ 060000Z 20002MPS 1600 FU NSC M02/M06 Q1021 BECMG 3500
ZBSJ,2015-03-06 01:00,ZBSJ 060100Z 19001MPS 1800 FU NSC 03/M06 Q1021 BECMG 3500
ZBSJ,2015-03-06 02:00,ZBSJ 060200Z 17003MPS 2500 HZ NSC 06/M06 Q1021 BECMG 3500
ZBSJ,2015-03-06 03:00,ZBSJ 060300Z 19005MPS 4000 HZ NSC 10/M05 Q1020 NOSIG
ZBSJ,2015-03-06 04:00,ZBSJ 060400Z 18006MPS 6000 NSC 11/M05 Q1019 NOSIG
ZBSJ,2015-03-06 05:00,ZBSJ 060500Z 18006MPS 8000 NSC 13/M05 Q1017 NOSIG
ZBSJ,2015-03-06 06:00,ZBSJ 060600Z 19007MPS 8000 NSC 14/M04 Q1016 NOSIG
ZBSJ,2015-03-06 07:00,ZBSJ 060700Z 18007MPS 8000 NSC 14/M04 Q1015 NOSIG
ZBSJ,2015-03-06 08:00,ZBSJ 060800Z 17007MPS CAVOK 15/M04 Q1014 NOSIG
ZBSJ,2015-03-06 09:00,ZBSJ 060900Z 18008MPS CAVOK 14/M04 Q1014 NOSIG
ZBSJ,2015-03-06 10:00,ZBSJ 061000Z 17007MPS 6000 NSC 11/M04 Q1014 NOSIG
ZBSJ,2015-03-06 11:00,ZBSJ 061100Z 17007MPS 6000 NSC 10/M04 Q1015 NOSIG
ZBSJ,2015-03-06 12:00,ZBSJ 061200Z 17006MPS 5000 HZ NSC 08/M03 Q1015 NOSIG
ZBSJ,2015-03-06 13:00,ZBSJ 061300Z 18005MPS 5000 HZ NSC 08/M03 Q1016 NOSIG
ZBSJ,2015-03-06 14:00,ZBSJ 061400Z 21003MPS 4000 HZ NSC 06/M03 Q1016 NOSIG
ZBSJ,2015-03-06 15:00,ZBSJ 061500Z 18004MPS 4000 HZ NSC 05/M03 Q1016 NOSIG
ZBSJ,2015-03-06 16:00,ZBSJ 061600Z 19004MPS 4000 HZ NSC 05/M02 Q1016 NOSIG
ZBSJ,2015-03-06 17:00,ZBSJ 061700Z 20003MPS 3500 HZ NSC 04/M02 Q1016 NOSIG
ZBSJ,2015-03-06 18:00,ZBSJ 061800Z 17002MPS 3500 HZ NSC 02/M02 Q1017 NOSIG
ZBSJ,2015-03-06 19:00,ZBSJ 061900Z 21001MPS 3500 HZ NSC 01/M03 Q1017 NOSIG
ZBSJ,2015-03-06 20:00,ZBSJ 062000Z 24001MPS 3000 BR NSC 00/M03 Q1017 NOSIG
ZBSJ,2015-03-06 21:00,ZBSJ 062100Z 25001MPS 3000 BR NSC M01/M03 Q1017 NOSIG
ZBSJ,2015-03-06 22:00,ZBSJ 062200Z 18001MPS 2500 BR NSC M01/M03 Q1017 NOSIG
ZBSJ,2015-03-06 23:00,ZBSJ 062300Z 16001MPS 1800 BR NSC M02/M04 Q1017 NOSIG
ZBSJ,2015-03-07 00:00,ZBSJ 070000Z 16002MPS 1500 R15/1300N BR NSC 00/M01 Q1019 BECMG 3500
ZBSJ,2015-03-07 01:00,ZBSJ 070100Z 16002MPS 1800 HZ NSC 04/M00 Q1019 BECMG TL0240 3500
ZBSJ,2015-03-07 02:00,ZBSJ 070200Z 12001MPS 2200 HZ NSC 06/00 Q1019 BECMG TL0240 3500
ZBSJ,2015-03-07 03:00,ZBSJ 070300Z 06003MPS 010V100 2200 HZ NSC 08/00 Q1019 BECMG 3500
ZBSJ,2015-03-07 04:00,ZBSJ 070400Z 04004MPS 010V080 2200 HZ NSC 10/00 Q1019 NOSIG
ZBSJ,2015-03-07 05:00,ZBSJ 070500Z 08003MPS 040V130 2200 HZ NSC 12/M00 Q1018 NOSIG
ZBSJ,2015-03-07 06:00,ZBSJ 070600Z 09003MPS 060V130 2200 HZ NSC 13/00 Q1017 NOSIG
ZBSJ,2015-03-07 07:00,ZBSJ 070700Z 11003MPS 070V140 2700 HZ NSC 14/00 Q1016 BECMG TL0800 3500
ZBSJ,2015-03-07 08:00,ZBSJ 070800Z 13003MPS 100V160 3000 HZ NSC 14/01 Q1016 BECMG 2000 HZ
ZBSJ,2015-03-07 09:00,ZBSJ 070900Z 14002MPS 3500 HZ NSC 13/M00 Q1016 BECMG 2000 HZ
ZBSJ,2015-03-07 10:00,ZBSJ 071000Z 02001MPS 2700 HZ NSC 11/01 Q1016 NOSIG
ZBSJ,2015-03-07 11:00,ZBSJ 071100Z 02003MPS 2700 HZ NSC 08/00 Q1017 NOSIG
ZBSJ,2015-03-07 12:00,ZBSJ 071200Z 03002MPS 2500 HZ NSC 07/M00 Q1018 NOSIG
ZBSJ,2015-03-07 13:00,ZBSJ 071300Z 03002MPS 2500 HZ NSC 06/M01 Q1019 NOSIG
ZBSJ,2015-03-07 14:00,ZBSJ 071400Z 36002MPS 2200 HZ NSC 05/M01 Q1019 NOSIG
ZBSJ,2015-03-07 15:00,ZBSJ 071500Z 05002MPS 2200 HZ NSC 05/M01 Q1019 NOSIG
ZBSJ,2015-03-07 16:00,ZBSJ 071600Z 34002MPS 2200 HZ NSC 05/M01 Q1019 NOSIG
ZBSJ,2015-03-07 17:00,ZBSJ 071700Z 28002MPS 1800 HZ NSC 04/M01 Q1018 NOSIG
ZBSJ,2015-03-07 18:00,ZBSJ 071800Z 33002MPS 1800 HZ NSC 04/M02 Q1018 NOSIG
ZBSJ,2015-03-07 19:00,ZBSJ 071900Z 29001MPS 2000 HZ NSC 03/M02 Q1018 NOSIG
ZBSJ,2015-03-07 20:00,ZBSJ 072000Z 31001MPS 2000 HZ NSC 03/M02 Q1017 NOSIG
ZBSJ,2015-03-07 21:00,ZBSJ 072100Z 25001MPS 2000 HZ NSC 02/M02 Q1017 NOSIG
ZBSJ,2015-03-07 22:00,ZBSJ 072200Z 24002MPS 2000 HZ NSC 02/M01 Q1017 NOSIG
ZBSJ,2015-03-07 23:00,ZBSJ 072300Z 27001MPS 1000 R33/1600D HZ NSC 03/M01 Q1018 BECMG 1600
ZBSJ,2015-03-08 00:00,ZBSJ 080000Z 25001MPS 1000 R33/1200N HZ NSC 04/M01 Q1018 BECMG 1600
ZBSJ,2015-03-08 01:00,ZBSJ 080100Z 33001MPS 1200 R33/1000N HZ NSC 06/M00 Q1019 BECMG 1600
ZBSJ,2015-03-08 02:00,ZBSJ 080200Z 03003MPS 360V060 1400 R33/1200U HZ NSC 07/M01 Q1019 BECMG 1600
ZBSJ,2015-03-08 03:00,ZBSJ 080300Z 05004MPS 1400 R33/1200N HZ NSC 07/M01 Q1020 BECMG 1600
ZBSJ,2015-03-08 04:00,ZBSJ 080400Z 05003MPS 1400 R33/1200N HZ NSC 09/00 Q1021 NOSIG
ZBSJ,2015-03-08 05:00,ZBSJ 080500Z 06005MPS 1400 R33/1300N HZ NSC 09/01 Q1021 NOSIG
ZBSJ,2015-03-08 06:00,ZBSJ 080600Z 08005MPS 1600 R33/1400N HZ NSC 10/01 Q1021 NOSIG
ZBSJ,2015-03-08 07:00,ZBSJ 080700Z 08006MPS 2300 HZ NSC 11/M01 Q1021 NOSIG
ZBSJ,2015-03-08 08:00,ZBSJ 080800Z 07005MPS 2700 HZ NSC 11/M02 Q1021 NOSIG
ZBSJ,2015-03-08 09:00,ZBSJ 080900Z 08005MPS 3000 HZ NSC 11/M03 Q1022 NOSIG
ZBSJ,2015-03-08 10:00,ZBSJ 081000Z 12001MPS 3000 HZ NSC 09/M04 Q1023 NOSIG
ZBSJ,2015-03-08 11:00,ZBSJ 081100Z 02001MPS 5000 HZ NSC 07/M04 Q1024 NOSIG
ZBSJ,2015-03-08 12:00,ZBSJ 081200Z 29001MPS 5000 HZ NSC 05/M04 Q1025 NOSIG
ZBSJ,2015-03-08 13:00,ZBSJ 081300Z 33001MPS 3000 HZ NSC 06/M03 Q1026 NOSIG
ZBSJ,2015-03-08 14:00,ZBSJ 081400Z 08002MPS 2500 HZ NSC 05/M03 Q1027 NOSIG
ZBSJ,2015-03-08 15:00,ZBSJ 081500Z 09003MPS 2500 HZ NSC 05/00 Q1028 NOSIG
ZBSJ,2015-03-08 16:00,ZBSJ 081600Z 10003MPS 070V130 2700 HZ NSC 04/00 Q1028 NOSIG
ZBSJ,2015-03-08 17:00,ZBSJ 081700Z 06003MPS 3500 HZ NSC 03/M00 Q1030 NOSIG
ZBSJ,2015-03-08 18:00,ZBSJ 081800Z 05004MPS 4000 HZ NSC 02/M01 Q1030 NOSIG
ZBSJ,2015-03-08 19:00,ZBSJ 081900Z 05004MPS 4000 -SN BR OVC046 03/M01 Q1031 NOSIG
ZBSJ,2015-03-08 20:00,ZBSJ 082000Z 10002MPS 4000 BR OVC046 02/M02 Q1031 NOSIG
ZBSJ,2015-03-08 21:00,ZBSJ 082100Z 03002MPS 4000 BR NSC 01/M02 Q1032 NOSIG
ZBSJ,2015-03-08 22:00,ZBSJ 082200Z 08001MPS 6000 NSC 01/M02 Q1034 NOSIG
ZBSJ,2015-03-08 23:00,ZBSJ 082300Z 07004MPS 8000 NSC 01/M08 Q1035 NOSIG
ZBSJ,2015-03-09 00:00,ZBSJ 090000Z 08004MPS CAVOK 01/M16 Q1036 NOSIG
ZBSJ,2015-03-09 01:00,ZBSJ 090100Z 08004MPS 060V120 CAVOK 01/M19 Q1037 NOSIG
ZBSJ,2015-03-09 02:00,ZBSJ 090200Z 10003MPS 060V160 CAVOK 02/M19 Q1037 NOSIG
ZBSJ,2015-03-09 03:00,ZBSJ 090300Z 18003MPS CAVOK 03/M19 Q1037 NOSIG
ZBSJ,2015-03-09 04:00,ZBSJ 090400Z 26002MPS CAVOK 04/M18 Q1037 NOSIG
ZBSJ,2015-03-09 05:00,ZBSJ 090500Z 28002MPS CAVOK 06/M17 Q1036 NOSIG
ZBSJ,2015-03-09 06:00,ZBSJ 090600Z 20003MPS 110V270 CAVOK 06/M16 Q1035 NOSIG
ZBSJ,2015-03-09 07:00,ZBSJ 090700Z 23002MPS 170V320 CAVOK 07/M16 Q1034 NOSIG
ZBSJ,2015-03-09 08:00,ZBSJ 090800Z VRB02MPS CAVOK 07/M14 Q1034 NOSIG
ZBSJ,2015-03-09 09:00,ZBSJ 090900Z 20002MPS CAVOK 06/M14 Q1033 NOSIG
ZBSJ,2015-03-09 10:00,ZBSJ 091000Z 22003MPS CAVOK 05/M13 Q1034 NOSIG
ZBSJ,2015-03-09 11:00,ZBSJ 091100Z 22002MPS CAVOK 04/M12 Q1034 NOSIG
ZBSJ,2015-03-09 12:00,ZBSJ 091200Z 16003MPS CAVOK M00/M13 Q1035 NOSIG
ZBSJ,2015-03-09 13:00,ZBSJ 091300Z 19004MPS 8000 NSC 02/M12 Q1036 NOSIG
ZBSJ,2015-03-09 14:00,ZBSJ 091400Z 13003MPS 6000 NSC M01/M11 Q1036 NOSIG
ZBSJ,2015-03-09 15:00,ZBSJ 091500Z 15003MPS 6000 NSC M03/M11 Q1036 NOSIG
ZBSJ,2015-03-09 16:00,ZBSJ 091600Z 16003MPS 6000 NSC M02/M12 Q1036 NOSIG
ZBSJ,2015-03-09 17:00,ZBSJ 091700Z 16003MPS 6000 NSC M03/M13 Q1036 NOSIG
ZBSJ,2015-03-09 18:00,ZBSJ 091800Z 17004MPS 6000 NSC M05/M14 Q1036 NOSIG
ZBSJ,2015-03-09 19:00,ZBSJ 091900Z 16002MPS 6000 NSC M03/M13 Q1036 NOSIG
ZBSJ,2015-03-09 20:00,ZBSJ 092000Z 00000MPS 7000 NSC M04/M14 Q1035 NOSIG
ZBSJ,2015-03-09 21:00,ZBSJ 092100Z 15002MPS 7000 NSC M05/M14 Q1035 NOSIG
ZBSJ,2015-03-09 22:00,ZBSJ 092200Z 18002MPS 7000 NSC M05/M14 Q1035 NOSIG
ZBSJ,2015-03-09 23:00,ZBSJ 092300Z 27001MPS 3000 HZ NSC M05/M12 Q1034 TEMPO 2000 HZ
ZBSJ,2015-03-10 00:00,ZBSJ 100000Z 30002MPS 2800 HZ NSC M02/M11 Q1034 BECMG 3500
ZBSJ,2015-03-10 01:00,ZBSJ 100100Z 30003MPS 3500 HZ NSC 01/M13 Q1034 NOSIG
ZBSJ,2015-03-10 02:00,ZBSJ 100200Z 32003MPS 8000 NSC 04/M14 Q1034 NOSIG
ZBSJ,2015-03-10 03:00,ZBSJ 100300Z 30002MPS 230V350 8000 NSC 06/M10 Q1032 NOSIG
ZBSJ,2015-03-10 04:00,ZBSJ 100400Z VRB02MPS 8000 NSC 08/M11 Q1031 NOSIG
ZBSJ,2015-03-10 05:00,ZBSJ 100500Z 26004MPS 210V310 CAVOK 09/M14 Q1029 NOSIG
ZBSJ,2015-03-10 06:00,ZBSJ 100600Z VRB02MPS CAVOK 09/M14 Q1028 NOSIG
ZBSJ,2015-03-10 07:00,ZBSJ 100700Z 19003MPS 160V230 CAVOK 10/M14 Q1026 NOSIG
ZBSJ,2015-03-10 08:00,ZBSJ 100800Z 18003MPS 140V210 CAVOK 10/M12 Q1026 NOSIG
ZBSJ,2015-03-10 09:00,ZBSJ 100900Z 17004MPS CAVOK 09/M13 Q1025 NOSIG
ZBSJ,2015-03-10 10:00,ZBSJ 101000Z 17003MPS CAVOK 06/M12 Q1025 NOSIG
ZBSJ,2015-03-10 11:00,ZBSJ 101100Z 19006MPS CAVOK 07/M11 Q1025 NOSIG
ZBSJ,2015-03-10 12:00,ZBSJ 101200Z 19005MPS CAVOK 06/M10 Q1025 NOSIG
ZBSJ,2015-03-10 13:00,ZBSJ 101300Z 19006MPS CAVOK 06/M09 Q1025 NOSIG
ZBSJ,2015-03-10 14:00,ZBSJ 101400Z 20003MPS 7000 NSC 03/M08 Q1026 NOSIG
ZBSJ,2015-03-10 15:00,ZBSJ 101500Z 19003MPS 6000 NSC 02/M08 Q1025 NOSIG
ZBSJ,2015-03-10 16:00,ZBSJ 101600Z 20001MPS 6000 NSC 01/M07 Q1025 NOSIG
ZBSJ,2015-03-10 17:00,ZBSJ 101700Z 17001MPS 5000 HZ NSC M03/M08 Q1025 NOSIG
ZBSJ,2015-03-10 18:00,ZBSJ 101800Z 22001MPS 5000 HZ NSC M02/M08 Q1025 NOSIG
ZBSJ,2015-03-10 19:00,ZBSJ 101900Z 31003MPS 4000 HZ NSC M04/M09 Q1024 NOSIG
ZBSJ,2015-03-10 20:00,ZBSJ 102000Z 24003MPS 5000 HZ NSC M02/M09 Q1024 NOSIG
ZBSJ,2015-03-10 21:00,ZBSJ 102100Z 26006MPS 6000 NSC 01/M08 Q1024 NOSIG
ZBSJ,2015-03-10 22:00,ZBSJ 102200Z 29002MPS 6000 NSC M01/M08 Q1025 NOSIG
ZBSJ,2015-03-10 23:00,ZBSJ 102300Z 32002MPS 4000 HZ NSC M03/M08 Q1025 NOSIG
ZBSJ,2015-03-11 00:00,ZBSJ 110000Z 17001MPS 5000 HZ NSC 01/M07 Q1025 NOSIG
ZBSJ,2015-03-11 01:00,ZBSJ 110100Z 30004MPS 8000 NSC 07/M11 Q1026 NOSIG
ZBSJ,2015-03-11 02:00,ZBSJ 110200Z 34003MPS 300V010 CAVOK 10/M14 Q1025 NOSIG
ZBSJ,2015-03-11 03:00,ZBSJ 110300Z 32005MPS CAVOK 13/M19 Q1025 NOSIG
ZBSJ,2015-03-11 04:00,ZBSJ 110400Z 28003MPS 220V330 CAVOK 12/M20 Q1024 NOSIG
ZBSJ,2015-03-11 05:00,ZBSJ 110500Z VRB03MPS CAVOK 13/M19 Q1023 NOSIG
ZBSJ,2015-03-11 06:00,ZBSJ 110600Z 24002MPS CAVOK 13/M21 Q1022 NOSIG
ZBSJ,2015-03-11 07:00,ZBSJ 110700Z 19003MPS 140V260 CAVOK 13/M20 Q1020 NOSIG
ZBSJ,2015-03-11 08:00,ZBSJ 110800Z 13003MPS 090V160 CAVOK 14/M19 Q1020 NOSIG
ZBSJ,2015-03-11 09:00,ZBSJ 110900Z 16003MPS CAVOK 13/M19 Q1019 NOSIG
ZBSJ,2015-03-11 10:00,ZBSJ 111000Z 17003MPS CAVOK 09/M15 Q1019 NOSIG
ZBSJ,2015-03-11 11:00,ZBSJ 111100Z 19005MPS CAVOK 10/M15 Q1020 NOSIG
ZBSJ,2015-03-11 12:00,ZBSJ 111200Z 19005MPS CAVOK 08/M14 Q1020 NOSIG
ZBSJ,2015-03-11 13:00,ZBSJ 111300Z 17004MPS 8000 NSC 04/M13 Q1021 NOSIG
ZBSJ,2015-03-11 14:00,ZBSJ 111400Z 16005MPS 8000 NSC 05/M13 Q1020 NOSIG
ZBSJ,2015-03-11 15:00,ZBSJ 111500Z 16005MPS 8000 NSC 04/M12 Q1020 NOSIG
ZBSJ,2015-03-11 16:00,ZBSJ 111600Z 15003MPS 8000 NSC 01/M12 Q1019 NOSIG
ZBSJ,2015-03-11 17:00,ZBSJ 111700Z 16003MPS 7000 NSC 00/M12 Q1019 NOSIG
ZBSJ,2015-03-11 18:00,ZBSJ 111800Z 20001MPS 7000 NSC M01/M11 Q1018 NOSIG
ZBSJ,2015-03-11 19:00,ZBSJ 111900Z 02001MPS 6000 NSC M01/M10 Q1017 NOSIG
ZBSJ,2015-03-11 20:00,ZBSJ 112000Z 29002MPS 270V350 6000 NSC M00/M11 Q1016 NOSIG
ZBSJ,2015-03-11 21:00,ZBSJ 112100Z 32003MPS 6000 NSC M03/M10 Q1016 NOSIG
ZBSJ,2015-03-11 22:00,ZBSJ 112200Z 31004MPS 6000 NSC M02/M11 Q1017 NOSIG
ZBSJ,2015-03-11 23:00,ZBSJ 112300Z 33003MPS 6000 NSC M02/M11 Q1016 NOSIG
ZBSJ,2015-03-12 00:00,ZBSJ 120000Z 33002MPS 6000 NSC 01/M10 Q1016 NOSIG
ZBSJ,2015-03-12 01:00,ZBSJ 120100Z 35002MPS 5000 HZ NSC 06/M11 Q1016 NOSIG
ZBSJ,2015-03-12 02:00,ZBSJ 120200Z 03003MPS 8000 NSC 08/M11 Q1016 NOSIG
ZBSJ,2015-03-12 03:00,ZBSJ 120300Z 06005MPS 4500 HZ NSC 10/M10 Q1016 NOSIG
ZBSJ,2015-03-12 04:00,ZBSJ 120400Z 06005MPS 5000 HZ NSC 12/M10 Q1015 NOSIG
ZBSJ,2015-03-12 05:00,ZBSJ 120500Z 06004MPS 030V090 4500 HZ NSC 13/M09 Q1014 NOSIG
ZBSJ,2015-03-12 06:00,ZBSJ 120600Z 08005MPS 040V120 6000 NSC 14/M08 Q1013 NOSIG
ZBSJ,2015-03-12 07:00,ZBSJ 120700Z 09005MPS 6000 NSC 14/M09 Q1012 NOSIG
ZBSJ,2015-03-12 08:00,ZBSJ 120800Z 10004MPS 7000 NSC 15/M09 Q1012 NOSIG
ZBSJ,2015-03-12 09:00,ZBSJ 120900Z 08004MPS 7000 NSC 13/M08 Q1012 NOSIG
ZBSJ,2015-03-12 10:00,ZBSJ 121000Z 06003MPS 5000 HZ NSC 10/M08 Q1013 NOSIG
ZBSJ,2015-03-12 11:00,ZBSJ 121100Z 04003MPS 6000 NSC 08/M08 Q1014 NOSIG
ZBSJ,2015-03-12 12:00,ZBSJ 121200Z 03004MPS 6000 NSC 06/M08 Q1015 NOSIG
ZBSJ,2015-03-12 13:00,ZBSJ 121300Z 04003MPS 5000 HZ NSC 06/M08 Q1016 NOSIG
ZBSJ,2015-03-12 14:00,ZBSJ 121400Z 04003MPS 4000 HZ NSC 06/M08 Q1016 NOSIG
ZBSJ,2015-03-12 15:00,ZBSJ 121500Z 04002MPS 4000 HZ NSC 04/M09 Q1017 NOSIG
ZBSJ,2015-03-12 16:00,ZBSJ 121600Z 02002MPS 4000 HZ NSC 02/M09 Q1017 NOSIG
ZBSJ,2015-03-12 17:00,ZBSJ 121700Z 35002MPS 4000 HZ NSC 02/M10 Q1017 NOSIG
ZBSJ,2015-03-12 18:00,ZBSJ 121800Z 01001MPS 4000 HZ NSC 01/M09 Q1018 NOSIG
ZBSJ,2015-03-12 19:00,ZBSJ 121900Z 33002MPS 4000 HZ NSC 00/M09 Q1018 NOSIG
ZBSJ,2015-03-12 20:00,ZBSJ 122000Z 04001MPS 4000 HZ NSC M01/M08 Q1018 NOSIG
ZBSJ,2015-03-12 21:00,ZBSJ 122100Z 01001MPS 4000 HZ NSC M02/M09 Q1019 NOSIG
ZBSJ,2015-03-12 22:00,ZBSJ 122200Z 33003MPS 4000 HZ NSC M01/M08 Q1020 NOSIG
ZBSJ,2015-03-12 23:00,ZBSJ 122300Z 33002MPS 2000 HZ NSC M02/M08 Q1021 NOSIG
ZBSJ,2015-03-13 00:00,ZBSJ 130000Z 36002MPS 2000 HZ NSC 02/M07 Q1022 BECMG 3500
ZBSJ,2015-03-13 01:00,ZBSJ 130100Z 04002MPS 2700 HZ NSC 05/M08 Q1023 BECMG TL0140 3500
ZBSJ,2015-03-13 02:00,ZBSJ 130200Z 02002MPS 350V070 3000 HZ NSC 08/M08 Q1023 NOSIG
ZBSJ,2015-03-13 03:00,ZBSJ 130300Z 08001MPS 4000 HZ NSC 11/M08 Q1023 NOSIG
ZBSJ,2015-03-13 04:00,ZBSJ 130400Z 05001MPS 6000 NSC 13/M10 Q1022 NOSIG
ZBSJ,2015-03-13 05:00,ZBSJ 130500Z 09002MPS 020V150 8000 NSC 14/M12 Q1022 NOSIG
ZBSJ,2015-03-13 06:00,ZBSJ 130600Z VRB03MPS CAVOK 15/M11 Q1021 NOSIG
ZBSJ,2015-03-13 07:00,ZBSJ 130700Z 13004MPS 100V170 CAVOK 15/M11 Q1020 NOSIG
ZBSJ,2015-03-13 08:00,ZBSJ 130800Z 13003MPS 090V160 CAVOK 15/M11 Q1020 NOSIG
ZBSJ,2015-03-13 09:00,ZBSJ 130900Z 14004MPS CAVOK 14/M11 Q1020 NOSIG
ZBSJ,2015-03-13 10:00,ZBSJ 131000Z 15003MPS CAVOK 10/M09 Q1021 NOSIG
ZBSJ,2015-03-13 11:00,ZBSJ 131100Z 15001MPS 8000 NSC 09/M10 Q1022 NOSIG
ZBSJ,2015-03-13 12:00,ZBSJ 131200Z 13002MPS 5000 HZ NSC 06/M10 Q1022 NOSIG
ZBSJ,2015-03-13 13:00,ZBSJ 131300Z 16002MPS 5000 HZ NSC 06/M10 Q1024 NOSIG
ZBSJ,2015-03-13 14:00,ZBSJ 131400Z 11001MPS 5000 HZ NSC 04/M09 Q1024 NOSIG
ZBSJ,2015-03-13 15:00,ZBSJ 131500Z 15002MPS 4000 HZ NSC 06/M10 Q1025 NOSIG
ZBSJ,2015-03-13 16:00,ZBSJ 131600Z 14003MPS 4000 HZ NSC 07/M09 Q1025 NOSIG
ZBSJ,2015-03-13 17:00,ZBSJ 131700Z 16003MPS 6000 NSC 05/M09 Q1025 NOSIG
ZBSJ,2015-03-13 18:00,ZBSJ 131800Z 17003MPS 7000 NSC 02/M09 Q1024 NOSIG
ZBSJ,2015-03-13 19:00,ZBSJ 131900Z 15003MPS CAVOK 05/M08 Q1023 NOSIG
ZBSJ,2015-03-13 20:00,ZBSJ 132000Z 15001MPS CAVOK 03/M07 Q1023 NOSIG
ZBSJ,2015-03-13 21:00,ZBSJ 132100Z 13003MPS CAVOK 03/M08 Q1023 NOSIG
ZBSJ,2015-03-13 22:00,ZBSJ 132200Z 13003MPS CAVOK 04/M07 Q1022 NOSIG
ZBSJ,2015-03-13 23:00,ZBSJ 132300Z 13002MPS 6000 NSC 04/M07 Q1023 NOSIG
ZBSJ,2015-03-14 00:00,ZBSJ 140000Z 13002MPS 4000 HZ NSC 05/M06 Q1023 NOSIG
ZBSJ,2015-03-14 01:00,ZBSJ 140100Z 14003MPS 5000 HZ NSC 07/M06 Q1022 NOSIG
ZBSJ,2015-03-14 02:00,ZBSJ 140200Z 15002MPS 120V180 5000 HZ NSC 08/M06 Q1022 NOSIG
ZBSJ,2015-03-14 03:00,ZBSJ 140300Z 18002MPS 5000 HZ NSC 10/M06 Q1021 NOSIG
ZBSJ,2015-03-14 04:00,ZBSJ 140400Z 28001MPS 5000 HZ NSC 12/M06 Q1019 NOSIG
ZBSJ,2015-03-14 05:00,ZBSJ 140500Z 18002MPS 5000 HZ NSC 13/M07 Q1018 NOSIG
ZBSJ,2015-03-14 06:00,ZBSJ 140600Z 18001MPS 5000 HZ NSC 15/M06 Q1016 NOSIG
ZBSJ,2015-03-14 07:00,ZBSJ 140700Z 18002MPS 120V260 4000 HZ NSC 16/M04 Q1015 NOSIG
ZBSJ,2015-03-14 08:00,ZBSJ 140800Z 18004MPS 4000 HZ NSC 17/M03 Q1013 NOSIG
ZBSJ,2015-03-14 09:00,ZBSJ 140900Z 18006MPS 5000 HZ NSC 17/M03 Q1013 NOSIG
ZBSJ,2015-03-14 10:00,ZBSJ 141000Z 17006MPS 4000 HZ NSC 15/M00 Q1013 NOSIG
ZBSJ,2015-03-14 11:00,ZBSJ 141100Z 18003MPS 5000 HZ NSC 12/M00 Q1014 NOSIG
ZBSJ,2015-03-14 12:00,ZBSJ 141200Z 36001MPS 5000 HZ NSC 10/00 Q1015 NOSIG
ZBSJ,2015-03-14 13:00,ZBSJ 141300Z 12002MPS 4000 HZ NSC 09/M00 Q1015 NOSIG
ZBSJ,2015-03-14 14:00,ZBSJ 141400Z 15002MPS 4000 HZ NSC 07/M00 Q1016 NOSIG
ZBSJ,2015-03-14 15:00,ZBSJ 141500Z 35002MPS 3500 HZ NSC 05/M01 Q1016 NOSIG
ZBSJ,2015-03-14 16:00,ZBSJ 141600Z 04004MPS 3000 HZ NSC 05/M01 Q1017 NOSIG
ZBSJ,2015-03-14 17:00,ZBSJ 141700Z 03002MPS 3500 HZ NSC 05/M03 Q1017 NOSIG
ZBSJ,2015-03-14 18:00,ZBSJ 141800Z 33002MPS 3500 HZ NSC 03/M05 Q1018 NOSIG
ZBSJ,2015-03-14 19:00,ZBSJ 141900Z 20001MPS 3500 HZ NSC 03/M04 Q1018 NOSIG
ZBSJ,2015-03-14 20:00,ZBSJ 142000Z 31002MPS 3500 HZ NSC 02/M04 Q1018 NOSIG
ZBSJ,2015-03-14 21:00,ZBSJ 142100Z 28002MPS 3000 HZ NSC 01/M05 Q1019 NOSIG
ZBSJ,2015-03-14 22:00,ZBSJ 142200Z 33002MPS 3000 HZ NSC M01/M06 Q1019 NOSIG
ZBSJ,2015-03-14 23:00,ZBSJ 142300Z 30002MPS 2200 HZ NSC M00/M05 Q1020 NOSIG
ZBSJ,2015-03-15 00:00,ZBSJ 150000Z 31002MPS 2000 R33/0800V1900D HZ NSC 06/M03 Q1020 NOSIG
ZBSJ,2015-03-15 01:00,ZBSJ 150100Z 35001MPS 1800 HZ NSC 09/M03 Q1020 NOSIG
ZBSJ,2015-03-15 02:00,ZBSJ 150200Z 19002MPS 2500 HZ NSC 13/M04 Q1020 BECMG 3500
ZBSJ,2015-03-15 03:00,ZBSJ 150300Z 19003MPS 130V230 3500 HZ NSC 15/M05 Q1020 NOSIG
ZBSJ,2015-03-15 04:00,ZBSJ 150400Z 16005MPS 6000 NSC 16/M08 Q1018 NOSIG
ZBSJ,2015-03-15 05:00,ZBSJ 150500Z 17006MPS 8000 NSC 17/M10 Q1017 NOSIG
ZBSJ,2015-03-15 06:00,ZBSJ 150600Z 18007MPS CAVOK 18/M07 Q1015 NOSIG
ZBSJ,2015-03-15 07:00,ZBSJ 150700Z 17008MPS 6000 NSC 18/M06 Q1014 NOSIG
ZBSJ,2015-03-15 08:00,ZBSJ 150800Z 17007MPS 7000 NSC 18/M05 Q1014 NOSIG
ZBSJ,2015-03-15 09:00,ZBSJ 150900Z 18007MPS 7000 NSC 17/M04 Q1014 NOSIG
ZBSJ,2015-03-15 10:00,ZBSJ 151000Z 16004MPS 6000 NSC 14/M03 Q1014 NOSIG
ZBSJ,2015-03-15 11:00,ZBSJ 151100Z 08002MPS 6000 NSC 11/M02 Q1014 NOSIG
ZBSJ,2015-03-15 12:00,ZBSJ 151200Z 05002MPS 5000 HZ NSC 09/M02 Q1015 NOSIG
ZBSJ,2015-03-15 13:00,ZBSJ 151300Z 09002MPS 5000 HZ NSC 11/M02 Q1015 NOSIG
ZBSJ,2015-03-15 14:00,ZBSJ 151400Z 13003MPS 5000 HZ NSC 10/01 Q1015 NOSIG
ZBSJ,2015-03-15 15:00,ZBSJ 151500Z 16003MPS 5000 HZ NSC 09/06 Q1014 NOSIG
ZBSJ,2015-03-15 16:00,ZBSJ 151600Z 19002MPS 3000 HZ NSC 10/07 Q1014 NOSIG
ZBSJ,2015-03-15 18:00,ZBSJ 151800Z 24002MPS 2700 HZ NSC 08/01 Q1013 NOSIG
ZBSJ,2015-03-15 19:00,ZBSJ 151900Z 19002MPS 4000 HZ NSC 06/01 Q1011 NOSIG
ZBSJ,2015-03-15 20:00,ZBSJ 152000Z 23002MPS 4000 HZ NSC 07/M00 Q1011 NOSIG
ZBSJ,2015-03-15 21:00,ZBSJ 152100Z 24001MPS 3500 HZ NSC 05/00 Q1011 NOSIG
ZBSJ,2015-03-15 22:00,ZBSJ 152200Z 28001MPS 3500 HZ NSC 04/M01 Q1011 NOSIG
ZBSJ,2015-03-15 23:00,ZBSJ 152300Z 34002MPS 2200 HZ NSC 02/M02 Q1011 BECMG 3500
ZBSJ,2015-03-16 00:00,ZBSJ 160000Z 13002MPS 1800 R33/1200V1600D HZ NSC 07/04 Q1012 BECMG 3500
ZBSJ,2015-03-16 01:00,ZBSJ 160100Z 17002MPS 1000 R15/1000N BR NSC 09/07 Q1012 BECMG 1600
ZBSJ,2015-03-16 02:00,ZBSJ 160200Z 19003MPS 150V220 1100 R15/1000N BR NSC 12/09 Q1012 BECMG 1600
ZBSJ,2015-03-16 03:00,ZBSJ 160300Z 18004MPS 150V220 1400 R15/1200N HZ NSC 15/10 Q1011 BECMG TL0330 1600
ZBSJ,2015-03-16 04:00,ZBSJ 160400Z 17006MPS 1600 R15/1400N HZ NSC 17/09 Q1010 NOSIG
ZBSJ,2015-03-16 05:00,ZBSJ 160500Z 18007MPS 2200 HZ NSC 19/09 Q1009 BECMG 3000
ZBSJ,2015-03-16 06:00,ZBSJ 160600Z 18006MPS 2500 HZ NSC 20/10 Q1008 BECMG TL0630 3000
ZBSJ,2015-03-16 07:00,ZBSJ 160700Z 16006MPS 2500 HZ NSC 21/10 Q1007 NOSIG
ZBSJ,2015-03-16 08:00,ZBSJ 160800Z 17006MPS 2700 HZ NSC 21/10 Q1008 BECMG 3000
ZBSJ,2015-03-16 09:00,ZBSJ 160900Z 17005MPS 3000 HZ NSC 19/10 Q1008 BECMG 2500 HZ
ZBSJ,2015-03-16 10:00,ZBSJ 161000Z 19002MPS 150V230 3000 HZ NSC 18/10 Q1008 BECMG 2500 HZ
ZBSJ,2015-03-16 11:00,ZBSJ 161100Z 11001MPS 5000 HZ NSC 16/09 Q1009 NOSIG
ZBSJ,2015-03-16 12:00,ZBSJ 161200Z 11002MPS 5000 HZ NSC 15/08 Q1010 NOSIG
ZBSJ,2015-03-16 13:00,ZBSJ 161300Z 12002MPS 4500 HZ NSC 14/09 Q1011 NOSIG
ZBSJ,2015-03-16 14:00,ZBSJ 161400Z 13003MPS 4500 HZ NSC 14/09 Q1012 NOSIG
ZBSJ,2015-03-16 15:00,ZBSJ 161500Z 15003MPS 3500 HZ NSC 11/09 Q1012 NOSIG
ZBSJ,2015-03-16 16:00,ZBSJ 161600Z 14002MPS 3500 HZ NSC 12/10 Q1013 NOSIG
ZBSJ,2015-03-16 17:00,ZBSJ 161700Z 06002MPS 3000 HZ NSC 10/09 Q1013 NOSIG
ZBSJ,2015-03-16 18:00,ZBSJ 161800Z 07002MPS 2500 HZ NSC 10/09 Q1014 NOSIG
ZBSJ,2015-03-16 19:00,ZBSJ 161900Z 04004MPS 1600 BR NSC 11/08 Q1014 NOSIG
ZBSJ,2015-03-16 20:00,ZBSJ 162000Z 05005MPS 1800 BR NSC 10/07 Q1015 NOSIG
ZBSJ,2015-03-16 21:00,ZBSJ 162100Z 01004MPS 1800 BR NSC 09/07 Q1016 NOSIG
ZBSJ,2015-03-16 22:00,ZBSJ 162200Z 01004MPS 1800 BR NSC 09/07 Q1017 NOSIG
ZBSJ,2015-03-16 23:00,ZBSJ 162300Z 01004MPS 1000 R33/1400N BR NSC 09/07 Q1018 BECMG 0700 FG
ZBSJ,2015-03-17 00:00,ZBSJ 170000Z 01004MPS 0900 R33/1200N FG NSC 10/07 Q1019 BECMG 1500 BR
ZBSJ,2015-03-17 01:00,ZBSJ 170100Z 03006MPS 1300 R33/1100N BR NSC 11/07 Q1020 BECMG 1500
ZBSJ,2015-03-17 02:00,ZBSJ 170200Z 05006MPS 1500 R33/1200N HZ NSC 13/08 Q1021 NOSIG
ZBSJ,2015-03-17 03:00,ZBSJ 170300Z 08005MPS 1600 R33/1200N HZ NSC 13/08 Q1021 BECMG 3500
ZBSJ,2015-03-17 04:00,ZBSJ 170400Z 07005MPS 050V110 2000 HZ NSC 14/07 Q1021 BECMG 3500
ZBSJ,2015-03-17 05:00,ZBSJ 170500Z 08006MPS 2700 HZ NSC 15/05 Q1020 BECMG 3500
ZBSJ,2015-03-17 06:00,ZBSJ 170600Z 09006MPS 3000 HZ NSC 15/05 Q1019 NOSIG
ZBSJ,2015-03-17 07:00,ZBSJ 170700Z 09005MPS 060V120 3000 HZ NSC 16/04 Q1018 NOSIG
ZBSJ,2015-03-17 08:00,ZBSJ 170800Z 11004MPS 080V140 4000 HZ NSC 15/02 Q1018 NOSIG
ZBSJ,2015-03-17 09:00,ZBSJ 170900Z 10005MPS 5000 HZ NSC 14/02 Q1018 NOSIG
ZBSJ,2015-03-17 10:00,ZBSJ 171000Z 10003MPS 8000 NSC 13/M01 Q1018 NOSIG
ZBSJ,2015-03-17 11:00,ZBSJ 171100Z 09003MPS 7000 NSC 10/M01 Q1019 NOSIG
ZBSJ,2015-03-17 12:00,ZBSJ 171200Z 09004MPS 8000 NSC 09/M02 Q1020 NOSIG
ZBSJ,2015-03-17 13:00,ZBSJ 171300Z 11004MPS 8000 NSC 08/M03 Q1021 NOSIG
ZBSJ,2015-03-17 14:00,ZBSJ 171400Z 11004MPS CAVOK 07/M04 Q1021 NOSIG
ZBSJ,2015-03-17 15:00,ZBSJ 171500Z 10003MPS CAVOK 05/M04 Q1021 NOSIG
ZBSJ,2015-03-17 16:00,ZBSJ 171600Z 32001MPS CAVOK 05/M05 Q1021 NOSIG
ZBSJ,2015-03-17 17:00,ZBSJ 171700Z 32003MPS CAVOK 05/M04 Q1021 NOSIG
ZBSJ,2015-03-17 18:00,ZBSJ 171800Z 33002MPS CAVOK 04/M04 Q1020 NOSIG
ZBSJ,2015-03-17 19:00,ZBSJ 171900Z 04001MPS CAVOK 04/M04 Q1019 NOSIG
ZBSJ,2015-03-17 20:00,ZBSJ 172000Z 01002MPS CAVOK 04/M04 Q1018 NOSIG
ZBSJ,2015-03-17 21:00,ZBSJ 172100Z 03001MPS CAVOK 03/M04 Q1017 NOSIG
ZBSJ,2015-03-17 22:00,ZBSJ 172200Z 00000MPS CAVOK 04/M05 Q1017 NOSIG
ZBSJ,2015-03-17 23:00,ZBSJ 172300Z 00000MPS CAVOK 03/M06 Q1017 NOSIG
ZBSJ,2015-03-18 00:00,ZBSJ 180000Z 23001MPS CAVOK 06/M04 Q1018 NOSIG
ZBSJ,2015-03-18 01:00,ZBSJ 180100Z 13001MPS 8000 NSC 07/M05 Q1018 NOSIG
ZBSJ,2015-03-18 02:00,ZBSJ 180200Z 10001MPS CAVOK 09/M05 Q1018 NOSIG
ZBSJ,2015-03-18 03:00,ZBSJ 180300Z 11002MPS CAVOK 10/M06 Q1017 NOSIG
ZBSJ,2015-03-18 04:00,ZBSJ 180400Z 08002MPS CAVOK 11/M06 Q1017 NOSIG
ZBSJ,2015-03-18 05:00,ZBSJ 180500Z 18002MPS CAVOK 13/M05 Q1016 NOSIG
ZBSJ,2015-03-18 06:00,ZBSJ 180600Z 15002MPS 060V200 CAVOK 14/M05 Q1014 NOSIG
ZBSJ,2015-03-18 07:00,ZBSJ 180700Z 16003MPS 120V200 CAVOK 15/M04 Q1013 NOSIG
ZBSJ,2015-03-18 08:00,ZBSJ 180800Z 17004MPS 8000 NSC 15/M04 Q1013 NOSIG
ZBSJ,2015-03-18 09:00,ZBSJ 180900Z 17005MPS 8000 NSC 14/M03 Q1012 NOSIG
ZBSJ,2015-03-18 10:00,ZBSJ 181000Z 17002MPS 8000 NSC 12/M03 Q1013 NOSIG
ZBSJ,2015-03-18 11:00,ZBSJ 181100Z 19002MPS 7000 NSC 11/M02 Q1013 NOSIG
ZBSJ,2015-03-18 12:00,ZBSJ 181200Z 17001MPS 7000 NSC 08/M02 Q1014 NOSIG
ZBSJ,2015-03-18 13:00,ZBSJ 181300Z 00000MPS 6000 NSC 08/M02 Q1015 NOSIG
ZBSJ,2015-03-18 14:00,ZBSJ 181400Z 04001MPS 5000 HZ NSC 06/M02 Q1015 NOSIG
ZBSJ,2015-03-18 15:00,ZBSJ 181500Z 18002MPS 5000 HZ NSC 05/M03 Q1015 NOSIG
ZBSJ,2015-03-18 16:00,ZBSJ 181600Z 19001MPS 5000 HZ NSC 05/M02 Q1015 NOSIG
ZBSJ,2015-03-18 17:00,ZBSJ 181700Z 24001MPS 5000 HZ NSC 06/M03 Q1016 NOSIG
ZBSJ,2015-03-18 18:00,ZBSJ 181800Z 33001MPS 5000 HZ NSC 04/M02 Q1015 NOSIG
ZBSJ,2015-03-18 19:00,ZBSJ 181900Z 21001MPS 5000 HZ NSC 02/M02 Q1015 NOSIG
ZBSJ,2015-03-18 20:00,ZBSJ 182000Z 25001MPS 5000 HZ NSC 01/M02 Q1015 NOSIG
ZBSJ,2015-03-18 21:00,ZBSJ 182100Z 23001MPS 5000 HZ NSC 03/M02 Q1015 NOSIG
ZBSJ,2015-03-18 22:00,ZBSJ 182200Z 32002MPS 4000 BR NSC 01/M02 Q1016 NOSIG
ZBSJ,2015-03-18 23:00,ZBSJ 182300Z 32003MPS 3000 HZ NSC 04/M02 Q1018 NOSIG
ZBSJ,2015-03-19 00:00,ZBSJ 190000Z 06001MPS 3000 HZ NSC 05/M00 Q1018 NOSIG
ZBSJ,2015-03-19 01:00,ZBSJ 190100Z 06001MPS 3000 HZ NSC 08/M02 Q1019 NOSIG
ZBSJ,2015-03-19 02:00,ZBSJ 190200Z 04002MPS 360V080 4000 HZ NSC 11/M02 Q1019 NOSIG
ZBSJ,2015-03-19 03:00,ZBSJ 190300Z 06002MPS 5000 HZ NSC 12/M02 Q1019 NOSIG
ZBSJ,2015-03-19 04:00,ZBSJ 190400Z 03002MPS 5000 HZ NSC 15/M02 Q1019 NOSIG
ZBSJ,2015-03-19 05:00,ZBSJ 190500Z 10001MPS 5000 HZ NSC 16/M01 Q1018 NOSIG
ZBSJ,2015-03-19 06:00,ZBSJ 190600Z 10002MPS 7000 NSC 18/M00 Q1017 NOSIG
ZBSJ,2015-03-19 07:00,ZBSJ 190700Z 14003MPS 8000 NSC 19/M02 Q1016 NOSIG
ZBSJ,2015-03-19 08:00,ZBSJ 190800Z 17004MPS 150V210 8000 NSC 20/M03 Q1015 NOSIG
ZBSJ,2015-03-19 09:00,ZBSJ 190900Z 18004MPS 8000 NSC 19/M00 Q1015 NOSIG
ZBSJ,2015-03-19 10:00,ZBSJ 191000Z 16003MPS 5000 HZ NSC 16/01 Q1016 NOSIG
ZBSJ,2015-03-19 11:00,ZBSJ 191100Z 16002MPS 6000 NSC 13/02 Q1016 NOSIG
ZBSJ,2015-03-19 12:00,ZBSJ 191200Z 15003MPS 5000 HZ NSC 12/02 Q1017 NOSIG
ZBSJ,2015-03-19 13:00,ZBSJ 191300Z 16003MPS 4500 HZ NSC 11/02 Q1017 NOSIG
ZBSJ,2015-03-19 14:00,ZBSJ 191400Z 03001MPS 4000 HZ NSC 09/02 Q1018 BECMG 2800 HZ
ZBSJ,2015-03-19 15:00,ZBSJ 191500Z 36002MPS 3000 HZ NSC 08/02 Q1018 BECMG 2800 HZ
ZBSJ,2015-03-19 16:00,ZBSJ 191600Z 30001MPS 3000 HZ NSC 07/01 Q1018 BECMG 2800 HZ
ZBSJ,2015-03-19 17:00,ZBSJ 191700Z 28001MPS 3000 HZ NSC 07/01 Q1018 NOSIG
ZBSJ,2015-03-19 18:00,ZBSJ 191800Z 32003MPS 3500 HZ NSC 07/M00 Q1018 NOSIG
ZBSJ,2015-03-19 19:00,ZBSJ 191900Z 32004MPS 5000 HZ NSC 07/M02 Q1018 NOSIG
ZBSJ,2015-03-19 20:00,ZBSJ 192000Z 31003MPS 5000 HZ NSC 07/M03 Q1018 NOSIG
ZBSJ,2015-03-19 21:00,ZBSJ 192100Z 31004MPS 6000 NSC 06/M04 Q1019 NOSIG
ZBSJ,2015-03-19 22:00,ZBSJ 192200Z 29003MPS 7000 NSC 09/M05 Q1020 NOSIG
ZBSJ,2015-03-19 23:00,ZBSJ 192300Z 26002MPS 5000 HZ NSC 05/M05 Q1020 NOSIG
ZBSJ,2015-03-20 00:00,ZBSJ 200000Z 23001MPS 5000 HZ NSC 12/M05 Q1021 NOSIG
ZBSJ,2015-03-20 01:00,ZBSJ 200100Z 33001MPS 7000 NSC 16/M05 Q1022 NOSIG
ZBSJ,2015-03-20 02:00,ZBSJ 200200Z 09001MPS CAVOK 18/M07 Q1022 NOSIG
ZBSJ,2015-03-20 03:00,ZBSJ 200300Z 19002MPS 150V240 CAVOK 18/M09 Q1021 NOSIG
ZBSJ,2015-03-20 04:00,ZBSJ 200400Z 16003MPS 070V220 CAVOK 20/M07 Q1020 NOSIG
ZBSJ,2015-03-20 05:00,ZBSJ 200500Z VRB03MPS CAVOK 20/M07 Q1019 NOSIG
ZBSJ,2015-03-20 06:00,ZBSJ 200600Z 12003MPS 080V170 CAVOK 21/M08 Q1017 NOSIG
ZBSJ,2015-03-20 07:00,ZBSJ 200700Z 14002MPS 090V200 CAVOK 22/M08 Q1016 NOSIG
ZBSJ,2015-03-20 08:00,ZBSJ 200800Z 13005MPS CAVOK 21/M06 Q1015 NOSIG
ZBSJ,2015-03-20 09:00,ZBSJ 200900Z 14004MPS CAVOK 20/M04 Q1014 NOSIG
ZBSJ,2015-03-20 10:00,ZBSJ 201000Z 13002MPS 090V180 CAVOK 18/M01 Q1014 NOSIG
ZBSJ,2015-03-20 11:00,ZBSJ 201100Z 19004MPS CAVOK 17/M03 Q1015 NOSIG
ZBSJ,2015-03-20 12:00,ZBSJ 201200Z 18006MPS CAVOK 16/M03 Q1015 NOSIG
ZBSJ,2015-03-20 13:00,ZBSJ 201300Z 18006MPS CAVOK 15/M00 Q1015 NOSIG
ZBSJ,2015-03-20 14:00,ZBSJ 201400Z 19004MPS CAVOK 13/01 Q1016 NOSIG
ZBSJ,2015-03-20 15:00,ZBSJ 201500Z 21004MPS 6000 NSC 13/01 Q1016 NOSIG
ZBSJ,2015-03-20 16:00,ZBSJ 201600Z 29004MPS 260V010 6000 NSC 12/M02 Q1016 NOSIG
ZBSJ,2015-03-20 17:00,ZBSJ 201700Z 30003MPS 6000 NSC 10/M03 Q1016 NOSIG
ZBSJ,2015-03-20 18:00,ZBSJ 201800Z 34003MPS 300V020 6000 NSC 08/M03 Q1017 NOSIG
ZBSJ,2015-03-20 19:00,ZBSJ 201900Z 30002MPS 6000 NSC 07/M05 Q1017 NOSIG
ZBSJ,2015-03-20 20:00,ZBSJ 202000Z 30003MPS CAVOK 10/M09 Q1017 NOSIG
ZBSJ,2015-03-20 21:00,ZBSJ 202100Z 32004MPS CAVOK 08/M09 Q1018 NOSIG
ZBSJ,2015-03-20 22:00,ZBSJ 202200Z 34004MPS CAVOK 07/M10 Q1018 NOSIG
ZBSJ,2015-03-20 23:00,ZBSJ 202300Z 32002MPS CAVOK 08/M10 Q1019 NOSIG
ZBSJ,2015-03-21 00:00,ZBSJ 210000Z 27004MPS CAVOK 13/M10 Q1020 NOSIG
ZBSJ,2015-03-21 01:00,ZBSJ 210100Z 31003MPS CAVOK 16/M08 Q1021 NOSIG
ZBSJ,2015-03-21 02:00,ZBSJ 210200Z 36003MPS CAVOK 18/M10 Q1021 NOSIG
ZBSJ,2015-03-21 03:00,ZBSJ 210300Z 32003MPS 280V350 CAVOK 19/M11 Q1021 NOSIG
ZBSJ,2015-03-21 04:00,ZBSJ 210400Z 35004MPS 320V020 CAVOK 20/M11 Q1020 NOSIG
ZBSJ,2015-03-21 05:00,ZBSJ 210500Z 12002MPS CAVOK 21/M12 Q1019 NOSIG
ZBSJ,2015-03-21 06:00,ZBSJ 210600Z 03003MPS 340V090 CAVOK 21/M11 Q1018 NOSIG
ZBSJ,2015-03-21 07:00,ZBSJ 210700Z 35003MPS 310V050 CAVOK 21/M13 Q1017 NOSIG
ZBSJ,2015-03-21 08:00,ZBSJ 210800Z 10001MPS CAVOK 21/M13 Q1017 NOSIG
ZBSJ,2015-03-21 09:00,ZBSJ 210900Z 30002MPS 270V340 CAVOK 22/M15 Q1017 NOSIG
ZBSJ,2015-03-21 10:00,ZBSJ 211000Z 19004MPS CAVOK 18/M08 Q1017 NOSIG
ZBSJ,2015-03-21 11:00,ZBSJ 211100Z 18004MPS CAVOK 14/M07 Q1018 NOSIG
ZBSJ,2015-03-21 12:00,ZBSJ 211200Z 19004MPS CAVOK 15/M07 Q1019 NOSIG
ZBSJ,2015-03-21 13:00,ZBSJ 211300Z 20003MPS CAVOK 14/M06 Q1019 NOSIG
ZBSJ,2015-03-21 14:00,ZBSJ 211400Z 07001MPS CAVOK 09/M03 Q1020 NOSIG
ZBSJ,2015-03-21 15:00,ZBSJ 211500Z 07001MPS CAVOK 09/M04 Q1020 NOSIG
ZBSJ,2015-03-21 16:00,ZBSJ 211600Z 06002MPS CAVOK 07/M02 Q1020 NOSIG
ZBSJ,2015-03-21 17:00,ZBSJ 211700Z 05002MPS CAVOK 06/M04 Q1021 NOSIG
ZBSJ,2015-03-21 18:00,ZBSJ 211800Z 05003MPS CAVOK 06/M04 Q1021 NOSIG
ZBSJ,2015-03-21 19:00,ZBSJ 211900Z 05003MPS CAVOK 06/M04 Q1021 NOSIG
ZBSJ,2015-03-21 20:00,ZBSJ 212000Z 01003MPS CAVOK 06/M05 Q1021 NOSIG
ZBSJ,2015-03-21 21:00,ZBSJ 212100Z 02002MPS CAVOK 06/M06 Q1022 NOSIG
ZBSJ,2015-03-21 22:00,ZBSJ 212200Z 04004MPS CAVOK 07/M07 Q1023 NOSIG
ZBSJ,2015-03-21 23:00,ZBSJ 212300Z 06004MPS CAVOK 07/M08 Q1024 NOSIG
ZBSJ,2015-03-22 00:00,ZBSJ 220000Z 05004MPS CAVOK 09/M08 Q1026 NOSIG
ZBSJ,2015-03-22 01:00,ZBSJ 220100Z 06008MPS CAVOK 10/M10 Q1028 NOSIG
ZBSJ,2015-03-22 02:00,ZBSJ 220200Z 05006MPS CAVOK 10/M09 Q1029 NOSIG
ZBSJ,2015-03-22 03:00,ZBSJ 220300Z 07008MPS 6000 NSC 11/M10 Q1030 NOSIG
ZBSJ,2015-03-22 04:00,ZBSJ 220400Z 09007MPS 5000 SA NSC 11/M06 Q1030 NOSIG
ZBSJ,2015-03-22 05:00,ZBSJ 220500Z 09005MPS 7000 NSC 11/M05 Q1030 NOSIG
ZBSJ,2015-03-22 06:00,ZBSJ 220600Z 11005MPS CAVOK 12/M06 Q1029 NOSIG
ZBSJ,2015-03-22 07:00,ZBSJ 220700Z 11004MPS 060V130 CAVOK 12/M07 Q1029 NOSIG
ZBSJ,2015-03-22 08:00,ZBSJ 220800Z 07004MPS 040V100 CAVOK 12/M05 Q1028 NOSIG
ZBSJ,2015-03-22 09:00,ZBSJ 220900Z 09003MPS CAVOK 11/M06 Q1028 NOSIG
ZBSJ,2015-03-22 10:00,ZBSJ 221000Z 08002MPS CAVOK 09/M04 Q1028 NOSIG
ZBSJ,2015-03-22 11:00,ZBSJ 221100Z 10002MPS CAVOK 08/M06 Q1029 NOSIG
ZBSJ,2015-03-22 12:00,ZBSJ 221200Z 12001MPS CAVOK 07/M06 Q1030 NOSIG
ZBSJ,2015-03-22 13:00,ZBSJ 221300Z 16002MPS CAVOK 06/M06 Q1030 NOSIG
ZBSJ,2015-03-22 14:00,ZBSJ 221400Z 15001MPS CAVOK 05/M07 Q1031 NOSIG
ZBSJ,2015-03-22 15:00,ZBSJ 221500Z 18001MPS CAVOK 05/M07 Q1030 NOSIG
ZBSJ,2015-03-22 16:00,ZBSJ 221600Z 00000MPS CAVOK 04/M06 Q1030 NOSIG
ZBSJ,2015-03-22 17:00,ZBSJ 221700Z 27001MPS CAVOK 03/M07 Q1030 NOSIG
ZBSJ,2015-03-22 18:00,ZBSJ 221800Z 35001MPS CAVOK 01/M06 Q1030 NOSIG
ZBSJ,2015-03-22 19:00,ZBSJ 221900Z 33002MPS 8000 NSC 02/M06 Q1030 NOSIG
ZBSJ,2015-03-22 20:00,ZBSJ 222000Z 22001MPS 8000 NSC 00/M07 Q1030 NOSIG
ZBSJ,2015-03-22 21:00,ZBSJ 222100Z 23002MPS 6000 NSC 01/M06 Q1030 NOSIG
ZBSJ,2015-03-22 22:00,ZBSJ 222200Z 31001MPS 6000 NSC 01/M06 Q1030 NOSIG
ZBSJ,2015-03-22 23:00,ZBSJ 222300Z 30002MPS 5000 HZ NSC 01/M06 Q1031 NOSIG
ZBSJ,2015-03-23 00:00,ZBSJ 230000Z 32004MPS 7000 NSC 06/M06 Q1031 NOSIG
ZBSJ,2015-03-23 01:00,ZBSJ 230100Z 33004MPS 7000 NSC 10/M04 Q1032 NOSIG
ZBSJ,2015-03-23 02:00,ZBSJ 230200Z 35003MPS 310V030 CAVOK 13/M07 Q1032 NOSIG
ZBSJ,2015-03-23 03:00,ZBSJ 230300Z 12002MPS 060V210 CAVOK 15/M09 Q1032 NOSIG
ZBSJ,2015-03-23 04:00,ZBSJ 230400Z VRB03MPS CAVOK 16/M16 Q1031 NOSIG
ZBSJ,2015-03-23 05:00,ZBSJ 230500Z 13003MPS 100V180 CAVOK 17/M14 Q1030 NOSIG
ZBSJ,2015-03-23 06:00,ZBSJ 230600Z 17003MPS 100V220 CAVOK 17/M13 Q1029 NOSIG
ZBSJ,2015-03-23 07:00,ZBSJ 230700Z 19003MPS 140V240 CAVOK 18/M13 Q1028 NOSIG
ZBSJ,2015-03-23 08:00,ZBSJ 230800Z 18005MPS CAVOK 17/M11 Q1028 NOSIG
ZBSJ,2015-03-23 09:00,ZBSJ 230900Z 18005MPS CAVOK 16/M07 Q1027 NOSIG
ZBSJ,2015-03-23 10:00,ZBSJ 231000Z 18004MPS CAVOK 14/M07 Q1028 NOSIG
ZBSJ,2015-03-23 11:00,ZBSJ 231100Z 18003MPS CAVOK 11/M06 Q1028 NOSIG
ZBSJ,2015-03-23 12:00,ZBSJ 231200Z 13002MPS CAVOK 09/M06 Q1029 NOSIG
ZBSJ,2015-03-23 13:00,ZBSJ 231300Z 14002MPS CAVOK 08/M06 Q1030 NOSIG
ZBSJ,2015-03-23 14:00,ZBSJ 231400Z 19003MPS CAVOK 08/M06 Q1030 NOSIG
ZBSJ,2015-03-23 15:00,ZBSJ 231500Z 18003MPS CAVOK 07/M06 Q1030 NOSIG
ZBSJ,2015-03-23 16:00,ZBSJ 231600Z 20002MPS CAVOK 07/M07 Q1030 NOSIG
ZBSJ,2015-03-23 17:00,ZBSJ 231700Z 27002MPS CAVOK 07/M07 Q1030 NOSIG
ZBSJ,2015-03-23 18:00,ZBSJ 231800Z 30001MPS 8000 NSC 03/M05 Q1030 NOSIG
ZBSJ,2015-03-23 19:00,ZBSJ 231900Z 32001MPS 7000 NSC 02/M06 Q1030 NOSIG
ZBSJ,2015-03-23 20:00,ZBSJ 232000Z 29001MPS 7000 NSC 01/M06 Q1029 NOSIG
ZBSJ,2015-03-23 21:00,ZBSJ 232100Z 31001MPS 7000 NSC 02/M08 Q1030 NOSIG
ZBSJ,2015-03-23 22:00,ZBSJ 232200Z 29002MPS 7000 NSC 04/M09 Q1030 NOSIG
ZBSJ,2015-03-23 23:00,ZBSJ 232300Z 22002MPS 5000 FU NSC 02/M07 Q1031 NOSIG
ZBSJ,2015-03-24 00:00,ZBSJ 240000Z 04002MPS 5000 FU NSC 06/M03 Q1032 NOSIG
ZBSJ,2015-03-24 01:00,ZBSJ 240100Z 04005MPS 6000 NSC 09/M05 Q1032 NOSIG
ZBSJ,2015-03-24 02:00,ZBSJ 240200Z 05004MPS 6000 NSC 10/M03 Q1033 NOSIG
ZBSJ,2015-03-24 03:00,ZBSJ 240300Z 07004MPS 7000 NSC 12/M02 Q1032 NOSIG
ZBSJ,2015-03-24 04:00,ZBSJ 240400Z 09003MPS 050V130 8000 NSC 14/M03 Q1032 NOSIG
ZBSJ,2015-03-24 05:00,ZBSJ 240500Z 11003MPS 060V140 8000 NSC 15/M02 Q1031 NOSIG
ZBSJ,2015-03-24 06:00,ZBSJ 240600Z 08002MPS 360V160 8000 NSC 17/M01 Q1029 NOSIG
ZBSJ,2015-03-24 07:00,ZBSJ 240700Z 11003MPS 080V140 8000 NSC 18/M01 Q1028 NOSIG
ZBSJ,2015-03-24 08:00,ZBSJ 240800Z 14003MPS 110V180 8000 NSC 18/M02 Q1028 NOSIG
ZBSJ,2015-03-24 09:00,ZBSJ 240900Z 16003MPS 8000 NSC 18/M00 Q1027 NOSIG
ZBSJ,2015-03-24 10:00,ZBSJ 241000Z 15003MPS 8000 NSC 15/01 Q1028 NOSIG
ZBSJ,2015-03-24 11:00,ZBSJ 241100Z 16002MPS 7000 NSC 13/01 Q1028 NOSIG
ZBSJ,2015-03-24 12:00,ZBSJ 241200Z 16003MPS 6000 NSC 12/02 Q1029 NOSIG
ZBSJ,2015-03-24 13:00,ZBSJ 241300Z 17003MPS 6000 NSC 11/03 Q1029 NOSIG
ZBSJ,2015-03-24 14:00,ZBSJ 241400Z 15001MPS 6000 NSC 10/03 Q1030 NOSIG
ZBSJ,2015-03-24 15:00,ZBSJ 241500Z 15002MPS 5000 HZ NSC 08/03 Q1030 NOSIG
ZBSJ,2015-03-24 16:00,ZBSJ 241600Z 07001MPS 4500 HZ NSC 06/03 Q1029 NOSIG
ZBSJ,2015-03-24 17:00,ZBSJ 241700Z 07002MPS 4000 HZ NSC 06/03 Q1029 NOSIG
ZBSJ,2015-03-24 18:00,ZBSJ 241800Z 05001MPS 4000 HZ NSC 05/02 Q1029 NOSIG
ZBSJ,2015-03-24 19:00,ZBSJ 241900Z 05002MPS 4000 HZ NSC 04/02 Q1029 NOSIG
ZBSJ,2015-03-24 20:00,ZBSJ 242000Z 07002MPS 3500 BR NSC 04/02 Q1028 NOSIG
ZBSJ,2015-03-24 21:00,ZBSJ 242100Z 05001MPS 3500 BR NSC 05/02 Q1029 NOSIG
ZBSJ,2015-03-24 22:00,ZBSJ 242200Z 01001MPS 2500 BR NSC 04/01 Q1029 NOSIG
ZBSJ,2015-03-24 23:00,ZBSJ 242300Z 06001MPS 2000 BR NSC 03/01 Q1030 NOSIG
ZBSJ,2015-03-25 00:00,ZBSJ 250000Z 08001MPS 2000 BR NSC 06/04 Q1030 BECMG 3000
ZBSJ,2015-03-25 01:00,ZBSJ 250100Z 14001MPS 2500 HZ NSC 09/03 Q1031 BECMG 3500
ZBSJ,2015-03-25 02:00,ZBSJ 250200Z 06001MPS 2500 HZ NSC 11/04 Q1031 BECMG 3500
ZBSJ,2015-03-25 03:00,ZBSJ 250300Z 15001MPS 2500 HZ NSC 13/04 Q1031 BECMG 3500
ZBSJ,2015-03-25 04:00,ZBSJ 250400Z 14002MPS 2000 HZ NSC 14/05 Q1031 BECMG 3500
ZBSJ,2015-03-25 05:00,ZBSJ 250500Z 17002MPS 130V200 1800 HZ NSC 15/05 Q1030 NOSIG
ZBSJ,2015-03-25 06:00,ZBSJ 250600Z 19003MPS 150V220 2000 HZ NSC 16/04 Q1029 NOSIG
ZBSJ,2015-03-25 07:00,ZBSJ 250700Z 17005MPS 150V210 2700 HZ NSC 17/05 Q1029 NOSIG
ZBSJ,2015-03-25 08:00,ZBSJ 250800Z 18006MPS 8000 NSC 18/03 Q1028 NOSIG
ZBSJ,2015-03-25 09:00,ZBSJ 250900Z 17006MPS CAVOK 17/03 Q1028 NOSIG
ZBSJ,2015-03-25 10:00,ZBSJ 251000Z 17004MPS CAVOK 15/M00 Q1029 NOSIG
ZBSJ,2015-03-25 11:00,ZBSJ 251100Z 15002MPS CAVOK 12/01 Q1029 NOSIG
ZBSJ,2015-03-25 12:00,ZBSJ 251200Z 16002MPS CAVOK 11/01 Q1030 NOSIG
ZBSJ,2015-03-25 13:00,ZBSJ 251300Z 17002MPS 8000 NSC 10/01 Q1031 NOSIG
ZBSJ,2015-03-25 14:00,ZBSJ 251400Z 18002MPS 8000 NSC 10/00 Q1031 NOSIG
ZBSJ,2015-03-25 15:00,ZBSJ 251500Z 15002MPS 8000 NSC 07/00 Q1031 NOSIG
ZBSJ,2015-03-25 16:00,ZBSJ 251600Z 11001MPS 6000 NSC 07/00 Q1031 NOSIG
ZBSJ,2015-03-25 17:00,ZBSJ 251700Z 13001MPS 5000 HZ NSC 06/M00 Q1031 NOSIG
ZBSJ,2015-03-25 18:00,ZBSJ 251800Z 17001MPS 6000 NSC 06/M01 Q1030 NOSIG
ZBSJ,2015-03-25 19:00,ZBSJ 251900Z 14001MPS 6000 NSC 04/M01 Q1030 NOSIG
ZBSJ,2015-03-25 20:00,ZBSJ 252000Z 21001MPS 6000 NSC 05/M00 Q1030 NOSIG
ZBSJ,2015-03-25 21:00,ZBSJ 252100Z 26001MPS 6000 NSC 04/M00 Q1030 NOSIG
ZBSJ,2015-03-25 22:00,ZBSJ 252200Z 29001MPS 4000 HZ NSC 04/M00 Q1030 NOSIG
ZBSJ,2015-03-25 23:00,ZBSJ 252300Z 17001MPS 2300 HZ NSC 02/M00 Q1031 BECMG 3500
ZBSJ,2015-03-26 00:00,ZBSJ 260000Z 27001MPS 2300 HZ NSC 07/01 Q1031 BECMG 3500
ZBSJ,2015-03-26 01:00,ZBSJ 260100Z 26001MPS 2300 HZ NSC 11/02 Q1031 BECMG 3500
ZBSJ,2015-03-26 02:00,ZBSJ 260200Z 28002MPS 260V320 2200 HZ NSC 14/03 Q1031 BECMG 3500
ZBSJ,2015-03-26 03:00,ZBSJ 260300Z 22002MPS 3000 HZ NSC 16/02 Q1031 NOSIG
ZBSJ,2015-03-26 04:00,ZBSJ 260400Z 18004MPS 160V240 6000 NSC 18/02 Q1030 NOSIG
ZBSJ,2015-03-26 05:00,ZBSJ 260500Z 17006MPS CAVOK 19/02 Q1029 NOSIG
ZBSJ,2015-03-26 06:00,ZBSJ 260600Z 17007MPS CAVOK 19/03 Q1028 NOSIG
ZBSJ,2015-03-26 07:00,ZBSJ 260700Z 17006MPS CAVOK 19/03 Q1028 NOSIG
ZBSJ,2015-03-26 08:00,ZBSJ 260800Z 17006MPS 140V200 CAVOK 18/03 Q1027 NOSIG
ZBSJ,2015-03-26 09:00,ZBSJ 260900Z 16006MPS CAVOK 17/03 Q1027 NOSIG
ZBSJ,2015-03-26 10:00,ZBSJ 261000Z 17005MPS CAVOK 15/04 Q1027 NOSIG
ZBSJ,2015-03-26 11:00,ZBSJ 261100Z 18005MPS CAVOK 14/03 Q1027 NOSIG
ZBSJ,2015-03-26 12:00,ZBSJ 261200Z 17003MPS CAVOK 11/03 Q1028 NOSIG
ZBSJ,2015-03-26 13:00,ZBSJ 261300Z 17003MPS CAVOK 10/02 Q1028 NOSIG
ZBSJ,2015-03-26 14:00,ZBSJ 261400Z 17003MPS 8000 NSC 08/02 Q1028 NOSIG
ZBSJ,2015-03-26 15:00,ZBSJ 261500Z 17003MPS 8000 NSC 08/00 Q1027 NOSIG
ZBSJ,2015-03-26 16:00,ZBSJ 261600Z 16003MPS 8000 NSC 07/M01 Q1027 NOSIG
ZBSJ,2015-03-26 17:00,ZBSJ 261700Z 21001MPS 8000 NSC 07/M01 Q1026 NOSIG
ZBSJ,2015-03-26 18:00,ZBSJ 261800Z 16001MPS 8000 NSC 05/M01 Q1026 NOSIG
ZBSJ,2015-03-26 19:00,ZBSJ 261900Z 21001MPS 8000 NSC 05/M01 Q1025 NOSIG
ZBSJ,2015-03-26 20:00,ZBSJ 262000Z 31001MPS 6000 NSC 05/M00 Q1025 NOSIG
ZBSJ,2015-03-26 21:00,ZBSJ 262100Z 24002MPS 6000 NSC 06/01 Q1025 NOSIG
ZBSJ,2015-03-26 22:00,ZBSJ 262200Z 20001MPS 3000 BR NSC 04/02 Q1025 NOSIG
ZBSJ,2015-03-26 23:00,ZBSJ 262300Z 17002MPS 2000 BR NSC 05/02 Q1024 BECMG 3500
ZBSJ,2015-03-27 00:00,ZBSJ 270000Z 19001MPS 2500 HZ NSC 09/02 Q1024 BECMG 3500
ZBSJ,2015-03-27 00:30,ZBSJ 270030Z 22002MPS 2500 HZ NSC 10/01 Q1025 BECMG 3500
ZBSJ,2015-03-27 01:00,ZBSJ 270100Z 22002MPS 3500 HZ NSC 12/02 Q1024 NOSIG
ZBSJ,2015-03-27 01:30,ZBSJ 270130Z 21002MPS 3500 HZ NSC 13/03 Q1024 NOSIG
ZBSJ,2015-03-27 02:00,ZBSJ 270200Z 18003MPS 4000 HZ NSC 15/04 Q1024 NOSIG
ZBSJ,2015-03-27 02:30,ZBSJ 270230Z 19004MPS 4500 HZ NSC 16/04 Q1023 NOSIG
ZBSJ,2015-03-27 03:00,ZBSJ 270300Z 19004MPS 160V230 5000 HZ NSC 17/04 Q1023 NOSIG
ZBSJ,2015-03-27 03:30,ZBSJ 270330Z 18004MPS 140V220 5000 HZ NSC 19/04 Q1022 NOSIG
ZBSJ,2015-03-27 04:00,ZBSJ 270400Z 18005MPS 150V210 7000 NSC 20/04 Q1021 NOSIG
ZBSJ,2015-03-27 05:00,ZBSJ 270500Z 17006MPS 8000 NSC 21/05 Q1020 NOSIG
ZBSJ,2015-03-27 06:00,ZBSJ 270600Z 16007MPS 8000 NSC 21/06 Q1018 NOSIG
ZBSJ,2015-03-27 07:00,ZBSJ 270700Z 18006MPS 8000 NSC 21/06 Q1017 NOSIG
ZBSJ,2015-03-27 08:00,ZBSJ 270800Z 17008MPS 8000 NSC 21/06 Q1016 NOSIG
ZBSJ,2015-03-27 09:00,ZBSJ 270900Z 17008MPS 7000 NSC 19/05 Q1016 NOSIG
ZBSJ,2015-03-27 10:00,ZBSJ 271000Z 17006MPS 7000 NSC 18/05 Q1016 NOSIG
ZBSJ,2015-03-27 11:00,ZBSJ 271100Z 18005MPS 7000 NSC 17/05 Q1016 NOSIG
ZBSJ,2015-03-27 12:00,ZBSJ 271200Z 18005MPS 7000 NSC 16/06 Q1016 NOSIG
ZBSJ,2015-03-27 13:00,ZBSJ 271300Z 18003MPS 6000 NSC 14/07 Q1016 NOSIG
ZBSJ,2015-03-27 14:00,ZBSJ 271400Z 18004MPS 6000 NSC 14/07 Q1015 NOSIG
ZBSJ,2015-03-27 15:00,ZBSJ 271500Z 20004MPS 5000 HZ NSC 14/07 Q1015 NOSIG
ZBSJ,2015-03-27 16:00,ZBSJ 271600Z 23002MPS 5000 HZ NSC 12/06 Q1014 NOSIG
ZBSJ,2015-03-27 17:00,ZBSJ 271700Z 24001MPS 4500 HZ NSC 11/06 Q1014 NOSIG
ZBSJ,2015-03-27 18:00,ZBSJ 271800Z 19001MPS 4500 BR NSC 09/07 Q1013 NOSIG
ZBSJ,2015-03-27 19:00,ZBSJ 271900Z 35001MPS 4500 BR NSC 10/07 Q1013 NOSIG
ZBSJ,2015-03-27 20:00,ZBSJ 272000Z 24001MPS 4000 BR NSC 09/06 Q1012 NOSIG
ZBSJ,2015-03-27 21:00,ZBSJ 272100Z 23003MPS 4000 BR NSC 08/06 Q1013 NOSIG
ZBSJ,2015-03-27 22:00,ZBSJ 272200Z 29005MPS 6000 NSC 12/04 Q1013 NOSIG
ZBSJ,2015-03-27 23:00,ZBSJ 272300Z 32005MPS 5000 HZ NSC 13/02 Q1014 NOSIG
ZBSJ,2015-03-28 00:00,ZBSJ 280000Z 32008MPS 5000 HZ NSC 19/M06 Q1014 NOSIG
ZBSJ,2015-03-28 01:00,ZBSJ 280100Z 31008MPS 8000 NSC 21/M08 Q1015 NOSIG
ZBSJ,2015-03-28 02:00,ZBSJ 280200Z 32010MPS CAVOK 23/M09 Q1015 NOSIG
ZBSJ,2015-03-28 03:00,ZBSJ 280300Z 33009G14MPS CAVOK 24/M07 Q1015 NOSIG
ZBSJ,2015-03-28 04:00,ZBSJ 280400Z 33008MPS CAVOK 25/M07 Q1014 NOSIG
ZBSJ,2015-03-28 05:00,ZBSJ 280500Z 31008MPS CAVOK 26/M08 Q1013 NOSIG
ZBSJ,2015-03-28 06:00,ZBSJ 280600Z 34007MPS CAVOK 25/M02 Q1013 NOSIG
ZBSJ,2015-03-28 07:00,ZBSJ 280700Z 33006G11MPS CAVOK 26/M03 Q1012 NOSIG
ZBSJ,2015-03-28 08:00,ZBSJ 280800Z 31005MPS CAVOK 27/M02 Q1012 NOSIG
ZBSJ,2015-03-28 09:00,ZBSJ 280900Z 32003MPS 300V010 CAVOK 26/M00 Q1013 NOSIG
ZBSJ,2015-03-28 10:00,ZBSJ 281000Z 04002MPS CAVOK 21/01 Q1013 NOSIG
ZBSJ,2015-03-28 11:00,ZBSJ 281100Z 06004MPS CAVOK 17/03 Q1013 NOSIG
ZBSJ,2015-03-28 12:00,ZBSJ 281200Z 09001MPS CAVOK 17/00 Q1014 NOSIG
ZBSJ,2015-03-28 13:00,ZBSJ 281300Z 11002MPS 060V190 CAVOK 16/M00 Q1015 NOSIG
ZBSJ,2015-03-28 14:00,ZBSJ 281400Z 06001MPS 7000 NSC 13/03 Q1016 NOSIG
ZBSJ,2015-03-28 15:00,ZBSJ 281500Z 08002MPS 7000 NSC 13/02 Q1016 NOSIG
ZBSJ,2015-03-28 16:00,ZBSJ 281600Z 13003MPS 6000 NSC 15/01 Q1016 NOSIG
ZBSJ,2015-03-28 17:00,ZBSJ 281700Z 12004MPS 7000 NSC 16/00 Q1016 NOSIG
ZBSJ,2015-03-28 18:00,ZBSJ 281800Z 13003MPS 7000 NSC 14/00 Q1015 NOSIG
ZBSJ,2015-03-28 19:00,ZBSJ 281900Z 14002MPS 7000 NSC 12/00 Q1015 NOSIG
ZBSJ,2015-03-28 20:00,ZBSJ 282000Z 25002MPS 7000 NSC 12/M00 Q1016 NOSIG
ZBSJ,2015-03-28 21:00,ZBSJ 282100Z 12001MPS 7000 NSC 08/00 Q1016 NOSIG
ZBSJ,2015-03-28 22:00,ZBSJ 282200Z 00000MPS 7000 NSC 08/00 Q1016 NOSIG
ZBSJ,2015-03-28 23:00,ZBSJ 282300Z 05001MPS 5000 FU NSC 08/01 Q1016 NOSIG
ZBSJ,2015-03-29 00:00,ZBSJ 290000Z 24001MPS 3000 FU NSC 13/01 Q1016 NOSIG
ZBSJ,2015-03-29 01:00,ZBSJ 290100Z 23001MPS 3500 HZ NSC 16/03 Q1017 NOSIG
ZBSJ,2015-03-29 02:00,ZBSJ 290200Z 20002MPS 3500 HZ NSC 18/03 Q1017 NOSIG
ZBSJ,2015-03-29 03:00,ZBSJ 290300Z 18003MPS 5000 HZ NSC 20/02 Q1016 NOSIG
ZBSJ,2015-03-29 04:00,ZBSJ 290400Z 17007MPS 8000 NSC 24/03 Q1014 NOSIG
ZBSJ,2015-03-29 05:00,ZBSJ 290500Z 17007MPS CAVOK 25/02 Q1013 NOSIG
ZBSJ,2015-03-29 06:00,ZBSJ 290600Z 17009MPS CAVOK 25/M01 Q1012 NOSIG
ZBSJ,2015-03-29 07:00,ZBSJ 290700Z 17009MPS CAVOK 25/02 Q1010 NOSIG
ZBSJ,2015-03-29 08:00,ZBSJ 290800Z 17008MPS CAVOK 23/04 Q1010 NOSIG
ZBSJ,2015-03-29 09:00,ZBSJ 290900Z 17005MPS 8000 NSC 23/05 Q1010 NOSIG
ZBSJ,2015-03-29 10:00,ZBSJ 291000Z 16005MPS 8000 NSC 21/04 Q1009 NOSIG
ZBSJ,2015-03-29 11:00,ZBSJ 291100Z 16005MPS CAVOK 20/05 Q1010 NOSIG
ZBSJ,2015-03-29 12:00,ZBSJ 291200Z 16006MPS CAVOK 19/04 Q1010 NOSIG
ZBSJ,2015-03-29 13:00,ZBSJ 291300Z 15005MPS CAVOK 18/04 Q1011 NOSIG
ZBSJ,2015-03-29 14:00,ZBSJ 291400Z 15007MPS 8000 NSC 18/05 Q1010 NOSIG
ZBSJ,2015-03-29 15:00,ZBSJ 291500Z 17005MPS 8000 NSC 16/06 Q1010 NOSIG
ZBSJ,2015-03-29 16:00,ZBSJ 291600Z 18005MPS 7000 NSC 16/06 Q1009 NOSIG
ZBSJ,2015-03-29 17:00,ZBSJ 291700Z 17003MPS 6000 NSC 13/06 Q1009 NOSIG
ZBSJ,2015-03-29 18:00,ZBSJ 291800Z 18003MPS 6000 NSC 12/06 Q1009 NOSIG
ZBSJ,2015-03-29 19:00,ZBSJ 291900Z 16002MPS 5000 HZ NSC 10/06 Q1008 NOSIG
ZBSJ,2015-03-29 20:00,ZBSJ 292000Z 22001MPS 5000 BR NSC 10/06 Q1008 NOSIG
ZBSJ,2015-03-29 21:00,ZBSJ 292100Z 17002MPS 4000 BR NSC 09/07 Q1008 NOSIG
ZBSJ,2015-03-29 22:00,ZBSJ 292200Z 17002MPS 3500 BR NSC 09/06 Q1009 NOSIG
ZBSJ,2015-03-29 23:00,ZBSJ 292300Z 23001MPS 2500 BR NSC 09/07 Q1009 NOSIG
ZBSJ,2015-03-30 00:00,ZBSJ 300000Z 22001MPS 2500 HZ NSC 13/07 Q1009 NOSIG
ZBSJ,2015-03-30 01:00,ZBSJ 300100Z 19002MPS 2700 HZ NSC 15/08 Q1009 BECMG 3500
ZBSJ,2015-03-30 02:00,ZBSJ 300200Z 19001MPS 2700 HZ NSC 16/08 Q1009 BECMG 3500
ZBSJ,2015-03-30 03:00,ZBSJ 300300Z 14002MPS 2700 HZ NSC 19/09 Q1009 BECMG 3500
ZBSJ,2015-03-30 04:00,ZBSJ 300400Z 10002MPS 3000 HZ NSC 19/08 Q1008 NOSIG
ZBSJ,2015-03-30 05:00,ZBSJ 300500Z 13002MPS 3000 HZ NSC 21/10 Q1007 NOSIG
ZBSJ,2015-03-30 06:00,ZBSJ 300600Z 15005MPS 3500 HZ NSC 23/11 Q1006 NOSIG
ZBSJ,2015-03-30 07:00,ZBSJ 300700Z 17005MPS 3000 HZ NSC 23/13 Q1005 NOSIG
ZBSJ,2015-03-30 08:00,ZBSJ 300800Z 16005MPS 5000 HZ NSC 23/13 Q1004 NOSIG
ZBSJ,2015-03-30 09:00,ZBSJ 300900Z 17003MPS 5000 HZ NSC 22/13 Q1005 NOSIG
ZBSJ,2015-03-30 10:00,ZBSJ 301000Z 12002MPS 4000 HZ NSC 21/14 Q1005 NOSIG
ZBSJ,2015-03-30 11:00,ZBSJ 301100Z 11002MPS 3500 HZ NSC 21/14 Q1005 NOSIG
ZBSJ,2015-03-30 12:00,ZBSJ 301200Z 05002MPS 3500 HZ NSC 19/14 Q1006 NOSIG
ZBSJ,2015-03-30 13:00,ZBSJ 301300Z 07003MPS 3000 HZ NSC 20/13 Q1007 NOSIG
ZBSJ,2015-03-30 14:00,ZBSJ 301400Z 04002MPS 3000 HZ NSC 19/13 Q1007 NOSIG
ZBSJ,2015-03-30 15:00,ZBSJ 301500Z 06002MPS 2500 HZ NSC 19/13 Q1007 NOSIG
ZBSJ,2015-03-30 16:00,ZBSJ 301600Z 07002MPS 2500 HZ NSC 18/13 Q1007 NOSIG
ZBSJ,2015-03-30 17:00,ZBSJ 301700Z 06002MPS 2500 HZ NSC 18/14 Q1007 NOSIG
ZBSJ,2015-03-30 18:00,ZBSJ 301800Z 06002MPS 2500 BR NSC 17/15 Q1007 NOSIG
ZBSJ,2015-03-30 19:00,ZBSJ 301900Z 03002MPS 2500 BR NSC 17/15 Q1006 NOSIG
ZBSJ,2015-03-30 20:00,ZBSJ 302000Z 04003MPS 2200 BR NSC 16/15 Q1006 NOSIG
ZBSJ,2015-03-30 21:00,ZBSJ 302100Z 05002MPS 2000 BR NSC 16/15 Q1007 NOSIG
ZBSJ,2015-03-30 22:00,ZBSJ 302200Z 04003MPS 1800 BR NSC 16/14 Q1007 NOSIG
ZBSJ,2015-03-30 23:00,ZBSJ 302300Z 06004MPS 1300 R33/1600N BR NSC 16/15 Q1008 BECMG 1700
ZBSJ,2015-03-31 00:00,ZBSJ 310000Z 05006MPS 1500 BR NSC 15/14 Q1009 NOSIG
ZBSJ,2015-03-31 01:00,ZBSJ 310100Z 04006MPS 1300 R33/1400U BR NSC 15/14 Q1010 BECMG 1700
ZBSJ,2015-03-31 02:00,ZBSJ 310200Z 04006MPS 1600 BR NSC 15/13 Q1011 NOSIG
ZBSJ,2015-03-31 03:00,ZBSJ 310300Z 04007MPS 1500 BR NSC 14/12 Q1012 NOSIG
ZBSJ,2015-03-31 04:00,ZBSJ 310400Z 05008MPS 1500 -RA BR NSC 12/11 Q1013 NOSIG
ZBSJ,2015-03-31 05:00,ZBSJ 310500Z 05010MPS 1800 -RA BR OVC046 12/11 Q1014 NOSIG
ZBSJ,2015-03-31 06:00,ZBSJ 310600Z 05006MPS 2500 -RA BR OVC040 11/11 Q1015 NOSIG
ZBSJ,2015-03-31 07:00,ZBSJ 310700Z 06007MPS 2500 -RA BR OVC043 10/09 Q1016 NOSIG
ZBSJ,2015-03-31 08:00,ZBSJ 310800Z 05005MPS 2000 -RA BR OVC040 10/09 Q1016 NOSIG
ZBSJ,2015-03-31 09:00,ZBSJ 310900Z 03003MPS 2000 -RA BR OVC033 10/09 Q1017 NOSIG
ZBSJ,2015-03-31 10:00,ZBSJ 311000Z 04002MPS 2000 BR OVC033 10/09 Q1018 NOSIG
ZBSJ,2015-03-31 11:00,ZBSJ 311100Z 03001MPS 2200 BR OVC033 10/09 Q1018 NOSIG
ZBSJ,2015-03-31 12:00,ZBSJ 311200Z 35002MPS 2200 BR OVC033 10/10 Q1020 NOSIG
ZBSJ,2015-03-31 13:00,ZBSJ 311300Z 06004MPS 2500 BR OVC033 10/09 Q1022 NOSIG
ZBSJ,2015-03-31 14:00,ZBSJ 311400Z 06005MPS 3500 BR OVC033 09/09 Q1022 NOSIG
ZBSJ,2015-03-31 15:00,ZBSJ 311500Z 06004MPS 4000 BR OVC033 09/08 Q1022 NOSIG
ZBSJ,2015-03-31 16:00,ZBSJ 311600Z 05001MPS 2000 -RA BR OVC033 08/08 Q1023 NOSIG
ZBSJ,2015-03-31 17:00,ZBSJ 311700Z 33002MPS 1600 BR OVC033 08/08 Q1023 NOSIG
ZBSJ,2015-03-31 18:00,ZBSJ 311800Z 36001MPS 4500 BR OVC033 09/09 Q1023 NOSIG
ZBSJ,2015-03-31 19:00,ZBSJ 311900Z 34003MPS 4000 BR OVC033 09/08 Q1022 NOSIG
ZBSJ,2015-03-31 20:00,ZBSJ 312000Z 32002MPS 4000 -RA BR OVC033 08/08 Q1022 NOSIG
ZBSJ,2015-03-31 21:00,ZBSJ 312100Z 31002MPS 4000 -RA BR OVC030 09/08 Q1023 NOSIG
ZBSJ,2015-03-31 22:00,ZBSJ 312200Z 26002MPS 3000 -RA BR OVC030 08/07 Q1023 NOSIG
ZBSJ,2015-03-31 23:00,ZBSJ 312300Z 36001MPS 3000 -RA BR OVC030 08/07 Q1023 NOSIG
ZBSJ,2015-04-01 00:00,ZBSJ 010000Z 00000MPS 3000 -RA BR OVC030 08/07 Q1024 NOSIG
ZBSJ,2015-04-01 01:00,ZBSJ 010100Z 29001MPS 7000 -RA OVC040 08/06 Q1024 NOSIG
ZBSJ,2015-04-01 02:00,ZBSJ 010200Z 33002MPS 6000 -RA OVC040 08/07 Q1024 NOSIG
ZBSJ,2015-04-01 03:00,ZBSJ 010300Z 33003MPS 6000 OVC040 08/07 Q1023 NOSIG
ZBSJ,2015-04-01 04:00,ZBSJ 010400Z 22001MPS 8000 -RA OVC040 09/05 Q1023 NOSIG
ZBSJ,2015-04-01 05:00,ZBSJ 010500Z 16003MPS 060V210 8000 -RA FEW030 OVC040 08/05 Q1022 NOSIG
ZBSJ,2015-04-01 06:00,ZBSJ 010600Z 20001MPS 8000 -RA FEW030 OVC040 08/04 Q1020 NOSIG
ZBSJ,2015-04-01 07:00,ZBSJ 010700Z 01002MPS 8000 OVC046 08/03 Q1019 NOSIG
ZBSJ,2015-04-01 08:00,ZBSJ 010800Z 33001MPS 8000 NSC 08/03 Q1018 NOSIG
ZBSJ,2015-04-01 09:00,ZBSJ 010900Z 34002MPS 7000 NSC 08/05 Q1017 NOSIG
ZBSJ,2015-04-01 10:00,ZBSJ 011000Z 32003MPS 7000 -RA OVC046 08/05 Q1017 NOSIG
ZBSJ,2015-04-01 11:00,ZBSJ 011100Z 33004MPS 6000 OVC046 07/05 Q1016 NOSIG
ZBSJ,2015-04-01 12:00,ZBSJ 011200Z 34003MPS 6000 OVC046 07/05 Q1015 NOSIG
ZBSJ,2015-04-01 13:00,ZBSJ 011300Z 33003MPS 6000 -RA OVC046 06/05 Q1015 NOSIG
ZBSJ,2015-04-01 14:00,ZBSJ 011400Z 33003MPS 5000 RA BR OVC033 05/05 Q1015 NOSIG
ZBSJ,2015-04-01 15:00,ZBSJ 011500Z 33004MPS 4500 RA BR OVC033 04/03 Q1014 NOSIG
ZBSJ,2015-04-01 16:00,ZBSJ 011600Z 33005MPS 4000 RA BR OVC033 03/03 Q1013 NOSIG
ZBSJ,2015-04-01 17:00,ZBSJ 011700Z 32004MPS 3500 -RA BR OVC033 02/02 Q1012 NOSIG
ZBSJ,2015-04-01 18:00,ZBSJ 011800Z 33004MPS 3500 -RA BR OVC033 03/03 Q1010 NOSIG
ZBSJ,2015-04-01 19:00,ZBSJ 011900Z 32005MPS 4000 BR OVC040 03/03 Q1009 NOSIG
ZBSJ,2015-04-01 20:00,ZBSJ 012000Z 33004MPS 4500 BR OVC046 03/03 Q1007 NOSIG
ZBSJ,2015-04-01 21:00,ZBSJ 012100Z 32003MPS 4500 BR OVC046 03/03 Q1006 NOSIG
ZBSJ,2015-04-01 22:00,ZBSJ 012200Z 32002MPS 4000 BR FEW033 04/04 Q1005 NOSIG
ZBSJ,2015-04-01 23:00,ZBSJ 012300Z 32003MPS 2500 BR FEW033 04/04 Q1004 BECMG 4000
ZBSJ,2015-04-02 00:00,ZBSJ 020000Z 31003MPS 2500 BR FEW040 04/04 Q1004 BECMG 4000
ZBSJ,2015-04-02 01:00,ZBSJ 020100Z 29005MPS 3500 BR FEW046 05/05 Q1005 NOSIG
ZBSJ,2015-04-02 02:00,ZBSJ 020200Z 29004MPS 9999 OVC046 07/04 Q1003 NOSIG
ZBSJ,2015-04-02 03:00,ZBSJ 020300Z 28002MPS 240V350 CAVOK 08/04 Q1002 NOSIG
ZBSJ,2015-04-02 04:00,ZBSJ 020400Z 31002MPS 9999 FEW040 10/03 Q1001 NOSIG
ZBSJ,2015-04-02 05:00,ZBSJ 020500Z 25001MPS 9999 FEW033 11/03 Q1000 NOSIG
ZBSJ,2015-04-02 06:00,ZBSJ 020600Z 27002MPS 210V330 CAVOK 13/04 Q0999 NOSIG
ZBSJ,2015-04-02 07:00,ZBSJ 020700Z 23003MPS 190V270 CAVOK 14/05 Q0998 NOSIG
ZBSJ,2015-04-02 08:00,ZBSJ 020800Z 24003MPS 210V280 CAVOK 15/06 Q0998 NOSIG
ZBSJ,2015-04-02 09:00,ZBSJ 020900Z 18004MPS CAVOK 15/05 Q0998 NOSIG
ZBSJ,2015-04-02 10:00,ZBSJ 021000Z 18005MPS 8000 NSC 13/07 Q0999 NOSIG
ZBSJ,2015-04-02 11:00,ZBSJ 021100Z 19003MPS 4500 HZ NSC 11/07 Q1000 NOSIG
ZBSJ,2015-04-02 12:00,ZBSJ 021200Z 15003MPS 8000 NSC 09/07 Q1001 NOSIG
ZBSJ,2015-04-02 13:00,ZBSJ 021300Z 12002MPS 7000 NSC 09/07 Q1003 NOSIG
ZBSJ,2015-04-02 14:00,ZBSJ 021400Z 10002MPS 6000 NSC 07/06 Q1003 NOSIG
ZBSJ,2015-04-02 15:00,ZBSJ 021500Z 13002MPS 5000 BR NSC 06/06 Q1004 NOSIG
ZBSJ,2015-04-02 16:00,ZBSJ 021600Z 00000MPS 4000 BR NSC 06/06 Q1004 NOSIG
ZBSJ,2015-04-02 17:00,ZBSJ 021700Z 09003MPS 2500 BR NSC 05/05 Q1005 NOSIG
ZBSJ,2015-04-02 18:00,ZBSJ 021800Z 06001MPS 2000 BR NSC 05/04 Q1006 NOSIG
ZBSJ,2015-04-02 19:00,ZBSJ 021900Z 35001MPS 1400 R15/2000U BR NSC 03/03 Q1007 NOSIG
ZBSJ,2015-04-02 20:00,ZBSJ 022000Z 36001MPS 1400 R15/1500D BR NSC 04/04 Q1009 NOSIG
ZBSJ,2015-04-02 21:00,ZBSJ 022100Z 02002MPS 1000 R15/0900V1900D BR NSC 02/02 Q1009 NOSIG
ZBSJ,2015-04-02 22:00,ZBSJ 022200Z 06001MPS 0500 R15/0750N FG NSC 03/03 Q1010 NOSIG
ZBSJ,2015-04-02 23:00,ZBSJ 022300Z 00000MPS 0400 R15/0750D FG NSC 03/03 Q1011 BECMG 0600
ZBSJ,2015-04-03 00:00,ZBSJ 030000Z 02001MPS 0500 R15/0750N FG NSC 07/07 Q1012 BECMG 0800
ZBSJ,2015-04-03 01:00,ZBSJ 030100Z 35001MPS 1000 R33/0900N BR NSC 11/10 Q1013 BECMG 1600
ZBSJ,2015-04-03 02:00,ZBSJ 030200Z 08003MPS 040V120 4000 HZ NSC 13/08 Q1014 NOSIG
ZBSJ,2015-04-03 03:00,ZBSJ 030300Z 11004MPS 4000 HZ NSC 14/08 Q1014 NOSIG
ZBSJ,2015-04-03 04:00,ZBSJ 030400Z 10004MPS 070V140 7000 NSC 14/07 Q1014 NOSIG
ZBSJ,2015-04-03 05:00,ZBSJ 030500Z 11004MPS 6000 NSC 15/07 Q1013 NOSIG
ZBSJ,2015-04-03 06:00,ZBSJ 030600Z 12003MPS 090V160 6000 FEW033 15/07 Q1013 NOSIG
ZBSJ,2015-04-03 07:00,ZBSJ 030700Z 12003MPS 8000 SCT033 15/06 Q1012 NOSIG
ZBSJ,2015-04-03 08:00,ZBSJ 030800Z 12003MPS 070V140 8000 BKN040 15/07 Q1011 NOSIG
ZBSJ,2015-04-03 09:00,ZBSJ 030900Z 10003MPS 9999 BKN040 14/07 Q1011 NOSIG
ZBSJ,2015-04-03 10:00,ZBSJ 031000Z 10004MPS 9999 BKN040 13/06 Q1012 NOSIG
ZBSJ,2015-04-03 11:00,ZBSJ 031100Z 10003MPS 8000 BKN040 12/06 Q1012 NOSIG
ZBSJ,2015-04-03 12:00,ZBSJ 031200Z 10002MPS 8000 BKN040 12/07 Q1013 NOSIG
ZBSJ,2015-04-03 13:00,ZBSJ 031300Z 11004MPS 8000 NSC 12/07 Q1013 NOSIG
ZBSJ,2015-04-03 14:00,ZBSJ 031400Z 12002MPS 8000 NSC 11/07 Q1014 NOSIG
ZBSJ,2015-04-03 15:00,ZBSJ 031500Z 10002MPS 8000 NSC 10/07 Q1014 NOSIG
ZBSJ,2015-04-03 16:00,ZBSJ 031600Z 11004MPS CAVOK 09/06 Q1014 NOSIG
ZBSJ,2015-04-03 17:00,ZBSJ 031700Z 13003MPS CAVOK 09/06 Q1013 NOSIG
ZBSJ,2015-04-03 18:00,ZBSJ 031800Z 14001MPS CAVOK 08/06 Q1013 NOSIG
ZBSJ,2015-04-03 19:00,ZBSJ 031900Z 07002MPS CAVOK 08/06 Q1012 NOSIG
ZBSJ,2015-04-03 20:00,ZBSJ 032000Z 03002MPS 9999 -RA OVC046 08/06 Q1011 NOSIG
ZBSJ,2015-04-03 21:00,ZBSJ 032100Z 33001MPS 9999 OVC046 07/05 Q1011 NOSIG
ZBSJ,2015-04-03 22:00,ZBSJ 032200Z 35002MPS 8000 OVC046 08/06 Q1012 NOSIG
ZBSJ,2015-04-03 23:00,ZBSJ 032300Z 02002MPS CAVOK 08/06 Q1012 NOSIG
ZBSJ,2015-04-04 00:00,ZBSJ 040000Z 04002MPS CAVOK 10/06 Q1012 NOSIG
ZBSJ,2015-04-04 01:00,ZBSJ 040100Z 35002MPS 310V010 CAVOK 11/03 Q1013 NOSIG
ZBSJ,2015-04-04 02:00,ZBSJ 040200Z 06002MPS CAVOK 12/03 Q1013 NOSIG
ZBSJ,2015-04-04 03:00,ZBSJ 040300Z 13001MPS CAVOK 13/03 Q1013 NOSIG
ZBSJ,2015-04-04 04:00,ZBSJ 040400Z 05001MPS CAVOK 14/03 Q1013 NOSIG
ZBSJ,2015-04-04 05:00,ZBSJ 040500Z 02001MPS CAVOK 15/02 Q1012 NOSIG
ZBSJ,2015-04-04 06:00,ZBSJ 040600Z 16002MPS 130V200 8000 NSC 14/03 Q1011 NOSIG
ZBSJ,2015-04-04 07:00,ZBSJ 040700Z 11001MPS 8000 NSC 15/04 Q1011 NOSIG
ZBSJ,2015-04-04 08:00,ZBSJ 040800Z 13002MPS 8000 NSC 15/04 Q1011 NOSIG
ZBSJ,2015-04-04 09:00,ZBSJ 040900Z 15003MPS 8000 NSC 14/04 Q1011 NOSIG
ZBSJ,2015-04-04 10:00,ZBSJ 041000Z 15003MPS 7000 NSC 13/05 Q1012 NOSIG
ZBSJ,2015-04-04 11:00,ZBSJ 041100Z 14002MPS 5000 HZ NSC 12/05 Q1012 NOSIG
ZBSJ,2015-04-04 12:00,ZBSJ 041200Z 18002MPS 7000 NSC 12/05 Q1014 NOSIG
ZBSJ,2015-04-04 13:00,ZBSJ 041300Z 17001MPS 7000 NSC 12/06 Q1015 NOSIG
ZBSJ,2015-04-04 14:00,ZBSJ 041400Z 15001MPS 6000 NSC 11/06 Q1015 NOSIG
ZBSJ,2015-04-04 15:00,ZBSJ 041500Z 34001MPS 5000 HZ NSC 12/06 Q1016 NOSIG
ZBSJ,2015-04-04 16:00,ZBSJ 041600Z 25001MPS 5000 BR NSC 11/07 Q1015 NOSIG
ZBSJ,2015-04-04 17:00,ZBSJ 041700Z 17001MPS 5000 BR NSC 11/07 Q1015 NOSIG
ZBSJ,2015-04-04 18:00,ZBSJ 041800Z 26001MPS 4500 BR NSC 12/06 Q1015 NOSIG
ZBSJ,2015-04-04 19:00,ZBSJ 041900Z 20001MPS 4500 HZ NSC 10/08 Q1013 NOSIG
ZBSJ,2015-04-04 20:00,ZBSJ 042000Z 03001MPS 3500 BR NSC 09/07 Q1013 NOSIG
ZBSJ,2015-04-04 21:00,ZBSJ 042100Z 27002MPS 3500 BR NSC 08/06 Q1014 NOSIG
ZBSJ,2015-04-04 22:00,ZBSJ 042200Z 19001MPS 1800 BR NSC 07/07 Q1015 NOSIG
ZBSJ,2015-04-04 23:00,ZBSJ 042300Z 28002MPS 1800 BR NSC 11/08 Q1016 NOSIG
ZBSJ,2015-04-05 00:00,ZBSJ 050000Z 30005MPS 4000 HZ NSC 14/05 Q1017 NOSIG
ZBSJ,2015-04-05 01:00,ZBSJ 050100Z 34007MPS CAVOK 16/M01 Q1018 NOSIG
ZBSJ,2015-04-05 02:00,ZBSJ 050200Z 34008MPS CAVOK 17/M01 Q1018 NOSIG
ZBSJ,2015-04-05 03:00,ZBSJ 050300Z 34008MPS CAVOK 18/M02 Q1018 NOSIG
ZBSJ,2015-04-05 04:00,ZBSJ 050400Z 34007MPS 310V010 CAVOK 19/M03 Q1017 NOSIG
ZBSJ,2015-04-05 05:00,ZBSJ 050500Z 31005MPS 280V350 CAVOK 20/M06 Q1017 NOSIG
ZBSJ,2015-04-05 06:00,ZBSJ 050600Z 32004MPS 260V010 CAVOK 20/M05 Q1017 NOSIG
ZBSJ,2015-04-05 07:00,ZBSJ 050700Z 30004MPS 250V040 CAVOK 20/M05 Q1016 NOSIG
ZBSJ,2015-04-05 08:00,ZBSJ 050800Z 32003MPS 270V050 CAVOK 21/M03 Q1015 NOSIG
ZBSJ,2015-04-05 09:00,ZBSJ 050900Z 32005MPS CAVOK 21/M04 Q1016 NOSIG
ZBSJ,2015-04-05 10:00,ZBSJ 051000Z 34003MPS CAVOK 18/01 Q1016 NOSIG
ZBSJ,2015-04-05 11:00,ZBSJ 051100Z 06003MPS CAVOK 15/M00 Q1017 NOSIG
ZBSJ,2015-04-05 12:00,ZBSJ 051200Z 05004MPS CAVOK 14/M00 Q1019 NOSIG
ZBSJ,2015-04-05 13:00,ZBSJ 051300Z 07005MPS CAVOK 13/M02 Q1021 NOSIG
ZBSJ,2015-04-05 14:00,ZBSJ 051400Z 08005MPS CAVOK 10/M02 Q1022 NOSIG
ZBSJ,2015-04-05 15:00,ZBSJ 051500Z 09003MPS CAVOK 08/M02 Q1023 NOSIG
ZBSJ,2015-04-05 16:00,ZBSJ 051600Z 07003MPS CAVOK 08/M02 Q1024 NOSIG
ZBSJ,2015-04-05 17:00,ZBSJ 051700Z 06006MPS CAVOK 08/M05 Q1025 NOSIG
ZBSJ,2015-04-05 18:00,ZBSJ 051800Z 07005MPS CAVOK 07/M05 Q1026 NOSIG
ZBSJ,2015-04-05 19:00,ZBSJ 051900Z 06006MPS CAVOK 07/M06 Q1026 NOSIG
ZBSJ,2015-04-05 20:00,ZBSJ 052000Z 05004MPS CAVOK 06/M07 Q1027 NOSIG
ZBSJ,2015-04-05 21:00,ZBSJ 052100Z 04002MPS CAVOK 06/M06 Q1028 NOSIG
ZBSJ,2015-04-05 22:00,ZBSJ 052200Z 09002MPS CAVOK 05/M05 Q1029 NOSIG
ZBSJ,2015-04-05 23:00,ZBSJ 052300Z 08001MPS CAVOK 06/M04 Q1031 NOSIG
ZBSJ,2015-04-06 00:00,ZBSJ 060000Z 09003MPS 050V130 CAVOK 07/M04 Q1032 NOSIG
ZBSJ,2015-04-06 01:00,ZBSJ 060100Z 09004MPS CAVOK 07/M06 Q1033 NOSIG
ZBSJ,2015-04-06 02:00,ZBSJ 060200Z 07005MPS CAVOK 07/M06 Q1033 NOSIG
ZBSJ,2015-04-06 03:00,ZBSJ 060300Z 08003MPS 050V110 CAVOK 07/M07 Q1033 NOSIG
ZBSJ,2015-04-06 04:00,ZBSJ 060400Z 10003MPS 060V130 CAVOK 08/M07 Q1032 NOSIG
ZBSJ,2015-04-06 05:00,ZBSJ 060500Z 07003MPS 030V100 CAVOK 08/M07 Q1032 NOSIG
ZBSJ,2015-04-06 06:00,ZBSJ 060600Z 14002MPS 060V210 CAVOK 10/M07 Q1031 NOSIG
ZBSJ,2015-04-06 07:00,ZBSJ 060700Z 09003MPS 050V130 CAVOK 09/M06 Q1030 NOSIG
ZBSJ,2015-04-06 08:00,ZBSJ 060800Z 16002MPS 130V220 CAVOK 09/M07 Q1029 NOSIG
ZBSJ,2015-04-06 09:00,ZBSJ 060900Z 12002MPS CAVOK 09/M07 Q1029 NOSIG
ZBSJ,2015-04-06 10:00,ZBSJ 061000Z 14003MPS CAVOK 08/M05 Q1029 NOSIG
ZBSJ,2015-04-06 11:00,ZBSJ 061100Z 13002MPS CAVOK 07/M04 Q1029 NOSIG
ZBSJ,2015-04-06 12:00,ZBSJ 061200Z 13002MPS CAVOK 06/M04 Q1030 NOSIG
ZBSJ,2015-04-06 13:00,ZBSJ 061300Z 15002MPS CAVOK 05/M03 Q1031 NOSIG
ZBSJ,2015-04-06 14:00,ZBSJ 061400Z 17002MPS CAVOK 05/M04 Q1032 NOSIG
ZBSJ,2015-04-06 15:00,ZBSJ 061500Z 17001MPS CAVOK 03/M03 Q1032 NOSIG
ZBSJ,2015-04-06 16:00,ZBSJ 061600Z 16002MPS CAVOK 03/M03 Q1032 NOSIG
ZBSJ,2015-04-06 17:00,ZBSJ 061700Z 17002MPS 7000 NSC 03/M02 Q1032 NOSIG
ZBSJ,2015-04-06 18:00,ZBSJ 061800Z 16002MPS 7000 NSC 03/M01 Q1032 NOSIG
ZBSJ,2015-04-06 19:00,ZBSJ 061900Z 18001MPS 7000 NSC 02/M01 Q1031 NOSIG
ZBSJ,2015-04-06 20:00,ZBSJ 062000Z 04001MPS 7000 NSC 01/M01 Q1031 NOSIG
ZBSJ,2015-04-06 21:00,ZBSJ 062100Z 00000MPS 6000 NSC M00/M01 Q1032 NOSIG
ZBSJ,2015-04-06 22:00,ZBSJ 062200Z 27001MPS 6000 NSC 01/M01 Q1033 NOSIG
ZBSJ,2015-04-06 23:00,ZBSJ 062300Z 15001MPS 5000 BR NSC 02/M00 Q1034 NOSIG
ZBSJ,2015-04-07 00:00,ZBSJ 070000Z 03001MPS 5000 BR NSC 04/01 Q1034 NOSIG
ZBSJ,2015-04-07 01:00,ZBSJ 070100Z 04003MPS 010V070 2700 HZ NSC 07/02 Q1034 NOSIG
ZBSJ,2015-04-07 02:00,ZBSJ 070200Z 08005MPS CAVOK 08/M02 Q1035 NOSIG
ZBSJ,2015-04-07 03:00,ZBSJ 070300Z 09004MPS CAVOK 09/M04 Q1034 NOSIG
ZBSJ,2015-04-07 04:00,ZBSJ 070400Z 11003MPS 020V160 CAVOK 10/M05 Q1033 NOSIG
ZBSJ,2015-04-07 05:00,ZBSJ 070500Z 12002MPS 070V190 CAVOK 11/M04 Q1032 NOSIG
ZBSJ,2015-04-07 06:00,ZBSJ 070600Z VRB02MPS CAVOK 12/M04 Q1030 NOSIG
ZBSJ,2015-04-07 07:00,ZBSJ 070700Z 19003MPS 150V220 CAVOK 12/M05 Q1029 NOSIG
ZBSJ,2015-04-07 08:00,ZBSJ 070800Z 15004MPS CAVOK 12/M03 Q1028 NOSIG
ZBSJ,2015-04-07 09:00,ZBSJ 070900Z 16004MPS 8000 NSC 11/M01 Q1028 NOSIG
ZBSJ,2015-04-07 10:00,ZBSJ 071000Z 17005MPS 7000 NSC 10/M00 Q1028 NOSIG
ZBSJ,2015-04-07 11:00,ZBSJ 071100Z 17004MPS 6000 NSC 08/M01 Q1028 NOSIG
ZBSJ,2015-04-07 12:00,ZBSJ 071200Z 16002MPS 8000 NSC 07/M00 Q1029 NOSIG
ZBSJ,2015-04-07 13:00,ZBSJ 071300Z 17002MPS 8000 NSC 07/M01 Q1029 NOSIG
ZBSJ,2015-04-07 14:00,ZBSJ 071400Z 15003MPS CAVOK 06/M01 Q1029 NOSIG
ZBSJ,2015-04-07 15:00,ZBSJ 071500Z 15003MPS CAVOK 04/M01 Q1029 NOSIG
ZBSJ,2015-04-07 16:00,ZBSJ 071600Z 15003MPS CAVOK 04/M02 Q1028 NOSIG
ZBSJ,2015-04-07 17:00,ZBSJ 071700Z 14003MPS CAVOK 05/M02 Q1028 NOSIG
ZBSJ,2015-04-07 18:00,ZBSJ 071800Z 13003MPS 7000 NSC 05/M02 Q1027 NOSIG
ZBSJ,2015-04-07 19:00,ZBSJ 071900Z 10001MPS 8000 NSC 04/M01 Q1027 NOSIG
ZBSJ,2015-04-07 20:00,ZBSJ 072000Z 09001MPS 8000 NSC 04/M00 Q1026 NOSIG
ZBSJ,2015-04-07 21:00,ZBSJ 072100Z 13001MPS 8000 NSC 05/M00 Q1026 NOSIG
ZBSJ,2015-04-07 22:00,ZBSJ 072200Z 17001MPS 7000 NSC 05/01 Q1026 NOSIG
ZBSJ,2015-04-07 23:00,ZBSJ 072300Z 18001MPS 5000 -RA BR NSC 05/03 Q1026 TEMPO 2500 BR
ZBSJ,2015-04-08 00:00,ZBSJ 080000Z 16002MPS 3500 BR NSC 05/03 Q1027 BECMG 2500 BR
ZBSJ,2015-04-08 01:00,ZBSJ 080100Z 14001MPS 3000 -RA BR NSC 06/04 Q1027 NOSIG
ZBSJ,2015-04-08 02:00,ZBSJ 080200Z 17002MPS 3000 -RA BR OVC046 07/04 Q1027 NOSIG
ZBSJ,2015-04-08 03:00,ZBSJ 080300Z 16002MPS 120V190 3000 -RA BR NSC 08/05 Q1026 NOSIG
ZBSJ,2015-04-08 04:00,ZBSJ 080400Z 14003MPS 100V220 2700 HZ NSC 09/04 Q1025 BECMG 3500
ZBSJ,2015-04-08 05:00,ZBSJ 080500Z 17003MPS 120V190 3500 HZ NSC 10/04 Q1024 NOSIG
ZBSJ,2015-04-08 06:00,ZBSJ 080600Z 18003MPS 140V230 3000 HZ NSC 11/04 Q1022 NOSIG
ZBSJ,2015-04-08 07:00,ZBSJ 080700Z 16004MPS 120V190 3000 HZ NSC 12/04 Q1022 NOSIG
ZBSJ,2015-04-08 08:00,ZBSJ 080800Z 17003MPS 3300 HZ NSC 12/04 Q1021 NOSIG
ZBSJ,2015-04-08 09:00,ZBSJ 080900Z 16003MPS 3000 HZ NSC 12/05 Q1020 NOSIG
ZBSJ,2015-04-08 10:00,ZBSJ 081000Z 16003MPS 3000 HZ NSC 11/05 Q1020 NOSIG
ZBSJ,2015-04-08 11:00,ZBSJ 081100Z 07002MPS 2500 BR NSC 09/06 Q1020 BECMG 3000
ZBSJ,2015-04-08 12:00,ZBSJ 081200Z 06002MPS 3500 BR NSC 07/05 Q1021 NOSIG
ZBSJ,2015-04-08 13:00,ZBSJ 081300Z 04002MPS 3500 BR NSC 07/05 Q1022 NOSIG
ZBSJ,2015-04-08 14:00,ZBSJ 081400Z 06002MPS 2500 BR NSC 07/05 Q1022 BECMG 1400 BR
ZBSJ,2015-04-08 15:00,ZBSJ 081500Z 07002MPS 2200 BR NSC 08/05 Q1022 BECMG 1400 BR
ZBSJ,2015-04-08 16:00,ZBSJ 081600Z 03001MPS 2200 -RA BR NSC 08/06 Q1022 BECMG 1400 BR
ZBSJ,2015-04-08 17:00,ZBSJ 081700Z 14001MPS 2200 -RA BR OVC040 08/06 Q1022 NOSIG
ZBSJ,2015-04-08 18:00,ZBSJ 081800Z 35002MPS 1700 -RA BR OVC040 08/07 Q1021 NOSIG
ZBSJ,2015-04-08 19:00,ZBSJ 081900Z 30002MPS 1700 BR OVC040 08/07 Q1021 NOSIG
ZBSJ,2015-04-08 20:00,ZBSJ 082000Z 22001MPS 1700 BR BKN040 07/07 Q1020 NOSIG
ZBSJ,2015-04-08 21:00,ZBSJ 082100Z 22001MPS 1400 R15/1800N BR BKN040 07/07 Q1020 NOSIG
ZBSJ,2015-04-08 22:00,ZBSJ 082200Z 19001MPS 0500 R15/1000N FG BKN040 06/06 Q1020 NOSIG
ZBSJ,2015-04-08 23:00,ZBSJ 082300Z 18001MPS 0400 R15/0100N FG NSC 04/04 Q1021 BECMG TL0040 0600
ZBSJ,2015-04-09 00:00,ZBSJ 090000Z 23002MPS 0400 R15/0550N FG NSC 07/07 Q1021 BECMG TL0120 0600
ZBSJ,2015-04-09 01:00,ZBSJ 090100Z 19002MPS 0800 R15/0800N FG NSC 09/09 Q1021 BECMG TL0220 1500 BR
ZBSJ,2015-04-09 02:00,ZBSJ 090200Z 21002MPS 1300 R15/1100N BR NSC 12/09 Q1022 BECMG TL0320 2000
ZBSJ,2015-04-09 03:00,ZBSJ 090300Z 16002MPS 120V210 1500 R15/1400N BR NSC 13/09 Q1021 NOSIG
ZBSJ,2015-04-09 04:00,ZBSJ 090400Z 16003MPS 110V210 1800 HZ NSC 15/09 Q1021 NOSIG
ZBSJ,2015-04-09 05:00,ZBSJ 090500Z 18003MPS 130V220 2500 HZ NSC 16/10 Q1020 BECMG 3500
ZBSJ,2015-04-09 06:00,ZBSJ 090600Z 17004MPS 130V200 3500 HZ NSC 17/10 Q1019 NOSIG
ZBSJ,2015-04-09 07:00,ZBSJ 090700Z 17004MPS 3500 HZ NSC 17/09 Q1018 NOSIG
ZBSJ,2015-04-09 08:00,ZBSJ 090800Z 17004MPS 4500 HZ NSC 18/10 Q1018 NOSIG
ZBSJ,2015-04-09 09:00,ZBSJ 090900Z 12002MPS 4000 HZ NSC 17/10 Q1019 NOSIG
ZBSJ,2015-04-09 10:00,ZBSJ 091000Z 13003MPS 4000 HZ NSC 16/09 Q1019 NOSIG
ZBSJ,2015-04-09 11:00,ZBSJ 091100Z 16004MPS 3000 BR NSC 13/09 Q1019 NOSIG
ZBSJ,2015-04-09 12:00,ZBSJ 091200Z 17003MPS 4000 BR NSC 12/09 Q1020 NOSIG
ZBSJ,2015-04-09 13:00,ZBSJ 091300Z 20002MPS 4000 BR NSC 11/09 Q1020 NOSIG
ZBSJ,2015-04-09 14:00,ZBSJ 091400Z 16003MPS 3500 BR NSC 09/08 Q1020 NOSIG
ZBSJ,2015-04-09 15:00,ZBSJ 091500Z 18003MPS 3000 BR NSC 08/07 Q1020 NOSIG
ZBSJ,2015-04-09 16:00,ZBSJ 091600Z 19001MPS 4000 BR NSC 08/07 Q1020 NOSIG
ZBSJ,2015-04-09 17:00,ZBSJ 091700Z 19002MPS 4000 BR NSC 08/05 Q1020 NOSIG
ZBSJ,2015-04-09 18:00,ZBSJ 091800Z 31002MPS 4000 BR NSC 06/04 Q1020 NOSIG
ZBSJ,2015-04-09 19:00,ZBSJ 091900Z 24001MPS 3500 BR NSC 07/06 Q1020 NOSIG
ZBSJ,2015-04-09 20:00,ZBSJ 092000Z 32002MPS 2200 BR NSC 06/05 Q1020 NOSIG
ZBSJ,2015-04-09 21:00,ZBSJ 092100Z 32001MPS 2500 BR NSC 05/05 Q1020 NOSIG
ZBSJ,2015-04-09 22:00,ZBSJ 092200Z 28001MPS 2500 BR NSC 05/05 Q1020 NOSIG
ZBSJ,2015-04-09 23:00,ZBSJ 092300Z 31001MPS 5000 BR NSC 08/07 Q1021 NOSIG
ZBSJ,2015-04-10 00:00,ZBSJ 100000Z 29003MPS 7000 NSC 12/04 Q1021 NOSIG
ZBSJ,2015-04-10 01:00,ZBSJ 100100Z 27002MPS 230V300 CAVOK 15/05 Q1021 NOSIG
ZBSJ,2015-04-10 02:00,ZBSJ 100200Z 29002MPS CAVOK 17/06 Q1021 NOSIG
ZBSJ,2015-04-10 03:00,ZBSJ 100300Z 24002MPS 190V280 CAVOK 20/03 Q1021 NOSIG
ZBSJ,2015-04-10 04:00,ZBSJ 100400Z 16003MPS 110V230 CAVOK 21/06 Q1020 NOSIG
ZBSJ,2015-04-10 05:00,ZBSJ 100500Z 15005MPS CAVOK 23/05 Q1019 NOSIG
ZBSJ,2015-04-10 06:00,ZBSJ 100600Z 16006MPS CAVOK 23/03 Q1017 NOSIG
ZBSJ,2015-04-10 07:00,ZBSJ 100700Z 15006MPS CAVOK 24/02 Q1017 NOSIG
ZBSJ,2015-04-10 08:00,ZBSJ 100800Z 17005MPS CAVOK 23/04 Q1016 NOSIG
ZBSJ,2015-04-10 09:00,ZBSJ 100900Z 16006MPS CAVOK 22/05 Q1016 NOSIG
ZBSJ,2015-04-10 10:00,ZBSJ 101000Z 17003MPS CAVOK 20/06 Q1016 NOSIG
ZBSJ,2015-04-10 11:00,ZBSJ 101100Z 19004MPS CAVOK 18/03 Q1016 NOSIG
ZBSJ,2015-04-10 12:00,ZBSJ 101200Z 19005MPS CAVOK 18/04 Q1017 NOSIG
ZBSJ,2015-04-10 13:00,ZBSJ 101300Z 18005MPS CAVOK 17/05 Q1017 NOSIG
ZBSJ,2015-04-10 14:00,ZBSJ 101400Z 18006MPS CAVOK 16/07 Q1017 NOSIG
ZBSJ,2015-04-10 15:00,ZBSJ 101500Z 18005MPS 7000 NSC 15/08 Q1017 NOSIG
ZBSJ,2015-04-10 16:00,ZBSJ 101600Z 18006MPS 5000 HZ NSC 14/09 Q1017 NOSIG
ZBSJ,2015-04-10 17:00,ZBSJ 101700Z 20003MPS 5000 BR NSC 14/09 Q1017 NOSIG
ZBSJ,2015-04-10 18:00,ZBSJ 101800Z 19002MPS 4500 BR NSC 13/10 Q1017 NOSIG
ZBSJ,2015-04-10 19:00,ZBSJ 101900Z 00000MPS 4000 BR NSC 11/09 Q1017 NOSIG
ZBSJ,2015-04-10 20:00,ZBSJ 102000Z 18003MPS 3000 BR NSC 09/08 Q1017 NOSIG
ZBSJ,2015-04-10 21:00,ZBSJ 102100Z 27002MPS 3500 BR NSC 10/08 Q1017 NOSIG
ZBSJ,2015-04-10 22:00,ZBSJ 102200Z 29001MPS 3500 BR NSC 09/07 Q1018 NOSIG
ZBSJ,2015-04-10 23:00,ZBSJ 102300Z 31001MPS 3500 BR NSC 10/08 Q1018 NOSIG
ZBSJ,2015-04-11 00:00,ZBSJ 110000Z 35001MPS 3000 BR NSC 13/09 Q1019 NOSIG
ZBSJ,2015-04-11 01:00,ZBSJ 110100Z 03002MPS 2300 HZ NSC 17/11 Q1019 BECMG 3500
ZBSJ,2015-04-11 02:00,ZBSJ 110200Z 06004MPS 010V080 2700 HZ NSC 18/11 Q1019 BECMG 3500
ZBSJ,2015-04-11 03:00,ZBSJ 110300Z 09003MPS 050V130 2700 HZ NSC 20/12 Q1019 BECMG 3500
ZBSJ,2015-04-11 04:00,ZBSJ 110400Z 10003MPS 060V130 3000 HZ NSC 21/13 Q1018 NOSIG
ZBSJ,2015-04-11 05:00,ZBSJ 110500Z 10004MPS 070V130 4000 HZ NSC 22/11 Q1017 NOSIG
ZBSJ,2015-04-11 06:00,ZBSJ 110600Z 09005MPS 5000 HZ NSC 22/11 Q1016 NOSIG
ZBSJ,2015-04-11 07:00,ZBSJ 110700Z 09004MPS 070V130 5000 HZ NSC 22/12 Q1016 NOSIG
ZBSJ,2015-04-11 08:00,ZBSJ 110800Z 11004MPS 5000 HZ NSC 22/09 Q1016 NOSIG
ZBSJ,2015-04-11 09:00,ZBSJ 110900Z 08004MPS 5000 HZ NSC 21/10 Q1016 NOSIG
ZBSJ,2015-04-11 10:00,ZBSJ 111000Z 13002MPS 5000 HZ FEW033 20/11 Q1016 NOSIG
ZBSJ,2015-04-11 11:00,ZBSJ 111100Z 19002MPS 5000 HZ FEW033 19/09 Q1016 NOSIG
ZBSJ,2015-04-11 12:00,ZBSJ 111200Z 08003MPS 5000 HZ FEW033 15/10 Q1016 NOSIG
ZBSJ,2015-04-11 13:00,ZBSJ 111300Z 04005MPS 2000 TS HZ FEW040CB 17/11 Q1017 BECMG TL1440 NSW
ZBSJ,2015-04-11 14:00,ZBSJ 111400Z 03007MPS 2300 TSRA BR SCT030CB SCT046 13/12 Q1019 BECMG TL1440 NSW
ZBSJ,2015-04-11 15:00,ZBSJ 111500Z 03004MPS 9999 SCT046 12/09 Q1019 RETS NOSIG
ZBSJ,2015-04-11 16:00,ZBSJ 111600Z 06003MPS CAVOK 12/09 Q1021 NOSIG
ZBSJ,2015-04-11 17:00,ZBSJ 111700Z 05006MPS CAVOK 11/09 Q1022 NOSIG
ZBSJ,2015-04-11 18:00,ZBSJ 111800Z 04004MPS CAVOK 10/08 Q1022 NOSIG
ZBSJ,2015-04-11 19:00,ZBSJ 111900Z 01003MPS 330V040 CAVOK 09/08 Q1022 NOSIG
ZBSJ,2015-04-11 20:00,ZBSJ 112000Z 34008MPS CAVOK 08/M01 Q1023 NOSIG
ZBSJ,2015-04-11 21:00,ZBSJ 112100Z 33009MPS CAVOK 07/M03 Q1023 NOSIG
ZBSJ,2015-04-11 22:00,ZBSJ 112200Z 32008MPS CAVOK 07/M04 Q1024 NOSIG
ZBSJ,2015-04-11 23:00,ZBSJ 112300Z 32009MPS CAVOK 08/M04 Q1024 NOSIG
ZBSJ,2015-04-12 00:00,ZBSJ 120000Z 32011MPS CAVOK 09/M05 Q1025 NOSIG
ZBSJ,2015-04-12 01:00,ZBSJ 120100Z 33011MPS CAVOK 11/M05 Q1025 NOSIG
ZBSJ,2015-04-12 02:00,ZBSJ 120200Z 32012MPS CAVOK 11/M06 Q1025 NOSIG
ZBSJ,2015-04-12 03:00,ZBSJ 120300Z 34009MPS CAVOK 13/M06 Q1025 NOSIG
ZBSJ,2015-04-12 04:00,ZBSJ 120400Z 33008MPS 9999 FEW030 14/M05 Q1024 NOSIG
ZBSJ,2015-04-12 05:00,ZBSJ 120500Z 33008G13MPS 9999 FEW030 15/M05 Q1024 NOSIG
ZBSJ,2015-04-12 06:00,ZBSJ 120600Z 33008MPS 9999 FEW030 SCT033 15/M06 Q1025 NOSIG
ZBSJ,2015-04-12 07:00,ZBSJ 120700Z 35007G12MPS 330V030 9999 BKN040 13/M05 Q1025 NOSIG
ZBSJ,2015-04-12 08:00,ZBSJ 120800Z 34006G11MPS 300V010 9999 SCT040 13/M06 Q1025 NOSIG
ZBSJ,2015-04-12 09:00,ZBSJ 120900Z 35005MPS 9999 BKN040 12/M04 Q1025 NOSIG
ZBSJ,2015-04-12 10:00,ZBSJ 121000Z 35006MPS 9999 SCT040 12/M06 Q1026 NOSIG
ZBSJ,2015-04-12 11:00,ZBSJ 121100Z 04009MPS 9999 BKN033 10/01 Q1027 NOSIG
ZBSJ,2015-04-12 12:00,ZBSJ 121200Z 06005MPS 9999 BKN040 08/M00 Q1028 NOSIG
ZBSJ,2015-04-12 13:00,ZBSJ 121300Z 06005MPS CAVOK 07/M00 Q1029 NOSIG
ZBSJ,2015-04-12 14:00,ZBSJ 121400Z 06004MPS CAVOK 06/M02 Q1029 NOSIG
ZBSJ,2015-04-12 15:00,ZBSJ 121500Z 07003MPS CAVOK 05/M01 Q1029 NOSIG
ZBSJ,2015-04-12 16:00,ZBSJ 121600Z 07001MPS CAVOK 05/M01 Q1029 NOSIG
ZBSJ,2015-04-12 17:00,ZBSJ 121700Z 04002MPS CAVOK 04/M01 Q1030 NOSIG
ZBSJ,2015-04-12 18:00,ZBSJ 121800Z 35001MPS CAVOK 05/M02 Q1029 NOSIG
ZBSJ,2015-04-12 19:00,ZBSJ 121900Z 33002MPS CAVOK 04/M01 Q1029 NOSIG
ZBSJ,2015-04-12 20:00,ZBSJ 122000Z 33002MPS CAVOK 03/M00 Q1028 NOSIG
ZBSJ,2015-04-12 21:00,ZBSJ 122100Z 32002MPS 290V350 CAVOK 04/M00 Q1028 NOSIG
ZBSJ,2015-04-12 22:00,ZBSJ 122200Z 34002MPS CAVOK 04/00 Q1029 NOSIG
ZBSJ,2015-04-12 23:00,ZBSJ 122300Z 33001MPS CAVOK 05/M01 Q1029 NOSIG
ZBSJ,2015-04-13 00:00,ZBSJ 130000Z 28002MPS CAVOK 06/M01 Q1030 NOSIG
ZBSJ,2015-04-13 01:00,ZBSJ 130100Z 27002MPS 230V300 CAVOK 07/M01 Q1029 NOSIG
ZBSJ,2015-04-13 02:00,ZBSJ 130200Z 30002MPS 270V360 CAVOK 09/M01 Q1029 NOSIG
ZBSJ,2015-04-13 03:00,ZBSJ 130300Z 26003MPS 190V320 CAVOK 11/M01 Q1029 NOSIG
ZBSJ,2015-04-13 04:00,ZBSJ 130400Z 34002MPS 290V070 CAVOK 13/00 Q1028 NOSIG
ZBSJ,2015-04-13 05:00,ZBSJ 130500Z 02001MPS CAVOK 15/01 Q1027 NOSIG
ZBSJ,2015-04-13 06:00,ZBSJ 130600Z VRB03MPS CAVOK 15/01 Q1025 NOSIG
ZBSJ,2015-04-13 07:00,ZBSJ 130700Z 35002MPS CAVOK 16/02 Q1024 NOSIG
ZBSJ,2015-04-13 08:00,ZBSJ 130800Z 33002MPS CAVOK 16/01 Q1023 NOSIG
ZBSJ,2015-04-13 09:00,ZBSJ 130900Z 18004MPS CAVOK 16/02 Q1022 NOSIG
ZBSJ,2015-04-13 10:00,ZBSJ 131000Z 17003MPS CAVOK 15/04 Q1021 NOSIG
ZBSJ,2015-04-13 11:00,ZBSJ 131100Z 16004MPS CAVOK 10/03 Q1020 NOSIG
ZBSJ,2015-04-13 12:00,ZBSJ 131200Z 18003MPS CAVOK 11/03 Q1020 NOSIG
ZBSJ,2015-04-13 13:00,ZBSJ 131300Z 20003MPS CAVOK 11/03 Q1019 NOSIG
ZBSJ,2015-04-13 14:00,ZBSJ 131400Z 19002MPS 8000 NSC 09/02 Q1018 NOSIG
ZBSJ,2015-04-13 15:00,ZBSJ 131500Z 19003MPS 8000 NSC 09/02 Q1018 NOSIG
ZBSJ,2015-04-13 16:00,ZBSJ 131600Z 23003MPS 7000 NSC 09/02 Q1017 NOSIG
ZBSJ,2015-04-13 17:00,ZBSJ 131700Z 22001MPS 6000 NSC 05/03 Q1016 NOSIG
ZBSJ,2015-04-13 18:00,ZBSJ 131800Z 00000MPS 6000 NSC 06/03 Q1015 NOSIG
ZBSJ,2015-04-13 19:00,ZBSJ 131900Z 24001MPS 6000 NSC 06/02 Q1014 NOSIG
ZBSJ,2015-04-13 20:00,ZBSJ 132000Z 29002MPS 6000 NSC 06/02 Q1013 NOSIG
ZBSJ,2015-04-13 21:00,ZBSJ 132100Z 30002MPS 270V350 6000 NSC 06/01 Q1012 NOSIG
ZBSJ,2015-04-13 22:00,ZBSJ 132200Z 26001MPS 6000 NSC 05/01 Q1012 NOSIG
ZBSJ,2015-04-13 23:00,ZBSJ 132300Z 32001MPS 6000 NSC 07/04 Q1012 NOSIG
ZBSJ,2015-04-14 00:00,ZBSJ 140000Z 29002MPS 7000 NSC 12/03 Q1012 NOSIG
ZBSJ,2015-04-14 01:00,ZBSJ 140100Z 28004MPS 250V320 CAVOK 17/03 Q1012 NOSIG
ZBSJ,2015-04-14 02:00,ZBSJ 140200Z 28004MPS 240V310 CAVOK 21/01 Q1011 NOSIG
ZBSJ,2015-04-14 03:00,ZBSJ 140300Z 28003MPS 240V320 CAVOK 23/M02 Q1011 NOSIG
ZBSJ,2015-04-14 04:00,ZBSJ 140400Z 28002MPS CAVOK 24/M02 Q1009 NOSIG
ZBSJ,2015-04-14 05:00,ZBSJ 140500Z 11002MPS CAVOK 25/02 Q1008 NOSIG
ZBSJ,2015-04-14 06:00,ZBSJ 140600Z 17003MPS 120V210 CAVOK 25/01 Q1007 NOSIG
ZBSJ,2015-04-14 07:00,ZBSJ 140700Z 16004MPS 130V200 CAVOK 26/01 Q1006 NOSIG
ZBSJ,2015-04-14 08:00,ZBSJ 140800Z 15004MPS CAVOK 26/04 Q1005 NOSIG
ZBSJ,2015-04-14 09:00,ZBSJ 140900Z 17005MPS CAVOK 23/05 Q1005 NOSIG
ZBSJ,2015-04-14 10:00,ZBSJ 141000Z 17004MPS CAVOK 21/08 Q1005 NOSIG
ZBSJ,2015-04-14 11:00,ZBSJ 141100Z 18003MPS CAVOK 18/05 Q1004 NOSIG
ZBSJ,2015-04-14 12:00,ZBSJ 141200Z 18004MPS CAVOK 16/05 Q1004 NOSIG
ZBSJ,2015-04-14 13:00,ZBSJ 141300Z 19003MPS CAVOK 16/04 Q1005 NOSIG
ZBSJ,2015-04-14 14:00,ZBSJ 141400Z 20005MPS CAVOK 17/05 Q1004 NOSIG
ZBSJ,2015-04-14 15:00,ZBSJ 141500Z 29002MPS 8000 NSC 15/05 Q1004 NOSIG
ZBSJ,2015-04-14 16:00,ZBSJ 141600Z 16002MPS 8000 NSC 12/06 Q1003 NOSIG
ZBSJ,2015-04-14 17:00,ZBSJ 141700Z 13002MPS 6000 NSC 10/05 Q1003 NOSIG
ZBSJ,2015-04-14 18:00,ZBSJ 141800Z 22002MPS 6000 NSC 13/06 Q1002 NOSIG
ZBSJ,2015-04-14 19:00,ZBSJ 141900Z 21001MPS 6000 NSC 10/06 Q1001 NOSIG
ZBSJ,2015-04-14 20:00,ZBSJ 142000Z 18002MPS 6000 NSC 09/06 Q1000 NOSIG
ZBSJ,2015-04-14 21:00,ZBSJ 142100Z 00000MPS 6000 NSC 08/06 Q1000 NOSIG
ZBSJ,2015-04-14 22:00,ZBSJ 142200Z 17001MPS 5000 BR NSC 07/05 Q1000 NOSIG
ZBSJ,2015-04-14 23:00,ZBSJ 142300Z 19001MPS 4000 BR NSC 12/09 Q1001 NOSIG
ZBSJ,2015-04-15 00:00,ZBSJ 150000Z 20001MPS 5000 BR NSC 16/09 Q1001 NOSIG
ZBSJ,2015-04-15 01:00,ZBSJ 150100Z 20002MPS 4000 HZ NSC 19/11 Q1000 NOSIG
ZBSJ,2015-04-15 02:00,ZBSJ 150200Z 20002MPS 4000 HZ NSC 24/13 Q1000 NOSIG
ZBSJ,2015-04-15 03:00,ZBSJ 150300Z 22003MPS CAVOK 28/05 Q0999 NOSIG
ZBSJ,2015-04-15 04:00,ZBSJ 150400Z 22005MPS CAVOK 30/03 Q0998 NOSIG
ZBSJ,2015-04-15 05:00,ZBSJ 150500Z 17005MPS CAVOK 31/13 Q0997 NOSIG
ZBSJ,2015-04-15 06:00,ZBSJ 150600Z 17006MPS CAVOK 31/15 Q0996 NOSIG
ZBSJ,2015-04-15 07:00,ZBSJ 150700Z 18006MPS CAVOK 29/13 Q0995 NOSIG
ZBSJ,2015-04-15 08:00,ZBSJ 150800Z 18006MPS CAVOK 30/11 Q0994 NOSIG
ZBSJ,2015-04-15 09:00,ZBSJ 150900Z 18008MPS CAVOK 28/14 Q0994 NOSIG
ZBSJ,2015-04-15 10:00,ZBSJ 151000Z 18006MPS CAVOK 26/14 Q0994 NOSIG
ZBSJ,2015-04-15 11:00,ZBSJ 151100Z 20005MPS CAVOK 25/14 Q0995 NOSIG
ZBSJ,2015-04-15 12:00,ZBSJ 151200Z 35013G19MPS 4000 BLSA NSC 26/03 Q0998 NOSIG
ZBSJ,2015-04-15 13:00,ZBSJ 151300Z 34013G19MPS 7000 NSC 22/01 Q1001 NOSIG
ZBSJ,2015-04-15 14:00,ZBSJ 151400Z 34015G22MPS 7000 NSC 21/M04 Q1004 NOSIG
ZBSJ,2015-04-15 15:00,ZBSJ 151500Z 34012G17MPS CAVOK 20/M05 Q1006 NOSIG
ZBSJ,2015-04-15 16:00,ZBSJ 151600Z 34008MPS CAVOK 18/M04 Q1008 NOSIG
ZBSJ,2015-04-15 17:00,ZBSJ 151700Z 35010G15MPS CAVOK 17/M08 Q1010 NOSIG
ZBSJ,2015-04-15 18:00,ZBSJ 151800Z 36008MPS CAVOK 16/M10 Q1011 NOSIG
ZBSJ,2015-04-15 19:00,ZBSJ 151900Z 35009G17MPS CAVOK 15/M11 Q1013 NOSIG
ZBSJ,2015-04-15 20:00,ZBSJ 152000Z 35011G17MPS CAVOK 14/M13 Q1014 NOSIG
ZBSJ,2015-04-15 21:00,ZBSJ 152100Z 34008MPS CAVOK 13/M12 Q1015 NOSIG
ZBSJ,2015-04-15 22:00,ZBSJ 152200Z 34007MPS CAVOK 12/M12 Q1016 NOSIG
ZBSJ,2015-04-15 23:00,ZBSJ 152300Z 33003MPS CAVOK 13/M08 Q1017 NOSIG
ZBSJ,2015-04-16 00:00,ZBSJ 160000Z 36005MPS CAVOK 15/M09 Q1016 NOSIG
ZBSJ,2015-04-16 01:00,ZBSJ 160100Z 35006MPS CAVOK 16/M09 Q1016 NOSIG
ZBSJ,2015-04-16 02:00,ZBSJ 160200Z 33004MPS 270V360 CAVOK 18/M11 Q1017 NOSIG
ZBSJ,2015-04-16 03:00,ZBSJ 160300Z 24003MPS 200V320 CAVOK 18/M12 Q1017 NOSIG
ZBSJ,2015-04-16 04:00,ZBSJ 160400Z 25004MPS 220V310 CAVOK 19/M11 Q1016 NOSIG
ZBSJ,2015-04-16 05:00,ZBSJ 160500Z 31003MPS 220V360 CAVOK 21/M11 Q1014 NOSIG
ZBSJ,2015-04-16 06:00,ZBSJ 160600Z 18003MPS CAVOK 20/M10 Q1013 NOSIG
ZBSJ,2015-04-16 07:00,ZBSJ 160700Z 18005MPS CAVOK 20/M06 Q1012 NOSIG
ZBSJ,2015-04-16 08:00,ZBSJ 160800Z 17006MPS CAVOK 20/M02 Q1012 NOSIG
ZBSJ,2015-04-16 09:00,ZBSJ 160900Z 17005MPS CAVOK 19/01 Q1011 NOSIG
ZBSJ,2015-04-16 10:00,ZBSJ 161000Z 16005MPS CAVOK 16/00 Q1011 NOSIG
ZBSJ,2015-04-16 11:00,ZBSJ 161100Z 18005MPS CAVOK 16/00 Q1011 NOSIG
ZBSJ,2015-04-16 12:00,ZBSJ 161200Z 18007MPS CAVOK 16/M03 Q1011 NOSIG
ZBSJ,2015-04-16 13:00,ZBSJ 161300Z 18006MPS CAVOK 15/M01 Q1011 NOSIG
ZBSJ,2015-04-16 14:00,ZBSJ 161400Z 19005MPS CAVOK 14/M01 Q1012 NOSIG
ZBSJ,2015-04-16 15:00,ZBSJ 161500Z 18004MPS CAVOK 11/M00 Q1012 NOSIG
ZBSJ,2015-04-16 16:00,ZBSJ 161600Z 17003MPS CAVOK 08/01 Q1012 NOSIG
ZBSJ,2015-04-16 17:00,ZBSJ 161700Z 26001MPS CAVOK 09/01 Q1011 NOSIG
ZBSJ,2015-04-16 18:00,ZBSJ 161800Z 03001MPS CAVOK 06/01 Q1011 NOSIG
ZBSJ,2015-04-16 19:00,ZBSJ 161900Z 17001MPS CAVOK 07/01 Q1011 NOSIG
ZBSJ,2015-04-16 20:00,ZBSJ 162000Z 32002MPS CAVOK 06/01 Q1010 NOSIG
ZBSJ,2015-04-16 21:00,ZBSJ 162100Z 30002MPS CAVOK 06/00 Q1010 NOSIG
ZBSJ,2015-04-16 22:00,ZBSJ 162200Z 29001MPS 8000 NSC 07/00 Q1010 NOSIG
ZBSJ,2015-04-16 23:00,ZBSJ 162300Z 19001MPS 8000 NSC 08/03 Q1010 NOSIG
ZBSJ,2015-04-17 00:00,ZBSJ 170000Z 21001MPS 8000 NSC 13/01 Q1010 NOSIG
ZBSJ,2015-04-17 01:00,ZBSJ 170100Z 22002MPS 180V250 8000 NSC 15/03 Q1011 NOSIG
ZBSJ,2015-04-17 02:00,ZBSJ 170200Z 18003MPS 150V210 CAVOK 18/03 Q1011 NOSIG
ZBSJ,2015-04-17 03:00,ZBSJ 170300Z 16003MPS 120V200 CAVOK 20/05 Q1010 NOSIG
ZBSJ,2015-04-17 04:00,ZBSJ 170400Z 17004MPS 140V200 CAVOK 22/04 Q1010 NOSIG
ZBSJ,2015-04-17 05:00,ZBSJ 170500Z 18003MPS 140V220 CAVOK 24/03 Q1009 NOSIG
ZBSJ,2015-04-17 06:00,ZBSJ 170600Z 16004MPS CAVOK 24/05 Q1008 NOSIG
ZBSJ,2015-04-17 07:00,ZBSJ 170700Z 16006MPS CAVOK 25/08 Q1007 NOSIG
ZBSJ,2015-04-17 08:00,ZBSJ 170800Z 16005MPS CAVOK 24/08 Q1007 NOSIG
ZBSJ,2015-04-17 09:00,ZBSJ 170900Z 16005MPS CAVOK 23/09 Q1006 NOSIG
ZBSJ,2015-04-17 10:00,ZBSJ 171000Z 16003MPS CAVOK 20/10 Q1007 NOSIG
ZBSJ,2015-04-17 11:00,ZBSJ 171100Z 16003MPS CAVOK 16/09 Q1007 NOSIG
ZBSJ,2015-04-17 12:00,ZBSJ 171200Z 16001MPS CAVOK 16/08 Q1008 NOSIG
ZBSJ,2015-04-17 13:00,ZBSJ 171300Z 15002MPS CAVOK 16/09 Q1009 NOSIG
ZBSJ,2015-04-17 14:00,ZBSJ 171400Z 14002MPS CAVOK 16/10 Q1010 NOSIG
ZBSJ,2015-04-17 15:00,ZBSJ 171500Z 09001MPS CAVOK 13/11 Q1010 NOSIG
ZBSJ,2015-04-17 16:00,ZBSJ 171600Z 13003MPS CAVOK 15/11 Q1010 NOSIG
ZBSJ,2015-04-17 17:00,ZBSJ 171700Z 10001MPS CAVOK 12/10 Q1009 NOSIG
ZBSJ,2015-04-17 18:00,ZBSJ 171800Z 13002MPS CAVOK 14/10 Q1009 NOSIG
ZBSJ,2015-04-17 19:00,ZBSJ 171900Z 15001MPS 7000 NSC 11/09 Q1009 NOSIG
ZBSJ,2015-04-17 20:00,ZBSJ 172000Z 08001MPS 7000 NSC 10/09 Q1009 NOSIG
ZBSJ,2015-04-17 21:00,ZBSJ 172100Z 02001MPS 6000 NSC 10/09 Q1009 NOSIG
ZBSJ,2015-04-17 22:00,ZBSJ 172200Z 07001MPS 2700 BR NSC 11/10 Q1009 NOSIG
ZBSJ,2015-04-17 23:00,ZBSJ 172300Z 13001MPS 2000 BR NSC 13/11 Q1010 BECMG 3500
ZBSJ,2015-04-18 00:00,ZBSJ 180000Z 03001MPS 2000 BR NSC 14/11 Q1010 BECMG 3500
ZBSJ,2015-04-18 01:00,ZBSJ 180100Z 36001MPS 2500 -RA BR OVC046 15/12 Q1011 BECMG 3500
ZBSJ,2015-04-18 02:00,ZBSJ 180200Z 03001MPS 2500 BR OVC046 15/11 Q1011 BECMG 3500
ZBSJ,2015-04-18 03:00,ZBSJ 180300Z 34002MPS 2500 BR OVC046 16/11 Q1011 NOSIG
ZBSJ,2015-04-18 04:00,ZBSJ 180400Z 34003MPS 2000 HZ NSC 17/11 Q1010 NOSIG
ZBSJ,2015-04-18 05:00,ZBSJ 180500Z 02002MPS 3000 HZ OVC046 16/11 Q1010 NOSIG
ZBSJ,2015-04-18 06:00,ZBSJ 180600Z 35001MPS 4000 -RA BR OVC046 16/12 Q1010 NOSIG
ZBSJ,2015-04-18 07:00,ZBSJ 180700Z 34003MPS 3000 -RA BR OVC046 15/13 Q1010 BECMG 2500 -RA BR
ZBSJ,2015-04-18 08:00,ZBSJ 180800Z 22002MPS 2500 -RA BR OVC040 16/14 Q1010 NOSIG
ZBSJ,2015-04-18 09:00,ZBSJ 180900Z 21001MPS 1700 -RA BR OVC040 15/14 Q1010 BECMG 1400 -RA BR
ZBSJ,2015-04-18 10:00,ZBSJ 181000Z 26002MPS 1700 -RA BR OVC040 15/14 Q1011 BECMG 1400 -RA BR
ZBSJ,2015-04-18 11:00,ZBSJ 181100Z 28004MPS 1600 -RA BR OVC040 14/14 Q1012 NOSIG
ZBSJ,2015-04-18 12:00,ZBSJ 181200Z 29004MPS 2200 -RA BR OVC040 14/14 Q1012 NOSIG
ZBSJ,2015-04-18 13:00,ZBSJ 181300Z 31003MPS 2200 -RA BR OVC040 14/14 Q1013 NOSIG
ZBSJ,2015-04-18 14:00,ZBSJ 181400Z 30004MPS 2500 -RA BR OVC040 14/14 Q1013 NOSIG
ZBSJ,2015-04-18 15:00,ZBSJ 181500Z 31002MPS 2200 -RA BR OVC040 14/14 Q1014 BECMG 1400 -RA BR
ZBSJ,2015-04-18 16:00,ZBSJ 181600Z 32003MPS 2000 -RA BR OVC040 13/13 Q1013 BECMG 1400 -RA BR
ZBSJ,2015-04-18 17:00,ZBSJ 181700Z 31006MPS 2000 BR OVC040 14/14 Q1014 NOSIG
ZBSJ,2015-04-18 18:00,ZBSJ 181800Z 33004MPS 3000 -RA BR OVC040 13/13 Q1013 NOSIG
ZBSJ,2015-04-18 19:00,ZBSJ 181900Z 31003MPS 4000 -RA BR OVC040 13/13 Q1013 NOSIG
ZBSJ,2015-04-18 20:00,ZBSJ 182000Z 31003MPS 3000 -RA BR OVC040 13/13 Q1012 NOSIG
ZBSJ,2015-04-18 21:00,ZBSJ 182100Z 28003MPS 3000 -RA BR OVC040 13/13 Q1013 NOSIG
ZBSJ,2015-04-18 22:00,ZBSJ 182200Z 29002MPS 1800 -RA BR OVC040 13/13 Q1013 NOSIG
ZBSJ,2015-04-18 23:00,ZBSJ 182300Z 30002MPS 2200 -RA BR OVC040 14/13 Q1013 BECMG TL2340 1400 -RA BR
ZBSJ,2015-04-19 00:00,ZBSJ 190000Z 31003MPS 2300 BR SCT033 OVC046 14/13 Q1014 NOSIG
ZBSJ,2015-04-19 01:00,ZBSJ 190100Z 31003MPS 2000 BR OVC040 15/14 Q1014 NOSIG
ZBSJ,2015-04-19 02:00,ZBSJ 190200Z 33003MPS 3000 BR OVC046 15/14 Q1015 NOSIG
ZBSJ,2015-04-19 03:00,ZBSJ 190300Z 05002MPS 020V100 8000 FEW040 17/13 Q1016 NOSIG
ZBSJ,2015-04-19 04:00,ZBSJ 190400Z 07004MPS 9999 SCT033 17/12 Q1016 NOSIG
ZBSJ,2015-04-19 05:00,ZBSJ 190500Z 06006MPS 9999 BKN040 16/07 Q1016 NOSIG
ZBSJ,2015-04-19 06:00,ZBSJ 190600Z 11005MPS 8000 NSC 16/11 Q1016 NOSIG
ZBSJ,2015-04-19 07:00,ZBSJ 190700Z 12005MPS 6000 NSC 16/10 Q1015 NOSIG
ZBSJ,2015-04-19 08:00,ZBSJ 190800Z 16005MPS 8000 NSC 16/11 Q1015 NOSIG
ZBSJ,2015-04-19 09:00,ZBSJ 190900Z 17004MPS 8000 NSC 16/11 Q1016 NOSIG
ZBSJ,2015-04-19 10:00,ZBSJ 191000Z 18004MPS 6000 NSC 14/11 Q1016 NOSIG
ZBSJ,2015-04-19 11:00,ZBSJ 191100Z 16003MPS 5000 BR NSC 11/10 Q1016 NOSIG
ZBSJ,2015-04-19 12:00,ZBSJ 191200Z 18003MPS 7000 NSC 10/10 Q1017 NOSIG
ZBSJ,2015-04-19 13:00,ZBSJ 191300Z 18002MPS 8000 NSC 09/09 Q1017 NOSIG
ZBSJ,2015-04-19 14:00,ZBSJ 191400Z 18003MPS 8000 NSC 09/08 Q1017 NOSIG
ZBSJ,2015-04-19 15:00,ZBSJ 191500Z 19003MPS 7000 NSC 09/08 Q1017 NOSIG
ZBSJ,2015-04-19 16:00,ZBSJ 191600Z 23002MPS 5000 BR NSC 08/08 Q1017 NOSIG
ZBSJ,2015-04-19 17:00,ZBSJ 191700Z 16001MPS 4000 BR NSC 06/06 Q1017 NOSIG
ZBSJ,2015-04-19 18:00,ZBSJ 191800Z 00000MPS 2000 R15/0800V1800U BR NSC 05/05 Q1016 NOSIG
ZBSJ,2015-04-19 19:00,ZBSJ 191900Z 29001MPS 2000 BR NSC 06/06 Q1016 NOSIG
ZBSJ,2015-04-19 20:00,ZBSJ 192000Z 12001MPS 2000 R15/0250VP2000U BR NSC 04/04 Q1016 NOSIG
ZBSJ,2015-04-19 21:00,ZBSJ 192100Z 17001MPS 0700 R15/0200N FG NSC 04/04 Q1016 NOSIG
ZBSJ,2015-04-19 22:00,ZBSJ 192200Z 15001MPS 0300 R15/0150V0325D FG NSC 04/04 Q1017 NOSIG
ZBSJ,2015-04-19 23:00,ZBSJ 192300Z 00000MPS 0600 R15/0350V0550N FG NSC 07/07 Q1017 NOSIG
ZBSJ,2015-04-20 00:00,ZBSJ 200000Z 27002MPS 1200 R15/0900N BR NSC 10/10 Q1018 BECMG 2000
ZBSJ,2015-04-20 01:00,ZBSJ 200100Z 20001MPS 2000 BR NSC 13/12 Q1018 BECMG 3000
ZBSJ,2015-04-20 02:00,ZBSJ 200200Z 26001MPS 3000 HZ NSC 15/10 Q1017 NOSIG
ZBSJ,2015-04-20 03:00,ZBSJ 200300Z 21002MPS 3500 HZ NSC 16/10 Q1017 NOSIG
ZBSJ,2015-04-20 04:00,ZBSJ 200400Z 17003MPS 100V210 4000 HZ NSC 18/11 Q1016 NOSIG
ZBSJ,2015-04-20 05:00,ZBSJ 200500Z 16004MPS 120V200 5000 HZ NSC 20/11 Q1015 NOSIG
ZBSJ,2015-04-20 06:00,ZBSJ 200600Z 16005MPS 7000 NSC 20/11 Q1014 NOSIG
ZBSJ,2015-04-20 07:00,ZBSJ 200700Z 17006MPS CAVOK 21/09 Q1013 NOSIG
ZBSJ,2015-04-20 08:00,ZBSJ 200800Z 18006MPS CAVOK 21/08 Q1012 NOSIG
ZBSJ,2015-04-20 09:00,ZBSJ 200900Z 17006MPS CAVOK 20/08 Q1012 NOSIG
ZBSJ,2015-04-20 10:00,ZBSJ 201000Z 17005MPS CAVOK 18/08 Q1012 NOSIG
ZBSJ,2015-04-20 11:00,ZBSJ 201100Z 18004MPS CAVOK 16/06 Q1013 NOSIG
ZBSJ,2015-04-20 12:00,ZBSJ 201200Z 16004MPS CAVOK 13/05 Q1013 NOSIG
ZBSJ,2015-04-20 13:00,ZBSJ 201300Z 16003MPS CAVOK 11/06 Q1014 NOSIG
ZBSJ,2015-04-20 14:00,ZBSJ 201400Z 16003MPS CAVOK 11/06 Q1014 NOSIG
ZBSJ,2015-04-20 15:00,ZBSJ 201500Z 16003MPS CAVOK 10/06 Q1014 NOSIG
ZBSJ,2015-04-20 16:00,ZBSJ 201600Z 20003MPS 8000 NSC 11/07 Q1014 NOSIG
ZBSJ,2015-04-20 17:00,ZBSJ 201700Z 00000MPS 6000 NSC 09/07 Q1014 NOSIG
ZBSJ,2015-04-20 18:00,ZBSJ 201800Z 26001MPS 6000 NSC 09/07 Q1013 NOSIG
ZBSJ,2015-04-20 19:00,ZBSJ 201900Z 23001MPS 7000 NSC 09/07 Q1013 NOSIG
ZBSJ,2015-04-20 20:00,ZBSJ 202000Z 00000MPS 7000 NSC 08/06 Q1012 NOSIG
ZBSJ,2015-04-20 21:00,ZBSJ 202100Z 20002MPS 6000 NSC 07/06 Q1012 NOSIG
ZBSJ,2015-04-20 22:00,ZBSJ 202200Z 24001MPS 2700 BR NSC 07/06 Q1012 NOSIG
ZBSJ,2015-04-20 23:00,ZBSJ 202300Z 18002MPS 2500 BR NSC 10/09 Q1013 BECMG 3000
ZBSJ,2015-04-21 00:00,ZBSJ 210000Z 21002MPS 2500 BR NSC 14/10 Q1013 BECMG 3000
ZBSJ,2015-04-21 01:00,ZBSJ 210100Z 26003MPS 6000 NSC 20/10 Q1012 NOSIG
ZBSJ,2015-04-21 02:00,ZBSJ 210200Z 24003MPS 210V270 CAVOK 24/08 Q1012 NOSIG
ZBSJ,2015-04-21 03:00,ZBSJ 210300Z 26006MPS CAVOK 27/04 Q1011 NOSIG
ZBSJ,2015-04-21 04:00,ZBSJ 210400Z 27006MPS CAVOK 29/01 Q1010 NOSIG
ZBSJ,2015-04-21 05:00,ZBSJ 210500Z 27006MPS 230V300 CAVOK 30/M02 Q1009 NOSIG
ZBSJ,2015-04-21 06:00,ZBSJ 210600Z 23004MPS 200V270 CAVOK 30/M02 Q1008 NOSIG
ZBSJ,2015-04-21 07:00,ZBSJ 210700Z 24005MPS 220V290 CAVOK 31/M01 Q1007 NOSIG
ZBSJ,2015-04-21 08:00,ZBSJ 210800Z 12002MPS 9999 BKN026 28/07 Q1007 BECMG 33006MPS
ZBSJ,2015-04-21 09:00,ZBSJ 210900Z 16006MPS 9999 BKN026 25/10 Q1007 NOSIG
ZBSJ,2015-04-21 10:00,ZBSJ 211000Z 12003MPS 090V160 9999 SCT026 23/11 Q1008 NOSIG
ZBSJ,2015-04-21 11:00,ZBSJ 211100Z 11002MPS 050V170 9999 FEW030 20/11 Q1009 NOSIG
ZBSJ,2015-04-21 12:00,ZBSJ 211200Z 05004MPS 9999 FEW040 21/04 Q1011 NOSIG
ZBSJ,2015-04-21 13:00,ZBSJ 211300Z 07003MPS CAVOK 18/M00 Q1013 NOSIG
ZBSJ,2015-04-21 14:00,ZBSJ 211400Z 05002MPS CAVOK 18/M03 Q1014 NOSIG
ZBSJ,2015-04-21 15:00,ZBSJ 211500Z 13003MPS 090V160 CAVOK 18/M03 Q1015 NOSIG
ZBSJ,2015-04-21 16:00,ZBSJ 211600Z 10001MPS CAVOK 16/M03 Q1017 NOSIG
ZBSJ,2015-04-21 17:00,ZBSJ 211700Z 19003MPS 140V230 CAVOK 14/M02 Q1017 NOSIG
ZBSJ,2015-04-21 18:00,ZBSJ 211800Z 05001MPS CAVOK 13/M02 Q1018 NOSIG
ZBSJ,2015-04-21 19:00,ZBSJ 211900Z 26002MPS CAVOK 10/M00 Q1018 NOSIG
ZBSJ,2015-04-21 20:00,ZBSJ 212000Z 23001MPS CAVOK 09/00 Q1019 NOSIG
ZBSJ,2015-04-21 21:00,ZBSJ 212100Z 33001MPS CAVOK 08/00 Q1019 NOSIG
ZBSJ,2015-04-21 22:00,ZBSJ 212200Z 34001MPS CAVOK 09/01 Q1020 NOSIG
ZBSJ,2015-04-21 23:00,ZBSJ 212300Z 35001MPS CAVOK 12/06 Q1021 NOSIG
ZBSJ,2015-04-22 00:00,ZBSJ 220000Z 25001MPS 7000 NSC 18/00 Q1021 NOSIG
ZBSJ,2015-04-22 01:00,ZBSJ 220100Z 28002MPS CAVOK 20/M01 Q1021 NOSIG
ZBSJ,2015-04-22 02:00,ZBSJ 220200Z 18002MPS 140V230 CAVOK 22/04 Q1021 NOSIG
ZBSJ,2015-04-22 03:00,ZBSJ 220300Z 17004MPS CAVOK 24/04 Q1020 NOSIG
ZBSJ,2015-04-22 04:00,ZBSJ 220400Z 18006MPS CAVOK 25/03 Q1019 NOSIG
ZBSJ,2015-04-22 05:00,ZBSJ 220500Z 18006MPS CAVOK 25/05 Q1018 NOSIG
ZBSJ,2015-04-22 06:00,ZBSJ 220600Z 17007MPS CAVOK 25/06 Q1017 NOSIG
ZBSJ,2015-04-22 07:00,ZBSJ 220700Z 17007MPS CAVOK 25/07 Q1016 NOSIG
ZBSJ,2015-04-22 08:00,ZBSJ 220800Z 17007MPS CAVOK 24/07 Q1016 NOSIG
ZBSJ,2015-04-22 09:00,ZBSJ 220900Z 17007MPS CAVOK 23/08 Q1015 NOSIG
ZBSJ,2015-04-22 10:00,ZBSJ 221000Z 17006MPS CAVOK 21/08 Q1015 NOSIG
ZBSJ,2015-04-22 11:00,ZBSJ 221100Z 17005MPS CAVOK 20/07 Q1014 NOSIG
ZBSJ,2015-04-22 12:00,ZBSJ 221200Z 18004MPS CAVOK 20/07 Q1015 NOSIG
ZBSJ,2015-04-22 13:00,ZBSJ 221300Z 19002MPS CAVOK 19/08 Q1015 NOSIG
ZBSJ,2015-04-22 14:00,ZBSJ 221400Z 19005MPS CAVOK 20/08 Q1015 NOSIG
ZBSJ,2015-04-22 15:00,ZBSJ 221500Z 22003MPS CAVOK 18/08 Q1015 NOSIG
ZBSJ,2015-04-22 16:00,ZBSJ 221600Z 19001MPS CAVOK 16/09 Q1015 NOSIG
ZBSJ,2015-04-22 17:00,ZBSJ 221700Z 26003MPS 8000 NSC 17/08 Q1015 NOSIG
ZBSJ,2015-04-22 18:00,ZBSJ 221800Z 24001MPS CAVOK 14/08 Q1014 NOSIG
ZBSJ,2015-04-22 19:00,ZBSJ 221900Z 18001MPS CAVOK 11/08 Q1013 NOSIG
ZBSJ,2015-04-22 20:00,ZBSJ 222000Z 19001MPS CAVOK 10/08 Q1013 NOSIG
ZBSJ,2015-04-22 21:00,ZBSJ 222100Z 19001MPS CAVOK 09/08 Q1013 NOSIG
ZBSJ,2015-04-22 22:00,ZBSJ 222200Z 23003MPS 6000 NSC 12/09 Q1013 NOSIG
ZBSJ,2015-04-22 23:00,ZBSJ 222300Z 21001MPS 2200 BR NSC 14/11 Q1013 NOSIG
ZBSJ,2015-04-23 00:00,ZBSJ 230000Z 22001MPS 5000 HZ NSC 19/11 Q1014 NOSIG
ZBSJ,2015-04-23 01:00,ZBSJ 230100Z 26003MPS 220V320 CAVOK 25/10 Q1014 NOSIG
ZBSJ,2015-04-23 02:00,ZBSJ 230200Z 28004MPS 250V310 CAVOK 28/08 Q1014 NOSIG
ZBSJ,2015-04-23 03:00,ZBSJ 230300Z 28005MPS CAVOK 31/07 Q1014 NOSIG
ZBSJ,2015-04-23 04:00,ZBSJ 230400Z 27003MPS 210V320 CAVOK 32/03 Q1013 NOSIG
ZBSJ,2015-04-23 05:00,ZBSJ 230500Z 20001MPS CAVOK 32/04 Q1013 NOSIG
ZBSJ,2015-04-23 06:00,ZBSJ 230600Z 12003MPS CAVOK 32/07 Q1012 NOSIG
ZBSJ,2015-04-23 07:00,ZBSJ 230700Z 14004MPS 9999 SCT040 31/14 Q1012 NOSIG
ZBSJ,2015-04-23 08:00,ZBSJ 230800Z 21005MPS 9999 SCT033 31/13 Q1011 NOSIG
ZBSJ,2015-04-23 09:00,ZBSJ 230900Z 16004MPS 9999 FEW033 30/14 Q1012 NOSIG
ZBSJ,2015-04-23 10:00,ZBSJ 231000Z 19004MPS CAVOK 28/12 Q1013 NOSIG
ZBSJ,2015-04-23 11:00,ZBSJ 231100Z 16002MPS CAVOK 24/14 Q1013 NOSIG
ZBSJ,2015-04-23 12:00,ZBSJ 231200Z 07003MPS CAVOK 21/14 Q1015 NOSIG
ZBSJ,2015-04-23 13:00,ZBSJ 231300Z 10003MPS CAVOK 22/13 Q1016 NOSIG
ZBSJ,2015-04-23 14:00,ZBSJ 231400Z 08004MPS CAVOK 21/06 Q1018 NOSIG
ZBSJ,2015-04-23 15:00,ZBSJ 231500Z 06006MPS CAVOK 22/02 Q1018 NOSIG
ZBSJ,2015-04-23 16:00,ZBSJ 231600Z 34005MPS CAVOK 20/01 Q1020 NOSIG
ZBSJ,2015-04-23 17:00,ZBSJ 231700Z 05005MPS CAVOK 19/M01 Q1020 NOSIG
ZBSJ,2015-04-23 18:00,ZBSJ 231800Z 05003MPS CAVOK 16/04 Q1021 NOSIG
ZBSJ,2015-04-23 19:00,ZBSJ 231900Z 04004MPS 6000 NSC 14/08 Q1021 NOSIG
ZBSJ,2015-04-23 20:00,ZBSJ 232000Z 04003MPS 7000 NSC 13/07 Q1022 NOSIG
ZBSJ,2015-04-23 21:00,ZBSJ 232100Z 36003MPS CAVOK 12/05 Q1023 NOSIG
ZBSJ,2015-04-23 22:00,ZBSJ 232200Z 35003MPS CAVOK 10/06 Q1023 NOSIG
ZBSJ,2015-04-23 23:00,ZBSJ 232300Z 35003MPS CAVOK 15/06 Q1024 NOSIG
ZBSJ,2015-04-24 00:00,ZBSJ 240000Z 36003MPS 320V020 CAVOK 18/05 Q1025 NOSIG
ZBSJ,2015-04-24 01:00,ZBSJ 240100Z 34003MPS CAVOK 19/04 Q1025 NOSIG
ZBSJ,2015-04-24 02:00,ZBSJ 240200Z 35002MPS CAVOK 21/03 Q1024 NOSIG
ZBSJ,2015-04-24 03:00,ZBSJ 240300Z 06001MPS CAVOK 22/04 Q1024 NOSIG
ZBSJ,2015-04-24 04:00,ZBSJ 240400Z 06001MPS CAVOK 22/06 Q1023 NOSIG
ZBSJ,2015-04-24 05:00,ZBSJ 240500Z 16002MPS 110V210 CAVOK 23/04 Q1022 NOSIG
ZBSJ,2015-04-24 06:00,ZBSJ 240600Z 13002MPS 080V180 CAVOK 24/04 Q1021 NOSIG
ZBSJ,2015-04-24 07:00,ZBSJ 240700Z 15003MPS 110V180 CAVOK 24/04 Q1020 NOSIG
ZBSJ,2015-04-24 08:00,ZBSJ 240800Z 15004MPS CAVOK 24/04 Q1019 NOSIG
ZBSJ,2015-04-24 09:00,ZBSJ 240900Z 15003MPS CAVOK 24/08 Q1018 NOSIG
ZBSJ,2015-04-24 10:00,ZBSJ 241000Z 18003MPS CAVOK 22/08 Q1018 NOSIG
ZBSJ,2015-04-24 11:00,ZBSJ 241100Z 16002MPS CAVOK 20/08 Q1018 NOSIG
ZBSJ,2015-04-24 12:00,ZBSJ 241200Z 18001MPS CAVOK 19/08 Q1018 NOSIG
ZBSJ,2015-04-24 13:00,ZBSJ 241300Z 11001MPS CAVOK 17/08 Q1019 NOSIG
ZBSJ,2015-04-24 14:00,ZBSJ 241400Z 07001MPS 8000 NSC 15/08 Q1019 NOSIG
ZBSJ,2015-04-24 15:00,ZBSJ 241500Z 15001MPS 8000 NSC 14/08 Q1019 NOSIG
ZBSJ,2015-04-24 16:00,ZBSJ 241600Z 33001MPS 8000 NSC 14/08 Q1019 NOSIG
ZBSJ,2015-04-24 17:00,ZBSJ 241700Z 00000MPS 6000 NSC 14/07 Q1018 NOSIG
ZBSJ,2015-04-24 18:00,ZBSJ 241800Z 26002MPS 6000 NSC 14/08 Q1018 NOSIG
ZBSJ,2015-04-24 19:00,ZBSJ 241900Z 29002MPS 6000 NSC 12/07 Q1018 NOSIG
ZBSJ,2015-04-24 20:00,ZBSJ 242000Z 22002MPS 6000 NSC 12/07 Q1017 NOSIG
ZBSJ,2015-04-24 21:00,ZBSJ 242100Z 25002MPS 5000 HZ NSC 12/07 Q1017 NOSIG
ZBSJ,2015-04-24 22:00,ZBSJ 242200Z 29001MPS 5000 HZ NSC 12/06 Q1017 NOSIG
ZBSJ,2015-04-24 23:00,ZBSJ 242300Z 31001MPS 6000 NSC 15/09 Q1018 NOSIG
ZBSJ,2015-04-25 00:00,ZBSJ 250000Z 27002MPS 6000 NSC 20/08 Q1018 NOSIG
ZBSJ,2015-04-25 01:00,ZBSJ 250100Z 26002MPS 230V290 6000 NSC 22/09 Q1017 NOSIG
ZBSJ,2015-04-25 02:00,ZBSJ 250200Z 23002MPS 6000 NSC 25/11 Q1017 NOSIG
ZBSJ,2015-04-25 03:00,ZBSJ 250300Z 19002MPS 8000 NSC 27/12 Q1017 NOSIG
ZBSJ,2015-04-25 04:00,ZBSJ 250400Z 17003MPS 8000 NSC 29/12 Q1016 NOSIG
ZBSJ,2015-04-25 05:00,ZBSJ 250500Z 15004MPS 110V170 8000 NSC 30/13 Q1015 NOSIG
ZBSJ,2015-04-25 06:00,ZBSJ 250600Z 15005MPS CAVOK 30/15 Q1014 NOSIG
ZBSJ,2015-04-25 07:00,ZBSJ 250700Z 17006MPS CAVOK 31/15 Q1013 NOSIG
ZBSJ,2015-04-25 08:00,ZBSJ 250800Z 17006MPS CAVOK 29/16 Q1012 NOSIG
ZBSJ,2015-04-25 09:00,ZBSJ 250900Z 18005MPS CAVOK 28/17 Q1012 NOSIG
ZBSJ,2015-04-25 10:00,ZBSJ 251000Z 18005MPS CAVOK 26/16 Q1012 NOSIG
ZBSJ,2015-04-25 11:00,ZBSJ 251100Z 19003MPS 8000 NSC 24/16 Q1012 NOSIG
ZBSJ,2015-04-25 12:00,ZBSJ 251200Z 16004MPS 8000 NSC 20/15 Q1012 NOSIG
ZBSJ,2015-04-25 13:00,ZBSJ 251300Z 17004MPS 7000 NSC 20/15 Q1012 NOSIG
ZBSJ,2015-04-25 14:00,ZBSJ 251400Z 17003MPS 7000 NSC 17/15 Q1013 NOSIG
ZBSJ,2015-04-25 15:00,ZBSJ 251500Z 15003MPS 5000 BR NSC 16/14 Q1013 NOSIG
ZBSJ,2015-04-25 16:00,ZBSJ 251600Z 18003MPS 5000 BR NSC 17/15 Q1013 NOSIG
ZBSJ,2015-04-25 17:00,ZBSJ 251700Z 20001MPS 5000 BR NSC 16/14 Q1012 NOSIG
ZBSJ,2015-04-25 18:00,ZBSJ 251800Z 21001MPS 4000 BR NSC 14/12 Q1012 NOSIG
ZBSJ,2015-04-25 19:00,ZBSJ 251900Z 27001MPS 3000 BR NSC 15/14 Q1012 NOSIG
ZBSJ,2015-04-25 20:00,ZBSJ 252000Z 25001MPS 3000 BR NSC 13/13 Q1011 NOSIG
ZBSJ,2015-04-25 21:00,ZBSJ 252100Z 18001MPS 3000 BR NSC 12/12 Q1011 NOSIG
ZBSJ,2015-04-25 22:00,ZBSJ 252200Z 00000MPS 2000 BR NSC 12/12 Q1012 NOSIG
ZBSJ,2015-04-25 23:00,ZBSJ 252300Z 17001MPS 1800 BR NSC 16/15 Q1012 NOSIG
ZBSJ,2015-04-26 00:00,ZBSJ 260000Z 16002MPS 2000 BR NSC 19/16 Q1012 NOSIG
ZBSJ,2015-04-26 01:00,ZBSJ 260100Z 17002MPS 3000 HZ NSC 22/14 Q1012 NOSIG
ZBSJ,2015-04-26 02:00,ZBSJ 260200Z 17003MPS 3500 HZ NSC 25/16 Q1012 NOSIG
ZBSJ,2015-04-26 03:00,ZBSJ 260300Z 15004MPS 6000 NSC 27/16 Q1012 NOSIG
ZBSJ,2015-04-26 04:00,ZBSJ 260400Z 17005MPS 7000 NSC 30/15 Q1011 NOSIG
ZBSJ,2015-04-26 05:00,ZBSJ 260500Z 17007MPS 8000 NSC 30/15 Q1010 NOSIG
ZBSJ,2015-04-26 06:00,ZBSJ 260600Z 16007MPS CAVOK 31/17 Q1009 NOSIG
ZBSJ,2015-04-26 07:00,ZBSJ 260700Z 17008MPS CAVOK 30/16 Q1008 NOSIG
ZBSJ,2015-04-26 08:00,ZBSJ 260800Z 17008MPS CAVOK 27/15 Q1007 NOSIG
ZBSJ,2015-04-26 09:00,ZBSJ 260900Z 18008MPS 9999 BKN046 26/14 Q1007 NOSIG
ZBSJ,2015-04-26 10:00,ZBSJ 261000Z 17007MPS 9999 -RA BKN046 25/13 Q1007 NOSIG
ZBSJ,2015-04-26 11:00,ZBSJ 261100Z 16006MPS 9999 BKN046 23/13 Q1007 NOSIG
ZBSJ,2015-04-26 12:00,ZBSJ 261200Z 11003MPS 9999 BKN046 22/15 Q1007 NOSIG
ZBSJ,2015-04-26 13:00,ZBSJ 261300Z 14003MPS 9999 BKN046 21/15 Q1008 NOSIG
ZBSJ,2015-04-26 14:00,ZBSJ 261400Z 15003MPS 7000 NSC 19/15 Q1008 NOSIG
ZBSJ,2015-04-26 15:00,ZBSJ 261500Z 16003MPS 6000 NSC 17/15 Q1007 NOSIG
ZBSJ,2015-04-26 16:00,ZBSJ 261600Z 17003MPS 6000 NSC 17/15 Q1007 NOSIG
ZBSJ,2015-04-26 17:00,ZBSJ 261700Z 18003MPS 6000 NSC 18/15 Q1007 NOSIG
ZBSJ,2015-04-26 18:00,ZBSJ 261800Z 22002MPS 6000 NSC 17/15 Q1007 NOSIG
ZBSJ,2015-04-26 19:00,ZBSJ 261900Z 06001MPS 5000 BR NSC 15/14 Q1006 NOSIG
ZBSJ,2015-04-26 20:00,ZBSJ 262000Z 00000MPS 5000 BR NSC 15/14 Q1006 NOSIG
ZBSJ,2015-04-26 21:00,ZBSJ 262100Z 20001MPS 4500 BR NSC 14/14 Q1006 NOSIG
ZBSJ,2015-04-26 22:00,ZBSJ 262200Z 19001MPS 2500 BR NSC 14/13 Q1006 NOSIG
ZBSJ,2015-04-26 23:00,ZBSJ 262300Z 24001MPS 2500 BR NSC 17/15 Q1006 BECMG 3500
ZBSJ,2015-04-27 00:00,ZBSJ 270000Z 24001MPS 2500 HZ NSC 20/15 Q1007 BECMG 3500
ZBSJ,2015-04-27 01:00,ZBSJ 270100Z 18001MPS 3000 HZ NSC 22/16 Q1006 NOSIG
ZBSJ,2015-04-27 02:00,ZBSJ 270200Z 22002MPS 7000 NSC 25/15 Q1006 NOSIG
ZBSJ,2015-04-27 03:00,ZBSJ 270300Z VRB02MPS 8000 NSC 27/13 Q1006 NOSIG
ZBSJ,2015-04-27 04:00,ZBSJ 270400Z 16004MPS 120V190 8000 NSC 29/14 Q1005 NOSIG
ZBSJ,2015-04-27 05:00,ZBSJ 270500Z 16005MPS 8000 NSC 30/15 Q1004 NOSIG
ZBSJ,2015-04-27 06:00,ZBSJ 270600Z 17006MPS CAVOK 29/16 Q1003 NOSIG
ZBSJ,2015-04-27 07:00,ZBSJ 270700Z 17007MPS CAVOK 29/16 Q1002 NOSIG
ZBSJ,2015-04-27 08:00,ZBSJ 270800Z 16008MPS 9999 FEW033 28/16 Q1001 NOSIG
ZBSJ,2015-04-27 09:00,ZBSJ 270900Z 17007MPS 9999 FEW033 27/15 Q1001 NOSIG
ZBSJ,2015-04-27 10:00,ZBSJ 271000Z 16006MPS 9999 FEW033 25/16 Q1001 NOSIG
ZBSJ,2015-04-27 11:00,ZBSJ 271100Z 17008MPS 9999 FEW033 24/14 Q1001 NOSIG
ZBSJ,2015-04-27 12:00,ZBSJ 271200Z 16006MPS 9999 FEW033 22/14 Q1002 NOSIG
ZBSJ,2015-04-27 13:00,ZBSJ 271300Z 15005MPS CAVOK 21/15 Q1002 NOSIG
ZBSJ,2015-04-27 14:00,ZBSJ 271400Z 07002MPS CAVOK 19/15 Q1004 NOSIG
ZBSJ,2015-04-27 15:00,ZBSJ 271500Z 07002MPS CAVOK 18/15 Q1004 NOSIG
ZBSJ,2015-04-27 16:00,ZBSJ 271600Z 07002MPS CAVOK 18/15 Q1005 NOSIG
ZBSJ,2015-04-27 17:00,ZBSJ 271700Z 10001MPS 7000 NSC 17/15 Q1005 NOSIG
ZBSJ,2015-04-27 18:00,ZBSJ 271800Z 21001MPS 7000 NSC 16/14 Q1004 NOSIG
ZBSJ,2015-04-27 19:00,ZBSJ 271900Z 28001MPS 4500 BR NSC 15/14 Q1004 NOSIG
ZBSJ,2015-04-27 20:00,ZBSJ 272000Z 00000MPS 3500 BR NSC 14/13 Q1004 NOSIG
ZBSJ,2015-04-27 21:00,ZBSJ 272100Z 32001MPS 3500 BR NSC 14/13 Q1004 NOSIG
ZBSJ,2015-04-27 22:00,ZBSJ 272200Z 07002MPS 2200 BR NSC 13/13 Q1005 NOSIG
ZBSJ,2015-04-27 23:00,ZBSJ 272300Z 04003MPS 2000 BR NSC 16/16 Q1007 BECMG 3500
ZBSJ,2015-04-28 00:00,ZBSJ 280000Z 04004MPS 3000 BR NSC 18/16 Q1008 NOSIG
ZBSJ,2015-04-28 01:00,ZBSJ 280100Z 05006MPS 5000 BR NSC 19/16 Q1009 NOSIG
ZBSJ,2015-04-28 02:00,ZBSJ 280200Z 05006MPS 6000 NSC 20/16 Q1010 NOSIG
ZBSJ,2015-04-28 03:00,ZBSJ 280300Z 05004MPS 6000 NSC 21/16 Q1011 NOSIG
ZBSJ,2015-04-28 04:00,ZBSJ 280400Z 07004MPS 5000 HZ NSC 22/17 Q1012 NOSIG
ZBSJ,2015-04-28 05:00,ZBSJ 280500Z 08004MPS 5000 HZ NSC 23/17 Q1012 NOSIG
ZBSJ,2015-04-28 06:00,ZBSJ 280600Z 10003MPS 060V140 6000 NSC 23/17 Q1011 NOSIG
ZBSJ,2015-04-28 07:00,ZBSJ 280700Z 12003MPS 060V180 6000 NSC 25/16 Q1011 NOSIG
ZBSJ,2015-04-28 08:00,ZBSJ 280800Z 10002MPS 070V150 5000 HZ NSC 24/16 Q1011 NOSIG
ZBSJ,2015-04-28 09:00,ZBSJ 280900Z 10002MPS 4000 HZ NSC 23/17 Q1011 NOSIG
ZBSJ,2015-04-28 10:00,ZBSJ 281000Z 15001MPS 2500 HZ NSC 23/17 Q1011 NOSIG
ZBSJ,2015-04-28 11:00,ZBSJ 281100Z 15001MPS 2500 BR NSC 21/17 Q1012 NOSIG
ZBSJ,2015-04-28 12:00,ZBSJ 281200Z 14001MPS 3500 BR NSC 19/16 Q1013 BECMG 2800 BR
ZBSJ,2015-04-28 13:00,ZBSJ 281300Z 11001MPS 3000 BR NSC 18/16 Q1013 BECMG 2500 BR
ZBSJ,2015-04-28 14:00,ZBSJ 281400Z 18001MPS 3000 BR NSC 18/16 Q1014 BECMG 2500 BR
ZBSJ,2015-04-28 15:00,ZBSJ 281500Z 20001MPS 2500 BR NSC 17/15 Q1014 NOSIG
ZBSJ,2015-04-28 16:00,ZBSJ 281600Z 16001MPS 2500 BR NSC 16/15 Q1014 NOSIG
ZBSJ,2015-04-28 17:00,ZBSJ 281700Z 08001MPS 2300 BR NSC 15/14 Q1014 NOSIG
ZBSJ,2015-04-28 18:00,ZBSJ 281800Z 04001MPS 2300 BR NSC 15/14 Q1014 NOSIG
ZBSJ,2015-04-28 19:00,ZBSJ 281900Z 05001MPS 1800 BR NSC 14/14 Q1014 NOSIG
ZBSJ,2015-04-28 20:00,ZBSJ 282000Z 00000MPS 1800 BR NSC 14/14 Q1014 NOSIG
ZBSJ,2015-04-28 21:00,ZBSJ 282100Z 06001MPS 1600 BR NSC 13/13 Q1014 NOSIG
ZBSJ,2015-04-28 22:00,ZBSJ 282200Z 15001MPS 1400 R15/1300D BR NSC 14/14 Q1014 NOSIG
ZBSJ,2015-04-28 23:00,ZBSJ 282300Z 06001MPS 1200 R15/1000N BR NSC 15/15 Q1015 NOSIG
ZBSJ,2015-04-29 00:00,ZBSJ 290000Z 36001MPS 1200 R15/1100N BR NSC 18/16 Q1015 BECMG 1600
ZBSJ,2015-04-29 01:00,ZBSJ 290100Z 31001MPS 1500 R15/1100N BR NSC 22/17 Q1015 BECMG 3500
ZBSJ,2015-04-29 02:00,ZBSJ 290200Z 12002MPS 1800 R15/1400U HZ NSC 23/17 Q1015 BECMG 3500
ZBSJ,2015-04-29 03:00,ZBSJ 290300Z 14002MPS 2300 HZ NSC 24/17 Q1015 BECMG 3500
ZBSJ,2015-04-29 04:00,ZBSJ 290400Z 17003MPS 110V220 2500 HZ NSC 25/16 Q1014 BECMG 3500
ZBSJ,2015-04-29 05:00,ZBSJ 290500Z 16005MPS 6000 NSC 27/15 Q1013 NOSIG
ZBSJ,2015-04-29 06:00,ZBSJ 290600Z 16005MPS 8000 NSC 27/16 Q1012 NOSIG
ZBSJ,2015-04-29 07:00,ZBSJ 290700Z 16006MPS CAVOK 28/16 Q1011 NOSIG
ZBSJ,2015-04-29 08:00,ZBSJ 290800Z 16006MPS CAVOK 28/16 Q1010 NOSIG
ZBSJ,2015-04-29 09:00,ZBSJ 290900Z 16005MPS CAVOK 26/16 Q1010 NOSIG
ZBSJ,2015-04-29 10:00,ZBSJ 291000Z 15004MPS CAVOK 25/16 Q1010 NOSIG
ZBSJ,2015-04-29 11:00,ZBSJ 291100Z 15002MPS 8000 NSC 22/16 Q1010 NOSIG
ZBSJ,2015-04-29 12:00,ZBSJ 291200Z 13002MPS 8000 NSC 22/15 Q1011 NOSIG
ZBSJ,2015-04-29 13:00,ZBSJ 291300Z 12002MPS 8000 NSC 20/15 Q1011 NOSIG
ZBSJ,2015-04-29 14:00,ZBSJ 291400Z 10002MPS 6000 NSC 19/15 Q1011 NOSIG
ZBSJ,2015-04-29 15:00,ZBSJ 291500Z 10002MPS 6000 NSC 17/15 Q1011 NOSIG
ZBSJ,2015-04-29 16:00,ZBSJ 291600Z 06001MPS 5000 BR NSC 17/15 Q1011 NOSIG
ZBSJ,2015-04-29 17:00,ZBSJ 291700Z 12002MPS 4000 BR NSC 16/14 Q1011 NOSIG
ZBSJ,2015-04-29 18:00,ZBSJ 291800Z 15001MPS 4000 BR NSC 15/15 Q1011 NOSIG
ZBSJ,2015-04-29 19:00,ZBSJ 291900Z 15002MPS 3000 BR NSC 15/14 Q1010 NOSIG
ZBSJ,2015-04-29 20:00,ZBSJ 292000Z 36001MPS 2500 BR NSC 14/14 Q1010 NOSIG
ZBSJ,2015-04-29 21:00,ZBSJ 292100Z 07001MPS 1800 BR NSC 14/14 Q1010 NOSIG
ZBSJ,2015-04-29 22:00,ZBSJ 292200Z 07001MPS 1600 R15/1100D BR NSC 13/13 Q1011 NOSIG
ZBSJ,2015-04-29 23:00,ZBSJ 292300Z 00000MPS 1400 R15/1200N BR NSC 16/16 Q1011 BECMG 2000
ZBSJ,2015-04-30 00:00,ZBSJ 300000Z 02001MPS 1400 R15/1200N BR NSC 19/16 Q1012 BECMG 2000
ZBSJ,2015-04-30 01:00,ZBSJ 300100Z 04001MPS 1500 R15/1300U BR NSC 21/17 Q1012 BECMG 3000
ZBSJ,2015-04-30 02:00,ZBSJ 300200Z 06001MPS 1500 HZ NSC 23/18 Q1012 BECMG 3000
ZBSJ,2015-04-30 03:00,ZBSJ 300300Z 10002MPS 040V150 1900 HZ NSC 25/18 Q1011 NOSIG
ZBSJ,2015-04-30 04:00,ZBSJ 300400Z 13003MPS 060V160 2000 HZ NSC 26/18 Q1011 NOSIG
ZBSJ,2015-04-30 05:00,ZBSJ 300500Z 15005MPS 2500 HZ NSC 28/18 Q1010 NOSIG
ZBSJ,2015-04-30 06:00,ZBSJ 300600Z 16005MPS 8000 NSC 29/17 Q1009 NOSIG
ZBSJ,2015-04-30 07:00,ZBSJ 300700Z 16006MPS CAVOK 30/16 Q1008 NOSIG
ZBSJ,2015-04-30 08:00,ZBSJ 300800Z 17006MPS CAVOK 30/16 Q1008 NOSIG
ZBSJ,2015-04-30 09:00,ZBSJ 300900Z 17004MPS CAVOK 29/15 Q1007 NOSIG
ZBSJ,2015-04-30 10:00,ZBSJ 301000Z 16004MPS CAVOK 27/14 Q1007 NOSIG
ZBSJ,2015-04-30 11:00,ZBSJ 301100Z 15002MPS 110V190 CAVOK 24/15 Q1008 NOSIG
ZBSJ,2015-04-30 12:00,ZBSJ 301200Z 13002MPS CAVOK 23/15 Q1009 NOSIG
ZBSJ,2015-04-30 13:00,ZBSJ 301300Z 14003MPS 7000 NSC 21/15 Q1009 NOSIG
ZBSJ,2015-04-30 14:00,ZBSJ 301400Z 14002MPS 6000 NSC 20/15 Q1009 NOSIG
ZBSJ,2015-04-30 15:00,ZBSJ 301500Z 15001MPS 5000 BR NSC 19/15 Q1009 NOSIG
ZBSJ,2015-04-30 16:00,ZBSJ 301600Z 13002MPS 5000 BR NSC 19/16 Q1009 NOSIG
ZBSJ,2015-04-30 17:00,ZBSJ 301700Z 14002MPS 4500 BR NSC 18/16 Q1009 NOSIG
ZBSJ,2015-04-30 18:00,ZBSJ 301800Z 15001MPS 4500 BR NSC 18/16 Q1008 NOSIG
ZBSJ,2015-04-30 19:00,ZBSJ 301900Z 15002MPS 4000 BR NSC 18/16 Q1008 NOSIG
ZBSJ,2015-04-30 20:00,ZBSJ 302000Z 15003MPS 3500 BR NSC 17/16 Q1007 NOSIG
ZBSJ,2015-04-30 21:00,ZBSJ 302100Z 17002MPS 3000 BR NSC 16/16 Q1008 NOSIG
ZBSJ,2015-04-30 22:00,ZBSJ 302200Z 15002MPS 2500 BR NSC 16/16 Q1007 NOSIG
ZBSJ,2015-04-30 23:00,ZBSJ 302300Z 17003MPS 2000 BR NSC 18/17 Q1008 NOSIG
ZBSJ,2015-05-01 00:00,ZBSJ 010000Z 18003MPS 2200 BR NSC 20/18 Q1008 NOSIG
ZBSJ,2015-05-01 01:00,ZBSJ 010100Z 18003MPS 2200 BR NSC 21/18 Q1008 NOSIG
ZBSJ,2015-05-01 02:00,ZBSJ 010200Z 16002MPS 120V210 2200 BR NSC 23/18 Q1007 NOSIG
ZBSJ,2015-05-01 03:00,ZBSJ 010300Z 24002MPS 2000 HZ NSC 23/18 Q1008 NOSIG
ZBSJ,2015-05-01 04:00,ZBSJ 010400Z 29002MPS 230V030 2000 HZ NSC 24/18 Q1007 BECMG 1400 BR
ZBSJ,2015-05-01 05:00,ZBSJ 010500Z 32004MPS 280V340 1800 HZ NSC 24/18 Q1007 BECMG 1400 BR
ZBSJ,2015-05-01 06:00,ZBSJ 010600Z 34005MPS CAVOK 23/15 Q1007 NOSIG
ZBSJ,2015-05-01 07:00,ZBSJ 010700Z 34003MPS 7000 NSC 22/17 Q1007 NOSIG
ZBSJ,2015-05-01 08:00,ZBSJ 010800Z 35004MPS 5000 HZ NSC 22/16 Q1007 NOSIG
ZBSJ,2015-05-01 09:00,ZBSJ 010900Z 33005MPS 9999 -RA BKN046 18/16 Q1007 NOSIG
ZBSJ,2015-05-01 10:00,ZBSJ 011000Z 32005MPS 9999 -RA FEW033 SCT046 18/16 Q1008 NOSIG
ZBSJ,2015-05-01 11:00,ZBSJ 011100Z 01003MPS 340V040 9999 -RA SCT026 17/15 Q1009 NOSIG
ZBSJ,2015-05-01 12:00,ZBSJ 011200Z 04004MPS 8000 -RA SCT013 OVC040 16/15 Q1011 NOSIG
ZBSJ,2015-05-01 13:00,ZBSJ 011300Z 06003MPS 7000 -RA SCT013 OVC033 15/15 Q1012 NOSIG
ZBSJ,2015-05-01 14:00,ZBSJ 011400Z 06004MPS 010V090 7000 -RA SCT013 OVC033 15/15 Q1012 NOSIG
ZBSJ,2015-05-01 15:00,ZBSJ 011500Z 04003MPS 9999 -RA SCT013 OVC033 14/14 Q1011 NOSIG
ZBSJ,2015-05-01 16:00,ZBSJ 011600Z 04002MPS 360V070 9999 -RA OVC030 14/14 Q1011 NOSIG
ZBSJ,2015-05-01 17:00,ZBSJ 011700Z 05002MPS 360V090 9999 -RA OVC030 14/14 Q1012 NOSIG
ZBSJ,2015-05-01 18:00,ZBSJ 011800Z 32002MPS 8000 -RA OVC030 14/14 Q1011 NOSIG
ZBSJ,2015-05-01 19:00,ZBSJ 011900Z 31002MPS 7000 NSC 14/14 Q1011 NOSIG
ZBSJ,2015-05-01 20:00,ZBSJ 012000Z 29004MPS 7000 NSC 14/14 Q1010 NOSIG
ZBSJ,2015-05-01 21:00,ZBSJ 012100Z 30002MPS 5000 BR NSC 14/14 Q1011 NOSIG
ZBSJ,2015-05-01 22:00,ZBSJ 012200Z 32003MPS 2700 BR NSC 14/14 Q1011 NOSIG
ZBSJ,2015-05-01 23:00,ZBSJ 012300Z 31003MPS 5000 BR NSC 15/15 Q1011 NOSIG
ZBSJ,2015-05-02 00:00,ZBSJ 020000Z 31002MPS 5000 BR NSC 17/15 Q1012 NOSIG
ZBSJ,2015-05-02 01:00,ZBSJ 020100Z 32003MPS 270V340 8000 NSC 19/16 Q1012 NOSIG
ZBSJ,2015-05-02 02:00,ZBSJ 020200Z 30001MPS CAVOK 21/15 Q1012 NOSIG
ZBSJ,2015-05-02 03:00,ZBSJ 020300Z 13001MPS CAVOK 21/14 Q1012 NOSIG
ZBSJ,2015-05-02 04:00,ZBSJ 020400Z 03003MPS 290V090 CAVOK 22/15 Q1011 NOSIG
ZBSJ,2015-05-02 05:00,ZBSJ 020500Z 10002MPS 9999 FEW040 23/16 Q1010 NOSIG
ZBSJ,2015-05-02 06:00,ZBSJ 020600Z 17004MPS 140V220 9999 FEW040 24/14 Q1010 NOSIG
ZBSJ,2015-05-02 07:00,ZBSJ 020700Z 17002MPS 9999 FEW040 24/14 Q1010 NOSIG
ZBSJ,2015-05-02 08:00,ZBSJ 020800Z 13003MPS 090V170 9999 FEW040 23/16 Q1009 NOSIG
ZBSJ,2015-05-02 09:00,ZBSJ 020900Z 14004MPS CAVOK 23/15 Q1009 NOSIG
ZBSJ,2015-05-02 10:00,ZBSJ 021000Z 14003MPS 8000 NSC 21/16 Q1009 NOSIG
ZBSJ,2015-05-02 11:00,ZBSJ 021100Z 15002MPS 6000 NSC 19/16 Q1009 NOSIG
ZBSJ,2015-05-02 12:00,ZBSJ 021200Z 17002MPS 6000 NSC 18/16 Q1010 NOSIG
ZBSJ,2015-05-02 13:00,ZBSJ 021300Z 14001MPS 6000 NSC 18/16 Q1011 NOSIG
ZBSJ,2015-05-02 14:00,ZBSJ 021400Z 07001MPS 5000 HZ NSC 16/15 Q1011 NOSIG
ZBSJ,2015-05-02 15:00,ZBSJ 021500Z 00000MPS 3000 BR NSC 16/16 Q1010 NOSIG
ZBSJ,2015-05-02 16:00,ZBSJ 021600Z 24002MPS 3000 BR NSC 16/16 Q1010 NOSIG
ZBSJ,2015-05-02 17:00,ZBSJ 021700Z 28001MPS 2500 BR NSC 15/14 Q1010 NOSIG
ZBSJ,2015-05-02 18:00,ZBSJ 021800Z 06001MPS 2200 BR NSC 14/14 Q1010 NOSIG
ZBSJ,2015-05-02 19:00,ZBSJ 021900Z 02001MPS 2000 BR NSC 14/14 Q1010 NOSIG
ZBSJ,2015-05-02 20:00,ZBSJ 022000Z 18002MPS 1800 BR NSC 14/14 Q1010 NOSIG
ZBSJ,2015-05-02 21:00,ZBSJ 022100Z 28001MPS 2000 BR NSC 14/14 Q1011 NOSIG
ZBSJ,2015-05-02 22:00,ZBSJ 022200Z 34003MPS 1300 R15/1300U BR NSC 14/14 Q1012 NOSIG
ZBSJ,2015-05-02 23:00,ZBSJ 022300Z 04002MPS 1600 R33/1300U BR NSC 16/16 Q1012 BECMG 3000
ZBSJ,2015-05-03 00:00,ZBSJ 030000Z 08001MPS 1600 R15/1400N BR NSC 18/17 Q1014 BECMG 3000
ZBSJ,2015-05-03 01:00,ZBSJ 030100Z 06002MPS 1800 BR NSC 19/17 Q1015 BECMG 3000
ZBSJ,2015-05-03 02:00,ZBSJ 030200Z 22001MPS 2500 BR NSC 21/17 Q1015 BECMG 3500
ZBSJ,2015-05-03 03:00,ZBSJ 030300Z 36001MPS 3000 BR NSC 22/17 Q1015 NOSIG
ZBSJ,2015-05-03 04:00,ZBSJ 030400Z 18002MPS 150V230 7000 NSC 23/14 Q1014 NOSIG
ZBSJ,2015-05-03 05:00,ZBSJ 030500Z 17003MPS 130V220 7000 NSC 24/15 Q1014 NOSIG
ZBSJ,2015-05-03 06:00,ZBSJ 030600Z 16003MPS 110V190 8000 NSC 24/13 Q1013 NOSIG
ZBSJ,2015-05-03 07:00,ZBSJ 030700Z 18004MPS CAVOK 25/12 Q1012 NOSIG
ZBSJ,2015-05-03 08:00,ZBSJ 030800Z 19005MPS 2700 HZ NSC 24/14 Q1012 NOSIG
ZBSJ,2015-05-03 09:00,ZBSJ 030900Z 18005MPS 8000 NSC 23/15 Q1012 NOSIG
ZBSJ,2015-05-03 10:00,ZBSJ 031000Z 18004MPS CAVOK 22/11 Q1012 NOSIG
ZBSJ,2015-05-03 11:00,ZBSJ 031100Z 11003MPS 070V180 CAVOK 20/11 Q1013 NOSIG
ZBSJ,2015-05-03 12:00,ZBSJ 031200Z 10002MPS 7000 NSC 18/12 Q1014 NOSIG
ZBSJ,2015-05-03 13:00,ZBSJ 031300Z 07002MPS 7000 NSC 17/13 Q1015 NOSIG
ZBSJ,2015-05-03 14:00,ZBSJ 031400Z 07002MPS CAVOK 16/11 Q1016 NOSIG
ZBSJ,2015-05-03 15:00,ZBSJ 031500Z 01001MPS CAVOK 14/10 Q1017 NOSIG
ZBSJ,2015-05-03 16:00,ZBSJ 031600Z 33001MPS CAVOK 15/09 Q1017 NOSIG
ZBSJ,2015-05-03 17:00,ZBSJ 031700Z 05002MPS CAVOK 15/09 Q1018 NOSIG
ZBSJ,2015-05-03 18:00,ZBSJ 031800Z 27001MPS CAVOK 13/08 Q1018 NOSIG
ZBSJ,2015-05-03 19:00,ZBSJ 031900Z 33003MPS CAVOK 12/07 Q1018 NOSIG
ZBSJ,2015-05-03 20:00,ZBSJ 032000Z 19002MPS CAVOK 11/07 Q1019 NOSIG
ZBSJ,2015-05-03 21:00,ZBSJ 032100Z 35001MPS CAVOK 10/05 Q1018 NOSIG
ZBSJ,2015-05-03 22:00,ZBSJ 032200Z 19001MPS CAVOK 10/03 Q1019 NOSIG
ZBSJ,2015-05-03 23:00,ZBSJ 032300Z 24002MPS CAVOK 14/03 Q1020 NOSIG
ZBSJ,2015-05-04 00:00,ZBSJ 040000Z 23003MPS 200V260 CAVOK 17/M01 Q1020 NOSIG
ZBSJ,2015-05-04 01:00,ZBSJ 040100Z 23002MPS 190V270 CAVOK 19/M04 Q1020 NOSIG
ZBSJ,2015-05-04 02:00,ZBSJ 040200Z 20002MPS 130V250 CAVOK 21/M01 Q1020 NOSIG
ZBSJ,2015-05-04 03:00,ZBSJ 040300Z 16003MPS 070V220 CAVOK 21/M03 Q1019 NOSIG
ZBSJ,2015-05-04 04:00,ZBSJ 040400Z 18005MPS CAVOK 22/03 Q1017 NOSIG
ZBSJ,2015-05-04 05:00,ZBSJ 040500Z 18007MPS 150V210 CAVOK 23/04 Q1016 NOSIG
ZBSJ,2015-05-04 06:00,ZBSJ 040600Z 16008MPS CAVOK 23/05 Q1015 NOSIG
ZBSJ,2015-05-04 07:00,ZBSJ 040700Z 16008MPS CAVOK 23/06 Q1013 NOSIG
ZBSJ,2015-05-04 08:00,ZBSJ 040800Z 17008MPS CAVOK 22/06 Q1012 NOSIG
ZBSJ,2015-05-04 09:00,ZBSJ 040900Z 17007MPS CAVOK 22/06 Q1012 NOSIG
ZBSJ,2015-05-04 10:00,ZBSJ 041000Z 16005MPS CAVOK 20/07 Q1011 NOSIG
ZBSJ,2015-05-04 11:00,ZBSJ 041100Z 15004MPS CAVOK 17/07 Q1011 NOSIG
ZBSJ,2015-05-04 12:00,ZBSJ 041200Z 15003MPS CAVOK 15/07 Q1011 NOSIG
ZBSJ,2015-05-04 13:00,ZBSJ 041300Z 13002MPS CAVOK 16/07 Q1011 NOSIG
ZBSJ,2015-05-04 14:00,ZBSJ 041400Z 16002MPS CAVOK 14/07 Q1010 NOSIG
ZBSJ,2015-05-04 15:00,ZBSJ 041500Z 15001MPS CAVOK 12/07 Q1010 NOSIG
ZBSJ,2015-05-04 16:00,ZBSJ 041600Z 21001MPS CAVOK 12/08 Q1010 NOSIG
ZBSJ,2015-05-04 17:00,ZBSJ 041700Z 20002MPS CAVOK 10/08 Q1008 NOSIG
ZBSJ,2015-05-04 18:00,ZBSJ 041800Z 24001MPS CAVOK 11/08 Q1007 NOSIG
ZBSJ,2015-05-04 19:00,ZBSJ 041900Z 20001MPS CAVOK 11/08 Q1007 NOSIG
ZBSJ,2015-05-04 20:00,ZBSJ 042000Z 16001MPS CAVOK 10/08 Q1006 NOSIG
ZBSJ,2015-05-04 21:00,ZBSJ 042100Z 19001MPS CAVOK 08/07 Q1006 NOSIG
ZBSJ,2015-05-04 22:00,ZBSJ 042200Z 18003MPS 2500 BR NSC 11/09 Q1005 NOSIG
ZBSJ,2015-05-04 23:00,ZBSJ 042300Z 18003MPS 2700 BR NSC 14/11 Q1005 BECMG 3500
ZBSJ,2015-05-05 00:00,ZBSJ 050000Z 19005MPS 3500 BR NSC 17/12 Q1005 NOSIG
ZBSJ,2015-05-05 01:00,ZBSJ 050100Z 18002MPS 7000 NSC 20/13 Q1005 NOSIG
ZBSJ,2015-05-05 02:00,ZBSJ 050200Z 16003MPS 7000 NSC 23/13 Q1004 NOSIG
ZBSJ,2015-05-05 03:00,ZBSJ 050300Z 15004MPS 6000 NSC 25/15 Q1003 NOSIG
ZBSJ,2015-05-05 04:00,ZBSJ 050400Z 15004MPS 8000 NSC 25/14 Q1003 NOSIG
ZBSJ,2015-05-05 05:00,ZBSJ 050500Z 12004MPS 8000 NSC 26/14 Q1002 NOSIG
ZBSJ,2015-05-05 06:00,ZBSJ 050600Z 10003MPS 060V140 CAVOK 27/14 Q1002 NOSIG
ZBSJ,2015-05-05 07:00,ZBSJ 050700Z 04006MPS 8000 NSC 24/15 Q1002 NOSIG
ZBSJ,2015-05-05 08:00,ZBSJ 050800Z 10002MPS 060V140 8000 -TSRA FEW030CB OVC040 22/15 Q1003 NOSIG
ZBSJ,2015-05-05 09:00,ZBSJ 050900Z 05004MPS 010V090 4000 HZ NSC 22/15 Q1002 RETS NOSIG
ZBSJ,2015-05-05 10:00,ZBSJ 051000Z 06002MPS 3500 HZ SCT046 21/16 Q1003 NOSIG
ZBSJ,2015-05-05 11:00,ZBSJ 051100Z 02003MPS 330V050 3000 HZ NSC 21/13 Q1004 NOSIG
ZBSJ,2015-05-05 12:00,ZBSJ 051200Z 07002MPS 4500 HZ NSC 19/13 Q1005 NOSIG
ZBSJ,2015-05-05 13:00,ZBSJ 051300Z 21001MPS 4000 HZ NSC 18/14 Q1006 NOSIG
ZBSJ,2015-05-05 14:00,ZBSJ 051400Z 03001MPS 4000 BR NSC 17/14 Q1006 NOSIG
ZBSJ,2015-05-05 15:00,ZBSJ 051500Z 00000MPS 4000 BR NSC 17/15 Q1007 NOSIG
ZBSJ,2015-05-05 16:00,ZBSJ 051600Z 01002MPS 4000 BR NSC 17/13 Q1007 NOSIG
ZBSJ,2015-05-05 18:00,ZBSJ 051800Z 05003MPS 6000 NSC 17/11 Q1007 NOSIG
ZBSJ,2015-05-05 19:00,ZBSJ 051900Z 07003MPS 8000 NSC 17/09 Q1007 NOSIG
ZBSJ,2015-05-05 20:00,ZBSJ 052000Z 07004MPS CAVOK 18/04 Q1008 NOSIG
ZBSJ,2015-05-05 21:00,ZBSJ 052100Z 06004MPS CAVOK 17/02 Q1009 NOSIG
ZBSJ,2015-05-05 22:00,ZBSJ 052200Z 04003MPS CAVOK 16/02 Q1010 NOSIG
ZBSJ,2015-05-05 23:00,ZBSJ 052300Z 04004MPS CAVOK 16/M00 Q1011 NOSIG
ZBSJ,2015-05-06 00:00,ZBSJ 060000Z 04003MPS 010V070 CAVOK 16/02 Q1012 NOSIG
ZBSJ,2015-05-06 01:00,ZBSJ 060100Z 04003MPS 360V070 CAVOK 17/02 Q1012 NOSIG
ZBSJ,2015-05-06 02:00,ZBSJ 060200Z 05004MPS 020V090 CAVOK 19/03 Q1013 NOSIG
ZBSJ,2015-05-06 03:00,ZBSJ 060300Z 08003MPS 040V130 CAVOK 20/02 Q1012 NOSIG
ZBSJ,2015-05-06 04:00,ZBSJ 060400Z 09002MPS 040V150 CAVOK 20/04 Q1012 NOSIG
ZBSJ,2015-05-06 05:00,ZBSJ 060500Z 11002MPS 050V170 CAVOK 21/04 Q1011 NOSIG
ZBSJ,2015-05-06 06:00,ZBSJ 060600Z 07002MPS CAVOK 21/05 Q1011 NOSIG
ZBSJ,2015-05-06 07:00,ZBSJ 060700Z 11002MPS 070V150 CAVOK 21/04 Q1010 NOSIG
ZBSJ,2015-05-06 08:00,ZBSJ 060800Z 06003MPS CAVOK 21/04 Q1010 NOSIG
ZBSJ,2015-05-06 09:00,ZBSJ 060900Z 10003MPS CAVOK 20/05 Q1009 NOSIG
ZBSJ,2015-05-06 10:00,ZBSJ 061000Z 09002MPS CAVOK 18/07 Q1009 NOSIG
ZBSJ,2015-05-06 11:00,ZBSJ 061100Z 07002MPS CAVOK 17/07 Q1010 NOSIG
ZBSJ,2015-05-06 12:00,ZBSJ 061200Z 08002MPS CAVOK 16/08 Q1010 NOSIG
ZBSJ,2015-05-06 13:00,ZBSJ 061300Z 05001MPS CAVOK 16/09 Q1012 NOSIG
ZBSJ,2015-05-06 14:00,ZBSJ 061400Z 03001MPS CAVOK 16/08 Q1011 NOSIG
ZBSJ,2015-05-06 15:00,ZBSJ 061500Z 01002MPS CAVOK 15/08 Q1012 NOSIG
ZBSJ,2015-05-06 16:00,ZBSJ 061600Z 02003MPS CAVOK 15/06 Q1012 NOSIG
ZBSJ,2015-05-06 17:00,ZBSJ 061700Z 03003MPS CAVOK 15/04 Q1012 NOSIG
ZBSJ,2015-05-06 18:00,ZBSJ 061800Z 06002MPS CAVOK 13/05 Q1011 NOSIG
ZBSJ,2015-05-06 19:00,ZBSJ 061900Z 23002MPS CAVOK 12/04 Q1011 NOSIG
ZBSJ,2015-05-06 20:00,ZBSJ 062000Z 23002MPS CAVOK 10/05 Q1011 NOSIG
ZBSJ,2015-05-06 21:00,ZBSJ 062100Z 16001MPS CAVOK 08/05 Q1011 NOSIG
ZBSJ,2015-05-06 22:00,ZBSJ 062200Z 12001MPS CAVOK 09/06 Q1011 NOSIG
ZBSJ,2015-05-06 23:00,ZBSJ 062300Z 18001MPS CAVOK 14/07 Q1012 NOSIG
ZBSJ,2015-05-07 00:00,ZBSJ 070000Z 19003MPS CAVOK 16/06 Q1013 NOSIG
ZBSJ,2015-05-07 01:00,ZBSJ 070100Z 20002MPS CAVOK 18/07 Q1013 NOSIG
ZBSJ,2015-05-07 02:00,ZBSJ 070200Z VRB02MPS CAVOK 20/07 Q1012 NOSIG
ZBSJ,2015-05-07 03:00,ZBSJ 070300Z 19003MPS 160V270 CAVOK 22/09 Q1012 NOSIG
ZBSJ,2015-05-07 04:00,ZBSJ 070400Z 18004MPS CAVOK 22/09 Q1012 NOSIG
ZBSJ,2015-05-07 05:00,ZBSJ 070500Z 17004MPS CAVOK 23/08 Q1011 NOSIG
ZBSJ,2015-05-07 06:00,ZBSJ 070600Z 15005MPS CAVOK 22/11 Q1011 NOSIG
ZBSJ,2015-05-07 07:00,ZBSJ 070700Z 17005MPS CAVOK 22/10 Q1010 NOSIG
ZBSJ,2015-05-07 08:00,ZBSJ 070800Z 17005MPS CAVOK 21/12 Q1010 NOSIG
ZBSJ,2015-05-07 09:00,ZBSJ 070900Z 15004MPS CAVOK 20/13 Q1010 NOSIG
ZBSJ,2015-05-07 10:00,ZBSJ 071000Z 14003MPS CAVOK 20/13 Q1009 NOSIG
ZBSJ,2015-05-07 11:00,ZBSJ 071100Z 07001MPS CAVOK 18/13 Q1009 NOSIG
ZBSJ,2015-05-07 12:00,ZBSJ 071200Z 14003MPS CAVOK 18/12 Q1009 NOSIG
ZBSJ,2015-05-07 13:00,ZBSJ 071300Z 02003MPS 8000 NSC 16/13 Q1011 NOSIG
ZBSJ,2015-05-07 14:00,ZBSJ 071400Z 09002MPS 8000 NSC 16/13 Q1011 NOSIG
ZBSJ,2015-05-07 15:00,ZBSJ 071500Z 16002MPS 6000 NSC 15/12 Q1011 NOSIG
ZBSJ,2015-05-07 16:00,ZBSJ 071600Z 01001MPS 5000 BR NSC 14/12 Q1010 NOSIG
ZBSJ,2015-05-07 17:00,ZBSJ 071700Z 36001MPS 5000 BR NSC 14/12 Q1010 NOSIG
ZBSJ,2015-05-07 18:00,ZBSJ 071800Z 31001MPS 5000 BR NSC 13/12 Q1010 NOSIG
ZBSJ,2015-05-07 19:00,ZBSJ 071900Z 29001MPS 5000 BR NSC 13/11 Q1009 NOSIG
ZBSJ,2015-05-07 20:00,ZBSJ 072000Z 33002MPS 5000 BR NSC 12/12 Q1008 NOSIG
ZBSJ,2015-05-07 21:00,ZBSJ 072100Z 00000MPS 4000 BR NSC 12/11 Q1008 NOSIG
ZBSJ,2015-05-07 22:00,ZBSJ 072200Z 32002MPS 2500 BR NSC 12/11 Q1008 NOSIG
ZBSJ,2015-05-07 23:00,ZBSJ 072300Z 32002MPS 3000 BR NSC 16/13 Q1008 NOSIG
ZBSJ,2015-05-08 00:00,ZBSJ 080000Z 34002MPS 4000 HZ NSC 18/13 Q1009 NOSIG
ZBSJ,2015-05-08 01:00,ZBSJ 080100Z 36001MPS 8000 NSC 20/13 Q1009 NOSIG
ZBSJ,2015-05-08 02:00,ZBSJ 080200Z 10002MPS 8000 NSC 22/14 Q1008 NOSIG
ZBSJ,2015-05-08 03:00,ZBSJ 080300Z 06002MPS 8000 NSC 23/14 Q1007 NOSIG
ZBSJ,2015-05-08 04:00,ZBSJ 080400Z 14002MPS 080V200 CAVOK 25/12 Q1006 NOSIG
ZBSJ,2015-05-08 05:00,ZBSJ 080500Z 10003MPS 040V170 CAVOK 25/13 Q1006 NOSIG
ZBSJ,2015-05-08 06:00,ZBSJ 080600Z 12004MPS 080V150 CAVOK 27/14 Q1005 NOSIG
ZBSJ,2015-05-08 07:00,ZBSJ 080700Z 13005MPS 090V160 CAVOK 27/13 Q1004 NOSIG
ZBSJ,2015-05-08 08:00,ZBSJ 080800Z 14005MPS CAVOK 27/13 Q1004 NOSIG
ZBSJ,2015-05-08 09:00,ZBSJ 080900Z 14003MPS CAVOK 25/12 Q1005 BECMG AT0940 -TSRA
ZBSJ,2015-05-08 10:00,ZBSJ 081000Z 08001MPS 9999 -TSRA FEW033CB BKN040 22/14 Q1007 NOSIG
ZBSJ,2015-05-08 11:00,ZBSJ 081100Z 07006MPS 3000 -TSRA BR FEW033CB BKN046 20/16 Q1007 NOSIG
ZBSJ,2015-05-08 12:00,ZBSJ 081200Z 09003MPS 8000 BKN046 18/15 Q1008 RETS NOSIG
ZBSJ,2015-05-08 13:00,ZBSJ 081300Z 05003MPS 8000 BKN046 17/15 Q1010 NOSIG
ZBSJ,2015-05-08 14:00,ZBSJ 081400Z 12001MPS 6000 -RA OVC046 17/15 Q1012 NOSIG
ZBSJ,2015-05-08 15:00,ZBSJ 081500Z 11005MPS 2700 BR OVC046 16/16 Q1012 NOSIG
ZBSJ,2015-05-08 16:00,ZBSJ 081600Z 05003MPS 2500 -RA BR OVC040 15/14 Q1013 NOSIG
ZBSJ,2015-05-08 17:00,ZBSJ 081700Z 07005MPS 5000 BR OVC040 14/14 Q1013 NOSIG
ZBSJ,2015-05-08 18:00,ZBSJ 081800Z 04005MPS 4000 BR OVC040 14/13 Q1014 NOSIG
ZBSJ,2015-05-08 19:00,ZBSJ 081900Z 06005MPS 4000 BR OVC040 13/13 Q1014 NOSIG
ZBSJ,2015-05-08 20:00,ZBSJ 082000Z 06007MPS 4000 BR OVC040 12/12 Q1014 NOSIG
ZBSJ,2015-05-08 21:00,ZBSJ 082100Z 06005MPS 4000 BR OVC040 12/11 Q1015 NOSIG
ZBSJ,2015-05-08 22:00,ZBSJ 082200Z 06006MPS 6000 OVC040 11/09 Q1015 NOSIG
ZBSJ,2015-05-08 23:00,ZBSJ 082300Z 06006MPS 6000 -RA OVC040 10/09 Q1016 NOSIG
ZBSJ,2015-05-09 00:00,ZBSJ 090000Z 05004MPS 2000 -RA BR OVC040 10/09 Q1017 NOSIG
ZBSJ,2015-05-09 01:00,ZBSJ 090100Z 02003MPS 350V050 2700 -RA BR OVC040 09/09 Q1017 NOSIG
ZBSJ,2015-05-09 02:00,ZBSJ 090200Z 05006MPS 4000 -RA BR SCT010 09/09 Q1017 NOSIG
ZBSJ,2015-05-09 03:00,ZBSJ 090300Z 05006MPS 010V080 6000 -RA OVC046 09/08 Q1017 NOSIG
ZBSJ,2015-05-09 04:00,ZBSJ 090400Z 35003MPS 320V030 2800 RA BR SCT013 OVC046 10/09 Q1018 NOSIG
ZBSJ,2015-05-09 05:00,ZBSJ 090500Z 02005MPS 350V060 5000 -RA BR SCT013 OVC046 09/09 Q1018 NOSIG
ZBSJ,2015-05-09 06:00,ZBSJ 090600Z 03004MPS 350V050 6000 OVC046 10/09 Q1017 NOSIG
ZBSJ,2015-05-09 07:00,ZBSJ 090700Z 02003MPS 350V050 7000 OVC046 09/08 Q1017 NOSIG
ZBSJ,2015-05-09 08:00,ZBSJ 090800Z 03004MPS 7000 OVC046 09/08 Q1017 NOSIG
ZBSJ,2015-05-09 09:00,ZBSJ 090900Z 03004MPS 8000 OVC046 09/08 Q1017 NOSIG
ZBSJ,2015-05-09 10:00,ZBSJ 091000Z 03003MPS 350V060 5000 -RA BR SCT013 OVC046 09/08 Q1018 NOSIG
ZBSJ,2015-05-09 11:00,ZBSJ 091100Z 04002MPS 3000 -RA BR SCT013 OVC046 08/08 Q1018 NOSIG
ZBSJ,2015-05-09 12:00,ZBSJ 091200Z 08001MPS 5000 BR SCT013 OVC046 09/08 Q1018 NOSIG
ZBSJ,2015-05-09 13:00,ZBSJ 091300Z 33002MPS 8000 OVC046 09/08 Q1018 NOSIG
ZBSJ,2015-05-09 14:00,ZBSJ 091400Z 33003MPS 7000 OVC046 09/08 Q1018 NOSIG
ZBSJ,2015-05-09 15:00,ZBSJ 091500Z 31003MPS 7000 OVC046 09/08 Q1018 NOSIG
ZBSJ,2015-05-09 16:00,ZBSJ 091600Z 32003MPS 7000 OVC046 09/08 Q1017 NOSIG
ZBSJ,2015-05-09 17:00,ZBSJ 091700Z 31003MPS 7000 OVC046 09/08 Q1017 NOSIG
ZBSJ,2015-05-09 18:00,ZBSJ 091800Z 31003MPS 7000 OVC046 10/08 Q1017 NOSIG
ZBSJ,2015-05-09 19:00,ZBSJ 091900Z 29001MPS 7000 OVC046 10/07 Q1016 NOSIG
ZBSJ,2015-05-09 20:00,ZBSJ 092000Z 33001MPS 9999 OVC046 10/08 Q1015 NOSIG
ZBSJ,2015-05-09 21:00,ZBSJ 092100Z 28002MPS 9999 OVC046 10/07 Q1015 NOSIG
ZBSJ,2015-05-09 22:00,ZBSJ 092200Z 30001MPS 9999 OVC046 10/08 Q1015 NOSIG
ZBSJ,2015-05-09 23:00,ZBSJ 092300Z 31001MPS 7000 OVC046 10/08 Q1016 NOSIG
ZBSJ,2015-05-10 00:00,ZBSJ 100000Z 02002MPS 7000 OVC046 10/07 Q1016 NOSIG
ZBSJ,2015-05-10 01:00,ZBSJ 100100Z 05002MPS 8000 -DZ BKN046 10/08 Q1015 NOSIG
ZBSJ,2015-05-10 02:00,ZBSJ 100200Z 07002MPS 6000 -RA OVC040 10/07 Q1015 NOSIG
ZBSJ,2015-05-10 03:00,ZBSJ 100300Z 02001MPS 1400 R33/1600N -RA BR SCT020 OVC026 09/08 Q1016 BECMG RA
ZBSJ,2015-05-10 04:00,ZBSJ 100400Z 01002MPS 1400 R33/1600U -RA BR SCT020 OVC033 09/08 Q1014 NOSIG
ZBSJ,2015-05-10 05:00,ZBSJ 100500Z 33004MPS 1300 R33/1600U -RA BR SCT020 OVC026 08/08 Q1015 BECMG RA
ZBSJ,2015-05-10 06:00,ZBSJ 100600Z 34003MPS 3000 RA BR SCT020 OVC033 09/09 Q1014 NOSIG
ZBSJ,2015-05-10 07:00,ZBSJ 100700Z 33002MPS 5000 -RA BR OVC033 09/09 Q1014 RERA NOSIG
ZBSJ,2015-05-10 08:00,ZBSJ 100800Z 32003MPS 5000 -RA BR SCT016 OVC033 09/09 Q1014 NOSIG
ZBSJ,2015-05-10 09:00,ZBSJ 100900Z 04001MPS 6000 -RA SCT016 OVC033 09/09 Q1014 NOSIG
ZBSJ,2015-05-10 10:00,ZBSJ 101000Z 24001MPS 7000 -RA SCT016 OVC033 09/09 Q1014 NOSIG
ZBSJ,2015-05-10 11:00,ZBSJ 101100Z 09001MPS 7000 OVC040 09/09 Q1014 NOSIG
ZBSJ,2015-05-10 12:00,ZBSJ 101200Z 00000MPS 6000 OVC040 09/09 Q1014 NOSIG
ZBSJ,2015-05-10 13:00,ZBSJ 101300Z 21001MPS 6000 OVC040 09/09 Q1015 NOSIG
ZBSJ,2015-05-10 14:00,ZBSJ 101400Z 31002MPS 5000 BR OVC040 09/09 Q1015 NOSIG
ZBSJ,2015-05-10 15:00,ZBSJ 101500Z 26001MPS 5000 BR NSC 09/09 Q1015 NOSIG
ZBSJ,2015-05-10 16:00,ZBSJ 101600Z 26002MPS 5000 BR NSC 09/09 Q1015 NOSIG
ZBSJ,2015-05-10 17:00,ZBSJ 101700Z 28001MPS 5000 BR NSC 09/08 Q1015 NOSIG
ZBSJ,2015-05-10 18:00,ZBSJ 101800Z 18002MPS 4500 BR NSC 08/08 Q1014 NOSIG
ZBSJ,2015-05-10 19:00,ZBSJ 101900Z 19002MPS 3500 BR NSC 08/07 Q1014 NOSIG
ZBSJ,2015-05-10 20:00,ZBSJ 102000Z 27001MPS 3000 BR NSC 08/08 Q1013 NOSIG
ZBSJ,2015-05-10 21:00,ZBSJ 102100Z 26005MPS 5000 BR NSC 09/09 Q1013 NOSIG
ZBSJ,2015-05-10 22:00,ZBSJ 102200Z 26004MPS 5000 BR NSC 10/07 Q1013 NOSIG
ZBSJ,2015-05-10 23:00,ZBSJ 102300Z 28004MPS 8000 NSC 11/08 Q1013 NOSIG
ZBSJ,2015-05-11 00:00,ZBSJ 110000Z 27004MPS CAVOK 14/08 Q1012 NOSIG
ZBSJ,2015-05-11 01:00,ZBSJ 110100Z 28005MPS CAVOK 16/07 Q1012 NOSIG
ZBSJ,2015-05-11 02:00,ZBSJ 110200Z 29006MPS CAVOK 18/04 Q1011 NOSIG
ZBSJ,2015-05-11 03:00,ZBSJ 110300Z 28006MPS 240V310 CAVOK 20/02 Q1010 NOSIG
ZBSJ,2015-05-11 04:00,ZBSJ 110400Z 27004MPS 240V310 CAVOK 21/01 Q1009 NOSIG
ZBSJ,2015-05-11 05:00,ZBSJ 110500Z 27004MPS 240V300 CAVOK 22/04 Q1007 NOSIG
ZBSJ,2015-05-11 06:00,ZBSJ 110600Z 35006MPS 9999 SCT033 SCT040 19/05 Q1007 NOSIG
ZBSJ,2015-05-11 07:00,ZBSJ 110700Z 36005MPS 9999 SCT033 SCT040 20/06 Q1006 NOSIG
ZBSJ,2015-05-11 08:00,ZBSJ 110800Z 34007MPS 9999 SCT026 SCT040 19/06 Q1005 NOSIG
ZBSJ,2015-05-11 09:00,ZBSJ 110900Z 33008MPS 9999 SCT026 SCT040 19/05 Q1006 NOSIG
ZBSJ,2015-05-11 10:00,ZBSJ 111000Z 26006MPS 9999 SCT026 18/06 Q1005 NOSIG
ZBSJ,2015-05-11 11:00,ZBSJ 111100Z 28004MPS 9999 FEW040 16/07 Q1005 NOSIG
ZBSJ,2015-05-11 12:00,ZBSJ 111200Z 26004MPS 9999 FEW040 15/07 Q1005 NOSIG
ZBSJ,2015-05-11 13:00,ZBSJ 111300Z 27006MPS 9999 FEW046 15/06 Q1005 NOSIG
ZBSJ,2015-05-11 14:00,ZBSJ 111400Z 27005MPS CAVOK 14/06 Q1005 NOSIG
ZBSJ,2015-05-11 15:00,ZBSJ 111500Z 26004MPS CAVOK 14/05 Q1004 NOSIG
ZBSJ,2015-05-11 16:00,ZBSJ 111600Z 26005MPS CAVOK 14/05 Q1003 NOSIG
ZBSJ,2015-05-11 17:00,ZBSJ 111700Z 25003MPS 210V300 CAVOK 12/05 Q1002 NOSIG
ZBSJ,2015-05-11 18:00,ZBSJ 111800Z 25004MPS 230V310 CAVOK 13/05 Q1001 NOSIG
ZBSJ,2015-05-11 19:00,ZBSJ 111900Z 25004MPS CAVOK 13/04 Q1000 NOSIG
ZBSJ,2015-05-11 20:00,ZBSJ 112000Z 27003MPS CAVOK 13/04 Q1000 NOSIG
ZBSJ,2015-05-11 21:00,ZBSJ 112100Z 26003MPS CAVOK 13/04 Q0999 NOSIG
ZBSJ,2015-05-11 22:00,ZBSJ 112200Z 25004MPS CAVOK 14/03 Q0999 NOSIG
ZBSJ,2015-05-11 23:00,ZBSJ 112300Z 25006MPS CAVOK 18/04 Q0999 NOSIG
ZBSJ,2015-05-12 00:00,ZBSJ 120000Z 26006MPS CAVOK 21/04 Q0999 NOSIG
ZBSJ,2015-05-12 01:00,ZBSJ 120100Z 27006MPS CAVOK 24/03 Q0999 NOSIG
ZBSJ,2015-05-12 02:00,ZBSJ 120200Z 27007MPS CAVOK 25/04 Q0999 NOSIG
ZBSJ,2015-05-12 03:00,ZBSJ 120300Z 28006MPS CAVOK 27/05 Q0999 NOSIG
ZBSJ,2015-05-12 04:00,ZBSJ 120400Z 27006MPS CAVOK 29/03 Q0998 NOSIG
ZBSJ,2015-05-12 05:00,ZBSJ 120500Z 27006MPS CAVOK 29/05 Q0998 NOSIG
ZBSJ,2015-05-12 06:00,ZBSJ 120600Z 26007MPS CAVOK 29/02 Q0997 NOSIG
ZBSJ,2015-05-12 07:00,ZBSJ 120700Z 27007MPS CAVOK 30/03 Q0997 NOSIG
ZBSJ,2015-05-12 08:00,ZBSJ 120800Z 26006MPS CAVOK 30/02 Q0996 NOSIG
ZBSJ,2015-05-12 09:00,ZBSJ 120900Z 26004MPS CAVOK 29/04 Q0996 NOSIG
ZBSJ,2015-05-12 10:00,ZBSJ 121000Z 24004MPS 220V280 CAVOK 28/05 Q0996 NOSIG
ZBSJ,2015-05-12 11:00,ZBSJ 121100Z 23003MPS CAVOK 25/05 Q0996 NOSIG
ZBSJ,2015-05-12 12:00,ZBSJ 121200Z 18004MPS CAVOK 20/09 Q0996 NOSIG
ZBSJ,2015-05-12 13:00,ZBSJ 121300Z 19005MPS CAVOK 20/11 Q0996 NOSIG
ZBSJ,2015-05-12 14:00,ZBSJ 121400Z 20004MPS CAVOK 19/12 Q0996 NOSIG
ZBSJ,2015-05-12 15:00,ZBSJ 121500Z 20004MPS CAVOK 18/11 Q0996 NOSIG
ZBSJ,2015-05-12 16:00,ZBSJ 121600Z 22003MPS CAVOK 17/10 Q0996 NOSIG
ZBSJ,2015-05-12 17:00,ZBSJ 121700Z 22003MPS CAVOK 17/08 Q0996 NOSIG
ZBSJ,2015-05-12 18:00,ZBSJ 121800Z 24004MPS CAVOK 19/04 Q0995 NOSIG
ZBSJ,2015-05-12 19:00,ZBSJ 121900Z 25003MPS CAVOK 19/03 Q0995 NOSIG
ZBSJ,2015-05-12 20:00,ZBSJ 122000Z 25003MPS CAVOK 16/04 Q0996 NOSIG
ZBSJ,2015-05-12 21:00,ZBSJ 122100Z 25005MPS CAVOK 21/02 Q0995 NOSIG
ZBSJ,2015-05-12 22:00,ZBSJ 122200Z 26006MPS CAVOK 22/01 Q0995 NOSIG
ZBSJ,2015-05-12 23:00,ZBSJ 122300Z 25004MPS CAVOK 23/04 Q0996 NOSIG
ZBSJ,2015-05-13 00:00,ZBSJ 130000Z 23004MPS CAVOK 25/08 Q0996 NOSIG
ZBSJ,2015-05-13 01:00,ZBSJ 130100Z 24005MPS CAVOK 27/07 Q0996 NOSIG
ZBSJ,2015-05-13 02:00,ZBSJ 130200Z 24005MPS CAVOK 29/07 Q0996 NOSIG
ZBSJ,2015-05-13 03:00,ZBSJ 130300Z 22004MPS CAVOK 31/09 Q0995 NOSIG
ZBSJ,2015-05-13 04:00,ZBSJ 130400Z 23005MPS CAVOK 33/07 Q0994 NOSIG
ZBSJ,2015-05-13 05:00,ZBSJ 130500Z 23004MPS 200V260 CAVOK 34/09 Q0994 NOSIG
ZBSJ,2015-05-13 06:00,ZBSJ 130600Z 18005MPS CAVOK 33/19 Q0993 NOSIG
ZBSJ,2015-05-13 07:00,ZBSJ 130700Z 17005MPS CAVOK 32/18 Q0993 NOSIG
ZBSJ,2015-05-13 08:00,ZBSJ 130800Z 18005MPS CAVOK 31/17 Q0992 NOSIG
ZBSJ,2015-05-13 09:00,ZBSJ 130900Z 19006MPS CAVOK 31/19 Q0992 NOSIG
ZBSJ,2015-05-13 10:00,ZBSJ 131000Z 18004MPS CAVOK 28/19 Q0993 NOSIG
ZBSJ,2015-05-13 11:00,ZBSJ 131100Z 17004MPS CAVOK 26/19 Q0993 NOSIG
ZBSJ,2015-05-13 12:00,ZBSJ 131200Z 19003MPS CAVOK 25/19 Q0995 NOSIG
ZBSJ,2015-05-13 13:00,ZBSJ 131300Z 17001MPS CAVOK 22/19 Q0996 NOSIG
ZBSJ,2015-05-13 14:00,ZBSJ 131400Z 12001MPS 8000 NSC 21/20 Q0997 NOSIG
ZBSJ,2015-05-13 15:00,ZBSJ 131500Z 01004MPS 7000 NSC 22/19 Q0999 NOSIG
ZBSJ,2015-05-13 16:00,ZBSJ 131600Z 36003MPS CAVOK 24/10 Q1000 NOSIG
ZBSJ,2015-05-13 17:00,ZBSJ 131700Z 01003MPS CAVOK 22/07 Q1001 NOSIG
ZBSJ,2015-05-13 18:00,ZBSJ 131800Z 01003MPS CAVOK 21/06 Q1002 NOSIG
ZBSJ,2015-05-13 19:00,ZBSJ 131900Z 35004MPS CAVOK 21/04 Q1003 NOSIG
ZBSJ,2015-05-13 20:00,ZBSJ 132000Z 35003MPS CAVOK 19/05 Q1004 NOSIG
ZBSJ,2015-05-13 21:00,ZBSJ 132100Z 35002MPS CAVOK 17/04 Q1005 NOSIG
ZBSJ,2015-05-13 22:00,ZBSJ 132200Z 35001MPS CAVOK 16/05 Q1006 NOSIG
ZBSJ,2015-05-13 23:00,ZBSJ 132300Z 36002MPS CAVOK 20/07 Q1006 NOSIG
ZBSJ,2015-05-14 00:00,ZBSJ 140000Z 02002MPS CAVOK 21/07 Q1008 NOSIG
ZBSJ,2015-05-14 01:00,ZBSJ 140100Z 11002MPS CAVOK 22/09 Q1008 NOSIG
ZBSJ,2015-05-14 02:00,ZBSJ 140200Z 13002MPS 090V160 CAVOK 24/11 Q1009 NOSIG
ZBSJ,2015-05-14 03:00,ZBSJ 140300Z 13002MPS CAVOK 25/10 Q1009 NOSIG
ZBSJ,2015-05-14 04:00,ZBSJ 140400Z 12003MPS 090V150 CAVOK 25/11 Q1009 NOSIG
ZBSJ,2015-05-14 05:00,ZBSJ 140500Z 14003MPS 100V190 CAVOK 26/11 Q1008 NOSIG
ZBSJ,2015-05-14 06:00,ZBSJ 140600Z 11003MPS 050V160 CAVOK 26/11 Q1007 NOSIG
ZBSJ,2015-05-14 07:00,ZBSJ 140700Z 16003MPS 100V180 CAVOK 26/10 Q1007 NOSIG
ZBSJ,2015-05-14 08:00,ZBSJ 140800Z 16004MPS 120V190 CAVOK 26/11 Q1007 NOSIG
ZBSJ,2015-05-14 09:00,ZBSJ 140900Z 17004MPS CAVOK 24/12 Q1007 NOSIG
ZBSJ,2015-05-14 10:00,ZBSJ 141000Z 17003MPS CAVOK 23/12 Q1007 NOSIG
ZBSJ,2015-05-14 11:00,ZBSJ 141100Z 17002MPS CAVOK 21/13 Q1007 NOSIG
ZBSJ,2015-05-14 12:00,ZBSJ 141200Z 15001MPS CAVOK 20/13 Q1008 NOSIG
ZBSJ,2015-05-14 13:00,ZBSJ 141300Z 00000MPS CAVOK 19/12 Q1009 NOSIG
ZBSJ,2015-05-14 14:00,ZBSJ 141400Z 02002MPS CAVOK 18/13 Q1010 NOSIG
ZBSJ,2015-05-14 15:00,ZBSJ 141500Z 15001MPS CAVOK 18/14 Q1010 NOSIG
ZBSJ,2015-05-14 16:00,ZBSJ 141600Z 34001MPS CAVOK 16/14 Q1011 NOSIG
ZBSJ,2015-05-14 17:00,ZBSJ 141700Z 22001MPS 7000 NSC 18/14 Q1011 NOSIG
ZBSJ,2015-05-14 18:00,ZBSJ 141800Z 18001MPS 8000 NSC 17/14 Q1010 NOSIG
ZBSJ,2015-05-14 19:00,ZBSJ 141900Z 33002MPS 9000 NSC 17/14 Q1011 NOSIG
ZBSJ,2015-05-14 20:00,ZBSJ 142000Z 32002MPS 9000 NSC 16/13 Q1011 NOSIG
ZBSJ,2015-05-14 21:00,ZBSJ 142100Z 36002MPS 7000 NSC 15/13 Q1012 NOSIG
ZBSJ,2015-05-14 22:00,ZBSJ 142200Z 03002MPS 7000 NSC 17/13 Q1013 NOSIG
ZBSJ,2015-05-14 23:00,ZBSJ 142300Z 05002MPS 7000 NSC 18/12 Q1014 NOSIG
ZBSJ,2015-05-15 00:00,ZBSJ 150000Z 05005MPS 030V090 CAVOK 20/10 Q1015 NOSIG
ZBSJ,2015-05-15 01:00,ZBSJ 150100Z 05007MPS CAVOK 21/10 Q1016 NOSIG
ZBSJ,2015-05-15 02:00,ZBSJ 150200Z 06007MPS CAVOK 22/10 Q1016 NOSIG
ZBSJ,2015-05-15 03:00,ZBSJ 150300Z 05007MPS 010V080 CAVOK 22/10 Q1017 NOSIG
ZBSJ,2015-05-15 04:00,ZBSJ 150400Z 05006MPS 020V080 CAVOK 23/11 Q1016 NOSIG
ZBSJ,2015-05-15 05:00,ZBSJ 150500Z 04005MPS 010V080 CAVOK 23/11 Q1016 NOSIG
ZBSJ,2015-05-15 06:00,ZBSJ 150600Z 06005MPS 020V090 CAVOK 23/11 Q1016 NOSIG
ZBSJ,2015-05-15 07:00,ZBSJ 150700Z 08003MPS 040V130 CAVOK 23/12 Q1015 NOSIG
ZBSJ,2015-05-15 08:00,ZBSJ 150800Z 07004MPS CAVOK 23/09 Q1015 NOSIG
ZBSJ,2015-05-15 09:00,ZBSJ 150900Z 11002MPS 050V180 CAVOK 23/08 Q1014 NOSIG
ZBSJ,2015-05-15 10:00,ZBSJ 151000Z 16002MPS CAVOK 23/10 Q1014 NOSIG
ZBSJ,2015-05-15 11:00,ZBSJ 151100Z 16001MPS CAVOK 21/10 Q1014 NOSIG
ZBSJ,2015-05-15 12:00,ZBSJ 151200Z 16001MPS CAVOK 19/10 Q1014 NOSIG
ZBSJ,2015-05-15 13:00,ZBSJ 151300Z 17002MPS CAVOK 17/10 Q1015 NOSIG
ZBSJ,2015-05-15 14:00,ZBSJ 151400Z 17001MPS CAVOK 16/09 Q1015 NOSIG
ZBSJ,2015-05-15 15:00,ZBSJ 151500Z 18003MPS CAVOK 15/10 Q1015 NOSIG
ZBSJ,2015-05-15 16:00,ZBSJ 151600Z 18003MPS CAVOK 15/09 Q1015 NOSIG
ZBSJ,2015-05-15 17:00,ZBSJ 151700Z 20002MPS CAVOK 16/09 Q1015 NOSIG
ZBSJ,2015-05-15 18:00,ZBSJ 151800Z 20001MPS CAVOK 14/09 Q1014 NOSIG
ZBSJ,2015-05-15 19:00,ZBSJ 151900Z 35001MPS CAVOK 13/10 Q1014 NOSIG
ZBSJ,2015-05-15 20:00,ZBSJ 152000Z 27001MPS 7000 NSC 15/11 Q1014 NOSIG
ZBSJ,2015-05-15 21:00,ZBSJ 152100Z 33002MPS 6000 NSC 12/10 Q1014 NOSIG
ZBSJ,2015-05-15 22:00,ZBSJ 152200Z 32001MPS 6000 NSC 13/11 Q1014 NOSIG
ZBSJ,2015-05-15 23:00,ZBSJ 152300Z 30001MPS 6000 NSC 17/12 Q1014 NOSIG
ZBSJ,2015-05-16 00:00,ZBSJ 160000Z 29002MPS 8000 NSC 19/11 Q1014 NOSIG
ZBSJ,2015-05-16 01:00,ZBSJ 160100Z 23002MPS 200V300 8000 NSC 21/13 Q1014 NOSIG
ZBSJ,2015-05-16 02:00,ZBSJ 160200Z 18002MPS 060V220 8000 NSC 23/14 Q1013 NOSIG
ZBSJ,2015-05-16 03:00,ZBSJ 160300Z 17002MPS 140V210 5000 HZ NSC 24/15 Q1012 NOSIG
ZBSJ,2015-05-16 04:00,ZBSJ 160400Z 17004MPS 5000 HZ NSC 27/17 Q1011 NOSIG
ZBSJ,2015-05-16 05:00,ZBSJ 160500Z 18005MPS 8000 NSC 27/14 Q1010 NOSIG
ZBSJ,2015-05-16 06:00,ZBSJ 160600Z 16005MPS 8000 NSC 28/15 Q1009 NOSIG
ZBSJ,2015-05-16 07:00,ZBSJ 160700Z 17005MPS CAVOK 28/14 Q1007 NOSIG
ZBSJ,2015-05-16 08:00,ZBSJ 160800Z 17005MPS CAVOK 27/15 Q1007 NOSIG
ZBSJ,2015-05-16 09:00,ZBSJ 160900Z 17005MPS CAVOK 26/15 Q1006 NOSIG
ZBSJ,2015-05-16 10:00,ZBSJ 161000Z 17004MPS CAVOK 25/16 Q1006 NOSIG
ZBSJ,2015-05-16 11:00,ZBSJ 161100Z 16004MPS CAVOK 23/15 Q1006 NOSIG
ZBSJ,2015-05-16 12:00,ZBSJ 161200Z 14002MPS 8000 NSC 21/15 Q1006 NOSIG
ZBSJ,2015-05-16 13:00,ZBSJ 161300Z 14001MPS 8000 NSC 20/15 Q1006 NOSIG
ZBSJ,2015-05-16 14:00,ZBSJ 161400Z 16001MPS 8000 NSC 20/15 Q1006 NOSIG
ZBSJ,2015-05-16 15:00,ZBSJ 161500Z 16002MPS 7000 NSC 18/16 Q1005 NOSIG
ZBSJ,2015-05-16 16:00,ZBSJ 161600Z 14002MPS 4000 BR NSC 19/17 Q1005 NOSIG
ZBSJ,2015-05-16 17:00,ZBSJ 161700Z 15002MPS 3500 BR NSC 17/16 Q1004 NOSIG
ZBSJ,2015-05-16 18:00,ZBSJ 161800Z 16003MPS 2500 BR NSC 16/16 Q1003 NOSIG
ZBSJ,2015-05-16 19:00,ZBSJ 161900Z 23002MPS 3000 BR NSC 17/16 Q1003 NOSIG
ZBSJ,2015-05-16 20:00,ZBSJ 162000Z 20001MPS 3000 BR NSC 16/15 Q1002 NOSIG
ZBSJ,2015-05-16 21:00,ZBSJ 162100Z 21001MPS 2000 BR NSC 16/15 Q1001 NOSIG
ZBSJ,2015-05-16 22:00,ZBSJ 162200Z 19001MPS 2000 BR NSC 17/16 Q1002 NOSIG
ZBSJ,2015-05-16 23:00,ZBSJ 162300Z 18001MPS 2700 BR NSC 18/17 Q1001 BECMG 3500
ZBSJ,2015-05-17 00:00,ZBSJ 170000Z 17001MPS 2700 BR NSC 21/18 Q1001 BECMG 3500
ZBSJ,2015-05-17 01:00,ZBSJ 170100Z 17003MPS 130V190 2700 BR NSC 23/18 Q1000 BECMG 3500
ZBSJ,2015-05-17 02:00,ZBSJ 170200Z 17004MPS 4000 HZ NSC 25/19 Q1000 NOSIG
ZBSJ,2015-05-17 03:00,ZBSJ 170300Z 18004MPS 5000 HZ NSC 27/20 Q0999 NOSIG
ZBSJ,2015-05-17 04:00,ZBSJ 170400Z 17005MPS 5000 HZ NSC 29/21 Q0998 NOSIG
ZBSJ,2015-05-17 05:00,ZBSJ 170500Z 16007MPS 7000 NSC 31/21 Q0997 NOSIG
ZBSJ,2015-05-17 06:00,ZBSJ 170600Z 17006MPS CAVOK 31/22 Q0995 NOSIG
ZBSJ,2015-05-17 07:00,ZBSJ 170700Z 17006MPS CAVOK 31/23 Q0994 NOSIG
ZBSJ,2015-05-17 08:00,ZBSJ 170800Z 25001MPS 7000 -TSRA FEW033CB BKN040 28/22 Q0995 BECMG AT0930 NSW
ZBSJ,2015-05-17 09:00,ZBSJ 170900Z 15004MPS 7000 NSC 27/22 Q0994 RETS NOSIG
ZBSJ,2015-05-17 10:00,ZBSJ 171000Z 16005MPS 7000 BKN040 26/21 Q0993 RETS NOSIG
ZBSJ,2015-05-17 11:00,ZBSJ 171100Z 02002MPS 7000 NSC 24/21 Q0995 NOSIG
ZBSJ,2015-05-17 12:00,ZBSJ 171200Z 13004MPS 7000 NSC 24/20 Q0994 NOSIG
ZBSJ,2015-05-17 13:00,ZBSJ 171300Z 15005MPS 6000 NSC 23/20 Q0994 NOSIG
ZBSJ,2015-05-17 14:00,ZBSJ 171400Z 07001MPS 5000 BR NSC 22/20 Q0997 NOSIG
ZBSJ,2015-05-17 15:00,ZBSJ 171500Z 35003MPS 5000 BR NSC 23/20 Q0998 NOSIG
ZBSJ,2015-05-17 16:00,ZBSJ 171600Z 02002MPS 5000 BR NSC 22/20 Q0998 NOSIG
ZBSJ,2015-05-17 17:00,ZBSJ 171700Z 32002MPS 5000 BR NSC 21/20 Q0998 NOSIG
ZBSJ,2015-05-17 18:00,ZBSJ 171800Z 33004MPS CAVOK 20/15 Q0999 NOSIG
ZBSJ,2015-05-17 19:00,ZBSJ 171900Z 31005MPS CAVOK 21/13 Q0999 NOSIG
ZBSJ,2015-05-17 20:00,ZBSJ 172000Z 32003MPS CAVOK 19/12 Q0999 NOSIG
ZBSJ,2015-05-17 21:00,ZBSJ 172100Z 33003MPS CAVOK 18/13 Q1000 NOSIG
ZBSJ,2015-05-17 22:00,ZBSJ 172200Z 33005MPS CAVOK 19/12 Q1002 NOSIG
ZBSJ,2015-05-17 23:00,ZBSJ 172300Z 33002MPS CAVOK 23/12 Q1003 NOSIG
ZBSJ,2015-05-18 00:00,ZBSJ 180000Z 33005MPS CAVOK 25/09 Q1003 NOSIG
ZBSJ,2015-05-18 01:00,ZBSJ 180100Z 34004MPS CAVOK 27/07 Q1003 NOSIG
ZBSJ,2015-05-18 02:00,ZBSJ 180200Z 35004MPS CAVOK 28/07 Q1003 NOSIG
ZBSJ,2015-05-18 03:00,ZBSJ 180300Z 31004MPS CAVOK 31/04 Q1003 NOSIG
ZBSJ,2015-05-18 04:00,ZBSJ 180400Z 26002MPS CAVOK 30/05 Q1002 NOSIG
ZBSJ,2015-05-18 05:00,ZBSJ 180500Z 07002MPS CAVOK 30/09 Q1001 NOSIG
ZBSJ,2015-05-18 06:00,ZBSJ 180600Z 11002MPS 070V150 CAVOK 31/11 Q1000 NOSIG
ZBSJ,2015-05-18 07:00,ZBSJ 180700Z 14002MPS CAVOK 32/09 Q1000 NOSIG
ZBSJ,2015-05-18 08:00,ZBSJ 180800Z 13003MPS 100V160 CAVOK 31/12 Q1000 NOSIG
ZBSJ,2015-05-18 09:00,ZBSJ 180900Z 18003MPS CAVOK 30/12 Q0999 NOSIG
ZBSJ,2015-05-18 10:00,ZBSJ 181000Z 16003MPS CAVOK 27/14 Q1000 NOSIG
ZBSJ,2015-05-18 11:00,ZBSJ 181100Z 11002MPS CAVOK 25/14 Q1000 NOSIG
ZBSJ,2015-05-18 12:00,ZBSJ 181200Z 13003MPS CAVOK 25/12 Q1000 NOSIG
ZBSJ,2015-05-18 13:00,ZBSJ 181300Z 11002MPS CAVOK 23/12 Q1001 NOSIG
ZBSJ,2015-05-18 14:00,ZBSJ 181400Z 04003MPS 8000 NSC 21/13 Q1001 NOSIG
ZBSJ,2015-05-18 15:00,ZBSJ 181500Z 04003MPS CAVOK 20/12 Q1002 NOSIG
ZBSJ,2015-05-18 16:00,ZBSJ 181600Z 06004MPS CAVOK 20/11 Q1003 NOSIG
ZBSJ,2015-05-18 17:00,ZBSJ 181700Z 02003MPS CAVOK 19/10 Q1004 NOSIG
ZBSJ,2015-05-18 18:00,ZBSJ 181800Z 04003MPS CAVOK 20/08 Q1005 NOSIG
ZBSJ,2015-05-18 19:00,ZBSJ 181900Z 02004MPS CAVOK 19/08 Q1005 NOSIG
ZBSJ,2015-05-18 20:00,ZBSJ 182000Z 07003MPS CAVOK 18/07 Q1006 NOSIG
ZBSJ,2015-05-18 21:00,ZBSJ 182100Z 36002MPS CAVOK 16/07 Q1007 NOSIG
ZBSJ,2015-05-18 22:00,ZBSJ 182200Z 34001MPS CAVOK 17/07 Q1007 NOSIG
ZBSJ,2015-05-18 23:00,ZBSJ 182300Z 05002MPS CAVOK 20/10 Q1008 NOSIG
ZBSJ,2015-05-19 00:00,ZBSJ 190000Z 06001MPS CAVOK 23/05 Q1009 NOSIG
ZBSJ,2015-05-19 01:00,ZBSJ 190100Z 34004MPS CAVOK 25/02 Q1009 NOSIG
ZBSJ,2015-05-19 02:00,ZBSJ 190200Z 34006MPS 310V010 CAVOK 26/M02 Q1009 NOSIG
ZBSJ,2015-05-19 03:00,ZBSJ 190300Z 34005MPS 310V010 CAVOK 27/01 Q1009 NOSIG
ZBSJ,2015-05-19 04:00,ZBSJ 190400Z 32005MPS 280V350 CAVOK 28/01 Q1009 NOSIG
ZBSJ,2015-05-19 05:00,ZBSJ 190500Z 32005MPS 280V360 CAVOK 29/M02 Q1008 NOSIG
ZBSJ,2015-05-19 06:00,ZBSJ 190600Z 34006MPS CAVOK 30/M01 Q1008 NOSIG
ZBSJ,2015-05-19 07:00,ZBSJ 190700Z 35006MPS CAVOK 28/01 Q1007 NOSIG
ZBSJ,2015-05-19 08:00,ZBSJ 190800Z 35006MPS CAVOK 28/00 Q1007 NOSIG
ZBSJ,2015-05-19 09:00,ZBSJ 190900Z 35006G12MPS 330V030 CAVOK 28/M02 Q1007 NOSIG
ZBSJ,2015-05-19 10:00,ZBSJ 191000Z 36005MPS 320V020 CAVOK 27/M03 Q1008 NOSIG
ZBSJ,2015-05-19 11:00,ZBSJ 191100Z 02002MPS CAVOK 24/02 Q1008 NOSIG
ZBSJ,2015-05-19 12:00,ZBSJ 191200Z 04001MPS CAVOK 21/01 Q1010 NOSIG
ZBSJ,2015-05-19 13:00,ZBSJ 191300Z 10001MPS CAVOK 19/00 Q1011 NOSIG
ZBSJ,2015-05-19 14:00,ZBSJ 191400Z 28001MPS CAVOK 18/02 Q1012 NOSIG
ZBSJ,2015-05-19 15:00,ZBSJ 191500Z 00000MPS CAVOK 16/03 Q1014 NOSIG
ZBSJ,2015-05-19 16:00,ZBSJ 191600Z 22001MPS CAVOK 16/03 Q1015 NOSIG
ZBSJ,2015-05-19 17:00,ZBSJ 191700Z 29002MPS CAVOK 15/04 Q1015 NOSIG
ZBSJ,2015-05-19 18:00,ZBSJ 191800Z 33001MPS CAVOK 12/05 Q1015 NOSIG
ZBSJ,2015-05-19 19:00,ZBSJ 191900Z 31003MPS CAVOK 14/03 Q1015 NOSIG
ZBSJ,2015-05-19 20:00,ZBSJ 192000Z 32003MPS CAVOK 14/03 Q1016 NOSIG
ZBSJ,2015-05-19 21:00,ZBSJ 192100Z 33003MPS CAVOK 13/03 Q1017 NOSIG
ZBSJ,2015-05-19 22:00,ZBSJ 192200Z 30001MPS CAVOK 15/04 Q1017 NOSIG
ZBSJ,2015-05-19 23:00,ZBSJ 192300Z 30003MPS 270V330 CAVOK 19/06 Q1018 NOSIG
ZBSJ,2015-05-20 00:00,ZBSJ 200000Z 33004MPS CAVOK 22/07 Q1018 NOSIG
ZBSJ,2015-05-20 01:00,ZBSJ 200100Z 35003MPS 320V020 CAVOK 24/07 Q1019 NOSIG
ZBSJ,2015-05-20 02:00,ZBSJ 200200Z 04002MPS 340V090 CAVOK 25/08 Q1018 NOSIG
ZBSJ,2015-05-20 03:00,ZBSJ 200300Z 07002MPS 360V120 CAVOK 25/06 Q1018 NOSIG
ZBSJ,2015-05-20 04:00,ZBSJ 200400Z 06002MPS 330V110 CAVOK 26/06 Q1018 NOSIG
ZBSJ,2015-05-20 05:00,ZBSJ 200500Z 10003MPS 060V140 CAVOK 27/07 Q1017 NOSIG
ZBSJ,2015-05-20 06:00,ZBSJ 200600Z 17003MPS 100V210 CAVOK 27/06 Q1017 NOSIG
ZBSJ,2015-05-20 07:00,ZBSJ 200700Z 12003MPS 090V160 CAVOK 27/05 Q1016 NOSIG
ZBSJ,2015-05-20 08:00,ZBSJ 200800Z 17002MPS CAVOK 27/05 Q1015 NOSIG
ZBSJ,2015-05-20 09:00,ZBSJ 200900Z 15003MPS CAVOK 26/06 Q1015 NOSIG
ZBSJ,2015-05-20 10:00,ZBSJ 201000Z 15002MPS CAVOK 25/09 Q1015 NOSIG
ZBSJ,2015-05-20 11:00,ZBSJ 201100Z 18002MPS CAVOK 23/07 Q1015 NOSIG
ZBSJ,2015-05-20 12:00,ZBSJ 201200Z 17002MPS CAVOK 19/08 Q1015 NOSIG
ZBSJ,2015-05-20 13:00,ZBSJ 201300Z 19002MPS CAVOK 19/08 Q1015 NOSIG
ZBSJ,2015-05-20 14:00,ZBSJ 201400Z 21002MPS CAVOK 20/07 Q1016 NOSIG
ZBSJ,2015-05-20 15:00,ZBSJ 201500Z 18001MPS CAVOK 18/07 Q1016 NOSIG
ZBSJ,2015-05-20 16:00,ZBSJ 201600Z 24001MPS CAVOK 17/08 Q1016 NOSIG
ZBSJ,2015-05-20 17:00,ZBSJ 201700Z 12001MPS CAVOK 15/09 Q1015 NOSIG
ZBSJ,2015-05-20 18:00,ZBSJ 201800Z 16002MPS CAVOK 15/08 Q1015 NOSIG
ZBSJ,2015-05-20 19:00,ZBSJ 201900Z 25002MPS CAVOK 17/09 Q1015 NOSIG
ZBSJ,2015-05-20 20:00,ZBSJ 202000Z 07001MPS CAVOK 15/11 Q1014 NOSIG
ZBSJ,2015-05-20 21:00,ZBSJ 202100Z 20001MPS CAVOK 16/09 Q1014 NOSIG
ZBSJ,2015-05-20 22:00,ZBSJ 202200Z 25001MPS CAVOK 17/08 Q1014 NOSIG
ZBSJ,2015-05-20 23:00,ZBSJ 202300Z 25002MPS CAVOK 18/10 Q1015 NOSIG
ZBSJ,2015-05-21 00:00,ZBSJ 210000Z 29002MPS CAVOK 19/09 Q1015 NOSIG
ZBSJ,2015-05-21 01:00,ZBSJ 210100Z 22004MPS CAVOK 19/09 Q1016 NOSIG
ZBSJ,2015-05-21 02:00,ZBSJ 210200Z 23007MPS CAVOK 22/10 Q1015 NOSIG
ZBSJ,2015-05-21 03:00,ZBSJ 210300Z 21005MPS CAVOK 23/09 Q1015 NOSIG
ZBSJ,2015-05-21 04:00,ZBSJ 210400Z 22006MPS CAVOK 24/09 Q1015 NOSIG
ZBSJ,2015-05-21 05:00,ZBSJ 210500Z 21007MPS CAVOK 26/09 Q1014 NOSIG
ZBSJ,2015-05-21 06:00,ZBSJ 210600Z 20006MPS CAVOK 27/08 Q1013 NOSIG
ZBSJ,2015-05-21 07:00,ZBSJ 210700Z 18007MPS CAVOK 26/09 Q1012 NOSIG
ZBSJ,2015-05-21 08:00,ZBSJ 210800Z 18007MPS CAVOK 26/10 Q1011 NOSIG
ZBSJ,2015-05-21 09:00,ZBSJ 210900Z 18006MPS CAVOK 24/09 Q1011 NOSIG
ZBSJ,2015-05-21 10:00,ZBSJ 211000Z 17004MPS CAVOK 23/10 Q1011 NOSIG
ZBSJ,2015-05-21 11:00,ZBSJ 211100Z 17004MPS CAVOK 20/09 Q1011 NOSIG
ZBSJ,2015-05-21 12:00,ZBSJ 211200Z 16003MPS CAVOK 16/10 Q1011 NOSIG
ZBSJ,2015-05-21 13:00,ZBSJ 211300Z 16002MPS CAVOK 15/10 Q1012 NOSIG
ZBSJ,2015-05-21 14:00,ZBSJ 211400Z 17002MPS CAVOK 14/10 Q1012 NOSIG
ZBSJ,2015-05-21 15:00,ZBSJ 211500Z 17002MPS CAVOK 14/10 Q1011 NOSIG
ZBSJ,2015-05-21 16:00,ZBSJ 211600Z 17001MPS CAVOK 14/10 Q1011 NOSIG
ZBSJ,2015-05-21 17:00,ZBSJ 211700Z 19001MPS CAVOK 14/10 Q1011 NOSIG
ZBSJ,2015-05-21 18:00,ZBSJ 211800Z 17001MPS CAVOK 13/10 Q1011 NOSIG
ZBSJ,2015-05-21 19:00,ZBSJ 211900Z 24001MPS CAVOK 13/10 Q1010 NOSIG
ZBSJ,2015-05-21 20:00,ZBSJ 212000Z 17001MPS CAVOK 11/10 Q1010 NOSIG
ZBSJ,2015-05-21 21:00,ZBSJ 212100Z 00000MPS CAVOK 11/10 Q1010 NOSIG
ZBSJ,2015-05-21 22:00,ZBSJ 212200Z 18001MPS 6000 NSC 13/11 Q1010 NOSIG
ZBSJ,2015-05-21 23:00,ZBSJ 212300Z 23001MPS 5000 BR NSC 16/12 Q1011 NOSIG
ZBSJ,2015-05-22 00:00,ZBSJ 220000Z 12001MPS 5000 FU NSC 19/12 Q1011 NOSIG
ZBSJ,2015-05-22 01:00,ZBSJ 220100Z 15001MPS 5000 FU NSC 22/13 Q1010 NOSIG
ZBSJ,2015-05-22 02:00,ZBSJ 220200Z 13001MPS 5000 FU NSC 24/14 Q1010 NOSIG
ZBSJ,2015-05-22 03:00,ZBSJ 220300Z 13002MPS 6000 NSC 25/15 Q1010 NOSIG
ZBSJ,2015-05-22 04:00,ZBSJ 220400Z 14002MPS 6000 NSC 27/16 Q1010 NOSIG
ZBSJ,2015-05-22 05:00,ZBSJ 220500Z 14002MPS 8000 NSC 28/13 Q1009 NOSIG
ZBSJ,2015-05-22 06:00,ZBSJ 220600Z 11003MPS CAVOK 28/15 Q1008 NOSIG
ZBSJ,2015-05-22 07:00,ZBSJ 220700Z 15004MPS 110V180 CAVOK 29/14 Q1008 NOSIG
ZBSJ,2015-05-22 08:00,ZBSJ 220800Z 13002MPS 080V170 CAVOK 29/14 Q1007 NOSIG
ZBSJ,2015-05-22 09:00,ZBSJ 220900Z 14003MPS 110V170 CAVOK 28/17 Q1007 NOSIG
ZBSJ,2015-05-22 10:00,ZBSJ 221000Z 16003MPS CAVOK 26/16 Q1007 NOSIG
ZBSJ,2015-05-22 11:00,ZBSJ 221100Z 17002MPS CAVOK 24/16 Q1007 NOSIG
ZBSJ,2015-05-22 12:00,ZBSJ 221200Z 09001MPS 8000 NSC 21/15 Q1008 NOSIG
ZBSJ,2015-05-22 13:00,ZBSJ 221300Z 12002MPS 8000 NSC 20/14 Q1009 NOSIG
ZBSJ,2015-05-22 14:00,ZBSJ 221400Z 16001MPS 8000 NSC 19/13 Q1009 NOSIG
ZBSJ,2015-05-22 15:00,ZBSJ 221500Z 15001MPS 7000 NSC 19/13 Q1009 NOSIG
ZBSJ,2015-05-22 16:00,ZBSJ 221600Z 16002MPS 6000 NSC 19/14 Q1008 NOSIG
ZBSJ,2015-05-22 17:00,ZBSJ 221700Z 15002MPS 6000 NSC 16/13 Q1008 NOSIG
ZBSJ,2015-05-22 18:00,ZBSJ 221800Z 14001MPS 6000 NSC 16/13 Q1008 NOSIG
ZBSJ,2015-05-22 19:00,ZBSJ 221900Z 15001MPS 5000 BR NSC 15/13 Q1008 NOSIG
ZBSJ,2015-05-22 20:00,ZBSJ 222000Z 18001MPS 5000 BR NSC 15/13 Q1008 NOSIG
ZBSJ,2015-05-22 21:00,ZBSJ 222100Z 00000MPS 5000 BR NSC 14/12 Q1008 NOSIG
ZBSJ,2015-05-22 22:00,ZBSJ 222200Z 00000MPS 2200 BR NSC 14/13 Q1009 NOSIG
ZBSJ,2015-05-22 23:00,ZBSJ 222300Z 00000MPS 2000 BR NSC 18/16 Q1009 BECMG 3500
ZBSJ,2015-05-23 00:00,ZBSJ 230000Z 00000MPS 2000 BR NSC 20/16 Q1009 BECMG 3500
ZBSJ,2015-05-23 01:00,ZBSJ 230100Z 02001MPS 2000 HZ NSC 22/17 Q1009 BECMG 3500
ZBSJ,2015-05-23 02:00,ZBSJ 230200Z 11001MPS 2500 HZ NSC 25/17 Q1009 BECMG 3500
ZBSJ,2015-05-23 03:00,ZBSJ 230300Z 15002MPS 2200 HZ NSC 26/18 Q1009 BECMG 3500
ZBSJ,2015-05-23 04:00,ZBSJ 230400Z 17002MPS 120V260 3000 HZ NSC 28/16 Q1009 NOSIG
ZBSJ,2015-05-23 05:00,ZBSJ 230500Z 18002MPS 100V210 2800 HZ NSC 29/18 Q1008 NOSIG
ZBSJ,2015-05-23 06:00,ZBSJ 230600Z 17004MPS 4500 HZ NSC 30/17 Q1007 NOSIG
ZBSJ,2015-05-23 07:00,ZBSJ 230700Z 16004MPS 5000 HZ NSC 30/18 Q1007 NOSIG
ZBSJ,2015-05-23 08:00,ZBSJ 230800Z 16004MPS 8000 NSC 29/17 Q1007 NOSIG
ZBSJ,2015-05-23 09:00,ZBSJ 230900Z 18003MPS CAVOK 29/17 Q1006 NOSIG
ZBSJ,2015-05-23 10:00,ZBSJ 231000Z 16002MPS CAVOK 28/18 Q1006 NOSIG
ZBSJ,2015-05-23 11:00,ZBSJ 231100Z 16001MPS CAVOK 26/17 Q1007 NOSIG
ZBSJ,2015-05-23 12:00,ZBSJ 231200Z 14002MPS 6000 NSC 23/17 Q1007 NOSIG
ZBSJ,2015-05-23 13:00,ZBSJ 231300Z 17002MPS 5000 HZ NSC 21/17 Q1008 NOSIG
ZBSJ,2015-05-23 14:00,ZBSJ 231400Z 15001MPS 5000 BR NSC 20/16 Q1008 NOSIG
ZBSJ,2015-05-23 15:00,ZBSJ 231500Z 18001MPS 4500 BR NSC 19/16 Q1008 NOSIG
ZBSJ,2015-05-23 16:00,ZBSJ 231600Z 15001MPS 4000 BR NSC 18/16 Q1008 NOSIG
ZBSJ,2015-05-23 17:00,ZBSJ 231700Z 17001MPS 4500 BR NSC 17/16 Q1008 NOSIG
ZBSJ,2015-05-23 18:00,ZBSJ 231800Z 16001MPS 4500 BR NSC 17/15 Q1008 NOSIG
ZBSJ,2015-05-23 19:00,ZBSJ 231900Z 21001MPS 4000 BR NSC 17/15 Q1008 NOSIG
ZBSJ,2015-05-23 20:00,ZBSJ 232000Z 18001MPS 4000 BR NSC 17/15 Q1007 NOSIG
ZBSJ,2015-05-23 21:00,ZBSJ 232100Z 23002MPS 2000 BR NSC 17/15 Q1007 NOSIG
ZBSJ,2015-05-23 22:00,ZBSJ 232200Z 30001MPS 1200 R15/1500N BR NSC 16/15 Q1008 NOSIG
ZBSJ,2015-05-23 23:00,ZBSJ 232300Z 00000MPS 1000 R15/1300N BR NSC 20/18 Q1008 BECMG 2800
ZBSJ,2015-05-24 00:00,ZBSJ 240000Z 28001MPS 1600 HZ NSC 23/17 Q1008 BECMG 3500
ZBSJ,2015-05-24 01:00,ZBSJ 240100Z 26001MPS 3000 HZ NSC 26/17 Q1008 NOSIG
ZBSJ,2015-05-24 02:00,ZBSJ 240200Z 07001MPS 3000 HZ NSC 27/18 Q1008 NOSIG
ZBSJ,2015-05-24 03:00,ZBSJ 240300Z 16002MPS 090V210 4000 HZ NSC 29/19 Q1008 NOSIG
ZBSJ,2015-05-24 04:00,ZBSJ 240400Z 17003MPS 130V210 5000 HZ NSC 30/17 Q1007 NOSIG
ZBSJ,2015-05-24 05:00,ZBSJ 240500Z 15004MPS 5000 HZ NSC 31/17 Q1006 NOSIG
ZBSJ,2015-05-24 06:00,ZBSJ 240600Z 16005MPS 8000 NSC 32/16 Q1005 NOSIG
ZBSJ,2015-05-24 07:00,ZBSJ 240700Z 17004MPS CAVOK 30/14 Q1005 NOSIG
ZBSJ,2015-05-24 08:00,ZBSJ 240800Z 17003MPS CAVOK 29/16 Q1005 NOSIG
ZBSJ,2015-05-24 09:00,ZBSJ 240900Z 15003MPS 120V190 CAVOK 28/16 Q1005 NOSIG
ZBSJ,2015-05-24 10:00,ZBSJ 241000Z 16003MPS CAVOK 27/17 Q1005 NOSIG
ZBSJ,2015-05-24 11:00,ZBSJ 241100Z 17003MPS CAVOK 25/15 Q1005 NOSIG
ZBSJ,2015-05-24 12:00,ZBSJ 241200Z 14001MPS CAVOK 23/15 Q1006 NOSIG
ZBSJ,2015-05-24 13:00,ZBSJ 241300Z 17002MPS CAVOK 22/15 Q1006 NOSIG
ZBSJ,2015-05-24 14:00,ZBSJ 241400Z 16002MPS 8000 NSC 22/14 Q1006 NOSIG
ZBSJ,2015-05-24 15:00,ZBSJ 241500Z 15002MPS 6000 NSC 21/14 Q1006 NOSIG
ZBSJ,2015-05-24 16:00,ZBSJ 241600Z 18002MPS 6000 NSC 20/14 Q1006 NOSIG
ZBSJ,2015-05-24 17:00,ZBSJ 241700Z 21001MPS 6000 NSC 19/14 Q1006 NOSIG
ZBSJ,2015-05-24 18:00,ZBSJ 241800Z 17001MPS 5000 BR NSC 18/15 Q1006 NOSIG
ZBSJ,2015-05-24 19:00,ZBSJ 241900Z 23002MPS 5000 HZ NSC 19/14 Q1005 NOSIG
ZBSJ,2015-05-24 20:00,ZBSJ 242000Z 18001MPS 4000 BR NSC 16/14 Q1005 NOSIG
ZBSJ,2015-05-24 21:00,ZBSJ 242100Z 15001MPS 3500 BR NSC 16/14 Q1006 NOSIG
ZBSJ,2015-05-24 22:00,ZBSJ 242200Z 19001MPS 3000 BR NSC 16/15 Q1006 NOSIG
ZBSJ,2015-05-24 23:00,ZBSJ 242300Z 00000MPS 3000 BR NSC 20/17 Q1007 NOSIG
ZBSJ,2015-05-25 00:00,ZBSJ 250000Z 01001MPS 4000 HZ NSC 23/16 Q1007 NOSIG
ZBSJ,2015-05-25 01:00,ZBSJ 250100Z 13002MPS 5000 HZ NSC 25/17 Q1007 NOSIG
ZBSJ,2015-05-25 02:00,ZBSJ 250200Z 13002MPS 4500 HZ NSC 26/18 Q1007 NOSIG
ZBSJ,2015-05-25 03:00,ZBSJ 250300Z 15003MPS 110V190 4500 HZ NSC 28/18 Q1007 NOSIG
ZBSJ,2015-05-25 04:00,ZBSJ 250400Z 16004MPS 4000 HZ NSC 30/18 Q1006 NOSIG
ZBSJ,2015-05-25 05:00,ZBSJ 250500Z 16004MPS 4000 HZ NSC 32/20 Q1006 NOSIG
ZBSJ,2015-05-25 06:00,ZBSJ 250600Z 16005MPS 5000 HZ NSC 33/20 Q1005 NOSIG
ZBSJ,2015-05-25 07:00,ZBSJ 250700Z 16005MPS CAVOK 32/18 Q1005 NOSIG
ZBSJ,2015-05-25 08:00,ZBSJ 250800Z 16006MPS CAVOK 31/17 Q1005 NOSIG
ZBSJ,2015-05-25 09:00,ZBSJ 250900Z 17006MPS CAVOK 30/17 Q1005 NOSIG
ZBSJ,2015-05-25 10:00,ZBSJ 251000Z 16004MPS CAVOK 29/18 Q1005 NOSIG
ZBSJ,2015-05-25 11:00,ZBSJ 251100Z 15003MPS CAVOK 26/17 Q1005 NOSIG
ZBSJ,2015-05-25 12:00,ZBSJ 251200Z 15003MPS CAVOK 24/16 Q1006 NOSIG
ZBSJ,2015-05-25 13:00,ZBSJ 251300Z 16003MPS 8000 NSC 22/16 Q1007 NOSIG
ZBSJ,2015-05-25 14:00,ZBSJ 251400Z 16003MPS 7000 NSC 21/16 Q1007 NOSIG
ZBSJ,2015-05-25 15:00,ZBSJ 251500Z 19003MPS 7000 NSC 22/16 Q1007 NOSIG
ZBSJ,2015-05-25 16:00,ZBSJ 251600Z 17002MPS 7000 NSC 21/15 Q1007 NOSIG
ZBSJ,2015-05-25 17:00,ZBSJ 251700Z 17001MPS 6000 NSC 19/16 Q1007 NOSIG
ZBSJ,2015-05-25 18:00,ZBSJ 251800Z 18001MPS 5000 HZ NSC 18/16 Q1007 NOSIG
ZBSJ,2015-05-25 19:00,ZBSJ 251900Z 17002MPS 4000 HZ NSC 18/16 Q1006 NOSIG
ZBSJ,2015-05-25 20:00,ZBSJ 252000Z 18001MPS 4000 HZ NSC 17/16 Q1006 NOSIG
ZBSJ,2015-05-25 21:00,ZBSJ 252100Z 21001MPS 2700 HZ NSC 17/16 Q1007 NOSIG
ZBSJ,2015-05-25 22:00,ZBSJ 252200Z 16001MPS 2300 HZ NSC 17/16 Q1007 NOSIG
ZBSJ,2015-05-25 23:00,ZBSJ 252300Z 15001MPS 2000 HZ NSC 21/18 Q1007 BECMG 3500
ZBSJ,2015-05-26 00:00,ZBSJ 260000Z 15001MPS 2500 HZ NSC 23/18 Q1008 BECMG 3500
ZBSJ,2015-05-26 01:00,ZBSJ 260100Z 16001MPS 2800 HZ NSC 26/19 Q1008 BECMG 3500
ZBSJ,2015-05-26 02:00,ZBSJ 260200Z 14003MPS 3500 HZ NSC 28/18 Q1007 NOSIG
ZBSJ,2015-05-26 03:00,ZBSJ 260300Z 19003MPS 3000 HZ NSC 29/19 Q1007 NOSIG
ZBSJ,2015-05-26 04:00,ZBSJ 260400Z 17004MPS 4500 HZ NSC 31/19 Q1006 NOSIG
ZBSJ,2015-05-26 05:00,ZBSJ 260500Z 17006MPS 5000 HZ NSC 31/18 Q1006 NOSIG
ZBSJ,2015-05-26 06:00,ZBSJ 260600Z 17005MPS 140V200 7000 NSC 32/20 Q1006 NOSIG
ZBSJ,2015-05-26 07:00,ZBSJ 260700Z 15005MPS 8000 NSC 31/19 Q1005 NOSIG
ZBSJ,2015-05-26 08:00,ZBSJ 260800Z 15006MPS 8000 NSC 31/19 Q1004 NOSIG
ZBSJ,2015-05-26 09:00,ZBSJ 260900Z 16005MPS 8000 NSC 30/20 Q1004 NOSIG
ZBSJ,2015-05-26 10:00,ZBSJ 261000Z 16004MPS CAVOK 28/19 Q1004 NOSIG
ZBSJ,2015-05-26 11:00,ZBSJ 261100Z 16003MPS 7000 NSC 26/19 Q1004 NOSIG
ZBSJ,2015-05-26 12:00,ZBSJ 261200Z 15003MPS 7000 NSC 24/18 Q1004 NOSIG
ZBSJ,2015-05-26 13:00,ZBSJ 261300Z 17003MPS 7000 NSC 24/18 Q1006 NOSIG
ZBSJ,2015-05-26 14:00,ZBSJ 261400Z 16003MPS 5000 BR NSC 21/18 Q1006 NOSIG
ZBSJ,2015-05-26 15:00,ZBSJ 261500Z 16002MPS 5000 BR NSC 20/18 Q1006 NOSIG
ZBSJ,2015-05-26 16:00,ZBSJ 261600Z 14001MPS 4500 BR NSC 20/18 Q1006 NOSIG
ZBSJ,2015-05-26 17:00,ZBSJ 261700Z 14001MPS 4000 BR NSC 20/18 Q1006 NOSIG
ZBSJ,2015-05-26 18:00,ZBSJ 261800Z 15002MPS 3500 BR NSC 19/18 Q1005 NOSIG
ZBSJ,2015-05-26 19:00,ZBSJ 261900Z 13002MPS 3500 BR NSC 19/18 Q1005 NOSIG
ZBSJ,2015-05-26 20:00,ZBSJ 262000Z 13001MPS 2500 BR NSC 18/17 Q1004 NOSIG
ZBSJ,2015-05-26 21:00,ZBSJ 262100Z 13001MPS 1800 BR NSC 17/17 Q1005 NOSIG
ZBSJ,2015-05-26 22:00,ZBSJ 262200Z 00000MPS 1400 R15/1300D BR NSC 18/17 Q1005 NOSIG
ZBSJ,2015-05-26 23:00,ZBSJ 262300Z 07001MPS 1400 R15/1200N BR NSC 19/19 Q1005 BECMG 2500
ZBSJ,2015-05-27 00:00,ZBSJ 270000Z 07001MPS 1400 R15/1200N BR NSC 21/19 Q1006 NOSIG
ZBSJ,2015-05-27 01:00,ZBSJ 270100Z 11001MPS 1400 R15/1200U BR NSC 23/20 Q1005 BECMG 3500
ZBSJ,2015-05-27 02:00,ZBSJ 270200Z 07002MPS 1600 R15/1300N BR NSC 24/20 Q1005 BECMG 3500
ZBSJ,2015-05-27 03:00,ZBSJ 270300Z 13002MPS 1600 BR NSC 26/21 Q1005 BECMG 3500
ZBSJ,2015-05-27 04:00,ZBSJ 270400Z 11002MPS 080V140 1600 HZ NSC 27/21 Q1005 NOSIG
ZBSJ,2015-05-27 05:00,ZBSJ 270500Z 13002MPS 060V180 1800 HZ NSC 28/22 Q1004 NOSIG
ZBSJ,2015-05-27 06:00,ZBSJ 270600Z 12002MPS 1800 R15/1400N HZ NSC 29/22 Q1004 NOSIG
ZBSJ,2015-05-27 07:00,ZBSJ 270700Z 15004MPS 120V180 4000 HZ NSC 30/19 Q1003 NOSIG
ZBSJ,2015-05-27 08:00,ZBSJ 270800Z 14004MPS 8000 NSC 30/20 Q1003 NOSIG
ZBSJ,2015-05-27 09:00,ZBSJ 270900Z 14003MPS CAVOK 29/18 Q1003 NOSIG
ZBSJ,2015-05-27 10:00,ZBSJ 271000Z 15002MPS CAVOK 28/18 Q1003 NOSIG
ZBSJ,2015-05-27 11:00,ZBSJ 271100Z 14001MPS CAVOK 26/18 Q1003 NOSIG
ZBSJ,2015-05-27 12:00,ZBSJ 271200Z 15001MPS CAVOK 24/18 Q1003 NOSIG
ZBSJ,2015-05-27 13:00,ZBSJ 271300Z 09001MPS CAVOK 23/18 Q1004 NOSIG
ZBSJ,2015-05-27 14:00,ZBSJ 271400Z 14001MPS 8000 NSC 22/18 Q1005 NOSIG
ZBSJ,2015-05-27 15:00,ZBSJ 271500Z 14001MPS 6000 NSC 22/18 Q1005 NOSIG
ZBSJ,2015-05-27 16:00,ZBSJ 271600Z 16002MPS 6000 NSC 21/18 Q1005 NOSIG
ZBSJ,2015-05-27 17:00,ZBSJ 271700Z 17003MPS 6000 NSC 21/18 Q1004 NOSIG
ZBSJ,2015-05-27 18:00,ZBSJ 271800Z 18003MPS 5000 HZ NSC 21/19 Q1004 NOSIG
ZBSJ,2015-05-27 19:00,ZBSJ 271900Z 18002MPS 4000 BR NSC 20/19 Q1003 NOSIG
ZBSJ,2015-05-27 20:00,ZBSJ 272000Z 16002MPS 3500 BR NSC 20/18 Q1003 NOSIG
ZBSJ,2015-05-27 21:00,ZBSJ 272100Z 16002MPS 2500 BR NSC 19/18 Q1003 NOSIG
ZBSJ,2015-05-27 22:00,ZBSJ 272200Z 15001MPS 1800 BR NSC 19/18 Q1004 NOSIG
ZBSJ,2015-05-27 23:00,ZBSJ 272300Z 16003MPS 2000 BR NSC 21/19 Q1004 NOSIG
ZBSJ,2015-05-28 00:00,ZBSJ 280000Z 18003MPS 2500 BR NSC 22/19 Q1004 NOSIG
ZBSJ,2015-05-28 01:00,ZBSJ 280100Z 17002MPS 150V210 2500 BR NSC 24/19 Q1004 NOSIG
ZBSJ,2015-05-28 02:00,ZBSJ 280200Z 15003MPS 2500 HZ NSC 25/20 Q1004 NOSIG
ZBSJ,2015-05-28 03:00,ZBSJ 280300Z 15003MPS 2500 HZ NSC 25/20 Q1004 NOSIG
ZBSJ,2015-05-28 04:00,ZBSJ 280400Z 17004MPS 4000 HZ NSC 29/21 Q1003 NOSIG
ZBSJ,2015-05-28 05:00,ZBSJ 280500Z 16005MPS 7000 NSC 29/19 Q1003 NOSIG
ZBSJ,2015-05-28 06:00,ZBSJ 280600Z 17003MPS 8000 NSC 28/19 Q1003 NOSIG
ZBSJ,2015-05-28 07:00,ZBSJ 280700Z 17002MPS 6000 NSC 27/20 Q1003 NOSIG
ZBSJ,2015-05-28 08:00,ZBSJ 280800Z 14001MPS 5000 -RA HZ NSC 27/20 Q1003 NOSIG
ZBSJ,2015-05-28 09:00,ZBSJ 280900Z 14001MPS 6000 NSC 27/20 Q1003 NOSIG
ZBSJ,2015-05-28 10:00,ZBSJ 281000Z 18001MPS 6000 NSC 27/20 Q1003 NOSIG
ZBSJ,2015-05-28 11:00,ZBSJ 281100Z 16001MPS 6000 NSC 26/20 Q1004 NOSIG
ZBSJ,2015-05-28 12:00,ZBSJ 281200Z 09001MPS 6000 NSC 24/20 Q1004 NOSIG
ZBSJ,2015-05-28 13:00,ZBSJ 281300Z 14001MPS 6000 NSC 24/20 Q1005 NOSIG
ZBSJ,2015-05-28 14:00,ZBSJ 281400Z 16002MPS 6000 NSC 22/20 Q1005 NOSIG
ZBSJ,2015-05-28 15:00,ZBSJ 281500Z 19002MPS 6000 NSC 24/18 Q1005 NOSIG
ZBSJ,2015-05-28 16:00,ZBSJ 281600Z 00000MPS 6000 NSC 22/19 Q1005 NOSIG
ZBSJ,2015-05-28 17:00,ZBSJ 281700Z 00000MPS 5000 BR NSC 22/19 Q1004 NOSIG
ZBSJ,2015-05-28 18:00,ZBSJ 281800Z 26001MPS 4000 BR NSC 22/19 Q1005 NOSIG
ZBSJ,2015-05-28 19:00,ZBSJ 281900Z 00000MPS 5000 BR NSC 22/19 Q1005 NOSIG
ZBSJ,2015-05-28 20:00,ZBSJ 282000Z 34001MPS 5000 BR NSC 21/20 Q1005 NOSIG
ZBSJ,2015-05-28 21:00,ZBSJ 282100Z 33002MPS 2000 -RA BR NSC 21/20 Q1005 NOSIG
ZBSJ,2015-05-28 22:00,ZBSJ 282200Z 34003MPS 1400 R15/2000U -RA BR NSC 21/21 Q1006 NOSIG
ZBSJ,2015-05-28 23:00,ZBSJ 282300Z 33003MPS 1300 R33/1700D -RA BR NSC 21/21 Q1007 NOSIG
ZBSJ,2015-05-29 00:00,ZBSJ 290000Z 34003MPS 7000 -RA OVC040 21/19 Q1007 NOSIG
ZBSJ,2015-05-29 01:00,ZBSJ 290100Z 04002MPS 360V070 7000 OVC040 21/19 Q1007 NOSIG
ZBSJ,2015-05-29 02:00,ZBSJ 290200Z 02001MPS 7000 OVC040 22/20 Q1008 NOSIG
ZBSJ,2015-05-29 03:00,ZBSJ 290300Z 36001MPS 7000 OVC046 24/19 Q1008 NOSIG
ZBSJ,2015-05-29 04:00,ZBSJ 290400Z 32002MPS 7000 BKN046 25/19 Q1008 NOSIG
ZBSJ,2015-05-29 05:00,ZBSJ 290500Z 27002MPS 9999 BKN046 26/19 Q1007 NOSIG
ZBSJ,2015-05-29 06:00,ZBSJ 290600Z 29003MPS 210V320 9999 BKN046 27/18 Q1007 NOSIG
ZBSJ,2015-05-29 07:00,ZBSJ 290700Z 24002MPS 190V290 9999 BKN046 28/17 Q1006 NOSIG
ZBSJ,2015-05-29 08:00,ZBSJ 290800Z 18002MPS 150V230 CAVOK 28/16 Q1005 NOSIG
ZBSJ,2015-05-29 09:00,ZBSJ 290900Z 17002MPS CAVOK 27/15 Q1005 NOSIG
ZBSJ,2015-05-29 10:00,ZBSJ 291000Z 17002MPS CAVOK 27/15 Q1005 NOSIG
ZBSJ,2015-05-29 11:00,ZBSJ 291100Z 15002MPS CAVOK 25/17 Q1005 NOSIG
ZBSJ,2015-05-29 12:00,ZBSJ 291200Z 17002MPS CAVOK 21/19 Q1006 NOSIG
ZBSJ,2015-05-29 13:00,ZBSJ 291300Z 17002MPS CAVOK 20/18 Q1006 NOSIG
ZBSJ,2015-05-29 14:00,ZBSJ 291400Z 17002MPS 5000 BR NSC 19/18 Q1007 NOSIG
ZBSJ,2015-05-29 15:00,ZBSJ 291500Z 17002MPS 5000 BR NSC 19/18 Q1007 NOSIG
ZBSJ,2015-05-29 16:00,ZBSJ 291600Z 19001MPS 6000 NSC 20/18 Q1007 NOSIG
ZBSJ,2015-05-29 17:00,ZBSJ 291700Z 07002MPS 6000 NSC 18/17 Q1007 NOSIG
ZBSJ,2015-05-29 18:00,ZBSJ 291800Z 11001MPS 6000 NSC 17/16 Q1007 NOSIG
ZBSJ,2015-05-29 19:00,ZBSJ 291900Z 09001MPS 4500 BR NSC 16/15 Q1007 NOSIG
ZBSJ,2015-05-29 20:00,ZBSJ 292000Z 36001MPS 4500 BR NSC 16/15 Q1008 NOSIG
ZBSJ,2015-05-29 21:00,ZBSJ 292100Z 13001MPS 2500 BR NSC 16/16 Q1008 NOSIG
ZBSJ,2015-05-29 22:00,ZBSJ 292200Z 15001MPS 2500 BR NSC 18/17 Q1009 NOSIG
ZBSJ,2015-05-29 23:00,ZBSJ 292300Z 08001MPS 2200 BR NSC 20/19 Q1009 BECMG 3500
ZBSJ,2015-05-30 00:00,ZBSJ 300000Z 29001MPS 2700 BR NSC 24/19 Q1010 BECMG TL0030 3500
ZBSJ,2015-05-30 01:00,ZBSJ 300100Z 17002MPS 3500 HZ NSC 25/19 Q1009 NOSIG
ZBSJ,2015-05-30 02:00,ZBSJ 300200Z 18003MPS 130V220 8000 NSC 28/17 Q1009 NOSIG
ZBSJ,2015-05-30 03:00,ZBSJ 300300Z 18003MPS 140V210 CAVOK 28/15 Q1009 NOSIG
ZBSJ,2015-05-30 04:00,ZBSJ 300400Z 16003MPS 120V200 CAVOK 30/17 Q1008 NOSIG
ZBSJ,2015-05-30 05:00,ZBSJ 300500Z 15004MPS CAVOK 30/16 Q1007 NOSIG
ZBSJ,2015-05-30 06:00,ZBSJ 300600Z 15005MPS CAVOK 31/16 Q1006 NOSIG
ZBSJ,2015-05-30 07:00,ZBSJ 300700Z 15003MPS 110V180 CAVOK 31/16 Q1006 NOSIG
ZBSJ,2015-05-30 08:00,ZBSJ 300800Z 14006MPS 9999 -TSRA FEW033CB SCT046 25/17 Q1005 NOSIG
ZBSJ,2015-05-30 09:00,ZBSJ 300900Z 19005MPS 9999 BKN046 26/17 Q1004 RETS NOSIG
ZBSJ,2015-05-30 10:00,ZBSJ 301000Z 23002MPS 9999 TS FEW033CB BKN046 25/15 Q1005 NOSIG
ZBSJ,2015-05-30 11:00,ZBSJ 301100Z 21006MPS 9999 TS FEW033CB BKN046 24/13 Q1005 NOSIG
ZBSJ,2015-05-30 12:00,ZBSJ 301200Z 24005MPS 9999 BKN046 22/15 Q1006 RETS NOSIG
ZBSJ,2015-05-30 13:00,ZBSJ 301300Z 26005MPS CAVOK 22/14 Q1007 NOSIG
ZBSJ,2015-05-30 14:00,ZBSJ 301400Z 27004MPS CAVOK 22/14 Q1006 NOSIG
ZBSJ,2015-05-30 15:00,ZBSJ 301500Z 27003MPS CAVOK 21/14 Q1006 NOSIG
ZBSJ,2015-05-30 16:00,ZBSJ 301600Z 25002MPS CAVOK 21/13 Q1006 NOSIG
ZBSJ,2015-05-30 17:00,ZBSJ 301700Z 28003MPS CAVOK 20/13 Q1005 NOSIG
ZBSJ,2015-05-30 18:00,ZBSJ 301800Z 28003MPS CAVOK 20/14 Q1005 NOSIG
ZBSJ,2015-05-30 19:00,ZBSJ 301900Z 22001MPS CAVOK 16/14 Q1004 NOSIG
ZBSJ,2015-05-30 20:00,ZBSJ 302000Z 19001MPS CAVOK 16/14 Q1004 NOSIG
ZBSJ,2015-05-30 21:00,ZBSJ 302100Z 21002MPS 160V230 CAVOK 18/13 Q1004 NOSIG
ZBSJ,2015-05-30 22:00,ZBSJ 302200Z 20002MPS CAVOK 19/15 Q1004 NOSIG
ZBSJ,2015-05-30 23:00,ZBSJ 302300Z 19002MPS 170V230 6000 NSC 21/17 Q1004 NOSIG
ZBSJ,2015-05-31 00:00,ZBSJ 310000Z 20003MPS 8000 NSC 25/17 Q1004 NOSIG
ZBSJ,2015-05-31 01:00,ZBSJ 310100Z 19004MPS CAVOK 28/17 Q1004 NOSIG
ZBSJ,2015-05-31 02:00,ZBSJ 310200Z 20004MPS CAVOK 29/16 Q1003 NOSIG
ZBSJ,2015-05-31 03:00,ZBSJ 310300Z 20003MPS CAVOK 31/16 Q1002 NOSIG
ZBSJ,2015-05-31 04:00,ZBSJ 310400Z 18004MPS CAVOK 32/17 Q1002 NOSIG
ZBSJ,2015-05-31 05:00,ZBSJ 310500Z 18005MPS CAVOK 33/18 Q1001 NOSIG
ZBSJ,2015-05-31 06:00,ZBSJ 310600Z 18006MPS CAVOK 34/17 Q1000 NOSIG
ZBSJ,2015-05-31 07:00,ZBSJ 310700Z 17006MPS CAVOK 35/18 Q0999 NOSIG
ZBSJ,2015-05-31 08:00,ZBSJ 310800Z 17006MPS CAVOK 34/18 Q0998 NOSIG
ZBSJ,2015-05-31 09:00,ZBSJ 310900Z 18005MPS CAVOK 33/19 Q0998 NOSIG
ZBSJ,2015-05-31 10:00,ZBSJ 311000Z 18005MPS CAVOK 31/20 Q0998 NOSIG
ZBSJ,2015-05-31 11:00,ZBSJ 311100Z 19006MPS CAVOK 30/20 Q0998 NOSIG
ZBSJ,2015-05-31 12:00,ZBSJ 311200Z 18006MPS 7000 NSC 29/19 Q0998 NOSIG
ZBSJ,2015-05-31 13:00,ZBSJ 311300Z 18005MPS 7000 NSC 28/19 Q0999 NOSIG
ZBSJ,2015-05-31 14:00,ZBSJ 311400Z 18004MPS 7000 NSC 26/19 Q0999 NOSIG
ZBSJ,2015-05-31 15:00,ZBSJ 311500Z 18004MPS 7000 NSC 25/19 Q1000 NOSIG
ZBSJ,2015-05-31 16:00,ZBSJ 311600Z 18005MPS 7000 NSC 25/18 Q0999 NOSIG
ZBSJ,2015-05-31 17:00,ZBSJ 311700Z 19004MPS 7000 NSC 25/18 Q0999 NOSIG
ZBSJ,2015-05-31 18:00,ZBSJ 311800Z 18003MPS 7000 NSC 23/18 Q0999 NOSIG
ZBSJ,2015-05-31 19:00,ZBSJ 311900Z 18003MPS 6000 NSC 22/18 Q1000 NOSIG
ZBSJ,2015-05-31 20:00,ZBSJ 312000Z 19003MPS 5000 HZ NSC 22/18 Q1000 NOSIG
ZBSJ,2015-05-31 21:00,ZBSJ 312100Z 18003MPS 3500 BR NSC 21/19 Q0999 NOSIG
ZBSJ,2015-05-31 22:00,ZBSJ 312200Z 17002MPS 3000 BR NSC 21/19 Q1000 NOSIG
ZBSJ,2015-05-31 23:00,ZBSJ 312300Z 18001MPS 3000 BR NSC 23/20 Q1000 NOSIG
ZBSJ,2015-06-01 00:00,ZBSJ 010000Z 11001MPS 3000 BR NSC 26/21 Q1000 NOSIG
ZBSJ,2015-06-01 01:00,ZBSJ 010100Z 15002MPS 3500 HZ NSC 27/21 Q1000 NOSIG
ZBSJ,2015-06-01 02:00,ZBSJ 010200Z 16002MPS 110V200 3500 HZ NSC 30/21 Q1000 NOSIG
ZBSJ,2015-06-01 03:00,ZBSJ 010300Z 13002MPS 4000 HZ NSC 31/22 Q1000 NOSIG
ZBSJ,2015-06-01 04:00,ZBSJ 010400Z 14002MPS 090V180 6000 NSC 33/22 Q1000 NOSIG
ZBSJ,2015-06-01 05:00,ZBSJ 010500Z 12003MPS 090V160 8000 NSC 35/21 Q1000 NOSIG
ZBSJ,2015-06-01 06:00,ZBSJ 010600Z 15004MPS 8000 NSC 34/22 Q0999 NOSIG
ZBSJ,2015-06-01 07:00,ZBSJ 010700Z 13003MPS 8000 NSC 33/21 Q0999 NOSIG
ZBSJ,2015-06-01 08:00,ZBSJ 010800Z 19003MPS 8000 NSC 31/20 Q1000 NOSIG
ZBSJ,2015-06-01 09:00,ZBSJ 010900Z 28001MPS 8000 NSC 32/19 Q1000 NOSIG
ZBSJ,2015-06-01 10:00,ZBSJ 011000Z 14004MPS 6000 NSC 30/23 Q0999 NOSIG
ZBSJ,2015-06-01 11:00,ZBSJ 011100Z 17003MPS 4500 HZ NSC 29/22 Q1000 NOSIG
ZBSJ,2015-06-01 12:00,ZBSJ 011200Z 13001MPS 4000 HZ NSC 27/22 Q1001 NOSIG
ZBSJ,2015-06-01 13:00,ZBSJ 011300Z 13001MPS 4000 BR NSC 26/23 Q1002 NOSIG
ZBSJ,2015-06-01 14:00,ZBSJ 011400Z 06004MPS 6000 NSC 26/19 Q1003 NOSIG
ZBSJ,2015-06-01 15:00,ZBSJ 011500Z 04002MPS 360V070 CAVOK 23/17 Q1004 NOSIG
ZBSJ,2015-06-01 16:00,ZBSJ 011600Z 03001MPS CAVOK 23/18 Q1003 NOSIG
ZBSJ,2015-06-01 17:00,ZBSJ 011700Z 34001MPS CAVOK 23/18 Q1004 NOSIG
ZBSJ,2015-06-01 18:00,ZBSJ 011800Z 34002MPS CAVOK 22/18 Q1004 NOSIG
ZBSJ,2015-06-01 19:00,ZBSJ 011900Z 28001MPS CAVOK 22/17 Q1003 NOSIG
ZBSJ,2015-06-01 20:00,ZBSJ 012000Z 34002MPS CAVOK 21/17 Q1004 NOSIG
ZBSJ,2015-06-01 21:00,ZBSJ 012100Z 34003MPS 8000 NSC 21/17 Q1005 NOSIG
ZBSJ,2015-06-01 22:00,ZBSJ 012200Z 36003MPS CAVOK 23/15 Q1006 NOSIG
ZBSJ,2015-06-01 23:00,ZBSJ 012300Z 03004MPS 350V050 8000 NSC 24/17 Q1007 NOSIG
ZBSJ,2015-06-02 00:00,ZBSJ 020000Z 05004MPS 360V070 8000 NSC 25/17 Q1009 NOSIG
ZBSJ,2015-06-02 01:00,ZBSJ 020100Z 06003MPS 8000 NSC 26/18 Q1009 NOSIG
ZBSJ,2015-06-02 02:00,ZBSJ 020200Z 06002MPS 8000 NSC 28/18 Q1009 NOSIG
ZBSJ,2015-06-02 03:00,ZBSJ 020300Z 06003MPS 030V100 CAVOK 29/13 Q1009 NOSIG
ZBSJ,2015-06-02 04:00,ZBSJ 020400Z 07003MPS 030V140 CAVOK 30/14 Q1009 NOSIG
ZBSJ,2015-06-02 05:00,ZBSJ 020500Z 12003MPS 080V150 CAVOK 30/14 Q1009 NOSIG
ZBSJ,2015-06-02 06:00,ZBSJ 020600Z 11003MPS CAVOK 31/14 Q1009 NOSIG
ZBSJ,2015-06-02 07:00,ZBSJ 020700Z 12004MPS CAVOK 30/13 Q1008 NOSIG
ZBSJ,2015-06-02 08:00,ZBSJ 020800Z 13003MPS CAVOK 31/12 Q1008 NOSIG
ZBSJ,2015-06-02 09:00,ZBSJ 020900Z 13003MPS CAVOK 30/11 Q1008 NOSIG
ZBSJ,2015-06-02 10:00,ZBSJ 021000Z 13003MPS CAVOK 29/11 Q1009 NOSIG
ZBSJ,2015-06-02 11:00,ZBSJ 021100Z 15002MPS CAVOK 26/12 Q1009 NOSIG
ZBSJ,2015-06-02 12:00,ZBSJ 021200Z 19002MPS CAVOK 25/11 Q1010 NOSIG
ZBSJ,2015-06-02 13:00,ZBSJ 021300Z 23002MPS CAVOK 25/12 Q1011 NOSIG
ZBSJ,2015-06-02 14:00,ZBSJ 021400Z 32001MPS CAVOK 22/12 Q1011 NOSIG
ZBSJ,2015-06-02 15:00,ZBSJ 021500Z 33002MPS CAVOK 22/12 Q1012 NOSIG
ZBSJ,2015-06-02 16:00,ZBSJ 021600Z 33002MPS CAVOK 21/12 Q1012 NOSIG
ZBSJ,2015-06-02 17:00,ZBSJ 021700Z 09001MPS CAVOK 18/12 Q1012 NOSIG
ZBSJ,2015-06-02 18:00,ZBSJ 021800Z 15002MPS CAVOK 18/11 Q1013 NOSIG
ZBSJ,2015-06-02 19:00,ZBSJ 021900Z 32002MPS CAVOK 17/11 Q1013 NOSIG
ZBSJ,2015-06-02 20:00,ZBSJ 022000Z 32001MPS CAVOK 16/12 Q1013 NOSIG
ZBSJ,2015-06-02 21:00,ZBSJ 022100Z 32003MPS CAVOK 16/11 Q1014 NOSIG
ZBSJ,2015-06-02 22:00,ZBSJ 022200Z 33001MPS CAVOK 17/13 Q1015 NOSIG
ZBSJ,2015-06-02 23:00,ZBSJ 022300Z 02002MPS 340V040 8000 NSC 20/12 Q1015 NOSIG
ZBSJ,2015-06-03 00:00,ZBSJ 030000Z 03003MPS 360V070 7000 NSC 21/14 Q1015 NOSIG
ZBSJ,2015-06-03 01:00,ZBSJ 030100Z 07002MPS 5000 HZ NSC 24/14 Q1016 NOSIG
ZBSJ,2015-06-03 02:00,ZBSJ 030200Z 02002MPS 5000 HZ NSC 26/15 Q1015 NOSIG
ZBSJ,2015-06-03 03:00,ZBSJ 030300Z 10002MPS 7000 NSC 27/16 Q1015 NOSIG
ZBSJ,2015-06-03 04:00,ZBSJ 030400Z 12001MPS 7000 NSC 28/16 Q1014 NOSIG
ZBSJ,2015-06-03 05:00,ZBSJ 030500Z 14001MPS 8000 NSC 29/15 Q1014 NOSIG
ZBSJ,2015-06-03 06:00,ZBSJ 030600Z 10002MPS 8000 NSC 30/14 Q1013 NOSIG
ZBSJ,2015-06-03 07:00,ZBSJ 030700Z VRB02MPS 8000 NSC 31/12 Q1012 NOSIG
ZBSJ,2015-06-03 08:00,ZBSJ 030800Z 15003MPS 100V190 8000 NSC 32/10 Q1011 NOSIG
ZBSJ,2015-06-03 09:00,ZBSJ 030900Z 16002MPS CAVOK 30/09 Q1011 NOSIG
ZBSJ,2015-06-03 10:00,ZBSJ 031000Z 10002MPS CAVOK 29/14 Q1011 NOSIG
ZBSJ,2015-06-03 11:00,ZBSJ 031100Z 10002MPS CAVOK 27/14 Q1011 NOSIG
ZBSJ,2015-06-03 12:00,ZBSJ 031200Z 10001MPS CAVOK 25/15 Q1011 NOSIG
ZBSJ,2015-06-03 13:00,ZBSJ 031300Z 10001MPS CAVOK 25/15 Q1011 NOSIG
ZBSJ,2015-06-03 14:00,ZBSJ 031400Z 16002MPS CAVOK 24/12 Q1011 NOSIG
ZBSJ,2015-06-03 15:00,ZBSJ 031500Z 17002MPS CAVOK 24/11 Q1011 NOSIG
ZBSJ,2015-06-03 16:00,ZBSJ 031600Z 15002MPS CAVOK 21/12 Q1010 NOSIG
ZBSJ,2015-06-03 17:00,ZBSJ 031700Z 15002MPS CAVOK 22/11 Q1009 NOSIG
ZBSJ,2015-06-03 18:00,ZBSJ 031800Z 23002MPS CAVOK 22/11 Q1009 NOSIG
ZBSJ,2015-06-03 19:00,ZBSJ 031900Z 24003MPS CAVOK 22/12 Q1008 NOSIG
ZBSJ,2015-06-03 20:00,ZBSJ 032000Z 26002MPS CAVOK 23/12 Q1008 NOSIG
ZBSJ,2015-06-03 21:00,ZBSJ 032100Z 28003MPS CAVOK 23/12 Q1008 NOSIG
ZBSJ,2015-06-03 22:00,ZBSJ 032200Z 23001MPS CAVOK 22/12 Q1008 NOSIG
ZBSJ,2015-06-03 23:00,ZBSJ 032300Z 20002MPS CAVOK 23/13 Q1008 NOSIG
ZBSJ,2015-06-04 00:00,ZBSJ 040000Z 23001MPS 9999 -RA OVC046 22/14 Q1007 NOSIG
ZBSJ,2015-06-04 01:00,ZBSJ 040100Z 24007MPS 9999 -RA OVC046 23/12 Q1006 NOSIG
ZBSJ,2015-06-04 02:00,ZBSJ 040200Z 20003MPS 160V230 9999 -RA OVC046 22/13 Q1006 NOSIG
ZBSJ,2015-06-04 03:00,ZBSJ 040300Z 20003MPS 9999 -RA OVC046 21/14 Q1006 NOSIG
ZBSJ,2015-06-04 04:00,ZBSJ 040400Z 20003MPS 9999 -RA OVC046 22/16 Q1005 NOSIG
ZBSJ,2015-06-04 05:00,ZBSJ 040500Z 19004MPS CAVOK 23/15 Q1004 NOSIG
ZBSJ,2015-06-04 06:00,ZBSJ 040600Z 20005MPS CAVOK 27/14 Q1003 NOSIG
ZBSJ,2015-06-04 07:00,ZBSJ 040700Z 21003MPS 180V270 9999 BKN040 28/13 Q1001 NOSIG
ZBSJ,2015-06-04 08:00,ZBSJ 040800Z 32005MPS 9999 TS FEW033CB BKN046 20/16 Q1003 NOSIG
ZBSJ,2015-06-04 09:00,ZBSJ 040900Z 26005MPS CAVOK 24/13 Q1002 RETS NOSIG
ZBSJ,2015-06-04 10:00,ZBSJ 041000Z 28005MPS CAVOK 25/10 Q1002 NOSIG
ZBSJ,2015-06-04 11:00,ZBSJ 041100Z 35003MPS CAVOK 23/12 Q1002 NOSIG
ZBSJ,2015-06-04 12:00,ZBSJ 041200Z 35004MPS CAVOK 21/10 Q1003 NOSIG
ZBSJ,2015-06-04 13:00,ZBSJ 041300Z 05002MPS 020V080 CAVOK 18/11 Q1003 NOSIG
ZBSJ,2015-06-04 14:00,ZBSJ 041400Z 13001MPS CAVOK 18/12 Q1003 NOSIG
ZBSJ,2015-06-04 15:00,ZBSJ 041500Z 19003MPS CAVOK 19/12 Q1002 NOSIG
ZBSJ,2015-06-04 16:00,ZBSJ 041600Z 18001MPS CAVOK 17/14 Q1001 NOSIG
ZBSJ,2015-06-04 17:00,ZBSJ 041700Z 13001MPS CAVOK 15/14 Q1001 NOSIG
ZBSJ,2015-06-04 18:00,ZBSJ 041800Z 00000MPS CAVOK 15/15 Q1000 NOSIG
ZBSJ,2015-06-04 19:00,ZBSJ 041900Z 17001MPS 6000 NSC 15/14 Q1000 NOSIG
ZBSJ,2015-06-04 20:00,ZBSJ 042000Z 07001MPS 6000 NSC 13/13 Q0999 NOSIG
ZBSJ,2015-06-04 21:00,ZBSJ 042100Z 32002MPS 4000 BR NSC 13/13 Q0999 NOSIG
ZBSJ,2015-06-04 22:00,ZBSJ 042200Z 33002MPS 6000 NSC 15/14 Q0999 NOSIG
ZBSJ,2015-06-04 23:00,ZBSJ 042300Z 28002MPS 7000 NSC 19/13 Q0999 NOSIG
ZBSJ,2015-06-05 00:00,ZBSJ 050000Z 30002MPS CAVOK 23/13 Q0999 NOSIG
ZBSJ,2015-06-05 01:00,ZBSJ 050100Z 27001MPS CAVOK 25/13 Q0999 NOSIG
ZBSJ,2015-06-05 02:00,ZBSJ 050200Z 11001MPS CAVOK 28/13 Q0999 NOSIG
ZBSJ,2015-06-05 03:00,ZBSJ 050300Z 13002MPS 090V190 CAVOK 29/14 Q0999 NOSIG
ZBSJ,2015-06-05 04:00,ZBSJ 050400Z 16003MPS 110V210 CAVOK 32/14 Q0998 NOSIG
ZBSJ,2015-06-05 05:00,ZBSJ 050500Z 15002MPS 8000 NSC 35/13 Q0997 NOSIG
ZBSJ,2015-06-05 06:00,ZBSJ 050600Z 17003MPS 100V210 8000 NSC 36/13 Q0996 NOSIG
ZBSJ,2015-06-05 07:00,ZBSJ 050700Z 16004MPS 120V190 8000 NSC 38/12 Q0995 NOSIG
ZBSJ,2015-06-05 08:00,ZBSJ 050800Z 16006MPS CAVOK 37/13 Q0995 NOSIG
ZBSJ,2015-06-05 09:00,ZBSJ 050900Z 17005MPS CAVOK 36/13 Q0994 NOSIG
ZBSJ,2015-06-05 10:00,ZBSJ 051000Z 15003MPS CAVOK 33/13 Q0995 NOSIG
ZBSJ,2015-06-05 11:00,ZBSJ 051100Z 15003MPS CAVOK 29/14 Q0995 NOSIG
ZBSJ,2015-06-05 12:00,ZBSJ 051200Z 17003MPS CAVOK 27/14 Q0995 NOSIG
ZBSJ,2015-06-05 13:00,ZBSJ 051300Z 16002MPS CAVOK 25/13 Q0995 NOSIG
ZBSJ,2015-06-05 14:00,ZBSJ 051400Z 17002MPS CAVOK 23/12 Q0995 NOSIG
ZBSJ,2015-06-05 15:00,ZBSJ 051500Z 01003MPS 330V050 CAVOK 24/12 Q0996 NOSIG
ZBSJ,2015-06-05 16:00,ZBSJ 051600Z 03003MPS CAVOK 23/16 Q0996 NOSIG
ZBSJ,2015-06-05 17:00,ZBSJ 051700Z 04003MPS 360V070 CAVOK 23/16 Q0997 NOSIG
ZBSJ,2015-06-05 18:00,ZBSJ 051800Z 34002MPS CAVOK 20/15 Q0998 NOSIG
ZBSJ,2015-06-05 19:00,ZBSJ 051900Z 01002MPS CAVOK 22/15 Q0998 NOSIG
ZBSJ,2015-06-05 20:00,ZBSJ 052000Z 01003MPS 340V040 CAVOK 22/15 Q0999 NOSIG
ZBSJ,2015-06-05 21:00,ZBSJ 052100Z 02003MPS CAVOK 22/14 Q1000 NOSIG
ZBSJ,2015-06-05 22:00,ZBSJ 052200Z 02002MPS CAVOK 22/14 Q1000 NOSIG
ZBSJ,2015-06-05 23:00,ZBSJ 052300Z 04002MPS 360V070 CAVOK 24/15 Q1001 NOSIG
ZBSJ,2015-06-06 00:00,ZBSJ 060000Z 05005MPS 020V090 CAVOK 25/14 Q1002 NOSIG
ZBSJ,2015-06-06 01:00,ZBSJ 060100Z 04004MPS CAVOK 26/15 Q1002 NOSIG
ZBSJ,2015-06-06 02:00,ZBSJ 060200Z 07003MPS 340V110 CAVOK 27/15 Q1002 NOSIG
ZBSJ,2015-06-06 03:00,ZBSJ 060300Z 04004MPS 360V080 CAVOK 28/15 Q1002 NOSIG
ZBSJ,2015-06-06 04:00,ZBSJ 060400Z 08004MPS 040V110 CAVOK 29/16 Q1002 NOSIG
ZBSJ,2015-06-06 05:00,ZBSJ 060500Z 09003MPS 040V130 CAVOK 29/15 Q1001 NOSIG
ZBSJ,2015-06-06 06:00,ZBSJ 060600Z 12003MPS 040V150 CAVOK 30/16 Q1000 NOSIG
ZBSJ,2015-06-06 07:00,ZBSJ 060700Z 13002MPS 050V170 CAVOK 30/16 Q1000 NOSIG
ZBSJ,2015-06-06 08:00,ZBSJ 060800Z 14002MPS CAVOK 30/16 Q1000 NOSIG
ZBSJ,2015-06-06 09:00,ZBSJ 060900Z 35003MPS CAVOK 29/17 Q1001 NOSIG
ZBSJ,2015-06-06 10:00,ZBSJ 061000Z 02001MPS CAVOK 28/17 Q1001 NOSIG
ZBSJ,2015-06-06 11:00,ZBSJ 061100Z 05002MPS CAVOK 28/17 Q1002 NOSIG
ZBSJ,2015-06-06 12:00,ZBSJ 061200Z 05002MPS CAVOK 25/17 Q1002 NOSIG
ZBSJ,2015-06-06 13:00,ZBSJ 061300Z 36002MPS CAVOK 23/17 Q1004 NOSIG
ZBSJ,2015-06-06 14:00,ZBSJ 061400Z 04003MPS CAVOK 23/16 Q1004 NOSIG
ZBSJ,2015-06-06 15:00,ZBSJ 061500Z 06003MPS CAVOK 22/15 Q1005 NOSIG
ZBSJ,2015-06-06 16:00,ZBSJ 061600Z 12001MPS CAVOK 21/15 Q1006 NOSIG
ZBSJ,2015-06-06 17:00,ZBSJ 061700Z 06001MPS CAVOK 19/15 Q1006 NOSIG
ZBSJ,2015-06-06 18:00,ZBSJ 061800Z 33001MPS CAVOK 18/15 Q1007 NOSIG
ZBSJ,2015-06-06 19:00,ZBSJ 061900Z 33003MPS CAVOK 18/16 Q1007 NOSIG
ZBSJ,2015-06-06 20:00,ZBSJ 062000Z 34003MPS CAVOK 19/16 Q1008 NOSIG
ZBSJ,2015-06-06 21:00,ZBSJ 062100Z 34003MPS 7000 NSC 19/16 Q1008 NOSIG
ZBSJ,2015-06-06 22:00,ZBSJ 062200Z 32002MPS 8000 NSC 20/17 Q1008 NOSIG
ZBSJ,2015-06-06 23:00,ZBSJ 062300Z 35002MPS 8000 NSC 22/17 Q1009 NOSIG
ZBSJ,2015-06-07 00:00,ZBSJ 070000Z 36002MPS 320V060 CAVOK 24/16 Q1009 NOSIG
ZBSJ,2015-06-07 01:00,ZBSJ 070100Z 36002MPS 330V060 CAVOK 26/15 Q1009 NOSIG
ZBSJ,2015-06-07 02:00,ZBSJ 070200Z 06002MPS CAVOK 27/13 Q1008 NOSIG
ZBSJ,2015-06-07 03:00,ZBSJ 070300Z 07003MPS CAVOK 28/11 Q1008 NOSIG
ZBSJ,2015-06-07 04:00,ZBSJ 070400Z 07004MPS 010V120 CAVOK 29/09 Q1008 NOSIG
ZBSJ,2015-06-07 05:00,ZBSJ 070500Z 02002MPS CAVOK 29/08 Q1008 NOSIG
ZBSJ,2015-06-07 06:00,ZBSJ 070600Z 03003MPS 340V070 9999 OVC046 28/11 Q1008 NOSIG
ZBSJ,2015-06-07 07:00,ZBSJ 070700Z 01004MPS 340V050 9999 FEW033 OVC046 27/11 Q1008 NOSIG
ZBSJ,2015-06-07 08:00,ZBSJ 070800Z 35005MPS 9999 -RA OVC040 23/13 Q1009 NOSIG
ZBSJ,2015-06-07 09:00,ZBSJ 070900Z 01003MPS 9999 OVC040 23/14 Q1009 NOSIG
ZBSJ,2015-06-07 10:00,ZBSJ 071000Z 36001MPS 9999 SCT040 22/14 Q1008 NOSIG
ZBSJ,2015-06-07 11:00,ZBSJ 071100Z 36002MPS 9999 SCT040 21/14 Q1008 NOSIG
ZBSJ,2015-06-07 12:00,ZBSJ 071200Z 35002MPS 9999 SCT046 21/15 Q1008 NOSIG
ZBSJ,2015-06-07 13:00,ZBSJ 071300Z 07001MPS 9999 BKN046 20/15 Q1009 NOSIG
ZBSJ,2015-06-07 14:00,ZBSJ 071400Z 17001MPS 9999 SCT046 19/15 Q1009 NOSIG
ZBSJ,2015-06-07 15:00,ZBSJ 071500Z 20001MPS CAVOK 19/15 Q1009 NOSIG
ZBSJ,2015-06-07 16:00,ZBSJ 071600Z 14001MPS CAVOK 16/15 Q1009 NOSIG
ZBSJ,2015-06-07 17:00,ZBSJ 071700Z 18001MPS CAVOK 16/15 Q1008 NOSIG
ZBSJ,2015-06-07 18:00,ZBSJ 071800Z 00000MPS CAVOK 16/15 Q1008 NOSIG
ZBSJ,2015-06-07 19:00,ZBSJ 071900Z 15001MPS CAVOK 15/14 Q1008 NOSIG
ZBSJ,2015-06-07 20:00,ZBSJ 072000Z 18001MPS CAVOK 15/14 Q1007 NOSIG
ZBSJ,2015-06-07 21:00,ZBSJ 072100Z 22001MPS 4000 BR NSC 15/14 Q1007 NOSIG
ZBSJ,2015-06-07 22:00,ZBSJ 072200Z 29001MPS 4000 BR NSC 16/16 Q1007 NOSIG
ZBSJ,2015-06-07 23:00,ZBSJ 072300Z 01001MPS 4000 BR NSC 20/17 Q1008 NOSIG
ZBSJ,2015-06-08 00:00,ZBSJ 080000Z 21002MPS 5000 HZ NSC 22/16 Q1007 NOSIG
ZBSJ,2015-06-08 01:00,ZBSJ 080100Z 24003MPS 7000 NSC 24/15 Q1007 NOSIG
ZBSJ,2015-06-08 02:00,ZBSJ 080200Z 25002MPS CAVOK 27/15 Q1006 NOSIG
ZBSJ,2015-06-08 03:00,ZBSJ 080300Z 26002MPS CAVOK 29/14 Q1006 NOSIG
ZBSJ,2015-06-08 04:00,ZBSJ 080400Z 17002MPS CAVOK 31/14 Q1005 NOSIG
ZBSJ,2015-06-08 05:00,ZBSJ 080500Z 19002G07MPS CAVOK 32/12 Q1004 NOSIG
ZBSJ,2015-06-08 06:00,ZBSJ 080600Z 17003MPS 130V230 CAVOK 33/12 Q1003 NOSIG
ZBSJ,2015-06-08 07:00,ZBSJ 080700Z 19004MPS 140V240 CAVOK 35/11 Q1002 NOSIG
ZBSJ,2015-06-08 08:00,ZBSJ 080800Z 16007MPS CAVOK 34/13 Q1001 NOSIG
ZBSJ,2015-06-08 09:00,ZBSJ 080900Z 17006MPS CAVOK 34/12 Q1000 NOSIG
ZBSJ,2015-06-08 10:00,ZBSJ 081000Z 18006MPS CAVOK 33/11 Q1000 NOSIG
ZBSJ,2015-06-08 11:00,ZBSJ 081100Z 18005MPS CAVOK 31/12 Q1000 NOSIG
ZBSJ,2015-06-08 12:00,ZBSJ 081200Z 17004MPS CAVOK 28/11 Q1000 NOSIG
ZBSJ,2015-06-08 13:00,ZBSJ 081300Z 17004MPS CAVOK 26/11 Q1001 NOSIG
ZBSJ,2015-06-08 14:00,ZBSJ 081400Z 17004MPS CAVOK 26/10 Q1001 NOSIG
ZBSJ,2015-06-08 15:00,ZBSJ 081500Z 17003MPS CAVOK 25/10 Q1001 NOSIG
ZBSJ,2015-06-08 16:00,ZBSJ 081600Z 17003MPS CAVOK 23/10 Q1000 NOSIG
ZBSJ,2015-06-08 17:00,ZBSJ 081700Z 19003MPS CAVOK 24/10 Q1000 NOSIG
ZBSJ,2015-06-08 18:00,ZBSJ 081800Z 33001MPS CAVOK 20/10 Q1000 NOSIG
ZBSJ,2015-06-08 19:00,ZBSJ 081900Z 12001MPS CAVOK 17/11 Q1000 NOSIG
ZBSJ,2015-06-08 20:00,ZBSJ 082000Z 24001MPS CAVOK 19/10 Q1000 NOSIG
ZBSJ,2015-06-08 21:00,ZBSJ 082100Z 04001MPS CAVOK 16/11 Q1000 NOSIG
ZBSJ,2015-06-08 22:00,ZBSJ 082200Z 05002MPS 8000 NSC 18/13 Q1000 NOSIG
ZBSJ,2015-06-08 23:00,ZBSJ 082300Z 07002MPS 8000 NSC 22/14 Q1000 NOSIG
ZBSJ,2015-06-09 00:00,ZBSJ 090000Z 06004MPS CAVOK 25/15 Q1001 NOSIG
ZBSJ,2015-06-09 01:00,ZBSJ 090100Z 07003MPS 030V130 CAVOK 27/14 Q1001 NOSIG
ZBSJ,2015-06-09 02:00,ZBSJ 090200Z 04002MPS 360V100 CAVOK 29/13 Q1000 NOSIG
ZBSJ,2015-06-09 03:00,ZBSJ 090300Z 12002MPS 080V150 CAVOK 30/13 Q1000 NOSIG
ZBSJ,2015-06-09 04:00,ZBSJ 090400Z 06003MPS 350V130 CAVOK 33/15 Q0999 NOSIG
ZBSJ,2015-06-09 05:00,ZBSJ 090500Z 05004MPS 010V090 CAVOK 35/16 Q0998 NOSIG
ZBSJ,2015-06-09 06:00,ZBSJ 090600Z 06005MPS 030V090 CAVOK 34/16 Q0997 NOSIG
ZBSJ,2015-06-09 07:00,ZBSJ 090700Z 07006MPS CAVOK 34/17 Q0997 NOSIG
ZBSJ,2015-06-09 08:00,ZBSJ 090800Z 07006MPS CAVOK 34/16 Q0996 NOSIG
ZBSJ,2015-06-09 09:00,ZBSJ 090900Z 07006MPS CAVOK 33/16 Q0995 NOSIG
ZBSJ,2015-06-09 10:00,ZBSJ 091000Z 06005MPS 030V090 CAVOK 31/16 Q0996 NOSIG
ZBSJ,2015-06-09 11:00,ZBSJ 091100Z 05008MPS CAVOK 29/16 Q0997 NOSIG
ZBSJ,2015-06-09 12:00,ZBSJ 091200Z 04004MPS 9999 -TSRA FEW033CB BKN040 28/15 Q0999 BECMG NSW
ZBSJ,2015-06-09 13:00,ZBSJ 091300Z 05006MPS CAVOK 26/16 Q0998 RETS NOSIG
ZBSJ,2015-06-09 14:00,ZBSJ 091400Z 08003MPS 030V110 9999 BKN046 26/16 Q0999 NOSIG
ZBSJ,2015-06-09 15:00,ZBSJ 091500Z 32008MPS 7000 BKN046 26/16 Q1003 BECMG AT1530 -TSRA
ZBSJ,2015-06-09 16:00,ZBSJ 091600Z 04006MPS 9999 -RA OVC046 24/17 Q1000 NOSIG
ZBSJ,2015-06-09 17:00,ZBSJ 091700Z 30005MPS 9999 OVC046 23/18 Q1000 RETS NOSIG
ZBSJ,2015-06-09 18:00,ZBSJ 091800Z 32004MPS 7000 SCT046 22/19 Q1001 NOSIG
ZBSJ,2015-06-09 19:00,ZBSJ 091900Z 08004MPS 7000 NSC 22/19 Q0999 NOSIG
ZBSJ,2015-06-09 20:00,ZBSJ 092000Z 36003MPS 330V040 7000 NSC 21/19 Q1001 NOSIG
ZBSJ,2015-06-09 21:00,ZBSJ 092100Z 33001MPS 4500 BR NSC 21/19 Q1001 NOSIG
ZBSJ,2015-06-09 22:00,ZBSJ 092200Z 02002MPS 2500 BR NSC 21/19 Q1001 NOSIG
ZBSJ,2015-06-09 23:00,ZBSJ 092300Z 02003MPS 2700 BR NSC 21/19 Q1001 NOSIG
ZBSJ,2015-06-10 00:00,ZBSJ 100000Z 36002MPS 4500 BR NSC 23/19 Q1001 NOSIG
ZBSJ,2015-06-10 01:00,ZBSJ 100100Z 07004MPS 4500 -SHRA BR FEW030TCU BKN040 23/18 Q1000 NOSIG
ZBSJ,2015-06-10 02:00,ZBSJ 100200Z 10001MPS 5000 -RA BR BKN040 24/19 Q1000 NOSIG
ZBSJ,2015-06-10 03:00,ZBSJ 100300Z 10001MPS 6000 NSC 25/18 Q1000 NOSIG
ZBSJ,2015-06-10 04:00,ZBSJ 100400Z 10002MPS 7000 NSC 27/18 Q0999 NOSIG
ZBSJ,2015-06-10 05:00,ZBSJ 100500Z 10002MPS 060V130 7000 NSC 28/18 Q0998 NOSIG
ZBSJ,2015-06-10 06:00,ZBSJ 100600Z 15004MPS 100V170 8000 NSC 30/18 Q0997 NOSIG
ZBSJ,2015-06-10 07:00,ZBSJ 100700Z 15005MPS 110V190 CAVOK 31/18 Q0996 NOSIG
ZBSJ,2015-06-10 08:00,ZBSJ 100800Z 18003MPS CAVOK 30/17 Q0996 NOSIG
ZBSJ,2015-06-10 09:00,ZBSJ 100900Z 35002MPS 320V020 9999 -TSRA SCT030CB BKN040 30/18 Q0996 BECMG TL0950 NSW
ZBSJ,2015-06-10 10:00,ZBSJ 101000Z 03002MPS 320V080 9999 FEW030CB 28/18 Q0995 RETS NOSIG
ZBSJ,2015-06-10 11:00,ZBSJ 101100Z 36002MPS 330V030 8000 FEW030TCU 25/18 Q0996 NOSIG
ZBSJ,2015-06-10 12:00,ZBSJ 101200Z 34003MPS 5000 HZ NSC 24/18 Q0997 NOSIG
ZBSJ,2015-06-10 13:00,ZBSJ 101300Z 30008MPS CAVOK 26/09 Q0998 NOSIG
ZBSJ,2015-06-10 14:00,ZBSJ 101400Z 28006MPS CAVOK 25/09 Q0999 NOSIG
ZBSJ,2015-06-10 15:00,ZBSJ 101500Z 28005MPS CAVOK 24/09 Q0999 NOSIG
ZBSJ,2015-06-10 16:00,ZBSJ 101600Z 28004MPS CAVOK 23/09 Q0999 NOSIG
ZBSJ,2015-06-10 17:00,ZBSJ 101700Z 32004MPS CAVOK 20/09 Q1000 NOSIG
ZBSJ,2015-06-10 18:00,ZBSJ 101800Z 30002MPS CAVOK 20/09 Q1000 NOSIG
ZBSJ,2015-06-10 19:00,ZBSJ 101900Z 28003MPS CAVOK 22/09 Q1000 NOSIG
ZBSJ,2015-06-10 20:00,ZBSJ 102000Z 28003MPS CAVOK 21/09 Q1000 NOSIG
ZBSJ,2015-06-10 21:00,ZBSJ 102100Z 32004MPS 9999 FEW030 20/09 Q1000 NOSIG
ZBSJ,2015-06-10 22:00,ZBSJ 102200Z 31005MPS 9999 FEW030 22/10 Q1000 NOSIG
ZBSJ,2015-06-10 23:00,ZBSJ 102300Z 30004MPS 9999 FEW030 25/10 Q1001 NOSIG
ZBSJ,2015-06-11 00:00,ZBSJ 110000Z 31004MPS 270V340 9999 FEW040 27/10 Q1001 NOSIG
ZBSJ,2015-06-11 01:00,ZBSJ 110100Z 29006MPS 250V330 9999 FEW040 28/08 Q1000 NOSIG
ZBSJ,2015-06-11 02:00,ZBSJ 110200Z 31006MPS 280V350 9999 SCT040 29/09 Q1000 NOSIG
ZBSJ,2015-06-11 03:00,ZBSJ 110300Z 33005MPS 290V040 9999 SCT040 31/09 Q1000 NOSIG
ZBSJ,2015-06-11 04:00,ZBSJ 110400Z 31005MPS 240V350 9999 SCT040 30/09 Q1000 NOSIG
ZBSJ,2015-06-11 05:00,ZBSJ 110500Z 32007MPS 290V350 9999 FEW040 32/08 Q1000 NOSIG
ZBSJ,2015-06-11 06:00,ZBSJ 110600Z 31007MPS 9999 FEW040 33/08 Q0999 NOSIG
ZBSJ,2015-06-11 07:00,ZBSJ 110700Z 34007MPS 300V010 9999 SCT033 31/07 Q0999 NOSIG
ZBSJ,2015-06-11 08:00,ZBSJ 110800Z 35004MPS 320V030 9999 FEW033 SCT040 30/08 Q0999 NOSIG
ZBSJ,2015-06-11 09:00,ZBSJ 110900Z 30003MPS 220V340 9999 FEW033 32/09 Q0999 NOSIG
ZBSJ,2015-06-11 10:00,ZBSJ 111000Z 31004MPS 260V340 9999 FEW033 32/08 Q0998 NOSIG
ZBSJ,2015-06-11 11:00,ZBSJ 111100Z 29003MPS 9999 FEW033 30/07 Q0998 NOSIG
ZBSJ,2015-06-11 12:00,ZBSJ 111200Z 27003MPS 240V310 CAVOK 28/09 Q0998 NOSIG
ZBSJ,2015-06-11 13:00,ZBSJ 111300Z 28003MPS CAVOK 26/09 Q0999 NOSIG
ZBSJ,2015-06-11 14:00,ZBSJ 111400Z 26003MPS CAVOK 27/09 Q0999 NOSIG
ZBSJ,2015-06-11 15:00,ZBSJ 111500Z 29005MPS CAVOK 26/09 Q1000 NOSIG
ZBSJ,2015-06-11 16:00,ZBSJ 111600Z 30006MPS CAVOK 26/09 Q1000 NOSIG
ZBSJ,2015-06-11 17:00,ZBSJ 111700Z 28004MPS CAVOK 25/10 Q0999 NOSIG
ZBSJ,2015-06-11 18:00,ZBSJ 111800Z 23003MPS CAVOK 22/10 Q0999 NOSIG
ZBSJ,2015-06-11 19:00,ZBSJ 111900Z 03001MPS CAVOK 18/10 Q0999 NOSIG
ZBSJ,2015-06-11 20:00,ZBSJ 112000Z 28001MPS CAVOK 19/10 Q0998 NOSIG
ZBSJ,2015-06-11 21:00,ZBSJ 112100Z 36001MPS CAVOK 16/10 Q0999 NOSIG
ZBSJ,2015-06-11 22:00,ZBSJ 112200Z 26001MPS CAVOK 20/11 Q0999 NOSIG
ZBSJ,2015-06-11 23:00,ZBSJ 112300Z 28001MPS CAVOK 25/11 Q0999 NOSIG
ZBSJ,2015-06-12 00:00,ZBSJ 120000Z 34004MPS 300V020 CAVOK 28/11 Q0999 NOSIG
ZBSJ,2015-06-12 01:00,ZBSJ 120100Z 34005MPS CAVOK 30/11 Q0999 NOSIG
ZBSJ,2015-06-12 02:00,ZBSJ 120200Z 34004MPS 300V010 CAVOK 32/10 Q0999 NOSIG
ZBSJ,2015-06-12 03:00,ZBSJ 120300Z 34002MPS CAVOK 33/09 Q0999 NOSIG
ZBSJ,2015-06-12 04:00,ZBSJ 120400Z 36006MPS 330V060 9999 BKN030 34/09 Q0999 NOSIG
ZBSJ,2015-06-12 05:00,ZBSJ 120500Z 33007MPS 270V010 9999 BKN030 34/08 Q0998 NOSIG
ZBSJ,2015-06-12 06:00,ZBSJ 120600Z 36006G13MPS 330V060 9999 SCT033 33/08 Q0998 NOSIG
ZBSJ,2015-06-12 07:00,ZBSJ 120700Z 34005MPS 300V030 9999 FEW033 35/08 Q0998 NOSIG
ZBSJ,2015-06-12 08:00,ZBSJ 120800Z 32006G11MPS 290V010 9999 FEW033 35/08 Q0997 NOSIG
ZBSJ,2015-06-12 09:00,ZBSJ 120900Z 33006MPS 310V020 9999 FEW033 34/09 Q0997 NOSIG
ZBSJ,2015-06-12 10:00,ZBSJ 121000Z 33008MPS 9999 FEW033 33/08 Q0998 NOSIG
ZBSJ,2015-06-12 11:00,ZBSJ 121100Z 34006MPS 9999 SCT033 30/08 Q0998 NOSIG
ZBSJ,2015-06-12 12:00,ZBSJ 121200Z 33005MPS 9999 FEW033 28/08 Q0999 NOSIG
ZBSJ,2015-06-12 13:00,ZBSJ 121300Z 33006MPS 9999 FEW033 27/08 Q1000 NOSIG
ZBSJ,2015-06-12 14:00,ZBSJ 121400Z 33007MPS CAVOK 27/09 Q1000 NOSIG
ZBSJ,2015-06-12 15:00,ZBSJ 121500Z 33007MPS CAVOK 25/10 Q1001 NOSIG
ZBSJ,2015-06-12 16:00,ZBSJ 121600Z 34004MPS CAVOK 24/10 Q1001 NOSIG
ZBSJ,2015-06-12 17:00,ZBSJ 121700Z 33004MPS CAVOK 23/10 Q1001 NOSIG
ZBSJ,2015-06-12 18:00,ZBSJ 121800Z 34005MPS CAVOK 24/10 Q1001 NOSIG
ZBSJ,2015-06-12 19:00,ZBSJ 121900Z 32003MPS CAVOK 21/10 Q1001 NOSIG
ZBSJ,2015-06-12 20:00,ZBSJ 122000Z 32004MPS CAVOK 22/10 Q1001 NOSIG
ZBSJ,2015-06-12 21:00,ZBSJ 122100Z 30002MPS 260V320 CAVOK 22/10 Q1002 NOSIG
ZBSJ,2015-06-12 22:00,ZBSJ 122200Z 32003MPS CAVOK 23/11 Q1002 NOSIG
ZBSJ,2015-06-12 23:00,ZBSJ 122300Z 33005MPS CAVOK 26/12 Q1003 NOSIG
ZBSJ,2015-06-13 00:00,ZBSJ 130000Z 34005MPS 310V010 CAVOK 28/12 Q1003 NOSIG
ZBSJ,2015-06-13 01:00,ZBSJ 130100Z 35004MPS CAVOK 28/11 Q1004 NOSIG
ZBSJ,2015-06-13 02:00,ZBSJ 130200Z 34004MPS 310V010 CAVOK 29/12 Q1004 NOSIG
ZBSJ,2015-06-13 03:00,ZBSJ 130300Z 33004MPS 280V030 9999 SCT026 31/12 Q1004 NOSIG
ZBSJ,2015-06-13 04:00,ZBSJ 130400Z 03003MPS 350V070 9999 SCT026 30/11 Q1004 NOSIG
ZBSJ,2015-06-13 05:00,ZBSJ 130500Z 35003MPS 320V040 9999 SCT026 31/12 Q1004 NOSIG
ZBSJ,2015-06-13 06:00,ZBSJ 130600Z VRB03MPS 9999 FEW026 30/12 Q1004 NOSIG
ZBSJ,2015-06-13 07:00,ZBSJ 130700Z 07003MPS 360V170 9999 FEW033 32/13 Q1004 NOSIG
ZBSJ,2015-06-13 08:00,ZBSJ 130800Z 07004MPS 020V180 CAVOK 31/13 Q1004 NOSIG
ZBSJ,2015-06-13 09:00,ZBSJ 130900Z 06005MPS 020V080 CAVOK 30/13 Q1004 NOSIG
ZBSJ,2015-06-13 10:00,ZBSJ 131000Z 06005MPS CAVOK 29/15 Q1005 NOSIG
ZBSJ,2015-06-13 11:00,ZBSJ 131100Z 06004MPS CAVOK 27/14 Q1005 NOSIG
ZBSJ,2015-06-13 12:00,ZBSJ 131200Z 06002MPS CAVOK 24/13 Q1006 NOSIG
ZBSJ,2015-06-13 13:00,ZBSJ 131300Z 07002MPS CAVOK 23/14 Q1007 NOSIG
ZBSJ,2015-06-13 14:00,ZBSJ 131400Z 03001MPS CAVOK 21/14 Q1008 NOSIG
ZBSJ,2015-06-13 15:00,ZBSJ 131500Z 35001MPS CAVOK 21/13 Q1009 NOSIG
ZBSJ,2015-06-13 16:00,ZBSJ 131600Z 34001MPS CAVOK 20/14 Q1009 NOSIG
ZBSJ,2015-06-13 17:00,ZBSJ 131700Z 36002MPS CAVOK 19/14 Q1009 NOSIG
ZBSJ,2015-06-13 18:00,ZBSJ 131800Z 29002MPS CAVOK 20/14 Q1009 NOSIG
ZBSJ,2015-06-13 19:00,ZBSJ 131900Z 00000MPS CAVOK 18/14 Q1009 NOSIG
ZBSJ,2015-06-13 20:00,ZBSJ 132000Z 22002MPS CAVOK 19/15 Q1009 NOSIG
ZBSJ,2015-06-13 21:00,ZBSJ 132100Z 09001MPS CAVOK 17/14 Q1009 NOSIG
ZBSJ,2015-06-13 22:00,ZBSJ 132200Z 34001MPS CAVOK 19/16 Q1009 NOSIG
ZBSJ,2015-06-13 23:00,ZBSJ 132300Z 30001MPS CAVOK 24/16 Q1010 NOSIG
ZBSJ,2015-06-14 00:00,ZBSJ 140000Z 33001MPS CAVOK 26/16 Q1010 NOSIG
ZBSJ,2015-06-14 01:00,ZBSJ 140100Z 29002MPS CAVOK 28/16 Q1010 NOSIG
ZBSJ,2015-06-14 02:00,ZBSJ 140200Z 30001MPS CAVOK 29/16 Q1009 NOSIG
ZBSJ,2015-06-14 03:00,ZBSJ 140300Z 19001MPS CAVOK 30/14 Q1009 NOSIG
ZBSJ,2015-06-14 04:00,ZBSJ 140400Z 06002MPS 340V120 CAVOK 31/14 Q1009 NOSIG
ZBSJ,2015-06-14 05:00,ZBSJ 140500Z 20002MPS 9999 FEW030 33/15 Q1008 NOSIG
ZBSJ,2015-06-14 06:00,ZBSJ 140600Z VRB03MPS 9999 FEW030 32/14 Q1007 NOSIG
ZBSJ,2015-06-14 07:00,ZBSJ 140700Z VRB03MPS 9999 FEW030 33/13 Q1006 NOSIG
ZBSJ,2015-06-14 08:00,ZBSJ 140800Z 11001MPS 9999 FEW030 34/13 Q1006 NOSIG
ZBSJ,2015-06-14 09:00,ZBSJ 140900Z 17004MPS CAVOK 32/14 Q1006 NOSIG
ZBSJ,2015-06-14 10:00,ZBSJ 141000Z 13003MPS CAVOK 32/14 Q1006 NOSIG
ZBSJ,2015-06-14 11:00,ZBSJ 141100Z 14003MPS CAVOK 30/14 Q1006 NOSIG
ZBSJ,2015-06-14 12:00,ZBSJ 141200Z 13002MPS CAVOK 29/14 Q1007 NOSIG
ZBSJ,2015-06-14 13:00,ZBSJ 141300Z 14002MPS CAVOK 26/13 Q1007 NOSIG
ZBSJ,2015-06-14 14:00,ZBSJ 141400Z 15002MPS CAVOK 25/12 Q1008 NOSIG
ZBSJ,2015-06-14 15:00,ZBSJ 141500Z 17002MPS CAVOK 25/13 Q1008 NOSIG
ZBSJ,2015-06-14 16:00,ZBSJ 141600Z 18001MPS CAVOK 24/14 Q1008 NOSIG
ZBSJ,2015-06-14 17:00,ZBSJ 141700Z 13001MPS CAVOK 23/14 Q1008 NOSIG
ZBSJ,2015-06-14 18:00,ZBSJ 141800Z 14002MPS CAVOK 22/15 Q1007 NOSIG
ZBSJ,2015-06-14 19:00,ZBSJ 141900Z 00000MPS CAVOK 22/15 Q1007 NOSIG
ZBSJ,2015-06-14 20:00,ZBSJ 142000Z 05001MPS CAVOK 22/15 Q1007 NOSIG
ZBSJ,2015-06-14 21:00,ZBSJ 142100Z 07002MPS 6000 NSC 22/16 Q1007 NOSIG
ZBSJ,2015-06-14 22:00,ZBSJ 142200Z 06001MPS 3500 HZ NSC 22/16 Q1007 NOSIG
ZBSJ,2015-06-14 23:00,ZBSJ 142300Z 08001MPS 3500 HZ NSC 23/16 Q1007 NOSIG
ZBSJ,2015-06-15 00:00,ZBSJ 150000Z 06001MPS 3000 HZ NSC 24/16 Q1007 NOSIG
ZBSJ,2015-06-15 01:00,ZBSJ 150100Z 13001MPS 2500 HZ FEW033 25/16 Q1008 BECMG TL0220 3500
ZBSJ,2015-06-15 02:00,ZBSJ 150200Z 02001MPS 2500 HZ NSC 27/16 Q1008 BECMG 3500
ZBSJ,2015-06-15 03:00,ZBSJ 150300Z 12001MPS 2300 HZ FEW033 28/16 Q1008 BECMG 3500
ZBSJ,2015-06-15 04:00,ZBSJ 150400Z 03001MPS 2500 HZ NSC 29/17 Q1007 NOSIG
ZBSJ,2015-06-15 05:00,ZBSJ 150500Z 33001MPS 2500 HZ NSC 31/16 Q1007 NOSIG
ZBSJ,2015-06-15 06:00,ZBSJ 150600Z 17001MPS 3000 HZ NSC 32/16 Q1006 NOSIG
ZBSJ,2015-06-15 07:00,ZBSJ 150700Z 30002MPS 4500 HZ NSC 32/16 Q1006 NOSIG
ZBSJ,2015-06-15 08:00,ZBSJ 150800Z 02003MPS 340V050 2700 HZ FEW033 31/17 Q1005 NOSIG
ZBSJ,2015-06-15 09:00,ZBSJ 150900Z 04002MPS 360V070 3500 HZ FEW046 30/17 Q1004 NOSIG
ZBSJ,2015-06-15 10:00,ZBSJ 151000Z 06002MPS 4000 HZ NSC 30/17 Q1004 NOSIG
ZBSJ,2015-06-15 11:00,ZBSJ 151100Z 35003MPS 5000 HZ NSC 27/17 Q1005 NOSIG
ZBSJ,2015-06-15 12:00,ZBSJ 151200Z 02002MPS 7000 NSC 26/17 Q1005 NOSIG
ZBSJ,2015-06-15 13:00,ZBSJ 151300Z 03001MPS CAVOK 23/16 Q1005 NOSIG
ZBSJ,2015-06-15 14:00,ZBSJ 151400Z 06001MPS 8000 NSC 22/16 Q1006 NOSIG
ZBSJ,2015-06-15 15:00,ZBSJ 151500Z 05001MPS 6000 NSC 22/17 Q1005 NOSIG
ZBSJ,2015-06-15 16:00,ZBSJ 151600Z 33002MPS 6000 NSC 21/17 Q1005 NOSIG
ZBSJ,2015-06-15 17:00,ZBSJ 151700Z 33001MPS 6000 NSC 21/17 Q1005 NOSIG
ZBSJ,2015-06-15 18:00,ZBSJ 151800Z 34001MPS 6000 NSC 20/17 Q1004 NOSIG
ZBSJ,2015-06-15 19:00,ZBSJ 151900Z 00000MPS 6000 NSC 20/17 Q1004 NOSIG
ZBSJ,2015-06-15 20:00,ZBSJ 152000Z 00000MPS 5000 BR NSC 18/16 Q1004 NOSIG
ZBSJ,2015-06-15 21:00,ZBSJ 152100Z 22001MPS 4000 BR NSC 19/17 Q1004 NOSIG
ZBSJ,2015-06-15 22:00,ZBSJ 152200Z 23001MPS 3500 BR NSC 21/18 Q1004 NOSIG
ZBSJ,2015-06-15 23:00,ZBSJ 152300Z 32001MPS 4000 HZ NSC 24/18 Q1004 NOSIG
ZBSJ,2015-06-16 00:00,ZBSJ 160000Z 32002MPS 290V360 5000 HZ NSC 27/18 Q1005 NOSIG
ZBSJ,2015-06-16 01:00,ZBSJ 160100Z 28002MPS 6000 NSC 28/18 Q1005 NOSIG
ZBSJ,2015-06-16 02:00,ZBSJ 160200Z 24002MPS 7000 NSC 29/17 Q1004 NOSIG
ZBSJ,2015-06-16 03:00,ZBSJ 160300Z 13001MPS 7000 NSC 31/17 Q1004 NOSIG
ZBSJ,2015-06-16 04:00,ZBSJ 160400Z 18004MPS 120V220 CAVOK 33/15 Q1003 NOSIG
ZBSJ,2015-06-16 05:00,ZBSJ 160500Z 16003MPS 110V210 CAVOK 35/15 Q1003 NOSIG
ZBSJ,2015-06-16 06:00,ZBSJ 160600Z 15004MPS 110V210 CAVOK 35/14 Q1002 NOSIG
ZBSJ,2015-06-16 07:00,ZBSJ 160700Z 16004MPS 110V190 CAVOK 34/16 Q1002 NOSIG
ZBSJ,2015-06-16 08:00,ZBSJ 160800Z 16005MPS CAVOK 34/15 Q1001 NOSIG
ZBSJ,2015-06-16 09:00,ZBSJ 160900Z 18004MPS CAVOK 34/15 Q1001 NOSIG
ZBSJ,2015-06-16 10:00,ZBSJ 161000Z 16004MPS CAVOK 32/16 Q1001 NOSIG
ZBSJ,2015-06-16 11:00,ZBSJ 161100Z 15003MPS 7000 NSC 30/15 Q1001 NOSIG
ZBSJ,2015-06-16 12:00,ZBSJ 161200Z 16003MPS 7000 NSC 29/15 Q1002 NOSIG
ZBSJ,2015-06-16 13:00,ZBSJ 161300Z 17003MPS CAVOK 28/14 Q1003 NOSIG
ZBSJ,2015-06-16 14:00,ZBSJ 161400Z 17002MPS CAVOK 27/14 Q1003 NOSIG
ZBSJ,2015-06-16 15:00,ZBSJ 161500Z 18002MPS CAVOK 25/14 Q1003 NOSIG
ZBSJ,2015-06-16 16:00,ZBSJ 161600Z 20002MPS CAVOK 25/15 Q1003 NOSIG
ZBSJ,2015-06-16 17:00,ZBSJ 161700Z 15002MPS CAVOK 24/15 Q1003 NOSIG
ZBSJ,2015-06-16 18:00,ZBSJ 161800Z 17001MPS CAVOK 22/15 Q1002 NOSIG
ZBSJ,2015-06-16 19:00,ZBSJ 161900Z 00000MPS 7000 NSC 21/15 Q1002 NOSIG
ZBSJ,2015-06-16 20:00,ZBSJ 162000Z 06001MPS 7000 NSC 19/16 Q1002 NOSIG
ZBSJ,2015-06-16 21:00,ZBSJ 162100Z 00000MPS 4000 BR NSC 19/16 Q1002 NOSIG
ZBSJ,2015-06-16 22:00,ZBSJ 162200Z 23001MPS 3500 HZ NSC 22/17 Q1002 NOSIG
ZBSJ,2015-06-16 23:00,ZBSJ 162300Z 30001MPS 3500 HZ NSC 24/17 Q1003 NOSIG
ZBSJ,2015-06-17 00:00,ZBSJ 170000Z 02001MPS 3500 HZ NSC 27/17 Q1002 NOSIG
ZBSJ,2015-06-17 01:00,ZBSJ 170100Z 00000MPS 4000 HZ NSC 28/17 Q1003 NOSIG
ZBSJ,2015-06-17 02:00,ZBSJ 170200Z 08001MPS 4000 HZ NSC 31/17 Q1003 NOSIG
ZBSJ,2015-06-17 03:00,ZBSJ 170300Z 33002MPS 5000 HZ NSC 32/17 Q1003 NOSIG
ZBSJ,2015-06-17 04:00,ZBSJ 170400Z 23002MPS 6000 NSC 33/16 Q1002 NOSIG
ZBSJ,2015-06-17 05:00,ZBSJ 170500Z 24002MPS 8000 NSC 34/15 Q1001 BECMG AT0630 -TSRA
ZBSJ,2015-06-17 06:00,ZBSJ 170600Z 34002MPS 8000 NSC 34/15 Q1001 BECMG AT0630 -TSRA
ZBSJ,2015-06-17 07:00,ZBSJ 170700Z 36008MPS 9999 -TSRA FEW033CB BKN046 28/15 Q1002 NOSIG
ZBSJ,2015-06-17 08:00,ZBSJ 170800Z 35003MPS 310V020 CAVOK 30/17 Q1001 NOSIG
ZBSJ,2015-06-17 09:00,ZBSJ 170900Z 30005MPS CAVOK 32/17 Q1001 NOSIG
ZBSJ,2015-06-17 10:00,ZBSJ 171000Z 29003MPS 260V330 CAVOK 31/18 Q1001 NOSIG
ZBSJ,2015-06-17 11:00,ZBSJ 171100Z 25003MPS 230V290 CAVOK 30/17 Q1002 NOSIG
ZBSJ,2015-06-17 12:00,ZBSJ 171200Z 26002MPS CAVOK 28/18 Q1002 NOSIG
ZBSJ,2015-06-17 13:00,ZBSJ 171300Z 15001MPS CAVOK 25/18 Q1003 NOSIG
ZBSJ,2015-06-17 14:00,ZBSJ 171400Z 00000MPS CAVOK 23/18 Q1004 NOSIG
ZBSJ,2015-06-17 15:00,ZBSJ 171500Z 02001MPS CAVOK 23/18 Q1004 NOSIG
ZBSJ,2015-06-17 16:00,ZBSJ 171600Z 02001MPS 6000 NSC 22/18 Q1005 NOSIG
ZBSJ,2015-06-17 17:00,ZBSJ 171700Z 34002MPS 6000 NSC 23/19 Q1005 NOSIG
ZBSJ,2015-06-17 18:00,ZBSJ 171800Z 02003MPS 6000 NSC 25/19 Q1006 NOSIG
ZBSJ,2015-06-17 19:00,ZBSJ 171900Z 02003MPS 7000 NSC 24/18 Q1006 NOSIG
ZBSJ,2015-06-17 20:00,ZBSJ 172000Z 02002MPS 7000 NSC 23/17 Q1007 NOSIG
ZBSJ,2015-06-17 21:00,ZBSJ 172100Z 02003MPS 5000 HZ NSC 23/18 Q1007 NOSIG
ZBSJ,2015-06-17 22:00,ZBSJ 172200Z 05002MPS 5000 HZ FEW040 23/18 Q1008 NOSIG
ZBSJ,2015-06-17 23:00,ZBSJ 172300Z 06003MPS 030V090 6000 FEW040 25/17 Q1009 NOSIG
ZBSJ,2015-06-18 00:00,ZBSJ 180000Z 04002MPS 5000 HZ NSC 26/18 Q1009 NOSIG
ZBSJ,2015-06-18 01:00,ZBSJ 180100Z 06001MPS 5000 HZ NSC 28/16 Q1009 NOSIG
ZBSJ,2015-06-18 02:00,ZBSJ 180200Z 10003MPS 060V180 9999 FEW040 29/14 Q1009 NOSIG
ZBSJ,2015-06-18 03:00,ZBSJ 180300Z VRB02MPS 9999 FEW040 31/12 Q1008 NOSIG
ZBSJ,2015-06-18 04:00,ZBSJ 180400Z 07002MPS 9999 FEW040 32/12 Q1007 NOSIG
ZBSJ,2015-06-18 05:00,ZBSJ 180500Z VRB02MPS 9999 FEW040 33/11 Q1006 NOSIG
ZBSJ,2015-06-18 06:00,ZBSJ 180600Z 13002MPS 060V220 9999 FEW040 33/11 Q1006 NOSIG
ZBSJ,2015-06-18 07:00,ZBSJ 180700Z 12002MPS CAVOK 33/10 Q1005 NOSIG
ZBSJ,2015-06-18 07:30,ZBSJ 180730Z 30004MPS 280V340 CAVOK 35/10 Q1004 NOSIG
ZBSJ,2015-06-18 08:00,ZBSJ 180800Z VRB02MPS CAVOK 34/09 Q1004 NOSIG
ZBSJ,2015-06-18 08:30,ZBSJ 180830Z 22003MPS 160V260 CAVOK 34/09 Q1004 NOSIG
ZBSJ,2015-06-18 09:00,ZBSJ 180900Z 30002MPS CAVOK 34/09 Q1003 NOSIG
ZBSJ,2015-06-18 09:30,ZBSJ 180930Z 20002MPS 9999 FEW040 33/09 Q1003 NOSIG
ZBSJ,2015-06-18 10:00,ZBSJ 181000Z 17003MPS 9999 FEW040 33/10 Q1003 NOSIG
ZBSJ,2015-06-18 10:30,ZBSJ 181030Z 17005MPS 9999 FEW040 32/12 Q1003 NOSIG
ZBSJ,2015-06-18 11:00,ZBSJ 181100Z 17004MPS CAVOK 31/12 Q1003 NOSIG
ZBSJ,2015-06-18 12:00,ZBSJ 181200Z 16003MPS CAVOK 26/11 Q1004 NOSIG
ZBSJ,2015-06-18 13:00,ZBSJ 181300Z 18003MPS CAVOK 27/11 Q1004 NOSIG
ZBSJ,2015-06-18 14:00,ZBSJ 181400Z 15002MPS CAVOK 25/11 Q1005 NOSIG
ZBSJ,2015-06-18 15:00,ZBSJ 181500Z 13001MPS CAVOK 23/11 Q1005 NOSIG
ZBSJ,2015-06-18 16:00,ZBSJ 181600Z 03002MPS CAVOK 23/11 Q1006 NOSIG
ZBSJ,2015-06-18 17:00,ZBSJ 181700Z 08004MPS CAVOK 24/10 Q1006 NOSIG
ZBSJ,2015-06-18 18:00,ZBSJ 181800Z 11004MPS CAVOK 23/12 Q1006 NOSIG
ZBSJ,2015-06-18 19:00,ZBSJ 181900Z 12003MPS CAVOK 23/11 Q1005 NOSIG
ZBSJ,2015-06-18 20:00,ZBSJ 182000Z 36002MPS CAVOK 19/11 Q1006 NOSIG
ZBSJ,2015-06-18 21:00,ZBSJ 182100Z 36001MPS CAVOK 18/12 Q1006 NOSIG
ZBSJ,2015-06-18 22:00,ZBSJ 182200Z 05001MPS CAVOK 19/13 Q1006 NOSIG
ZBSJ,2015-06-18 23:00,ZBSJ 182300Z 04001MPS CAVOK 22/13 Q1006 NOSIG
ZBSJ,2015-06-19 00:00,ZBSJ 190000Z 01001MPS CAVOK 23/12 Q1007 NOSIG
ZBSJ,2015-06-19 01:00,ZBSJ 190100Z 01003MPS 340V060 CAVOK 26/13 Q1007 NOSIG
ZBSJ,2015-06-19 02:00,ZBSJ 190200Z 06004MPS 030V100 CAVOK 27/14 Q1007 NOSIG
ZBSJ,2015-06-19 03:00,ZBSJ 190300Z 07006MPS 040V100 CAVOK 28/13 Q1008 NOSIG
ZBSJ,2015-06-19 04:00,ZBSJ 190400Z 06008MPS CAVOK 28/14 Q1008 NOSIG
ZBSJ,2015-06-19 05:00,ZBSJ 190500Z 07006G12MPS 040V110 CAVOK 29/13 Q1008 NOSIG
ZBSJ,2015-06-19 06:00,ZBSJ 190600Z 08007MPS 050V130 CAVOK 29/14 Q1008 NOSIG
ZBSJ,2015-06-19 07:00,ZBSJ 190700Z 09005MPS CAVOK 30/13 Q1008 NOSIG
ZBSJ,2015-06-19 08:00,ZBSJ 190800Z 08006MPS 050V110 9999 SCT040 29/13 Q1008 NOSIG
ZBSJ,2015-06-19 09:00,ZBSJ 190900Z 07006MPS 9999 FEW040 28/13 Q1008 NOSIG
ZBSJ,2015-06-19 10:00,ZBSJ 191000Z 07006MPS 9999 FEW040 27/14 Q1009 NOSIG
ZBSJ,2015-06-19 11:00,ZBSJ 191100Z 09005MPS CAVOK 25/14 Q1010 NOSIG
ZBSJ,2015-06-19 12:00,ZBSJ 191200Z 07004MPS CAVOK 24/13 Q1011 NOSIG
ZBSJ,2015-06-19 13:00,ZBSJ 191300Z 07002MPS CAVOK 22/14 Q1012 NOSIG
ZBSJ,2015-06-19 14:00,ZBSJ 191400Z 06002MPS CAVOK 21/14 Q1013 NOSIG
ZBSJ,2015-06-19 15:00,ZBSJ 191500Z 04002MPS CAVOK 21/14 Q1013 NOSIG
ZBSJ,2015-06-19 16:00,ZBSJ 191600Z 00000MPS CAVOK 20/14 Q1013 NOSIG
ZBSJ,2015-06-19 17:00,ZBSJ 191700Z 33002MPS CAVOK 19/13 Q1013 NOSIG
ZBSJ,2015-06-19 18:00,ZBSJ 191800Z 35001MPS CAVOK 18/13 Q1013 NOSIG
ZBSJ,2015-06-19 19:00,ZBSJ 191900Z 04001MPS CAVOK 16/13 Q1012 NOSIG
ZBSJ,2015-06-19 20:00,ZBSJ 192000Z 26001MPS CAVOK 17/14 Q1013 NOSIG
ZBSJ,2015-06-19 21:00,ZBSJ 192100Z 00000MPS CAVOK 16/13 Q1013 NOSIG
ZBSJ,2015-06-19 22:00,ZBSJ 192200Z 00000MPS CAVOK 17/15 Q1013 NOSIG
ZBSJ,2015-06-19 23:00,ZBSJ 192300Z 07001MPS CAVOK 22/14 Q1014 NOSIG
ZBSJ,2015-06-20 00:00,ZBSJ 200000Z 36001MPS CAVOK 24/14 Q1014 NOSIG
ZBSJ,2015-06-20 01:00,ZBSJ 200100Z 31001MPS CAVOK 26/15 Q1013 NOSIG
ZBSJ,2015-06-20 02:00,ZBSJ 200200Z 29002MPS CAVOK 28/14 Q1013 NOSIG
ZBSJ,2015-06-20 03:00,ZBSJ 200300Z 07002MPS 9999 FEW040 29/13 Q1013 NOSIG
ZBSJ,2015-06-20 04:00,ZBSJ 200400Z 04001MPS 9999 FEW040 29/12 Q1012 NOSIG
ZBSJ,2015-06-20 05:00,ZBSJ 200500Z 01003MPS 320V110 9999 FEW040 30/12 Q1012 NOSIG
ZBSJ,2015-06-20 06:00,ZBSJ 200600Z 11002MPS 050V170 9999 FEW040 31/12 Q1011 NOSIG
ZBSJ,2015-06-20 07:00,ZBSJ 200700Z 24002MPS 9999 FEW033 31/12 Q1011 NOSIG
ZBSJ,2015-06-20 08:00,ZBSJ 200800Z 04002MPS 320V080 CAVOK 31/12 Q1010 NOSIG
ZBSJ,2015-06-20 09:00,ZBSJ 200900Z 08002MPS 040V120 CAVOK 30/12 Q1010 NOSIG
ZBSJ,2015-06-20 10:00,ZBSJ 201000Z 11002MPS 070V140 CAVOK 30/12 Q1010 NOSIG
ZBSJ,2015-06-20 11:00,ZBSJ 201100Z 12002MPS 090V150 9999 FEW040 29/12 Q1010 NOSIG
ZBSJ,2015-06-20 12:00,ZBSJ 201200Z 13002MPS CAVOK 27/13 Q1010 NOSIG
ZBSJ,2015-06-20 13:00,ZBSJ 201300Z 19001MPS CAVOK 24/13 Q1010 NOSIG
ZBSJ,2015-06-20 14:00,ZBSJ 201400Z 16001MPS CAVOK 23/13 Q1011 NOSIG
ZBSJ,2015-06-20 15:00,ZBSJ 201500Z 16001MPS CAVOK 22/13 Q1011 NOSIG
ZBSJ,2015-06-20 16:00,ZBSJ 201600Z 21001MPS CAVOK 22/13 Q1010 NOSIG
ZBSJ,2015-06-20 17:00,ZBSJ 201700Z 20001MPS CAVOK 21/14 Q1010 NOSIG
ZBSJ,2015-06-20 18:00,ZBSJ 201800Z 00000MPS CAVOK 21/14 Q1010 NOSIG
ZBSJ,2015-06-20 19:00,ZBSJ 201900Z 00000MPS CAVOK 21/14 Q1010 NOSIG
ZBSJ,2015-06-20 20:00,ZBSJ 202000Z 36001MPS CAVOK 19/14 Q1010 NOSIG
ZBSJ,2015-06-20 21:00,ZBSJ 202100Z 06001MPS 7000 NSC 18/14 Q1010 NOSIG
ZBSJ,2015-06-20 22:00,ZBSJ 202200Z 00000MPS 7000 NSC 20/16 Q1010 NOSIG
ZBSJ,2015-06-20 23:00,ZBSJ 202300Z 31001MPS CAVOK 23/15 Q1010 NOSIG
ZBSJ,2015-06-21 00:00,ZBSJ 210000Z 33001MPS CAVOK 24/15 Q1010 NOSIG
ZBSJ,2015-06-21 01:00,ZBSJ 210100Z 27001MPS 8000 NSC 26/15 Q1010 NOSIG
ZBSJ,2015-06-21 02:00,ZBSJ 210200Z 21001MPS CAVOK 29/14 Q1010 NOSIG
ZBSJ,2015-06-21 03:00,ZBSJ 210300Z 19003MPS 120V240 CAVOK 31/13 Q1009 NOSIG
ZBSJ,2015-06-21 04:00,ZBSJ 210400Z 17004MPS 110V220 CAVOK 33/12 Q1008 NOSIG
ZBSJ,2015-06-21 05:00,ZBSJ 210500Z 16002MPS CAVOK 32/13 Q1008 NOSIG
ZBSJ,2015-06-21 06:00,ZBSJ 210600Z 21003MPS 140V290 CAVOK 32/12 Q1007 NOSIG
ZBSJ,2015-06-21 07:00,ZBSJ 210700Z 16002MPS CAVOK 33/12 Q1006 NOSIG
ZBSJ,2015-06-21 08:00,ZBSJ 210800Z VRB03MPS CAVOK 33/13 Q1006 NOSIG
ZBSJ,2015-06-21 09:00,ZBSJ 210900Z 18005MPS 130V220 CAVOK 32/13 Q1005 NOSIG
ZBSJ,2015-06-21 10:00,ZBSJ 211000Z 17004MPS CAVOK 30/12 Q1005 NOSIG
ZBSJ,2015-06-21 11:00,ZBSJ 211100Z 16004MPS CAVOK 29/12 Q1005 NOSIG
ZBSJ,2015-06-21 12:00,ZBSJ 211200Z 16002MPS CAVOK 27/12 Q1006 NOSIG
ZBSJ,2015-06-21 13:00,ZBSJ 211300Z 14001MPS CAVOK 27/12 Q1006 NOSIG
ZBSJ,2015-06-21 14:00,ZBSJ 211400Z 14001MPS CAVOK 26/13 Q1006 NOSIG
ZBSJ,2015-06-21 15:00,ZBSJ 211500Z 16001MPS CAVOK 26/13 Q1006 NOSIG
ZBSJ,2015-06-21 16:00,ZBSJ 211600Z 12001MPS CAVOK 25/15 Q1006 NOSIG
ZBSJ,2015-06-21 18:00,ZBSJ 211800Z 27003MPS CAVOK 25/16 Q1006 NOSIG
ZBSJ,2015-06-21 19:00,ZBSJ 211900Z 30005MPS CAVOK 24/16 Q1006 NOSIG
ZBSJ,2015-06-21 20:00,ZBSJ 212000Z 35001MPS CAVOK 23/16 Q1005 NOSIG
ZBSJ,2015-06-21 21:00,ZBSJ 212100Z 29002MPS CAVOK 22/16 Q1006 NOSIG
ZBSJ,2015-06-21 22:00,ZBSJ 212200Z 34002MPS CAVOK 21/16 Q1006 NOSIG
ZBSJ,2015-06-21 23:00,ZBSJ 212300Z 32003MPS CAVOK 23/16 Q1006 NOSIG
ZBSJ,2015-06-22 00:00,ZBSJ 220000Z 34002MPS CAVOK 26/15 Q1006 NOSIG
ZBSJ,2015-06-22 01:00,ZBSJ 220100Z 01001MPS CAVOK 26/15 Q1006 NOSIG
ZBSJ,2015-06-22 02:00,ZBSJ 220200Z 11002MPS CAVOK 29/15 Q1006 NOSIG
ZBSJ,2015-06-22 03:00,ZBSJ 220300Z 16002MPS CAVOK 30/15 Q1006 NOSIG
ZBSJ,2015-06-22 04:00,ZBSJ 220400Z 17002MPS CAVOK 30/15 Q1005 NOSIG
ZBSJ,2015-06-22 05:00,ZBSJ 220500Z 24001MPS 8000 NSC 31/15 Q1005 NOSIG
ZBSJ,2015-06-22 06:00,ZBSJ 220600Z 10002MPS 050V150 6000 NSC 32/16 Q1004 NOSIG
ZBSJ,2015-06-22 07:00,ZBSJ 220700Z 17003MPS 6000 NSC 33/17 Q1004 NOSIG
ZBSJ,2015-06-22 08:00,ZBSJ 220800Z 12002MPS 070V180 6000 NSC 32/16 Q1004 NOSIG
ZBSJ,2015-06-22 09:00,ZBSJ 220900Z 01004MPS 6000 NSC 30/18 Q1004 NOSIG
ZBSJ,2015-06-22 10:00,ZBSJ 221000Z 04004MPS 6000 NSC 29/18 Q1004 NOSIG
ZBSJ,2015-06-22 11:00,ZBSJ 221100Z 04003MPS 6000 NSC 28/17 Q1004 NOSIG
ZBSJ,2015-06-22 12:00,ZBSJ 221200Z 04003MPS 6000 NSC 27/17 Q1005 NOSIG
ZBSJ,2015-06-22 13:00,ZBSJ 221300Z 04002MPS 6000 NSC 26/17 Q1005 NOSIG
ZBSJ,2015-06-22 14:00,ZBSJ 221400Z 06002MPS 6000 NSC 26/17 Q1005 NOSIG
ZBSJ,2015-06-22 15:00,ZBSJ 221500Z 03002MPS 5000 HZ NSC 25/17 Q1006 NOSIG
ZBSJ,2015-06-22 16:00,ZBSJ 221600Z 05003MPS 5000 HZ NSC 25/18 Q1005 NOSIG
ZBSJ,2015-06-22 17:00,ZBSJ 221700Z 05003MPS 4500 HZ NSC 24/18 Q1006 NOSIG
ZBSJ,2015-06-22 18:00,ZBSJ 221800Z 06002MPS 4500 HZ NSC 24/17 Q1006 NOSIG
ZBSJ,2015-06-22 19:00,ZBSJ 221900Z 07002MPS 4500 HZ NSC 23/17 Q1006 NOSIG
ZBSJ,2015-06-22 20:00,ZBSJ 222000Z 09002MPS 4500 HZ NSC 23/17 Q1006 NOSIG
ZBSJ,2015-06-22 21:00,ZBSJ 222100Z 34001MPS 3500 BR NSC 23/17 Q1006 NOSIG
ZBSJ,2015-06-22 22:00,ZBSJ 222200Z 06001MPS 3500 BR NSC 23/18 Q1007 NOSIG
ZBSJ,2015-06-22 23:00,ZBSJ 222300Z 02002MPS 3500 HZ NSC 25/18 Q1007 NOSIG
ZBSJ,2015-06-23 00:00,ZBSJ 230000Z 36001MPS 2500 HZ NSC 25/18 Q1007 NOSIG
ZBSJ,2015-06-23 01:00,ZBSJ 230100Z 28003MPS 250V330 2500 HZ NSC 27/18 Q1007 BECMG 3500
ZBSJ,2015-06-23 02:00,ZBSJ 230200Z 34002MPS 310V010 3500 HZ NSC 27/18 Q1007 NOSIG
ZBSJ,2015-06-23 03:00,ZBSJ 230300Z 35001MPS 4000 HZ NSC 28/18 Q1007 NOSIG
ZBSJ,2015-06-23 04:00,ZBSJ 230400Z 28003MPS 4000 HZ NSC 28/19 Q1007 NOSIG
ZBSJ,2015-06-23 05:00,ZBSJ 230500Z 31002MPS 4000 HZ NSC 28/18 Q1007 NOSIG
ZBSJ,2015-06-23 06:00,ZBSJ 230600Z 24001MPS 4000 HZ NSC 29/18 Q1007 NOSIG
ZBSJ,2015-06-23 07:00,ZBSJ 230700Z 20002MPS 160V240 4000 HZ NSC 29/18 Q1007 NOSIG
ZBSJ,2015-06-23 08:00,ZBSJ 230800Z 19002MPS 4000 HZ NSC 30/18 Q1006 NOSIG
ZBSJ,2015-06-23 09:00,ZBSJ 230900Z 18001MPS 4000 HZ NSC 30/18 Q1006 NOSIG
ZBSJ,2015-06-23 10:00,ZBSJ 231000Z 19003MPS 150V230 4000 HZ NSC 30/18 Q1006 NOSIG
ZBSJ,2015-06-23 11:00,ZBSJ 231100Z 18005MPS 8000 NSC 29/17 Q1006 NOSIG
ZBSJ,2015-06-23 12:00,ZBSJ 231200Z 17004MPS CAVOK 27/17 Q1006 NOSIG
ZBSJ,2015-06-23 13:00,ZBSJ 231300Z 18004MPS CAVOK 26/17 Q1007 NOSIG
ZBSJ,2015-06-23 14:00,ZBSJ 231400Z 19003MPS CAVOK 26/17 Q1007 NOSIG
ZBSJ,2015-06-23 15:00,ZBSJ 231500Z 18005MPS 7000 NSC 25/19 Q1007 NOSIG
ZBSJ,2015-06-23 16:00,ZBSJ 231600Z 17004MPS 5000 HZ NSC 25/19 Q1007 NOSIG
ZBSJ,2015-06-23 17:00,ZBSJ 231700Z 18004MPS 4000 HZ NSC 25/20 Q1007 NOSIG
ZBSJ,2015-06-23 18:00,ZBSJ 231800Z 17003MPS 3500 -RA BR OVC046 23/21 Q1007 NOSIG
ZBSJ,2015-06-23 19:00,ZBSJ 231900Z 18004MPS 5000 -RA BR OVC046 24/19 Q1006 NOSIG
ZBSJ,2015-06-23 20:00,ZBSJ 232000Z 18005MPS 9999 BKN046 23/17 Q1006 NOSIG
ZBSJ,2015-06-23 21:00,ZBSJ 232100Z 18004MPS 9999 OVC046 23/17 Q1006 NOSIG
ZBSJ,2015-06-23 22:00,ZBSJ 232200Z 19006MPS 9999 OVC046 23/17 Q1006 NOSIG
ZBSJ,2015-06-23 23:00,ZBSJ 232300Z 18005MPS 9999 BKN046 23/18 Q1007 NOSIG
ZBSJ,2015-06-24 00:00,ZBSJ 240000Z 18005MPS CAVOK 26/18 Q1007 NOSIG
ZBSJ,2015-06-24 01:00,ZBSJ 240100Z 20005MPS CAVOK 25/17 Q1007 NOSIG
ZBSJ,2015-06-24 02:00,ZBSJ 240200Z 18006MPS CAVOK 28/17 Q1006 NOSIG
ZBSJ,2015-06-24 03:00,ZBSJ 240300Z 19005MPS CAVOK 29/17 Q1006 NOSIG
ZBSJ,2015-06-24 04:00,ZBSJ 240400Z 18006MPS 150V220 9999 FEW046 29/17 Q1006 NOSIG
ZBSJ,2015-06-24 05:00,ZBSJ 240500Z 18006MPS 150V210 9999 BKN040 29/18 Q1006 NOSIG
ZBSJ,2015-06-24 06:00,ZBSJ 240600Z 16006MPS 140V200 9999 BKN040 29/18 Q1005 NOSIG
ZBSJ,2015-06-24 07:00,ZBSJ 240700Z 17006MPS 9999 SCT030 OVC046 29/17 Q1005 NOSIG
ZBSJ,2015-06-24 08:00,ZBSJ 240800Z 17005MPS CAVOK 29/18 Q1004 NOSIG
ZBSJ,2015-06-24 09:00,ZBSJ 240900Z 19005MPS 150V220 CAVOK 28/17 Q1004 NOSIG
ZBSJ,2015-06-24 10:00,ZBSJ 241000Z 19004MPS CAVOK 27/17 Q1004 NOSIG
ZBSJ,2015-06-24 11:00,ZBSJ 241100Z 18003MPS CAVOK 26/17 Q1004 NOSIG
ZBSJ,2015-06-24 12:00,ZBSJ 241200Z 17004MPS CAVOK 25/17 Q1004 NOSIG
ZBSJ,2015-06-24 13:00,ZBSJ 241300Z 17003MPS CAVOK 24/18 Q1005 NOSIG
ZBSJ,2015-06-24 14:00,ZBSJ 241400Z 17002MPS CAVOK 23/18 Q1005 NOSIG
ZBSJ,2015-06-24 15:00,ZBSJ 241500Z 17001MPS CAVOK 23/18 Q1005 NOSIG
ZBSJ,2015-06-24 16:00,ZBSJ 241600Z 17001MPS CAVOK 23/18 Q1005 NOSIG
ZBSJ,2015-06-24 17:00,ZBSJ 241700Z 15002MPS 8000 NSC 22/18 Q1004 NOSIG
ZBSJ,2015-06-24 18:00,ZBSJ 241800Z 14003MPS 8000 NSC 22/19 Q1003 NOSIG
ZBSJ,2015-06-24 19:00,ZBSJ 241900Z 11001MPS 5000 BR NSC 21/19 Q1003 NOSIG
ZBSJ,2015-06-24 20:00,ZBSJ 242000Z 16002MPS 5000 BR NSC 21/19 Q1003 NOSIG
ZBSJ,2015-06-24 21:00,ZBSJ 242100Z 14002MPS 3500 BR NSC 21/19 Q1003 NOSIG
ZBSJ,2015-06-24 22:00,ZBSJ 242200Z 17001MPS 3500 BR NSC 21/19 Q1003 NOSIG
ZBSJ,2015-06-24 23:00,ZBSJ 242300Z 22001MPS 3000 BR NSC 22/20 Q1003 NOSIG
ZBSJ,2015-06-25 00:00,ZBSJ 250000Z 23001MPS 4000 BR NSC 22/20 Q1003 NOSIG
ZBSJ,2015-06-25 01:00,ZBSJ 250100Z 16001MPS 6000 NSC 23/19 Q1003 NOSIG
ZBSJ,2015-06-25 02:00,ZBSJ 250200Z 16002MPS 6000 NSC 24/20 Q1003 NOSIG
ZBSJ,2015-06-25 03:00,ZBSJ 250300Z 15002MPS 100V190 6000 NSC 24/20 Q1003 NOSIG
ZBSJ,2015-06-25 04:00,ZBSJ 250400Z 18003MPS 150V210 7000 NSC 26/20 Q1002 NOSIG
ZBSJ,2015-06-25 05:00,ZBSJ 250500Z 16003MPS 120V210 8000 NSC 27/19 Q1002 NOSIG
ZBSJ,2015-06-25 06:00,ZBSJ 250600Z 20003MPS 130V270 8000 NSC 29/19 Q1000 NOSIG
ZBSJ,2015-06-25 07:00,ZBSJ 250700Z 17003MPS 140V210 8000 NSC 29/19 Q1000 NOSIG
ZBSJ,2015-06-25 08:00,ZBSJ 250800Z 15004MPS 8000 NSC 28/19 Q0999 NOSIG
ZBSJ,2015-06-25 09:00,ZBSJ 250900Z 15003MPS 8000 NSC 29/18 Q0999 NOSIG
ZBSJ,2015-06-25 10:00,ZBSJ 251000Z 14003MPS 8000 NSC 28/18 Q0999 NOSIG
ZBSJ,2015-06-25 11:00,ZBSJ 251100Z 15004MPS 8000 NSC 27/19 Q0999 NOSIG
ZBSJ,2015-06-25 12:00,ZBSJ 251200Z 15003MPS 6000 NSC 24/19 Q0999 NOSIG
ZBSJ,2015-06-25 13:00,ZBSJ 251300Z 17003MPS 6000 NSC 24/19 Q1000 NOSIG
ZBSJ,2015-06-25 14:00,ZBSJ 251400Z 18002MPS 6000 NSC 24/19 Q1000 NOSIG
ZBSJ,2015-06-25 15:00,ZBSJ 251500Z 19002MPS 140V210 6000 BKN046 24/19 Q1000 BECMG TL1615 33007MPS -TSRA
ZBSJ,2015-06-25 16:00,ZBSJ 251600Z 24002MPS 6000 BKN046 24/19 Q1001 BECMG TL1615 -TSRA
ZBSJ,2015-06-25 17:00,ZBSJ 251700Z 18004MPS 4000 -RA BR OVC046 21/20 Q1000 NOSIG
ZBSJ,2015-06-25 18:00,ZBSJ 251800Z 31003MPS 4000 BR OVC046 21/20 Q1000 NOSIG
ZBSJ,2015-06-25 19:00,ZBSJ 251900Z 01001MPS 4000 BR OVC046 20/19 Q0999 NOSIG
ZBSJ,2015-06-25 20:00,ZBSJ 252000Z 34001MPS 3500 BR NSC 20/19 Q0999 NOSIG
ZBSJ,2015-06-25 21:00,ZBSJ 252100Z 04001MPS 1800 BR NSC 20/20 Q1000 NOSIG
ZBSJ,2015-06-25 22:00,ZBSJ 252200Z 13001MPS 1200 R33/1400D BR NSC 20/20 Q1000 NOSIG
ZBSJ,2015-06-25 23:00,ZBSJ 252300Z 14001MPS 1600 R15/1400N BR NSC 22/21 Q1000 BECMG TL0030 3500
ZBSJ,2015-06-26 00:00,ZBSJ 260000Z 17001MPS 2200 BR NSC 23/21 Q1001 BECMG 3500
ZBSJ,2015-06-26 01:00,ZBSJ 260100Z 18002MPS 2500 BR NSC 24/21 Q1001 BECMG 3500
ZBSJ,2015-06-26 02:00,ZBSJ 260200Z 22002MPS 2500 BR NSC 26/21 Q1001 BECMG 3500
ZBSJ,2015-06-26 03:00,ZBSJ 260300Z 21002MPS 170V270 2500 HZ NSC 28/22 Q1001 BECMG 3500
ZBSJ,2015-06-26 04:00,ZBSJ 260400Z VRB02MPS 3000 HZ NSC 30/21 Q1001 NOSIG
ZBSJ,2015-06-26 05:00,ZBSJ 260500Z 14002MPS 3500 HZ NSC 29/20 Q1000 NOSIG
ZBSJ,2015-06-26 06:00,ZBSJ 260600Z 11003MPS 080V160 3500 HZ NSC 30/21 Q0999 NOSIG
ZBSJ,2015-06-26 07:00,ZBSJ 260700Z VRB03MPS 4000 HZ NSC 32/21 Q0999 NOSIG
ZBSJ,2015-06-26 08:00,ZBSJ 260800Z 15003MPS 120V200 6000 FEW033 32/20 Q0998 NOSIG
ZBSJ,2015-06-26 09:00,ZBSJ 260900Z 19003MPS 140V220 7000 FEW033 32/20 Q0998 NOSIG
ZBSJ,2015-06-26 10:00,ZBSJ 261000Z 15004MPS 120V180 8000 NSC 31/20 Q0998 NOSIG
ZBSJ,2015-06-26 11:00,ZBSJ 261100Z 16004MPS 8000 NSC 29/20 Q0999 NOSIG
ZBSJ,2015-06-26 12:00,ZBSJ 261200Z 14002MPS 7000 NSC 28/21 Q1000 NOSIG
ZBSJ,2015-06-26 13:00,ZBSJ 261300Z 14002MPS 7000 NSC 26/21 Q1001 NOSIG
ZBSJ,2015-06-26 14:00,ZBSJ 261400Z 15002MPS 6000 NSC 25/21 Q1001 NOSIG
ZBSJ,2015-06-26 15:00,ZBSJ 261500Z 14001MPS 5000 BR NSC 25/21 Q1002 NOSIG
ZBSJ,2015-06-26 16:00,ZBSJ 261600Z 13001MPS 5000 BR NSC 24/21 Q1002 NOSIG
ZBSJ,2015-06-26 17:00,ZBSJ 261700Z 17001MPS 5000 BR NSC 24/21 Q1001 NOSIG
ZBSJ,2015-06-26 18:00,ZBSJ 261800Z 18002MPS 4000 BR NSC 23/21 Q1001 NOSIG
ZBSJ,2015-06-26 19:00,ZBSJ 261900Z 22001MPS 3500 BR NSC 23/21 Q1001 NOSIG
ZBSJ,2015-06-26 20:00,ZBSJ 262000Z 07001MPS 3000 BR NSC 22/21 Q1002 NOSIG
ZBSJ,2015-06-26 21:00,ZBSJ 262100Z 06001MPS 1800 BR NSC 22/21 Q1002 NOSIG
ZBSJ,2015-06-26 22:00,ZBSJ 262200Z 05002MPS 1400 R15/1500D BR NSC 23/22 Q1003 NOSIG
ZBSJ,2015-06-26 23:00,ZBSJ 262300Z 08002MPS 1300 R15/1300N BR NSC 24/22 Q1003 BECMG 1600
ZBSJ,2015-06-27 00:00,ZBSJ 270000Z 07003MPS 040V110 1700 BR NSC 26/23 Q1004 BECMG 3500
ZBSJ,2015-06-27 01:00,ZBSJ 270100Z 06002MPS 020V090 2000 BR NSC 27/23 Q1005 BECMG 3500
ZBSJ,2015-06-27 02:00,ZBSJ 270200Z 04002MPS 2300 HZ NSC 29/23 Q1005 BECMG 3500
ZBSJ,2015-06-27 03:00,ZBSJ 270300Z 05001MPS 2700 HZ NSC 31/23 Q1005 BECMG 3500
ZBSJ,2015-06-27 04:00,ZBSJ 270400Z 04001MPS 3000 HZ NSC 31/22 Q1005 NOSIG
ZBSJ,2015-06-27 05:00,ZBSJ 270500Z 16002MPS 3000 HZ NSC 32/22 Q1005 NOSIG
ZBSJ,2015-06-27 06:00,ZBSJ 270600Z 17001MPS 5000 HZ NSC 34/22 Q1004 NOSIG
ZBSJ,2015-06-27 07:00,ZBSJ 270700Z 16003MPS 110V210 5000 HZ NSC 34/21 Q1004 NOSIG
ZBSJ,2015-06-27 08:00,ZBSJ 270800Z 17003MPS 140V210 7000 NSC 34/21 Q1004 NOSIG
ZBSJ,2015-06-27 09:00,ZBSJ 270900Z 18003MPS 150V210 9999 FEW033 34/20 Q1004 NOSIG
ZBSJ,2015-06-27 10:00,ZBSJ 271000Z 15004MPS 9999 FEW033 33/19 Q1004 NOSIG
ZBSJ,2015-06-27 11:00,ZBSJ 271100Z 14003MPS CAVOK 32/19 Q1004 NOSIG
ZBSJ,2015-06-27 12:00,ZBSJ 271200Z 13002MPS CAVOK 30/19 Q1004 NOSIG
ZBSJ,2015-06-27 13:00,ZBSJ 271300Z 12002MPS CAVOK 29/18 Q1005 NOSIG
ZBSJ,2015-06-27 14:00,ZBSJ 271400Z 13002MPS 8000 NSC 27/18 Q1006 NOSIG
ZBSJ,2015-06-27 15:00,ZBSJ 271500Z 14001MPS 8000 NSC 25/19 Q1006 NOSIG
ZBSJ,2015-06-27 16:00,ZBSJ 271600Z 14001MPS 6000 NSC 25/19 Q1006 NOSIG
ZBSJ,2015-06-27 17:00,ZBSJ 271700Z 16001MPS 6000 NSC 24/20 Q1006 NOSIG
ZBSJ,2015-06-27 18:00,ZBSJ 271800Z 17001MPS 5000 HZ NSC 24/20 Q1006 NOSIG
ZBSJ,2015-06-27 19:00,ZBSJ 271900Z 14001MPS 4000 BR NSC 23/20 Q1006 NOSIG
ZBSJ,2015-06-27 20:00,ZBSJ 272000Z 12001MPS 4000 BR NSC 23/21 Q1006 NOSIG
ZBSJ,2015-06-27 21:00,ZBSJ 272100Z 04001MPS 2200 BR NSC 23/21 Q1006 NOSIG
ZBSJ,2015-06-27 22:00,ZBSJ 272200Z 07002MPS 1600 BR NSC 24/21 Q1007 BECMG 3500
ZBSJ,2015-06-27 23:00,ZBSJ 272300Z 08002MPS 1800 BR NSC 26/22 Q1007 BECMG 3000
ZBSJ,2015-06-28 00:00,ZBSJ 280000Z 10002MPS 2000 HZ NSC 28/22 Q1007 BECMG 3000
ZBSJ,2015-06-28 01:00,ZBSJ 280100Z 10001MPS 2500 HZ NSC 29/22 Q1007 BECMG 3500
ZBSJ,2015-06-28 02:00,ZBSJ 280200Z 08001MPS 2500 HZ NSC 31/23 Q1007 BECMG 3500
ZBSJ,2015-06-28 03:00,ZBSJ 280300Z 22004MPS 180V250 5000 HZ NSC 33/22 Q1007 NOSIG
ZBSJ,2015-06-28 04:00,ZBSJ 280400Z 21004MPS 160V230 5000 HZ NSC 34/20 Q1006 NOSIG
ZBSJ,2015-06-28 05:00,ZBSJ 280500Z 18004MPS 140V210 5000 HZ NSC 34/20 Q1005 NOSIG
ZBSJ,2015-06-28 06:00,ZBSJ 280600Z 17004MPS 7000 NSC 34/19 Q1005 NOSIG
ZBSJ,2015-06-28 07:00,ZBSJ 280700Z 16005MPS 8000 NSC 34/20 Q1004 NOSIG
ZBSJ,2015-06-28 08:00,ZBSJ 280800Z 15005MPS 8000 NSC 34/20 Q1004 NOSIG
ZBSJ,2015-06-28 09:00,ZBSJ 280900Z 14005MPS 8000 NSC 33/19 Q1003 NOSIG
ZBSJ,2015-06-28 10:00,ZBSJ 281000Z 13003MPS 8000 NSC 32/20 Q1004 NOSIG
ZBSJ,2015-06-28 11:00,ZBSJ 281100Z 12002MPS 8000 -RA NSC 31/20 Q1004 NOSIG
ZBSJ,2015-06-28 12:00,ZBSJ 281200Z 16002MPS 7000 -RA NSC 28/21 Q1004 NOSIG
ZBSJ,2015-06-28 13:00,ZBSJ 281300Z 18001MPS 6000 -RA OVC046 28/22 Q1004 NOSIG
ZBSJ,2015-06-28 14:00,ZBSJ 281400Z 00000MPS 6000 -RA OVC046 27/23 Q1005 NOSIG
ZBSJ,2015-06-28 15:00,ZBSJ 281500Z 21002MPS 5000 BR OVC046 27/23 Q1005 NOSIG
ZBSJ,2015-06-28 16:00,ZBSJ 281600Z 19002MPS 5000 -RA BR OVC046 26/24 Q1005 NOSIG
ZBSJ,2015-06-28 17:00,ZBSJ 281700Z 25003MPS 2500 BR NSC 25/24 Q1004 NOSIG
ZBSJ,2015-06-28 18:00,ZBSJ 281800Z 24002MPS 2500 BR NSC 25/24 Q1005 NOSIG
ZBSJ,2015-06-28 19:00,ZBSJ 281900Z 21003MPS 2000 -RA BR NSC 24/24 Q1005 NOSIG
ZBSJ,2015-06-28 20:00,ZBSJ 282000Z 17002MPS 2000 -RA BR NSC 23/22 Q1004 NOSIG
ZBSJ,2015-06-28 21:00,ZBSJ 282100Z 15002MPS 1400 R15/P2000N -RA BR OVC040 22/22 Q1004 NOSIG
ZBSJ,2015-06-28 22:00,ZBSJ 282200Z 14002MPS 2700 BR NSC 22/21 Q1004 NOSIG
ZBSJ,2015-06-28 23:00,ZBSJ 282300Z 22002MPS 5000 BR NSC 23/21 Q1004 NOSIG
ZBSJ,2015-06-29 00:00,ZBSJ 290000Z 26001MPS 5000 BR NSC 23/21 Q1005 NOSIG
ZBSJ,2015-06-29 01:00,ZBSJ 290100Z 28002MPS 4000 BR NSC 23/22 Q1005 NOSIG
ZBSJ,2015-06-29 02:00,ZBSJ 290200Z 24002MPS 4000 BR NSC 24/22 Q1004 NOSIG
ZBSJ,2015-06-29 03:00,ZBSJ 290300Z 27002MPS 2500 -RA BR OVC046 24/23 Q1005 NOSIG
ZBSJ,2015-06-29 04:00,ZBSJ 290400Z 25002MPS 2500 BR OVC046 24/22 Q1005 NOSIG
ZBSJ,2015-06-29 05:00,ZBSJ 290500Z 23001MPS 2500 -RA BR OVC046 24/22 Q1005 NOSIG
ZBSJ,2015-06-29 06:00,ZBSJ 290600Z 22001MPS 3500 BR OVC046 24/22 Q1004 NOSIG
ZBSJ,2015-06-29 07:00,ZBSJ 290700Z 18002MPS 140V210 4000 BR FEW026 OVC046 25/21 Q1004 NOSIG
ZBSJ,2015-06-29 08:00,ZBSJ 290800Z 25001MPS 8000 SCT033 OVC046 22/20 Q1004 NOSIG
ZBSJ,2015-06-29 09:00,ZBSJ 290900Z 00000MPS 9999 OVC046 23/19 Q1005 NOSIG
ZBSJ,2015-06-29 10:00,ZBSJ 291000Z 05001MPS 9999 OVC046 23/20 Q1005 NOSIG
ZBSJ,2015-06-29 11:00,ZBSJ 291100Z 03001MPS 8000 OVC046 23/20 Q1005 NOSIG
ZBSJ,2015-06-29 12:00,ZBSJ 291200Z 01001MPS 4000 BR OVC046 23/21 Q1006 NOSIG
ZBSJ,2015-06-29 13:00,ZBSJ 291300Z 36001MPS 5000 BR OVC046 22/21 Q1007 NOSIG
ZBSJ,2015-06-29 14:00,ZBSJ 291400Z 03004MPS 6000 OVC046 21/20 Q1007 NOSIG
ZBSJ,2015-06-29 15:00,ZBSJ 291500Z 04006MPS 6000 OVC046 20/19 Q1008 NOSIG
ZBSJ,2015-06-29 16:00,ZBSJ 291600Z 05006MPS 6000 OVC046 20/19 Q1007 NOSIG
ZBSJ,2015-06-29 17:00,ZBSJ 291700Z 05005MPS 7000 OVC046 19/18 Q1007 NOSIG
ZBSJ,2015-06-29 18:00,ZBSJ 291800Z 04003MPS 010V080 7000 OVC046 19/18 Q1007 NOSIG
ZBSJ,2015-06-29 19:00,ZBSJ 291900Z 05003MPS 360V070 7000 OVC046 19/18 Q1007 NOSIG
ZBSJ,2015-06-29 20:00,ZBSJ 292000Z 05002MPS 6000 OVC046 19/18 Q1006 NOSIG
ZBSJ,2015-06-29 21:00,ZBSJ 292100Z 04001MPS 5000 BR OVC046 19/18 Q1007 NOSIG
ZBSJ,2015-06-29 22:00,ZBSJ 292200Z 34001MPS 2500 BR OVC046 19/18 Q1006 NOSIG
ZBSJ,2015-06-29 23:00,ZBSJ 292300Z 34001MPS 2500 BR OVC046 19/18 Q1006 NOSIG
ZBSJ,2015-06-30 00:00,ZBSJ 300000Z 33001MPS 3000 BR OVC046 20/18 Q1006 NOSIG
ZBSJ,2015-06-30 01:00,ZBSJ 300100Z 04001MPS 4000 BR OVC046 20/18 Q1006 NOSIG
ZBSJ,2015-06-30 02:00,ZBSJ 300200Z 02001MPS 7000 OVC046 20/17 Q1006 NOSIG
ZBSJ,2015-06-30 03:00,ZBSJ 300300Z 01002MPS 7000 OVC046 20/18 Q1006 NOSIG
ZBSJ,2015-06-30 04:00,ZBSJ 300400Z 01002MPS 5000 -RA BR OVC040 20/18 Q1006 NOSIG
ZBSJ,2015-06-30 05:00,ZBSJ 300500Z 04002MPS 010V070 9999 FEW010 OVC030 18/17 Q1005 NOSIG
ZBSJ,2015-06-30 06:00,ZBSJ 300600Z 35002MPS 310V040 9999 BKN040 21/17 Q1004 NOSIG
ZBSJ,2015-06-30 07:00,ZBSJ 300700Z 35002MPS 9999 SCT033 23/16 Q1004 NOSIG
ZBSJ,2015-06-30 08:00,ZBSJ 300800Z 29003MPS 240V340 CAVOK 24/17 Q1002 NOSIG
ZBSJ,2015-06-30 09:00,ZBSJ 300900Z 27003MPS 220V300 CAVOK 24/17 Q1002 NOSIG
ZBSJ,2015-06-30 10:00,ZBSJ 301000Z 26004MPS CAVOK 24/17 Q1001 NOSIG
ZBSJ,2015-06-30 11:00,ZBSJ 301100Z 22003MPS CAVOK 23/17 Q1001 NOSIG
ZBSJ,2015-06-30 12:00,ZBSJ 301200Z 22002MPS CAVOK 21/17 Q1001 NOSIG
ZBSJ,2015-06-30 13:00,ZBSJ 301300Z 20003MPS CAVOK 21/17 Q1000 NOSIG
ZBSJ,2015-06-30 14:00,ZBSJ 301400Z 20003MPS CAVOK 20/17 Q0999 NOSIG
ZBSJ,2015-06-30 15:00,ZBSJ 301500Z 21002MPS CAVOK 20/17 Q0999 NOSIG
ZBSJ,2015-06-30 16:00,ZBSJ 301600Z 00000MPS 8000 NSC 17/16 Q0999 NOSIG
ZBSJ,2015-06-30 17:00,ZBSJ 301700Z 29001MPS 8000 NSC 16/15 Q0999 NOSIG
ZBSJ,2015-06-30 18:00,ZBSJ 301800Z 27003MPS 8000 NSC 19/17 Q0998 NOSIG
ZBSJ,2015-06-30 19:00,ZBSJ 301900Z 29004MPS 8000 NSC 19/18 Q0998 NOSIG
ZBSJ,2015-06-30 20:00,ZBSJ 302000Z 30002MPS 8000 NSC 19/17 Q0998 NOSIG
ZBSJ,2015-06-30 21:00,ZBSJ 302100Z 29003MPS 8000 NSC 18/16 Q0998 NOSIG
ZBSJ,2015-06-30 22:00,ZBSJ 302200Z 28003MPS CAVOK 21/16 Q0998 NOSIG
ZBSJ,2015-06-30 23:00,ZBSJ 302300Z 30005MPS CAVOK 24/17 Q0998 NOSIG
ZBSJ,2015-07-01 00:00,ZBSJ 010000Z 30005MPS CAVOK 27/17 Q0998 NOSIG
ZBSJ,2015-07-01 01:00,ZBSJ 010100Z 28004MPS CAVOK 30/16 Q0998 NOSIG
ZBSJ,2015-07-01 02:00,ZBSJ 010200Z 32005MPS 280V360 CAVOK 35/12 Q0998 NOSIG
ZBSJ,2015-07-01 03:00,ZBSJ 010300Z 33007MPS CAVOK 35/11 Q0998 NOSIG
ZBSJ,2015-07-01 04:00,ZBSJ 010400Z 33005MPS 300V010 CAVOK 36/10 Q0998 NOSIG
ZBSJ,2015-07-01 05:00,ZBSJ 010500Z 36005G10MPS 330V040 CAVOK 36/11 Q0997 NOSIG
ZBSJ,2015-07-01 06:00,ZBSJ 010600Z 34005MPS 300V050 CAVOK 37/11 Q0997 NOSIG
ZBSJ,2015-07-01 07:00,ZBSJ 010700Z 27004MPS 230V320 CAVOK 37/11 Q0996 NOSIG
ZBSJ,2015-07-01 08:00,ZBSJ 010800Z VRB02MPS 9999 FEW033 37/11 Q0996 NOSIG
ZBSJ,2015-07-01 09:00,ZBSJ 010900Z 34005MPS 310V010 9999 FEW033 37/12 Q0996 NOSIG
ZBSJ,2015-07-01 10:00,ZBSJ 011000Z 33003MPS 9999 FEW033 36/12 Q0996 NOSIG
ZBSJ,2015-07-01 11:00,ZBSJ 011100Z 28001MPS 9999 FEW033 35/12 Q0996 NOSIG
ZBSJ,2015-07-01 12:00,ZBSJ 011200Z 00000MPS 9999 FEW033 30/15 Q0997 NOSIG
ZBSJ,2015-07-01 13:00,ZBSJ 011300Z 07006MPS 9999 BKN033 27/15 Q0999 NOSIG
ZBSJ,2015-07-01 14:00,ZBSJ 011400Z 07005MPS CAVOK 25/16 Q1000 NOSIG
ZBSJ,2015-07-01 15:00,ZBSJ 011500Z 07004MPS CAVOK 24/16 Q1000 NOSIG
ZBSJ,2015-07-01 16:00,ZBSJ 011600Z 06003MPS CAVOK 23/16 Q1001 NOSIG
ZBSJ,2015-07-01 17:00,ZBSJ 011700Z 04002MPS CAVOK 21/16 Q1002 NOSIG
ZBSJ,2015-07-01 18:00,ZBSJ 011800Z 01001MPS CAVOK 20/16 Q1002 NOSIG
ZBSJ,2015-07-01 19:00,ZBSJ 011900Z 33001MPS CAVOK 21/16 Q1002 NOSIG
ZBSJ,2015-07-01 20:00,ZBSJ 012000Z 28002MPS CAVOK 21/16 Q1003 NOSIG
ZBSJ,2015-07-01 21:00,ZBSJ 012100Z 29002MPS 9999 FEW033 20/16 Q1003 NOSIG
ZBSJ,2015-07-01 22:00,ZBSJ 012200Z 27002MPS 9999 FEW033 22/16 Q1003 NOSIG
ZBSJ,2015-07-01 23:00,ZBSJ 012300Z 30002MPS 280V340 9999 FEW033 25/16 Q1004 NOSIG
ZBSJ,2015-07-02 00:00,ZBSJ 020000Z 29003MPS 9999 SCT040 26/16 Q1004 NOSIG
ZBSJ,2015-07-02 01:00,ZBSJ 020100Z 27003MPS CAVOK 28/16 Q1004 NOSIG
ZBSJ,2015-07-02 02:00,ZBSJ 020200Z 33003MPS 250V030 CAVOK 31/14 Q1004 NOSIG
ZBSJ,2015-07-02 03:00,ZBSJ 020300Z 30002MPS CAVOK 32/11 Q1004 NOSIG
ZBSJ,2015-07-02 04:00,ZBSJ 020400Z 28002MPS 220V350 CAVOK 33/10 Q1003 NOSIG
ZBSJ,2015-07-02 05:00,ZBSJ 020500Z 24003MPS 140V310 9999 FEW040 33/09 Q1003 NOSIG
ZBSJ,2015-07-02 06:00,ZBSJ 020600Z 21002MPS 9999 SCT046 34/08 Q1002 NOSIG
ZBSJ,2015-07-02 07:00,ZBSJ 020700Z VRB02MPS CAVOK 34/07 Q1002 NOSIG
ZBSJ,2015-07-02 08:00,ZBSJ 020800Z 26004MPS 220V290 CAVOK 35/08 Q1001 NOSIG
ZBSJ,2015-07-02 09:00,ZBSJ 020900Z 20003MPS 140V270 CAVOK 35/09 Q1001 NOSIG
ZBSJ,2015-07-02 10:00,ZBSJ 021000Z 28001MPS CAVOK 35/09 Q1001 NOSIG
ZBSJ,2015-07-02 11:00,ZBSJ 021100Z 21003MPS CAVOK 32/11 Q1002 NOSIG
ZBSJ,2015-07-02 12:00,ZBSJ 021200Z 19003MPS 9999 FEW040 29/11 Q1002 NOSIG
ZBSJ,2015-07-02 13:00,ZBSJ 021300Z 21002MPS CAVOK 28/11 Q1003 NOSIG
ZBSJ,2015-07-02 14:00,ZBSJ 021400Z 17002MPS CAVOK 24/12 Q1004 NOSIG
ZBSJ,2015-07-02 15:00,ZBSJ 021500Z 12001MPS CAVOK 23/13 Q1004 NOSIG
ZBSJ,2015-07-02 16:00,ZBSJ 021600Z 33001MPS CAVOK 22/13 Q1004 NOSIG
ZBSJ,2015-07-02 17:00,ZBSJ 021700Z 32002MPS CAVOK 23/13 Q1004 NOSIG
ZBSJ,2015-07-02 18:00,ZBSJ 021800Z 31003MPS CAVOK 22/14 Q1005 NOSIG
ZBSJ,2015-07-02 19:00,ZBSJ 021900Z 33003MPS CAVOK 21/13 Q1005 NOSIG
ZBSJ,2015-07-02 20:00,ZBSJ 022000Z 34003MPS CAVOK 19/12 Q1006 NOSIG
ZBSJ,2015-07-02 21:00,ZBSJ 022100Z 33003MPS CAVOK 19/11 Q1006 NOSIG
ZBSJ,2015-07-02 22:00,ZBSJ 022200Z 04003MPS CAVOK 23/12 Q1007 NOSIG
ZBSJ,2015-07-02 23:00,ZBSJ 022300Z 05006MPS 030V090 CAVOK 24/15 Q1008 NOSIG
ZBSJ,2015-07-03 00:00,ZBSJ 030000Z 06005MPS CAVOK 25/15 Q1009 NOSIG
ZBSJ,2015-07-03 01:00,ZBSJ 030100Z 06004MPS 010V090 CAVOK 27/15 Q1009 NOSIG
ZBSJ,2015-07-03 02:00,ZBSJ 030200Z 06005MPS 360V100 CAVOK 28/15 Q1009 NOSIG
ZBSJ,2015-07-03 03:00,ZBSJ 030300Z 08003MPS 020V150 CAVOK 30/15 Q1009 NOSIG
ZBSJ,2015-07-03 04:00,ZBSJ 030400Z 10003MPS 030V160 CAVOK 31/15 Q1009 NOSIG
ZBSJ,2015-07-03 05:00,ZBSJ 030500Z VRB04MPS CAVOK 32/13 Q1008 NOSIG
ZBSJ,2015-07-03 06:00,ZBSJ 030600Z VRB02MPS CAVOK 33/12 Q1007 NOSIG
ZBSJ,2015-07-03 07:00,ZBSJ 030700Z 18003MPS CAVOK 34/12 Q1006 NOSIG
ZBSJ,2015-07-03 08:00,ZBSJ 030800Z 18003MPS 130V250 CAVOK 34/12 Q1006 NOSIG
ZBSJ,2015-07-03 09:00,ZBSJ 030900Z 14003MPS 100V190 CAVOK 34/11 Q1005 NOSIG
ZBSJ,2015-07-03 10:00,ZBSJ 031000Z 14003MPS 110V180 CAVOK 33/11 Q1006 NOSIG
ZBSJ,2015-07-03 11:00,ZBSJ 031100Z 14003MPS CAVOK 31/12 Q1006 NOSIG
ZBSJ,2015-07-03 12:00,ZBSJ 031200Z 12002MPS CAVOK 30/11 Q1006 NOSIG
ZBSJ,2015-07-03 13:00,ZBSJ 031300Z 11002MPS CAVOK 27/12 Q1007 NOSIG
ZBSJ,2015-07-03 14:00,ZBSJ 031400Z 12003MPS CAVOK 27/13 Q1008 NOSIG
ZBSJ,2015-07-03 15:00,ZBSJ 031500Z 12003MPS CAVOK 25/12 Q1008 NOSIG
ZBSJ,2015-07-03 16:00,ZBSJ 031600Z 10002MPS CAVOK 23/12 Q1009 NOSIG
ZBSJ,2015-07-03 17:00,ZBSJ 031700Z 04002MPS CAVOK 21/12 Q1009 NOSIG
ZBSJ,2015-07-03 18:00,ZBSJ 031800Z 04002MPS CAVOK 20/12 Q1009 NOSIG
ZBSJ,2015-07-03 19:00,ZBSJ 031900Z 05002MPS CAVOK 20/12 Q1009 NOSIG
ZBSJ,2015-07-03 20:00,ZBSJ 032000Z 03002MPS CAVOK 19/12 Q1009 NOSIG
ZBSJ,2015-07-03 21:00,ZBSJ 032100Z 01001MPS CAVOK 18/13 Q1009 NOSIG
ZBSJ,2015-07-03 22:00,ZBSJ 032200Z 06002MPS CAVOK 20/13 Q1009 NOSIG
ZBSJ,2015-07-03 23:00,ZBSJ 032300Z 05004MPS CAVOK 22/13 Q1010 NOSIG
ZBSJ,2015-07-04 00:00,ZBSJ 040000Z 07003MPS 040V120 CAVOK 24/11 Q1010 NOSIG
ZBSJ,2015-07-04 01:00,ZBSJ 040100Z 19002MPS CAVOK 26/11 Q1010 NOSIG
ZBSJ,2015-07-04 02:00,ZBSJ 040200Z 34002MPS 280V050 CAVOK 27/12 Q1010 NOSIG
ZBSJ,2015-07-04 03:00,ZBSJ 040300Z 31002MPS 240V360 CAVOK 29/12 Q1009 NOSIG
ZBSJ,2015-07-04 04:00,ZBSJ 040400Z 04001MPS CAVOK 30/13 Q1008 NOSIG
ZBSJ,2015-07-04 05:00,ZBSJ 040500Z 09002MPS CAVOK 31/13 Q1007 NOSIG
ZBSJ,2015-07-04 06:00,ZBSJ 040600Z 04002MPS 330V120 CAVOK 31/13 Q1006 NOSIG
ZBSJ,2015-07-04 07:00,ZBSJ 040700Z 06003MPS 360V110 CAVOK 33/14 Q1006 NOSIG
ZBSJ,2015-07-04 08:00,ZBSJ 040800Z 03006MPS 9999 FEW026TCU BKN046 29/14 Q1007 NOSIG
ZBSJ,2015-07-04 09:00,ZBSJ 040900Z 06003MPS 9999 SCT046 28/14 Q1005 NOSIG
ZBSJ,2015-07-04 10:00,ZBSJ 041000Z 02005MPS 9999 BKN046 27/15 Q1006 NOSIG
ZBSJ,2015-07-04 11:00,ZBSJ 041100Z 03005MPS 350V050 9999 BKN046 27/13 Q1008 NOSIG
ZBSJ,2015-07-04 12:00,ZBSJ 041200Z 06010MPS 9999 BKN040 26/14 Q1007 NOSIG
ZBSJ,2015-07-04 13:00,ZBSJ 041300Z 04003MPS 340V080 9999 OVC040 24/15 Q1009 NOSIG
ZBSJ,2015-07-04 14:00,ZBSJ 041400Z 07001MPS 9999 OVC040 23/16 Q1009 RETS NOSIG
ZBSJ,2015-07-04 15:00,ZBSJ 041500Z 36002MPS 330V070 9999 OVC040 21/16 Q1010 NOSIG
ZBSJ,2015-07-04 16:00,ZBSJ 041600Z 02003MPS 9999 OVC040 21/17 Q1010 NOSIG
ZBSJ,2015-07-04 17:00,ZBSJ 041700Z 02003MPS 350V050 9999 BKN046 21/17 Q1010 RETS NOSIG
ZBSJ,2015-07-04 18:00,ZBSJ 041800Z 03002MPS 350V050 9999 BKN046 20/17 Q1010 NOSIG
ZBSJ,2015-07-04 19:00,ZBSJ 041900Z 03002MPS 8000 SCT046 20/17 Q1009 NOSIG
ZBSJ,2015-07-04 20:00,ZBSJ 042000Z 03002MPS 7000 NSC 19/17 Q1009 NOSIG
ZBSJ,2015-07-04 21:00,ZBSJ 042100Z 03002MPS 360V070 5000 BR FEW033 19/17 Q1009 NOSIG
ZBSJ,2015-07-04 22:00,ZBSJ 042200Z 34001MPS 4500 BR FEW033 19/17 Q1010 NOSIG
ZBSJ,2015-07-04 23:00,ZBSJ 042300Z 33002MPS 4500 BR FEW033 21/17 Q1010 NOSIG
ZBSJ,2015-07-05 00:00,ZBSJ 050000Z 04003MPS 360V070 6000 NSC 23/16 Q1010 NOSIG
ZBSJ,2015-07-05 01:00,ZBSJ 050100Z 04003MPS 350V080 CAVOK 24/15 Q1010 NOSIG
ZBSJ,2015-07-05 02:00,ZBSJ 050200Z 06003MPS 350V100 CAVOK 26/15 Q1010 NOSIG
ZBSJ,2015-07-05 03:00,ZBSJ 050300Z 06004MPS 010V090 CAVOK 27/17 Q1010 NOSIG
ZBSJ,2015-07-05 04:00,ZBSJ 050400Z 05004MPS 010V090 CAVOK 28/16 Q1009 NOSIG
ZBSJ,2015-07-05 05:00,ZBSJ 050500Z 05003MPS 010V100 CAVOK 29/17 Q1009 NOSIG
ZBSJ,2015-07-05 06:00,ZBSJ 050600Z 07003MPS 010V140 CAVOK 30/17 Q1008 NOSIG
ZBSJ,2015-07-05 07:00,ZBSJ 050700Z 07003MPS 350V140 9999 SCT033 29/18 Q1008 NOSIG
ZBSJ,2015-07-05 08:00,ZBSJ 050800Z 08003MPS 9999 SCT033 30/18 Q1007 NOSIG
ZBSJ,2015-07-05 09:00,ZBSJ 050900Z 11003MPS 060V140 9999 BKN033 30/19 Q1007 NOSIG
ZBSJ,2015-07-05 10:00,ZBSJ 051000Z 05003MPS 9999 BKN040 29/19 Q1007 NOSIG
ZBSJ,2015-07-05 11:00,ZBSJ 051100Z 04003MPS 9999 BKN040 28/19 Q1008 NOSIG
ZBSJ,2015-07-05 12:00,ZBSJ 051200Z 04002MPS 9999 BKN040 27/19 Q1008 NOSIG
ZBSJ,2015-07-05 13:00,ZBSJ 051300Z 04002MPS 9999 BKN040 27/19 Q1009 NOSIG
ZBSJ,2015-07-05 14:00,ZBSJ 051400Z 06003MPS 8000 BKN040 27/18 Q1009 NOSIG
ZBSJ,2015-07-05 15:00,ZBSJ 051500Z 06003MPS 8000 BKN046 26/18 Q1009 NOSIG
ZBSJ,2015-07-05 16:00,ZBSJ 051600Z 07002MPS 8000 NSC 26/19 Q1010 NOSIG
ZBSJ,2015-07-05 18:00,ZBSJ 051800Z 04001MPS CAVOK 24/19 Q1010 NOSIG
ZBSJ,2015-07-05 19:00,ZBSJ 051900Z 04001MPS CAVOK 24/20 Q1010 NOSIG
ZBSJ,2015-07-05 20:00,ZBSJ 052000Z 04002MPS CAVOK 23/20 Q1010 NOSIG
ZBSJ,2015-07-05 21:00,ZBSJ 052100Z 06002MPS CAVOK 23/19 Q1010 NOSIG
ZBSJ,2015-07-05 22:00,ZBSJ 052200Z 04002MPS 010V070 7000 NSC 23/20 Q1010 NOSIG
ZBSJ,2015-07-05 23:00,ZBSJ 052300Z 06002MPS 020V090 6000 NSC 23/19 Q1011 NOSIG
ZBSJ,2015-07-06 00:00,ZBSJ 060000Z 06002MPS 6000 NSC 24/19 Q1011 NOSIG
ZBSJ,2015-07-06 01:00,ZBSJ 060100Z 04003MPS 7000 NSC 24/19 Q1011 NOSIG
ZBSJ,2015-07-06 02:00,ZBSJ 060200Z 06003MPS 7000 NSC 25/20 Q1011 NOSIG
ZBSJ,2015-07-06 03:00,ZBSJ 060300Z 05003MPS 020V090 7000 NSC 27/19 Q1011 NOSIG
ZBSJ,2015-07-06 04:00,ZBSJ 060400Z 05003MPS 360V090 8000 NSC 27/19 Q1011 NOSIG
ZBSJ,2015-07-06 05:00,ZBSJ 060500Z 05003MPS 340V110 CAVOK 29/18 Q1010 NOSIG
ZBSJ,2015-07-06 06:00,ZBSJ 060600Z 08004MPS 040V120 CAVOK 30/17 Q1009 NOSIG
ZBSJ,2015-07-06 07:00,ZBSJ 060700Z 10003MPS 040V140 CAVOK 30/17 Q1009 NOSIG
ZBSJ,2015-07-06 08:00,ZBSJ 060800Z 08004MPS 050V120 CAVOK 30/17 Q1008 NOSIG
ZBSJ,2015-07-06 09:00,ZBSJ 060900Z 12004MPS 070V150 CAVOK 30/18 Q1008 NOSIG
ZBSJ,2015-07-06 10:00,ZBSJ 061000Z 07003MPS CAVOK 29/18 Q1008 NOSIG
ZBSJ,2015-07-06 11:00,ZBSJ 061100Z 06002MPS CAVOK 29/19 Q1008 NOSIG
ZBSJ,2015-07-06 12:00,ZBSJ 061200Z 05001MPS CAVOK 27/19 Q1009 NOSIG
ZBSJ,2015-07-06 13:00,ZBSJ 061300Z 03001MPS CAVOK 27/19 Q1009 NOSIG
ZBSJ,2015-07-06 14:00,ZBSJ 061400Z 05001MPS CAVOK 27/19 Q1009 NOSIG
ZBSJ,2015-07-06 15:00,ZBSJ 061500Z 02001MPS 7000 NSC 26/20 Q1009 NOSIG
ZBSJ,2015-07-06 16:00,ZBSJ 061600Z 03001MPS 6000 NSC 26/20 Q1009 NOSIG
ZBSJ,2015-07-06 17:00,ZBSJ 061700Z 06001MPS 6000 NSC 26/19 Q1009 NOSIG
ZBSJ,2015-07-06 18:00,ZBSJ 061800Z 10001MPS 6000 NSC 25/20 Q1009 NOSIG
ZBSJ,2015-07-06 19:00,ZBSJ 061900Z 36001MPS 4500 BR NSC 24/20 Q1009 NOSIG
ZBSJ,2015-07-06 20:00,ZBSJ 062000Z 07002MPS 4000 BR NSC 24/21 Q1009 NOSIG
ZBSJ,2015-07-06 21:00,ZBSJ 062100Z 06002MPS 4000 BR NSC 24/20 Q1009 NOSIG
ZBSJ,2015-07-06 22:00,ZBSJ 062200Z 05002MPS 2700 BR NSC 24/21 Q1009 NOSIG
ZBSJ,2015-07-06 23:00,ZBSJ 062300Z 06002MPS 3000 BR NSC 25/20 Q1010 NOSIG
ZBSJ,2015-07-07 00:00,ZBSJ 070000Z 06002MPS 4000 HZ NSC 26/20 Q1010 NOSIG
ZBSJ,2015-07-07 01:00,ZBSJ 070100Z 05002MPS 5000 HZ NSC 27/20 Q1010 NOSIG
ZBSJ,2015-07-07 02:00,ZBSJ 070200Z 06002MPS 5000 HZ NSC 28/21 Q1009 NOSIG
ZBSJ,2015-07-07 03:00,ZBSJ 070300Z 13002MPS 040V190 5000 HZ NSC 30/21 Q1009 NOSIG
ZBSJ,2015-07-07 04:00,ZBSJ 070400Z 11002MPS 5000 HZ BKN040 31/21 Q1009 NOSIG
ZBSJ,2015-07-07 05:00,ZBSJ 070500Z 15003MPS 100V190 6000 BKN040 32/20 Q1008 NOSIG
ZBSJ,2015-07-07 06:00,ZBSJ 070600Z 13003MPS 070V190 6000 BKN040 32/20 Q1008 NOSIG
ZBSJ,2015-07-07 07:00,ZBSJ 070700Z 14003MPS 090V200 6000 BKN040 32/20 Q1007 NOSIG
ZBSJ,2015-07-07 08:00,ZBSJ 070800Z 14001MPS 6000 SCT040 33/20 Q1007 NOSIG
ZBSJ,2015-07-07 09:00,ZBSJ 070900Z 15003MPS 7000 FEW040 32/20 Q1006 NOSIG
ZBSJ,2015-07-07 10:00,ZBSJ 071000Z 09002MPS 8000 NSC 32/20 Q1006 NOSIG
ZBSJ,2015-07-07 11:00,ZBSJ 071100Z 13002MPS 8000 NSC 31/19 Q1007 NOSIG
ZBSJ,2015-07-07 12:00,ZBSJ 071200Z 11002MPS 8000 NSC 28/19 Q1007 NOSIG
ZBSJ,2015-07-07 13:00,ZBSJ 071300Z 10001MPS 8000 NSC 26/19 Q1008 NOSIG
ZBSJ,2015-07-07 14:00,ZBSJ 071400Z 09001MPS 8000 NSC 25/19 Q1009 NOSIG
ZBSJ,2015-07-07 15:00,ZBSJ 071500Z 00000MPS 6000 NSC 24/19 Q1008 NOSIG
ZBSJ,2015-07-07 16:00,ZBSJ 071600Z 12001MPS 6000 NSC 23/18 Q1009 NOSIG
ZBSJ,2015-07-07 17:00,ZBSJ 071700Z 21001MPS 6000 NSC 24/19 Q1009 NOSIG
ZBSJ,2015-07-07 18:00,ZBSJ 071800Z 08001MPS 5000 HZ NSC 23/19 Q1009 NOSIG
ZBSJ,2015-07-07 19:00,ZBSJ 071900Z 06001MPS 5000 HZ NSC 22/18 Q1009 NOSIG
ZBSJ,2015-07-07 20:00,ZBSJ 072000Z 01001MPS 4000 BR NSC 22/18 Q1009 NOSIG
ZBSJ,2015-07-07 21:00,ZBSJ 072100Z 00000MPS 3500 BR NSC 21/18 Q1009 NOSIG
ZBSJ,2015-07-07 22:00,ZBSJ 072200Z 14001MPS 2500 BR FEW040 22/18 Q1010 NOSIG
ZBSJ,2015-07-07 23:00,ZBSJ 072300Z 16001MPS 2300 HZ NSC 24/19 Q1010 BECMG 3500
ZBSJ,2015-07-08 00:00,ZBSJ 080000Z 18001MPS 2800 HZ NSC 27/19 Q1011 BECMG TL0100 3500
ZBSJ,2015-07-08 01:00,ZBSJ 080100Z 28001MPS 2800 HZ NSC 29/20 Q1011 NOSIG
ZBSJ,2015-07-08 02:00,ZBSJ 080200Z 22002MPS 4000 HZ NSC 31/19 Q1011 NOSIG
ZBSJ,2015-07-08 03:00,ZBSJ 080300Z 20002MPS 150V240 6000 NSC 33/17 Q1010 NOSIG
ZBSJ,2015-07-08 04:00,ZBSJ 080400Z 18001MPS 8000 NSC 34/17 Q1010 NOSIG
ZBSJ,2015-07-08 05:00,ZBSJ 080500Z 16003MPS 100V210 CAVOK 35/16 Q1009 NOSIG
ZBSJ,2015-07-08 06:00,ZBSJ 080600Z 10001MPS CAVOK 35/16 Q1009 NOSIG
ZBSJ,2015-07-08 07:00,ZBSJ 080700Z 21002MPS 150V290 CAVOK 36/16 Q1009 NOSIG
ZBSJ,2015-07-08 08:00,ZBSJ 080800Z VRB02MPS CAVOK 35/15 Q1008 NOSIG
ZBSJ,2015-07-08 09:00,ZBSJ 080900Z 15004MPS 100V170 CAVOK 35/16 Q1008 NOSIG
ZBSJ,2015-07-08 10:00,ZBSJ 081000Z 13003MPS CAVOK 34/15 Q1008 NOSIG
ZBSJ,2015-07-08 11:00,ZBSJ 081100Z 13002MPS CAVOK 33/14 Q1009 NOSIG
ZBSJ,2015-07-08 12:00,ZBSJ 081200Z 12002MPS CAVOK 30/16 Q1009 NOSIG
ZBSJ,2015-07-08 13:00,ZBSJ 081300Z 11001MPS CAVOK 27/16 Q1010 NOSIG
ZBSJ,2015-07-08 14:00,ZBSJ 081400Z 13001MPS CAVOK 26/16 Q1010 NOSIG
ZBSJ,2015-07-08 15:00,ZBSJ 081500Z 11001MPS 8000 NSC 25/16 Q1011 NOSIG
ZBSJ,2015-07-08 16:00,ZBSJ 081600Z 13002MPS 6000 NSC 25/16 Q1011 NOSIG
ZBSJ,2015-07-08 17:00,ZBSJ 081700Z 14002MPS 6000 NSC 24/16 Q1011 NOSIG
ZBSJ,2015-07-08 18:00,ZBSJ 081800Z 14001MPS 5000 HZ NSC 23/16 Q1011 NOSIG
ZBSJ,2015-07-08 19:00,ZBSJ 081900Z 13001MPS 5000 HZ NSC 22/17 Q1011 NOSIG
ZBSJ,2015-07-08 20:00,ZBSJ 082000Z 08001MPS 4000 HZ NSC 23/17 Q1011 NOSIG
ZBSJ,2015-07-08 21:00,ZBSJ 082100Z 00000MPS 2500 HZ NSC 21/18 Q1011 NOSIG
ZBSJ,2015-07-08 22:00,ZBSJ 082200Z 04001MPS 2000 HZ NSC 21/18 Q1012 NOSIG
ZBSJ,2015-07-08 23:00,ZBSJ 082300Z 02002MPS 2000 HZ NSC 24/19 Q1012 BECMG TL0030 3500
ZBSJ,2015-07-09 00:00,ZBSJ 090000Z 04002MPS 350V070 2000 HZ NSC 26/18 Q1013 BECMG 3500
ZBSJ,2015-07-09 01:00,ZBSJ 090100Z 06002MPS 030V100 3000 HZ NSC 28/19 Q1013 NOSIG
ZBSJ,2015-07-09 02:00,ZBSJ 090200Z 06002MPS 010V100 3000 HZ NSC 30/20 Q1013 NOSIG
ZBSJ,2015-07-09 03:00,ZBSJ 090300Z 11003MPS 070V140 3000 HZ NSC 32/21 Q1013 NOSIG
ZBSJ,2015-07-09 04:00,ZBSJ 090400Z VRB02MPS 4000 HZ NSC 33/21 Q1012 NOSIG
ZBSJ,2015-07-09 05:00,ZBSJ 090500Z 11002MPS 030V160 6000 NSC 34/17 Q1012 NOSIG
ZBSJ,2015-07-09 06:00,ZBSJ 090600Z 09004MPS 060V170 6000 NSC 34/18 Q1011 NOSIG
ZBSJ,2015-07-09 07:00,ZBSJ 090700Z 12003MPS 070V150 6000 NSC 34/17 Q1010 NOSIG
ZBSJ,2015-07-09 08:00,ZBSJ 090800Z 12004MPS 080V140 6000 NSC 34/17 Q1010 NOSIG
ZBSJ,2015-07-09 09:00,ZBSJ 090900Z 10003MPS 060V140 6000 NSC 34/17 Q1010 NOSIG
ZBSJ,2015-07-09 10:00,ZBSJ 091000Z 12003MPS 090V150 6000 NSC 33/16 Q1010 NOSIG
ZBSJ,2015-07-09 11:00,ZBSJ 091100Z 15004MPS 5000 HZ NSC 32/17 Q1010 NOSIG
ZBSJ,2015-07-09 12:00,ZBSJ 091200Z 14002MPS 5000 HZ NSC 29/17 Q1011 NOSIG
ZBSJ,2015-07-09 13:00,ZBSJ 091300Z 15002MPS 5000 HZ NSC 28/18 Q1011 NOSIG
ZBSJ,2015-07-09 14:00,ZBSJ 091400Z 16001MPS 5000 HZ NSC 27/18 Q1011 NOSIG
ZBSJ,2015-07-09 15:00,ZBSJ 091500Z 14001MPS 5000 HZ NSC 26/18 Q1011 NOSIG
ZBSJ,2015-07-09 16:00,ZBSJ 091600Z 11002MPS 5000 HZ NSC 25/19 Q1011 NOSIG
ZBSJ,2015-07-09 17:00,ZBSJ 091700Z 09002MPS 5000 HZ NSC 26/18 Q1010 NOSIG
ZBSJ,2015-07-09 18:00,ZBSJ 091800Z 05001MPS 8000 NSC 25/18 Q1010 NOSIG
ZBSJ,2015-07-09 19:00,ZBSJ 091900Z 07002MPS 8000 NSC 24/17 Q1010 NOSIG
ZBSJ,2015-07-09 20:00,ZBSJ 092000Z 05002MPS 8000 NSC 23/17 Q1010 NOSIG
ZBSJ,2015-07-09 21:00,ZBSJ 092100Z 05002MPS 8000 NSC 22/17 Q1011 NOSIG
ZBSJ,2015-07-09 22:00,ZBSJ 092200Z 05002MPS CAVOK 24/17 Q1011 NOSIG
ZBSJ,2015-07-09 23:00,ZBSJ 092300Z 03001MPS CAVOK 24/17 Q1012 NOSIG
ZBSJ,2015-07-10 00:00,ZBSJ 100000Z 06003MPS 8000 NSC 26/18 Q1012 NOSIG
ZBSJ,2015-07-10 01:00,ZBSJ 100100Z 04002MPS 330V100 CAVOK 28/19 Q1012 NOSIG
ZBSJ,2015-07-10 02:00,ZBSJ 100200Z 04001MPS CAVOK 30/19 Q1012 NOSIG
ZBSJ,2015-07-10 03:00,ZBSJ 100300Z 06002MPS CAVOK 31/19 Q1012 NOSIG
ZBSJ,2015-07-10 04:00,ZBSJ 100400Z 10002MPS CAVOK 33/20 Q1011 NOSIG
ZBSJ,2015-07-10 05:00,ZBSJ 100500Z 17002MPS CAVOK 34/19 Q1010 NOSIG
ZBSJ,2015-07-10 06:00,ZBSJ 100600Z 19003MPS 130V280 CAVOK 35/18 Q1009 NOSIG
ZBSJ,2015-07-10 07:00,ZBSJ 100700Z 18003MPS 120V230 7000 NSC 35/17 Q1008 NOSIG
ZBSJ,2015-07-10 08:00,ZBSJ 100800Z 16005MPS CAVOK 35/17 Q1008 NOSIG
ZBSJ,2015-07-10 09:00,ZBSJ 100900Z 16004MPS CAVOK 34/17 Q1007 NOSIG
ZBSJ,2015-07-10 10:00,ZBSJ 101000Z 16004MPS CAVOK 34/18 Q1007 NOSIG
ZBSJ,2015-07-10 11:00,ZBSJ 101100Z 16003MPS 8000 NSC 31/17 Q1007 NOSIG
ZBSJ,2015-07-10 12:00,ZBSJ 101200Z 14002MPS 7000 NSC 29/17 Q1008 NOSIG
ZBSJ,2015-07-10 13:00,ZBSJ 101300Z 16002MPS 8000 NSC 27/18 Q1008 NOSIG
ZBSJ,2015-07-10 14:00,ZBSJ 101400Z 15002MPS 8000 NSC 27/18 Q1008 NOSIG
ZBSJ,2015-07-10 15:00,ZBSJ 101500Z 17002MPS 8000 NSC 26/17 Q1008 NOSIG
ZBSJ,2015-07-10 16:00,ZBSJ 101600Z 15002MPS 5000 HZ NSC 25/18 Q1008 NOSIG
ZBSJ,2015-07-10 17:00,ZBSJ 101700Z 16002MPS 5000 HZ NSC 25/18 Q1008 NOSIG
ZBSJ,2015-07-10 18:00,ZBSJ 101800Z 13002MPS 5000 HZ NSC 24/18 Q1008 NOSIG
ZBSJ,2015-07-10 19:00,ZBSJ 101900Z 16002MPS 5000 HZ NSC 24/18 Q1008 NOSIG
ZBSJ,2015-07-10 20:00,ZBSJ 102000Z 00000MPS 5000 HZ NSC 22/19 Q1008 NOSIG
ZBSJ,2015-07-10 21:00,ZBSJ 102100Z 09001MPS 3500 BR NSC 22/19 Q1008 NOSIG
ZBSJ,2015-07-10 22:00,ZBSJ 102200Z 15002MPS 3500 BR NSC 22/19 Q1009 NOSIG
ZBSJ,2015-07-10 23:00,ZBSJ 102300Z 17001MPS 3500 BR NSC 24/20 Q1009 NOSIG
ZBSJ,2015-07-11 00:00,ZBSJ 110000Z 18002MPS 2700 HZ NSC 26/20 Q1009 NOSIG
ZBSJ,2015-07-11 01:00,ZBSJ 110100Z 18001MPS 2700 HZ NSC 28/20 Q1009 BECMG 3500
ZBSJ,2015-07-11 02:00,ZBSJ 110200Z 22001MPS 3000 HZ NSC 30/20 Q1009 NOSIG
ZBSJ,2015-07-11 03:00,ZBSJ 110300Z 19002MPS 3500 HZ NSC 32/21 Q1009 NOSIG
ZBSJ,2015-07-11 04:00,ZBSJ 110400Z 13003MPS 090V180 4000 HZ NSC 33/20 Q1008 NOSIG
ZBSJ,2015-07-11 05:00,ZBSJ 110500Z 18003MPS 110V230 5000 HZ NSC 34/19 Q1007 NOSIG
ZBSJ,2015-07-11 06:00,ZBSJ 110600Z 19003MPS 140V260 7000 NSC 34/19 Q1006 NOSIG
ZBSJ,2015-07-11 07:00,ZBSJ 110700Z 16003MPS 120V180 CAVOK 35/19 Q1005 NOSIG
ZBSJ,2015-07-11 08:00,ZBSJ 110800Z 16003MPS 110V260 CAVOK 35/21 Q1005 NOSIG
ZBSJ,2015-07-11 09:00,ZBSJ 110900Z 14004MPS 110V170 CAVOK 34/20 Q1004 NOSIG
ZBSJ,2015-07-11 10:00,ZBSJ 111000Z 14003MPS CAVOK 33/18 Q1004 NOSIG
ZBSJ,2015-07-11 11:00,ZBSJ 111100Z 12002MPS CAVOK 32/18 Q1004 NOSIG
ZBSJ,2015-07-11 12:00,ZBSJ 111200Z 13001MPS CAVOK 29/19 Q1004 NOSIG
ZBSJ,2015-07-11 13:00,ZBSJ 111300Z 14002MPS CAVOK 28/20 Q1005 NOSIG
ZBSJ,2015-07-11 14:00,ZBSJ 111400Z 14002MPS CAVOK 27/21 Q1005 NOSIG
ZBSJ,2015-07-11 15:00,ZBSJ 111500Z 13001MPS CAVOK 26/21 Q1005 NOSIG
ZBSJ,2015-07-11 16:00,ZBSJ 111600Z 13001MPS CAVOK 26/21 Q1004 NOSIG
ZBSJ,2015-07-11 17:00,ZBSJ 111700Z 00000MPS CAVOK 25/22 Q1004 NOSIG
ZBSJ,2015-07-11 18:00,ZBSJ 111800Z 06002MPS 8000 NSC 24/22 Q1004 NOSIG
ZBSJ,2015-07-11 19:00,ZBSJ 111900Z 36001MPS 7000 NSC 24/22 Q1003 NOSIG
ZBSJ,2015-07-11 20:00,ZBSJ 112000Z 34001MPS 5000 BR NSC 23/21 Q1003 NOSIG
ZBSJ,2015-07-11 21:00,ZBSJ 112100Z 32001MPS 4000 BR NSC 23/21 Q1003 NOSIG
ZBSJ,2015-07-11 22:00,ZBSJ 112200Z 32002MPS 3500 BR NSC 25/21 Q1003 NOSIG
ZBSJ,2015-07-11 23:00,ZBSJ 112300Z 30003MPS 3500 HZ NSC 27/21 Q1003 NOSIG
ZBSJ,2015-07-12 00:00,ZBSJ 120000Z 29002MPS 3500 HZ NSC 29/21 Q1003 NOSIG
ZBSJ,2015-07-12 01:00,ZBSJ 120100Z 28002MPS 260V320 6000 NSC 31/22 Q1002 NOSIG
ZBSJ,2015-07-12 02:00,ZBSJ 120200Z 33002MPS 8000 NSC 32/22 Q1002 NOSIG
ZBSJ,2015-07-12 03:00,ZBSJ 120300Z 33001MPS CAVOK 35/22 Q1001 NOSIG
ZBSJ,2015-07-12 04:00,ZBSJ 120400Z 22002MPS CAVOK 35/21 Q1000 NOSIG
ZBSJ,2015-07-12 05:00,ZBSJ 120500Z VRB02MPS CAVOK 36/20 Q0999 NOSIG
ZBSJ,2015-07-12 06:00,ZBSJ 120600Z 16002MPS 110V190 CAVOK 38/19 Q0998 NOSIG
ZBSJ,2015-07-12 07:00,ZBSJ 120700Z VRB02MPS CAVOK 39/18 Q0997 NOSIG
ZBSJ,2015-07-12 08:00,ZBSJ 120800Z 19002MPS CAVOK 39/15 Q0997 NOSIG
ZBSJ,2015-07-12 09:00,ZBSJ 120900Z 16002MPS CAVOK 39/14 Q0996 NOSIG
ZBSJ,2015-07-12 10:00,ZBSJ 121000Z 18002MPS CAVOK 38/16 Q0996 NOSIG
ZBSJ,2015-07-12 11:00,ZBSJ 121100Z 15002MPS CAVOK 35/18 Q0996 NOSIG
ZBSJ,2015-07-12 12:00,ZBSJ 121200Z 17002MPS 8000 NSC 32/20 Q0997 NOSIG
ZBSJ,2015-07-12 13:00,ZBSJ 121300Z 15002MPS 8000 NSC 29/21 Q0997 NOSIG
ZBSJ,2015-07-12 14:00,ZBSJ 121400Z 14002MPS 6000 NSC 29/21 Q0997 NOSIG
ZBSJ,2015-07-12 15:00,ZBSJ 121500Z 18003MPS 6000 NSC 29/20 Q0997 NOSIG
ZBSJ,2015-07-12 16:00,ZBSJ 121600Z 21001MPS 6000 NSC 28/19 Q0996 NOSIG
ZBSJ,2015-07-12 17:00,ZBSJ 121700Z 06002MPS 6000 NSC 25/20 Q0997 NOSIG
ZBSJ,2015-07-12 18:00,ZBSJ 121800Z 00000MPS 6000 NSC 25/19 Q0996 NOSIG
ZBSJ,2015-07-12 19:00,ZBSJ 121900Z 00000MPS 6000 NSC 25/20 Q0996 NOSIG
ZBSJ,2015-07-12 20:00,ZBSJ 122000Z 28003MPS 5000 HZ NSC 26/19 Q0996 NOSIG
ZBSJ,2015-07-12 21:00,ZBSJ 122100Z 32002MPS 5000 HZ NSC 24/18 Q0996 NOSIG
ZBSJ,2015-07-12 22:00,ZBSJ 122200Z 01001MPS 5000 HZ NSC 24/18 Q0997 NOSIG
ZBSJ,2015-07-12 23:00,ZBSJ 122300Z 30003MPS 260V330 7000 NSC 29/16 Q0998 NOSIG
ZBSJ,2015-07-13 00:00,ZBSJ 130000Z 02003MPS 350V050 5000 HZ NSC 29/19 Q0998 NOSIG
ZBSJ,2015-07-13 01:00,ZBSJ 130100Z 03003MPS 360V070 2700 HZ NSC 32/22 Q0998 BECMG 3500
ZBSJ,2015-07-13 02:00,ZBSJ 130200Z 04004MPS 360V070 4000 HZ NSC 33/22 Q0998 NOSIG
ZBSJ,2015-07-13 03:00,ZBSJ 130300Z 05003MPS 360V090 5000 HZ NSC 34/22 Q0998 NOSIG
ZBSJ,2015-07-13 04:00,ZBSJ 130400Z 03003MPS 360V080 5000 HZ NSC 35/22 Q0998 NOSIG
ZBSJ,2015-07-13 05:00,ZBSJ 130500Z 03002MPS 350V100 5000 HZ NSC 36/22 Q0998 NOSIG
ZBSJ,2015-07-13 06:00,ZBSJ 130600Z 05002MPS 010V090 5000 HZ NSC 35/22 Q0998 NOSIG
ZBSJ,2015-07-13 07:00,ZBSJ 130700Z 06002MPS 6000 NSC 36/21 Q0997 NOSIG
ZBSJ,2015-07-13 08:00,ZBSJ 130800Z 08001MPS 6000 NSC 36/22 Q0997 NOSIG
ZBSJ,2015-07-13 09:00,ZBSJ 130900Z 10002MPS 6000 NSC 37/22 Q0996 NOSIG
ZBSJ,2015-07-13 10:00,ZBSJ 131000Z 10002MPS 6000 NSC 36/22 Q0997 NOSIG
ZBSJ,2015-07-13 11:00,ZBSJ 131100Z 12001MPS 6000 NSC 34/23 Q0997 NOSIG
ZBSJ,2015-07-13 12:00,ZBSJ 131200Z 06001MPS 6000 NSC 30/22 Q0998 NOSIG
ZBSJ,2015-07-13 13:00,ZBSJ 131300Z 04001MPS 5000 HZ NSC 30/23 Q0999 NOSIG
ZBSJ,2015-07-13 14:00,ZBSJ 131400Z 02002MPS 5000 VCTS HZ FEW040CB BKN046 31/22 Q0999 NOSIG
ZBSJ,2015-07-13 15:00,ZBSJ 131500Z 03001MPS 5000 HZ OVC046 30/22 Q1000 RETS NOSIG
ZBSJ,2015-07-13 16:00,ZBSJ 131600Z 03001MPS 5000 HZ NSC 30/22 Q0999 NOSIG
ZBSJ,2015-07-13 17:00,ZBSJ 131700Z 03001MPS 5000 HZ NSC 28/22 Q0999 NOSIG
ZBSJ,2015-07-13 18:00,ZBSJ 131800Z 32002MPS 5000 HZ NSC 27/22 Q1000 NOSIG
ZBSJ,2015-07-13 19:00,ZBSJ 131900Z 05001MPS 5000 HZ NSC 27/22 Q0999 NOSIG
ZBSJ,2015-07-13 20:00,ZBSJ 132000Z 32002MPS 5000 HZ NSC 26/22 Q1000 NOSIG
ZBSJ,2015-07-13 21:00,ZBSJ 132100Z 02002MPS 4500 HZ NSC 27/21 Q1001 NOSIG
ZBSJ,2015-07-13 22:00,ZBSJ 132200Z 04003MPS 010V070 4000 HZ NSC 27/21 Q1001 NOSIG
ZBSJ,2015-07-13 23:00,ZBSJ 132300Z 02003MPS 350V060 6000 NSC 29/18 Q1003 NOSIG
ZBSJ,2015-07-14 00:00,ZBSJ 140000Z 02005MPS 350V060 7000 SCT040 28/19 Q1004 NOSIG
ZBSJ,2015-07-14 01:00,ZBSJ 140100Z 34007MPS 310V010 8000 TS FEW026CB BKN040 27/18 Q1005 BECMG AT0250 NSW
ZBSJ,2015-07-14 02:00,ZBSJ 140200Z 09006MPS 040V140 5000 -TSRA HZ FEW026CB BKN040 24/20 Q1004 BECMG AT0250 NSW
ZBSJ,2015-07-14 03:00,ZBSJ 140300Z 06003MPS 7000 BKN030 SCT040 25/20 Q1004 RETS NOSIG
ZBSJ,2015-07-14 04:00,ZBSJ 140400Z 34004MPS 7000 BKN046 27/20 Q1004 NOSIG
ZBSJ,2015-07-14 05:00,ZBSJ 140500Z 29003MPS 240V330 8000 SCT040 30/20 Q1003 NOSIG
ZBSJ,2015-07-14 06:00,ZBSJ 140600Z 02001MPS 9999 SCT040 30/19 Q1003 NOSIG
ZBSJ,2015-07-14 07:00,ZBSJ 140700Z 34003MPS 310V010 CAVOK 31/19 Q1003 NOSIG
ZBSJ,2015-07-14 08:00,ZBSJ 140800Z 33001MPS CAVOK 31/19 Q1003 NOSIG
ZBSJ,2015-07-14 09:00,ZBSJ 140900Z 24002MPS CAVOK 31/19 Q1003 NOSIG
ZBSJ,2015-07-14 10:00,ZBSJ 141000Z 28002MPS 240V310 CAVOK 32/20 Q1002 NOSIG
ZBSJ,2015-07-14 11:00,ZBSJ 141100Z 13003MPS 090V160 CAVOK 29/20 Q1003 NOSIG
ZBSJ,2015-07-14 12:00,ZBSJ 141200Z 17002MPS CAVOK 27/19 Q1004 NOSIG
ZBSJ,2015-07-14 13:00,ZBSJ 141300Z 24001MPS CAVOK 26/19 Q1005 NOSIG
ZBSJ,2015-07-14 14:00,ZBSJ 141400Z 21002MPS CAVOK 26/19 Q1005 NOSIG
ZBSJ,2015-07-14 15:00,ZBSJ 141500Z 05001MPS 7000 NSC 23/20 Q1004 NOSIG
ZBSJ,2015-07-14 16:00,ZBSJ 141600Z 13002MPS 6000 NSC 24/20 Q1005 NOSIG
ZBSJ,2015-07-14 17:00,ZBSJ 141700Z 02001MPS 5000 BR NSC 22/20 Q1004 NOSIG
ZBSJ,2015-07-14 18:00,ZBSJ 141800Z 08001MPS 5000 BR NSC 22/20 Q1004 NOSIG
ZBSJ,2015-07-14 19:00,ZBSJ 141900Z 17001MPS 5000 BR NSC 22/20 Q1004 NOSIG
ZBSJ,2015-07-14 20:00,ZBSJ 142000Z 00000MPS 4500 BR NSC 22/21 Q1004 NOSIG
ZBSJ,2015-07-14 21:00,ZBSJ 142100Z 34002MPS 4000 BR NSC 23/21 Q1004 NOSIG
ZBSJ,2015-07-14 22:00,ZBSJ 142200Z 12001MPS 2500 BR NSC 22/21 Q1005 NOSIG
ZBSJ,2015-07-14 23:00,ZBSJ 142300Z 00000MPS 2200 BR NSC 23/22 Q1005 BECMG 3500
ZBSJ,2015-07-15 00:00,ZBSJ 150000Z 08001MPS 2000 BR NSC 24/21 Q1005 BECMG 3500
ZBSJ,2015-07-15 01:00,ZBSJ 150100Z 07001MPS 2000 BR NSC 24/21 Q1005 BECMG 3500
ZBSJ,2015-07-15 02:00,ZBSJ 150200Z 20001MPS 2000 BR NSC 25/21 Q1006 NOSIG
ZBSJ,2015-07-15 03:00,ZBSJ 150300Z 14002MPS 2200 BR NSC 26/22 Q1006 BECMG 3500
ZBSJ,2015-07-15 04:00,ZBSJ 150400Z 00000MPS 2000 BR NSC 26/22 Q1007 BECMG 3500
ZBSJ,2015-07-15 05:00,ZBSJ 150500Z 36003MPS 340V040 2000 -RA BR OVC046 27/22 Q1007 BECMG 3500
ZBSJ,2015-07-15 06:00,ZBSJ 150600Z 33002MPS 280V360 3000 BR NSC 27/21 Q1006 NOSIG
ZBSJ,2015-07-15 07:00,ZBSJ 150700Z 02002MPS 2200 HZ NSC 27/23 Q1006 BECMG 3500
ZBSJ,2015-07-15 08:00,ZBSJ 150800Z 35002MPS CAVOK 28/20 Q1006 NOSIG
ZBSJ,2015-07-15 09:00,ZBSJ 150900Z 02001MPS CAVOK 28/20 Q1006 NOSIG
ZBSJ,2015-07-15 10:00,ZBSJ 151000Z 00000MPS CAVOK 28/19 Q1006 NOSIG
ZBSJ,2015-07-15 11:00,ZBSJ 151100Z 34002MPS CAVOK 27/21 Q1006 NOSIG
ZBSJ,2015-07-15 12:00,ZBSJ 151200Z 01001MPS 9999 -RA BKN040 25/21 Q1006 NOSIG
ZBSJ,2015-07-15 13:00,ZBSJ 151300Z 33002MPS 8000 OVC046 25/21 Q1007 NOSIG
ZBSJ,2015-07-15 14:00,ZBSJ 151400Z 32004MPS 8000 OVC046 25/21 Q1007 NOSIG
ZBSJ,2015-07-15 15:00,ZBSJ 151500Z 30004MPS 6000 OVC046 25/21 Q1007 NOSIG
ZBSJ,2015-07-15 16:00,ZBSJ 151600Z 34002MPS 7000 -RA OVC046 23/21 Q1007 NOSIG
ZBSJ,2015-07-15 17:00,ZBSJ 151700Z 32002MPS 7000 -RA OVC040 22/21 Q1007 NOSIG
ZBSJ,2015-07-15 18:00,ZBSJ 151800Z 27003MPS 6000 -RA OVC040 23/21 Q1007 NOSIG
ZBSJ,2015-07-15 19:00,ZBSJ 151900Z 29003MPS 5000 -RA BR OVC040 21/20 Q1008 NOSIG
ZBSJ,2015-07-15 20:00,ZBSJ 152000Z 31004MPS 3200 -RA BR OVC040 21/21 Q1007 NOSIG
ZBSJ,2015-07-15 21:00,ZBSJ 152100Z 29003MPS 2100 RA BR OVC040 21/21 Q1008 NOSIG
ZBSJ,2015-07-15 22:00,ZBSJ 152200Z 32006MPS 3000 -RA BR NSC 20/20 Q1007 RERA NOSIG
ZBSJ,2015-07-15 23:00,ZBSJ 152300Z 31006MPS 3000 -RA BR NSC 20/20 Q1007 NOSIG
ZBSJ,2015-07-16 00:00,ZBSJ 160000Z 32005MPS 3000 -RA BR NSC 20/20 Q1007 RERA NOSIG
ZBSJ,2015-07-16 01:00,ZBSJ 160100Z 33004MPS 6000 -RA NSC 21/20 Q1007 NOSIG
ZBSJ,2015-07-16 02:00,ZBSJ 160200Z 33002MPS 6000 -RA NSC 21/21 Q1008 NOSIG
ZBSJ,2015-07-16 03:00,ZBSJ 160300Z 32002MPS 290V350 6000 -RA SCT026 22/21 Q1008 NOSIG
ZBSJ,2015-07-16 04:00,ZBSJ 160400Z 30002MPS 6000 FEW026 23/21 Q1008 NOSIG
ZBSJ,2015-07-16 05:00,ZBSJ 160500Z 33002MPS 8000 FEW040 24/22 Q1007 NOSIG
ZBSJ,2015-07-16 06:00,ZBSJ 160600Z 34003MPS 8000 FEW046 25/21 Q1007 NOSIG
ZBSJ,2015-07-16 07:00,ZBSJ 160700Z 34002MPS 8000 BKN040 25/21 Q1006 NOSIG
ZBSJ,2015-07-16 08:00,ZBSJ 160800Z 33003MPS 9999 FEW040 25/20 Q1006 NOSIG
ZBSJ,2015-07-16 09:00,ZBSJ 160900Z 04003MPS 360V080 9999 BKN046 26/20 Q1006 NOSIG
ZBSJ,2015-07-16 10:00,ZBSJ 161000Z 05003MPS CAVOK 25/20 Q1005 NOSIG
ZBSJ,2015-07-16 11:00,ZBSJ 161100Z 06002MPS 030V090 8000 SCT040 OVC046 25/21 Q1006 NOSIG
ZBSJ,2015-07-16 12:00,ZBSJ 161200Z 04002MPS 8000 FEW040 OVC046 24/21 Q1006 NOSIG
ZBSJ,2015-07-16 13:00,ZBSJ 161300Z 01001MPS 8000 FEW040 OVC046 23/21 Q1007 NOSIG
ZBSJ,2015-07-16 14:00,ZBSJ 161400Z 36002MPS 7000 FEW040 OVC046 23/21 Q1008 NOSIG
ZBSJ,2015-07-16 15:00,ZBSJ 161500Z 04001MPS 6000 FEW033TCU BKN046 23/21 Q1008 NOSIG
ZBSJ,2015-07-16 16:00,ZBSJ 161600Z 00000MPS 6000 FEW033TCU BKN046 22/21 Q1007 RESHRA NOSIG
ZBSJ,2015-07-16 17:00,ZBSJ 161700Z 01002MPS 350V050 6000 -RA FEW033TCU BKN046 22/21 Q1007 NOSIG
ZBSJ,2015-07-16 18:00,ZBSJ 161800Z 34002MPS 5000 BR FEW033 OVC046 22/21 Q1007 NOSIG
ZBSJ,2015-07-16 19:00,ZBSJ 161900Z 34002MPS 5000 BR FEW033 OVC046 22/21 Q1007 NOSIG
ZBSJ,2015-07-16 20:00,ZBSJ 162000Z 33002MPS 5000 BR FEW033 OVC046 21/21 Q1006 NOSIG
ZBSJ,2015-07-16 21:00,ZBSJ 162100Z 33003MPS 3000 BR SCT040 OVC046 21/21 Q1007 NOSIG
ZBSJ,2015-07-16 22:00,ZBSJ 162200Z 33001MPS 2300 BR SCT033 22/21 Q1007 NOSIG
ZBSJ,2015-07-16 23:00,ZBSJ 162300Z 33003MPS 3000 BR BKN040 23/22 Q1007 NOSIG
ZBSJ,2015-07-17 00:00,ZBSJ 170000Z 35001MPS 4000 BR FEW040 24/22 Q1008 NOSIG
ZBSJ,2015-07-17 01:00,ZBSJ 170100Z 01002MPS 330V050 4500 BR BKN046 24/22 Q1007 NOSIG
ZBSJ,2015-07-17 02:00,ZBSJ 170200Z 03003MPS 350V070 4000 BR NSC 26/23 Q1007 NOSIG
ZBSJ,2015-07-17 03:00,ZBSJ 170300Z 04002MPS 340V090 4500 BR SCT033 BKN046 26/22 Q1007 NOSIG
ZBSJ,2015-07-17 04:00,ZBSJ 170400Z 04003MPS 360V070 4500 BR SCT033 BKN046 28/22 Q1007 NOSIG
ZBSJ,2015-07-17 05:00,ZBSJ 170500Z 08003MPS 040V120 4500 HZ SCT040 28/22 Q1006 NOSIG
ZBSJ,2015-07-17 06:00,ZBSJ 170600Z 07004MPS 4500 HZ FEW040 28/23 Q1005 NOSIG
ZBSJ,2015-07-17 07:00,ZBSJ 170700Z 08003MPS 040V110 6000 FEW040 29/22 Q1005 NOSIG
ZBSJ,2015-07-17 08:00,ZBSJ 170800Z 09004MPS 5000 HZ FEW040 28/22 Q1004 NOSIG
ZBSJ,2015-07-17 09:00,ZBSJ 170900Z 08003MPS 5000 HZ NSC 27/23 Q1004 NOSIG
ZBSJ,2015-07-17 10:00,ZBSJ 171000Z 07003MPS 5000 HZ NSC 27/23 Q1005 NOSIG
ZBSJ,2015-07-17 11:00,ZBSJ 171100Z 06002MPS 3500 BR NSC 26/23 Q1005 BECMG AT1130 -TSRA
ZBSJ,2015-07-17 12:00,ZBSJ 171200Z 02002MPS 3500 TS BR BKN040 FEW040CB 25/23 Q1005 BECMG TL1340 NSW
ZBSJ,2015-07-17 13:00,ZBSJ 171300Z 31006MPS 7000 TSRA BKN040 FEW040CB 21/20 Q1007 NOSIG
ZBSJ,2015-07-17 14:00,ZBSJ 171400Z 35003MPS 320V020 9999 TS FEW030 BKN040 FEW040CB 20/20 Q1006 BECMG TL1420 NSW
ZBSJ,2015-07-17 15:00,ZBSJ 171500Z 30002MPS 9999 -TSRA FEW030 BKN040 FEW040CB 21/20 Q1007 BECMG AT1540 NSW
ZBSJ,2015-07-17 16:00,ZBSJ 171600Z 32003MPS 9999 FEW030 OVC040 20/20 Q1006 RETS NOSIG
ZBSJ,2015-07-17 17:00,ZBSJ 171700Z 30003MPS 7000 FEW030 OVC040 20/20 Q1006 NOSIG
ZBSJ,2015-07-17 18:00,ZBSJ 171800Z 32002MPS 6000 OVC040 20/20 Q1006 NOSIG
ZBSJ,2015-07-17 19:00,ZBSJ 171900Z 23001MPS 6000 OVC040 20/20 Q1006 NOSIG
ZBSJ,2015-07-17 20:00,ZBSJ 172000Z 32002MPS 4000 BR OVC040 19/19 Q1006 NOSIG
ZBSJ,2015-07-17 21:00,ZBSJ 172100Z 33002MPS 3500 BR SCT040 19/19 Q1006 NOSIG
ZBSJ,2015-07-17 22:00,ZBSJ 172200Z 26001MPS 2500 BR FEW040 20/20 Q1006 NOSIG
ZBSJ,2015-07-17 23:00,ZBSJ 172300Z 33002MPS 4000 BR NSC 21/21 Q1006 NOSIG
ZBSJ,2015-07-18 00:00,ZBSJ 180000Z 29002MPS 6000 NSC 23/20 Q1007 NOSIG
ZBSJ,2015-07-18 01:00,ZBSJ 180100Z 33002MPS 290V010 8000 NSC 24/21 Q1007 NOSIG
ZBSJ,2015-07-18 02:00,ZBSJ 180200Z 34001MPS CAVOK 25/20 Q1007 NOSIG
ZBSJ,2015-07-18 03:00,ZBSJ 180300Z 31002MPS 270V340 9999 BKN026 26/20 Q1007 NOSIG
ZBSJ,2015-07-18 04:00,ZBSJ 180400Z 08002MPS 7000 NSC 27/22 Q1007 NOSIG
ZBSJ,2015-07-18 05:00,ZBSJ 180500Z 07001MPS 8000 FEW026 28/21 Q1006 NOSIG
ZBSJ,2015-07-18 06:00,ZBSJ 180600Z 08002MPS 7000 SCT026 29/22 Q1005 NOSIG
ZBSJ,2015-07-18 07:00,ZBSJ 180700Z 13003MPS 070V170 8000 NSC 29/22 Q1005 NOSIG
ZBSJ,2015-07-18 07:30,ZBSJ 180730Z 13003MPS 070V170 6000 NSC 29/22 Q1005 NOSIG
ZBSJ,2015-07-18 08:00,ZBSJ 180800Z 17003MPS 130V200 6000 NSC 29/21 Q1005 NOSIG
ZBSJ,2015-07-18 08:30,ZBSJ 180830Z 15003MPS 120V190 5000 HZ BKN046 29/22 Q1004 NOSIG
ZBSJ,2015-07-18 09:00,ZBSJ 180900Z 16004MPS 5000 HZ BKN046 29/22 Q1004 NOSIG
ZBSJ,2015-07-18 09:30,ZBSJ 180930Z 16003MPS 5000 HZ BKN046 28/22 Q1004 NOSIG
ZBSJ,2015-07-18 10:00,ZBSJ 181000Z 15001MPS 3500 BR BKN046 27/23 Q1004 NOSIG
ZBSJ,2015-07-18 10:30,ZBSJ 181030Z 13001MPS 3000 BR BKN046 27/23 Q1004 NOSIG
ZBSJ,2015-07-18 11:00,ZBSJ 181100Z 15002MPS 3000 BR BKN046 27/23 Q1005 NOSIG
ZBSJ,2015-07-18 12:00,ZBSJ 181200Z 07001MPS 2000 BR NSC 25/23 Q1005 BECMG TL1330 3000
ZBSJ,2015-07-18 13:00,ZBSJ 181300Z 15002MPS 2800 -RA BR BKN040 25/24 Q1006 BECMG TL1400 3000
ZBSJ,2015-07-18 14:00,ZBSJ 181400Z 08002MPS 040V120 3000 BR NSC 25/24 Q1006 NOSIG
ZBSJ,2015-07-18 15:00,ZBSJ 181500Z 11001MPS 3000 BR NSC 25/24 Q1006 NOSIG
ZBSJ,2015-07-18 16:00,ZBSJ 181600Z 18002MPS 3000 -TSRA BR FEW026CB 24/24 Q1006 NOSIG
ZBSJ,2015-07-18 17:00,ZBSJ 181700Z 13002MPS 2800 TS BR FEW026CB 24/23 Q1006 NOSIG
ZBSJ,2015-07-18 18:00,ZBSJ 181800Z 10002MPS 2600 BR NSC 23/23 Q1006 RETS NOSIG
ZBSJ,2015-07-18 19:00,ZBSJ 181900Z 05005MPS 9999 OVC046 22/21 Q1006 NOSIG
ZBSJ,2015-07-18 20:00,ZBSJ 182000Z 05003MPS 010V080 9999 OVC046 21/21 Q1007 NOSIG
ZBSJ,2015-07-18 21:00,ZBSJ 182100Z 01001MPS 9999 -SHRA OVC030 21/20 Q1007 NOSIG
ZBSJ,2015-07-18 22:00,ZBSJ 182200Z 06003MPS 8000 OVC030 21/20 Q1007 NOSIG
ZBSJ,2015-07-18 23:00,ZBSJ 182300Z 02002MPS 350V060 9999 OVC040 21/20 Q1007 NOSIG
ZBSJ,2015-07-19 00:00,ZBSJ 190000Z 02002MPS 9999 BKN046 22/21 Q1008 NOSIG
ZBSJ,2015-07-19 01:00,ZBSJ 190100Z 33002MPS 280V360 9999 BKN046 23/21 Q1009 NOSIG
ZBSJ,2015-07-19 02:00,ZBSJ 190200Z 01003MPS 340V070 7000 OVC046 23/21 Q1009 NOSIG
ZBSJ,2015-07-19 03:00,ZBSJ 190300Z 35002MPS 300V040 7000 BKN046 24/22 Q1009 NOSIG
ZBSJ,2015-07-19 04:00,ZBSJ 190400Z 36002MPS 320V060 7000 BKN046 25/22 Q1009 NOSIG
ZBSJ,2015-07-19 05:00,ZBSJ 190500Z 36002MPS 7000 SCT030 BKN046 26/22 Q1008 NOSIG
ZBSJ,2015-07-19 06:00,ZBSJ 190600Z 02002MPS 6000 OVC040 26/22 Q1008 NOSIG
ZBSJ,2015-07-19 07:00,ZBSJ 190700Z 03001MPS 5000 BR FEW026 OVC040 27/23 Q1007 NOSIG
ZBSJ,2015-07-19 08:00,ZBSJ 190800Z 05001MPS 4000 BR FEW026 OVC040 27/22 Q1007 NOSIG
ZBSJ,2015-07-19 09:00,ZBSJ 190900Z 05001MPS 3500 BR OVC046 27/23 Q1006 NOSIG
ZBSJ,2015-07-19 10:00,ZBSJ 191000Z 35001MPS 3000 BR OVC046 26/23 Q1007 NOSIG
ZBSJ,2015-07-19 11:00,ZBSJ 191100Z 05001MPS 3000 BR OVC046 26/24 Q1007 NOSIG
ZBSJ,2015-07-19 12:00,ZBSJ 191200Z 07002MPS 3500 BR OVC046 24/23 Q1007 NOSIG
ZBSJ,2015-07-19 13:00,ZBSJ 191300Z 01001MPS 4000 BR OVC046 24/23 Q1008 NOSIG
ZBSJ,2015-07-19 14:00,ZBSJ 191400Z 03001MPS 4000 BR OVC046 24/23 Q1008 NOSIG
ZBSJ,2015-07-19 15:00,ZBSJ 191500Z 05001MPS 3500 BR OVC046 23/23 Q1008 NOSIG
ZBSJ,2015-07-19 16:00,ZBSJ 191600Z 09001MPS 4500 BR OVC046 23/21 Q1008 NOSIG
ZBSJ,2015-07-19 17:00,ZBSJ 191700Z 20001MPS 5000 TS BR FEW033CB BKN046 23/21 Q1008 BECMG AT1810 NSW
ZBSJ,2015-07-19 18:00,ZBSJ 191800Z 07001MPS 4000 TS BR FEW033CB BKN046 22/21 Q1008 BECMG AT1830 NSW
ZBSJ,2015-07-19 19:00,ZBSJ 191900Z 08002MPS 4000 -TSRA BR FEW033CB BKN046 22/22 Q1008 BECMG AT2000 NSW
ZBSJ,2015-07-19 20:00,ZBSJ 192000Z 07001MPS 3000 BR OVC040 21/21 Q1008 RETSRA NOSIG
ZBSJ,2015-07-19 21:00,ZBSJ 192100Z 00000MPS 2500 BR OVC040 21/21 Q1008 NOSIG
ZBSJ,2015-07-19 22:00,ZBSJ 192200Z 34001MPS 1500 BR OVC046 21/21 Q1008 NOSIG
ZBSJ,2015-07-19 23:00,ZBSJ 192300Z 06001MPS 1800 BR OVC046 22/22 Q1008 NOSIG
ZBSJ,2015-07-20 00:00,ZBSJ 200000Z 04001MPS 2000 BR OVC046 22/22 Q1009 NOSIG
ZBSJ,2015-07-20 01:00,ZBSJ 200100Z 08002MPS 040V110 2700 BR OVC046 23/22 Q1009 BECMG 3500
ZBSJ,2015-07-20 02:00,ZBSJ 200200Z 08002MPS 050V120 2700 BR BKN046 25/23 Q1009 BECMG TL0320 3500
ZBSJ,2015-07-20 03:00,ZBSJ 200300Z 08001MPS 3000 BR FEW016 26/23 Q1008 NOSIG
ZBSJ,2015-07-20 04:00,ZBSJ 200400Z 13001MPS 3000 BR FEW016 28/23 Q1008 NOSIG
ZBSJ,2015-07-20 05:00,ZBSJ 200500Z 05001MPS 2700 BR FEW033 SCT046 28/24 Q1008 BECMG 3500
ZBSJ,2015-07-20 06:00,ZBSJ 200600Z 13002MPS 100V160 2500 HZ FEW030 29/24 Q1007 BECMG 3500
ZBSJ,2015-07-20 07:00,ZBSJ 200700Z 14002MPS 090V180 2500 HZ FEW030 30/23 Q1006 NOSIG
ZBSJ,2015-07-20 08:00,ZBSJ 200800Z 15003MPS 2500 HZ FEW030 30/23 Q1006 NOSIG
ZBSJ,2015-07-20 09:00,ZBSJ 200900Z 14002MPS 2500 HZ FEW030 29/23 Q1006 BECMG 3500
ZBSJ,2015-07-20 10:00,ZBSJ 201000Z 09001MPS 2500 HZ NSC 28/24 Q1005 NOSIG
ZBSJ,2015-07-20 11:00,ZBSJ 201100Z 10001MPS 2000 BR NSC 27/24 Q1005 NOSIG
ZBSJ,2015-07-20 12:00,ZBSJ 201200Z 05002MPS 2000 BR FEW030 26/24 Q1006 NOSIG
ZBSJ,2015-07-20 13:00,ZBSJ 201300Z 11001MPS 2500 BR FEW040 26/24 Q1006 NOSIG
ZBSJ,2015-07-20 14:00,ZBSJ 201400Z 06001MPS 2000 BR NSC 25/24 Q1007 BECMG 1400 BR
ZBSJ,2015-07-20 15:00,ZBSJ 201500Z 06001MPS 2000 BR OVC046 24/24 Q1007 NOSIG
ZBSJ,2015-07-20 16:00,ZBSJ 201600Z 01001MPS 1800 BR NSC 24/24 Q1007 NOSIG
ZBSJ,2015-07-20 17:00,ZBSJ 201700Z 00000MPS 1800 TS BR FEW033CB BKN046 24/24 Q1006 BECMG TL1900 NSW NSC
ZBSJ,2015-07-20 18:00,ZBSJ 201800Z 01001MPS 1700 BR NSC 24/24 Q1006 RETS NOSIG
ZBSJ,2015-07-20 19:00,ZBSJ 201900Z 04001MPS 1700 BR FEW030 24/24 Q1006 NOSIG
ZBSJ,2015-07-20 20:00,ZBSJ 202000Z 07002MPS 1700 BR NSC 24/24 Q1006 NOSIG
ZBSJ,2015-07-20 21:00,ZBSJ 202100Z 06001MPS 1400 R33/1800N BR NSC 23/23 Q1006 NOSIG
ZBSJ,2015-07-20 22:00,ZBSJ 202200Z 21001MPS 1200 R33/1100N BR NSC 24/24 Q1006 NOSIG
ZBSJ,2015-07-20 23:00,ZBSJ 202300Z 31001MPS 1000 R15/1100D BR NSC 25/25 Q1006 BECMG 1600
ZBSJ,2015-07-21 00:00,ZBSJ 210000Z 36001MPS 1200 R15/1200N BR NSC 26/25 Q1006 BECMG TL0120 1600
ZBSJ,2015-07-21 01:00,ZBSJ 210100Z 35001MPS 1300 R15/1300N BR NSC 27/25 Q1006 BECMG 1600
ZBSJ,2015-07-21 02:00,ZBSJ 210200Z 30001MPS 1300 R33/1400N BR NSC 29/25 Q1006 BECMG TL0340 1600
ZBSJ,2015-07-21 03:00,ZBSJ 210300Z 33001MPS 1600 BR NSC 29/25 Q1006 BECMG 3500
ZBSJ,2015-07-21 04:00,ZBSJ 210400Z 03001MPS 1600 HZ NSC 30/25 Q1005 BECMG 3500
ZBSJ,2015-07-21 05:00,ZBSJ 210500Z 14002MPS 1800 HZ NSC 31/25 Q1005 BECMG 3500
ZBSJ,2015-07-21 06:00,ZBSJ 210600Z 17003MPS 130V190 1800 HZ NSC 31/25 Q1004 NOSIG
ZBSJ,2015-07-21 07:00,ZBSJ 210700Z 18004MPS 2000 HZ NSC 30/25 Q1004 BECMG 1400 BR
ZBSJ,2015-07-21 08:00,ZBSJ 210800Z 22003MPS 1600 BR NSC 28/25 Q1003 BECMG 1400 BR
ZBSJ,2015-07-21 09:00,ZBSJ 210900Z 24003MPS 1600 R15/1300N BR NSC 29/25 Q1003 NOSIG
ZBSJ,2015-07-21 10:00,ZBSJ 211000Z 31004MPS 1600 BR NSC 29/25 Q1003 BECMG 1400 BR
ZBSJ,2015-07-21 11:00,ZBSJ 211100Z 34003MPS 320V020 2500 BR NSC 26/23 Q1004 BECMG TL1230 3000
ZBSJ,2015-07-21 12:00,ZBSJ 211200Z 33003MPS 4500 BR NSC 25/23 Q1004 NOSIG
ZBSJ,2015-07-21 13:00,ZBSJ 211300Z 02002MPS 8000 NSC 24/22 Q1005 NOSIG
ZBSJ,2015-07-21 14:00,ZBSJ 211400Z 06003MPS 020V090 6000 NSC 23/21 Q1005 NOSIG
ZBSJ,2015-07-21 15:00,ZBSJ 211500Z 02001MPS 6000 NSC 23/21 Q1006 NOSIG
ZBSJ,2015-07-21 16:00,ZBSJ 211600Z 33003MPS 6000 NSC 22/22 Q1005 NOSIG
ZBSJ,2015-07-21 17:00,ZBSJ 211700Z 33003MPS 5000 BR NSC 22/21 Q1005 NOSIG
ZBSJ,2015-07-21 18:00,ZBSJ 211800Z 32003MPS 5000 BR NSC 22/21 Q1004 NOSIG
ZBSJ,2015-07-21 19:00,ZBSJ 211900Z 28002MPS 4500 BR NSC 22/21 Q1004 NOSIG
ZBSJ,2015-07-21 20:00,ZBSJ 212000Z 20001MPS 4500 BR NSC 21/20 Q1004 NOSIG
ZBSJ,2015-07-21 21:00,ZBSJ 212100Z 16001MPS 2700 BR NSC 20/20 Q1004 NOSIG
ZBSJ,2015-07-21 22:00,ZBSJ 212200Z 00000MPS 2000 BR NSC 20/20 Q1004 NOSIG
ZBSJ,2015-07-21 23:00,ZBSJ 212300Z 15001MPS 2000 BR NSC 22/22 Q1004 BECMG 3500
ZBSJ,2015-07-22 00:00,ZBSJ 220000Z 25001MPS 3000 BR NSC 24/22 Q1005 NOSIG
ZBSJ,2015-07-22 01:00,ZBSJ 220100Z 03001MPS 4000 BR NSC 26/22 Q1005 NOSIG
ZBSJ,2015-07-22 02:00,ZBSJ 220200Z 05002MPS 5000 HZ NSC 28/22 Q1005 NOSIG
ZBSJ,2015-07-22 03:00,ZBSJ 220300Z 04001MPS 6000 NSC 29/23 Q1004 NOSIG
ZBSJ,2015-07-22 04:00,ZBSJ 220400Z 12002MPS 6000 NSC 30/23 Q1004 NOSIG
ZBSJ,2015-07-22 05:00,ZBSJ 220500Z 02002MPS 5000 HZ NSC 30/23 Q1004 NOSIG
ZBSJ,2015-07-22 06:00,ZBSJ 220600Z VRB02MPS 7000 NSC 31/24 Q1003 NOSIG
ZBSJ,2015-07-22 07:00,ZBSJ 220700Z 08002MPS 040V130 7000 FEW046 31/24 Q1003 NOSIG
ZBSJ,2015-07-22 08:00,ZBSJ 220800Z 10001MPS 7000 NSC 32/23 Q1002 NOSIG
ZBSJ,2015-07-22 09:00,ZBSJ 220900Z 18001MPS 7000 FEW040 32/23 Q1002 NOSIG
ZBSJ,2015-07-22 10:00,ZBSJ 221000Z 04001MPS 6000 BKN040 30/24 Q1003 NOSIG
ZBSJ,2015-07-22 11:00,ZBSJ 221100Z 12001MPS 2500 BR BKN040 29/25 Q1003 NOSIG
ZBSJ,2015-07-22 12:00,ZBSJ 221200Z 10001MPS 2700 BR OVC040 28/24 Q1004 BECMG TL1230 3000
ZBSJ,2015-07-22 13:00,ZBSJ 221300Z 07002MPS 5000 BR OVC040 27/24 Q1005 NOSIG
ZBSJ,2015-07-22 14:00,ZBSJ 221400Z 00000MPS 4000 BR OVC040 26/24 Q1005 NOSIG
ZBSJ,2015-07-22 15:00,ZBSJ 221500Z 24002MPS 4000 BR OVC040 26/25 Q1005 NOSIG
ZBSJ,2015-07-22 16:00,ZBSJ 221600Z 31003MPS 5000 BR NSC 26/23 Q1005 NOSIG
ZBSJ,2015-07-22 17:00,ZBSJ 221700Z 28002MPS 8000 NSC 25/22 Q1004 NOSIG
ZBSJ,2015-07-22 18:00,ZBSJ 221800Z 31002MPS 8000 NSC 25/22 Q1004 NOSIG
ZBSJ,2015-07-22 19:00,ZBSJ 221900Z 28002MPS CAVOK 24/21 Q1004 NOSIG
ZBSJ,2015-07-22 20:00,ZBSJ 222000Z 30003MPS CAVOK 24/21 Q1004 NOSIG
ZBSJ,2015-07-22 21:00,ZBSJ 222100Z 30002MPS CAVOK 24/21 Q1004 NOSIG
ZBSJ,2015-07-22 22:00,ZBSJ 222200Z 33002MPS 7000 NSC 23/21 Q1004 NOSIG
ZBSJ,2015-07-22 23:00,ZBSJ 222300Z 33002MPS 7000 OVC046 25/22 Q1005 NOSIG
ZBSJ,2015-07-23 00:00,ZBSJ 230000Z 30002MPS 7000 OVC046 25/21 Q1005 NOSIG
ZBSJ,2015-07-23 01:00,ZBSJ 230100Z 32002MPS 9999 OVC046 26/22 Q1005 NOSIG
ZBSJ,2015-07-23 02:00,ZBSJ 230200Z 35001MPS 7000 OVC040 26/23 Q1005 NOSIG
ZBSJ,2015-07-23 03:00,ZBSJ 230300Z 36002MPS 6000 NSC 29/23 Q1005 NOSIG
ZBSJ,2015-07-23 04:00,ZBSJ 230400Z 18002MPS 6000 NSC 31/23 Q1004 NOSIG
ZBSJ,2015-07-23 05:00,ZBSJ 230500Z 25002MPS 7000 NSC 31/22 Q1004 NOSIG
ZBSJ,2015-07-23 06:00,ZBSJ 230600Z 20002MPS 7000 NSC 33/22 Q1003 NOSIG
ZBSJ,2015-07-23 07:00,ZBSJ 230700Z 18003MPS 150V220 8000 NSC 33/22 Q1002 NOSIG
ZBSJ,2015-07-23 08:00,ZBSJ 230800Z 15003MPS 110V200 CAVOK 33/21 Q1002 NOSIG
ZBSJ,2015-07-23 09:00,ZBSJ 230900Z 15003MPS 4000 HZ NSC 32/23 Q1001 NOSIG
ZBSJ,2015-07-23 10:00,ZBSJ 231000Z 13002MPS 3500 HZ NSC 31/23 Q1002 NOSIG
ZBSJ,2015-07-23 11:00,ZBSJ 231100Z 17002MPS 2500 HZ NSC 29/25 Q1002 NOSIG
ZBSJ,2015-07-23 12:00,ZBSJ 231200Z 16002MPS 2700 BR NSC 27/25 Q1002 NOSIG
ZBSJ,2015-07-23 13:00,ZBSJ 231300Z 17001MPS 4000 BR NSC 27/25 Q1003 NOSIG
ZBSJ,2015-07-23 14:00,ZBSJ 231400Z 35002MPS 7000 NSC 26/23 Q1003 NOSIG
ZBSJ,2015-07-23 15:00,ZBSJ 231500Z 33001MPS 6000 NSC 25/23 Q1004 NOSIG
ZBSJ,2015-07-23 16:00,ZBSJ 231600Z 17001MPS 5000 BR NSC 25/24 Q1003 NOSIG
ZBSJ,2015-07-23 17:00,ZBSJ 231700Z 36002MPS 6000 NSC 24/22 Q1003 NOSIG
ZBSJ,2015-07-23 18:00,ZBSJ 231800Z 01004MPS 6000 NSC 25/23 Q1003 NOSIG
ZBSJ,2015-07-23 19:00,ZBSJ 231900Z 06002MPS 8000 NSC 23/21 Q1002 NOSIG
ZBSJ,2015-07-23 20:00,ZBSJ 232000Z 01002MPS 8000 NSC 22/21 Q1002 NOSIG
ZBSJ,2015-07-23 21:00,ZBSJ 232100Z 00000MPS 8000 NSC 22/21 Q1002 NOSIG
ZBSJ,2015-07-23 22:00,ZBSJ 232200Z 27001MPS 8000 NSC 22/21 Q1002 NOSIG
ZBSJ,2015-07-23 23:00,ZBSJ 232300Z 00000MPS 8000 NSC 24/21 Q1002 NOSIG
ZBSJ,2015-07-24 00:00,ZBSJ 240000Z 13001MPS CAVOK 25/21 Q1003 NOSIG
ZBSJ,2015-07-24 01:00,ZBSJ 240100Z 14001MPS 7000 NSC 27/21 Q1003 NOSIG
ZBSJ,2015-07-24 02:00,ZBSJ 240200Z 17001MPS 7000 NSC 28/22 Q1003 NOSIG
ZBSJ,2015-07-24 03:00,ZBSJ 240300Z 09001MPS 7000 NSC 30/22 Q1002 NOSIG
ZBSJ,2015-07-24 04:00,ZBSJ 240400Z 10002MPS 7000 NSC 30/22 Q1002 NOSIG
ZBSJ,2015-07-24 05:00,ZBSJ 240500Z 10003MPS 030V140 6000 NSC 31/23 Q1001 NOSIG
ZBSJ,2015-07-24 06:00,ZBSJ 240600Z 09002MPS 030V190 5000 HZ FEW030 32/23 Q1001 NOSIG
ZBSJ,2015-07-24 07:00,ZBSJ 240700Z 12001MPS 7000 FEW030 33/23 Q1000 NOSIG
ZBSJ,2015-07-24 08:00,ZBSJ 240800Z 08001MPS 7000 FEW040 32/22 Q1000 NOSIG
ZBSJ,2015-07-24 09:00,ZBSJ 240900Z 11001MPS 7000 SCT040 31/23 Q1000 BECMG AT0930 -TSRA
ZBSJ,2015-07-24 10:00,ZBSJ 241000Z 28002MPS 8000 FEW040 31/23 Q1000 NOSIG
ZBSJ,2015-07-24 11:00,ZBSJ 241100Z 25002MPS 230V300 8000 NSC 29/22 Q1000 NOSIG
ZBSJ,2015-07-24 12:00,ZBSJ 241200Z 02001MPS 8000 NSC 26/22 Q1001 NOSIG
ZBSJ,2015-07-24 13:00,ZBSJ 241300Z 34002MPS 8000 NSC 26/22 Q1001 NOSIG
ZBSJ,2015-07-24 14:00,ZBSJ 241400Z 33002MPS 8000 NSC 25/21 Q1002 NOSIG
ZBSJ,2015-07-24 15:00,ZBSJ 241500Z 36001MPS 8000 NSC 24/22 Q1001 NOSIG
ZBSJ,2015-07-24 16:00,ZBSJ 241600Z 36002MPS CAVOK 24/21 Q1001 NOSIG
ZBSJ,2015-07-24 17:00,ZBSJ 241700Z 36001MPS 8000 NSC 23/21 Q1001 NOSIG
ZBSJ,2015-07-24 18:00,ZBSJ 241800Z 33002MPS 8000 NSC 23/21 Q1001 NOSIG
ZBSJ,2015-07-24 19:00,ZBSJ 241900Z 34002MPS CAVOK 23/21 Q1001 NOSIG
ZBSJ,2015-07-24 20:00,ZBSJ 242000Z 32001MPS CAVOK 22/21 Q1001 NOSIG
ZBSJ,2015-07-24 21:00,ZBSJ 242100Z 30003MPS CAVOK 23/22 Q1001 NOSIG
ZBSJ,2015-07-24 22:00,ZBSJ 242200Z 32003MPS 6000 NSC 22/20 Q1001 NOSIG
ZBSJ,2015-07-24 23:00,ZBSJ 242300Z 34002MPS 7000 NSC 24/21 Q1001 NOSIG
ZBSJ,2015-07-25 00:00,ZBSJ 250000Z 32002MPS 280V360 CAVOK 27/21 Q1002 NOSIG
ZBSJ,2015-07-25 01:00,ZBSJ 250100Z 01001MPS CAVOK 28/20 Q1002 NOSIG
ZBSJ,2015-07-25 02:00,ZBSJ 250200Z 20001MPS CAVOK 30/20 Q1002 NOSIG
ZBSJ,2015-07-25 03:00,ZBSJ 250300Z 20002MPS 7000 NSC 31/20 Q1002 NOSIG
ZBSJ,2015-07-25 04:00,ZBSJ 250400Z 18003MPS 120V220 7000 NSC 33/20 Q1001 NOSIG
ZBSJ,2015-07-25 05:00,ZBSJ 250500Z 17003MPS 110V230 8000 NSC 34/20 Q1001 NOSIG
ZBSJ,2015-07-25 06:00,ZBSJ 250600Z 18004MPS CAVOK 35/20 Q1000 NOSIG
ZBSJ,2015-07-25 07:00,ZBSJ 250700Z 18004MPS CAVOK 35/20 Q1000 NOSIG
ZBSJ,2015-07-25 08:00,ZBSJ 250800Z 16005MPS CAVOK 35/20 Q0999 NOSIG
ZBSJ,2015-07-25 09:00,ZBSJ 250900Z 16004MPS CAVOK 34/21 Q0999 NOSIG
ZBSJ,2015-07-25 10:00,ZBSJ 251000Z 16003MPS CAVOK 33/22 Q0999 NOSIG
ZBSJ,2015-07-25 11:00,ZBSJ 251100Z 15003MPS CAVOK 31/21 Q0999 NOSIG
ZBSJ,2015-07-25 12:00,ZBSJ 251200Z 15003MPS CAVOK 28/20 Q1000 NOSIG
ZBSJ,2015-07-25 13:00,ZBSJ 251300Z 14003MPS CAVOK 27/21 Q1000 NOSIG
ZBSJ,2015-07-25 14:00,ZBSJ 251400Z 10002MPS CAVOK 27/21 Q1001 NOSIG
ZBSJ,2015-07-25 15:00,ZBSJ 251500Z 07003MPS 8000 NSC 27/22 Q1002 NOSIG
ZBSJ,2015-07-25 16:00,ZBSJ 251600Z 07003MPS 6000 NSC 27/22 Q1002 NOSIG
ZBSJ,2015-07-25 17:00,ZBSJ 251700Z 02001MPS 6000 NSC 26/22 Q1002 NOSIG
ZBSJ,2015-07-25 18:00,ZBSJ 251800Z 34001MPS 5000 BR NSC 25/23 Q1002 NOSIG
ZBSJ,2015-07-25 19:00,ZBSJ 251900Z 01001MPS 5000 BR NSC 24/22 Q1001 NOSIG
ZBSJ,2015-07-25 20:00,ZBSJ 252000Z 31002MPS 5000 BR NSC 24/21 Q1002 NOSIG
ZBSJ,2015-07-25 21:00,ZBSJ 252100Z 31002MPS CAVOK 24/21 Q1002 NOSIG
ZBSJ,2015-07-25 22:00,ZBSJ 252200Z 23001MPS 5000 BR SCT040 24/21 Q1002 NOSIG
ZBSJ,2015-07-25 23:00,ZBSJ 252300Z 14001MPS 5000 BR NSC 26/22 Q1003 NOSIG
ZBSJ,2015-07-26 00:00,ZBSJ 260000Z 11001MPS 5000 HZ NSC 29/22 Q1003 NOSIG
ZBSJ,2015-07-26 01:00,ZBSJ 260100Z 11002MPS 5000 HZ NSC 30/23 Q1003 NOSIG
ZBSJ,2015-07-26 02:00,ZBSJ 260200Z 17002MPS 5000 HZ NSC 31/23 Q1004 NOSIG
ZBSJ,2015-07-26 03:00,ZBSJ 260300Z 06001MPS 6000 NSC 33/23 Q1004 NOSIG
ZBSJ,2015-07-26 04:00,ZBSJ 260400Z 12001MPS 6000 NSC 33/23 Q1003 NOSIG
ZBSJ,2015-07-26 05:00,ZBSJ 260500Z 09001MPS 7000 NSC 35/23 Q1003 NOSIG
ZBSJ,2015-07-26 06:00,ZBSJ 260600Z 10002MPS 7000 NSC 35/23 Q1003 NOSIG
ZBSJ,2015-07-26 07:00,ZBSJ 260700Z 10002MPS 030V150 6000 NSC 34/23 Q1003 NOSIG
ZBSJ,2015-07-26 08:00,ZBSJ 260800Z 08003MPS 6000 NSC 34/23 Q1002 NOSIG
ZBSJ,2015-07-26 09:00,ZBSJ 260900Z 07003MPS 6000 NSC 34/24 Q1002 NOSIG
ZBSJ,2015-07-26 10:00,ZBSJ 261000Z 09003MPS 050V120 6000 NSC 33/24 Q1002 NOSIG
ZBSJ,2015-07-26 11:00,ZBSJ 261100Z 08002MPS 3500 HZ NSC 31/25 Q1003 BECMG 2500
ZBSJ,2015-07-26 12:00,ZBSJ 261200Z 05002MPS 3500 BR NSC 29/26 Q1003 BECMG 2500
ZBSJ,2015-07-26 13:00,ZBSJ 261300Z 09001MPS 2800 BR NSC 29/26 Q1004 NOSIG
ZBSJ,2015-07-26 14:00,ZBSJ 261400Z 05002MPS 2500 BR NSC 29/26 Q1004 NOSIG
ZBSJ,2015-07-26 15:00,ZBSJ 261500Z 08001MPS 2500 BR NSC 28/25 Q1004 NOSIG
ZBSJ,2015-07-26 16:00,ZBSJ 261600Z 05002MPS 2200 BR NSC 28/26 Q1004 NOSIG
ZBSJ,2015-07-26 17:00,ZBSJ 261700Z 06002MPS 2200 BR NSC 28/26 Q1004 NOSIG
ZBSJ,2015-07-26 18:00,ZBSJ 261800Z 07001MPS 2200 BR NSC 27/26 Q1004 NOSIG
ZBSJ,2015-07-26 19:00,ZBSJ 261900Z 09002MPS 2000 BR NSC 27/26 Q1004 NOSIG
ZBSJ,2015-07-26 20:00,ZBSJ 262000Z 13002MPS 1800 BR NSC 27/25 Q1003 NOSIG
ZBSJ,2015-07-26 21:00,ZBSJ 262100Z 14001MPS 1800 BR NSC 26/25 Q1004 NOSIG
ZBSJ,2015-07-26 22:00,ZBSJ 262200Z 11001MPS 1600 BR NSC 25/25 Q1004 NOSIG
ZBSJ,2015-07-26 23:00,ZBSJ 262300Z 14001MPS 1600 R15/1400N BR NSC 27/25 Q1005 BECMG 3500
ZBSJ,2015-07-27 00:00,ZBSJ 270000Z 15001MPS 1600 BR NSC 29/26 Q1005 BECMG 3500
ZBSJ,2015-07-27 01:00,ZBSJ 270100Z 03001MPS 1300 R15/1500U BR NSC 30/26 Q1005 BECMG 1600
ZBSJ,2015-07-27 02:00,ZBSJ 270200Z 15002MPS 1300 R15/1500U HZ NSC 31/26 Q1005 BECMG 1600
ZBSJ,2015-07-27 03:00,ZBSJ 270300Z VRB02MPS 1400 R15/1700N HZ NSC 33/27 Q1005 BECMG 1600
ZBSJ,2015-07-27 04:00,ZBSJ 270400Z 17003MPS 090V240 1500 HZ NSC 34/26 Q1004 NOSIG
ZBSJ,2015-07-27 05:00,ZBSJ 270500Z 17004MPS 120V200 2000 HZ NSC 35/25 Q1004 NOSIG
ZBSJ,2015-07-27 06:00,ZBSJ 270600Z 18004MPS 3000 HZ NSC 36/24 Q1003 NOSIG
ZBSJ,2015-07-27 07:00,ZBSJ 270700Z 17004MPS 4000 HZ NSC 36/25 Q1003 NOSIG
ZBSJ,2015-07-27 08:00,ZBSJ 270800Z 16005MPS 6000 NSC 36/24 Q1002 NOSIG
ZBSJ,2015-07-27 09:00,ZBSJ 270900Z 15003MPS CAVOK 35/24 Q1001 NOSIG
ZBSJ,2015-07-27 10:00,ZBSJ 271000Z 16004MPS CAVOK 34/24 Q1001 NOSIG
ZBSJ,2015-07-27 11:00,ZBSJ 271100Z 15003MPS CAVOK 31/24 Q1001 NOSIG
ZBSJ,2015-07-27 12:00,ZBSJ 271200Z 15003MPS CAVOK 29/23 Q1002 NOSIG
ZBSJ,2015-07-27 13:00,ZBSJ 271300Z 15002MPS CAVOK 28/23 Q1003 NOSIG
ZBSJ,2015-07-27 14:00,ZBSJ 271400Z 17002MPS CAVOK 28/23 Q1002 NOSIG
ZBSJ,2015-07-27 15:00,ZBSJ 271500Z 12002MPS CAVOK 28/23 Q1003 NOSIG
ZBSJ,2015-07-27 16:00,ZBSJ 271600Z 15003MPS CAVOK 28/24 Q1003 NOSIG
ZBSJ,2015-07-27 17:00,ZBSJ 271700Z 11002MPS 5000 BR NSC 27/24 Q1002 NOSIG
ZBSJ,2015-07-27 18:00,ZBSJ 271800Z 12002MPS 5000 BR NSC 27/24 Q1002 NOSIG
ZBSJ,2015-07-27 19:00,ZBSJ 271900Z 12002MPS 6000 NSC 26/24 Q1002 NOSIG
ZBSJ,2015-07-27 20:00,ZBSJ 272000Z 09001MPS 5000 BR NSC 25/24 Q1002 NOSIG
ZBSJ,2015-07-27 21:00,ZBSJ 272100Z 06002MPS 4000 BR NSC 26/25 Q1002 NOSIG
ZBSJ,2015-07-27 22:00,ZBSJ 272200Z 07002MPS 3000 BR NSC 26/25 Q1003 NOSIG
ZBSJ,2015-07-27 23:00,ZBSJ 272300Z 06002MPS 2700 BR NSC 26/25 Q1003 BECMG 3000
ZBSJ,2015-07-28 00:00,ZBSJ 280000Z 04003MPS 3000 BR NSC 27/24 Q1003 NOSIG
ZBSJ,2015-07-28 01:00,ZBSJ 280100Z 04001MPS 3000 BR NSC 28/24 Q1004 NOSIG
ZBSJ,2015-07-28 02:00,ZBSJ 280200Z 04002MPS 3000 BR NSC 29/25 Q1004 NOSIG
ZBSJ,2015-07-28 03:00,ZBSJ 280300Z 05001MPS 3000 HZ NSC 30/25 Q1004 NOSIG
ZBSJ,2015-07-28 04:00,ZBSJ 280400Z 03001MPS 3000 HZ NSC 32/25 Q1004 NOSIG
ZBSJ,2015-07-28 05:00,ZBSJ 280500Z 12001MPS 3500 HZ NSC 32/25 Q1003 NOSIG
ZBSJ,2015-07-28 06:00,ZBSJ 280600Z 12001MPS 3500 HZ NSC 34/25 Q1002 NOSIG
ZBSJ,2015-07-28 07:00,ZBSJ 280700Z 15004MPS 4000 HZ NSC 34/25 Q1001 NOSIG
ZBSJ,2015-07-28 08:00,ZBSJ 280800Z 17002MPS 100V210 5000 HZ NSC 34/26 Q1001 NOSIG
ZBSJ,2015-07-28 09:00,ZBSJ 280900Z 14002MPS 090V180 5000 HZ FEW040 34/26 Q1001 NOSIG
ZBSJ,2015-07-28 10:00,ZBSJ 281000Z 14002MPS 4500 HZ NSC 33/25 Q1000 NOSIG
ZBSJ,2015-07-28 11:00,ZBSJ 281100Z 15003MPS 3000 HZ NSC 31/26 Q1000 BECMG 2000 HZ
ZBSJ,2015-07-28 12:00,ZBSJ 281200Z 14002MPS 3000 HZ NSC 30/26 Q1000 NOSIG
ZBSJ,2015-07-28 13:00,ZBSJ 281300Z 06001MPS 3500 BR NSC 29/26 Q1001 NOSIG
ZBSJ,2015-07-28 14:00,ZBSJ 281400Z 09001MPS 3500 BR NSC 28/26 Q1002 NOSIG
ZBSJ,2015-07-28 15:00,ZBSJ 281500Z 07001MPS 3000 BR NSC 29/26 Q1002 NOSIG
ZBSJ,2015-07-28 16:00,ZBSJ 281600Z 03001MPS 2800 BR NSC 28/26 Q1001 NOSIG
ZBSJ,2015-07-28 17:00,ZBSJ 281700Z 06002MPS 2800 BR NSC 28/26 Q1001 NOSIG
ZBSJ,2015-07-28 18:00,ZBSJ 281800Z 06001MPS 2500 BR NSC 27/26 Q1001 NOSIG
ZBSJ,2015-07-28 19:00,ZBSJ 281900Z 06002MPS 2500 BR NSC 27/26 Q1000 NOSIG
ZBSJ,2015-07-28 20:00,ZBSJ 282000Z 04002MPS 360V070 2500 BR NSC 28/26 Q1001 NOSIG
ZBSJ,2015-07-28 21:00,ZBSJ 282100Z 06003MPS 020V080 2500 BR NSC 27/26 Q1001 NOSIG
ZBSJ,2015-07-28 22:00,ZBSJ 282200Z 05002MPS 2500 BR NSC 27/25 Q1001 NOSIG
ZBSJ,2015-07-28 23:00,ZBSJ 282300Z 36001MPS 2500 BR NSC 27/25 Q1001 NOSIG
ZBSJ,2015-07-29 00:00,ZBSJ 290000Z 34003MPS 2700 BR NSC 28/25 Q1001 BECMG 3000
ZBSJ,2015-07-29 01:00,ZBSJ 290100Z 32003MPS 3500 BR NSC 30/25 Q1001 NOSIG
ZBSJ,2015-07-29 02:00,ZBSJ 290200Z 36002MPS 3500 BR NSC 30/26 Q1001 NOSIG
ZBSJ,2015-07-29 03:00,ZBSJ 290300Z 10001MPS 3000 HZ NSC 32/26 Q1001 NOSIG
ZBSJ,2015-07-29 04:00,ZBSJ 290400Z 09002MPS 3000 HZ NSC 31/25 Q1001 NOSIG
ZBSJ,2015-07-29 05:00,ZBSJ 290500Z 07001MPS 3000 HZ NSC 31/26 Q1001 BECMG TL0620 2500 HZ
ZBSJ,2015-07-29 06:00,ZBSJ 290600Z 08002MPS 2500 BR NSC 31/27 Q1000 BECMG TL0720 3000
ZBSJ,2015-07-29 07:00,ZBSJ 290700Z 10002MPS 070V130 2200 BR NSC 32/27 Q1000 BECMG AT0800 1400 -TSRA
ZBSJ,2015-07-29 08:00,ZBSJ 290800Z 10002MPS 080V140 2000 BR NSC 31/27 Q1000 BECMG AT0840 1400 -TSRA
ZBSJ,2015-07-29 09:00,ZBSJ 290900Z 08002MPS 1700 BR NSC 31/28 Q1000 NOSIG
ZBSJ,2015-07-29 10:00,ZBSJ 291000Z 19006MPS 140V210 2200 TSRA BR FEW030CB BKN040 28/26 Q0999 BECMG AT1130 NSW
ZBSJ,2015-07-29 11:00,ZBSJ 291100Z 18004MPS 130V250 1300 R33/1900N +TSRA BR FEW030CB BKN040 23/23 Q1002 BECMG AT1150 NSW
ZBSJ,2015-07-29 12:00,ZBSJ 291200Z 05004MPS 010V070 3000 -RA BR FEW016 OVC040 23/23 Q1001 RETS NOSIG
ZBSJ,2015-07-29 13:00,ZBSJ 291300Z 02001MPS 4000 BR FEW040 23/23 Q1001 NOSIG
ZBSJ,2015-07-29 14:00,ZBSJ 291400Z 28004MPS 3500 BR FEW040 23/23 Q1001 NOSIG
ZBSJ,2015-07-29 15:00,ZBSJ 291500Z 36001MPS 3500 BR FEW040 23/22 Q1002 NOSIG
ZBSJ,2015-07-29 16:00,ZBSJ 291600Z 24001MPS 3000 BR NSC 23/23 Q1001 NOSIG
ZBSJ,2015-07-29 17:00,ZBSJ 291700Z 15002MPS 2200 BR NSC 23/23 Q1002 NOSIG
ZBSJ,2015-07-29 18:00,ZBSJ 291800Z 34001MPS 2200 BR NSC 22/22 Q1002 NOSIG
ZBSJ,2015-07-29 19:00,ZBSJ 291900Z 33002MPS 2200 BR NSC 23/22 Q1002 NOSIG
ZBSJ,2015-07-29 20:00,ZBSJ 292000Z 32003MPS 2000 BR NSC 23/23 Q1001 NOSIG
ZBSJ,2015-07-29 21:00,ZBSJ 292100Z 34002MPS 1800 BR NSC 22/22 Q1002 NOSIG
ZBSJ,2015-07-29 22:00,ZBSJ 292200Z 33003MPS 1600 R33/1300N BR NSC 23/23 Q1002 BECMG TL2300 1400
ZBSJ,2015-07-29 23:00,ZBSJ 292300Z 13001MPS 1400 R33/1000N BR NSC 24/23 Q1003 BECMG TL0020 1600
ZBSJ,2015-07-30 00:00,ZBSJ 300000Z 13001MPS 1600 R33/1200N BR SCT020 25/23 Q1004 BECMG 3000
ZBSJ,2015-07-30 01:00,ZBSJ 300100Z 06002MPS 2000 BR BKN046 26/24 Q1004 NOSIG
ZBSJ,2015-07-30 02:00,ZBSJ 300200Z 06003MPS 010V090 2700 BR BKN046 27/24 Q1004 NOSIG
ZBSJ,2015-07-30 03:00,ZBSJ 300300Z 05002MPS 340V090 3500 BR BKN046 28/24 Q1004 NOSIG
ZBSJ,2015-07-30 04:00,ZBSJ 300400Z 05003MPS 360V110 4000 BR BKN046 28/24 Q1004 NOSIG
ZBSJ,2015-07-30 05:00,ZBSJ 300500Z 09002MPS 050V130 4000 BR BKN046 28/25 Q1004 NOSIG
ZBSJ,2015-07-30 06:00,ZBSJ 300600Z 08003MPS 4000 BR BKN046 28/25 Q1003 NOSIG
ZBSJ,2015-07-30 07:00,ZBSJ 300700Z 09002MPS 5000 BR OVC046 27/25 Q1003 NOSIG
ZBSJ,2015-07-30 08:00,ZBSJ 300800Z 05002MPS 3500 BR OVC040 27/25 Q1003 NOSIG
ZBSJ,2015-07-30 09:00,ZBSJ 300900Z 02001MPS 3500 BR OVC040 27/25 Q1003 NOSIG
ZBSJ,2015-07-30 10:00,ZBSJ 301000Z 36002MPS 3500 BR OVC040 27/25 Q1003 NOSIG
ZBSJ,2015-07-30 11:00,ZBSJ 301100Z 35001MPS 2500 BR OVC040 27/25 Q1003 NOSIG
ZBSJ,2015-07-30 12:00,ZBSJ 301200Z 02002MPS 3500 -RA BR OVC040 27/25 Q1004 NOSIG
ZBSJ,2015-07-30 13:00,ZBSJ 301300Z 06002MPS 4000 BR OVC040 27/25 Q1004 NOSIG
ZBSJ,2015-07-30 14:00,ZBSJ 301400Z 01002MPS 4000 BR OVC040 27/25 Q1005 NOSIG
ZBSJ,2015-07-30 15:00,ZBSJ 301500Z 05004MPS 010V080 4000 BR OVC040 26/25 Q1004 NOSIG
ZBSJ,2015-07-30 16:00,ZBSJ 301600Z 06004MPS 2700 BR OVC040 26/24 Q1004 NOSIG
ZBSJ,2015-07-30 17:00,ZBSJ 301700Z 04004MPS 3000 BR OVC040 25/24 Q1004 NOSIG
ZBSJ,2015-07-30 18:00,ZBSJ 301800Z 05005MPS 5000 BR OVC040 24/22 Q1005 NOSIG
ZBSJ,2015-07-30 19:00,ZBSJ 301900Z 05005MPS 5000 BR OVC040 23/22 Q1005 NOSIG
ZBSJ,2015-07-30 20:00,ZBSJ 302000Z 05003MPS 010V080 5000 BR OVC040 23/22 Q1005 NOSIG
ZBSJ,2015-07-30 21:00,ZBSJ 302100Z 06003MPS 5000 BR OVC040 23/22 Q1006 NOSIG
ZBSJ,2015-07-30 22:00,ZBSJ 302200Z 03002MPS 2500 -RA BR OVC033 23/22 Q1006 NOSIG
ZBSJ,2015-07-30 23:00,ZBSJ 302300Z 02003MPS 340V060 1400 R33/1600D -RA BR OVC033 23/22 Q1006 BECMG 1600
ZBSJ,2015-07-31 00:00,ZBSJ 310000Z 01003MPS 340V050 1000 R33/1400N -RA BR OVC033 22/22 Q1007 BECMG 1600
ZBSJ,2015-07-31 01:00,ZBSJ 310100Z 02003MPS 340V060 2200 -DZ BR OVC033 22/22 Q1007 NOSIG
ZBSJ,2015-07-31 02:00,ZBSJ 310200Z 03003MPS 350V070 2200 -DZ BR OVC033 23/22 Q1007 NOSIG
ZBSJ,2015-07-31 03:00,ZBSJ 310300Z 05005MPS 020V080 6000 OVC033 23/22 Q1007 NOSIG
ZBSJ,2015-07-31 04:00,ZBSJ 310400Z 04004MPS 350V070 6000 OVC033 24/22 Q1007 NOSIG
ZBSJ,2015-07-31 05:00,ZBSJ 310500Z 05004MPS 340V090 5000 BR OVC040 24/23 Q1007 NOSIG
ZBSJ,2015-07-31 06:00,ZBSJ 310600Z 04003MPS 360V070 2700 BR OVC040 24/23 Q1007 BECMG 3000
ZBSJ,2015-07-31 07:00,ZBSJ 310700Z 03002MPS 350V070 1400 R33/1300D -RA BR OVC040 23/23 Q1007 BECMG 1600
ZBSJ,2015-07-31 08:00,ZBSJ 310800Z 03002MPS 350V060 1400 R33/1600N BR OVC040 24/23 Q1007 BECMG 1600
ZBSJ,2015-07-31 09:00,ZBSJ 310900Z 05002MPS 020V080 1700 -RA BR OVC040 24/23 Q1007 NOSIG
ZBSJ,2015-07-31 10:00,ZBSJ 311000Z 03001MPS 1500 -DZ BR OVC040 23/23 Q1007 BECMG 1400 BR
ZBSJ,2015-07-31 11:00,ZBSJ 311100Z 01002MPS 1500 -DZ BR FEW033 OVC040 23/23 Q1007 NOSIG
ZBSJ,2015-07-31 12:00,ZBSJ 311200Z 03001MPS 1600 -RA BR FEW033 OVC040 23/23 Q1007 NOSIG
ZBSJ,2015-07-31 13:00,ZBSJ 311300Z 03002MPS 1800 -RA BR OVC040 23/22 Q1008 NOSIG
ZBSJ,2015-07-31 14:00,ZBSJ 311400Z 36002MPS 2300 -RA BR OVC040 23/23 Q1008 NOSIG
ZBSJ,2015-07-31 15:00,ZBSJ 311500Z 36002MPS 2300 BR OVC040 23/23 Q1008 NOSIG
ZBSJ,2015-07-31 16:00,ZBSJ 311600Z 30001MPS 2500 -RA BR OVC040 23/23 Q1008 NOSIG
ZBSJ,2015-07-31 17:00,ZBSJ 311700Z 32001MPS 2200 -RA BR OVC040 23/23 Q1007 NOSIG
ZBSJ,2015-07-31 18:00,ZBSJ 311800Z 31002MPS 2200 BR OVC040 23/23 Q1007 NOSIG
ZBSJ,2015-07-31 19:00,ZBSJ 311900Z 31002MPS 1800 BR OVC040 23/23 Q1007 NOSIG
ZBSJ,2015-07-31 20:00,ZBSJ 312000Z 31002MPS 2000 BR OVC040 23/23 Q1007 NOSIG
ZBSJ,2015-07-31 21:00,ZBSJ 312100Z 33002MPS 2000 BR OVC040 23/23 Q1007 NOSIG
ZBSJ,2015-07-31 22:00,ZBSJ 312200Z 33002MPS 1600 -RA BR OVC040 23/23 Q1007 NOSIG
ZBSJ,2015-07-31 23:00,ZBSJ 312300Z 34001MPS 1600 -DZ BR OVC040 23/23 Q1007 BECMG 3000
ZBSJ,2015-08-01 00:00,ZBSJ 010000Z 01001MPS 1600 BR OVC040 23/23 Q1007 NOSIG
ZBSJ,2015-08-01 01:00,ZBSJ 010100Z 35001MPS 1600 BR OVC040 24/23 Q1008 NOSIG
ZBSJ,2015-08-01 02:00,ZBSJ 010200Z 01001MPS 1500 R33/1400N BR OVC040 24/23 Q1008 NOSIG
ZBSJ,2015-08-01 03:00,ZBSJ 010300Z 33001MPS 1500 R33/1400N BR OVC046 25/24 Q1008 NOSIG
ZBSJ,2015-08-01 04:00,ZBSJ 010400Z 05001MPS 1500 BR OVC046 26/23 Q1007 NOSIG
ZBSJ,2015-08-01 05:00,ZBSJ 010500Z 04002MPS 1800 BR OVC046 26/24 Q1007 NOSIG
ZBSJ,2015-08-01 06:00,ZBSJ 010600Z 02003MPS 350V050 2000 BR OVC046 27/24 Q1007 NOSIG
ZBSJ,2015-08-01 07:00,ZBSJ 010700Z 07002MPS 1800 BR OVC046 26/24 Q1006 NOSIG
ZBSJ,2015-08-01 08:00,ZBSJ 010800Z 05002MPS 1500 BR OVC046 26/24 Q1005 NOSIG
ZBSJ,2015-08-01 09:00,ZBSJ 010900Z 05002MPS 350V090 1400 R33/1700U BR OVC046 25/24 Q1004 NOSIG
ZBSJ,2015-08-01 10:00,ZBSJ 011000Z 05002MPS 1000 R33/1400U -DZ BR OVC046 24/24 Q1004 NOSIG
ZBSJ,2015-08-01 11:00,ZBSJ 011100Z 36002MPS 330V030 1400 R33/P2000N BR OVC046 24/24 Q1005 NOSIG
ZBSJ,2015-08-01 12:00,ZBSJ 011200Z 04002MPS 350V070 1600 BR OVC046 24/24 Q1005 BECMG 1400
ZBSJ,2015-08-01 13:00,ZBSJ 011300Z 02002MPS 1800 BR OVC046 24/23 Q1006 NOSIG
ZBSJ,2015-08-01 14:00,ZBSJ 011400Z 04001MPS 1800 BR OVC046 24/23 Q1005 NOSIG
ZBSJ,2015-08-01 15:00,ZBSJ 011500Z 35002MPS 1800 -DZ BR SCT020 OVC046 24/23 Q1006 BECMG 1400 BR
ZBSJ,2015-08-01 16:00,ZBSJ 011600Z 25001MPS 1500 -RA BR OVC046 24/23 Q1005 NOSIG
ZBSJ,2015-08-01 17:00,ZBSJ 011700Z 07001MPS 1400 R33/1400U BR OVC046 24/24 Q1004 NOSIG
ZBSJ,2015-08-01 18:00,ZBSJ 011800Z 02001MPS 1300 R33/1700U -RA BR OVC046 23/23 Q1003 NOSIG
ZBSJ,2015-08-01 19:00,ZBSJ 011900Z 33001MPS 1200 R33/1600N BR OVC046 24/24 Q1003 NOSIG
ZBSJ,2015-08-01 20:00,ZBSJ 012000Z 07001MPS 1400 R33/2000U BR OVC046 24/24 Q1003 NOSIG
ZBSJ,2015-08-01 21:00,ZBSJ 012100Z 36001MPS 1400 R33/2000N BR OVC046 24/24 Q1003 NOSIG
ZBSJ,2015-08-01 22:00,ZBSJ 012200Z 26002MPS 1000 R33/1300N BR OVC046 24/24 Q1004 NOSIG
ZBSJ,2015-08-01 23:00,ZBSJ 012300Z 31002MPS 0700 R33/1100N FG OVC046 24/24 Q1004 BECMG 1000 BR
ZBSJ,2015-08-02 00:00,ZBSJ 020000Z 34003MPS 1000 R33/1200N BR OVC046 25/24 Q1004 BECMG 1500
ZBSJ,2015-08-02 01:00,ZBSJ 020100Z 01001MPS 2200 BR BKN046 26/25 Q1004 BECMG 3500
ZBSJ,2015-08-02 02:00,ZBSJ 020200Z 36001MPS 3200 BR BKN046 27/24 Q1003 NOSIG
ZBSJ,2015-08-02 03:00,ZBSJ 020300Z 22001MPS 3500 BR BKN046 29/26 Q1003 NOSIG
ZBSJ,2015-08-02 04:00,ZBSJ 020400Z 27001MPS 3500 BR BKN046 30/25 Q1002 NOSIG
ZBSJ,2015-08-02 05:00,ZBSJ 020500Z 18001MPS 4500 HZ NSC 32/25 Q1002 NOSIG
ZBSJ,2015-08-02 06:00,ZBSJ 020600Z 10002MPS 4500 HZ NSC 32/27 Q1001 NOSIG
ZBSJ,2015-08-02 07:00,ZBSJ 020700Z 09002MPS 050V120 4500 HZ NSC 32/27 Q1001 NOSIG
ZBSJ,2015-08-02 08:00,ZBSJ 020800Z 09002MPS 060V130 3500 HZ NSC 32/27 Q1000 NOSIG
ZBSJ,2015-08-02 09:00,ZBSJ 020900Z 09003MPS 060V130 2700 HZ NSC 31/27 Q1000 NOSIG
ZBSJ,2015-08-02 10:00,ZBSJ 021000Z 09002MPS 2500 BR NSC 30/27 Q1000 NOSIG
ZBSJ,2015-08-02 11:00,ZBSJ 021100Z 07002MPS 2200 BR NSC 29/27 Q1000 NOSIG
ZBSJ,2015-08-02 12:00,ZBSJ 021200Z 09002MPS 2800 BR NSC 28/26 Q1001 NOSIG
ZBSJ,2015-08-02 13:00,ZBSJ 021300Z 07002MPS 2800 BR NSC 27/26 Q1002 NOSIG
ZBSJ,2015-08-02 14:00,ZBSJ 021400Z 06002MPS 2500 BR NSC 26/26 Q1002 NOSIG
ZBSJ,2015-08-02 15:00,ZBSJ 021500Z 04002MPS 2500 BR NSC 26/26 Q1002 NOSIG
ZBSJ,2015-08-02 16:00,ZBSJ 021600Z 04002MPS 2500 BR NSC 26/26 Q1002 NOSIG
ZBSJ,2015-08-02 17:00,ZBSJ 021700Z 03002MPS 2700 TS BR FEW030CB BKN046 26/26 Q1002 NOSIG
ZBSJ,2015-08-02 18:00,ZBSJ 021800Z 32003MPS 280V360 2000 TSRA BR FEW030CB BKN046 26/26 Q1002 NOSIG
ZBSJ,2015-08-02 19:00,ZBSJ 021900Z 10004MPS 050V140 6000 -TSRA FEW030CB BKN046 24/22 Q1002 RESHRA NOSIG
ZBSJ,2015-08-02 20:00,ZBSJ 022000Z 34002MPS 320V020 9999 TS FEW030CB BKN046 23/23 Q1001 NOSIG
ZBSJ,2015-08-02 21:00,ZBSJ 022100Z 27002MPS 5000 BR OVC040 24/24 Q1001 RETS NOSIG
ZBSJ,2015-08-02 22:00,ZBSJ 022200Z 15002MPS 4000 BR OVC040 24/24 Q1002 NOSIG
ZBSJ,2015-08-02 23:00,ZBSJ 022300Z 32002MPS 3000 BR OVC040 25/24 Q1001 NOSIG
ZBSJ,2015-08-03 00:00,ZBSJ 030000Z 29002MPS 3500 BR OVC040 26/24 Q1001 NOSIG
ZBSJ,2015-08-03 01:00,ZBSJ 030100Z 32002MPS 2200 BR OVC040 26/25 Q1002 BECMG AT0220 -TSRA
ZBSJ,2015-08-03 02:00,ZBSJ 030200Z 34002MPS 2000 BR OVC040 26/25 Q1002 BECMG AT0230 -TSRA
ZBSJ,2015-08-03 03:00,ZBSJ 030300Z 02007G12MPS 340V050 5000 -TSRA BR FEW030CB BKN033 22/22 Q1003 BECMG 32004MPS
ZBSJ,2015-08-03 04:00,ZBSJ 030400Z 03002MPS 8000 -RA OVC033 24/22 Q1002 RETS NOSIG
ZBSJ,2015-08-03 05:00,ZBSJ 030500Z 33002MPS 5000 -RA BR OVC033 24/23 Q1002 NOSIG
ZBSJ,2015-08-03 06:00,ZBSJ 030600Z 26002MPS 210V290 3000 -RA BR OVC033 24/24 Q1002 NOSIG
ZBSJ,2015-08-03 07:00,ZBSJ 030700Z 34005MPS 3000 -RA BR SCT013 OVC040 23/22 Q1002 NOSIG
ZBSJ,2015-08-03 08:00,ZBSJ 030800Z 35002MPS 330V030 5000 -RA BR SCT010 OVC040 22/22 Q1003 NOSIG
ZBSJ,2015-08-03 09:00,ZBSJ 030900Z 33004MPS 6000 -RA OVC040 21/21 Q1004 RERA NOSIG
ZBSJ,2015-08-03 10:00,ZBSJ 031000Z 31002MPS 9999 OVC046 22/20 Q1002 NOSIG
ZBSJ,2015-08-03 11:00,ZBSJ 031100Z 32004MPS 9999 BKN046 22/20 Q1002 NOSIG
ZBSJ,2015-08-03 12:00,ZBSJ 031200Z 29006MPS 9999 BKN046 21/19 Q1002 NOSIG
ZBSJ,2015-08-03 13:00,ZBSJ 031300Z 29004MPS 9999 BKN046 22/19 Q1003 NOSIG
ZBSJ,2015-08-03 14:00,ZBSJ 031400Z 28003MPS 9999 BKN046 22/19 Q1003 NOSIG
ZBSJ,2015-08-03 15:00,ZBSJ 031500Z 28004MPS 9999 BKN046 22/19 Q1003 NOSIG
ZBSJ,2015-08-03 16:00,ZBSJ 031600Z 30003MPS 9999 BKN046 21/19 Q1003 NOSIG
ZBSJ,2015-08-03 18:00,ZBSJ 031800Z 29004MPS 9999 SCT046 21/18 Q1002 NOSIG
ZBSJ,2015-08-03 19:00,ZBSJ 031900Z 29004MPS 9999 SCT046 21/18 Q1002 NOSIG
ZBSJ,2015-08-03 20:00,ZBSJ 032000Z 28005MPS 9999 SCT046 22/18 Q1002 NOSIG
ZBSJ,2015-08-03 21:00,ZBSJ 032100Z 28005MPS CAVOK 22/17 Q1002 NOSIG
ZBSJ,2015-08-03 22:00,ZBSJ 032200Z 28003MPS CAVOK 21/17 Q1002 NOSIG
ZBSJ,2015-08-03 23:00,ZBSJ 032300Z 28002MPS CAVOK 23/19 Q1002 NOSIG
ZBSJ,2015-08-04 00:00,ZBSJ 040000Z 24004MPS CAVOK 25/19 Q1003 NOSIG
ZBSJ,2015-08-04 01:00,ZBSJ 040100Z 26002MPS 230V300 CAVOK 27/19 Q1003 NOSIG
ZBSJ,2015-08-04 02:00,ZBSJ 040200Z 21002MPS CAVOK 27/20 Q1003 NOSIG
ZBSJ,2015-08-04 03:00,ZBSJ 040300Z 23002MPS 190V280 CAVOK 28/19 Q1003 NOSIG
ZBSJ,2015-08-04 04:00,ZBSJ 040400Z 21002MPS 150V250 CAVOK 30/21 Q1002 NOSIG
ZBSJ,2015-08-04 05:00,ZBSJ 040500Z 19003MPS 150V230 CAVOK 31/20 Q1002 NOSIG
ZBSJ,2015-08-04 06:00,ZBSJ 040600Z 17004MPS 110V200 CAVOK 32/21 Q1001 NOSIG
ZBSJ,2015-08-04 07:00,ZBSJ 040700Z 17005MPS CAVOK 32/23 Q1001 NOSIG
ZBSJ,2015-08-04 08:00,ZBSJ 040800Z 18005MPS CAVOK 31/22 Q1001 NOSIG
ZBSJ,2015-08-04 09:00,ZBSJ 040900Z 17005MPS CAVOK 31/23 Q1000 NOSIG
ZBSJ,2015-08-04 10:00,ZBSJ 041000Z 17003MPS CAVOK 30/22 Q1001 NOSIG
ZBSJ,2015-08-04 11:00,ZBSJ 041100Z 16003MPS 6000 NSC 26/23 Q1001 NOSIG
ZBSJ,2015-08-04 12:00,ZBSJ 041200Z 15003MPS 6000 NSC 25/23 Q1001 NOSIG
ZBSJ,2015-08-04 13:00,ZBSJ 041300Z 16002MPS 6000 NSC 24/23 Q1002 NOSIG
ZBSJ,2015-08-04 14:00,ZBSJ 041400Z 13002MPS 6000 NSC 25/23 Q1001 NOSIG
ZBSJ,2015-08-04 15:00,ZBSJ 041500Z 13002MPS 5000 BR NSC 24/23 Q1002 NOSIG
ZBSJ,2015-08-04 16:00,ZBSJ 041600Z 14001MPS 4000 BR NSC 23/23 Q1002 NOSIG
ZBSJ,2015-08-04 17:00,ZBSJ 041700Z 14001MPS 4000 BR NSC 23/23 Q1002 NOSIG
ZBSJ,2015-08-04 18:00,ZBSJ 041800Z 13001MPS 3000 BR NSC 23/22 Q1002 NOSIG
ZBSJ,2015-08-04 19:00,ZBSJ 041900Z 00000MPS 2000 BR NSC 22/22 Q1002 NOSIG
ZBSJ,2015-08-04 20:00,ZBSJ 042000Z 01001MPS 1400 R15/1500VP2000D BR NSC 22/22 Q1001 NOSIG
ZBSJ,2015-08-04 21:00,ZBSJ 042100Z 00000MPS 1500 BR NSC 22/22 Q1002 NOSIG
ZBSJ,2015-08-04 22:00,ZBSJ 042200Z 10001MPS 1000 R15/1400D BR NSC 22/22 Q1002 NOSIG
ZBSJ,2015-08-04 23:00,ZBSJ 042300Z 14001MPS 1000 R15/1000N BR NSC 23/23 Q1003 BECMG 1500
ZBSJ,2015-08-05 00:00,ZBSJ 050000Z 25001MPS 0800 R15/0800V1100U FG NSC 24/23 Q1003 BECMG 1700 BR
ZBSJ,2015-08-05 01:00,ZBSJ 050100Z 06001MPS 1200 R15/1400N BR NSC 26/24 Q1003 BECMG TL0230 2500
ZBSJ,2015-08-05 02:00,ZBSJ 050200Z 34001MPS 2800 HZ NSC 28/23 Q1003 BECMG TL0240 3500
ZBSJ,2015-08-05 03:00,ZBSJ 050300Z 09002MPS 3000 HZ NSC 29/24 Q1003 NOSIG
ZBSJ,2015-08-05 04:00,ZBSJ 050400Z 10002MPS 040V140 2300 HZ NSC 29/24 Q1002 BECMG TL0530 3000
ZBSJ,2015-08-05 05:00,ZBSJ 050500Z 12002MPS 030V170 2300 HZ NSC 30/25 Q1002 BECMG TL0630 3000
ZBSJ,2015-08-05 06:00,ZBSJ 050600Z 11002MPS 070V160 3000 HZ NSC 32/25 Q1002 BECMG 2500 HZ
ZBSJ,2015-08-05 07:00,ZBSJ 050700Z 15004MPS 2200 HZ NSC 32/25 Q1001 NOSIG
ZBSJ,2015-08-05 08:00,ZBSJ 050800Z 14003MPS 2500 HZ NSC 32/25 Q1001 NOSIG
ZBSJ,2015-08-05 09:00,ZBSJ 050900Z 12003MPS 3000 HZ NSC 31/25 Q1001 NOSIG
ZBSJ,2015-08-05 10:00,ZBSJ 051000Z 12002MPS 3000 HZ NSC 31/24 Q1001 NOSIG
ZBSJ,2015-08-05 11:00,ZBSJ 051100Z 11002MPS 3000 HZ NSC 28/25 Q1002 NOSIG
ZBSJ,2015-08-05 12:00,ZBSJ 051200Z 14004MPS 3500 HZ NSC 27/25 Q1002 NOSIG
ZBSJ,2015-08-05 13:00,ZBSJ 051300Z 16003MPS 3000 BR NSC 26/25 Q1003 BECMG TL1400 2000 HZ
ZBSJ,2015-08-05 14:00,ZBSJ 051400Z 13003MPS 090V150 3000 BR NSC 26/23 Q1003 NOSIG
ZBSJ,2015-08-05 15:00,ZBSJ 051500Z 14002MPS 5000 BR NSC 25/23 Q1003 NOSIG
ZBSJ,2015-08-05 16:00,ZBSJ 051600Z 08002MPS 5000 BR NSC 24/23 Q1004 NOSIG
ZBSJ,2015-08-05 17:00,ZBSJ 051700Z 13002MPS 4000 BR NSC 23/22 Q1004 NOSIG
ZBSJ,2015-08-05 18:00,ZBSJ 051800Z 13002MPS 4000 BR NSC 23/22 Q1004 NOSIG
ZBSJ,2015-08-05 19:00,ZBSJ 051900Z 19002MPS 4500 BR NSC 22/21 Q1004 NOSIG
ZBSJ,2015-08-05 20:00,ZBSJ 052000Z 21001MPS 4000 BR NSC 22/21 Q1004 NOSIG
ZBSJ,2015-08-05 21:00,ZBSJ 052100Z 00000MPS 3000 BR NSC 21/20 Q1005 NOSIG
ZBSJ,2015-08-05 22:00,ZBSJ 052200Z 24002MPS 3000 BR NSC 21/21 Q1005 NOSIG
ZBSJ,2015-08-05 23:00,ZBSJ 052300Z 30002MPS 1800 R15/1300N BR NSC 23/23 Q1005 BECMG TL0030 3000
ZBSJ,2015-08-06 00:00,ZBSJ 060000Z 06001MPS 2000 BR NSC 24/22 Q1006 BECMG TL0130 3000
ZBSJ,2015-08-06 01:00,ZBSJ 060100Z 04002MPS 1800 BR NSC 25/22 Q1007 NOSIG
ZBSJ,2015-08-06 02:00,ZBSJ 060200Z 04001MPS 1800 BR NSC 26/22 Q1007 BECMG 3000
ZBSJ,2015-08-06 03:00,ZBSJ 060300Z 07002MPS 030V120 2000 BR NSC 27/23 Q1007 BECMG 3100
ZBSJ,2015-08-06 04:00,ZBSJ 060400Z 09002MPS 360V150 1600 R15/1300N BR NSC 28/24 Q1007 BECMG 3100
ZBSJ,2015-08-06 05:00,ZBSJ 060500Z 12001MPS 1700 HZ NSC 30/23 Q1007 BECMG 3100
ZBSJ,2015-08-06 06:00,ZBSJ 060600Z 14002MPS 070V190 2200 HZ NSC 30/23 Q1006 BECMG 3100
ZBSJ,2015-08-06 07:00,ZBSJ 060700Z 14002MPS 100V170 3000 HZ NSC 31/22 Q1006 NOSIG
ZBSJ,2015-08-06 08:00,ZBSJ 060800Z 12003MPS 5000 HZ NSC 31/22 Q1006 NOSIG
ZBSJ,2015-08-06 09:00,ZBSJ 060900Z 15002MPS 8000 FEW033 31/22 Q1006 NOSIG
ZBSJ,2015-08-06 10:00,ZBSJ 061000Z 12001MPS 8000 NSC 30/24 Q1006 NOSIG
ZBSJ,2015-08-06 11:00,ZBSJ 061100Z 16002MPS 7000 NSC 27/24 Q1006 NOSIG
ZBSJ,2015-08-06 12:00,ZBSJ 061200Z 13001MPS 7000 NSC 26/23 Q1007 NOSIG
ZBSJ,2015-08-06 13:00,ZBSJ 061300Z 10002MPS 6000 NSC 26/24 Q1008 NOSIG
ZBSJ,2015-08-06 14:00,ZBSJ 061400Z 14001MPS 5000 BR NSC 25/24 Q1009 NOSIG
ZBSJ,2015-08-06 15:00,ZBSJ 061500Z 00000MPS 4000 BR NSC 24/23 Q1009 NOSIG
ZBSJ,2015-08-06 16:00,ZBSJ 061600Z 07001MPS 4000 BR NSC 24/23 Q1010 NOSIG
ZBSJ,2015-08-06 17:00,ZBSJ 061700Z 11001MPS 3500 BR NSC 24/23 Q1010 NOSIG
ZBSJ,2015-08-06 18:00,ZBSJ 061800Z 17001MPS 3500 BR NSC 23/23 Q1010 NOSIG
ZBSJ,2015-08-06 19:00,ZBSJ 061900Z 19001MPS 3000 BR NSC 23/23 Q1010 NOSIG
ZBSJ,2015-08-06 20:00,ZBSJ 062000Z 20001MPS 2800 BR NSC 23/22 Q1010 NOSIG
ZBSJ,2015-08-06 21:00,ZBSJ 062100Z 19001MPS 2500 BR NSC 23/22 Q1011 NOSIG
ZBSJ,2015-08-06 22:00,ZBSJ 062200Z 33002MPS 2700 BR NSC 23/22 Q1011 NOSIG
ZBSJ,2015-08-06 23:00,ZBSJ 062300Z 33001MPS 2700 BR NSC 24/22 Q1011 NOSIG
ZBSJ,2015-08-07 00:00,ZBSJ 070000Z 33001MPS 2800 BR NSC 26/23 Q1012 BECMG 3000
ZBSJ,2015-08-07 01:00,ZBSJ 070100Z 03001MPS 2500 BR NSC 28/24 Q1012 BECMG 3000
ZBSJ,2015-08-07 02:00,ZBSJ 070200Z 12001MPS 2500 BR NSC 29/25 Q1012 BECMG 3000
ZBSJ,2015-08-07 03:00,ZBSJ 070300Z 17001MPS 3000 HZ NSC 30/24 Q1012 NOSIG
ZBSJ,2015-08-07 04:00,ZBSJ 070400Z 11002MPS 3500 HZ FEW046 31/23 Q1012 NOSIG
ZBSJ,2015-08-07 05:00,ZBSJ 070500Z 15002MPS 3500 HZ FEW046 31/24 Q1012 NOSIG
ZBSJ,2015-08-07 06:00,ZBSJ 070600Z 14002MPS 3500 HZ NSC 31/24 Q1011 NOSIG
ZBSJ,2015-08-07 07:00,ZBSJ 070700Z 16003MPS 120V190 3000 HZ NSC 31/23 Q1011 NOSIG
ZBSJ,2015-08-07 08:00,ZBSJ 070800Z 18003MPS 3500 HZ NSC 31/23 Q1011 BECMG 2500 HZ
ZBSJ,2015-08-07 09:00,ZBSJ 070900Z 14002MPS 3500 HZ NSC 31/24 Q1010 BECMG 2500 HZ
ZBSJ,2015-08-07 10:00,ZBSJ 071000Z 15002MPS 3200 HZ NSC 30/25 Q1010 BECMG 2500 HZ
ZBSJ,2015-08-07 11:00,ZBSJ 071100Z 10002MPS 2700 HZ NSC 28/25 Q1011 NOSIG
ZBSJ,2015-08-07 12:00,ZBSJ 071200Z 07002MPS 5000 BR NSC 27/23 Q1012 BECMG AT1220 -TSRA
ZBSJ,2015-08-07 13:00,ZBSJ 071300Z 10002MPS CAVOK 25/21 Q1013 NOSIG
ZBSJ,2015-08-07 14:00,ZBSJ 071400Z 24002MPS CAVOK 25/21 Q1013 NOSIG
ZBSJ,2015-08-07 15:00,ZBSJ 071500Z 01002MPS CAVOK 24/21 Q1014 NOSIG
ZBSJ,2015-08-07 16:00,ZBSJ 071600Z 03002MPS CAVOK 23/21 Q1014 NOSIG
ZBSJ,2015-08-07 17:00,ZBSJ 071700Z 32002MPS CAVOK 22/20 Q1014 NOSIG
ZBSJ,2015-08-07 18:00,ZBSJ 071800Z 26002MPS CAVOK 23/21 Q1014 NOSIG
ZBSJ,2015-08-07 19:00,ZBSJ 071900Z 31002MPS CAVOK 22/20 Q1014 NOSIG
ZBSJ,2015-08-07 20:00,ZBSJ 072000Z 35002MPS 8000 NSC 22/20 Q1013 NOSIG
ZBSJ,2015-08-07 21:00,ZBSJ 072100Z 35001MPS 6000 NSC 21/20 Q1013 NOSIG
ZBSJ,2015-08-07 22:00,ZBSJ 072200Z 32002MPS 6000 NSC 22/20 Q1013 NOSIG
ZBSJ,2015-08-07 23:00,ZBSJ 072300Z 33001MPS 6000 NSC 24/22 Q1013 NOSIG
ZBSJ,2015-08-08 00:00,ZBSJ 080000Z 11001MPS 6000 NSC 25/21 Q1014 NOSIG
ZBSJ,2015-08-08 01:00,ZBSJ 080100Z 09002MPS 8000 NSC 25/20 Q1014 NOSIG
ZBSJ,2015-08-08 02:00,ZBSJ 080200Z 09001MPS 8000 NSC 27/22 Q1014 NOSIG
ZBSJ,2015-08-08 03:00,ZBSJ 080300Z 05002MPS 5000 HZ NSC 27/23 Q1014 NOSIG
ZBSJ,2015-08-08 04:00,ZBSJ 080400Z 05002MPS 4500 HZ NSC 28/24 Q1014 NOSIG
ZBSJ,2015-08-08 05:00,ZBSJ 080500Z 10001MPS 3500 HZ NSC 30/25 Q1013 NOSIG
ZBSJ,2015-08-08 06:00,ZBSJ 080600Z 13002MPS 4000 HZ NSC 30/23 Q1012 NOSIG
ZBSJ,2015-08-08 07:00,ZBSJ 080700Z 12001MPS 3500 HZ NSC 30/23 Q1012 BECMG 2700 HZ
ZBSJ,2015-08-08 08:00,ZBSJ 080800Z 10001MPS 3000 HZ NSC 30/24 Q1011 BECMG TL0830 2700 HZ
ZBSJ,2015-08-08 09:00,ZBSJ 080900Z 03002MPS 2500 HZ NSC 29/24 Q1011 BECMG TL1020 3500
ZBSJ,2015-08-08 10:00,ZBSJ 081000Z 06001MPS 2500 HZ NSC 29/24 Q1011 NOSIG
ZBSJ,2015-08-08 11:00,ZBSJ 081100Z 08001MPS 2500 BR NSC 28/25 Q1011 NOSIG
ZBSJ,2015-08-08 12:00,ZBSJ 081200Z 11001MPS 3500 BR NSC 26/24 Q1012 NOSIG
ZBSJ,2015-08-08 13:00,ZBSJ 081300Z 13001MPS 3500 BR NSC 25/24 Q1013 NOSIG
ZBSJ,2015-08-08 14:00,ZBSJ 081400Z 17002MPS 3000 BR NSC 25/24 Q1012 NOSIG
ZBSJ,2015-08-08 15:00,ZBSJ 081500Z 20001MPS 3000 BR NSC 24/23 Q1012 NOSIG
ZBSJ,2015-08-08 16:00,ZBSJ 081600Z 05001MPS 2500 BR NSC 24/23 Q1012 NOSIG
ZBSJ,2015-08-08 17:00,ZBSJ 081700Z 00000MPS 2000 BR NSC 24/23 Q1012 NOSIG
ZBSJ,2015-08-08 18:00,ZBSJ 081800Z 34001MPS 1800 BR NSC 23/23 Q1011 NOSIG
ZBSJ,2015-08-08 19:00,ZBSJ 081900Z 33001MPS 1400 R33/1500D BR NSC 23/23 Q1011 NOSIG
ZBSJ,2015-08-08 20:00,ZBSJ 082000Z 32001MPS 1600 BR NSC 23/23 Q1011 NOSIG
ZBSJ,2015-08-08 21:00,ZBSJ 082100Z 36001MPS 1600 BR NSC 23/22 Q1011 NOSIG
ZBSJ,2015-08-08 22:00,ZBSJ 082200Z 21001MPS 1000 R33/1100N BR NSC 23/23 Q1011 NOSIG
ZBSJ,2015-08-08 23:00,ZBSJ 082300Z 25001MPS 1200 R33/1000N BR NSC 24/24 Q1011 BECMG TL0020 1600
ZBSJ,2015-08-09 00:00,ZBSJ 090000Z 28001MPS 1600 R33/1200N BR NSC 26/24 Q1011 BECMG TL0120 3500
ZBSJ,2015-08-09 01:00,ZBSJ 090100Z 32001MPS 2000 BR NSC 28/24 Q1012 BECMG TL0230 3000
ZBSJ,2015-08-09 02:00,ZBSJ 090200Z 33001MPS 2500 HZ NSC 30/24 Q1012 BECMG TL0330 3000
ZBSJ,2015-08-09 03:00,ZBSJ 090300Z 21001MPS 2700 HZ NSC 31/24 Q1012 BECMG TL0330 3000
ZBSJ,2015-08-09 04:00,ZBSJ 090400Z 17002MPS 3000 HZ NSC 31/25 Q1012 BECMG 2500
ZBSJ,2015-08-09 05:00,ZBSJ 090500Z 20002MPS 2700 HZ NSC 31/24 Q1011 NOSIG
ZBSJ,2015-08-09 06:00,ZBSJ 090600Z 17002MPS 2700 HZ NSC 32/24 Q1011 BECMG TL0730 3000
ZBSJ,2015-08-09 07:00,ZBSJ 090700Z 13002MPS 100V170 2300 HZ NSC 32/24 Q1010 NOSIG
ZBSJ,2015-08-09 08:00,ZBSJ 090800Z 13001MPS 2500 HZ NSC 32/24 Q1009 BECMG TL0730 3000
ZBSJ,2015-08-09 09:00,ZBSJ 090900Z 14002MPS 2700 HZ NSC 32/24 Q1009 BECMG 3000
ZBSJ,2015-08-09 10:00,ZBSJ 091000Z 14002MPS 2700 HZ NSC 31/25 Q1009 BECMG 3000
ZBSJ,2015-08-09 11:00,ZBSJ 091100Z 14002MPS 2300 HZ NSC 29/24 Q1009 NOSIG
ZBSJ,2015-08-09 12:00,ZBSJ 091200Z 16001MPS 2800 HZ NSC 27/24 Q1010 BECMG TL1230 3000
ZBSJ,2015-08-09 13:00,ZBSJ 091300Z 12001MPS 4000 BR NSC 26/23 Q1010 NOSIG
ZBSJ,2015-08-09 14:00,ZBSJ 091400Z 16001MPS 3500 BR NSC 24/23 Q1010 NOSIG
ZBSJ,2015-08-09 15:00,ZBSJ 091500Z 16001MPS 2500 BR NSC 24/23 Q1010 NOSIG
ZBSJ,2015-08-09 16:00,ZBSJ 091600Z 16001MPS 2700 BR NSC 24/23 Q1011 NOSIG
ZBSJ,2015-08-09 17:00,ZBSJ 091700Z 23001MPS 2700 BR NSC 23/23 Q1010 NOSIG
ZBSJ,2015-08-09 18:00,ZBSJ 091800Z 30001MPS 2200 BR NSC 23/22 Q1010 NOSIG
ZBSJ,2015-08-09 19:00,ZBSJ 091900Z 34001MPS 2200 BR NSC 23/22 Q1010 NOSIG
ZBSJ,2015-08-09 20:00,ZBSJ 092000Z 18001MPS 1800 BR NSC 22/22 Q1010 NOSIG
ZBSJ,2015-08-09 21:00,ZBSJ 092100Z 26001MPS 1800 BR NSC 23/22 Q1010 NOSIG
ZBSJ,2015-08-09 22:00,ZBSJ 092200Z 30002MPS 1400 R15/1200U BR NSC 23/23 Q1010 NOSIG
ZBSJ,2015-08-09 23:00,ZBSJ 092300Z 29002MPS 1200 R33/1400U BR NSC 25/23 Q1011 BECMG 1600
ZBSJ,2015-08-10 00:00,ZBSJ 100000Z 29002MPS 1600 BR NSC 27/23 Q1011 BECMG 3500
ZBSJ,2015-08-10 01:00,ZBSJ 100100Z 29003MPS 2700 HZ NSC 28/23 Q1011 BECMG 3500
ZBSJ,2015-08-10 02:00,ZBSJ 100200Z 35001MPS 2700 HZ NSC 30/23 Q1011 BECMG 3500
ZBSJ,2015-08-10 03:00,ZBSJ 100300Z 02001MPS 2500 HZ NSC 30/24 Q1011 BECMG 3000
ZBSJ,2015-08-10 04:00,ZBSJ 100400Z 10001MPS 3000 HZ NSC 32/24 Q1010 NOSIG
ZBSJ,2015-08-10 05:00,ZBSJ 100500Z 13001MPS 3000 HZ NSC 33/22 Q1010 NOSIG
ZBSJ,2015-08-10 06:00,ZBSJ 100600Z 17002MPS 7000 NSC 33/22 Q1009 NOSIG
ZBSJ,2015-08-10 07:00,ZBSJ 100700Z 12001MPS 6000 NSC 33/24 Q1008 NOSIG
ZBSJ,2015-08-10 08:00,ZBSJ 100800Z 14002MPS 110V170 CAVOK 33/22 Q1008 NOSIG
ZBSJ,2015-08-10 09:00,ZBSJ 100900Z 12001MPS 8000 NSC 33/23 Q1007 NOSIG
ZBSJ,2015-08-10 10:00,ZBSJ 101000Z 08002MPS 7000 NSC 31/25 Q1008 NOSIG
ZBSJ,2015-08-10 11:00,ZBSJ 101100Z 09002MPS 5000 HZ NSC 29/24 Q1008 NOSIG
ZBSJ,2015-08-10 12:00,ZBSJ 101200Z 08001MPS 5000 HZ NSC 28/25 Q1008 NOSIG
ZBSJ,2015-08-10 13:00,ZBSJ 101300Z 09002MPS 3500 BR NSC 27/25 Q1009 NOSIG
ZBSJ,2015-08-10 14:00,ZBSJ 101400Z 08001MPS 3500 BR NSC 26/24 Q1009 NOSIG
ZBSJ,2015-08-10 15:00,ZBSJ 101500Z 08001MPS 3000 BR NSC 25/24 Q1009 NOSIG
ZBSJ,2015-08-10 16:00,ZBSJ 101600Z 00000MPS 3000 BR NSC 25/24 Q1009 NOSIG
ZBSJ,2015-08-10 17:00,ZBSJ 101700Z 00000MPS 2500 BR NSC 24/23 Q1009 NOSIG
ZBSJ,2015-08-10 18:00,ZBSJ 101800Z 31002MPS 2500 BR NSC 25/24 Q1009 NOSIG
ZBSJ,2015-08-10 19:00,ZBSJ 101900Z 30001MPS 3000 BR NSC 25/23 Q1009 NOSIG
ZBSJ,2015-08-10 20:00,ZBSJ 102000Z 30002MPS 2700 BR NSC 24/23 Q1009 NOSIG
ZBSJ,2015-08-10 21:00,ZBSJ 102100Z 33002MPS 2700 BR NSC 23/22 Q1009 NOSIG
ZBSJ,2015-08-10 22:00,ZBSJ 102200Z 32002MPS 2200 BR NSC 23/22 Q1009 NOSIG
ZBSJ,2015-08-10 23:00,ZBSJ 102300Z 31002MPS 2500 BR NSC 26/23 Q1010 NOSIG
ZBSJ,2015-08-11 00:00,ZBSJ 110000Z 29002MPS 2500 BR NSC 27/23 Q1010 BECMG 3000
ZBSJ,2015-08-11 01:00,ZBSJ 110100Z 34002MPS 2700 BR NSC 28/23 Q1010 BECMG TL0130 3000
ZBSJ,2015-08-11 02:00,ZBSJ 110200Z 32001MPS 3000 HZ NSC 30/24 Q1010 NOSIG
ZBSJ,2015-08-11 03:00,ZBSJ 110300Z 33002MPS 3000 HZ NSC 31/24 Q1010 NOSIG
ZBSJ,2015-08-11 04:00,ZBSJ 110400Z 29002MPS 3500 HZ NSC 32/24 Q1009 NOSIG
ZBSJ,2015-08-11 05:00,ZBSJ 110500Z 10001MPS 4000 HZ NSC 33/23 Q1009 NOSIG
ZBSJ,2015-08-11 06:00,ZBSJ 110600Z 18002MPS 6000 NSC 33/23 Q1008 NOSIG
ZBSJ,2015-08-11 07:00,ZBSJ 110700Z 13001MPS 6000 NSC 33/23 Q1008 NOSIG
ZBSJ,2015-08-11 08:00,ZBSJ 110800Z 13001MPS 8000 NSC 33/22 Q1007 NOSIG
ZBSJ,2015-08-11 09:00,ZBSJ 110900Z 15001MPS 5000 HZ NSC 32/23 Q1007 NOSIG
ZBSJ,2015-08-11 10:00,ZBSJ 111000Z 00000MPS 4500 HZ NSC 31/23 Q1007 NOSIG
ZBSJ,2015-08-11 11:00,ZBSJ 111100Z 10001MPS 3500 BR NSC 29/25 Q1007 NOSIG
ZBSJ,2015-08-11 12:00,ZBSJ 111200Z 12002MPS 4500 BR NSC 27/24 Q1007 NOSIG
ZBSJ,2015-08-11 13:00,ZBSJ 111300Z 16001MPS 4500 BR NSC 27/24 Q1008 NOSIG
ZBSJ,2015-08-11 14:00,ZBSJ 111400Z 14002MPS 4000 BR NSC 27/23 Q1008 NOSIG
ZBSJ,2015-08-11 15:00,ZBSJ 111500Z 17002MPS 3500 BR NSC 25/23 Q1008 NOSIG
ZBSJ,2015-08-11 16:00,ZBSJ 111600Z 17001MPS 3500 BR NSC 25/24 Q1008 NOSIG
ZBSJ,2015-08-11 17:00,ZBSJ 111700Z 26001MPS 3500 BR NSC 24/23 Q1008 NOSIG
ZBSJ,2015-08-11 18:00,ZBSJ 111800Z 24001MPS 3000 BR NSC 25/23 Q1008 NOSIG
ZBSJ,2015-08-11 19:00,ZBSJ 111900Z 34001MPS 2700 BR NSC 24/23 Q1008 NOSIG
ZBSJ,2015-08-11 20:00,ZBSJ 112000Z 33001MPS 2500 BR NSC 25/23 Q1008 NOSIG
ZBSJ,2015-08-11 21:00,ZBSJ 112100Z 31002MPS 2500 BR NSC 24/23 Q1008 NOSIG
ZBSJ,2015-08-11 22:00,ZBSJ 112200Z 28002MPS 1600 BR NSC 25/23 Q1008 NOSIG
ZBSJ,2015-08-11 23:00,ZBSJ 112300Z 29002MPS 2200 BR NSC 26/23 Q1008 BECMG 3000
ZBSJ,2015-08-12 00:00,ZBSJ 120000Z 24002MPS 2500 BR NSC 27/23 Q1009 BECMG 3000
ZBSJ,2015-08-12 01:00,ZBSJ 120100Z 26002MPS 190V320 3500 HZ NSC 28/22 Q1009 NOSIG
ZBSJ,2015-08-12 02:00,ZBSJ 120200Z 26002MPS 3500 HZ NSC 29/23 Q1009 NOSIG
ZBSJ,2015-08-12 03:00,ZBSJ 120300Z 20002MPS 160V240 3000 HZ NSC 31/24 Q1008 BECMG 2500 HZ
ZBSJ,2015-08-12 04:00,ZBSJ 120400Z 19004MPS 150V240 5000 HZ NSC 32/23 Q1008 NOSIG
ZBSJ,2015-08-12 05:00,ZBSJ 120500Z 18004MPS 3500 HZ NSC 33/24 Q1007 NOSIG
ZBSJ,2015-08-12 06:00,ZBSJ 120600Z 18004MPS 150V230 4500 HZ NSC 33/23 Q1007 NOSIG
ZBSJ,2015-08-12 07:00,ZBSJ 120700Z 16003MPS 130V200 5000 HZ NSC 33/23 Q1006 NOSIG
ZBSJ,2015-08-12 08:00,ZBSJ 120800Z 17004MPS 7000 NSC 33/21 Q1006 NOSIG
ZBSJ,2015-08-12 09:00,ZBSJ 120900Z 16003MPS 5000 HZ NSC 32/23 Q1006 NOSIG
ZBSJ,2015-08-12 10:00,ZBSJ 121000Z 16003MPS 4000 HZ NSC 31/24 Q1005 NOSIG
ZBSJ,2015-08-12 11:00,ZBSJ 121100Z 17003MPS 6000 NSC 28/22 Q1006 NOSIG
ZBSJ,2015-08-12 12:00,ZBSJ 121200Z 17002MPS 7000 NSC 26/22 Q1006 NOSIG
ZBSJ,2015-08-12 13:00,ZBSJ 121300Z 18003MPS 7000 NSC 25/21 Q1006 NOSIG
ZBSJ,2015-08-12 14:00,ZBSJ 121400Z 20002MPS 6000 NSC 26/21 Q1006 NOSIG
ZBSJ,2015-08-12 15:00,ZBSJ 121500Z 19002MPS 5000 BR NSC 25/21 Q1006 NOSIG
ZBSJ,2015-08-12 16:00,ZBSJ 121600Z 17002MPS 4000 BR NSC 24/21 Q1006 NOSIG
ZBSJ,2015-08-12 17:00,ZBSJ 121700Z 23001MPS 3500 BR NSC 23/21 Q1006 NOSIG
ZBSJ,2015-08-12 18:00,ZBSJ 121800Z 24002MPS 3500 BR NSC 23/21 Q1006 NOSIG
ZBSJ,2015-08-12 19:00,ZBSJ 121900Z 20001MPS 4000 BR NSC 22/21 Q1005 NOSIG
ZBSJ,2015-08-12 20:00,ZBSJ 122000Z 21001MPS 5000 BR NSC 23/21 Q1005 NOSIG
ZBSJ,2015-08-12 21:00,ZBSJ 122100Z 23001MPS 5000 BR NSC 23/20 Q1005 NOSIG
ZBSJ,2015-08-12 22:00,ZBSJ 122200Z 19001MPS 3000 BR NSC 21/20 Q1006 NOSIG
ZBSJ,2015-08-12 23:00,ZBSJ 122300Z 29001MPS 5000 BR NSC 25/21 Q1006 NOSIG
ZBSJ,2015-08-13 00:00,ZBSJ 130000Z 01001MPS 5000 HZ NSC 26/20 Q1006 NOSIG
ZBSJ,2015-08-13 01:00,ZBSJ 130100Z 00000MPS 5000 HZ NSC 28/20 Q1006 NOSIG
ZBSJ,2015-08-13 02:00,ZBSJ 130200Z 32001MPS 5000 HZ NSC 30/20 Q1006 NOSIG
ZBSJ,2015-08-13 03:00,ZBSJ 130300Z 18001MPS 4500 HZ NSC 31/22 Q1005 NOSIG
ZBSJ,2015-08-13 04:00,ZBSJ 130400Z 13002MPS 100V160 2700 HZ NSC 32/23 Q1004 NOSIG
ZBSJ,2015-08-13 05:00,ZBSJ 130500Z 11002MPS 2800 HZ NSC 33/24 Q1004 NOSIG
ZBSJ,2015-08-13 06:00,ZBSJ 130600Z 15002MPS 120V180 6000 NSC 34/23 Q1003 NOSIG
ZBSJ,2015-08-13 07:00,ZBSJ 130700Z 15003MPS 6000 NSC 34/21 Q1003 NOSIG
ZBSJ,2015-08-13 08:00,ZBSJ 130800Z 15003MPS CAVOK 34/21 Q1003 NOSIG
ZBSJ,2015-08-13 09:00,ZBSJ 130900Z 14003MPS CAVOK 33/22 Q1002 NOSIG
ZBSJ,2015-08-13 10:00,ZBSJ 131000Z 14003MPS 8000 NSC 31/23 Q1002 NOSIG
ZBSJ,2015-08-13 11:00,ZBSJ 131100Z 14003MPS 7000 NSC 28/22 Q1002 NOSIG
ZBSJ,2015-08-13 12:00,ZBSJ 131200Z 16002MPS 5000 BR NSC 26/23 Q1002 NOSIG
ZBSJ,2015-08-13 13:00,ZBSJ 131300Z 17002MPS 4000 BR NSC 26/22 Q1003 NOSIG
ZBSJ,2015-08-13 14:00,ZBSJ 131400Z 17002MPS 4000 BR NSC 26/23 Q1003 NOSIG
ZBSJ,2015-08-13 15:00,ZBSJ 131500Z 17001MPS 3700 BR NSC 24/22 Q1003 NOSIG
ZBSJ,2015-08-13 16:00,ZBSJ 131600Z 15001MPS 3700 BR NSC 23/22 Q1003 NOSIG
ZBSJ,2015-08-13 17:00,ZBSJ 131700Z 00000MPS 3700 BR NSC 23/22 Q1003 NOSIG
ZBSJ,2015-08-13 18:00,ZBSJ 131800Z 07001MPS 3700 BR NSC 23/22 Q1003 NOSIG
ZBSJ,2015-08-13 19:00,ZBSJ 131900Z 12002MPS 3700 BR NSC 23/22 Q1003 NOSIG
ZBSJ,2015-08-13 20:00,ZBSJ 132000Z 24001MPS 3700 BR NSC 23/22 Q1003 NOSIG
ZBSJ,2015-08-13 21:00,ZBSJ 132100Z 24001MPS 3000 BR NSC 23/22 Q1003 NOSIG
ZBSJ,2015-08-13 22:00,ZBSJ 132200Z 26002MPS 2500 BR NSC 24/22 Q1003 NOSIG
ZBSJ,2015-08-13 23:00,ZBSJ 132300Z 30003MPS 3500 BR NSC 26/21 Q1003 NOSIG
ZBSJ,2015-08-14 00:00,ZBSJ 140000Z 28005MPS 8000 NSC 28/20 Q1004 NOSIG
ZBSJ,2015-08-14 01:00,ZBSJ 140100Z 31003MPS 270V330 CAVOK 28/20 Q1004 NOSIG
ZBSJ,2015-08-14 02:00,ZBSJ 140200Z 33002MPS CAVOK 29/21 Q1004 NOSIG
ZBSJ,2015-08-14 03:00,ZBSJ 140300Z 29005MPS CAVOK 29/21 Q1004 NOSIG
ZBSJ,2015-08-14 04:00,ZBSJ 140400Z 28004MPS CAVOK 29/21 Q1004 NOSIG
ZBSJ,2015-08-14 05:00,ZBSJ 140500Z 28004MPS CAVOK 29/22 Q1004 NOSIG
ZBSJ,2015-08-14 06:00,ZBSJ 140600Z 28003MPS 240V310 CAVOK 30/21 Q1004 NOSIG
ZBSJ,2015-08-14 07:00,ZBSJ 140700Z 28003MPS 250V310 CAVOK 30/22 Q1003 NOSIG
ZBSJ,2015-08-14 08:00,ZBSJ 140800Z 06001MPS CAVOK 32/21 Q1003 NOSIG
ZBSJ,2015-08-14 09:00,ZBSJ 140900Z 05001MPS CAVOK 32/20 Q1002 NOSIG
ZBSJ,2015-08-14 10:00,ZBSJ 141000Z 14001MPS CAVOK 31/23 Q1002 NOSIG
ZBSJ,2015-08-14 11:00,ZBSJ 141100Z 13001MPS CAVOK 28/23 Q1003 NOSIG
ZBSJ,2015-08-14 12:00,ZBSJ 141200Z 09002MPS CAVOK 26/22 Q1004 NOSIG
ZBSJ,2015-08-14 13:00,ZBSJ 141300Z 08002MPS 5000 BR NSC 25/23 Q1005 NOSIG
ZBSJ,2015-08-14 14:00,ZBSJ 141400Z 19001MPS 2700 BR NSC 24/22 Q1005 NOSIG
ZBSJ,2015-08-14 15:00,ZBSJ 141500Z 00000MPS 2300 BR NSC 22/21 Q1005 NOSIG
ZBSJ,2015-08-14 16:00,ZBSJ 141600Z 04001MPS 2000 BR NSC 22/22 Q1005 NOSIG
ZBSJ,2015-08-14 17:00,ZBSJ 141700Z 32002MPS 2000 BR NSC 22/21 Q1005 NOSIG
ZBSJ,2015-08-14 18:00,ZBSJ 141800Z 33002MPS 1800 BR NSC 23/22 Q1005 NOSIG
ZBSJ,2015-08-14 19:00,ZBSJ 141900Z 29003MPS 2000 BR NSC 23/22 Q1005 NOSIG
ZBSJ,2015-08-14 20:00,ZBSJ 142000Z 32002MPS 3500 BR NSC 21/20 Q1005 NOSIG
ZBSJ,2015-08-14 21:00,ZBSJ 142100Z 27002MPS 4000 BR NSC 22/20 Q1005 NOSIG
ZBSJ,2015-08-14 22:00,ZBSJ 142200Z 28001MPS 6000 NSC 21/19 Q1006 NOSIG
ZBSJ,2015-08-14 23:00,ZBSJ 142300Z 33002MPS 6000 NSC 23/20 Q1006 NOSIG
ZBSJ,2015-08-15 00:00,ZBSJ 150000Z 31003MPS 260V330 7000 NSC 25/19 Q1006 NOSIG
ZBSJ,2015-08-15 01:00,ZBSJ 150100Z 30003MPS 7000 NSC 28/21 Q1006 NOSIG
ZBSJ,2015-08-15 02:00,ZBSJ 150200Z 34002MPS 290V010 8000 NSC 30/21 Q1006 NOSIG
ZBSJ,2015-08-15 03:00,ZBSJ 150300Z 03002MPS 8000 NSC 31/20 Q1006 NOSIG
ZBSJ,2015-08-15 04:00,ZBSJ 150400Z 06002MPS CAVOK 32/20 Q1006 NOSIG
ZBSJ,2015-08-15 05:00,ZBSJ 150500Z 05002MPS 330V090 CAVOK 33/20 Q1005 NOSIG
ZBSJ,2015-08-15 06:00,ZBSJ 150600Z 10003MPS 020V140 CAVOK 33/20 Q1005 NOSIG
ZBSJ,2015-08-15 07:00,ZBSJ 150700Z 11002MPS CAVOK 33/20 Q1005 NOSIG
ZBSJ,2015-08-15 08:00,ZBSJ 150800Z 09002MPS CAVOK 33/22 Q1004 NOSIG
ZBSJ,2015-08-15 09:00,ZBSJ 150900Z 12002MPS CAVOK 33/21 Q1004 NOSIG
ZBSJ,2015-08-15 10:00,ZBSJ 151000Z 09002MPS CAVOK 31/22 Q1004 NOSIG
ZBSJ,2015-08-15 11:00,ZBSJ 151100Z 11002MPS 8000 NSC 29/23 Q1004 NOSIG
ZBSJ,2015-08-15 12:00,ZBSJ 151200Z 14001MPS 8000 NSC 26/23 Q1005 NOSIG
ZBSJ,2015-08-15 13:00,ZBSJ 151300Z 14001MPS 6000 NSC 25/22 Q1006 NOSIG
ZBSJ,2015-08-15 14:00,ZBSJ 151400Z 17001MPS 4500 BR NSC 23/22 Q1006 NOSIG
ZBSJ,2015-08-15 15:00,ZBSJ 151500Z 17001MPS 4000 BR NSC 23/22 Q1006 NOSIG
ZBSJ,2015-08-15 16:00,ZBSJ 151600Z 12001MPS 3500 BR NSC 22/21 Q1006 NOSIG
ZBSJ,2015-08-15 17:00,ZBSJ 151700Z 13001MPS 3000 BR NSC 21/21 Q1006 NOSIG
ZBSJ,2015-08-15 18:00,ZBSJ 151800Z 00000MPS 3000 BR NSC 21/20 Q1006 NOSIG
ZBSJ,2015-08-15 19:00,ZBSJ 151900Z 25002MPS 3000 BR NSC 22/21 Q1006 NOSIG
ZBSJ,2015-08-15 20:00,ZBSJ 152000Z 32002MPS 3000 BR NSC 22/21 Q1006 NOSIG
ZBSJ,2015-08-15 21:00,ZBSJ 152100Z 29002MPS 4000 BR NSC 21/19 Q1006 NOSIG
ZBSJ,2015-08-15 22:00,ZBSJ 152200Z 31003MPS 4000 BR NSC 22/19 Q1006 NOSIG
ZBSJ,2015-08-15 23:00,ZBSJ 152300Z 31003MPS 5000 HZ NSC 24/19 Q1006 NOSIG
ZBSJ,2015-08-16 00:00,ZBSJ 160000Z 31004MPS 8000 NSC 27/19 Q1006 NOSIG
ZBSJ,2015-08-16 01:00,ZBSJ 160100Z 30002MPS 8000 NSC 28/20 Q1006 NOSIG
ZBSJ,2015-08-16 02:00,ZBSJ 160200Z 21002MPS 8000 NSC 30/21 Q1007 NOSIG
ZBSJ,2015-08-16 03:00,ZBSJ 160300Z 18002MPS 150V230 8000 NSC 31/22 Q1006 NOSIG
ZBSJ,2015-08-16 04:00,ZBSJ 160400Z 16003MPS 120V190 8000 NSC 33/22 Q1006 NOSIG
ZBSJ,2015-08-16 05:00,ZBSJ 160500Z 17005MPS CAVOK 34/20 Q1006 NOSIG
ZBSJ,2015-08-16 06:00,ZBSJ 160600Z 16004MPS CAVOK 34/20 Q1005 NOSIG
ZBSJ,2015-08-16 07:00,ZBSJ 160700Z 16005MPS CAVOK 34/20 Q1005 NOSIG
ZBSJ,2015-08-16 08:00,ZBSJ 160800Z 16005MPS CAVOK 34/19 Q1004 NOSIG
ZBSJ,2015-08-16 09:00,ZBSJ 160900Z 17004MPS CAVOK 33/19 Q1004 NOSIG
ZBSJ,2015-08-16 10:00,ZBSJ 161000Z 16003MPS CAVOK 30/21 Q1004 NOSIG
ZBSJ,2015-08-16 11:00,ZBSJ 161100Z 16002MPS CAVOK 27/21 Q1005 NOSIG
ZBSJ,2015-08-16 12:00,ZBSJ 161200Z 14002MPS CAVOK 25/21 Q1005 NOSIG
ZBSJ,2015-08-16 13:00,ZBSJ 161300Z 14002MPS CAVOK 25/21 Q1006 NOSIG
ZBSJ,2015-08-16 14:00,ZBSJ 161400Z 14001MPS 8000 NSC 24/21 Q1006 NOSIG
ZBSJ,2015-08-16 15:00,ZBSJ 161500Z 13002MPS 8000 NSC 24/21 Q1006 NOSIG
ZBSJ,2015-08-16 16:00,ZBSJ 161600Z 16002MPS 6000 NSC 24/21 Q1006 NOSIG
ZBSJ,2015-08-16 17:00,ZBSJ 161700Z 18002MPS 6000 NSC 24/21 Q1006 NOSIG
ZBSJ,2015-08-16 18:00,ZBSJ 161800Z 17002MPS 5000 BR NSC 24/21 Q1005 NOSIG
ZBSJ,2015-08-16 19:00,ZBSJ 161900Z 18001MPS 4000 BR NSC 23/21 Q1005 NOSIG
ZBSJ,2015-08-16 20:00,ZBSJ 162000Z 16002MPS 4000 BR NSC 23/22 Q1005 NOSIG
ZBSJ,2015-08-16 21:00,ZBSJ 162100Z 18001MPS 3000 BR NSC 23/22 Q1005 NOSIG
ZBSJ,2015-08-16 22:00,ZBSJ 162200Z 19001MPS 1400 R15/P2000N BR NSC 23/22 Q1005 NOSIG
ZBSJ,2015-08-16 23:00,ZBSJ 162300Z 26001MPS 2000 BR NSC 25/22 Q1006 NOSIG
ZBSJ,2015-08-17 00:00,ZBSJ 170000Z 10001MPS 2700 BR NSC 25/22 Q1006 NOSIG
ZBSJ,2015-08-17 01:00,ZBSJ 170100Z 19002MPS 2500 BR NSC 25/22 Q1006 BECMG 3500
ZBSJ,2015-08-17 02:00,ZBSJ 170200Z 22003MPS 2500 BR NSC 27/22 Q1006 BECMG 3500
ZBSJ,2015-08-17 03:00,ZBSJ 170300Z 15001MPS 3000 BR NSC 27/23 Q1006 NOSIG
ZBSJ,2015-08-17 04:00,ZBSJ 170400Z 02001MPS 3500 HZ NSC 29/22 Q1006 NOSIG
ZBSJ,2015-08-17 05:00,ZBSJ 170500Z 14003MPS 4000 HZ NSC 31/24 Q1006 NOSIG
ZBSJ,2015-08-17 06:00,ZBSJ 170600Z 12002MPS 3000 HZ NSC 31/23 Q1006 NOSIG
ZBSJ,2015-08-17 07:00,ZBSJ 170700Z 13002MPS 080V170 3000 HZ NSC 32/23 Q1005 NOSIG
ZBSJ,2015-08-17 08:00,ZBSJ 170800Z 12002MPS 4000 HZ NSC 32/23 Q1005 NOSIG
ZBSJ,2015-08-17 09:00,ZBSJ 170900Z 15002MPS 4000 HZ NSC 31/24 Q1005 NOSIG
ZBSJ,2015-08-17 10:00,ZBSJ 171000Z 09002MPS 060V130 3000 HZ NSC 30/23 Q1005 NOSIG
ZBSJ,2015-08-17 11:00,ZBSJ 171100Z 14002MPS 3500 HZ NSC 28/24 Q1005 NOSIG
ZBSJ,2015-08-17 12:00,ZBSJ 171200Z 15002MPS 4500 BR NSC 27/23 Q1006 NOSIG
ZBSJ,2015-08-17 13:00,ZBSJ 171300Z 15002MPS 4500 BR NSC 26/23 Q1007 NOSIG
ZBSJ,2015-08-17 14:00,ZBSJ 171400Z 11001MPS 4000 BR NSC 25/23 Q1007 NOSIG
ZBSJ,2015-08-17 15:00,ZBSJ 171500Z 13002MPS 3500 BR NSC 25/23 Q1007 NOSIG
ZBSJ,2015-08-17 16:00,ZBSJ 171600Z 13002MPS 3500 BR NSC 25/23 Q1007 NOSIG
ZBSJ,2015-08-17 17:00,ZBSJ 171700Z 10001MPS 3000 BR NSC 24/23 Q1008 NOSIG
ZBSJ,2015-08-17 18:00,ZBSJ 171800Z 10002MPS 3000 BR NSC 24/23 Q1008 NOSIG
ZBSJ,2015-08-17 19:00,ZBSJ 171900Z 11002MPS 3000 BR NSC 24/23 Q1008 NOSIG
ZBSJ,2015-08-17 20:00,ZBSJ 172000Z 07001MPS 2000 BR NSC 23/23 Q1008 NOSIG
ZBSJ,2015-08-17 21:00,ZBSJ 172100Z 04001MPS 1800 BR NSC 23/22 Q1009 NOSIG
ZBSJ,2015-08-17 22:00,ZBSJ 172200Z 02001MPS 1400 R15/1400N BR NSC 23/22 Q1009 NOSIG
ZBSJ,2015-08-17 23:00,ZBSJ 172300Z 06001MPS 1200 R15/1400U BR NSC 24/23 Q1009 BECMG 2000
ZBSJ,2015-08-18 00:00,ZBSJ 180000Z 06001MPS 1400 R15/1400N BR NSC 25/24 Q1010 BECMG 2000
ZBSJ,2015-08-18 01:00,ZBSJ 180100Z 13001MPS 1400 R15/1400N BR NSC 26/24 Q1010 BECMG 2000
ZBSJ,2015-08-18 02:00,ZBSJ 180200Z 06001MPS 1600 BR NSC 26/24 Q1010 BECMG 3500
ZBSJ,2015-08-18 03:00,ZBSJ 180300Z 07002MPS 360V100 2000 BR NSC 27/24 Q1011 BECMG 3500
ZBSJ,2015-08-18 04:00,ZBSJ 180400Z 08003MPS 1800 BR NSC 28/24 Q1010 BECMG 3500
ZBSJ,2015-08-18 05:00,ZBSJ 180500Z 14002MPS 090V160 1800 BR NSC 28/24 Q1009 NOSIG
ZBSJ,2015-08-18 06:00,ZBSJ 180600Z 05004G09MPS 360V070 4500 BR FEW030CB BKN046 25/21 Q1010 NOSIG
ZBSJ,2015-08-18 07:00,ZBSJ 180700Z 08005MPS 030V130 4500 -TSRA BR FEW030CB BKN046 22/21 Q1010 NOSIG
ZBSJ,2015-08-18 08:00,ZBSJ 180800Z 10005MPS 6000 -TSRA FEW033CB BKN046 22/20 Q1010 NOSIG
ZBSJ,2015-08-18 09:00,ZBSJ 180900Z 08004MPS 2000 TSRA BR FEW030CB BKN046 21/20 Q1011 NOSIG
ZBSJ,2015-08-18 10:00,ZBSJ 181000Z 08004MPS 2000 TSRA BR FEW030CB BKN046 21/20 Q1011 NOSIG
ZBSJ,2015-08-18 11:00,ZBSJ 181100Z 24002MPS 2200 -TSRA BR FEW030CB BKN046 21/21 Q1011 NOSIG
ZBSJ,2015-08-18 12:00,ZBSJ 181200Z 31002MPS 280V340 3500 BR OVC046 21/20 Q1013 NOSIG
ZBSJ,2015-08-18 13:00,ZBSJ 181300Z 32003MPS 3500 BR OVC046 21/20 Q1013 NOSIG
ZBSJ,2015-08-18 14:00,ZBSJ 181400Z 33002MPS 4000 BR OVC046 21/20 Q1013 NOSIG
ZBSJ,2015-08-18 15:00,ZBSJ 181500Z 31003MPS 4500 BR NSC 22/20 Q1012 NOSIG
ZBSJ,2015-08-18 16:00,ZBSJ 181600Z 31004MPS 4000 BR NSC 22/20 Q1012 NOSIG
ZBSJ,2015-08-18 17:00,ZBSJ 181700Z 29002MPS 4000 BR NSC 22/20 Q1012 NOSIG
ZBSJ,2015-08-18 18:00,ZBSJ 181800Z 29002MPS 4000 BR NSC 21/20 Q1011 NOSIG
ZBSJ,2015-08-18 19:00,ZBSJ 181900Z 26002MPS 4000 BR NSC 21/20 Q1011 NOSIG
ZBSJ,2015-08-18 20:00,ZBSJ 182000Z 29003MPS 4000 BR NSC 22/20 Q1012 NOSIG
ZBSJ,2015-08-18 21:00,ZBSJ 182100Z 21001MPS 4000 BR NSC 21/20 Q1011 NOSIG
ZBSJ,2015-08-18 22:00,ZBSJ 182200Z 26002MPS 2300 -TSRA BR FEW033CB BKN046 22/20 Q1011 NOSIG
ZBSJ,2015-08-18 23:00,ZBSJ 182300Z 29004MPS 2000 TS BR FEW033CB BKN046 21/20 Q1012 BECMG 3000
ZBSJ,2015-08-19 00:00,ZBSJ 190000Z 33003MPS 290V360 2700 BR BKN046 20/20 Q1012 RETS BECMG TL0100 3000
ZBSJ,2015-08-19 01:00,ZBSJ 190100Z 32001MPS 5000 -TSRA BR FEW030CB BKN046 21/20 Q1013 BECMG AT0230 NSW
ZBSJ,2015-08-19 02:00,ZBSJ 190200Z 20001MPS 3200 -TSRA BR FEW030CB BKN046 21/20 Q1013 BECMG AT0240 NSW
ZBSJ,2015-08-19 03:00,ZBSJ 190300Z 05001MPS 3000 BR OVC040 22/21 Q1013 RETS NOSIG
ZBSJ,2015-08-19 04:00,ZBSJ 190400Z 15001MPS 3500 BR BKN040 25/22 Q1013 NOSIG
ZBSJ,2015-08-19 05:00,ZBSJ 190500Z 19001MPS 7000 NSC 26/21 Q1012 NOSIG
ZBSJ,2015-08-19 06:00,ZBSJ 190600Z 17002MPS 8000 NSC 27/21 Q1010 NOSIG
ZBSJ,2015-08-19 07:00,ZBSJ 190700Z 18003MPS 150V210 CAVOK 28/21 Q1009 NOSIG
ZBSJ,2015-08-19 08:00,ZBSJ 190800Z 15002MPS CAVOK 28/21 Q1009 NOSIG
ZBSJ,2015-08-19 09:00,ZBSJ 190900Z 15003MPS CAVOK 28/21 Q1009 NOSIG
ZBSJ,2015-08-19 10:00,ZBSJ 191000Z 13002MPS 8000 NSC 27/22 Q1009 NOSIG
ZBSJ,2015-08-19 11:00,ZBSJ 191100Z 13002MPS 7000 NSC 25/22 Q1009 NOSIG
ZBSJ,2015-08-19 12:00,ZBSJ 191200Z 09002MPS 6000 NSC 24/22 Q1010 NOSIG
ZBSJ,2015-08-19 13:00,ZBSJ 191300Z 09002MPS 5000 BR NSC 24/22 Q1011 NOSIG
ZBSJ,2015-08-19 14:00,ZBSJ 191400Z 05001MPS 5000 BR NSC 23/22 Q1011 NOSIG
ZBSJ,2015-08-19 15:00,ZBSJ 191500Z 08002MPS 6000 NSC 24/20 Q1011 NOSIG
ZBSJ,2015-08-19 16:00,ZBSJ 191600Z 12001MPS 6000 NSC 22/21 Q1011 NOSIG
ZBSJ,2015-08-19 17:00,ZBSJ 191700Z 00000MPS 6000 NSC 22/21 Q1010 NOSIG
ZBSJ,2015-08-19 18:00,ZBSJ 191800Z 27001MPS 5000 BR NSC 21/21 Q1010 NOSIG
ZBSJ,2015-08-19 19:00,ZBSJ 191900Z 34001MPS 5000 BR NSC 21/20 Q1010 NOSIG
ZBSJ,2015-08-19 20:00,ZBSJ 192000Z 16001MPS 3500 BR NSC 21/20 Q1009 NOSIG
ZBSJ,2015-08-19 21:00,ZBSJ 192100Z 24001MPS 3500 BR NSC 20/20 Q1009 NOSIG
ZBSJ,2015-08-19 22:00,ZBSJ 192200Z 23001MPS 2000 BR NSC 20/20 Q1009 NOSIG
ZBSJ,2015-08-19 23:00,ZBSJ 192300Z 34001MPS 1700 R33/1300D BR NSC 21/21 Q1010 BECMG TL0040 3000
ZBSJ,2015-08-20 00:00,ZBSJ 200000Z 27001MPS 2000 BR NSC 24/21 Q1010 BECMG TL0130 3000
ZBSJ,2015-08-20 01:00,ZBSJ 200100Z 29002MPS 2000 BR NSC 26/22 Q1010 BECMG 3000
ZBSJ,2015-08-20 02:00,ZBSJ 200200Z 26002MPS 3000 HZ NSC 28/23 Q1010 NOSIG
ZBSJ,2015-08-20 03:00,ZBSJ 200300Z 30002MPS 5000 HZ NSC 30/22 Q1009 NOSIG
ZBSJ,2015-08-20 04:00,ZBSJ 200400Z 15001MPS 8000 NSC 31/20 Q1009 NOSIG
ZBSJ,2015-08-20 05:00,ZBSJ 200500Z 18001MPS CAVOK 31/21 Q1008 NOSIG
ZBSJ,2015-08-20 06:00,ZBSJ 200600Z 16002MPS CAVOK 32/22 Q1008 NOSIG
ZBSJ,2015-08-20 07:00,ZBSJ 200700Z 19003MPS 150V230 CAVOK 32/21 Q1007 NOSIG
ZBSJ,2015-08-20 08:00,ZBSJ 200800Z 18003MPS CAVOK 32/18 Q1006 NOSIG
ZBSJ,2015-08-20 09:00,ZBSJ 200900Z 17003MPS 7000 NSC 31/23 Q1006 NOSIG
ZBSJ,2015-08-20 10:00,ZBSJ 201000Z 15003MPS 5000 HZ NSC 29/23 Q1006 NOSIG
ZBSJ,2015-08-20 11:00,ZBSJ 201100Z 14002MPS 4500 HZ NSC 27/22 Q1006 NOSIG
ZBSJ,2015-08-20 12:00,ZBSJ 201200Z 14002MPS 4500 BR NSC 25/21 Q1006 NOSIG
ZBSJ,2015-08-20 13:00,ZBSJ 201300Z 15002MPS 4500 BR NSC 23/21 Q1007 NOSIG
ZBSJ,2015-08-20 14:00,ZBSJ 201400Z 17002MPS 3500 BR NSC 23/21 Q1007 NOSIG
ZBSJ,2015-08-20 15:00,ZBSJ 201500Z 18002MPS 3000 BR NSC 23/21 Q1007 NOSIG
ZBSJ,2015-08-20 16:00,ZBSJ 201600Z 31001MPS 2700 BR NSC 21/20 Q1007 NOSIG
ZBSJ,2015-08-20 17:00,ZBSJ 201700Z 36002MPS 2200 BR NSC 22/21 Q1007 NOSIG
ZBSJ,2015-08-20 18:00,ZBSJ 201800Z 28002MPS 250V330 2500 BR NSC 22/21 Q1007 NOSIG
ZBSJ,2015-08-20 19:00,ZBSJ 201900Z 31003MPS 2700 BR NSC 22/20 Q1007 NOSIG
ZBSJ,2015-08-20 20:00,ZBSJ 202000Z 31004MPS 4000 BR NSC 21/19 Q1007 NOSIG
ZBSJ,2015-08-20 21:00,ZBSJ 202100Z 33003MPS 6000 NSC 20/18 Q1007 NOSIG
ZBSJ,2015-08-20 22:00,ZBSJ 202200Z 33003MPS 6000 NSC 19/17 Q1008 NOSIG
ZBSJ,2015-08-20 23:00,ZBSJ 202300Z 33003MPS 6000 NSC 21/18 Q1008 NOSIG
ZBSJ,2015-08-21 00:00,ZBSJ 210000Z 33002MPS 5000 HZ NSC 25/19 Q1008 NOSIG
ZBSJ,2015-08-21 01:00,ZBSJ 210100Z 31001MPS CAVOK 28/19 Q1008 NOSIG
ZBSJ,2015-08-21 02:00,ZBSJ 210200Z 08001MPS CAVOK 29/18 Q1008 NOSIG
ZBSJ,2015-08-21 03:00,ZBSJ 210300Z 18001MPS CAVOK 29/18 Q1007 NOSIG
ZBSJ,2015-08-21 04:00,ZBSJ 210400Z 21002MPS 150V260 CAVOK 30/20 Q1007 NOSIG
ZBSJ,2015-08-21 05:00,ZBSJ 210500Z 18003MPS 140V220 CAVOK 31/18 Q1006 NOSIG
ZBSJ,2015-08-21 06:00,ZBSJ 210600Z 15003MPS 120V190 CAVOK 32/17 Q1005 NOSIG
ZBSJ,2015-08-21 07:00,ZBSJ 210700Z 17004MPS CAVOK 32/17 Q1005 NOSIG
ZBSJ,2015-08-21 08:00,ZBSJ 210800Z 17004MPS CAVOK 32/19 Q1004 NOSIG
ZBSJ,2015-08-21 09:00,ZBSJ 210900Z 16004MPS CAVOK 31/19 Q1003 NOSIG
ZBSJ,2015-08-21 10:00,ZBSJ 211000Z 17003MPS CAVOK 29/20 Q1003 NOSIG
ZBSJ,2015-08-21 11:00,ZBSJ 211100Z 17002MPS CAVOK 26/19 Q1003 NOSIG
ZBSJ,2015-08-21 12:00,ZBSJ 211200Z 16001MPS CAVOK 24/20 Q1004 NOSIG
ZBSJ,2015-08-21 13:00,ZBSJ 211300Z 07001MPS CAVOK 23/20 Q1005 NOSIG
ZBSJ,2015-08-21 14:00,ZBSJ 211400Z 04002MPS CAVOK 23/19 Q1005 NOSIG
ZBSJ,2015-08-21 15:00,ZBSJ 211500Z 06003MPS CAVOK 23/20 Q1005 NOSIG
ZBSJ,2015-08-21 16:00,ZBSJ 211600Z 10002MPS 7000 VCTS FEW046CB 23/20 Q1005 NOSIG
ZBSJ,2015-08-21 17:00,ZBSJ 211700Z 22001MPS 7000 NSC 23/20 Q1005 NOSIG
ZBSJ,2015-08-21 18:00,ZBSJ 211800Z 32002MPS 280V350 7000 NSC 23/19 Q1005 NOSIG
ZBSJ,2015-08-21 19:00,ZBSJ 211900Z 33002MPS 7000 NSC 22/20 Q1004 NOSIG
ZBSJ,2015-08-21 20:00,ZBSJ 212000Z 32003MPS 8000 NSC 21/19 Q1004 NOSIG
ZBSJ,2015-08-21 21:00,ZBSJ 212100Z 31002MPS 8000 NSC 21/18 Q1004 NOSIG
ZBSJ,2015-08-21 22:00,ZBSJ 212200Z 32003MPS 8000 NSC 20/18 Q1005 NOSIG
ZBSJ,2015-08-21 23:00,ZBSJ 212300Z 32003MPS CAVOK 23/19 Q1005 NOSIG
ZBSJ,2015-08-22 00:00,ZBSJ 220000Z 32004MPS CAVOK 25/18 Q1005 NOSIG
ZBSJ,2015-08-22 01:00,ZBSJ 220100Z 36003MPS CAVOK 28/18 Q1006 NOSIG
ZBSJ,2015-08-22 02:00,ZBSJ 220200Z 04003MPS 350V090 CAVOK 29/19 Q1006 NOSIG
ZBSJ,2015-08-22 03:00,ZBSJ 220300Z 06003MPS 030V090 CAVOK 31/20 Q1006 NOSIG
ZBSJ,2015-08-22 04:00,ZBSJ 220400Z 08002MPS 030V130 CAVOK 32/20 Q1005 NOSIG
ZBSJ,2015-08-22 05:00,ZBSJ 220500Z 09002MPS 340V140 9999 FEW033 32/20 Q1005 NOSIG
ZBSJ,2015-08-22 06:00,ZBSJ 220600Z 09002MPS 030V140 9999 FEW046 32/21 Q1004 NOSIG
ZBSJ,2015-08-22 07:00,ZBSJ 220700Z 09002MPS 9999 FEW046 32/20 Q1004 NOSIG
ZBSJ,2015-08-22 08:00,ZBSJ 220800Z 08001MPS 9999 FEW046 32/19 Q1003 NOSIG
ZBSJ,2015-08-22 09:00,ZBSJ 220900Z 11002MPS 9999 FEW046 32/20 Q1003 NOSIG
ZBSJ,2015-08-22 10:00,ZBSJ 221000Z 09001MPS 9999 FEW046 30/22 Q1003 NOSIG
ZBSJ,2015-08-22 11:00,ZBSJ 221100Z 09002MPS 9999 FEW046 28/20 Q1004 NOSIG
ZBSJ,2015-08-22 12:00,ZBSJ 221200Z 07001MPS CAVOK 25/21 Q1005 NOSIG
ZBSJ,2015-08-22 13:00,ZBSJ 221300Z 05001MPS CAVOK 24/21 Q1005 NOSIG
ZBSJ,2015-08-22 14:00,ZBSJ 221400Z 16005MPS 9999 SCT046 24/19 Q1006 NOSIG
ZBSJ,2015-08-22 15:00,ZBSJ 221500Z 16004MPS 9999 SCT046 22/17 Q1007 NOSIG
ZBSJ,2015-08-22 16:00,ZBSJ 221600Z 16002MPS 130V200 9999 SCT046 22/17 Q1007 NOSIG
ZBSJ,2015-08-22 17:00,ZBSJ 221700Z 20001MPS 9999 FEW046 22/17 Q1006 NOSIG
ZBSJ,2015-08-22 18:00,ZBSJ 221800Z 02002MPS 350V050 9999 FEW046 21/17 Q1007 NOSIG
ZBSJ,2015-08-22 19:00,ZBSJ 221900Z 02002MPS 9999 FEW046 21/17 Q1007 NOSIG
ZBSJ,2015-08-22 20:00,ZBSJ 222000Z 34001MPS 9999 FEW046 19/18 Q1007 NOSIG
ZBSJ,2015-08-22 21:00,ZBSJ 222100Z 07001MPS 9999 FEW046 20/18 Q1007 NOSIG
ZBSJ,2015-08-22 22:00,ZBSJ 222200Z 03001MPS 6000 FEW046 20/18 Q1008 NOSIG
ZBSJ,2015-08-22 23:00,ZBSJ 222300Z 36001MPS 5000 BR NSC 21/19 Q1008 NOSIG
ZBSJ,2015-08-23 00:00,ZBSJ 230000Z 04001MPS 4000 BR NSC 23/20 Q1009 NOSIG
ZBSJ,2015-08-23 01:00,ZBSJ 230100Z 05001MPS 3000 HZ NSC 25/20 Q1009 NOSIG
ZBSJ,2015-08-23 02:00,ZBSJ 230200Z VRB02MPS 6000 NSC 26/20 Q1009 NOSIG
ZBSJ,2015-08-23 03:00,ZBSJ 230300Z 06002MPS 010V110 6000 NSC 27/20 Q1009 NOSIG
ZBSJ,2015-08-23 04:00,ZBSJ 230400Z 09003MPS 050V130 7000 NSC 28/21 Q1008 NOSIG
ZBSJ,2015-08-23 05:00,ZBSJ 230500Z 10002MPS 7000 FEW040 29/22 Q1008 NOSIG
ZBSJ,2015-08-23 06:00,ZBSJ 230600Z VRB03MPS 8000 SCT040 29/21 Q1008 NOSIG
ZBSJ,2015-08-23 07:00,ZBSJ 230700Z 09003MPS 060V130 8000 SCT033 30/21 Q1007 NOSIG
ZBSJ,2015-08-23 08:00,ZBSJ 230800Z 04002MPS 8000 SCT040 28/21 Q1007 NOSIG
ZBSJ,2015-08-23 09:00,ZBSJ 230900Z 31008MPS 270V340 3000 TSRA BR FEW033CB BKN040 20/19 Q1010 BECMG TL1030 NSW
ZBSJ,2015-08-23 10:00,ZBSJ 231000Z 21002MPS 9999 -TSRA FEW033CB BKN046 20/18 Q1009 RESHRA BECMG TL1100 NSW
ZBSJ,2015-08-23 11:00,ZBSJ 231100Z 32005MPS 7000 -RA SCT033 BKN046 20/19 Q1010 RETS NOSIG
ZBSJ,2015-08-23 12:00,ZBSJ 231200Z 32003MPS 9999 BKN040 20/18 Q1010 NOSIG
ZBSJ,2015-08-23 13:00,ZBSJ 231300Z 17003MPS 130V230 9999 TS FEW033CB BKN040 20/18 Q1011 BECMG TL1430 NSW
ZBSJ,2015-08-23 14:00,ZBSJ 231400Z 29004MPS 6000 BKN040 20/19 Q1011 RETS NOSIG
ZBSJ,2015-08-23 15:00,ZBSJ 231500Z 29004MPS 6000 BKN040 20/18 Q1011 NOSIG
ZBSJ,2015-08-23 16:00,ZBSJ 231600Z 34002MPS 5000 BR BKN040 19/18 Q1011 NOSIG
ZBSJ,2015-08-23 17:00,ZBSJ 231700Z 35001MPS 5000 BR BKN040 19/18 Q1011 NOSIG
ZBSJ,2015-08-23 18:00,ZBSJ 231800Z 33002MPS 6000 BKN040 19/19 Q1011 NOSIG
ZBSJ,2015-08-23 19:00,ZBSJ 231900Z 33002MPS 6000 BKN040 20/19 Q1011 NOSIG
ZBSJ,2015-08-23 20:00,ZBSJ 232000Z 32002MPS 5000 BR BKN046 20/19 Q1011 NOSIG
ZBSJ,2015-08-23 21:00,ZBSJ 232100Z 30001MPS 5000 BR BKN046 20/19 Q1011 NOSIG
ZBSJ,2015-08-23 22:00,ZBSJ 232200Z 29003MPS 4000 BR BKN046 20/19 Q1011 NOSIG
ZBSJ,2015-08-23 23:00,ZBSJ 232300Z 32002MPS 5000 BR NSC 20/19 Q1012 NOSIG
ZBSJ,2015-08-24 00:00,ZBSJ 240000Z 31003MPS 5000 BR NSC 22/20 Q1012 NOSIG
ZBSJ,2015-08-24 01:00,ZBSJ 240100Z 34002MPS 300V010 CAVOK 24/19 Q1012 NOSIG
ZBSJ,2015-08-24 02:00,ZBSJ 240200Z 36001MPS CAVOK 25/19 Q1013 NOSIG
ZBSJ,2015-08-24 03:00,ZBSJ 240300Z 36001MPS CAVOK 25/19 Q1012 NOSIG
ZBSJ,2015-08-24 04:00,ZBSJ 240400Z 01002MPS CAVOK 26/20 Q1012 NOSIG
ZBSJ,2015-08-24 05:00,ZBSJ 240500Z 02002MPS 320V080 CAVOK 26/20 Q1011 NOSIG
ZBSJ,2015-08-24 06:00,ZBSJ 240600Z 06002MPS 9999 BKN033 27/20 Q1010 NOSIG
ZBSJ,2015-08-24 07:00,ZBSJ 240700Z 01002MPS 9999 BKN033 28/20 Q1010 NOSIG
ZBSJ,2015-08-24 08:00,ZBSJ 240800Z 03002MPS 340V070 9999 BKN033 27/19 Q1009 NOSIG
ZBSJ,2015-08-24 09:00,ZBSJ 240900Z 04001MPS 9999 BKN026 28/19 Q1009 NOSIG
ZBSJ,2015-08-24 10:00,ZBSJ 241000Z 11007MPS 3000 +SHRA BKN026 21/19 Q1011 BECMG TL1130 NSW
ZBSJ,2015-08-24 11:00,ZBSJ 241100Z 00000MPS 9999 BKN033 21/20 Q1010 RETSRA NOSIG
ZBSJ,2015-08-24 12:00,ZBSJ 241200Z 20001MPS 9999 -RA OVC040 21/20 Q1011 NOSIG
ZBSJ,2015-08-24 13:00,ZBSJ 241300Z 29003MPS 9999 BKN040 21/20 Q1012 NOSIG
ZBSJ,2015-08-24 14:00,ZBSJ 241400Z 31003MPS CAVOK 21/19 Q1011 NOSIG
ZBSJ,2015-08-24 15:00,ZBSJ 241500Z 30002MPS 260V320 CAVOK 21/19 Q1011 NOSIG
ZBSJ,2015-08-24 16:00,ZBSJ 241600Z 31002MPS CAVOK 20/19 Q1011 NOSIG
ZBSJ,2015-08-24 17:00,ZBSJ 241700Z 31003MPS CAVOK 21/19 Q1011 NOSIG
ZBSJ,2015-08-24 18:00,ZBSJ 241800Z 32003MPS CAVOK 20/19 Q1011 NOSIG
ZBSJ,2015-08-24 19:00,ZBSJ 241900Z 28002MPS 6000 NSC 20/19 Q1011 NOSIG
ZBSJ,2015-08-24 20:00,ZBSJ 242000Z 31003MPS 5000 BR NSC 20/19 Q1011 NOSIG
ZBSJ,2015-08-24 21:00,ZBSJ 242100Z 27002MPS 5000 BR NSC 20/19 Q1011 NOSIG
ZBSJ,2015-08-24 22:00,ZBSJ 242200Z 30003MPS 4000 BR NSC 20/18 Q1011 NOSIG
ZBSJ,2015-08-24 23:00,ZBSJ 242300Z 32003MPS 5000 BR NSC 21/19 Q1011 NOSIG
ZBSJ,2015-08-25 00:00,ZBSJ 250000Z 31003MPS 7000 NSC 23/19 Q1011 NOSIG
ZBSJ,2015-08-25 01:00,ZBSJ 250100Z 31002MPS CAVOK 24/19 Q1012 NOSIG
ZBSJ,2015-08-25 02:00,ZBSJ 250200Z 02002MPS 310V090 9999 BKN033 26/21 Q1012 NOSIG
ZBSJ,2015-08-25 03:00,ZBSJ 250300Z 05003MPS 350V100 9999 FEW033 27/20 Q1011 NOSIG
ZBSJ,2015-08-25 04:00,ZBSJ 250400Z 07003MPS 010V110 9999 SCT033 27/20 Q1011 NOSIG
ZBSJ,2015-08-25 05:00,ZBSJ 250500Z 05002MPS 9999 SCT033 27/20 Q1010 NOSIG
ZBSJ,2015-08-25 06:00,ZBSJ 250600Z 04002MPS 9999 SCT033 29/20 Q1010 NOSIG
ZBSJ,2015-08-25 07:00,ZBSJ 250700Z 05002MPS 9999 BKN040 29/19 Q1009 NOSIG
ZBSJ,2015-08-25 08:00,ZBSJ 250800Z 03002MPS 9999 SCT040 29/19 Q1009 NOSIG
ZBSJ,2015-08-25 09:00,ZBSJ 250900Z 05001MPS 9999 FEW040 28/19 Q1009 NOSIG
ZBSJ,2015-08-25 10:00,ZBSJ 251000Z 06001MPS CAVOK 27/19 Q1009 NOSIG
ZBSJ,2015-08-25 11:00,ZBSJ 251100Z 07001MPS CAVOK 25/21 Q1009 NOSIG
ZBSJ,2015-08-25 12:00,ZBSJ 251200Z 13001MPS CAVOK 23/20 Q1010 NOSIG
ZBSJ,2015-08-25 13:00,ZBSJ 251300Z 17001MPS CAVOK 22/20 Q1010 NOSIG
ZBSJ,2015-08-25 14:00,ZBSJ 251400Z 19001MPS CAVOK 21/20 Q1010 NOSIG
ZBSJ,2015-08-25 15:00,ZBSJ 251500Z 19001MPS CAVOK 21/20 Q1011 NOSIG
ZBSJ,2015-08-25 16:00,ZBSJ 251600Z 23001MPS 8000 NSC 20/19 Q1011 NOSIG
ZBSJ,2015-08-25 17:00,ZBSJ 251700Z 15001MPS 6000 NSC 19/19 Q1010 NOSIG
ZBSJ,2015-08-25 18:00,ZBSJ 251800Z 00000MPS 6000 NSC 19/19 Q1010 NOSIG
ZBSJ,2015-08-25 19:00,ZBSJ 251900Z 20001MPS 5000 BR NSC 20/19 Q1010 NOSIG
ZBSJ,2015-08-25 20:00,ZBSJ 252000Z 29001MPS 5000 BR NSC 20/19 Q1010 NOSIG
ZBSJ,2015-08-25 21:00,ZBSJ 252100Z 31003MPS 5000 BR NSC 20/19 Q1010 NOSIG
ZBSJ,2015-08-25 22:00,ZBSJ 252200Z 32002MPS 4000 BR NSC 19/18 Q1010 NOSIG
ZBSJ,2015-08-25 23:00,ZBSJ 252300Z 34002MPS 4000 BR NSC 21/19 Q1011 NOSIG
ZBSJ,2015-08-26 00:00,ZBSJ 260000Z 28002MPS 240V320 7000 NSC 23/20 Q1011 NOSIG
ZBSJ,2015-08-26 01:00,ZBSJ 260100Z 30002MPS 6000 NSC 26/20 Q1011 NOSIG
ZBSJ,2015-08-26 02:00,ZBSJ 260200Z 31001MPS CAVOK 28/20 Q1011 NOSIG
ZBSJ,2015-08-26 03:00,ZBSJ 260300Z 30002MPS CAVOK 29/19 Q1011 NOSIG
ZBSJ,2015-08-26 04:00,ZBSJ 260400Z 18001MPS CAVOK 30/20 Q1010 NOSIG
ZBSJ,2015-08-26 05:00,ZBSJ 260500Z 10001MPS 9999 FEW033 30/19 Q1009 NOSIG
ZBSJ,2015-08-26 06:00,ZBSJ 260600Z 11002MPS 9999 BKN033 30/18 Q1009 NOSIG
ZBSJ,2015-08-26 07:00,ZBSJ 260700Z 10001MPS 9999 SCT033 31/19 Q1008 NOSIG
ZBSJ,2015-08-26 08:00,ZBSJ 260800Z 10001MPS 9999 SCT033 30/18 Q1008 NOSIG
ZBSJ,2015-08-26 09:00,ZBSJ 260900Z 04001MPS 9999 FEW033 30/20 Q1007 NOSIG
ZBSJ,2015-08-26 10:00,ZBSJ 261000Z 00000MPS CAVOK 28/22 Q1008 NOSIG
ZBSJ,2015-08-26 11:00,ZBSJ 261100Z 04002MPS CAVOK 25/21 Q1008 NOSIG
ZBSJ,2015-08-26 12:00,ZBSJ 261200Z 07001MPS CAVOK 23/21 Q1009 NOSIG
ZBSJ,2015-08-26 13:00,ZBSJ 261300Z 11001MPS CAVOK 23/21 Q1009 NOSIG
ZBSJ,2015-08-26 14:00,ZBSJ 261400Z 18001MPS CAVOK 23/20 Q1009 NOSIG
ZBSJ,2015-08-26 15:00,ZBSJ 261500Z 02001MPS 8000 NSC 21/20 Q1009 NOSIG
ZBSJ,2015-08-26 16:00,ZBSJ 261600Z 05001MPS 8000 NSC 21/20 Q1010 NOSIG
ZBSJ,2015-08-26 17:00,ZBSJ 261700Z 33001MPS 6000 NSC 21/20 Q1010 NOSIG
ZBSJ,2015-08-26 18:00,ZBSJ 261800Z 34001MPS 6000 NSC 20/20 Q1009 NOSIG
ZBSJ,2015-08-26 19:00,ZBSJ 261900Z 32003MPS 6000 NSC 21/20 Q1009 NOSIG
ZBSJ,2015-08-26 20:00,ZBSJ 262000Z 29002MPS 6000 NSC 21/19 Q1010 NOSIG
ZBSJ,2015-08-26 21:00,ZBSJ 262100Z 28001MPS CAVOK 20/19 Q1010 NOSIG
ZBSJ,2015-08-26 22:00,ZBSJ 262200Z 31002MPS CAVOK 20/18 Q1010 NOSIG
ZBSJ,2015-08-26 23:00,ZBSJ 262300Z 33002MPS CAVOK 21/19 Q1010 NOSIG
ZBSJ,2015-08-27 00:00,ZBSJ 270000Z 31003MPS CAVOK 24/19 Q1011 NOSIG
ZBSJ,2015-08-27 01:00,ZBSJ 270100Z 32002MPS CAVOK 27/19 Q1011 NOSIG
ZBSJ,2015-08-27 02:00,ZBSJ 270200Z 32002MPS CAVOK 28/20 Q1011 NOSIG
ZBSJ,2015-08-27 03:00,ZBSJ 270300Z 30001MPS CAVOK 29/21 Q1010 NOSIG
ZBSJ,2015-08-27 04:00,ZBSJ 270400Z 02001MPS CAVOK 29/20 Q1010 NOSIG
ZBSJ,2015-08-27 05:00,ZBSJ 270500Z 13001MPS 9999 FEW033 31/20 Q1009 NOSIG
ZBSJ,2015-08-27 06:00,ZBSJ 270600Z 19001MPS 9999 FEW033 31/19 Q1009 NOSIG
ZBSJ,2015-08-27 07:00,ZBSJ 270700Z 13002MPS 9999 FEW033 31/19 Q1008 NOSIG
ZBSJ,2015-08-27 08:00,ZBSJ 270800Z 13001MPS 9999 FEW040 30/20 Q1008 NOSIG
ZBSJ,2015-08-27 09:00,ZBSJ 270900Z 08002MPS 9999 FEW040 30/20 Q1007 NOSIG
ZBSJ,2015-08-27 10:00,ZBSJ 271000Z 07001MPS CAVOK 28/22 Q1008 NOSIG
ZBSJ,2015-08-27 11:00,ZBSJ 271100Z 07002MPS CAVOK 26/21 Q1009 NOSIG
ZBSJ,2015-08-27 12:00,ZBSJ 271200Z 11002MPS CAVOK 26/21 Q1009 NOSIG
ZBSJ,2015-08-27 13:00,ZBSJ 271300Z 11001MPS CAVOK 24/21 Q1009 NOSIG
ZBSJ,2015-08-27 14:00,ZBSJ 271400Z 19001MPS 8000 NSC 24/21 Q1009 NOSIG
ZBSJ,2015-08-27 15:00,ZBSJ 271500Z 28003MPS 8000 NSC 24/20 Q1010 NOSIG
ZBSJ,2015-08-27 16:00,ZBSJ 271600Z 27002MPS 240V300 CAVOK 23/19 Q1010 NOSIG
ZBSJ,2015-08-27 17:00,ZBSJ 271700Z 29002MPS CAVOK 23/19 Q1009 NOSIG
ZBSJ,2015-08-27 18:00,ZBSJ 271800Z 31002MPS CAVOK 21/19 Q1009 NOSIG
ZBSJ,2015-08-27 19:00,ZBSJ 271900Z 27002MPS CAVOK 22/19 Q1009 NOSIG
ZBSJ,2015-08-27 20:00,ZBSJ 272000Z 21001MPS CAVOK 20/18 Q1008 NOSIG
ZBSJ,2015-08-27 21:00,ZBSJ 272100Z 28001MPS CAVOK 20/18 Q1008 NOSIG
ZBSJ,2015-08-27 22:00,ZBSJ 272200Z 22001MPS CAVOK 20/18 Q1009 NOSIG
ZBSJ,2015-08-27 23:00,ZBSJ 272300Z 29003MPS CAVOK 22/17 Q1009 NOSIG
ZBSJ,2015-08-28 00:00,ZBSJ 280000Z 31003MPS 7000 NSC 24/18 Q1009 NOSIG
ZBSJ,2015-08-28 01:00,ZBSJ 280100Z 28003MPS CAVOK 26/19 Q1009 NOSIG
ZBSJ,2015-08-28 02:00,ZBSJ 280200Z 24002MPS CAVOK 27/19 Q1009 NOSIG
ZBSJ,2015-08-28 03:00,ZBSJ 280300Z 30001MPS CAVOK 29/19 Q1009 NOSIG
ZBSJ,2015-08-28 04:00,ZBSJ 280400Z 19002MPS 150V290 CAVOK 30/20 Q1008 NOSIG
ZBSJ,2015-08-28 05:00,ZBSJ 280500Z 19002MPS CAVOK 31/21 Q1007 NOSIG
ZBSJ,2015-08-28 06:00,ZBSJ 280600Z 14002MPS CAVOK 31/21 Q1007 NOSIG
ZBSJ,2015-08-28 07:00,ZBSJ 280700Z 15001MPS CAVOK 31/20 Q1006 NOSIG
ZBSJ,2015-08-28 08:00,ZBSJ 280800Z 24002MPS CAVOK 30/19 Q1006 NOSIG
ZBSJ,2015-08-28 09:00,ZBSJ 280900Z 04002MPS CAVOK 30/21 Q1005 NOSIG
ZBSJ,2015-08-28 10:00,ZBSJ 281000Z 15001MPS CAVOK 29/20 Q1006 NOSIG
ZBSJ,2015-08-28 11:00,ZBSJ 281100Z 14001MPS CAVOK 26/23 Q1006 NOSIG
ZBSJ,2015-08-28 12:00,ZBSJ 281200Z 13001MPS 5000 BR NSC 24/21 Q1007 NOSIG
ZBSJ,2015-08-28 13:00,ZBSJ 281300Z 22002MPS 5000 BR NSC 25/21 Q1008 NOSIG
ZBSJ,2015-08-28 14:00,ZBSJ 281400Z 12001MPS 8000 NSC 23/20 Q1008 NOSIG
ZBSJ,2015-08-28 15:00,ZBSJ 281500Z 16005MPS 7000 NSC 22/19 Q1008 NOSIG
ZBSJ,2015-08-28 16:00,ZBSJ 281600Z 18003MPS CAVOK 21/18 Q1008 NOSIG
ZBSJ,2015-08-28 17:00,ZBSJ 281700Z 20003MPS CAVOK 22/17 Q1008 NOSIG
ZBSJ,2015-08-28 18:00,ZBSJ 281800Z 18001MPS CAVOK 20/17 Q1008 NOSIG
ZBSJ,2015-08-28 19:00,ZBSJ 281900Z 07002MPS CAVOK 19/17 Q1008 NOSIG
ZBSJ,2015-08-28 20:00,ZBSJ 282000Z 00000MPS 8000 NSC 18/17 Q1008 NOSIG
ZBSJ,2015-08-28 21:00,ZBSJ 282100Z 07001MPS 7000 NSC 18/17 Q1008 NOSIG
ZBSJ,2015-08-28 22:00,ZBSJ 282200Z 05002MPS 5000 BR NSC 18/17 Q1009 NOSIG
ZBSJ,2015-08-28 23:00,ZBSJ 282300Z 10002MPS 5000 BR NSC 19/18 Q1010 NOSIG
ZBSJ,2015-08-29 00:00,ZBSJ 290000Z 12001MPS 6000 NSC 21/18 Q1010 NOSIG
ZBSJ,2015-08-29 01:00,ZBSJ 290100Z 23001MPS 7000 NSC 23/18 Q1010 NOSIG
ZBSJ,2015-08-29 02:00,ZBSJ 290200Z 02001MPS 7000 NSC 25/19 Q1010 NOSIG
ZBSJ,2015-08-29 03:00,ZBSJ 290300Z 11001MPS 7000 NSC 26/19 Q1010 NOSIG
ZBSJ,2015-08-29 04:00,ZBSJ 290400Z 13001MPS 7000 NSC 28/20 Q1010 NOSIG
ZBSJ,2015-08-29 05:00,ZBSJ 290500Z 12002MPS 7000 NSC 28/20 Q1009 NOSIG
ZBSJ,2015-08-29 06:00,ZBSJ 290600Z 13003MPS 100V180 7000 NSC 29/21 Q1008 NOSIG
ZBSJ,2015-08-29 07:00,ZBSJ 290700Z 12003MPS 070V180 7000 NSC 29/21 Q1008 NOSIG
ZBSJ,2015-08-29 08:00,ZBSJ 290800Z 15002MPS 6000 NSC 29/21 Q1007 NOSIG
ZBSJ,2015-08-29 09:00,ZBSJ 290900Z 13002MPS 5000 -RA HZ BKN046 28/22 Q1007 NOSIG
ZBSJ,2015-08-29 10:00,ZBSJ 291000Z 13002MPS 5000 HZ NSC 27/22 Q1007 NOSIG
ZBSJ,2015-08-29 11:00,ZBSJ 291100Z 06001MPS 4500 BR NSC 25/22 Q1008 NOSIG
ZBSJ,2015-08-29 12:00,ZBSJ 291200Z 08001MPS 5000 BR NSC 23/21 Q1008 NOSIG
ZBSJ,2015-08-29 13:00,ZBSJ 291300Z 13001MPS 5000 BR NSC 23/21 Q1009 NOSIG
ZBSJ,2015-08-29 14:00,ZBSJ 291400Z 10001MPS 6000 NSC 23/21 Q1009 NOSIG
ZBSJ,2015-08-29 15:00,ZBSJ 291500Z 17001MPS 6000 NSC 23/21 Q1010 NOSIG
ZBSJ,2015-08-29 16:00,ZBSJ 291600Z 17001MPS 6000 NSC 23/20 Q1010 NOSIG
ZBSJ,2015-08-29 17:00,ZBSJ 291700Z 16002MPS 6000 NSC 22/20 Q1009 NOSIG
ZBSJ,2015-08-29 18:00,ZBSJ 291800Z 11002MPS 7000 NSC 22/20 Q1009 NOSIG
ZBSJ,2015-08-29 19:00,ZBSJ 291900Z 14001MPS 7000 NSC 22/20 Q1009 NOSIG
ZBSJ,2015-08-29 20:00,ZBSJ 292000Z 15001MPS 7000 NSC 22/20 Q1010 NOSIG
ZBSJ,2015-08-29 21:00,ZBSJ 292100Z 12002MPS 6000 NSC 22/19 Q1010 NOSIG
ZBSJ,2015-08-29 22:00,ZBSJ 292200Z 16003MPS 6000 BKN046 21/20 Q1010 NOSIG
ZBSJ,2015-08-29 23:00,ZBSJ 292300Z 18001MPS 4000 BR BKN046 22/20 Q1010 BECMG AT2330 -TSRA
ZBSJ,2015-08-30 00:00,ZBSJ 300000Z 19003MPS 3500 BR SCT033 BKN046 23/20 Q1010 BECMG AT0020 -TSRA
ZBSJ,2015-08-30 01:00,ZBSJ 300100Z 02003MPS 350V050 2500 -TSRA BR SCT030CB BKN033 22/20 Q1011 BECMG NSW
ZBSJ,2015-08-30 02:00,ZBSJ 300200Z 07005MPS 040V100 6000 -TSRA FEW030CB BKN033 20/19 Q1011 BECMG TL0240 NSW
ZBSJ,2015-08-30 03:00,ZBSJ 300300Z 11002MPS 060V170 9999 TS FEW030CB BKN033 21/18 Q1011 NOSIG
ZBSJ,2015-08-30 04:00,ZBSJ 300400Z 25002MPS 6000 -RA OVC033 21/20 Q1012 RETS NOSIG
ZBSJ,2015-08-30 05:00,ZBSJ 300500Z 36002MPS 5000 BR OVC046 21/20 Q1011 NOSIG
ZBSJ,2015-08-30 06:00,ZBSJ 300600Z VRB02MPS 6000 FEW040 24/21 Q1010 NOSIG
ZBSJ,2015-08-30 07:00,ZBSJ 300700Z 07002MPS 360V110 6000 SCT026 25/20 Q1010 NOSIG
ZBSJ,2015-08-30 08:00,ZBSJ 300800Z 08003MPS 020V120 6000 SCT026 25/20 Q1010 NOSIG
ZBSJ,2015-08-30 09:00,ZBSJ 300900Z 07002MPS 6000 NSC 25/20 Q1009 NOSIG
ZBSJ,2015-08-30 10:00,ZBSJ 301000Z 06002MPS 6000 NSC 24/21 Q1010 NOSIG
ZBSJ,2015-08-30 11:00,ZBSJ 301100Z 02001MPS 4500 BR NSC 23/21 Q1010 NOSIG
ZBSJ,2015-08-30 12:00,ZBSJ 301200Z 34002MPS 4500 BR NSC 22/20 Q1011 NOSIG
ZBSJ,2015-08-30 13:00,ZBSJ 301300Z 03002MPS 4000 BR NSC 22/20 Q1012 NOSIG
ZBSJ,2015-08-30 14:00,ZBSJ 301400Z 06002MPS 4000 BR NSC 21/20 Q1012 NOSIG
ZBSJ,2015-08-30 15:00,ZBSJ 301500Z 06002MPS 4000 BR NSC 21/20 Q1012 NOSIG
ZBSJ,2015-08-30 16:00,ZBSJ 301600Z 04002MPS 6000 NSC 20/19 Q1012 NOSIG
ZBSJ,2015-08-30 17:00,ZBSJ 301700Z 07002MPS CAVOK 20/19 Q1012 NOSIG
ZBSJ,2015-08-30 18:00,ZBSJ 301800Z 05003MPS 010V080 CAVOK 20/19 Q1011 NOSIG
ZBSJ,2015-08-30 19:00,ZBSJ 301900Z 04001MPS 9999 -RA OVC046 20/18 Q1012 NOSIG
ZBSJ,2015-08-30 20:00,ZBSJ 302000Z 08002MPS 9999 -TSRA FEW026CB OVC046 20/19 Q1012 NOSIG
ZBSJ,2015-08-30 21:00,ZBSJ 302100Z 35001MPS 5000 TSRA BR FEW026CB OVC046 19/18 Q1012 NOSIG
ZBSJ,2015-08-30 22:00,ZBSJ 302200Z 35005MPS 5000 RA BR SCT016 FEW026CB BKN040 19/19 Q1012 RETS NOSIG
ZBSJ,2015-08-30 23:00,ZBSJ 302300Z 05002MPS 360V090 5000 -RA BR FEW016 OVC040 19/19 Q1012 RERA NOSIG
ZBSJ,2015-08-31 00:00,ZBSJ 310000Z 01001MPS 5000 -RA BR SCT010 OVC046 19/19 Q1012 NOSIG
ZBSJ,2015-08-31 01:00,ZBSJ 310100Z 34002MPS 7000 -RA BKN016 OVC046 19/19 Q1013 NOSIG
ZBSJ,2015-08-31 02:00,ZBSJ 310200Z 04002MPS 9999 -RA SCT010 OVC046 20/19 Q1013 NOSIG
ZBSJ,2015-08-31 03:00,ZBSJ 310300Z 36002MPS 340V040 9999 -RA SCT010 OVC040 20/19 Q1013 NOSIG
ZBSJ,2015-08-31 04:00,ZBSJ 310400Z 35002MPS 9999 -RA SCT010 OVC040 20/20 Q1013 NOSIG
ZBSJ,2015-08-31 05:00,ZBSJ 310500Z 36002MPS 340V040 9999 SCT010 OVC040 21/19 Q1012 NOSIG
ZBSJ,2015-08-31 06:00,ZBSJ 310600Z 01002MPS 350V050 9999 SCT010 OVC040 21/19 Q1012 NOSIG
ZBSJ,2015-08-31 07:00,ZBSJ 310700Z 02002MPS 340V070 9999 FEW010 OVC040 21/19 Q1012 NOSIG
ZBSJ,2015-08-31 08:00,ZBSJ 310800Z 05003MPS 9999 FEW010 OVC040 22/19 Q1012 NOSIG
ZBSJ,2015-08-31 09:00,ZBSJ 310900Z 05002MPS 350V100 9999 FEW030 BKN046 22/19 Q1012 NOSIG
ZBSJ,2015-08-31 10:00,ZBSJ 311000Z 06002MPS 9999 BKN046 22/19 Q1012 NOSIG
ZBSJ,2015-08-31 11:00,ZBSJ 311100Z 05001MPS 8000 BKN046 20/19 Q1012 NOSIG
ZBSJ,2015-08-31 12:00,ZBSJ 311200Z 34001MPS 7000 BKN046 19/18 Q1012 NOSIG
ZBSJ,2015-08-31 13:00,ZBSJ 311300Z 14001MPS 6000 BKN046 20/19 Q1013 NOSIG
ZBSJ,2015-08-31 14:00,ZBSJ 311400Z 28002MPS 6000 BKN046 20/19 Q1013 NOSIG
ZBSJ,2015-08-31 15:00,ZBSJ 311500Z 33002MPS 5000 BR BKN046 19/19 Q1013 NOSIG
ZBSJ,2015-08-31 16:00,ZBSJ 311600Z 34002MPS 5000 BR SCT046 19/19 Q1012 NOSIG
ZBSJ,2015-08-31 17:00,ZBSJ 311700Z 34001MPS 5000 BR SCT046 19/19 Q1012 NOSIG
ZBSJ,2015-08-31 18:00,ZBSJ 311800Z 35002MPS 4000 BR SCT046 19/18 Q1012 NOSIG
ZBSJ,2015-08-31 19:00,ZBSJ 311900Z 01001MPS 4000 BR OVC046 19/19 Q1012 NOSIG
ZBSJ,2015-08-31 20:00,ZBSJ 312000Z 33002MPS 5000 BR OVC046 19/19 Q1012 NOSIG
ZBSJ,2015-08-31 21:00,ZBSJ 312100Z 02002MPS 2500 +RA BR OVC040 19/19 Q1012 BECMG TL2130 NSW
ZBSJ,2015-08-31 22:00,ZBSJ 312200Z 01002MPS 3500 BR SCT040 18/18 Q1011 RERA NOSIG
ZBSJ,2015-08-31 23:00,ZBSJ 312300Z 34002MPS 4000 BR FEW040 BKN046 19/19 Q1012 NOSIG
ZBSJ,2015-09-01 00:00,ZBSJ 010000Z 35002MPS 4000 -RA BR OVC040 19/18 Q1013 NOSIG
ZBSJ,2015-09-01 01:00,ZBSJ 010100Z 36002MPS 330V040 7000 -RA OVC040 19/19 Q1013 NOSIG
ZBSJ,2015-09-01 02:00,ZBSJ 010200Z 33003MPS 9999 -RA OVC040 19/19 Q1013 NOSIG
ZBSJ,2015-09-01 03:00,ZBSJ 010300Z 32004MPS 9999 -RA OVC046 20/19 Q1013 NOSIG
ZBSJ,2015-09-01 04:00,ZBSJ 010400Z 33003MPS CAVOK 21/19 Q1013 NOSIG
ZBSJ,2015-09-01 05:00,ZBSJ 010500Z 03004G09MPS 360V070 7000 -RA SCT030 OVC046 20/18 Q1013 NOSIG
ZBSJ,2015-09-01 06:00,ZBSJ 010600Z 02003MPS 340V050 9999 OVC046 21/19 Q1013 NOSIG
ZBSJ,2015-09-01 07:00,ZBSJ 010700Z 01005MPS 340V040 9999 BKN046 22/18 Q1012 NOSIG
ZBSJ,2015-09-01 08:00,ZBSJ 010800Z 01003MPS 350V060 9999 BKN046 23/18 Q1012 NOSIG
ZBSJ,2015-09-01 09:00,ZBSJ 010900Z 01003MPS 340V050 9999 SCT026 23/18 Q1012 NOSIG
ZBSJ,2015-09-01 10:00,ZBSJ 011000Z 01002MPS 9999 BKN046 22/18 Q1013 NOSIG
ZBSJ,2015-09-01 11:00,ZBSJ 011100Z 34001MPS 9999 BKN046 21/18 Q1012 NOSIG
ZBSJ,2015-09-01 12:00,ZBSJ 011200Z 02002MPS 9999 OVC046 21/17 Q1013 NOSIG
ZBSJ,2015-09-01 13:00,ZBSJ 011300Z 35001MPS 9999 OVC046 19/18 Q1014 NOSIG
ZBSJ,2015-09-01 14:00,ZBSJ 011400Z 31001MPS 9999 OVC046 20/18 Q1014 NOSIG
ZBSJ,2015-09-01 15:00,ZBSJ 011500Z 29002MPS CAVOK 20/18 Q1014 NOSIG
ZBSJ,2015-09-01 16:00,ZBSJ 011600Z 30002MPS CAVOK 21/18 Q1014 NOSIG
ZBSJ,2015-09-01 17:00,ZBSJ 011700Z 28002MPS CAVOK 20/18 Q1014 NOSIG
ZBSJ,2015-09-01 18:00,ZBSJ 011800Z 32002MPS CAVOK 19/18 Q1014 NOSIG
ZBSJ,2015-09-01 19:00,ZBSJ 011900Z 33003MPS CAVOK 18/18 Q1014 NOSIG
ZBSJ,2015-09-01 20:00,ZBSJ 012000Z 32003MPS CAVOK 18/18 Q1014 NOSIG
ZBSJ,2015-09-01 21:00,ZBSJ 012100Z 32003MPS CAVOK 19/18 Q1014 NOSIG
ZBSJ,2015-09-01 22:00,ZBSJ 012200Z 31004MPS CAVOK 19/18 Q1014 NOSIG
ZBSJ,2015-09-01 23:00,ZBSJ 012300Z 31003MPS CAVOK 20/18 Q1014 NOSIG
ZBSJ,2015-09-02 00:00,ZBSJ 020000Z 31003MPS CAVOK 24/19 Q1014 NOSIG
ZBSJ,2015-09-02 01:00,ZBSJ 020100Z 31003MPS CAVOK 25/18 Q1014 NOSIG
ZBSJ,2015-09-02 02:00,ZBSJ 020200Z 32003MPS 260V350 CAVOK 27/18 Q1015 NOSIG
ZBSJ,2015-09-02 03:00,ZBSJ 020300Z VRB02MPS CAVOK 27/17 Q1015 NOSIG
ZBSJ,2015-09-02 04:00,ZBSJ 020400Z 04002MPS CAVOK 28/17 Q1014 NOSIG
ZBSJ,2015-09-02 05:00,ZBSJ 020500Z 01002MPS 9999 FEW033 29/19 Q1014 NOSIG
ZBSJ,2015-09-02 06:00,ZBSJ 020600Z 12001MPS 9999 FEW033 29/17 Q1013 NOSIG
ZBSJ,2015-09-02 07:00,ZBSJ 020700Z 01001MPS 9999 FEW033 30/18 Q1013 NOSIG
ZBSJ,2015-09-02 08:00,ZBSJ 020800Z 17002MPS 9999 FEW033 30/18 Q1013 NOSIG
ZBSJ,2015-09-02 09:00,ZBSJ 020900Z 12002MPS CAVOK 29/19 Q1012 NOSIG
ZBSJ,2015-09-02 10:00,ZBSJ 021000Z 13001MPS CAVOK 28/19 Q1012 NOSIG
ZBSJ,2015-09-02 11:00,ZBSJ 021100Z 24001MPS CAVOK 24/21 Q1013 NOSIG
ZBSJ,2015-09-02 12:00,ZBSJ 021200Z 22001MPS CAVOK 25/20 Q1013 NOSIG
ZBSJ,2015-09-02 13:00,ZBSJ 021300Z 00000MPS CAVOK 22/20 Q1014 NOSIG
ZBSJ,2015-09-02 14:00,ZBSJ 021400Z 17001MPS CAVOK 20/19 Q1014 NOSIG
ZBSJ,2015-09-02 15:00,ZBSJ 021500Z 00000MPS CAVOK 20/19 Q1014 NOSIG
ZBSJ,2015-09-02 16:00,ZBSJ 021600Z 32003MPS CAVOK 20/19 Q1014 NOSIG
ZBSJ,2015-09-02 17:00,ZBSJ 021700Z 34001MPS CAVOK 19/18 Q1014 NOSIG
ZBSJ,2015-09-02 18:00,ZBSJ 021800Z 30001MPS CAVOK 19/18 Q1014 NOSIG
ZBSJ,2015-09-02 19:00,ZBSJ 021900Z 29002MPS CAVOK 20/18 Q1014 NOSIG
ZBSJ,2015-09-02 20:00,ZBSJ 022000Z 30002MPS CAVOK 20/18 Q1014 NOSIG
ZBSJ,2015-09-02 21:00,ZBSJ 022100Z 32002MPS CAVOK 19/17 Q1014 NOSIG
ZBSJ,2015-09-02 22:00,ZBSJ 022200Z 29002MPS CAVOK 19/17 Q1015 NOSIG
ZBSJ,2015-09-02 23:00,ZBSJ 022300Z 28002MPS CAVOK 21/18 Q1015 NOSIG
ZBSJ,2015-09-03 00:00,ZBSJ 030000Z 29003MPS CAVOK 23/18 Q1016 NOSIG
ZBSJ,2015-09-03 01:00,ZBSJ 030100Z 28003MPS 250V310 CAVOK 25/18 Q1016 NOSIG
ZBSJ,2015-09-03 02:00,ZBSJ 030200Z 25003MPS CAVOK 26/18 Q1016 NOSIG
ZBSJ,2015-09-03 03:00,ZBSJ 030300Z 23002MPS 200V280 CAVOK 27/19 Q1015 NOSIG
ZBSJ,2015-09-03 04:00,ZBSJ 030400Z 21002MPS CAVOK 28/20 Q1015 NOSIG
ZBSJ,2015-09-03 05:00,ZBSJ 030500Z VRB02MPS CAVOK 30/19 Q1014 NOSIG
ZBSJ,2015-09-03 06:00,ZBSJ 030600Z 20003MPS 140V230 CAVOK 30/19 Q1014 NOSIG
ZBSJ,2015-09-03 07:00,ZBSJ 030700Z 14003MPS 110V180 CAVOK 30/18 Q1013 NOSIG
ZBSJ,2015-09-03 08:00,ZBSJ 030800Z 13002MPS 100V170 CAVOK 30/19 Q1013 NOSIG
ZBSJ,2015-09-03 09:00,ZBSJ 030900Z 15003MPS CAVOK 29/19 Q1013 NOSIG
ZBSJ,2015-09-03 10:00,ZBSJ 031000Z 14002MPS CAVOK 28/19 Q1013 NOSIG
ZBSJ,2015-09-03 11:00,ZBSJ 031100Z 13002MPS CAVOK 25/19 Q1013 NOSIG
ZBSJ,2015-09-03 12:00,ZBSJ 031200Z 16001MPS CAVOK 22/19 Q1013 NOSIG
ZBSJ,2015-09-03 13:00,ZBSJ 031300Z 15001MPS CAVOK 22/19 Q1014 NOSIG
ZBSJ,2015-09-03 14:00,ZBSJ 031400Z 14001MPS CAVOK 21/19 Q1014 NOSIG
ZBSJ,2015-09-03 15:00,ZBSJ 031500Z 00000MPS CAVOK 21/19 Q1013 NOSIG
ZBSJ,2015-09-03 16:00,ZBSJ 031600Z 15001MPS CAVOK 21/19 Q1014 NOSIG
ZBSJ,2015-09-03 17:00,ZBSJ 031700Z 12001MPS 8000 NSC 21/19 Q1013 NOSIG
ZBSJ,2015-09-03 18:00,ZBSJ 031800Z 11001MPS 7000 NSC 21/19 Q1013 NOSIG
ZBSJ,2015-09-03 19:00,ZBSJ 031900Z 07001MPS 7000 NSC 21/20 Q1013 NOSIG
ZBSJ,2015-09-03 20:00,ZBSJ 032000Z 09002MPS 7000 NSC 20/19 Q1012 NOSIG
ZBSJ,2015-09-03 21:00,ZBSJ 032100Z 10001MPS 7000 NSC 20/19 Q1012 NOSIG
ZBSJ,2015-09-03 22:00,ZBSJ 032200Z 07001MPS 6000 NSC 20/19 Q1012 NOSIG
ZBSJ,2015-09-03 23:00,ZBSJ 032300Z 08002MPS 4000 BR NSC 21/20 Q1013 NOSIG
ZBSJ,2015-09-04 00:00,ZBSJ 040000Z 10001MPS 4000 BR NSC 22/20 Q1013 NOSIG
ZBSJ,2015-09-04 01:00,ZBSJ 040100Z 10001MPS 2800 BR NSC 22/21 Q1013 BECMG TL0200 3000
ZBSJ,2015-09-04 02:00,ZBSJ 040200Z 28001MPS 2100 -RA BR NSC 23/22 Q1013 BECMG 3000
ZBSJ,2015-09-04 03:00,ZBSJ 040300Z 20001MPS 2500 -RA BR OVC046 23/22 Q1012 NOSIG
ZBSJ,2015-09-04 04:00,ZBSJ 040400Z 21001MPS 2300 -RA BR OVC046 23/22 Q1012 NOSIG
ZBSJ,2015-09-04 05:00,ZBSJ 040500Z 23002MPS 1800 -RA BR OVC046 23/22 Q1012 NOSIG
ZBSJ,2015-09-04 06:00,ZBSJ 040600Z 06001MPS 1800 -RA BR OVC046 23/21 Q1011 NOSIG
ZBSJ,2015-09-04 07:00,ZBSJ 040700Z 06001MPS 2300 -RA BR FEW026 OVC046 22/21 Q1011 NOSIG
ZBSJ,2015-09-04 08:00,ZBSJ 040800Z 20004MPS 6000 -RA SCT026 OVC046 20/19 Q1011 NOSIG
ZBSJ,2015-09-04 09:00,ZBSJ 040900Z 20003MPS 180V240 6000 -RA OVC046 20/19 Q1010 NOSIG
ZBSJ,2015-09-04 10:00,ZBSJ 041000Z 24001MPS 6000 OVC046 20/19 Q1010 NOSIG
ZBSJ,2015-09-04 11:00,ZBSJ 041100Z 08001MPS 6000 OVC046 20/19 Q1010 NOSIG
ZBSJ,2015-09-04 12:00,ZBSJ 041200Z 12002MPS 5000 BR OVC046 20/19 Q1011 NOSIG
ZBSJ,2015-09-04 13:00,ZBSJ 041300Z 11002MPS 4000 BR OVC046 20/19 Q1011 NOSIG
ZBSJ,2015-09-04 14:00,ZBSJ 041400Z 11002MPS 3500 BR OVC046 20/19 Q1011 NOSIG
ZBSJ,2015-09-04 15:00,ZBSJ 041500Z 12002MPS 3500 BR OVC046 19/19 Q1010 NOSIG
ZBSJ,2015-09-04 16:00,ZBSJ 041600Z 11001MPS 4000 BR OVC046 19/19 Q1010 NOSIG
ZBSJ,2015-09-04 17:00,ZBSJ 041700Z 13001MPS 4000 BR OVC046 19/19 Q1010 NOSIG
ZBSJ,2015-09-04 18:00,ZBSJ 041800Z 12001MPS 4000 BR OVC046 19/19 Q1009 NOSIG
ZBSJ,2015-09-04 19:00,ZBSJ 041900Z 16001MPS 4000 BR OVC046 19/19 Q1009 NOSIG
ZBSJ,2015-09-04 20:00,ZBSJ 042000Z 16001MPS 3000 BR OVC046 19/19 Q1009 NOSIG
ZBSJ,2015-09-04 21:00,ZBSJ 042100Z 11001MPS 3500 BR OVC046 19/19 Q1008 NOSIG
ZBSJ,2015-09-04 22:00,ZBSJ 042200Z 09001MPS 1600 BR OVC046 19/19 Q1008 NOSIG
ZBSJ,2015-09-04 23:00,ZBSJ 042300Z 14001MPS 1600 BR OVC046 19/19 Q1009 BECMG 1400 BR
ZBSJ,2015-09-05 00:00,ZBSJ 050000Z 20002MPS 2000 BR OVC046 19/19 Q1009 BECMG 3000
ZBSJ,2015-09-05 01:00,ZBSJ 050100Z 18001MPS 2000 BR OVC046 20/19 Q1009 BECMG 3000
ZBSJ,2015-09-05 02:00,ZBSJ 050200Z 18001MPS 2000 BR OVC046 21/19 Q1009 BECMG 3000
ZBSJ,2015-09-05 03:00,ZBSJ 050300Z 21001MPS 3500 BR OVC046 22/19 Q1009 NOSIG
ZBSJ,2015-09-05 04:00,ZBSJ 050400Z 08001MPS 3500 BR OVC046 23/19 Q1008 NOSIG
ZBSJ,2015-09-05 05:00,ZBSJ 050500Z 08001MPS 3500 BR OVC046 23/19 Q1008 NOSIG
ZBSJ,2015-09-05 06:00,ZBSJ 050600Z 10002MPS 080V140 3000 BR OVC046 22/19 Q1008 NOSIG
ZBSJ,2015-09-05 07:00,ZBSJ 050700Z 10002MPS 060V140 4000 BR OVC046 22/19 Q1008 NOSIG
ZBSJ,2015-09-05 08:00,ZBSJ 050800Z 07003MPS 030V100 8000 SCT016 OVC046 23/19 Q1008 NOSIG
ZBSJ,2015-09-05 09:00,ZBSJ 050900Z 08002MPS 030V110 8000 SCT016 FEW016TCU OVC046 22/19 Q1008 NOSIG
ZBSJ,2015-09-05 10:00,ZBSJ 051000Z 08003MPS 5000 -RA BR SCT026 FEW026TCU OVC046 21/19 Q1009 BECMG AT1030 -TSRA
ZBSJ,2015-09-05 11:00,ZBSJ 051100Z 05003MPS 360V080 3500 -TSRA BR SCT016 FEW026CB OVC040 20/19 Q1010 NOSIG
ZBSJ,2015-09-05 12:00,ZBSJ 051200Z 04003MPS 360V080 4500 -RA BR SCT016 OVC040 18/17 Q1011 RETS NOSIG
ZBSJ,2015-09-05 13:00,ZBSJ 051300Z 04005MPS 360V090 4500 -RA BR SCT016 OVC040 17/16 Q1012 NOSIG
ZBSJ,2015-09-05 14:00,ZBSJ 051400Z 05004MPS 4000 -RA BR OVC040 17/16 Q1012 NOSIG
ZBSJ,2015-09-05 15:00,ZBSJ 051500Z 04002MPS 350V080 4000 -RA BR OVC040 17/16 Q1012 NOSIG
ZBSJ,2015-09-05 16:00,ZBSJ 051600Z 04002MPS 350V090 4000 -RA BR OVC040 17/16 Q1012 NOSIG
ZBSJ,2015-09-05 17:00,ZBSJ 051700Z 03002MPS 360V070 4500 BR OVC040 17/16 Q1012 NOSIG
ZBSJ,2015-09-05 18:00,ZBSJ 051800Z 02002MPS 4500 BR OVC040 17/16 Q1012 NOSIG
ZBSJ,2015-09-05 19:00,ZBSJ 051900Z 35001MPS 4500 -RA BR OVC040 17/16 Q1012 NOSIG
ZBSJ,2015-09-05 20:00,ZBSJ 052000Z 32003MPS 4500 -DZ BR BKN026 OVC046 17/17 Q1012 NOSIG
ZBSJ,2015-09-05 21:00,ZBSJ 052100Z 33003MPS 4500 -RA BR BKN026 OVC046 17/17 Q1013 NOSIG
ZBSJ,2015-09-05 22:00,ZBSJ 052200Z 32003MPS 4500 -RA BR BKN026 OVC046 17/17 Q1013 NOSIG
ZBSJ,2015-09-05 23:00,ZBSJ 052300Z 33003MPS 4500 -RA BR OVC033 18/17 Q1014 NOSIG
ZBSJ,2015-09-06 00:00,ZBSJ 060000Z 31003MPS 8000 -RA OVC046 18/18 Q1014 NOSIG
ZBSJ,2015-09-06 01:00,ZBSJ 060100Z 31003MPS 9999 OVC046 19/18 Q1015 NOSIG
ZBSJ,2015-09-06 02:00,ZBSJ 060200Z 30003MPS 9999 OVC046 19/18 Q1015 NOSIG
ZBSJ,2015-09-06 03:00,ZBSJ 060300Z 30003MPS 9999 FEW010 OVC033 19/18 Q1015 NOSIG
ZBSJ,2015-09-06 04:00,ZBSJ 060400Z 30003MPS 9999 SCT040 20/18 Q1015 NOSIG
ZBSJ,2015-09-06 05:00,ZBSJ 060500Z 29004MPS CAVOK 22/19 Q1015 NOSIG
ZBSJ,2015-09-06 06:00,ZBSJ 060600Z 30004MPS CAVOK 23/19 Q1015 NOSIG
ZBSJ,2015-09-06 07:00,ZBSJ 060700Z 29004MPS 9999 FEW033 BKN046 23/19 Q1014 NOSIG
ZBSJ,2015-09-06 08:00,ZBSJ 060800Z 29005MPS 9999 FEW033 BKN046 24/18 Q1014 NOSIG
ZBSJ,2015-09-06 09:00,ZBSJ 060900Z 30004MPS 9999 FEW033 24/18 Q1014 NOSIG
ZBSJ,2015-09-06 10:00,ZBSJ 061000Z 28004MPS CAVOK 22/17 Q1014 NOSIG
ZBSJ,2015-09-06 11:00,ZBSJ 061100Z 27003MPS CAVOK 20/17 Q1014 NOSIG
ZBSJ,2015-09-06 12:00,ZBSJ 061200Z 28004MPS CAVOK 19/17 Q1014 NOSIG
ZBSJ,2015-09-06 13:00,ZBSJ 061300Z 29004MPS CAVOK 19/16 Q1014 NOSIG
ZBSJ,2015-09-06 14:00,ZBSJ 061400Z 28002MPS CAVOK 18/16 Q1014 NOSIG
ZBSJ,2015-09-06 15:00,ZBSJ 061500Z 28003MPS CAVOK 18/16 Q1014 NOSIG
ZBSJ,2015-09-06 16:00,ZBSJ 061600Z 28003MPS CAVOK 17/16 Q1014 NOSIG
ZBSJ,2015-09-06 17:00,ZBSJ 061700Z 29002MPS 6000 NSC 17/16 Q1014 NOSIG
ZBSJ,2015-09-06 18:00,ZBSJ 061800Z 20001MPS 4000 BR NSC 16/15 Q1014 NOSIG
ZBSJ,2015-09-06 19:00,ZBSJ 061900Z 00000MPS 4000 BR NSC 15/15 Q1014 NOSIG
ZBSJ,2015-09-06 20:00,ZBSJ 062000Z 33001MPS 3000 BR NSC 15/15 Q1014 NOSIG
ZBSJ,2015-09-06 21:00,ZBSJ 062100Z 32001MPS 3000 BR NSC 15/15 Q1014 NOSIG
ZBSJ,2015-09-06 22:00,ZBSJ 062200Z 16002MPS 1000 R33/0325N BR NSC 13/13 Q1015 NOSIG
ZBSJ,2015-09-06 23:00,ZBSJ 062300Z 17001MPS 1700 BR NSC 16/16 Q1015 NOSIG
ZBSJ,2015-09-07 00:00,ZBSJ 070000Z 18001MPS 4000 BR NSC 20/17 Q1015 NOSIG
ZBSJ,2015-09-07 01:00,ZBSJ 070100Z 23001MPS 6000 NSC 22/18 Q1015 NOSIG
ZBSJ,2015-09-07 02:00,ZBSJ 070200Z 25002MPS 200V290 8000 NSC 24/17 Q1015 NOSIG
ZBSJ,2015-09-07 03:00,ZBSJ 070300Z 20003MPS 170V240 CAVOK 25/17 Q1014 NOSIG
ZBSJ,2015-09-07 04:00,ZBSJ 070400Z 19003MPS 150V220 CAVOK 26/17 Q1014 NOSIG
ZBSJ,2015-09-07 05:00,ZBSJ 070500Z 20003MPS 150V240 CAVOK 27/18 Q1014 NOSIG
ZBSJ,2015-09-07 06:00,ZBSJ 070600Z 17003MPS 140V210 CAVOK 28/16 Q1013 NOSIG
ZBSJ,2015-09-07 07:00,ZBSJ 070700Z 19003MPS 160V280 CAVOK 28/15 Q1013 NOSIG
ZBSJ,2015-09-07 08:00,ZBSJ 070800Z 18003MPS 140V220 CAVOK 28/13 Q1013 NOSIG
ZBSJ,2015-09-07 09:00,ZBSJ 070900Z 14002MPS CAVOK 26/15 Q1013 NOSIG
ZBSJ,2015-09-07 10:00,ZBSJ 071000Z 14002MPS CAVOK 24/17 Q1013 NOSIG
ZBSJ,2015-09-07 11:00,ZBSJ 071100Z 16002MPS CAVOK 22/17 Q1013 NOSIG
ZBSJ,2015-09-07 12:00,ZBSJ 071200Z 13001MPS CAVOK 21/16 Q1014 NOSIG
ZBSJ,2015-09-07 13:00,ZBSJ 071300Z 10001MPS CAVOK 19/16 Q1014 NOSIG
ZBSJ,2015-09-07 14:00,ZBSJ 071400Z 17001MPS CAVOK 18/17 Q1014 NOSIG
ZBSJ,2015-09-07 15:00,ZBSJ 071500Z 09001MPS 8000 NSC 17/16 Q1014 NOSIG
ZBSJ,2015-09-07 16:00,ZBSJ 071600Z 15001MPS 8000 NSC 17/16 Q1014 NOSIG
ZBSJ,2015-09-07 17:00,ZBSJ 071700Z 16002MPS 8000 NSC 16/15 Q1014 NOSIG
ZBSJ,2015-09-07 18:00,ZBSJ 071800Z 26001MPS 7000 NSC 16/15 Q1014 NOSIG
ZBSJ,2015-09-07 19:00,ZBSJ 071900Z 36001MPS 7000 NSC 15/14 Q1014 NOSIG
ZBSJ,2015-09-07 20:00,ZBSJ 072000Z 16001MPS 6000 NSC 15/14 Q1014 NOSIG
ZBSJ,2015-09-07 21:00,ZBSJ 072100Z 22001MPS 6000 NSC 15/14 Q1014 NOSIG
ZBSJ,2015-09-07 22:00,ZBSJ 072200Z 30001MPS 3000 BR NSC 15/15 Q1015 NOSIG
ZBSJ,2015-09-07 23:00,ZBSJ 072300Z 00000MPS 2800 BR NSC 17/16 Q1015 BECMG TL2330 3500
ZBSJ,2015-09-08 00:00,ZBSJ 080000Z 36001MPS 2500 BR NSC 20/18 Q1015 BECMG 3500
ZBSJ,2015-09-08 01:00,ZBSJ 080100Z 32001MPS 4500 BR NSC 23/18 Q1015 NOSIG
ZBSJ,2015-09-08 02:00,ZBSJ 080200Z 25001MPS 5000 HZ NSC 25/18 Q1015 NOSIG
ZBSJ,2015-09-08 03:00,ZBSJ 080300Z 29001MPS 7000 NSC 26/18 Q1015 NOSIG
ZBSJ,2015-09-08 04:00,ZBSJ 080400Z 11001MPS 8000 NSC 27/16 Q1015 NOSIG
ZBSJ,2015-09-08 05:00,ZBSJ 080500Z 13002MPS 080V200 CAVOK 28/17 Q1014 NOSIG
ZBSJ,2015-09-08 06:00,ZBSJ 080600Z 12002MPS CAVOK 28/16 Q1014 NOSIG
ZBSJ,2015-09-08 07:00,ZBSJ 080700Z 12002MPS CAVOK 28/14 Q1014 NOSIG
ZBSJ,2015-09-08 08:00,ZBSJ 080800Z 11002MPS CAVOK 28/15 Q1013 NOSIG
ZBSJ,2015-09-08 09:00,ZBSJ 080900Z 16002MPS CAVOK 26/16 Q1014 NOSIG
ZBSJ,2015-09-08 10:00,ZBSJ 081000Z 04001MPS CAVOK 24/18 Q1014 NOSIG
ZBSJ,2015-09-08 11:00,ZBSJ 081100Z 03001MPS CAVOK 23/17 Q1015 NOSIG
ZBSJ,2015-09-08 12:00,ZBSJ 081200Z 05001MPS CAVOK 22/18 Q1015 NOSIG
ZBSJ,2015-09-08 13:00,ZBSJ 081300Z 09001MPS CAVOK 22/18 Q1016 NOSIG
ZBSJ,2015-09-08 14:00,ZBSJ 081400Z 36001MPS CAVOK 21/19 Q1016 NOSIG
ZBSJ,2015-09-08 15:00,ZBSJ 081500Z 33001MPS CAVOK 21/18 Q1016 NOSIG
ZBSJ,2015-09-08 16:00,ZBSJ 081600Z 30001MPS 7000 NSC 21/18 Q1016 NOSIG
ZBSJ,2015-09-08 17:00,ZBSJ 081700Z 33002MPS 6000 NSC 21/19 Q1016 NOSIG
ZBSJ,2015-09-08 18:00,ZBSJ 081800Z 33002MPS 5000 BR NSC 21/19 Q1016 NOSIG
ZBSJ,2015-09-08 19:00,ZBSJ 081900Z 32002MPS 5000 BR NSC 21/19 Q1016 NOSIG
ZBSJ,2015-09-08 20:00,ZBSJ 082000Z 33002MPS 5000 BR NSC 20/19 Q1016 NOSIG
ZBSJ,2015-09-08 21:00,ZBSJ 082100Z 33002MPS 3000 -RA BR OVC046 20/19 Q1017 NOSIG
ZBSJ,2015-09-08 22:00,ZBSJ 082200Z 28002MPS 2700 -RA BR OVC046 20/19 Q1017 NOSIG
ZBSJ,2015-09-08 23:00,ZBSJ 082300Z 30002MPS 2500 -RA BR OVC046 20/19 Q1018 BECMG TL2400 3000
ZBSJ,2015-09-09 00:00,ZBSJ 090000Z 31004MPS 2300 BR OVC046 21/19 Q1019 BECMG 3000
ZBSJ,2015-09-09 01:00,ZBSJ 090100Z 31003MPS 2500 BR NSC 22/19 Q1019 BECMG TL0230 3000
ZBSJ,2015-09-09 02:00,ZBSJ 090200Z 31005MPS 3500 BR NSC 23/19 Q1020 NOSIG
ZBSJ,2015-09-09 03:00,ZBSJ 090300Z 32004MPS 3500 HZ NSC 24/19 Q1019 NOSIG
ZBSJ,2015-09-09 04:00,ZBSJ 090400Z 32004MPS 3500 HZ NSC 24/18 Q1019 NOSIG
ZBSJ,2015-09-09 05:00,ZBSJ 090500Z 33003MPS 4500 HZ NSC 24/18 Q1019 NOSIG
ZBSJ,2015-09-09 06:00,ZBSJ 090600Z 34002MPS 300V030 4500 HZ NSC 24/19 Q1019 NOSIG
ZBSJ,2015-09-09 07:00,ZBSJ 090700Z 01002MPS 340V040 6000 OVC046 24/18 Q1019 NOSIG
ZBSJ,2015-09-09 08:00,ZBSJ 090800Z 36002MPS 6000 -RA OVC046 23/18 Q1019 NOSIG
ZBSJ,2015-09-09 09:00,ZBSJ 090900Z 33001MPS 6000 -RA OVC046 23/19 Q1019 NOSIG
ZBSJ,2015-09-09 10:00,ZBSJ 091000Z 33002MPS 3500 BR OVC046 22/19 Q1020 BECMG TL1120 2500 BR
ZBSJ,2015-09-09 11:00,ZBSJ 091100Z 33003MPS 3000 BR OVC046 22/20 Q1020 BECMG TL1120 2500 BR
ZBSJ,2015-09-09 12:00,ZBSJ 091200Z 33002MPS 3000 BR OVC046 21/20 Q1021 NOSIG
ZBSJ,2015-09-09 13:00,ZBSJ 091300Z 33002MPS 3500 BR OVC046 21/19 Q1021 NOSIG
ZBSJ,2015-09-09 14:00,ZBSJ 091400Z 31002MPS 3500 BR OVC046 21/19 Q1021 NOSIG
ZBSJ,2015-09-09 15:00,ZBSJ 091500Z 30002MPS 3500 BR OVC046 21/19 Q1021 NOSIG
ZBSJ,2015-09-09 16:00,ZBSJ 091600Z 33002MPS 3000 BR OVC046 21/19 Q1021 NOSIG
ZBSJ,2015-09-09 17:00,ZBSJ 091700Z 36002MPS 5000 BR OVC046 21/19 Q1021 NOSIG
ZBSJ,2015-09-09 18:00,ZBSJ 091800Z 01002MPS 7000 OVC046 21/18 Q1021 NOSIG
ZBSJ,2015-09-09 19:00,ZBSJ 091900Z 01002MPS 9999 OVC046 20/17 Q1021 NOSIG
ZBSJ,2015-09-09 20:00,ZBSJ 092000Z 02002MPS 340V050 9999 OVC046 20/17 Q1021 NOSIG
ZBSJ,2015-09-09 21:00,ZBSJ 092100Z 03001MPS 9999 OVC046 20/17 Q1021 NOSIG
ZBSJ,2015-09-09 22:00,ZBSJ 092200Z 04002MPS 9999 OVC046 19/18 Q1020 NOSIG
ZBSJ,2015-09-09 23:00,ZBSJ 092300Z 05003MPS 350V080 2500 -RA BR OVC046 18/18 Q1021 NOSIG
ZBSJ,2015-09-10 00:00,ZBSJ 100000Z 05004MPS 010V080 2000 -RA BR OVC046 17/17 Q1021 NOSIG
ZBSJ,2015-09-10 01:00,ZBSJ 100100Z 06003MPS 020V090 3500 -RA BR OVC040 17/16 Q1020 BECMG 2500 -RA BR
ZBSJ,2015-09-10 02:00,ZBSJ 100200Z 04003MPS 360V080 2800 -RA BR OVC040 17/16 Q1021 BECMG 3000
ZBSJ,2015-09-10 03:00,ZBSJ 100300Z 04004G09MPS 360V080 2500 -RA BR SCT030 OVC040 17/16 Q1021 BECMG 3000
ZBSJ,2015-09-10 04:00,ZBSJ 100400Z 06006MPS 5000 -RA BR SCT010 OVC040 17/16 Q1020 NOSIG
ZBSJ,2015-09-10 05:00,ZBSJ 100500Z 05005MPS 3500 -RA BR SCT016 OVC040 16/16 Q1019 NOSIG
ZBSJ,2015-09-10 06:00,ZBSJ 100600Z 05004MPS 010V080 3000 -RA BR SCT016 OVC040 16/15 Q1019 BECMG 2600 -RA BR
ZBSJ,2015-09-10 07:00,ZBSJ 100700Z 03004MPS 350V070 3000 -RA BR SCT016 OVC040 15/14 Q1019 BECMG 2600 -RA BR
ZBSJ,2015-09-10 08:00,ZBSJ 100800Z 02003MPS 340V070 6000 -RA SCT016 OVC040 15/14 Q1019 NOSIG
ZBSJ,2015-09-10 09:00,ZBSJ 100900Z 35003MPS 330V030 4000 -RA BR SCT016 OVC040 14/14 Q1019 NOSIG
ZBSJ,2015-09-10 10:00,ZBSJ 101000Z 35003MPS 5000 -RA BR SCT016 OVC040 14/13 Q1019 NOSIG
ZBSJ,2015-09-10 11:00,ZBSJ 101100Z 34003MPS 9999 -RA SCT016 OVC040 14/13 Q1019 NOSIG
ZBSJ,2015-09-10 12:00,ZBSJ 101200Z 36002MPS 320V020 9999 -RA SCT016 OVC040 14/13 Q1019 NOSIG
ZBSJ,2015-09-10 13:00,ZBSJ 101300Z 34002MPS 9999 -RA SCT016 OVC040 14/13 Q1020 NOSIG
ZBSJ,2015-09-10 14:00,ZBSJ 101400Z 35002MPS 320V020 9999 -RA OVC040 13/13 Q1020 NOSIG
ZBSJ,2015-09-10 15:00,ZBSJ 101500Z 36002MPS 6000 -RA SCT016 OVC033 13/13 Q1019 NOSIG
ZBSJ,2015-09-10 16:00,ZBSJ 101600Z 01002MPS 6000 -RA OVC033 13/13 Q1020 NOSIG
ZBSJ,2015-09-10 17:00,ZBSJ 101700Z 02001MPS 5000 -RA BR OVC033 13/13 Q1019 NOSIG
ZBSJ,2015-09-10 18:00,ZBSJ 101800Z 01001MPS 5000 BR OVC040 13/13 Q1018 NOSIG
ZBSJ,2015-09-10 19:00,ZBSJ 101900Z 36001MPS 5000 BR OVC040 13/13 Q1018 NOSIG
ZBSJ,2015-09-10 20:00,ZBSJ 102000Z 03001MPS 5000 BR OVC040 13/12 Q1018 NOSIG
ZBSJ,2015-09-10 21:00,ZBSJ 102100Z 02001MPS 5000 BR OVC040 13/13 Q1018 NOSIG
ZBSJ,2015-09-10 22:00,ZBSJ 102200Z 36001MPS 2700 BR OVC046 13/13 Q1018 NOSIG
ZBSJ,2015-09-10 23:00,ZBSJ 102300Z 00000MPS 4000 BR OVC046 14/13 Q1018 NOSIG
ZBSJ,2015-09-11 00:00,ZBSJ 110000Z 35001MPS 6000 OVC046 14/13 Q1018 NOSIG
ZBSJ,2015-09-11 01:00,ZBSJ 110100Z 07001MPS 7000 OVC046 16/13 Q1018 NOSIG
ZBSJ,2015-09-11 02:00,ZBSJ 110200Z 07001MPS 9999 OVC040 17/13 Q1018 NOSIG
ZBSJ,2015-09-11 03:00,ZBSJ 110300Z 03001MPS 9999 BKN040 17/13 Q1018 NOSIG
ZBSJ,2015-09-11 04:00,ZBSJ 110400Z 27002MPS 220V330 7000 NSC 17/13 Q1017 NOSIG
ZBSJ,2015-09-11 05:00,ZBSJ 110500Z 29002MPS 250V350 7000 NSC 19/14 Q1017 NOSIG
ZBSJ,2015-09-11 06:00,ZBSJ 110600Z 31002MPS 260V350 CAVOK 19/14 Q1016 NOSIG
ZBSJ,2015-09-11 07:00,ZBSJ 110700Z 27002MPS 230V300 CAVOK 20/14 Q1016 NOSIG
ZBSJ,2015-09-11 08:00,ZBSJ 110800Z 29002MPS CAVOK 21/14 Q1015 NOSIG
ZBSJ,2015-09-11 09:00,ZBSJ 110900Z 24001MPS CAVOK 21/14 Q1015 NOSIG
ZBSJ,2015-09-11 10:00,ZBSJ 111000Z 23002MPS 7000 NSC 20/15 Q1015 NOSIG
ZBSJ,2015-09-11 11:00,ZBSJ 111100Z 20002MPS 6000 NSC 18/15 Q1015 NOSIG
ZBSJ,2015-09-11 12:00,ZBSJ 111200Z 21002MPS 6000 NSC 17/14 Q1016 NOSIG
ZBSJ,2015-09-11 13:00,ZBSJ 111300Z 34002MPS 4000 -SHRA BR BKN040 17/16 Q1018 NOSIG
ZBSJ,2015-09-11 14:00,ZBSJ 111400Z 31001MPS 6000 NSC 17/15 Q1017 NOSIG
ZBSJ,2015-09-11 15:00,ZBSJ 111500Z 34004MPS CAVOK 16/13 Q1017 NOSIG
ZBSJ,2015-09-11 16:00,ZBSJ 111600Z 32005MPS CAVOK 16/10 Q1017 NOSIG
ZBSJ,2015-09-11 17:00,ZBSJ 111700Z 30007MPS CAVOK 16/10 Q1017 NOSIG
ZBSJ,2015-09-11 18:00,ZBSJ 111800Z 34003MPS CAVOK 15/07 Q1018 NOSIG
ZBSJ,2015-09-11 19:00,ZBSJ 111900Z 33004MPS CAVOK 12/07 Q1019 NOSIG
ZBSJ,2015-09-11 20:00,ZBSJ 112000Z 33003MPS CAVOK 12/06 Q1019 NOSIG
ZBSJ,2015-09-11 21:00,ZBSJ 112100Z 33004MPS CAVOK 12/06 Q1020 NOSIG
ZBSJ,2015-09-11 22:00,ZBSJ 112200Z 31004MPS CAVOK 12/06 Q1020 NOSIG
ZBSJ,2015-09-11 23:00,ZBSJ 112300Z 31003MPS 270V330 CAVOK 14/07 Q1021 NOSIG
ZBSJ,2015-09-12 00:00,ZBSJ 120000Z 30004MPS CAVOK 19/08 Q1021 NOSIG
ZBSJ,2015-09-12 01:00,ZBSJ 120100Z 31005MPS CAVOK 21/08 Q1022 NOSIG
ZBSJ,2015-09-12 02:00,ZBSJ 120200Z 32006MPS CAVOK 23/07 Q1022 NOSIG
ZBSJ,2015-09-12 03:00,ZBSJ 120300Z 32004MPS 290V360 CAVOK 24/07 Q1021 NOSIG
ZBSJ,2015-09-12 04:00,ZBSJ 120400Z 33003MPS 270V030 CAVOK 24/05 Q1020 NOSIG
ZBSJ,2015-09-12 05:00,ZBSJ 120500Z 34002MPS 260V030 CAVOK 25/06 Q1020 NOSIG
ZBSJ,2015-09-12 06:00,ZBSJ 120600Z 31003MPS 240V360 CAVOK 26/07 Q1019 NOSIG
ZBSJ,2015-09-12 07:00,ZBSJ 120700Z 26004MPS 230V300 CAVOK 26/07 Q1018 NOSIG
ZBSJ,2015-09-12 08:00,ZBSJ 120800Z 25004MPS 210V290 CAVOK 25/07 Q1017 NOSIG
ZBSJ,2015-09-12 09:00,ZBSJ 120900Z 24003MPS 210V290 CAVOK 25/07 Q1017 NOSIG
ZBSJ,2015-09-12 10:00,ZBSJ 121000Z 26003MPS 240V300 CAVOK 24/08 Q1016 NOSIG
ZBSJ,2015-09-12 11:00,ZBSJ 121100Z 22003MPS 200V320 CAVOK 20/10 Q1017 NOSIG
ZBSJ,2015-09-12 12:00,ZBSJ 121200Z 20003MPS 160V220 CAVOK 19/09 Q1017 NOSIG
ZBSJ,2015-09-12 13:00,ZBSJ 121300Z 21003MPS 190V260 CAVOK 19/09 Q1018 NOSIG
ZBSJ,2015-09-12 14:00,ZBSJ 121400Z 21004MPS CAVOK 18/08 Q1018 NOSIG
ZBSJ,2015-09-12 15:00,ZBSJ 121500Z 21004MPS CAVOK 18/08 Q1018 NOSIG
ZBSJ,2015-09-12 16:00,ZBSJ 121600Z 25002MPS 220V280 CAVOK 15/09 Q1018 NOSIG
ZBSJ,2015-09-12 17:00,ZBSJ 121700Z 28003MPS CAVOK 16/09 Q1018 NOSIG
ZBSJ,2015-09-12 18:00,ZBSJ 121800Z 30003MPS CAVOK 15/11 Q1018 NOSIG
ZBSJ,2015-09-12 19:00,ZBSJ 121900Z 28002MPS CAVOK 15/10 Q1018 NOSIG
ZBSJ,2015-09-12 20:00,ZBSJ 122000Z 31002MPS CAVOK 14/10 Q1018 NOSIG
ZBSJ,2015-09-12 21:00,ZBSJ 122100Z 33002MPS CAVOK 12/09 Q1018 NOSIG
ZBSJ,2015-09-12 22:00,ZBSJ 122200Z 32003MPS 7000 NSC 12/10 Q1018 NOSIG
ZBSJ,2015-09-12 23:00,ZBSJ 122300Z 28002MPS 7000 NSC 15/11 Q1018 NOSIG
ZBSJ,2015-09-13 00:00,ZBSJ 130000Z 27002MPS 7000 NSC 18/11 Q1018 NOSIG
ZBSJ,2015-09-13 01:00,ZBSJ 130100Z 27003MPS 190V290 CAVOK 21/12 Q1018 NOSIG
ZBSJ,2015-09-13 02:00,ZBSJ 130200Z 27004MPS 230V310 CAVOK 24/11 Q1019 NOSIG
ZBSJ,2015-09-13 03:00,ZBSJ 130300Z 27003MPS 230V310 CAVOK 27/11 Q1018 NOSIG
ZBSJ,2015-09-13 04:00,ZBSJ 130400Z 25002MPS 190V340 CAVOK 28/10 Q1018 NOSIG
ZBSJ,2015-09-13 05:00,ZBSJ 130500Z 23002MPS 190V260 CAVOK 28/10 Q1017 NOSIG
ZBSJ,2015-09-13 06:00,ZBSJ 130600Z 20003MPS CAVOK 29/10 Q1016 NOSIG
ZBSJ,2015-09-13 07:00,ZBSJ 130700Z 19004MPS 160V230 CAVOK 29/11 Q1016 NOSIG
ZBSJ,2015-09-13 08:00,ZBSJ 130800Z 17003MPS CAVOK 26/13 Q1015 NOSIG
ZBSJ,2015-09-13 09:00,ZBSJ 130900Z 16002MPS CAVOK 24/17 Q1015 NOSIG
ZBSJ,2015-09-13 10:00,ZBSJ 131000Z 15002MPS CAVOK 23/16 Q1015 NOSIG
ZBSJ,2015-09-13 11:00,ZBSJ 131100Z 17002MPS CAVOK 19/15 Q1015 NOSIG
ZBSJ,2015-09-13 12:00,ZBSJ 131200Z 17002MPS CAVOK 18/15 Q1016 NOSIG
ZBSJ,2015-09-13 13:00,ZBSJ 131300Z 16002MPS CAVOK 17/14 Q1016 NOSIG
ZBSJ,2015-09-13 14:00,ZBSJ 131400Z 16002MPS 7000 NSC 17/14 Q1016 NOSIG
ZBSJ,2015-09-13 15:00,ZBSJ 131500Z 15003MPS 6000 NSC 16/13 Q1016 NOSIG
ZBSJ,2015-09-13 16:00,ZBSJ 131600Z 15002MPS 6000 NSC 16/13 Q1016 NOSIG
ZBSJ,2015-09-13 17:00,ZBSJ 131700Z 17002MPS 6000 NSC 15/13 Q1016 NOSIG
ZBSJ,2015-09-13 18:00,ZBSJ 131800Z 17001MPS 6000 NSC 15/13 Q1016 NOSIG
ZBSJ,2015-09-13 19:00,ZBSJ 131900Z 13001MPS 6000 NSC 14/13 Q1016 NOSIG
ZBSJ,2015-09-13 20:00,ZBSJ 132000Z 25001MPS 5000 BR NSC 14/13 Q1016 NOSIG
ZBSJ,2015-09-13 21:00,ZBSJ 132100Z 24001MPS 4500 BR NSC 13/13 Q1017 NOSIG
ZBSJ,2015-09-13 22:00,ZBSJ 132200Z 24001MPS 3000 BR NSC 14/13 Q1017 NOSIG
ZBSJ,2015-09-13 23:00,ZBSJ 132300Z 34003MPS 2000 BR NSC 15/14 Q1018 BECMG TL2330 3000
ZBSJ,2015-09-14 00:00,ZBSJ 140000Z 15002MPS 120V200 2000 BR NSC 17/16 Q1019 BECMG TL0130 3000
ZBSJ,2015-09-14 01:00,ZBSJ 140100Z 16001MPS 3000 BR NSC 18/15 Q1019 NOSIG
ZBSJ,2015-09-14 02:00,ZBSJ 140200Z 14001MPS 4000 HZ NSC 20/15 Q1019 NOSIG
ZBSJ,2015-09-14 03:00,ZBSJ 140300Z 13001MPS 5000 HZ NSC 20/15 Q1019 NOSIG
ZBSJ,2015-09-14 04:00,ZBSJ 140400Z 11002MPS 3000 HZ NSC 24/16 Q1019 NOSIG
ZBSJ,2015-09-14 05:00,ZBSJ 140500Z 13002MPS 090V180 4000 HZ NSC 25/16 Q1018 NOSIG
ZBSJ,2015-09-14 06:00,ZBSJ 140600Z 16004MPS 120V190 6000 NSC 27/17 Q1017 NOSIG
ZBSJ,2015-09-14 07:00,ZBSJ 140700Z 15004MPS 110V180 8000 NSC 26/15 Q1017 NOSIG
ZBSJ,2015-09-14 08:00,ZBSJ 140800Z 15003MPS CAVOK 26/15 Q1017 NOSIG
ZBSJ,2015-09-14 09:00,ZBSJ 140900Z 14003MPS CAVOK 25/14 Q1017 NOSIG
ZBSJ,2015-09-14 10:00,ZBSJ 141000Z 12002MPS CAVOK 23/15 Q1017 NOSIG
ZBSJ,2015-09-14 11:00,ZBSJ 141100Z 08002MPS CAVOK 20/15 Q1018 NOSIG
ZBSJ,2015-09-14 12:00,ZBSJ 141200Z 10002MPS CAVOK 19/15 Q1018 NOSIG
ZBSJ,2015-09-14 13:00,ZBSJ 141300Z 10002MPS CAVOK 18/14 Q1019 NOSIG
ZBSJ,2015-09-14 14:00,ZBSJ 141400Z 09001MPS CAVOK 15/14 Q1019 NOSIG
ZBSJ,2015-09-14 15:00,ZBSJ 141500Z 09002MPS 7000 NSC 16/13 Q1019 NOSIG
ZBSJ,2015-09-14 16:00,ZBSJ 141600Z 09001MPS 6000 NSC 13/12 Q1020 NOSIG
ZBSJ,2015-09-14 17:00,ZBSJ 141700Z 11001MPS 5000 HZ NSC 13/12 Q1020 NOSIG
ZBSJ,2015-09-14 18:00,ZBSJ 141800Z 00000MPS 4000 BR NSC 14/13 Q1020 NOSIG
ZBSJ,2015-09-14 19:00,ZBSJ 141900Z 33002MPS 3500 BR NSC 14/13 Q1020 NOSIG
ZBSJ,2015-09-14 20:00,ZBSJ 142000Z 33001MPS 3500 BR NSC 14/13 Q1020 NOSIG
ZBSJ,2015-09-14 21:00,ZBSJ 142100Z 05001MPS 3000 BR NSC 12/11 Q1020 NOSIG
ZBSJ,2015-09-14 22:00,ZBSJ 142200Z 27001MPS 2000 BR NSC 12/12 Q1020 NOSIG
ZBSJ,2015-09-14 23:00,ZBSJ 142300Z 33002MPS 1800 BR NSC 14/13 Q1021 BECMG 3000
ZBSJ,2015-09-15 00:00,ZBSJ 150000Z 34002MPS 1600 R33/1300N BR NSC 16/15 Q1021 BECMG 3000
ZBSJ,2015-09-15 01:00,ZBSJ 150100Z 35001MPS 2000 BR NSC 19/14 Q1021 BECMG TL0230 3000
ZBSJ,2015-09-15 02:00,ZBSJ 150200Z 35001MPS 2700 HZ NSC 21/14 Q1021 BECMG TL0330 3000
ZBSJ,2015-09-15 03:00,ZBSJ 150300Z 17001MPS 3500 HZ NSC 24/14 Q1021 NOSIG
ZBSJ,2015-09-15 04:00,ZBSJ 150400Z 15002MPS 4000 HZ NSC 25/16 Q1020 NOSIG
ZBSJ,2015-09-15 05:00,ZBSJ 150500Z 16003MPS 110V220 8000 FEW033 26/12 Q1019 NOSIG
ZBSJ,2015-09-15 06:00,ZBSJ 150600Z 12002MPS 040V180 8000 FEW033 26/13 Q1019 NOSIG
ZBSJ,2015-09-15 07:00,ZBSJ 150700Z 12002MPS 090V150 7000 BKN033 26/14 Q1018 NOSIG
ZBSJ,2015-09-15 08:00,ZBSJ 150800Z 17002MPS 7000 BKN033 26/14 Q1018 NOSIG
ZBSJ,2015-09-15 09:00,ZBSJ 150900Z 13001MPS 8000 NSC 25/15 Q1018 NOSIG
ZBSJ,2015-09-15 10:00,ZBSJ 151000Z 15001MPS 8000 NSC 22/16 Q1018 NOSIG
ZBSJ,2015-09-15 11:00,ZBSJ 151100Z 15001MPS 7000 NSC 19/15 Q1018 NOSIG
ZBSJ,2015-09-15 12:00,ZBSJ 151200Z 08001MPS 5000 BR NSC 17/15 Q1018 NOSIG
ZBSJ,2015-09-15 13:00,ZBSJ 151300Z 07001MPS 4500 BR NSC 16/14 Q1019 NOSIG
ZBSJ,2015-09-15 14:00,ZBSJ 151400Z 00000MPS 3500 BR NSC 15/14 Q1019 BECMG TL1430 2500 BR
ZBSJ,2015-09-15 15:00,ZBSJ 151500Z 22001MPS 4000 BR NSC 15/14 Q1019 BECMG 2500 BR
ZBSJ,2015-09-15 16:00,ZBSJ 151600Z 28001MPS 3500 BR NSC 15/15 Q1019 BECMG 2500 BR
ZBSJ,2015-09-15 17:00,ZBSJ 151700Z 32002MPS 2500 BR NSC 16/14 Q1019 NOSIG
ZBSJ,2015-09-15 18:00,ZBSJ 151800Z 27002MPS 2500 BR NSC 15/14 Q1019 NOSIG
ZBSJ,2015-09-15 19:00,ZBSJ 151900Z 32002MPS 2500 BR NSC 15/14 Q1019 NOSIG
ZBSJ,2015-09-15 20:00,ZBSJ 152000Z 32002MPS 2500 BR NSC 14/13 Q1019 NOSIG
ZBSJ,2015-09-15 21:00,ZBSJ 152100Z 27001MPS 2500 BR NSC 15/13 Q1019 NOSIG
ZBSJ,2015-09-15 22:00,ZBSJ 152200Z 31002MPS 2000 BR NSC 14/13 Q1018 NOSIG
ZBSJ,2015-09-15 23:00,ZBSJ 152300Z 34002MPS 1500 BR NSC 15/14 Q1018 NOSIG
ZBSJ,2015-09-16 00:00,ZBSJ 160000Z 33002MPS 2000 BR NSC 18/16 Q1019 NOSIG
ZBSJ,2015-09-16 01:00,ZBSJ 160100Z 29003MPS 2700 HZ NSC 20/15 Q1019 BECMG TL0130 3000
ZBSJ,2015-09-16 02:00,ZBSJ 160200Z 32002MPS 5000 HZ NSC 23/16 Q1020 NOSIG
ZBSJ,2015-09-16 03:00,ZBSJ 160300Z 02001MPS 5000 HZ NSC 24/15 Q1019 NOSIG
ZBSJ,2015-09-16 04:00,ZBSJ 160400Z 17003MPS 120V220 4500 HZ NSC 25/16 Q1019 NOSIG
ZBSJ,2015-09-16 05:00,ZBSJ 160500Z 19003MPS 140V240 4000 HZ NSC 26/17 Q1018 NOSIG
ZBSJ,2015-09-16 06:00,ZBSJ 160600Z 18003MPS 120V230 4500 HZ NSC 27/16 Q1017 NOSIG
ZBSJ,2015-09-16 07:00,ZBSJ 160700Z 17002MPS 4500 HZ NSC 27/16 Q1017 NOSIG
ZBSJ,2015-09-16 08:00,ZBSJ 160800Z 17002MPS 5000 HZ NSC 26/17 Q1017 NOSIG
ZBSJ,2015-09-16 09:00,ZBSJ 160900Z 12001MPS 5000 HZ NSC 25/18 Q1017 NOSIG
ZBSJ,2015-09-16 10:00,ZBSJ 161000Z 10001MPS 3000 HZ NSC 23/18 Q1016 BECMG 2000 HZ
ZBSJ,2015-09-16 11:00,ZBSJ 161100Z 10001MPS 4000 BR NSC 20/18 Q1017 NOSIG
ZBSJ,2015-09-16 12:00,ZBSJ 161200Z 04001MPS 3000 BR NSC 19/18 Q1017 BECMG TL1230 2500 HZ
ZBSJ,2015-09-16 13:00,ZBSJ 161300Z 05001MPS 2700 BR NSC 19/17 Q1018 BECMG TL1330 3000
ZBSJ,2015-09-16 14:00,ZBSJ 161400Z 03001MPS 3000 BR NSC 18/17 Q1018 NOSIG
ZBSJ,2015-09-16 15:00,ZBSJ 161500Z 03001MPS 3000 BR NSC 17/16 Q1018 BECMG 2000 HZ
ZBSJ,2015-09-16 16:00,ZBSJ 161600Z 34001MPS 2300 BR NSC 18/17 Q1018 NOSIG
ZBSJ,2015-09-16 17:00,ZBSJ 161700Z 34001MPS 2000 BR NSC 17/16 Q1018 NOSIG
ZBSJ,2015-09-16 18:00,ZBSJ 161800Z 32002MPS 2200 BR NSC 17/16 Q1018 NOSIG
ZBSJ,2015-09-16 19:00,ZBSJ 161900Z 33002MPS 1400 R33/P2000N BR NSC 17/16 Q1018 NOSIG
ZBSJ,2015-09-16 20:00,ZBSJ 162000Z 31002MPS 1800 BR NSC 16/15 Q1017 NOSIG
ZBSJ,2015-09-16 21:00,ZBSJ 162100Z 30001MPS 1800 BR NSC 16/16 Q1017 NOSIG
ZBSJ,2015-09-16 22:00,ZBSJ 162200Z 34002MPS 1600 BR NSC 16/15 Q1017 NOSIG
ZBSJ,2015-09-16 23:00,ZBSJ 162300Z 00000MPS 1600 BR NSC 16/15 Q1018 NOSIG
ZBSJ,2015-09-17 00:00,ZBSJ 170000Z 34002MPS 1600 R33/1300N BR NSC 18/17 Q1018 BECMG 3000
ZBSJ,2015-09-17 01:00,ZBSJ 170100Z 31002MPS 1600 BR NSC 21/17 Q1018 BECMG 3000
ZBSJ,2015-09-17 02:00,ZBSJ 170200Z 29001MPS 2200 HZ NSC 24/18 Q1018 BECMG 3000
ZBSJ,2015-09-17 03:00,ZBSJ 170300Z 30001MPS 3000 HZ NSC 25/17 Q1018 NOSIG
ZBSJ,2015-09-17 04:00,ZBSJ 170400Z 19001MPS 3000 HZ NSC 27/18 Q1017 NOSIG
ZBSJ,2015-09-17 05:00,ZBSJ 170500Z 08001MPS 4000 HZ NSC 27/17 Q1016 NOSIG
ZBSJ,2015-09-17 06:00,ZBSJ 170600Z 18001MPS 4000 HZ NSC 28/18 Q1016 NOSIG
ZBSJ,2015-09-17 07:00,ZBSJ 170700Z 18003MPS 130V220 3500 HZ NSC 28/18 Q1015 NOSIG
ZBSJ,2015-09-17 08:00,ZBSJ 170800Z 16003MPS 3000 HZ NSC 28/18 Q1015 NOSIG
ZBSJ,2015-09-17 09:00,ZBSJ 170900Z 17002MPS 120V190 4000 HZ NSC 27/18 Q1015 NOSIG
ZBSJ,2015-09-17 10:00,ZBSJ 171000Z 22001MPS 4000 HZ NSC 24/19 Q1015 NOSIG
ZBSJ,2015-09-17 11:00,ZBSJ 171100Z 05001MPS 4000 HZ NSC 21/18 Q1016 NOSIG
ZBSJ,2015-09-17 12:00,ZBSJ 171200Z 06002MPS 3000 BR NSC 21/18 Q1016 NOSIG
ZBSJ,2015-09-17 13:00,ZBSJ 171300Z 04001MPS 3000 BR NSC 20/18 Q1016 NOSIG
ZBSJ,2015-09-17 14:00,ZBSJ 171400Z 03001MPS 2300 BR NSC 19/18 Q1017 NOSIG
ZBSJ,2015-09-17 15:00,ZBSJ 171500Z 34002MPS 2300 BR NSC 19/18 Q1017 NOSIG
ZBSJ,2015-09-17 16:00,ZBSJ 171600Z 35002MPS 3000 BR NSC 20/18 Q1017 NOSIG
ZBSJ,2015-09-17 17:00,ZBSJ 171700Z 33002MPS 3500 BR NSC 19/18 Q1016 NOSIG
ZBSJ,2015-09-17 18:00,ZBSJ 171800Z 33002MPS 3000 BR NSC 20/19 Q1016 NOSIG
ZBSJ,2015-09-17 19:00,ZBSJ 171900Z 33003MPS 3000 BR NSC 20/18 Q1016 NOSIG
ZBSJ,2015-09-17 20:00,ZBSJ 172000Z 31005MPS 3000 -RA BR OVC046 20/19 Q1017 NOSIG
ZBSJ,2015-09-17 21:00,ZBSJ 172100Z 32002MPS 2500 -RA BR OVC046 19/19 Q1017 NOSIG
ZBSJ,2015-09-17 22:00,ZBSJ 172200Z 30003MPS 2000 BR OVC046 20/19 Q1017 NOSIG
ZBSJ,2015-09-17 23:00,ZBSJ 172300Z 32003MPS 1200 R33/1300N BR OVC046 20/19 Q1017 BECMG 1600
ZBSJ,2015-09-18 00:00,ZBSJ 180000Z 32003MPS 1200 R33/1200N BR FEW046 21/20 Q1017 BECMG 1600
ZBSJ,2015-09-18 01:00,ZBSJ 180100Z 32002MPS 1500 R33/1300U BR NSC 24/20 Q1018 BECMG 3000
ZBSJ,2015-09-18 02:00,ZBSJ 180200Z 33001MPS 3000 HZ NSC 25/20 Q1018 NOSIG
ZBSJ,2015-09-18 03:00,ZBSJ 180300Z 30002MPS 250V010 CAVOK 27/18 Q1018 NOSIG
ZBSJ,2015-09-18 04:00,ZBSJ 180400Z 30001MPS CAVOK 28/18 Q1017 NOSIG
ZBSJ,2015-09-18 05:00,ZBSJ 180500Z 10001MPS CAVOK 29/17 Q1017 NOSIG
ZBSJ,2015-09-18 06:00,ZBSJ 180600Z 31001MPS CAVOK 29/18 Q1016 NOSIG
ZBSJ,2015-09-18 07:00,ZBSJ 180700Z 08002MPS CAVOK 29/17 Q1016 NOSIG
ZBSJ,2015-09-18 08:00,ZBSJ 180800Z 13002MPS CAVOK 29/17 Q1015 NOSIG
ZBSJ,2015-09-18 09:00,ZBSJ 180900Z 12001MPS CAVOK 29/18 Q1015 NOSIG
ZBSJ,2015-09-18 10:00,ZBSJ 181000Z 13001MPS CAVOK 25/19 Q1015 NOSIG
ZBSJ,2015-09-18 11:00,ZBSJ 181100Z 16001MPS 8000 NSC 21/19 Q1016 NOSIG
ZBSJ,2015-09-18 12:00,ZBSJ 181200Z 07001MPS 6000 NSC 20/18 Q1016 NOSIG
ZBSJ,2015-09-18 13:00,ZBSJ 181300Z 03001MPS 6000 NSC 19/17 Q1017 NOSIG
ZBSJ,2015-09-18 14:00,ZBSJ 181400Z 08001MPS 4000 BR NSC 18/17 Q1017 NOSIG
ZBSJ,2015-09-18 15:00,ZBSJ 181500Z 00000MPS 4000 BR NSC 18/17 Q1017 NOSIG
ZBSJ,2015-09-18 16:00,ZBSJ 181600Z 00000MPS 4000 BR NSC 17/17 Q1017 NOSIG
ZBSJ,2015-09-18 17:00,ZBSJ 181700Z 32002MPS 4000 BR NSC 18/17 Q1018 NOSIG
ZBSJ,2015-09-18 18:00,ZBSJ 181800Z 31002MPS 4000 BR NSC 18/17 Q1018 NOSIG
ZBSJ,2015-09-18 19:00,ZBSJ 181900Z 29002MPS 4000 BR NSC 17/16 Q1017 NOSIG
ZBSJ,2015-09-18 20:00,ZBSJ 182000Z 32002MPS 4000 BR NSC 17/16 Q1017 NOSIG
ZBSJ,2015-09-18 21:00,ZBSJ 182100Z 29002MPS 5000 BR NSC 17/16 Q1018 NOSIG
ZBSJ,2015-09-18 22:00,ZBSJ 182200Z 32002MPS 4000 BR NSC 16/15 Q1018 NOSIG
ZBSJ,2015-09-18 23:00,ZBSJ 182300Z 33003MPS 4000 BR NSC 17/16 Q1018 NOSIG
ZBSJ,2015-09-19 00:00,ZBSJ 190000Z 31003MPS 4000 BR NSC 20/17 Q1019 NOSIG
ZBSJ,2015-09-19 01:00,ZBSJ 190100Z 32003MPS 5000 HZ NSC 23/17 Q1019 NOSIG
ZBSJ,2015-09-19 02:00,ZBSJ 190200Z 01002MPS 4000 HZ NSC 24/17 Q1019 NOSIG
ZBSJ,2015-09-19 03:00,ZBSJ 190300Z 06002MPS 020V130 4000 HZ NSC 26/17 Q1018 NOSIG
ZBSJ,2015-09-19 04:00,ZBSJ 190400Z 07002MPS 5000 HZ NSC 27/17 Q1018 NOSIG
ZBSJ,2015-09-19 05:00,ZBSJ 190500Z 06002MPS 5000 HZ NSC 28/16 Q1017 NOSIG
ZBSJ,2015-09-19 06:00,ZBSJ 190600Z 15002MPS 5000 HZ NSC 28/17 Q1016 NOSIG
ZBSJ,2015-09-19 07:00,ZBSJ 190700Z 09001MPS 6000 NSC 28/15 Q1015 NOSIG
ZBSJ,2015-09-19 08:00,ZBSJ 190800Z 13002MPS 6000 NSC 28/17 Q1014 NOSIG
ZBSJ,2015-09-19 09:00,ZBSJ 190900Z 10001MPS 6000 NSC 28/17 Q1014 NOSIG
ZBSJ,2015-09-19 10:00,ZBSJ 191000Z 09002MPS 4500 HZ NSC 25/18 Q1014 NOSIG
ZBSJ,2015-09-19 11:00,ZBSJ 191100Z 10002MPS 5000 HZ NSC 23/18 Q1014 NOSIG
ZBSJ,2015-09-19 12:00,ZBSJ 191200Z 12001MPS 4500 BR NSC 20/18 Q1015 NOSIG
ZBSJ,2015-09-19 13:00,ZBSJ 191300Z 17001MPS 4000 BR NSC 21/18 Q1015 NOSIG
ZBSJ,2015-09-19 14:00,ZBSJ 191400Z 07002MPS 3500 BR NSC 19/18 Q1015 BECMG TL1530 2500 BR
ZBSJ,2015-09-19 15:00,ZBSJ 191500Z 13001MPS 3000 BR NSC 20/17 Q1015 BECMG TL1530 2500 BR
ZBSJ,2015-09-19 16:00,ZBSJ 191600Z 10001MPS 2500 BR NSC 17/17 Q1015 NOSIG
ZBSJ,2015-09-19 17:00,ZBSJ 191700Z 08001MPS 2500 BR NSC 17/16 Q1015 NOSIG
ZBSJ,2015-09-19 18:00,ZBSJ 191800Z 00000MPS 2500 BR NSC 17/16 Q1014 NOSIG
ZBSJ,2015-09-19 19:00,ZBSJ 191900Z 08001MPS 2000 BR NSC 16/16 Q1014 NOSIG
ZBSJ,2015-09-19 20:00,ZBSJ 192000Z 19001MPS 2000 BR NSC 17/16 Q1014 NOSIG
ZBSJ,2015-09-19 21:00,ZBSJ 192100Z 24002MPS 2000 BR NSC 18/17 Q1014 NOSIG
ZBSJ,2015-09-19 22:00,ZBSJ 192200Z 29001MPS 2000 BR NSC 17/17 Q1014 NOSIG
ZBSJ,2015-09-19 23:00,ZBSJ 192300Z 19001MPS 1400 R15/1500N BR NSC 18/17 Q1014 BECMG TL0030 1600
ZBSJ,2015-09-20 00:00,ZBSJ 200000Z 21001MPS 1600 BR NSC 19/18 Q1015 BECMG TL0130 3000
ZBSJ,2015-09-20 01:00,ZBSJ 200100Z 18002MPS 1400 R15/1300D BR NSC 20/19 Q1015 BECMG 1600
ZBSJ,2015-09-20 02:00,ZBSJ 200200Z 21002MPS 2000 BR NSC 22/18 Q1014 BECMG 3500
ZBSJ,2015-09-20 03:00,ZBSJ 200300Z 23002MPS 2700 HZ NSC 24/17 Q1014 BECMG TL0430 3500
ZBSJ,2015-09-20 04:00,ZBSJ 200400Z 20001MPS 3500 HZ NSC 26/17 Q1013 NOSIG
ZBSJ,2015-09-20 05:00,ZBSJ 200500Z 20003MPS 160V230 4000 HZ NSC 27/16 Q1012 NOSIG
ZBSJ,2015-09-20 06:00,ZBSJ 200600Z 18005MPS 5000 HZ NSC 28/16 Q1012 NOSIG
ZBSJ,2015-09-20 07:00,ZBSJ 200700Z 18004MPS 6000 NSC 28/16 Q1011 NOSIG
ZBSJ,2015-09-20 08:00,ZBSJ 200800Z 17004MPS 7000 NSC 28/16 Q1010 NOSIG
ZBSJ,2015-09-20 09:00,ZBSJ 200900Z 16004MPS CAVOK 27/15 Q1010 NOSIG
ZBSJ,2015-09-20 10:00,ZBSJ 201000Z 13002MPS CAVOK 24/16 Q1010 NOSIG
ZBSJ,2015-09-20 11:00,ZBSJ 201100Z 13002MPS CAVOK 21/16 Q1010 NOSIG
ZBSJ,2015-09-20 12:00,ZBSJ 201200Z 07001MPS 7000 NSC 19/16 Q1011 NOSIG
ZBSJ,2015-09-20 13:00,ZBSJ 201300Z 08001MPS 5000 BR NSC 18/15 Q1012 NOSIG
ZBSJ,2015-09-20 14:00,ZBSJ 201400Z 09001MPS 5000 BR NSC 17/15 Q1012 NOSIG
ZBSJ,2015-09-20 15:00,ZBSJ 201500Z 00000MPS 5000 BR NSC 16/15 Q1012 NOSIG
ZBSJ,2015-09-20 16:00,ZBSJ 201600Z 08002MPS 4000 BR NSC 16/14 Q1012 NOSIG
ZBSJ,2015-09-20 17:00,ZBSJ 201700Z 06001MPS 4000 BR NSC 16/14 Q1012 NOSIG
ZBSJ,2015-09-20 18:00,ZBSJ 201800Z 14002MPS 4000 BR NSC 16/14 Q1012 NOSIG
ZBSJ,2015-09-20 19:00,ZBSJ 201900Z 18001MPS 5000 BR NSC 16/14 Q1012 NOSIG
ZBSJ,2015-09-20 20:00,ZBSJ 202000Z 25001MPS 5000 BR NSC 15/14 Q1012 NOSIG
ZBSJ,2015-09-20 21:00,ZBSJ 202100Z 13001MPS 4000 BR NSC 15/14 Q1011 NOSIG
ZBSJ,2015-09-20 22:00,ZBSJ 202200Z 17001MPS 3000 BR NSC 14/13 Q1012 NOSIG
ZBSJ,2015-09-20 23:00,ZBSJ 202300Z 25001MPS 2000 BR NSC 16/15 Q1012 NOSIG
ZBSJ,2015-09-21 00:00,ZBSJ 210000Z 33001MPS 2000 BR NSC 18/16 Q1012 NOSIG
ZBSJ,2015-09-21 01:00,ZBSJ 210100Z 31001MPS 2000 HZ NSC 21/16 Q1012 BECMG TL0230 3500
ZBSJ,2015-09-21 02:00,ZBSJ 210200Z 34001MPS 2500 HZ NSC 23/16 Q1012 BECMG TL0300 3500
ZBSJ,2015-09-21 03:00,ZBSJ 210300Z 33001MPS 3500 HZ NSC 26/17 Q1012 NOSIG
ZBSJ,2015-09-21 04:00,ZBSJ 210400Z 03001MPS 3500 HZ NSC 26/16 Q1011 NOSIG
ZBSJ,2015-09-21 05:00,ZBSJ 210500Z 04001MPS 3500 HZ NSC 27/16 Q1010 NOSIG
ZBSJ,2015-09-21 06:00,ZBSJ 210600Z 15003MPS 100V200 3500 HZ NSC 28/17 Q1010 NOSIG
ZBSJ,2015-09-21 07:00,ZBSJ 210700Z 15003MPS 4000 HZ NSC 28/17 Q1009 NOSIG
ZBSJ,2015-09-21 08:00,ZBSJ 210800Z 15005MPS 6000 NSC 28/16 Q1008 NOSIG
ZBSJ,2015-09-21 09:00,ZBSJ 210900Z 14003MPS 6000 NSC 27/17 Q1008 NOSIG
ZBSJ,2015-09-21 10:00,ZBSJ 211000Z 11002MPS 4000 HZ NSC 24/18 Q1009 NOSIG
ZBSJ,2015-09-21 11:00,ZBSJ 211100Z 08002MPS 4500 HZ NSC 22/18 Q1009 NOSIG
ZBSJ,2015-09-21 12:00,ZBSJ 211200Z 09002MPS 4000 HZ NSC 21/18 Q1010 NOSIG
ZBSJ,2015-09-21 13:00,ZBSJ 211300Z 08002MPS 3500 BR NSC 21/18 Q1010 BECMG TL1430 2500 BR
ZBSJ,2015-09-21 14:00,ZBSJ 211400Z 08001MPS 3000 BR NSC 20/18 Q1011 NOSIG
ZBSJ,2015-09-21 15:00,ZBSJ 211500Z 36001MPS 2700 BR NSC 19/18 Q1011 NOSIG
ZBSJ,2015-09-21 16:00,ZBSJ 211600Z 11002MPS 2500 BR NSC 19/17 Q1010 NOSIG
ZBSJ,2015-09-21 17:00,ZBSJ 211700Z 15002MPS 3000 BR NSC 19/17 Q1010 NOSIG
ZBSJ,2015-09-21 18:00,ZBSJ 211800Z 16002MPS 3000 BR NSC 19/17 Q1010 NOSIG
ZBSJ,2015-09-21 19:00,ZBSJ 211900Z 17002MPS 2500 BR NSC 17/17 Q1010 NOSIG
ZBSJ,2015-09-21 20:00,ZBSJ 212000Z 21002MPS 2500 BR NSC 19/18 Q1010 NOSIG
ZBSJ,2015-09-21 21:00,ZBSJ 212100Z 18002MPS 2500 BR NSC 17/17 Q1010 NOSIG
ZBSJ,2015-09-21 22:00,ZBSJ 212200Z 19002MPS 2000 BR NSC 18/17 Q1010 NOSIG
ZBSJ,2015-09-21 23:00,ZBSJ 212300Z 20001MPS 1400 R15/1600D BR NSC 18/17 Q1010 NOSIG
ZBSJ,2015-09-22 00:00,ZBSJ 220000Z 15001MPS 1100 R15/1300D BR NSC 19/18 Q1009 NOSIG
ZBSJ,2015-09-22 01:00,ZBSJ 220100Z 22002MPS 1200 R15/1300N BR NSC 20/18 Q1009 BECMG 1600
ZBSJ,2015-09-22 02:00,ZBSJ 220200Z 31001MPS 1300 R15/1200N BR NSC 22/19 Q1010 BECMG TL0230 1600
ZBSJ,2015-09-22 03:00,ZBSJ 220300Z 10001MPS 1400 R15/1300U HZ NSC 24/19 Q1009 BECMG TL0330 1600
ZBSJ,2015-09-22 04:00,ZBSJ 220400Z 17004MPS 130V210 1800 HZ NSC 26/18 Q1009 NOSIG
ZBSJ,2015-09-22 05:00,ZBSJ 220500Z 20003MPS 160V230 2200 HZ NSC 25/18 Q1008 NOSIG
ZBSJ,2015-09-22 06:00,ZBSJ 220600Z 19003MPS 2500 HZ NSC 25/18 Q1008 NOSIG
ZBSJ,2015-09-22 07:00,ZBSJ 220700Z 21001MPS 2200 -RA HZ NSC 24/19 Q1008 NOSIG
ZBSJ,2015-09-22 08:00,ZBSJ 220800Z 21003MPS 2200 HZ NSC 25/18 Q1008 NOSIG
ZBSJ,2015-09-22 09:00,ZBSJ 220900Z 24002MPS 2500 HZ NSC 25/18 Q1008 NOSIG
ZBSJ,2015-09-22 10:00,ZBSJ 221000Z 28004MPS 7000 NSC 24/17 Q1008 NOSIG
ZBSJ,2015-09-22 11:00,ZBSJ 221100Z 28002MPS 4500 BR NSC 23/18 Q1008 NOSIG
ZBSJ,2015-09-22 12:00,ZBSJ 221200Z 22002MPS 4000 BR NSC 22/18 Q1009 NOSIG
ZBSJ,2015-09-22 13:00,ZBSJ 221300Z 33001MPS 2500 BR NSC 21/19 Q1009 NOSIG
ZBSJ,2015-09-22 14:00,ZBSJ 221400Z 29001MPS 2500 BR NSC 21/19 Q1009 NOSIG
ZBSJ,2015-09-22 15:00,ZBSJ 221500Z 00000MPS 2300 BR NSC 19/18 Q1010 NOSIG
ZBSJ,2015-09-22 16:00,ZBSJ 221600Z 27002MPS 2300 BR NSC 20/18 Q1010 NOSIG
ZBSJ,2015-09-22 17:00,ZBSJ 221700Z 25001MPS 2500 BR NSC 18/17 Q1009 NOSIG
ZBSJ,2015-09-22 18:00,ZBSJ 221800Z 00000MPS 2500 BR NSC 17/16 Q1010 NOSIG
ZBSJ,2015-09-22 19:00,ZBSJ 221900Z 34003MPS 2500 BR NSC 17/16 Q1009 NOSIG
ZBSJ,2015-09-22 20:00,ZBSJ 222000Z 32003MPS 2300 BR NSC 16/16 Q1010 NOSIG
ZBSJ,2015-09-22 21:00,ZBSJ 222100Z 00000MPS 2300 BR NSC 15/15 Q1010 NOSIG
ZBSJ,2015-09-22 22:00,ZBSJ 222200Z 31001MPS 2000 BR NSC 15/15 Q1010 NOSIG
ZBSJ,2015-09-22 23:00,ZBSJ 222300Z 32001MPS 1700 R33/1400U BR NSC 15/15 Q1010 BECMG 3500
ZBSJ,2015-09-23 00:00,ZBSJ 230000Z 32001MPS 3000 BR NSC 19/17 Q1011 NOSIG
ZBSJ,2015-09-23 01:00,ZBSJ 230100Z 33002MPS 6000 NSC 20/16 Q1011 NOSIG
ZBSJ,2015-09-23 02:00,ZBSJ 230200Z 35001MPS 4000 HZ NSC 22/17 Q1011 NOSIG
ZBSJ,2015-09-23 03:00,ZBSJ 230300Z 30001MPS 8000 NSC 25/16 Q1010 NOSIG
ZBSJ,2015-09-23 04:00,ZBSJ 230400Z 28001MPS 8000 NSC 26/16 Q1010 NOSIG
ZBSJ,2015-09-23 05:00,ZBSJ 230500Z 32001MPS CAVOK 27/16 Q1009 NOSIG
ZBSJ,2015-09-23 06:00,ZBSJ 230600Z 16001MPS CAVOK 27/16 Q1008 NOSIG
ZBSJ,2015-09-23 07:00,ZBSJ 230700Z 13001MPS CAVOK 27/15 Q1008 NOSIG
ZBSJ,2015-09-23 08:00,ZBSJ 230800Z 11001MPS CAVOK 27/17 Q1008 NOSIG
ZBSJ,2015-09-23 09:00,ZBSJ 230900Z 14001MPS 8000 NSC 25/17 Q1008 NOSIG
ZBSJ,2015-09-23 10:00,ZBSJ 231000Z 16001MPS 8000 NSC 23/17 Q1008 NOSIG
ZBSJ,2015-09-23 11:00,ZBSJ 231100Z 15002MPS 7000 NSC 22/17 Q1008 NOSIG
ZBSJ,2015-09-23 12:00,ZBSJ 231200Z 14001MPS 5000 BR NSC 20/18 Q1009 NOSIG
ZBSJ,2015-09-23 13:00,ZBSJ 231300Z 10001MPS 4000 BR NSC 19/17 Q1009 NOSIG
ZBSJ,2015-09-23 14:00,ZBSJ 231400Z 10001MPS 5000 BR NSC 19/18 Q1010 NOSIG
ZBSJ,2015-09-23 15:00,ZBSJ 231500Z 12001MPS 4000 BR NSC 20/18 Q1010 NOSIG
ZBSJ,2015-09-23 16:00,ZBSJ 231600Z 16002MPS 4000 BR NSC 19/17 Q1010 NOSIG
ZBSJ,2015-09-23 17:00,ZBSJ 231700Z 25001MPS 3500 BR NSC 19/17 Q1009 NOSIG
ZBSJ,2015-09-23 18:00,ZBSJ 231800Z 25001MPS 3000 BR NSC 19/17 Q1009 NOSIG
ZBSJ,2015-09-23 19:00,ZBSJ 231900Z 21001MPS 2500 BR NSC 18/17 Q1009 NOSIG
ZBSJ,2015-09-23 20:00,ZBSJ 232000Z 28002MPS 2500 BR NSC 19/18 Q1009 NOSIG
ZBSJ,2015-09-23 21:00,ZBSJ 232100Z 25002MPS 3000 BR NSC 19/18 Q1009 NOSIG
ZBSJ,2015-09-23 22:00,ZBSJ 232200Z 00000MPS 3000 BR NSC 18/17 Q1009 NOSIG
ZBSJ,2015-09-23 23:00,ZBSJ 232300Z 27001MPS 2500 BR NSC 19/17 Q1010 BECMG TL0030 3000
ZBSJ,2015-09-24 00:00,ZBSJ 240000Z 29001MPS 3000 BR NSC 20/17 Q1010 NOSIG
ZBSJ,2015-09-24 01:00,ZBSJ 240100Z 34002MPS 7000 NSC 22/17 Q1010 NOSIG
ZBSJ,2015-09-24 02:00,ZBSJ 240200Z 04002MPS 3000 HZ NSC 23/18 Q1010 NOSIG
ZBSJ,2015-09-24 03:00,ZBSJ 240300Z 09001MPS 3000 HZ NSC 26/18 Q1010 NOSIG
ZBSJ,2015-09-24 04:00,ZBSJ 240400Z 07001MPS 4500 HZ NSC 28/18 Q1009 NOSIG
ZBSJ,2015-09-24 05:00,ZBSJ 240500Z 17002MPS 8000 NSC 28/16 Q1008 NOSIG
ZBSJ,2015-09-24 06:00,ZBSJ 240600Z 12002MPS 070V170 8000 NSC 29/16 Q1007 NOSIG
ZBSJ,2015-09-24 07:00,ZBSJ 240700Z 14003MPS 100V180 6000 NSC 29/17 Q1007 NOSIG
ZBSJ,2015-09-24 08:00,ZBSJ 240800Z 14004MPS 4000 HZ NSC 28/16 Q1006 NOSIG
ZBSJ,2015-09-24 09:00,ZBSJ 240900Z 15003MPS 4000 HZ NSC 27/17 Q1007 NOSIG
ZBSJ,2015-09-24 10:00,ZBSJ 241000Z 11002MPS 3500 HZ NSC 24/18 Q1007 NOSIG
ZBSJ,2015-09-24 11:00,ZBSJ 241100Z 12002MPS 4000 BR NSC 22/18 Q1007 NOSIG
ZBSJ,2015-09-24 12:00,ZBSJ 241200Z 12001MPS 3500 BR NSC 20/18 Q1008 NOSIG
ZBSJ,2015-09-24 13:00,ZBSJ 241300Z 12001MPS 3000 BR NSC 20/18 Q1008 NOSIG
ZBSJ,2015-09-24 14:00,ZBSJ 241400Z 08001MPS 3000 BR NSC 19/18 Q1008 NOSIG
ZBSJ,2015-09-24 15:00,ZBSJ 241500Z 10001MPS 2500 BR NSC 19/17 Q1008 NOSIG
ZBSJ,2015-09-24 16:00,ZBSJ 241600Z 01004MPS 7000 NSC 21/15 Q1009 BECMG AT1620 -TSRA
ZBSJ,2015-09-24 17:00,ZBSJ 241700Z 03002MPS 8000 NSC 19/15 Q1008 NOSIG
ZBSJ,2015-09-24 18:00,ZBSJ 241800Z 34002MPS CAVOK 17/15 Q1009 NOSIG
ZBSJ,2015-09-24 19:00,ZBSJ 241900Z 01001MPS CAVOK 16/15 Q1009 NOSIG
ZBSJ,2015-09-24 20:00,ZBSJ 242000Z 02001MPS 8000 NSC 15/15 Q1010 NOSIG
ZBSJ,2015-09-24 21:00,ZBSJ 242100Z 13001MPS 8000 NSC 15/14 Q1011 NOSIG
ZBSJ,2015-09-24 22:00,ZBSJ 242200Z 29001MPS 8000 NSC 14/13 Q1011 NOSIG
ZBSJ,2015-09-24 23:00,ZBSJ 242300Z 00000MPS 8000 NSC 15/14 Q1012 NOSIG
ZBSJ,2015-09-25 00:00,ZBSJ 250000Z 29001MPS 8000 NSC 20/16 Q1012 NOSIG
ZBSJ,2015-09-25 01:00,ZBSJ 250100Z 32002MPS CAVOK 23/16 Q1012 NOSIG
ZBSJ,2015-09-25 02:00,ZBSJ 250200Z 31001MPS CAVOK 24/14 Q1013 NOSIG
ZBSJ,2015-09-25 03:00,ZBSJ 250300Z 26002MPS CAVOK 25/14 Q1012 NOSIG
ZBSJ,2015-09-25 04:00,ZBSJ 250400Z 09001MPS CAVOK 27/11 Q1012 NOSIG
ZBSJ,2015-09-25 05:00,ZBSJ 250500Z 15002MPS CAVOK 28/10 Q1011 NOSIG
ZBSJ,2015-09-25 06:00,ZBSJ 250600Z 31001MPS CAVOK 28/07 Q1011 NOSIG
ZBSJ,2015-09-25 07:00,ZBSJ 250700Z 02001MPS CAVOK 28/08 Q1010 NOSIG
ZBSJ,2015-09-25 08:00,ZBSJ 250800Z 06001MPS CAVOK 28/09 Q1010 NOSIG
ZBSJ,2015-09-25 09:00,ZBSJ 250900Z 12002MPS CAVOK 27/11 Q1010 NOSIG
ZBSJ,2015-09-25 10:00,ZBSJ 251000Z 16002MPS CAVOK 23/13 Q1010 NOSIG
ZBSJ,2015-09-25 11:00,ZBSJ 251100Z 17002MPS CAVOK 20/12 Q1011 NOSIG
ZBSJ,2015-09-25 12:00,ZBSJ 251200Z 17002MPS CAVOK 19/13 Q1012 NOSIG
ZBSJ,2015-09-25 13:00,ZBSJ 251300Z 17002MPS CAVOK 16/13 Q1012 NOSIG
ZBSJ,2015-09-25 14:00,ZBSJ 251400Z 16001MPS CAVOK 18/11 Q1012 NOSIG
ZBSJ,2015-09-25 15:00,ZBSJ 251500Z 16001MPS CAVOK 15/12 Q1013 NOSIG
ZBSJ,2015-09-25 16:00,ZBSJ 251600Z 06001MPS 8000 NSC 14/12 Q1013 NOSIG
ZBSJ,2015-09-25 17:00,ZBSJ 251700Z 01001MPS 8000 NSC 14/12 Q1013 NOSIG
ZBSJ,2015-09-25 18:00,ZBSJ 251800Z 04001MPS 7000 NSC 13/11 Q1013 NOSIG
ZBSJ,2015-09-25 19:00,ZBSJ 251900Z 24001MPS 7000 NSC 13/12 Q1013 NOSIG
ZBSJ,2015-09-25 20:00,ZBSJ 252000Z 33002MPS 6000 NSC 13/12 Q1013 NOSIG
ZBSJ,2015-09-25 21:00,ZBSJ 252100Z 32002MPS 7000 NSC 14/12 Q1014 NOSIG
ZBSJ,2015-09-25 22:00,ZBSJ 252200Z 32002MPS 6000 NSC 13/12 Q1014 NOSIG
ZBSJ,2015-09-25 23:00,ZBSJ 252300Z 29002MPS 6000 NSC 15/13 Q1015 NOSIG
ZBSJ,2015-09-26 00:00,ZBSJ 260000Z 33003MPS 8000 NSC 17/13 Q1015 NOSIG
ZBSJ,2015-09-26 01:00,ZBSJ 260100Z 29001MPS 6000 NSC 19/13 Q1015 NOSIG
ZBSJ,2015-09-26 02:00,ZBSJ 260200Z 30001MPS 8000 NSC 23/13 Q1015 NOSIG
ZBSJ,2015-09-26 03:00,ZBSJ 260300Z 23002MPS 170V290 CAVOK 25/13 Q1015 NOSIG
ZBSJ,2015-09-26 04:00,ZBSJ 260400Z 18004MPS 140V210 CAVOK 26/12 Q1014 NOSIG
ZBSJ,2015-09-26 05:00,ZBSJ 260500Z 18007MPS 150V210 CAVOK 27/10 Q1013 NOSIG
ZBSJ,2015-09-26 06:00,ZBSJ 260600Z 17005MPS CAVOK 28/10 Q1012 NOSIG
ZBSJ,2015-09-26 07:00,ZBSJ 260700Z 17006MPS CAVOK 28/09 Q1012 NOSIG
ZBSJ,2015-09-26 08:00,ZBSJ 260800Z 16005MPS CAVOK 28/09 Q1011 NOSIG
ZBSJ,2015-09-26 09:00,ZBSJ 260900Z 16004MPS CAVOK 26/09 Q1011 NOSIG
ZBSJ,2015-09-26 10:00,ZBSJ 261000Z 13002MPS CAVOK 23/11 Q1012 NOSIG
ZBSJ,2015-09-26 11:00,ZBSJ 261100Z 09001MPS CAVOK 19/13 Q1012 NOSIG
ZBSJ,2015-09-26 12:00,ZBSJ 261200Z 09001MPS CAVOK 17/13 Q1013 NOSIG
ZBSJ,2015-09-26 13:00,ZBSJ 261300Z 04002MPS CAVOK 18/12 Q1013 NOSIG
ZBSJ,2015-09-26 14:00,ZBSJ 261400Z 36002MPS 7000 NSC 17/12 Q1014 NOSIG
ZBSJ,2015-09-26 15:00,ZBSJ 261500Z 34002MPS 6000 NSC 17/12 Q1014 NOSIG
ZBSJ,2015-09-26 16:00,ZBSJ 261600Z 03002MPS 6000 NSC 16/12 Q1014 NOSIG
ZBSJ,2015-09-26 17:00,ZBSJ 261700Z 09002MPS 6000 NSC 17/12 Q1013 NOSIG
ZBSJ,2015-09-26 18:00,ZBSJ 261800Z 30001MPS 6000 NSC 16/12 Q1013 NOSIG
ZBSJ,2015-09-26 19:00,ZBSJ 261900Z 32002MPS 6000 NSC 16/13 Q1013 NOSIG
ZBSJ,2015-09-26 20:00,ZBSJ 262000Z 32002MPS 6000 NSC 15/14 Q1013 NOSIG
ZBSJ,2015-09-26 21:00,ZBSJ 262100Z 31002MPS 6000 NSC 16/14 Q1013 NOSIG
ZBSJ,2015-09-26 22:00,ZBSJ 262200Z 28002MPS 6000 NSC 17/14 Q1014 NOSIG
ZBSJ,2015-09-26 23:00,ZBSJ 262300Z 32002MPS 6000 NSC 17/15 Q1014 NOSIG
ZBSJ,2015-09-27 00:00,ZBSJ 270000Z 30002MPS 5000 HZ NSC 21/15 Q1014 NOSIG
ZBSJ,2015-09-27 01:00,ZBSJ 270100Z 31002MPS 8000 NSC 23/15 Q1014 NOSIG
ZBSJ,2015-09-27 02:00,ZBSJ 270200Z 30001MPS CAVOK 26/15 Q1014 NOSIG
ZBSJ,2015-09-27 03:00,ZBSJ 270300Z 31001MPS CAVOK 26/14 Q1014 NOSIG
ZBSJ,2015-09-27 04:00,ZBSJ 270400Z 05002MPS CAVOK 28/15 Q1014 NOSIG
ZBSJ,2015-09-27 05:00,ZBSJ 270500Z 01001MPS CAVOK 29/14 Q1013 NOSIG
ZBSJ,2015-09-27 06:00,ZBSJ 270600Z 08002MPS CAVOK 28/14 Q1012 NOSIG
ZBSJ,2015-09-27 07:00,ZBSJ 270700Z 07003MPS 350V110 8000 NSC 28/15 Q1012 NOSIG
ZBSJ,2015-09-27 08:00,ZBSJ 270800Z 08003MPS 040V110 8000 NSC 27/14 Q1012 NOSIG
ZBSJ,2015-09-27 09:00,ZBSJ 270900Z 07003MPS 4500 HZ NSC 26/15 Q1012 NOSIG
ZBSJ,2015-09-27 10:00,ZBSJ 271000Z 05002MPS 3500 HZ NSC 23/15 Q1013 NOSIG
ZBSJ,2015-09-27 11:00,ZBSJ 271100Z 05002MPS 4500 HZ NSC 22/15 Q1013 NOSIG
ZBSJ,2015-09-27 12:00,ZBSJ 271200Z 04001MPS 4000 HZ NSC 21/16 Q1014 NOSIG
ZBSJ,2015-09-27 13:00,ZBSJ 271300Z 06002MPS 4000 HZ NSC 22/16 Q1014 NOSIG
ZBSJ,2015-09-27 14:00,ZBSJ 271400Z 04001MPS 4000 HZ NSC 22/16 Q1015 NOSIG
ZBSJ,2015-09-27 15:00,ZBSJ 271500Z 35002MPS 4000 HZ NSC 22/16 Q1015 NOSIG
ZBSJ,2015-09-27 16:00,ZBSJ 271600Z 02001MPS 6000 NSC 22/14 Q1016 NOSIG
ZBSJ,2015-09-27 17:00,ZBSJ 271700Z 35003MPS 6000 -TSRA FEW030CB BKN046 20/15 Q1016 NOSIG
ZBSJ,2015-09-27 18:00,ZBSJ 271800Z 02002MPS 350V060 9999 OVC046 19/16 Q1017 RETS NOSIG
ZBSJ,2015-09-27 19:00,ZBSJ 271900Z 36003MPS 9999 OVC046 19/15 Q1018 NOSIG
ZBSJ,2015-09-27 20:00,ZBSJ 272000Z 27003MPS 9999 -RA OVC046 18/16 Q1019 NOSIG
ZBSJ,2015-09-27 21:00,ZBSJ 272100Z 04002MPS 340V070 9999 -RA OVC046 18/16 Q1019 NOSIG
ZBSJ,2015-09-27 22:00,ZBSJ 272200Z 29001MPS 9999 -RA OVC046 18/16 Q1021 NOSIG
ZBSJ,2015-09-27 23:00,ZBSJ 272300Z 03002MPS 6000 OVC046 17/16 Q1020 NOSIG
ZBSJ,2015-09-28 00:00,ZBSJ 280000Z 35002MPS 6000 OVC046 18/16 Q1021 NOSIG
ZBSJ,2015-09-28 01:00,ZBSJ 280100Z 05003MPS 360V080 7000 OVC046 18/16 Q1022 NOSIG
ZBSJ,2015-09-28 02:00,ZBSJ 280200Z 02002MPS 340V080 5000 BR OVC046 18/16 Q1022 NOSIG
ZBSJ,2015-09-28 03:00,ZBSJ 280300Z 04002MPS 4000 BR OVC046 19/16 Q1022 NOSIG
ZBSJ,2015-09-28 04:00,ZBSJ 280400Z 03002MPS 3000 BR OVC046 19/16 Q1023 NOSIG
ZBSJ,2015-09-28 05:00,ZBSJ 280500Z 04003MPS 360V080 3000 BR OVC046 18/16 Q1023 NOSIG
ZBSJ,2015-09-28 06:00,ZBSJ 280600Z 06004MPS 030V090 5000 BR OVC046 19/16 Q1022 NOSIG
ZBSJ,2015-09-28 07:00,ZBSJ 280700Z 06004MPS 030V090 6000 OVC046 19/16 Q1023 NOSIG
ZBSJ,2015-09-28 08:00,ZBSJ 280800Z 06004MPS 020V090 6000 OVC046 19/16 Q1023 NOSIG
ZBSJ,2015-09-28 09:00,ZBSJ 280900Z 04003MPS 360V070 5000 BR OVC046 19/16 Q1023 NOSIG
ZBSJ,2015-09-28 10:00,ZBSJ 281000Z 04003MPS 010V080 2700 BR OVC046 19/16 Q1024 NOSIG
ZBSJ,2015-09-28 11:00,ZBSJ 281100Z 04002MPS 4000 BR OVC040 18/16 Q1024 NOSIG
ZBSJ,2015-09-28 12:00,ZBSJ 281200Z 05003MPS 4000 BR OVC040 18/16 Q1025 NOSIG
ZBSJ,2015-09-28 13:00,ZBSJ 281300Z 03002MPS 4000 BR OVC040 18/16 Q1025 NOSIG
ZBSJ,2015-09-28 14:00,ZBSJ 281400Z 03002MPS 4500 BR OVC040 17/15 Q1025 NOSIG
ZBSJ,2015-09-28 15:00,ZBSJ 281500Z 03002MPS 5000 BR OVC040 17/15 Q1025 NOSIG
ZBSJ,2015-09-28 16:00,ZBSJ 281600Z 05001MPS 5000 BR OVC040 17/15 Q1025 NOSIG
ZBSJ,2015-09-28 17:00,ZBSJ 281700Z 05003MPS 360V090 5000 -RA BR OVC040 17/15 Q1025 NOSIG
ZBSJ,2015-09-28 18:00,ZBSJ 281800Z 06003MPS 5000 -RA BR OVC033 16/15 Q1025 NOSIG
ZBSJ,2015-09-28 18:30,ZBSJ 281830Z 05003MPS 4000 -RA BR OVC033 16/15 Q1025 NOSIG
ZBSJ,2015-09-28 19:00,ZBSJ 281900Z 04003MPS 360V080 3500 -RA BR OVC033 16/15 Q1025 NOSIG
ZBSJ,2015-09-28 19:30,ZBSJ 281930Z 04002MPS 320V080 3500 -RA BR OVC033 16/15 Q1026 NOSIG
ZBSJ,2015-09-28 20:00,ZBSJ 282000Z 03002MPS 350V070 3500 -RA BR OVC033 16/15 Q1026 NOSIG
ZBSJ,2015-09-28 20:30,ZBSJ 282030Z 01003MPS 340V040 3500 -RA BR OVC033 16/15 Q1027 NOSIG
ZBSJ,2015-09-28 21:00,ZBSJ 282100Z 02002MPS 350V070 3000 -RA BR OVC033 16/15 Q1027 NOSIG
ZBSJ,2015-09-28 21:30,ZBSJ 282130Z 04003MPS 010V070 3000 -RA BR OVC033 15/15 Q1026 NOSIG
ZBSJ,2015-09-28 22:00,ZBSJ 282200Z 05003MPS 340V080 3000 -RA BR OVC033 15/15 Q1026 NOSIG
ZBSJ,2015-09-28 22:30,ZBSJ 282230Z 04003MPS 360V070 2000 -RA BR OVC033 15/15 Q1027 NOSIG
ZBSJ,2015-09-28 23:00,ZBSJ 282300Z 04002MPS 340V080 2000 -RA BR OVC033 15/15 Q1027 NOSIG
ZBSJ,2015-09-28 23:30,ZBSJ 282330Z 04003MPS 350V080 2200 -RA BR OVC033 16/15 Q1027 NOSIG
ZBSJ,2015-09-29 00:00,ZBSJ 290000Z 03002MPS 350V100 2200 -RA BR OVC033 16/15 Q1028 NOSIG
ZBSJ,2015-09-29 00:30,ZBSJ 290030Z 03003MPS 320V060 2200 -RA BR OVC033 16/15 Q1028 NOSIG
ZBSJ,2015-09-29 01:00,ZBSJ 290100Z 05004MPS 010V070 2500 -RA BR OVC033 16/15 Q1028 NOSIG
ZBSJ,2015-09-29 01:30,ZBSJ 290130Z 05005MPS 2700 -RA BR OVC033 16/15 Q1028 BECMG TL0230 3000
ZBSJ,2015-09-29 02:00,ZBSJ 290200Z 05004MPS 020V080 3000 -RA BR OVC033 16/15 Q1029 BECMG TL0230 2500 -RA BR
ZBSJ,2015-09-29 02:30,ZBSJ 290230Z 05003MPS 010V090 3000 -RA BR OVC033 16/15 Q1028 BECMG TL0300 2500 -RA BR
ZBSJ,2015-09-29 03:00,ZBSJ 290300Z 05004MPS 020V080 2800 -RA BR SCT020 OVC033 16/15 Q1028 BECMG TL0430 3000
ZBSJ,2015-09-29 03:30,ZBSJ 290330Z 07003MPS 040V110 2800 -RA BR SCT020 OVC033 16/15 Q1028 BECMG TL0430 3000
ZBSJ,2015-09-29 04:00,ZBSJ 290400Z 05003MPS 010V080 2800 -RA BR SCT020 OVC033 16/15 Q1028 BECMG TL0430 3000
ZBSJ,2015-09-29 04:30,ZBSJ 290430Z 04002MPS 360V090 3000 -RA BR SCT020 OVC033 16/15 Q1028 BECMG TL0500 2700 -RA BR
ZBSJ,2015-09-29 05:00,ZBSJ 290500Z 03003MPS 340V060 2800 -RA BR SCT020 OVC033 17/15 Q1027 NOSIG
ZBSJ,2015-09-29 05:30,ZBSJ 290530Z 02003MPS 350V050 2800 -RA BR SCT020 OVC033 17/15 Q1027 NOSIG
ZBSJ,2015-09-29 06:00,ZBSJ 290600Z 04004MPS 010V080 3500 -RA BR SCT020 OVC033 16/15 Q1027 NOSIG
ZBSJ,2015-09-29 06:30,ZBSJ 290630Z 02002MPS 340V070 4000 -RA BR SCT020 OVC033 16/15 Q1027 NOSIG
ZBSJ,2015-09-29 07:00,ZBSJ 290700Z 03002MPS 350V080 4000 -RA BR SCT020 OVC033 16/15 Q1027 NOSIG
ZBSJ,2015-09-29 07:30,ZBSJ 290730Z 02003MPS 350V050 4000 BR SCT020 OVC033 16/15 Q1027 NOSIG
ZBSJ,2015-09-29 08:00,ZBSJ 290800Z 05003MPS 4000 -RA BR SCT020 OVC033 16/15 Q1026 NOSIG
ZBSJ,2015-09-29 08:30,ZBSJ 290830Z 04002MPS 350V100 4000 -RA BR SCT016 OVC033 16/14 Q1027 NOSIG
ZBSJ,2015-09-29 09:00,ZBSJ 290900Z 04002MPS 350V090 4500 -RA BR SCT016 OVC033 16/14 Q1026 NOSIG
ZBSJ,2015-09-29 09:30,ZBSJ 290930Z 05003MPS 360V070 5000 BR SCT016 OVC033 16/14 Q1026 NOSIG
ZBSJ,2015-09-29 10:00,ZBSJ 291000Z 03002MPS 350V060 6000 BKN033 OVC046 16/14 Q1026 NOSIG
ZBSJ,2015-09-29 10:30,ZBSJ 291030Z 04002MPS 320V070 8000 BKN033 OVC046 15/14 Q1027 NOSIG
ZBSJ,2015-09-29 11:00,ZBSJ 291100Z 03003MPS 340V080 9999 OVC040 15/13 Q1027 NOSIG
ZBSJ,2015-09-29 11:30,ZBSJ 291130Z 03003MPS 350V060 9999 OVC040 15/13 Q1027 NOSIG
ZBSJ,2015-09-29 12:00,ZBSJ 291200Z 03003MPS 340V080 9999 OVC040 15/13 Q1027 NOSIG
ZBSJ,2015-09-29 12:30,ZBSJ 291230Z 03002MPS 350V080 9999 OVC040 15/13 Q1028 NOSIG
ZBSJ,2015-09-29 13:00,ZBSJ 291300Z 03002MPS 9999 OVC040 15/13 Q1028 NOSIG
ZBSJ,2015-09-29 14:00,ZBSJ 291400Z 02002MPS 340V060 9999 OVC040 15/12 Q1027 NOSIG
ZBSJ,2015-09-29 15:00,ZBSJ 291500Z 01002MPS CAVOK 15/12 Q1027 NOSIG
ZBSJ,2015-09-29 16:00,ZBSJ 291600Z 36002MPS CAVOK 14/12 Q1026 NOSIG
ZBSJ,2015-09-29 17:00,ZBSJ 291700Z 35001MPS CAVOK 15/12 Q1026 NOSIG
ZBSJ,2015-09-29 18:00,ZBSJ 291800Z 36001MPS CAVOK 14/13 Q1025 NOSIG
ZBSJ,2015-09-29 19:00,ZBSJ 291900Z 06001MPS 9999 OVC046 14/13 Q1025 NOSIG
ZBSJ,2015-09-29 20:00,ZBSJ 292000Z 00000MPS 8000 OVC046 14/14 Q1024 NOSIG
ZBSJ,2015-09-29 21:00,ZBSJ 292100Z 35001MPS 9999 OVC046 15/13 Q1023 NOSIG
ZBSJ,2015-09-29 22:00,ZBSJ 292200Z 34001MPS 9999 SCT033 14/13 Q1023 NOSIG
ZBSJ,2015-09-29 23:00,ZBSJ 292300Z 00000MPS CAVOK 14/13 Q1023 NOSIG
ZBSJ,2015-09-30 00:00,ZBSJ 300000Z 00000MPS CAVOK 15/13 Q1023 NOSIG
ZBSJ,2015-09-30 01:00,ZBSJ 300100Z 00000MPS CAVOK 16/13 Q1022 NOSIG
ZBSJ,2015-09-30 02:00,ZBSJ 300200Z 34001MPS CAVOK 17/13 Q1022 NOSIG
ZBSJ,2015-09-30 03:00,ZBSJ 300300Z 30001MPS CAVOK 17/13 Q1021 NOSIG
ZBSJ,2015-09-30 04:00,ZBSJ 300400Z 36002MPS 7000 NSC 17/14 Q1020 NOSIG
ZBSJ,2015-09-30 05:00,ZBSJ 300500Z 35002MPS 7000 NSC 17/14 Q1019 NOSIG
ZBSJ,2015-09-30 06:00,ZBSJ 300600Z 02001MPS 7000 NSC 17/13 Q1018 NOSIG
ZBSJ,2015-09-30 07:00,ZBSJ 300700Z 34001MPS CAVOK 17/13 Q1017 NOSIG
ZBSJ,2015-09-30 08:00,ZBSJ 300800Z 34002MPS 7000 NSC 16/14 Q1016 NOSIG
ZBSJ,2015-09-30 09:00,ZBSJ 300900Z 19001MPS 6000 -RA OVC046 16/14 Q1016 NOSIG
ZBSJ,2015-09-30 10:00,ZBSJ 301000Z 24001MPS 4000 -RA BR OVC046 16/14 Q1015 NOSIG
ZBSJ,2015-09-30 11:00,ZBSJ 301100Z 17001MPS 4000 BR OVC046 16/15 Q1015 NOSIG
ZBSJ,2015-09-30 12:00,ZBSJ 301200Z 16002MPS 130V190 4000 BR OVC046 15/14 Q1014 NOSIG
ZBSJ,2015-09-30 13:00,ZBSJ 301300Z 29001MPS 4000 -RA BR OVC046 15/14 Q1015 NOSIG
ZBSJ,2015-09-30 14:00,ZBSJ 301400Z 19002MPS 2500 -RA BR OVC046 15/14 Q1013 NOSIG
ZBSJ,2015-09-30 15:00,ZBSJ 301500Z 12001MPS 2000 BR OVC046 15/14 Q1013 NOSIG
ZBSJ,2015-09-30 16:00,ZBSJ 301600Z 33002MPS 2700 BR OVC046 15/15 Q1013 NOSIG
ZBSJ,2015-09-30 17:00,ZBSJ 301700Z 27002MPS 5000 BR OVC046 15/15 Q1013 NOSIG
ZBSJ,2015-09-30 18:00,ZBSJ 301800Z 30006MPS 7000 OVC046 16/12 Q1014 NOSIG
ZBSJ,2015-09-30 19:00,ZBSJ 301900Z 31007MPS CAVOK 15/10 Q1014 NOSIG
ZBSJ,2015-09-30 20:00,ZBSJ 302000Z 31011MPS CAVOK 15/05 Q1015 NOSIG
ZBSJ,2015-09-30 21:00,ZBSJ 302100Z 32011G17MPS CAVOK 15/03 Q1015 NOSIG
ZBSJ,2015-09-30 22:00,ZBSJ 302200Z 33010MPS CAVOK 15/03 Q1016 NOSIG
ZBSJ,2015-09-30 23:00,ZBSJ 302300Z 33010MPS CAVOK 15/01 Q1017 NOSIG
ZBSJ,2015-10-01 00:00,ZBSJ 010000Z 30008MPS CAVOK 17/01 Q1017 NOSIG
ZBSJ,2015-10-01 01:00,ZBSJ 010100Z 30009MPS CAVOK 18/01 Q1017 NOSIG
ZBSJ,2015-10-01 02:00,ZBSJ 010200Z 27005MPS 230V300 CAVOK 19/01 Q1017 NOSIG
ZBSJ,2015-10-01 03:00,ZBSJ 010300Z 30006MPS 240V330 CAVOK 21/01 Q1016 NOSIG
ZBSJ,2015-10-01 04:00,ZBSJ 010400Z 29007MPS CAVOK 22/01 Q1016 NOSIG
ZBSJ,2015-10-01 05:00,ZBSJ 010500Z 28006MPS 250V320 CAVOK 23/02 Q1015 NOSIG
ZBSJ,2015-10-01 06:00,ZBSJ 010600Z 30005MPS 270V340 CAVOK 24/01 Q1015 NOSIG
ZBSJ,2015-10-01 07:00,ZBSJ 010700Z 33003MPS 280V360 CAVOK 24/02 Q1014 NOSIG
ZBSJ,2015-10-01 08:00,ZBSJ 010800Z 25001MPS CAVOK 24/03 Q1014 NOSIG
ZBSJ,2015-10-01 09:00,ZBSJ 010900Z 03001MPS CAVOK 23/05 Q1014 NOSIG
ZBSJ,2015-10-01 10:00,ZBSJ 011000Z 07002MPS CAVOK 20/06 Q1014 NOSIG
ZBSJ,2015-10-01 11:00,ZBSJ 011100Z 09001MPS CAVOK 15/09 Q1014 NOSIG
ZBSJ,2015-10-01 12:00,ZBSJ 011200Z 00000MPS CAVOK 13/09 Q1015 NOSIG
ZBSJ,2015-10-01 13:00,ZBSJ 011300Z 21001MPS CAVOK 13/09 Q1015 NOSIG
ZBSJ,2015-10-01 14:00,ZBSJ 011400Z 22001MPS CAVOK 14/07 Q1015 NOSIG
ZBSJ,2015-10-01 15:00,ZBSJ 011500Z 25002MPS CAVOK 13/08 Q1015 NOSIG
ZBSJ,2015-10-01 16:00,ZBSJ 011600Z 27001MPS CAVOK 13/08 Q1015 NOSIG
ZBSJ,2015-10-01 17:00,ZBSJ 011700Z 27001MPS CAVOK 12/08 Q1015 NOSIG
ZBSJ,2015-10-01 18:00,ZBSJ 011800Z 28003MPS CAVOK 14/07 Q1015 NOSIG
ZBSJ,2015-10-01 19:00,ZBSJ 011900Z 29002MPS CAVOK 11/07 Q1014 NOSIG
ZBSJ,2015-10-01 20:00,ZBSJ 012000Z 28001MPS CAVOK 09/07 Q1014 NOSIG
ZBSJ,2015-10-01 21:00,ZBSJ 012100Z 30002MPS CAVOK 09/05 Q1013 NOSIG
ZBSJ,2015-10-01 22:00,ZBSJ 012200Z 26004MPS CAVOK 13/05 Q1014 NOSIG
ZBSJ,2015-10-01 23:00,ZBSJ 012300Z 25003MPS CAVOK 14/05 Q1014 NOSIG
ZBSJ,2015-10-02 00:00,ZBSJ 020000Z 26003MPS CAVOK 17/06 Q1014 NOSIG
ZBSJ,2015-10-02 01:00,ZBSJ 020100Z 25004MPS CAVOK 19/06 Q1014 NOSIG
ZBSJ,2015-10-02 02:00,ZBSJ 020200Z 27004MPS CAVOK 22/05 Q1014 NOSIG
ZBSJ,2015-10-02 03:00,ZBSJ 020300Z 27004MPS 240V310 CAVOK 24/05 Q1013 NOSIG
ZBSJ,2015-10-02 04:00,ZBSJ 020400Z 27003MPS 230V320 CAVOK 25/03 Q1013 NOSIG
ZBSJ,2015-10-02 05:00,ZBSJ 020500Z 28003MPS 220V330 CAVOK 26/05 Q1012 NOSIG
ZBSJ,2015-10-02 06:00,ZBSJ 020600Z 30002MPS CAVOK 27/04 Q1011 NOSIG
ZBSJ,2015-10-02 07:00,ZBSJ 020700Z 29004MPS CAVOK 28/04 Q1010 NOSIG
ZBSJ,2015-10-02 08:00,ZBSJ 020800Z 32003MPS CAVOK 28/03 Q1010 NOSIG
ZBSJ,2015-10-02 09:00,ZBSJ 020900Z 32001MPS CAVOK 27/05 Q1010 NOSIG
ZBSJ,2015-10-02 10:00,ZBSJ 021000Z 20001MPS CAVOK 22/09 Q1011 NOSIG
ZBSJ,2015-10-02 11:00,ZBSJ 021100Z 18001MPS CAVOK 19/08 Q1012 NOSIG
ZBSJ,2015-10-02 12:00,ZBSJ 021200Z 20003MPS 150V230 CAVOK 20/08 Q1013 NOSIG
ZBSJ,2015-10-02 13:00,ZBSJ 021300Z 21003MPS CAVOK 18/08 Q1014 NOSIG
ZBSJ,2015-10-02 14:00,ZBSJ 021400Z 21002MPS CAVOK 14/09 Q1014 NOSIG
ZBSJ,2015-10-02 15:00,ZBSJ 021500Z 31001MPS CAVOK 13/09 Q1015 NOSIG
ZBSJ,2015-10-02 16:00,ZBSJ 021600Z 29002MPS CAVOK 15/10 Q1015 NOSIG
ZBSJ,2015-10-02 17:00,ZBSJ 021700Z 28002MPS CAVOK 16/10 Q1016 NOSIG
ZBSJ,2015-10-02 18:00,ZBSJ 021800Z 29002MPS CAVOK 13/09 Q1017 NOSIG
ZBSJ,2015-10-02 19:00,ZBSJ 021900Z 31002MPS CAVOK 12/09 Q1017 NOSIG
ZBSJ,2015-10-02 20:00,ZBSJ 022000Z 29003MPS CAVOK 14/09 Q1018 NOSIG
ZBSJ,2015-10-02 21:00,ZBSJ 022100Z 31003MPS CAVOK 13/08 Q1018 NOSIG
ZBSJ,2015-10-02 22:00,ZBSJ 022200Z 33003MPS CAVOK 11/07 Q1019 NOSIG
ZBSJ,2015-10-02 23:00,ZBSJ 022300Z 30002MPS CAVOK 14/08 Q1020 NOSIG
ZBSJ,2015-10-03 00:00,ZBSJ 030000Z 01002MPS CAVOK 17/09 Q1021 NOSIG
ZBSJ,2015-10-03 01:00,ZBSJ 030100Z 35002MPS CAVOK 20/09 Q1022 NOSIG
ZBSJ,2015-10-03 02:00,ZBSJ 030200Z 11002MPS 070V140 CAVOK 23/07 Q1022 NOSIG
ZBSJ,2015-10-03 03:00,ZBSJ 030300Z 10002MPS 060V140 CAVOK 25/06 Q1022 NOSIG
ZBSJ,2015-10-03 04:00,ZBSJ 030400Z 16003MPS 100V240 CAVOK 26/07 Q1021 NOSIG
ZBSJ,2015-10-03 05:00,ZBSJ 030500Z 15002MPS CAVOK 27/06 Q1021 NOSIG
ZBSJ,2015-10-03 06:00,ZBSJ 030600Z 14002MPS 070V210 CAVOK 27/06 Q1020 NOSIG
ZBSJ,2015-10-03 07:00,ZBSJ 030700Z 16005MPS CAVOK 26/07 Q1020 NOSIG
ZBSJ,2015-10-03 08:00,ZBSJ 030800Z 16003MPS CAVOK 25/08 Q1020 NOSIG
ZBSJ,2015-10-03 09:00,ZBSJ 030900Z 14002MPS CAVOK 24/10 Q1020 NOSIG
ZBSJ,2015-10-03 10:00,ZBSJ 031000Z 14001MPS 8000 NSC 21/11 Q1020 NOSIG
ZBSJ,2015-10-03 11:00,ZBSJ 031100Z 09001MPS 8000 NSC 17/13 Q1021 NOSIG
ZBSJ,2015-10-03 12:00,ZBSJ 031200Z 07001MPS 8000 NSC 15/11 Q1021 NOSIG
ZBSJ,2015-10-03 13:00,ZBSJ 031300Z 09001MPS 6000 NSC 14/12 Q1022 NOSIG
ZBSJ,2015-10-03 14:00,ZBSJ 031400Z 04001MPS 5000 BR NSC 14/12 Q1022 NOSIG
ZBSJ,2015-10-03 15:00,ZBSJ 031500Z 07001MPS 4000 BR NSC 13/11 Q1022 NOSIG
ZBSJ,2015-10-03 16:00,ZBSJ 031600Z 26001MPS 4000 BR NSC 14/11 Q1023 NOSIG
ZBSJ,2015-10-03 17:00,ZBSJ 031700Z 31002MPS 4000 BR NSC 13/11 Q1023 NOSIG
ZBSJ,2015-10-03 18:00,ZBSJ 031800Z 26001MPS 4000 BR NSC 13/12 Q1023 NOSIG
ZBSJ,2015-10-03 19:00,ZBSJ 031900Z 33002MPS 8000 NSC 14/11 Q1023 NOSIG
ZBSJ,2015-10-03 20:00,ZBSJ 032000Z 31002MPS CAVOK 12/10 Q1022 NOSIG
ZBSJ,2015-10-03 21:00,ZBSJ 032100Z 31002MPS CAVOK 13/10 Q1023 NOSIG
ZBSJ,2015-10-03 22:00,ZBSJ 032200Z 33003MPS CAVOK 12/10 Q1023 NOSIG
ZBSJ,2015-10-03 23:00,ZBSJ 032300Z 31002MPS CAVOK 13/11 Q1023 NOSIG
ZBSJ,2015-10-04 00:00,ZBSJ 040000Z 31004MPS CAVOK 16/11 Q1024 NOSIG
ZBSJ,2015-10-04 01:00,ZBSJ 040100Z 31002MPS CAVOK 19/12 Q1024 NOSIG
ZBSJ,2015-10-04 02:00,ZBSJ 040200Z 30002MPS 250V320 CAVOK 22/12 Q1024 NOSIG
ZBSJ,2015-10-04 03:00,ZBSJ 040300Z 32001MPS CAVOK 24/10 Q1023 NOSIG
ZBSJ,2015-10-04 04:00,ZBSJ 040400Z 36001MPS 7000 NSC 25/10 Q1023 NOSIG
ZBSJ,2015-10-04 05:00,ZBSJ 040500Z 26001MPS 7000 NSC 27/10 Q1021 NOSIG
ZBSJ,2015-10-04 06:00,ZBSJ 040600Z 17002MPS 7000 NSC 27/09 Q1020 NOSIG
ZBSJ,2015-10-04 07:00,ZBSJ 040700Z 20003MPS 160V230 8000 NSC 27/09 Q1020 NOSIG
ZBSJ,2015-10-04 08:00,ZBSJ 040800Z 18003MPS 150V210 8000 NSC 27/09 Q1020 NOSIG
ZBSJ,2015-10-04 09:00,ZBSJ 040900Z 16003MPS 5000 HZ NSC 25/12 Q1020 NOSIG
ZBSJ,2015-10-04 10:00,ZBSJ 041000Z 14002MPS 4500 HZ NSC 22/11 Q1020 NOSIG
ZBSJ,2015-10-04 11:00,ZBSJ 041100Z 05001MPS 4500 HZ NSC 19/12 Q1020 NOSIG
ZBSJ,2015-10-04 12:00,ZBSJ 041200Z 05002MPS 4000 HZ NSC 18/12 Q1021 NOSIG
ZBSJ,2015-10-04 13:00,ZBSJ 041300Z 07002MPS 3000 HZ NSC 17/12 Q1021 BECMG 2500 HZ
ZBSJ,2015-10-04 14:00,ZBSJ 041400Z 11002MPS 2500 BR NSC 16/11 Q1021 NOSIG
ZBSJ,2015-10-04 15:00,ZBSJ 041500Z 34002MPS 1800 BR NSC 13/11 Q1021 NOSIG
ZBSJ,2015-10-04 16:00,ZBSJ 041600Z 33003MPS 1800 BR NSC 15/12 Q1021 NOSIG
ZBSJ,2015-10-04 17:00,ZBSJ 041700Z 28002MPS 3000 BR NSC 15/12 Q1021 NOSIG
ZBSJ,2015-10-04 18:00,ZBSJ 041800Z 30003MPS 4000 BR NSC 16/13 Q1021 NOSIG
ZBSJ,2015-10-04 19:00,ZBSJ 041900Z 32002MPS 5000 BR NSC 14/12 Q1020 NOSIG
ZBSJ,2015-10-04 20:00,ZBSJ 042000Z 32003MPS 5000 BR NSC 13/11 Q1020 NOSIG
ZBSJ,2015-10-04 21:00,ZBSJ 042100Z 34002MPS 5000 BR NSC 14/12 Q1020 NOSIG
ZBSJ,2015-10-04 22:00,ZBSJ 042200Z 33001MPS 5000 BR NSC 13/11 Q1020 NOSIG
ZBSJ,2015-10-04 23:00,ZBSJ 042300Z 20001MPS 3500 BR NSC 12/11 Q1020 NOSIG
ZBSJ,2015-10-05 00:00,ZBSJ 050000Z 20001MPS 3500 BR NSC 16/12 Q1021 NOSIG
ZBSJ,2015-10-05 01:00,ZBSJ 050100Z 21001MPS 5000 HZ NSC 18/12 Q1021 NOSIG
ZBSJ,2015-10-05 02:00,ZBSJ 050200Z 18001MPS 5000 HZ NSC 21/12 Q1020 NOSIG
ZBSJ,2015-10-05 03:00,ZBSJ 050300Z 19003MPS 140V220 4000 HZ NSC 24/13 Q1020 NOSIG
ZBSJ,2015-10-05 04:00,ZBSJ 050400Z 21003MPS 170V250 4000 HZ NSC 26/12 Q1019 NOSIG
ZBSJ,2015-10-05 05:00,ZBSJ 050500Z 19003MPS 150V250 4000 HZ NSC 28/12 Q1018 NOSIG
ZBSJ,2015-10-05 06:00,ZBSJ 050600Z 19004MPS 5000 HZ NSC 29/11 Q1016 NOSIG
ZBSJ,2015-10-05 07:00,ZBSJ 050700Z 17004MPS 8000 NSC 29/11 Q1016 NOSIG
ZBSJ,2015-10-05 08:00,ZBSJ 050800Z 18004MPS 8000 NSC 29/11 Q1016 NOSIG
ZBSJ,2015-10-05 09:00,ZBSJ 050900Z 17003MPS 5000 HZ NSC 26/12 Q1015 NOSIG
ZBSJ,2015-10-05 10:00,ZBSJ 051000Z 14002MPS 2700 HZ NSC 23/13 Q1015 NOSIG
ZBSJ,2015-10-05 11:00,ZBSJ 051100Z 15002MPS 3500 HZ NSC 20/13 Q1016 NOSIG
ZBSJ,2015-10-05 12:00,ZBSJ 051200Z 17002MPS 4500 HZ NSC 20/12 Q1016 NOSIG
ZBSJ,2015-10-05 13:00,ZBSJ 051300Z 17003MPS 6000 NSC 20/12 Q1016 NOSIG
ZBSJ,2015-10-05 14:00,ZBSJ 051400Z 18003MPS 6000 NSC 19/12 Q1017 NOSIG
ZBSJ,2015-10-05 15:00,ZBSJ 051500Z 18001MPS 5000 HZ NSC 18/12 Q1017 NOSIG
ZBSJ,2015-10-05 16:00,ZBSJ 051600Z 18001MPS 5000 BR NSC 16/12 Q1017 NOSIG
ZBSJ,2015-10-05 17:00,ZBSJ 051700Z 22001MPS 4500 BR NSC 14/11 Q1017 NOSIG
ZBSJ,2015-10-05 18:00,ZBSJ 051800Z 00000MPS 3000 BR NSC 13/12 Q1017 NOSIG
ZBSJ,2015-10-05 19:00,ZBSJ 051900Z 29002MPS 2500 BR NSC 13/12 Q1017 NOSIG
ZBSJ,2015-10-05 20:00,ZBSJ 052000Z 34002MPS 3000 BR NSC 15/13 Q1016 NOSIG
ZBSJ,2015-10-05 21:00,ZBSJ 052100Z 28001MPS 3000 BR NSC 13/11 Q1017 NOSIG
ZBSJ,2015-10-05 22:00,ZBSJ 052200Z 32002MPS 3000 BR NSC 14/12 Q1017 NOSIG
ZBSJ,2015-10-05 23:00,ZBSJ 052300Z 35001MPS 2200 BR NSC 13/12 Q1018 BECMG 3000
ZBSJ,2015-10-06 00:00,ZBSJ 060000Z 11001MPS 2200 BR NSC 16/15 Q1018 BECMG 3000
ZBSJ,2015-10-06 01:00,ZBSJ 060100Z 27001MPS 5000 HZ NSC 20/14 Q1019 NOSIG
ZBSJ,2015-10-06 02:00,ZBSJ 060200Z 31002MPS 5000 HZ NSC 22/14 Q1018 NOSIG
ZBSJ,2015-10-06 03:00,ZBSJ 060300Z 04002MPS 4000 HZ NSC 23/13 Q1018 NOSIG
ZBSJ,2015-10-06 04:00,ZBSJ 060400Z 02001MPS 3500 HZ NSC 25/13 Q1017 NOSIG
ZBSJ,2015-10-06 05:00,ZBSJ 060500Z 15002MPS 110V230 4000 HZ NSC 26/13 Q1016 NOSIG
ZBSJ,2015-10-06 06:00,ZBSJ 060600Z 17003MPS 110V210 4000 HZ NSC 27/13 Q1015 NOSIG
ZBSJ,2015-10-06 07:00,ZBSJ 060700Z 17004MPS 3000 HZ NSC 27/14 Q1014 NOSIG
ZBSJ,2015-10-06 08:00,ZBSJ 060800Z 17003MPS 3300 HZ NSC 26/13 Q1014 NOSIG
ZBSJ,2015-10-06 09:00,ZBSJ 060900Z 18003MPS 3500 HZ NSC 25/15 Q1014 NOSIG
ZBSJ,2015-10-06 10:00,ZBSJ 061000Z 16003MPS 3000 HZ NSC 22/15 Q1014 NOSIG
ZBSJ,2015-10-06 11:00,ZBSJ 061100Z 15002MPS 4000 HZ NSC 21/16 Q1015 NOSIG
ZBSJ,2015-10-06 12:00,ZBSJ 061200Z 11001MPS 4000 BR NSC 20/16 Q1015 NOSIG
ZBSJ,2015-10-06 13:00,ZBSJ 061300Z 11002MPS 3700 BR NSC 20/17 Q1015 NOSIG
ZBSJ,2015-10-06 14:00,ZBSJ 061400Z 14002MPS 3000 BR NSC 21/17 Q1015 NOSIG
ZBSJ,2015-10-06 15:00,ZBSJ 061500Z 11001MPS 2500 BR NSC 19/16 Q1015 NOSIG
ZBSJ,2015-10-06 16:00,ZBSJ 061600Z 12001MPS 2500 BR NSC 19/16 Q1015 NOSIG
ZBSJ,2015-10-06 17:00,ZBSJ 061700Z 10001MPS 2500 BR NSC 18/16 Q1015 NOSIG
ZBSJ,2015-10-06 18:00,ZBSJ 061800Z 19001MPS 2500 BR NSC 18/16 Q1014 NOSIG
ZBSJ,2015-10-06 19:00,ZBSJ 061900Z 24001MPS 2000 BR NSC 18/16 Q1014 NOSIG
ZBSJ,2015-10-06 20:00,ZBSJ 062000Z 18002MPS 1600 BR NSC 17/16 Q1014 NOSIG
ZBSJ,2015-10-06 21:00,ZBSJ 062100Z 27002MPS 1600 BR NSC 18/16 Q1014 NOSIG
ZBSJ,2015-10-06 22:00,ZBSJ 062200Z 27002MPS 1600 BR NSC 18/16 Q1014 NOSIG
ZBSJ,2015-10-06 23:00,ZBSJ 062300Z 17003MPS 1000 R15/1400U BR NSC 16/15 Q1015 BECMG TL0030 1600
ZBSJ,2015-10-07 00:00,ZBSJ 070000Z 18003MPS 1600 BR NSC 18/16 Q1015 BECMG TL0130 3000
ZBSJ,2015-10-07 01:00,ZBSJ 070100Z 19002MPS 2000 BR NSC 21/17 Q1015 BECMG TL0230 3000
ZBSJ,2015-10-07 02:00,ZBSJ 070200Z 21003MPS 180V260 3000 HZ NSC 24/15 Q1015 NOSIG
ZBSJ,2015-10-07 03:00,ZBSJ 070300Z 21003MPS 180V260 4500 HZ NSC 26/13 Q1014 NOSIG
ZBSJ,2015-10-07 04:00,ZBSJ 070400Z 18004MPS 130V240 6000 NSC 27/13 Q1014 NOSIG
ZBSJ,2015-10-07 05:00,ZBSJ 070500Z 19005MPS 8000 NSC 28/13 Q1013 NOSIG
ZBSJ,2015-10-07 06:00,ZBSJ 070600Z 19004MPS 150V230 CAVOK 29/12 Q1012 NOSIG
ZBSJ,2015-10-07 07:00,ZBSJ 070700Z 18004MPS 150V210 CAVOK 29/11 Q1012 NOSIG
ZBSJ,2015-10-07 08:00,ZBSJ 070800Z 18006MPS CAVOK 28/12 Q1012 NOSIG
ZBSJ,2015-10-07 09:00,ZBSJ 070900Z 17005MPS CAVOK 26/13 Q1012 NOSIG
ZBSJ,2015-10-07 10:00,ZBSJ 071000Z 16003MPS CAVOK 23/13 Q1013 NOSIG
ZBSJ,2015-10-07 11:00,ZBSJ 071100Z 17003MPS CAVOK 21/14 Q1014 NOSIG
ZBSJ,2015-10-07 12:00,ZBSJ 071200Z 16003MPS CAVOK 21/15 Q1014 NOSIG
ZBSJ,2015-10-07 13:00,ZBSJ 071300Z 12003MPS 8000 NSC 21/16 Q1015 NOSIG
ZBSJ,2015-10-07 14:00,ZBSJ 071400Z 15002MPS 8000 NSC 19/16 Q1016 NOSIG
ZBSJ,2015-10-07 15:00,ZBSJ 071500Z 17001MPS 7000 NSC 18/16 Q1017 NOSIG
ZBSJ,2015-10-07 16:00,ZBSJ 071600Z 30001MPS 5000 BR NSC 17/16 Q1017 NOSIG
ZBSJ,2015-10-07 17:00,ZBSJ 071700Z 35002MPS 4000 BR NSC 15/14 Q1017 NOSIG
ZBSJ,2015-10-07 18:00,ZBSJ 071800Z 36006MPS CAVOK 19/M01 Q1018 NOSIG
ZBSJ,2015-10-07 19:00,ZBSJ 071900Z 01003MPS 350V050 CAVOK 16/00 Q1018 NOSIG
ZBSJ,2015-10-07 20:00,ZBSJ 072000Z 01003MPS CAVOK 15/M02 Q1019 NOSIG
ZBSJ,2015-10-07 21:00,ZBSJ 072100Z 35002MPS CAVOK 13/M01 Q1020 NOSIG
ZBSJ,2015-10-07 22:00,ZBSJ 072200Z 35002MPS CAVOK 12/01 Q1021 NOSIG
ZBSJ,2015-10-07 23:00,ZBSJ 072300Z 35003MPS CAVOK 14/M02 Q1022 NOSIG
ZBSJ,2015-10-08 00:00,ZBSJ 080000Z 35003MPS CAVOK 16/M02 Q1023 NOSIG
ZBSJ,2015-10-08 01:00,ZBSJ 080100Z 34007MPS CAVOK 17/M03 Q1023 NOSIG
ZBSJ,2015-10-08 02:00,ZBSJ 080200Z 34006MPS CAVOK 18/M04 Q1023 NOSIG
ZBSJ,2015-10-08 03:00,ZBSJ 080300Z 34006MPS CAVOK 18/M05 Q1023 NOSIG
ZBSJ,2015-10-08 04:00,ZBSJ 080400Z 33006MPS CAVOK 20/M07 Q1022 NOSIG
ZBSJ,2015-10-08 05:00,ZBSJ 080500Z 32005MPS CAVOK 21/M06 Q1021 NOSIG
ZBSJ,2015-10-08 06:00,ZBSJ 080600Z 29004MPS 250V320 CAVOK 21/M06 Q1020 NOSIG
ZBSJ,2015-10-08 07:00,ZBSJ 080700Z 29004MPS 250V330 CAVOK 21/M07 Q1020 NOSIG
ZBSJ,2015-10-08 08:00,ZBSJ 080800Z 25003MPS 220V300 CAVOK 21/M06 Q1019 NOSIG
ZBSJ,2015-10-08 09:00,ZBSJ 080900Z 28002MPS CAVOK 21/M04 Q1019 NOSIG
ZBSJ,2015-10-08 10:00,ZBSJ 081000Z 33003MPS CAVOK 16/M03 Q1018 NOSIG
ZBSJ,2015-10-08 11:00,ZBSJ 081100Z 35001MPS CAVOK 15/M02 Q1019 NOSIG
ZBSJ,2015-10-08 12:00,ZBSJ 081200Z 24002MPS 210V310 CAVOK 15/M02 Q1019 NOSIG
ZBSJ,2015-10-08 13:00,ZBSJ 081300Z 22002MPS 210V340 CAVOK 13/00 Q1019 NOSIG
ZBSJ,2015-10-08 14:00,ZBSJ 081400Z 22003MPS CAVOK 11/02 Q1019 NOSIG
ZBSJ,2015-10-08 15:00,ZBSJ 081500Z 20002MPS CAVOK 12/01 Q1018 NOSIG
ZBSJ,2015-10-08 16:00,ZBSJ 081600Z 21002MPS CAVOK 10/02 Q1017 NOSIG
ZBSJ,2015-10-08 17:00,ZBSJ 081700Z 22002MPS CAVOK 09/02 Q1017 NOSIG
ZBSJ,2015-10-08 18:00,ZBSJ 081800Z 25003MPS CAVOK 10/00 Q1016 NOSIG
ZBSJ,2015-10-08 19:00,ZBSJ 081900Z 24003MPS CAVOK 10/M01 Q1015 NOSIG
ZBSJ,2015-10-08 20:00,ZBSJ 082000Z 24004MPS CAVOK 12/M02 Q1014 NOSIG
ZBSJ,2015-10-08 21:00,ZBSJ 082100Z 25004MPS CAVOK 13/M04 Q1013 NOSIG
ZBSJ,2015-10-08 22:00,ZBSJ 082200Z 23004MPS CAVOK 13/M05 Q1013 NOSIG
ZBSJ,2015-10-08 23:00,ZBSJ 082300Z 24005MPS CAVOK 14/M04 Q1012 NOSIG
ZBSJ,2015-10-09 00:00,ZBSJ 090000Z 24005MPS CAVOK 16/M04 Q1012 NOSIG
ZBSJ,2015-10-09 01:00,ZBSJ 090100Z 25005MPS CAVOK 19/M04 Q1012 NOSIG
ZBSJ,2015-10-09 02:00,ZBSJ 090200Z 26006MPS 230V290 CAVOK 22/M05 Q1011 NOSIG
ZBSJ,2015-10-09 03:00,ZBSJ 090300Z 26006MPS 230V290 CAVOK 23/M05 Q1011 NOSIG
ZBSJ,2015-10-09 04:00,ZBSJ 090400Z 24006MPS CAVOK 24/M05 Q1010 NOSIG
ZBSJ,2015-10-09 05:00,ZBSJ 090500Z 29005MPS 260V330 CAVOK 26/M06 Q1009 NOSIG
ZBSJ,2015-10-09 06:00,ZBSJ 090600Z VRB02MPS CAVOK 26/M04 Q1008 NOSIG
ZBSJ,2015-10-09 07:00,ZBSJ 090700Z 04002MPS 350V080 CAVOK 25/M04 Q1007 NOSIG
ZBSJ,2015-10-09 08:00,ZBSJ 090800Z 04002MPS 350V060 CAVOK 25/M03 Q1007 NOSIG
ZBSJ,2015-10-09 09:00,ZBSJ 090900Z 04001MPS CAVOK 24/00 Q1007 NOSIG
ZBSJ,2015-10-09 10:00,ZBSJ 091000Z 14001MPS CAVOK 19/02 Q1008 NOSIG
ZBSJ,2015-10-09 11:00,ZBSJ 091100Z 00000MPS CAVOK 16/04 Q1009 NOSIG
ZBSJ,2015-10-09 12:00,ZBSJ 091200Z 33001MPS CAVOK 14/05 Q1010 NOSIG
ZBSJ,2015-10-09 13:00,ZBSJ 091300Z 09002MPS 8000 NSC 15/01 Q1011 NOSIG
ZBSJ,2015-10-09 14:00,ZBSJ 091400Z 07003MPS CAVOK 14/01 Q1013 NOSIG
ZBSJ,2015-10-09 15:00,ZBSJ 091500Z 08002MPS CAVOK 12/01 Q1014 NOSIG
ZBSJ,2015-10-09 16:00,ZBSJ 091600Z 08001MPS CAVOK 10/01 Q1015 NOSIG
ZBSJ,2015-10-09 17:00,ZBSJ 091700Z 21001MPS CAVOK 10/00 Q1016 NOSIG
ZBSJ,2015-10-09 18:00,ZBSJ 091800Z 27001MPS CAVOK 09/01 Q1016 NOSIG
ZBSJ,2015-10-09 19:00,ZBSJ 091900Z 28001MPS CAVOK 08/01 Q1016 NOSIG
ZBSJ,2015-10-09 20:00,ZBSJ 092000Z 29001MPS CAVOK 08/01 Q1016 NOSIG
ZBSJ,2015-10-09 21:00,ZBSJ 092100Z 33002MPS CAVOK 08/M00 Q1016 NOSIG
ZBSJ,2015-10-09 22:00,ZBSJ 092200Z 35003MPS CAVOK 10/M03 Q1017 NOSIG
ZBSJ,2015-10-09 23:00,ZBSJ 092300Z 36002MPS CAVOK 10/M04 Q1018 NOSIG
ZBSJ,2015-10-10 00:00,ZBSJ 100000Z 35009MPS CAVOK 13/M07 Q1018 NOSIG
ZBSJ,2015-10-10 01:00,ZBSJ 100100Z 35009G14MPS CAVOK 14/M06 Q1019 NOSIG
ZBSJ,2015-10-10 02:00,ZBSJ 100200Z 34010MPS CAVOK 15/M06 Q1020 NOSIG
ZBSJ,2015-10-10 03:00,ZBSJ 100300Z 35009G14MPS 330V030 CAVOK 15/M06 Q1020 NOSIG
ZBSJ,2015-10-10 04:00,ZBSJ 100400Z 34006MPS 310V010 CAVOK 16/M06 Q1020 NOSIG
ZBSJ,2015-10-10 05:00,ZBSJ 100500Z 34006MPS 310V020 CAVOK 17/M06 Q1019 NOSIG
ZBSJ,2015-10-10 06:00,ZBSJ 100600Z 36005MPS CAVOK 17/M06 Q1019 NOSIG
ZBSJ,2015-10-10 07:00,ZBSJ 100700Z 35007MPS CAVOK 17/M07 Q1018 NOSIG
ZBSJ,2015-10-10 08:00,ZBSJ 100800Z 33005MPS CAVOK 18/M07 Q1018 NOSIG
ZBSJ,2015-10-10 09:00,ZBSJ 100900Z 32005MPS CAVOK 17/M06 Q1018 NOSIG
ZBSJ,2015-10-10 10:00,ZBSJ 101000Z 31004MPS CAVOK 15/M06 Q1018 NOSIG
ZBSJ,2015-10-10 11:00,ZBSJ 101100Z 34003MPS CAVOK 13/M05 Q1019 NOSIG
ZBSJ,2015-10-10 12:00,ZBSJ 101200Z 32004MPS CAVOK 11/M05 Q1019 NOSIG
ZBSJ,2015-10-10 13:00,ZBSJ 101300Z 30004MPS CAVOK 11/M05 Q1019 NOSIG
ZBSJ,2015-10-10 14:00,ZBSJ 101400Z 29004MPS CAVOK 14/M05 Q1020 NOSIG
ZBSJ,2015-10-10 15:00,ZBSJ 101500Z 26003MPS CAVOK 11/M02 Q1020 NOSIG
ZBSJ,2015-10-10 16:00,ZBSJ 101600Z 26002MPS CAVOK 10/M02 Q1020 NOSIG
ZBSJ,2015-10-10 17:00,ZBSJ 101700Z 25001MPS CAVOK 08/M02 Q1020 NOSIG
ZBSJ,2015-10-10 18:00,ZBSJ 101800Z 29002MPS CAVOK 09/M03 Q1020 NOSIG
ZBSJ,2015-10-10 19:00,ZBSJ 101900Z 26002MPS 240V340 CAVOK 08/M02 Q1020 NOSIG
ZBSJ,2015-10-10 20:00,ZBSJ 102000Z 28005MPS CAVOK 10/M03 Q1019 NOSIG
ZBSJ,2015-10-10 21:00,ZBSJ 102100Z 29005MPS CAVOK 10/M03 Q1019 NOSIG
ZBSJ,2015-10-10 22:00,ZBSJ 102200Z 28005MPS CAVOK 12/M04 Q1019 NOSIG
ZBSJ,2015-10-10 23:00,ZBSJ 102300Z 29005MPS CAVOK 11/M03 Q1020 NOSIG
ZBSJ,2015-10-11 00:00,ZBSJ 110000Z 27005MPS CAVOK 13/M02 Q1020 NOSIG
ZBSJ,2015-10-11 01:00,ZBSJ 110100Z 28006MPS CAVOK 16/M01 Q1021 NOSIG
ZBSJ,2015-10-11 02:00,ZBSJ 110200Z 30006MPS CAVOK 19/M02 Q1021 NOSIG
ZBSJ,2015-10-11 03:00,ZBSJ 110300Z 31009MPS CAVOK 22/M00 Q1020 NOSIG
ZBSJ,2015-10-11 04:00,ZBSJ 110400Z 32008MPS CAVOK 23/00 Q1020 NOSIG
ZBSJ,2015-10-11 05:00,ZBSJ 110500Z 31006MPS 280V340 CAVOK 23/M01 Q1019 NOSIG
ZBSJ,2015-10-11 06:00,ZBSJ 110600Z 32007MPS 300V360 CAVOK 24/M01 Q1019 NOSIG
ZBSJ,2015-10-11 07:00,ZBSJ 110700Z 34006MPS CAVOK 23/M01 Q1018 NOSIG
ZBSJ,2015-10-11 08:00,ZBSJ 110800Z 32006MPS CAVOK 24/M01 Q1018 NOSIG
ZBSJ,2015-10-11 09:00,ZBSJ 110900Z 33005MPS CAVOK 22/M00 Q1018 NOSIG
ZBSJ,2015-10-11 10:00,ZBSJ 111000Z 27003MPS 250V320 CAVOK 20/01 Q1018 NOSIG
ZBSJ,2015-10-11 11:00,ZBSJ 111100Z 27003MPS CAVOK 18/02 Q1018 NOSIG
ZBSJ,2015-10-11 12:00,ZBSJ 111200Z 28002MPS CAVOK 17/02 Q1019 NOSIG
ZBSJ,2015-10-11 13:00,ZBSJ 111300Z 35003MPS CAVOK 14/03 Q1020 NOSIG
ZBSJ,2015-10-11 14:00,ZBSJ 111400Z 31003MPS CAVOK 13/03 Q1020 NOSIG
ZBSJ,2015-10-11 15:00,ZBSJ 111500Z 32003MPS 8000 NSC 11/04 Q1021 NOSIG
ZBSJ,2015-10-11 16:00,ZBSJ 111600Z 33004MPS CAVOK 10/03 Q1021 NOSIG
ZBSJ,2015-10-11 17:00,ZBSJ 111700Z 35002MPS CAVOK 11/03 Q1022 NOSIG
ZBSJ,2015-10-11 18:00,ZBSJ 111800Z 36001MPS CAVOK 09/02 Q1022 NOSIG
ZBSJ,2015-10-11 19:00,ZBSJ 111900Z 30001MPS CAVOK 08/02 Q1023 NOSIG
ZBSJ,2015-10-11 20:00,ZBSJ 112000Z 27002MPS CAVOK 08/02 Q1023 NOSIG
ZBSJ,2015-10-11 21:00,ZBSJ 112100Z 27001MPS CAVOK 09/01 Q1023 NOSIG
ZBSJ,2015-10-11 22:00,ZBSJ 112200Z 28002MPS CAVOK 11/03 Q1023 NOSIG
ZBSJ,2015-10-11 23:00,ZBSJ 112300Z 27003MPS CAVOK 11/03 Q1023 NOSIG
ZBSJ,2015-10-12 00:00,ZBSJ 120000Z 28004MPS CAVOK 14/03 Q1024 NOSIG
ZBSJ,2015-10-12 01:00,ZBSJ 120100Z 28004MPS CAVOK 18/05 Q1024 NOSIG
ZBSJ,2015-10-12 02:00,ZBSJ 120200Z 27003MPS CAVOK 21/03 Q1024 NOSIG
ZBSJ,2015-10-12 03:00,ZBSJ 120300Z 27004MPS CAVOK 23/M00 Q1023 NOSIG
ZBSJ,2015-10-12 04:00,ZBSJ 120400Z 26003MPS 210V300 CAVOK 25/00 Q1023 NOSIG
ZBSJ,2015-10-12 05:00,ZBSJ 120500Z 25004MPS 210V320 CAVOK 25/M03 Q1022 NOSIG
ZBSJ,2015-10-12 06:00,ZBSJ 120600Z 28002MPS 230V010 CAVOK 26/M03 Q1021 NOSIG
ZBSJ,2015-10-12 07:00,ZBSJ 120700Z 21003MPS 160V280 CAVOK 26/M01 Q1020 NOSIG
ZBSJ,2015-10-12 08:00,ZBSJ 120800Z 21003MPS 150V290 CAVOK 25/M02 Q1020 NOSIG
ZBSJ,2015-10-12 09:00,ZBSJ 120900Z 19003MPS 160V240 CAVOK 24/M02 Q1020 NOSIG
ZBSJ,2015-10-12 10:00,ZBSJ 121000Z 19002MPS CAVOK 19/01 Q1019 NOSIG
ZBSJ,2015-10-12 11:00,ZBSJ 121100Z 17002MPS CAVOK 18/01 Q1020 NOSIG
ZBSJ,2015-10-12 12:00,ZBSJ 121200Z 21002MPS CAVOK 16/01 Q1020 NOSIG
ZBSJ,2015-10-12 13:00,ZBSJ 121300Z 17001MPS CAVOK 14/03 Q1021 NOSIG
ZBSJ,2015-10-12 14:00,ZBSJ 121400Z 00000MPS CAVOK 13/04 Q1021 NOSIG
ZBSJ,2015-10-12 15:00,ZBSJ 121500Z 05001MPS CAVOK 12/04 Q1021 NOSIG
ZBSJ,2015-10-12 16:00,ZBSJ 121600Z 25001MPS CAVOK 12/03 Q1021 NOSIG
ZBSJ,2015-10-12 17:00,ZBSJ 121700Z 28002MPS 7000 NSC 11/05 Q1021 NOSIG
ZBSJ,2015-10-12 18:00,ZBSJ 121800Z 31002MPS 8000 NSC 11/05 Q1021 NOSIG
ZBSJ,2015-10-12 19:00,ZBSJ 121900Z 32003MPS CAVOK 10/05 Q1021 NOSIG
ZBSJ,2015-10-12 20:00,ZBSJ 122000Z 32003MPS CAVOK 10/05 Q1021 NOSIG
ZBSJ,2015-10-12 21:00,ZBSJ 122100Z 32003MPS CAVOK 09/05 Q1021 NOSIG
ZBSJ,2015-10-12 22:00,ZBSJ 122200Z 32003MPS CAVOK 09/05 Q1021 NOSIG
ZBSJ,2015-10-12 23:00,ZBSJ 122300Z 32003MPS CAVOK 10/05 Q1021 NOSIG
ZBSJ,2015-10-13 00:00,ZBSJ 130000Z 30003MPS CAVOK 15/05 Q1022 NOSIG
ZBSJ,2015-10-13 01:00,ZBSJ 130100Z 31003MPS CAVOK 18/05 Q1022 NOSIG
ZBSJ,2015-10-13 02:00,ZBSJ 130200Z 30002MPS CAVOK 21/06 Q1022 NOSIG
ZBSJ,2015-10-13 03:00,ZBSJ 130300Z 29001MPS CAVOK 24/03 Q1021 NOSIG
ZBSJ,2015-10-13 04:00,ZBSJ 130400Z 29002MPS CAVOK 26/04 Q1021 NOSIG
ZBSJ,2015-10-13 05:00,ZBSJ 130500Z 30001MPS CAVOK 28/05 Q1020 NOSIG
ZBSJ,2015-10-13 06:00,ZBSJ 130600Z 12001MPS CAVOK 27/04 Q1019 NOSIG
ZBSJ,2015-10-13 07:00,ZBSJ 130700Z 10001MPS CAVOK 27/03 Q1018 NOSIG
ZBSJ,2015-10-13 08:00,ZBSJ 130800Z 15003MPS 8000 NSC 26/04 Q1018 NOSIG
ZBSJ,2015-10-13 09:00,ZBSJ 130900Z 16001MPS 7000 NSC 24/06 Q1017 NOSIG
ZBSJ,2015-10-13 10:00,ZBSJ 131000Z 12001MPS 5000 HZ NSC 20/09 Q1017 NOSIG
ZBSJ,2015-10-13 11:00,ZBSJ 131100Z 09001MPS 4000 HZ NSC 17/09 Q1018 NOSIG
ZBSJ,2015-10-13 12:00,ZBSJ 131200Z 04001MPS 3500 HZ NSC 16/11 Q1018 NOSIG
ZBSJ,2015-10-13 13:00,ZBSJ 131300Z 05001MPS 3000 HZ NSC 16/09 Q1018 NOSIG
ZBSJ,2015-10-13 14:00,ZBSJ 131400Z 04001MPS 3000 HZ NSC 16/11 Q1018 NOSIG
ZBSJ,2015-10-13 15:00,ZBSJ 131500Z 35001MPS 3000 HZ NSC 17/10 Q1018 NOSIG
ZBSJ,2015-10-13 16:00,ZBSJ 131600Z 25001MPS 2300 HZ NSC 17/10 Q1018 NOSIG
ZBSJ,2015-10-13 17:00,ZBSJ 131700Z 01001MPS 3500 HZ NSC 16/11 Q1017 NOSIG
ZBSJ,2015-10-13 18:00,ZBSJ 131800Z 30002MPS 250V330 5000 HZ NSC 16/10 Q1017 NOSIG
ZBSJ,2015-10-13 19:00,ZBSJ 131900Z 32003MPS 7000 NSC 14/09 Q1016 NOSIG
ZBSJ,2015-10-13 20:00,ZBSJ 132000Z 31003MPS 7000 NSC 15/09 Q1016 NOSIG
ZBSJ,2015-10-13 21:00,ZBSJ 132100Z 33002MPS 7000 NSC 14/09 Q1016 NOSIG
ZBSJ,2015-10-13 22:00,ZBSJ 132200Z 30001MPS 7000 NSC 13/08 Q1016 NOSIG
ZBSJ,2015-10-13 23:00,ZBSJ 132300Z 29001MPS 6000 NSC 12/08 Q1016 NOSIG
ZBSJ,2015-10-14 00:00,ZBSJ 140000Z 29003MPS 5000 HZ NSC 16/09 Q1017 NOSIG
ZBSJ,2015-10-14 01:00,ZBSJ 140100Z 32003MPS 4000 HZ NSC 18/09 Q1017 NOSIG
ZBSJ,2015-10-14 02:00,ZBSJ 140200Z 35003MPS 3500 HZ NSC 20/08 Q1017 NOSIG
ZBSJ,2015-10-14 03:00,ZBSJ 140300Z 35004MPS 5000 HZ NSC 22/07 Q1017 NOSIG
ZBSJ,2015-10-14 04:00,ZBSJ 140400Z 02004MPS 350V050 4500 HZ NSC 23/07 Q1016 NOSIG
ZBSJ,2015-10-14 05:00,ZBSJ 140500Z 04003MPS 360V080 7000 NSC 24/07 Q1015 NOSIG
ZBSJ,2015-10-14 06:00,ZBSJ 140600Z 02003MPS 300V080 8000 NSC 24/06 Q1015 NOSIG
ZBSJ,2015-10-14 07:00,ZBSJ 140700Z 05002MPS 8000 NSC 23/08 Q1015 NOSIG
ZBSJ,2015-10-14 08:00,ZBSJ 140800Z 05002MPS 020V080 8000 NSC 23/08 Q1015 NOSIG
ZBSJ,2015-10-14 09:00,ZBSJ 140900Z 09002MPS 2500 HZ NSC 21/10 Q1015 BECMG TL1000 2500
ZBSJ,2015-10-14 10:00,ZBSJ 141000Z 04002MPS 2200 HZ NSC 18/10 Q1016 NOSIG
ZBSJ,2015-10-14 11:00,ZBSJ 141100Z 03001MPS 2500 HZ NSC 17/11 Q1016 NOSIG
ZBSJ,2015-10-14 12:00,ZBSJ 141200Z 07001MPS 2500 HZ NSC 15/11 Q1017 BECMG TL1330 3000
ZBSJ,2015-10-14 13:00,ZBSJ 141300Z 34001MPS 2500 BR NSC 15/11 Q1017 NOSIG
ZBSJ,2015-10-14 14:00,ZBSJ 141400Z 33002MPS 2500 BR NSC 14/10 Q1018 NOSIG
ZBSJ,2015-10-14 15:00,ZBSJ 141500Z 00000MPS 2200 BR NSC 14/11 Q1017 NOSIG
ZBSJ,2015-10-14 16:00,ZBSJ 141600Z 33001MPS 2000 BR NSC 13/10 Q1017 NOSIG
ZBSJ,2015-10-14 17:00,ZBSJ 141700Z 04001MPS 2000 BR NSC 11/10 Q1017 NOSIG
ZBSJ,2015-10-14 18:00,ZBSJ 141800Z 32001MPS 1800 BR NSC 12/10 Q1017 NOSIG
ZBSJ,2015-10-14 19:00,ZBSJ 141900Z 35001MPS 1600 BR NSC 10/09 Q1017 NOSIG
ZBSJ,2015-10-14 20:00,ZBSJ 142000Z 27001MPS 1800 BR NSC 10/09 Q1017 NOSIG
ZBSJ,2015-10-14 21:00,ZBSJ 142100Z 32001MPS 2000 BR NSC 11/10 Q1017 NOSIG
ZBSJ,2015-10-14 22:00,ZBSJ 142200Z 32002MPS 2000 BR NSC 10/09 Q1017 NOSIG
ZBSJ,2015-10-14 23:00,ZBSJ 142300Z 32002MPS 2700 BR NSC 11/09 Q1018 BECMG TL0000 3500
ZBSJ,2015-10-15 00:00,ZBSJ 150000Z 32003MPS 2700 BR NSC 15/11 Q1018 BECMG TL0100 3500
ZBSJ,2015-10-15 01:00,ZBSJ 150100Z 29002MPS 4500 HZ NSC 18/10 Q1019 NOSIG
ZBSJ,2015-10-15 02:00,ZBSJ 150200Z 28002MPS 7000 NSC 21/10 Q1019 NOSIG
ZBSJ,2015-10-15 03:00,ZBSJ 150300Z 26001MPS 8000 NSC 24/10 Q1018 NOSIG
ZBSJ,2015-10-15 04:00,ZBSJ 150400Z 29002MPS CAVOK 26/08 Q1018 NOSIG
ZBSJ,2015-10-15 05:00,ZBSJ 150500Z 34001MPS CAVOK 27/07 Q1017 NOSIG
ZBSJ,2015-10-15 06:00,ZBSJ 150600Z 05001MPS CAVOK 28/07 Q1016 NOSIG
ZBSJ,2015-10-15 07:00,ZBSJ 150700Z 15002MPS CAVOK 28/07 Q1016 NOSIG
ZBSJ,2015-10-15 08:00,ZBSJ 150800Z 12002MPS CAVOK 27/06 Q1015 NOSIG
ZBSJ,2015-10-15 09:00,ZBSJ 150900Z 14002MPS CAVOK 25/08 Q1015 NOSIG
ZBSJ,2015-10-15 10:00,ZBSJ 151000Z 16001MPS 8000 NSC 21/09 Q1015 NOSIG
ZBSJ,2015-10-15 11:00,ZBSJ 151100Z 18003MPS 6000 NSC 19/10 Q1016 NOSIG
ZBSJ,2015-10-15 12:00,ZBSJ 151200Z 19002MPS 5000 HZ NSC 18/10 Q1017 NOSIG
ZBSJ,2015-10-15 13:00,ZBSJ 151300Z 18001MPS 5000 HZ NSC 15/11 Q1017 NOSIG
ZBSJ,2015-10-15 14:00,ZBSJ 151400Z 08001MPS 4300 BR NSC 14/10 Q1018 NOSIG
ZBSJ,2015-10-15 15:00,ZBSJ 151500Z 03001MPS 3500 BR NSC 13/10 Q1017 NOSIG
ZBSJ,2015-10-15 16:00,ZBSJ 151600Z 36001MPS 3500 BR NSC 13/10 Q1018 NOSIG
ZBSJ,2015-10-15 17:00,ZBSJ 151700Z 30001MPS 3000 BR NSC 12/09 Q1017 NOSIG
ZBSJ,2015-10-15 18:00,ZBSJ 151800Z 31002MPS 3500 BR NSC 13/10 Q1018 NOSIG
ZBSJ,2015-10-15 19:00,ZBSJ 151900Z 32002MPS 5000 BR NSC 13/09 Q1017 NOSIG
ZBSJ,2015-10-15 20:00,ZBSJ 152000Z 33002MPS 5000 BR NSC 12/09 Q1017 NOSIG
ZBSJ,2015-10-15 21:00,ZBSJ 152100Z 32001MPS 6000 NSC 12/08 Q1017 NOSIG
ZBSJ,2015-10-15 22:00,ZBSJ 152200Z 32003MPS 6000 NSC 11/08 Q1018 NOSIG
ZBSJ,2015-10-15 23:00,ZBSJ 152300Z 29002MPS 7000 NSC 13/08 Q1018 NOSIG
ZBSJ,2015-10-16 00:00,ZBSJ 160000Z 33002MPS 7000 NSC 15/10 Q1019 NOSIG
ZBSJ,2015-10-16 01:00,ZBSJ 160100Z 32002MPS CAVOK 19/08 Q1019 NOSIG
ZBSJ,2015-10-16 02:00,ZBSJ 160200Z 31002MPS CAVOK 21/08 Q1019 NOSIG
ZBSJ,2015-10-16 03:00,ZBSJ 160300Z 35001MPS CAVOK 23/07 Q1019 NOSIG
ZBSJ,2015-10-16 04:00,ZBSJ 160400Z 17001MPS CAVOK 25/08 Q1018 NOSIG
ZBSJ,2015-10-16 05:00,ZBSJ 160500Z 16003MPS 110V190 7000 NSC 26/08 Q1017 NOSIG
ZBSJ,2015-10-16 06:00,ZBSJ 160600Z 11002MPS 070V150 4500 HZ NSC 27/10 Q1016 NOSIG
ZBSJ,2015-10-16 07:00,ZBSJ 160700Z 16003MPS 120V190 2500 HZ NSC 27/11 Q1015 NOSIG
ZBSJ,2015-10-16 08:00,ZBSJ 160800Z 17004MPS 6000 NSC 27/09 Q1015 NOSIG
ZBSJ,2015-10-16 09:00,ZBSJ 160900Z 14002MPS 3500 HZ NSC 25/10 Q1015 NOSIG
ZBSJ,2015-10-16 10:00,ZBSJ 161000Z 11001MPS 3000 HZ NSC 21/12 Q1015 BECMG 2500 HZ
ZBSJ,2015-10-16 11:00,ZBSJ 161100Z 07001MPS 4000 HZ NSC 18/12 Q1016 NOSIG
ZBSJ,2015-10-16 12:00,ZBSJ 161200Z 05001MPS 4000 BR NSC 15/11 Q1016 NOSIG
ZBSJ,2015-10-16 13:00,ZBSJ 161300Z 03001MPS 3500 HZ NSC 16/11 Q1017 NOSIG
ZBSJ,2015-10-16 14:00,ZBSJ 161400Z 04001MPS 3200 HZ NSC 15/10 Q1017 NOSIG
ZBSJ,2015-10-16 15:00,ZBSJ 161500Z 08001MPS 3000 BR NSC 14/10 Q1017 NOSIG
ZBSJ,2015-10-16 16:00,ZBSJ 161600Z 08001MPS 2700 BR NSC 13/10 Q1017 NOSIG
ZBSJ,2015-10-16 17:00,ZBSJ 161700Z 30001MPS 2300 BR NSC 14/10 Q1017 NOSIG
ZBSJ,2015-10-16 18:00,ZBSJ 161800Z 29002MPS 2500 BR NSC 14/11 Q1017 NOSIG
ZBSJ,2015-10-16 19:00,ZBSJ 161900Z 30002MPS 3000 BR NSC 13/10 Q1016 NOSIG
ZBSJ,2015-10-16 20:00,ZBSJ 162000Z 34001MPS 3000 BR NSC 13/10 Q1016 NOSIG
ZBSJ,2015-10-16 21:00,ZBSJ 162100Z 25001MPS 3000 BR NSC 12/09 Q1016 NOSIG
ZBSJ,2015-10-16 22:00,ZBSJ 162200Z 29001MPS 3000 BR NSC 11/09 Q1016 NOSIG
ZBSJ,2015-10-16 23:00,ZBSJ 162300Z 23002MPS 2000 BR NSC 12/10 Q1017 NOSIG
ZBSJ,2015-10-17 00:00,ZBSJ 170000Z 00000MPS 1600 BR NSC 14/12 Q1017 NOSIG
ZBSJ,2015-10-17 01:00,ZBSJ 170100Z 30001MPS 1800 HZ NSC 18/12 Q1017 BECMG TL0230 3000
ZBSJ,2015-10-17 02:00,ZBSJ 170200Z 30001MPS 2700 HZ NSC 20/11 Q1017 BECMG TL0300 3000
ZBSJ,2015-10-17 03:00,ZBSJ 170300Z 15002MPS 3000 HZ NSC 22/11 Q1017 NOSIG
ZBSJ,2015-10-17 04:00,ZBSJ 170400Z 16002MPS 120V220 2500 HZ NSC 24/12 Q1016 BECMG TL0430 3000
ZBSJ,2015-10-17 05:00,ZBSJ 170500Z 12002MPS 080V150 1800 HZ NSC 25/11 Q1015 NOSIG
ZBSJ,2015-10-17 06:00,ZBSJ 170600Z 15002MPS 110V190 2500 HZ NSC 26/10 Q1014 NOSIG
ZBSJ,2015-10-17 07:00,ZBSJ 170700Z 16002MPS 130V190 2300 HZ NSC 26/11 Q1014 NOSIG
ZBSJ,2015-10-17 08:00,ZBSJ 170800Z 10001MPS 2000 HZ NSC 26/13 Q1014 NOSIG
ZBSJ,2015-10-17 09:00,ZBSJ 170900Z 04001MPS 1800 HZ NSC 24/15 Q1015 NOSIG
ZBSJ,2015-10-17 10:00,ZBSJ 171000Z 04002MPS 1800 HZ NSC 21/14 Q1016 BECMG 1400 HZ
ZBSJ,2015-10-17 11:00,ZBSJ 171100Z 04002MPS 2300 HZ NSC 20/13 Q1017 BECMG 3000
ZBSJ,2015-10-17 12:00,ZBSJ 171200Z 05002MPS 2300 HZ NSC 19/13 Q1017 NOSIG
ZBSJ,2015-10-17 13:00,ZBSJ 171300Z 04001MPS 2300 HZ NSC 18/13 Q1018 NOSIG
ZBSJ,2015-10-17 14:00,ZBSJ 171400Z 06001MPS 2000 HZ NSC 17/13 Q1018 NOSIG
ZBSJ,2015-10-17 15:00,ZBSJ 171500Z 31001MPS 1800 BR NSC 16/13 Q1018 NOSIG
ZBSJ,2015-10-17 16:00,ZBSJ 171600Z 33003MPS 1600 BR NSC 16/13 Q1019 NOSIG
ZBSJ,2015-10-17 17:00,ZBSJ 171700Z 33003MPS 1500 BR NSC 15/13 Q1019 NOSIG
ZBSJ,2015-10-17 18:00,ZBSJ 171800Z 34002MPS 1500 BR NSC 15/13 Q1020 NOSIG
ZBSJ,2015-10-17 19:00,ZBSJ 171900Z 35002MPS 1500 BR NSC 15/12 Q1020 NOSIG
ZBSJ,2015-10-17 20:00,ZBSJ 172000Z 33003MPS 1800 BR NSC 15/13 Q1021 NOSIG
ZBSJ,2015-10-17 21:00,ZBSJ 172100Z 36002MPS 1800 BR NSC 16/13 Q1022 NOSIG
ZBSJ,2015-10-17 22:00,ZBSJ 172200Z 01002MPS 1800 BR NSC 16/11 Q1022 NOSIG
ZBSJ,2015-10-17 23:00,ZBSJ 172300Z 02002MPS 350V050 2000 HZ NSC 16/08 Q1023 BECMG 3000
ZBSJ,2015-10-18 00:00,ZBSJ 180000Z 05005MPS 3000 HZ NSC 17/09 Q1024 NOSIG
ZBSJ,2015-10-18 01:00,ZBSJ 180100Z 05005MPS 3000 HZ BKN040 17/11 Q1025 NOSIG
ZBSJ,2015-10-18 02:00,ZBSJ 180200Z 05004MPS 2700 HZ BKN046 17/11 Q1026 BECMG TL0300 3000
ZBSJ,2015-10-18 03:00,ZBSJ 180300Z 04004MPS 3000 HZ BKN033 17/12 Q1025 NOSIG
ZBSJ,2015-10-18 04:00,ZBSJ 180400Z 05004MPS 6000 OVC033 17/12 Q1025 NOSIG
ZBSJ,2015-10-18 05:00,ZBSJ 180500Z 06004MPS 8000 OVC040 16/10 Q1025 NOSIG
ZBSJ,2015-10-18 06:00,ZBSJ 180600Z 08004MPS 8000 OVC040 15/09 Q1025 NOSIG
ZBSJ,2015-10-18 07:00,ZBSJ 180700Z 08005MPS 9000 OVC040 15/09 Q1024 NOSIG
ZBSJ,2015-10-18 08:00,ZBSJ 180800Z 11003MPS 9999 OVC040 14/09 Q1024 NOSIG
ZBSJ,2015-10-18 09:00,ZBSJ 180900Z 10002MPS 070V140 9999 OVC040 14/09 Q1024 NOSIG
ZBSJ,2015-10-18 10:00,ZBSJ 181000Z 07002MPS 9999 OVC040 13/08 Q1024 NOSIG
ZBSJ,2015-10-18 11:00,ZBSJ 181100Z 05002MPS 9999 OVC040 13/08 Q1025 NOSIG
ZBSJ,2015-10-18 12:00,ZBSJ 181200Z 04001MPS 9999 OVC040 13/08 Q1024 NOSIG
ZBSJ,2015-10-18 13:00,ZBSJ 181300Z 08001MPS 9999 BKN040 13/09 Q1024 NOSIG
ZBSJ,2015-10-18 14:00,ZBSJ 181400Z 03001MPS 9999 BKN040 13/09 Q1024 NOSIG
ZBSJ,2015-10-18 15:00,ZBSJ 181500Z 04001MPS 9999 BKN040 13/08 Q1023 NOSIG
ZBSJ,2015-10-18 16:00,ZBSJ 181600Z 05001MPS 9999 BKN046 13/08 Q1022 NOSIG
ZBSJ,2015-10-18 17:00,ZBSJ 181700Z 00000MPS 9999 BKN046 11/08 Q1022 NOSIG
ZBSJ,2015-10-18 18:00,ZBSJ 181800Z 21001MPS 9999 BKN046 10/08 Q1021 NOSIG
ZBSJ,2015-10-18 19:00,ZBSJ 181900Z 03001MPS 8000 NSC 09/08 Q1020 NOSIG
ZBSJ,2015-10-18 20:00,ZBSJ 182000Z 32001MPS 8000 NSC 08/07 Q1019 NOSIG
ZBSJ,2015-10-18 21:00,ZBSJ 182100Z 00000MPS 8000 NSC 08/07 Q1019 NOSIG
ZBSJ,2015-10-18 22:00,ZBSJ 182200Z 14001MPS 7000 NSC 08/07 Q1018 NOSIG
ZBSJ,2015-10-18 23:00,ZBSJ 182300Z 16001MPS 4500 BR NSC 09/07 Q1018 NOSIG
ZBSJ,2015-10-19 00:00,ZBSJ 190000Z 00000MPS 3000 BR NSC 11/09 Q1018 NOSIG
ZBSJ,2015-10-19 01:00,ZBSJ 190100Z 16002MPS 3500 BR NSC 13/09 Q1018 NOSIG
ZBSJ,2015-10-19 02:00,ZBSJ 190200Z 18003MPS 4500 HZ NSC 15/10 Q1017 NOSIG
ZBSJ,2015-10-19 03:00,ZBSJ 190300Z 18004MPS 4500 HZ NSC 17/11 Q1017 NOSIG
ZBSJ,2015-10-19 04:00,ZBSJ 190400Z 17003MPS 130V220 4500 HZ NSC 18/11 Q1016 NOSIG
ZBSJ,2015-10-19 05:00,ZBSJ 190500Z 17003MPS 130V200 4500 HZ NSC 20/12 Q1014 NOSIG
ZBSJ,2015-10-19 06:00,ZBSJ 190600Z 17003MPS 3500 HZ NSC 20/12 Q1013 NOSIG
ZBSJ,2015-10-19 07:00,ZBSJ 190700Z 17003MPS 3000 HZ NSC 21/12 Q1013 NOSIG
ZBSJ,2015-10-19 08:00,ZBSJ 190800Z 17003MPS 3000 HZ NSC 20/13 Q1012 BECMG TL0930 2500 HZ
ZBSJ,2015-10-19 09:00,ZBSJ 190900Z 18001MPS 2000 HZ NSC 19/13 Q1012 NOSIG
ZBSJ,2015-10-19 10:00,ZBSJ 191000Z 09001MPS 2300 BR NSC 17/13 Q1013 NOSIG
ZBSJ,2015-10-19 11:00,ZBSJ 191100Z 08001MPS 2700 BR NSC 14/12 Q1013 NOSIG
ZBSJ,2015-10-19 12:00,ZBSJ 191200Z 06001MPS 2400 BR NSC 14/13 Q1014 BECMG TL1330 3000
ZBSJ,2015-10-19 13:00,ZBSJ 191300Z 04001MPS 2200 BR NSC 13/12 Q1014 NOSIG
ZBSJ,2015-10-19 14:00,ZBSJ 191400Z 04002MPS 1800 BR NSC 14/12 Q1015 NOSIG
ZBSJ,2015-10-19 15:00,ZBSJ 191500Z 04002MPS 1800 BR NSC 14/13 Q1015 NOSIG
ZBSJ,2015-10-19 16:00,ZBSJ 191600Z 06002MPS 2300 BR NSC 15/13 Q1014 NOSIG
ZBSJ,2015-10-19 17:00,ZBSJ 191700Z 01001MPS 2700 BR NSC 15/13 Q1014 NOSIG
ZBSJ,2015-10-19 18:00,ZBSJ 191800Z 36001MPS 2700 BR NSC 16/12 Q1015 NOSIG
ZBSJ,2015-10-19 19:00,ZBSJ 191900Z 33002MPS 2500 BR NSC 15/13 Q1014 NOSIG
ZBSJ,2015-10-19 20:00,ZBSJ 192000Z 35001MPS 2500 BR NSC 15/13 Q1014 NOSIG
ZBSJ,2015-10-19 21:00,ZBSJ 192100Z 03002MPS 2500 BR NSC 15/13 Q1015 NOSIG
ZBSJ,2015-10-19 22:00,ZBSJ 192200Z 03003MPS 3000 BR NSC 16/12 Q1016 NOSIG
ZBSJ,2015-10-19 23:00,ZBSJ 192300Z 04003MPS 2200 BR NSC 15/12 Q1016 BECMG TL0030 3000
ZBSJ,2015-10-20 00:00,ZBSJ 200000Z 04003MPS 2300 BR NSC 15/11 Q1017 BECMG TL0130 3000
ZBSJ,2015-10-20 01:00,ZBSJ 200100Z 05003MPS 2500 BR NSC 15/12 Q1018 BECMG TL0230 3000
ZBSJ,2015-10-20 02:00,ZBSJ 200200Z 04002MPS 010V070 2500 BR NSC 16/12 Q1018 NOSIG
ZBSJ,2015-10-20 03:00,ZBSJ 200300Z 02003MPS 350V050 2200 BR NSC 16/12 Q1018 NOSIG
ZBSJ,2015-10-20 04:00,ZBSJ 200400Z 03003MPS 2200 BR NSC 16/12 Q1017 NOSIG
ZBSJ,2015-10-20 05:00,ZBSJ 200500Z 02002MPS 360V060 2000 BR NSC 16/13 Q1016 NOSIG
ZBSJ,2015-10-20 06:00,ZBSJ 200600Z 04003MPS 2000 BR NSC 16/13 Q1015 NOSIG
ZBSJ,2015-10-20 07:00,ZBSJ 200700Z 03003MPS 1500 BR NSC 16/13 Q1015 NOSIG
ZBSJ,2015-10-20 08:00,ZBSJ 200800Z 03003MPS 360V060 1500 BR NSC 16/12 Q1014 NOSIG
ZBSJ,2015-10-20 09:00,ZBSJ 200900Z 05003MPS 1600 BR NSC 15/12 Q1014 NOSIG
ZBSJ,2015-10-20 10:00,ZBSJ 201000Z 05003MPS 2700 BR NSC 15/12 Q1015 BECMG TL1100 3500
ZBSJ,2015-10-20 11:00,ZBSJ 201100Z 06003MPS 3500 BR NSC 14/11 Q1016 NOSIG
ZBSJ,2015-10-20 12:00,ZBSJ 201200Z 05003MPS 5000 HZ NSC 14/09 Q1016 NOSIG
ZBSJ,2015-10-20 13:00,ZBSJ 201300Z 03002MPS 360V060 6000 NSC 14/09 Q1016 NOSIG
ZBSJ,2015-10-20 14:00,ZBSJ 201400Z 03002MPS 7000 NSC 14/09 Q1017 NOSIG
ZBSJ,2015-10-20 15:00,ZBSJ 201500Z 03002MPS 340V060 7000 NSC 14/09 Q1017 NOSIG
ZBSJ,2015-10-20 16:00,ZBSJ 201600Z 03002MPS 7000 NSC 13/08 Q1017 NOSIG
ZBSJ,2015-10-20 17:00,ZBSJ 201700Z 02002MPS 350V050 8000 NSC 13/07 Q1017 NOSIG
ZBSJ,2015-10-20 18:00,ZBSJ 201800Z 03001MPS 8000 NSC 13/07 Q1018 NOSIG
ZBSJ,2015-10-20 19:00,ZBSJ 201900Z 03001MPS 8000 NSC 13/07 Q1017 NOSIG
ZBSJ,2015-10-20 20:00,ZBSJ 202000Z 04002MPS 8000 NSC 13/07 Q1018 NOSIG
ZBSJ,2015-10-20 21:00,ZBSJ 202100Z 05003MPS 8000 NSC 12/06 Q1018 NOSIG
ZBSJ,2015-10-20 22:00,ZBSJ 202200Z 05005MPS 010V070 8000 NSC 12/07 Q1019 NOSIG
ZBSJ,2015-10-20 23:00,ZBSJ 202300Z 04003MPS 360V070 6000 NSC 12/07 Q1020 NOSIG
ZBSJ,2015-10-21 00:00,ZBSJ 210000Z 03003MPS 360V060 5000 HZ NSC 12/07 Q1021 NOSIG
ZBSJ,2015-10-21 01:00,ZBSJ 210100Z 04004MPS 6000 NSC 11/08 Q1023 NOSIG
ZBSJ,2015-10-21 02:00,ZBSJ 210200Z 04004MPS 4000 BR NSC 10/08 Q1023 NOSIG
ZBSJ,2015-10-21 03:00,ZBSJ 210300Z 05004MPS 010V070 3000 -DZ BR OVC040 09/08 Q1024 NOSIG
ZBSJ,2015-10-21 04:00,ZBSJ 210400Z 05003MPS 1700 -RA BR OVC040 09/08 Q1024 NOSIG
ZBSJ,2015-10-21 05:00,ZBSJ 210500Z 04003MPS 360V070 1100 R15/1500D -RA BR OVC040 09/09 Q1024 NOSIG
ZBSJ,2015-10-21 06:00,ZBSJ 210600Z 06003MPS 1000 R15/1600N -RA BR OVC040 09/09 Q1023 NOSIG
ZBSJ,2015-10-21 07:00,ZBSJ 210700Z 05004MPS 1200 R15/1800N -RA BR OVC040 09/09 Q1023 NOSIG
ZBSJ,2015-10-21 08:00,ZBSJ 210800Z 05004MPS 1400 R15/2000U -RA BR OVC040 10/09 Q1024 NOSIG
ZBSJ,2015-10-21 09:00,ZBSJ 210900Z 04004MPS 2000 -RA BR OVC040 09/09 Q1025 NOSIG
ZBSJ,2015-10-21 10:00,ZBSJ 211000Z 04003MPS 2700 -RA BR OVC040 09/09 Q1025 NOSIG
ZBSJ,2015-10-21 11:00,ZBSJ 211100Z 05003MPS 2500 -RA BR OVC040 09/09 Q1025 NOSIG
ZBSJ,2015-10-21 12:00,ZBSJ 211200Z 05003MPS 2500 -RA BR OVC040 09/09 Q1025 NOSIG
ZBSJ,2015-10-21 13:00,ZBSJ 211300Z 02003MPS 2500 -RA BR OVC040 09/09 Q1026 NOSIG
ZBSJ,2015-10-21 14:00,ZBSJ 211400Z 03003MPS 360V060 3300 -RA BR OVC040 09/08 Q1026 NOSIG
ZBSJ,2015-10-21 15:00,ZBSJ 211500Z 03003MPS 3000 -RA BR OVC040 08/08 Q1026 NOSIG
ZBSJ,2015-10-21 16:00,ZBSJ 211600Z 03002MPS 2500 -RA BR OVC040 08/08 Q1025 NOSIG
ZBSJ,2015-10-21 17:00,ZBSJ 211700Z 04002MPS 010V070 2000 -RA BR OVC040 09/08 Q1025 NOSIG
ZBSJ,2015-10-21 18:00,ZBSJ 211800Z 04003MPS 2800 -RA BR FEW010 OVC040 09/08 Q1025 NOSIG
ZBSJ,2015-10-21 19:00,ZBSJ 211900Z 05002MPS 3500 -RA BR FEW020 OVC040 08/08 Q1024 NOSIG
ZBSJ,2015-10-21 20:00,ZBSJ 212000Z 05003MPS 4000 -RA BR FEW020 OVC040 08/08 Q1024 NOSIG
ZBSJ,2015-10-21 21:00,ZBSJ 212100Z 06004MPS 020V080 4000 -RA BR FEW020 OVC040 08/08 Q1024 NOSIG
ZBSJ,2015-10-21 22:00,ZBSJ 212200Z 05003MPS 3500 -RA BR FEW020 OVC040 08/07 Q1024 NOSIG
ZBSJ,2015-10-21 23:00,ZBSJ 212300Z 03001MPS 2500 -RA BR SCT020 OVC040 08/07 Q1025 NOSIG
ZBSJ,2015-10-22 00:00,ZBSJ 220000Z 04002MPS 3500 -RA BR SCT020 OVC040 08/08 Q1025 NOSIG
ZBSJ,2015-10-22 01:00,ZBSJ 220100Z 04002MPS 2300 -RA BR SCT020 OVC040 08/08 Q1026 BECMG TL0230 3000
ZBSJ,2015-10-22 02:00,ZBSJ 220200Z 36001MPS 2500 -RA BR SCT020 OVC040 08/08 Q1026 BECMG TL0330 3000
ZBSJ,2015-10-22 03:00,ZBSJ 220300Z 36002MPS 3000 -RA BR SCT020 OVC040 09/08 Q1026 NOSIG
ZBSJ,2015-10-22 04:00,ZBSJ 220400Z 02002MPS 350V060 3000 -RA BR OVC040 09/08 Q1025 NOSIG
ZBSJ,2015-10-22 05:00,ZBSJ 220500Z 03002MPS 360V060 3200 -RA BR OVC033 09/08 Q1024 BECMG TL0600 2700 -RA BR
ZBSJ,2015-10-22 06:00,ZBSJ 220600Z 01001MPS 2700 -RA BR OVC033 09/08 Q1024 NOSIG
ZBSJ,2015-10-22 07:00,ZBSJ 220700Z 01002MPS 2500 -RA BR OVC033 09/08 Q1023 NOSIG
ZBSJ,2015-10-22 08:00,ZBSJ 220800Z 01001MPS 2500 -RA BR OVC033 09/08 Q1023 NOSIG
ZBSJ,2015-10-22 09:00,ZBSJ 220900Z 36002MPS 2200 -RA BR BKN026 OVC033 09/08 Q1023 NOSIG
ZBSJ,2015-10-22 10:00,ZBSJ 221000Z 36001MPS 4000 -RA BR BKN026 OVC033 09/08 Q1023 NOSIG
ZBSJ,2015-10-22 11:00,ZBSJ 221100Z 35001MPS 4000 BR OVC040 09/08 Q1023 NOSIG
ZBSJ,2015-10-22 12:00,ZBSJ 221200Z 28001MPS 4000 BR OVC040 09/09 Q1023 NOSIG
ZBSJ,2015-10-22 13:00,ZBSJ 221300Z 28002MPS 3500 -RA BR OVC033 09/09 Q1023 NOSIG
ZBSJ,2015-10-22 14:00,ZBSJ 221400Z 27001MPS 3500 -RA BR OVC033 09/09 Q1023 NOSIG
ZBSJ,2015-10-22 15:00,ZBSJ 221500Z 25001MPS 4000 -RA BR OVC033 09/09 Q1022 NOSIG
ZBSJ,2015-10-22 16:00,ZBSJ 221600Z 22001MPS 4000 -RA BR OVC033 09/09 Q1022 NOSIG
ZBSJ,2015-10-22 17:00,ZBSJ 221700Z 19001MPS 5000 -RA BR OVC033 09/08 Q1021 NOSIG
ZBSJ,2015-10-22 18:00,ZBSJ 221800Z 18001MPS 4000 BR OVC040 09/09 Q1021 NOSIG
ZBSJ,2015-10-22 19:00,ZBSJ 221900Z 00000MPS 3500 -RA BR OVC033 09/09 Q1020 NOSIG
ZBSJ,2015-10-22 20:00,ZBSJ 222000Z 23001MPS 3500 -RA BR OVC033 09/09 Q1020 NOSIG
ZBSJ,2015-10-22 21:00,ZBSJ 222100Z 19001MPS 3000 -RA BR OVC040 09/09 Q1019 NOSIG
ZBSJ,2015-10-22 22:00,ZBSJ 222200Z 00000MPS 3000 -RA BR OVC040 09/09 Q1020 NOSIG
ZBSJ,2015-10-22 23:00,ZBSJ 222300Z 19001MPS 2000 -RA BR OVC040 09/09 Q1020 BECMG 3000
ZBSJ,2015-10-23 00:00,ZBSJ 230000Z 24001MPS 2000 BR OVC040 10/09 Q1020 BECMG 3000
ZBSJ,2015-10-23 01:00,ZBSJ 230100Z 23001MPS 1200 R33/1400U BR BKN046 10/10 Q1020 BECMG TL0240 1600
ZBSJ,2015-10-23 02:00,ZBSJ 230200Z 19002MPS 2000 BR FEW040 BKN046 11/10 Q1020 BECMG 3500
ZBSJ,2015-10-23 03:00,ZBSJ 230300Z 21002MPS 2500 BR FEW033 BKN046 13/10 Q1020 BECMG 3500
ZBSJ,2015-10-23 04:00,ZBSJ 230400Z 19002MPS 2800 BR BKN046 14/11 Q1019 BECMG 3500
ZBSJ,2015-10-23 05:00,ZBSJ 230500Z 17002MPS 130V240 3000 BR NSC 15/12 Q1018 NOSIG
ZBSJ,2015-10-23 06:00,ZBSJ 230600Z 17002MPS 120V220 2700 BR NSC 16/11 Q1017 BECMG 3500
ZBSJ,2015-10-23 07:00,ZBSJ 230700Z 16003MPS 130V190 3000 HZ NSC 16/11 Q1016 NOSIG
ZBSJ,2015-10-23 08:00,ZBSJ 230800Z 17003MPS 3000 BR NSC 16/12 Q1016 BECMG TL0930 2000 BR
ZBSJ,2015-10-23 09:00,ZBSJ 230900Z 16003MPS 3000 BR NSC 14/12 Q1017 BECMG TL1030 2000 BR
ZBSJ,2015-10-23 10:00,ZBSJ 231000Z 15003MPS 3000 BR NSC 12/11 Q1017 BECMG 2000 BR
ZBSJ,2015-10-23 11:00,ZBSJ 231100Z 16003MPS 3300 BR NSC 11/10 Q1018 NOSIG
ZBSJ,2015-10-23 12:00,ZBSJ 231200Z 16001MPS 2800 BR NSC 11/11 Q1018 NOSIG
ZBSJ,2015-10-23 13:00,ZBSJ 231300Z 21001MPS 2500 BR NSC 11/11 Q1019 NOSIG
ZBSJ,2015-10-23 14:00,ZBSJ 231400Z 20001MPS 2000 BR NSC 10/09 Q1019 NOSIG
ZBSJ,2015-10-23 15:00,ZBSJ 231500Z 18001MPS 2000 BR NSC 10/10 Q1019 NOSIG
ZBSJ,2015-10-23 16:00,ZBSJ 231600Z 24001MPS 1800 BR NSC 10/09 Q1019 NOSIG
ZBSJ,2015-10-23 17:00,ZBSJ 231700Z 25001MPS 1400 R33/0800V2000N BR NSC 09/09 Q1019 NOSIG
ZBSJ,2015-10-23 18:00,ZBSJ 231800Z 24002MPS 0300 R33/0200N FG NSC 08/08 Q1019 NOSIG
ZBSJ,2015-10-23 19:00,ZBSJ 231900Z 31001MPS 0100 R33/0200N FG VV001 09/09 Q1019 NOSIG
ZBSJ,2015-10-23 20:00,ZBSJ 232000Z 31003MPS 0100 R33/0175N FG VV001 09/09 Q1019 NOSIG
ZBSJ,2015-10-23 21:00,ZBSJ 232100Z 32003MPS 0400 R33/0350N FG NSC 08/08 Q1020 NOSIG
ZBSJ,2015-10-23 22:00,ZBSJ 232200Z 27001MPS 2000 R33/0900V1600U BR NSC 07/07 Q1020 NOSIG
ZBSJ,2015-10-23 23:00,ZBSJ 232300Z 32002MPS 2800 BR NSC 08/08 Q1021 BECMG TL0040 3500
ZBSJ,2015-10-24 00:00,ZBSJ 240000Z 32002MPS 300V360 2800 BR NSC 11/11 Q1022 BECMG TL0100 3500
ZBSJ,2015-10-24 01:00,ZBSJ 240100Z 36003MPS 3500 BR NSC 13/11 Q1023 NOSIG
ZBSJ,2015-10-24 02:00,ZBSJ 240200Z 03002MPS 5000 HZ NSC 16/11 Q1024 NOSIG
ZBSJ,2015-10-24 03:00,ZBSJ 240300Z 05004MPS 020V090 3500 BR NSC 15/11 Q1025 NOSIG
ZBSJ,2015-10-24 04:00,ZBSJ 240400Z 05005MPS 3000 BR OVC046 15/12 Q1025 NOSIG
ZBSJ,2015-10-24 05:00,ZBSJ 240500Z 09004MPS 1400 R15/1800D BR OVC046 13/12 Q1025 BECMG TL0630 1500
ZBSJ,2015-10-24 06:00,ZBSJ 240600Z 06005MPS 1400 R33/1300N BR OVC046 13/12 Q1025 NOSIG
ZBSJ,2015-10-24 07:00,ZBSJ 240700Z 06004MPS 1200 R33/1500N BR OVC046 13/12 Q1026 NOSIG
ZBSJ,2015-10-24 08:00,ZBSJ 240800Z 06003MPS 1400 R33/1800U BR OVC046 13/11 Q1026 BECMG TL0930 1600
ZBSJ,2015-10-24 09:00,ZBSJ 240900Z 02002MPS 350V050 1400 R33/P2000N BR OVC046 13/11 Q1027 BECMG TL1030 1600
ZBSJ,2015-10-24 10:00,ZBSJ 241000Z 29002MPS 3500 BR OVC046 13/11 Q1027 BECMG TL1130 2000 BR
ZBSJ,2015-10-24 11:00,ZBSJ 241100Z 34002MPS 2500 BR OVC046 13/12 Q1028 NOSIG
ZBSJ,2015-10-24 12:00,ZBSJ 241200Z 02002MPS 3000 -RA BR OVC046 13/12 Q1028 BECMG TL1330 2500 -RA BR
ZBSJ,2015-10-24 13:00,ZBSJ 241300Z 02001MPS 5000 -RA BR OVC046 13/11 Q1029 NOSIG
ZBSJ,2015-10-24 14:00,ZBSJ 241400Z 36001MPS 6000 -RA OVC046 12/11 Q1029 NOSIG
ZBSJ,2015-10-24 15:00,ZBSJ 241500Z 36001MPS 5000 -RA BR OVC046 12/10 Q1030 NOSIG
ZBSJ,2015-10-24 16:00,ZBSJ 241600Z 36002MPS 350V050 5000 BR OVC046 11/11 Q1029 NOSIG
ZBSJ,2015-10-24 17:00,ZBSJ 241700Z 00000MPS 6000 OVC046 11/10 Q1029 NOSIG
ZBSJ,2015-10-24 18:00,ZBSJ 241800Z 35002MPS 6000 OVC046 11/10 Q1029 NOSIG
ZBSJ,2015-10-24 19:00,ZBSJ 241900Z 34002MPS 6000 OVC046 11/10 Q1029 NOSIG
ZBSJ,2015-10-24 20:00,ZBSJ 242000Z 34002MPS 7000 NSC 10/10 Q1028 NOSIG
ZBSJ,2015-10-24 21:00,ZBSJ 242100Z 35002MPS 8000 NSC 11/10 Q1029 NOSIG
ZBSJ,2015-10-24 22:00,ZBSJ 242200Z 31002MPS 7000 NSC 11/10 Q1029 NOSIG
ZBSJ,2015-10-24 23:00,ZBSJ 242300Z 33002MPS 6000 NSC 11/10 Q1029 NOSIG
ZBSJ,2015-10-25 00:00,ZBSJ 250000Z 33001MPS 6000 NSC 11/11 Q1029 NOSIG
ZBSJ,2015-10-25 01:00,ZBSJ 250100Z 35001MPS 6000 NSC 12/11 Q1029 NOSIG
ZBSJ,2015-10-25 02:00,ZBSJ 250200Z 02001MPS 6000 NSC 12/11 Q1029 NOSIG
ZBSJ,2015-10-25 03:00,ZBSJ 250300Z 03002MPS 8000 NSC 13/10 Q1028 NOSIG
ZBSJ,2015-10-25 04:00,ZBSJ 250400Z 06002MPS 030V090 8000 NSC 13/09 Q1027 NOSIG
ZBSJ,2015-10-25 05:00,ZBSJ 250500Z 05002MPS 8000 NSC 13/10 Q1026 NOSIG
ZBSJ,2015-10-25 06:00,ZBSJ 250600Z 05002MPS 8000 NSC 13/09 Q1025 NOSIG
ZBSJ,2015-10-25 07:00,ZBSJ 250700Z 04002MPS 8000 NSC 13/09 Q1024 NOSIG
ZBSJ,2015-10-25 08:00,ZBSJ 250800Z 04001MPS 8000 -RA OVC046 13/10 Q1024 NOSIG
ZBSJ,2015-10-25 09:00,ZBSJ 250900Z 03001MPS 8000 -RA OVC046 12/10 Q1024 NOSIG
ZBSJ,2015-10-25 10:00,ZBSJ 251000Z 01001MPS 6000 -RA OVC046 11/10 Q1025 NOSIG
ZBSJ,2015-10-25 11:00,ZBSJ 251100Z 36001MPS 6000 -RA OVC046 11/10 Q1025 NOSIG
ZBSJ,2015-10-25 12:00,ZBSJ 251200Z 06003MPS 8000 -RA OVC046 10/08 Q1025 NOSIG
ZBSJ,2015-10-25 13:00,ZBSJ 251300Z 03001MPS 9999 -RA OVC046 09/07 Q1025 NOSIG
ZBSJ,2015-10-25 14:00,ZBSJ 251400Z 01001MPS 9999 -RA OVC046 10/07 Q1025 NOSIG
ZBSJ,2015-10-25 15:00,ZBSJ 251500Z 04001MPS 9999 -RA OVC046 09/08 Q1024 NOSIG
ZBSJ,2015-10-25 16:00,ZBSJ 251600Z 10001MPS 8000 OVC046 09/08 Q1024 NOSIG
ZBSJ,2015-10-25 17:00,ZBSJ 251700Z 00000MPS 8000 OVC046 09/07 Q1023 NOSIG
ZBSJ,2015-10-25 18:00,ZBSJ 251800Z 18001MPS 8000 OVC046 09/08 Q1022 NOSIG
ZBSJ,2015-10-25 19:00,ZBSJ 251900Z 22001MPS 8000 OVC046 09/08 Q1021 NOSIG
ZBSJ,2015-10-25 20:00,ZBSJ 252000Z 22001MPS 8000 OVC046 09/08 Q1020 NOSIG
ZBSJ,2015-10-25 21:00,ZBSJ 252100Z 16002MPS 6000 NSC 07/07 Q1020 NOSIG
ZBSJ,2015-10-25 22:00,ZBSJ 252200Z 17001MPS 6000 NSC 08/07 Q1019 NOSIG
ZBSJ,2015-10-25 23:00,ZBSJ 252300Z 17002MPS 2700 BR NSC 07/07 Q1019 BECMG TL0030 3000
ZBSJ,2015-10-26 00:00,ZBSJ 260000Z 21002MPS 2700 BR NSC 09/08 Q1019 BECMG TL0130 3000
ZBSJ,2015-10-26 01:00,ZBSJ 260100Z 22003MPS 3000 BR NSC 10/08 Q1020 NOSIG
ZBSJ,2015-10-26 02:00,ZBSJ 260200Z 20004MPS 3000 BR NSC 10/09 Q1018 NOSIG
ZBSJ,2015-10-26 03:00,ZBSJ 260300Z 23003MPS 3000 BR SCT040 10/08 Q1019 NOSIG
ZBSJ,2015-10-26 04:00,ZBSJ 260400Z 20001MPS 2700 BR SCT040 10/09 Q1018 BECMG TL0530 33008G14MPS 5000 BR
ZBSJ,2015-10-26 05:00,ZBSJ 260500Z 25001MPS 3000 BR SCT040 12/09 Q1018 BECMG TL0630 33008G14MPS
ZBSJ,2015-10-26 06:00,ZBSJ 260600Z 31004MPS CAVOK 14/07 Q1018 NOSIG
ZBSJ,2015-10-26 07:00,ZBSJ 260700Z 28003MPS CAVOK 15/05 Q1017 NOSIG
ZBSJ,2015-10-26 08:00,ZBSJ 260800Z 26002MPS CAVOK 16/05 Q1017 NOSIG
ZBSJ,2015-10-26 09:00,ZBSJ 260900Z 29004MPS CAVOK 15/00 Q1018 NOSIG
ZBSJ,2015-10-26 10:00,ZBSJ 261000Z 30007MPS CAVOK 14/M03 Q1019 NOSIG
ZBSJ,2015-10-26 11:00,ZBSJ 261100Z 33004MPS CAVOK 11/M02 Q1019 NOSIG
ZBSJ,2015-10-26 12:00,ZBSJ 261200Z 29004MPS CAVOK 11/M02 Q1020 NOSIG
ZBSJ,2015-10-26 13:00,ZBSJ 261300Z 29004MPS CAVOK 11/M02 Q1020 NOSIG
ZBSJ,2015-10-26 14:00,ZBSJ 261400Z 29004MPS CAVOK 11/M03 Q1020 NOSIG
ZBSJ,2015-10-26 15:00,ZBSJ 261500Z 28003MPS 260V320 CAVOK 09/M01 Q1020 NOSIG
ZBSJ,2015-10-26 16:00,ZBSJ 261600Z 29004MPS CAVOK 09/M02 Q1020 NOSIG
ZBSJ,2015-10-26 17:00,ZBSJ 261700Z 29004MPS CAVOK 09/M03 Q1020 NOSIG
ZBSJ,2015-10-26 18:00,ZBSJ 261800Z 29002MPS CAVOK 08/M02 Q1020 NOSIG
ZBSJ,2015-10-26 19:00,ZBSJ 261900Z 27001MPS CAVOK 05/M01 Q1020 NOSIG
ZBSJ,2015-10-26 20:00,ZBSJ 262000Z 25002MPS CAVOK 03/M00 Q1019 NOSIG
ZBSJ,2015-10-26 21:00,ZBSJ 262100Z 27001MPS CAVOK 03/M00 Q1019 NOSIG
ZBSJ,2015-10-26 22:00,ZBSJ 262200Z 31002MPS CAVOK 01/M01 Q1019 NOSIG
ZBSJ,2015-10-26 23:00,ZBSJ 262300Z 31001MPS CAVOK 03/M00 Q1019 NOSIG
ZBSJ,2015-10-27 00:00,ZBSJ 270000Z 24003MPS CAVOK 08/M00 Q1019 NOSIG
ZBSJ,2015-10-27 01:00,ZBSJ 270100Z 25004MPS CAVOK 11/M01 Q1018 NOSIG
ZBSJ,2015-10-27 02:00,ZBSJ 270200Z 25003MPS 230V290 CAVOK 13/M02 Q1018 NOSIG
ZBSJ,2015-10-27 03:00,ZBSJ 270300Z 27002MPS CAVOK 15/M03 Q1018 NOSIG
ZBSJ,2015-10-27 04:00,ZBSJ 270400Z 29003MPS 250V320 CAVOK 17/M02 Q1017 NOSIG
ZBSJ,2015-10-27 05:00,ZBSJ 270500Z 29005MPS 260V330 CAVOK 19/M04 Q1016 NOSIG
ZBSJ,2015-10-27 06:00,ZBSJ 270600Z 25004MPS 210V290 CAVOK 19/M03 Q1015 NOSIG
ZBSJ,2015-10-27 07:00,ZBSJ 270700Z 17002MPS CAVOK 19/M04 Q1014 NOSIG
ZBSJ,2015-10-27 08:00,ZBSJ 270800Z 13002MPS 100V160 CAVOK 18/M02 Q1014 NOSIG
ZBSJ,2015-10-27 09:00,ZBSJ 270900Z 12002MPS CAVOK 16/01 Q1015 NOSIG
ZBSJ,2015-10-27 10:00,ZBSJ 271000Z 14003MPS CAVOK 13/02 Q1015 NOSIG
ZBSJ,2015-10-27 11:00,ZBSJ 271100Z 12002MPS CAVOK 12/03 Q1016 NOSIG
ZBSJ,2015-10-27 12:00,ZBSJ 271200Z 15003MPS CAVOK 10/02 Q1017 NOSIG
ZBSJ,2015-10-27 13:00,ZBSJ 271300Z 16003MPS CAVOK 10/03 Q1017 NOSIG
ZBSJ,2015-10-27 14:00,ZBSJ 271400Z 16003MPS CAVOK 09/03 Q1018 NOSIG
ZBSJ,2015-10-27 15:00,ZBSJ 271500Z 15001MPS CAVOK 09/04 Q1018 NOSIG
ZBSJ,2015-10-27 16:00,ZBSJ 271600Z 32002MPS CAVOK 08/04 Q1018 NOSIG
ZBSJ,2015-10-27 17:00,ZBSJ 271700Z 13001MPS 7000 NSC 06/04 Q1019 NOSIG
ZBSJ,2015-10-27 18:00,ZBSJ 271800Z 32002MPS 7000 NSC 05/03 Q1019 NOSIG
ZBSJ,2015-10-27 19:00,ZBSJ 271900Z 33004MPS CAVOK 05/03 Q1020 NOSIG
ZBSJ,2015-10-27 20:00,ZBSJ 272000Z 34002MPS CAVOK 04/02 Q1021 NOSIG
ZBSJ,2015-10-27 21:00,ZBSJ 272100Z 04001MPS CAVOK 06/01 Q1021 NOSIG
ZBSJ,2015-10-27 22:00,ZBSJ 272200Z 30001MPS CAVOK 05/01 Q1022 NOSIG
ZBSJ,2015-10-27 23:00,ZBSJ 272300Z 30001MPS CAVOK 04/00 Q1023 NOSIG
ZBSJ,2015-10-28 00:00,ZBSJ 280000Z 35002MPS CAVOK 08/02 Q1024 NOSIG
ZBSJ,2015-10-28 01:00,ZBSJ 280100Z 05002MPS 360V070 CAVOK 10/M02 Q1025 NOSIG
ZBSJ,2015-10-28 02:00,ZBSJ 280200Z 11001MPS CAVOK 11/M03 Q1025 NOSIG
ZBSJ,2015-10-28 03:00,ZBSJ 280300Z 18002MPS CAVOK 13/M02 Q1025 NOSIG
ZBSJ,2015-10-28 04:00,ZBSJ 280400Z 09001MPS CAVOK 13/M01 Q1024 NOSIG
ZBSJ,2015-10-28 05:00,ZBSJ 280500Z 12001MPS CAVOK 14/M01 Q1023 NOSIG
ZBSJ,2015-10-28 06:00,ZBSJ 280600Z 13003MPS 080V160 CAVOK 15/M01 Q1022 NOSIG
ZBSJ,2015-10-28 07:00,ZBSJ 280700Z 12002MPS 060V180 CAVOK 15/M00 Q1021 NOSIG
ZBSJ,2015-10-28 08:00,ZBSJ 280800Z 16003MPS 130V190 CAVOK 15/M01 Q1021 NOSIG
ZBSJ,2015-10-28 09:00,ZBSJ 280900Z 12001MPS CAVOK 13/01 Q1021 NOSIG
ZBSJ,2015-10-28 10:00,ZBSJ 281000Z 16001MPS 7000 NSC 09/02 Q1022 NOSIG
ZBSJ,2015-10-28 11:00,ZBSJ 281100Z 05001MPS 7000 NSC 08/04 Q1022 NOSIG
ZBSJ,2015-10-28 12:00,ZBSJ 281200Z 05001MPS 6000 NSC 06/03 Q1023 NOSIG
ZBSJ,2015-10-28 13:00,ZBSJ 281300Z 00000MPS 6000 NSC 06/03 Q1023 NOSIG
ZBSJ,2015-10-28 14:00,ZBSJ 281400Z 00000MPS 6000 NSC 05/03 Q1024 NOSIG
ZBSJ,2015-10-28 15:00,ZBSJ 281500Z 00000MPS 6000 NSC 05/03 Q1024 NOSIG
ZBSJ,2015-10-28 16:00,ZBSJ 281600Z 33002MPS 5000 BR NSC 04/02 Q1024 NOSIG
ZBSJ,2015-10-28 17:00,ZBSJ 281700Z 33002MPS 4000 BR NSC 05/03 Q1024 NOSIG
ZBSJ,2015-10-28 18:00,ZBSJ 281800Z 35001MPS 4000 BR NSC 04/03 Q1024 NOSIG
ZBSJ,2015-10-28 19:00,ZBSJ 281900Z 00000MPS 4000 BR NSC 04/03 Q1024 NOSIG
ZBSJ,2015-10-28 20:00,ZBSJ 282000Z 25001MPS 4500 BR NSC 03/01 Q1025 NOSIG
ZBSJ,2015-10-28 21:00,ZBSJ 282100Z 23001MPS 4500 BR NSC 03/02 Q1025 NOSIG
ZBSJ,2015-10-28 22:00,ZBSJ 282200Z 29001MPS 4500 BR NSC 03/02 Q1026 NOSIG
ZBSJ,2015-10-28 23:00,ZBSJ 282300Z 33002MPS 4000 BR NSC 03/02 Q1026 NOSIG
ZBSJ,2015-10-29 00:00,ZBSJ 290000Z 34002MPS 3500 BR NSC 05/04 Q1027 NOSIG
ZBSJ,2015-10-29 01:00,ZBSJ 290100Z 04001MPS 4000 BR NSC 07/03 Q1028 NOSIG
ZBSJ,2015-10-29 02:00,ZBSJ 290200Z 11002MPS 7000 NSC 09/M01 Q1028 NOSIG
ZBSJ,2015-10-29 03:00,ZBSJ 290300Z 07002MPS 8000 NSC 10/M02 Q1028 NOSIG
ZBSJ,2015-10-29 04:00,ZBSJ 290400Z 16002MPS CAVOK 12/M02 Q1027 NOSIG
ZBSJ,2015-10-29 05:00,ZBSJ 290500Z 18001MPS CAVOK 13/M03 Q1026 NOSIG
ZBSJ,2015-10-29 06:00,ZBSJ 290600Z 09001MPS CAVOK 14/M03 Q1026 NOSIG
ZBSJ,2015-10-29 07:00,ZBSJ 290700Z 16002MPS CAVOK 14/M02 Q1025 NOSIG
ZBSJ,2015-10-29 08:00,ZBSJ 290800Z 19002MPS CAVOK 14/M02 Q1025 NOSIG
ZBSJ,2015-10-29 09:00,ZBSJ 290900Z 18002MPS CAVOK 12/M01 Q1026 NOSIG
ZBSJ,2015-10-29 10:00,ZBSJ 291000Z 20002MPS 8000 NSC 09/01 Q1026 NOSIG
ZBSJ,2015-10-29 11:00,ZBSJ 291100Z 17001MPS 8000 NSC 07/02 Q1027 NOSIG
ZBSJ,2015-10-29 12:00,ZBSJ 291200Z 11001MPS 6000 NSC 06/02 Q1028 NOSIG
ZBSJ,2015-10-29 13:00,ZBSJ 291300Z 04001MPS 5000 HZ NSC 05/01 Q1029 NOSIG
ZBSJ,2015-10-29 14:00,ZBSJ 291400Z 07001MPS 5000 BR NSC 04/01 Q1029 NOSIG
ZBSJ,2015-10-29 15:00,ZBSJ 291500Z 31001MPS 4500 BR NSC 03/01 Q1030 NOSIG
ZBSJ,2015-10-29 16:00,ZBSJ 291600Z 29002MPS 4500 BR NSC 03/01 Q1030 NOSIG
ZBSJ,2015-10-29 17:00,ZBSJ 291700Z 29001MPS 4000 BR NSC 03/01 Q1030 NOSIG
ZBSJ,2015-10-29 18:00,ZBSJ 291800Z 29002MPS 4000 BR NSC 03/01 Q1031 NOSIG
ZBSJ,2015-10-29 19:00,ZBSJ 291900Z 35003MPS 4500 BR NSC 04/01 Q1030 NOSIG
ZBSJ,2015-10-29 20:00,ZBSJ 292000Z 34002MPS 4500 BR NSC 02/M00 Q1031 NOSIG
ZBSJ,2015-10-29 21:00,ZBSJ 292100Z 33002MPS 5000 BR NSC 01/M02 Q1031 NOSIG
ZBSJ,2015-10-29 22:00,ZBSJ 292200Z 05001MPS 5000 BR NSC 01/M01 Q1031 NOSIG
ZBSJ,2015-10-29 23:00,ZBSJ 292300Z 00000MPS 3500 BR NSC 01/M01 Q1032 NOSIG
ZBSJ,2015-10-30 00:00,ZBSJ 300000Z 25002MPS 3000 BR NSC 04/01 Q1033 NOSIG
ZBSJ,2015-10-30 01:00,ZBSJ 300100Z 24002MPS 210V280 4500 HZ NSC 07/00 Q1033 NOSIG
ZBSJ,2015-10-30 02:00,ZBSJ 300200Z 18003MPS 160V220 8000 NSC 09/M02 Q1033 NOSIG
ZBSJ,2015-10-30 03:00,ZBSJ 300300Z 21004MPS CAVOK 12/M04 Q1033 NOSIG
ZBSJ,2015-10-30 04:00,ZBSJ 300400Z 21003MPS 170V240 CAVOK 13/M05 Q1032 NOSIG
ZBSJ,2015-10-30 05:00,ZBSJ 300500Z VRB03MPS CAVOK 14/M05 Q1031 NOSIG
ZBSJ,2015-10-30 06:00,ZBSJ 300600Z VRB02MPS CAVOK 15/M05 Q1030 NOSIG
ZBSJ,2015-10-30 07:00,ZBSJ 300700Z 16003MPS 130V190 CAVOK 15/M05 Q1030 NOSIG
ZBSJ,2015-10-30 08:00,ZBSJ 300800Z 17003MPS CAVOK 14/M03 Q1030 NOSIG
ZBSJ,2015-10-30 09:00,ZBSJ 300900Z 16003MPS CAVOK 10/M01 Q1030 NOSIG
ZBSJ,2015-10-30 10:00,ZBSJ 301000Z 18003MPS CAVOK 09/M01 Q1030 NOSIG
ZBSJ,2015-10-30 11:00,ZBSJ 301100Z 11001MPS CAVOK 07/M00 Q1031 NOSIG
ZBSJ,2015-10-30 12:00,ZBSJ 301200Z 16001MPS 8000 NSC 06/M00 Q1032 NOSIG
ZBSJ,2015-10-30 13:00,ZBSJ 301300Z 21001MPS 6000 NSC 04/01 Q1032 NOSIG
ZBSJ,2015-10-30 14:00,ZBSJ 301400Z 16001MPS 6000 NSC 04/01 Q1032 NOSIG
ZBSJ,2015-10-30 15:00,ZBSJ 301500Z 23001MPS 5000 BR NSC 03/M00 Q1032 NOSIG
ZBSJ,2015-10-30 16:00,ZBSJ 301600Z 30001MPS 5000 BR NSC 04/00 Q1033 NOSIG
ZBSJ,2015-10-30 17:00,ZBSJ 301700Z 28001MPS 5000 BR NSC 04/01 Q1033 NOSIG
ZBSJ,2015-10-30 18:00,ZBSJ 301800Z 35001MPS 5000 BR NSC 03/01 Q1032 NOSIG
ZBSJ,2015-10-30 19:00,ZBSJ 301900Z 30002MPS 5000 BR NSC 01/M01 Q1032 NOSIG
ZBSJ,2015-10-30 20:00,ZBSJ 302000Z 31002MPS 6000 NSC 01/M01 Q1032 NOSIG
ZBSJ,2015-10-30 21:00,ZBSJ 302100Z 32002MPS 6000 NSC 03/00 Q1032 NOSIG
ZBSJ,2015-10-30 22:00,ZBSJ 302200Z 29002MPS 6000 NSC 02/M01 Q1032 NOSIG
ZBSJ,2015-10-30 23:00,ZBSJ 302300Z 28002MPS 5000 BR NSC 01/M00 Q1032 NOSIG
ZBSJ,2015-10-31 00:00,ZBSJ 310000Z 32003MPS 5000 BR NSC 05/01 Q1033 NOSIG
ZBSJ,2015-10-31 01:00,ZBSJ 310100Z 32004MPS 6000 NSC 08/01 Q1034 NOSIG
ZBSJ,2015-10-31 02:00,ZBSJ 310200Z 35002MPS 7000 NSC 11/02 Q1033 NOSIG
ZBSJ,2015-10-31 03:00,ZBSJ 310300Z 31002MPS 7000 NSC 14/M02 Q1032 NOSIG
ZBSJ,2015-10-31 04:00,ZBSJ 310400Z 35001MPS CAVOK 16/M01 Q1031 NOSIG
ZBSJ,2015-10-31 05:00,ZBSJ 310500Z 08001MPS CAVOK 16/M01 Q1030 NOSIG
ZBSJ,2015-10-31 06:00,ZBSJ 310600Z 12002MPS 090V170 CAVOK 16/M02 Q1030 NOSIG
ZBSJ,2015-10-31 07:00,ZBSJ 310700Z 12002MPS CAVOK 16/M02 Q1029 NOSIG
ZBSJ,2015-10-31 08:00,ZBSJ 310800Z 17004MPS 3000 HZ NSC 14/04 Q1029 BECMG 2500 HZ
ZBSJ,2015-10-31 09:00,ZBSJ 310900Z 18003MPS 2500 HZ NSC 12/04 Q1029 NOSIG
ZBSJ,2015-10-31 10:00,ZBSJ 311000Z 17003MPS 5000 HZ NSC 10/02 Q1029 NOSIG
ZBSJ,2015-10-31 11:00,ZBSJ 311100Z 12002MPS 5000 HZ NSC 10/03 Q1029 NOSIG
ZBSJ,2015-10-31 12:00,ZBSJ 311200Z 10001MPS 3500 HZ NSC 09/04 Q1029 NOSIG
ZBSJ,2015-10-31 13:00,ZBSJ 311300Z 12001MPS 3000 BR NSC 08/04 Q1029 NOSIG
ZBSJ,2015-10-31 14:00,ZBSJ 311400Z 00000MPS 2500 BR NSC 07/04 Q1028 NOSIG
ZBSJ,2015-10-31 15:00,ZBSJ 311500Z 14001MPS 2500 BR NSC 07/04 Q1028 NOSIG
ZBSJ,2015-10-31 16:00,ZBSJ 311600Z 00000MPS 2200 BR NSC 06/04 Q1027 NOSIG
ZBSJ,2015-10-31 17:00,ZBSJ 311700Z 21001MPS 2200 BR NSC 06/03 Q1027 NOSIG
ZBSJ,2015-10-31 18:00,ZBSJ 311800Z 20001MPS 2000 BR NSC 06/04 Q1026 NOSIG
ZBSJ,2015-10-31 19:00,ZBSJ 311900Z 13002MPS 070V170 1800 BR NSC 06/05 Q1026 NOSIG
ZBSJ,2015-10-31 20:00,ZBSJ 312000Z 20001MPS 2000 BR NSC 07/05 Q1025 NOSIG
ZBSJ,2015-10-31 21:00,ZBSJ 312100Z 17001MPS 2000 BR NSC 06/05 Q1025 NOSIG
ZBSJ,2015-10-31 22:00,ZBSJ 312200Z 23001MPS 2000 BR NSC 06/05 Q1025 NOSIG
ZBSJ,2015-10-31 23:00,ZBSJ 312300Z 28001MPS 1500 BR NSC 07/05 Q1025 NOSIG
ZBSJ,2015-11-01 05:00,ZBSJ 010500Z 08001MPS CAVOK 18/M04 Q1023 NOSIG
ZBSJ,2015-11-01 06:00,ZBSJ 010600Z 22001MPS CAVOK 19/M06 Q1023 NOSIG
ZBSJ,2015-11-01 07:00,ZBSJ 010700Z 15003MPS 120V180 CAVOK 19/M04 Q1022 NOSIG
ZBSJ,2015-11-01 08:00,ZBSJ 010800Z 19003MPS CAVOK 19/M05 Q1022 NOSIG
ZBSJ,2015-11-01 09:00,ZBSJ 010900Z 18002MPS CAVOK 15/M00 Q1021 NOSIG
ZBSJ,2015-11-01 10:00,ZBSJ 011000Z 16002MPS CAVOK 12/03 Q1021 NOSIG
ZBSJ,2015-11-01 11:00,ZBSJ 011100Z 18003MPS 8000 NSC 10/03 Q1022 NOSIG
ZBSJ,2015-11-01 12:00,ZBSJ 011200Z 16002MPS 8000 NSC 10/03 Q1022 NOSIG
ZBSJ,2015-11-01 13:00,ZBSJ 011300Z 14001MPS 5000 BR NSC 07/04 Q1022 NOSIG
ZBSJ,2015-11-01 14:00,ZBSJ 011400Z 29001MPS 4000 BR NSC 05/03 Q1022 NOSIG
ZBSJ,2015-11-01 15:00,ZBSJ 011500Z 30001MPS 3500 BR NSC 05/03 Q1022 NOSIG
ZBSJ,2015-11-01 16:00,ZBSJ 011600Z 21001MPS 3500 BR NSC 05/03 Q1022 NOSIG
ZBSJ,2015-11-01 17:00,ZBSJ 011700Z 27002MPS 4000 BR NSC 04/02 Q1022 NOSIG
ZBSJ,2015-11-01 18:00,ZBSJ 011800Z 28002MPS 7000 NSC 05/01 Q1022 NOSIG
ZBSJ,2015-11-01 19:00,ZBSJ 011900Z 30003MPS CAVOK 07/00 Q1022 NOSIG
ZBSJ,2015-11-01 20:00,ZBSJ 012000Z 27003MPS CAVOK 07/M01 Q1021 NOSIG
ZBSJ,2015-11-01 21:00,ZBSJ 012100Z 28003MPS CAVOK 07/M01 Q1021 NOSIG
ZBSJ,2015-11-01 22:00,ZBSJ 012200Z 28003MPS CAVOK 05/M01 Q1022 NOSIG
ZBSJ,2015-11-01 23:00,ZBSJ 012300Z 27003MPS CAVOK 07/M01 Q1022 NOSIG
ZBSJ,2015-11-02 00:00,ZBSJ 020000Z 28002MPS CAVOK 09/M00 Q1022 NOSIG
ZBSJ,2015-11-02 01:00,ZBSJ 020100Z 29004MPS CAVOK 12/01 Q1023 NOSIG
ZBSJ,2015-11-02 02:00,ZBSJ 020200Z 27003MPS CAVOK 15/03 Q1023 NOSIG
ZBSJ,2015-11-02 03:00,ZBSJ 020300Z 28003MPS CAVOK 17/01 Q1023 NOSIG
ZBSJ,2015-11-02 04:00,ZBSJ 020400Z 27002MPS CAVOK 19/01 Q1022 NOSIG
ZBSJ,2015-11-02 05:00,ZBSJ 020500Z 18003MPS 130V230 CAVOK 20/M01 Q1021 NOSIG
ZBSJ,2015-11-02 06:00,ZBSJ 020600Z 20005MPS 160V230 CAVOK 21/M01 Q1020 NOSIG
ZBSJ,2015-11-02 07:00,ZBSJ 020700Z 17005MPS CAVOK 20/00 Q1020 NOSIG
ZBSJ,2015-11-02 08:00,ZBSJ 020800Z 17005MPS CAVOK 19/01 Q1020 NOSIG
ZBSJ,2015-11-02 09:00,ZBSJ 020900Z 15002MPS 8000 NSC 15/03 Q1020 NOSIG
ZBSJ,2015-11-02 10:00,ZBSJ 021000Z 13001MPS 7000 NSC 13/03 Q1020 NOSIG
ZBSJ,2015-11-02 11:00,ZBSJ 021100Z 12001MPS 5000 HZ NSC 10/03 Q1021 NOSIG
ZBSJ,2015-11-02 12:00,ZBSJ 021200Z 07001MPS 3500 HZ NSC 08/03 Q1021 NOSIG
ZBSJ,2015-11-02 13:00,ZBSJ 021300Z 12001MPS 3500 HZ NSC 08/04 Q1021 NOSIG
ZBSJ,2015-11-02 14:00,ZBSJ 021400Z 15002MPS 3500 HZ NSC 10/03 Q1021 NOSIG
ZBSJ,2015-11-02 15:00,ZBSJ 021500Z 16002MPS 4000 HZ NSC 09/02 Q1021 NOSIG
ZBSJ,2015-11-02 16:00,ZBSJ 021600Z 17001MPS 3500 BR NSC 07/02 Q1021 NOSIG
ZBSJ,2015-11-02 17:00,ZBSJ 021700Z 16001MPS 3500 BR NSC 07/03 Q1021 NOSIG
ZBSJ,2015-11-02 18:00,ZBSJ 021800Z 00000MPS 3500 BR NSC 05/03 Q1021 NOSIG
ZBSJ,2015-11-02 19:00,ZBSJ 021900Z 22001MPS 3500 BR NSC 04/02 Q1021 NOSIG
ZBSJ,2015-11-02 20:00,ZBSJ 022000Z 25001MPS 3000 BR NSC 04/03 Q1021 NOSIG
ZBSJ,2015-11-02 21:00,ZBSJ 022100Z 19001MPS 2500 BR NSC 03/02 Q1021 NOSIG
ZBSJ,2015-11-02 22:00,ZBSJ 022200Z 00000MPS 2000 BR NSC 03/02 Q1022 NOSIG
ZBSJ,2015-11-02 23:00,ZBSJ 022300Z 21001MPS 1600 BR NSC 02/02 Q1022 BECMG 3000
ZBSJ,2015-11-03 00:00,ZBSJ 030000Z 27002MPS 1800 BR NSC 05/04 Q1023 BECMG TL0130 3000
ZBSJ,2015-11-03 01:00,ZBSJ 030100Z 32001MPS 1600 R33/1400N BR NSC 07/04 Q1023 BECMG 3000
ZBSJ,2015-11-03 02:00,ZBSJ 030200Z 33001MPS 1700 HZ NSC 10/04 Q1023 NOSIG
ZBSJ,2015-11-03 03:00,ZBSJ 030300Z 20001MPS 1800 HZ NSC 12/04 Q1023 BECMG 3000
ZBSJ,2015-11-03 04:00,ZBSJ 030400Z 12002MPS 2000 HZ NSC 13/05 Q1022 BECMG 3000
ZBSJ,2015-11-03 05:00,ZBSJ 030500Z 12002MPS 080V180 3000 HZ NSC 16/04 Q1021 NOSIG
ZBSJ,2015-11-03 06:00,ZBSJ 030600Z 18002MPS 3000 HZ NSC 17/05 Q1021 NOSIG
ZBSJ,2015-11-03 07:00,ZBSJ 030700Z 28001MPS 3000 HZ NSC 18/06 Q1020 NOSIG
ZBSJ,2015-11-03 08:00,ZBSJ 030800Z 02001MPS 3000 HZ NSC 17/07 Q1020 BECMG 2500 HZ
ZBSJ,2015-11-03 09:00,ZBSJ 030900Z 02001MPS 2500 HZ NSC 15/07 Q1020 NOSIG
ZBSJ,2015-11-03 10:00,ZBSJ 031000Z 03001MPS 3500 HZ NSC 13/07 Q1021 BECMG 2500 HZ
ZBSJ,2015-11-03 11:00,ZBSJ 031100Z 02001MPS 2800 HZ NSC 11/07 Q1021 NOSIG
ZBSJ,2015-11-03 12:00,ZBSJ 031200Z 04002MPS 2800 BR NSC 10/06 Q1022 NOSIG
ZBSJ,2015-11-03 13:00,ZBSJ 031300Z 04001MPS 2500 BR NSC 09/06 Q1022 NOSIG
ZBSJ,2015-11-03 14:00,ZBSJ 031400Z 05001MPS 2200 BR NSC 09/06 Q1022 NOSIG
ZBSJ,2015-11-03 15:00,ZBSJ 031500Z 09002MPS 3000 BR NSC 09/06 Q1022 NOSIG
ZBSJ,2015-11-03 16:00,ZBSJ 031600Z 26001MPS 2600 BR NSC 08/05 Q1021 NOSIG
ZBSJ,2015-11-03 17:00,ZBSJ 031700Z 36001MPS 2000 BR NSC 06/05 Q1021 NOSIG
ZBSJ,2015-11-03 18:00,ZBSJ 031800Z 26001MPS 1400 R33/1800N BR NSC 06/05 Q1021 NOSIG
ZBSJ,2015-11-03 19:00,ZBSJ 031900Z 28001MPS 1400 R33/P2000N BR NSC 06/05 Q1021 NOSIG
ZBSJ,2015-11-03 20:00,ZBSJ 032000Z 32001MPS 1400 R33/1800D BR NSC 06/05 Q1021 NOSIG
ZBSJ,2015-11-03 21:00,ZBSJ 032100Z 28001MPS 1400 R33/P2000N BR NSC 06/05 Q1021 NOSIG
ZBSJ,2015-11-03 22:00,ZBSJ 032200Z 29002MPS 1600 BR NSC 06/05 Q1021 NOSIG
ZBSJ,2015-11-03 23:00,ZBSJ 032300Z 33002MPS 1400 R33/1800N BR NSC 07/05 Q1022 BECMG TL0030 1600
ZBSJ,2015-11-04 00:00,ZBSJ 040000Z 00000MPS 1000 R33/1100N BR NSC 06/05 Q1023 NOSIG
ZBSJ,2015-11-04 01:00,ZBSJ 040100Z 33001MPS 1000 R33/1100N BR NSC 09/07 Q1023 BECMG 1600
ZBSJ,2015-11-04 02:00,ZBSJ 040200Z 31002MPS 1700 HZ NSC 12/06 Q1023 NOSIG
ZBSJ,2015-11-04 03:00,ZBSJ 040300Z 06001MPS 1800 HZ NSC 14/06 Q1022 NOSIG
ZBSJ,2015-11-04 04:00,ZBSJ 040400Z 35001MPS 2500 HZ NSC 15/06 Q1022 BECMG 3500
ZBSJ,2015-11-04 05:00,ZBSJ 040500Z 05001MPS 2500 HZ NSC 15/07 Q1021 BECMG 3500
ZBSJ,2015-11-04 06:00,ZBSJ 040600Z 07001MPS 2200 HZ NSC 16/07 Q1021 BECMG 3500
ZBSJ,2015-11-04 07:00,ZBSJ 040700Z 05002MPS 2200 HZ NSC 15/07 Q1020 NOSIG
ZBSJ,2015-11-04 08:00,ZBSJ 040800Z 06001MPS 1800 HZ NSC 14/08 Q1021 NOSIG
ZBSJ,2015-11-04 09:00,ZBSJ 040900Z 36002MPS 1000 R33/1800D HZ NSC 14/09 Q1021 NOSIG
ZBSJ,2015-11-04 10:00,ZBSJ 041000Z 01002MPS 1600 HZ NSC 13/08 Q1022 NOSIG
ZBSJ,2015-11-04 11:00,ZBSJ 041100Z 02002MPS 1800 HZ NSC 13/08 Q1022 NOSIG
ZBSJ,2015-11-04 12:00,ZBSJ 041200Z 01001MPS 1800 HZ NSC 12/08 Q1023 NOSIG
ZBSJ,2015-11-04 13:00,ZBSJ 041300Z 36001MPS 1800 BR NSC 11/07 Q1023 NOSIG
ZBSJ,2015-11-04 14:00,ZBSJ 041400Z 34002MPS 1800 BR NSC 11/08 Q1023 NOSIG
ZBSJ,2015-11-04 15:00,ZBSJ 041500Z 36001MPS 1800 BR NSC 11/08 Q1024 NOSIG
ZBSJ,2015-11-04 16:00,ZBSJ 041600Z 35001MPS 1800 BR NSC 11/07 Q1024 NOSIG
ZBSJ,2015-11-04 17:00,ZBSJ 041700Z 34002MPS 2200 BR NSC 10/07 Q1024 NOSIG
ZBSJ,2015-11-04 18:00,ZBSJ 041800Z 34003MPS 2000 BR NSC 10/07 Q1024 NOSIG
ZBSJ,2015-11-04 19:00,ZBSJ 041900Z 34002MPS 1800 BR NSC 09/07 Q1024 NOSIG
ZBSJ,2015-11-04 20:00,ZBSJ 042000Z 32003MPS 1800 BR NSC 10/07 Q1024 NOSIG
ZBSJ,2015-11-04 21:00,ZBSJ 042100Z 32003MPS 1800 BR NSC 11/08 Q1024 NOSIG
ZBSJ,2015-11-04 22:00,ZBSJ 042200Z 33002MPS 1800 BR NSC 10/08 Q1024 NOSIG
ZBSJ,2015-11-04 23:00,ZBSJ 042300Z 32002MPS 1200 R33/2000D BR NSC 10/08 Q1025 NOSIG
ZBSJ,2015-11-05 00:00,ZBSJ 050000Z 34002MPS 1000 R33/1300N BR NSC 11/09 Q1026 NOSIG
ZBSJ,2015-11-05 01:00,ZBSJ 050100Z 05002MPS 010V070 1300 R33/1500N HZ NSC 13/08 Q1027 NOSIG
ZBSJ,2015-11-05 02:00,ZBSJ 050200Z 05004MPS 1700 HZ NSC 13/07 Q1027 NOSIG
ZBSJ,2015-11-05 03:00,ZBSJ 050300Z 05004MPS 360V070 1800 HZ NSC 14/08 Q1027 NOSIG
ZBSJ,2015-11-05 04:00,ZBSJ 050400Z 05006MPS 1800 HZ NSC 14/08 Q1026 NOSIG
ZBSJ,2015-11-05 05:00,ZBSJ 050500Z 06005MPS 1700 HZ NSC 15/09 Q1026 NOSIG
ZBSJ,2015-11-05 06:00,ZBSJ 050600Z 08007MPS 5000 HZ BKN040 13/09 Q1026 NOSIG
ZBSJ,2015-11-05 07:00,ZBSJ 050700Z 08007MPS 8000 BKN033 12/06 Q1027 NOSIG
ZBSJ,2015-11-05 08:00,ZBSJ 050800Z 08006MPS 8000 BKN033 11/06 Q1027 NOSIG
ZBSJ,2015-11-05 09:00,ZBSJ 050900Z 08008MPS 8000 OVC030 10/03 Q1027 NOSIG
ZBSJ,2015-11-05 10:00,ZBSJ 051000Z 09005MPS 9999 OVC033 10/02 Q1028 NOSIG
ZBSJ,2015-11-05 11:00,ZBSJ 051100Z 09004MPS 9999 OVC033 09/02 Q1028 NOSIG
ZBSJ,2015-11-05 12:00,ZBSJ 051200Z 08004MPS 9999 OVC033 09/02 Q1030 NOSIG
ZBSJ,2015-11-05 13:00,ZBSJ 051300Z 11003MPS 060V140 9999 -RA OVC033 08/02 Q1030 NOSIG
ZBSJ,2015-11-05 14:00,ZBSJ 051400Z 23001MPS 8000 -RA OVC033 06/05 Q1030 NOSIG
ZBSJ,2015-11-05 15:00,ZBSJ 051500Z 07005MPS 9999 OVC033 06/01 Q1031 NOSIG
ZBSJ,2015-11-05 16:00,ZBSJ 051600Z 03003MPS 350V050 9999 -RA OVC033 05/02 Q1030 NOSIG
ZBSJ,2015-11-05 17:00,ZBSJ 051700Z 35003MPS 330V030 9999 OVC033 05/02 Q1030 NOSIG
ZBSJ,2015-11-05 18:00,ZBSJ 051800Z 03003MPS 340V070 9999 -RA OVC033 04/00 Q1030 NOSIG
ZBSJ,2015-11-05 19:00,ZBSJ 051900Z 03002MPS 9999 -RA -PL OVC030 03/00 Q1030 NOSIG
ZBSJ,2015-11-05 20:00,ZBSJ 052000Z 36003MPS 5000 -RASN -PL OVC026 02/01 Q1029 NOSIG
ZBSJ,2015-11-05 21:00,ZBSJ 052100Z 34003MPS 1500 -SN BR OVC026 00/M00 Q1030 NOSIG
ZBSJ,2015-11-05 22:00,ZBSJ 052200Z 01003MPS 1500 -SN BR OVC026 00/00 Q1030 RESN NOSIG
ZBSJ,2015-11-05 23:00,ZBSJ 052300Z 03002MPS 1200 R33/1600N -SN BR OVC026 00/00 Q1030 NOSIG
ZBSJ,2015-11-06 00:00,ZBSJ 060000Z 02002MPS 1500 -SN BR OVC026 00/00 Q1031 NOSIG
ZBSJ,2015-11-06 01:00,ZBSJ 060100Z 01004MPS 3000 -SN BR OVC026 01/00 Q1031 NOSIG
ZBSJ,2015-11-06 02:00,ZBSJ 060200Z 02003MPS 360V070 4000 -DZ BR OVC026 01/00 Q1031 NOSIG
ZBSJ,2015-11-06 03:00,ZBSJ 060300Z 02003MPS 350V050 5000 BR OVC040 01/00 Q1031 NOSIG
ZBSJ,2015-11-06 04:00,ZBSJ 060400Z 36003MPS 330V040 5000 -DZ BR OVC040 01/00 Q1031 NOSIG
ZBSJ,2015-11-06 05:00,ZBSJ 060500Z 01003MPS 4000 BR OVC040 01/01 Q1029 NOSIG
ZBSJ,2015-11-06 06:00,ZBSJ 060600Z 03003MPS 360V070 2200 BR OVC040 01/01 Q1028 NOSIG
ZBSJ,2015-11-06 07:00,ZBSJ 060700Z 36002MPS 1600 -DZ BR OVC040 01/01 Q1028 BECMG 1400 -DZ BR
ZBSJ,2015-11-06 08:00,ZBSJ 060800Z 35002MPS 1800 -DZ BR OVC040 02/01 Q1028 BECMG 1400 -DZ BR
ZBSJ,2015-11-06 09:00,ZBSJ 060900Z 34002MPS 1400 R33/2000D -DZ BR OVC040 02/01 Q1029 BECMG 1600
ZBSJ,2015-11-06 10:00,ZBSJ 061000Z 02002MPS 4500 BR OVC040 02/01 Q1029 NOSIG
ZBSJ,2015-11-06 11:00,ZBSJ 061100Z 01002MPS 4500 BR OVC040 02/01 Q1029 NOSIG
ZBSJ,2015-11-06 12:00,ZBSJ 061200Z 32003MPS 4000 BR OVC040 02/01 Q1029 NOSIG
ZBSJ,2015-11-06 13:00,ZBSJ 061300Z 28004MPS 3000 BR OVC040 02/02 Q1029 BECMG 2000 BR
ZBSJ,2015-11-06 14:00,ZBSJ 061400Z 31002MPS 3500 -DZ BR OVC040 02/02 Q1029 BECMG 1500 -SNRA BR
ZBSJ,2015-11-06 15:00,ZBSJ 061500Z 35002MPS 2500 -RA BR OVC040 02/02 Q1029 NOSIG
ZBSJ,2015-11-06 16:00,ZBSJ 061600Z 34002MPS 3000 -RA BR OVC040 02/02 Q1029 NOSIG
ZBSJ,2015-11-06 17:00,ZBSJ 061700Z 34003MPS 4500 BR OVC040 02/02 Q1029 NOSIG
ZBSJ,2015-11-06 18:00,ZBSJ 061800Z 33003MPS 5000 BR OVC040 02/02 Q1028 NOSIG
ZBSJ,2015-11-06 19:00,ZBSJ 061900Z 32003MPS 5000 BR OVC040 02/02 Q1028 NOSIG
ZBSJ,2015-11-06 20:00,ZBSJ 062000Z 33002MPS 6000 OVC040 02/02 Q1027 NOSIG
ZBSJ,2015-11-06 21:00,ZBSJ 062100Z 33002MPS 6000 OVC040 03/02 Q1027 NOSIG
ZBSJ,2015-11-06 22:00,ZBSJ 062200Z 36001MPS 7000 OVC040 03/02 Q1028 NOSIG
ZBSJ,2015-11-06 23:00,ZBSJ 062300Z 05001MPS 5000 BR OVC040 03/02 Q1028 NOSIG
ZBSJ,2015-11-07 00:00,ZBSJ 070000Z 05002MPS 020V080 4500 BR OVC040 03/02 Q1028 NOSIG
ZBSJ,2015-11-07 01:00,ZBSJ 070100Z 03001MPS 3500 BR OVC040 04/02 Q1029 NOSIG
ZBSJ,2015-11-07 02:00,ZBSJ 070200Z 06002MPS 4500 BR SCT020 OVC046 04/03 Q1028 NOSIG
ZBSJ,2015-11-07 03:00,ZBSJ 070300Z 05002MPS 4500 BR SCT030 BKN046 05/03 Q1028 NOSIG
ZBSJ,2015-11-07 04:00,ZBSJ 070400Z 07001MPS 3500 BR SCT030 OVC040 05/03 Q1027 NOSIG
ZBSJ,2015-11-07 05:00,ZBSJ 070500Z 02002MPS 330V070 2500 BR SCT030 BKN040 06/03 Q1025 BECMG TL0630 3000
ZBSJ,2015-11-07 06:00,ZBSJ 070600Z 32001MPS 2800 BR SCT030 BKN040 07/02 Q1025 BECMG TL0630 3000
ZBSJ,2015-11-07 07:00,ZBSJ 070700Z 03001MPS 3000 BR SCT030 BKN040 07/03 Q1025 BECMG 2500
ZBSJ,2015-11-07 08:00,ZBSJ 070800Z 06002MPS 2700 BR BKN040 07/03 Q1025 NOSIG
ZBSJ,2015-11-07 09:00,ZBSJ 070900Z 08003MPS 5000 BR BKN040 06/03 Q1025 NOSIG
ZBSJ,2015-11-07 10:00,ZBSJ 071000Z 08002MPS 6000 BKN040 05/03 Q1026 NOSIG
ZBSJ,2015-11-07 11:00,ZBSJ 071100Z 06002MPS 6000 BKN040 05/03 Q1026 NOSIG
ZBSJ,2015-11-07 12:00,ZBSJ 071200Z 00000MPS 6000 BKN040 05/03 Q1027 NOSIG
ZBSJ,2015-11-07 13:00,ZBSJ 071300Z 00000MPS 5000 BR OVC046 05/03 Q1027 NOSIG
ZBSJ,2015-11-07 14:00,ZBSJ 071400Z 24001MPS 4500 BR OVC046 05/04 Q1027 NOSIG
ZBSJ,2015-11-07 15:00,ZBSJ 071500Z 33001MPS 4000 -RA BR OVC040 05/04 Q1027 NOSIG
ZBSJ,2015-11-07 16:00,ZBSJ 071600Z 35001MPS 3000 -RA BR OVC040 05/04 Q1027 NOSIG
ZBSJ,2015-11-07 17:00,ZBSJ 071700Z 00000MPS 3000 BR OVC040 05/04 Q1026 NOSIG
ZBSJ,2015-11-07 18:00,ZBSJ 071800Z 12001MPS 3000 BR OVC040 05/04 Q1026 NOSIG
ZBSJ,2015-11-07 19:00,ZBSJ 071900Z 14002MPS 3000 BR OVC040 04/04 Q1025 NOSIG
ZBSJ,2015-11-07 20:00,ZBSJ 072000Z 13001MPS 5000 BR OVC040 04/03 Q1025 NOSIG
ZBSJ,2015-11-07 21:00,ZBSJ 072100Z 13001MPS 5000 BR OVC040 04/03 Q1025 NOSIG
ZBSJ,2015-11-07 22:00,ZBSJ 072200Z 12001MPS 4000 BR OVC040 04/03 Q1025 NOSIG
ZBSJ,2015-11-07 23:00,ZBSJ 072300Z 13001MPS 2500 BR OVC040 04/03 Q1025 NOSIG
ZBSJ,2015-11-08 00:00,ZBSJ 080000Z 14001MPS 2500 BR OVC040 04/03 Q1026 NOSIG
ZBSJ,2015-11-08 01:00,ZBSJ 080100Z 16002MPS 2500 BR OVC040 05/03 Q1026 NOSIG
ZBSJ,2015-11-08 02:00,ZBSJ 080200Z 11001MPS 3500 BR NSC 05/03 Q1026 NOSIG
ZBSJ,2015-11-08 03:00,ZBSJ 080300Z 11001MPS 2200 BR NSC 06/03 Q1026 NOSIG
ZBSJ,2015-11-08 04:00,ZBSJ 080400Z 11001MPS 2200 BR NSC 06/03 Q1025 NOSIG
ZBSJ,2015-11-08 05:00,ZBSJ 080500Z 10002MPS 2200 BR NSC 07/04 Q1024 NOSIG
ZBSJ,2015-11-08 06:00,ZBSJ 080600Z 12002MPS 2000 BR NSC 07/03 Q1023 NOSIG
ZBSJ,2015-11-08 07:00,ZBSJ 080700Z 13003MPS 1800 BR NSC 07/04 Q1023 NOSIG
ZBSJ,2015-11-08 08:00,ZBSJ 080800Z 14002MPS 1800 BR NSC 07/04 Q1024 BECMG 1400 BR
ZBSJ,2015-11-08 09:00,ZBSJ 080900Z 12002MPS 1800 BR NSC 06/04 Q1024 BECMG 1400 BR
ZBSJ,2015-11-08 10:00,ZBSJ 081000Z 13002MPS 2500 BR NSC 06/04 Q1025 NOSIG
ZBSJ,2015-11-08 11:00,ZBSJ 081100Z 17002MPS 2500 BR NSC 06/04 Q1026 NOSIG
ZBSJ,2015-11-08 12:00,ZBSJ 081200Z 16002MPS 2500 BR NSC 06/04 Q1026 NOSIG
ZBSJ,2015-11-08 13:00,ZBSJ 081300Z 19002MPS 3000 BR NSC 06/04 Q1026 NOSIG
ZBSJ,2015-11-08 14:00,ZBSJ 081400Z 18002MPS 3000 BR NSC 06/04 Q1026 NOSIG
ZBSJ,2015-11-08 15:00,ZBSJ 081500Z 21002MPS 3000 BR NSC 06/04 Q1026 NOSIG
ZBSJ,2015-11-08 16:00,ZBSJ 081600Z 17001MPS 2700 BR NSC 06/05 Q1026 NOSIG
ZBSJ,2015-11-08 17:00,ZBSJ 081700Z 18002MPS 2700 BR NSC 06/05 Q1026 NOSIG
ZBSJ,2015-11-08 18:00,ZBSJ 081800Z 23001MPS 2700 BR NSC 06/05 Q1026 NOSIG
ZBSJ,2015-11-08 19:00,ZBSJ 081900Z 25002MPS 2700 BR NSC 06/04 Q1025 NOSIG
ZBSJ,2015-11-08 20:00,ZBSJ 082000Z 27002MPS 230V300 2700 BR NSC 06/05 Q1025 NOSIG
ZBSJ,2015-11-08 21:00,ZBSJ 082100Z 25002MPS 220V280 2500 BR NSC 06/04 Q1025 NOSIG
ZBSJ,2015-11-08 22:00,ZBSJ 082200Z 00000MPS 2500 BR NSC 06/05 Q1026 NOSIG
ZBSJ,2015-11-08 23:00,ZBSJ 082300Z 29001MPS 1800 BR NSC 06/04 Q1027 BECMG 1400 BR
ZBSJ,2015-11-09 00:00,ZBSJ 090000Z 16001MPS 1400 R33/1900D BR NSC 06/05 Q1027 BECMG TL0130 1600
ZBSJ,2015-11-09 01:00,ZBSJ 090100Z 11001MPS 1500 BR NSC 07/04 Q1028 NOSIG
ZBSJ,2015-11-09 02:00,ZBSJ 090200Z 16001MPS 1500 BR OVC040 07/04 Q1028 NOSIG
ZBSJ,2015-11-09 03:00,ZBSJ 090300Z 12002MPS 1500 BR OVC046 07/04 Q1028 NOSIG
ZBSJ,2015-11-09 04:00,ZBSJ 090400Z 17002MPS 130V200 1500 BR OVC046 07/04 Q1028 NOSIG
ZBSJ,2015-11-09 05:00,ZBSJ 090500Z 14002MPS 1500 BR OVC046 08/05 Q1027 NOSIG
ZBSJ,2015-11-09 06:00,ZBSJ 090600Z 18002MPS 150V210 1500 BR OVC046 08/04 Q1026 NOSIG
ZBSJ,2015-11-09 07:00,ZBSJ 090700Z 18003MPS 150V230 1800 BR OVC046 08/04 Q1026 NOSIG
ZBSJ,2015-11-09 08:00,ZBSJ 090800Z 16003MPS 130V210 2200 BR BKN040 08/05 Q1026 BECMG 3500
ZBSJ,2015-11-09 09:00,ZBSJ 090900Z 19003MPS 150V220 2500 BR BKN040 08/04 Q1027 BECMG 3500
ZBSJ,2015-11-09 10:00,ZBSJ 091000Z 14002MPS 4000 BR BKN040 08/05 Q1027 NOSIG
ZBSJ,2015-11-09 11:00,ZBSJ 091100Z 15002MPS 4000 BR BKN040 08/05 Q1028 NOSIG
ZBSJ,2015-11-09 12:00,ZBSJ 091200Z 12001MPS 3500 BR NSC 08/05 Q1028 BECMG 2500 BR
ZBSJ,2015-11-09 13:00,ZBSJ 091300Z 11001MPS 3500 BR NSC 08/05 Q1028 BECMG 2500 BR
ZBSJ,2015-11-09 14:00,ZBSJ 091400Z 12001MPS 3500 BR NSC 08/05 Q1029 NOSIG
ZBSJ,2015-11-09 15:00,ZBSJ 091500Z 13002MPS 3500 BR NSC 07/05 Q1029 NOSIG
ZBSJ,2015-11-09 16:00,ZBSJ 091600Z 13002MPS 3500 BR NSC 07/05 Q1028 NOSIG
ZBSJ,2015-11-09 17:00,ZBSJ 091700Z 13001MPS 3000 BR NSC 07/05 Q1028 NOSIG
ZBSJ,2015-11-09 18:00,ZBSJ 091800Z 15002MPS 3000 BR NSC 07/05 Q1028 NOSIG
ZBSJ,2015-11-09 19:00,ZBSJ 091900Z 15002MPS 3000 BR NSC 07/05 Q1028 NOSIG
ZBSJ,2015-11-09 20:00,ZBSJ 092000Z 15002MPS 3000 BR NSC 07/05 Q1028 NOSIG
ZBSJ,2015-11-09 21:00,ZBSJ 092100Z 14002MPS 2500 BR NSC 07/05 Q1028 NOSIG
ZBSJ,2015-11-09 22:00,ZBSJ 092200Z 14002MPS 2500 BR NSC 07/05 Q1028 NOSIG
ZBSJ,2015-11-09 23:00,ZBSJ 092300Z 15002MPS 2000 BR OVC046 06/05 Q1029 BECMG 3000
ZBSJ,2015-11-10 00:00,ZBSJ 100000Z 15003MPS 1400 R33/1700N -DZ BR OVC046 06/06 Q1029 BECMG 1600
ZBSJ,2015-11-10 01:00,ZBSJ 100100Z 15003MPS 1000 R33/1400N -DZ BR OVC046 06/06 Q1030 BECMG 1600
ZBSJ,2015-11-10 02:00,ZBSJ 100200Z 16003MPS 1000 R33/1400N -DZ BR OVC040 06/06 Q1029 BECMG 1600
ZBSJ,2015-11-10 03:00,ZBSJ 100300Z 15003MPS 1000 R33/1300N -DZ BR OVC040 07/06 Q1029 BECMG 1600
ZBSJ,2015-11-10 04:00,ZBSJ 100400Z 15002MPS 1000 R33/1500N -DZ BR OVC040 07/06 Q1029 NOSIG
ZBSJ,2015-11-10 05:00,ZBSJ 100500Z 15003MPS 1000 R33/1300N -DZ BR OVC040 07/06 Q1028 NOSIG
ZBSJ,2015-11-10 06:00,ZBSJ 100600Z 14002MPS 0900 R33/1200N -DZ FG OVC040 07/06 Q1027 NOSIG
ZBSJ,2015-11-10 07:00,ZBSJ 100700Z 14002MPS 0900 R33/1400N -DZ FG OVC040 07/06 Q1027 NOSIG
ZBSJ,2015-11-10 08:00,ZBSJ 100800Z 14002MPS 1000 R33/1600N -DZ BR OVC040 07/06 Q1027 NOSIG
ZBSJ,2015-11-10 09:00,ZBSJ 100900Z 13002MPS 1100 R33/2000U BR OVC040 07/06 Q1028 NOSIG
ZBSJ,2015-11-10 10:00,ZBSJ 101000Z 12001MPS 2000 BR OVC040 07/06 Q1028 NOSIG
ZBSJ,2015-11-10 11:00,ZBSJ 101100Z 12001MPS 2000 BR OVC040 07/06 Q1029 NOSIG
ZBSJ,2015-11-10 12:00,ZBSJ 101200Z 13001MPS 1800 BR OVC040 07/06 Q1029 NOSIG
ZBSJ,2015-11-10 13:00,ZBSJ 101300Z 13001MPS 1700 BR OVC040 07/06 Q1029 BECMG 1400 BR
ZBSJ,2015-11-10 14:00,ZBSJ 101400Z 12001MPS 1600 BR OVC040 07/06 Q1029 BECMG 1400 BR
ZBSJ,2015-11-10 15:00,ZBSJ 101500Z 09001MPS 1600 BR OVC040 07/06 Q1030 BECMG 1400 BR
ZBSJ,2015-11-10 16:00,ZBSJ 101600Z 12001MPS 1600 BR OVC046 07/06 Q1030 NOSIG
ZBSJ,2015-11-10 17:00,ZBSJ 101700Z 05001MPS 1600 BR NSC 07/06 Q1030 NOSIG
ZBSJ,2015-11-10 18:00,ZBSJ 101800Z 05001MPS 1600 BR NSC 06/06 Q1029 NOSIG
ZBSJ,2015-11-10 19:00,ZBSJ 101900Z 10001MPS 1400 R33/1900N BR NSC 06/06 Q1029 NOSIG
ZBSJ,2015-11-10 20:00,ZBSJ 102000Z 10001MPS 1400 R33/1900N BR NSC 06/06 Q1029 NOSIG
ZBSJ,2015-11-10 21:00,ZBSJ 102100Z 12001MPS 1400 R33/P2000N BR NSC 06/06 Q1029 NOSIG
ZBSJ,2015-11-10 22:00,ZBSJ 102200Z 13001MPS 1600 BR NSC 06/06 Q1029 NOSIG
ZBSJ,2015-11-10 23:00,ZBSJ 102300Z 13001MPS 1300 R33/1900D BR NSC 06/06 Q1030 BECMG TL0030 1600
ZBSJ,2015-11-11 00:00,ZBSJ 110000Z 13001MPS 1000 R33/1300N BR NSC 07/06 Q1030 BECMG TL0130 1600
ZBSJ,2015-11-11 01:00,ZBSJ 110100Z 12001MPS 1000 R33/1200N BR NSC 07/06 Q1031 NOSIG
ZBSJ,2015-11-11 02:00,ZBSJ 110200Z 14002MPS 1000 R33/1200N BR NSC 07/05 Q1031 NOSIG
ZBSJ,2015-11-11 03:00,ZBSJ 110300Z 16002MPS 130V190 1000 R33/1300U BR NSC 08/05 Q1031 NOSIG
ZBSJ,2015-11-11 04:00,ZBSJ 110400Z 18003MPS 1000 R33/1300N BR NSC 08/06 Q1031 NOSIG
ZBSJ,2015-11-11 05:00,ZBSJ 110500Z 16003MPS 130V190 1300 R33/1500N BR NSC 08/05 Q1030 NOSIG
ZBSJ,2015-11-11 06:00,ZBSJ 110600Z 15002MPS 1400 R33/1600N BR NSC 08/05 Q1030 BECMG 1600
ZBSJ,2015-11-11 07:00,ZBSJ 110700Z 14002MPS 1400 R33/1600N BR NSC 08/05 Q1030 NOSIG
ZBSJ,2015-11-11 08:00,ZBSJ 110800Z 12001MPS 1200 R33/1500N BR NSC 08/06 Q1030 BECMG 1600
ZBSJ,2015-11-11 09:00,ZBSJ 110900Z 12001MPS 1000 R33/1800U BR NSC 08/06 Q1030 NOSIG
ZBSJ,2015-11-11 10:00,ZBSJ 111000Z 13001MPS 1600 BR NSC 08/06 Q1030 NOSIG
ZBSJ,2015-11-11 11:00,ZBSJ 111100Z 08001MPS 1800 BR NSC 08/06 Q1031 NOSIG
ZBSJ,2015-11-11 12:00,ZBSJ 111200Z 06001MPS 1800 BR NSC 08/06 Q1031 NOSIG
ZBSJ,2015-11-11 13:00,ZBSJ 111300Z 10001MPS 1800 BR NSC 08/06 Q1031 BECMG TL1430 1400 BR
ZBSJ,2015-11-11 14:00,ZBSJ 111400Z 08001MPS 1800 BR NSC 08/06 Q1031 BECMG TL1530 1400 BR
ZBSJ,2015-11-11 15:00,ZBSJ 111500Z 12001MPS 1800 BR NSC 08/06 Q1031 NOSIG
ZBSJ,2015-11-11 16:00,ZBSJ 111600Z 10001MPS 1800 BR NSC 07/06 Q1031 NOSIG
ZBSJ,2015-11-11 17:00,ZBSJ 111700Z 11001MPS 1800 BR NSC 07/06 Q1031 NOSIG
ZBSJ,2015-11-11 18:00,ZBSJ 111800Z 15001MPS 1800 BR NSC 07/06 Q1031 NOSIG
ZBSJ,2015-11-11 19:00,ZBSJ 111900Z 12001MPS 1800 BR NSC 07/06 Q1030 NOSIG
ZBSJ,2015-11-11 20:00,ZBSJ 112000Z 12002MPS 1800 BR NSC 07/06 Q1030 NOSIG
ZBSJ,2015-11-11 21:00,ZBSJ 112100Z 13001MPS 1800 BR NSC 07/06 Q1030 NOSIG
ZBSJ,2015-11-11 22:00,ZBSJ 112200Z 17001MPS 1400 R33/P2000N BR NSC 07/06 Q1030 NOSIG
ZBSJ,2015-11-11 23:00,ZBSJ 112300Z 13001MPS 1000 R33/P2000N BR NSC 07/06 Q1030 BECMG 1500
ZBSJ,2015-11-12 00:00,ZBSJ 120000Z 14001MPS 1200 R33/1600U BR OVC046 07/06 Q1031 BECMG TL0130 1500
ZBSJ,2015-11-12 01:00,ZBSJ 120100Z 14001MPS 1100 R33/1400N BR OVC046 08/06 Q1032 NOSIG
ZBSJ,2015-11-12 02:00,ZBSJ 120200Z 14002MPS 1100 R33/1200U BR OVC046 08/06 Q1031 NOSIG
ZBSJ,2015-11-12 03:00,ZBSJ 120300Z 16002MPS 1500 BR NSC 10/06 Q1031 NOSIG
ZBSJ,2015-11-12 04:00,ZBSJ 120400Z 17002MPS 1700 HZ NSC 10/05 Q1030 NOSIG
ZBSJ,2015-11-12 05:00,ZBSJ 120500Z 16002MPS 130V210 1800 HZ NSC 10/05 Q1029 NOSIG
ZBSJ,2015-11-12 06:00,ZBSJ 120600Z 16002MPS 130V210 2700 HZ NSC 10/04 Q1028 BECMG 3500
ZBSJ,2015-11-12 07:00,ZBSJ 120700Z 16001MPS 2500 HZ NSC 10/05 Q1028 BECMG 3500
ZBSJ,2015-11-12 08:00,ZBSJ 120800Z 03001MPS 2200 HZ NSC 10/05 Q1027 NOSIG
ZBSJ,2015-11-12 09:00,ZBSJ 120900Z 05001MPS 2000 BR OVC046 09/05 Q1027 NOSIG
ZBSJ,2015-11-12 10:00,ZBSJ 121000Z 05001MPS 2000 BR OVC046 09/06 Q1027 NOSIG
ZBSJ,2015-11-12 11:00,ZBSJ 121100Z 07001MPS 1800 BR OVC046 08/06 Q1027 NOSIG
ZBSJ,2015-11-12 12:00,ZBSJ 121200Z 06001MPS 1400 R33/1800N BR OVC046 08/07 Q1027 BECMG 1500
ZBSJ,2015-11-12 13:00,ZBSJ 121300Z 04001MPS 1400 R33/1500N BR OVC046 08/07 Q1027 NOSIG
ZBSJ,2015-11-12 14:00,ZBSJ 121400Z 02001MPS 1200 R33/1300U BR OVC046 07/07 Q1027 NOSIG
ZBSJ,2015-11-12 15:00,ZBSJ 121500Z 04001MPS 1000 R33/1400N BR OVC046 07/07 Q1027 NOSIG
ZBSJ,2015-11-12 16:00,ZBSJ 121600Z 35001MPS 1000 R33/1400D BR OVC046 07/06 Q1026 NOSIG
ZBSJ,2015-11-12 17:00,ZBSJ 121700Z 02001MPS 1000 R33/1500N BR OVC046 07/07 Q1025 NOSIG
ZBSJ,2015-11-12 18:00,ZBSJ 121800Z 03001MPS 1000 R33/1400U BR OVC046 07/07 Q1025 NOSIG
ZBSJ,2015-11-12 19:00,ZBSJ 121900Z 04001MPS 1000 R33/1500D BR OVC046 07/07 Q1025 NOSIG
ZBSJ,2015-11-12 20:00,ZBSJ 122000Z 03001MPS 1000 R33/1600N BR OVC046 07/06 Q1024 NOSIG
ZBSJ,2015-11-12 21:00,ZBSJ 122100Z 01001MPS 1200 R33/P2000D BR OVC046 07/06 Q1024 NOSIG
ZBSJ,2015-11-12 22:00,ZBSJ 122200Z 04001MPS 1200 R33/1700N BR OVC046 07/06 Q1023 NOSIG
ZBSJ,2015-11-12 23:00,ZBSJ 122300Z 05001MPS 1100 R33/1600D BR OVC046 07/06 Q1023 NOSIG
ZBSJ,2015-11-13 00:00,ZBSJ 130000Z 07001MPS 0800 R33/1100N FG OVC040 07/06 Q1023 NOSIG
ZBSJ,2015-11-13 01:00,ZBSJ 130100Z 09001MPS 0800 R33/1100N FG OVC040 08/06 Q1024 BECMG TL0230 1500 HZ
ZBSJ,2015-11-13 02:00,ZBSJ 130200Z 04001MPS 0800 R33/1100N FG OVC040 08/06 Q1023 NOSIG
ZBSJ,2015-11-13 03:00,ZBSJ 130300Z 04001MPS 0800 R33/1000N FG OVC040 09/07 Q1023 NOSIG
ZBSJ,2015-11-13 04:00,ZBSJ 130400Z 03001MPS 0800 R33/1000N HZ OVC040 09/07 Q1021 NOSIG
ZBSJ,2015-11-13 05:00,ZBSJ 130500Z 36001MPS 0800 R33/1100N HZ OVC040 10/06 Q1021 NOSIG
ZBSJ,2015-11-13 06:00,ZBSJ 130600Z 07001MPS 0900 R33/1200N HZ OVC040 10/07 Q1020 NOSIG
ZBSJ,2015-11-13 07:00,ZBSJ 130700Z 08001MPS 1100 R33/1300N HZ OVC040 10/07 Q1020 NOSIG
ZBSJ,2015-11-13 08:00,ZBSJ 130800Z 09001MPS 1100 R33/1500N HZ OVC040 10/07 Q1020 NOSIG
ZBSJ,2015-11-13 09:00,ZBSJ 130900Z 06001MPS 1000 R33/1500U BR OVC040 09/07 Q1019 NOSIG
ZBSJ,2015-11-13 10:00,ZBSJ 131000Z 04001MPS 1500 BR OVC040 08/07 Q1019 NOSIG
ZBSJ,2015-11-13 11:00,ZBSJ 131100Z 07001MPS 1400 R33/1700N BR OVC040 08/07 Q1019 NOSIG
ZBSJ,2015-11-13 12:00,ZBSJ 131200Z 07001MPS 1200 R33/1700D BR OVC040 08/07 Q1020 NOSIG
ZBSJ,2015-11-13 13:00,ZBSJ 131300Z 01001MPS 1200 R33/1500N BR OVC046 08/07 Q1019 NOSIG
ZBSJ,2015-11-13 14:00,ZBSJ 131400Z 03001MPS 1000 R33/1400D BR OVC046 08/07 Q1019 NOSIG
ZBSJ,2015-11-13 15:00,ZBSJ 131500Z 05001MPS 1000 R33/1500N BR OVC046 08/07 Q1019 NOSIG
ZBSJ,2015-11-13 16:00,ZBSJ 131600Z 06001MPS 0900 R33/1400N FG OVC046 08/07 Q1018 NOSIG
ZBSJ,2015-11-13 17:00,ZBSJ 131700Z 11001MPS 0900 R33/1400U FG OVC046 08/07 Q1018 NOSIG
ZBSJ,2015-11-13 18:00,ZBSJ 131800Z 13001MPS 0900 R33/1300N FG OVC046 08/07 Q1018 NOSIG
ZBSJ,2015-11-13 19:00,ZBSJ 131900Z 10001MPS 0900 R33/1200N FG OVC046 08/07 Q1017 NOSIG
ZBSJ,2015-11-13 20:00,ZBSJ 132000Z 08001MPS 0700 R33/1000D FG OVC046 08/07 Q1016 NOSIG
ZBSJ,2015-11-13 21:00,ZBSJ 132100Z 00000MPS 0700 R33/1000N FG OVC046 08/07 Q1016 NOSIG
ZBSJ,2015-11-13 22:00,ZBSJ 132200Z 16002MPS 0700 R33/1100U FG OVC046 08/07 Q1016 NOSIG
ZBSJ,2015-11-13 23:00,ZBSJ 132300Z 16003MPS 0800 R33/1300N FG OVC046 08/07 Q1016 NOSIG
ZBSJ,2015-11-14 00:00,ZBSJ 140000Z 16002MPS 130V200 0700 R33/1100N FG OVC046 08/08 Q1016 NOSIG
ZBSJ,2015-11-14 01:00,ZBSJ 140100Z 18003MPS 0600 R33/0900D FG OVC046 08/07 Q1016 BECMG 0800
ZBSJ,2015-11-14 02:00,ZBSJ 140200Z 17003MPS 0600 R33/0800N FG NSC 08/07 Q1016 BECMG 0800
ZBSJ,2015-11-14 03:00,ZBSJ 140300Z 15002MPS 0600 R33/0800N FG NSC 09/08 Q1016 NOSIG
ZBSJ,2015-11-14 04:00,ZBSJ 140400Z 17002MPS 0800 R33/0900N FG NSC 10/08 Q1016 NOSIG
ZBSJ,2015-11-14 05:00,ZBSJ 140500Z 16003MPS 0900 R33/0900N HZ NSC 10/08 Q1015 NOSIG
ZBSJ,2015-11-14 06:00,ZBSJ 140600Z 14003MPS 1000 R33/1200N BR NSC 10/07 Q1014 NOSIG
ZBSJ,2015-11-14 07:00,ZBSJ 140700Z 13003MPS 0800 R33/1100N HZ NSC 10/07 Q1014 NOSIG
ZBSJ,2015-11-14 08:00,ZBSJ 140800Z 15002MPS 0700 R33/1500U HZ NSC 09/07 Q1015 NOSIG
ZBSJ,2015-11-14 09:00,ZBSJ 140900Z 15002MPS 0800 R33/P2000N HZ NSC 09/07 Q1015 NOSIG
ZBSJ,2015-11-14 10:00,ZBSJ 141000Z 07001MPS 1600 BR NSC 09/07 Q1015 BECMG 1200 BR
ZBSJ,2015-11-14 11:00,ZBSJ 141100Z 03002MPS 1600 BR NSC 09/07 Q1016 BECMG 1200 BR
ZBSJ,2015-11-14 12:00,ZBSJ 141200Z 02002MPS 1400 R33/P2000N BR NSC 09/07 Q1016 NOSIG
ZBSJ,2015-11-14 13:00,ZBSJ 141300Z 10002MPS 1400 R33/P2000N BR NSC 09/07 Q1017 NOSIG
ZBSJ,2015-11-14 14:00,ZBSJ 141400Z 14001MPS 1400 R33/1900N BR NSC 09/07 Q1017 NOSIG
ZBSJ,2015-11-14 15:00,ZBSJ 141500Z 05001MPS 1400 R33/1800N BR NSC 09/08 Q1017 NOSIG
ZBSJ,2015-11-14 16:00,ZBSJ 141600Z 34001MPS 1400 R33/1800N BR NSC 09/08 Q1017 NOSIG
ZBSJ,2015-11-14 17:00,ZBSJ 141700Z 36001MPS 1400 R33/1800N BR OVC046 09/08 Q1018 NOSIG
ZBSJ,2015-11-14 18:00,ZBSJ 141800Z 02001MPS 1000 R33/1600N BR OVC046 09/08 Q1018 NOSIG
ZBSJ,2015-11-14 19:00,ZBSJ 141900Z 00000MPS 1000 R33/1800N BR OVC046 09/08 Q1018 NOSIG
ZBSJ,2015-11-14 20:00,ZBSJ 142000Z 34001MPS 0900 R33/1800D FG OVC046 09/08 Q1018 NOSIG
ZBSJ,2015-11-14 21:00,ZBSJ 142100Z 35001MPS 0900 R33/1700N FG OVC046 08/08 Q1018 NOSIG
ZBSJ,2015-11-14 22:00,ZBSJ 142200Z 31001MPS 0900 R33/1700U FG OVC046 08/07 Q1019 NOSIG
ZBSJ,2015-11-14 23:00,ZBSJ 142300Z 01001MPS 0700 R33/1400D FG OVC046 08/08 Q1019 NOSIG
ZBSJ,2015-11-15 00:00,ZBSJ 150000Z 30001MPS 0700 R33/1100N FG OVC046 08/08 Q1019 NOSIG
ZBSJ,2015-11-15 01:00,ZBSJ 150100Z 34002MPS 0600 R33/0900N FG OVC046 09/08 Q1020 NOSIG
ZBSJ,2015-11-15 02:00,ZBSJ 150200Z 03001MPS 0700 R33/1000N FG OVC046 10/08 Q1021 BECMG TL0330 0900
ZBSJ,2015-11-15 03:00,ZBSJ 150300Z 04002MPS 1000 R33/1100N BR NSC 10/08 Q1020 NOSIG
ZBSJ,2015-11-15 04:00,ZBSJ 150400Z 11002MPS 1400 R33/1300N BR NSC 11/07 Q1020 BECMG TL0530 1500
ZBSJ,2015-11-15 05:00,ZBSJ 150500Z 11001MPS 1000 R33/1000N BR NSC 11/08 Q1020 NOSIG
ZBSJ,2015-11-15 06:00,ZBSJ 150600Z 11001MPS 0900 R33/1200N FG NSC 11/07 Q1019 NOSIG
ZBSJ,2015-11-15 07:00,ZBSJ 150700Z 08001MPS 0900 R33/1300N FG NSC 11/08 Q1019 NOSIG
ZBSJ,2015-11-15 08:00,ZBSJ 150800Z 07001MPS 0900 R33/1500N FG NSC 10/08 Q1019 NOSIG
ZBSJ,2015-11-15 09:00,ZBSJ 150900Z 05002MPS 0900 R33/1800U FG NSC 10/08 Q1019 NOSIG
ZBSJ,2015-11-15 10:00,ZBSJ 151000Z 04001MPS 1400 R33/P2000N BR NSC 10/08 Q1020 BECMG TL1130 1600
ZBSJ,2015-11-15 11:00,ZBSJ 151100Z 03002MPS 1600 BR NSC 10/08 Q1020 NOSIG
ZBSJ,2015-11-15 12:00,ZBSJ 151200Z 03002MPS 360V060 1400 R33/1700N BR NSC 09/08 Q1021 NOSIG
ZBSJ,2015-11-15 13:00,ZBSJ 151300Z 03002MPS 1400 R33/1600N -RA BR NSC 09/08 Q1022 NOSIG
ZBSJ,2015-11-15 14:00,ZBSJ 151400Z 03003MPS 1400 R33/1500N -RA BR OVC040 09/08 Q1022 NOSIG
ZBSJ,2015-11-15 15:00,ZBSJ 151500Z 05004MPS 1400 R33/1600D -RA BR OVC040 09/08 Q1022 NOSIG
ZBSJ,2015-11-15 16:00,ZBSJ 151600Z 05003MPS 1400 R33/1900N -RA BR OVC040 09/08 Q1021 NOSIG
ZBSJ,2015-11-15 17:00,ZBSJ 151700Z 05004MPS 1500 -RA BR OVC040 09/08 Q1021 NOSIG
ZBSJ,2015-11-15 18:00,ZBSJ 151800Z 05004MPS 3000 -RA BR OVC040 08/08 Q1021 NOSIG
ZBSJ,2015-11-15 19:00,ZBSJ 151900Z 06004MPS 4000 BR OVC040 08/07 Q1020 NOSIG
ZBSJ,2015-11-15 20:00,ZBSJ 152000Z 06005MPS 6000 NSC 07/06 Q1020 NOSIG
ZBSJ,2015-11-15 21:00,ZBSJ 152100Z 06005MPS 6000 NSC 07/05 Q1020 NOSIG
ZBSJ,2015-11-15 22:00,ZBSJ 152200Z 05005MPS 6000 NSC 06/05 Q1021 NOSIG
ZBSJ,2015-11-15 23:00,ZBSJ 152300Z 06004MPS 3500 BR NSC 06/05 Q1021 NOSIG
ZBSJ,2015-11-16 00:00,ZBSJ 160000Z 06002MPS 030V110 4000 BR NSC 06/04 Q1021 NOSIG
ZBSJ,2015-11-16 01:00,ZBSJ 160100Z 04002MPS 5000 BR OVC033 06/04 Q1022 NOSIG
ZBSJ,2015-11-16 02:00,ZBSJ 160200Z 06002MPS 9999 OVC033 06/03 Q1022 NOSIG
ZBSJ,2015-11-16 03:00,ZBSJ 160300Z 09002MPS 9999 OVC040 07/04 Q1021 NOSIG
ZBSJ,2015-11-16 04:00,ZBSJ 160400Z 08001MPS 9999 OVC040 07/03 Q1020 NOSIG
ZBSJ,2015-11-16 05:00,ZBSJ 160500Z 18001MPS 9999 OVC040 07/03 Q1020 NOSIG
ZBSJ,2015-11-16 06:00,ZBSJ 160600Z 14002MPS 090V190 8000 OVC040 07/03 Q1019 NOSIG
ZBSJ,2015-11-16 07:00,ZBSJ 160700Z 12002MPS 080V150 8000 BKN040 07/03 Q1019 NOSIG
ZBSJ,2015-11-16 08:00,ZBSJ 160800Z 15002MPS 5000 BR NSC 07/04 Q1020 NOSIG
ZBSJ,2015-11-16 09:00,ZBSJ 160900Z 18002MPS 4500 BR NSC 07/05 Q1020 NOSIG
ZBSJ,2015-11-16 10:00,ZBSJ 161000Z 15001MPS 5000 BR NSC 07/04 Q1020 NOSIG
ZBSJ,2015-11-16 11:00,ZBSJ 161100Z 14001MPS 5000 BR NSC 07/05 Q1021 NOSIG
ZBSJ,2015-11-16 12:00,ZBSJ 161200Z 11001MPS 5000 BR NSC 07/05 Q1021 NOSIG
ZBSJ,2015-11-16 13:00,ZBSJ 161300Z 12001MPS 4000 BR BKN046 07/05 Q1021 NOSIG
ZBSJ,2015-11-16 14:00,ZBSJ 161400Z 09001MPS 4000 BR BKN046 07/05 Q1021 NOSIG
ZBSJ,2015-11-16 15:00,ZBSJ 161500Z 00000MPS 3500 BR BKN046 07/06 Q1021 NOSIG
ZBSJ,2015-11-16 16:00,ZBSJ 161600Z 16001MPS 3500 BR BKN046 07/05 Q1021 NOSIG
ZBSJ,2015-11-16 17:00,ZBSJ 161700Z 00000MPS 3500 BR BKN046 07/05 Q1021 NOSIG
ZBSJ,2015-11-16 18:00,ZBSJ 161800Z 16002MPS 3500 BR BKN046 06/05 Q1022 NOSIG
ZBSJ,2015-11-16 19:00,ZBSJ 161900Z 16001MPS 3500 BR OVC046 06/05 Q1022 NOSIG
ZBSJ,2015-11-16 20:00,ZBSJ 162000Z 15002MPS 3000 BR OVC046 06/05 Q1022 NOSIG
ZBSJ,2015-11-16 21:00,ZBSJ 162100Z 12002MPS 3000 BR OVC046 06/05 Q1023 NOSIG
ZBSJ,2015-11-16 22:00,ZBSJ 162200Z 11001MPS 2500 BR OVC046 06/06 Q1023 NOSIG
ZBSJ,2015-11-16 23:00,ZBSJ 162300Z 10001MPS 2000 BR OVC046 07/06 Q1024 BECMG 3500
ZBSJ,2015-11-17 00:00,ZBSJ 170000Z 05001MPS 1600 BR OVC046 07/05 Q1025 BECMG 3000
ZBSJ,2015-11-17 01:00,ZBSJ 170100Z 07001MPS 1600 BR OVC046 07/06 Q1026 NOSIG
ZBSJ,2015-11-17 02:00,ZBSJ 170200Z 05001MPS 1500 BR OVC046 07/06 Q1026 BECMG TL0240 1400 BR
ZBSJ,2015-11-17 03:00,ZBSJ 170300Z 04002MPS 1700 BR OVC046 08/06 Q1027 NOSIG
ZBSJ,2015-11-17 04:00,ZBSJ 170400Z 05002MPS 1800 BR OVC046 08/05 Q1026 NOSIG
ZBSJ,2015-11-17 05:00,ZBSJ 170500Z 03002MPS 2700 BR OVC046 09/05 Q1026 NOSIG
ZBSJ,2015-11-17 06:00,ZBSJ 170600Z 05002MPS 3000 BR OVC040 09/05 Q1025 NOSIG
ZBSJ,2015-11-17 07:00,ZBSJ 170700Z 05001MPS 2700 BR OVC040 08/05 Q1025 NOSIG
ZBSJ,2015-11-17 08:00,ZBSJ 170800Z 07001MPS 2200 -SHRA BR OVC033 08/06 Q1026 NOSIG
ZBSJ,2015-11-17 09:00,ZBSJ 170900Z 04002MPS 2200 -RA BR OVC033 07/05 Q1027 NOSIG
ZBSJ,2015-11-17 10:00,ZBSJ 171000Z 04004MPS 2200 -RA BR OVC033 06/05 Q1027 NOSIG
ZBSJ,2015-11-17 11:00,ZBSJ 171100Z 03003MPS 2500 BR OVC033 07/05 Q1027 NOSIG
ZBSJ,2015-11-17 12:00,ZBSJ 171200Z 05004MPS 2500 -RA BR OVC033 07/06 Q1027 NOSIG
ZBSJ,2015-11-17 13:00,ZBSJ 171300Z 09004MPS 3000 -RA BR OVC033 06/05 Q1028 NOSIG
ZBSJ,2015-11-17 14:00,ZBSJ 171400Z 09003MPS 4000 -RA BR OVC033 06/05 Q1028 NOSIG
ZBSJ,2015-11-17 15:00,ZBSJ 171500Z 11002MPS 4500 -RA BR OVC033 05/05 Q1029 NOSIG
ZBSJ,2015-11-17 16:00,ZBSJ 171600Z 07001MPS 4000 -RA BR OVC033 05/05 Q1029 NOSIG
ZBSJ,2015-11-17 17:00,ZBSJ 171700Z 06001MPS 4800 -RA BR OVC033 05/04 Q1029 NOSIG
ZBSJ,2015-11-17 18:00,ZBSJ 171800Z 06001MPS 4800 BR OVC033 05/04 Q1029 NOSIG
ZBSJ,2015-11-17 19:00,ZBSJ 171900Z 06002MPS 4800 BR OVC033 05/04 Q1028 NOSIG
ZBSJ,2015-11-17 20:00,ZBSJ 172000Z 09002MPS 5000 BR OVC033 05/04 Q1027 NOSIG
ZBSJ,2015-11-17 21:00,ZBSJ 172100Z 07001MPS 5000 -RA BR OVC033 05/04 Q1028 NOSIG
ZBSJ,2015-11-17 22:00,ZBSJ 172200Z 13002MPS 5000 BR OVC033 04/03 Q1028 NOSIG
ZBSJ,2015-11-17 23:00,ZBSJ 172300Z 11003MPS 9999 OVC033 04/02 Q1028 NOSIG
ZBSJ,2015-11-18 00:00,ZBSJ 180000Z 12002MPS 8000 OVC040 04/02 Q1028 NOSIG
ZBSJ,2015-11-18 01:00,ZBSJ 180100Z 15003MPS 6000 OVC040 04/02 Q1028 NOSIG
ZBSJ,2015-11-18 02:00,ZBSJ 180200Z 14003MPS 6000 OVC040 04/02 Q1028 NOSIG
ZBSJ,2015-11-18 03:00,ZBSJ 180300Z 15002MPS 120V180 4500 BR OVC040 05/03 Q1028 NOSIG
ZBSJ,2015-11-18 04:00,ZBSJ 180400Z 15002MPS 2700 BR OVC040 05/03 Q1027 BECMG 3500
ZBSJ,2015-11-18 05:00,ZBSJ 180500Z 17002MPS 2700 BR OVC040 06/03 Q1026 BECMG 3500
ZBSJ,2015-11-18 06:00,ZBSJ 180600Z 16002MPS 2500 BR OVC033 06/03 Q1026 NOSIG
ZBSJ,2015-11-18 07:00,ZBSJ 180700Z 16002MPS 2500 BR OVC026 06/03 Q1025 NOSIG
ZBSJ,2015-11-18 08:00,ZBSJ 180800Z 16003MPS 2400 BR OVC026 06/04 Q1025 NOSIG
ZBSJ,2015-11-18 09:00,ZBSJ 180900Z 17002MPS 2500 BR OVC040 06/04 Q1025 NOSIG
ZBSJ,2015-11-18 10:00,ZBSJ 181000Z 20002MPS 4000 BR OVC040 06/03 Q1025 NOSIG
ZBSJ,2015-11-18 11:00,ZBSJ 181100Z 25002MPS 5000 BR OVC040 06/03 Q1025 NOSIG
ZBSJ,2015-11-18 12:00,ZBSJ 181200Z 14002MPS 5000 BR OVC040 06/03 Q1025 NOSIG
ZBSJ,2015-11-18 13:00,ZBSJ 181300Z 17003MPS 4500 BR OVC040 06/04 Q1026 NOSIG
ZBSJ,2015-11-18 14:00,ZBSJ 181400Z 15004MPS 5000 BR OVC040 05/04 Q1025 NOSIG
ZBSJ,2015-11-18 15:00,ZBSJ 181500Z 16002MPS 5000 BR OVC040 05/04 Q1025 NOSIG
ZBSJ,2015-11-18 16:00,ZBSJ 181600Z 16003MPS 5000 BR OVC040 05/04 Q1025 NOSIG
ZBSJ,2015-11-18 17:00,ZBSJ 181700Z 16003MPS 5000 BR OVC040 05/03 Q1024 NOSIG
ZBSJ,2015-11-18 18:00,ZBSJ 181800Z 18002MPS 5000 BR OVC040 05/04 Q1024 NOSIG
ZBSJ,2015-11-18 19:00,ZBSJ 181900Z 17003MPS 4500 BR OVC040 05/04 Q1023 NOSIG
ZBSJ,2015-11-18 20:00,ZBSJ 182000Z 16002MPS 5000 BR OVC040 05/04 Q1023 NOSIG
ZBSJ,2015-11-18 21:00,ZBSJ 182100Z 21001MPS 5000 BR OVC040 05/04 Q1023 NOSIG
ZBSJ,2015-11-18 22:00,ZBSJ 182200Z 11002MPS 5000 BR OVC040 05/04 Q1024 NOSIG
ZBSJ,2015-11-18 23:00,ZBSJ 182300Z 12002MPS 4000 BR OVC040 05/04 Q1024 NOSIG
ZBSJ,2015-11-19 00:00,ZBSJ 190000Z 14002MPS 2300 BR OVC040 05/04 Q1024 BECMG 3500
ZBSJ,2015-11-19 01:00,ZBSJ 190100Z 13002MPS 100V170 2000 BR OVC040 06/04 Q1025 NOSIG
ZBSJ,2015-11-19 02:00,ZBSJ 190200Z 16002MPS 2200 BR OVC040 06/04 Q1025 BECMG TL0330 3000
ZBSJ,2015-11-19 03:00,ZBSJ 190300Z 15002MPS 2000 BR OVC040 06/04 Q1025 NOSIG
ZBSJ,2015-11-19 04:00,ZBSJ 190400Z 13002MPS 1600 BR OVC040 06/04 Q1025 NOSIG
ZBSJ,2015-11-19 05:00,ZBSJ 190500Z 12002MPS 1200 R33/1500D BR OVC040 06/05 Q1024 NOSIG
ZBSJ,2015-11-19 06:00,ZBSJ 190600Z 13001MPS 1100 R33/1400U -DZ BR SCT013 OVC026 06/05 Q1024 NOSIG
ZBSJ,2015-11-19 07:00,ZBSJ 190700Z 08002MPS 0800 R33/1300U -RA FG SCT013 OVC026 05/05 Q1024 BECMG 0700 -RA FG
ZBSJ,2015-11-19 08:00,ZBSJ 190800Z 10002MPS 0900 R33/1600U -RA FG SCT013 OVC026 05/05 Q1024 NOSIG
ZBSJ,2015-11-19 09:00,ZBSJ 190900Z 12002MPS 0700 R33/P2000N -RA FG SCT013 OVC026 05/05 Q1024 NOSIG
ZBSJ,2015-11-19 10:00,ZBSJ 191000Z 07001MPS 1600 BR OVC033 06/05 Q1025 NOSIG
ZBSJ,2015-11-19 11:00,ZBSJ 191100Z 05001MPS 1800 BR OVC033 06/05 Q1025 NOSIG
ZBSJ,2015-11-19 12:00,ZBSJ 191200Z 07001MPS 2000 BR OVC033 06/05 Q1025 NOSIG
ZBSJ,2015-11-19 13:00,ZBSJ 191300Z 08001MPS 2000 BR OVC033 06/05 Q1026 NOSIG
ZBSJ,2015-11-19 14:00,ZBSJ 191400Z 14002MPS 2000 BR NSC 06/05 Q1025 NOSIG
ZBSJ,2015-11-19 15:00,ZBSJ 191500Z 11001MPS 2000 BR NSC 05/05 Q1025 NOSIG
ZBSJ,2015-11-19 16:00,ZBSJ 191600Z 08001MPS 2000 BR NSC 05/05 Q1025 NOSIG
ZBSJ,2015-11-19 17:00,ZBSJ 191700Z 09001MPS 2000 BR NSC 05/05 Q1025 NOSIG
ZBSJ,2015-11-19 18:00,ZBSJ 191800Z 10001MPS 1600 BR NSC 05/05 Q1025 NOSIG
ZBSJ,2015-11-19 19:00,ZBSJ 191900Z 12002MPS 1600 BR NSC 05/05 Q1024 NOSIG
ZBSJ,2015-11-19 20:00,ZBSJ 192000Z 10001MPS 1600 BR NSC 05/05 Q1024 NOSIG
ZBSJ,2015-11-19 21:00,ZBSJ 192100Z 11002MPS 1600 BR NSC 05/05 Q1024 NOSIG
ZBSJ,2015-11-19 22:00,ZBSJ 192200Z 09002MPS 1600 BR NSC 05/05 Q1024 NOSIG
ZBSJ,2015-11-19 23:00,ZBSJ 192300Z 08002MPS 1400 R33/P2000N -RA BR OVC046 05/05 Q1025 NOSIG
ZBSJ,2015-11-20 00:00,ZBSJ 200000Z 09002MPS 0700 R33/1500N -RA FG OVC040 05/05 Q1025 NOSIG
ZBSJ,2015-11-20 01:00,ZBSJ 200100Z 07003MPS 0700 R33/1300N -RA FG OVC033 05/04 Q1026 NOSIG
ZBSJ,2015-11-20 02:00,ZBSJ 200200Z 07003MPS 0800 R33/1400U -RA FG OVC033 04/04 Q1026 NOSIG
ZBSJ,2015-11-20 03:00,ZBSJ 200300Z 07003MPS 0800 R33/1300D -RA FG OVC033 04/04 Q1026 NOSIG
ZBSJ,2015-11-20 04:00,ZBSJ 200400Z 07003MPS 0800 R33/1300D -RA FG OVC033 04/04 Q1025 NOSIG
ZBSJ,2015-11-20 05:00,ZBSJ 200500Z 07003MPS 0800 R33/1500N -RA FG OVC033 04/03 Q1025 NOSIG
ZBSJ,2015-11-20 06:00,ZBSJ 200600Z 07003MPS 0800 R33/1500N -DZ FG OVC020 04/04 Q1025 NOSIG
ZBSJ,2015-11-20 07:00,ZBSJ 200700Z 05004MPS 0700 R33/1200N -DZ FG OVC020 04/03 Q1025 NOSIG
ZBSJ,2015-11-20 08:00,ZBSJ 200800Z 06003MPS 0800 R33/1700U -DZ FG OVC020 04/03 Q1025 NOSIG
ZBSJ,2015-11-20 09:00,ZBSJ 200900Z 06004MPS 0700 R33/1800D -DZ FG OVC020 03/03 Q1025 NOSIG
ZBSJ,2015-11-20 10:00,ZBSJ 201000Z 05004MPS 1600 -DZ BR OVC020 03/03 Q1026 NOSIG
ZBSJ,2015-11-20 11:00,ZBSJ 201100Z 05004MPS 1600 -RA BR OVC026 03/03 Q1027 NOSIG
ZBSJ,2015-11-20 12:00,ZBSJ 201200Z 05003MPS 1600 -RA BR OVC026 03/02 Q1028 NOSIG
ZBSJ,2015-11-20 13:00,ZBSJ 201300Z 05003MPS 1600 -RA BR OVC026 03/02 Q1028 NOSIG
ZBSJ,2015-11-20 14:00,ZBSJ 201400Z 05004MPS 1600 -RA BR OVC026 03/02 Q1028 NOSIG
ZBSJ,2015-11-20 15:00,ZBSJ 201500Z 05003MPS 1800 BR OVC026 02/02 Q1028 NOSIG
ZBSJ,2015-11-20 16:00,ZBSJ 201600Z 05003MPS 1800 -RA BR OVC026 02/02 Q1028 NOSIG
ZBSJ,2015-11-20 17:00,ZBSJ 201700Z 05003MPS 1800 -RA BR OVC026 02/02 Q1028 NOSIG
ZBSJ,2015-11-20 18:00,ZBSJ 201800Z 04003MPS 1800 -RA BR OVC026 02/02 Q1028 NOSIG
ZBSJ,2015-11-20 19:00,ZBSJ 201900Z 04002MPS 1800 BR OVC033 02/02 Q1028 NOSIG
ZBSJ,2015-11-20 20:00,ZBSJ 202000Z 06003MPS 2000 BR OVC033 02/02 Q1027 NOSIG
ZBSJ,2015-11-20 21:00,ZBSJ 202100Z 05003MPS 2000 -DZ BR OVC033 02/02 Q1028 NOSIG
ZBSJ,2015-11-20 22:00,ZBSJ 202200Z 04003MPS 2000 -DZ BR OVC026 02/02 Q1028 NOSIG
ZBSJ,2015-11-20 23:00,ZBSJ 202300Z 05002MPS 2000 -DZ BR OVC026 02/02 Q1029 NOSIG
ZBSJ,2015-11-21 00:00,ZBSJ 210000Z 05003MPS 2300 -DZ BR OVC026 02/02 Q1029 NOSIG
ZBSJ,2015-11-21 01:00,ZBSJ 210100Z 04003MPS 2200 -DZ BR OVC026 02/02 Q1030 NOSIG
ZBSJ,2015-11-21 02:00,ZBSJ 210200Z 04003MPS 2700 -DZ BR OVC026 02/02 Q1030 NOSIG
ZBSJ,2015-11-21 03:00,ZBSJ 210300Z 04004MPS 2300 -DZ BR OVC026 02/01 Q1030 NOSIG
ZBSJ,2015-11-21 04:00,ZBSJ 210400Z 04004MPS 2200 -DZ BR FEW010 OVC026 02/01 Q1030 NOSIG
ZBSJ,2015-11-21 05:00,ZBSJ 210500Z 05004MPS 1800 -RA BR FEW010 OVC026 02/01 Q1029 NOSIG
ZBSJ,2015-11-21 06:00,ZBSJ 210600Z 04004MPS 010V080 1800 -RA BR FEW010 OVC026 01/01 Q1029 NOSIG
ZBSJ,2015-11-21 07:00,ZBSJ 210700Z 04003MPS 1800 -RA BR OVC026 02/01 Q1029 NOSIG
ZBSJ,2015-11-21 08:00,ZBSJ 210800Z 05003MPS 1800 -DZ BR OVC026 01/01 Q1030 NOSIG
ZBSJ,2015-11-21 09:00,ZBSJ 210900Z 04005MPS 2000 -DZ BR OVC026 01/00 Q1030 NOSIG
ZBSJ,2015-11-21 10:00,ZBSJ 211000Z 05005MPS 5000 -DZ BR OVC030 01/M00 Q1031 NOSIG
ZBSJ,2015-11-21 11:00,ZBSJ 211100Z 07003MPS 4000 -RASN BR OVC030 01/00 Q1032 NOSIG
ZBSJ,2015-11-21 12:00,ZBSJ 211200Z 05003MPS 2000 -SN BR OVC030 00/00 Q1033 NOSIG
ZBSJ,2015-11-21 13:00,ZBSJ 211300Z 04004MPS 2000 -SN BR OVC030 00/M00 Q1034 NOSIG
ZBSJ,2015-11-21 14:00,ZBSJ 211400Z 01002MPS 2000 -SN BR OVC030 00/00 Q1034 NOSIG
ZBSJ,2015-11-21 15:00,ZBSJ 211500Z 01002MPS 2000 -SN BR OVC030 00/00 Q1034 NOSIG
ZBSJ,2015-11-21 16:00,ZBSJ 211600Z 01001MPS 3500 -SN BR OVC030 00/00 Q1034 NOSIG
ZBSJ,2015-11-21 17:00,ZBSJ 211700Z 36001MPS 3000 -SN BR OVC030 00/00 Q1034 NOSIG
ZBSJ,2015-11-21 18:00,ZBSJ 211800Z 02003MPS 3000 -SN BR OVC030 00/00 Q1033 NOSIG
ZBSJ,2015-11-21 19:00,ZBSJ 211900Z 02003MPS 2000 -SN BR OVC030 00/00 Q1034 NOSIG
ZBSJ,2015-11-21 20:00,ZBSJ 212000Z 03004MPS 2000 -SN BR OVC030 M00/M00 Q1033 NOSIG
ZBSJ,2015-11-21 21:00,ZBSJ 212100Z 03003MPS 2000 -SN BR OVC030 M00/M00 Q1033 NOSIG
ZBSJ,2015-11-21 22:00,ZBSJ 212200Z 03002MPS 2000 -SN BR OVC030 M00/M00 Q1034 NOSIG
ZBSJ,2015-11-21 23:00,ZBSJ 212300Z 05002MPS 2000 -SN BR OVC030 M00/M00 Q1034 NOSIG
ZBSJ,2015-11-22 00:00,ZBSJ 220000Z 06004MPS 1300 R33/1800N -SN BR OVC030 M01/M01 Q1035 NOSIG
ZBSJ,2015-11-22 01:00,ZBSJ 220100Z 04003MPS 1600 -SN BR OVC030 M01/M01 Q1036 BECMG 1400 -SN BR
ZBSJ,2015-11-22 02:00,ZBSJ 220200Z 04003MPS 1800 -SN BR OVC030 M01/M01 Q1036 NOSIG
ZBSJ,2015-11-22 03:00,ZBSJ 220300Z 07003MPS 2000 -SN BR OVC030 M01/M02 Q1036 NOSIG
ZBSJ,2015-11-22 04:00,ZBSJ 220400Z 04003MPS 2300 -SN BR OVC040 M01/M02 Q1035 NOSIG
ZBSJ,2015-11-22 05:00,ZBSJ 220500Z 04003MPS 2500 -SN BR OVC033 M01/M02 Q1034 NOSIG
ZBSJ,2015-11-22 06:00,ZBSJ 220600Z 04003MPS 2500 -SN BR FEW016 OVC033 M01/M02 Q1034 NOSIG
ZBSJ,2015-11-22 07:00,ZBSJ 220700Z 02002MPS 1600 -SN BR FEW016 OVC033 M01/M02 Q1034 BECMG 1400 -SN BR
ZBSJ,2015-11-22 08:00,ZBSJ 220800Z 05002MPS 1600 -SN BR OVC033 M01/M02 Q1034 BECMG 1400 -SN BR
ZBSJ,2015-11-22 09:00,ZBSJ 220900Z 04002MPS 2200 -SN BR OVC033 M01/M02 Q1035 NOSIG
ZBSJ,2015-11-22 10:00,ZBSJ 221000Z 05002MPS 5000 -SN BR OVC033 M02/M02 Q1035 NOSIG
ZBSJ,2015-11-22 11:00,ZBSJ 221100Z 06003MPS 4000 -SN BR OVC033 M02/M02 Q1035 NOSIG
ZBSJ,2015-11-22 12:00,ZBSJ 221200Z 05003MPS 4500 BR OVC033 M02/M03 Q1036 NOSIG
ZBSJ,2015-11-22 13:00,ZBSJ 221300Z 06003MPS 4500 BR OVC033 M02/M03 Q1036 NOSIG
ZBSJ,2015-11-22 14:00,ZBSJ 221400Z 07003MPS 5000 BR OVC033 M03/M03 Q1036 NOSIG
ZBSJ,2015-11-22 15:00,ZBSJ 221500Z 06003MPS 5000 BR OVC033 M03/M03 Q1036 NOSIG
ZBSJ,2015-11-22 16:00,ZBSJ 221600Z 07002MPS 5000 BR OVC033 M03/M04 Q1035 NOSIG
ZBSJ,2015-11-22 17:00,ZBSJ 221700Z 09003MPS 4500 BR OVC033 M03/M04 Q1035 NOSIG
ZBSJ,2015-11-22 18:00,ZBSJ 221800Z 08002MPS 4000 BR OVC033 M03/M03 Q1035 NOSIG
ZBSJ,2015-11-22 19:00,ZBSJ 221900Z 08002MPS 5000 BR OVC033 M03/M04 Q1035 NOSIG
ZBSJ,2015-11-22 20:00,ZBSJ 222000Z 06002MPS 6000 OVC033 M03/M04 Q1035 NOSIG
ZBSJ,2015-11-22 21:00,ZBSJ 222100Z 07002MPS 4000 BR OVC033 M03/M04 Q1035 NOSIG
ZBSJ,2015-11-22 22:00,ZBSJ 222200Z 06003MPS 3000 BR OVC033 M03/M03 Q1035 NOSIG
ZBSJ,2015-11-22 23:00,ZBSJ 222300Z 06002MPS 4500 BR OVC033 M03/M04 Q1036 NOSIG
ZBSJ,2015-11-23 00:00,ZBSJ 230000Z 05003MPS 4500 BR OVC033 M03/M04 Q1036 NOSIG
ZBSJ,2015-11-23 01:00,ZBSJ 230100Z 06004MPS 4000 -SN BR OVC033 M03/M04 Q1037 NOSIG
ZBSJ,2015-11-23 02:00,ZBSJ 230200Z 06004MPS 7000 -SN OVC033 M03/M04 Q1037 NOSIG
ZBSJ,2015-11-23 03:00,ZBSJ 230300Z 04003MPS 7000 OVC040 M03/M04 Q1037 NOSIG
ZBSJ,2015-11-23 04:00,ZBSJ 230400Z 05003MPS 7000 OVC040 M02/M04 Q1037 NOSIG
ZBSJ,2015-11-23 05:00,ZBSJ 230500Z 06003MPS 7000 BKN040 M02/M04 Q1037 NOSIG
ZBSJ,2015-11-23 06:00,ZBSJ 230600Z 08001MPS 6000 BKN040 M01/M04 Q1037 NOSIG
ZBSJ,2015-11-23 07:00,ZBSJ 230700Z 06002MPS 5000 BR FEW016 M01/M04 Q1037 NOSIG
ZBSJ,2015-11-23 08:00,ZBSJ 230800Z 08001MPS 4500 BR FEW016 M01/M04 Q1038 NOSIG
ZBSJ,2015-11-23 09:00,ZBSJ 230900Z 09002MPS 4000 BR FEW026 M01/M04 Q1038 NOSIG
ZBSJ,2015-11-23 10:00,ZBSJ 231000Z 09001MPS 5000 BR BKN046 M02/M04 Q1039 NOSIG
ZBSJ,2015-11-23 11:00,ZBSJ 231100Z 05002MPS 4500 BR BKN046 M02/M04 Q1039 NOSIG
ZBSJ,2015-11-23 12:00,ZBSJ 231200Z 09001MPS 4000 BR BKN046 M02/M04 Q1040 NOSIG
ZBSJ,2015-11-23 13:00,ZBSJ 231300Z 13001MPS 4000 BR NSC M02/M04 Q1040 NOSIG
ZBSJ,2015-11-23 14:00,ZBSJ 231400Z 15001MPS 4000 BR NSC M02/M04 Q1041 NOSIG
ZBSJ,2015-11-23 15:00,ZBSJ 231500Z 23001MPS 4000 BR NSC M02/M04 Q1041 NOSIG
ZBSJ,2015-11-23 16:00,ZBSJ 231600Z 00000MPS 3500 BR NSC M02/M04 Q1040 NOSIG
ZBSJ,2015-11-23 17:00,ZBSJ 231700Z 14002MPS 4000 BR NSC M02/M04 Q1041 NOSIG
ZBSJ,2015-11-23 18:00,ZBSJ 231800Z 13003MPS 3500 BR NSC M02/M05 Q1041 NOSIG
ZBSJ,2015-11-23 19:00,ZBSJ 231900Z 10001MPS 4500 BR NSC M03/M05 Q1041 NOSIG
ZBSJ,2015-11-23 20:00,ZBSJ 232000Z 09002MPS 5000 BR NSC M03/M07 Q1040 NOSIG
ZBSJ,2015-11-23 21:00,ZBSJ 232100Z 10002MPS 7000 NSC M03/M08 Q1040 NOSIG
ZBSJ,2015-11-23 22:00,ZBSJ 232200Z 08002MPS 7000 NSC M03/M07 Q1040 NOSIG
ZBSJ,2015-11-23 23:00,ZBSJ 232300Z 09002MPS 8000 OVC040 M04/M08 Q1040 NOSIG
ZBSJ,2015-11-24 00:00,ZBSJ 240000Z 12002MPS 6000 OVC040 M04/M08 Q1040 NOSIG
ZBSJ,2015-11-24 01:00,ZBSJ 240100Z 15003MPS 2500 -SN BR OVC040 M05/M06 Q1041 NOSIG
ZBSJ,2015-11-24 02:00,ZBSJ 240200Z 13003MPS 1600 R33/1300N -SN BR OVC033 M05/M07 Q1041 BECMG 1400 -SN BR
ZBSJ,2015-11-24 03:00,ZBSJ 240300Z 14003MPS 1600 R33/1200V1600U -SN BR OVC033 M05/M06 Q1040 BECMG 1400 -SN BR
ZBSJ,2015-11-24 04:00,ZBSJ 240400Z 13001MPS 1600 R33/1300U -SN BR OVC033 M05/M06 Q1039 NOSIG
ZBSJ,2015-11-24 05:00,ZBSJ 240500Z 15002MPS 2200 -SN BR OVC033 M05/M06 Q1038 NOSIG
ZBSJ,2015-11-24 06:00,ZBSJ 240600Z 14002MPS 2000 -SN BR OVC033 M05/M07 Q1038 NOSIG
ZBSJ,2015-11-24 07:00,ZBSJ 240700Z 09003MPS 2500 -SN BR OVC033 M05/M07 Q1037 BECMG TL0830 3000
ZBSJ,2015-11-24 08:00,ZBSJ 240800Z 10002MPS 4000 -SN BR OVC033 M05/M07 Q1037 BECMG TL0930 2500 -SN BR
ZBSJ,2015-11-24 09:00,ZBSJ 240900Z 14001MPS 4000 BR NSC M07/M08 Q1036 BECMG TL1030 2500 BR
ZBSJ,2015-11-24 10:00,ZBSJ 241000Z 08001MPS 4000 BR NSC M08/M08 Q1036 NOSIG
ZBSJ,2015-11-24 11:00,ZBSJ 241100Z 09001MPS 3500 BR NSC M06/M07 Q1036 BECMG TL1230 2500 BR
ZBSJ,2015-11-24 12:00,ZBSJ 241200Z 14002MPS 3000 BR NSC M06/M07 Q1036 NOSIG
ZBSJ,2015-11-24 13:00,ZBSJ 241300Z 10002MPS 2500 BR OVC046 M06/M07 Q1036 NOSIG
ZBSJ,2015-11-24 14:00,ZBSJ 241400Z 12001MPS 2000 BR OVC046 M06/M07 Q1035 NOSIG
ZBSJ,2015-11-24 15:00,ZBSJ 241500Z 12002MPS 2000 BR OVC046 M06/M07 Q1034 NOSIG
ZBSJ,2015-11-24 16:00,ZBSJ 241600Z 13003MPS 2500 BR OVC046 M05/M07 Q1034 NOSIG
ZBSJ,2015-11-24 17:00,ZBSJ 241700Z 11002MPS 2500 BR OVC046 M05/M07 Q1033 NOSIG
ZBSJ,2015-11-24 18:00,ZBSJ 241800Z 11002MPS 2500 BR OVC046 M05/M06 Q1032 NOSIG
ZBSJ,2015-11-24 19:00,ZBSJ 241900Z 12002MPS 2500 BR OVC046 M05/M06 Q1032 NOSIG
ZBSJ,2015-11-24 20:00,ZBSJ 242000Z 12003MPS 2500 BR OVC046 M05/M06 Q1031 NOSIG
ZBSJ,2015-11-24 21:00,ZBSJ 242100Z 16004MPS 2500 BR OVC046 M05/M06 Q1030 NOSIG
ZBSJ,2015-11-24 22:00,ZBSJ 242200Z 16003MPS 2500 BR OVC046 M05/M06 Q1029 NOSIG
ZBSJ,2015-11-24 23:00,ZBSJ 242300Z 14003MPS 2500 BR OVC026 M05/M06 Q1029 BECMG 3000
ZBSJ,2015-11-25 00:00,ZBSJ 250000Z 14002MPS 110V170 2300 BR OVC020 M05/M06 Q1029 BECMG 1400 BR
ZBSJ,2015-11-25 01:00,ZBSJ 250100Z 16002MPS 090V180 1800 BR OVC033 M05/M06 Q1030 BECMG 1400 BR
ZBSJ,2015-11-25 02:00,ZBSJ 250200Z 12001MPS 1000 R33/1100N -SN BR OVC033 M05/M06 Q1030 NOSIG
ZBSJ,2015-11-25 03:00,ZBSJ 250300Z 18002MPS 1200 R33/1000N -SN BR OVC033 M04/M06 Q1030 NOSIG
ZBSJ,2015-11-25 04:00,ZBSJ 250400Z 22002MPS 2000 -SN BR BKN033 M04/M05 Q1029 NOSIG
ZBSJ,2015-11-25 05:00,ZBSJ 250500Z 26002MPS 2300 BR BKN033 M03/M06 Q1029 NOSIG
ZBSJ,2015-11-25 06:00,ZBSJ 250600Z 27001MPS 1800 R33/1400U BR SCT040 M01/M05 Q1028 NOSIG
ZBSJ,2015-11-25 07:00,ZBSJ 250700Z 00000MPS 1500 R33/1400N BR NSC M02/M05 Q1029 NOSIG
ZBSJ,2015-11-25 08:00,ZBSJ 250800Z 33001MPS 1400 R33/1400N BR NSC M04/M06 Q1029 NOSIG
ZBSJ,2015-11-25 09:00,ZBSJ 250900Z 36001MPS 1400 R33/1500U BR NSC M05/M07 Q1030 NOSIG
ZBSJ,2015-11-25 10:00,ZBSJ 251000Z 35005MPS 300V020 CAVOK M02/M12 Q1031 BECMG 33010MPS
ZBSJ,2015-11-25 11:00,ZBSJ 251100Z 34009MPS CAVOK M03/M12 Q1031 NOSIG
ZBSJ,2015-11-25 12:00,ZBSJ 251200Z 01008MPS CAVOK M04/M13 Q1032 NOSIG
ZBSJ,2015-11-25 13:00,ZBSJ 251300Z 01008MPS CAVOK M04/M13 Q1033 NOSIG
ZBSJ,2015-11-25 14:00,ZBSJ 251400Z 35004MPS CAVOK M06/M14 Q1034 NOSIG
ZBSJ,2015-11-25 15:00,ZBSJ 251500Z 08002MPS 040V100 CAVOK M07/M14 Q1034 NOSIG
ZBSJ,2015-11-25 16:00,ZBSJ 251600Z 03002MPS CAVOK M07/M15 Q1033 NOSIG
ZBSJ,2015-11-25 17:00,ZBSJ 251700Z 33002MPS CAVOK M08/M15 Q1033 NOSIG
ZBSJ,2015-11-25 18:00,ZBSJ 251800Z 35002MPS CAVOK M10/M16 Q1033 NOSIG
ZBSJ,2015-11-25 19:00,ZBSJ 251900Z 20002MPS CAVOK M09/M13 Q1033 NOSIG
ZBSJ,2015-11-25 20:00,ZBSJ 252000Z 20001MPS 8000 NSC M10/M14 Q1033 NOSIG
ZBSJ,2015-11-25 21:00,ZBSJ 252100Z 20001MPS 6000 NSC M10/M13 Q1032 NOSIG
ZBSJ,2015-11-25 22:00,ZBSJ 252200Z 26001MPS 6000 NSC M11/M13 Q1033 NOSIG
ZBSJ,2015-11-25 23:00,ZBSJ 252300Z 27003MPS 6000 NSC M09/M13 Q1033 NOSIG
ZBSJ,2015-11-26 00:00,ZBSJ 260000Z 28002MPS 5000 BR NSC M10/M13 Q1034 NOSIG
ZBSJ,2015-11-26 01:00,ZBSJ 260100Z 09001MPS 3000 HZ NSC M07/M12 Q1034 NOSIG
ZBSJ,2015-11-26 02:00,ZBSJ 260200Z 15001MPS 4000 HZ NSC M04/M12 Q1034 NOSIG
ZBSJ,2015-11-26 03:00,ZBSJ 260300Z 21002MPS 4500 HZ NSC M05/M10 Q1034 NOSIG
ZBSJ,2015-11-26 04:00,ZBSJ 260400Z 19001MPS 5000 HZ NSC M03/M11 Q1033 NOSIG
ZBSJ,2015-11-26 05:00,ZBSJ 260500Z 15002MPS 5000 HZ NSC M02/M09 Q1032 NOSIG
ZBSJ,2015-11-26 06:00,ZBSJ 260600Z 16003MPS 7000 NSC M02/M10 Q1031 NOSIG
ZBSJ,2015-11-26 07:00,ZBSJ 260700Z 20004MPS 8000 NSC M02/M11 Q1030 NOSIG
ZBSJ,2015-11-26 08:00,ZBSJ 260800Z 18005MPS 6000 NSC M03/M10 Q1030 NOSIG
ZBSJ,2015-11-26 09:00,ZBSJ 260900Z 18004MPS 7000 NSC M04/M10 Q1030 NOSIG
ZBSJ,2015-11-26 10:00,ZBSJ 261000Z 18003MPS 7000 NSC M05/M10 Q1030 NOSIG
ZBSJ,2015-11-26 11:00,ZBSJ 261100Z 16002MPS 5000 HZ NSC M07/M11 Q1030 NOSIG
ZBSJ,2015-11-26 12:00,ZBSJ 261200Z 16002MPS 4000 HZ NSC M07/M11 Q1030 NOSIG
ZBSJ,2015-11-26 13:00,ZBSJ 261300Z 17003MPS 3500 HZ NSC M07/M11 Q1029 NOSIG
ZBSJ,2015-11-26 14:00,ZBSJ 261400Z 18003MPS 3500 HZ NSC M06/M10 Q1029 NOSIG
ZBSJ,2015-11-26 15:00,ZBSJ 261500Z 16003MPS 3000 BR NSC M08/M11 Q1029 NOSIG
ZBSJ,2015-11-26 16:00,ZBSJ 261600Z 15002MPS 3000 BR NSC M07/M10 Q1028 NOSIG
ZBSJ,2015-11-26 17:00,ZBSJ 261700Z 17001MPS 2200 BR NSC M07/M09 Q1028 NOSIG
ZBSJ,2015-11-26 18:00,ZBSJ 261800Z 13001MPS 2200 BR NSC M07/M08 Q1028 NOSIG
ZBSJ,2015-11-26 19:00,ZBSJ 261900Z 17002MPS 2200 BR NSC M06/M08 Q1027 NOSIG
ZBSJ,2015-11-26 20:00,ZBSJ 262000Z 16003MPS 1700 BR NSC M06/M07 Q1026 NOSIG
ZBSJ,2015-11-26 21:00,ZBSJ 262100Z 17002MPS 1600 BR NSC M06/M07 Q1025 NOSIG
ZBSJ,2015-11-26 22:00,ZBSJ 262200Z 17002MPS 1600 BR NSC M06/M07 Q1025 NOSIG
ZBSJ,2015-11-26 23:00,ZBSJ 262300Z 18002MPS 1600 BR NSC M06/M07 Q1025 BECMG TL2400 1400 BR
ZBSJ,2015-11-27 00:00,ZBSJ 270000Z 17003MPS 1200 R15/1400N BR NSC M06/M08 Q1025 BECMG 1600
ZBSJ,2015-11-27 01:00,ZBSJ 270100Z 17001MPS 1200 R15/1200N BR NSC M06/M07 Q1025 BECMG 1600
ZBSJ,2015-11-27 02:00,ZBSJ 270200Z 20001MPS 1200 R15/1000N BR NSC M04/M07 Q1025 NOSIG
ZBSJ,2015-11-27 03:00,ZBSJ 270300Z 11001MPS 1100 R15/0900N BR NSC M03/M06 Q1024 NOSIG
ZBSJ,2015-11-27 04:00,ZBSJ 270400Z 11001MPS 1100 R15/0900N BR NSC M03/M06 Q1024 NOSIG
ZBSJ,2015-11-27 05:00,ZBSJ 270500Z 10002MPS 1100 R15/1000D BR NSC M02/M06 Q1023 NOSIG
ZBSJ,2015-11-27 06:00,ZBSJ 270600Z 13002MPS 1100 R15/0900N BR NSC M02/M06 Q1022 NOSIG
ZBSJ,2015-11-27 07:00,ZBSJ 270700Z 11002MPS 0800 R15/0900N HZ NSC M02/M05 Q1022 NOSIG
ZBSJ,2015-11-27 08:00,ZBSJ 270800Z 11002MPS 0800 R15/1000N HZ NSC M02/M05 Q1023 NOSIG
ZBSJ,2015-11-27 09:00,ZBSJ 270900Z 10002MPS 1000 R15/1400U BR NSC M03/M06 Q1024 NOSIG
ZBSJ,2015-11-27 10:00,ZBSJ 271000Z 08002MPS 1600 BR NSC M04/M06 Q1024 BECMG TL1130 1200 HZ
ZBSJ,2015-11-27 11:00,ZBSJ 271100Z 10001MPS 1600 BR NSC M05/M06 Q1025 BECMG TL1230 1200 BR
ZBSJ,2015-11-27 12:00,ZBSJ 271200Z 08001MPS 1500 BR NSC M06/M07 Q1026 BECMG TL1330 1200 BR
ZBSJ,2015-11-27 13:00,ZBSJ 271300Z 32001MPS 1500 BR NSC M05/M07 Q1026 NOSIG
ZBSJ,2015-11-27 14:00,ZBSJ 271400Z 04001MPS 1400 R15/2000D BR NSC M05/M06 Q1027 NOSIG
ZBSJ,2015-11-27 15:00,ZBSJ 271500Z 00000MPS 1400 R15/1600N BR NSC M04/M06 Q1027 NOSIG
ZBSJ,2015-11-27 16:00,ZBSJ 271600Z 00000MPS 1400 R15/1700U BR NSC M03/M06 Q1027 NOSIG
ZBSJ,2015-11-27 17:00,ZBSJ 271700Z 11001MPS 1400 R15/1600N BR NSC M04/M05 Q1027 NOSIG
ZBSJ,2015-11-27 18:00,ZBSJ 271800Z 06001MPS 1200 R15/1300D BR NSC M05/M06 Q1027 NOSIG
ZBSJ,2015-11-27 19:00,ZBSJ 271900Z 12001MPS 1200 R15/1300U BR NSC M06/M07 Q1027 NOSIG
ZBSJ,2015-11-27 20:00,ZBSJ 272000Z 04001MPS 1000 R15/1100U BR NSC M07/M07 Q1027 NOSIG
ZBSJ,2015-11-27 21:00,ZBSJ 272100Z 00000MPS 1000 R15/1000D BR NSC M07/M07 Q1027 NOSIG
ZBSJ,2015-11-27 22:00,ZBSJ 272200Z 31001MPS 1000 R15/1000U BR NSC M07/M08 Q1028 NOSIG
ZBSJ,2015-11-27 23:00,ZBSJ 272300Z 00000MPS 0800 R15/0900D FZFG NSC M07/M08 Q1028 BECMG 0700 BR
ZBSJ,2015-11-28 00:00,ZBSJ 280000Z 31001MPS 0500 R15/0600N FZFG NSC M07/M07 Q1029 NOSIG
ZBSJ,2015-11-28 01:00,ZBSJ 280100Z 08001MPS 0500 R33/0500N FZFG NSC M06/M06 Q1030 NOSIG
ZBSJ,2015-11-28 02:00,ZBSJ 280200Z 33001MPS 0500 R33/0550N FZFG NSC M03/M04 Q1030 NOSIG
ZBSJ,2015-11-28 03:00,ZBSJ 280300Z 35001MPS 0500 R33/0600N FZFG NSC M02/M05 Q1030 NOSIG
ZBSJ,2015-11-28 04:00,ZBSJ 280400Z 08001MPS 0600 R33/0650N FZFG NSC M01/M04 Q1029 NOSIG
ZBSJ,2015-11-28 05:00,ZBSJ 280500Z 00000MPS 0700 R33/0800N FZFG NSC M00/M05 Q1028 NOSIG
ZBSJ,2015-11-28 06:00,ZBSJ 280600Z 08001MPS 0700 R33/0900N FZFG NSC M00/M04 Q1028 NOSIG
ZBSJ,2015-11-28 07:00,ZBSJ 280700Z 09002MPS 0700 R33/1200U FZFG NSC M00/M06 Q1027 NOSIG
ZBSJ,2015-11-28 08:00,ZBSJ 280800Z 07001MPS 0800 R33/1300N FZFG NSC M01/M05 Q1027 NOSIG
ZBSJ,2015-11-28 09:00,ZBSJ 280900Z 07001MPS 0800 R33/1800U FZFG NSC M02/M05 Q1028 NOSIG
ZBSJ,2015-11-28 10:00,ZBSJ 281000Z 05001MPS 0900 R33/P2000N FZFG NSC M04/M05 Q1028 NOSIG
ZBSJ,2015-11-28 11:00,ZBSJ 281100Z 05001MPS 0900 R33/1900N FZFG NSC M04/M06 Q1028 NOSIG
ZBSJ,2015-11-28 12:00,ZBSJ 281200Z 02001MPS 0800 R33/1500N FZFG NSC M05/M06 Q1029 NOSIG
ZBSJ,2015-11-28 13:00,ZBSJ 281300Z 01001MPS 0800 R33/0900V1300U FZFG NSC M05/M06 Q1029 NOSIG
ZBSJ,2015-11-28 14:00,ZBSJ 281400Z 00000MPS 0800 R33/1200U FZFG NSC M05/M06 Q1029 NOSIG
ZBSJ,2015-11-28 15:00,ZBSJ 281500Z 00000MPS 0800 R33/1200U FZFG NSC M05/M06 Q1028 NOSIG
ZBSJ,2015-11-28 16:00,ZBSJ 281600Z 21001MPS 0700 R33/0900N FZFG NSC M05/M06 Q1028 NOSIG
ZBSJ,2015-11-28 17:00,ZBSJ 281700Z 24001MPS 0600 R33/0900N FZFG NSC M05/M06 Q1028 NOSIG
ZBSJ,2015-11-28 18:00,ZBSJ 281800Z 00000MPS 0600 R33/0800U FZFG NSC M06/M06 Q1027 NOSIG
ZBSJ,2015-11-28 19:00,ZBSJ 281900Z 00000MPS 0600 R33/0900N FZFG NSC M06/M07 Q1027 NOSIG
ZBSJ,2015-11-28 20:00,ZBSJ 282000Z 30001MPS 0600 R33/0800N FZFG NSC M06/M07 Q1026 NOSIG
ZBSJ,2015-11-28 21:00,ZBSJ 282100Z 21002MPS 0600 R33/0900U FZFG NSC M06/M06 Q1026 NOSIG
ZBSJ,2015-11-28 22:00,ZBSJ 282200Z 02001MPS 0600 R33/0750N FZFG NSC M06/M07 Q1026 BECMG TL2230 0500 FZFG
ZBSJ,2015-11-28 23:00,ZBSJ 282300Z 32001MPS 0600 R33/0900N FZFG NSC M06/M07 Q1026 BECMG TL2330 0500 FZFG
ZBSJ,2015-11-29 00:00,ZBSJ 290000Z 33002MPS 0400 R33/0550N FZFG NSC M06/M07 Q1026 BECMG TL0130 0600
ZBSJ,2015-11-29 01:00,ZBSJ 290100Z 32001MPS 0600 R33/0500N FZFG NSC M05/M06 Q1027 NOSIG
ZBSJ,2015-11-29 02:00,ZBSJ 290200Z 27001MPS 0700 R33/0700N FZFG NSC M02/M05 Q1027 BECMG 0800
ZBSJ,2015-11-29 03:00,ZBSJ 290300Z 00000MPS 0800 R33/0800N HZ NSC M00/M04 Q1027 NOSIG
ZBSJ,2015-11-29 04:00,ZBSJ 290400Z 14001MPS 0800 R33/0800N HZ NSC 00/M05 Q1026 NOSIG
ZBSJ,2015-11-29 05:00,ZBSJ 290500Z 13002MPS 0900 R33/0900N HZ NSC 01/M05 Q1025 NOSIG
ZBSJ,2015-11-29 06:00,ZBSJ 290600Z 15002MPS 1000 R33/0900N HZ NSC 02/M04 Q1025 NOSIG
ZBSJ,2015-11-29 07:00,ZBSJ 290700Z 13002MPS 0700 R33/0900N HZ NSC 01/M04 Q1025 NOSIG
ZBSJ,2015-11-29 08:00,ZBSJ 290800Z 09002MPS 0600 R33/0900N HZ NSC 00/M04 Q1026 NOSIG
ZBSJ,2015-11-29 09:00,ZBSJ 290900Z 00000MPS 0600 R33/1100U FZFG NSC M00/M03 Q1026 NOSIG
ZBSJ,2015-11-29 10:00,ZBSJ 291000Z 34001MPS 0700 R33/1300N FZFG NSC M02/M04 Q1027 NOSIG
ZBSJ,2015-11-29 11:00,ZBSJ 291100Z 32001MPS 0700 R33/1000U FZFG NSC M03/M04 Q1027 NOSIG
ZBSJ,2015-11-29 12:00,ZBSJ 291200Z 36001MPS 0600 R33/0750N FZFG NSC M04/M04 Q1028 NOSIG
ZBSJ,2015-11-29 13:00,ZBSJ 291300Z 25002MPS 0700 R33/1000N FZFG NSC M03/M05 Q1028 NOSIG
ZBSJ,2015-11-29 14:00,ZBSJ 291400Z 28001MPS 0600 R33/1000U FZFG NSC M03/M04 Q1028 NOSIG
ZBSJ,2015-11-29 15:00,ZBSJ 291500Z 30002MPS 0600 R33/1000U FZFG NSC M04/M05 Q1028 NOSIG
ZBSJ,2015-11-29 16:00,ZBSJ 291600Z 29002MPS 0600 R33/1100U FZFG NSC M04/M06 Q1028 NOSIG
ZBSJ,2015-11-29 17:00,ZBSJ 291700Z 31002MPS 0700 R33/1200D FZFG NSC M04/M05 Q1027 NOSIG
ZBSJ,2015-11-29 18:00,ZBSJ 291800Z 28002MPS 0700 R33/1100N FZFG NSC M04/M05 Q1027 NOSIG
ZBSJ,2015-11-29 19:00,ZBSJ 291900Z 28001MPS 0700 R33/1100U FZFG NSC M04/M05 Q1027 NOSIG
ZBSJ,2015-11-29 20:00,ZBSJ 292000Z 29002MPS 0700 R33/1100N FZFG NSC M05/M06 Q1026 NOSIG
ZBSJ,2015-11-29 21:00,ZBSJ 292100Z 28001MPS 0700 R33/1000N FZFG NSC M04/M05 Q1025 NOSIG
ZBSJ,2015-11-29 22:00,ZBSJ 292200Z 28002MPS 0600 R33/1000N FZFG NSC M05/M06 Q1025 BECMG TL2330 0500 FZFG
ZBSJ,2015-11-29 23:00,ZBSJ 292300Z 21001MPS 0500 R33/0650N FZFG NSC M05/M06 Q1026 NOSIG
ZBSJ,2015-11-30 00:00,ZBSJ 300000Z 19002MPS 0200 R15/0400N FZFG NSC M05/M06 Q1026 BECMG TL0130 0400
ZBSJ,2015-11-30 01:00,ZBSJ 300100Z 21001MPS 0200 R15/0350N FZFG NSC M04/M04 Q1026 BECMG TL0230 0400
ZBSJ,2015-11-30 02:00,ZBSJ 300200Z 17002MPS 0250 R15/0400N FZFG NSC M02/M03 Q1026 BECMG TL0330 0400
ZBSJ,2015-11-30 03:00,ZBSJ 300300Z 18002MPS 0400 R33/0500N FG NSC 00/M03 Q1026 NOSIG
ZBSJ,2015-11-30 04:00,ZBSJ 300400Z 14001MPS 0450 R33/0500N FG NSC 02/M02 Q1024 NOSIG
ZBSJ,2015-11-30 05:00,ZBSJ 300500Z 15002MPS 0400 R33/0450N FG NSC 02/M01 Q1023 NOSIG
ZBSJ,2015-11-30 06:00,ZBSJ 300600Z 16004MPS 0450 R15/0500N FZFG NSC M00/M02 Q1022 NOSIG
ZBSJ,2015-11-30 07:00,ZBSJ 300700Z 15003MPS 0450 R15/0600N FZFG NSC M01/M02 Q1022 NOSIG
ZBSJ,2015-11-30 08:00,ZBSJ 300800Z 14003MPS 0400 R15/0500N FZFG NSC M02/M02 Q1022 NOSIG
ZBSJ,2015-11-30 09:00,ZBSJ 300900Z 18003MPS 0350 R33/0600N FZFG NSC M02/M02 Q1022 BECMG TL1030 0600
ZBSJ,2015-11-30 10:00,ZBSJ 301000Z 16003MPS 130V200 0500 R33/0800N FZFG NSC M02/M02 Q1022 BECMG TL1130 0600
ZBSJ,2015-11-30 11:00,ZBSJ 301100Z 16002MPS 0600 R33/1100N FZFG NSC M02/M02 Q1022 BECMG TL1230 0800
ZBSJ,2015-11-30 12:00,ZBSJ 301200Z 19002MPS 0600 R33/1100N FZFG NSC M02/M02 Q1023 NOSIG
ZBSJ,2015-11-30 13:00,ZBSJ 301300Z 09001MPS 0600 R33/1200N FZFG NSC M02/M03 Q1023 NOSIG
ZBSJ,2015-11-30 14:00,ZBSJ 301400Z 15001MPS 0600 R33/1100N FZFG NSC M02/M02 Q1023 NOSIG
ZBSJ,2015-11-30 15:00,ZBSJ 301500Z 27001MPS 0600 R33/1200N FZFG NSC M02/M02 Q1023 NOSIG
ZBSJ,2015-11-30 16:00,ZBSJ 301600Z 23001MPS 0600 R33/1200N FZFG NSC M02/M03 Q1022 NOSIG
ZBSJ,2015-11-30 17:00,ZBSJ 301700Z 00000MPS 0600 R33/1200N FZFG NSC M02/M02 Q1022 NOSIG
ZBSJ,2015-11-30 18:00,ZBSJ 301800Z 24001MPS 0600 R33/1200N FZFG NSC M02/M02 Q1021 NOSIG
ZBSJ,2015-11-30 19:00,ZBSJ 301900Z 22001MPS 0600 R33/1200N FZFG NSC M02/M02 Q1021 NOSIG
ZBSJ,2015-11-30 20:00,ZBSJ 302000Z 23002MPS 0600 R33/1100N FZFG NSC M02/M02 Q1021 NOSIG
ZBSJ,2015-11-30 21:00,ZBSJ 302100Z 20001MPS 0700 R33/1500VP2000U FZFG NSC M01/M02 Q1020 NOSIG
ZBSJ,2015-11-30 22:00,ZBSJ 302200Z 22002MPS 0700 R33/1400N FZFG NSC M02/M02 Q1020 NOSIG
ZBSJ,2015-11-30 23:00,ZBSJ 302300Z 23002MPS 0700 R15/1400N FZFG NSC M02/M02 Q1020 BECMG 0500 FZFG
ZBSJ,2015-12-01 00:00,ZBSJ 010000Z 22001MPS 0600 R15/1000N FZFG NSC M01/M02 Q1020 NOSIG
ZBSJ,2015-12-01 01:00,ZBSJ 010100Z 27002MPS 0700 R15/0900N FZFG NSC M01/M02 Q1020 BECMG TL0230 0800
ZBSJ,2015-12-01 02:00,ZBSJ 010200Z 30001MPS 0700 R15/0900N FZFG NSC M01/M02 Q1020 BECMG TL0330 0800
ZBSJ,2015-12-01 03:00,ZBSJ 010300Z 25001MPS 0700 R15/0900U FZFG NSC M01/M02 Q1019 NOSIG
ZBSJ,2015-12-01 04:00,ZBSJ 010400Z 00000MPS 0800 R15/1100D FZFG NSC M01/M02 Q1018 NOSIG
ZBSJ,2015-12-01 05:00,ZBSJ 010500Z 21001MPS 0800 R15/1100N FZFG NSC M00/M02 Q1017 NOSIG
ZBSJ,2015-12-01 06:00,ZBSJ 010600Z 08001MPS 0800 R15/1100N FZFG NSC M00/M02 Q1016 NOSIG
ZBSJ,2015-12-01 07:00,ZBSJ 010700Z 00000MPS 1000 R15/1300U BR NSC M00/M02 Q1016 NOSIG
ZBSJ,2015-12-01 08:00,ZBSJ 010800Z 04001MPS 1000 R15/1500N BR NSC M00/M02 Q1017 NOSIG
ZBSJ,2015-12-01 09:00,ZBSJ 010900Z 06002MPS 1300 R33/2000U BR NSC M00/M02 Q1018 NOSIG
ZBSJ,2015-12-01 10:00,ZBSJ 011000Z 34001MPS 1600 BR NSC M00/M02 Q1019 NOSIG
ZBSJ,2015-12-01 11:00,ZBSJ 011100Z 35002MPS 1800 BR NSC M00/M02 Q1020 NOSIG
ZBSJ,2015-12-01 12:00,ZBSJ 011200Z 28001MPS 1600 BR NSC M00/M02 Q1021 NOSIG
ZBSJ,2015-12-01 13:00,ZBSJ 011300Z 24002MPS 1400 R33/P2000D BR NSC M01/M02 Q1021 BECMG TL1430 2000
ZBSJ,2015-12-01 14:00,ZBSJ 011400Z 25002MPS 1000 R33/1800D BR NSC M01/M03 Q1021 NOSIG
ZBSJ,2015-12-01 15:00,ZBSJ 011500Z 28002MPS 0800 R33/1400D FZFG OVC046 M02/M03 Q1021 NOSIG
ZBSJ,2015-12-01 16:00,ZBSJ 011600Z 25002MPS 220V280 0800 R33/1000N FZFG BKN046 M03/M03 Q1021 NOSIG
ZBSJ,2015-12-01 17:00,ZBSJ 011700Z 03002MPS 0400 R33/0900D FZFG SCT046 M03/M04 Q1022 NOSIG
ZBSJ,2015-12-01 18:00,ZBSJ 011800Z 31002MPS 280V350 0200 R33/0650U FZFG VV003 M03/M03 Q1022 NOSIG
ZBSJ,2015-12-01 19:00,ZBSJ 011900Z 36001MPS 4000 BR NSC M04/M04 Q1022 NOSIG
ZBSJ,2015-12-01 20:00,ZBSJ 012000Z 15002MPS 1400 R33/1200D BR NSC M05/M06 Q1023 NOSIG
ZBSJ,2015-12-01 21:00,ZBSJ 012100Z 25002MPS 230V300 5000 BR NSC M06/M07 Q1022 NOSIG
ZBSJ,2015-12-01 22:00,ZBSJ 012200Z 32003MPS 5000 BR NSC M03/M06 Q1023 NOSIG
ZBSJ,2015-12-01 23:00,ZBSJ 012300Z 30004MPS CAVOK M01/M05 Q1023 NOSIG
ZBSJ,2015-12-02 00:00,ZBSJ 020000Z 28006MPS CAVOK 02/M05 Q1023 NOSIG
ZBSJ,2015-12-02 01:00,ZBSJ 020100Z 28006MPS CAVOK 03/M06 Q1023 NOSIG
ZBSJ,2015-12-02 02:00,ZBSJ 020200Z 27006MPS CAVOK 04/M05 Q1023 NOSIG
ZBSJ,2015-12-02 03:00,ZBSJ 020300Z 27006MPS CAVOK 05/M06 Q1023 NOSIG
ZBSJ,2015-12-02 04:00,ZBSJ 020400Z 28008MPS CAVOK 06/M06 Q1023 NOSIG
ZBSJ,2015-12-02 05:00,ZBSJ 020500Z 28007MPS CAVOK 06/M08 Q1022 NOSIG
ZBSJ,2015-12-02 06:00,ZBSJ 020600Z 29005MPS CAVOK 07/M08 Q1022 NOSIG
ZBSJ,2015-12-02 07:00,ZBSJ 020700Z 32005MPS 9999 BKN040 07/M08 Q1022 NOSIG
ZBSJ,2015-12-02 08:00,ZBSJ 020800Z 30005MPS 9999 SCT040 06/M10 Q1022 NOSIG
ZBSJ,2015-12-02 09:00,ZBSJ 020900Z 32004G09MPS 270V350 9999 FEW040 03/M08 Q1022 NOSIG
ZBSJ,2015-12-02 10:00,ZBSJ 021000Z 33004MPS CAVOK 00/M07 Q1023 NOSIG
ZBSJ,2015-12-02 11:00,ZBSJ 021100Z 30004MPS CAVOK 01/M07 Q1023 NOSIG
ZBSJ,2015-12-02 12:00,ZBSJ 021200Z 29007MPS CAVOK 03/M10 Q1023 NOSIG
ZBSJ,2015-12-02 13:00,ZBSJ 021300Z 29004MPS CAVOK 02/M10 Q1023 NOSIG
ZBSJ,2015-12-02 14:00,ZBSJ 021400Z 29006MPS CAVOK 02/M11 Q1023 NOSIG
ZBSJ,2015-12-02 15:00,ZBSJ 021500Z 30005MPS CAVOK 01/M10 Q1023 NOSIG
ZBSJ,2015-12-02 16:00,ZBSJ 021600Z 36002MPS CAVOK M01/M08 Q1023 NOSIG
ZBSJ,2015-12-02 17:00,ZBSJ 021700Z 31002MPS CAVOK M02/M10 Q1023 NOSIG
ZBSJ,2015-12-02 18:00,ZBSJ 021800Z 29003MPS CAVOK M02/M11 Q1023 NOSIG
ZBSJ,2015-12-02 19:00,ZBSJ 021900Z 29004MPS CAVOK 00/M13 Q1023 NOSIG
ZBSJ,2015-12-02 20:00,ZBSJ 022000Z 31004MPS CAVOK M01/M10 Q1023 NOSIG
ZBSJ,2015-12-02 21:00,ZBSJ 022100Z 35003MPS 320V040 CAVOK M02/M09 Q1023 NOSIG
ZBSJ,2015-12-02 22:00,ZBSJ 022200Z 32002MPS CAVOK M04/M11 Q1023 NOSIG
ZBSJ,2015-12-02 23:00,ZBSJ 022300Z 30001MPS CAVOK M03/M10 Q1024 NOSIG
ZBSJ,2015-12-03 00:00,ZBSJ 030000Z 32004MPS CAVOK M02/M10 Q1025 NOSIG
ZBSJ,2015-12-03 01:00,ZBSJ 030100Z 31008MPS CAVOK 02/M11 Q1025 NOSIG
ZBSJ,2015-12-03 02:00,ZBSJ 030200Z 32006MPS CAVOK 04/M11 Q1026 NOSIG
ZBSJ,2015-12-03 03:00,ZBSJ 030300Z 32008MPS CAVOK 05/M11 Q1025 NOSIG
ZBSJ,2015-12-03 04:00,ZBSJ 030400Z 34006MPS 310V010 CAVOK 05/M10 Q1026 NOSIG
ZBSJ,2015-12-03 05:00,ZBSJ 030500Z 34005MPS CAVOK 06/M11 Q1025 NOSIG
ZBSJ,2015-12-03 06:00,ZBSJ 030600Z 35007MPS CAVOK 05/M11 Q1025 NOSIG
ZBSJ,2015-12-03 07:00,ZBSJ 030700Z 34007MPS CAVOK 05/M11 Q1025 NOSIG
ZBSJ,2015-12-03 08:00,ZBSJ 030800Z 35005MPS CAVOK 04/M10 Q1026 NOSIG
ZBSJ,2015-12-03 09:00,ZBSJ 030900Z 34006MPS CAVOK 03/M11 Q1027 NOSIG
ZBSJ,2015-12-03 10:00,ZBSJ 031000Z 36004MPS CAVOK 03/M11 Q1027 NOSIG
ZBSJ,2015-12-03 11:00,ZBSJ 031100Z 36004MPS CAVOK 02/M10 Q1028 NOSIG
ZBSJ,2015-12-03 12:00,ZBSJ 031200Z 35004MPS CAVOK 01/M10 Q1028 NOSIG
ZBSJ,2015-12-03 13:00,ZBSJ 031300Z 34003MPS CAVOK M01/M10 Q1029 NOSIG
ZBSJ,2015-12-03 14:00,ZBSJ 031400Z 33002MPS CAVOK M01/M10 Q1029 NOSIG
ZBSJ,2015-12-03 15:00,ZBSJ 031500Z 33004MPS CAVOK M02/M09 Q1029 NOSIG
ZBSJ,2015-12-03 16:00,ZBSJ 031600Z 32003MPS 290V010 CAVOK M00/M10 Q1029 NOSIG
ZBSJ,2015-12-03 17:00,ZBSJ 031700Z 30004MPS CAVOK M01/M09 Q1028 NOSIG
ZBSJ,2015-12-03 18:00,ZBSJ 031800Z 29003MPS CAVOK M01/M09 Q1028 NOSIG
ZBSJ,2015-12-03 19:00,ZBSJ 031900Z 29003MPS CAVOK M01/M10 Q1028 NOSIG
ZBSJ,2015-12-03 20:00,ZBSJ 032000Z 28004MPS CAVOK M01/M10 Q1028 NOSIG
ZBSJ,2015-12-03 21:00,ZBSJ 032100Z 29004MPS CAVOK M00/M12 Q1028 NOSIG
ZBSJ,2015-12-03 22:00,ZBSJ 032200Z 26002MPS CAVOK M01/M11 Q1028 NOSIG
ZBSJ,2015-12-03 23:00,ZBSJ 032300Z 33003MPS CAVOK M03/M12 Q1028 NOSIG
ZBSJ,2015-12-04 00:00,ZBSJ 040000Z 25004MPS 230V300 CAVOK M01/M11 Q1029 NOSIG
ZBSJ,2015-12-04 01:00,ZBSJ 040100Z 26002MPS 230V290 8000 NSC 03/M13 Q1029 NOSIG
ZBSJ,2015-12-04 02:00,ZBSJ 040200Z 27003MPS CAVOK 04/M13 Q1029 NOSIG
ZBSJ,2015-12-04 03:00,ZBSJ 040300Z 26004MPS CAVOK 05/M12 Q1028 NOSIG
ZBSJ,2015-12-04 04:00,ZBSJ 040400Z 27005MPS CAVOK 06/M11 Q1028 NOSIG
ZBSJ,2015-12-04 05:00,ZBSJ 040500Z 29005MPS CAVOK 08/M12 Q1026 NOSIG
ZBSJ,2015-12-04 06:00,ZBSJ 040600Z 28003MPS 250V320 CAVOK 09/M10 Q1026 NOSIG
ZBSJ,2015-12-04 07:00,ZBSJ 040700Z 31002MPS 260V070 CAVOK 09/M11 Q1025 NOSIG
ZBSJ,2015-12-04 08:00,ZBSJ 040800Z 29001MPS CAVOK 08/M11 Q1025 NOSIG
ZBSJ,2015-12-04 09:00,ZBSJ 040900Z 20002MPS 7000 NSC 06/M10 Q1025 NOSIG
ZBSJ,2015-12-04 10:00,ZBSJ 041000Z 21004MPS 5000 HZ NSC 03/M06 Q1025 NOSIG
ZBSJ,2015-12-04 11:00,ZBSJ 041100Z 22004MPS 5000 HZ NSC 03/M07 Q1026 NOSIG
ZBSJ,2015-12-04 12:00,ZBSJ 041200Z 23003MPS 5000 HZ NSC 01/M07 Q1026 NOSIG
ZBSJ,2015-12-04 13:00,ZBSJ 041300Z 24003MPS 5000 HZ NSC 02/M07 Q1026 NOSIG
ZBSJ,2015-12-04 14:00,ZBSJ 041400Z 33002MPS 4500 HZ NSC M00/M07 Q1027 NOSIG
ZBSJ,2015-12-04 15:00,ZBSJ 041500Z 32003MPS 3500 HZ NSC M03/M07 Q1027 NOSIG
ZBSJ,2015-12-04 16:00,ZBSJ 041600Z 29001MPS 3000 HZ NSC M01/M06 Q1026 NOSIG
ZBSJ,2015-12-04 17:00,ZBSJ 041700Z 29002MPS 260V330 4000 HZ NSC M01/M06 Q1026 NOSIG
ZBSJ,2015-12-04 18:00,ZBSJ 041800Z 30003MPS 260V350 4000 HZ NSC M01/M06 Q1026 NOSIG
ZBSJ,2015-12-04 19:00,ZBSJ 041900Z 31003MPS 4500 HZ NSC M02/M07 Q1026 NOSIG
ZBSJ,2015-12-04 20:00,ZBSJ 042000Z 25001MPS 6000 NSC M01/M07 Q1026 NOSIG
ZBSJ,2015-12-04 21:00,ZBSJ 042100Z 18001MPS 6000 NSC M04/M07 Q1026 NOSIG
ZBSJ,2015-12-04 22:00,ZBSJ 042200Z 25001MPS 6000 NSC M03/M07 Q1027 NOSIG
ZBSJ,2015-12-04 23:00,ZBSJ 042300Z 31002MPS 7000 NSC M02/M08 Q1028 NOSIG
ZBSJ,2015-12-05 00:00,ZBSJ 050000Z 32004MPS 5000 HZ NSC M02/M07 Q1029 NOSIG
ZBSJ,2015-12-05 01:00,ZBSJ 050100Z 32004MPS 4500 HZ NSC 02/M07 Q1029 NOSIG
ZBSJ,2015-12-05 02:00,ZBSJ 050200Z 32003MPS 6000 NSC 05/M06 Q1030 NOSIG
ZBSJ,2015-12-05 03:00,ZBSJ 050300Z 03002MPS 6000 NSC 06/M07 Q1030 NOSIG
ZBSJ,2015-12-05 04:00,ZBSJ 050400Z 08003MPS 040V100 8000 NSC 07/M07 Q1029 NOSIG
ZBSJ,2015-12-05 05:00,ZBSJ 050500Z 09003MPS 060V120 6000 NSC 07/M06 Q1029 NOSIG
ZBSJ,2015-12-05 06:00,ZBSJ 050600Z 09003MPS 5000 HZ NSC 08/M06 Q1029 NOSIG
ZBSJ,2015-12-05 07:00,ZBSJ 050700Z 11003MPS 5000 HZ NSC 07/M06 Q1029 NOSIG
ZBSJ,2015-12-05 08:00,ZBSJ 050800Z 13002MPS 4500 HZ NSC 07/M06 Q1030 NOSIG
ZBSJ,2015-12-05 09:00,ZBSJ 050900Z 11001MPS 2700 HZ NSC 04/M05 Q1030 NOSIG
ZBSJ,2015-12-05 10:00,ZBSJ 051000Z 15001MPS 3500 HZ NSC 01/M06 Q1030 NOSIG
ZBSJ,2015-12-05 11:00,ZBSJ 051100Z 17001MPS 3000 HZ NSC M00/M05 Q1030 BECMG 2000 HZ
ZBSJ,2015-12-05 12:00,ZBSJ 051200Z 18001MPS 2500 FU NSC M01/M05 Q1031 NOSIG
ZBSJ,2015-12-05 13:00,ZBSJ 051300Z 00000MPS 2000 BR NSC M02/M05 Q1031 NOSIG
ZBSJ,2015-12-05 14:00,ZBSJ 051400Z 32001MPS 1800 BR NSC M02/M05 Q1031 NOSIG
ZBSJ,2015-12-05 15:00,ZBSJ 051500Z 33002MPS 1500 BR NSC M01/M04 Q1031 NOSIG
ZBSJ,2015-12-05 16:00,ZBSJ 051600Z 03001MPS 1400 R33/1400U BR NSC M03/M04 Q1031 NOSIG
ZBSJ,2015-12-05 17:00,ZBSJ 051700Z 00000MPS 1400 R33/1600U BR NSC M03/M05 Q1030 NOSIG
ZBSJ,2015-12-05 18:00,ZBSJ 051800Z 27001MPS 1400 R33/1500D BR NSC M02/M05 Q1030 NOSIG
ZBSJ,2015-12-05 19:00,ZBSJ 051900Z 30001MPS 1800 BR NSC M04/M06 Q1029 NOSIG
ZBSJ,2015-12-05 20:00,ZBSJ 052000Z 32002MPS 2000 BR NSC M04/M05 Q1029 NOSIG
ZBSJ,2015-12-05 21:00,ZBSJ 052100Z 31002MPS 2000 BR NSC M05/M06 Q1029 NOSIG
ZBSJ,2015-12-05 22:00,ZBSJ 052200Z 00000MPS 2000 BR NSC M04/M05 Q1029 NOSIG
ZBSJ,2015-12-05 23:00,ZBSJ 052300Z 27002MPS 2000 BR NSC M04/M05 Q1029 BECMG 3500
ZBSJ,2015-12-06 00:00,ZBSJ 060000Z 31002MPS 1800 BR NSC M04/M06 Q1029 BECMG 1500 BR
ZBSJ,2015-12-06 01:00,ZBSJ 060100Z 32001MPS 1800 BR NSC M01/M03 Q1030 NOSIG
ZBSJ,2015-12-06 02:00,ZBSJ 060200Z 30001MPS 1800 BR NSC 02/M04 Q1030 NOSIG
ZBSJ,2015-12-06 03:00,ZBSJ 060300Z 30001MPS 2700 BR NSC 03/M05 Q1029 BECMG TL0400 3500
ZBSJ,2015-12-06 04:00,ZBSJ 060400Z 01001MPS 3500 HZ NSC 04/M04 Q1029 NOSIG
ZBSJ,2015-12-06 05:00,ZBSJ 060500Z 06001MPS 3000 HZ NSC 05/M04 Q1028 NOSIG
ZBSJ,2015-12-06 06:00,ZBSJ 060600Z 10002MPS 2000 HZ NSC 05/M03 Q1027 NOSIG
ZBSJ,2015-12-06 07:00,ZBSJ 060700Z 11002MPS 1700 HZ NSC 05/M02 Q1027 NOSIG
ZBSJ,2015-12-06 08:00,ZBSJ 060800Z 09001MPS 1200 R15/1300N HZ NSC 04/M01 Q1027 BECMG TL0900 1600
ZBSJ,2015-12-06 09:00,ZBSJ 060900Z 06001MPS 1200 R15/1700D HZ BKN046 03/M02 Q1028 NOSIG
ZBSJ,2015-12-06 10:00,ZBSJ 061000Z 09001MPS 1200 R15/1600U HZ BKN046 03/M01 Q1028 BECMG TL1130 1600
ZBSJ,2015-12-06 11:00,ZBSJ 061100Z 10002MPS 1300 R15/1700U HZ BKN046 03/M01 Q1029 BECMG TL1230 1600
ZBSJ,2015-12-06 12:00,ZBSJ 061200Z 11001MPS 1300 R15/1900D HZ OVC046 02/M01 Q1029 BECMG TL1330 1600
ZBSJ,2015-12-06 13:00,ZBSJ 061300Z 35001MPS 1300 R15/1700N HZ OVC046 02/M01 Q1030 NOSIG
ZBSJ,2015-12-06 14:00,ZBSJ 061400Z 34002MPS 1300 R15/1600D BR OVC046 01/M02 Q1030 NOSIG
ZBSJ,2015-12-06 15:00,ZBSJ 061500Z 34002MPS 1200 R15/1400N BR OVC046 01/M02 Q1030 NOSIG
ZBSJ,2015-12-06 16:00,ZBSJ 061600Z 35001MPS 1200 R15/1500U BR OVC046 01/M02 Q1031 NOSIG
ZBSJ,2015-12-06 17:00,ZBSJ 061700Z 02002MPS 1400 R15/1900N BR OVC046 01/M02 Q1031 NOSIG
ZBSJ,2015-12-06 18:00,ZBSJ 061800Z 36002MPS 1600 BR NSC M01/M03 Q1031 NOSIG
ZBSJ,2015-12-06 19:00,ZBSJ 061900Z 02002MPS 1800 BR NSC M01/M02 Q1031 NOSIG
ZBSJ,2015-12-06 20:00,ZBSJ 062000Z 01002MPS 1800 BR NSC M02/M03 Q1031 NOSIG
ZBSJ,2015-12-06 21:00,ZBSJ 062100Z 36002MPS 1800 BR NSC M02/M03 Q1031 NOSIG
ZBSJ,2015-12-06 22:00,ZBSJ 062200Z 29001MPS 1800 BR NSC M03/M03 Q1031 NOSIG
ZBSJ,2015-12-06 23:00,ZBSJ 062300Z 28002MPS 1800 BR NSC M02/M03 Q1032 BECMG 1200 BR
ZBSJ,2015-12-07 00:00,ZBSJ 070000Z 31003MPS 1400 R15/1300D BR NSC M02/M03 Q1032 NOSIG
ZBSJ,2015-12-07 01:00,ZBSJ 070100Z 32002MPS 1200 R15/1200N BR NSC M01/M02 Q1033 NOSIG
ZBSJ,2015-12-07 02:00,ZBSJ 070200Z 32003MPS 1200 R15/1200U BR NSC 02/M01 Q1033 BECMG TL0330 1600
ZBSJ,2015-12-07 03:00,ZBSJ 070300Z 32002MPS 1200 R15/1200N HZ NSC 03/M01 Q1033 NOSIG
ZBSJ,2015-12-07 04:00,ZBSJ 070400Z 31002MPS 1200 R15/1200N HZ NSC 04/M01 Q1033 NOSIG
ZBSJ,2015-12-07 05:00,ZBSJ 070500Z 35002MPS 1200 R33/1200N HZ NSC 05/M01 Q1032 NOSIG
ZBSJ,2015-12-07 06:00,ZBSJ 070600Z 02001MPS 1600 HZ NSC 05/M02 Q1031 NOSIG
ZBSJ,2015-12-07 07:00,ZBSJ 070700Z 05001MPS 1600 HZ NSC 05/M01 Q1031 NOSIG
ZBSJ,2015-12-07 08:00,ZBSJ 070800Z 02001MPS 1600 HZ NSC 04/M01 Q1031 NOSIG
ZBSJ,2015-12-07 09:00,ZBSJ 070900Z 10001MPS 1600 BR NSC 01/M02 Q1031 NOSIG
ZBSJ,2015-12-07 10:00,ZBSJ 071000Z 27001MPS 2000 BR NSC 01/M02 Q1032 NOSIG
ZBSJ,2015-12-07 11:00,ZBSJ 071100Z 26001MPS 1600 R33/1200N BR NSC M00/M02 Q1032 NOSIG
ZBSJ,2015-12-07 12:00,ZBSJ 071200Z 33001MPS 1600 BR NSC M01/M02 Q1032 NOSIG
ZBSJ,2015-12-07 13:00,ZBSJ 071300Z 32001MPS 1600 BR NSC M01/M02 Q1032 NOSIG
ZBSJ,2015-12-07 14:00,ZBSJ 071400Z 31001MPS 1400 R33/1400U BR NSC M02/M03 Q1032 NOSIG
ZBSJ,2015-12-07 15:00,ZBSJ 071500Z 33002MPS 1300 R33/1300N BR NSC M01/M02 Q1032 NOSIG
ZBSJ,2015-12-07 16:00,ZBSJ 071600Z 33001MPS 1200 R33/1100U BR NSC M02/M03 Q1032 NOSIG
ZBSJ,2015-12-07 17:00,ZBSJ 071700Z 29001MPS 1000 R33/1100N BR NSC M02/M02 Q1032 NOSIG
ZBSJ,2015-12-07 18:00,ZBSJ 071800Z 32002MPS 1200 R33/1400U BR NSC M00/M01 Q1032 NOSIG
ZBSJ,2015-12-07 19:00,ZBSJ 071900Z 31001MPS 1200 R33/1400N BR NSC M01/M02 Q1032 NOSIG
ZBSJ,2015-12-07 20:00,ZBSJ 072000Z 28002MPS 1200 R33/1600U BR NSC M00/M01 Q1031 NOSIG
ZBSJ,2015-12-07 21:00,ZBSJ 072100Z 27001MPS 1400 R33/1800U BR NSC M00/M01 Q1031 NOSIG
ZBSJ,2015-12-07 22:00,ZBSJ 072200Z 29001MPS 1400 R33/1800D BR NSC 00/M01 Q1031 NOSIG
ZBSJ,2015-12-07 23:00,ZBSJ 072300Z 28001MPS 1600 BR NSC 00/M02 Q1031 NOSIG
ZBSJ,2015-12-08 00:00,ZBSJ 080000Z 00000MPS 1000 R33/1200N BR NSC 00/M01 Q1031 NOSIG
ZBSJ,2015-12-08 01:00,ZBSJ 080100Z 27001MPS 1000 R33/1000N BR NSC 01/M01 Q1031 NOSIG
ZBSJ,2015-12-08 02:00,ZBSJ 080200Z 28002MPS 1000 R33/1000N BR NSC 01/M01 Q1031 NOSIG
ZBSJ,2015-12-08 03:00,ZBSJ 080300Z 31002MPS 1000 R33/1100N BR NSC 02/M01 Q1031 NOSIG
ZBSJ,2015-12-08 04:00,ZBSJ 080400Z 35001MPS 1200 R33/1100N BR NSC 03/M01 Q1030 NOSIG
ZBSJ,2015-12-08 05:00,ZBSJ 080500Z 08001MPS 1100 R33/1100N BR NSC 02/M01 Q1029 NOSIG
ZBSJ,2015-12-08 06:00,ZBSJ 080600Z 08001MPS 1000 R33/1000U BR NSC 03/M00 Q1028 NOSIG
ZBSJ,2015-12-08 07:00,ZBSJ 080700Z 09002MPS 1000 R33/1200U BR NSC 03/M01 Q1027 NOSIG
ZBSJ,2015-12-08 08:00,ZBSJ 080800Z 04001MPS 1000 R33/1300N BR NSC 02/M00 Q1027 NOSIG
ZBSJ,2015-12-08 09:00,ZBSJ 080900Z 06001MPS 1000 R33/1300N BR NSC 02/00 Q1027 NOSIG
ZBSJ,2015-12-08 10:00,ZBSJ 081000Z 08001MPS 1100 R33/1300N BR NSC 02/M00 Q1028 NOSIG
ZBSJ,2015-12-08 11:00,ZBSJ 081100Z 36001MPS 1000 R33/1200D BR NSC 02/00 Q1028 NOSIG
ZBSJ,2015-12-08 12:00,ZBSJ 081200Z 36001MPS 0800 R33/1100D FG NSC 02/00 Q1028 NOSIG
ZBSJ,2015-12-08 13:00,ZBSJ 081300Z 02002MPS 1000 R33/1300N BR NSC 02/00 Q1028 NOSIG
ZBSJ,2015-12-08 14:00,ZBSJ 081400Z 35002MPS 1000 R33/1300N BR NSC 02/00 Q1028 NOSIG
ZBSJ,2015-12-08 15:00,ZBSJ 081500Z 03001MPS 1000 R33/1300N BR NSC 01/00 Q1028 NOSIG
ZBSJ,2015-12-08 16:00,ZBSJ 081600Z 33001MPS 1200 R33/1400N BR NSC 01/M00 Q1027 NOSIG
ZBSJ,2015-12-08 17:00,ZBSJ 081700Z 33001MPS 1000 R33/1400N BR NSC 01/M00 Q1027 NOSIG
ZBSJ,2015-12-08 18:00,ZBSJ 081800Z 32001MPS 1000 R33/1400N BR NSC 01/M00 Q1026 NOSIG
ZBSJ,2015-12-08 19:00,ZBSJ 081900Z 06001MPS 1200 R33/1500N BR NSC 01/M00 Q1026 NOSIG
ZBSJ,2015-12-08 20:00,ZBSJ 082000Z 02001MPS 1200 R33/1500N BR NSC 00/M01 Q1026 NOSIG
ZBSJ,2015-12-08 21:00,ZBSJ 082100Z 00000MPS 1200 R33/1600N BR NSC M00/M01 Q1025 NOSIG
ZBSJ,2015-12-08 22:00,ZBSJ 082200Z 35001MPS 1400 R33/1600N BR NSC M00/M01 Q1025 NOSIG
ZBSJ,2015-12-08 23:00,ZBSJ 082300Z 35001MPS 1200 R33/1300N BR NSC M01/M02 Q1025 NOSIG
ZBSJ,2015-12-09 00:00,ZBSJ 090000Z 36001MPS 0700 R33/0700N FZFG NSC M01/M01 Q1026 BECMG 0800 FG
ZBSJ,2015-12-09 01:00,ZBSJ 090100Z 01001MPS 0700 R33/0750N FZFG NSC M00/M01 Q1026 NOSIG
ZBSJ,2015-12-09 02:00,ZBSJ 090200Z 36001MPS 0700 R33/0700N FG NSC 01/M00 Q1026 NOSIG
ZBSJ,2015-12-09 03:00,ZBSJ 090300Z 01001MPS 0700 R33/0800N FG NSC 02/M00 Q1026 NOSIG
ZBSJ,2015-12-09 04:00,ZBSJ 090400Z 05002MPS 0800 R15/0900N FG NSC 03/01 Q1025 NOSIG
ZBSJ,2015-12-09 05:00,ZBSJ 090500Z 04002MPS 0800 R15/0900N FG NSC 03/01 Q1024 NOSIG
ZBSJ,2015-12-09 06:00,ZBSJ 090600Z 05002MPS 0800 R15/0900N FG NSC 03/01 Q1023 NOSIG
ZBSJ,2015-12-09 07:00,ZBSJ 090700Z 03001MPS 0700 R15/1000N FG NSC 04/01 Q1023 NOSIG
ZBSJ,2015-12-09 08:00,ZBSJ 090800Z 35002MPS 0700 R15/1000N FG NSC 03/01 Q1023 NOSIG
ZBSJ,2015-12-09 09:00,ZBSJ 090900Z 01001MPS 0800 R15/1400N FG NSC 01/00 Q1023 NOSIG
ZBSJ,2015-12-09 10:00,ZBSJ 091000Z 00000MPS 1000 R15/1300D BR NSC 00/M01 Q1024 NOSIG
ZBSJ,2015-12-09 11:00,ZBSJ 091100Z 14001MPS 0700 R15/1000N FZFG NSC M00/M01 Q1024 NOSIG
ZBSJ,2015-12-09 12:00,ZBSJ 091200Z 00000MPS 0300 R15/0250N FZFG NSC M01/M01 Q1024 NOSIG
ZBSJ,2015-12-09 13:00,ZBSJ 091300Z 22001MPS 0300 R15/0125V0300D FZFG NSC M02/M02 Q1024 NOSIG
ZBSJ,2015-12-09 14:00,ZBSJ 091400Z 30002MPS 0400 R15/0400V0550D FZFG NSC M02/M02 Q1024 NOSIG
ZBSJ,2015-12-09 15:00,ZBSJ 091500Z 33002MPS 0600 R15/0700N FZFG NSC M01/M01 Q1023 NOSIG
ZBSJ,2015-12-09 16:00,ZBSJ 091600Z 33003MPS 0700 R15/1000N FZFG NSC M01/M01 Q1023 NOSIG
ZBSJ,2015-12-09 17:00,ZBSJ 091700Z 00000MPS 0800 R15/1000N FZFG NSC M01/M02 Q1023 NOSIG
ZBSJ,2015-12-09 18:00,ZBSJ 091800Z 29002MPS 0800 R15/1000N FZFG NSC M02/M02 Q1023 NOSIG
ZBSJ,2015-12-09 19:00,ZBSJ 091900Z 10001MPS 0500 R15/0750N FZFG NSC M02/M03 Q1022 NOSIG
ZBSJ,2015-12-09 20:00,ZBSJ 092000Z 27001MPS 0500 R15/0500D FZFG NSC M02/M03 Q1022 NOSIG
ZBSJ,2015-12-09 21:00,ZBSJ 092100Z 15001MPS 0500 R15/0700N FZFG NSC M03/M03 Q1023 NOSIG
ZBSJ,2015-12-09 22:00,ZBSJ 092200Z 20001MPS 0200 R15/0300N FZFG NSC M05/M05 Q1023 NOSIG
ZBSJ,2015-12-09 23:00,ZBSJ 092300Z 01001MPS 0050 R15/0100N FZFG VV001 M04/M05 Q1024 NOSIG
ZBSJ,2015-12-10 00:00,ZBSJ 100000Z 00000MPS 0100 R15/0150N FZFG NSC M05/M05 Q1025 NOSIG
ZBSJ,2015-12-10 01:00,ZBSJ 100100Z 27001MPS 0100 R15/0150V0275U FZFG NSC M04/M04 Q1026 NOSIG
ZBSJ,2015-12-10 02:00,ZBSJ 100200Z 30002MPS 0400 R15/0600N FZFG NSC M00/M00 Q1027 NOSIG
ZBSJ,2015-12-10 03:00,ZBSJ 100300Z 32003MPS 0500 R15/0650N FG NSC 03/02 Q1026 BECMG TL0420 0700
ZBSJ,2015-12-10 04:00,ZBSJ 100400Z 31002MPS 270V360 0600 R33/0700N FG NSC 04/01 Q1026 BECMG TL0520 0800
ZBSJ,2015-12-10 05:00,ZBSJ 100500Z 30003MPS 0600 R33/0700N FG NSC 06/01 Q1025 BECMG 0800
ZBSJ,2015-12-10 06:00,ZBSJ 100600Z 29002MPS 0600 R33/0800N FG NSC 07/01 Q1024 BECMG 0800
ZBSJ,2015-12-10 07:00,ZBSJ 100700Z 01001MPS 0800 R33/0800N HZ NSC 07/02 Q1024 NOSIG
ZBSJ,2015-12-10 08:00,ZBSJ 100800Z 07001MPS 0800 R33/0800N HZ NSC 06/02 Q1024 BECMG TL0930 0700 HZ
ZBSJ,2015-12-10 09:00,ZBSJ 100900Z 35001MPS 0800 R15/1200U FG NSC 03/01 Q1025 NOSIG
ZBSJ,2015-12-10 10:00,ZBSJ 101000Z 03001MPS 0800 R15/0900V1500D FZFG NSC M00/M01 Q1026 BECMG TL1130 0700 FZFG
ZBSJ,2015-12-10 11:00,ZBSJ 101100Z 00000MPS 0600 R15/0900N FZFG NSC M02/M02 Q1027 NOSIG
ZBSJ,2015-12-10 12:00,ZBSJ 101200Z 30002MPS 0500 R15/0600N FZFG NSC M02/M02 Q1028 NOSIG
ZBSJ,2015-12-10 13:00,ZBSJ 101300Z 29003MPS 0500 R33/1100N FZFG NSC M01/M01 Q1028 NOSIG
ZBSJ,2015-12-10 14:00,ZBSJ 101400Z 31002MPS 0500 R33/0900U FZFG NSC M00/M01 Q1028 NOSIG
ZBSJ,2015-12-10 15:00,ZBSJ 101500Z 32002MPS 0500 R33/0750N FZFG NSC M01/M01 Q1029 NOSIG
ZBSJ,2015-12-10 16:00,ZBSJ 101600Z 30002MPS 0500 R33/1000D FZFG NSC M02/M03 Q1029 NOSIG
ZBSJ,2015-12-10 17:00,ZBSJ 101700Z 29002MPS 0500 R33/0800N FZFG NSC M02/M03 Q1029 NOSIG
ZBSJ,2015-12-10 18:00,ZBSJ 101800Z 32002MPS 0500 R33/0900N FZFG NSC M03/M03 Q1029 NOSIG
ZBSJ,2015-12-10 19:00,ZBSJ 101900Z 33002MPS 0600 R33/0800N FZFG NSC M04/M04 Q1028 NOSIG
ZBSJ,2015-12-10 20:00,ZBSJ 102000Z 31001MPS 0800 R33/0900N FZFG NSC M05/M05 Q1028 NOSIG
ZBSJ,2015-12-10 21:00,ZBSJ 102100Z 30002MPS 1500 R33/1400N BR NSC M04/M04 Q1028 NOSIG
ZBSJ,2015-12-10 22:00,ZBSJ 102200Z 32002MPS 1400 R33/1500N BR NSC M05/M06 Q1029 NOSIG
ZBSJ,2015-12-10 23:00,ZBSJ 102300Z 33002MPS 1000 R33/1300N BR NSC M05/M05 Q1029 NOSIG
ZBSJ,2015-12-11 00:00,ZBSJ 110000Z 35002MPS 1000 R33/1000N BR NSC M04/M05 Q1030 NOSIG
ZBSJ,2015-12-11 01:00,ZBSJ 110100Z 32002MPS 1000 R33/0900N BR NSC M01/M02 Q1031 NOSIG
ZBSJ,2015-12-11 02:00,ZBSJ 110200Z 35001MPS 1100 R33/0900N BR NSC 01/M02 Q1031 NOSIG
ZBSJ,2015-12-11 03:00,ZBSJ 110300Z 06002MPS 1100 R33/1000N BR NSC 02/M01 Q1030 NOSIG
ZBSJ,2015-12-11 04:00,ZBSJ 110400Z 08002MPS 1300 R33/1000N BR NSC 03/M00 Q1029 NOSIG
ZBSJ,2015-12-11 05:00,ZBSJ 110500Z 13002MPS 090V160 1500 R33/1100N BR NSC 04/00 Q1028 NOSIG
ZBSJ,2015-12-11 06:00,ZBSJ 110600Z 12002MPS 1600 R33/1100U HZ NSC 05/00 Q1028 NOSIG
ZBSJ,2015-12-11 07:00,ZBSJ 110700Z 12002MPS 1600 HZ NSC 05/00 Q1027 NOSIG
ZBSJ,2015-12-11 08:00,ZBSJ 110800Z 13002MPS 1800 HZ NSC 04/00 Q1027 NOSIG
ZBSJ,2015-12-11 09:00,ZBSJ 110900Z 09001MPS 1600 BR NSC 02/M00 Q1027 NOSIG
ZBSJ,2015-12-11 10:00,ZBSJ 111000Z 02001MPS 2000 BR NSC M00/M01 Q1027 NOSIG
ZBSJ,2015-12-11 11:00,ZBSJ 111100Z 33001MPS 2000 BR NSC M00/M01 Q1027 NOSIG
ZBSJ,2015-12-11 12:00,ZBSJ 111200Z 34001MPS 2000 BR NSC M01/M02 Q1028 NOSIG
ZBSJ,2015-12-11 13:00,ZBSJ 111300Z 01001MPS 1400 R15/1700N BR NSC M01/M02 Q1027 NOSIG
ZBSJ,2015-12-11 14:00,ZBSJ 111400Z 00000MPS 1400 R15/1900D BR NSC M01/M02 Q1028 NOSIG
ZBSJ,2015-12-11 15:00,ZBSJ 111500Z 05001MPS 1400 R33/1300N BR NSC M01/M02 Q1027 NOSIG
ZBSJ,2015-12-11 16:00,ZBSJ 111600Z 00000MPS 1400 R33/1300V1700U BR NSC M00/M02 Q1027 NOSIG
ZBSJ,2015-12-11 17:00,ZBSJ 111700Z 26001MPS 1400 R33/1100V1600D BR NSC M01/M02 Q1027 NOSIG
ZBSJ,2015-12-11 18:00,ZBSJ 111800Z 31001MPS 1400 R33/1200U BR NSC M01/M02 Q1027 NOSIG
ZBSJ,2015-12-11 19:00,ZBSJ 111900Z 00000MPS 1300 R33/1200D BR NSC M01/M02 Q1026 NOSIG
ZBSJ,2015-12-11 20:00,ZBSJ 112000Z 17001MPS 1200 R33/0900U BR NSC M02/M02 Q1026 NOSIG
ZBSJ,2015-12-11 21:00,ZBSJ 112100Z 00000MPS 0900 R33/0800N FZFG NSC M02/M02 Q1026 NOSIG
ZBSJ,2015-12-11 22:00,ZBSJ 112200Z 17002MPS 1100 R33/1200U BR NSC M02/M02 Q1026 NOSIG
ZBSJ,2015-12-11 23:00,ZBSJ 112300Z 16002MPS 1600 BR NSC M02/M03 Q1026 NOSIG
ZBSJ,2015-12-12 00:00,ZBSJ 120000Z 19002MPS 1300 R15/1700U BR NSC M01/M02 Q1026 NOSIG
ZBSJ,2015-12-12 01:00,ZBSJ 120100Z 17002MPS 1000 R15/1300N BR NSC 01/M02 Q1027 NOSIG
ZBSJ,2015-12-12 02:00,ZBSJ 120200Z 19002MPS 1500 HZ NSC 02/M02 Q1027 NOSIG
ZBSJ,2015-12-12 03:00,ZBSJ 120300Z 18002MPS 2500 HZ NSC 03/M02 Q1027 NOSIG
ZBSJ,2015-12-12 04:00,ZBSJ 120400Z 17002MPS 130V200 4000 HZ NSC 04/M03 Q1026 NOSIG
ZBSJ,2015-12-12 05:00,ZBSJ 120500Z 19003MPS 160V220 8000 NSC 05/M06 Q1025 NOSIG
ZBSJ,2015-12-12 06:00,ZBSJ 120600Z 18003MPS 8000 NSC 05/M07 Q1024 NOSIG
ZBSJ,2015-12-12 07:00,ZBSJ 120700Z 16003MPS 7000 NSC 06/M06 Q1024 NOSIG
ZBSJ,2015-12-12 08:00,ZBSJ 120800Z 16002MPS 7000 NSC 04/M06 Q1024 NOSIG
ZBSJ,2015-12-12 09:00,ZBSJ 120900Z 17001MPS 6000 NSC 02/M05 Q1024 NOSIG
ZBSJ,2015-12-12 10:00,ZBSJ 121000Z 20001MPS 6000 NSC 01/M05 Q1025 NOSIG
ZBSJ,2015-12-12 11:00,ZBSJ 121100Z 23001MPS 3000 HZ NSC M00/M05 Q1025 NOSIG
ZBSJ,2015-12-12 12:00,ZBSJ 121200Z 24001MPS 3000 HZ NSC M01/M06 Q1026 NOSIG
ZBSJ,2015-12-12 13:00,ZBSJ 121300Z 00000MPS 2000 HZ NSC M01/M05 Q1026 NOSIG
ZBSJ,2015-12-12 14:00,ZBSJ 121400Z 19001MPS 1700 FU NSC M01/M05 Q1026 NOSIG
ZBSJ,2015-12-12 15:00,ZBSJ 121500Z 00000MPS 1400 R15/P2000N FU NSC M01/M05 Q1026 NOSIG
ZBSJ,2015-12-12 16:00,ZBSJ 121600Z 21001MPS 1000 R15/P2000N BR NSC M02/M05 Q1027 NOSIG
ZBSJ,2015-12-12 17:00,ZBSJ 121700Z 00000MPS 0700 R15/P2000N FZFG NSC M02/M04 Q1027 NOSIG
ZBSJ,2015-12-12 18:00,ZBSJ 121800Z 00000MPS 0700 R15/1900U FZFG NSC M02/M04 Q1026 NOSIG
ZBSJ,2015-12-12 19:00,ZBSJ 121900Z 35001MPS 1000 R15/1700N BR NSC M02/M03 Q1026 NOSIG
ZBSJ,2015-12-12 20:00,ZBSJ 122000Z 36001MPS 1000 R15/1500N BR NSC M02/M04 Q1026 NOSIG
ZBSJ,2015-12-12 21:00,ZBSJ 122100Z 00000MPS 1000 R15/1800N BR NSC M02/M04 Q1026 NOSIG
ZBSJ,2015-12-12 22:00,ZBSJ 122200Z 29001MPS 1000 R15/1600N BR NSC M03/M05 Q1026 NOSIG
ZBSJ,2015-12-12 23:00,ZBSJ 122300Z 34001MPS 1000 R15/1600D BR NSC M03/M04 Q1026 NOSIG
ZBSJ,2015-12-13 00:00,ZBSJ 130000Z 33002MPS 0800 R15/1000U FZFG NSC M02/M03 Q1027 NOSIG
ZBSJ,2015-12-13 01:00,ZBSJ 130100Z 01001MPS 0700 R15/0800N FZFG NSC M02/M02 Q1028 BECMG TL0230 1000 BR
ZBSJ,2015-12-13 02:00,ZBSJ 130200Z 06001MPS 0700 R15/0900N FG NSC 00/M01 Q1028 BECMG TL0330 1000 BR
ZBSJ,2015-12-13 03:00,ZBSJ 130300Z 06001MPS 0800 R15/0900N HZ NSC 02/M02 Q1028 NOSIG
ZBSJ,2015-12-13 04:00,ZBSJ 130400Z 09001MPS 0800 R15/1000D HZ NSC 04/M03 Q1027 NOSIG
ZBSJ,2015-12-13 05:00,ZBSJ 130500Z 19001MPS 1000 R15/1300U HZ NSC 05/M04 Q1026 NOSIG
ZBSJ,2015-12-13 06:00,ZBSJ 130600Z 00000MPS 1200 R15/1400D HZ NSC 05/M03 Q1026 NOSIG
ZBSJ,2015-12-13 07:00,ZBSJ 130700Z 21001MPS 1200 R15/1400U HZ NSC 05/M04 Q1026 NOSIG
ZBSJ,2015-12-13 08:00,ZBSJ 130800Z 04001MPS 1200 R15/1600N HZ NSC 04/M01 Q1026 NOSIG
ZBSJ,2015-12-13 09:00,ZBSJ 130900Z 06001MPS 1400 R15/P2000N HZ NSC 03/M01 Q1026 NOSIG
ZBSJ,2015-12-13 10:00,ZBSJ 131000Z 00000MPS 1700 HZ NSC 03/M01 Q1026 BECMG 1400 HZ
ZBSJ,2015-12-13 11:00,ZBSJ 131100Z 00000MPS 1500 BR NSC 02/M01 Q1026 BECMG 1400 HZ
ZBSJ,2015-12-13 12:00,ZBSJ 131200Z 00000MPS 1500 BR NSC 02/M01 Q1026 BECMG 1400 HZ
ZBSJ,2015-12-13 13:00,ZBSJ 131300Z 27002MPS 1500 BR NSC 03/M01 Q1026 BECMG 1400 HZ
ZBSJ,2015-12-13 14:00,ZBSJ 131400Z 28002MPS 1200 R15/1500N -SN BR OVC046 01/00 Q1026 NOSIG
ZBSJ,2015-12-13 15:00,ZBSJ 131500Z 00000MPS 0700 R15/1000D -SN FG OVC046 01/00 Q1026 NOSIG
ZBSJ,2015-12-13 16:00,ZBSJ 131600Z 17001MPS 0500 R15/0750N -SN FG OVC046 00/00 Q1026 NOSIG
ZBSJ,2015-12-13 17:00,ZBSJ 131700Z 18001MPS 0300 R15/0500N -SN FG OVC046 00/M00 Q1025 NOSIG
ZBSJ,2015-12-13 18:00,ZBSJ 131800Z 16001MPS 0300 R15/0550N -RASN FG OVC046 00/00 Q1024 NOSIG
ZBSJ,2015-12-13 19:00,ZBSJ 131900Z 16001MPS 0300 R15/0550N FG OVC046 00/00 Q1024 NOSIG
ZBSJ,2015-12-13 20:00,ZBSJ 132000Z 00000MPS 0300 R15/0500N FG OVC046 00/00 Q1024 NOSIG
ZBSJ,2015-12-13 21:00,ZBSJ 132100Z 34001MPS 0400 R15/0550N FG OVC046 00/00 Q1023 NOSIG
ZBSJ,2015-12-13 22:00,ZBSJ 132200Z 35001MPS 0500 R33/0600N FG OVC046 01/00 Q1023 NOSIG
ZBSJ,2015-12-13 23:00,ZBSJ 132300Z 22001MPS 0500 R33/0750N FG OVC046 01/01 Q1024 NOSIG
ZBSJ,2015-12-14 00:00,ZBSJ 140000Z 25003MPS 0400 R15/0550V0750N FG OVC046 01/01 Q1024 NOSIG
ZBSJ,2015-12-14 01:00,ZBSJ 140100Z 26002MPS 0300 R33/0450N FG OVC046 01/01 Q1025 NOSIG
ZBSJ,2015-12-14 02:00,ZBSJ 140200Z 27001MPS 0100 R33/0125N FG BKN046 01/01 Q1025 NOSIG
ZBSJ,2015-12-14 03:00,ZBSJ 140300Z 32001MPS 0300 R33/0400V0600U FG SCT046 03/03 Q1024 BECMG 0500
ZBSJ,2015-12-14 04:00,ZBSJ 140400Z 31003MPS 2500 HZ FEW046 07/00 Q1023 BECMG 3500
ZBSJ,2015-12-14 05:00,ZBSJ 140500Z 35002MPS 310V030 8000 NSC 08/M04 Q1023 NOSIG
ZBSJ,2015-12-14 06:00,ZBSJ 140600Z 34002MPS CAVOK 08/M05 Q1022 NOSIG
ZBSJ,2015-12-14 07:00,ZBSJ 140700Z 29006MPS CAVOK 09/M09 Q1022 NOSIG
ZBSJ,2015-12-14 08:00,ZBSJ 140800Z 29006MPS CAVOK 08/M08 Q1022 NOSIG
ZBSJ,2015-12-14 09:00,ZBSJ 140900Z 31002MPS CAVOK 06/M06 Q1023 NOSIG
ZBSJ,2015-12-14 10:00,ZBSJ 141000Z 32004MPS CAVOK 02/M08 Q1024 NOSIG
ZBSJ,2015-12-14 11:00,ZBSJ 141100Z 32004MPS CAVOK 02/M08 Q1024 NOSIG
ZBSJ,2015-12-14 12:00,ZBSJ 141200Z 29004MPS CAVOK 03/M09 Q1025 NOSIG
ZBSJ,2015-12-14 13:00,ZBSJ 141300Z 31004MPS CAVOK 02/M09 Q1025 NOSIG
ZBSJ,2015-12-14 14:00,ZBSJ 141400Z 30002MPS 7000 NSC M00/M08 Q1025 NOSIG
ZBSJ,2015-12-14 15:00,ZBSJ 141500Z 24002MPS 5000 HZ NSC M01/M07 Q1025 NOSIG
ZBSJ,2015-12-14 16:00,ZBSJ 141600Z 29002MPS 4000 HZ NSC M02/M07 Q1026 NOSIG
ZBSJ,2015-12-14 17:00,ZBSJ 141700Z 31001MPS 5000 HZ NSC M02/M08 Q1025 NOSIG
ZBSJ,2015-12-14 18:00,ZBSJ 141800Z 30002MPS 5000 HZ NSC M03/M08 Q1025 NOSIG
ZBSJ,2015-12-14 19:00,ZBSJ 141900Z 30003MPS 5000 HZ NSC M01/M08 Q1025 NOSIG
ZBSJ,2015-12-14 20:00,ZBSJ 142000Z 30001MPS 6000 NSC M03/M08 Q1025 NOSIG
ZBSJ,2015-12-14 21:00,ZBSJ 142100Z 27001MPS 6000 NSC M03/M08 Q1025 NOSIG
ZBSJ,2015-12-14 22:00,ZBSJ 142200Z 29001MPS CAVOK M02/M09 Q1025 NOSIG
ZBSJ,2015-12-14 23:00,ZBSJ 142300Z 22001MPS 7000 NSC M02/M09 Q1026 NOSIG
ZBSJ,2015-12-15 00:00,ZBSJ 150000Z 30002MPS 5000 HZ NSC M01/M09 Q1026 NOSIG
ZBSJ,2015-12-15 01:00,ZBSJ 150100Z 32004MPS CAVOK 03/M09 Q1027 NOSIG
ZBSJ,2015-12-15 02:00,ZBSJ 150200Z 34008G14MPS CAVOK 04/M11 Q1028 NOSIG
ZBSJ,2015-12-15 03:00,ZBSJ 150300Z 34008MPS CAVOK 05/M13 Q1029 NOSIG
ZBSJ,2015-12-15 04:00,ZBSJ 150400Z 34008MPS CAVOK 05/M13 Q1028 NOSIG
ZBSJ,2015-12-15 05:00,ZBSJ 150500Z 34011MPS CAVOK 05/M15 Q1028 NOSIG
ZBSJ,2015-12-15 06:00,ZBSJ 150600Z 34009MPS 9999 FEW040 05/M15 Q1028 NOSIG
ZBSJ,2015-12-15 07:00,ZBSJ 150700Z 34008MPS 9999 FEW040 05/M15 Q1028 NOSIG
ZBSJ,2015-12-15 08:00,ZBSJ 150800Z 33009MPS 9999 FEW040 04/M15 Q1029 NOSIG
ZBSJ,2015-12-15 09:00,ZBSJ 150900Z 35008MPS 9999 FEW040 03/M16 Q1029 NOSIG
ZBSJ,2015-12-15 10:00,ZBSJ 151000Z 34006MPS CAVOK 02/M15 Q1030 NOSIG
ZBSJ,2015-12-15 11:00,ZBSJ 151100Z 33004MPS CAVOK M03/M13 Q1030 NOSIG
ZBSJ,2015-12-15 12:00,ZBSJ 151200Z 32004MPS CAVOK M04/M12 Q1031 NOSIG
ZBSJ,2015-12-15 13:00,ZBSJ 151300Z 31004MPS CAVOK M04/M12 Q1031 NOSIG
ZBSJ,2015-12-15 14:00,ZBSJ 151400Z 34003MPS 310V010 CAVOK M03/M10 Q1031 NOSIG
ZBSJ,2015-12-15 15:00,ZBSJ 151500Z 34005MPS CAVOK M01/M11 Q1031 NOSIG
ZBSJ,2015-12-15 16:00,ZBSJ 151600Z 33006MPS CAVOK M00/M13 Q1031 NOSIG
ZBSJ,2015-12-15 17:00,ZBSJ 151700Z 33006MPS CAVOK M01/M14 Q1031 NOSIG
ZBSJ,2015-12-15 18:00,ZBSJ 151800Z 33009MPS CAVOK M01/M15 Q1031 NOSIG
ZBSJ,2015-12-15 19:00,ZBSJ 151900Z 33008MPS CAVOK M01/M15 Q1032 NOSIG
ZBSJ,2015-12-15 20:00,ZBSJ 152000Z 33006MPS CAVOK M02/M15 Q1032 NOSIG
ZBSJ,2015-12-15 21:00,ZBSJ 152100Z 32006MPS CAVOK M03/M15 Q1032 NOSIG
ZBSJ,2015-12-15 22:00,ZBSJ 152200Z 30006MPS CAVOK M02/M15 Q1032 NOSIG
ZBSJ,2015-12-15 23:00,ZBSJ 152300Z 29005MPS CAVOK M03/M14 Q1032 NOSIG
ZBSJ,2015-12-16 00:00,ZBSJ 160000Z 30004MPS CAVOK M03/M14 Q1033 NOSIG
ZBSJ,2015-12-16 01:00,ZBSJ 160100Z 29003MPS CAVOK M01/M13 Q1033 NOSIG
ZBSJ,2015-12-16 02:00,ZBSJ 160200Z 30006MPS CAVOK 02/M16 Q1034 NOSIG
ZBSJ,2015-12-16 03:00,ZBSJ 160300Z 31007MPS CAVOK 03/M18 Q1034 NOSIG
ZBSJ,2015-12-16 04:00,ZBSJ 160400Z 34006MPS 300V010 CAVOK 04/M17 Q1033 NOSIG
ZBSJ,2015-12-16 05:00,ZBSJ 160500Z 33007MPS CAVOK 04/M18 Q1032 NOSIG
ZBSJ,2015-12-16 06:00,ZBSJ 160600Z 34009MPS CAVOK 03/M17 Q1031 NOSIG
ZBSJ,2015-12-16 07:00,ZBSJ 160700Z 34009MPS CAVOK 03/M17 Q1032 NOSIG
ZBSJ,2015-12-16 08:00,ZBSJ 160800Z 34007MPS CAVOK 02/M17 Q1032 NOSIG
ZBSJ,2015-12-16 09:00,ZBSJ 160900Z 35005MPS CAVOK 01/M16 Q1033 NOSIG
ZBSJ,2015-12-16 10:00,ZBSJ 161000Z 36005MPS CAVOK 01/M16 Q1033 NOSIG
ZBSJ,2015-12-16 11:00,ZBSJ 161100Z 35006MPS CAVOK M00/M15 Q1033 NOSIG
ZBSJ,2015-12-16 12:00,ZBSJ 161200Z 34005MPS CAVOK M00/M15 Q1034 NOSIG
ZBSJ,2015-12-16 13:00,ZBSJ 161300Z 35004MPS CAVOK M01/M14 Q1034 NOSIG
ZBSJ,2015-12-16 14:00,ZBSJ 161400Z 33004MPS CAVOK M04/M14 Q1035 NOSIG
ZBSJ,2015-12-16 15:00,ZBSJ 161500Z 33002MPS CAVOK M04/M13 Q1035 NOSIG
ZBSJ,2015-12-16 16:00,ZBSJ 161600Z 29002MPS 250V010 CAVOK M03/M14 Q1034 NOSIG
ZBSJ,2015-12-16 17:00,ZBSJ 161700Z 20001MPS 8000 NSC M06/M12 Q1034 NOSIG
ZBSJ,2015-12-16 18:00,ZBSJ 161800Z 18001MPS 7000 NSC M06/M12 Q1034 NOSIG
ZBSJ,2015-12-16 19:00,ZBSJ 161900Z 26001MPS 7000 NSC M05/M13 Q1034 NOSIG
ZBSJ,2015-12-16 20:00,ZBSJ 162000Z 27001MPS 7000 NSC M06/M12 Q1034 NOSIG
ZBSJ,2015-12-16 21:00,ZBSJ 162100Z 23002MPS 7000 NSC M06/M11 Q1034 NOSIG
ZBSJ,2015-12-16 22:00,ZBSJ 162200Z 32001MPS 6000 NSC M09/M12 Q1034 NOSIG
ZBSJ,2015-12-16 23:00,ZBSJ 162300Z 00000MPS 4000 HZ NSC M08/M12 Q1034 NOSIG
ZBSJ,2015-12-17 00:00,ZBSJ 170000Z 30001MPS 3000 HZ NSC M08/M12 Q1034 NOSIG
ZBSJ,2015-12-17 01:00,ZBSJ 170100Z 32001MPS 3500 HZ NSC M03/M09 Q1034 NOSIG
ZBSJ,2015-12-17 02:00,ZBSJ 170200Z 24002MPS 3000 HZ NSC M01/M10 Q1034 NOSIG
ZBSJ,2015-12-17 03:00,ZBSJ 170300Z 22003MPS 190V260 3500 HZ NSC 01/M11 Q1034 NOSIG
ZBSJ,2015-12-17 04:00,ZBSJ 170400Z 22004MPS 6000 NSC 04/M14 Q1033 NOSIG
ZBSJ,2015-12-17 05:00,ZBSJ 170500Z 18004MPS 150V220 CAVOK 06/M15 Q1032 NOSIG
ZBSJ,2015-12-17 06:00,ZBSJ 170600Z 19003MPS 150V220 CAVOK 06/M15 Q1031 NOSIG
ZBSJ,2015-12-17 07:00,ZBSJ 170700Z 18004MPS CAVOK 06/M15 Q1030 NOSIG
ZBSJ,2015-12-17 08:00,ZBSJ 170800Z 17003MPS CAVOK 05/M13 Q1030 NOSIG
ZBSJ,2015-12-17 09:00,ZBSJ 170900Z 18003MPS 5000 HZ NSC 01/M12 Q1030 NOSIG
ZBSJ,2015-12-17 10:00,ZBSJ 171000Z 17003MPS 5000 HZ NSC M01/M10 Q1030 NOSIG
ZBSJ,2015-12-17 11:00,ZBSJ 171100Z 17002MPS 5000 HZ NSC M01/M10 Q1031 NOSIG
ZBSJ,2015-12-17 12:00,ZBSJ 171200Z 16001MPS 4000 HZ NSC M03/M10 Q1031 NOSIG
ZBSJ,2015-12-17 13:00,ZBSJ 171300Z 19002MPS 4500 HZ NSC M03/M10 Q1031 NOSIG
ZBSJ,2015-12-17 14:00,ZBSJ 171400Z 18001MPS 4500 HZ NSC M03/M10 Q1031 NOSIG
ZBSJ,2015-12-17 15:00,ZBSJ 171500Z 24001MPS 3000 HZ NSC M03/M10 Q1031 NOSIG
ZBSJ,2015-12-17 16:00,ZBSJ 171600Z 29002MPS 2000 HZ NSC M03/M10 Q1030 NOSIG
ZBSJ,2015-12-17 17:00,ZBSJ 171700Z 26001MPS 1800 HZ NSC M05/M10 Q1030 NOSIG
ZBSJ,2015-12-17 18:00,ZBSJ 171800Z 26001MPS 2200 HZ NSC M05/M09 Q1030 NOSIG
ZBSJ,2015-12-17 19:00,ZBSJ 171900Z 22003MPS 2500 BR NSC M06/M09 Q1030 NOSIG
ZBSJ,2015-12-17 20:00,ZBSJ 172000Z 26001MPS 2500 HZ NSC M04/M09 Q1030 NOSIG
ZBSJ,2015-12-17 21:00,ZBSJ 172100Z 33002MPS 3000 HZ NSC M07/M10 Q1030 NOSIG
ZBSJ,2015-12-17 22:00,ZBSJ 172200Z 31002MPS 4000 HZ NSC M06/M10 Q1030 NOSIG
ZBSJ,2015-12-17 23:00,ZBSJ 172300Z 25001MPS 4000 HZ NSC M07/M10 Q1031 NOSIG
ZBSJ,2015-12-18 00:00,ZBSJ 180000Z 01002MPS 2000 R15/1400D BR NSC M08/M11 Q1032 BECMG TL0130 3500
ZBSJ,2015-12-18 01:00,ZBSJ 180100Z 23001MPS 2000 HZ NSC M01/M06 Q1033 NOSIG
ZBSJ,2015-12-18 02:00,ZBSJ 180200Z 27001MPS 2700 HZ NSC 02/M09 Q1034 NOSIG
ZBSJ,2015-12-18 03:00,ZBSJ 180300Z 01001MPS 7000 NSC 05/M10 Q1034 NOSIG
ZBSJ,2015-12-18 04:00,ZBSJ 180400Z 06002MPS 010V090 5000 HZ NSC 06/M09 Q1033 NOSIG
ZBSJ,2015-12-18 05:00,ZBSJ 180500Z 05003MPS 020V080 7000 NSC 06/M11 Q1033 NOSIG
ZBSJ,2015-12-18 06:00,ZBSJ 180600Z 08005MPS 7000 NSC 07/M11 Q1033 NOSIG
ZBSJ,2015-12-18 07:00,ZBSJ 180700Z 09004MPS 5000 HZ NSC 06/M11 Q1033 NOSIG
ZBSJ,2015-12-18 08:00,ZBSJ 180800Z 09002MPS 5000 HZ NSC 05/M09 Q1033 NOSIG
ZBSJ,2015-12-18 09:00,ZBSJ 180900Z 13002MPS 2500 HZ NSC 02/M10 Q1034 NOSIG
ZBSJ,2015-12-18 10:00,ZBSJ 181000Z 02001MPS 2500 HZ NSC M00/M07 Q1034 NOSIG
ZBSJ,2015-12-18 11:00,ZBSJ 181100Z 03001MPS 2000 FU NSC M03/M07 Q1035 NOSIG
ZBSJ,2015-12-18 12:00,ZBSJ 181200Z 01001MPS 2000 FU NSC M04/M08 Q1036 NOSIG
ZBSJ,2015-12-18 13:00,ZBSJ 181300Z 33002MPS 2000 FU NSC M03/M08 Q1036 NOSIG
ZBSJ,2015-12-18 14:00,ZBSJ 181400Z 31002MPS 2000 FU NSC M04/M08 Q1037 NOSIG
ZBSJ,2015-12-18 15:00,ZBSJ 181500Z 32002MPS 2000 FU NSC M03/M08 Q1037 NOSIG
ZBSJ,2015-12-18 16:00,ZBSJ 181600Z 32002MPS 2000 FU NSC M03/M08 Q1037 NOSIG
ZBSJ,2015-12-18 17:00,ZBSJ 181700Z 30002MPS 1800 FU NSC M04/M08 Q1037 NOSIG
ZBSJ,2015-12-18 18:00,ZBSJ 181800Z 29002MPS 2000 FU NSC M03/M08 Q1037 NOSIG
ZBSJ,2015-12-18 19:00,ZBSJ 181900Z 32003MPS 3000 FU NSC M05/M08 Q1036 NOSIG
ZBSJ,2015-12-18 20:00,ZBSJ 182000Z 32003MPS 3500 FU NSC M05/M08 Q1036 NOSIG
ZBSJ,2015-12-18 21:00,ZBSJ 182100Z 09001MPS 3500 BR NSC M05/M07 Q1036 NOSIG
ZBSJ,2015-12-18 22:00,ZBSJ 182200Z 27001MPS 3500 BR NSC M05/M08 Q1036 NOSIG
ZBSJ,2015-12-18 23:00,ZBSJ 182300Z 30002MPS 3500 BR NSC M05/M08 Q1036 NOSIG
ZBSJ,2015-12-19 00:00,ZBSJ 190000Z 33002MPS 2200 BR NSC M05/M08 Q1036 NOSIG
ZBSJ,2015-12-19 01:00,ZBSJ 190100Z 35001MPS 1600 R33/1400D BR NSC M03/M05 Q1036 NOSIG
ZBSJ,2015-12-19 02:00,ZBSJ 190200Z 35001MPS 1300 R33/1200N HZ NSC M01/M05 Q1036 BECMG 1600
ZBSJ,2015-12-19 03:00,ZBSJ 190300Z 36001MPS 1300 R33/1100D HZ NSC 01/M06 Q1036 NOSIG
ZBSJ,2015-12-19 04:00,ZBSJ 190400Z 01001MPS 1000 R33/1100N HZ NSC 02/M07 Q1035 NOSIG
ZBSJ,2015-12-19 05:00,ZBSJ 190500Z 06001MPS 1000 R33/1200N HZ NSC 03/M06 Q1034 NOSIG
ZBSJ,2015-12-19 06:00,ZBSJ 190600Z 06001MPS 1400 R33/1700D HZ NSC 04/M08 Q1032 NOSIG
ZBSJ,2015-12-19 07:00,ZBSJ 190700Z 10001MPS 1600 HZ NSC 04/M07 Q1032 NOSIG
ZBSJ,2015-12-19 08:00,ZBSJ 190800Z 09002MPS 1700 HZ NSC 03/M06 Q1031 BECMG 1400 HZ
ZBSJ,2015-12-19 09:00,ZBSJ 190900Z 11001MPS 1600 HZ NSC 02/M07 Q1032 BECMG 1400 HZ
ZBSJ,2015-12-19 10:00,ZBSJ 191000Z 09001MPS 1600 HZ NSC 01/M06 Q1032 NOSIG
ZBSJ,2015-12-19 11:00,ZBSJ 191100Z 06001MPS 1600 R15/1400U HZ NSC M01/M06 Q1032 BECMG 1400 HZ
ZBSJ,2015-12-19 12:00,ZBSJ 191200Z 04001MPS 1600 HZ NSC M02/M06 Q1032 BECMG 1400 HZ
ZBSJ,2015-12-19 13:00,ZBSJ 191300Z 02001MPS 1600 R15/1200V1800U HZ NSC M02/M06 Q1032 BECMG 1400 HZ
ZBSJ,2015-12-19 14:00,ZBSJ 191400Z 02001MPS 1400 R15/1300V2000U HZ NSC M03/M06 Q1031 NOSIG
ZBSJ,2015-12-19 15:00,ZBSJ 191500Z 34002MPS 1400 R15/1800N HZ NSC M03/M06 Q1031 NOSIG
ZBSJ,2015-12-19 16:00,ZBSJ 191600Z 36001MPS 1400 R15/1400N HZ NSC M02/M06 Q1030 NOSIG
ZBSJ,2015-12-19 17:00,ZBSJ 191700Z 31001MPS 1400 R15/1300N HZ NSC M03/M06 Q1030 NOSIG
ZBSJ,2015-12-19 18:00,ZBSJ 191800Z 13001MPS 1400 R15/1500N HZ NSC M04/M06 Q1029 NOSIG
ZBSJ,2015-12-19 19:00,ZBSJ 191900Z 28001MPS 1200 R15/1600N BR NSC M05/M07 Q1028 NOSIG
ZBSJ,2015-12-19 20:00,ZBSJ 192000Z 36001MPS 1200 R15/1400N BR NSC M05/M07 Q1028 NOSIG
ZBSJ,2015-12-19 21:00,ZBSJ 192100Z 30001MPS 1200 R15/1600N BR NSC M05/M06 Q1027 NOSIG
ZBSJ,2015-12-19 22:00,ZBSJ 192200Z 36001MPS 1300 R33/1700N BR NSC M04/M06 Q1027 NOSIG
ZBSJ,2015-12-19 23:00,ZBSJ 192300Z 00000MPS 1300 R15/1500D BR NSC M05/M06 Q1027 NOSIG
ZBSJ,2015-12-20 00:00,ZBSJ 200000Z 00000MPS 0800 R15/1200N FZFG NSC M05/M06 Q1026 NOSIG
ZBSJ,2015-12-20 01:00,ZBSJ 200100Z 26001MPS 0700 R15/0900U FZFG NSC M02/M04 Q1027 BECMG TL0230 0800
ZBSJ,2015-12-20 02:00,ZBSJ 200200Z 32002MPS 0700 R15/0900N FZFG NSC M01/M04 Q1027 BECMG TL0330 0800
ZBSJ,2015-12-20 03:00,ZBSJ 200300Z 32001MPS 0800 R15/1000N FG NSC 01/M05 Q1026 NOSIG
ZBSJ,2015-12-20 04:00,ZBSJ 200400Z 32002MPS 0800 R33/0900U HZ NSC 02/M05 Q1025 NOSIG
ZBSJ,2015-12-20 05:00,ZBSJ 200500Z 36001MPS 0800 R33/0900N HZ NSC 03/M04 Q1024 NOSIG
ZBSJ,2015-12-20 06:00,ZBSJ 200600Z 05001MPS 1000 R33/1100N HZ NSC 03/M05 Q1023 NOSIG
ZBSJ,2015-12-20 07:00,ZBSJ 200700Z 04001MPS 1000 R33/1100N HZ NSC 03/M05 Q1023 NOSIG
ZBSJ,2015-12-20 08:00,ZBSJ 200800Z 05001MPS 1000 R33/1200N HZ NSC 02/M05 Q1023 NOSIG
ZBSJ,2015-12-20 09:00,ZBSJ 200900Z 09001MPS 1000 R15/1300D HZ NSC M00/M05 Q1023 NOSIG
ZBSJ,2015-12-20 10:00,ZBSJ 201000Z 10001MPS 1300 R15/1400N FU NSC M02/M06 Q1024 NOSIG
ZBSJ,2015-12-20 11:00,ZBSJ 201100Z 35001MPS 0700 R15/1400D FU NSC M03/M06 Q1024 NOSIG
ZBSJ,2015-12-20 12:00,ZBSJ 201200Z 34002MPS 0700 R15/1000D FU NSC M03/M05 Q1025 NOSIG
ZBSJ,2015-12-20 13:00,ZBSJ 201300Z 01001MPS 0700 R15/0800D FU NSC M04/M06 Q1025 NOSIG
ZBSJ,2015-12-20 14:00,ZBSJ 201400Z 35001MPS 0700 R15/1000N FZFG NSC M05/M06 Q1025 NOSIG
ZBSJ,2015-12-20 15:00,ZBSJ 201500Z 28001MPS 0700 R15/0900U FZFG NSC M04/M05 Q1025 NOSIG
ZBSJ,2015-12-20 16:00,ZBSJ 201600Z 29002MPS 0700 R15/0900N FZFG NSC M05/M06 Q1025 NOSIG
ZBSJ,2015-12-20 17:00,ZBSJ 201700Z 33003MPS 0700 R15/1000N FZFG NSC M05/M06 Q1025 NOSIG
ZBSJ,2015-12-20 18:00,ZBSJ 201800Z 31001MPS 0700 R15/1100N FZFG NSC M05/M06 Q1025 NOSIG
ZBSJ,2015-12-20 19:00,ZBSJ 201900Z 20001MPS 0700 R15/1100N FZFG NSC M06/M07 Q1025 NOSIG
ZBSJ,2015-12-20 20:00,ZBSJ 202000Z 31002MPS 0700 R15/1100D FZFG NSC M05/M06 Q1025 NOSIG
ZBSJ,2015-12-20 21:00,ZBSJ 202100Z 26001MPS 0700 R15/1000D FZFG NSC M06/M07 Q1025 NOSIG
ZBSJ,2015-12-20 22:00,ZBSJ 202200Z 00000MPS 0700 R15/1200N FZFG NSC M06/M07 Q1025 NOSIG
ZBSJ,2015-12-20 23:00,ZBSJ 202300Z 25001MPS 0700 R15/1200N FZFG NSC M06/M07 Q1026 NOSIG
ZBSJ,2015-12-21 00:00,ZBSJ 210000Z 22002MPS 0500 R15/0800N FZFG NSC M06/M07 Q1028 NOSIG
ZBSJ,2015-12-21 01:00,ZBSJ 210100Z 02001MPS 0500 R15/0650N FZFG NSC M05/M06 Q1028 NOSIG
ZBSJ,2015-12-21 02:00,ZBSJ 210200Z 01002MPS 0500 R15/0650N FZFG NSC M02/M04 Q1028 NOSIG
ZBSJ,2015-12-21 03:00,ZBSJ 210300Z 35001MPS 0800 R15/0800D HZ NSC 01/M03 Q1028 NOSIG
ZBSJ,2015-12-21 04:00,ZBSJ 210400Z 01001MPS 1000 R15/1100D HZ NSC 03/M03 Q1026 NOSIG
ZBSJ,2015-12-21 05:00,ZBSJ 210500Z 11001MPS 1200 R15/1300U HZ NSC 05/M04 Q1025 NOSIG
ZBSJ,2015-12-21 06:00,ZBSJ 210600Z 11001MPS 1200 R15/1300D HZ NSC 05/M04 Q1025 NOSIG
ZBSJ,2015-12-21 07:00,ZBSJ 210700Z 11001MPS 1000 R15/1200N HZ NSC 06/M04 Q1025 NOSIG
ZBSJ,2015-12-21 08:00,ZBSJ 210800Z 08002MPS 0800 R15/1000N HZ NSC 04/M02 Q1026 NOSIG
ZBSJ,2015-12-21 09:00,ZBSJ 210900Z 07002MPS 0500 R15/0900N FG NSC 01/M03 Q1026 NOSIG
ZBSJ,2015-12-21 10:00,ZBSJ 211000Z 06001MPS 0800 R15/0900N FZFG NSC M01/M03 Q1027 NOSIG
ZBSJ,2015-12-21 11:00,ZBSJ 211100Z 03002MPS 0500 R15/1000U FZFG NSC M01/M03 Q1027 NOSIG
ZBSJ,2015-12-21 12:00,ZBSJ 211200Z 02001MPS 0500 R15/1100N FZFG NSC M02/M04 Q1028 NOSIG
ZBSJ,2015-12-21 13:00,ZBSJ 211300Z 36001MPS 0700 R15/1100D FZFG NSC M02/M03 Q1028 NOSIG
ZBSJ,2015-12-21 14:00,ZBSJ 211400Z 34001MPS 0700 R15/1100D FZFG NSC M02/M03 Q1028 NOSIG
ZBSJ,2015-12-21 15:00,ZBSJ 211500Z 32002MPS 0700 R15/1100D FZFG NSC M02/M03 Q1028 NOSIG
ZBSJ,2015-12-21 16:00,ZBSJ 211600Z 30002MPS 0700 R15/0900N FZFG NSC M01/M03 Q1028 NOSIG
ZBSJ,2015-12-21 17:00,ZBSJ 211700Z 29001MPS 0700 R15/0900N FZFG NSC M02/M03 Q1028 NOSIG
ZBSJ,2015-12-21 18:00,ZBSJ 211800Z 28001MPS 0700 R15/1000N FZFG NSC M02/M03 Q1028 NOSIG
ZBSJ,2015-12-21 19:00,ZBSJ 211900Z 33002MPS 0700 R15/1100N FZFG NSC M01/M03 Q1028 NOSIG
ZBSJ,2015-12-21 20:00,ZBSJ 212000Z 32002MPS 0800 R15/1400U FZFG NSC M03/M04 Q1028 NOSIG
ZBSJ,2015-12-21 21:00,ZBSJ 212100Z 31002MPS 0800 R15/1300U FZFG NSC M03/M04 Q1027 NOSIG
ZBSJ,2015-12-21 22:00,ZBSJ 212200Z 33002MPS 1000 R15/1200N BR NSC M03/M04 Q1027 NOSIG
ZBSJ,2015-12-21 23:00,ZBSJ 212300Z 32001MPS 1000 R15/1400U BR NSC M05/M05 Q1027 NOSIG
ZBSJ,2015-12-22 00:00,ZBSJ 220000Z 33002MPS 0700 R15/1100U FZFG NSC M04/M05 Q1028 NOSIG
ZBSJ,2015-12-22 01:00,ZBSJ 220100Z 01001MPS 0600 R15/0900N FZFG NSC M04/M05 Q1028 NOSIG
ZBSJ,2015-12-22 02:00,ZBSJ 220200Z 02001MPS 0600 R15/0800N FZFG NSC M01/M03 Q1029 NOSIG
ZBSJ,2015-12-22 03:00,ZBSJ 220300Z 30002MPS 0600 R15/1000U HZ NSC M00/M03 Q1029 NOSIG
ZBSJ,2015-12-22 04:00,ZBSJ 220400Z 30001MPS 0700 R15/1000N HZ NSC 00/M03 Q1027 NOSIG
ZBSJ,2015-12-22 05:00,ZBSJ 220500Z 00000MPS 0700 R15/1000N HZ NSC 01/M03 Q1026 NOSIG
ZBSJ,2015-12-22 06:00,ZBSJ 220600Z 01001MPS 0700 R15/0900N HZ NSC 01/M03 Q1025 NOSIG
ZBSJ,2015-12-22 07:00,ZBSJ 220700Z 35001MPS 0900 R15/1100N HZ NSC 01/M02 Q1025 NOSIG
ZBSJ,2015-12-22 08:00,ZBSJ 220800Z 35001MPS 1000 R15/1300U HZ NSC 02/M02 Q1025 NOSIG
ZBSJ,2015-12-22 09:00,ZBSJ 220900Z 36001MPS 1000 R15/1400N HZ NSC 01/M03 Q1025 NOSIG
ZBSJ,2015-12-22 10:00,ZBSJ 221000Z 33001MPS 1400 R15/1900N HZ NSC 00/M03 Q1025 NOSIG
ZBSJ,2015-12-22 11:00,ZBSJ 221100Z 30001MPS 1400 R15/1600D HZ NSC 00/M03 Q1026 NOSIG
ZBSJ,2015-12-22 12:00,ZBSJ 221200Z 33001MPS 1400 R15/1400D HZ NSC 00/M02 Q1026 NOSIG
ZBSJ,2015-12-22 13:00,ZBSJ 221300Z 27001MPS 1400 R15/1600N HZ NSC M01/M03 Q1026 NOSIG
ZBSJ,2015-12-22 14:00,ZBSJ 221400Z 31001MPS 1200 R15/1600N HZ NSC M02/M04 Q1027 NOSIG
ZBSJ,2015-12-22 15:00,ZBSJ 221500Z 25001MPS 0900 R15/1100D FU NSC M03/M04 Q1027 NOSIG
ZBSJ,2015-12-22 16:00,ZBSJ 221600Z 32001MPS 0700 R15/0900N FU NSC M04/M04 Q1027 NOSIG
ZBSJ,2015-12-22 17:00,ZBSJ 221700Z 34001MPS 0600 R15/0900U FU NSC M04/M05 Q1026 NOSIG
ZBSJ,2015-12-22 18:00,ZBSJ 221800Z 29001MPS 0600 R15/0800N FZFG NSC M04/M05 Q1026 NOSIG
ZBSJ,2015-12-22 19:00,ZBSJ 221900Z 00000MPS 0600 R15/0400V0550D FZFG NSC M05/M05 Q1026 NOSIG
ZBSJ,2015-12-22 20:00,ZBSJ 222000Z 28001MPS 0600 R15/0700N FZFG NSC M06/M06 Q1025 NOSIG
ZBSJ,2015-12-22 21:00,ZBSJ 222100Z 31002MPS 0600 R15/0700N FZFG NSC M06/M06 Q1025 NOSIG
ZBSJ,2015-12-22 22:00,ZBSJ 222200Z 01001MPS 0600 R15/0700N FZFG NSC M06/M06 Q1025 NOSIG
ZBSJ,2015-12-22 23:00,ZBSJ 222300Z 00000MPS 0500 R15/0500V0750D FZFG NSC M07/M07 Q1026 NOSIG
ZBSJ,2015-12-23 00:00,ZBSJ 230000Z 10001MPS 0100 R15/0500D FZFG VV010 M07/M07 Q1026 NOSIG
ZBSJ,2015-12-23 01:00,ZBSJ 230100Z 08001MPS 0050 R15/0075N FZFG VV003 M05/M06 Q1027 NOSIG
ZBSJ,2015-12-23 02:00,ZBSJ 230200Z 04002MPS 0050 R15/0100N FZFG VV003 M04/M05 Q1027 NOSIG
ZBSJ,2015-12-23 03:00,ZBSJ 230300Z 07001MPS 0100 R15/0125N FZFG VV003 M04/M05 Q1028 NOSIG
ZBSJ,2015-12-23 04:00,ZBSJ 230400Z 09001MPS 0100 R15/0125N FZFG VV003 M04/M04 Q1027 NOSIG
ZBSJ,2015-12-23 05:00,ZBSJ 230500Z 07001MPS 0100 R15/0150N FZFG VV003 M03/M03 Q1026 NOSIG
ZBSJ,2015-12-23 06:00,ZBSJ 230600Z 06002MPS 0200 R15/0175N FZFG VV006 M03/M03 Q1025 NOSIG
ZBSJ,2015-12-23 07:00,ZBSJ 230700Z 06001MPS 0150 R15/0250N FZFG VV006 M02/M02 Q1025 NOSIG
ZBSJ,2015-12-23 08:00,ZBSJ 230800Z 09001MPS 0150 R15/0225N FZFG VV003 M02/M02 Q1026 NOSIG
ZBSJ,2015-12-23 09:00,ZBSJ 230900Z 02001MPS 0150 R15/0275N FZFG VV003 M02/M02 Q1026 NOSIG
ZBSJ,2015-12-23 10:00,ZBSJ 231000Z 02001MPS 0100 R15/0375N FZFG VV003 M02/M02 Q1026 NOSIG
ZBSJ,2015-12-23 11:00,ZBSJ 231100Z 01001MPS 0200 R15/0550N FZFG VV003 M02/M02 Q1027 NOSIG
ZBSJ,2015-12-23 12:00,ZBSJ 231200Z 26002MPS 0200 R15/0375V0500N FZFG VV003 M02/M03 Q1028 NOSIG
ZBSJ,2015-12-23 13:00,ZBSJ 231300Z 28001MPS 0300 R15/0500N FZFG VV006 M02/M02 Q1028 NOSIG
ZBSJ,2015-12-23 14:00,ZBSJ 231400Z 27001MPS 0600 R15/0900N FZFG NSC M02/M02 Q1028 NOSIG
ZBSJ,2015-12-23 15:00,ZBSJ 231500Z 30001MPS 0700 R15/1000N FZFG NSC M03/M03 Q1027 NOSIG
ZBSJ,2015-12-23 16:00,ZBSJ 231600Z 30001MPS 1000 R15/1300N BR NSC M02/M03 Q1027 NOSIG
ZBSJ,2015-12-23 17:00,ZBSJ 231700Z 28002MPS 1000 R15/1300U BR NSC M02/M02 Q1027 NOSIG
ZBSJ,2015-12-23 18:00,ZBSJ 231800Z 26001MPS 1000 R15/1400U BR NSC M02/M02 Q1026 NOSIG
ZBSJ,2015-12-23 19:00,ZBSJ 231900Z 30002MPS 1000 R15/1200U BR NSC M03/M03 Q1026 NOSIG
ZBSJ,2015-12-23 20:00,ZBSJ 232000Z 31002MPS 1000 R15/1400U BR NSC M03/M04 Q1026 NOSIG
ZBSJ,2015-12-23 21:00,ZBSJ 232100Z 29001MPS 1000 R15/1400D BR NSC M02/M02 Q1026 NOSIG
ZBSJ,2015-12-23 22:00,ZBSJ 232200Z 24001MPS 1300 R15/1700D BR NSC M04/M05 Q1026 BECMG TL2330 0700 FZFG
ZBSJ,2015-12-23 23:00,ZBSJ 232300Z 00000MPS 0900 R15/1000D FZFG NSC M05/M06 Q1026 BECMG TL2330 0700 FZFG
ZBSJ,2015-12-24 00:00,ZBSJ 240000Z 29002MPS 0700 R15/0700V1000N FZFG NSC M05/M05 Q1027 NOSIG
ZBSJ,2015-12-24 01:00,ZBSJ 240100Z 22001MPS 0600 R15/0700N FZFG NSC M03/M03 Q1028 NOSIG
ZBSJ,2015-12-24 02:00,ZBSJ 240200Z 27001MPS 0600 R15/0900N FZFG NSC M00/M01 Q1028 NOSIG
ZBSJ,2015-12-24 03:00,ZBSJ 240300Z 23001MPS 0600 R15/0900N FG NSC 01/M00 Q1028 NOSIG
ZBSJ,2015-12-24 04:00,ZBSJ 240400Z 06001MPS 0700 R15/0900N HZ NSC 04/M02 Q1027 NOSIG
ZBSJ,2015-12-24 05:00,ZBSJ 240500Z 11002MPS 0700 R15/0900N HZ NSC 04/M02 Q1026 NOSIG
ZBSJ,2015-12-24 06:00,ZBSJ 240600Z 15002MPS 0700 R15/0900N HZ NSC 05/M01 Q1026 NOSIG
ZBSJ,2015-12-24 07:00,ZBSJ 240700Z 14002MPS 0600 R15/0800N HZ NSC 04/M02 Q1026 NOSIG
ZBSJ,2015-12-24 08:00,ZBSJ 240800Z 17003MPS 0600 R15/0800D HZ NSC 02/M02 Q1026 NOSIG
ZBSJ,2015-12-24 09:00,ZBSJ 240900Z 13001MPS 0500 R15/0900N HZ NSC M02/M03 Q1026 NOSIG
ZBSJ,2015-12-24 10:00,ZBSJ 241000Z 11001MPS 0500 R15/0700N FZFG NSC M03/M03 Q1027 NOSIG
ZBSJ,2015-12-24 11:00,ZBSJ 241100Z 09001MPS 0300 R15/0325N FZFG NSC M04/M05 Q1027 NOSIG
ZBSJ,2015-12-24 12:00,ZBSJ 241200Z 13001MPS 0050 R15/0075N FZFG NSC M03/M03 Q1027 NOSIG
ZBSJ,2015-12-24 13:00,ZBSJ 241300Z 18001MPS 0050 R15/0050N FZFG NSC M04/M04 Q1027 NOSIG
ZBSJ,2015-12-24 14:00,ZBSJ 241400Z 23001MPS 0050 R15/0075N FZFG NSC M04/M04 Q1027 NOSIG
ZBSJ,2015-12-24 15:00,ZBSJ 241500Z 21002MPS 0050 R15/0100N FZFG NSC M04/M04 Q1027 NOSIG
ZBSJ,2015-12-24 16:00,ZBSJ 241600Z 18001MPS 0000 R15/0100N FZFG NSC M04/M04 Q1026 NOSIG
ZBSJ,2015-12-24 17:00,ZBSJ 241700Z 22001MPS 0000 R15/0100N FZFG NSC M03/M04 Q1025 NOSIG
ZBSJ,2015-12-24 18:00,ZBSJ 241800Z 16001MPS 0000 R15/0125N FZFG NSC M03/M03 Q1024 NOSIG
ZBSJ,2015-12-24 19:00,ZBSJ 241900Z 00000MPS 0200 R15/0150N FZFG NSC M03/M03 Q1024 NOSIG
ZBSJ,2015-12-24 20:00,ZBSJ 242000Z 19001MPS 0100 R15/0200N FZFG NSC M03/M03 Q1022 NOSIG
ZBSJ,2015-12-24 21:00,ZBSJ 242100Z 17001MPS 0100 R15/0225N FZFG NSC M03/M04 Q1021 NOSIG
ZBSJ,2015-12-24 22:00,ZBSJ 242200Z 10001MPS 0100 R15/0250N FZFG NSC M04/M04 Q1021 NOSIG
ZBSJ,2015-12-24 23:00,ZBSJ 242300Z 13001MPS 0100 R15/0275N FZFG NSC M04/M04 Q1020 NOSIG
ZBSJ,2015-12-25 00:00,ZBSJ 250000Z 07001MPS 0100 R15/0225N FZFG NSC M04/M04 Q1020 NOSIG
ZBSJ,2015-12-25 01:00,ZBSJ 250100Z 09001MPS 0150 R15/0250N FZFG NSC M04/M04 Q1020 NOSIG
ZBSJ,2015-12-25 02:00,ZBSJ 250200Z 00000MPS 0150 R15/0225N FZFG VV013 M04/M04 Q1020 NOSIG
ZBSJ,2015-12-25 03:00,ZBSJ 250300Z 00000MPS 0150 R15/0225N FZFG VV013 M03/M03 Q1019 NOSIG
ZBSJ,2015-12-25 04:00,ZBSJ 250400Z 02001MPS 0300 R15/0400N FZFG VV013 M03/M03 Q1018 NOSIG
ZBSJ,2015-12-25 05:00,ZBSJ 250500Z 00000MPS 0500 R15/0550N FZFG NSC M01/M01 Q1017 NOSIG
ZBSJ,2015-12-25 06:00,ZBSJ 250600Z 17001MPS 0600 R15/0800N FG NSC 01/01 Q1015 NOSIG
ZBSJ,2015-12-25 07:00,ZBSJ 250700Z 18002MPS 0750 R15/0900N FG NSC 05/M01 Q1015 NOSIG
ZBSJ,2015-12-25 08:00,ZBSJ 250800Z 08002MPS 0700 R15/0900N FG NSC 03/M01 Q1015 NOSIG
ZBSJ,2015-12-25 09:00,ZBSJ 250900Z 01001MPS 0700 R15/1200U FG NSC 00/M03 Q1015 NOSIG
ZBSJ,2015-12-25 10:00,ZBSJ 251000Z 34002MPS 1000 R15/1500D BR NSC M01/M03 Q1016 NOSIG
ZBSJ,2015-12-25 11:00,ZBSJ 251100Z 29002MPS 1000 R15/1300U BR NSC M02/M04 Q1016 NOSIG
ZBSJ,2015-12-25 12:00,ZBSJ 251200Z 01003MPS 0750 R15/1100N FZFG NSC M02/M04 Q1016 NOSIG
ZBSJ,2015-12-25 13:00,ZBSJ 251300Z 31002MPS 0750 R15/1100D FZFG NSC M02/M04 Q1016 NOSIG
ZBSJ,2015-12-25 14:00,ZBSJ 251400Z 03001MPS 0650 R15/1100N FZFG NSC M04/M05 Q1016 NOSIG
ZBSJ,2015-12-25 15:00,ZBSJ 251500Z 28002MPS 0600 R15/1100D FZFG NSC M04/M05 Q1016 NOSIG
ZBSJ,2015-12-25 16:00,ZBSJ 251600Z 36002MPS 0550 R15/0800D FZFG NSC M05/M05 Q1016 NOSIG
ZBSJ,2015-12-25 17:00,ZBSJ 251700Z 13001MPS 0550 R15/0900U FZFG NSC M05/M06 Q1016 NOSIG
ZBSJ,2015-12-25 18:00,ZBSJ 251800Z 35001MPS 0500 R15/0800N FZFG NSC M06/M07 Q1016 NOSIG
ZBSJ,2015-12-25 19:00,ZBSJ 251900Z 01001MPS 0500 R15/0800N FZFG NSC M05/M05 Q1016 NOSIG
ZBSJ,2015-12-25 20:00,ZBSJ 252000Z 33001MPS 0500 R15/0750N FZFG NSC M07/M07 Q1016 NOSIG
ZBSJ,2015-12-25 21:00,ZBSJ 252100Z 28001MPS 0150 R15/0100N FZFG NSC M06/M07 Q1016 NOSIG
ZBSJ,2015-12-25 22:00,ZBSJ 252200Z 32001MPS 0100 R15/0100N FZFG NSC M08/M09 Q1016 NOSIG
ZBSJ,2015-12-25 23:00,ZBSJ 252300Z 10001MPS 0100 R15/0150V0700U FZFG NSC M08/M08 Q1017 NOSIG
ZBSJ,2015-12-26 00:00,ZBSJ 260000Z 05001MPS 0050 R15/0100N FZFG NSC M07/M08 Q1018 NOSIG
ZBSJ,2015-12-26 01:00,ZBSJ 260100Z 06002MPS 0100 R15/0175N FZFG NSC M06/M07 Q1019 NOSIG
ZBSJ,2015-12-26 02:00,ZBSJ 260200Z 06002MPS 0150 R15/0250N FZFG NSC M05/M05 Q1021 NOSIG
ZBSJ,2015-12-26 03:00,ZBSJ 260300Z 06001MPS 0250 R15/0450N FZFG NSC M03/M04 Q1022 NOSIG
ZBSJ,2015-12-26 04:00,ZBSJ 260400Z 05002MPS 0450 R15/0700N FZFG NSC M03/M03 Q1022 NOSIG
ZBSJ,2015-12-26 05:00,ZBSJ 260500Z 07002MPS 0500 R15/0750N FZFG NSC M02/M02 Q1023 BECMG TL0630 0600
ZBSJ,2015-12-26 06:00,ZBSJ 260600Z 05002MPS 0500 R15/0750N FZFG NSC M02/M02 Q1024 BECMG TL0730 0600
ZBSJ,2015-12-26 07:00,ZBSJ 260700Z 04004MPS 0600 R15/1000N FZFG NSC M02/M02 Q1025 BECMG TL0830 0800
ZBSJ,2015-12-26 08:00,ZBSJ 260800Z 04004MPS 0700 R15/1200N FZFG NSC M02/M02 Q1027 NOSIG
ZBSJ,2015-12-26 09:00,ZBSJ 260900Z 04003MPS 0900 R15/1800N FZFG NSC M01/M02 Q1028 NOSIG
ZBSJ,2015-12-26 10:00,ZBSJ 261000Z 03003MPS 1300 R15/P2000N BR NSC M01/M02 Q1030 BECMG TL1130 1600
ZBSJ,2015-12-26 11:00,ZBSJ 261100Z 04004MPS 1800 BR NSC M01/M03 Q1032 NOSIG
ZBSJ,2015-12-26 12:00,ZBSJ 261200Z 05003MPS 3000 BR NSC M01/M03 Q1033 NOSIG
ZBSJ,2015-12-26 13:00,ZBSJ 261300Z 05003MPS 3500 BR NSC M01/M04 Q1034 NOSIG
ZBSJ,2015-12-26 14:00,ZBSJ 261400Z 05003MPS 3500 BR NSC M01/M04 Q1035 NOSIG
ZBSJ,2015-12-26 15:00,ZBSJ 261500Z 07003MPS 5000 BR NSC M02/M04 Q1036 NOSIG
ZBSJ,2015-12-26 16:00,ZBSJ 261600Z 10003MPS 8000 NSC M02/M05 Q1036 NOSIG
ZBSJ,2015-12-26 17:00,ZBSJ 261700Z 10002MPS 8000 NSC M02/M06 Q1037 NOSIG
ZBSJ,2015-12-26 18:00,ZBSJ 261800Z 11002MPS CAVOK M02/M06 Q1037 NOSIG
ZBSJ,2015-12-26 19:00,ZBSJ 261900Z 09002MPS CAVOK M02/M05 Q1037 NOSIG
ZBSJ,2015-12-26 20:00,ZBSJ 262000Z 11002MPS 7000 NSC M03/M05 Q1037 NOSIG
ZBSJ,2015-12-26 21:00,ZBSJ 262100Z 13001MPS 7000 NSC M03/M06 Q1037 NOSIG
ZBSJ,2015-12-26 22:00,ZBSJ 262200Z 13001MPS 7000 NSC M03/M05 Q1037 NOSIG
ZBSJ,2015-12-26 23:00,ZBSJ 262300Z 13001MPS 6000 NSC M03/M05 Q1038 NOSIG
ZBSJ,2015-12-27 00:00,ZBSJ 270000Z 15002MPS 2800 BR NSC M03/M05 Q1038 BECMG TL0130 3000
ZBSJ,2015-12-27 01:00,ZBSJ 270100Z 17004MPS CAVOK M03/M07 Q1039 NOSIG
ZBSJ,2015-12-27 02:00,ZBSJ 270200Z 17004MPS 8000 -SN NSC M02/M07 Q1040 NOSIG
ZBSJ,2015-12-27 03:00,ZBSJ 270300Z 17004MPS CAVOK M02/M07 Q1039 NOSIG
ZBSJ,2015-12-27 04:00,ZBSJ 270400Z 18004MPS 150V210 CAVOK M01/M08 Q1038 NOSIG
ZBSJ,2015-12-27 05:00,ZBSJ 270500Z 18004MPS CAVOK M01/M08 Q1037 NOSIG
ZBSJ,2015-12-27 06:00,ZBSJ 270600Z 17003MPS CAVOK M01/M08 Q1037 NOSIG
ZBSJ,2015-12-27 07:00,ZBSJ 270700Z 17004MPS CAVOK M00/M08 Q1036 NOSIG
ZBSJ,2015-12-27 08:00,ZBSJ 270800Z 16003MPS CAVOK M00/M08 Q1037 NOSIG
ZBSJ,2015-12-27 09:00,ZBSJ 270900Z 17003MPS 8000 NSC M01/M08 Q1037 NOSIG
ZBSJ,2015-12-27 10:00,ZBSJ 271000Z 16002MPS 8000 NSC M02/M08 Q1037 NOSIG
ZBSJ,2015-12-27 11:00,ZBSJ 271100Z 16003MPS 8000 NSC M03/M08 Q1037 NOSIG
ZBSJ,2015-12-27 12:00,ZBSJ 271200Z 18002MPS 6000 NSC M03/M08 Q1038 NOSIG
ZBSJ,2015-12-27 13:00,ZBSJ 271300Z 17003MPS 5000 HZ NSC M05/M08 Q1038 NOSIG
ZBSJ,2015-12-27 14:00,ZBSJ 271400Z 17002MPS 4500 HZ NSC M05/M08 Q1038 NOSIG
ZBSJ,2015-12-27 15:00,ZBSJ 271500Z 18001MPS 4000 BR NSC M07/M10 Q1038 NOSIG
ZBSJ,2015-12-27 16:00,ZBSJ 271600Z 20001MPS 3000 BR NSC M06/M09 Q1037 NOSIG
ZBSJ,2015-12-27 17:00,ZBSJ 271700Z 21001MPS 3000 BR NSC M07/M10 Q1037 NOSIG
ZBSJ,2015-12-27 18:00,ZBSJ 271800Z 22001MPS 3000 BR NSC M07/M09 Q1037 NOSIG
ZBSJ,2015-12-27 19:00,ZBSJ 271900Z 21001MPS 3000 BR NSC M07/M09 Q1037 NOSIG
ZBSJ,2015-12-27 20:00,ZBSJ 272000Z 24002MPS 3000 BR NSC M06/M09 Q1036 NOSIG
ZBSJ,2015-12-27 21:00,ZBSJ 272100Z 22002MPS 2800 BR NSC M07/M09 Q1036 NOSIG
ZBSJ,2015-12-27 22:00,ZBSJ 272200Z 23002MPS 2800 BR NSC M06/M09 Q1036 NOSIG
ZBSJ,2015-12-27 23:00,ZBSJ 272300Z 19001MPS 2300 BR NSC M08/M10 Q1036 NOSIG
ZBSJ,2015-12-28 00:00,ZBSJ 280000Z 03001MPS 1200 R15/1600N BR NSC M08/M09 Q1036 NOSIG
ZBSJ,2015-12-28 01:00,ZBSJ 280100Z 17001MPS 0700 R15/1200N FZFG NSC M06/M07 Q1036 NOSIG
ZBSJ,2015-12-28 02:00,ZBSJ 280200Z 20001MPS 0700 R15/1000N FZFG NSC M03/M05 Q1036 NOSIG
ZBSJ,2015-12-28 03:00,ZBSJ 280300Z 14001MPS 0800 R15/1200N FG NSC 00/M05 Q1036 NOSIG
ZBSJ,2015-12-28 04:00,ZBSJ 280400Z 15002MPS 1200 R15/1200N HZ NSC 03/M04 Q1035 NOSIG
ZBSJ,2015-12-28 05:00,ZBSJ 280500Z 16002MPS 130V200 2000 HZ NSC 05/M05 Q1034 NOSIG
ZBSJ,2015-12-28 06:00,ZBSJ 280600Z 15002MPS 100V200 2000 HZ NSC 06/M05 Q1033 NOSIG
ZBSJ,2015-12-28 07:00,ZBSJ 280700Z 16004MPS 2500 HZ NSC 06/M05 Q1033 NOSIG
ZBSJ,2015-12-28 08:00,ZBSJ 280800Z 15004MPS 2000 HZ NSC 05/M05 Q1032 NOSIG
ZBSJ,2015-12-28 09:00,ZBSJ 280900Z 15003MPS 1600 HZ NSC 01/M05 Q1032 NOSIG
ZBSJ,2015-12-28 10:00,ZBSJ 281000Z 13002MPS 2700 HZ NSC 01/M06 Q1033 NOSIG
ZBSJ,2015-12-28 11:00,ZBSJ 281100Z 11002MPS 2000 HZ NSC M02/M05 Q1033 NOSIG
ZBSJ,2015-12-28 12:00,ZBSJ 281200Z 08002MPS 1800 BR NSC M02/M05 Q1033 NOSIG
ZBSJ,2015-12-28 13:00,ZBSJ 281300Z 07001MPS 1800 BR NSC M03/M06 Q1033 NOSIG
ZBSJ,2015-12-28 14:00,ZBSJ 281400Z 05002MPS 1400 R15/1700U FU BR NSC M04/M06 Q1032 NOSIG
ZBSJ,2015-12-28 15:00,ZBSJ 281500Z 10001MPS 1200 R15/1500D FU BR NSC M04/M06 Q1032 NOSIG
ZBSJ,2015-12-28 16:00,ZBSJ 281600Z 30002MPS 250V330 1200 R15/1400D FU BR NSC M04/M06 Q1032 NOSIG
ZBSJ,2015-12-28 17:00,ZBSJ 281700Z 33002MPS 1200 R15/1600N BR NSC M04/M06 Q1031 NOSIG
ZBSJ,2015-12-28 18:00,ZBSJ 281800Z 13001MPS 1200 R15/1500N BR NSC M05/M06 Q1030 NOSIG
ZBSJ,2015-12-28 19:00,ZBSJ 281900Z 22003MPS 1000 R15/1400D BR NSC M06/M07 Q1030 NOSIG
ZBSJ,2015-12-28 20:00,ZBSJ 282000Z 23001MPS 1000 R15/1600N BR NSC M05/M06 Q1029 NOSIG
ZBSJ,2015-12-28 21:00,ZBSJ 282100Z 22001MPS 1000 R15/1500N BR NSC M06/M07 Q1029 NOSIG
ZBSJ,2015-12-28 22:00,ZBSJ 282200Z 20001MPS 1000 R15/1500N BR NSC M07/M08 Q1029 NOSIG
ZBSJ,2015-12-28 23:00,ZBSJ 282300Z 24001MPS 1000 R15/1300N BR NSC M07/M08 Q1029 NOSIG
ZBSJ,2015-12-29 00:00,ZBSJ 290000Z 22001MPS 0500 R15/0900D FZFG NSC M07/M08 Q1029 NOSIG
ZBSJ,2015-12-29 01:00,ZBSJ 290100Z 00000MPS 0500 R15/0700N FZFG NSC M05/M06 Q1029 NOSIG
ZBSJ,2015-12-29 02:00,ZBSJ 290200Z 04001MPS 0600 R15/0600N FZFG NSC M02/M04 Q1029 NOSIG
ZBSJ,2015-12-29 03:00,ZBSJ 290300Z 04002MPS 0700 R15/0750N FZFG NSC M01/M03 Q1029 NOSIG
ZBSJ,2015-12-29 04:00,ZBSJ 290400Z 06002MPS 0700 R15/0750N HZ NSC 01/M04 Q1027 NOSIG
ZBSJ,2015-12-29 05:00,ZBSJ 290500Z 09002MPS 0800 R15/0800N HZ NSC 03/M04 Q1026 NOSIG
ZBSJ,2015-12-29 06:00,ZBSJ 290600Z 11002MPS 0800 R15/0800N HZ NSC 04/M04 Q1025 NOSIG
ZBSJ,2015-12-29 07:00,ZBSJ 290700Z 15002MPS 0800 R15/0900N HZ NSC 04/M03 Q1025 NOSIG
ZBSJ,2015-12-29 08:00,ZBSJ 290800Z 07001MPS 0700 R15/0800N HZ NSC 02/M03 Q1025 NOSIG
ZBSJ,2015-12-29 09:00,ZBSJ 290900Z 08002MPS 0600 R15/0900N HZ NSC 00/M03 Q1025 NOSIG
ZBSJ,2015-12-29 10:00,ZBSJ 291000Z 04001MPS 0700 R15/1100N HZ NSC M02/M04 Q1026 NOSIG
ZBSJ,2015-12-29 11:00,ZBSJ 291100Z 35001MPS 0700 R15/1100N FZFG NSC M03/M04 Q1027 NOSIG
ZBSJ,2015-12-29 12:00,ZBSJ 291200Z 36002MPS 0700 R15/0800V1100U FZFG NSC M03/M04 Q1028 NOSIG
ZBSJ,2015-12-29 13:00,ZBSJ 291300Z 33002MPS 0700 R15/0900N FZFG NSC M03/M05 Q1028 NOSIG
ZBSJ,2015-12-29 14:00,ZBSJ 291400Z 27002MPS 0700 R15/0900D FZFG NSC M04/M06 Q1028 NOSIG
ZBSJ,2015-12-29 15:00,ZBSJ 291500Z 33003MPS 0700 R15/1000U FZFG NSC M04/M06 Q1028 NOSIG
ZBSJ,2015-12-29 16:00,ZBSJ 291600Z 28003MPS 0800 R33/1300N FZFG NSC M03/M04 Q1028 NOSIG
ZBSJ,2015-12-29 17:00,ZBSJ 291700Z 31002MPS 0800 R33/1200N FZFG NSC M05/M06 Q1028 NOSIG
ZBSJ,2015-12-29 18:00,ZBSJ 291800Z 21001MPS 0800 R33/1000N FZFG NSC M05/M06 Q1028 NOSIG
ZBSJ,2015-12-29 19:00,ZBSJ 291900Z 29001MPS 0800 R33/1000N FZFG NSC M06/M07 Q1028 NOSIG
ZBSJ,2015-12-29 20:00,ZBSJ 292000Z 25002MPS 220V010 0800 R33/1000U FZFG NSC M04/M05 Q1028 NOSIG
ZBSJ,2015-12-29 21:00,ZBSJ 292100Z 29003MPS 1400 R33/2000U BR NSC M03/M06 Q1029 NOSIG
ZBSJ,2015-12-29 22:00,ZBSJ 292200Z 30003MPS 2200 HZ NSC M02/M07 Q1029 NOSIG
ZBSJ,2015-12-29 23:00,ZBSJ 292300Z 30005MPS 7000 NSC 01/M08 Q1029 NOSIG
ZBSJ,2015-12-30 00:00,ZBSJ 300000Z 36002MPS 5000 HZ NSC 00/M10 Q1030 NOSIG
ZBSJ,2015-12-30 01:00,ZBSJ 300100Z 33003MPS 290V360 4000 HZ NSC 02/M07 Q1031 NOSIG
ZBSJ,2015-12-30 02:00,ZBSJ 300200Z 30004MPS 3500 HZ NSC 05/M08 Q1032 NOSIG
ZBSJ,2015-12-30 03:00,ZBSJ 300300Z 31005MPS 4500 HZ NSC 08/M07 Q1031 NOSIG
ZBSJ,2015-12-30 04:00,ZBSJ 300400Z 33005MPS 300V360 CAVOK 09/M13 Q1031 NOSIG
ZBSJ,2015-12-30 05:00,ZBSJ 300500Z 30005MPS CAVOK 10/M12 Q1030 NOSIG
ZBSJ,2015-12-30 06:00,ZBSJ 300600Z 30005MPS CAVOK 10/M12 Q1030 NOSIG
ZBSJ,2015-12-30 07:00,ZBSJ 300700Z 32005MPS CAVOK 10/M13 Q1030 NOSIG
ZBSJ,2015-12-30 08:00,ZBSJ 300800Z 32004MPS CAVOK 09/M15 Q1030 NOSIG
ZBSJ,2015-12-30 09:00,ZBSJ 300900Z 34003MPS CAVOK 05/M14 Q1030 NOSIG
ZBSJ,2015-12-30 10:00,ZBSJ 301000Z 36003MPS 8000 NSC 05/M14 Q1030 NOSIG
ZBSJ,2015-12-30 11:00,ZBSJ 301100Z 01004MPS 8000 NSC 04/M13 Q1031 NOSIG
ZBSJ,2015-12-30 12:00,ZBSJ 301200Z 23002MPS 8000 NSC 02/M13 Q1032 NOSIG
ZBSJ,2015-12-30 13:00,ZBSJ 301300Z 25001MPS 5000 HZ NSC 01/M13 Q1033 NOSIG
ZBSJ,2015-12-30 14:00,ZBSJ 301400Z 31001MPS 5000 HZ NSC M00/M12 Q1033 NOSIG
ZBSJ,2015-12-30 15:00,ZBSJ 301500Z 03002MPS 2500 HZ NSC M04/M09 Q1034 NOSIG
ZBSJ,2015-12-30 16:00,ZBSJ 301600Z 07001MPS 1700 HZ NSC M04/M10 Q1034 NOSIG
ZBSJ,2015-12-30 17:00,ZBSJ 301700Z 34001MPS 1700 HZ NSC M06/M10 Q1034 NOSIG
ZBSJ,2015-12-30 18:00,ZBSJ 301800Z 31001MPS 1800 HZ NSC M06/M11 Q1033 NOSIG
ZBSJ,2015-12-30 19:00,ZBSJ 301900Z 25002MPS 1800 HZ NSC M06/M10 Q1034 NOSIG
ZBSJ,2015-12-30 20:00,ZBSJ 302000Z 32003MPS 2500 HZ NSC M06/M10 Q1033 NOSIG
ZBSJ,2015-12-30 21:00,ZBSJ 302100Z 33003MPS 3000 HZ NSC M05/M10 Q1033 NOSIG
ZBSJ,2015-12-30 22:00,ZBSJ 302200Z 32001MPS 4000 HZ NSC M06/M10 Q1033 NOSIG
ZBSJ,2015-12-30 23:00,ZBSJ 302300Z 28001MPS 3000 BR NSC M07/M10 Q1033 NOSIG
