station,valid,metar
ZBSJ,2016-01-01 00:00,ZBSJ 010000Z 00000MPS 1200 R15/1700D BR NSC M07/M09 Q1025 NOSIG
ZBSJ,2016-01-01 01:00,ZBSJ 010100Z 34001MPS 0800 R15/1100N FZFG NSC M06/M08 Q1025 NOSIG
ZBSJ,2016-01-01 02:00,ZBSJ 010200Z 01001MPS 0700 R15/0800D FZFG NSC M01/M04 Q1025 NOSIG
ZBSJ,2016-01-01 03:00,ZBSJ 010300Z 05002MPS 0700 R15/1000U HZ NSC 01/M05 Q1024 NOSIG
ZBSJ,2016-01-01 04:00,ZBSJ 010400Z 04002MPS 0700 R15/1000N HZ NSC 02/M05 Q1023 NOSIG
ZBSJ,2016-01-01 05:00,ZBSJ 010500Z 12002MPS 0700 R15/1000N HZ NSC 04/M05 Q1021 NOSIG
ZBSJ,2016-01-01 06:00,ZBSJ 010600Z 14002MPS 0700 R15/1000N HZ NSC 05/M04 Q1020 NOSIG
ZBSJ,2016-01-01 07:00,ZBSJ 010700Z 14002MPS 0700 R15/0900N HZ NSC 05/M05 Q1020 NOSIG
ZBSJ,2016-01-01 08:00,ZBSJ 010800Z 11001MPS 0700 R15/1000N HZ NSC 04/M05 Q1020 NOSIG
ZBSJ,2016-01-01 09:00,ZBSJ 010900Z 11001MPS 0750 R15/1100N HZ NSC M01/M05 Q1020 NOSIG
ZBSJ,2016-01-01 10:00,ZBSJ 011000Z 14002MPS 0700 R15/1200N HZ NSC M02/M06 Q1020 NOSIG
ZBSJ,2016-01-01 11:00,ZBSJ 011100Z 35001MPS 0700 R15/1500U HZ NSC M01/M05 Q1021 NOSIG
ZBSJ,2016-01-01 12:00,ZBSJ 011200Z 01001MPS 0700 R15/1100N HZ NSC M02/M05 Q1021 NOSIG
ZBSJ,2016-01-01 13:00,ZBSJ 011300Z 34001MPS 0700 R15/1200N HZ NSC M02/M05 Q1021 NOSIG
ZBSJ,2016-01-01 14:00,ZBSJ 011400Z 32001MPS 0700 R15/1000N FZFG NSC M04/M06 Q1021 NOSIG
ZBSJ,2016-01-01 15:00,ZBSJ 011500Z 32002MPS 0700 R15/1000N FZFG NSC M04/M05 Q1021 NOSIG
ZBSJ,2016-01-01 16:00,ZBSJ 011600Z 25001MPS 0600 R15/0800V1100N FZFG NSC M04/M06 Q1021 NOSIG
ZBSJ,2016-01-01 17:00,ZBSJ 011700Z 32002MPS 0600 R15/0800N FZFG NSC M05/M06 Q1020 NOSIG
ZBSJ,2016-01-01 18:00,ZBSJ 011800Z 33003MPS 0500 R15/0800N FZFG NSC M05/M06 Q1020 NOSIG
ZBSJ,2016-01-01 19:00,ZBSJ 011900Z 34001MPS 0500 R15/0900N FZFG NSC M05/M06 Q1020 NOSIG
ZBSJ,2016-01-01 20:00,ZBSJ 012000Z 33002MPS 0500 R15/1000N FZFG NSC M06/M07 Q1020 NOSIG
ZBSJ,2016-01-01 21:00,ZBSJ 012100Z 33002MPS 0500 R15/1000N FZFG NSC M06/M07 Q1019 NOSIG
ZBSJ,2016-01-01 22:00,ZBSJ 012200Z 33001MPS 0500 R15/1200U FZFG NSC M07/M08 Q1019 NOSIG
ZBSJ,2016-01-01 23:00,ZBSJ 012300Z 27001MPS 0500 R15/1200N FZFG NSC M07/M08 Q1020 NOSIG
ZBSJ,2016-01-02 00:00,ZBSJ 020000Z 32001MPS 0500 R15/0800D FZFG NSC M07/M08 Q1020 NOSIG
ZBSJ,2016-01-02 01:00,ZBSJ 020100Z 00000MPS 0500 R15/0650N FZFG NSC M06/M07 Q1021 NOSIG
ZBSJ,2016-01-02 02:00,ZBSJ 020200Z 34001MPS 0500 R15/0600N HZ NSC M02/M04 Q1021 NOSIG
ZBSJ,2016-01-02 03:00,ZBSJ 020300Z 31001MPS 0500 R15/0700N HZ NSC 01/M03 Q1021 NOSIG
ZBSJ,2016-01-02 04:00,ZBSJ 020400Z 05001MPS 0600 R15/0750N HZ NSC 02/M03 Q1019 NOSIG
ZBSJ,2016-01-02 05:00,ZBSJ 020500Z 09001MPS 0600 R15/0800N HZ NSC 04/M03 Q1018 NOSIG
ZBSJ,2016-01-02 06:00,ZBSJ 020600Z 09001MPS 0600 R15/0900N HZ NSC 05/M03 Q1017 NOSIG
ZBSJ,2016-01-02 07:00,ZBSJ 020700Z 07002MPS 0700 R15/1000N HZ NSC 06/M03 Q1017 NOSIG
ZBSJ,2016-01-02 08:00,ZBSJ 020800Z 02001MPS 0700 R15/1000N HZ NSC 05/M03 Q1017 NOSIG
ZBSJ,2016-01-02 09:00,ZBSJ 020900Z 32001MPS 0700 R15/1100N HZ NSC 01/M04 Q1018 NOSIG
ZBSJ,2016-01-02 10:00,ZBSJ 021000Z 28001MPS 0700 R15/1400N HZ NSC M01/M04 Q1019 NOSIG
ZBSJ,2016-01-02 11:00,ZBSJ 021100Z 00000MPS 0700 R15/1100D HZ NSC M02/M03 Q1019 NOSIG
ZBSJ,2016-01-02 12:00,ZBSJ 021200Z 34001MPS 0700 R15/1000N FZFG NSC M02/M04 Q1019 NOSIG
ZBSJ,2016-01-02 13:00,ZBSJ 021300Z 31002MPS 0700 R15/0900U FZFG NSC M04/M05 Q1020 NOSIG
ZBSJ,2016-01-02 14:00,ZBSJ 021400Z 32002MPS 0700 R33/0900N FZFG NSC M03/M04 Q1020 NOSIG
ZBSJ,2016-01-02 15:00,ZBSJ 021500Z 32002MPS 0700 R33/0900U FZFG NSC M03/M04 Q1020 NOSIG
ZBSJ,2016-01-02 16:00,ZBSJ 021600Z 32003MPS 0700 R33/1000N FZFG NSC M03/M05 Q1020 NOSIG
ZBSJ,2016-01-02 17:00,ZBSJ 021700Z 34002MPS 0700 R33/1000N FZFG NSC M03/M05 Q1019 NOSIG
ZBSJ,2016-01-02 18:00,ZBSJ 021800Z 30001MPS 0700 R33/1000D FZFG NSC M05/M06 Q1020 NOSIG
ZBSJ,2016-01-02 19:00,ZBSJ 021900Z 32002MPS 0700 R33/1100N FZFG NSC M04/M05 Q1020 NOSIG
ZBSJ,2016-01-02 20:00,ZBSJ 022000Z 31002MPS 0700 R33/1200N FZFG NSC M04/M06 Q1020 NOSIG
ZBSJ,2016-01-02 21:00,ZBSJ 022100Z 33002MPS 0700 R33/1300N FZFG NSC M04/M06 Q1020 NOSIG
ZBSJ,2016-01-02 22:00,ZBSJ 022200Z 31002MPS 1000 R33/1500N BR NSC M05/M06 Q1020 NOSIG
ZBSJ,2016-01-02 23:00,ZBSJ 022300Z 04001MPS 1200 R15/1500N BR NSC M05/M06 Q1021 BECMG 0700 FZFG
ZBSJ,2016-01-03 00:00,ZBSJ 030000Z 02002MPS 0600 R15/0900N FZFG NSC M04/M05 Q1021 NOSIG
ZBSJ,2016-01-03 01:00,ZBSJ 030100Z 02002MPS 0400 R33/0550N FZFG NSC M02/M03 Q1022 NOSIG
ZBSJ,2016-01-03 02:00,ZBSJ 030200Z 06001MPS 0400 R15/0650N FZFG NSC M02/M03 Q1023 NOSIG
ZBSJ,2016-01-03 03:00,ZBSJ 030300Z 07003MPS 0150 R15/0200V0300N FZFG VV003 M02/M02 Q1023 NOSIG
ZBSJ,2016-01-03 04:00,ZBSJ 030400Z 02001MPS 0150 R15/0225N FZFG VV003 M02/M02 Q1022 NOSIG
ZBSJ,2016-01-03 05:00,ZBSJ 030500Z 06002MPS 0400 R15/0600N FZFG NSC M01/M01 Q1021 NOSIG
ZBSJ,2016-01-03 06:00,ZBSJ 030600Z 06003MPS 0450 R15/0700N FZFG NSC M01/M01 Q1021 NOSIG
ZBSJ,2016-01-03 07:00,ZBSJ 030700Z 05002MPS 0500 R15/0750N FZFG NSC M00/M01 Q1021 NOSIG
ZBSJ,2016-01-03 08:00,ZBSJ 030800Z 07002MPS 0600 R15/0900N FZFG NSC M00/M01 Q1021 NOSIG
ZBSJ,2016-01-03 09:00,ZBSJ 030900Z 09002MPS 0700 R15/1100N FZFG NSC M01/M01 Q1022 BECMG 0900
ZBSJ,2016-01-03 10:00,ZBSJ 031000Z 08001MPS 0800 R15/1300N FZFG NSC M01/M01 Q1023 NOSIG
ZBSJ,2016-01-03 11:00,ZBSJ 031100Z 08002MPS 1000 R15/1500N BR NSC M00/M01 Q1024 NOSIG
ZBSJ,2016-01-03 12:00,ZBSJ 031200Z 02002MPS 1000 R15/1500N BR NSC M01/M01 Q1024 NOSIG
ZBSJ,2016-01-03 13:00,ZBSJ 031300Z 06001MPS 1200 R15/1700N BR NSC M01/M01 Q1025 NOSIG
ZBSJ,2016-01-03 14:00,ZBSJ 031400Z 04001MPS 1400 R15/1800D BR NSC M01/M02 Q1025 NOSIG
ZBSJ,2016-01-03 15:00,ZBSJ 031500Z 04001MPS 1500 BR NSC M01/M02 Q1026 NOSIG
ZBSJ,2016-01-03 16:00,ZBSJ 031600Z 01002MPS 1600 BR NSC M00/M01 Q1026 NOSIG
ZBSJ,2016-01-03 17:00,ZBSJ 031700Z 33002MPS 1600 BR NSC M01/M02 Q1027 NOSIG
ZBSJ,2016-01-03 18:00,ZBSJ 031800Z 34001MPS 1600 BR NSC M01/M02 Q1027 NOSIG
ZBSJ,2016-01-03 19:00,ZBSJ 031900Z 33002MPS 1500 BR NSC M01/M02 Q1028 NOSIG
ZBSJ,2016-01-03 20:00,ZBSJ 032000Z 32002MPS 1500 BR NSC M01/M02 Q1028 NOSIG
ZBSJ,2016-01-03 21:00,ZBSJ 032100Z 33003MPS 1500 BR NSC M01/M02 Q1028 NOSIG
ZBSJ,2016-01-03 22:00,ZBSJ 032200Z 33002MPS 1600 BR NSC M01/M02 Q1029 NOSIG
ZBSJ,2016-01-03 23:00,ZBSJ 032300Z 33002MPS 1400 R15/1800N BR NSC M02/M03 Q1029 NOSIG
ZBSJ,2016-01-04 00:00,ZBSJ 040000Z 33001MPS 1000 R15/1300N BR NSC M02/M03 Q1029 NOSIG
ZBSJ,2016-01-04 01:00,ZBSJ 040100Z 32002MPS 0800 R15/0900N FZFG NSC M01/M02 Q1030 NOSIG
ZBSJ,2016-01-04 02:00,ZBSJ 040200Z 34002MPS 0700 R33/0800N FZFG NSC M00/M02 Q1031 NOSIG
ZBSJ,2016-01-04 03:00,ZBSJ 040300Z 34002MPS 0600 R33/0800N FG NSC 01/M02 Q1031 NOSIG
ZBSJ,2016-01-04 04:00,ZBSJ 040400Z 02002MPS 340V080 0800 R33/1200U HZ NSC 02/M04 Q1030 NOSIG
ZBSJ,2016-01-04 05:00,ZBSJ 040500Z 08003MPS 050V120 2200 HZ NSC 02/M07 Q1029 NOSIG
ZBSJ,2016-01-04 06:00,ZBSJ 040600Z 08003MPS 020V120 5000 HZ NSC 03/M09 Q1028 NOSIG
ZBSJ,2016-01-04 07:00,ZBSJ 040700Z 09002MPS 060V130 5000 HZ NSC 03/M09 Q1028 NOSIG
ZBSJ,2016-01-04 08:00,ZBSJ 040800Z 06003MPS 6000 NSC 02/M11 Q1028 NOSIG
ZBSJ,2016-01-04 09:00,ZBSJ 040900Z 07002MPS 6000 NSC 01/M10 Q1028 NOSIG
ZBSJ,2016-01-04 10:00,ZBSJ 041000Z 06001MPS 5000 HZ NSC M00/M08 Q1029 NOSIG
ZBSJ,2016-01-04 11:00,ZBSJ 041100Z 05001MPS 4000 HZ NSC M01/M08 Q1029 NOSIG
ZBSJ,2016-01-04 12:00,ZBSJ 041200Z 03002MPS 4000 HZ NSC M00/M08 Q1030 NOSIG
ZBSJ,2016-01-04 13:00,ZBSJ 041300Z 05002MPS 4500 HZ NSC M01/M08 Q1030 NOSIG
ZBSJ,2016-01-04 14:00,ZBSJ 041400Z 02001MPS 4500 HZ NSC M01/M08 Q1030 NOSIG
ZBSJ,2016-01-04 15:00,ZBSJ 041500Z 02001MPS 4000 HZ NSC M04/M09 Q1031 NOSIG
ZBSJ,2016-01-04 16:00,ZBSJ 041600Z 02001MPS 3500 HZ NSC M03/M09 Q1030 NOSIG
ZBSJ,2016-01-04 17:00,ZBSJ 041700Z 01001MPS 3500 HZ NSC M03/M09 Q1030 NOSIG
ZBSJ,2016-01-04 18:00,ZBSJ 041800Z 35001MPS 3500 HZ NSC M03/M09 Q1030 NOSIG
ZBSJ,2016-01-04 19:00,ZBSJ 041900Z 34002MPS 3000 HZ NSC M03/M08 Q1030 NOSIG
ZBSJ,2016-01-04 20:00,ZBSJ 042000Z 29001MPS 3000 HZ NSC M03/M08 Q1030 NOSIG
ZBSJ,2016-01-04 21:00,ZBSJ 042100Z 27001MPS 3000 HZ NSC M02/M07 Q1030 NOSIG
ZBSJ,2016-01-04 22:00,ZBSJ 042200Z 22001MPS 3000 BR NSC M03/M06 Q1030 NOSIG
ZBSJ,2016-01-04 23:00,ZBSJ 042300Z 09001MPS 2700 HZ NSC M03/M07 Q1030 NOSIG
ZBSJ,2016-01-05 00:00,ZBSJ 050000Z 09002MPS 1600 HZ NSC M03/M08 Q1031 NOSIG
ZBSJ,2016-01-05 01:00,ZBSJ 050100Z 06002MPS 1400 R15/1300N HZ NSC M03/M07 Q1032 BECMG 1600
ZBSJ,2016-01-05 02:00,ZBSJ 050200Z 10002MPS 2000 HZ NSC M02/M10 Q1032 BECMG 3500
ZBSJ,2016-01-05 03:00,ZBSJ 050300Z 08002MPS 4000 HZ NSC M01/M11 Q1031 NOSIG
ZBSJ,2016-01-05 04:00,ZBSJ 050400Z 08002MPS 5000 HZ NSC 00/M12 Q1030 NOSIG
ZBSJ,2016-01-05 05:00,ZBSJ 050500Z 14001MPS 5000 HZ NSC 02/M11 Q1029 NOSIG
ZBSJ,2016-01-05 06:00,ZBSJ 050600Z 27001MPS 4500 HZ NSC 03/M11 Q1028 NOSIG
ZBSJ,2016-01-05 07:00,ZBSJ 050700Z 20003MPS 170V230 6000 NSC 03/M13 Q1027 NOSIG
ZBSJ,2016-01-05 08:00,ZBSJ 050800Z 18003MPS 7000 NSC 02/M14 Q1027 NOSIG
ZBSJ,2016-01-05 09:00,ZBSJ 050900Z 18004MPS 6000 NSC 00/M12 Q1027 NOSIG
ZBSJ,2016-01-05 10:00,ZBSJ 051000Z 17003MPS 6000 NSC M02/M11 Q1028 NOSIG
ZBSJ,2016-01-05 11:00,ZBSJ 051100Z 10001MPS 6000 NSC M03/M10 Q1028 NOSIG
ZBSJ,2016-01-05 12:00,ZBSJ 051200Z 00000MPS 4000 HZ NSC M05/M10 Q1029 BECMG TL1330 2500 HZ
ZBSJ,2016-01-05 13:00,ZBSJ 051300Z 00000MPS 2000 R15/1300D HZ NSC M06/M10 Q1029 BECMG TL1430 1200 HZ
ZBSJ,2016-01-05 14:00,ZBSJ 051400Z 06001MPS 2000 R15/1100VP2000D HZ NSC M05/M10 Q1029 NOSIG
ZBSJ,2016-01-05 15:00,ZBSJ 051500Z 03001MPS 2000 HZ NSC M06/M09 Q1029 NOSIG
ZBSJ,2016-01-05 16:00,ZBSJ 051600Z 07001MPS 1600 HZ NSC M06/M10 Q1029 NOSIG
ZBSJ,2016-01-05 17:00,ZBSJ 051700Z 28001MPS 1800 HZ NSC M05/M09 Q1029 NOSIG
ZBSJ,2016-01-05 18:00,ZBSJ 051800Z 33002MPS 2000 HZ NSC M05/M08 Q1029 NOSIG
ZBSJ,2016-01-05 19:00,ZBSJ 051900Z 32002MPS 2000 HZ NSC M06/M09 Q1029 NOSIG
ZBSJ,2016-01-05 20:00,ZBSJ 052000Z 32003MPS 2500 BR NSC M07/M09 Q1029 NOSIG
ZBSJ,2016-01-05 21:00,ZBSJ 052100Z 32003MPS 2500 BR NSC M07/M10 Q1028 NOSIG
ZBSJ,2016-01-05 22:00,ZBSJ 052200Z 28001MPS 2500 BR NSC M06/M08 Q1029 NOSIG
ZBSJ,2016-01-05 23:00,ZBSJ 052300Z 03001MPS 2500 BR NSC M08/M09 Q1029 BECMG 1400 HZ
ZBSJ,2016-01-06 00:00,ZBSJ 060000Z 33001MPS 1400 R15/1400N BR NSC M09/M11 Q1030 BECMG TL0130 1500
ZBSJ,2016-01-06 01:00,ZBSJ 060100Z 01002MPS 0800 R15/1000D FZFG NSC M06/M08 Q1031 NOSIG
ZBSJ,2016-01-06 02:00,ZBSJ 060200Z 04001MPS 0800 R15/0900N FZFG NSC M03/M06 Q1032 NOSIG
ZBSJ,2016-01-06 03:00,ZBSJ 060300Z 04003MPS 1000 R15/1100D HZ NSC M00/M09 Q1032 NOSIG
ZBSJ,2016-01-06 04:00,ZBSJ 060400Z 02001MPS 1200 R15/1300N HZ NSC 01/M10 Q1031 NOSIG
ZBSJ,2016-01-06 05:00,ZBSJ 060500Z 08003MPS 1500 R15/1400U HZ NSC 02/M10 Q1030 NOSIG
ZBSJ,2016-01-06 06:00,ZBSJ 060600Z 09003MPS 050V130 3500 HZ NSC 03/M13 Q1029 NOSIG
ZBSJ,2016-01-06 07:00,ZBSJ 060700Z 09001MPS 6000 NSC 04/M14 Q1029 NOSIG
ZBSJ,2016-01-06 08:00,ZBSJ 060800Z 11001MPS 7000 NSC 04/M15 Q1029 NOSIG
ZBSJ,2016-01-06 09:00,ZBSJ 060900Z 09002MPS 3500 HZ NSC 01/M14 Q1029 NOSIG
ZBSJ,2016-01-06 10:00,ZBSJ 061000Z 14001MPS 3500 HZ NSC M02/M12 Q1030 NOSIG
ZBSJ,2016-01-06 11:00,ZBSJ 061100Z 06002MPS 2200 HZ NSC M05/M12 Q1031 NOSIG
ZBSJ,2016-01-06 12:00,ZBSJ 061200Z 04001MPS 2000 HZ NSC M06/M11 Q1031 NOSIG
ZBSJ,2016-01-06 13:00,ZBSJ 061300Z 07001MPS 1800 HZ NSC M05/M11 Q1032 NOSIG
ZBSJ,2016-01-06 14:00,ZBSJ 061400Z 00000MPS 1800 HZ NSC M06/M12 Q1032 NOSIG
ZBSJ,2016-01-06 15:00,ZBSJ 061500Z 30002MPS 1800 HZ NSC M07/M12 Q1033 NOSIG
ZBSJ,2016-01-06 16:00,ZBSJ 061600Z 33002MPS 1800 HZ NSC M07/M11 Q1033 NOSIG
ZBSJ,2016-01-06 17:00,ZBSJ 061700Z 32002MPS 1600 HZ NSC M07/M11 Q1033 NOSIG
ZBSJ,2016-01-06 18:00,ZBSJ 061800Z 30003MPS 2000 HZ NSC M08/M12 Q1033 NOSIG
ZBSJ,2016-01-06 19:00,ZBSJ 061900Z 29002MPS 2000 HZ NSC M08/M11 Q1033 NOSIG
ZBSJ,2016-01-06 20:00,ZBSJ 062000Z 07003MPS 030V100 3000 HZ NSC M06/M10 Q1033 NOSIG
ZBSJ,2016-01-06 21:00,ZBSJ 062100Z 16001MPS 2500 HZ NSC M08/M12 Q1033 NOSIG
ZBSJ,2016-01-06 22:00,ZBSJ 062200Z 12001MPS 2500 HZ NSC M07/M12 Q1033 NOSIG
ZBSJ,2016-01-06 23:00,ZBSJ 062300Z 10001MPS 2500 HZ NSC M08/M13 Q1033 BECMG TL0030 3000
ZBSJ,2016-01-07 00:00,ZBSJ 070000Z 15001MPS 2000 HZ NSC M08/M13 Q1034 NOSIG
ZBSJ,2016-01-07 01:00,ZBSJ 070100Z 00000MPS 1400 R15/1600D HZ NSC M06/M10 Q1034 NOSIG
ZBSJ,2016-01-07 02:00,ZBSJ 070200Z 18003MPS 3000 HZ NSC M03/M11 Q1034 NOSIG
ZBSJ,2016-01-07 03:00,ZBSJ 070300Z 19004MPS 8000 NSC M01/M14 Q1033 NOSIG
ZBSJ,2016-01-07 04:00,ZBSJ 070400Z 19003MPS 160V230 CAVOK 00/M15 Q1032 NOSIG
ZBSJ,2016-01-07 05:00,ZBSJ 070500Z 19004MPS CAVOK 01/M15 Q1030 NOSIG
ZBSJ,2016-01-07 06:00,ZBSJ 070600Z 20004MPS 160V220 CAVOK 01/M15 Q1029 NOSIG
ZBSJ,2016-01-07 07:00,ZBSJ 070700Z 19003MPS 140V230 7000 NSC 02/M13 Q1029 NOSIG
ZBSJ,2016-01-07 08:00,ZBSJ 070800Z 16004MPS 7000 NSC 01/M14 Q1028 NOSIG
ZBSJ,2016-01-07 09:00,ZBSJ 070900Z 16003MPS 4000 HZ NSC M02/M12 Q1028 NOSIG
ZBSJ,2016-01-07 10:00,ZBSJ 071000Z 18002MPS 4000 HZ NSC M03/M12 Q1028 NOSIG
ZBSJ,2016-01-07 11:00,ZBSJ 071100Z 17002MPS 4000 HZ NSC M06/M13 Q1029 NOSIG
ZBSJ,2016-01-07 12:00,ZBSJ 071200Z 22002MPS 4000 HZ NSC M04/M12 Q1029 NOSIG
ZBSJ,2016-01-07 13:00,ZBSJ 071300Z 21002MPS 3500 HZ NSC M06/M12 Q1029 NOSIG
ZBSJ,2016-01-07 14:00,ZBSJ 071400Z 24003MPS 3000 HZ NSC M06/M11 Q1028 NOSIG
ZBSJ,2016-01-07 15:00,ZBSJ 071500Z 31001MPS 2500 HZ NSC M07/M12 Q1028 NOSIG
ZBSJ,2016-01-07 16:00,ZBSJ 071600Z 29002MPS 2300 HZ NSC M08/M12 Q1028 NOSIG
ZBSJ,2016-01-07 17:00,ZBSJ 071700Z 30002MPS 2200 HZ NSC M07/M11 Q1028 NOSIG
ZBSJ,2016-01-07 18:00,ZBSJ 071800Z 31002MPS 2000 HZ NSC M09/M13 Q1028 NOSIG
ZBSJ,2016-01-07 19:00,ZBSJ 071900Z 29002MPS 2000 HZ NSC M06/M11 Q1027 NOSIG
ZBSJ,2016-01-07 20:00,ZBSJ 072000Z 30002MPS 2700 HZ NSC M07/M12 Q1027 NOSIG
ZBSJ,2016-01-07 21:00,ZBSJ 072100Z 30002MPS 3000 HZ NSC M07/M11 Q1027 NOSIG
ZBSJ,2016-01-07 22:00,ZBSJ 072200Z 28002MPS 4000 HZ NSC M07/M11 Q1027 NOSIG
ZBSJ,2016-01-07 23:00,ZBSJ 072300Z 28002MPS 250V310 4000 HZ NSC M07/M12 Q1027 NOSIG
ZBSJ,2016-01-08 00:00,ZBSJ 080000Z 28002MPS 2000 HZ NSC M06/M12 Q1028 BECMG 3500
ZBSJ,2016-01-08 01:00,ZBSJ 080100Z 30002MPS 2500 HZ NSC M03/M11 Q1029 NOSIG
ZBSJ,2016-01-08 02:00,ZBSJ 080200Z 33002MPS 2300 HZ NSC M00/M10 Q1029 NOSIG
ZBSJ,2016-01-08 03:00,ZBSJ 080300Z 04003MPS 340V060 6000 NSC 01/M14 Q1029 NOSIG
ZBSJ,2016-01-08 04:00,ZBSJ 080400Z 06003MPS 020V090 6000 NSC 01/M14 Q1028 NOSIG
ZBSJ,2016-01-08 05:00,ZBSJ 080500Z 09002MPS 050V160 8000 NSC 02/M17 Q1027 NOSIG
ZBSJ,2016-01-08 06:00,ZBSJ 080600Z 11002MPS 070V150 5000 HZ NSC 02/M15 Q1027 NOSIG
ZBSJ,2016-01-08 07:00,ZBSJ 080700Z 13003MPS 4500 HZ NSC 03/M16 Q1026 NOSIG
ZBSJ,2016-01-08 08:00,ZBSJ 080800Z 13003MPS 5000 HZ NSC 03/M16 Q1026 NOSIG
ZBSJ,2016-01-08 09:00,ZBSJ 080900Z 14002MPS 4000 HZ NSC 00/M15 Q1026 NOSIG
ZBSJ,2016-01-08 10:00,ZBSJ 081000Z 12002MPS 4000 HZ NSC M02/M13 Q1026 BECMG TL1130 2700 HZ
ZBSJ,2016-01-08 11:00,ZBSJ 081100Z 11001MPS 3500 HZ NSC M04/M13 Q1027 BECMG TL1230 2700 HZ
ZBSJ,2016-01-08 12:00,ZBSJ 081200Z 08001MPS 2500 HZ NSC M06/M13 Q1027 NOSIG
ZBSJ,2016-01-08 13:00,ZBSJ 081300Z 12001MPS 2000 HZ NSC M07/M13 Q1027 NOSIG
ZBSJ,2016-01-08 14:00,ZBSJ 081400Z 23001MPS 1800 HZ NSC M07/M14 Q1027 NOSIG
ZBSJ,2016-01-08 15:00,ZBSJ 081500Z 19001MPS 1800 HZ NSC M08/M13 Q1027 NOSIG
ZBSJ,2016-01-08 16:00,ZBSJ 081600Z 00000MPS 1600 HZ NSC M08/M12 Q1027 NOSIG
ZBSJ,2016-01-08 17:00,ZBSJ 081700Z 20002MPS 1600 HZ NSC M08/M14 Q1026 NOSIG
ZBSJ,2016-01-08 18:00,ZBSJ 081800Z 29001MPS 1600 HZ NSC M09/M13 Q1026 NOSIG
ZBSJ,2016-01-08 19:00,ZBSJ 081900Z 32001MPS 1400 R15/1700N HZ NSC M09/M13 Q1026 NOSIG
ZBSJ,2016-01-08 20:00,ZBSJ 082000Z 29002MPS 1500 HZ NSC M09/M13 Q1025 NOSIG
ZBSJ,2016-01-08 21:00,ZBSJ 082100Z 31003MPS 1800 HZ NSC M10/M13 Q1025 NOSIG
ZBSJ,2016-01-08 22:00,ZBSJ 082200Z 25002MPS 2000 HZ NSC M08/M12 Q1025 NOSIG
ZBSJ,2016-01-08 23:00,ZBSJ 082300Z 29001MPS 2500 HZ NSC M08/M12 Q1025 BECMG 1400 HZ
ZBSJ,2016-01-09 00:00,ZBSJ 090000Z 31002MPS 1600 HZ NSC M09/M12 Q1025 BECMG TL0130 1400 HZ
ZBSJ,2016-01-09 01:00,ZBSJ 090100Z 25001MPS 1600 R15/1400D HZ NSC M06/M10 Q1025 BECMG TL0230 3000
ZBSJ,2016-01-09 02:00,ZBSJ 090200Z 30002MPS 1600 R33/1300D HZ NSC M02/M10 Q1026 BECMG TL0330 3000
ZBSJ,2016-01-09 03:00,ZBSJ 090300Z 22003MPS 2000 HZ NSC 01/M11 Q1025 BECMG TL0330 3000
ZBSJ,2016-01-09 04:00,ZBSJ 090400Z 22002MPS 180V310 3000 HZ NSC 04/M12 Q1024 NOSIG
ZBSJ,2016-01-09 05:00,ZBSJ 090500Z 20002MPS 2500 HZ NSC 05/M11 Q1023 NOSIG
ZBSJ,2016-01-09 06:00,ZBSJ 090600Z 18002MPS 150V210 2200 HZ NSC 06/M12 Q1022 NOSIG
ZBSJ,2016-01-09 07:00,ZBSJ 090700Z 17003MPS 2000 HZ NSC 06/M12 Q1022 NOSIG
ZBSJ,2016-01-09 08:00,ZBSJ 090800Z 17002MPS 1800 HZ NSC 05/M11 Q1022 NOSIG
ZBSJ,2016-01-09 09:00,ZBSJ 090900Z 13002MPS 1400 R15/1800N HZ NSC 03/M11 Q1022 NOSIG
ZBSJ,2016-01-09 10:00,ZBSJ 091000Z 15002MPS 2200 HZ NSC 00/M10 Q1023 NOSIG
ZBSJ,2016-01-09 11:00,ZBSJ 091100Z 17003MPS 2000 HZ NSC M01/M08 Q1024 NOSIG
ZBSJ,2016-01-09 12:00,ZBSJ 091200Z 18001MPS 1800 HZ NSC M04/M09 Q1024 NOSIG
ZBSJ,2016-01-09 13:00,ZBSJ 091300Z 12001MPS 1400 R15/1500D BR NSC M05/M07 Q1024 NOSIG
ZBSJ,2016-01-09 14:00,ZBSJ 091400Z 05001MPS 1200 R15/1200U BR NSC M05/M08 Q1025 NOSIG
ZBSJ,2016-01-09 15:00,ZBSJ 091500Z 03001MPS 0900 R15/1400N FZFG NSC M06/M08 Q1025 NOSIG
ZBSJ,2016-01-09 16:00,ZBSJ 091600Z 00000MPS 0800 R15/1200N FZFG NSC M07/M09 Q1025 NOSIG
ZBSJ,2016-01-09 17:00,ZBSJ 091700Z 33001MPS 0800 R15/1100N FZFG NSC M08/M09 Q1025 NOSIG
ZBSJ,2016-01-09 18:00,ZBSJ 091800Z 00000MPS 0800 R15/1100N FZFG NSC M08/M09 Q1025 NOSIG
ZBSJ,2016-01-09 19:00,ZBSJ 091900Z 24001MPS 0800 R15/1100N FZFG NSC M08/M10 Q1026 NOSIG
ZBSJ,2016-01-09 20:00,ZBSJ 092000Z 26001MPS 0800 R15/1300D FZFG NSC M08/M10 Q1026 NOSIG
ZBSJ,2016-01-09 21:00,ZBSJ 092100Z 32002MPS 1000 R15/1300D BR NSC M08/M11 Q1026 NOSIG
ZBSJ,2016-01-09 22:00,ZBSJ 092200Z 32003MPS 1500 BR NSC M08/M11 Q1026 NOSIG
ZBSJ,2016-01-09 23:00,ZBSJ 092300Z 33003MPS 1700 BR NSC M07/M11 Q1027 NOSIG
ZBSJ,2016-01-10 00:00,ZBSJ 100000Z 33003MPS 1400 R33/1500N BR NSC M08/M11 Q1027 BECMG 1600
ZBSJ,2016-01-10 01:00,ZBSJ 100100Z 32002MPS 1400 R33/1500N BR NSC M05/M09 Q1029 NOSIG
ZBSJ,2016-01-10 02:00,ZBSJ 100200Z 33002MPS 1400 R33/1200N HZ NSC M03/M08 Q1029 NOSIG
ZBSJ,2016-01-10 03:00,ZBSJ 100300Z 04004MPS 010V070 1500 HZ NSC M01/M10 Q1029 NOSIG
ZBSJ,2016-01-10 04:00,ZBSJ 100400Z 04004MPS 1800 HZ NSC 01/M11 Q1029 NOSIG
ZBSJ,2016-01-10 05:00,ZBSJ 100500Z 03004MPS 1800 HZ NSC 02/M11 Q1028 NOSIG
ZBSJ,2016-01-10 06:00,ZBSJ 100600Z 06004MPS 1700 HZ NSC 02/M10 Q1028 NOSIG
ZBSJ,2016-01-10 07:00,ZBSJ 100700Z 06005MPS 1600 R33/1400N HZ NSC 02/M10 Q1028 NOSIG
ZBSJ,2016-01-10 08:00,ZBSJ 100800Z 06005MPS 1500 R33/1400U HZ NSC 01/M07 Q1029 NOSIG
ZBSJ,2016-01-10 09:00,ZBSJ 100900Z 04003MPS 1800 HZ NSC M00/M06 Q1030 NOSIG
ZBSJ,2016-01-10 10:00,ZBSJ 101000Z 03003MPS 4000 HZ NSC M00/M06 Q1031 NOSIG
ZBSJ,2016-01-10 11:00,ZBSJ 101100Z 05003MPS 5000 HZ NSC M00/M05 Q1032 NOSIG
ZBSJ,2016-01-10 12:00,ZBSJ 101200Z 05003MPS 5000 HZ NSC M01/M05 Q1033 NOSIG
ZBSJ,2016-01-10 13:00,ZBSJ 101300Z 04003MPS 5000 HZ NSC M01/M05 Q1033 NOSIG
ZBSJ,2016-01-10 14:00,ZBSJ 101400Z 05002MPS 4500 HZ NSC M03/M06 Q1034 NOSIG
ZBSJ,2016-01-10 15:00,ZBSJ 101500Z 02001MPS 3000 BR NSC M05/M06 Q1034 NOSIG
ZBSJ,2016-01-10 16:00,ZBSJ 101600Z 36001MPS 3000 BR NSC M06/M07 Q1035 NOSIG
ZBSJ,2016-01-10 17:00,ZBSJ 101700Z 30001MPS 2700 BR NSC M07/M08 Q1034 NOSIG
ZBSJ,2016-01-10 18:00,ZBSJ 101800Z 36001MPS 2500 BR NSC M08/M09 Q1035 NOSIG
ZBSJ,2016-01-10 19:00,ZBSJ 101900Z 00000MPS 2200 BR NSC M07/M08 Q1035 NOSIG
ZBSJ,2016-01-10 20:00,ZBSJ 102000Z 07001MPS 2500 BR NSC M06/M07 Q1034 NOSIG
ZBSJ,2016-01-10 21:00,ZBSJ 102100Z 10002MPS 4000 BR NSC M04/M06 Q1035 NOSIG
ZBSJ,2016-01-10 22:00,ZBSJ 102200Z 09003MPS 4000 BR NSC M04/M06 Q1035 NOSIG
ZBSJ,2016-01-10 23:00,ZBSJ 102300Z 08003MPS 5000 BR NSC M06/M08 Q1035 NOSIG
ZBSJ,2016-01-11 00:00,ZBSJ 110000Z 06002MPS 3000 HZ NSC M07/M10 Q1036 NOSIG
ZBSJ,2016-01-11 01:00,ZBSJ 110100Z 08002MPS 3000 HZ NSC M05/M12 Q1037 NOSIG
ZBSJ,2016-01-11 02:00,ZBSJ 110200Z 11003MPS 6000 NSC M05/M14 Q1037 NOSIG
ZBSJ,2016-01-11 03:00,ZBSJ 110300Z 08004MPS 060V120 CAVOK M04/M16 Q1037 NOSIG
ZBSJ,2016-01-11 04:00,ZBSJ 110400Z 08002MPS 030V120 CAVOK M03/M15 Q1036 NOSIG
ZBSJ,2016-01-11 05:00,ZBSJ 110500Z 06002MPS 020V120 CAVOK M03/M16 Q1035 NOSIG
ZBSJ,2016-01-11 06:00,ZBSJ 110600Z 15001MPS CAVOK M02/M16 Q1034 NOSIG
ZBSJ,2016-01-11 07:00,ZBSJ 110700Z 20002MPS CAVOK M02/M16 Q1034 NOSIG
ZBSJ,2016-01-11 08:00,ZBSJ 110800Z 14001MPS CAVOK M02/M16 Q1033 NOSIG
ZBSJ,2016-01-11 09:00,ZBSJ 110900Z 13001MPS CAVOK M03/M15 Q1034 NOSIG
ZBSJ,2016-01-11 10:00,ZBSJ 111000Z 10001MPS 8000 NSC M05/M15 Q1034 NOSIG
ZBSJ,2016-01-11 11:00,ZBSJ 111100Z 11001MPS 8000 NSC M06/M15 Q1035 NOSIG
ZBSJ,2016-01-11 12:00,ZBSJ 111200Z 08001MPS 6000 NSC M08/M15 Q1035 NOSIG
ZBSJ,2016-01-11 13:00,ZBSJ 111300Z 06001MPS 4000 HZ NSC M07/M15 Q1035 BECMG TL1430 2000 HZ
ZBSJ,2016-01-11 14:00,ZBSJ 111400Z 09001MPS 2200 HZ NSC M08/M15 Q1035 NOSIG
ZBSJ,2016-01-11 15:00,ZBSJ 111500Z 31001MPS 2200 HZ NSC M10/M15 Q1035 NOSIG
ZBSJ,2016-01-11 16:00,ZBSJ 111600Z 32001MPS 2000 HZ NSC M10/M15 Q1035 NOSIG
ZBSJ,2016-01-11 17:00,ZBSJ 111700Z 31001MPS 2000 HZ NSC M09/M14 Q1035 NOSIG
ZBSJ,2016-01-11 18:00,ZBSJ 111800Z 16001MPS 2000 HZ NSC M10/M14 Q1035 NOSIG
ZBSJ,2016-01-11 19:00,ZBSJ 111900Z 24001MPS 2000 HZ NSC M10/M13 Q1035 NOSIG
ZBSJ,2016-01-11 20:00,ZBSJ 112000Z 29002MPS 2000 HZ NSC M10/M12 Q1034 NOSIG
ZBSJ,2016-01-11 21:00,ZBSJ 112100Z 33003MPS 2000 BR NSC M11/M13 Q1034 NOSIG
ZBSJ,2016-01-11 22:00,ZBSJ 112200Z 34002MPS 2200 BR NSC M11/M13 Q1034 NOSIG
ZBSJ,2016-01-11 23:00,ZBSJ 112300Z 31001MPS 2200 BR NSC M11/M12 Q1034 BECMG 1400 BR
ZBSJ,2016-01-12 00:00,ZBSJ 120000Z 28001MPS 1500 BR NSC M11/M12 Q1034 BECMG 1400 BR
ZBSJ,2016-01-12 01:00,ZBSJ 120100Z 32002MPS 1000 R15/0900U BR NSC M07/M09 Q1034 BECMG 1600
ZBSJ,2016-01-12 02:00,ZBSJ 120200Z 30002MPS 1600 R33/1300D HZ NSC M06/M09 Q1034 NOSIG
ZBSJ,2016-01-12 03:00,ZBSJ 120300Z 34002MPS 290V020 2700 HZ NSC M04/M13 Q1034 BECMG 3500
ZBSJ,2016-01-12 04:00,ZBSJ 120400Z 30001MPS 4000 HZ NSC M02/M15 Q1033 NOSIG
ZBSJ,2016-01-12 05:00,ZBSJ 120500Z 28001MPS 5000 HZ NSC M00/M16 Q1031 NOSIG
ZBSJ,2016-01-12 06:00,ZBSJ 120600Z 30001MPS 8000 NSC M00/M17 Q1030 NOSIG
ZBSJ,2016-01-12 07:00,ZBSJ 120700Z 25002MPS 8000 NSC 00/M16 Q1029 NOSIG
ZBSJ,2016-01-12 08:00,ZBSJ 120800Z 20002MPS 170V230 8000 NSC 00/M16 Q1029 NOSIG
ZBSJ,2016-01-12 09:00,ZBSJ 120900Z 16002MPS 5000 HZ NSC M02/M14 Q1029 NOSIG
ZBSJ,2016-01-12 10:00,ZBSJ 121000Z 18002MPS 5000 HZ NSC M04/M14 Q1029 NOSIG
ZBSJ,2016-01-12 11:00,ZBSJ 121100Z 19002MPS 3500 HZ NSC M05/M15 Q1029 BECMG 2500 HZ
ZBSJ,2016-01-12 12:00,ZBSJ 121200Z 20001MPS 3000 HZ NSC M07/M14 Q1029 BECMG 2500 HZ
ZBSJ,2016-01-12 13:00,ZBSJ 121300Z 24002MPS 2500 HZ NSC M08/M15 Q1029 NOSIG
ZBSJ,2016-01-12 14:00,ZBSJ 121400Z 36001MPS 2500 HZ NSC M07/M13 Q1028 NOSIG
ZBSJ,2016-01-12 15:00,ZBSJ 121500Z 18002MPS 2000 HZ NSC M09/M13 Q1028 NOSIG
ZBSJ,2016-01-12 16:00,ZBSJ 121600Z 27001MPS 2000 HZ NSC M08/M14 Q1028 NOSIG
ZBSJ,2016-01-12 17:00,ZBSJ 121700Z 21001MPS 2500 HZ NSC M08/M13 Q1027 NOSIG
ZBSJ,2016-01-12 18:00,ZBSJ 121800Z 29003MPS 2000 HZ NSC M09/M13 Q1027 NOSIG
ZBSJ,2016-01-12 19:00,ZBSJ 121900Z 28003MPS 2000 HZ NSC M10/M13 Q1027 NOSIG
ZBSJ,2016-01-12 20:00,ZBSJ 122000Z 34002MPS 2000 HZ NSC M11/M14 Q1026 NOSIG
ZBSJ,2016-01-12 21:00,ZBSJ 122100Z 32003MPS 3000 HZ NSC M10/M13 Q1026 NOSIG
ZBSJ,2016-01-12 22:00,ZBSJ 122200Z 27001MPS 3000 HZ NSC M09/M13 Q1025 NOSIG
ZBSJ,2016-01-12 23:00,ZBSJ 122300Z 25001MPS 3500 HZ NSC M11/M15 Q1026 NOSIG
ZBSJ,2016-01-13 00:00,ZBSJ 130000Z 30001MPS 2500 HZ NSC M10/M15 Q1026 NOSIG
ZBSJ,2016-01-13 01:00,ZBSJ 130100Z 29001MPS 2500 HZ NSC M05/M11 Q1026 NOSIG
ZBSJ,2016-01-13 02:00,ZBSJ 130200Z 28003MPS 250V310 2500 HZ NSC M01/M13 Q1026 NOSIG
ZBSJ,2016-01-13 03:00,ZBSJ 130300Z 27005MPS CAVOK 03/M20 Q1025 NOSIG
ZBSJ,2016-01-13 04:00,ZBSJ 130400Z 27005MPS CAVOK 05/M20 Q1024 NOSIG
ZBSJ,2016-01-13 05:00,ZBSJ 130500Z 28005MPS CAVOK 06/M21 Q1022 NOSIG
ZBSJ,2016-01-13 06:00,ZBSJ 130600Z 31002MPS 240V350 CAVOK 07/M22 Q1021 NOSIG
ZBSJ,2016-01-13 07:00,ZBSJ 130700Z 27002MPS CAVOK 08/M22 Q1021 NOSIG
ZBSJ,2016-01-13 08:00,ZBSJ 130800Z 23002MPS 200V270 CAVOK 07/M23 Q1020 NOSIG
ZBSJ,2016-01-13 09:00,ZBSJ 130900Z 17003MPS 160V220 8000 NSC 04/M22 Q1021 NOSIG
ZBSJ,2016-01-13 10:00,ZBSJ 131000Z 12001MPS 7000 NSC 01/M19 Q1021 NOSIG
ZBSJ,2016-01-13 11:00,ZBSJ 131100Z 16002MPS 5000 HZ NSC M01/M17 Q1021 NOSIG
ZBSJ,2016-01-13 12:00,ZBSJ 131200Z 14002MPS 3500 HZ NSC M02/M18 Q1021 NOSIG
ZBSJ,2016-01-13 13:00,ZBSJ 131300Z 00000MPS 3000 HZ NSC M06/M18 Q1022 NOSIG
ZBSJ,2016-01-13 14:00,ZBSJ 131400Z 02003MPS 2000 HZ NSC M07/M15 Q1022 NOSIG
ZBSJ,2016-01-13 15:00,ZBSJ 131500Z 32002MPS 2300 HZ NSC M07/M16 Q1022 NOSIG
ZBSJ,2016-01-13 16:00,ZBSJ 131600Z 31002MPS 2300 HZ NSC M08/M16 Q1022 NOSIG
ZBSJ,2016-01-13 17:00,ZBSJ 131700Z 26001MPS 2000 HZ NSC M07/M16 Q1023 NOSIG
ZBSJ,2016-01-13 18:00,ZBSJ 131800Z 26001MPS 2000 HZ NSC M09/M16 Q1022 NOSIG
ZBSJ,2016-01-13 19:00,ZBSJ 131900Z 29002MPS 2500 HZ NSC M10/M17 Q1022 NOSIG
ZBSJ,2016-01-13 20:00,ZBSJ 132000Z 29001MPS 2500 HZ NSC M10/M16 Q1022 NOSIG
ZBSJ,2016-01-13 21:00,ZBSJ 132100Z 29002MPS 260V320 3000 HZ NSC M08/M17 Q1022 NOSIG
ZBSJ,2016-01-13 22:00,ZBSJ 132200Z 31003MPS 3000 HZ NSC M07/M15 Q1022 NOSIG
ZBSJ,2016-01-13 23:00,ZBSJ 132300Z 32002MPS 3000 HZ NSC M10/M16 Q1022 NOSIG
ZBSJ,2016-01-14 00:00,ZBSJ 140000Z 23002MPS 2200 HZ NSC M09/M16 Q1022 BECMG TL0130 3000
ZBSJ,2016-01-14 01:00,ZBSJ 140100Z 26001MPS 1600 FU NSC M04/M12 Q1022 NOSIG
ZBSJ,2016-01-14 02:00,ZBSJ 140200Z 27003MPS 4000 HZ NSC M00/M18 Q1022 NOSIG
ZBSJ,2016-01-14 03:00,ZBSJ 140300Z 28004MPS CAVOK 04/M21 Q1022 NOSIG
ZBSJ,2016-01-14 04:00,ZBSJ 140400Z 32004MPS CAVOK 06/M23 Q1020 NOSIG
ZBSJ,2016-01-14 05:00,ZBSJ 140500Z 31003MPS 260V360 CAVOK 07/M23 Q1019 NOSIG
ZBSJ,2016-01-14 06:00,ZBSJ 140600Z 32002MPS CAVOK 07/M24 Q1018 NOSIG
ZBSJ,2016-01-14 07:00,ZBSJ 140700Z 34001MPS CAVOK 08/M25 Q1017 NOSIG
ZBSJ,2016-01-14 08:00,ZBSJ 140800Z 32003MPS 290V350 CAVOK 08/M24 Q1017 NOSIG
ZBSJ,2016-01-14 09:00,ZBSJ 140900Z 07003MPS 8000 NSC 04/M21 Q1018 NOSIG
ZBSJ,2016-01-14 10:00,ZBSJ 141000Z 05001MPS 6000 NSC 02/M22 Q1018 NOSIG
ZBSJ,2016-01-14 11:00,ZBSJ 141100Z 17003MPS 5000 HZ NSC 00/M21 Q1018 NOSIG
ZBSJ,2016-01-14 12:00,ZBSJ 141200Z 20001MPS 4000 HZ NSC M01/M19 Q1018 NOSIG
ZBSJ,2016-01-14 13:00,ZBSJ 141300Z 05002MPS 2500 HZ NSC M04/M18 Q1018 NOSIG
ZBSJ,2016-01-14 14:00,ZBSJ 141400Z 33001MPS 2000 HZ NSC M06/M17 Q1019 NOSIG
ZBSJ,2016-01-14 15:00,ZBSJ 141500Z 31002MPS 2000 HZ NSC M04/M17 Q1018 NOSIG
ZBSJ,2016-01-14 16:00,ZBSJ 141600Z 31003MPS 2000 HZ NSC M08/M16 Q1018 NOSIG
ZBSJ,2016-01-14 17:00,ZBSJ 141700Z 32002MPS 2500 HZ NSC M06/M16 Q1018 NOSIG
ZBSJ,2016-01-14 18:00,ZBSJ 141800Z 33002MPS 2700 HZ NSC M07/M17 Q1018 NOSIG
ZBSJ,2016-01-14 19:00,ZBSJ 141900Z 31001MPS 3500 HZ NSC M07/M16 Q1018 NOSIG
ZBSJ,2016-01-14 20:00,ZBSJ 142000Z 31001MPS 4000 HZ NSC M08/M16 Q1017 NOSIG
ZBSJ,2016-01-14 21:00,ZBSJ 142100Z 28001MPS 4000 HZ NSC M08/M15 Q1017 NOSIG
ZBSJ,2016-01-14 22:00,ZBSJ 142200Z 33002MPS 4000 HZ NSC M09/M15 Q1017 NOSIG
ZBSJ,2016-01-14 23:00,ZBSJ 142300Z 33001MPS 4000 HZ NSC M11/M16 Q1017 NOSIG
ZBSJ,2016-01-15 00:00,ZBSJ 150000Z 35002MPS 2200 HZ NSC M09/M15 Q1017 BECMG 3000
ZBSJ,2016-01-15 01:00,ZBSJ 150100Z 33002MPS 2200 HZ NSC M05/M12 Q1018 NOSIG
ZBSJ,2016-01-15 02:00,ZBSJ 150200Z 35001MPS 2200 HZ NSC M01/M13 Q1018 NOSIG
ZBSJ,2016-01-15 03:00,ZBSJ 150300Z 01001MPS 2700 HZ NSC 02/M16 Q1018 NOSIG
ZBSJ,2016-01-15 04:00,ZBSJ 150400Z 25001MPS 6000 NSC 04/M17 Q1017 NOSIG
ZBSJ,2016-01-15 05:00,ZBSJ 150500Z 29001MPS 8000 NSC 06/M18 Q1016 NOSIG
ZBSJ,2016-01-15 06:00,ZBSJ 150600Z 36001MPS CAVOK 06/M19 Q1014 NOSIG
ZBSJ,2016-01-15 07:00,ZBSJ 150700Z 02002MPS 8000 NSC 06/M20 Q1014 NOSIG
ZBSJ,2016-01-15 08:00,ZBSJ 150800Z 07001MPS 8000 NSC 06/M18 Q1015 NOSIG
ZBSJ,2016-01-15 09:00,ZBSJ 150900Z 08001MPS 4000 HZ NSC 05/M17 Q1015 NOSIG
ZBSJ,2016-01-15 10:00,ZBSJ 151000Z 08002MPS 3500 HZ NSC 01/M16 Q1016 BECMG 2000 HZ
ZBSJ,2016-01-15 11:00,ZBSJ 151100Z 07002MPS 2500 HZ NSC M01/M14 Q1016 NOSIG
ZBSJ,2016-01-15 12:00,ZBSJ 151200Z 03003MPS 2500 HZ NSC M02/M14 Q1017 NOSIG
ZBSJ,2016-01-15 13:00,ZBSJ 151300Z 04002MPS 2500 HZ NSC M03/M14 Q1017 NOSIG
ZBSJ,2016-01-15 14:00,ZBSJ 151400Z 02001MPS 2500 HZ NSC M04/M14 Q1018 NOSIG
ZBSJ,2016-01-15 15:00,ZBSJ 151500Z 36002MPS 2500 HZ NSC M05/M14 Q1018 NOSIG
ZBSJ,2016-01-15 16:00,ZBSJ 151600Z 34002MPS 2500 HZ NSC M04/M14 Q1018 NOSIG
ZBSJ,2016-01-15 17:00,ZBSJ 151700Z 32002MPS 2500 HZ NSC M06/M14 Q1018 NOSIG
ZBSJ,2016-01-15 18:00,ZBSJ 151800Z 32003MPS 2200 HZ NSC M07/M14 Q1018 NOSIG
ZBSJ,2016-01-15 19:00,ZBSJ 151900Z 32003MPS 3000 HZ NSC M07/M13 Q1019 NOSIG
ZBSJ,2016-01-15 20:00,ZBSJ 152000Z 32003MPS 4000 HZ NSC M08/M13 Q1019 NOSIG
ZBSJ,2016-01-15 21:00,ZBSJ 152100Z 32004MPS 5000 HZ NSC M08/M13 Q1019 NOSIG
ZBSJ,2016-01-15 22:00,ZBSJ 152200Z 32004MPS 6000 NSC M08/M13 Q1020 NOSIG
ZBSJ,2016-01-15 23:00,ZBSJ 152300Z 33003MPS 4000 HZ NSC M08/M13 Q1020 NOSIG
ZBSJ,2016-01-16 00:00,ZBSJ 160000Z 02002MPS 1700 HZ NSC M06/M09 Q1021 BECMG 1400 HZ
ZBSJ,2016-01-16 01:00,ZBSJ 160100Z 04004MPS 1000 R15/1100N BR NSC M05/M06 Q1022 BECMG TL0230 1600 BR
ZBSJ,2016-01-16 02:00,ZBSJ 160200Z 04005MPS 1100 R15/1200U BR NSC M04/M05 Q1023 NOSIG
ZBSJ,2016-01-16 03:00,ZBSJ 160300Z 04004MPS 1200 R15/1400N BR NSC M03/M05 Q1022 NOSIG
ZBSJ,2016-01-16 04:00,ZBSJ 160400Z 05005MPS 1400 R15/1500N BR NSC M01/M05 Q1022 NOSIG
ZBSJ,2016-01-16 05:00,ZBSJ 160500Z 05004MPS 1600 HZ NSC M00/M04 Q1021 NOSIG
ZBSJ,2016-01-16 06:00,ZBSJ 160600Z 07005MPS 1800 HZ NSC M00/M05 Q1020 NOSIG
ZBSJ,2016-01-16 07:00,ZBSJ 160700Z 07004MPS 1600 HZ NSC M00/M05 Q1020 NOSIG
ZBSJ,2016-01-16 08:00,ZBSJ 160800Z 07003MPS 040V100 1700 HZ NSC M01/M05 Q1020 BECMG 1400 BR
ZBSJ,2016-01-16 09:00,ZBSJ 160900Z 04004MPS 1700 HZ NSC M01/M05 Q1021 BECMG 1400 BR
ZBSJ,2016-01-16 10:00,ZBSJ 161000Z 05003MPS 2500 HZ NSC M01/M06 Q1021 NOSIG
ZBSJ,2016-01-16 11:00,ZBSJ 161100Z 05003MPS 2500 HZ NSC M02/M06 Q1022 NOSIG
ZBSJ,2016-01-16 12:00,ZBSJ 161200Z 07002MPS 2500 HZ NSC M02/M06 Q1022 NOSIG
ZBSJ,2016-01-16 13:00,ZBSJ 161300Z 06002MPS 3000 HZ NSC M02/M06 Q1023 NOSIG
ZBSJ,2016-01-16 14:00,ZBSJ 161400Z 03003MPS 3500 HZ NSC M02/M07 Q1023 NOSIG
ZBSJ,2016-01-16 15:00,ZBSJ 161500Z 02002MPS 3500 HZ NSC M02/M07 Q1024 NOSIG
ZBSJ,2016-01-16 16:00,ZBSJ 161600Z 01002MPS 3500 HZ NSC M03/M07 Q1024 NOSIG
ZBSJ,2016-01-16 17:00,ZBSJ 161700Z 36002MPS 3500 HZ NSC M03/M07 Q1024 NOSIG
ZBSJ,2016-01-16 18:00,ZBSJ 161800Z 03001MPS 3500 HZ NSC M03/M07 Q1024 NOSIG
ZBSJ,2016-01-16 19:00,ZBSJ 161900Z 02002MPS 3000 HZ NSC M03/M07 Q1024 NOSIG
ZBSJ,2016-01-16 20:00,ZBSJ 162000Z 06001MPS 3500 HZ NSC M03/M07 Q1024 NOSIG
ZBSJ,2016-01-16 21:00,ZBSJ 162100Z 03001MPS 3500 HZ NSC M03/M07 Q1024 NOSIG
ZBSJ,2016-01-16 22:00,ZBSJ 162200Z 33001MPS 3500 HZ NSC M03/M07 Q1025 NOSIG
ZBSJ,2016-01-16 23:00,ZBSJ 162300Z 04001MPS 3500 HZ NSC M03/M07 Q1025 NOSIG
ZBSJ,2016-01-17 00:00,ZBSJ 170000Z 03001MPS 2000 HZ NSC M03/M07 Q1026 NOSIG
ZBSJ,2016-01-17 01:00,ZBSJ 170100Z 06003MPS 1600 BR NSC M03/M05 Q1027 NOSIG
ZBSJ,2016-01-17 02:00,ZBSJ 170200Z 09002MPS 050V120 1600 BR NSC M03/M05 Q1027 NOSIG
ZBSJ,2016-01-17 03:00,ZBSJ 170300Z 12002MPS 1600 -SN BR NSC M03/M05 Q1027 NOSIG
ZBSJ,2016-01-17 04:00,ZBSJ 170400Z 09002MPS 1600 -SN BR OVC046 M02/M05 Q1026 NOSIG
ZBSJ,2016-01-17 05:00,ZBSJ 170500Z 10003MPS 1800 -SN BR OVC046 M02/M05 Q1025 NOSIG
ZBSJ,2016-01-17 06:00,ZBSJ 170600Z 11004MPS 2500 HZ NSC M02/M06 Q1024 NOSIG
ZBSJ,2016-01-17 07:00,ZBSJ 170700Z 11004MPS 2700 HZ NSC M02/M06 Q1024 NOSIG
ZBSJ,2016-01-17 08:00,ZBSJ 170800Z 11004MPS 070V140 3500 HZ NSC M02/M08 Q1024 NOSIG
ZBSJ,2016-01-17 09:00,ZBSJ 170900Z 11002MPS 3000 HZ NSC M03/M08 Q1024 NOSIG
ZBSJ,2016-01-17 10:00,ZBSJ 171000Z 09002MPS 4000 HZ NSC M04/M11 Q1024 NOSIG
ZBSJ,2016-01-17 11:00,ZBSJ 171100Z 09003MPS 6000 NSC M04/M11 Q1025 NOSIG
ZBSJ,2016-01-17 12:00,ZBSJ 171200Z 09002MPS 7000 NSC M04/M13 Q1025 NOSIG
ZBSJ,2016-01-17 13:00,ZBSJ 171300Z 11003MPS 080V150 7000 NSC M04/M14 Q1025 NOSIG
ZBSJ,2016-01-17 14:00,ZBSJ 171400Z 13002MPS 7000 NSC M04/M14 Q1026 NOSIG
ZBSJ,2016-01-17 15:00,ZBSJ 171500Z 13001MPS 7000 -SN OVC046 M05/M11 Q1025 NOSIG
ZBSJ,2016-01-17 16:00,ZBSJ 171600Z 11001MPS 7000 NSC M05/M10 Q1025 NOSIG
ZBSJ,2016-01-17 17:00,ZBSJ 171700Z 11001MPS 7000 NSC M05/M10 Q1025 NOSIG
ZBSJ,2016-01-17 18:00,ZBSJ 171800Z 15002MPS 6000 NSC M06/M10 Q1025 NOSIG
ZBSJ,2016-01-17 19:00,ZBSJ 171900Z 19002MPS 5000 HZ NSC M06/M09 Q1025 NOSIG
ZBSJ,2016-01-17 20:00,ZBSJ 172000Z 21002MPS 4000 HZ NSC M06/M10 Q1024 NOSIG
ZBSJ,2016-01-17 21:00,ZBSJ 172100Z 34001MPS 4000 HZ NSC M07/M10 Q1025 NOSIG
ZBSJ,2016-01-17 22:00,ZBSJ 172200Z 04001MPS 4000 BR NSC M10/M12 Q1025 NOSIG
ZBSJ,2016-01-17 23:00,ZBSJ 172300Z 34003MPS 6000 NSC M09/M15 Q1026 NOSIG
ZBSJ,2016-01-18 00:00,ZBSJ 180000Z 31003MPS 8000 NSC M09/M16 Q1027 NOSIG
ZBSJ,2016-01-18 01:00,ZBSJ 180100Z 32002MPS CAVOK M05/M18 Q1028 NOSIG
ZBSJ,2016-01-18 02:00,ZBSJ 180200Z 34002MPS 290V020 CAVOK M04/M21 Q1028 NOSIG
ZBSJ,2016-01-18 03:00,ZBSJ 180300Z 33004MPS 290V040 CAVOK M02/M21 Q1028 NOSIG
ZBSJ,2016-01-18 04:00,ZBSJ 180400Z 29004MPS 230V340 CAVOK M02/M22 Q1026 NOSIG
ZBSJ,2016-01-18 05:00,ZBSJ 180500Z 32004MPS 280V360 CAVOK M01/M22 Q1026 NOSIG
ZBSJ,2016-01-18 06:00,ZBSJ 180600Z 33003MPS 300V360 CAVOK M00/M23 Q1025 NOSIG
ZBSJ,2016-01-18 07:00,ZBSJ 180700Z 36003MPS 310V070 CAVOK M00/M22 Q1025 NOSIG
ZBSJ,2016-01-18 08:00,ZBSJ 180800Z 02004MPS CAVOK M00/M22 Q1025 NOSIG
ZBSJ,2016-01-18 09:00,ZBSJ 180900Z 36004MPS CAVOK M01/M22 Q1025 NOSIG
ZBSJ,2016-01-18 10:00,ZBSJ 181000Z 35004MPS CAVOK M02/M22 Q1026 NOSIG
ZBSJ,2016-01-18 11:00,ZBSJ 181100Z 36004MPS CAVOK M03/M21 Q1027 NOSIG
ZBSJ,2016-01-18 12:00,ZBSJ 181200Z 35003MPS CAVOK M04/M21 Q1028 NOSIG
ZBSJ,2016-01-18 13:00,ZBSJ 181300Z 33002MPS CAVOK M06/M22 Q1028 NOSIG
ZBSJ,2016-01-18 14:00,ZBSJ 181400Z 24002MPS 4000 HZ NSC M08/M20 Q1029 NOSIG
ZBSJ,2016-01-18 15:00,ZBSJ 181500Z 24001MPS 3500 HZ NSC M08/M20 Q1029 NOSIG
ZBSJ,2016-01-18 16:00,ZBSJ 181600Z 25001MPS 3000 HZ NSC M09/M19 Q1029 NOSIG
ZBSJ,2016-01-18 17:00,ZBSJ 181700Z 25001MPS 2000 HZ NSC M09/M19 Q1029 NOSIG
ZBSJ,2016-01-18 18:00,ZBSJ 181800Z 25003MPS 2200 HZ NSC M10/M19 Q1029 NOSIG
ZBSJ,2016-01-18 19:00,ZBSJ 181900Z 22001MPS 2500 HZ NSC M12/M19 Q1029 NOSIG
ZBSJ,2016-01-18 20:00,ZBSJ 182000Z 07001MPS 2500 HZ NSC M12/M18 Q1029 NOSIG
ZBSJ,2016-01-18 21:00,ZBSJ 182100Z 03001MPS 2500 HZ NSC M12/M19 Q1029 NOSIG
ZBSJ,2016-01-18 22:00,ZBSJ 182200Z 06002MPS 2300 HZ NSC M13/M18 Q1029 NOSIG
ZBSJ,2016-01-18 23:00,ZBSJ 182300Z 02002MPS 2300 HZ NSC M13/M18 Q1030 NOSIG
ZBSJ,2016-01-19 00:00,ZBSJ 190000Z 03002MPS 1800 HZ NSC M14/M19 Q1031 NOSIG
ZBSJ,2016-01-19 01:00,ZBSJ 190100Z 05001MPS 1800 HZ NSC M10/M18 Q1031 BECMG TL0230 3500
ZBSJ,2016-01-19 02:00,ZBSJ 190200Z 04001MPS 2500 HZ NSC M08/M18 Q1032 BECMG TL0330 3500
ZBSJ,2016-01-19 03:00,ZBSJ 190300Z 15001MPS 2200 HZ NSC M05/M17 Q1032 BECMG TL0430 3500
ZBSJ,2016-01-19 04:00,ZBSJ 190400Z 30001MPS 2700 HZ NSC M03/M18 Q1031 BECMG TL0530 3500
ZBSJ,2016-01-19 05:00,ZBSJ 190500Z 22002MPS 4000 HZ NSC M01/M18 Q1030 NOSIG
ZBSJ,2016-01-19 06:00,ZBSJ 190600Z 19002MPS 140V240 5000 HZ NSC 00/M21 Q1029 NOSIG
ZBSJ,2016-01-19 07:00,ZBSJ 190700Z 20002MPS 8000 NSC 01/M23 Q1028 NOSIG
ZBSJ,2016-01-19 08:00,ZBSJ 190800Z 19002MPS 8000 NSC 01/M22 Q1029 NOSIG
ZBSJ,2016-01-19 09:00,ZBSJ 190900Z 19001MPS 5000 HZ NSC M01/M20 Q1029 NOSIG
ZBSJ,2016-01-19 10:00,ZBSJ 191000Z 08001MPS 3000 HZ NSC M04/M18 Q1030 BECMG TL1130 2500 HZ
ZBSJ,2016-01-19 11:00,ZBSJ 191100Z 08001MPS 2200 HZ NSC M06/M19 Q1031 NOSIG
ZBSJ,2016-01-19 12:00,ZBSJ 191200Z 07001MPS 2200 FU NSC M06/M19 Q1031 NOSIG
ZBSJ,2016-01-19 13:00,ZBSJ 191300Z 04002MPS 2200 FU NSC M07/M19 Q1032 NOSIG
ZBSJ,2016-01-19 14:00,ZBSJ 191400Z 04002MPS 2500 FU NSC M06/M17 Q1033 NOSIG
ZBSJ,2016-01-19 15:00,ZBSJ 191500Z 04001MPS 2700 FU NSC M06/M17 Q1034 NOSIG
ZBSJ,2016-01-19 16:00,ZBSJ 191600Z 02001MPS 2500 FU NSC M07/M16 Q1034 NOSIG
ZBSJ,2016-01-19 17:00,ZBSJ 191700Z 05001MPS 2300 FU NSC M06/M16 Q1034 NOSIG
ZBSJ,2016-01-19 18:00,ZBSJ 191800Z 05001MPS 2300 FU NSC M06/M15 Q1034 NOSIG
ZBSJ,2016-01-19 19:00,ZBSJ 191900Z 07001MPS 2300 FU NSC M06/M14 Q1033 NOSIG
ZBSJ,2016-01-19 20:00,ZBSJ 192000Z 15001MPS 2300 FU NSC M06/M14 Q1033 NOSIG
ZBSJ,2016-01-19 21:00,ZBSJ 192100Z 23001MPS 2300 FU NSC M06/M15 Q1033 NOSIG
ZBSJ,2016-01-19 22:00,ZBSJ 192200Z 10001MPS 2300 FU NSC M06/M14 Q1033 NOSIG
ZBSJ,2016-01-19 23:00,ZBSJ 192300Z 00000MPS 2300 FU NSC M07/M13 Q1034 BECMG 1400 FU
ZBSJ,2016-01-20 00:00,ZBSJ 200000Z 08001MPS 1200 R15/1500D FU NSC M07/M14 Q1034 BECMG TL0130 1600
ZBSJ,2016-01-20 01:00,ZBSJ 200100Z 09002MPS 1000 R15/1100U FU NSC M06/M14 Q1035 BECMG TL0230 1600
ZBSJ,2016-01-20 02:00,ZBSJ 200200Z 07002MPS 1500 R15/1400D FU NSC M04/M14 Q1035 NOSIG
ZBSJ,2016-01-20 03:00,ZBSJ 200300Z 08003MPS 1800 FU NSC M02/M14 Q1035 NOSIG
ZBSJ,2016-01-20 04:00,ZBSJ 200400Z 11003MPS 2500 HZ NSC M01/M14 Q1034 NOSIG
ZBSJ,2016-01-20 05:00,ZBSJ 200500Z 08002MPS 050V140 3000 HZ NSC M00/M15 Q1032 NOSIG
ZBSJ,2016-01-20 06:00,ZBSJ 200600Z 14002MPS 100V180 4000 HZ NSC 00/M18 Q1031 NOSIG
ZBSJ,2016-01-20 07:00,ZBSJ 200700Z 13002MPS 4000 HZ NSC 00/M18 Q1031 NOSIG
ZBSJ,2016-01-20 08:00,ZBSJ 200800Z 11003MPS 3500 HZ NSC 00/M17 Q1031 NOSIG
ZBSJ,2016-01-20 09:00,ZBSJ 200900Z 09003MPS 3500 HZ NSC M01/M15 Q1031 BECMG TL1000 2500 HZ
ZBSJ,2016-01-20 10:00,ZBSJ 201000Z 07003MPS 4000 HZ NSC M02/M15 Q1031 NOSIG
ZBSJ,2016-01-20 11:00,ZBSJ 201100Z 03002MPS 5000 HZ NSC M03/M14 Q1032 NOSIG
ZBSJ,2016-01-20 12:00,ZBSJ 201200Z 05002MPS 3000 HZ NSC M04/M14 Q1032 BECMG TL1300 2500 HZ
ZBSJ,2016-01-20 13:00,ZBSJ 201300Z 04002MPS 2200 HZ NSC M04/M14 Q1032 NOSIG
ZBSJ,2016-01-20 14:00,ZBSJ 201400Z 02001MPS 2000 HZ NSC M05/M14 Q1033 NOSIG
ZBSJ,2016-01-20 15:00,ZBSJ 201500Z 05001MPS 2000 HZ NSC M05/M14 Q1032 NOSIG
ZBSJ,2016-01-20 16:00,ZBSJ 201600Z 36002MPS 1600 HZ NSC M07/M14 Q1032 NOSIG
ZBSJ,2016-01-20 17:00,ZBSJ 201700Z 36002MPS 1600 HZ NSC M08/M15 Q1032 NOSIG
ZBSJ,2016-01-20 18:00,ZBSJ 201800Z 06001MPS 1600 HZ NSC M08/M14 Q1031 NOSIG
ZBSJ,2016-01-20 19:00,ZBSJ 201900Z 35002MPS 2200 HZ NSC M09/M14 Q1031 NOSIG
ZBSJ,2016-01-20 20:00,ZBSJ 202000Z 35002MPS 3000 HZ NSC M08/M14 Q1031 NOSIG
ZBSJ,2016-01-20 21:00,ZBSJ 202100Z 01002MPS 3500 HZ NSC M09/M14 Q1031 NOSIG
ZBSJ,2016-01-20 22:00,ZBSJ 202200Z 35002MPS 3500 HZ NSC M10/M15 Q1031 NOSIG
ZBSJ,2016-01-20 23:00,ZBSJ 202300Z 36002MPS 3000 HZ NSC M10/M14 Q1031 BECMG TL2340 2500 HZ
ZBSJ,2016-01-21 00:00,ZBSJ 210000Z 01002MPS 2200 HZ NSC M09/M14 Q1032 NOSIG
ZBSJ,2016-01-21 01:00,ZBSJ 210100Z 36002MPS 2000 HZ NSC M07/M12 Q1032 NOSIG
ZBSJ,2016-01-21 02:00,ZBSJ 210200Z 02003MPS 1800 HZ NSC M05/M11 Q1033 NOSIG
ZBSJ,2016-01-21 03:00,ZBSJ 210300Z 05004MPS 2800 HZ NSC M04/M09 Q1032 BECMG TL0430 3500
ZBSJ,2016-01-21 04:00,ZBSJ 210400Z 03003MPS 360V080 3500 HZ NSC M03/M09 Q1032 NOSIG
ZBSJ,2016-01-21 05:00,ZBSJ 210500Z 04002MPS 340V090 4000 HZ NSC M02/M09 Q1031 NOSIG
ZBSJ,2016-01-21 06:00,ZBSJ 210600Z 05004MPS 4500 HZ NSC M01/M09 Q1030 NOSIG
ZBSJ,2016-01-21 07:00,ZBSJ 210700Z 06004MPS 4000 HZ NSC M01/M10 Q1030 NOSIG
ZBSJ,2016-01-21 08:00,ZBSJ 210800Z 07003MPS 030V090 3000 HZ NSC M02/M10 Q1030 BECMG TL0930 2500 HZ
ZBSJ,2016-01-21 09:00,ZBSJ 210900Z 06003MPS 2500 HZ NSC M03/M10 Q1030 NOSIG
ZBSJ,2016-01-21 10:00,ZBSJ 211000Z 04002MPS 4000 HZ NSC M05/M10 Q1031 NOSIG
ZBSJ,2016-01-21 11:00,ZBSJ 211100Z 02002MPS 3500 HZ NSC M04/M10 Q1032 BECMG TL1230 2500 HZ
ZBSJ,2016-01-21 12:00,ZBSJ 211200Z 01002MPS 3500 HZ NSC M04/M09 Q1033 BECMG TL1330 2500 HZ
ZBSJ,2016-01-21 13:00,ZBSJ 211300Z 01002MPS 4000 HZ NSC M04/M09 Q1034 NOSIG
ZBSJ,2016-01-21 14:00,ZBSJ 211400Z 02003MPS 4000 HZ NSC M04/M09 Q1035 NOSIG
ZBSJ,2016-01-21 15:00,ZBSJ 211500Z 02002MPS 4000 HZ NSC M04/M09 Q1035 NOSIG
ZBSJ,2016-01-21 16:00,ZBSJ 211600Z 01002MPS 4000 HZ NSC M04/M09 Q1036 NOSIG
ZBSJ,2016-01-21 17:00,ZBSJ 211700Z 02002MPS 4500 HZ NSC M04/M09 Q1036 NOSIG
ZBSJ,2016-01-21 18:00,ZBSJ 211800Z 02004MPS 2300 -SN BR OVC046 M05/M06 Q1037 NOSIG
ZBSJ,2016-01-21 19:00,ZBSJ 211900Z 01002MPS 2300 -SN BR OVC046 M05/M06 Q1037 NOSIG
ZBSJ,2016-01-21 20:00,ZBSJ 212000Z 01002MPS 2300 -SN BR OVC046 M05/M05 Q1037 NOSIG
ZBSJ,2016-01-21 21:00,ZBSJ 212100Z 02002MPS 1800 -SN BR OVC046 M05/M05 Q1037 NOSIG
ZBSJ,2016-01-21 22:00,ZBSJ 212200Z 04003MPS 1800 -SN BR OVC046 M05/M05 Q1038 NOSIG
ZBSJ,2016-01-21 23:00,ZBSJ 212300Z 05004MPS 2200 -SN BR OVC046 M06/M07 Q1039 BECMG TL0030 1400 -SN BR
ZBSJ,2016-01-22 00:00,ZBSJ 220000Z 06004MPS 2500 -SN BR OVC046 M07/M08 Q1040 BECMG TL0130 3500
ZBSJ,2016-01-22 01:00,ZBSJ 220100Z 06003MPS 7000 NSC M07/M09 Q1041 NOSIG
ZBSJ,2016-01-22 02:00,ZBSJ 220200Z 06003MPS CAVOK M07/M11 Q1042 NOSIG
ZBSJ,2016-01-22 03:00,ZBSJ 220300Z 05002MPS 010V110 CAVOK M05/M11 Q1042 NOSIG
ZBSJ,2016-01-22 04:00,ZBSJ 220400Z 35006MPS CAVOK M05/M17 Q1042 NOSIG
ZBSJ,2016-01-22 05:00,ZBSJ 220500Z 36006MPS CAVOK M05/M18 Q1041 NOSIG
ZBSJ,2016-01-22 06:00,ZBSJ 220600Z 36006MPS CAVOK M05/M18 Q1040 NOSIG
ZBSJ,2016-01-22 07:00,ZBSJ 220700Z 36006MPS CAVOK M05/M19 Q1040 NOSIG
ZBSJ,2016-01-22 08:00,ZBSJ 220800Z 35005MPS CAVOK M05/M19 Q1041 NOSIG
ZBSJ,2016-01-22 09:00,ZBSJ 220900Z 35005MPS CAVOK M06/M20 Q1041 NOSIG
ZBSJ,2016-01-22 10:00,ZBSJ 221000Z 35005MPS CAVOK M07/M21 Q1042 NOSIG
ZBSJ,2016-01-22 11:00,ZBSJ 221100Z 34005MPS CAVOK M08/M22 Q1043 NOSIG
ZBSJ,2016-01-22 12:00,ZBSJ 221200Z 35003MPS CAVOK M10/M22 Q1044 NOSIG
ZBSJ,2016-01-22 13:00,ZBSJ 221300Z 01002MPS 7000 NSC M10/M23 Q1045 NOSIG
ZBSJ,2016-01-22 14:00,ZBSJ 221400Z 07002MPS 6000 NSC M11/M22 Q1046 NOSIG
ZBSJ,2016-01-22 15:00,ZBSJ 221500Z 10003MPS 5000 HZ NSC M12/M22 Q1046 NOSIG
ZBSJ,2016-01-22 16:00,ZBSJ 221600Z 16003MPS 4000 HZ NSC M15/M21 Q1045 NOSIG
ZBSJ,2016-01-22 17:00,ZBSJ 221700Z 16004MPS 4000 HZ NSC M15/M22 Q1044 NOSIG
ZBSJ,2016-01-22 18:00,ZBSJ 221800Z 20003MPS 3500 HZ NSC M13/M20 Q1043 NOSIG
ZBSJ,2016-01-22 19:00,ZBSJ 221900Z 18003MPS 6000 NSC M14/M21 Q1043 NOSIG
ZBSJ,2016-01-22 20:00,ZBSJ 222000Z 19004MPS 6000 NSC M14/M19 Q1041 NOSIG
ZBSJ,2016-01-22 21:00,ZBSJ 222100Z 21003MPS 5000 HZ NSC M13/M18 Q1040 NOSIG
ZBSJ,2016-01-22 22:00,ZBSJ 222200Z 21003MPS 5000 HZ NSC M12/M17 Q1040 NOSIG
ZBSJ,2016-01-22 23:00,ZBSJ 222300Z 24002MPS 5000 HZ NSC M12/M18 Q1040 NOSIG
ZBSJ,2016-01-23 00:00,ZBSJ 230000Z 03002MPS 5000 HZ NSC M12/M19 Q1041 NOSIG
ZBSJ,2016-01-23 01:00,ZBSJ 230100Z 34006MPS 8000 NSC M10/M22 Q1042 NOSIG
ZBSJ,2016-01-23 02:00,ZBSJ 230200Z 34010G15MPS 5000 DRSN NSC M10/M23 Q1042 NOSIG
ZBSJ,2016-01-23 03:00,ZBSJ 230300Z 35009G15MPS CAVOK M10/M23 Q1043 NOSIG
ZBSJ,2016-01-23 04:00,ZBSJ 230400Z 35010MPS CAVOK M09/M22 Q1042 NOSIG
ZBSJ,2016-01-23 05:00,ZBSJ 230500Z 34010MPS CAVOK M09/M23 Q1042 NOSIG
ZBSJ,2016-01-23 06:00,ZBSJ 230600Z 34011MPS CAVOK M09/M24 Q1042 NOSIG
ZBSJ,2016-01-23 07:00,ZBSJ 230700Z 35010G15MPS CAVOK M09/M25 Q1042 NOSIG
ZBSJ,2016-01-23 08:00,ZBSJ 230800Z 34010G16MPS CAVOK M10/M26 Q1042 NOSIG
ZBSJ,2016-01-23 09:00,ZBSJ 230900Z 34011G16MPS CAVOK M11/M26 Q1043 NOSIG
ZBSJ,2016-01-23 10:00,ZBSJ 231000Z 34009MPS CAVOK M12/M26 Q1044 NOSIG
ZBSJ,2016-01-23 11:00,ZBSJ 231100Z 34008MPS CAVOK M11/M27 Q1045 NOSIG
ZBSJ,2016-01-23 12:00,ZBSJ 231200Z 34008MPS CAVOK M12/M25 Q1045 NOSIG
ZBSJ,2016-01-23 13:00,ZBSJ 231300Z 33008MPS CAVOK M12/M26 Q1046 NOSIG
ZBSJ,2016-01-23 14:00,ZBSJ 231400Z 33009MPS CAVOK M12/M26 Q1045 NOSIG
ZBSJ,2016-01-23 15:00,ZBSJ 231500Z 33007MPS CAVOK M12/M27 Q1045 NOSIG
ZBSJ,2016-01-23 16:00,ZBSJ 231600Z 34007MPS CAVOK M13/M28 Q1045 NOSIG
ZBSJ,2016-01-23 17:00,ZBSJ 231700Z 34008G14MPS CAVOK M12/M27 Q1045 NOSIG
ZBSJ,2016-01-23 18:00,ZBSJ 231800Z 34009MPS CAVOK M12/M27 Q1044 NOSIG
ZBSJ,2016-01-23 19:00,ZBSJ 231900Z 32008MPS CAVOK M13/M26 Q1044 NOSIG
ZBSJ,2016-01-23 20:00,ZBSJ 232000Z 29005MPS CAVOK M13/M26 Q1044 NOSIG
ZBSJ,2016-01-23 21:00,ZBSJ 232100Z 27005MPS CAVOK M14/M26 Q1043 NOSIG
ZBSJ,2016-01-23 22:00,ZBSJ 232200Z 28005MPS CAVOK M13/M25 Q1043 NOSIG
ZBSJ,2016-01-23 23:00,ZBSJ 232300Z 28004MPS CAVOK M13/M24 Q1043 NOSIG
ZBSJ,2016-01-24 00:00,ZBSJ 240000Z 28003MPS CAVOK M12/M23 Q1043 NOSIG
ZBSJ,2016-01-24 01:00,ZBSJ 240100Z 28006MPS CAVOK M10/M23 Q1043 NOSIG
ZBSJ,2016-01-24 02:00,ZBSJ 240200Z 28008MPS CAVOK M07/M21 Q1043 NOSIG
ZBSJ,2016-01-24 03:00,ZBSJ 240300Z 28006MPS CAVOK M05/M20 Q1042 NOSIG
ZBSJ,2016-01-24 04:00,ZBSJ 240400Z 27009MPS CAVOK M04/M20 Q1040 NOSIG
ZBSJ,2016-01-24 05:00,ZBSJ 240500Z 26006MPS 230V290 CAVOK M03/M19 Q1039 NOSIG
ZBSJ,2016-01-24 06:00,ZBSJ 240600Z 25006MPS CAVOK M02/M19 Q1038 NOSIG
ZBSJ,2016-01-24 07:00,ZBSJ 240700Z 27005MPS CAVOK M00/M18 Q1037 NOSIG
ZBSJ,2016-01-24 08:00,ZBSJ 240800Z 29005MPS CAVOK 00/M22 Q1037 NOSIG
ZBSJ,2016-01-24 09:00,ZBSJ 240900Z 33006MPS CAVOK M01/M20 Q1037 NOSIG
ZBSJ,2016-01-24 10:00,ZBSJ 241000Z 33006MPS CAVOK M03/M22 Q1037 NOSIG
ZBSJ,2016-01-24 11:00,ZBSJ 241100Z 32005MPS CAVOK M05/M22 Q1037 NOSIG
ZBSJ,2016-01-24 12:00,ZBSJ 241200Z 31005MPS CAVOK M04/M21 Q1037 NOSIG
ZBSJ,2016-01-24 13:00,ZBSJ 241300Z 30005MPS CAVOK M04/M21 Q1037 NOSIG
ZBSJ,2016-01-24 14:00,ZBSJ 241400Z 28005MPS 6000 NSC M06/M20 Q1037 NOSIG
ZBSJ,2016-01-24 15:00,ZBSJ 241500Z 29004MPS 6000 NSC M06/M20 Q1036 NOSIG
ZBSJ,2016-01-24 16:00,ZBSJ 241600Z 28005MPS 6000 NSC M05/M20 Q1035 NOSIG
ZBSJ,2016-01-24 17:00,ZBSJ 241700Z 27005MPS 8000 NSC M06/M19 Q1035 NOSIG
ZBSJ,2016-01-24 18:00,ZBSJ 241800Z 29006MPS CAVOK M05/M20 Q1034 NOSIG
ZBSJ,2016-01-24 19:00,ZBSJ 241900Z 28005MPS CAVOK M05/M20 Q1034 NOSIG
ZBSJ,2016-01-24 20:00,ZBSJ 242000Z 28005MPS CAVOK M05/M20 Q1033 NOSIG
ZBSJ,2016-01-24 21:00,ZBSJ 242100Z 27004MPS CAVOK M06/M20 Q1033 NOSIG
ZBSJ,2016-01-24 22:00,ZBSJ 242200Z 27004MPS CAVOK M07/M19 Q1032 NOSIG
ZBSJ,2016-01-24 23:00,ZBSJ 242300Z 27004MPS CAVOK M07/M19 Q1032 NOSIG
ZBSJ,2016-01-25 00:00,ZBSJ 250000Z 27004MPS 8000 NSC M07/M19 Q1032 NOSIG
ZBSJ,2016-01-25 01:00,ZBSJ 250100Z 26004MPS 7000 NSC M04/M18 Q1032 NOSIG
ZBSJ,2016-01-25 02:00,ZBSJ 250200Z 26005MPS CAVOK M01/M18 Q1032 NOSIG
ZBSJ,2016-01-25 03:00,ZBSJ 250300Z 26005MPS CAVOK 01/M21 Q1032 NOSIG
ZBSJ,2016-01-25 04:00,ZBSJ 250400Z 25006MPS CAVOK 02/M21 Q1031 NOSIG
ZBSJ,2016-01-25 05:00,ZBSJ 250500Z 26005MPS CAVOK 03/M21 Q1029 NOSIG
ZBSJ,2016-01-25 06:00,ZBSJ 250600Z 26005MPS CAVOK 04/M23 Q1028 NOSIG
ZBSJ,2016-01-25 07:00,ZBSJ 250700Z 24004MPS CAVOK 05/M22 Q1027 NOSIG
ZBSJ,2016-01-25 08:00,ZBSJ 250800Z 24003MPS 220V290 CAVOK 05/M21 Q1027 NOSIG
ZBSJ,2016-01-25 09:00,ZBSJ 250900Z 23002MPS CAVOK 03/M20 Q1026 NOSIG
ZBSJ,2016-01-25 10:00,ZBSJ 251000Z 20002MPS 170V270 3500 FU NSC 00/M20 Q1026 NOSIG
ZBSJ,2016-01-25 11:00,ZBSJ 251100Z 19004MPS 4500 FU NSC M00/M19 Q1027 NOSIG
ZBSJ,2016-01-25 12:00,ZBSJ 251200Z 21003MPS 4500 FU NSC M03/M17 Q1027 NOSIG
ZBSJ,2016-01-25 13:00,ZBSJ 251300Z 22003MPS 4000 FU NSC M02/M16 Q1027 NOSIG
ZBSJ,2016-01-25 14:00,ZBSJ 251400Z 01002MPS 2500 FU NSC M07/M17 Q1027 NOSIG
ZBSJ,2016-01-25 15:00,ZBSJ 251500Z 32003MPS 5000 HZ NSC M06/M18 Q1027 NOSIG
ZBSJ,2016-01-25 16:00,ZBSJ 251600Z 31006MPS 5000 HZ NSC M02/M19 Q1027 NOSIG
ZBSJ,2016-01-25 17:00,ZBSJ 251700Z 30004MPS CAVOK M03/M20 Q1027 NOSIG
ZBSJ,2016-01-25 18:00,ZBSJ 251800Z 27003MPS 8000 NSC M04/M19 Q1027 NOSIG
ZBSJ,2016-01-25 19:00,ZBSJ 251900Z 27003MPS 7000 NSC M06/M19 Q1027 NOSIG
ZBSJ,2016-01-25 20:00,ZBSJ 252000Z 30001MPS 7000 NSC M06/M18 Q1027 NOSIG
ZBSJ,2016-01-25 21:00,ZBSJ 252100Z 27004MPS 7000 NSC M05/M18 Q1027 NOSIG
ZBSJ,2016-01-25 22:00,ZBSJ 252200Z 27003MPS 240V320 7000 NSC M06/M19 Q1027 NOSIG
ZBSJ,2016-01-25 23:00,ZBSJ 252300Z 27004MPS 7000 NSC M06/M19 Q1028 NOSIG
ZBSJ,2016-01-26 00:00,ZBSJ 260000Z 28004MPS 7000 NSC M06/M19 Q1028 NOSIG
ZBSJ,2016-01-26 01:00,ZBSJ 260100Z 27003MPS 5000 FU NSC M02/M19 Q1029 NOSIG
ZBSJ,2016-01-26 02:00,ZBSJ 260200Z 31004MPS CAVOK 01/M22 Q1030 NOSIG
ZBSJ,2016-01-26 03:00,ZBSJ 260300Z 29002MPS 250V320 CAVOK 02/M23 Q1030 NOSIG
ZBSJ,2016-01-26 04:00,ZBSJ 260400Z 27003MPS 220V290 CAVOK 03/M24 Q1029 NOSIG
ZBSJ,2016-01-26 05:00,ZBSJ 260500Z 28001MPS CAVOK 04/M25 Q1028 NOSIG
ZBSJ,2016-01-26 06:00,ZBSJ 260600Z 17002MPS CAVOK 04/M25 Q1027 NOSIG
ZBSJ,2016-01-26 07:00,ZBSJ 260700Z 18002MPS CAVOK 04/M24 Q1026 NOSIG
ZBSJ,2016-01-26 08:00,ZBSJ 260800Z 25002MPS CAVOK 04/M25 Q1026 NOSIG
ZBSJ,2016-01-26 09:00,ZBSJ 260900Z 09001MPS CAVOK 03/M25 Q1026 NOSIG
ZBSJ,2016-01-26 10:00,ZBSJ 261000Z 16002MPS CAVOK M00/M21 Q1027 NOSIG
ZBSJ,2016-01-26 11:00,ZBSJ 261100Z 18003MPS 5000 HZ NSC M03/M19 Q1027 NOSIG
ZBSJ,2016-01-26 12:00,ZBSJ 261200Z 18002MPS 5000 HZ NSC M03/M19 Q1028 NOSIG
ZBSJ,2016-01-26 13:00,ZBSJ 261300Z 10003MPS 3500 HZ NSC M05/M19 Q1028 BECMG TL1440 2400 HZ
ZBSJ,2016-01-26 14:00,ZBSJ 261400Z 10002MPS 3000 HZ NSC M08/M19 Q1028 BECMG TL1440 2000 HZ
ZBSJ,2016-01-26 15:00,ZBSJ 261500Z 14001MPS 2700 HZ NSC M08/M19 Q1028 NOSIG
ZBSJ,2016-01-26 16:00,ZBSJ 261600Z 13001MPS 2500 HZ NSC M08/M19 Q1028 NOSIG
ZBSJ,2016-01-26 17:00,ZBSJ 261700Z 13002MPS 2200 HZ NSC M08/M18 Q1028 NOSIG
ZBSJ,2016-01-26 18:00,ZBSJ 261800Z 09001MPS 2200 HZ NSC M10/M19 Q1027 NOSIG
ZBSJ,2016-01-26 19:00,ZBSJ 261900Z 27001MPS 1800 HZ NSC M12/M18 Q1027 NOSIG
ZBSJ,2016-01-26 20:00,ZBSJ 262000Z 36001MPS 1800 HZ NSC M11/M18 Q1027 NOSIG
ZBSJ,2016-01-26 21:00,ZBSJ 262100Z 26001MPS 1800 HZ NSC M10/M17 Q1026 NOSIG
ZBSJ,2016-01-26 22:00,ZBSJ 262200Z 26001MPS 2000 HZ NSC M12/M17 Q1027 NOSIG
ZBSJ,2016-01-26 23:00,ZBSJ 262300Z 27002MPS 2200 HZ NSC M11/M17 Q1027 BECMG TL0020 1400 HZ
ZBSJ,2016-01-27 00:00,ZBSJ 270000Z 28001MPS 1700 HZ NSC M12/M18 Q1028 BECMG TL0140 3000
ZBSJ,2016-01-27 01:00,ZBSJ 270100Z 33002MPS 1700 HZ NSC M07/M14 Q1028 BECMG TL0250 3000
ZBSJ,2016-01-27 02:00,ZBSJ 270200Z 30002MPS 2500 HZ NSC M03/M15 Q1028 BECMG TL0350 4000
ZBSJ,2016-01-27 03:00,ZBSJ 270300Z 35002MPS 2200 HZ NSC M02/M15 Q1028 BECMG TL0450 3000
ZBSJ,2016-01-27 04:00,ZBSJ 270400Z 29002MPS 4000 HZ NSC 01/M18 Q1027 NOSIG
ZBSJ,2016-01-27 05:00,ZBSJ 270500Z 18002MPS 5000 HZ NSC 02/M19 Q1026 NOSIG
ZBSJ,2016-01-27 06:00,ZBSJ 270600Z 19001MPS 4000 HZ NSC 03/M18 Q1025 NOSIG
ZBSJ,2016-01-27 07:00,ZBSJ 270700Z 17001MPS 3500 HZ NSC 04/M18 Q1024 NOSIG
ZBSJ,2016-01-27 08:00,ZBSJ 270800Z 12001MPS 3000 HZ NSC 03/M18 Q1024 BECMG TL0930 2500 HZ
ZBSJ,2016-01-27 09:00,ZBSJ 270900Z 03001MPS 2200 HZ NSC 01/M17 Q1025 NOSIG
ZBSJ,2016-01-27 10:00,ZBSJ 271000Z 34001MPS 2300 HZ NSC M01/M15 Q1025 BECMG TL1130 3500
ZBSJ,2016-01-27 11:00,ZBSJ 271100Z 36002MPS 2000 HZ NSC M01/M15 Q1025 BECMG TL1250 1400 FU
ZBSJ,2016-01-27 12:00,ZBSJ 271200Z 35002MPS 2200 HZ NSC M01/M15 Q1026 BECMG TL1350 1400 FU
ZBSJ,2016-01-27 13:00,ZBSJ 271300Z 02002MPS 2200 HZ NSC M02/M14 Q1026 BECMG TL1450 1400 FU
ZBSJ,2016-01-27 14:00,ZBSJ 271400Z 02001MPS 2200 HZ NSC M03/M14 Q1027 BECMG TL1550 1400 FU
ZBSJ,2016-01-27 15:00,ZBSJ 271500Z 33002MPS 2100 HZ NSC M02/M13 Q1027 NOSIG
ZBSJ,2016-01-27 16:00,ZBSJ 271600Z 35002MPS 2100 HZ NSC M03/M13 Q1027 NOSIG
ZBSJ,2016-01-27 17:00,ZBSJ 271700Z 35002MPS 2500 HZ NSC M03/M13 Q1026 NOSIG
ZBSJ,2016-01-27 18:00,ZBSJ 271800Z 36001MPS 2500 HZ NSC M03/M13 Q1027 NOSIG
ZBSJ,2016-01-27 19:00,ZBSJ 271900Z 36002MPS 2700 HZ NSC M05/M14 Q1026 NOSIG
ZBSJ,2016-01-27 20:00,ZBSJ 272000Z 32003MPS 3000 HZ NSC M05/M14 Q1026 NOSIG
ZBSJ,2016-01-27 21:00,ZBSJ 272100Z 33003MPS 3000 HZ NSC M07/M15 Q1026 NOSIG
ZBSJ,2016-01-27 22:00,ZBSJ 272200Z 31003MPS 4000 HZ NSC M08/M15 Q1026 NOSIG
ZBSJ,2016-01-27 23:00,ZBSJ 272300Z 31003MPS 4200 HZ NSC M04/M13 Q1027 NOSIG
ZBSJ,2016-01-28 00:00,ZBSJ 280000Z 34002MPS 2200 HZ NSC M04/M13 Q1028 BECMG TL1150 3000
ZBSJ,2016-01-28 01:00,ZBSJ 280100Z 34003MPS 1600 HZ NSC M02/M12 Q1029 NOSIG
ZBSJ,2016-01-28 02:00,ZBSJ 280200Z 02004MPS 2700 HZ NSC M01/M12 Q1029 BECMG 3500
ZBSJ,2016-01-28 03:00,ZBSJ 280300Z 03004MPS 350V050 2700 HZ NSC 01/M15 Q1029 BECMG 3500
ZBSJ,2016-01-28 04:00,ZBSJ 280400Z 03004MPS 360V060 2700 HZ NSC 02/M15 Q1029 BECMG 3500
ZBSJ,2016-01-28 05:00,ZBSJ 280500Z 05004MPS 020V090 3500 HZ NSC 03/M15 Q1028 NOSIG
ZBSJ,2016-01-28 06:00,ZBSJ 280600Z 05004MPS 4000 HZ NSC 04/M14 Q1027 NOSIG
ZBSJ,2016-01-28 07:00,ZBSJ 280700Z 05004MPS 4000 HZ NSC 04/M15 Q1027 NOSIG
ZBSJ,2016-01-28 08:00,ZBSJ 280800Z 06004MPS 3500 HZ NSC 04/M14 Q1027 NOSIG
ZBSJ,2016-01-28 09:00,ZBSJ 280900Z 04003MPS 3000 HZ NSC 02/M14 Q1028 BECMG TL1000 2500 HZ
ZBSJ,2016-01-28 10:00,ZBSJ 281000Z 03002MPS 3000 HZ NSC M00/M14 Q1028 NOSIG
ZBSJ,2016-01-28 11:00,ZBSJ 281100Z 02002MPS 3000 HZ NSC M02/M13 Q1029 NOSIG
ZBSJ,2016-01-28 12:00,ZBSJ 281200Z 02002MPS 3000 HZ NSC M02/M13 Q1030 NOSIG
ZBSJ,2016-01-28 13:00,ZBSJ 281300Z 36001MPS 3000 HZ NSC M04/M13 Q1031 NOSIG
ZBSJ,2016-01-28 14:00,ZBSJ 281400Z 34002MPS 2200 HZ NSC M04/M13 Q1031 NOSIG
ZBSJ,2016-01-28 15:00,ZBSJ 281500Z 34003MPS 1600 HZ NSC M06/M14 Q1031 NOSIG
ZBSJ,2016-01-28 16:00,ZBSJ 281600Z 36001MPS 1600 HZ NSC M06/M14 Q1032 NOSIG
ZBSJ,2016-01-28 17:00,ZBSJ 281700Z 33002MPS 1800 HZ NSC M06/M14 Q1033 NOSIG
ZBSJ,2016-01-28 18:00,ZBSJ 281800Z 33002MPS 1800 HZ NSC M06/M13 Q1032 NOSIG
ZBSJ,2016-01-28 19:00,ZBSJ 281900Z 02001MPS 2000 HZ NSC M07/M13 Q1033 NOSIG
ZBSJ,2016-01-28 20:00,ZBSJ 282000Z 06003MPS 2000 HZ NSC M06/M09 Q1033 NOSIG
ZBSJ,2016-01-28 21:00,ZBSJ 282100Z 02002MPS 0500 R33/0600N FZFG NSC M05/M06 Q1033 NOSIG
ZBSJ,2016-01-28 22:00,ZBSJ 282200Z 04004MPS 3500 BR NSC M04/M05 Q1033 NOSIG
ZBSJ,2016-01-28 23:00,ZBSJ 282300Z 05004MPS 5000 BR NSC M03/M07 Q1034 NOSIG
ZBSJ,2016-01-29 00:00,ZBSJ 290000Z 05005MPS 4000 HZ OVC046 M04/M07 Q1035 NOSIG
ZBSJ,2016-01-29 01:00,ZBSJ 290100Z 06005MPS 5000 -SN HZ OVC040 M04/M08 Q1036 NOSIG
ZBSJ,2016-01-29 02:00,ZBSJ 290200Z 06004MPS 2700 -SN BR OVC040 M04/M07 Q1036 NOSIG
ZBSJ,2016-01-29 03:00,ZBSJ 290300Z 05004MPS 2500 -SN BR OVC040 M04/M06 Q1036 BECMG TL0430 3000
ZBSJ,2016-01-29 04:00,ZBSJ 290400Z 05004MPS 8000 -SN OVC040 M04/M07 Q1036 NOSIG
ZBSJ,2016-01-29 05:00,ZBSJ 290500Z 05002MPS 360V110 8000 NSC M03/M09 Q1034 NOSIG
ZBSJ,2016-01-29 06:00,ZBSJ 290600Z 05002MPS 010V080 CAVOK M02/M09 Q1033 NOSIG
ZBSJ,2016-01-29 07:00,ZBSJ 290700Z 04002MPS 350V080 CAVOK M02/M10 Q1033 NOSIG
ZBSJ,2016-01-29 08:00,ZBSJ 290800Z 03002MPS 9999 OVC046 M02/M10 Q1032 NOSIG
ZBSJ,2016-01-29 09:00,ZBSJ 290900Z 32001MPS 9999 OVC046 M03/M10 Q1033 NOSIG
ZBSJ,2016-01-29 10:00,ZBSJ 291000Z 04001MPS 8000 OVC046 M03/M10 Q1033 NOSIG
ZBSJ,2016-01-29 11:00,ZBSJ 291100Z 04001MPS 8000 OVC046 M05/M11 Q1034 NOSIG
ZBSJ,2016-01-29 12:00,ZBSJ 291200Z 00000MPS 6000 OVC046 M06/M11 Q1033 NOSIG
ZBSJ,2016-01-29 13:00,ZBSJ 291300Z 34001MPS 5000 HZ OVC046 M06/M10 Q1033 NOSIG
ZBSJ,2016-01-29 14:00,ZBSJ 291400Z 36001MPS 4000 HZ OVC046 M05/M10 Q1034 NOSIG
ZBSJ,2016-01-29 15:00,ZBSJ 291500Z 09003MPS 070V130 4000 HZ OVC046 M04/M10 Q1034 NOSIG
ZBSJ,2016-01-29 16:00,ZBSJ 291600Z 11003MPS 8000 OVC046 M05/M10 Q1034 NOSIG
ZBSJ,2016-01-29 17:00,ZBSJ 291700Z 10002MPS 8000 OVC046 M05/M10 Q1034 NOSIG
ZBSJ,2016-01-29 18:00,ZBSJ 291800Z 11003MPS 9999 OVC046 M05/M10 Q1034 NOSIG
ZBSJ,2016-01-29 19:00,ZBSJ 291900Z 06002MPS 9999 OVC046 M06/M10 Q1034 NOSIG
ZBSJ,2016-01-29 20:00,ZBSJ 292000Z 08002MPS 3500 -SN OVC046 M07/M08 Q1034 NOSIG
ZBSJ,2016-01-29 21:00,ZBSJ 292100Z 04003MPS 3500 -SN OVC046 M07/M08 Q1034 NOSIG
ZBSJ,2016-01-29 22:00,ZBSJ 292200Z 05002MPS 020V080 3500 -SN OVC046 M07/M08 Q1034 NOSIG
ZBSJ,2016-01-29 23:00,ZBSJ 292300Z 04001MPS 3500 -SN OVC046 M07/M08 Q1034 BECMG 2000 -SN BR
ZBSJ,2016-01-30 00:00,ZBSJ 300000Z 03001MPS 2700 -SN OVC046 M07/M08 Q1035 BECMG TL0130 3500
ZBSJ,2016-01-30 01:00,ZBSJ 300100Z 05002MPS 2700 -SN BR OVC046 M06/M08 Q1036 BECMG TL0230 3500
ZBSJ,2016-01-30 02:00,ZBSJ 300200Z 03002MPS 2500 -SN BR BKN046 M06/M07 Q1036 BECMG TL0330 3500
ZBSJ,2016-01-30 03:00,ZBSJ 300300Z 08001MPS 3500 -SN BR SCT016 BKN046 M05/M07 Q1037 NOSIG
ZBSJ,2016-01-30 04:00,ZBSJ 300400Z 12001MPS 4500 -SN BR SCT030 BKN046 M04/M07 Q1036 NOSIG
ZBSJ,2016-01-30 05:00,ZBSJ 300500Z 07002MPS 020V090 4000 -SN BR SCT020 BKN046 M04/M07 Q1035 NOSIG
ZBSJ,2016-01-30 06:00,ZBSJ 300600Z 05003MPS 3500 -SN BR SCT030 OVC040 M04/M07 Q1034 NOSIG
ZBSJ,2016-01-30 07:00,ZBSJ 300700Z 01001MPS 4000 -SN BR SCT030 OVC040 M04/M08 Q1035 NOSIG
ZBSJ,2016-01-30 08:00,ZBSJ 300800Z 00000MPS 4000 -SN FU SCT030 OVC040 M04/M08 Q1035 NOSIG
ZBSJ,2016-01-30 09:00,ZBSJ 300900Z 05001MPS 4000 -SN FU OVC040 M04/M08 Q1035 BECMG TL1040 2500 BR
ZBSJ,2016-01-30 10:00,ZBSJ 301000Z 04001MPS 5000 BR OVC040 M04/M08 Q1035 NOSIG
ZBSJ,2016-01-30 11:00,ZBSJ 301100Z 04001MPS 4500 BR NSC M06/M08 Q1036 NOSIG
ZBSJ,2016-01-30 12:00,ZBSJ 301200Z 18001MPS 4000 BR NSC M07/M08 Q1036 NOSIG
ZBSJ,2016-01-30 13:00,ZBSJ 301300Z 31001MPS 3000 BR NSC M08/M10 Q1037 BECMG TL1330 2500 BR
ZBSJ,2016-01-30 14:00,ZBSJ 301400Z 34001MPS 2500 BR NSC M09/M10 Q1037 NOSIG
ZBSJ,2016-01-30 15:00,ZBSJ 301500Z 25001MPS 1700 BR NSC M09/M10 Q1037 BECMG TL1630 1400 BR
ZBSJ,2016-01-30 16:00,ZBSJ 301600Z 32002MPS 1600 BR NSC M09/M10 Q1037 NOSIG
ZBSJ,2016-01-30 17:00,ZBSJ 301700Z 32002MPS 1800 BR NSC M08/M09 Q1037 NOSIG
ZBSJ,2016-01-30 18:00,ZBSJ 301800Z 33002MPS 1800 BR NSC M09/M09 Q1037 NOSIG
ZBSJ,2016-01-30 19:00,ZBSJ 301900Z 32001MPS 2000 BR NSC M10/M10 Q1037 NOSIG
ZBSJ,2016-01-30 20:00,ZBSJ 302000Z 29002MPS 2200 BR NSC M10/M11 Q1036 NOSIG
ZBSJ,2016-01-30 21:00,ZBSJ 302100Z 29002MPS 3000 BR NSC M10/M11 Q1037 NOSIG
ZBSJ,2016-01-30 22:00,ZBSJ 302200Z 31003MPS 3000 BR NSC M11/M12 Q1037 NOSIG
ZBSJ,2016-01-30 23:00,ZBSJ 302300Z 32002MPS 3000 BR NSC M10/M12 Q1037 BECMG TL0030 2500 BR
ZBSJ,2016-01-31 00:00,ZBSJ 310000Z 00000MPS 1800 BR NSC M11/M13 Q1038 BECMG TL0130 3000
ZBSJ,2016-01-31 01:00,ZBSJ 310100Z 34001MPS 1600 R15/1400N BR NSC M06/M09 Q1038 BECMG 3000
ZBSJ,2016-01-31 02:00,ZBSJ 310200Z 33001MPS 2000 BR NSC M05/M10 Q1038 BECMG 3000
ZBSJ,2016-01-31 03:00,ZBSJ 310300Z 08001MPS 2800 HZ NSC M04/M13 Q1039 BECMG 3000
ZBSJ,2016-01-31 04:00,ZBSJ 310400Z 01001MPS 5000 HZ NSC M03/M13 Q1039 NOSIG
ZBSJ,2016-01-31 05:00,ZBSJ 310500Z 09002MPS CAVOK M01/M14 Q1038 NOSIG
ZBSJ,2016-01-31 06:00,ZBSJ 310600Z 05002MPS 340V100 CAVOK 00/M16 Q1037 NOSIG
ZBSJ,2016-01-31 07:00,ZBSJ 310700Z 04002MPS CAVOK 00/M16 Q1036 NOSIG
ZBSJ,2016-01-31 08:00,ZBSJ 310800Z 03001MPS CAVOK 01/M16 Q1036 NOSIG
ZBSJ,2016-01-31 09:00,ZBSJ 310900Z 16003MPS CAVOK M01/M15 Q1036 NOSIG
ZBSJ,2016-01-31 10:00,ZBSJ 311000Z 17003MPS 7000 NSC M05/M15 Q1036 NOSIG
ZBSJ,2016-01-31 11:00,ZBSJ 311100Z 13001MPS 6000 NSC M05/M15 Q1036 NOSIG
ZBSJ,2016-01-31 12:00,ZBSJ 311200Z 10001MPS 5000 HZ NSC M07/M13 Q1037 NOSIG
ZBSJ,2016-01-31 13:00,ZBSJ 311300Z 12002MPS 4000 HZ NSC M07/M14 Q1037 BECMG 2500 HZ
ZBSJ,2016-01-31 14:00,ZBSJ 311400Z 17003MPS 010V180 2500 HZ NSC M08/M15 Q1037 NOSIG
ZBSJ,2016-01-31 15:00,ZBSJ 311500Z 19002MPS 2000 HZ NSC M09/M15 Q1038 NOSIG
ZBSJ,2016-01-31 16:00,ZBSJ 311600Z 23001MPS 1600 HZ NSC M08/M14 Q1037 NOSIG
ZBSJ,2016-01-31 17:00,ZBSJ 311700Z 25002MPS 1600 HZ NSC M11/M16 Q1037 NOSIG
ZBSJ,2016-01-31 18:00,ZBSJ 311800Z 22001MPS 2000 HZ NSC M07/M14 Q1037 NOSIG
ZBSJ,2016-01-31 19:00,ZBSJ 311900Z 29004MPS 5000 HZ NSC M05/M13 Q1037 NOSIG
ZBSJ,2016-01-31 20:00,ZBSJ 312000Z 30005MPS CAVOK M04/M14 Q1036 NOSIG
ZBSJ,2016-01-31 21:00,ZBSJ 312100Z 27004MPS CAVOK M06/M12 Q1036 NOSIG
ZBSJ,2016-01-31 22:00,ZBSJ 312200Z 28004MPS CAVOK M07/M12 Q1036 NOSIG
ZBSJ,2016-01-31 23:00,ZBSJ 312300Z 21002MPS 6000 NSC M09/M14 Q1036 NOSIG
ZBSJ,2016-02-01 00:00,ZBSJ 010000Z 29003MPS 5000 HZ NSC M07/M13 Q1037 NOSIG
ZBSJ,2016-02-01 01:00,ZBSJ 010100Z 14003MPS 4000 HZ NSC M05/M12 Q1037 NOSIG
ZBSJ,2016-02-01 02:00,ZBSJ 010200Z 31005MPS CAVOK 02/M15 Q1037 NOSIG
ZBSJ,2016-02-01 03:00,ZBSJ 010300Z 32007MPS CAVOK 04/M16 Q1037 NOSIG
ZBSJ,2016-02-01 04:00,ZBSJ 010400Z 28004MPS CAVOK 04/M16 Q1037 NOSIG
ZBSJ,2016-02-01 05:00,ZBSJ 010500Z 29004MPS 260V330 CAVOK 05/M16 Q1035 NOSIG
ZBSJ,2016-02-01 06:00,ZBSJ 010600Z 28004MPS 260V320 CAVOK 06/M18 Q1034 NOSIG
ZBSJ,2016-02-01 07:00,ZBSJ 010700Z 30005MPS CAVOK 07/M18 Q1033 NOSIG
ZBSJ,2016-02-01 08:00,ZBSJ 010800Z 32005MPS 270V340 CAVOK 07/M19 Q1033 NOSIG
ZBSJ,2016-02-01 09:00,ZBSJ 010900Z 31003MPS CAVOK 05/M19 Q1033 NOSIG
ZBSJ,2016-02-01 10:00,ZBSJ 011000Z 29003MPS CAVOK 03/M18 Q1033 NOSIG
ZBSJ,2016-02-01 11:00,ZBSJ 011100Z 29003MPS CAVOK M00/M16 Q1033 NOSIG
ZBSJ,2016-02-01 12:00,ZBSJ 011200Z 35004MPS CAVOK 00/M17 Q1034 NOSIG
ZBSJ,2016-02-01 13:00,ZBSJ 011300Z 14003MPS 7000 NSC M05/M16 Q1034 NOSIG
ZBSJ,2016-02-01 14:00,ZBSJ 011400Z 20001MPS 5000 HZ NSC M04/M15 Q1035 NOSIG
ZBSJ,2016-02-01 15:00,ZBSJ 011500Z 27001MPS 4000 HZ NSC M05/M15 Q1034 NOSIG
ZBSJ,2016-02-01 16:00,ZBSJ 011600Z 29001MPS 3500 HZ NSC M06/M15 Q1034 NOSIG
ZBSJ,2016-02-01 17:00,ZBSJ 011700Z 28002MPS 3000 HZ NSC M05/M15 Q1034 NOSIG
ZBSJ,2016-02-01 18:00,ZBSJ 011800Z 31002MPS 3500 HZ NSC M08/M16 Q1034 NOSIG
ZBSJ,2016-02-01 19:00,ZBSJ 011900Z 32002MPS 4000 HZ NSC M08/M14 Q1033 NOSIG
ZBSJ,2016-02-01 20:00,ZBSJ 012000Z 27004MPS 7000 NSC M04/M13 Q1032 NOSIG
ZBSJ,2016-02-01 21:00,ZBSJ 012100Z 33003MPS 7000 NSC M07/M15 Q1032 NOSIG
ZBSJ,2016-02-01 22:00,ZBSJ 012200Z 30003MPS 250V330 7000 NSC M06/M14 Q1032 NOSIG
ZBSJ,2016-02-01 23:00,ZBSJ 012300Z 30002MPS 7000 NSC M07/M14 Q1032 NOSIG
ZBSJ,2016-02-02 00:00,ZBSJ 020000Z 28004MPS 5000 HZ NSC M05/M14 Q1032 NOSIG
ZBSJ,2016-02-02 01:00,ZBSJ 020100Z 30002MPS 4500 HZ NSC M03/M13 Q1032 NOSIG
ZBSJ,2016-02-02 02:00,ZBSJ 020200Z 31002MPS 4500 HZ NSC 02/M13 Q1032 NOSIG
ZBSJ,2016-02-02 03:00,ZBSJ 020300Z 32003MPS 290V350 CAVOK 04/M17 Q1032 NOSIG
ZBSJ,2016-02-02 04:00,ZBSJ 020400Z 31002MPS CAVOK 05/M18 Q1030 NOSIG
ZBSJ,2016-02-02 05:00,ZBSJ 020500Z 31002MPS 250V010 CAVOK 06/M19 Q1029 NOSIG
ZBSJ,2016-02-02 06:00,ZBSJ 020600Z 35003MPS 280V050 CAVOK 06/M20 Q1028 NOSIG
ZBSJ,2016-02-02 07:00,ZBSJ 020700Z 32003MPS 290V010 CAVOK 07/M21 Q1027 NOSIG
ZBSJ,2016-02-02 08:00,ZBSJ 020800Z 33001MPS CAVOK 07/M22 Q1027 NOSIG
ZBSJ,2016-02-02 09:00,ZBSJ 020900Z 14002MPS CAVOK 05/M21 Q1027 NOSIG
ZBSJ,2016-02-02 10:00,ZBSJ 021000Z 13002MPS 6000 NSC 01/M21 Q1027 NOSIG
ZBSJ,2016-02-02 11:00,ZBSJ 021100Z 14002MPS 5000 HZ NSC M02/M18 Q1028 NOSIG
ZBSJ,2016-02-02 12:00,ZBSJ 021200Z 14001MPS 5000 HZ NSC M03/M18 Q1028 NOSIG
ZBSJ,2016-02-02 13:00,ZBSJ 021300Z 04001MPS 3000 HZ NSC M05/M17 Q1029 BECMG TL1420 2500 HZ
ZBSJ,2016-02-02 14:00,ZBSJ 021400Z 03001MPS 1600 HZ NSC M06/M16 Q1029 BECMG TL1430 1400 HZ
ZBSJ,2016-02-02 15:00,ZBSJ 021500Z 02001MPS 1600 HZ NSC M06/M15 Q1028 NOSIG
ZBSJ,2016-02-02 16:00,ZBSJ 021600Z 35001MPS 1400 R15/2000D HZ NSC M07/M15 Q1028 NOSIG
ZBSJ,2016-02-02 17:00,ZBSJ 021700Z 32002MPS 1400 R15/1700N HZ NSC M09/M16 Q1028 NOSIG
ZBSJ,2016-02-02 18:00,ZBSJ 021800Z 28001MPS 1600 HZ NSC M09/M15 Q1028 NOSIG
ZBSJ,2016-02-02 19:00,ZBSJ 021900Z 28001MPS 1600 HZ NSC M08/M15 Q1028 NOSIG
ZBSJ,2016-02-02 20:00,ZBSJ 022000Z 28001MPS 2000 HZ NSC M08/M14 Q1027 NOSIG
ZBSJ,2016-02-02 21:00,ZBSJ 022100Z 31002MPS 3000 HZ NSC M08/M14 Q1027 NOSIG
ZBSJ,2016-02-02 22:00,ZBSJ 022200Z 30002MPS 3000 HZ NSC M08/M14 Q1027 NOSIG
ZBSJ,2016-02-02 23:00,ZBSJ 022300Z 28002MPS 3000 HZ NSC M06/M13 Q1027 NOSIG
ZBSJ,2016-02-03 00:00,ZBSJ 030000Z 31004MPS 3000 HZ NSC M07/M12 Q1028 NOSIG
ZBSJ,2016-02-03 01:00,ZBSJ 030100Z 32003MPS 3500 HZ NSC M03/M12 Q1029 NOSIG
ZBSJ,2016-02-03 02:00,ZBSJ 030200Z 33003MPS 310V010 5000 HZ NSC 00/M13 Q1029 NOSIG
ZBSJ,2016-02-03 03:00,ZBSJ 030300Z 31002MPS 270V340 6000 NSC 03/M14 Q1028 NOSIG
ZBSJ,2016-02-03 04:00,ZBSJ 030400Z 27003MPS 230V300 8000 NSC 07/M16 Q1028 NOSIG
ZBSJ,2016-02-03 05:00,ZBSJ 030500Z 30001MPS CAVOK 09/M17 Q1027 NOSIG
ZBSJ,2016-02-03 06:00,ZBSJ 030600Z 08001MPS CAVOK 09/M18 Q1025 NOSIG
ZBSJ,2016-02-03 07:00,ZBSJ 030700Z 14002MPS 090V220 CAVOK 10/M19 Q1025 NOSIG
ZBSJ,2016-02-03 08:00,ZBSJ 030800Z 15002MPS CAVOK 09/M19 Q1025 NOSIG
ZBSJ,2016-02-03 09:00,ZBSJ 030900Z 16002MPS CAVOK 07/M19 Q1025 NOSIG
ZBSJ,2016-02-03 10:00,ZBSJ 031000Z 13002MPS 2500 HZ NSC 03/M18 Q1026 NOSIG
ZBSJ,2016-02-03 11:00,ZBSJ 031100Z 17001MPS 3000 HZ NSC 01/M18 Q1027 BECMG TL1230 2500 HZ
ZBSJ,2016-02-03 12:00,ZBSJ 031200Z 05002MPS 2300 HZ NSC M01/M15 Q1028 NOSIG
ZBSJ,2016-02-03 13:00,ZBSJ 031300Z 04001MPS 2000 HZ NSC M00/M15 Q1029 NOSIG
ZBSJ,2016-02-03 14:00,ZBSJ 031400Z 04003MPS 2000 HZ NSC 00/M16 Q1030 NOSIG
ZBSJ,2016-02-03 15:00,ZBSJ 031500Z 07002MPS 1800 HZ NSC M01/M14 Q1029 NOSIG
ZBSJ,2016-02-03 16:00,ZBSJ 031600Z 03001MPS 1800 HZ NSC M02/M14 Q1029 NOSIG
ZBSJ,2016-02-03 17:00,ZBSJ 031700Z 33002MPS 1800 HZ NSC M02/M13 Q1029 NOSIG
ZBSJ,2016-02-03 18:00,ZBSJ 031800Z 24001MPS 1800 HZ NSC M03/M13 Q1029 NOSIG
ZBSJ,2016-02-03 19:00,ZBSJ 031900Z 30001MPS 2000 HZ NSC M03/M12 Q1030 NOSIG
ZBSJ,2016-02-03 20:00,ZBSJ 032000Z 33003MPS 2000 HZ NSC M03/M12 Q1029 NOSIG
ZBSJ,2016-02-03 21:00,ZBSJ 032100Z 35001MPS 2200 HZ NSC M04/M11 Q1030 NOSIG
ZBSJ,2016-02-03 22:00,ZBSJ 032200Z 02001MPS 2500 HZ NSC M04/M11 Q1030 NOSIG
ZBSJ,2016-02-03 23:00,ZBSJ 032300Z 04003MPS 2000 HZ NSC M03/M11 Q1031 BECMG 1400 HZ
ZBSJ,2016-02-04 00:00,ZBSJ 040000Z 03003MPS 1200 R15/1600N HZ NSC M02/M12 Q1031 BECMG TL0130 1600
ZBSJ,2016-02-04 01:00,ZBSJ 040100Z 06002MPS 0900 R15/1200U HZ NSC M01/M12 Q1031 BECMG TL0230 1600
ZBSJ,2016-02-04 02:00,ZBSJ 040200Z 06002MPS 1600 HZ NSC 01/M15 Q1032 BECMG TL0330 3000
ZBSJ,2016-02-04 03:00,ZBSJ 040300Z 09003MPS 060V120 4000 HZ NSC 03/M18 Q1032 NOSIG
ZBSJ,2016-02-04 04:00,ZBSJ 040400Z 09002MPS 040V140 4500 HZ NSC 04/M17 Q1030 NOSIG
ZBSJ,2016-02-04 05:00,ZBSJ 040500Z 07002MPS 030V130 7000 NSC 05/M18 Q1029 NOSIG
ZBSJ,2016-02-04 06:00,ZBSJ 040600Z 13002MPS 080V180 8000 NSC 06/M18 Q1028 NOSIG
ZBSJ,2016-02-04 07:00,ZBSJ 040700Z 11002MPS 050V180 8000 NSC 06/M17 Q1027 NOSIG
ZBSJ,2016-02-04 08:00,ZBSJ 040800Z 11002MPS 8000 NSC 06/M18 Q1027 NOSIG
ZBSJ,2016-02-04 09:00,ZBSJ 040900Z 16002MPS 6000 NSC 04/M18 Q1028 NOSIG
ZBSJ,2016-02-04 10:00,ZBSJ 041000Z 11001MPS 3000 HZ NSC 02/M17 Q1028 NOSIG
ZBSJ,2016-02-04 11:00,ZBSJ 041100Z 04001MPS 3000 HZ NSC M01/M15 Q1029 BECMG 2000 HZ
ZBSJ,2016-02-04 12:00,ZBSJ 041200Z 05001MPS 3000 HZ NSC M02/M15 Q1029 BECMG 2000 HZ
ZBSJ,2016-02-04 13:00,ZBSJ 041300Z 03001MPS 2000 HZ NSC M03/M14 Q1030 NOSIG
ZBSJ,2016-02-04 14:00,ZBSJ 041400Z 03001MPS 2000 HZ NSC M02/M14 Q1030 NOSIG
ZBSJ,2016-02-04 15:00,ZBSJ 041500Z 28001MPS 2000 HZ NSC M01/M14 Q1030 NOSIG
ZBSJ,2016-02-04 16:00,ZBSJ 041600Z 34002MPS 1500 HZ NSC M02/M12 Q1030 NOSIG
ZBSJ,2016-02-04 17:00,ZBSJ 041700Z 25003MPS 1500 HZ NSC M03/M12 Q1030 NOSIG
ZBSJ,2016-02-04 18:00,ZBSJ 041800Z 33002MPS 1500 HZ NSC M05/M13 Q1030 NOSIG
ZBSJ,2016-02-04 19:00,ZBSJ 041900Z 31003MPS 2000 HZ NSC M06/M13 Q1030 NOSIG
ZBSJ,2016-02-04 20:00,ZBSJ 042000Z 31003MPS 4500 HZ NSC M07/M13 Q1030 NOSIG
ZBSJ,2016-02-04 21:00,ZBSJ 042100Z 32003MPS 8000 NSC M05/M11 Q1030 NOSIG
ZBSJ,2016-02-04 22:00,ZBSJ 042200Z 33003MPS 7000 NSC M04/M11 Q1030 NOSIG
ZBSJ,2016-02-04 23:00,ZBSJ 042300Z 24002MPS 5000 HZ NSC M07/M13 Q1030 NOSIG
ZBSJ,2016-02-05 00:00,ZBSJ 050000Z 31004MPS 4000 HZ NSC M03/M10 Q1031 NOSIG
ZBSJ,2016-02-05 01:00,ZBSJ 050100Z 33003MPS 4500 HZ NSC M00/M10 Q1031 NOSIG
ZBSJ,2016-02-05 02:00,ZBSJ 050200Z 35006MPS CAVOK 02/M17 Q1031 NOSIG
ZBSJ,2016-02-05 03:00,ZBSJ 050300Z 34005MPS CAVOK 05/M18 Q1031 NOSIG
ZBSJ,2016-02-05 04:00,ZBSJ 050400Z 33005MPS 300V360 CAVOK 05/M17 Q1031 NOSIG
ZBSJ,2016-02-05 05:00,ZBSJ 050500Z 32006MPS 290V350 CAVOK 06/M19 Q1030 NOSIG
ZBSJ,2016-02-05 06:00,ZBSJ 050600Z 31006MPS 270V340 CAVOK 06/M20 Q1029 NOSIG
ZBSJ,2016-02-05 07:00,ZBSJ 050700Z 32007MPS CAVOK 06/M20 Q1029 NOSIG
ZBSJ,2016-02-05 08:00,ZBSJ 050800Z 33008MPS CAVOK 06/M21 Q1029 NOSIG
ZBSJ,2016-02-05 09:00,ZBSJ 050900Z 33007MPS CAVOK 04/M21 Q1029 NOSIG
ZBSJ,2016-02-05 10:00,ZBSJ 051000Z 32006MPS CAVOK 02/M20 Q1030 NOSIG
ZBSJ,2016-02-05 11:00,ZBSJ 051100Z 32003MPS CAVOK M01/M18 Q1031 NOSIG
ZBSJ,2016-02-05 12:00,ZBSJ 051200Z 33008MPS CAVOK 02/M19 Q1031 NOSIG
ZBSJ,2016-02-05 13:00,ZBSJ 051300Z 35008MPS CAVOK 02/M19 Q1031 NOSIG
ZBSJ,2016-02-05 14:00,ZBSJ 051400Z 30004MPS 260V320 CAVOK M00/M17 Q1032 NOSIG
ZBSJ,2016-02-05 15:00,ZBSJ 051500Z 29004MPS 6000 NSC M00/M16 Q1032 NOSIG
ZBSJ,2016-02-05 16:00,ZBSJ 051600Z 27004MPS 6000 NSC 00/M18 Q1032 NOSIG
ZBSJ,2016-02-05 17:00,ZBSJ 051700Z 23002MPS 5000 HZ NSC M02/M16 Q1032 NOSIG
ZBSJ,2016-02-05 18:00,ZBSJ 051800Z 29002MPS 5000 HZ NSC M04/M17 Q1031 NOSIG
ZBSJ,2016-02-05 19:00,ZBSJ 051900Z 22001MPS 5000 HZ NSC M06/M17 Q1031 NOSIG
ZBSJ,2016-02-05 20:00,ZBSJ 052000Z 28003MPS 6000 NSC M02/M16 Q1031 NOSIG
ZBSJ,2016-02-05 21:00,ZBSJ 052100Z 27002MPS 6000 NSC M06/M17 Q1031 NOSIG
ZBSJ,2016-02-05 22:00,ZBSJ 052200Z 31002MPS 6000 NSC M06/M16 Q1031 NOSIG
ZBSJ,2016-02-05 23:00,ZBSJ 052300Z 32002MPS 6000 NSC M05/M15 Q1031 NOSIG
ZBSJ,2016-02-06 00:00,ZBSJ 060000Z 30002MPS 4000 HZ NSC M04/M14 Q1032 NOSIG
ZBSJ,2016-02-06 01:00,ZBSJ 060100Z 24003MPS 4500 HZ NSC 01/M16 Q1032 NOSIG
ZBSJ,2016-02-06 02:00,ZBSJ 060200Z 27003MPS 7000 NSC 04/M16 Q1032 NOSIG
ZBSJ,2016-02-06 03:00,ZBSJ 060300Z 25004MPS CAVOK 05/M17 Q1032 NOSIG
ZBSJ,2016-02-06 04:00,ZBSJ 060400Z 31004MPS 270V340 CAVOK 07/M18 Q1031 NOSIG
ZBSJ,2016-02-06 05:00,ZBSJ 060500Z VRB03MPS CAVOK 08/M18 Q1030 NOSIG
ZBSJ,2016-02-06 06:00,ZBSJ 060600Z 26003MPS 180V350 CAVOK 08/M19 Q1028 NOSIG
ZBSJ,2016-02-06 07:00,ZBSJ 060700Z 31002MPS 280V360 CAVOK 09/M19 Q1028 NOSIG
ZBSJ,2016-02-06 08:00,ZBSJ 060800Z 33001MPS CAVOK 09/M19 Q1027 NOSIG
ZBSJ,2016-02-06 09:00,ZBSJ 060900Z 29001MPS CAVOK 08/M20 Q1027 NOSIG
ZBSJ,2016-02-06 10:00,ZBSJ 061000Z 24002MPS CAVOK 05/M20 Q1027 NOSIG
ZBSJ,2016-02-06 11:00,ZBSJ 061100Z 22002MPS 4000 FU NSC 03/M18 Q1027 NOSIG
ZBSJ,2016-02-06 12:00,ZBSJ 061200Z 26001MPS 6000 NSC 02/M19 Q1027 NOSIG
ZBSJ,2016-02-06 13:00,ZBSJ 061300Z 24002MPS 220V280 5000 FU NSC M00/M19 Q1027 NOSIG
ZBSJ,2016-02-06 14:00,ZBSJ 061400Z 26001MPS 4000 FU NSC M01/M16 Q1027 NOSIG
ZBSJ,2016-02-06 15:00,ZBSJ 061500Z 20003MPS 170V240 3500 FU NSC M01/M16 Q1026 NOSIG
ZBSJ,2016-02-06 16:00,ZBSJ 061600Z 23002MPS 2500 FU NSC M01/M16 Q1025 NOSIG
ZBSJ,2016-02-06 17:00,ZBSJ 061700Z 36001MPS 2000 FU NSC M05/M16 Q1025 NOSIG
ZBSJ,2016-02-06 18:00,ZBSJ 061800Z 28001MPS 2500 FU NSC M05/M16 Q1024 NOSIG
ZBSJ,2016-02-06 19:00,ZBSJ 061900Z 28001MPS 2500 FU NSC M06/M15 Q1024 NOSIG
ZBSJ,2016-02-06 20:00,ZBSJ 062000Z 28002MPS 2000 FU NSC M05/M13 Q1023 NOSIG
ZBSJ,2016-02-06 21:00,ZBSJ 062100Z 31002MPS 2500 FU NSC M07/M15 Q1022 NOSIG
ZBSJ,2016-02-06 22:00,ZBSJ 062200Z 29002MPS 3500 HZ NSC M08/M14 Q1022 NOSIG
ZBSJ,2016-02-06 23:00,ZBSJ 062300Z 27003MPS 3500 HZ NSC M03/M14 Q1022 BECMG TL2330 2800 HZ
ZBSJ,2016-02-07 00:00,ZBSJ 070000Z 29003MPS 3500 HZ NSC M02/M15 Q1022 NOSIG
ZBSJ,2016-02-07 01:00,ZBSJ 070100Z 27004MPS 4000 HZ NSC M00/M15 Q1023 NOSIG
ZBSJ,2016-02-07 02:00,ZBSJ 070200Z 27003MPS 7000 NSC 05/M15 Q1023 NOSIG
ZBSJ,2016-02-07 03:00,ZBSJ 070300Z 28005MPS CAVOK 07/M16 Q1022 NOSIG
ZBSJ,2016-02-07 04:00,ZBSJ 070400Z 28005MPS CAVOK 08/M16 Q1021 NOSIG
ZBSJ,2016-02-07 05:00,ZBSJ 070500Z 28006MPS CAVOK 09/M18 Q1020 NOSIG
ZBSJ,2016-02-07 06:00,ZBSJ 070600Z 31004MPS CAVOK 10/M17 Q1019 NOSIG
ZBSJ,2016-02-07 07:00,ZBSJ 070700Z 31002MPS 260V010 CAVOK 10/M18 Q1018 NOSIG
ZBSJ,2016-02-07 08:00,ZBSJ 070800Z 31003MPS CAVOK 11/M18 Q1018 NOSIG
ZBSJ,2016-02-07 09:00,ZBSJ 070900Z 01002MPS CAVOK 09/M18 Q1017 NOSIG
ZBSJ,2016-02-07 10:00,ZBSJ 071000Z 01002MPS 3500 FU NSC 06/M17 Q1018 BECMG TL1130 2500 FU
ZBSJ,2016-02-07 11:00,ZBSJ 071100Z 30001MPS 8000 NSC 04/M17 Q1018 NOSIG
ZBSJ,2016-02-07 12:00,ZBSJ 071200Z 21002MPS 5000 FU NSC 02/M17 Q1018 NOSIG
ZBSJ,2016-02-07 13:00,ZBSJ 071300Z 21001MPS 5000 FU NSC 02/M17 Q1018 NOSIG
ZBSJ,2016-02-07 14:00,ZBSJ 071400Z 18002MPS 5000 FU NSC M01/M15 Q1018 NOSIG
ZBSJ,2016-02-07 15:00,ZBSJ 071500Z 18002MPS 4000 FU NSC M01/M14 Q1017 NOSIG
ZBSJ,2016-02-07 16:00,ZBSJ 071600Z 16002MPS 3000 FU NSC M01/M14 Q1016 NOSIG
ZBSJ,2016-02-07 17:00,ZBSJ 071700Z 17003MPS 3000 FU NSC M02/M13 Q1015 NOSIG
ZBSJ,2016-02-07 18:00,ZBSJ 071800Z 16002MPS 3000 FU NSC M03/M13 Q1014 NOSIG
ZBSJ,2016-02-07 19:00,ZBSJ 071900Z 01002MPS 2500 FU NSC M04/M13 Q1014 NOSIG
ZBSJ,2016-02-07 20:00,ZBSJ 072000Z 07001MPS 2500 FU NSC M05/M13 Q1014 NOSIG
ZBSJ,2016-02-07 21:00,ZBSJ 072100Z 20001MPS 2500 FU NSC M06/M13 Q1013 NOSIG
ZBSJ,2016-02-07 22:00,ZBSJ 072200Z 36001MPS 2500 FU NSC M07/M13 Q1013 NOSIG
ZBSJ,2016-02-07 23:00,ZBSJ 072300Z 36002MPS 1400 R15/1600U FU NSC M06/M12 Q1013 NOSIG
ZBSJ,2016-02-08 00:00,ZBSJ 080000Z 35001MPS 0800 R33/0700N FU NSC M05/M11 Q1014 BECMG TL0130 1500
ZBSJ,2016-02-08 01:00,ZBSJ 080100Z 34001MPS 1600 R33/1300U FU NSC 01/M11 Q1015 BECMG TL0230 3000
ZBSJ,2016-02-08 02:00,ZBSJ 080200Z 28002MPS 230V340 3500 FU NSC 06/M13 Q1016 NOSIG
ZBSJ,2016-02-08 03:00,ZBSJ 080300Z 26002MPS 230V310 5000 FU NSC 12/M11 Q1015 NOSIG
ZBSJ,2016-02-08 04:00,ZBSJ 080400Z 01003MPS 330V070 CAVOK 15/M13 Q1015 NOSIG
ZBSJ,2016-02-08 05:00,ZBSJ 080500Z 32001MPS CAVOK 16/M12 Q1014 NOSIG
ZBSJ,2016-02-08 06:00,ZBSJ 080600Z 03002MPS CAVOK 16/M12 Q1013 NOSIG
ZBSJ,2016-02-08 07:00,ZBSJ 080700Z 02001MPS CAVOK 17/M11 Q1013 NOSIG
ZBSJ,2016-02-08 08:00,ZBSJ 080800Z 03001MPS CAVOK 16/M12 Q1013 NOSIG
ZBSJ,2016-02-08 09:00,ZBSJ 080900Z 18001MPS CAVOK 15/M11 Q1014 NOSIG
ZBSJ,2016-02-08 10:00,ZBSJ 081000Z 16003MPS CAVOK 10/M12 Q1014 NOSIG
ZBSJ,2016-02-08 11:00,ZBSJ 081100Z 20003MPS 6000 NSC 09/M11 Q1015 NOSIG
ZBSJ,2016-02-08 12:00,ZBSJ 081200Z 08003MPS 6000 NSC 06/M11 Q1016 NOSIG
ZBSJ,2016-02-08 13:00,ZBSJ 081300Z 08002MPS 5000 HZ NSC 04/M12 Q1017 NOSIG
ZBSJ,2016-02-08 14:00,ZBSJ 081400Z 03002MPS 4000 HZ NSC 03/M12 Q1018 NOSIG
ZBSJ,2016-02-08 15:00,ZBSJ 081500Z 05002MPS 3500 HZ NSC 01/M12 Q1019 BECMG 2800 FU
ZBSJ,2016-02-08 16:00,ZBSJ 081600Z 05003MPS 3500 HZ NSC M00/M10 Q1019 NOSIG
ZBSJ,2016-02-08 17:00,ZBSJ 081700Z 06002MPS 3500 HZ NSC M01/M11 Q1020 NOSIG
ZBSJ,2016-02-08 18:00,ZBSJ 081800Z 34002MPS 4000 HZ NSC M02/M11 Q1020 NOSIG
ZBSJ,2016-02-08 19:00,ZBSJ 081900Z 32002MPS 4000 HZ NSC M02/M11 Q1021 NOSIG
ZBSJ,2016-02-08 20:00,ZBSJ 082000Z 32002MPS 4000 HZ NSC M03/M11 Q1021 NOSIG
ZBSJ,2016-02-08 21:00,ZBSJ 082100Z 33001MPS 4000 HZ NSC M03/M11 Q1021 NOSIG
ZBSJ,2016-02-08 22:00,ZBSJ 082200Z 28001MPS 4000 HZ NSC M03/M11 Q1021 NOSIG
ZBSJ,2016-02-08 23:00,ZBSJ 082300Z 29002MPS 4500 HZ NSC M04/M10 Q1022 NOSIG
ZBSJ,2016-02-09 00:00,ZBSJ 090000Z 32003MPS 3500 HZ NSC M02/M08 Q1023 NOSIG
ZBSJ,2016-02-09 01:00,ZBSJ 090100Z 32003MPS 3000 HZ NSC 03/M09 Q1023 BECMG 2800 FU
ZBSJ,2016-02-09 02:00,ZBSJ 090200Z 30002MPS 2500 HZ NSC 06/M09 Q1024 BECMG 3000
ZBSJ,2016-02-09 03:00,ZBSJ 090300Z 35001MPS 4000 HZ NSC 09/M11 Q1023 NOSIG
ZBSJ,2016-02-09 04:00,ZBSJ 090400Z 08001MPS 8000 NSC 10/M13 Q1023 NOSIG
ZBSJ,2016-02-09 05:00,ZBSJ 090500Z 14002MPS 8000 NSC 11/M15 Q1021 NOSIG
ZBSJ,2016-02-09 06:00,ZBSJ 090600Z 04001MPS 8000 NSC 12/M14 Q1020 NOSIG
ZBSJ,2016-02-09 07:00,ZBSJ 090700Z 15002MPS 080V190 8000 NSC 12/M14 Q1019 NOSIG
ZBSJ,2016-02-09 08:00,ZBSJ 090800Z 13002MPS CAVOK 12/M14 Q1019 NOSIG
ZBSJ,2016-02-09 09:00,ZBSJ 090900Z 10001MPS CAVOK 11/M14 Q1019 NOSIG
ZBSJ,2016-02-09 10:00,ZBSJ 091000Z 04001MPS 5000 HZ NSC 06/M13 Q1019 NOSIG
ZBSJ,2016-02-09 11:00,ZBSJ 091100Z 01001MPS 4000 HZ NSC 03/M13 Q1019 BECMG 2500 FU
ZBSJ,2016-02-09 12:00,ZBSJ 091200Z 01001MPS 4000 HZ NSC 03/M13 Q1019 BECMG 2800 FU
ZBSJ,2016-02-09 13:00,ZBSJ 091300Z 01001MPS 3500 HZ NSC 01/M12 Q1019 BECMG 2800 FU
ZBSJ,2016-02-09 14:00,ZBSJ 091400Z 35001MPS 2800 HZ NSC 02/M13 Q1019 NOSIG
ZBSJ,2016-02-09 15:00,ZBSJ 091500Z 34002MPS 2800 HZ NSC 01/M12 Q1018 NOSIG
ZBSJ,2016-02-09 16:00,ZBSJ 091600Z 31003MPS 2500 HZ NSC M02/M11 Q1018 NOSIG
ZBSJ,2016-02-09 17:00,ZBSJ 091700Z 31003MPS 3000 HZ NSC M00/M11 Q1018 NOSIG
ZBSJ,2016-02-09 18:00,ZBSJ 091800Z 31003MPS 4000 HZ NSC M00/M10 Q1018 NOSIG
ZBSJ,2016-02-09 19:00,ZBSJ 091900Z 32003MPS 4000 HZ NSC M03/M10 Q1018 NOSIG
ZBSJ,2016-02-09 20:00,ZBSJ 092000Z 30002MPS 5000 HZ NSC M03/M10 Q1017 NOSIG
ZBSJ,2016-02-09 21:00,ZBSJ 092100Z 32003MPS 5000 HZ NSC M03/M10 Q1017 NOSIG
ZBSJ,2016-02-09 22:00,ZBSJ 092200Z 33003MPS 5000 HZ NSC M03/M09 Q1017 NOSIG
ZBSJ,2016-02-09 23:00,ZBSJ 092300Z 32002MPS 5000 HZ NSC M03/M10 Q1017 NOSIG
ZBSJ,2016-02-10 00:00,ZBSJ 100000Z 33002MPS 2200 HZ NSC M03/M09 Q1018 BECMG 3000
ZBSJ,2016-02-10 01:00,ZBSJ 100100Z 35001MPS 1200 R33/0900N HZ NSC 01/M08 Q1018 BECMG 1600
ZBSJ,2016-02-10 02:00,ZBSJ 100200Z 01002MPS 2000 R33/1400N HZ NSC 03/M10 Q1018 BECMG 3500
ZBSJ,2016-02-10 03:00,ZBSJ 100300Z 03003MPS 2500 HZ NSC 05/M10 Q1018 BECMG 3500
ZBSJ,2016-02-10 04:00,ZBSJ 100400Z 06002MPS 020V100 3500 HZ NSC 07/M10 Q1017 NOSIG
ZBSJ,2016-02-10 05:00,ZBSJ 100500Z 07002MPS 030V110 5000 HZ NSC 08/M11 Q1016 NOSIG
ZBSJ,2016-02-10 06:00,ZBSJ 100600Z 06003MPS 020V100 7000 NSC 09/M11 Q1015 NOSIG
ZBSJ,2016-02-10 07:00,ZBSJ 100700Z 05004MPS 7000 NSC 09/M11 Q1014 NOSIG
ZBSJ,2016-02-10 08:00,ZBSJ 100800Z 07003MPS 7000 NSC 09/M10 Q1014 NOSIG
ZBSJ,2016-02-10 09:00,ZBSJ 100900Z 08002MPS 5000 HZ NSC 08/M10 Q1014 NOSIG
ZBSJ,2016-02-10 10:00,ZBSJ 101000Z 09002MPS 3000 HZ NSC 05/M10 Q1015 BECMG 2500 HZ
ZBSJ,2016-02-10 11:00,ZBSJ 101100Z 01001MPS 3000 HZ NSC 04/M09 Q1016 BECMG 2500 HZ
ZBSJ,2016-02-10 12:00,ZBSJ 101200Z 36002MPS 3000 HZ NSC 05/M09 Q1016 BECMG 2500 HZ
ZBSJ,2016-02-10 13:00,ZBSJ 101300Z 01002MPS 3500 HZ NSC 06/M09 Q1016 NOSIG
ZBSJ,2016-02-10 14:00,ZBSJ 101400Z 32002MPS 3000 HZ NSC 04/M08 Q1017 BECMG 2500 HZ
ZBSJ,2016-02-10 15:00,ZBSJ 101500Z 33003MPS 2500 HZ NSC 04/M08 Q1016 NOSIG
ZBSJ,2016-02-10 16:00,ZBSJ 101600Z 35002MPS 3000 HZ NSC 04/M08 Q1016 NOSIG
ZBSJ,2016-02-10 17:00,ZBSJ 101700Z 35002MPS 3000 HZ NSC 04/M08 Q1016 NOSIG
ZBSJ,2016-02-10 18:00,ZBSJ 101800Z 32003MPS 3000 HZ NSC 04/M08 Q1016 NOSIG
ZBSJ,2016-02-10 19:00,ZBSJ 101900Z 32003MPS 2500 HZ NSC 04/M08 Q1015 NOSIG
ZBSJ,2016-02-10 20:00,ZBSJ 102000Z 30002MPS 2500 HZ NSC 04/M08 Q1015 NOSIG
ZBSJ,2016-02-10 21:00,ZBSJ 102100Z 31001MPS 2500 HZ NSC 03/M07 Q1015 NOSIG
ZBSJ,2016-02-10 22:00,ZBSJ 102200Z 36001MPS 3000 HZ NSC 04/M07 Q1016 NOSIG
ZBSJ,2016-02-10 23:00,ZBSJ 102300Z 32001MPS 2200 HZ NSC 03/M06 Q1016 NOSIG
ZBSJ,2016-02-11 00:00,ZBSJ 110000Z 05003MPS 2000 HZ NSC 05/M06 Q1016 NOSIG
ZBSJ,2016-02-11 01:00,ZBSJ 110100Z 03002MPS 2700 HZ NSC 05/M04 Q1016 BECMG TL0230 3000
ZBSJ,2016-02-11 02:00,ZBSJ 110200Z 04003MPS 2700 HZ NSC 06/M02 Q1016 BECMG TL0330 3000
ZBSJ,2016-02-11 03:00,ZBSJ 110300Z 01003MPS 2500 HZ NSC 07/M03 Q1016 BECMG TL0430 3000
ZBSJ,2016-02-11 04:00,ZBSJ 110400Z 01003MPS 340V040 3000 HZ NSC 08/M05 Q1016 NOSIG
ZBSJ,2016-02-11 05:00,ZBSJ 110500Z 35002MPS 310V030 3000 HZ NSC 09/M07 Q1015 NOSIG
ZBSJ,2016-02-11 06:00,ZBSJ 110600Z 02002MPS 2700 HZ NSC 09/M05 Q1015 NOSIG
ZBSJ,2016-02-11 07:00,ZBSJ 110700Z 03001MPS 2200 HZ NSC 08/M04 Q1014 NOSIG
ZBSJ,2016-02-11 08:00,ZBSJ 110800Z 08002MPS 2500 HZ NSC 08/M04 Q1014 BECMG TL0940 1400 HZ
ZBSJ,2016-02-11 09:00,ZBSJ 110900Z 09002MPS 2500 HZ NSC 07/01 Q1015 BECMG TL1020 1400 HZ
ZBSJ,2016-02-11 10:00,ZBSJ 111000Z 08002MPS 2000 BR NSC 05/01 Q1015 NOSIG
ZBSJ,2016-02-11 11:00,ZBSJ 111100Z 07001MPS 2000 BR NSC 02/M00 Q1016 NOSIG
ZBSJ,2016-02-11 12:00,ZBSJ 111200Z 06001MPS 1700 BR NSC 02/01 Q1016 NOSIG
ZBSJ,2016-02-11 13:00,ZBSJ 111300Z 09001MPS 1400 R33/1300D BR NSC 01/00 Q1016 NOSIG
ZBSJ,2016-02-11 14:00,ZBSJ 111400Z 00000MPS 0700 R33/0750V1300D FZFG NSC M01/M01 Q1016 NOSIG
ZBSJ,2016-02-11 15:00,ZBSJ 111500Z 08001MPS 0500 R15/1100D FZFG NSC M00/M01 Q1016 NOSIG
ZBSJ,2016-02-11 16:00,ZBSJ 111600Z 03001MPS 0400 R15/0650N FZFG NSC M02/M02 Q1016 NOSIG
ZBSJ,2016-02-11 17:00,ZBSJ 111700Z 05001MPS 0050 R15/0075N FZFG NSC M02/M02 Q1016 NOSIG
ZBSJ,2016-02-11 18:00,ZBSJ 111800Z 00000MPS 0100 R15/0400V0600U FZFG NSC M00/M00 Q1017 NOSIG
ZBSJ,2016-02-11 19:00,ZBSJ 111900Z 15001MPS 0300 R15/0700N FG NSC 01/01 Q1017 NOSIG
ZBSJ,2016-02-11 20:00,ZBSJ 112000Z 15001MPS 0300 R15/0500N FG VV006 01/01 Q1016 NOSIG
ZBSJ,2016-02-11 21:00,ZBSJ 112100Z 00000MPS 0300 R15/0650D FG VV006 01/01 Q1016 NOSIG
ZBSJ,2016-02-11 22:00,ZBSJ 112200Z 02002MPS 0400 R15/1100N FG VV006 02/02 Q1015 NOSIG
ZBSJ,2016-02-11 23:00,ZBSJ 112300Z 21001MPS 0600 R15/1600N FG FEW016 02/02 Q1016 NOSIG
ZBSJ,2016-02-12 00:00,ZBSJ 120000Z 00000MPS 0600 R15/1100U FG OVC040 02/02 Q1016 NOSIG
ZBSJ,2016-02-12 01:00,ZBSJ 120100Z 03001MPS 0600 R15/0800N FG OVC040 03/02 Q1017 BECMG TL0230 0800
ZBSJ,2016-02-12 02:00,ZBSJ 120200Z 00000MPS 0900 R15/1200D FG OVC040 03/02 Q1017 NOSIG
ZBSJ,2016-02-12 03:00,ZBSJ 120300Z 04001MPS 1000 R15/1100D BR OVC040 04/02 Q1017 NOSIG
ZBSJ,2016-02-12 04:00,ZBSJ 120400Z 03001MPS 1000 R15/1200N -RA BR OVC040 04/02 Q1016 NOSIG
ZBSJ,2016-02-12 05:00,ZBSJ 120500Z 34002MPS 0800 R33/0800N -RA FG OVC040 04/02 Q1015 NOSIG
ZBSJ,2016-02-12 06:00,ZBSJ 120600Z 33002MPS 0600 R33/0700N -RA FG OVC040 03/02 Q1014 NOSIG
ZBSJ,2016-02-12 07:00,ZBSJ 120700Z 35002MPS 0550 R33/0650N -RA FG OVC040 03/03 Q1014 BECMG 0600
ZBSJ,2016-02-12 08:00,ZBSJ 120800Z 32002MPS 0600 R33/0800U FG OVC040 03/03 Q1014 BECMG 0800
ZBSJ,2016-02-12 09:00,ZBSJ 120900Z 32002MPS 0600 R33/1000U FG OVC040 03/02 Q1014 BECMG 0800
ZBSJ,2016-02-12 10:00,ZBSJ 121000Z 29001MPS 0800 R33/1200U -RA FG OVC040 03/03 Q1015 NOSIG
ZBSJ,2016-02-12 11:00,ZBSJ 121100Z 33001MPS 0900 R33/1300N -RA FG OVC040 03/02 Q1015 NOSIG
ZBSJ,2016-02-12 12:00,ZBSJ 121200Z 30002MPS 1000 R33/1400N -RA BR OVC040 03/03 Q1015 NOSIG
ZBSJ,2016-02-12 13:00,ZBSJ 121300Z 33002MPS 1000 R33/1100N -RA BR OVC040 03/02 Q1016 NOSIG
ZBSJ,2016-02-12 14:00,ZBSJ 121400Z 33003MPS 1000 R33/1100N -RA BR OVC033 03/02 Q1016 NOSIG
ZBSJ,2016-02-12 15:00,ZBSJ 121500Z 33003MPS 0900 R33/0900D -RA FG OVC033 03/03 Q1016 NOSIG
ZBSJ,2016-02-12 16:00,ZBSJ 121600Z 35002MPS 0800 R33/0900N -RA FG OVC033 03/03 Q1017 NOSIG
ZBSJ,2016-02-12 17:00,ZBSJ 121700Z 02003MPS 0900 R33/1100N -RA FG OVC033 04/04 Q1017 NOSIG
ZBSJ,2016-02-12 18:00,ZBSJ 121800Z 02006G11MPS 1800 -RA BR OVC033 05/04 Q1018 NOSIG
ZBSJ,2016-02-12 19:00,ZBSJ 121900Z 36005G10MPS 3000 -RA BR OVC033 05/04 Q1019 NOSIG
ZBSJ,2016-02-12 20:00,ZBSJ 122000Z 36005MPS 9999 -RA OVC033 04/03 Q1019 NOSIG
ZBSJ,2016-02-12 21:00,ZBSJ 122100Z 34003MPS 9999 -RA OVC033 03/01 Q1019 NOSIG
ZBSJ,2016-02-12 22:00,ZBSJ 122200Z 35002MPS 9999 OVC033 03/00 Q1020 NOSIG
ZBSJ,2016-02-12 23:00,ZBSJ 122300Z 35004MPS 9999 OVC040 03/M03 Q1021 NOSIG
ZBSJ,2016-02-13 00:00,ZBSJ 130000Z 36003MPS 9999 -SN OVC040 03/M03 Q1022 NOSIG
ZBSJ,2016-02-13 01:00,ZBSJ 130100Z 06001MPS 4000 -RA BR OVC040 02/01 Q1024 NOSIG
ZBSJ,2016-02-13 02:00,ZBSJ 130200Z 01001MPS 5000 -RA BR OVC040 02/01 Q1024 NOSIG
ZBSJ,2016-02-13 03:00,ZBSJ 130300Z 00000MPS 6000 OVC046 03/01 Q1024 NOSIG
ZBSJ,2016-02-13 04:00,ZBSJ 130400Z 33005MPS 9999 OVC046 04/M04 Q1025 NOSIG
ZBSJ,2016-02-13 05:00,ZBSJ 130500Z 34006MPS CAVOK 04/M06 Q1024 NOSIG
ZBSJ,2016-02-13 06:00,ZBSJ 130600Z 33006MPS CAVOK 05/M07 Q1024 NOSIG
ZBSJ,2016-02-13 07:00,ZBSJ 130700Z 33008MPS CAVOK 05/M08 Q1024 NOSIG
ZBSJ,2016-02-13 08:00,ZBSJ 130800Z 33008MPS CAVOK 03/M09 Q1025 NOSIG
ZBSJ,2016-02-13 09:00,ZBSJ 130900Z 34008MPS CAVOK 02/M11 Q1026 NOSIG
ZBSJ,2016-02-13 10:00,ZBSJ 131000Z 35009MPS CAVOK 02/M12 Q1026 NOSIG
ZBSJ,2016-02-13 11:00,ZBSJ 131100Z 34008MPS CAVOK 01/M13 Q1028 NOSIG
ZBSJ,2016-02-13 12:00,ZBSJ 131200Z 35008MPS CAVOK 01/M16 Q1029 NOSIG
ZBSJ,2016-02-13 13:00,ZBSJ 131300Z 35008MPS CAVOK 00/M17 Q1030 NOSIG
ZBSJ,2016-02-13 14:00,ZBSJ 131400Z 35008MPS CAVOK M01/M15 Q1031 NOSIG
ZBSJ,2016-02-13 15:00,ZBSJ 131500Z 35009MPS CAVOK M02/M16 Q1031 NOSIG
ZBSJ,2016-02-13 16:00,ZBSJ 131600Z 35011G16MPS CAVOK M02/M17 Q1031 NOSIG
ZBSJ,2016-02-13 17:00,ZBSJ 131700Z 34011MPS CAVOK M03/M19 Q1031 NOSIG
ZBSJ,2016-02-13 18:00,ZBSJ 131800Z 35009G14MPS CAVOK M03/M19 Q1032 NOSIG
ZBSJ,2016-02-13 19:00,ZBSJ 131900Z 34010G15MPS CAVOK M03/M20 Q1032 NOSIG
ZBSJ,2016-02-13 20:00,ZBSJ 132000Z 34008MPS CAVOK M04/M19 Q1031 NOSIG
ZBSJ,2016-02-13 21:00,ZBSJ 132100Z 33007MPS CAVOK M04/M19 Q1032 NOSIG
ZBSJ,2016-02-13 22:00,ZBSJ 132200Z 33007MPS CAVOK M05/M18 Q1032 NOSIG
ZBSJ,2016-02-13 23:00,ZBSJ 132300Z 32007MPS CAVOK M05/M19 Q1033 NOSIG
ZBSJ,2016-02-14 00:00,ZBSJ 140000Z 33007MPS CAVOK M04/M19 Q1034 NOSIG
ZBSJ,2016-02-14 01:00,ZBSJ 140100Z 33009G14MPS CAVOK M02/M19 Q1034 NOSIG
ZBSJ,2016-02-14 02:00,ZBSJ 140200Z 33011MPS CAVOK M01/M19 Q1034 NOSIG
ZBSJ,2016-02-14 03:00,ZBSJ 140300Z 34008MPS CAVOK M00/M18 Q1034 NOSIG
ZBSJ,2016-02-14 04:00,ZBSJ 140400Z 32006MPS CAVOK 02/M20 Q1034 NOSIG
ZBSJ,2016-02-14 05:00,ZBSJ 140500Z 33006MPS CAVOK 02/M19 Q1032 NOSIG
ZBSJ,2016-02-14 06:00,ZBSJ 140600Z 31004MPS 270V350 CAVOK 03/M19 Q1031 NOSIG
ZBSJ,2016-02-14 07:00,ZBSJ 140700Z 33004MPS 250V020 CAVOK 03/M19 Q1031 NOSIG
ZBSJ,2016-02-14 08:00,ZBSJ 140800Z 34005MPS CAVOK 03/M19 Q1031 NOSIG
ZBSJ,2016-02-14 09:00,ZBSJ 140900Z 34007MPS CAVOK 02/M18 Q1031 NOSIG
ZBSJ,2016-02-14 10:00,ZBSJ 141000Z 34006MPS CAVOK 00/M17 Q1031 NOSIG
ZBSJ,2016-02-14 11:00,ZBSJ 141100Z 35005MPS CAVOK M00/M15 Q1031 NOSIG
ZBSJ,2016-02-14 12:00,ZBSJ 141200Z 35005MPS CAVOK M01/M15 Q1032 NOSIG
ZBSJ,2016-02-14 13:00,ZBSJ 141300Z 34003MPS CAVOK M02/M15 Q1033 NOSIG
ZBSJ,2016-02-14 14:00,ZBSJ 141400Z 31004MPS CAVOK M03/M16 Q1033 NOSIG
ZBSJ,2016-02-14 15:00,ZBSJ 141500Z 31004MPS CAVOK M03/M16 Q1033 NOSIG
ZBSJ,2016-02-14 16:00,ZBSJ 141600Z 29003MPS CAVOK M03/M17 Q1033 NOSIG
ZBSJ,2016-02-14 17:00,ZBSJ 141700Z 29002MPS CAVOK M03/M17 Q1032 NOSIG
ZBSJ,2016-02-14 18:00,ZBSJ 141800Z 11001MPS 7000 NSC M05/M14 Q1032 NOSIG
ZBSJ,2016-02-14 19:00,ZBSJ 141900Z 29001MPS 7000 NSC M07/M13 Q1031 NOSIG
ZBSJ,2016-02-14 20:00,ZBSJ 142000Z 26003MPS 7000 NSC M04/M15 Q1030 NOSIG
ZBSJ,2016-02-14 21:00,ZBSJ 142100Z 26001MPS CAVOK M04/M15 Q1030 NOSIG
ZBSJ,2016-02-14 22:00,ZBSJ 142200Z 29002MPS CAVOK M04/M15 Q1029 NOSIG
ZBSJ,2016-02-14 23:00,ZBSJ 142300Z 28003MPS CAVOK M04/M15 Q1029 NOSIG
ZBSJ,2016-02-15 00:00,ZBSJ 150000Z 29002MPS 240V030 CAVOK M03/M13 Q1030 NOSIG
ZBSJ,2016-02-15 01:00,ZBSJ 150100Z 28005MPS CAVOK M00/M14 Q1029 NOSIG
ZBSJ,2016-02-15 02:00,ZBSJ 150200Z 29006MPS CAVOK 02/M16 Q1029 NOSIG
ZBSJ,2016-02-15 03:00,ZBSJ 150300Z 29006MPS CAVOK 04/M17 Q1028 NOSIG
ZBSJ,2016-02-15 04:00,ZBSJ 150400Z 28007MPS CAVOK 04/M17 Q1027 NOSIG
ZBSJ,2016-02-15 05:00,ZBSJ 150500Z 29006MPS CAVOK 06/M18 Q1026 NOSIG
ZBSJ,2016-02-15 06:00,ZBSJ 150600Z 28006MPS 260V320 CAVOK 07/M17 Q1025 NOSIG
ZBSJ,2016-02-15 07:00,ZBSJ 150700Z 30006MPS 250V330 CAVOK 08/M16 Q1024 NOSIG
ZBSJ,2016-02-15 08:00,ZBSJ 150800Z 35005MPS CAVOK 07/M15 Q1024 NOSIG
ZBSJ,2016-02-15 09:00,ZBSJ 150900Z 34007MPS CAVOK 05/M15 Q1024 NOSIG
ZBSJ,2016-02-15 10:00,ZBSJ 151000Z 34007MPS CAVOK 04/M14 Q1024 NOSIG
ZBSJ,2016-02-15 11:00,ZBSJ 151100Z 34008MPS CAVOK 03/M15 Q1025 NOSIG
ZBSJ,2016-02-15 12:00,ZBSJ 151200Z 28004MPS CAVOK 02/M15 Q1025 NOSIG
ZBSJ,2016-02-15 13:00,ZBSJ 151300Z 30006MPS CAVOK 02/M14 Q1026 NOSIG
ZBSJ,2016-02-15 14:00,ZBSJ 151400Z 24002MPS CAVOK 01/M14 Q1026 NOSIG
ZBSJ,2016-02-15 15:00,ZBSJ 151500Z 28004MPS CAVOK 01/M14 Q1026 NOSIG
ZBSJ,2016-02-15 16:00,ZBSJ 151600Z 29005MPS CAVOK 01/M14 Q1025 NOSIG
ZBSJ,2016-02-15 17:00,ZBSJ 151700Z 29004MPS CAVOK 01/M14 Q1025 NOSIG
ZBSJ,2016-02-15 18:00,ZBSJ 151800Z 29004MPS CAVOK M00/M12 Q1025 NOSIG
ZBSJ,2016-02-15 19:00,ZBSJ 151900Z 30005MPS CAVOK 01/M15 Q1024 NOSIG
ZBSJ,2016-02-15 20:00,ZBSJ 152000Z 29004MPS CAVOK 01/M15 Q1024 NOSIG
ZBSJ,2016-02-15 21:00,ZBSJ 152100Z 29004MPS CAVOK 00/M15 Q1024 NOSIG
ZBSJ,2016-02-15 22:00,ZBSJ 152200Z 24003MPS CAVOK M02/M13 Q1024 NOSIG
ZBSJ,2016-02-15 23:00,ZBSJ 152300Z 22002MPS CAVOK M04/M12 Q1023 NOSIG
ZBSJ,2016-02-16 00:00,ZBSJ 160000Z 31006MPS CAVOK 00/M13 Q1024 NOSIG
ZBSJ,2016-02-16 01:00,ZBSJ 160100Z 25002MPS CAVOK 03/M13 Q1024 NOSIG
ZBSJ,2016-02-16 02:00,ZBSJ 160200Z 30005MPS CAVOK 06/M15 Q1024 NOSIG
ZBSJ,2016-02-16 03:00,ZBSJ 160300Z 30006MPS CAVOK 08/M16 Q1025 NOSIG
ZBSJ,2016-02-16 04:00,ZBSJ 160400Z 30005MPS 260V340 CAVOK 09/M15 Q1024 NOSIG
ZBSJ,2016-02-16 05:00,ZBSJ 160500Z 30005MPS CAVOK 11/M14 Q1023 NOSIG
ZBSJ,2016-02-16 06:00,ZBSJ 160600Z 28005MPS CAVOK 11/M15 Q1022 NOSIG
ZBSJ,2016-02-16 07:00,ZBSJ 160700Z 30006MPS CAVOK 12/M15 Q1021 NOSIG
ZBSJ,2016-02-16 08:00,ZBSJ 160800Z 28005MPS CAVOK 12/M14 Q1021 NOSIG
ZBSJ,2016-02-16 09:00,ZBSJ 160900Z 31005MPS CAVOK 11/M13 Q1022 NOSIG
ZBSJ,2016-02-16 10:00,ZBSJ 161000Z 34005MPS CAVOK 07/M10 Q1022 NOSIG
ZBSJ,2016-02-16 11:00,ZBSJ 161100Z 35005MPS CAVOK 07/M11 Q1023 NOSIG
ZBSJ,2016-02-16 12:00,ZBSJ 161200Z 35006MPS CAVOK 07/M11 Q1024 NOSIG
ZBSJ,2016-02-16 13:00,ZBSJ 161300Z 35006MPS CAVOK 06/M11 Q1025 NOSIG
ZBSJ,2016-02-16 14:00,ZBSJ 161400Z 35007MPS CAVOK 06/M12 Q1025 NOSIG
ZBSJ,2016-02-16 15:00,ZBSJ 161500Z 33005MPS CAVOK 05/M12 Q1026 NOSIG
ZBSJ,2016-02-16 16:00,ZBSJ 161600Z 28004MPS CAVOK 04/M11 Q1026 NOSIG
ZBSJ,2016-02-16 17:00,ZBSJ 161700Z 29004MPS CAVOK 03/M11 Q1026 NOSIG
ZBSJ,2016-02-16 18:00,ZBSJ 161800Z 27002MPS CAVOK 03/M12 Q1026 NOSIG
ZBSJ,2016-02-16 19:00,ZBSJ 161900Z 26003MPS CAVOK 02/M10 Q1026 NOSIG
ZBSJ,2016-02-16 20:00,ZBSJ 162000Z 27004MPS CAVOK 01/M11 Q1025 NOSIG
ZBSJ,2016-02-16 21:00,ZBSJ 162100Z 31002MPS 280V350 CAVOK M01/M10 Q1025 NOSIG
ZBSJ,2016-02-16 22:00,ZBSJ 162200Z 29002MPS CAVOK M02/M10 Q1025 NOSIG
ZBSJ,2016-02-16 23:00,ZBSJ 162300Z 28003MPS CAVOK 01/M11 Q1025 NOSIG
ZBSJ,2016-02-17 00:00,ZBSJ 170000Z 28004MPS 8000 NSC 02/M10 Q1026 NOSIG
ZBSJ,2016-02-17 01:00,ZBSJ 170100Z 28004MPS 6000 NSC 04/M09 Q1026 NOSIG
ZBSJ,2016-02-17 02:00,ZBSJ 170200Z 29003MPS CAVOK 07/M10 Q1025 NOSIG
ZBSJ,2016-02-17 03:00,ZBSJ 170300Z 24002MPS CAVOK 08/M12 Q1024 NOSIG
ZBSJ,2016-02-17 04:00,ZBSJ 170400Z 21002MPS CAVOK 09/M11 Q1023 NOSIG
ZBSJ,2016-02-17 05:00,ZBSJ 170500Z 27003MPS 200V310 CAVOK 12/M11 Q1021 NOSIG
ZBSJ,2016-02-17 06:00,ZBSJ 170600Z 24003MPS 170V300 CAVOK 12/M12 Q1020 NOSIG
ZBSJ,2016-02-17 07:00,ZBSJ 170700Z 16003MPS 130V200 CAVOK 12/M11 Q1019 NOSIG
ZBSJ,2016-02-17 08:00,ZBSJ 170800Z 17005MPS CAVOK 12/M09 Q1018 NOSIG
ZBSJ,2016-02-17 09:00,ZBSJ 170900Z 17004MPS CAVOK 10/M06 Q1018 NOSIG
ZBSJ,2016-02-17 10:00,ZBSJ 171000Z 17003MPS 8000 NSC 05/M05 Q1018 NOSIG
ZBSJ,2016-02-17 11:00,ZBSJ 171100Z 15003MPS 7000 NSC 03/M05 Q1018 NOSIG
ZBSJ,2016-02-17 12:00,ZBSJ 171200Z 20003MPS 6000 NSC 04/M05 Q1018 NOSIG
ZBSJ,2016-02-17 13:00,ZBSJ 171300Z 30002MPS 230V360 5000 HZ NSC 03/M05 Q1018 NOSIG
ZBSJ,2016-02-17 14:00,ZBSJ 171400Z 33002MPS 4000 HZ NSC 01/M05 Q1019 NOSIG
ZBSJ,2016-02-17 15:00,ZBSJ 171500Z 32003MPS 3000 HZ NSC 01/M05 Q1019 NOSIG
ZBSJ,2016-02-17 16:00,ZBSJ 171600Z 29002MPS 3000 HZ NSC 00/M06 Q1019 NOSIG
ZBSJ,2016-02-17 17:00,ZBSJ 171700Z 31001MPS 3500 HZ NSC 01/M06 Q1019 NOSIG
ZBSJ,2016-02-17 18:00,ZBSJ 171800Z 29002MPS 4000 HZ NSC 01/M06 Q1019 NOSIG
ZBSJ,2016-02-17 19:00,ZBSJ 171900Z 34001MPS 6000 NSC 00/M07 Q1019 NOSIG
ZBSJ,2016-02-17 20:00,ZBSJ 172000Z 28001MPS 6000 NSC M02/M07 Q1018 NOSIG
ZBSJ,2016-02-17 21:00,ZBSJ 172100Z 36002MPS 6000 NSC M01/M07 Q1018 NOSIG
ZBSJ,2016-02-17 22:00,ZBSJ 172200Z 32002MPS 8000 NSC M02/M09 Q1019 NOSIG
ZBSJ,2016-02-17 23:00,ZBSJ 172300Z 30002MPS 8000 NSC M01/M10 Q1019 NOSIG
ZBSJ,2016-02-18 00:00,ZBSJ 180000Z 25003MPS 5000 FU NSC 02/M09 Q1020 NOSIG
ZBSJ,2016-02-18 01:00,ZBSJ 180100Z 28003MPS 8000 NSC 06/M10 Q1021 NOSIG
ZBSJ,2016-02-18 02:00,ZBSJ 180200Z 32004MPS CAVOK 10/M13 Q1021 NOSIG
ZBSJ,2016-02-18 03:00,ZBSJ 180300Z 35004MPS 310V020 CAVOK 10/M12 Q1021 NOSIG
ZBSJ,2016-02-18 04:00,ZBSJ 180400Z 35004MPS 320V020 CAVOK 12/M13 Q1021 NOSIG
ZBSJ,2016-02-18 05:00,ZBSJ 180500Z 01004MPS 340V070 CAVOK 12/M14 Q1020 NOSIG
ZBSJ,2016-02-18 06:00,ZBSJ 180600Z 02003MPS 340V060 CAVOK 12/M14 Q1019 NOSIG
ZBSJ,2016-02-18 07:00,ZBSJ 180700Z 03002MPS CAVOK 13/M15 Q1019 NOSIG
ZBSJ,2016-02-18 08:00,ZBSJ 180800Z 03002MPS 010V070 CAVOK 13/M13 Q1018 NOSIG
ZBSJ,2016-02-18 09:00,ZBSJ 180900Z 12001MPS CAVOK 12/M16 Q1019 NOSIG
ZBSJ,2016-02-18 10:00,ZBSJ 181000Z 19003MPS CAVOK 09/M10 Q1020 NOSIG
ZBSJ,2016-02-18 11:00,ZBSJ 181100Z 17003MPS 8000 NSC 07/M08 Q1021 NOSIG
ZBSJ,2016-02-18 12:00,ZBSJ 181200Z 19003MPS 8000 NSC 09/M10 Q1022 NOSIG
ZBSJ,2016-02-18 13:00,ZBSJ 181300Z 17002MPS 6000 NSC 05/M08 Q1022 NOSIG
ZBSJ,2016-02-18 14:00,ZBSJ 181400Z 06002MPS 5000 HZ NSC 02/M05 Q1022 NOSIG
ZBSJ,2016-02-18 15:00,ZBSJ 181500Z 04003MPS 4000 HZ NSC 03/M04 Q1023 NOSIG
ZBSJ,2016-02-18 16:00,ZBSJ 181600Z 03002MPS 3500 HZ NSC 02/M04 Q1023 NOSIG
ZBSJ,2016-02-18 17:00,ZBSJ 181700Z 00000MPS 4500 HZ NSC 02/M05 Q1024 NOSIG
ZBSJ,2016-02-18 18:00,ZBSJ 181800Z 30003MPS 5000 HZ NSC 02/M05 Q1024 NOSIG
ZBSJ,2016-02-18 19:00,ZBSJ 181900Z 19001MPS 5000 HZ NSC 02/M05 Q1024 NOSIG
ZBSJ,2016-02-18 20:00,ZBSJ 182000Z 18001MPS 5000 HZ NSC 01/M05 Q1024 NOSIG
ZBSJ,2016-02-18 21:00,ZBSJ 182100Z 29001MPS 5000 HZ NSC 00/M05 Q1024 NOSIG
ZBSJ,2016-02-18 22:00,ZBSJ 182200Z 28003MPS 6000 NSC 03/M07 Q1025 NOSIG
ZBSJ,2016-02-18 23:00,ZBSJ 182300Z 30002MPS 6000 NSC 02/M07 Q1026 NOSIG
ZBSJ,2016-02-19 00:00,ZBSJ 190000Z 32004MPS 7000 NSC 04/M07 Q1027 NOSIG
ZBSJ,2016-02-19 01:00,ZBSJ 190100Z 33005MPS CAVOK 05/M08 Q1027 NOSIG
ZBSJ,2016-02-19 02:00,ZBSJ 190200Z 34006MPS CAVOK 07/M10 Q1028 NOSIG
ZBSJ,2016-02-19 03:00,ZBSJ 190300Z 34007MPS CAVOK 08/M11 Q1028 NOSIG
ZBSJ,2016-02-19 04:00,ZBSJ 190400Z 35006MPS 320V020 CAVOK 09/M10 Q1028 NOSIG
ZBSJ,2016-02-19 05:00,ZBSJ 190500Z 33003MPS 260V020 CAVOK 10/M11 Q1027 NOSIG
ZBSJ,2016-02-19 06:00,ZBSJ 190600Z 30004MPS CAVOK 10/M12 Q1026 NOSIG
ZBSJ,2016-02-19 07:00,ZBSJ 190700Z 35005MPS 320V020 CAVOK 09/M10 Q1027 NOSIG
ZBSJ,2016-02-19 08:00,ZBSJ 190800Z 35006MPS CAVOK 08/M11 Q1027 NOSIG
ZBSJ,2016-02-19 09:00,ZBSJ 190900Z 35004MPS CAVOK 07/M12 Q1028 NOSIG
ZBSJ,2016-02-19 10:00,ZBSJ 191000Z 01003MPS CAVOK 06/M12 Q1029 NOSIG
ZBSJ,2016-02-19 11:00,ZBSJ 191100Z 34003MPS CAVOK 05/M12 Q1030 NOSIG
ZBSJ,2016-02-19 12:00,ZBSJ 191200Z 36004MPS CAVOK 05/M13 Q1031 NOSIG
ZBSJ,2016-02-19 13:00,ZBSJ 191300Z 03002MPS 8000 NSC 03/M11 Q1031 NOSIG
ZBSJ,2016-02-19 14:00,ZBSJ 191400Z 13003MPS 7000 NSC 03/M10 Q1032 NOSIG
ZBSJ,2016-02-19 15:00,ZBSJ 191500Z 12003MPS 7000 NSC 02/M11 Q1032 NOSIG
ZBSJ,2016-02-19 16:00,ZBSJ 191600Z 13002MPS 090V190 CAVOK 02/M12 Q1032 NOSIG
ZBSJ,2016-02-19 17:00,ZBSJ 191700Z 09002MPS 050V120 CAVOK 01/M13 Q1033 NOSIG
ZBSJ,2016-02-19 18:00,ZBSJ 191800Z 13002MPS CAVOK 01/M09 Q1032 NOSIG
ZBSJ,2016-02-19 19:00,ZBSJ 191900Z 11002MPS CAVOK 00/M08 Q1032 NOSIG
ZBSJ,2016-02-19 20:00,ZBSJ 192000Z 01002MPS CAVOK 00/M09 Q1033 NOSIG
ZBSJ,2016-02-19 21:00,ZBSJ 192100Z 11001MPS 9999 OVC046 M01/M06 Q1034 NOSIG
ZBSJ,2016-02-19 22:00,ZBSJ 192200Z 21002MPS 6000 -SN OVC046 M02/M02 Q1034 NOSIG
ZBSJ,2016-02-19 23:00,ZBSJ 192300Z 31001MPS 6000 OVC046 M03/M04 Q1034 NOSIG
ZBSJ,2016-02-20 00:00,ZBSJ 200000Z 27002MPS 240V330 5000 BR BKN033 M02/M03 Q1034 NOSIG
ZBSJ,2016-02-20 01:00,ZBSJ 200100Z 34005MPS 9999 SCT033 M00/M09 Q1034 NOSIG
ZBSJ,2016-02-20 02:00,ZBSJ 200200Z 35005MPS 9999 FEW046 01/M14 Q1034 NOSIG
ZBSJ,2016-02-20 03:00,ZBSJ 200300Z 33004MPS 310V010 CAVOK 02/M14 Q1033 NOSIG
ZBSJ,2016-02-20 04:00,ZBSJ 200400Z 28002MPS CAVOK 03/M15 Q1032 NOSIG
ZBSJ,2016-02-20 05:00,ZBSJ 200500Z 32002MPS 9999 FEW030 05/M14 Q1030 NOSIG
ZBSJ,2016-02-20 06:00,ZBSJ 200600Z 26002MPS CAVOK 05/M15 Q1029 NOSIG
ZBSJ,2016-02-20 07:00,ZBSJ 200700Z 28002MPS 200V360 CAVOK 06/M17 Q1027 NOSIG
ZBSJ,2016-02-20 08:00,ZBSJ 200800Z 30001MPS CAVOK 06/M20 Q1026 NOSIG
ZBSJ,2016-02-20 09:00,ZBSJ 200900Z 18005MPS CAVOK 05/M12 Q1026 NOSIG
ZBSJ,2016-02-20 10:00,ZBSJ 201000Z 15003MPS CAVOK 01/M10 Q1026 NOSIG
ZBSJ,2016-02-20 11:00,ZBSJ 201100Z 15002MPS CAVOK 01/M08 Q1027 NOSIG
ZBSJ,2016-02-20 12:00,ZBSJ 201200Z 08002MPS 6000 NSC 00/M07 Q1027 NOSIG
ZBSJ,2016-02-20 13:00,ZBSJ 201300Z 07001MPS 4000 HZ NSC M01/M06 Q1027 NOSIG
ZBSJ,2016-02-20 14:00,ZBSJ 201400Z 08002MPS 3500 HZ NSC M02/M06 Q1027 NOSIG
ZBSJ,2016-02-20 15:00,ZBSJ 201500Z 09001MPS 2500 HZ NSC M02/M07 Q1027 NOSIG
ZBSJ,2016-02-20 16:00,ZBSJ 201600Z 07001MPS 2500 HZ NSC M03/M08 Q1026 NOSIG
ZBSJ,2016-02-20 17:00,ZBSJ 201700Z 08001MPS 2500 HZ NSC M03/M07 Q1026 NOSIG
ZBSJ,2016-02-20 18:00,ZBSJ 201800Z 10003MPS 2500 HZ NSC M03/M08 Q1026 NOSIG
ZBSJ,2016-02-20 19:00,ZBSJ 201900Z 13002MPS 3000 HZ NSC M03/M08 Q1026 NOSIG
ZBSJ,2016-02-20 20:00,ZBSJ 202000Z 16002MPS 4000 HZ NSC M05/M09 Q1026 NOSIG
ZBSJ,2016-02-20 21:00,ZBSJ 202100Z 11001MPS 4000 HZ NSC M05/M08 Q1026 NOSIG
ZBSJ,2016-02-20 22:00,ZBSJ 202200Z 00000MPS 4000 BR NSC M05/M08 Q1026 NOSIG
ZBSJ,2016-02-20 23:00,ZBSJ 202300Z 13001MPS 3000 BR NSC M06/M08 Q1026 BECMG TL0030 2000 BR
ZBSJ,2016-02-21 00:00,ZBSJ 210000Z 00000MPS 2700 BR NSC M05/M08 Q1027 BECMG TL0130 3500
ZBSJ,2016-02-21 01:00,ZBSJ 210100Z 00000MPS 2300 HZ NSC M02/M06 Q1027 BECMG TL0230 3500
ZBSJ,2016-02-21 02:00,ZBSJ 210200Z 36001MPS 2300 HZ NSC M01/M06 Q1027 BECMG TL0330 3500
ZBSJ,2016-02-21 03:00,ZBSJ 210300Z 29002MPS 2300 HZ NSC 01/M07 Q1027 BECMG TL0400 3500
ZBSJ,2016-02-21 04:00,ZBSJ 210400Z 35001MPS 2500 HZ NSC 02/M07 Q1026 BECMG TL0500 3500
ZBSJ,2016-02-21 05:00,ZBSJ 210500Z 04001MPS 1800 R33/1300N HZ NSC 02/M06 Q1025 BECMG TL0600 1400 HZ
ZBSJ,2016-02-21 06:00,ZBSJ 210600Z 11001MPS 1600 R33/1200N HZ NSC 03/M06 Q1024 BECMG TL0700 1400 HZ
ZBSJ,2016-02-21 07:00,ZBSJ 210700Z 17003MPS 2000 HZ NSC 03/M07 Q1024 BECMG TL0840 1400 HZ
ZBSJ,2016-02-21 08:00,ZBSJ 210800Z 20002MPS 2300 HZ NSC 03/M09 Q1024 BECMG TL0940 1400 HZ
ZBSJ,2016-02-21 09:00,ZBSJ 210900Z 25001MPS 2300 HZ NSC 02/M08 Q1024 BECMG TL1040 1400 HZ
ZBSJ,2016-02-21 10:00,ZBSJ 211000Z 33002MPS 2700 HZ NSC 01/M06 Q1024 BECMG TL1040 1400 HZ
ZBSJ,2016-02-21 11:00,ZBSJ 211100Z 34001MPS 2700 HZ NSC 01/M07 Q1025 NOSIG
ZBSJ,2016-02-21 12:00,ZBSJ 211200Z 33002MPS 2700 HZ NSC 01/M07 Q1025 NOSIG
ZBSJ,2016-02-21 13:00,ZBSJ 211300Z 35001MPS 2700 HZ NSC M00/M06 Q1025 NOSIG
ZBSJ,2016-02-21 14:00,ZBSJ 211400Z 00000MPS 2500 HZ NSC M01/M05 Q1025 NOSIG
ZBSJ,2016-02-21 15:00,ZBSJ 211500Z 28001MPS 2300 HZ NSC M01/M06 Q1025 NOSIG
ZBSJ,2016-02-21 16:00,ZBSJ 211600Z 28001MPS 2000 HZ NSC M01/M06 Q1024 NOSIG
ZBSJ,2016-02-21 17:00,ZBSJ 211700Z 31001MPS 2000 HZ NSC M02/M05 Q1024 NOSIG
ZBSJ,2016-02-21 18:00,ZBSJ 211800Z 29001MPS 2000 BR NSC M03/M06 Q1024 NOSIG
ZBSJ,2016-02-21 19:00,ZBSJ 211900Z 00000MPS 2000 BR NSC M03/M06 Q1023 NOSIG
ZBSJ,2016-02-21 20:00,ZBSJ 212000Z 25001MPS 2000 BR NSC M03/M06 Q1023 NOSIG
ZBSJ,2016-02-21 21:00,ZBSJ 212100Z 27001MPS 2000 BR NSC M02/M06 Q1023 NOSIG
ZBSJ,2016-02-21 22:00,ZBSJ 212200Z 30002MPS 2000 BR NSC M04/M07 Q1024 NOSIG
ZBSJ,2016-02-21 23:00,ZBSJ 212300Z 33002MPS 1600 BR NSC M04/M06 Q1024 BECMG TL2340 1400 BR
ZBSJ,2016-02-22 00:00,ZBSJ 220000Z 34001MPS 1400 R15/1200D BR NSC M03/M05 Q1025 BECMG TL0140 1600
ZBSJ,2016-02-22 01:00,ZBSJ 220100Z 02001MPS 1500 R15/1400U HZ NSC M00/M05 Q1026 NOSIG
ZBSJ,2016-02-22 02:00,ZBSJ 220200Z 04001MPS 1800 R15/1200D HZ NSC 02/M05 Q1026 NOSIG
ZBSJ,2016-02-22 03:00,ZBSJ 220300Z 06001MPS 1600 HZ NSC 02/M05 Q1027 NOSIG
ZBSJ,2016-02-22 04:00,ZBSJ 220400Z 09001MPS 1600 R15/1400D HZ NSC 04/M06 Q1026 NOSIG
ZBSJ,2016-02-22 05:00,ZBSJ 220500Z 08001MPS 1600 HZ NSC 06/M05 Q1026 BECMG TL0630 3500
ZBSJ,2016-02-22 06:00,ZBSJ 220600Z 12001MPS 1800 HZ NSC 07/M06 Q1025 NOSIG
ZBSJ,2016-02-22 07:00,ZBSJ 220700Z 15001MPS 1800 HZ NSC 08/M06 Q1025 NOSIG
ZBSJ,2016-02-22 08:00,ZBSJ 220800Z 13001MPS 1800 HZ NSC 08/M06 Q1025 NOSIG
ZBSJ,2016-02-22 09:00,ZBSJ 220900Z 14001MPS 1600 HZ NSC 07/M05 Q1026 BECMG 1400 FU
ZBSJ,2016-02-22 10:00,ZBSJ 221000Z 04002MPS 1500 HZ NSC 04/M04 Q1027 BECMG TL1130 1400 FU
ZBSJ,2016-02-22 11:00,ZBSJ 221100Z 04002MPS 1700 HZ NSC 02/M04 Q1029 NOSIG
ZBSJ,2016-02-22 12:00,ZBSJ 221200Z 02002MPS 1700 HZ NSC 02/M04 Q1031 NOSIG
ZBSJ,2016-02-22 13:00,ZBSJ 221300Z 36002MPS 1500 HZ NSC 00/M04 Q1032 NOSIG
ZBSJ,2016-02-22 14:00,ZBSJ 221400Z 01002MPS 1500 HZ NSC 01/M05 Q1033 NOSIG
ZBSJ,2016-02-22 15:00,ZBSJ 221500Z 36002MPS 1700 HZ NSC M00/M04 Q1034 NOSIG
ZBSJ,2016-02-22 16:00,ZBSJ 221600Z 36001MPS 1700 HZ NSC M01/M05 Q1035 NOSIG
ZBSJ,2016-02-22 17:00,ZBSJ 221700Z 35003MPS 3000 HZ NSC M00/M07 Q1035 NOSIG
ZBSJ,2016-02-22 18:00,ZBSJ 221800Z 34003MPS 7000 NSC M02/M10 Q1036 NOSIG
ZBSJ,2016-02-22 19:00,ZBSJ 221900Z 32004MPS 6000 NSC M04/M11 Q1036 NOSIG
ZBSJ,2016-02-22 20:00,ZBSJ 222000Z 01001MPS CAVOK M03/M09 Q1036 NOSIG
ZBSJ,2016-02-22 21:00,ZBSJ 222100Z 02001MPS CAVOK M03/M11 Q1037 NOSIG
ZBSJ,2016-02-22 22:00,ZBSJ 222200Z 05002MPS CAVOK M03/M11 Q1037 NOSIG
ZBSJ,2016-02-22 23:00,ZBSJ 222300Z 24001MPS CAVOK M04/M12 Q1038 NOSIG
ZBSJ,2016-02-23 00:00,ZBSJ 230000Z 34001MPS 8000 NSC M02/M09 Q1039 NOSIG
ZBSJ,2016-02-23 01:00,ZBSJ 230100Z 36001MPS 8000 NSC 02/M14 Q1040 NOSIG
ZBSJ,2016-02-23 02:00,ZBSJ 230200Z 34004MPS CAVOK 03/M17 Q1040 NOSIG
ZBSJ,2016-02-23 03:00,ZBSJ 230300Z 35006MPS CAVOK 04/M18 Q1039 NOSIG
ZBSJ,2016-02-23 04:00,ZBSJ 230400Z 36004MPS 300V030 CAVOK 05/M17 Q1039 NOSIG
ZBSJ,2016-02-23 05:00,ZBSJ 230500Z 32003MPS 280V010 CAVOK 06/M19 Q1038 NOSIG
ZBSJ,2016-02-23 06:00,ZBSJ 230600Z 31004MPS 280V360 CAVOK 06/M19 Q1037 NOSIG
ZBSJ,2016-02-23 07:00,ZBSJ 230700Z 36004MPS 340V040 CAVOK 06/M19 Q1036 NOSIG
ZBSJ,2016-02-23 08:00,ZBSJ 230800Z 01003MPS 330V070 CAVOK 06/M19 Q1036 NOSIG
ZBSJ,2016-02-23 09:00,ZBSJ 230900Z 36002MPS CAVOK 06/M19 Q1035 NOSIG
ZBSJ,2016-02-23 10:00,ZBSJ 231000Z 12001MPS CAVOK 03/M15 Q1036 NOSIG
ZBSJ,2016-02-23 11:00,ZBSJ 231100Z 16002MPS CAVOK 01/M14 Q1036 NOSIG
ZBSJ,2016-02-23 12:00,ZBSJ 231200Z 13001MPS 5000 HZ NSC M01/M11 Q1037 NOSIG
ZBSJ,2016-02-23 13:00,ZBSJ 231300Z 11002MPS 070V190 2200 FU NSC M00/M10 Q1038 NOSIG
ZBSJ,2016-02-23 14:00,ZBSJ 231400Z 08002MPS 2500 FU NSC M01/M11 Q1038 NOSIG
ZBSJ,2016-02-23 15:00,ZBSJ 231500Z 09003MPS 5000 FU NSC M01/M10 Q1038 NOSIG
ZBSJ,2016-02-23 16:00,ZBSJ 231600Z 10003MPS 5000 FU NSC M02/M11 Q1038 NOSIG
ZBSJ,2016-02-23 17:00,ZBSJ 231700Z 07001MPS 5000 FU NSC M04/M10 Q1038 NOSIG
ZBSJ,2016-02-23 18:00,ZBSJ 231800Z 07002MPS 5000 FU NSC M04/M10 Q1038 NOSIG
ZBSJ,2016-02-23 19:00,ZBSJ 231900Z 04001MPS 5000 FU NSC M06/M11 Q1038 NOSIG
ZBSJ,2016-02-23 20:00,ZBSJ 232000Z 31002MPS 6000 NSC M05/M11 Q1038 NOSIG
ZBSJ,2016-02-23 21:00,ZBSJ 232100Z 36001MPS 5000 FU NSC M06/M11 Q1037 NOSIG
ZBSJ,2016-02-23 22:00,ZBSJ 232200Z 25001MPS 5000 FU NSC M07/M11 Q1037 NOSIG
ZBSJ,2016-02-23 23:00,ZBSJ 232300Z 29001MPS 3500 FU NSC M07/M12 Q1038 NOSIG
ZBSJ,2016-02-24 00:00,ZBSJ 240000Z 29002MPS 3500 FU NSC M04/M10 Q1038 NOSIG
ZBSJ,2016-02-24 01:00,ZBSJ 240100Z 28002MPS 5000 HZ NSC M01/M11 Q1038 NOSIG
ZBSJ,2016-02-24 02:00,ZBSJ 240200Z 28002MPS 230V310 7000 NSC 02/M13 Q1037 NOSIG
ZBSJ,2016-02-24 03:00,ZBSJ 240300Z 25002MPS 200V310 8000 NSC 04/M14 Q1037 NOSIG
ZBSJ,2016-02-24 04:00,ZBSJ 240400Z 28004MPS 240V310 CAVOK 07/M17 Q1035 NOSIG
ZBSJ,2016-02-24 05:00,ZBSJ 240500Z 27003MPS 180V330 CAVOK 08/M19 Q1034 NOSIG
ZBSJ,2016-02-24 06:00,ZBSJ 240600Z 27001MPS CAVOK 08/M18 Q1032 NOSIG
ZBSJ,2016-02-24 07:00,ZBSJ 240700Z 24003MPS 180V310 CAVOK 09/M16 Q1031 NOSIG
ZBSJ,2016-02-24 08:00,ZBSJ 240800Z 29005MPS CAVOK 10/M19 Q1031 NOSIG
ZBSJ,2016-02-24 09:00,ZBSJ 240900Z 16004MPS CAVOK 08/M14 Q1031 NOSIG
ZBSJ,2016-02-24 10:00,ZBSJ 241000Z 18004MPS CAVOK 05/M11 Q1031 NOSIG
ZBSJ,2016-02-24 11:00,ZBSJ 241100Z 15003MPS 8000 NSC 01/M11 Q1032 NOSIG
ZBSJ,2016-02-24 12:00,ZBSJ 241200Z 06002MPS 5000 HZ NSC M00/M08 Q1033 NOSIG
ZBSJ,2016-02-24 13:00,ZBSJ 241300Z 15003MPS 4500 HZ NSC M02/M10 Q1033 NOSIG
ZBSJ,2016-02-24 14:00,ZBSJ 241400Z 13002MPS 4500 HZ NSC 02/M11 Q1034 NOSIG
ZBSJ,2016-02-24 15:00,ZBSJ 241500Z 11003MPS 4000 HZ NSC 00/M11 Q1033 NOSIG
ZBSJ,2016-02-24 16:00,ZBSJ 241600Z 08002MPS 3500 HZ NSC M02/M10 Q1033 NOSIG
ZBSJ,2016-02-24 17:00,ZBSJ 241700Z 12002MPS 3500 HZ NSC M02/M11 Q1034 NOSIG
ZBSJ,2016-02-24 18:00,ZBSJ 241800Z 34001MPS 3500 HZ NSC M03/M10 Q1034 NOSIG
ZBSJ,2016-02-24 19:00,ZBSJ 241900Z 29003MPS 3500 HZ NSC M03/M10 Q1033 NOSIG
ZBSJ,2016-02-24 20:00,ZBSJ 242000Z 31002MPS 4000 HZ NSC M05/M11 Q1033 NOSIG
ZBSJ,2016-02-24 21:00,ZBSJ 242100Z 28002MPS 4000 HZ NSC M04/M10 Q1033 NOSIG
ZBSJ,2016-02-24 22:00,ZBSJ 242200Z 31004MPS 5000 HZ NSC M05/M10 Q1033 NOSIG
ZBSJ,2016-02-24 23:00,ZBSJ 242300Z 34002MPS 320V020 4500 HZ NSC M05/M10 Q1033 BECMG TL0030 2700 HZ
ZBSJ,2016-02-25 00:00,ZBSJ 250000Z 36002MPS 2700 HZ NSC M04/M08 Q1034 BECMG TL0120 3500
ZBSJ,2016-02-25 01:00,ZBSJ 250100Z 36002MPS 2300 HZ NSC M00/M08 Q1034 BECMG TL0240 3500
ZBSJ,2016-02-25 02:00,ZBSJ 250200Z 02001MPS 2500 HZ NSC 02/M10 Q1033 BECMG TL0340 3500
ZBSJ,2016-02-25 03:00,ZBSJ 250300Z 03002MPS 3000 HZ NSC 04/M11 Q1033 NOSIG
ZBSJ,2016-02-25 04:00,ZBSJ 250400Z 06002MPS 360V120 5000 HZ NSC 06/M11 Q1032 NOSIG
ZBSJ,2016-02-25 05:00,ZBSJ 250500Z 06003MPS 350V110 7000 NSC 07/M12 Q1030 NOSIG
ZBSJ,2016-02-25 06:00,ZBSJ 250600Z 06003MPS 010V110 8000 NSC 07/M11 Q1029 NOSIG
ZBSJ,2016-02-25 07:00,ZBSJ 250700Z 10002MPS 8000 NSC 08/M12 Q1028 NOSIG
ZBSJ,2016-02-25 08:00,ZBSJ 250800Z 12001MPS 8000 NSC 08/M12 Q1028 NOSIG
ZBSJ,2016-02-25 09:00,ZBSJ 250900Z 10001MPS 8000 NSC 08/M10 Q1028 NOSIG
ZBSJ,2016-02-25 10:00,ZBSJ 251000Z 21001MPS 5000 HZ NSC 06/M11 Q1028 NOSIG
ZBSJ,2016-02-25 11:00,ZBSJ 251100Z 03002MPS 5000 HZ NSC 03/M08 Q1029 NOSIG
ZBSJ,2016-02-25 12:00,ZBSJ 251200Z 02002MPS 4000 HZ NSC 03/M07 Q1030 NOSIG
ZBSJ,2016-02-25 13:00,ZBSJ 251300Z 36002MPS 330V030 4000 HZ NSC 03/M08 Q1030 BECMG TL1440 2800 FU
ZBSJ,2016-02-25 14:00,ZBSJ 251400Z 06001MPS 4000 HZ NSC 02/M07 Q1031 BECMG TL1540 2800 HZ
ZBSJ,2016-02-25 15:00,ZBSJ 251500Z 34003MPS 4000 HZ NSC 01/M09 Q1031 NOSIG
ZBSJ,2016-02-25 16:00,ZBSJ 251600Z 02002MPS 5000 HZ NSC 02/M09 Q1031 NOSIG
ZBSJ,2016-02-25 17:00,ZBSJ 251700Z 04001MPS 5000 HZ NSC 01/M09 Q1032 NOSIG
ZBSJ,2016-02-25 18:00,ZBSJ 251800Z 02002MPS 5000 HZ NSC M01/M09 Q1031 NOSIG
ZBSJ,2016-02-25 19:00,ZBSJ 251900Z 33001MPS 5000 HZ NSC M02/M09 Q1031 NOSIG
ZBSJ,2016-02-25 20:00,ZBSJ 252000Z 25001MPS 5000 HZ NSC M01/M09 Q1031 NOSIG
ZBSJ,2016-02-25 21:00,ZBSJ 252100Z 27002MPS 5000 HZ NSC M03/M09 Q1030 NOSIG
ZBSJ,2016-02-25 22:00,ZBSJ 252200Z 29002MPS 7000 NSC M04/M10 Q1030 NOSIG
ZBSJ,2016-02-25 23:00,ZBSJ 252300Z 17001MPS 5000 HZ NSC M06/M10 Q1030 NOSIG
ZBSJ,2016-02-26 00:00,ZBSJ 260000Z 19002MPS 3500 HZ NSC M01/M06 Q1029 NOSIG
ZBSJ,2016-02-26 01:00,ZBSJ 260100Z 18002MPS 3500 HZ NSC 03/M09 Q1029 NOSIG
ZBSJ,2016-02-26 02:00,ZBSJ 260200Z 18005MPS CAVOK 06/M12 Q1028 NOSIG
ZBSJ,2016-02-26 03:00,ZBSJ 260300Z 19005MPS CAVOK 07/M12 Q1027 NOSIG
ZBSJ,2016-02-26 04:00,ZBSJ 260400Z 23004MPS CAVOK 08/M14 Q1025 NOSIG
ZBSJ,2016-02-26 05:00,ZBSJ 260500Z 20004MPS 170V230 CAVOK 10/M12 Q1023 NOSIG
ZBSJ,2016-02-26 06:00,ZBSJ 260600Z 18006MPS 150V210 CAVOK 10/M12 Q1021 NOSIG
ZBSJ,2016-02-26 07:00,ZBSJ 260700Z 18006MPS CAVOK 11/M12 Q1020 NOSIG
ZBSJ,2016-02-26 08:00,ZBSJ 260800Z 17007MPS CAVOK 11/M10 Q1019 NOSIG
ZBSJ,2016-02-26 09:00,ZBSJ 260900Z 17007MPS CAVOK 10/M10 Q1018 NOSIG
ZBSJ,2016-02-26 10:00,ZBSJ 261000Z 18004MPS CAVOK 08/M09 Q1019 NOSIG
ZBSJ,2016-02-26 11:00,ZBSJ 261100Z 11002MPS 7000 NSC 06/M08 Q1019 NOSIG
ZBSJ,2016-02-26 12:00,ZBSJ 261200Z 11003MPS 4500 HZ NSC 05/M08 Q1020 NOSIG
ZBSJ,2016-02-26 13:00,ZBSJ 261300Z 04002MPS 4000 HZ NSC 02/M07 Q1020 BECMG TL1440 2800 HZ
ZBSJ,2016-02-26 14:00,ZBSJ 261400Z 04001MPS 3000 HZ NSC 01/M07 Q1020 BECMG TL1540 2800 HZ
ZBSJ,2016-02-26 15:00,ZBSJ 261500Z 02003MPS 3000 HZ NSC 01/M06 Q1021 BECMG TL1540 2800 HZ
ZBSJ,2016-02-26 16:00,ZBSJ 261600Z 04003MPS 3000 HZ NSC M00/M07 Q1021 NOSIG
ZBSJ,2016-02-26 17:00,ZBSJ 261700Z 02002MPS 3000 HZ NSC 01/M07 Q1022 NOSIG
ZBSJ,2016-02-26 18:00,ZBSJ 261800Z 03003MPS 3500 HZ NSC 01/M07 Q1022 NOSIG
ZBSJ,2016-02-26 19:00,ZBSJ 261900Z 04002MPS 4000 HZ NSC 01/M07 Q1022 NOSIG
ZBSJ,2016-02-26 20:00,ZBSJ 262000Z 04002MPS 5000 HZ NSC 01/M07 Q1022 NOSIG
ZBSJ,2016-02-26 21:00,ZBSJ 262100Z 01002MPS 5000 HZ NSC M02/M08 Q1023 NOSIG
ZBSJ,2016-02-26 22:00,ZBSJ 262200Z 33002MPS 5000 HZ NSC M01/M07 Q1023 NOSIG
ZBSJ,2016-02-26 23:00,ZBSJ 262300Z 28002MPS 3000 HZ NSC M02/M07 Q1024 BECMG TL0010 2800 HZ
ZBSJ,2016-02-27 00:00,ZBSJ 270000Z 32002MPS 2200 HZ NSC 01/M06 Q1025 BECMG TL0130 3500
ZBSJ,2016-02-27 01:00,ZBSJ 270100Z 34002MPS 3200 HZ NSC 04/M06 Q1026 NOSIG
ZBSJ,2016-02-27 02:00,ZBSJ 270200Z 07002MPS 350V090 6000 NSC 05/M08 Q1026 NOSIG
ZBSJ,2016-02-27 03:00,ZBSJ 270300Z 03002MPS 330V060 6000 NSC 06/M09 Q1026 NOSIG
ZBSJ,2016-02-27 04:00,ZBSJ 270400Z 06003MPS 030V110 7000 NSC 06/M08 Q1025 NOSIG
ZBSJ,2016-02-27 05:00,ZBSJ 270500Z 07003MPS 040V120 7000 NSC 07/M09 Q1024 NOSIG
ZBSJ,2016-02-27 06:00,ZBSJ 270600Z 04002MPS 8000 NSC 08/M08 Q1023 NOSIG
ZBSJ,2016-02-27 07:00,ZBSJ 270700Z 07003MPS CAVOK 08/M08 Q1022 NOSIG
ZBSJ,2016-02-27 08:00,ZBSJ 270800Z 05003MPS CAVOK 08/M09 Q1022 NOSIG
ZBSJ,2016-02-27 09:00,ZBSJ 270900Z 06003MPS CAVOK 07/M08 Q1022 NOSIG
ZBSJ,2016-02-27 10:00,ZBSJ 271000Z 04002MPS 8000 NSC 05/M07 Q1022 NOSIG
ZBSJ,2016-02-27 11:00,ZBSJ 271100Z 06002MPS 7000 NSC 04/M06 Q1023 NOSIG
ZBSJ,2016-02-27 12:00,ZBSJ 271200Z 05002MPS 7000 NSC 03/M05 Q1023 NOSIG
ZBSJ,2016-02-27 13:00,ZBSJ 271300Z 02003MPS 6000 NSC 03/M04 Q1024 NOSIG
ZBSJ,2016-02-27 14:00,ZBSJ 271400Z 03004MPS 6000 NSC 04/M04 Q1025 NOSIG
ZBSJ,2016-02-27 15:00,ZBSJ 271500Z 06004MPS 6000 NSC 03/M04 Q1025 NOSIG
ZBSJ,2016-02-27 16:00,ZBSJ 271600Z 05004MPS 5000 HZ NSC 01/M00 Q1026 NOSIG
ZBSJ,2016-02-27 17:00,ZBSJ 271700Z 04002MPS 5000 HZ NSC 01/M00 Q1027 NOSIG
ZBSJ,2016-02-27 18:00,ZBSJ 271800Z 33002MPS 5000 HZ NSC 01/M01 Q1027 NOSIG
ZBSJ,2016-02-27 19:00,ZBSJ 271900Z 31001MPS 5000 BR NSC 01/M01 Q1027 NOSIG
ZBSJ,2016-02-27 20:00,ZBSJ 272000Z 31003MPS 7000 NSC 01/M02 Q1027 NOSIG
ZBSJ,2016-02-27 21:00,ZBSJ 272100Z 32002MPS 6000 NSC 00/M01 Q1027 NOSIG
ZBSJ,2016-02-27 22:00,ZBSJ 272200Z 28003MPS 8000 NSC 00/M03 Q1028 NOSIG
ZBSJ,2016-02-27 23:00,ZBSJ 272300Z 31002MPS 6000 NSC M01/M03 Q1028 NOSIG
ZBSJ,2016-02-28 00:00,ZBSJ 280000Z 31004MPS 6000 NSC 03/M06 Q1029 NOSIG
ZBSJ,2016-02-28 01:00,ZBSJ 280100Z 33003MPS 8000 NSC 06/M08 Q1029 NOSIG
ZBSJ,2016-02-28 02:00,ZBSJ 280200Z 33004MPS CAVOK 07/M08 Q1029 NOSIG
ZBSJ,2016-02-28 03:00,ZBSJ 280300Z 30004MPS CAVOK 08/M10 Q1029 NOSIG
ZBSJ,2016-02-28 04:00,ZBSJ 280400Z 33005MPS CAVOK 09/M12 Q1029 NOSIG
ZBSJ,2016-02-28 05:00,ZBSJ 280500Z 35008MPS 320V020 CAVOK 09/M13 Q1029 NOSIG
ZBSJ,2016-02-28 06:00,ZBSJ 280600Z 34010MPS CAVOK 09/M14 Q1028 NOSIG
ZBSJ,2016-02-28 07:00,ZBSJ 280700Z 36009MPS CAVOK 09/M14 Q1029 NOSIG
ZBSJ,2016-02-28 08:00,ZBSJ 280800Z 01008MPS CAVOK 09/M14 Q1029 NOSIG
ZBSJ,2016-02-28 09:00,ZBSJ 280900Z 35008MPS CAVOK 08/M13 Q1030 NOSIG
ZBSJ,2016-02-28 10:00,ZBSJ 281000Z 35005MPS CAVOK 06/M14 Q1030 BECMG 29004MPS
ZBSJ,2016-02-28 11:00,ZBSJ 281100Z 36004MPS CAVOK 05/M12 Q1031 NOSIG
ZBSJ,2016-02-28 12:00,ZBSJ 281200Z 01004MPS CAVOK 04/M13 Q1032 NOSIG
ZBSJ,2016-02-28 13:00,ZBSJ 281300Z 02004MPS CAVOK 03/M13 Q1033 NOSIG
ZBSJ,2016-02-28 14:00,ZBSJ 281400Z 03001MPS CAVOK 01/M13 Q1034 NOSIG
ZBSJ,2016-02-28 15:00,ZBSJ 281500Z 07002MPS CAVOK 00/M12 Q1034 NOSIG
ZBSJ,2016-02-28 16:00,ZBSJ 281600Z 18003MPS CAVOK M02/M11 Q1035 NOSIG
ZBSJ,2016-02-28 17:00,ZBSJ 281700Z 16003MPS CAVOK M04/M12 Q1035 NOSIG
ZBSJ,2016-02-28 18:00,ZBSJ 281800Z 15004MPS CAVOK M04/M12 Q1035 NOSIG
ZBSJ,2016-02-28 19:00,ZBSJ 281900Z 15002MPS CAVOK M04/M13 Q1035 NOSIG
ZBSJ,2016-02-28 20:00,ZBSJ 282000Z 22003MPS CAVOK M04/M12 Q1035 NOSIG
ZBSJ,2016-02-28 21:00,ZBSJ 282100Z 19003MPS CAVOK M03/M13 Q1035 NOSIG
ZBSJ,2016-02-28 22:00,ZBSJ 282200Z 20004MPS CAVOK M03/M13 Q1035 NOSIG
ZBSJ,2016-02-28 23:00,ZBSJ 282300Z 13002MPS 7000 NSC M04/M12 Q1035 NOSIG
ZBSJ,2016-02-29 00:00,ZBSJ 290000Z 11002MPS 3500 HZ NSC M02/M11 Q1035 NOSIG
ZBSJ,2016-02-29 01:00,ZBSJ 290100Z 14002MPS 110V170 4000 HZ NSC 01/M13 Q1035 NOSIG
ZBSJ,2016-02-29 02:00,ZBSJ 290200Z 17003MPS 130V200 CAVOK 03/M15 Q1035 NOSIG
ZBSJ,2016-02-29 03:00,ZBSJ 290300Z 16004MPS 130V190 CAVOK 05/M14 Q1035 NOSIG
ZBSJ,2016-02-29 04:00,ZBSJ 290400Z 16003MPS 120V200 CAVOK 06/M13 Q1034 NOSIG
ZBSJ,2016-02-29 05:00,ZBSJ 290500Z VRB03MPS CAVOK 07/M14 Q1033 NOSIG
ZBSJ,2016-02-29 06:00,ZBSJ 290600Z 18003MPS 140V220 CAVOK 08/M14 Q1031 NOSIG
ZBSJ,2016-02-29 07:00,ZBSJ 290700Z 15003MPS 100V190 CAVOK 08/M14 Q1030 NOSIG
ZBSJ,2016-02-29 08:00,ZBSJ 290800Z 15005MPS 120V190 CAVOK 08/M13 Q1029 NOSIG
ZBSJ,2016-02-29 09:00,ZBSJ 290900Z 17005MPS CAVOK 08/M13 Q1029 NOSIG
ZBSJ,2016-02-29 10:00,ZBSJ 291000Z 16004MPS CAVOK 05/M12 Q1029 NOSIG
ZBSJ,2016-02-29 11:00,ZBSJ 291100Z 15002MPS CAVOK 02/M11 Q1029 NOSIG
ZBSJ,2016-02-29 12:00,ZBSJ 291200Z 13002MPS 8000 NSC 03/M11 Q1029 NOSIG
ZBSJ,2016-02-29 13:00,ZBSJ 291300Z 13002MPS 6000 NSC 01/M11 Q1029 NOSIG
ZBSJ,2016-02-29 14:00,ZBSJ 291400Z 17002MPS 5000 HZ NSC 01/M10 Q1029 NOSIG
ZBSJ,2016-02-29 15:00,ZBSJ 291500Z 20002MPS 3500 HZ NSC M01/M09 Q1028 NOSIG
ZBSJ,2016-02-29 16:00,ZBSJ 291600Z 16001MPS 3500 HZ NSC M00/M09 Q1028 NOSIG
ZBSJ,2016-02-29 17:00,ZBSJ 291700Z 14002MPS 3500 HZ NSC M01/M09 Q1027 NOSIG
ZBSJ,2016-02-29 18:00,ZBSJ 291800Z 22002MPS 3500 HZ NSC M01/M09 Q1027 NOSIG
ZBSJ,2016-02-29 19:00,ZBSJ 291900Z 32001MPS 4000 HZ NSC M02/M09 Q1026 NOSIG
ZBSJ,2016-02-29 20:00,ZBSJ 292000Z 30001MPS 4000 HZ NSC M03/M09 Q1025 NOSIG
ZBSJ,2016-02-29 21:00,ZBSJ 292100Z 30001MPS 4000 HZ NSC M04/M09 Q1025 NOSIG
ZBSJ,2016-02-29 22:00,ZBSJ 292200Z 26001MPS 4000 HZ NSC M05/M09 Q1025 NOSIG
ZBSJ,2016-02-29 23:00,ZBSJ 292300Z 00000MPS 3000 HZ NSC M05/M08 Q1025 BECMG TL2340 2500 HZ
ZBSJ,2016-03-01 00:00,ZBSJ 010000Z 18001MPS 2500 HZ NSC M02/M06 Q1026 BECMG TL0140 3500
ZBSJ,2016-03-01 01:00,ZBSJ 010100Z 34001MPS 3500 HZ NSC 03/M08 Q1025 NOSIG
ZBSJ,2016-03-01 02:00,ZBSJ 010200Z 35002MPS 3500 HZ NSC 04/M07 Q1025 NOSIG
ZBSJ,2016-03-01 03:00,ZBSJ 010300Z 02001MPS 3500 HZ NSC 06/M09 Q1025 NOSIG
ZBSJ,2016-03-01 04:00,ZBSJ 010400Z 17002MPS 080V210 5000 HZ NSC 09/M09 Q1024 NOSIG
ZBSJ,2016-03-01 05:00,ZBSJ 010500Z 14003MPS 070V190 4000 HZ NSC 11/M09 Q1022 NOSIG
ZBSJ,2016-03-01 06:00,ZBSJ 010600Z 18002MPS 140V220 5000 HZ NSC 13/M09 Q1021 NOSIG
ZBSJ,2016-03-01 07:00,ZBSJ 010700Z 17004MPS 5000 HZ NSC 13/M08 Q1021 NOSIG
ZBSJ,2016-03-01 08:00,ZBSJ 010800Z 17004MPS 6000 NSC 14/M07 Q1020 NOSIG
ZBSJ,2016-03-01 09:00,ZBSJ 010900Z 17004MPS 6000 NSC 13/M06 Q1020 NOSIG
ZBSJ,2016-03-01 10:00,ZBSJ 011000Z 17003MPS 4000 HZ NSC 10/M05 Q1020 BECMG TL1130 2500 HZ
ZBSJ,2016-03-01 11:00,ZBSJ 011100Z 18004MPS 5000 HZ NSC 08/M05 Q1020 NOSIG
ZBSJ,2016-03-01 12:00,ZBSJ 011200Z 18005MPS 5000 HZ NSC 10/M05 Q1020 NOSIG
ZBSJ,2016-03-01 13:00,ZBSJ 011300Z 19004MPS 5000 HZ NSC 08/M04 Q1021 NOSIG
ZBSJ,2016-03-01 14:00,ZBSJ 011400Z 18003MPS 5000 HZ NSC 06/M04 Q1021 NOSIG
ZBSJ,2016-03-01 15:00,ZBSJ 011500Z 23003MPS 4000 HZ NSC 05/M04 Q1021 NOSIG
ZBSJ,2016-03-01 16:00,ZBSJ 011600Z 27002MPS 210V290 3500 HZ NSC 03/M05 Q1021 NOSIG
ZBSJ,2016-03-01 17:00,ZBSJ 011700Z 29002MPS 2500 HZ NSC 01/M06 Q1020 NOSIG
ZBSJ,2016-03-01 18:00,ZBSJ 011800Z 00000MPS 2500 HZ NSC 00/M05 Q1020 NOSIG
ZBSJ,2016-03-01 19:00,ZBSJ 011900Z 25001MPS 2500 BR NSC M01/M04 Q1019 NOSIG
ZBSJ,2016-03-01 20:00,ZBSJ 012000Z 25001MPS 2500 HZ NSC M01/M05 Q1019 NOSIG
ZBSJ,2016-03-01 21:00,ZBSJ 012100Z 22001MPS 2500 HZ NSC M01/M05 Q1018 NOSIG
ZBSJ,2016-03-01 22:00,ZBSJ 012200Z 26003MPS 2700 HZ NSC 01/M05 Q1018 NOSIG
ZBSJ,2016-03-01 22:30,ZBSJ 012230Z 32002MPS 2700 HZ NSC M01/M06 Q1018 BECMG 3000
ZBSJ,2016-03-01 23:00,ZBSJ 012300Z 11001MPS 1800 HZ NSC M01/M05 Q1018 BECMG 3000
ZBSJ,2016-03-01 23:30,ZBSJ 012330Z 20001MPS 1800 BR NSC M02/M05 Q1019 NOSIG
ZBSJ,2016-03-02 00:00,ZBSJ 020000Z 00000MPS 1800 HZ NSC 02/M03 Q1019 NOSIG
ZBSJ,2016-03-02 00:30,ZBSJ 020030Z 10001MPS 1600 R15/1400N HZ NSC 05/M02 Q1019 NOSIG
ZBSJ,2016-03-02 01:00,ZBSJ 020100Z 29001MPS 2200 HZ NSC 08/M04 Q1018 BECMG TL0240 3000
ZBSJ,2016-03-02 01:30,ZBSJ 020130Z 34002MPS 2500 HZ NSC 10/M04 Q1018 BECMG TL0240 3000
ZBSJ,2016-03-02 02:00,ZBSJ 020200Z 26002MPS 2500 HZ NSC 11/M04 Q1018 BECMG TL0240 3000
ZBSJ,2016-03-02 02:30,ZBSJ 020230Z 28001MPS 2700 HZ NSC 15/M03 Q1018 BECMG TL0240 3000
ZBSJ,2016-03-02 03:00,ZBSJ 020300Z 17002MPS 3500 HZ NSC 17/M02 Q1018 NOSIG
ZBSJ,2016-03-02 04:00,ZBSJ 020400Z 20001MPS 5000 HZ NSC 20/M02 Q1017 NOSIG
ZBSJ,2016-03-02 05:00,ZBSJ 020500Z 28003MPS 220V320 CAVOK 22/M06 Q1016 NOSIG
ZBSJ,2016-03-02 06:00,ZBSJ 020600Z 27003MPS 220V320 CAVOK 22/M06 Q1015 NOSIG
ZBSJ,2016-03-02 07:00,ZBSJ 020700Z 33002MPS CAVOK 23/M06 Q1014 NOSIG
ZBSJ,2016-03-02 08:00,ZBSJ 020800Z 14003MPS 110V180 CAVOK 22/M06 Q1013 NOSIG
ZBSJ,2016-03-02 09:00,ZBSJ 020900Z 13003MPS CAVOK 21/M04 Q1013 NOSIG
ZBSJ,2016-03-02 10:00,ZBSJ 021000Z 13003MPS 8000 NSC 17/M02 Q1013 NOSIG
ZBSJ,2016-03-02 11:00,ZBSJ 021100Z 14002MPS 7000 NSC 13/M02 Q1014 NOSIG
ZBSJ,2016-03-02 12:00,ZBSJ 021200Z 16003MPS 6000 NSC 11/M03 Q1014 NOSIG
ZBSJ,2016-03-02 13:00,ZBSJ 021300Z 16004MPS 6000 NSC 10/M03 Q1014 NOSIG
ZBSJ,2016-03-02 14:00,ZBSJ 021400Z 17005MPS 6000 NSC 11/M02 Q1014 NOSIG
ZBSJ,2016-03-02 15:00,ZBSJ 021500Z 21004MPS 6000 NSC 11/M01 Q1014 NOSIG
ZBSJ,2016-03-02 16:00,ZBSJ 021600Z 20003MPS 5000 HZ NSC 09/M01 Q1013 NOSIG
ZBSJ,2016-03-02 17:00,ZBSJ 021700Z 21003MPS 4000 HZ NSC 07/M02 Q1013 NOSIG
ZBSJ,2016-03-02 18:00,ZBSJ 021800Z 33001MPS 4000 HZ NSC 04/M02 Q1012 NOSIG
ZBSJ,2016-03-02 19:00,ZBSJ 021900Z 32002MPS 4000 HZ NSC 04/M04 Q1012 NOSIG
ZBSJ,2016-03-02 20:00,ZBSJ 022000Z 31002MPS 4500 HZ NSC 03/M03 Q1011 NOSIG
ZBSJ,2016-03-02 21:00,ZBSJ 022100Z 22001MPS 4500 HZ NSC 02/M03 Q1011 NOSIG
ZBSJ,2016-03-02 22:00,ZBSJ 022200Z 33002MPS 4500 HZ NSC 04/M03 Q1012 NOSIG
ZBSJ,2016-03-02 23:00,ZBSJ 022300Z 00000MPS 3200 HZ NSC 02/M03 Q1012 BECMG TL2340 2500 HZ
ZBSJ,2016-03-03 00:00,ZBSJ 030000Z 30001MPS 2700 HZ NSC 07/M00 Q1012 BECMG TL0040 3000
ZBSJ,2016-03-03 01:00,ZBSJ 030100Z 32003MPS 3500 HZ NSC 11/M03 Q1012 NOSIG
ZBSJ,2016-03-03 02:00,ZBSJ 030200Z 28002MPS 240V310 3500 HZ NSC 17/M02 Q1012 NOSIG
ZBSJ,2016-03-03 03:00,ZBSJ 030300Z 24004MPS 4000 HZ NSC 19/M02 Q1011 NOSIG
ZBSJ,2016-03-03 04:00,ZBSJ 030400Z 25003MPS 220V280 5000 HZ NSC 21/M03 Q1010 NOSIG
ZBSJ,2016-03-03 05:00,ZBSJ 030500Z 27003MPS 7000 NSC 23/M03 Q1009 NOSIG
ZBSJ,2016-03-03 06:00,ZBSJ 030600Z 19002MPS 7000 NSC 24/M03 Q1009 NOSIG
ZBSJ,2016-03-03 07:00,ZBSJ 030700Z 14004MPS 6000 NSC 23/00 Q1008 NOSIG
ZBSJ,2016-03-03 08:00,ZBSJ 030800Z 13003MPS 6000 NSC 23/M02 Q1008 NOSIG
ZBSJ,2016-03-03 09:00,ZBSJ 030900Z 11003MPS 4000 HZ NSC 22/01 Q1008 NOSIG
ZBSJ,2016-03-03 10:00,ZBSJ 031000Z 09003MPS 4000 HZ NSC 18/02 Q1009 NOSIG
ZBSJ,2016-03-03 11:00,ZBSJ 031100Z 04002MPS 4000 HZ NSC 13/02 Q1010 NOSIG
ZBSJ,2016-03-03 12:00,ZBSJ 031200Z 05005MPS 3000 HZ NSC 14/02 Q1011 BECMG TL1240 2500 HZ
ZBSJ,2016-03-03 13:00,ZBSJ 031300Z 06006MPS 3000 HZ NSC 13/01 Q1011 NOSIG
ZBSJ,2016-03-03 14:00,ZBSJ 031400Z 04003MPS 2700 HZ NSC 10/01 Q1012 NOSIG
ZBSJ,2016-03-03 15:00,ZBSJ 031500Z 05004MPS 2500 HZ NSC 10/02 Q1012 NOSIG
ZBSJ,2016-03-03 16:00,ZBSJ 031600Z 29002MPS 2500 HZ NSC 09/02 Q1013 NOSIG
ZBSJ,2016-03-03 17:00,ZBSJ 031700Z 32002MPS 2500 HZ NSC 07/01 Q1013 NOSIG
ZBSJ,2016-03-03 18:00,ZBSJ 031800Z 33003MPS 2500 HZ NSC 06/01 Q1014 NOSIG
ZBSJ,2016-03-03 19:00,ZBSJ 031900Z 01003MPS 3000 HZ NSC 08/01 Q1013 NOSIG
ZBSJ,2016-03-03 20:00,ZBSJ 032000Z 01002MPS 2500 HZ NSC 07/01 Q1013 NOSIG
ZBSJ,2016-03-03 21:00,ZBSJ 032100Z 02003MPS 2500 HZ NSC 07/02 Q1014 NOSIG
ZBSJ,2016-03-03 22:00,ZBSJ 032200Z 04003MPS 2200 HZ NSC 06/02 Q1015 NOSIG
ZBSJ,2016-03-03 23:00,ZBSJ 032300Z 03002MPS 360V070 1100 R15/1800D BR NSC 04/02 Q1015 BECMG TL0040 1500
ZBSJ,2016-03-04 00:00,ZBSJ 040000Z 06003MPS 1400 R15/1600N BR NSC 05/02 Q1016 BECMG TL0120 1500
ZBSJ,2016-03-04 01:00,ZBSJ 040100Z 05005MPS 1800 HZ NSC 07/03 Q1016 BECMG TL0240 3000
ZBSJ,2016-03-04 02:00,ZBSJ 040200Z 03006MPS 2300 HZ NSC 08/02 Q1017 BECMG TL0240 3000
ZBSJ,2016-03-04 03:00,ZBSJ 040300Z 03004MPS 350V050 2300 HZ NSC 10/03 Q1016 NOSIG
ZBSJ,2016-03-04 04:00,ZBSJ 040400Z 04006MPS 2000 HZ NSC 11/03 Q1016 BECMG TL0530 3000
ZBSJ,2016-03-04 05:00,ZBSJ 040500Z 07005MPS 040V100 1800 HZ NSC 11/03 Q1015 NOSIG
ZBSJ,2016-03-04 06:00,ZBSJ 040600Z 06005MPS 2000 HZ NSC 11/02 Q1015 NOSIG
ZBSJ,2016-03-04 07:00,ZBSJ 040700Z 05005MPS 1800 HZ NSC 10/03 Q1015 NOSIG
ZBSJ,2016-03-04 08:00,ZBSJ 040800Z 08004MPS 1800 HZ NSC 10/03 Q1015 NOSIG
ZBSJ,2016-03-04 09:00,ZBSJ 040900Z 08003MPS 1800 HZ NSC 09/04 Q1016 NOSIG
ZBSJ,2016-03-04 10:00,ZBSJ 041000Z 05002MPS 1800 HZ NSC 08/04 Q1018 NOSIG
ZBSJ,2016-03-04 11:00,ZBSJ 041100Z 32001MPS 2000 BR NSC 07/04 Q1019 NOSIG
ZBSJ,2016-03-04 12:00,ZBSJ 041200Z 18001MPS 2000 BR NSC 07/03 Q1020 NOSIG
ZBSJ,2016-03-04 13:00,ZBSJ 041300Z 09001MPS 2000 BR NSC 06/03 Q1020 NOSIG
ZBSJ,2016-03-04 14:00,ZBSJ 041400Z 34002MPS 2000 BR NSC 07/04 Q1020 NOSIG
ZBSJ,2016-03-04 15:00,ZBSJ 041500Z 32002MPS 2000 BR NSC 06/03 Q1020 NOSIG
ZBSJ,2016-03-04 16:00,ZBSJ 041600Z 29002MPS 2000 BR NSC 06/03 Q1020 NOSIG
ZBSJ,2016-03-04 17:00,ZBSJ 041700Z 32005MPS 3000 BR NSC 06/M02 Q1020 NOSIG
ZBSJ,2016-03-04 18:00,ZBSJ 041800Z 33002MPS 5000 HZ NSC 05/M10 Q1021 NOSIG
ZBSJ,2016-03-04 19:00,ZBSJ 041900Z 31003MPS 7000 NSC 05/M11 Q1021 NOSIG
ZBSJ,2016-03-04 20:00,ZBSJ 042000Z 30004MPS 7000 NSC 07/M13 Q1020 NOSIG
ZBSJ,2016-03-04 21:00,ZBSJ 042100Z 32002MPS 7000 NSC 05/M14 Q1021 NOSIG
ZBSJ,2016-03-04 22:00,ZBSJ 042200Z 32003MPS 7000 NSC 03/M14 Q1021 NOSIG
ZBSJ,2016-03-04 23:00,ZBSJ 042300Z 31003MPS 7000 NSC 03/M14 Q1021 NOSIG
ZBSJ,2016-03-05 00:00,ZBSJ 050000Z 31003MPS 7000 NSC 07/M14 Q1022 NOSIG
ZBSJ,2016-03-05 01:00,ZBSJ 050100Z 30003MPS 7000 NSC 10/M16 Q1022 NOSIG
ZBSJ,2016-03-05 02:00,ZBSJ 050200Z 34004MPS 7000 NSC 11/M15 Q1022 NOSIG
ZBSJ,2016-03-05 03:00,ZBSJ 050300Z 35002MPS 310V040 8000 NSC 11/M17 Q1022 NOSIG
ZBSJ,2016-03-05 04:00,ZBSJ 050400Z 29002MPS 8000 NSC 13/M17 Q1021 NOSIG
ZBSJ,2016-03-05 05:00,ZBSJ 050500Z 07002MPS 010V110 CAVOK 12/M17 Q1020 NOSIG
ZBSJ,2016-03-05 06:00,ZBSJ 050600Z 01002MPS CAVOK 13/M18 Q1019 NOSIG
ZBSJ,2016-03-05 07:00,ZBSJ 050700Z 01003MPS 330V070 CAVOK 14/M17 Q1018 NOSIG
ZBSJ,2016-03-05 08:00,ZBSJ 050800Z 01002MPS CAVOK 14/M16 Q1018 NOSIG
ZBSJ,2016-03-05 09:00,ZBSJ 050900Z 05002MPS CAVOK 13/M14 Q1018 NOSIG
ZBSJ,2016-03-05 10:00,ZBSJ 051000Z 06002MPS 8000 NSC 11/M12 Q1018 NOSIG
ZBSJ,2016-03-05 11:00,ZBSJ 051100Z 18003MPS 8000 NSC 08/M11 Q1019 NOSIG
ZBSJ,2016-03-05 12:00,ZBSJ 051200Z 17004MPS 7000 NSC 06/M12 Q1019 NOSIG
ZBSJ,2016-03-05 13:00,ZBSJ 051300Z 15002MPS 6000 NSC 07/M12 Q1019 NOSIG
ZBSJ,2016-03-05 14:00,ZBSJ 051400Z 15002MPS 6000 NSC 05/M12 Q1020 NOSIG
ZBSJ,2016-03-05 15:00,ZBSJ 051500Z 16001MPS 4500 HZ NSC 05/M12 Q1019 NOSIG
ZBSJ,2016-03-05 16:00,ZBSJ 051600Z 14001MPS 4500 HZ NSC 06/M12 Q1019 NOSIG
ZBSJ,2016-03-05 17:00,ZBSJ 051700Z 09002MPS 4500 HZ NSC 06/M10 Q1019 NOSIG
ZBSJ,2016-03-05 18:00,ZBSJ 051800Z 33001MPS 5000 HZ NSC 04/M07 Q1019 NOSIG
ZBSJ,2016-03-05 19:00,ZBSJ 051900Z 14002MPS 5000 HZ NSC 04/M09 Q1018 NOSIG
ZBSJ,2016-03-05 20:00,ZBSJ 052000Z 15002MPS 5000 HZ NSC 03/M09 Q1017 NOSIG
ZBSJ,2016-03-05 21:00,ZBSJ 052100Z 32001MPS 5000 HZ NSC 02/M08 Q1017 NOSIG
ZBSJ,2016-03-05 22:00,ZBSJ 052200Z 00000MPS 5000 HZ NSC 01/M08 Q1017 NOSIG
ZBSJ,2016-03-05 23:00,ZBSJ 052300Z 30001MPS 3000 HZ NSC M01/M07 Q1017 NOSIG
ZBSJ,2016-03-06 00:00,ZBSJ 060000Z 35002MPS 2500 HZ NSC 02/M05 Q1017 BECMG TL0130 3500
ZBSJ,2016-03-06 01:00,ZBSJ 060100Z 36001MPS 2200 HZ NSC 04/M07 Q1017 BECMG TL0240 3000
ZBSJ,2016-03-06 02:00,ZBSJ 060200Z 01004MPS 2200 HZ NSC 06/M06 Q1016 NOSIG
ZBSJ,2016-03-06 03:00,ZBSJ 060300Z 03002MPS 360V060 2800 HZ NSC 09/M08 Q1017 BECMG TL0350 3300
ZBSJ,2016-03-06 04:00,ZBSJ 060400Z 03002MPS 350V070 3500 HZ NSC 10/M08 Q1016 NOSIG
ZBSJ,2016-03-06 05:00,ZBSJ 060500Z 04002MPS 330V090 4500 HZ NSC 11/M09 Q1014 NOSIG
ZBSJ,2016-03-06 06:00,ZBSJ 060600Z 06003MPS 020V100 4500 HZ NSC 13/M08 Q1013 NOSIG
ZBSJ,2016-03-06 07:00,ZBSJ 060700Z 08003MPS 040V120 4500 HZ NSC 13/M08 Q1012 NOSIG
ZBSJ,2016-03-06 08:00,ZBSJ 060800Z 07003MPS 030V100 4500 HZ NSC 13/M06 Q1012 NOSIG
ZBSJ,2016-03-06 09:00,ZBSJ 060900Z 06003MPS 3500 HZ NSC 12/M06 Q1012 BECMG TL0950 2500 HZ
ZBSJ,2016-03-06 10:00,ZBSJ 061000Z 04003MPS 3000 HZ FEW040 10/M05 Q1013 BECMG TL1050 2500 HZ
ZBSJ,2016-03-06 11:00,ZBSJ 061100Z 02002MPS 4000 HZ FEW040 08/M06 Q1013 NOSIG
ZBSJ,2016-03-06 12:00,ZBSJ 061200Z 01002MPS 4000 HZ NSC 07/M05 Q1014 NOSIG
ZBSJ,2016-03-06 13:00,ZBSJ 061300Z 34002MPS 4500 FU NSC 06/M05 Q1015 NOSIG
ZBSJ,2016-03-06 14:00,ZBSJ 061400Z 34002MPS 4200 FU NSC 06/M05 Q1016 NOSIG
ZBSJ,2016-03-06 15:00,ZBSJ 061500Z 36002MPS 4200 FU NSC 05/M05 Q1016 NOSIG
ZBSJ,2016-03-06 16:00,ZBSJ 061600Z 03002MPS 4200 FU NSC 04/M05 Q1016 NOSIG
ZBSJ,2016-03-06 17:00,ZBSJ 061700Z 34003MPS 4500 FU NSC 03/M06 Q1016 NOSIG
ZBSJ,2016-03-06 18:00,ZBSJ 061800Z 33003MPS 4000 FU NSC 04/M06 Q1017 NOSIG
ZBSJ,2016-03-06 19:00,ZBSJ 061900Z 33004MPS 3000 FU NSC 03/M05 Q1017 NOSIG
ZBSJ,2016-03-06 20:00,ZBSJ 062000Z 26002MPS 3000 FU NSC 02/M05 Q1017 NOSIG
ZBSJ,2016-03-06 21:00,ZBSJ 062100Z 31002MPS 3000 FU NSC 02/M06 Q1018 NOSIG
ZBSJ,2016-03-06 22:00,ZBSJ 062200Z 33003MPS 3000 FU NSC 01/M05 Q1019 NOSIG
ZBSJ,2016-03-06 23:00,ZBSJ 062300Z 05001MPS 2000 HZ NSC 00/M05 Q1020 BECMG TL0040 1400 HZ
ZBSJ,2016-03-07 00:00,ZBSJ 070000Z 00000MPS 1400 R15/1600N HZ NSC 02/M03 Q1021 BECMG TL0120 1800
ZBSJ,2016-03-07 01:00,ZBSJ 070100Z 00000MPS 2500 HZ NSC 09/M04 Q1021 BECMG TL0230 3000
ZBSJ,2016-03-07 02:00,ZBSJ 070200Z 07002MPS 4500 HZ NSC 10/M06 Q1021 NOSIG
ZBSJ,2016-03-07 03:00,ZBSJ 070300Z 11002MPS 080V170 5000 HZ NSC 12/M06 Q1021 NOSIG
ZBSJ,2016-03-07 04:00,ZBSJ 070400Z 13003MPS 050V190 8000 NSC 13/M08 Q1020 NOSIG
ZBSJ,2016-03-07 05:00,ZBSJ 070500Z 04002MPS 8000 NSC 14/M07 Q1020 NOSIG
ZBSJ,2016-03-07 06:00,ZBSJ 070600Z 09003MPS 050V130 8000 NSC 14/M08 Q1019 NOSIG
ZBSJ,2016-03-07 07:00,ZBSJ 070700Z VRB02MPS CAVOK 14/M09 Q1019 NOSIG
ZBSJ,2016-03-07 08:00,ZBSJ 070800Z 09002MPS CAVOK 14/M09 Q1019 NOSIG
ZBSJ,2016-03-07 09:00,ZBSJ 070900Z 14003MPS CAVOK 14/M09 Q1019 NOSIG
ZBSJ,2016-03-07 10:00,ZBSJ 071000Z 11003MPS 8000 NSC 12/M08 Q1019 NOSIG
ZBSJ,2016-03-07 11:00,ZBSJ 071100Z 11002MPS 7000 NSC 09/M08 Q1020 NOSIG
ZBSJ,2016-03-07 12:00,ZBSJ 071200Z 09003MPS 6000 NSC 08/M08 Q1022 NOSIG
ZBSJ,2016-03-07 13:00,ZBSJ 071300Z 08005MPS 8000 NSC 07/M09 Q1023 NOSIG
ZBSJ,2016-03-07 14:00,ZBSJ 071400Z 08004MPS CAVOK 06/M10 Q1024 NOSIG
ZBSJ,2016-03-07 15:00,ZBSJ 071500Z 09004MPS CAVOK 05/M12 Q1025 NOSIG
ZBSJ,2016-03-07 16:00,ZBSJ 071600Z 08003MPS CAVOK 04/M13 Q1026 NOSIG
ZBSJ,2016-03-07 17:00,ZBSJ 071700Z 06002MPS CAVOK 01/M13 Q1026 NOSIG
ZBSJ,2016-03-07 18:00,ZBSJ 071800Z 07003MPS CAVOK 02/M14 Q1027 NOSIG
ZBSJ,2016-03-07 19:00,ZBSJ 071900Z 06003MPS CAVOK 01/M13 Q1028 NOSIG
ZBSJ,2016-03-07 20:00,ZBSJ 072000Z 07003MPS CAVOK 00/M15 Q1028 NOSIG
ZBSJ,2016-03-07 21:00,ZBSJ 072100Z 06003MPS CAVOK 00/M16 Q1029 NOSIG
ZBSJ,2016-03-07 22:00,ZBSJ 072200Z 06002MPS CAVOK M00/M15 Q1030 NOSIG
ZBSJ,2016-03-07 23:00,ZBSJ 072300Z 03003MPS CAVOK M01/M15 Q1031 NOSIG
ZBSJ,2016-03-08 00:00,ZBSJ 080000Z 04003MPS CAVOK 00/M17 Q1032 NOSIG
ZBSJ,2016-03-08 01:00,ZBSJ 080100Z 04004MPS CAVOK 01/M19 Q1032 NOSIG
ZBSJ,2016-03-08 02:00,ZBSJ 080200Z 08005MPS 040V110 CAVOK 02/M20 Q1033 NOSIG
ZBSJ,2016-03-08 03:00,ZBSJ 080300Z 07004MPS 010V110 CAVOK 03/M20 Q1032 NOSIG
ZBSJ,2016-03-08 04:00,ZBSJ 080400Z 09003MPS 070V150 CAVOK 04/M21 Q1031 NOSIG
ZBSJ,2016-03-08 05:00,ZBSJ 080500Z 08003MPS 020V160 CAVOK 04/M20 Q1030 NOSIG
ZBSJ,2016-03-08 06:00,ZBSJ 080600Z 07002MPS CAVOK 04/M20 Q1029 NOSIG
ZBSJ,2016-03-08 07:00,ZBSJ 080700Z 25001MPS CAVOK 05/M20 Q1028 NOSIG
ZBSJ,2016-03-08 08:00,ZBSJ 080800Z 12002MPS CAVOK 05/M18 Q1028 NOSIG
ZBSJ,2016-03-08 09:00,ZBSJ 080900Z 12003MPS 050V160 CAVOK 05/M18 Q1028 NOSIG
ZBSJ,2016-03-08 10:00,ZBSJ 081000Z 19001MPS CAVOK 04/M18 Q1029 NOSIG
ZBSJ,2016-03-08 11:00,ZBSJ 081100Z 09002MPS CAVOK 02/M15 Q1029 NOSIG
ZBSJ,2016-03-08 12:00,ZBSJ 081200Z 10002MPS CAVOK 01/M15 Q1030 NOSIG
ZBSJ,2016-03-08 13:00,ZBSJ 081300Z 11002MPS CAVOK 01/M14 Q1031 NOSIG
ZBSJ,2016-03-08 14:00,ZBSJ 081400Z 13001MPS 8000 NSC M01/M13 Q1031 NOSIG
ZBSJ,2016-03-08 15:00,ZBSJ 081500Z 00000MPS 5000 HZ NSC M02/M13 Q1031 NOSIG
ZBSJ,2016-03-08 16:00,ZBSJ 081600Z 16001MPS 5000 HZ NSC M01/M13 Q1031 NOSIG
ZBSJ,2016-03-08 17:00,ZBSJ 081700Z 18001MPS 5000 HZ NSC M01/M12 Q1031 NOSIG
ZBSJ,2016-03-08 18:00,ZBSJ 081800Z 24002MPS 5000 HZ NSC 00/M15 Q1032 NOSIG
ZBSJ,2016-03-08 19:00,ZBSJ 081900Z 23001MPS 5000 HZ NSC M00/M11 Q1032 NOSIG
ZBSJ,2016-03-08 20:00,ZBSJ 082000Z 01002MPS 5000 HZ NSC M01/M09 Q1032 NOSIG
ZBSJ,2016-03-08 21:00,ZBSJ 082100Z 09002MPS 5000 HZ NSC M01/M09 Q1033 NOSIG
ZBSJ,2016-03-08 22:00,ZBSJ 082200Z 09004MPS 5000 HZ NSC M00/M10 Q1033 NOSIG
ZBSJ,2016-03-08 23:00,ZBSJ 082300Z 09003MPS CAVOK M01/M13 Q1034 NOSIG
ZBSJ,2016-03-09 00:00,ZBSJ 090000Z 10003MPS 070V130 CAVOK M00/M13 Q1035 NOSIG
ZBSJ,2016-03-09 01:00,ZBSJ 090100Z 10004MPS CAVOK 00/M17 Q1035 NOSIG
ZBSJ,2016-03-09 02:00,ZBSJ 090200Z 10003MPS 060V140 CAVOK 01/M18 Q1035 NOSIG
ZBSJ,2016-03-09 03:00,ZBSJ 090300Z 12002MPS 060V170 CAVOK 02/M18 Q1035 NOSIG
ZBSJ,2016-03-09 04:00,ZBSJ 090400Z 12002MPS 040V190 CAVOK 03/M18 Q1034 NOSIG
ZBSJ,2016-03-09 05:00,ZBSJ 090500Z 16002MPS 120V220 CAVOK 04/M17 Q1033 NOSIG
ZBSJ,2016-03-09 06:00,ZBSJ 090600Z 21002MPS CAVOK 05/M16 Q1032 NOSIG
ZBSJ,2016-03-09 07:00,ZBSJ 090700Z 25001MPS CAVOK 05/M14 Q1031 NOSIG
ZBSJ,2016-03-09 08:00,ZBSJ 090800Z 19002MPS 160V230 CAVOK 05/M15 Q1031 NOSIG
ZBSJ,2016-03-09 09:00,ZBSJ 090900Z 19004MPS CAVOK 05/M14 Q1031 NOSIG
ZBSJ,2016-03-09 10:00,ZBSJ 091000Z 19002MPS CAVOK 04/M14 Q1031 NOSIG
ZBSJ,2016-03-09 11:00,ZBSJ 091100Z 23001MPS CAVOK 02/M13 Q1032 NOSIG
ZBSJ,2016-03-09 12:00,ZBSJ 091200Z 24001MPS 8000 NSC 00/M14 Q1033 NOSIG
ZBSJ,2016-03-09 13:00,ZBSJ 091300Z 31001MPS 8000 NSC M02/M10 Q1033 NOSIG
ZBSJ,2016-03-09 14:00,ZBSJ 091400Z 29002MPS 8000 NSC 00/M12 Q1033 NOSIG
ZBSJ,2016-03-09 15:00,ZBSJ 091500Z 31003MPS 290V350 6000 NSC M01/M10 Q1034 NOSIG
ZBSJ,2016-03-09 16:00,ZBSJ 091600Z 32004MPS 8000 NSC M01/M11 Q1034 NOSIG
ZBSJ,2016-03-09 17:00,ZBSJ 091700Z 33005MPS CAVOK M02/M14 Q1034 NOSIG
ZBSJ,2016-03-09 18:00,ZBSJ 091800Z 33004MPS CAVOK M04/M16 Q1034 NOSIG
ZBSJ,2016-03-09 19:00,ZBSJ 091900Z 30003MPS CAVOK M03/M17 Q1034 NOSIG
ZBSJ,2016-03-09 20:00,ZBSJ 092000Z 33004MPS CAVOK M05/M16 Q1034 NOSIG
ZBSJ,2016-03-09 21:00,ZBSJ 092100Z 32004MPS CAVOK M04/M16 Q1034 NOSIG
ZBSJ,2016-03-09 22:00,ZBSJ 092200Z 32004MPS CAVOK M06/M16 Q1034 NOSIG
ZBSJ,2016-03-09 23:00,ZBSJ 092300Z 29002MPS CAVOK M02/M17 Q1034 NOSIG
ZBSJ,2016-03-10 00:00,ZBSJ 100000Z 27003MPS 230V320 CAVOK M00/M16 Q1034 NOSIG
ZBSJ,2016-03-10 01:00,ZBSJ 100100Z 32006MPS CAVOK 04/M19 Q1034 NOSIG
ZBSJ,2016-03-10 02:00,ZBSJ 100200Z 31006MPS CAVOK 05/M20 Q1034 NOSIG
ZBSJ,2016-03-10 03:00,ZBSJ 100300Z 27005MPS CAVOK 05/M20 Q1033 NOSIG
ZBSJ,2016-03-10 04:00,ZBSJ 100400Z 30004MPS 230V340 CAVOK 06/M20 Q1032 NOSIG
ZBSJ,2016-03-10 05:00,ZBSJ 100500Z 30004MPS 270V350 CAVOK 08/M20 Q1031 NOSIG
ZBSJ,2016-03-10 06:00,ZBSJ 100600Z 28003MPS 200V330 CAVOK 08/M21 Q1029 NOSIG
ZBSJ,2016-03-10 07:00,ZBSJ 100700Z 25003MPS 190V300 CAVOK 08/M20 Q1028 NOSIG
ZBSJ,2016-03-10 08:00,ZBSJ 100800Z VRB02MPS CAVOK 08/M21 Q1027 NOSIG
ZBSJ,2016-03-10 09:00,ZBSJ 100900Z 22001MPS CAVOK 08/M21 Q1027 NOSIG
ZBSJ,2016-03-10 10:00,ZBSJ 101000Z 17003MPS CAVOK 06/M17 Q1027 NOSIG
ZBSJ,2016-03-10 11:00,ZBSJ 101100Z 18003MPS CAVOK 03/M16 Q1027 NOSIG
ZBSJ,2016-03-10 12:00,ZBSJ 101200Z 19003MPS CAVOK 03/M17 Q1028 NOSIG
ZBSJ,2016-03-10 13:00,ZBSJ 101300Z 18003MPS CAVOK 02/M17 Q1028 NOSIG
ZBSJ,2016-03-10 14:00,ZBSJ 101400Z 17003MPS 7000 NSC 01/M16 Q1028 NOSIG
ZBSJ,2016-03-10 15:00,ZBSJ 101500Z 19001MPS 6000 NSC M00/M14 Q1028 NOSIG
ZBSJ,2016-03-10 16:00,ZBSJ 101600Z 19001MPS 7000 NSC M01/M14 Q1028 NOSIG
ZBSJ,2016-03-10 17:00,ZBSJ 101700Z 34001MPS 6000 NSC M02/M13 Q1027 NOSIG
ZBSJ,2016-03-10 18:00,ZBSJ 101800Z 27001MPS 6000 NSC M02/M14 Q1027 NOSIG
ZBSJ,2016-03-10 19:00,ZBSJ 101900Z 26001MPS 6000 NSC M03/M13 Q1027 NOSIG
ZBSJ,2016-03-10 20:00,ZBSJ 102000Z 28003MPS 260V320 6000 NSC M02/M12 Q1027 NOSIG
ZBSJ,2016-03-10 21:00,ZBSJ 102100Z 30002MPS 6000 NSC M04/M12 Q1026 NOSIG
ZBSJ,2016-03-10 22:00,ZBSJ 102200Z 31001MPS 6000 NSC M04/M12 Q1026 NOSIG
ZBSJ,2016-03-10 23:00,ZBSJ 102300Z 30002MPS 4500 HZ NSC M04/M12 Q1026 NOSIG
ZBSJ,2016-03-11 00:00,ZBSJ 110000Z 29001MPS 3500 HZ NSC 01/M11 Q1026 NOSIG
ZBSJ,2016-03-11 01:00,ZBSJ 110100Z 32003MPS CAVOK 05/M13 Q1027 NOSIG
ZBSJ,2016-03-11 02:00,ZBSJ 110200Z 31002MPS 240V360 CAVOK 07/M15 Q1026 NOSIG
ZBSJ,2016-03-11 03:00,ZBSJ 110300Z 01002MPS 320V070 CAVOK 07/M17 Q1026 NOSIG
ZBSJ,2016-03-11 04:00,ZBSJ 110400Z 22004MPS 180V250 CAVOK 08/M17 Q1025 NOSIG
ZBSJ,2016-03-11 05:00,ZBSJ 110500Z 21004MPS 150V250 CAVOK 09/M18 Q1023 NOSIG
ZBSJ,2016-03-11 06:00,ZBSJ 110600Z 23001MPS CAVOK 10/M18 Q1022 NOSIG
ZBSJ,2016-03-11 07:00,ZBSJ 110700Z VRB02MPS CAVOK 10/M18 Q1020 NOSIG
ZBSJ,2016-03-11 08:00,ZBSJ 110800Z 19003MPS 150V220 CAVOK 10/M18 Q1020 NOSIG
ZBSJ,2016-03-11 09:00,ZBSJ 110900Z 15003MPS CAVOK 09/M18 Q1019 NOSIG
ZBSJ,2016-03-11 10:00,ZBSJ 111000Z 13003MPS CAVOK 08/M16 Q1019 NOSIG
ZBSJ,2016-03-11 11:00,ZBSJ 111100Z 12002MPS CAVOK 06/M15 Q1019 NOSIG
ZBSJ,2016-03-11 12:00,ZBSJ 111200Z 13002MPS 8000 NSC 04/M15 Q1020 NOSIG
ZBSJ,2016-03-11 13:00,ZBSJ 111300Z 12002MPS 6000 NSC 04/M14 Q1020 NOSIG
ZBSJ,2016-03-11 14:00,ZBSJ 111400Z 12002MPS 5000 HZ NSC 01/M13 Q1020 NOSIG
ZBSJ,2016-03-11 15:00,ZBSJ 111500Z 06001MPS 4000 HZ NSC M01/M11 Q1020 NOSIG
ZBSJ,2016-03-11 16:00,ZBSJ 111600Z 34001MPS 4000 HZ NSC M02/M11 Q1020 NOSIG
ZBSJ,2016-03-11 17:00,ZBSJ 111700Z 33002MPS 4000 HZ NSC M01/M11 Q1019 NOSIG
ZBSJ,2016-03-11 18:00,ZBSJ 111800Z 03002MPS 4000 HZ NSC M02/M10 Q1019 NOSIG
ZBSJ,2016-03-11 19:00,ZBSJ 111900Z 04003MPS 5000 HZ NSC M02/M10 Q1018 NOSIG
ZBSJ,2016-03-11 20:00,ZBSJ 112000Z 03002MPS 5000 HZ NSC M02/M11 Q1018 NOSIG
ZBSJ,2016-03-11 21:00,ZBSJ 112100Z 06002MPS 5000 HZ NSC M03/M11 Q1017 NOSIG
ZBSJ,2016-03-11 22:00,ZBSJ 112200Z 34002MPS 5000 HZ NSC M03/M11 Q1016 NOSIG
ZBSJ,2016-03-11 23:00,ZBSJ 112300Z 31002MPS 3000 HZ NSC M03/M10 Q1017 BECMG TL0020 2500 HZ
ZBSJ,2016-03-12 00:00,ZBSJ 120000Z 33001MPS 2800 HZ NSC M00/M07 Q1017 BECMG TL0120 3000
ZBSJ,2016-03-12 01:00,ZBSJ 120100Z 36002MPS 3000 HZ NSC 02/M11 Q1017 NOSIG
ZBSJ,2016-03-12 02:00,ZBSJ 120200Z 01002MPS 4000 HZ NSC 03/M11 Q1017 NOSIG
ZBSJ,2016-03-12 03:00,ZBSJ 120300Z 02002MPS 4000 HZ NSC 04/M11 Q1017 NOSIG
ZBSJ,2016-03-12 04:00,ZBSJ 120400Z 05001MPS 5000 HZ NSC 06/M12 Q1016 NOSIG
ZBSJ,2016-03-12 05:00,ZBSJ 120500Z 09002MPS 5000 HZ NSC 07/M11 Q1015 NOSIG
ZBSJ,2016-03-12 06:00,ZBSJ 120600Z 16002MPS 5000 HZ NSC 07/M11 Q1015 NOSIG
ZBSJ,2016-03-12 07:00,ZBSJ 120700Z 16002MPS 5000 HZ NSC 09/M11 Q1014 NOSIG
ZBSJ,2016-03-12 08:00,ZBSJ 120800Z 17002MPS 140V220 5000 HZ NSC 09/M11 Q1014 NOSIG
ZBSJ,2016-03-12 09:00,ZBSJ 120900Z 18002MPS 5000 HZ NSC 08/M12 Q1014 NOSIG
ZBSJ,2016-03-12 10:00,ZBSJ 121000Z 00000MPS 5000 HZ NSC 07/M11 Q1015 NOSIG
ZBSJ,2016-03-12 11:00,ZBSJ 121100Z 02001MPS 5000 HZ NSC 04/M10 Q1016 NOSIG
ZBSJ,2016-03-12 12:00,ZBSJ 121200Z 02001MPS 5000 HZ NSC 02/M10 Q1017 NOSIG
ZBSJ,2016-03-12 13:00,ZBSJ 121300Z 02001MPS 3500 HZ NSC 02/M10 Q1018 NOSIG
ZBSJ,2016-03-12 14:00,ZBSJ 121400Z 34002MPS 4000 HZ NSC M00/M08 Q1019 NOSIG
ZBSJ,2016-03-12 15:00,ZBSJ 121500Z 33002MPS 3000 HZ NSC 00/M09 Q1020 NOSIG
ZBSJ,2016-03-12 16:00,ZBSJ 121600Z 32002MPS 2500 HZ NSC M00/M08 Q1020 NOSIG
ZBSJ,2016-03-12 17:00,ZBSJ 121700Z 30003MPS 2500 HZ NSC M00/M08 Q1021 NOSIG
ZBSJ,2016-03-12 18:00,ZBSJ 121800Z 32003MPS 3500 HZ NSC M02/M08 Q1022 NOSIG
ZBSJ,2016-03-12 19:00,ZBSJ 121900Z 28003MPS 5000 HZ NSC 00/M09 Q1022 NOSIG
ZBSJ,2016-03-12 20:00,ZBSJ 122000Z 32004MPS 6000 NSC M01/M09 Q1023 NOSIG
ZBSJ,2016-03-12 21:00,ZBSJ 122100Z 32002MPS CAVOK M00/M12 Q1023 NOSIG
ZBSJ,2016-03-12 22:00,ZBSJ 122200Z 34005MPS CAVOK 03/M14 Q1024 NOSIG
ZBSJ,2016-03-12 23:00,ZBSJ 122300Z 35006MPS CAVOK 04/M17 Q1025 NOSIG
ZBSJ,2016-03-13 00:00,ZBSJ 130000Z 34007MPS CAVOK 06/M18 Q1025 NOSIG
ZBSJ,2016-03-13 01:00,ZBSJ 130100Z 34007MPS CAVOK 08/M18 Q1026 NOSIG
ZBSJ,2016-03-13 03:00,ZBSJ 130300Z 36005MPS CAVOK 10/M20 Q1027 NOSIG
ZBSJ,2016-03-13 04:00,ZBSJ 130400Z 36004MPS 290V060 CAVOK 11/M18 Q1027 NOSIG
ZBSJ,2016-03-13 05:00,ZBSJ 130500Z 05003MPS 010V080 CAVOK 11/M18 Q1026 NOSIG
ZBSJ,2016-03-13 06:00,ZBSJ 130600Z 09001MPS CAVOK 12/M20 Q1025 NOSIG
ZBSJ,2016-03-13 07:00,ZBSJ 130700Z 06002MPS CAVOK 13/M18 Q1024 NOSIG
ZBSJ,2016-03-13 08:00,ZBSJ 130800Z 13003MPS 090V220 CAVOK 12/M18 Q1023 NOSIG
ZBSJ,2016-03-13 09:00,ZBSJ 130900Z 18003MPS 140V220 CAVOK 13/M18 Q1023 NOSIG
ZBSJ,2016-03-13 10:00,ZBSJ 131000Z 18003MPS CAVOK 10/M15 Q1023 NOSIG
ZBSJ,2016-03-13 11:00,ZBSJ 131100Z 18003MPS CAVOK 07/M14 Q1024 NOSIG
ZBSJ,2016-03-13 12:00,ZBSJ 131200Z 19004MPS CAVOK 06/M13 Q1025 NOSIG
ZBSJ,2016-03-13 13:00,ZBSJ 131300Z 13001MPS 8000 NSC 06/M14 Q1025 NOSIG
ZBSJ,2016-03-13 14:00,ZBSJ 131400Z 17003MPS 7000 NSC 03/M13 Q1026 NOSIG
ZBSJ,2016-03-13 15:00,ZBSJ 131500Z 15002MPS 6000 NSC 03/M12 Q1026 NOSIG
ZBSJ,2016-03-13 16:00,ZBSJ 131600Z 19002MPS 5000 HZ NSC 02/M12 Q1025 NOSIG
ZBSJ,2016-03-13 17:00,ZBSJ 131700Z 17002MPS 5000 HZ NSC 01/M11 Q1026 NOSIG
ZBSJ,2016-03-13 18:00,ZBSJ 131800Z 17002MPS 5000 HZ NSC M02/M10 Q1025 NOSIG
ZBSJ,2016-03-13 19:00,ZBSJ 131900Z 24001MPS 5000 HZ NSC M02/M11 Q1025 NOSIG
ZBSJ,2016-03-13 20:00,ZBSJ 132000Z 03001MPS 5000 HZ NSC M02/M10 Q1024 NOSIG
ZBSJ,2016-03-13 21:00,ZBSJ 132100Z 30002MPS 4000 HZ NSC M03/M11 Q1024 NOSIG
ZBSJ,2016-03-13 22:00,ZBSJ 132200Z 30002MPS 6000 NSC M02/M11 Q1024 NOSIG
ZBSJ,2016-03-13 23:00,ZBSJ 132300Z 31002MPS 5000 HZ NSC M01/M10 Q1025 NOSIG
ZBSJ,2016-03-14 00:00,ZBSJ 140000Z 29003MPS 5000 HZ NSC 05/M11 Q1025 NOSIG
ZBSJ,2016-03-14 01:00,ZBSJ 140100Z 28004MPS CAVOK 08/M11 Q1025 NOSIG
ZBSJ,2016-03-14 02:00,ZBSJ 140200Z 27004MPS CAVOK 11/M14 Q1025 NOSIG
ZBSJ,2016-03-14 03:00,ZBSJ 140300Z 28003MPS 250V310 CAVOK 14/M14 Q1025 NOSIG
ZBSJ,2016-03-14 04:00,ZBSJ 140400Z 23003MPS 190V290 CAVOK 15/M15 Q1024 NOSIG
ZBSJ,2016-03-14 05:00,ZBSJ 140500Z 19004MPS 160V230 CAVOK 16/M15 Q1023 NOSIG
ZBSJ,2016-03-14 06:00,ZBSJ 140600Z 19004MPS CAVOK 17/M17 Q1021 NOSIG
ZBSJ,2016-03-14 07:00,ZBSJ 140700Z 17005MPS 130V200 CAVOK 17/M16 Q1020 NOSIG
ZBSJ,2016-03-14 08:00,ZBSJ 140800Z 17004MPS CAVOK 17/M16 Q1019 NOSIG
ZBSJ,2016-03-14 09:00,ZBSJ 140900Z 16005MPS CAVOK 16/M13 Q1018 NOSIG
ZBSJ,2016-03-14 10:00,ZBSJ 141000Z 17004MPS CAVOK 13/M10 Q1018 NOSIG
ZBSJ,2016-03-14 11:00,ZBSJ 141100Z 16003MPS 8000 NSC 10/M10 Q1019 NOSIG
ZBSJ,2016-03-14 12:00,ZBSJ 141200Z 17003MPS 8000 NSC 10/M08 Q1020 NOSIG
ZBSJ,2016-03-14 13:00,ZBSJ 141300Z 17004MPS 7000 NSC 11/M07 Q1020 NOSIG
ZBSJ,2016-03-14 14:00,ZBSJ 141400Z 16003MPS 7000 NSC 08/M07 Q1020 NOSIG
ZBSJ,2016-03-14 15:00,ZBSJ 141500Z 15003MPS 6000 NSC 06/M06 Q1019 NOSIG
ZBSJ,2016-03-14 16:00,ZBSJ 141600Z 16002MPS 6000 NSC 07/M06 Q1019 NOSIG
ZBSJ,2016-03-14 17:00,ZBSJ 141700Z 16003MPS 7000 NSC 05/M06 Q1019 NOSIG
ZBSJ,2016-03-14 18:00,ZBSJ 141800Z 17003MPS 7000 NSC 05/M06 Q1019 NOSIG
ZBSJ,2016-03-14 19:00,ZBSJ 141900Z 17002MPS 7000 NSC 04/M06 Q1018 NOSIG
ZBSJ,2016-03-14 20:00,ZBSJ 142000Z 20002MPS 7000 NSC 04/M06 Q1017 NOSIG
ZBSJ,2016-03-14 21:00,ZBSJ 142100Z 18002MPS 7000 NSC 03/M05 Q1017 NOSIG
ZBSJ,2016-03-14 22:00,ZBSJ 142200Z 20001MPS 6000 NSC 04/M05 Q1017 NOSIG
ZBSJ,2016-03-14 23:00,ZBSJ 142300Z 17002MPS 4500 HZ NSC 03/M04 Q1018 BECMG TL2340 2800 HZ
ZBSJ,2016-03-15 00:00,ZBSJ 150000Z 16003MPS 4500 HZ NSC 06/M03 Q1017 NOSIG
ZBSJ,2016-03-15 01:00,ZBSJ 150100Z 18004MPS 5000 HZ NSC 07/M04 Q1018 NOSIG
ZBSJ,2016-03-15 02:00,ZBSJ 150200Z 17003MPS 5000 HZ NSC 09/M03 Q1018 NOSIG
ZBSJ,2016-03-15 03:00,ZBSJ 150300Z 19004MPS 160V230 4500 HZ NSC 11/M03 Q1017 NOSIG
ZBSJ,2016-03-15 04:00,ZBSJ 150400Z 14002MPS 050V180 4500 HZ NSC 11/M03 Q1017 NOSIG
ZBSJ,2016-03-15 05:00,ZBSJ 150500Z 16001MPS 4500 HZ NSC 12/M03 Q1016 NOSIG
ZBSJ,2016-03-15 06:00,ZBSJ 150600Z 14002MPS 090V250 4500 HZ NSC 14/M02 Q1015 NOSIG
ZBSJ,2016-03-15 07:00,ZBSJ 150700Z 16003MPS 120V190 4500 HZ NSC 15/M04 Q1014 NOSIG
ZBSJ,2016-03-15 08:00,ZBSJ 150800Z 18004MPS 5000 HZ NSC 15/M03 Q1013 NOSIG
ZBSJ,2016-03-15 09:00,ZBSJ 150900Z 17003MPS 4500 HZ NSC 14/M02 Q1014 NOSIG
ZBSJ,2016-03-15 10:00,ZBSJ 151000Z 17005MPS 4500 HZ NSC 12/01 Q1014 NOSIG
ZBSJ,2016-03-15 11:00,ZBSJ 151100Z 17004MPS 5000 HZ NSC 09/01 Q1015 NOSIG
ZBSJ,2016-03-15 12:00,ZBSJ 151200Z 14002MPS 4500 HZ NSC 08/01 Q1015 NOSIG
ZBSJ,2016-03-15 13:00,ZBSJ 151300Z 14002MPS 4000 HZ NSC 07/01 Q1016 NOSIG
ZBSJ,2016-03-15 14:00,ZBSJ 151400Z 12001MPS 3500 HZ NSC 04/01 Q1016 BECMG TL1540 2500 HZ
ZBSJ,2016-03-15 15:00,ZBSJ 151500Z 13002MPS 3000 BR NSC 04/01 Q1016 NOSIG
ZBSJ,2016-03-15 16:00,ZBSJ 151600Z 14001MPS 2500 BR NSC 04/01 Q1016 NOSIG
ZBSJ,2016-03-15 17:00,ZBSJ 151700Z 00000MPS 2500 BR NSC 03/01 Q1017 NOSIG
ZBSJ,2016-03-15 18:00,ZBSJ 151800Z 22001MPS 2200 BR NSC 02/M01 Q1017 NOSIG
ZBSJ,2016-03-15 19:00,ZBSJ 151900Z 30001MPS 2200 BR NSC 02/01 Q1016 NOSIG
ZBSJ,2016-03-15 20:00,ZBSJ 152000Z 29001MPS 2200 BR NSC 02/00 Q1016 NOSIG
ZBSJ,2016-03-15 21:00,ZBSJ 152100Z 27001MPS 2000 BR NSC 00/M01 Q1016 NOSIG
ZBSJ,2016-03-15 22:00,ZBSJ 152200Z 22002MPS 2000 BR NSC M01/M02 Q1017 NOSIG
ZBSJ,2016-03-15 23:00,ZBSJ 152300Z 36001MPS 1500 BR NSC M00/M01 Q1017 BECMG TL2340 1400 BR
ZBSJ,2016-03-16 00:00,ZBSJ 160000Z 19002MPS 1300 R15/1300U BR NSC 03/01 Q1017 BECMG TL0140 1700
ZBSJ,2016-03-16 01:00,ZBSJ 160100Z 23002MPS 1600 R15/1200N HZ NSC 07/01 Q1018 NOSIG
ZBSJ,2016-03-16 02:00,ZBSJ 160200Z 11001MPS 1600 R15/1400N HZ NSC 10/02 Q1018 NOSIG
ZBSJ,2016-03-16 03:00,ZBSJ 160300Z 12002MPS 2000 HZ NSC 12/00 Q1017 BECMG TL0440 3000
ZBSJ,2016-03-16 04:00,ZBSJ 160400Z 12002MPS 090V170 2000 HZ NSC 14/02 Q1016 NOSIG
ZBSJ,2016-03-16 05:00,ZBSJ 160500Z 14004MPS 2000 HZ NSC 16/02 Q1016 NOSIG
ZBSJ,2016-03-16 06:00,ZBSJ 160600Z 17005MPS 2300 HZ NSC 18/01 Q1014 BECMG TL0740 3000
ZBSJ,2016-03-16 07:00,ZBSJ 160700Z 17005MPS 2500 HZ NSC 19/02 Q1014 BECMG TL0820 3000
ZBSJ,2016-03-16 08:00,ZBSJ 160800Z 18005MPS 3000 HZ NSC 18/01 Q1013 BECMG TL0920 2300 HZ
ZBSJ,2016-03-16 09:00,ZBSJ 160900Z 16005MPS 2500 HZ NSC 18/01 Q1013 NOSIG
ZBSJ,2016-03-16 10:00,ZBSJ 161000Z 17003MPS 3000 HZ NSC 14/01 Q1013 BECMG TL1120 2500 HZ
ZBSJ,2016-03-16 11:00,ZBSJ 161100Z 16003MPS 2500 HZ NSC 11/00 Q1014 BECMG TL1220 3000
ZBSJ,2016-03-16 12:00,ZBSJ 161200Z 15002MPS 3000 HZ NSC 10/01 Q1014 BECMG TL1320 2700 HZ
ZBSJ,2016-03-16 13:00,ZBSJ 161300Z 14002MPS 2700 HZ NSC 10/01 Q1015 NOSIG
ZBSJ,2016-03-16 14:00,ZBSJ 161400Z 15003MPS 2500 HZ NSC 08/02 Q1015 NOSIG
ZBSJ,2016-03-16 15:00,ZBSJ 161500Z 15002MPS 2500 HZ NSC 09/03 Q1015 NOSIG
ZBSJ,2016-03-16 16:00,ZBSJ 161600Z 00000MPS 2500 HZ NSC 07/02 Q1015 NOSIG
ZBSJ,2016-03-16 17:00,ZBSJ 161700Z 13001MPS 2300 HZ NSC 06/02 Q1014 NOSIG
ZBSJ,2016-03-16 18:00,ZBSJ 161800Z 09001MPS 2300 HZ NSC 06/03 Q1014 NOSIG
ZBSJ,2016-03-16 19:00,ZBSJ 161900Z 33001MPS 2300 BR NSC 05/02 Q1013 NOSIG
ZBSJ,2016-03-16 20:00,ZBSJ 162000Z 12001MPS 2000 BR NSC 06/02 Q1012 NOSIG
ZBSJ,2016-03-16 21:00,ZBSJ 162100Z 23001MPS 2000 BR NSC 06/03 Q1012 NOSIG
ZBSJ,2016-03-16 22:00,ZBSJ 162200Z 31001MPS 2000 BR NSC 04/02 Q1012 NOSIG
ZBSJ,2016-03-16 23:00,ZBSJ 162300Z 00000MPS 1000 R15/1500D BR NSC 04/02 Q1012 BECMG TL0120 1600
ZBSJ,2016-03-17 00:00,ZBSJ 170000Z 19001MPS 1000 R15/1100N BR NSC 05/03 Q1013 NOSIG
ZBSJ,2016-03-17 01:00,ZBSJ 170100Z 22001MPS 1000 R15/1000N HZ NSC 08/03 Q1013 BECMG TL0240 1600
ZBSJ,2016-03-17 02:00,ZBSJ 170200Z 21001MPS 1200 R15/1100U HZ NSC 11/03 Q1013 BECMG TL0330 1500
ZBSJ,2016-03-17 03:00,ZBSJ 170300Z 15001MPS 1500 R15/1400N HZ NSC 15/03 Q1012 NOSIG
ZBSJ,2016-03-17 04:00,ZBSJ 170400Z 14001MPS 2000 HZ NSC 15/03 Q1011 NOSIG
ZBSJ,2016-03-17 05:00,ZBSJ 170500Z 15003MPS 100V190 2000 HZ NSC 18/04 Q1010 NOSIG
ZBSJ,2016-03-17 06:00,ZBSJ 170600Z 17005MPS 2300 HZ NSC 20/04 Q1009 NOSIG
ZBSJ,2016-03-17 07:00,ZBSJ 170700Z 17004MPS 2500 HZ NSC 20/05 Q1009 BECMG TL0820 3000
ZBSJ,2016-03-17 08:00,ZBSJ 170800Z 16004MPS 2300 HZ NSC 19/06 Q1008 NOSIG
ZBSJ,2016-03-17 09:00,ZBSJ 170900Z 17004MPS 2200 HZ NSC 19/05 Q1008 NOSIG
ZBSJ,2016-03-17 10:00,ZBSJ 171000Z 12002MPS 2000 HZ NSC 16/06 Q1008 NOSIG
ZBSJ,2016-03-17 11:00,ZBSJ 171100Z 11002MPS 2500 HZ NSC 12/05 Q1008 BECMG TL1200 3000
ZBSJ,2016-03-17 12:00,ZBSJ 171200Z 03001MPS 3000 HZ NSC 11/05 Q1009 BECMG TL1330 2500 HZ
ZBSJ,2016-03-17 13:00,ZBSJ 171300Z 07001MPS 2800 HZ NSC 11/05 Q1009 NOSIG
ZBSJ,2016-03-17 14:00,ZBSJ 171400Z 12002MPS 2500 HZ NSC 10/05 Q1009 NOSIG
ZBSJ,2016-03-17 15:00,ZBSJ 171500Z 05001MPS 2000 HZ NSC 08/04 Q1009 NOSIG
ZBSJ,2016-03-17 16:00,ZBSJ 171600Z 10001MPS 2000 HZ NSC 07/04 Q1009 NOSIG
ZBSJ,2016-03-17 17:00,ZBSJ 171700Z 26002MPS 1800 BR NSC 06/04 Q1009 NOSIG
ZBSJ,2016-03-17 18:00,ZBSJ 171800Z 31003MPS 1800 BR NSC 06/04 Q1009 NOSIG
ZBSJ,2016-03-17 19:00,ZBSJ 171900Z 27003MPS 1700 BR NSC 08/04 Q1009 NOSIG
ZBSJ,2016-03-17 20:00,ZBSJ 172000Z 31003MPS 1800 BR NSC 06/03 Q1008 NOSIG
ZBSJ,2016-03-17 21:00,ZBSJ 172100Z 32003MPS 1800 BR NSC 06/03 Q1009 NOSIG
ZBSJ,2016-03-17 22:00,ZBSJ 172200Z 33003MPS 1800 BR NSC 06/02 Q1009 NOSIG
ZBSJ,2016-03-17 23:00,ZBSJ 172300Z 34002MPS 1200 R33/1400D BR NSC 06/03 Q1010 NOSIG
ZBSJ,2016-03-18 00:00,ZBSJ 180000Z 33002MPS 1200 R33/1200N BR NSC 08/04 Q1011 NOSIG
ZBSJ,2016-03-18 01:00,ZBSJ 180100Z 01002MPS 1200 R33/1100D HZ NSC 11/05 Q1011 BECMG TL0240 1500
ZBSJ,2016-03-18 02:00,ZBSJ 180200Z 05004MPS 1300 R33/1100N HZ NSC 15/05 Q1012 BECMG TL0320 1500
ZBSJ,2016-03-18 03:00,ZBSJ 180300Z 05003MPS 020V090 1500 R33/1100N HZ NSC 17/06 Q1012 NOSIG
ZBSJ,2016-03-18 04:00,ZBSJ 180400Z 04004MPS 010V070 1500 R33/1300N HZ NSC 19/06 Q1012 NOSIG
ZBSJ,2016-03-18 05:00,ZBSJ 180500Z 08003MPS 050V110 1600 HZ NSC 20/06 Q1011 NOSIG
ZBSJ,2016-03-18 06:00,ZBSJ 180600Z 07004MPS 2000 HZ NSC 21/05 Q1010 NOSIG
ZBSJ,2016-03-18 07:00,ZBSJ 180700Z 08003MPS 050V120 2500 HZ NSC 22/06 Q1010 NOSIG
ZBSJ,2016-03-18 08:00,ZBSJ 180800Z 10003MPS 070V130 2500 HZ NSC 22/08 Q1010 NOSIG
ZBSJ,2016-03-18 09:00,ZBSJ 180900Z 08002MPS 2200 HZ NSC 21/09 Q1010 NOSIG
ZBSJ,2016-03-18 10:00,ZBSJ 181000Z 08002MPS 2000 HZ NSC 18/09 Q1010 NOSIG
ZBSJ,2016-03-18 11:00,ZBSJ 181100Z 05002MPS 2500 HZ NSC 15/08 Q1011 BECMG TL1240 3000
ZBSJ,2016-03-18 12:00,ZBSJ 181200Z 04002MPS 2200 HZ NSC 12/07 Q1012 BECMG TL1240 3000
ZBSJ,2016-03-18 13:00,ZBSJ 181300Z 03001MPS 2200 HZ NSC 12/07 Q1013 NOSIG
ZBSJ,2016-03-18 14:00,ZBSJ 181400Z 02001MPS 2000 HZ NSC 12/07 Q1014 NOSIG
ZBSJ,2016-03-18 15:00,ZBSJ 181500Z 03002MPS 2500 HZ NSC 10/05 Q1014 NOSIG
ZBSJ,2016-03-18 16:00,ZBSJ 181600Z 01002MPS 2500 HZ NSC 10/04 Q1015 NOSIG
ZBSJ,2016-03-18 17:00,ZBSJ 181700Z 01002MPS 2700 HZ NSC 08/02 Q1015 NOSIG
ZBSJ,2016-03-18 18:00,ZBSJ 181800Z 02002MPS 2700 HZ NSC 09/02 Q1016 NOSIG
ZBSJ,2016-03-18 19:00,ZBSJ 181900Z 04003MPS 3000 HZ NSC 10/03 Q1016 NOSIG
ZBSJ,2016-03-18 20:00,ZBSJ 182000Z 04003MPS 5000 HZ NSC 10/M02 Q1017 NOSIG
ZBSJ,2016-03-18 21:00,ZBSJ 182100Z 05004MPS CAVOK 11/M03 Q1017 NOSIG
ZBSJ,2016-03-18 22:00,ZBSJ 182200Z 05006MPS 7000 NSC 11/02 Q1018 NOSIG
ZBSJ,2016-03-18 23:00,ZBSJ 182300Z 04005MPS 2000 HZ NSC 10/04 Q1020 NOSIG
ZBSJ,2016-03-19 00:00,ZBSJ 190000Z 05006MPS 2500 HZ NSC 10/02 Q1022 BECMG TL0140 3000
ZBSJ,2016-03-19 01:00,ZBSJ 190100Z 05007MPS 2900 HZ NSC 10/01 Q1023 BECMG TL0230 3000
ZBSJ,2016-03-19 02:00,ZBSJ 190200Z 04005MPS 5000 HZ NSC 10/M00 Q1024 NOSIG
ZBSJ,2016-03-19 03:00,ZBSJ 190300Z 06005MPS 020V090 8000 NSC 11/M01 Q1023 NOSIG
ZBSJ,2016-03-19 04:00,ZBSJ 190400Z 06005MPS 020V090 CAVOK 12/M02 Q1023 NOSIG
ZBSJ,2016-03-19 05:00,ZBSJ 190500Z 06004MPS 030V090 CAVOK 12/M02 Q1022 NOSIG
ZBSJ,2016-03-19 06:00,ZBSJ 190600Z 06003MPS 030V110 CAVOK 13/M01 Q1021 NOSIG
ZBSJ,2016-03-19 07:00,ZBSJ 190700Z 05003MPS 010V120 CAVOK 13/M01 Q1020 NOSIG
ZBSJ,2016-03-19 08:00,ZBSJ 190800Z 05003MPS CAVOK 14/01 Q1020 NOSIG
ZBSJ,2016-03-19 09:00,ZBSJ 190900Z 06003MPS CAVOK 14/M01 Q1020 NOSIG
ZBSJ,2016-03-19 10:00,ZBSJ 191000Z 05001MPS 8000 NSC 12/M00 Q1021 NOSIG
ZBSJ,2016-03-19 11:00,ZBSJ 191100Z 02002MPS 8000 NSC 10/M01 Q1022 NOSIG
ZBSJ,2016-03-19 12:00,ZBSJ 191200Z 05002MPS 7000 NSC 09/M01 Q1022 NOSIG
ZBSJ,2016-03-19 13:00,ZBSJ 191300Z 08002MPS 7000 NSC 09/M01 Q1023 NOSIG
ZBSJ,2016-03-19 14:00,ZBSJ 191400Z 09002MPS 8000 NSC 08/M02 Q1024 NOSIG
ZBSJ,2016-03-19 15:00,ZBSJ 191500Z 00000MPS 8000 NSC 07/M02 Q1024 NOSIG
ZBSJ,2016-03-19 16:00,ZBSJ 191600Z 01001MPS 8000 NSC 05/M01 Q1024 NOSIG
ZBSJ,2016-03-19 17:00,ZBSJ 191700Z 01001MPS 7000 NSC 05/M01 Q1024 NOSIG
ZBSJ,2016-03-19 18:00,ZBSJ 191800Z 03002MPS 5000 HZ NSC 04/M01 Q1025 NOSIG
ZBSJ,2016-03-19 19:00,ZBSJ 191900Z 05001MPS 5000 HZ NSC 04/M01 Q1024 NOSIG
ZBSJ,2016-03-19 20:00,ZBSJ 192000Z 04002MPS 5000 HZ NSC 03/M01 Q1025 NOSIG
ZBSJ,2016-03-19 21:00,ZBSJ 192100Z 02001MPS 5000 HZ NSC 05/M01 Q1025 NOSIG
ZBSJ,2016-03-19 22:00,ZBSJ 192200Z 00000MPS 5000 HZ NSC 06/M00 Q1026 NOSIG
ZBSJ,2016-03-19 23:00,ZBSJ 192300Z 00000MPS 4300 HZ NSC 05/M01 Q1027 NOSIG
ZBSJ,2016-03-20 00:00,ZBSJ 200000Z 04002MPS 3500 HZ NSC 06/00 Q1027 BECMG TL0120 2800 HZ
ZBSJ,2016-03-20 01:00,ZBSJ 200100Z 36001MPS 4500 HZ NSC 07/M00 Q1028 NOSIG
ZBSJ,2016-03-20 02:00,ZBSJ 200200Z 09001MPS 6000 NSC 09/M01 Q1028 NOSIG
ZBSJ,2016-03-20 03:00,ZBSJ 200300Z 33001MPS 6000 NSC 09/M02 Q1028 NOSIG
ZBSJ,2016-03-20 04:00,ZBSJ 200400Z 31001MPS 7000 NSC 10/M02 Q1028 NOSIG
ZBSJ,2016-03-20 05:00,ZBSJ 200500Z 28002MPS 8000 NSC 11/M03 Q1027 NOSIG
ZBSJ,2016-03-20 06:00,ZBSJ 200600Z 25003MPS 220V300 8000 NSC 13/M02 Q1026 NOSIG
ZBSJ,2016-03-20 07:00,ZBSJ 200700Z 27002MPS 240V310 CAVOK 14/M04 Q1025 NOSIG
ZBSJ,2016-03-20 08:00,ZBSJ 200800Z 26002MPS 220V320 CAVOK 14/M04 Q1025 NOSIG
ZBSJ,2016-03-20 09:00,ZBSJ 200900Z 24003MPS CAVOK 13/M04 Q1024 NOSIG
ZBSJ,2016-03-20 10:00,ZBSJ 201000Z 22002MPS CAVOK 13/M03 Q1025 NOSIG
ZBSJ,2016-03-20 11:00,ZBSJ 201100Z 21002MPS 8000 NSC 12/M02 Q1025 NOSIG
ZBSJ,2016-03-20 12:00,ZBSJ 201200Z 19002MPS 8000 NSC 11/M02 Q1026 NOSIG
ZBSJ,2016-03-20 13:00,ZBSJ 201300Z 19003MPS 160V230 6000 NSC 10/M02 Q1026 NOSIG
ZBSJ,2016-03-20 14:00,ZBSJ 201400Z 20002MPS 5000 HZ NSC 09/M02 Q1026 NOSIG
ZBSJ,2016-03-20 15:00,ZBSJ 201500Z 23001MPS 5000 HZ NSC 09/M02 Q1026 NOSIG
ZBSJ,2016-03-20 16:00,ZBSJ 201600Z 20001MPS 4500 HZ NSC 08/M01 Q1025 NOSIG
ZBSJ,2016-03-20 17:00,ZBSJ 201700Z 22001MPS 4500 HZ NSC 08/M02 Q1025 NOSIG
ZBSJ,2016-03-20 18:00,ZBSJ 201800Z 31001MPS 4500 HZ NSC 05/M02 Q1025 NOSIG
ZBSJ,2016-03-20 19:00,ZBSJ 201900Z 33002MPS 4000 HZ NSC 06/M01 Q1024 NOSIG
ZBSJ,2016-03-20 20:00,ZBSJ 202000Z 23001MPS 4000 HZ NSC 04/M01 Q1024 NOSIG
ZBSJ,2016-03-20 21:00,ZBSJ 202100Z 28001MPS 4000 HZ NSC 04/M01 Q1024 NOSIG
ZBSJ,2016-03-20 22:00,ZBSJ 202200Z 24001MPS 3000 HZ NSC 04/M00 Q1024 NOSIG
ZBSJ,2016-03-20 23:00,ZBSJ 202300Z 01001MPS 2000 HZ NSC 04/00 Q1025 BECMG 3000
ZBSJ,2016-03-21 00:00,ZBSJ 210000Z 00000MPS 1600 HZ NSC 07/02 Q1025 BECMG TL0120 1400 HZ
ZBSJ,2016-03-21 01:00,ZBSJ 210100Z 11001MPS 1800 HZ NSC 09/01 Q1025 BECMG TL0240 3500
ZBSJ,2016-03-21 02:00,ZBSJ 210200Z 16001MPS 2300 HZ NSC 12/01 Q1025 BECMG TL0330 3500
ZBSJ,2016-03-21 03:00,ZBSJ 210300Z 17002MPS 3000 HZ NSC 14/00 Q1025 NOSIG
ZBSJ,2016-03-21 04:00,ZBSJ 210400Z 19003MPS 140V220 8000 NSC 15/M02 Q1024 NOSIG
ZBSJ,2016-03-21 05:00,ZBSJ 210500Z 19003MPS 160V230 CAVOK 17/M02 Q1023 NOSIG
ZBSJ,2016-03-21 06:00,ZBSJ 210600Z 17004MPS CAVOK 16/M00 Q1021 NOSIG
ZBSJ,2016-03-21 07:00,ZBSJ 210700Z 17004MPS CAVOK 17/M00 Q1020 NOSIG
ZBSJ,2016-03-21 08:00,ZBSJ 210800Z 15004MPS 8000 NSC 16/01 Q1020 NOSIG
ZBSJ,2016-03-21 09:00,ZBSJ 210900Z 17003MPS 8000 NSC 15/01 Q1019 NOSIG
ZBSJ,2016-03-21 10:00,ZBSJ 211000Z 18002MPS 6000 NSC 14/02 Q1019 NOSIG
ZBSJ,2016-03-21 11:00,ZBSJ 211100Z 16001MPS 5000 HZ NSC 11/02 Q1019 NOSIG
ZBSJ,2016-03-21 12:00,ZBSJ 211200Z 14001MPS 5000 HZ NSC 11/01 Q1019 NOSIG
ZBSJ,2016-03-21 13:00,ZBSJ 211300Z 21001MPS 5000 HZ NSC 09/02 Q1019 NOSIG
ZBSJ,2016-03-21 14:00,ZBSJ 211400Z 00000MPS 4500 HZ NSC 09/02 Q1019 NOSIG
ZBSJ,2016-03-21 15:00,ZBSJ 211500Z 12001MPS 4000 HZ NSC 08/02 Q1019 NOSIG
ZBSJ,2016-03-21 16:00,ZBSJ 211600Z 00000MPS 3000 HZ NSC 08/02 Q1019 NOSIG
ZBSJ,2016-03-21 17:00,ZBSJ 211700Z 00000MPS 3000 HZ NSC 08/03 Q1018 NOSIG
ZBSJ,2016-03-21 18:00,ZBSJ 211800Z 10001MPS 3000 HZ NSC 08/02 Q1018 NOSIG
ZBSJ,2016-03-21 19:00,ZBSJ 211900Z 31001MPS 3000 HZ NSC 07/02 Q1017 NOSIG
ZBSJ,2016-03-21 20:00,ZBSJ 212000Z 00000MPS 3000 HZ NSC 08/03 Q1017 NOSIG
ZBSJ,2016-03-21 21:00,ZBSJ 212100Z 31001MPS 3000 HZ NSC 08/03 Q1017 NOSIG
ZBSJ,2016-03-21 22:00,ZBSJ 212200Z 02001MPS 2500 HZ NSC 07/03 Q1017 NOSIG
ZBSJ,2016-03-21 23:00,ZBSJ 212300Z 06002MPS 1500 HZ NSC 07/04 Q1018 BECMG TL2340 1400 BR
ZBSJ,2016-03-22 00:00,ZBSJ 220000Z 04003MPS 1300 R15/1600N HZ OVC046 09/04 Q1019 BECMG TL0120 1600
ZBSJ,2016-03-22 01:00,ZBSJ 220100Z 06003MPS 1600 HZ NSC 10/04 Q1020 NOSIG
ZBSJ,2016-03-22 02:00,ZBSJ 220200Z 06004MPS 2300 HZ NSC 12/04 Q1020 BECMG TL0340 3500
ZBSJ,2016-03-22 03:00,ZBSJ 220300Z 05005MPS 2500 HZ NSC 14/04 Q1021 BECMG TL0340 3500
ZBSJ,2016-03-22 04:00,ZBSJ 220400Z 05006MPS 2500 HZ NSC 14/04 Q1021 BECMG TL0440 3500
ZBSJ,2016-03-22 05:00,ZBSJ 220500Z 04007MPS 2000 HZ NSC 14/03 Q1021 NOSIG
ZBSJ,2016-03-22 06:00,ZBSJ 220600Z 05007MPS 4000 HZ NSC 13/M01 Q1022 NOSIG
ZBSJ,2016-03-22 07:00,ZBSJ 220700Z 05008MPS 5000 HZ NSC 13/M01 Q1022 NOSIG
ZBSJ,2016-03-22 08:00,ZBSJ 220800Z 05005MPS 8000 NSC 13/M00 Q1022 NOSIG
ZBSJ,2016-03-22 09:00,ZBSJ 220900Z 05004MPS CAVOK 13/M00 Q1023 NOSIG
ZBSJ,2016-03-22 10:00,ZBSJ 221000Z 05002MPS CAVOK 12/M00 Q1023 NOSIG
ZBSJ,2016-03-22 11:00,ZBSJ 221100Z 01001MPS CAVOK 09/M01 Q1024 NOSIG
ZBSJ,2016-03-22 12:00,ZBSJ 221200Z 00000MPS CAVOK 09/M01 Q1025 NOSIG
ZBSJ,2016-03-22 13:00,ZBSJ 221300Z 28001MPS CAVOK 09/M01 Q1025 NOSIG
ZBSJ,2016-03-22 14:00,ZBSJ 221400Z 26001MPS 6000 NSC 09/01 Q1026 NOSIG
ZBSJ,2016-03-22 15:00,ZBSJ 221500Z 24001MPS 6000 NSC 09/01 Q1026 NOSIG
ZBSJ,2016-03-22 16:00,ZBSJ 221600Z 00000MPS 6000 NSC 08/01 Q1026 NOSIG
ZBSJ,2016-03-22 17:00,ZBSJ 221700Z 00000MPS 5000 HZ NSC 08/01 Q1026 NOSIG
ZBSJ,2016-03-22 18:00,ZBSJ 221800Z 17001MPS 5000 HZ NSC 06/01 Q1027 NOSIG
ZBSJ,2016-03-22 19:00,ZBSJ 221900Z 03001MPS 4500 HZ NSC 05/01 Q1027 NOSIG
ZBSJ,2016-03-22 20:00,ZBSJ 222000Z 06001MPS 4500 HZ NSC 07/03 Q1027 NOSIG
ZBSJ,2016-03-22 21:00,ZBSJ 222100Z 01001MPS 4000 HZ NSC 07/02 Q1028 NOSIG
ZBSJ,2016-03-22 22:00,ZBSJ 222200Z 06005MPS 5000 HZ NSC 07/00 Q1029 NOSIG
ZBSJ,2016-03-22 23:00,ZBSJ 222300Z 06004MPS 4300 HZ OVC046 06/01 Q1031 NOSIG
ZBSJ,2016-03-23 00:00,ZBSJ 230000Z 06003MPS 4500 -RA HZ OVC046 07/01 Q1033 NOSIG
ZBSJ,2016-03-23 01:00,ZBSJ 230100Z 06003MPS 5000 HZ NSC 08/01 Q1033 NOSIG
ZBSJ,2016-03-23 02:00,ZBSJ 230200Z 00000MPS 8000 NSC 09/M01 Q1034 NOSIG
ZBSJ,2016-03-23 03:00,ZBSJ 230300Z 12002MPS 080V160 CAVOK 10/M03 Q1034 NOSIG
ZBSJ,2016-03-23 04:00,ZBSJ 230400Z 05001MPS CAVOK 11/M03 Q1033 NOSIG
ZBSJ,2016-03-23 05:00,ZBSJ 230500Z 15002MPS CAVOK 12/M03 Q1032 NOSIG
ZBSJ,2016-03-23 06:00,ZBSJ 230600Z 06001MPS CAVOK 13/M03 Q1031 NOSIG
ZBSJ,2016-03-23 07:00,ZBSJ 230700Z 19003MPS 120V270 CAVOK 13/M04 Q1031 NOSIG
ZBSJ,2016-03-23 08:00,ZBSJ 230800Z 17002MPS CAVOK 13/M04 Q1030 NOSIG
ZBSJ,2016-03-23 09:00,ZBSJ 230900Z 18004MPS CAVOK 13/M03 Q1030 NOSIG
ZBSJ,2016-03-23 10:00,ZBSJ 231000Z 16003MPS CAVOK 10/M03 Q1030 NOSIG
ZBSJ,2016-03-23 11:00,ZBSJ 231100Z 16003MPS 7000 NSC 07/M03 Q1030 NOSIG
ZBSJ,2016-03-23 12:00,ZBSJ 231200Z 17002MPS 6000 NSC 08/M02 Q1031 NOSIG
ZBSJ,2016-03-23 13:00,ZBSJ 231300Z 20001MPS 6000 NSC 06/M02 Q1032 NOSIG
ZBSJ,2016-03-23 14:00,ZBSJ 231400Z 20001MPS 6000 NSC 05/M02 Q1032 NOSIG
ZBSJ,2016-03-23 15:00,ZBSJ 231500Z 21001MPS 5000 HZ NSC 05/M02 Q1032 NOSIG
ZBSJ,2016-03-23 16:00,ZBSJ 231600Z 00000MPS 5000 HZ NSC 04/M02 Q1033 NOSIG
ZBSJ,2016-03-23 17:00,ZBSJ 231700Z 01001MPS 4500 HZ NSC 03/M02 Q1033 NOSIG
ZBSJ,2016-03-23 18:00,ZBSJ 231800Z 36001MPS 4000 HZ NSC 04/M02 Q1033 NOSIG
ZBSJ,2016-03-23 19:00,ZBSJ 231900Z 34001MPS 3500 HZ NSC 03/M02 Q1033 NOSIG
ZBSJ,2016-03-23 20:00,ZBSJ 232000Z 03003MPS 3500 HZ NSC 03/M02 Q1033 NOSIG
ZBSJ,2016-03-23 21:00,ZBSJ 232100Z 05002MPS 4000 HZ NSC 03/M02 Q1033 NOSIG
ZBSJ,2016-03-23 22:00,ZBSJ 232200Z 08003MPS 4500 HZ NSC 03/M06 Q1033 NOSIG
ZBSJ,2016-03-23 23:00,ZBSJ 232300Z 06002MPS 6000 NSC 02/M07 Q1034 NOSIG
ZBSJ,2016-03-24 00:00,ZBSJ 240000Z 34002MPS 6000 NSC 04/M03 Q1034 NOSIG
ZBSJ,2016-03-24 01:00,ZBSJ 240100Z 28001MPS 7000 NSC 07/M07 Q1035 NOSIG
ZBSJ,2016-03-24 02:00,ZBSJ 240200Z 05001MPS CAVOK 10/M09 Q1034 NOSIG
ZBSJ,2016-03-24 03:00,ZBSJ 240300Z 07003MPS 040V120 CAVOK 10/M11 Q1034 NOSIG
ZBSJ,2016-03-24 04:00,ZBSJ 240400Z 05002MPS CAVOK 11/M12 Q1033 NOSIG
ZBSJ,2016-03-24 05:00,ZBSJ 240500Z 11002MPS CAVOK 12/M11 Q1031 NOSIG
ZBSJ,2016-03-24 06:00,ZBSJ 240600Z 08001MPS CAVOK 13/M10 Q1030 NOSIG
ZBSJ,2016-03-24 07:00,ZBSJ 240700Z 16003MPS 110V200 CAVOK 13/M10 Q1029 NOSIG
ZBSJ,2016-03-24 08:00,ZBSJ 240800Z 18003MPS 140V210 CAVOK 13/M08 Q1029 NOSIG
ZBSJ,2016-03-24 09:00,ZBSJ 240900Z 14002MPS 100V180 CAVOK 13/M08 Q1029 NOSIG
ZBSJ,2016-03-24 10:00,ZBSJ 241000Z 18004MPS CAVOK 11/M07 Q1029 NOSIG
ZBSJ,2016-03-24 11:00,ZBSJ 241100Z 17002MPS 7000 NSC 09/M06 Q1029 NOSIG
ZBSJ,2016-03-24 12:00,ZBSJ 241200Z 17001MPS 7000 NSC 06/M06 Q1030 NOSIG
ZBSJ,2016-03-24 13:00,ZBSJ 241300Z 13001MPS 7000 NSC 05/M05 Q1030 NOSIG
ZBSJ,2016-03-24 14:00,ZBSJ 241400Z 06001MPS 6000 NSC 04/M05 Q1031 NOSIG
ZBSJ,2016-03-24 15:00,ZBSJ 241500Z 22001MPS 5000 HZ NSC 05/M05 Q1030 NOSIG
ZBSJ,2016-03-24 16:00,ZBSJ 241600Z 28001MPS 4500 HZ NSC 04/M05 Q1030 NOSIG
ZBSJ,2016-03-24 17:00,ZBSJ 241700Z 32003MPS 4000 HZ NSC 03/M05 Q1030 NOSIG
ZBSJ,2016-03-24 18:00,ZBSJ 241800Z 04001MPS 4800 HZ NSC 02/M05 Q1030 NOSIG
ZBSJ,2016-03-24 19:00,ZBSJ 241900Z 31001MPS 4500 HZ NSC 02/M05 Q1029 NOSIG
ZBSJ,2016-03-24 20:00,ZBSJ 242000Z 32002MPS 6000 NSC 02/M06 Q1029 NOSIG
ZBSJ,2016-03-24 21:00,ZBSJ 242100Z 30003MPS 5000 HZ NSC 03/M06 Q1029 NOSIG
ZBSJ,2016-03-24 22:00,ZBSJ 242200Z 30002MPS 6000 NSC 00/M07 Q1029 NOSIG
ZBSJ,2016-03-24 23:00,ZBSJ 242300Z 31003MPS 5000 HZ NSC 02/M07 Q1029 NOSIG
ZBSJ,2016-03-25 00:00,ZBSJ 250000Z 33003MPS 6000 NSC 07/M06 Q1030 NOSIG
ZBSJ,2016-03-25 01:00,ZBSJ 250100Z 02003MPS 340V070 CAVOK 10/M09 Q1030 NOSIG
ZBSJ,2016-03-25 02:00,ZBSJ 250200Z 05003MPS 360V100 CAVOK 11/M11 Q1030 NOSIG
ZBSJ,2016-03-25 03:00,ZBSJ 250300Z 07003MPS 020V120 CAVOK 13/M10 Q1030 NOSIG
ZBSJ,2016-03-25 04:00,ZBSJ 250400Z 04002MPS CAVOK 13/M12 Q1029 NOSIG
ZBSJ,2016-03-25 05:00,ZBSJ 250500Z 06002MPS 320V110 CAVOK 14/M12 Q1028 NOSIG
ZBSJ,2016-03-25 06:00,ZBSJ 250600Z 25002MPS CAVOK 15/M12 Q1027 NOSIG
ZBSJ,2016-03-25 07:00,ZBSJ 250700Z 21001MPS CAVOK 15/M14 Q1027 NOSIG
ZBSJ,2016-03-25 08:00,ZBSJ 250800Z 09002MPS CAVOK 14/M14 Q1026 NOSIG
ZBSJ,2016-03-25 09:00,ZBSJ 250900Z 16003MPS CAVOK 14/M13 Q1025 NOSIG
ZBSJ,2016-03-25 10:00,ZBSJ 251000Z 16003MPS CAVOK 12/M10 Q1026 NOSIG
ZBSJ,2016-03-25 11:00,ZBSJ 251100Z 13002MPS CAVOK 09/M09 Q1026 NOSIG
ZBSJ,2016-03-25 12:00,ZBSJ 251200Z 15002MPS CAVOK 07/M10 Q1027 NOSIG
ZBSJ,2016-03-25 13:00,ZBSJ 251300Z 19001MPS CAVOK 06/M10 Q1027 NOSIG
ZBSJ,2016-03-25 14:00,ZBSJ 251400Z 18001MPS 8000 NSC 05/M10 Q1028 NOSIG
ZBSJ,2016-03-25 15:00,ZBSJ 251500Z 20002MPS 6000 NSC 06/M09 Q1028 NOSIG
ZBSJ,2016-03-25 16:00,ZBSJ 251600Z 17002MPS 6000 NSC 04/M09 Q1028 NOSIG
ZBSJ,2016-03-25 17:00,ZBSJ 251700Z 30001MPS 6000 NSC 02/M08 Q1027 NOSIG
ZBSJ,2016-03-25 18:00,ZBSJ 251800Z 32003MPS 6000 NSC 03/M08 Q1027 NOSIG
ZBSJ,2016-03-25 19:00,ZBSJ 251900Z 32003MPS 6000 NSC 02/M08 Q1027 NOSIG
ZBSJ,2016-03-25 20:00,ZBSJ 252000Z 28003MPS 7000 NSC 03/M08 Q1027 NOSIG
ZBSJ,2016-03-25 21:00,ZBSJ 252100Z 31003MPS CAVOK 01/M09 Q1027 NOSIG
ZBSJ,2016-03-25 22:00,ZBSJ 252200Z 30004MPS CAVOK 01/M09 Q1027 NOSIG
ZBSJ,2016-03-25 23:00,ZBSJ 252300Z 28003MPS CAVOK 04/M09 Q1027 NOSIG
ZBSJ,2016-03-26 00:00,ZBSJ 260000Z 29003MPS CAVOK 08/M09 Q1028 NOSIG
ZBSJ,2016-03-26 01:00,ZBSJ 260100Z 32004MPS 300V360 CAVOK 12/M09 Q1028 NOSIG
ZBSJ,2016-03-26 02:00,ZBSJ 260200Z 36004MPS 310V030 CAVOK 14/M09 Q1028 NOSIG
ZBSJ,2016-03-26 03:00,ZBSJ 260300Z 31003MPS 250V010 CAVOK 15/M11 Q1027 NOSIG
ZBSJ,2016-03-26 04:00,ZBSJ 260400Z VRB03MPS CAVOK 16/M12 Q1027 NOSIG
ZBSJ,2016-03-26 05:00,ZBSJ 260500Z VRB03MPS CAVOK 17/M12 Q1026 NOSIG
ZBSJ,2016-03-26 06:00,ZBSJ 260600Z 30003MPS 200V360 CAVOK 18/M12 Q1024 NOSIG
ZBSJ,2016-03-26 07:00,ZBSJ 260700Z 34001MPS CAVOK 18/M13 Q1024 NOSIG
ZBSJ,2016-03-26 08:00,ZBSJ 260800Z 04001MPS CAVOK 18/M13 Q1023 NOSIG
ZBSJ,2016-03-26 09:00,ZBSJ 260900Z 00000MPS CAVOK 18/M14 Q1023 NOSIG
ZBSJ,2016-03-26 10:00,ZBSJ 261000Z 18003MPS CAVOK 16/M09 Q1022 NOSIG
ZBSJ,2016-03-26 11:00,ZBSJ 261100Z 17002MPS CAVOK 12/M07 Q1023 NOSIG
ZBSJ,2016-03-26 12:00,ZBSJ 261200Z 19004MPS CAVOK 11/M08 Q1023 NOSIG
ZBSJ,2016-03-26 13:00,ZBSJ 261300Z 19004MPS CAVOK 10/M08 Q1024 NOSIG
ZBSJ,2016-03-26 14:00,ZBSJ 261400Z 20002MPS CAVOK 08/M09 Q1024 NOSIG
ZBSJ,2016-03-26 15:00,ZBSJ 261500Z 22003MPS 8000 NSC 08/M08 Q1024 NOSIG
ZBSJ,2016-03-26 16:00,ZBSJ 261600Z 24003MPS 8000 NSC 08/M08 Q1023 NOSIG
ZBSJ,2016-03-26 17:00,ZBSJ 261700Z 25003MPS 9000 NSC 06/M07 Q1023 NOSIG
ZBSJ,2016-03-26 18:00,ZBSJ 261800Z 29002MPS CAVOK 07/M09 Q1023 NOSIG
ZBSJ,2016-03-26 19:00,ZBSJ 261900Z 31004MPS CAVOK 06/M10 Q1022 NOSIG
ZBSJ,2016-03-26 20:00,ZBSJ 262000Z 31002MPS CAVOK 05/M10 Q1022 NOSIG
ZBSJ,2016-03-26 21:00,ZBSJ 262100Z 32003MPS CAVOK 03/M09 Q1022 NOSIG
ZBSJ,2016-03-26 22:00,ZBSJ 262200Z 29004MPS CAVOK 05/M09 Q1022 NOSIG
ZBSJ,2016-03-26 23:00,ZBSJ 262300Z 30003MPS CAVOK 06/M09 Q1022 NOSIG
ZBSJ,2016-03-27 00:00,ZBSJ 270000Z 31003MPS 270V340 CAVOK 11/M08 Q1023 NOSIG
ZBSJ,2016-03-27 01:00,ZBSJ 270100Z 28005MPS CAVOK 14/M07 Q1023 NOSIG
ZBSJ,2016-03-27 02:00,ZBSJ 270200Z 28005MPS CAVOK 17/M10 Q1023 NOSIG
ZBSJ,2016-03-27 03:00,ZBSJ 270300Z 27003MPS 220V320 CAVOK 19/M12 Q1022 NOSIG
ZBSJ,2016-03-27 04:00,ZBSJ 270400Z 27003MPS 220V360 CAVOK 19/M13 Q1021 NOSIG
ZBSJ,2016-03-27 05:00,ZBSJ 270500Z 27002MPS CAVOK 20/M13 Q1020 NOSIG
ZBSJ,2016-03-27 06:00,ZBSJ 270600Z VRB02MPS CAVOK 21/M12 Q1018 NOSIG
ZBSJ,2016-03-27 07:00,ZBSJ 270700Z 18003MPS 130V250 CAVOK 21/M13 Q1017 NOSIG
ZBSJ,2016-03-27 08:00,ZBSJ 270800Z 17004MPS CAVOK 22/M11 Q1016 NOSIG
ZBSJ,2016-03-27 09:00,ZBSJ 270900Z 17006MPS CAVOK 20/M06 Q1015 NOSIG
ZBSJ,2016-03-27 10:00,ZBSJ 271000Z 16005MPS CAVOK 17/M05 Q1015 NOSIG
ZBSJ,2016-03-27 11:00,ZBSJ 271100Z 18004MPS CAVOK 15/M06 Q1015 NOSIG
ZBSJ,2016-03-27 12:00,ZBSJ 271200Z 18005MPS CAVOK 15/M05 Q1016 NOSIG
ZBSJ,2016-03-27 13:00,ZBSJ 271300Z 18005MPS CAVOK 14/M04 Q1016 NOSIG
ZBSJ,2016-03-27 14:00,ZBSJ 271400Z 18004MPS CAVOK 12/M03 Q1015 NOSIG
ZBSJ,2016-03-27 15:00,ZBSJ 271500Z 23003MPS CAVOK 11/M04 Q1015 NOSIG
ZBSJ,2016-03-27 16:00,ZBSJ 271600Z 18002MPS CAVOK 09/M03 Q1015 NOSIG
ZBSJ,2016-03-27 17:00,ZBSJ 271700Z 22002MPS CAVOK 08/M03 Q1014 NOSIG
ZBSJ,2016-03-27 18:00,ZBSJ 271800Z 23001MPS CAVOK 10/M03 Q1014 NOSIG
ZBSJ,2016-03-27 19:00,ZBSJ 271900Z 33001MPS 8000 NSC 07/M03 Q1013 NOSIG
ZBSJ,2016-03-27 20:00,ZBSJ 272000Z 20001MPS 7000 NSC 05/M03 Q1013 NOSIG
ZBSJ,2016-03-27 21:00,ZBSJ 272100Z 27001MPS 7000 NSC 05/M03 Q1013 NOSIG
ZBSJ,2016-03-27 22:00,ZBSJ 272200Z 36001MPS 6000 NSC 04/M03 Q1012 NOSIG
ZBSJ,2016-03-27 23:00,ZBSJ 272300Z 25001MPS 5000 HZ NSC 07/M00 Q1012 NOSIG
ZBSJ,2016-03-28 00:00,ZBSJ 280000Z 21001MPS 5000 HZ NSC 10/M03 Q1013 NOSIG
ZBSJ,2016-03-28 01:00,ZBSJ 280100Z 23001MPS 5000 HZ NSC 12/M03 Q1012 NOSIG
ZBSJ,2016-03-28 02:00,ZBSJ 280200Z 27002MPS 5000 HZ NSC 15/M04 Q1012 NOSIG
ZBSJ,2016-03-28 03:00,ZBSJ 280300Z 26002MPS 8000 NSC 19/M02 Q1011 NOSIG
ZBSJ,2016-03-28 04:00,ZBSJ 280400Z 16002MPS 110V210 8000 NSC 21/M01 Q1010 NOSIG
ZBSJ,2016-03-28 05:00,ZBSJ 280500Z 21002MPS 160V270 8000 NSC 23/M04 Q1009 NOSIG
ZBSJ,2016-03-28 06:00,ZBSJ 280600Z 18003MPS 130V210 CAVOK 24/M04 Q1009 NOSIG
ZBSJ,2016-03-28 07:00,ZBSJ 280700Z 15004MPS CAVOK 24/01 Q1009 NOSIG
ZBSJ,2016-03-28 08:00,ZBSJ 280800Z 16005MPS CAVOK 24/03 Q1008 NOSIG
ZBSJ,2016-03-28 09:00,ZBSJ 280900Z 17005MPS CAVOK 22/03 Q1008 NOSIG
ZBSJ,2016-03-28 10:00,ZBSJ 281000Z 18004MPS CAVOK 20/04 Q1008 NOSIG
ZBSJ,2016-03-28 11:00,ZBSJ 281100Z 20003MPS 6000 FEW046 18/02 Q1009 NOSIG
ZBSJ,2016-03-28 12:00,ZBSJ 281200Z 03001MPS 6000 NSC 14/04 Q1010 NOSIG
ZBSJ,2016-03-28 13:00,ZBSJ 281300Z 02002MPS 6000 NSC 16/02 Q1012 NOSIG
ZBSJ,2016-03-28 14:00,ZBSJ 281400Z 36006MPS CAVOK 19/M02 Q1013 NOSIG
ZBSJ,2016-03-28 15:00,ZBSJ 281500Z 34004MPS CAVOK 17/M02 Q1014 NOSIG
ZBSJ,2016-03-28 16:00,ZBSJ 281600Z 36004MPS CAVOK 16/M01 Q1015 NOSIG
ZBSJ,2016-03-28 17:00,ZBSJ 281700Z 06002MPS CAVOK 13/M02 Q1016 NOSIG
ZBSJ,2016-03-28 18:00,ZBSJ 281800Z 04004MPS CAVOK 13/M03 Q1016 NOSIG
ZBSJ,2016-03-28 19:00,ZBSJ 281900Z 02005MPS CAVOK 14/M05 Q1016 NOSIG
ZBSJ,2016-03-28 20:00,ZBSJ 282000Z 02002MPS CAVOK 12/M05 Q1016 NOSIG
ZBSJ,2016-03-28 21:00,ZBSJ 282100Z 36001MPS CAVOK 10/M05 Q1017 NOSIG
ZBSJ,2016-03-28 22:00,ZBSJ 282200Z 22002MPS CAVOK 08/M04 Q1018 NOSIG
ZBSJ,2016-03-28 23:00,ZBSJ 282300Z 00000MPS 6000 NSC 07/M03 Q1019 NOSIG
ZBSJ,2016-03-29 00:00,ZBSJ 290000Z 23001MPS 6000 NSC 14/M03 Q1020 NOSIG
ZBSJ,2016-03-29 01:00,ZBSJ 290100Z 18003MPS CAVOK 16/M04 Q1020 NOSIG
ZBSJ,2016-03-29 02:00,ZBSJ 290200Z 19004MPS CAVOK 17/M03 Q1020 NOSIG
ZBSJ,2016-03-29 03:00,ZBSJ 290300Z 18003MPS CAVOK 18/M04 Q1019 NOSIG
ZBSJ,2016-03-29 04:00,ZBSJ 290400Z 18005MPS 130V230 CAVOK 20/M02 Q1018 NOSIG
ZBSJ,2016-03-29 05:00,ZBSJ 290500Z 19005MPS 170V230 CAVOK 21/M02 Q1017 NOSIG
ZBSJ,2016-03-29 06:00,ZBSJ 290600Z 18006MPS CAVOK 21/M02 Q1015 NOSIG
ZBSJ,2016-03-29 07:00,ZBSJ 290700Z 18007MPS CAVOK 22/M02 Q1014 NOSIG
ZBSJ,2016-03-29 08:00,ZBSJ 290800Z 18007MPS CAVOK 21/M02 Q1014 NOSIG
ZBSJ,2016-03-29 09:00,ZBSJ 290900Z 19006MPS CAVOK 21/M01 Q1013 NOSIG
ZBSJ,2016-03-29 10:00,ZBSJ 291000Z 19007MPS CAVOK 19/01 Q1013 NOSIG
ZBSJ,2016-03-29 11:00,ZBSJ 291100Z 19006MPS CAVOK 18/M01 Q1014 NOSIG
ZBSJ,2016-03-29 12:00,ZBSJ 291200Z 19007MPS CAVOK 17/M01 Q1014 NOSIG
ZBSJ,2016-03-29 13:00,ZBSJ 291300Z 18004MPS CAVOK 15/M00 Q1015 NOSIG
ZBSJ,2016-03-29 14:00,ZBSJ 291400Z 19003MPS CAVOK 13/M01 Q1015 NOSIG
ZBSJ,2016-03-29 15:00,ZBSJ 291500Z 18003MPS CAVOK 11/M01 Q1015 NOSIG
ZBSJ,2016-03-29 16:00,ZBSJ 291600Z 17003MPS CAVOK 10/00 Q1015 NOSIG
ZBSJ,2016-03-29 17:00,ZBSJ 291700Z 36001MPS CAVOK 09/M00 Q1015 NOSIG
ZBSJ,2016-03-29 18:00,ZBSJ 291800Z 01002MPS CAVOK 07/00 Q1015 NOSIG
ZBSJ,2016-03-29 19:00,ZBSJ 291900Z 32002MPS 8000 NSC 07/M00 Q1015 NOSIG
ZBSJ,2016-03-29 20:00,ZBSJ 292000Z 01001MPS 8000 NSC 06/00 Q1016 NOSIG
ZBSJ,2016-03-29 21:00,ZBSJ 292100Z 36002MPS 8000 NSC 06/00 Q1016 NOSIG
ZBSJ,2016-03-29 22:00,ZBSJ 292200Z 32002MPS 8000 NSC 06/M01 Q1017 NOSIG
ZBSJ,2016-03-29 23:00,ZBSJ 292300Z 27001MPS 8000 NSC 07/01 Q1018 NOSIG
ZBSJ,2016-03-30 00:00,ZBSJ 300000Z 32002MPS 7000 NSC 12/01 Q1019 NOSIG
ZBSJ,2016-03-30 01:00,ZBSJ 300100Z 01004MPS CAVOK 15/M03 Q1019 NOSIG
ZBSJ,2016-03-30 02:00,ZBSJ 300200Z 01004MPS CAVOK 17/M02 Q1019 NOSIG
ZBSJ,2016-03-30 03:00,ZBSJ 300300Z 03004MPS 350V070 CAVOK 20/M01 Q1018 NOSIG
ZBSJ,2016-03-30 04:00,ZBSJ 300400Z 05003MPS 010V090 CAVOK 20/M01 Q1017 NOSIG
ZBSJ,2016-03-30 05:00,ZBSJ 300500Z 09003MPS 040V140 CAVOK 21/M00 Q1016 NOSIG
ZBSJ,2016-03-30 06:00,ZBSJ 300600Z VRB03MPS CAVOK 22/02 Q1015 NOSIG
ZBSJ,2016-03-30 07:00,ZBSJ 300700Z 08003MPS 050V130 CAVOK 22/03 Q1014 NOSIG
ZBSJ,2016-03-30 08:00,ZBSJ 300800Z 14004MPS 100V160 CAVOK 22/02 Q1013 NOSIG
ZBSJ,2016-03-30 09:00,ZBSJ 300900Z 14003MPS CAVOK 22/03 Q1013 NOSIG
ZBSJ,2016-03-30 10:00,ZBSJ 301000Z 15002MPS 7000 NSC 19/05 Q1012 NOSIG
ZBSJ,2016-03-30 11:00,ZBSJ 301100Z 18002MPS 5000 HZ NSC 17/04 Q1013 NOSIG
ZBSJ,2016-03-30 12:00,ZBSJ 301200Z 15002MPS 5000 HZ NSC 15/05 Q1013 NOSIG
ZBSJ,2016-03-30 13:00,ZBSJ 301300Z 15001MPS 5000 HZ NSC 12/05 Q1013 NOSIG
ZBSJ,2016-03-30 14:00,ZBSJ 301400Z 04001MPS 5000 HZ NSC 11/05 Q1013 NOSIG
ZBSJ,2016-03-30 15:00,ZBSJ 301500Z 09002MPS 4500 HZ NSC 11/05 Q1013 NOSIG
ZBSJ,2016-03-30 16:00,ZBSJ 301600Z 15002MPS 4000 HZ NSC 12/05 Q1012 NOSIG
ZBSJ,2016-03-30 17:00,ZBSJ 301700Z 25003MPS 4000 HZ NSC 11/05 Q1012 NOSIG
ZBSJ,2016-03-30 18:00,ZBSJ 301800Z 21001MPS 3500 HZ NSC 10/05 Q1011 NOSIG
ZBSJ,2016-03-30 19:00,ZBSJ 301900Z 20002MPS 3500 HZ NSC 08/04 Q1010 NOSIG
ZBSJ,2016-03-30 20:00,ZBSJ 302000Z 27001MPS 3500 HZ NSC 09/04 Q1010 NOSIG
ZBSJ,2016-03-30 21:00,ZBSJ 302100Z 22001MPS 4000 HZ NSC 08/03 Q1010 NOSIG
ZBSJ,2016-03-30 22:00,ZBSJ 302200Z 18001MPS 2500 BR NSC 07/04 Q1010 NOSIG
ZBSJ,2016-03-30 23:00,ZBSJ 302300Z 18001MPS 1800 BR NSC 08/04 Q1010 BECMG TL0030 3500
ZBSJ,2016-03-31 00:00,ZBSJ 310000Z 19001MPS 2500 HZ NSC 12/03 Q1010 BECMG TL0100 3500
ZBSJ,2016-03-31 01:00,ZBSJ 310100Z 16002MPS 3500 HZ NSC 14/05 Q1010 NOSIG
ZBSJ,2016-03-31 02:00,ZBSJ 310200Z 16003MPS 120V190 2500 HZ NSC 17/08 Q1009 BECMG TL0330 3000
ZBSJ,2016-03-31 03:00,ZBSJ 310300Z 15004MPS 2700 HZ NSC 18/08 Q1009 BECMG TL0400 3000
ZBSJ,2016-03-31 04:00,ZBSJ 310400Z 15005MPS 2700 HZ NSC 21/09 Q1007 BECMG TL0530 3000
ZBSJ,2016-03-31 05:00,ZBSJ 310500Z 16007MPS 4000 HZ NSC 23/09 Q1006 NOSIG
ZBSJ,2016-03-31 06:00,ZBSJ 310600Z 17008MPS 7000 NSC 23/08 Q1004 NOSIG
ZBSJ,2016-03-31 07:00,ZBSJ 310700Z 17009MPS 7000 NSC 25/07 Q1003 NOSIG
ZBSJ,2016-03-31 08:00,ZBSJ 310800Z 17010MPS 6000 NSC 25/08 Q1002 NOSIG
ZBSJ,2016-03-31 09:00,ZBSJ 310900Z 17009MPS 6000 NSC 24/09 Q1002 NOSIG
ZBSJ,2016-03-31 10:00,ZBSJ 311000Z 17008MPS 6000 NSC 22/09 Q1002 NOSIG
ZBSJ,2016-03-31 11:00,ZBSJ 311100Z 17008MPS 6000 NSC 21/09 Q1002 NOSIG
ZBSJ,2016-03-31 12:00,ZBSJ 311200Z 17008MPS 8000 NSC 20/09 Q1002 NOSIG
ZBSJ,2016-03-31 13:00,ZBSJ 311300Z 20005MPS CAVOK 19/09 Q1002 NOSIG
ZBSJ,2016-03-31 14:00,ZBSJ 311400Z 17004MPS CAVOK 17/09 Q1002 NOSIG
ZBSJ,2016-03-31 15:00,ZBSJ 311500Z 18004MPS CAVOK 17/09 Q1002 NOSIG
ZBSJ,2016-03-31 16:00,ZBSJ 311600Z 22002MPS CAVOK 16/09 Q1002 NOSIG
ZBSJ,2016-03-31 17:00,ZBSJ 311700Z 30002MPS 7000 NSC 14/08 Q1002 NOSIG
ZBSJ,2016-03-31 18:00,ZBSJ 311800Z 32003MPS 7000 NSC 13/09 Q1003 NOSIG
ZBSJ,2016-03-31 19:00,ZBSJ 311900Z 26002MPS 230V310 7000 NSC 15/09 Q1003 NOSIG
ZBSJ,2016-03-31 20:00,ZBSJ 312000Z 21003MPS 7000 NSC 15/09 Q1002 NOSIG
ZBSJ,2016-03-31 21:00,ZBSJ 312100Z 22003MPS 7000 NSC 16/09 Q1003 NOSIG
ZBSJ,2016-03-31 22:00,ZBSJ 312200Z 04003MPS 7000 NSC 14/10 Q1004 NOSIG
ZBSJ,2016-03-31 23:00,ZBSJ 312300Z 12002MPS 4000 BR SCT046 13/10 Q1005 NOSIG
ZBSJ,2016-04-01 00:00,ZBSJ 010000Z 13001MPS 3500 BR NSC 16/11 Q1006 NOSIG
ZBSJ,2016-04-01 01:00,ZBSJ 010100Z 14002MPS 090V170 4000 DU NSC 19/11 Q1007 NOSIG
ZBSJ,2016-04-01 02:00,ZBSJ 010200Z 17002MPS 130V210 4000 DU NSC 21/11 Q1007 NOSIG
ZBSJ,2016-04-01 03:00,ZBSJ 010300Z 14002MPS 6000 NSC 24/11 Q1007 NOSIG
ZBSJ,2016-04-01 04:00,ZBSJ 010400Z 09002MPS 050V150 6000 NSC 25/06 Q1007 NOSIG
ZBSJ,2016-04-01 05:00,ZBSJ 010500Z 07003MPS 040V130 CAVOK 26/04 Q1007 NOSIG
ZBSJ,2016-04-01 06:00,ZBSJ 010600Z 06003MPS 040V100 CAVOK 27/01 Q1006 NOSIG
ZBSJ,2016-04-01 07:00,ZBSJ 010700Z 12003MPS 060V170 CAVOK 27/01 Q1006 NOSIG
ZBSJ,2016-04-01 08:00,ZBSJ 010800Z 16004MPS 9999 SCT046 27/03 Q1007 NOSIG
ZBSJ,2016-04-01 09:00,ZBSJ 010900Z 17003MPS CAVOK 26/03 Q1007 NOSIG
ZBSJ,2016-04-01 10:00,ZBSJ 011000Z 14003MPS CAVOK 23/04 Q1008 NOSIG
ZBSJ,2016-04-01 11:00,ZBSJ 011100Z 16002MPS CAVOK 20/05 Q1009 NOSIG
ZBSJ,2016-04-01 12:00,ZBSJ 011200Z 06003MPS CAVOK 18/06 Q1010 NOSIG
ZBSJ,2016-04-01 13:00,ZBSJ 011300Z 07006MPS CAVOK 20/03 Q1011 NOSIG
ZBSJ,2016-04-01 14:00,ZBSJ 011400Z 06007MPS CAVOK 19/M01 Q1013 NOSIG
ZBSJ,2016-04-01 15:00,ZBSJ 011500Z 08004MPS CAVOK 17/M01 Q1013 NOSIG
ZBSJ,2016-04-01 16:00,ZBSJ 011600Z 07004MPS CAVOK 17/M01 Q1014 NOSIG
ZBSJ,2016-04-01 17:00,ZBSJ 011700Z 06005MPS CAVOK 17/M02 Q1015 NOSIG
ZBSJ,2016-04-01 18:00,ZBSJ 011800Z 04005MPS CAVOK 16/M01 Q1015 NOSIG
ZBSJ,2016-04-01 19:00,ZBSJ 011900Z 03005MPS CAVOK 15/M02 Q1015 NOSIG
ZBSJ,2016-04-01 19:30,ZBSJ 011930Z 05006MPS CAVOK 15/M02 Q1016 NOSIG
ZBSJ,2016-04-01 20:00,ZBSJ 012000Z 04005MPS CAVOK 14/M01 Q1017 NOSIG
ZBSJ,2016-04-01 20:30,ZBSJ 012030Z 05005MPS CAVOK 14/M02 Q1017 NOSIG
ZBSJ,2016-04-01 21:00,ZBSJ 012100Z 05006MPS CAVOK 13/M02 Q1017 NOSIG
ZBSJ,2016-04-01 21:30,ZBSJ 012130Z 05005MPS CAVOK 13/M02 Q1018 NOSIG
ZBSJ,2016-04-01 22:00,ZBSJ 012200Z 06005MPS 9999 OVC046 13/M01 Q1018 NOSIG
ZBSJ,2016-04-01 22:30,ZBSJ 012230Z 07006MPS 9999 BKN046 12/M00 Q1019 NOSIG
ZBSJ,2016-04-01 23:00,ZBSJ 012300Z 08006MPS 9999 SCT046 11/03 Q1019 NOSIG
ZBSJ,2016-04-01 23:30,ZBSJ 012330Z 06006MPS 9999 SCT046 11/04 Q1020 NOSIG
ZBSJ,2016-04-02 00:00,ZBSJ 020000Z 05005MPS 9999 SCT046 11/04 Q1021 NOSIG
ZBSJ,2016-04-02 00:30,ZBSJ 020030Z 07005MPS 9999 FEW046 12/04 Q1021 NOSIG
ZBSJ,2016-04-02 01:00,ZBSJ 020100Z 06004MPS 9999 SCT046 12/04 Q1022 NOSIG
ZBSJ,2016-04-02 01:30,ZBSJ 020130Z 07003MPS 030V110 CAVOK 13/04 Q1022 NOSIG
ZBSJ,2016-04-02 02:00,ZBSJ 020200Z 09003MPS 030V130 CAVOK 13/03 Q1022 NOSIG
ZBSJ,2016-04-02 02:30,ZBSJ 020230Z 07002MPS 020V190 CAVOK 14/04 Q1022 NOSIG
ZBSJ,2016-04-02 03:00,ZBSJ 020300Z 10003MPS 040V130 CAVOK 14/03 Q1022 NOSIG
ZBSJ,2016-04-02 03:30,ZBSJ 020330Z 10002MPS 050V140 CAVOK 15/04 Q1021 NOSIG
ZBSJ,2016-04-02 04:00,ZBSJ 020400Z 11003MPS 050V160 CAVOK 16/04 Q1021 NOSIG
ZBSJ,2016-04-02 04:30,ZBSJ 020430Z 13003MPS 070V190 CAVOK 16/04 Q1020 NOSIG
ZBSJ,2016-04-02 05:00,ZBSJ 020500Z 13004MPS 060V200 CAVOK 17/04 Q1020 NOSIG
ZBSJ,2016-04-02 05:30,ZBSJ 020530Z 14003MPS 090V190 CAVOK 18/04 Q1020 NOSIG
ZBSJ,2016-04-02 06:00,ZBSJ 020600Z 12002MPS CAVOK 18/03 Q1019 NOSIG
ZBSJ,2016-04-02 06:30,ZBSJ 020630Z 15003MPS 100V190 CAVOK 18/03 Q1019 NOSIG
ZBSJ,2016-04-02 07:00,ZBSJ 020700Z 15003MPS 110V220 CAVOK 18/04 Q1018 NOSIG
ZBSJ,2016-04-02 07:30,ZBSJ 020730Z 12002MPS 070V160 CAVOK 18/03 Q1018 NOSIG
ZBSJ,2016-04-02 08:00,ZBSJ 020800Z 17002MPS 130V200 CAVOK 18/02 Q1018 NOSIG
ZBSJ,2016-04-02 08:30,ZBSJ 020830Z 13002MPS 100V170 CAVOK 18/03 Q1018 NOSIG
ZBSJ,2016-04-02 09:00,ZBSJ 020900Z 11003MPS CAVOK 18/03 Q1018 NOSIG
ZBSJ,2016-04-02 09:30,ZBSJ 020930Z 09003MPS CAVOK 17/03 Q1018 NOSIG
ZBSJ,2016-04-02 10:00,ZBSJ 021000Z 10002MPS CAVOK 17/03 Q1019 NOSIG
ZBSJ,2016-04-02 10:30,ZBSJ 021030Z 12002MPS CAVOK 17/03 Q1019 NOSIG
ZBSJ,2016-04-02 11:00,ZBSJ 021100Z 13001MPS CAVOK 16/03 Q1019 NOSIG
ZBSJ,2016-04-02 11:30,ZBSJ 021130Z 16002MPS CAVOK 16/04 Q1020 NOSIG
ZBSJ,2016-04-02 12:00,ZBSJ 021200Z 16001MPS CAVOK 16/04 Q1021 NOSIG
ZBSJ,2016-04-02 12:30,ZBSJ 021230Z 00000MPS CAVOK 15/05 Q1021 NOSIG
ZBSJ,2016-04-02 13:00,ZBSJ 021300Z 19001MPS CAVOK 14/04 Q1021 NOSIG
ZBSJ,2016-04-02 13:30,ZBSJ 021330Z 35002MPS CAVOK 16/03 Q1022 NOSIG
ZBSJ,2016-04-02 14:00,ZBSJ 021400Z 04004G10MPS 350V100 9999 -RA OVC046 16/03 Q1022 NOSIG
ZBSJ,2016-04-02 15:00,ZBSJ 021500Z 35004MPS 320V050 9999 -RA OVC046 13/05 Q1024 NOSIG
ZBSJ,2016-04-02 16:00,ZBSJ 021600Z 09001MPS 9999 -RA OVC046 12/06 Q1024 NOSIG
ZBSJ,2016-04-02 17:00,ZBSJ 021700Z 08002MPS 9999 -RA OVC046 11/06 Q1024 NOSIG
ZBSJ,2016-04-02 18:00,ZBSJ 021800Z 28003MPS 9999 RA OVC040 10/07 Q1025 NOSIG
ZBSJ,2016-04-02 19:00,ZBSJ 021900Z 14001MPS 9999 -RA OVC040 09/07 Q1025 RERA NOSIG
ZBSJ,2016-04-02 20:00,ZBSJ 022000Z 26003MPS 9999 -RA OVC040 09/06 Q1025 NOSIG
ZBSJ,2016-04-02 21:00,ZBSJ 022100Z 21004MPS 9999 -RA OVC046 08/07 Q1025 NOSIG
ZBSJ,2016-04-02 22:00,ZBSJ 022200Z 32003MPS 9999 FEW046 08/06 Q1025 NOSIG
ZBSJ,2016-04-02 23:00,ZBSJ 022300Z 29003MPS CAVOK 09/06 Q1026 NOSIG
ZBSJ,2016-04-03 00:00,ZBSJ 030000Z 29003MPS CAVOK 10/06 Q1026 NOSIG
ZBSJ,2016-04-03 01:00,ZBSJ 030100Z 31003MPS CAVOK 11/06 Q1026 NOSIG
ZBSJ,2016-04-03 02:00,ZBSJ 030200Z 30004MPS CAVOK 12/05 Q1026 NOSIG
ZBSJ,2016-04-03 03:00,ZBSJ 030300Z 27003MPS 240V300 CAVOK 14/05 Q1025 NOSIG
ZBSJ,2016-04-03 04:00,ZBSJ 030400Z 26004MPS 230V290 CAVOK 14/03 Q1024 NOSIG
ZBSJ,2016-04-03 05:00,ZBSJ 030500Z VRB03MPS CAVOK 15/M01 Q1023 NOSIG
ZBSJ,2016-04-03 06:00,ZBSJ 030600Z 19003MPS 140V220 CAVOK 16/02 Q1021 NOSIG
ZBSJ,2016-04-03 07:00,ZBSJ 030700Z 18003MPS 130V220 CAVOK 16/M00 Q1020 NOSIG
ZBSJ,2016-04-03 08:00,ZBSJ 030800Z 17004MPS 130V200 CAVOK 17/M00 Q1019 NOSIG
ZBSJ,2016-04-03 09:00,ZBSJ 030900Z 18005MPS CAVOK 16/00 Q1018 NOSIG
ZBSJ,2016-04-03 10:00,ZBSJ 031000Z 17004MPS CAVOK 15/03 Q1018 NOSIG
ZBSJ,2016-04-03 11:00,ZBSJ 031100Z 17003MPS CAVOK 12/03 Q1018 NOSIG
ZBSJ,2016-04-03 12:00,ZBSJ 031200Z 17003MPS CAVOK 10/03 Q1018 NOSIG
ZBSJ,2016-04-03 13:00,ZBSJ 031300Z 16002MPS CAVOK 10/03 Q1018 NOSIG
ZBSJ,2016-04-03 14:00,ZBSJ 031400Z 16003MPS CAVOK 09/04 Q1018 NOSIG
ZBSJ,2016-04-03 15:00,ZBSJ 031500Z 17003MPS CAVOK 08/04 Q1017 NOSIG
ZBSJ,2016-04-03 16:00,ZBSJ 031600Z 17003MPS CAVOK 08/03 Q1017 NOSIG
ZBSJ,2016-04-03 17:00,ZBSJ 031700Z 19003MPS CAVOK 10/04 Q1016 NOSIG
ZBSJ,2016-04-03 18:00,ZBSJ 031800Z 30001MPS CAVOK 08/03 Q1016 NOSIG
ZBSJ,2016-04-03 19:00,ZBSJ 031900Z 00000MPS CAVOK 07/03 Q1015 NOSIG
ZBSJ,2016-04-03 20:00,ZBSJ 032000Z 29001MPS CAVOK 07/03 Q1015 NOSIG
ZBSJ,2016-04-03 21:00,ZBSJ 032100Z 21002MPS 5000 BR NSC 06/03 Q1015 NOSIG
ZBSJ,2016-04-03 22:00,ZBSJ 032200Z 17001MPS 4500 BR NSC 05/04 Q1015 NOSIG
ZBSJ,2016-04-03 23:00,ZBSJ 032300Z 21001MPS 4500 BR NSC 07/04 Q1015 NOSIG
ZBSJ,2016-04-04 00:00,ZBSJ 040000Z 24002MPS 4500 HZ NSC 10/04 Q1015 NOSIG
ZBSJ,2016-04-04 01:00,ZBSJ 040100Z 23001MPS 6000 NSC 14/04 Q1015 NOSIG
ZBSJ,2016-04-04 02:00,ZBSJ 040200Z 19002MPS 6000 NSC 15/06 Q1015 NOSIG
ZBSJ,2016-04-04 03:00,ZBSJ 040300Z 22002MPS 150V300 6000 NSC 17/06 Q1014 NOSIG
ZBSJ,2016-04-04 04:00,ZBSJ 040400Z 22003MPS 190V290 7000 NSC 18/06 Q1013 NOSIG
ZBSJ,2016-04-04 05:00,ZBSJ 040500Z 19003MPS 150V220 7000 NSC 20/05 Q1012 NOSIG
ZBSJ,2016-04-04 06:00,ZBSJ 040600Z 17003MPS 110V200 8000 NSC 21/05 Q1011 NOSIG
ZBSJ,2016-04-04 07:00,ZBSJ 040700Z 18003MPS 8000 NSC 21/07 Q1010 NOSIG
ZBSJ,2016-04-04 08:00,ZBSJ 040800Z 17005MPS 8000 NSC 20/08 Q1010 NOSIG
ZBSJ,2016-04-04 09:00,ZBSJ 040900Z 18005MPS 8000 NSC 20/08 Q1010 NOSIG
ZBSJ,2016-04-04 10:00,ZBSJ 041000Z 17004MPS 8000 NSC 18/08 Q1010 NOSIG
ZBSJ,2016-04-04 11:00,ZBSJ 041100Z 18003MPS 5000 HZ NSC 16/08 Q1010 NOSIG
ZBSJ,2016-04-04 12:00,ZBSJ 041200Z 18004MPS 7000 NSC 15/07 Q1011 NOSIG
ZBSJ,2016-04-04 13:00,ZBSJ 041300Z 17003MPS 7000 NSC 12/06 Q1012 NOSIG
ZBSJ,2016-04-04 14:00,ZBSJ 041400Z 16003MPS 7000 NSC 11/06 Q1012 NOSIG
ZBSJ,2016-04-04 15:00,ZBSJ 041500Z 17003MPS 6000 NSC 11/07 Q1012 NOSIG
ZBSJ,2016-04-04 16:00,ZBSJ 041600Z 17002MPS 6000 NSC 09/06 Q1012 NOSIG
ZBSJ,2016-04-04 17:00,ZBSJ 041700Z 14001MPS 6000 NSC 09/05 Q1012 NOSIG
ZBSJ,2016-04-04 18:00,ZBSJ 041800Z 17002MPS 6000 NSC 08/05 Q1012 NOSIG
ZBSJ,2016-04-04 19:00,ZBSJ 041900Z 15001MPS 6000 NSC 08/05 Q1012 NOSIG
ZBSJ,2016-04-04 20:00,ZBSJ 042000Z 23001MPS 6000 NSC 07/04 Q1012 NOSIG
ZBSJ,2016-04-04 21:00,ZBSJ 042100Z 28001MPS 6000 NSC 09/06 Q1012 NOSIG
ZBSJ,2016-04-04 22:00,ZBSJ 042200Z 31001MPS 2200 BR NSC 07/05 Q1013 NOSIG
ZBSJ,2016-04-04 23:00,ZBSJ 042300Z 16001MPS 2200 BR NSC 08/07 Q1013 NOSIG
ZBSJ,2016-04-05 00:00,ZBSJ 050000Z 22001MPS 2500 BR NSC 11/07 Q1014 BECMG TL0100 3500
ZBSJ,2016-04-05 01:00,ZBSJ 050100Z 26002MPS 230V310 4000 HZ NSC 16/06 Q1014 NOSIG
ZBSJ,2016-04-05 02:00,ZBSJ 050200Z 20002MPS 160V240 3500 HZ NSC 19/09 Q1014 BECMG TL0300 2800 HZ
ZBSJ,2016-04-05 03:00,ZBSJ 050300Z 17002MPS 100V200 2800 HZ NSC 21/10 Q1013 BECMG TL0400 3500
ZBSJ,2016-04-05 04:00,ZBSJ 050400Z 17004MPS 4000 HZ NSC 23/09 Q1012 NOSIG
ZBSJ,2016-04-05 05:00,ZBSJ 050500Z 16005MPS 5000 HZ NSC 24/10 Q1012 NOSIG
ZBSJ,2016-04-05 06:00,ZBSJ 050600Z 15006MPS 8000 NSC 25/07 Q1010 NOSIG
ZBSJ,2016-04-05 07:00,ZBSJ 050700Z 17006MPS CAVOK 25/07 Q1009 NOSIG
ZBSJ,2016-04-05 08:00,ZBSJ 050800Z 17007MPS CAVOK 23/07 Q1009 NOSIG
ZBSJ,2016-04-05 09:00,ZBSJ 050900Z 17007MPS CAVOK 22/07 Q1008 NOSIG
ZBSJ,2016-04-05 10:00,ZBSJ 051000Z 16006MPS CAVOK 21/07 Q1009 NOSIG
ZBSJ,2016-04-05 11:00,ZBSJ 051100Z 17005MPS 6000 NSC 19/09 Q1009 NOSIG
ZBSJ,2016-04-05 12:00,ZBSJ 051200Z 17005MPS 6000 NSC 18/10 Q1010 NOSIG
ZBSJ,2016-04-05 13:00,ZBSJ 051300Z 18005MPS 6000 NSC 17/09 Q1010 NOSIG
ZBSJ,2016-04-05 14:00,ZBSJ 051400Z 17004MPS 5000 HZ NSC 16/10 Q1011 NOSIG
ZBSJ,2016-04-05 15:00,ZBSJ 051500Z 15003MPS 4000 HZ NSC 14/10 Q1011 NOSIG
ZBSJ,2016-04-05 16:00,ZBSJ 051600Z 16003MPS 3500 HZ NSC 13/10 Q1011 NOSIG
ZBSJ,2016-04-05 17:00,ZBSJ 051700Z 06002MPS 3500 HZ NSC 15/11 Q1011 NOSIG
ZBSJ,2016-04-05 18:00,ZBSJ 051800Z 10002MPS 2700 HZ NSC 13/11 Q1011 NOSIG
ZBSJ,2016-04-05 19:00,ZBSJ 051900Z 09002MPS 3000 BR NSC 13/11 Q1010 NOSIG
ZBSJ,2016-04-05 20:00,ZBSJ 052000Z 05003MPS 3000 BR NSC 12/11 Q1010 NOSIG
ZBSJ,2016-04-05 21:00,ZBSJ 052100Z 05004MPS 3500 BR NSC 12/08 Q1011 NOSIG
ZBSJ,2016-04-05 22:00,ZBSJ 052200Z 04003MPS 3500 BR NSC 12/08 Q1011 NOSIG
ZBSJ,2016-04-05 23:00,ZBSJ 052300Z 04003MPS 3000 HZ NSC 12/07 Q1011 BECMG TL0040 2000 HZ
ZBSJ,2016-04-06 00:00,ZBSJ 060000Z 04001MPS 3000 HZ NSC 12/07 Q1012 BECMG TL0040 2000 HZ
ZBSJ,2016-04-06 01:00,ZBSJ 060100Z 08002MPS 2900 HZ NSC 13/07 Q1012 BECMG TL0220 3200
ZBSJ,2016-04-06 02:00,ZBSJ 060200Z 09001MPS 2700 HZ NSC 15/09 Q1011 BECMG TL0320 3200
ZBSJ,2016-04-06 03:00,ZBSJ 060300Z 15002MPS 2000 HZ NSC 16/11 Q1011 NOSIG
ZBSJ,2016-04-06 04:00,ZBSJ 060400Z 17002MPS 1800 HZ NSC 17/11 Q1009 NOSIG
ZBSJ,2016-04-06 05:00,ZBSJ 060500Z 11002MPS 1800 HZ NSC 17/12 Q1008 NOSIG
ZBSJ,2016-04-06 06:00,ZBSJ 060600Z 14002MPS 090V170 1300 R15/1100N HZ NSC 18/12 Q1007 NOSIG
ZBSJ,2016-04-06 07:00,ZBSJ 060700Z 15004MPS 1300 R15/1300N HZ NSC 19/13 Q1005 BECMG TL0830 1500
ZBSJ,2016-04-06 08:00,ZBSJ 060800Z 18005MPS 1500 R15/1400N HZ NSC 20/13 Q1004 BECMG TL0940 1300 HZ
ZBSJ,2016-04-06 09:00,ZBSJ 060900Z 17004MPS 1500 HZ NSC 19/13 Q1004 BECMG TL1020 1300 HZ
ZBSJ,2016-04-06 10:00,ZBSJ 061000Z 14002MPS 1400 R15/1700U HZ NSC 18/14 Q1004 BECMG TL1040 1600
ZBSJ,2016-04-06 11:00,ZBSJ 061100Z 13002MPS 1800 BR NSC 17/13 Q1004 BECMG TL1240 3000
ZBSJ,2016-04-06 12:00,ZBSJ 061200Z 04002MPS 2700 BR NSC 16/14 Q1006 BECMG TL1300 3000
ZBSJ,2016-04-06 13:00,ZBSJ 061300Z 13004MPS 3000 BR NSC 17/14 Q1006 NOSIG
ZBSJ,2016-04-06 14:00,ZBSJ 061400Z 05002MPS 3000 BR NSC 15/13 Q1007 NOSIG
ZBSJ,2016-04-06 15:00,ZBSJ 061500Z 02001MPS 3000 BR NSC 14/13 Q1008 NOSIG
ZBSJ,2016-04-06 16:00,ZBSJ 061600Z 02001MPS 2500 BR NSC 13/12 Q1008 NOSIG
ZBSJ,2016-04-06 17:00,ZBSJ 061700Z 26002MPS 2200 BR NSC 13/12 Q1008 NOSIG
ZBSJ,2016-04-06 18:00,ZBSJ 061800Z 30002MPS 1400 R15/1600D BR NSC 12/11 Q1008 NOSIG
ZBSJ,2016-04-06 19:00,ZBSJ 061900Z 25001MPS 1500 BR NSC 13/12 Q1009 NOSIG
ZBSJ,2016-04-06 20:00,ZBSJ 062000Z 30001MPS 1500 BR NSC 11/10 Q1010 NOSIG
ZBSJ,2016-04-06 21:00,ZBSJ 062100Z 32002MPS 1500 BR NSC 11/10 Q1010 NOSIG
ZBSJ,2016-04-06 22:00,ZBSJ 062200Z 30002MPS 1400 R33/1600N BR NSC 11/09 Q1010 NOSIG
ZBSJ,2016-04-06 23:00,ZBSJ 062300Z 28002MPS 1000 R33/1200N BR NSC 12/10 Q1011 BECMG TL0040 1500
ZBSJ,2016-04-07 00:00,ZBSJ 070000Z 28002MPS 1400 R33/1000V1600D HZ NSC 15/09 Q1012 BECMG TL0100 1500
ZBSJ,2016-04-07 01:00,ZBSJ 070100Z 27003MPS 2800 HZ NSC 19/08 Q1012 BECMG TL0200 3000
ZBSJ,2016-04-07 02:00,ZBSJ 070200Z 29002MPS 260V350 8000 NSC 22/04 Q1013 NOSIG
ZBSJ,2016-04-07 03:00,ZBSJ 070300Z VRB02MPS CAVOK 24/03 Q1013 NOSIG
ZBSJ,2016-04-07 04:00,ZBSJ 070400Z 03002MPS CAVOK 25/M01 Q1012 NOSIG
ZBSJ,2016-04-07 05:00,ZBSJ 070500Z 28002MPS CAVOK 26/M02 Q1012 NOSIG
ZBSJ,2016-04-07 06:00,ZBSJ 070600Z 16004MPS 120V200 CAVOK 26/M01 Q1011 NOSIG
ZBSJ,2016-04-07 07:00,ZBSJ 070700Z 13004MPS 100V160 CAVOK 25/M01 Q1010 NOSIG
ZBSJ,2016-04-07 08:00,ZBSJ 070800Z 13004MPS CAVOK 25/02 Q1009 NOSIG
ZBSJ,2016-04-07 09:00,ZBSJ 070900Z 15003MPS CAVOK 25/01 Q1009 NOSIG
ZBSJ,2016-04-07 10:00,ZBSJ 071000Z 18003MPS CAVOK 22/04 Q1010 NOSIG
ZBSJ,2016-04-07 11:00,ZBSJ 071100Z 17003MPS CAVOK 19/04 Q1010 NOSIG
ZBSJ,2016-04-07 12:00,ZBSJ 071200Z 15002MPS CAVOK 17/04 Q1011 NOSIG
ZBSJ,2016-04-07 13:00,ZBSJ 071300Z 15002MPS CAVOK 17/03 Q1012 NOSIG
ZBSJ,2016-04-07 14:00,ZBSJ 071400Z 08002MPS CAVOK 17/04 Q1013 NOSIG
ZBSJ,2016-04-07 15:00,ZBSJ 071500Z 06003MPS 7000 NSC 15/05 Q1014 NOSIG
ZBSJ,2016-04-07 16:00,ZBSJ 071600Z 05002MPS 7000 NSC 14/05 Q1014 NOSIG
ZBSJ,2016-04-07 17:00,ZBSJ 071700Z 04003MPS 7000 NSC 14/05 Q1015 NOSIG
ZBSJ,2016-04-07 18:00,ZBSJ 071800Z 05005MPS CAVOK 16/M02 Q1016 NOSIG
ZBSJ,2016-04-07 19:00,ZBSJ 071900Z 02004MPS CAVOK 15/M05 Q1016 NOSIG
ZBSJ,2016-04-07 20:00,ZBSJ 072000Z 02003MPS CAVOK 13/M05 Q1017 NOSIG
ZBSJ,2016-04-07 21:00,ZBSJ 072100Z 04002MPS CAVOK 12/M04 Q1017 NOSIG
ZBSJ,2016-04-07 22:00,ZBSJ 072200Z 05002MPS CAVOK 10/M05 Q1018 NOSIG
ZBSJ,2016-04-07 23:00,ZBSJ 072300Z 36002MPS CAVOK 11/M03 Q1019 NOSIG
ZBSJ,2016-04-08 00:00,ZBSJ 080000Z 12001MPS CAVOK 16/M10 Q1020 NOSIG
ZBSJ,2016-04-08 01:00,ZBSJ 080100Z 16002MPS 120V210 CAVOK 17/M09 Q1020 NOSIG
ZBSJ,2016-04-08 02:00,ZBSJ 080200Z 20002MPS 150V250 CAVOK 18/M08 Q1019 NOSIG
ZBSJ,2016-04-08 03:00,ZBSJ 080300Z 18002MPS CAVOK 20/M08 Q1019 NOSIG
ZBSJ,2016-04-08 04:00,ZBSJ 080400Z 18003MPS 140V280 CAVOK 20/M07 Q1017 NOSIG
ZBSJ,2016-04-08 05:00,ZBSJ 080500Z 22002MPS 160V250 CAVOK 22/M06 Q1016 NOSIG
ZBSJ,2016-04-08 06:00,ZBSJ 080600Z 18004MPS 150V230 CAVOK 24/M03 Q1015 NOSIG
ZBSJ,2016-04-08 07:00,ZBSJ 080700Z 18005MPS 9999 FEW046 23/M01 Q1013 NOSIG
ZBSJ,2016-04-08 08:00,ZBSJ 080800Z 18005MPS 9999 FEW046 22/00 Q1012 NOSIG
ZBSJ,2016-04-08 09:00,ZBSJ 080900Z 17005MPS 9999 FEW046 21/04 Q1012 NOSIG
ZBSJ,2016-04-08 10:00,ZBSJ 081000Z 17005MPS 9999 FEW046 19/04 Q1011 NOSIG
ZBSJ,2016-04-08 11:00,ZBSJ 081100Z 18004MPS 9999 FEW046 17/03 Q1011 NOSIG
ZBSJ,2016-04-08 12:00,ZBSJ 081200Z 18004MPS 9999 FEW046 17/01 Q1011 NOSIG
ZBSJ,2016-04-08 13:00,ZBSJ 081300Z 15003MPS 9999 FEW046 14/02 Q1012 NOSIG
ZBSJ,2016-04-08 14:00,ZBSJ 081400Z 26001MPS 9999 FEW046 14/03 Q1012 NOSIG
ZBSJ,2016-04-08 15:00,ZBSJ 081500Z 15001MPS CAVOK 12/04 Q1012 NOSIG
ZBSJ,2016-04-08 16:00,ZBSJ 081600Z 19002MPS CAVOK 11/03 Q1012 NOSIG
ZBSJ,2016-04-08 17:00,ZBSJ 081700Z 24002MPS 7000 NSC 12/04 Q1012 NOSIG
ZBSJ,2016-04-08 18:00,ZBSJ 081800Z 32001MPS 7000 NSC 10/04 Q1012 NOSIG
ZBSJ,2016-04-08 19:00,ZBSJ 081900Z 36002MPS 7000 NSC 11/02 Q1011 NOSIG
ZBSJ,2016-04-08 20:00,ZBSJ 082000Z 31001MPS 7000 NSC 09/02 Q1011 NOSIG
ZBSJ,2016-04-08 21:00,ZBSJ 082100Z 29003MPS 7000 NSC 08/M01 Q1010 NOSIG
ZBSJ,2016-04-08 22:00,ZBSJ 082200Z 29004MPS CAVOK 11/M01 Q1010 NOSIG
ZBSJ,2016-04-08 23:00,ZBSJ 082300Z 30001MPS CAVOK 11/02 Q1010 NOSIG
ZBSJ,2016-04-09 00:00,ZBSJ 090000Z 29003MPS CAVOK 17/M01 Q1011 NOSIG
ZBSJ,2016-04-09 01:00,ZBSJ 090100Z 29004MPS CAVOK 20/M01 Q1011 NOSIG
ZBSJ,2016-04-09 02:00,ZBSJ 090200Z 29004MPS CAVOK 24/M00 Q1011 NOSIG
ZBSJ,2016-04-09 03:00,ZBSJ 090300Z 28004MPS 250V310 CAVOK 26/M02 Q1010 NOSIG
ZBSJ,2016-04-09 04:00,ZBSJ 090400Z 23003MPS 190V280 CAVOK 28/M04 Q1009 NOSIG
ZBSJ,2016-04-09 05:00,ZBSJ 090500Z 17003MPS 140V220 CAVOK 29/M03 Q1008 NOSIG
ZBSJ,2016-04-09 06:00,ZBSJ 090600Z 18004MPS 150V230 CAVOK 29/M07 Q1007 NOSIG
ZBSJ,2016-04-09 07:00,ZBSJ 090700Z 16004MPS CAVOK 28/01 Q1007 NOSIG
ZBSJ,2016-04-09 08:00,ZBSJ 090800Z 14004MPS CAVOK 28/M03 Q1006 NOSIG
ZBSJ,2016-04-09 09:00,ZBSJ 090900Z 18005MPS CAVOK 26/04 Q1006 NOSIG
ZBSJ,2016-04-09 10:00,ZBSJ 091000Z 17003MPS CAVOK 22/06 Q1006 NOSIG
ZBSJ,2016-04-09 11:00,ZBSJ 091100Z 17002MPS CAVOK 20/06 Q1006 NOSIG
ZBSJ,2016-04-09 12:00,ZBSJ 091200Z 12001MPS CAVOK 18/06 Q1007 NOSIG
ZBSJ,2016-04-09 13:00,ZBSJ 091300Z 05005MPS CAVOK 16/08 Q1010 NOSIG
ZBSJ,2016-04-09 14:00,ZBSJ 091400Z 06007MPS CAVOK 12/04 Q1011 NOSIG
ZBSJ,2016-04-09 15:00,ZBSJ 091500Z 08007MPS CAVOK 11/02 Q1011 NOSIG
ZBSJ,2016-04-09 16:00,ZBSJ 091600Z 05005MPS CAVOK 10/01 Q1013 NOSIG
ZBSJ,2016-04-09 17:00,ZBSJ 091700Z 04005MPS CAVOK 09/00 Q1014 NOSIG
ZBSJ,2016-04-09 18:00,ZBSJ 091800Z 04003MPS CAVOK 08/M01 Q1014 NOSIG
ZBSJ,2016-04-09 19:00,ZBSJ 091900Z 04003MPS CAVOK 08/M02 Q1015 NOSIG
ZBSJ,2016-04-09 20:00,ZBSJ 092000Z 01002MPS CAVOK 08/M03 Q1015 NOSIG
ZBSJ,2016-04-09 21:00,ZBSJ 092100Z 34002MPS CAVOK 05/M03 Q1016 NOSIG
ZBSJ,2016-04-09 22:00,ZBSJ 092200Z 01002MPS CAVOK 06/M02 Q1016 NOSIG
ZBSJ,2016-04-09 23:00,ZBSJ 092300Z 01002MPS CAVOK 08/M02 Q1017 NOSIG
ZBSJ,2016-04-10 00:00,ZBSJ 100000Z 02003MPS 350V060 CAVOK 10/M03 Q1018 NOSIG
ZBSJ,2016-04-10 01:00,ZBSJ 100100Z 03003MPS 360V060 CAVOK 12/M04 Q1018 NOSIG
ZBSJ,2016-04-10 02:00,ZBSJ 100200Z 04003MPS 360V080 CAVOK 13/M06 Q1018 NOSIG
ZBSJ,2016-04-10 03:00,ZBSJ 100300Z 07003MPS 010V110 CAVOK 14/M05 Q1018 NOSIG
ZBSJ,2016-04-10 04:00,ZBSJ 100400Z 07003MPS 020V120 CAVOK 15/M03 Q1017 NOSIG
ZBSJ,2016-04-10 05:00,ZBSJ 100500Z 08002MPS CAVOK 17/M02 Q1017 NOSIG
ZBSJ,2016-04-10 06:00,ZBSJ 100600Z 09003MPS 060V120 CAVOK 17/M02 Q1016 NOSIG
ZBSJ,2016-04-10 07:00,ZBSJ 100700Z 11003MPS 070V150 CAVOK 18/M01 Q1016 NOSIG
ZBSJ,2016-04-10 08:00,ZBSJ 100800Z 11004MPS CAVOK 18/M01 Q1016 NOSIG
ZBSJ,2016-04-10 09:00,ZBSJ 100900Z 09003MPS CAVOK 18/01 Q1016 NOSIG
ZBSJ,2016-04-10 10:00,ZBSJ 101000Z 07002MPS CAVOK 16/01 Q1016 NOSIG
ZBSJ,2016-04-10 11:00,ZBSJ 101100Z 09004MPS CAVOK 14/M01 Q1017 NOSIG
ZBSJ,2016-04-10 12:00,ZBSJ 101200Z 10003MPS CAVOK 13/M02 Q1019 NOSIG
ZBSJ,2016-04-10 13:00,ZBSJ 101300Z 12005MPS CAVOK 11/M05 Q1020 NOSIG
ZBSJ,2016-04-10 14:00,ZBSJ 101400Z 10003MPS 070V130 CAVOK 09/M04 Q1021 NOSIG
ZBSJ,2016-04-10 15:00,ZBSJ 101500Z 05002MPS CAVOK 07/M04 Q1022 NOSIG
ZBSJ,2016-04-10 16:00,ZBSJ 101600Z 04002MPS CAVOK 07/M04 Q1022 NOSIG
ZBSJ,2016-04-10 17:00,ZBSJ 101700Z 01002MPS CAVOK 06/M04 Q1022 NOSIG
ZBSJ,2016-04-10 18:00,ZBSJ 101800Z 02002MPS CAVOK 06/M04 Q1022 NOSIG
ZBSJ,2016-04-10 19:00,ZBSJ 101900Z 03002MPS CAVOK 05/M04 Q1022 NOSIG
ZBSJ,2016-04-10 20:00,ZBSJ 102000Z 03001MPS CAVOK 05/M03 Q1022 NOSIG
ZBSJ,2016-04-10 21:00,ZBSJ 102100Z 01001MPS CAVOK 04/M04 Q1022 NOSIG
ZBSJ,2016-04-10 22:00,ZBSJ 102200Z 02001MPS CAVOK 04/M03 Q1021 NOSIG
ZBSJ,2016-04-10 23:00,ZBSJ 102300Z 04001MPS CAVOK 06/M02 Q1022 NOSIG
ZBSJ,2016-04-11 00:00,ZBSJ 110000Z 06003MPS CAVOK 09/M01 Q1022 NOSIG
ZBSJ,2016-04-11 01:00,ZBSJ 110100Z 07004MPS CAVOK 10/M02 Q1021 NOSIG
ZBSJ,2016-04-11 02:00,ZBSJ 110200Z 05003MPS 020V080 CAVOK 11/M02 Q1021 NOSIG
ZBSJ,2016-04-11 03:00,ZBSJ 110300Z 06002MPS 350V110 CAVOK 12/M04 Q1020 NOSIG
ZBSJ,2016-04-11 04:00,ZBSJ 110400Z 08002MPS CAVOK 13/M03 Q1018 NOSIG
ZBSJ,2016-04-11 05:00,ZBSJ 110500Z 06002MPS 330V120 CAVOK 14/M03 Q1017 NOSIG
ZBSJ,2016-04-11 06:00,ZBSJ 110600Z 11002MPS 060V150 CAVOK 15/M02 Q1015 NOSIG
ZBSJ,2016-04-11 07:00,ZBSJ 110700Z 14003MPS 100V180 CAVOK 15/M02 Q1014 NOSIG
ZBSJ,2016-04-11 08:00,ZBSJ 110800Z 15004MPS CAVOK 16/M01 Q1012 NOSIG
ZBSJ,2016-04-11 09:00,ZBSJ 110900Z 13002MPS 090V160 CAVOK 15/M00 Q1011 NOSIG
ZBSJ,2016-04-11 10:00,ZBSJ 111000Z 09002MPS CAVOK 14/01 Q1010 NOSIG
ZBSJ,2016-04-11 11:00,ZBSJ 111100Z 06002MPS CAVOK 13/01 Q1011 NOSIG
ZBSJ,2016-04-11 12:00,ZBSJ 111200Z 16002MPS CAVOK 12/01 Q1011 NOSIG
ZBSJ,2016-04-11 13:00,ZBSJ 111300Z 00000MPS CAVOK 11/01 Q1011 NOSIG
ZBSJ,2016-04-11 14:00,ZBSJ 111400Z 06002MPS CAVOK 10/03 Q1011 NOSIG
ZBSJ,2016-04-11 15:00,ZBSJ 111500Z 05002MPS 8000 NSC 11/04 Q1011 NOSIG
ZBSJ,2016-04-11 16:00,ZBSJ 111600Z 04002MPS 7000 NSC 11/04 Q1011 NOSIG
ZBSJ,2016-04-11 17:00,ZBSJ 111700Z 10001MPS 7000 -SHRA BKN046 11/04 Q1011 NOSIG
ZBSJ,2016-04-11 18:00,ZBSJ 111800Z 21002MPS 6000 -SHRA BKN046 09/06 Q1010 NOSIG
ZBSJ,2016-04-11 19:00,ZBSJ 111900Z 33003MPS 6000 -SHRA BKN046 08/06 Q1010 NOSIG
ZBSJ,2016-04-11 20:00,ZBSJ 112000Z 33002MPS 5000 BR BKN046 07/06 Q1009 NOSIG
ZBSJ,2016-04-11 21:00,ZBSJ 112100Z 00000MPS 4500 BR NSC 07/06 Q1008 NOSIG
ZBSJ,2016-04-11 22:00,ZBSJ 112200Z 13001MPS 2500 BR NSC 06/05 Q1007 NOSIG
ZBSJ,2016-04-11 23:00,ZBSJ 112300Z 17002MPS 2500 BR NSC 08/07 Q1007 BECMG TL0030 3500
ZBSJ,2016-04-12 00:00,ZBSJ 120000Z 18001MPS 4000 BR NSC 11/06 Q1008 NOSIG
ZBSJ,2016-04-12 01:00,ZBSJ 120100Z 04001MPS 6000 NSC 12/06 Q1008 NOSIG
ZBSJ,2016-04-12 02:00,ZBSJ 120200Z 02001MPS 4500 HZ NSC 12/06 Q1008 NOSIG
ZBSJ,2016-04-12 03:00,ZBSJ 120300Z 07002MPS 030V120 4000 HZ NSC 13/07 Q1007 NOSIG
ZBSJ,2016-04-12 04:00,ZBSJ 120400Z 08002MPS 030V130 5000 HZ NSC 14/07 Q1007 NOSIG
ZBSJ,2016-04-12 05:00,ZBSJ 120500Z 10003MPS 070V150 5000 HZ NSC 15/08 Q1007 NOSIG
ZBSJ,2016-04-12 06:00,ZBSJ 120600Z 09003MPS 060V130 5000 HZ NSC 15/08 Q1006 NOSIG
ZBSJ,2016-04-12 07:00,ZBSJ 120700Z 12003MPS 080V160 6000 NSC 16/08 Q1006 NOSIG
ZBSJ,2016-04-12 08:00,ZBSJ 120800Z 11003MPS 080V140 5000 HZ NSC 17/08 Q1005 NOSIG
ZBSJ,2016-04-12 09:00,ZBSJ 120900Z 14003MPS 5000 HZ NSC 17/08 Q1005 NOSIG
ZBSJ,2016-04-12 10:00,ZBSJ 121000Z 13001MPS 4500 HZ NSC 16/08 Q1005 NOSIG
ZBSJ,2016-04-12 11:00,ZBSJ 121100Z 16001MPS 4000 HZ NSC 14/08 Q1006 NOSIG
ZBSJ,2016-04-12 12:00,ZBSJ 121200Z 00000MPS 5000 BR NSC 12/08 Q1007 NOSIG
ZBSJ,2016-04-12 13:00,ZBSJ 121300Z 07001MPS 4000 BR NSC 11/08 Q1008 NOSIG
ZBSJ,2016-04-12 14:00,ZBSJ 121400Z 21001MPS 4000 BR NSC 10/08 Q1008 NOSIG
ZBSJ,2016-04-12 15:00,ZBSJ 121500Z 19001MPS 3500 BR NSC 10/08 Q1007 NOSIG
ZBSJ,2016-04-12 16:00,ZBSJ 121600Z 00000MPS 3000 BR NSC 10/08 Q1007 NOSIG
ZBSJ,2016-04-12 17:00,ZBSJ 121700Z 34002MPS 3000 BR NSC 09/07 Q1007 NOSIG
ZBSJ,2016-04-12 18:00,ZBSJ 121800Z 31001MPS 2500 BR NSC 09/07 Q1006 NOSIG
ZBSJ,2016-04-12 19:00,ZBSJ 121900Z 25001MPS 2100 BR NSC 09/07 Q1006 NOSIG
ZBSJ,2016-04-12 20:00,ZBSJ 122000Z 24002MPS 2100 BR NSC 08/07 Q1005 NOSIG
ZBSJ,2016-04-12 21:00,ZBSJ 122100Z 00000MPS 1800 BR NSC 09/07 Q1005 NOSIG
ZBSJ,2016-04-12 22:00,ZBSJ 122200Z 32001MPS 1400 R15/1100N BR NSC 07/06 Q1005 BECMG TL2330 1600
ZBSJ,2016-04-12 23:00,ZBSJ 122300Z 25001MPS 1100 R15/0800V1000D BR NSC 08/08 Q1005 BECMG TL0030 1600
ZBSJ,2016-04-13 00:00,ZBSJ 130000Z 33002MPS 300V360 1400 R15/1100N BR NSC 12/10 Q1005 BECMG TL0130 1600
ZBSJ,2016-04-13 01:00,ZBSJ 130100Z 31002MPS 1500 R33/1200N HZ NSC 15/10 Q1005 NOSIG
ZBSJ,2016-04-13 02:00,ZBSJ 130200Z 25001MPS 1600 HZ NSC 18/11 Q1004 NOSIG
ZBSJ,2016-04-13 03:00,ZBSJ 130300Z 22003MPS 200V270 2900 HZ NSC 23/11 Q1004 BECMG TL0340 3500
ZBSJ,2016-04-13 04:00,ZBSJ 130400Z 25005MPS 220V290 CAVOK 27/02 Q1003 NOSIG
ZBSJ,2016-04-13 05:00,ZBSJ 130500Z 27004MPS 220V310 CAVOK 28/M01 Q1002 NOSIG
ZBSJ,2016-04-13 06:00,ZBSJ 130600Z 19002MPS 130V240 CAVOK 29/M03 Q1002 NOSIG
ZBSJ,2016-04-13 07:00,ZBSJ 130700Z 12002MPS 9999 FEW030 29/00 Q1001 NOSIG
ZBSJ,2016-04-13 08:00,ZBSJ 130800Z 14003MPS CAVOK 28/05 Q1001 NOSIG
ZBSJ,2016-04-13 09:00,ZBSJ 130900Z 16003MPS CAVOK 26/08 Q1001 NOSIG
ZBSJ,2016-04-13 10:00,ZBSJ 131000Z 07002MPS 030V120 CAVOK 23/10 Q1002 NOSIG
ZBSJ,2016-04-13 11:00,ZBSJ 131100Z 15002MPS CAVOK 21/07 Q1003 NOSIG
ZBSJ,2016-04-13 12:00,ZBSJ 131200Z 16003MPS CAVOK 18/06 Q1004 NOSIG
ZBSJ,2016-04-13 13:00,ZBSJ 131300Z 20001MPS CAVOK 19/06 Q1005 NOSIG
ZBSJ,2016-04-13 14:00,ZBSJ 131400Z 01001MPS CAVOK 17/07 Q1006 NOSIG
ZBSJ,2016-04-13 15:00,ZBSJ 131500Z 01003MPS 340V050 CAVOK 17/07 Q1007 NOSIG
ZBSJ,2016-04-13 16:00,ZBSJ 131600Z 04003MPS CAVOK 17/05 Q1008 NOSIG
ZBSJ,2016-04-13 17:00,ZBSJ 131700Z 05002MPS 8000 NSC 16/05 Q1009 NOSIG
ZBSJ,2016-04-13 18:00,ZBSJ 131800Z 01002MPS 7000 NSC 12/05 Q1010 NOSIG
ZBSJ,2016-04-13 19:00,ZBSJ 131900Z 01001MPS 6000 NSC 11/05 Q1010 NOSIG
ZBSJ,2016-04-13 20:00,ZBSJ 132000Z 05002MPS 6000 NSC 11/05 Q1011 NOSIG
ZBSJ,2016-04-13 21:00,ZBSJ 132100Z 00000MPS 6000 NSC 12/04 Q1012 NOSIG
ZBSJ,2016-04-13 22:00,ZBSJ 132200Z 36001MPS 4000 HZ NSC 10/04 Q1013 NOSIG
ZBSJ,2016-04-13 23:00,ZBSJ 132300Z 36002MPS 3000 HZ NSC 12/07 Q1014 NOSIG
ZBSJ,2016-04-14 00:00,ZBSJ 140000Z 05002MPS 010V070 7000 NSC 16/01 Q1016 NOSIG
ZBSJ,2016-04-14 01:00,ZBSJ 140100Z 04003MPS CAVOK 18/02 Q1017 NOSIG
ZBSJ,2016-04-14 02:00,ZBSJ 140200Z 07004MPS 030V100 CAVOK 19/M00 Q1017 NOSIG
ZBSJ,2016-04-14 03:00,ZBSJ 140300Z 07003MPS 010V120 CAVOK 20/02 Q1017 NOSIG
ZBSJ,2016-04-14 04:00,ZBSJ 140400Z 11004MPS 070V150 CAVOK 21/03 Q1017 NOSIG
ZBSJ,2016-04-14 05:00,ZBSJ 140500Z 10004MPS 060V140 CAVOK 22/04 Q1016 NOSIG
ZBSJ,2016-04-14 06:00,ZBSJ 140600Z 11002MPS CAVOK 23/04 Q1015 NOSIG
ZBSJ,2016-04-14 07:00,ZBSJ 140700Z 15003MPS 100V180 CAVOK 24/04 Q1014 NOSIG
ZBSJ,2016-04-14 08:00,ZBSJ 140800Z 12003MPS 090V160 CAVOK 23/04 Q1013 NOSIG
ZBSJ,2016-04-14 09:00,ZBSJ 140900Z 12002MPS CAVOK 22/05 Q1013 NOSIG
ZBSJ,2016-04-14 10:00,ZBSJ 141000Z 11003MPS CAVOK 21/06 Q1013 NOSIG
ZBSJ,2016-04-14 11:00,ZBSJ 141100Z 12003MPS CAVOK 19/07 Q1013 NOSIG
ZBSJ,2016-04-14 12:00,ZBSJ 141200Z 13003MPS CAVOK 17/07 Q1014 NOSIG
ZBSJ,2016-04-14 13:00,ZBSJ 141300Z 12003MPS CAVOK 17/05 Q1015 NOSIG
ZBSJ,2016-04-14 14:00,ZBSJ 141400Z 09002MPS CAVOK 14/06 Q1015 NOSIG
ZBSJ,2016-04-14 15:00,ZBSJ 141500Z 11002MPS CAVOK 14/05 Q1015 NOSIG
ZBSJ,2016-04-14 16:00,ZBSJ 141600Z 16001MPS CAVOK 12/05 Q1015 NOSIG
ZBSJ,2016-04-14 17:00,ZBSJ 141700Z 03001MPS CAVOK 11/05 Q1014 NOSIG
ZBSJ,2016-04-14 18:00,ZBSJ 141800Z 36002MPS CAVOK 09/05 Q1014 NOSIG
ZBSJ,2016-04-14 19:00,ZBSJ 141900Z 03002MPS CAVOK 11/04 Q1015 NOSIG
ZBSJ,2016-04-14 20:00,ZBSJ 142000Z 06002MPS CAVOK 10/04 Q1014 NOSIG
ZBSJ,2016-04-14 21:00,ZBSJ 142100Z 11001MPS CAVOK 09/04 Q1014 NOSIG
ZBSJ,2016-04-14 22:00,ZBSJ 142200Z 16001MPS CAVOK 10/04 Q1013 NOSIG
ZBSJ,2016-04-14 23:00,ZBSJ 142300Z 32001MPS CAVOK 11/06 Q1013 NOSIG
ZBSJ,2016-04-15 00:00,ZBSJ 150000Z 29001MPS 7000 NSC 14/05 Q1014 NOSIG
ZBSJ,2016-04-15 01:00,ZBSJ 150100Z 08001MPS 8000 NSC 15/06 Q1013 NOSIG
ZBSJ,2016-04-15 02:00,ZBSJ 150200Z 07001MPS 8000 NSC 17/06 Q1013 NOSIG
ZBSJ,2016-04-15 03:00,ZBSJ 150300Z 11002MPS 8000 NSC 18/06 Q1012 NOSIG
ZBSJ,2016-04-15 04:00,ZBSJ 150400Z 11003MPS 080V150 8000 NSC 20/08 Q1011 NOSIG
ZBSJ,2016-04-15 05:00,ZBSJ 150500Z 12004MPS 8000 NSC 20/08 Q1010 NOSIG
ZBSJ,2016-04-15 06:00,ZBSJ 150600Z 11003MPS 070V160 8000 NSC 21/09 Q1009 NOSIG
ZBSJ,2016-04-15 07:00,ZBSJ 150700Z 13003MPS 8000 NSC 22/10 Q1008 NOSIG
ZBSJ,2016-04-15 08:00,ZBSJ 150800Z 04002MPS 010V070 8000 NSC 22/11 Q1007 NOSIG
ZBSJ,2016-04-15 09:00,ZBSJ 150900Z 36002MPS 8000 NSC 21/10 Q1007 NOSIG
ZBSJ,2016-04-15 10:00,ZBSJ 151000Z 34004MPS 6000 NSC 20/10 Q1007 NOSIG
ZBSJ,2016-04-15 11:00,ZBSJ 151100Z 31005MPS 5000 HZ SCT046 19/10 Q1008 NOSIG
ZBSJ,2016-04-15 12:00,ZBSJ 151200Z 31007MPS 5000 HZ SCT046 17/12 Q1009 NOSIG
ZBSJ,2016-04-15 13:00,ZBSJ 151300Z 29005MPS 4000 BR NSC 17/12 Q1010 NOSIG
ZBSJ,2016-04-15 14:00,ZBSJ 151400Z 28005MPS 5000 BR NSC 17/13 Q1010 NOSIG
ZBSJ,2016-04-15 15:00,ZBSJ 151500Z 31008MPS 9999 -RA BKN046 16/10 Q1009 NOSIG
ZBSJ,2016-04-15 16:00,ZBSJ 151600Z 33005MPS 9999 -RA OVC046 13/11 Q1010 NOSIG
ZBSJ,2016-04-15 17:00,ZBSJ 151700Z 33006MPS 9999 -RA OVC040 12/10 Q1010 NOSIG
ZBSJ,2016-04-15 18:00,ZBSJ 151800Z 33005MPS 9999 -RA OVC040 12/11 Q1010 NOSIG
ZBSJ,2016-04-15 19:00,ZBSJ 151900Z 34005MPS 9999 -RA OVC033 12/11 Q1009 NOSIG
ZBSJ,2016-04-15 20:00,ZBSJ 152000Z 34005MPS 9999 -RA OVC033 11/10 Q1009 NOSIG
ZBSJ,2016-04-15 21:00,ZBSJ 152100Z 34003MPS 9999 -RA OVC033 11/10 Q1009 NOSIG
ZBSJ,2016-04-15 22:00,ZBSJ 152200Z 09001MPS 9999 -RA SCT026 OVC040 11/10 Q1009 NOSIG
ZBSJ,2016-04-15 23:00,ZBSJ 152300Z 32002MPS CAVOK 12/11 Q1010 NOSIG
ZBSJ,2016-04-16 00:00,ZBSJ 160000Z 28002MPS CAVOK 13/11 Q1010 NOSIG
ZBSJ,2016-04-16 01:00,ZBSJ 160100Z 26001MPS CAVOK 14/11 Q1010 NOSIG
ZBSJ,2016-04-16 02:00,ZBSJ 160200Z 29001MPS CAVOK 17/11 Q1010 NOSIG
ZBSJ,2016-04-16 03:00,ZBSJ 160300Z 33003MPS 290V010 CAVOK 17/09 Q1009 NOSIG
ZBSJ,2016-04-16 04:00,ZBSJ 160400Z 36004MPS 330V030 CAVOK 19/04 Q1009 NOSIG
ZBSJ,2016-04-16 05:00,ZBSJ 160500Z 35004MPS 310V040 CAVOK 20/02 Q1008 NOSIG
ZBSJ,2016-04-16 06:00,ZBSJ 160600Z 36005MPS 330V030 CAVOK 20/M00 Q1008 NOSIG
ZBSJ,2016-04-16 07:00,ZBSJ 160700Z 36005MPS 330V030 CAVOK 21/M01 Q1007 NOSIG
ZBSJ,2016-04-16 08:00,ZBSJ 160800Z 02006MPS CAVOK 21/M00 Q1007 NOSIG
ZBSJ,2016-04-16 09:00,ZBSJ 160900Z 03004MPS 350V060 CAVOK 21/M01 Q1008 NOSIG
ZBSJ,2016-04-16 10:00,ZBSJ 161000Z 02003MPS 350V050 CAVOK 19/01 Q1008 NOSIG
ZBSJ,2016-04-16 11:00,ZBSJ 161100Z 02003MPS CAVOK 17/M01 Q1009 NOSIG
ZBSJ,2016-04-16 12:00,ZBSJ 161200Z 01001MPS CAVOK 15/M02 Q1010 NOSIG
ZBSJ,2016-04-16 13:00,ZBSJ 161300Z 04002MPS CAVOK 14/M02 Q1012 NOSIG
ZBSJ,2016-04-16 14:00,ZBSJ 161400Z 28001MPS CAVOK 15/M04 Q1013 NOSIG
ZBSJ,2016-04-16 15:00,ZBSJ 161500Z 28002MPS 250V310 CAVOK 14/M03 Q1014 NOSIG
ZBSJ,2016-04-16 16:00,ZBSJ 161600Z 35003MPS CAVOK 12/M03 Q1014 NOSIG
ZBSJ,2016-04-16 17:00,ZBSJ 161700Z 36002MPS CAVOK 11/M03 Q1013 NOSIG
ZBSJ,2016-04-16 18:00,ZBSJ 161800Z 34003MPS CAVOK 11/M04 Q1013 NOSIG
ZBSJ,2016-04-16 19:00,ZBSJ 161900Z 32003MPS CAVOK 09/M03 Q1013 NOSIG
ZBSJ,2016-04-16 20:00,ZBSJ 162000Z 32003MPS CAVOK 10/M03 Q1013 NOSIG
ZBSJ,2016-04-16 21:00,ZBSJ 162100Z 31004MPS CAVOK 11/M04 Q1014 NOSIG
ZBSJ,2016-04-16 22:00,ZBSJ 162200Z 29004MPS CAVOK 11/M03 Q1015 NOSIG
ZBSJ,2016-04-16 23:00,ZBSJ 162300Z 28004MPS CAVOK 12/M03 Q1015 NOSIG
ZBSJ,2016-04-17 00:00,ZBSJ 170000Z 25003MPS CAVOK 14/M01 Q1015 NOSIG
ZBSJ,2016-04-17 01:00,ZBSJ 170100Z 27002MPS CAVOK 17/M04 Q1015 NOSIG
ZBSJ,2016-04-17 02:00,ZBSJ 170200Z 34002G07MPS CAVOK 18/M01 Q1015 NOSIG
ZBSJ,2016-04-17 03:00,ZBSJ 170300Z 31004MPS 260V360 CAVOK 20/M06 Q1014 NOSIG
ZBSJ,2016-04-17 04:00,ZBSJ 170400Z 35004MPS 290V030 9999 FEW033 20/M05 Q1013 NOSIG
ZBSJ,2016-04-17 05:00,ZBSJ 170500Z 36003MPS 320V060 9999 SCT033 20/M04 Q1013 NOSIG
ZBSJ,2016-04-17 06:00,ZBSJ 170600Z 30005MPS 270V340 9999 SCT033 21/M05 Q1012 NOSIG
ZBSJ,2016-04-17 07:00,ZBSJ 170700Z 35006MPS 330V030 9999 FEW033 20/M02 Q1011 NOSIG
ZBSJ,2016-04-17 08:00,ZBSJ 170800Z 35005MPS 330V030 9999 FEW033 20/M00 Q1010 NOSIG
ZBSJ,2016-04-17 09:00,ZBSJ 170900Z 01003MPS 350V060 9999 FEW033 19/M02 Q1009 NOSIG
ZBSJ,2016-04-17 10:00,ZBSJ 171000Z 11002MPS 9999 FEW033 18/M01 Q1010 NOSIG
ZBSJ,2016-04-17 11:00,ZBSJ 171100Z 16002MPS CAVOK 16/M01 Q1010 NOSIG
ZBSJ,2016-04-17 12:00,ZBSJ 171200Z 17002MPS CAVOK 15/02 Q1010 NOSIG
ZBSJ,2016-04-17 13:00,ZBSJ 171300Z 15004MPS CAVOK 12/02 Q1010 NOSIG
ZBSJ,2016-04-17 14:00,ZBSJ 171400Z 36004MPS CAVOK 15/01 Q1011 NOSIG
ZBSJ,2016-04-17 15:00,ZBSJ 171500Z 03002MPS CAVOK 13/02 Q1011 NOSIG
ZBSJ,2016-04-17 16:00,ZBSJ 171600Z 01006MPS CAVOK 14/01 Q1012 NOSIG
ZBSJ,2016-04-17 17:00,ZBSJ 171700Z 35005MPS CAVOK 13/M00 Q1012 NOSIG
ZBSJ,2016-04-17 18:00,ZBSJ 171800Z 36004MPS CAVOK 13/M03 Q1012 NOSIG
ZBSJ,2016-04-17 19:00,ZBSJ 171900Z 35004MPS CAVOK 12/M03 Q1013 NOSIG
ZBSJ,2016-04-17 20:00,ZBSJ 172000Z 36005MPS CAVOK 12/M03 Q1013 NOSIG
ZBSJ,2016-04-17 21:00,ZBSJ 172100Z 36003MPS CAVOK 10/M03 Q1013 NOSIG
ZBSJ,2016-04-17 22:00,ZBSJ 172200Z 01002MPS CAVOK 09/M02 Q1014 NOSIG
ZBSJ,2016-04-17 23:00,ZBSJ 172300Z 01004MPS CAVOK 13/M03 Q1014 NOSIG
ZBSJ,2016-04-18 00:00,ZBSJ 180000Z 02003MPS CAVOK 14/M03 Q1015 NOSIG
ZBSJ,2016-04-18 01:00,ZBSJ 180100Z 35003MPS 310V020 CAVOK 16/M03 Q1015 NOSIG
ZBSJ,2016-04-18 02:00,ZBSJ 180200Z 30003MPS 260V340 CAVOK 17/M09 Q1015 NOSIG
ZBSJ,2016-04-18 03:00,ZBSJ 180300Z 22003MPS 190V270 CAVOK 18/M07 Q1016 NOSIG
ZBSJ,2016-04-18 04:00,ZBSJ 180400Z 28004MPS 230V300 CAVOK 19/M08 Q1015 NOSIG
ZBSJ,2016-04-18 05:00,ZBSJ 180500Z 18002MPS 130V220 CAVOK 20/M08 Q1014 NOSIG
ZBSJ,2016-04-18 06:00,ZBSJ 180600Z 19002MPS CAVOK 20/M08 Q1013 NOSIG
ZBSJ,2016-04-18 07:00,ZBSJ 180700Z 13004MPS 100V180 CAVOK 20/M03 Q1013 NOSIG
ZBSJ,2016-04-18 08:00,ZBSJ 180800Z 14005MPS CAVOK 20/M02 Q1012 NOSIG
ZBSJ,2016-04-18 09:00,ZBSJ 180900Z 15004MPS CAVOK 19/M01 Q1012 NOSIG
ZBSJ,2016-04-18 10:00,ZBSJ 181000Z 18005MPS CAVOK 17/02 Q1012 NOSIG
ZBSJ,2016-04-18 11:00,ZBSJ 181100Z 13002MPS CAVOK 16/01 Q1013 NOSIG
ZBSJ,2016-04-18 12:00,ZBSJ 181200Z 14002MPS CAVOK 14/M01 Q1014 NOSIG
ZBSJ,2016-04-18 13:00,ZBSJ 181300Z 12002MPS CAVOK 14/M01 Q1015 NOSIG
ZBSJ,2016-04-18 14:00,ZBSJ 181400Z 13002MPS CAVOK 13/M01 Q1016 NOSIG
ZBSJ,2016-04-18 15:00,ZBSJ 181500Z 13002MPS CAVOK 12/M01 Q1016 NOSIG
ZBSJ,2016-04-18 16:00,ZBSJ 181600Z 13002MPS CAVOK 12/M01 Q1016 NOSIG
ZBSJ,2016-04-18 17:00,ZBSJ 181700Z 00000MPS CAVOK 10/M01 Q1016 NOSIG
ZBSJ,2016-04-18 18:00,ZBSJ 181800Z 13001MPS CAVOK 11/01 Q1016 NOSIG
ZBSJ,2016-04-18 19:00,ZBSJ 181900Z 13001MPS CAVOK 12/00 Q1015 NOSIG
ZBSJ,2016-04-18 20:00,ZBSJ 182000Z 06001MPS CAVOK 11/02 Q1015 NOSIG
ZBSJ,2016-04-18 21:00,ZBSJ 182100Z 01002MPS CAVOK 11/03 Q1016 NOSIG
ZBSJ,2016-04-18 22:00,ZBSJ 182200Z 04001MPS CAVOK 11/03 Q1016 NOSIG
ZBSJ,2016-04-18 23:00,ZBSJ 182300Z 07002MPS 9999 -RA NSC 12/03 Q1016 NOSIG
ZBSJ,2016-04-19 00:00,ZBSJ 190000Z 06001MPS CAVOK 13/03 Q1016 NOSIG
ZBSJ,2016-04-19 01:00,ZBSJ 190100Z 07003MPS CAVOK 13/03 Q1016 NOSIG
ZBSJ,2016-04-19 02:00,ZBSJ 190200Z 07004MPS CAVOK 13/03 Q1017 NOSIG
ZBSJ,2016-04-19 03:00,ZBSJ 190300Z 04003MPS CAVOK 13/05 Q1017 NOSIG
ZBSJ,2016-04-19 04:00,ZBSJ 190400Z 07001MPS CAVOK 15/05 Q1016 NOSIG
ZBSJ,2016-04-19 05:00,ZBSJ 190500Z 02001MPS CAVOK 16/05 Q1015 NOSIG
ZBSJ,2016-04-19 06:00,ZBSJ 190600Z 03001MPS CAVOK 16/06 Q1014 NOSIG
ZBSJ,2016-04-19 07:00,ZBSJ 190700Z 04001MPS 8000 NSC 17/06 Q1014 NOSIG
ZBSJ,2016-04-19 08:00,ZBSJ 190800Z 10001MPS 6000 NSC 17/07 Q1013 NOSIG
ZBSJ,2016-04-19 09:00,ZBSJ 190900Z 18001MPS 5000 HZ NSC 17/07 Q1013 NOSIG
ZBSJ,2016-04-19 10:00,ZBSJ 191000Z 02001MPS 4500 HZ NSC 17/09 Q1013 NOSIG
ZBSJ,2016-04-19 11:00,ZBSJ 191100Z 04002MPS 4000 HZ NSC 15/10 Q1013 BECMG TL1230 2800 HZ
ZBSJ,2016-04-19 12:00,ZBSJ 191200Z 02002MPS 5000 HZ NSC 14/08 Q1014 NOSIG
ZBSJ,2016-04-19 13:00,ZBSJ 191300Z 05002MPS 6000 NSC 13/08 Q1014 NOSIG
ZBSJ,2016-04-19 14:00,ZBSJ 191400Z 06001MPS 6000 NSC 13/07 Q1015 NOSIG
ZBSJ,2016-04-19 15:00,ZBSJ 191500Z 03002MPS 6000 NSC 12/07 Q1015 NOSIG
ZBSJ,2016-04-19 16:00,ZBSJ 191600Z 05002MPS 6000 NSC 11/07 Q1015 NOSIG
ZBSJ,2016-04-19 17:00,ZBSJ 191700Z 02001MPS 6000 NSC 11/06 Q1015 NOSIG
ZBSJ,2016-04-19 18:00,ZBSJ 191800Z 35002MPS 6000 NSC 09/05 Q1014 NOSIG
ZBSJ,2016-04-19 19:00,ZBSJ 191900Z 34002MPS 6000 NSC 10/05 Q1014 NOSIG
ZBSJ,2016-04-19 20:00,ZBSJ 192000Z 34002MPS 6000 NSC 10/06 Q1014 NOSIG
ZBSJ,2016-04-19 21:00,ZBSJ 192100Z 32002MPS 5000 BR NSC 10/06 Q1015 NOSIG
ZBSJ,2016-04-19 22:00,ZBSJ 192200Z 33003MPS 3500 BR NSC 09/06 Q1015 NOSIG
ZBSJ,2016-04-19 23:00,ZBSJ 192300Z 33003MPS 2800 BR NSC 11/07 Q1015 BECMG TL0030 3000
ZBSJ,2016-04-19 23:30,ZBSJ 192330Z 33003MPS 2800 HZ NSC 12/07 Q1015 BECMG TL0030 3000
ZBSJ,2016-04-20 00:00,ZBSJ 200000Z 33003MPS 2800 HZ NSC 14/08 Q1015 BECMG TL0040 3000
ZBSJ,2016-04-20 00:30,ZBSJ 200030Z 32003MPS 3500 HZ NSC 15/07 Q1016 NOSIG
ZBSJ,2016-04-20 01:00,ZBSJ 200100Z 32004MPS 4000 HZ NSC 16/07 Q1016 NOSIG
ZBSJ,2016-04-20 01:30,ZBSJ 200130Z 32003MPS 290V350 5000 HZ NSC 17/07 Q1016 NOSIG
ZBSJ,2016-04-20 02:00,ZBSJ 200200Z 31003MPS 280V350 5000 HZ NSC 18/07 Q1016 NOSIG
ZBSJ,2016-04-20 02:30,ZBSJ 200230Z 32002MPS 270V360 5000 HZ NSC 18/08 Q1016 NOSIG
ZBSJ,2016-04-20 03:00,ZBSJ 200300Z 29002MPS 4500 HZ NSC 19/08 Q1015 NOSIG
ZBSJ,2016-04-20 03:30,ZBSJ 200330Z 30002MPS 4000 HZ NSC 19/08 Q1015 NOSIG
ZBSJ,2016-04-20 04:00,ZBSJ 200400Z 28002MPS 4000 HZ NSC 20/08 Q1014 NOSIG
ZBSJ,2016-04-20 04:30,ZBSJ 200430Z 19002MPS 110V240 4500 HZ NSC 20/09 Q1014 NOSIG
ZBSJ,2016-04-20 05:00,ZBSJ 200500Z 16003MPS 130V200 4500 HZ NSC 21/10 Q1014 NOSIG
ZBSJ,2016-04-20 06:00,ZBSJ 200600Z 18003MPS 140V210 6000 NSC 22/08 Q1012 NOSIG
ZBSJ,2016-04-20 07:00,ZBSJ 200700Z 17003MPS 8000 NSC 23/07 Q1011 NOSIG
ZBSJ,2016-04-20 08:00,ZBSJ 200800Z 16003MPS 8000 NSC 23/07 Q1010 NOSIG
ZBSJ,2016-04-20 09:00,ZBSJ 200900Z 15002MPS 8000 NSC 23/07 Q1010 NOSIG
ZBSJ,2016-04-20 10:00,ZBSJ 201000Z 18003MPS 8000 NSC 22/08 Q1010 NOSIG
ZBSJ,2016-04-20 11:00,ZBSJ 201100Z 17002MPS 6000 NSC 19/09 Q1010 NOSIG
ZBSJ,2016-04-20 12:00,ZBSJ 201200Z 15001MPS 6000 NSC 15/08 Q1010 NOSIG
ZBSJ,2016-04-20 13:00,ZBSJ 201300Z 15001MPS 5000 HZ NSC 13/08 Q1010 NOSIG
ZBSJ,2016-04-20 14:00,ZBSJ 201400Z 11001MPS 5000 BR NSC 12/08 Q1010 NOSIG
ZBSJ,2016-04-20 15:00,ZBSJ 201500Z 24001MPS 5000 BR NSC 12/07 Q1010 NOSIG
ZBSJ,2016-04-20 16:00,ZBSJ 201600Z 28002MPS 5000 HZ NSC 12/06 Q1010 NOSIG
ZBSJ,2016-04-20 17:00,ZBSJ 201700Z 27003MPS 5000 HZ NSC 13/06 Q1009 NOSIG
ZBSJ,2016-04-20 18:00,ZBSJ 201800Z 27003MPS 5000 HZ NSC 12/05 Q1008 NOSIG
ZBSJ,2016-04-20 19:00,ZBSJ 201900Z 26001MPS 5000 HZ NSC 09/04 Q1008 NOSIG
ZBSJ,2016-04-20 20:00,ZBSJ 202000Z 26001MPS 5000 HZ NSC 10/04 Q1007 NOSIG
ZBSJ,2016-04-20 21:00,ZBSJ 202100Z 27002MPS 5000 HZ NSC 08/03 Q1007 NOSIG
ZBSJ,2016-04-20 22:00,ZBSJ 202200Z 32001MPS 7000 NSC 08/03 Q1006 NOSIG
ZBSJ,2016-04-20 23:00,ZBSJ 202300Z 28002MPS 8000 NSC 14/04 Q1006 NOSIG
ZBSJ,2016-04-21 00:00,ZBSJ 210000Z 33003MPS CAVOK 16/05 Q1006 NOSIG
ZBSJ,2016-04-21 01:00,ZBSJ 210100Z 27003MPS 240V300 CAVOK 20/06 Q1005 NOSIG
ZBSJ,2016-04-21 02:00,ZBSJ 210200Z 26005MPS 230V300 CAVOK 25/04 Q1005 NOSIG
ZBSJ,2016-04-21 03:00,ZBSJ 210300Z 26005MPS 230V300 CAVOK 28/03 Q1004 NOSIG
ZBSJ,2016-04-21 04:00,ZBSJ 210400Z 26005MPS 220V300 CAVOK 31/01 Q1004 NOSIG
ZBSJ,2016-04-21 05:00,ZBSJ 210500Z 27006MPS CAVOK 32/M02 Q1002 NOSIG
ZBSJ,2016-04-21 06:00,ZBSJ 210600Z 25006MPS 220V310 CAVOK 33/M03 Q1001 NOSIG
ZBSJ,2016-04-21 07:00,ZBSJ 210700Z 26006MPS 230V290 CAVOK 33/M03 Q1000 NOSIG
ZBSJ,2016-04-21 08:00,ZBSJ 210800Z 25006MPS CAVOK 33/M01 Q1000 NOSIG
ZBSJ,2016-04-21 09:00,ZBSJ 210900Z 23005MPS CAVOK 32/M01 Q0999 NOSIG
ZBSJ,2016-04-21 10:00,ZBSJ 211000Z 18006MPS CAVOK 27/07 Q1000 NOSIG
ZBSJ,2016-04-21 11:00,ZBSJ 211100Z 17003MPS CAVOK 23/06 Q1000 NOSIG
ZBSJ,2016-04-21 12:00,ZBSJ 211200Z 18004MPS CAVOK 23/07 Q1001 NOSIG
ZBSJ,2016-04-21 13:00,ZBSJ 211300Z 18002MPS CAVOK 22/10 Q1002 NOSIG
ZBSJ,2016-04-21 14:00,ZBSJ 211400Z 23002MPS CAVOK 20/11 Q1003 NOSIG
ZBSJ,2016-04-21 15:00,ZBSJ 211500Z 01004MPS CAVOK 22/06 Q1004 NOSIG
ZBSJ,2016-04-21 16:00,ZBSJ 211600Z 03002MPS CAVOK 19/05 Q1005 NOSIG
ZBSJ,2016-04-21 17:00,ZBSJ 211700Z 03003MPS 360V070 CAVOK 19/04 Q1006 NOSIG
ZBSJ,2016-04-21 18:00,ZBSJ 211800Z 04004MPS CAVOK 17/01 Q1007 NOSIG
ZBSJ,2016-04-21 19:00,ZBSJ 211900Z 02002MPS CAVOK 16/M02 Q1008 NOSIG
ZBSJ,2016-04-21 20:00,ZBSJ 212000Z 00000MPS CAVOK 14/M01 Q1008 NOSIG
ZBSJ,2016-04-21 21:00,ZBSJ 212100Z 15001MPS CAVOK 11/01 Q1008 NOSIG
ZBSJ,2016-04-21 22:00,ZBSJ 212200Z 18001MPS CAVOK 11/M01 Q1009 NOSIG
ZBSJ,2016-04-21 23:00,ZBSJ 212300Z 28003MPS 220V340 CAVOK 16/01 Q1010 NOSIG
ZBSJ,2016-04-22 00:00,ZBSJ 220000Z 19002MPS 8000 NSC 19/01 Q1010 NOSIG
ZBSJ,2016-04-22 01:00,ZBSJ 220100Z 18004MPS CAVOK 21/00 Q1010 NOSIG
ZBSJ,2016-04-22 02:00,ZBSJ 220200Z 16003MPS CAVOK 23/M05 Q1011 NOSIG
ZBSJ,2016-04-22 03:00,ZBSJ 220300Z 17004MPS CAVOK 24/M01 Q1011 NOSIG
ZBSJ,2016-04-22 04:00,ZBSJ 220400Z 17005MPS CAVOK 25/02 Q1011 NOSIG
ZBSJ,2016-04-22 05:00,ZBSJ 220500Z 16005MPS CAVOK 25/00 Q1010 NOSIG
ZBSJ,2016-04-22 06:00,ZBSJ 220600Z 16003MPS 120V190 CAVOK 25/M02 Q1009 NOSIG
ZBSJ,2016-04-22 07:00,ZBSJ 220700Z 16004MPS CAVOK 25/02 Q1008 NOSIG
ZBSJ,2016-04-22 08:00,ZBSJ 220800Z 18004MPS CAVOK 25/05 Q1007 NOSIG
ZBSJ,2016-04-22 09:00,ZBSJ 220900Z 18005MPS CAVOK 24/06 Q1007 NOSIG
ZBSJ,2016-04-22 10:00,ZBSJ 221000Z 18004MPS CAVOK 22/03 Q1007 NOSIG
ZBSJ,2016-04-22 11:00,ZBSJ 221100Z 18003MPS CAVOK 19/04 Q1008 NOSIG
ZBSJ,2016-04-22 12:00,ZBSJ 221200Z 20003MPS CAVOK 18/03 Q1008 NOSIG
ZBSJ,2016-04-22 13:00,ZBSJ 221300Z 04002MPS CAVOK 15/05 Q1010 NOSIG
ZBSJ,2016-04-22 14:00,ZBSJ 221400Z 06002MPS CAVOK 15/05 Q1010 NOSIG
ZBSJ,2016-04-22 15:00,ZBSJ 221500Z 07001MPS CAVOK 14/05 Q1010 NOSIG
ZBSJ,2016-04-22 16:00,ZBSJ 221600Z 07002MPS CAVOK 13/05 Q1010 NOSIG
ZBSJ,2016-04-22 17:00,ZBSJ 221700Z 01001MPS CAVOK 13/05 Q1010 NOSIG
ZBSJ,2016-04-22 18:00,ZBSJ 221800Z 04001MPS 8000 NSC 12/05 Q1010 NOSIG
ZBSJ,2016-04-22 19:00,ZBSJ 221900Z 07003MPS 8000 NSC 13/05 Q1011 NOSIG
ZBSJ,2016-04-22 20:00,ZBSJ 222000Z 05002MPS CAVOK 13/05 Q1011 NOSIG
ZBSJ,2016-04-22 21:00,ZBSJ 222100Z 03003MPS 360V060 CAVOK 14/05 Q1012 NOSIG
ZBSJ,2016-04-22 22:00,ZBSJ 222200Z 03004MPS 7000 NSC 14/03 Q1012 NOSIG
ZBSJ,2016-04-22 23:00,ZBSJ 222300Z 03003MPS 7000 NSC 14/M01 Q1013 NOSIG
ZBSJ,2016-04-23 00:00,ZBSJ 230000Z 04005MPS CAVOK 15/M03 Q1014 NOSIG
ZBSJ,2016-04-23 01:00,ZBSJ 230100Z 06006MPS CAVOK 17/M03 Q1015 NOSIG
ZBSJ,2016-04-23 02:00,ZBSJ 230200Z 05005MPS CAVOK 16/M02 Q1015 NOSIG
ZBSJ,2016-04-23 03:00,ZBSJ 230300Z 05004MPS 360V080 CAVOK 17/M00 Q1016 NOSIG
ZBSJ,2016-04-23 04:00,ZBSJ 230400Z 04004MPS 010V070 CAVOK 18/00 Q1015 NOSIG
ZBSJ,2016-04-23 05:00,ZBSJ 230500Z 07004MPS 040V110 CAVOK 19/M01 Q1015 NOSIG
ZBSJ,2016-04-23 06:00,ZBSJ 230600Z 08005MPS CAVOK 19/M01 Q1014 NOSIG
ZBSJ,2016-04-23 07:00,ZBSJ 230700Z 11004MPS CAVOK 20/M02 Q1014 NOSIG
ZBSJ,2016-04-23 08:00,ZBSJ 230800Z 09004MPS CAVOK 19/M02 Q1013 NOSIG
ZBSJ,2016-04-23 09:00,ZBSJ 230900Z 13002MPS CAVOK 19/02 Q1013 NOSIG
ZBSJ,2016-04-23 10:00,ZBSJ 231000Z 14001MPS CAVOK 17/02 Q1013 NOSIG
ZBSJ,2016-04-23 11:00,ZBSJ 231100Z 17002MPS CAVOK 16/03 Q1014 NOSIG
ZBSJ,2016-04-23 12:00,ZBSJ 231200Z 18002MPS CAVOK 14/02 Q1014 NOSIG
ZBSJ,2016-04-23 13:00,ZBSJ 231300Z 16002MPS CAVOK 13/02 Q1014 NOSIG
ZBSJ,2016-04-23 14:00,ZBSJ 231400Z 23001MPS CAVOK 12/01 Q1015 NOSIG
ZBSJ,2016-04-23 15:00,ZBSJ 231500Z 23001MPS CAVOK 10/03 Q1014 NOSIG
ZBSJ,2016-04-23 16:00,ZBSJ 231600Z 24001MPS CAVOK 10/01 Q1015 NOSIG
ZBSJ,2016-04-23 17:00,ZBSJ 231700Z 00000MPS CAVOK 09/02 Q1014 NOSIG
ZBSJ,2016-04-23 18:00,ZBSJ 231800Z 17001MPS CAVOK 09/02 Q1014 NOSIG
ZBSJ,2016-04-23 19:00,ZBSJ 231900Z 17002MPS CAVOK 09/03 Q1014 NOSIG
ZBSJ,2016-04-23 20:00,ZBSJ 232000Z 18001MPS CAVOK 09/02 Q1013 NOSIG
ZBSJ,2016-04-23 21:00,ZBSJ 232100Z 26001MPS CAVOK 08/02 Q1013 NOSIG
ZBSJ,2016-04-23 22:00,ZBSJ 232200Z 04001MPS CAVOK 08/03 Q1013 NOSIG
ZBSJ,2016-04-23 23:00,ZBSJ 232300Z 11001MPS CAVOK 11/04 Q1013 NOSIG
ZBSJ,2016-04-24 00:00,ZBSJ 240000Z 00000MPS CAVOK 15/05 Q1013 NOSIG
ZBSJ,2016-04-24 01:00,ZBSJ 240100Z 09001MPS CAVOK 17/04 Q1013 NOSIG
ZBSJ,2016-04-24 02:00,ZBSJ 240200Z 19002MPS 130V230 CAVOK 18/06 Q1012 NOSIG
ZBSJ,2016-04-24 03:00,ZBSJ 240300Z 17003MPS 140V210 5000 HZ NSC 21/09 Q1011 NOSIG
ZBSJ,2016-04-24 04:00,ZBSJ 240400Z 17005MPS 3500 HZ NSC 23/11 Q1011 NOSIG
ZBSJ,2016-04-24 05:00,ZBSJ 240500Z 17006MPS 3300 HZ NSC 24/12 Q1009 NOSIG
ZBSJ,2016-04-24 06:00,ZBSJ 240600Z 18007MPS 150V210 3300 HZ NSC 25/14 Q1008 NOSIG
ZBSJ,2016-04-24 07:00,ZBSJ 240700Z 17007MPS 4000 HZ NSC 26/15 Q1008 NOSIG
ZBSJ,2016-04-24 08:00,ZBSJ 240800Z 17008MPS 8000 NSC 26/15 Q1007 NOSIG
ZBSJ,2016-04-24 09:00,ZBSJ 240900Z 18008MPS CAVOK 25/13 Q1006 NOSIG
ZBSJ,2016-04-24 10:00,ZBSJ 241000Z 19006MPS CAVOK 24/12 Q1007 NOSIG
ZBSJ,2016-04-24 11:00,ZBSJ 241100Z 18008MPS CAVOK 22/11 Q1007 NOSIG
ZBSJ,2016-04-24 12:00,ZBSJ 241200Z 18007MPS CAVOK 21/10 Q1008 NOSIG
ZBSJ,2016-04-24 13:00,ZBSJ 241300Z 19006MPS CAVOK 20/10 Q1008 NOSIG
ZBSJ,2016-04-24 14:00,ZBSJ 241400Z 18006MPS CAVOK 19/11 Q1009 NOSIG
ZBSJ,2016-04-24 15:00,ZBSJ 241500Z 18005MPS CAVOK 18/11 Q1009 NOSIG
ZBSJ,2016-04-24 16:00,ZBSJ 241600Z 17003MPS CAVOK 16/11 Q1009 NOSIG
ZBSJ,2016-04-24 17:00,ZBSJ 241700Z 18003MPS 7000 NSC 15/11 Q1009 NOSIG
ZBSJ,2016-04-24 18:00,ZBSJ 241800Z 18003MPS 6000 NSC 15/11 Q1009 NOSIG
ZBSJ,2016-04-24 19:00,ZBSJ 241900Z 18003MPS 6000 NSC 14/11 Q1009 NOSIG
ZBSJ,2016-04-24 20:00,ZBSJ 242000Z 15001MPS 6000 NSC 14/10 Q1010 NOSIG
ZBSJ,2016-04-24 21:00,ZBSJ 242100Z 16002MPS 5000 BR NSC 11/09 Q1010 NOSIG
ZBSJ,2016-04-24 22:00,ZBSJ 242200Z 16002MPS 3500 BR NSC 12/11 Q1010 NOSIG
ZBSJ,2016-04-24 23:00,ZBSJ 242300Z 17001MPS 3000 BR NSC 14/12 Q1011 NOSIG
ZBSJ,2016-04-25 00:00,ZBSJ 250000Z 19003MPS 4000 HZ NSC 18/12 Q1012 NOSIG
ZBSJ,2016-04-25 01:00,ZBSJ 250100Z 20003MPS 5000 HZ NSC 20/12 Q1012 NOSIG
ZBSJ,2016-04-25 02:00,ZBSJ 250200Z 18006MPS 8000 NSC 23/12 Q1012 NOSIG
ZBSJ,2016-04-25 03:00,ZBSJ 250300Z 18007MPS CAVOK 25/12 Q1012 NOSIG
ZBSJ,2016-04-25 04:00,ZBSJ 250400Z 16007MPS CAVOK 26/12 Q1011 NOSIG
ZBSJ,2016-04-25 05:00,ZBSJ 250500Z 17006MPS CAVOK 26/11 Q1011 NOSIG
ZBSJ,2016-04-25 06:00,ZBSJ 250600Z 16008MPS CAVOK 26/12 Q1011 NOSIG
ZBSJ,2016-04-25 07:00,ZBSJ 250700Z 18007MPS CAVOK 27/12 Q1011 NOSIG
ZBSJ,2016-04-25 08:00,ZBSJ 250800Z 16005MPS CAVOK 25/13 Q1011 NOSIG
ZBSJ,2016-04-25 09:00,ZBSJ 250900Z 17006MPS CAVOK 24/12 Q1011 NOSIG
ZBSJ,2016-04-25 10:00,ZBSJ 251000Z 17006MPS CAVOK 23/13 Q1012 NOSIG
ZBSJ,2016-04-25 11:00,ZBSJ 251100Z 17005MPS CAVOK 21/13 Q1012 NOSIG
ZBSJ,2016-04-25 12:00,ZBSJ 251200Z 17002MPS CAVOK 18/12 Q1013 NOSIG
ZBSJ,2016-04-25 13:00,ZBSJ 251300Z 19002MPS CAVOK 19/12 Q1014 NOSIG
ZBSJ,2016-04-25 14:00,ZBSJ 251400Z 18002MPS CAVOK 18/10 Q1014 NOSIG
ZBSJ,2016-04-25 15:00,ZBSJ 251500Z 09003MPS CAVOK 17/12 Q1014 NOSIG
ZBSJ,2016-04-25 16:00,ZBSJ 251600Z 08002MPS CAVOK 17/11 Q1014 NOSIG
ZBSJ,2016-04-25 17:00,ZBSJ 251700Z 06002MPS CAVOK 16/11 Q1014 NOSIG
ZBSJ,2016-04-25 18:00,ZBSJ 251800Z 05002MPS 6000 NSC 16/12 Q1014 NOSIG
ZBSJ,2016-04-25 19:00,ZBSJ 251900Z 07001MPS 7000 NSC 15/11 Q1014 NOSIG
ZBSJ,2016-04-25 20:00,ZBSJ 252000Z 08001MPS 7000 NSC 16/11 Q1014 NOSIG
ZBSJ,2016-04-25 21:00,ZBSJ 252100Z 09002MPS 6000 NSC 16/11 Q1014 NOSIG
ZBSJ,2016-04-25 22:00,ZBSJ 252200Z 06004MPS 6000 NSC 16/10 Q1014 NOSIG
ZBSJ,2016-04-25 23:00,ZBSJ 252300Z 06005MPS 2800 HZ NSC 15/11 Q1015 BECMG TL0030 3500
ZBSJ,2016-04-26 00:00,ZBSJ 260000Z 07005MPS 2800 HZ NSC 15/10 Q1016 BECMG TL0130 3500
ZBSJ,2016-04-26 01:00,ZBSJ 260100Z 06003MPS 3000 HZ NSC 16/11 Q1016 NOSIG
ZBSJ,2016-04-26 02:00,ZBSJ 260200Z 05004MPS 010V080 4000 HZ NSC 18/11 Q1016 NOSIG
ZBSJ,2016-04-26 03:00,ZBSJ 260300Z 04003MPS 360V100 4500 HZ NSC 19/11 Q1016 NOSIG
ZBSJ,2016-04-26 04:00,ZBSJ 260400Z 07003MPS 5000 HZ NSC 20/11 Q1015 NOSIG
ZBSJ,2016-04-26 05:00,ZBSJ 260500Z 10003MPS 060V140 6000 NSC 22/12 Q1014 NOSIG
ZBSJ,2016-04-26 06:00,ZBSJ 260600Z 07003MPS 360V130 6000 NSC 23/12 Q1014 NOSIG
ZBSJ,2016-04-26 07:00,ZBSJ 260700Z 07002MPS 7000 NSC 23/11 Q1013 NOSIG
ZBSJ,2016-04-26 08:00,ZBSJ 260800Z 10003MPS 060V130 7000 NSC 22/12 Q1013 NOSIG
ZBSJ,2016-04-26 09:00,ZBSJ 260900Z 10002MPS 7000 NSC 22/11 Q1012 NOSIG
ZBSJ,2016-04-26 10:00,ZBSJ 261000Z 08002MPS 6000 NSC 21/12 Q1012 NOSIG
ZBSJ,2016-04-26 11:00,ZBSJ 261100Z 09002MPS 6000 NSC 20/12 Q1013 NOSIG
ZBSJ,2016-04-26 12:00,ZBSJ 261200Z 08001MPS 6000 NSC 18/12 Q1013 NOSIG
ZBSJ,2016-04-26 13:00,ZBSJ 261300Z 05001MPS 6000 NSC 17/12 Q1014 NOSIG
ZBSJ,2016-04-26 14:00,ZBSJ 261400Z 03001MPS 6000 NSC 17/11 Q1014 NOSIG
ZBSJ,2016-04-26 15:00,ZBSJ 261500Z 04002MPS 6000 NSC 16/11 Q1014 NOSIG
ZBSJ,2016-04-26 16:00,ZBSJ 261600Z 04002MPS 6000 NSC 15/10 Q1014 NOSIG
ZBSJ,2016-04-26 17:00,ZBSJ 261700Z 04002MPS 010V070 7000 NSC 15/10 Q1014 NOSIG
ZBSJ,2016-04-26 18:00,ZBSJ 261800Z 05002MPS 7000 NSC 14/10 Q1013 NOSIG
ZBSJ,2016-04-26 19:00,ZBSJ 261900Z 04002MPS 6000 NSC 14/09 Q1013 NOSIG
ZBSJ,2016-04-26 20:00,ZBSJ 262000Z 05003MPS 6000 NSC 14/08 Q1013 NOSIG
ZBSJ,2016-04-26 21:00,ZBSJ 262100Z 05002MPS 6000 NSC 13/08 Q1013 NOSIG
ZBSJ,2016-04-26 22:00,ZBSJ 262200Z 03002MPS 6000 NSC 13/08 Q1013 NOSIG
ZBSJ,2016-04-26 23:00,ZBSJ 262300Z 02002MPS 5000 HZ NSC 13/08 Q1014 NOSIG
ZBSJ,2016-04-27 00:00,ZBSJ 270000Z 03002MPS 4000 HZ NSC 14/08 Q1015 NOSIG
ZBSJ,2016-04-27 01:00,ZBSJ 270100Z 05003MPS 360V080 4500 HZ NSC 15/08 Q1015 NOSIG
ZBSJ,2016-04-27 02:00,ZBSJ 270200Z 01003MPS 4500 HZ NSC 16/08 Q1015 NOSIG
ZBSJ,2016-04-27 03:00,ZBSJ 270300Z 01003MPS 5000 HZ NSC 16/07 Q1015 NOSIG
ZBSJ,2016-04-27 04:00,ZBSJ 270400Z 36002MPS 320V040 7000 NSC 17/07 Q1015 NOSIG
ZBSJ,2016-04-27 05:00,ZBSJ 270500Z 33004MPS 8000 NSC 17/08 Q1014 NOSIG
ZBSJ,2016-04-27 06:00,ZBSJ 270600Z 33004MPS 8000 NSC 17/09 Q1014 NOSIG
ZBSJ,2016-04-27 07:00,ZBSJ 270700Z 34004MPS 6000 -RA NSC 17/10 Q1014 NOSIG
ZBSJ,2016-04-27 08:00,ZBSJ 270800Z 34002MPS 5000 -RA HZ NSC 17/12 Q1014 NOSIG
ZBSJ,2016-04-27 09:00,ZBSJ 270900Z 33003MPS 4500 -RA BR NSC 16/12 Q1014 NOSIG
ZBSJ,2016-04-27 10:00,ZBSJ 271000Z 31004MPS 4000 -RA BR NSC 16/12 Q1014 NOSIG
ZBSJ,2016-04-27 11:00,ZBSJ 271100Z 30004MPS 3500 BR NSC 15/12 Q1014 NOSIG
ZBSJ,2016-04-27 12:00,ZBSJ 271200Z 30004MPS 5000 BR NSC 14/11 Q1015 NOSIG
ZBSJ,2016-04-27 13:00,ZBSJ 271300Z 27003MPS 200V320 4000 BR NSC 14/12 Q1015 NOSIG
ZBSJ,2016-04-27 14:00,ZBSJ 271400Z 29003MPS 3200 BR NSC 13/11 Q1015 NOSIG
ZBSJ,2016-04-27 15:00,ZBSJ 271500Z 29005MPS 4000 BR NSC 14/10 Q1015 NOSIG
ZBSJ,2016-04-27 16:00,ZBSJ 271600Z 29005MPS 4000 BR NSC 14/11 Q1015 NOSIG
ZBSJ,2016-04-27 17:00,ZBSJ 271700Z 28006MPS 4500 BR NSC 14/11 Q1014 NOSIG
ZBSJ,2016-04-27 18:00,ZBSJ 271800Z 24002MPS 180V300 4500 BR NSC 14/11 Q1014 NOSIG
ZBSJ,2016-04-27 19:00,ZBSJ 271900Z 04002MPS 4500 -RA BR NSC 14/11 Q1015 NOSIG
ZBSJ,2016-04-27 20:00,ZBSJ 272000Z 26002MPS 5000 BR NSC 14/11 Q1015 NOSIG
ZBSJ,2016-04-27 21:00,ZBSJ 272100Z 23003MPS 5000 BR NSC 14/11 Q1015 NOSIG
ZBSJ,2016-04-27 22:00,ZBSJ 272200Z 23002MPS 210V280 2200 BR NSC 13/11 Q1015 NOSIG
ZBSJ,2016-04-27 23:00,ZBSJ 272300Z 25002MPS 3000 BR NSC 14/11 Q1015 BECMG TL0030 2500 BR
ZBSJ,2016-04-28 00:00,ZBSJ 280000Z 30003MPS 260V360 2800 HZ NSC 17/12 Q1016 BECMG TL0130 3500
ZBSJ,2016-04-28 01:00,ZBSJ 280100Z 29003MPS 7000 NSC 19/12 Q1017 NOSIG
ZBSJ,2016-04-28 02:00,ZBSJ 280200Z 24004MPS CAVOK 21/11 Q1017 NOSIG
ZBSJ,2016-04-28 03:00,ZBSJ 280300Z 23004MPS 200V260 CAVOK 23/09 Q1017 NOSIG
ZBSJ,2016-04-28 04:00,ZBSJ 280400Z 27002MPS CAVOK 25/09 Q1016 NOSIG
ZBSJ,2016-04-28 05:00,ZBSJ 280500Z 18003MPS 120V250 CAVOK 25/07 Q1016 NOSIG
ZBSJ,2016-04-28 06:00,ZBSJ 280600Z 18003MPS 100V220 CAVOK 26/07 Q1015 NOSIG
ZBSJ,2016-04-28 07:00,ZBSJ 280700Z 18004MPS 150V280 CAVOK 26/10 Q1014 NOSIG
ZBSJ,2016-04-28 08:00,ZBSJ 280800Z 19004MPS CAVOK 25/10 Q1014 NOSIG
ZBSJ,2016-04-28 09:00,ZBSJ 280900Z 18004MPS CAVOK 24/11 Q1013 NOSIG
ZBSJ,2016-04-28 10:00,ZBSJ 281000Z 17004MPS CAVOK 22/12 Q1013 NOSIG
ZBSJ,2016-04-28 11:00,ZBSJ 281100Z 18003MPS 5000 HZ NSC 20/12 Q1013 NOSIG
ZBSJ,2016-04-28 12:00,ZBSJ 281200Z 18004MPS 5000 HZ NSC 18/12 Q1013 NOSIG
ZBSJ,2016-04-28 13:00,ZBSJ 281300Z 18003MPS 4000 HZ NSC 17/12 Q1014 NOSIG
ZBSJ,2016-04-28 14:00,ZBSJ 281400Z 18004MPS 4000 HZ NSC 17/11 Q1014 NOSIG
ZBSJ,2016-04-28 15:00,ZBSJ 281500Z 17002MPS 4500 BR NSC 13/10 Q1013 NOSIG
ZBSJ,2016-04-28 16:00,ZBSJ 281600Z 20003MPS 4500 HZ NSC 16/11 Q1013 NOSIG
ZBSJ,2016-04-28 17:00,ZBSJ 281700Z 19003MPS 4000 HZ NSC 15/11 Q1012 NOSIG
ZBSJ,2016-04-28 18:00,ZBSJ 281800Z 18003MPS 3000 BR NSC 13/11 Q1012 NOSIG
ZBSJ,2016-04-28 19:00,ZBSJ 281900Z 17002MPS 2300 BR NSC 11/09 Q1011 NOSIG
ZBSJ,2016-04-28 20:00,ZBSJ 282000Z 18001MPS 2300 BR NSC 11/10 Q1011 NOSIG
ZBSJ,2016-04-28 21:00,ZBSJ 282100Z 16002MPS 1800 BR NSC 10/09 Q1010 NOSIG
ZBSJ,2016-04-28 22:00,ZBSJ 282200Z 18001MPS 1400 R15/1500N BR NSC 10/09 Q1010 NOSIG
ZBSJ,2016-04-28 23:00,ZBSJ 282300Z 17001MPS 1400 R15/1300N BR NSC 13/12 Q1010 BECMG TL0030 2000
ZBSJ,2016-04-29 00:00,ZBSJ 290000Z 21002MPS 1400 R15/1500U BR NSC 16/12 Q1011 BECMG TL0130 2000
ZBSJ,2016-04-29 01:00,ZBSJ 290100Z 17002MPS 2200 HZ NSC 21/13 Q1010 BECMG TL0230 3500
ZBSJ,2016-04-29 02:00,ZBSJ 290200Z 18003MPS 4500 HZ NSC 24/14 Q1009 NOSIG
ZBSJ,2016-04-29 03:00,ZBSJ 290300Z 16004MPS 6000 NSC 26/13 Q1008 NOSIG
ZBSJ,2016-04-29 04:00,ZBSJ 290400Z 18005MPS 6000 NSC 27/13 Q1007 NOSIG
ZBSJ,2016-04-29 05:00,ZBSJ 290500Z 17006MPS 6000 NSC 28/14 Q1006 NOSIG
ZBSJ,2016-04-29 06:00,ZBSJ 290600Z 17007MPS 8000 NSC 29/15 Q1005 NOSIG
ZBSJ,2016-04-29 07:00,ZBSJ 290700Z 17008MPS 9999 FEW046 29/14 Q1003 NOSIG
ZBSJ,2016-04-29 08:00,ZBSJ 290800Z 18008MPS 9999 SCT046 29/15 Q1002 NOSIG
ZBSJ,2016-04-29 09:00,ZBSJ 290900Z 18006MPS CAVOK 26/15 Q1002 NOSIG
ZBSJ,2016-04-29 10:00,ZBSJ 291000Z 19006MPS CAVOK 26/15 Q1002 NOSIG
ZBSJ,2016-04-29 11:00,ZBSJ 291100Z 18006MPS 7000 NSC 24/15 Q1001 NOSIG
ZBSJ,2016-04-29 12:00,ZBSJ 291200Z 18006MPS 8000 NSC 23/14 Q1001 NOSIG
ZBSJ,2016-04-29 13:00,ZBSJ 291300Z 18004MPS 8000 NSC 22/15 Q1001 NOSIG
ZBSJ,2016-04-29 14:00,ZBSJ 291400Z 02002MPS 6000 NSC 19/15 Q1003 NOSIG
ZBSJ,2016-04-29 15:00,ZBSJ 291500Z 08003MPS 040V120 6000 NSC 20/15 Q1003 NOSIG
ZBSJ,2016-04-29 16:00,ZBSJ 291600Z 13002MPS 090V160 6000 NSC 20/14 Q1002 NOSIG
ZBSJ,2016-04-29 17:00,ZBSJ 291700Z VRB02MPS 6000 NSC 17/14 Q1002 NOSIG
ZBSJ,2016-04-29 18:00,ZBSJ 291800Z 01002MPS 4500 BR NSC 16/14 Q1003 NOSIG
ZBSJ,2016-04-29 19:00,ZBSJ 291900Z 11001MPS 4000 BR NSC 15/13 Q1002 NOSIG
ZBSJ,2016-04-29 20:00,ZBSJ 292000Z 00000MPS 3500 BR NSC 14/13 Q1002 NOSIG
ZBSJ,2016-04-29 21:00,ZBSJ 292100Z 29002MPS 3500 BR NSC 14/12 Q1003 NOSIG
ZBSJ,2016-04-29 22:00,ZBSJ 292200Z 33002MPS 2500 BR NSC 15/14 Q1003 NOSIG
ZBSJ,2016-04-29 23:00,ZBSJ 292300Z 32002MPS 2700 R33/1400U BR NSC 18/16 Q1003 BECMG TL0030 3500
ZBSJ,2016-04-30 00:00,ZBSJ 300000Z 33002MPS 290V360 2700 BR NSC 21/16 Q1004 BECMG TL0130 3500
ZBSJ,2016-04-30 01:00,ZBSJ 300100Z 35001MPS 3000 BR NSC 23/16 Q1004 NOSIG
ZBSJ,2016-04-30 02:00,ZBSJ 300200Z 04001MPS 3500 HZ NSC 25/17 Q1004 NOSIG
ZBSJ,2016-04-30 03:00,ZBSJ 300300Z 07003MPS 030V110 4500 HZ NSC 27/16 Q1003 NOSIG
ZBSJ,2016-04-30 04:00,ZBSJ 300400Z 09003MPS 060V130 5000 HZ NSC 28/17 Q1002 NOSIG
ZBSJ,2016-04-30 05:00,ZBSJ 300500Z 13004MPS 6000 NSC 29/17 Q1002 NOSIG
ZBSJ,2016-04-30 06:00,ZBSJ 300600Z 14004MPS 100V170 7000 NSC 30/17 Q1001 NOSIG
ZBSJ,2016-04-30 07:00,ZBSJ 300700Z 14003MPS 100V160 7000 NSC 30/18 Q1000 NOSIG
ZBSJ,2016-04-30 08:00,ZBSJ 300800Z 16004MPS 7000 NSC 31/16 Q0999 NOSIG
ZBSJ,2016-04-30 09:00,ZBSJ 300900Z 16003MPS 6000 NSC 28/18 Q1000 NOSIG
ZBSJ,2016-04-30 10:00,ZBSJ 301000Z 14003MPS 6000 NSC 26/18 Q0999 NOSIG
ZBSJ,2016-04-30 11:00,ZBSJ 301100Z 15004MPS 5000 HZ NSC 26/18 Q0999 NOSIG
ZBSJ,2016-04-30 12:00,ZBSJ 301200Z 35001MPS 6000 NSC 26/17 Q1000 NOSIG
ZBSJ,2016-04-30 13:00,ZBSJ 301300Z 33002MPS 6000 NSC 24/18 Q1000 NOSIG
ZBSJ,2016-04-30 14:00,ZBSJ 301400Z 22002MPS 6000 NSC 24/17 Q1001 NOSIG
ZBSJ,2016-04-30 15:00,ZBSJ 301500Z 00000MPS 5000 BR NSC 22/18 Q1001 NOSIG
ZBSJ,2016-04-30 16:00,ZBSJ 301600Z 35001MPS 5000 BR NSC 20/17 Q1001 NOSIG
ZBSJ,2016-04-30 17:00,ZBSJ 301700Z 00000MPS 4500 BR NSC 20/18 Q1000 NOSIG
ZBSJ,2016-04-30 18:00,ZBSJ 301800Z 19001MPS 4000 BR NSC 19/17 Q0999 NOSIG
ZBSJ,2016-04-30 19:00,ZBSJ 301900Z 25001MPS 4000 BR NSC 17/16 Q0999 NOSIG
ZBSJ,2016-04-30 20:00,ZBSJ 302000Z 33002MPS 4000 BR NSC 18/15 Q0999 NOSIG
ZBSJ,2016-04-30 21:00,ZBSJ 302100Z 07001MPS 3000 BR NSC 17/16 Q1000 NOSIG
ZBSJ,2016-04-30 22:00,ZBSJ 302200Z 07001MPS 1600 BR NSC 16/15 Q1000 BECMG TL2330 1400 BR
ZBSJ,2016-04-30 23:00,ZBSJ 302300Z 00000MPS 1300 R15/1300U BR NSC 20/18 Q1000 BECMG TL0030 1600
ZBSJ,2016-05-01 00:00,ZBSJ 010000Z 09001MPS 1600 BR NSC 23/17 Q1000 BECMG TL0130 3000
ZBSJ,2016-05-01 01:00,ZBSJ 010100Z 07001MPS 2500 HZ NSC 25/16 Q1000 BECMG TL0230 3000
ZBSJ,2016-05-01 02:00,ZBSJ 010200Z 16002MPS 4000 HZ NSC 27/16 Q1000 NOSIG
ZBSJ,2016-05-01 03:00,ZBSJ 010300Z 10002MPS 4500 HZ NSC 29/17 Q1000 NOSIG
ZBSJ,2016-05-01 04:00,ZBSJ 010400Z 13003MPS 4000 HZ NSC 30/20 Q0999 NOSIG
ZBSJ,2016-05-01 05:00,ZBSJ 010500Z 14005MPS 7000 NSC 31/19 Q0999 NOSIG
ZBSJ,2016-05-01 06:00,ZBSJ 010600Z 16007MPS CAVOK 32/17 Q0998 NOSIG
ZBSJ,2016-05-01 07:00,ZBSJ 010700Z 17007MPS CAVOK 31/15 Q0997 NOSIG
ZBSJ,2016-05-01 08:00,ZBSJ 010800Z 17008MPS CAVOK 30/14 Q0997 NOSIG
ZBSJ,2016-05-01 09:00,ZBSJ 010900Z 17007MPS CAVOK 29/16 Q0997 NOSIG
ZBSJ,2016-05-01 10:00,ZBSJ 011000Z 17007MPS CAVOK 27/15 Q0997 NOSIG
ZBSJ,2016-05-01 11:00,ZBSJ 011100Z 17005MPS CAVOK 25/16 Q0998 NOSIG
ZBSJ,2016-05-01 12:00,ZBSJ 011200Z 18003MPS CAVOK 25/16 Q0999 NOSIG
ZBSJ,2016-05-01 13:00,ZBSJ 011300Z 19003MPS 130V270 9999 OVC046 23/17 Q1000 RETS NOSIG
ZBSJ,2016-05-01 14:00,ZBSJ 011400Z 12002MPS 090V160 9999 OVC046 24/17 Q1001 NOSIG
ZBSJ,2016-05-01 15:00,ZBSJ 011500Z 13003MPS CAVOK 23/17 Q1001 NOSIG
ZBSJ,2016-05-01 16:00,ZBSJ 011600Z 11002MPS CAVOK 22/17 Q1001 NOSIG
ZBSJ,2016-05-01 17:00,ZBSJ 011700Z 05001MPS CAVOK 20/17 Q1001 NOSIG
ZBSJ,2016-05-01 18:00,ZBSJ 011800Z 03002MPS CAVOK 20/17 Q1001 NOSIG
ZBSJ,2016-05-01 19:00,ZBSJ 011900Z 03001MPS CAVOK 20/17 Q1001 NOSIG
ZBSJ,2016-05-01 20:00,ZBSJ 012000Z 33002MPS CAVOK 20/17 Q1002 NOSIG
ZBSJ,2016-05-01 21:00,ZBSJ 012100Z 34004MPS CAVOK 22/13 Q1003 NOSIG
ZBSJ,2016-05-01 22:00,ZBSJ 012200Z 33009MPS 9999 BKN040 21/06 Q1005 NOSIG
ZBSJ,2016-05-01 23:00,ZBSJ 012300Z 34010MPS 9999 -SHRA BKN040 18/06 Q1006 NOSIG
ZBSJ,2016-05-02 00:00,ZBSJ 020000Z 34008MPS 9999 BKN046 17/07 Q1008 NOSIG
ZBSJ,2016-05-02 01:00,ZBSJ 020100Z 34008MPS 9999 OVC046 16/07 Q1008 NOSIG
ZBSJ,2016-05-02 02:00,ZBSJ 020200Z 33007MPS 9999 -RA OVC046 16/07 Q1010 NOSIG
ZBSJ,2016-05-02 03:00,ZBSJ 020300Z 01002MPS 9999 -RA OVC046 13/10 Q1010 NOSIG
ZBSJ,2016-05-02 04:00,ZBSJ 020400Z 01001MPS 9999 -RA OVC046 14/11 Q1011 NOSIG
ZBSJ,2016-05-02 05:00,ZBSJ 020500Z 02002MPS 9999 -RA OVC046 14/11 Q1010 NOSIG
ZBSJ,2016-05-02 06:00,ZBSJ 020600Z 02003MPS 340V070 CAVOK 15/10 Q1009 NOSIG
ZBSJ,2016-05-02 07:00,ZBSJ 020700Z 05003MPS 020V090 CAVOK 17/11 Q1008 NOSIG
ZBSJ,2016-05-02 08:00,ZBSJ 020800Z 10003MPS CAVOK 17/11 Q1008 NOSIG
ZBSJ,2016-05-02 09:00,ZBSJ 020900Z 09003MPS 070V130 CAVOK 16/11 Q1008 NOSIG
ZBSJ,2016-05-02 10:00,ZBSJ 021000Z 10003MPS 070V150 CAVOK 16/10 Q1008 NOSIG
ZBSJ,2016-05-02 11:00,ZBSJ 021100Z 11002MPS CAVOK 14/11 Q1009 NOSIG
ZBSJ,2016-05-02 12:00,ZBSJ 021200Z 09001MPS CAVOK 12/10 Q1009 NOSIG
ZBSJ,2016-05-02 13:00,ZBSJ 021300Z 12001MPS CAVOK 11/09 Q1010 NOSIG
ZBSJ,2016-05-02 14:00,ZBSJ 021400Z 12001MPS CAVOK 10/09 Q1009 NOSIG
ZBSJ,2016-05-02 15:00,ZBSJ 021500Z 17001MPS CAVOK 10/09 Q1009 NOSIG
ZBSJ,2016-05-02 16:00,ZBSJ 021600Z 28001MPS CAVOK 09/08 Q1008 NOSIG
ZBSJ,2016-05-02 17:00,ZBSJ 021700Z 06001MPS CAVOK 08/07 Q1007 NOSIG
ZBSJ,2016-05-02 18:00,ZBSJ 021800Z 26001MPS 8000 NSC 10/10 Q1007 NOSIG
ZBSJ,2016-05-02 19:00,ZBSJ 021900Z 20001MPS 6000 NSC 09/08 Q1006 NOSIG
ZBSJ,2016-05-02 20:00,ZBSJ 022000Z 28006MPS CAVOK 12/05 Q1006 NOSIG
ZBSJ,2016-05-02 21:00,ZBSJ 022100Z 30006MPS CAVOK 13/02 Q1006 NOSIG
ZBSJ,2016-05-02 22:00,ZBSJ 022200Z 28005MPS CAVOK 13/02 Q1006 NOSIG
ZBSJ,2016-05-02 23:00,ZBSJ 022300Z 28006MPS CAVOK 15/03 Q1006 NOSIG
ZBSJ,2016-05-03 00:00,ZBSJ 030000Z 28007MPS CAVOK 18/03 Q1006 NOSIG
ZBSJ,2016-05-03 01:00,ZBSJ 030100Z 29006MPS CAVOK 21/03 Q1006 NOSIG
ZBSJ,2016-05-03 02:00,ZBSJ 030200Z 31010MPS CAVOK 24/M02 Q1006 NOSIG
ZBSJ,2016-05-03 03:00,ZBSJ 030300Z 31011G16MPS CAVOK 25/M05 Q1005 NOSIG
ZBSJ,2016-05-03 04:00,ZBSJ 030400Z 32010MPS CAVOK 26/M06 Q1005 NOSIG
ZBSJ,2016-05-03 05:00,ZBSJ 030500Z 32010MPS CAVOK 27/M07 Q1004 NOSIG
ZBSJ,2016-05-03 06:00,ZBSJ 030600Z 32007MPS 280V340 CAVOK 28/M04 Q1003 NOSIG
ZBSJ,2016-05-03 07:00,ZBSJ 030700Z 31005MPS 9999 FEW033 28/M06 Q1002 NOSIG
ZBSJ,2016-05-03 08:00,ZBSJ 030800Z 31006MPS 9999 FEW033 28/M06 Q1002 NOSIG
ZBSJ,2016-05-03 09:00,ZBSJ 030900Z 31004MPS 290V360 9999 FEW033 28/M03 Q1002 NOSIG
ZBSJ,2016-05-03 10:00,ZBSJ 031000Z 30003MPS CAVOK 27/M01 Q1002 NOSIG
ZBSJ,2016-05-03 11:00,ZBSJ 031100Z 30002MPS CAVOK 21/02 Q1002 NOSIG
ZBSJ,2016-05-03 12:00,ZBSJ 031200Z 29001MPS CAVOK 20/01 Q1003 NOSIG
ZBSJ,2016-05-03 13:00,ZBSJ 031300Z 20001MPS CAVOK 17/04 Q1004 NOSIG
ZBSJ,2016-05-03 14:00,ZBSJ 031400Z 22001MPS CAVOK 16/02 Q1004 NOSIG
ZBSJ,2016-05-03 15:00,ZBSJ 031500Z 19001MPS CAVOK 16/02 Q1004 NOSIG
ZBSJ,2016-05-03 16:00,ZBSJ 031600Z 22001MPS CAVOK 18/01 Q1005 NOSIG
ZBSJ,2016-05-03 17:00,ZBSJ 031700Z 30001MPS CAVOK 14/02 Q1005 NOSIG
ZBSJ,2016-05-03 18:00,ZBSJ 031800Z 01001MPS CAVOK 10/04 Q1005 NOSIG
ZBSJ,2016-05-03 19:00,ZBSJ 031900Z 31003MPS CAVOK 11/02 Q1005 NOSIG
ZBSJ,2016-05-03 20:00,ZBSJ 032000Z 33002MPS CAVOK 11/01 Q1005 NOSIG
ZBSJ,2016-05-03 21:00,ZBSJ 032100Z 34003MPS CAVOK 12/02 Q1005 NOSIG
ZBSJ,2016-05-03 22:00,ZBSJ 032200Z 30001MPS CAVOK 12/02 Q1006 NOSIG
ZBSJ,2016-05-03 23:00,ZBSJ 032300Z 29003MPS CAVOK 16/03 Q1006 NOSIG
ZBSJ,2016-05-04 00:00,ZBSJ 040000Z 32002MPS CAVOK 20/04 Q1007 NOSIG
ZBSJ,2016-05-04 01:00,ZBSJ 040100Z 30002MPS 260V340 CAVOK 22/04 Q1007 NOSIG
ZBSJ,2016-05-04 02:00,ZBSJ 040200Z 05001MPS CAVOK 23/06 Q1006 NOSIG
ZBSJ,2016-05-04 03:00,ZBSJ 040300Z 05001MPS CAVOK 25/08 Q1006 NOSIG
ZBSJ,2016-05-04 04:00,ZBSJ 040400Z 07002MPS 360V140 CAVOK 26/08 Q1005 NOSIG
ZBSJ,2016-05-04 05:00,ZBSJ 040500Z 12003MPS 080V150 CAVOK 27/08 Q1004 NOSIG
ZBSJ,2016-05-04 06:00,ZBSJ 040600Z 12003MPS 090V160 CAVOK 28/08 Q1003 NOSIG
ZBSJ,2016-05-04 07:00,ZBSJ 040700Z 17004MPS CAVOK 29/07 Q1002 NOSIG
ZBSJ,2016-05-04 08:00,ZBSJ 040800Z 16003MPS 130V190 CAVOK 30/09 Q1001 NOSIG
ZBSJ,2016-05-04 09:00,ZBSJ 040900Z 15002MPS CAVOK 29/11 Q1001 NOSIG
ZBSJ,2016-05-04 10:00,ZBSJ 041000Z 11002MPS 070V160 CAVOK 27/13 Q1001 NOSIG
ZBSJ,2016-05-04 11:00,ZBSJ 041100Z 09003MPS CAVOK 24/14 Q1002 NOSIG
ZBSJ,2016-05-04 12:00,ZBSJ 041200Z 09003MPS CAVOK 22/14 Q1003 NOSIG
ZBSJ,2016-05-04 13:00,ZBSJ 041300Z 10003MPS CAVOK 22/14 Q1003 NOSIG
ZBSJ,2016-05-04 14:00,ZBSJ 041400Z 08003MPS CAVOK 21/14 Q1004 NOSIG
ZBSJ,2016-05-04 15:00,ZBSJ 041500Z 06003MPS 8000 NSC 20/14 Q1004 NOSIG
ZBSJ,2016-05-04 16:00,ZBSJ 041600Z 07003MPS 8000 NSC 21/14 Q1004 NOSIG
ZBSJ,2016-05-04 17:00,ZBSJ 041700Z 04002MPS 8000 NSC 19/14 Q1003 NOSIG
ZBSJ,2016-05-04 18:00,ZBSJ 041800Z 03002MPS 7000 NSC 18/13 Q1003 NOSIG
ZBSJ,2016-05-04 19:00,ZBSJ 041900Z 04003MPS 7000 NSC 19/11 Q1003 NOSIG
ZBSJ,2016-05-04 20:00,ZBSJ 042000Z 03002MPS 7000 NSC 18/09 Q1003 NOSIG
ZBSJ,2016-05-04 21:00,ZBSJ 042100Z 04001MPS 9000 NSC 17/09 Q1003 NOSIG
ZBSJ,2016-05-04 22:00,ZBSJ 042200Z 05002MPS 9000 NSC 17/07 Q1003 NOSIG
ZBSJ,2016-05-04 23:00,ZBSJ 042300Z 00000MPS CAVOK 18/08 Q1004 NOSIG
ZBSJ,2016-05-05 00:00,ZBSJ 050000Z 35002MPS CAVOK 20/08 Q1005 NOSIG
ZBSJ,2016-05-05 01:00,ZBSJ 050100Z 04002MPS CAVOK 20/08 Q1005 NOSIG
ZBSJ,2016-05-05 02:00,ZBSJ 050200Z 05002MPS CAVOK 20/08 Q1005 NOSIG
ZBSJ,2016-05-05 03:00,ZBSJ 050300Z 04003MPS CAVOK 22/07 Q1006 NOSIG
ZBSJ,2016-05-05 04:00,ZBSJ 050400Z 05002MPS 030V090 CAVOK 22/07 Q1005 NOSIG
ZBSJ,2016-05-05 05:00,ZBSJ 050500Z 06003MPS CAVOK 21/08 Q1005 NOSIG
ZBSJ,2016-05-05 06:00,ZBSJ 050600Z 08002MPS CAVOK 22/10 Q1004 NOSIG
ZBSJ,2016-05-05 07:00,ZBSJ 050700Z 10001MPS CAVOK 22/09 Q1003 NOSIG
ZBSJ,2016-05-05 08:00,ZBSJ 050800Z 12001MPS CAVOK 23/10 Q1002 NOSIG
ZBSJ,2016-05-05 09:00,ZBSJ 050900Z 06001MPS CAVOK 23/12 Q1002 NOSIG
ZBSJ,2016-05-05 10:00,ZBSJ 051000Z 13001MPS CAVOK 23/12 Q1002 NOSIG
ZBSJ,2016-05-05 11:00,ZBSJ 051100Z 11001MPS 7000 NSC 20/13 Q1003 NOSIG
ZBSJ,2016-05-05 12:00,ZBSJ 051200Z 03002MPS 7000 NSC 19/12 Q1004 NOSIG
ZBSJ,2016-05-05 13:00,ZBSJ 051300Z 06001MPS 7000 NSC 15/11 Q1006 NOSIG
ZBSJ,2016-05-05 14:00,ZBSJ 051400Z 06001MPS 7000 NSC 14/11 Q1006 NOSIG
ZBSJ,2016-05-05 15:00,ZBSJ 051500Z 34002MPS 6000 NSC 13/11 Q1007 NOSIG
ZBSJ,2016-05-05 16:00,ZBSJ 051600Z 31002MPS 5000 BR NSC 14/10 Q1008 NOSIG
ZBSJ,2016-05-05 17:00,ZBSJ 051700Z 35003MPS CAVOK 17/M01 Q1009 NOSIG
ZBSJ,2016-05-05 18:00,ZBSJ 051800Z 34004MPS CAVOK 16/M05 Q1010 NOSIG
ZBSJ,2016-05-05 19:00,ZBSJ 051900Z 34005MPS CAVOK 17/M09 Q1011 NOSIG
ZBSJ,2016-05-05 20:00,ZBSJ 052000Z 34004MPS CAVOK 17/M09 Q1011 NOSIG
ZBSJ,2016-05-05 21:00,ZBSJ 052100Z 34005MPS CAVOK 16/M07 Q1012 NOSIG
ZBSJ,2016-05-05 22:00,ZBSJ 052200Z 34005MPS 7000 NSC 16/M07 Q1013 NOSIG
ZBSJ,2016-05-05 23:00,ZBSJ 052300Z 34004MPS 7000 NSC 16/M04 Q1014 NOSIG
ZBSJ,2016-05-06 00:00,ZBSJ 060000Z 34005MPS CAVOK 16/M03 Q1014 NOSIG
ZBSJ,2016-05-06 01:00,ZBSJ 060100Z 34006MPS CAVOK 18/M01 Q1014 NOSIG
ZBSJ,2016-05-06 02:00,ZBSJ 060200Z 34006MPS CAVOK 19/M00 Q1015 NOSIG
ZBSJ,2016-05-06 03:00,ZBSJ 060300Z 34006MPS 310V010 CAVOK 21/M00 Q1014 NOSIG
ZBSJ,2016-05-06 04:00,ZBSJ 060400Z 36005G10MPS CAVOK 21/01 Q1014 NOSIG
ZBSJ,2016-05-06 05:00,ZBSJ 060500Z 34007MPS CAVOK 23/M01 Q1013 NOSIG
ZBSJ,2016-05-06 06:00,ZBSJ 060600Z 34005MPS CAVOK 23/M01 Q1013 NOSIG
ZBSJ,2016-05-06 07:00,ZBSJ 060700Z 30004MPS CAVOK 23/M01 Q1013 NOSIG
ZBSJ,2016-05-06 08:00,ZBSJ 060800Z 31004MPS CAVOK 23/M01 Q1012 NOSIG
ZBSJ,2016-05-06 09:00,ZBSJ 060900Z 27003MPS 240V310 CAVOK 23/M00 Q1012 NOSIG
ZBSJ,2016-05-06 10:00,ZBSJ 061000Z 25004MPS CAVOK 22/01 Q1012 NOSIG
ZBSJ,2016-05-06 11:00,ZBSJ 061100Z 26003MPS CAVOK 21/M01 Q1013 NOSIG
ZBSJ,2016-05-06 12:00,ZBSJ 061200Z 26003MPS CAVOK 20/01 Q1013 NOSIG
ZBSJ,2016-05-06 13:00,ZBSJ 061300Z 24002MPS 210V290 CAVOK 19/00 Q1014 NOSIG
ZBSJ,2016-05-06 14:00,ZBSJ 061400Z 25002MPS CAVOK 18/01 Q1014 NOSIG
ZBSJ,2016-05-06 15:00,ZBSJ 061500Z 21001MPS CAVOK 13/03 Q1015 NOSIG
ZBSJ,2016-05-06 16:00,ZBSJ 061600Z 02001MPS CAVOK 11/05 Q1015 NOSIG
ZBSJ,2016-05-06 17:00,ZBSJ 061700Z 33001MPS CAVOK 13/02 Q1016 NOSIG
ZBSJ,2016-05-06 18:00,ZBSJ 061800Z 32003MPS CAVOK 12/02 Q1016 NOSIG
ZBSJ,2016-05-06 19:00,ZBSJ 061900Z 34002MPS CAVOK 12/02 Q1016 NOSIG
ZBSJ,2016-05-06 20:00,ZBSJ 062000Z 33002MPS CAVOK 11/02 Q1017 NOSIG
ZBSJ,2016-05-06 21:00,ZBSJ 062100Z 33003MPS CAVOK 09/02 Q1018 NOSIG
ZBSJ,2016-05-06 22:00,ZBSJ 062200Z 33003MPS CAVOK 10/02 Q1018 NOSIG
ZBSJ,2016-05-06 23:00,ZBSJ 062300Z 30002MPS CAVOK 15/03 Q1019 NOSIG
ZBSJ,2016-05-07 00:00,ZBSJ 070000Z 29002MPS CAVOK 19/03 Q1020 NOSIG
ZBSJ,2016-05-07 01:00,ZBSJ 070100Z 35002MPS CAVOK 20/00 Q1020 NOSIG
ZBSJ,2016-05-07 02:00,ZBSJ 070200Z 01001MPS CAVOK 22/01 Q1020 NOSIG
ZBSJ,2016-05-07 03:00,ZBSJ 070300Z 12002MPS 060V170 CAVOK 23/M00 Q1020 NOSIG
ZBSJ,2016-05-07 04:00,ZBSJ 070400Z 13002MPS 070V170 CAVOK 24/01 Q1019 NOSIG
ZBSJ,2016-05-07 05:00,ZBSJ 070500Z 18002MPS 120V230 CAVOK 24/M01 Q1019 NOSIG
ZBSJ,2016-05-07 06:00,ZBSJ 070600Z 08002MPS CAVOK 24/M02 Q1018 NOSIG
ZBSJ,2016-05-07 07:00,ZBSJ 070700Z 16003MPS 120V190 CAVOK 25/04 Q1017 NOSIG
ZBSJ,2016-05-07 08:00,ZBSJ 070800Z 18005MPS CAVOK 25/04 Q1017 NOSIG
ZBSJ,2016-05-07 09:00,ZBSJ 070900Z 17005MPS CAVOK 22/01 Q1016 NOSIG
ZBSJ,2016-05-07 10:00,ZBSJ 071000Z 17003MPS CAVOK 21/03 Q1016 NOSIG
ZBSJ,2016-05-07 11:00,ZBSJ 071100Z 15002MPS CAVOK 18/06 Q1016 NOSIG
ZBSJ,2016-05-07 12:00,ZBSJ 071200Z 16002MPS CAVOK 17/06 Q1016 NOSIG
ZBSJ,2016-05-07 13:00,ZBSJ 071300Z 13001MPS CAVOK 15/05 Q1017 NOSIG
ZBSJ,2016-05-07 14:00,ZBSJ 071400Z 14001MPS CAVOK 13/06 Q1017 NOSIG
ZBSJ,2016-05-07 15:00,ZBSJ 071500Z 17002MPS CAVOK 14/05 Q1016 NOSIG
ZBSJ,2016-05-07 16:00,ZBSJ 071600Z 17002MPS CAVOK 13/05 Q1016 NOSIG
ZBSJ,2016-05-07 17:00,ZBSJ 071700Z 22002MPS CAVOK 14/05 Q1016 NOSIG
ZBSJ,2016-05-07 18:00,ZBSJ 071800Z 15001MPS CAVOK 11/06 Q1016 NOSIG
ZBSJ,2016-05-07 19:00,ZBSJ 071900Z 29001MPS CAVOK 11/05 Q1015 NOSIG
ZBSJ,2016-05-07 20:00,ZBSJ 072000Z 32001MPS CAVOK 12/05 Q1014 NOSIG
ZBSJ,2016-05-07 21:00,ZBSJ 072100Z 27001MPS CAVOK 10/05 Q1015 NOSIG
ZBSJ,2016-05-07 22:00,ZBSJ 072200Z 25001MPS CAVOK 11/05 Q1015 NOSIG
ZBSJ,2016-05-07 23:00,ZBSJ 072300Z 34001MPS CAVOK 15/07 Q1015 NOSIG
ZBSJ,2016-05-08 00:00,ZBSJ 080000Z 11001MPS CAVOK 16/07 Q1015 NOSIG
ZBSJ,2016-05-08 01:00,ZBSJ 080100Z 16002MPS 6000 NSC 18/08 Q1015 NOSIG
ZBSJ,2016-05-08 02:00,ZBSJ 080200Z 16003MPS 8000 NSC 20/10 Q1015 NOSIG
ZBSJ,2016-05-08 03:00,ZBSJ 080300Z 18003MPS 140V230 CAVOK 23/10 Q1014 NOSIG
ZBSJ,2016-05-08 04:00,ZBSJ 080400Z 17005MPS CAVOK 23/10 Q1013 NOSIG
ZBSJ,2016-05-08 05:00,ZBSJ 080500Z 17006MPS 140V210 CAVOK 24/11 Q1012 NOSIG
ZBSJ,2016-05-08 06:00,ZBSJ 080600Z 18006MPS CAVOK 24/09 Q1011 NOSIG
ZBSJ,2016-05-08 07:00,ZBSJ 080700Z 16007MPS CAVOK 23/11 Q1011 NOSIG
ZBSJ,2016-05-08 08:00,ZBSJ 080800Z 17006MPS CAVOK 22/10 Q1010 NOSIG
ZBSJ,2016-05-08 09:00,ZBSJ 080900Z 16005MPS CAVOK 21/11 Q1010 NOSIG
ZBSJ,2016-05-08 10:00,ZBSJ 081000Z 17005MPS CAVOK 20/11 Q1010 NOSIG
ZBSJ,2016-05-08 11:00,ZBSJ 081100Z 15003MPS CAVOK 17/10 Q1010 NOSIG
ZBSJ,2016-05-08 12:00,ZBSJ 081200Z 15003MPS CAVOK 15/10 Q1011 NOSIG
ZBSJ,2016-05-08 13:00,ZBSJ 081300Z 15002MPS CAVOK 14/09 Q1011 NOSIG
ZBSJ,2016-05-08 14:00,ZBSJ 081400Z 15002MPS CAVOK 13/08 Q1012 NOSIG
ZBSJ,2016-05-08 15:00,ZBSJ 081500Z 16001MPS CAVOK 13/08 Q1012 NOSIG
ZBSJ,2016-05-08 16:00,ZBSJ 081600Z 17001MPS CAVOK 13/08 Q1012 NOSIG
ZBSJ,2016-05-08 17:00,ZBSJ 081700Z 17001MPS CAVOK 12/08 Q1011 NOSIG
ZBSJ,2016-05-08 18:00,ZBSJ 081800Z 17002MPS CAVOK 11/09 Q1010 NOSIG
ZBSJ,2016-05-08 19:00,ZBSJ 081900Z 19001MPS CAVOK 12/09 Q1010 NOSIG
ZBSJ,2016-05-08 20:00,ZBSJ 082000Z 12001MPS CAVOK 12/09 Q1010 NOSIG
ZBSJ,2016-05-08 21:00,ZBSJ 082100Z 07001MPS 5000 BR NSC 11/09 Q1010 NOSIG
ZBSJ,2016-05-08 22:00,ZBSJ 082200Z 05001MPS 5000 BR NSC 12/10 Q1010 NOSIG
ZBSJ,2016-05-08 23:00,ZBSJ 082300Z 05002MPS 5000 BR NSC 13/11 Q1011 NOSIG
ZBSJ,2016-05-09 00:00,ZBSJ 090000Z 06002MPS 3000 BR NSC 14/11 Q1012 NOSIG
ZBSJ,2016-05-09 01:00,ZBSJ 090100Z 09003MPS 060V130 3000 BR NSC 16/12 Q1012 NOSIG
ZBSJ,2016-05-09 02:00,ZBSJ 090200Z 11002MPS 070V160 3000 HZ NSC 17/11 Q1013 NOSIG
ZBSJ,2016-05-09 03:00,ZBSJ 090300Z 17001MPS 3000 HZ NSC 19/11 Q1013 NOSIG
ZBSJ,2016-05-09 04:00,ZBSJ 090400Z 09002MPS 010V140 4500 HZ NSC 20/12 Q1012 NOSIG
ZBSJ,2016-05-09 05:00,ZBSJ 090500Z 13002MPS 5000 HZ NSC 21/12 Q1012 NOSIG
ZBSJ,2016-05-09 06:00,ZBSJ 090600Z 16003MPS 140V250 8000 NSC 21/12 Q1012 NOSIG
ZBSJ,2016-05-09 07:00,ZBSJ 090700Z 14003MPS 100V170 7000 NSC 21/12 Q1011 NOSIG
ZBSJ,2016-05-09 08:00,ZBSJ 090800Z 15002MPS 6000 NSC 20/12 Q1011 NOSIG
ZBSJ,2016-05-09 09:00,ZBSJ 090900Z 15002MPS 6000 NSC 20/12 Q1011 NOSIG
ZBSJ,2016-05-09 10:00,ZBSJ 091000Z 15002MPS 6000 NSC 20/12 Q1011 NOSIG
ZBSJ,2016-05-09 11:00,ZBSJ 091100Z 19002MPS 6000 NSC 18/12 Q1011 NOSIG
ZBSJ,2016-05-09 12:00,ZBSJ 091200Z 18002MPS 6000 NSC 16/12 Q1012 NOSIG
ZBSJ,2016-05-09 13:00,ZBSJ 091300Z 18002MPS 7000 NSC 15/11 Q1013 NOSIG
ZBSJ,2016-05-09 14:00,ZBSJ 091400Z 20002MPS 6000 NSC 15/12 Q1013 NOSIG
ZBSJ,2016-05-09 15:00,ZBSJ 091500Z 20001MPS 5000 HZ NSC 14/11 Q1012 NOSIG
ZBSJ,2016-05-09 16:00,ZBSJ 091600Z 00000MPS 5000 HZ NSC 13/11 Q1013 NOSIG
ZBSJ,2016-05-09 17:00,ZBSJ 091700Z 26001MPS 5000 BR NSC 14/12 Q1012 NOSIG
ZBSJ,2016-05-09 18:00,ZBSJ 091800Z 16001MPS 5000 BR NSC 12/11 Q1012 NOSIG
ZBSJ,2016-05-09 19:00,ZBSJ 091900Z 22001MPS 4500 BR NSC 12/10 Q1012 NOSIG
ZBSJ,2016-05-09 20:00,ZBSJ 092000Z 21001MPS 4000 BR NSC 14/12 Q1011 NOSIG
ZBSJ,2016-05-09 21:00,ZBSJ 092100Z 00000MPS 3000 BR NSC 11/10 Q1011 NOSIG
ZBSJ,2016-05-09 22:00,ZBSJ 092200Z 00000MPS 2500 BR NSC 11/10 Q1011 NOSIG
ZBSJ,2016-05-09 23:00,ZBSJ 092300Z 33002MPS 2500 BR NSC 15/13 Q1012 BECMG TL0030 3500
ZBSJ,2016-05-10 00:00,ZBSJ 100000Z 31001MPS 2200 HZ NSC 19/13 Q1011 BECMG TL0130 3500
ZBSJ,2016-05-10 01:00,ZBSJ 100100Z 28002MPS 2500 HZ NSC 20/13 Q1012 BECMG TL0230 3000
ZBSJ,2016-05-10 02:00,ZBSJ 100200Z 13001MPS 3000 HZ NSC 22/13 Q1011 NOSIG
ZBSJ,2016-05-10 03:00,ZBSJ 100300Z 15002MPS 4000 HZ NSC 23/13 Q1011 NOSIG
ZBSJ,2016-05-10 04:00,ZBSJ 100400Z 16003MPS 110V190 8000 NSC 24/11 Q1010 NOSIG
ZBSJ,2016-05-10 05:00,ZBSJ 100500Z 15003MPS 100V180 4500 HZ NSC 25/13 Q1009 NOSIG
ZBSJ,2016-05-10 06:00,ZBSJ 100600Z 15004MPS 110V200 8000 NSC 26/13 Q1008 NOSIG
ZBSJ,2016-05-10 07:00,ZBSJ 100700Z 18004MPS 150V210 8000 NSC 26/13 Q1008 NOSIG
ZBSJ,2016-05-10 08:00,ZBSJ 100800Z 16004MPS CAVOK 26/12 Q1007 NOSIG
ZBSJ,2016-05-10 09:00,ZBSJ 100900Z 17004MPS CAVOK 24/13 Q1007 NOSIG
ZBSJ,2016-05-10 10:00,ZBSJ 101000Z 17003MPS 8000 NSC 24/14 Q1007 NOSIG
ZBSJ,2016-05-10 11:00,ZBSJ 101100Z 17003MPS 7000 NSC 21/13 Q1007 NOSIG
ZBSJ,2016-05-10 12:00,ZBSJ 101200Z 17002MPS 7000 NSC 19/13 Q1007 NOSIG
ZBSJ,2016-05-10 13:00,ZBSJ 101300Z 16002MPS 7000 NSC 17/13 Q1008 NOSIG
ZBSJ,2016-05-10 14:00,ZBSJ 101400Z 15002MPS 6000 NSC 17/13 Q1008 NOSIG
ZBSJ,2016-05-10 15:00,ZBSJ 101500Z 15002MPS 5000 BR NSC 16/13 Q1008 NOSIG
ZBSJ,2016-05-10 16:00,ZBSJ 101600Z 15002MPS 4000 BR NSC 15/13 Q1007 NOSIG
ZBSJ,2016-05-10 17:00,ZBSJ 101700Z 15002MPS 4000 BR NSC 15/13 Q1006 NOSIG
ZBSJ,2016-05-10 18:00,ZBSJ 101800Z 15003MPS 3000 BR NSC 16/13 Q1005 NOSIG
ZBSJ,2016-05-10 19:00,ZBSJ 101900Z 15001MPS 3000 BR NSC 15/13 Q1005 NOSIG
ZBSJ,2016-05-10 20:00,ZBSJ 102000Z 15002MPS 2500 BR NSC 14/13 Q1004 NOSIG
ZBSJ,2016-05-10 21:00,ZBSJ 102100Z 13001MPS 2000 BR NSC 14/13 Q1004 NOSIG
ZBSJ,2016-05-10 22:00,ZBSJ 102200Z 20001MPS 1600 BR NSC 14/13 Q1004 NOSIG
ZBSJ,2016-05-10 23:00,ZBSJ 102300Z 18001MPS 1400 R15/1400U BR NSC 16/14 Q1004 BECMG TL2340 1600
ZBSJ,2016-05-11 00:00,ZBSJ 110000Z 21002MPS 1500 BR NSC 18/15 Q1004 BECMG TL0140 3500
ZBSJ,2016-05-11 01:00,ZBSJ 110100Z 18002MPS 140V240 1600 R15/1400N HZ NSC 20/15 Q1003 BECMG TL0230 3500
ZBSJ,2016-05-11 02:00,ZBSJ 110200Z 17002MPS 110V210 2000 HZ NSC 22/15 Q1002 BECMG TL0330 3500
ZBSJ,2016-05-11 03:00,ZBSJ 110300Z 14002MPS 2200 HZ NSC 23/15 Q1002 BECMG TL0430 3500
ZBSJ,2016-05-11 04:00,ZBSJ 110400Z 17003MPS 110V190 2200 HZ NSC 25/17 Q1001 BECMG TL0530 3500
ZBSJ,2016-05-11 05:00,ZBSJ 110500Z 15004MPS 2200 HZ NSC 26/18 Q0999 NOSIG
ZBSJ,2016-05-11 06:00,ZBSJ 110600Z 16005MPS 2500 HZ NSC 26/17 Q0998 BECMG TL0730 3500
ZBSJ,2016-05-11 07:00,ZBSJ 110700Z 17004MPS 3500 HZ NSC 27/18 Q0998 NOSIG
ZBSJ,2016-05-11 08:00,ZBSJ 110800Z 16003MPS 4000 HZ NSC 28/19 Q0997 NOSIG
ZBSJ,2016-05-11 09:00,ZBSJ 110900Z 15002MPS 5000 HZ NSC 28/20 Q0996 NOSIG
ZBSJ,2016-05-11 10:00,ZBSJ 111000Z 13002MPS 6000 NSC 28/20 Q0996 NOSIG
ZBSJ,2016-05-11 11:00,ZBSJ 111100Z 14003MPS 8000 NSC 26/19 Q0996 NOSIG
ZBSJ,2016-05-11 12:00,ZBSJ 111200Z 15004MPS 8000 NSC 26/19 Q0996 NOSIG
ZBSJ,2016-05-11 13:00,ZBSJ 111300Z 15004MPS 8000 NSC 25/20 Q0996 NOSIG
ZBSJ,2016-05-11 14:00,ZBSJ 111400Z 14001MPS 6000 NSC 24/20 Q0996 NOSIG
ZBSJ,2016-05-11 15:00,ZBSJ 111500Z 13002MPS 6000 NSC 24/20 Q0996 NOSIG
ZBSJ,2016-05-11 16:00,ZBSJ 111600Z 13002MPS 5000 BR NSC 23/20 Q0995 NOSIG
ZBSJ,2016-05-11 17:00,ZBSJ 111700Z 24002MPS 3000 BR NSC 21/19 Q0996 NOSIG
ZBSJ,2016-05-11 18:00,ZBSJ 111800Z 27002MPS 2700 BR NSC 21/19 Q0997 NOSIG
ZBSJ,2016-05-11 19:00,ZBSJ 111900Z 33003MPS 4000 BR NSC 21/19 Q0998 NOSIG
ZBSJ,2016-05-11 20:00,ZBSJ 112000Z 01004MPS 340V040 6000 NSC 23/11 Q0999 NOSIG
ZBSJ,2016-05-11 21:00,ZBSJ 112100Z 35008G14MPS CAVOK 23/08 Q1001 NOSIG
ZBSJ,2016-05-11 22:00,ZBSJ 112200Z 34007G12MPS CAVOK 23/07 Q1002 NOSIG
ZBSJ,2016-05-11 23:00,ZBSJ 112300Z 35009G14MPS CAVOK 22/07 Q1005 NOSIG
ZBSJ,2016-05-12 00:00,ZBSJ 120000Z 34008MPS CAVOK 20/05 Q1008 NOSIG
ZBSJ,2016-05-12 01:00,ZBSJ 120100Z 33006MPS CAVOK 19/03 Q1010 NOSIG
ZBSJ,2016-05-12 02:00,ZBSJ 120200Z 34005MPS 9999 -RA NSC 18/06 Q1011 NOSIG
ZBSJ,2016-05-12 03:00,ZBSJ 120300Z 34005G10MPS 9999 -RA NSC 19/04 Q1013 NOSIG
ZBSJ,2016-05-12 04:00,ZBSJ 120400Z 34007G13MPS CAVOK 19/03 Q1014 NOSIG
ZBSJ,2016-05-12 05:00,ZBSJ 120500Z 35008MPS 330V030 CAVOK 18/M02 Q1015 NOSIG
ZBSJ,2016-05-12 06:00,ZBSJ 120600Z 36006G11MPS 330V030 CAVOK 18/M02 Q1016 NOSIG
ZBSJ,2016-05-12 07:00,ZBSJ 120700Z 35005MPS 330V030 CAVOK 21/01 Q1016 NOSIG
ZBSJ,2016-05-12 08:00,ZBSJ 120800Z 36002MPS 310V070 CAVOK 22/M00 Q1016 NOSIG
ZBSJ,2016-05-12 09:00,ZBSJ 120900Z 36004MPS 310V040 CAVOK 22/M01 Q1016 NOSIG
ZBSJ,2016-05-12 10:00,ZBSJ 121000Z 36002MPS CAVOK 22/01 Q1016 NOSIG
ZBSJ,2016-05-12 11:00,ZBSJ 121100Z 08001MPS CAVOK 19/02 Q1016 NOSIG
ZBSJ,2016-05-12 12:00,ZBSJ 121200Z 16001MPS CAVOK 14/03 Q1017 NOSIG
ZBSJ,2016-05-12 13:00,ZBSJ 121300Z 13001MPS CAVOK 12/04 Q1018 NOSIG
ZBSJ,2016-05-12 14:00,ZBSJ 121400Z 19001MPS CAVOK 13/03 Q1019 NOSIG
ZBSJ,2016-05-12 15:00,ZBSJ 121500Z 19001MPS CAVOK 11/04 Q1020 NOSIG
ZBSJ,2016-05-12 16:00,ZBSJ 121600Z 17001MPS CAVOK 11/04 Q1019 NOSIG
ZBSJ,2016-05-12 17:00,ZBSJ 121700Z 00000MPS CAVOK 08/04 Q1020 NOSIG
ZBSJ,2016-05-12 18:00,ZBSJ 121800Z 20001MPS CAVOK 08/05 Q1020 NOSIG
ZBSJ,2016-05-12 19:00,ZBSJ 121900Z 17002MPS CAVOK 07/03 Q1020 NOSIG
ZBSJ,2016-05-12 20:00,ZBSJ 122000Z 22001MPS 8000 NSC 08/04 Q1021 NOSIG
ZBSJ,2016-05-12 21:00,ZBSJ 122100Z 24001MPS 6000 NSC 07/04 Q1022 NOSIG
ZBSJ,2016-05-12 22:00,ZBSJ 122200Z 33001MPS 6000 NSC 07/04 Q1022 NOSIG
ZBSJ,2016-05-12 23:00,ZBSJ 122300Z 22001MPS 3500 FU NSC 12/05 Q1023 NOSIG
ZBSJ,2016-05-13 00:00,ZBSJ 130000Z 28002MPS CAVOK 16/02 Q1023 NOSIG
ZBSJ,2016-05-13 01:00,ZBSJ 130100Z 19001MPS CAVOK 19/03 Q1023 NOSIG
ZBSJ,2016-05-13 02:00,ZBSJ 130200Z 18003MPS 120V240 CAVOK 21/06 Q1023 NOSIG
ZBSJ,2016-05-13 03:00,ZBSJ 130300Z 18007MPS CAVOK 23/01 Q1023 NOSIG
ZBSJ,2016-05-13 04:00,ZBSJ 130400Z 18006MPS CAVOK 23/03 Q1022 NOSIG
ZBSJ,2016-05-13 05:00,ZBSJ 130500Z 18007MPS 150V210 CAVOK 24/02 Q1021 NOSIG
ZBSJ,2016-05-13 06:00,ZBSJ 130600Z 16007MPS CAVOK 24/03 Q1020 NOSIG
ZBSJ,2016-05-13 07:00,ZBSJ 130700Z 18006MPS CAVOK 24/04 Q1019 NOSIG
ZBSJ,2016-05-13 08:00,ZBSJ 130800Z 18005MPS CAVOK 22/05 Q1019 NOSIG
ZBSJ,2016-05-13 09:00,ZBSJ 130900Z 18005MPS CAVOK 21/05 Q1018 NOSIG
ZBSJ,2016-05-13 10:00,ZBSJ 131000Z 18004MPS CAVOK 19/04 Q1018 NOSIG
ZBSJ,2016-05-13 11:00,ZBSJ 131100Z 15002MPS CAVOK 18/06 Q1018 NOSIG
ZBSJ,2016-05-13 12:00,ZBSJ 131200Z 17002MPS CAVOK 16/07 Q1019 NOSIG
ZBSJ,2016-05-13 13:00,ZBSJ 131300Z 18003MPS 9999 -RA BKN046 17/07 Q1020 NOSIG
ZBSJ,2016-05-13 14:00,ZBSJ 131400Z 20006MPS 9999 -RA OVC046 15/09 Q1021 NOSIG
ZBSJ,2016-05-13 15:00,ZBSJ 131500Z 24003MPS 9999 -RA OVC046 13/09 Q1021 NOSIG
ZBSJ,2016-05-13 16:00,ZBSJ 131600Z 24001MPS 9999 -RA OVC046 13/09 Q1020 NOSIG
ZBSJ,2016-05-13 17:00,ZBSJ 131700Z 18003MPS 140V200 9999 -RA OVC046 11/10 Q1020 NOSIG
ZBSJ,2016-05-13 18:00,ZBSJ 131800Z 18003MPS 9999 -RA BKN046 11/10 Q1019 NOSIG
ZBSJ,2016-05-13 19:00,ZBSJ 131900Z 10001MPS 9999 BKN046 11/10 Q1018 NOSIG
ZBSJ,2016-05-13 20:00,ZBSJ 132000Z 00000MPS 8000 BKN046 12/10 Q1018 NOSIG
ZBSJ,2016-05-13 21:00,ZBSJ 132100Z 14001MPS 6000 OVC046 11/10 Q1017 NOSIG
ZBSJ,2016-05-13 22:00,ZBSJ 132200Z 16002MPS 4000 BR OVC046 11/11 Q1018 NOSIG
ZBSJ,2016-05-13 23:00,ZBSJ 132300Z 22001MPS 3000 -RA BR OVC046 12/11 Q1018 NOSIG
ZBSJ,2016-05-14 00:00,ZBSJ 140000Z 23001MPS 3000 -RA BR OVC046 12/11 Q1019 NOSIG
ZBSJ,2016-05-14 01:00,ZBSJ 140100Z 36001MPS 2500 -RA BR OVC046 13/11 Q1018 NOSIG
ZBSJ,2016-05-14 02:00,ZBSJ 140200Z 02001MPS 4000 -RA BR FEW033 OVC046 13/10 Q1018 NOSIG
ZBSJ,2016-05-14 03:00,ZBSJ 140300Z 32001MPS 2700 -RA BR SCT033 OVC046 13/11 Q1019 BECMG TL0430 3000
ZBSJ,2016-05-14 04:00,ZBSJ 140400Z 16001MPS 2500 -RA BR SCT033 OVC046 13/11 Q1018 NOSIG
ZBSJ,2016-05-14 05:00,ZBSJ 140500Z 24001MPS 1600 -RA BR SCT033 OVC046 13/12 Q1018 BECMG TL0630 1400 -RA BR
ZBSJ,2016-05-14 06:00,ZBSJ 140600Z 24001MPS 1700 -RA BR SCT030 OVC046 13/12 Q1017 NOSIG
ZBSJ,2016-05-14 07:00,ZBSJ 140700Z 20002MPS 2200 -RA BR SCT030 OVC046 14/12 Q1016 NOSIG
ZBSJ,2016-05-14 08:00,ZBSJ 140800Z 18004MPS 2200 -RA BR SCT030 OVC046 14/13 Q1015 NOSIG
ZBSJ,2016-05-14 09:00,ZBSJ 140900Z 17001MPS 2200 BR SCT030 OVC046 14/13 Q1015 NOSIG
ZBSJ,2016-05-14 10:00,ZBSJ 141000Z 10001MPS 1800 BR OVC046 14/13 Q1015 NOSIG
ZBSJ,2016-05-14 11:00,ZBSJ 141100Z 15003MPS 1500 BR NSC 14/13 Q1015 NOSIG
ZBSJ,2016-05-14 12:00,ZBSJ 141200Z 10001MPS 1800 BR NSC 13/13 Q1016 NOSIG
ZBSJ,2016-05-14 13:00,ZBSJ 141300Z 19003MPS 1800 BR NSC 14/13 Q1016 NOSIG
ZBSJ,2016-05-14 14:00,ZBSJ 141400Z 01001MPS 1700 BR NSC 13/13 Q1016 NOSIG
ZBSJ,2016-05-14 15:00,ZBSJ 141500Z 27001MPS 1700 BR NSC 13/13 Q1016 NOSIG
ZBSJ,2016-05-14 16:00,ZBSJ 141600Z 31001MPS 2000 BR NSC 13/13 Q1016 NOSIG
ZBSJ,2016-05-14 17:00,ZBSJ 141700Z 27001MPS 2000 BR NSC 13/13 Q1015 NOSIG
ZBSJ,2016-05-14 18:00,ZBSJ 141800Z 22001MPS 1800 BR NSC 13/13 Q1015 NOSIG
ZBSJ,2016-05-14 19:00,ZBSJ 141900Z 26002MPS 2000 BR NSC 13/13 Q1015 NOSIG
ZBSJ,2016-05-14 20:00,ZBSJ 142000Z 29002MPS 2500 BR NSC 13/13 Q1015 NOSIG
ZBSJ,2016-05-14 21:00,ZBSJ 142100Z 30004MPS 7000 NSC 14/10 Q1015 NOSIG
ZBSJ,2016-05-14 22:00,ZBSJ 142200Z 32003MPS CAVOK 13/10 Q1016 NOSIG
ZBSJ,2016-05-14 23:00,ZBSJ 142300Z 33003MPS CAVOK 15/10 Q1016 NOSIG
ZBSJ,2016-05-15 00:00,ZBSJ 150000Z 31004MPS CAVOK 17/09 Q1017 NOSIG
ZBSJ,2016-05-15 01:00,ZBSJ 150100Z 30004MPS CAVOK 20/08 Q1017 NOSIG
ZBSJ,2016-05-15 02:00,ZBSJ 150200Z 30006MPS CAVOK 22/02 Q1017 NOSIG
ZBSJ,2016-05-15 03:00,ZBSJ 150300Z 34005G10MPS 300V010 CAVOK 23/M00 Q1017 NOSIG
ZBSJ,2016-05-15 04:00,ZBSJ 150400Z 33008MPS 310V010 9999 FEW033 24/M00 Q1016 NOSIG
ZBSJ,2016-05-15 05:00,ZBSJ 150500Z 32008G13MPS 9999 FEW033 25/M04 Q1015 NOSIG
ZBSJ,2016-05-15 06:00,ZBSJ 150600Z 32008MPS 9999 FEW033 25/M02 Q1015 NOSIG
ZBSJ,2016-05-15 07:00,ZBSJ 150700Z 33006MPS 290V360 9999 FEW033 25/M02 Q1014 NOSIG
ZBSJ,2016-05-15 08:00,ZBSJ 150800Z 33006MPS 9999 FEW033 25/M02 Q1013 NOSIG
ZBSJ,2016-05-15 09:00,ZBSJ 150900Z 33004MPS 9999 FEW033 25/M02 Q1012 NOSIG
ZBSJ,2016-05-15 10:00,ZBSJ 151000Z 29003MPS 9999 FEW033 25/M02 Q1012 NOSIG
ZBSJ,2016-05-15 11:00,ZBSJ 151100Z 23002MPS CAVOK 21/03 Q1012 NOSIG
ZBSJ,2016-05-15 12:00,ZBSJ 151200Z 22004MPS CAVOK 19/03 Q1012 NOSIG
ZBSJ,2016-05-15 13:00,ZBSJ 151300Z 22004MPS CAVOK 19/01 Q1012 NOSIG
ZBSJ,2016-05-15 14:00,ZBSJ 151400Z 21005MPS CAVOK 18/03 Q1012 NOSIG
ZBSJ,2016-05-15 15:00,ZBSJ 151500Z 19003MPS CAVOK 16/03 Q1012 NOSIG
ZBSJ,2016-05-15 16:00,ZBSJ 151600Z 20003MPS CAVOK 15/04 Q1012 NOSIG
ZBSJ,2016-05-15 17:00,ZBSJ 151700Z 04001MPS CAVOK 11/05 Q1012 NOSIG
ZBSJ,2016-05-15 18:00,ZBSJ 151800Z 28001MPS CAVOK 11/05 Q1012 NOSIG
ZBSJ,2016-05-15 19:00,ZBSJ 151900Z 33002MPS CAVOK 10/05 Q1012 NOSIG
ZBSJ,2016-05-15 20:00,ZBSJ 152000Z 29002MPS 260V330 CAVOK 13/05 Q1012 NOSIG
ZBSJ,2016-05-15 21:00,ZBSJ 152100Z 30003MPS CAVOK 11/04 Q1012 NOSIG
ZBSJ,2016-05-15 22:00,ZBSJ 152200Z 29002MPS CAVOK 13/05 Q1012 NOSIG
ZBSJ,2016-05-15 23:00,ZBSJ 152300Z 29005MPS CAVOK 17/05 Q1012 NOSIG
ZBSJ,2016-05-16 00:00,ZBSJ 160000Z 29005MPS CAVOK 20/07 Q1013 NOSIG
ZBSJ,2016-05-16 01:00,ZBSJ 160100Z 27004MPS CAVOK 24/08 Q1013 NOSIG
ZBSJ,2016-05-16 02:00,ZBSJ 160200Z 25004MPS CAVOK 26/09 Q1012 NOSIG
ZBSJ,2016-05-16 03:00,ZBSJ 160300Z 24003MPS 200V300 CAVOK 28/07 Q1012 NOSIG
ZBSJ,2016-05-16 04:00,ZBSJ 160400Z 23003MPS 180V280 CAVOK 29/03 Q1011 NOSIG
ZBSJ,2016-05-16 05:00,ZBSJ 160500Z 20003MPS 140V260 CAVOK 30/01 Q1010 NOSIG
ZBSJ,2016-05-16 06:00,ZBSJ 160600Z 15002G09MPS CAVOK 31/01 Q1009 NOSIG
ZBSJ,2016-05-16 07:00,ZBSJ 160700Z VRB02MPS CAVOK 30/01 Q1008 NOSIG
ZBSJ,2016-05-16 08:00,ZBSJ 160800Z 15003MPS CAVOK 30/02 Q1007 NOSIG
ZBSJ,2016-05-16 09:00,ZBSJ 160900Z 18005MPS CAVOK 28/10 Q1007 NOSIG
ZBSJ,2016-05-16 10:00,ZBSJ 161000Z 18005MPS CAVOK 26/09 Q1007 NOSIG
ZBSJ,2016-05-16 11:00,ZBSJ 161100Z 17004MPS CAVOK 23/10 Q1007 NOSIG
ZBSJ,2016-05-16 12:00,ZBSJ 161200Z 17003MPS CAVOK 19/11 Q1007 NOSIG
ZBSJ,2016-05-16 13:00,ZBSJ 161300Z 18003MPS CAVOK 21/10 Q1008 NOSIG
ZBSJ,2016-05-16 14:00,ZBSJ 161400Z 18003MPS CAVOK 19/10 Q1008 NOSIG
ZBSJ,2016-05-16 15:00,ZBSJ 161500Z 20001MPS CAVOK 18/10 Q1008 NOSIG
ZBSJ,2016-05-16 16:00,ZBSJ 161600Z 09001MPS CAVOK 14/11 Q1008 NOSIG
ZBSJ,2016-05-16 17:00,ZBSJ 161700Z 00000MPS CAVOK 14/11 Q1008 NOSIG
ZBSJ,2016-05-16 18:00,ZBSJ 161800Z 00000MPS CAVOK 14/11 Q1008 NOSIG
ZBSJ,2016-05-16 19:00,ZBSJ 161900Z 27002MPS CAVOK 14/10 Q1009 NOSIG
ZBSJ,2016-05-16 20:00,ZBSJ 162000Z 00000MPS CAVOK 13/10 Q1009 NOSIG
ZBSJ,2016-05-16 21:00,ZBSJ 162100Z 00000MPS CAVOK 11/08 Q1009 NOSIG
ZBSJ,2016-05-16 22:00,ZBSJ 162200Z 36001MPS CAVOK 12/10 Q1009 NOSIG
ZBSJ,2016-05-16 23:00,ZBSJ 162300Z 22002MPS 8000 NSC 17/11 Q1010 NOSIG
ZBSJ,2016-05-17 00:00,ZBSJ 170000Z 19002MPS 160V250 8000 NSC 20/12 Q1010 NOSIG
ZBSJ,2016-05-17 01:00,ZBSJ 170100Z 18002MPS 150V230 8000 NSC 23/13 Q1011 NOSIG
ZBSJ,2016-05-17 02:00,ZBSJ 170200Z 17003MPS 140V220 8000 NSC 25/14 Q1011 NOSIG
ZBSJ,2016-05-17 03:00,ZBSJ 170300Z 17003MPS 130V190 CAVOK 28/13 Q1010 NOSIG
ZBSJ,2016-05-17 04:00,ZBSJ 170400Z 16005MPS CAVOK 30/13 Q1009 NOSIG
ZBSJ,2016-05-17 05:00,ZBSJ 170500Z 14005MPS CAVOK 28/16 Q1009 NOSIG
ZBSJ,2016-05-17 06:00,ZBSJ 170600Z 17006MPS CAVOK 29/15 Q1009 NOSIG
ZBSJ,2016-05-17 07:00,ZBSJ 170700Z 16006MPS CAVOK 30/14 Q1008 NOSIG
ZBSJ,2016-05-17 08:00,ZBSJ 170800Z 16006MPS CAVOK 29/14 Q1008 NOSIG
ZBSJ,2016-05-17 09:00,ZBSJ 170900Z 17006MPS CAVOK 28/13 Q1008 NOSIG
ZBSJ,2016-05-17 10:00,ZBSJ 171000Z 17005MPS CAVOK 26/14 Q1008 NOSIG
ZBSJ,2016-05-17 11:00,ZBSJ 171100Z 17004MPS CAVOK 24/13 Q1008 NOSIG
ZBSJ,2016-05-17 12:00,ZBSJ 171200Z 16003MPS CAVOK 21/13 Q1009 NOSIG
ZBSJ,2016-05-17 13:00,ZBSJ 171300Z 17003MPS CAVOK 21/12 Q1010 NOSIG
ZBSJ,2016-05-17 14:00,ZBSJ 171400Z 15003MPS CAVOK 18/13 Q1011 NOSIG
ZBSJ,2016-05-17 15:00,ZBSJ 171500Z 16002MPS CAVOK 17/12 Q1011 NOSIG
ZBSJ,2016-05-17 16:00,ZBSJ 171600Z 15002MPS CAVOK 16/12 Q1011 NOSIG
ZBSJ,2016-05-17 17:00,ZBSJ 171700Z 14002MPS CAVOK 17/12 Q1011 NOSIG
ZBSJ,2016-05-17 18:00,ZBSJ 171800Z 18002MPS CAVOK 16/12 Q1011 NOSIG
ZBSJ,2016-05-17 19:00,ZBSJ 171900Z 17001MPS CAVOK 15/12 Q1011 NOSIG
ZBSJ,2016-05-17 20:00,ZBSJ 172000Z 15002MPS 6000 NSC 14/12 Q1011 NOSIG
ZBSJ,2016-05-17 21:00,ZBSJ 172100Z 15001MPS 6000 NSC 14/12 Q1011 NOSIG
ZBSJ,2016-05-17 22:00,ZBSJ 172200Z 15001MPS 5000 BR NSC 15/13 Q1012 NOSIG
ZBSJ,2016-05-17 23:00,ZBSJ 172300Z 16002MPS 4000 BR NSC 17/15 Q1012 NOSIG
ZBSJ,2016-05-18 00:00,ZBSJ 180000Z 17002MPS 3000 BR NSC 19/15 Q1013 NOSIG
ZBSJ,2016-05-18 01:00,ZBSJ 180100Z 18002MPS 3500 BR NSC 21/15 Q1013 NOSIG
ZBSJ,2016-05-18 02:00,ZBSJ 180200Z 16002MPS 3500 BR NSC 22/15 Q1013 NOSIG
ZBSJ,2016-05-18 03:00,ZBSJ 180300Z VRB02MPS 3500 HZ NSC 23/15 Q1013 NOSIG
ZBSJ,2016-05-18 04:00,ZBSJ 180400Z 17003MPS 100V200 3500 HZ NSC 25/16 Q1013 NOSIG
ZBSJ,2016-05-18 05:00,ZBSJ 180500Z 15004MPS 120V190 4000 HZ NSC 26/16 Q1012 NOSIG
ZBSJ,2016-05-18 06:00,ZBSJ 180600Z 14004MPS 5000 HZ NSC 26/17 Q1012 NOSIG
ZBSJ,2016-05-18 07:00,ZBSJ 180700Z 16005MPS 7000 NSC 26/16 Q1012 NOSIG
ZBSJ,2016-05-18 08:00,ZBSJ 180800Z 17005MPS 8000 NSC 26/17 Q1011 NOSIG
ZBSJ,2016-05-18 09:00,ZBSJ 180900Z 16004MPS 8000 NSC 26/17 Q1011 NOSIG
ZBSJ,2016-05-18 10:00,ZBSJ 181000Z 16003MPS CAVOK 25/16 Q1011 NOSIG
ZBSJ,2016-05-18 11:00,ZBSJ 181100Z 14002MPS CAVOK 23/16 Q1012 NOSIG
ZBSJ,2016-05-18 12:00,ZBSJ 181200Z 17002MPS CAVOK 20/15 Q1012 NOSIG
ZBSJ,2016-05-18 13:00,ZBSJ 181300Z 17003MPS CAVOK 19/13 Q1013 NOSIG
ZBSJ,2016-05-18 14:00,ZBSJ 181400Z 15002MPS CAVOK 18/12 Q1014 NOSIG
ZBSJ,2016-05-18 15:00,ZBSJ 181500Z 14002MPS 8000 NSC 18/12 Q1014 NOSIG
ZBSJ,2016-05-18 16:00,ZBSJ 181600Z 15001MPS 6000 NSC 15/12 Q1014 NOSIG
ZBSJ,2016-05-18 17:00,ZBSJ 181700Z 00000MPS 6000 NSC 15/12 Q1014 NOSIG
ZBSJ,2016-05-18 18:00,ZBSJ 181800Z 14002MPS 6000 NSC 16/12 Q1013 NOSIG
ZBSJ,2016-05-18 19:00,ZBSJ 181900Z 13003MPS 5000 HZ NSC 17/11 Q1013 NOSIG
ZBSJ,2016-05-18 20:00,ZBSJ 182000Z 18001MPS 5000 BR NSC 15/11 Q1013 NOSIG
ZBSJ,2016-05-18 21:00,ZBSJ 182100Z 00000MPS 3500 BR NSC 13/11 Q1014 NOSIG
ZBSJ,2016-05-18 22:00,ZBSJ 182200Z 08001MPS 2500 BR NSC 13/11 Q1014 BECMG 2330 3000
ZBSJ,2016-05-18 23:00,ZBSJ 182300Z 14001MPS 2300 BR NSC 17/12 Q1014 BECMG 3000
ZBSJ,2016-05-19 00:00,ZBSJ 190000Z 14001MPS 2200 HZ NSC 19/13 Q1014 BECMG TL0130 3000
ZBSJ,2016-05-19 01:00,ZBSJ 190100Z 25001MPS 3000 HZ NSC 21/13 Q1015 BECMG TL0200 2500 HZ
ZBSJ,2016-05-19 02:00,ZBSJ 190200Z 08001MPS 2700 HZ NSC 23/15 Q1015 BECMG TL0300 3500
ZBSJ,2016-05-19 03:00,ZBSJ 190300Z 13003MPS 090V170 2700 HZ NSC 24/15 Q1015 BECMG TL0400 3500
ZBSJ,2016-05-19 04:00,ZBSJ 190400Z 15003MPS 120V190 4000 HZ NSC 25/14 Q1014 NOSIG
ZBSJ,2016-05-19 05:00,ZBSJ 190500Z 13003MPS 100V170 5000 HZ NSC 26/13 Q1014 NOSIG
ZBSJ,2016-05-19 06:00,ZBSJ 190600Z 13003MPS 100V170 CAVOK 27/12 Q1013 NOSIG
ZBSJ,2016-05-19 07:00,ZBSJ 190700Z 13003MPS 070V160 CAVOK 27/11 Q1013 NOSIG
ZBSJ,2016-05-19 08:00,ZBSJ 190800Z 14003MPS CAVOK 27/11 Q1013 NOSIG
ZBSJ,2016-05-19 09:00,ZBSJ 190900Z 13002MPS 100V160 CAVOK 26/12 Q1013 NOSIG
ZBSJ,2016-05-19 10:00,ZBSJ 191000Z 10002MPS 070V140 CAVOK 25/14 Q1013 NOSIG
ZBSJ,2016-05-19 11:00,ZBSJ 191100Z 09002MPS CAVOK 23/13 Q1013 NOSIG
ZBSJ,2016-05-19 12:00,ZBSJ 191200Z 08001MPS CAVOK 20/14 Q1013 NOSIG
ZBSJ,2016-05-19 13:00,ZBSJ 191300Z 08001MPS CAVOK 18/13 Q1014 NOSIG
ZBSJ,2016-05-19 14:00,ZBSJ 191400Z 04001MPS 8000 NSC 17/12 Q1015 NOSIG
ZBSJ,2016-05-19 15:00,ZBSJ 191500Z 07001MPS 6000 NSC 17/12 Q1015 NOSIG
ZBSJ,2016-05-19 16:00,ZBSJ 191600Z 05001MPS 5000 HZ NSC 16/12 Q1014 NOSIG
ZBSJ,2016-05-19 17:00,ZBSJ 191700Z 35001MPS 5000 HZ NSC 16/12 Q1014 NOSIG
ZBSJ,2016-05-19 18:00,ZBSJ 191800Z 04001MPS 4500 HZ NSC 16/12 Q1014 NOSIG
ZBSJ,2016-05-19 19:00,ZBSJ 191900Z 02001MPS 4000 HZ NSC 16/12 Q1014 NOSIG
ZBSJ,2016-05-19 20:00,ZBSJ 192000Z 33002MPS 4000 HZ NSC 16/12 Q1014 NOSIG
ZBSJ,2016-05-19 21:00,ZBSJ 192100Z 32002MPS 4000 HZ NSC 15/12 Q1014 NOSIG
ZBSJ,2016-05-19 22:00,ZBSJ 192200Z 33002MPS 4000 HZ NSC 15/12 Q1014 NOSIG
ZBSJ,2016-05-19 23:00,ZBSJ 192300Z 33002MPS 4000 HZ NSC 18/13 Q1015 NOSIG
ZBSJ,2016-05-20 00:00,ZBSJ 200000Z 32002MPS 4000 HZ NSC 21/12 Q1015 NOSIG
ZBSJ,2016-05-20 01:00,ZBSJ 200100Z 35002MPS 310V020 5000 HZ NSC 22/14 Q1016 NOSIG
ZBSJ,2016-05-20 02:00,ZBSJ 200200Z 34001MPS 5000 HZ NSC 24/14 Q1016 NOSIG
ZBSJ,2016-05-20 03:00,ZBSJ 200300Z 05001MPS 6000 NSC 26/14 Q1016 NOSIG
ZBSJ,2016-05-20 04:00,ZBSJ 200400Z 12002MPS CAVOK 27/13 Q1016 NOSIG
ZBSJ,2016-05-20 05:00,ZBSJ 200500Z 12002MPS CAVOK 27/11 Q1016 NOSIG
ZBSJ,2016-05-20 06:00,ZBSJ 200600Z 07002MPS 020V100 CAVOK 27/10 Q1015 NOSIG
ZBSJ,2016-05-20 07:00,ZBSJ 200700Z 09002MPS 070V140 CAVOK 26/13 Q1015 NOSIG
ZBSJ,2016-05-20 08:00,ZBSJ 200800Z 08002MPS CAVOK 26/14 Q1014 NOSIG
ZBSJ,2016-05-20 09:00,ZBSJ 200900Z 06002MPS CAVOK 26/14 Q1014 NOSIG
ZBSJ,2016-05-20 10:00,ZBSJ 201000Z 08002MPS CAVOK 26/14 Q1014 NOSIG
ZBSJ,2016-05-20 11:00,ZBSJ 201100Z 09001MPS CAVOK 25/14 Q1014 NOSIG
ZBSJ,2016-05-20 12:00,ZBSJ 201200Z 05001MPS CAVOK 21/14 Q1015 NOSIG
ZBSJ,2016-05-20 13:00,ZBSJ 201300Z 21001MPS 8000 NSC 21/14 Q1016 NOSIG
ZBSJ,2016-05-20 14:00,ZBSJ 201400Z 17001MPS 7000 NSC 18/14 Q1016 NOSIG
ZBSJ,2016-05-20 15:00,ZBSJ 201500Z 10001MPS 6000 NSC 17/14 Q1016 NOSIG
ZBSJ,2016-05-20 16:00,ZBSJ 201600Z 00000MPS 5000 BR NSC 17/14 Q1017 NOSIG
ZBSJ,2016-05-20 17:00,ZBSJ 201700Z 35001MPS 5000 BR NSC 17/14 Q1016 NOSIG
ZBSJ,2016-05-20 18:00,ZBSJ 201800Z 33001MPS 5000 BR NSC 15/13 Q1016 NOSIG
ZBSJ,2016-05-20 19:00,ZBSJ 201900Z 28002MPS 5000 BR NSC 17/13 Q1017 NOSIG
ZBSJ,2016-05-20 20:00,ZBSJ 202000Z 30002MPS 5000 BR NSC 15/12 Q1017 NOSIG
ZBSJ,2016-05-20 21:00,ZBSJ 202100Z 27001MPS 4000 BR NSC 14/12 Q1017 NOSIG
ZBSJ,2016-05-20 22:00,ZBSJ 202200Z 31002MPS 3500 BR NSC 15/12 Q1017 NOSIG
ZBSJ,2016-05-20 23:00,ZBSJ 202300Z 34002MPS 3500 BR NSC 18/13 Q1018 NOSIG
ZBSJ,2016-05-21 00:00,ZBSJ 210000Z 34002MPS 3000 HZ NSC 21/14 Q1019 NOSIG
ZBSJ,2016-05-21 01:00,ZBSJ 210100Z 06004MPS 2800 HZ NSC 21/14 Q1018 BECMG TL0230 3000
ZBSJ,2016-05-21 02:00,ZBSJ 210200Z 05004MPS 010V070 3500 HZ NSC 23/14 Q1019 NOSIG
ZBSJ,2016-05-21 03:00,ZBSJ 210300Z 08003MPS 050V130 3500 HZ NSC 25/16 Q1018 NOSIG
ZBSJ,2016-05-21 04:00,ZBSJ 210400Z 08003MPS 020V120 3000 HZ NSC 26/16 Q1018 NOSIG
ZBSJ,2016-05-21 05:00,ZBSJ 210500Z 07003MPS 030V120 4000 HZ NSC 27/15 Q1017 NOSIG
ZBSJ,2016-05-21 06:00,ZBSJ 210600Z 09002MPS 050V170 6000 NSC 28/13 Q1017 NOSIG
ZBSJ,2016-05-21 07:00,ZBSJ 210700Z 07002MPS 020V130 5000 HZ NSC 28/13 Q1016 NOSIG
ZBSJ,2016-05-21 08:00,ZBSJ 210800Z 08002MPS 050V120 6000 NSC 28/15 Q1016 NOSIG
ZBSJ,2016-05-21 09:00,ZBSJ 210900Z 07003MPS 8000 NSC 27/14 Q1016 NOSIG
ZBSJ,2016-05-21 10:00,ZBSJ 211000Z 06002MPS 8000 NSC 26/14 Q1016 NOSIG
ZBSJ,2016-05-21 11:00,ZBSJ 211100Z 03001MPS 8000 NSC 24/15 Q1017 NOSIG
ZBSJ,2016-05-21 12:00,ZBSJ 211200Z 01001MPS 8000 NSC 22/14 Q1017 NOSIG
ZBSJ,2016-05-21 13:00,ZBSJ 211300Z 02001MPS 7000 NSC 21/13 Q1018 NOSIG
ZBSJ,2016-05-21 14:00,ZBSJ 211400Z 16001MPS 7000 NSC 20/14 Q1018 NOSIG
ZBSJ,2016-05-21 15:00,ZBSJ 211500Z 18001MPS 6000 NSC 20/14 Q1018 NOSIG
ZBSJ,2016-05-21 16:00,ZBSJ 211600Z 07002MPS 040V120 6000 NSC 20/13 Q1019 NOSIG
ZBSJ,2016-05-21 17:00,ZBSJ 211700Z 20001MPS 7000 NSC 20/12 Q1019 NOSIG
ZBSJ,2016-05-21 18:00,ZBSJ 211800Z 05002MPS 7000 NSC 18/12 Q1019 NOSIG
ZBSJ,2016-05-21 19:00,ZBSJ 211900Z 06002MPS 7000 NSC 17/11 Q1018 NOSIG
ZBSJ,2016-05-21 20:00,ZBSJ 212000Z 02001MPS CAVOK 16/10 Q1018 NOSIG
ZBSJ,2016-05-21 21:00,ZBSJ 212100Z 06001MPS CAVOK 15/10 Q1018 NOSIG
ZBSJ,2016-05-21 22:00,ZBSJ 212200Z 03001MPS CAVOK 16/09 Q1019 NOSIG
ZBSJ,2016-05-21 23:00,ZBSJ 212300Z 33002MPS 7000 NSC 20/10 Q1019 NOSIG
ZBSJ,2016-05-22 00:00,ZBSJ 220000Z 02002MPS 8000 NSC 21/09 Q1019 NOSIG
ZBSJ,2016-05-22 01:00,ZBSJ 220100Z 01002MPS CAVOK 22/09 Q1019 NOSIG
ZBSJ,2016-05-22 02:00,ZBSJ 220200Z 02002MPS CAVOK 24/08 Q1019 NOSIG
ZBSJ,2016-05-22 03:00,ZBSJ 220300Z 05002MPS 360V110 CAVOK 25/08 Q1019 NOSIG
ZBSJ,2016-05-22 04:00,ZBSJ 220400Z 04002MPS CAVOK 27/09 Q1018 NOSIG
ZBSJ,2016-05-22 05:00,ZBSJ 220500Z 09002MPS 060V190 CAVOK 27/10 Q1017 NOSIG
ZBSJ,2016-05-22 06:00,ZBSJ 220600Z 11002MPS CAVOK 28/09 Q1016 NOSIG
ZBSJ,2016-05-22 07:00,ZBSJ 220700Z 15002MPS 110V190 CAVOK 29/07 Q1015 NOSIG
ZBSJ,2016-05-22 08:00,ZBSJ 220800Z 15003MPS CAVOK 28/07 Q1014 NOSIG
ZBSJ,2016-05-22 09:00,ZBSJ 220900Z 14002MPS CAVOK 27/09 Q1014 NOSIG
ZBSJ,2016-05-22 10:00,ZBSJ 221000Z 16002MPS CAVOK 26/09 Q1014 NOSIG
ZBSJ,2016-05-22 11:00,ZBSJ 221100Z 15001MPS CAVOK 25/10 Q1014 NOSIG
ZBSJ,2016-05-22 12:00,ZBSJ 221200Z 18002MPS CAVOK 23/11 Q1014 NOSIG
ZBSJ,2016-05-22 13:00,ZBSJ 221300Z 16001MPS CAVOK 22/13 Q1015 NOSIG
ZBSJ,2016-05-22 14:00,ZBSJ 221400Z 00000MPS CAVOK 21/13 Q1014 NOSIG
ZBSJ,2016-05-22 15:00,ZBSJ 221500Z 13002MPS CAVOK 20/14 Q1014 NOSIG
ZBSJ,2016-05-22 16:00,ZBSJ 221600Z 16001MPS 8000 NSC 20/13 Q1014 NOSIG
ZBSJ,2016-05-22 17:00,ZBSJ 221700Z 15001MPS 8000 NSC 19/12 Q1013 NOSIG
ZBSJ,2016-05-22 18:00,ZBSJ 221800Z 15001MPS 8000 NSC 19/13 Q1012 NOSIG
ZBSJ,2016-05-22 19:00,ZBSJ 221900Z 14001MPS 6000 NSC 19/14 Q1012 NOSIG
ZBSJ,2016-05-22 20:00,ZBSJ 222000Z 15001MPS 6000 NSC 19/13 Q1011 NOSIG
ZBSJ,2016-05-22 21:00,ZBSJ 222100Z 15001MPS 5000 HZ NSC 19/14 Q1011 NOSIG
ZBSJ,2016-05-22 22:00,ZBSJ 222200Z 12001MPS 4000 HZ NSC 18/14 Q1011 NOSIG
ZBSJ,2016-05-22 23:00,ZBSJ 222300Z 12001MPS 3200 HZ NSC 20/15 Q1011 NOSIG
ZBSJ,2016-05-23 00:00,ZBSJ 230000Z 18002MPS 3000 HZ NSC 21/15 Q1011 BECMG TL0100 2500 HZ
ZBSJ,2016-05-23 01:00,ZBSJ 230100Z 22001MPS 2800 HZ SCT030 22/13 Q1011 BECMG TL0230 3500
ZBSJ,2016-05-23 02:00,ZBSJ 230200Z 17002MPS 4000 -RA HZ SCT030 22/15 Q1010 NOSIG
ZBSJ,2016-05-23 03:00,ZBSJ 230300Z 19002MPS 140V220 6000 -RA BKN040 21/14 Q1010 NOSIG
ZBSJ,2016-05-23 04:00,ZBSJ 230400Z 17003MPS 140V230 5000 -RA BR BKN030 19/15 Q1010 NOSIG
ZBSJ,2016-05-23 05:00,ZBSJ 230500Z 18002MPS 2700 -RA BR FEW040 21/16 Q1009 BECMG TL0630 3500
ZBSJ,2016-05-23 06:00,ZBSJ 230600Z 22002MPS 3000 -RA BR FEW040 21/16 Q1009 BECMG TL0730 2800 -RA BR
ZBSJ,2016-05-23 07:00,ZBSJ 230700Z 26002MPS 6000 -RA FEW040 22/15 Q1008 NOSIG
ZBSJ,2016-05-23 08:00,ZBSJ 230800Z 36001MPS 5000 -RA HZ FEW033 21/15 Q1008 NOSIG
ZBSJ,2016-05-23 09:00,ZBSJ 230900Z 28001MPS 3000 BR OVC046 20/17 Q1008 NOSIG
ZBSJ,2016-05-23 10:00,ZBSJ 231000Z 06001MPS 2000 R33/1300V1700D -RA BR SCT033 BKN046 17/17 Q1008 BECMG TL1130 3500
ZBSJ,2016-05-23 11:00,ZBSJ 231100Z 21001MPS 2000 BR BKN033 18/17 Q1008 BECMG TL1230 3000
ZBSJ,2016-05-23 12:00,ZBSJ 231200Z 26002MPS 3000 BR BKN033 18/17 Q1009 NOSIG
ZBSJ,2016-05-23 13:00,ZBSJ 231300Z 35003MPS 6000 FEW020 17/14 Q1010 NOSIG
ZBSJ,2016-05-23 14:00,ZBSJ 231400Z 34004MPS 9999 FEW020 16/09 Q1010 NOSIG
ZBSJ,2016-05-23 15:00,ZBSJ 231500Z 31003MPS CAVOK 14/09 Q1009 NOSIG
ZBSJ,2016-05-23 16:00,ZBSJ 231600Z 19002MPS CAVOK 13/09 Q1009 NOSIG
ZBSJ,2016-05-23 17:00,ZBSJ 231700Z 18001MPS CAVOK 12/09 Q1009 NOSIG
ZBSJ,2016-05-23 18:00,ZBSJ 231800Z 23002MPS CAVOK 12/10 Q1008 NOSIG
ZBSJ,2016-05-23 19:00,ZBSJ 231900Z 20001MPS 8000 NSC 10/09 Q1008 NOSIG
ZBSJ,2016-05-23 20:00,ZBSJ 232000Z 34001MPS 8000 NSC 10/09 Q1008 NOSIG
ZBSJ,2016-05-23 21:00,ZBSJ 232100Z 29003MPS 8000 NSC 10/08 Q1008 NOSIG
ZBSJ,2016-05-23 22:00,ZBSJ 232200Z 29003MPS CAVOK 14/08 Q1008 NOSIG
ZBSJ,2016-05-23 23:00,ZBSJ 232300Z 28003MPS CAVOK 16/08 Q1008 NOSIG
ZBSJ,2016-05-24 00:00,ZBSJ 240000Z 26003MPS CAVOK 20/10 Q1008 NOSIG
ZBSJ,2016-05-24 01:00,ZBSJ 240100Z 27004MPS 230V300 CAVOK 23/09 Q1007 NOSIG
ZBSJ,2016-05-24 02:00,ZBSJ 240200Z 28005MPS CAVOK 25/08 Q1007 NOSIG
ZBSJ,2016-05-24 03:00,ZBSJ 240300Z 26004MPS 210V310 CAVOK 27/05 Q1006 NOSIG
ZBSJ,2016-05-24 04:00,ZBSJ 240400Z 25004MPS 210V290 CAVOK 28/04 Q1005 NOSIG
ZBSJ,2016-05-24 05:00,ZBSJ 240500Z 20004MPS 150V260 CAVOK 29/04 Q1004 NOSIG
ZBSJ,2016-05-24 06:00,ZBSJ 240600Z 15004MPS 120V200 CAVOK 28/05 Q1003 NOSIG
ZBSJ,2016-05-24 07:00,ZBSJ 240700Z 16005MPS CAVOK 28/07 Q1002 NOSIG
ZBSJ,2016-05-24 08:00,ZBSJ 240800Z 17006MPS CAVOK 28/08 Q1001 NOSIG
ZBSJ,2016-05-24 09:00,ZBSJ 240900Z 17006MPS CAVOK 27/09 Q1001 NOSIG
ZBSJ,2016-05-24 10:00,ZBSJ 241000Z 17005MPS CAVOK 25/08 Q1000 NOSIG
ZBSJ,2016-05-24 11:00,ZBSJ 241100Z 17005MPS CAVOK 23/09 Q1000 NOSIG
ZBSJ,2016-05-24 12:00,ZBSJ 241200Z 19003MPS CAVOK 21/09 Q1001 NOSIG
ZBSJ,2016-05-24 13:00,ZBSJ 241300Z 19004MPS CAVOK 21/10 Q1001 NOSIG
ZBSJ,2016-05-24 14:00,ZBSJ 241400Z 34002MPS CAVOK 20/09 Q1002 NOSIG
ZBSJ,2016-05-24 15:00,ZBSJ 241500Z 01001MPS CAVOK 17/11 Q1003 NOSIG
ZBSJ,2016-05-24 16:00,ZBSJ 241600Z 35004MPS CAVOK 20/10 Q1003 NOSIG
ZBSJ,2016-05-24 17:00,ZBSJ 241700Z 34004MPS CAVOK 21/10 Q1004 NOSIG
ZBSJ,2016-05-24 18:00,ZBSJ 241800Z 34003MPS CAVOK 20/09 Q1004 NOSIG
ZBSJ,2016-05-24 19:00,ZBSJ 241900Z 35004MPS CAVOK 20/08 Q1004 NOSIG
ZBSJ,2016-05-24 20:00,ZBSJ 242000Z 35004MPS CAVOK 19/07 Q1005 NOSIG
ZBSJ,2016-05-24 21:00,ZBSJ 242100Z 35004MPS CAVOK 19/05 Q1006 NOSIG
ZBSJ,2016-05-24 22:00,ZBSJ 242200Z 01002MPS 340V060 CAVOK 20/06 Q1007 NOSIG
ZBSJ,2016-05-24 23:00,ZBSJ 242300Z 32002MPS 290V360 CAVOK 20/07 Q1008 NOSIG
ZBSJ,2016-05-25 00:00,ZBSJ 250000Z 33002MPS CAVOK 19/09 Q1008 NOSIG
ZBSJ,2016-05-25 01:00,ZBSJ 250100Z 34002MPS CAVOK 20/10 Q1008 NOSIG
ZBSJ,2016-05-25 02:00,ZBSJ 250200Z 34002MPS CAVOK 22/10 Q1009 NOSIG
ZBSJ,2016-05-25 03:00,ZBSJ 250300Z 35002MPS CAVOK 23/09 Q1009 NOSIG
ZBSJ,2016-05-25 04:00,ZBSJ 250400Z 29003MPS 250V310 CAVOK 25/09 Q1010 NOSIG
ZBSJ,2016-05-25 05:00,ZBSJ 250500Z 27004MPS 240V310 CAVOK 24/06 Q1009 NOSIG
ZBSJ,2016-05-25 06:00,ZBSJ 250600Z 28004MPS CAVOK 25/06 Q1009 NOSIG
ZBSJ,2016-05-25 07:00,ZBSJ 250700Z 26004MPS CAVOK 25/06 Q1008 NOSIG
ZBSJ,2016-05-25 08:00,ZBSJ 250800Z 27004MPS CAVOK 27/06 Q1008 NOSIG
ZBSJ,2016-05-25 09:00,ZBSJ 250900Z 19003MPS 160V220 CAVOK 25/09 Q1007 NOSIG
ZBSJ,2016-05-25 10:00,ZBSJ 251000Z 18003MPS CAVOK 23/12 Q1007 NOSIG
ZBSJ,2016-05-25 11:00,ZBSJ 251100Z 18002MPS CAVOK 21/09 Q1007 NOSIG
ZBSJ,2016-05-25 12:00,ZBSJ 251200Z 18002MPS CAVOK 18/11 Q1008 NOSIG
ZBSJ,2016-05-25 13:00,ZBSJ 251300Z 17003MPS CAVOK 16/11 Q1008 NOSIG
ZBSJ,2016-05-25 14:00,ZBSJ 251400Z 17002MPS CAVOK 15/11 Q1009 NOSIG
ZBSJ,2016-05-25 15:00,ZBSJ 251500Z 23001MPS CAVOK 16/11 Q1009 NOSIG
ZBSJ,2016-05-25 16:00,ZBSJ 251600Z 25003MPS CAVOK 17/08 Q1008 NOSIG
ZBSJ,2016-05-25 17:00,ZBSJ 251700Z 25003MPS CAVOK 19/06 Q1008 NOSIG
ZBSJ,2016-05-25 18:00,ZBSJ 251800Z 25003MPS CAVOK 19/07 Q1008 NOSIG
ZBSJ,2016-05-25 19:00,ZBSJ 251900Z 26004MPS CAVOK 19/07 Q1008 NOSIG
ZBSJ,2016-05-25 20:00,ZBSJ 252000Z 33002MPS CAVOK 15/08 Q1009 NOSIG
ZBSJ,2016-05-25 21:00,ZBSJ 252100Z 26003MPS CAVOK 18/06 Q1009 NOSIG
ZBSJ,2016-05-25 22:00,ZBSJ 252200Z 29005MPS CAVOK 20/06 Q1010 NOSIG
ZBSJ,2016-05-25 23:00,ZBSJ 252300Z 28005MPS CAVOK 21/07 Q1010 NOSIG
ZBSJ,2016-05-26 00:00,ZBSJ 260000Z 29004MPS CAVOK 22/09 Q1011 NOSIG
ZBSJ,2016-05-26 01:00,ZBSJ 260100Z 31003MPS 280V340 CAVOK 26/09 Q1011 NOSIG
ZBSJ,2016-05-26 02:00,ZBSJ 260200Z 06003MPS CAVOK 26/10 Q1011 NOSIG
ZBSJ,2016-05-26 03:00,ZBSJ 260300Z 06002MPS 010V090 CAVOK 27/07 Q1011 NOSIG
ZBSJ,2016-05-26 04:00,ZBSJ 260400Z 34003MPS 260V060 CAVOK 29/04 Q1011 NOSIG
ZBSJ,2016-05-26 05:00,ZBSJ 260500Z 04002MPS CAVOK 29/03 Q1010 NOSIG
ZBSJ,2016-05-26 06:00,ZBSJ 260600Z 10001MPS CAVOK 29/02 Q1010 NOSIG
ZBSJ,2016-05-26 07:00,ZBSJ 260700Z 13003MPS 090V170 CAVOK 29/05 Q1009 NOSIG
ZBSJ,2016-05-26 08:00,ZBSJ 260800Z 14003MPS CAVOK 29/06 Q1009 NOSIG
ZBSJ,2016-05-26 09:00,ZBSJ 260900Z 14003MPS CAVOK 28/08 Q1009 NOSIG
ZBSJ,2016-05-26 10:00,ZBSJ 261000Z 12003MPS CAVOK 27/09 Q1009 NOSIG
ZBSJ,2016-05-26 11:00,ZBSJ 261100Z 16003MPS CAVOK 21/11 Q1010 NOSIG
ZBSJ,2016-05-26 12:00,ZBSJ 261200Z 17002MPS CAVOK 20/12 Q1010 NOSIG
ZBSJ,2016-05-26 13:00,ZBSJ 261300Z 17002MPS CAVOK 18/12 Q1010 NOSIG
ZBSJ,2016-05-26 14:00,ZBSJ 261400Z 17002MPS CAVOK 18/11 Q1011 NOSIG
ZBSJ,2016-05-26 15:00,ZBSJ 261500Z 03001MPS CAVOK 16/12 Q1011 NOSIG
ZBSJ,2016-05-26 16:00,ZBSJ 261600Z 06001MPS CAVOK 16/12 Q1011 NOSIG
ZBSJ,2016-05-26 17:00,ZBSJ 261700Z 08002MPS CAVOK 16/12 Q1011 NOSIG
ZBSJ,2016-05-26 18:00,ZBSJ 261800Z 13001MPS CAVOK 17/12 Q1010 NOSIG
ZBSJ,2016-05-26 19:00,ZBSJ 261900Z 12001MPS 8000 NSC 17/12 Q1010 NOSIG
ZBSJ,2016-05-26 20:00,ZBSJ 262000Z 30001MPS 8000 NSC 16/12 Q1010 NOSIG
ZBSJ,2016-05-26 21:00,ZBSJ 262100Z 32001MPS 8000 NSC 15/12 Q1011 NOSIG
ZBSJ,2016-05-26 22:00,ZBSJ 262200Z 23001MPS 6000 NSC 16/12 Q1011 NOSIG
ZBSJ,2016-05-26 23:00,ZBSJ 262300Z 00000MPS 6000 NSC 19/14 Q1011 NOSIG
ZBSJ,2016-05-27 00:00,ZBSJ 270000Z 00000MPS 6000 NSC 20/13 Q1012 NOSIG
ZBSJ,2016-05-27 01:00,ZBSJ 270100Z 09001MPS 6000 NSC 22/14 Q1011 NOSIG
ZBSJ,2016-05-27 02:00,ZBSJ 270200Z 17002MPS 5000 HZ NSC 22/16 Q1012 NOSIG
ZBSJ,2016-05-27 03:00,ZBSJ 270300Z 18002MPS 5000 HZ NSC 21/15 Q1012 NOSIG
ZBSJ,2016-05-27 04:00,ZBSJ 270400Z 16003MPS 5000 HZ NSC 22/15 Q1011 NOSIG
ZBSJ,2016-05-27 05:00,ZBSJ 270500Z 18005MPS 4000 HZ NSC 23/13 Q1011 NOSIG
ZBSJ,2016-05-27 06:00,ZBSJ 270600Z 19005MPS 160V220 7000 NSC 25/11 Q1010 NOSIG
ZBSJ,2016-05-27 07:00,ZBSJ 270700Z 19007MPS CAVOK 26/08 Q1010 NOSIG
ZBSJ,2016-05-27 08:00,ZBSJ 270800Z 19006MPS CAVOK 25/07 Q1010 NOSIG
ZBSJ,2016-05-27 09:00,ZBSJ 270900Z 20004MPS CAVOK 24/08 Q1009 NOSIG
ZBSJ,2016-05-27 10:00,ZBSJ 271000Z 20003MPS CAVOK 23/08 Q1009 NOSIG
ZBSJ,2016-05-27 11:00,ZBSJ 271100Z 20002MPS CAVOK 22/09 Q1009 NOSIG
ZBSJ,2016-05-27 12:00,ZBSJ 271200Z 18002MPS CAVOK 19/10 Q1010 NOSIG
ZBSJ,2016-05-27 13:00,ZBSJ 271300Z 17003MPS CAVOK 18/09 Q1010 NOSIG
ZBSJ,2016-05-27 14:00,ZBSJ 271400Z 17003MPS CAVOK 17/10 Q1010 NOSIG
ZBSJ,2016-05-27 15:00,ZBSJ 271500Z 18001MPS CAVOK 16/11 Q1010 NOSIG
ZBSJ,2016-05-27 16:00,ZBSJ 271600Z 18002MPS CAVOK 15/10 Q1010 NOSIG
ZBSJ,2016-05-27 17:00,ZBSJ 271700Z 15002MPS CAVOK 14/10 Q1009 NOSIG
ZBSJ,2016-05-27 18:00,ZBSJ 271800Z 16001MPS CAVOK 12/11 Q1009 NOSIG
ZBSJ,2016-05-27 19:00,ZBSJ 271900Z 20001MPS CAVOK 12/11 Q1008 NOSIG
ZBSJ,2016-05-27 20:00,ZBSJ 272000Z 00000MPS 6000 NSC 11/10 Q1008 NOSIG
ZBSJ,2016-05-27 21:00,ZBSJ 272100Z 18001MPS 4000 BR NSC 11/10 Q1008 NOSIG
ZBSJ,2016-05-27 22:00,ZBSJ 272200Z 20001MPS 4000 BR NSC 12/11 Q1008 NOSIG
ZBSJ,2016-05-27 23:00,ZBSJ 272300Z 24002MPS 2500 BR NSC 16/13 Q1009 BECMG TL0030 3500
ZBSJ,2016-05-28 00:00,ZBSJ 280000Z 26001MPS 4500 HZ NSC 20/11 Q1009 NOSIG
ZBSJ,2016-05-28 01:00,ZBSJ 280100Z 17002MPS 6000 NSC 22/12 Q1008 NOSIG
ZBSJ,2016-05-28 02:00,ZBSJ 280200Z 14002MPS 090V210 CAVOK 23/12 Q1008 NOSIG
ZBSJ,2016-05-28 03:00,ZBSJ 280300Z 14003MPS 100V160 CAVOK 25/10 Q1007 NOSIG
ZBSJ,2016-05-28 04:00,ZBSJ 280400Z 18003MPS 140V230 CAVOK 26/11 Q1007 NOSIG
ZBSJ,2016-05-28 05:00,ZBSJ 280500Z 15003MPS 110V210 CAVOK 27/11 Q1006 NOSIG
ZBSJ,2016-05-28 06:00,ZBSJ 280600Z 16003MPS 090V200 CAVOK 28/12 Q1005 NOSIG
ZBSJ,2016-05-28 07:00,ZBSJ 280700Z 17004MPS 130V190 CAVOK 27/13 Q1005 NOSIG
ZBSJ,2016-05-28 08:00,ZBSJ 280800Z 17006MPS CAVOK 27/14 Q1004 NOSIG
ZBSJ,2016-05-28 09:00,ZBSJ 280900Z 17004MPS CAVOK 26/14 Q1004 NOSIG
ZBSJ,2016-05-28 10:00,ZBSJ 281000Z 17004MPS CAVOK 25/15 Q1005 NOSIG
ZBSJ,2016-05-28 11:00,ZBSJ 281100Z 15003MPS CAVOK 21/15 Q1005 NOSIG
ZBSJ,2016-05-28 12:00,ZBSJ 281200Z 15003MPS CAVOK 19/15 Q1005 NOSIG
ZBSJ,2016-05-28 13:00,ZBSJ 281300Z 17003MPS CAVOK 20/15 Q1005 NOSIG
ZBSJ,2016-05-28 14:00,ZBSJ 281400Z 17003MPS CAVOK 18/15 Q1005 NOSIG
ZBSJ,2016-05-28 15:00,ZBSJ 281500Z 17003MPS CAVOK 17/15 Q1005 NOSIG
ZBSJ,2016-05-28 16:00,ZBSJ 281600Z 17003MPS CAVOK 17/15 Q1005 NOSIG
ZBSJ,2016-05-28 17:00,ZBSJ 281700Z 17002MPS CAVOK 17/14 Q1005 NOSIG
ZBSJ,2016-05-28 18:00,ZBSJ 281800Z 19002MPS CAVOK 17/15 Q1005 NOSIG
ZBSJ,2016-05-28 19:00,ZBSJ 281900Z 16001MPS 8000 NSC 15/14 Q1005 NOSIG
ZBSJ,2016-05-28 20:00,ZBSJ 282000Z 00000MPS 5000 BR NSC 15/14 Q1006 NOSIG
ZBSJ,2016-05-28 21:00,ZBSJ 282100Z 08001MPS 3000 BR NSC 14/13 Q1006 NOSIG
ZBSJ,2016-05-28 22:00,ZBSJ 282200Z 00000MPS 2000 BR NSC 15/14 Q1007 NOSIG
ZBSJ,2016-05-28 23:00,ZBSJ 282300Z 00000MPS 2200 BR NSC 18/16 Q1008 NOSIG
ZBSJ,2016-05-29 00:00,ZBSJ 290000Z 36001MPS 2800 BR NSC 21/16 Q1008 BECMG TL0130 3500
ZBSJ,2016-05-29 01:00,ZBSJ 290100Z 04002MPS 2800 HZ NSC 24/17 Q1009 BECMG TL0130 3500
ZBSJ,2016-05-29 02:00,ZBSJ 290200Z 07003MPS 010V120 4500 HZ NSC 25/16 Q1009 NOSIG
ZBSJ,2016-05-29 03:00,ZBSJ 290300Z 08003MPS 020V130 8000 NSC 27/15 Q1009 NOSIG
ZBSJ,2016-05-29 04:00,ZBSJ 290400Z 10004MPS 070V140 8000 NSC 28/13 Q1009 NOSIG
ZBSJ,2016-05-29 05:00,ZBSJ 290500Z 11004MPS 080V150 CAVOK 28/13 Q1008 NOSIG
ZBSJ,2016-05-29 06:00,ZBSJ 290600Z 09004MPS 060V130 CAVOK 29/13 Q1007 NOSIG
ZBSJ,2016-05-29 07:00,ZBSJ 290700Z 12003MPS 060V150 CAVOK 30/14 Q1006 NOSIG
ZBSJ,2016-05-29 08:00,ZBSJ 290800Z 13003MPS 090V170 CAVOK 30/14 Q1005 NOSIG
ZBSJ,2016-05-29 09:00,ZBSJ 290900Z 15004MPS CAVOK 29/16 Q1005 NOSIG
ZBSJ,2016-05-29 10:00,ZBSJ 291000Z 16003MPS CAVOK 28/16 Q1005 NOSIG
ZBSJ,2016-05-29 11:00,ZBSJ 291100Z 15002MPS CAVOK 25/17 Q1005 NOSIG
ZBSJ,2016-05-29 12:00,ZBSJ 291200Z 12001MPS CAVOK 23/17 Q1005 NOSIG
ZBSJ,2016-05-29 13:00,ZBSJ 291300Z 12002MPS CAVOK 22/17 Q1006 NOSIG
ZBSJ,2016-05-29 14:00,ZBSJ 291400Z 14002MPS CAVOK 22/16 Q1006 NOSIG
ZBSJ,2016-05-29 15:00,ZBSJ 291500Z 15002MPS CAVOK 21/16 Q1006 NOSIG
ZBSJ,2016-05-29 16:00,ZBSJ 291600Z 17002MPS CAVOK 21/16 Q1006 NOSIG
ZBSJ,2016-05-29 17:00,ZBSJ 291700Z 14003MPS 8000 NSC 21/15 Q1005 NOSIG
ZBSJ,2016-05-29 18:00,ZBSJ 291800Z 17002MPS 7000 NSC 19/16 Q1005 NOSIG
ZBSJ,2016-05-29 19:00,ZBSJ 291900Z 21002MPS 5000 BR NSC 19/15 Q1004 NOSIG
ZBSJ,2016-05-29 20:00,ZBSJ 292000Z 22002MPS 5000 BR NSC 19/15 Q1004 NOSIG
ZBSJ,2016-05-29 21:00,ZBSJ 292100Z 19001MPS 3000 BR NSC 17/14 Q1005 NOSIG
ZBSJ,2016-05-29 22:00,ZBSJ 292200Z 00000MPS 2500 BR NSC 17/15 Q1005 NOSIG
ZBSJ,2016-05-29 23:00,ZBSJ 292300Z 16001MPS 2500 BR NSC 21/17 Q1005 BECMG TL0030 3500
ZBSJ,2016-05-30 00:00,ZBSJ 300000Z 15002MPS 2500 BR NSC 23/17 Q1005 BECMG TL0030 3500
ZBSJ,2016-05-30 01:00,ZBSJ 300100Z 17002MPS 130V210 3000 HZ NSC 25/18 Q1005 BECMG TL0230 2800 HZ
ZBSJ,2016-05-30 02:00,ZBSJ 300200Z 16003MPS 130V200 2800 HZ NSC 27/18 Q1005 BECMG TL0330 3000
ZBSJ,2016-05-30 03:00,ZBSJ 300300Z 16005MPS 4000 HZ NSC 29/18 Q1004 NOSIG
ZBSJ,2016-05-30 04:00,ZBSJ 300400Z 17005MPS 6000 NSC 32/20 Q1003 NOSIG
ZBSJ,2016-05-30 05:00,ZBSJ 300500Z 17005MPS 8000 NSC 33/18 Q1003 NOSIG
ZBSJ,2016-05-30 06:00,ZBSJ 300600Z 17007MPS CAVOK 34/19 Q1002 NOSIG
ZBSJ,2016-05-30 07:00,ZBSJ 300700Z 16006MPS CAVOK 34/19 Q1001 NOSIG
ZBSJ,2016-05-30 08:00,ZBSJ 300800Z 17006MPS CAVOK 34/19 Q1001 NOSIG
ZBSJ,2016-05-30 09:00,ZBSJ 300900Z 16005MPS CAVOK 33/18 Q1000 NOSIG
ZBSJ,2016-05-30 10:00,ZBSJ 301000Z 17006MPS CAVOK 31/17 Q1000 NOSIG
ZBSJ,2016-05-30 11:00,ZBSJ 301100Z 16006MPS CAVOK 28/15 Q1000 NOSIG
ZBSJ,2016-05-30 12:00,ZBSJ 301200Z 17005MPS CAVOK 27/16 Q1001 NOSIG
ZBSJ,2016-05-30 13:00,ZBSJ 301300Z 17006MPS CAVOK 26/17 Q1001 NOSIG
ZBSJ,2016-05-30 14:00,ZBSJ 301400Z 18005MPS CAVOK 25/17 Q1001 NOSIG
ZBSJ,2016-05-30 15:00,ZBSJ 301500Z 17002MPS CAVOK 23/17 Q1001 NOSIG
ZBSJ,2016-05-30 16:00,ZBSJ 301600Z 16003MPS CAVOK 21/16 Q1002 NOSIG
ZBSJ,2016-05-30 17:00,ZBSJ 301700Z 17001MPS CAVOK 23/17 Q1002 NOSIG
ZBSJ,2016-05-30 18:00,ZBSJ 301800Z 16002MPS 8000 NSC 21/17 Q1002 NOSIG
ZBSJ,2016-05-30 19:00,ZBSJ 301900Z 12002MPS 8000 NSC 21/17 Q1002 NOSIG
ZBSJ,2016-05-30 20:00,ZBSJ 302000Z 15003MPS 6000 NSC 20/17 Q1002 NOSIG
ZBSJ,2016-05-30 21:00,ZBSJ 302100Z 16002MPS 4000 BR NSC 19/17 Q1003 NOSIG
ZBSJ,2016-05-30 22:00,ZBSJ 302200Z 15004MPS 3500 BR NSC 21/18 Q1003 NOSIG
ZBSJ,2016-05-30 23:00,ZBSJ 302300Z 16002MPS 3500 BR NSC 23/19 Q1004 NOSIG
ZBSJ,2016-05-31 00:00,ZBSJ 310000Z 12002MPS 3500 BR NSC 24/19 Q1004 NOSIG
ZBSJ,2016-05-31 01:00,ZBSJ 310100Z 07007MPS 2900 HZ NSC 26/20 Q1006 BECMG TL0230 3500
ZBSJ,2016-05-31 02:00,ZBSJ 310200Z 09007MPS 4500 HZ NSC 27/20 Q1006 NOSIG
ZBSJ,2016-05-31 03:00,ZBSJ 310300Z 08008MPS 4500 HZ NSC 26/19 Q1007 NOSIG
ZBSJ,2016-05-31 04:00,ZBSJ 310400Z 07006MPS 7000 NSC 25/15 Q1008 NOSIG
ZBSJ,2016-05-31 05:00,ZBSJ 310500Z 05006MPS CAVOK 24/11 Q1008 NOSIG
ZBSJ,2016-05-31 06:00,ZBSJ 310600Z 05006MPS CAVOK 24/10 Q1008 NOSIG
ZBSJ,2016-05-31 07:00,ZBSJ 310700Z 04005MPS CAVOK 24/09 Q1009 NOSIG
ZBSJ,2016-05-31 08:00,ZBSJ 310800Z 03004MPS CAVOK 24/11 Q1009 NOSIG
ZBSJ,2016-05-31 09:00,ZBSJ 310900Z 03004MPS 360V080 CAVOK 24/13 Q1009 NOSIG
ZBSJ,2016-05-31 10:00,ZBSJ 311000Z 07003MPS CAVOK 23/12 Q1009 NOSIG
ZBSJ,2016-05-31 11:00,ZBSJ 311100Z 08002MPS 9999 SCT040 22/09 Q1010 NOSIG
ZBSJ,2016-05-31 12:00,ZBSJ 311200Z 06001MPS 9999 SCT040 22/10 Q1011 NOSIG
ZBSJ,2016-05-31 13:00,ZBSJ 311300Z 03001MPS 9999 SCT040 21/10 Q1011 NOSIG
ZBSJ,2016-05-31 14:00,ZBSJ 311400Z 06001MPS CAVOK 21/12 Q1012 NOSIG
ZBSJ,2016-05-31 15:00,ZBSJ 311500Z 36001MPS CAVOK 20/12 Q1012 NOSIG
ZBSJ,2016-05-31 16:00,ZBSJ 311600Z 01001MPS CAVOK 20/10 Q1012 NOSIG
ZBSJ,2016-05-31 17:00,ZBSJ 311700Z 36001MPS CAVOK 19/10 Q1012 NOSIG
ZBSJ,2016-05-31 18:00,ZBSJ 311800Z 34002MPS CAVOK 17/09 Q1012 NOSIG
ZBSJ,2016-05-31 19:00,ZBSJ 311900Z 35001MPS CAVOK 16/10 Q1012 NOSIG
ZBSJ,2016-05-31 20:00,ZBSJ 312000Z 36001MPS CAVOK 15/11 Q1012 NOSIG
ZBSJ,2016-05-31 21:00,ZBSJ 312100Z 35001MPS CAVOK 15/10 Q1013 NOSIG
ZBSJ,2016-05-31 22:00,ZBSJ 312200Z 34002MPS CAVOK 17/10 Q1013 NOSIG
ZBSJ,2016-05-31 23:00,ZBSJ 312300Z 35001MPS CAVOK 19/13 Q1014 NOSIG
ZBSJ,2016-06-01 00:00,ZBSJ 010000Z 05001MPS CAVOK 22/08 Q1014 NOSIG
ZBSJ,2016-06-01 01:00,ZBSJ 010100Z 07001MPS CAVOK 24/06 Q1015 NOSIG
ZBSJ,2016-06-01 02:00,ZBSJ 010200Z 11002MPS CAVOK 24/06 Q1014 NOSIG
ZBSJ,2016-06-01 03:00,ZBSJ 010300Z 08002MPS CAVOK 25/08 Q1014 NOSIG
ZBSJ,2016-06-01 04:00,ZBSJ 010400Z 06001MPS CAVOK 27/08 Q1013 NOSIG
ZBSJ,2016-06-01 05:00,ZBSJ 010500Z 08002MPS CAVOK 26/09 Q1012 NOSIG
ZBSJ,2016-06-01 06:00,ZBSJ 010600Z 09001MPS CAVOK 27/09 Q1012 NOSIG
ZBSJ,2016-06-01 07:00,ZBSJ 010700Z 06001MPS CAVOK 27/11 Q1012 NOSIG
ZBSJ,2016-06-01 08:00,ZBSJ 010800Z 11002MPS CAVOK 27/10 Q1011 NOSIG
ZBSJ,2016-06-01 09:00,ZBSJ 010900Z 12002MPS CAVOK 26/12 Q1011 NOSIG
ZBSJ,2016-06-01 10:00,ZBSJ 011000Z 12001MPS CAVOK 25/13 Q1011 NOSIG
ZBSJ,2016-06-01 11:00,ZBSJ 011100Z 00000MPS CAVOK 24/13 Q1011 NOSIG
ZBSJ,2016-06-01 12:00,ZBSJ 011200Z 00000MPS CAVOK 22/14 Q1012 NOSIG
ZBSJ,2016-06-01 13:00,ZBSJ 011300Z 00000MPS CAVOK 21/13 Q1012 NOSIG
ZBSJ,2016-06-01 14:00,ZBSJ 011400Z 06001MPS CAVOK 20/14 Q1012 NOSIG
ZBSJ,2016-06-01 15:00,ZBSJ 011500Z 11002MPS CAVOK 20/13 Q1013 NOSIG
ZBSJ,2016-06-01 16:00,ZBSJ 011600Z 12001MPS CAVOK 19/13 Q1012 NOSIG
ZBSJ,2016-06-01 17:00,ZBSJ 011700Z 00000MPS CAVOK 18/13 Q1012 NOSIG
ZBSJ,2016-06-01 18:00,ZBSJ 011800Z 02001MPS CAVOK 17/12 Q1012 NOSIG
ZBSJ,2016-06-01 19:00,ZBSJ 011900Z 36001MPS CAVOK 16/13 Q1011 NOSIG
ZBSJ,2016-06-01 20:00,ZBSJ 012000Z 32002MPS CAVOK 17/12 Q1011 NOSIG
ZBSJ,2016-06-01 21:00,ZBSJ 012100Z 12001MPS 7000 NSC 16/12 Q1012 NOSIG
ZBSJ,2016-06-01 22:00,ZBSJ 012200Z 17001MPS 8000 NSC 16/12 Q1011 NOSIG
ZBSJ,2016-06-01 23:00,ZBSJ 012300Z 35001MPS 6000 NSC 20/14 Q1012 NOSIG
ZBSJ,2016-06-02 00:00,ZBSJ 020000Z 34001MPS 6000 NSC 23/13 Q1012 NOSIG
ZBSJ,2016-06-02 01:00,ZBSJ 020100Z 35002MPS 8000 NSC 25/13 Q1012 NOSIG
ZBSJ,2016-06-02 02:00,ZBSJ 020200Z 06001MPS 8000 NSC 26/12 Q1011 NOSIG
ZBSJ,2016-06-02 03:00,ZBSJ 020300Z 12002MPS CAVOK 28/08 Q1011 NOSIG
ZBSJ,2016-06-02 04:00,ZBSJ 020400Z 11003MPS 070V160 CAVOK 29/09 Q1010 NOSIG
ZBSJ,2016-06-02 05:00,ZBSJ 020500Z 13004MPS CAVOK 30/06 Q1009 NOSIG
ZBSJ,2016-06-02 06:00,ZBSJ 020600Z 15003MPS 090V220 CAVOK 30/06 Q1008 NOSIG
ZBSJ,2016-06-02 07:00,ZBSJ 020700Z 10003MPS 050V160 CAVOK 30/07 Q1007 NOSIG
ZBSJ,2016-06-02 08:00,ZBSJ 020800Z 14002MPS 100V170 CAVOK 31/06 Q1007 NOSIG
ZBSJ,2016-06-02 09:00,ZBSJ 020900Z 13003MPS CAVOK 30/07 Q1006 NOSIG
ZBSJ,2016-06-02 10:00,ZBSJ 021000Z 14002MPS CAVOK 28/09 Q1006 NOSIG
ZBSJ,2016-06-02 11:00,ZBSJ 021100Z 14001MPS CAVOK 27/10 Q1007 NOSIG
ZBSJ,2016-06-02 12:00,ZBSJ 021200Z 18001MPS CAVOK 25/11 Q1007 NOSIG
ZBSJ,2016-06-02 13:00,ZBSJ 021300Z 00000MPS CAVOK 22/13 Q1008 NOSIG
ZBSJ,2016-06-02 14:00,ZBSJ 021400Z 35001MPS CAVOK 22/12 Q1008 NOSIG
ZBSJ,2016-06-02 15:00,ZBSJ 021500Z 35001MPS CAVOK 20/13 Q1007 NOSIG
ZBSJ,2016-06-02 16:00,ZBSJ 021600Z 08001MPS CAVOK 20/12 Q1007 NOSIG
ZBSJ,2016-06-02 17:00,ZBSJ 021700Z 04001MPS CAVOK 20/12 Q1006 NOSIG
ZBSJ,2016-06-02 18:00,ZBSJ 021800Z 11001MPS CAVOK 19/12 Q1006 NOSIG
ZBSJ,2016-06-02 19:00,ZBSJ 021900Z 23002MPS CAVOK 20/11 Q1006 NOSIG
ZBSJ,2016-06-02 20:00,ZBSJ 022000Z 33002MPS CAVOK 19/13 Q1005 NOSIG
ZBSJ,2016-06-02 21:00,ZBSJ 022100Z 34002MPS 8000 NSC 19/12 Q1006 NOSIG
ZBSJ,2016-06-02 22:00,ZBSJ 022200Z 13001MPS 6000 NSC 18/13 Q1006 NOSIG
ZBSJ,2016-06-02 23:00,ZBSJ 022300Z 20001MPS 5000 HZ NSC 21/13 Q1006 NOSIG
ZBSJ,2016-06-03 00:00,ZBSJ 030000Z 23001MPS 5000 HZ NSC 23/13 Q1006 NOSIG
ZBSJ,2016-06-03 01:00,ZBSJ 030100Z 23002MPS 5000 HZ NSC 23/13 Q1007 NOSIG
ZBSJ,2016-06-03 02:00,ZBSJ 030200Z 17001MPS 5000 HZ NSC 24/13 Q1006 NOSIG
ZBSJ,2016-06-03 03:00,ZBSJ 030300Z 22002MPS 6000 NSC 25/13 Q1006 NOSIG
ZBSJ,2016-06-03 04:00,ZBSJ 030400Z 24001MPS 7000 NSC 26/13 Q1006 NOSIG
ZBSJ,2016-06-03 05:00,ZBSJ 030500Z 17002MPS 7000 NSC 27/10 Q1006 NOSIG
ZBSJ,2016-06-03 06:00,ZBSJ 030600Z 18003MPS 4500 HZ NSC 27/15 Q1006 NOSIG
ZBSJ,2016-06-03 07:00,ZBSJ 030700Z 17002MPS 4500 HZ NSC 26/16 Q1005 NOSIG
ZBSJ,2016-06-03 08:00,ZBSJ 030800Z 15002MPS 4000 HZ NSC 26/17 Q1005 NOSIG
ZBSJ,2016-06-03 09:00,ZBSJ 030900Z 14002MPS 4000 HZ NSC 26/17 Q1005 NOSIG
ZBSJ,2016-06-03 10:00,ZBSJ 031000Z 18001MPS 4000 HZ NSC 26/16 Q1005 NOSIG
ZBSJ,2016-06-03 11:00,ZBSJ 031100Z 16002MPS CAVOK 24/15 Q1005 NOSIG
ZBSJ,2016-06-03 12:00,ZBSJ 031200Z 19002MPS CAVOK 24/13 Q1006 NOSIG
ZBSJ,2016-06-03 13:00,ZBSJ 031300Z 20002MPS CAVOK 22/13 Q1006 NOSIG
ZBSJ,2016-06-03 14:00,ZBSJ 031400Z 17001MPS 8000 NSC 22/15 Q1006 NOSIG
ZBSJ,2016-06-03 15:00,ZBSJ 031500Z 17002MPS 7000 NSC 20/15 Q1006 NOSIG
ZBSJ,2016-06-03 16:00,ZBSJ 031600Z 16003MPS 5000 BR NSC 20/16 Q1005 NOSIG
ZBSJ,2016-06-03 17:00,ZBSJ 031700Z 16003MPS 6000 NSC 19/15 Q1005 NOSIG
ZBSJ,2016-06-03 18:00,ZBSJ 031800Z 16003MPS 6000 NSC 17/14 Q1005 NOSIG
ZBSJ,2016-06-03 19:00,ZBSJ 031900Z 15003MPS 6000 NSC 17/15 Q1005 NOSIG
ZBSJ,2016-06-03 20:00,ZBSJ 032000Z 13001MPS 4000 BR NSC 17/14 Q1005 NOSIG
ZBSJ,2016-06-03 21:00,ZBSJ 032100Z 14002MPS 2500 BR NSC 17/15 Q1005 NOSIG
ZBSJ,2016-06-03 22:00,ZBSJ 032200Z 09001MPS 2700 BR NSC 18/16 Q1006 NOSIG
ZBSJ,2016-06-03 23:00,ZBSJ 032300Z 14001MPS 2700 BR NSC 19/16 Q1006 BECMG TL0030 3500
ZBSJ,2016-06-04 00:00,ZBSJ 040000Z 08001MPS 2500 -RA BR OVC046 19/17 Q1007 BECMG TL0130 3500
ZBSJ,2016-06-04 01:00,ZBSJ 040100Z 05001MPS 2000 BR OVC046 20/17 Q1007 BECMG TL0130 3500
ZBSJ,2016-06-04 02:00,ZBSJ 040200Z 15001MPS 2000 BR OVC046 21/17 Q1007 BECMG TL0230 3500
ZBSJ,2016-06-04 03:00,ZBSJ 040300Z 24001MPS 2000 BR OVC046 22/16 Q1007 BECMG TL0330 3500
ZBSJ,2016-06-04 04:00,ZBSJ 040400Z 36002MPS 2500 BR OVC046 22/17 Q1007 BECMG TL0430 3500
ZBSJ,2016-06-04 05:00,ZBSJ 040500Z 02001MPS 3000 HZ OVC046 24/16 Q1007 NOSIG
ZBSJ,2016-06-04 06:00,ZBSJ 040600Z 12002MPS 070V170 3500 HZ NSC 26/16 Q1006 NOSIG
ZBSJ,2016-06-04 07:00,ZBSJ 040700Z 12003MPS 070V160 4000 HZ NSC 27/16 Q1006 NOSIG
ZBSJ,2016-06-04 08:00,ZBSJ 040800Z 13003MPS 080V160 5000 HZ NSC 28/15 Q1006 NOSIG
ZBSJ,2016-06-04 09:00,ZBSJ 040900Z 16004MPS 6000 NSC 28/14 Q1006 NOSIG
ZBSJ,2016-06-04 10:00,ZBSJ 041000Z 15002MPS 6000 NSC 27/16 Q1006 NOSIG
ZBSJ,2016-06-04 11:00,ZBSJ 041100Z 12001MPS 3500 HZ NSC 25/17 Q1007 NOSIG
ZBSJ,2016-06-04 12:00,ZBSJ 041200Z 10001MPS 3500 HZ NSC 22/17 Q1007 NOSIG
ZBSJ,2016-06-04 13:00,ZBSJ 041300Z 10001MPS 3500 BR NSC 21/17 Q1008 NOSIG
ZBSJ,2016-06-04 14:00,ZBSJ 041400Z 06001MPS 3500 BR NSC 21/17 Q1008 NOSIG
ZBSJ,2016-06-04 15:00,ZBSJ 041500Z 10001MPS 3500 BR NSC 22/17 Q1009 NOSIG
ZBSJ,2016-06-04 16:00,ZBSJ 041600Z 15001MPS 3500 BR NSC 22/17 Q1009 NOSIG
ZBSJ,2016-06-04 17:00,ZBSJ 041700Z 14001MPS 3500 BR NSC 21/17 Q1008 NOSIG
ZBSJ,2016-06-04 18:00,ZBSJ 041800Z 00000MPS 3500 BR NSC 21/17 Q1008 NOSIG
ZBSJ,2016-06-04 19:00,ZBSJ 041900Z 22001MPS 3000 BR NSC 21/17 Q1008 NOSIG
ZBSJ,2016-06-04 20:00,ZBSJ 042000Z 28001MPS 4500 BR NSC 20/17 Q1008 NOSIG
ZBSJ,2016-06-04 21:00,ZBSJ 042100Z 20002MPS 4500 HZ NSC 22/15 Q1009 NOSIG
ZBSJ,2016-06-04 22:00,ZBSJ 042200Z 14001MPS 5000 BR NSC 21/16 Q1009 NOSIG
ZBSJ,2016-06-04 23:00,ZBSJ 042300Z 28003MPS 4500 HZ NSC 24/17 Q1010 NOSIG
ZBSJ,2016-06-05 00:00,ZBSJ 050000Z 24003MPS 210V270 5000 HZ NSC 24/17 Q1010 NOSIG
ZBSJ,2016-06-05 01:00,ZBSJ 050100Z 26003MPS 240V310 2700 HZ NSC 25/18 Q1010 BECMG TL0230 3500
ZBSJ,2016-06-05 02:00,ZBSJ 050200Z 26005MPS 6000 NSC 25/17 Q1011 NOSIG
ZBSJ,2016-06-05 03:00,ZBSJ 050300Z 26004MPS 8000 NSC 25/17 Q1011 NOSIG
ZBSJ,2016-06-05 04:00,ZBSJ 050400Z 26005MPS 8000 NSC 25/16 Q1010 NOSIG
ZBSJ,2016-06-05 05:00,ZBSJ 050500Z 20004MPS 170V240 8000 NSC 25/17 Q1010 NOSIG
ZBSJ,2016-06-05 06:00,ZBSJ 050600Z 21004MPS 170V240 8000 NSC 26/17 Q1010 NOSIG
ZBSJ,2016-06-05 07:00,ZBSJ 050700Z 22004MPS 190V270 8000 NSC 25/16 Q1010 NOSIG
ZBSJ,2016-06-05 08:00,ZBSJ 050800Z VRB03MPS 8000 NSC 25/15 Q1009 NOSIG
ZBSJ,2016-06-05 09:00,ZBSJ 050900Z 21003MPS 8000 NSC 24/14 Q1009 NOSIG
ZBSJ,2016-06-05 10:00,ZBSJ 051000Z 22002MPS 8000 NSC 24/14 Q1009 NOSIG
ZBSJ,2016-06-05 11:00,ZBSJ 051100Z 24003MPS CAVOK 24/14 Q1009 NOSIG
ZBSJ,2016-06-05 12:00,ZBSJ 051200Z 22001MPS 8000 NSC 22/14 Q1010 NOSIG
ZBSJ,2016-06-05 13:00,ZBSJ 051300Z 21001MPS 8000 NSC 20/14 Q1010 NOSIG
ZBSJ,2016-06-05 14:00,ZBSJ 051400Z 19001MPS 6000 NSC 19/15 Q1010 NOSIG
ZBSJ,2016-06-05 15:00,ZBSJ 051500Z 20002MPS 5000 HZ NSC 19/15 Q1010 NOSIG
ZBSJ,2016-06-05 16:00,ZBSJ 051600Z 19002MPS 5000 BR NSC 17/15 Q1010 NOSIG
ZBSJ,2016-06-05 17:00,ZBSJ 051700Z 19002MPS 4500 BR NSC 18/16 Q1010 NOSIG
ZBSJ,2016-06-05 18:00,ZBSJ 051800Z 25002MPS 4500 BR NSC 18/16 Q1010 NOSIG
ZBSJ,2016-06-05 19:00,ZBSJ 051900Z 25001MPS 4500 BR NSC 17/15 Q1010 NOSIG
ZBSJ,2016-06-05 20:00,ZBSJ 052000Z 16002MPS 3000 BR NSC 15/15 Q1010 NOSIG
ZBSJ,2016-06-05 21:00,ZBSJ 052100Z 18001MPS 2500 BR NSC 15/14 Q1010 NOSIG
ZBSJ,2016-06-05 22:00,ZBSJ 052200Z 29001MPS 2000 BR NSC 16/15 Q1011 NOSIG
ZBSJ,2016-06-05 23:00,ZBSJ 052300Z 00000MPS 1600 R15/1400D BR NSC 19/17 Q1011 NOSIG
ZBSJ,2016-06-06 00:00,ZBSJ 060000Z 22002MPS 2500 BR NSC 22/17 Q1011 BECMG TL0130 3000
ZBSJ,2016-06-06 01:00,ZBSJ 060100Z 18002MPS 110V230 5000 HZ NSC 24/16 Q1011 NOSIG
ZBSJ,2016-06-06 02:00,ZBSJ 060200Z 19002MPS 150V240 7000 NSC 26/15 Q1011 NOSIG
ZBSJ,2016-06-06 03:00,ZBSJ 060300Z 17003MPS 130V220 8000 NSC 28/15 Q1010 NOSIG
ZBSJ,2016-06-06 04:00,ZBSJ 060400Z 19003MPS 130V230 7000 NSC 29/16 Q1010 NOSIG
ZBSJ,2016-06-06 05:00,ZBSJ 060500Z 16003MPS 100V220 CAVOK 30/14 Q1009 NOSIG
ZBSJ,2016-06-06 06:00,ZBSJ 060600Z 18003MPS 120V220 CAVOK 31/14 Q1008 NOSIG
ZBSJ,2016-06-06 07:00,ZBSJ 060700Z 20004MPS 160V230 CAVOK 31/13 Q1008 NOSIG
ZBSJ,2016-06-06 08:00,ZBSJ 060800Z 17005MPS 130V200 CAVOK 31/14 Q1007 NOSIG
ZBSJ,2016-06-06 09:00,ZBSJ 060900Z 16005MPS CAVOK 30/14 Q1007 NOSIG
ZBSJ,2016-06-06 10:00,ZBSJ 061000Z 18004MPS CAVOK 29/15 Q1007 NOSIG
ZBSJ,2016-06-06 11:00,ZBSJ 061100Z 15003MPS CAVOK 26/17 Q1007 NOSIG
ZBSJ,2016-06-06 12:00,ZBSJ 061200Z 15003MPS 8000 NSC 24/16 Q1008 NOSIG
ZBSJ,2016-06-06 13:00,ZBSJ 061300Z 15003MPS 8000 NSC 22/17 Q1009 NOSIG
ZBSJ,2016-06-06 14:00,ZBSJ 061400Z 16002MPS 6000 NSC 21/17 Q1010 NOSIG
ZBSJ,2016-06-06 15:00,ZBSJ 061500Z 14002MPS 6000 NSC 20/17 Q1010 NOSIG
ZBSJ,2016-06-06 16:00,ZBSJ 061600Z 14001MPS 5000 BR NSC 21/17 Q1010 NOSIG
ZBSJ,2016-06-06 17:00,ZBSJ 061700Z 13001MPS 5000 BR NSC 20/17 Q1009 NOSIG
ZBSJ,2016-06-06 18:00,ZBSJ 061800Z 11001MPS 4500 BR NSC 20/18 Q1010 NOSIG
ZBSJ,2016-06-06 19:00,ZBSJ 061900Z 03002MPS 4000 -SHRA BR BKN046 21/18 Q1010 NOSIG
ZBSJ,2016-06-06 20:00,ZBSJ 062000Z 04002MPS 4000 BR NSC 20/18 Q1010 NOSIG
ZBSJ,2016-06-06 21:00,ZBSJ 062100Z 04002MPS 360V060 3000 BR NSC 21/18 Q1011 NOSIG
ZBSJ,2016-06-06 22:00,ZBSJ 062200Z 05003MPS 2000 -SHRA BR NSC 21/19 Q1011 NOSIG
ZBSJ,2016-06-06 23:00,ZBSJ 062300Z 05003MPS 2700 BR NSC 21/18 Q1011 BECMG TL0030 3000
ZBSJ,2016-06-07 00:00,ZBSJ 070000Z 04004MPS 360V070 2800 BR NSC 21/18 Q1012 BECMG TL0040 3000
ZBSJ,2016-06-07 01:00,ZBSJ 070100Z 05005MPS 3000 BR NSC 21/18 Q1012 BECMG TL0230 2500 BR
ZBSJ,2016-06-07 02:00,ZBSJ 070200Z 04003MPS 340V080 2500 -RA BR OVC040 21/18 Q1012 NOSIG
ZBSJ,2016-06-07 03:00,ZBSJ 070300Z 04003MPS 360V070 1600 BR OVC040 21/19 Q1013 BECMG TL0430 1400 -RA BR
ZBSJ,2016-06-07 04:00,ZBSJ 070400Z 04004MPS 360V070 2000 BR OVC040 21/19 Q1012 NOSIG
ZBSJ,2016-06-07 05:00,ZBSJ 070500Z 03002MPS 350V080 1800 BR OVC040 21/18 Q1012 NOSIG
ZBSJ,2016-06-07 06:00,ZBSJ 070600Z 03002MPS 1700 -RA BR OVC040 21/19 Q1012 NOSIG
ZBSJ,2016-06-07 07:00,ZBSJ 070700Z 03001MPS 1500 R33/1200U -RA BR OVC040 21/20 Q1011 NOSIG
ZBSJ,2016-06-07 08:00,ZBSJ 070800Z 05002MPS 2000 BR OVC040 22/19 Q1011 NOSIG
ZBSJ,2016-06-07 09:00,ZBSJ 070900Z 14001MPS 2200 BR BKN040 23/19 Q1010 NOSIG
ZBSJ,2016-06-07 10:00,ZBSJ 071000Z 19001MPS 2200 BR NSC 23/19 Q1010 BECMG TL1130 3500
ZBSJ,2016-06-07 11:00,ZBSJ 071100Z 14001MPS 2200 BR NSC 22/19 Q1010 NOSIG
ZBSJ,2016-06-07 12:00,ZBSJ 071200Z 14001MPS 2200 BR NSC 20/19 Q1010 BECMG TL1330 3500
ZBSJ,2016-06-07 13:00,ZBSJ 071300Z 16001MPS 2500 BR NSC 19/18 Q1011 BECMG TL1430 3500
ZBSJ,2016-06-07 14:00,ZBSJ 071400Z 23001MPS 2500 BR NSC 19/18 Q1011 NOSIG
ZBSJ,2016-06-07 15:00,ZBSJ 071500Z 00000MPS 1800 BR NSC 18/17 Q1011 NOSIG
ZBSJ,2016-06-07 16:00,ZBSJ 071600Z 00000MPS 1600 BR NSC 17/17 Q1010 NOSIG
ZBSJ,2016-06-07 17:00,ZBSJ 071700Z 31001MPS 1200 R15/0900V1600D BR NSC 17/17 Q1010 NOSIG
ZBSJ,2016-06-07 18:00,ZBSJ 071800Z 32001MPS 0900 R15/0275D FG NSC 17/17 Q1010 NOSIG
ZBSJ,2016-06-07 19:00,ZBSJ 071900Z 32001MPS 0700 R33/0175V0550N FG NSC 16/16 Q1010 NOSIG
ZBSJ,2016-06-07 20:00,ZBSJ 072000Z 00000MPS 0500 R33/0175V0300N FG NSC 16/15 Q1010 NOSIG
ZBSJ,2016-06-07 21:00,ZBSJ 072100Z 23001MPS 0500 R33/0400V0700D FG NSC 16/16 Q1010 NOSIG
ZBSJ,2016-06-07 22:00,ZBSJ 072200Z 20001MPS 0600 R33/0900N FG NSC 17/17 Q1010 NOSIG
ZBSJ,2016-06-07 23:00,ZBSJ 072300Z 24001MPS 0800 R15/1100N FG NSC 19/19 Q1010 BECMG TL0030 1600 BR
ZBSJ,2016-06-08 00:00,ZBSJ 080000Z 25001MPS 1000 R15/1100N BR NSC 21/18 Q1010 BECMG TL0130 1600
ZBSJ,2016-06-08 01:00,ZBSJ 080100Z 28002MPS 220V310 1600 HZ NSC 24/18 Q1010 NOSIG
ZBSJ,2016-06-08 02:00,ZBSJ 080200Z 24003MPS 190V260 2800 HZ NSC 26/17 Q1009 BECMG TL0330 3500
ZBSJ,2016-06-08 03:00,ZBSJ 080300Z 22003MPS 170V270 3000 HZ NSC 28/17 Q1009 NOSIG
ZBSJ,2016-06-08 04:00,ZBSJ 080400Z 14003MPS 100V220 3000 HZ NSC 30/18 Q1008 NOSIG
ZBSJ,2016-06-08 05:00,ZBSJ 080500Z 18003MPS 130V220 5000 HZ NSC 31/17 Q1007 NOSIG
ZBSJ,2016-06-08 06:00,ZBSJ 080600Z 19004MPS 140V220 8000 NSC 33/15 Q1007 NOSIG
ZBSJ,2016-06-08 07:00,ZBSJ 080700Z 14004MPS 110V190 CAVOK 33/16 Q1007 NOSIG
ZBSJ,2016-06-08 08:00,ZBSJ 080800Z 15004MPS 110V190 CAVOK 33/16 Q1006 NOSIG
ZBSJ,2016-06-08 09:00,ZBSJ 080900Z 17005MPS CAVOK 33/14 Q1005 NOSIG
ZBSJ,2016-06-08 10:00,ZBSJ 081000Z 16004MPS CAVOK 32/13 Q1006 NOSIG
ZBSJ,2016-06-08 11:00,ZBSJ 081100Z 15003MPS CAVOK 28/15 Q1006 NOSIG
ZBSJ,2016-06-08 12:00,ZBSJ 081200Z 16002MPS CAVOK 26/15 Q1006 NOSIG
ZBSJ,2016-06-08 13:00,ZBSJ 081300Z 16002MPS CAVOK 24/15 Q1007 NOSIG
ZBSJ,2016-06-08 14:00,ZBSJ 081400Z 17002MPS 8000 NSC 23/15 Q1008 NOSIG
ZBSJ,2016-06-08 15:00,ZBSJ 081500Z 19002MPS 8000 NSC 22/14 Q1008 NOSIG
ZBSJ,2016-06-08 16:00,ZBSJ 081600Z 18002MPS 7000 NSC 22/15 Q1007 NOSIG
ZBSJ,2016-06-08 17:00,ZBSJ 081700Z 23001MPS 7000 NSC 20/15 Q1007 NOSIG
ZBSJ,2016-06-08 18:00,ZBSJ 081800Z 00000MPS 5000 BR NSC 19/15 Q1007 NOSIG
ZBSJ,2016-06-08 19:00,ZBSJ 081900Z 14001MPS 5000 BR NSC 17/15 Q1007 NOSIG
ZBSJ,2016-06-08 20:00,ZBSJ 082000Z 17001MPS 5000 BR NSC 17/14 Q1007 NOSIG
ZBSJ,2016-06-08 21:00,ZBSJ 082100Z 20001MPS 2500 BR NSC 17/15 Q1008 NOSIG
ZBSJ,2016-06-08 22:00,ZBSJ 082200Z 24001MPS 2200 BR NSC 18/15 Q1008 BECMG TL2330 3500
ZBSJ,2016-06-08 23:00,ZBSJ 082300Z 30001MPS 2500 HZ NSC 23/15 Q1008 BECMG TL2330 3500
ZBSJ,2016-06-09 00:00,ZBSJ 090000Z 26001MPS 2800 HZ NSC 25/15 Q1008 BECMG TL0130 3500
ZBSJ,2016-06-09 01:00,ZBSJ 090100Z VRB02MPS 5000 HZ NSC 28/15 Q1007 NOSIG
ZBSJ,2016-06-09 02:00,ZBSJ 090200Z 20004MPS 5000 HZ NSC 30/16 Q1007 NOSIG
ZBSJ,2016-06-09 03:00,ZBSJ 090300Z 18004MPS 140V230 8000 NSC 33/16 Q1006 NOSIG
ZBSJ,2016-06-09 04:00,ZBSJ 090400Z 16005MPS 120V190 8000 NSC 34/15 Q1005 NOSIG
ZBSJ,2016-06-09 05:00,ZBSJ 090500Z 17005MPS 130V210 CAVOK 34/14 Q1004 NOSIG
ZBSJ,2016-06-09 06:00,ZBSJ 090600Z 17007MPS CAVOK 35/13 Q1003 NOSIG
ZBSJ,2016-06-09 07:00,ZBSJ 090700Z 17008MPS CAVOK 35/12 Q1002 NOSIG
ZBSJ,2016-06-09 08:00,ZBSJ 090800Z 18008MPS CAVOK 35/13 Q1001 NOSIG
ZBSJ,2016-06-09 09:00,ZBSJ 090900Z 17007MPS CAVOK 34/14 Q1000 NOSIG
ZBSJ,2016-06-09 10:00,ZBSJ 091000Z 18007MPS CAVOK 34/14 Q1001 NOSIG
ZBSJ,2016-06-09 11:00,ZBSJ 091100Z 17006MPS CAVOK 32/14 Q1000 NOSIG
ZBSJ,2016-06-09 12:00,ZBSJ 091200Z 17005MPS CAVOK 30/14 Q1001 NOSIG
ZBSJ,2016-06-09 13:00,ZBSJ 091300Z 17006MPS CAVOK 30/14 Q1000 NOSIG
ZBSJ,2016-06-09 14:00,ZBSJ 091400Z 17006MPS CAVOK 28/14 Q1001 NOSIG
ZBSJ,2016-06-09 15:00,ZBSJ 091500Z 18005MPS CAVOK 27/15 Q1001 NOSIG
ZBSJ,2016-06-09 16:00,ZBSJ 091600Z 18005MPS CAVOK 26/16 Q1001 NOSIG
ZBSJ,2016-06-09 17:00,ZBSJ 091700Z 18004MPS CAVOK 26/17 Q1001 NOSIG
ZBSJ,2016-06-09 18:00,ZBSJ 091800Z 25003MPS 210V280 CAVOK 26/17 Q1002 NOSIG
ZBSJ,2016-06-09 19:00,ZBSJ 091900Z 31002MPS 8000 NSC 25/17 Q1002 NOSIG
ZBSJ,2016-06-09 20:00,ZBSJ 092000Z 11002MPS 040V180 4000 +TSRA BR FEW030CB 21/19 Q1003 NOSIG
ZBSJ,2016-06-09 21:00,ZBSJ 092100Z 30003MPS 4000 BR BKN046 21/19 Q1003 RETS NOSIG
ZBSJ,2016-06-09 22:00,ZBSJ 092200Z 28002MPS 3000 BR BKN046 22/20 Q1004 NOSIG
ZBSJ,2016-06-09 23:00,ZBSJ 092300Z 33002MPS 4000 BR NSC 22/20 Q1004 NOSIG
ZBSJ,2016-06-10 00:00,ZBSJ 100000Z 33003MPS 4500 BR NSC 24/21 Q1004 NOSIG
ZBSJ,2016-06-10 01:00,ZBSJ 100100Z 02001MPS 5000 HZ NSC 26/20 Q1003 NOSIG
ZBSJ,2016-06-10 02:00,ZBSJ 100200Z 16001MPS 6000 NSC 28/19 Q1003 NOSIG
ZBSJ,2016-06-10 03:00,ZBSJ 100300Z 09002MPS 6000 NSC 30/19 Q1003 NOSIG
ZBSJ,2016-06-10 04:00,ZBSJ 100400Z 19002MPS 7000 NSC 32/19 Q1002 NOSIG
ZBSJ,2016-06-10 05:00,ZBSJ 100500Z 19002MPS CAVOK 35/18 Q1001 NOSIG
ZBSJ,2016-06-10 06:00,ZBSJ 100600Z 22003MPS 140V300 CAVOK 35/17 Q1001 NOSIG
ZBSJ,2016-06-10 07:00,ZBSJ 100700Z 18003MPS 120V250 CAVOK 37/15 Q1000 NOSIG
ZBSJ,2016-06-10 08:00,ZBSJ 100800Z 17006MPS 9999 FEW033 36/17 Q1000 NOSIG
ZBSJ,2016-06-10 09:00,ZBSJ 100900Z 20008MPS 9999 FEW033 FEW040TCU 35/18 Q1000 NOSIG
ZBSJ,2016-06-10 10:00,ZBSJ 101000Z 19006MPS 9999 FEW033 SCT046 33/18 Q0999 NOSIG
ZBSJ,2016-06-10 11:00,ZBSJ 101100Z 09005MPS 050V110 9999 FEW033 SCT046 31/17 Q1001 NOSIG
ZBSJ,2016-06-10 12:00,ZBSJ 101200Z 10003MPS 9999 FEW033 SCT046 27/17 Q1002 NOSIG
ZBSJ,2016-06-10 13:00,ZBSJ 101300Z 10002MPS 050V130 9999 FEW046 26/17 Q1003 NOSIG
ZBSJ,2016-06-10 14:00,ZBSJ 101400Z 34003MPS 9999 FEW046 26/15 Q1004 NOSIG
ZBSJ,2016-06-10 15:00,ZBSJ 101500Z 02003MPS 340V050 9999 FEW046 26/11 Q1006 NOSIG
ZBSJ,2016-06-10 16:00,ZBSJ 101600Z 05003MPS 9999 FEW046 25/09 Q1007 NOSIG
ZBSJ,2016-06-10 17:00,ZBSJ 101700Z 36002MPS 9999 FEW046 23/09 Q1007 NOSIG
ZBSJ,2016-06-10 18:00,ZBSJ 101800Z 34003MPS CAVOK 22/09 Q1008 NOSIG
ZBSJ,2016-06-10 19:00,ZBSJ 101900Z 34003MPS CAVOK 21/08 Q1008 NOSIG
ZBSJ,2016-06-10 20:00,ZBSJ 102000Z 36002MPS CAVOK 22/08 Q1008 NOSIG
ZBSJ,2016-06-10 21:00,ZBSJ 102100Z 35004MPS CAVOK 23/07 Q1008 NOSIG
ZBSJ,2016-06-10 22:00,ZBSJ 102200Z 34004MPS CAVOK 23/07 Q1009 NOSIG
ZBSJ,2016-06-10 23:00,ZBSJ 102300Z 33006MPS CAVOK 25/07 Q1009 NOSIG
ZBSJ,2016-06-11 00:00,ZBSJ 110000Z 34006MPS CAVOK 27/07 Q1009 NOSIG
ZBSJ,2016-06-11 01:00,ZBSJ 110100Z 35005MPS 320V030 CAVOK 28/07 Q1009 NOSIG
ZBSJ,2016-06-11 02:00,ZBSJ 110200Z 35005MPS CAVOK 28/07 Q1009 NOSIG
ZBSJ,2016-06-11 03:00,ZBSJ 110300Z 32003MPS 270V010 CAVOK 29/07 Q1008 NOSIG
ZBSJ,2016-06-11 04:00,ZBSJ 110400Z 36003MPS 300V090 CAVOK 31/06 Q1008 NOSIG
ZBSJ,2016-06-11 05:00,ZBSJ 110500Z 04003MPS 350V100 CAVOK 31/07 Q1007 NOSIG
ZBSJ,2016-06-11 06:00,ZBSJ 110600Z 02003MPS 330V070 CAVOK 31/06 Q1007 NOSIG
ZBSJ,2016-06-11 07:00,ZBSJ 110700Z 06002MPS CAVOK 32/06 Q1006 NOSIG
ZBSJ,2016-06-11 08:00,ZBSJ 110800Z 12002MPS CAVOK 32/05 Q1006 NOSIG
ZBSJ,2016-06-11 09:00,ZBSJ 110900Z 20003MPS 160V230 CAVOK 32/05 Q1006 NOSIG
ZBSJ,2016-06-11 10:00,ZBSJ 111000Z 14002MPS CAVOK 30/07 Q1006 NOSIG
ZBSJ,2016-06-11 11:00,ZBSJ 111100Z 13002MPS CAVOK 29/07 Q1007 NOSIG
ZBSJ,2016-06-11 12:00,ZBSJ 111200Z 14002MPS CAVOK 26/08 Q1007 NOSIG
ZBSJ,2016-06-11 13:00,ZBSJ 111300Z 12002MPS CAVOK 26/08 Q1008 NOSIG
ZBSJ,2016-06-11 14:00,ZBSJ 111400Z 09002MPS CAVOK 25/09 Q1008 NOSIG
ZBSJ,2016-06-11 15:00,ZBSJ 111500Z 10001MPS CAVOK 23/09 Q1008 NOSIG
ZBSJ,2016-06-11 16:00,ZBSJ 111600Z 10002MPS CAVOK 21/11 Q1008 NOSIG
ZBSJ,2016-06-11 17:00,ZBSJ 111700Z 08001MPS CAVOK 20/12 Q1008 NOSIG
ZBSJ,2016-06-11 18:00,ZBSJ 111800Z 06001MPS CAVOK 20/13 Q1007 NOSIG
ZBSJ,2016-06-11 19:00,ZBSJ 111900Z 33002MPS CAVOK 19/12 Q1008 NOSIG
ZBSJ,2016-06-11 20:00,ZBSJ 112000Z 34001MPS CAVOK 18/11 Q1007 NOSIG
ZBSJ,2016-06-11 21:00,ZBSJ 112100Z 00000MPS CAVOK 17/12 Q1008 NOSIG
ZBSJ,2016-06-11 22:00,ZBSJ 112200Z 33001MPS CAVOK 19/12 Q1008 NOSIG
ZBSJ,2016-06-11 23:00,ZBSJ 112300Z 34002MPS CAVOK 22/13 Q1008 NOSIG
ZBSJ,2016-06-12 00:00,ZBSJ 120000Z 29001MPS CAVOK 25/12 Q1008 NOSIG
ZBSJ,2016-06-12 01:00,ZBSJ 120100Z 29002MPS 8000 NSC 27/12 Q1008 NOSIG
ZBSJ,2016-06-12 02:00,ZBSJ 120200Z 27001MPS 8000 NSC 30/11 Q1007 NOSIG
ZBSJ,2016-06-12 03:00,ZBSJ 120300Z 23002MPS 160V310 CAVOK 31/11 Q1007 NOSIG
ZBSJ,2016-06-12 04:00,ZBSJ 120400Z 22001MPS CAVOK 33/10 Q1006 NOSIG
ZBSJ,2016-06-12 05:00,ZBSJ 120500Z 20004MPS 140V250 CAVOK 33/09 Q1005 NOSIG
ZBSJ,2016-06-12 06:00,ZBSJ 120600Z 16005MPS CAVOK 34/09 Q1004 NOSIG
ZBSJ,2016-06-12 07:00,ZBSJ 120700Z 15003MPS 110V190 9999 FEW026 34/10 Q1003 NOSIG
ZBSJ,2016-06-12 08:00,ZBSJ 120800Z 15004MPS 130V190 9999 SCT026 33/11 Q1002 NOSIG
ZBSJ,2016-06-12 09:00,ZBSJ 120900Z 14005MPS 9999 FEW026 33/10 Q1002 NOSIG
ZBSJ,2016-06-12 10:00,ZBSJ 121000Z 15004MPS CAVOK 31/11 Q1002 NOSIG
ZBSJ,2016-06-12 11:00,ZBSJ 121100Z 15003MPS CAVOK 30/11 Q1002 NOSIG
ZBSJ,2016-06-12 12:00,ZBSJ 121200Z 16003MPS CAVOK 28/12 Q1002 NOSIG
ZBSJ,2016-06-12 13:00,ZBSJ 121300Z 27004MPS CAVOK 26/14 Q1003 NOSIG
ZBSJ,2016-06-12 14:00,ZBSJ 121400Z 27002MPS CAVOK 26/14 Q1003 NOSIG
ZBSJ,2016-06-12 15:00,ZBSJ 121500Z 29002MPS CAVOK 25/15 Q1003 NOSIG
ZBSJ,2016-06-12 16:00,ZBSJ 121600Z 22002MPS CAVOK 24/16 Q1003 NOSIG
ZBSJ,2016-06-12 17:00,ZBSJ 121700Z 04001MPS CAVOK 23/16 Q1002 NOSIG
ZBSJ,2016-06-12 18:00,ZBSJ 121800Z 20001MPS CAVOK 22/16 Q1002 NOSIG
ZBSJ,2016-06-12 19:00,ZBSJ 121900Z 17002MPS CAVOK 22/16 Q1002 NOSIG
ZBSJ,2016-06-12 20:00,ZBSJ 122000Z 15001MPS CAVOK 22/16 Q1002 NOSIG
ZBSJ,2016-06-12 21:00,ZBSJ 122100Z 02001MPS 9999 SCT046 22/16 Q1001 NOSIG
ZBSJ,2016-06-12 22:00,ZBSJ 122200Z 07001MPS 9999 -RA FEW040 OVC046 22/17 Q1002 NOSIG
ZBSJ,2016-06-12 23:00,ZBSJ 122300Z 32001MPS 8000 FEW046 23/17 Q1002 NOSIG
ZBSJ,2016-06-13 00:00,ZBSJ 130000Z 04002MPS 350V070 7000 NSC 25/17 Q1002 NOSIG
ZBSJ,2016-06-13 01:00,ZBSJ 130100Z 36002MPS 8000 NSC 26/16 Q1002 NOSIG
ZBSJ,2016-06-13 02:00,ZBSJ 130200Z 04001MPS 8000 NSC 28/17 Q1002 NOSIG
ZBSJ,2016-06-13 03:00,ZBSJ 130300Z 03003MPS 340V070 7000 NSC 29/16 Q1001 NOSIG
ZBSJ,2016-06-13 04:00,ZBSJ 130400Z 07004MPS 6000 NSC 28/16 Q1000 NOSIG
ZBSJ,2016-06-13 05:00,ZBSJ 130500Z 05004MPS 020V090 6000 NSC 28/17 Q1000 NOSIG
ZBSJ,2016-06-13 06:00,ZBSJ 130600Z 05005MPS 5000 HZ NSC 29/18 Q0999 NOSIG
ZBSJ,2016-06-13 07:00,ZBSJ 130700Z 05005MPS 010V090 5000 HZ NSC 29/18 Q0998 NOSIG
ZBSJ,2016-06-13 08:00,ZBSJ 130800Z 06007MPS 5000 HZ NSC 28/17 Q0998 NOSIG
ZBSJ,2016-06-13 09:00,ZBSJ 130900Z 06008G13MPS 5000 HZ NSC 26/18 Q0998 NOSIG
ZBSJ,2016-06-13 10:00,ZBSJ 131000Z 06007MPS 8000 NSC 24/17 Q0999 NOSIG
ZBSJ,2016-06-13 11:00,ZBSJ 131100Z 07006MPS 7000 NSC 23/17 Q0999 NOSIG
ZBSJ,2016-06-13 12:00,ZBSJ 131200Z 05005MPS 020V080 7000 NSC 22/17 Q0999 NOSIG
ZBSJ,2016-06-13 13:00,ZBSJ 131300Z 05003MPS 360V070 8000 NSC 22/17 Q1000 BECMG AT1400 33010G17MPS 2000 TSRA
ZBSJ,2016-06-13 14:00,ZBSJ 131400Z 35002MPS 310V060 4000 TSRA BR FEW026CB BKN040 19/18 Q1001 BECMG TL1500 -SHRA BR
ZBSJ,2016-06-13 15:00,ZBSJ 131500Z 06001MPS 6000 TSRA FEW026CB BKN040 18/17 Q1000 NOSIG
ZBSJ,2016-06-13 16:00,ZBSJ 131600Z 01003MPS 330V050 5000 -RA BR FEW016 BKN040 19/18 Q0999 RETS NOSIG
ZBSJ,2016-06-13 17:00,ZBSJ 131700Z 03003MPS 360V070 4000 BR FEW016 BKN040 19/18 Q0998 NOSIG
ZBSJ,2016-06-13 18:00,ZBSJ 131800Z 35004MPS 5000 BR FEW016 BKN040 19/17 Q0998 NOSIG
ZBSJ,2016-06-13 19:00,ZBSJ 131900Z 03002MPS 5000 BR BKN040 19/17 Q0999 NOSIG
ZBSJ,2016-06-13 20:00,ZBSJ 132000Z 08002MPS 040V110 5000 BR BKN040 19/17 Q0999 NOSIG
ZBSJ,2016-06-13 21:00,ZBSJ 132100Z 09002MPS 2700 BR NSC 18/17 Q0999 NOSIG
ZBSJ,2016-06-13 22:00,ZBSJ 132200Z 35001MPS 3500 BR NSC 18/17 Q0998 NOSIG
ZBSJ,2016-06-13 23:00,ZBSJ 132300Z 22001MPS 4000 BR NSC 19/17 Q0998 NOSIG
ZBSJ,2016-06-14 00:00,ZBSJ 140000Z 19002MPS 4000 BR NSC 20/17 Q0998 NOSIG
ZBSJ,2016-06-14 01:00,ZBSJ 140100Z 24002MPS 190V300 5000 HZ FEW026 22/17 Q0998 NOSIG
ZBSJ,2016-06-14 02:00,ZBSJ 140200Z 35002MPS 260V040 6000 SCT033 23/17 Q0997 NOSIG
ZBSJ,2016-06-14 03:00,ZBSJ 140300Z 20003MPS 140V240 CAVOK 25/16 Q0997 NOSIG
ZBSJ,2016-06-14 04:00,ZBSJ 140400Z VRB02MPS 9999 BKN033 27/17 Q0996 NOSIG
ZBSJ,2016-06-14 05:00,ZBSJ 140500Z 17002MPS 7000 -RA BKN033 25/17 Q0997 NOSIG
ZBSJ,2016-06-14 06:00,ZBSJ 140600Z 31009G16MPS 280V360 9999 -TSRA FEW026CB BKN046 19/16 Q0997 BECMG AT0730 NSW
ZBSJ,2016-06-14 07:00,ZBSJ 140700Z 21003MPS 9999 TS FEW026CB SCT033 BKN046 18/17 Q0997 RESHRA BECMG AT0830 NSW
ZBSJ,2016-06-14 08:00,ZBSJ 140800Z 26002MPS 9999 FEW026CB SCT046 19/17 Q0999 RETS BECMG AT0900 -TSRA
ZBSJ,2016-06-14 09:00,ZBSJ 140900Z 04002MPS 360V070 9999 FEW026CB BKN033 19/18 Q0998 NOSIG
ZBSJ,2016-06-14 10:00,ZBSJ 141000Z 01002MPS 9999 -RA BKN040 20/18 Q0998 NOSIG
ZBSJ,2016-06-14 11:00,ZBSJ 141100Z 04004MPS 2300 -RA BR OVC040 20/18 Q0999 BECMG AT1130 -TSRA
ZBSJ,2016-06-14 12:00,ZBSJ 141200Z 05003MPS 010V090 2300 BR OVC040 18/18 Q1000 BECMG TL1330 3500
ZBSJ,2016-06-14 13:00,ZBSJ 141300Z 02002MPS 350V060 3000 -RA BR OVC040 18/18 Q1001 NOSIG
ZBSJ,2016-06-14 14:00,ZBSJ 141400Z 03003MPS 360V060 5000 BR OVC040 18/17 Q1002 NOSIG
ZBSJ,2016-06-14 15:00,ZBSJ 141500Z 01002MPS 6000 NSC 18/16 Q1003 NOSIG
ZBSJ,2016-06-14 16:00,ZBSJ 141600Z 01002MPS 340V040 6000 NSC 18/16 Q1003 NOSIG
ZBSJ,2016-06-14 17:00,ZBSJ 141700Z 36002MPS 8000 NSC 18/16 Q1003 NOSIG
ZBSJ,2016-06-14 18:00,ZBSJ 141800Z 33002MPS 8000 NSC 17/16 Q1003 NOSIG
ZBSJ,2016-06-14 19:00,ZBSJ 141900Z 29002MPS 6000 NSC 18/17 Q1003 NOSIG
ZBSJ,2016-06-14 20:00,ZBSJ 142000Z 24001MPS 5000 BR NSC 18/17 Q1004 NOSIG
ZBSJ,2016-06-14 21:00,ZBSJ 142100Z 30001MPS 3000 BR NSC 17/16 Q1004 NOSIG
ZBSJ,2016-06-14 22:00,ZBSJ 142200Z 20001MPS 3000 R33/1400D BR NSC 17/17 Q1004 NOSIG
ZBSJ,2016-06-14 23:00,ZBSJ 142300Z 27002MPS 4500 BR NSC 20/17 Q1004 NOSIG
ZBSJ,2016-06-15 00:00,ZBSJ 150000Z 27003MPS 240V320 6000 NSC 22/18 Q1004 NOSIG
ZBSJ,2016-06-15 01:00,ZBSJ 150100Z 29003MPS 270V330 CAVOK 25/17 Q1004 NOSIG
ZBSJ,2016-06-15 02:00,ZBSJ 150200Z 33003MPS 290V010 CAVOK 27/16 Q1004 NOSIG
ZBSJ,2016-06-15 03:00,ZBSJ 150300Z 33003MPS 280V020 CAVOK 29/14 Q1004 NOSIG
ZBSJ,2016-06-15 04:00,ZBSJ 150400Z 08002MPS CAVOK 30/13 Q1004 NOSIG
ZBSJ,2016-06-15 05:00,ZBSJ 150500Z VRB03MPS CAVOK 32/10 Q1003 NOSIG
ZBSJ,2016-06-15 06:00,ZBSJ 150600Z 13002MPS 070V210 CAVOK 32/10 Q1002 NOSIG
ZBSJ,2016-06-15 07:00,ZBSJ 150700Z 26001MPS 9999 FEW033 33/09 Q1002 NOSIG
ZBSJ,2016-06-15 08:00,ZBSJ 150800Z 22002MPS 150V260 9999 FEW033 33/09 Q1001 NOSIG
ZBSJ,2016-06-15 09:00,ZBSJ 150900Z 23002MPS 9999 FEW033 33/10 Q1001 NOSIG
ZBSJ,2016-06-15 10:00,ZBSJ 151000Z 34002MPS 9999 FEW033 33/11 Q1001 NOSIG
ZBSJ,2016-06-15 11:00,ZBSJ 151100Z 31005MPS 9999 FEW033 31/09 Q1001 NOSIG
ZBSJ,2016-06-15 12:00,ZBSJ 151200Z 33003MPS 9999 FEW033 27/11 Q1002 NOSIG
ZBSJ,2016-06-15 13:00,ZBSJ 151300Z 29003MPS CAVOK 27/11 Q1002 NOSIG
ZBSJ,2016-06-15 14:00,ZBSJ 151400Z 29002MPS CAVOK 25/12 Q1003 NOSIG
ZBSJ,2016-06-15 15:00,ZBSJ 151500Z 29003MPS CAVOK 25/12 Q1003 NOSIG
ZBSJ,2016-06-15 16:00,ZBSJ 151600Z 28003MPS CAVOK 24/13 Q1002 NOSIG
ZBSJ,2016-06-15 17:00,ZBSJ 151700Z 28005MPS CAVOK 23/13 Q1002 NOSIG
ZBSJ,2016-06-15 18:00,ZBSJ 151800Z 28004MPS CAVOK 23/13 Q1002 NOSIG
ZBSJ,2016-06-15 19:00,ZBSJ 151900Z 29006MPS CAVOK 24/11 Q1002 NOSIG
ZBSJ,2016-06-15 20:00,ZBSJ 152000Z 28005MPS CAVOK 22/11 Q1001 NOSIG
ZBSJ,2016-06-15 21:00,ZBSJ 152100Z 27003MPS CAVOK 21/11 Q1001 NOSIG
ZBSJ,2016-06-15 22:00,ZBSJ 152200Z 28004MPS CAVOK 22/12 Q1002 NOSIG
ZBSJ,2016-06-15 23:00,ZBSJ 152300Z 28006MPS CAVOK 25/11 Q1002 NOSIG
ZBSJ,2016-06-16 00:00,ZBSJ 160000Z 29007MPS CAVOK 29/12 Q1002 NOSIG
ZBSJ,2016-06-16 01:00,ZBSJ 160100Z 28007MPS CAVOK 30/12 Q1002 NOSIG
ZBSJ,2016-06-16 02:00,ZBSJ 160200Z 28005MPS 250V310 CAVOK 33/13 Q1001 NOSIG
ZBSJ,2016-06-16 03:00,ZBSJ 160300Z 25004MPS 200V330 CAVOK 34/12 Q1000 NOSIG
ZBSJ,2016-06-16 04:00,ZBSJ 160400Z 27004MPS CAVOK 35/08 Q1000 NOSIG
ZBSJ,2016-06-16 05:00,ZBSJ 160500Z VRB02MPS CAVOK 36/08 Q0999 NOSIG
ZBSJ,2016-06-16 06:00,ZBSJ 160600Z 27004MPS 230V300 CAVOK 36/08 Q0998 NOSIG
ZBSJ,2016-06-16 07:00,ZBSJ 160700Z 26005G10MPS 220V310 CAVOK 37/07 Q0997 NOSIG
ZBSJ,2016-06-16 08:00,ZBSJ 160800Z 27003MPS 240V300 CAVOK 37/06 Q0997 NOSIG
ZBSJ,2016-06-16 08:30,ZBSJ 160830Z 27005MPS 230V290 CAVOK 37/05 Q0996 NOSIG
ZBSJ,2016-06-16 09:00,ZBSJ 160900Z 26004MPS 220V290 CAVOK 37/07 Q0996 NOSIG
ZBSJ,2016-06-16 09:30,ZBSJ 160930Z 25004MPS CAVOK 36/07 Q0996 NOSIG
ZBSJ,2016-06-16 10:00,ZBSJ 161000Z 23004MPS CAVOK 36/07 Q0996 NOSIG
ZBSJ,2016-06-16 10:30,ZBSJ 161030Z 23003MPS CAVOK 35/08 Q0996 NOSIG
ZBSJ,2016-06-16 11:00,ZBSJ 161100Z 23002MPS 200V280 CAVOK 34/09 Q0996 NOSIG
ZBSJ,2016-06-16 11:30,ZBSJ 161130Z 23002MPS CAVOK 32/10 Q0996 NOSIG
ZBSJ,2016-06-16 12:00,ZBSJ 161200Z 22001MPS CAVOK 31/10 Q0996 NOSIG
ZBSJ,2016-06-16 12:30,ZBSJ 161230Z 18001MPS CAVOK 28/11 Q0996 NOSIG
ZBSJ,2016-06-16 13:00,ZBSJ 161300Z 16003MPS CAVOK 27/11 Q0997 NOSIG
ZBSJ,2016-06-16 13:30,ZBSJ 161330Z 15003MPS CAVOK 26/13 Q0997 NOSIG
ZBSJ,2016-06-16 14:00,ZBSJ 161400Z 17003MPS CAVOK 26/13 Q0996 NOSIG
ZBSJ,2016-06-16 14:30,ZBSJ 161430Z 18003MPS CAVOK 26/13 Q0996 NOSIG
ZBSJ,2016-06-16 15:00,ZBSJ 161500Z 18004MPS CAVOK 28/12 Q0996 NOSIG
ZBSJ,2016-06-16 15:30,ZBSJ 161530Z 19003MPS CAVOK 28/11 Q0996 NOSIG
ZBSJ,2016-06-16 16:00,ZBSJ 161600Z 20003MPS CAVOK 26/12 Q0996 NOSIG
ZBSJ,2016-06-16 16:30,ZBSJ 161630Z 22002MPS CAVOK 25/12 Q0996 NOSIG
ZBSJ,2016-06-16 17:00,ZBSJ 161700Z 25002MPS CAVOK 25/12 Q0996 NOSIG
ZBSJ,2016-06-16 18:00,ZBSJ 161800Z 29002MPS CAVOK 20/14 Q0995 NOSIG
ZBSJ,2016-06-16 19:00,ZBSJ 161900Z 27002MPS CAVOK 22/13 Q0995 NOSIG
ZBSJ,2016-06-16 20:00,ZBSJ 162000Z 25002MPS CAVOK 20/14 Q0995 NOSIG
ZBSJ,2016-06-16 21:00,ZBSJ 162100Z 26002MPS CAVOK 21/13 Q0995 NOSIG
ZBSJ,2016-06-16 22:00,ZBSJ 162200Z 27002MPS CAVOK 23/15 Q0996 NOSIG
ZBSJ,2016-06-16 23:00,ZBSJ 162300Z 24001MPS CAVOK 27/14 Q0997 NOSIG
ZBSJ,2016-06-17 00:00,ZBSJ 170000Z 24002MPS CAVOK 30/14 Q0997 NOSIG
ZBSJ,2016-06-17 01:00,ZBSJ 170100Z 24004MPS CAVOK 33/11 Q0997 NOSIG
ZBSJ,2016-06-17 02:00,ZBSJ 170200Z 21005MPS CAVOK 35/10 Q0997 NOSIG
ZBSJ,2016-06-17 03:00,ZBSJ 170300Z 23004MPS 180V250 CAVOK 36/10 Q0996 NOSIG
ZBSJ,2016-06-17 04:00,ZBSJ 170400Z 19004MPS CAVOK 35/11 Q0996 NOSIG
ZBSJ,2016-06-17 05:00,ZBSJ 170500Z 24002MPS 170V290 CAVOK 37/10 Q0996 NOSIG
ZBSJ,2016-06-17 06:00,ZBSJ 170600Z VRB02MPS CAVOK 38/09 Q0995 NOSIG
ZBSJ,2016-06-17 07:00,ZBSJ 170700Z 13003MPS 070V190 CAVOK 37/10 Q0995 NOSIG
ZBSJ,2016-06-17 08:00,ZBSJ 170800Z 16004MPS CAVOK 38/10 Q0995 NOSIG
ZBSJ,2016-06-17 09:00,ZBSJ 170900Z 17003MPS 120V210 CAVOK 38/09 Q0995 NOSIG
ZBSJ,2016-06-17 10:00,ZBSJ 171000Z 16001MPS CAVOK 37/08 Q0996 NOSIG
ZBSJ,2016-06-17 11:00,ZBSJ 171100Z 05009MPS CAVOK 32/14 Q0998 NOSIG
ZBSJ,2016-06-17 12:00,ZBSJ 171200Z 06007MPS CAVOK 30/13 Q0999 NOSIG
ZBSJ,2016-06-17 13:00,ZBSJ 171300Z 05005MPS 360V070 CAVOK 29/13 Q0999 NOSIG
ZBSJ,2016-06-17 14:00,ZBSJ 171400Z 05005MPS CAVOK 28/13 Q1001 NOSIG
ZBSJ,2016-06-17 15:00,ZBSJ 171500Z 04003G08MPS CAVOK 26/14 Q1001 NOSIG
ZBSJ,2016-06-17 16:00,ZBSJ 171600Z 04002MPS CAVOK 24/15 Q1001 NOSIG
ZBSJ,2016-06-17 17:00,ZBSJ 171700Z 35002MPS CAVOK 23/15 Q1002 NOSIG
ZBSJ,2016-06-17 18:00,ZBSJ 171800Z 34003MPS CAVOK 22/17 Q1002 NOSIG
ZBSJ,2016-06-17 19:00,ZBSJ 171900Z 35002MPS 330V030 CAVOK 23/17 Q1002 NOSIG
ZBSJ,2016-06-17 20:00,ZBSJ 172000Z 01001MPS CAVOK 22/17 Q1002 NOSIG
ZBSJ,2016-06-17 21:00,ZBSJ 172100Z 35002MPS CAVOK 21/16 Q1003 NOSIG
ZBSJ,2016-06-17 22:00,ZBSJ 172200Z 01002MPS 340V040 CAVOK 23/17 Q1003 NOSIG
ZBSJ,2016-06-17 23:00,ZBSJ 172300Z 36002MPS CAVOK 24/17 Q1004 NOSIG
ZBSJ,2016-06-18 02:00,ZBSJ 180200Z 02003MPS 350V050 CAVOK 28/16 Q1005 NOSIG
ZBSJ,2016-06-18 03:00,ZBSJ 180300Z 36003MPS 300V050 CAVOK 30/16 Q1005 NOSIG
ZBSJ,2016-06-18 04:00,ZBSJ 180400Z 05004MPS 320V090 CAVOK 31/16 Q1005 NOSIG
ZBSJ,2016-06-18 05:00,ZBSJ 180500Z VRB03MPS CAVOK 32/16 Q1004 NOSIG
ZBSJ,2016-06-18 06:00,ZBSJ 180600Z 07005MPS 030V100 CAVOK 32/17 Q1004 NOSIG
ZBSJ,2016-06-18 07:00,ZBSJ 180700Z 05004MPS 020V090 CAVOK 32/17 Q1004 NOSIG
ZBSJ,2016-06-18 08:00,ZBSJ 180800Z 05003MPS 360V110 CAVOK 31/18 Q1004 NOSIG
ZBSJ,2016-06-18 09:00,ZBSJ 180900Z 08002MPS CAVOK 32/17 Q1003 NOSIG
ZBSJ,2016-06-18 10:00,ZBSJ 181000Z 02001MPS CAVOK 32/17 Q1004 NOSIG
ZBSJ,2016-06-18 11:00,ZBSJ 181100Z 05001MPS CAVOK 30/18 Q1004 NOSIG
ZBSJ,2016-06-18 12:00,ZBSJ 181200Z 06002MPS CAVOK 29/19 Q1005 NOSIG
ZBSJ,2016-06-18 13:00,ZBSJ 181300Z 04002MPS CAVOK 27/19 Q1006 NOSIG
ZBSJ,2016-06-18 14:00,ZBSJ 181400Z 04001MPS CAVOK 26/20 Q1006 NOSIG
ZBSJ,2016-06-18 15:00,ZBSJ 181500Z 06002MPS 8000 NSC 25/19 Q1006 NOSIG
ZBSJ,2016-06-18 16:00,ZBSJ 181600Z 06002MPS 8000 NSC 25/19 Q1007 NOSIG
ZBSJ,2016-06-18 17:00,ZBSJ 181700Z 06002MPS CAVOK 23/18 Q1007 NOSIG
ZBSJ,2016-06-18 18:00,ZBSJ 181800Z 05001MPS CAVOK 23/18 Q1007 NOSIG
ZBSJ,2016-06-18 19:00,ZBSJ 181900Z 36001MPS CAVOK 22/18 Q1007 NOSIG
ZBSJ,2016-06-18 20:00,ZBSJ 182000Z 02001MPS 8000 NSC 21/17 Q1007 NOSIG
ZBSJ,2016-06-18 21:00,ZBSJ 182100Z 00000MPS 6000 NSC 20/17 Q1007 NOSIG
ZBSJ,2016-06-18 22:00,ZBSJ 182200Z 02001MPS 6000 NSC 22/18 Q1007 NOSIG
ZBSJ,2016-06-18 23:00,ZBSJ 182300Z 01001MPS 7000 NSC 25/18 Q1007 NOSIG
ZBSJ,2016-06-19 00:00,ZBSJ 190000Z 31001MPS 8000 NSC 26/18 Q1007 NOSIG
ZBSJ,2016-06-19 01:00,ZBSJ 190100Z 29001MPS CAVOK 27/18 Q1007 NOSIG
ZBSJ,2016-06-19 02:00,ZBSJ 190200Z 04002MPS CAVOK 29/18 Q1006 NOSIG
ZBSJ,2016-06-19 03:00,ZBSJ 190300Z 13001MPS CAVOK 31/19 Q1005 NOSIG
ZBSJ,2016-06-19 04:00,ZBSJ 190400Z 26002MPS CAVOK 33/18 Q1005 NOSIG
ZBSJ,2016-06-19 05:00,ZBSJ 190500Z 21003MPS 180V250 CAVOK 33/18 Q1004 NOSIG
ZBSJ,2016-06-19 06:00,ZBSJ 190600Z 19001MPS CAVOK 34/17 Q1004 NOSIG
ZBSJ,2016-06-19 07:00,ZBSJ 190700Z 20001MPS CAVOK 33/18 Q1003 NOSIG
ZBSJ,2016-06-19 08:00,ZBSJ 190800Z 21002MPS 150V240 CAVOK 33/19 Q1003 NOSIG
ZBSJ,2016-06-19 09:00,ZBSJ 190900Z 20002MPS CAVOK 32/19 Q1004 NOSIG
ZBSJ,2016-06-19 10:00,ZBSJ 191000Z 27008MPS 6000 SCT040 29/18 Q1005 BECMG AT1030 -TSRA
ZBSJ,2016-06-19 11:00,ZBSJ 191100Z 24005MPS 5000 -RA BR OVC046 24/21 Q1005 RETS NOSIG
ZBSJ,2016-06-19 12:00,ZBSJ 191200Z 24005MPS 8000 BKN046 24/20 Q1003 NOSIG
ZBSJ,2016-06-19 13:00,ZBSJ 191300Z 28004MPS 9999 BKN046 24/20 Q1004 NOSIG
ZBSJ,2016-06-19 14:00,ZBSJ 191400Z 28003MPS 9999 BKN046 24/20 Q1004 NOSIG
ZBSJ,2016-06-19 15:00,ZBSJ 191500Z 25003MPS 210V300 9999 OVC046 25/20 Q1005 NOSIG
ZBSJ,2016-06-19 16:00,ZBSJ 191600Z 20003MPS 170V260 9999 BKN040 24/20 Q1004 NOSIG
ZBSJ,2016-06-19 17:00,ZBSJ 191700Z 15002MPS 5000 BR NSC 23/20 Q1004 NOSIG
ZBSJ,2016-06-19 18:00,ZBSJ 191800Z 18001MPS 5000 BR NSC 22/20 Q1003 NOSIG
ZBSJ,2016-06-19 19:00,ZBSJ 191900Z 00000MPS 4000 BR NSC 21/20 Q1002 NOSIG
ZBSJ,2016-06-19 20:00,ZBSJ 192000Z 05001MPS 3000 BR NSC 20/19 Q1002 NOSIG
ZBSJ,2016-06-19 21:00,ZBSJ 192100Z 11001MPS 2300 BR NSC 21/20 Q1003 NOSIG
ZBSJ,2016-06-19 22:00,ZBSJ 192200Z 15001MPS 1600 BR NSC 21/20 Q1003 NOSIG
ZBSJ,2016-06-19 23:00,ZBSJ 192300Z 16002MPS 1600 BR NSC 24/22 Q1003 BECMG TL0030 3500
ZBSJ,2016-06-20 00:00,ZBSJ 200000Z 22002MPS 3000 HZ NSC 26/20 Q1003 NOSIG
ZBSJ,2016-06-20 01:00,ZBSJ 200100Z 23002MPS 6000 NSC 28/19 Q1003 NOSIG
ZBSJ,2016-06-20 02:00,ZBSJ 200200Z 14001MPS 7000 NSC 30/20 Q1002 NOSIG
ZBSJ,2016-06-20 03:00,ZBSJ 200300Z 28002MPS 8000 NSC 32/19 Q1002 NOSIG
ZBSJ,2016-06-20 04:00,ZBSJ 200400Z 20001MPS 8000 NSC 33/19 Q1002 NOSIG
ZBSJ,2016-06-20 05:00,ZBSJ 200500Z 21002MPS 140V280 8000 NSC 33/19 Q1001 NOSIG
ZBSJ,2016-06-20 06:00,ZBSJ 200600Z 14001MPS CAVOK 34/18 Q1000 NOSIG
ZBSJ,2016-06-20 07:00,ZBSJ 200700Z 08002MPS 020V140 CAVOK 34/19 Q1000 NOSIG
ZBSJ,2016-06-20 08:00,ZBSJ 200800Z 09002MPS CAVOK 36/18 Q0999 NOSIG
ZBSJ,2016-06-20 09:00,ZBSJ 200900Z 35002MPS CAVOK 34/19 Q1000 NOSIG
ZBSJ,2016-06-20 10:00,ZBSJ 201000Z 01005MPS CAVOK 33/19 Q1001 NOSIG
ZBSJ,2016-06-20 11:00,ZBSJ 201100Z 36003MPS 340V040 CAVOK 32/19 Q1001 NOSIG
ZBSJ,2016-06-20 12:00,ZBSJ 201200Z 34002MPS CAVOK 29/20 Q1001 NOSIG
ZBSJ,2016-06-20 13:00,ZBSJ 201300Z 28004MPS CAVOK 29/20 Q1002 NOSIG
ZBSJ,2016-06-20 14:00,ZBSJ 201400Z 29003MPS CAVOK 27/19 Q1003 NOSIG
ZBSJ,2016-06-20 15:00,ZBSJ 201500Z 26003MPS CAVOK 27/19 Q1003 NOSIG
ZBSJ,2016-06-20 16:00,ZBSJ 201600Z 31005MPS CAVOK 27/19 Q1003 NOSIG
ZBSJ,2016-06-20 17:00,ZBSJ 201700Z 26002MPS CAVOK 26/19 Q1002 NOSIG
ZBSJ,2016-06-20 18:00,ZBSJ 201800Z 27003MPS 240V310 CAVOK 26/19 Q1002 NOSIG
ZBSJ,2016-06-20 19:00,ZBSJ 201900Z 34002MPS CAVOK 24/20 Q1001 NOSIG
ZBSJ,2016-06-20 20:00,ZBSJ 202000Z 29002MPS CAVOK 25/20 Q1001 NOSIG
ZBSJ,2016-06-20 21:00,ZBSJ 202100Z 29002MPS 7000 NSC 24/19 Q1001 NOSIG
ZBSJ,2016-06-20 22:00,ZBSJ 202200Z 28001MPS 7000 NSC 24/20 Q1001 NOSIG
ZBSJ,2016-06-20 23:00,ZBSJ 202300Z 29001MPS 8000 NSC 27/20 Q1002 NOSIG
ZBSJ,2016-06-21 00:00,ZBSJ 210000Z 31001MPS 7000 NSC 29/21 Q1002 NOSIG
ZBSJ,2016-06-21 01:00,ZBSJ 210100Z 05001MPS CAVOK 30/20 Q1003 NOSIG
ZBSJ,2016-06-21 02:00,ZBSJ 210200Z 22002MPS 7000 NSC 31/20 Q1002 NOSIG
ZBSJ,2016-06-21 03:00,ZBSJ 210300Z VRB02MPS 8000 NSC 33/20 Q1002 NOSIG
ZBSJ,2016-06-21 04:00,ZBSJ 210400Z VRB02MPS CAVOK 34/20 Q1002 NOSIG
ZBSJ,2016-06-21 05:00,ZBSJ 210500Z 08002MPS CAVOK 36/20 Q1001 NOSIG
ZBSJ,2016-06-21 06:00,ZBSJ 210600Z 15001MPS CAVOK 37/19 Q1001 NOSIG
ZBSJ,2016-06-21 07:00,ZBSJ 210700Z 24002MPS CAVOK 37/20 Q1000 NOSIG
ZBSJ,2016-06-21 08:00,ZBSJ 210800Z 11002MPS 050V160 CAVOK 37/19 Q0999 NOSIG
ZBSJ,2016-06-21 09:00,ZBSJ 210900Z 24001MPS CAVOK 37/19 Q0999 NOSIG
ZBSJ,2016-06-21 10:00,ZBSJ 211000Z 05001MPS 8000 NSC 35/20 Q1000 NOSIG
ZBSJ,2016-06-21 11:00,ZBSJ 211100Z 24003MPS 8000 -RA NSC 32/21 Q0999 NOSIG
ZBSJ,2016-06-21 12:00,ZBSJ 211200Z 30004MPS CAVOK 32/19 Q1000 NOSIG
ZBSJ,2016-06-21 13:00,ZBSJ 211300Z 26004MPS CAVOK 29/17 Q1000 NOSIG
ZBSJ,2016-06-21 14:00,ZBSJ 211400Z 29004MPS CAVOK 28/17 Q1001 NOSIG
ZBSJ,2016-06-21 15:00,ZBSJ 211500Z 31005MPS CAVOK 27/18 Q1001 NOSIG
ZBSJ,2016-06-21 16:00,ZBSJ 211600Z 31003MPS CAVOK 27/17 Q1001 NOSIG
ZBSJ,2016-06-21 17:00,ZBSJ 211700Z 14002MPS CAVOK 24/17 Q1002 NOSIG
ZBSJ,2016-06-21 18:00,ZBSJ 211800Z 16002MPS CAVOK 23/18 Q1002 NOSIG
ZBSJ,2016-06-21 19:00,ZBSJ 211900Z 35001MPS CAVOK 23/18 Q1002 NOSIG
ZBSJ,2016-06-21 20:00,ZBSJ 212000Z 31001MPS CAVOK 23/18 Q1002 NOSIG
ZBSJ,2016-06-21 21:00,ZBSJ 212100Z 31001MPS CAVOK 23/18 Q1002 NOSIG
ZBSJ,2016-06-21 22:00,ZBSJ 212200Z 00000MPS CAVOK 23/19 Q1003 NOSIG
ZBSJ,2016-06-21 23:00,ZBSJ 212300Z 04002MPS 360V070 6000 NSC 26/22 Q1003 NOSIG
ZBSJ,2016-06-22 00:00,ZBSJ 220000Z 02003MPS 350V060 6000 NSC 27/21 Q1004 NOSIG
ZBSJ,2016-06-22 01:00,ZBSJ 220100Z 02002MPS 6000 NSC 29/21 Q1003 NOSIG
ZBSJ,2016-06-22 02:00,ZBSJ 220200Z 33001MPS 7000 NSC 31/21 Q1003 NOSIG
ZBSJ,2016-06-22 03:00,ZBSJ 220300Z 14001MPS 7000 NSC 32/20 Q1002 NOSIG
ZBSJ,2016-06-22 04:00,ZBSJ 220400Z 08001MPS CAVOK 34/21 Q1002 NOSIG
ZBSJ,2016-06-22 05:00,ZBSJ 220500Z 19003MPS 080V230 CAVOK 37/19 Q1001 NOSIG
ZBSJ,2016-06-22 06:00,ZBSJ 220600Z 19003MPS 110V260 CAVOK 38/17 Q1000 NOSIG
ZBSJ,2016-06-22 07:00,ZBSJ 220700Z 17005MPS 120V220 CAVOK 38/17 Q0999 NOSIG
ZBSJ,2016-06-22 08:00,ZBSJ 220800Z 19005MPS 150V220 CAVOK 38/16 Q0999 NOSIG
ZBSJ,2016-06-22 09:00,ZBSJ 220900Z 15005MPS 9999 FEW040 37/17 Q0998 NOSIG
ZBSJ,2016-06-22 10:00,ZBSJ 221000Z 31017G25MPS 1500 BLDU SCT030CB SCT043 31/15 Q1000 BECMG TL1130 33008MPS 3000 TSRA
ZBSJ,2016-06-22 11:00,ZBSJ 221100Z 07004MPS 360V120 9999 -TSRA SCT030CB BKN040 26/18 Q1003 BECMG AT1230 NSW
ZBSJ,2016-06-22 12:00,ZBSJ 221200Z 14003MPS 9999 FEW030CB BKN040 26/19 Q1001 RETS NOSIG
ZBSJ,2016-06-22 13:00,ZBSJ 221300Z 30004MPS 9999 OVC046 25/21 Q1002 NOSIG
ZBSJ,2016-06-22 14:00,ZBSJ 221400Z 30003MPS 9999 OVC046 25/21 Q1003 NOSIG
ZBSJ,2016-06-22 15:00,ZBSJ 221500Z 28002MPS CAVOK 25/21 Q1002 NOSIG
ZBSJ,2016-06-22 16:00,ZBSJ 221600Z 08001MPS 6000 NSC 23/21 Q1003 NOSIG
ZBSJ,2016-06-22 17:00,ZBSJ 221700Z 30002MPS 240V340 6000 NSC 25/21 Q1003 NOSIG
ZBSJ,2016-06-22 18:00,ZBSJ 221800Z 24002MPS 6000 TS FEW026CB BKN046 25/21 Q1002 NOSIG
ZBSJ,2016-06-22 19:00,ZBSJ 221900Z 34002MPS 310V010 6000 TS FEW026CB 25/21 Q1002 NOSIG
ZBSJ,2016-06-22 20:00,ZBSJ 222000Z 33003MPS 300V010 6000 TS FEW026CB 24/21 Q1003 NOSIG
ZBSJ,2016-06-22 21:00,ZBSJ 222100Z 22001MPS 6000 NSC 25/22 Q1004 RETS NOSIG
ZBSJ,2016-06-22 22:00,ZBSJ 222200Z 24003MPS 9999 SCT040 24/20 Q1004 NOSIG
ZBSJ,2016-06-22 23:00,ZBSJ 222300Z 22003MPS 9999 -RA SCT040 23/21 Q1004 NOSIG
ZBSJ,2016-06-23 00:00,ZBSJ 230000Z 27006MPS 9999 -RA SCT040 23/18 Q1006 NOSIG
ZBSJ,2016-06-23 01:00,ZBSJ 230100Z 27004MPS 9999 -RA SCT040 23/18 Q1006 NOSIG
ZBSJ,2016-06-23 02:00,ZBSJ 230200Z 27006MPS 9999 -RA OVC046 23/18 Q1007 NOSIG
ZBSJ,2016-06-23 03:00,ZBSJ 230300Z 21005MPS 9999 -RA OVC046 23/18 Q1006 NOSIG
ZBSJ,2016-06-23 04:00,ZBSJ 230400Z 22006MPS 9999 -RA OVC046 22/19 Q1004 NOSIG
ZBSJ,2016-06-23 05:00,ZBSJ 230500Z 30003MPS CAVOK 24/19 Q1006 NOSIG
ZBSJ,2016-06-23 06:00,ZBSJ 230600Z 28004MPS CAVOK 25/17 Q1005 NOSIG
ZBSJ,2016-06-23 07:00,ZBSJ 230700Z 28004MPS 9999 BKN046 26/17 Q1004 NOSIG
ZBSJ,2016-06-23 08:00,ZBSJ 230800Z 26004MPS CAVOK 28/15 Q1004 NOSIG
ZBSJ,2016-06-23 09:00,ZBSJ 230900Z 21003MPS 160V280 CAVOK 28/15 Q1004 NOSIG
ZBSJ,2016-06-23 10:00,ZBSJ 231000Z 20003MPS 170V230 CAVOK 28/14 Q1004 NOSIG
ZBSJ,2016-06-23 11:00,ZBSJ 231100Z 19003MPS CAVOK 26/14 Q1004 NOSIG
ZBSJ,2016-06-23 12:00,ZBSJ 231200Z 18002MPS CAVOK 23/15 Q1004 NOSIG
ZBSJ,2016-06-23 13:00,ZBSJ 231300Z 18002MPS CAVOK 21/15 Q1004 NOSIG
ZBSJ,2016-06-23 14:00,ZBSJ 231400Z 17001MPS CAVOK 20/16 Q1005 NOSIG
ZBSJ,2016-06-23 15:00,ZBSJ 231500Z 26001MPS CAVOK 20/16 Q1005 NOSIG
ZBSJ,2016-06-23 16:00,ZBSJ 231600Z 30001MPS CAVOK 20/16 Q1005 NOSIG
ZBSJ,2016-06-23 17:00,ZBSJ 231700Z 32001MPS CAVOK 20/16 Q1005 NOSIG
ZBSJ,2016-06-23 18:00,ZBSJ 231800Z 29002MPS CAVOK 20/16 Q1006 NOSIG
ZBSJ,2016-06-23 19:00,ZBSJ 231900Z 29003MPS 7000 NSC 20/17 Q1006 NOSIG
ZBSJ,2016-06-23 20:00,ZBSJ 232000Z 30004MPS 8000 NSC 20/17 Q1006 NOSIG
ZBSJ,2016-06-23 21:00,ZBSJ 232100Z 32003MPS CAVOK 18/15 Q1007 NOSIG
ZBSJ,2016-06-23 22:00,ZBSJ 232200Z 33001MPS CAVOK 22/12 Q1007 NOSIG
ZBSJ,2016-06-23 23:00,ZBSJ 232300Z 34005MPS CAVOK 26/08 Q1007 NOSIG
ZBSJ,2016-06-24 00:00,ZBSJ 240000Z 34006MPS CAVOK 28/09 Q1008 NOSIG
ZBSJ,2016-06-24 01:00,ZBSJ 240100Z 35006MPS 320V020 CAVOK 30/07 Q1008 NOSIG
ZBSJ,2016-06-24 02:00,ZBSJ 240200Z 35004MPS 310V040 CAVOK 32/06 Q1008 NOSIG
ZBSJ,2016-06-24 03:00,ZBSJ 240300Z 02003MPS 320V070 CAVOK 32/04 Q1008 NOSIG
ZBSJ,2016-06-24 04:00,ZBSJ 240400Z 35004MPS 310V050 CAVOK 34/05 Q1007 NOSIG
ZBSJ,2016-06-24 05:00,ZBSJ 240500Z 34002MPS 9999 FEW033 34/04 Q1007 NOSIG
ZBSJ,2016-06-24 06:00,ZBSJ 240600Z 31004MPS 260V020 9999 FEW030 35/04 Q1006 NOSIG
ZBSJ,2016-06-24 07:00,ZBSJ 240700Z 31003MPS 260V020 CAVOK 35/05 Q1005 NOSIG
ZBSJ,2016-06-24 08:00,ZBSJ 240800Z 07001MPS 9999 SCT033 34/04 Q1005 NOSIG
ZBSJ,2016-06-24 09:00,ZBSJ 240900Z 22004MPS 180V260 9999 SCT033 34/05 Q1004 NOSIG
ZBSJ,2016-06-24 10:00,ZBSJ 241000Z 24004MPS 210V270 9999 FEW033 34/06 Q1004 NOSIG
ZBSJ,2016-06-24 11:00,ZBSJ 241100Z 26003MPS 9999 FEW033 32/05 Q1004 NOSIG
ZBSJ,2016-06-24 12:00,ZBSJ 241200Z 25002MPS 9999 FEW033 29/07 Q1005 NOSIG
ZBSJ,2016-06-24 13:00,ZBSJ 241300Z 25002MPS CAVOK 29/08 Q1006 NOSIG
ZBSJ,2016-06-24 14:00,ZBSJ 241400Z 34003MPS CAVOK 25/09 Q1006 NOSIG
ZBSJ,2016-06-24 15:00,ZBSJ 241500Z 35004MPS CAVOK 25/10 Q1007 NOSIG
ZBSJ,2016-06-24 16:00,ZBSJ 241600Z 02002MPS CAVOK 23/10 Q1008 NOSIG
ZBSJ,2016-06-24 17:00,ZBSJ 241700Z 01004MPS 340V050 CAVOK 26/06 Q1008 NOSIG
ZBSJ,2016-06-24 18:00,ZBSJ 241800Z 35004MPS CAVOK 26/05 Q1008 NOSIG
ZBSJ,2016-06-24 19:00,ZBSJ 241900Z 34003MPS CAVOK 20/07 Q1009 NOSIG
ZBSJ,2016-06-24 20:00,ZBSJ 242000Z 32004MPS CAVOK 20/07 Q1009 NOSIG
ZBSJ,2016-06-24 21:00,ZBSJ 242100Z 32003MPS CAVOK 19/07 Q1009 NOSIG
ZBSJ,2016-06-24 22:00,ZBSJ 242200Z 30003MPS CAVOK 23/08 Q1009 NOSIG
ZBSJ,2016-06-24 23:00,ZBSJ 242300Z 30003MPS CAVOK 26/08 Q1010 NOSIG
ZBSJ,2016-06-25 00:00,ZBSJ 250000Z 33005MPS CAVOK 29/08 Q1010 NOSIG
ZBSJ,2016-06-25 01:00,ZBSJ 250100Z 33005MPS CAVOK 32/07 Q1010 NOSIG
ZBSJ,2016-06-25 02:00,ZBSJ 250200Z 02002MPS 320V080 CAVOK 33/08 Q1010 NOSIG
ZBSJ,2016-06-25 03:00,ZBSJ 250300Z 32002MPS CAVOK 34/09 Q1010 NOSIG
ZBSJ,2016-06-25 04:00,ZBSJ 250400Z VRB03MPS CAVOK 35/08 Q1009 NOSIG
ZBSJ,2016-06-25 05:00,ZBSJ 250500Z 05003MPS 340V140 CAVOK 35/09 Q1009 NOSIG
ZBSJ,2016-06-25 06:00,ZBSJ 250600Z 18002MPS CAVOK 35/07 Q1008 NOSIG
ZBSJ,2016-06-25 07:00,ZBSJ 250700Z 01002MPS CAVOK 36/09 Q1007 NOSIG
ZBSJ,2016-06-25 08:00,ZBSJ 250800Z 22003MPS 160V310 CAVOK 36/08 Q1007 NOSIG
ZBSJ,2016-06-25 09:00,ZBSJ 250900Z 29003MPS CAVOK 36/08 Q1007 NOSIG
ZBSJ,2016-06-25 10:00,ZBSJ 251000Z 22004MPS CAVOK 35/08 Q1007 NOSIG
ZBSJ,2016-06-25 11:00,ZBSJ 251100Z 20002MPS CAVOK 33/09 Q1007 NOSIG
ZBSJ,2016-06-25 12:00,ZBSJ 251200Z 18003MPS CAVOK 30/10 Q1007 NOSIG
ZBSJ,2016-06-25 13:00,ZBSJ 251300Z 20003MPS CAVOK 29/10 Q1008 NOSIG
ZBSJ,2016-06-25 14:00,ZBSJ 251400Z 20001MPS CAVOK 26/11 Q1008 NOSIG
ZBSJ,2016-06-25 15:00,ZBSJ 251500Z 19002MPS CAVOK 25/11 Q1008 NOSIG
ZBSJ,2016-06-25 16:00,ZBSJ 251600Z 23002MPS CAVOK 26/10 Q1008 NOSIG
ZBSJ,2016-06-25 17:00,ZBSJ 251700Z 26001MPS CAVOK 25/11 Q1008 NOSIG
ZBSJ,2016-06-25 18:00,ZBSJ 251800Z 24002MPS CAVOK 21/12 Q1008 NOSIG
ZBSJ,2016-06-25 19:00,ZBSJ 251900Z 28002MPS CAVOK 24/11 Q1008 NOSIG
ZBSJ,2016-06-25 20:00,ZBSJ 252000Z 32002MPS CAVOK 22/11 Q1007 NOSIG
ZBSJ,2016-06-25 21:00,ZBSJ 252100Z 31002MPS CAVOK 22/11 Q1007 NOSIG
ZBSJ,2016-06-25 22:00,ZBSJ 252200Z 24001MPS CAVOK 22/13 Q1008 NOSIG
ZBSJ,2016-06-25 23:00,ZBSJ 252300Z 29002MPS CAVOK 25/12 Q1008 NOSIG
ZBSJ,2016-06-26 00:00,ZBSJ 260000Z 25002MPS 210V280 CAVOK 27/13 Q1007 NOSIG
ZBSJ,2016-06-26 01:00,ZBSJ 260100Z 24004MPS CAVOK 31/13 Q1007 NOSIG
ZBSJ,2016-06-26 02:00,ZBSJ 260200Z 26003MPS CAVOK 32/12 Q1007 NOSIG
ZBSJ,2016-06-26 03:00,ZBSJ 260300Z 21003MPS 180V240 CAVOK 33/10 Q1007 NOSIG
ZBSJ,2016-06-26 04:00,ZBSJ 260400Z 20005MPS CAVOK 35/09 Q1007 NOSIG
ZBSJ,2016-06-26 05:00,ZBSJ 260500Z 20004MPS CAVOK 36/10 Q1006 NOSIG
ZBSJ,2016-06-26 06:00,ZBSJ 260600Z 19006MPS CAVOK 37/06 Q1005 NOSIG
ZBSJ,2016-06-26 07:00,ZBSJ 260700Z 17007MPS CAVOK 36/06 Q1004 NOSIG
ZBSJ,2016-06-26 08:00,ZBSJ 260800Z 16006MPS CAVOK 36/09 Q1004 NOSIG
ZBSJ,2016-06-26 09:00,ZBSJ 260900Z 17005MPS CAVOK 35/08 Q1003 NOSIG
ZBSJ,2016-06-26 10:00,ZBSJ 261000Z 15006MPS CAVOK 33/09 Q1003 NOSIG
ZBSJ,2016-06-26 11:00,ZBSJ 261100Z 15004MPS CAVOK 32/11 Q1003 NOSIG
ZBSJ,2016-06-26 12:00,ZBSJ 261200Z 15004MPS CAVOK 29/12 Q1003 NOSIG
ZBSJ,2016-06-26 13:00,ZBSJ 261300Z 15004MPS CAVOK 28/12 Q1003 NOSIG
ZBSJ,2016-06-26 14:00,ZBSJ 261400Z 16003MPS CAVOK 26/12 Q1004 NOSIG
ZBSJ,2016-06-26 15:00,ZBSJ 261500Z 15001MPS CAVOK 26/12 Q1004 NOSIG
ZBSJ,2016-06-26 16:00,ZBSJ 261600Z 16003MPS CAVOK 24/13 Q1003 NOSIG
ZBSJ,2016-06-26 17:00,ZBSJ 261700Z 16003MPS CAVOK 24/15 Q1002 NOSIG
ZBSJ,2016-06-26 18:00,ZBSJ 261800Z 18002MPS CAVOK 25/15 Q1002 NOSIG
ZBSJ,2016-06-26 19:00,ZBSJ 261900Z 15002MPS CAVOK 24/16 Q1002 NOSIG
ZBSJ,2016-06-26 20:00,ZBSJ 262000Z 16002MPS CAVOK 23/17 Q1002 NOSIG
ZBSJ,2016-06-26 21:00,ZBSJ 262100Z 18002MPS 7000 NSC 23/18 Q1002 NOSIG
ZBSJ,2016-06-26 22:00,ZBSJ 262200Z 18002MPS 5000 HZ NSC 24/19 Q1002 NOSIG
ZBSJ,2016-06-26 23:00,ZBSJ 262300Z 21002MPS 5000 HZ NSC 25/19 Q1002 NOSIG
ZBSJ,2016-06-27 00:00,ZBSJ 270000Z 19004MPS 6000 NSC 27/18 Q1002 NOSIG
ZBSJ,2016-06-27 01:00,ZBSJ 270100Z 22002MPS 6000 NSC 29/17 Q1002 NOSIG
ZBSJ,2016-06-27 02:00,ZBSJ 270200Z 20001MPS 6000 NSC 31/17 Q1002 NOSIG
ZBSJ,2016-06-27 03:00,ZBSJ 270300Z 08002MPS 6000 NSC 32/16 Q1002 NOSIG
ZBSJ,2016-06-27 04:00,ZBSJ 270400Z 14003MPS 080V240 7000 NSC 34/16 Q1001 NOSIG
ZBSJ,2016-06-27 05:00,ZBSJ 270500Z 13004MPS 090V160 7000 NSC 34/18 Q1000 NOSIG
ZBSJ,2016-06-27 06:00,ZBSJ 270600Z 13004MPS 090V170 8000 BKN040 33/17 Q1000 NOSIG
ZBSJ,2016-06-27 07:00,ZBSJ 270700Z 12005MPS 090V150 9999 FEW030TCU BKN040 32/16 Q0999 NOSIG
ZBSJ,2016-06-27 08:00,ZBSJ 270800Z 12005MPS 9999 -TSRA FEW030CB BKN046 29/18 Q1000 BECMG AT0930 NSW
ZBSJ,2016-06-27 09:00,ZBSJ 270900Z 20004MPS 9999 BKN046 30/17 Q1000 RETS NOSIG
ZBSJ,2016-06-27 10:00,ZBSJ 271000Z 22005MPS 9999 BKN046 29/17 Q1001 NOSIG
ZBSJ,2016-06-27 11:00,ZBSJ 271100Z 28001MPS 9999 BKN046 28/17 Q1002 NOSIG
ZBSJ,2016-06-27 12:00,ZBSJ 271200Z 05002MPS 9999 BKN046 26/18 Q1003 NOSIG
ZBSJ,2016-06-27 13:00,ZBSJ 271300Z 08003MPS 7000 BKN046 24/20 Q1003 NOSIG
ZBSJ,2016-06-27 14:00,ZBSJ 271400Z 06003MPS 5000 BR BKN046 24/19 Q1003 NOSIG
ZBSJ,2016-06-27 15:00,ZBSJ 271500Z 06003MPS 5000 BR BKN046 23/19 Q1003 NOSIG
ZBSJ,2016-06-27 16:00,ZBSJ 271600Z 08002MPS 5000 BR BKN046 22/19 Q1003 NOSIG
ZBSJ,2016-06-27 17:00,ZBSJ 271700Z 11001MPS 5000 BR NSC 22/18 Q1002 NOSIG
ZBSJ,2016-06-27 18:00,ZBSJ 271800Z 18003MPS CAVOK 23/18 Q1002 NOSIG
ZBSJ,2016-06-27 19:00,ZBSJ 271900Z 17003MPS CAVOK 22/18 Q1002 NOSIG
ZBSJ,2016-06-27 20:00,ZBSJ 272000Z 01001MPS 8000 NSC 22/19 Q1003 NOSIG
ZBSJ,2016-06-27 21:00,ZBSJ 272100Z 08001MPS 6000 NSC 21/18 Q1004 NOSIG
ZBSJ,2016-06-27 22:00,ZBSJ 272200Z 12004MPS 6000 NSC 22/19 Q1001 NOSIG
ZBSJ,2016-06-27 23:00,ZBSJ 272300Z 25003MPS 2700 BR NSC 22/19 Q1003 BECMG TL0030 3000
ZBSJ,2016-06-28 00:00,ZBSJ 280000Z 31004MPS 280V340 3000 BR NSC 23/19 Q1004 NOSIG
ZBSJ,2016-06-28 01:00,ZBSJ 280100Z 36002MPS 330V080 3000 BR NSC 24/19 Q1004 BECMG TL0200 2500 BR
ZBSJ,2016-06-28 02:00,ZBSJ 280200Z 09002MPS 030V130 2800 HZ NSC 25/19 Q1004 BECMG TL0300 3500
ZBSJ,2016-06-28 03:00,ZBSJ 280300Z 07004MPS 020V120 2800 HZ NSC 26/20 Q1004 BECMG TL0400 3500
ZBSJ,2016-06-28 04:00,ZBSJ 280400Z 08004MPS 060V130 3500 HZ NSC 26/19 Q1004 NOSIG
ZBSJ,2016-06-28 05:00,ZBSJ 280500Z 08004MPS 040V110 3500 HZ NSC 27/19 Q1004 NOSIG
ZBSJ,2016-06-28 06:00,ZBSJ 280600Z 06003MPS 020V090 5000 HZ NSC 25/19 Q1003 BECMG AT0645 -TSRA
ZBSJ,2016-06-28 07:00,ZBSJ 280700Z 03003MPS 340V070 5000 BR NSC 24/19 Q1004 NOSIG
ZBSJ,2016-06-28 08:00,ZBSJ 280800Z 04003MPS 4000 -TSRA BR FEW030CB BKN040 23/20 Q1005 BECMG AT0930 NSW
ZBSJ,2016-06-28 09:00,ZBSJ 280900Z 06003MPS 020V100 3000 BR NSC 23/20 Q1003 RETS BECMG TL1030 2900 BR
ZBSJ,2016-06-28 10:00,ZBSJ 281000Z 03002MPS 3000 BR OVC046 24/20 Q1005 NOSIG
ZBSJ,2016-06-28 11:00,ZBSJ 281100Z 01003MPS 340V050 2900 BR NSC 24/19 Q1005 BECMG TL1230 3000
ZBSJ,2016-06-28 12:00,ZBSJ 281200Z 09002MPS 050V140 3500 BR NSC 23/19 Q1005 NOSIG
ZBSJ,2016-06-28 13:00,ZBSJ 281300Z 01003MPS 340V040 5000 BR NSC 23/19 Q1007 NOSIG
ZBSJ,2016-06-28 14:00,ZBSJ 281400Z 07004MPS 4500 BR NSC 22/19 Q1005 NOSIG
ZBSJ,2016-06-28 15:00,ZBSJ 281500Z 18004MPS 4500 BR NSC 22/19 Q1006 NOSIG
ZBSJ,2016-06-28 16:00,ZBSJ 281600Z 30001MPS 3500 BR NSC 22/20 Q1006 NOSIG
ZBSJ,2016-06-28 17:00,ZBSJ 281700Z 00000MPS 3000 BR NSC 21/19 Q1006 NOSIG
ZBSJ,2016-06-28 18:00,ZBSJ 281800Z 36002MPS 3000 BR NSC 22/20 Q1006 NOSIG
ZBSJ,2016-06-28 19:00,ZBSJ 281900Z 25001MPS 3000 BR NSC 22/20 Q1004 NOSIG
ZBSJ,2016-06-28 20:00,ZBSJ 282000Z 23002MPS 3000 BR NSC 21/19 Q1004 NOSIG
ZBSJ,2016-06-28 21:00,ZBSJ 282100Z 21002MPS 2000 BR NSC 20/19 Q1004 NOSIG
ZBSJ,2016-06-28 22:00,ZBSJ 282200Z 15001MPS 1600 BR NSC 20/19 Q1004 NOSIG
ZBSJ,2016-06-28 23:00,ZBSJ 282300Z 14001MPS 1400 R15/1300N BR NSC 22/20 Q1004 BECMG TL0030 1600
ZBSJ,2016-06-29 00:00,ZBSJ 290000Z 10001MPS 1500 BR NSC 23/20 Q1005 NOSIG
ZBSJ,2016-06-29 01:00,ZBSJ 290100Z 14002MPS 1600 BR NSC 25/21 Q1005 NOSIG
ZBSJ,2016-06-29 02:00,ZBSJ 290200Z 14003MPS 110V200 1700 HZ NSC 27/21 Q1004 NOSIG
ZBSJ,2016-06-29 03:00,ZBSJ 290300Z 17003MPS 140V210 2000 HZ NSC 28/21 Q1004 BECMG TL0430 3000
ZBSJ,2016-06-29 04:00,ZBSJ 290400Z 17003MPS 130V210 2200 HZ NSC 30/21 Q1004 BECMG TL0530 3000
ZBSJ,2016-06-29 05:00,ZBSJ 290500Z 13003MPS 080V200 2700 HZ NSC 31/20 Q1003 BECMG TL0630 3500
ZBSJ,2016-06-29 06:00,ZBSJ 290600Z 10003MPS 060V140 3000 HZ NSC 33/21 Q1002 BECMG TL0730 2500 BR
ZBSJ,2016-06-29 07:00,ZBSJ 290700Z 18005MPS 130V230 4500 HZ NSC 33/20 Q1002 NOSIG
ZBSJ,2016-06-29 08:00,ZBSJ 290800Z 08003MPS 040V120 4500 HZ FEW040 33/21 Q1003 NOSIG
ZBSJ,2016-06-29 09:00,ZBSJ 290900Z 05006MPS 2000 HZ NSC 29/22 Q1003 NOSIG
ZBSJ,2016-06-29 10:00,ZBSJ 291000Z 05005MPS 010V080 2000 HZ NSC 28/22 Q1003 BECMG AT1030 -TSRA
ZBSJ,2016-06-29 11:00,ZBSJ 291100Z 05004MPS 020V080 2000 HZ NSC 28/21 Q1004 NOSIG
ZBSJ,2016-06-29 12:00,ZBSJ 291200Z 34001MPS 2200 HZ NSC 26/21 Q1004 NOSIG
ZBSJ,2016-06-29 13:00,ZBSJ 291300Z 33003MPS 3500 BR NSC 25/21 Q1004 NOSIG
ZBSJ,2016-06-29 14:00,ZBSJ 291400Z 28003MPS 3500 BR NSC 26/21 Q1004 NOSIG
ZBSJ,2016-06-29 15:00,ZBSJ 291500Z 35002MPS 3000 BR NSC 24/21 Q1005 NOSIG
ZBSJ,2016-06-29 16:00,ZBSJ 291600Z 08001MPS 3000 BR NSC 24/21 Q1004 NOSIG
ZBSJ,2016-06-29 17:00,ZBSJ 291700Z 09002MPS 4000 BR NSC 23/20 Q1004 NOSIG
ZBSJ,2016-06-29 18:00,ZBSJ 291800Z 32001MPS 4000 BR NSC 23/20 Q1003 NOSIG
ZBSJ,2016-06-29 19:00,ZBSJ 291900Z 10001MPS 3500 BR NSC 23/20 Q1003 NOSIG
ZBSJ,2016-06-29 20:00,ZBSJ 292000Z 35002MPS 3500 BR NSC 23/21 Q1004 NOSIG
ZBSJ,2016-06-29 21:00,ZBSJ 292100Z 03002MPS 3500 BR NSC 23/20 Q1003 NOSIG
ZBSJ,2016-06-29 22:00,ZBSJ 292200Z 02002MPS 3000 BR NSC 23/20 Q1004 NOSIG
ZBSJ,2016-06-29 23:00,ZBSJ 292300Z 16001MPS 3000 BR NSC 24/20 Q1003 NOSIG
ZBSJ,2016-06-30 00:00,ZBSJ 300000Z 26002MPS 3000 BR NSC 25/20 Q1003 NOSIG
ZBSJ,2016-06-30 01:00,ZBSJ 300100Z 32003MPS 220V360 3000 HZ NSC 27/20 Q1003 BECMG TL0230 2500 HZ
ZBSJ,2016-06-30 02:00,ZBSJ 300200Z 32004MPS 300V010 2900 -TSRA HZ FEW033CB BKN046 26/20 Q1005 BECMG TL0330 3000 NSW
ZBSJ,2016-06-30 03:00,ZBSJ 300300Z 35005MPS 3000 BR BKN046 24/21 Q1002 RETS BECMG TL0430 2500 BR
ZBSJ,2016-06-30 04:00,ZBSJ 300400Z 05005MPS 010V080 3500 HZ NSC 28/21 Q1003 NOSIG
ZBSJ,2016-06-30 05:00,ZBSJ 300500Z 09004MPS 050V120 5000 HZ NSC 29/20 Q1002 NOSIG
ZBSJ,2016-06-30 06:00,ZBSJ 300600Z 08003MPS 040V110 6000 NSC 31/20 Q1001 NOSIG
ZBSJ,2016-06-30 07:00,ZBSJ 300700Z 07004MPS 030V120 7000 NSC 32/19 Q1001 NOSIG
ZBSJ,2016-06-30 08:00,ZBSJ 300800Z 07004MPS 6000 NSC 31/19 Q1001 NOSIG
ZBSJ,2016-06-30 09:00,ZBSJ 300900Z 07002MPS 4500 -RA HZ NSC 30/20 Q1002 NOSIG
ZBSJ,2016-06-30 10:00,ZBSJ 301000Z 35003MPS 3000 HZ SCT046 28/21 Q1001 NOSIG
ZBSJ,2016-06-30 11:00,ZBSJ 301100Z 33004MPS 280V060 2000 -TSRA BR FEW033CB BKN046 26/23 Q1002 BECMG TL1230 NSW
ZBSJ,2016-06-30 12:00,ZBSJ 301200Z 22004MPS 2000 BR OVC046 25/23 Q1004 RETS BECMG TL1330 3000
ZBSJ,2016-06-30 13:00,ZBSJ 301300Z 19002MPS 3500 BR OVC046 23/22 Q1003 NOSIG
ZBSJ,2016-06-30 14:00,ZBSJ 301400Z 34002MPS 6000 FEW046 23/20 Q1002 NOSIG
ZBSJ,2016-06-30 15:00,ZBSJ 301500Z 32003MPS 6000 FEW046 23/20 Q1003 NOSIG
ZBSJ,2016-06-30 16:00,ZBSJ 301600Z 22001MPS 5000 BR FEW046 23/21 Q1003 NOSIG
ZBSJ,2016-06-30 17:00,ZBSJ 301700Z 36002MPS 4000 BR FEW046 22/21 Q1003 NOSIG
ZBSJ,2016-06-30 18:00,ZBSJ 301800Z 21001MPS 4000 BR FEW046 22/20 Q1004 NOSIG
ZBSJ,2016-06-30 19:00,ZBSJ 301900Z 29001MPS 4000 BR FEW046 21/20 Q1003 NOSIG
ZBSJ,2016-06-30 20:00,ZBSJ 302000Z 32003MPS 3000 BR FEW046 21/20 Q1003 NOSIG
ZBSJ,2016-06-30 21:00,ZBSJ 302100Z 35002MPS 2000 BR BKN046 21/21 Q1004 NOSIG
ZBSJ,2016-06-30 22:00,ZBSJ 302200Z 02001MPS 1800 BR SCT046 22/21 Q1004 NOSIG
ZBSJ,2016-06-30 23:00,ZBSJ 302300Z 02002MPS 350V060 2500 BR NSC 24/21 Q1004 BECMG TL0030 3000
ZBSJ,2016-07-01 00:00,ZBSJ 010000Z 04003MPS 010V070 5000 HZ SCT046 24/19 Q1005 NOSIG
ZBSJ,2016-07-01 01:00,ZBSJ 010100Z 35001MPS 6000 -RA OVC040 24/20 Q1005 NOSIG
ZBSJ,2016-07-01 02:00,ZBSJ 010200Z 02004MPS 330V050 CAVOK 26/18 Q1005 NOSIG
ZBSJ,2016-07-01 03:00,ZBSJ 010300Z 04004MPS 010V070 CAVOK 28/16 Q1005 NOSIG
ZBSJ,2016-07-01 04:00,ZBSJ 010400Z 09003MPS 060V130 9999 FEW033 29/14 Q1004 NOSIG
ZBSJ,2016-07-01 05:00,ZBSJ 010500Z 08003MPS 030V120 9999 SCT030 SCT046 30/14 Q1004 NOSIG
ZBSJ,2016-07-01 06:00,ZBSJ 010600Z 03003MPS 340V070 9999 BKN046 30/15 Q1003 NOSIG
ZBSJ,2016-07-01 07:00,ZBSJ 010700Z 36006MPS 310V040 9999 BKN046 29/17 Q1003 NOSIG
ZBSJ,2016-07-01 08:00,ZBSJ 010800Z 01006MPS 9999 FEW033 SCT046 28/16 Q1004 NOSIG
ZBSJ,2016-07-01 09:00,ZBSJ 010900Z 01004MPS 340V040 9999 SCT040 24/17 Q1003 NOSIG
ZBSJ,2016-07-01 10:00,ZBSJ 011000Z 36002MPS 320V040 9999 SCT040 24/17 Q1004 NOSIG
ZBSJ,2016-07-01 11:00,ZBSJ 011100Z 35002MPS 9999 BKN046 24/17 Q1004 NOSIG
ZBSJ,2016-07-01 12:00,ZBSJ 011200Z 33001MPS CAVOK 23/17 Q1005 NOSIG
ZBSJ,2016-07-01 13:00,ZBSJ 011300Z 20002MPS CAVOK 23/17 Q1005 NOSIG
ZBSJ,2016-07-01 14:00,ZBSJ 011400Z 35001MPS CAVOK 23/18 Q1005 NOSIG
ZBSJ,2016-07-01 15:00,ZBSJ 011500Z 28002MPS CAVOK 24/18 Q1005 NOSIG
ZBSJ,2016-07-01 16:00,ZBSJ 011600Z 29003MPS CAVOK 23/17 Q1005 NOSIG
ZBSJ,2016-07-01 17:00,ZBSJ 011700Z 28003MPS CAVOK 23/17 Q1005 NOSIG
ZBSJ,2016-07-01 18:00,ZBSJ 011800Z 29003MPS CAVOK 23/17 Q1005 NOSIG
ZBSJ,2016-07-01 19:00,ZBSJ 011900Z 33003MPS CAVOK 22/17 Q1005 NOSIG
ZBSJ,2016-07-01 20:00,ZBSJ 012000Z 34002MPS CAVOK 21/18 Q1005 NOSIG
ZBSJ,2016-07-01 21:00,ZBSJ 012100Z 32002MPS 8000 NSC 21/18 Q1005 NOSIG
ZBSJ,2016-07-01 22:00,ZBSJ 012200Z 27001MPS 5000 BR NSC 21/19 Q1005 NOSIG
ZBSJ,2016-07-01 23:00,ZBSJ 012300Z 31001MPS 7000 NSC 24/19 Q1006 NOSIG
ZBSJ,2016-07-02 00:00,ZBSJ 020000Z 31002MPS 270V360 8000 NSC 26/18 Q1006 NOSIG
ZBSJ,2016-07-02 01:00,ZBSJ 020100Z 30002MPS 200V350 8000 NSC 28/18 Q1006 NOSIG
ZBSJ,2016-07-02 02:00,ZBSJ 020200Z VRB02MPS CAVOK 29/17 Q1006 NOSIG
ZBSJ,2016-07-02 03:00,ZBSJ 020300Z 26002MPS 180V320 8000 NSC 30/18 Q1006 NOSIG
ZBSJ,2016-07-02 04:00,ZBSJ 020400Z 19003MPS 150V270 7000 NSC 31/18 Q1005 NOSIG
ZBSJ,2016-07-02 05:00,ZBSJ 020500Z 16002MPS 6000 FEW033 32/19 Q1005 NOSIG
ZBSJ,2016-07-02 06:00,ZBSJ 020600Z 18003MPS 100V240 6000 SCT033 33/18 Q1004 NOSIG
ZBSJ,2016-07-02 07:00,ZBSJ 020700Z 10003MPS 050V180 7000 NSC 33/18 Q1004 NOSIG
ZBSJ,2016-07-02 08:00,ZBSJ 020800Z 18004MPS 150V220 7000 NSC 33/19 Q1003 NOSIG
ZBSJ,2016-07-02 09:00,ZBSJ 020900Z 12003MPS 070V180 7000 NSC 33/19 Q1003 NOSIG
ZBSJ,2016-07-02 10:00,ZBSJ 021000Z 12002MPS 090V160 CAVOK 32/18 Q1003 NOSIG
ZBSJ,2016-07-02 11:00,ZBSJ 021100Z 16003MPS CAVOK 31/19 Q1004 NOSIG
ZBSJ,2016-07-02 12:00,ZBSJ 021200Z 11001MPS CAVOK 29/20 Q1004 NOSIG
ZBSJ,2016-07-02 13:00,ZBSJ 021300Z 10003MPS CAVOK 29/19 Q1005 NOSIG
ZBSJ,2016-07-02 14:00,ZBSJ 021400Z 09002MPS CAVOK 28/20 Q1005 NOSIG
ZBSJ,2016-07-02 15:00,ZBSJ 021500Z 09002MPS CAVOK 27/20 Q1005 NOSIG
ZBSJ,2016-07-02 16:00,ZBSJ 021600Z 11002MPS CAVOK 27/20 Q1005 NOSIG
ZBSJ,2016-07-02 17:00,ZBSJ 021700Z 06001MPS 8000 NSC 25/20 Q1005 NOSIG
ZBSJ,2016-07-02 18:00,ZBSJ 021800Z 05002MPS 6000 NSC 25/20 Q1005 NOSIG
ZBSJ,2016-07-02 19:00,ZBSJ 021900Z 03001MPS 6000 NSC 25/20 Q1005 NOSIG
ZBSJ,2016-07-02 20:00,ZBSJ 022000Z 05001MPS 6000 NSC 25/20 Q1005 NOSIG
ZBSJ,2016-07-02 21:00,ZBSJ 022100Z 07002MPS 4000 BR NSC 24/21 Q1005 NOSIG
ZBSJ,2016-07-02 22:00,ZBSJ 022200Z 05002MPS 2200 BR NSC 24/21 Q1005 BECMG TL2330 3000
ZBSJ,2016-07-02 23:00,ZBSJ 022300Z 06002MPS 020V080 2700 BR NSC 25/21 Q1006 BECMG TL0030 3000
ZBSJ,2016-07-03 00:00,ZBSJ 030000Z 36002MPS 3000 BR NSC 25/21 Q1006 RETS NOSIG
ZBSJ,2016-07-03 01:00,ZBSJ 030100Z 05002MPS 340V080 3000 BR NSC 27/22 Q1006 BECMG TL0200 2800 BR
ZBSJ,2016-07-03 02:00,ZBSJ 030200Z 13001MPS 2700 BR NSC 28/22 Q1006 BECMG TL0330 3000
ZBSJ,2016-07-03 03:00,ZBSJ 030300Z 08004MPS 050V120 4000 HZ NSC 29/22 Q1006 NOSIG
ZBSJ,2016-07-03 04:00,ZBSJ 030400Z 13004MPS 090V160 4000 HZ NSC 30/22 Q1006 NOSIG
ZBSJ,2016-07-03 05:00,ZBSJ 030500Z 12003MPS 090V160 4000 HZ NSC 31/22 Q1005 NOSIG
ZBSJ,2016-07-03 06:00,ZBSJ 030600Z 13003MPS 080V170 4000 HZ NSC 31/21 Q1005 NOSIG
ZBSJ,2016-07-03 07:00,ZBSJ 030700Z 13003MPS 080V170 5000 HZ NSC 31/22 Q1004 NOSIG
ZBSJ,2016-07-03 08:00,ZBSJ 030800Z 17003MPS 5000 HZ NSC 31/22 Q1004 NOSIG
ZBSJ,2016-07-03 09:00,ZBSJ 030900Z 16004MPS 5000 HZ NSC 30/22 Q1004 NOSIG
ZBSJ,2016-07-03 10:00,ZBSJ 031000Z 16005MPS 7000 NSC 29/21 Q1004 NOSIG
ZBSJ,2016-07-03 11:00,ZBSJ 031100Z 16005MPS 8000 -RA BKN046 28/22 Q1005 NOSIG
ZBSJ,2016-07-03 12:00,ZBSJ 031200Z 13004MPS 6000 TSRA FEW030TCU BKN040 23/21 Q1005 BECMG TL1240 NSW
ZBSJ,2016-07-03 13:00,ZBSJ 031300Z 13003MPS 5000 -RA BR OVC046 25/23 Q1006 RETSRA NOSIG
ZBSJ,2016-07-03 14:00,ZBSJ 031400Z 11002MPS 5000 BR NSC 25/22 Q1007 NOSIG
ZBSJ,2016-07-03 15:00,ZBSJ 031500Z 27001MPS 5000 BR NSC 25/23 Q1007 NOSIG
ZBSJ,2016-07-03 16:00,ZBSJ 031600Z 04001MPS 5000 BR NSC 24/22 Q1007 NOSIG
ZBSJ,2016-07-03 17:00,ZBSJ 031700Z 06002MPS 4000 BR NSC 23/22 Q1006 NOSIG
ZBSJ,2016-07-03 18:00,ZBSJ 031800Z 32001MPS 3500 BR NSC 23/22 Q1006 NOSIG
ZBSJ,2016-07-03 19:00,ZBSJ 031900Z 32001MPS 3500 BR NSC 22/22 Q1006 NOSIG
ZBSJ,2016-07-03 20:00,ZBSJ 032000Z 04002MPS 4000 BR NSC 22/21 Q1006 NOSIG
ZBSJ,2016-07-03 21:00,ZBSJ 032100Z 06001MPS 2500 BR NSC 22/21 Q1006 NOSIG
ZBSJ,2016-07-03 22:00,ZBSJ 032200Z 00000MPS 2200 BR NSC 22/22 Q1007 NOSIG
ZBSJ,2016-07-03 23:00,ZBSJ 032300Z 35001MPS 2200 BR NSC 23/22 Q1007 NOSIG
ZBSJ,2016-07-04 00:00,ZBSJ 040000Z 06001MPS 2500 BR NSC 25/22 Q1007 BECMG TL0130 3500
ZBSJ,2016-07-04 01:00,ZBSJ 040100Z 20001MPS 2800 BR NSC 26/22 Q1008 BECMG TL0230 3500
ZBSJ,2016-07-04 02:00,ZBSJ 040200Z 05002MPS 4000 HZ NSC 28/22 Q1008 NOSIG
ZBSJ,2016-07-04 03:00,ZBSJ 040300Z 06003MPS 350V110 4500 HZ NSC 29/22 Q1008 NOSIG
ZBSJ,2016-07-04 04:00,ZBSJ 040400Z 09002MPS 020V160 5000 HZ NSC 30/22 Q1008 NOSIG
ZBSJ,2016-07-04 05:00,ZBSJ 040500Z 10002MPS 8000 NSC 31/21 Q1007 NOSIG
ZBSJ,2016-07-04 06:00,ZBSJ 040600Z 08002MPS 040V110 7000 NSC 30/21 Q1006 NOSIG
ZBSJ,2016-07-04 07:00,ZBSJ 040700Z 07003MPS 340V100 6000 NSC 31/21 Q1006 NOSIG
ZBSJ,2016-07-04 08:00,ZBSJ 040800Z 10002MPS 6000 FEW046 31/21 Q1006 BECMG AT0900 -TSRA
ZBSJ,2016-07-04 09:00,ZBSJ 040900Z 23004MPS 4000 HZ OVC046 27/22 Q1007 BECMG AT0930 -TSRA
ZBSJ,2016-07-04 10:00,ZBSJ 041000Z VRB02MPS 5000 HZ OVC046 28/21 Q1006 NOSIG
ZBSJ,2016-07-04 11:00,ZBSJ 041100Z 25002MPS 220V280 4000 HZ OVC046 26/22 Q1007 NOSIG
ZBSJ,2016-07-04 12:00,ZBSJ 041200Z 26001MPS 3300 HZ OVC046 26/22 Q1008 NOSIG
ZBSJ,2016-07-04 13:00,ZBSJ 041300Z 34002MPS 5000 HZ OVC046 26/22 Q1008 NOSIG
ZBSJ,2016-07-04 14:00,ZBSJ 041400Z 35002MPS 5000 BR OVC046 25/22 Q1008 NOSIG
ZBSJ,2016-07-04 15:00,ZBSJ 041500Z 00000MPS 4000 BR OVC046 25/22 Q1008 NOSIG
ZBSJ,2016-07-04 16:00,ZBSJ 041600Z 01001MPS 4000 BR OVC046 24/22 Q1008 NOSIG
ZBSJ,2016-07-04 17:00,ZBSJ 041700Z 07001MPS 3500 BR OVC046 24/22 Q1008 NOSIG
ZBSJ,2016-07-04 18:00,ZBSJ 041800Z 01001MPS 3000 BR OVC046 23/22 Q1009 NOSIG
ZBSJ,2016-07-04 19:00,ZBSJ 041900Z 00000MPS 2700 BR OVC046 23/22 Q1009 NOSIG
ZBSJ,2016-07-04 20:00,ZBSJ 042000Z 03001MPS 3000 BR OVC046 23/21 Q1009 NOSIG
ZBSJ,2016-07-04 21:00,ZBSJ 042100Z 04001MPS 2200 BR OVC046 22/21 Q1009 NOSIG
ZBSJ,2016-07-04 22:00,ZBSJ 042200Z 36001MPS 1500 BR OVC046 23/21 Q1010 NOSIG
ZBSJ,2016-07-04 23:00,ZBSJ 042300Z 06002MPS 2300 BR BKN046 23/21 Q1010 BECMG TL2350 3100
ZBSJ,2016-07-05 00:00,ZBSJ 050000Z 05003MPS 2500 BR NSC 24/21 Q1011 BECMG TL0100 3100
ZBSJ,2016-07-05 01:00,ZBSJ 050100Z 07003MPS 030V100 3000 BR NSC 25/21 Q1011 NOSIG
ZBSJ,2016-07-05 02:00,ZBSJ 050200Z 08002MPS 020V130 3000 BR NSC 27/22 Q1012 NOSIG
ZBSJ,2016-07-05 03:00,ZBSJ 050300Z 10003MPS 040V150 4500 HZ NSC 28/21 Q1012 NOSIG
ZBSJ,2016-07-05 04:00,ZBSJ 050400Z 08003MPS 360V120 7000 NSC 29/20 Q1011 NOSIG
ZBSJ,2016-07-05 05:00,ZBSJ 050500Z 14003MPS 090V180 7000 NSC 30/20 Q1011 NOSIG
ZBSJ,2016-07-05 06:00,ZBSJ 050600Z 12002MPS 050V200 7000 NSC 31/20 Q1010 NOSIG
ZBSJ,2016-07-05 07:00,ZBSJ 050700Z VRB03MPS 6000 NSC 31/20 Q1010 NOSIG
ZBSJ,2016-07-05 08:00,ZBSJ 050800Z 16003MPS 120V200 7000 NSC 32/19 Q1009 NOSIG
ZBSJ,2016-07-05 09:00,ZBSJ 050900Z 15002MPS 130V200 8000 NSC 32/19 Q1009 NOSIG
ZBSJ,2016-07-05 10:00,ZBSJ 051000Z 15004MPS 8000 FEW033 30/19 Q1009 NOSIG
ZBSJ,2016-07-05 11:00,ZBSJ 051100Z 16003MPS 9000 NSC 29/19 Q1009 NOSIG
ZBSJ,2016-07-05 12:00,ZBSJ 051200Z 16003MPS CAVOK 26/18 Q1010 NOSIG
ZBSJ,2016-07-05 13:00,ZBSJ 051300Z 13001MPS CAVOK 26/18 Q1010 NOSIG
ZBSJ,2016-07-05 14:00,ZBSJ 051400Z 14002MPS CAVOK 25/18 Q1011 NOSIG
ZBSJ,2016-07-05 15:00,ZBSJ 051500Z 17001MPS 8000 NSC 24/18 Q1011 NOSIG
ZBSJ,2016-07-05 16:00,ZBSJ 051600Z 16002MPS 7000 NSC 23/19 Q1011 NOSIG
ZBSJ,2016-07-05 17:00,ZBSJ 051700Z 14001MPS 7000 NSC 23/19 Q1012 NOSIG
ZBSJ,2016-07-05 18:00,ZBSJ 051800Z 17002MPS 6000 NSC 23/19 Q1012 NOSIG
ZBSJ,2016-07-05 19:00,ZBSJ 051900Z 06001MPS 5000 BR NSC 21/19 Q1011 NOSIG
ZBSJ,2016-07-05 20:00,ZBSJ 052000Z 20001MPS 5000 BR NSC 21/19 Q1012 NOSIG
ZBSJ,2016-07-05 21:00,ZBSJ 052100Z 04001MPS 3000 BR NSC 20/19 Q1012 NOSIG
ZBSJ,2016-07-05 22:00,ZBSJ 052200Z 00000MPS 2500 BR NSC 21/19 Q1012 NOSIG
ZBSJ,2016-07-05 23:00,ZBSJ 052300Z 13001MPS 2500 BR NSC 24/20 Q1012 BECMG TL0030 3000
ZBSJ,2016-07-06 00:00,ZBSJ 060000Z 18001MPS 2700 HZ NSC 26/20 Q1013 BECMG TL0130 3000
ZBSJ,2016-07-06 01:00,ZBSJ 060100Z 04001MPS 3000 HZ NSC 28/20 Q1013 NOSIG
ZBSJ,2016-07-06 02:00,ZBSJ 060200Z 13001MPS 6000 NSC 30/19 Q1013 NOSIG
ZBSJ,2016-07-06 03:00,ZBSJ 060300Z 13002MPS 6000 NSC 31/18 Q1013 NOSIG
ZBSJ,2016-07-06 04:00,ZBSJ 060400Z 13002MPS 080V170 6000 NSC 31/18 Q1012 NOSIG
ZBSJ,2016-07-06 05:00,ZBSJ 060500Z 15002MPS 080V220 CAVOK 33/17 Q1011 NOSIG
ZBSJ,2016-07-06 06:00,ZBSJ 060600Z 18004MPS 160V220 CAVOK 34/16 Q1011 NOSIG
ZBSJ,2016-07-06 07:00,ZBSJ 060700Z 21004MPS 170V250 9999 SCT030 34/16 Q1011 NOSIG
ZBSJ,2016-07-06 08:00,ZBSJ 060800Z 17003MPS 100V240 9999 SCT030 33/16 Q1010 NOSIG
ZBSJ,2016-07-06 09:00,ZBSJ 060900Z 16003MPS 120V210 9999 SCT030 33/16 Q1010 NOSIG
ZBSJ,2016-07-06 10:00,ZBSJ 061000Z 18003MPS 9999 FEW030 32/15 Q1009 NOSIG
ZBSJ,2016-07-06 11:00,ZBSJ 061100Z 18002MPS CAVOK 31/16 Q1010 NOSIG
ZBSJ,2016-07-06 12:00,ZBSJ 061200Z 13002MPS CAVOK 29/17 Q1010 NOSIG
ZBSJ,2016-07-06 13:00,ZBSJ 061300Z 13002MPS CAVOK 29/16 Q1010 NOSIG
ZBSJ,2016-07-06 14:00,ZBSJ 061400Z 12002MPS CAVOK 27/17 Q1011 NOSIG
ZBSJ,2016-07-06 15:00,ZBSJ 061500Z 13001MPS CAVOK 25/17 Q1011 NOSIG
ZBSJ,2016-07-06 16:00,ZBSJ 061600Z 15001MPS CAVOK 25/18 Q1011 NOSIG
ZBSJ,2016-07-06 17:00,ZBSJ 061700Z 16001MPS CAVOK 24/18 Q1011 NOSIG
ZBSJ,2016-07-06 18:00,ZBSJ 061800Z 11001MPS CAVOK 22/19 Q1011 NOSIG
ZBSJ,2016-07-06 19:00,ZBSJ 061900Z 00000MPS 8000 NSC 22/19 Q1010 NOSIG
ZBSJ,2016-07-06 20:00,ZBSJ 062000Z 34002MPS 6000 NSC 22/18 Q1011 NOSIG
ZBSJ,2016-07-06 21:00,ZBSJ 062100Z 06001MPS 4500 BR NSC 21/19 Q1011 NOSIG
ZBSJ,2016-07-06 22:00,ZBSJ 062200Z 09001MPS 2800 BR NSC 22/18 Q1011 NOSIG
ZBSJ,2016-07-06 23:00,ZBSJ 062300Z 00000MPS 2200 BR NSC 24/19 Q1011 BECMG 3000
ZBSJ,2016-07-07 00:00,ZBSJ 070000Z 01001MPS 2200 BR NSC 26/19 Q1012 BECMG TL0130 3000
ZBSJ,2016-07-07 01:00,ZBSJ 070100Z 13001MPS 2300 HZ NSC 28/19 Q1012 BECMG TL0230 3000
ZBSJ,2016-07-07 02:00,ZBSJ 070200Z 30001MPS 2500 HZ NSC 30/20 Q1012 BECMG TL0330 3000
ZBSJ,2016-07-07 03:00,ZBSJ 070300Z 07001MPS 3000 HZ NSC 31/19 Q1011 NOSIG
ZBSJ,2016-07-07 04:00,ZBSJ 070400Z 16001MPS 3500 HZ NSC 32/19 Q1011 NOSIG
ZBSJ,2016-07-07 05:00,ZBSJ 070500Z VRB02MPS 3500 HZ NSC 32/19 Q1010 NOSIG
ZBSJ,2016-07-07 06:00,ZBSJ 070600Z 16004MPS 120V200 3000 HZ NSC 33/20 Q1010 NOSIG
ZBSJ,2016-07-07 07:00,ZBSJ 070700Z 16004MPS 120V190 3000 HZ NSC 33/20 Q1009 NOSIG
ZBSJ,2016-07-07 08:00,ZBSJ 070800Z 17004MPS 3500 HZ NSC 33/20 Q1009 NOSIG
ZBSJ,2016-07-07 09:00,ZBSJ 070900Z 18003MPS 4000 HZ NSC 33/20 Q1009 NOSIG
ZBSJ,2016-07-07 10:00,ZBSJ 071000Z 16003MPS 4000 HZ NSC 31/21 Q1008 NOSIG
ZBSJ,2016-07-07 11:00,ZBSJ 071100Z 17002MPS 4500 HZ NSC 30/21 Q1008 NOSIG
ZBSJ,2016-07-07 12:00,ZBSJ 071200Z 17001MPS 5000 HZ NSC 28/21 Q1008 NOSIG
ZBSJ,2016-07-07 13:00,ZBSJ 071300Z 16001MPS 5000 HZ NSC 27/21 Q1009 NOSIG
ZBSJ,2016-07-07 14:00,ZBSJ 071400Z 06001MPS 4500 HZ NSC 27/22 Q1009 NOSIG
ZBSJ,2016-07-07 15:00,ZBSJ 071500Z 05001MPS 4000 HZ NSC 27/22 Q1009 NOSIG
ZBSJ,2016-07-07 16:00,ZBSJ 071600Z 05001MPS 4000 HZ NSC 26/22 Q1009 NOSIG
ZBSJ,2016-07-07 17:00,ZBSJ 071700Z 35001MPS 3500 BR NSC 26/22 Q1009 NOSIG
ZBSJ,2016-07-07 18:00,ZBSJ 071800Z 09001MPS 3000 BR NSC 26/22 Q1008 NOSIG
ZBSJ,2016-07-07 19:00,ZBSJ 071900Z 05002MPS 3000 BR NSC 26/22 Q1008 NOSIG
ZBSJ,2016-07-07 20:00,ZBSJ 072000Z 15002MPS 3000 BR NSC 25/22 Q1008 NOSIG
ZBSJ,2016-07-07 21:00,ZBSJ 072100Z 00000MPS 3500 BR NSC 26/22 Q1008 NOSIG
ZBSJ,2016-07-07 22:00,ZBSJ 072200Z 07002MPS 2500 BR NSC 25/23 Q1009 NOSIG
ZBSJ,2016-07-07 23:00,ZBSJ 072300Z 14001MPS 2500 BR NSC 27/23 Q1009 NOSIG
ZBSJ,2016-07-08 00:00,ZBSJ 080000Z 12001MPS 2000 BR NSC 29/23 Q1009 NOSIG
ZBSJ,2016-07-08 01:00,ZBSJ 080100Z 10001MPS 2000 HZ NSC 29/23 Q1009 BECMG TL0230 3000
ZBSJ,2016-07-08 02:00,ZBSJ 080200Z 10001MPS 2300 HZ NSC 30/23 Q1009 BECMG TL0330 3000
ZBSJ,2016-07-08 03:00,ZBSJ 080300Z 17001MPS 3500 HZ NSC 30/23 Q1008 NOSIG
ZBSJ,2016-07-08 04:00,ZBSJ 080400Z 18002MPS 150V210 2700 HZ NSC 30/23 Q1008 BECMG TL0530 3000
ZBSJ,2016-07-08 05:00,ZBSJ 080500Z 16002MPS 100V180 3500 HZ NSC 31/23 Q1007 NOSIG
ZBSJ,2016-07-08 06:00,ZBSJ 080600Z 17003MPS 130V200 3500 HZ NSC 31/23 Q1007 NOSIG
ZBSJ,2016-07-08 07:00,ZBSJ 080700Z 12002MPS 070V170 4000 HZ NSC 31/22 Q1006 NOSIG
ZBSJ,2016-07-08 08:00,ZBSJ 080800Z 15002MPS 5000 HZ NSC 31/22 Q1006 NOSIG
ZBSJ,2016-07-08 09:00,ZBSJ 080900Z 12002MPS 5000 HZ NSC 31/22 Q1005 NOSIG
ZBSJ,2016-07-08 10:00,ZBSJ 081000Z 14002MPS 6000 NSC 30/22 Q1005 NOSIG
ZBSJ,2016-07-08 11:00,ZBSJ 081100Z 05002MPS 3300 HZ NSC 29/23 Q1006 BECMG TL1230 2500 BR
ZBSJ,2016-07-08 12:00,ZBSJ 081200Z 05001MPS 3000 HZ NSC 28/23 Q1006 BECMG TL1330 2500 BR
ZBSJ,2016-07-08 13:00,ZBSJ 081300Z 05001MPS 3500 BR NSC 27/24 Q1006 NOSIG
ZBSJ,2016-07-08 14:00,ZBSJ 081400Z 03001MPS 3500 BR NSC 27/24 Q1006 NOSIG
ZBSJ,2016-07-08 15:00,ZBSJ 081500Z 00000MPS 3000 BR NSC 26/24 Q1006 NOSIG
ZBSJ,2016-07-08 16:00,ZBSJ 081600Z 19001MPS 3000 BR NSC 27/24 Q1006 NOSIG
ZBSJ,2016-07-08 17:00,ZBSJ 081700Z 29001MPS 3000 BR NSC 27/24 Q1006 NOSIG
ZBSJ,2016-07-08 18:00,ZBSJ 081800Z 34001MPS 3500 BR NSC 26/23 Q1006 NOSIG
ZBSJ,2016-07-08 19:00,ZBSJ 081900Z 34001MPS 3500 -RA BR OVC046 25/23 Q1006 NOSIG
ZBSJ,2016-07-08 20:00,ZBSJ 082000Z 32002MPS 2000 -RA BR OVC046 25/24 Q1005 NOSIG
ZBSJ,2016-07-08 21:00,ZBSJ 082100Z 26003MPS 220V300 1600 BR OVC046 25/24 Q1006 NOSIG
ZBSJ,2016-07-08 22:00,ZBSJ 082200Z 31003MPS 1400 R15/1700D -RA BR OVC046 25/24 Q1006 NOSIG
ZBSJ,2016-07-08 23:00,ZBSJ 082300Z 36003MPS 330V040 1400 R33/1500U BR OVC046 25/24 Q1006 BECMG TL0030 1600
ZBSJ,2016-07-09 00:00,ZBSJ 090000Z 34002MPS 2000 BR OVC046 26/24 Q1007 BECMG TL0130 3000
ZBSJ,2016-07-09 01:00,ZBSJ 090100Z 35002MPS 320V020 2000 BR OVC046 27/25 Q1007 NOSIG
ZBSJ,2016-07-09 02:00,ZBSJ 090200Z 36001MPS 2700 BR NSC 29/24 Q1007 BECMG TL0330 3000
ZBSJ,2016-07-09 03:00,ZBSJ 090300Z 23001MPS 2700 HZ NSC 30/25 Q1006 BECMG TL0400 3000
ZBSJ,2016-07-09 04:00,ZBSJ 090400Z 29001MPS 3000 HZ FEW046 31/24 Q1006 BECMG TL0530 2900 HZ
ZBSJ,2016-07-09 05:00,ZBSJ 090500Z 25002MPS 220V330 4000 HZ NSC 32/24 Q1005 NOSIG
ZBSJ,2016-07-09 06:00,ZBSJ 090600Z 25005MPS 220V280 4000 HZ NSC 32/24 Q1005 NOSIG
ZBSJ,2016-07-09 07:00,ZBSJ 090700Z 24004MPS 180V280 3500 HZ FEW033 32/24 Q1005 NOSIG
ZBSJ,2016-07-09 08:00,ZBSJ 090800Z 24005MPS 4500 HZ FEW033 31/23 Q1004 NOSIG
ZBSJ,2016-07-09 09:00,ZBSJ 090900Z 24004MPS 4500 HZ NSC 31/23 Q1004 NOSIG
ZBSJ,2016-07-09 10:00,ZBSJ 091000Z 23003MPS 190V250 4500 HZ NSC 31/23 Q1004 NOSIG
ZBSJ,2016-07-09 11:00,ZBSJ 091100Z 20003MPS 7000 NSC 30/22 Q1004 NOSIG
ZBSJ,2016-07-09 12:00,ZBSJ 091200Z 16002MPS 7000 NSC 26/22 Q1004 NOSIG
ZBSJ,2016-07-09 13:00,ZBSJ 091300Z 17002MPS 8000 NSC 25/22 Q1005 NOSIG
ZBSJ,2016-07-09 14:00,ZBSJ 091400Z 17003MPS 5000 BR NSC 25/23 Q1005 NOSIG
ZBSJ,2016-07-09 15:00,ZBSJ 091500Z 20002MPS 4000 BR NSC 25/23 Q1005 NOSIG
ZBSJ,2016-07-09 16:00,ZBSJ 091600Z 19002MPS 4000 BR NSC 25/23 Q1005 NOSIG
ZBSJ,2016-07-09 17:00,ZBSJ 091700Z 22002MPS 3500 BR NSC 25/23 Q1004 NOSIG
ZBSJ,2016-07-09 18:00,ZBSJ 091800Z 15002MPS 2500 BR NSC 23/23 Q1004 NOSIG
ZBSJ,2016-07-09 19:00,ZBSJ 091900Z 15001MPS 1400 R15/P2000N BR NSC 23/22 Q1004 NOSIG
ZBSJ,2016-07-09 20:00,ZBSJ 092000Z 19001MPS 1400 R15/1900D BR NSC 23/23 Q1004 NOSIG
ZBSJ,2016-07-09 21:00,ZBSJ 092100Z 17001MPS 0700 R15/1500VP2000D FG NSC 23/23 Q1004 NOSIG
ZBSJ,2016-07-09 22:00,ZBSJ 092200Z 24002MPS 1200 R15/1400U BR NSC 23/23 Q1004 NOSIG
ZBSJ,2016-07-09 23:00,ZBSJ 092300Z 25002MPS 220V280 4000 BR NSC 25/23 Q1005 NOSIG
ZBSJ,2016-07-10 00:00,ZBSJ 100000Z 22002MPS 5000 BR NSC 27/23 Q1005 NOSIG
ZBSJ,2016-07-10 01:00,ZBSJ 100100Z 23001MPS 6000 NSC 29/23 Q1005 NOSIG
ZBSJ,2016-07-10 02:00,ZBSJ 100200Z 21002MPS 160V270 6000 NSC 30/23 Q1004 NOSIG
ZBSJ,2016-07-10 03:00,ZBSJ 100300Z 18004MPS 140V220 4000 HZ NSC 32/22 Q1004 NOSIG
ZBSJ,2016-07-10 04:00,ZBSJ 100400Z 17005MPS 140V210 4000 HZ NSC 33/22 Q1003 NOSIG
ZBSJ,2016-07-10 05:00,ZBSJ 100500Z 16005MPS 4500 HZ FEW030 34/23 Q1003 NOSIG
ZBSJ,2016-07-10 06:00,ZBSJ 100600Z 18005MPS 140V210 4500 HZ SCT030 34/22 Q1002 NOSIG
ZBSJ,2016-07-10 07:00,ZBSJ 100700Z 17004MPS 130V210 CAVOK 34/22 Q1002 NOSIG
ZBSJ,2016-07-10 08:00,ZBSJ 100800Z 16003MPS 130V220 CAVOK 34/22 Q1001 NOSIG
ZBSJ,2016-07-10 09:00,ZBSJ 100900Z 16003MPS 130V200 CAVOK 34/21 Q1001 NOSIG
ZBSJ,2016-07-10 10:00,ZBSJ 101000Z 16004MPS CAVOK 33/22 Q1001 NOSIG
ZBSJ,2016-07-10 11:00,ZBSJ 101100Z 14003MPS CAVOK 32/22 Q1001 NOSIG
ZBSJ,2016-07-10 12:00,ZBSJ 101200Z 15003MPS CAVOK 29/22 Q1002 NOSIG
ZBSJ,2016-07-10 13:00,ZBSJ 101300Z 17002MPS 8000 NSC 28/22 Q1002 NOSIG
ZBSJ,2016-07-10 14:00,ZBSJ 101400Z 15001MPS 6000 NSC 27/23 Q1003 NOSIG
ZBSJ,2016-07-10 15:00,ZBSJ 101500Z 18001MPS 6000 NSC 27/23 Q1003 NOSIG
ZBSJ,2016-07-10 16:00,ZBSJ 101600Z 16002MPS 6000 NSC 26/23 Q1003 NOSIG
ZBSJ,2016-07-10 17:00,ZBSJ 101700Z 12001MPS 5000 HZ NSC 25/23 Q1002 NOSIG
ZBSJ,2016-07-10 18:00,ZBSJ 101800Z 15001MPS 5000 HZ NSC 25/23 Q1002 NOSIG
ZBSJ,2016-07-10 19:00,ZBSJ 101900Z 15002MPS 5000 HZ NSC 24/22 Q1002 NOSIG
ZBSJ,2016-07-10 20:00,ZBSJ 102000Z 16002MPS 5000 HZ NSC 24/22 Q1002 NOSIG
ZBSJ,2016-07-10 21:00,ZBSJ 102100Z 17001MPS 2200 BR NSC 23/22 Q1001 NOSIG
ZBSJ,2016-07-10 22:00,ZBSJ 102200Z 19001MPS 1800 BR NSC 24/23 Q1001 BECMG TL2330 1400 HZ
ZBSJ,2016-07-10 23:00,ZBSJ 102300Z 27003MPS 1800 BR NSC 25/23 Q1001 BECMG TL0030 3000
ZBSJ,2016-07-11 00:00,ZBSJ 110000Z 23002MPS 1800 BR NSC 26/23 Q1001 BECMG TL0130 3000
ZBSJ,2016-07-11 01:00,ZBSJ 110100Z 21001MPS 2700 HZ NSC 29/23 Q1001 BECMG TL0230 3500
ZBSJ,2016-07-11 02:00,ZBSJ 110200Z 19002MPS 2500 HZ NSC 30/23 Q1001 BECMG TL0330 3500
ZBSJ,2016-07-11 03:00,ZBSJ 110300Z 21002MPS 3000 HZ NSC 32/23 Q1001 BECMG TL0430 2500 HZ
ZBSJ,2016-07-11 04:00,ZBSJ 110400Z 17004MPS 3000 HZ NSC 33/23 Q1000 NOSIG
ZBSJ,2016-07-11 05:00,ZBSJ 110500Z 18005MPS 140V210 3500 HZ NSC 34/24 Q0999 NOSIG
ZBSJ,2016-07-11 06:00,ZBSJ 110600Z 18004MPS 150V230 4200 HZ NSC 35/23 Q0999 NOSIG
ZBSJ,2016-07-11 07:00,ZBSJ 110700Z 16005MPS 110V210 4000 HZ NSC 36/23 Q0998 NOSIG
ZBSJ,2016-07-11 08:00,ZBSJ 110800Z 18005MPS 150V210 5000 HZ NSC 36/23 Q0998 NOSIG
ZBSJ,2016-07-11 09:00,ZBSJ 110900Z 17006MPS 7000 NSC 35/23 Q0997 NOSIG
ZBSJ,2016-07-11 10:00,ZBSJ 111000Z 16006MPS 8000 NSC 34/22 Q0997 NOSIG
ZBSJ,2016-07-11 11:00,ZBSJ 111100Z 17004MPS 8000 NSC 32/22 Q0998 NOSIG
ZBSJ,2016-07-11 12:00,ZBSJ 111200Z 16003MPS 6000 NSC 29/22 Q0998 NOSIG
ZBSJ,2016-07-11 13:00,ZBSJ 111300Z 16003MPS 7000 NSC 28/22 Q0998 NOSIG
ZBSJ,2016-07-11 14:00,ZBSJ 111400Z 15003MPS 7000 NSC 28/22 Q0999 NOSIG
ZBSJ,2016-07-11 15:00,ZBSJ 111500Z 15003MPS 7000 NSC 28/22 Q0999 NOSIG
ZBSJ,2016-07-11 16:00,ZBSJ 111600Z 16004MPS 6000 NSC 28/23 Q0998 NOSIG
ZBSJ,2016-07-11 17:00,ZBSJ 111700Z 15003MPS 6000 NSC 28/22 Q0998 NOSIG
ZBSJ,2016-07-11 18:00,ZBSJ 111800Z 15003MPS 5000 HZ NSC 27/22 Q0997 NOSIG
ZBSJ,2016-07-11 19:00,ZBSJ 111900Z 15003MPS 5000 BR NSC 27/23 Q0997 NOSIG
ZBSJ,2016-07-11 20:00,ZBSJ 112000Z 17002MPS 5000 BR NSC 27/23 Q0997 NOSIG
ZBSJ,2016-07-11 21:00,ZBSJ 112100Z 17002MPS 4500 BR NSC 27/23 Q0997 NOSIG
ZBSJ,2016-07-11 22:00,ZBSJ 112200Z 18001MPS 2200 -RA BR OVC040 26/24 Q0998 NOSIG
ZBSJ,2016-07-11 23:00,ZBSJ 112300Z 14001MPS 1600 -RA BR OVC033 26/24 Q0998 NOSIG
ZBSJ,2016-07-12 00:00,ZBSJ 120000Z 00000MPS 1600 BR OVC040 26/25 Q0999 NOSIG
ZBSJ,2016-07-12 01:00,ZBSJ 120100Z 33006MPS 2700 -RA BR OVC040 24/23 Q0999 BECMG TL0230 3500
ZBSJ,2016-07-12 02:00,ZBSJ 120200Z 35006MPS 320V020 4500 -RA BR OVC046 23/21 Q0999 NOSIG
ZBSJ,2016-07-12 03:00,ZBSJ 120300Z 01005G10MPS 330V040 3600 -RA BR OVC046 22/21 Q1000 NOSIG
ZBSJ,2016-07-12 04:00,ZBSJ 120400Z 03004MPS 350V060 2500 -RA BR OVC046 22/21 Q1001 BECMG TL0530 3500
ZBSJ,2016-07-12 05:00,ZBSJ 120500Z 01004MPS 340V050 3500 -RA BR OVC046 22/22 Q1001 NOSIG
ZBSJ,2016-07-12 06:00,ZBSJ 120600Z 02004MPS 340V060 5000 -DZ BR OVC046 22/21 Q1001 NOSIG
ZBSJ,2016-07-12 07:00,ZBSJ 120700Z 03004MPS 360V070 5000 BR BKN046 25/22 Q1001 NOSIG
ZBSJ,2016-07-12 08:00,ZBSJ 120800Z 05004MPS 010V080 8000 NSC 26/22 Q1001 NOSIG
ZBSJ,2016-07-12 09:00,ZBSJ 120900Z 08004MPS CAVOK 26/21 Q1001 NOSIG
ZBSJ,2016-07-12 10:00,ZBSJ 121000Z 11002MPS 060V130 CAVOK 27/21 Q1001 NOSIG
ZBSJ,2016-07-12 11:00,ZBSJ 121100Z 13002MPS CAVOK 26/20 Q1001 NOSIG
ZBSJ,2016-07-12 12:00,ZBSJ 121200Z 09002MPS CAVOK 24/21 Q1002 NOSIG
ZBSJ,2016-07-12 13:00,ZBSJ 121300Z 05001MPS CAVOK 22/21 Q1003 NOSIG
ZBSJ,2016-07-12 14:00,ZBSJ 121400Z 00000MPS CAVOK 23/21 Q1003 NOSIG
ZBSJ,2016-07-12 15:00,ZBSJ 121500Z 00000MPS 8000 NSC 21/21 Q1004 NOSIG
ZBSJ,2016-07-12 16:00,ZBSJ 121600Z 30001MPS 8000 NSC 22/21 Q1003 NOSIG
ZBSJ,2016-07-12 17:00,ZBSJ 121700Z 30001MPS 5000 BR NSC 22/21 Q1003 NOSIG
ZBSJ,2016-07-12 18:00,ZBSJ 121800Z 33002MPS 4500 BR NSC 21/21 Q1003 NOSIG
ZBSJ,2016-07-12 19:00,ZBSJ 121900Z 31001MPS 4500 BR NSC 21/20 Q1003 NOSIG
ZBSJ,2016-07-12 20:00,ZBSJ 122000Z 28002MPS 3000 BR NSC 22/21 Q1004 NOSIG
ZBSJ,2016-07-12 21:00,ZBSJ 122100Z 33002MPS 3000 BR NSC 21/21 Q1004 NOSIG
ZBSJ,2016-07-12 22:00,ZBSJ 122200Z 34002MPS 3000 BR NSC 22/21 Q1004 NOSIG
ZBSJ,2016-07-12 23:00,ZBSJ 122300Z 35002MPS 2900 BR NSC 25/22 Q1005 BECMG TL0030 3500
ZBSJ,2016-07-13 00:00,ZBSJ 130000Z 33002MPS 4500 HZ NSC 28/22 Q1005 NOSIG
ZBSJ,2016-07-13 01:00,ZBSJ 130100Z 04002MPS CAVOK 29/21 Q1005 NOSIG
ZBSJ,2016-07-13 02:00,ZBSJ 130200Z 02003MPS 330V070 CAVOK 30/21 Q1006 NOSIG
ZBSJ,2016-07-13 03:00,ZBSJ 130300Z 04002MPS 340V090 9999 FEW033 31/22 Q1006 NOSIG
ZBSJ,2016-07-13 04:00,ZBSJ 130400Z 07003MPS 350V110 9999 FEW033 31/21 Q1005 NOSIG
ZBSJ,2016-07-13 05:00,ZBSJ 130500Z 07003MPS 040V120 9999 SCT033 31/21 Q1005 NOSIG
ZBSJ,2016-07-13 06:00,ZBSJ 130600Z 04002MPS 9999 SCT033 32/21 Q1004 NOSIG
ZBSJ,2016-07-13 07:00,ZBSJ 130700Z VRB03MPS 9999 SCT033 32/20 Q1004 NOSIG
ZBSJ,2016-07-13 08:00,ZBSJ 130800Z 05002MPS 9999 SCT033 32/21 Q1004 NOSIG
ZBSJ,2016-07-13 09:00,ZBSJ 130900Z 10002MPS 060V150 9999 SCT033 32/21 Q1004 NOSIG
ZBSJ,2016-07-13 10:00,ZBSJ 131000Z 10003MPS 9999 SCT033 32/21 Q1004 NOSIG
ZBSJ,2016-07-13 11:00,ZBSJ 131100Z 15002MPS 9999 FEW033 30/21 Q1004 NOSIG
ZBSJ,2016-07-13 12:00,ZBSJ 131200Z 14002MPS CAVOK 29/22 Q1005 NOSIG
ZBSJ,2016-07-13 13:00,ZBSJ 131300Z 16001MPS CAVOK 28/22 Q1005 NOSIG
ZBSJ,2016-07-13 14:00,ZBSJ 131400Z 16001MPS 8000 NSC 27/23 Q1006 NOSIG
ZBSJ,2016-07-13 15:00,ZBSJ 131500Z 21001MPS 5000 BR NSC 26/23 Q1006 NOSIG
ZBSJ,2016-07-13 16:00,ZBSJ 131600Z 00000MPS 4500 BR NSC 25/22 Q1006 NOSIG
ZBSJ,2016-07-13 17:00,ZBSJ 131700Z 02001MPS 4500 BR NSC 24/23 Q1005 NOSIG
ZBSJ,2016-07-13 18:00,ZBSJ 131800Z 34002MPS 4500 BR NSC 25/22 Q1006 NOSIG
ZBSJ,2016-07-13 19:00,ZBSJ 131900Z 00000MPS 4000 BR NSC 25/23 Q1005 NOSIG
ZBSJ,2016-07-13 20:00,ZBSJ 132000Z 34001MPS 4000 BR NSC 24/23 Q1005 NOSIG
ZBSJ,2016-07-13 21:00,ZBSJ 132100Z 36001MPS 3500 BR NSC 24/23 Q1005 NOSIG
ZBSJ,2016-07-13 22:00,ZBSJ 132200Z 00000MPS 2700 BR NSC 25/23 Q1006 BECMG TL2330 3500
ZBSJ,2016-07-13 23:00,ZBSJ 132300Z 09001MPS 2300 BR NSC 25/24 Q1005 BECMG TL0030 3000
ZBSJ,2016-07-14 00:00,ZBSJ 140000Z 00000MPS 2000 BR NSC 26/23 Q1006 NOSIG
ZBSJ,2016-07-14 01:00,ZBSJ 140100Z 03001MPS 2000 BR NSC 27/24 Q1006 BECMG 3000
ZBSJ,2016-07-14 02:00,ZBSJ 140200Z 05003MPS 2000 BR NSC 27/24 Q1006 NOSIG
ZBSJ,2016-07-14 03:00,ZBSJ 140300Z 07003MPS 020V130 2500 BR NSC 28/24 Q1006 BECMG 3000
ZBSJ,2016-07-14 04:00,ZBSJ 140400Z 09004MPS 6000 NSC 28/22 Q1006 NOSIG
ZBSJ,2016-07-14 05:00,ZBSJ 140500Z 10002MPS 6000 -RA OVC046 27/24 Q1006 NOSIG
ZBSJ,2016-07-14 06:00,ZBSJ 140600Z 09002MPS 6000 -RA OVC046 26/22 Q1006 NOSIG
ZBSJ,2016-07-14 07:00,ZBSJ 140700Z 06003MPS 5000 -RA BR OVC046 26/23 Q1006 NOSIG
ZBSJ,2016-07-14 08:00,ZBSJ 140800Z 25003MPS 200V300 8000 -RA OVC046 24/22 Q1006 NOSIG
ZBSJ,2016-07-14 09:00,ZBSJ 140900Z 26004MPS 8000 -RA BKN033 OVC046 23/21 Q1006 NOSIG
ZBSJ,2016-07-14 10:00,ZBSJ 141000Z 30004MPS 8000 -RA OVC046 22/20 Q1007 NOSIG
ZBSJ,2016-07-14 11:00,ZBSJ 141100Z 31004MPS 8000 -RA OVC040 22/20 Q1007 NOSIG
ZBSJ,2016-07-14 12:00,ZBSJ 141200Z 31004MPS 8000 -RA OVC040 21/19 Q1007 NOSIG
ZBSJ,2016-07-14 13:00,ZBSJ 141300Z 29003MPS 8000 -RA OVC040 21/20 Q1008 NOSIG
ZBSJ,2016-07-14 14:00,ZBSJ 141400Z 31004MPS 8000 -RA OVC040 21/20 Q1008 NOSIG
ZBSJ,2016-07-14 15:00,ZBSJ 141500Z 31003MPS 8000 -RA OVC040 21/20 Q1008 NOSIG
ZBSJ,2016-07-14 16:00,ZBSJ 141600Z 31004MPS 8000 -RA OVC040 20/19 Q1007 NOSIG
ZBSJ,2016-07-14 17:00,ZBSJ 141700Z 34004MPS 6000 -RA OVC040 20/19 Q1007 NOSIG
ZBSJ,2016-07-14 18:00,ZBSJ 141800Z 31003MPS 280V340 6000 -RA OVC040 20/19 Q1006 NOSIG
ZBSJ,2016-07-14 19:00,ZBSJ 141900Z 01001MPS 6000 -RA OVC040 20/19 Q1005 NOSIG
ZBSJ,2016-07-14 20:00,ZBSJ 142000Z 05002MPS 6000 OVC040 20/19 Q1005 NOSIG
ZBSJ,2016-07-14 21:00,ZBSJ 142100Z 28002MPS CAVOK 20/19 Q1005 NOSIG
ZBSJ,2016-07-14 22:00,ZBSJ 142200Z 25002MPS 2100 BR NSC 20/19 Q1005 NOSIG
ZBSJ,2016-07-14 23:00,ZBSJ 142300Z 23002MPS 2500 -RA BR OVC046 20/19 Q1005 BECMG TL0030 3500
ZBSJ,2016-07-15 00:00,ZBSJ 150000Z 00000MPS 5000 BR SCT040 20/19 Q1005 NOSIG
ZBSJ,2016-07-15 01:00,ZBSJ 150100Z 09002MPS 4500 -RA BR OVC040 20/19 Q1005 NOSIG
ZBSJ,2016-07-15 02:00,ZBSJ 150200Z 20001MPS 9999 OVC040 21/19 Q1005 NOSIG
ZBSJ,2016-07-15 03:00,ZBSJ 150300Z 25002MPS 180V270 9999 OVC040 22/19 Q1004 NOSIG
ZBSJ,2016-07-15 04:00,ZBSJ 150400Z 14001MPS 9999 OVC046 24/18 Q1004 NOSIG
ZBSJ,2016-07-15 05:00,ZBSJ 150500Z 29001MPS 9999 OVC046 25/18 Q1004 NOSIG
ZBSJ,2016-07-15 06:00,ZBSJ 150600Z 10001MPS 9999 OVC040 25/18 Q1003 NOSIG
ZBSJ,2016-07-15 07:00,ZBSJ 150700Z 14001MPS 9999 OVC040 25/18 Q1003 NOSIG
ZBSJ,2016-07-15 08:00,ZBSJ 150800Z 15002MPS 9999 OVC040 25/18 Q1003 NOSIG
ZBSJ,2016-07-15 09:00,ZBSJ 150900Z 16002MPS 8000 OVC040 24/19 Q1003 NOSIG
ZBSJ,2016-07-15 10:00,ZBSJ 151000Z 19001MPS 7000 OVC040 24/19 Q1002 NOSIG
ZBSJ,2016-07-15 11:00,ZBSJ 151100Z 21001MPS 9999 OVC040 23/19 Q1002 NOSIG
ZBSJ,2016-07-15 12:00,ZBSJ 151200Z 24001MPS 8000 OVC040 23/18 Q1002 NOSIG
ZBSJ,2016-07-15 13:00,ZBSJ 151300Z 25001MPS 8000 OVC040 23/19 Q1003 NOSIG
ZBSJ,2016-07-15 14:00,ZBSJ 151400Z 30001MPS 8000 OVC040 22/19 Q1003 NOSIG
ZBSJ,2016-07-15 15:00,ZBSJ 151500Z 09001MPS 6000 OVC040 21/20 Q1003 NOSIG
ZBSJ,2016-07-15 16:00,ZBSJ 151600Z 00000MPS 5000 BR OVC046 20/19 Q1003 NOSIG
ZBSJ,2016-07-15 17:00,ZBSJ 151700Z 08001MPS 5000 BR OVC046 21/20 Q1003 NOSIG
ZBSJ,2016-07-15 18:00,ZBSJ 151800Z 00000MPS 4500 BR OVC046 21/20 Q1002 NOSIG
ZBSJ,2016-07-15 19:00,ZBSJ 151900Z 07001MPS 4000 BR OVC046 21/20 Q1002 NOSIG
ZBSJ,2016-07-15 20:00,ZBSJ 152000Z 00000MPS 4000 BR OVC046 21/20 Q1002 NOSIG
ZBSJ,2016-07-15 21:00,ZBSJ 152100Z 00000MPS 3000 BR OVC033 21/20 Q1002 NOSIG
ZBSJ,2016-07-15 22:00,ZBSJ 152200Z 20001MPS 2500 BR NSC 20/20 Q1002 NOSIG
ZBSJ,2016-07-15 23:00,ZBSJ 152300Z 06001MPS 3000 BR NSC 22/20 Q1003 NOSIG
ZBSJ,2016-07-16 00:00,ZBSJ 160000Z 14002MPS 3000 BR NSC 23/20 Q1003 NOSIG
ZBSJ,2016-07-16 01:00,ZBSJ 160100Z 19002MPS 160V230 4000 HZ NSC 24/18 Q1003 NOSIG
ZBSJ,2016-07-16 02:00,ZBSJ 160200Z 17002MPS 100V210 5000 HZ BKN046 24/18 Q1004 NOSIG
ZBSJ,2016-07-16 03:00,ZBSJ 160300Z 17003MPS 130V200 5000 HZ BKN046 25/19 Q1003 NOSIG
ZBSJ,2016-07-16 04:00,ZBSJ 160400Z 19002MPS 130V240 5000 HZ BKN036 26/19 Q1003 NOSIG
ZBSJ,2016-07-16 05:00,ZBSJ 160500Z 18002MPS 5000 HZ BKN036 26/18 Q1003 NOSIG
ZBSJ,2016-07-16 06:00,ZBSJ 160600Z 20003MPS 160V240 4000 HZ BKN036 27/19 Q1003 NOSIG
ZBSJ,2016-07-16 07:00,ZBSJ 160700Z 14003MPS 4000 HZ SCT030 25/19 Q1003 NOSIG
ZBSJ,2016-07-16 08:00,ZBSJ 160800Z 17003MPS 6000 OVC046 26/19 Q1003 NOSIG
ZBSJ,2016-07-16 09:00,ZBSJ 160900Z 17003MPS 6000 NSC 27/19 Q1003 NOSIG
ZBSJ,2016-07-16 10:00,ZBSJ 161000Z 19003MPS 5000 HZ NSC 26/19 Q1003 NOSIG
ZBSJ,2016-07-16 11:00,ZBSJ 161100Z 17002MPS 4000 HZ NSC 25/19 Q1004 NOSIG
ZBSJ,2016-07-16 12:00,ZBSJ 161200Z 15002MPS 4000 HZ NSC 23/20 Q1004 NOSIG
ZBSJ,2016-07-16 13:00,ZBSJ 161300Z 11001MPS 4500 BR NSC 23/20 Q1005 NOSIG
ZBSJ,2016-07-16 14:00,ZBSJ 161400Z 06001MPS 4000 BR NSC 23/21 Q1005 NOSIG
ZBSJ,2016-07-16 15:00,ZBSJ 161500Z 09002MPS 3500 BR NSC 22/21 Q1005 NOSIG
ZBSJ,2016-07-16 16:00,ZBSJ 161600Z 09001MPS 3500 BR NSC 23/21 Q1005 NOSIG
ZBSJ,2016-07-16 17:00,ZBSJ 161700Z 15001MPS 3000 TS BR FEW033CB BKN046 23/21 Q1005 NOSIG
ZBSJ,2016-07-16 18:00,ZBSJ 161800Z 04003MPS 2000 TSRA BR SCT033CB BKN046 21/20 Q1005 NOSIG
ZBSJ,2016-07-16 19:00,ZBSJ 161900Z 10004MPS 1600 TSRA BR FEW026 SCT033CB 21/21 Q1005 NOSIG
ZBSJ,2016-07-16 20:00,ZBSJ 162000Z 10003MPS 3000 -TSRA BR FEW026 FEW033CB BKN040 21/21 Q1005 RESHRA NOSIG
ZBSJ,2016-07-16 21:00,ZBSJ 162100Z 08002MPS 4000 BR BKN033 FEW033CB 20/20 Q1006 RETS NOSIG
ZBSJ,2016-07-16 22:00,ZBSJ 162200Z 05001MPS 1600 R33/0900V1600U BR BKN033 FEW033CB 21/21 Q1007 NOSIG
ZBSJ,2016-07-16 23:00,ZBSJ 162300Z 36001MPS 1600 BR BKN033 21/21 Q1007 NOSIG
ZBSJ,2016-07-17 00:00,ZBSJ 170000Z 35001MPS 2000 BR SCT046 23/22 Q1007 BECMG TL0130 3000
ZBSJ,2016-07-17 01:00,ZBSJ 170100Z 36001MPS 2000 BR NSC 24/21 Q1007 BECMG TL0230 3000
ZBSJ,2016-07-17 02:00,ZBSJ 170200Z 34002MPS 3000 BR BKN046 25/21 Q1007 NOSIG
ZBSJ,2016-07-17 03:00,ZBSJ 170300Z 34002MPS 280V040 2200 BR BKN046 26/21 Q1008 BECMG TL0430 3000
ZBSJ,2016-07-17 04:00,ZBSJ 170400Z 01003MPS 330V040 2200 BR FEW046 26/21 Q1008 BECMG TL0530 3000
ZBSJ,2016-07-17 05:00,ZBSJ 170500Z 05003MPS 350V100 2500 BR NSC 26/21 Q1007 BECMG TL0630 3000
ZBSJ,2016-07-17 06:00,ZBSJ 170600Z 03002MPS 340V090 3000 HZ NSC 27/22 Q1007 NOSIG
ZBSJ,2016-07-17 07:00,ZBSJ 170700Z 09002MPS 3000 HZ NSC 28/22 Q1007 NOSIG
ZBSJ,2016-07-17 08:00,ZBSJ 170800Z 06003MPS 350V110 3200 HZ NSC 28/22 Q1006 NOSIG
ZBSJ,2016-07-17 09:00,ZBSJ 170900Z 06002MPS 3200 HZ NSC 28/21 Q1006 NOSIG
ZBSJ,2016-07-17 10:00,ZBSJ 171000Z 10002MPS 3000 HZ NSC 28/22 Q1006 NOSIG
ZBSJ,2016-07-17 11:00,ZBSJ 171100Z 08002MPS 3000 HZ NSC 26/22 Q1006 NOSIG
ZBSJ,2016-07-17 12:00,ZBSJ 171200Z 00000MPS 3000 BR NSC 25/23 Q1007 NOSIG
ZBSJ,2016-07-17 13:00,ZBSJ 171300Z 14001MPS 4000 BR NSC 24/22 Q1008 NOSIG
ZBSJ,2016-07-17 14:00,ZBSJ 171400Z 04001MPS 3000 BR NSC 23/22 Q1008 BECMG TL1500 2000 BR
ZBSJ,2016-07-17 15:00,ZBSJ 171500Z 05001MPS 2500 BR NSC 23/22 Q1008 NOSIG
ZBSJ,2016-07-17 16:00,ZBSJ 171600Z 16002MPS 2500 BR NSC 23/22 Q1008 NOSIG
ZBSJ,2016-07-17 17:00,ZBSJ 171700Z 27001MPS 2500 BR NSC 23/22 Q1007 NOSIG
ZBSJ,2016-07-17 18:00,ZBSJ 171800Z 33002MPS 2000 BR NSC 22/21 Q1007 NOSIG
ZBSJ,2016-07-17 19:00,ZBSJ 171900Z 33001MPS 2000 BR NSC 22/21 Q1007 NOSIG
ZBSJ,2016-07-17 20:00,ZBSJ 172000Z 35001MPS 2000 BR NSC 22/21 Q1007 NOSIG
ZBSJ,2016-07-17 21:00,ZBSJ 172100Z 23001MPS 1400 R33/P2000N BR NSC 21/21 Q1007 NOSIG
ZBSJ,2016-07-17 22:00,ZBSJ 172200Z 34001MPS 1000 R33/1000D BR NSC 22/21 Q1007 NOSIG
ZBSJ,2016-07-17 23:00,ZBSJ 172300Z 33001MPS 1600 R33/1400U BR NSC 24/22 Q1008 NOSIG
ZBSJ,2016-07-18 00:00,ZBSJ 180000Z 02001MPS 1600 R33/1300U BR NSC 25/22 Q1008 NOSIG
ZBSJ,2016-07-18 01:00,ZBSJ 180100Z 02001MPS 2000 BR NSC 26/22 Q1008 NOSIG
ZBSJ,2016-07-18 02:00,ZBSJ 180200Z 18001MPS 2200 BR NSC 26/22 Q1008 BECMG TL0330 3000
ZBSJ,2016-07-18 03:00,ZBSJ 180300Z 24001MPS 2500 HZ NSC 27/22 Q1008 BECMG TL0430 3000
ZBSJ,2016-07-18 04:00,ZBSJ 180400Z 13001MPS 3000 HZ NSC 28/22 Q1008 NOSIG
ZBSJ,2016-07-18 05:00,ZBSJ 180500Z 14002MPS 3000 HZ NSC 29/22 Q1007 BECMG TL0630 2500 HZ
ZBSJ,2016-07-18 06:00,ZBSJ 180600Z 13002MPS 2500 HZ NSC 29/22 Q1006 NOSIG
ZBSJ,2016-07-18 07:00,ZBSJ 180700Z 13001MPS 2500 HZ NSC 30/22 Q1006 BECMG TL0830 3000
ZBSJ,2016-07-18 08:00,ZBSJ 180800Z 16001MPS 3000 HZ NSC 30/22 Q1006 BECMG TL0930 2800 HZ
ZBSJ,2016-07-18 09:00,ZBSJ 180900Z 17001MPS 2800 HZ NSC 29/22 Q1006 BECMG 3000
ZBSJ,2016-07-18 10:00,ZBSJ 181000Z 00000MPS 3000 HZ NSC 29/23 Q1006 BECMG TL1130 2800 HZ
ZBSJ,2016-07-18 11:00,ZBSJ 181100Z 05001MPS 2200 HZ NSC 27/24 Q1006 NOSIG
ZBSJ,2016-07-18 12:00,ZBSJ 181200Z 04001MPS 2400 BR NSC 26/24 Q1007 BECMG TL1330 3000
ZBSJ,2016-07-18 13:00,ZBSJ 181300Z 00000MPS 2400 BR NSC 26/24 Q1007 NOSIG
ZBSJ,2016-07-18 14:00,ZBSJ 181400Z 06002MPS 2200 BR NSC 25/24 Q1007 NOSIG
ZBSJ,2016-07-18 15:00,ZBSJ 181500Z 02001MPS 2200 BR NSC 25/24 Q1006 NOSIG
ZBSJ,2016-07-18 16:00,ZBSJ 181600Z 34001MPS 2200 BR NSC 25/23 Q1006 NOSIG
ZBSJ,2016-07-18 17:00,ZBSJ 181700Z 07001MPS 2200 BR NSC 25/24 Q1006 NOSIG
ZBSJ,2016-07-18 18:00,ZBSJ 181800Z 07001MPS 1800 BR FEW033CB BKN046 25/23 Q1006 NOSIG
ZBSJ,2016-07-18 19:00,ZBSJ 181900Z 36002MPS 330V030 1800 BR OVC046 25/23 Q1005 NOSIG
ZBSJ,2016-07-18 20:00,ZBSJ 182000Z 02001MPS 1800 BR OVC046 24/23 Q1005 NOSIG
ZBSJ,2016-07-18 21:00,ZBSJ 182100Z 04001MPS 1600 -RA BR OVC046 24/23 Q1005 NOSIG
ZBSJ,2016-07-18 22:00,ZBSJ 182200Z 07002MPS 0800 R33/1200N -RA FG OVC046 24/23 Q1005 BECMG AT2230 -TSRA
ZBSJ,2016-07-18 23:00,ZBSJ 182300Z 08003MPS 0800 R15/1000N -RA FG FEW040CB BKN046 24/23 Q1005 NOSIG
ZBSJ,2016-07-19 00:00,ZBSJ 190000Z 08002MPS 030V100 0800 R15/1000D -RA FG OVC046 24/24 Q1005 NOSIG
ZBSJ,2016-07-19 01:00,ZBSJ 190100Z 09002MPS 0800 R15/0800V1000U -RA FG OVC033 24/24 Q1005 NOSIG
ZBSJ,2016-07-19 02:00,ZBSJ 190200Z 09004MPS 1000 R15/1000N -RA BR OVC033 24/23 Q1005 BECMG TL0330 1600
ZBSJ,2016-07-19 03:00,ZBSJ 190300Z 07003MPS 0800 R15/1000U -RA FG OVC033 24/24 Q1004 NOSIG
ZBSJ,2016-07-19 04:00,ZBSJ 190400Z 05003MPS 1800 -RA BR OVC033 23/23 Q1005 NOSIG
ZBSJ,2016-07-19 05:00,ZBSJ 190500Z 06003MPS 1600 -RA BR OVC033 23/23 Q1004 BECMG TL0630 1400 -RA BR
ZBSJ,2016-07-19 06:00,ZBSJ 190600Z 04003MPS 010V070 1000 R33/1000N -RA BR OVC033 24/24 Q1004 BECMG TL0730 1500
ZBSJ,2016-07-19 07:00,ZBSJ 190700Z 05004MPS 0700 R33/0900N -RA FG OVC033 24/24 Q1003 BECMG TL0830 0900
ZBSJ,2016-07-19 08:00,ZBSJ 190800Z 06005G10MPS 0800 R33/0900N -RA FG OVC033 25/25 Q1002 NOSIG
ZBSJ,2016-07-19 09:00,ZBSJ 190900Z 06007G12MPS 0900 R33/1200U -RA FG OVC026 25/24 Q1002 NOSIG
ZBSJ,2016-07-19 10:00,ZBSJ 191000Z 06008MPS 1100 R33/1400N -RA BR OVC026 25/24 Q1002 NOSIG
ZBSJ,2016-07-19 11:00,ZBSJ 191100Z 06008MPS 1500 -RA BR OVC026 24/24 Q1003 BECMG TL1230 1000 -RA BR
ZBSJ,2016-07-19 12:00,ZBSJ 191200Z 06009MPS 1700 RA BR OVC026 24/24 Q1003 BECMG TL1330 -RA BR
ZBSJ,2016-07-19 13:00,ZBSJ 191300Z 06009G14MPS 2000 -RA BR OVC026 24/23 Q1003 NOSIG
ZBSJ,2016-07-19 14:00,ZBSJ 191400Z 05009G15MPS 2000 -RA BR OVC026 24/23 Q1003 BECMG TL1530 3000
ZBSJ,2016-07-19 15:00,ZBSJ 191500Z 05008G15MPS 2200 -RA BR OVC026 24/23 Q1002 NOSIG
ZBSJ,2016-07-19 16:00,ZBSJ 191600Z 04006G11MPS 350V070 1500 RA BR OVC026 23/23 Q1002 NOSIG
ZBSJ,2016-07-19 17:00,ZBSJ 191700Z 05007MPS 1600 RA BR OVC023 23/23 Q1000 NOSIG
ZBSJ,2016-07-19 18:00,ZBSJ 191800Z 05007G12MPS 3000 RA BR OVC026 23/22 Q1000 NOSIG
ZBSJ,2016-07-19 19:00,ZBSJ 191900Z 03006MPS 360V070 4000 -RA BR OVC020 23/22 Q0999 RERA NOSIG
ZBSJ,2016-07-19 20:00,ZBSJ 192000Z 03008G14MPS 010V070 5000 -RA BR OVC020 22/22 Q0998 RERA NOSIG
ZBSJ,2016-07-19 21:00,ZBSJ 192100Z 03009G14MPS 4000 RA BR OVC020 22/21 Q0998 NOSIG
ZBSJ,2016-07-19 22:00,ZBSJ 192200Z 03009G16MPS 4000 RA BR OVC020 22/21 Q0997 NOSIG
ZBSJ,2016-07-19 23:00,ZBSJ 192300Z 03008G13MPS 360V070 4500 RA BR SCT010 OVC020 22/21 Q0997 NOSIG
ZBSJ,2016-07-20 00:00,ZBSJ 200000Z 03008G13MPS 4000 RA BR SCT010 OVC020 22/21 Q0997 NOSIG
ZBSJ,2016-07-20 01:00,ZBSJ 200100Z 02006MPS 350V050 3000 -RA BR SCT010 OVC020 22/22 Q0996 BECMG TL0230 2500 -RA BR
ZBSJ,2016-07-20 02:00,ZBSJ 200200Z 03008G13MPS 9999 -RA BKN010 OVC020 23/22 Q0995 NOSIG
ZBSJ,2016-07-20 03:00,ZBSJ 200300Z 04008G14MPS 9999 -RA BKN010 OVC020 23/22 Q0995 NOSIG
ZBSJ,2016-07-20 04:00,ZBSJ 200400Z 03007G13MPS 360V060 3000 -RA BR BKN010 OVC020 23/22 Q0995 NOSIG
ZBSJ,2016-07-20 05:00,ZBSJ 200500Z 02006G11MPS 9999 -RA BKN010 OVC020 23/22 Q0994 NOSIG
ZBSJ,2016-07-20 06:00,ZBSJ 200600Z 36005MPS 6000 -RA BKN010 OVC020 23/22 Q0995 NOSIG
ZBSJ,2016-07-20 07:00,ZBSJ 200700Z 33005MPS 6000 -RA BKN010 OVC020 23/23 Q0995 NOSIG
ZBSJ,2016-07-20 08:00,ZBSJ 200800Z 32006MPS 6000 -RA BKN010 OVC020 24/23 Q0995 NOSIG
ZBSJ,2016-07-20 08:30,ZBSJ 200830Z 32006MPS 6000 -RA BKN010 OVC020 23/23 Q0995 NOSIG
ZBSJ,2016-07-20 09:00,ZBSJ 200900Z 31006MPS 4000 -RA BR BKN010 OVC020 23/23 Q0995 NOSIG
ZBSJ,2016-07-20 09:30,ZBSJ 200930Z 31006MPS 3000 -RA BR BKN010 OVC020 23/23 Q0995 NOSIG
ZBSJ,2016-07-20 10:00,ZBSJ 201000Z 32006MPS 2300 -RA BR BKN010 OVC020 23/22 Q0995 BECMG TL1130 3000 -RA BR
ZBSJ,2016-07-20 10:30,ZBSJ 201030Z 33004MPS 5000 -RA BR BKN010 OVC020 23/22 Q0995 NOSIG
ZBSJ,2016-07-20 11:00,ZBSJ 201100Z 34004MPS 9999 -RA BKN010 OVC020 23/22 Q0995 NOSIG
ZBSJ,2016-07-20 11:30,ZBSJ 201130Z 33004MPS 2700 -RA BR BKN010 OVC020 22/22 Q0996 BECMG TL1230 3000 -RA BR
ZBSJ,2016-07-20 12:00,ZBSJ 201200Z 32004MPS 3500 -RA BR BKN010 OVC020 22/22 Q0996 NOSIG
ZBSJ,2016-07-20 12:30,ZBSJ 201230Z 32004MPS 4500 -RA BR BKN010 OVC020 22/22 Q0997 NOSIG
ZBSJ,2016-07-20 13:00,ZBSJ 201300Z 32004MPS 3500 -RA BR BKN010 OVC020 22/22 Q0997 BECMG TL1430 2500 -RA BR
ZBSJ,2016-07-20 13:30,ZBSJ 201330Z 33003MPS 2500 -RA BR BKN010 OVC020 22/22 Q0997 NOSIG
ZBSJ,2016-07-20 14:00,ZBSJ 201400Z 36002MPS 2200 -RA BR BKN010 OVC020 23/23 Q0997 NOSIG
ZBSJ,2016-07-20 15:00,ZBSJ 201500Z 33002MPS 3000 -RA BR BKN010 OVC020 22/22 Q0997 NOSIG
ZBSJ,2016-07-20 16:00,ZBSJ 201600Z 27002MPS 4500 -RA BR BKN010 OVC020 22/22 Q0997 NOSIG
ZBSJ,2016-07-20 17:00,ZBSJ 201700Z 27003MPS 4000 -RA BR BKN010 OVC020 22/22 Q0998 NOSIG
ZBSJ,2016-07-20 18:00,ZBSJ 201800Z 28003MPS 6000 BKN010 OVC020 22/22 Q0997 NOSIG
ZBSJ,2016-07-20 19:00,ZBSJ 201900Z 24003MPS 6000 BKN010 OVC020 22/22 Q0998 NOSIG
ZBSJ,2016-07-20 20:00,ZBSJ 202000Z 24002MPS 5000 BR BKN010 OVC020 22/22 Q0998 NOSIG
ZBSJ,2016-07-20 21:00,ZBSJ 202100Z 21002MPS 3000 -RA BR BKN010 OVC020 22/22 Q0999 NOSIG
ZBSJ,2016-07-20 22:00,ZBSJ 202200Z 20002MPS 3000 BR OVC033 22/22 Q0999 NOSIG
ZBSJ,2016-07-20 23:00,ZBSJ 202300Z 19003MPS 2700 -DZ BR SCT010 OVC033 23/23 Q1000 BECMG TL0030 3000
ZBSJ,2016-07-21 00:00,ZBSJ 210000Z 21002MPS 3000 BR SCT003 OVC033 23/23 Q1000 NOSIG
ZBSJ,2016-07-21 01:00,ZBSJ 210100Z 18003MPS 3500 -RA BR BKN006 OVC033 24/23 Q1000 NOSIG
ZBSJ,2016-07-21 02:00,ZBSJ 210200Z 17002MPS 3500 BR BKN010 OVC033 25/24 Q1000 NOSIG
ZBSJ,2016-07-21 03:00,ZBSJ 210300Z 18001MPS 5000 BR SCT020 26/24 Q1000 NOSIG
ZBSJ,2016-07-21 04:00,ZBSJ 210400Z 33002MPS 310V020 5000 -RA BR BKN020 BKN040 25/24 Q1000 NOSIG
ZBSJ,2016-07-21 05:00,ZBSJ 210500Z 01003MPS 340V040 2700 BR SCT026 BKN046 25/24 Q1001 BECMG TL0600 3000
ZBSJ,2016-07-21 06:00,ZBSJ 210600Z 02002MPS 2700 BR SCT026 BKN046 25/24 Q1001 BECMG TL0730 3000
ZBSJ,2016-07-21 07:00,ZBSJ 210700Z 04001MPS 3000 BR BKN026 26/24 Q1001 NOSIG
ZBSJ,2016-07-21 08:00,ZBSJ 210800Z 04002MPS 350V080 3800 BR NSC 27/23 Q1001 NOSIG
ZBSJ,2016-07-21 09:00,ZBSJ 210900Z 06001MPS 4500 BR NSC 27/23 Q1001 NOSIG
ZBSJ,2016-07-21 10:00,ZBSJ 211000Z 35001MPS 4500 BR NSC 27/23 Q1000 NOSIG
ZBSJ,2016-07-21 11:00,ZBSJ 211100Z 05001MPS 4000 BR NSC 26/24 Q1000 NOSIG
ZBSJ,2016-07-21 12:00,ZBSJ 211200Z 24001MPS 3500 BR NSC 25/24 Q1001 NOSIG
ZBSJ,2016-07-21 13:00,ZBSJ 211300Z 17001MPS 4500 BR NSC 24/24 Q1001 NOSIG
ZBSJ,2016-07-21 14:00,ZBSJ 211400Z 17001MPS 4500 BR NSC 24/23 Q1001 NOSIG
ZBSJ,2016-07-21 15:00,ZBSJ 211500Z 34001MPS 3000 BR NSC 23/23 Q1002 NOSIG
ZBSJ,2016-07-21 16:00,ZBSJ 211600Z 00000MPS 2500 BR NSC 23/23 Q1001 NOSIG
ZBSJ,2016-07-21 17:00,ZBSJ 211700Z 00000MPS 2500 BR NSC 23/23 Q1001 NOSIG
ZBSJ,2016-07-21 18:00,ZBSJ 211800Z 35001MPS 2200 BR NSC 23/23 Q1001 NOSIG
ZBSJ,2016-07-21 19:00,ZBSJ 211900Z 07001MPS 1600 R33/1000V1800D BR NSC 22/22 Q1001 NOSIG
ZBSJ,2016-07-21 20:00,ZBSJ 212000Z 27001MPS 2000 BR NSC 23/23 Q1001 NOSIG
ZBSJ,2016-07-21 21:00,ZBSJ 212100Z 25001MPS 1800 BR NSC 22/22 Q1001 NOSIG
ZBSJ,2016-07-21 22:00,ZBSJ 212200Z 21001MPS 1000 R33/0800V1600U BR FEW026 22/22 Q1002 NOSIG
ZBSJ,2016-07-21 23:00,ZBSJ 212300Z 22001MPS 1500 R15/1200U BR FEW013 SCT033 24/24 Q1002 NOSIG
ZBSJ,2016-07-22 00:00,ZBSJ 220000Z 22001MPS 1800 BR NSC 26/24 Q1002 BECMG TL0130 3000
ZBSJ,2016-07-22 01:00,ZBSJ 220100Z 21002MPS 2500 BR BKN026 27/24 Q1002 BECMG TL0230 3000
ZBSJ,2016-07-22 02:00,ZBSJ 220200Z 17002MPS 3000 BR BKN033 28/24 Q1002 NOSIG
ZBSJ,2016-07-22 03:00,ZBSJ 220300Z 09001MPS 3000 HZ BKN033 29/24 Q1002 NOSIG
ZBSJ,2016-07-22 04:00,ZBSJ 220400Z 11001MPS 3000 HZ BKN033 29/24 Q1001 NOSIG
ZBSJ,2016-07-22 05:00,ZBSJ 220500Z 12002MPS 080V170 3000 HZ BKN033 30/25 Q1001 NOSIG
ZBSJ,2016-07-22 06:00,ZBSJ 220600Z 12002MPS 2500 HZ BKN033 31/25 Q1000 BECMG TL0730 3000
ZBSJ,2016-07-22 07:00,ZBSJ 220700Z 13002MPS 2700 HZ BKN033 31/26 Q1000 NOSIG
ZBSJ,2016-07-22 08:00,ZBSJ 220800Z 15002MPS 110V190 3000 HZ BKN033 31/25 Q1000 BECMG TL0930 2000 HZ
ZBSJ,2016-07-22 09:00,ZBSJ 220900Z 15002MPS 2700 HZ BKN040 30/26 Q1000 NOSIG
ZBSJ,2016-07-22 10:00,ZBSJ 221000Z 13001MPS 2700 HZ BKN046 30/26 Q1000 NOSIG
ZBSJ,2016-07-22 11:00,ZBSJ 221100Z 13001MPS 2200 BR NSC 30/27 Q1000 NOSIG
ZBSJ,2016-07-22 12:00,ZBSJ 221200Z 08001MPS 2800 BR NSC 29/27 Q1000 BECMG TL1330 3000
ZBSJ,2016-07-22 13:00,ZBSJ 221300Z 08001MPS 3000 BR NSC 29/27 Q1001 BECMG TL1430 2000 BR
ZBSJ,2016-07-22 14:00,ZBSJ 221400Z 10001MPS 2800 BR NSC 28/27 Q1001 NOSIG
ZBSJ,2016-07-22 15:00,ZBSJ 221500Z 04001MPS 2500 BR NSC 28/27 Q1001 NOSIG
ZBSJ,2016-07-22 16:00,ZBSJ 221600Z 03001MPS 2000 BR NSC 28/27 Q1001 NOSIG
ZBSJ,2016-07-22 17:00,ZBSJ 221700Z 02001MPS 1800 BR NSC 27/27 Q1000 NOSIG
ZBSJ,2016-07-22 18:00,ZBSJ 221800Z 01001MPS 1800 BR NSC 27/27 Q1000 NOSIG
ZBSJ,2016-07-22 19:00,ZBSJ 221900Z 33001MPS 1600 BR NSC 27/27 Q1000 NOSIG
ZBSJ,2016-07-22 20:00,ZBSJ 222000Z 35002MPS 1800 BR NSC 27/26 Q1000 NOSIG
ZBSJ,2016-07-22 21:00,ZBSJ 222100Z 35001MPS 1600 BR NSC 26/26 Q1000 NOSIG
ZBSJ,2016-07-22 22:00,ZBSJ 222200Z 29001MPS 1500 -RA BR BKN046 27/26 Q1001 NOSIG
ZBSJ,2016-07-22 23:00,ZBSJ 222300Z 25002MPS 1400 R15/1300U -RA BR BKN046 27/26 Q1001 NOSIG
ZBSJ,2016-07-23 00:00,ZBSJ 230000Z 30002MPS 1200 R15/1100N -RA BR BKN046 27/26 Q1002 NOSIG
ZBSJ,2016-07-23 01:00,ZBSJ 230100Z 00000MPS 1100 R15/1100N BR NSC 28/26 Q1002 BECMG TL0230 2500
ZBSJ,2016-07-23 02:00,ZBSJ 230200Z 19003MPS 1700 BR NSC 31/27 Q1002 BECMG TL0330 3000
ZBSJ,2016-07-23 03:00,ZBSJ 230300Z 22003MPS 170V250 3000 HZ NSC 33/26 Q1001 NOSIG
ZBSJ,2016-07-23 04:00,ZBSJ 230400Z 20003MPS 170V250 5000 HZ NSC 34/26 Q1000 NOSIG
ZBSJ,2016-07-23 05:00,ZBSJ 230500Z 17003MPS 130V200 6000 NSC 35/26 Q1000 NOSIG
ZBSJ,2016-07-23 06:00,ZBSJ 230600Z 17005MPS 140V210 6000 NSC 35/25 Q1000 NOSIG
ZBSJ,2016-07-23 07:00,ZBSJ 230700Z 18004MPS CAVOK 35/26 Q0999 NOSIG
ZBSJ,2016-07-23 08:00,ZBSJ 230800Z 16005MPS CAVOK 34/26 Q0999 NOSIG
ZBSJ,2016-07-23 09:00,ZBSJ 230900Z 16004MPS CAVOK 34/27 Q0999 NOSIG
ZBSJ,2016-07-23 10:00,ZBSJ 231000Z 16003MPS CAVOK 33/27 Q0999 NOSIG
ZBSJ,2016-07-23 11:00,ZBSJ 231100Z 15002MPS CAVOK 31/26 Q1000 NOSIG
ZBSJ,2016-07-23 12:00,ZBSJ 231200Z 12002MPS 6000 NSC 30/27 Q1001 NOSIG
ZBSJ,2016-07-23 13:00,ZBSJ 231300Z 07002MPS 6000 NSC 29/27 Q1002 NOSIG
ZBSJ,2016-07-23 14:00,ZBSJ 231400Z 07001MPS 5000 BR NSC 28/27 Q1002 NOSIG
ZBSJ,2016-07-23 15:00,ZBSJ 231500Z 06002MPS 4000 BR NSC 28/27 Q1002 NOSIG
ZBSJ,2016-07-23 16:00,ZBSJ 231600Z 09002MPS 3500 BR NSC 28/27 Q1003 NOSIG
ZBSJ,2016-07-23 17:00,ZBSJ 231700Z 06002MPS 2200 BR NSC 28/27 Q1002 NOSIG
ZBSJ,2016-07-23 18:00,ZBSJ 231800Z 03001MPS 1800 BR NSC 27/27 Q1002 NOSIG
ZBSJ,2016-07-23 19:00,ZBSJ 231900Z 00000MPS 1500 BR NSC 27/27 Q1002 NOSIG
ZBSJ,2016-07-23 20:00,ZBSJ 232000Z 05001MPS 1300 R15/1500U BR NSC 27/27 Q1002 NOSIG
ZBSJ,2016-07-23 21:00,ZBSJ 232100Z 00000MPS 1000 R15/0800V2000D BR NSC 26/26 Q1003 NOSIG
ZBSJ,2016-07-23 22:00,ZBSJ 232200Z 09001MPS 0800 R15/1100U FG NSC 27/27 Q1003 NOSIG
ZBSJ,2016-07-23 23:00,ZBSJ 232300Z 03001MPS 0900 R15/1100N FG NSC 27/27 Q1003 BECMG TL0030 1600
ZBSJ,2016-07-24 00:00,ZBSJ 240000Z 00000MPS 0800 R15/0900N FG NSC 28/28 Q1004 NOSIG
ZBSJ,2016-07-24 01:00,ZBSJ 240100Z 02002MPS 0800 R15/1000U FG NSC 29/28 Q1004 NOSIG
ZBSJ,2016-07-24 02:00,ZBSJ 240200Z 05002MPS 1200 R15/1200V1700U BR NSC 31/28 Q1004 BECMG TL0330 1600
ZBSJ,2016-07-24 03:00,ZBSJ 240300Z 06002MPS 1600 BR NSC 31/27 Q1004 BECMG TL0430 3000
ZBSJ,2016-07-24 04:00,ZBSJ 240400Z 05002MPS 010V080 2000 BR NSC 32/28 Q1004 BECMG TL0530 3000
ZBSJ,2016-07-24 05:00,ZBSJ 240500Z 09003MPS 2000 BR NSC 33/28 Q1003 NOSIG
ZBSJ,2016-07-24 06:00,ZBSJ 240600Z 10002MPS 2000 BR NSC 34/29 Q1003 NOSIG
ZBSJ,2016-07-24 07:00,ZBSJ 240700Z 07001MPS 2300 BR NSC 34/29 Q1002 NOSIG
ZBSJ,2016-07-24 07:30,ZBSJ 240730Z 14002MPS 090V200 2700 HZ NSC 35/28 Q1001 NOSIG
ZBSJ,2016-07-24 08:00,ZBSJ 240800Z 14001MPS 2700 HZ NSC 35/28 Q1002 BECMG TL0930 3000
ZBSJ,2016-07-24 08:30,ZBSJ 240830Z 16003MPS 2700 HZ NSC 34/28 Q1002 BECMG TL1000 3000
ZBSJ,2016-07-24 09:00,ZBSJ 240900Z 12002MPS 3000 HZ NSC 34/28 Q1002 BECMG TL1030 2700 HZ
ZBSJ,2016-07-24 09:30,ZBSJ 240930Z 13002MPS 2700 HZ NSC 34/28 Q1002 NOSIG
ZBSJ,2016-07-24 10:00,ZBSJ 241000Z 09006MPS 8000 NSC 30/26 Q1003 NOSIG
ZBSJ,2016-07-24 11:00,ZBSJ 241100Z 10005MPS 9999 BKN020 OVC046 28/26 Q1002 BECMG AT1120 -TSRA
ZBSJ,2016-07-24 12:00,ZBSJ 241200Z 09003MPS 050V120 9999 BKN020 28/26 Q1003 NOSIG
ZBSJ,2016-07-24 13:00,ZBSJ 241300Z 07004MPS 9999 SCT020 27/26 Q1004 NOSIG
ZBSJ,2016-07-24 14:00,ZBSJ 241400Z 06004MPS 010V090 9999 SCT020 27/25 Q1004 BECMG AT1430 -TSRA
ZBSJ,2016-07-24 15:00,ZBSJ 241500Z 35007G12MPS 7000 -TSRA SCT020 FEW033CB BKN046 26/25 Q1003 NOSIG
ZBSJ,2016-07-24 16:00,ZBSJ 241600Z 13003MPS 090V200 1600 TSRA BR FEW033CB BKN046 25/25 Q1004 NOSIG
ZBSJ,2016-07-24 17:00,ZBSJ 241700Z VRB03MPS 7000 -TSRA SCT010 FEW033CB BKN046 25/25 Q1002 RERA NOSIG
ZBSJ,2016-07-24 18:00,ZBSJ 241800Z 12003MPS 3000 TSRA BR SCT010 FEW033CB BKN046 25/25 Q1002 NOSIG
ZBSJ,2016-07-24 19:00,ZBSJ 241900Z 24002MPS 7000 TS SCT010 FEW033CB BKN046 25/25 Q1003 RERA NOSIG
ZBSJ,2016-07-24 20:00,ZBSJ 242000Z 24002MPS 5000 BR SCT010 BKN046 25/25 Q1002 RETS NOSIG
ZBSJ,2016-07-24 21:00,ZBSJ 242100Z 29001MPS 3500 BR SCT010 BKN046 26/26 Q1002 NOSIG
ZBSJ,2016-07-24 22:00,ZBSJ 242200Z 28002MPS 2500 BR SCT010 BKN046 25/25 Q1002 NOSIG
ZBSJ,2016-07-24 23:00,ZBSJ 242300Z 34002MPS 2000 BR OVC033 25/25 Q1002 NOSIG
ZBSJ,2016-07-25 00:00,ZBSJ 250000Z 36002MPS 1600 BR OVC046 26/26 Q1002 NOSIG
ZBSJ,2016-07-25 01:00,ZBSJ 250100Z 02001MPS 2500 BR OVC046 27/26 Q1002 BECMG TL0230 3000
ZBSJ,2016-07-25 02:00,ZBSJ 250200Z 06001MPS 3000 BR OVC046 27/26 Q1002 BECMG TL0330 2000 BR
ZBSJ,2016-07-25 03:00,ZBSJ 250300Z 07001MPS 2700 BR BKN046 28/27 Q1002 BECMG TL0430 3500
ZBSJ,2016-07-25 04:00,ZBSJ 250400Z 06001MPS 3500 BR NSC 30/27 Q1002 NOSIG
ZBSJ,2016-07-25 05:00,ZBSJ 250500Z 34002MPS 3500 BR NSC 31/27 Q1001 NOSIG
ZBSJ,2016-07-25 06:00,ZBSJ 250600Z 31002MPS 4500 BR NSC 32/27 Q1001 NOSIG
ZBSJ,2016-07-25 07:00,ZBSJ 250700Z 35001MPS 4500 HZ NSC 34/28 Q1001 NOSIG
ZBSJ,2016-07-25 08:00,ZBSJ 250800Z 27001MPS 4500 HZ NSC 33/27 Q1000 NOSIG
ZBSJ,2016-07-25 09:00,ZBSJ 250900Z 29003MPS 250V010 4000 HZ BKN046 33/27 Q1000 NOSIG
ZBSJ,2016-07-25 10:00,ZBSJ 251000Z 00000MPS 3500 BR BKN046 32/27 Q1000 NOSIG
ZBSJ,2016-07-25 11:00,ZBSJ 251100Z 28002MPS 3300 BR FEW040 31/28 Q1001 NOSIG
ZBSJ,2016-07-25 12:00,ZBSJ 251200Z 28001MPS 3500 BR NSC 31/28 Q1001 NOSIG
ZBSJ,2016-07-25 13:00,ZBSJ 251300Z 34003MPS 6000 NSC 30/26 Q1002 NOSIG
ZBSJ,2016-07-25 14:00,ZBSJ 251400Z 34003MPS CAVOK 29/22 Q1003 NOSIG
ZBSJ,2016-07-25 15:00,ZBSJ 251500Z 34002MPS CAVOK 28/23 Q1003 NOSIG
ZBSJ,2016-07-25 16:00,ZBSJ 251600Z 32003MPS CAVOK 27/23 Q1003 NOSIG
ZBSJ,2016-07-25 17:00,ZBSJ 251700Z 34002MPS CAVOK 27/21 Q1003 NOSIG
ZBSJ,2016-07-25 18:00,ZBSJ 251800Z 32003MPS CAVOK 26/22 Q1003 NOSIG
ZBSJ,2016-07-25 19:00,ZBSJ 251900Z 30002MPS CAVOK 26/21 Q1003 NOSIG
ZBSJ,2016-07-25 20:00,ZBSJ 252000Z 31003MPS CAVOK 26/21 Q1004 NOSIG
ZBSJ,2016-07-25 21:00,ZBSJ 252100Z 32002MPS 9999 BKN046 26/22 Q1004 NOSIG
ZBSJ,2016-07-25 22:00,ZBSJ 252200Z 32002MPS 9999 SCT046 25/23 Q1005 NOSIG
ZBSJ,2016-07-25 23:00,ZBSJ 252300Z 33002MPS 9999 SCT046 27/23 Q1005 NOSIG
ZBSJ,2016-07-26 00:00,ZBSJ 260000Z 04003MPS 350V080 CAVOK 28/24 Q1005 NOSIG
ZBSJ,2016-07-26 01:00,ZBSJ 260100Z 01002MPS 340V070 9999 BKN040 28/24 Q1005 NOSIG
ZBSJ,2016-07-26 02:00,ZBSJ 260200Z 10001MPS 9999 SCT040 30/25 Q1005 NOSIG
ZBSJ,2016-07-26 03:00,ZBSJ 260300Z 09002MPS 9999 FEW040 31/23 Q1005 NOSIG
ZBSJ,2016-07-26 04:00,ZBSJ 260400Z 09002MPS 9999 SCT040 31/24 Q1005 NOSIG
ZBSJ,2016-07-26 05:00,ZBSJ 260500Z 10001MPS 9999 BKN033 33/23 Q1004 NOSIG
ZBSJ,2016-07-26 06:00,ZBSJ 260600Z 17002MPS 9999 BKN033 33/24 Q1004 NOSIG
ZBSJ,2016-07-26 07:00,ZBSJ 260700Z 12002MPS 9999 FEW033 33/23 Q1003 NOSIG
ZBSJ,2016-07-26 08:00,ZBSJ 260800Z 17002MPS 100V220 CAVOK 33/23 Q1003 NOSIG
ZBSJ,2016-07-26 09:00,ZBSJ 260900Z 12002MPS CAVOK 33/24 Q1003 NOSIG
ZBSJ,2016-07-26 10:00,ZBSJ 261000Z 14002MPS CAVOK 32/24 Q1003 NOSIG
ZBSJ,2016-07-26 11:00,ZBSJ 261100Z 11001MPS CAVOK 30/25 Q1003 NOSIG
ZBSJ,2016-07-26 12:00,ZBSJ 261200Z 11001MPS CAVOK 28/25 Q1003 NOSIG
ZBSJ,2016-07-26 13:00,ZBSJ 261300Z 15001MPS CAVOK 28/25 Q1004 NOSIG
ZBSJ,2016-07-26 14:00,ZBSJ 261400Z 17001MPS 8000 NSC 28/25 Q1004 NOSIG
ZBSJ,2016-07-26 15:00,ZBSJ 261500Z 17002MPS 6000 NSC 27/25 Q1004 NOSIG
ZBSJ,2016-07-26 16:00,ZBSJ 261600Z 16002MPS 6000 NSC 27/25 Q1004 NOSIG
ZBSJ,2016-07-26 17:00,ZBSJ 261700Z 16001MPS 6000 NSC 27/25 Q1004 NOSIG
ZBSJ,2016-07-26 18:00,ZBSJ 261800Z 00000MPS 6000 NSC 26/25 Q1003 NOSIG
ZBSJ,2016-07-26 19:00,ZBSJ 261900Z 16001MPS 6000 NSC 26/25 Q1003 NOSIG
ZBSJ,2016-07-26 20:00,ZBSJ 262000Z 21001MPS 6000 NSC 26/25 Q1002 NOSIG
ZBSJ,2016-07-26 21:00,ZBSJ 262100Z 25001MPS 3500 BR NSC 26/25 Q1003 NOSIG
ZBSJ,2016-07-26 22:00,ZBSJ 262200Z 34001MPS 3000 BR NSC 26/25 Q1003 NOSIG
ZBSJ,2016-07-26 23:00,ZBSJ 262300Z 19002MPS 3500 BR NSC 26/26 Q1003 NOSIG
ZBSJ,2016-07-27 00:00,ZBSJ 270000Z 31002MPS 4000 BR NSC 28/25 Q1003 NOSIG
ZBSJ,2016-07-27 01:00,ZBSJ 270100Z 22001MPS 5000 BR NSC 29/25 Q1003 NOSIG
ZBSJ,2016-07-27 02:00,ZBSJ 270200Z 21001MPS 6000 NSC 30/26 Q1003 NOSIG
ZBSJ,2016-07-27 03:00,ZBSJ 270300Z 20002MPS 5000 BR NSC 31/26 Q1003 NOSIG
ZBSJ,2016-07-27 04:00,ZBSJ 270400Z 17004MPS 140V210 5000 BR NSC 32/27 Q1003 NOSIG
ZBSJ,2016-07-27 05:00,ZBSJ 270500Z 16004MPS 6000 NSC 32/25 Q1002 NOSIG
ZBSJ,2016-07-27 06:00,ZBSJ 270600Z 16004MPS 130V190 7000 NSC 33/27 Q1001 NOSIG
ZBSJ,2016-07-27 07:00,ZBSJ 270700Z 16005MPS 7000 NSC 33/27 Q1001 NOSIG
ZBSJ,2016-07-27 08:00,ZBSJ 270800Z 17005MPS 5000 HZ NSC 33/27 Q1000 NOSIG
ZBSJ,2016-07-27 09:00,ZBSJ 270900Z 18005MPS 3500 HZ NSC 33/27 Q1000 NOSIG
ZBSJ,2016-07-27 10:00,ZBSJ 271000Z 17004MPS 6000 NSC 31/26 Q1000 NOSIG
ZBSJ,2016-07-27 11:00,ZBSJ 271100Z 17003MPS 7000 NSC 29/25 Q1000 NOSIG
ZBSJ,2016-07-27 12:00,ZBSJ 271200Z 15003MPS 7000 NSC 27/24 Q1000 NOSIG
ZBSJ,2016-07-27 13:00,ZBSJ 271300Z 14001MPS 7000 NSC 26/24 Q1001 NOSIG
ZBSJ,2016-07-27 14:00,ZBSJ 271400Z 13002MPS 7000 NSC 26/24 Q1002 NOSIG
ZBSJ,2016-07-27 15:00,ZBSJ 271500Z 14002MPS 6000 NSC 26/24 Q1002 NOSIG
ZBSJ,2016-07-27 16:00,ZBSJ 271600Z 11004MPS 5000 BR NSC 26/24 Q1002 NOSIG
ZBSJ,2016-07-27 17:00,ZBSJ 271700Z 09002MPS 060V130 5000 BR NSC 25/24 Q1002 NOSIG
ZBSJ,2016-07-27 18:00,ZBSJ 271800Z 05002MPS 3500 BR NSC 24/24 Q1002 NOSIG
ZBSJ,2016-07-27 19:00,ZBSJ 271900Z 34001MPS 4000 BR NSC 24/24 Q1001 NOSIG
ZBSJ,2016-07-27 20:00,ZBSJ 272000Z 00000MPS 4000 BR NSC 24/24 Q1001 NOSIG
ZBSJ,2016-07-27 21:00,ZBSJ 272100Z 31002MPS 3000 BR NSC 24/24 Q1001 NOSIG
ZBSJ,2016-07-27 22:00,ZBSJ 272200Z 00000MPS 1800 BR NSC 24/24 Q1001 NOSIG
ZBSJ,2016-07-27 23:00,ZBSJ 272300Z 13001MPS 1800 R15/1400N BR NSC 26/25 Q1001 BECMG TL0030 3000
ZBSJ,2016-07-28 00:00,ZBSJ 280000Z 13001MPS 2700 BR NSC 27/25 Q1001 BECMG TL0130 3000
ZBSJ,2016-07-28 01:00,ZBSJ 280100Z 05001MPS 3000 BR NSC 28/25 Q1001 NOSIG
ZBSJ,2016-07-28 02:00,ZBSJ 280200Z 05002MPS 3000 BR NSC 29/26 Q1002 NOSIG
ZBSJ,2016-07-28 03:00,ZBSJ 280300Z 11001MPS 3500 BR NSC 31/25 Q1002 NOSIG
ZBSJ,2016-07-28 04:00,ZBSJ 280400Z 10003MPS 060V140 3200 HZ NSC 31/26 Q1001 NOSIG
ZBSJ,2016-07-28 05:00,ZBSJ 280500Z 13002MPS 070V170 2500 HZ NSC 32/27 Q1001 BECMG TL0630 3000
ZBSJ,2016-07-28 06:00,ZBSJ 280600Z VRB02MPS 3000 HZ NSC 32/26 Q1000 NOSIG
ZBSJ,2016-07-28 07:00,ZBSJ 280700Z 07002MPS 040V100 2500 HZ NSC 33/26 Q1000 NOSIG
ZBSJ,2016-07-28 08:00,ZBSJ 280800Z 06002MPS 360V090 2000 HZ NSC 32/27 Q1000 NOSIG
ZBSJ,2016-07-28 09:00,ZBSJ 280900Z 06002MPS 020V080 2000 HZ NSC 32/27 Q0999 NOSIG
ZBSJ,2016-07-28 10:00,ZBSJ 281000Z 05002MPS 010V070 1800 BR NSC 30/27 Q1000 NOSIG
ZBSJ,2016-07-28 11:00,ZBSJ 281100Z 07002MPS 1600 BR NSC 30/27 Q1001 BECMG AT1130 -TSRA FEW033CB
ZBSJ,2016-07-28 12:00,ZBSJ 281200Z 17003MPS 8000 -TSRA FEW030CB BKN046 24/22 Q1002 BECMG TL1240 NSW
ZBSJ,2016-07-28 13:00,ZBSJ 281300Z 16001MPS CAVOK 24/23 Q1003 NOSIG
ZBSJ,2016-07-28 14:00,ZBSJ 281400Z 24001MPS CAVOK 25/22 Q1003 NOSIG
ZBSJ,2016-07-28 15:00,ZBSJ 281500Z 22002MPS CAVOK 24/23 Q1003 NOSIG
ZBSJ,2016-07-28 16:00,ZBSJ 281600Z 36003MPS 340V050 7000 NSC 24/22 Q1003 NOSIG
ZBSJ,2016-07-28 17:00,ZBSJ 281700Z 34001MPS 7000 NSC 23/22 Q1002 NOSIG
ZBSJ,2016-07-28 18:00,ZBSJ 281800Z 22002MPS 7000 NSC 24/22 Q1002 NOSIG
ZBSJ,2016-07-28 19:00,ZBSJ 281900Z 34001MPS 5000 BR NSC 23/22 Q1002 NOSIG
ZBSJ,2016-07-28 20:00,ZBSJ 282000Z 23001MPS 5000 BR NSC 23/22 Q1002 NOSIG
ZBSJ,2016-07-28 21:00,ZBSJ 282100Z 11001MPS 4000 BR NSC 22/22 Q1002 NOSIG
ZBSJ,2016-07-28 22:00,ZBSJ 282200Z 15001MPS 3000 BR NSC 22/22 Q1003 NOSIG
ZBSJ,2016-07-28 23:00,ZBSJ 282300Z 24001MPS 3500 BR NSC 25/23 Q1004 NOSIG
ZBSJ,2016-07-29 00:00,ZBSJ 290000Z 22001MPS 3500 BR NSC 27/23 Q1004 NOSIG
ZBSJ,2016-07-29 01:00,ZBSJ 290100Z 13001MPS 4000 HZ NSC 29/23 Q1005 NOSIG
ZBSJ,2016-07-29 02:00,ZBSJ 290200Z 05001MPS 4000 HZ NSC 29/24 Q1005 NOSIG
ZBSJ,2016-07-29 03:00,ZBSJ 290300Z 06001MPS 4000 HZ NSC 31/24 Q1005 NOSIG
ZBSJ,2016-07-29 04:00,ZBSJ 290400Z 35001MPS 6000 NSC 33/23 Q1005 NOSIG
ZBSJ,2016-07-29 05:00,ZBSJ 290500Z 05001MPS 8000 NSC 33/23 Q1005 NOSIG
ZBSJ,2016-07-29 06:00,ZBSJ 290600Z 08002MPS CAVOK 33/23 Q1004 NOSIG
ZBSJ,2016-07-29 07:00,ZBSJ 290700Z 10002MPS CAVOK 33/23 Q1004 NOSIG
ZBSJ,2016-07-29 08:00,ZBSJ 290800Z 13001MPS CAVOK 32/24 Q1004 NOSIG
ZBSJ,2016-07-29 09:00,ZBSJ 290900Z 10002MPS CAVOK 32/25 Q1004 NOSIG
ZBSJ,2016-07-29 10:00,ZBSJ 291000Z 10002MPS 8000 NSC 32/25 Q1004 NOSIG
ZBSJ,2016-07-29 11:00,ZBSJ 291100Z 05001MPS 7000 NSC 30/26 Q1004 NOSIG
ZBSJ,2016-07-29 12:00,ZBSJ 291200Z 04001MPS 6000 FEW046 29/26 Q1005 NOSIG
ZBSJ,2016-07-29 13:00,ZBSJ 291300Z 04001MPS 7000 SCT046 29/26 Q1005 NOSIG
ZBSJ,2016-07-29 14:00,ZBSJ 291400Z 01001MPS 7000 SCT046 28/26 Q1006 NOSIG
ZBSJ,2016-07-29 15:00,ZBSJ 291500Z 02001MPS 5000 BR NSC 28/26 Q1006 NOSIG
ZBSJ,2016-07-29 16:00,ZBSJ 291600Z 35001MPS 5000 BR FEW046 28/25 Q1007 NOSIG
ZBSJ,2016-07-29 17:00,ZBSJ 291700Z 32002MPS 4500 BR FEW046 28/25 Q1006 NOSIG
ZBSJ,2016-07-29 18:00,ZBSJ 291800Z 08001MPS 4000 BR NSC 27/25 Q1005 NOSIG
ZBSJ,2016-07-29 19:00,ZBSJ 291900Z 33003MPS 4500 BR NSC 26/25 Q1006 NOSIG
ZBSJ,2016-07-29 20:00,ZBSJ 292000Z 35002MPS 4500 BR NSC 27/25 Q1006 NOSIG
ZBSJ,2016-07-29 21:00,ZBSJ 292100Z 34002MPS 4500 BR NSC 26/25 Q1007 NOSIG
ZBSJ,2016-07-29 22:00,ZBSJ 292200Z 32003MPS 3500 BR NSC 27/25 Q1007 NOSIG
ZBSJ,2016-07-29 23:00,ZBSJ 292300Z 32003MPS 3500 BR NSC 28/25 Q1007 NOSIG
ZBSJ,2016-07-30 00:00,ZBSJ 300000Z 32003MPS 4000 BR NSC 29/25 Q1008 NOSIG
ZBSJ,2016-07-30 01:00,ZBSJ 300100Z 31003MPS 4000 BR NSC 30/26 Q1008 NOSIG
ZBSJ,2016-07-30 02:00,ZBSJ 300200Z 36001MPS 3500 BR NSC 31/27 Q1008 NOSIG
ZBSJ,2016-07-30 03:00,ZBSJ 300300Z 01002MPS 3000 BR NSC 32/27 Q1008 NOSIG
ZBSJ,2016-07-30 04:00,ZBSJ 300400Z 36001MPS 3000 BR NSC 33/28 Q1008 BECMG TL0530 2700 BR
ZBSJ,2016-07-30 05:00,ZBSJ 300500Z 30001MPS 2800 BR NSC 34/28 Q1007 BECMG TL0630 3000
ZBSJ,2016-07-30 06:00,ZBSJ 300600Z 15001MPS 2800 HZ NSC 35/27 Q1006 BECMG TL0730 3000
ZBSJ,2016-07-30 07:00,ZBSJ 300700Z 12001MPS 3500 HZ SCT033 35/27 Q1005 NOSIG
ZBSJ,2016-07-30 08:00,ZBSJ 300800Z 15001MPS 4500 HZ SCT033 34/27 Q1004 NOSIG
ZBSJ,2016-07-30 09:00,ZBSJ 300900Z 09001MPS 4000 HZ NSC 34/28 Q1005 NOSIG
ZBSJ,2016-07-30 10:00,ZBSJ 301000Z 08005MPS 050V110 5000 HZ FEW033 30/25 Q1006 NOSIG
ZBSJ,2016-07-30 11:00,ZBSJ 301100Z 12003MPS 9999 FEW033TCU 29/22 Q1006 NOSIG
ZBSJ,2016-07-30 12:00,ZBSJ 301200Z 10003MPS 070V130 9999 FEW033TCU 27/23 Q1007 NOSIG
ZBSJ,2016-07-30 13:00,ZBSJ 301300Z 02001MPS 9999 SCT040 26/24 Q1008 NOSIG
ZBSJ,2016-07-30 14:00,ZBSJ 301400Z 35003MPS 9999 SCT040 26/23 Q1009 NOSIG
ZBSJ,2016-07-30 15:00,ZBSJ 301500Z 06002MPS 9999 SCT040 25/23 Q1009 NOSIG
ZBSJ,2016-07-30 16:00,ZBSJ 301600Z 08001MPS 9999 SCT040 26/23 Q1008 NOSIG
ZBSJ,2016-07-30 17:00,ZBSJ 301700Z 02002MPS 6000 NSC 25/23 Q1008 NOSIG
ZBSJ,2016-07-30 18:00,ZBSJ 301800Z 14001MPS 6000 NSC 25/23 Q1008 NOSIG
ZBSJ,2016-07-30 19:00,ZBSJ 301900Z 27001MPS 6000 NSC 24/23 Q1007 NOSIG
ZBSJ,2016-07-30 20:00,ZBSJ 302000Z 34002MPS 5000 BR NSC 23/23 Q1007 NOSIG
ZBSJ,2016-07-30 21:00,ZBSJ 302100Z 00000MPS 4500 BR NSC 23/23 Q1008 NOSIG
ZBSJ,2016-07-30 22:00,ZBSJ 302200Z 00000MPS 2700 BR NSC 23/23 Q1009 NOSIG
ZBSJ,2016-07-30 23:00,ZBSJ 302300Z 02001MPS 2500 BR NSC 25/24 Q1009 BECMG TL0030 3000
ZBSJ,2016-07-31 00:00,ZBSJ 310000Z 02002MPS 330V060 2200 BR NSC 26/24 Q1010 NOSIG
ZBSJ,2016-07-31 01:00,ZBSJ 310100Z 02002MPS 340V060 2300 BR FEW016 27/24 Q1010 BECMG TL0230 3000
ZBSJ,2016-07-31 02:00,ZBSJ 310200Z 05003MPS 020V090 2500 BR FEW016 27/24 Q1010 BECMG TL0330 3000
ZBSJ,2016-07-31 03:00,ZBSJ 310300Z 05003MPS 3000 BR NSC 28/24 Q1009 NOSIG
ZBSJ,2016-07-31 04:00,ZBSJ 310400Z 05002MPS 3500 BR NSC 29/25 Q1009 NOSIG
ZBSJ,2016-07-31 05:00,ZBSJ 310500Z 07002MPS 4000 HZ FEW030 30/25 Q1008 NOSIG
ZBSJ,2016-07-31 06:00,ZBSJ 310600Z 12001MPS 4500 HZ NSC 31/25 Q1007 NOSIG
ZBSJ,2016-07-31 07:00,ZBSJ 310700Z 11001MPS 5000 HZ FEW030 32/26 Q1007 NOSIG
ZBSJ,2016-07-31 08:00,ZBSJ 310800Z 10002MPS 5000 HZ NSC 32/25 Q1007 NOSIG
ZBSJ,2016-07-31 09:00,ZBSJ 310900Z 13002MPS 090V150 5000 HZ NSC 32/25 Q1006 NOSIG
ZBSJ,2016-07-31 10:00,ZBSJ 311000Z 08001MPS 5000 HZ NSC 31/26 Q1006 NOSIG
ZBSJ,2016-07-31 11:00,ZBSJ 311100Z 07002MPS 4500 BR NSC 30/26 Q1007 NOSIG
ZBSJ,2016-07-31 12:00,ZBSJ 311200Z 07002MPS 4500 BR NSC 29/26 Q1007 NOSIG
ZBSJ,2016-07-31 13:00,ZBSJ 311300Z 06002MPS 4000 BR NSC 28/26 Q1008 NOSIG
ZBSJ,2016-07-31 14:00,ZBSJ 311400Z 04002MPS 3500 BR NSC 27/26 Q1009 NOSIG
ZBSJ,2016-07-31 15:00,ZBSJ 311500Z 06002MPS 3500 BR NSC 27/25 Q1009 NOSIG
ZBSJ,2016-07-31 16:00,ZBSJ 311600Z 06001MPS 3500 BR NSC 27/25 Q1009 NOSIG
ZBSJ,2016-07-31 17:00,ZBSJ 311700Z 05001MPS 3000 BR NSC 26/25 Q1008 NOSIG
ZBSJ,2016-07-31 18:00,ZBSJ 311800Z 03001MPS 2800 BR NSC 26/25 Q1008 NOSIG
ZBSJ,2016-07-31 19:00,ZBSJ 311900Z 01001MPS 2500 BR NSC 26/25 Q1008 NOSIG
ZBSJ,2016-07-31 20:00,ZBSJ 312000Z 35002MPS 2000 BR NSC 26/25 Q1008 NOSIG
ZBSJ,2016-07-31 21:00,ZBSJ 312100Z 07001MPS 1400 R15/P2000N BR NSC 26/26 Q1008 NOSIG
ZBSJ,2016-07-31 22:00,ZBSJ 312200Z 05001MPS 0700 R15/1300N FG NSC 26/26 Q1008 NOSIG
ZBSJ,2016-07-31 23:00,ZBSJ 312300Z 06001MPS 0800 R15/1300N FG NSC 26/26 Q1008 BECMG 1600
ZBSJ,2016-08-01 00:00,ZBSJ 010000Z 04002MPS 1200 R15/1400N BR NSC 27/26 Q1009 BECMG 1600
ZBSJ,2016-08-01 01:00,ZBSJ 010100Z 04002MPS 1200 R15/1200U BR NSC 27/26 Q1009 BECMG TL0230 1600
ZBSJ,2016-08-01 02:00,ZBSJ 010200Z 03002MPS 1600 BR NSC 28/26 Q1009 NOSIG
ZBSJ,2016-08-01 03:00,ZBSJ 010300Z 06003MPS 030V100 1800 BR NSC 28/26 Q1009 NOSIG
ZBSJ,2016-08-01 04:00,ZBSJ 010400Z 05003MPS 2200 BR NSC 29/26 Q1009 BECMG TL0530 3000
ZBSJ,2016-08-01 05:00,ZBSJ 010500Z 03002MPS 360V070 1500 R33/1400D -RA BR OVC046 28/26 Q1009 BECMG AT0530 -TSRA
ZBSJ,2016-08-01 06:00,ZBSJ 010600Z 02003MPS 350V080 1600 BR NSC 28/27 Q1008 NOSIG
ZBSJ,2016-08-01 07:00,ZBSJ 010700Z 03002MPS 1800 BR NSC 29/27 Q1008 NOSIG
ZBSJ,2016-08-01 08:00,ZBSJ 010800Z 04002MPS 360V090 2000 BR NSC 30/26 Q1007 NOSIG
ZBSJ,2016-08-01 09:00,ZBSJ 010900Z 36002MPS 2000 BR NSC 29/26 Q1008 NOSIG
ZBSJ,2016-08-01 10:00,ZBSJ 011000Z 36001MPS 2200 BR NSC 29/26 Q1008 NOSIG
ZBSJ,2016-08-01 11:00,ZBSJ 011100Z 30003MPS 2700 BR NSC 28/25 Q1008 NOSIG
ZBSJ,2016-08-01 12:00,ZBSJ 011200Z 23001MPS 3500 BR NSC 27/24 Q1008 NOSIG
ZBSJ,2016-08-01 13:00,ZBSJ 011300Z 28002MPS 4000 BR NSC 27/24 Q1009 NOSIG
ZBSJ,2016-08-01 14:00,ZBSJ 011400Z 32002MPS 4000 BR NSC 26/25 Q1009 NOSIG
ZBSJ,2016-08-01 15:00,ZBSJ 011500Z 32001MPS 3500 BR NSC 26/25 Q1009 NOSIG
ZBSJ,2016-08-01 16:00,ZBSJ 011600Z 34002MPS 2500 BR NSC 25/25 Q1009 NOSIG
ZBSJ,2016-08-01 17:00,ZBSJ 011700Z 04001MPS 2300 BR NSC 26/25 Q1009 NOSIG
ZBSJ,2016-08-01 18:00,ZBSJ 011800Z 04001MPS 2000 BR NSC 25/25 Q1009 NOSIG
ZBSJ,2016-08-01 19:00,ZBSJ 011900Z 34001MPS 2000 BR NSC 25/25 Q1009 NOSIG
ZBSJ,2016-08-01 20:00,ZBSJ 012000Z 01001MPS 2000 BR NSC 25/25 Q1009 NOSIG
ZBSJ,2016-08-01 21:00,ZBSJ 012100Z 35002MPS 1600 BR NSC 25/25 Q1010 NOSIG
ZBSJ,2016-08-01 22:00,ZBSJ 012200Z 01002MPS 1600 BR NSC 25/25 Q1010 NOSIG
ZBSJ,2016-08-01 23:00,ZBSJ 012300Z 32001MPS 2000 BR NSC 26/25 Q1010 BECMG TL0030 3000
ZBSJ,2016-08-02 00:00,ZBSJ 020000Z 34001MPS 2700 BR NSC 27/25 Q1010 BECMG TL0130 3000
ZBSJ,2016-08-02 01:00,ZBSJ 020100Z 34001MPS 2500 BR NSC 29/26 Q1011 BECMG TL0230 3000
ZBSJ,2016-08-02 02:00,ZBSJ 020200Z 08001MPS 2500 BR SCT033 30/25 Q1011 NOSIG
ZBSJ,2016-08-02 03:00,ZBSJ 020300Z 04001MPS 3000 HZ SCT033 31/25 Q1010 NOSIG
ZBSJ,2016-08-02 04:00,ZBSJ 020400Z 08001MPS 5000 HZ BKN033 32/24 Q1010 NOSIG
ZBSJ,2016-08-02 05:00,ZBSJ 020500Z 06001MPS 5000 HZ BKN033 32/25 Q1009 NOSIG
ZBSJ,2016-08-02 06:00,ZBSJ 020600Z 06002MPS 010V120 7000 BKN033 32/24 Q1009 NOSIG
ZBSJ,2016-08-02 07:00,ZBSJ 020700Z 15001MPS 9999 SCT033 33/24 Q1008 NOSIG
ZBSJ,2016-08-02 08:00,ZBSJ 020800Z 10003MPS CAVOK 31/24 Q1008 NOSIG
ZBSJ,2016-08-02 09:00,ZBSJ 020900Z 08003MPS 040V130 CAVOK 31/23 Q1008 NOSIG
ZBSJ,2016-08-02 10:00,ZBSJ 021000Z 08002MPS CAVOK 31/24 Q1007 NOSIG
ZBSJ,2016-08-02 11:00,ZBSJ 021100Z 04001MPS 8000 NSC 29/25 Q1008 NOSIG
ZBSJ,2016-08-02 12:00,ZBSJ 021200Z 08003MPS 8000 NSC 28/24 Q1009 NOSIG
ZBSJ,2016-08-02 13:00,ZBSJ 021300Z 12002MPS 7000 NSC 27/24 Q1010 NOSIG
ZBSJ,2016-08-02 14:00,ZBSJ 021400Z 09001MPS 6000 NSC 26/24 Q1010 NOSIG
ZBSJ,2016-08-02 15:00,ZBSJ 021500Z 04001MPS 6000 NSC 25/24 Q1011 NOSIG
ZBSJ,2016-08-02 16:00,ZBSJ 021600Z 36001MPS 5000 BR NSC 24/23 Q1011 NOSIG
ZBSJ,2016-08-02 17:00,ZBSJ 021700Z 01001MPS 5000 BR NSC 24/23 Q1011 NOSIG
ZBSJ,2016-08-02 18:00,ZBSJ 021800Z 35001MPS 4500 BR NSC 23/22 Q1010 NOSIG
ZBSJ,2016-08-02 19:00,ZBSJ 021900Z 34002MPS 4500 BR NSC 24/22 Q1010 NOSIG
ZBSJ,2016-08-02 20:00,ZBSJ 022000Z 34001MPS 4500 BR NSC 24/22 Q1010 NOSIG
ZBSJ,2016-08-02 21:00,ZBSJ 022100Z 34002MPS 4000 BR NSC 23/22 Q1010 NOSIG
ZBSJ,2016-08-02 22:00,ZBSJ 022200Z 33002MPS 3000 BR NSC 24/22 Q1010 NOSIG
ZBSJ,2016-08-02 23:00,ZBSJ 022300Z 34002MPS 3000 BR NSC 25/23 Q1010 NOSIG
ZBSJ,2016-08-03 00:00,ZBSJ 030000Z 31002MPS 3500 BR NSC 28/24 Q1010 NOSIG
ZBSJ,2016-08-03 01:00,ZBSJ 030100Z 24001MPS 4000 HZ NSC 30/24 Q1011 NOSIG
ZBSJ,2016-08-03 02:00,ZBSJ 030200Z 19001MPS 5000 HZ NSC 30/24 Q1011 NOSIG
ZBSJ,2016-08-03 03:00,ZBSJ 030300Z 12002MPS 070V170 5000 HZ NSC 31/24 Q1011 NOSIG
ZBSJ,2016-08-03 04:00,ZBSJ 030400Z 11002MPS 060V150 7000 BKN033 32/24 Q1011 NOSIG
ZBSJ,2016-08-03 05:00,ZBSJ 030500Z 09003MPS 040V130 9999 SCT033 32/24 Q1010 NOSIG
ZBSJ,2016-08-03 06:00,ZBSJ 030600Z 11002MPS 020V170 9999 SCT033 32/23 Q1010 NOSIG
ZBSJ,2016-08-03 07:00,ZBSJ 030700Z 11002MPS 080V150 9999 FEW020 SCT033 32/23 Q1009 NOSIG
ZBSJ,2016-08-03 08:00,ZBSJ 030800Z 07002MPS 030V100 9999 FEW033 32/23 Q1009 NOSIG
ZBSJ,2016-08-03 09:00,ZBSJ 030900Z 12002MPS 090V150 CAVOK 32/23 Q1009 NOSIG
ZBSJ,2016-08-03 10:00,ZBSJ 031000Z 14002MPS CAVOK 31/23 Q1008 NOSIG
ZBSJ,2016-08-03 11:00,ZBSJ 031100Z 15001MPS 8000 NSC 30/25 Q1009 NOSIG
ZBSJ,2016-08-03 12:00,ZBSJ 031200Z 15001MPS 7000 NSC 28/24 Q1009 NOSIG
ZBSJ,2016-08-03 13:00,ZBSJ 031300Z 16001MPS 7000 NSC 27/24 Q1009 NOSIG
ZBSJ,2016-08-03 14:00,ZBSJ 031400Z 15001MPS 6000 NSC 26/24 Q1010 NOSIG
ZBSJ,2016-08-03 15:00,ZBSJ 031500Z 00000MPS 6000 NSC 26/24 Q1010 NOSIG
ZBSJ,2016-08-03 16:00,ZBSJ 031600Z 00000MPS 5000 HZ NSC 26/24 Q1010 NOSIG
ZBSJ,2016-08-03 17:00,ZBSJ 031700Z 17001MPS 5000 BR SCT046 27/25 Q1010 NOSIG
ZBSJ,2016-08-03 18:00,ZBSJ 031800Z 21001MPS 5000 BR NSC 26/25 Q1010 NOSIG
ZBSJ,2016-08-03 19:00,ZBSJ 031900Z 18001MPS 4500 BR NSC 25/24 Q1009 NOSIG
ZBSJ,2016-08-03 20:00,ZBSJ 032000Z 00000MPS 4000 BR NSC 25/24 Q1010 NOSIG
ZBSJ,2016-08-03 21:00,ZBSJ 032100Z 00000MPS 4000 BR NSC 25/24 Q1010 NOSIG
ZBSJ,2016-08-03 22:00,ZBSJ 032200Z 34001MPS 2800 BR NSC 24/24 Q1010 NOSIG
ZBSJ,2016-08-03 23:00,ZBSJ 032300Z 07001MPS 2500 BR NSC 26/25 Q1010 BECMG TL0030 3000
ZBSJ,2016-08-04 00:00,ZBSJ 040000Z 06001MPS 2000 BR NSC 28/25 Q1010 BECMG TL0130 3000
ZBSJ,2016-08-04 01:00,ZBSJ 040100Z 08001MPS 2300 HZ NSC 30/25 Q1011 BECMG TL0230 3000
ZBSJ,2016-08-04 02:00,ZBSJ 040200Z 12001MPS 3000 HZ SCT033 31/24 Q1011 NOSIG
ZBSJ,2016-08-04 03:00,ZBSJ 040300Z 02001MPS 3200 HZ BKN033 31/24 Q1010 NOSIG
ZBSJ,2016-08-04 04:00,ZBSJ 040400Z 09002MPS 6000 BKN033 31/25 Q1010 NOSIG
ZBSJ,2016-08-04 05:00,ZBSJ 040500Z 11003MPS 050V150 8000 SCT033 33/23 Q1009 NOSIG
ZBSJ,2016-08-04 06:00,ZBSJ 040600Z 10003MPS 050V140 9999 SCT033 33/24 Q1009 NOSIG
ZBSJ,2016-08-04 07:00,ZBSJ 040700Z 12002MPS 070V160 9999 SCT033 33/24 Q1009 NOSIG
ZBSJ,2016-08-04 08:00,ZBSJ 040800Z 09003MPS 050V110 9999 SCT033 32/24 Q1008 NOSIG
ZBSJ,2016-08-04 09:00,ZBSJ 040900Z 10002MPS 070V140 9999 SCT033 32/24 Q1008 NOSIG
ZBSJ,2016-08-04 10:00,ZBSJ 041000Z 09001MPS CAVOK 31/24 Q1008 NOSIG
ZBSJ,2016-08-04 11:00,ZBSJ 041100Z 09002MPS 6000 NSC 30/25 Q1008 NOSIG
ZBSJ,2016-08-04 12:00,ZBSJ 041200Z 10002MPS 6000 NSC 28/25 Q1009 NOSIG
ZBSJ,2016-08-04 13:00,ZBSJ 041300Z 10002MPS 5000 BR NSC 28/25 Q1010 NOSIG
ZBSJ,2016-08-04 14:00,ZBSJ 041400Z 11001MPS 5000 BR NSC 27/24 Q1010 NOSIG
ZBSJ,2016-08-04 15:00,ZBSJ 041500Z 00000MPS 4000 BR NSC 26/24 Q1010 NOSIG
ZBSJ,2016-08-04 16:00,ZBSJ 041600Z 12001MPS 3000 BR NSC 26/24 Q1010 NOSIG
ZBSJ,2016-08-04 17:00,ZBSJ 041700Z 10001MPS 3500 BR NSC 26/24 Q1010 NOSIG
ZBSJ,2016-08-04 18:00,ZBSJ 041800Z 00000MPS 3500 BR NSC 25/24 Q1009 NOSIG
ZBSJ,2016-08-04 19:00,ZBSJ 041900Z 06001MPS 3500 BR NSC 24/24 Q1009 NOSIG
ZBSJ,2016-08-04 20:00,ZBSJ 042000Z 06001MPS 3000 BR NSC 24/24 Q1009 NOSIG
ZBSJ,2016-08-04 21:00,ZBSJ 042100Z 06001MPS 3000 BR NSC 25/24 Q1010 NOSIG
ZBSJ,2016-08-04 22:00,ZBSJ 042200Z 02001MPS 2200 BR NSC 25/24 Q1010 NOSIG
ZBSJ,2016-08-04 23:00,ZBSJ 042300Z 12001MPS 1800 BR NSC 27/25 Q1010 BECMG TL0030 1400 BR
ZBSJ,2016-08-05 00:00,ZBSJ 050000Z 08001MPS 1800 BR NSC 29/25 Q1010 BECMG TL0130 1400 BR
ZBSJ,2016-08-05 01:00,ZBSJ 050100Z 06001MPS 2500 BR NSC 30/25 Q1010 BECMG TL0230 3500
ZBSJ,2016-08-05 02:00,ZBSJ 050200Z 07001MPS 6000 SCT033 31/24 Q1010 NOSIG
ZBSJ,2016-08-05 03:00,ZBSJ 050300Z 20001MPS 6000 BKN030 32/24 Q1010 NOSIG
ZBSJ,2016-08-05 04:00,ZBSJ 050400Z 12002MPS 080V150 7000 SCT030 32/24 Q1010 NOSIG
ZBSJ,2016-08-05 05:00,ZBSJ 050500Z 13002MPS 080V170 7000 SCT030 32/24 Q1009 NOSIG
ZBSJ,2016-08-05 06:00,ZBSJ 050600Z 14002MPS 070V200 8000 SCT033 33/24 Q1008 NOSIG
ZBSJ,2016-08-05 07:00,ZBSJ 050700Z 14003MPS 110V190 5000 HZ SCT033 32/24 Q1008 NOSIG
ZBSJ,2016-08-05 09:00,ZBSJ 050900Z 23003MPS 4000 HZ SCT040 30/25 Q1008 NOSIG
ZBSJ,2016-08-05 10:00,ZBSJ 051000Z 18002MPS 4000 HZ SCT040 29/25 Q1007 NOSIG
ZBSJ,2016-08-05 11:00,ZBSJ 051100Z 20001MPS 3500 BR NSC 29/25 Q1008 NOSIG
ZBSJ,2016-08-05 12:00,ZBSJ 051200Z 25002MPS 5000 BR NSC 28/23 Q1009 NOSIG
ZBSJ,2016-08-05 13:00,ZBSJ 051300Z 27001MPS 5000 BR NSC 27/24 Q1009 NOSIG
ZBSJ,2016-08-05 14:00,ZBSJ 051400Z 08001MPS 4500 BR NSC 25/24 Q1009 NOSIG
ZBSJ,2016-08-05 15:00,ZBSJ 051500Z 00000MPS 4500 BR NSC 26/24 Q1008 NOSIG
ZBSJ,2016-08-05 16:00,ZBSJ 051600Z 18001MPS 4000 BR NSC 25/24 Q1008 NOSIG
ZBSJ,2016-08-05 17:00,ZBSJ 051700Z 24001MPS 4000 BR NSC 26/24 Q1008 NOSIG
ZBSJ,2016-08-05 18:00,ZBSJ 051800Z 21001MPS 3500 BR NSC 25/24 Q1008 NOSIG
ZBSJ,2016-08-05 19:00,ZBSJ 051900Z 21001MPS 3500 BR NSC 25/24 Q1008 NOSIG
ZBSJ,2016-08-05 20:00,ZBSJ 052000Z 24001MPS 4000 BR NSC 25/24 Q1007 NOSIG
ZBSJ,2016-08-05 21:00,ZBSJ 052100Z 25002MPS 4000 BR NSC 25/23 Q1007 NOSIG
ZBSJ,2016-08-05 22:00,ZBSJ 052200Z 25002MPS 3500 BR NSC 25/23 Q1008 NOSIG
ZBSJ,2016-08-05 23:00,ZBSJ 052300Z 26001MPS 3000 BR NSC 26/24 Q1007 BECMG TL0030 2500 BR
ZBSJ,2016-08-06 00:00,ZBSJ 060000Z 30003MPS 270V060 2800 BR NSC 27/24 Q1007 BECMG TL0130 3500
ZBSJ,2016-08-06 01:00,ZBSJ 060100Z 25002MPS 3500 BR NSC 28/24 Q1007 NOSIG
ZBSJ,2016-08-06 02:00,ZBSJ 060200Z 20002MPS 3500 BR NSC 30/24 Q1007 NOSIG
ZBSJ,2016-08-06 03:00,ZBSJ 060300Z 18003MPS 6000 NSC 31/23 Q1007 NOSIG
ZBSJ,2016-08-06 04:00,ZBSJ 060400Z 18004MPS 150V220 CAVOK 32/23 Q1007 NOSIG
ZBSJ,2016-08-06 05:00,ZBSJ 060500Z 20003MPS 140V230 6000 NSC 33/25 Q1006 NOSIG
ZBSJ,2016-08-06 06:00,ZBSJ 060600Z 17003MPS 130V200 CAVOK 32/24 Q1005 NOSIG
ZBSJ,2016-08-06 07:00,ZBSJ 060700Z 17004MPS 130V200 CAVOK 32/24 Q1005 NOSIG
ZBSJ,2016-08-06 08:00,ZBSJ 060800Z 18004MPS 8000 NSC 31/25 Q1004 NOSIG
ZBSJ,2016-08-06 09:00,ZBSJ 060900Z 18004MPS 8000 NSC 30/24 Q1004 NOSIG
ZBSJ,2016-08-06 10:00,ZBSJ 061000Z 16003MPS 8000 NSC 29/24 Q1003 NOSIG
ZBSJ,2016-08-06 11:00,ZBSJ 061100Z 17002MPS 4000 HZ NSC 28/25 Q1004 NOSIG
ZBSJ,2016-08-06 12:00,ZBSJ 061200Z 16002MPS 4000 HZ NSC 26/25 Q1005 NOSIG
ZBSJ,2016-08-06 13:00,ZBSJ 061300Z 15002MPS 4000 BR NSC 26/25 Q1005 NOSIG
ZBSJ,2016-08-06 14:00,ZBSJ 061400Z 13001MPS 3500 BR NSC 27/25 Q1005 NOSIG
ZBSJ,2016-08-06 15:00,ZBSJ 061500Z 18001MPS 3500 BR NSC 26/25 Q1005 NOSIG
ZBSJ,2016-08-06 16:00,ZBSJ 061600Z 14001MPS 3500 BR NSC 26/25 Q1005 NOSIG
ZBSJ,2016-08-06 17:00,ZBSJ 061700Z 15002MPS 3000 BR NSC 26/25 Q1005 NOSIG
ZBSJ,2016-08-06 18:00,ZBSJ 061800Z 02001MPS 3000 BR NSC 25/25 Q1005 NOSIG
ZBSJ,2016-08-06 19:00,ZBSJ 061900Z 08002MPS 2000 BR NSC 25/25 Q1005 NOSIG
ZBSJ,2016-08-06 20:00,ZBSJ 062000Z 18003MPS 1800 BR NSC 25/25 Q1004 NOSIG
ZBSJ,2016-08-06 21:00,ZBSJ 062100Z 31002MPS 1600 BR NSC 26/25 Q1005 NOSIG
ZBSJ,2016-08-06 22:00,ZBSJ 062200Z 04001MPS 1300 R15/1300N BR NSC 25/25 Q1006 NOSIG
ZBSJ,2016-08-06 23:00,ZBSJ 062300Z 06001MPS 1000 R15/1200N BR NSC 26/26 Q1006 BECMG TL0030 1500
ZBSJ,2016-08-07 00:00,ZBSJ 070000Z 06001MPS 1200 R15/1100V1800U BR NSC 28/26 Q1006 BECMG TL0130 1500
ZBSJ,2016-08-07 01:00,ZBSJ 070100Z 05004MPS 010V080 CAVOK 28/23 Q1007 NOSIG
ZBSJ,2016-08-07 02:00,ZBSJ 070200Z 06004MPS 360V090 CAVOK 28/24 Q1008 NOSIG
ZBSJ,2016-08-07 03:00,ZBSJ 070300Z 05005MPS 010V080 9999 FEW020 29/24 Q1008 NOSIG
ZBSJ,2016-08-07 04:00,ZBSJ 070400Z 03004MPS 350V070 7000 BKN020 27/24 Q1008 NOSIG
ZBSJ,2016-08-07 05:00,ZBSJ 070500Z 03004MPS 350V080 9999 FEW016 28/23 Q1008 NOSIG
ZBSJ,2016-08-07 06:00,ZBSJ 070600Z 06004MPS 360V100 9999 FEW030 SCT046 29/24 Q1008 NOSIG
ZBSJ,2016-08-07 07:00,ZBSJ 070700Z 06005MPS 030V090 9999 SCT030 29/23 Q1007 NOSIG
ZBSJ,2016-08-07 08:00,ZBSJ 070800Z 06005MPS 9999 SCT030 29/22 Q1007 NOSIG
ZBSJ,2016-08-07 09:00,ZBSJ 070900Z 05003MPS 330V090 9999 FEW030 BKN046 29/23 Q1008 NOSIG
ZBSJ,2016-08-07 10:00,ZBSJ 071000Z 03003MPS 340V060 9999 FEW030 BKN046 28/22 Q1008 NOSIG
ZBSJ,2016-08-07 11:00,ZBSJ 071100Z 06002MPS 020V090 9999 SCT046 27/23 Q1009 NOSIG
ZBSJ,2016-08-07 12:00,ZBSJ 071200Z 04001MPS 9999 SCT046 26/23 Q1009 NOSIG
ZBSJ,2016-08-07 13:00,ZBSJ 071300Z 35001MPS 9999 BKN046 25/23 Q1010 NOSIG
ZBSJ,2016-08-07 14:00,ZBSJ 071400Z 32002MPS CAVOK 26/23 Q1010 NOSIG
ZBSJ,2016-08-07 15:00,ZBSJ 071500Z 33002MPS 8000 NSC 25/23 Q1010 NOSIG
ZBSJ,2016-08-07 16:00,ZBSJ 071600Z 33002MPS 8000 NSC 24/22 Q1010 NOSIG
ZBSJ,2016-08-07 17:00,ZBSJ 071700Z 33002MPS 6000 NSC 24/22 Q1010 NOSIG
ZBSJ,2016-08-07 18:00,ZBSJ 071800Z 33002MPS 6000 NSC 24/23 Q1009 NOSIG
ZBSJ,2016-08-07 19:00,ZBSJ 071900Z 32003MPS 6000 NSC 23/22 Q1009 NOSIG
ZBSJ,2016-08-07 20:00,ZBSJ 072000Z 34002MPS 5000 BR NSC 23/22 Q1009 NOSIG
ZBSJ,2016-08-07 21:00,ZBSJ 072100Z 35002MPS 4000 BR NSC 23/22 Q1009 NOSIG
ZBSJ,2016-08-07 22:00,ZBSJ 072200Z 02001MPS 4500 BR NSC 23/22 Q1010 NOSIG
ZBSJ,2016-08-07 23:00,ZBSJ 072300Z 01002MPS 4000 BR NSC 25/23 Q1010 NOSIG
ZBSJ,2016-08-08 00:00,ZBSJ 080000Z VRB02MPS CAVOK 27/22 Q1010 NOSIG
ZBSJ,2016-08-08 01:00,ZBSJ 080100Z 02003MPS 340V060 CAVOK 28/22 Q1010 NOSIG
ZBSJ,2016-08-08 02:00,ZBSJ 080200Z 05002MPS 360V090 CAVOK 29/22 Q1010 NOSIG
ZBSJ,2016-08-08 03:00,ZBSJ 080300Z 04003MPS 320V070 9999 SCT033 29/21 Q1010 NOSIG
ZBSJ,2016-08-08 04:00,ZBSJ 080400Z 05003MPS 360V080 9999 FEW033 29/21 Q1010 NOSIG
ZBSJ,2016-08-08 05:00,ZBSJ 080500Z 05003MPS 360V090 CAVOK 29/21 Q1009 NOSIG
ZBSJ,2016-08-08 06:00,ZBSJ 080600Z 07003MPS 040V110 CAVOK 29/21 Q1009 NOSIG
ZBSJ,2016-08-08 07:00,ZBSJ 080700Z 07003MPS 030V140 CAVOK 29/22 Q1008 NOSIG
ZBSJ,2016-08-08 08:00,ZBSJ 080800Z 07003MPS CAVOK 29/22 Q1008 NOSIG
ZBSJ,2016-08-08 09:00,ZBSJ 080900Z 10004MPS CAVOK 26/21 Q1008 NOSIG
ZBSJ,2016-08-08 10:00,ZBSJ 081000Z 10003MPS 9999 OVC046 25/21 Q1009 NOSIG
ZBSJ,2016-08-08 11:00,ZBSJ 081100Z 06001MPS 7000 -SHRA OVC046 23/23 Q1009 NOSIG
ZBSJ,2016-08-08 12:00,ZBSJ 081200Z 35003MPS 7000 -SHRA OVC046 23/23 Q1009 NOSIG
ZBSJ,2016-08-08 13:00,ZBSJ 081300Z 35003MPS 8000 BKN046 24/23 Q1009 NOSIG
ZBSJ,2016-08-08 14:00,ZBSJ 081400Z 33003MPS 8000 BKN046 23/23 Q1010 NOSIG
ZBSJ,2016-08-08 15:00,ZBSJ 081500Z 33003MPS 8000 BKN046 23/22 Q1010 NOSIG
ZBSJ,2016-08-08 16:00,ZBSJ 081600Z 32004MPS 9999 BKN046 24/22 Q1009 NOSIG
ZBSJ,2016-08-08 17:00,ZBSJ 081700Z 33003MPS 9999 FEW046 23/23 Q1009 NOSIG
ZBSJ,2016-08-08 18:00,ZBSJ 081800Z 33003MPS 9999 FEW046 23/22 Q1009 NOSIG
ZBSJ,2016-08-08 19:00,ZBSJ 081900Z 33002MPS 9999 FEW046 24/22 Q1009 NOSIG
ZBSJ,2016-08-08 20:00,ZBSJ 082000Z 29001MPS 9999 FEW046 24/22 Q1008 NOSIG
ZBSJ,2016-08-08 21:00,ZBSJ 082100Z 33002MPS 9999 BKN046 24/22 Q1008 NOSIG
ZBSJ,2016-08-08 22:00,ZBSJ 082200Z 34002MPS 6000 BKN046 24/22 Q1009 NOSIG
ZBSJ,2016-08-08 23:00,ZBSJ 082300Z 34002MPS 7000 BKN046 24/22 Q1009 NOSIG
ZBSJ,2016-08-09 00:00,ZBSJ 090000Z 02001MPS 6000 OVC040 25/22 Q1009 NOSIG
ZBSJ,2016-08-09 01:00,ZBSJ 090100Z 07001MPS 6000 BKN040 26/22 Q1009 NOSIG
ZBSJ,2016-08-09 02:00,ZBSJ 090200Z 06003MPS 020V090 8000 BKN033 26/22 Q1010 NOSIG
ZBSJ,2016-08-09 03:00,ZBSJ 090300Z 08002MPS 9999 BKN033 26/23 Q1009 NOSIG
ZBSJ,2016-08-09 04:00,ZBSJ 090400Z 05002MPS 9999 BKN033 28/23 Q1009 NOSIG
ZBSJ,2016-08-09 05:00,ZBSJ 090500Z 02001MPS 9999 SCT033 29/24 Q1008 NOSIG
ZBSJ,2016-08-09 06:00,ZBSJ 090600Z 28001MPS 9999 SCT033 31/24 Q1008 NOSIG
ZBSJ,2016-08-09 07:00,ZBSJ 090700Z 18001MPS 9999 SCT033 30/24 Q1007 NOSIG
ZBSJ,2016-08-09 08:00,ZBSJ 090800Z 15002MPS 9999 SCT033 30/24 Q1007 NOSIG
ZBSJ,2016-08-09 09:00,ZBSJ 090900Z 17002MPS 9999 SCT033 30/24 Q1006 NOSIG
ZBSJ,2016-08-09 10:00,ZBSJ 091000Z 17002MPS 9999 FEW033 30/24 Q1006 NOSIG
ZBSJ,2016-08-09 11:00,ZBSJ 091100Z 14001MPS 8000 FEW033 29/24 Q1007 NOSIG
ZBSJ,2016-08-09 12:00,ZBSJ 091200Z 15002MPS 8000 FEW033 27/24 Q1007 NOSIG
ZBSJ,2016-08-09 13:00,ZBSJ 091300Z 14001MPS 6000 FEW033 26/24 Q1008 NOSIG
ZBSJ,2016-08-09 14:00,ZBSJ 091400Z 15002MPS 5000 BR NSC 25/24 Q1008 NOSIG
ZBSJ,2016-08-09 15:00,ZBSJ 091500Z 14001MPS 4000 BR NSC 25/24 Q1008 NOSIG
ZBSJ,2016-08-09 16:00,ZBSJ 091600Z 14001MPS 3500 BR NSC 24/24 Q1008 NOSIG
ZBSJ,2016-08-09 17:00,ZBSJ 091700Z 16001MPS 3000 BR NSC 24/24 Q1008 NOSIG
ZBSJ,2016-08-09 18:00,ZBSJ 091800Z 12001MPS 2500 BR NSC 24/23 Q1008 NOSIG
ZBSJ,2016-08-09 19:00,ZBSJ 091900Z 14001MPS 2500 BR NSC 24/24 Q1007 NOSIG
ZBSJ,2016-08-09 20:00,ZBSJ 092000Z 17002MPS 2200 BR NSC 24/24 Q1007 NOSIG
ZBSJ,2016-08-09 21:00,ZBSJ 092100Z 17001MPS 2000 BR NSC 23/23 Q1007 NOSIG
ZBSJ,2016-08-09 22:00,ZBSJ 092200Z 15001MPS 1500 R15/1200D BR NSC 23/23 Q1008 NOSIG
ZBSJ,2016-08-09 23:00,ZBSJ 092300Z 15002MPS 1400 R15/1100U BR NSC 25/25 Q1008 BECMG TL0030 1600
ZBSJ,2016-08-10 00:00,ZBSJ 100000Z 17002MPS 1600 BR NSC 27/26 Q1008 NOSIG
ZBSJ,2016-08-10 01:00,ZBSJ 100100Z 19002MPS 150V230 2000 BR NSC 29/25 Q1008 BECMG TL0230 3000
ZBSJ,2016-08-10 02:00,ZBSJ 100200Z 19003MPS 150V210 3500 HZ FEW033 30/25 Q1008 NOSIG
ZBSJ,2016-08-10 03:00,ZBSJ 100300Z 19004MPS 150V250 3000 HZ FEW033 31/25 Q1008 NOSIG
ZBSJ,2016-08-10 04:00,ZBSJ 100400Z 19004MPS 160V230 3000 HZ FEW033 32/25 Q1007 NOSIG
ZBSJ,2016-08-10 05:00,ZBSJ 100500Z 18003MPS 140V230 3000 HZ NSC 33/25 Q1007 NOSIG
ZBSJ,2016-08-10 06:00,ZBSJ 100600Z 17004MPS 140V210 5000 HZ NSC 34/26 Q1006 NOSIG
ZBSJ,2016-08-10 07:00,ZBSJ 100700Z 17005MPS 7000 NSC 34/26 Q1006 NOSIG
ZBSJ,2016-08-10 08:00,ZBSJ 100800Z 18005MPS 7000 NSC 34/26 Q1005 NOSIG
ZBSJ,2016-08-10 09:00,ZBSJ 100900Z 18004MPS 7000 NSC 33/26 Q1005 NOSIG
ZBSJ,2016-08-10 10:00,ZBSJ 101000Z 17005MPS 7000 NSC 32/25 Q1005 NOSIG
ZBSJ,2016-08-10 11:00,ZBSJ 101100Z 17003MPS 7000 NSC 30/25 Q1005 NOSIG
ZBSJ,2016-08-10 12:00,ZBSJ 101200Z 16003MPS 7000 NSC 28/25 Q1006 NOSIG
ZBSJ,2016-08-10 13:00,ZBSJ 101300Z 14002MPS 6000 NSC 28/26 Q1007 NOSIG
ZBSJ,2016-08-10 14:00,ZBSJ 101400Z 14001MPS 6000 NSC 28/26 Q1007 NOSIG
ZBSJ,2016-08-10 15:00,ZBSJ 101500Z 14002MPS 5000 BR NSC 27/25 Q1007 NOSIG
ZBSJ,2016-08-10 16:00,ZBSJ 101600Z 16003MPS 5000 BR NSC 27/25 Q1007 NOSIG
ZBSJ,2016-08-10 17:00,ZBSJ 101700Z 16002MPS 4500 BR NSC 26/26 Q1007 NOSIG
ZBSJ,2016-08-10 18:00,ZBSJ 101800Z 17002MPS 4000 BR NSC 26/25 Q1006 NOSIG
ZBSJ,2016-08-10 19:00,ZBSJ 101900Z 17003MPS 4000 BR NSC 26/25 Q1006 NOSIG
ZBSJ,2016-08-10 20:00,ZBSJ 102000Z 21002MPS 4000 BR NSC 26/25 Q1006 NOSIG
ZBSJ,2016-08-10 21:00,ZBSJ 102100Z 20001MPS 4000 BR NSC 26/25 Q1006 NOSIG
ZBSJ,2016-08-10 22:00,ZBSJ 102200Z 19001MPS 1800 BR NSC 25/25 Q1007 NOSIG
ZBSJ,2016-08-10 23:00,ZBSJ 102300Z 18001MPS 1800 BR NSC 27/26 Q1007 NOSIG
ZBSJ,2016-08-11 00:00,ZBSJ 110000Z 33002MPS 1800 BR NSC 29/26 Q1007 BECMG TL0130 3000
ZBSJ,2016-08-11 01:00,ZBSJ 110100Z 08001MPS 2000 BR NSC 29/27 Q1007 BECMG TL0230 3000
ZBSJ,2016-08-11 02:00,ZBSJ 110200Z 09001MPS 2300 BR NSC 31/27 Q1007 BECMG TL0330 3000
ZBSJ,2016-08-11 03:00,ZBSJ 110300Z 15001MPS 3000 HZ NSC 33/27 Q1007 NOSIG
ZBSJ,2016-08-11 04:00,ZBSJ 110400Z 19002MPS 130V250 3000 HZ NSC 33/26 Q1007 NOSIG
ZBSJ,2016-08-11 05:00,ZBSJ 110500Z 19003MPS 150V220 3000 HZ NSC 35/27 Q1006 NOSIG
ZBSJ,2016-08-11 06:00,ZBSJ 110600Z 14003MPS 120V180 6000 NSC 35/27 Q1005 NOSIG
ZBSJ,2016-08-11 07:00,ZBSJ 110700Z 17004MPS 140V200 5000 HZ NSC 35/27 Q1005 NOSIG
ZBSJ,2016-08-11 08:00,ZBSJ 110800Z 16005MPS 6000 NSC 35/27 Q1005 NOSIG
ZBSJ,2016-08-11 09:00,ZBSJ 110900Z 16005MPS 8000 NSC 33/26 Q1005 NOSIG
ZBSJ,2016-08-11 10:00,ZBSJ 111000Z 16004MPS CAVOK 33/26 Q1005 NOSIG
ZBSJ,2016-08-11 11:00,ZBSJ 111100Z 15003MPS 8000 NSC 31/27 Q1005 NOSIG
ZBSJ,2016-08-11 12:00,ZBSJ 111200Z 14002MPS 7000 NSC 30/27 Q1005 NOSIG
ZBSJ,2016-08-11 13:00,ZBSJ 111300Z 11002MPS 6000 NSC 30/27 Q1006 NOSIG
ZBSJ,2016-08-11 14:00,ZBSJ 111400Z 13002MPS 5000 BR NSC 30/27 Q1006 NOSIG
ZBSJ,2016-08-11 15:00,ZBSJ 111500Z 12002MPS 5000 BR NSC 30/27 Q1006 NOSIG
ZBSJ,2016-08-11 16:00,ZBSJ 111600Z 14002MPS 5000 BR NSC 29/27 Q1006 NOSIG
ZBSJ,2016-08-11 17:00,ZBSJ 111700Z 09002MPS 4000 BR NSC 28/27 Q1006 NOSIG
ZBSJ,2016-08-11 18:00,ZBSJ 111800Z 13002MPS 4000 BR NSC 28/27 Q1005 NOSIG
ZBSJ,2016-08-11 19:00,ZBSJ 111900Z 14001MPS 3500 BR NSC 28/27 Q1005 NOSIG
ZBSJ,2016-08-11 20:00,ZBSJ 112000Z 12001MPS 3000 BR NSC 27/27 Q1005 NOSIG
ZBSJ,2016-08-11 21:00,ZBSJ 112100Z 17002MPS 2500 BR NSC 27/27 Q1005 NOSIG
ZBSJ,2016-08-11 22:00,ZBSJ 112200Z 18001MPS 1500 BR NSC 27/27 Q1005 NOSIG
ZBSJ,2016-08-11 23:00,ZBSJ 112300Z 20001MPS 2000 BR NSC 28/28 Q1005 BECMG TL0030 3000
ZBSJ,2016-08-12 00:00,ZBSJ 120000Z 24002MPS 2500 BR NSC 30/28 Q1005 BECMG TL0130 3000
ZBSJ,2016-08-12 01:00,ZBSJ 120100Z 31002MPS 2200 BR NSC 31/28 Q1005 BECMG TL0230 3000
ZBSJ,2016-08-12 02:00,ZBSJ 120200Z 31001MPS 2300 BR NSC 32/28 Q1005 BECMG TL0330 3000
ZBSJ,2016-08-12 03:00,ZBSJ 120300Z 01001MPS 2500 BR NSC 33/28 Q1005 NOSIG
ZBSJ,2016-08-12 04:00,ZBSJ 120400Z 16002MPS 2800 HZ NSC 33/27 Q1004 BECMG TL0530 3000
ZBSJ,2016-08-12 05:00,ZBSJ 120500Z 14002MPS 3000 HZ NSC 35/27 Q1004 NOSIG
ZBSJ,2016-08-12 06:00,ZBSJ 120600Z 15003MPS 2500 HZ NSC 35/29 Q1003 NOSIG
ZBSJ,2016-08-12 07:00,ZBSJ 120700Z 15003MPS 110V180 2500 HZ NSC 35/28 Q1002 NOSIG
ZBSJ,2016-08-12 08:00,ZBSJ 120800Z 13002MPS 3500 HZ NSC 34/27 Q1002 BECMG AT0830 2000 -TSRA
ZBSJ,2016-08-12 09:00,ZBSJ 120900Z 18002MPS 3500 HZ NSC 33/27 Q1002 NOSIG
ZBSJ,2016-08-12 10:00,ZBSJ 121000Z 36004MPS 320V020 3000 BR NSC 30/26 Q1003 NOSIG
ZBSJ,2016-08-12 11:00,ZBSJ 121100Z 04004G09MPS 350V070 6000 FEW033 OVC046 28/25 Q1004 NOSIG
ZBSJ,2016-08-12 12:00,ZBSJ 121200Z 06004MPS 030V100 8000 -TSRA FEW030CB BKN046 26/25 Q1005 BECMG AT1300 NSW
ZBSJ,2016-08-12 13:00,ZBSJ 121300Z 08003MPS 8000 TSRA FEW020CB BKN040 26/25 Q1006 BECMG AT1410 NSW
ZBSJ,2016-08-12 14:00,ZBSJ 121400Z 06004MPS 360V090 7000 -TSRA FEW016TCU BKN040 25/25 Q1006 RESHRA BECMG AT1430 NSW
ZBSJ,2016-08-12 15:00,ZBSJ 121500Z 02002MPS 330V080 5000 BR OVC046 25/25 Q1006 RETS NOSIG
ZBSJ,2016-08-12 16:00,ZBSJ 121600Z 35002MPS 5000 -RA BR OVC040 25/25 Q1006 NOSIG
ZBSJ,2016-08-12 17:00,ZBSJ 121700Z 33003MPS 5000 BR OVC040 25/25 Q1006 NOSIG
ZBSJ,2016-08-12 18:00,ZBSJ 121800Z 30001MPS 6000 OVC040 25/25 Q1006 NOSIG
ZBSJ,2016-08-12 19:00,ZBSJ 121900Z 23001MPS 6000 OVC040 25/25 Q1006 NOSIG
ZBSJ,2016-08-12 20:00,ZBSJ 122000Z 31003MPS 6000 SCT040 25/24 Q1005 NOSIG
ZBSJ,2016-08-12 21:00,ZBSJ 122100Z 36001MPS 6000 NSC 25/24 Q1005 NOSIG
ZBSJ,2016-08-12 22:00,ZBSJ 122200Z 23001MPS 3300 BR NSC 25/24 Q1006 NOSIG
ZBSJ,2016-08-12 23:00,ZBSJ 122300Z 00000MPS 4000 BR NSC 26/25 Q1006 NOSIG
ZBSJ,2016-08-13 00:00,ZBSJ 130000Z 08001MPS 6000 NSC 27/25 Q1006 NOSIG
ZBSJ,2016-08-13 01:00,ZBSJ 130100Z 10001MPS 6000 NSC 28/25 Q1006 NOSIG
ZBSJ,2016-08-13 02:00,ZBSJ 130200Z 00000MPS 6000 NSC 30/25 Q1007 NOSIG
ZBSJ,2016-08-13 03:00,ZBSJ 130300Z 02002MPS 6000 NSC 29/25 Q1006 NOSIG
ZBSJ,2016-08-13 04:00,ZBSJ 130400Z 01002MPS 330V050 6000 NSC 30/26 Q1006 NOSIG
ZBSJ,2016-08-13 05:00,ZBSJ 130500Z 04003MPS 340V100 6000 NSC 30/26 Q1006 NOSIG
ZBSJ,2016-08-13 06:00,ZBSJ 130600Z 05003MPS 360V080 9999 FEW033 BKN046 30/25 Q1005 NOSIG
ZBSJ,2016-08-13 07:00,ZBSJ 130700Z 04003MPS 350V080 9999 SCT033 BKN046 30/25 Q1005 NOSIG
ZBSJ,2016-08-13 08:00,ZBSJ 130800Z 03001MPS 9999 OVC040 29/25 Q1005 NOSIG
ZBSJ,2016-08-13 09:00,ZBSJ 130900Z 01002MPS 340V060 9999 SCT033 OVC046 29/24 Q1005 NOSIG
ZBSJ,2016-08-13 10:00,ZBSJ 131000Z 35002MPS 9999 SCT033 OVC046 28/25 Q1006 NOSIG
ZBSJ,2016-08-13 11:00,ZBSJ 131100Z 34002MPS 9999 FEW030 SCT033 OVC046 28/24 Q1006 NOSIG
ZBSJ,2016-08-13 12:00,ZBSJ 131200Z 33003MPS 9999 FEW030 SCT033 OVC046 27/23 Q1006 NOSIG
ZBSJ,2016-08-13 13:00,ZBSJ 131300Z 28003MPS 9999 FEW033CB BKN046 27/21 Q1007 BECMG AT1330 -TSRA
ZBSJ,2016-08-13 14:00,ZBSJ 131400Z 18001MPS 9999 OVC046 25/22 Q1007 NOSIG
ZBSJ,2016-08-13 15:00,ZBSJ 131500Z 24003MPS 9999 -SHRA NSC 24/23 Q1007 NOSIG
ZBSJ,2016-08-13 16:00,ZBSJ 131600Z 29002MPS 9999 OVC040 25/23 Q1007 NOSIG
ZBSJ,2016-08-13 17:00,ZBSJ 131700Z 26001MPS 9999 OVC040 24/23 Q1006 NOSIG
ZBSJ,2016-08-13 18:00,ZBSJ 131800Z 32001MPS 9999 BKN040 25/23 Q1006 NOSIG
ZBSJ,2016-08-13 19:00,ZBSJ 131900Z 31002MPS 9999 BKN040 24/22 Q1005 NOSIG
ZBSJ,2016-08-13 20:00,ZBSJ 132000Z 28002MPS 9999 BKN040 25/23 Q1006 NOSIG
ZBSJ,2016-08-13 21:00,ZBSJ 132100Z 32002MPS 9999 FEW033CB BKN040 24/23 Q1006 NOSIG
ZBSJ,2016-08-13 22:00,ZBSJ 132200Z 32005MPS 3500 SHRA BR FEW033CB BKN040 23/22 Q1007 NOSIG
ZBSJ,2016-08-13 23:00,ZBSJ 132300Z 02003MPS 350V050 5000 -RA BR SCT020 21/21 Q1007 RETSRA NOSIG
ZBSJ,2016-08-14 00:00,ZBSJ 140000Z 02002MPS 9999 BKN040 22/22 Q1007 NOSIG
ZBSJ,2016-08-14 01:00,ZBSJ 140100Z 35002MPS 9999 BKN040 24/22 Q1008 NOSIG
ZBSJ,2016-08-14 02:00,ZBSJ 140200Z 36002MPS 9999 OVC033 24/23 Q1008 NOSIG
ZBSJ,2016-08-14 03:00,ZBSJ 140300Z 29002MPS 9999 BKN033 FEW033CB 24/23 Q1008 NOSIG
ZBSJ,2016-08-14 04:00,ZBSJ 140400Z 25002MPS 5000 -RA BR SCT030 BKN040 24/23 Q1008 RERA NOSIG
ZBSJ,2016-08-14 05:00,ZBSJ 140500Z 28002MPS 9999 OVC040 25/22 Q1008 NOSIG
ZBSJ,2016-08-14 06:00,ZBSJ 140600Z 34001MPS 9999 -RA OVC040 25/23 Q1008 NOSIG
ZBSJ,2016-08-14 07:00,ZBSJ 140700Z 30003MPS 9999 -RA SCT030 OVC040 25/23 Q1007 NOSIG
ZBSJ,2016-08-14 08:00,ZBSJ 140800Z 33003MPS 9999 SCT030 OVC040 24/22 Q1007 NOSIG
ZBSJ,2016-08-14 09:00,ZBSJ 140900Z 32002MPS 9999 OVC033 24/22 Q1006 NOSIG
ZBSJ,2016-08-14 10:00,ZBSJ 141000Z 34003MPS 9999 OVC033 24/22 Q1007 NOSIG
ZBSJ,2016-08-14 11:00,ZBSJ 141100Z 29002MPS 9999 BKN030 23/22 Q1006 NOSIG
ZBSJ,2016-08-14 12:00,ZBSJ 141200Z 31003MPS 9999 BKN030 23/22 Q1007 NOSIG
ZBSJ,2016-08-14 13:00,ZBSJ 141300Z 30002MPS 9999 OVC046 23/21 Q1007 NOSIG
ZBSJ,2016-08-14 14:00,ZBSJ 141400Z 30002MPS 9999 OVC046 24/21 Q1007 NOSIG
ZBSJ,2016-08-14 15:00,ZBSJ 141500Z 25001MPS 9999 OVC046 23/21 Q1007 NOSIG
ZBSJ,2016-08-14 16:00,ZBSJ 141600Z 27002MPS 9999 OVC046 24/21 Q1007 NOSIG
ZBSJ,2016-08-14 17:00,ZBSJ 141700Z 36004MPS 9999 -RA FEW033CB BKN040 22/21 Q1007 RERA NOSIG
ZBSJ,2016-08-14 18:00,ZBSJ 141800Z 36003MPS 9999 -RA OVC040 20/19 Q1007 NOSIG
ZBSJ,2016-08-14 19:00,ZBSJ 141900Z 35004MPS 9999 -SHRA FEW030CB OVC033 20/19 Q1007 NOSIG
ZBSJ,2016-08-14 20:00,ZBSJ 142000Z 35002MPS 5000 SHRA BR FEW030CB BKN033 19/19 Q1007 NOSIG
ZBSJ,2016-08-14 21:00,ZBSJ 142100Z 33003MPS 7000 -RA OVC033 20/20 Q1007 RESHRA NOSIG
ZBSJ,2016-08-14 22:00,ZBSJ 142200Z 36002MPS 8000 -RA SCT010 OVC033 19/19 Q1008 NOSIG
ZBSJ,2016-08-14 23:00,ZBSJ 142300Z 34002MPS 2500 -RA BR SCT006 OVC033 20/20 Q1009 RESHRA NOSIG
ZBSJ,2016-08-15 00:00,ZBSJ 150000Z 36003MPS 340V040 2700 -RA BR SCT006 OVC033 20/20 Q1010 RERA NOSIG
ZBSJ,2016-08-15 01:00,ZBSJ 150100Z 02002MPS 350V070 4000 -RA BR BKN006 OVC033 20/20 Q1010 NOSIG
ZBSJ,2016-08-15 02:00,ZBSJ 150200Z 05003MPS 010V080 8000 BKN006 OVC033 20/20 Q1011 NOSIG
ZBSJ,2016-08-15 03:00,ZBSJ 150300Z 01003MPS 340V050 3500 -RA BR BKN010 OVC033 20/20 Q1011 NOSIG
ZBSJ,2016-08-15 04:00,ZBSJ 150400Z 35003MPS 9999 SCT016 OVC046 22/21 Q1010 NOSIG
ZBSJ,2016-08-15 05:00,ZBSJ 150500Z 01002MPS 340V040 9999 SCT010 OVC046 22/20 Q1009 NOSIG
ZBSJ,2016-08-15 06:00,ZBSJ 150600Z 05002MPS 9999 OVC030 22/20 Q1009 NOSIG
ZBSJ,2016-08-15 07:00,ZBSJ 150700Z 05001MPS 9999 OVC030 22/20 Q1009 NOSIG
ZBSJ,2016-08-15 08:00,ZBSJ 150800Z 09002MPS 9999 -RA OVC030 22/20 Q1008 NOSIG
ZBSJ,2016-08-15 09:00,ZBSJ 150900Z 26002MPS 9999 -RA OVC040 22/20 Q1008 NOSIG
ZBSJ,2016-08-15 10:00,ZBSJ 151000Z 28002MPS 8000 -RA OVC030 22/20 Q1008 NOSIG
ZBSJ,2016-08-15 11:00,ZBSJ 151100Z 30002MPS 260V330 5000 BR SCT033 OVC046 22/21 Q1008 NOSIG
ZBSJ,2016-08-15 12:00,ZBSJ 151200Z 32001MPS 7000 SCT033 BKN046 21/21 Q1008 NOSIG
ZBSJ,2016-08-15 13:00,ZBSJ 151300Z 28002MPS 6000 OVC046 21/21 Q1009 NOSIG
ZBSJ,2016-08-15 14:00,ZBSJ 151400Z 29003MPS 6000 NSC 21/20 Q1008 NOSIG
ZBSJ,2016-08-15 15:00,ZBSJ 151500Z 32003MPS 7000 NSC 21/20 Q1008 NOSIG
ZBSJ,2016-08-15 16:00,ZBSJ 151600Z 29002MPS 7000 NSC 21/20 Q1008 NOSIG
ZBSJ,2016-08-15 17:00,ZBSJ 151700Z 19001MPS 6000 NSC 21/20 Q1008 NOSIG
ZBSJ,2016-08-15 18:00,ZBSJ 151800Z 25001MPS 5000 BR SCT033 21/20 Q1007 NOSIG
ZBSJ,2016-08-15 19:00,ZBSJ 151900Z 25001MPS 6000 SCT033 21/21 Q1007 NOSIG
ZBSJ,2016-08-15 20:00,ZBSJ 152000Z 28001MPS 8000 SCT033 21/21 Q1007 NOSIG
ZBSJ,2016-08-15 21:00,ZBSJ 152100Z 28002MPS 8000 SCT033 21/21 Q1007 NOSIG
ZBSJ,2016-08-15 22:00,ZBSJ 152200Z 28002MPS 8000 OVC030 22/21 Q1007 NOSIG
ZBSJ,2016-08-15 23:00,ZBSJ 152300Z 28002MPS 250V310 7000 OVC040 22/21 Q1007 NOSIG
ZBSJ,2016-08-16 00:00,ZBSJ 160000Z 29002MPS 9999 OVC033 22/20 Q1007 NOSIG
ZBSJ,2016-08-16 01:00,ZBSJ 160100Z 30001MPS 8000 OVC033 22/21 Q1008 NOSIG
ZBSJ,2016-08-16 02:00,ZBSJ 160200Z 30002MPS 8000 OVC033 23/21 Q1008 NOSIG
ZBSJ,2016-08-16 03:00,ZBSJ 160300Z 25002MPS 9999 OVC033 23/21 Q1007 NOSIG
ZBSJ,2016-08-16 04:00,ZBSJ 160400Z 25001MPS 9999 BKN046 25/20 Q1007 NOSIG
ZBSJ,2016-08-16 05:00,ZBSJ 160500Z 27001MPS 9999 BKN046 25/20 Q1006 NOSIG
ZBSJ,2016-08-16 06:00,ZBSJ 160600Z 35001MPS 9999 BKN040 24/20 Q1006 NOSIG
ZBSJ,2016-08-16 07:00,ZBSJ 160700Z 33001MPS 9999 OVC040 25/21 Q1006 NOSIG
ZBSJ,2016-08-16 08:00,ZBSJ 160800Z 28001MPS CAVOK 26/21 Q1005 NOSIG
ZBSJ,2016-08-16 09:00,ZBSJ 160900Z 27002MPS 240V300 9999 OVC046 25/21 Q1005 NOSIG
ZBSJ,2016-08-16 10:00,ZBSJ 161000Z 27002MPS 240V310 CAVOK 25/21 Q1005 NOSIG
ZBSJ,2016-08-16 11:00,ZBSJ 161100Z 28002MPS CAVOK 24/21 Q1005 NOSIG
ZBSJ,2016-08-16 12:00,ZBSJ 161200Z 30002MPS 8000 NSC 24/21 Q1005 NOSIG
ZBSJ,2016-08-16 13:00,ZBSJ 161300Z 29002MPS 8000 NSC 24/21 Q1005 NOSIG
ZBSJ,2016-08-16 14:00,ZBSJ 161400Z 28002MPS 8000 NSC 24/21 Q1005 NOSIG
ZBSJ,2016-08-16 15:00,ZBSJ 161500Z 31002MPS 8000 NSC 24/21 Q1005 NOSIG
ZBSJ,2016-08-16 16:00,ZBSJ 161600Z 30002MPS 8000 NSC 24/22 Q1005 NOSIG
ZBSJ,2016-08-16 17:00,ZBSJ 161700Z 23001MPS 8000 NSC 23/22 Q1004 NOSIG
ZBSJ,2016-08-16 18:00,ZBSJ 161800Z 22001MPS 6000 NSC 23/22 Q1004 NOSIG
ZBSJ,2016-08-16 19:00,ZBSJ 161900Z 22001MPS 5000 BR NSC 23/22 Q1004 NOSIG
ZBSJ,2016-08-16 20:00,ZBSJ 162000Z 24001MPS 5000 BR NSC 23/22 Q1004 NOSIG
ZBSJ,2016-08-16 21:00,ZBSJ 162100Z 21001MPS 5000 BR NSC 23/22 Q1004 NOSIG
ZBSJ,2016-08-16 22:00,ZBSJ 162200Z 16001MPS 3200 BR OVC046 23/22 Q1004 NOSIG
ZBSJ,2016-08-16 23:00,ZBSJ 162300Z 31001MPS 3200 BR OVC046 23/22 Q1004 NOSIG
ZBSJ,2016-08-17 00:00,ZBSJ 170000Z 16001MPS 3000 BR OVC046 24/23 Q1004 BECMG TL0100 2000 BR
ZBSJ,2016-08-17 01:00,ZBSJ 170100Z 35001MPS 2800 -RA BR OVC033 24/22 Q1005 BECMG TL0230 3000
ZBSJ,2016-08-17 02:00,ZBSJ 170200Z 34002MPS 310V020 3000 BR OVC033 24/22 Q1005 BECMG TL0330 2800 BR
ZBSJ,2016-08-17 03:00,ZBSJ 170300Z 35002MPS 2800 BR OVC033 24/22 Q1005 BECMG TL0430 3000
ZBSJ,2016-08-17 04:00,ZBSJ 170400Z 36003MPS 320V020 5000 BR OVC033 25/22 Q1004 NOSIG
ZBSJ,2016-08-17 05:00,ZBSJ 170500Z 02003MPS 340V080 4000 BR SCT026 BKN046 26/23 Q1004 NOSIG
ZBSJ,2016-08-17 06:00,ZBSJ 170600Z 04002MPS 4000 BR SCT026 BKN046 26/22 Q1003 NOSIG
ZBSJ,2016-08-17 07:00,ZBSJ 170700Z 02002MPS 4000 BR SCT026 BKN046 26/23 Q1003 NOSIG
ZBSJ,2016-08-17 08:00,ZBSJ 170800Z 01001MPS 4500 BR OVC040 25/23 Q1003 NOSIG
ZBSJ,2016-08-17 09:00,ZBSJ 170900Z 03001MPS 5000 BR OVC040 25/23 Q1003 NOSIG
ZBSJ,2016-08-17 10:00,ZBSJ 171000Z 01001MPS 6000 OVC040 25/22 Q1003 NOSIG
ZBSJ,2016-08-17 11:00,ZBSJ 171100Z 36001MPS 4200 BR OVC040 25/23 Q1003 NOSIG
ZBSJ,2016-08-17 12:00,ZBSJ 171200Z 35001MPS 4500 BR OVC040 24/23 Q1004 NOSIG
ZBSJ,2016-08-17 13:00,ZBSJ 171300Z 35001MPS 4000 BR OVC040 24/23 Q1004 NOSIG
ZBSJ,2016-08-17 14:00,ZBSJ 171400Z 01001MPS 4000 BR OVC040 24/23 Q1004 NOSIG
ZBSJ,2016-08-17 15:00,ZBSJ 171500Z 36001MPS 4000 BR OVC040 24/23 Q1004 NOSIG
ZBSJ,2016-08-17 16:00,ZBSJ 171600Z 36001MPS 4000 BR OVC040 24/23 Q1003 NOSIG
ZBSJ,2016-08-17 17:00,ZBSJ 171700Z 36001MPS 3000 BR OVC040 24/23 Q1003 NOSIG
ZBSJ,2016-08-17 18:00,ZBSJ 171800Z 33002MPS 2700 BR OVC040 24/23 Q1002 NOSIG
ZBSJ,2016-08-17 19:00,ZBSJ 171900Z 34002MPS 1800 -RA BR OVC040 23/23 Q1002 NOSIG
ZBSJ,2016-08-17 20:00,ZBSJ 172000Z 33002MPS 1400 R33/2000D -RA BR OVC033 23/23 Q1002 NOSIG
ZBSJ,2016-08-17 21:00,ZBSJ 172100Z 34002MPS 1300 R33/1500N -RA BR OVC033 23/23 Q1002 NOSIG
ZBSJ,2016-08-17 22:00,ZBSJ 172200Z 32002MPS 1200 R33/1400U BR OVC033 23/23 Q1002 NOSIG
ZBSJ,2016-08-17 23:00,ZBSJ 172300Z 33001MPS 0700 R33/0800N FG OVC033 23/23 Q1002 BECMG TL0030 0900
ZBSJ,2016-08-18 00:00,ZBSJ 180000Z 00000MPS 1000 R33/1100N -RA BR OVC033 23/23 Q1001 BECMG TL0130 1500
ZBSJ,2016-08-18 01:00,ZBSJ 180100Z 07001MPS 1000 R33/1100N -RA BR OVC033 23/23 Q1001 NOSIG
ZBSJ,2016-08-18 02:00,ZBSJ 180200Z 00000MPS 1200 R33/1100U BR SCT020 OVC033 24/24 Q1001 BECMG TL0330 1500
ZBSJ,2016-08-18 03:00,ZBSJ 180300Z 03001MPS 1400 R33/1400N BR SCT020 OVC033 24/23 Q1001 BECMG TL0330 1500
ZBSJ,2016-08-18 04:00,ZBSJ 180400Z 04001MPS 1500 R33/1400U BR SCT020 OVC033 24/24 Q1001 BECMG TL0530 1400 BR
ZBSJ,2016-08-18 05:00,ZBSJ 180500Z 10001MPS 1300 R15/1200N BR SCT020 OVC033 25/24 Q1000 NOSIG
ZBSJ,2016-08-18 06:00,ZBSJ 180600Z 11001MPS 1600 BR SCT020 OVC033 25/24 Q1000 NOSIG
ZBSJ,2016-08-18 07:00,ZBSJ 180700Z 09001MPS 1800 BR SCT020 OVC033 26/24 Q1000 NOSIG
ZBSJ,2016-08-18 08:00,ZBSJ 180800Z 06001MPS 1800 -RA BR SCT020 OVC033 26/24 Q1000 NOSIG
ZBSJ,2016-08-18 09:00,ZBSJ 180900Z 02002MPS 330V060 1200 R33/1300N -RA BR SCT020 OVC033 24/24 Q1000 BECMG TL1030 1600
ZBSJ,2016-08-18 10:00,ZBSJ 181000Z 03001MPS 1400 R15/1500N BR SCT020 OVC033 24/24 Q1000 BECMG TL1130 1600
ZBSJ,2016-08-18 11:00,ZBSJ 181100Z 00000MPS 1300 R15/1900U -RA BR SCT020 OVC033 24/24 Q1000 BECMG TL1230 1600
ZBSJ,2016-08-18 12:00,ZBSJ 181200Z 36001MPS 1500 BR SCT020 OVC033 24/24 Q1001 BECMG TL1330 1400 BR
ZBSJ,2016-08-18 13:00,ZBSJ 181300Z 35001MPS 1400 R15/P2000U BR SCT020 OVC033 24/24 Q1001 BECMG TL1430 1500
ZBSJ,2016-08-18 14:00,ZBSJ 181400Z 02001MPS 1700 BR SCT026 OVC040 24/24 Q1001 NOSIG
ZBSJ,2016-08-18 15:00,ZBSJ 181500Z 33002MPS 1800 BR SCT026 OVC040 24/24 Q1002 NOSIG
ZBSJ,2016-08-18 16:00,ZBSJ 181600Z 35001MPS 1800 BR SCT026 OVC040 24/24 Q1002 NOSIG
ZBSJ,2016-08-18 17:00,ZBSJ 181700Z 02002MPS 2500 BR SCT026 OVC040 24/24 Q1002 NOSIG
ZBSJ,2016-08-18 18:00,ZBSJ 181800Z 01001MPS 3500 BR SCT040 24/23 Q1002 NOSIG
ZBSJ,2016-08-18 19:00,ZBSJ 181900Z 33002MPS 3500 BR OVC046 24/23 Q1002 NOSIG
ZBSJ,2016-08-18 20:00,ZBSJ 182000Z 31001MPS 3500 BR OVC046 24/23 Q1003 NOSIG
ZBSJ,2016-08-18 21:00,ZBSJ 182100Z 32002MPS 2500 BR OVC046 24/23 Q1003 NOSIG
ZBSJ,2016-08-18 22:00,ZBSJ 182200Z 32002MPS 1500 BR BKN046 24/24 Q1004 NOSIG
ZBSJ,2016-08-18 23:00,ZBSJ 182300Z 33002MPS 2200 BR BKN046 25/24 Q1005 BECMG TL0030 3000
ZBSJ,2016-08-19 00:00,ZBSJ 190000Z 33002MPS 2800 BR BKN046 26/24 Q1005 BECMG TL0130 3000
ZBSJ,2016-08-19 01:00,ZBSJ 190100Z 01002MPS CAVOK 28/24 Q1006 NOSIG
ZBSJ,2016-08-19 02:00,ZBSJ 190200Z 04003MPS 360V090 CAVOK 29/23 Q1006 NOSIG
ZBSJ,2016-08-19 03:00,ZBSJ 190300Z 04003MPS 340V080 CAVOK 29/22 Q1006 NOSIG
ZBSJ,2016-08-19 04:00,ZBSJ 190400Z 05002MPS 350V100 9999 SCT033 30/24 Q1006 NOSIG
ZBSJ,2016-08-19 05:00,ZBSJ 190500Z 06003MPS 350V110 9999 SCT033 31/23 Q1006 NOSIG
ZBSJ,2016-08-19 06:00,ZBSJ 190600Z 08003MPS 010V110 9999 SCT033 31/22 Q1006 NOSIG
ZBSJ,2016-08-19 07:00,ZBSJ 190700Z 07003MPS 9999 SCT033 31/23 Q1006 NOSIG
ZBSJ,2016-08-19 08:00,ZBSJ 190800Z 10003MPS 060V130 9999 SCT033 30/23 Q1006 NOSIG
ZBSJ,2016-08-19 09:00,ZBSJ 190900Z 09003MPS 9999 SCT033 29/23 Q1006 NOSIG
ZBSJ,2016-08-19 10:00,ZBSJ 191000Z 11002MPS 080V160 CAVOK 28/22 Q1006 NOSIG
ZBSJ,2016-08-19 11:00,ZBSJ 191100Z 11001MPS CAVOK 26/23 Q1007 NOSIG
ZBSJ,2016-08-19 12:00,ZBSJ 191200Z 11002MPS CAVOK 25/23 Q1008 NOSIG
ZBSJ,2016-08-19 13:00,ZBSJ 191300Z 13002MPS CAVOK 24/22 Q1009 NOSIG
ZBSJ,2016-08-19 14:00,ZBSJ 191400Z 13001MPS 8000 NSC 23/22 Q1009 NOSIG
ZBSJ,2016-08-19 15:00,ZBSJ 191500Z 10001MPS 6000 NSC 24/23 Q1010 NOSIG
ZBSJ,2016-08-19 16:00,ZBSJ 191600Z 10002MPS CAVOK 23/22 Q1010 NOSIG
ZBSJ,2016-08-19 17:00,ZBSJ 191700Z 25001MPS CAVOK 23/22 Q1010 NOSIG
ZBSJ,2016-08-19 18:00,ZBSJ 191800Z 33002MPS CAVOK 23/21 Q1010 NOSIG
ZBSJ,2016-08-19 19:00,ZBSJ 191900Z 35001MPS CAVOK 22/21 Q1010 NOSIG
ZBSJ,2016-08-19 20:00,ZBSJ 192000Z 00000MPS 6000 NSC 22/21 Q1009 NOSIG
ZBSJ,2016-08-19 21:00,ZBSJ 192100Z 05001MPS 5000 BR NSC 21/21 Q1009 NOSIG
ZBSJ,2016-08-19 22:00,ZBSJ 192200Z 00000MPS 4000 BR BKN046 22/22 Q1010 NOSIG
ZBSJ,2016-08-19 23:00,ZBSJ 192300Z 00000MPS 4000 BR BKN040 24/23 Q1010 NOSIG
ZBSJ,2016-08-20 00:00,ZBSJ 200000Z 36001MPS 6000 NSC 27/22 Q1010 NOSIG
ZBSJ,2016-08-20 01:00,ZBSJ 200100Z 16001MPS CAVOK 27/20 Q1010 NOSIG
ZBSJ,2016-08-20 02:00,ZBSJ 200200Z 19002MPS CAVOK 27/21 Q1011 NOSIG
ZBSJ,2016-08-20 03:00,ZBSJ 200300Z 16001MPS CAVOK 28/21 Q1010 NOSIG
ZBSJ,2016-08-20 04:00,ZBSJ 200400Z 17001MPS CAVOK 29/21 Q1010 NOSIG
ZBSJ,2016-08-20 05:00,ZBSJ 200500Z 24001MPS CAVOK 29/21 Q1009 NOSIG
ZBSJ,2016-08-20 06:00,ZBSJ 200600Z 14001MPS CAVOK 29/22 Q1009 NOSIG
ZBSJ,2016-08-20 07:00,ZBSJ 200700Z 17001MPS CAVOK 30/23 Q1008 NOSIG
ZBSJ,2016-08-20 08:00,ZBSJ 200800Z 15001MPS CAVOK 30/23 Q1008 NOSIG
ZBSJ,2016-08-20 09:00,ZBSJ 200900Z 13001MPS CAVOK 29/23 Q1008 NOSIG
ZBSJ,2016-08-20 10:00,ZBSJ 201000Z 14001MPS CAVOK 29/23 Q1007 NOSIG
ZBSJ,2016-08-20 11:00,ZBSJ 201100Z 16001MPS CAVOK 27/24 Q1007 NOSIG
ZBSJ,2016-08-20 12:00,ZBSJ 201200Z 05001MPS CAVOK 26/24 Q1008 NOSIG
ZBSJ,2016-08-20 13:00,ZBSJ 201300Z 10001MPS CAVOK 25/24 Q1008 NOSIG
ZBSJ,2016-08-20 14:00,ZBSJ 201400Z 00000MPS CAVOK 25/24 Q1009 NOSIG
ZBSJ,2016-08-20 15:00,ZBSJ 201500Z 18001MPS 7000 NSC 24/23 Q1009 NOSIG
ZBSJ,2016-08-20 16:00,ZBSJ 201600Z 20001MPS 5000 BR NSC 24/23 Q1009 NOSIG
ZBSJ,2016-08-20 17:00,ZBSJ 201700Z 18001MPS 5000 BR NSC 23/23 Q1008 NOSIG
ZBSJ,2016-08-20 18:00,ZBSJ 201800Z 14001MPS 4000 BR NSC 22/22 Q1008 NOSIG
ZBSJ,2016-08-20 19:00,ZBSJ 201900Z 03001MPS 2500 BR NSC 22/22 Q1008 NOSIG
ZBSJ,2016-08-20 20:00,ZBSJ 202000Z 03001MPS 1800 BR NSC 22/22 Q1008 NOSIG
ZBSJ,2016-08-20 21:00,ZBSJ 202100Z 00000MPS 1400 R15/1000VP2000U BR NSC 22/22 Q1009 NOSIG
ZBSJ,2016-08-20 22:00,ZBSJ 202200Z 00000MPS 1200 R15/0200V0300D BR NSC 21/21 Q1009 NOSIG
ZBSJ,2016-08-20 23:00,ZBSJ 202300Z 28001MPS 1200 R15/0275V0650D BR NSC 23/23 Q1010 BECMG 3000
ZBSJ,2016-08-21 00:00,ZBSJ 210000Z 29001MPS 1500 R15/1200U BR NSC 26/24 Q1010 BECMG TL0130 3000
ZBSJ,2016-08-21 01:00,ZBSJ 210100Z 29001MPS 2700 BR NSC 28/24 Q1010 BECMG TL0230 3000
ZBSJ,2016-08-21 02:00,ZBSJ 210200Z 27001MPS 3500 HZ NSC 29/24 Q1010 NOSIG
ZBSJ,2016-08-21 03:00,ZBSJ 210300Z 09001MPS 4000 HZ SCT040 31/24 Q1010 NOSIG
ZBSJ,2016-08-21 04:00,ZBSJ 210400Z 14001MPS 5000 HZ SCT046 31/23 Q1010 NOSIG
ZBSJ,2016-08-21 05:00,ZBSJ 210500Z 12002MPS 070V170 6000 NSC 32/23 Q1010 NOSIG
ZBSJ,2016-08-21 06:00,ZBSJ 210600Z 10001MPS 6000 NSC 33/23 Q1009 NOSIG
ZBSJ,2016-08-21 07:00,ZBSJ 210700Z 15002MPS 110V190 6000 NSC 33/23 Q1009 NOSIG
ZBSJ,2016-08-21 08:00,ZBSJ 210800Z 15002MPS 7000 NSC 32/22 Q1009 NOSIG
ZBSJ,2016-08-21 09:00,ZBSJ 210900Z 13002MPS 8000 NSC 32/22 Q1009 NOSIG
ZBSJ,2016-08-21 10:00,ZBSJ 211000Z 14002MPS 6000 NSC 31/23 Q1009 NOSIG
ZBSJ,2016-08-21 11:00,ZBSJ 211100Z 09002MPS 8000 NSC 28/23 Q1009 NOSIG
ZBSJ,2016-08-21 12:00,ZBSJ 211200Z 09002MPS CAVOK 27/22 Q1010 NOSIG
ZBSJ,2016-08-21 13:00,ZBSJ 211300Z 09002MPS 8000 NSC 26/22 Q1010 NOSIG
ZBSJ,2016-08-21 14:00,ZBSJ 211400Z 10001MPS 7000 NSC 25/23 Q1011 NOSIG
ZBSJ,2016-08-21 15:00,ZBSJ 211500Z 02001MPS 6000 NSC 24/23 Q1011 NOSIG
ZBSJ,2016-08-21 16:00,ZBSJ 211600Z 00000MPS 5000 BR NSC 23/22 Q1011 NOSIG
ZBSJ,2016-08-21 17:00,ZBSJ 211700Z 05001MPS 4500 BR NSC 23/22 Q1012 NOSIG
ZBSJ,2016-08-21 18:00,ZBSJ 211800Z 00000MPS 4000 BR NSC 23/22 Q1012 NOSIG
ZBSJ,2016-08-21 19:00,ZBSJ 211900Z 30001MPS 3500 BR NSC 22/22 Q1012 NOSIG
ZBSJ,2016-08-21 20:00,ZBSJ 212000Z 08001MPS 2700 BR NSC 22/22 Q1011 NOSIG
ZBSJ,2016-08-21 21:00,ZBSJ 212100Z 00000MPS 2300 BR NSC 22/22 Q1012 NOSIG
ZBSJ,2016-08-21 22:00,ZBSJ 212200Z 07001MPS 1800 BR NSC 22/21 Q1012 NOSIG
ZBSJ,2016-08-21 23:00,ZBSJ 212300Z 00000MPS 1800 BR NSC 24/23 Q1013 NOSIG
ZBSJ,2016-08-22 00:00,ZBSJ 220000Z 18001MPS 2700 BR NSC 26/23 Q1013 BECMG TL0100 3500
ZBSJ,2016-08-22 01:00,ZBSJ 220100Z 12001MPS 3000 HZ NSC 28/22 Q1013 NOSIG
ZBSJ,2016-08-22 02:00,ZBSJ 220200Z 02001MPS 4000 HZ NSC 29/22 Q1013 NOSIG
ZBSJ,2016-08-22 03:00,ZBSJ 220300Z 05001MPS CAVOK 30/19 Q1013 NOSIG
ZBSJ,2016-08-22 04:00,ZBSJ 220400Z 08001MPS CAVOK 30/19 Q1012 NOSIG
ZBSJ,2016-08-22 05:00,ZBSJ 220500Z 09002MPS CAVOK 31/19 Q1011 NOSIG
ZBSJ,2016-08-22 06:00,ZBSJ 220600Z 07001MPS CAVOK 31/19 Q1011 NOSIG
ZBSJ,2016-08-22 07:00,ZBSJ 220700Z 11002MPS CAVOK 31/19 Q1010 NOSIG
ZBSJ,2016-08-22 08:00,ZBSJ 220800Z 10002MPS CAVOK 31/21 Q1010 NOSIG
ZBSJ,2016-08-22 09:00,ZBSJ 220900Z 09002MPS CAVOK 30/21 Q1010 NOSIG
ZBSJ,2016-08-22 10:00,ZBSJ 221000Z 07001MPS CAVOK 29/23 Q1010 NOSIG
ZBSJ,2016-08-22 11:00,ZBSJ 221100Z 12001MPS CAVOK 28/22 Q1010 NOSIG
ZBSJ,2016-08-22 12:00,ZBSJ 221200Z 12001MPS CAVOK 26/23 Q1010 NOSIG
ZBSJ,2016-08-22 13:00,ZBSJ 221300Z 08001MPS CAVOK 25/23 Q1011 NOSIG
ZBSJ,2016-08-22 14:00,ZBSJ 221400Z 13001MPS 7000 NSC 24/23 Q1010 NOSIG
ZBSJ,2016-08-22 15:00,ZBSJ 221500Z 08001MPS 6000 NSC 24/22 Q1010 NOSIG
ZBSJ,2016-08-22 16:00,ZBSJ 221600Z 02001MPS 5000 BR NSC 23/22 Q1010 NOSIG
ZBSJ,2016-08-22 17:00,ZBSJ 221700Z 02001MPS 5000 BR NSC 23/22 Q1010 NOSIG
ZBSJ,2016-08-22 18:00,ZBSJ 221800Z 00000MPS 4000 BR NSC 23/22 Q1009 NOSIG
ZBSJ,2016-08-22 19:00,ZBSJ 221900Z 14001MPS 4000 BR NSC 22/22 Q1009 NOSIG
ZBSJ,2016-08-22 20:00,ZBSJ 222000Z 20001MPS 4000 BR NSC 22/22 Q1008 NOSIG
ZBSJ,2016-08-22 21:00,ZBSJ 222100Z 33002MPS 3000 BR NSC 22/22 Q1008 NOSIG
ZBSJ,2016-08-22 22:00,ZBSJ 222200Z 00000MPS 2000 BR NSC 22/21 Q1008 NOSIG
ZBSJ,2016-08-22 23:00,ZBSJ 222300Z 24001MPS 2000 BR NSC 23/23 Q1008 BECMG TL0030 3000
ZBSJ,2016-08-23 00:00,ZBSJ 230000Z 29002MPS 2800 BR NSC 25/23 Q1008 BECMG TL0100 3000
ZBSJ,2016-08-23 01:00,ZBSJ 230100Z 28001MPS 5000 BR NSC 27/23 Q1008 NOSIG
ZBSJ,2016-08-23 02:00,ZBSJ 230200Z 21001MPS 6000 NSC 29/23 Q1008 NOSIG
ZBSJ,2016-08-23 03:00,ZBSJ 230300Z 17003MPS 130V230 5000 HZ NSC 30/24 Q1007 NOSIG
ZBSJ,2016-08-23 04:00,ZBSJ 230400Z 17003MPS 130V220 6000 NSC 32/23 Q1006 NOSIG
ZBSJ,2016-08-23 05:00,ZBSJ 230500Z 18004MPS 150V220 8000 NSC 32/22 Q1005 NOSIG
ZBSJ,2016-08-23 06:00,ZBSJ 230600Z 16004MPS 7000 NSC 33/24 Q1005 NOSIG
ZBSJ,2016-08-23 07:00,ZBSJ 230700Z 16003MPS 130V200 7000 NSC 33/25 Q1004 NOSIG
ZBSJ,2016-08-23 08:00,ZBSJ 230800Z 16002MPS 120V190 4000 HZ NSC 32/25 Q1004 NOSIG
ZBSJ,2016-08-23 09:00,ZBSJ 230900Z 12001MPS 4000 HZ NSC 31/25 Q1004 NOSIG
ZBSJ,2016-08-23 10:00,ZBSJ 231000Z 12001MPS 4000 BR FEW040 31/26 Q1004 NOSIG
ZBSJ,2016-08-23 11:00,ZBSJ 231100Z 36003MPS 320V040 4000 BR SCT033 29/25 Q1004 NOSIG
ZBSJ,2016-08-23 12:00,ZBSJ 231200Z 02002MPS 5000 BR SCT033 28/25 Q1004 NOSIG
ZBSJ,2016-08-23 13:00,ZBSJ 231300Z 01002MPS 4500 BR NSC 28/25 Q1005 NOSIG
ZBSJ,2016-08-23 14:00,ZBSJ 231400Z 03001MPS 4000 BR NSC 27/25 Q1005 NOSIG
ZBSJ,2016-08-23 15:00,ZBSJ 231500Z 01001MPS 3500 BR NSC 27/25 Q1005 NOSIG
ZBSJ,2016-08-23 16:00,ZBSJ 231600Z 35001MPS 3000 BR NSC 27/25 Q1005 NOSIG
ZBSJ,2016-08-23 17:00,ZBSJ 231700Z 33001MPS 3000 BR NSC 27/25 Q1004 NOSIG
ZBSJ,2016-08-23 18:00,ZBSJ 231800Z 34001MPS 3000 BR NSC 26/25 Q1004 NOSIG
ZBSJ,2016-08-23 19:00,ZBSJ 231900Z 34002MPS 3000 BR NSC 26/25 Q1004 NOSIG
ZBSJ,2016-08-23 20:00,ZBSJ 232000Z 36001MPS 3000 BR NSC 26/25 Q1004 NOSIG
ZBSJ,2016-08-23 21:00,ZBSJ 232100Z 33002MPS 2500 BR NSC 25/25 Q1004 NOSIG
ZBSJ,2016-08-23 22:00,ZBSJ 232200Z 36001MPS 1500 BR NSC 25/24 Q1004 NOSIG
ZBSJ,2016-08-23 23:00,ZBSJ 232300Z 04001MPS 1500 BR NSC 26/25 Q1005 BECMG TL0030 1400 BR
ZBSJ,2016-08-24 00:00,ZBSJ 240000Z 05002MPS 1700 BR NSC 27/25 Q1005 BECMG TL0130 3000
ZBSJ,2016-08-24 01:00,ZBSJ 240100Z 06002MPS 360V100 1800 BR NSC 27/25 Q1005 BECMG TL0230 3000
ZBSJ,2016-08-24 02:00,ZBSJ 240200Z 02002MPS 2300 BR NSC 28/25 Q1005 NOSIG
ZBSJ,2016-08-24 03:00,ZBSJ 240300Z 01001MPS 2300 BR NSC 28/25 Q1005 NOSIG
ZBSJ,2016-08-24 04:00,ZBSJ 240400Z 02002MPS 2500 BR NSC 29/25 Q1005 BECMG TL0530 3000
ZBSJ,2016-08-24 05:00,ZBSJ 240500Z 02002MPS 2700 BR NSC 29/25 Q1004 BECMG TL0600 3000
ZBSJ,2016-08-24 06:00,ZBSJ 240600Z 05002MPS 3000 BR NSC 30/25 Q1004 NOSIG
ZBSJ,2016-08-24 07:00,ZBSJ 240700Z 05002MPS 3000 BR NSC 30/26 Q1003 NOSIG
ZBSJ,2016-08-24 08:00,ZBSJ 240800Z 05001MPS 3000 BR NSC 30/26 Q1003 NOSIG
ZBSJ,2016-08-24 09:00,ZBSJ 240900Z 05001MPS 2800 BR NSC 30/26 Q1003 NOSIG
ZBSJ,2016-08-24 10:00,ZBSJ 241000Z 02001MPS 2200 BR NSC 29/26 Q1003 NOSIG
ZBSJ,2016-08-24 11:00,ZBSJ 241100Z 01001MPS 2200 BR NSC 28/26 Q1004 NOSIG
ZBSJ,2016-08-24 12:00,ZBSJ 241200Z 35001MPS 2800 BR NSC 28/26 Q1004 NOSIG
ZBSJ,2016-08-24 13:00,ZBSJ 241300Z 34003MPS 2500 BR NSC 27/26 Q1005 NOSIG
ZBSJ,2016-08-24 14:00,ZBSJ 241400Z 33002MPS 2300 BR NSC 26/25 Q1005 NOSIG
ZBSJ,2016-08-24 15:00,ZBSJ 241500Z 33002MPS 2300 BR NSC 26/25 Q1004 NOSIG
ZBSJ,2016-08-24 16:00,ZBSJ 241600Z 23002MPS 2500 BR NSC 26/25 Q1004 NOSIG
ZBSJ,2016-08-24 17:00,ZBSJ 241700Z 24001MPS 2500 BR NSC 26/25 Q1004 NOSIG
ZBSJ,2016-08-24 18:00,ZBSJ 241800Z 01001MPS 2000 BR NSC 26/25 Q1003 NOSIG
ZBSJ,2016-08-24 19:00,ZBSJ 241900Z 32002MPS 2000 BR NSC 26/25 Q1003 NOSIG
ZBSJ,2016-08-24 20:00,ZBSJ 242000Z 32003MPS 2000 BR NSC 26/26 Q1004 NOSIG
ZBSJ,2016-08-24 21:00,ZBSJ 242100Z 34003MPS 2500 BR OVC046 26/26 Q1004 NOSIG
ZBSJ,2016-08-24 22:00,ZBSJ 242200Z 34003MPS 5000 BR NSC 26/24 Q1005 NOSIG
ZBSJ,2016-08-24 23:00,ZBSJ 242300Z 05002MPS CAVOK 26/23 Q1007 NOSIG
ZBSJ,2016-08-25 00:00,ZBSJ 250000Z 01001MPS CAVOK 26/20 Q1007 NOSIG
ZBSJ,2016-08-25 01:00,ZBSJ 250100Z 03002MPS CAVOK 27/21 Q1009 NOSIG
ZBSJ,2016-08-25 02:00,ZBSJ 250200Z 01002MPS 350V050 CAVOK 29/20 Q1010 NOSIG
ZBSJ,2016-08-25 03:00,ZBSJ 250300Z 01003MPS 340V040 CAVOK 29/20 Q1011 NOSIG
ZBSJ,2016-08-25 04:00,ZBSJ 250400Z 02003MPS 350V060 CAVOK 28/18 Q1012 NOSIG
ZBSJ,2016-08-25 05:00,ZBSJ 250500Z 03002MPS CAVOK 28/19 Q1012 NOSIG
ZBSJ,2016-08-25 06:00,ZBSJ 250600Z 06004MPS 030V100 CAVOK 26/17 Q1012 NOSIG
ZBSJ,2016-08-25 07:00,ZBSJ 250700Z 06004MPS 020V100 CAVOK 27/16 Q1012 NOSIG
ZBSJ,2016-08-25 08:00,ZBSJ 250800Z 07001MPS CAVOK 26/17 Q1013 NOSIG
ZBSJ,2016-08-25 09:00,ZBSJ 250900Z 12003MPS CAVOK 26/16 Q1013 NOSIG
ZBSJ,2016-08-25 10:00,ZBSJ 251000Z 12002MPS CAVOK 25/16 Q1013 NOSIG
ZBSJ,2016-08-25 11:00,ZBSJ 251100Z 20001MPS CAVOK 24/18 Q1014 NOSIG
ZBSJ,2016-08-25 12:00,ZBSJ 251200Z 17001MPS CAVOK 23/18 Q1015 NOSIG
ZBSJ,2016-08-25 13:00,ZBSJ 251300Z 17001MPS CAVOK 22/19 Q1016 NOSIG
ZBSJ,2016-08-25 14:00,ZBSJ 251400Z 18001MPS CAVOK 21/19 Q1016 NOSIG
ZBSJ,2016-08-25 15:00,ZBSJ 251500Z 16001MPS CAVOK 21/19 Q1017 NOSIG
ZBSJ,2016-08-25 16:00,ZBSJ 251600Z 16001MPS CAVOK 21/19 Q1017 NOSIG
ZBSJ,2016-08-25 17:00,ZBSJ 251700Z 20001MPS CAVOK 20/18 Q1017 NOSIG
ZBSJ,2016-08-25 18:00,ZBSJ 251800Z 34002MPS CAVOK 19/18 Q1017 NOSIG
ZBSJ,2016-08-25 19:00,ZBSJ 251900Z 34002MPS CAVOK 19/18 Q1017 NOSIG
ZBSJ,2016-08-25 20:00,ZBSJ 252000Z 33003MPS CAVOK 18/17 Q1016 NOSIG
ZBSJ,2016-08-25 21:00,ZBSJ 252100Z 33002MPS CAVOK 17/16 Q1017 NOSIG
ZBSJ,2016-08-25 22:00,ZBSJ 252200Z 33002MPS CAVOK 17/15 Q1018 NOSIG
ZBSJ,2016-08-25 23:00,ZBSJ 252300Z 34002MPS CAVOK 19/15 Q1018 NOSIG
ZBSJ,2016-08-26 00:00,ZBSJ 260000Z 33001MPS CAVOK 23/16 Q1018 NOSIG
ZBSJ,2016-08-26 01:00,ZBSJ 260100Z 35002MPS CAVOK 25/13 Q1019 NOSIG
ZBSJ,2016-08-26 02:00,ZBSJ 260200Z 04003MPS 340V090 CAVOK 26/12 Q1019 NOSIG
ZBSJ,2016-08-26 03:00,ZBSJ 260300Z 06002MPS 030V110 CAVOK 26/12 Q1018 NOSIG
ZBSJ,2016-08-26 04:00,ZBSJ 260400Z 03002MPS CAVOK 27/09 Q1018 NOSIG
ZBSJ,2016-08-26 05:00,ZBSJ 260500Z 06001MPS CAVOK 28/09 Q1017 NOSIG
ZBSJ,2016-08-26 06:00,ZBSJ 260600Z 31003MPS CAVOK 29/11 Q1016 NOSIG
ZBSJ,2016-08-26 07:00,ZBSJ 260700Z 34002MPS CAVOK 29/10 Q1015 NOSIG
ZBSJ,2016-08-26 08:00,ZBSJ 260800Z 02002MPS CAVOK 28/11 Q1015 NOSIG
ZBSJ,2016-08-26 09:00,ZBSJ 260900Z 01001MPS CAVOK 28/10 Q1015 NOSIG
ZBSJ,2016-08-26 10:00,ZBSJ 261000Z 05001MPS CAVOK 27/10 Q1015 NOSIG
ZBSJ,2016-08-26 11:00,ZBSJ 261100Z 10002MPS CAVOK 23/13 Q1015 NOSIG
ZBSJ,2016-08-26 12:00,ZBSJ 261200Z 13001MPS CAVOK 20/15 Q1015 NOSIG
ZBSJ,2016-08-26 13:00,ZBSJ 261300Z 22001MPS CAVOK 18/15 Q1016 NOSIG
ZBSJ,2016-08-26 14:00,ZBSJ 261400Z 27001MPS CAVOK 18/15 Q1016 NOSIG
ZBSJ,2016-08-26 15:00,ZBSJ 261500Z 24001MPS CAVOK 17/15 Q1016 NOSIG
ZBSJ,2016-08-26 16:00,ZBSJ 261600Z 31001MPS CAVOK 17/14 Q1016 NOSIG
ZBSJ,2016-08-26 17:00,ZBSJ 261700Z 27001MPS CAVOK 17/15 Q1015 NOSIG
ZBSJ,2016-08-26 18:00,ZBSJ 261800Z 32002MPS CAVOK 17/15 Q1015 NOSIG
ZBSJ,2016-08-26 19:00,ZBSJ 261900Z 28002MPS CAVOK 19/15 Q1015 NOSIG
ZBSJ,2016-08-26 20:00,ZBSJ 262000Z 31001MPS CAVOK 17/15 Q1015 NOSIG
ZBSJ,2016-08-26 21:00,ZBSJ 262100Z 34002MPS CAVOK 17/15 Q1015 NOSIG
ZBSJ,2016-08-26 22:00,ZBSJ 262200Z 31003MPS CAVOK 17/15 Q1015 NOSIG
ZBSJ,2016-08-26 23:00,ZBSJ 262300Z 29003MPS CAVOK 20/15 Q1015 NOSIG
ZBSJ,2016-08-27 00:00,ZBSJ 270000Z 30003MPS CAVOK 22/16 Q1015 NOSIG
ZBSJ,2016-08-27 01:00,ZBSJ 270100Z 28003MPS 260V320 CAVOK 24/17 Q1015 NOSIG
ZBSJ,2016-08-27 02:00,ZBSJ 270200Z 31003MPS 260V340 CAVOK 28/16 Q1015 NOSIG
ZBSJ,2016-08-27 03:00,ZBSJ 270300Z 30003MPS 270V010 CAVOK 29/15 Q1015 NOSIG
ZBSJ,2016-08-27 04:00,ZBSJ 270400Z 34003MPS 300V040 CAVOK 30/14 Q1014 NOSIG
ZBSJ,2016-08-27 05:00,ZBSJ 270500Z 03003MPS 340V090 CAVOK 31/11 Q1013 NOSIG
ZBSJ,2016-08-27 06:00,ZBSJ 270600Z 04002MPS 300V100 CAVOK 31/13 Q1013 NOSIG
ZBSJ,2016-08-27 07:00,ZBSJ 270700Z 08001MPS CAVOK 32/09 Q1012 NOSIG
ZBSJ,2016-08-27 08:00,ZBSJ 270800Z 13002MPS 100V160 CAVOK 31/11 Q1011 NOSIG
ZBSJ,2016-08-27 09:00,ZBSJ 270900Z 17002MPS 9999 FEW040 31/12 Q1011 NOSIG
ZBSJ,2016-08-27 10:00,ZBSJ 271000Z 12002MPS 9999 FEW040 29/15 Q1011 NOSIG
ZBSJ,2016-08-27 11:00,ZBSJ 271100Z 21001MPS 9999 FEW040 24/17 Q1012 NOSIG
ZBSJ,2016-08-27 12:00,ZBSJ 271200Z 17001MPS 9999 FEW040 21/17 Q1012 NOSIG
ZBSJ,2016-08-27 13:00,ZBSJ 271300Z 34001MPS CAVOK 21/15 Q1013 NOSIG
ZBSJ,2016-08-27 14:00,ZBSJ 271400Z 01001MPS CAVOK 21/13 Q1013 NOSIG
ZBSJ,2016-08-27 15:00,ZBSJ 271500Z 31002MPS CAVOK 20/14 Q1013 NOSIG
ZBSJ,2016-08-27 16:00,ZBSJ 271600Z 32004MPS CAVOK 19/13 Q1013 NOSIG
ZBSJ,2016-08-27 17:00,ZBSJ 271700Z 32004MPS CAVOK 17/13 Q1013 NOSIG
ZBSJ,2016-08-27 18:00,ZBSJ 271800Z 31004MPS CAVOK 17/13 Q1013 NOSIG
ZBSJ,2016-08-27 19:00,ZBSJ 271900Z 33004MPS CAVOK 17/12 Q1013 NOSIG
ZBSJ,2016-08-27 20:00,ZBSJ 272000Z 32004MPS CAVOK 16/12 Q1013 NOSIG
ZBSJ,2016-08-27 21:00,ZBSJ 272100Z 29004MPS CAVOK 18/11 Q1014 NOSIG
ZBSJ,2016-08-27 22:00,ZBSJ 272200Z 31004MPS CAVOK 18/11 Q1014 NOSIG
ZBSJ,2016-08-27 23:00,ZBSJ 272300Z 31004MPS CAVOK 20/11 Q1014 NOSIG
ZBSJ,2016-08-28 00:00,ZBSJ 280000Z 29003MPS CAVOK 22/12 Q1015 NOSIG
ZBSJ,2016-08-28 01:00,ZBSJ 280100Z 31005MPS CAVOK 26/12 Q1014 NOSIG
ZBSJ,2016-08-28 02:00,ZBSJ 280200Z 32004MPS 300V010 CAVOK 29/13 Q1014 NOSIG
ZBSJ,2016-08-28 03:00,ZBSJ 280300Z 34004MPS 310V030 CAVOK 30/10 Q1014 NOSIG
ZBSJ,2016-08-28 04:00,ZBSJ 280400Z 01003MPS 330V080 CAVOK 31/11 Q1013 NOSIG
ZBSJ,2016-08-28 05:00,ZBSJ 280500Z 07002MPS 360V120 CAVOK 31/11 Q1013 NOSIG
ZBSJ,2016-08-28 06:00,ZBSJ 280600Z 05002MPS CAVOK 32/11 Q1012 NOSIG
ZBSJ,2016-08-28 07:00,ZBSJ 280700Z 24002MPS 140V310 CAVOK 31/07 Q1011 NOSIG
ZBSJ,2016-08-28 08:00,ZBSJ 280800Z 09002MPS 060V120 CAVOK 31/09 Q1011 NOSIG
ZBSJ,2016-08-28 09:00,ZBSJ 280900Z 15002MPS CAVOK 31/10 Q1011 NOSIG
ZBSJ,2016-08-28 10:00,ZBSJ 281000Z 14002MPS CAVOK 28/13 Q1011 NOSIG
ZBSJ,2016-08-28 11:00,ZBSJ 281100Z 13002MPS CAVOK 23/15 Q1011 NOSIG
ZBSJ,2016-08-28 12:00,ZBSJ 281200Z 17002MPS CAVOK 22/14 Q1012 NOSIG
ZBSJ,2016-08-28 13:00,ZBSJ 281300Z 17001MPS CAVOK 20/15 Q1012 NOSIG
ZBSJ,2016-08-28 14:00,ZBSJ 281400Z 20001MPS CAVOK 19/15 Q1012 NOSIG
ZBSJ,2016-08-28 15:00,ZBSJ 281500Z 22001MPS CAVOK 19/15 Q1012 NOSIG
ZBSJ,2016-08-28 16:00,ZBSJ 281600Z 24002MPS CAVOK 19/14 Q1012 NOSIG
ZBSJ,2016-08-28 17:00,ZBSJ 281700Z 31002MPS CAVOK 19/14 Q1012 NOSIG
ZBSJ,2016-08-28 18:00,ZBSJ 281800Z 32002MPS CAVOK 18/14 Q1012 NOSIG
ZBSJ,2016-08-28 19:00,ZBSJ 281900Z 32002MPS CAVOK 17/14 Q1012 NOSIG
ZBSJ,2016-08-28 20:00,ZBSJ 282000Z 32003MPS CAVOK 17/13 Q1011 NOSIG
ZBSJ,2016-08-28 21:00,ZBSJ 282100Z 29002MPS CAVOK 17/13 Q1011 NOSIG
ZBSJ,2016-08-28 22:00,ZBSJ 282200Z 31003MPS CAVOK 16/13 Q1012 NOSIG
ZBSJ,2016-08-28 23:00,ZBSJ 282300Z 29003MPS CAVOK 20/14 Q1012 NOSIG
ZBSJ,2016-08-29 00:00,ZBSJ 290000Z 29004MPS CAVOK 22/14 Q1013 NOSIG
ZBSJ,2016-08-29 01:00,ZBSJ 290100Z 35002MPS 310V010 CAVOK 23/15 Q1013 NOSIG
ZBSJ,2016-08-29 02:00,ZBSJ 290200Z 34002MPS 300V020 CAVOK 25/16 Q1013 NOSIG
ZBSJ,2016-08-29 03:00,ZBSJ 290300Z 01002MPS CAVOK 27/14 Q1013 NOSIG
ZBSJ,2016-08-29 04:00,ZBSJ 290400Z 34002MPS CAVOK 29/14 Q1012 NOSIG
ZBSJ,2016-08-29 05:00,ZBSJ 290500Z 07001MPS CAVOK 30/14 Q1012 NOSIG
ZBSJ,2016-08-29 06:00,ZBSJ 290600Z 03002MPS CAVOK 30/14 Q1011 NOSIG
ZBSJ,2016-08-29 07:00,ZBSJ 290700Z 04001MPS CAVOK 30/15 Q1011 NOSIG
ZBSJ,2016-08-29 08:00,ZBSJ 290800Z 06001MPS CAVOK 29/17 Q1011 NOSIG
ZBSJ,2016-08-29 09:00,ZBSJ 290900Z 06002MPS CAVOK 27/18 Q1011 NOSIG
ZBSJ,2016-08-29 10:00,ZBSJ 291000Z 07002MPS CAVOK 26/17 Q1011 NOSIG
ZBSJ,2016-08-29 11:00,ZBSJ 291100Z 07001MPS CAVOK 24/18 Q1011 NOSIG
ZBSJ,2016-08-29 12:00,ZBSJ 291200Z 06001MPS CAVOK 22/19 Q1011 NOSIG
ZBSJ,2016-08-29 13:00,ZBSJ 291300Z 00000MPS CAVOK 23/17 Q1011 NOSIG
ZBSJ,2016-08-29 14:00,ZBSJ 291400Z 04001MPS CAVOK 22/19 Q1011 NOSIG
ZBSJ,2016-08-29 15:00,ZBSJ 291500Z 03001MPS CAVOK 22/19 Q1011 NOSIG
ZBSJ,2016-08-29 16:00,ZBSJ 291600Z 33002MPS CAVOK 22/19 Q1011 NOSIG
ZBSJ,2016-08-29 17:00,ZBSJ 291700Z 33001MPS CAVOK 21/19 Q1011 NOSIG
ZBSJ,2016-08-29 18:00,ZBSJ 291800Z 33001MPS CAVOK 22/18 Q1010 NOSIG
ZBSJ,2016-08-29 19:00,ZBSJ 291900Z 00000MPS CAVOK 21/19 Q1010 NOSIG
ZBSJ,2016-08-29 20:00,ZBSJ 292000Z 27002MPS CAVOK 22/18 Q1010 NOSIG
ZBSJ,2016-08-29 21:00,ZBSJ 292100Z 32002MPS CAVOK 21/18 Q1010 NOSIG
ZBSJ,2016-08-29 22:00,ZBSJ 292200Z 32001MPS 8000 NSC 21/18 Q1009 NOSIG
ZBSJ,2016-08-29 23:00,ZBSJ 292300Z 28002MPS 8000 NSC 22/18 Q1009 NOSIG
ZBSJ,2016-08-30 00:00,ZBSJ 300000Z 29002MPS 8000 NSC 22/18 Q1009 NOSIG
ZBSJ,2016-08-30 01:00,ZBSJ 300100Z 35001MPS CAVOK 23/18 Q1009 NOSIG
ZBSJ,2016-08-30 02:00,ZBSJ 300200Z 27002MPS CAVOK 25/18 Q1009 NOSIG
ZBSJ,2016-08-30 03:00,ZBSJ 300300Z 24004MPS CAVOK 26/17 Q1008 NOSIG
ZBSJ,2016-08-30 04:00,ZBSJ 300400Z 23002MPS CAVOK 27/18 Q1008 NOSIG
ZBSJ,2016-08-30 05:00,ZBSJ 300500Z 24004MPS CAVOK 28/18 Q1007 NOSIG
ZBSJ,2016-08-30 06:00,ZBSJ 300600Z 24003MPS 180V270 CAVOK 30/17 Q1006 NOSIG
ZBSJ,2016-08-30 07:00,ZBSJ 300700Z 22003MPS 180V260 CAVOK 31/15 Q1005 NOSIG
ZBSJ,2016-08-30 08:00,ZBSJ 300800Z 23001MPS CAVOK 31/14 Q1004 NOSIG
ZBSJ,2016-08-30 09:00,ZBSJ 300900Z 19002MPS CAVOK 31/14 Q1003 NOSIG
ZBSJ,2016-08-30 10:00,ZBSJ 301000Z 19002MPS CAVOK 29/17 Q1003 NOSIG
ZBSJ,2016-08-30 11:00,ZBSJ 301100Z 19002MPS CAVOK 24/18 Q1003 NOSIG
ZBSJ,2016-08-30 12:00,ZBSJ 301200Z 16002MPS CAVOK 23/18 Q1003 NOSIG
ZBSJ,2016-08-30 13:00,ZBSJ 301300Z 22001MPS CAVOK 22/18 Q1003 NOSIG
ZBSJ,2016-08-30 14:00,ZBSJ 301400Z 23002MPS 8000 NSC 21/18 Q1003 NOSIG
ZBSJ,2016-08-30 15:00,ZBSJ 301500Z 26003MPS 8000 NSC 24/18 Q1002 NOSIG
ZBSJ,2016-08-30 16:00,ZBSJ 301600Z 29004MPS CAVOK 23/18 Q1002 NOSIG
ZBSJ,2016-08-30 17:00,ZBSJ 301700Z 29004MPS CAVOK 22/17 Q1002 NOSIG
ZBSJ,2016-08-30 18:00,ZBSJ 301800Z 29005MPS CAVOK 22/16 Q1001 NOSIG
ZBSJ,2016-08-30 19:00,ZBSJ 301900Z 29005MPS CAVOK 22/15 Q1000 NOSIG
ZBSJ,2016-08-30 20:00,ZBSJ 302000Z 28006MPS CAVOK 22/14 Q1000 NOSIG
ZBSJ,2016-08-30 21:00,ZBSJ 302100Z 28006MPS CAVOK 22/14 Q1000 NOSIG
ZBSJ,2016-08-30 22:00,ZBSJ 302200Z 27005MPS CAVOK 22/13 Q1000 NOSIG
ZBSJ,2016-08-30 23:00,ZBSJ 302300Z 28005MPS CAVOK 23/14 Q1001 NOSIG
ZBSJ,2016-08-31 00:00,ZBSJ 310000Z 28005MPS CAVOK 25/14 Q1001 NOSIG
ZBSJ,2016-08-31 01:00,ZBSJ 310100Z 29004MPS CAVOK 28/15 Q1000 NOSIG
ZBSJ,2016-08-31 02:00,ZBSJ 310200Z 29005MPS CAVOK 30/16 Q1000 NOSIG
ZBSJ,2016-08-31 03:00,ZBSJ 310300Z 29004MPS 240V310 CAVOK 32/17 Q0999 NOSIG
ZBSJ,2016-08-31 04:00,ZBSJ 310400Z 32005MPS CAVOK 34/13 Q0998 NOSIG
ZBSJ,2016-08-31 05:00,ZBSJ 310500Z 31005MPS CAVOK 35/12 Q0998 NOSIG
ZBSJ,2016-08-31 06:00,ZBSJ 310600Z 31006MPS 9999 FEW040 35/10 Q0997 NOSIG
ZBSJ,2016-08-31 07:00,ZBSJ 310700Z 26006MPS 9999 FEW040 34/11 Q0996 NOSIG
ZBSJ,2016-08-31 08:00,ZBSJ 310800Z 27005MPS 9999 FEW040 34/13 Q0996 NOSIG
ZBSJ,2016-08-31 09:00,ZBSJ 310900Z 29004MPS 9999 FEW040 33/13 Q0996 NOSIG
ZBSJ,2016-08-31 10:00,ZBSJ 311000Z 33006MPS 9999 FEW040 30/11 Q0996 NOSIG
ZBSJ,2016-08-31 11:00,ZBSJ 311100Z 30006MPS 9999 FEW040 29/11 Q0996 NOSIG
ZBSJ,2016-08-31 12:00,ZBSJ 311200Z 31005MPS 9999 FEW040 27/11 Q0996 NOSIG
ZBSJ,2016-08-31 13:00,ZBSJ 311300Z 29005MPS CAVOK 27/11 Q0996 NOSIG
ZBSJ,2016-08-31 14:00,ZBSJ 311400Z 29005MPS CAVOK 26/11 Q0997 NOSIG
ZBSJ,2016-08-31 15:00,ZBSJ 311500Z 32003MPS CAVOK 22/11 Q0997 NOSIG
ZBSJ,2016-08-31 16:00,ZBSJ 311600Z 30005MPS CAVOK 24/11 Q0997 NOSIG
ZBSJ,2016-08-31 17:00,ZBSJ 311700Z 30003MPS CAVOK 21/11 Q0997 NOSIG
ZBSJ,2016-08-31 18:00,ZBSJ 311800Z 01002MPS 340V040 CAVOK 19/12 Q0997 NOSIG
ZBSJ,2016-08-31 19:00,ZBSJ 311900Z 30002MPS CAVOK 19/11 Q0997 NOSIG
ZBSJ,2016-08-31 20:00,ZBSJ 312000Z 29004MPS CAVOK 20/11 Q0997 NOSIG
ZBSJ,2016-08-31 21:00,ZBSJ 312100Z 29003MPS CAVOK 20/11 Q0997 NOSIG
ZBSJ,2016-08-31 22:00,ZBSJ 312200Z 29003MPS CAVOK 18/12 Q0997 NOSIG
ZBSJ,2016-08-31 23:00,ZBSJ 312300Z 28006MPS CAVOK 21/12 Q0997 NOSIG
ZBSJ,2016-09-01 00:00,ZBSJ 010000Z 29005MPS CAVOK 25/11 Q0998 NOSIG
ZBSJ,2016-09-01 01:00,ZBSJ 010100Z 30005MPS CAVOK 28/11 Q0998 NOSIG
ZBSJ,2016-09-01 02:00,ZBSJ 010200Z 32007MPS CAVOK 30/06 Q0998 NOSIG
ZBSJ,2016-09-01 03:00,ZBSJ 010300Z 33008MPS CAVOK 32/04 Q0998 NOSIG
ZBSJ,2016-09-01 04:00,ZBSJ 010400Z 31007MPS CAVOK 32/06 Q0997 NOSIG
ZBSJ,2016-09-01 05:00,ZBSJ 010500Z 32007MPS CAVOK 33/05 Q0997 NOSIG
ZBSJ,2016-09-01 06:00,ZBSJ 010600Z 32007MPS CAVOK 33/05 Q0997 NOSIG
ZBSJ,2016-09-01 07:00,ZBSJ 010700Z 34006MPS CAVOK 33/06 Q0996 NOSIG
ZBSJ,2016-09-01 08:00,ZBSJ 010800Z 29005MPS 250V330 CAVOK 33/07 Q0996 NOSIG
ZBSJ,2016-09-01 09:00,ZBSJ 010900Z 26003MPS CAVOK 32/06 Q0996 NOSIG
ZBSJ,2016-09-01 10:00,ZBSJ 011000Z 27003MPS CAVOK 31/09 Q0997 NOSIG
ZBSJ,2016-09-01 11:00,ZBSJ 011100Z 09003MPS CAVOK 26/12 Q0998 NOSIG
ZBSJ,2016-09-01 12:00,ZBSJ 011200Z 11002MPS CAVOK 24/11 Q0999 NOSIG
ZBSJ,2016-09-01 13:00,ZBSJ 011300Z 13002MPS CAVOK 21/12 Q0999 NOSIG
ZBSJ,2016-09-01 14:00,ZBSJ 011400Z 14001MPS CAVOK 19/12 Q1000 NOSIG
ZBSJ,2016-09-01 15:00,ZBSJ 011500Z 09002MPS CAVOK 19/12 Q1000 NOSIG
ZBSJ,2016-09-01 16:00,ZBSJ 011600Z 35001MPS CAVOK 18/12 Q1000 NOSIG
ZBSJ,2016-09-01 17:00,ZBSJ 011700Z 34001MPS CAVOK 17/13 Q1000 NOSIG
ZBSJ,2016-09-01 18:00,ZBSJ 011800Z 30001MPS CAVOK 17/12 Q1000 NOSIG
ZBSJ,2016-09-01 19:00,ZBSJ 011900Z 32002MPS CAVOK 16/13 Q1000 NOSIG
ZBSJ,2016-09-01 20:00,ZBSJ 012000Z 29002MPS CAVOK 16/12 Q1001 NOSIG
ZBSJ,2016-09-01 21:00,ZBSJ 012100Z 32003MPS CAVOK 16/12 Q1001 NOSIG
ZBSJ,2016-09-01 22:00,ZBSJ 012200Z 33002MPS CAVOK 15/11 Q1001 NOSIG
ZBSJ,2016-09-01 23:00,ZBSJ 012300Z 34002MPS CAVOK 18/13 Q1002 NOSIG
ZBSJ,2016-09-02 00:00,ZBSJ 020000Z 34002MPS CAVOK 22/13 Q1002 NOSIG
ZBSJ,2016-09-02 01:00,ZBSJ 020100Z 30002MPS 260V340 CAVOK 25/13 Q1002 NOSIG
ZBSJ,2016-09-02 02:00,ZBSJ 020200Z 31002MPS CAVOK 28/11 Q1002 NOSIG
ZBSJ,2016-09-02 03:00,ZBSJ 020300Z 24002MPS CAVOK 29/12 Q1002 NOSIG
ZBSJ,2016-09-02 04:00,ZBSJ 020400Z 17001MPS CAVOK 31/11 Q1001 NOSIG
ZBSJ,2016-09-02 05:00,ZBSJ 020500Z 21002MPS CAVOK 32/11 Q1001 NOSIG
ZBSJ,2016-09-02 06:00,ZBSJ 020600Z 11001MPS CAVOK 33/12 Q1000 NOSIG
ZBSJ,2016-09-02 07:00,ZBSJ 020700Z 08002MPS CAVOK 33/14 Q1000 NOSIG
ZBSJ,2016-09-02 08:00,ZBSJ 020800Z 08005MPS 050V110 CAVOK 31/15 Q1000 NOSIG
ZBSJ,2016-09-02 09:00,ZBSJ 020900Z 08004MPS 050V110 CAVOK 30/15 Q1001 NOSIG
ZBSJ,2016-09-02 10:00,ZBSJ 021000Z 08004MPS CAVOK 28/15 Q1002 NOSIG
ZBSJ,2016-09-02 11:00,ZBSJ 021100Z 08003MPS CAVOK 26/16 Q1003 NOSIG
ZBSJ,2016-09-02 12:00,ZBSJ 021200Z 06002MPS CAVOK 24/17 Q1003 NOSIG
ZBSJ,2016-09-02 13:00,ZBSJ 021300Z 04002MPS CAVOK 22/16 Q1004 NOSIG
ZBSJ,2016-09-02 14:00,ZBSJ 021400Z 01002MPS CAVOK 20/16 Q1005 NOSIG
ZBSJ,2016-09-02 15:00,ZBSJ 021500Z 33002MPS CAVOK 21/16 Q1006 NOSIG
ZBSJ,2016-09-02 16:00,ZBSJ 021600Z 34002MPS CAVOK 20/16 Q1006 NOSIG
ZBSJ,2016-09-02 17:00,ZBSJ 021700Z 33002MPS CAVOK 19/16 Q1006 NOSIG
ZBSJ,2016-09-02 18:00,ZBSJ 021800Z 35001MPS CAVOK 19/16 Q1006 NOSIG
ZBSJ,2016-09-02 19:00,ZBSJ 021900Z 33002MPS CAVOK 18/16 Q1006 NOSIG
ZBSJ,2016-09-02 20:00,ZBSJ 022000Z 34003MPS CAVOK 19/16 Q1006 NOSIG
ZBSJ,2016-09-02 21:00,ZBSJ 022100Z 33001MPS CAVOK 17/16 Q1007 NOSIG
ZBSJ,2016-09-02 22:00,ZBSJ 022200Z 36001MPS CAVOK 18/16 Q1007 NOSIG
ZBSJ,2016-09-02 23:00,ZBSJ 022300Z 01001MPS CAVOK 20/17 Q1008 NOSIG
ZBSJ,2016-09-03 00:00,ZBSJ 030000Z 02001MPS CAVOK 22/17 Q1008 NOSIG
ZBSJ,2016-09-03 01:00,ZBSJ 030100Z 05001MPS CAVOK 23/17 Q1008 NOSIG
ZBSJ,2016-09-03 02:00,ZBSJ 030200Z 35001MPS CAVOK 26/17 Q1009 NOSIG
ZBSJ,2016-09-03 03:00,ZBSJ 030300Z 13001MPS CAVOK 28/17 Q1008 NOSIG
ZBSJ,2016-09-03 04:00,ZBSJ 030400Z 17002MPS CAVOK 29/17 Q1008 NOSIG
ZBSJ,2016-09-03 05:00,ZBSJ 030500Z 20002MPS 160V250 CAVOK 29/17 Q1008 NOSIG
ZBSJ,2016-09-03 06:00,ZBSJ 030600Z 13002MPS 090V170 CAVOK 29/17 Q1007 NOSIG
ZBSJ,2016-09-03 07:00,ZBSJ 030700Z 17003MPS CAVOK 29/17 Q1006 NOSIG
ZBSJ,2016-09-03 08:00,ZBSJ 030800Z 15004MPS CAVOK 28/17 Q1006 NOSIG
ZBSJ,2016-09-03 09:00,ZBSJ 030900Z 16003MPS CAVOK 28/17 Q1007 NOSIG
ZBSJ,2016-09-03 10:00,ZBSJ 031000Z 00000MPS CAVOK 26/18 Q1008 NOSIG
ZBSJ,2016-09-03 11:00,ZBSJ 031100Z 32003MPS CAVOK 24/18 Q1009 NOSIG
ZBSJ,2016-09-03 12:00,ZBSJ 031200Z 10004MPS 070V150 7000 -RA OVC046 23/19 Q1007 NOSIG
ZBSJ,2016-09-03 13:00,ZBSJ 031300Z 27003MPS 240V300 9999 -TSRA SCT033CB OVC046 23/18 Q1008 BECMG AT1350 NSW
ZBSJ,2016-09-03 14:00,ZBSJ 031400Z 30005MPS 9999 -SHRA FEW033 OVC046 22/18 Q1009 RETS NOSIG
ZBSJ,2016-09-03 15:00,ZBSJ 031500Z 33003MPS 7000 SCT046 21/18 Q1009 NOSIG
ZBSJ,2016-09-03 16:00,ZBSJ 031600Z 04001MPS 5000 BR SCT046 20/18 Q1009 NOSIG
ZBSJ,2016-09-03 17:00,ZBSJ 031700Z 33003MPS 8000 FEW046 20/18 Q1010 NOSIG
ZBSJ,2016-09-03 18:00,ZBSJ 031800Z 02002MPS CAVOK 21/18 Q1010 NOSIG
ZBSJ,2016-09-03 19:00,ZBSJ 031900Z 26001MPS CAVOK 20/17 Q1010 NOSIG
ZBSJ,2016-09-03 20:00,ZBSJ 032000Z 29004MPS 7000 NSC 19/18 Q1010 NOSIG
ZBSJ,2016-09-03 21:00,ZBSJ 032100Z 00000MPS 7000 NSC 19/18 Q1010 NOSIG
ZBSJ,2016-09-03 22:00,ZBSJ 032200Z 32001MPS 7000 NSC 19/18 Q1010 NOSIG
ZBSJ,2016-09-03 23:00,ZBSJ 032300Z 32002MPS 260V010 6000 NSC 20/18 Q1011 BECMG AT0030 -TSRA
ZBSJ,2016-09-04 00:00,ZBSJ 040000Z 15005MPS 130V200 6000 -TSRA FEW033CB 21/19 Q1009 BECMG AT0120 NSW
ZBSJ,2016-09-04 01:00,ZBSJ 040100Z 32002MPS 270V350 6000 FEW046 24/20 Q1011 RETS NOSIG
ZBSJ,2016-09-04 02:00,ZBSJ 040200Z 09001MPS CAVOK 25/20 Q1011 NOSIG
ZBSJ,2016-09-04 03:00,ZBSJ 040300Z 17002MPS 090V240 CAVOK 28/19 Q1010 NOSIG
ZBSJ,2016-09-04 04:00,ZBSJ 040400Z 19004MPS 150V220 9999 FEW040 29/18 Q1009 NOSIG
ZBSJ,2016-09-04 05:00,ZBSJ 040500Z 14004MPS 110V180 9999 FEW040 30/19 Q1009 NOSIG
ZBSJ,2016-09-04 06:00,ZBSJ 040600Z 16004MPS 120V190 CAVOK 31/19 Q1008 NOSIG
ZBSJ,2016-09-04 07:00,ZBSJ 040700Z 15004MPS CAVOK 31/19 Q1007 NOSIG
ZBSJ,2016-09-04 08:00,ZBSJ 040800Z 12003MPS 080V150 CAVOK 30/19 Q1007 NOSIG
ZBSJ,2016-09-04 09:00,ZBSJ 040900Z 10002MPS 9999 TS FEW030CB BKN046 30/20 Q1007 NOSIG
ZBSJ,2016-09-04 10:00,ZBSJ 041000Z 06005MPS 4000 BR FEW030TCU SCT040 25/21 Q1008 RETS NOSIG
ZBSJ,2016-09-04 11:00,ZBSJ 041100Z 13003MPS 100V160 4000 TS BR FEW030CB BKN046 24/21 Q1008 BECMG NSW
ZBSJ,2016-09-04 12:00,ZBSJ 041200Z 02001MPS 5000 BR SCT040 23/20 Q1009 RETS NOSIG
ZBSJ,2016-09-04 13:00,ZBSJ 041300Z 02001MPS 5000 BR SCT040 22/20 Q1010 NOSIG
ZBSJ,2016-09-04 14:00,ZBSJ 041400Z 03001MPS 5000 BR SCT040 22/20 Q1011 NOSIG
ZBSJ,2016-09-04 15:00,ZBSJ 041500Z 32001MPS 5000 BR SCT040 21/20 Q1011 NOSIG
ZBSJ,2016-09-04 16:00,ZBSJ 041600Z 33001MPS 4500 BR SCT040 21/19 Q1011 NOSIG
ZBSJ,2016-09-04 17:00,ZBSJ 041700Z 33003MPS 3000 BR NSC 20/19 Q1011 NOSIG
ZBSJ,2016-09-04 18:00,ZBSJ 041800Z 35001MPS 3000 BR NSC 21/19 Q1011 NOSIG
ZBSJ,2016-09-04 19:00,ZBSJ 041900Z 33002MPS 3500 BR NSC 20/19 Q1010 NOSIG
ZBSJ,2016-09-04 20:00,ZBSJ 042000Z 32003MPS 3500 BR NSC 19/18 Q1010 NOSIG
ZBSJ,2016-09-04 21:00,ZBSJ 042100Z 32003MPS 3500 BR NSC 18/18 Q1010 NOSIG
ZBSJ,2016-09-04 22:00,ZBSJ 042200Z 33002MPS 2500 BR NSC 18/18 Q1011 NOSIG
ZBSJ,2016-09-04 23:00,ZBSJ 042300Z 32002MPS 2700 BR NSC 20/19 Q1011 BECMG TL0030 3000
ZBSJ,2016-09-05 00:00,ZBSJ 050000Z 01001MPS 4000 BR NSC 22/19 Q1012 NOSIG
ZBSJ,2016-09-05 01:00,ZBSJ 050100Z 01001MPS 8000 NSC 24/18 Q1012 NOSIG
ZBSJ,2016-09-05 02:00,ZBSJ 050200Z 05002MPS 6000 NSC 26/19 Q1012 NOSIG
ZBSJ,2016-09-05 03:00,ZBSJ 050300Z 01001MPS 6000 NSC 27/19 Q1011 NOSIG
ZBSJ,2016-09-05 04:00,ZBSJ 050400Z 07001MPS 6000 NSC 30/19 Q1011 NOSIG
ZBSJ,2016-09-05 05:00,ZBSJ 050500Z 08001MPS CAVOK 31/17 Q1010 NOSIG
ZBSJ,2016-09-05 06:00,ZBSJ 050600Z 10002MPS CAVOK 31/19 Q1010 NOSIG
ZBSJ,2016-09-05 07:00,ZBSJ 050700Z 36001MPS CAVOK 31/17 Q1009 NOSIG
ZBSJ,2016-09-05 08:00,ZBSJ 050800Z 09002MPS 060V130 CAVOK 31/19 Q1009 NOSIG
ZBSJ,2016-09-05 09:00,ZBSJ 050900Z 16003MPS CAVOK 31/18 Q1009 NOSIG
ZBSJ,2016-09-05 10:00,ZBSJ 051000Z 17002MPS CAVOK 28/19 Q1009 NOSIG
ZBSJ,2016-09-05 11:00,ZBSJ 051100Z 19003MPS CAVOK 27/18 Q1009 NOSIG
ZBSJ,2016-09-05 12:00,ZBSJ 051200Z 14002MPS CAVOK 26/19 Q1010 NOSIG
ZBSJ,2016-09-05 13:00,ZBSJ 051300Z 08001MPS 8000 NSC 24/20 Q1010 NOSIG
ZBSJ,2016-09-05 14:00,ZBSJ 051400Z 19002MPS 7000 NSC 23/20 Q1010 NOSIG
ZBSJ,2016-09-05 15:00,ZBSJ 051500Z 17001MPS 6000 NSC 22/20 Q1010 NOSIG
ZBSJ,2016-09-05 16:00,ZBSJ 051600Z 36001MPS 5000 BR NSC 22/19 Q1010 NOSIG
ZBSJ,2016-09-05 17:00,ZBSJ 051700Z 03001MPS 4500 BR NSC 21/19 Q1010 NOSIG
ZBSJ,2016-09-05 18:00,ZBSJ 051800Z 32002MPS 5000 BR NSC 22/19 Q1010 NOSIG
ZBSJ,2016-09-05 19:00,ZBSJ 051900Z 32002MPS CAVOK 21/19 Q1010 NOSIG
ZBSJ,2016-09-05 20:00,ZBSJ 052000Z 32002MPS CAVOK 20/19 Q1010 NOSIG
ZBSJ,2016-09-05 21:00,ZBSJ 052100Z 30002MPS CAVOK 20/18 Q1010 NOSIG
ZBSJ,2016-09-05 22:00,ZBSJ 052200Z 32002MPS 8000 NSC 20/18 Q1010 NOSIG
ZBSJ,2016-09-05 23:00,ZBSJ 052300Z 32002MPS 8000 NSC 21/18 Q1010 NOSIG
ZBSJ,2016-09-06 00:00,ZBSJ 060000Z 30002MPS 6000 NSC 24/18 Q1010 NOSIG
ZBSJ,2016-09-06 01:00,ZBSJ 060100Z 29003MPS 6000 NSC 25/19 Q1010 NOSIG
ZBSJ,2016-09-06 02:00,ZBSJ 060200Z 17001MPS 9999 SCT046 27/19 Q1010 NOSIG
ZBSJ,2016-09-06 03:00,ZBSJ 060300Z 26001MPS CAVOK 29/18 Q1010 NOSIG
ZBSJ,2016-09-06 04:00,ZBSJ 060400Z 34002MPS CAVOK 29/18 Q1009 NOSIG
ZBSJ,2016-09-06 05:00,ZBSJ 060500Z 30002MPS CAVOK 29/18 Q1009 NOSIG
ZBSJ,2016-09-06 06:00,ZBSJ 060600Z 31005MPS 280V340 CAVOK 30/17 Q1008 NOSIG
ZBSJ,2016-09-06 07:00,ZBSJ 060700Z 28002MPS 250V320 CAVOK 29/16 Q1008 NOSIG
ZBSJ,2016-09-06 08:00,ZBSJ 060800Z 19005MPS CAVOK 25/18 Q1009 NOSIG
ZBSJ,2016-09-06 09:00,ZBSJ 060900Z 16004MPS 9999 SCT046 24/17 Q1009 NOSIG
ZBSJ,2016-09-06 10:00,ZBSJ 061000Z 17004MPS 9999 SCT046 23/17 Q1009 NOSIG
ZBSJ,2016-09-06 11:00,ZBSJ 061100Z 19004MPS 9999 SCT026 OVC046 22/18 Q1010 NOSIG
ZBSJ,2016-09-06 12:00,ZBSJ 061200Z 24003MPS 9999 SCT026 OVC046 22/18 Q1010 NOSIG
ZBSJ,2016-09-06 13:00,ZBSJ 061300Z 26005MPS 9999 OVC046 21/15 Q1009 NOSIG
ZBSJ,2016-09-06 14:00,ZBSJ 061400Z 27004MPS 240V300 9999 OVC046 21/15 Q1009 NOSIG
ZBSJ,2016-09-06 15:00,ZBSJ 061500Z 24006MPS 9999 OVC046 21/15 Q1008 NOSIG
ZBSJ,2016-09-06 16:00,ZBSJ 061600Z 29002MPS 250V310 9999 OVC046 21/15 Q1008 NOSIG
ZBSJ,2016-09-06 17:00,ZBSJ 061700Z 33001MPS 9999 OVC046 20/15 Q1008 NOSIG
ZBSJ,2016-09-06 18:00,ZBSJ 061800Z 20002MPS 9999 OVC046 19/15 Q1007 NOSIG
ZBSJ,2016-09-06 19:00,ZBSJ 061900Z 26002MPS CAVOK 20/15 Q1007 NOSIG
ZBSJ,2016-09-06 20:00,ZBSJ 062000Z 24002MPS CAVOK 18/15 Q1007 NOSIG
ZBSJ,2016-09-06 21:00,ZBSJ 062100Z 27002MPS CAVOK 19/14 Q1007 NOSIG
ZBSJ,2016-09-06 22:00,ZBSJ 062200Z 25002MPS CAVOK 17/14 Q1007 NOSIG
ZBSJ,2016-09-06 23:00,ZBSJ 062300Z 28004MPS CAVOK 20/15 Q1008 NOSIG
ZBSJ,2016-09-07 00:00,ZBSJ 070000Z 27004MPS CAVOK 22/15 Q1008 NOSIG
ZBSJ,2016-09-07 01:00,ZBSJ 070100Z 27006MPS CAVOK 25/14 Q1008 NOSIG
ZBSJ,2016-09-07 02:00,ZBSJ 070200Z 28005MPS CAVOK 28/14 Q1008 NOSIG
ZBSJ,2016-09-07 03:00,ZBSJ 070300Z 28004MPS 230V320 CAVOK 29/13 Q1007 NOSIG
ZBSJ,2016-09-07 04:00,ZBSJ 070400Z 27004MPS 220V300 CAVOK 30/12 Q1007 NOSIG
ZBSJ,2016-09-07 05:00,ZBSJ 070500Z 24003MPS 180V290 CAVOK 31/12 Q1006 NOSIG
ZBSJ,2016-09-07 06:00,ZBSJ 070600Z 18003MPS 130V240 CAVOK 32/13 Q1005 NOSIG
ZBSJ,2016-09-07 07:00,ZBSJ 070700Z 19003MPS 9999 FEW030 32/12 Q1005 NOSIG
ZBSJ,2016-09-07 08:00,ZBSJ 070800Z 17005MPS 9999 FEW030 32/13 Q1004 NOSIG
ZBSJ,2016-09-07 09:00,ZBSJ 070900Z 17004MPS 9999 FEW030 30/15 Q1004 NOSIG
ZBSJ,2016-09-07 10:00,ZBSJ 071000Z 18003MPS 9999 FEW030 SCT033 BKN046 28/15 Q1005 BECMG AT1030 -TSRA
ZBSJ,2016-09-07 11:00,ZBSJ 071100Z 18006MPS 9999 TS SCT030 FEW030CB 24/17 Q1005 BECMG AT1140 NSW
ZBSJ,2016-09-07 12:00,ZBSJ 071200Z 20002MPS 9999 TS FEW030CB FEW033 23/13 Q1006 BECMG AT1240 NSW
ZBSJ,2016-09-07 13:00,ZBSJ 071300Z 27004MPS 9999 BKN030 24/14 Q1007 RETS NOSIG
ZBSJ,2016-09-07 14:00,ZBSJ 071400Z 29003MPS 9999 TS FEW030CB BKN033 23/15 Q1008 BECMG AT1530 NSW
ZBSJ,2016-09-07 15:00,ZBSJ 071500Z 28006MPS 9999 OVC040 23/15 Q1009 RETS NOSIG
ZBSJ,2016-09-07 16:00,ZBSJ 071600Z 24002MPS 210V280 9999 OVC046 22/15 Q1007 NOSIG
ZBSJ,2016-09-07 17:00,ZBSJ 071700Z 31003MPS 9999 BKN040 21/15 Q1007 NOSIG
ZBSJ,2016-09-07 18:00,ZBSJ 071800Z 31004MPS CAVOK 20/15 Q1007 NOSIG
ZBSJ,2016-09-07 19:00,ZBSJ 071900Z 30006MPS CAVOK 21/14 Q1007 NOSIG
ZBSJ,2016-09-07 20:00,ZBSJ 072000Z 29005MPS CAVOK 21/13 Q1006 NOSIG
ZBSJ,2016-09-07 21:00,ZBSJ 072100Z 29005MPS CAVOK 20/13 Q1006 NOSIG
ZBSJ,2016-09-07 22:00,ZBSJ 072200Z 28004MPS CAVOK 19/13 Q1007 NOSIG
ZBSJ,2016-09-07 23:00,ZBSJ 072300Z 28005MPS CAVOK 21/13 Q1007 NOSIG
ZBSJ,2016-09-08 00:00,ZBSJ 080000Z 28004MPS CAVOK 24/14 Q1008 NOSIG
ZBSJ,2016-09-08 01:00,ZBSJ 080100Z 30003MPS CAVOK 27/14 Q1008 NOSIG
ZBSJ,2016-09-08 02:00,ZBSJ 080200Z 31003MPS 270V360 CAVOK 29/13 Q1008 NOSIG
ZBSJ,2016-09-08 03:00,ZBSJ 080300Z 33003MPS 290V020 CAVOK 31/13 Q1008 NOSIG
ZBSJ,2016-09-08 04:00,ZBSJ 080400Z VRB02MPS CAVOK 31/12 Q1007 NOSIG
ZBSJ,2016-09-08 05:00,ZBSJ 080500Z 36003MPS 320V070 CAVOK 33/10 Q1007 NOSIG
ZBSJ,2016-09-08 06:00,ZBSJ 080600Z 10001MPS CAVOK 32/10 Q1006 NOSIG
ZBSJ,2016-09-08 07:00,ZBSJ 080700Z 36001MPS 9999 FEW033 33/09 Q1006 NOSIG
ZBSJ,2016-09-08 08:00,ZBSJ 080800Z 13002MPS 9999 SCT033 31/13 Q1006 NOSIG
ZBSJ,2016-09-08 09:00,ZBSJ 080900Z 16003MPS 9999 SCT033 31/13 Q1006 NOSIG
ZBSJ,2016-09-08 10:00,ZBSJ 081000Z 18002MPS 9999 SCT033 28/15 Q1006 NOSIG
ZBSJ,2016-09-08 11:00,ZBSJ 081100Z 16004MPS CAVOK 22/14 Q1006 NOSIG
ZBSJ,2016-09-08 12:00,ZBSJ 081200Z 17003MPS CAVOK 22/15 Q1007 NOSIG
ZBSJ,2016-09-08 13:00,ZBSJ 081300Z 18003MPS CAVOK 21/15 Q1008 NOSIG
ZBSJ,2016-09-08 14:00,ZBSJ 081400Z 17002MPS CAVOK 20/15 Q1008 NOSIG
ZBSJ,2016-09-08 15:00,ZBSJ 081500Z 23001MPS CAVOK 20/15 Q1008 NOSIG
ZBSJ,2016-09-08 16:00,ZBSJ 081600Z 35001MPS CAVOK 19/15 Q1008 NOSIG
ZBSJ,2016-09-08 17:00,ZBSJ 081700Z 21001MPS CAVOK 18/15 Q1009 NOSIG
ZBSJ,2016-09-08 18:00,ZBSJ 081800Z 31001MPS CAVOK 18/15 Q1009 NOSIG
ZBSJ,2016-09-08 19:00,ZBSJ 081900Z 31003MPS CAVOK 19/14 Q1008 NOSIG
ZBSJ,2016-09-08 20:00,ZBSJ 082000Z 32003MPS CAVOK 17/13 Q1009 NOSIG
ZBSJ,2016-09-08 21:00,ZBSJ 082100Z 32003MPS CAVOK 17/13 Q1008 NOSIG
ZBSJ,2016-09-08 22:00,ZBSJ 082200Z 33003MPS CAVOK 17/13 Q1009 NOSIG
ZBSJ,2016-09-08 23:00,ZBSJ 082300Z 28004MPS CAVOK 20/12 Q1009 NOSIG
ZBSJ,2016-09-09 00:00,ZBSJ 090000Z 30003MPS 260V340 CAVOK 22/14 Q1009 NOSIG
ZBSJ,2016-09-09 01:00,ZBSJ 090100Z 28004MPS CAVOK 24/14 Q1009 NOSIG
ZBSJ,2016-09-09 02:00,ZBSJ 090200Z 29003MPS CAVOK 28/13 Q1009 NOSIG
ZBSJ,2016-09-09 03:00,ZBSJ 090300Z 30002MPS 230V010 CAVOK 31/13 Q1009 NOSIG
ZBSJ,2016-09-09 04:00,ZBSJ 090400Z 30003MPS 250V340 CAVOK 32/11 Q1009 NOSIG
ZBSJ,2016-09-09 05:00,ZBSJ 090500Z 29004MPS CAVOK 34/11 Q1008 NOSIG
ZBSJ,2016-09-09 06:00,ZBSJ 090600Z 35003MPS 310V010 CAVOK 33/08 Q1008 NOSIG
ZBSJ,2016-09-09 07:00,ZBSJ 090700Z 35002MPS CAVOK 32/10 Q1008 NOSIG
ZBSJ,2016-09-09 08:00,ZBSJ 090800Z 01001MPS CAVOK 32/09 Q1008 NOSIG
ZBSJ,2016-09-09 09:00,ZBSJ 090900Z 13001MPS CAVOK 31/14 Q1008 NOSIG
ZBSJ,2016-09-09 10:00,ZBSJ 091000Z 16003MPS CAVOK 27/16 Q1008 NOSIG
ZBSJ,2016-09-09 11:00,ZBSJ 091100Z 16003MPS CAVOK 25/15 Q1008 NOSIG
ZBSJ,2016-09-09 12:00,ZBSJ 091200Z 13002MPS CAVOK 25/16 Q1009 NOSIG
ZBSJ,2016-09-09 13:00,ZBSJ 091300Z 09003MPS CAVOK 24/16 Q1009 NOSIG
ZBSJ,2016-09-09 14:00,ZBSJ 091400Z 08002MPS CAVOK 23/17 Q1009 NOSIG
ZBSJ,2016-09-09 15:00,ZBSJ 091500Z 09002MPS 8000 NSC 22/17 Q1010 NOSIG
ZBSJ,2016-09-09 16:00,ZBSJ 091600Z 09002MPS 8000 NSC 21/17 Q1009 NOSIG
ZBSJ,2016-09-09 17:00,ZBSJ 091700Z 32001MPS 7000 NSC 21/17 Q1009 NOSIG
ZBSJ,2016-09-09 18:00,ZBSJ 091800Z 01001MPS 7000 NSC 19/17 Q1009 NOSIG
ZBSJ,2016-09-09 19:00,ZBSJ 091900Z 32003MPS 7000 NSC 20/16 Q1009 NOSIG
ZBSJ,2016-09-09 20:00,ZBSJ 092000Z 30003MPS 7000 NSC 20/16 Q1009 NOSIG
ZBSJ,2016-09-09 21:00,ZBSJ 092100Z 28002MPS CAVOK 20/15 Q1009 NOSIG
ZBSJ,2016-09-09 22:00,ZBSJ 092200Z 31003MPS CAVOK 19/15 Q1010 NOSIG
ZBSJ,2016-09-09 23:00,ZBSJ 092300Z 34002MPS CAVOK 19/15 Q1010 NOSIG
ZBSJ,2016-09-10 00:00,ZBSJ 100000Z 33002MPS CAVOK 22/16 Q1011 NOSIG
ZBSJ,2016-09-10 01:00,ZBSJ 100100Z 36002MPS CAVOK 25/16 Q1011 NOSIG
ZBSJ,2016-09-10 02:00,ZBSJ 100200Z 05003MPS 340V090 CAVOK 26/14 Q1011 NOSIG
ZBSJ,2016-09-10 03:00,ZBSJ 100300Z 05004MPS 350V080 CAVOK 28/13 Q1011 NOSIG
ZBSJ,2016-09-10 04:00,ZBSJ 100400Z 08002MPS CAVOK 29/14 Q1010 NOSIG
ZBSJ,2016-09-10 05:00,ZBSJ 100500Z 09003MPS 050V170 CAVOK 29/13 Q1010 NOSIG
ZBSJ,2016-09-10 06:00,ZBSJ 100600Z 05002MPS CAVOK 30/13 Q1009 NOSIG
ZBSJ,2016-09-10 07:00,ZBSJ 100700Z 10002MPS 060V150 CAVOK 31/14 Q1008 NOSIG
ZBSJ,2016-09-10 08:00,ZBSJ 100800Z 12002MPS CAVOK 30/14 Q1008 NOSIG
ZBSJ,2016-09-10 09:00,ZBSJ 100900Z 18001MPS CAVOK 29/14 Q1009 NOSIG
ZBSJ,2016-09-10 10:00,ZBSJ 101000Z 28008G14MPS 250V320 9999 TSRA SCT033CB BKN046 24/15 Q1010 NOSIG
ZBSJ,2016-09-10 11:00,ZBSJ 101100Z 33002MPS 9999 SCT046 21/17 Q1010 RETSRA NOSIG
ZBSJ,2016-09-10 12:00,ZBSJ 101200Z 36004MPS 9999 SCT046 22/16 Q1011 NOSIG
ZBSJ,2016-09-10 13:00,ZBSJ 101300Z 33002MPS 9999 SCT046 19/15 Q1012 NOSIG
ZBSJ,2016-09-10 14:00,ZBSJ 101400Z 33003MPS 9999 SCT046 18/16 Q1012 NOSIG
ZBSJ,2016-09-10 15:00,ZBSJ 101500Z 30003MPS 9999 SCT046 19/15 Q1012 NOSIG
ZBSJ,2016-09-10 16:00,ZBSJ 101600Z 33003MPS 9999 SCT040 19/16 Q1010 NOSIG
ZBSJ,2016-09-10 17:00,ZBSJ 101700Z 25003MPS 240V320 9999 SCT040 20/17 Q1011 NOSIG
ZBSJ,2016-09-10 18:00,ZBSJ 101800Z 24002MPS 190V320 9999 SCT040 20/17 Q1012 NOSIG
ZBSJ,2016-09-10 19:00,ZBSJ 101900Z 18003MPS 9999 -RA OVC040 20/16 Q1012 NOSIG
ZBSJ,2016-09-10 20:00,ZBSJ 102000Z 18001MPS 9999 OVC040 18/16 Q1011 NOSIG
ZBSJ,2016-09-10 21:00,ZBSJ 102100Z 34001MPS 9999 OVC040 17/15 Q1011 NOSIG
ZBSJ,2016-09-10 22:00,ZBSJ 102200Z 34003MPS CAVOK 17/15 Q1011 NOSIG
ZBSJ,2016-09-10 23:00,ZBSJ 102300Z 33002MPS CAVOK 18/16 Q1012 NOSIG
ZBSJ,2016-09-11 00:00,ZBSJ 110000Z 05001MPS 7000 NSC 19/17 Q1013 NOSIG
ZBSJ,2016-09-11 01:00,ZBSJ 110100Z 35001MPS 8000 NSC 21/17 Q1013 NOSIG
ZBSJ,2016-09-11 02:00,ZBSJ 110200Z 06002MPS CAVOK 23/17 Q1014 NOSIG
ZBSJ,2016-09-11 03:00,ZBSJ 110300Z 04002MPS 340V090 CAVOK 24/17 Q1013 NOSIG
ZBSJ,2016-09-11 04:00,ZBSJ 110400Z 10002MPS 9999 FEW033 25/17 Q1013 NOSIG
ZBSJ,2016-09-11 05:00,ZBSJ 110500Z 11002MPS 9999 FEW033 27/16 Q1013 NOSIG
ZBSJ,2016-09-11 05:30,ZBSJ 110530Z 14003MPS 080V200 9999 FEW033 SCT046 27/16 Q1012 NOSIG
ZBSJ,2016-09-11 06:00,ZBSJ 110600Z 08001MPS 9999 FEW033 27/16 Q1012 NOSIG
ZBSJ,2016-09-11 06:30,ZBSJ 110630Z 14002MPS 9999 FEW033TCU SCT046 27/15 Q1012 NOSIG
ZBSJ,2016-09-11 07:00,ZBSJ 110700Z 08001MPS 9999 FEW033TCU BKN046 27/16 Q1012 NOSIG
ZBSJ,2016-09-11 07:30,ZBSJ 110730Z 05001MPS 9999 FEW033TCU BKN046 27/16 Q1012 NOSIG
ZBSJ,2016-09-11 08:00,ZBSJ 110800Z 05004MPS 350V080 9999 FEW033TCU BKN046 26/18 Q1012 NOSIG
ZBSJ,2016-09-11 08:30,ZBSJ 110830Z 05005MPS 020V080 9999 BKN046 24/15 Q1013 NOSIG
ZBSJ,2016-09-11 09:00,ZBSJ 110900Z 06005MPS 9999 -TSRA SCT033CB OVC046 21/17 Q1013 NOSIG
ZBSJ,2016-09-11 10:00,ZBSJ 111000Z 11001MPS 8000 -SHRA BKN046 21/19 Q1013 RETS NOSIG
ZBSJ,2016-09-11 11:00,ZBSJ 111100Z 01002MPS 330V030 6000 FEW046 21/18 Q1014 NOSIG
ZBSJ,2016-09-11 12:00,ZBSJ 111200Z 02002MPS 8000 NSC 20/17 Q1015 NOSIG
ZBSJ,2016-09-11 13:00,ZBSJ 111300Z 02001MPS 7000 NSC 19/17 Q1016 NOSIG
ZBSJ,2016-09-11 14:00,ZBSJ 111400Z 33002MPS 7000 NSC 19/17 Q1016 NOSIG
ZBSJ,2016-09-11 15:00,ZBSJ 111500Z 34002MPS 6000 NSC 18/17 Q1016 NOSIG
ZBSJ,2016-09-11 16:00,ZBSJ 111600Z 33002MPS 5000 BR NSC 18/17 Q1017 NOSIG
ZBSJ,2016-09-11 17:00,ZBSJ 111700Z 31003MPS 5000 BR NSC 18/17 Q1017 NOSIG
ZBSJ,2016-09-11 18:00,ZBSJ 111800Z 33002MPS 5000 BR NSC 17/16 Q1017 NOSIG
ZBSJ,2016-09-11 19:00,ZBSJ 111900Z 33003MPS 5000 BR NSC 17/16 Q1017 NOSIG
ZBSJ,2016-09-11 20:00,ZBSJ 112000Z 33002MPS 5000 BR NSC 17/16 Q1017 NOSIG
ZBSJ,2016-09-11 21:00,ZBSJ 112100Z 33001MPS 3500 BR NSC 16/16 Q1017 NOSIG
ZBSJ,2016-09-11 22:00,ZBSJ 112200Z 33001MPS 3000 BR NSC 16/16 Q1017 NOSIG
ZBSJ,2016-09-11 23:00,ZBSJ 112300Z 31002MPS 6000 NSC 18/17 Q1018 NOSIG
ZBSJ,2016-09-12 00:00,ZBSJ 120000Z 32002MPS 280V350 8000 NSC 20/17 Q1018 NOSIG
ZBSJ,2016-09-12 01:00,ZBSJ 120100Z 10001MPS 7000 NSC 22/18 Q1019 NOSIG
ZBSJ,2016-09-12 02:00,ZBSJ 120200Z 14001MPS 5000 HZ NSC 23/18 Q1019 NOSIG
ZBSJ,2016-09-12 03:00,ZBSJ 120300Z 06001MPS 6000 NSC 24/18 Q1018 NOSIG
ZBSJ,2016-09-12 04:00,ZBSJ 120400Z 21001MPS 7000 SCT033 25/17 Q1018 NOSIG
ZBSJ,2016-09-12 05:00,ZBSJ 120500Z 06001MPS 7000 SCT033 25/17 Q1017 NOSIG
ZBSJ,2016-09-12 06:00,ZBSJ 120600Z VRB02MPS 8000 NSC 26/17 Q1017 NOSIG
ZBSJ,2016-09-12 07:00,ZBSJ 120700Z 14001MPS CAVOK 27/17 Q1016 NOSIG
ZBSJ,2016-09-12 08:00,ZBSJ 120800Z 13002MPS 080V170 CAVOK 26/17 Q1016 NOSIG
ZBSJ,2016-09-12 09:00,ZBSJ 120900Z 15002MPS 120V180 CAVOK 26/18 Q1016 NOSIG
ZBSJ,2016-09-12 10:00,ZBSJ 121000Z 14001MPS 6000 NSC 25/18 Q1016 NOSIG
ZBSJ,2016-09-12 11:00,ZBSJ 121100Z 14001MPS 6000 NSC 23/19 Q1016 NOSIG
ZBSJ,2016-09-12 12:00,ZBSJ 121200Z 14002MPS 5000 HZ NSC 23/18 Q1017 NOSIG
ZBSJ,2016-09-12 13:00,ZBSJ 121300Z 12001MPS 5000 HZ NSC 22/19 Q1018 NOSIG
ZBSJ,2016-09-12 14:00,ZBSJ 121400Z 14001MPS 5000 BR NSC 21/20 Q1018 NOSIG
ZBSJ,2016-09-12 15:00,ZBSJ 121500Z 14001MPS 4500 BR NSC 21/19 Q1018 NOSIG
ZBSJ,2016-09-12 16:00,ZBSJ 121600Z 03001MPS 4000 BR NSC 21/19 Q1018 NOSIG
ZBSJ,2016-09-12 17:00,ZBSJ 121700Z 00000MPS 4000 BR NSC 21/19 Q1018 NOSIG
ZBSJ,2016-09-12 18:00,ZBSJ 121800Z 19001MPS 4000 BR NSC 20/19 Q1017 NOSIG
ZBSJ,2016-09-12 19:00,ZBSJ 121900Z 03001MPS 3000 BR NSC 21/19 Q1017 NOSIG
ZBSJ,2016-09-12 20:00,ZBSJ 122000Z 05001MPS 3000 BR NSC 20/19 Q1017 NOSIG
ZBSJ,2016-09-12 21:00,ZBSJ 122100Z 04001MPS 3000 BR NSC 20/19 Q1018 NOSIG
ZBSJ,2016-09-12 22:00,ZBSJ 122200Z 32001MPS 2300 BR NSC 20/19 Q1018 NOSIG
ZBSJ,2016-09-12 23:00,ZBSJ 122300Z 00000MPS 2000 BR NSC 20/19 Q1018 NOSIG
ZBSJ,2016-09-13 00:00,ZBSJ 130000Z 34001MPS 2000 BR NSC 21/19 Q1018 BECMG TL0130 3000
ZBSJ,2016-09-13 01:00,ZBSJ 130100Z 35001MPS 2300 BR NSC 23/19 Q1019 BECMG TL0230 3000
ZBSJ,2016-09-13 02:00,ZBSJ 130200Z 28001MPS 2500 HZ NSC 25/19 Q1019 BECMG TL0300 3000
ZBSJ,2016-09-13 03:00,ZBSJ 130300Z 07001MPS 3000 HZ NSC 26/18 Q1018 NOSIG
ZBSJ,2016-09-13 04:00,ZBSJ 130400Z 09001MPS 3500 HZ NSC 27/18 Q1018 NOSIG
ZBSJ,2016-09-13 05:00,ZBSJ 130500Z 13002MPS 4000 HZ NSC 28/17 Q1017 NOSIG
ZBSJ,2016-09-13 06:00,ZBSJ 130600Z 18002MPS 4000 HZ NSC 29/18 Q1016 NOSIG
ZBSJ,2016-09-13 07:00,ZBSJ 130700Z 17002MPS 140V210 4000 HZ NSC 29/17 Q1015 NOSIG
ZBSJ,2016-09-13 08:00,ZBSJ 130800Z 18003MPS 150V220 5000 HZ NSC 29/17 Q1015 NOSIG
ZBSJ,2016-09-13 09:00,ZBSJ 130900Z 15004MPS 6000 NSC 28/18 Q1015 NOSIG
ZBSJ,2016-09-13 10:00,ZBSJ 131000Z 13002MPS 6000 NSC 26/19 Q1016 NOSIG
ZBSJ,2016-09-13 11:00,ZBSJ 131100Z 14002MPS 5000 HZ NSC 24/19 Q1016 NOSIG
ZBSJ,2016-09-13 12:00,ZBSJ 131200Z 15002MPS 4000 BR NSC 21/19 Q1017 NOSIG
ZBSJ,2016-09-13 13:00,ZBSJ 131300Z 18001MPS 4000 BR NSC 22/19 Q1017 NOSIG
ZBSJ,2016-09-13 14:00,ZBSJ 131400Z 17001MPS 4500 BR NSC 21/19 Q1018 NOSIG
ZBSJ,2016-09-13 15:00,ZBSJ 131500Z 18001MPS 4000 BR NSC 20/19 Q1018 NOSIG
ZBSJ,2016-09-13 16:00,ZBSJ 131600Z 11001MPS 4000 BR NSC 19/18 Q1018 NOSIG
ZBSJ,2016-09-13 17:00,ZBSJ 131700Z 04001MPS 2700 BR NSC 19/18 Q1018 NOSIG
ZBSJ,2016-09-13 18:00,ZBSJ 131800Z 02001MPS 2200 BR NSC 19/18 Q1017 NOSIG
ZBSJ,2016-09-13 19:00,ZBSJ 131900Z 07001MPS 2000 BR NSC 18/17 Q1017 NOSIG
ZBSJ,2016-09-13 20:00,ZBSJ 132000Z 24001MPS 2200 BR NSC 18/18 Q1017 NOSIG
ZBSJ,2016-09-13 21:00,ZBSJ 132100Z 32002MPS 2500 BR NSC 18/18 Q1017 NOSIG
ZBSJ,2016-09-13 22:00,ZBSJ 132200Z 29002MPS 2200 BR NSC 18/17 Q1017 NOSIG
ZBSJ,2016-09-13 23:00,ZBSJ 132300Z 33002MPS 2000 BR NSC 19/18 Q1018 BECMG TL0030 3000
ZBSJ,2016-09-14 00:00,ZBSJ 140000Z 35002MPS 2000 BR NSC 21/19 Q1018 BECMG TL0130 3000
ZBSJ,2016-09-14 01:00,ZBSJ 140100Z 28002MPS 3000 BR NSC 23/19 Q1018 NOSIG
ZBSJ,2016-09-14 02:00,ZBSJ 140200Z 26001MPS 4500 HZ NSC 26/18 Q1018 NOSIG
ZBSJ,2016-09-14 03:00,ZBSJ 140300Z 23002MPS 4500 HZ NSC 27/18 Q1017 NOSIG
ZBSJ,2016-09-14 04:00,ZBSJ 140400Z 18002MPS 4000 HZ NSC 28/19 Q1016 NOSIG
ZBSJ,2016-09-14 05:00,ZBSJ 140500Z 17001MPS 4000 HZ NSC 29/19 Q1016 NOSIG
ZBSJ,2016-09-14 06:00,ZBSJ 140600Z 19002MPS 5000 HZ NSC 30/18 Q1015 NOSIG
ZBSJ,2016-09-14 07:00,ZBSJ 140700Z 13002MPS 080V170 6000 NSC 30/19 Q1014 NOSIG
ZBSJ,2016-09-14 08:00,ZBSJ 140800Z 17003MPS 7000 NSC 30/18 Q1014 NOSIG
ZBSJ,2016-09-14 09:00,ZBSJ 140900Z 16003MPS 6000 NSC 29/20 Q1014 NOSIG
ZBSJ,2016-09-14 10:00,ZBSJ 141000Z 14003MPS 5000 HZ NSC 26/20 Q1014 NOSIG
ZBSJ,2016-09-14 11:00,ZBSJ 141100Z 15003MPS 4000 BR NSC 24/20 Q1014 NOSIG
ZBSJ,2016-09-14 12:00,ZBSJ 141200Z 15003MPS 4000 BR NSC 22/20 Q1015 NOSIG
ZBSJ,2016-09-14 13:00,ZBSJ 141300Z 15002MPS 4000 BR NSC 22/20 Q1016 NOSIG
ZBSJ,2016-09-14 14:00,ZBSJ 141400Z 09001MPS 3500 BR NSC 22/20 Q1016 NOSIG
ZBSJ,2016-09-14 15:00,ZBSJ 141500Z 09001MPS 3000 BR NSC 21/20 Q1015 NOSIG
ZBSJ,2016-09-14 16:00,ZBSJ 141600Z 09001MPS 3000 BR NSC 20/20 Q1015 NOSIG
ZBSJ,2016-09-14 17:00,ZBSJ 141700Z 13001MPS 2500 BR NSC 20/19 Q1015 NOSIG
ZBSJ,2016-09-14 18:00,ZBSJ 141800Z 31001MPS 2500 BR NSC 19/19 Q1015 NOSIG
ZBSJ,2016-09-14 19:00,ZBSJ 141900Z 35001MPS 2000 BR NSC 20/19 Q1015 NOSIG
ZBSJ,2016-09-14 20:00,ZBSJ 142000Z 33001MPS 1800 BR NSC 19/19 Q1015 NOSIG
ZBSJ,2016-09-14 21:00,ZBSJ 142100Z 32002MPS 2200 BR NSC 20/19 Q1015 NOSIG
ZBSJ,2016-09-14 22:00,ZBSJ 142200Z 28002MPS 1600 R15/0900V1300U BR NSC 19/18 Q1015 NOSIG
ZBSJ,2016-09-14 23:00,ZBSJ 142300Z 31001MPS 2500 R33/1300D BR NSC 20/19 Q1015 NOSIG
ZBSJ,2016-09-15 00:00,ZBSJ 150000Z 36001MPS 2500 R33/1400N BR NSC 22/20 Q1015 BECMG TL0130 3000
ZBSJ,2016-09-15 01:00,ZBSJ 150100Z 32002MPS 2700 HZ NSC 25/20 Q1015 BECMG TL0200 3000
ZBSJ,2016-09-15 02:00,ZBSJ 150200Z 27001MPS 3500 HZ NSC 27/20 Q1015 NOSIG
ZBSJ,2016-09-15 03:00,ZBSJ 150300Z 19002MPS 3500 HZ NSC 28/20 Q1015 NOSIG
ZBSJ,2016-09-15 04:00,ZBSJ 150400Z 16002MPS 3500 HZ NSC 29/19 Q1014 NOSIG
ZBSJ,2016-09-15 05:00,ZBSJ 150500Z 18003MPS 110V250 4000 HZ NSC 30/19 Q1014 NOSIG
ZBSJ,2016-09-15 06:00,ZBSJ 150600Z 14002MPS 3500 HZ NSC 31/19 Q1013 NOSIG
ZBSJ,2016-09-15 07:00,ZBSJ 150700Z 13003MPS 090V170 3500 HZ NSC 31/20 Q1012 NOSIG
ZBSJ,2016-09-15 08:00,ZBSJ 150800Z 15002MPS 110V210 3500 HZ NSC 31/19 Q1012 NOSIG
ZBSJ,2016-09-15 09:00,ZBSJ 150900Z 13002MPS 3500 HZ NSC 30/21 Q1012 NOSIG
ZBSJ,2016-09-15 10:00,ZBSJ 151000Z 13002MPS 3000 HZ NSC 28/21 Q1012 BECMG 2000 BR
ZBSJ,2016-09-15 11:00,ZBSJ 151100Z 13002MPS 4500 HZ NSC 26/21 Q1013 NOSIG
ZBSJ,2016-09-15 12:00,ZBSJ 151200Z 11002MPS 4000 HZ NSC 24/21 Q1013 NOSIG
ZBSJ,2016-09-15 13:00,ZBSJ 151300Z 11002MPS 3500 BR NSC 23/21 Q1014 NOSIG
ZBSJ,2016-09-15 14:00,ZBSJ 151400Z 09002MPS 3500 BR NSC 24/21 Q1014 NOSIG
ZBSJ,2016-09-15 15:00,ZBSJ 151500Z 00000MPS 3000 BR NSC 22/20 Q1014 BECMG TL1630 2500 BR
ZBSJ,2016-09-15 16:00,ZBSJ 151600Z 10001MPS 2500 BR NSC 21/20 Q1014 NOSIG
ZBSJ,2016-09-15 17:00,ZBSJ 151700Z 08001MPS 2000 BR NSC 21/20 Q1013 NOSIG
ZBSJ,2016-09-15 18:00,ZBSJ 151800Z 00000MPS 1800 BR NSC 20/20 Q1013 NOSIG
ZBSJ,2016-09-15 19:00,ZBSJ 151900Z 32001MPS 1800 BR NSC 20/20 Q1013 NOSIG
ZBSJ,2016-09-15 20:00,ZBSJ 152000Z 00000MPS 1500 BR NSC 19/19 Q1012 NOSIG
ZBSJ,2016-09-15 21:00,ZBSJ 152100Z 29002MPS 1600 BR NSC 21/20 Q1013 NOSIG
ZBSJ,2016-09-15 22:00,ZBSJ 152200Z 29001MPS 1400 R15/2000D BR NSC 20/19 Q1013 NOSIG
ZBSJ,2016-09-15 23:00,ZBSJ 152300Z 31002MPS 260V340 1300 R15/1300N BR NSC 21/20 Q1013 BECMG TL0030 1600
ZBSJ,2016-09-16 00:00,ZBSJ 160000Z 30002MPS 1400 R15/1400N BR NSC 23/20 Q1013 BECMG TL0130 1600
ZBSJ,2016-09-16 01:00,ZBSJ 160100Z 29002MPS 1600 HZ NSC 25/20 Q1013 NOSIG
ZBSJ,2016-09-16 02:00,ZBSJ 160200Z 25002MPS 2000 HZ NSC 27/21 Q1013 BECMG 3500
ZBSJ,2016-09-16 03:00,ZBSJ 160300Z 18001MPS 2500 HZ NSC 28/21 Q1013 BECMG 3500
ZBSJ,2016-09-16 04:00,ZBSJ 160400Z 18002MPS 120V240 2700 HZ NSC 30/20 Q1012 BECMG 3000
ZBSJ,2016-09-16 05:00,ZBSJ 160500Z 18002MPS 100V250 2700 HZ NSC 31/20 Q1012 BECMG 3000
ZBSJ,2016-09-16 06:00,ZBSJ 160600Z 16003MPS 090V200 3000 HZ NSC 31/20 Q1011 NOSIG
ZBSJ,2016-09-16 07:00,ZBSJ 160700Z 17004MPS 140V210 5000 HZ NSC 32/19 Q1010 NOSIG
ZBSJ,2016-09-16 08:00,ZBSJ 160800Z 17004MPS 7000 NSC 32/17 Q1010 NOSIG
ZBSJ,2016-09-16 09:00,ZBSJ 160900Z 16003MPS 7000 NSC 30/18 Q1010 NOSIG
ZBSJ,2016-09-16 10:00,ZBSJ 161000Z 11001MPS 5000 HZ NSC 28/21 Q1011 NOSIG
ZBSJ,2016-09-16 11:00,ZBSJ 161100Z 13002MPS 5000 HZ NSC 26/20 Q1011 NOSIG
ZBSJ,2016-09-16 12:00,ZBSJ 161200Z 17001MPS 5000 BR NSC 24/20 Q1012 NOSIG
ZBSJ,2016-09-16 13:00,ZBSJ 161300Z 33002MPS 5000 BR NSC 23/19 Q1012 NOSIG
ZBSJ,2016-09-16 14:00,ZBSJ 161400Z 34002MPS 8000 NSC 23/17 Q1012 NOSIG
ZBSJ,2016-09-16 15:00,ZBSJ 161500Z 36001MPS 8000 NSC 21/18 Q1013 NOSIG
ZBSJ,2016-09-16 16:00,ZBSJ 161600Z 31001MPS 6000 NSC 21/18 Q1013 NOSIG
ZBSJ,2016-09-16 17:00,ZBSJ 161700Z 32002MPS 5000 BR NSC 21/18 Q1013 NOSIG
ZBSJ,2016-09-16 18:00,ZBSJ 161800Z 34002MPS 5000 BR NSC 21/17 Q1014 NOSIG
ZBSJ,2016-09-16 19:00,ZBSJ 161900Z 33003MPS 5000 BR NSC 20/17 Q1014 NOSIG
ZBSJ,2016-09-16 20:00,ZBSJ 162000Z 01002MPS 5000 BR NSC 20/18 Q1014 NOSIG
ZBSJ,2016-09-16 21:00,ZBSJ 162100Z 05003MPS 2500 BR NSC 20/19 Q1015 NOSIG
ZBSJ,2016-09-16 22:00,ZBSJ 162200Z 05004MPS 030V090 2500 BR NSC 21/19 Q1015 NOSIG
ZBSJ,2016-09-16 23:00,ZBSJ 162300Z 06003MPS 030V090 2800 BR NSC 21/18 Q1016 BECMG TL0030 3000
ZBSJ,2016-09-17 00:00,ZBSJ 170000Z 04001MPS 3500 BR NSC 21/18 Q1017 NOSIG
ZBSJ,2016-09-17 01:00,ZBSJ 170100Z 05002MPS 4000 BR NSC 23/18 Q1017 NOSIG
ZBSJ,2016-09-17 02:00,ZBSJ 170200Z 04002MPS 340V090 5000 BR NSC 24/18 Q1018 NOSIG
ZBSJ,2016-09-17 03:00,ZBSJ 170300Z 06002MPS 5000 BR NSC 24/18 Q1018 NOSIG
ZBSJ,2016-09-17 04:00,ZBSJ 170400Z 07003MPS 020V110 5000 BR NSC 24/18 Q1017 NOSIG
ZBSJ,2016-09-17 05:00,ZBSJ 170500Z 06003MPS 340V090 4000 BR NSC 24/19 Q1017 NOSIG
ZBSJ,2016-09-17 06:00,ZBSJ 170600Z 05002MPS 330V100 3500 BR NSC 25/19 Q1016 NOSIG
ZBSJ,2016-09-17 07:00,ZBSJ 170700Z 06002MPS 330V110 3500 BR NSC 26/19 Q1016 NOSIG
ZBSJ,2016-09-17 08:00,ZBSJ 170800Z 04002MPS 3500 BR NSC 25/20 Q1016 NOSIG
ZBSJ,2016-09-17 09:00,ZBSJ 170900Z 02001MPS 3500 BR NSC 25/20 Q1016 NOSIG
ZBSJ,2016-09-17 10:00,ZBSJ 171000Z 05004MPS 340V080 4000 BR NSC 24/19 Q1016 NOSIG
ZBSJ,2016-09-17 11:00,ZBSJ 171100Z 06002MPS 6000 NSC 23/20 Q1017 NOSIG
ZBSJ,2016-09-17 12:00,ZBSJ 171200Z 03001MPS 9999 OVC040 22/20 Q1017 NOSIG
ZBSJ,2016-09-17 13:00,ZBSJ 171300Z 02002MPS 330V070 9999 OVC040 23/19 Q1018 NOSIG
ZBSJ,2016-09-17 14:00,ZBSJ 171400Z 03002MPS 320V080 8000 -RA OVC040 21/19 Q1018 NOSIG
ZBSJ,2016-09-17 15:00,ZBSJ 171500Z 04002MPS 6000 -RA OVC040 20/19 Q1018 NOSIG
ZBSJ,2016-09-17 16:00,ZBSJ 171600Z 03002MPS 320V090 4000 -RA BR OVC040 19/19 Q1019 NOSIG
ZBSJ,2016-09-17 17:00,ZBSJ 171700Z 03003MPS 340V070 2200 +RA BR OVC040 19/19 Q1019 NOSIG
ZBSJ,2016-09-17 18:00,ZBSJ 171800Z 07002MPS 030V090 2500 -RA BR SCT013 OVC033 19/19 Q1019 RERA NOSIG
ZBSJ,2016-09-17 19:00,ZBSJ 171900Z 02002MPS 4500 RA BR SCT013 OVC033 17/17 Q1019 NOSIG
ZBSJ,2016-09-17 20:00,ZBSJ 172000Z 35002MPS 4000 RA BR SCT013 OVC030 17/17 Q1020 NOSIG
ZBSJ,2016-09-17 21:00,ZBSJ 172100Z 03002MPS 4000 RA BR SCT013 OVC030 17/17 Q1019 NOSIG
ZBSJ,2016-09-17 22:00,ZBSJ 172200Z 01002MPS 4500 RA BR SCT013 OVC030 17/17 Q1020 NOSIG
ZBSJ,2016-09-17 23:00,ZBSJ 172300Z 36002MPS 3000 -RA BR SCT013 OVC030 17/17 Q1020 RERA BECMG TL0030 2700 -RA BR
ZBSJ,2016-09-18 00:00,ZBSJ 180000Z 35002MPS 3500 -RA BR SCT013 OVC030 17/17 Q1021 NOSIG
ZBSJ,2016-09-18 01:00,ZBSJ 180100Z 34002MPS 9999 -RA SCT010 OVC033 17/17 Q1021 NOSIG
ZBSJ,2016-09-18 02:00,ZBSJ 180200Z 34002MPS 9999 -RA OVC040 18/17 Q1021 NOSIG
ZBSJ,2016-09-18 03:00,ZBSJ 180300Z 29003MPS 7000 OVC040 19/18 Q1021 NOSIG
ZBSJ,2016-09-18 04:00,ZBSJ 180400Z 29002MPS 9999 OVC040 19/17 Q1021 NOSIG
ZBSJ,2016-09-18 05:00,ZBSJ 180500Z 30001MPS CAVOK 20/17 Q1020 NOSIG
ZBSJ,2016-09-18 06:00,ZBSJ 180600Z 25002MPS CAVOK 21/17 Q1019 NOSIG
ZBSJ,2016-09-18 07:00,ZBSJ 180700Z 25001MPS CAVOK 21/17 Q1019 NOSIG
ZBSJ,2016-09-18 08:00,ZBSJ 180800Z 22001MPS CAVOK 21/17 Q1019 NOSIG
ZBSJ,2016-09-18 09:00,ZBSJ 180900Z 16001MPS CAVOK 21/17 Q1019 NOSIG
ZBSJ,2016-09-18 10:00,ZBSJ 181000Z 14001MPS CAVOK 20/18 Q1019 NOSIG
ZBSJ,2016-09-18 11:00,ZBSJ 181100Z 13001MPS 5000 BR NSC 19/18 Q1019 NOSIG
ZBSJ,2016-09-18 12:00,ZBSJ 181200Z 05001MPS 5000 BR NSC 18/18 Q1020 NOSIG
ZBSJ,2016-09-18 13:00,ZBSJ 181300Z 04001MPS 5000 BR NSC 18/18 Q1021 NOSIG
ZBSJ,2016-09-18 14:00,ZBSJ 181400Z 00000MPS 4000 BR NSC 17/17 Q1021 NOSIG
ZBSJ,2016-09-18 15:00,ZBSJ 181500Z 33001MPS 4000 BR NSC 17/17 Q1021 NOSIG
ZBSJ,2016-09-18 16:00,ZBSJ 181600Z 33002MPS 4000 BR NSC 17/17 Q1021 NOSIG
ZBSJ,2016-09-18 17:00,ZBSJ 181700Z 35001MPS 4000 BR NSC 17/16 Q1022 NOSIG
ZBSJ,2016-09-18 18:00,ZBSJ 181800Z 07001MPS 4000 BR NSC 18/18 Q1022 NOSIG
ZBSJ,2016-09-18 19:00,ZBSJ 181900Z 05002MPS 4000 BR NSC 17/17 Q1022 NOSIG
ZBSJ,2016-09-18 20:00,ZBSJ 182000Z 35002MPS 4000 BR NSC 16/16 Q1022 NOSIG
ZBSJ,2016-09-18 21:00,ZBSJ 182100Z 35001MPS 5000 BR NSC 16/16 Q1022 NOSIG
ZBSJ,2016-09-18 22:00,ZBSJ 182200Z 36002MPS 5000 BR NSC 16/15 Q1022 NOSIG
ZBSJ,2016-09-18 23:00,ZBSJ 182300Z 33002MPS 3000 BR NSC 16/16 Q1023 NOSIG
ZBSJ,2016-09-19 00:00,ZBSJ 190000Z 29002MPS 3500 BR NSC 18/17 Q1023 NOSIG
ZBSJ,2016-09-19 01:00,ZBSJ 190100Z 09001MPS CAVOK 20/15 Q1023 NOSIG
ZBSJ,2016-09-19 02:00,ZBSJ 190200Z 05002MPS CAVOK 22/13 Q1024 NOSIG
ZBSJ,2016-09-19 03:00,ZBSJ 190300Z 08002MPS 340V130 CAVOK 22/13 Q1023 NOSIG
ZBSJ,2016-09-19 04:00,ZBSJ 190400Z 04002MPS CAVOK 23/12 Q1022 NOSIG
ZBSJ,2016-09-19 05:00,ZBSJ 190500Z 03002MPS CAVOK 23/13 Q1022 NOSIG
ZBSJ,2016-09-19 06:00,ZBSJ 190600Z 10002MPS CAVOK 24/11 Q1021 NOSIG
ZBSJ,2016-09-19 07:00,ZBSJ 190700Z 33002MPS 9999 FEW046 24/11 Q1020 NOSIG
ZBSJ,2016-09-19 08:00,ZBSJ 190800Z 09001MPS CAVOK 24/11 Q1020 NOSIG
ZBSJ,2016-09-19 09:00,ZBSJ 190900Z 09002MPS CAVOK 24/10 Q1020 NOSIG
ZBSJ,2016-09-19 10:00,ZBSJ 191000Z 11001MPS CAVOK 21/13 Q1020 NOSIG
ZBSJ,2016-09-19 11:00,ZBSJ 191100Z 09001MPS CAVOK 17/14 Q1020 NOSIG
ZBSJ,2016-09-19 12:00,ZBSJ 191200Z 08001MPS CAVOK 15/14 Q1021 NOSIG
ZBSJ,2016-09-19 13:00,ZBSJ 191300Z 00000MPS CAVOK 15/14 Q1022 NOSIG
ZBSJ,2016-09-19 14:00,ZBSJ 191400Z 30001MPS CAVOK 14/13 Q1022 NOSIG
ZBSJ,2016-09-19 15:00,ZBSJ 191500Z 32001MPS CAVOK 13/13 Q1021 NOSIG
ZBSJ,2016-09-19 16:00,ZBSJ 191600Z 33002MPS CAVOK 14/12 Q1021 NOSIG
ZBSJ,2016-09-19 17:00,ZBSJ 191700Z 31002MPS CAVOK 14/13 Q1022 NOSIG
ZBSJ,2016-09-19 18:00,ZBSJ 191800Z 32001MPS 7000 NSC 13/12 Q1021 NOSIG
ZBSJ,2016-09-19 19:00,ZBSJ 191900Z 28002MPS 5000 BR NSC 13/12 Q1021 NOSIG
ZBSJ,2016-09-19 20:00,ZBSJ 192000Z 30001MPS 4000 BR NSC 13/12 Q1021 NOSIG
ZBSJ,2016-09-19 21:00,ZBSJ 192100Z 32002MPS 5000 BR NSC 13/12 Q1021 NOSIG
ZBSJ,2016-09-19 22:00,ZBSJ 192200Z 32002MPS 4000 BR NSC 13/13 Q1021 NOSIG
ZBSJ,2016-09-19 23:00,ZBSJ 192300Z 31001MPS 4500 BR NSC 14/14 Q1022 NOSIG
ZBSJ,2016-09-20 00:00,ZBSJ 200000Z 32003MPS 5000 BR NSC 18/15 Q1022 NOSIG
ZBSJ,2016-09-20 01:00,ZBSJ 200100Z 30001MPS 6000 NSC 20/15 Q1022 NOSIG
ZBSJ,2016-09-20 02:00,ZBSJ 200200Z 27002MPS 230V310 CAVOK 21/15 Q1022 NOSIG
ZBSJ,2016-09-20 03:00,ZBSJ 200300Z 22002MPS CAVOK 23/12 Q1022 NOSIG
ZBSJ,2016-09-20 04:00,ZBSJ 200400Z 19002MPS CAVOK 24/12 Q1021 NOSIG
ZBSJ,2016-09-20 05:00,ZBSJ 200500Z 21003MPS 170V250 CAVOK 25/10 Q1020 NOSIG
ZBSJ,2016-09-20 06:00,ZBSJ 200600Z 21002MPS 160V260 CAVOK 26/11 Q1019 NOSIG
ZBSJ,2016-09-20 07:00,ZBSJ 200700Z 16003MPS CAVOK 26/10 Q1019 NOSIG
ZBSJ,2016-09-20 08:00,ZBSJ 200800Z 17004MPS CAVOK 26/09 Q1018 NOSIG
ZBSJ,2016-09-20 09:00,ZBSJ 200900Z 16003MPS CAVOK 25/10 Q1018 NOSIG
ZBSJ,2016-09-20 10:00,ZBSJ 201000Z 12002MPS CAVOK 22/12 Q1018 NOSIG
ZBSJ,2016-09-20 11:00,ZBSJ 201100Z 12001MPS CAVOK 19/13 Q1019 NOSIG
ZBSJ,2016-09-20 12:00,ZBSJ 201200Z 14001MPS CAVOK 18/14 Q1019 NOSIG
ZBSJ,2016-09-20 13:00,ZBSJ 201300Z 13001MPS CAVOK 16/14 Q1019 NOSIG
ZBSJ,2016-09-20 14:00,ZBSJ 201400Z 08001MPS CAVOK 16/14 Q1019 NOSIG
ZBSJ,2016-09-20 15:00,ZBSJ 201500Z 09001MPS 7000 NSC 16/14 Q1019 NOSIG
ZBSJ,2016-09-20 16:00,ZBSJ 201600Z 13001MPS 7000 NSC 15/14 Q1019 NOSIG
ZBSJ,2016-09-20 17:00,ZBSJ 201700Z 11001MPS 6000 NSC 15/14 Q1019 NOSIG
ZBSJ,2016-09-20 18:00,ZBSJ 201800Z 13001MPS 6000 NSC 15/13 Q1019 NOSIG
ZBSJ,2016-09-20 19:00,ZBSJ 201900Z 13001MPS 6000 NSC 14/13 Q1018 NOSIG
ZBSJ,2016-09-20 20:00,ZBSJ 202000Z 14001MPS 6000 NSC 14/13 Q1018 NOSIG
ZBSJ,2016-09-20 21:00,ZBSJ 202100Z 18001MPS 5000 BR NSC 14/13 Q1018 NOSIG
ZBSJ,2016-09-20 22:00,ZBSJ 202200Z 25001MPS 2500 BR NSC 14/13 Q1019 NOSIG
ZBSJ,2016-09-20 23:00,ZBSJ 202300Z 18001MPS 1800 BR NSC 14/13 Q1019 NOSIG
ZBSJ,2016-09-21 00:00,ZBSJ 210000Z 30001MPS 2500 BR NSC 17/15 Q1019 BECMG 3000
ZBSJ,2016-09-21 01:00,ZBSJ 210100Z 21001MPS 2800 BR NSC 19/15 Q1020 BECMG TL0200 3000
ZBSJ,2016-09-21 02:00,ZBSJ 210200Z 33003MPS 5000 HZ NSC 21/15 Q1020 NOSIG
ZBSJ,2016-09-21 03:00,ZBSJ 210300Z 04001MPS 4500 HZ NSC 23/14 Q1020 NOSIG
ZBSJ,2016-09-21 04:00,ZBSJ 210400Z 09001MPS 4000 HZ NSC 24/14 Q1019 NOSIG
ZBSJ,2016-09-21 05:00,ZBSJ 210500Z 22001MPS 4500 HZ NSC 26/15 Q1018 NOSIG
ZBSJ,2016-09-21 06:00,ZBSJ 210600Z 20001MPS 5000 HZ NSC 25/14 Q1017 NOSIG
ZBSJ,2016-09-21 07:00,ZBSJ 210700Z 23001MPS 4500 HZ NSC 26/15 Q1017 NOSIG
ZBSJ,2016-09-21 08:00,ZBSJ 210800Z 13001MPS 4000 HZ NSC 26/15 Q1016 NOSIG
ZBSJ,2016-09-21 09:00,ZBSJ 210900Z 07001MPS 3500 HZ NSC 25/16 Q1016 NOSIG
ZBSJ,2016-09-21 10:00,ZBSJ 211000Z 36002MPS 3000 HZ NSC 23/17 Q1017 BECMG TL1130 2500 HZ
ZBSJ,2016-09-21 11:00,ZBSJ 211100Z 05001MPS 4000 BR NSC 21/17 Q1016 NOSIG
ZBSJ,2016-09-21 12:00,ZBSJ 211200Z 01002MPS 3500 BR NSC 20/17 Q1017 NOSIG
ZBSJ,2016-09-21 13:00,ZBSJ 211300Z 01002MPS 3000 BR NSC 20/17 Q1018 BECMG TL1430 2500 BR
ZBSJ,2016-09-21 14:00,ZBSJ 211400Z 05001MPS 3000 BR NSC 18/16 Q1017 BECMG TL1500 2500 BR
ZBSJ,2016-09-21 15:00,ZBSJ 211500Z 03001MPS 2700 BR NSC 18/16 Q1017 NOSIG
ZBSJ,2016-09-21 16:00,ZBSJ 211600Z 34002MPS 2800 BR NSC 16/15 Q1017 NOSIG
ZBSJ,2016-09-21 17:00,ZBSJ 211700Z 35002MPS 3000 BR NSC 16/15 Q1016 NOSIG
ZBSJ,2016-09-21 18:00,ZBSJ 211800Z 33002MPS 3000 BR NSC 16/15 Q1016 NOSIG
ZBSJ,2016-09-21 19:00,ZBSJ 211900Z 33003MPS 2200 BR NSC 16/15 Q1016 NOSIG
ZBSJ,2016-09-21 20:00,ZBSJ 212000Z 33003MPS 2200 BR NSC 16/15 Q1016 NOSIG
ZBSJ,2016-09-21 21:00,ZBSJ 212100Z 32002MPS 2500 BR NSC 15/15 Q1016 NOSIG
ZBSJ,2016-09-21 22:00,ZBSJ 212200Z 33002MPS 2000 BR NSC 15/15 Q1016 NOSIG
ZBSJ,2016-09-21 23:00,ZBSJ 212300Z 33002MPS 2000 BR NSC 16/15 Q1016 NOSIG
ZBSJ,2016-09-22 00:00,ZBSJ 220000Z 33002MPS 2400 BR NSC 19/17 Q1016 BECMG TL0130 3500
ZBSJ,2016-09-22 01:00,ZBSJ 220100Z 36001MPS 2800 BR NSC 20/15 Q1016 BECMG TL0200 3500
ZBSJ,2016-09-22 02:00,ZBSJ 220200Z 31001MPS 4500 HZ NSC 23/16 Q1016 NOSIG
ZBSJ,2016-09-22 03:00,ZBSJ 220300Z 16001MPS 4500 HZ NSC 24/16 Q1015 NOSIG
ZBSJ,2016-09-22 04:00,ZBSJ 220400Z 17001MPS 6000 NSC 25/15 Q1015 NOSIG
ZBSJ,2016-09-22 05:00,ZBSJ 220500Z 15002MPS 080V210 5000 HZ NSC 26/16 Q1014 NOSIG
ZBSJ,2016-09-22 06:00,ZBSJ 220600Z 17003MPS 110V200 4000 HZ NSC 27/16 Q1013 NOSIG
ZBSJ,2016-09-22 07:00,ZBSJ 220700Z 15002MPS 110V200 4200 HZ NSC 27/16 Q1012 NOSIG
ZBSJ,2016-09-22 08:00,ZBSJ 220800Z 14003MPS 2700 HZ NSC 27/16 Q1012 NOSIG
ZBSJ,2016-09-22 09:00,ZBSJ 220900Z 16003MPS 2700 HZ NSC 26/17 Q1011 NOSIG
ZBSJ,2016-09-22 10:00,ZBSJ 221000Z 06001MPS 2500 BR NSC 23/18 Q1012 NOSIG
ZBSJ,2016-09-22 11:00,ZBSJ 221100Z 06002MPS 2800 BR NSC 22/18 Q1012 BECMG TL1230 3000
ZBSJ,2016-09-22 12:00,ZBSJ 221200Z 04001MPS 3000 BR NSC 21/18 Q1012 BECMG TL1330 2500 BR
ZBSJ,2016-09-22 13:00,ZBSJ 221300Z 05002MPS 360V070 3000 BR NSC 21/17 Q1012 BECMG TL1400 2500 BR
ZBSJ,2016-09-22 14:00,ZBSJ 221400Z 01001MPS 2800 BR NSC 20/17 Q1012 NOSIG
ZBSJ,2016-09-22 15:00,ZBSJ 221500Z 33002MPS 2800 BR NSC 19/17 Q1012 NOSIG
ZBSJ,2016-09-22 16:00,ZBSJ 221600Z 35002MPS 2800 BR NSC 20/17 Q1012 NOSIG
ZBSJ,2016-09-22 17:00,ZBSJ 221700Z 35002MPS 2800 BR OVC046 19/18 Q1013 RETSRA NOSIG
ZBSJ,2016-09-22 18:00,ZBSJ 221800Z 35001MPS 2800 BR OVC046 18/17 Q1012 NOSIG
ZBSJ,2016-09-22 19:00,ZBSJ 221900Z 31002MPS 2000 BR SCT046 19/18 Q1012 NOSIG
ZBSJ,2016-09-22 20:00,ZBSJ 222000Z 33003MPS 1400 R33/1500N BR SCT046 18/17 Q1012 NOSIG
ZBSJ,2016-09-22 21:00,ZBSJ 222100Z 32003MPS 1400 R33/P2000D BR SCT046 18/18 Q1012 NOSIG
ZBSJ,2016-09-22 22:00,ZBSJ 222200Z 34002MPS 1200 R33/1900D BR SCT046 18/18 Q1012 NOSIG
ZBSJ,2016-09-22 23:00,ZBSJ 222300Z 31001MPS 1200 R33/1500U BR NSC 19/18 Q1012 BECMG TL0030 1700
ZBSJ,2016-09-23 00:00,ZBSJ 230000Z 07001MPS 1600 BR NSC 20/17 Q1012 NOSIG
ZBSJ,2016-09-23 01:00,ZBSJ 230100Z 05001MPS 1700 BR NSC 21/18 Q1013 NOSIG
ZBSJ,2016-09-23 02:00,ZBSJ 230200Z 08001MPS 1700 BR NSC 21/18 Q1013 NOSIG
ZBSJ,2016-09-23 03:00,ZBSJ 230300Z 13002MPS 1800 HZ NSC 23/18 Q1013 NOSIG
ZBSJ,2016-09-23 04:00,ZBSJ 230400Z 16002MPS 2000 HZ NSC 26/18 Q1012 NOSIG
ZBSJ,2016-09-23 05:00,ZBSJ 230500Z 19001MPS 2300 HZ NSC 27/18 Q1011 NOSIG
ZBSJ,2016-09-23 06:00,ZBSJ 230600Z 14003MPS 100V160 2500 HZ NSC 28/18 Q1010 NOSIG
ZBSJ,2016-09-23 07:00,ZBSJ 230700Z 12003MPS 090V160 2000 HZ NSC 28/18 Q1009 NOSIG
ZBSJ,2016-09-23 08:00,ZBSJ 230800Z 14003MPS 2000 HZ NSC 28/18 Q1009 NOSIG
ZBSJ,2016-09-23 09:00,ZBSJ 230900Z 14003MPS 2300 HZ NSC 27/18 Q1009 NOSIG
ZBSJ,2016-09-23 10:00,ZBSJ 231000Z 12001MPS 2300 HZ NSC 25/18 Q1009 NOSIG
ZBSJ,2016-09-23 11:00,ZBSJ 231100Z 08001MPS 2700 HZ NSC 23/19 Q1010 BECMG TL1130 3200
ZBSJ,2016-09-23 12:00,ZBSJ 231200Z 06002MPS 3000 BR NSC 22/19 Q1010 BECMG TL1230 2800 BR
ZBSJ,2016-09-23 13:00,ZBSJ 231300Z 04001MPS 2200 BR NSC 21/18 Q1010 NOSIG
ZBSJ,2016-09-23 14:00,ZBSJ 231400Z 03001MPS 1600 BR NSC 21/19 Q1011 BECMG TL1530 1400 BR
ZBSJ,2016-09-23 15:00,ZBSJ 231500Z 04001MPS 1300 R15/1800D BR NSC 20/19 Q1010 NOSIG
ZBSJ,2016-09-23 16:00,ZBSJ 231600Z 01001MPS 1500 BR NSC 19/18 Q1010 NOSIG
ZBSJ,2016-09-23 17:00,ZBSJ 231700Z 32002MPS 1500 BR NSC 20/19 Q1010 NOSIG
ZBSJ,2016-09-23 18:00,ZBSJ 231800Z 32002MPS 1500 BR NSC 19/18 Q1010 NOSIG
ZBSJ,2016-09-23 19:00,ZBSJ 231900Z 33002MPS 1500 BR NSC 19/18 Q1010 NOSIG
ZBSJ,2016-09-23 20:00,ZBSJ 232000Z 32002MPS 1400 R15/1400VP2000D BR NSC 18/18 Q1010 NOSIG
ZBSJ,2016-09-23 21:00,ZBSJ 232100Z 33002MPS 1400 R15/1500N BR NSC 18/18 Q1010 NOSIG
ZBSJ,2016-09-23 22:00,ZBSJ 232200Z 36001MPS 0900 R15/1200N FG NSC 18/18 Q1010 NOSIG
ZBSJ,2016-09-23 23:00,ZBSJ 232300Z 36001MPS 0900 R15/1200U FG NSC 18/18 Q1011 NOSIG
ZBSJ,2016-09-24 00:00,ZBSJ 240000Z 36001MPS 0900 R15/1100D FG NSC 20/19 Q1011 NOSIG
ZBSJ,2016-09-24 01:00,ZBSJ 240100Z 35001MPS 1000 R15/1300N BR NSC 22/19 Q1011 BECMG 1500
ZBSJ,2016-09-24 02:00,ZBSJ 240200Z 28001MPS 1400 R15/1400N BR NSC 23/19 Q1011 BECMG 1500
ZBSJ,2016-09-24 03:00,ZBSJ 240300Z 00000MPS 1500 R15/1300N HZ NSC 24/19 Q1011 BECMG 1300 BR
ZBSJ,2016-09-24 04:00,ZBSJ 240400Z 34001MPS 1500 HZ NSC 25/19 Q1010 BECMG 1300 BR
ZBSJ,2016-09-24 05:00,ZBSJ 240500Z 22001MPS 1800 HZ NSC 26/19 Q1009 NOSIG
ZBSJ,2016-09-24 06:00,ZBSJ 240600Z 15002MPS 110V190 1800 HZ NSC 27/19 Q1008 NOSIG
ZBSJ,2016-09-24 07:00,ZBSJ 240700Z 15004MPS 1600 HZ NSC 28/19 Q1008 NOSIG
ZBSJ,2016-09-24 08:00,ZBSJ 240800Z 16004MPS 2000 HZ NSC 27/19 Q1008 NOSIG
ZBSJ,2016-09-24 09:00,ZBSJ 240900Z 13002MPS 2700 HZ NSC 26/19 Q1008 BECMG TL1030 3000
ZBSJ,2016-09-24 10:00,ZBSJ 241000Z 15002MPS 3000 HZ NSC 24/18 Q1008 NOSIG
ZBSJ,2016-09-24 11:00,ZBSJ 241100Z 09002MPS 3500 BR NSC 21/19 Q1008 NOSIG
ZBSJ,2016-09-24 12:00,ZBSJ 241200Z 04002MPS 3000 BR NSC 21/19 Q1009 BECMG 2000 BR
ZBSJ,2016-09-24 13:00,ZBSJ 241300Z 08002MPS 3000 BR NSC 21/19 Q1009 BECMG 2000 BR
ZBSJ,2016-09-24 14:00,ZBSJ 241400Z 09002MPS 2500 BR NSC 21/18 Q1009 NOSIG
ZBSJ,2016-09-24 15:00,ZBSJ 241500Z 36001MPS 2000 BR NSC 19/18 Q1010 NOSIG
ZBSJ,2016-09-24 16:00,ZBSJ 241600Z 01001MPS 1800 BR NSC 19/18 Q1010 NOSIG
ZBSJ,2016-09-24 17:00,ZBSJ 241700Z 00000MPS 1600 BR NSC 18/17 Q1010 NOSIG
ZBSJ,2016-09-24 18:00,ZBSJ 241800Z 33002MPS 1600 BR NSC 18/18 Q1010 NOSIG
ZBSJ,2016-09-24 19:00,ZBSJ 241900Z 34002MPS 1600 BR NSC 18/18 Q1010 NOSIG
ZBSJ,2016-09-24 20:00,ZBSJ 242000Z 01001MPS 1400 R15/1200N BR NSC 18/17 Q1011 NOSIG
ZBSJ,2016-09-24 21:00,ZBSJ 242100Z 01003MPS 340V040 1400 R15/1700N BR NSC 19/18 Q1011 NOSIG
ZBSJ,2016-09-24 22:00,ZBSJ 242200Z 01001MPS 1100 R15/2000N BR NSC 18/18 Q1012 NOSIG
ZBSJ,2016-09-24 23:00,ZBSJ 242300Z 01002MPS 0700 R15/0900N FG NSC 18/18 Q1013 BECMG TL0020 0800
ZBSJ,2016-09-25 00:00,ZBSJ 250000Z 36002MPS 1200 R15/1200N BR NSC 19/18 Q1014 BECMG TL0130 1500
ZBSJ,2016-09-25 01:00,ZBSJ 250100Z 03001MPS 1400 R33/1200N BR NSC 21/18 Q1014 BECMG TL0230 1500
ZBSJ,2016-09-25 02:00,ZBSJ 250200Z 04002MPS 1500 BR NSC 22/19 Q1015 NOSIG
ZBSJ,2016-09-25 03:00,ZBSJ 250300Z 05004MPS 010V070 2000 BR NSC 24/18 Q1014 NOSIG
ZBSJ,2016-09-25 04:00,ZBSJ 250400Z 07003MPS 030V120 2500 HZ NSC 25/18 Q1014 BECMG TL0530 3000
ZBSJ,2016-09-25 05:00,ZBSJ 250500Z 08002MPS 340V140 2200 HZ NSC 26/18 Q1013 NOSIG
ZBSJ,2016-09-25 06:00,ZBSJ 250600Z 10003MPS 2200 HZ NSC 26/18 Q1013 NOSIG
ZBSJ,2016-09-25 07:00,ZBSJ 250700Z 11001MPS 2200 HZ NSC 26/18 Q1012 NOSIG
ZBSJ,2016-09-25 08:00,ZBSJ 250800Z 04001MPS 2000 HZ NSC 26/19 Q1012 NOSIG
ZBSJ,2016-09-25 09:00,ZBSJ 250900Z 04001MPS 2000 HZ NSC 25/20 Q1012 NOSIG
ZBSJ,2016-09-25 10:00,ZBSJ 251000Z 00000MPS 1800 HZ NSC 25/20 Q1012 NOSIG
ZBSJ,2016-09-25 11:00,ZBSJ 251100Z 20001MPS 2000 HZ NSC 23/21 Q1013 NOSIG
ZBSJ,2016-09-25 12:00,ZBSJ 251200Z 09001MPS 1800 -RA BR OVC046 22/21 Q1013 NOSIG
ZBSJ,2016-09-25 13:00,ZBSJ 251300Z 16002MPS 1600 BR OVC046 22/20 Q1013 BECMG TL1430 1400 BR
ZBSJ,2016-09-25 14:00,ZBSJ 251400Z 06001MPS 1500 BR OVC046 22/20 Q1014 BECMG TL1530 1400 BR
ZBSJ,2016-09-25 15:00,ZBSJ 251500Z 00000MPS 1200 R15/1400N -RA BR OVC046 21/20 Q1014 NOSIG
ZBSJ,2016-09-25 16:00,ZBSJ 251600Z 07001MPS 0800 R15/0800V1100U -RA FG OVC046 21/20 Q1013 NOSIG
ZBSJ,2016-09-25 17:00,ZBSJ 251700Z 00000MPS 0800 R15/1000N -RA FG OVC046 21/20 Q1013 NOSIG
ZBSJ,2016-09-25 18:00,ZBSJ 251800Z 34003MPS 1300 R33/1200U -RA BR OVC046 21/20 Q1013 NOSIG
ZBSJ,2016-09-25 19:00,ZBSJ 251900Z 03001MPS 4500 BR NSC 20/19 Q1013 NOSIG
ZBSJ,2016-09-25 20:00,ZBSJ 252000Z 01001MPS 5000 BR NSC 20/18 Q1013 NOSIG
ZBSJ,2016-09-25 21:00,ZBSJ 252100Z 34002MPS 6000 NSC 20/18 Q1013 NOSIG
ZBSJ,2016-09-25 22:00,ZBSJ 252200Z 30002MPS 4000 -RA BR OVC046 20/19 Q1013 NOSIG
ZBSJ,2016-09-25 23:00,ZBSJ 252300Z 36002MPS 1800 BR OVC046 20/19 Q1014 NOSIG
ZBSJ,2016-09-26 00:00,ZBSJ 260000Z 04002MPS 0700 R33/0900N FG OVC046 21/20 Q1014 BECMG TL0130 1000 BR
ZBSJ,2016-09-26 01:00,ZBSJ 260100Z 05002MPS 0700 R33/0900U FG OVC046 21/21 Q1014 BECMG TL0230 1000 BR
ZBSJ,2016-09-26 02:00,ZBSJ 260200Z 05003MPS 360V090 1400 R15/1800D BR OVC046 21/20 Q1015 BECMG TL0330 1600
ZBSJ,2016-09-26 03:00,ZBSJ 260300Z 01002MPS 2500 BR OVC046 22/20 Q1014 NOSIG
ZBSJ,2016-09-26 04:00,ZBSJ 260400Z 36002MPS 2500 BR OVC046 22/20 Q1014 NOSIG
ZBSJ,2016-09-26 05:00,ZBSJ 260500Z 06001MPS 2800 BR OVC046 23/20 Q1014 BECMG TL0630 3000
ZBSJ,2016-09-26 06:00,ZBSJ 260600Z 05002MPS 3500 BR OVC046 23/19 Q1012 NOSIG
ZBSJ,2016-09-26 07:00,ZBSJ 260700Z 12001MPS 3500 BR OVC046 24/19 Q1012 NOSIG
ZBSJ,2016-09-26 08:00,ZBSJ 260800Z 05001MPS 3500 BR OVC046 24/19 Q1012 NOSIG
ZBSJ,2016-09-26 09:00,ZBSJ 260900Z 09001MPS 3500 BR OVC046 23/19 Q1012 NOSIG
ZBSJ,2016-09-26 10:00,ZBSJ 261000Z 10001MPS 3500 BR OVC046 22/19 Q1012 NOSIG
ZBSJ,2016-09-26 11:00,ZBSJ 261100Z 05001MPS 3500 BR OVC046 21/19 Q1013 NOSIG
ZBSJ,2016-09-26 12:00,ZBSJ 261200Z 04001MPS 3500 BR OVC046 20/19 Q1013 NOSIG
ZBSJ,2016-09-26 13:00,ZBSJ 261300Z 07001MPS 3200 BR OVC046 19/18 Q1014 BECMG TL1430 2800 BR
ZBSJ,2016-09-26 14:00,ZBSJ 261400Z 03001MPS 2200 BR OVC046 19/18 Q1014 NOSIG
ZBSJ,2016-09-26 15:00,ZBSJ 261500Z 00000MPS 2000 BR OVC046 18/18 Q1014 NOSIG
ZBSJ,2016-09-26 16:00,ZBSJ 261600Z 33001MPS 1800 BR OVC046 18/18 Q1014 NOSIG
ZBSJ,2016-09-26 17:00,ZBSJ 261700Z 31001MPS 2000 BR OVC046 18/18 Q1014 NOSIG
ZBSJ,2016-09-26 18:00,ZBSJ 261800Z 18001MPS 1700 BR OVC046 18/18 Q1014 NOSIG
ZBSJ,2016-09-26 19:00,ZBSJ 261900Z 27001MPS 1700 BR OVC046 18/18 Q1014 NOSIG
ZBSJ,2016-09-26 20:00,ZBSJ 262000Z 36001MPS 1700 R15/1300N BR OVC046 18/18 Q1014 NOSIG
ZBSJ,2016-09-26 21:00,ZBSJ 262100Z 00000MPS 1700 BR OVC046 18/18 Q1014 NOSIG
ZBSJ,2016-09-26 22:00,ZBSJ 262200Z 00000MPS 1600 BR OVC046 18/18 Q1016 NOSIG
ZBSJ,2016-09-26 23:00,ZBSJ 262300Z 36001MPS 1200 R15/1000D BR OVC046 19/19 Q1017 BECMG 1600
ZBSJ,2016-09-27 00:00,ZBSJ 270000Z 03001MPS 1200 R15/1000N BR OVC046 19/19 Q1017 BECMG 1600
ZBSJ,2016-09-27 01:00,ZBSJ 270100Z 04002MPS 1000 R15/1000N BR OVC046 20/19 Q1018 BECMG 1600
ZBSJ,2016-09-27 02:00,ZBSJ 270200Z 04002MPS 350V070 1000 R15/1100N BR BKN046 21/20 Q1019 NOSIG
ZBSJ,2016-09-27 03:00,ZBSJ 270300Z 06004MPS 030V090 1800 BR SCT016 OVC040 20/18 Q1019 NOSIG
ZBSJ,2016-09-27 04:00,ZBSJ 270400Z 07004MPS 040V110 1700 BR SCT016 OVC040 20/18 Q1020 NOSIG
ZBSJ,2016-09-27 05:00,ZBSJ 270500Z 08004MPS 8000 NSC 20/15 Q1020 NOSIG
ZBSJ,2016-09-27 06:00,ZBSJ 270600Z 09004MPS 050V120 CAVOK 21/13 Q1019 NOSIG
ZBSJ,2016-09-27 07:00,ZBSJ 270700Z 08003MPS 050V120 CAVOK 21/11 Q1020 NOSIG
ZBSJ,2016-09-27 08:00,ZBSJ 270800Z 07003MPS 040V100 CAVOK 21/09 Q1020 NOSIG
ZBSJ,2016-09-27 09:00,ZBSJ 270900Z 08003MPS CAVOK 20/08 Q1021 NOSIG
ZBSJ,2016-09-27 10:00,ZBSJ 271000Z 06002MPS 9999 BKN046 18/08 Q1022 NOSIG
ZBSJ,2016-09-27 11:00,ZBSJ 271100Z 06002MPS 9999 BKN046 18/08 Q1023 NOSIG
ZBSJ,2016-09-27 12:00,ZBSJ 271200Z 06002MPS 9999 BKN046 17/06 Q1024 NOSIG
ZBSJ,2016-09-27 13:00,ZBSJ 271300Z 07001MPS CAVOK 15/09 Q1025 NOSIG
ZBSJ,2016-09-27 14:00,ZBSJ 271400Z 04001MPS CAVOK 15/07 Q1026 NOSIG
ZBSJ,2016-09-27 15:00,ZBSJ 271500Z 34002MPS CAVOK 15/08 Q1026 NOSIG
ZBSJ,2016-09-27 16:00,ZBSJ 271600Z 02002MPS CAVOK 16/07 Q1026 NOSIG
ZBSJ,2016-09-27 17:00,ZBSJ 271700Z 35002MPS CAVOK 14/08 Q1026 NOSIG
ZBSJ,2016-09-27 18:00,ZBSJ 271800Z 01002MPS CAVOK 15/07 Q1026 NOSIG
ZBSJ,2016-09-27 19:00,ZBSJ 271900Z 02002MPS CAVOK 15/07 Q1026 NOSIG
ZBSJ,2016-09-27 20:00,ZBSJ 272000Z 03001MPS CAVOK 14/07 Q1026 NOSIG
ZBSJ,2016-09-27 21:00,ZBSJ 272100Z 04002MPS CAVOK 14/05 Q1027 NOSIG
ZBSJ,2016-09-27 22:00,ZBSJ 272200Z 05002MPS 9999 FEW046 13/05 Q1027 NOSIG
ZBSJ,2016-09-27 23:00,ZBSJ 272300Z 03001MPS 9999 FEW046 12/06 Q1028 NOSIG
ZBSJ,2016-09-28 00:00,ZBSJ 280000Z 03002MPS CAVOK 15/06 Q1028 NOSIG
ZBSJ,2016-09-28 01:00,ZBSJ 280100Z 05003MPS 360V090 CAVOK 16/06 Q1029 NOSIG
ZBSJ,2016-09-28 02:00,ZBSJ 280200Z 03001MPS CAVOK 18/05 Q1029 NOSIG
ZBSJ,2016-09-28 03:00,ZBSJ 280300Z 09003MPS CAVOK 18/02 Q1028 NOSIG
ZBSJ,2016-09-28 04:00,ZBSJ 280400Z 07002MPS CAVOK 19/02 Q1027 NOSIG
ZBSJ,2016-09-28 05:00,ZBSJ 280500Z 03002MPS 330V110 CAVOK 20/02 Q1026 NOSIG
ZBSJ,2016-09-28 06:00,ZBSJ 280600Z 03002MPS CAVOK 20/01 Q1024 NOSIG
ZBSJ,2016-09-28 07:00,ZBSJ 280700Z 10002MPS CAVOK 21/02 Q1024 NOSIG
ZBSJ,2016-09-28 08:00,ZBSJ 280800Z 24001MPS CAVOK 21/02 Q1023 NOSIG
ZBSJ,2016-09-28 09:00,ZBSJ 280900Z 11001MPS CAVOK 20/01 Q1023 NOSIG
ZBSJ,2016-09-28 10:00,ZBSJ 281000Z 12001MPS CAVOK 17/07 Q1022 NOSIG
ZBSJ,2016-09-28 11:00,ZBSJ 281100Z 16001MPS CAVOK 14/07 Q1023 NOSIG
ZBSJ,2016-09-28 12:00,ZBSJ 281200Z 12001MPS CAVOK 12/08 Q1023 NOSIG
ZBSJ,2016-09-28 13:00,ZBSJ 281300Z 17001MPS 8000 NSC 11/07 Q1023 NOSIG
ZBSJ,2016-09-28 14:00,ZBSJ 281400Z 17001MPS 7000 NSC 11/07 Q1024 NOSIG
ZBSJ,2016-09-28 15:00,ZBSJ 281500Z 19001MPS 7000 NSC 10/06 Q1023 NOSIG
ZBSJ,2016-09-28 16:00,ZBSJ 281600Z 00000MPS 7000 NSC 09/07 Q1023 NOSIG
ZBSJ,2016-09-28 17:00,ZBSJ 281700Z 32001MPS 6000 NSC 09/06 Q1022 NOSIG
ZBSJ,2016-09-28 18:00,ZBSJ 281800Z 34001MPS 6000 NSC 08/06 Q1022 NOSIG
ZBSJ,2016-09-28 19:00,ZBSJ 281900Z 34001MPS 6000 NSC 08/06 Q1021 NOSIG
ZBSJ,2016-09-28 20:00,ZBSJ 282000Z 19001MPS 6000 NSC 08/06 Q1021 NOSIG
ZBSJ,2016-09-28 21:00,ZBSJ 282100Z 00000MPS 5000 BR NSC 07/06 Q1021 NOSIG
ZBSJ,2016-09-28 22:00,ZBSJ 282200Z 25001MPS 3500 BR NSC 08/07 Q1022 NOSIG
ZBSJ,2016-09-28 23:00,ZBSJ 282300Z 32001MPS 3500 BR NSC 09/07 Q1022 NOSIG
ZBSJ,2016-09-29 00:00,ZBSJ 290000Z 00000MPS 6000 NSC 13/08 Q1022 NOSIG
ZBSJ,2016-09-29 01:00,ZBSJ 290100Z 28001MPS 7000 NSC 15/08 Q1022 NOSIG
ZBSJ,2016-09-29 02:00,ZBSJ 290200Z 21002MPS 7000 NSC 17/08 Q1022 NOSIG
ZBSJ,2016-09-29 03:00,ZBSJ 290300Z 21002MPS CAVOK 19/05 Q1021 NOSIG
ZBSJ,2016-09-29 04:00,ZBSJ 290400Z 20002MPS CAVOK 21/03 Q1020 NOSIG
ZBSJ,2016-09-29 05:00,ZBSJ 290500Z VRB03MPS CAVOK 21/03 Q1018 NOSIG
ZBSJ,2016-09-29 06:00,ZBSJ 290600Z 19003MPS 140V240 CAVOK 22/04 Q1017 NOSIG
ZBSJ,2016-09-29 07:00,ZBSJ 290700Z 21003MPS CAVOK 22/04 Q1017 NOSIG
ZBSJ,2016-09-29 08:00,ZBSJ 290800Z 20003MPS CAVOK 22/04 Q1016 NOSIG
ZBSJ,2016-09-29 09:00,ZBSJ 290900Z 14002MPS CAVOK 21/05 Q1016 NOSIG
ZBSJ,2016-09-29 10:00,ZBSJ 291000Z 11001MPS 6000 NSC 19/07 Q1016 NOSIG
ZBSJ,2016-09-29 11:00,ZBSJ 291100Z 12001MPS 8000 NSC 17/09 Q1016 NOSIG
ZBSJ,2016-09-29 12:00,ZBSJ 291200Z 14001MPS 8000 NSC 17/07 Q1016 NOSIG
ZBSJ,2016-09-29 13:00,ZBSJ 291300Z 19001MPS 8000 NSC 17/09 Q1017 NOSIG
ZBSJ,2016-09-29 14:00,ZBSJ 291400Z 12001MPS 7000 NSC 15/10 Q1016 NOSIG
ZBSJ,2016-09-29 15:00,ZBSJ 291500Z 00000MPS 6000 NSC 16/08 Q1016 NOSIG
ZBSJ,2016-09-29 16:00,ZBSJ 291600Z 05001MPS 6000 NSC 15/11 Q1016 NOSIG
ZBSJ,2016-09-29 17:00,ZBSJ 291700Z 00000MPS 5000 BR NSC 15/11 Q1016 NOSIG
ZBSJ,2016-09-29 18:00,ZBSJ 291800Z 16001MPS 5000 BR NSC 15/10 Q1015 NOSIG
ZBSJ,2016-09-29 19:00,ZBSJ 291900Z 00000MPS 5000 BR NSC 14/11 Q1015 NOSIG
ZBSJ,2016-09-29 20:00,ZBSJ 292000Z 04001MPS 4000 BR NSC 15/11 Q1015 NOSIG
ZBSJ,2016-09-29 21:00,ZBSJ 292100Z 05001MPS 3300 BR NSC 15/11 Q1016 NOSIG
ZBSJ,2016-09-29 22:00,ZBSJ 292200Z 34001MPS 2500 BR NSC 14/10 Q1016 NOSIG
ZBSJ,2016-09-29 23:00,ZBSJ 292300Z 00000MPS 1800 BR NSC 13/11 Q1016 BECMG 3500
ZBSJ,2016-09-30 00:00,ZBSJ 300000Z 04001MPS 1800 BR NSC 15/12 Q1016 BECMG 3500
ZBSJ,2016-09-30 01:00,ZBSJ 300100Z 05002MPS 1700 HZ NSC 17/09 Q1017 BECMG TL0230 3000
ZBSJ,2016-09-30 02:00,ZBSJ 300200Z 07001MPS 2300 HZ NSC 20/08 Q1017 BECMG TL0330 3000
ZBSJ,2016-09-30 03:00,ZBSJ 300300Z 08001MPS 4000 HZ NSC 22/08 Q1016 NOSIG
ZBSJ,2016-09-30 04:00,ZBSJ 300400Z 18002MPS 130V240 5000 HZ NSC 23/06 Q1015 NOSIG
ZBSJ,2016-09-30 05:00,ZBSJ 300500Z 19002MPS 5000 HZ NSC 24/07 Q1014 NOSIG
ZBSJ,2016-09-30 06:00,ZBSJ 300600Z 20003MPS 180V250 5000 HZ NSC 25/07 Q1013 NOSIG
ZBSJ,2016-09-30 07:00,ZBSJ 300700Z 14003MPS 110V170 5000 HZ NSC 26/07 Q1013 NOSIG
ZBSJ,2016-09-30 08:00,ZBSJ 300800Z 19002MPS 5000 HZ NSC 26/07 Q1012 NOSIG
ZBSJ,2016-09-30 09:00,ZBSJ 300900Z 14003MPS 5000 HZ NSC 24/08 Q1012 NOSIG
ZBSJ,2016-09-30 10:00,ZBSJ 301000Z 12002MPS 5000 HZ NSC 22/09 Q1013 NOSIG
ZBSJ,2016-09-30 11:00,ZBSJ 301100Z 13002MPS 7000 NSC 19/10 Q1013 NOSIG
ZBSJ,2016-09-30 12:00,ZBSJ 301200Z 15002MPS 7000 NSC 18/10 Q1014 NOSIG
ZBSJ,2016-09-30 13:00,ZBSJ 301300Z 16001MPS 7000 NSC 16/10 Q1014 NOSIG
ZBSJ,2016-09-30 14:00,ZBSJ 301400Z 20001MPS 6000 NSC 15/11 Q1015 NOSIG
ZBSJ,2016-09-30 15:00,ZBSJ 301500Z 18001MPS 6000 NSC 15/10 Q1014 NOSIG
ZBSJ,2016-09-30 16:00,ZBSJ 301600Z 18001MPS 5000 BR NSC 14/10 Q1014 NOSIG
ZBSJ,2016-09-30 17:00,ZBSJ 301700Z 16001MPS 5000 BR NSC 14/11 Q1014 NOSIG
ZBSJ,2016-09-30 18:00,ZBSJ 301800Z 00000MPS 4500 BR NSC 15/11 Q1014 NOSIG
ZBSJ,2016-09-30 19:00,ZBSJ 301900Z 23001MPS 4000 BR NSC 15/11 Q1013 NOSIG
ZBSJ,2016-09-30 20:00,ZBSJ 302000Z 23001MPS 3000 BR NSC 14/12 Q1013 NOSIG
ZBSJ,2016-09-30 21:00,ZBSJ 302100Z 33002MPS 2200 BR NSC 14/12 Q1014 NOSIG
ZBSJ,2016-09-30 22:00,ZBSJ 302200Z 00000MPS 1600 BR NSC 13/12 Q1014 NOSIG
ZBSJ,2016-09-30 23:00,ZBSJ 302300Z 00000MPS 1600 R15/1400N BR NSC 13/12 Q1014 NOSIG
ZBSJ,2016-10-01 00:00,ZBSJ 010000Z 21001MPS 1600 BR NSC 16/13 Q1015 BECMG 3000
ZBSJ,2016-10-01 01:00,ZBSJ 010100Z 16001MPS 1600 HZ NSC 18/13 Q1015 BECMG TL0230 3000
ZBSJ,2016-10-01 02:00,ZBSJ 010200Z 24001MPS 1800 HZ NSC 19/12 Q1015 BECMG TL0330 3000
ZBSJ,2016-10-01 03:00,ZBSJ 010300Z 31001MPS 2000 HZ NSC 21/12 Q1015 NOSIG
ZBSJ,2016-10-01 04:00,ZBSJ 010400Z 26001MPS 2200 HZ NSC 22/12 Q1014 BECMG 3000
ZBSJ,2016-10-01 05:00,ZBSJ 010500Z 20001MPS 2300 HZ NSC 23/12 Q1014 NOSIG
ZBSJ,2016-10-01 06:00,ZBSJ 010600Z 21001MPS 2300 HZ NSC 24/12 Q1013 NOSIG
ZBSJ,2016-10-01 07:00,ZBSJ 010700Z 16002MPS 2200 HZ NSC 24/12 Q1013 NOSIG
ZBSJ,2016-10-01 08:00,ZBSJ 010800Z 14003MPS 2200 HZ NSC 24/12 Q1012 NOSIG
ZBSJ,2016-10-01 09:00,ZBSJ 010900Z 18002MPS 2500 HZ NSC 24/12 Q1013 NOSIG
ZBSJ,2016-10-01 10:00,ZBSJ 011000Z 08001MPS 2300 HZ NSC 21/13 Q1013 NOSIG
ZBSJ,2016-10-01 11:00,ZBSJ 011100Z 05002MPS 3500 HZ NSC 19/13 Q1013 NOSIG
ZBSJ,2016-10-01 12:00,ZBSJ 011200Z 10001MPS 3500 BR NSC 17/13 Q1014 NOSIG
ZBSJ,2016-10-01 13:00,ZBSJ 011300Z 06001MPS 3000 BR NSC 16/13 Q1014 BECMG TL1430 2500 BR
ZBSJ,2016-10-01 14:00,ZBSJ 011400Z 10001MPS 2800 BR NSC 16/12 Q1015 NOSIG
ZBSJ,2016-10-01 15:00,ZBSJ 011500Z 03001MPS 2300 BR NSC 15/12 Q1015 NOSIG
ZBSJ,2016-10-01 16:00,ZBSJ 011600Z 03001MPS 2000 BR NSC 15/13 Q1014 NOSIG
ZBSJ,2016-10-01 17:00,ZBSJ 011700Z 34003MPS 1500 BR NSC 16/13 Q1015 NOSIG
ZBSJ,2016-10-01 18:00,ZBSJ 011800Z 36001MPS 1200 R15/1500U BR NSC 14/13 Q1014 NOSIG
ZBSJ,2016-10-01 19:00,ZBSJ 011900Z 35002MPS 1200 R15/1500N BR NSC 14/13 Q1014 NOSIG
ZBSJ,2016-10-01 20:00,ZBSJ 012000Z 34002MPS 1400 R15/1700N BR NSC 15/13 Q1014 NOSIG
ZBSJ,2016-10-01 21:00,ZBSJ 012100Z 32003MPS 1600 BR NSC 15/13 Q1014 NOSIG
ZBSJ,2016-10-01 22:00,ZBSJ 012200Z 29002MPS 1700 BR NSC 15/13 Q1014 NOSIG
ZBSJ,2016-10-01 23:00,ZBSJ 012300Z 29002MPS 1400 R15/1400N BR NSC 16/13 Q1014 BECMG 1600
ZBSJ,2016-10-02 00:00,ZBSJ 020000Z 31002MPS 1400 R15/1300N BR NSC 17/13 Q1014 BECMG 1600
ZBSJ,2016-10-02 01:00,ZBSJ 020100Z 32004MPS 1400 R15/1400N HZ SCT040 19/14 Q1014 BECMG TL0230 1600
ZBSJ,2016-10-02 02:00,ZBSJ 020200Z 36002MPS 1600 HZ SCT040 20/13 Q1014 NOSIG
ZBSJ,2016-10-02 03:00,ZBSJ 020300Z 05002MPS 360V090 1800 HZ NSC 22/13 Q1013 NOSIG
ZBSJ,2016-10-02 04:00,ZBSJ 020400Z 04002MPS 2700 HZ NSC 24/13 Q1013 BECMG TL0530 3000
ZBSJ,2016-10-02 05:00,ZBSJ 020500Z 36001MPS 2500 HZ NSC 25/15 Q1012 NOSIG
ZBSJ,2016-10-02 06:00,ZBSJ 020600Z 11001MPS 2500 HZ NSC 25/15 Q1011 NOSIG
ZBSJ,2016-10-02 07:00,ZBSJ 020700Z 13002MPS 2700 HZ NSC 26/15 Q1010 BECMG 3000
ZBSJ,2016-10-02 08:00,ZBSJ 020800Z 15001MPS 3000 HZ NSC 26/15 Q1009 BECMG TL0930 2000 HZ
ZBSJ,2016-10-02 09:00,ZBSJ 020900Z 19001MPS 2700 HZ NSC 26/16 Q1009 NOSIG
ZBSJ,2016-10-02 10:00,ZBSJ 021000Z 27001MPS 2500 HZ NSC 24/16 Q1009 BECMG TL1130 3000
ZBSJ,2016-10-02 11:00,ZBSJ 021100Z 34002MPS 3000 HZ NSC 21/16 Q1010 BECMG TL1230 2700 HZ
ZBSJ,2016-10-02 12:00,ZBSJ 021200Z 36001MPS 3000 HZ NSC 20/16 Q1010 BECMG TL1330 2700 HZ
ZBSJ,2016-10-02 13:00,ZBSJ 021300Z 32001MPS 2500 HZ NSC 19/16 Q1010 NOSIG
ZBSJ,2016-10-02 14:00,ZBSJ 021400Z 33001MPS 2000 BR NSC 18/16 Q1010 NOSIG
ZBSJ,2016-10-02 15:00,ZBSJ 021500Z 28001MPS 1800 BR NSC 18/16 Q1010 NOSIG
ZBSJ,2016-10-02 16:00,ZBSJ 021600Z 28002MPS 1600 BR NSC 18/16 Q1009 NOSIG
ZBSJ,2016-10-02 17:00,ZBSJ 021700Z 31002MPS 1600 BR NSC 18/16 Q1009 NOSIG
ZBSJ,2016-10-02 18:00,ZBSJ 021800Z 33002MPS 1600 BR NSC 17/15 Q1008 NOSIG
ZBSJ,2016-10-02 19:00,ZBSJ 021900Z 32002MPS 1600 BR NSC 17/15 Q1008 NOSIG
ZBSJ,2016-10-02 20:00,ZBSJ 022000Z 33002MPS 1600 BR NSC 16/15 Q1008 NOSIG
ZBSJ,2016-10-02 21:00,ZBSJ 022100Z 34002MPS 1500 BR NSC 15/14 Q1008 NOSIG
ZBSJ,2016-10-02 22:00,ZBSJ 022200Z 33001MPS 1300 R15/0900V1500D BR NSC 14/14 Q1008 NOSIG
ZBSJ,2016-10-02 23:00,ZBSJ 022300Z 32001MPS 1100 R15/1000D BR NSC 15/14 Q1009 NOSIG
ZBSJ,2016-10-03 00:00,ZBSJ 030000Z 00000MPS 0800 R15/0900N FG NSC 17/16 Q1010 NOSIG
ZBSJ,2016-10-03 01:00,ZBSJ 030100Z 34002MPS 1000 R15/1200N BR NSC 20/16 Q1010 BECMG TL0230 1500
ZBSJ,2016-10-03 02:00,ZBSJ 030200Z 04002MPS 1600 BR NSC 22/16 Q1010 NOSIG
ZBSJ,2016-10-03 03:00,ZBSJ 030300Z 04003MPS 350V090 1400 R15/1300U HZ NSC 24/17 Q1010 BECMG TL0430 1500
ZBSJ,2016-10-03 04:00,ZBSJ 030400Z 07004MPS 040V110 1600 HZ NSC 25/17 Q1010 NOSIG
ZBSJ,2016-10-03 05:00,ZBSJ 030500Z 06003MPS 010V090 1800 HZ NSC 27/17 Q1010 NOSIG
ZBSJ,2016-10-03 06:00,ZBSJ 030600Z 08003MPS 040V120 1600 HZ NSC 27/17 Q1009 NOSIG
ZBSJ,2016-10-03 07:00,ZBSJ 030700Z 09004MPS 060V140 1800 HZ NSC 27/17 Q1009 NOSIG
ZBSJ,2016-10-03 08:00,ZBSJ 030800Z 08003MPS 2000 HZ NSC 28/16 Q1009 NOSIG
ZBSJ,2016-10-03 09:00,ZBSJ 030900Z 04002MPS 360V060 1800 HZ NSC 26/18 Q1009 NOSIG
ZBSJ,2016-10-03 10:00,ZBSJ 031000Z 03002MPS 1400 R15/P2000N HZ NSC 24/18 Q1010 BECMG TL1130 1500
ZBSJ,2016-10-03 11:00,ZBSJ 031100Z 02002MPS 1800 HZ NSC 23/18 Q1010 BECMG TL1230 1500
ZBSJ,2016-10-03 12:00,ZBSJ 031200Z 04002MPS 2000 HZ NSC 22/18 Q1011 BECMG TL1330 1400 HZ
ZBSJ,2016-10-03 13:00,ZBSJ 031300Z 03001MPS 2000 HZ NSC 22/18 Q1012 BECMG TL1430 1400 HZ
ZBSJ,2016-10-03 14:00,ZBSJ 031400Z 01002MPS 2000 BR NSC 22/18 Q1012 BECMG TL1530 1400 HZ
ZBSJ,2016-10-03 15:00,ZBSJ 031500Z 01002MPS 350V050 1800 BR NSC 21/18 Q1012 NOSIG
ZBSJ,2016-10-03 16:00,ZBSJ 031600Z 03001MPS 1800 BR NSC 21/18 Q1012 NOSIG
ZBSJ,2016-10-03 17:00,ZBSJ 031700Z 04002MPS 1800 BR NSC 21/18 Q1012 NOSIG
ZBSJ,2016-10-03 18:00,ZBSJ 031800Z 04002MPS 1400 R15/P2000N BR NSC 20/18 Q1011 NOSIG
ZBSJ,2016-10-03 19:00,ZBSJ 031900Z 05003MPS 1400 R15/2000D BR NSC 20/18 Q1011 NOSIG
ZBSJ,2016-10-03 20:00,ZBSJ 032000Z 03001MPS 1300 R15/1600N BR NSC 19/18 Q1011 NOSIG
ZBSJ,2016-10-03 21:00,ZBSJ 032100Z 04001MPS 1100 R15/1300N BR NSC 19/18 Q1012 NOSIG
ZBSJ,2016-10-03 22:00,ZBSJ 032200Z 10002MPS 1100 R15/1200N BR NSC 19/18 Q1012 NOSIG
ZBSJ,2016-10-03 23:00,ZBSJ 032300Z 25001MPS 0600 R15/0900V1100U FG NSC 19/18 Q1013 BECMG TL0030 0800
ZBSJ,2016-10-04 00:00,ZBSJ 040000Z 18002MPS 0500 R15/0900N FG NSC 19/19 Q1013 BECMG TL0130 0800
ZBSJ,2016-10-04 01:00,ZBSJ 040100Z 21001MPS 0500 R15/0800N FG NSC 20/19 Q1013 BECMG TL0230 0800
ZBSJ,2016-10-04 02:00,ZBSJ 040200Z 01001MPS 0800 R15/0900N FG NSC 21/19 Q1013 NOSIG
ZBSJ,2016-10-04 03:00,ZBSJ 040300Z 03001MPS 0700 R15/0900D FG NSC 21/19 Q1012 BECMG TL0430 0800
ZBSJ,2016-10-04 04:00,ZBSJ 040400Z 36001MPS 0800 R15/1100N FG NSC 21/19 Q1012 NOSIG
ZBSJ,2016-10-04 05:00,ZBSJ 040500Z 02001MPS 0700 R15/0900D FG NSC 21/19 Q1011 BECMG TL0630 0800
ZBSJ,2016-10-04 06:00,ZBSJ 040600Z 36002MPS 340V050 0650 R15/0800V1400U FG NSC 21/19 Q1011 BECMG TL0730 0800
ZBSJ,2016-10-04 07:00,ZBSJ 040700Z 01003MPS 340V050 1600 R33/1300D BR NSC 20/18 Q1011 NOSIG
ZBSJ,2016-10-04 08:00,ZBSJ 040800Z 01002MPS 340V060 1600 BR NSC 20/18 Q1011 BECMG 3000
ZBSJ,2016-10-04 09:00,ZBSJ 040900Z 35002MPS 1800 BR NSC 20/18 Q1011 NOSIG
ZBSJ,2016-10-04 10:00,ZBSJ 041000Z 35002MPS 1800 BR NSC 20/18 Q1012 NOSIG
ZBSJ,2016-10-04 11:00,ZBSJ 041100Z 02001MPS 2200 BR NSC 20/18 Q1013 BECMG 3000
ZBSJ,2016-10-04 12:00,ZBSJ 041200Z 05001MPS 2800 BR NSC 20/18 Q1014 BECMG 3000
ZBSJ,2016-10-04 13:00,ZBSJ 041300Z 08002MPS 3500 BR NSC 19/17 Q1015 NOSIG
ZBSJ,2016-10-04 14:00,ZBSJ 041400Z 06001MPS 3500 BR NSC 18/16 Q1016 NOSIG
ZBSJ,2016-10-04 15:00,ZBSJ 041500Z 00000MPS 4000 BR NSC 17/16 Q1016 NOSIG
ZBSJ,2016-10-04 16:00,ZBSJ 041600Z 07001MPS 3500 BR NSC 16/15 Q1016 NOSIG
ZBSJ,2016-10-04 17:00,ZBSJ 041700Z 06002MPS 3500 BR NSC 15/14 Q1016 NOSIG
ZBSJ,2016-10-04 18:00,ZBSJ 041800Z 07001MPS 4000 BR NSC 15/14 Q1016 NOSIG
ZBSJ,2016-10-04 19:00,ZBSJ 041900Z 32001MPS 6000 NSC 13/13 Q1017 NOSIG
ZBSJ,2016-10-04 20:00,ZBSJ 042000Z 34001MPS 4000 BR NSC 13/12 Q1017 NOSIG
ZBSJ,2016-10-04 21:00,ZBSJ 042100Z 33002MPS 2000 BR NSC 13/13 Q1017 NOSIG
ZBSJ,2016-10-04 22:00,ZBSJ 042200Z 34001MPS 0400 R33/0325N FG NSC 13/12 Q1017 BECMG 0700
ZBSJ,2016-10-04 23:00,ZBSJ 042300Z 33001MPS 0600 R33/0700U FG NSC 13/12 Q1018 BECMG TL0030 1200
ZBSJ,2016-10-05 00:00,ZBSJ 050000Z 35001MPS 2800 R15/0800V1600U PRFG BR NSC 14/14 Q1019 BECMG TL0130 3200
ZBSJ,2016-10-05 01:00,ZBSJ 050100Z 10001MPS 7000 NSC 17/15 Q1020 NOSIG
ZBSJ,2016-10-05 02:00,ZBSJ 050200Z 09001MPS 6000 FEW040 19/14 Q1019 NOSIG
ZBSJ,2016-10-05 03:00,ZBSJ 050300Z 17002MPS 6000 NSC 20/13 Q1019 NOSIG
ZBSJ,2016-10-05 04:00,ZBSJ 050400Z 19002MPS 130V240 6000 NSC 22/14 Q1018 NOSIG
ZBSJ,2016-10-05 05:00,ZBSJ 050500Z 20002MPS 140V290 8000 NSC 24/11 Q1018 NOSIG
ZBSJ,2016-10-05 06:00,ZBSJ 050600Z 21003MPS CAVOK 24/08 Q1017 NOSIG
ZBSJ,2016-10-05 07:00,ZBSJ 050700Z 18003MPS CAVOK 25/08 Q1017 NOSIG
ZBSJ,2016-10-05 08:00,ZBSJ 050800Z 17003MPS CAVOK 24/09 Q1017 NOSIG
ZBSJ,2016-10-05 09:00,ZBSJ 050900Z 17002MPS CAVOK 22/10 Q1017 NOSIG
ZBSJ,2016-10-05 10:00,ZBSJ 051000Z 10002MPS 8000 NSC 21/11 Q1017 NOSIG
ZBSJ,2016-10-05 11:00,ZBSJ 051100Z 11002MPS CAVOK 19/12 Q1018 NOSIG
ZBSJ,2016-10-05 12:00,ZBSJ 051200Z 11001MPS 8000 NSC 17/13 Q1019 NOSIG
ZBSJ,2016-10-05 13:00,ZBSJ 051300Z 12001MPS 8000 NSC 17/13 Q1020 NOSIG
ZBSJ,2016-10-05 14:00,ZBSJ 051400Z 08001MPS 6000 NSC 16/13 Q1020 NOSIG
ZBSJ,2016-10-05 15:00,ZBSJ 051500Z 00000MPS 5000 BR NSC 15/12 Q1021 NOSIG
ZBSJ,2016-10-05 16:00,ZBSJ 051600Z 05001MPS 5000 BR NSC 14/12 Q1021 NOSIG
ZBSJ,2016-10-05 17:00,ZBSJ 051700Z 03001MPS 4000 BR NSC 14/12 Q1021 NOSIG
ZBSJ,2016-10-05 18:00,ZBSJ 051800Z 36001MPS 3000 BR NSC 13/11 Q1021 NOSIG
ZBSJ,2016-10-05 19:00,ZBSJ 051900Z 04001MPS 2200 BR NSC 12/11 Q1021 NOSIG
ZBSJ,2016-10-05 20:00,ZBSJ 052000Z 02001MPS 2300 BR NSC 14/12 Q1022 NOSIG
ZBSJ,2016-10-05 21:00,ZBSJ 052100Z 05002MPS 2300 BR NSC 13/12 Q1022 NOSIG
ZBSJ,2016-10-05 22:00,ZBSJ 052200Z 05002MPS 2500 BR NSC 14/12 Q1023 NOSIG
ZBSJ,2016-10-05 23:00,ZBSJ 052300Z 06003MPS 1600 BR NSC 15/13 Q1024 BECMG TL0030 3000
ZBSJ,2016-10-06 00:00,ZBSJ 060000Z 06004MPS 1800 BR NSC 15/13 Q1024 BECMG TL0130 3000
ZBSJ,2016-10-06 01:00,ZBSJ 060100Z 08004MPS 1800 BR NSC 16/14 Q1025 BECMG TL0230 3000
ZBSJ,2016-10-06 02:00,ZBSJ 060200Z 08004MPS 2200 BR NSC 18/14 Q1025 NOSIG
ZBSJ,2016-10-06 03:00,ZBSJ 060300Z 11003MPS 060V150 3500 HZ NSC 20/14 Q1024 NOSIG
ZBSJ,2016-10-06 04:00,ZBSJ 060400Z 11002MPS 060V150 4000 HZ NSC 21/13 Q1024 NOSIG
ZBSJ,2016-10-06 05:00,ZBSJ 060500Z 08003MPS 030V140 5000 HZ NSC 22/13 Q1023 NOSIG
ZBSJ,2016-10-06 06:00,ZBSJ 060600Z 06003MPS 020V090 7000 NSC 21/13 Q1022 NOSIG
ZBSJ,2016-10-06 07:00,ZBSJ 060700Z 14004MPS 8000 NSC 22/11 Q1022 NOSIG
ZBSJ,2016-10-06 08:00,ZBSJ 060800Z 15001MPS CAVOK 21/12 Q1022 NOSIG
ZBSJ,2016-10-06 09:00,ZBSJ 060900Z 15002MPS 9999 FEW046 20/11 Q1022 NOSIG
ZBSJ,2016-10-06 10:00,ZBSJ 061000Z 00000MPS 9999 -RA FEW040 18/14 Q1022 NOSIG
ZBSJ,2016-10-06 11:00,ZBSJ 061100Z 11001MPS 9999 -RA FEW040 18/14 Q1022 NOSIG
ZBSJ,2016-10-06 12:00,ZBSJ 061200Z 06001MPS 8000 -RA OVC046 17/13 Q1022 NOSIG
ZBSJ,2016-10-06 13:00,ZBSJ 061300Z 03001MPS 6000 -RA OVC046 17/14 Q1023 NOSIG
ZBSJ,2016-10-06 14:00,ZBSJ 061400Z 07001MPS 5000 -RA BR OVC046 17/14 Q1023 NOSIG
ZBSJ,2016-10-06 15:00,ZBSJ 061500Z 05001MPS 5000 BR OVC046 16/14 Q1023 NOSIG
ZBSJ,2016-10-06 16:00,ZBSJ 061600Z 02001MPS 5000 BR OVC046 16/14 Q1022 NOSIG
ZBSJ,2016-10-06 17:00,ZBSJ 061700Z 05002MPS 5000 BR OVC046 16/14 Q1022 NOSIG
ZBSJ,2016-10-06 18:00,ZBSJ 061800Z 06002MPS 5000 BR OVC046 16/14 Q1021 NOSIG
ZBSJ,2016-10-06 19:00,ZBSJ 061900Z 08002MPS 4000 -RA BR OVC046 16/14 Q1021 NOSIG
ZBSJ,2016-10-06 20:00,ZBSJ 062000Z 07002MPS 3000 -RA BR OVC040 15/14 Q1020 NOSIG
ZBSJ,2016-10-06 21:00,ZBSJ 062100Z 09002MPS 3500 -RA BR OVC040 15/14 Q1019 NOSIG
ZBSJ,2016-10-06 22:00,ZBSJ 062200Z 09001MPS 3500 -RA BR OVC040 15/14 Q1019 NOSIG
ZBSJ,2016-10-06 23:00,ZBSJ 062300Z 07001MPS 1600 -RA BR OVC033 15/14 Q1019 BECMG 1400 -RA BR
ZBSJ,2016-10-07 00:00,ZBSJ 070000Z 07002MPS 1300 R15/1500D -RA BR OVC033 15/14 Q1019 BECMG TL0130 1600
ZBSJ,2016-10-07 01:00,ZBSJ 070100Z 09001MPS 1300 R15/1500D -RA BR OVC033 15/14 Q1019 NOSIG
ZBSJ,2016-10-07 02:00,ZBSJ 070200Z 14001MPS 1600 -RA BR OVC033 15/14 Q1019 NOSIG
ZBSJ,2016-10-07 03:00,ZBSJ 070300Z 13001MPS 1600 -RA BR OVC033 15/14 Q1019 NOSIG
ZBSJ,2016-10-07 04:00,ZBSJ 070400Z 15002MPS 1600 -RA BR OVC033 15/14 Q1018 NOSIG
ZBSJ,2016-10-07 05:00,ZBSJ 070500Z 13003MPS 050V170 1600 BR OVC033 16/14 Q1017 NOSIG
ZBSJ,2016-10-07 06:00,ZBSJ 070600Z 21002MPS 1800 BR OVC033 16/14 Q1017 NOSIG
ZBSJ,2016-10-07 07:00,ZBSJ 070700Z 18002MPS 1800 BR BKN033 17/14 Q1016 NOSIG
ZBSJ,2016-10-07 08:00,ZBSJ 070800Z 16002MPS 130V190 2000 BR BKN033 17/14 Q1015 BECMG TL0930 3000
ZBSJ,2016-10-07 09:00,ZBSJ 070900Z 15001MPS 2500 BR BKN033 17/14 Q1016 BECMG TL1030 3000
ZBSJ,2016-10-07 10:00,ZBSJ 071000Z 00000MPS 2000 BR BKN033 17/14 Q1016 NOSIG
ZBSJ,2016-10-07 11:00,ZBSJ 071100Z 21001MPS 3000 BR BKN033 15/14 Q1017 NOSIG
ZBSJ,2016-10-07 12:00,ZBSJ 071200Z 19001MPS 2200 BR BKN033 14/12 Q1018 NOSIG
ZBSJ,2016-10-07 13:00,ZBSJ 071300Z 25002MPS 1600 BR BKN033 13/13 Q1019 BECMG TL1430 1400 BR
ZBSJ,2016-10-07 14:00,ZBSJ 071400Z 27003MPS 1600 BR NSC 15/13 Q1019 NOSIG
ZBSJ,2016-10-07 15:00,ZBSJ 071500Z 14001MPS 1000 R15/P2000N BR NSC 12/11 Q1020 NOSIG
ZBSJ,2016-10-07 16:00,ZBSJ 071600Z 33001MPS 1400 R15/P2000D BR NSC 13/12 Q1020 NOSIG
ZBSJ,2016-10-07 17:00,ZBSJ 071700Z 31002MPS 2300 BR NSC 12/11 Q1020 NOSIG
ZBSJ,2016-10-07 18:00,ZBSJ 071800Z 30003MPS 6000 NSC 11/08 Q1020 NOSIG
ZBSJ,2016-10-07 19:00,ZBSJ 071900Z 29002MPS 7000 NSC 11/06 Q1020 NOSIG
ZBSJ,2016-10-07 20:00,ZBSJ 072000Z 29002MPS CAVOK 09/06 Q1020 NOSIG
ZBSJ,2016-10-07 21:00,ZBSJ 072100Z 03001MPS CAVOK 08/06 Q1020 NOSIG
ZBSJ,2016-10-07 22:00,ZBSJ 072200Z 28002MPS CAVOK 07/05 Q1021 NOSIG
ZBSJ,2016-10-07 23:00,ZBSJ 072300Z 31003MPS CAVOK 08/05 Q1021 NOSIG
ZBSJ,2016-10-08 00:00,ZBSJ 080000Z 29002MPS 260V320 CAVOK 13/06 Q1022 NOSIG
ZBSJ,2016-10-08 01:00,ZBSJ 080100Z 31003MPS CAVOK 15/05 Q1023 NOSIG
ZBSJ,2016-10-08 02:00,ZBSJ 080200Z 33003MPS 290V360 CAVOK 17/05 Q1023 NOSIG
ZBSJ,2016-10-08 03:00,ZBSJ 080300Z 35003MPS CAVOK 19/04 Q1022 NOSIG
ZBSJ,2016-10-08 04:00,ZBSJ 080400Z 02001MPS CAVOK 20/02 Q1022 NOSIG
ZBSJ,2016-10-08 05:00,ZBSJ 080500Z 08001MPS CAVOK 20/01 Q1021 NOSIG
ZBSJ,2016-10-08 06:00,ZBSJ 080600Z 36002MPS 310V080 CAVOK 21/01 Q1020 NOSIG
ZBSJ,2016-10-08 07:00,ZBSJ 080700Z 04002MPS CAVOK 21/M00 Q1019 NOSIG
ZBSJ,2016-10-08 08:00,ZBSJ 080800Z 05002MPS 010V110 CAVOK 21/00 Q1019 NOSIG
ZBSJ,2016-10-08 09:00,ZBSJ 080900Z 12002MPS CAVOK 20/01 Q1020 NOSIG
ZBSJ,2016-10-08 10:00,ZBSJ 081000Z 12002MPS CAVOK 17/03 Q1020 NOSIG
ZBSJ,2016-10-08 11:00,ZBSJ 081100Z 09003MPS CAVOK 15/05 Q1022 NOSIG
ZBSJ,2016-10-08 12:00,ZBSJ 081200Z 10003MPS CAVOK 14/05 Q1023 NOSIG
ZBSJ,2016-10-08 13:00,ZBSJ 081300Z 10002MPS CAVOK 13/05 Q1023 NOSIG
ZBSJ,2016-10-08 14:00,ZBSJ 081400Z 10002MPS CAVOK 12/04 Q1024 NOSIG
ZBSJ,2016-10-08 15:00,ZBSJ 081500Z 25002MPS CAVOK 10/04 Q1025 NOSIG
ZBSJ,2016-10-08 16:00,ZBSJ 081600Z 33002MPS CAVOK 10/04 Q1025 NOSIG
ZBSJ,2016-10-08 17:00,ZBSJ 081700Z 34002MPS CAVOK 09/04 Q1025 NOSIG
ZBSJ,2016-10-08 18:00,ZBSJ 081800Z 27001MPS CAVOK 07/04 Q1025 NOSIG
ZBSJ,2016-10-08 19:00,ZBSJ 081900Z 07001MPS CAVOK 07/05 Q1025 NOSIG
ZBSJ,2016-10-08 20:00,ZBSJ 082000Z 07001MPS CAVOK 06/05 Q1024 NOSIG
ZBSJ,2016-10-08 21:00,ZBSJ 082100Z 00000MPS CAVOK 06/05 Q1024 NOSIG
ZBSJ,2016-10-08 22:00,ZBSJ 082200Z 32001MPS CAVOK 06/05 Q1025 NOSIG
ZBSJ,2016-10-08 23:00,ZBSJ 082300Z 00000MPS CAVOK 07/06 Q1025 NOSIG
ZBSJ,2016-10-09 00:00,ZBSJ 090000Z 00000MPS CAVOK 10/07 Q1025 NOSIG
ZBSJ,2016-10-09 01:00,ZBSJ 090100Z 00000MPS 8000 NSC 11/06 Q1025 NOSIG
ZBSJ,2016-10-09 02:00,ZBSJ 090200Z 23001MPS 8000 NSC 12/06 Q1025 NOSIG
ZBSJ,2016-10-09 03:00,ZBSJ 090300Z 00000MPS 8000 NSC 13/07 Q1024 NOSIG
ZBSJ,2016-10-09 04:00,ZBSJ 090400Z 17001MPS 8000 NSC 14/06 Q1024 NOSIG
ZBSJ,2016-10-09 05:00,ZBSJ 090500Z 19001MPS 7000 NSC 14/06 Q1023 NOSIG
ZBSJ,2016-10-09 06:00,ZBSJ 090600Z 19002MPS CAVOK 15/05 Q1022 NOSIG
ZBSJ,2016-10-09 07:00,ZBSJ 090700Z 22002MPS 180V250 CAVOK 15/05 Q1021 NOSIG
ZBSJ,2016-10-09 08:00,ZBSJ 090800Z 17002MPS 8000 NSC 15/05 Q1021 NOSIG
ZBSJ,2016-10-09 09:00,ZBSJ 090900Z 17003MPS 8000 NSC 15/05 Q1020 NOSIG
ZBSJ,2016-10-09 10:00,ZBSJ 091000Z 13002MPS 5000 HZ NSC 13/06 Q1020 NOSIG
ZBSJ,2016-10-09 11:00,ZBSJ 091100Z 16001MPS 5000 HZ NSC 11/07 Q1020 NOSIG
ZBSJ,2016-10-09 12:00,ZBSJ 091200Z 15001MPS 5000 HZ NSC 10/07 Q1020 NOSIG
ZBSJ,2016-10-09 13:00,ZBSJ 091300Z 36001MPS 4500 BR NSC 10/07 Q1020 NOSIG
ZBSJ,2016-10-09 14:00,ZBSJ 091400Z 03001MPS 4500 BR NSC 08/07 Q1020 NOSIG
ZBSJ,2016-10-09 15:00,ZBSJ 091500Z 06001MPS 3300 BR NSC 08/06 Q1020 NOSIG
ZBSJ,2016-10-09 16:00,ZBSJ 091600Z 00000MPS 3500 BR NSC 08/07 Q1020 NOSIG
ZBSJ,2016-10-09 17:00,ZBSJ 091700Z 26001MPS 3500 BR NSC 08/06 Q1020 NOSIG
ZBSJ,2016-10-09 18:00,ZBSJ 091800Z 15002MPS 2500 BR NSC 07/06 Q1019 NOSIG
ZBSJ,2016-10-09 19:00,ZBSJ 091900Z 30001MPS 3200 BR NSC 07/06 Q1019 NOSIG
ZBSJ,2016-10-09 20:00,ZBSJ 092000Z 25001MPS 3000 BR NSC 07/06 Q1019 NOSIG
ZBSJ,2016-10-09 21:00,ZBSJ 092100Z 00000MPS 2500 BR NSC 06/06 Q1019 NOSIG
ZBSJ,2016-10-09 22:00,ZBSJ 092200Z 34001MPS 2500 BR NSC 06/06 Q1019 NOSIG
ZBSJ,2016-10-09 23:00,ZBSJ 092300Z 00000MPS 1800 BR NSC 06/06 Q1019 NOSIG
ZBSJ,2016-10-10 00:00,ZBSJ 100000Z 14001MPS 1800 BR NSC 09/08 Q1020 NOSIG
ZBSJ,2016-10-10 01:00,ZBSJ 100100Z 07001MPS 3000 BR NSC 12/08 Q1020 NOSIG
ZBSJ,2016-10-10 02:00,ZBSJ 100200Z 04001MPS 4000 HZ NSC 14/08 Q1019 NOSIG
ZBSJ,2016-10-10 03:00,ZBSJ 100300Z 29001MPS 5000 HZ NSC 18/09 Q1019 NOSIG
ZBSJ,2016-10-10 04:00,ZBSJ 100400Z 15002MPS 5000 HZ NSC 19/09 Q1017 NOSIG
ZBSJ,2016-10-10 05:00,ZBSJ 100500Z 18004MPS 4500 HZ NSC 21/09 Q1016 NOSIG
ZBSJ,2016-10-10 06:00,ZBSJ 100600Z 16005MPS CAVOK 22/09 Q1015 NOSIG
ZBSJ,2016-10-10 07:00,ZBSJ 100700Z 19006MPS 160V230 CAVOK 23/08 Q1014 NOSIG
ZBSJ,2016-10-10 08:00,ZBSJ 100800Z 18006MPS CAVOK 23/08 Q1014 NOSIG
ZBSJ,2016-10-10 09:00,ZBSJ 100900Z 18006MPS 6000 NSC 22/08 Q1014 NOSIG
ZBSJ,2016-10-10 10:00,ZBSJ 101000Z 17005MPS 8000 NSC 19/07 Q1014 NOSIG
ZBSJ,2016-10-10 11:00,ZBSJ 101100Z 18003MPS CAVOK 17/07 Q1015 NOSIG
ZBSJ,2016-10-10 12:00,ZBSJ 101200Z 18002MPS CAVOK 16/07 Q1015 NOSIG
ZBSJ,2016-10-10 13:00,ZBSJ 101300Z 14001MPS 8000 NSC 15/07 Q1016 NOSIG
ZBSJ,2016-10-10 14:00,ZBSJ 101400Z 05001MPS 6000 NSC 13/08 Q1016 NOSIG
ZBSJ,2016-10-10 15:00,ZBSJ 101500Z 21001MPS 7000 NSC 13/08 Q1017 NOSIG
ZBSJ,2016-10-10 16:00,ZBSJ 101600Z 18002MPS 6000 NSC 12/09 Q1017 NOSIG
ZBSJ,2016-10-10 17:00,ZBSJ 101700Z 23001MPS 5000 HZ NSC 13/09 Q1017 NOSIG
ZBSJ,2016-10-10 18:00,ZBSJ 101800Z 21001MPS 5000 BR NSC 11/08 Q1017 NOSIG
ZBSJ,2016-10-10 19:00,ZBSJ 101900Z 25001MPS 4000 BR NSC 11/09 Q1017 NOSIG
ZBSJ,2016-10-10 20:00,ZBSJ 102000Z 05001MPS 3500 BR NSC 10/08 Q1017 NOSIG
ZBSJ,2016-10-10 21:00,ZBSJ 102100Z 00000MPS 3000 BR NSC 09/08 Q1018 NOSIG
ZBSJ,2016-10-10 22:00,ZBSJ 102200Z 02001MPS 2500 BR NSC 09/08 Q1018 NOSIG
ZBSJ,2016-10-10 23:00,ZBSJ 102300Z 03001MPS 1800 BR NSC 10/09 Q1020 BECMG TL0030 3000
ZBSJ,2016-10-11 00:00,ZBSJ 110000Z 04002MPS 1800 BR NSC 12/10 Q1020 BECMG TL0130 3000
ZBSJ,2016-10-11 01:00,ZBSJ 110100Z 05003MPS 030V090 2000 BR NSC 14/10 Q1021 BECMG TL0230 3000
ZBSJ,2016-10-11 02:00,ZBSJ 110200Z 05003MPS 360V100 2300 HZ NSC 17/10 Q1022 BECMG TL0330 3000
ZBSJ,2016-10-11 03:00,ZBSJ 110300Z 05003MPS 360V090 3000 HZ NSC 19/10 Q1022 NOSIG
ZBSJ,2016-10-11 04:00,ZBSJ 110400Z 07005MPS 030V100 3500 HZ NSC 20/08 Q1021 NOSIG
ZBSJ,2016-10-11 05:00,ZBSJ 110500Z 07003MPS 020V120 4500 HZ NSC 20/07 Q1021 NOSIG
ZBSJ,2016-10-11 06:00,ZBSJ 110600Z 06003MPS 010V110 6000 NSC 21/06 Q1020 NOSIG
ZBSJ,2016-10-11 07:00,ZBSJ 110700Z 05003MPS 010V080 6000 NSC 21/07 Q1020 NOSIG
ZBSJ,2016-10-11 08:00,ZBSJ 110800Z 05003MPS 020V100 6000 NSC 21/06 Q1020 NOSIG
ZBSJ,2016-10-11 09:00,ZBSJ 110900Z 06002MPS 5000 HZ NSC 20/08 Q1020 NOSIG
ZBSJ,2016-10-11 10:00,ZBSJ 111000Z 04001MPS 4000 HZ NSC 18/09 Q1021 NOSIG
ZBSJ,2016-10-11 11:00,ZBSJ 111100Z 03001MPS 4200 HZ NSC 16/09 Q1022 NOSIG
ZBSJ,2016-10-11 12:00,ZBSJ 111200Z 04002MPS 4200 HZ NSC 16/09 Q1022 NOSIG
ZBSJ,2016-10-11 13:00,ZBSJ 111300Z 04002MPS 2500 HZ NSC 15/10 Q1023 NOSIG
ZBSJ,2016-10-11 14:00,ZBSJ 111400Z 04002MPS 2500 BR NSC 14/11 Q1024 NOSIG
ZBSJ,2016-10-11 15:00,ZBSJ 111500Z 04002MPS 2500 BR NSC 14/12 Q1024 NOSIG
ZBSJ,2016-10-11 16:00,ZBSJ 111600Z 05002MPS 2700 BR NSC 14/12 Q1024 NOSIG
ZBSJ,2016-10-11 17:00,ZBSJ 111700Z 34002MPS 3000 BR NSC 13/12 Q1024 NOSIG
ZBSJ,2016-10-11 18:00,ZBSJ 111800Z 35002MPS 2700 BR NSC 13/12 Q1024 NOSIG
ZBSJ,2016-10-11 19:00,ZBSJ 111900Z 36002MPS 2500 BR NSC 13/12 Q1024 NOSIG
ZBSJ,2016-10-11 20:00,ZBSJ 112000Z 01002MPS 2500 BR NSC 13/12 Q1024 NOSIG
ZBSJ,2016-10-11 21:00,ZBSJ 112100Z 02001MPS 2500 BR NSC 13/12 Q1025 NOSIG
ZBSJ,2016-10-11 22:00,ZBSJ 112200Z 05001MPS 2500 BR NSC 12/11 Q1025 NOSIG
ZBSJ,2016-10-11 23:00,ZBSJ 112300Z 04001MPS 1500 BR NSC 13/12 Q1025 BECMG TL0010 1400 BR
ZBSJ,2016-10-12 00:00,ZBSJ 120000Z 05002MPS 1600 BR NSC 13/12 Q1026 NOSIG
ZBSJ,2016-10-12 01:00,ZBSJ 120100Z 05002MPS 2800 BR NSC 15/12 Q1026 BECMG TL0230 3000
ZBSJ,2016-10-12 02:00,ZBSJ 120200Z 04002MPS 350V070 3500 BR NSC 16/12 Q1026 NOSIG
ZBSJ,2016-10-12 03:00,ZBSJ 120300Z 36002MPS 300V070 3500 HZ NSC 17/13 Q1026 NOSIG
ZBSJ,2016-10-12 04:00,ZBSJ 120400Z 01002MPS 3000 HZ NSC 18/12 Q1025 NOSIG
ZBSJ,2016-10-12 05:00,ZBSJ 120500Z 04002MPS 3000 HZ NSC 19/12 Q1023 NOSIG
ZBSJ,2016-10-12 06:00,ZBSJ 120600Z 35001MPS 3000 HZ NSC 19/11 Q1023 NOSIG
ZBSJ,2016-10-12 07:00,ZBSJ 120700Z 10001MPS 3000 HZ NSC 19/11 Q1022 NOSIG
ZBSJ,2016-10-12 08:00,ZBSJ 120800Z 10002MPS 3500 HZ NSC 19/11 Q1022 NOSIG
ZBSJ,2016-10-12 09:00,ZBSJ 120900Z 07001MPS 4000 HZ NSC 18/12 Q1021 NOSIG
ZBSJ,2016-10-12 10:00,ZBSJ 121000Z 06001MPS 4000 BR NSC 16/12 Q1022 NOSIG
ZBSJ,2016-10-12 11:00,ZBSJ 121100Z 15001MPS 4000 BR NSC 15/12 Q1022 NOSIG
ZBSJ,2016-10-12 12:00,ZBSJ 121200Z 18002MPS 4000 BR NSC 15/12 Q1022 NOSIG
ZBSJ,2016-10-12 13:00,ZBSJ 121300Z 22001MPS 3500 BR NSC 15/12 Q1022 NOSIG
ZBSJ,2016-10-12 14:00,ZBSJ 121400Z 27001MPS 3000 BR NSC 14/12 Q1022 NOSIG
ZBSJ,2016-10-12 15:00,ZBSJ 121500Z 12001MPS 2300 BR NSC 13/11 Q1021 NOSIG
ZBSJ,2016-10-12 16:00,ZBSJ 121600Z 00000MPS 2000 BR NSC 12/12 Q1021 NOSIG
ZBSJ,2016-10-12 17:00,ZBSJ 121700Z 19001MPS 1800 BR NSC 12/11 Q1021 NOSIG
ZBSJ,2016-10-12 18:00,ZBSJ 121800Z 20001MPS 1600 BR NSC 11/10 Q1020 NOSIG
ZBSJ,2016-10-12 19:00,ZBSJ 121900Z 36001MPS 1400 R15/1500U BR NSC 12/11 Q1019 NOSIG
ZBSJ,2016-10-12 20:00,ZBSJ 122000Z 02001MPS 1000 R15/1200V1600U BR NSC 11/11 Q1019 NOSIG
ZBSJ,2016-10-12 21:00,ZBSJ 122100Z 32001MPS 0700 R15/0800V1100D FG NSC 10/10 Q1020 NOSIG
ZBSJ,2016-10-12 22:00,ZBSJ 122200Z 14001MPS 0700 R15/1200V1600D FG NSC 09/09 Q1020 NOSIG
ZBSJ,2016-10-12 23:00,ZBSJ 122300Z 33002MPS 280V350 0700 R15/0750U FG NSC 10/10 Q1020 BECMG TL0030 0900
ZBSJ,2016-10-13 00:00,ZBSJ 130000Z 33002MPS 0900 R15/1000D FG NSC 12/12 Q1020 NOSIG
ZBSJ,2016-10-13 01:00,ZBSJ 130100Z 33001MPS 1400 R15/1500U BR NSC 15/12 Q1021 BECMG TL0230 1600
ZBSJ,2016-10-13 02:00,ZBSJ 130200Z 16001MPS 1400 R15/1200N BR NSC 17/13 Q1021 BECMG TL0330 1600
ZBSJ,2016-10-13 03:00,ZBSJ 130300Z 32001MPS 1700 HZ NSC 19/13 Q1020 NOSIG
ZBSJ,2016-10-13 04:00,ZBSJ 130400Z 07002MPS 2000 HZ NSC 20/13 Q1020 NOSIG
ZBSJ,2016-10-13 05:00,ZBSJ 130500Z 15002MPS 2000 HZ NSC 22/12 Q1019 NOSIG
ZBSJ,2016-10-13 06:00,ZBSJ 130600Z 17001MPS 2000 HZ NSC 24/12 Q1018 NOSIG
ZBSJ,2016-10-13 07:00,ZBSJ 130700Z 17003MPS 140V200 2400 HZ NSC 25/13 Q1017 NOSIG
ZBSJ,2016-10-13 08:00,ZBSJ 130800Z 17004MPS 2200 HZ NSC 24/13 Q1017 NOSIG
ZBSJ,2016-10-13 09:00,ZBSJ 130900Z 15003MPS 2200 HZ NSC 22/13 Q1017 NOSIG
ZBSJ,2016-10-13 10:00,ZBSJ 131000Z 07002MPS 1800 HZ NSC 19/13 Q1017 NOSIG
ZBSJ,2016-10-13 11:00,ZBSJ 131100Z 12003MPS 100V160 2000 HZ NSC 20/13 Q1017 NOSIG
ZBSJ,2016-10-13 12:00,ZBSJ 131200Z 18004MPS CAVOK 19/09 Q1018 NOSIG
ZBSJ,2016-10-13 13:00,ZBSJ 131300Z 18003MPS CAVOK 18/09 Q1018 NOSIG
ZBSJ,2016-10-13 14:00,ZBSJ 131400Z 18004MPS CAVOK 18/08 Q1019 NOSIG
ZBSJ,2016-10-13 15:00,ZBSJ 131500Z 20002MPS CAVOK 17/08 Q1019 NOSIG
ZBSJ,2016-10-13 16:00,ZBSJ 131600Z 18004MPS CAVOK 16/09 Q1019 NOSIG
ZBSJ,2016-10-13 17:00,ZBSJ 131700Z 23002MPS CAVOK 14/09 Q1019 NOSIG
ZBSJ,2016-10-13 18:00,ZBSJ 131800Z 21001MPS CAVOK 13/09 Q1019 NOSIG
ZBSJ,2016-10-13 19:00,ZBSJ 131900Z 20002MPS CAVOK 13/09 Q1019 NOSIG
ZBSJ,2016-10-13 20:00,ZBSJ 132000Z 18002MPS CAVOK 13/09 Q1019 NOSIG
ZBSJ,2016-10-13 21:00,ZBSJ 132100Z 16001MPS 8000 NSC 12/09 Q1019 NOSIG
ZBSJ,2016-10-13 22:00,ZBSJ 132200Z 18002MPS 6000 NSC 12/08 Q1020 NOSIG
ZBSJ,2016-10-13 23:00,ZBSJ 132300Z 20001MPS 5000 BR NSC 12/08 Q1020 NOSIG
ZBSJ,2016-10-14 00:00,ZBSJ 140000Z 18002MPS 4000 BR NSC 14/10 Q1021 NOSIG
ZBSJ,2016-10-14 01:00,ZBSJ 140100Z 19003MPS 3500 HZ NSC 17/10 Q1022 NOSIG
ZBSJ,2016-10-14 02:00,ZBSJ 140200Z 20003MPS 5000 HZ NSC 20/10 Q1022 NOSIG
ZBSJ,2016-10-14 03:00,ZBSJ 140300Z 20005MPS 6000 NSC 21/11 Q1022 NOSIG
ZBSJ,2016-10-14 04:00,ZBSJ 140400Z 18004MPS 150V220 8000 NSC 23/11 Q1021 NOSIG
ZBSJ,2016-10-14 05:00,ZBSJ 140500Z 18004MPS 150V210 CAVOK 24/11 Q1020 NOSIG
ZBSJ,2016-10-14 06:00,ZBSJ 140600Z 16005MPS CAVOK 25/10 Q1019 NOSIG
ZBSJ,2016-10-14 07:00,ZBSJ 140700Z 19006MPS CAVOK 25/10 Q1019 NOSIG
ZBSJ,2016-10-14 08:00,ZBSJ 140800Z 15007MPS CAVOK 23/10 Q1019 NOSIG
ZBSJ,2016-10-14 09:00,ZBSJ 140900Z 16006MPS CAVOK 22/09 Q1019 NOSIG
ZBSJ,2016-10-14 10:00,ZBSJ 141000Z 16003MPS CAVOK 18/10 Q1020 NOSIG
ZBSJ,2016-10-14 11:00,ZBSJ 141100Z 15003MPS CAVOK 17/09 Q1020 NOSIG
ZBSJ,2016-10-14 12:00,ZBSJ 141200Z 14001MPS CAVOK 17/09 Q1021 NOSIG
ZBSJ,2016-10-14 13:00,ZBSJ 141300Z 12001MPS CAVOK 16/10 Q1022 NOSIG
ZBSJ,2016-10-14 14:00,ZBSJ 141400Z 08002MPS 8000 NSC 14/11 Q1022 NOSIG
ZBSJ,2016-10-14 15:00,ZBSJ 141500Z 09002MPS 8000 NSC 15/10 Q1022 NOSIG
ZBSJ,2016-10-14 16:00,ZBSJ 141600Z 08001MPS 7000 NSC 13/10 Q1022 NOSIG
ZBSJ,2016-10-14 17:00,ZBSJ 141700Z 08002MPS 7000 NSC 15/10 Q1022 NOSIG
ZBSJ,2016-10-14 18:00,ZBSJ 141800Z 08001MPS 7000 NSC 14/10 Q1022 NOSIG
ZBSJ,2016-10-14 19:00,ZBSJ 141900Z 08001MPS 5000 BR NSC 14/10 Q1021 NOSIG
ZBSJ,2016-10-14 20:00,ZBSJ 142000Z 09002MPS 5000 BR NSC 15/10 Q1021 NOSIG
ZBSJ,2016-10-14 21:00,ZBSJ 142100Z 35001MPS 5000 BR NSC 14/10 Q1021 NOSIG
ZBSJ,2016-10-14 22:00,ZBSJ 142200Z 05001MPS 4000 BR NSC 14/11 Q1021 NOSIG
ZBSJ,2016-10-14 23:00,ZBSJ 142300Z 05001MPS 2000 BR OVC046 14/11 Q1022 BECMG TL0030 3500
ZBSJ,2016-10-15 00:00,ZBSJ 150000Z 05001MPS 1800 BR OVC046 15/12 Q1022 BECMG TL0130 3000
ZBSJ,2016-10-15 01:00,ZBSJ 150100Z 03001MPS 1800 BR OVC046 15/12 Q1022 NOSIG
ZBSJ,2016-10-15 02:00,ZBSJ 150200Z 06001MPS 1800 BR OVC046 16/12 Q1023 NOSIG
ZBSJ,2016-10-15 03:00,ZBSJ 150300Z 16002MPS 2200 BR OVC046 17/12 Q1023 BECMG TL0430 3000
ZBSJ,2016-10-15 04:00,ZBSJ 150400Z 20002MPS 4000 -RA BR OVC046 17/13 Q1022 NOSIG
ZBSJ,2016-10-15 05:00,ZBSJ 150500Z 16001MPS 4000 -RA BR OVC046 16/13 Q1022 NOSIG
ZBSJ,2016-10-15 06:00,ZBSJ 150600Z 19001MPS 3000 -RA BR OVC046 16/14 Q1021 NOSIG
ZBSJ,2016-10-15 07:00,ZBSJ 150700Z 12001MPS 3000 -RA BR OVC040 15/14 Q1021 BECMG TL0830 2200 -RA BR
ZBSJ,2016-10-15 08:00,ZBSJ 150800Z 12002MPS 2800 -RA BR OVC040 15/14 Q1021 NOSIG
ZBSJ,2016-10-15 09:00,ZBSJ 150900Z 15001MPS 2700 -RA BR OVC040 15/14 Q1021 NOSIG
ZBSJ,2016-10-15 10:00,ZBSJ 151000Z 00000MPS 5000 -RA BR OVC040 15/13 Q1021 NOSIG
ZBSJ,2016-10-15 11:00,ZBSJ 151100Z 06001MPS 3000 -RA BR OVC040 15/14 Q1021 BECMG TL1230 2600 -RA BR
ZBSJ,2016-10-15 12:00,ZBSJ 151200Z 04001MPS 2000 -RA BR OVC040 15/14 Q1022 NOSIG
ZBSJ,2016-10-15 13:00,ZBSJ 151300Z 01001MPS 1600 -RA BR OVC040 15/14 Q1022 BECMG TL1430 1400 -RA BR
ZBSJ,2016-10-15 14:00,ZBSJ 151400Z 05001MPS 1600 -RA BR OVC040 15/14 Q1022 NOSIG
ZBSJ,2016-10-15 15:00,ZBSJ 151500Z 02001MPS 1600 -RA BR OVC040 15/14 Q1022 NOSIG
ZBSJ,2016-10-15 16:00,ZBSJ 151600Z 01001MPS 1800 -RA BR OVC040 14/13 Q1021 NOSIG
ZBSJ,2016-10-15 17:00,ZBSJ 151700Z 04001MPS 2500 BR OVC040 14/13 Q1021 NOSIG
ZBSJ,2016-10-15 18:00,ZBSJ 151800Z 01001MPS 2500 BR OVC040 14/13 Q1021 NOSIG
ZBSJ,2016-10-15 19:00,ZBSJ 151900Z 00000MPS 2500 BR OVC040 14/13 Q1020 NOSIG
ZBSJ,2016-10-15 20:00,ZBSJ 152000Z 00000MPS 2500 BR OVC046 14/13 Q1019 NOSIG
ZBSJ,2016-10-15 21:00,ZBSJ 152100Z 22001MPS 2000 BR OVC046 14/13 Q1019 NOSIG
ZBSJ,2016-10-15 22:00,ZBSJ 152200Z 00000MPS 2000 BR OVC046 14/13 Q1019 NOSIG
ZBSJ,2016-10-15 23:00,ZBSJ 152300Z 00000MPS 1500 BR OVC046 14/14 Q1019 NOSIG
ZBSJ,2016-10-16 00:00,ZBSJ 160000Z 24002MPS 2000 BR NSC 15/13 Q1020 BECMG TL0130 3500
ZBSJ,2016-10-16 01:00,ZBSJ 160100Z 23002MPS 2000 BR NSC 15/13 Q1020 BECMG TL0230 3500
ZBSJ,2016-10-16 02:00,ZBSJ 160200Z 19002MPS 2500 BR NSC 16/13 Q1020 BECMG TL0330 3500
ZBSJ,2016-10-16 03:00,ZBSJ 160300Z 21004MPS 190V260 2500 BR FEW046 17/14 Q1020 BECMG TL0430 3500
ZBSJ,2016-10-16 04:00,ZBSJ 160400Z 18003MPS 140V210 2200 BR NSC 19/15 Q1018 NOSIG
ZBSJ,2016-10-16 05:00,ZBSJ 160500Z VRB02MPS 2500 HZ NSC 19/14 Q1017 NOSIG
ZBSJ,2016-10-16 06:00,ZBSJ 160600Z 19003MPS 110V240 2800 HZ NSC 20/14 Q1017 BECMG TL0730 3200
ZBSJ,2016-10-16 07:00,ZBSJ 160700Z 16004MPS 3300 HZ NSC 21/15 Q1016 NOSIG
ZBSJ,2016-10-16 08:00,ZBSJ 160800Z 18004MPS 3300 HZ NSC 20/14 Q1016 NOSIG
ZBSJ,2016-10-16 09:00,ZBSJ 160900Z 18003MPS 3500 HZ NSC 19/15 Q1016 NOSIG
ZBSJ,2016-10-16 10:00,ZBSJ 161000Z 19002MPS 4000 HZ NSC 18/14 Q1016 NOSIG
ZBSJ,2016-10-16 11:00,ZBSJ 161100Z 21003MPS 4000 BR NSC 18/14 Q1016 NOSIG
ZBSJ,2016-10-16 12:00,ZBSJ 161200Z 12001MPS 3500 BR NSC 16/14 Q1017 NOSIG
ZBSJ,2016-10-16 13:00,ZBSJ 161300Z 05001MPS 3000 BR NSC 16/14 Q1018 BECMG TL1430 2800 BR
ZBSJ,2016-10-16 14:00,ZBSJ 161400Z 06001MPS 2500 BR NSC 15/14 Q1018 NOSIG
ZBSJ,2016-10-16 15:00,ZBSJ 161500Z 00000MPS 2500 BR NSC 14/13 Q1018 NOSIG
ZBSJ,2016-10-16 16:00,ZBSJ 161600Z 00000MPS 2000 BR NSC 14/13 Q1018 NOSIG
ZBSJ,2016-10-16 17:00,ZBSJ 161700Z 30001MPS 2000 BR NSC 13/12 Q1018 NOSIG
ZBSJ,2016-10-16 18:00,ZBSJ 161800Z 32002MPS 1700 BR NSC 14/13 Q1018 NOSIG
ZBSJ,2016-10-16 19:00,ZBSJ 161900Z 29002MPS 1700 BR NSC 14/13 Q1018 NOSIG
ZBSJ,2016-10-16 20:00,ZBSJ 162000Z 04001MPS 0500 R15/0200V0450D FG NSC 12/12 Q1018 NOSIG
ZBSJ,2016-10-16 21:00,ZBSJ 162100Z 31002MPS 0400 R15/0200N FG NSC 11/10 Q1019 NOSIG
ZBSJ,2016-10-16 22:00,ZBSJ 162200Z 34001MPS 1000 R15/1200U BR NSC 11/11 Q1020 NOSIG
ZBSJ,2016-10-16 23:00,ZBSJ 162300Z 02002MPS 0100 R15/0125N FG NSC 12/12 Q1021 NOSIG
ZBSJ,2016-10-17 00:00,ZBSJ 170000Z 03002MPS 360V060 0100 R15/0175N FG VV003 13/13 Q1021 BECMG TL0130 0350
ZBSJ,2016-10-17 01:00,ZBSJ 170100Z 01003MPS 330V060 0500 R33/0800N FG BKN040 14/14 Q1022 BECMG TL0230 0800
ZBSJ,2016-10-17 02:00,ZBSJ 170200Z 05003MPS 360V070 1000 R33/0200V1200D BR NSC 15/14 Q1023 BECMG TL0330 1500
ZBSJ,2016-10-17 03:00,ZBSJ 170300Z 04002MPS 1600 BR FEW046 18/15 Q1022 BECMG TL0430 3000
ZBSJ,2016-10-17 04:00,ZBSJ 170400Z 03002MPS 320V090 2000 HZ NSC 19/13 Q1022 BECMG TL0530 3000
ZBSJ,2016-10-17 05:00,ZBSJ 170500Z 36003MPS 320V060 3000 HZ NSC 20/12 Q1021 NOSIG
ZBSJ,2016-10-17 06:00,ZBSJ 170600Z 05002MPS 350V100 8000 NSC 21/10 Q1020 NOSIG
ZBSJ,2016-10-17 07:00,ZBSJ 170700Z 06002MPS 350V110 8000 NSC 22/09 Q1019 NOSIG
ZBSJ,2016-10-17 08:00,ZBSJ 170800Z 07003MPS 040V100 8000 NSC 21/09 Q1019 NOSIG
ZBSJ,2016-10-17 09:00,ZBSJ 170900Z 06002MPS 8000 NSC 20/10 Q1018 NOSIG
ZBSJ,2016-10-17 10:00,ZBSJ 171000Z 01001MPS 7000 NSC 16/11 Q1019 NOSIG
ZBSJ,2016-10-17 11:00,ZBSJ 171100Z 17003MPS 5000 HZ NSC 14/10 Q1019 NOSIG
ZBSJ,2016-10-17 12:00,ZBSJ 171200Z 21001MPS 4000 BR NSC 15/12 Q1020 NOSIG
ZBSJ,2016-10-17 13:00,ZBSJ 171300Z 24001MPS 2400 BR NSC 14/13 Q1020 NOSIG
ZBSJ,2016-10-17 14:00,ZBSJ 171400Z 33001MPS 2000 BR FEW040 14/13 Q1021 NOSIG
ZBSJ,2016-10-17 15:00,ZBSJ 171500Z 30002MPS 250V350 2400 BR FEW040 16/13 Q1021 NOSIG
ZBSJ,2016-10-17 16:00,ZBSJ 171600Z 33003MPS 2700 BR FEW046 14/11 Q1021 NOSIG
ZBSJ,2016-10-17 17:00,ZBSJ 171700Z 33002MPS 3500 BR FEW046 14/11 Q1020 NOSIG
ZBSJ,2016-10-17 18:00,ZBSJ 171800Z 33003MPS 5000 BR FEW046 13/09 Q1020 NOSIG
ZBSJ,2016-10-17 19:00,ZBSJ 171900Z 32003MPS 5000 BR FEW046 12/09 Q1020 NOSIG
ZBSJ,2016-10-17 20:00,ZBSJ 172000Z 28002MPS 6000 NSC 13/09 Q1020 NOSIG
ZBSJ,2016-10-17 21:00,ZBSJ 172100Z 33002MPS 5000 BR NSC 12/09 Q1020 NOSIG
ZBSJ,2016-10-17 22:00,ZBSJ 172200Z 32003MPS 5000 BR NSC 10/08 Q1020 NOSIG
ZBSJ,2016-10-17 23:00,ZBSJ 172300Z 32002MPS 4000 BR NSC 11/08 Q1020 NOSIG
ZBSJ,2016-10-18 00:00,ZBSJ 180000Z 33003MPS 4000 BR NSC 13/09 Q1021 NOSIG
ZBSJ,2016-10-18 01:00,ZBSJ 180100Z 32003MPS 4500 HZ NSC 15/09 Q1022 NOSIG
ZBSJ,2016-10-18 02:00,ZBSJ 180200Z 35001MPS 4500 HZ NSC 16/10 Q1022 NOSIG
ZBSJ,2016-10-18 03:00,ZBSJ 180300Z 34002MPS 4500 HZ NSC 18/11 Q1021 NOSIG
ZBSJ,2016-10-18 04:00,ZBSJ 180400Z 29001MPS 3500 HZ NSC 20/11 Q1020 NOSIG
ZBSJ,2016-10-18 04:30,ZBSJ 180430Z 22001MPS 3000 HZ NSC 21/12 Q1019 NOSIG
ZBSJ,2016-10-18 05:00,ZBSJ 180500Z 19001MPS 3000 HZ NSC 21/12 Q1019 BECMG TL0600 2500 HZ
ZBSJ,2016-10-18 05:30,ZBSJ 180530Z 15001MPS 3000 HZ NSC 21/11 Q1018 BECMG TL0600 2500 HZ
ZBSJ,2016-10-18 06:00,ZBSJ 180600Z 14002MPS 3000 HZ NSC 21/12 Q1018 BECMG TL0630 2500 HZ
ZBSJ,2016-10-18 06:30,ZBSJ 180630Z 14001MPS 2800 HZ NSC 21/12 Q1017 NOSIG
ZBSJ,2016-10-18 07:00,ZBSJ 180700Z 14003MPS 110V180 2800 HZ NSC 21/12 Q1017 NOSIG
ZBSJ,2016-10-18 07:30,ZBSJ 180730Z 16003MPS 120V190 2800 HZ NSC 21/12 Q1017 NOSIG
ZBSJ,2016-10-18 08:00,ZBSJ 180800Z 17003MPS 2800 HZ NSC 21/12 Q1017 NOSIG
ZBSJ,2016-10-18 08:30,ZBSJ 180830Z 16004MPS 2600 HZ NSC 20/12 Q1017 NOSIG
ZBSJ,2016-10-18 09:00,ZBSJ 180900Z 17003MPS 2000 HZ NSC 20/14 Q1017 NOSIG
ZBSJ,2016-10-18 09:30,ZBSJ 180930Z 18003MPS 1600 HZ NSC 19/14 Q1017 NOSIG
ZBSJ,2016-10-18 10:00,ZBSJ 181000Z 21002MPS 1600 HZ NSC 19/15 Q1017 NOSIG
ZBSJ,2016-10-18 10:30,ZBSJ 181030Z 12001MPS 1800 HZ NSC 18/15 Q1017 NOSIG
ZBSJ,2016-10-18 11:00,ZBSJ 181100Z 09001MPS 1800 HZ NSC 18/15 Q1017 NOSIG
ZBSJ,2016-10-18 11:30,ZBSJ 181130Z 09001MPS 1800 HZ NSC 18/15 Q1017 NOSIG
ZBSJ,2016-10-18 12:00,ZBSJ 181200Z 11002MPS 1800 BR NSC 19/15 Q1018 NOSIG
ZBSJ,2016-10-18 12:30,ZBSJ 181230Z 10002MPS 1800 BR NSC 19/16 Q1018 NOSIG
ZBSJ,2016-10-18 13:00,ZBSJ 181300Z 13001MPS 1800 BR NSC 19/16 Q1018 NOSIG
ZBSJ,2016-10-18 14:00,ZBSJ 181400Z 16002MPS 1800 BR NSC 18/16 Q1018 NOSIG
ZBSJ,2016-10-18 15:00,ZBSJ 181500Z 15002MPS 1800 BR NSC 18/15 Q1018 NOSIG
ZBSJ,2016-10-18 16:00,ZBSJ 181600Z 17002MPS 1800 BR NSC 17/15 Q1017 NOSIG
ZBSJ,2016-10-18 17:00,ZBSJ 181700Z 16002MPS 1600 BR NSC 14/13 Q1017 NOSIG
ZBSJ,2016-10-18 18:00,ZBSJ 181800Z 18001MPS 1600 BR NSC 15/14 Q1017 NOSIG
ZBSJ,2016-10-18 19:00,ZBSJ 181900Z 27001MPS 1600 BR NSC 16/15 Q1016 NOSIG
ZBSJ,2016-10-18 20:00,ZBSJ 182000Z 26002MPS 2000 BR NSC 15/13 Q1016 NOSIG
ZBSJ,2016-10-18 21:00,ZBSJ 182100Z 26001MPS 2000 BR NSC 14/13 Q1016 NOSIG
ZBSJ,2016-10-18 22:00,ZBSJ 182200Z 29001MPS 2000 BR NSC 14/12 Q1016 NOSIG
ZBSJ,2016-10-18 23:00,ZBSJ 182300Z 00000MPS 1400 R15/1500D BR NSC 12/11 Q1016 BECMG TL0030 1600
ZBSJ,2016-10-19 00:00,ZBSJ 190000Z 18001MPS 1400 R15/1300N BR NSC 14/13 Q1017 BECMG TL0130 1600
ZBSJ,2016-10-19 01:00,ZBSJ 190100Z 31002MPS 1600 R15/1300U BR NSC 16/13 Q1017 NOSIG
ZBSJ,2016-10-19 02:00,ZBSJ 190200Z 22002MPS 1600 R15/1400N BR NSC 17/13 Q1016 NOSIG
ZBSJ,2016-10-19 03:00,ZBSJ 190300Z 19002MPS 1600 R15/1400U HZ NSC 20/14 Q1016 NOSIG
ZBSJ,2016-10-19 04:00,ZBSJ 190400Z 13002MPS 1600 R15/1300N HZ NSC 21/14 Q1015 NOSIG
ZBSJ,2016-10-19 05:00,ZBSJ 190500Z 13002MPS 100V170 1600 R15/1400N HZ NSC 22/15 Q1014 NOSIG
ZBSJ,2016-10-19 06:00,ZBSJ 190600Z 14003MPS 090V170 1300 R15/1200U HZ NSC 22/15 Q1014 NOSIG
ZBSJ,2016-10-19 07:00,ZBSJ 190700Z 15004MPS 1300 R15/1400N HZ NSC 22/15 Q1013 NOSIG
ZBSJ,2016-10-19 08:00,ZBSJ 190800Z 15004MPS 1400 R15/1600N HZ NSC 22/14 Q1013 NOSIG
ZBSJ,2016-10-19 09:00,ZBSJ 190900Z 13002MPS 1500 HZ NSC 22/15 Q1013 NOSIG
ZBSJ,2016-10-19 10:00,ZBSJ 191000Z 08001MPS 1800 BR NSC 19/15 Q1014 NOSIG
ZBSJ,2016-10-19 11:00,ZBSJ 191100Z 06002MPS 2000 BR NSC 17/14 Q1015 NOSIG
ZBSJ,2016-10-19 12:00,ZBSJ 191200Z 05003MPS 1400 R15/1800D BR NSC 17/15 Q1016 NOSIG
ZBSJ,2016-10-19 13:00,ZBSJ 191300Z 05003MPS 1200 R15/1500D BR NSC 17/15 Q1016 NOSIG
ZBSJ,2016-10-19 14:00,ZBSJ 191400Z 05001MPS 1200 R15/1500N BR NSC 15/14 Q1017 NOSIG
ZBSJ,2016-10-19 15:00,ZBSJ 191500Z 05003MPS 1300 R15/1700N BR NSC 16/14 Q1017 NOSIG
ZBSJ,2016-10-19 16:00,ZBSJ 191600Z 05003MPS 1300 R15/1700N BR NSC 16/14 Q1017 NOSIG
ZBSJ,2016-10-19 17:00,ZBSJ 191700Z 05002MPS 1300 R15/1700N BR NSC 16/14 Q1017 NOSIG
ZBSJ,2016-10-19 18:00,ZBSJ 191800Z 06003MPS 1000 R15/1500N BR NSC 15/14 Q1017 NOSIG
ZBSJ,2016-10-19 19:00,ZBSJ 191900Z 05002MPS 1000 R15/1500N BR NSC 15/14 Q1017 NOSIG
ZBSJ,2016-10-19 20:00,ZBSJ 192000Z 06003MPS 1200 R15/1700N BR NSC 16/14 Q1018 NOSIG
ZBSJ,2016-10-19 21:00,ZBSJ 192100Z 05002MPS 010V090 1200 R15/1500D BR NSC 15/14 Q1018 NOSIG
ZBSJ,2016-10-19 22:00,ZBSJ 192200Z 05002MPS 010V080 1200 R15/1600N BR NSC 16/15 Q1018 NOSIG
ZBSJ,2016-10-19 23:00,ZBSJ 192300Z 07002MPS 0800 R15/1200N FG NSC 16/15 Q1019 NOSIG
ZBSJ,2016-10-20 00:00,ZBSJ 200000Z 06004MPS 0800 R15/1100U FG NSC 16/15 Q1019 NOSIG
ZBSJ,2016-10-20 01:00,ZBSJ 200100Z 08005MPS 0800 R15/1100N FG NSC 17/15 Q1020 NOSIG
ZBSJ,2016-10-20 02:00,ZBSJ 200200Z 09004MPS 1100 R15/1300U BR SCT040 17/16 Q1020 NOSIG
ZBSJ,2016-10-20 03:00,ZBSJ 200300Z 09005MPS 2200 -RA BR SCT020 OVC040 16/15 Q1019 NOSIG
ZBSJ,2016-10-20 04:00,ZBSJ 200400Z 07005MPS 2500 -RA BR SCT010 OVC040 15/14 Q1019 NOSIG
ZBSJ,2016-10-20 05:00,ZBSJ 200500Z 06007G12MPS 8000 -RA SCT010 OVC040 14/13 Q1018 NOSIG
ZBSJ,2016-10-20 06:00,ZBSJ 200600Z 05007G12MPS 7000 -RA SCT010 OVC040 12/10 Q1018 NOSIG
ZBSJ,2016-10-20 07:00,ZBSJ 200700Z 05006G11MPS 7000 -RA SCT010 OVC040 11/09 Q1018 NOSIG
ZBSJ,2016-10-20 08:00,ZBSJ 200800Z 05007MPS 6000 -RA BKN010 OVC040 11/09 Q1018 NOSIG
ZBSJ,2016-10-20 09:00,ZBSJ 200900Z 03004MPS 350V060 5000 BR BKN010 OVC040 10/08 Q1019 NOSIG
ZBSJ,2016-10-20 10:00,ZBSJ 201000Z 01005MPS 5000 -RA BR BKN010 OVC040 10/08 Q1019 NOSIG
ZBSJ,2016-10-20 11:00,ZBSJ 201100Z 01005MPS 4500 -RA BR SCT013 OVC040 09/08 Q1020 NOSIG
ZBSJ,2016-10-20 12:00,ZBSJ 201200Z 02004MPS 4500 -RA BR SCT020 OVC040 10/08 Q1021 NOSIG
ZBSJ,2016-10-20 13:00,ZBSJ 201300Z 01004MPS 340V040 4000 -RA BR SCT020 OVC040 10/08 Q1022 NOSIG
ZBSJ,2016-10-20 14:00,ZBSJ 201400Z 02003MPS 350V050 4000 -RA BR SCT020 OVC040 09/08 Q1021 NOSIG
ZBSJ,2016-10-20 15:00,ZBSJ 201500Z 01004MPS 340V040 4000 -RA BR SCT020 OVC040 09/08 Q1022 NOSIG
ZBSJ,2016-10-20 16:00,ZBSJ 201600Z 36003MPS 340V040 3000 -RA BR SCT013 OVC040 09/08 Q1022 NOSIG
ZBSJ,2016-10-20 17:00,ZBSJ 201700Z 03004MPS 4000 -RA BR SCT020 OVC040 09/07 Q1021 NOSIG
ZBSJ,2016-10-20 18:00,ZBSJ 201800Z 04003MPS 360V070 4000 -RA BR SCT020 OVC040 09/07 Q1021 NOSIG
ZBSJ,2016-10-20 19:00,ZBSJ 201900Z 01002MPS 5000 BR SCT020 OVC040 09/08 Q1020 NOSIG
ZBSJ,2016-10-20 20:00,ZBSJ 202000Z 03002MPS 2500 -RA BR SCT020 OVC040 09/08 Q1020 NOSIG
ZBSJ,2016-10-20 21:00,ZBSJ 202100Z 06003MPS 3500 -RA BR SCT020 OVC040 09/08 Q1020 NOSIG
ZBSJ,2016-10-20 22:00,ZBSJ 202200Z 05003MPS 4500 -RA BR SCT020 OVC040 09/08 Q1020 NOSIG
ZBSJ,2016-10-20 23:00,ZBSJ 202300Z 06002MPS 2500 BR SCT020 OVC040 09/09 Q1020 NOSIG
ZBSJ,2016-10-21 00:00,ZBSJ 210000Z 07002MPS 2500 BR OVC040 10/09 Q1020 NOSIG
ZBSJ,2016-10-21 01:00,ZBSJ 210100Z 03001MPS 1800 -DZ BR OVC040 10/09 Q1020 NOSIG
ZBSJ,2016-10-21 02:00,ZBSJ 210200Z 04002MPS 1600 -DZ BR OVC040 10/09 Q1020 NOSIG
ZBSJ,2016-10-21 03:00,ZBSJ 210300Z 03001MPS 2000 BR OVC040 10/10 Q1019 NOSIG
ZBSJ,2016-10-21 04:00,ZBSJ 210400Z 03001MPS 2000 BR OVC040 10/10 Q1019 NOSIG
ZBSJ,2016-10-21 05:00,ZBSJ 210500Z 03002MPS 1800 -DZ BR SCT020 OVC040 10/10 Q1018 NOSIG
ZBSJ,2016-10-21 06:00,ZBSJ 210600Z 03001MPS 2300 -DZ BR SCT020 OVC040 11/09 Q1017 NOSIG
ZBSJ,2016-10-21 07:00,ZBSJ 210700Z 05001MPS 2800 -RA BR SCT020 OVC040 10/09 Q1016 BECMG TL0830 3200
ZBSJ,2016-10-21 08:00,ZBSJ 210800Z 33001MPS 3000 -RA BR SCT020 OVC040 11/09 Q1017 BECMG TL0930 2500 -RA BR
ZBSJ,2016-10-21 09:00,ZBSJ 210900Z 11001MPS 2800 -RA BR SCT020 OVC040 11/10 Q1016 BECMG TL1030 3000
ZBSJ,2016-10-21 10:00,ZBSJ 211000Z 34001MPS 3500 -RA BR SCT016 OVC040 11/10 Q1017 NOSIG
ZBSJ,2016-10-21 11:00,ZBSJ 211100Z 06001MPS 3500 BR OVC040 11/10 Q1016 NOSIG
ZBSJ,2016-10-21 12:00,ZBSJ 211200Z 08002MPS 3500 BR OVC040 11/10 Q1016 NOSIG
ZBSJ,2016-10-21 13:00,ZBSJ 211300Z 02001MPS 3500 BR OVC040 11/10 Q1017 NOSIG
ZBSJ,2016-10-21 14:00,ZBSJ 211400Z 07001MPS 4000 BR OVC040 11/10 Q1018 NOSIG
ZBSJ,2016-10-21 15:00,ZBSJ 211500Z 01002MPS 3500 BR OVC040 11/10 Q1018 NOSIG
ZBSJ,2016-10-21 16:00,ZBSJ 211600Z 03001MPS 3500 BR OVC040 11/10 Q1018 NOSIG
ZBSJ,2016-10-21 17:00,ZBSJ 211700Z 02001MPS 3500 BR OVC040 11/10 Q1018 NOSIG
ZBSJ,2016-10-21 18:00,ZBSJ 211800Z 35002MPS 4000 BR OVC046 11/10 Q1018 NOSIG
ZBSJ,2016-10-21 19:00,ZBSJ 211900Z 34002MPS 5000 BR OVC046 11/10 Q1019 NOSIG
ZBSJ,2016-10-21 20:00,ZBSJ 212000Z 33003MPS 5000 BR OVC046 11/10 Q1019 NOSIG
ZBSJ,2016-10-21 21:00,ZBSJ 212100Z 33003MPS 4500 BR OVC046 11/10 Q1019 NOSIG
ZBSJ,2016-10-21 22:00,ZBSJ 212200Z 33003MPS 4000 BR OVC046 11/11 Q1020 NOSIG
ZBSJ,2016-10-21 23:00,ZBSJ 212300Z 01004MPS 5000 BR OVC046 12/10 Q1021 NOSIG
ZBSJ,2016-10-22 00:00,ZBSJ 220000Z 04003MPS 7000 OVC046 12/10 Q1022 NOSIG
ZBSJ,2016-10-22 01:00,ZBSJ 220100Z 04003MPS 350V060 5000 BR OVC040 12/11 Q1023 NOSIG
ZBSJ,2016-10-22 02:00,ZBSJ 220200Z 05003MPS 010V070 4500 BR OVC040 12/11 Q1023 NOSIG
ZBSJ,2016-10-22 03:00,ZBSJ 220300Z 07004MPS 6000 -RA FEW020 OVC040 13/11 Q1023 NOSIG
ZBSJ,2016-10-22 04:00,ZBSJ 220400Z 06005MPS 9999 SCT020 OVC040 12/09 Q1023 NOSIG
ZBSJ,2016-10-22 05:00,ZBSJ 220500Z 07004MPS 040V110 9999 FEW020 OVC040 12/08 Q1023 NOSIG
ZBSJ,2016-10-22 06:00,ZBSJ 220600Z 07004MPS 040V110 9999 FEW020 OVC040 12/08 Q1023 NOSIG
ZBSJ,2016-10-22 07:00,ZBSJ 220700Z 10003MPS 9999 FEW020 OVC040 11/07 Q1023 NOSIG
ZBSJ,2016-10-22 08:00,ZBSJ 220800Z 12001MPS 9999 FEW020 OVC040 11/07 Q1023 NOSIG
ZBSJ,2016-10-22 09:00,ZBSJ 220900Z 16001MPS 9999 FEW020 OVC040 11/08 Q1023 NOSIG
ZBSJ,2016-10-22 10:00,ZBSJ 221000Z 22001MPS 9999 -RA FEW020 OVC040 10/07 Q1024 NOSIG
ZBSJ,2016-10-22 11:00,ZBSJ 221100Z 19001MPS 9999 FEW020 OVC040 10/08 Q1024 NOSIG
ZBSJ,2016-10-22 12:00,ZBSJ 221200Z 19001MPS 9999 -RA FEW020 OVC040 10/07 Q1025 NOSIG
ZBSJ,2016-10-22 13:00,ZBSJ 221300Z 24001MPS 7000 -RA OVC040 10/08 Q1025 NOSIG
ZBSJ,2016-10-22 14:00,ZBSJ 221400Z 23001MPS 7000 -RA OVC040 09/08 Q1024 NOSIG
ZBSJ,2016-10-22 15:00,ZBSJ 221500Z 26002MPS 6000 -RA OVC030 10/08 Q1025 NOSIG
ZBSJ,2016-10-22 16:00,ZBSJ 221600Z 26003MPS 6000 -RA OVC030 09/08 Q1025 NOSIG
ZBSJ,2016-10-22 17:00,ZBSJ 221700Z 26002MPS 6000 -RA OVC030 09/08 Q1025 NOSIG
ZBSJ,2016-10-22 18:00,ZBSJ 221800Z 28001MPS 4000 -RA BR OVC030 09/08 Q1024 NOSIG
ZBSJ,2016-10-22 19:00,ZBSJ 221900Z 00000MPS 4000 -RA BR OVC030 09/08 Q1024 NOSIG
ZBSJ,2016-10-22 20:00,ZBSJ 222000Z 32001MPS 3000 -RA BR OVC030 09/09 Q1024 NOSIG
ZBSJ,2016-10-22 21:00,ZBSJ 222100Z 34001MPS 3000 -RA BR OVC030 10/09 Q1024 NOSIG
ZBSJ,2016-10-22 22:00,ZBSJ 222200Z 10001MPS 2500 -RA BR OVC030 10/09 Q1024 NOSIG
ZBSJ,2016-10-22 23:00,ZBSJ 222300Z 11002MPS 080V140 2700 BR OVC030 09/08 Q1024 NOSIG
ZBSJ,2016-10-23 00:00,ZBSJ 230000Z 10003MPS 5000 BR OVC033 09/07 Q1025 NOSIG
ZBSJ,2016-10-23 01:00,ZBSJ 230100Z 10002MPS 2500 BR OVC033 09/08 Q1025 BECMG TL0230 3000
ZBSJ,2016-10-23 02:00,ZBSJ 230200Z 09001MPS 4000 BR OVC033 09/07 Q1025 NOSIG
ZBSJ,2016-10-23 03:00,ZBSJ 230300Z 06001MPS 4000 BR OVC033 10/06 Q1025 NOSIG
ZBSJ,2016-10-23 04:00,ZBSJ 230400Z 02001MPS 4000 BR OVC033 10/07 Q1024 NOSIG
ZBSJ,2016-10-23 05:00,ZBSJ 230500Z 36001MPS 4000 BR OVC033 12/05 Q1023 NOSIG
ZBSJ,2016-10-23 06:00,ZBSJ 230600Z 10001MPS 4000 BR OVC033 12/05 Q1022 NOSIG
ZBSJ,2016-10-23 07:00,ZBSJ 230700Z 32002MPS 5000 HZ BKN046 13/07 Q1022 NOSIG
ZBSJ,2016-10-23 08:00,ZBSJ 230800Z 35001MPS 5000 HZ NSC 12/07 Q1021 NOSIG
ZBSJ,2016-10-23 09:00,ZBSJ 230900Z 29001MPS 5000 HZ NSC 12/07 Q1021 NOSIG
ZBSJ,2016-10-23 10:00,ZBSJ 231000Z 29002MPS 4200 BR NSC 10/07 Q1021 NOSIG
ZBSJ,2016-10-23 11:00,ZBSJ 231100Z 22001MPS 3000 BR NSC 09/08 Q1021 NOSIG
ZBSJ,2016-10-23 12:00,ZBSJ 231200Z 22001MPS 3000 BR NSC 08/07 Q1022 BECMG TL1330 2700 BR
ZBSJ,2016-10-23 13:00,ZBSJ 231300Z 18001MPS 4000 BR NSC 07/06 Q1022 NOSIG
ZBSJ,2016-10-23 14:00,ZBSJ 231400Z 00000MPS 3000 BR NSC 06/06 Q1021 NOSIG
ZBSJ,2016-10-23 15:00,ZBSJ 231500Z 18001MPS 2500 BR NSC 06/06 Q1021 NOSIG
ZBSJ,2016-10-23 16:00,ZBSJ 231600Z 20001MPS 2500 BR NSC 06/05 Q1021 NOSIG
ZBSJ,2016-10-23 17:00,ZBSJ 231700Z 19001MPS 1800 BR NSC 05/05 Q1020 NOSIG
ZBSJ,2016-10-23 18:00,ZBSJ 231800Z 20002MPS 2200 BR NSC 06/06 Q1020 NOSIG
ZBSJ,2016-10-23 19:00,ZBSJ 231900Z 12001MPS 2700 BR NSC 06/06 Q1020 NOSIG
ZBSJ,2016-10-23 20:00,ZBSJ 232000Z 00000MPS 2700 BR NSC 07/07 Q1020 NOSIG
ZBSJ,2016-10-23 21:00,ZBSJ 232100Z 03001MPS 2000 BR NSC 07/07 Q1019 NOSIG
ZBSJ,2016-10-23 22:00,ZBSJ 232200Z 07001MPS 2500 BR NSC 08/07 Q1019 NOSIG
ZBSJ,2016-10-23 23:00,ZBSJ 232300Z 00000MPS 1800 BR OVC040 08/07 Q1019 NOSIG
ZBSJ,2016-10-24 00:00,ZBSJ 240000Z 14001MPS 1600 BR OVC040 08/07 Q1019 NOSIG
ZBSJ,2016-10-24 01:00,ZBSJ 240100Z 00000MPS 1600 BR NSC 09/07 Q1019 NOSIG
ZBSJ,2016-10-24 02:00,ZBSJ 240200Z 12001MPS 1800 BR NSC 11/08 Q1018 NOSIG
ZBSJ,2016-10-24 03:00,ZBSJ 240300Z 17001MPS 4000 HZ NSC 13/06 Q1018 NOSIG
ZBSJ,2016-10-24 04:00,ZBSJ 240400Z 16001MPS 7000 NSC 13/03 Q1017 NOSIG
ZBSJ,2016-10-24 05:00,ZBSJ 240500Z 34001MPS 8000 NSC 13/04 Q1016 NOSIG
ZBSJ,2016-10-24 06:00,ZBSJ 240600Z 09001MPS 6000 NSC 13/05 Q1016 NOSIG
ZBSJ,2016-10-24 07:00,ZBSJ 240700Z 10001MPS 5000 HZ NSC 13/05 Q1015 NOSIG
ZBSJ,2016-10-24 08:00,ZBSJ 240800Z 20002MPS 4000 -SHRA BR OVC046 11/07 Q1015 NOSIG
ZBSJ,2016-10-24 09:00,ZBSJ 240900Z 16002MPS 3500 -SHRA BR OVC046 10/08 Q1015 BECMG TL1030 2700 BR
ZBSJ,2016-10-24 10:00,ZBSJ 241000Z 18002MPS 3500 BR NSC 10/08 Q1014 NOSIG
ZBSJ,2016-10-24 11:00,ZBSJ 241100Z 23001MPS 4000 BR NSC 10/08 Q1015 NOSIG
ZBSJ,2016-10-24 12:00,ZBSJ 241200Z 18001MPS 4000 BR NSC 09/08 Q1014 NOSIG
ZBSJ,2016-10-24 13:00,ZBSJ 241300Z 20002MPS 4000 BR NSC 08/07 Q1015 NOSIG
ZBSJ,2016-10-24 14:00,ZBSJ 241400Z 21002MPS 4000 BR NSC 07/06 Q1015 NOSIG
ZBSJ,2016-10-24 15:00,ZBSJ 241500Z 21003MPS 4500 BR NSC 08/06 Q1015 NOSIG
ZBSJ,2016-10-24 16:00,ZBSJ 241600Z 18002MPS 4500 BR NSC 07/05 Q1015 NOSIG
ZBSJ,2016-10-24 17:00,ZBSJ 241700Z 21001MPS 4000 BR NSC 06/05 Q1015 NOSIG
ZBSJ,2016-10-24 18:00,ZBSJ 241800Z 15001MPS 2500 BR NSC 06/05 Q1014 NOSIG
ZBSJ,2016-10-24 19:00,ZBSJ 241900Z 21002MPS 2100 BR NSC 05/05 Q1013 NOSIG
ZBSJ,2016-10-24 20:00,ZBSJ 242000Z 24002MPS 2700 BR NSC 06/06 Q1014 NOSIG
ZBSJ,2016-10-24 21:00,ZBSJ 242100Z 33003MPS 1500 R15/0300D BR NSC 05/05 Q1014 NOSIG
ZBSJ,2016-10-24 22:00,ZBSJ 242200Z 33001MPS 0200 R15/0250N FG VV001 06/05 Q1015 NOSIG
ZBSJ,2016-10-24 23:00,ZBSJ 242300Z 23002MPS 0200 R15/0225N FG NSC 05/05 Q1015 BECMG TL0030 0400
ZBSJ,2016-10-25 00:00,ZBSJ 250000Z 17001MPS 1300 R15/P2000N BR NSC 06/06 Q1015 BECMG TL0130 1600
ZBSJ,2016-10-25 01:00,ZBSJ 250100Z 12002MPS 1300 R15/1100N BR NSC 08/07 Q1015 BECMG TL0230 1600
ZBSJ,2016-10-25 02:00,ZBSJ 250200Z 19001MPS 1800 BR NSC 10/09 Q1016 NOSIG
ZBSJ,2016-10-25 03:00,ZBSJ 250300Z 17003MPS 2500 BR NSC 12/10 Q1015 BECMG TL0430 3200
ZBSJ,2016-10-25 04:00,ZBSJ 250400Z 19003MPS 2800 BR NSC 14/10 Q1014 BECMG TL0530 3200
ZBSJ,2016-10-25 05:00,ZBSJ 250500Z 18002MPS 3000 BR NSC 15/11 Q1014 NOSIG
ZBSJ,2016-10-25 06:00,ZBSJ 250600Z 19004MPS 3500 BR NSC 16/11 Q1013 NOSIG
ZBSJ,2016-10-25 07:00,ZBSJ 250700Z 19004MPS 6000 NSC 16/10 Q1013 NOSIG
ZBSJ,2016-10-25 08:00,ZBSJ 250800Z 18004MPS 4000 HZ NSC 15/10 Q1013 BECMG TL0930 2800 BR
ZBSJ,2016-10-25 09:00,ZBSJ 250900Z 17003MPS 2500 BR NSC 14/11 Q1013 NOSIG
ZBSJ,2016-10-25 10:00,ZBSJ 251000Z 18004MPS 2200 BR NSC 14/11 Q1014 NOSIG
ZBSJ,2016-10-25 11:00,ZBSJ 251100Z 19004MPS 2000 BR NSC 14/11 Q1015 NOSIG
ZBSJ,2016-10-25 12:00,ZBSJ 251200Z 20002MPS 1700 BR NSC 14/11 Q1016 NOSIG
ZBSJ,2016-10-25 13:00,ZBSJ 251300Z 18003MPS 1700 BR NSC 13/11 Q1016 NOSIG
ZBSJ,2016-10-25 14:00,ZBSJ 251400Z 19002MPS 1700 BR NSC 12/10 Q1016 NOSIG
ZBSJ,2016-10-25 15:00,ZBSJ 251500Z 04001MPS 1600 BR NSC 11/11 Q1017 NOSIG
ZBSJ,2016-10-25 16:00,ZBSJ 251600Z 15002MPS 1400 R15/1300V1900U BR NSC 10/09 Q1017 NOSIG
ZBSJ,2016-10-25 17:00,ZBSJ 251700Z 00000MPS 1200 R15/1400N BR NSC 10/10 Q1017 NOSIG
ZBSJ,2016-10-25 18:00,ZBSJ 251800Z 17002MPS 1200 R15/P2000N BR NSC 10/10 Q1017 NOSIG
ZBSJ,2016-10-25 19:00,ZBSJ 251900Z 25001MPS 1000 R15/0900N BR NSC 10/10 Q1017 NOSIG
ZBSJ,2016-10-25 20:00,ZBSJ 252000Z 00000MPS 0800 R15/1000U FG NSC 10/10 Q1017 NOSIG
ZBSJ,2016-10-25 21:00,ZBSJ 252100Z 06001MPS 0500 R15/0500N FG NSC 10/10 Q1017 NOSIG
ZBSJ,2016-10-25 22:00,ZBSJ 252200Z 03002MPS 0600 R15/1000N FG NSC 11/11 Q1018 NOSIG
ZBSJ,2016-10-25 23:00,ZBSJ 252300Z 04002MPS 0500 R15/1100N FG NSC 11/11 Q1020 NOSIG
ZBSJ,2016-10-26 00:00,ZBSJ 260000Z 02002MPS 0900 R15/1200N FG NSC 12/11 Q1021 NOSIG
ZBSJ,2016-10-26 01:00,ZBSJ 260100Z 03002MPS 1000 R15/1200U BR NSC 13/11 Q1023 NOSIG
ZBSJ,2016-10-26 02:00,ZBSJ 260200Z 04002MPS 1400 R15/1500N BR NSC 14/11 Q1023 BECMG TL0330 1600
ZBSJ,2016-10-26 03:00,ZBSJ 260300Z 04005MPS 3500 HZ NSC 15/09 Q1024 NOSIG
ZBSJ,2016-10-26 04:00,ZBSJ 260400Z 05005MPS 3500 HZ NSC 14/08 Q1024 NOSIG
ZBSJ,2016-10-26 05:00,ZBSJ 260500Z 05004MPS 4500 HZ SCT020 OVC046 14/07 Q1023 NOSIG
ZBSJ,2016-10-26 06:00,ZBSJ 260600Z 06004MPS 3500 HZ SCT020 OVC046 13/08 Q1023 NOSIG
ZBSJ,2016-10-26 07:00,ZBSJ 260700Z 05003MPS 3500 HZ SCT020 OVC046 13/09 Q1023 NOSIG
ZBSJ,2016-10-26 08:00,ZBSJ 260800Z 05004MPS 3000 HZ OVC040 13/10 Q1023 BECMG TL0930 2500 HZ
ZBSJ,2016-10-26 09:00,ZBSJ 260900Z 04003MPS 350V070 4000 BR OVC040 13/10 Q1024 NOSIG
ZBSJ,2016-10-26 10:00,ZBSJ 261000Z 05002MPS 360V080 9999 OVC040 13/09 Q1025 NOSIG
ZBSJ,2016-10-26 11:00,ZBSJ 261100Z 04003MPS 9999 OVC040 13/09 Q1026 NOSIG
ZBSJ,2016-10-26 12:00,ZBSJ 261200Z 06003MPS 9999 OVC040 13/09 Q1026 NOSIG
ZBSJ,2016-10-26 13:00,ZBSJ 261300Z 06002MPS 9999 OVC040 12/09 Q1027 NOSIG
ZBSJ,2016-10-26 14:00,ZBSJ 261400Z 06003MPS 9999 OVC040 12/08 Q1027 NOSIG
ZBSJ,2016-10-26 15:00,ZBSJ 261500Z 07002MPS 9999 OVC040 12/08 Q1027 NOSIG
ZBSJ,2016-10-26 16:00,ZBSJ 261600Z 07002MPS 9999 -RA OVC033 11/08 Q1028 NOSIG
ZBSJ,2016-10-26 17:00,ZBSJ 261700Z 04002MPS 9999 OVC033 10/08 Q1028 NOSIG
ZBSJ,2016-10-26 18:00,ZBSJ 261800Z 04002MPS 9999 OVC033 10/08 Q1028 NOSIG
ZBSJ,2016-10-26 19:00,ZBSJ 261900Z 04002MPS 9999 OVC033 10/08 Q1027 NOSIG
ZBSJ,2016-10-26 20:00,ZBSJ 262000Z 04001MPS 9999 OVC033 10/08 Q1027 NOSIG
ZBSJ,2016-10-26 21:00,ZBSJ 262100Z 01001MPS 9999 OVC033 10/08 Q1026 NOSIG
ZBSJ,2016-10-26 22:00,ZBSJ 262200Z 36001MPS 9999 OVC033 10/08 Q1026 NOSIG
ZBSJ,2016-10-26 23:00,ZBSJ 262300Z 01001MPS 7000 OVC033 10/08 Q1026 NOSIG
ZBSJ,2016-10-27 00:00,ZBSJ 270000Z 04001MPS 5000 -RA BR OVC030 10/08 Q1026 NOSIG
ZBSJ,2016-10-27 01:00,ZBSJ 270100Z 05001MPS 5000 -RA BR OVC030 11/09 Q1026 NOSIG
ZBSJ,2016-10-27 02:00,ZBSJ 270200Z 05002MPS 010V070 3200 -RA BR OVC030 11/08 Q1026 NOSIG
ZBSJ,2016-10-27 03:00,ZBSJ 270300Z 04002MPS 3000 -RA BR OVC030 11/09 Q1025 BECMG TL0430 2500 -RA BR
ZBSJ,2016-10-27 04:00,ZBSJ 270400Z 01002MPS 2700 -RA BR OVC030 11/09 Q1025 NOSIG
ZBSJ,2016-10-27 05:00,ZBSJ 270500Z 01002MPS 340V040 2700 -RA BR OVC030 10/09 Q1024 NOSIG
ZBSJ,2016-10-27 06:00,ZBSJ 270600Z 02003MPS 350V060 2900 -RA BR FEW010 OVC033 10/09 Q1023 BECMG TL0730 3500
ZBSJ,2016-10-27 07:00,ZBSJ 270700Z 04002MPS 360V070 3500 -RA BR FEW010 OVC033 10/09 Q1023 NOSIG
ZBSJ,2016-10-27 08:00,ZBSJ 270800Z 26001MPS 3500 -RA BR FEW010 OVC033 09/08 Q1024 NOSIG
ZBSJ,2016-10-27 09:00,ZBSJ 270900Z 02001MPS 3500 -RA BR FEW010 OVC033 09/08 Q1024 NOSIG
ZBSJ,2016-10-27 10:00,ZBSJ 271000Z 06001MPS 4500 -RA BR FEW010 OVC033 09/08 Q1024 NOSIG
ZBSJ,2016-10-27 11:00,ZBSJ 271100Z 36003MPS 4000 -RA BR SCT016 OVC033 09/08 Q1025 NOSIG
ZBSJ,2016-10-27 12:00,ZBSJ 271200Z 03001MPS 3500 -RA BR SCT016 OVC033 09/09 Q1026 NOSIG
ZBSJ,2016-10-27 13:00,ZBSJ 271300Z 01002MPS 4200 -RA BR SCT016 OVC033 09/08 Q1026 NOSIG
ZBSJ,2016-10-27 14:00,ZBSJ 271400Z 03002MPS 4500 -RA BR SCT016 OVC033 09/08 Q1027 NOSIG
ZBSJ,2016-10-27 15:00,ZBSJ 271500Z 03002MPS 4500 -RA BR SCT016 OVC033 09/08 Q1027 NOSIG
ZBSJ,2016-10-27 16:00,ZBSJ 271600Z 02001MPS 4500 BR SCT016 OVC033 09/08 Q1027 NOSIG
ZBSJ,2016-10-27 17:00,ZBSJ 271700Z 05001MPS 4000 -RA BR FEW016 OVC033 09/08 Q1027 NOSIG
ZBSJ,2016-10-27 18:00,ZBSJ 271800Z 31002MPS 4500 BR OVC040 08/07 Q1027 NOSIG
ZBSJ,2016-10-27 19:00,ZBSJ 271900Z 28003MPS 4500 BR OVC040 07/07 Q1027 NOSIG
ZBSJ,2016-10-27 20:00,ZBSJ 272000Z 29002MPS 4500 BR OVC040 08/07 Q1027 NOSIG
ZBSJ,2016-10-27 21:00,ZBSJ 272100Z 29002MPS 6000 OVC040 08/07 Q1027 NOSIG
ZBSJ,2016-10-27 22:00,ZBSJ 272200Z 28002MPS 260V340 5000 BR OVC040 08/07 Q1028 NOSIG
ZBSJ,2016-10-27 23:00,ZBSJ 272300Z 32003MPS 2500 BR NSC 08/07 Q1028 NOSIG
ZBSJ,2016-10-28 00:00,ZBSJ 280000Z 22001MPS 5000 BR NSC 08/08 Q1029 NOSIG
ZBSJ,2016-10-28 01:00,ZBSJ 280100Z 32004MPS CAVOK 12/07 Q1030 NOSIG
ZBSJ,2016-10-28 02:00,ZBSJ 280200Z 35003MPS 320V020 CAVOK 13/02 Q1031 NOSIG
ZBSJ,2016-10-28 03:00,ZBSJ 280300Z 34004MPS CAVOK 14/M02 Q1031 NOSIG
ZBSJ,2016-10-28 04:00,ZBSJ 280400Z 32003MPS 270V360 CAVOK 15/00 Q1030 NOSIG
ZBSJ,2016-10-28 05:00,ZBSJ 280500Z 33002MPS 290V010 CAVOK 16/M01 Q1029 NOSIG
ZBSJ,2016-10-28 06:00,ZBSJ 280600Z 31003MPS 280V350 CAVOK 16/M01 Q1029 NOSIG
ZBSJ,2016-10-28 07:00,ZBSJ 280700Z 30002MPS 260V350 CAVOK 15/M02 Q1028 NOSIG
ZBSJ,2016-10-28 08:00,ZBSJ 280800Z 02001MPS CAVOK 14/M02 Q1028 NOSIG
ZBSJ,2016-10-28 09:00,ZBSJ 280900Z 36001MPS CAVOK 13/M00 Q1028 NOSIG
ZBSJ,2016-10-28 10:00,ZBSJ 281000Z 03002MPS CAVOK 11/M00 Q1030 NOSIG
ZBSJ,2016-10-28 11:00,ZBSJ 281100Z 01002MPS CAVOK 10/M00 Q1031 NOSIG
ZBSJ,2016-10-28 12:00,ZBSJ 281200Z 02001MPS CAVOK 08/01 Q1031 NOSIG
ZBSJ,2016-10-28 13:00,ZBSJ 281300Z 06002MPS CAVOK 08/00 Q1032 NOSIG
ZBSJ,2016-10-28 14:00,ZBSJ 281400Z 10002MPS CAVOK 07/M00 Q1033 NOSIG
ZBSJ,2016-10-28 15:00,ZBSJ 281500Z 10001MPS CAVOK 06/01 Q1033 NOSIG
ZBSJ,2016-10-28 16:00,ZBSJ 281600Z 16001MPS CAVOK 05/00 Q1033 NOSIG
ZBSJ,2016-10-28 17:00,ZBSJ 281700Z 21002MPS CAVOK 05/01 Q1033 NOSIG
ZBSJ,2016-10-28 18:00,ZBSJ 281800Z 24002MPS CAVOK 05/00 Q1033 NOSIG
ZBSJ,2016-10-28 19:00,ZBSJ 281900Z 24001MPS CAVOK 06/M00 Q1033 NOSIG
ZBSJ,2016-10-28 20:00,ZBSJ 282000Z 19001MPS CAVOK 05/M02 Q1033 NOSIG
ZBSJ,2016-10-28 21:00,ZBSJ 282100Z 00000MPS CAVOK 03/00 Q1033 NOSIG
ZBSJ,2016-10-28 22:00,ZBSJ 282200Z 18001MPS CAVOK 02/00 Q1033 NOSIG
ZBSJ,2016-10-28 23:00,ZBSJ 282300Z 00000MPS CAVOK 02/00 Q1033 NOSIG
ZBSJ,2016-10-29 00:00,ZBSJ 290000Z 00000MPS CAVOK 03/01 Q1034 NOSIG
ZBSJ,2016-10-29 01:00,ZBSJ 290100Z 16001MPS CAVOK 08/01 Q1034 NOSIG
ZBSJ,2016-10-29 02:00,ZBSJ 290200Z 18005MPS CAVOK 11/M03 Q1033 NOSIG
ZBSJ,2016-10-29 03:00,ZBSJ 290300Z 19006MPS 160V220 CAVOK 12/M06 Q1033 NOSIG
ZBSJ,2016-10-29 04:00,ZBSJ 290400Z 18006MPS CAVOK 13/M06 Q1032 NOSIG
ZBSJ,2016-10-29 05:00,ZBSJ 290500Z 17007MPS CAVOK 13/M05 Q1030 NOSIG
ZBSJ,2016-10-29 06:00,ZBSJ 290600Z 18005MPS CAVOK 14/M04 Q1029 NOSIG
ZBSJ,2016-10-29 07:00,ZBSJ 290700Z 17005MPS CAVOK 13/M02 Q1028 NOSIG
ZBSJ,2016-10-29 08:00,ZBSJ 290800Z 17005MPS CAVOK 12/M01 Q1028 NOSIG
ZBSJ,2016-10-29 09:00,ZBSJ 290900Z 16003MPS CAVOK 09/01 Q1027 NOSIG
ZBSJ,2016-10-29 10:00,ZBSJ 291000Z 15002MPS CAVOK 08/00 Q1027 NOSIG
ZBSJ,2016-10-29 11:00,ZBSJ 291100Z 00000MPS CAVOK 05/02 Q1028 NOSIG
ZBSJ,2016-10-29 12:00,ZBSJ 291200Z 06002MPS 8000 NSC 05/02 Q1028 NOSIG
ZBSJ,2016-10-29 13:00,ZBSJ 291300Z 12001MPS 6000 NSC 04/02 Q1027 NOSIG
ZBSJ,2016-10-29 14:00,ZBSJ 291400Z 13001MPS 6000 NSC 05/01 Q1027 NOSIG
ZBSJ,2016-10-29 15:00,ZBSJ 291500Z 10001MPS 5000 BR NSC 03/01 Q1026 NOSIG
ZBSJ,2016-10-29 16:00,ZBSJ 291600Z 00000MPS 5000 BR NSC 03/02 Q1026 NOSIG
ZBSJ,2016-10-29 17:00,ZBSJ 291700Z 24001MPS 5000 BR NSC 03/02 Q1025 NOSIG
ZBSJ,2016-10-29 18:00,ZBSJ 291800Z 30001MPS 4000 BR NSC 03/02 Q1025 NOSIG
ZBSJ,2016-10-29 19:00,ZBSJ 291900Z 22001MPS 4000 BR NSC 02/01 Q1024 NOSIG
ZBSJ,2016-10-29 20:00,ZBSJ 292000Z 26001MPS 4000 BR NSC 03/01 Q1024 NOSIG
ZBSJ,2016-10-29 21:00,ZBSJ 292100Z 26001MPS 5000 BR NSC 03/01 Q1024 NOSIG
ZBSJ,2016-10-29 22:00,ZBSJ 292200Z 34002MPS 4500 BR NSC 02/01 Q1023 NOSIG
ZBSJ,2016-10-29 23:00,ZBSJ 292300Z 20001MPS 3000 BR NSC 01/01 Q1023 NOSIG
ZBSJ,2016-10-30 00:00,ZBSJ 300000Z 18002MPS 3000 BR NSC 04/02 Q1024 NOSIG
ZBSJ,2016-10-30 01:00,ZBSJ 300100Z 24001MPS 3300 HZ NSC 08/04 Q1025 NOSIG
ZBSJ,2016-10-30 02:00,ZBSJ 300200Z 03001MPS 4000 HZ NSC 10/04 Q1024 NOSIG
ZBSJ,2016-10-30 03:00,ZBSJ 300300Z 15003MPS 120V180 5000 HZ NSC 12/04 Q1023 NOSIG
ZBSJ,2016-10-30 04:00,ZBSJ 300400Z 12003MPS 090V150 2600 HZ NSC 12/05 Q1022 NOSIG
ZBSJ,2016-10-30 05:00,ZBSJ 300500Z 10002MPS 070V150 3300 HZ NSC 13/05 Q1021 NOSIG
ZBSJ,2016-10-30 06:00,ZBSJ 300600Z 17004MPS 130V190 4000 HZ NSC 15/07 Q1021 NOSIG
ZBSJ,2016-10-30 07:00,ZBSJ 300700Z 12003MPS 4000 HZ NSC 15/07 Q1021 NOSIG
ZBSJ,2016-10-30 08:00,ZBSJ 300800Z 12002MPS 090V160 4500 HZ NSC 15/07 Q1022 NOSIG
ZBSJ,2016-10-30 09:00,ZBSJ 300900Z 05003MPS 4000 HZ NSC 14/07 Q1023 BECMG TL1030 2500 BR
ZBSJ,2016-10-30 10:00,ZBSJ 301000Z 05005MPS 5000 HZ NSC 11/05 Q1025 NOSIG
ZBSJ,2016-10-30 11:00,ZBSJ 301100Z 05005MPS 6000 NSC 11/04 Q1027 NOSIG
ZBSJ,2016-10-30 12:00,ZBSJ 301200Z 05004MPS 7000 NSC 10/03 Q1028 NOSIG
ZBSJ,2016-10-30 13:00,ZBSJ 301300Z 06005MPS 7000 NSC 10/01 Q1029 NOSIG
ZBSJ,2016-10-30 14:00,ZBSJ 301400Z 07006MPS CAVOK 09/M00 Q1030 NOSIG
ZBSJ,2016-10-30 15:00,ZBSJ 301500Z 08004MPS CAVOK 09/M00 Q1031 NOSIG
ZBSJ,2016-10-30 16:00,ZBSJ 301600Z 10003MPS 070V140 CAVOK 08/M02 Q1032 NOSIG
ZBSJ,2016-10-30 17:00,ZBSJ 301700Z 08003MPS 050V110 CAVOK 08/M05 Q1032 NOSIG
ZBSJ,2016-10-30 18:00,ZBSJ 301800Z 08003MPS CAVOK 07/M05 Q1033 NOSIG
ZBSJ,2016-10-30 19:00,ZBSJ 301900Z 08004MPS CAVOK 07/M07 Q1033 NOSIG
ZBSJ,2016-10-30 20:00,ZBSJ 302000Z 08003MPS CAVOK 06/M07 Q1034 NOSIG
ZBSJ,2016-10-30 21:00,ZBSJ 302100Z 07005MPS CAVOK 05/M09 Q1035 NOSIG
ZBSJ,2016-10-30 22:00,ZBSJ 302200Z 07005MPS CAVOK 04/M12 Q1036 NOSIG
ZBSJ,2016-10-30 23:00,ZBSJ 302300Z 08003MPS 040V100 CAVOK 03/M11 Q1037 NOSIG
ZBSJ,2016-10-31 00:00,ZBSJ 310000Z 07004MPS 050V110 CAVOK 03/M14 Q1038 NOSIG
ZBSJ,2016-10-31 01:00,ZBSJ 310100Z 07003MPS CAVOK 03/M12 Q1039 NOSIG
ZBSJ,2016-10-31 02:00,ZBSJ 310200Z 07004MPS CAVOK 03/M13 Q1039 NOSIG
ZBSJ,2016-10-31 03:00,ZBSJ 310300Z 08003MPS 050V120 CAVOK 04/M14 Q1039 NOSIG
ZBSJ,2016-10-31 04:00,ZBSJ 310400Z 09002MPS 040V140 CAVOK 05/M11 Q1038 NOSIG
ZBSJ,2016-10-31 05:00,ZBSJ 310500Z 15002MPS CAVOK 06/M11 Q1036 NOSIG
ZBSJ,2016-10-31 06:00,ZBSJ 310600Z VRB02MPS CAVOK 07/M10 Q1035 NOSIG
ZBSJ,2016-10-31 07:00,ZBSJ 310700Z 15003MPS CAVOK 07/M09 Q1035 NOSIG
ZBSJ,2016-10-31 08:00,ZBSJ 310800Z 15002MPS CAVOK 06/M10 Q1035 NOSIG
ZBSJ,2016-10-31 09:00,ZBSJ 310900Z 14002MPS CAVOK 05/M08 Q1035 NOSIG
ZBSJ,2016-10-31 10:00,ZBSJ 311000Z 12001MPS CAVOK 02/M04 Q1035 NOSIG
ZBSJ,2016-10-31 11:00,ZBSJ 311100Z 10001MPS CAVOK 01/M03 Q1036 NOSIG
ZBSJ,2016-10-31 12:00,ZBSJ 311200Z 10001MPS CAVOK 01/M04 Q1036 NOSIG
ZBSJ,2016-10-31 13:00,ZBSJ 311300Z 09001MPS CAVOK M01/M03 Q1037 NOSIG
ZBSJ,2016-10-31 14:00,ZBSJ 311400Z 14001MPS CAVOK M00/M04 Q1037 NOSIG
ZBSJ,2016-10-31 15:00,ZBSJ 311500Z 00000MPS CAVOK M01/M03 Q1037 NOSIG
ZBSJ,2016-10-31 16:00,ZBSJ 311600Z 08001MPS CAVOK M02/M04 Q1037 NOSIG
ZBSJ,2016-10-31 17:00,ZBSJ 311700Z 04001MPS 7000 NSC M02/M04 Q1037 NOSIG
ZBSJ,2016-10-31 18:00,ZBSJ 311800Z 27001MPS 6000 NSC M02/M04 Q1037 NOSIG
ZBSJ,2016-10-31 19:00,ZBSJ 311900Z 34001MPS 5000 BR NSC M02/M04 Q1037 NOSIG
ZBSJ,2016-10-31 20:00,ZBSJ 312000Z 00000MPS 4500 BR NSC M03/M04 Q1036 NOSIG
ZBSJ,2016-10-31 21:00,ZBSJ 312100Z 12001MPS 4500 BR NSC M04/M05 Q1036 NOSIG
ZBSJ,2016-10-31 22:00,ZBSJ 312200Z 15001MPS 5000 BR NSC M03/M05 Q1036 NOSIG
ZBSJ,2016-10-31 23:00,ZBSJ 312300Z 17001MPS 5000 BR NSC M03/M05 Q1037 NOSIG
ZBSJ,2016-11-01 00:00,ZBSJ 010000Z 18001MPS 5000 BR NSC M00/M03 Q1037 NOSIG
ZBSJ,2016-11-01 01:00,ZBSJ 010100Z 23001MPS 4500 HZ NSC 02/M05 Q1037 NOSIG
ZBSJ,2016-11-01 02:00,ZBSJ 010200Z 18003MPS 5000 HZ NSC 05/M06 Q1036 NOSIG
ZBSJ,2016-11-01 03:00,ZBSJ 010300Z 18004MPS CAVOK 06/M07 Q1036 NOSIG
ZBSJ,2016-11-01 04:00,ZBSJ 010400Z 16004MPS CAVOK 07/M06 Q1034 NOSIG
ZBSJ,2016-11-01 05:00,ZBSJ 010500Z 17004MPS 120V190 CAVOK 08/M06 Q1033 NOSIG
ZBSJ,2016-11-01 06:00,ZBSJ 010600Z 18005MPS CAVOK 08/M05 Q1031 NOSIG
ZBSJ,2016-11-01 07:00,ZBSJ 010700Z 17005MPS CAVOK 08/M05 Q1031 NOSIG
ZBSJ,2016-11-01 08:00,ZBSJ 010800Z 18004MPS 150V220 CAVOK 08/M05 Q1031 NOSIG
ZBSJ,2016-11-01 09:00,ZBSJ 010900Z 18002MPS CAVOK 06/M04 Q1030 NOSIG
ZBSJ,2016-11-01 10:00,ZBSJ 011000Z 12001MPS CAVOK 04/M03 Q1031 NOSIG
ZBSJ,2016-11-01 11:00,ZBSJ 011100Z 09001MPS 5000 BR NSC 02/M02 Q1031 NOSIG
ZBSJ,2016-11-01 12:00,ZBSJ 011200Z 06001MPS 5000 BR NSC 01/M02 Q1031 NOSIG
ZBSJ,2016-11-01 13:00,ZBSJ 011300Z 10001MPS 3500 BR NSC 01/M02 Q1031 NOSIG
ZBSJ,2016-11-01 14:00,ZBSJ 011400Z 00000MPS 3500 BR NSC 00/M02 Q1031 NOSIG
ZBSJ,2016-11-01 15:00,ZBSJ 011500Z 00000MPS 4000 BR NSC 00/M02 Q1031 NOSIG
ZBSJ,2016-11-01 16:00,ZBSJ 011600Z 00000MPS 3000 BR NSC M00/M02 Q1030 NOSIG
ZBSJ,2016-11-01 17:00,ZBSJ 011700Z 00000MPS 3000 BR NSC M00/M02 Q1029 NOSIG
ZBSJ,2016-11-01 18:00,ZBSJ 011800Z 33001MPS 3000 BR NSC M00/M02 Q1029 NOSIG
ZBSJ,2016-11-01 19:00,ZBSJ 011900Z 32002MPS 3000 BR NSC 00/M02 Q1028 NOSIG
ZBSJ,2016-11-01 20:00,ZBSJ 012000Z 31002MPS 2000 BR NSC M01/M03 Q1028 NOSIG
ZBSJ,2016-11-01 21:00,ZBSJ 012100Z 22001MPS 3000 BR NSC M00/M02 Q1028 NOSIG
ZBSJ,2016-11-01 22:00,ZBSJ 012200Z 31002MPS 2700 BR NSC M02/M03 Q1028 NOSIG
ZBSJ,2016-11-01 23:00,ZBSJ 012300Z 00000MPS 2000 BR NSC M01/M03 Q1027 NOSIG
ZBSJ,2016-11-02 00:00,ZBSJ 020000Z 17001MPS 1500 BR NSC M00/M01 Q1028 NOSIG
ZBSJ,2016-11-02 01:00,ZBSJ 020100Z 25001MPS 1600 BR NSC 03/00 Q1028 NOSIG
ZBSJ,2016-11-02 02:00,ZBSJ 020200Z 27002MPS 2300 HZ NSC 07/01 Q1027 BECMG TL0330 3500
ZBSJ,2016-11-02 03:00,ZBSJ 020300Z 20002MPS 2500 HZ NSC 10/02 Q1026 BECMG TL0430 3500
ZBSJ,2016-11-02 04:00,ZBSJ 020400Z 19001MPS 2500 HZ NSC 12/03 Q1026 BECMG TL0530 3500
ZBSJ,2016-11-02 05:00,ZBSJ 020500Z 14001MPS 3500 HZ NSC 14/02 Q1025 NOSIG
ZBSJ,2016-11-02 06:00,ZBSJ 020600Z 19002MPS 140V230 4500 HZ NSC 15/00 Q1024 NOSIG
ZBSJ,2016-11-02 07:00,ZBSJ 020700Z 18004MPS 4500 HZ NSC 14/01 Q1024 NOSIG
ZBSJ,2016-11-02 08:00,ZBSJ 020800Z 18004MPS 4500 HZ NSC 14/02 Q1024 NOSIG
ZBSJ,2016-11-02 09:00,ZBSJ 020900Z 19004MPS 4000 HZ NSC 12/02 Q1023 NOSIG
ZBSJ,2016-11-02 10:00,ZBSJ 021000Z 18004MPS 4200 HZ NSC 09/03 Q1024 NOSIG
ZBSJ,2016-11-02 11:00,ZBSJ 021100Z 20004MPS 4000 HZ NSC 09/04 Q1024 NOSIG
ZBSJ,2016-11-02 12:00,ZBSJ 021200Z 21004MPS 4000 HZ NSC 09/03 Q1024 NOSIG
ZBSJ,2016-11-02 13:00,ZBSJ 021300Z 18003MPS 3500 BR NSC 06/04 Q1024 BECMG TL1430 2500 HZ
ZBSJ,2016-11-02 14:00,ZBSJ 021400Z 23001MPS 2500 BR NSC 08/05 Q1024 NOSIG
ZBSJ,2016-11-02 15:00,ZBSJ 021500Z 00000MPS 1800 BR NSC 05/04 Q1024 NOSIG
ZBSJ,2016-11-02 16:00,ZBSJ 021600Z 00000MPS 1600 BR NSC 04/03 Q1024 NOSIG
ZBSJ,2016-11-02 17:00,ZBSJ 021700Z 08001MPS 0750 R15/1600U FG NSC 03/03 Q1023 NOSIG
ZBSJ,2016-11-02 18:00,ZBSJ 021800Z 24001MPS 0800 R15/2000U FG NSC 02/02 Q1023 NOSIG
ZBSJ,2016-11-02 19:00,ZBSJ 021900Z 29001MPS 0900 R15/0900V1400U FG NSC 01/01 Q1022 NOSIG
ZBSJ,2016-11-02 20:00,ZBSJ 022000Z 21001MPS 1100 R15/1600U BR NSC 02/02 Q1022 NOSIG
ZBSJ,2016-11-02 21:00,ZBSJ 022100Z 10001MPS 0700 R15/1000U FZFG NSC M00/M01 Q1021 NOSIG
ZBSJ,2016-11-02 22:00,ZBSJ 022200Z 11001MPS 0100 R15/0125N FG VV006 01/01 Q1021 NOSIG
ZBSJ,2016-11-02 23:00,ZBSJ 022300Z 22002MPS 190V250 0050 R15/0100N FG VV006 02/02 Q1020 NOSIG
ZBSJ,2016-11-03 00:00,ZBSJ 030000Z 20001MPS 0050 R15/0100N FG VV006 03/03 Q1021 NOSIG
ZBSJ,2016-11-03 01:00,ZBSJ 030100Z 18003MPS 0100 R15/0150N FG VV006 04/04 Q1021 NOSIG
ZBSJ,2016-11-03 02:00,ZBSJ 030200Z 14001MPS 0100 R15/0150N FG VV006 05/05 Q1020 NOSIG
ZBSJ,2016-11-03 03:00,ZBSJ 030300Z 16003MPS 110V180 0400 R15/0375N FG VV013 06/06 Q1020 NOSIG
ZBSJ,2016-11-03 04:00,ZBSJ 030400Z 17004MPS 0550 R15/0800N FG OVC020 07/07 Q1018 BECMG TL0530 0700
ZBSJ,2016-11-03 05:00,ZBSJ 030500Z 19004MPS 1000 R15/1000U BR NSC 10/07 Q1016 NOSIG
ZBSJ,2016-11-03 06:00,ZBSJ 030600Z 17003MPS 140V200 1200 R15/1200N BR NSC 12/07 Q1015 NOSIG
ZBSJ,2016-11-03 07:00,ZBSJ 030700Z 16002MPS 140V200 1400 R15/1500N HZ NSC 13/07 Q1015 BECMG TL0830 1600
ZBSJ,2016-11-03 08:00,ZBSJ 030800Z 16003MPS 1600 HZ NSC 14/08 Q1014 NOSIG
ZBSJ,2016-11-03 09:00,ZBSJ 030900Z 16002MPS 1600 BR NSC 12/08 Q1014 NOSIG
ZBSJ,2016-11-03 10:00,ZBSJ 031000Z 20001MPS 1800 BR NSC 09/06 Q1014 NOSIG
ZBSJ,2016-11-03 11:00,ZBSJ 031100Z 00000MPS 1800 BR NSC 07/07 Q1014 BECMG TL1230 1400 BR
ZBSJ,2016-11-03 12:00,ZBSJ 031200Z 02001MPS 1400 R15/1600D BR NSC 06/06 Q1014 NOSIG
ZBSJ,2016-11-03 13:00,ZBSJ 031300Z 02001MPS 1200 R15/1500N BR NSC 07/06 Q1014 NOSIG
ZBSJ,2016-11-03 14:00,ZBSJ 031400Z 36001MPS 1000 R15/1200N BR NSC 06/05 Q1014 BECMG TL1530 0700 FG
ZBSJ,2016-11-03 15:00,ZBSJ 031500Z 00000MPS 0700 R15/1000V1600N FG NSC 05/05 Q1013 NOSIG
ZBSJ,2016-11-03 16:00,ZBSJ 031600Z 28002MPS 0700 R15/1000V1600U FG NSC 05/05 Q1013 NOSIG
ZBSJ,2016-11-03 17:00,ZBSJ 031700Z 32002MPS 0600 R33/0900D FG VV020 05/05 Q1012 NOSIG
ZBSJ,2016-11-03 18:00,ZBSJ 031800Z 33001MPS 0700 R33/1000U FG NSC 05/05 Q1012 NOSIG
ZBSJ,2016-11-03 19:00,ZBSJ 031900Z 32002MPS 0400 R33/0800V1300U FG NSC 03/03 Q1012 NOSIG
ZBSJ,2016-11-03 20:00,ZBSJ 032000Z 34001MPS 0300 R33/0275V0550D FG NSC 03/03 Q1011 NOSIG
ZBSJ,2016-11-03 21:00,ZBSJ 032100Z 32001MPS 0100 R33/0150N FG NSC 01/01 Q1011 NOSIG
ZBSJ,2016-11-03 22:00,ZBSJ 032200Z 00000MPS 0100 R33/0150N FG NSC 00/00 Q1011 NOSIG
ZBSJ,2016-11-03 23:00,ZBSJ 032300Z 00000MPS 0100 R33/0125N FG NSC 01/01 Q1011 NOSIG
ZBSJ,2016-11-04 00:00,ZBSJ 040000Z 32001MPS 0050 R33/0075N FG NSC 02/02 Q1011 NOSIG
ZBSJ,2016-11-04 01:00,ZBSJ 040100Z 33001MPS 0100 R33/0100N FG NSC 04/04 Q1011 NOSIG
ZBSJ,2016-11-04 02:00,ZBSJ 040200Z 18002MPS 0500 R15/0800U FG NSC 07/07 Q1010 BECMG TL0300 0700
ZBSJ,2016-11-04 03:00,ZBSJ 040300Z 18002MPS 0700 R15/0900N FG NSC 09/08 Q1010 BECMG TL0430 0800
ZBSJ,2016-11-04 04:00,ZBSJ 040400Z 16003MPS 130V190 0800 R15/0900N FG NSC 11/08 Q1008 NOSIG
ZBSJ,2016-11-04 05:00,ZBSJ 040500Z 14003MPS 0800 R15/0800D HZ NSC 12/09 Q1007 NOSIG
ZBSJ,2016-11-04 06:00,ZBSJ 040600Z 14003MPS 100V170 0800 R15/0900N HZ NSC 13/09 Q1006 NOSIG
ZBSJ,2016-11-04 07:00,ZBSJ 040700Z 15003MPS 1300 R15/1500U HZ NSC 16/09 Q1005 BECMG TL0830 1500
ZBSJ,2016-11-04 08:00,ZBSJ 040800Z 14004MPS 1500 HZ NSC 16/09 Q1005 BECMG TL0930 1400 HZ
ZBSJ,2016-11-04 09:00,ZBSJ 040900Z 13002MPS 1500 HZ NSC 14/09 Q1005 BECMG TL1030 1400 HZ
ZBSJ,2016-11-04 10:00,ZBSJ 041000Z 15001MPS 1800 HZ NSC 11/09 Q1005 NOSIG
ZBSJ,2016-11-04 11:00,ZBSJ 041100Z 06001MPS 1600 HZ NSC 09/08 Q1006 BECMG TL1230 1400 HZ
ZBSJ,2016-11-04 12:00,ZBSJ 041200Z 04002MPS 1400 R15/1600D BR NSC 10/08 Q1006 NOSIG
ZBSJ,2016-11-04 13:00,ZBSJ 041300Z 03001MPS 0700 R15/1000U FG NSC 08/08 Q1007 NOSIG
ZBSJ,2016-11-04 14:00,ZBSJ 041400Z 00000MPS 0400 R15/1000U FG NSC 06/06 Q1007 NOSIG
ZBSJ,2016-11-04 15:00,ZBSJ 041500Z 29001MPS 0500 R15/0900V1400D FG NSC 06/06 Q1007 NOSIG
ZBSJ,2016-11-04 16:00,ZBSJ 041600Z 33002MPS 0300 R15/0175N FG NSC 07/06 Q1007 NOSIG
ZBSJ,2016-11-04 17:00,ZBSJ 041700Z 35001MPS 0100 R15/0100N FG NSC 04/04 Q1007 NOSIG
ZBSJ,2016-11-04 18:00,ZBSJ 041800Z 34001MPS 0100 R15/0100N FG NSC 04/04 Q1007 NOSIG
ZBSJ,2016-11-04 19:00,ZBSJ 041900Z 29001MPS 0100 R15/0150N FG NSC 04/04 Q1007 NOSIG
ZBSJ,2016-11-04 20:00,ZBSJ 042000Z 02001MPS 0100 R15/0100N FG NSC 05/05 Q1007 NOSIG
ZBSJ,2016-11-04 21:00,ZBSJ 042100Z 04001MPS 0100 R15/0100N FG NSC 05/05 Q1008 NOSIG
ZBSJ,2016-11-04 22:00,ZBSJ 042200Z 04001MPS 0100 R15/0125N FG NSC 05/05 Q1008 NOSIG
ZBSJ,2016-11-04 23:00,ZBSJ 042300Z 08001MPS 0100 R15/0125N FG NSC 05/05 Q1009 NOSIG
ZBSJ,2016-11-05 00:00,ZBSJ 050000Z 06002MPS 0100 R15/0125N FG NSC 05/05 Q1010 NOSIG
ZBSJ,2016-11-05 01:00,ZBSJ 050100Z 04002MPS 0050 R15/0150N FG VV006 06/06 Q1011 NOSIG
ZBSJ,2016-11-05 02:00,ZBSJ 050200Z 06002MPS 0100 R15/0175N FG VV010 07/07 Q1011 BECMG TL0330 0200
ZBSJ,2016-11-05 03:00,ZBSJ 050300Z 19001MPS 0500 R15/0500N FG NSC 09/09 Q1011 BECMG TL0430 0600
ZBSJ,2016-11-05 04:00,ZBSJ 050400Z 05003MPS 010V080 1000 R15/0900N BR NSC 10/09 Q1012 NOSIG
ZBSJ,2016-11-05 05:00,ZBSJ 050500Z 06003MPS 1300 R15/1000N BR NSC 11/08 Q1012 BECMG TL0630 1500
ZBSJ,2016-11-05 06:00,ZBSJ 050600Z 07002MPS 340V090 1500 R15/1200U BR NSC 13/09 Q1013 BECMG TL0730 1400 BR
ZBSJ,2016-11-05 07:00,ZBSJ 050700Z 05004MPS 1600 R15/1200N HZ NSC 14/09 Q1014 BECMG TL0830 3000
ZBSJ,2016-11-05 08:00,ZBSJ 050800Z 06007MPS 1500 R15/1400N BR NSC 10/08 Q1016 NOSIG
ZBSJ,2016-11-05 09:00,ZBSJ 050900Z 06003MPS 1500 BR NSC 10/08 Q1017 BECMG TL1030 3000
ZBSJ,2016-11-05 10:00,ZBSJ 051000Z 03002MPS 360V060 1300 R15/1500N -RA BR OVC046 10/09 Q1019 NOSIG
ZBSJ,2016-11-05 11:00,ZBSJ 051100Z 02002MPS 350V050 2000 BR NSC 10/09 Q1021 BECMG TL1230 3000
ZBSJ,2016-11-05 12:00,ZBSJ 051200Z 04003MPS 2500 BR NSC 11/07 Q1022 BECMG TL1330 3000
ZBSJ,2016-11-05 13:00,ZBSJ 051300Z 05004MPS 3000 HZ NSC 10/06 Q1023 NOSIG
ZBSJ,2016-11-05 14:00,ZBSJ 051400Z 05004MPS 4000 HZ NSC 10/05 Q1024 NOSIG
ZBSJ,2016-11-05 15:00,ZBSJ 051500Z 05003MPS 020V090 5000 HZ NSC 10/05 Q1025 NOSIG
ZBSJ,2016-11-05 16:00,ZBSJ 051600Z 05002MPS 4000 HZ NSC 09/05 Q1026 NOSIG
ZBSJ,2016-11-05 17:00,ZBSJ 051700Z 04001MPS 3000 HZ NSC 09/05 Q1026 NOSIG
ZBSJ,2016-11-05 18:00,ZBSJ 051800Z 06003MPS 3000 HZ NSC 09/04 Q1027 NOSIG
ZBSJ,2016-11-05 19:00,ZBSJ 051900Z 06003MPS 3500 HZ NSC 08/03 Q1028 NOSIG
ZBSJ,2016-11-05 20:00,ZBSJ 052000Z 05002MPS 020V080 4000 HZ NSC 07/02 Q1028 NOSIG
ZBSJ,2016-11-05 21:00,ZBSJ 052100Z 04002MPS 4000 BR NSC 05/02 Q1028 NOSIG
ZBSJ,2016-11-05 22:00,ZBSJ 052200Z 05002MPS 4000 BR NSC 05/02 Q1028 NOSIG
ZBSJ,2016-11-05 23:00,ZBSJ 052300Z 05002MPS 4000 BR FEW033 04/00 Q1028 NOSIG
ZBSJ,2016-11-06 00:00,ZBSJ 060000Z 04001MPS 4000 BR FEW033 05/01 Q1029 NOSIG
ZBSJ,2016-11-06 01:00,ZBSJ 060100Z 04002MPS 350V060 4200 HZ FEW033 06/00 Q1029 NOSIG
ZBSJ,2016-11-06 02:00,ZBSJ 060200Z 08003MPS 040V130 4200 HZ FEW033 07/00 Q1029 NOSIG
ZBSJ,2016-11-06 03:00,ZBSJ 060300Z 10002MPS 070V160 4500 HZ NSC 09/01 Q1028 NOSIG
ZBSJ,2016-11-06 04:00,ZBSJ 060400Z 09002MPS 4000 HZ NSC 10/02 Q1027 NOSIG
ZBSJ,2016-11-06 05:00,ZBSJ 060500Z 21001MPS 4000 HZ NSC 10/01 Q1027 NOSIG
ZBSJ,2016-11-06 06:00,ZBSJ 060600Z 18001MPS 4000 HZ SCT046 11/02 Q1025 NOSIG
ZBSJ,2016-11-06 07:00,ZBSJ 060700Z 07001MPS 4000 HZ SCT046 10/02 Q1025 NOSIG
ZBSJ,2016-11-06 08:00,ZBSJ 060800Z 09002MPS 4000 HZ NSC 10/02 Q1024 NOSIG
ZBSJ,2016-11-06 09:00,ZBSJ 060900Z 08001MPS 3500 HZ NSC 09/03 Q1024 NOSIG
ZBSJ,2016-11-06 10:00,ZBSJ 061000Z 08001MPS 3500 HZ NSC 08/04 Q1024 NOSIG
ZBSJ,2016-11-06 11:00,ZBSJ 061100Z 10001MPS 4000 HZ NSC 08/03 Q1025 NOSIG
ZBSJ,2016-11-06 12:00,ZBSJ 061200Z 00000MPS 3500 HZ NSC 08/03 Q1025 NOSIG
ZBSJ,2016-11-06 13:00,ZBSJ 061300Z 00000MPS 3500 -RA BR BKN046 08/05 Q1025 NOSIG
ZBSJ,2016-11-06 14:00,ZBSJ 061400Z 32001MPS 3000 -RA BR OVC040 07/05 Q1026 NOSIG
ZBSJ,2016-11-06 15:00,ZBSJ 061500Z 09001MPS 3000 -RA BR OVC040 07/06 Q1025 NOSIG
ZBSJ,2016-11-06 16:00,ZBSJ 061600Z 10001MPS 2500 -RA BR OVC040 07/06 Q1025 NOSIG
ZBSJ,2016-11-06 17:00,ZBSJ 061700Z 02001MPS 2500 -RA BR OVC040 07/05 Q1025 NOSIG
ZBSJ,2016-11-06 18:00,ZBSJ 061800Z 02001MPS 2000 -RA BR OVC040 07/06 Q1026 NOSIG
ZBSJ,2016-11-06 19:00,ZBSJ 061900Z 02001MPS 2000 -RA BR OVC040 07/06 Q1026 NOSIG
ZBSJ,2016-11-06 20:00,ZBSJ 062000Z 00000MPS 2000 BR OVC040 07/06 Q1026 NOSIG
ZBSJ,2016-11-06 21:00,ZBSJ 062100Z 17001MPS 1800 BR OVC046 06/06 Q1026 NOSIG
ZBSJ,2016-11-06 22:00,ZBSJ 062200Z 17001MPS 1500 BR NSC 06/05 Q1026 NOSIG
ZBSJ,2016-11-06 23:00,ZBSJ 062300Z 00000MPS 1200 R15/1700D BR NSC 06/06 Q1027 BECMG TL0030 1500
ZBSJ,2016-11-07 00:00,ZBSJ 070000Z 00000MPS 0800 R15/0550D FG NSC 06/06 Q1029 NOSIG
ZBSJ,2016-11-07 01:00,ZBSJ 070100Z 07001MPS 0900 R33/1000N FG NSC 07/06 Q1029 NOSIG
ZBSJ,2016-11-07 02:00,ZBSJ 070200Z 03001MPS 1300 R33/1300N BR NSC 08/05 Q1030 BECMG TL0330 1600
ZBSJ,2016-11-07 03:00,ZBSJ 070300Z 04001MPS 1600 R33/1400N BR NSC 09/06 Q1030 NOSIG
ZBSJ,2016-11-07 04:00,ZBSJ 070400Z 08002MPS 1800 BR NSC 10/06 Q1030 BECMG TL0530 3000
ZBSJ,2016-11-07 05:00,ZBSJ 070500Z 10002MPS 2000 BR NSC 10/05 Q1029 BECMG TL0630 3000
ZBSJ,2016-11-07 06:00,ZBSJ 070600Z 12003MPS 070V160 3000 BR NSC 10/05 Q1028 NOSIG
ZBSJ,2016-11-07 07:00,ZBSJ 070700Z 14002MPS 100V160 3000 HZ NSC 11/05 Q1029 NOSIG
ZBSJ,2016-11-07 08:00,ZBSJ 070800Z 13002MPS 4000 HZ NSC 11/05 Q1030 NOSIG
ZBSJ,2016-11-07 09:00,ZBSJ 070900Z 10001MPS 3300 HZ NSC 10/05 Q1031 NOSIG
ZBSJ,2016-11-07 10:00,ZBSJ 071000Z 09002MPS 3300 HZ NSC 08/05 Q1031 NOSIG
ZBSJ,2016-11-07 11:00,ZBSJ 071100Z 13001MPS 3000 BR NSC 06/04 Q1032 NOSIG
ZBSJ,2016-11-07 12:00,ZBSJ 071200Z 15002MPS 2300 BR NSC 06/04 Q1033 NOSIG
ZBSJ,2016-11-07 13:00,ZBSJ 071300Z 18002MPS 2200 BR NSC 05/04 Q1033 NOSIG
ZBSJ,2016-11-07 14:00,ZBSJ 071400Z 23001MPS 2500 BR NSC 05/04 Q1033 NOSIG
ZBSJ,2016-11-07 15:00,ZBSJ 071500Z 26001MPS 2500 BR NSC 05/04 Q1034 NOSIG
ZBSJ,2016-11-07 16:00,ZBSJ 071600Z 06001MPS 1400 R15/1200VP2000U BR NSC 03/02 Q1034 NOSIG
ZBSJ,2016-11-07 17:00,ZBSJ 071700Z 34001MPS 0800 R15/0450V1300D FG NSC 02/02 Q1034 NOSIG
ZBSJ,2016-11-07 18:00,ZBSJ 071800Z 00000MPS 0700 R15/0150V0325D FG NSC 02/02 Q1035 NOSIG
ZBSJ,2016-11-07 19:00,ZBSJ 071900Z 09002MPS 0200 R15/0275V1100U FG NSC 01/01 Q1035 NOSIG
ZBSJ,2016-11-07 20:00,ZBSJ 072000Z 15001MPS 0100 R15/0100N FG NSC 02/02 Q1035 NOSIG
ZBSJ,2016-11-07 21:00,ZBSJ 072100Z 16001MPS 0050 R15/0125N FG VV013 02/02 Q1035 NOSIG
ZBSJ,2016-11-07 22:00,ZBSJ 072200Z 26001MPS 0050 R15/0125N FG VV013 01/01 Q1035 NOSIG
ZBSJ,2016-11-07 23:00,ZBSJ 072300Z 00000MPS 0100 R15/0125N FZFG NSC M00/M00 Q1035 NOSIG
ZBSJ,2016-11-08 00:00,ZBSJ 080000Z 35001MPS 0100 R15/0125N FZFG NSC M00/M00 Q1036 BECMG TL0130 0300
ZBSJ,2016-11-08 01:00,ZBSJ 080100Z 20001MPS 1800 BR NSC 04/04 Q1036 BECMG TL0230 3000
ZBSJ,2016-11-08 02:00,ZBSJ 080200Z 17003MPS CAVOK 08/M03 Q1036 NOSIG
ZBSJ,2016-11-08 03:00,ZBSJ 080300Z 16005MPS CAVOK 10/M05 Q1036 NOSIG
ZBSJ,2016-11-08 04:00,ZBSJ 080400Z 17005MPS CAVOK 11/M04 Q1035 NOSIG
ZBSJ,2016-11-08 05:00,ZBSJ 080500Z 18005MPS 150V210 CAVOK 11/M04 Q1033 NOSIG
ZBSJ,2016-11-08 06:00,ZBSJ 080600Z 17005MPS 150V210 CAVOK 11/M04 Q1032 NOSIG
ZBSJ,2016-11-08 07:00,ZBSJ 080700Z 17005MPS CAVOK 12/M02 Q1032 NOSIG
ZBSJ,2016-11-08 08:00,ZBSJ 080800Z 17005MPS CAVOK 11/M02 Q1032 NOSIG
ZBSJ,2016-11-08 09:00,ZBSJ 080900Z 17003MPS CAVOK 08/M01 Q1032 NOSIG
ZBSJ,2016-11-08 10:00,ZBSJ 081000Z 15002MPS CAVOK 06/M01 Q1032 NOSIG
ZBSJ,2016-11-08 11:00,ZBSJ 081100Z 14002MPS CAVOK 07/M01 Q1033 NOSIG
ZBSJ,2016-11-08 12:00,ZBSJ 081200Z 10002MPS 6000 NSC 04/M01 Q1033 NOSIG
ZBSJ,2016-11-08 13:00,ZBSJ 081300Z 11001MPS 6000 NSC 03/M01 Q1033 NOSIG
ZBSJ,2016-11-08 14:00,ZBSJ 081400Z 14001MPS 6000 NSC 02/M01 Q1034 NOSIG
ZBSJ,2016-11-08 15:00,ZBSJ 081500Z 15002MPS 6000 NSC 02/M01 Q1034 NOSIG
ZBSJ,2016-11-08 16:00,ZBSJ 081600Z 16001MPS 6000 NSC 02/M00 Q1033 NOSIG
ZBSJ,2016-11-08 17:00,ZBSJ 081700Z 21001MPS 6000 NSC 01/M01 Q1033 NOSIG
ZBSJ,2016-11-08 18:00,ZBSJ 081800Z 13001MPS 4000 BR NSC M00/M01 Q1033 NOSIG
ZBSJ,2016-11-08 19:00,ZBSJ 081900Z 18001MPS 3000 BR NSC M01/M02 Q1032 NOSIG
ZBSJ,2016-11-08 20:00,ZBSJ 082000Z 22001MPS 2500 BR NSC M01/M01 Q1032 NOSIG
ZBSJ,2016-11-08 21:00,ZBSJ 082100Z 29001MPS 2000 BR NSC M01/M02 Q1032 NOSIG
ZBSJ,2016-11-08 22:00,ZBSJ 082200Z 00000MPS 2000 BR NSC M01/M01 Q1032 NOSIG
ZBSJ,2016-11-08 23:00,ZBSJ 082300Z 00000MPS 1400 R15/2000D BR NSC M01/M01 Q1032 BECMG TL0030 1800
ZBSJ,2016-11-09 00:00,ZBSJ 090000Z 16001MPS 1400 R15/1300N BR NSC 00/M00 Q1032 BECMG TL0130 1800
ZBSJ,2016-11-09 01:00,ZBSJ 090100Z 15002MPS 1200 R15/1200V1600U BR NSC 03/01 Q1032 BECMG TL0230 1600
ZBSJ,2016-11-09 02:00,ZBSJ 090200Z 15001MPS 1500 BR NSC 05/02 Q1031 NOSIG
ZBSJ,2016-11-09 03:00,ZBSJ 090300Z 19001MPS 1700 BR NSC 06/02 Q1030 NOSIG
ZBSJ,2016-11-09 04:00,ZBSJ 090400Z 13001MPS 2000 HZ NSC 08/03 Q1029 NOSIG
ZBSJ,2016-11-09 05:00,ZBSJ 090500Z 14002MPS 110V170 1600 R15/1400N HZ NSC 08/03 Q1027 NOSIG
ZBSJ,2016-11-09 06:00,ZBSJ 090600Z 18003MPS 150V210 1500 R15/1400N HZ NSC 10/05 Q1026 NOSIG
ZBSJ,2016-11-09 07:00,ZBSJ 090700Z 18004MPS 1800 HZ NSC 10/04 Q1025 NOSIG
ZBSJ,2016-11-09 08:00,ZBSJ 090800Z 18004MPS 2700 HZ NSC 10/03 Q1025 BECMG TL0930 3500
ZBSJ,2016-11-09 09:00,ZBSJ 090900Z 17005MPS 3500 HZ NSC 09/02 Q1024 NOSIG
ZBSJ,2016-11-09 10:00,ZBSJ 091000Z 17005MPS 6000 NSC 09/02 Q1024 NOSIG
ZBSJ,2016-11-09 11:00,ZBSJ 091100Z 16003MPS 5000 HZ NSC 07/03 Q1024 NOSIG
ZBSJ,2016-11-09 12:00,ZBSJ 091200Z 17003MPS 5000 HZ NSC 07/03 Q1024 NOSIG
ZBSJ,2016-11-09 13:00,ZBSJ 091300Z 16002MPS 4500 BR NSC 05/02 Q1023 NOSIG
ZBSJ,2016-11-09 14:00,ZBSJ 091400Z 17002MPS 4000 BR NSC 04/02 Q1023 NOSIG
ZBSJ,2016-11-09 15:00,ZBSJ 091500Z 17003MPS 3500 BR NSC 04/02 Q1022 NOSIG
ZBSJ,2016-11-09 16:00,ZBSJ 091600Z 23002MPS 2000 BR NSC 04/02 Q1021 NOSIG
ZBSJ,2016-11-09 17:00,ZBSJ 091700Z 24002MPS 1600 BR NSC 04/03 Q1020 NOSIG
ZBSJ,2016-11-09 18:00,ZBSJ 091800Z 22002MPS 1800 BR NSC 03/02 Q1020 NOSIG
ZBSJ,2016-11-09 19:00,ZBSJ 091900Z 24002MPS 1500 BR NSC 02/02 Q1018 NOSIG
ZBSJ,2016-11-09 20:00,ZBSJ 092000Z 19001MPS 1200 R15/0800V1700D BR NSC 02/01 Q1017 NOSIG
ZBSJ,2016-11-09 21:00,ZBSJ 092100Z 18001MPS 1200 R15/1300VP2000D BR NSC 01/01 Q1017 NOSIG
ZBSJ,2016-11-09 22:00,ZBSJ 092200Z 15002MPS 1300 R15/P2000N BR NSC 02/02 Q1015 NOSIG
ZBSJ,2016-11-09 23:00,ZBSJ 092300Z 16001MPS 1000 R15/1600D BR NSC 02/02 Q1015 NOSIG
ZBSJ,2016-11-10 00:00,ZBSJ 100000Z 34001MPS 0700 R15/0800D FG NSC 03/03 Q1015 BECMG TL0130 0800
ZBSJ,2016-11-10 01:00,ZBSJ 100100Z 25002MPS 220V010 0700 R15/0800N FG NSC 04/03 Q1015 BECMG TL0230 0900
ZBSJ,2016-11-10 02:00,ZBSJ 100200Z 30003MPS 270V360 1000 R15/1000U BR NSC 08/04 Q1014 BECMG TL0330 2000
ZBSJ,2016-11-10 03:00,ZBSJ 100300Z 28010G15MPS CAVOK 14/M07 Q1014 NOSIG
ZBSJ,2016-11-10 04:00,ZBSJ 100400Z 27009MPS CAVOK 15/M09 Q1014 NOSIG
ZBSJ,2016-11-10 05:00,ZBSJ 100500Z 28009MPS CAVOK 15/M11 Q1013 NOSIG
ZBSJ,2016-11-10 06:00,ZBSJ 100600Z 29007MPS CAVOK 15/M10 Q1012 NOSIG
ZBSJ,2016-11-10 07:00,ZBSJ 100700Z 27008MPS CAVOK 15/M12 Q1012 NOSIG
ZBSJ,2016-11-10 08:00,ZBSJ 100800Z 29006MPS CAVOK 14/M11 Q1012 NOSIG
ZBSJ,2016-11-10 09:00,ZBSJ 100900Z 28003MPS CAVOK 12/M09 Q1012 NOSIG
ZBSJ,2016-11-10 10:00,ZBSJ 101000Z 35001MPS CAVOK 08/M07 Q1013 NOSIG
ZBSJ,2016-11-10 11:00,ZBSJ 101100Z 03001MPS CAVOK 06/M05 Q1013 NOSIG
ZBSJ,2016-11-10 12:00,ZBSJ 101200Z 21001MPS 7000 NSC 06/M05 Q1013 NOSIG
ZBSJ,2016-11-10 13:00,ZBSJ 101300Z 13001MPS 5000 HZ NSC 05/M05 Q1014 NOSIG
ZBSJ,2016-11-10 14:00,ZBSJ 101400Z 14002MPS 4000 HZ NSC 04/M04 Q1014 NOSIG
ZBSJ,2016-11-10 15:00,ZBSJ 101500Z 17002MPS 4000 FU NSC 04/M04 Q1013 NOSIG
ZBSJ,2016-11-10 16:00,ZBSJ 101600Z 19004MPS 4500 FU NSC 07/M05 Q1013 NOSIG
ZBSJ,2016-11-10 17:00,ZBSJ 101700Z 17003MPS 5000 FU NSC 04/M04 Q1013 NOSIG
ZBSJ,2016-11-10 18:00,ZBSJ 101800Z 34001MPS 4500 FU NSC 01/M03 Q1013 NOSIG
ZBSJ,2016-11-10 19:00,ZBSJ 101900Z 33001MPS 4000 BR NSC 01/M03 Q1012 NOSIG
ZBSJ,2016-11-10 20:00,ZBSJ 102000Z 00000MPS 4000 BR NSC 01/M03 Q1012 NOSIG
ZBSJ,2016-11-10 21:00,ZBSJ 102100Z 29001MPS 4000 BR NSC 01/M03 Q1012 NOSIG
ZBSJ,2016-11-10 22:00,ZBSJ 102200Z 32002MPS 4500 BR NSC 00/M03 Q1012 NOSIG
ZBSJ,2016-11-10 23:00,ZBSJ 102300Z 34002MPS 3000 BR NSC 01/M03 Q1012 NOSIG
ZBSJ,2016-11-11 00:00,ZBSJ 110000Z 34003MPS 3000 BR NSC 02/M02 Q1013 NOSIG
ZBSJ,2016-11-11 01:00,ZBSJ 110100Z 01003MPS 1800 R33/1400N HZ NSC 05/00 Q1013 BECMG TL0230 3500
ZBSJ,2016-11-11 02:00,ZBSJ 110200Z 02002MPS 350V070 2500 HZ NSC 08/M00 Q1013 BECMG TL0330 3500
ZBSJ,2016-11-11 03:00,ZBSJ 110300Z 03003MPS 360V070 3500 HZ NSC 10/M01 Q1013 NOSIG
ZBSJ,2016-11-11 04:00,ZBSJ 110400Z 36002MPS 5000 HZ NSC 11/M01 Q1012 NOSIG
ZBSJ,2016-11-11 05:00,ZBSJ 110500Z 08002MPS 030V130 5000 HZ NSC 12/M01 Q1011 NOSIG
ZBSJ,2016-11-11 06:00,ZBSJ 110600Z 12002MPS 070V180 4300 HZ NSC 13/00 Q1010 NOSIG
ZBSJ,2016-11-11 07:00,ZBSJ 110700Z 11002MPS 3500 HZ NSC 13/02 Q1010 BECMG TL0830 2500 HZ
ZBSJ,2016-11-11 08:00,ZBSJ 110800Z 09002MPS 2800 HZ NSC 12/03 Q1010 NOSIG
ZBSJ,2016-11-11 09:00,ZBSJ 110900Z 06001MPS 2000 HZ NSC 10/04 Q1011 BECMG TL1030 1400 HZ
ZBSJ,2016-11-11 10:00,ZBSJ 111000Z 04002MPS 2300 HZ NSC 08/03 Q1012 NOSIG
ZBSJ,2016-11-11 11:00,ZBSJ 111100Z 03002MPS 2800 HZ NSC 08/03 Q1013 NOSIG
ZBSJ,2016-11-11 12:00,ZBSJ 111200Z 01001MPS 3000 HZ NSC 07/02 Q1014 NOSIG
ZBSJ,2016-11-11 13:00,ZBSJ 111300Z 36002MPS 3000 HZ NSC 05/02 Q1015 NOSIG
ZBSJ,2016-11-11 14:00,ZBSJ 111400Z 01001MPS 3500 HZ NSC 05/01 Q1016 NOSIG
ZBSJ,2016-11-11 15:00,ZBSJ 111500Z 35002MPS 3300 BR NSC 04/00 Q1017 NOSIG
ZBSJ,2016-11-11 16:00,ZBSJ 111600Z 33002MPS 2700 BR NSC 04/00 Q1017 NOSIG
ZBSJ,2016-11-11 17:00,ZBSJ 111700Z 32001MPS 2700 BR NSC 04/01 Q1017 NOSIG
ZBSJ,2016-11-11 18:00,ZBSJ 111800Z 10001MPS 2500 BR NSC 02/M00 Q1017 NOSIG
ZBSJ,2016-11-11 19:00,ZBSJ 111900Z 35002MPS 2500 BR NSC 01/M00 Q1017 NOSIG
ZBSJ,2016-11-11 20:00,ZBSJ 112000Z 35003MPS 2500 BR NSC 03/M00 Q1017 NOSIG
ZBSJ,2016-11-11 21:00,ZBSJ 112100Z 28001MPS 2500 BR NSC 01/M01 Q1018 NOSIG
ZBSJ,2016-11-11 22:00,ZBSJ 112200Z 31002MPS 2500 BR NSC 02/00 Q1019 NOSIG
ZBSJ,2016-11-11 23:00,ZBSJ 112300Z 31002MPS 2000 BR NSC 03/01 Q1020 NOSIG
ZBSJ,2016-11-12 00:00,ZBSJ 120000Z 34002MPS 1500 R33/1400N BR NSC 03/01 Q1021 BECMG TL0130 1400 BR
ZBSJ,2016-11-12 01:00,ZBSJ 120100Z 31002MPS 1500 R33/1400U BR NSC 06/03 Q1021 NOSIG
ZBSJ,2016-11-12 02:00,ZBSJ 120200Z 33002MPS 1500 BR NSC 09/03 Q1021 NOSIG
ZBSJ,2016-11-12 03:00,ZBSJ 120300Z 34002MPS 300V030 2800 BR NSC 11/02 Q1021 BECMG TL0430 3000
ZBSJ,2016-11-12 04:00,ZBSJ 120400Z 02003MPS 340V080 3500 BR NSC 12/03 Q1020 NOSIG
ZBSJ,2016-11-12 05:00,ZBSJ 120500Z 05002MPS 340V090 4000 BR NSC 12/03 Q1019 NOSIG
ZBSJ,2016-11-12 06:00,ZBSJ 120600Z 04002MPS 4000 BR NSC 13/04 Q1019 NOSIG
ZBSJ,2016-11-12 07:00,ZBSJ 120700Z 12002MPS 080V150 5000 HZ NSC 13/05 Q1018 NOSIG
ZBSJ,2016-11-12 08:00,ZBSJ 120800Z 08002MPS 5000 HZ NSC 13/05 Q1018 NOSIG
ZBSJ,2016-11-12 09:00,ZBSJ 120900Z 11001MPS 4000 HZ NSC 10/05 Q1018 NOSIG
ZBSJ,2016-11-12 10:00,ZBSJ 121000Z 04001MPS 4000 BR NSC 06/03 Q1019 NOSIG
ZBSJ,2016-11-12 11:00,ZBSJ 121100Z 00000MPS 3000 BR NSC 06/04 Q1019 BECMG TL1230 2000 BR
ZBSJ,2016-11-12 12:00,ZBSJ 121200Z 06001MPS 2200 BR NSC 06/04 Q1020 NOSIG
ZBSJ,2016-11-12 13:00,ZBSJ 121300Z 10001MPS 2000 BR NSC 06/04 Q1020 NOSIG
ZBSJ,2016-11-12 14:00,ZBSJ 121400Z 36001MPS 1500 BR NSC 05/04 Q1020 NOSIG
ZBSJ,2016-11-12 15:00,ZBSJ 121500Z 33001MPS 1500 BR NSC 05/04 Q1020 NOSIG
ZBSJ,2016-11-12 16:00,ZBSJ 121600Z 29001MPS 1500 BR NSC 04/03 Q1020 NOSIG
ZBSJ,2016-11-12 17:00,ZBSJ 121700Z 34001MPS 1500 BR NSC 04/02 Q1020 NOSIG
ZBSJ,2016-11-12 18:00,ZBSJ 121800Z 25001MPS 1500 BR NSC 03/02 Q1020 NOSIG
ZBSJ,2016-11-12 19:00,ZBSJ 121900Z 33002MPS 1500 BR NSC 03/02 Q1019 NOSIG
ZBSJ,2016-11-12 20:00,ZBSJ 122000Z 34001MPS 1800 BR NSC 04/02 Q1018 NOSIG
ZBSJ,2016-11-12 21:00,ZBSJ 122100Z 33002MPS 1800 BR NSC 03/02 Q1018 NOSIG
ZBSJ,2016-11-12 22:00,ZBSJ 122200Z 32002MPS 2000 BR NSC 02/01 Q1018 NOSIG
ZBSJ,2016-11-12 23:00,ZBSJ 122300Z 30002MPS 1800 BR NSC 02/01 Q1018 BECMG TL0030 3200 BR
ZBSJ,2016-11-13 00:00,ZBSJ 130000Z 30002MPS 1600 BR NSC 03/02 Q1019 NOSIG
ZBSJ,2016-11-13 01:00,ZBSJ 130100Z 31002MPS 1600 BR NSC 05/02 Q1019 NOSIG
ZBSJ,2016-11-13 02:00,ZBSJ 130200Z 29001MPS 2000 BR NSC 07/03 Q1019 BECMG TL0330 3000
ZBSJ,2016-11-13 03:00,ZBSJ 130300Z 16001MPS 2300 HZ NSC 09/05 Q1018 BECMG TL0430 3000
ZBSJ,2016-11-13 04:00,ZBSJ 130400Z 10001MPS 2300 HZ NSC 10/06 Q1017 BECMG TL0530 3000
ZBSJ,2016-11-13 05:00,ZBSJ 130500Z 16002MPS 2300 HZ NSC 12/06 Q1015 NOSIG
ZBSJ,2016-11-13 06:00,ZBSJ 130600Z 19001MPS 1600 R15/1300N HZ NSC 12/06 Q1014 NOSIG
ZBSJ,2016-11-13 07:00,ZBSJ 130700Z 10001MPS 1300 R15/1300N HZ NSC 12/06 Q1014 NOSIG
ZBSJ,2016-11-13 08:00,ZBSJ 130800Z 06001MPS 1200 R15/1300N HZ NSC 11/07 Q1014 NOSIG
ZBSJ,2016-11-13 09:00,ZBSJ 130900Z 05001MPS 1200 R15/1300N BR NSC 09/07 Q1013 NOSIG
ZBSJ,2016-11-13 10:00,ZBSJ 131000Z 00000MPS 1200 R15/1300U BR NSC 08/06 Q1014 NOSIG
ZBSJ,2016-11-13 11:00,ZBSJ 131100Z 17002MPS 1000 R15/1200N BR NSC 06/05 Q1014 NOSIG
ZBSJ,2016-11-13 12:00,ZBSJ 131200Z 08001MPS 0700 R15/0800D FG NSC 05/05 Q1014 NOSIG
ZBSJ,2016-11-13 13:00,ZBSJ 131300Z 16001MPS 0500 R33/0700N FG NSC 04/04 Q1015 NOSIG
ZBSJ,2016-11-13 14:00,ZBSJ 131400Z 32001MPS 0400 R33/0150V0275D FG NSC 04/03 Q1015 NOSIG
ZBSJ,2016-11-13 15:00,ZBSJ 131500Z 30001MPS 0300 R15/0150V0275N FG NSC 03/03 Q1016 NOSIG
ZBSJ,2016-11-13 16:00,ZBSJ 131600Z 01001MPS 0100 R15/0075N FG NSC 03/03 Q1016 NOSIG
ZBSJ,2016-11-13 17:00,ZBSJ 131700Z 32001MPS 0100 R15/0075N FG NSC 01/01 Q1016 NOSIG
ZBSJ,2016-11-13 18:00,ZBSJ 131800Z 00000MPS 0050 R15/0150N FG NSC 02/02 Q1016 NOSIG
ZBSJ,2016-11-13 19:00,ZBSJ 131900Z 30001MPS 0050 R15/0075N FG VV003 02/02 Q1016 NOSIG
ZBSJ,2016-11-13 20:00,ZBSJ 132000Z 30001MPS 0050 R15/0100N FG VV003 01/01 Q1016 NOSIG
ZBSJ,2016-11-13 21:00,ZBSJ 132100Z 35001MPS 0100 R15/0100N FG NSC 01/01 Q1017 NOSIG
ZBSJ,2016-11-13 22:00,ZBSJ 132200Z 04001MPS 0100 R15/0150N FG VV003 02/02 Q1018 NOSIG
ZBSJ,2016-11-13 23:00,ZBSJ 132300Z 06003MPS 0100 R15/0150N FG VV003 04/04 Q1019 NOSIG
ZBSJ,2016-11-14 00:00,ZBSJ 140000Z 09001MPS 0100 R15/0125N FG VV006 05/05 Q1021 NOSIG
ZBSJ,2016-11-14 01:00,ZBSJ 140100Z 07001MPS 0100 R15/0125N FG VV006 05/05 Q1022 NOSIG
ZBSJ,2016-11-14 02:00,ZBSJ 140200Z 29002MPS 0100 R15/0150N FG VV006 06/06 Q1023 NOSIG
ZBSJ,2016-11-14 03:00,ZBSJ 140300Z 29003MPS 0300 R33/0325N FG VV006 06/06 Q1023 BECMG TL0400 0400
ZBSJ,2016-11-14 04:00,ZBSJ 140400Z 30003MPS 0550 R33/0550N FG NSC 07/07 Q1023 BECMG TL0530 0700
ZBSJ,2016-11-14 05:00,ZBSJ 140500Z 23002MPS 0800 R33/0800N FG NSC 09/07 Q1022 NOSIG
ZBSJ,2016-11-14 06:00,ZBSJ 140600Z 19003MPS 150V240 1000 R33/0900N HZ NSC 11/06 Q1021 NOSIG
ZBSJ,2016-11-14 07:00,ZBSJ 140700Z 17003MPS 1400 R15/1200N HZ NSC 12/06 Q1021 BECMG TL0830 1500
ZBSJ,2016-11-14 08:00,ZBSJ 140800Z 15002MPS 1200 R15/1200N HZ NSC 11/06 Q1021 NOSIG
ZBSJ,2016-11-14 09:00,ZBSJ 140900Z 09002MPS 1000 R15/1300N HZ NSC 09/06 Q1022 NOSIG
ZBSJ,2016-11-14 10:00,ZBSJ 141000Z 08002MPS 1000 R15/1400N BR NSC 08/06 Q1023 NOSIG
ZBSJ,2016-11-14 11:00,ZBSJ 141100Z 08002MPS 1000 R15/1300N BR NSC 07/06 Q1024 NOSIG
ZBSJ,2016-11-14 12:00,ZBSJ 141200Z 07002MPS 1000 R15/1400U BR NSC 06/05 Q1025 NOSIG
ZBSJ,2016-11-14 13:00,ZBSJ 141300Z 05003MPS 1000 R15/1300U BR NSC 06/05 Q1025 NOSIG
ZBSJ,2016-11-14 14:00,ZBSJ 141400Z 06003MPS 1100 R15/1300N BR NSC 06/05 Q1026 NOSIG
ZBSJ,2016-11-14 15:00,ZBSJ 141500Z 06001MPS 1100 R15/1600N BR NSC 04/03 Q1027 NOSIG
ZBSJ,2016-11-14 16:00,ZBSJ 141600Z 06001MPS 1400 R15/1800N BR NSC 03/02 Q1027 NOSIG
ZBSJ,2016-11-14 17:00,ZBSJ 141700Z 05001MPS 1400 R15/1800U BR NSC 01/00 Q1027 NOSIG
ZBSJ,2016-11-14 18:00,ZBSJ 141800Z 02001MPS 1800 BR NSC 01/00 Q1027 NOSIG
ZBSJ,2016-11-14 19:00,ZBSJ 141900Z 33001MPS 1800 BR NSC 01/M00 Q1027 NOSIG
ZBSJ,2016-11-14 20:00,ZBSJ 142000Z 33001MPS 1800 BR NSC 01/M01 Q1027 NOSIG
ZBSJ,2016-11-14 21:00,ZBSJ 142100Z 00000MPS 1600 BR NSC M01/M02 Q1027 NOSIG
ZBSJ,2016-11-14 22:00,ZBSJ 142200Z 24001MPS 1600 BR NSC M01/M02 Q1027 NOSIG
ZBSJ,2016-11-14 23:00,ZBSJ 142300Z 00000MPS 1600 BR NSC M01/M02 Q1027 BECMG TL0030 1400 BR
ZBSJ,2016-11-15 00:00,ZBSJ 150000Z 36001MPS 1500 R15/1000V1500U BR NSC 00/M01 Q1028 NOSIG
ZBSJ,2016-11-15 01:00,ZBSJ 150100Z 03001MPS 1600 HZ NSC 04/M02 Q1028 NOSIG
ZBSJ,2016-11-15 02:00,ZBSJ 150200Z 05002MPS 2500 HZ NSC 06/M04 Q1028 BECMG TL0330 3200
ZBSJ,2016-11-15 03:00,ZBSJ 150300Z 08001MPS 3000 HZ NSC 08/M04 Q1027 NOSIG
ZBSJ,2016-11-15 04:00,ZBSJ 150400Z 20001MPS 5000 HZ NSC 11/M06 Q1026 NOSIG
ZBSJ,2016-11-15 05:00,ZBSJ 150500Z 14002MPS 8000 NSC 11/M08 Q1024 NOSIG
ZBSJ,2016-11-15 06:00,ZBSJ 150600Z 18001MPS 8000 NSC 12/M08 Q1024 NOSIG
ZBSJ,2016-11-15 07:00,ZBSJ 150700Z 11002MPS CAVOK 12/M08 Q1022 NOSIG
ZBSJ,2016-11-15 08:00,ZBSJ 150800Z 08001MPS CAVOK 11/M05 Q1022 NOSIG
ZBSJ,2016-11-15 09:00,ZBSJ 150900Z 00000MPS 6000 NSC 09/M05 Q1022 NOSIG
ZBSJ,2016-11-15 10:00,ZBSJ 151000Z 14001MPS 5000 HZ NSC 06/M02 Q1022 NOSIG
ZBSJ,2016-11-15 11:00,ZBSJ 151100Z 03001MPS 4000 HZ NSC 04/M01 Q1022 NOSIG
ZBSJ,2016-11-15 12:00,ZBSJ 151200Z 35001MPS 3500 HZ NSC 04/M03 Q1022 NOSIG
ZBSJ,2016-11-15 13:00,ZBSJ 151300Z 34001MPS 3000 HZ NSC 03/M02 Q1022 BECMG TL1430 2500 BR
ZBSJ,2016-11-15 14:00,ZBSJ 151400Z 00000MPS 2700 HZ NSC 02/M01 Q1022 NOSIG
ZBSJ,2016-11-15 15:00,ZBSJ 151500Z 33002MPS 2700 HZ NSC 03/M02 Q1022 NOSIG
ZBSJ,2016-11-15 16:00,ZBSJ 151600Z 29002MPS 2700 HZ NSC 03/M03 Q1021 NOSIG
ZBSJ,2016-11-15 17:00,ZBSJ 151700Z 28003MPS 3000 HZ NSC 03/M02 Q1021 NOSIG
ZBSJ,2016-11-15 18:00,ZBSJ 151800Z 29001MPS 3000 HZ NSC 03/M02 Q1020 NOSIG
ZBSJ,2016-11-15 19:00,ZBSJ 151900Z 33002MPS 2700 HZ NSC 03/M02 Q1020 NOSIG
ZBSJ,2016-11-15 20:00,ZBSJ 152000Z 33002MPS 2700 BR NSC 02/M02 Q1019 NOSIG
ZBSJ,2016-11-15 21:00,ZBSJ 152100Z 32001MPS 2200 BR NSC 02/M02 Q1019 NOSIG
ZBSJ,2016-11-15 22:00,ZBSJ 152200Z 30001MPS 2000 BR NSC 01/M02 Q1019 NOSIG
ZBSJ,2016-11-15 23:00,ZBSJ 152300Z 28001MPS 2500 BR NSC 01/M02 Q1019 BECMG TL0030 3000
ZBSJ,2016-11-16 00:00,ZBSJ 160000Z 33002MPS 2700 BR NSC 02/M02 Q1020 BECMG TL0130 3500
ZBSJ,2016-11-16 01:00,ZBSJ 160100Z 34002MPS 2200 HZ NSC 04/M00 Q1020 NOSIG
ZBSJ,2016-11-16 02:00,ZBSJ 160200Z 06001MPS 2200 HZ NSC 06/M01 Q1020 NOSIG
ZBSJ,2016-11-16 03:00,ZBSJ 160300Z 08002MPS 030V100 2200 HZ NSC 08/M02 Q1020 NOSIG
ZBSJ,2016-11-16 04:00,ZBSJ 160400Z 10002MPS 2300 HZ NSC 09/M00 Q1019 NOSIG
ZBSJ,2016-11-16 05:00,ZBSJ 160500Z 07002MPS 050V110 2500 HZ NSC 10/M01 Q1018 BECMG TL0630 3500
ZBSJ,2016-11-16 06:00,ZBSJ 160600Z 09002MPS 030V120 3000 HZ NSC 11/M01 Q1018 NOSIG
ZBSJ,2016-11-16 07:00,ZBSJ 160700Z 08002MPS 3000 HZ NSC 11/M00 Q1018 BECMG TL0830 2500 BR
ZBSJ,2016-11-16 08:00,ZBSJ 160800Z 10001MPS 2900 HZ NSC 10/M00 Q1019 NOSIG
ZBSJ,2016-11-16 09:00,ZBSJ 160900Z 01001MPS 2200 HZ NSC 08/01 Q1019 NOSIG
ZBSJ,2016-11-16 10:00,ZBSJ 161000Z 02001MPS 3000 HZ NSC 06/01 Q1020 NOSIG
ZBSJ,2016-11-16 11:00,ZBSJ 161100Z 02001MPS 3000 HZ NSC 05/01 Q1021 BECMG TL1230 2500 BR
ZBSJ,2016-11-16 12:00,ZBSJ 161200Z 35001MPS 3300 HZ NSC 04/00 Q1021 NOSIG
ZBSJ,2016-11-16 13:00,ZBSJ 161300Z 32002MPS 2700 HZ NSC 04/00 Q1022 NOSIG
ZBSJ,2016-11-16 14:00,ZBSJ 161400Z 33003MPS 2200 BR NSC 04/00 Q1022 NOSIG
ZBSJ,2016-11-16 15:00,ZBSJ 161500Z 32002MPS 2200 BR NSC 03/M00 Q1023 NOSIG
ZBSJ,2016-11-16 16:00,ZBSJ 161600Z 29001MPS 2000 BR NSC 03/01 Q1023 NOSIG
ZBSJ,2016-11-16 17:00,ZBSJ 161700Z 32003MPS 2000 BR NSC 01/M01 Q1023 NOSIG
ZBSJ,2016-11-16 18:00,ZBSJ 161800Z 32003MPS 2000 BR NSC 01/M01 Q1024 NOSIG
ZBSJ,2016-11-16 19:00,ZBSJ 161900Z 32003MPS 2000 BR NSC 01/M01 Q1024 NOSIG
ZBSJ,2016-11-16 20:00,ZBSJ 162000Z 33003MPS 1800 BR NSC 01/M01 Q1023 NOSIG
ZBSJ,2016-11-16 21:00,ZBSJ 162100Z 32003MPS 1800 BR NSC 01/M01 Q1024 NOSIG
ZBSJ,2016-11-16 22:00,ZBSJ 162200Z 32003MPS 1800 BR NSC 01/M01 Q1024 NOSIG
ZBSJ,2016-11-16 23:00,ZBSJ 162300Z 30003MPS 1600 BR NSC 02/M00 Q1024 NOSIG
ZBSJ,2016-11-17 00:00,ZBSJ 170000Z 31002MPS 1300 R33/1500D BR NSC 02/00 Q1024 BECMG TL0130 1600
ZBSJ,2016-11-17 01:00,ZBSJ 170100Z 31002MPS 1300 R33/1400N BR NSC 05/01 Q1025 BECMG TL0230 1600
ZBSJ,2016-11-17 02:00,ZBSJ 170200Z 34002MPS 1300 R33/1300N BR NSC 06/02 Q1025 BECMG TL0330 1600
ZBSJ,2016-11-17 03:00,ZBSJ 170300Z 35002MPS 1700 R33/1400N HZ SCT010 07/02 Q1025 NOSIG
ZBSJ,2016-11-17 04:00,ZBSJ 170400Z 03003MPS 360V060 1700 HZ SCT010 08/03 Q1023 NOSIG
ZBSJ,2016-11-17 05:00,ZBSJ 170500Z 05002MPS 1400 R33/1300N HZ SCT010 08/05 Q1022 NOSIG
ZBSJ,2016-11-17 06:00,ZBSJ 170600Z 06002MPS 1200 R33/1200N BR NSC 08/05 Q1021 NOSIG
ZBSJ,2016-11-17 07:00,ZBSJ 170700Z 10002MPS 1200 R33/1400N BR NSC 08/06 Q1021 NOSIG
ZBSJ,2016-11-17 08:00,ZBSJ 170800Z 10001MPS 1200 R15/1700U BR NSC 08/06 Q1021 NOSIG
ZBSJ,2016-11-17 09:00,ZBSJ 170900Z 09001MPS 1300 R15/1900U BR NSC 07/06 Q1021 BECMG TL1030 1500
ZBSJ,2016-11-17 10:00,ZBSJ 171000Z 10001MPS 1500 BR NSC 07/06 Q1021 NOSIG
ZBSJ,2016-11-17 11:00,ZBSJ 171100Z 07001MPS 1400 R15/1700N BR NSC 07/06 Q1020 NOSIG
ZBSJ,2016-11-17 12:00,ZBSJ 171200Z 05001MPS 1200 R15/1500D BR NSC 07/07 Q1021 NOSIG
ZBSJ,2016-11-17 13:00,ZBSJ 171300Z 04001MPS 1000 R15/1300N BR NSC 07/07 Q1020 NOSIG
ZBSJ,2016-11-17 14:00,ZBSJ 171400Z 20001MPS 1000 R15/1500N BR NSC 07/07 Q1020 NOSIG
ZBSJ,2016-11-17 15:00,ZBSJ 171500Z 25001MPS 1200 R15/1600U BR NSC 07/07 Q1020 NOSIG
ZBSJ,2016-11-17 16:00,ZBSJ 171600Z 26001MPS 1600 BR NSC 07/06 Q1019 NOSIG
ZBSJ,2016-11-17 17:00,ZBSJ 171700Z 31001MPS 1800 BR NSC 07/05 Q1018 NOSIG
ZBSJ,2016-11-17 18:00,ZBSJ 171800Z 28002MPS 1800 BR NSC 07/05 Q1018 NOSIG
ZBSJ,2016-11-17 19:00,ZBSJ 171900Z 20001MPS 2000 BR NSC 07/05 Q1018 NOSIG
ZBSJ,2016-11-17 20:00,ZBSJ 172000Z 21001MPS 1800 BR NSC 06/05 Q1017 NOSIG
ZBSJ,2016-11-17 21:00,ZBSJ 172100Z 15001MPS 1800 BR NSC 06/05 Q1016 NOSIG
ZBSJ,2016-11-17 22:00,ZBSJ 172200Z 30001MPS 1800 BR NSC 07/05 Q1016 NOSIG
ZBSJ,2016-11-17 23:00,ZBSJ 172300Z 35001MPS 1500 BR NSC 06/05 Q1015 NOSIG
ZBSJ,2016-11-18 00:00,ZBSJ 180000Z 03001MPS 1100 R15/1400D BR NSC 06/05 Q1015 NOSIG
ZBSJ,2016-11-18 01:00,ZBSJ 180100Z 03001MPS 1000 R15/1400D BR NSC 07/05 Q1015 NOSIG
ZBSJ,2016-11-18 02:00,ZBSJ 180200Z 00000MPS 1000 R15/1400D BR NSC 07/05 Q1015 NOSIG
ZBSJ,2016-11-18 03:00,ZBSJ 180300Z 08001MPS 1000 R15/1300N BR NSC 07/05 Q1014 NOSIG
ZBSJ,2016-11-18 04:00,ZBSJ 180400Z 08001MPS 1000 R15/1300N BR NSC 07/05 Q1013 NOSIG
ZBSJ,2016-11-18 05:00,ZBSJ 180500Z 07002MPS 0800 R15/1200N FG NSC 07/05 Q1012 BECMG TL0600 0700 FG
ZBSJ,2016-11-18 06:00,ZBSJ 180600Z 06002MPS 0800 R15/1200U FG NSC 07/05 Q1011 NOSIG
ZBSJ,2016-11-18 07:00,ZBSJ 180700Z 05002MPS 0700 R15/1300N FG OVC046 07/05 Q1011 BECMG TL0830 0800
ZBSJ,2016-11-18 08:00,ZBSJ 180800Z 04001MPS 0800 R15/1500N FG OVC046 07/06 Q1011 NOSIG
ZBSJ,2016-11-18 09:00,ZBSJ 180900Z 05002MPS 1000 R15/1900U BR OVC046 07/06 Q1011 BECMG TL1030 1600
ZBSJ,2016-11-18 10:00,ZBSJ 181000Z 03001MPS 1200 R15/P2000N BR OVC046 07/06 Q1012 NOSIG
ZBSJ,2016-11-18 11:00,ZBSJ 181100Z 02001MPS 0800 R15/1400N FG OVC046 07/06 Q1012 NOSIG
ZBSJ,2016-11-18 12:00,ZBSJ 181200Z 36002MPS 0500 R15/0900N -RA FG OVC046 07/06 Q1012 NOSIG
ZBSJ,2016-11-18 13:00,ZBSJ 181300Z 35002MPS 0500 R15/0800U -RA FG OVC046 07/07 Q1013 NOSIG
ZBSJ,2016-11-18 14:00,ZBSJ 181400Z 35001MPS 0500 R15/0750N -RA FG OVC046 07/07 Q1013 NOSIG
ZBSJ,2016-11-18 15:00,ZBSJ 181500Z 33001MPS 0500 R15/1000U FG OVC046 07/07 Q1013 NOSIG
ZBSJ,2016-11-18 16:00,ZBSJ 181600Z 36001MPS 0500 R15/0900N FG OVC046 07/07 Q1013 NOSIG
ZBSJ,2016-11-18 17:00,ZBSJ 181700Z 06001MPS 0700 R15/1300N FG OVC046 07/07 Q1013 NOSIG
ZBSJ,2016-11-18 18:00,ZBSJ 181800Z 20001MPS 0700 R15/1300N FG OVC046 07/07 Q1013 NOSIG
ZBSJ,2016-11-18 19:00,ZBSJ 181900Z 31001MPS 0600 R15/1300N FG OVC046 07/07 Q1014 NOSIG
ZBSJ,2016-11-18 20:00,ZBSJ 182000Z 36001MPS 0600 R15/1500N FG OVC046 06/06 Q1014 NOSIG
ZBSJ,2016-11-18 21:00,ZBSJ 182100Z 34001MPS 0800 R15/1600N FG OVC046 05/05 Q1014 NOSIG
ZBSJ,2016-11-18 22:00,ZBSJ 182200Z 00000MPS 0700 R15/0900V1500U FG BKN040 05/05 Q1015 NOSIG
ZBSJ,2016-11-18 23:00,ZBSJ 182300Z 36001MPS 0700 R15/1500D FG BKN040 04/04 Q1016 BECMG TL0030 1000 BR
ZBSJ,2016-11-19 00:00,ZBSJ 190000Z 03001MPS 0700 R15/0800U FG NSC 04/04 Q1017 NOSIG
ZBSJ,2016-11-19 01:00,ZBSJ 190100Z 00000MPS 0700 R15/0900D FG NSC 06/05 Q1018 NOSIG
ZBSJ,2016-11-19 02:00,ZBSJ 190200Z 28002MPS 0800 R15/0900N FG NSC 08/05 Q1019 NOSIG
ZBSJ,2016-11-19 03:00,ZBSJ 190300Z 26002MPS 0800 R15/1100N FG NSC 08/06 Q1020 NOSIG
ZBSJ,2016-11-19 04:00,ZBSJ 190400Z 21001MPS 0900 R15/1200N HZ NSC 10/06 Q1019 NOSIG
ZBSJ,2016-11-19 05:00,ZBSJ 190500Z 22001MPS 1000 R15/1200N HZ NSC 12/06 Q1018 NOSIG
ZBSJ,2016-11-19 06:00,ZBSJ 190600Z 16003MPS 120V190 1300 R33/1300N HZ NSC 13/06 Q1018 BECMG TL0730 1500
ZBSJ,2016-11-19 07:00,ZBSJ 190700Z 18003MPS 1500 HZ NSC 13/06 Q1018 NOSIG
ZBSJ,2016-11-19 08:00,ZBSJ 190800Z 14002MPS 1500 HZ NSC 12/07 Q1018 NOSIG
ZBSJ,2016-11-19 09:00,ZBSJ 190900Z 12001MPS 1500 HZ NSC 10/07 Q1019 BECMG TL1030 1200 BR
ZBSJ,2016-11-19 10:00,ZBSJ 191000Z 13002MPS 1800 HZ NSC 10/06 Q1020 NOSIG
ZBSJ,2016-11-19 11:00,ZBSJ 191100Z 12002MPS 1800 HZ NSC 08/05 Q1020 NOSIG
ZBSJ,2016-11-19 12:00,ZBSJ 191200Z 13001MPS 1600 BR NSC 07/05 Q1021 BECMG TL1330 1400 BR
ZBSJ,2016-11-19 13:00,ZBSJ 191300Z 09002MPS 1300 R15/1500D BR NSC 05/04 Q1022 NOSIG
ZBSJ,2016-11-19 14:00,ZBSJ 191400Z 05001MPS 0900 R15/1600N FG NSC 05/05 Q1022 BECMG TL1530 0700 FG
ZBSJ,2016-11-19 15:00,ZBSJ 191500Z 07001MPS 0600 R15/1000N FG NSC 03/03 Q1023 NOSIG
ZBSJ,2016-11-19 16:00,ZBSJ 191600Z 06002MPS 0500 R15/1300N FG NSC 04/04 Q1023 NOSIG
ZBSJ,2016-11-19 17:00,ZBSJ 191700Z 07003MPS 1000 R15/1900U BR NSC 06/04 Q1023 NOSIG
ZBSJ,2016-11-19 18:00,ZBSJ 191800Z 05002MPS 1400 R15/P2000D BR NSC 05/04 Q1023 NOSIG
ZBSJ,2016-11-19 19:00,ZBSJ 191900Z 00000MPS 1000 R15/1400N BR NSC 04/04 Q1023 NOSIG
ZBSJ,2016-11-19 20:00,ZBSJ 192000Z 02001MPS 0800 R15/1000D FG NSC 05/05 Q1023 NOSIG
ZBSJ,2016-11-19 21:00,ZBSJ 192100Z 31001MPS 0800 R15/1000U FG NSC 06/06 Q1024 NOSIG
ZBSJ,2016-11-19 22:00,ZBSJ 192200Z 36001MPS 0800 R15/1300N FG NSC 06/06 Q1024 NOSIG
ZBSJ,2016-11-19 23:00,ZBSJ 192300Z 07001MPS 1400 R15/P2000N BR BKN020 06/06 Q1024 BECMG TL0030 1600
ZBSJ,2016-11-20 00:00,ZBSJ 200000Z 10002MPS 1800 BR BKN016 06/05 Q1025 NOSIG
ZBSJ,2016-11-20 01:00,ZBSJ 200100Z 13003MPS 2500 BR BKN016 06/05 Q1025 BECMG TL0230 3500
ZBSJ,2016-11-20 02:00,ZBSJ 200200Z 13003MPS 5000 BR OVC016 07/05 Q1024 NOSIG
ZBSJ,2016-11-20 03:00,ZBSJ 200300Z 14004MPS 6000 OVC033 07/04 Q1023 NOSIG
ZBSJ,2016-11-20 04:00,ZBSJ 200400Z 14003MPS 4500 BR OVC033 08/04 Q1022 NOSIG
ZBSJ,2016-11-20 05:00,ZBSJ 200500Z 19001MPS 3500 BR OVC033 08/04 Q1021 NOSIG
ZBSJ,2016-11-20 06:00,ZBSJ 200600Z 12001MPS 3000 BR OVC033 08/04 Q1020 NOSIG
ZBSJ,2016-11-20 07:00,ZBSJ 200700Z 07002MPS 030V090 3500 BR OVC033 08/04 Q1020 NOSIG
ZBSJ,2016-11-20 08:00,ZBSJ 200800Z 05003MPS 4000 BR OVC033 08/04 Q1019 NOSIG
ZBSJ,2016-11-20 09:00,ZBSJ 200900Z 06002MPS 4000 BR OVC033 08/04 Q1020 NOSIG
ZBSJ,2016-11-20 10:00,ZBSJ 201000Z 04002MPS 5000 BR OVC033 08/04 Q1020 NOSIG
ZBSJ,2016-11-20 11:00,ZBSJ 201100Z 03003MPS 5000 BR OVC033 08/04 Q1021 NOSIG
ZBSJ,2016-11-20 12:00,ZBSJ 201200Z 04006MPS 5000 -SN BR OVC033 06/03 Q1022 NOSIG
ZBSJ,2016-11-20 13:00,ZBSJ 201300Z 04005MPS 2500 -RASN BR OVC033 04/03 Q1023 NOSIG
ZBSJ,2016-11-20 14:00,ZBSJ 201400Z 04006MPS 2200 -RASN BR OVC033 03/03 Q1022 NOSIG
ZBSJ,2016-11-20 15:00,ZBSJ 201500Z 04004G09MPS 2200 -RASN BR OVC033 03/03 Q1023 NOSIG
ZBSJ,2016-11-20 16:00,ZBSJ 201600Z 04004MPS 3500 -RASN BR OVC033 03/02 Q1023 NOSIG
ZBSJ,2016-11-20 17:00,ZBSJ 201700Z 05005MPS 5000 -RASN BR OVC033 03/02 Q1023 NOSIG
ZBSJ,2016-11-20 18:00,ZBSJ 201800Z 03005MPS 7000 -RASN OVC033 03/02 Q1023 NOSIG
ZBSJ,2016-11-20 19:00,ZBSJ 201900Z 04004MPS 010V070 9999 -RASN OVC033 03/01 Q1023 NOSIG
ZBSJ,2016-11-20 20:00,ZBSJ 202000Z 05004MPS 010V090 9999 -RASN OVC033 02/01 Q1022 NOSIG
ZBSJ,2016-11-20 21:00,ZBSJ 202100Z 04004MPS 360V060 9999 -RASN OVC033 02/02 Q1023 NOSIG
ZBSJ,2016-11-20 22:00,ZBSJ 202200Z 05006MPS 9999 -RASN OVC033 02/01 Q1024 NOSIG
ZBSJ,2016-11-20 23:00,ZBSJ 202300Z 05007MPS 9999 OVC033 02/00 Q1025 NOSIG
ZBSJ,2016-11-21 00:00,ZBSJ 210000Z 06006MPS 9999 OVC033 02/00 Q1026 NOSIG
ZBSJ,2016-11-21 02:00,ZBSJ 210200Z 05005MPS 7000 -RA BKN013 OVC033 01/M00 Q1028 NOSIG
ZBSJ,2016-11-21 03:00,ZBSJ 210300Z 07004MPS 4000 -RASN BR BKN013 OVC033 01/M00 Q1029 NOSIG
ZBSJ,2016-11-21 04:00,ZBSJ 210400Z 07006MPS 3500 -SN BR BKN013 OVC033 00/M01 Q1029 NOSIG
ZBSJ,2016-11-21 05:00,ZBSJ 210500Z 09004MPS 060V120 4500 -SN BR BKN013 OVC033 M01/M02 Q1029 NOSIG
ZBSJ,2016-11-21 06:00,ZBSJ 210600Z 08004MPS 4000 -SN BR BKN013 OVC033 M01/M02 Q1030 NOSIG
ZBSJ,2016-11-21 07:00,ZBSJ 210700Z 09004MPS 4000 -SN BR SCT010 OVC033 M01/M02 Q1030 NOSIG
ZBSJ,2016-11-21 08:00,ZBSJ 210800Z 08003MPS 7000 -SN SCT010 OVC033 M01/M03 Q1031 NOSIG
ZBSJ,2016-11-21 09:00,ZBSJ 210900Z 08003MPS 5000 -SN BR SCT010 OVC033 M01/M03 Q1032 NOSIG
ZBSJ,2016-11-21 10:00,ZBSJ 211000Z 08002MPS 060V120 8000 SCT010 OVC040 M01/M03 Q1033 NOSIG
ZBSJ,2016-11-21 11:00,ZBSJ 211100Z 10002MPS 9999 OVC040 M01/M03 Q1034 NOSIG
ZBSJ,2016-11-21 12:00,ZBSJ 211200Z 00000MPS 9999 OVC046 M01/M03 Q1035 NOSIG
ZBSJ,2016-11-21 13:00,ZBSJ 211300Z 32001MPS 9999 OVC046 M01/M03 Q1035 NOSIG
ZBSJ,2016-11-21 14:00,ZBSJ 211400Z 31002MPS 9999 OVC046 M01/M04 Q1037 NOSIG
ZBSJ,2016-11-21 15:00,ZBSJ 211500Z 33001MPS 9999 OVC046 M01/M04 Q1037 NOSIG
ZBSJ,2016-11-21 16:00,ZBSJ 211600Z 07001MPS CAVOK M01/M05 Q1037 NOSIG
ZBSJ,2016-11-21 17:00,ZBSJ 211700Z 08001MPS CAVOK M02/M06 Q1037 NOSIG
ZBSJ,2016-11-21 18:00,ZBSJ 211800Z 11001MPS CAVOK M03/M07 Q1037 NOSIG
ZBSJ,2016-11-21 19:00,ZBSJ 211900Z 07001MPS CAVOK M03/M07 Q1038 NOSIG
ZBSJ,2016-11-21 20:00,ZBSJ 212000Z 15001MPS CAVOK M03/M09 Q1038 NOSIG
ZBSJ,2016-11-21 21:00,ZBSJ 212100Z 08001MPS CAVOK M03/M07 Q1038 NOSIG
ZBSJ,2016-11-21 22:00,ZBSJ 212200Z 10002MPS CAVOK M04/M09 Q1038 NOSIG
ZBSJ,2016-11-21 23:00,ZBSJ 212300Z 07001MPS CAVOK M05/M09 Q1039 NOSIG
ZBSJ,2016-11-22 00:00,ZBSJ 220000Z 14002MPS 8000 NSC M04/M10 Q1039 NOSIG
ZBSJ,2016-11-22 01:00,ZBSJ 220100Z 12002MPS CAVOK M04/M11 Q1040 NOSIG
ZBSJ,2016-11-22 02:00,ZBSJ 220200Z 16003MPS CAVOK M03/M10 Q1040 NOSIG
ZBSJ,2016-11-22 03:00,ZBSJ 220300Z 17003MPS CAVOK M02/M10 Q1041 NOSIG
ZBSJ,2016-11-22 04:00,ZBSJ 220400Z 12001MPS CAVOK M01/M11 Q1040 NOSIG
ZBSJ,2016-11-22 05:00,ZBSJ 220500Z 15002MPS 070V210 CAVOK M01/M11 Q1038 NOSIG
ZBSJ,2016-11-22 06:00,ZBSJ 220600Z 17002MPS 120V210 CAVOK M01/M11 Q1037 NOSIG
ZBSJ,2016-11-22 07:00,ZBSJ 220700Z 17003MPS 140V200 CAVOK M00/M11 Q1036 NOSIG
ZBSJ,2016-11-22 08:00,ZBSJ 220800Z 17004MPS CAVOK M01/M09 Q1036 NOSIG
ZBSJ,2016-11-22 09:00,ZBSJ 220900Z 17004MPS CAVOK M02/M09 Q1037 NOSIG
ZBSJ,2016-11-22 10:00,ZBSJ 221000Z 16003MPS CAVOK M04/M09 Q1038 NOSIG
ZBSJ,2016-11-22 11:00,ZBSJ 221100Z 15003MPS CAVOK M05/M09 Q1038 NOSIG
ZBSJ,2016-11-22 12:00,ZBSJ 221200Z 16002MPS 7000 NSC M04/M09 Q1038 NOSIG
ZBSJ,2016-11-22 13:00,ZBSJ 221300Z 09001MPS 5000 BR NSC M06/M08 Q1038 NOSIG
ZBSJ,2016-11-22 14:00,ZBSJ 221400Z 06002MPS 2500 BR NSC M05/M08 Q1039 NOSIG
ZBSJ,2016-11-22 15:00,ZBSJ 221500Z 07001MPS 2000 BR NSC M07/M09 Q1039 NOSIG
ZBSJ,2016-11-22 16:00,ZBSJ 221600Z 11001MPS 1600 BR NSC M08/M09 Q1038 NOSIG
ZBSJ,2016-11-22 17:00,ZBSJ 221700Z 16001MPS 1600 BR NSC M06/M08 Q1038 NOSIG
ZBSJ,2016-11-22 18:00,ZBSJ 221800Z 15002MPS 1600 BR NSC M07/M10 Q1037 NOSIG
ZBSJ,2016-11-22 19:00,ZBSJ 221900Z 22002MPS 2000 BR NSC M07/M09 Q1037 NOSIG
ZBSJ,2016-11-22 20:00,ZBSJ 222000Z 18002MPS 2000 BR NSC M06/M09 Q1037 NOSIG
ZBSJ,2016-11-22 21:00,ZBSJ 222100Z 20001MPS 2000 BR NSC M06/M08 Q1036 NOSIG
ZBSJ,2016-11-22 22:00,ZBSJ 222200Z 22001MPS 2000 BR NSC M06/M08 Q1036 NOSIG
ZBSJ,2016-11-22 23:00,ZBSJ 222300Z 00000MPS 2500 BR NSC M06/M08 Q1037 NOSIG
ZBSJ,2016-11-23 00:00,ZBSJ 230000Z 00000MPS 2000 BR NSC M05/M07 Q1037 BECMG TL0130 3500
ZBSJ,2016-11-23 01:00,ZBSJ 230100Z 12001MPS 1300 R15/1400N BR NSC M03/M06 Q1037 BECMG TL0230 1800
ZBSJ,2016-11-23 02:00,ZBSJ 230200Z 22003MPS 1700 FU NSC M01/M05 Q1037 BECMG TL0330 3500
ZBSJ,2016-11-23 03:00,ZBSJ 230300Z 26002MPS 220V310 2500 FU NSC 01/M05 Q1037 BECMG TL0430 3500
ZBSJ,2016-11-23 04:00,ZBSJ 230400Z 26002MPS 220V300 3000 FU NSC 02/M07 Q1036 NOSIG
ZBSJ,2016-11-23 05:00,ZBSJ 230500Z 25003MPS 190V280 6000 NSC 03/M09 Q1034 NOSIG
ZBSJ,2016-11-23 06:00,ZBSJ 230600Z 22003MPS 190V250 CAVOK 04/M14 Q1033 NOSIG
ZBSJ,2016-11-23 07:00,ZBSJ 230700Z 24003MPS 200V290 CAVOK 05/M13 Q1032 NOSIG
ZBSJ,2016-11-23 08:00,ZBSJ 230800Z 27003MPS CAVOK 04/M14 Q1032 NOSIG
ZBSJ,2016-11-23 09:00,ZBSJ 230900Z 20002MPS 7000 NSC 02/M12 Q1032 NOSIG
ZBSJ,2016-11-23 10:00,ZBSJ 231000Z 20004MPS 7000 NSC 01/M09 Q1033 NOSIG
ZBSJ,2016-11-23 11:00,ZBSJ 231100Z 21003MPS 6000 NSC M00/M08 Q1033 NOSIG
ZBSJ,2016-11-23 12:00,ZBSJ 231200Z 16001MPS 5000 HZ NSC M01/M07 Q1033 NOSIG
ZBSJ,2016-11-23 13:00,ZBSJ 231300Z 18002MPS 5000 HZ NSC M03/M08 Q1033 NOSIG
ZBSJ,2016-11-23 14:00,ZBSJ 231400Z 21003MPS 5000 HZ NSC M02/M07 Q1033 NOSIG
ZBSJ,2016-11-23 15:00,ZBSJ 231500Z 27002MPS 5000 HZ NSC M02/M07 Q1033 NOSIG
ZBSJ,2016-11-23 16:00,ZBSJ 231600Z 00000MPS 4000 HZ NSC M04/M07 Q1033 NOSIG
ZBSJ,2016-11-23 17:00,ZBSJ 231700Z 32002MPS 3500 BR NSC M06/M09 Q1033 NOSIG
ZBSJ,2016-11-23 18:00,ZBSJ 231800Z 31001MPS 3000 BR NSC M06/M08 Q1032 NOSIG
ZBSJ,2016-11-23 19:00,ZBSJ 231900Z 21002MPS 2700 BR NSC M06/M08 Q1032 NOSIG
ZBSJ,2016-11-23 20:00,ZBSJ 232000Z 27002MPS 2200 BR NSC M06/M08 Q1031 NOSIG
ZBSJ,2016-11-23 21:00,ZBSJ 232100Z 29001MPS 2700 BR NSC M05/M07 Q1031 NOSIG
ZBSJ,2016-11-23 22:00,ZBSJ 232200Z 27001MPS 2700 BR NSC M06/M08 Q1031 NOSIG
ZBSJ,2016-11-23 23:00,ZBSJ 232300Z 29002MPS 2000 BR NSC M06/M09 Q1031 NOSIG
ZBSJ,2016-11-24 00:00,ZBSJ 240000Z 29001MPS 1600 BR NSC M05/M07 Q1031 NOSIG
ZBSJ,2016-11-24 01:00,ZBSJ 240100Z 31002MPS 2300 BR NSC M01/M05 Q1031 BECMG TL0230 3500
ZBSJ,2016-11-24 02:00,ZBSJ 240200Z 29002MPS 4000 HZ NSC 02/M07 Q1031 NOSIG
ZBSJ,2016-11-24 03:00,ZBSJ 240300Z 30001MPS 7000 NSC 04/M10 Q1030 NOSIG
ZBSJ,2016-11-24 04:00,ZBSJ 240400Z 27002MPS CAVOK 05/M13 Q1029 NOSIG
ZBSJ,2016-11-24 05:00,ZBSJ 240500Z VRB02MPS CAVOK 06/M14 Q1027 NOSIG
ZBSJ,2016-11-24 06:00,ZBSJ 240600Z 17003MPS 6000 NSC 06/M10 Q1026 NOSIG
ZBSJ,2016-11-24 07:00,ZBSJ 240700Z 16005MPS 8000 NSC 06/M11 Q1025 NOSIG
ZBSJ,2016-11-24 08:00,ZBSJ 240800Z 16004MPS 8000 NSC 05/M10 Q1025 NOSIG
ZBSJ,2016-11-24 09:00,ZBSJ 240900Z 15003MPS 5000 HZ NSC 02/M10 Q1025 NOSIG
ZBSJ,2016-11-24 10:00,ZBSJ 241000Z 17003MPS 4500 HZ NSC M01/M07 Q1026 NOSIG
ZBSJ,2016-11-24 11:00,ZBSJ 241100Z 15002MPS 4000 HZ NSC M00/M06 Q1026 NOSIG
ZBSJ,2016-11-24 12:00,ZBSJ 241200Z 10001MPS 3500 HZ NSC M02/M06 Q1026 NOSIG
ZBSJ,2016-11-24 13:00,ZBSJ 241300Z 12002MPS 3000 BR NSC M03/M05 Q1026 BECMG TL1430 2000 BR
ZBSJ,2016-11-24 14:00,ZBSJ 241400Z 13001MPS 2200 BR NSC M02/M04 Q1026 NOSIG
ZBSJ,2016-11-24 15:00,ZBSJ 241500Z 13001MPS 2000 BR NSC M03/M04 Q1026 NOSIG
ZBSJ,2016-11-24 16:00,ZBSJ 241600Z 16001MPS 2000 BR NSC M04/M05 Q1026 NOSIG
ZBSJ,2016-11-24 17:00,ZBSJ 241700Z 26001MPS 2000 BR NSC M03/M05 Q1025 NOSIG
ZBSJ,2016-11-24 18:00,ZBSJ 241800Z 00000MPS 1800 BR NSC M04/M05 Q1025 NOSIG
ZBSJ,2016-11-24 19:00,ZBSJ 241900Z 23002MPS 1500 BR NSC M04/M05 Q1025 NOSIG
ZBSJ,2016-11-24 20:00,ZBSJ 242000Z 29001MPS 1500 BR NSC M05/M06 Q1025 NOSIG
ZBSJ,2016-11-24 21:00,ZBSJ 242100Z 21001MPS 1500 BR NSC M05/M06 Q1025 NOSIG
ZBSJ,2016-11-24 22:00,ZBSJ 242200Z 18001MPS 1400 R33/1600N BR NSC M05/M06 Q1025 NOSIG
ZBSJ,2016-11-24 23:00,ZBSJ 242300Z 24001MPS 1400 R15/P2000D BR NSC M05/M05 Q1025 NOSIG
ZBSJ,2016-11-25 00:00,ZBSJ 250000Z 00000MPS 1000 R15/1400N BR NSC M04/M05 Q1025 BECMG TL0130 2000
ZBSJ,2016-11-25 01:00,ZBSJ 250100Z 12001MPS 1000 R15/0900N FU NSC M02/M04 Q1026 BECMG TL0230 1500
ZBSJ,2016-11-25 02:00,ZBSJ 250200Z 25001MPS 1000 R15/0800N FU NSC 00/M05 Q1026 NOSIG
ZBSJ,2016-11-25 03:00,ZBSJ 250300Z 19001MPS 1500 FU NSC 02/M06 Q1026 BECMG TL0430 3500
ZBSJ,2016-11-25 04:00,ZBSJ 250400Z 20001MPS 2000 FU NSC 04/M06 Q1025 BECMG TL0530 3500
ZBSJ,2016-11-25 05:00,ZBSJ 250500Z 17003MPS 2000 FU NSC 05/M06 Q1024 NOSIG
ZBSJ,2016-11-25 06:00,ZBSJ 250600Z 19002MPS 150V210 2200 FU NSC 06/M05 Q1023 NOSIG
ZBSJ,2016-11-25 07:00,ZBSJ 250700Z 16003MPS 120V190 2500 FU NSC 06/M05 Q1023 NOSIG
ZBSJ,2016-11-25 08:00,ZBSJ 250800Z 15003MPS 2500 FU NSC 06/M03 Q1023 BECMG TL0930 1400 FU
ZBSJ,2016-11-25 09:00,ZBSJ 250900Z 13001MPS 1600 FU NSC 04/M02 Q1024 BECMG TL1030 1400 FU
ZBSJ,2016-11-25 10:00,ZBSJ 251000Z 18003MPS 1800 FU NSC 03/M01 Q1024 BECMG TL1130 1400 FU
ZBSJ,2016-11-25 11:00,ZBSJ 251100Z 17001MPS 1800 BR NSC 02/M01 Q1024 BECMG TL1230 1400 FU
ZBSJ,2016-11-25 12:00,ZBSJ 251200Z 07001MPS 1800 BR NSC 01/M01 Q1024 BECMG TL1330 1400 FU
ZBSJ,2016-11-25 13:00,ZBSJ 251300Z 14001MPS 1800 BR NSC 01/M01 Q1023 BECMG TL1430 1400 FU
ZBSJ,2016-11-25 14:00,ZBSJ 251400Z 05001MPS 1700 BR NSC 01/M01 Q1023 BECMG TL1530 1400 FU
ZBSJ,2016-11-25 15:00,ZBSJ 251500Z 09001MPS 1700 BR NSC 01/M01 Q1023 NOSIG
ZBSJ,2016-11-25 16:00,ZBSJ 251600Z 14001MPS 1400 R15/1600D BR NSC 00/M01 Q1023 NOSIG
ZBSJ,2016-11-25 17:00,ZBSJ 251700Z 00000MPS 1300 R15/1800D BR NSC M00/M01 Q1022 NOSIG
ZBSJ,2016-11-25 18:00,ZBSJ 251800Z 32001MPS 1300 R15/1400U BR NSC M00/M02 Q1022 NOSIG
ZBSJ,2016-11-25 19:00,ZBSJ 251900Z 25001MPS 1100 R15/1400U BR NSC M01/M02 Q1022 NOSIG
ZBSJ,2016-11-25 20:00,ZBSJ 252000Z 28002MPS 1300 R15/1400N BR NSC M01/M02 Q1021 NOSIG
ZBSJ,2016-11-25 21:00,ZBSJ 252100Z 29001MPS 1400 R15/1500D BR NSC M02/M03 Q1021 NOSIG
ZBSJ,2016-11-25 22:00,ZBSJ 252200Z 11001MPS 1200 R15/1600D BR NSC M03/M04 Q1021 NOSIG
ZBSJ,2016-11-25 23:00,ZBSJ 252300Z 31001MPS 1200 R15/1800D BR NSC M04/M05 Q1021 BECMG TL0030 1500
ZBSJ,2016-11-26 00:00,ZBSJ 260000Z 30002MPS 2000 BR NSC 01/M05 Q1022 BECMG TL0130 3500
ZBSJ,2016-11-26 01:00,ZBSJ 260100Z 29003MPS 260V320 3000 BR NSC 06/M06 Q1022 NOSIG
ZBSJ,2016-11-26 02:00,ZBSJ 260200Z 32003MPS 5000 HZ NSC 09/M08 Q1022 NOSIG
ZBSJ,2016-11-26 03:00,ZBSJ 260300Z 31003MPS 6000 NSC 10/M08 Q1022 NOSIG
ZBSJ,2016-11-26 04:00,ZBSJ 260400Z 29006MPS CAVOK 11/M11 Q1021 NOSIG
ZBSJ,2016-11-26 05:00,ZBSJ 260500Z 27006MPS CAVOK 11/M11 Q1020 NOSIG
ZBSJ,2016-11-26 06:00,ZBSJ 260600Z 30007MPS CAVOK 12/M11 Q1019 NOSIG
ZBSJ,2016-11-26 07:00,ZBSJ 260700Z 27006MPS CAVOK 12/M10 Q1018 NOSIG
ZBSJ,2016-11-26 08:00,ZBSJ 260800Z 25004MPS CAVOK 11/M09 Q1018 NOSIG
ZBSJ,2016-11-26 09:00,ZBSJ 260900Z 23002MPS 200V270 8000 NSC 09/M08 Q1019 NOSIG
ZBSJ,2016-11-26 10:00,ZBSJ 261000Z 21002MPS 8000 NSC 07/M06 Q1019 NOSIG
ZBSJ,2016-11-26 11:00,ZBSJ 261100Z 20002MPS 8000 NSC 06/M07 Q1019 NOSIG
ZBSJ,2016-11-26 12:00,ZBSJ 261200Z 19005MPS 7000 NSC 06/M07 Q1019 NOSIG
ZBSJ,2016-11-26 13:00,ZBSJ 261300Z 19004MPS 7000 NSC 06/M07 Q1019 NOSIG
ZBSJ,2016-11-26 14:00,ZBSJ 261400Z 03001MPS 5000 FU NSC 04/M06 Q1020 NOSIG
ZBSJ,2016-11-26 15:00,ZBSJ 261500Z 10001MPS 4000 FU NSC 01/M06 Q1020 NOSIG
ZBSJ,2016-11-26 16:00,ZBSJ 261600Z 14001MPS 3500 FU NSC 01/M06 Q1020 NOSIG
ZBSJ,2016-11-26 17:00,ZBSJ 261700Z 25002MPS 3000 FU NSC 01/M05 Q1020 NOSIG
ZBSJ,2016-11-26 18:00,ZBSJ 261800Z 32002MPS 2400 FU NSC M00/M05 Q1021 NOSIG
ZBSJ,2016-11-26 19:00,ZBSJ 261900Z 34002MPS 2700 FU NSC M01/M06 Q1022 NOSIG
ZBSJ,2016-11-26 20:00,ZBSJ 262000Z 32004MPS 6000 NSC M01/M06 Q1022 NOSIG
ZBSJ,2016-11-26 21:00,ZBSJ 262100Z 29002MPS 6000 NSC M01/M07 Q1022 NOSIG
ZBSJ,2016-11-26 22:00,ZBSJ 262200Z 29003MPS 7000 NSC M00/M06 Q1023 NOSIG
ZBSJ,2016-11-26 23:00,ZBSJ 262300Z 31003MPS 7000 NSC M02/M05 Q1024 NOSIG
ZBSJ,2016-11-27 00:00,ZBSJ 270000Z 29004MPS 5000 FU NSC 02/M05 Q1026 NOSIG
ZBSJ,2016-11-27 01:00,ZBSJ 270100Z 30004MPS 6000 NSC 05/M06 Q1026 NOSIG
ZBSJ,2016-11-27 02:00,ZBSJ 270200Z VRB02MPS 7000 NSC 07/M06 Q1028 NOSIG
ZBSJ,2016-11-27 03:00,ZBSJ 270300Z 26003MPS 230V290 CAVOK 10/M06 Q1028 NOSIG
ZBSJ,2016-11-27 04:00,ZBSJ 270400Z 35002MPS CAVOK 12/M09 Q1027 NOSIG
ZBSJ,2016-11-27 05:00,ZBSJ 270500Z 36004MPS 320V030 CAVOK 13/M12 Q1027 NOSIG
ZBSJ,2016-11-27 06:00,ZBSJ 270600Z 01003MPS 340V040 CAVOK 12/M12 Q1026 NOSIG
ZBSJ,2016-11-27 07:00,ZBSJ 270700Z 04002MPS 010V080 CAVOK 13/M10 Q1026 NOSIG
ZBSJ,2016-11-27 08:00,ZBSJ 270800Z 10004MPS 5000 HZ NSC 10/M05 Q1027 NOSIG
ZBSJ,2016-11-27 09:00,ZBSJ 270900Z 11003MPS 5000 HZ NSC 07/M05 Q1028 NOSIG
ZBSJ,2016-11-27 10:00,ZBSJ 271000Z 09002MPS 5000 HZ NSC 04/M05 Q1029 NOSIG
ZBSJ,2016-11-27 11:00,ZBSJ 271100Z 08003MPS 5000 HZ NSC 02/M05 Q1030 NOSIG
ZBSJ,2016-11-27 12:00,ZBSJ 271200Z 07001MPS 5000 HZ NSC 01/M07 Q1031 NOSIG
ZBSJ,2016-11-27 13:00,ZBSJ 271300Z 08002MPS 4000 HZ NSC 00/M07 Q1032 NOSIG
ZBSJ,2016-11-27 14:00,ZBSJ 271400Z 09001MPS 3500 HZ NSC M01/M07 Q1033 NOSIG
ZBSJ,2016-11-27 15:00,ZBSJ 271500Z 08001MPS 3500 HZ NSC M01/M08 Q1033 NOSIG
ZBSJ,2016-11-27 16:00,ZBSJ 271600Z 28001MPS 3500 HZ NSC M01/M08 Q1034 NOSIG
ZBSJ,2016-11-27 17:00,ZBSJ 271700Z 29001MPS 3500 HZ NSC M01/M07 Q1034 NOSIG
ZBSJ,2016-11-27 18:00,ZBSJ 271800Z 00000MPS 3000 HZ NSC M03/M07 Q1034 NOSIG
ZBSJ,2016-11-27 19:00,ZBSJ 271900Z 00000MPS 3000 BR NSC M04/M07 Q1033 NOSIG
ZBSJ,2016-11-27 20:00,ZBSJ 272000Z 00000MPS 3000 BR NSC M04/M07 Q1033 NOSIG
ZBSJ,2016-11-27 21:00,ZBSJ 272100Z 00000MPS 3000 BR NSC M05/M07 Q1033 NOSIG
ZBSJ,2016-11-27 22:00,ZBSJ 272200Z 22001MPS 3000 BR NSC M04/M07 Q1033 NOSIG
ZBSJ,2016-11-27 23:00,ZBSJ 272300Z 22002MPS 1800 BR NSC M05/M07 Q1033 NOSIG
ZBSJ,2016-11-28 00:00,ZBSJ 280000Z 27001MPS 1600 BR NSC M02/M06 Q1033 BECMG TL0130 3000
ZBSJ,2016-11-28 01:00,ZBSJ 280100Z 28002MPS 2000 HZ NSC 01/M05 Q1033 BECMG TL0230 3000
ZBSJ,2016-11-28 02:00,ZBSJ 280200Z 27003MPS 3000 HZ NSC 04/M04 Q1033 NOSIG
ZBSJ,2016-11-28 03:00,ZBSJ 280300Z 25002MPS 3000 HZ NSC 05/M04 Q1033 NOSIG
ZBSJ,2016-11-28 04:00,ZBSJ 280400Z 20002MPS 160V230 3500 HZ NSC 07/M06 Q1032 NOSIG
ZBSJ,2016-11-28 05:00,ZBSJ 280500Z 21005MPS 8000 NSC 09/M10 Q1030 NOSIG
ZBSJ,2016-11-28 06:00,ZBSJ 280600Z 17004MPS 6000 NSC 09/M08 Q1030 NOSIG
ZBSJ,2016-11-28 07:00,ZBSJ 280700Z 16004MPS 6000 NSC 09/M07 Q1029 NOSIG
ZBSJ,2016-11-28 08:00,ZBSJ 280800Z 16003MPS 4500 HZ NSC 07/M05 Q1029 NOSIG
ZBSJ,2016-11-28 09:00,ZBSJ 280900Z 16002MPS 2500 HZ NSC 04/M05 Q1030 NOSIG
ZBSJ,2016-11-28 10:00,ZBSJ 281000Z 11001MPS 2800 HZ NSC 01/M05 Q1030 BECMG TL1130 3000
ZBSJ,2016-11-28 11:00,ZBSJ 281100Z 09001MPS 3000 HZ NSC 01/M05 Q1031 BECMG TL1230 2500 HZ
ZBSJ,2016-11-28 12:00,ZBSJ 281200Z 04001MPS 2000 HZ NSC 00/M05 Q1031 NOSIG
ZBSJ,2016-11-28 13:00,ZBSJ 281300Z 03001MPS 1800 HZ NSC M00/M05 Q1032 NOSIG
ZBSJ,2016-11-28 14:00,ZBSJ 281400Z 02001MPS 1800 HZ NSC M01/M05 Q1032 NOSIG
ZBSJ,2016-11-28 15:00,ZBSJ 281500Z 33002MPS 1800 HZ NSC M01/M05 Q1033 NOSIG
ZBSJ,2016-11-28 16:00,ZBSJ 281600Z 34002MPS 1800 HZ NSC M00/M04 Q1033 NOSIG
ZBSJ,2016-11-28 17:00,ZBSJ 281700Z 32001MPS 1800 HZ NSC M01/M04 Q1033 NOSIG
ZBSJ,2016-11-28 18:00,ZBSJ 281800Z 32001MPS 2000 HZ NSC M01/M05 Q1033 NOSIG
ZBSJ,2016-11-28 19:00,ZBSJ 281900Z 34002MPS 2000 BR NSC M01/M04 Q1033 NOSIG
ZBSJ,2016-11-28 20:00,ZBSJ 282000Z 35001MPS 2000 BR NSC M01/M04 Q1033 NOSIG
ZBSJ,2016-11-28 21:00,ZBSJ 282100Z 31002MPS 2000 BR NSC M01/M04 Q1033 NOSIG
ZBSJ,2016-11-28 22:00,ZBSJ 282200Z 02002MPS 1800 BR NSC M00/M03 Q1033 NOSIG
ZBSJ,2016-11-28 23:00,ZBSJ 282300Z 03002MPS 1800 BR NSC M00/M04 Q1033 NOSIG
ZBSJ,2016-11-29 00:00,ZBSJ 290000Z 03001MPS 1400 R15/1700D HZ NSC 00/M05 Q1034 BECMG TL0130 2000
ZBSJ,2016-11-29 01:00,ZBSJ 290100Z 03002MPS 1300 R15/1400U HZ NSC 01/M04 Q1034 BECMG TL0230 2000
ZBSJ,2016-11-29 02:00,ZBSJ 290200Z 05002MPS 1500 R15/1400U HZ NSC 03/M05 Q1035 NOSIG
ZBSJ,2016-11-29 03:00,ZBSJ 290300Z 03002MPS 1700 HZ NSC 04/M04 Q1034 NOSIG
ZBSJ,2016-11-29 04:00,ZBSJ 290400Z 04002MPS 2200 HZ NSC 05/M05 Q1033 NOSIG
ZBSJ,2016-11-29 05:00,ZBSJ 290500Z 05002MPS 2500 HZ NSC 05/M05 Q1033 BECMG TL0630 3000
ZBSJ,2016-11-29 06:00,ZBSJ 290600Z 05002MPS 2500 HZ NSC 05/M05 Q1032 BECMG TL0730 3000
ZBSJ,2016-11-29 07:00,ZBSJ 290700Z 05001MPS 2300 HZ NSC 05/M04 Q1032 NOSIG
ZBSJ,2016-11-29 08:00,ZBSJ 290800Z 03001MPS 2200 HZ NSC 05/M03 Q1031 NOSIG
ZBSJ,2016-11-29 09:00,ZBSJ 290900Z 00000MPS 2400 HZ OVC046 05/M04 Q1031 NOSIG
ZBSJ,2016-11-29 10:00,ZBSJ 291000Z 24001MPS 2400 HZ OVC046 03/M02 Q1031 NOSIG
ZBSJ,2016-11-29 11:00,ZBSJ 291100Z 25001MPS 2400 HZ OVC046 03/M01 Q1031 NOSIG
ZBSJ,2016-11-29 12:00,ZBSJ 291200Z 25001MPS 2400 HZ OVC046 03/M01 Q1031 NOSIG
ZBSJ,2016-11-29 13:00,ZBSJ 291300Z 30001MPS 2200 HZ OVC046 03/M00 Q1031 NOSIG
ZBSJ,2016-11-29 14:00,ZBSJ 291400Z 29001MPS 2200 BR OVC046 03/M00 Q1031 NOSIG
ZBSJ,2016-11-29 15:00,ZBSJ 291500Z 23001MPS 2000 BR OVC046 02/M00 Q1030 NOSIG
ZBSJ,2016-11-29 16:00,ZBSJ 291600Z 00000MPS 1600 BR OVC046 M00/M01 Q1029 NOSIG
ZBSJ,2016-11-29 17:00,ZBSJ 291700Z 31001MPS 1400 R15/2000N BR OVC046 M01/M02 Q1028 NOSIG
ZBSJ,2016-11-29 18:00,ZBSJ 291800Z 32002MPS 1400 R15/1600U BR OVC046 M02/M03 Q1027 NOSIG
ZBSJ,2016-11-29 19:00,ZBSJ 291900Z 17002MPS 1300 R15/1400U BR NSC M03/M04 Q1027 NOSIG
ZBSJ,2016-11-29 20:00,ZBSJ 292000Z 05001MPS 1200 R15/1400D BR NSC M02/M02 Q1026 NOSIG
ZBSJ,2016-11-29 21:00,ZBSJ 292100Z 03003MPS 1200 R15/1400U BR NSC M02/M03 Q1025 NOSIG
ZBSJ,2016-11-29 22:00,ZBSJ 292200Z 36001MPS 1200 R15/1500N BR NSC M03/M03 Q1024 NOSIG
ZBSJ,2016-11-29 23:00,ZBSJ 292300Z 31001MPS 1200 R15/1700U BR NSC M03/M04 Q1025 NOSIG
ZBSJ,2016-11-30 00:00,ZBSJ 300000Z 24001MPS 1000 R15/1400N BR NSC M03/M04 Q1025 BECMG TL0130 1600
ZBSJ,2016-11-30 01:00,ZBSJ 300100Z 27001MPS 1100 R15/1200N BR NSC M00/M01 Q1026 BECMG TL0230 1600
ZBSJ,2016-11-30 02:00,ZBSJ 300200Z 25002MPS 1100 R15/1200D BR NSC 02/M00 Q1025 BECMG TL0330 1600
ZBSJ,2016-11-30 03:00,ZBSJ 300300Z 28002MPS 1300 R15/1300N BR NSC 05/M01 Q1025 BECMG TL0430 1600
ZBSJ,2016-11-30 04:00,ZBSJ 300400Z 30002MPS 1600 HZ NSC 09/M01 Q1024 NOSIG
ZBSJ,2016-11-30 05:00,ZBSJ 300500Z 31002MPS 3500 HZ NSC 11/M03 Q1023 NOSIG
ZBSJ,2016-11-30 06:00,ZBSJ 300600Z 32002MPS 5000 HZ NSC 12/M02 Q1022 NOSIG
ZBSJ,2016-11-30 07:00,ZBSJ 300700Z 33001MPS 5000 HZ NSC 12/M04 Q1022 NOSIG
ZBSJ,2016-11-30 08:00,ZBSJ 300800Z 17002MPS 3500 HZ NSC 11/M01 Q1022 NOSIG
ZBSJ,2016-11-30 09:00,ZBSJ 300900Z 20001MPS 2000 HZ NSC 06/M01 Q1023 NOSIG
ZBSJ,2016-11-30 10:00,ZBSJ 301000Z 20002MPS 1600 FU NSC 06/01 Q1023 NOSIG
ZBSJ,2016-11-30 11:00,ZBSJ 301100Z 21002MPS 1600 FU NSC 03/M01 Q1024 NOSIG
ZBSJ,2016-11-30 12:00,ZBSJ 301200Z 22001MPS 1600 FU NSC 03/M01 Q1025 NOSIG
ZBSJ,2016-11-30 13:00,ZBSJ 301300Z 30001MPS 1800 FU NSC 03/M02 Q1026 NOSIG
ZBSJ,2016-11-30 14:00,ZBSJ 301400Z 34002MPS 1600 FU NSC M00/M02 Q1027 NOSIG
ZBSJ,2016-11-30 15:00,ZBSJ 301500Z 29001MPS 1600 FU NSC 01/M02 Q1027 NOSIG
ZBSJ,2016-11-30 16:00,ZBSJ 301600Z 30001MPS 1600 FU NSC 01/M02 Q1028 NOSIG
ZBSJ,2016-11-30 17:00,ZBSJ 301700Z 32002MPS 2000 FU NSC 01/M02 Q1028 NOSIG
ZBSJ,2016-11-30 18:00,ZBSJ 301800Z 32002MPS 2000 FU NSC 00/M04 Q1029 NOSIG
ZBSJ,2016-11-30 19:00,ZBSJ 301900Z 35002MPS 2000 BR NSC M02/M05 Q1029 NOSIG
ZBSJ,2016-11-30 20:00,ZBSJ 302000Z 30002MPS 3000 BR NSC M01/M05 Q1029 NOSIG
ZBSJ,2016-11-30 21:00,ZBSJ 302100Z 29002MPS 3500 HZ NSC 01/M05 Q1029 NOSIG
ZBSJ,2016-11-30 22:00,ZBSJ 302200Z 19001MPS 3500 BR NSC M03/M05 Q1030 NOSIG
ZBSJ,2016-11-30 23:00,ZBSJ 302300Z 31001MPS 3000 BR NSC M04/M06 Q1031 NOSIG
ZBSJ,2016-12-01 00:00,ZBSJ 010000Z 19001MPS 1600 BR NSC M02/M05 Q1032 BECMG TL0130 3000
ZBSJ,2016-12-01 01:00,ZBSJ 010100Z 29001MPS 2000 HZ NSC 03/M01 Q1033 BECMG TL0230 3000
ZBSJ,2016-12-01 02:00,ZBSJ 010200Z 29002MPS 2000 HZ NSC 07/M03 Q1033 BECMG TL0330 3000
ZBSJ,2016-12-01 03:00,ZBSJ 010300Z 27001MPS 6000 NSC 10/M08 Q1034 NOSIG
ZBSJ,2016-12-01 04:00,ZBSJ 010400Z 15002MPS CAVOK 11/M10 Q1033 NOSIG
ZBSJ,2016-12-01 05:00,ZBSJ 010500Z 18002MPS CAVOK 11/M09 Q1032 NOSIG
ZBSJ,2016-12-01 06:00,ZBSJ 010600Z 13002MPS 090V170 CAVOK 11/M09 Q1032 NOSIG
ZBSJ,2016-12-01 07:00,ZBSJ 010700Z 15003MPS CAVOK 11/M09 Q1032 NOSIG
ZBSJ,2016-12-01 08:00,ZBSJ 010800Z 15003MPS CAVOK 09/M06 Q1032 NOSIG
ZBSJ,2016-12-01 09:00,ZBSJ 010900Z 18002MPS 6000 NSC 07/M06 Q1032 NOSIG
ZBSJ,2016-12-01 10:00,ZBSJ 011000Z 17002MPS 5000 HZ NSC 06/M05 Q1032 NOSIG
ZBSJ,2016-12-01 11:00,ZBSJ 011100Z 17002MPS 5000 HZ NSC 02/M05 Q1033 NOSIG
ZBSJ,2016-12-01 12:00,ZBSJ 011200Z 07001MPS 4000 HZ NSC M01/M04 Q1033 BECMG TL1330 2500 HZ
ZBSJ,2016-12-01 13:00,ZBSJ 011300Z 04001MPS 3000 HZ NSC 00/M04 Q1033 BECMG TL1430 2500 HZ
ZBSJ,2016-12-01 14:00,ZBSJ 011400Z 00000MPS 2000 HZ NSC M00/M04 Q1033 NOSIG
ZBSJ,2016-12-01 15:00,ZBSJ 011500Z 15001MPS 2000 BR NSC M02/M04 Q1033 NOSIG
ZBSJ,2016-12-01 16:00,ZBSJ 011600Z 23001MPS 1800 BR NSC M02/M05 Q1033 NOSIG
ZBSJ,2016-12-01 17:00,ZBSJ 011700Z 30001MPS 1800 BR NSC M02/M04 Q1033 NOSIG
ZBSJ,2016-12-01 18:00,ZBSJ 011800Z 28001MPS 1800 BR NSC M02/M05 Q1033 NOSIG
ZBSJ,2016-12-01 19:00,ZBSJ 011900Z 00000MPS 1500 BR NSC M04/M06 Q1032 NOSIG
ZBSJ,2016-12-01 20:00,ZBSJ 012000Z 28001MPS 1800 BR NSC M04/M06 Q1031 NOSIG
ZBSJ,2016-12-01 21:00,ZBSJ 012100Z 27001MPS 2500 BR NSC M02/M05 Q1031 NOSIG
ZBSJ,2016-12-01 22:00,ZBSJ 012200Z 32001MPS 3500 BR NSC M04/M06 Q1031 NOSIG
ZBSJ,2016-12-01 23:00,ZBSJ 012300Z 32001MPS 3000 BR NSC M03/M05 Q1031 BECMG TL0030 2000 BR
ZBSJ,2016-12-02 00:00,ZBSJ 020000Z 21001MPS 1600 BR NSC M04/M06 Q1031 NOSIG
ZBSJ,2016-12-02 01:00,ZBSJ 020100Z 30002MPS 1800 R15/1400N FU NSC 02/M03 Q1031 BECMG TL0230 3000
ZBSJ,2016-12-02 02:00,ZBSJ 020200Z 33003MPS 2500 FU NSC 04/M03 Q1031 BECMG TL0330 3000
ZBSJ,2016-12-02 03:00,ZBSJ 020300Z 33002MPS 3000 FU NSC 06/M04 Q1030 NOSIG
ZBSJ,2016-12-02 04:00,ZBSJ 020400Z 18001MPS 5000 HZ NSC 08/M04 Q1029 NOSIG
ZBSJ,2016-12-02 05:00,ZBSJ 020500Z 13001MPS 5000 HZ NSC 09/M03 Q1028 NOSIG
ZBSJ,2016-12-02 06:00,ZBSJ 020600Z 15002MPS 4500 HZ NSC 10/M02 Q1027 NOSIG
ZBSJ,2016-12-02 07:00,ZBSJ 020700Z 12002MPS 2200 HZ NSC 10/M01 Q1026 NOSIG
ZBSJ,2016-12-02 08:00,ZBSJ 020800Z 13002MPS 1600 HZ NSC 09/M01 Q1026 NOSIG
ZBSJ,2016-12-02 09:00,ZBSJ 020900Z 08001MPS 1600 HZ NSC 05/M00 Q1026 NOSIG
ZBSJ,2016-12-02 10:00,ZBSJ 021000Z 05001MPS 2000 HZ NSC 02/M02 Q1026 NOSIG
ZBSJ,2016-12-02 11:00,ZBSJ 021100Z 03001MPS 1600 BR NSC 01/M02 Q1026 BECMG TL1230 1400 BR
ZBSJ,2016-12-02 12:00,ZBSJ 021200Z 01001MPS 1700 BR NSC 01/M02 Q1027 NOSIG
ZBSJ,2016-12-02 13:00,ZBSJ 021300Z 01001MPS 1700 BR NSC M01/M03 Q1026 NOSIG
ZBSJ,2016-12-02 14:00,ZBSJ 021400Z 36001MPS 1400 R15/1600U BR NSC M00/M02 Q1026 NOSIG
ZBSJ,2016-12-02 15:00,ZBSJ 021500Z 25001MPS 1400 R15/1800D BR NSC M01/M02 Q1026 NOSIG
ZBSJ,2016-12-02 16:00,ZBSJ 021600Z 30001MPS 1300 R15/1500U BR NSC M02/M03 Q1025 NOSIG
ZBSJ,2016-12-02 17:00,ZBSJ 021700Z 29001MPS 1300 R15/1500D BR NSC M02/M03 Q1024 NOSIG
ZBSJ,2016-12-02 18:00,ZBSJ 021800Z 31001MPS 1400 R15/1500N BR NSC M02/M03 Q1024 NOSIG
ZBSJ,2016-12-02 19:00,ZBSJ 021900Z 23002MPS 1400 R15/2000N BR NSC M02/M04 Q1023 NOSIG
ZBSJ,2016-12-02 20:00,ZBSJ 022000Z 30001MPS 1500 BR NSC M02/M03 Q1023 NOSIG
ZBSJ,2016-12-02 21:00,ZBSJ 022100Z 35001MPS 1700 BR NSC M03/M04 Q1022 NOSIG
ZBSJ,2016-12-02 22:00,ZBSJ 022200Z 33001MPS 2000 BR NSC M02/M04 Q1022 NOSIG
ZBSJ,2016-12-02 23:00,ZBSJ 022300Z 27001MPS 1800 BR NSC M03/M04 Q1022 NOSIG
ZBSJ,2016-12-03 00:00,ZBSJ 030000Z 22001MPS 1300 R15/1500N BR NSC M02/M04 Q1022 BECMG TL0130 1600
ZBSJ,2016-12-03 01:00,ZBSJ 030100Z 30001MPS 1000 R15/1100N BR NSC M02/M03 Q1022 BECMG TL0230 1600
ZBSJ,2016-12-03 02:00,ZBSJ 030200Z 36001MPS 1200 R15/1200N BR NSC 02/M01 Q1022 BECMG TL0330 1600
ZBSJ,2016-12-03 03:00,ZBSJ 030300Z 07001MPS 1000 R15/1100N HZ NSC 04/M01 Q1022 NOSIG
ZBSJ,2016-12-03 04:00,ZBSJ 030400Z 03001MPS 1000 R15/1100N HZ NSC 06/M01 Q1020 NOSIG
ZBSJ,2016-12-03 05:00,ZBSJ 030500Z 12002MPS 1000 R15/1100D HZ NSC 08/00 Q1019 NOSIG
ZBSJ,2016-12-03 06:00,ZBSJ 030600Z 10002MPS 0900 R15/0900D HZ NSC 08/01 Q1018 NOSIG
ZBSJ,2016-12-03 07:00,ZBSJ 030700Z 10002MPS 0700 R15/0800N HZ NSC 08/01 Q1018 NOSIG
ZBSJ,2016-12-03 08:00,ZBSJ 030800Z 09002MPS 0600 R15/0650N HZ NSC 06/03 Q1017 NOSIG
ZBSJ,2016-12-03 09:00,ZBSJ 030900Z 05002MPS 0500 R15/0700N FG NSC 03/02 Q1017 NOSIG
ZBSJ,2016-12-03 10:00,ZBSJ 031000Z 03001MPS 0600 R15/0800N FG NSC 02/01 Q1017 NOSIG
ZBSJ,2016-12-03 11:00,ZBSJ 031100Z 35002MPS 0600 R15/1000U FG NSC 01/01 Q1017 NOSIG
ZBSJ,2016-12-03 12:00,ZBSJ 031200Z 35001MPS 0700 R15/0900U FG NSC 01/01 Q1017 NOSIG
ZBSJ,2016-12-03 13:00,ZBSJ 031300Z 32001MPS 0600 R15/0800N FG NSC 01/00 Q1017 NOSIG
ZBSJ,2016-12-03 14:00,ZBSJ 031400Z 31001MPS 0600 R15/0800V1100N FG NSC 00/M00 Q1017 NOSIG
ZBSJ,2016-12-03 15:00,ZBSJ 031500Z 32001MPS 0700 R15/1000U FZFG NSC M00/M01 Q1017 NOSIG
ZBSJ,2016-12-03 16:00,ZBSJ 031600Z 29002MPS 0700 R15/0900N FZFG NSC M01/M02 Q1017 NOSIG
ZBSJ,2016-12-03 17:00,ZBSJ 031700Z 33002MPS 0700 R15/0900U FZFG NSC M01/M02 Q1016 NOSIG
ZBSJ,2016-12-03 18:00,ZBSJ 031800Z 32001MPS 0700 R15/1000U FZFG NSC M03/M03 Q1016 NOSIG
ZBSJ,2016-12-03 19:00,ZBSJ 031900Z 29001MPS 0800 R15/1000N FZFG NSC M02/M02 Q1016 NOSIG
ZBSJ,2016-12-03 20:00,ZBSJ 032000Z 34001MPS 0800 R15/1000N FZFG NSC M04/M04 Q1016 NOSIG
ZBSJ,2016-12-03 21:00,ZBSJ 032100Z 32001MPS 0800 R15/0900N FZFG NSC M04/M04 Q1016 NOSIG
ZBSJ,2016-12-03 22:00,ZBSJ 032200Z 00000MPS 0700 R15/0900N FZFG NSC M04/M04 Q1016 NOSIG
ZBSJ,2016-12-03 23:00,ZBSJ 032300Z 03001MPS 0700 R15/0900N FZFG NSC M05/M05 Q1016 NOSIG
ZBSJ,2016-12-04 00:00,ZBSJ 040000Z 32001MPS 0700 R15/0700N FZFG NSC M03/M03 Q1016 NOSIG
ZBSJ,2016-12-04 01:00,ZBSJ 040100Z 01002MPS 0500 R15/0500N FG NSC 01/M01 Q1017 NOSIG
ZBSJ,2016-12-04 02:00,ZBSJ 040200Z 02001MPS 0500 R33/0600N FG NSC 02/00 Q1017 BECMG TL0330 0600
ZBSJ,2016-12-04 03:00,ZBSJ 040300Z 05002MPS 0700 R33/0800N HZ NSC 05/01 Q1017 NOSIG
ZBSJ,2016-12-04 04:00,ZBSJ 040400Z 09001MPS 0600 R15/0900N HZ NSC 05/00 Q1016 NOSIG
ZBSJ,2016-12-04 05:00,ZBSJ 040500Z 07002MPS 0700 R15/0800N HZ NSC 07/01 Q1015 NOSIG
ZBSJ,2016-12-04 06:00,ZBSJ 040600Z 08002MPS 0800 R15/1100U HZ NSC 08/01 Q1014 NOSIG
ZBSJ,2016-12-04 07:00,ZBSJ 040700Z 08003MPS 0800 R15/1100N HZ NSC 09/01 Q1014 NOSIG
ZBSJ,2016-12-04 08:00,ZBSJ 040800Z 07002MPS 0800 R15/1100N HZ NSC 07/02 Q1015 BECMG TL0930 0700 FG
ZBSJ,2016-12-04 09:00,ZBSJ 040900Z 07001MPS 0800 R15/1200D HZ NSC 04/01 Q1015 BECMG TL1030 0700 FG
ZBSJ,2016-12-04 10:00,ZBSJ 041000Z 36001MPS 0800 R15/1300D FG NSC 01/M00 Q1016 NOSIG
ZBSJ,2016-12-04 11:00,ZBSJ 041100Z 36001MPS 0800 R15/1100U FG NSC 00/M01 Q1017 NOSIG
ZBSJ,2016-12-04 12:00,ZBSJ 041200Z 32001MPS 1000 R15/1400D BR NSC 01/01 Q1017 NOSIG
ZBSJ,2016-12-04 13:00,ZBSJ 041300Z 34002MPS 1000 R15/1100D BR NSC M00/M01 Q1018 NOSIG
ZBSJ,2016-12-04 14:00,ZBSJ 041400Z 33001MPS 0800 R15/1100D FZFG NSC M01/M02 Q1018 NOSIG
ZBSJ,2016-12-04 15:00,ZBSJ 041500Z 26001MPS 1000 R15/1400N BR NSC M01/M02 Q1018 NOSIG
ZBSJ,2016-12-04 16:00,ZBSJ 041600Z 31001MPS 0800 R15/1200D FZFG NSC M02/M03 Q1018 NOSIG
ZBSJ,2016-12-04 17:00,ZBSJ 041700Z 35003MPS 0800 R15/1000N FZFG NSC M02/M03 Q1018 NOSIG
ZBSJ,2016-12-04 18:00,ZBSJ 041800Z 03003MPS 1000 R15/1500N BR NSC 01/M01 Q1019 NOSIG
ZBSJ,2016-12-04 19:00,ZBSJ 041900Z 04004MPS 0500 R15/1200N FG NSC 01/01 Q1020 NOSIG
ZBSJ,2016-12-04 20:00,ZBSJ 042000Z 02002MPS 0500 R15/0650N FG NSC 01/01 Q1021 NOSIG
ZBSJ,2016-12-04 21:00,ZBSJ 042100Z 35002MPS 0500 R15/1000U FG NSC 02/02 Q1022 NOSIG
ZBSJ,2016-12-04 22:00,ZBSJ 042200Z 32002MPS 0800 R15/1100V1600D FG NSC 02/02 Q1023 NOSIG
ZBSJ,2016-12-04 23:00,ZBSJ 042300Z 33002MPS 1000 R15/1500N BR NSC 02/02 Q1024 NOSIG
ZBSJ,2016-12-05 00:00,ZBSJ 050000Z 32004MPS 0800 R33/1300N FG NSC 03/02 Q1026 BECMG TL0130 1500 BR
ZBSJ,2016-12-05 01:00,ZBSJ 050100Z 33003MPS 0800 R33/1000N FG NSC 03/02 Q1028 BECMG TL0230 1500 BR
ZBSJ,2016-12-05 02:00,ZBSJ 050200Z 33002MPS 0900 R33/0900U FG NSC 04/02 Q1029 BECMG TL0330 1500 BR
ZBSJ,2016-12-05 03:00,ZBSJ 050300Z 34004MPS 1600 HZ NSC 07/M01 Q1030 BECMG TL0430 3000
ZBSJ,2016-12-05 04:00,ZBSJ 050400Z 33008MPS CAVOK 09/M08 Q1030 NOSIG
ZBSJ,2016-12-05 05:00,ZBSJ 050500Z 35007MPS CAVOK 09/M10 Q1030 NOSIG
ZBSJ,2016-12-05 06:00,ZBSJ 050600Z 34005MPS 300V020 CAVOK 09/M12 Q1030 NOSIG
ZBSJ,2016-12-05 07:00,ZBSJ 050700Z 35006MPS CAVOK 09/M14 Q1030 NOSIG
ZBSJ,2016-12-05 08:00,ZBSJ 050800Z 36004MPS CAVOK 08/M14 Q1030 NOSIG
ZBSJ,2016-12-05 09:00,ZBSJ 050900Z 34003MPS CAVOK 05/M13 Q1030 NOSIG
ZBSJ,2016-12-05 10:00,ZBSJ 051000Z 36001MPS CAVOK 03/M13 Q1031 NOSIG
ZBSJ,2016-12-05 11:00,ZBSJ 051100Z 21002MPS 180V250 7000 NSC 02/M11 Q1032 NOSIG
ZBSJ,2016-12-05 12:00,ZBSJ 051200Z 16001MPS 6000 NSC M01/M08 Q1031 NOSIG
ZBSJ,2016-12-05 13:00,ZBSJ 051300Z 21003MPS 6000 NSC 00/M10 Q1031 NOSIG
ZBSJ,2016-12-05 14:00,ZBSJ 051400Z 23001MPS 5000 FU NSC M02/M08 Q1031 NOSIG
ZBSJ,2016-12-05 15:00,ZBSJ 051500Z 19003MPS 5000 FU NSC M01/M09 Q1031 NOSIG
ZBSJ,2016-12-05 16:00,ZBSJ 051600Z 20002MPS 5000 FU NSC M01/M08 Q1030 NOSIG
ZBSJ,2016-12-05 17:00,ZBSJ 051700Z 22003MPS 5000 FU NSC M00/M07 Q1030 NOSIG
ZBSJ,2016-12-05 18:00,ZBSJ 051800Z 33001MPS 6000 NSC M01/M08 Q1029 NOSIG
ZBSJ,2016-12-05 19:00,ZBSJ 051900Z 21003MPS 8000 NSC 01/M10 Q1029 NOSIG
ZBSJ,2016-12-05 20:00,ZBSJ 052000Z 18003MPS CAVOK M01/M06 Q1027 NOSIG
ZBSJ,2016-12-05 21:00,ZBSJ 052100Z 17004MPS 4000 BR NSC M00/M02 Q1027 NOSIG
ZBSJ,2016-12-05 22:00,ZBSJ 052200Z 16002MPS 2500 BR NSC M02/M03 Q1026 NOSIG
ZBSJ,2016-12-05 23:00,ZBSJ 052300Z 15001MPS 1200 R15/P2000D BR NSC M06/M06 Q1025 NOSIG
ZBSJ,2016-12-06 00:00,ZBSJ 060000Z 07002MPS 030V100 0600 R15/0900D FZFG NSC M04/M04 Q1024 BECMG TL0130 0800
ZBSJ,2016-12-06 01:00,ZBSJ 060100Z 18003MPS 0600 R15/0800N FZFG NSC M02/M02 Q1023 BECMG TL0230 0800
ZBSJ,2016-12-06 02:00,ZBSJ 060200Z 14002MPS 0800 R15/0900N FG NSC 01/M01 Q1023 NOSIG
ZBSJ,2016-12-06 03:00,ZBSJ 060300Z 14003MPS 1000 R15/1200U HZ NSC 04/M00 Q1022 BECMG TL0430 1500
ZBSJ,2016-12-06 04:00,ZBSJ 060400Z 14002MPS 1600 HZ NSC 06/M01 Q1021 NOSIG
ZBSJ,2016-12-06 05:00,ZBSJ 060500Z 19005MPS 1800 HZ NSC 07/M02 Q1019 BECMG TL0630 3000
ZBSJ,2016-12-06 06:00,ZBSJ 060600Z 18004MPS 2500 HZ NSC 08/M03 Q1018 BECMG TL0730 3000
ZBSJ,2016-12-06 07:00,ZBSJ 060700Z 19004MPS 3000 HZ NSC 08/M02 Q1017 BECMG TL0830 2800 HZ
ZBSJ,2016-12-06 08:00,ZBSJ 060800Z 18003MPS 2800 HZ NSC 08/M01 Q1017 BECMG TL0930 3000
ZBSJ,2016-12-06 09:00,ZBSJ 060900Z 18003MPS 2300 HZ NSC 06/M01 Q1017 NOSIG
ZBSJ,2016-12-06 10:00,ZBSJ 061000Z 17003MPS 3300 HZ NSC 04/M02 Q1017 BECMG TL1130 2500 HZ
ZBSJ,2016-12-06 11:00,ZBSJ 061100Z 08002MPS 2900 HZ NSC 02/M02 Q1018 BECMG TL1230 3000
ZBSJ,2016-12-06 12:00,ZBSJ 061200Z 04003MPS 3000 HZ NSC 01/M02 Q1018 BECMG TL1330 2000 HZ
ZBSJ,2016-12-06 13:00,ZBSJ 061300Z 02002MPS 2000 BR NSC 00/M03 Q1019 NOSIG
ZBSJ,2016-12-06 14:00,ZBSJ 061400Z 33001MPS 2000 BR NSC M01/M03 Q1019 NOSIG
ZBSJ,2016-12-06 15:00,ZBSJ 061500Z 36001MPS 1600 BR NSC M00/M02 Q1020 NOSIG
ZBSJ,2016-12-06 16:00,ZBSJ 061600Z 34002MPS 1600 BR NSC M01/M03 Q1021 NOSIG
ZBSJ,2016-12-06 17:00,ZBSJ 061700Z 34003MPS 1500 BR NSC M01/M03 Q1021 NOSIG
ZBSJ,2016-12-06 18:00,ZBSJ 061800Z 31002MPS 1800 BR NSC M01/M04 Q1021 NOSIG
ZBSJ,2016-12-06 19:00,ZBSJ 061900Z 33002MPS 1800 BR NSC M02/M04 Q1022 NOSIG
ZBSJ,2016-12-06 20:00,ZBSJ 062000Z 31003MPS 1800 BR NSC M03/M05 Q1022 NOSIG
ZBSJ,2016-12-06 21:00,ZBSJ 062100Z 33001MPS 1800 BR NSC M04/M06 Q1023 NOSIG
ZBSJ,2016-12-06 22:00,ZBSJ 062200Z 30001MPS 1800 BR NSC M04/M06 Q1023 NOSIG
ZBSJ,2016-12-06 23:00,ZBSJ 062300Z 23002MPS 1600 BR NSC M03/M06 Q1024 BECMG TL0030 1400 BR
ZBSJ,2016-12-07 00:00,ZBSJ 070000Z 18001MPS 1300 R15/1500N BR NSC M04/M06 Q1025 BECMG TL0130 1500
ZBSJ,2016-12-07 01:00,ZBSJ 070100Z 24002MPS 1000 R15/1100N BR NSC 00/M02 Q1026 BECMG TL0230 1500
ZBSJ,2016-12-07 02:00,ZBSJ 070200Z 28001MPS 1500 R15/1400U HZ NSC 06/M02 Q1026 BECMG TL0330 3000
ZBSJ,2016-12-07 03:00,ZBSJ 070300Z 31001MPS 4000 HZ NSC 10/M07 Q1026 NOSIG
ZBSJ,2016-12-07 04:00,ZBSJ 070400Z 36001MPS 7000 NSC 12/M08 Q1025 NOSIG
ZBSJ,2016-12-07 05:00,ZBSJ 070500Z 34002MPS CAVOK 13/M09 Q1024 NOSIG
ZBSJ,2016-12-07 06:00,ZBSJ 070600Z 03001MPS CAVOK 13/M09 Q1023 NOSIG
ZBSJ,2016-12-07 07:00,ZBSJ 070700Z 14003MPS 7000 NSC 12/M06 Q1023 NOSIG
ZBSJ,2016-12-07 08:00,ZBSJ 070800Z 15004MPS 5000 HZ NSC 10/M04 Q1022 NOSIG
ZBSJ,2016-12-07 09:00,ZBSJ 070900Z 16003MPS 5000 HZ NSC 05/M05 Q1022 NOSIG
ZBSJ,2016-12-07 10:00,ZBSJ 071000Z 17003MPS 5000 HZ NSC 04/M05 Q1022 NOSIG
ZBSJ,2016-12-07 11:00,ZBSJ 071100Z 17003MPS 4500 HZ NSC 03/M04 Q1022 NOSIG
ZBSJ,2016-12-07 12:00,ZBSJ 071200Z 16003MPS 4000 HZ NSC 04/M03 Q1021 NOSIG
ZBSJ,2016-12-07 13:00,ZBSJ 071300Z 07002MPS 3000 HZ NSC 01/M04 Q1021 BECMG TL1430 2500 HZ
ZBSJ,2016-12-07 14:00,ZBSJ 071400Z 06002MPS 2000 BR NSC M01/M04 Q1020 NOSIG
ZBSJ,2016-12-07 15:00,ZBSJ 071500Z 18001MPS 2000 BR NSC M01/M04 Q1019 NOSIG
ZBSJ,2016-12-07 16:00,ZBSJ 071600Z 06001MPS 2000 BR NSC M02/M04 Q1018 NOSIG
ZBSJ,2016-12-07 17:00,ZBSJ 071700Z 16001MPS 2000 BR NSC M02/M04 Q1017 NOSIG
ZBSJ,2016-12-07 18:00,ZBSJ 071800Z 34001MPS 2000 BR NSC M02/M04 Q1016 NOSIG
ZBSJ,2016-12-07 19:00,ZBSJ 071900Z 30001MPS 2000 BR NSC M02/M04 Q1016 NOSIG
ZBSJ,2016-12-07 20:00,ZBSJ 072000Z 33002MPS 2000 BR NSC M01/M04 Q1015 NOSIG
ZBSJ,2016-12-07 21:00,ZBSJ 072100Z 32003MPS 2500 BR NSC M02/M04 Q1014 NOSIG
ZBSJ,2016-12-07 22:00,ZBSJ 072200Z 32003MPS 3000 BR NSC M03/M05 Q1014 NOSIG
ZBSJ,2016-12-07 23:00,ZBSJ 072300Z 34003MPS 3500 BR NSC M01/M04 Q1015 NOSIG
ZBSJ,2016-12-08 00:00,ZBSJ 080000Z 33002MPS 2000 BR NSC M01/M04 Q1015 BECMG TL0130 3000
ZBSJ,2016-12-08 01:00,ZBSJ 080100Z 29002MPS 260V320 2200 HZ NSC 01/M04 Q1016 BECMG TL0200 3000
ZBSJ,2016-12-08 02:00,ZBSJ 080200Z 32003MPS 3000 HZ NSC 04/M03 Q1016 NOSIG
ZBSJ,2016-12-08 03:00,ZBSJ 080300Z 28003MPS 260V320 4000 HZ NSC 08/M03 Q1016 NOSIG
ZBSJ,2016-12-08 04:00,ZBSJ 080400Z 30002MPS 250V340 5000 HZ NSC 12/M03 Q1015 NOSIG
ZBSJ,2016-12-08 05:00,ZBSJ 080500Z 34007MPS CAVOK 15/M14 Q1015 NOSIG
ZBSJ,2016-12-08 06:00,ZBSJ 080600Z 36007MPS CAVOK 14/M14 Q1015 NOSIG
ZBSJ,2016-12-08 07:00,ZBSJ 080700Z 36006MPS CAVOK 14/M14 Q1015 NOSIG
ZBSJ,2016-12-08 08:00,ZBSJ 080800Z 04004MPS CAVOK 11/M12 Q1016 NOSIG
ZBSJ,2016-12-08 09:00,ZBSJ 080900Z 03004MPS CAVOK 08/M14 Q1017 NOSIG
ZBSJ,2016-12-08 10:00,ZBSJ 081000Z 02005MPS CAVOK 07/M15 Q1018 NOSIG
ZBSJ,2016-12-08 11:00,ZBSJ 081100Z 04003MPS CAVOK 06/M15 Q1019 NOSIG
ZBSJ,2016-12-08 12:00,ZBSJ 081200Z 08003MPS CAVOK 06/M13 Q1021 NOSIG
ZBSJ,2016-12-08 13:00,ZBSJ 081300Z 11002MPS 5000 HZ NSC 02/M07 Q1022 NOSIG
ZBSJ,2016-12-08 14:00,ZBSJ 081400Z 13001MPS 3000 HZ NSC 02/M04 Q1022 BECMG TL1530 2800 BR
ZBSJ,2016-12-08 15:00,ZBSJ 081500Z 14001MPS 2500 HZ NSC M02/M06 Q1023 NOSIG
ZBSJ,2016-12-08 16:00,ZBSJ 081600Z 13002MPS 2500 BR NSC M01/M04 Q1024 NOSIG
ZBSJ,2016-12-08 17:00,ZBSJ 081700Z 09001MPS 2500 BR NSC M03/M06 Q1024 NOSIG
ZBSJ,2016-12-08 18:00,ZBSJ 081800Z 12002MPS 2500 BR NSC M02/M06 Q1025 NOSIG
ZBSJ,2016-12-08 19:00,ZBSJ 081900Z 11001MPS 3500 HZ NSC 00/M10 Q1026 NOSIG
ZBSJ,2016-12-08 20:00,ZBSJ 082000Z 19001MPS 6000 NSC M02/M07 Q1027 NOSIG
ZBSJ,2016-12-08 21:00,ZBSJ 082100Z 03001MPS 8000 NSC M01/M08 Q1028 NOSIG
ZBSJ,2016-12-08 22:00,ZBSJ 082200Z 12002MPS CAVOK 01/M10 Q1028 NOSIG
ZBSJ,2016-12-08 23:00,ZBSJ 082300Z 13001MPS CAVOK 00/M10 Q1028 NOSIG
ZBSJ,2016-12-09 00:00,ZBSJ 090000Z 16001MPS 6000 NSC M00/M08 Q1029 NOSIG
ZBSJ,2016-12-09 01:00,ZBSJ 090100Z 12001MPS 6000 NSC 02/M10 Q1029 NOSIG
ZBSJ,2016-12-09 02:00,ZBSJ 090200Z 05002MPS CAVOK 03/M11 Q1029 NOSIG
ZBSJ,2016-12-09 03:00,ZBSJ 090300Z 07002MPS 030V110 CAVOK 03/M12 Q1029 NOSIG
ZBSJ,2016-12-09 04:00,ZBSJ 090400Z 06003MPS 030V100 CAVOK 03/M12 Q1028 NOSIG
ZBSJ,2016-12-09 05:00,ZBSJ 090500Z 10002MPS CAVOK 03/M11 Q1028 NOSIG
ZBSJ,2016-12-09 06:00,ZBSJ 090600Z 09002MPS CAVOK 03/M11 Q1028 NOSIG
ZBSJ,2016-12-09 07:00,ZBSJ 090700Z 07002MPS CAVOK 03/M10 Q1028 NOSIG
ZBSJ,2016-12-09 08:00,ZBSJ 090800Z 08001MPS CAVOK 03/M10 Q1028 NOSIG
ZBSJ,2016-12-09 09:00,ZBSJ 090900Z 07001MPS CAVOK 02/M09 Q1028 NOSIG
ZBSJ,2016-12-09 10:00,ZBSJ 091000Z 07001MPS CAVOK 00/M09 Q1029 NOSIG
ZBSJ,2016-12-09 11:00,ZBSJ 091100Z 09001MPS 7000 NSC M01/M08 Q1029 NOSIG
ZBSJ,2016-12-09 12:00,ZBSJ 091200Z 10001MPS 6000 NSC M02/M08 Q1029 NOSIG
ZBSJ,2016-12-09 13:00,ZBSJ 091300Z 11001MPS 4000 HZ NSC M02/M08 Q1029 NOSIG
ZBSJ,2016-12-09 14:00,ZBSJ 091400Z 08001MPS 3500 HZ NSC M03/M08 Q1030 NOSIG
ZBSJ,2016-12-09 15:00,ZBSJ 091500Z 00000MPS 3000 FU NSC M03/M09 Q1030 NOSIG
ZBSJ,2016-12-09 16:00,ZBSJ 091600Z 14001MPS 2500 FU NSC M04/M08 Q1030 NOSIG
ZBSJ,2016-12-09 17:00,ZBSJ 091700Z 01001MPS 2300 FU NSC M05/M08 Q1030 NOSIG
ZBSJ,2016-12-09 18:00,ZBSJ 091800Z 35001MPS 2000 BR NSC M05/M08 Q1030 NOSIG
ZBSJ,2016-12-09 19:00,ZBSJ 091900Z 32001MPS 2500 BR NSC M05/M08 Q1030 NOSIG
ZBSJ,2016-12-09 20:00,ZBSJ 092000Z 00000MPS 2500 BR NSC M05/M07 Q1029 NOSIG
ZBSJ,2016-12-09 21:00,ZBSJ 092100Z 31001MPS 3000 BR NSC M06/M08 Q1029 NOSIG
ZBSJ,2016-12-09 22:00,ZBSJ 092200Z 32002MPS 3500 BR NSC M06/M08 Q1029 NOSIG
ZBSJ,2016-12-09 23:00,ZBSJ 092300Z 00000MPS 4000 BR NSC M05/M08 Q1029 NOSIG
ZBSJ,2016-12-10 00:00,ZBSJ 100000Z 31001MPS 3000 BR NSC M06/M08 Q1029 BECMG TL0130 2800 BR
ZBSJ,2016-12-10 01:00,ZBSJ 100100Z 30001MPS 2500 HZ NSC M02/M05 Q1030 BECMG TL0230 3000
ZBSJ,2016-12-10 02:00,ZBSJ 100200Z 31001MPS 2500 HZ NSC 00/M06 Q1031 BECMG TL0330 3000
ZBSJ,2016-12-10 03:00,ZBSJ 100300Z 00000MPS 3000 HZ NSC 02/M06 Q1030 NOSIG
ZBSJ,2016-12-10 04:00,ZBSJ 100400Z 34001MPS 3000 HZ NSC 04/M06 Q1029 NOSIG
ZBSJ,2016-12-10 05:00,ZBSJ 100500Z 03001MPS 3500 HZ NSC 05/M05 Q1028 NOSIG
ZBSJ,2016-12-10 06:00,ZBSJ 100600Z 14002MPS 4500 HZ NSC 05/M05 Q1028 NOSIG
ZBSJ,2016-12-10 07:00,ZBSJ 100700Z 13002MPS 3000 HZ NSC 05/M04 Q1027 BECMG TL0830 2500 HZ
ZBSJ,2016-12-10 08:00,ZBSJ 100800Z 13001MPS 2700 HZ NSC 04/M03 Q1027 NOSIG
ZBSJ,2016-12-10 09:00,ZBSJ 100900Z 10001MPS 2300 HZ NSC 01/M04 Q1027 NOSIG
ZBSJ,2016-12-10 10:00,ZBSJ 101000Z 08001MPS 2000 HZ NSC M01/M04 Q1028 NOSIG
ZBSJ,2016-12-10 11:00,ZBSJ 101100Z 09001MPS 2300 BR NSC M02/M04 Q1028 NOSIG
ZBSJ,2016-12-10 12:00,ZBSJ 101200Z 04001MPS 1800 BR NSC M03/M03 Q1028 NOSIG
ZBSJ,2016-12-10 13:00,ZBSJ 101300Z 07001MPS 1600 BR NSC M03/M04 Q1028 NOSIG
ZBSJ,2016-12-10 14:00,ZBSJ 101400Z 01001MPS 1600 BR NSC M04/M04 Q1029 BECMG TL1530 1400 BR
ZBSJ,2016-12-10 15:00,ZBSJ 101500Z 33001MPS 1600 BR NSC M04/M04 Q1029 NOSIG
ZBSJ,2016-12-10 16:00,ZBSJ 101600Z 33002MPS 1400 R15/1700N BR NSC M03/M04 Q1028 NOSIG
ZBSJ,2016-12-10 17:00,ZBSJ 101700Z 34001MPS 1400 R15/1800N BR NSC M04/M04 Q1028 NOSIG
ZBSJ,2016-12-10 18:00,ZBSJ 101800Z 32003MPS 1600 BR NSC M04/M05 Q1028 NOSIG
ZBSJ,2016-12-10 19:00,ZBSJ 101900Z 29001MPS 2000 BR NSC M04/M06 Q1029 NOSIG
ZBSJ,2016-12-10 20:00,ZBSJ 102000Z 32003MPS 2000 BR NSC M06/M07 Q1028 NOSIG
ZBSJ,2016-12-10 21:00,ZBSJ 102100Z 29002MPS 2300 BR NSC M03/M04 Q1027 NOSIG
ZBSJ,2016-12-10 22:00,ZBSJ 102200Z 33002MPS 2700 BR NSC M04/M05 Q1027 NOSIG
ZBSJ,2016-12-10 23:00,ZBSJ 102300Z 32002MPS 2200 BR NSC M04/M06 Q1026 NOSIG
ZBSJ,2016-12-11 00:00,ZBSJ 110000Z 29001MPS 1600 BR NSC M04/M05 Q1026 NOSIG
ZBSJ,2016-12-11 01:00,ZBSJ 110100Z 32002MPS 1800 BR NSC M02/M04 Q1026 NOSIG
ZBSJ,2016-12-11 02:00,ZBSJ 110200Z 32002MPS 2000 BR NSC M00/M04 Q1027 NOSIG
ZBSJ,2016-12-11 03:00,ZBSJ 110300Z 32002MPS 1800 R15/1300N BR NSC 01/M03 Q1027 NOSIG
ZBSJ,2016-12-11 04:00,ZBSJ 110400Z 01001MPS 1800 R15/1400U HZ NSC 02/M03 Q1025 NOSIG
ZBSJ,2016-12-11 05:00,ZBSJ 110500Z 01001MPS 1800 HZ NSC 04/M03 Q1023 NOSIG
ZBSJ,2016-12-11 06:00,ZBSJ 110600Z 35001MPS 1800 HZ NSC 04/M03 Q1023 NOSIG
ZBSJ,2016-12-11 07:00,ZBSJ 110700Z 15002MPS 1800 HZ NSC 04/M03 Q1021 NOSIG
ZBSJ,2016-12-11 08:00,ZBSJ 110800Z 21001MPS 1800 HZ NSC 03/M03 Q1021 NOSIG
ZBSJ,2016-12-11 09:00,ZBSJ 110900Z 24001MPS 2200 HZ NSC 03/M03 Q1021 NOSIG
ZBSJ,2016-12-11 10:00,ZBSJ 111000Z 13001MPS 3000 HZ NSC 02/M02 Q1021 BECMG TL1130 2500 BR
ZBSJ,2016-12-11 11:00,ZBSJ 111100Z 25001MPS 3000 HZ NSC 02/M02 Q1021 BECMG TL1230 2500 BR
ZBSJ,2016-12-11 12:00,ZBSJ 111200Z 01001MPS 2700 HZ NSC 02/M02 Q1021 NOSIG
ZBSJ,2016-12-11 13:00,ZBSJ 111300Z 05001MPS 2500 BR NSC 01/M02 Q1021 NOSIG
ZBSJ,2016-12-11 14:00,ZBSJ 111400Z 05001MPS 2000 BR NSC 01/M02 Q1022 NOSIG
ZBSJ,2016-12-11 15:00,ZBSJ 111500Z 06001MPS 1600 BR NSC 01/M01 Q1022 NOSIG
ZBSJ,2016-12-11 16:00,ZBSJ 111600Z 10001MPS 1800 BR NSC 01/M02 Q1021 NOSIG
ZBSJ,2016-12-11 17:00,ZBSJ 111700Z 01002MPS 1800 BR NSC 02/M02 Q1022 NOSIG
ZBSJ,2016-12-11 18:00,ZBSJ 111800Z 11001MPS 2000 BR NSC 02/M02 Q1021 NOSIG
ZBSJ,2016-12-11 19:00,ZBSJ 111900Z 33001MPS 2000 BR NSC 02/M02 Q1021 NOSIG
ZBSJ,2016-12-11 20:00,ZBSJ 112000Z 01001MPS 2000 BR NSC 02/M01 Q1021 NOSIG
ZBSJ,2016-12-11 21:00,ZBSJ 112100Z 00000MPS 2000 BR NSC 01/M01 Q1021 NOSIG
ZBSJ,2016-12-11 22:00,ZBSJ 112200Z 30001MPS 2000 BR NSC 02/M01 Q1021 NOSIG
ZBSJ,2016-12-11 23:00,ZBSJ 112300Z 33002MPS 2000 BR NSC 01/M01 Q1022 BECMG TL0030 1400 BR
ZBSJ,2016-12-12 00:00,ZBSJ 120000Z 34002MPS 1400 R15/1500N BR NSC 01/M02 Q1022 BECMG TL0130 1500
ZBSJ,2016-12-12 01:00,ZBSJ 120100Z 00000MPS 1200 R15/1200N BR NSC 02/M01 Q1023 NOSIG
ZBSJ,2016-12-12 02:00,ZBSJ 120200Z 36001MPS 1200 R33/1200N BR NSC 03/M02 Q1024 NOSIG
ZBSJ,2016-12-12 03:00,ZBSJ 120300Z 01001MPS 1100 R33/1000N HZ NSC 04/M01 Q1023 NOSIG
ZBSJ,2016-12-12 04:00,ZBSJ 120400Z 05002MPS 1000 R33/1000N HZ NSC 04/M00 Q1023 NOSIG
ZBSJ,2016-12-12 05:00,ZBSJ 120500Z 05002MPS 0800 R33/0900N HZ NSC 05/00 Q1023 NOSIG
ZBSJ,2016-12-12 06:00,ZBSJ 120600Z 07003MPS 0700 R33/1000N HZ NSC 04/01 Q1022 BECMG TL0730 0800
ZBSJ,2016-12-12 07:00,ZBSJ 120700Z 05002MPS 0800 R33/1200N HZ NSC 05/M00 Q1023 NOSIG
ZBSJ,2016-12-12 08:00,ZBSJ 120800Z 05003MPS 1000 R33/1400N HZ NSC 04/M01 Q1023 NOSIG
ZBSJ,2016-12-12 09:00,ZBSJ 120900Z 06001MPS 1200 R33/1900N HZ NSC 04/M00 Q1024 BECMG TL1030 1600
ZBSJ,2016-12-12 10:00,ZBSJ 121000Z 01001MPS 1600 BR NSC 03/M01 Q1025 NOSIG
ZBSJ,2016-12-12 11:00,ZBSJ 121100Z 36001MPS 1600 BR NSC 02/M01 Q1026 BECMG TL1230 1400 BR
ZBSJ,2016-12-12 12:00,ZBSJ 121200Z 35001MPS 1400 R33/P2000D BR NSC 02/M01 Q1027 BECMG TL1330 1500
ZBSJ,2016-12-12 13:00,ZBSJ 121300Z 35002MPS 1600 BR NSC 02/M01 Q1028 NOSIG
ZBSJ,2016-12-12 14:00,ZBSJ 121400Z 36002MPS 2000 HZ NSC 03/M02 Q1028 NOSIG
ZBSJ,2016-12-12 15:00,ZBSJ 121500Z 02002MPS 2000 HZ NSC 03/M01 Q1029 NOSIG
ZBSJ,2016-12-12 16:00,ZBSJ 121600Z 03002MPS 2200 HZ NSC 03/M01 Q1029 NOSIG
ZBSJ,2016-12-12 17:00,ZBSJ 121700Z 03002MPS 2200 HZ NSC 03/M01 Q1029 NOSIG
ZBSJ,2016-12-12 18:00,ZBSJ 121800Z 03002MPS 2000 BR NSC 03/M00 Q1030 NOSIG
ZBSJ,2016-12-12 19:00,ZBSJ 121900Z 05003MPS 2000 -RA BR NSC 03/00 Q1029 NOSIG
ZBSJ,2016-12-12 20:00,ZBSJ 122000Z 04002MPS 2000 -RA BR NSC 03/01 Q1029 NOSIG
ZBSJ,2016-12-12 21:00,ZBSJ 122100Z 04002MPS 2000 BR NSC 02/01 Q1029 NOSIG
ZBSJ,2016-12-12 22:00,ZBSJ 122200Z 04002MPS 3000 BR NSC 02/00 Q1029 NOSIG
ZBSJ,2016-12-12 23:00,ZBSJ 122300Z 05002MPS 3000 BR NSC 02/M00 Q1030 NOSIG
ZBSJ,2016-12-13 00:00,ZBSJ 130000Z 07001MPS 1800 BR NSC 02/M00 Q1030 NOSIG
ZBSJ,2016-12-13 01:00,ZBSJ 130100Z 06002MPS 1400 R15/1400N BR NSC 02/01 Q1031 BECMG TL0230 1800
ZBSJ,2016-12-13 02:00,ZBSJ 130200Z 06003MPS 1500 R15/1300N BR NSC 03/01 Q1031 NOSIG
ZBSJ,2016-12-13 03:00,ZBSJ 130300Z 05001MPS 3200 HZ NSC 03/M02 Q1031 NOSIG
ZBSJ,2016-12-13 04:00,ZBSJ 130400Z 07002MPS 3500 HZ NSC 04/M02 Q1030 NOSIG
ZBSJ,2016-12-13 05:00,ZBSJ 130500Z 07003MPS 030V090 4500 HZ NSC 04/M05 Q1030 NOSIG
ZBSJ,2016-12-13 06:00,ZBSJ 130600Z 07003MPS 6000 NSC 04/M06 Q1029 NOSIG
ZBSJ,2016-12-13 07:00,ZBSJ 130700Z 09002MPS 070V130 6000 NSC 04/M05 Q1029 NOSIG
ZBSJ,2016-12-13 08:00,ZBSJ 130800Z 10003MPS CAVOK 03/M05 Q1030 NOSIG
ZBSJ,2016-12-13 09:00,ZBSJ 130900Z 10001MPS CAVOK 02/M05 Q1030 NOSIG
ZBSJ,2016-12-13 10:00,ZBSJ 131000Z 12001MPS 7000 NSC 01/M04 Q1031 NOSIG
ZBSJ,2016-12-13 11:00,ZBSJ 131100Z 20001MPS 7000 NSC 01/M04 Q1031 NOSIG
ZBSJ,2016-12-13 12:00,ZBSJ 131200Z 20001MPS 6000 NSC 01/M04 Q1032 NOSIG
ZBSJ,2016-12-13 13:00,ZBSJ 131300Z 24001MPS 5000 BR NSC M01/M03 Q1033 NOSIG
ZBSJ,2016-12-13 14:00,ZBSJ 131400Z 18001MPS 4000 BR NSC M02/M04 Q1033 NOSIG
ZBSJ,2016-12-13 15:00,ZBSJ 131500Z 22001MPS 3000 BR NSC M01/M03 Q1034 NOSIG
ZBSJ,2016-12-13 16:00,ZBSJ 131600Z 34001MPS 2700 BR NSC M03/M04 Q1034 NOSIG
ZBSJ,2016-12-13 17:00,ZBSJ 131700Z 24001MPS 2400 BR NSC M04/M05 Q1034 NOSIG
ZBSJ,2016-12-13 18:00,ZBSJ 131800Z 30002MPS 2000 BR NSC M02/M03 Q1034 NOSIG
ZBSJ,2016-12-13 19:00,ZBSJ 131900Z 32002MPS 1800 BR NSC M03/M03 Q1034 NOSIG
ZBSJ,2016-12-13 20:00,ZBSJ 132000Z 32002MPS 1800 BR NSC M04/M04 Q1034 NOSIG
ZBSJ,2016-12-13 21:00,ZBSJ 132100Z 04001MPS 1600 BR NSC M05/M05 Q1034 NOSIG
ZBSJ,2016-12-13 22:00,ZBSJ 132200Z 03002MPS 1600 BR NSC M04/M04 Q1034 NOSIG
ZBSJ,2016-12-13 23:00,ZBSJ 132300Z 05002MPS 1600 BR NSC M03/M05 Q1035 NOSIG
ZBSJ,2016-12-14 00:00,ZBSJ 140000Z 04002MPS 1600 HZ NSC M04/M07 Q1035 NOSIG
ZBSJ,2016-12-14 01:00,ZBSJ 140100Z 05002MPS 2300 HZ NSC M03/M08 Q1036 BECMG TL0230 3000
ZBSJ,2016-12-14 02:00,ZBSJ 140200Z 05003MPS 020V080 4500 HZ NSC M01/M10 Q1036 NOSIG
ZBSJ,2016-12-14 03:00,ZBSJ 140300Z 07002MPS 5000 HZ NSC M01/M10 Q1036 NOSIG
ZBSJ,2016-12-14 04:00,ZBSJ 140400Z 12001MPS 6000 NSC 01/M11 Q1035 NOSIG
ZBSJ,2016-12-14 05:00,ZBSJ 140500Z 07001MPS 8000 NSC 01/M10 Q1033 NOSIG
ZBSJ,2016-12-14 06:00,ZBSJ 140600Z 21002MPS 8000 NSC 02/M11 Q1032 NOSIG
ZBSJ,2016-12-14 07:00,ZBSJ 140700Z 18002MPS 7000 NSC 02/M11 Q1031 NOSIG
ZBSJ,2016-12-14 08:00,ZBSJ 140800Z 16002MPS 6000 NSC 02/M10 Q1031 NOSIG
ZBSJ,2016-12-14 09:00,ZBSJ 140900Z 13001MPS 4500 HZ NSC M00/M08 Q1031 NOSIG
ZBSJ,2016-12-14 10:00,ZBSJ 141000Z 14001MPS 4500 HZ NSC M02/M08 Q1031 NOSIG
ZBSJ,2016-12-14 11:00,ZBSJ 141100Z 13001MPS 4000 HZ NSC M03/M08 Q1031 NOSIG
ZBSJ,2016-12-14 12:00,ZBSJ 141200Z 17002MPS 4000 HZ NSC M03/M08 Q1031 NOSIG
ZBSJ,2016-12-14 13:00,ZBSJ 141300Z 19001MPS 4000 HZ NSC M03/M07 Q1031 NOSIG
ZBSJ,2016-12-14 14:00,ZBSJ 141400Z 23001MPS 3500 HZ NSC M03/M07 Q1031 NOSIG
ZBSJ,2016-12-14 15:00,ZBSJ 141500Z 23001MPS 3000 HZ NSC M03/M07 Q1030 NOSIG
ZBSJ,2016-12-14 16:00,ZBSJ 141600Z 25001MPS 2500 HZ NSC M04/M08 Q1030 NOSIG
ZBSJ,2016-12-14 17:00,ZBSJ 141700Z 00000MPS 2500 BR NSC M05/M07 Q1029 NOSIG
ZBSJ,2016-12-14 18:00,ZBSJ 141800Z 30001MPS 2200 BR NSC M06/M08 Q1030 NOSIG
ZBSJ,2016-12-14 19:00,ZBSJ 141900Z 31001MPS 2000 BR NSC M06/M08 Q1029 NOSIG
ZBSJ,2016-12-14 20:00,ZBSJ 142000Z 31002MPS 2200 BR NSC M06/M08 Q1029 NOSIG
ZBSJ,2016-12-14 21:00,ZBSJ 142100Z 22002MPS 2800 BR NSC M05/M08 Q1030 NOSIG
ZBSJ,2016-12-14 22:00,ZBSJ 142200Z 31004MPS 3000 BR NSC M04/M06 Q1030 NOSIG
ZBSJ,2016-12-14 23:00,ZBSJ 142300Z 03002MPS 2500 BR NSC M06/M08 Q1031 NOSIG
ZBSJ,2016-12-15 00:00,ZBSJ 150000Z 33002MPS 2500 BR NSC M06/M08 Q1032 BECMG TL0130 3000
ZBSJ,2016-12-15 01:00,ZBSJ 150100Z 34001MPS 1700 BR NSC M01/M05 Q1033 BECMG TL0230 3000
ZBSJ,2016-12-15 02:00,ZBSJ 150200Z 07001MPS 2000 BR NSC 01/M07 Q1034 BECMG TL0330 3000
ZBSJ,2016-12-15 03:00,ZBSJ 150300Z 05001MPS 2300 BR NSC 02/M06 Q1034 BECMG TL0430 3000
ZBSJ,2016-12-15 04:00,ZBSJ 150400Z 09001MPS 2700 HZ NSC 04/M06 Q1033 NOSIG
ZBSJ,2016-12-15 05:00,ZBSJ 150500Z 14003MPS 110V170 3500 HZ NSC 06/M07 Q1033 NOSIG
ZBSJ,2016-12-15 06:00,ZBSJ 150600Z 15003MPS 120V180 4500 HZ NSC 07/M08 Q1032 NOSIG
ZBSJ,2016-12-15 07:00,ZBSJ 150700Z 14003MPS 4500 HZ NSC 06/M08 Q1032 NOSIG
ZBSJ,2016-12-15 08:00,ZBSJ 150800Z 12002MPS 4000 HZ NSC 06/M07 Q1033 NOSIG
ZBSJ,2016-12-15 09:00,ZBSJ 150900Z 17001MPS 3500 HZ NSC 02/M08 Q1033 NOSIG
ZBSJ,2016-12-15 10:00,ZBSJ 151000Z 11002MPS 3000 FU NSC 02/M07 Q1034 BECMG TL1130 2500 FU
ZBSJ,2016-12-15 11:00,ZBSJ 151100Z 11001MPS 2700 FU NSC M01/M05 Q1034 NOSIG
ZBSJ,2016-12-15 12:00,ZBSJ 151200Z 09001MPS 2200 FU NSC M03/M06 Q1034 NOSIG
ZBSJ,2016-12-15 13:00,ZBSJ 151300Z 16001MPS 2200 FU NSC M03/M06 Q1034 NOSIG
ZBSJ,2016-12-15 14:00,ZBSJ 151400Z 17002MPS 2200 FU NSC M02/M06 Q1034 NOSIG
ZBSJ,2016-12-15 15:00,ZBSJ 151500Z 19001MPS 2500 FU NSC M03/M07 Q1033 NOSIG
ZBSJ,2016-12-15 16:00,ZBSJ 151600Z 23002MPS 2200 FU NSC M03/M06 Q1033 NOSIG
ZBSJ,2016-12-15 17:00,ZBSJ 151700Z 19001MPS 2000 FU NSC M04/M07 Q1032 NOSIG
ZBSJ,2016-12-15 18:00,ZBSJ 151800Z 00000MPS 1800 BR NSC M05/M07 Q1032 NOSIG
ZBSJ,2016-12-15 19:00,ZBSJ 151900Z 22001MPS 1800 BR NSC M05/M07 Q1031 NOSIG
ZBSJ,2016-12-15 20:00,ZBSJ 152000Z 18001MPS 1500 BR NSC M07/M08 Q1031 NOSIG
ZBSJ,2016-12-15 21:00,ZBSJ 152100Z 20001MPS 1400 R15/1800D BR NSC M07/M08 Q1030 NOSIG
ZBSJ,2016-12-15 22:00,ZBSJ 152200Z 22001MPS 1400 R15/1900U BR NSC M06/M08 Q1030 NOSIG
ZBSJ,2016-12-15 23:00,ZBSJ 152300Z 13001MPS 1400 R15/1800N BR NSC M07/M08 Q1030 NOSIG
ZBSJ,2016-12-16 00:00,ZBSJ 160000Z 19001MPS 0900 R15/1000N FZFG NSC M07/M08 Q1029 BECMG TL0130 1500
ZBSJ,2016-12-16 01:00,ZBSJ 160100Z 00000MPS 0800 R15/0750N FU NSC M04/M05 Q1029 BECMG TL0230 1500 BR
ZBSJ,2016-12-16 02:00,ZBSJ 160200Z 22001MPS 0800 R15/0750N FU NSC 00/M04 Q1029 BECMG TL0330 1500 BR
ZBSJ,2016-12-16 03:00,ZBSJ 160300Z 21002MPS 1000 R33/1000N FU NSC 02/M04 Q1028 BECMG TL0430 1500
ZBSJ,2016-12-16 04:00,ZBSJ 160400Z 30001MPS 1200 R33/1100N FU NSC 05/M04 Q1026 BECMG TL0530 1500
ZBSJ,2016-12-16 05:00,ZBSJ 160500Z 18002MPS 130V210 1600 R33/1300N FU NSC 07/M03 Q1025 NOSIG
ZBSJ,2016-12-16 06:00,ZBSJ 160600Z 16003MPS 1600 R15/1300N FU NSC 08/M03 Q1024 NOSIG
ZBSJ,2016-12-16 07:00,ZBSJ 160700Z 12001MPS 1600 R15/1300N HZ NSC 08/M04 Q1023 NOSIG
ZBSJ,2016-12-16 08:00,ZBSJ 160800Z 17004MPS 1600 HZ NSC 06/M02 Q1022 NOSIG
ZBSJ,2016-12-16 09:00,ZBSJ 160900Z 13002MPS 1600 HZ NSC 03/M03 Q1022 BECMG TL1030 1400 HZ
ZBSJ,2016-12-16 10:00,ZBSJ 161000Z 04002MPS 2000 HZ NSC M01/M05 Q1022 NOSIG
ZBSJ,2016-12-16 11:00,ZBSJ 161100Z 04002MPS 1700 BR NSC M01/M03 Q1022 NOSIG
ZBSJ,2016-12-16 12:00,ZBSJ 161200Z 09001MPS 1700 BR NSC M01/M02 Q1022 NOSIG
ZBSJ,2016-12-16 13:00,ZBSJ 161300Z 09001MPS 1600 R33/1300N BR NSC M02/M04 Q1022 BECMG TL1430 1400 HZ
ZBSJ,2016-12-16 14:00,ZBSJ 161400Z 32003MPS 1800 BR NSC M02/M04 Q1022 BECMG TL1530 1400 HZ
ZBSJ,2016-12-16 15:00,ZBSJ 161500Z 24001MPS 1400 R33/1100N BR NSC M03/M04 Q1022 NOSIG
ZBSJ,2016-12-16 16:00,ZBSJ 161600Z 27001MPS 1400 R33/1200U BR NSC M03/M04 Q1021 NOSIG
ZBSJ,2016-12-16 17:00,ZBSJ 161700Z 24002MPS 1400 R33/1300N BR NSC M03/M05 Q1021 NOSIG
ZBSJ,2016-12-16 18:00,ZBSJ 161800Z 20001MPS 1200 R33/1400N BR NSC M04/M05 Q1021 NOSIG
ZBSJ,2016-12-16 19:00,ZBSJ 161900Z 25001MPS 0900 R33/1200N FZFG NSC M04/M05 Q1021 NOSIG
ZBSJ,2016-12-16 20:00,ZBSJ 162000Z 00000MPS 0900 R33/1400D FZFG NSC M05/M06 Q1021 NOSIG
ZBSJ,2016-12-16 21:00,ZBSJ 162100Z 30001MPS 0900 R33/1100N FZFG NSC M06/M07 Q1020 NOSIG
ZBSJ,2016-12-16 22:00,ZBSJ 162200Z 13001MPS 0900 R33/1200N FZFG NSC M06/M07 Q1020 NOSIG
ZBSJ,2016-12-16 23:00,ZBSJ 162300Z 01001MPS 1000 R15/1400U BR NSC M06/M07 Q1021 NOSIG
ZBSJ,2016-12-17 00:00,ZBSJ 170000Z 03001MPS 0800 R15/0900N FZFG NSC M05/M06 Q1021 BECMG TL0130 0700 FZFG
ZBSJ,2016-12-17 01:00,ZBSJ 170100Z 01002MPS 0600 R15/0750N FZFG NSC M02/M04 Q1022 BECMG TL0230 0800
ZBSJ,2016-12-17 02:00,ZBSJ 170200Z 04002MPS 0600 R15/0700N FZFG NSC M00/M02 Q1022 NOSIG
ZBSJ,2016-12-17 03:00,ZBSJ 170300Z 01002MPS 0600 R15/0750N FG NSC 01/M03 Q1022 NOSIG
ZBSJ,2016-12-17 04:00,ZBSJ 170400Z 02002MPS 350V060 0700 R15/0900N FG NSC 02/M03 Q1021 BECMG TL0530 0800
ZBSJ,2016-12-17 05:00,ZBSJ 170500Z 04002MPS 0800 R15/1000N FG NSC 04/M02 Q1020 NOSIG
ZBSJ,2016-12-17 06:00,ZBSJ 170600Z 10001MPS 1000 R15/1100N BR NSC 05/M03 Q1020 NOSIG
ZBSJ,2016-12-17 07:00,ZBSJ 170700Z 11002MPS 1000 R15/1100N HZ NSC 05/M02 Q1020 NOSIG
ZBSJ,2016-12-17 08:00,ZBSJ 170800Z 13001MPS 0900 R15/1200N HZ NSC 04/M01 Q1020 NOSIG
ZBSJ,2016-12-17 09:00,ZBSJ 170900Z 13001MPS 0800 R15/1300U FG NSC 01/M02 Q1021 NOSIG
ZBSJ,2016-12-17 10:00,ZBSJ 171000Z 28001MPS 0800 R15/1600N FZFG NSC M01/M03 Q1022 NOSIG
ZBSJ,2016-12-17 11:00,ZBSJ 171100Z 00000MPS 0700 R15/1500D FZFG NSC M02/M03 Q1022 NOSIG
ZBSJ,2016-12-17 12:00,ZBSJ 171200Z 31002MPS 0600 R15/1200U FZFG NSC M02/M03 Q1023 NOSIG
ZBSJ,2016-12-17 13:00,ZBSJ 171300Z 33002MPS 0600 R15/1200V1600D FZFG NSC M02/M03 Q1023 NOSIG
ZBSJ,2016-12-17 14:00,ZBSJ 171400Z 33003MPS 0600 R15/1200U FZFG NSC M02/M03 Q1024 NOSIG
ZBSJ,2016-12-17 15:00,ZBSJ 171500Z 32002MPS 0600 R33/1200N FZFG NSC M02/M03 Q1024 NOSIG
ZBSJ,2016-12-17 16:00,ZBSJ 171600Z 18001MPS 0600 R33/1000D FZFG NSC M04/M05 Q1024 NOSIG
ZBSJ,2016-12-17 17:00,ZBSJ 171700Z 24001MPS 0600 R33/0900N FZFG NSC M04/M05 Q1024 NOSIG
ZBSJ,2016-12-17 18:00,ZBSJ 171800Z 00000MPS 0600 R33/0800N FZFG NSC M05/M05 Q1024 NOSIG
ZBSJ,2016-12-17 19:00,ZBSJ 171900Z 00000MPS 0700 R33/0900U FZFG NSC M05/M05 Q1024 NOSIG
ZBSJ,2016-12-17 20:00,ZBSJ 172000Z 32001MPS 0800 R33/1100D FZFG NSC M05/M05 Q1024 NOSIG
ZBSJ,2016-12-17 21:00,ZBSJ 172100Z 18001MPS 0700 R33/0800V1000D FZFG NSC M05/M06 Q1024 NOSIG
ZBSJ,2016-12-17 22:00,ZBSJ 172200Z 32001MPS 0700 R33/1000N FZFG NSC M06/M07 Q1024 NOSIG
ZBSJ,2016-12-17 23:00,ZBSJ 172300Z 31002MPS 0800 R15/1400N FZFG NSC M06/M07 Q1024 BECMG TL0030 0600 FZFG
ZBSJ,2016-12-18 00:00,ZBSJ 180000Z 32002MPS 0700 R15/0900N FZFG NSC M06/M06 Q1024 NOSIG
ZBSJ,2016-12-18 01:00,ZBSJ 180100Z 31001MPS 0700 R15/0900N FZFG NSC M04/M05 Q1025 BECMG TL0230 0800
ZBSJ,2016-12-18 02:00,ZBSJ 180200Z 34001MPS 0750 R15/0800D FZFG NSC M01/M03 Q1025 BECMG TL0330 0800
ZBSJ,2016-12-18 03:00,ZBSJ 180300Z 36001MPS 0750 R15/0900N FG NSC 01/M02 Q1025 BECMG TL0430 0800
ZBSJ,2016-12-18 04:00,ZBSJ 180400Z 08001MPS 0800 R15/0900N HZ NSC 04/M01 Q1024 NOSIG
ZBSJ,2016-12-18 05:00,ZBSJ 180500Z 12001MPS 0800 R15/0800N HZ NSC 04/M01 Q1023 NOSIG
ZBSJ,2016-12-18 06:00,ZBSJ 180600Z 12001MPS 0800 R15/0900N HZ NSC 05/M01 Q1022 NOSIG
ZBSJ,2016-12-18 07:00,ZBSJ 180700Z 15002MPS 0800 R15/0900N HZ NSC 05/M01 Q1022 NOSIG
ZBSJ,2016-12-18 08:00,ZBSJ 180800Z 12001MPS 0800 R15/1000N HZ NSC 04/M01 Q1022 NOSIG
ZBSJ,2016-12-18 09:00,ZBSJ 180900Z 08001MPS 0700 R15/0800N FG NSC 01/M01 Q1022 NOSIG
ZBSJ,2016-12-18 10:00,ZBSJ 181000Z 05001MPS 0700 R15/1100D FZFG NSC M02/M03 Q1023 BECMG TL1130 0800
ZBSJ,2016-12-18 11:00,ZBSJ 181100Z 05001MPS 0800 R15/0900N FZFG NSC M02/M03 Q1024 BECMG TL1230 0700 FZFG
ZBSJ,2016-12-18 12:00,ZBSJ 181200Z 20001MPS 0700 R15/1100N FZFG NSC M03/M03 Q1024 NOSIG
ZBSJ,2016-12-18 13:00,ZBSJ 181300Z 34001MPS 0700 R15/0900N FZFG NSC M04/M04 Q1024 NOSIG
ZBSJ,2016-12-18 14:00,ZBSJ 181400Z 29001MPS 0700 R33/0900U FZFG NSC M02/M02 Q1024 NOSIG
ZBSJ,2016-12-18 15:00,ZBSJ 181500Z 27001MPS 0700 R33/0800N FZFG NSC M03/M03 Q1025 NOSIG
ZBSJ,2016-12-18 16:00,ZBSJ 181600Z 25001MPS 0700 R15/0800V1100U FZFG NSC M03/M03 Q1025 NOSIG
ZBSJ,2016-12-18 17:00,ZBSJ 181700Z 30001MPS 0600 R15/0700N FZFG NSC M04/M04 Q1024 NOSIG
ZBSJ,2016-12-18 18:00,ZBSJ 181800Z 27001MPS 0600 R15/0700N FZFG NSC M04/M04 Q1024 NOSIG
ZBSJ,2016-12-18 19:00,ZBSJ 181900Z 29001MPS 0600 R15/0800D FZFG NSC M05/M05 Q1024 NOSIG
ZBSJ,2016-12-18 20:00,ZBSJ 182000Z 31001MPS 0700 R15/0900N FZFG NSC M05/M05 Q1024 NOSIG
ZBSJ,2016-12-18 21:00,ZBSJ 182100Z 32002MPS 0700 R15/1000N FZFG NSC M06/M06 Q1024 NOSIG
ZBSJ,2016-12-18 22:00,ZBSJ 182200Z 32001MPS 0800 R15/1100N FZFG NSC M05/M05 Q1024 NOSIG
ZBSJ,2016-12-18 23:00,ZBSJ 182300Z 35002MPS 0800 R15/1400D FZFG NSC M05/M05 Q1024 BECMG TL0030 0700 FZFG
ZBSJ,2016-12-19 00:00,ZBSJ 190000Z 32001MPS 0700 R15/0900N FZFG NSC M05/M05 Q1025 BECMG TL0130 0800
ZBSJ,2016-12-19 01:00,ZBSJ 190100Z 23001MPS 0600 R15/0800N FZFG NSC M03/M04 Q1025 BECMG TL0230 0800
ZBSJ,2016-12-19 02:00,ZBSJ 190200Z 33002MPS 0800 R15/0800N FU NSC M00/M02 Q1026 NOSIG
ZBSJ,2016-12-19 03:00,ZBSJ 190300Z 36001MPS 0900 R33/1000N FU NSC 02/M02 Q1026 NOSIG
ZBSJ,2016-12-19 04:00,ZBSJ 190400Z 26001MPS 1000 R15/0900U HZ NSC 04/M02 Q1025 NOSIG
ZBSJ,2016-12-19 05:00,ZBSJ 190500Z 21001MPS 1100 R15/1100N HZ NSC 06/M02 Q1024 NOSIG
ZBSJ,2016-12-19 06:00,ZBSJ 190600Z 20001MPS 1600 HZ NSC 08/M02 Q1023 NOSIG
ZBSJ,2016-12-19 07:00,ZBSJ 190700Z 18002MPS 1400 R15/1300N HZ NSC 07/M01 Q1023 NOSIG
ZBSJ,2016-12-19 08:00,ZBSJ 190800Z 14001MPS 1100 R15/1100N HZ NSC 06/M01 Q1023 NOSIG
ZBSJ,2016-12-19 09:00,ZBSJ 190900Z 16001MPS 0700 R15/1000N HZ NSC 02/M01 Q1024 NOSIG
ZBSJ,2016-12-19 10:00,ZBSJ 191000Z 07001MPS 0700 R15/0750D FZFG NSC M00/M02 Q1025 NOSIG
ZBSJ,2016-12-19 11:00,ZBSJ 191100Z 14001MPS 0700 R15/0900N FZFG NSC M01/M02 Q1025 NOSIG
ZBSJ,2016-12-19 12:00,ZBSJ 191200Z 00000MPS 0600 R15/0800N FZFG NSC M02/M03 Q1026 NOSIG
ZBSJ,2016-12-19 13:00,ZBSJ 191300Z 02001MPS 0500 R33/0650N FZFG NSC M03/M03 Q1027 NOSIG
ZBSJ,2016-12-19 14:00,ZBSJ 191400Z 00000MPS 0400 R33/0700N FZFG NSC M03/M03 Q1027 NOSIG
ZBSJ,2016-12-19 15:00,ZBSJ 191500Z 22001MPS 0400 R33/0400N FZFG NSC M02/M02 Q1027 NOSIG
ZBSJ,2016-12-19 16:00,ZBSJ 191600Z 00000MPS 0200 R33/0050N FZFG NSC M06/M06 Q1028 NOSIG
ZBSJ,2016-12-19 17:00,ZBSJ 191700Z 00000MPS 0050 R33/0075N FZFG VV006 M05/M05 Q1027 NOSIG
ZBSJ,2016-12-19 18:00,ZBSJ 191800Z 01001MPS 0050 R33/0100N FZFG VV006 M05/M05 Q1028 NOSIG
ZBSJ,2016-12-19 19:00,ZBSJ 191900Z 18001MPS 0050 R33/0100N FZFG VV006 M05/M05 Q1027 NOSIG
ZBSJ,2016-12-19 20:00,ZBSJ 192000Z 03001MPS 0050 R33/0100N FZFG VV006 M05/M05 Q1027 NOSIG
ZBSJ,2016-12-19 21:00,ZBSJ 192100Z 21001MPS 0050 R33/0100N FZFG VV006 M05/M05 Q1026 NOSIG
ZBSJ,2016-12-19 22:00,ZBSJ 192200Z 00000MPS 0200 R33/0175N FZFG VV006 M06/M06 Q1027 NOSIG
ZBSJ,2016-12-19 23:00,ZBSJ 192300Z 16001MPS 0100 R15/0225N FZFG VV006 M06/M06 Q1028 NOSIG
ZBSJ,2016-12-20 00:00,ZBSJ 200000Z 00000MPS 0200 R15/0375N FZFG NSC M05/M05 Q1028 NOSIG
ZBSJ,2016-12-20 01:00,ZBSJ 200100Z 09001MPS 0200 R15/0400N FZFG NSC M04/M04 Q1029 NOSIG
ZBSJ,2016-12-20 02:00,ZBSJ 200200Z 06001MPS 0100 R15/0200V0350N FZFG VV006 M04/M04 Q1029 NOSIG
ZBSJ,2016-12-20 03:00,ZBSJ 200300Z 12001MPS 0100 R15/0150N FZFG VV006 M03/M03 Q1029 NOSIG
ZBSJ,2016-12-20 04:00,ZBSJ 200400Z 06001MPS 0300 R15/0375N FZFG NSC M02/M02 Q1028 NOSIG
ZBSJ,2016-12-20 05:00,ZBSJ 200500Z 06001MPS 0400 R15/0550N FZFG NSC M01/M01 Q1027 NOSIG
ZBSJ,2016-12-20 06:00,ZBSJ 200600Z 07001MPS 0400 R15/0650N FZFG NSC M01/M01 Q1027 NOSIG
ZBSJ,2016-12-20 07:00,ZBSJ 200700Z 08002MPS 0500 R15/0750N FZFG NSC M01/M01 Q1027 NOSIG
ZBSJ,2016-12-20 08:00,ZBSJ 200800Z 06001MPS 0500 R15/0800N FZFG NSC M01/M01 Q1027 NOSIG
ZBSJ,2016-12-20 09:00,ZBSJ 200900Z 04001MPS 0500 R15/1000N FZFG NSC M01/M01 Q1027 NOSIG
ZBSJ,2016-12-20 10:00,ZBSJ 201000Z 00000MPS 0700 R15/1200N FZFG NSC M01/M01 Q1029 NOSIG
ZBSJ,2016-12-20 11:00,ZBSJ 201100Z 08001MPS 0700 R15/1200N FZFG BKN046 M01/M01 Q1029 NOSIG
ZBSJ,2016-12-20 12:00,ZBSJ 201200Z 10001MPS 0700 R15/1000D FZFG OVC046 M00/M01 Q1029 NOSIG
ZBSJ,2016-12-20 13:00,ZBSJ 201300Z 13001MPS 0600 R15/1200N FZFG OVC046 M01/M01 Q1029 NOSIG
ZBSJ,2016-12-20 14:00,ZBSJ 201400Z 10001MPS 0500 R15/1100N FZFG OVC046 M01/M01 Q1029 NOSIG
ZBSJ,2016-12-20 15:00,ZBSJ 201500Z 33001MPS 0500 R15/1100N FZFG OVC046 M01/M01 Q1029 NOSIG
ZBSJ,2016-12-20 16:00,ZBSJ 201600Z 32002MPS 0600 R15/1200N FZFG OVC046 M00/M01 Q1029 NOSIG
ZBSJ,2016-12-20 17:00,ZBSJ 201700Z 17001MPS 0700 R15/1300N FZFG OVC046 M00/M01 Q1028 NOSIG
ZBSJ,2016-12-20 18:00,ZBSJ 201800Z 22001MPS 0800 R15/1200U FZFG OVC046 M00/M01 Q1028 NOSIG
ZBSJ,2016-12-20 19:00,ZBSJ 201900Z 05001MPS 0800 R15/1200N FZFG OVC046 M00/M01 Q1028 NOSIG
ZBSJ,2016-12-20 20:00,ZBSJ 202000Z 00000MPS 0700 R15/1000D -RA FZFG OVC040 M00/M00 Q1027 NOSIG
ZBSJ,2016-12-20 21:00,ZBSJ 202100Z 06001MPS 0600 R15/0800N -RA FG OVC040 00/00 Q1027 NOSIG
ZBSJ,2016-12-20 22:00,ZBSJ 202200Z 07001MPS 0500 R15/0750N -RA FG OVC040 00/00 Q1026 NOSIG
ZBSJ,2016-12-20 23:00,ZBSJ 202300Z 08001MPS 0500 R15/0800N -RA FG OVC040 00/00 Q1027 NOSIG
ZBSJ,2016-12-21 00:00,ZBSJ 210000Z 00000MPS 0350 R15/0550N FG OVC046 00/00 Q1027 NOSIG
ZBSJ,2016-12-21 01:00,ZBSJ 210100Z 09001MPS 0400 R15/0550N FG OVC046 00/00 Q1027 NOSIG
ZBSJ,2016-12-21 02:00,ZBSJ 210200Z 11001MPS 0400 R15/0500N FG OVC046 01/01 Q1027 NOSIG
ZBSJ,2016-12-21 03:00,ZBSJ 210300Z 11001MPS 0450 R15/0600N FG OVC046 01/01 Q1026 NOSIG
ZBSJ,2016-12-21 04:00,ZBSJ 210400Z 10001MPS 0450 R15/0600N FG NSC 02/01 Q1025 NOSIG
ZBSJ,2016-12-21 05:00,ZBSJ 210500Z 10002MPS 0450 R15/0650N FG NSC 02/01 Q1024 NOSIG
ZBSJ,2016-12-21 06:00,ZBSJ 210600Z 09001MPS 0450 R15/0650N FG NSC 02/02 Q1023 NOSIG
ZBSJ,2016-12-21 07:00,ZBSJ 210700Z 13001MPS 0450 R15/0650N FG NSC 03/02 Q1023 NOSIG
ZBSJ,2016-12-21 08:00,ZBSJ 210800Z 08001MPS 0450 R15/0750N FG NSC 03/02 Q1024 NOSIG
ZBSJ,2016-12-21 09:00,ZBSJ 210900Z 09002MPS 0450 R15/0800N FG NSC 02/02 Q1024 NOSIG
ZBSJ,2016-12-21 10:00,ZBSJ 211000Z 10001MPS 0700 R15/0900N FG NSC 02/02 Q1024 BECMG TL1130 0500 FG
ZBSJ,2016-12-21 11:00,ZBSJ 211100Z 35001MPS 0700 R15/0800U FG NSC 01/01 Q1024 NOSIG
ZBSJ,2016-12-21 12:00,ZBSJ 211200Z 00000MPS 0700 R15/0900N -RA FG NSC 02/02 Q1024 NOSIG
ZBSJ,2016-12-21 13:00,ZBSJ 211300Z 00000MPS 0700 R15/0900U -RA FG NSC 01/01 Q1024 NOSIG
ZBSJ,2016-12-21 14:00,ZBSJ 211400Z 31001MPS 0700 R15/0900U FG NSC 01/01 Q1024 NOSIG
ZBSJ,2016-12-21 15:00,ZBSJ 211500Z 14001MPS 0600 R15/0650N FG NSC 01/01 Q1024 NOSIG
ZBSJ,2016-12-21 16:00,ZBSJ 211600Z 18002MPS 0500 R15/0700N FG NSC 01/01 Q1023 NOSIG
ZBSJ,2016-12-21 17:00,ZBSJ 211700Z 16001MPS 0400 R15/0500N FG NSC 01/01 Q1023 NOSIG
ZBSJ,2016-12-21 18:00,ZBSJ 211800Z 08001MPS 0400 R15/0500N FG NSC 01/01 Q1023 NOSIG
ZBSJ,2016-12-21 19:00,ZBSJ 211900Z 36001MPS 0200 R15/0250N FG NSC 01/01 Q1023 NOSIG
ZBSJ,2016-12-21 20:00,ZBSJ 212000Z 24001MPS 0200 R15/0125N FG NSC 00/00 Q1022 NOSIG
ZBSJ,2016-12-21 21:00,ZBSJ 212100Z 31003MPS 0050 R15/0075N FZFG NSC M02/M02 Q1022 NOSIG
ZBSJ,2016-12-21 22:00,ZBSJ 212200Z 31001MPS 0050 R15/0100N FZFG NSC M02/M02 Q1022 NOSIG
ZBSJ,2016-12-21 23:00,ZBSJ 212300Z 27001MPS 0050 R15/0200N FZFG NSC M03/M03 Q1023 BECMG TL0030 0500 FG
ZBSJ,2016-12-22 00:00,ZBSJ 220000Z 29004MPS 7000 NSC 02/00 Q1023 NOSIG
ZBSJ,2016-12-22 01:00,ZBSJ 220100Z 29004MPS 5000 HZ NSC 05/M03 Q1024 NOSIG
ZBSJ,2016-12-22 02:00,ZBSJ 220200Z 29003MPS 4000 HZ NSC 06/M02 Q1024 NOSIG
ZBSJ,2016-12-22 03:00,ZBSJ 220300Z 28003MPS 240V310 6000 NSC 08/M02 Q1024 NOSIG
ZBSJ,2016-12-22 04:00,ZBSJ 220400Z 32005MPS 280V340 CAVOK 10/M06 Q1023 NOSIG
ZBSJ,2016-12-22 05:00,ZBSJ 220500Z 31006MPS CAVOK 10/M06 Q1022 NOSIG
ZBSJ,2016-12-22 06:00,ZBSJ 220600Z 33006MPS CAVOK 10/M09 Q1021 NOSIG
ZBSJ,2016-12-22 07:00,ZBSJ 220700Z 32006MPS CAVOK 10/M10 Q1021 NOSIG
ZBSJ,2016-12-22 08:00,ZBSJ 220800Z 33005MPS CAVOK 09/M09 Q1021 NOSIG
ZBSJ,2016-12-22 09:00,ZBSJ 220900Z 34004MPS CAVOK 06/M09 Q1022 NOSIG
ZBSJ,2016-12-22 10:00,ZBSJ 221000Z 35003MPS CAVOK 04/M10 Q1022 NOSIG
ZBSJ,2016-12-22 11:00,ZBSJ 221100Z 01003MPS CAVOK 04/M09 Q1023 NOSIG
ZBSJ,2016-12-22 12:00,ZBSJ 221200Z 04002MPS 5000 HZ NSC 01/M05 Q1024 NOSIG
ZBSJ,2016-12-22 13:00,ZBSJ 221300Z 07001MPS 2000 BR NSC M01/M02 Q1025 NOSIG
ZBSJ,2016-12-22 14:00,ZBSJ 221400Z 20001MPS 1800 BR NSC M01/M02 Q1026 NOSIG
ZBSJ,2016-12-22 15:00,ZBSJ 221500Z 28002MPS 1800 BR NSC M01/M02 Q1026 NOSIG
ZBSJ,2016-12-22 16:00,ZBSJ 221600Z 23001MPS 1800 BR NSC M02/M02 Q1027 NOSIG
ZBSJ,2016-12-22 17:00,ZBSJ 221700Z 23002MPS 1800 BR NSC M03/M04 Q1027 NOSIG
ZBSJ,2016-12-22 18:00,ZBSJ 221800Z 30002MPS 3000 BR NSC M03/M05 Q1027 NOSIG
ZBSJ,2016-12-22 19:00,ZBSJ 221900Z 08002MPS 2500 BR NSC M03/M05 Q1028 NOSIG
ZBSJ,2016-12-22 21:00,ZBSJ 222100Z 14002MPS 1600 BR NSC M03/M06 Q1028 NOSIG
ZBSJ,2016-12-22 22:00,ZBSJ 222200Z 11001MPS 2000 BR NSC M04/M07 Q1029 NOSIG
ZBSJ,2016-12-22 23:00,ZBSJ 222300Z 04001MPS 2200 BR NSC M05/M07 Q1030 BECMG 3000
ZBSJ,2016-12-23 00:00,ZBSJ 230000Z 05001MPS 1800 BR NSC M05/M08 Q1031 BECMG TL0130 3000
ZBSJ,2016-12-23 01:00,ZBSJ 230100Z 07001MPS 1800 BR NSC M03/M06 Q1032 BECMG TL0230 3000
ZBSJ,2016-12-23 02:00,ZBSJ 230200Z 08002MPS 2000 HZ NSC M01/M07 Q1032 BECMG TL0330 3000
ZBSJ,2016-12-23 03:00,ZBSJ 230300Z 11002MPS 080V140 5000 HZ NSC 00/M10 Q1033 NOSIG
ZBSJ,2016-12-23 04:00,ZBSJ 230400Z 13003MPS 5000 HZ NSC 01/M10 Q1031 NOSIG
ZBSJ,2016-12-23 05:00,ZBSJ 230500Z 15003MPS 110V190 9000 NSC 02/M10 Q1030 NOSIG
ZBSJ,2016-12-23 06:00,ZBSJ 230600Z 13002MPS 090V180 8000 NSC 03/M09 Q1030 NOSIG
ZBSJ,2016-12-23 07:00,ZBSJ 230700Z 16003MPS 130V190 CAVOK 03/M10 Q1029 NOSIG
ZBSJ,2016-12-23 08:00,ZBSJ 230800Z 15002MPS CAVOK 03/M08 Q1029 NOSIG
ZBSJ,2016-12-23 09:00,ZBSJ 230900Z 18001MPS 5000 HZ NSC 01/M07 Q1029 NOSIG
ZBSJ,2016-12-23 10:00,ZBSJ 231000Z 19002MPS 4500 HZ NSC M01/M05 Q1029 NOSIG
ZBSJ,2016-12-23 11:00,ZBSJ 231100Z 18002MPS 4000 HZ NSC M01/M05 Q1030 NOSIG
ZBSJ,2016-12-23 12:00,ZBSJ 231200Z 17001MPS 4000 BR NSC M01/M05 Q1030 NOSIG
ZBSJ,2016-12-23 13:00,ZBSJ 231300Z 08001MPS 3500 BR NSC M02/M05 Q1030 BECMG TL1430 2500 HZ
ZBSJ,2016-12-23 14:00,ZBSJ 231400Z 07001MPS 2500 BR NSC M03/M05 Q1031 NOSIG
ZBSJ,2016-12-23 15:00,ZBSJ 231500Z 09002MPS 2000 BR NSC M02/M05 Q1031 NOSIG
ZBSJ,2016-12-23 16:00,ZBSJ 231600Z 08002MPS 2000 BR NSC M03/M05 Q1031 NOSIG
ZBSJ,2016-12-23 17:00,ZBSJ 231700Z 00000MPS 2000 BR NSC M03/M05 Q1030 NOSIG
ZBSJ,2016-12-23 18:00,ZBSJ 231800Z 10001MPS 2000 BR NSC M03/M05 Q1030 NOSIG
ZBSJ,2016-12-23 19:00,ZBSJ 231900Z 14001MPS 2200 BR NSC M03/M05 Q1030 NOSIG
ZBSJ,2016-12-23 20:00,ZBSJ 232000Z 06001MPS 2200 BR NSC M03/M05 Q1029 NOSIG
ZBSJ,2016-12-23 21:00,ZBSJ 232100Z 01001MPS 2200 BR NSC M03/M05 Q1029 NOSIG
ZBSJ,2016-12-23 22:00,ZBSJ 232200Z 08001MPS 2200 BR NSC M04/M05 Q1029 NOSIG
ZBSJ,2016-12-23 23:00,ZBSJ 232300Z 00000MPS 2200 BR NSC M04/M05 Q1030 NOSIG
ZBSJ,2016-12-24 00:00,ZBSJ 240000Z 02001MPS 1600 BR NSC M05/M06 Q1030 NOSIG
ZBSJ,2016-12-24 01:00,ZBSJ 240100Z 07001MPS 1600 BR NSC M03/M04 Q1030 BECMG TL0230 1400 BR
ZBSJ,2016-12-24 02:00,ZBSJ 240200Z 04001MPS 1800 BR NSC M01/M04 Q1031 NOSIG
ZBSJ,2016-12-24 03:00,ZBSJ 240300Z 07001MPS 2000 HZ NSC 00/M04 Q1030 NOSIG
ZBSJ,2016-12-24 04:00,ZBSJ 240400Z 07001MPS 3000 HZ NSC 01/M05 Q1029 NOSIG
ZBSJ,2016-12-24 05:00,ZBSJ 240500Z 04001MPS 3000 HZ NSC 01/M05 Q1029 NOSIG
ZBSJ,2016-12-24 06:00,ZBSJ 240600Z 28001MPS 1800 HZ NSC 02/M04 Q1028 NOSIG
ZBSJ,2016-12-24 07:00,ZBSJ 240700Z 21001MPS 1800 HZ NSC 02/M04 Q1028 NOSIG
ZBSJ,2016-12-24 08:00,ZBSJ 240800Z 28002MPS 1500 HZ NSC 01/M04 Q1028 BECMG TL0930 1400 BR
ZBSJ,2016-12-24 09:00,ZBSJ 240900Z 24001MPS 1400 R15/P2000N BR NSC M01/M04 Q1028 BECMG TL1030 1600
ZBSJ,2016-12-24 10:00,ZBSJ 241000Z 31001MPS 2200 BR NSC M01/M04 Q1028 NOSIG
ZBSJ,2016-12-24 11:00,ZBSJ 241100Z 27001MPS 2000 BR NSC M01/M04 Q1029 NOSIG
ZBSJ,2016-12-24 12:00,ZBSJ 241200Z 32001MPS 1800 BR NSC M02/M04 Q1030 NOSIG
ZBSJ,2016-12-24 13:00,ZBSJ 241300Z 33001MPS 1600 BR NSC M02/M03 Q1030 BECMG TL1430 1400 BR
ZBSJ,2016-12-24 14:00,ZBSJ 241400Z 32002MPS 1600 BR NSC M02/M05 Q1030 BECMG TL1530 1400 BR
ZBSJ,2016-12-24 15:00,ZBSJ 241500Z 33002MPS 1600 BR NSC M02/M04 Q1030 NOSIG
ZBSJ,2016-12-24 16:00,ZBSJ 241600Z 01001MPS 1600 BR NSC M02/M04 Q1030 NOSIG
ZBSJ,2016-12-24 17:00,ZBSJ 241700Z 00000MPS 1600 BR NSC M02/M04 Q1029 NOSIG
ZBSJ,2016-12-24 18:00,ZBSJ 241800Z 30001MPS 1600 BR NSC M01/M03 Q1029 NOSIG
ZBSJ,2016-12-24 19:00,ZBSJ 241900Z 30001MPS 1600 BR NSC M01/M03 Q1029 NOSIG
ZBSJ,2016-12-24 20:00,ZBSJ 242000Z 33002MPS 1800 BR NSC M01/M03 Q1029 NOSIG
ZBSJ,2016-12-24 21:00,ZBSJ 242100Z 23001MPS 1800 BR NSC M01/M03 Q1029 NOSIG
ZBSJ,2016-12-24 22:00,ZBSJ 242200Z 24001MPS 1800 BR NSC M01/M02 Q1028 NOSIG
ZBSJ,2016-12-24 23:00,ZBSJ 242300Z 26001MPS 2000 BR NSC M01/M02 Q1029 NOSIG
ZBSJ,2016-12-25 00:00,ZBSJ 250000Z 35001MPS 1800 BR NSC M01/M02 Q1029 NOSIG
ZBSJ,2016-12-25 01:00,ZBSJ 250100Z 34001MPS 1600 BR NSC M00/M02 Q1029 NOSIG
ZBSJ,2016-12-25 02:00,ZBSJ 250200Z 11001MPS 1400 R15/1500D BR NSC 00/M02 Q1030 NOSIG
ZBSJ,2016-12-25 03:00,ZBSJ 250300Z 16001MPS 1400 R15/1400U BR NSC 00/M02 Q1029 NOSIG
ZBSJ,2016-12-25 04:00,ZBSJ 250400Z 16002MPS 1200 R15/1200D BR NSC 01/M02 Q1028 NOSIG
ZBSJ,2016-12-25 05:00,ZBSJ 250500Z 18001MPS 1200 R15/1300U HZ NSC 02/M03 Q1027 NOSIG
ZBSJ,2016-12-25 06:00,ZBSJ 250600Z 15001MPS 1400 R15/1500D HZ NSC 03/M04 Q1027 BECMG TL0730 1600
ZBSJ,2016-12-25 07:00,ZBSJ 250700Z 08001MPS 1500 -SN HZ NSC 03/M02 Q1026 NOSIG
ZBSJ,2016-12-25 08:00,ZBSJ 250800Z 13002MPS 0800 R15/1100N -SN FG NSC 02/M01 Q1026 NOSIG
ZBSJ,2016-12-25 09:00,ZBSJ 250900Z 12001MPS 0800 R15/1300N FG NSC 01/M00 Q1026 NOSIG
ZBSJ,2016-12-25 10:00,ZBSJ 251000Z 08001MPS 1600 BR NSC 01/01 Q1027 NOSIG
ZBSJ,2016-12-25 11:00,ZBSJ 251100Z 06002MPS 1600 BR NSC 01/00 Q1027 NOSIG
ZBSJ,2016-12-25 12:00,ZBSJ 251200Z 07001MPS 1500 BR NSC 01/01 Q1028 BECMG TL1330 1400 BR
ZBSJ,2016-12-25 13:00,ZBSJ 251300Z 08001MPS 1200 R15/1600N BR NSC 01/01 Q1028 NOSIG
ZBSJ,2016-12-25 14:00,ZBSJ 251400Z 02001MPS 1000 R15/1400N -RA BR NSC 01/00 Q1029 NOSIG
ZBSJ,2016-12-25 15:00,ZBSJ 251500Z 07002MPS 1000 R15/1400N BR NSC 01/M00 Q1028 NOSIG
ZBSJ,2016-12-25 16:00,ZBSJ 251600Z 04001MPS 1000 R15/1500U BR NSC 01/M00 Q1029 NOSIG
ZBSJ,2016-12-25 17:00,ZBSJ 251700Z 04002MPS 1000 R15/1400N BR NSC 01/00 Q1028 NOSIG
ZBSJ,2016-12-25 18:00,ZBSJ 251800Z 04001MPS 1000 R15/1300N BR NSC 01/M00 Q1028 NOSIG
ZBSJ,2016-12-25 19:00,ZBSJ 251900Z 02001MPS 0600 R15/0900D -SN FG NSC 00/00 Q1029 NOSIG
ZBSJ,2016-12-25 20:00,ZBSJ 252000Z 01003MPS 0600 R15/0900N -RASN FZFG NSC M00/M00 Q1028 NOSIG
ZBSJ,2016-12-25 21:00,ZBSJ 252100Z 02003MPS 0800 R15/1300N -RASN FZFG NSC M01/M01 Q1029 NOSIG
ZBSJ,2016-12-25 22:00,ZBSJ 252200Z 04002MPS 0800 R15/1200U -SN FZFG NSC M01/M01 Q1029 NOSIG
ZBSJ,2016-12-25 23:00,ZBSJ 252300Z 04001MPS 0800 R15/1000N -SN FZFG NSC M01/M01 Q1030 NOSIG
ZBSJ,2016-12-26 00:00,ZBSJ 260000Z 33001MPS 0600 R15/0900N -SN FZFG OVC046 M01/M01 Q1031 BECMG TL0130 0800
ZBSJ,2016-12-26 01:00,ZBSJ 260100Z 31002MPS 0500 R15/0800N -SN FZFG OVC040 M00/M00 Q1032 NOSIG
ZBSJ,2016-12-26 02:00,ZBSJ 260200Z 29002MPS 0600 R15/0750N -SN FZFG OVC040 M00/M00 Q1033 NOSIG
ZBSJ,2016-12-26 03:00,ZBSJ 260300Z 28003MPS 0500 R15/0650N -SN FG OVC046 00/00 Q1033 NOSIG
ZBSJ,2016-12-26 04:00,ZBSJ 260400Z 28003MPS 0500 R15/0650N FG NSC 01/00 Q1032 NOSIG
ZBSJ,2016-12-26 05:00,ZBSJ 260500Z 28002MPS 0700 R15/0800N FG NSC 01/00 Q1031 NOSIG
ZBSJ,2016-12-26 06:00,ZBSJ 260600Z 29002MPS 1500 R15/1300U BR NSC 02/M00 Q1031 NOSIG
ZBSJ,2016-12-26 07:00,ZBSJ 260700Z 06001MPS 1800 BR NSC 02/M01 Q1031 NOSIG
ZBSJ,2016-12-26 08:00,ZBSJ 260800Z 14003MPS 2000 BR NSC 02/M01 Q1031 NOSIG
ZBSJ,2016-12-26 09:00,ZBSJ 260900Z 00000MPS 2000 BR NSC 01/M01 Q1032 NOSIG
ZBSJ,2016-12-26 10:00,ZBSJ 261000Z 20001MPS 2500 BR NSC 01/M01 Q1032 BECMG TL1130 3000
ZBSJ,2016-12-26 11:00,ZBSJ 261100Z 19002MPS 2500 BR NSC M00/M01 Q1033 NOSIG
ZBSJ,2016-12-26 12:00,ZBSJ 261200Z 18001MPS 2500 BR NSC M01/M01 Q1033 NOSIG
ZBSJ,2016-12-26 13:00,ZBSJ 261300Z 20002MPS 2000 BR NSC M02/M02 Q1033 NOSIG
ZBSJ,2016-12-26 14:00,ZBSJ 261400Z 17003MPS 2000 BR NSC M03/M03 Q1033 NOSIG
ZBSJ,2016-12-26 15:00,ZBSJ 261500Z 18003MPS 2000 BR NSC M03/M03 Q1033 NOSIG
ZBSJ,2016-12-26 16:00,ZBSJ 261600Z 18002MPS 2500 BR NSC M02/M03 Q1033 NOSIG
ZBSJ,2016-12-26 17:00,ZBSJ 261700Z 14001MPS 2200 BR NSC M03/M03 Q1033 NOSIG
ZBSJ,2016-12-26 18:00,ZBSJ 261800Z 19001MPS 1800 BR NSC M05/M05 Q1033 NOSIG
ZBSJ,2016-12-26 19:00,ZBSJ 261900Z 31001MPS 1800 BR NSC M03/M03 Q1034 NOSIG
ZBSJ,2016-12-26 20:00,ZBSJ 262000Z 33002MPS 1400 R15/1400D BR NSC M04/M04 Q1034 NOSIG
ZBSJ,2016-12-26 21:00,ZBSJ 262100Z 29002MPS 0500 R15/0150N FZFG NSC M07/M07 Q1034 NOSIG
ZBSJ,2016-12-26 22:00,ZBSJ 262200Z 35001MPS 0100 R15/0125N FZFG NSC M05/M05 Q1035 NOSIG
ZBSJ,2016-12-26 23:00,ZBSJ 262300Z 00000MPS 0100 R15/0100N FZFG NSC M07/M07 Q1035 NOSIG
ZBSJ,2016-12-27 00:00,ZBSJ 270000Z 32001MPS 0500 R15/0150V0300D FZFG NSC M08/M08 Q1036 BECMG TL0130 0700
ZBSJ,2016-12-27 01:00,ZBSJ 270100Z 10001MPS 0700 R15/0650D FZFG NSC M04/M04 Q1037 BECMG TL0230 0800
ZBSJ,2016-12-27 02:00,ZBSJ 270200Z 12002MPS 0100 R15/0125N FZFG VV006 M04/M04 Q1037 NOSIG
ZBSJ,2016-12-27 03:00,ZBSJ 270300Z 13002MPS 0100 R15/0175N FZFG VV006 M03/M03 Q1037 NOSIG
ZBSJ,2016-12-27 04:00,ZBSJ 270400Z 19001MPS 0400 R15/0400V0700U FZFG NSC M01/M01 Q1036 BECMG TL0530 1800 BR
ZBSJ,2016-12-27 05:00,ZBSJ 270500Z 14002MPS 5000 HZ NSC 01/M04 Q1035 NOSIG
ZBSJ,2016-12-27 06:00,ZBSJ 270600Z 11003MPS 4500 HZ NSC 02/M07 Q1034 NOSIG
ZBSJ,2016-12-27 07:00,ZBSJ 270700Z 10003MPS 4500 HZ NSC 02/M07 Q1033 NOSIG
ZBSJ,2016-12-27 08:00,ZBSJ 270800Z 12003MPS 8000 NSC 02/M08 Q1033 NOSIG
ZBSJ,2016-12-27 09:00,ZBSJ 270900Z 15003MPS 4000 HZ NSC M02/M06 Q1032 NOSIG
ZBSJ,2016-12-27 10:00,ZBSJ 271000Z 15004MPS 4000 BR NSC M02/M04 Q1032 BECMG TL1130 2800 BR
ZBSJ,2016-12-27 11:00,ZBSJ 271100Z 15003MPS 2000 BR NSC M03/M03 Q1033 NOSIG
ZBSJ,2016-12-27 12:00,ZBSJ 271200Z 16003MPS 1600 BR NSC M04/M04 Q1033 BECMG TL1330 1400 BR
ZBSJ,2016-12-27 13:00,ZBSJ 271300Z 15003MPS 1600 BR NSC M04/M04 Q1033 NOSIG
ZBSJ,2016-12-27 14:00,ZBSJ 271400Z 13002MPS 1500 BR NSC M03/M03 Q1032 BECMG TL1530 1400 BR
ZBSJ,2016-12-27 15:00,ZBSJ 271500Z 16003MPS 1800 BR NSC M02/M02 Q1032 NOSIG
ZBSJ,2016-12-27 16:00,ZBSJ 271600Z 16003MPS 1800 BR NSC M02/M03 Q1032 NOSIG
ZBSJ,2016-12-27 17:00,ZBSJ 271700Z 18003MPS 1800 BR NSC M02/M03 Q1031 NOSIG
ZBSJ,2016-12-27 18:00,ZBSJ 271800Z 18002MPS 1800 BR NSC M03/M03 Q1031 NOSIG
ZBSJ,2016-12-27 19:00,ZBSJ 271900Z 24003MPS 1400 R15/1500N BR NSC M04/M04 Q1031 NOSIG
ZBSJ,2016-12-27 20:00,ZBSJ 272000Z 22003MPS 1400 R15/1400U BR NSC M04/M04 Q1030 NOSIG
ZBSJ,2016-12-27 21:00,ZBSJ 272100Z 23003MPS 1600 BR NSC M04/M04 Q1030 NOSIG
ZBSJ,2016-12-27 22:00,ZBSJ 272200Z 28003MPS 1600 BR NSC M04/M05 Q1029 NOSIG
ZBSJ,2016-12-27 23:00,ZBSJ 272300Z 22002MPS 1700 BR NSC M04/M05 Q1030 NOSIG
ZBSJ,2016-12-28 00:00,ZBSJ 280000Z 33002MPS 1200 R15/1500D BR NSC M04/M05 Q1030 NOSIG
ZBSJ,2016-12-28 01:00,ZBSJ 280100Z 21001MPS 1200 R15/1200N BR NSC M04/M05 Q1031 BECMG TL0230 1500
ZBSJ,2016-12-28 02:00,ZBSJ 280200Z 08001MPS 1200 R15/1100N BR NSC M04/M05 Q1032 BECMG TL0330 1500
ZBSJ,2016-12-28 03:00,ZBSJ 280300Z 07001MPS 1200 R15/1100D BR NSC M03/M05 Q1032 BECMG TL0430 1500
ZBSJ,2016-12-28 04:00,ZBSJ 280400Z 04002MPS 360V070 1200 R15/1000N BR NSC M02/M04 Q1032 BECMG TL0530 1500
ZBSJ,2016-12-28 05:00,ZBSJ 280500Z 05002MPS 1200 R15/1200N BR NSC M01/M04 Q1031 BECMG TL0630 1500
ZBSJ,2016-12-28 06:00,ZBSJ 280600Z 05002MPS 020V100 1500 R15/1400D HZ NSC M00/M04 Q1031 NOSIG
ZBSJ,2016-12-28 07:00,ZBSJ 280700Z 10002MPS 1300 R15/1400N HZ NSC M00/M04 Q1031 NOSIG
ZBSJ,2016-12-28 08:00,ZBSJ 280800Z 09002MPS 1300 R15/1600D HZ NSC M01/M04 Q1032 BECMG TL0930 1500
ZBSJ,2016-12-28 09:00,ZBSJ 280900Z 05002MPS 1500 HZ NSC M02/M04 Q1033 NOSIG
ZBSJ,2016-12-28 10:00,ZBSJ 281000Z 05001MPS 1800 BR NSC M03/M05 Q1034 NOSIG
ZBSJ,2016-12-28 11:00,ZBSJ 281100Z 33002MPS 2200 BR NSC M05/M06 Q1035 NOSIG
ZBSJ,2016-12-28 12:00,ZBSJ 281200Z 29001MPS 2200 BR NSC M04/M06 Q1036 NOSIG
ZBSJ,2016-12-28 13:00,ZBSJ 281300Z 23002MPS 1800 BR NSC M05/M06 Q1037 NOSIG
ZBSJ,2016-12-28 14:00,ZBSJ 281400Z 25002MPS 1800 BR NSC M05/M06 Q1037 NOSIG
ZBSJ,2016-12-28 15:00,ZBSJ 281500Z 30002MPS 1800 BR NSC M05/M07 Q1037 NOSIG
ZBSJ,2016-12-28 16:00,ZBSJ 281600Z 22001MPS 1600 BR NSC M06/M07 Q1037 NOSIG
ZBSJ,2016-12-28 17:00,ZBSJ 281700Z 23002MPS 210V270 1600 BR NSC M07/M08 Q1037 NOSIG
ZBSJ,2016-12-28 18:00,ZBSJ 281800Z 22001MPS 1600 BR NSC M07/M08 Q1037 NOSIG
ZBSJ,2016-12-28 19:00,ZBSJ 281900Z 22001MPS 1400 R15/1800D BR NSC M08/M09 Q1037 NOSIG
ZBSJ,2016-12-28 20:00,ZBSJ 282000Z 36001MPS 1400 R15/1500N BR NSC M08/M09 Q1036 NOSIG
ZBSJ,2016-12-28 21:00,ZBSJ 282100Z 00000MPS 1400 R15/1100N BR NSC M09/M09 Q1036 NOSIG
ZBSJ,2016-12-28 22:00,ZBSJ 282200Z 28001MPS 1400 R15/1600U BR NSC M09/M09 Q1036 NOSIG
ZBSJ,2016-12-28 23:00,ZBSJ 282300Z 34002MPS 1400 R15/1400N BR NSC M09/M09 Q1036 NOSIG
ZBSJ,2016-12-29 00:00,ZBSJ 290000Z 32001MPS 1000 R15/1100N BR NSC M07/M07 Q1036 NOSIG
ZBSJ,2016-12-29 01:00,ZBSJ 290100Z 28001MPS 1000 R15/1000N BR NSC M06/M06 Q1037 BECMG TL0230 1500
ZBSJ,2016-12-29 02:00,ZBSJ 290200Z 25001MPS 1500 BR NSC M03/M05 Q1037 NOSIG
ZBSJ,2016-12-29 03:00,ZBSJ 290300Z 28002MPS 1500 HZ NSC M01/M05 Q1036 BECMG TL0430 3000
ZBSJ,2016-12-29 04:00,ZBSJ 290400Z 25002MPS 2800 HZ NSC 01/M07 Q1035 BECMG TL0530 3000
ZBSJ,2016-12-29 05:00,ZBSJ 290500Z 26001MPS 3200 HZ NSC 02/M07 Q1034 NOSIG
ZBSJ,2016-12-29 06:00,ZBSJ 290600Z 15002MPS 120V190 1500 HZ NSC 02/M04 Q1033 BECMG TL0730 1400 HZ
ZBSJ,2016-12-29 07:00,ZBSJ 290700Z 17004MPS 2000 HZ NSC 02/M05 Q1033 NOSIG
ZBSJ,2016-12-29 08:00,ZBSJ 290800Z 13002MPS 1600 HZ NSC 02/M05 Q1032 BECMG TL0930 1400 HZ
ZBSJ,2016-12-29 09:00,ZBSJ 290900Z 16004MPS 2700 HZ NSC M01/M06 Q1032 NOSIG
ZBSJ,2016-12-29 10:00,ZBSJ 291000Z 18006MPS 5000 HZ NSC M00/M05 Q1032 NOSIG
ZBSJ,2016-12-29 11:00,ZBSJ 291100Z 18004MPS 4200 HZ NSC M01/M05 Q1032 NOSIG
ZBSJ,2016-12-29 12:00,ZBSJ 291200Z 18003MPS 3500 BR NSC M02/M06 Q1032 BECMG TL1330 2800 HZ
ZBSJ,2016-12-29 13:00,ZBSJ 291300Z 16002MPS 2800 BR NSC M04/M06 Q1032 NOSIG
ZBSJ,2016-12-29 14:00,ZBSJ 291400Z 12001MPS 2500 BR NSC M04/M06 Q1032 BECMG TL1530 1400 BR
ZBSJ,2016-12-29 15:00,ZBSJ 291500Z 09001MPS 2000 BR NSC M05/M07 Q1032 NOSIG
ZBSJ,2016-12-29 16:00,ZBSJ 291600Z 13001MPS 1800 BR NSC M06/M06 Q1032 NOSIG
ZBSJ,2016-12-29 17:00,ZBSJ 291700Z 00000MPS 2000 BR NSC M06/M07 Q1031 NOSIG
ZBSJ,2016-12-29 18:00,ZBSJ 291800Z 06001MPS 1800 BR NSC M07/M08 Q1031 NOSIG
ZBSJ,2016-12-29 19:00,ZBSJ 291900Z 12001MPS 1600 BR NSC M07/M07 Q1031 NOSIG
ZBSJ,2016-12-29 20:00,ZBSJ 292000Z 06001MPS 1500 BR NSC M08/M08 Q1030 NOSIG
ZBSJ,2016-12-29 21:00,ZBSJ 292100Z 00000MPS 1500 BR NSC M08/M08 Q1030 NOSIG
ZBSJ,2016-12-29 22:00,ZBSJ 292200Z 34002MPS 1500 BR NSC M07/M07 Q1029 NOSIG
ZBSJ,2016-12-29 23:00,ZBSJ 292300Z 33002MPS 1400 R15/1500U BR NSC M07/M08 Q1030 BECMG TL0030 0700 FZFG
ZBSJ,2016-12-30 00:00,ZBSJ 300000Z 09001MPS 0700 R15/0900D FZFG NSC M08/M08 Q1030 BECMG TL0130 1000 BR
ZBSJ,2016-12-30 01:00,ZBSJ 300100Z 00000MPS 0500 R15/0750N FZFG NSC M07/M07 Q1030 BECMG TL0230 0600
ZBSJ,2016-12-30 02:00,ZBSJ 300200Z 01001MPS 0500 R15/0700N FZFG NSC M04/M05 Q1031 NOSIG
ZBSJ,2016-12-30 03:00,ZBSJ 300300Z 04001MPS 0500 R15/0800N FZFG NSC M03/M04 Q1030 BECMG TL0430 0600
ZBSJ,2016-12-30 04:00,ZBSJ 300400Z 09001MPS 0600 R15/0800N FZFG NSC M01/M04 Q1028 NOSIG
ZBSJ,2016-12-30 05:00,ZBSJ 300500Z 16001MPS 0800 R15/1000N HZ NSC 01/M04 Q1028 NOSIG
ZBSJ,2016-12-30 06:00,ZBSJ 300600Z 12002MPS 1100 R15/1100N HZ NSC 01/M05 Q1027 NOSIG
ZBSJ,2016-12-30 07:00,ZBSJ 300700Z 12002MPS 1000 R15/1100N HZ NSC 01/M05 Q1026 NOSIG
ZBSJ,2016-12-30 08:00,ZBSJ 300800Z 15002MPS 1000 R15/1300N HZ NSC 01/M04 Q1027 NOSIG
ZBSJ,2016-12-30 09:00,ZBSJ 300900Z 11001MPS 1000 R15/1300U HZ NSC M01/M04 Q1027 NOSIG
ZBSJ,2016-12-30 10:00,ZBSJ 301000Z 08001MPS 1200 R15/1300U HZ NSC M03/M04 Q1027 NOSIG
ZBSJ,2016-12-30 11:00,ZBSJ 301100Z 00000MPS 1200 R15/1100N BR NSC M03/M04 Q1027 NOSIG
ZBSJ,2016-12-30 12:00,ZBSJ 301200Z 00000MPS 1000 R15/1000U BR NSC M04/M05 Q1028 NOSIG
ZBSJ,2016-12-30 13:00,ZBSJ 301300Z 00000MPS 0800 R15/1200D FZFG NSC M05/M05 Q1027 BECMG TL1430 0700 FZFG
ZBSJ,2016-12-30 14:00,ZBSJ 301400Z 34001MPS 0700 R15/0900N FZFG NSC M04/M04 Q1027 NOSIG
ZBSJ,2016-12-30 15:00,ZBSJ 301500Z 00000MPS 0700 R15/0900N FZFG NSC M05/M05 Q1027 NOSIG
ZBSJ,2016-12-30 16:00,ZBSJ 301600Z 18001MPS 0500 R15/0700N FZFG NSC M05/M05 Q1027 NOSIG
ZBSJ,2016-12-30 17:00,ZBSJ 301700Z 00000MPS 0400 R15/0650N FZFG NSC M06/M06 Q1027 NOSIG
ZBSJ,2016-12-30 18:00,ZBSJ 301800Z 00000MPS 0400 R15/0650N FZFG NSC M06/M06 Q1027 NOSIG
ZBSJ,2016-12-30 19:00,ZBSJ 301900Z 00000MPS 0500 R15/0750N FZFG NSC M07/M07 Q1027 NOSIG
ZBSJ,2016-12-30 20:00,ZBSJ 302000Z 30001MPS 0500 R15/0900N FZFG NSC M08/M08 Q1027 NOSIG
ZBSJ,2016-12-30 21:00,ZBSJ 302100Z 00000MPS 0500 R15/1100N FZFG NSC M08/M09 Q1026 NOSIG
ZBSJ,2016-12-30 22:00,ZBSJ 302200Z 18001MPS 0300 R15/0800V1100D FZFG NSC M09/M09 Q1027 NOSIG
ZBSJ,2016-12-30 23:00,ZBSJ 302300Z 00000MPS 0100 R15/1000N FZFG NSC M09/M10 Q1027 NOSIG
