station,valid,metar
ZBHH,2008-01-01 00:00,ZBHH 010000Z AUTO 02002KT 9SM M15/M20 A3050 RMK SLP450 T11491197 52011 IEM_DS3505
ZBHH,2008-01-01 01:00,ZBHH 010100Z AUTO 10002KT 6SM M21/M25 A3053 RMK T12101250 IEM_DS3505
ZBHH,2008-01-01 02:00,ZBHH 010200Z AUTO 13002KT 6SM M17/M22 A3053 RMK T11701220 IEM_DS3505
ZBHH,2008-01-01 03:00,ZBHH 010300Z AUTO 11002KT 9SM M11/M19 A3053 RMK SLP448 T11081192 52006 IEM_DS3505
ZBHH,2008-01-01 04:00,ZBHH 010400Z AUTO 00000KT 6SM M12/M19 A3050 RMK T11201190 IEM_DS3505
ZBHH,2008-01-01 05:00,ZBHH 010500Z AUTO 00000KT 6SM M10/M19 A3047 RMK T11001190 IEM_DS3505
ZBHH,2008-01-01 06:00,ZBHH 010600Z AUTO 34004KT 6SM M08/M18 A3045 RMK SLP413 T10831176 57025 IEM_DS3505
ZBHH,2008-01-01 07:00,ZBHH 010700Z AUTO 25002KT 6SM M08/M19 A3045 RMK T10801190 IEM_DS3505
ZBHH,2008-01-01 08:00,ZBHH 010800Z AUTO 36002KT 6SM M09/M18 A3042 RMK T10901180 IEM_DS3505
ZBHH,2008-01-01 09:00,ZBHH 010900Z AUTO 00000KT 6SM M08/M19 A3042 RMK SLP410 T10831189 57008 IEM_DS3505
ZBHH,2008-01-01 10:00,ZBHH 011000Z AUTO 07002KT 3SM M12/M19 A3042 RMK T11201190 IEM_DS3505
ZBHH,2008-01-01 11:00,ZBHH 011100Z AUTO 07002KT 3SM M14/M20 A3042 RMK T11401200 IEM_DS3505
ZBHH,2008-01-01 12:00,ZBHH 011200Z AUTO 36002KT 6SM M12/M18 A3042 RMK SLP421 T11191179 57002 IEM_DS3505
ZBHH,2008-01-01 13:00,ZBHH 011300Z AUTO 10004KT 3SM M19/M23 A3042 RMK T11901230 IEM_DS3505
ZBHH,2008-01-01 14:00,ZBHH 011400Z AUTO 08004KT 3SM M18/M22 A3042 RMK T11801220 IEM_DS3505
ZBHH,2008-01-01 15:00,ZBHH 011500Z AUTO 36002KT 7SM M13/M18 A3042 RMK SLP417 T11301182 52004 IEM_DS3505
ZBHH,2008-01-01 16:00,ZBHH 011600Z AUTO 06002KT 4SM M20/M23 A3042 RMK T12001230 IEM_DS3505
ZBHH,2008-01-01 17:00,ZBHH 011700Z AUTO 10002KT 4SM M21/M25 A3039 RMK T12101250 IEM_DS3505
ZBHH,2008-01-01 18:00,ZBHH 011800Z AUTO 09004KT 7SM M15/M19 A3039 RMK SLP400 T11521186 57014 IEM_DS3505
ZBHH,2008-01-01 19:00,ZBHH 011900Z AUTO 09004KT 4SM M21/M24 A3039 RMK T12101240 IEM_DS3505
ZBHH,2008-01-01 20:00,ZBHH 012000Z AUTO 08004KT 4SM M20/M24 A3036 RMK T12001240 IEM_DS3505
ZBHH,2008-01-01 21:00,ZBHH 012100Z AUTO 34002KT 12SM M17/M20 A3033 RMK SLP387 T11701204 57016 IEM_DS3505
ZBHH,2008-01-01 22:00,ZBHH 012200Z AUTO 02002KT 4SM M21/M24 A3033 RMK T12101240 IEM_DS3505
ZBHH,2008-01-01 23:00,ZBHH 012300Z AUTO 09006KT 4SM M22/M25 A3033 RMK T12201250 IEM_DS3505
ZBHH,2008-01-02 00:00,ZBHH 020000Z AUTO 09002KT 6SM M15/M20 A3033 RMK SLP392 T11541195 54000 IEM_DS3505
ZBHH,2008-01-02 01:00,ZBHH 020100Z AUTO 07002KT 3SM M19/M22 A3033 RMK T11901220 IEM_DS3505
ZBHH,2008-01-02 02:00,ZBHH 020200Z AUTO 11004KT 4SM M15/M19 A3030 RMK T11501190 IEM_DS3505
ZBHH,2008-01-02 03:00,ZBHH 020300Z AUTO 07002KT 6SM M09/M17 A3030 RMK SLP370 T10901173 57007 IEM_DS3505
ZBHH,2008-01-02 04:00,ZBHH 020400Z AUTO 19002KT 6SM M10/M19 A3030 RMK T11001190 IEM_DS3505
ZBHH,2008-01-02 05:00,ZBHH 020500Z AUTO 23002KT 6SM M08/M19 A3027 RMK T10801190 IEM_DS3505
ZBHH,2008-01-02 06:00,ZBHH 020600Z AUTO 25004KT 7SM M07/M17 A3024 RMK SLP348 T10711173 57020 IEM_DS3505
ZBHH,2008-01-02 07:00,ZBHH 020700Z AUTO 25002KT 6SM M07/M18 A3024 RMK T10701180 IEM_DS3505
ZBHH,2008-01-02 08:00,ZBHH 020800Z AUTO 36002KT 6SM M08/M18 A3024 RMK T10801180 IEM_DS3505
ZBHH,2008-01-02 09:00,ZBHH 020900Z AUTO 32002KT 7SM M08/M17 A3024 RMK SLP355 T10791167 54000 IEM_DS3505
ZBHH,2008-01-02 10:00,ZBHH 021000Z AUTO 00000KT 2 1/2SM M13/M19 A3027 RMK T11301190 IEM_DS3505
ZBHH,2008-01-02 11:00,ZBHH 021100Z AUTO 06002KT 2SM M16/M21 A3027 RMK T11601210 IEM_DS3505
ZBHH,2008-01-02 12:00,ZBHH 021200Z AUTO 07004KT 4SM M11/M16 A3030 RMK SLP379 T11081163 52018 IEM_DS3505
ZBHH,2008-01-02 13:00,ZBHH 021300Z AUTO 09004KT 2SM M19/M22 A3033 RMK T11901220 IEM_DS3505
ZBHH,2008-01-02 14:00,ZBHH 021400Z AUTO 04002KT 2 1/2SM M18/M21 A3033 RMK T11801210 IEM_DS3505
ZBHH,2008-01-02 15:00,ZBHH 021500Z AUTO 27002KT 6SM M13/M18 A3036 RMK SLP383 T11271177 52014 IEM_DS3505
ZBHH,2008-01-02 16:00,ZBHH 021600Z AUTO 35002KT 2 1/2SM M21/M24 A3033 RMK T12101240 IEM_DS3505
ZBHH,2008-01-02 17:00,ZBHH 021700Z AUTO 18002KT 4SM M21/M24 A3033 RMK T12101240 IEM_DS3505
ZBHH,2008-01-02 18:00,ZBHH 021800Z AUTO 02002KT 6SM M15/M18 A3033 RMK SLP381 T11481181 57002 IEM_DS3505
ZBHH,2008-01-02 19:00,ZBHH 021900Z AUTO 00000KT 4SM M20/M23 A3036 RMK T12001230 IEM_DS3505
ZBHH,2008-01-02 20:00,ZBHH 022000Z AUTO 11004KT 4SM M23/M26 A3033 RMK T12301260 IEM_DS3505
ZBHH,2008-01-02 21:00,ZBHH 022100Z AUTO 14002KT 6SM M15/M19 A3033 RMK SLP384 T11511190 54000 IEM_DS3505
ZBHH,2008-01-02 22:00,ZBHH 022200Z AUTO 12002KT 4SM M23/M27 A3036 RMK T12301270 IEM_DS3505
ZBHH,2008-01-02 23:00,ZBHH 022300Z AUTO 03002KT 4SM M23/M26 A3039 RMK T12301260 IEM_DS3505
ZBHH,2008-01-03 00:00,ZBHH 030000Z AUTO 09004KT 6SM M15/M20 A3039 RMK SLP405 T11511200 52011 IEM_DS3505
ZBHH,2008-01-03 01:00,ZBHH 030100Z AUTO 10004KT 3SM M21/M24 A3039 RMK T12101240 IEM_DS3505
ZBHH,2008-01-03 02:00,ZBHH 030200Z AUTO 09002KT 3SM M16/M20 A3036 RMK T11601200 IEM_DS3505
ZBHH,2008-01-03 03:00,ZBHH 030300Z AUTO 32002KT 9SM M11/M18 A3036 RMK SLP395 T11061181 57002 IEM_DS3505
ZBHH,2008-01-03 04:00,ZBHH 030400Z AUTO 25004KT 3SM M10/M19 A3036 RMK T11001190 IEM_DS3505
ZBHH,2008-01-03 05:00,ZBHH 030500Z AUTO 02002KT 4SM M09/M19 A3030 RMK T10901190 IEM_DS3505
ZBHH,2008-01-03 06:00,ZBHH 030600Z AUTO 04002KT 5SM M06/M18 A3027 RMK SLP356 T10601177 57028 IEM_DS3505
ZBHH,2008-01-03 07:00,ZBHH 030700Z AUTO 21002KT 4SM M07/M19 A3027 RMK T10701190 IEM_DS3505
ZBHH,2008-01-03 08:00,ZBHH 030800Z AUTO 06002KT 4SM M07/M19 A3027 RMK T10701190 IEM_DS3505
ZBHH,2008-01-03 09:00,ZBHH 030900Z AUTO 07006KT 5SM M07/M18 A3027 RMK SLP353 T10711176 57006 IEM_DS3505
ZBHH,2008-01-03 10:00,ZBHH 031000Z AUTO 04002KT 4SM M11/M19 A3024 RMK T11101190 IEM_DS3505
ZBHH,2008-01-03 11:00,ZBHH 031100Z AUTO 05002KT 2 1/2SM M12/M19 A3024 RMK T11201190 IEM_DS3505
ZBHH,2008-01-03 12:00,ZBHH 031200Z AUTO 00000KT 5SM M09/M17 A3024 RMK SLP348 T10861172 57008 IEM_DS3505
ZBHH,2008-01-03 13:00,ZBHH 031300Z AUTO 02002KT 5SM M13/M19 A3024 RMK T11301190 IEM_DS3505
ZBHH,2008-01-03 14:00,ZBHH 031400Z AUTO 11002KT 4SM M15/M21 A3027 RMK T11501210 IEM_DS3505
ZBHH,2008-01-03 15:00,ZBHH 031500Z AUTO 02002KT 6SM M11/M17 A3027 RMK SLP352 T11081172 52009 IEM_DS3505
ZBHH,2008-01-03 16:00,ZBHH 031600Z AUTO 08004KT 6SM M18/M23 A3027 RMK T11801230 IEM_DS3505
ZBHH,2008-01-03 17:00,ZBHH 031700Z AUTO 05004KT 6SM M16/M21 A3024 RMK T11601210 IEM_DS3505
ZBHH,2008-01-03 18:00,ZBHH 031800Z AUTO 04002KT 7SM M12/M18 A3024 RMK SLP333 T11231185 57010 IEM_DS3505
ZBHH,2008-01-03 19:00,ZBHH 031900Z AUTO 09002KT 6SM M20/M24 A3024 RMK T12001240 IEM_DS3505
ZBHH,2008-01-03 20:00,ZBHH 032000Z AUTO 00000KT 6SM M20/M25 A3021 RMK T12001250 IEM_DS3505
ZBHH,2008-01-03 21:00,ZBHH 032100Z AUTO 02002KT 7SM M14/M18 A3021 RMK SLP335 T11391185 57004 IEM_DS3505
ZBHH,2008-01-03 22:00,ZBHH 032200Z AUTO 09004KT 6SM M21/M25 A3021 RMK T12101250 IEM_DS3505
ZBHH,2008-01-03 23:00,ZBHH 032300Z AUTO 00000KT 6SM M21/M25 A3021 RMK T12101250 IEM_DS3505
ZBHH,2008-01-04 00:00,ZBHH 040000Z AUTO 09002KT 6SM M15/M20 A3024 RMK SLP346 T11471202 52004 IEM_DS3505
ZBHH,2008-01-04 01:00,ZBHH 040100Z AUTO 12002KT 3SM M20/M24 A3024 RMK T12001240 IEM_DS3505
ZBHH,2008-01-04 02:00,ZBHH 040200Z AUTO 10002KT 4SM M15/M20 A3024 RMK T11501200 IEM_DS3505
ZBHH,2008-01-04 03:00,ZBHH 040300Z AUTO 07004KT 7SM M10/M19 A3024 RMK SLP344 T10951187 52005 IEM_DS3505
ZBHH,2008-01-04 04:00,ZBHH 040400Z AUTO 16002KT 4SM M10/M19 A3021 RMK T11001190 IEM_DS3505
ZBHH,2008-01-04 05:00,ZBHH 040500Z AUTO 18002KT 4SM M08/M18 A3018 RMK T10801180 IEM_DS3505
ZBHH,2008-01-04 06:00,ZBHH 040600Z AUTO 09002KT 9SM M06/M17 A3015 RMK SLP310 T10571169 57024 IEM_DS3505
ZBHH,2008-01-04 07:00,ZBHH 040700Z AUTO 31002KT 4SM M07/M18 A3015 RMK T10701180 IEM_DS3505
ZBHH,2008-01-04 08:00,ZBHH 040800Z AUTO 01002KT 3SM M07/M18 A3015 RMK T10701180 IEM_DS3505
ZBHH,2008-01-04 09:00,ZBHH 040900Z AUTO 07002KT 9SM M07/M17 A3015 RMK SLP312 T10661171 57004 IEM_DS3505
ZBHH,2008-01-04 10:00,ZBHH 041000Z AUTO 04006KT 3SM M10/M19 A3015 RMK T11001190 IEM_DS3505
ZBHH,2008-01-04 11:00,ZBHH 041100Z AUTO 05002KT 3SM M13/M19 A3018 RMK T11301190 IEM_DS3505
ZBHH,2008-01-04 12:00,ZBHH 041200Z AUTO 29002KT 5SM M10/M17 A3018 RMK SLP331 T11001167 52007 IEM_DS3505
ZBHH,2008-01-04 13:00,ZBHH 041300Z AUTO 03002KT 2 1/2SM M15/M20 A3018 RMK T11501200 IEM_DS3505
ZBHH,2008-01-04 14:00,ZBHH 041400Z AUTO 03004KT 2 1/2SM M17/M21 A3018 RMK T11701210 IEM_DS3505
ZBHH,2008-01-04 15:00,ZBHH 041500Z AUTO 07002KT 5SM M12/M17 A3015 RMK SLP318 T11241173 57005 IEM_DS3505
ZBHH,2008-01-04 16:00,ZBHH 041600Z AUTO 11004KT 4SM M19/M23 A3015 RMK T11901230 IEM_DS3505
ZBHH,2008-01-04 17:00,ZBHH 041700Z AUTO 03002KT 4SM M17/M21 A3012 RMK T11701210 IEM_DS3505
ZBHH,2008-01-04 18:00,ZBHH 041800Z AUTO 09002KT 6SM M14/M17 A3009 RMK SLP288 T11381168 57021 IEM_DS3505
ZBHH,2008-01-04 19:00,ZBHH 041900Z AUTO 11004KT 4SM M19/M23 A3009 RMK T11901230 IEM_DS3505
ZBHH,2008-01-04 20:00,ZBHH 042000Z AUTO 09004KT 4SM M18/M22 A3006 RMK T11801220 IEM_DS3505
ZBHH,2008-01-04 21:00,ZBHH 042100Z AUTO 07002KT 12SM M15/M18 A3009 RMK SLP290 T11461176 57002 IEM_DS3505
ZBHH,2008-01-04 22:00,ZBHH 042200Z AUTO 05002KT 4SM M17/M21 A3006 RMK T11701210 IEM_DS3505
ZBHH,2008-01-04 23:00,ZBHH 042300Z AUTO 08002KT 4SM M19/M22 A3006 RMK T11901220 IEM_DS3505
ZBHH,2008-01-05 00:00,ZBHH 050000Z AUTO 36002KT 6SM M13/M17 A3006 RMK SLP290 T11311172 57004 IEM_DS3505
ZBHH,2008-01-05 01:00,ZBHH 050100Z AUTO 00000KT 3SM M18/M22 A3009 RMK T11801220 IEM_DS3505
ZBHH,2008-01-05 02:00,ZBHH 050200Z AUTO 13002KT 1 1/4SM M14/M19 A3009 RMK T11401190 IEM_DS3505
ZBHH,2008-01-05 03:00,ZBHH 050300Z AUTO 04004KT 5SM M05/M16 A3009 RMK SLP284 T10541160 52007 IEM_DS3505
ZBHH,2008-01-05 04:00,ZBHH 050400Z AUTO 16002KT 5SM M04/M14 A3006 RMK T10401140 IEM_DS3505
ZBHH,2008-01-05 05:00,ZBHH 050500Z AUTO 21002KT 5SM M03/M16 A3003 RMK T10301160 IEM_DS3505
ZBHH,2008-01-05 06:00,ZBHH 050600Z AUTO 00000KT 5SM M02/M15 A3003 RMK SLP259 T10221153 57018 IEM_DS3505
ZBHH,2008-01-05 07:00,ZBHH 050700Z AUTO 28004KT 4SM M03/M16 A3003 RMK T10301160 IEM_DS3505
ZBHH,2008-01-05 08:00,ZBHH 050800Z AUTO 00000KT 4SM M02/M16 A3003 RMK T10201160 IEM_DS3505
ZBHH,2008-01-05 09:00,ZBHH 050900Z AUTO 32002KT 5SM M03/M15 A3003 RMK SLP267 T10291149 52004 IEM_DS3505
ZBHH,2008-01-05 10:00,ZBHH 051000Z AUTO 04002KT 2 1/2SM M08/M16 A3006 RMK T10801160 IEM_DS3505
ZBHH,2008-01-05 11:00,ZBHH 051100Z AUTO 10002KT 2 1/2SM M10/M17 A3009 RMK T11001170 IEM_DS3505
ZBHH,2008-01-05 12:00,ZBHH 051200Z AUTO 00000KT 4SM M08/M14 A3012 RMK SLP300 T10801142 52020 IEM_DS3505
ZBHH,2008-01-05 13:00,ZBHH 051300Z AUTO 08002KT 3SM M14/M19 A3015 RMK T11401190 IEM_DS3505
ZBHH,2008-01-05 14:00,ZBHH 051400Z AUTO 05002KT 2 1/2SM M15/M20 A3015 RMK T11501200 IEM_DS3505
ZBHH,2008-01-05 15:00,ZBHH 051500Z AUTO 07002KT 4SM M10/M15 A3015 RMK SLP297 T10951154 52012 IEM_DS3505
ZBHH,2008-01-05 16:00,ZBHH 051600Z AUTO 02002KT 3SM M17/M20 A3015 RMK T11701200 IEM_DS3505
ZBHH,2008-01-05 17:00,ZBHH 051700Z AUTO 12002KT 3SM M18/M21 A3015 RMK T11801210 IEM_DS3505
ZBHH,2008-01-05 18:00,ZBHH 051800Z AUTO 09002KT 4SM M12/M15 A3015 RMK SLP295 T11221154 57001 IEM_DS3505
ZBHH,2008-01-05 19:00,ZBHH 051900Z AUTO 09004KT M19/M23 A3018 RMK T11901230 IEM_DS3505
ZBHH,2008-01-05 20:00,ZBHH 052000Z AUTO 00000KT 3SM M18/M22 A3018 RMK T11801220 IEM_DS3505
ZBHH,2008-01-05 21:00,ZBHH 052100Z AUTO 36002KT 4SM M13/M17 A3015 RMK SLP299 T11301167 54000 IEM_DS3505
ZBHH,2008-01-05 22:00,ZBHH 052200Z AUTO 08004KT 3SM M18/M22 A3015 RMK T11801220 IEM_DS3505
ZBHH,2008-01-05 23:00,ZBHH 052300Z AUTO 10002KT 3SM M16/M21 A3015 RMK T11601210 IEM_DS3505
ZBHH,2008-01-06 00:00,ZBHH 060000Z AUTO 00000KT 4SM M11/M17 A3015 RMK SLP306 T11111169 57001 IEM_DS3505
ZBHH,2008-01-06 01:00,ZBHH 060100Z AUTO 09006KT 4SM M15/M19 A3015 RMK T11501190 IEM_DS3505
ZBHH,2008-01-06 02:00,ZBHH 060200Z AUTO 05004KT 4SM M09/M16 A3018 RMK T10901160 IEM_DS3505
ZBHH,2008-01-06 03:00,ZBHH 060300Z AUTO 32002KT 6SM M05/M16 A3018 RMK SLP305 T10511160 52009 IEM_DS3505
ZBHH,2008-01-06 04:00,ZBHH 060400Z AUTO 33002KT 6SM M04/M17 A3015 RMK T10401170 IEM_DS3505
ZBHH,2008-01-06 05:00,ZBHH 060500Z AUTO 29002KT 6SM M03/M17 A3012 RMK T10301170 IEM_DS3505
ZBHH,2008-01-06 06:00,ZBHH 060600Z AUTO 27002KT 7SM M02/M16 A3009 RMK SLP270 T10161158 57028 IEM_DS3505
ZBHH,2008-01-06 07:00,ZBHH 060700Z AUTO 00000KT 6SM M02/M17 A3006 RMK T10201170 IEM_DS3505
ZBHH,2008-01-06 08:00,ZBHH 060800Z AUTO 00000KT 5SM M01/M17 A3006 RMK T10101170 IEM_DS3505
ZBHH,2008-01-06 09:00,ZBHH 060900Z AUTO 25002KT 7SM M02/M15 A3009 RMK SLP275 T10221146 52001 IEM_DS3505
ZBHH,2008-01-06 10:00,ZBHH 061000Z AUTO 23002KT 3SM M05/M15 A3009 RMK T10501150 IEM_DS3505
ZBHH,2008-01-06 11:00,ZBHH 061100Z AUTO 24004KT 3SM M07/M15 A3012 RMK T10701150 IEM_DS3505
ZBHH,2008-01-06 12:00,ZBHH 061200Z AUTO 04002KT 6SM M04/M15 A3015 RMK SLP291 T10441154 52013 IEM_DS3505
ZBHH,2008-01-06 13:00,ZBHH 061300Z AUTO 06002KT 3SM M10/M16 A3015 RMK T11001160 IEM_DS3505
ZBHH,2008-01-06 14:00,ZBHH 061400Z AUTO 02002KT 3SM M11/M16 A3015 RMK T11101160 IEM_DS3505
ZBHH,2008-01-06 15:00,ZBHH 061500Z AUTO 25002KT 5SM M09/M14 A3015 RMK SLP296 T10871141 52008 IEM_DS3505
ZBHH,2008-01-06 16:00,ZBHH 061600Z AUTO 03004KT 3SM M13/M17 A3015 RMK T11301170 IEM_DS3505
ZBHH,2008-01-06 17:00,ZBHH 061700Z AUTO 19002KT 4SM M17/M20 A3015 RMK T11701200 IEM_DS3505
ZBHH,2008-01-06 18:00,ZBHH 061800Z AUTO 27002KT 4SM M10/M15 A3015 RMK SLP289 T11011151 57001 IEM_DS3505
ZBHH,2008-01-06 19:00,ZBHH 061900Z AUTO 19004KT 4SM M17/M20 A3015 RMK T11701200 IEM_DS3505
ZBHH,2008-01-06 20:00,ZBHH 062000Z AUTO 14002KT 4SM M16/M19 A3012 RMK T11601190 IEM_DS3505
ZBHH,2008-01-06 21:00,ZBHH 062100Z AUTO 22002KT 5SM M11/M16 A3012 RMK SLP283 T11111157 57009 IEM_DS3505
ZBHH,2008-01-06 22:00,ZBHH 062200Z AUTO 20002KT 4SM M18/M21 A3012 RMK T11801210 IEM_DS3505
ZBHH,2008-01-06 23:00,ZBHH 062300Z AUTO 20002KT 3SM M16/M20 A3015 RMK T11601200 IEM_DS3505
ZBHH,2008-01-07 00:00,ZBHH 070000Z AUTO 07002KT 4SM M12/M16 A3015 RMK SLP300 T11211164 52008 IEM_DS3505
ZBHH,2008-01-07 01:00,ZBHH 070100Z AUTO 04002KT 2SM M17/M21 A3015 RMK T11701210 IEM_DS3505
ZBHH,2008-01-07 02:00,ZBHH 070200Z AUTO 09004KT 3SM M13/M17 A3015 RMK T11301170 IEM_DS3505
ZBHH,2008-01-07 03:00,ZBHH 070300Z AUTO 09006KT 4SM M09/M15 A3015 RMK SLP307 T10911154 52003 IEM_DS3505
ZBHH,2008-01-07 04:00,ZBHH 070400Z AUTO 30002KT 6SM M09/M16 A3012 RMK T10901160 IEM_DS3505
ZBHH,2008-01-07 05:00,ZBHH 070500Z AUTO 31004KT 4SM M07/M15 A3009 RMK T10701150 IEM_DS3505
ZBHH,2008-01-07 06:00,ZBHH 070600Z AUTO 29002KT 5SM M04/M13 A3006 RMK SLP264 T10371131 57029 IEM_DS3505
ZBHH,2008-01-07 07:00,ZBHH 070700Z AUTO 32002KT 6SM M04/M14 A3003 RMK T10401140 IEM_DS3505
ZBHH,2008-01-07 08:00,ZBHH 070800Z AUTO 01002KT 4SM M05/M14 A3003 RMK T10501140 IEM_DS3505
ZBHH,2008-01-07 09:00,ZBHH 070900Z AUTO 09002KT 5SM M04/M14 A3003 RMK SLP257 T10441138 57010 IEM_DS3505
ZBHH,2008-01-07 10:00,ZBHH 071000Z AUTO 00000KT 3SM M09/M16 A3003 RMK T10901160 IEM_DS3505
ZBHH,2008-01-07 11:00,ZBHH 071100Z AUTO 09004KT 2 1/2SM M13/M17 A3006 RMK T11301170 IEM_DS3505
ZBHH,2008-01-07 12:00,ZBHH 071200Z AUTO 25002KT 4SM M07/M14 A3006 RMK SLP277 T10731137 52009 IEM_DS3505
ZBHH,2008-01-07 13:00,ZBHH 071300Z AUTO 00000KT 2 1/2SM M12/M17 A3006 RMK T11201170 IEM_DS3505
ZBHH,2008-01-07 14:00,ZBHH 071400Z AUTO 07002KT 3SM M16/M20 A3006 RMK T11601200 IEM_DS3505
ZBHH,2008-01-07 15:00,ZBHH 071500Z AUTO 02002KT 4SM M09/M14 A3006 RMK SLP275 T10911141 52001 IEM_DS3505
ZBHH,2008-01-07 16:00,ZBHH 071600Z AUTO 06004KT 4SM M16/M19 A3006 RMK T11601190 IEM_DS3505
ZBHH,2008-01-07 17:00,ZBHH 071700Z AUTO 36004KT 4SM M14/M19 A3006 RMK T11401190 IEM_DS3505
ZBHH,2008-01-07 18:00,ZBHH 071800Z AUTO 29002KT 5SM M09/M18 A3006 RMK SLP257 T10871175 57003 IEM_DS3505
ZBHH,2008-01-07 19:00,ZBHH 071900Z AUTO 23002KT 4SM M14/M21 A3006 RMK T11401210 IEM_DS3505
ZBHH,2008-01-07 20:00,ZBHH 072000Z AUTO 00000KT M15/M21 A3003 RMK T11501210 IEM_DS3505
ZBHH,2008-01-07 21:00,ZBHH 072100Z AUTO 00000KT 6SM M11/M17 A3003 RMK SLP256 T11121167 57008 IEM_DS3505
ZBHH,2008-01-07 22:00,ZBHH 072200Z AUTO 00000KT 6SM M17/M21 A3003 RMK T11701210 IEM_DS3505
ZBHH,2008-01-07 23:00,ZBHH 072300Z AUTO 12002KT 5SM M18/M22 A3003 RMK T11801220 IEM_DS3505
ZBHH,2008-01-08 00:00,ZBHH 080000Z AUTO 29002KT 5SM M12/M16 A3003 RMK SLP269 T11191164 52003 IEM_DS3505
ZBHH,2008-01-08 01:00,ZBHH 080100Z AUTO 15002KT 4SM M16/M20 A3003 RMK T11601200 IEM_DS3505
ZBHH,2008-01-08 02:00,ZBHH 080200Z AUTO 15002KT 4SM M11/M18 A3003 RMK T11101180 IEM_DS3505
ZBHH,2008-01-08 03:00,ZBHH 080300Z AUTO 34004KT 5SM M06/M17 A3003 RMK SLP260 T10581167 52002 IEM_DS3505
ZBHH,2008-01-08 04:00,ZBHH 080400Z AUTO 00000KT 6SM M05/M17 A3000 RMK T10501170 IEM_DS3505
ZBHH,2008-01-08 05:00,ZBHH 080500Z AUTO 25002KT 6SM M03/M18 A2997 RMK T10301180 IEM_DS3505
ZBHH,2008-01-08 06:00,ZBHH 080600Z AUTO 22004KT 6SM M02/M16 A2994 RMK SLP216 T10201165 57029 IEM_DS3505
ZBHH,2008-01-08 07:00,ZBHH 080700Z AUTO 23006KT 6SM M02/M17 A2994 RMK T10201170 IEM_DS3505
ZBHH,2008-01-08 08:00,ZBHH 080800Z AUTO 24004KT 6SM M03/M17 A2994 RMK T10301170 IEM_DS3505
ZBHH,2008-01-08 09:00,ZBHH 080900Z AUTO 22002KT 9SM M03/M16 A2994 RMK SLP219 T10281158 57004 IEM_DS3505
ZBHH,2008-01-08 10:00,ZBHH 081000Z AUTO 00000KT 4SM M07/M17 A2994 RMK T10701170 IEM_DS3505
ZBHH,2008-01-08 11:00,ZBHH 081100Z AUTO 03006KT 2SM M08/M16 A2994 RMK T10801160 IEM_DS3505
ZBHH,2008-01-08 12:00,ZBHH 081200Z AUTO 29002KT 6SM M04/M16 A2997 RMK SLP235 T10431159 52009 IEM_DS3505
ZBHH,2008-01-08 13:00,ZBHH 081300Z AUTO 36006KT 6SM M07/M18 A2997 RMK T10701180 IEM_DS3505
ZBHH,2008-01-08 14:00,ZBHH 081400Z AUTO 36010KT 6SM M08/M18 A3000 RMK T10801180 IEM_DS3505
ZBHH,2008-01-08 15:00,ZBHH 081500Z AUTO 32004KT 12SM M07/M19 A3003 RMK SLP246 T10711187 52017 IEM_DS3505
ZBHH,2008-01-08 16:00,ZBHH 081600Z AUTO 36008KT 6SM M09/M20 A3003 RMK T10901200 IEM_DS3505
ZBHH,2008-01-08 17:00,ZBHH 081700Z AUTO 36006KT 6SM M11/M22 A3006 RMK T11101220 IEM_DS3505
ZBHH,2008-01-08 18:00,ZBHH 081800Z AUTO 04004KT 12SM M10/M22 A3006 RMK SLP261 T11001223 52015 IEM_DS3505
ZBHH,2008-01-08 19:00,ZBHH 081900Z AUTO 03004KT 6SM M14/M23 A3009 RMK T11401230 IEM_DS3505
ZBHH,2008-01-08 20:00,ZBHH 082000Z AUTO 36006KT 6SM M15/M24 A3009 RMK T11501240 IEM_DS3505
ZBHH,2008-01-08 21:00,ZBHH 082100Z AUTO 36002KT 19SM M12/M24 A3009 RMK SLP280 T11231243 52009 IEM_DS3505
ZBHH,2008-01-08 22:00,ZBHH 082200Z AUTO 08004KT 6SM M17/M24 A3012 RMK T11701240 IEM_DS3505
ZBHH,2008-01-08 23:00,ZBHH 082300Z AUTO 07004KT 6SM M17/M25 A3012 RMK T11701250 IEM_DS3505
ZBHH,2008-01-09 00:00,ZBHH 090000Z AUTO 27002KT 19SM M14/M24 A3012 RMK SLP297 T11381242 52008 IEM_DS3505
ZBHH,2008-01-09 01:00,ZBHH 090100Z AUTO 11004KT 6SM M16/M24 A3012 RMK T11601240 IEM_DS3505
ZBHH,2008-01-09 02:00,ZBHH 090200Z AUTO 09004KT 6SM M13/M24 A3012 RMK T11301240 IEM_DS3505
ZBHH,2008-01-09 03:00,ZBHH 090300Z AUTO 04004KT 19SM M08/M24 A3012 RMK SLP290 T10841237 54000 IEM_DS3505
ZBHH,2008-01-09 04:00,ZBHH 090400Z AUTO 08004KT 6SM M08/M25 A3009 RMK T10801250 IEM_DS3505
ZBHH,2008-01-09 05:00,ZBHH 090500Z AUTO 35002KT 6SM M07/M25 A3006 RMK T10701250 IEM_DS3505
ZBHH,2008-01-09 06:00,ZBHH 090600Z AUTO 20004KT 19SM M05/M24 A3006 RMK SLP263 T10521236 57023 IEM_DS3505
ZBHH,2008-01-09 07:00,ZBHH 090700Z AUTO 23004KT 6SM M06/M25 A3003 RMK T10601250 IEM_DS3505
ZBHH,2008-01-09 08:00,ZBHH 090800Z AUTO 24002KT 6SM M05/M26 A3003 RMK T10501260 IEM_DS3505
ZBHH,2008-01-09 09:00,ZBHH 090900Z AUTO 25002KT 19SM M06/M23 A3003 RMK SLP266 T10601233 57004 IEM_DS3505
ZBHH,2008-01-09 10:00,ZBHH 091000Z AUTO 02002KT 6SM M09/M24 A3006 RMK T10901240 IEM_DS3505
ZBHH,2008-01-09 11:00,ZBHH 091100Z AUTO 5SM M12/M22 A3006 RMK T11201220 IEM_DS3505
ZBHH,2008-01-09 12:00,ZBHH 091200Z AUTO 32002KT 16SM M10/M20 A3006 RMK SLP289 T10951200 52008 IEM_DS3505
ZBHH,2008-01-09 13:00,ZBHH 091300Z AUTO 11004KT 6SM M15/M23 A3009 RMK T11501230 IEM_DS3505
ZBHH,2008-01-09 14:00,ZBHH 091400Z AUTO 09002KT 6SM M16/M24 A3009 RMK T11601240 IEM_DS3505
ZBHH,2008-01-09 15:00,ZBHH 091500Z AUTO 07004KT 16SM M11/M20 A3009 RMK SLP290 T11111195 52010 IEM_DS3505
ZBHH,2008-01-09 16:00,ZBHH 091600Z AUTO 09006KT 6SM M19/M25 A3012 RMK T11901250 IEM_DS3505
ZBHH,2008-01-09 17:00,ZBHH 091700Z AUTO 10004KT 6SM M18/M25 A3009 RMK T11801250 IEM_DS3505
ZBHH,2008-01-09 18:00,ZBHH 091800Z AUTO 22002KT 16SM M13/M22 A3009 RMK SLP287 T11301217 54000 IEM_DS3505
ZBHH,2008-01-09 19:00,ZBHH 091900Z AUTO 09004KT 6SM M19/M25 A3009 RMK T11901250 IEM_DS3505
ZBHH,2008-01-09 20:00,ZBHH 092000Z AUTO 08002KT 6SM M18/M25 A3006 RMK T11801250 IEM_DS3505
ZBHH,2008-01-09 21:00,ZBHH 092100Z AUTO 00000KT 16SM M14/M21 A3006 RMK SLP277 T11381209 57012 IEM_DS3505
ZBHH,2008-01-09 22:00,ZBHH 092200Z AUTO 05004KT 6SM M18/M25 A3006 RMK T11801250 IEM_DS3505
ZBHH,2008-01-09 23:00,ZBHH 092300Z AUTO 09004KT 6SM M17/M25 A3006 RMK T11701250 IEM_DS3505
ZBHH,2008-01-10 00:00,ZBHH 100000Z AUTO 25002KT 12SM M12/M20 A3009 RMK SLP298 T11251201 52013 IEM_DS3505
ZBHH,2008-01-10 01:00,ZBHH 100100Z AUTO 08002KT 6SM M15/M22 A3009 RMK T11501220 IEM_DS3505
ZBHH,2008-01-10 02:00,ZBHH 100200Z AUTO 10002KT 6SM M12/M20 A3009 RMK T11201200 IEM_DS3505
ZBHH,2008-01-10 03:00,ZBHH 100300Z AUTO 25004KT 4SM M09/M17 A3009 RMK SLP292 T10861169 54000 IEM_DS3505
ZBHH,2008-01-10 04:00,ZBHH 100400Z AUTO 24002KT 6SM M07/M21 A3009 RMK T10701210 IEM_DS3505
ZBHH,2008-01-10 05:00,ZBHH 100500Z AUTO 33004KT 6SM M07/M21 A3006 RMK T10701210 IEM_DS3505
ZBHH,2008-01-10 06:00,ZBHH 100600Z AUTO 25002KT 7SM M04/M20 A3003 RMK SLP266 T10441202 57017 IEM_DS3505
ZBHH,2008-01-10 07:00,ZBHH 100700Z AUTO 33002KT 6SM M05/M22 A3003 RMK T10501220 IEM_DS3505
ZBHH,2008-01-10 08:00,ZBHH 100800Z AUTO 11002KT 6SM M05/M20 A3003 RMK T10501200 IEM_DS3505
ZBHH,2008-01-10 09:00,ZBHH 100900Z AUTO 09002KT 7SM M04/M20 A3003 RMK SLP264 T10401198 57003 IEM_DS3505
ZBHH,2008-01-10 10:00,ZBHH 101000Z AUTO 02002KT 6SM M06/M20 A3003 RMK T10601200 IEM_DS3505
ZBHH,2008-01-10 11:00,ZBHH 101100Z AUTO 02004KT 6SM M07/M22 A3006 RMK T10701220 IEM_DS3505
ZBHH,2008-01-10 12:00,ZBHH 101200Z AUTO 34002KT 9SM M05/M18 A3006 RMK SLP275 T10541181 52010 IEM_DS3505
ZBHH,2008-01-10 13:00,ZBHH 101300Z AUTO 03002KT 6SM M10/M19 A3009 RMK T11001190 IEM_DS3505
ZBHH,2008-01-10 14:00,ZBHH 101400Z AUTO 04002KT 6SM M12/M19 A3012 RMK T11201190 IEM_DS3505
ZBHH,2008-01-10 15:00,ZBHH 101500Z AUTO 00000KT 5SM M08/M17 A3012 RMK SLP294 T10851171 52018 IEM_DS3505
ZBHH,2008-01-10 16:00,ZBHH 101600Z AUTO 09004KT 6SM M15/M20 A3012 RMK T11501200 IEM_DS3505
ZBHH,2008-01-10 17:00,ZBHH 101700Z AUTO 09004KT 6SM M15/M20 A3015 RMK T11501200 IEM_DS3505
ZBHH,2008-01-10 18:00,ZBHH 101800Z AUTO 09002KT 6SM M09/M19 A3012 RMK SLP285 T10941194 54000 IEM_DS3505
ZBHH,2008-01-10 19:00,ZBHH 101900Z AUTO 10002KT 6SM M15/M21 A3015 RMK T11501210 IEM_DS3505
ZBHH,2008-01-10 20:00,ZBHH 102000Z AUTO 36002KT 6SM M16/M22 A3015 RMK T11601220 IEM_DS3505
ZBHH,2008-01-10 21:00,ZBHH 102100Z AUTO 07002KT 6SM M12/M20 A3015 RMK SLP301 T11171205 52009 IEM_DS3505
ZBHH,2008-01-10 22:00,ZBHH 102200Z AUTO 04004KT 6SM M15/M23 A3015 RMK T11501230 IEM_DS3505
ZBHH,2008-01-10 23:00,ZBHH 102300Z AUTO 06004KT 6SM M14/M23 A3018 RMK T11401230 IEM_DS3505
ZBHH,2008-01-11 00:00,ZBHH 110000Z AUTO 09002KT 6SM M11/M22 A3021 RMK SLP321 T11111223 52016 IEM_DS3505
ZBHH,2008-01-11 01:00,ZBHH 110100Z AUTO 07002KT 6SM M14/M23 A3024 RMK T11401230 IEM_DS3505
ZBHH,2008-01-11 02:00,ZBHH 110200Z AUTO 31002KT 6SM M09/M22 A3024 RMK T10901220 IEM_DS3505
ZBHH,2008-01-11 03:00,ZBHH 110300Z AUTO 07010KT 12SM M06/M23 A3027 RMK SLP333 T10561230 52016 IEM_DS3505
ZBHH,2008-01-11 04:00,ZBHH 110400Z AUTO 27002KT 6SM M06/M23 A3024 RMK T10601230 IEM_DS3505
ZBHH,2008-01-11 05:00,ZBHH 110500Z AUTO 00000KT 6SM M05/M23 A3024 RMK T10501230 IEM_DS3505
ZBHH,2008-01-11 06:00,ZBHH 110600Z AUTO 04006KT 19SM M04/M23 A3021 RMK SLP321 T10401231 57009 IEM_DS3505
ZBHH,2008-01-11 07:00,ZBHH 110700Z AUTO 02006G16KT 6SM M04/M23 A3021 RMK T10401230 IEM_DS3505
ZBHH,2008-01-11 08:00,ZBHH 110800Z AUTO 01010KT 6SM M06/M24 A3024 RMK T10601240 IEM_DS3505
ZBHH,2008-01-11 09:00,ZBHH 110900Z AUTO 04004KT 19SM M06/M24 A3027 RMK SLP343 T10591237 52010 IEM_DS3505
ZBHH,2008-01-11 10:00,ZBHH 111000Z AUTO 35010KT 6SM M09/M24 A3030 RMK T10901240 IEM_DS3505
ZBHH,2008-01-11 11:00,ZBHH 111100Z AUTO 35010G19KT 6SM M10/M25 A3033 RMK T11001250 IEM_DS3505
ZBHH,2008-01-11 12:00,ZBHH 111200Z AUTO 02002KT 19SM M09/M25 A3036 RMK SLP384 T10901250 52030 IEM_DS3505
ZBHH,2008-01-11 13:00,ZBHH 111300Z AUTO 36008KT 6SM M12/M27 A3039 RMK T11201270 IEM_DS3505
ZBHH,2008-01-11 14:00,ZBHH 111400Z AUTO 02004KT 6SM M13/M28 A3042 RMK T11301280 IEM_DS3505
ZBHH,2008-01-11 15:00,ZBHH 111500Z AUTO 34004KT 19SM M12/M27 A3042 RMK SLP401 T11171266 52021 IEM_DS3505
ZBHH,2008-01-11 16:00,ZBHH 111600Z AUTO 36006KT 6SM M14/M27 A3045 RMK T11401270 IEM_DS3505
ZBHH,2008-01-11 17:00,ZBHH 111700Z AUTO 08006KT 6SM M15/M26 A3045 RMK T11501260 IEM_DS3505
ZBHH,2008-01-11 18:00,ZBHH 111800Z AUTO 11002KT 19SM M12/M25 A3045 RMK SLP401 T11211254 52003 IEM_DS3505
ZBHH,2008-01-11 19:00,ZBHH 111900Z AUTO 10004KT 6SM M17/M26 A3045 RMK T11701260 IEM_DS3505
ZBHH,2008-01-11 20:00,ZBHH 112000Z AUTO 10006KT 6SM M18/M26 A3045 RMK T11801260 IEM_DS3505
ZBHH,2008-01-11 21:00,ZBHH 112100Z AUTO 09004KT 19SM M14/M25 A3045 RMK SLP410 T11351254 54000 IEM_DS3505
ZBHH,2008-01-11 22:00,ZBHH 112200Z AUTO 09006KT 6SM M18/M27 A3045 RMK T11801270 IEM_DS3505
ZBHH,2008-01-11 23:00,ZBHH 112300Z AUTO 07004KT 6SM M18/M27 A3045 RMK T11801270 IEM_DS3505
ZBHH,2008-01-12 00:00,ZBHH 120000Z AUTO 11002KT 19SM M15/M25 A3045 RMK SLP428 T11501253 52005 IEM_DS3505
ZBHH,2008-01-12 01:00,ZBHH 120100Z AUTO 09008KT 6SM M16/M26 A3047 RMK T11601260 IEM_DS3505
ZBHH,2008-01-12 02:00,ZBHH 120200Z AUTO 09004KT 6SM M13/M26 A3047 RMK T11301260 IEM_DS3505
ZBHH,2008-01-12 03:00,ZBHH 120300Z AUTO 16002KT 16SM M10/M26 A3047 RMK SLP434 T10971256 52011 IEM_DS3505
ZBHH,2008-01-12 04:00,ZBHH 120400Z AUTO 10004KT 6SM M10/M26 A3047 RMK T11001260 IEM_DS3505
ZBHH,2008-01-12 05:00,ZBHH 120500Z AUTO 05002KT 6SM M09/M26 A3045 RMK T10901260 IEM_DS3505
ZBHH,2008-01-12 06:00,ZBHH 120600Z AUTO 02004KT 16SM M06/M23 A3042 RMK SLP402 T10591232 57020 IEM_DS3505
ZBHH,2008-01-12 07:00,ZBHH 120700Z AUTO 11004KT 6SM M07/M25 A3042 RMK T10701250 IEM_DS3505
ZBHH,2008-01-12 08:00,ZBHH 120800Z AUTO 08004KT 6SM M07/M25 A3042 RMK T10701250 IEM_DS3505
ZBHH,2008-01-12 09:00,ZBHH 120900Z AUTO 04004KT 16SM M06/M23 A3045 RMK SLP405 T10621230 57001 IEM_DS3505
ZBHH,2008-01-12 10:00,ZBHH 121000Z AUTO 08002KT 6SM M09/M25 A3047 RMK T10901250 IEM_DS3505
ZBHH,2008-01-12 11:00,ZBHH 121100Z AUTO 12006KT 6SM M10/M24 A3047 RMK T11001240 IEM_DS3505
ZBHH,2008-01-12 12:00,ZBHH 121200Z AUTO 09006KT 16SM M08/M23 A3047 RMK SLP432 T10801233 52016 IEM_DS3505
ZBHH,2008-01-12 13:00,ZBHH 121300Z AUTO 08004KT 6SM M14/M24 A3047 RMK T11401240 IEM_DS3505
ZBHH,2008-01-12 14:00,ZBHH 121400Z AUTO 08004KT 6SM M13/M24 A3050 RMK T11301240 IEM_DS3505
ZBHH,2008-01-12 15:00,ZBHH 121500Z AUTO 09004KT 16SM M10/M23 A3047 RMK SLP427 T10971233 52004 IEM_DS3505
ZBHH,2008-01-12 16:00,ZBHH 121600Z AUTO 08006KT 6SM M13/M25 A3047 RMK T11301250 IEM_DS3505
ZBHH,2008-01-12 17:00,ZBHH 121700Z AUTO 10004KT 6SM M14/M24 A3047 RMK T11401240 IEM_DS3505
ZBHH,2008-01-12 18:00,ZBHH 121800Z AUTO 11002KT 16SM M11/M24 A3047 RMK SLP416 T11101241 57004 IEM_DS3505
ZBHH,2008-01-12 19:00,ZBHH 121900Z AUTO 00000KT 6SM M15/M24 A3047 RMK T11501240 IEM_DS3505
ZBHH,2008-01-12 20:00,ZBHH 122000Z AUTO 10006KT 6SM M16/M24 A3045 RMK T11601240 IEM_DS3505
ZBHH,2008-01-12 21:00,ZBHH 122100Z AUTO 09002KT 12SM M12/M23 A3042 RMK SLP402 T11241232 57016 IEM_DS3505
ZBHH,2008-01-12 22:00,ZBHH 122200Z AUTO 13002KT 6SM M15/M25 A3042 RMK T11501250 IEM_DS3505
ZBHH,2008-01-12 23:00,ZBHH 122300Z AUTO 09004KT 6SM M17/M24 A3042 RMK T11701240 IEM_DS3505
ZBHH,2008-01-13 00:00,ZBHH 130000Z AUTO 04004KT 5SM M13/M24 A3042 RMK SLP410 T11291237 52001 IEM_DS3505
ZBHH,2008-01-13 01:00,ZBHH 130100Z AUTO 08002KT 6SM M15/M23 A3042 RMK T11501230 IEM_DS3505
ZBHH,2008-01-13 02:00,ZBHH 130200Z AUTO 08006KT 6SM M12/M24 A3042 RMK T11201240 IEM_DS3505
ZBHH,2008-01-13 03:00,ZBHH 130300Z AUTO 07002KT 6SM M09/M22 A3042 RMK SLP400 T10921225 57004 IEM_DS3505
ZBHH,2008-01-13 04:00,ZBHH 130400Z AUTO 07002KT 6SM M09/M25 A3039 RMK T10901250 IEM_DS3505
ZBHH,2008-01-13 05:00,ZBHH 130500Z AUTO 07002KT 6SM M08/M26 A3036 RMK T10801260 IEM_DS3505
ZBHH,2008-01-13 06:00,ZBHH 130600Z AUTO 11004KT 6SM M05/M25 A3033 RMK SLP365 T10511246 57024 IEM_DS3505
ZBHH,2008-01-13 07:00,ZBHH 130700Z AUTO 31002KT 6SM M07/M26 A3033 RMK T10701260 IEM_DS3505
ZBHH,2008-01-13 08:00,ZBHH 130800Z AUTO 00000KT 6SM M07/M24 A3033 RMK T10701240 IEM_DS3505
ZBHH,2008-01-13 09:00,ZBHH 130900Z AUTO 29004KT 6SM M06/M20 A3033 RMK SLP368 T10621202 57003 IEM_DS3505
ZBHH,2008-01-13 10:00,ZBHH 131000Z AUTO 00000KT 6SM M08/M18 A3033 RMK T10801180 IEM_DS3505
ZBHH,2008-01-13 11:00,ZBHH 131100Z AUTO 00000KT 6SM M09/M17 A3033 RMK T10901170 IEM_DS3505
ZBHH,2008-01-13 12:00,ZBHH 131200Z AUTO 07002KT 6SM M08/M16 A3033 RMK SLP377 T10751159 52004 IEM_DS3505
ZBHH,2008-01-13 13:00,ZBHH 131300Z AUTO 02006KT 6SM M11/M17 A3036 RMK T11101170 IEM_DS3505
ZBHH,2008-01-13 14:00,ZBHH 131400Z AUTO 02004KT 6SM M12/M17 A3033 RMK T11201170 IEM_DS3505
ZBHH,2008-01-13 15:00,ZBHH 131500Z AUTO 34002KT 5SM M09/M13 A3033 RMK SLP371 T10881129 54000 IEM_DS3505
ZBHH,2008-01-13 16:00,ZBHH 131600Z AUTO 07002KT 6SM M12/M17 A3033 RMK T11201170 IEM_DS3505
ZBHH,2008-01-13 17:00,ZBHH 131700Z AUTO 08002KT 4SM M11/M14 A3033 RMK T11101140 IEM_DS3505
ZBHH,2008-01-13 18:00,ZBHH 131800Z AUTO 07004KT 5SM M09/M13 A3033 RMK 60000 SLP353 T10931126 57007 IEM_DS3505
ZBHH,2008-01-13 19:00,ZBHH 131900Z AUTO 04002KT 2 1/2SM M12/M13 A3030 RMK T11201130 IEM_DS3505
ZBHH,2008-01-13 20:00,ZBHH 132000Z AUTO 00000KT 2 1/2SM M14/M15 A3030 RMK T11401150 IEM_DS3505
ZBHH,2008-01-13 21:00,ZBHH 132100Z AUTO 09002KT 5SM M10/M12 A3030 RMK 70000 SLP349 T10961118 57007 IEM_DS3505
ZBHH,2008-01-13 22:00,ZBHH 132200Z AUTO 01002KT 2SM M13/M14 A3030 RMK T11301140 IEM_DS3505
ZBHH,2008-01-13 23:00,ZBHH 132300Z AUTO 01002KT 2SM M13/M14 A3030 RMK T11301140 IEM_DS3505
ZBHH,2008-01-14 00:00,ZBHH 140000Z AUTO 18002KT 5SM M09/M12 A3030 RMK 60002 70002 SLP359 T10941117 52006 IEM_DS3505
ZBHH,2008-01-14 01:00,ZBHH 140100Z AUTO 01002KT 2SM M13/M15 A3033 RMK T11301150 IEM_DS3505
ZBHH,2008-01-14 02:00,ZBHH 140200Z AUTO 07002KT 2SM M12/M13 A3033 RMK T11201130 IEM_DS3505
ZBHH,2008-01-14 03:00,ZBHH 140300Z AUTO 22002KT 6SM M07/M13 A3036 RMK SLP366 T10701128 52009 IEM_DS3505
ZBHH,2008-01-14 04:00,ZBHH 140400Z AUTO 00000KT 2 1/2SM M09/M12 A3033 RMK T10901120 IEM_DS3505
ZBHH,2008-01-14 05:00,ZBHH 140500Z AUTO 18002KT 2 1/2SM M08/M12 A3030 RMK T10801120 IEM_DS3505
ZBHH,2008-01-14 06:00,ZBHH 140600Z AUTO 18006KT 6SM M06/M11 A3030 RMK 60000 SLP346 T10611107 57017 IEM_DS3505
ZBHH,2008-01-14 07:00,ZBHH 140700Z AUTO 22004KT 2SM M07/M11 A3030 RMK T10701110 IEM_DS3505
ZBHH,2008-01-14 08:00,ZBHH 140800Z AUTO 24006KT 1 1/4SM M08/M12 A3030 RMK T10801120 IEM_DS3505
ZBHH,2008-01-14 09:00,ZBHH 140900Z AUTO 20006KT 4SM M08/M11 A3033 RMK SLP365 T10781113 52012 IEM_DS3505
ZBHH,2008-01-14 10:00,ZBHH 141000Z AUTO 22004KT 1 1/2SM M11/M13 A3036 RMK T11101130 IEM_DS3505
ZBHH,2008-01-14 11:00,ZBHH 141100Z AUTO 08002KT 1 1/4SM M14/M15 A3039 RMK T11401150 IEM_DS3505
ZBHH,2008-01-14 12:00,ZBHH 141200Z AUTO 32002KT 3SM M10/M12 A3039 RMK SLP391 T10981123 52019 IEM_DS3505
ZBHH,2008-01-14 13:00,ZBHH 141300Z AUTO 00000KT 1SM M16/M17 A3042 RMK T11601170 IEM_DS3505
ZBHH,2008-01-14 14:00,ZBHH 141400Z AUTO 08002KT 2SM M17/M19 A3042 RMK T11701190 IEM_DS3505
ZBHH,2008-01-14 15:00,ZBHH 141500Z AUTO 34002KT 5SM M12/M18 A3042 RMK SLP401 T11171185 52010 IEM_DS3505
ZBHH,2008-01-14 16:00,ZBHH 141600Z AUTO 03008KT 6SM M14/M23 A3042 RMK T11401230 IEM_DS3505
ZBHH,2008-01-14 17:00,ZBHH 141700Z AUTO 03012KT 6SM M15/M24 A3042 RMK T11501240 IEM_DS3505
ZBHH,2008-01-14 18:00,ZBHH 141800Z AUTO 14002KT 6SM M14/M20 A3045 RMK SLP413 T11361195 52008 IEM_DS3505
ZBHH,2008-01-14 19:00,ZBHH 141900Z AUTO 04006KT 6SM M15/M25 A3045 RMK T11501250 IEM_DS3505
ZBHH,2008-01-14 20:00,ZBHH 142000Z AUTO 08004KT 6SM M18/M26 A3045 RMK T11801260 IEM_DS3505
ZBHH,2008-01-14 21:00,ZBHH 142100Z AUTO 07002KT 6SM M13/M23 A3045 RMK 70001 SLP417 T11301232 52001 IEM_DS3505
ZBHH,2008-01-14 22:00,ZBHH 142200Z AUTO 11002KT 4SM M21/M24 A3045 RMK T12101240 IEM_DS3505
ZBHH,2008-01-14 23:00,ZBHH 142300Z AUTO 07004KT 4SM M23/M26 A3047 RMK T12301260 IEM_DS3505
ZBHH,2008-01-15 00:00,ZBHH 150000Z AUTO 09004KT 6SM M16/M20 A3047 RMK 70000 SLP436 T11591204 52005 IEM_DS3505
ZBHH,2008-01-15 01:00,ZBHH 150100Z AUTO 00000KT 4SM M20/M25 A3047 RMK T12001250 IEM_DS3505
ZBHH,2008-01-15 02:00,ZBHH 150200Z AUTO 11004KT 6SM M16/M23 A3050 RMK T11601230 IEM_DS3505
ZBHH,2008-01-15 03:00,ZBHH 150300Z AUTO 22004KT 4SM M12/M18 A3050 RMK SLP443 T11191185 52011 IEM_DS3505
ZBHH,2008-01-15 04:00,ZBHH 150400Z AUTO 18002KT 6SM M12/M22 A3047 RMK T11201220 IEM_DS3505
ZBHH,2008-01-15 05:00,ZBHH 150500Z AUTO 35004KT 6SM M10/M21 A3045 RMK T11001210 IEM_DS3505
ZBHH,2008-01-15 06:00,ZBHH 150600Z AUTO 32006KT 6SM M08/M21 A3045 RMK SLP424 T10831214 57013 IEM_DS3505
ZBHH,2008-01-15 07:00,ZBHH 150700Z AUTO 35006KT 6SM M10/M21 A3047 RMK T11001210 IEM_DS3505
ZBHH,2008-01-15 08:00,ZBHH 150800Z AUTO 35008KT 6SM M11/M21 A3047 RMK T11101210 IEM_DS3505
ZBHH,2008-01-15 09:00,ZBHH 150900Z AUTO 36004KT 12SM M10/M21 A3047 RMK SLP438 T11001210 52010 IEM_DS3505
ZBHH,2008-01-15 10:00,ZBHH 151000Z AUTO 35008KT 6SM M14/M22 A3050 RMK T11401220 IEM_DS3505
ZBHH,2008-01-15 11:00,ZBHH 151100Z AUTO 01006KT 6SM M15/M23 A3053 RMK T11501230 IEM_DS3505
ZBHH,2008-01-15 12:00,ZBHH 151200Z AUTO 29002KT 19SM M13/M21 A3053 RMK SLP474 T11291214 52017 IEM_DS3505
ZBHH,2008-01-15 13:00,ZBHH 151300Z AUTO 03006KT 6SM M16/M23 A3056 RMK T11601230 IEM_DS3505
ZBHH,2008-01-15 14:00,ZBHH 151400Z AUTO 03004KT 6SM M17/M24 A3056 RMK T11701240 IEM_DS3505
ZBHH,2008-01-15 15:00,ZBHH 151500Z AUTO 29004KT 19SM M14/M22 A3056 RMK SLP476 T11431218 52008 IEM_DS3505
ZBHH,2008-01-15 16:00,ZBHH 151600Z AUTO 08004KT 6SM M22/M27 A3056 RMK T12201270 IEM_DS3505
ZBHH,2008-01-15 17:00,ZBHH 151700Z AUTO 08004KT 6SM M21/M25 A3056 RMK T12101250 IEM_DS3505
ZBHH,2008-01-15 18:00,ZBHH 151800Z AUTO 04004KT 19SM M16/M23 A3059 RMK SLP470 T11581228 54000 IEM_DS3505
ZBHH,2008-01-15 19:00,ZBHH 151900Z AUTO 09006KT 6SM M23/M28 A3056 RMK T12301280 IEM_DS3505
ZBHH,2008-01-15 20:00,ZBHH 152000Z AUTO 10004KT 6SM M23/M28 A3056 RMK T12301280 IEM_DS3505
ZBHH,2008-01-15 21:00,ZBHH 152100Z AUTO 11002KT 19SM M18/M24 A3056 RMK SLP477 T11751240 57002 IEM_DS3505
ZBHH,2008-01-15 22:00,ZBHH 152200Z AUTO 08002KT 6SM M24/M29 A3056 RMK T12401290 IEM_DS3505
ZBHH,2008-01-15 23:00,ZBHH 152300Z AUTO 07002KT 6SM M24/M30 A3056 RMK T12401300 IEM_DS3505
ZBHH,2008-01-16 00:00,ZBHH 160000Z AUTO 04002KT 6SM M19/M24 A3056 RMK SLP488 T11901239 57001 IEM_DS3505
ZBHH,2008-01-16 02:00,ZBHH 160200Z AUTO 09004KT 6SM M17/M26 A3059 RMK T11701260 IEM_DS3505
ZBHH,2008-01-16 03:00,ZBHH 160300Z AUTO 11004KT 19SM M12/M25 A3056 RMK SLP476 T11211251 52003 IEM_DS3505
ZBHH,2008-01-16 04:00,ZBHH 160400Z AUTO 09004KT 6SM M12/M25 A3053 RMK T11201250 IEM_DS3505
ZBHH,2008-01-16 05:00,ZBHH 160500Z AUTO 00000KT 6SM M10/M25 A3050 RMK T11001250 IEM_DS3505
ZBHH,2008-01-16 06:00,ZBHH 160600Z AUTO 36002KT 19SM M08/M25 A3047 RMK SLP437 T10791250 57028 IEM_DS3505
ZBHH,2008-01-16 07:00,ZBHH 160700Z AUTO 06002KT 6SM M09/M23 A3047 RMK T10901230 IEM_DS3505
ZBHH,2008-01-16 08:00,ZBHH 160800Z AUTO 36002KT 6SM M09/M24 A3047 RMK T10901240 IEM_DS3505
ZBHH,2008-01-16 09:00,ZBHH 160900Z AUTO 02002KT 16SM M08/M24 A3045 RMK SLP428 T10821239 57012 IEM_DS3505
ZBHH,2008-01-16 10:00,ZBHH 161000Z AUTO 36002KT 6SM M11/M25 A3045 RMK T11101250 IEM_DS3505
ZBHH,2008-01-16 11:00,ZBHH 161100Z AUTO 02004KT 6SM M13/M22 A3045 RMK T11301220 IEM_DS3505
ZBHH,2008-01-16 12:00,ZBHH 161200Z AUTO 09002KT 12SM M09/M25 A3042 RMK SLP427 T10871248 57006 IEM_DS3505
ZBHH,2008-01-16 13:00,ZBHH 161300Z AUTO 00000KT 7SM M13/M21 A3042 RMK T11301210 IEM_DS3505
ZBHH,2008-01-16 14:00,ZBHH 161400Z AUTO 00000KT 2 1/2SM M13/M18 A3042 RMK T11301180 IEM_DS3505
ZBHH,2008-01-16 15:00,ZBHH 161500Z AUTO 25002KT 6SM M10/M14 A3042 RMK SLP404 T11001139 57007 IEM_DS3505
ZBHH,2008-01-16 16:00,ZBHH 161600Z AUTO 09002KT 3SM M14/M15 A3039 RMK T11401150 IEM_DS3505
ZBHH,2008-01-16 17:00,ZBHH 161700Z AUTO 18002KT 2SM M14/M15 A3036 RMK T11401150 IEM_DS3505
ZBHH,2008-01-16 18:00,ZBHH 161800Z AUTO 09002KT 6SM M11/M13 A3036 RMK 60002 SLP377 T11101133 57016 IEM_DS3505
ZBHH,2008-01-16 19:00,ZBHH 161900Z AUTO 00000KT 2SM M14/M16 A3033 RMK T11401160 IEM_DS3505
ZBHH,2008-01-16 20:00,ZBHH 162000Z AUTO 06002KT 2SM M15/M17 A3033 RMK T11501170 IEM_DS3505
ZBHH,2008-01-16 21:00,ZBHH 162100Z AUTO 07002KT 5SM M12/M14 A3030 RMK 70004 SLP365 T11181141 57013 IEM_DS3505
ZBHH,2008-01-16 22:00,ZBHH 162200Z AUTO 00000KT 2SM M18/M19 A3030 RMK T11801190 IEM_DS3505
ZBHH,2008-01-16 23:00,ZBHH 162300Z AUTO 09004KT 3SM M18/M20 A3030 RMK T11801200 IEM_DS3505
ZBHH,2008-01-17 00:00,ZBHH 170000Z AUTO 36002KT 5SM M14/M16 A3030 RMK 60002 70004 SLP374 T11381164 52002 IEM_DS3505
ZBHH,2008-01-17 01:00,ZBHH 170100Z AUTO 00000KT 3SM M19/M21 A3033 RMK T11901210 IEM_DS3505
ZBHH,2008-01-17 02:00,ZBHH 170200Z AUTO 15002KT 2 1/2SM M16/M18 A3033 RMK T11601180 IEM_DS3505
ZBHH,2008-01-17 03:00,ZBHH 170300Z AUTO 25002KT 5SM M11/M14 A3033 RMK SLP377 T11111145 52006 IEM_DS3505
ZBHH,2008-01-17 04:00,ZBHH 170400Z AUTO 20002KT 3SM M11/M15 A3033 RMK T11101150 IEM_DS3505
ZBHH,2008-01-17 05:00,ZBHH 170500Z AUTO 19002KT 3SM M10/M15 A3030 RMK T11001150 IEM_DS3505
ZBHH,2008-01-17 06:00,ZBHH 170600Z AUTO 22004KT 4SM M09/M14 A3027 RMK SLP354 T10921135 57018 IEM_DS3505
ZBHH,2008-01-17 07:00,ZBHH 170700Z AUTO 22002KT 1 1/2SM M10/M14 A3027 RMK T11001140 IEM_DS3505
ZBHH,2008-01-17 08:00,ZBHH 170800Z AUTO 23004KT 1 1/2SM M10/M15 A3030 RMK T11001150 IEM_DS3505
ZBHH,2008-01-17 09:00,ZBHH 170900Z AUTO 27002KT 4SM M10/M14 A3030 RMK SLP363 T10981141 52005 IEM_DS3505
ZBHH,2008-01-17 10:00,ZBHH 171000Z AUTO 21002KT 1 1/2SM M13/M15 A3033 RMK T11301150 IEM_DS3505
ZBHH,2008-01-17 11:00,ZBHH 171100Z AUTO 14002KT 1 1/2SM M14/M16 A3033 RMK T11401160 IEM_DS3505
ZBHH,2008-01-17 12:00,ZBHH 171200Z AUTO 27002KT 4SM M11/M14 A3036 RMK SLP395 T11141142 52019 IEM_DS3505
ZBHH,2008-01-17 14:00,ZBHH 171400Z AUTO 11002KT 1 1/4SM M17/M18 A3039 RMK T11701180 IEM_DS3505
ZBHH,2008-01-17 15:00,ZBHH 171500Z AUTO 25002KT 4SM M12/M14 A3036 RMK SLP397 T11231143 52006 IEM_DS3505
ZBHH,2008-01-17 16:00,ZBHH 171600Z AUTO 09002KT 1 1/4SM M18/M20 A3039 RMK T11801200 IEM_DS3505
ZBHH,2008-01-17 17:00,ZBHH 171700Z AUTO 00000KT 1 1/4SM M17/M19 A3039 RMK T11701190 IEM_DS3505
ZBHH,2008-01-17 18:00,ZBHH 171800Z AUTO 32002KT 4SM M13/M15 A3039 RMK 60000 SLP396 T11301151 52002 IEM_DS3505
ZBHH,2008-01-17 19:00,ZBHH 171900Z AUTO 00000KT 1 1/4SM M16/M18 A3039 RMK T11601180 IEM_DS3505
ZBHH,2008-01-17 20:00,ZBHH 172000Z AUTO 00000KT 1 1/4SM M18/M20 A3039 RMK T11801200 IEM_DS3505
ZBHH,2008-01-17 21:00,ZBHH 172100Z AUTO 07002KT 4SM M13/M15 A3039 RMK 70000 SLP398 T11291153 52001 IEM_DS3505
ZBHH,2008-01-17 22:00,ZBHH 172200Z AUTO 08002KT 1 1/2SM M16/M18 A3039 RMK T11601180 IEM_DS3505
ZBHH,2008-01-17 23:00,ZBHH 172300Z AUTO 05004KT 1 1/2SM M16/M18 A3036 RMK T11601180 IEM_DS3505
ZBHH,2008-01-18 00:00,ZBHH 180000Z AUTO 00000KT 4SM M14/M17 A3039 RMK 60000 70000 SLP405 T11381168 54000 IEM_DS3505
ZBHH,2008-01-18 01:00,ZBHH 180100Z AUTO 04002KT 1 1/2SM M17/M20 A3039 RMK T11701200 IEM_DS3505
ZBHH,2008-01-18 02:00,ZBHH 180200Z AUTO 00000KT 2SM M15/M19 A3042 RMK T11501190 IEM_DS3505
ZBHH,2008-01-18 03:00,ZBHH 180300Z AUTO 07004KT 5SM M11/M16 A3039 RMK SLP405 T11121159 52004 IEM_DS3505
ZBHH,2008-01-18 04:00,ZBHH 180400Z AUTO 00000KT 2 1/2SM M12/M17 A3036 RMK T11201170 IEM_DS3505
ZBHH,2008-01-18 05:00,ZBHH 180500Z AUTO 20002KT 2 1/2SM M10/M16 A3036 RMK T11001160 IEM_DS3505
ZBHH,2008-01-18 06:00,ZBHH 180600Z AUTO 22004KT 5SM M08/M14 A3036 RMK SLP381 T10801144 57015 IEM_DS3505
ZBHH,2008-01-18 07:00,ZBHH 180700Z AUTO 15002KT 2 1/2SM M10/M15 A3036 RMK T11001150 IEM_DS3505
ZBHH,2008-01-18 08:00,ZBHH 180800Z AUTO 13004KT 2SM M10/M15 A3033 RMK T11001150 IEM_DS3505
ZBHH,2008-01-18 09:00,ZBHH 180900Z AUTO 07002KT 5SM M09/M14 A3033 RMK SLP379 T10901142 57004 IEM_DS3505
ZBHH,2008-01-18 10:00,ZBHH 181000Z AUTO 01002KT 1 1/2SM M13/M15 A3033 RMK T11301150 IEM_DS3505
ZBHH,2008-01-18 11:00,ZBHH 181100Z AUTO 02004KT 1 1/2SM M14/M17 A3036 RMK T11401170 IEM_DS3505
ZBHH,2008-01-18 12:00,ZBHH 181200Z AUTO 34002KT 6SM M11/M15 A3036 RMK SLP394 T11111148 52006 IEM_DS3505
ZBHH,2008-01-18 13:00,ZBHH 181300Z AUTO 08002KT 2SM M18/M21 A3036 RMK T11801210 IEM_DS3505
ZBHH,2008-01-18 14:00,ZBHH 181400Z AUTO 06002KT 2 1/2SM M17/M20 A3036 RMK T11701200 IEM_DS3505
ZBHH,2008-01-18 15:00,ZBHH 181500Z AUTO 00000KT 4SM M13/M17 A3036 RMK SLP391 T11341166 57002 IEM_DS3505
ZBHH,2008-01-18 16:00,ZBHH 181600Z AUTO 04002KT 2 1/2SM M19/M22 A3036 RMK T11901220 IEM_DS3505
ZBHH,2008-01-18 17:00,ZBHH 181700Z AUTO 04002KT 2 1/2SM M18/M21 A3033 RMK T11801210 IEM_DS3505
ZBHH,2008-01-18 18:00,ZBHH 181800Z AUTO 09002KT 4SM M12/M17 A3030 RMK SLP366 T11211170 57011 IEM_DS3505
ZBHH,2008-01-18 19:00,ZBHH 181900Z AUTO 10002KT 4SM M16/M20 A3033 RMK T11601200 IEM_DS3505
ZBHH,2008-01-18 20:00,ZBHH 182000Z AUTO 03002KT 4SM M16/M20 A3030 RMK T11601200 IEM_DS3505
ZBHH,2008-01-18 21:00,ZBHH 182100Z AUTO 11002KT 4SM M12/M16 A3030 RMK 70000 SLP356 T11161163 57010 IEM_DS3505
ZBHH,2008-01-18 22:00,ZBHH 182200Z AUTO 08002KT 4SM M14/M18 A3027 RMK T11401180 IEM_DS3505
ZBHH,2008-01-18 23:00,ZBHH 182300Z AUTO 00000KT 4SM M14/M18 A3030 RMK T11401180 IEM_DS3505
ZBHH,2008-01-19 00:00,ZBHH 190000Z AUTO 00000KT 7SM M10/M15 A3030 RMK SLP364 T10991154 52006 IEM_DS3505
ZBHH,2008-01-19 01:00,ZBHH 190100Z AUTO 07002KT 3SM M12/M17 A3030 RMK T11201170 IEM_DS3505
ZBHH,2008-01-19 02:00,ZBHH 190200Z AUTO 10004KT 5SM M10/M17 A3030 RMK T11001170 IEM_DS3505
ZBHH,2008-01-19 03:00,ZBHH 190300Z AUTO 07002KT 9SM M08/M16 A3033 RMK SLP374 T10761162 52009 IEM_DS3505
ZBHH,2008-01-19 04:00,ZBHH 190400Z AUTO 00000KT 3SM M09/M16 A3030 RMK T10901160 IEM_DS3505
ZBHH,2008-01-19 05:00,ZBHH 190500Z AUTO 10002KT 2 1/2SM M08/M16 A3027 RMK T10801160 IEM_DS3505
ZBHH,2008-01-19 06:00,ZBHH 190600Z AUTO 09004KT 6SM M05/M14 A3027 RMK SLP342 T10531143 57020 IEM_DS3505
ZBHH,2008-01-19 07:00,ZBHH 190700Z AUTO 09002KT 4SM M06/M15 A3024 RMK T10601150 IEM_DS3505
ZBHH,2008-01-19 08:00,ZBHH 190800Z AUTO 08002KT 4SM M06/M15 A3024 RMK T10601150 IEM_DS3505
ZBHH,2008-01-19 09:00,ZBHH 190900Z AUTO 07002KT 6SM M05/M16 A3024 RMK SLP329 T10541157 57010 IEM_DS3505
ZBHH,2008-01-19 10:00,ZBHH 191000Z AUTO 35002KT 3SM M09/M15 A3024 RMK T10901150 IEM_DS3505
ZBHH,2008-01-19 11:00,ZBHH 191100Z AUTO 05002KT 3SM M11/M16 A3027 RMK T11101160 IEM_DS3505
ZBHH,2008-01-19 12:00,ZBHH 191200Z AUTO 02002KT 6SM M07/M14 A3030 RMK SLP348 T10671142 52017 IEM_DS3505
ZBHH,2008-01-19 13:00,ZBHH 191300Z AUTO 00000KT 3SM M11/M15 A3030 RMK T11101150 IEM_DS3505
ZBHH,2008-01-19 14:00,ZBHH 191400Z AUTO 10002KT 3SM M11/M15 A3030 RMK T11101150 IEM_DS3505
ZBHH,2008-01-19 15:00,ZBHH 191500Z AUTO 09004KT 6SM M08/M14 A3033 RMK SLP354 T10751139 52009 IEM_DS3505
ZBHH,2008-01-19 16:00,ZBHH 191600Z AUTO 06004KT 3SM M11/M14 A3030 RMK T11101140 IEM_DS3505
ZBHH,2008-01-19 17:00,ZBHH 191700Z AUTO 05002KT 2 1/2SM M11/M14 A3030 RMK T11101140 IEM_DS3505
ZBHH,2008-01-19 18:00,ZBHH 191800Z AUTO 00000KT 6SM M09/M12 A3030 RMK 60000 SLP345 T10881115 57006 IEM_DS3505
ZBHH,2008-01-19 19:00,ZBHH 191900Z AUTO 04002KT 2 1/2SM M12/M13 A3030 RMK T11201130 IEM_DS3505
ZBHH,2008-01-19 20:00,ZBHH 192000Z AUTO 06002KT 2 1/2SM M12/M13 A3030 RMK T11201130 IEM_DS3505
ZBHH,2008-01-19 21:00,ZBHH 192100Z AUTO 11002KT 5SM M09/M11 A3027 RMK 70000 SLP339 T10891108 57005 IEM_DS3505
ZBHH,2008-01-19 22:00,ZBHH 192200Z AUTO 09004KT 2SM M14/M15 A3027 RMK T11401150 IEM_DS3505
ZBHH,2008-01-19 23:00,ZBHH 192300Z AUTO 10002KT 2SM M13/M14 A3027 RMK T11301140 IEM_DS3505
ZBHH,2008-01-20 00:00,ZBHH 200000Z AUTO 16002KT 4SM M10/M12 A3027 RMK 60000 70000 SLP345 T10991118 54000 IEM_DS3505
ZBHH,2008-01-20 01:00,ZBHH 200100Z AUTO 03002KT 1 1/4SM M13/M15 A3030 RMK T11301150 IEM_DS3505
ZBHH,2008-01-20 02:00,ZBHH 200200Z AUTO 00000KT 1SM M11/M13 A3030 RMK T11101130 IEM_DS3505
ZBHH,2008-01-20 03:00,ZBHH 200300Z AUTO 09004KT 5SM M07/M11 A3030 RMK SLP344 T10681107 52004 IEM_DS3505
ZBHH,2008-01-20 04:00,ZBHH 200400Z AUTO 07002KT 1 1/4SM M08/M12 A3030 RMK T10801120 IEM_DS3505
ZBHH,2008-01-20 05:00,ZBHH 200500Z AUTO 06002KT 1SM M08/M11 A3027 RMK T10801110 IEM_DS3505
ZBHH,2008-01-20 06:00,ZBHH 200600Z AUTO 04002KT 6SM M07/M10 A3024 RMK 60001 SLP328 T10681100 57017 IEM_DS3505
ZBHH,2008-01-20 07:00,ZBHH 200700Z AUTO 13002KT 1SM M08/M10 A3024 RMK T10801100 IEM_DS3505
ZBHH,2008-01-20 08:00,ZBHH 200800Z AUTO 10004KT 1SM M08/M10 A3021 RMK T10801100 IEM_DS3505
ZBHH,2008-01-20 09:00,ZBHH 200900Z AUTO 04004KT 3SM M07/M09 A3024 RMK SLP324 T10701089 57004 IEM_DS3505
ZBHH,2008-01-20 10:00,ZBHH 201000Z AUTO 04002KT 1SM M09/M10 A3024 RMK T10901100 IEM_DS3505
ZBHH,2008-01-20 11:00,ZBHH 201100Z AUTO 02002KT 1SM M09/M10 A3024 RMK T10901100 IEM_DS3505
ZBHH,2008-01-20 12:00,ZBHH 201200Z AUTO 04002KT 3SM M07/M09 A3024 RMK 60008 SLP337 T10741093 52008 IEM_DS3505
ZBHH,2008-01-20 13:00,ZBHH 201300Z AUTO 10002KT 1SM M10/M11 A3024 RMK T11001110 IEM_DS3505
ZBHH,2008-01-20 14:00,ZBHH 201400Z AUTO 08002KT 1SM M11/M12 A3024 RMK T11101120 IEM_DS3505
ZBHH,2008-01-20 15:00,ZBHH 201500Z AUTO 07004KT 2SM M07/M10 A3027 RMK SLP330 T10741095 52001 IEM_DS3505
ZBHH,2008-01-20 16:00,ZBHH 201600Z AUTO 12002KT 1SM M10/M11 A3024 RMK T11001110 IEM_DS3505
ZBHH,2008-01-20 17:00,ZBHH 201700Z AUTO 10002KT 1SM M11/M12 A3024 RMK T11101120 IEM_DS3505
ZBHH,2008-01-20 18:00,ZBHH 201800Z AUTO 09004KT 2SM M08/M10 A3024 RMK 60000 SLP323 T10781097 57007 IEM_DS3505
ZBHH,2008-01-20 19:00,ZBHH 201900Z AUTO 08004KT 1SM M10/M12 A3021 RMK T11001120 IEM_DS3505
ZBHH,2008-01-20 21:00,ZBHH 202100Z AUTO 07002KT 3SM M08/M10 A3018 RMK 70009 SLP313 T10851103 57011 IEM_DS3505
ZBHH,2008-01-20 22:00,ZBHH 202200Z AUTO 13002KT 1SM M11/M12 A3018 RMK T11101120 IEM_DS3505
ZBHH,2008-01-20 23:00,ZBHH 202300Z AUTO 00000KT 1SM M11/M13 A3018 RMK T11101130 IEM_DS3505
ZBHH,2008-01-21 00:00,ZBHH 210000Z AUTO 25002KT 3SM M09/M11 A3021 RMK 60004 70012 SLP318 T10881107 52003 IEM_DS3505
ZBHH,2008-01-21 01:00,ZBHH 210100Z AUTO 22004KT 1/2SM M12/M13 A3021 RMK T11201130 IEM_DS3505
ZBHH,2008-01-21 02:00,ZBHH 210200Z AUTO 18004KT 1SM M12/M13 A3021 RMK T11201130 IEM_DS3505
ZBHH,2008-01-21 03:00,ZBHH 210300Z AUTO 04002KT 3SM M09/M12 A3024 RMK SLP327 T10861117 52008 IEM_DS3505
ZBHH,2008-01-21 04:00,ZBHH 210400Z AUTO 19002KT 1SM M12/M13 A3024 RMK T11201130 IEM_DS3505
ZBHH,2008-01-21 05:00,ZBHH 210500Z AUTO 18004KT 1SM M11/M13 A3021 RMK T11101130 IEM_DS3505
ZBHH,2008-01-21 06:00,ZBHH 210600Z AUTO 29002KT 3SM M09/M12 A3018 RMK 60002 SLP313 T10941120 57015 IEM_DS3505
ZBHH,2008-01-21 07:00,ZBHH 210700Z AUTO 18002KT 1SM M11/M13 A3018 RMK T11101130 IEM_DS3505
ZBHH,2008-01-21 08:00,ZBHH 210800Z AUTO 18002KT 1SM M11/M13 A3018 RMK T11101130 IEM_DS3505
ZBHH,2008-01-21 09:00,ZBHH 210900Z AUTO 29002KT 5SM M10/M16 A3018 RMK SLP320 T10991156 52004 IEM_DS3505
ZBHH,2008-01-21 10:00,ZBHH 211000Z AUTO 05004KT 2SM M13/M15 A3021 RMK T11301150 IEM_DS3505
ZBHH,2008-01-21 11:00,ZBHH 211100Z AUTO 36006KT 5SM M13/M16 A3021 RMK T11301160 IEM_DS3505
ZBHH,2008-01-21 12:00,ZBHH 211200Z AUTO 29004KT 5SM M12/M19 A3021 RMK 60004 SLP336 T11201190 52008 IEM_DS3505
ZBHH,2008-01-21 13:00,ZBHH 211300Z AUTO 01006KT 7SM M14/M20 A3024 RMK T11401200 IEM_DS3505
ZBHH,2008-01-21 14:00,ZBHH 211400Z AUTO 36006KT 7SM M15/M20 A3024 RMK T11501200 IEM_DS3505
ZBHH,2008-01-21 15:00,ZBHH 211500Z AUTO 29008KT 6SM M13/M20 A3027 RMK SLP354 T11341205 52013 IEM_DS3505
ZBHH,2008-01-21 16:00,ZBHH 211600Z AUTO 01006KT 7SM M16/M22 A3027 RMK T11601220 IEM_DS3505
ZBHH,2008-01-21 17:00,ZBHH 211700Z AUTO 01008KT 7SM M17/M23 A3027 RMK T11701230 IEM_DS3505
ZBHH,2008-01-21 18:00,ZBHH 211800Z AUTO 32006KT 9SM M16/M23 A3030 RMK SLP371 T11651232 52006 IEM_DS3505
ZBHH,2008-01-21 19:00,ZBHH 211900Z AUTO 02008KT 7SM M19/M25 A3030 RMK T11901250 IEM_DS3505
ZBHH,2008-01-21 20:00,ZBHH 212000Z AUTO 01004KT 7SM M20/M25 A3030 RMK T12001250 IEM_DS3505
ZBHH,2008-01-21 21:00,ZBHH 212100Z AUTO 32006KT 19SM M18/M24 A3030 RMK 70011 SLP381 T11781241 52004 IEM_DS3505
ZBHH,2008-01-21 22:00,ZBHH 212200Z AUTO 01010KT 7SM M20/M26 A3030 RMK T12001260 IEM_DS3505
ZBHH,2008-01-21 23:00,ZBHH 212300Z AUTO 36006KT 7SM M21/M26 A3033 RMK T12101260 IEM_DS3505
ZBHH,2008-01-22 00:00,ZBHH 220000Z AUTO 32010KT 12SM M17/M24 A3033 RMK 70008 SLP397 T11691236 52011 IEM_DS3505
ZBHH,2008-01-22 01:00,ZBHH 220100Z AUTO 14002KT 4SM M23/M28 A3036 RMK T12301280 IEM_DS3505
ZBHH,2008-01-22 02:00,ZBHH 220200Z AUTO 00000KT 4SM M22/M27 A3036 RMK T12201270 IEM_DS3505
ZBHH,2008-01-22 03:00,ZBHH 220300Z AUTO 32004KT 9SM M15/M22 A3036 RMK SLP410 T11541224 52012 IEM_DS3505
ZBHH,2008-01-22 04:00,ZBHH 220400Z AUTO 36008KT 6SM M17/M25 A3036 RMK T11701250 IEM_DS3505
ZBHH,2008-01-22 05:00,ZBHH 220500Z AUTO 01010KT 6SM M17/M25 A3036 RMK T11701250 IEM_DS3505
ZBHH,2008-01-22 06:00,ZBHH 220600Z AUTO 32008KT 19SM M14/M25 A3036 RMK SLP410 T11411248 57005 IEM_DS3505
ZBHH,2008-01-22 07:00,ZBHH 220700Z AUTO 22004KT 2 1/2SM M16/M22 A3036 RMK T11601220 IEM_DS3505
ZBHH,2008-01-22 08:00,ZBHH 220800Z AUTO 21004KT 3SM M17/M22 A3036 RMK T11701220 IEM_DS3505
ZBHH,2008-01-22 09:00,ZBHH 220900Z AUTO 25004KT 12SM M16/M22 A3039 RMK SLP423 T11581220 52004 IEM_DS3505
ZBHH,2008-01-22 10:00,ZBHH 221000Z AUTO 17002KT 3SM M19/M23 A3039 RMK T11901230 IEM_DS3505
ZBHH,2008-01-22 11:00,ZBHH 221100Z AUTO 12002KT 3SM M22/M25 A3039 RMK T12201250 IEM_DS3505
ZBHH,2008-01-22 12:00,ZBHH 221200Z AUTO 27004KT 12SM M17/M23 A3042 RMK SLP439 T11701231 52013 IEM_DS3505
ZBHH,2008-01-22 13:00,ZBHH 221300Z AUTO 13002KT 2 1/2SM M27/M30 A3042 RMK T12701300 IEM_DS3505
ZBHH,2008-01-22 14:00,ZBHH 221400Z AUTO 04002KT 5SM A3042 RMK IEM_DS3505
ZBHH,2008-01-22 15:00,ZBHH 221500Z AUTO 32008KT 12SM M18/M25 A3042 RMK SLP443 T11761247 52006 IEM_DS3505
ZBHH,2008-01-22 16:00,ZBHH 221600Z AUTO 02010KT 6SM M21/M27 A3045 RMK T12101270 IEM_DS3505
ZBHH,2008-01-22 17:00,ZBHH 221700Z AUTO 02008KT 6SM M22/M28 A3045 RMK T12201280 IEM_DS3505
ZBHH,2008-01-22 18:00,ZBHH 221800Z AUTO 29008KT 12SM M20/M27 A3045 RMK SLP448 T11951269 52003 IEM_DS3505
ZBHH,2008-01-22 19:00,ZBHH 221900Z AUTO 35002KT 6SM M23/M30 A3045 RMK T12301300 IEM_DS3505
ZBHH,2008-01-22 20:00,ZBHH 222000Z AUTO 17002KT 6SM M25/M30 A3047 RMK T12501300 IEM_DS3505
ZBHH,2008-01-22 21:00,ZBHH 222100Z AUTO 32008KT 19SM M20/M28 A3047 RMK SLP463 T12021277 52007 IEM_DS3505
ZBHH,2008-01-22 22:00,ZBHH 222200Z AUTO 02004KT 6SM M24/M30 A3047 RMK T12401300 IEM_DS3505
ZBHH,2008-01-22 23:00,ZBHH 222300Z AUTO 09006KT 6SM M30/M34 A3050 RMK T13001340 IEM_DS3505
ZBHH,2008-01-23 00:00,ZBHH 230000Z AUTO 09002KT 6SM M21/M27 A3050 RMK SLP487 T12101267 52016 IEM_DS3505
ZBHH,2008-01-23 01:00,ZBHH 230100Z AUTO 13004KT 6SM M27/M32 A3053 RMK T12701320 IEM_DS3505
ZBHH,2008-01-23 02:00,ZBHH 230200Z AUTO 00000KT 6SM M24/M30 A3056 RMK T12401300 IEM_DS3505
ZBHH,2008-01-23 03:00,ZBHH 230300Z AUTO 22004KT 6SM M19/M26 A3056 RMK SLP499 T11911259 52014 IEM_DS3505
ZBHH,2008-01-23 04:00,ZBHH 230400Z AUTO 21004KT 6SM M21/M28 A3056 RMK T12101280 IEM_DS3505
ZBHH,2008-01-23 05:00,ZBHH 230500Z AUTO 17006KT 6SM M20/M26 A3056 RMK T12001260 IEM_DS3505
ZBHH,2008-01-23 06:00,ZBHH 230600Z AUTO 25004KT 7SM M17/M23 A3053 RMK SLP495 T11711227 57004 IEM_DS3505
ZBHH,2008-01-23 07:00,ZBHH 230700Z AUTO 20008KT 2 1/2SM M19/M25 A3056 RMK T11901250 IEM_DS3505
ZBHH,2008-01-23 08:00,ZBHH 230800Z AUTO 23006KT 3SM M19/M25 A3056 RMK T11901250 IEM_DS3505
ZBHH,2008-01-23 09:00,ZBHH 230900Z AUTO 22004KT 9SM M18/M24 A3059 RMK SLP509 T11771242 52009 IEM_DS3505
ZBHH,2008-01-23 10:00,ZBHH 231000Z AUTO 10004KT 4SM M23/M28 A3059 RMK T12301280 IEM_DS3505
ZBHH,2008-01-23 11:00,ZBHH 231100Z AUTO 00000KT 3SM M24/M28 A3059 RMK T12401280 IEM_DS3505
ZBHH,2008-01-23 12:00,ZBHH 231200Z AUTO 34002KT 7SM M20/M24 A3059 RMK SLP527 T11971241 52009 IEM_DS3505
ZBHH,2008-01-23 13:00,ZBHH 231300Z AUTO 10002KT 2SM M30/M34 A3062 RMK T13001340 IEM_DS3505
ZBHH,2008-01-23 14:00,ZBHH 231400Z AUTO 00000KT 2SM M28/M31 A3062 RMK T12801310 IEM_DS3505
ZBHH,2008-01-23 15:00,ZBHH 231500Z AUTO 34002KT 9SM M21/M25 A3062 RMK SLP533 T12091248 52007 IEM_DS3505
ZBHH,2008-01-23 16:00,ZBHH 231600Z AUTO 12002KT 4SM M32/M36 A3065 RMK T13201360 IEM_DS3505
ZBHH,2008-01-23 17:00,ZBHH 231700Z AUTO 08004KT 4SM A3062 RMK IEM_DS3505
ZBHH,2008-01-23 18:00,ZBHH 231800Z AUTO 04004KT 12SM A3062 RMK SLP530 57002 IEM_DS3505
ZBHH,2008-01-23 19:00,ZBHH 231900Z AUTO 08002KT 4SM M32/M37 A3062 RMK T13201370 IEM_DS3505
ZBHH,2008-01-23 20:00,ZBHH 232000Z AUTO 00000KT 4SM M32/M36 A3059 RMK T13201360 IEM_DS3505
ZBHH,2008-01-23 21:00,ZBHH 232100Z AUTO 16002KT 12SM A3059 RMK SLP526 57006 IEM_DS3505
ZBHH,2008-01-23 22:00,ZBHH 232200Z AUTO 34002KT 4SM M32/M35 A3062 RMK T13201350 IEM_DS3505
ZBHH,2008-01-23 23:00,ZBHH 232300Z AUTO 09004KT 4SM M33/M37 A3065 RMK T13301370 IEM_DS3505
ZBHH,2008-01-24 00:00,ZBHH 240000Z AUTO 04002KT 5SM A3065 RMK SLP559 52021 IEM_DS3505
ZBHH,2008-01-24 01:00,ZBHH 240100Z AUTO 09004KT 1 1/2SM M32/M36 A3068 RMK T13201360 IEM_DS3505
ZBHH,2008-01-24 02:00,ZBHH 240200Z AUTO 08006KT 1 1/2SM M26/M30 A3062 RMK T12601300 IEM_DS3505
ZBHH,2008-01-24 03:00,ZBHH 240300Z AUTO 11002KT 5SM M18/M24 A3059 RMK SLP526 T11831242 57017 IEM_DS3505
ZBHH,2008-01-24 04:00,ZBHH 240400Z AUTO 26004KT 2 1/2SM M20/M26 A3059 RMK T12001260 IEM_DS3505
ZBHH,2008-01-24 05:00,ZBHH 240500Z AUTO 25006KT 2SM M19/M25 A3059 RMK T11901250 IEM_DS3505
ZBHH,2008-01-24 06:00,ZBHH 240600Z AUTO 29002KT 4SM M16/M23 A3056 RMK SLP502 T11591233 57019 IEM_DS3505
ZBHH,2008-01-24 07:00,ZBHH 240700Z AUTO 15004KT 2SM M20/M25 A3053 RMK T12001250 IEM_DS3505
ZBHH,2008-01-24 08:00,ZBHH 240800Z AUTO 11004KT 1 1/2SM M19/M24 A3050 RMK T11901240 IEM_DS3505
ZBHH,2008-01-24 09:00,ZBHH 240900Z AUTO 09004KT 5SM M16/M23 A3050 RMK SLP480 T11591231 57020 IEM_DS3505
ZBHH,2008-01-24 10:00,ZBHH 241000Z AUTO 28002KT 1 1/4SM M20/M25 A3050 RMK T12001250 IEM_DS3505
ZBHH,2008-01-24 11:00,ZBHH 241100Z AUTO 31002KT 1 1/4SM M22/M26 A3050 RMK T12201260 IEM_DS3505
ZBHH,2008-01-24 12:00,ZBHH 241200Z AUTO 20004KT 4SM M19/M23 A3053 RMK SLP504 T11871228 52011 IEM_DS3505
ZBHH,2008-01-24 13:00,ZBHH 241300Z AUTO 12002KT 1 1/4SM A3053 RMK IEM_DS3505
ZBHH,2008-01-24 14:00,ZBHH 241400Z AUTO 06002KT 1 1/4SM M26/M28 A3056 RMK T12601280 IEM_DS3505
ZBHH,2008-01-24 15:00,ZBHH 241500Z AUTO 09004KT 4SM M22/M25 A3053 RMK SLP504 T12161247 52007 IEM_DS3505
ZBHH,2008-01-24 16:00,ZBHH 241600Z AUTO 05002KT 1 1/4SM M25/M28 A3053 RMK T12501280 IEM_DS3505
ZBHH,2008-01-24 17:00,ZBHH 241700Z AUTO 00000KT 1SM M25/M28 A3050 RMK T12501280 IEM_DS3505
ZBHH,2008-01-24 18:00,ZBHH 241800Z AUTO 07002KT 4SM M21/M24 A3047 RMK SLP470 T12061239 57021 IEM_DS3505
ZBHH,2008-01-24 19:00,ZBHH 241900Z AUTO 35002KT 1SM M26/M29 A3047 RMK T12601290 IEM_DS3505
ZBHH,2008-01-24 20:00,ZBHH 242000Z AUTO 34002KT 1SM M24/M28 A3045 RMK T12401280 IEM_DS3505
ZBHH,2008-01-24 21:00,ZBHH 242100Z AUTO 00000KT 4SM M19/M23 A3045 RMK SLP457 T11901229 57007 IEM_DS3505
ZBHH,2008-01-24 22:00,ZBHH 242200Z AUTO 23002KT 1 1/4SM M24/M28 A3045 RMK T12401280 IEM_DS3505
ZBHH,2008-01-24 23:00,ZBHH 242300Z AUTO 00000KT 1 1/4SM M24/M28 A3042 RMK T12401280 IEM_DS3505
ZBHH,2008-01-25 00:00,ZBHH 250000Z AUTO 25002KT 2SM M19/M22 A3042 RMK SLP457 T11911224 57008 IEM_DS3505
ZBHH,2008-01-25 01:00,ZBHH 250100Z AUTO 00000KT 1/2SM M23/M26 A3045 RMK T12301260 IEM_DS3505
ZBHH,2008-01-25 02:00,ZBHH 250200Z AUTO 20002KT 3/8SM M21/M24 A3042 RMK T12101240 IEM_DS3505
ZBHH,2008-01-25 03:00,ZBHH 250300Z AUTO 32002KT 2SM M16/M21 A3045 RMK SLP461 T11641209 52003 IEM_DS3505
ZBHH,2008-01-25 04:00,ZBHH 250400Z AUTO 17002KT 1/2SM M18/M22 A3045 RMK T11801220 IEM_DS3505
ZBHH,2008-01-25 05:00,ZBHH 250500Z AUTO 15002KT 1/2SM M17/M22 A3042 RMK T11701220 IEM_DS3505
ZBHH,2008-01-25 06:00,ZBHH 250600Z AUTO 25004KT 2SM M14/M20 A3042 RMK SLP436 T11361199 57012 IEM_DS3505
ZBHH,2008-01-25 07:00,ZBHH 250700Z AUTO 17004KT 1SM M16/M21 A3042 RMK T11601210 IEM_DS3505
ZBHH,2008-01-25 08:00,ZBHH 250800Z AUTO 10002KT 1SM M16/M21 A3042 RMK T11601210 IEM_DS3505
ZBHH,2008-01-25 09:00,ZBHH 250900Z AUTO 25004KT 4SM M12/M18 A3042 RMK SLP432 T11231183 52004 IEM_DS3505
ZBHH,2008-01-25 10:00,ZBHH 251000Z AUTO 18002KT 1SM M17/M21 A3045 RMK T11701210 IEM_DS3505
ZBHH,2008-01-25 11:00,ZBHH 251100Z AUTO 11002KT 1 1/4SM M17/M22 A3045 RMK T11701220 IEM_DS3505
ZBHH,2008-01-25 12:00,ZBHH 251200Z AUTO 09002KT 4SM M14/M18 A3047 RMK SLP454 T11401184 52014 IEM_DS3505
ZBHH,2008-01-25 13:00,ZBHH 251300Z AUTO 08002KT 1 1/4SM M19/M22 A3047 RMK T11901220 IEM_DS3505
ZBHH,2008-01-25 14:00,ZBHH 251400Z AUTO 00000KT 1SM M20/M23 A3047 RMK T12001230 IEM_DS3505
ZBHH,2008-01-25 15:00,ZBHH 251500Z AUTO 29002KT 12SM M15/M23 A3047 RMK SLP459 T11541228 52008 IEM_DS3505
ZBHH,2008-01-25 16:00,ZBHH 251600Z AUTO 08002KT 1SM M25/M28 A3050 RMK T12501280 IEM_DS3505
ZBHH,2008-01-25 17:00,ZBHH 251700Z AUTO 02002KT 1SM M24/M26 A3047 RMK T12401260 IEM_DS3505
ZBHH,2008-01-25 18:00,ZBHH 251800Z AUTO 00000KT 12SM M17/M21 A3047 RMK SLP451 T11731210 57005 IEM_DS3505
ZBHH,2008-01-25 19:00,ZBHH 251900Z AUTO 19002KT 1 1/4SM A3047 RMK IEM_DS3505
ZBHH,2008-01-25 20:00,ZBHH 252000Z AUTO 04002KT 1 1/4SM M25/M28 A3047 RMK T12501280 IEM_DS3505
ZBHH,2008-01-25 21:00,ZBHH 252100Z AUTO 00000KT 9SM M20/M22 A3047 RMK SLP458 T11951221 52004 IEM_DS3505
ZBHH,2008-01-25 22:00,ZBHH 252200Z AUTO 00000KT 2SM M27/M30 A3050 RMK T12701300 IEM_DS3505
ZBHH,2008-01-25 23:00,ZBHH 252300Z AUTO 00000KT 2 1/2SM M27/M31 A3050 RMK T12701310 IEM_DS3505
ZBHH,2008-01-26 00:00,ZBHH 260000Z AUTO 00000KT 5SM M19/M22 A3047 RMK SLP464 T11921218 52002 IEM_DS3505
ZBHH,2008-01-26 01:00,ZBHH 260100Z AUTO 00000KT 4SM M23/M27 A3050 RMK T12301270 IEM_DS3505
ZBHH,2008-01-26 02:00,ZBHH 260200Z AUTO 27002KT 4SM M18/M23 A3050 RMK T11801230 IEM_DS3505
ZBHH,2008-01-26 03:00,ZBHH 260300Z AUTO 25002KT 3SM M14/M19 A3050 RMK SLP466 T11401193 52011 IEM_DS3505
ZBHH,2008-01-26 04:00,ZBHH 260400Z AUTO 22002KT 6SM M11/M21 A3050 RMK T11101210 IEM_DS3505
ZBHH,2008-01-26 05:00,ZBHH 260500Z AUTO 21004KT 6SM M12/M19 A3047 RMK T11201190 IEM_DS3505
ZBHH,2008-01-26 06:00,ZBHH 260600Z AUTO 27002KT 5SM M10/M17 A3047 RMK SLP439 T10991170 57018 IEM_DS3505
ZBHH,2008-01-26 07:00,ZBHH 260700Z AUTO 18004KT 1 1/4SM M11/M18 A3045 RMK T11101180 IEM_DS3505
ZBHH,2008-01-26 08:00,ZBHH 260800Z AUTO 14002KT 1 1/2SM M12/M18 A3045 RMK T11201180 IEM_DS3505
ZBHH,2008-01-26 09:00,ZBHH 260900Z AUTO 25002KT 4SM M09/M16 A3042 RMK SLP428 T10871163 57012 IEM_DS3505
ZBHH,2008-01-26 10:00,ZBHH 261000Z AUTO 23002KT 2SM M15/M20 A3045 RMK T11501200 IEM_DS3505
ZBHH,2008-01-26 11:00,ZBHH 261100Z AUTO 20002KT 2SM M16/M20 A3047 RMK T11601200 IEM_DS3505
ZBHH,2008-01-26 12:00,ZBHH 261200Z AUTO 27002KT 5SM M13/M19 A3047 RMK SLP456 T11311187 52014 IEM_DS3505
ZBHH,2008-01-26 13:00,ZBHH 261300Z AUTO 09002KT 1 1/2SM M22/M26 A3047 RMK T12201260 IEM_DS3505
ZBHH,2008-01-26 14:00,ZBHH 261400Z AUTO 10004KT 1 1/2SM M24/M27 A3047 RMK T12401270 IEM_DS3505
ZBHH,2008-01-26 15:00,ZBHH 261500Z AUTO 27004KT 4SM M15/M18 A3047 RMK SLP452 T11521185 52004 IEM_DS3505
ZBHH,2008-01-26 16:00,ZBHH 261600Z AUTO 00000KT 2SM M22/M24 A3047 RMK T12201240 IEM_DS3505
ZBHH,2008-01-26 17:00,ZBHH 261700Z AUTO 00000KT 2SM M23/M26 A3047 RMK T12301260 IEM_DS3505
ZBHH,2008-01-26 18:00,ZBHH 261800Z AUTO 07002KT 4SM M17/M19 A3045 RMK SLP434 T11671193 57009 IEM_DS3505
ZBHH,2008-01-26 19:00,ZBHH 261900Z AUTO 00000KT 2SM M25/M28 A3045 RMK T12501280 IEM_DS3505
ZBHH,2008-01-26 20:00,ZBHH 262000Z AUTO 36002KT 2SM M25/M27 A3042 RMK T12501270 IEM_DS3505
ZBHH,2008-01-26 21:00,ZBHH 262100Z AUTO 00000KT 4SM M17/M20 A3042 RMK SLP418 T11741202 57013 IEM_DS3505
ZBHH,2008-01-26 22:00,ZBHH 262200Z AUTO 10002KT 3SM A3042 RMK IEM_DS3505
ZBHH,2008-01-26 23:00,ZBHH 262300Z AUTO 10002KT 3SM M26/M29 A3039 RMK T12601290 IEM_DS3505
ZBHH,2008-01-27 00:00,ZBHH 270000Z AUTO 34002KT 1 1/4SM M18/M20 A3042 RMK SLP435 T11751200 52004 IEM_DS3505
ZBHH,2008-01-27 01:00,ZBHH 270100Z AUTO 12002KT 2SM M23/M26 A3042 RMK T12301260 IEM_DS3505
ZBHH,2008-01-27 02:00,ZBHH 270200Z AUTO 00000KT 2SM M20/M24 A3042 RMK T12001240 IEM_DS3505
ZBHH,2008-01-27 03:00,ZBHH 270300Z AUTO 14002KT 3SM M14/M18 A3039 RMK SLP417 T11361179 57011 IEM_DS3505
ZBHH,2008-01-27 04:00,ZBHH 270400Z AUTO 20002KT 2SM M17/M21 A3036 RMK T11701210 IEM_DS3505
ZBHH,2008-01-27 05:00,ZBHH 270500Z AUTO 15002KT 1 1/2SM M15/M19 A3033 RMK T11501190 IEM_DS3505
ZBHH,2008-01-27 06:00,ZBHH 270600Z AUTO 29002KT 4SM M11/M17 A3030 RMK SLP377 T11141168 57033 IEM_DS3505
ZBHH,2008-01-27 07:00,ZBHH 270700Z AUTO 18002KT 1 1/4SM M13/M18 A3027 RMK T11301180 IEM_DS3505
ZBHH,2008-01-27 08:00,ZBHH 270800Z AUTO 21004KT 1 1/4SM M14/M19 A3030 RMK T11401190 IEM_DS3505
ZBHH,2008-01-27 09:00,ZBHH 270900Z AUTO 25002KT 4SM M13/M17 A3030 RMK SLP385 T11261171 52002 IEM_DS3505
ZBHH,2008-01-27 10:00,ZBHH 271000Z AUTO 11004KT 1 1/4SM M17/M21 A3027 RMK T11701210 IEM_DS3505
ZBHH,2008-01-27 11:00,ZBHH 271100Z AUTO 00000KT 1 1/2SM M19/M22 A3030 RMK T11901220 IEM_DS3505
ZBHH,2008-01-27 12:00,ZBHH 271200Z AUTO 27002KT 5SM M14/M18 A3030 RMK SLP392 T11421177 52002 IEM_DS3505
ZBHH,2008-01-27 13:00,ZBHH 271300Z AUTO 01002KT 1 1/4SM M21/M24 A3030 RMK T12101240 IEM_DS3505
ZBHH,2008-01-27 14:00,ZBHH 271400Z AUTO 11004KT 1SM M23/M26 A3027 RMK T12301260 IEM_DS3505
ZBHH,2008-01-27 15:00,ZBHH 271500Z AUTO 07004KT 4SM M16/M19 A3027 RMK SLP372 T11591190 57012 IEM_DS3505
ZBHH,2008-01-27 16:00,ZBHH 271600Z AUTO 07002KT 1 1/4SM M22/M24 A3027 RMK T12201240 IEM_DS3505
ZBHH,2008-01-27 17:00,ZBHH 271700Z AUTO 08002KT 1 1/4SM M22/M25 A3027 RMK T12201250 IEM_DS3505
ZBHH,2008-01-27 18:00,ZBHH 271800Z AUTO 18002KT 6SM M17/M19 A3024 RMK SLP366 T11721194 57003 IEM_DS3505
ZBHH,2008-01-27 19:00,ZBHH 271900Z AUTO 10004KT 1 1/4SM M24/M27 A3024 RMK T12401270 IEM_DS3505
ZBHH,2008-01-27 20:00,ZBHH 272000Z AUTO 06006KT 1 1/4SM M24/M27 A3021 RMK T12401270 IEM_DS3505
ZBHH,2008-01-27 21:00,ZBHH 272100Z AUTO 09002KT 6SM M17/M21 A3018 RMK SLP351 T11711208 57016 IEM_DS3505
ZBHH,2008-01-27 22:00,ZBHH 272200Z AUTO 18002KT 1 1/2SM M24/M27 A3021 RMK T12401270 IEM_DS3505
ZBHH,2008-01-27 23:00,ZBHH 272300Z AUTO 20002KT 1 1/2SM M24/M27 A3021 RMK T12401270 IEM_DS3505
ZBHH,2008-01-28 00:00,ZBHH 280000Z AUTO 14002KT 5SM M16/M20 A3024 RMK SLP373 T11651204 52017 IEM_DS3505
ZBHH,2008-01-28 01:00,ZBHH 280100Z AUTO 11004KT 1 1/4SM M23/M26 A3024 RMK T12301260 IEM_DS3505
ZBHH,2008-01-28 02:00,ZBHH 280200Z AUTO 14004KT 1SM M21/M23 A3024 RMK T12101230 IEM_DS3505
ZBHH,2008-01-28 03:00,ZBHH 280300Z AUTO 16002KT 4SM M15/M20 A3021 RMK SLP364 T11531204 57009 IEM_DS3505
ZBHH,2008-01-28 04:00,ZBHH 280400Z AUTO 22004KT 1 1/2SM M17/M21 A3018 RMK T11701210 IEM_DS3505
ZBHH,2008-01-28 05:00,ZBHH 280500Z AUTO 22004KT 1 1/2SM M15/M20 A3018 RMK T11501200 IEM_DS3505
ZBHH,2008-01-28 06:00,ZBHH 280600Z AUTO 22006KT 3SM M13/M18 A3015 RMK SLP336 T11261178 57021 IEM_DS3505
ZBHH,2008-01-28 07:00,ZBHH 280700Z AUTO 24004KT 1 1/4SM M13/M19 A3015 RMK T11301190 IEM_DS3505
ZBHH,2008-01-28 08:00,ZBHH 280800Z AUTO 01004KT 6SM M13/M22 A3015 RMK T11301220 IEM_DS3505
ZBHH,2008-01-28 09:00,ZBHH 280900Z AUTO 32012KT 19SM M13/M22 A3015 RMK SLP335 T11271222 57001 IEM_DS3505
ZBHH,2008-01-28 10:00,ZBHH 281000Z AUTO 01008KT 6SM M16/M24 A3018 RMK T11601240 IEM_DS3505
ZBHH,2008-01-28 11:00,ZBHH 281100Z AUTO 36006KT 6SM M18/M25 A3018 RMK T11801250 IEM_DS3505
ZBHH,2008-01-28 12:00,ZBHH 281200Z AUTO 32006KT 19SM M15/M23 A3018 RMK SLP357 T11541228 52014 IEM_DS3505
ZBHH,2008-01-28 13:00,ZBHH 281300Z AUTO 36008KT 6SM M19/M25 A3018 RMK T11901250 IEM_DS3505
ZBHH,2008-01-28 14:00,ZBHH 281400Z AUTO 01008KT 6SM M19/M25 A3021 RMK T11901250 IEM_DS3505
ZBHH,2008-01-28 15:00,ZBHH 281500Z AUTO 32004KT 19SM M16/M24 A3021 RMK SLP356 T11621240 54000 IEM_DS3505
ZBHH,2008-01-28 16:00,ZBHH 281600Z AUTO 01016KT 6SM M18/M26 A3021 RMK T11801260 IEM_DS3505
ZBHH,2008-01-28 17:00,ZBHH 281700Z AUTO 02010KT 6SM M20/M26 A3018 RMK T12001260 IEM_DS3505
ZBHH,2008-01-28 18:00,ZBHH 281800Z AUTO 29002KT 19SM M18/M24 A3021 RMK SLP354 T11801239 52001 IEM_DS3505
ZBHH,2008-01-28 19:00,ZBHH 281900Z AUTO 16002KT 6SM M25/M30 A3018 RMK T12501300 IEM_DS3505
ZBHH,2008-01-28 20:00,ZBHH 282000Z AUTO 08004KT 6SM M27/M31 A3018 RMK T12701310 IEM_DS3505
ZBHH,2008-01-28 21:00,ZBHH 282100Z AUTO 02002KT 19SM A3018 RMK SLP353 57002 IEM_DS3505
ZBHH,2008-01-28 22:00,ZBHH 282200Z AUTO 21002KT 6SM M28/M31 A3021 RMK T12801310 IEM_DS3505
ZBHH,2008-01-28 23:00,ZBHH 282300Z AUTO 15002KT 5SM M28/M31 A3021 RMK T12801310 IEM_DS3505
ZBHH,2008-01-29 00:00,ZBHH 290000Z AUTO 27004KT 9SM M20/M23 A3024 RMK SLP381 T12031233 52013 IEM_DS3505
ZBHH,2008-01-29 01:00,ZBHH 290100Z AUTO 12002KT 1 1/2SM M27/M30 A3027 RMK T12701300 IEM_DS3505
ZBHH,2008-01-29 02:00,ZBHH 290200Z AUTO 00000KT 2 1/2SM M24/M27 A3027 RMK T12401270 IEM_DS3505
ZBHH,2008-01-29 03:00,ZBHH 290300Z AUTO 22006KT 1 1/4SM M18/M23 A3027 RMK SLP390 T11821227 52011 IEM_DS3505
ZBHH,2008-01-29 04:00,ZBHH 290400Z AUTO 20004KT 2 1/2SM M19/M23 A3027 RMK T11901230 IEM_DS3505
ZBHH,2008-01-29 05:00,ZBHH 290500Z AUTO 20004KT 1 1/4SM M17/M22 A3024 RMK T11701220 IEM_DS3505
ZBHH,2008-01-29 06:00,ZBHH 290600Z AUTO 29006KT 6SM M13/M21 A3024 RMK SLP366 T11261209 57012 IEM_DS3505
ZBHH,2008-01-29 07:00,ZBHH 290700Z AUTO 20006KT 2 1/2SM M15/M21 A3024 RMK T11501210 IEM_DS3505
ZBHH,2008-01-29 08:00,ZBHH 290800Z AUTO 22006KT 5SM M15/M21 A3024 RMK T11501210 IEM_DS3505
ZBHH,2008-01-29 09:00,ZBHH 290900Z AUTO 25004KT 7SM M14/M22 A3024 RMK SLP374 T11381218 52004 IEM_DS3505
ZBHH,2008-01-29 10:00,ZBHH 291000Z AUTO 20002KT 4SM M18/M23 A3027 RMK T11801230 IEM_DS3505
ZBHH,2008-01-29 11:00,ZBHH 291100Z AUTO 11002KT 4SM M19/M24 A3027 RMK T11901240 IEM_DS3505
ZBHH,2008-01-29 12:00,ZBHH 291200Z AUTO 34006KT 5SM M15/M22 A3030 RMK SLP400 T11491215 52014 IEM_DS3505
ZBHH,2008-01-29 13:00,ZBHH 291300Z AUTO 00000KT 3SM M21/M25 A3030 RMK T12101250 IEM_DS3505
ZBHH,2008-01-29 14:00,ZBHH 291400Z AUTO 07002KT 3SM M21/M25 A3030 RMK T12101250 IEM_DS3505
ZBHH,2008-01-29 15:00,ZBHH 291500Z AUTO 32004KT 12SM M15/M22 A3033 RMK SLP408 T11541222 52011 IEM_DS3505
ZBHH,2008-01-29 16:00,ZBHH 291600Z AUTO 00000KT 3SM M22/M26 A3036 RMK T12201260 IEM_DS3505
ZBHH,2008-01-29 17:00,ZBHH 291700Z AUTO 19002KT 3SM M22/M25 A3036 RMK T12201250 IEM_DS3505
ZBHH,2008-01-29 18:00,ZBHH 291800Z AUTO 25004KT 12SM M19/M22 A3036 RMK SLP414 T11901222 52010 IEM_DS3505
ZBHH,2008-01-29 19:00,ZBHH 291900Z AUTO 3SM M26/M28 A3036 RMK T12601280 IEM_DS3505
ZBHH,2008-01-29 20:00,ZBHH 292000Z AUTO 00000KT 3SM M25/M27 A3036 RMK T12501270 IEM_DS3505
ZBHH,2008-01-29 21:00,ZBHH 292100Z AUTO 07004KT 19SM M21/M24 A3036 RMK SLP426 T12111238 52003 IEM_DS3505
ZBHH,2008-01-29 22:00,ZBHH 292200Z AUTO 07002KT 4SM A3039 RMK IEM_DS3505
ZBHH,2008-01-29 23:00,ZBHH 292300Z AUTO 08004KT 6SM M30/M33 A3039 RMK T13001330 IEM_DS3505
ZBHH,2008-01-30 00:00,ZBHH 300000Z AUTO 09004KT 12SM M21/M24 A3039 RMK SLP440 T12131241 52009 IEM_DS3505
ZBHH,2008-01-30 01:00,ZBHH 300100Z AUTO 00000KT 2 1/2SM M26/M29 A3042 RMK T12601290 IEM_DS3505
ZBHH,2008-01-30 02:00,ZBHH 300200Z AUTO 08002KT 2 1/2SM M22/M25 A3042 RMK T12201250 IEM_DS3505
ZBHH,2008-01-30 03:00,ZBHH 300300Z AUTO 34002KT 5SM M17/M21 A3042 RMK SLP432 T11671207 52003 IEM_DS3505
ZBHH,2008-01-30 04:00,ZBHH 300400Z AUTO 17002KT 4SM M17/M22 A3039 RMK T11701220 IEM_DS3505
ZBHH,2008-01-30 05:00,ZBHH 300500Z AUTO 19004KT 1 1/4SM M16/M21 A3039 RMK T11601210 IEM_DS3505
ZBHH,2008-01-30 06:00,ZBHH 300600Z AUTO 22004KT 5SM M14/M20 A3036 RMK SLP420 T11371196 57012 IEM_DS3505
ZBHH,2008-01-30 07:00,ZBHH 300700Z AUTO 18004KT 2SM M15/M20 A3036 RMK T11501200 IEM_DS3505
ZBHH,2008-01-30 08:00,ZBHH 300800Z AUTO 18004KT 2 1/2SM M15/M20 A3036 RMK T11501200 IEM_DS3505
ZBHH,2008-01-30 09:00,ZBHH 300900Z AUTO 20002KT 5SM M13/M19 A3036 RMK SLP422 T11311190 57002 IEM_DS3505
ZBHH,2008-01-30 10:00,ZBHH 301000Z AUTO 11002KT 2SM M18/M21 A3039 RMK T11801210 IEM_DS3505
ZBHH,2008-01-30 11:00,ZBHH 301100Z AUTO 02004KT 2 1/2SM M20/M23 A3039 RMK T12001230 IEM_DS3505
ZBHH,2008-01-30 12:00,ZBHH 301200Z AUTO 07004KT 7SM M16/M20 A3042 RMK SLP444 T11581197 52012 IEM_DS3505
ZBHH,2008-01-30 13:00,ZBHH 301300Z AUTO 04002KT 2 1/2SM M26/M29 A3042 RMK T12601290 IEM_DS3505
ZBHH,2008-01-30 14:00,ZBHH 301400Z AUTO 07004KT 2 1/2SM M24/M27 A3042 RMK T12401270 IEM_DS3505
ZBHH,2008-01-30 15:00,ZBHH 301500Z AUTO 07002KT 12SM M18/M21 A3042 RMK SLP441 T11781210 52004 IEM_DS3505
ZBHH,2008-01-30 16:00,ZBHH 301600Z AUTO 09002KT 4SM M24/M28 A3042 RMK T12401280 IEM_DS3505
ZBHH,2008-01-30 17:00,ZBHH 301700Z AUTO 07004KT 4SM M27/M31 A3042 RMK T12701310 IEM_DS3505
ZBHH,2008-01-30 18:00,ZBHH 301800Z AUTO 07002KT 9SM A3042 RMK SLP437 52001 IEM_DS3505
ZBHH,2008-01-30 19:00,ZBHH 301900Z AUTO 00000KT 4SM M27/M30 A3042 RMK T12701300 IEM_DS3505
ZBHH,2008-01-30 20:00,ZBHH 302000Z AUTO 00000KT 4SM M28/M31 A3042 RMK T12801310 IEM_DS3505
ZBHH,2008-01-30 21:00,ZBHH 302100Z AUTO 07002KT 9SM A3042 RMK SLP437 57001 IEM_DS3505
ZBHH,2008-01-30 22:00,ZBHH 302200Z AUTO 09004KT 4SM M28/M32 A3042 RMK T12801320 IEM_DS3505
ZBHH,2008-01-30 23:00,ZBHH 302300Z AUTO 09004KT 4SM M27/M30 A3042 RMK T12701300 IEM_DS3505
ZBHH,2008-01-31 00:00,ZBHH 310000Z AUTO 36002KT 9SM M20/M24 A3042 RMK SLP450 T12051238 52003 IEM_DS3505
ZBHH,2008-01-31 01:00,ZBHH 310100Z AUTO 10002KT 4SM M26/M30 A3045 RMK T12601300 IEM_DS3505
ZBHH,2008-01-31 02:00,ZBHH 310200Z AUTO 13002KT 4SM M21/M26 A3045 RMK T12101260 IEM_DS3505
ZBHH,2008-01-31 03:00,ZBHH 310300Z AUTO 27002KT 5SM M16/M20 A3047 RMK SLP456 T11631200 52011 IEM_DS3505
ZBHH,2008-01-31 04:00,ZBHH 310400Z AUTO 19002KT 1 1/4SM M17/M21 A3045 RMK T11701210 IEM_DS3505
ZBHH,2008-01-31 05:00,ZBHH 310500Z AUTO 22002KT 1 1/4SM M16/M21 A3042 RMK T11601210 IEM_DS3505
ZBHH,2008-01-31 06:00,ZBHH 310600Z AUTO 22004KT 5SM M12/M19 A3039 RMK SLP427 T11241186 57019 IEM_DS3505
ZBHH,2008-01-31 07:00,ZBHH 310700Z AUTO 17004KT 2SM M14/M20 A3039 RMK T11401200 IEM_DS3505
ZBHH,2008-01-31 08:00,ZBHH 310800Z AUTO 15002KT 2 1/2SM M15/M20 A3039 RMK T11501200 IEM_DS3505
ZBHH,2008-01-31 09:00,ZBHH 310900Z AUTO 22002KT 6SM M12/M18 A3039 RMK SLP421 T11231183 57007 IEM_DS3505
ZBHH,2008-01-31 10:00,ZBHH 311000Z AUTO 17002KT 2 1/2SM M17/M21 A3039 RMK T11701210 IEM_DS3505
ZBHH,2008-01-31 11:00,ZBHH 311100Z AUTO 02002KT 2 1/2SM M18/M21 A3042 RMK T11801210 IEM_DS3505
ZBHH,2008-01-31 12:00,ZBHH 311200Z AUTO 11004KT 5SM M15/M19 A3042 RMK SLP441 T11521188 52009 IEM_DS3505
ZBHH,2008-01-31 13:00,ZBHH 311300Z AUTO 09002KT 2 1/2SM M24/M28 A3042 RMK T12401280 IEM_DS3505
ZBHH,2008-01-31 14:00,ZBHH 311400Z AUTO 11002KT 2 1/2SM M25/M28 A3042 RMK T12501280 IEM_DS3505
ZBHH,2008-01-31 15:00,ZBHH 311500Z AUTO 09002KT 2 1/2SM A3042 RMK SLP437 52003 IEM_DS3505
ZBHH,2008-01-31 16:00,ZBHH 311600Z AUTO 09004KT 2 1/2SM M26/M30 A3042 RMK T12601300 IEM_DS3505
ZBHH,2008-01-31 17:00,ZBHH 311700Z AUTO 03002KT 2 1/2SM M25/M28 A3042 RMK T12501280 IEM_DS3505
ZBHH,2008-01-31 18:00,ZBHH 311800Z AUTO 09002KT 4SM M19/M22 A3039 RMK SLP427 T11921222 57005 IEM_DS3505
ZBHH,2008-01-31 19:00,ZBHH 311900Z AUTO 07002KT 2 1/2SM M25/M28 A3039 RMK T12501280 IEM_DS3505
ZBHH,2008-01-31 20:00,ZBHH 312000Z AUTO 09002KT 2 1/2SM M26/M30 A3039 RMK T12601300 IEM_DS3505
ZBHH,2008-01-31 21:00,ZBHH 312100Z AUTO 09004KT 3SM M20/M23 A3036 RMK SLP415 T11981228 57012 IEM_DS3505
ZBHH,2008-01-31 22:00,ZBHH 312200Z AUTO 04004KT 3SM M27/M30 A3036 RMK T12701300 IEM_DS3505
ZBHH,2008-01-31 23:00,ZBHH 312300Z AUTO 11002KT 3SM M27/M31 A3036 RMK T12701310 IEM_DS3505
ZBHH,2008-02-01 00:00,ZBHH 010000Z AUTO 09002KT 4SM M20/M24 A3036 RMK SLP428 T12001236 52004 IEM_DS3505
ZBHH,2008-02-01 01:00,ZBHH 010100Z AUTO 08002KT 2SM M27/M30 A3039 RMK T12701300 IEM_DS3505
ZBHH,2008-02-01 02:00,ZBHH 010200Z AUTO 09002KT 2 1/2SM M22/M26 A3039 RMK T12201260 IEM_DS3505
ZBHH,2008-02-01 03:00,ZBHH 010300Z AUTO 11004KT 6SM M15/M21 A3036 RMK SLP414 T11511207 57004 IEM_DS3505
ZBHH,2008-02-01 04:00,ZBHH 010400Z AUTO 20002KT 3SM M16/M21 A3033 RMK T11601210 IEM_DS3505
ZBHH,2008-02-01 05:00,ZBHH 010500Z AUTO 17002KT 3SM M15/M20 A3030 RMK T11501200 IEM_DS3505
ZBHH,2008-02-01 06:00,ZBHH 010600Z AUTO 20004KT 3SM M12/M18 A3027 RMK SLP387 T11241176 57023 IEM_DS3505
ZBHH,2008-02-01 07:00,ZBHH 010700Z AUTO 16002KT 1 1/4SM M14/M19 A3027 RMK T11401190 IEM_DS3505
ZBHH,2008-02-01 08:00,ZBHH 010800Z AUTO 15002KT 1SM M14/M19 A3024 RMK T11401190 IEM_DS3505
ZBHH,2008-02-01 09:00,ZBHH 010900Z AUTO 25004KT 3SM M12/M17 A3024 RMK SLP372 T11211172 57014 IEM_DS3505
ZBHH,2008-02-01 10:00,ZBHH 011000Z AUTO 21002KT 1SM M16/M20 A3024 RMK T11601200 IEM_DS3505
ZBHH,2008-02-01 11:00,ZBHH 011100Z AUTO 00000KT 1 1/4SM M18/M20 A3027 RMK T11801200 IEM_DS3505
ZBHH,2008-02-01 12:00,ZBHH 011200Z AUTO 04002KT 4SM M15/M18 A3027 RMK SLP390 T11481181 52009 IEM_DS3505
ZBHH,2008-02-01 13:00,ZBHH 011300Z AUTO 05002KT 2SM M24/M27 A3027 RMK T12401270 IEM_DS3505
ZBHH,2008-02-01 14:00,ZBHH 011400Z AUTO 09002KT 2SM M25/M28 A3027 RMK T12501280 IEM_DS3505
ZBHH,2008-02-01 15:00,ZBHH 011500Z AUTO 36002KT 4SM M24/M28 A3024 RMK SLP376 T12401280 57005 IEM_DS3505
ZBHH,2008-02-01 16:00,ZBHH 011600Z AUTO 08002KT 2 1/2SM M26/M29 A3024 RMK T12601290 IEM_DS3505
ZBHH,2008-02-01 17:00,ZBHH 011700Z AUTO 11002KT 3SM M26/M29 A3024 RMK T12601290 IEM_DS3505
ZBHH,2008-02-01 18:00,ZBHH 011800Z AUTO 27002KT 5SM M19/M22 A3024 RMK SLP364 T11871219 57009 IEM_DS3505
ZBHH,2008-02-01 19:00,ZBHH 011900Z AUTO 07002KT 3SM M26/M30 A3021 RMK T12601300 IEM_DS3505
ZBHH,2008-02-01 20:00,ZBHH 012000Z AUTO 10002KT 3SM M28/M31 A3021 RMK T12801310 IEM_DS3505
ZBHH,2008-02-01 21:00,ZBHH 012100Z AUTO 07002KT 6SM M19/ A3018 RMK SLP352 57010 IEM_DS3505
ZBHH,2008-02-01 22:00,ZBHH 012200Z AUTO 00000KT 3SM M26/M30 A3018 RMK T12601300 IEM_DS3505
ZBHH,2008-02-01 23:00,ZBHH 012300Z AUTO 00000KT 3SM M25/M28 A3021 RMK T12501280 IEM_DS3505
ZBHH,2008-02-02 00:00,ZBHH 020000Z AUTO 02002KT 5SM M18/M20 A3021 RMK SLP361 T11771205 52004 IEM_DS3505
ZBHH,2008-02-02 01:00,ZBHH 020100Z AUTO 11002KT 2SM M23/M26 A3021 RMK T12301260 IEM_DS3505
ZBHH,2008-02-02 02:00,ZBHH 020200Z AUTO 17002KT 2 1/2SM M20/M24 A3024 RMK T12001240 IEM_DS3505
ZBHH,2008-02-02 03:00,ZBHH 020300Z AUTO 27004KT 2SM M16/M20 A3024 RMK SLP371 T11621196 52008 IEM_DS3505
ZBHH,2008-02-02 04:00,ZBHH 020400Z AUTO 17004KT 2 1/2SM M18/M22 A3021 RMK T11801220 IEM_DS3505
ZBHH,2008-02-02 05:00,ZBHH 020500Z AUTO 20004KT 2 1/2SM M17/M21 A3021 RMK T11701210 IEM_DS3505
ZBHH,2008-02-02 06:00,ZBHH 020600Z AUTO 25004KT 3SM M14/M18 A3018 RMK 60000 SLP356 T11381179 57012 IEM_DS3505
ZBHH,2008-02-02 07:00,ZBHH 020700Z AUTO 20004KT 1SM M15/M19 A3018 RMK T11501190 IEM_DS3505
ZBHH,2008-02-02 08:00,ZBHH 020800Z AUTO 19004KT 1SM M15/M19 A3018 RMK T11501190 IEM_DS3505
ZBHH,2008-02-02 09:00,ZBHH 020900Z AUTO 22002KT 2SM M13/M18 A3018 RMK SLP355 T11311179 54000 IEM_DS3505
ZBHH,2008-02-02 10:00,ZBHH 021000Z AUTO 12002KT 1SM M18/M21 A3021 RMK T11801210 IEM_DS3505
ZBHH,2008-02-02 11:00,ZBHH 021100Z AUTO 00000KT 1SM M19/M21 A3021 RMK T11901210 IEM_DS3505
ZBHH,2008-02-02 12:00,ZBHH 021200Z AUTO 07004KT 2SM M16/M19 A3024 RMK SLP371 T11551186 52011 IEM_DS3505
ZBHH,2008-02-02 13:00,ZBHH 021300Z AUTO 07004KT 1SM M24/M27 A3024 RMK T12401270 IEM_DS3505
ZBHH,2008-02-02 14:00,ZBHH 021400Z AUTO 06002KT 1 1/4SM M23/M26 A3024 RMK T12301260 IEM_DS3505
ZBHH,2008-02-02 15:00,ZBHH 021500Z AUTO 11002KT 5SM M17/M20 A3024 RMK SLP377 T11681196 52006 IEM_DS3505
ZBHH,2008-02-02 16:00,ZBHH 021600Z AUTO 06004KT 2SM M23/M26 A3024 RMK T12301260 IEM_DS3505
ZBHH,2008-02-02 17:00,ZBHH 021700Z AUTO 09002KT 2SM M26/M29 A3024 RMK T12601290 IEM_DS3505
ZBHH,2008-02-02 18:00,ZBHH 021800Z AUTO 07002KT 5SM M18/M22 A3024 RMK SLP368 T11841216 57006 IEM_DS3505
ZBHH,2008-02-02 19:00,ZBHH 021900Z AUTO 09002KT 2SM M25/M28 A3021 RMK T12501280 IEM_DS3505
ZBHH,2008-02-02 20:00,ZBHH 022000Z AUTO 08002KT 2SM M25/M28 A3021 RMK T12501280 IEM_DS3505
ZBHH,2008-02-02 21:00,ZBHH 022100Z AUTO 09002KT 4SM M20/M23 A3021 RMK 70000 SLP360 T11961231 57008 IEM_DS3505
ZBHH,2008-02-02 22:00,ZBHH 022200Z AUTO 04002KT 2SM M24/M26 A3018 RMK T12401260 IEM_DS3505
ZBHH,2008-02-02 23:00,ZBHH 022300Z AUTO 08002KT 2SM M24/M27 A3018 RMK T12401270 IEM_DS3505
ZBHH,2008-02-03 00:00,ZBHH 030000Z AUTO 11002KT 2 1/2SM M20/M24 A3021 RMK 70000 SLP367 T11961235 54000 IEM_DS3505
ZBHH,2008-02-03 01:00,ZBHH 030100Z AUTO 08002KT 1 1/4SM M23/M26 A3021 RMK T12301260 IEM_DS3505
ZBHH,2008-02-03 02:00,ZBHH 030200Z AUTO 11004KT 1 1/2SM M19/M23 A3021 RMK T11901230 IEM_DS3505
ZBHH,2008-02-03 03:00,ZBHH 030300Z AUTO 09004KT 5SM M13/M18 A3018 RMK SLP352 T11331178 57001 IEM_DS3505
ZBHH,2008-02-03 04:00,ZBHH 030400Z AUTO 15002KT 1 1/2SM M14/M20 A3018 RMK T11401200 IEM_DS3505
ZBHH,2008-02-03 05:00,ZBHH 030500Z AUTO 18002KT 1 1/2SM M13/M18 A3015 RMK T11301180 IEM_DS3505
ZBHH,2008-02-03 06:00,ZBHH 030600Z AUTO 07002KT 5SM M10/M16 A3012 RMK SLP325 T11011164 57020 IEM_DS3505
ZBHH,2008-02-03 07:00,ZBHH 030700Z AUTO 18002KT 1 1/2SM M12/M18 A3012 RMK T11201180 IEM_DS3505
ZBHH,2008-02-03 08:00,ZBHH 030800Z AUTO 00000KT 2 1/2SM M11/M18 A3012 RMK T11101180 IEM_DS3505
ZBHH,2008-02-03 09:00,ZBHH 030900Z AUTO 07004KT 2SM M10/M17 A3012 RMK SLP323 T11051166 57005 IEM_DS3505
ZBHH,2008-02-03 10:00,ZBHH 031000Z AUTO 00000KT 3SM M14/M19 A3012 RMK T11401190 IEM_DS3505
ZBHH,2008-02-03 11:00,ZBHH 031100Z AUTO 07004KT 2 1/2SM M18/M22 A3012 RMK T11801220 IEM_DS3505
ZBHH,2008-02-03 12:00,ZBHH 031200Z AUTO 32002KT 2SM M13/M18 A3012 RMK SLP338 T11311178 52007 IEM_DS3505
ZBHH,2008-02-03 13:00,ZBHH 031300Z AUTO 08002KT 3SM M23/M26 A3015 RMK T12301260 IEM_DS3505
ZBHH,2008-02-03 14:00,ZBHH 031400Z AUTO 03004KT 3SM M21/M24 A3015 RMK T12101240 IEM_DS3505
ZBHH,2008-02-03 15:00,ZBHH 031500Z AUTO 32002KT 3SM M15/M19 A3015 RMK SLP329 T11501194 52002 IEM_DS3505
ZBHH,2008-02-03 16:00,ZBHH 031600Z AUTO 08004KT 3SM M22/M26 A3015 RMK T12201260 IEM_DS3505
ZBHH,2008-02-03 17:00,ZBHH 031700Z AUTO 08006KT 3SM M24/M28 A3012 RMK T12401280 IEM_DS3505
ZBHH,2008-02-03 18:00,ZBHH 031800Z AUTO 09002KT 2 1/2SM M17/M21 A3015 RMK SLP328 T11721209 52002 IEM_DS3505
ZBHH,2008-02-03 19:00,ZBHH 031900Z AUTO 10006KT 3SM M25/M28 A3015 RMK T12501280 IEM_DS3505
ZBHH,2008-02-03 20:00,ZBHH 032000Z AUTO 09004KT 3SM M22/M26 A3012 RMK T12201260 IEM_DS3505
ZBHH,2008-02-03 21:00,ZBHH 032100Z AUTO 29002KT 3SM M17/M21 A3012 RMK SLP320 T11701212 57008 IEM_DS3505
ZBHH,2008-02-03 22:00,ZBHH 032200Z AUTO 09004KT 3SM M24/M28 A3012 RMK T12401280 IEM_DS3505
ZBHH,2008-02-03 23:00,ZBHH 032300Z AUTO 08006KT 3SM M21/M25 A3012 RMK T12101250 IEM_DS3505
ZBHH,2008-02-04 00:00,ZBHH 040000Z AUTO 09002KT 2 1/2SM M16/M20 A3015 RMK SLP329 T11551201 52006 IEM_DS3505
ZBHH,2008-02-04 01:00,ZBHH 040100Z AUTO 34002KT 2 1/2SM M20/M23 A3015 RMK T12001230 IEM_DS3505
ZBHH,2008-02-04 02:00,ZBHH 040200Z AUTO 10002KT 3SM M16/M21 A3015 RMK T11601210 IEM_DS3505
ZBHH,2008-02-04 03:00,ZBHH 040300Z AUTO 25006KT 2SM M10/M17 A3015 RMK SLP326 T11041169 52005 IEM_DS3505
ZBHH,2008-02-04 04:00,ZBHH 040400Z AUTO 24008KT 2 1/2SM M12/M18 A3015 RMK T11201180 IEM_DS3505
ZBHH,2008-02-04 05:00,ZBHH 040500Z AUTO 21006KT 1 1/2SM M12/M18 A3012 RMK T11201180 IEM_DS3505
ZBHH,2008-02-04 06:00,ZBHH 040600Z AUTO 22004KT 2SM M12/M16 A3015 RMK 60000 SLP336 T11251155 57002 IEM_DS3505
ZBHH,2008-02-04 07:00,ZBHH 040700Z AUTO 18004KT 1SM M14/M16 A3015 RMK T11401160 IEM_DS3505
ZBHH,2008-02-04 08:00,ZBHH 040800Z AUTO 19004KT 1/2SM M14/M16 A3018 RMK T11401160 IEM_DS3505
ZBHH,2008-02-04 09:00,ZBHH 040900Z AUTO 27002KT 2SM M12/M14 A3018 RMK SLP348 T11151144 52013 IEM_DS3505
ZBHH,2008-02-04 10:00,ZBHH 041000Z AUTO 17004KT 1SM M15/M16 A3021 RMK T11501160 IEM_DS3505
ZBHH,2008-02-04 11:00,ZBHH 041100Z AUTO 11002KT 1 1/4SM M17/M19 A3024 RMK T11701190 IEM_DS3505
ZBHH,2008-02-04 12:00,ZBHH 041200Z AUTO 32006KT 19SM M12/M21 A3027 RMK 60001 SLP373 T11251206 52023 IEM_DS3505
ZBHH,2008-02-04 13:00,ZBHH 041300Z AUTO 03004KT 5SM M16/M20 A3030 RMK T11601200 IEM_DS3505
ZBHH,2008-02-04 14:00,ZBHH 041400Z AUTO 36006KT 6SM M16/M21 A3030 RMK T11601210 IEM_DS3505
ZBHH,2008-02-04 15:00,ZBHH 041500Z AUTO 29006KT 12SM M15/M21 A3030 RMK SLP378 T11471211 52012 IEM_DS3505
ZBHH,2008-02-04 16:00,ZBHH 041600Z AUTO 01008KT 6SM M17/M22 A3033 RMK T11701220 IEM_DS3505
ZBHH,2008-02-04 17:00,ZBHH 041700Z AUTO 36004KT 6SM M17/M23 A3033 RMK T11701230 IEM_DS3505
ZBHH,2008-02-04 18:00,ZBHH 041800Z AUTO 32006KT 19SM M15/M22 A3033 RMK SLP396 T11521224 52009 IEM_DS3505
ZBHH,2008-02-04 19:00,ZBHH 041900Z AUTO 35004KT 6SM M19/M25 A3033 RMK T11901250 IEM_DS3505
ZBHH,2008-02-04 20:00,ZBHH 042000Z AUTO 35002KT 6SM M18/M25 A3033 RMK T11801250 IEM_DS3505
ZBHH,2008-02-04 21:00,ZBHH 042100Z AUTO 32004KT 19SM M16/M23 A3033 RMK 70001 SLP394 T11621232 57002 IEM_DS3505
ZBHH,2008-02-04 22:00,ZBHH 042200Z AUTO 32004KT 6SM M21/M26 A3033 RMK T12101260 IEM_DS3505
ZBHH,2008-02-04 23:00,ZBHH 042300Z AUTO 13002KT 4SM M25/M29 A3036 RMK T12501290 IEM_DS3505
ZBHH,2008-02-05 00:00,ZBHH 050000Z AUTO 25002KT 12SM M18/M22 A3039 RMK 70001 SLP417 T11841220 52013 IEM_DS3505
ZBHH,2008-02-05 01:00,ZBHH 050100Z AUTO 10002KT 4SM M24/M29 A3039 RMK T12401290 IEM_DS3505
ZBHH,2008-02-05 02:00,ZBHH 050200Z AUTO 00000KT 5SM M19/M25 A3042 RMK T11901250 IEM_DS3505
ZBHH,2008-02-05 03:00,ZBHH 050300Z AUTO 22004KT 5SM M15/M20 A3042 RMK SLP430 T11501203 52014 IEM_DS3505
ZBHH,2008-02-05 04:00,ZBHH 050400Z AUTO 18002KT 3SM M17/M22 A3042 RMK T11701220 IEM_DS3505
ZBHH,2008-02-05 05:00,ZBHH 050500Z AUTO 18004KT 2SM M16/M21 A3042 RMK T11601210 IEM_DS3505
ZBHH,2008-02-05 06:00,ZBHH 050600Z AUTO 22004KT 6SM M12/M19 A3039 RMK SLP410 T11191189 57011 IEM_DS3505
ZBHH,2008-02-05 07:00,ZBHH 050700Z AUTO 17004KT 2 1/2SM M15/M20 A3039 RMK T11501200 IEM_DS3505
ZBHH,2008-02-05 08:00,ZBHH 050800Z AUTO 18004KT 2 1/2SM M15/M20 A3039 RMK T11501200 IEM_DS3505
ZBHH,2008-02-05 09:00,ZBHH 050900Z AUTO 22002KT 9SM M12/M19 A3039 RMK SLP411 T11181190 57002 IEM_DS3505
ZBHH,2008-02-05 10:00,ZBHH 051000Z AUTO 18002KT 2 1/2SM M17/M22 A3039 RMK T11701220 IEM_DS3505
ZBHH,2008-02-05 11:00,ZBHH 051100Z AUTO 00000KT 2 1/2SM M19/M22 A3039 RMK T11901220 IEM_DS3505
ZBHH,2008-02-05 12:00,ZBHH 051200Z AUTO 04004KT 5SM M14/M19 A3039 RMK SLP430 T11451189 52005 IEM_DS3505
ZBHH,2008-02-05 13:00,ZBHH 051300Z AUTO 11002KT 1 1/2SM M26/M29 A3042 RMK T12601290 IEM_DS3505
ZBHH,2008-02-05 14:00,ZBHH 051400Z AUTO 06002KT 1 1/2SM M25/M28 A3039 RMK T12501280 IEM_DS3505
ZBHH,2008-02-05 15:00,ZBHH 051500Z AUTO 09004KT 7SM A3039 RMK SLP428 52001 IEM_DS3505
ZBHH,2008-02-05 16:00,ZBHH 051600Z AUTO 01002KT 2 1/2SM M25/M29 A3039 RMK T12501290 IEM_DS3505
ZBHH,2008-02-05 17:00,ZBHH 051700Z AUTO 08002KT 2 1/2SM M26/M29 A3039 RMK T12601290 IEM_DS3505
ZBHH,2008-02-05 18:00,ZBHH 051800Z AUTO 36002KT 6SM A3039 RMK SLP417 57005 IEM_DS3505
ZBHH,2008-02-05 19:00,ZBHH 051900Z AUTO 08002KT 2 1/2SM M26/M29 A3036 RMK T12601290 IEM_DS3505
ZBHH,2008-02-05 20:00,ZBHH 052000Z AUTO 07002KT 4SM M27/M30 A3036 RMK T12701300 IEM_DS3505
ZBHH,2008-02-05 21:00,ZBHH 052100Z AUTO 34002KT 7SM M20/M23 A3033 RMK SLP404 T11991232 57016 IEM_DS3505
ZBHH,2008-02-05 22:00,ZBHH 052200Z AUTO 04002KT 4SM M27/M30 A3033 RMK T12701300 IEM_DS3505
ZBHH,2008-02-05 23:00,ZBHH 052300Z AUTO 01002KT 4SM M27/M31 A3033 RMK T12701310 IEM_DS3505
ZBHH,2008-02-06 00:00,ZBHH 060000Z AUTO 00000KT 6SM M20/M23 A3036 RMK SLP419 T12011232 52006 IEM_DS3505
ZBHH,2008-02-06 01:00,ZBHH 060100Z AUTO 00000KT 4SM M22/M26 A3033 RMK T12201260 IEM_DS3505
ZBHH,2008-02-06 02:00,ZBHH 060200Z AUTO 00000KT 4SM M18/M25 A3036 RMK T11801250 IEM_DS3505
ZBHH,2008-02-06 03:00,ZBHH 060300Z AUTO 09004KT 6SM M13/M21 A3033 RMK SLP399 T11341212 57006 IEM_DS3505
ZBHH,2008-02-06 04:00,ZBHH 060400Z AUTO 21002KT 6SM M14/M21 A3033 RMK T11401210 IEM_DS3505
ZBHH,2008-02-06 05:00,ZBHH 060500Z AUTO 19002KT 6SM M12/M20 A3030 RMK T11201200 IEM_DS3505
ZBHH,2008-02-06 06:00,ZBHH 060600Z AUTO 25004KT 7SM M10/M17 A3024 RMK SLP365 T11011174 57025 IEM_DS3505
ZBHH,2008-02-06 07:00,ZBHH 060700Z AUTO 19004KT 6SM M12/M19 A3024 RMK T11201190 IEM_DS3505
ZBHH,2008-02-06 08:00,ZBHH 060800Z AUTO 18002KT 4SM M12/M19 A3024 RMK T11201190 IEM_DS3505
ZBHH,2008-02-06 09:00,ZBHH 060900Z AUTO 25004KT 6SM M10/M18 A3021 RMK SLP362 T11021177 57007 IEM_DS3505
ZBHH,2008-02-06 10:00,ZBHH 061000Z AUTO 16002KT 2 1/2SM M14/M20 A3024 RMK T11401200 IEM_DS3505
ZBHH,2008-02-06 11:00,ZBHH 061100Z AUTO 16002KT 2SM M17/M22 A3024 RMK T11701220 IEM_DS3505
ZBHH,2008-02-06 12:00,ZBHH 061200Z AUTO 02002KT 4SM M14/M18 A3027 RMK SLP384 T11351185 52010 IEM_DS3505
ZBHH,2008-02-06 13:00,ZBHH 061300Z AUTO 08002KT 2SM M23/M26 A3027 RMK T12301260 IEM_DS3505
ZBHH,2008-02-06 14:00,ZBHH 061400Z AUTO 06002KT 2 1/2SM M24/M27 A3027 RMK T12401270 IEM_DS3505
ZBHH,2008-02-06 15:00,ZBHH 061500Z AUTO 11004KT 5SM A3027 RMK SLP369 54000 IEM_DS3505
ZBHH,2008-02-06 16:00,ZBHH 061600Z AUTO 36002KT 3SM M24/M28 A3024 RMK T12401280 IEM_DS3505
ZBHH,2008-02-06 17:00,ZBHH 061700Z AUTO 00000KT 3SM M24/M28 A3024 RMK T12401280 IEM_DS3505
ZBHH,2008-02-06 18:00,ZBHH 061800Z AUTO 29002KT 2SM A3027 RMK SLP363 54000 IEM_DS3505
ZBHH,2008-02-06 19:00,ZBHH 061900Z AUTO 07004KT 3SM M25/M29 A3024 RMK T12501290 IEM_DS3505
ZBHH,2008-02-06 20:00,ZBHH 062000Z AUTO 08002KT 3SM M26/M30 A3024 RMK T12601300 IEM_DS3505
ZBHH,2008-02-06 21:00,ZBHH 062100Z AUTO 09002KT 2SM A3024 RMK SLP361 57006 IEM_DS3505
ZBHH,2008-02-06 22:00,ZBHH 062200Z AUTO 02002KT 3SM M27/M31 A3024 RMK T12701310 IEM_DS3505
ZBHH,2008-02-06 23:00,ZBHH 062300Z AUTO 00000KT 3SM M28/M31 A3027 RMK T12801310 IEM_DS3505
ZBHH,2008-02-07 00:00,ZBHH 070000Z AUTO 09004KT 3SM M18/M23 A3027 RMK SLP381 T11851229 52008 IEM_DS3505
ZBHH,2008-02-07 01:00,ZBHH 070100Z AUTO 11002KT 4SM M24/M29 A3027 RMK T12401290 IEM_DS3505
ZBHH,2008-02-07 02:00,ZBHH 070200Z AUTO 18002KT 3SM M19/M25 A3030 RMK T11901250 IEM_DS3505
ZBHH,2008-02-07 03:00,ZBHH 070300Z AUTO 18004KT 4SM M14/M19 A3030 RMK SLP388 T11421193 52012 IEM_DS3505
ZBHH,2008-02-07 04:00,ZBHH 070400Z AUTO 20004KT 2SM M15/M20 A3030 RMK T11501200 IEM_DS3505
ZBHH,2008-02-07 05:00,ZBHH 070500Z AUTO 20006KT 1SM M15/M20 A3027 RMK T11501200 IEM_DS3505
ZBHH,2008-02-07 06:00,ZBHH 070600Z AUTO 20006KT 4SM M12/M17 A3024 RMK SLP362 T11151169 57018 IEM_DS3505
ZBHH,2008-02-07 07:00,ZBHH 070700Z AUTO 20004KT 1 1/2SM M13/M18 A3024 RMK T11301180 IEM_DS3505
ZBHH,2008-02-07 08:00,ZBHH 070800Z AUTO 21002KT 1 1/2SM M13/M19 A3024 RMK T11301190 IEM_DS3505
ZBHH,2008-02-07 09:00,ZBHH 070900Z AUTO 32008KT 7SM M11/M21 A3027 RMK SLP375 T11111210 52008 IEM_DS3505
ZBHH,2008-02-07 10:00,ZBHH 071000Z AUTO 33006KT 7SM M14/M23 A3027 RMK T11401230 IEM_DS3505
ZBHH,2008-02-07 11:00,ZBHH 071100Z AUTO 36002KT 7SM M16/M23 A3030 RMK T11601230 IEM_DS3505
ZBHH,2008-02-07 12:00,ZBHH 071200Z AUTO 32006KT 19SM M14/M21 A3033 RMK SLP401 T11351210 52015 IEM_DS3505
ZBHH,2008-02-07 13:00,ZBHH 071300Z AUTO 35002KT 6SM M16/M23 A3033 RMK T11601230 IEM_DS3505
ZBHH,2008-02-07 14:00,ZBHH 071400Z AUTO 00000KT 6SM M17/M23 A3033 RMK T11701230 IEM_DS3505
ZBHH,2008-02-07 15:00,ZBHH 071500Z AUTO 32008KT 19SM M14/M22 A3033 RMK SLP398 T11421219 52006 IEM_DS3505
ZBHH,2008-02-07 16:00,ZBHH 071600Z AUTO 04002KT 6SM M18/M23 A3036 RMK T11801230 IEM_DS3505
ZBHH,2008-02-07 17:00,ZBHH 071700Z AUTO 00000KT 6SM M17/M23 A3033 RMK T11701230 IEM_DS3505
ZBHH,2008-02-07 18:00,ZBHH 071800Z AUTO 32004KT 19SM M14/M21 A3036 RMK SLP391 T11411214 52001 IEM_DS3505
ZBHH,2008-02-07 19:00,ZBHH 071900Z AUTO 14002KT 6SM M19/M23 A3036 RMK T11901230 IEM_DS3505
ZBHH,2008-02-07 20:00,ZBHH 072000Z AUTO 16004KT 6SM M19/M23 A3033 RMK T11901230 IEM_DS3505
ZBHH,2008-02-07 21:00,ZBHH 072100Z AUTO 32010KT 19SM M16/M23 A3033 RMK SLP391 T11551227 57003 IEM_DS3505
ZBHH,2008-02-07 22:00,ZBHH 072200Z AUTO 11002KT 4SM M20/M23 A3036 RMK T12001230 IEM_DS3505
ZBHH,2008-02-07 23:00,ZBHH 072300Z AUTO 20004KT 4SM M20/M23 A3036 RMK T12001230 IEM_DS3505
ZBHH,2008-02-08 00:00,ZBHH 080000Z AUTO 27004KT 19SM M18/M21 A3039 RMK SLP422 T11791212 52016 IEM_DS3505
ZBHH,2008-02-08 01:00,ZBHH 080100Z AUTO 18004KT 3SM M20/M23 A3042 RMK T12001230 IEM_DS3505
ZBHH,2008-02-08 02:00,ZBHH 080200Z AUTO 19004KT 2 1/2SM M19/M23 A3042 RMK T11901230 IEM_DS3505
ZBHH,2008-02-08 03:00,ZBHH 080300Z AUTO 22004KT 2 1/2SM M14/M19 A3042 RMK SLP429 T11411192 52013 IEM_DS3505
ZBHH,2008-02-08 04:00,ZBHH 080400Z AUTO 19006KT 4SM M16/M20 A3042 RMK T11601200 IEM_DS3505
ZBHH,2008-02-08 05:00,ZBHH 080500Z AUTO 20006KT 4SM M14/M20 A3039 RMK T11401200 IEM_DS3505
ZBHH,2008-02-08 06:00,ZBHH 080600Z AUTO 22004KT 5SM M12/M18 A3036 RMK SLP403 T11241178 57018 IEM_DS3505
ZBHH,2008-02-08 07:00,ZBHH 080700Z AUTO 22008KT 3SM M13/M18 A3036 RMK T11301180 IEM_DS3505
ZBHH,2008-02-08 08:00,ZBHH 080800Z AUTO 21004KT 5SM M13/M18 A3036 RMK T11301180 IEM_DS3505
ZBHH,2008-02-08 09:00,ZBHH 080900Z AUTO 27004KT 7SM M10/M17 A3036 RMK SLP400 T11051174 57001 IEM_DS3505
ZBHH,2008-02-08 10:00,ZBHH 081000Z AUTO 18002KT 7SM M14/M19 A3036 RMK T11401190 IEM_DS3505
ZBHH,2008-02-08 11:00,ZBHH 081100Z AUTO 09004KT 4SM M16/M20 A3036 RMK T11601200 IEM_DS3505
ZBHH,2008-02-08 12:00,ZBHH 081200Z AUTO 04004KT 7SM M13/M16 A3039 RMK SLP419 T11271165 52005 IEM_DS3505
ZBHH,2008-02-08 13:00,ZBHH 081300Z AUTO 11004KT 3SM M21/M23 A3039 RMK T12101230 IEM_DS3505
ZBHH,2008-02-08 14:00,ZBHH 081400Z AUTO 11004KT 4SM M23/M27 A3039 RMK T12301270 IEM_DS3505
ZBHH,2008-02-08 15:00,ZBHH 081500Z AUTO 11002KT 9SM M16/M20 A3039 RMK SLP419 T11581202 52002 IEM_DS3505
ZBHH,2008-02-08 16:00,ZBHH 081600Z AUTO 09002KT 7SM M24/M28 A3039 RMK T12401280 IEM_DS3505
ZBHH,2008-02-08 17:00,ZBHH 081700Z AUTO 36002KT 7SM M23/M27 A3039 RMK T12301270 IEM_DS3505
ZBHH,2008-02-08 18:00,ZBHH 081800Z AUTO 09002KT 16SM M17/M22 A3039 RMK SLP412 T11701217 57005 IEM_DS3505
ZBHH,2008-02-08 19:00,ZBHH 081900Z AUTO 08004KT 7SM M26/M29 A3036 RMK T12601290 IEM_DS3505
ZBHH,2008-02-08 20:00,ZBHH 082000Z AUTO 10004KT 7SM M26/M30 A3036 RMK T12601300 IEM_DS3505
ZBHH,2008-02-08 21:00,ZBHH 082100Z AUTO 09002KT 12SM A3036 RMK SLP404 57004 IEM_DS3505
ZBHH,2008-02-08 22:00,ZBHH 082200Z AUTO 09004KT 7SM M27/M31 A3036 RMK T12701310 IEM_DS3505
ZBHH,2008-02-08 23:00,ZBHH 082300Z AUTO 00000KT 7SM M27/M31 A3033 RMK T12701310 IEM_DS3505
ZBHH,2008-02-09 00:00,ZBHH 090000Z AUTO 07002KT 9SM M18/M22 A3033 RMK SLP400 T11841224 57011 IEM_DS3505
ZBHH,2008-02-09 01:00,ZBHH 090100Z AUTO 08004KT 4SM M22/M25 A3033 RMK T12201250 IEM_DS3505
ZBHH,2008-02-09 02:00,ZBHH 090200Z AUTO 07002KT 3SM M18/M23 A3033 RMK T11801230 IEM_DS3505
ZBHH,2008-02-09 03:00,ZBHH 090300Z AUTO 09004KT 6SM M13/M19 A3033 RMK SLP399 T11301191 52005 IEM_DS3505
ZBHH,2008-02-09 04:00,ZBHH 090400Z AUTO 16002KT 6SM M14/M20 A3033 RMK T11401200 IEM_DS3505
ZBHH,2008-02-09 05:00,ZBHH 090500Z AUTO 19004KT 4SM M13/M19 A3027 RMK T11301190 IEM_DS3505
ZBHH,2008-02-09 06:00,ZBHH 090600Z AUTO 22004KT 6SM M10/M17 A3027 RMK SLP365 T11041169 57026 IEM_DS3505
ZBHH,2008-02-09 07:00,ZBHH 090700Z AUTO 19002KT 3SM M12/M19 A3024 RMK T11201190 IEM_DS3505
ZBHH,2008-02-09 08:00,ZBHH 090800Z AUTO 21004KT 5SM M12/M19 A3024 RMK T11201190 IEM_DS3505
ZBHH,2008-02-09 09:00,ZBHH 090900Z AUTO 22004KT 12SM M10/M18 A3024 RMK SLP355 T11001180 57010 IEM_DS3505
ZBHH,2008-02-09 10:00,ZBHH 091000Z AUTO 07004KT 3SM M14/M20 A3021 RMK T11401200 IEM_DS3505
ZBHH,2008-02-09 11:00,ZBHH 091100Z AUTO 09004KT 3SM M18/M23 A3024 RMK T11801230 IEM_DS3505
ZBHH,2008-02-09 12:00,ZBHH 091200Z AUTO 10004KT 2 1/2SM M21/M24 A3024 RMK T12101240 IEM_DS3505
ZBHH,2008-02-09 13:00,ZBHH 091300Z AUTO 04004KT 2 1/2SM M19/M23 A3027 RMK T11901230 IEM_DS3505
ZBHH,2008-02-09 14:00,ZBHH 091400Z AUTO 09002KT 3SM M23/M27 A3027 RMK T12301270 IEM_DS3505
ZBHH,2008-02-09 15:00,ZBHH 091500Z AUTO 07002KT 6SM M15/M20 A3027 RMK SLP366 T11511197 52001 IEM_DS3505
ZBHH,2008-02-09 16:00,ZBHH 091600Z AUTO 07002KT 3SM M23/M28 A3027 RMK T12301280 IEM_DS3505
ZBHH,2008-02-09 17:00,ZBHH 091700Z AUTO 09002KT 4SM M25/M28 A3027 RMK T12501280 IEM_DS3505
ZBHH,2008-02-09 18:00,ZBHH 091800Z AUTO 36002KT 6SM M16/M20 A3027 RMK SLP365 T11651205 52002 IEM_DS3505
ZBHH,2008-02-09 19:00,ZBHH 091900Z AUTO 07002KT 4SM M24/M28 A3024 RMK T12401280 IEM_DS3505
ZBHH,2008-02-09 20:00,ZBHH 092000Z AUTO 10004KT 4SM M26/M30 A3024 RMK T12601300 IEM_DS3505
ZBHH,2008-02-09 21:00,ZBHH 092100Z AUTO 04002KT 12SM A3027 RMK SLP367 54000 IEM_DS3505
ZBHH,2008-02-09 22:00,ZBHH 092200Z AUTO 09002KT 4SM M26/M29 A3027 RMK T12601290 IEM_DS3505
ZBHH,2008-02-09 23:00,ZBHH 092300Z AUTO 00000KT 3SM M26/M30 A3030 RMK T12601300 IEM_DS3505
ZBHH,2008-02-10 00:00,ZBHH 100000Z AUTO 04004KT 6SM A3030 RMK SLP388 52012 IEM_DS3505
ZBHH,2008-02-10 04:00,ZBHH 100400Z AUTO 21004KT 4SM M13/M19 A3033 RMK T11301190 IEM_DS3505
ZBHH,2008-02-10 05:00,ZBHH 100500Z AUTO 21006KT 4SM M12/M18 A3030 RMK T11201180 IEM_DS3505
ZBHH,2008-02-10 06:00,ZBHH 100600Z AUTO 22004KT 9SM M09/M17 A3027 RMK SLP366 T10911174 57016 IEM_DS3505
ZBHH,2008-02-10 07:00,ZBHH 100700Z AUTO 20002KT 2 1/2SM M10/M18 A3027 RMK T11001180 IEM_DS3505
ZBHH,2008-02-10 08:00,ZBHH 100800Z AUTO 23004KT 4SM M10/M18 A3027 RMK T11001180 IEM_DS3505
ZBHH,2008-02-10 09:00,ZBHH 100900Z AUTO 29002KT 6SM M09/M16 A3027 RMK SLP370 T10901160 52001 IEM_DS3505
ZBHH,2008-02-10 10:00,ZBHH 101000Z AUTO 21002KT 4SM M12/M19 A3027 RMK T11201190 IEM_DS3505
ZBHH,2008-02-10 11:00,ZBHH 101100Z AUTO 00000KT 3SM M13/M18 A3030 RMK T11301180 IEM_DS3505
ZBHH,2008-02-10 12:00,ZBHH 101200Z AUTO 32002KT 7SM M10/M18 A3033 RMK SLP390 T11051176 52014 IEM_DS3505
ZBHH,2008-02-10 13:00,ZBHH 101300Z AUTO 00000KT 2 1/2SM M17/M21 A3033 RMK T11701210 IEM_DS3505
ZBHH,2008-02-10 15:00,ZBHH 101500Z AUTO 32004KT 19SM M12/M23 A3039 RMK SLP404 T11161234 52024 IEM_DS3505
ZBHH,2008-02-10 16:00,ZBHH 101600Z AUTO 30002KT 6SM M16/M26 A3039 RMK T11601260 IEM_DS3505
ZBHH,2008-02-10 17:00,ZBHH 101700Z AUTO 03010KT 6SM M16/M27 A3039 RMK T11601270 IEM_DS3505
ZBHH,2008-02-10 18:00,ZBHH 101800Z AUTO 29006KT 19SM M14/M27 A3039 RMK SLP404 T11411269 54000 IEM_DS3505
ZBHH,2008-02-10 19:00,ZBHH 101900Z AUTO 02010KT 6SM M17/M29 A3042 RMK T11701290 IEM_DS3505
ZBHH,2008-02-10 21:00,ZBHH 102100Z AUTO 29006KT 19SM M17/M28 RMK SLP423 T11671277 52010 IEM_DS3505
ZBHH,2008-02-11 00:00,ZBHH 110000Z AUTO 29006KT 19SM M18/M29 A3047 RMK SLP448 T11751290 52017 IEM_DS3505
ZBHH,2008-02-11 01:00,ZBHH 110100Z AUTO 01014KT 6SM M20/M32 A3050 RMK T12001320 IEM_DS3505
ZBHH,2008-02-11 02:00,ZBHH 110200Z AUTO 34014KT 6SM M19/M31 A3050 RMK T11901310 IEM_DS3505
ZBHH,2008-02-11 03:00,ZBHH 110300Z AUTO 32010KT 19SM M15/M29 A3053 RMK SLP462 T11501287 52015 IEM_DS3505
ZBHH,2008-02-11 04:00,ZBHH 110400Z AUTO 36010KT 6SM M17/M29 A3053 RMK T11701290 IEM_DS3505
ZBHH,2008-02-11 05:00,ZBHH 110500Z AUTO 01008KT 6SM M16/M28 A3050 RMK T11601280 IEM_DS3505
ZBHH,2008-02-11 06:00,ZBHH 110600Z AUTO 02006KT 19SM M12/M28 A3047 RMK SLP442 T11241280 57017 IEM_DS3505
ZBHH,2008-02-11 07:00,ZBHH 110700Z AUTO 35008KT 6SM M15/M28 A3047 RMK T11501280 IEM_DS3505
ZBHH,2008-02-11 08:00,ZBHH 110800Z AUTO 35010KT 6SM M15/M30 A3047 RMK T11501300 IEM_DS3505
ZBHH,2008-02-11 09:00,ZBHH 110900Z AUTO 32004KT 19SM M12/M30 A3047 RMK SLP439 T11221296 57008 IEM_DS3505
ZBHH,2008-02-11 10:00,ZBHH 111000Z AUTO 36008KT 6SM M16/M30 A3047 RMK T11601300 IEM_DS3505
ZBHH,2008-02-11 11:00,ZBHH 111100Z AUTO 31002KT 6SM M18/M30 A3047 RMK T11801300 IEM_DS3505
ZBHH,2008-02-11 12:00,ZBHH 111200Z AUTO 29004KT 19SM M15/M29 A3050 RMK SLP462 T11471288 52012 IEM_DS3505
ZBHH,2008-02-11 13:00,ZBHH 111300Z AUTO 01002KT 6SM M19/M30 A3050 RMK T11901300 IEM_DS3505
ZBHH,2008-02-11 14:00,ZBHH 111400Z AUTO 00000KT 6SM M22/M32 A3050 RMK T12201320 IEM_DS3505
ZBHH,2008-02-11 15:00,ZBHH 111500Z AUTO 27002KT 19SM M16/M28 A3050 RMK SLP466 T11611277 52006 IEM_DS3505
ZBHH,2008-02-11 16:00,ZBHH 111600Z AUTO 09004KT 6SM M27/M33 A3050 RMK T12701330 IEM_DS3505
ZBHH,2008-02-11 17:00,ZBHH 111700Z AUTO 10004KT 6SM A3047 RMK IEM_DS3505
ZBHH,2008-02-11 18:00,ZBHH 111800Z AUTO 02002KT 19SM M19/M26 A3047 RMK SLP455 T11881264 57010 IEM_DS3505
ZBHH,2008-02-11 19:00,ZBHH 111900Z AUTO 04002KT 6SM M25/M31 A3047 RMK T12501310 IEM_DS3505
ZBHH,2008-02-11 20:00,ZBHH 112000Z AUTO 07002KT 6SM M28/M33 A3045 RMK T12801330 IEM_DS3505
ZBHH,2008-02-11 21:00,ZBHH 112100Z AUTO 27002KT 19SM A3047 RMK SLP453 57003 IEM_DS3505
ZBHH,2008-02-11 22:00,ZBHH 112200Z AUTO 10002KT 6SM M31/M37 A3047 RMK T13101370 IEM_DS3505
ZBHH,2008-02-11 23:00,ZBHH 112300Z AUTO 09004KT 6SM M31/M35 A3047 RMK T13101350 IEM_DS3505
ZBHH,2008-02-12 00:00,ZBHH 120000Z AUTO 04004KT 12SM M22/M28 A3047 RMK SLP473 T12201282 52005 IEM_DS3505
ZBHH,2008-02-12 01:00,ZBHH 120100Z AUTO 09002KT 6SM M26/M32 A3047 RMK T12601320 IEM_DS3505
ZBHH,2008-02-12 02:00,ZBHH 120200Z AUTO 00000KT 6SM M21/M28 A3050 RMK T12101280 IEM_DS3505
ZBHH,2008-02-12 03:00,ZBHH 120300Z AUTO 11002KT 9SM M16/M25 A3050 RMK SLP463 T11561248 52004 IEM_DS3505
ZBHH,2008-02-12 04:00,ZBHH 120400Z AUTO 19002KT 6SM M17/M26 A3047 RMK T11701260 IEM_DS3505
ZBHH,2008-02-12 05:00,ZBHH 120500Z AUTO 23002KT 6SM M15/M24 A3045 RMK T11501240 IEM_DS3505
ZBHH,2008-02-12 06:00,ZBHH 120600Z AUTO 22004KT 9SM M12/M24 A3042 RMK SLP438 T11231237 57021 IEM_DS3505
ZBHH,2008-02-12 07:00,ZBHH 120700Z AUTO 20004KT 6SM M13/M23 A3039 RMK T11301230 IEM_DS3505
ZBHH,2008-02-12 08:00,ZBHH 120800Z AUTO 21006KT 6SM M13/M23 A3039 RMK T11301230 IEM_DS3505
ZBHH,2008-02-12 09:00,ZBHH 120900Z AUTO 20004KT 9SM M11/M22 A3039 RMK SLP413 T11091219 57019 IEM_DS3505
ZBHH,2008-02-12 10:00,ZBHH 121000Z AUTO 10006KT 6SM M17/M23 A3036 RMK T11701230 IEM_DS3505
ZBHH,2008-02-12 11:00,ZBHH 121100Z AUTO 07004KT 3SM M16/M23 A3036 RMK T11601230 IEM_DS3505
ZBHH,2008-02-12 12:00,ZBHH 121200Z AUTO 07002KT 19SM M14/M22 A3039 RMK SLP434 T11391223 52004 IEM_DS3505
ZBHH,2008-02-12 13:00,ZBHH 121300Z AUTO 09002KT 3SM M22/M28 A3039 RMK T12201280 IEM_DS3505
ZBHH,2008-02-12 14:00,ZBHH 121400Z AUTO 11004KT 4SM M23/M28 A3042 RMK T12301280 IEM_DS3505
ZBHH,2008-02-12 15:00,ZBHH 121500Z AUTO 34002KT 19SM M15/M22 A3039 RMK SLP424 T11531221 52004 IEM_DS3505
ZBHH,2008-02-12 16:00,ZBHH 121600Z AUTO 11004KT 4SM M24/M29 A3039 RMK T12401290 IEM_DS3505
ZBHH,2008-02-12 17:00,ZBHH 121700Z AUTO 06002KT 4SM M25/M29 A3036 RMK T12501290 IEM_DS3505
ZBHH,2008-02-12 18:00,ZBHH 121800Z AUTO 09002KT 16SM M18/M24 A3036 RMK SLP410 T11751238 57010 IEM_DS3505
ZBHH,2008-02-12 19:00,ZBHH 121900Z AUTO 00000KT 4SM M25/M29 A3036 RMK T12501290 IEM_DS3505
ZBHH,2008-02-12 20:00,ZBHH 122000Z AUTO 06002KT 4SM M26/M31 A3036 RMK T12601310 IEM_DS3505
ZBHH,2008-02-12 21:00,ZBHH 122100Z AUTO 09002KT 12SM M18/M24 A3036 RMK SLP401 T11821239 57006 IEM_DS3505
ZBHH,2008-02-12 22:00,ZBHH 122200Z AUTO 06002KT 6SM A3036 RMK IEM_DS3505
ZBHH,2008-02-12 23:00,ZBHH 122300Z AUTO 00000KT 6SM M27/M32 A3036 RMK T12701320 IEM_DS3505
ZBHH,2008-02-13 00:00,ZBHH 130000Z AUTO 11002KT 9SM M18/M23 A3036 RMK SLP416 T11841232 52005 IEM_DS3505
ZBHH,2008-02-13 01:00,ZBHH 130100Z AUTO 06002KT 3SM M23/M27 A3036 RMK T12301270 IEM_DS3505
ZBHH,2008-02-13 02:00,ZBHH 130200Z AUTO 13002KT 4SM M18/M23 A3039 RMK T11801230 IEM_DS3505
ZBHH,2008-02-13 03:00,ZBHH 130300Z AUTO 11004KT 9SM M12/M19 A3036 RMK SLP404 T11171194 52003 IEM_DS3505
ZBHH,2008-02-13 04:00,ZBHH 130400Z AUTO 23002KT 3SM M13/M19 A3036 RMK T11301190 IEM_DS3505
ZBHH,2008-02-13 05:00,ZBHH 130500Z AUTO 21004KT 1 1/2SM M12/M18 A3033 RMK T11201180 IEM_DS3505
ZBHH,2008-02-13 06:00,ZBHH 130600Z AUTO 27004KT 6SM M09/M17 A3030 RMK SLP380 T10911167 57020 IEM_DS3505
ZBHH,2008-02-13 07:00,ZBHH 130700Z AUTO 25006KT 4SM M09/M17 A3030 RMK T10901170 IEM_DS3505
ZBHH,2008-02-13 08:00,ZBHH 130800Z AUTO 18004KT 4SM M09/M17 A3027 RMK T10901170 IEM_DS3505
ZBHH,2008-02-13 09:00,ZBHH 130900Z AUTO 20002KT 9SM M08/M16 A3027 RMK SLP368 T10831162 57010 IEM_DS3505
ZBHH,2008-02-13 10:00,ZBHH 131000Z AUTO 11002KT 3SM M13/M18 A3027 RMK T11301180 IEM_DS3505
ZBHH,2008-02-13 11:00,ZBHH 131100Z AUTO 06002KT 2SM M15/M19 A3030 RMK T11501190 IEM_DS3505
ZBHH,2008-02-13 12:00,ZBHH 131200Z AUTO 07002KT 5SM M11/M17 A3030 RMK SLP387 T11101167 52009 IEM_DS3505
ZBHH,2008-02-13 13:00,ZBHH 131300Z AUTO 00000KT 2 1/2SM M20/M24 A3030 RMK T12001240 IEM_DS3505
ZBHH,2008-02-13 14:00,ZBHH 131400Z AUTO 00000KT 2 1/2SM M19/M23 A3033 RMK T11901230 IEM_DS3505
ZBHH,2008-02-13 15:00,ZBHH 131500Z AUTO 04002KT 2SM M13/M17 A3033 RMK SLP377 T11261171 52004 IEM_DS3505
ZBHH,2008-02-13 16:00,ZBHH 131600Z AUTO 12004KT 2 1/2SM M23/M27 A3030 RMK T12301270 IEM_DS3505
ZBHH,2008-02-13 17:00,ZBHH 131700Z AUTO 09006KT 2 1/2SM A3030 RMK IEM_DS3505
ZBHH,2008-02-13 18:00,ZBHH 131800Z AUTO 34002KT 3SM M14/M19 A3030 RMK SLP370 T11451188 57005 IEM_DS3505
ZBHH,2008-02-13 19:00,ZBHH 131900Z AUTO 03002KT 2 1/2SM M22/M25 A3030 RMK T12201250 IEM_DS3505
ZBHH,2008-02-13 20:00,ZBHH 132000Z AUTO 00000KT 2 1/2SM M24/M27 A3027 RMK T12401270 IEM_DS3505
ZBHH,2008-02-13 21:00,ZBHH 132100Z AUTO 02002KT 3SM A3027 RMK SLP360 57007 IEM_DS3505
ZBHH,2008-02-13 22:00,ZBHH 132200Z AUTO 08004KT 4SM M26/M29 A3027 RMK T12601290 IEM_DS3505
ZBHH,2008-02-13 23:00,ZBHH 132300Z AUTO 07002KT 4SM M24/M27 A3030 RMK T12401270 IEM_DS3505
ZBHH,2008-02-14 00:00,ZBHH 140000Z AUTO 04002KT 4SM M17/M20 A3030 RMK SLP384 T11661203 52010 IEM_DS3505
ZBHH,2008-02-14 01:00,ZBHH 140100Z AUTO 12002KT 1 1/4SM M19/M22 A3030 RMK T11901220 IEM_DS3505
ZBHH,2008-02-14 02:00,ZBHH 140200Z AUTO 13002KT 3SM M14/M18 A3030 RMK T11401180 IEM_DS3505
ZBHH,2008-02-14 03:00,ZBHH 140300Z AUTO 16002KT 6SM M10/M16 A3030 RMK SLP372 T11051160 54000 IEM_DS3505
ZBHH,2008-02-14 04:00,ZBHH 140400Z AUTO 22002KT 4SM M11/M17 A3030 RMK T11101170 IEM_DS3505
ZBHH,2008-02-14 05:00,ZBHH 140500Z AUTO 20002KT 4SM M10/M16 A3027 RMK T11001160 IEM_DS3505
ZBHH,2008-02-14 06:00,ZBHH 140600Z AUTO 20004KT 6SM M07/M15 A3024 RMK SLP344 T10661153 57020 IEM_DS3505
ZBHH,2008-02-14 07:00,ZBHH 140700Z AUTO 19002KT 2 1/2SM M08/M15 A3024 RMK T10801150 IEM_DS3505
ZBHH,2008-02-14 08:00,ZBHH 140800Z AUTO 20002KT 2 1/2SM M07/M14 A3024 RMK T10701140 IEM_DS3505
ZBHH,2008-02-14 09:00,ZBHH 140900Z AUTO 32002KT 5SM M06/M15 A3024 RMK SLP336 T10551148 57004 IEM_DS3505
ZBHH,2008-02-14 10:00,ZBHH 141000Z AUTO 11004KT 2 1/2SM M10/M15 A3024 RMK T11001150 IEM_DS3505
ZBHH,2008-02-14 11:00,ZBHH 141100Z AUTO 11002KT 2 1/2SM M12/M16 A3024 RMK T11201160 IEM_DS3505
ZBHH,2008-02-14 12:00,ZBHH 141200Z AUTO 04004KT 6SM M09/M14 A3027 RMK SLP361 T10871139 52009 IEM_DS3505
ZBHH,2008-02-14 13:00,ZBHH 141300Z AUTO 07002KT 2 1/2SM M18/M22 A3027 RMK T11801220 IEM_DS3505
ZBHH,2008-02-14 14:00,ZBHH 141400Z AUTO 07004KT 4SM M18/M23 A3027 RMK T11801230 IEM_DS3505
ZBHH,2008-02-14 15:00,ZBHH 141500Z AUTO 34002KT 6SM M11/M16 A3027 RMK SLP357 T11111155 52006 IEM_DS3505
ZBHH,2008-02-14 16:00,ZBHH 141600Z AUTO 08006KT 4SM M16/M21 A3027 RMK T11601210 IEM_DS3505
ZBHH,2008-02-14 17:00,ZBHH 141700Z AUTO 05002KT 4SM M20/M23 A3027 RMK T12001230 IEM_DS3505
ZBHH,2008-02-14 18:00,ZBHH 141800Z AUTO 09002KT 6SM M14/M18 A3027 RMK SLP353 T11421185 57002 IEM_DS3505
ZBHH,2008-02-14 19:00,ZBHH 141900Z AUTO 09006KT A3027 RMK IEM_DS3505
ZBHH,2008-02-14 20:00,ZBHH 142000Z AUTO 09004KT 4SM M21/M24 A3024 RMK T12101240 IEM_DS3505
ZBHH,2008-02-14 21:00,ZBHH 142100Z AUTO 04002KT 6SM M15/M19 A3027 RMK SLP347 T11461190 57004 IEM_DS3505
ZBHH,2008-02-14 22:00,ZBHH 142200Z AUTO 00000KT 5SM M21/M25 A3027 RMK T12101250 IEM_DS3505
ZBHH,2008-02-14 23:00,ZBHH 142300Z AUTO 07002KT 6SM M22/M25 A3027 RMK T12201250 IEM_DS3505
ZBHH,2008-02-15 00:00,ZBHH 150000Z AUTO 09002KT 6SM M15/M19 A3030 RMK SLP366 T11481194 52009 IEM_DS3505
ZBHH,2008-02-15 01:00,ZBHH 150100Z AUTO 09004KT 5SM M17/M22 A3030 RMK T11701220 IEM_DS3505
ZBHH,2008-02-15 02:00,ZBHH 150200Z AUTO 10002KT 6SM M14/M19 A3030 RMK T11401190 IEM_DS3505
ZBHH,2008-02-15 03:00,ZBHH 150300Z AUTO 11002KT 6SM M07/M17 A3030 RMK SLP353 T10741168 54000 IEM_DS3505
ZBHH,2008-02-15 04:00,ZBHH 150400Z AUTO 15002KT 5SM M07/M16 A3027 RMK T10701160 IEM_DS3505
ZBHH,2008-02-15 05:00,ZBHH 150500Z AUTO 19002KT 4SM M06/M15 A3024 RMK T10601150 IEM_DS3505
ZBHH,2008-02-15 06:00,ZBHH 150600Z AUTO 20006KT 6SM M04/M15 A3024 RMK SLP332 T10401150 57017 IEM_DS3505
ZBHH,2008-02-15 07:00,ZBHH 150700Z AUTO 21004KT 5SM M05/M14 A3021 RMK T10501140 IEM_DS3505
ZBHH,2008-02-15 08:00,ZBHH 150800Z AUTO 23004KT 6SM M04/M14 A3024 RMK T10401140 IEM_DS3505
ZBHH,2008-02-15 09:00,ZBHH 150900Z AUTO 25006KT 9SM M04/M16 A3024 RMK SLP335 T10371156 52002 IEM_DS3505
ZBHH,2008-02-15 10:00,ZBHH 151000Z AUTO 22004KT 4SM M06/M14 A3024 RMK T10601140 IEM_DS3505
ZBHH,2008-02-15 11:00,ZBHH 151100Z AUTO 10002KT 4SM M10/M16 A3027 RMK T11001160 IEM_DS3505
ZBHH,2008-02-15 12:00,ZBHH 151200Z AUTO 36002KT 6SM M07/M14 A3030 RMK SLP364 T10721141 52017 IEM_DS3505
ZBHH,2008-02-15 13:00,ZBHH 151300Z AUTO 09002KT 4SM M14/M18 A3033 RMK T11401180 IEM_DS3505
ZBHH,2008-02-15 14:00,ZBHH 151400Z AUTO 09006KT 4SM M17/M21 A3033 RMK T11701210 IEM_DS3505
ZBHH,2008-02-15 15:00,ZBHH 151500Z AUTO 29002KT 6SM M10/M15 A3036 RMK SLP370 T10971152 52016 IEM_DS3505
ZBHH,2008-02-15 16:00,ZBHH 151600Z AUTO 07002KT 4SM M18/M21 A3036 RMK T11801210 IEM_DS3505
ZBHH,2008-02-15 17:00,ZBHH 151700Z AUTO 10004KT 4SM M18/M22 A3036 RMK T11801220 IEM_DS3505
ZBHH,2008-02-15 18:00,ZBHH 151800Z AUTO 09002KT 9SM M12/M17 A3036 RMK SLP374 T11191166 52007 IEM_DS3505
ZBHH,2008-02-15 19:00,ZBHH 151900Z AUTO 14002KT 4SM M18/M21 A3036 RMK T11801210 IEM_DS3505
ZBHH,2008-02-15 20:00,ZBHH 152000Z AUTO 18002KT 4SM M19/M22 A3036 RMK T11901220 IEM_DS3505
ZBHH,2008-02-15 21:00,ZBHH 152100Z AUTO 34002KT 9SM M13/M16 A3036 RMK SLP373 T11311163 57003 IEM_DS3505
ZBHH,2008-02-15 22:00,ZBHH 152200Z AUTO 09006KT 6SM M19/M22 A3039 RMK T11901220 IEM_DS3505
ZBHH,2008-02-15 23:00,ZBHH 152300Z AUTO 07004KT 6SM M17/M21 A3039 RMK T11701210 IEM_DS3505
ZBHH,2008-02-16 00:00,ZBHH 160000Z AUTO 27004KT 9SM M14/M17 A3042 RMK SLP405 T11361172 52018 IEM_DS3505
ZBHH,2008-02-16 01:00,ZBHH 160100Z AUTO 09004KT 6SM M16/M20 A3045 RMK T11601200 IEM_DS3505
ZBHH,2008-02-16 02:00,ZBHH 160200Z AUTO 15002KT 6SM M12/M18 A3045 RMK T11201180 IEM_DS3505
ZBHH,2008-02-16 03:00,ZBHH 160300Z AUTO 25004KT 2SM M07/M16 A3042 RMK SLP400 T10731159 52005 IEM_DS3505
ZBHH,2008-02-16 04:00,ZBHH 160400Z AUTO 21004KT 6SM M07/M15 A3042 RMK T10701150 IEM_DS3505
ZBHH,2008-02-16 05:00,ZBHH 160500Z AUTO 22006KT 6SM M06/M14 A3042 RMK T10601140 IEM_DS3505
ZBHH,2008-02-16 06:00,ZBHH 160600Z AUTO 20006KT 3SM M03/M15 A3039 RMK SLP379 T10281151 57013 IEM_DS3505
ZBHH,2008-02-16 07:00,ZBHH 160700Z AUTO 20004KT 6SM M04/M14 A3039 RMK T10401140 IEM_DS3505
ZBHH,2008-02-16 08:00,ZBHH 160800Z AUTO 20004KT 6SM M04/M14 A3036 RMK T10401140 IEM_DS3505
ZBHH,2008-02-16 09:00,ZBHH 160900Z AUTO 25004KT 12SM M02/M16 A3039 RMK SLP377 T10201158 57003 IEM_DS3505
ZBHH,2008-02-16 10:00,ZBHH 161000Z AUTO 35004KT 6SM M06/M17 A3039 RMK T10601170 IEM_DS3505
ZBHH,2008-02-16 11:00,ZBHH 161100Z AUTO 02002KT 6SM M08/M21 A3042 RMK T10801210 IEM_DS3505
ZBHH,2008-02-16 12:00,ZBHH 161200Z AUTO 00000KT 19SM M06/M20 A3042 RMK SLP398 T10611198 52008 IEM_DS3505
ZBHH,2008-02-16 13:00,ZBHH 161300Z AUTO 01002KT 6SM M10/M21 A3042 RMK T11001210 IEM_DS3505
ZBHH,2008-02-16 14:00,ZBHH 161400Z AUTO 10004KT 6SM M15/M21 A3045 RMK T11501210 IEM_DS3505
ZBHH,2008-02-16 15:00,ZBHH 161500Z AUTO 27002KT 19SM M08/M18 A3045 RMK SLP401 T10851175 52011 IEM_DS3505
ZBHH,2008-02-16 16:00,ZBHH 161600Z AUTO 10002KT 6SM M17/M22 A3045 RMK T11701220 IEM_DS3505
ZBHH,2008-02-16 17:00,ZBHH 161700Z AUTO 09002KT 6SM M18/M22 A3045 RMK T11801220 IEM_DS3505
ZBHH,2008-02-16 18:00,ZBHH 161800Z AUTO 09004KT 19SM M10/M19 A3045 RMK SLP390 T11041191 57003 IEM_DS3505
ZBHH,2008-02-16 19:00,ZBHH 161900Z AUTO 08004KT 6SM A3042 RMK IEM_DS3505
ZBHH,2008-02-16 20:00,ZBHH 162000Z AUTO 07002KT 6SM M18/M23 A3042 RMK T11801230 IEM_DS3505
ZBHH,2008-02-16 21:00,ZBHH 162100Z AUTO 00000KT 19SM M13/M20 A3042 RMK SLP386 T11271197 57007 IEM_DS3505
ZBHH,2008-02-16 22:00,ZBHH 162200Z AUTO 05002KT 6SM M18/M23 A3042 RMK T11801230 IEM_DS3505
ZBHH,2008-02-16 23:00,ZBHH 162300Z AUTO 09004KT 6SM M19/M24 A3042 RMK T11901240 IEM_DS3505
ZBHH,2008-02-17 00:00,ZBHH 170000Z AUTO 09004KT 9SM M13/M19 A3045 RMK SLP409 T11321193 52009 IEM_DS3505
ZBHH,2008-02-17 01:00,ZBHH 170100Z AUTO 09006KT 6SM M13/M20 A3045 RMK T11301200 IEM_DS3505
ZBHH,2008-02-17 02:00,ZBHH 170200Z AUTO 11004KT 6SM M09/M18 A3045 RMK T10901180 IEM_DS3505
ZBHH,2008-02-17 03:00,ZBHH 170300Z AUTO 36002KT 12SM M04/M20 A3045 RMK SLP390 T10391197 54000 IEM_DS3505
ZBHH,2008-02-17 04:00,ZBHH 170400Z AUTO 07002KT 6SM M04/M19 A3042 RMK T10401190 IEM_DS3505
ZBHH,2008-02-17 05:00,ZBHH 170500Z AUTO 09002KT 6SM M03/M19 A3039 RMK T10301190 IEM_DS3505
ZBHH,2008-02-17 06:00,ZBHH 170600Z AUTO 34002KT 12SM M00/M21 A3036 RMK SLP356 T10031206 57026 IEM_DS3505
ZBHH,2008-02-17 07:00,ZBHH 170700Z AUTO 03002KT 6SM M01/M20 A3033 RMK T10101200 IEM_DS3505
ZBHH,2008-02-17 08:00,ZBHH 170800Z AUTO 13002KT 6SM M02/M19 A3033 RMK T10201190 IEM_DS3505
ZBHH,2008-02-17 09:00,ZBHH 170900Z AUTO 00000KT 12SM M01/M19 A3033 RMK SLP354 T10061192 57008 IEM_DS3505
ZBHH,2008-02-17 10:00,ZBHH 171000Z AUTO 01002KT 6SM M03/M15 A3033 RMK T10301150 IEM_DS3505
ZBHH,2008-02-17 11:00,ZBHH 171100Z AUTO 03004KT 6SM M04/M16 A3033 RMK T10401160 IEM_DS3505
ZBHH,2008-02-17 12:00,ZBHH 171200Z AUTO 00000KT 9SM M03/M18 A3036 RMK SLP367 T10281176 52005 IEM_DS3505
ZBHH,2008-02-17 13:00,ZBHH 171300Z AUTO 05004KT 6SM M06/M15 A3036 RMK T10601150 IEM_DS3505
ZBHH,2008-02-17 14:00,ZBHH 171400Z AUTO 10002KT 6SM M08/M15 A3036 RMK T10801150 IEM_DS3505
ZBHH,2008-02-17 15:00,ZBHH 171500Z AUTO 07002KT 6SM M06/M16 A3039 RMK SLP363 T10571157 52011 IEM_DS3505
ZBHH,2008-02-17 16:00,ZBHH 171600Z AUTO 05002KT 6SM M10/M16 A3039 RMK T11001160 IEM_DS3505
ZBHH,2008-02-17 17:00,ZBHH 171700Z AUTO 00000KT 6SM M12/M16 A3039 RMK T11201160 IEM_DS3505
ZBHH,2008-02-17 18:00,ZBHH 171800Z AUTO 00000KT 9SM M08/M16 A3042 RMK SLP367 T10761162 52008 IEM_DS3505
ZBHH,2008-02-17 19:00,ZBHH 171900Z AUTO 10004KT 6SM M14/M18 A3042 RMK T11401180 IEM_DS3505
ZBHH,2008-02-17 20:00,ZBHH 172000Z AUTO 10004KT 6SM M13/M17 A3042 RMK T11301170 IEM_DS3505
ZBHH,2008-02-17 21:00,ZBHH 172100Z AUTO 07002KT 9SM M09/M16 A3042 RMK SLP371 T10871161 54000 IEM_DS3505
ZBHH,2008-02-17 22:00,ZBHH 172200Z AUTO 04004KT 7SM M14/M18 A3042 RMK T11401180 IEM_DS3505
ZBHH,2008-02-17 23:00,ZBHH 172300Z AUTO 10002KT 7SM M16/M20 A3042 RMK T11601200 IEM_DS3505
ZBHH,2008-02-18 00:00,ZBHH 180000Z AUTO 32002KT 7SM M10/M16 A3045 RMK SLP392 T10971164 52011 IEM_DS3505
ZBHH,2008-02-18 01:00,ZBHH 180100Z AUTO 00000KT 3SM M12/M16 A3045 RMK T11201160 IEM_DS3505
ZBHH,2008-02-18 02:00,ZBHH 180200Z AUTO 12004KT 4SM M08/M13 A3045 RMK T10801130 IEM_DS3505
ZBHH,2008-02-18 03:00,ZBHH 180300Z AUTO 16002KT 6SM M03/M15 A3045 RMK SLP386 T10331147 52003 IEM_DS3505
ZBHH,2008-02-18 04:00,ZBHH 180400Z AUTO 19004KT 3SM M04/M09 A3045 RMK T10401090 IEM_DS3505
ZBHH,2008-02-18 05:00,ZBHH 180500Z AUTO 22002KT 3SM M02/M09 A3042 RMK T10201090 IEM_DS3505
ZBHH,2008-02-18 06:00,ZBHH 180600Z AUTO 22006KT 5SM 00/M11 A3042 RMK SLP364 T00001108 57016 IEM_DS3505
ZBHH,2008-02-18 07:00,ZBHH 180700Z AUTO 23004KT 3SM 00/M10 A3039 RMK T00001100 IEM_DS3505
ZBHH,2008-02-18 08:00,ZBHH 180800Z AUTO 22006KT 3SM 00/M10 A3036 RMK T00001100 IEM_DS3505
ZBHH,2008-02-18 09:00,ZBHH 180900Z AUTO 20008KT 6SM 01/M10 A3036 RMK SLP352 T00091103 57011 IEM_DS3505
ZBHH,2008-02-18 10:00,ZBHH 181000Z AUTO 24004KT 4SM M02/M10 A3036 RMK T10201100 IEM_DS3505
ZBHH,2008-02-18 11:00,ZBHH 181100Z AUTO 17004KT 3SM M04/M09 A3039 RMK T10401090 IEM_DS3505
ZBHH,2008-02-18 12:00,ZBHH 181200Z AUTO 27002KT 9SM M02/M10 A3039 RMK SLP372 T10191095 52009 IEM_DS3505
ZBHH,2008-02-18 13:00,ZBHH 181300Z AUTO 08004KT 1 1/2SM M07/M10 A3042 RMK T10701100 IEM_DS3505
ZBHH,2008-02-18 14:00,ZBHH 181400Z AUTO 15002KT 1 1/4SM M08/M11 A3042 RMK T10801110 IEM_DS3505
ZBHH,2008-02-18 15:00,ZBHH 181500Z AUTO 07002KT 6SM M05/M10 A3042 RMK SLP372 T10541095 52006 IEM_DS3505
ZBHH,2008-02-18 16:00,ZBHH 181600Z AUTO 04002KT 1 1/4SM M11/M13 A3042 RMK T11101130 IEM_DS3505
ZBHH,2008-02-18 17:00,ZBHH 181700Z AUTO 05002KT 1 1/4SM M12/M14 A3042 RMK T11201140 IEM_DS3505
ZBHH,2008-02-18 18:00,ZBHH 181800Z AUTO 09002KT 6SM M07/M10 A3042 RMK SLP366 T10691102 57001 IEM_DS3505
ZBHH,2008-02-18 20:00,ZBHH 182000Z AUTO 00000KT 1 1/4SM M10/M12 A3039 RMK T11001120 IEM_DS3505
ZBHH,2008-02-18 21:00,ZBHH 182100Z AUTO 09004KT 6SM M06/M09 A3039 RMK SLP354 T10621094 57007 IEM_DS3505
ZBHH,2008-02-18 22:00,ZBHH 182200Z AUTO 04002KT 1SM M09/M10 A3039 RMK T10901100 IEM_DS3505
ZBHH,2008-02-18 23:00,ZBHH 182300Z AUTO 09002KT 1SM M12/M14 A3039 RMK T11201140 IEM_DS3505
ZBHH,2008-02-19 00:00,ZBHH 190000Z AUTO 04004KT 2SM M07/M09 A3042 RMK SLP369 T10691093 52005 IEM_DS3505
ZBHH,2008-02-19 01:00,ZBHH 190100Z AUTO 11002KT 1SM M10/M12 A3042 RMK T11001120 IEM_DS3505
ZBHH,2008-02-19 02:00,ZBHH 190200Z AUTO 17002KT 1SM M07/M10 A3042 RMK T10701100 IEM_DS3505
ZBHH,2008-02-19 03:00,ZBHH 190300Z AUTO 02002KT 4SM M05/M09 A3042 RMK SLP374 T10491090 52001 IEM_DS3505
ZBHH,2008-02-19 04:00,ZBHH 190400Z AUTO 13002KT 2SM M05/M09 A3039 RMK T10501090 IEM_DS3505
ZBHH,2008-02-19 05:00,ZBHH 190500Z AUTO 2SM M04/M09 A3039 RMK T10401090 IEM_DS3505
ZBHH,2008-02-19 06:00,ZBHH 190600Z AUTO 25004KT 5SM M01/M09 A3036 RMK SLP350 T10121093 57016 IEM_DS3505
ZBHH,2008-02-19 07:00,ZBHH 190700Z AUTO 25004KT 2SM M01/M08 A3033 RMK T10101080 IEM_DS3505
ZBHH,2008-02-19 08:00,ZBHH 190800Z AUTO 22002KT 2SM M01/M09 A3033 RMK T10101090 IEM_DS3505
ZBHH,2008-02-19 09:00,ZBHH 190900Z AUTO 25004KT 4SM 00/M09 A3033 RMK SLP333 T00031094 57010 IEM_DS3505
ZBHH,2008-02-19 10:00,ZBHH 191000Z AUTO 05004KT 2 1/2SM M03/M08 A3033 RMK T10301080 IEM_DS3505
ZBHH,2008-02-19 11:00,ZBHH 191100Z AUTO 06004KT 1 1/2SM M04/M08 A3033 RMK T10401080 IEM_DS3505
ZBHH,2008-02-19 12:00,ZBHH 191200Z AUTO 32002KT 2 1/2SM M03/M08 A3033 RMK SLP347 T10301083 52004 IEM_DS3505
ZBHH,2008-02-19 13:00,ZBHH 191300Z AUTO 09004KT 1 1/2SM M08/M11 A3033 RMK T10801110 IEM_DS3505
ZBHH,2008-02-19 14:00,ZBHH 191400Z AUTO 08004KT 1 1/2SM M10/M12 A3033 RMK T11001120 IEM_DS3505
ZBHH,2008-02-19 15:00,ZBHH 191500Z AUTO 00000KT 2 1/2SM M06/M10 A3033 RMK SLP349 T10561100 54000 IEM_DS3505
ZBHH,2008-02-19 16:00,ZBHH 191600Z AUTO 11002KT 2SM M12/M14 A3033 RMK T11201140 IEM_DS3505
ZBHH,2008-02-19 17:00,ZBHH 191700Z AUTO 08002KT 2SM M10/M14 A3033 RMK T11001140 IEM_DS3505
ZBHH,2008-02-19 18:00,ZBHH 191800Z AUTO 11002KT 2 1/2SM M08/M11 RMK SLP341 T10791109 57004 IEM_DS3505
ZBHH,2008-02-19 19:00,ZBHH 191900Z AUTO 06002KT 2SM M13/M15 A3033 RMK T11301150 IEM_DS3505
ZBHH,2008-02-19 20:00,ZBHH 192000Z AUTO 08004KT 2SM M14/M16 A3030 RMK T11401160 IEM_DS3505
ZBHH,2008-02-19 21:00,ZBHH 192100Z AUTO 00000KT 6SM M10/M12 A3030 RMK SLP330 T10951125 57010 IEM_DS3505
ZBHH,2008-02-19 22:00,ZBHH 192200Z AUTO 09004KT 2SM M14/M17 A3030 RMK T11401170 IEM_DS3505
ZBHH,2008-02-19 23:00,ZBHH 192300Z AUTO 11004KT 2SM M15/M17 A3030 RMK T11501170 IEM_DS3505
ZBHH,2008-02-20 00:00,ZBHH 200000Z AUTO 07002KT 5SM M09/M12 A3030 RMK SLP337 T10921117 54000 IEM_DS3505
ZBHH,2008-02-20 01:00,ZBHH 200100Z AUTO 10002KT 1 1/2SM M11/M13 A3030 RMK T11101130 IEM_DS3505
ZBHH,2008-02-20 02:00,ZBHH 200200Z AUTO 12002KT 2SM M07/M10 A3027 RMK T10701100 IEM_DS3505
ZBHH,2008-02-20 03:00,ZBHH 200300Z AUTO 11004KT 6SM M03/M10 A3027 RMK SLP318 T10311098 57009 IEM_DS3505
ZBHH,2008-02-20 04:00,ZBHH 200400Z AUTO 24002KT 2SM M03/M10 A3024 RMK T10301100 IEM_DS3505
ZBHH,2008-02-20 05:00,ZBHH 200500Z AUTO 22002KT 2SM M01/M10 A3021 RMK T10101100 IEM_DS3505
ZBHH,2008-02-20 06:00,ZBHH 200600Z AUTO 20004KT 9SM 02/M11 A3015 RMK SLP278 T00151106 57030 IEM_DS3505
ZBHH,2008-02-20 07:00,ZBHH 200700Z AUTO 25006KT 3SM 01/M10 A3012 RMK T00101100 IEM_DS3505
ZBHH,2008-02-20 08:00,ZBHH 200800Z AUTO 23006KT 3SM 02/M10 A3009 RMK T00201100 IEM_DS3505
ZBHH,2008-02-20 09:00,ZBHH 200900Z AUTO 22004KT 12SM 03/M10 A3006 RMK SLP248 T00301099 57026 IEM_DS3505
ZBHH,2008-02-20 10:00,ZBHH 201000Z AUTO 00000KT 4SM 01/M10 A3006 RMK T00101100 IEM_DS3505
ZBHH,2008-02-20 11:00,ZBHH 201100Z AUTO 00000KT 2 1/2SM M02/M10 A3006 RMK T10201100 IEM_DS3505
ZBHH,2008-02-20 12:00,ZBHH 201200Z AUTO 25002KT 16SM M01/M09 A3006 RMK SLP248 T10081094 57008 IEM_DS3505
ZBHH,2008-02-20 13:00,ZBHH 201300Z AUTO 04002KT 2 1/2SM M05/M09 A3006 RMK T10501090 IEM_DS3505
ZBHH,2008-02-20 14:00,ZBHH 201400Z AUTO 00000KT 2 1/2SM M05/M10 A3006 RMK T10501100 IEM_DS3505
ZBHH,2008-02-20 15:00,ZBHH 201500Z AUTO 00000KT 19SM M02/M09 A3006 RMK SLP236 T10151087 52001 IEM_DS3505
ZBHH,2008-02-20 16:00,ZBHH 201600Z AUTO 09002KT 3SM M08/M11 A3003 RMK T10801110 IEM_DS3505
ZBHH,2008-02-20 17:00,ZBHH 201700Z AUTO 10004KT 3SM M08/M11 A3000 RMK T10801110 IEM_DS3505
ZBHH,2008-02-20 18:00,ZBHH 201800Z AUTO 14002KT 19SM M04/M09 A3000 RMK SLP210 T10411093 57018 IEM_DS3505
ZBHH,2008-02-20 19:00,ZBHH 201900Z AUTO 09004KT 3SM M11/M13 A2997 RMK T11101130 IEM_DS3505
ZBHH,2008-02-20 20:00,ZBHH 202000Z AUTO 04004KT 3SM M09/M11 A2997 RMK T10901110 IEM_DS3505
ZBHH,2008-02-20 21:00,ZBHH 202100Z AUTO 11002KT 12SM M06/M10 A2997 RMK SLP203 T10551097 57006 IEM_DS3505
ZBHH,2008-02-20 22:00,ZBHH 202200Z AUTO 08004KT 3SM M11/M14 A2997 RMK T11101140 IEM_DS3505
ZBHH,2008-02-20 23:00,ZBHH 202300Z AUTO 02004KT 2 1/2SM M11/M13 A2997 RMK T11101130 IEM_DS3505
ZBHH,2008-02-21 00:00,ZBHH 210000Z AUTO 09002KT 9SM M06/M10 A3000 RMK SLP219 T10581097 52005 IEM_DS3505
ZBHH,2008-02-21 01:00,ZBHH 210100Z AUTO 10004KT 2 1/2SM M07/M09 A3000 RMK T10701090 IEM_DS3505
ZBHH,2008-02-21 02:00,ZBHH 210200Z AUTO 12002KT 3SM M03/M08 A3000 RMK T10301080 IEM_DS3505
ZBHH,2008-02-21 03:00,ZBHH 210300Z AUTO 14002KT 4SM M01/M08 A3000 RMK SLP215 T10061085 52006 IEM_DS3505
ZBHH,2008-02-21 04:00,ZBHH 210400Z AUTO 15002KT 4SM 00/M08 A3000 RMK T00001080 IEM_DS3505
ZBHH,2008-02-21 05:00,ZBHH 210500Z AUTO 11002KT 6SM 01/M09 A2994 RMK T00101090 IEM_DS3505
ZBHH,2008-02-21 06:00,ZBHH 210600Z AUTO 22002KT 4SM 04/M10 A2994 RMK SLP184 T00371096 57023 IEM_DS3505
ZBHH,2008-02-21 07:00,ZBHH 210700Z AUTO 24004KT 6SM 04/M11 A2994 RMK T00401110 IEM_DS3505
ZBHH,2008-02-21 08:00,ZBHH 210800Z AUTO 35008KT 7SM 02/M07 A2994 RMK T00201070 IEM_DS3505
ZBHH,2008-02-21 09:00,ZBHH 210900Z AUTO 36004KT 12SM 02/M08 A2994 RMK SLP195 T00241080 52004 IEM_DS3505
ZBHH,2008-02-21 10:00,ZBHH 211000Z AUTO 01010KT 6SM M01/M07 A2994 RMK T10101070 IEM_DS3505
ZBHH,2008-02-21 11:00,ZBHH 211100Z AUTO 01012KT 6SM M01/M08 A2997 RMK T10101080 IEM_DS3505
ZBHH,2008-02-21 12:00,ZBHH 211200Z AUTO 09002KT 12SM M00/M09 A2997 RMK SLP206 T10021091 52003 IEM_DS3505
ZBHH,2008-02-21 13:00,ZBHH 211300Z AUTO 01010KT 6SM M02/M10 A2997 RMK T10201100 IEM_DS3505
ZBHH,2008-02-21 14:00,ZBHH 211400Z AUTO 36010KT 6SM M02/M12 A3000 RMK T10201120 IEM_DS3505
ZBHH,2008-02-21 15:00,ZBHH 211500Z AUTO 34002KT 12SM M02/M11 A3000 RMK SLP219 T10171108 52019 IEM_DS3505
ZBHH,2008-02-21 16:00,ZBHH 211600Z AUTO 03004KT 6SM M04/M13 A3003 RMK T10401130 IEM_DS3505
ZBHH,2008-02-21 17:00,ZBHH 211700Z AUTO 01008KT M06/M13 A3006 RMK T10601130 IEM_DS3505
ZBHH,2008-02-21 18:00,ZBHH 211800Z AUTO 20002KT 19SM M05/M12 A3006 RMK SLP233 T10521124 52014 IEM_DS3505
ZBHH,2008-02-21 19:00,ZBHH 211900Z AUTO 03004KT 6SM M07/M14 A3009 RMK T10701140 IEM_DS3505
ZBHH,2008-02-21 20:00,ZBHH 212000Z AUTO 10004KT 6SM M09/M14 A3009 RMK T10901140 IEM_DS3505
ZBHH,2008-02-21 21:00,ZBHH 212100Z AUTO 27002KT 19SM M08/M14 A3006 RMK SLP243 T10791139 54000 IEM_DS3505
ZBHH,2008-02-21 22:00,ZBHH 212200Z AUTO 12002KT 6SM M10/M15 A3009 RMK T11001150 IEM_DS3505
ZBHH,2008-02-21 23:00,ZBHH 212300Z AUTO 34002KT 6SM M11/M16 A3012 RMK T11101160 IEM_DS3505
ZBHH,2008-02-22 00:00,ZBHH 220000Z AUTO 09002KT 12SM M07/M14 A3015 RMK SLP281 T10731135 52029 IEM_DS3505
ZBHH,2008-02-22 01:00,ZBHH 220100Z AUTO 11002KT 6SM M08/M14 A3018 RMK T10801140 IEM_DS3505
ZBHH,2008-02-22 02:00,ZBHH 220200Z AUTO 16002KT 6SM M05/M14 A3018 RMK T10501140 IEM_DS3505
ZBHH,2008-02-22 03:00,ZBHH 220300Z AUTO 22004KT 9SM M03/M14 A3021 RMK SLP284 T10261135 52010 IEM_DS3505
ZBHH,2008-02-22 04:00,ZBHH 220400Z AUTO 24006KT 6SM M02/M14 A3018 RMK T10201140 IEM_DS3505
ZBHH,2008-02-22 05:00,ZBHH 220500Z AUTO 23008KT 6SM M01/M15 A3015 RMK T10101150 IEM_DS3505
ZBHH,2008-02-22 06:00,ZBHH 220600Z AUTO 20008KT 16SM 02/M14 A3012 RMK SLP262 T00181143 57017 IEM_DS3505
ZBHH,2008-02-22 07:00,ZBHH 220700Z AUTO 20006KT 6SM 01/M16 A3012 RMK T00101160 IEM_DS3505
ZBHH,2008-02-22 08:00,ZBHH 220800Z AUTO 26008KT 6SM 02/M16 A3012 RMK T00201160 IEM_DS3505
ZBHH,2008-02-22 09:00,ZBHH 220900Z AUTO 22008KT 16SM 03/M17 A3012 RMK SLP257 T00301167 57008 IEM_DS3505
ZBHH,2008-02-22 10:00,ZBHH 221000Z AUTO 22002KT 6SM 00/M17 A3012 RMK T00001170 IEM_DS3505
ZBHH,2008-02-22 11:00,ZBHH 221100Z AUTO 17004KT 6SM M01/M16 A3015 RMK T10101160 IEM_DS3505
ZBHH,2008-02-22 12:00,ZBHH 221200Z AUTO 07002KT 12SM M01/M15 A3015 RMK SLP276 T10061153 52010 IEM_DS3505
ZBHH,2008-02-22 13:00,ZBHH 221300Z AUTO 03006KT 6SM M05/M14 A3015 RMK T10501140 IEM_DS3505
ZBHH,2008-02-22 14:00,ZBHH 221400Z AUTO 05002KT 6SM M05/M15 A3018 RMK T10501150 IEM_DS3505
ZBHH,2008-02-22 15:00,ZBHH 221500Z AUTO 09002KT 16SM M03/M16 A3018 RMK SLP278 T10321162 52006 IEM_DS3505
ZBHH,2008-02-22 16:00,ZBHH 221600Z AUTO 10010KT 6SM M07/M17 A3021 RMK T10701170 IEM_DS3505
ZBHH,2008-02-22 17:00,ZBHH 221700Z AUTO 10012KT 6SM M08/M18 A3021 RMK T10801180 IEM_DS3505
ZBHH,2008-02-22 18:00,ZBHH 221800Z AUTO 09006KT 19SM M06/M18 A3021 RMK SLP294 T10601180 52018 IEM_DS3505
ZBHH,2008-02-22 19:00,ZBHH 221900Z AUTO 08016KT 6SM M09/M20 A3024 RMK T10901200 IEM_DS3505
ZBHH,2008-02-22 20:00,ZBHH 222000Z AUTO 09016KT 6SM M09/M21 A3021 RMK T10901210 IEM_DS3505
ZBHH,2008-02-22 21:00,ZBHH 222100Z AUTO 09006KT 19SM M08/M20 A3021 RMK SLP297 T10751203 52002 IEM_DS3505
ZBHH,2008-02-22 22:00,ZBHH 222200Z AUTO 10016KT 6SM M11/M22 A3024 RMK T11101220 IEM_DS3505
ZBHH,2008-02-22 23:00,ZBHH 222300Z AUTO 10016KT 6SM M12/M23 A3024 RMK T11201230 IEM_DS3505
ZBHH,2008-02-23 00:00,ZBHH 230000Z AUTO 07006KT 19SM M10/M22 A3024 RMK SLP321 T10961216 52008 IEM_DS3505
ZBHH,2008-02-23 01:00,ZBHH 230100Z AUTO 09014KT 6SM M10/M24 A3027 RMK T11001240 IEM_DS3505
ZBHH,2008-02-23 02:00,ZBHH 230200Z AUTO 09016KT 6SM M07/M23 A3024 RMK T10701230 IEM_DS3505
ZBHH,2008-02-23 03:00,ZBHH 230300Z AUTO 09004KT 19SM M02/M20 A3021 RMK SLP297 T10191203 57009 IEM_DS3505
ZBHH,2008-02-23 04:00,ZBHH 230400Z AUTO 10014KT 6SM M01/M21 A3021 RMK T10101210 IEM_DS3505
ZBHH,2008-02-23 05:00,ZBHH 230500Z AUTO 10010KT 6SM 01/M20 A3015 RMK T00101200 IEM_DS3505
ZBHH,2008-02-23 06:00,ZBHH 230600Z AUTO 11006KT 19SM 03/M19 A3012 RMK SLP262 T00341187 57026 IEM_DS3505
ZBHH,2008-02-23 07:00,ZBHH 230700Z AUTO 09010KT 6SM 03/M18 A3009 RMK T00301180 IEM_DS3505
ZBHH,2008-02-23 08:00,ZBHH 230800Z AUTO 09012KT 6SM 03/M17 A3009 RMK T00301170 IEM_DS3505
ZBHH,2008-02-23 09:00,ZBHH 230900Z AUTO 07004KT 19SM 04/M16 A3009 RMK SLP244 T00431161 57017 IEM_DS3505
ZBHH,2008-02-23 10:00,ZBHH 231000Z AUTO 09010KT 6SM 01/M17 A3009 RMK T00101170 IEM_DS3505
ZBHH,2008-02-23 11:00,ZBHH 231100Z AUTO 08012KT 6SM 00/M18 A3012 RMK T00001180 IEM_DS3505
ZBHH,2008-02-23 12:00,ZBHH 231200Z AUTO 07004KT 12SM 02/M17 A3015 RMK SLP276 T00161168 52018 IEM_DS3505
ZBHH,2008-02-23 13:00,ZBHH 231300Z AUTO 10010KT 7SM 00/M17 A3015 RMK T00001170 IEM_DS3505
ZBHH,2008-02-23 14:00,ZBHH 231400Z AUTO 08010KT 7SM M01/M17 A3018 RMK T10101170 IEM_DS3505
ZBHH,2008-02-23 15:00,ZBHH 231500Z AUTO 07002KT 12SM 01/M16 A3018 RMK SLP274 T00091156 52013 IEM_DS3505
ZBHH,2008-02-23 16:00,ZBHH 231600Z AUTO 09006KT 7SM M01/M16 A3018 RMK T10101160 IEM_DS3505
ZBHH,2008-02-23 17:00,ZBHH 231700Z AUTO 11006KT 7SM M01/M15 A3018 RMK T10101150 IEM_DS3505
ZBHH,2008-02-23 18:00,ZBHH 231800Z AUTO 07004KT 12SM 00/M15 A3018 RMK SLP260 T00041148 57002 IEM_DS3505
ZBHH,2008-02-23 19:00,ZBHH 231900Z AUTO 09004KT 7SM M02/M13 A3018 RMK T10201130 IEM_DS3505
ZBHH,2008-02-23 20:00,ZBHH 232000Z AUTO 13002KT 7SM M02/M13 A3018 RMK T10201130 IEM_DS3505
ZBHH,2008-02-23 21:00,ZBHH 232100Z AUTO 09006KT 5SM M01/M06 A3018 RMK 70000 SLP263 T10131057 52001 IEM_DS3505
ZBHH,2008-02-23 22:00,ZBHH 232200Z AUTO 11004KT 1SM M05/M05 A3018 RMK T10501050 IEM_DS3505
ZBHH,2008-02-23 23:00,ZBHH 232300Z AUTO 08004KT 1 1/4SM M04/M05 A3018 RMK T10401050 IEM_DS3505
ZBHH,2008-02-24 00:00,ZBHH 240000Z AUTO 09004KT 2SM M02/M05 A3021 RMK 60000 70000 SLP277 T10251048 52004 IEM_DS3505
ZBHH,2008-02-24 01:00,ZBHH 240100Z AUTO 11004KT 1/2SM M04/M05 A3021 RMK T10401050 IEM_DS3505
ZBHH,2008-02-24 02:00,ZBHH 240200Z AUTO 13004KT 1SM M04/M05 A3021 RMK T10401050 IEM_DS3505
ZBHH,2008-02-24 03:00,ZBHH 240300Z AUTO 04002KT 1 1/4SM M02/M04 A3018 RMK SLP275 T10201039 57002 IEM_DS3505
ZBHH,2008-02-24 04:00,ZBHH 240400Z AUTO 12004KT 1SM M03/M04 A3018 RMK T10301040 IEM_DS3505
ZBHH,2008-02-24 05:00,ZBHH 240500Z AUTO 10002KT 1SM M03/M04 A3015 RMK T10301040 IEM_DS3505
ZBHH,2008-02-24 06:00,ZBHH 240600Z AUTO 07002KT 1 1/4SM M01/M03 A3012 RMK 60008 SLP253 T10111031 57018 IEM_DS3505
ZBHH,2008-02-24 07:00,ZBHH 240700Z AUTO 09002KT 1SM M02/M03 A3012 RMK T10201030 IEM_DS3505
ZBHH,2008-02-24 08:00,ZBHH 240800Z AUTO 12002KT 1SM M02/M03 A3009 RMK T10201030 IEM_DS3505
ZBHH,2008-02-24 09:00,ZBHH 240900Z AUTO 29006KT 3SM M02/M06 A3009 RMK SLP251 T10151055 57007 IEM_DS3505
ZBHH,2008-02-24 10:00,ZBHH 241000Z AUTO 36006KT 4SM M04/M07 A3012 RMK T10401070 IEM_DS3505
ZBHH,2008-02-24 11:00,ZBHH 241100Z AUTO 01008KT 5SM M05/M10 A3012 RMK T10501100 IEM_DS3505
ZBHH,2008-02-24 12:00,ZBHH 241200Z AUTO 29004KT 6SM M04/M12 A3015 RMK 60003 SLP269 T10381122 52008 IEM_DS3505
ZBHH,2008-02-24 13:00,ZBHH 241300Z AUTO 02010KT 7SM M06/M12 A3015 RMK T10601120 IEM_DS3505
ZBHH,2008-02-24 14:00,ZBHH 241400Z AUTO 35004KT 7SM M06/M12 A3015 RMK T10601120 IEM_DS3505
ZBHH,2008-02-24 15:00,ZBHH 241500Z AUTO 32006KT 9SM M04/M16 A3015 RMK SLP279 T10441160 52009 IEM_DS3505
ZBHH,2008-02-24 16:00,ZBHH 241600Z AUTO 36006KT 7SM M07/M17 A3018 RMK T10701170 IEM_DS3505
ZBHH,2008-02-24 17:00,ZBHH 241700Z AUTO 02006KT 6SM M08/M18 A3015 RMK T10801180 IEM_DS3505
ZBHH,2008-02-24 18:00,ZBHH 241800Z AUTO 29006KT 12SM M06/M20 A3015 RMK SLP282 T10641204 54000 IEM_DS3505
ZBHH,2008-02-24 19:00,ZBHH 241900Z AUTO 36008KT 6SM M10/M21 A3015 RMK T11001210 IEM_DS3505
ZBHH,2008-02-24 20:00,ZBHH 242000Z AUTO 01008KT 6SM M10/M23 A3018 RMK T11001230 IEM_DS3505
ZBHH,2008-02-24 21:00,ZBHH 242100Z AUTO 32008KT 12SM M08/M24 A3015 RMK 70010 SLP286 T10781236 54000 IEM_DS3505
ZBHH,2008-02-24 22:00,ZBHH 242200Z AUTO 01012KT 6SM M10/M24 A3018 RMK T11001240 IEM_DS3505
ZBHH,2008-02-24 23:00,ZBHH 242300Z AUTO 02006KT 6SM M11/M24 A3018 RMK T11101240 IEM_DS3505
ZBHH,2008-02-25 00:00,ZBHH 250000Z AUTO 29002KT 12SM M09/M22 A3021 RMK 70010 SLP309 T10881225 52012 IEM_DS3505
ZBHH,2008-02-25 01:00,ZBHH 250100Z AUTO 13002KT 6SM M13/M21 A3021 RMK T11301210 IEM_DS3505
ZBHH,2008-02-25 02:00,ZBHH 250200Z AUTO 10002KT 6SM M11/M19 A3021 RMK T11101190 IEM_DS3505
ZBHH,2008-02-25 03:00,ZBHH 250300Z AUTO 20002KT 16SM M05/M16 A3021 RMK SLP302 T10481157 52002 IEM_DS3505
ZBHH,2008-02-25 04:00,ZBHH 250400Z AUTO 20006KT 6SM M06/M16 A3018 RMK T10601160 IEM_DS3505
ZBHH,2008-02-25 05:00,ZBHH 250500Z AUTO 19006KT 6SM M05/M16 A3018 RMK T10501160 IEM_DS3505
ZBHH,2008-02-25 06:00,ZBHH 250600Z AUTO 32012KT 19SM M02/M14 A3018 RMK SLP292 T10161137 57006 IEM_DS3505
ZBHH,2008-02-25 07:00,ZBHH 250700Z AUTO 36012KT 7SM M03/M14 A3018 RMK T10301140 IEM_DS3505
ZBHH,2008-02-25 08:00,ZBHH 250800Z AUTO 34012G23KT 7SM M03/M12 A3021 RMK T10301120 IEM_DS3505
ZBHH,2008-02-25 09:00,ZBHH 250900Z AUTO 32010G25KT 19SM M02/M17 A3021 RMK SLP307 T10171170 52010 IEM_DS3505
ZBHH,2008-02-25 10:00,ZBHH 251000Z AUTO 34014G27KT 7SM M04/M17 A3024 RMK T10401170 IEM_DS3505
ZBHH,2008-02-25 11:00,ZBHH 251100Z AUTO 33010KT 7SM M05/M18 A3027 RMK T10501180 IEM_DS3505
ZBHH,2008-02-25 12:00,ZBHH 251200Z AUTO 32006G17KT 19SM M04/M18 A3027 RMK SLP341 T10441179 52021 IEM_DS3505
ZBHH,2008-02-25 13:00,ZBHH 251300Z AUTO 34006KT 7SM M06/M19 A3030 RMK T10601190 IEM_DS3505
ZBHH,2008-02-25 14:00,ZBHH 251400Z AUTO 35010KT 7SM M07/M17 A3033 RMK T10701170 IEM_DS3505
ZBHH,2008-02-25 15:00,ZBHH 251500Z AUTO 29008KT 19SM M07/M14 A3033 RMK SLP355 T10701143 52015 IEM_DS3505
ZBHH,2008-02-25 16:00,ZBHH 251600Z AUTO 35008KT 7SM M09/M15 A3036 RMK T10901150 IEM_DS3505
ZBHH,2008-02-25 17:00,ZBHH 251700Z AUTO 00000KT 6SM M10/M15 A3036 RMK T11001150 IEM_DS3505
ZBHH,2008-02-25 18:00,ZBHH 251800Z AUTO 32004KT 19SM M08/M14 A3039 RMK SLP365 T10801138 52014 IEM_DS3505
ZBHH,2008-02-25 19:00,ZBHH 251900Z AUTO 35008KT 6SM M10/M15 A3039 RMK T11001150 IEM_DS3505
ZBHH,2008-02-25 20:00,ZBHH 252000Z AUTO 35006KT 6SM M10/M16 A3042 RMK T11001160 IEM_DS3505
ZBHH,2008-02-25 21:00,ZBHH 252100Z AUTO 29008KT 19SM M08/M14 A3042 RMK SLP376 T10831143 52009 IEM_DS3505
ZBHH,2008-02-25 22:00,ZBHH 252200Z AUTO 02004KT 6SM M12/M17 A3042 RMK T11201170 IEM_DS3505
ZBHH,2008-02-25 23:00,ZBHH 252300Z AUTO 04002KT 6SM M12/M16 A3042 RMK T11201160 IEM_DS3505
ZBHH,2008-02-26 00:00,ZBHH 260000Z AUTO 22004KT 19SM M09/M14 A3045 RMK SLP394 T10901138 52008 IEM_DS3505
ZBHH,2008-02-26 01:00,ZBHH 260100Z AUTO 15002KT 6SM M11/M16 A3047 RMK T11101160 IEM_DS3505
ZBHH,2008-02-26 02:00,ZBHH 260200Z AUTO 19002KT 6SM M08/M14 A3047 RMK T10801140 IEM_DS3505
ZBHH,2008-02-26 03:00,ZBHH 260300Z AUTO 22004KT 6SM M05/M13 A3047 RMK SLP394 T10461134 52004 IEM_DS3505
ZBHH,2008-02-26 04:00,ZBHH 260400Z AUTO 17002KT 6SM M04/M12 A3045 RMK T10401120 IEM_DS3505
ZBHH,2008-02-26 05:00,ZBHH 260500Z AUTO 23006KT 6SM M03/M14 A3042 RMK T10301140 IEM_DS3505
ZBHH,2008-02-26 06:00,ZBHH 260600Z AUTO 20006KT 19SM 00/M14 A3039 RMK SLP360 T00041140 57021 IEM_DS3505
ZBHH,2008-02-26 07:00,ZBHH 260700Z AUTO 23006KT 6SM 00/M14 A3036 RMK T00001140 IEM_DS3505
ZBHH,2008-02-26 08:00,ZBHH 260800Z AUTO 24008KT 6SM 01/M14 A3036 RMK T00101140 IEM_DS3505
ZBHH,2008-02-26 09:00,ZBHH 260900Z AUTO 29004KT 19SM 03/M16 A3033 RMK SLP336 T00321165 57015 IEM_DS3505
ZBHH,2008-02-26 10:00,ZBHH 261000Z AUTO 28008KT 6SM 01/M16 A3033 RMK T00101160 IEM_DS3505
ZBHH,2008-02-26 11:00,ZBHH 261100Z AUTO 24006KT 6SM M02/M14 A3036 RMK T10201140 IEM_DS3505
ZBHH,2008-02-26 12:00,ZBHH 261200Z AUTO 36002KT 16SM M01/M14 A3036 RMK SLP356 T10111139 52006 IEM_DS3505
ZBHH,2008-02-26 13:00,ZBHH 261300Z AUTO 31008KT 6SM M01/M17 A3036 RMK T10101170 IEM_DS3505
ZBHH,2008-02-26 14:00,ZBHH 261400Z AUTO 33004KT 6SM M03/M17 A3039 RMK T10301170 IEM_DS3505
ZBHH,2008-02-26 15:00,ZBHH 261500Z AUTO 32004KT 19SM M02/M18 A3039 RMK SLP360 T10181179 52012 IEM_DS3505
ZBHH,2008-02-26 16:00,ZBHH 261600Z AUTO 06002KT 6SM M07/M16 A3039 RMK T10701160 IEM_DS3505
ZBHH,2008-02-26 17:00,ZBHH 261700Z AUTO 15004KT 6SM M11/M15 A3039 RMK T11101150 IEM_DS3505
ZBHH,2008-02-26 18:00,ZBHH 261800Z AUTO 09002KT 19SM M04/M14 A3039 RMK SLP348 T10451136 57006 IEM_DS3505
ZBHH,2008-02-26 19:00,ZBHH 261900Z AUTO 07002KT 6SM M12/M16 A3039 RMK T11201160 IEM_DS3505
ZBHH,2008-02-26 20:00,ZBHH 262000Z AUTO 02002KT 6SM M12/M16 A3039 RMK T11201160 IEM_DS3505
ZBHH,2008-02-26 21:00,ZBHH 262100Z AUTO 11002KT 19SM M06/M14 A3036 RMK SLP344 T10641144 57001 IEM_DS3505
ZBHH,2008-02-26 22:00,ZBHH 262200Z AUTO 00000KT 6SM M14/M18 A3042 RMK T11401180 IEM_DS3505
ZBHH,2008-02-26 23:00,ZBHH 262300Z AUTO 12004KT 6SM M15/M19 A3042 RMK T11501190 IEM_DS3505
ZBHH,2008-02-27 00:00,ZBHH 270000Z AUTO 09004KT 19SM M07/M15 A3042 RMK SLP373 T10711148 52014 IEM_DS3505
ZBHH,2008-02-27 01:00,ZBHH 270100Z AUTO 09002KT 6SM M08/M15 A3042 RMK T10801150 IEM_DS3505
ZBHH,2008-02-27 02:00,ZBHH 270200Z AUTO 15002KT 6SM M05/M16 A3042 RMK T10501160 IEM_DS3505
ZBHH,2008-02-27 03:00,ZBHH 270300Z AUTO 16004KT 19SM M00/M18 A3042 RMK SLP352 T10051177 57005 IEM_DS3505
ZBHH,2008-02-27 04:00,ZBHH 270400Z AUTO 27002KT 6SM M01/M16 A3039 RMK T10101160 IEM_DS3505
ZBHH,2008-02-27 05:00,ZBHH 270500Z AUTO 25004KT 6SM 00/M16 A3036 RMK T00001160 IEM_DS3505
ZBHH,2008-02-27 06:00,ZBHH 270600Z AUTO 22004KT 12SM 03/M17 A3030 RMK SLP318 T00341174 57027 IEM_DS3505
ZBHH,2008-02-27 07:00,ZBHH 270700Z AUTO 24004KT 6SM 03/M17 A3030 RMK T00301170 IEM_DS3505
ZBHH,2008-02-27 08:00,ZBHH 270800Z AUTO 25008KT 6SM 04/M19 A3027 RMK T00401190 IEM_DS3505
ZBHH,2008-02-27 09:00,ZBHH 270900Z AUTO 22008KT 12SM 05/M17 A3024 RMK SLP290 T00461171 57026 IEM_DS3505
ZBHH,2008-02-27 10:00,ZBHH 271000Z AUTO 23004KT 6SM 02/M16 A3024 RMK T00201160 IEM_DS3505
ZBHH,2008-02-27 11:00,ZBHH 271100Z AUTO 17004KT 4SM 00/M16 A3024 RMK T00001160 IEM_DS3505
ZBHH,2008-02-27 12:00,ZBHH 271200Z AUTO 34002KT 12SM 00/M16 A3024 RMK SLP303 T00001159 57001 IEM_DS3505
ZBHH,2008-02-27 13:00,ZBHH 271300Z AUTO 09002KT 5SM M04/M12 A3024 RMK T10401120 IEM_DS3505
ZBHH,2008-02-27 14:00,ZBHH 271400Z AUTO 06002KT 5SM M05/M13 A3021 RMK T10501130 IEM_DS3505
ZBHH,2008-02-27 15:00,ZBHH 271500Z AUTO 36002KT 12SM M02/M13 A3021 RMK SLP284 T10251131 57007 IEM_DS3505
ZBHH,2008-02-27 16:00,ZBHH 271600Z AUTO 08002KT 6SM M08/M13 A3018 RMK T10801130 IEM_DS3505
ZBHH,2008-02-27 17:00,ZBHH 271700Z AUTO 09004KT 6SM M09/M13 A3015 RMK T10901130 IEM_DS3505
ZBHH,2008-02-27 18:00,ZBHH 271800Z AUTO 07002KT 12SM M04/M13 A3015 RMK SLP260 T10401131 57016 IEM_DS3505
ZBHH,2008-02-27 19:00,ZBHH 271900Z AUTO 00000KT 6SM M09/M14 A3012 RMK T10901140 IEM_DS3505
ZBHH,2008-02-27 20:00,ZBHH 272000Z AUTO 6SM M10/M14 A3012 RMK T11001140 IEM_DS3505
ZBHH,2008-02-27 21:00,ZBHH 272100Z AUTO 36002KT 12SM M06/M14 A3009 RMK SLP243 T10601140 57017 IEM_DS3505
ZBHH,2008-02-27 22:00,ZBHH 272200Z AUTO 00000KT 6SM M11/M15 A3009 RMK T11101150 IEM_DS3505
ZBHH,2008-02-27 23:00,ZBHH 272300Z AUTO 00000KT 6SM M13/M16 A3006 RMK T11301160 IEM_DS3505
ZBHH,2008-02-28 00:00,ZBHH 280000Z AUTO 22002KT 9SM M06/M14 A3006 RMK SLP247 T10621138 57007 IEM_DS3505
ZBHH,2008-02-28 01:00,ZBHH 280100Z AUTO 12004KT 6SM M07/M13 A3006 RMK T10701130 IEM_DS3505
ZBHH,2008-02-28 02:00,ZBHH 280200Z AUTO 22002KT 4SM M04/M12 A3006 RMK T10401120 IEM_DS3505
ZBHH,2008-02-28 03:00,ZBHH 280300Z AUTO 36002KT 4SM M00/M14 A3006 RMK SLP231 T10021135 57006 IEM_DS3505
ZBHH,2008-02-28 04:00,ZBHH 280400Z AUTO 29002KT 4SM 01/M12 A3003 RMK T00101120 IEM_DS3505
ZBHH,2008-02-28 05:00,ZBHH 280500Z AUTO 30014KT 5SM 04/M16 A2997 RMK T00401160 IEM_DS3505
ZBHH,2008-02-28 06:00,ZBHH 280600Z AUTO 34012KT 6SM 06/M18 A2997 RMK SLP193 T00551183 57024 IEM_DS3505
ZBHH,2008-02-28 07:00,ZBHH 280700Z AUTO 32017G27KT 7SM 04/M17 A2994 RMK T00401170 IEM_DS3505
ZBHH,2008-02-28 08:00,ZBHH 280800Z AUTO 34017G27KT 7SM 04/M16 A2997 RMK T00401160 IEM_DS3505
ZBHH,2008-02-28 09:00,ZBHH 280900Z AUTO 32010G23KT 9SM 04/M16 A2997 RMK SLP203 T00381165 52001 IEM_DS3505
ZBHH,2008-02-28 10:00,ZBHH 281000Z AUTO 34014G27KT 7SM 02/M16 A2997 RMK T00201160 IEM_DS3505
ZBHH,2008-02-28 11:00,ZBHH 281100Z AUTO 33010KT 7SM 01/M16 A3000 RMK T00101160 IEM_DS3505
ZBHH,2008-02-28 12:00,ZBHH 281200Z AUTO 32004G21KT 19SM 01/M16 A3000 RMK SLP222 T00121157 52010 IEM_DS3505
ZBHH,2008-02-28 13:00,ZBHH 281300Z AUTO 34008KT 7SM 00/M15 A3000 RMK T00001150 IEM_DS3505
ZBHH,2008-02-28 14:00,ZBHH 281400Z AUTO 35006G16KT 7SM M01/M15 A3000 RMK T10101150 IEM_DS3505
ZBHH,2008-02-28 15:00,ZBHH 281500Z AUTO 27004KT 19SM M02/M15 A3000 RMK SLP216 T10161154 52002 IEM_DS3505
ZBHH,2008-02-28 16:00,ZBHH 281600Z AUTO 01006KT 6SM M04/M15 A3000 RMK T10401150 IEM_DS3505
ZBHH,2008-02-28 17:00,ZBHH 281700Z AUTO 34004KT 6SM M05/M15 A3000 RMK T10501150 IEM_DS3505
ZBHH,2008-02-28 18:00,ZBHH 281800Z AUTO 00000KT 19SM M05/M15 A3000 RMK SLP202 T10471146 57007 IEM_DS3505
ZBHH,2008-02-28 19:00,ZBHH 281900Z AUTO 08006KT 6SM M09/M14 A2997 RMK T10901140 IEM_DS3505
ZBHH,2008-02-28 20:00,ZBHH 282000Z AUTO 11004KT 6SM M11/M15 A2997 RMK T11101150 IEM_DS3505
ZBHH,2008-02-28 21:00,ZBHH 282100Z AUTO 09002KT 19SM M07/M14 A2997 RMK SLP204 T10661141 57006 IEM_DS3505
ZBHH,2008-02-28 22:00,ZBHH 282200Z AUTO 12004KT 6SM M11/M16 A2997 RMK T11101160 IEM_DS3505
ZBHH,2008-02-28 23:00,ZBHH 282300Z AUTO 09004KT 6SM M12/M16 A2997 RMK T11201160 IEM_DS3505
ZBHH,2008-02-29 00:00,ZBHH 290000Z AUTO 09004KT 12SM M07/M14 A3000 RMK SLP219 T10661144 52008 IEM_DS3505
ZBHH,2008-02-29 01:00,ZBHH 290100Z AUTO 13002KT 6SM M06/M13 A3000 RMK T10601130 IEM_DS3505
ZBHH,2008-02-29 02:00,ZBHH 290200Z AUTO 13004KT 6SM M04/M14 A2997 RMK T10401140 IEM_DS3505
ZBHH,2008-02-29 03:00,ZBHH 290300Z AUTO 07004KT 7SM M00/M15 A2997 RMK SLP203 T10051152 57007 IEM_DS3505
ZBHH,2008-02-29 04:00,ZBHH 290400Z AUTO 6SM 00/M14 A2994 RMK T00001140 IEM_DS3505
ZBHH,2008-02-29 05:00,ZBHH 290500Z AUTO 23002KT 6SM 01/M16 A2991 RMK T00101160 IEM_DS3505
ZBHH,2008-02-29 06:00,ZBHH 290600Z AUTO 20004KT 7SM 03/M17 A2991 RMK SLP174 T00291173 57025 IEM_DS3505
ZBHH,2008-02-29 07:00,ZBHH 290700Z AUTO 24004KT 7SM 02/M17 A2988 RMK T00201170 IEM_DS3505
ZBHH,2008-02-29 08:00,ZBHH 290800Z AUTO 13002KT 7SM 03/M17 A2985 RMK T00301170 IEM_DS3505
ZBHH,2008-02-29 09:00,ZBHH 290900Z AUTO 34002KT 9SM 04/M17 A2983 RMK SLP152 T00451171 57020 IEM_DS3505
ZBHH,2008-02-29 10:00,ZBHH 291000Z AUTO 08006KT 7SM 01/M15 A2983 RMK T00101150 IEM_DS3505
ZBHH,2008-02-29 11:00,ZBHH 291100Z AUTO 08002KT 7SM 00/M15 A2983 RMK T00001150 IEM_DS3505
ZBHH,2008-02-29 12:00,ZBHH 291200Z AUTO 29002KT 9SM 02/M15 A2985 RMK SLP163 T00241147 52005 IEM_DS3505
ZBHH,2008-02-29 13:00,ZBHH 291300Z AUTO 17002KT 7SM M01/M12 A2985 RMK T10101120 IEM_DS3505
ZBHH,2008-02-29 14:00,ZBHH 291400Z AUTO 00000KT 4SM M01/M11 A2985 RMK T10101110 IEM_DS3505
ZBHH,2008-02-29 15:00,ZBHH 291500Z AUTO 29004KT 9SM 03/M10 A2985 RMK SLP152 T00271102 52004 IEM_DS3505
ZBHH,2008-02-29 16:00,ZBHH 291600Z AUTO 11002KT 4SM M01/M10 A2985 RMK T10101100 IEM_DS3505
ZBHH,2008-02-29 17:00,ZBHH 291700Z AUTO 24008KT 2 1/2SM 01/M08 A2985 RMK T00101080 IEM_DS3505
ZBHH,2008-02-29 18:00,ZBHH 291800Z AUTO 22006KT 7SM 02/M10 A2985 RMK SLP146 T00221097 52001 IEM_DS3505
ZBHH,2008-02-29 19:00,ZBHH 291900Z AUTO 22006KT 4SM 00/M08 A2985 RMK T00001080 IEM_DS3505
ZBHH,2008-02-29 20:00,ZBHH 292000Z AUTO 25010KT 1SM 00/M10 A2985 RMK T00001100 IEM_DS3505
ZBHH,2008-02-29 21:00,ZBHH 292100Z AUTO 29002KT 2SM 01/M12 A2985 RMK SLP141 T00131115 57003 IEM_DS3505
ZBHH,2008-02-29 22:00,ZBHH 292200Z AUTO 26004KT 1SM 00/M10 A2985 RMK T00001100 IEM_DS3505
ZBHH,2008-02-29 23:00,ZBHH 292300Z AUTO 25012KT 1 1/4SM 00/M10 A2985 RMK T00001100 IEM_DS3505
ZBHH,2008-03-01 00:00,ZBHH 010000Z AUTO 02002KT 2 1/2SM 00/M11 A2988 RMK SLP154 T00021106 52005 IEM_DS3505
ZBHH,2008-03-01 01:00,ZBHH 010100Z AUTO 00000KT 1SM 00/M12 A2988 RMK T00001120 IEM_DS3505
ZBHH,2008-03-01 02:00,ZBHH 010200Z AUTO 32016KT 4SM 00/M11 A2988 RMK T00001110 IEM_DS3505
ZBHH,2008-03-01 03:00,ZBHH 010300Z AUTO 32006KT 6SM 01/M10 A2991 RMK SLP168 T00081101 52014 IEM_DS3505
ZBHH,2008-03-01 04:00,ZBHH 010400Z AUTO 31010KT 7SM 00/M11 A2991 RMK T00001110 IEM_DS3505
ZBHH,2008-03-01 05:00,ZBHH 010500Z AUTO 31014KT 7SM 00/M11 A2991 RMK T00001110 IEM_DS3505
ZBHH,2008-03-01 06:00,ZBHH 010600Z AUTO 32014G23KT 6SM 01/M11 A2991 RMK SLP178 T00101114 52008 IEM_DS3505
ZBHH,2008-03-01 07:00,ZBHH 010700Z AUTO 32014G25KT 7SM 01/M11 A2994 RMK T00101110 IEM_DS3505
ZBHH,2008-03-01 08:00,ZBHH 010800Z AUTO 33016G25KT 7SM 00/M08 A2997 RMK T00001080 IEM_DS3505
ZBHH,2008-03-01 09:00,ZBHH 010900Z AUTO 32014G27KT 6SM 01/M09 A2997 RMK SLP202 T00091094 52019 IEM_DS3505
ZBHH,2008-03-01 10:00,ZBHH 011000Z AUTO 31012KT 7SM M01/M09 A3000 RMK T10101090 IEM_DS3505
ZBHH,2008-03-01 11:00,ZBHH 011100Z AUTO 33010G21KT 7SM M01/M10 A3006 RMK T10101100 IEM_DS3505
ZBHH,2008-03-01 12:00,ZBHH 011200Z AUTO 29006G19KT 19SM M01/M08 A3006 RMK SLP236 T10111085 52023 IEM_DS3505
ZBHH,2008-03-01 13:00,ZBHH 011300Z AUTO 29008KT 7SM M02/M08 A3009 RMK T10201080 IEM_DS3505
ZBHH,2008-03-01 14:00,ZBHH 011400Z AUTO 34012G23KT 7SM M02/M09 A3009 RMK T10201090 IEM_DS3505
ZBHH,2008-03-01 15:00,ZBHH 011500Z AUTO 29004KT 19SM M02/M08 A3012 RMK SLP254 T10171084 52016 IEM_DS3505
ZBHH,2008-03-01 16:00,ZBHH 011600Z AUTO 34012KT 7SM M03/M09 A3012 RMK T10301090 IEM_DS3505
ZBHH,2008-03-01 17:00,ZBHH 011700Z AUTO 35008KT 7SM M04/M09 A3012 RMK T10401090 IEM_DS3505
ZBHH,2008-03-01 18:00,ZBHH 011800Z AUTO 29006KT 19SM M03/M10 A3015 RMK 60000 SLP263 T10341100 52005 IEM_DS3505
ZBHH,2008-03-01 19:00,ZBHH 011900Z AUTO 33008KT 7SM M05/M10 A3015 RMK T10501100 IEM_DS3505
ZBHH,2008-03-01 20:00,ZBHH 012000Z AUTO 35012G23KT 7SM M05/M11 A3015 RMK T10501110 IEM_DS3505
ZBHH,2008-03-01 21:00,ZBHH 012100Z AUTO 29008KT 19SM M04/M12 A3015 RMK 70000 SLP275 T10451115 52008 IEM_DS3505
ZBHH,2008-03-01 22:00,ZBHH 012200Z AUTO 35008KT 6SM M07/M12 A3018 RMK T10701120 IEM_DS3505
ZBHH,2008-03-01 23:00,ZBHH 012300Z AUTO 35012KT 6SM M07/M14 A3021 RMK T10701140 IEM_DS3505
ZBHH,2008-03-02 00:00,ZBHH 020000Z AUTO 32004KT 19SM M04/M14 A3024 RMK 70000 SLP301 T10441135 52018 IEM_DS3505
ZBHH,2008-03-02 01:00,ZBHH 020100Z AUTO 01010KT 6SM M05/M14 A3024 RMK T10501140 IEM_DS3505
ZBHH,2008-03-02 02:00,ZBHH 020200Z AUTO 36010KT 6SM M03/M14 A3024 RMK T10301140 IEM_DS3505
ZBHH,2008-03-02 03:00,ZBHH 020300Z AUTO 34006KT 19SM 01/M12 A3027 RMK SLP301 T00071123 52010 IEM_DS3505
ZBHH,2008-03-02 04:00,ZBHH 020400Z AUTO 01012KT 7SM 00/M12 A3027 RMK T00001120 IEM_DS3505
ZBHH,2008-03-02 05:00,ZBHH 020500Z AUTO 36010KT 7SM 00/M12 A3027 RMK T00001120 IEM_DS3505
ZBHH,2008-03-02 06:00,ZBHH 020600Z AUTO 34006KT 19SM 02/M15 A3024 RMK SLP295 T00201146 57006 IEM_DS3505
ZBHH,2008-03-02 07:00,ZBHH 020700Z AUTO 35012G21KT 7SM 01/M15 A3024 RMK T00101150 IEM_DS3505
ZBHH,2008-03-02 08:00,ZBHH 020800Z AUTO 36012KT 7SM 01/M16 A3024 RMK T00101160 IEM_DS3505
ZBHH,2008-03-02 09:00,ZBHH 020900Z AUTO 32008KT 19SM 02/M17 A3024 RMK SLP301 T00231167 52003 IEM_DS3505
ZBHH,2008-03-02 10:00,ZBHH 021000Z AUTO 01010KT 7SM 00/M18 A3027 RMK T00001180 IEM_DS3505
ZBHH,2008-03-02 11:00,ZBHH 021100Z AUTO 02004KT 7SM M02/M17 A3027 RMK T10201170 IEM_DS3505
ZBHH,2008-03-02 12:00,ZBHH 021200Z AUTO 36004KT 19SM M00/M18 A3030 RMK SLP317 T10021183 52009 IEM_DS3505
ZBHH,2008-03-02 13:00,ZBHH 021300Z AUTO 12002KT 6SM M05/M16 A3030 RMK T10501160 IEM_DS3505
ZBHH,2008-03-02 14:00,ZBHH 021400Z AUTO 02004KT 6SM M06/M15 A3030 RMK T10601150 IEM_DS3505
ZBHH,2008-03-02 15:00,ZBHH 021500Z AUTO 32006KT 19SM M03/M17 A3030 RMK SLP318 T10311171 52006 IEM_DS3505
ZBHH,2008-03-02 16:00,ZBHH 021600Z AUTO 00000KT 6SM M08/M15 A3030 RMK T10801150 IEM_DS3505
ZBHH,2008-03-02 17:00,ZBHH 021700Z AUTO 03002KT 6SM M09/M14 A3030 RMK T10901140 IEM_DS3505
ZBHH,2008-03-02 18:00,ZBHH 021800Z AUTO 29002KT 19SM M05/M14 A3030 RMK SLP320 T10521140 54000 IEM_DS3505
ZBHH,2008-03-02 19:00,ZBHH 021900Z AUTO 07002KT 6SM M10/M15 A3030 RMK T11001150 IEM_DS3505
ZBHH,2008-03-02 20:00,ZBHH 022000Z AUTO 11002KT 6SM M11/M15 A3030 RMK T11101150 IEM_DS3505
ZBHH,2008-03-02 21:00,ZBHH 022100Z AUTO 25002KT 19SM M08/M14 A3030 RMK SLP325 T10781144 57001 IEM_DS3505
ZBHH,2008-03-02 22:00,ZBHH 022200Z AUTO 09002KT 6SM M13/M16 A3033 RMK T11301160 IEM_DS3505
ZBHH,2008-03-02 23:00,ZBHH 022300Z AUTO 13004KT 6SM M12/M16 A3033 RMK T11201160 IEM_DS3505
ZBHH,2008-03-03 00:00,ZBHH 030000Z AUTO 09002KT 16SM M06/M15 A3033 RMK SLP336 T10611151 52008 IEM_DS3505
ZBHH,2008-03-03 01:00,ZBHH 030100Z AUTO 11004KT 6SM M06/M13 A3033 RMK T10601130 IEM_DS3505
ZBHH,2008-03-03 02:00,ZBHH 030200Z AUTO 04002KT 6SM M02/M17 A3030 RMK T10201170 IEM_DS3505
ZBHH,2008-03-03 03:00,ZBHH 030300Z AUTO 20006KT 16SM M01/M15 A3030 RMK SLP322 T10071146 57007 IEM_DS3505
ZBHH,2008-03-03 04:00,ZBHH 030400Z AUTO 27006KT 6SM 01/M17 A3030 RMK T00101170 IEM_DS3505
ZBHH,2008-03-03 05:00,ZBHH 030500Z AUTO 24008KT 6SM 01/M16 A3027 RMK T00101160 IEM_DS3505
ZBHH,2008-03-03 06:00,ZBHH 030600Z AUTO 18008KT 19SM 03/M15 A3024 RMK SLP298 T00341148 57016 IEM_DS3505
ZBHH,2008-03-03 07:00,ZBHH 030700Z AUTO 25006KT 6SM 03/M16 A3024 RMK T00301160 IEM_DS3505
ZBHH,2008-03-03 08:00,ZBHH 030800Z AUTO 24008KT 6SM 04/M15 A3021 RMK T00401150 IEM_DS3505
ZBHH,2008-03-03 09:00,ZBHH 030900Z AUTO 22006KT 19SM 05/M15 A3021 RMK SLP284 T00541152 57014 IEM_DS3505
ZBHH,2008-03-03 10:00,ZBHH 031000Z AUTO 24004KT 6SM 03/M15 A3021 RMK T00301150 IEM_DS3505
ZBHH,2008-03-03 11:00,ZBHH 031100Z AUTO 24004KT 6SM 00/M16 A3021 RMK T00001160 IEM_DS3505
ZBHH,2008-03-03 12:00,ZBHH 031200Z AUTO 25002KT 9SM 02/M14 A3021 RMK SLP289 T00161145 54000 IEM_DS3505
ZBHH,2008-03-03 13:00,ZBHH 031300Z AUTO 04006KT 6SM M03/M13 A3021 RMK T10301130 IEM_DS3505
ZBHH,2008-03-03 14:00,ZBHH 031400Z AUTO 10004KT 6SM M05/M13 A3024 RMK T10501130 IEM_DS3505
ZBHH,2008-03-03 15:00,ZBHH 031500Z AUTO 11004KT 9SM M02/M13 A3024 RMK SLP290 T10201132 52005 IEM_DS3505
ZBHH,2008-03-03 16:00,ZBHH 031600Z AUTO 09004KT 6SM M06/M13 A3024 RMK T10601130 IEM_DS3505
ZBHH,2008-03-03 17:00,ZBHH 031700Z AUTO 09006KT 6SM M06/M13 A3021 RMK T10601130 IEM_DS3505
ZBHH,2008-03-03 18:00,ZBHH 031800Z AUTO 14002KT 12SM M04/M13 A3024 RMK SLP284 T10361130 54000 IEM_DS3505
ZBHH,2008-03-03 19:00,ZBHH 031900Z AUTO 09002KT 6SM M07/M13 A3021 RMK T10701130 IEM_DS3505
ZBHH,2008-03-03 20:00,ZBHH 032000Z AUTO 08006KT 6SM M07/M13 A3021 RMK T10701130 IEM_DS3505
ZBHH,2008-03-03 21:00,ZBHH 032100Z AUTO 09002KT 12SM M05/M14 A3024 RMK SLP283 T10541135 57001 IEM_DS3505
ZBHH,2008-03-03 22:00,ZBHH 032200Z AUTO 08004KT 6SM M08/M14 A3024 RMK T10801140 IEM_DS3505
ZBHH,2008-03-03 23:00,ZBHH 032300Z AUTO 08006KT 6SM M08/M14 A3024 RMK T10801140 IEM_DS3505
ZBHH,2008-03-04 00:00,ZBHH 040000Z AUTO 07002KT 12SM M04/M12 A3024 RMK SLP301 T10441123 52010 IEM_DS3505
ZBHH,2008-03-04 01:00,ZBHH 040100Z AUTO 07004KT 6SM M03/M13 A3027 RMK T10301130 IEM_DS3505
ZBHH,2008-03-04 02:00,ZBHH 040200Z AUTO 05002KT 6SM 00/M14 A3024 RMK T00001140 IEM_DS3505
ZBHH,2008-03-04 03:00,ZBHH 040300Z AUTO 14004KT 6SM 04/M14 A3024 RMK SLP284 T00431145 57004 IEM_DS3505
ZBHH,2008-03-04 04:00,ZBHH 040400Z AUTO 19002KT 6SM 05/M14 A3021 RMK T00501140 IEM_DS3505
ZBHH,2008-03-04 05:00,ZBHH 040500Z AUTO 20002KT 6SM 06/M14 A3021 RMK T00601140 IEM_DS3505
ZBHH,2008-03-04 06:00,ZBHH 040600Z AUTO 11004KT 5SM 08/M13 A3018 RMK SLP257 T00761133 57020 IEM_DS3505
ZBHH,2008-03-04 07:00,ZBHH 040700Z AUTO 23004KT 6SM 08/M14 A3015 RMK T00801140 IEM_DS3505
ZBHH,2008-03-04 08:00,ZBHH 040800Z AUTO 25004KT 6SM 09/M14 A3015 RMK T00901140 IEM_DS3505
ZBHH,2008-03-04 09:00,ZBHH 040900Z AUTO 20006KT 5SM 09/M14 A3012 RMK SLP241 T00921139 57014 IEM_DS3505
ZBHH,2008-03-04 10:00,ZBHH 041000Z AUTO 22004KT 6SM 07/M14 A3012 RMK T00701140 IEM_DS3505
ZBHH,2008-03-04 11:00,ZBHH 041100Z AUTO 16002KT 4SM 04/M14 A3012 RMK T00401140 IEM_DS3505
ZBHH,2008-03-04 12:00,ZBHH 041200Z AUTO 25002KT 7SM 05/M12 A3015 RMK SLP252 T00471118 52002 IEM_DS3505
ZBHH,2008-03-04 13:00,ZBHH 041300Z AUTO 03002KT 6SM 00/M12 A3015 RMK T00001120 IEM_DS3505
ZBHH,2008-03-04 14:00,ZBHH 041400Z AUTO 07006KT 6SM M02/M11 A3015 RMK T10201110 IEM_DS3505
ZBHH,2008-03-04 15:00,ZBHH 041500Z AUTO 04002KT 16SM M00/M11 A3015 RMK SLP253 T10031114 52009 IEM_DS3505
ZBHH,2008-03-04 16:00,ZBHH 041600Z AUTO 07002KT 6SM M05/M11 A3015 RMK T10501110 IEM_DS3505
ZBHH,2008-03-04 17:00,ZBHH 041700Z AUTO 10004KT 6SM M04/M11 A3015 RMK T10401110 IEM_DS3505
ZBHH,2008-03-04 18:00,ZBHH 041800Z AUTO 09002KT 19SM M03/M10 A3018 RMK SLP254 T10321105 52001 IEM_DS3505
ZBHH,2008-03-04 19:00,ZBHH 041900Z AUTO 10004KT 6SM M06/M12 A3015 RMK T10601120 IEM_DS3505
ZBHH,2008-03-04 20:00,ZBHH 042000Z AUTO 08002KT 6SM M05/M11 A3015 RMK T10501110 IEM_DS3505
ZBHH,2008-03-04 21:00,ZBHH 042100Z AUTO 07002KT 19SM M04/M11 A3015 RMK SLP249 T10371110 57002 IEM_DS3505
ZBHH,2008-03-04 22:00,ZBHH 042200Z AUTO 07002KT 6SM M08/M12 A3015 RMK T10801120 IEM_DS3505
ZBHH,2008-03-04 23:00,ZBHH 042300Z AUTO 03004KT 6SM M06/M12 A3018 RMK T10601120 IEM_DS3505
ZBHH,2008-03-05 00:00,ZBHH 050000Z AUTO 09002KT 12SM M03/M11 A3018 RMK SLP268 T10261109 52010 IEM_DS3505
ZBHH,2008-03-05 01:00,ZBHH 050100Z AUTO 10004KT 6SM 00/M11 A3021 RMK T00001110 IEM_DS3505
ZBHH,2008-03-05 02:00,ZBHH 050200Z AUTO 21002KT 6SM 04/M11 A3021 RMK T00401110 IEM_DS3505
ZBHH,2008-03-05 03:00,ZBHH 050300Z AUTO 04004KT 7SM 08/M13 A3021 RMK SLP262 T00771133 52006 IEM_DS3505
ZBHH,2008-03-05 04:00,ZBHH 050400Z AUTO 34010KT 6SM 08/M13 A3021 RMK T00801130 IEM_DS3505
ZBHH,2008-03-05 05:00,ZBHH 050500Z AUTO 33012KT 6SM 09/M13 A3018 RMK T00901130 IEM_DS3505
ZBHH,2008-03-05 06:00,ZBHH 050600Z AUTO 02006KT 19SM 10/M13 A3018 RMK SLP255 T00991126 57008 IEM_DS3505
ZBHH,2008-03-05 07:00,ZBHH 050700Z AUTO 35012KT 6SM 09/M11 A3018 RMK T00901110 IEM_DS3505
ZBHH,2008-03-05 08:00,ZBHH 050800Z AUTO 01012KT 6SM 08/M10 A3018 RMK T00801100 IEM_DS3505
ZBHH,2008-03-05 09:00,ZBHH 050900Z AUTO 04008KT 19SM 08/M10 A3021 RMK SLP271 T00761102 52008 IEM_DS3505
ZBHH,2008-03-05 10:00,ZBHH 051000Z AUTO 03012KT 6SM 05/M14 A3024 RMK T00501140 IEM_DS3505
ZBHH,2008-03-05 11:00,ZBHH 051100Z AUTO 04014KT 6SM 03/M16 A3027 RMK T00301160 IEM_DS3505
ZBHH,2008-03-05 12:00,ZBHH 051200Z AUTO 04004KT 19SM 03/M17 A3027 RMK SLP306 T00291167 52023 IEM_DS3505
ZBHH,2008-03-05 13:00,ZBHH 051300Z AUTO 02006KT 6SM 00/M17 A3030 RMK T00001170 IEM_DS3505
ZBHH,2008-03-05 14:00,ZBHH 051400Z AUTO 06006KT 6SM M01/M17 A3033 RMK T10101170 IEM_DS3505
ZBHH,2008-03-05 15:00,ZBHH 051500Z AUTO 04004KT 19SM 00/M17 A3036 RMK SLP309 T00011171 52019 IEM_DS3505
ZBHH,2008-03-05 16:00,ZBHH 051600Z AUTO 07002KT 6SM M04/M16 A3036 RMK T10401160 IEM_DS3505
ZBHH,2008-03-05 17:00,ZBHH 051700Z AUTO 00000KT 6SM M05/M17 A3036 RMK T10501170 IEM_DS3505
ZBHH,2008-03-05 18:00,ZBHH 051800Z AUTO 09002KT 19SM M03/M18 A3036 RMK SLP319 T10271175 52007 IEM_DS3505
ZBHH,2008-03-05 19:00,ZBHH 051900Z AUTO 00000KT 6SM M07/M16 A3039 RMK T10701160 IEM_DS3505
ZBHH,2008-03-05 20:00,ZBHH 052000Z AUTO 03002KT 6SM M07/M17 A3039 RMK T10701170 IEM_DS3505
ZBHH,2008-03-05 21:00,ZBHH 052100Z AUTO 34002KT 19SM M04/M17 A3039 RMK SLP331 T10371173 52004 IEM_DS3505
ZBHH,2008-03-05 22:00,ZBHH 052200Z AUTO 07006KT 6SM M08/M16 A3039 RMK T10801160 IEM_DS3505
ZBHH,2008-03-05 23:00,ZBHH 052300Z AUTO 10004KT 6SM M10/M17 A3042 RMK T11001170 IEM_DS3505
ZBHH,2008-03-06 00:00,ZBHH 060000Z AUTO 09002KT 12SM M04/M16 A3042 RMK SLP361 T10451164 52014 IEM_DS3505
ZBHH,2008-03-06 01:00,ZBHH 060100Z AUTO 12008KT 6SM M02/M15 A3045 RMK T10201150 IEM_DS3505
ZBHH,2008-03-06 02:00,ZBHH 060200Z AUTO 12006KT 6SM 00/M16 A3045 RMK T00001160 IEM_DS3505
ZBHH,2008-03-06 03:00,ZBHH 060300Z AUTO 11006KT 16SM 03/M17 A3042 RMK SLP348 T00271169 57002 IEM_DS3505
ZBHH,2008-03-06 04:00,ZBHH 060400Z AUTO 08004KT 6SM 04/M19 A3039 RMK T00401190 IEM_DS3505
ZBHH,2008-03-06 05:00,ZBHH 060500Z AUTO 09008KT 6SM 05/M21 A3039 RMK T00501210 IEM_DS3505
ZBHH,2008-03-06 06:00,ZBHH 060600Z AUTO 09006KT 19SM 07/M20 A3036 RMK SLP315 T00731203 57025 IEM_DS3505
ZBHH,2008-03-06 07:00,ZBHH 060700Z AUTO 05004KT 6SM 07/M20 A3033 RMK T00701200 IEM_DS3505
ZBHH,2008-03-06 08:00,ZBHH 060800Z AUTO 03004KT 6SM 07/M20 A3033 RMK T00701200 IEM_DS3505
ZBHH,2008-03-06 09:00,ZBHH 060900Z AUTO 32002KT 19SM 09/M19 A3030 RMK SLP302 T00911188 57009 IEM_DS3505
ZBHH,2008-03-06 10:00,ZBHH 061000Z AUTO 10002KT 6SM 06/M20 A3030 RMK T00601200 IEM_DS3505
ZBHH,2008-03-06 11:00,ZBHH 061100Z AUTO 00000KT 6SM 03/M19 A3033 RMK T00301190 IEM_DS3505
ZBHH,2008-03-06 12:00,ZBHH 061200Z AUTO 00000KT 16SM 04/M18 A3033 RMK SLP324 T00381177 52006 IEM_DS3505
ZBHH,2008-03-06 13:00,ZBHH 061300Z AUTO 00000KT 6SM M02/M17 A3036 RMK T10201170 IEM_DS3505
ZBHH,2008-03-06 14:00,ZBHH 061400Z AUTO 03006KT 6SM M02/M16 A3036 RMK T10201160 IEM_DS3505
ZBHH,2008-03-06 15:00,ZBHH 061500Z AUTO 00000KT 16SM M01/M17 A3036 RMK SLP327 T10111169 52007 IEM_DS3505
ZBHH,2008-03-06 16:00,ZBHH 061600Z AUTO 07004KT 6SM M04/M16 A3036 RMK T10401160 IEM_DS3505
ZBHH,2008-03-06 17:00,ZBHH 061700Z AUTO 08004KT 6SM M06/M16 A3036 RMK T10601160 IEM_DS3505
ZBHH,2008-03-06 18:00,ZBHH 061800Z AUTO 07002KT 16SM M03/M16 A3036 RMK SLP321 T10331159 54000 IEM_DS3505
ZBHH,2008-03-06 19:00,ZBHH 061900Z AUTO 05002KT 6SM M06/M16 A3033 RMK T10601160 IEM_DS3505
ZBHH,2008-03-06 20:00,ZBHH 062000Z AUTO 07004KT 6SM M06/M15 A3033 RMK T10601150 IEM_DS3505
ZBHH,2008-03-06 21:00,ZBHH 062100Z AUTO 07002KT 19SM M05/M15 A3033 RMK SLP312 T10491150 57007 IEM_DS3505
ZBHH,2008-03-06 22:00,ZBHH 062200Z AUTO 07004KT 6SM M08/M15 A3033 RMK T10801150 IEM_DS3505
ZBHH,2008-03-06 23:00,ZBHH 062300Z AUTO 08006KT 6SM M09/M16 A3033 RMK T10901160 IEM_DS3505
ZBHH,2008-03-07 00:00,ZBHH 070000Z AUTO 09002KT 16SM M03/M14 A3033 RMK SLP324 T10341145 52002 IEM_DS3505
ZBHH,2008-03-07 01:00,ZBHH 070100Z AUTO 09004KT 6SM M02/M15 A3033 RMK T10201150 IEM_DS3505
ZBHH,2008-03-07 02:00,ZBHH 070200Z AUTO 11002KT 6SM 03/M16 A3033 RMK T00301160 IEM_DS3505
ZBHH,2008-03-07 03:00,ZBHH 070300Z AUTO 04002KT 12SM 06/M18 A3033 RMK SLP308 T00561175 57005 IEM_DS3505
ZBHH,2008-03-07 04:00,ZBHH 070400Z AUTO 25004KT 6SM 06/M19 A3030 RMK T00601190 IEM_DS3505
ZBHH,2008-03-07 05:00,ZBHH 070500Z AUTO 29004KT 6SM 07/M19 A3027 RMK T00701190 IEM_DS3505
ZBHH,2008-03-07 06:00,ZBHH 070600Z AUTO 22002KT 12SM 09/M19 A3021 RMK SLP271 T00911188 57030 IEM_DS3505
ZBHH,2008-03-07 07:00,ZBHH 070700Z AUTO 26004KT 6SM 09/M17 A3018 RMK T00901170 IEM_DS3505
ZBHH,2008-03-07 08:00,ZBHH 070800Z AUTO 23004KT 6SM 09/M17 A3018 RMK T00901170 IEM_DS3505
ZBHH,2008-03-07 09:00,ZBHH 070900Z AUTO 18004KT 12SM 10/M16 A3015 RMK SLP250 T00981156 57020 IEM_DS3505
ZBHH,2008-03-07 10:00,ZBHH 071000Z AUTO 27002KT 6SM 07/M15 A3015 RMK T00701150 IEM_DS3505
ZBHH,2008-03-07 11:00,ZBHH 071100Z AUTO 00000KT 6SM 06/M15 A3015 RMK T00601150 IEM_DS3505
ZBHH,2008-03-07 12:00,ZBHH 071200Z AUTO 34002KT 4SM 06/M13 A3015 RMK SLP256 T00631133 52001 IEM_DS3505
ZBHH,2008-03-07 13:00,ZBHH 071300Z AUTO 05002KT 6SM 03/M14 A3018 RMK T00301140 IEM_DS3505
ZBHH,2008-03-07 14:00,ZBHH 071400Z AUTO 09006KT 6SM M01/M13 A3018 RMK T10101130 IEM_DS3505
ZBHH,2008-03-07 15:00,ZBHH 071500Z AUTO 09004KT 16SM 04/M12 A3015 RMK SLP240 T00351124 57001 IEM_DS3505
ZBHH,2008-03-07 16:00,ZBHH 071600Z AUTO 08006KT 6SM M01/M12 A3015 RMK T10101120 IEM_DS3505
ZBHH,2008-03-07 17:00,ZBHH 071700Z AUTO 07002KT 6SM M01/M11 A3015 RMK T10101110 IEM_DS3505
ZBHH,2008-03-07 18:00,ZBHH 071800Z AUTO 04004KT 16SM 02/M12 A3012 RMK SLP226 T00231120 57008 IEM_DS3505
ZBHH,2008-03-07 19:00,ZBHH 071900Z AUTO 09002KT 6SM M01/M10 A3012 RMK T10101100 IEM_DS3505
ZBHH,2008-03-07 20:00,ZBHH 072000Z AUTO 14002KT 6SM M01/M06 A3009 RMK T10101060 IEM_DS3505
ZBHH,2008-03-07 21:00,ZBHH 072100Z AUTO 07004KT 9SM 02/M07 A3009 RMK SLP208 T00191072 57015 IEM_DS3505
ZBHH,2008-03-07 22:00,ZBHH 072200Z AUTO 11006KT 4SM 00/M02 A3009 RMK T00001020 IEM_DS3505
ZBHH,2008-03-07 23:00,ZBHH 072300Z AUTO 10006KT 4SM 00/M02 A3009 RMK T00001020 IEM_DS3505
ZBHH,2008-03-08 00:00,ZBHH 080000Z AUTO 32002KT 7SM 01/M02 A3009 RMK 60002 70002 SLP221 T00131016 52003 IEM_DS3505
ZBHH,2008-03-08 01:00,ZBHH 080100Z AUTO 00000KT 1 1/2SM 00/M01 A3009 RMK T00001010 IEM_DS3505
ZBHH,2008-03-08 02:00,ZBHH 080200Z AUTO 05002KT 1SM 01/00 A3012 RMK T00100000 IEM_DS3505
ZBHH,2008-03-08 03:00,ZBHH 080300Z AUTO 07004KT 7SM 03/01 A3009 RMK SLP227 T00280010 52003 IEM_DS3505
ZBHH,2008-03-08 04:00,ZBHH 080400Z AUTO 01002KT 1SM 02/01 A3009 RMK T00200010 IEM_DS3505
ZBHH,2008-03-08 05:00,ZBHH 080500Z AUTO 02002KT 1 1/4SM 03/01 A3009 RMK T00300010 IEM_DS3505
ZBHH,2008-03-08 06:00,ZBHH 080600Z AUTO 00000KT 7SM 04/02 A3006 RMK 60002 SLP218 T00390019 57008 IEM_DS3505
ZBHH,2008-03-08 07:00,ZBHH 080700Z AUTO 17002KT 1 1/4SM 04/01 A3006 RMK T00400010 IEM_DS3505
ZBHH,2008-03-08 08:00,ZBHH 080800Z AUTO 20004KT 1SM 04/02 A3006 RMK T00400020 IEM_DS3505
ZBHH,2008-03-08 09:00,ZBHH 080900Z AUTO 22004KT 2 1/2SM 04/02 A3006 RMK SLP218 T00370022 57002 IEM_DS3505
ZBHH,2008-03-08 10:00,ZBHH 081000Z AUTO 22004KT 1SM 02/01 A3009 RMK T00200010 IEM_DS3505
ZBHH,2008-03-08 11:00,ZBHH 081100Z AUTO 21004KT 1SM 02/01 A3009 RMK T00200010 IEM_DS3505
ZBHH,2008-03-08 12:00,ZBHH 081200Z AUTO 20004KT 1/2SM 03/02 A3012 RMK 60000 SLP235 T00310016 52013 IEM_DS3505
ZBHH,2008-03-08 13:00,ZBHH 081300Z AUTO 21004KT 1SM 01/00 A3012 RMK T00100000 IEM_DS3505
ZBHH,2008-03-08 14:00,ZBHH 081400Z AUTO 00000KT 1SM 01/00 A3012 RMK T00100000 IEM_DS3505
ZBHH,2008-03-08 15:00,ZBHH 081500Z AUTO 22004KT 1SM 02/01 A3015 RMK SLP242 T00250010 52008 IEM_DS3505
ZBHH,2008-03-08 16:00,ZBHH 081600Z AUTO 13002KT 1SM 01/01 A3015 RMK T00100010 IEM_DS3505
ZBHH,2008-03-08 17:00,ZBHH 081700Z AUTO 17002KT 1SM 01/01 A3012 RMK T00100010 IEM_DS3505
ZBHH,2008-03-08 18:00,ZBHH 081800Z AUTO 27002KT 1/4SM 02/M00 A3012 RMK SLP241 T00211003 54000 IEM_DS3505
ZBHH,2008-03-08 19:00,ZBHH 081900Z AUTO 00000KT 1SM 00/00 A3012 RMK T00000000 IEM_DS3505
ZBHH,2008-03-08 20:00,ZBHH 082000Z AUTO 00000KT 1SM 00/00 A3012 RMK T00000000 IEM_DS3505
ZBHH,2008-03-08 21:00,ZBHH 082100Z AUTO 36004KT 4SM 02/M01 A3012 RMK 70004 SLP233 T00201011 57007 IEM_DS3505
ZBHH,2008-03-08 22:00,ZBHH 082200Z AUTO 07002KT 1SM 00/00 A3012 RMK T00000000 IEM_DS3505
ZBHH,2008-03-08 23:00,ZBHH 082300Z AUTO 08002KT 1SM 00/00 A3012 RMK T00000000 IEM_DS3505
ZBHH,2008-03-09 00:00,ZBHH 090000Z AUTO 27002KT 6SM 02/M02 A3015 RMK 70002 SLP244 T00191015 52008 IEM_DS3505
ZBHH,2008-03-09 01:00,ZBHH 090100Z AUTO 22002KT 1/2SM 01/00 A3015 RMK T00100000 IEM_DS3505
ZBHH,2008-03-09 02:00,ZBHH 090200Z AUTO 23004KT 1/2SM 00/00 A3015 RMK T00000000 IEM_DS3505
ZBHH,2008-03-09 03:00,ZBHH 090300Z AUTO 22004KT 3SM 02/00 A3015 RMK SLP251 T00220001 52005 IEM_DS3505
ZBHH,2008-03-09 04:00,ZBHH 090400Z AUTO 24004KT 1SM 02/M01 A3015 RMK T00201010 IEM_DS3505
ZBHH,2008-03-09 05:00,ZBHH 090500Z AUTO 23006KT 1 1/4SM 02/M01 A3012 RMK T00201010 IEM_DS3505
ZBHH,2008-03-09 06:00,ZBHH 090600Z AUTO 18004KT 4SM 04/M01 A3009 RMK SLP229 T00351009 57017 IEM_DS3505
ZBHH,2008-03-09 07:00,ZBHH 090700Z AUTO 21004KT 2SM 03/M01 A3009 RMK T00301010 IEM_DS3505
ZBHH,2008-03-09 08:00,ZBHH 090800Z AUTO 30002KT 2SM 04/M01 A3006 RMK T00401010 IEM_DS3505
ZBHH,2008-03-09 09:00,ZBHH 090900Z AUTO 36002KT 4SM 05/M01 A3006 RMK SLP208 T00521006 57015 IEM_DS3505
ZBHH,2008-03-09 10:00,ZBHH 091000Z AUTO 02002KT 1 1/4SM 03/M01 A3006 RMK T00301010 IEM_DS3505
ZBHH,2008-03-09 11:00,ZBHH 091100Z AUTO 03002KT 1 1/4SM 02/M02 A3003 RMK T00201020 IEM_DS3505
ZBHH,2008-03-09 12:00,ZBHH 091200Z AUTO 04004KT 4SM 02/M01 A3003 RMK SLP210 T00221012 57005 IEM_DS3505
ZBHH,2008-03-09 13:00,ZBHH 091300Z AUTO 04002KT 1SM M02/M04 A3003 RMK T10201040 IEM_DS3505
ZBHH,2008-03-09 14:00,ZBHH 091400Z AUTO 10002KT 1SM M03/M04 A3003 RMK T10301040 IEM_DS3505
ZBHH,2008-03-09 15:00,ZBHH 091500Z AUTO 27002KT 4SM M01/M03 A3003 RMK SLP215 T10091026 57001 IEM_DS3505
ZBHH,2008-03-09 16:00,ZBHH 091600Z AUTO 09004KT 2SM M03/M05 A3003 RMK T10301050 IEM_DS3505
ZBHH,2008-03-09 17:00,ZBHH 091700Z AUTO 05002KT 2SM M03/M05 A3000 RMK T10301050 IEM_DS3505
ZBHH,2008-03-09 18:00,ZBHH 091800Z AUTO 36002KT 4SM M02/M04 A3000 RMK SLP207 T10221038 57007 IEM_DS3505
ZBHH,2008-03-09 19:00,ZBHH 091900Z AUTO 07004KT 2SM M04/M05 A3000 RMK T10401050 IEM_DS3505
ZBHH,2008-03-09 20:00,ZBHH 092000Z AUTO 07002KT M05/M07 A3000 RMK T10501070 IEM_DS3505
ZBHH,2008-03-09 21:00,ZBHH 092100Z AUTO 00000KT 19SM M03/M04 A2997 RMK SLP195 T10301041 57009 IEM_DS3505
ZBHH,2008-03-09 22:00,ZBHH 092200Z AUTO 03002KT 2SM M05/M07 A3000 RMK T10501070 IEM_DS3505
ZBHH,2008-03-09 23:00,ZBHH 092300Z AUTO 10002KT 2SM M05/M07 A3000 RMK T10501070 IEM_DS3505
ZBHH,2008-03-10 00:00,ZBHH 100000Z AUTO 36002KT 2SM M02/M03 A3000 RMK SLP205 T10161030 52005 IEM_DS3505
ZBHH,2008-03-10 01:00,ZBHH 100100Z AUTO 07002KT 1 1/2SM 01/M02 A3000 RMK T00101020 IEM_DS3505
ZBHH,2008-03-10 02:00,ZBHH 100200Z AUTO 14002KT 2 1/2SM 05/M02 A3000 RMK T00501020 IEM_DS3505
ZBHH,2008-03-10 03:00,ZBHH 100300Z AUTO 18002KT 7SM 07/M02 A2997 RMK SLP182 T00701022 57008 IEM_DS3505
ZBHH,2008-03-10 04:00,ZBHH 100400Z AUTO 4SM 08/M03 A2994 RMK T00801030 IEM_DS3505
ZBHH,2008-03-10 05:00,ZBHH 100500Z AUTO 24004KT 4SM 09/M05 A2994 RMK T00901050 IEM_DS3505
ZBHH,2008-03-10 06:00,ZBHH 100600Z AUTO 18006KT 9SM 11/M05 A2991 RMK SLP151 T01141051 57021 IEM_DS3505
ZBHH,2008-03-10 07:00,ZBHH 100700Z AUTO 26004KT 5SM 11/M06 A2988 RMK T01101060 IEM_DS3505
ZBHH,2008-03-10 08:00,ZBHH 100800Z AUTO 23006KT 5SM 11/M06 A2988 RMK T01101060 IEM_DS3505
ZBHH,2008-03-10 09:00,ZBHH 100900Z AUTO 18006KT 6SM 12/M04 A2988 RMK SLP142 T01171040 57009 IEM_DS3505
ZBHH,2008-03-10 10:00,ZBHH 101000Z AUTO 20002KT 4SM 10/M04 A2988 RMK T01001040 IEM_DS3505
ZBHH,2008-03-10 11:00,ZBHH 101100Z AUTO 00000KT 3SM 08/M02 A2988 RMK T00801020 IEM_DS3505
ZBHH,2008-03-10 12:00,ZBHH 101200Z AUTO 04002KT 5SM 07/M02 A2991 RMK SLP161 T00721015 52010 IEM_DS3505
ZBHH,2008-03-10 13:00,ZBHH 101300Z AUTO 07004KT 3SM 02/M05 A2991 RMK T00201050 IEM_DS3505
ZBHH,2008-03-10 14:00,ZBHH 101400Z AUTO 07002KT 3SM 00/M06 A2994 RMK T00001060 IEM_DS3505
ZBHH,2008-03-10 15:00,ZBHH 101500Z AUTO 04002KT 5SM 04/M04 A2994 RMK SLP161 T00371036 52011 IEM_DS3505
ZBHH,2008-03-10 16:00,ZBHH 101600Z AUTO 10004KT 4SM M01/M06 A2994 RMK T10101060 IEM_DS3505
ZBHH,2008-03-10 17:00,ZBHH 101700Z AUTO 09006KT 4SM M02/M06 A2994 RMK T10201060 IEM_DS3505
ZBHH,2008-03-10 18:00,ZBHH 101800Z AUTO 36002KT 12SM 01/M04 A2994 RMK SLP158 T00081040 54000 IEM_DS3505
ZBHH,2008-03-10 19:00,ZBHH 101900Z AUTO 00000KT 4SM M01/M05 A2994 RMK T10101050 IEM_DS3505
ZBHH,2008-03-10 20:00,ZBHH 102000Z AUTO 08006KT 4SM M02/M06 A2991 RMK T10201060 IEM_DS3505
ZBHH,2008-03-10 21:00,ZBHH 102100Z AUTO 00000KT 12SM M00/M05 A2991 RMK SLP152 T10041052 57007 IEM_DS3505
ZBHH,2008-03-10 22:00,ZBHH 102200Z AUTO 08002KT 4SM M03/M06 A2994 RMK T10301060 IEM_DS3505
ZBHH,2008-03-10 23:00,ZBHH 102300Z AUTO 10002KT 4SM M03/M07 A2994 RMK T10301070 IEM_DS3505
ZBHH,2008-03-11 00:00,ZBHH 110000Z AUTO 04002KT 9SM 01/M05 A2997 RMK SLP183 T00061050 52020 IEM_DS3505
ZBHH,2008-03-11 01:00,ZBHH 110100Z AUTO 00000KT 4SM 03/M04 A3000 RMK T00301040 IEM_DS3505
ZBHH,2008-03-11 02:00,ZBHH 110200Z AUTO 08002KT 4SM 05/M04 A3000 RMK T00501040 IEM_DS3505
ZBHH,2008-03-11 03:00,ZBHH 110300Z AUTO 16004KT 4SM 08/M04 A3000 RMK SLP176 T00831045 52003 IEM_DS3505
ZBHH,2008-03-11 04:00,ZBHH 110400Z AUTO 18004KT 4SM 09/M03 A2997 RMK T00901030 IEM_DS3505
ZBHH,2008-03-11 06:00,ZBHH 110600Z AUTO 22004KT 5SM 13/M04 A2994 RMK SLP151 T01261045 57019 IEM_DS3505
ZBHH,2008-03-11 07:00,ZBHH 110700Z AUTO 24010KT 4SM 13/M07 A2991 RMK T01301070 IEM_DS3505
ZBHH,2008-03-11 08:00,ZBHH 110800Z AUTO 24010KT 4SM 14/M07 A2988 RMK T01401070 IEM_DS3505
ZBHH,2008-03-11 09:00,ZBHH 110900Z AUTO 25010KT 5SM 14/M06 A2988 RMK SLP137 T01361055 57013 IEM_DS3505
ZBHH,2008-03-11 10:00,ZBHH 111000Z AUTO 25008KT 4SM 11/M05 A2988 RMK T01101050 IEM_DS3505
ZBHH,2008-03-11 11:00,ZBHH 111100Z AUTO 27004KT 3SM 09/M05 A2991 RMK T00901050 IEM_DS3505
ZBHH,2008-03-11 12:00,ZBHH 111200Z AUTO 00000KT 7SM 08/M05 A2991 RMK SLP155 T00841051 52007 IEM_DS3505
ZBHH,2008-03-11 13:00,ZBHH 111300Z AUTO 03002KT 3SM 03/M06 A2994 RMK T00301060 IEM_DS3505
ZBHH,2008-03-11 14:00,ZBHH 111400Z AUTO 05002KT 4SM 02/M06 A2994 RMK T00201060 IEM_DS3505
ZBHH,2008-03-11 15:00,ZBHH 111500Z AUTO 25002KT 9SM 06/M06 A2994 RMK SLP158 T00591060 52013 IEM_DS3505
ZBHH,2008-03-11 16:00,ZBHH 111600Z AUTO 08004KT 5SM 00/M07 A2994 RMK T00001070 IEM_DS3505
ZBHH,2008-03-11 17:00,ZBHH 111700Z AUTO 00000KT 5SM 00/M07 A2994 RMK T00001070 IEM_DS3505
ZBHH,2008-03-11 18:00,ZBHH 111800Z AUTO 36002KT 16SM 02/M06 A2994 RMK SLP153 T00221057 57003 IEM_DS3505
ZBHH,2008-03-11 19:00,ZBHH 111900Z AUTO 04002KT 5SM 00/M07 A2994 RMK T00001070 IEM_DS3505
ZBHH,2008-03-11 20:00,ZBHH 112000Z AUTO 11004KT 5SM M03/M07 A2991 RMK T10301070 IEM_DS3505
ZBHH,2008-03-11 21:00,ZBHH 112100Z AUTO 07002KT 12SM 01/M06 A2991 RMK SLP140 T00101057 57012 IEM_DS3505
ZBHH,2008-03-11 22:00,ZBHH 112200Z AUTO 05002KT 6SM M01/M07 A2991 RMK T10101070 IEM_DS3505
ZBHH,2008-03-11 23:00,ZBHH 112300Z AUTO 01004KT 6SM M01/M07 A2997 RMK T10101070 IEM_DS3505
ZBHH,2008-03-12 00:00,ZBHH 120000Z AUTO 29014G23KT 12SM 05/M08 A3000 RMK SLP180 T00491082 52033 IEM_DS3505
ZBHH,2008-03-12 01:00,ZBHH 120100Z AUTO 05006KT 7SM 02/M05 A3006 RMK T00201050 IEM_DS3505
ZBHH,2008-03-12 02:00,ZBHH 120200Z AUTO 35010G19KT 7SM 02/M05 A3006 RMK T00201050 IEM_DS3505
ZBHH,2008-03-12 03:00,ZBHH 120300Z AUTO 29004KT 7SM 05/M05 A3009 RMK SLP214 T00471054 52024 IEM_DS3505
ZBHH,2008-03-12 04:00,ZBHH 120400Z AUTO 35010KT 7SM 04/M06 A3009 RMK T00401060 IEM_DS3505
ZBHH,2008-03-12 05:00,ZBHH 120500Z AUTO 30004KT 7SM 06/M08 A3006 RMK T00601080 IEM_DS3505
ZBHH,2008-03-12 06:00,ZBHH 120600Z AUTO 32012KT 6SM 08/M09 A3003 RMK SLP200 T00791090 57013 IEM_DS3505
ZBHH,2008-03-12 07:00,ZBHH 120700Z AUTO 35012G21KT 7SM 07/M09 A3003 RMK T00701090 IEM_DS3505
ZBHH,2008-03-12 08:00,ZBHH 120800Z AUTO 35012G21KT 7SM 06/M10 A3003 RMK T00601100 IEM_DS3505
ZBHH,2008-03-12 09:00,ZBHH 120900Z AUTO 32008KT 6SM 07/M12 A3003 RMK SLP201 T00701117 57004 IEM_DS3505
ZBHH,2008-03-12 10:00,ZBHH 121000Z AUTO 34012KT 6SM 05/M15 A3006 RMK T00501150 IEM_DS3505
ZBHH,2008-03-12 11:00,ZBHH 121100Z AUTO 01012G21KT 6SM 03/M14 A3009 RMK T00301140 IEM_DS3505
ZBHH,2008-03-12 12:00,ZBHH 121200Z AUTO 34008G21KT 19SM 03/M18 A3015 RMK SLP240 T00271175 52034 IEM_DS3505
ZBHH,2008-03-12 13:00,ZBHH 121300Z AUTO 02006KT 6SM 01/M18 A3018 RMK T00101180 IEM_DS3505
ZBHH,2008-03-12 14:00,ZBHH 121400Z AUTO 36010KT 6SM 00/M18 A3018 RMK T00001180 IEM_DS3505
ZBHH,2008-03-12 15:00,ZBHH 121500Z AUTO 36004KT 19SM 01/M18 A3018 RMK SLP262 T00061177 52014 IEM_DS3505
ZBHH,2008-03-12 16:00,ZBHH 121600Z AUTO 17002KT 6SM M04/M17 A3021 RMK T10401170 IEM_DS3505
ZBHH,2008-03-12 17:00,ZBHH 121700Z AUTO 6SM M02/M18 A3021 RMK T10201180 IEM_DS3505
ZBHH,2008-03-12 18:00,ZBHH 121800Z AUTO 25004KT 19SM M02/M18 A3021 RMK SLP268 T10191176 52007 IEM_DS3505
ZBHH,2008-03-12 19:00,ZBHH 121900Z AUTO 32006KT 6SM M04/M17 A3021 RMK T10401170 IEM_DS3505
ZBHH,2008-03-12 20:00,ZBHH 122000Z AUTO 36004KT 6SM M06/M17 A3021 RMK T10601170 IEM_DS3505
ZBHH,2008-03-12 21:00,ZBHH 122100Z AUTO 32002KT 19SM M04/M18 A3021 RMK SLP273 T10391178 57002 IEM_DS3505
ZBHH,2008-03-12 22:00,ZBHH 122200Z AUTO 09004KT 6SM M09/M16 A3021 RMK T10901160 IEM_DS3505
ZBHH,2008-03-12 23:00,ZBHH 122300Z AUTO 08002KT 6SM M09/M16 A3024 RMK T10901160 IEM_DS3505
ZBHH,2008-03-13 00:00,ZBHH 130000Z AUTO 09004KT 19SM M03/M16 A3024 RMK SLP288 T10261163 52007 IEM_DS3505
ZBHH,2008-03-13 01:00,ZBHH 130100Z AUTO 09004KT 6SM M02/M16 A3024 RMK T10201160 IEM_DS3505
ZBHH,2008-03-13 02:00,ZBHH 130200Z AUTO 12002KT 6SM 00/M16 A3024 RMK T00001160 IEM_DS3505
ZBHH,2008-03-13 03:00,ZBHH 130300Z AUTO 22006KT 19SM 02/M20 A3021 RMK SLP274 T00241195 57006 IEM_DS3505
ZBHH,2008-03-13 04:00,ZBHH 130400Z AUTO 25006KT 6SM 02/M21 A3018 RMK T00201210 IEM_DS3505
ZBHH,2008-03-13 05:00,ZBHH 130500Z AUTO 25006KT 6SM 03/M21 A3015 RMK T00301210 IEM_DS3505
ZBHH,2008-03-13 06:00,ZBHH 130600Z AUTO 22008KT 19SM 05/M20 A3012 RMK SLP241 T00491204 57029 IEM_DS3505
ZBHH,2008-03-13 07:00,ZBHH 130700Z AUTO 23006KT 6SM 04/M21 A3009 RMK T00401210 IEM_DS3505
ZBHH,2008-03-13 08:00,ZBHH 130800Z AUTO 22006KT 6SM 05/M23 A3003 RMK T00501230 IEM_DS3505
ZBHH,2008-03-13 09:00,ZBHH 130900Z AUTO 22006KT 19SM 06/M20 A3003 RMK SLP215 T00551199 57026 IEM_DS3505
ZBHH,2008-03-13 10:00,ZBHH 131000Z AUTO 28006KT 6SM 04/M21 A3003 RMK T00401210 IEM_DS3505
ZBHH,2008-03-13 11:00,ZBHH 131100Z AUTO 35002KT 6SM 02/M19 A3003 RMK T00201190 IEM_DS3505
ZBHH,2008-03-13 12:00,ZBHH 131200Z AUTO 32002KT 19SM 03/M20 A3003 RMK SLP212 T00301204 57005 IEM_DS3505
ZBHH,2008-03-13 13:00,ZBHH 131300Z AUTO 10006KT 6SM M02/M17 A3003 RMK T10201170 IEM_DS3505
ZBHH,2008-03-13 14:00,ZBHH 131400Z AUTO 08006KT 6SM M03/M17 A3000 RMK T10301170 IEM_DS3505
ZBHH,2008-03-13 15:00,ZBHH 131500Z AUTO 09004KT 19SM 01/M17 A2997 RMK SLP192 T00071171 57012 IEM_DS3505
ZBHH,2008-03-13 16:00,ZBHH 131600Z AUTO 06002KT 6SM M02/M18 A2997 RMK T10201180 IEM_DS3505
ZBHH,2008-03-13 17:00,ZBHH 131700Z AUTO 10002KT 6SM M04/M16 A2994 RMK T10401160 IEM_DS3505
ZBHH,2008-03-13 18:00,ZBHH 131800Z AUTO 36002KT 19SM M01/M17 A2991 RMK SLP164 T10101172 57023 IEM_DS3505
ZBHH,2008-03-13 19:00,ZBHH 131900Z AUTO 09004KT 6SM M05/M15 A2988 RMK T10501150 IEM_DS3505
ZBHH,2008-03-13 20:00,ZBHH 132000Z AUTO 07004KT 6SM M03/M17 A2985 RMK T10301170 IEM_DS3505
ZBHH,2008-03-13 21:00,ZBHH 132100Z AUTO 00000KT 19SM M02/M16 A2983 RMK SLP141 T10171155 57020 IEM_DS3505
ZBHH,2008-03-13 22:00,ZBHH 132200Z AUTO 00000KT 6SM M04/M15 A2983 RMK T10401150 IEM_DS3505
ZBHH,2008-03-13 23:00,ZBHH 132300Z AUTO 04004KT 6SM M03/M14 A2983 RMK T10301140 IEM_DS3505
ZBHH,2008-03-14 00:00,ZBHH 140000Z AUTO 09002KT 12SM 00/M14 A2983 RMK SLP141 T00031145 57001 IEM_DS3505
ZBHH,2008-03-14 01:00,ZBHH 140100Z AUTO 09004KT 6SM 03/M11 A2985 RMK T00301110 IEM_DS3505
ZBHH,2008-03-14 02:00,ZBHH 140200Z AUTO 17002KT 6SM 04/M10 A2985 RMK T00401100 IEM_DS3505
ZBHH,2008-03-14 03:00,ZBHH 140300Z AUTO 09004KT 7SM 07/M10 A2985 RMK SLP134 T00711102 52003 IEM_DS3505
ZBHH,2008-03-14 04:00,ZBHH 140400Z AUTO 23002KT 4SM 07/M08 A2983 RMK T00701080 IEM_DS3505
ZBHH,2008-03-14 05:00,ZBHH 140500Z AUTO 24010KT 4SM 08/M05 A2983 RMK T00801050 IEM_DS3505
ZBHH,2008-03-14 06:00,ZBHH 140600Z AUTO 22004KT 9SM 09/M06 A2980 RMK SLP115 T00891061 57016 IEM_DS3505
ZBHH,2008-03-14 07:00,ZBHH 140700Z AUTO 24010KT 5SM 09/M06 A2980 RMK T00901060 IEM_DS3505
ZBHH,2008-03-14 08:00,ZBHH 140800Z AUTO 26010KT 5SM 11/M08 A2980 RMK T01101080 IEM_DS3505
ZBHH,2008-03-14 09:00,ZBHH 140900Z AUTO 32014G27KT 9SM 12/M15 A2983 RMK SLP123 T01201147 52012 IEM_DS3505
ZBHH,2008-03-14 10:00,ZBHH 141000Z AUTO 31019G29KT 2SM 10/M16 A2985 RMK T01001160 IEM_DS3505
ZBHH,2008-03-14 11:00,ZBHH 141100Z AUTO 30014KT 3SM 09/M15 A2991 RMK T00901150 IEM_DS3505
ZBHH,2008-03-14 12:00,ZBHH 141200Z AUTO 32006KT 6SM 09/M11 A2994 RMK SLP170 T00891111 52039 IEM_DS3505
ZBHH,2008-03-14 13:00,ZBHH 141300Z AUTO 31012G21KT 4SM 07/M09 A3000 RMK T00701090 IEM_DS3505
ZBHH,2008-03-14 14:00,ZBHH 141400Z AUTO 32012KT 4SM 06/M09 A3000 RMK T00601090 IEM_DS3505
ZBHH,2008-03-14 15:00,ZBHH 141500Z AUTO 32010G19KT 12SM 06/M06 A3003 RMK SLP195 T00551058 52029 IEM_DS3505
ZBHH,2008-03-14 16:00,ZBHH 141600Z AUTO 36008KT 5SM 03/M05 A3006 RMK T00301050 IEM_DS3505
ZBHH,2008-03-14 17:00,ZBHH 141700Z AUTO 34004KT 7SM 02/M05 A3009 RMK T00201050 IEM_DS3505
ZBHH,2008-03-14 18:00,ZBHH 141800Z AUTO 29004KT 12SM 02/M05 A3009 RMK SLP216 T00181051 52014 IEM_DS3505
ZBHH,2008-03-14 19:00,ZBHH 141900Z AUTO 32004KT 00/M06 A3009 RMK T00001060 IEM_DS3505
ZBHH,2008-03-14 20:00,ZBHH 142000Z AUTO 30002KT 7SM M01/M06 A3012 RMK T10101060 IEM_DS3505
ZBHH,2008-03-14 21:00,ZBHH 142100Z AUTO 32006KT 12SM 01/M05 A3012 RMK SLP222 T00131054 52011 IEM_DS3505
ZBHH,2008-03-14 22:00,ZBHH 142200Z AUTO 35004KT 6SM M02/M07 A3015 RMK T10201070 IEM_DS3505
ZBHH,2008-03-14 23:00,ZBHH 142300Z AUTO 35002KT 6SM M01/M07 A3015 RMK T10101070 IEM_DS3505
ZBHH,2008-03-15 00:00,ZBHH 150000Z AUTO 27004KT 19SM 01/M07 A3018 RMK SLP246 T00091071 52014 IEM_DS3505
ZBHH,2008-03-15 01:00,ZBHH 150100Z AUTO 01012KT 6SM 01/M08 A3018 RMK T00101080 IEM_DS3505
ZBHH,2008-03-15 02:00,ZBHH 150200Z AUTO 36008KT 6SM 02/M11 A3021 RMK T00201110 IEM_DS3505
ZBHH,2008-03-15 03:00,ZBHH 150300Z AUTO 34008KT 19SM 06/M15 A3021 RMK SLP251 T00581154 52007 IEM_DS3505
ZBHH,2008-03-15 04:00,ZBHH 150400Z AUTO 34008KT 6SM 06/M16 A3018 RMK T00601160 IEM_DS3505
ZBHH,2008-03-15 05:00,ZBHH 150500Z AUTO 01004KT 6SM 07/M19 A3015 RMK T00701190 IEM_DS3505
ZBHH,2008-03-15 06:00,ZBHH 150600Z AUTO 27006KT 19SM 09/M15 A3012 RMK SLP223 T00921153 57025 IEM_DS3505
ZBHH,2008-03-15 07:00,ZBHH 150700Z AUTO 33004KT 6SM 09/M20 A3009 RMK T00901200 IEM_DS3505
ZBHH,2008-03-15 08:00,ZBHH 150800Z AUTO 33002KT 6SM 09/M20 A3009 RMK T00901200 IEM_DS3505
ZBHH,2008-03-15 09:00,ZBHH 150900Z AUTO 22006KT 19SM 09/M14 A3009 RMK SLP213 T00861138 57011 IEM_DS3505
ZBHH,2008-03-15 10:00,ZBHH 151000Z AUTO 24006KT 6SM 07/M16 A3006 RMK T00701160 IEM_DS3505
ZBHH,2008-03-15 11:00,ZBHH 151100Z AUTO 24004KT 6SM 05/M15 A3009 RMK T00501150 IEM_DS3505
ZBHH,2008-03-15 12:00,ZBHH 151200Z AUTO 25002KT 12SM 06/M14 A3009 RMK SLP222 T00591142 52001 IEM_DS3505
ZBHH,2008-03-15 13:00,ZBHH 151300Z AUTO 04004KT 6SM 01/M14 A3009 RMK T00101140 IEM_DS3505
ZBHH,2008-03-15 14:00,ZBHH 151400Z AUTO 10004KT 6SM M03/M14 A3009 RMK T10301140 IEM_DS3505
ZBHH,2008-03-15 15:00,ZBHH 151500Z AUTO 04004KT 19SM 02/M14 A3009 RMK SLP218 T00201138 57001 IEM_DS3505
ZBHH,2008-03-15 16:00,ZBHH 151600Z AUTO 08004KT 6SM M04/M14 A3006 RMK T10401140 IEM_DS3505
ZBHH,2008-03-15 17:00,ZBHH 151700Z AUTO 08002KT 6SM M04/M13 A3006 RMK T10401130 IEM_DS3505
ZBHH,2008-03-15 18:00,ZBHH 151800Z AUTO 34002KT 19SM M01/M14 A3006 RMK SLP203 T10091138 57012 IEM_DS3505
ZBHH,2008-03-15 19:00,ZBHH 151900Z AUTO 08004KT 6SM M05/M13 A3003 RMK T10501130 IEM_DS3505
ZBHH,2008-03-15 20:00,ZBHH 152000Z AUTO 09004KT 6SM M06/M13 A3000 RMK T10601130 IEM_DS3505
ZBHH,2008-03-15 21:00,ZBHH 152100Z AUTO 09002KT 19SM M03/M13 A3000 RMK SLP189 T10261126 57016 IEM_DS3505
ZBHH,2008-03-15 22:00,ZBHH 152200Z AUTO 08006KT 6SM M06/M13 A3000 RMK T10601130 IEM_DS3505
ZBHH,2008-03-15 23:00,ZBHH 152300Z AUTO 07006KT 6SM M04/M14 A2997 RMK T10401140 IEM_DS3505
ZBHH,2008-03-16 00:00,ZBHH 160000Z AUTO 09002KT 19SM 00/M13 A2997 RMK SLP185 T00051128 57004 IEM_DS3505
ZBHH,2008-03-16 01:00,ZBHH 160100Z AUTO 36002KT 6SM 02/M13 A2997 RMK T00201130 IEM_DS3505
ZBHH,2008-03-16 02:00,ZBHH 160200Z AUTO 00000KT 6SM 06/M15 A2994 RMK T00601150 IEM_DS3505
ZBHH,2008-03-16 03:00,ZBHH 160300Z AUTO 36002KT 12SM 07/M16 A2991 RMK SLP154 T00721155 57021 IEM_DS3505
ZBHH,2008-03-16 04:00,ZBHH 160400Z AUTO 08002KT 7SM 07/M15 A2988 RMK T00701150 IEM_DS3505
ZBHH,2008-03-16 05:00,ZBHH 160500Z AUTO 01002KT 6SM 08/M15 A2983 RMK T00801150 IEM_DS3505
ZBHH,2008-03-16 06:00,ZBHH 160600Z AUTO 18002KT 12SM 11/M13 A2980 RMK SLP109 T01131129 57037 IEM_DS3505
ZBHH,2008-03-16 07:00,ZBHH 160700Z AUTO 06004KT 6SM 10/M13 A2977 RMK T01001130 IEM_DS3505
ZBHH,2008-03-16 08:00,ZBHH 160800Z AUTO 08006KT 6SM 10/M12 A2974 RMK T01001120 IEM_DS3505
ZBHH,2008-03-16 09:00,ZBHH 160900Z AUTO 07004KT 12SM 12/M12 A2971 RMK SLP083 T01251119 57024 IEM_DS3505
ZBHH,2008-03-16 10:00,ZBHH 161000Z AUTO 11004KT 7SM 11/M11 A2971 RMK T01101110 IEM_DS3505
ZBHH,2008-03-16 11:00,ZBHH 161100Z AUTO 07004KT 7SM 07/M11 A2974 RMK T00701110 IEM_DS3505
ZBHH,2008-03-16 12:00,ZBHH 161200Z AUTO 36002KT 5SM 09/M09 A2977 RMK SLP099 T00891091 52013 IEM_DS3505
ZBHH,2008-03-16 13:00,ZBHH 161300Z AUTO 09004KT 3SM 02/M10 A2977 RMK T00201100 IEM_DS3505
ZBHH,2008-03-16 14:00,ZBHH 161400Z AUTO 09002KT 3SM 01/M09 A2980 RMK T00101090 IEM_DS3505
ZBHH,2008-03-16 15:00,ZBHH 161500Z AUTO 02002KT 6SM 06/M09 A2977 RMK SLP098 T00611090 52007 IEM_DS3505
ZBHH,2008-03-16 16:00,ZBHH 161600Z AUTO 18002KT 4SM 00/M09 A2980 RMK T00001090 IEM_DS3505
ZBHH,2008-03-16 17:00,ZBHH 161700Z AUTO 07004KT 4SM M01/M09 A2977 RMK T10101090 IEM_DS3505
ZBHH,2008-03-16 18:00,ZBHH 161800Z AUTO 09002KT 5SM 03/M09 A2977 RMK SLP091 T00331093 57004 IEM_DS3505
ZBHH,2008-03-16 19:00,ZBHH 161900Z AUTO 00000KT 4SM M01/M10 A2977 RMK T10101100 IEM_DS3505
ZBHH,2008-03-16 20:00,ZBHH 162000Z AUTO 06002KT 4SM M01/M09 A2977 RMK T10101090 IEM_DS3505
ZBHH,2008-03-16 21:00,ZBHH 162100Z AUTO 07002KT 5SM 01/M09 A2974 RMK SLP084 T00141090 57007 IEM_DS3505
ZBHH,2008-03-16 22:00,ZBHH 162200Z AUTO 08004KT 7SM M02/M09 A2974 RMK T10201090 IEM_DS3505
ZBHH,2008-03-16 23:00,ZBHH 162300Z AUTO 07004KT 6SM M02/M09 A2977 RMK T10201090 IEM_DS3505
ZBHH,2008-03-17 00:00,ZBHH 170000Z AUTO 09002KT 5SM 04/M09 A2977 RMK SLP099 T00351088 52010 IEM_DS3505
ZBHH,2008-03-17 01:00,ZBHH 170100Z AUTO 07002KT 6SM 05/M08 A2980 RMK T00501080 IEM_DS3505
ZBHH,2008-03-17 02:00,ZBHH 170200Z AUTO 00000KT 4SM 09/M05 A2980 RMK T00901050 IEM_DS3505
ZBHH,2008-03-17 03:00,ZBHH 170300Z AUTO 25004KT 6SM 11/M03 A2977 RMK SLP087 T01121033 57001 IEM_DS3505
ZBHH,2008-03-17 04:00,ZBHH 170400Z AUTO 23004KT 3SM 12/M03 A2974 RMK T01201030 IEM_DS3505
ZBHH,2008-03-17 05:00,ZBHH 170500Z AUTO 23002KT 3SM 14/M03 A2971 RMK T01401030 IEM_DS3505
ZBHH,2008-03-17 06:00,ZBHH 170600Z AUTO 22004KT 7SM 16/M03 A2968 RMK SLP051 T01601032 57026 IEM_DS3505
ZBHH,2008-03-17 07:00,ZBHH 170700Z AUTO 26004KT 4SM 17/M04 A2965 RMK T01701040 IEM_DS3505
ZBHH,2008-03-17 08:00,ZBHH 170800Z AUTO 24004KT 4SM 18/M04 A2962 RMK T01801040 IEM_DS3505
ZBHH,2008-03-17 09:00,ZBHH 170900Z AUTO 34002KT 7SM 19/M05 A2962 RMK SLP023 T01931049 57020 IEM_DS3505
ZBHH,2008-03-17 10:00,ZBHH 171000Z AUTO 02004KT 4SM 16/M05 A2962 RMK T01601050 IEM_DS3505
ZBHH,2008-03-17 11:00,ZBHH 171100Z AUTO 03002KT 3SM 14/M04 A2962 RMK T01401040 IEM_DS3505
ZBHH,2008-03-17 12:00,ZBHH 171200Z AUTO 04002KT 6SM 15/M03 A2965 RMK SLP043 T01491034 52013 IEM_DS3505
ZBHH,2008-03-17 13:00,ZBHH 171300Z AUTO 32006KT 5SM 16/M08 A2968 RMK T01601080 IEM_DS3505
ZBHH,2008-03-17 14:00,ZBHH 171400Z AUTO 34008KT 4SM 14/M08 A2974 RMK T01401080 IEM_DS3505
ZBHH,2008-03-17 15:00,ZBHH 171500Z AUTO 32008KT 9SM 11/M10 A2980 RMK SLP082 T01131096 52042 IEM_DS3505
ZBHH,2008-03-17 16:00,ZBHH 171600Z AUTO 01016G29KT 1 1/2SM 09/M11 A2983 RMK T00901110 IEM_DS3505
ZBHH,2008-03-17 17:00,ZBHH 171700Z AUTO 02023G35KT 1 1/4SM 05/M11 A2988 RMK T00501110 IEM_DS3505
ZBHH,2008-03-17 18:00,ZBHH 171800Z AUTO 32004G29KT 4SM 05/M10 A2991 RMK SLP124 T00491100 52035 IEM_DS3505
ZBHH,2008-03-17 19:00,ZBHH 171900Z AUTO 03019G31KT 1 1/4SM 02/M10 A2991 RMK T00201100 IEM_DS3505
ZBHH,2008-03-17 20:00,ZBHH 172000Z AUTO 03019KT 1 1/4SM 00/M10 A2994 RMK T00001100 IEM_DS3505
ZBHH,2008-03-17 21:00,ZBHH 172100Z AUTO 32006G25KT 5SM 01/M09 A3000 RMK SLP161 T00091089 52030 IEM_DS3505
ZBHH,2008-03-17 22:00,ZBHH 172200Z AUTO 01019KT 2 1/2SM M02/M10 A3003 RMK T10201100 IEM_DS3505
ZBHH,2008-03-17 23:00,ZBHH 172300Z AUTO 36012G21KT 5SM M02/M10 A3009 RMK T10201100 IEM_DS3505
ZBHH,2008-03-18 00:00,ZBHH 180000Z AUTO 02004KT 9SM M01/M10 A3012 RMK SLP220 T10081104 52040 IEM_DS3505
ZBHH,2008-03-18 01:00,ZBHH 180100Z AUTO 36012KT 7SM M01/M11 A3015 RMK T10101110 IEM_DS3505
ZBHH,2008-03-18 02:00,ZBHH 180200Z AUTO 36008KT 6SM 00/M12 A3018 RMK T00001120 IEM_DS3505
ZBHH,2008-03-18 03:00,ZBHH 180300Z AUTO 04004KT 19SM 04/M14 A3015 RMK SLP231 T00381144 52011 IEM_DS3505
ZBHH,2008-03-18 04:00,ZBHH 180400Z AUTO 6SM 05/M15 A3015 RMK T00501150 IEM_DS3505
ZBHH,2008-03-18 05:00,ZBHH 180500Z AUTO 14002KT 6SM 06/M18 A3015 RMK T00601180 IEM_DS3505
ZBHH,2008-03-18 06:00,ZBHH 180600Z AUTO 32006KT 19SM 09/M19 A3012 RMK SLP218 T00871191 57014 IEM_DS3505
ZBHH,2008-03-18 07:00,ZBHH 180700Z AUTO 27004KT 6SM 09/M19 A3012 RMK T00901190 IEM_DS3505
ZBHH,2008-03-18 08:00,ZBHH 180800Z AUTO 11012KT 6SM 09/M20 A3012 RMK T00901200 IEM_DS3505
ZBHH,2008-03-18 09:00,ZBHH 180900Z AUTO 11006KT 19SM 09/M20 A3012 RMK SLP224 T00881201 57003 IEM_DS3505
ZBHH,2008-03-18 10:00,ZBHH 181000Z AUTO 10012KT 6SM 07/M22 A3012 RMK T00701220 IEM_DS3505
ZBHH,2008-03-18 11:00,ZBHH 181100Z AUTO 10008KT 6SM 04/M22 A3015 RMK T00401220 IEM_DS3505
ZBHH,2008-03-18 12:00,ZBHH 181200Z AUTO 09006KT 19SM 05/M22 A3015 RMK SLP253 T00531218 52015 IEM_DS3505
ZBHH,2008-03-18 13:00,ZBHH 181300Z AUTO 10008KT 6SM M01/M21 A3018 RMK T10101210 IEM_DS3505
ZBHH,2008-03-18 14:00,ZBHH 181400Z AUTO 08006KT 6SM M02/M21 A3018 RMK T10201210 IEM_DS3505
ZBHH,2008-03-18 15:00,ZBHH 181500Z AUTO 04004KT 19SM 02/M21 A3018 RMK SLP256 T00191213 52005 IEM_DS3505
ZBHH,2008-03-18 16:00,ZBHH 181600Z AUTO 08004KT 6SM M02/M20 A3018 RMK T10201200 IEM_DS3505
ZBHH,2008-03-18 17:00,ZBHH 181700Z AUTO 07004KT 6SM M03/M20 A3018 RMK T10301200 IEM_DS3505
ZBHH,2008-03-18 18:00,ZBHH 181800Z AUTO 32002KT 19SM M00/M19 A3015 RMK SLP243 T10021188 57006 IEM_DS3505
ZBHH,2008-03-18 19:00,ZBHH 181900Z AUTO 03002KT M03/M21 A3015 RMK T10301210 IEM_DS3505
ZBHH,2008-03-18 20:00,ZBHH 182000Z AUTO 05002KT 6SM M05/M19 A3012 RMK T10501190 IEM_DS3505
ZBHH,2008-03-18 21:00,ZBHH 182100Z AUTO 00000KT 19SM M03/M18 A3009 RMK SLP228 T10291177 57018 IEM_DS3505
ZBHH,2008-03-18 22:00,ZBHH 182200Z AUTO 36002KT 6SM M05/M19 A3012 RMK T10501190 IEM_DS3505
ZBHH,2008-03-18 23:00,ZBHH 182300Z AUTO 07004KT 6SM M05/M18 A3012 RMK T10501180 IEM_DS3505
ZBHH,2008-03-19 00:00,ZBHH 190000Z AUTO 02002KT 9SM M00/M17 A3012 RMK SLP239 T10011173 52008 IEM_DS3505
ZBHH,2008-03-19 01:00,ZBHH 190100Z AUTO 06004KT 6SM 01/M17 A3012 RMK T00101170 IEM_DS3505
ZBHH,2008-03-19 02:00,ZBHH 190200Z AUTO 05002KT 6SM 05/M16 A3012 RMK T00501160 IEM_DS3505
ZBHH,2008-03-19 03:00,ZBHH 190300Z AUTO 11004KT 16SM 07/M15 A3009 RMK SLP219 T00741147 57009 IEM_DS3505
ZBHH,2008-03-19 04:00,ZBHH 190400Z AUTO 05002KT 5SM 08/M13 A3006 RMK T00801130 IEM_DS3505
ZBHH,2008-03-19 05:00,ZBHH 190500Z AUTO 4SM 10/M11 A3003 RMK T01001110 IEM_DS3505
ZBHH,2008-03-19 06:00,ZBHH 190600Z AUTO 16002KT 9SM 13/M09 A3000 RMK SLP174 T01271091 57033 IEM_DS3505
ZBHH,2008-03-19 07:00,ZBHH 190700Z AUTO 30002KT 4SM 12/M07 A2994 RMK T01201070 IEM_DS3505
ZBHH,2008-03-19 08:00,ZBHH 190800Z AUTO 02002KT 3SM 13/M07 A2994 RMK T01301070 IEM_DS3505
ZBHH,2008-03-19 09:00,ZBHH 190900Z AUTO 32002KT 6SM 13/M06 A2991 RMK SLP156 T01301060 57021 IEM_DS3505
ZBHH,2008-03-19 10:00,ZBHH 191000Z AUTO 00000KT 3SM 11/M03 A2991 RMK T01101030 IEM_DS3505
ZBHH,2008-03-19 11:00,ZBHH 191100Z AUTO 06004KT 3SM 10/01 A2994 RMK T01000010 IEM_DS3505
ZBHH,2008-03-19 12:00,ZBHH 191200Z AUTO 00000KT 5SM 10/M00 A2994 RMK 60000 SLP160 T01041004 52004 IEM_DS3505
ZBHH,2008-03-19 13:00,ZBHH 191300Z AUTO 06008KT 4SM 10/03 A2994 RMK T01000030 IEM_DS3505
ZBHH,2008-03-19 14:00,ZBHH 191400Z AUTO 10004KT 5SM 08/03 A2994 RMK T00800030 IEM_DS3505
ZBHH,2008-03-19 15:00,ZBHH 191500Z AUTO 04002KT 5SM 10/02 A2994 RMK SLP151 T01050021 52008 IEM_DS3505
ZBHH,2008-03-19 16:00,ZBHH 191600Z AUTO 08006KT 5SM 09/02 A2994 RMK T00900020 IEM_DS3505
ZBHH,2008-03-19 17:00,ZBHH 191700Z AUTO 09002KT 5SM 08/03 A2994 RMK T00800030 IEM_DS3505
ZBHH,2008-03-19 18:00,ZBHH 191800Z AUTO 32002KT 5SM 10/02 RMK 60000 SLP135 T01000021 57005 IEM_DS3505
ZBHH,2008-03-19 19:00,ZBHH 191900Z AUTO 15002KT 4SM 06/02 A2994 RMK T00600020 IEM_DS3505
ZBHH,2008-03-19 20:00,ZBHH 192000Z AUTO 15002KT 4SM 07/04 A2991 RMK T00700040 IEM_DS3505
ZBHH,2008-03-19 21:00,ZBHH 192100Z AUTO 07004KT 5SM 08/05 A2991 RMK 70000 SLP127 T00800046 57010 IEM_DS3505
ZBHH,2008-03-19 22:00,ZBHH 192200Z AUTO 09004KT 1 1/4SM 06/04 A2991 RMK T00600040 IEM_DS3505
ZBHH,2008-03-19 23:00,ZBHH 192300Z AUTO 09004KT 1 1/4SM 06/04 A2991 RMK T00600040 IEM_DS3505
ZBHH,2008-03-20 00:00,ZBHH 200000Z AUTO 04002KT 2SM 08/05 A2991 RMK 60000 70000 SLP132 T00790050 57001 IEM_DS3505
ZBHH,2008-03-20 01:00,ZBHH 200100Z AUTO 15002KT 1SM 07/05 A2991 RMK T00700050 IEM_DS3505
ZBHH,2008-03-20 02:00,ZBHH 200200Z AUTO 11002KT 1SM 07/06 A2991 RMK T00700060 IEM_DS3505
ZBHH,2008-03-20 03:00,ZBHH 200300Z AUTO 20006KT 4SM 09/04 A2991 RMK SLP130 T00920040 52001 IEM_DS3505
ZBHH,2008-03-20 04:00,ZBHH 200400Z AUTO 19006KT 2 1/2SM 08/04 A2991 RMK T00800040 IEM_DS3505
ZBHH,2008-03-20 05:00,ZBHH 200500Z AUTO 21006KT 2 1/2SM 08/04 A2988 RMK T00800040 IEM_DS3505
ZBHH,2008-03-20 06:00,ZBHH 200600Z AUTO 20006KT 4SM 08/05 A2988 RMK 60000 SLP121 T00830052 57011 IEM_DS3505
ZBHH,2008-03-20 07:00,ZBHH 200700Z AUTO 24006KT 2SM 07/05 A2985 RMK T00700050 IEM_DS3505
ZBHH,2008-03-20 08:00,ZBHH 200800Z AUTO 22004KT 1 1/2SM 07/05 A2985 RMK T00700050 IEM_DS3505
ZBHH,2008-03-20 09:00,ZBHH 200900Z AUTO 22006KT 3SM 07/06 A2985 RMK SLP121 T00730058 57006 IEM_DS3505
ZBHH,2008-03-20 10:00,ZBHH 201000Z AUTO 21004KT 1SM 06/05 A2985 RMK T00600050 IEM_DS3505
ZBHH,2008-03-20 11:00,ZBHH 201100Z AUTO 24004KT 1SM 06/05 A2988 RMK T00600050 IEM_DS3505
ZBHH,2008-03-20 12:00,ZBHH 201200Z AUTO 25002KT 3SM 07/06 A2988 RMK 60028 SLP139 T00680059 52015 IEM_DS3505
ZBHH,2008-03-20 13:00,ZBHH 201300Z AUTO 21002KT 1SM 06/05 A2988 RMK T00600050 IEM_DS3505
ZBHH,2008-03-20 14:00,ZBHH 201400Z AUTO 15004KT 1/2SM 05/05 A2988 RMK T00500050 IEM_DS3505
ZBHH,2008-03-20 15:00,ZBHH 201500Z AUTO 25002KT 5SM 06/06 A2991 RMK SLP144 T00650056 52006 IEM_DS3505
ZBHH,2008-03-20 16:00,ZBHH 201600Z AUTO 25004KT 1SM 05/05 A2991 RMK T00500050 IEM_DS3505
ZBHH,2008-03-20 17:00,ZBHH 201700Z AUTO 22002KT 1SM 05/04 A2991 RMK T00500040 IEM_DS3505
ZBHH,2008-03-20 18:00,ZBHH 201800Z AUTO 25004KT 3SM 05/05 A2991 RMK 60000 SLP148 T00530047 57001 IEM_DS3505
ZBHH,2008-03-20 19:00,ZBHH 201900Z AUTO 23002KT 1/2SM 04/03 A2991 RMK T00400030 IEM_DS3505
ZBHH,2008-03-20 20:00,ZBHH 202000Z AUTO 00000KT 1/2SM 04/03 A2991 RMK T00400030 IEM_DS3505
ZBHH,2008-03-20 21:00,ZBHH 202100Z AUTO 25002KT 3SM 05/04 A2991 RMK 70028 SLP150 T00480044 57001 IEM_DS3505
ZBHH,2008-03-20 22:00,ZBHH 202200Z AUTO 23004KT 1SM 04/03 A2991 RMK T00400030 IEM_DS3505
ZBHH,2008-03-20 23:00,ZBHH 202300Z AUTO 23006KT 1SM 03/03 A2991 RMK T00300030 IEM_DS3505
ZBHH,2008-03-21 00:00,ZBHH 210000Z AUTO 25004KT 5SM 04/03 A2994 RMK 70028 SLP164 T00380028 52009 IEM_DS3505
ZBHH,2008-03-21 01:00,ZBHH 210100Z AUTO 22006KT 1SM 03/01 A2997 RMK T00300010 IEM_DS3505
ZBHH,2008-03-21 02:00,ZBHH 210200Z AUTO 25004KT 1 1/4SM 04/02 A2997 RMK T00400020 IEM_DS3505
ZBHH,2008-03-21 03:00,ZBHH 210300Z AUTO 18006KT 4SM 08/00 A2997 RMK SLP161 T00800002 52006 IEM_DS3505
ZBHH,2008-03-21 04:00,ZBHH 210400Z AUTO 24010KT 4SM 09/M03 A2997 RMK T00901030 IEM_DS3505
ZBHH,2008-03-21 05:00,ZBHH 210500Z AUTO 31016KT 7SM 09/M09 A2997 RMK T00901090 IEM_DS3505
ZBHH,2008-03-21 06:00,ZBHH 210600Z AUTO 29012G23KT 7SM 10/M12 A2994 RMK SLP154 T01041122 57004 IEM_DS3505
ZBHH,2008-03-21 07:00,ZBHH 210700Z AUTO 32014KT 7SM 09/M09 A2994 RMK T00901090 IEM_DS3505
ZBHH,2008-03-21 08:00,ZBHH 210800Z AUTO 31012KT 7SM 09/M11 A2994 RMK T00901110 IEM_DS3505
ZBHH,2008-03-21 09:00,ZBHH 210900Z AUTO 27004KT 9SM 11/M14 A2994 RMK SLP148 T01121137 57005 IEM_DS3505
ZBHH,2008-03-21 10:00,ZBHH 211000Z AUTO 32008KT 7SM 10/M14 A2994 RMK T01001140 IEM_DS3505
ZBHH,2008-03-21 11:00,ZBHH 211100Z AUTO 22004KT 6SM 08/M10 A2994 RMK T00801100 IEM_DS3505
ZBHH,2008-03-21 12:00,ZBHH 211200Z AUTO 27004KT 19SM 08/M08 A2997 RMK SLP165 T00771076 52006 IEM_DS3505
ZBHH,2008-03-21 13:00,ZBHH 211300Z AUTO 24004KT 6SM 04/M07 A2997 RMK T00401070 IEM_DS3505
ZBHH,2008-03-21 14:00,ZBHH 211400Z AUTO 05004KT 6SM 03/M07 A2997 RMK T00301070 IEM_DS3505
ZBHH,2008-03-21 15:00,ZBHH 211500Z AUTO 22002KT 19SM 04/M08 A2997 RMK SLP168 T00421085 52004 IEM_DS3505
ZBHH,2008-03-21 16:00,ZBHH 211600Z AUTO 11002KT 6SM 00/M05 A2997 RMK T00001050 IEM_DS3505
ZBHH,2008-03-21 17:00,ZBHH 211700Z AUTO 01002KT 6SM 00/M05 A2997 RMK T00001050 IEM_DS3505
ZBHH,2008-03-21 18:00,ZBHH 211800Z AUTO 09004KT 19SM 02/M06 A2994 RMK SLP155 T00231056 57010 IEM_DS3505
ZBHH,2008-03-21 19:00,ZBHH 211900Z AUTO 08004KT 6SM M01/M06 A2991 RMK T10101060 IEM_DS3505
ZBHH,2008-03-21 20:00,ZBHH 212000Z AUTO 08002KT 6SM M01/M05 A2988 RMK T10101050 IEM_DS3505
ZBHH,2008-03-21 21:00,ZBHH 212100Z AUTO 11002KT 19SM 03/M06 A2991 RMK SLP143 T00271062 57008 IEM_DS3505
ZBHH,2008-03-21 22:00,ZBHH 212200Z AUTO 11002KT 6SM 00/M06 A2988 RMK T00001060 IEM_DS3505
ZBHH,2008-03-21 23:00,ZBHH 212300Z AUTO 19002KT 7SM 00/M05 A2991 RMK T00001050 IEM_DS3505
ZBHH,2008-03-22 00:00,ZBHH 220000Z AUTO 34006KT 7SM 02/M01 A2994 RMK 60000 70000 SLP161 T00241012 52008 IEM_DS3505
ZBHH,2008-03-22 01:00,ZBHH 220100Z AUTO 22002KT 1/4SM M01/M01 A2994 RMK T10101010 IEM_DS3505
ZBHH,2008-03-22 02:00,ZBHH 220200Z AUTO 01004KT 7SM M01/M01 A2997 RMK T10101010 IEM_DS3505
ZBHH,2008-03-22 03:00,ZBHH 220300Z AUTO 34002KT 12SM 04/M07 A3000 RMK SLP194 T00351073 52024 IEM_DS3505
ZBHH,2008-03-22 04:00,ZBHH 220400Z AUTO 35010G19KT 7SM 02/M07 A3003 RMK T00201070 IEM_DS3505
ZBHH,2008-03-22 05:00,ZBHH 220500Z AUTO 35006KT 7SM 03/M05 A3006 RMK T00301050 IEM_DS3505
ZBHH,2008-03-22 06:00,ZBHH 220600Z AUTO 36008G21KT 19SM 06/M09 A3006 RMK 60003 SLP208 T00591088 52013 IEM_DS3505
ZBHH,2008-03-22 07:00,ZBHH 220700Z AUTO 35014G23KT 7SM 04/M07 A3006 RMK T00401070 IEM_DS3505
ZBHH,2008-03-22 08:00,ZBHH 220800Z AUTO 36014G23KT 7SM 04/M05 A3009 RMK T00401050 IEM_DS3505
ZBHH,2008-03-22 09:00,ZBHH 220900Z AUTO 34006G23KT 19SM 05/M09 A3009 RMK SLP222 T00541088 52012 IEM_DS3505
ZBHH,2008-03-22 10:00,ZBHH 221000Z AUTO 02010KT 7SM 04/M09 A3009 RMK T00401090 IEM_DS3505
ZBHH,2008-03-22 11:00,ZBHH 221100Z AUTO 36004KT 7SM 03/M11 A3012 RMK T00301110 IEM_DS3505
ZBHH,2008-03-22 12:00,ZBHH 221200Z AUTO 29002KT 19SM 04/M11 A3012 RMK SLP237 T00411111 52010 IEM_DS3505
ZBHH,2008-03-22 13:00,ZBHH 221300Z AUTO 35002KT 6SM 01/M07 A3012 RMK T00101070 IEM_DS3505
ZBHH,2008-03-22 14:00,ZBHH 221400Z AUTO 02002KT 6SM 00/M07 A3012 RMK T00001070 IEM_DS3505
ZBHH,2008-03-22 15:00,ZBHH 221500Z AUTO 32006KT 19SM 02/M10 A3012 RMK SLP240 T00201102 54000 IEM_DS3505
ZBHH,2008-03-22 16:00,ZBHH 221600Z AUTO 00000KT 6SM M03/M07 A3012 RMK T10301070 IEM_DS3505
ZBHH,2008-03-22 17:00,ZBHH 221700Z AUTO 12004KT 6SM M04/M06 A3012 RMK T10401060 IEM_DS3505
ZBHH,2008-03-22 18:00,ZBHH 221800Z AUTO 09004KT 19SM M00/M08 A3012 RMK SLP238 T10021075 57001 IEM_DS3505
ZBHH,2008-03-22 19:00,ZBHH 221900Z AUTO 00000KT 6SM M04/M06 A3012 RMK T10401060 IEM_DS3505
ZBHH,2008-03-22 20:00,ZBHH 222000Z AUTO 00000KT 6SM M05/M08 A3009 RMK T10501080 IEM_DS3505
ZBHH,2008-03-22 21:00,ZBHH 222100Z AUTO 09002KT 19SM M02/M07 A3009 RMK 70003 SLP228 T10231072 57014 IEM_DS3505
ZBHH,2008-03-22 22:00,ZBHH 222200Z AUTO 08004KT 6SM M06/M08 A3009 RMK T10601080 IEM_DS3505
ZBHH,2008-03-22 23:00,ZBHH 222300Z AUTO 09004KT 6SM M06/M08 A3009 RMK T10601080 IEM_DS3505
ZBHH,2008-03-23 00:00,ZBHH 230000Z AUTO 09004KT 16SM M01/M08 A3009 RMK 70003 SLP235 T10091075 52006 IEM_DS3505
ZBHH,2008-03-23 01:00,ZBHH 230100Z AUTO 15002KT 6SM M01/M08 A3009 RMK T10101080 IEM_DS3505
ZBHH,2008-03-23 02:00,ZBHH 230200Z AUTO 15004KT 6SM 00/M06 A3009 RMK T00001060 IEM_DS3505
ZBHH,2008-03-23 03:00,ZBHH 230300Z AUTO 32002KT 12SM 03/M07 A3006 RMK SLP216 T00341068 57012 IEM_DS3505
ZBHH,2008-03-23 04:00,ZBHH 230400Z AUTO 28002KT 6SM 04/M06 A3003 RMK T00401060 IEM_DS3505
ZBHH,2008-03-23 05:00,ZBHH 230500Z AUTO 09002KT 6SM 06/M05 A3000 RMK T00601050 IEM_DS3505
ZBHH,2008-03-23 06:00,ZBHH 230600Z AUTO 22012KT 16SM 12/M10 A2994 RMK SLP158 T01211102 57037 IEM_DS3505
ZBHH,2008-03-23 07:00,ZBHH 230700Z AUTO 26016KT 7SM 11/M09 A2991 RMK T01101090 IEM_DS3505
ZBHH,2008-03-23 08:00,ZBHH 230800Z AUTO 34014KT 7SM 12/M11 A2988 RMK T01201110 IEM_DS3505
ZBHH,2008-03-23 09:00,ZBHH 230900Z AUTO 32010G23KT 19SM 13/M16 A2988 RMK SLP145 T01341165 57013 IEM_DS3505
ZBHH,2008-03-23 10:00,ZBHH 231000Z AUTO 34014G25KT 7SM 11/M15 A2991 RMK T01101150 IEM_DS3505
ZBHH,2008-03-23 11:00,ZBHH 231100Z AUTO 36010KT 6SM 09/M14 A2994 RMK T00901140 IEM_DS3505
ZBHH,2008-03-23 12:00,ZBHH 231200Z AUTO 32008KT 19SM 08/M15 A2997 RMK SLP178 T00841146 52021 IEM_DS3505
ZBHH,2008-03-23 13:00,ZBHH 231300Z AUTO 34010KT 6SM 04/M11 A3000 RMK T00401110 IEM_DS3505
ZBHH,2008-03-23 14:00,ZBHH 231400Z AUTO 16002KT 6SM 02/M13 A3006 RMK T00201130 IEM_DS3505
ZBHH,2008-03-23 15:00,ZBHH 231500Z AUTO 07006KT 19SM 02/M18 A3006 RMK SLP217 T00231184 52031 IEM_DS3505
ZBHH,2008-03-23 16:00,ZBHH 231600Z AUTO 07006KT 6SM M02/M18 A3009 RMK T10201180 IEM_DS3505
ZBHH,2008-03-23 17:00,ZBHH 231700Z AUTO 06008KT 3SM M02/M20 A3009 RMK T10201200 IEM_DS3505
ZBHH,2008-03-23 18:00,ZBHH 231800Z AUTO 02002KT 19SM M01/M21 A3009 RMK SLP214 T10131208 52008 IEM_DS3505
ZBHH,2008-03-23 19:00,ZBHH 231900Z AUTO 07004KT 6SM M03/M19 A3009 RMK T10301190 IEM_DS3505
ZBHH,2008-03-23 20:00,ZBHH 232000Z AUTO 11006KT 6SM M05/M17 A3009 RMK T10501170 IEM_DS3505
ZBHH,2008-03-23 21:00,ZBHH 232100Z AUTO 29002KT 19SM M04/M18 A3012 RMK SLP223 T10371176 52005 IEM_DS3505
ZBHH,2008-03-23 22:00,ZBHH 232200Z AUTO 00000KT 6SM M06/M15 A3012 RMK T10601150 IEM_DS3505
ZBHH,2008-03-23 23:00,ZBHH 232300Z AUTO 00000KT 6SM M06/M14 A3015 RMK T10601140 IEM_DS3505
ZBHH,2008-03-24 00:00,ZBHH 240000Z AUTO 36002KT 19SM M01/M17 A3015 RMK SLP244 T10111173 52014 IEM_DS3505
ZBHH,2008-03-24 01:00,ZBHH 240100Z AUTO 17002KT 6SM 00/M16 A3015 RMK T00001160 IEM_DS3505
ZBHH,2008-03-24 02:00,ZBHH 240200Z AUTO 01008KT 6SM 01/M17 A3015 RMK T00101170 IEM_DS3505
ZBHH,2008-03-24 03:00,ZBHH 240300Z AUTO 04012KT 19SM 03/M20 A3015 RMK SLP250 T00311196 52001 IEM_DS3505
ZBHH,2008-03-24 04:00,ZBHH 240400Z AUTO 36012G21KT 6SM 03/M18 A3015 RMK T00301180 IEM_DS3505
ZBHH,2008-03-24 05:00,ZBHH 240500Z AUTO 01012KT 6SM 03/M18 A3012 RMK T00301180 IEM_DS3505
ZBHH,2008-03-24 06:00,ZBHH 240600Z AUTO 02008KT 19SM 05/M20 A3012 RMK SLP242 T00521201 57010 IEM_DS3505
ZBHH,2008-03-24 07:00,ZBHH 240700Z AUTO 35014G23KT 6SM 04/M18 A3012 RMK T00401180 IEM_DS3505
ZBHH,2008-03-24 08:00,ZBHH 240800Z AUTO 01016G25KT 6SM 04/M19 A3009 RMK T00401190 IEM_DS3505
ZBHH,2008-03-24 09:00,ZBHH 240900Z AUTO 32006KT 19SM 05/M19 A3012 RMK SLP245 T00541192 57002 IEM_DS3505
ZBHH,2008-03-24 10:00,ZBHH 241000Z AUTO 36012G21KT 6SM 03/M18 A3012 RMK T00301180 IEM_DS3505
ZBHH,2008-03-24 11:00,ZBHH 241100Z AUTO 01010KT 6SM 02/M18 A3012 RMK T00201180 IEM_DS3505
ZBHH,2008-03-24 12:00,ZBHH 241200Z AUTO 36004KT 19SM 02/M19 A3015 RMK SLP259 T00251188 52011 IEM_DS3505
ZBHH,2008-03-24 13:00,ZBHH 241300Z AUTO 36004KT 6SM 00/M17 A3018 RMK T00001170 IEM_DS3505
ZBHH,2008-03-24 14:00,ZBHH 241400Z AUTO 04004KT 6SM 00/M17 A3018 RMK T00001170 IEM_DS3505
ZBHH,2008-03-24 15:00,ZBHH 241500Z AUTO 07004KT 19SM 01/M17 A3018 RMK SLP263 T00071171 52009 IEM_DS3505
ZBHH,2008-03-24 16:00,ZBHH 241600Z AUTO 36004KT 6SM M02/M15 A3018 RMK T10201150 IEM_DS3505
ZBHH,2008-03-24 17:00,ZBHH 241700Z AUTO 31004KT 6SM M03/M15 A3018 RMK T10301150 IEM_DS3505
ZBHH,2008-03-24 18:00,ZBHH 241800Z AUTO 32004KT 19SM M02/M17 A3015 RMK SLP257 T10161169 57006 IEM_DS3505
ZBHH,2008-03-24 19:00,ZBHH 241900Z AUTO 34004KT 6SM M04/M15 A3015 RMK T10401150 IEM_DS3505
ZBHH,2008-03-24 20:00,ZBHH 242000Z AUTO 32004KT 6SM M04/M16 A3012 RMK T10401160 IEM_DS3505
ZBHH,2008-03-24 21:00,ZBHH 242100Z AUTO 34004KT 19SM M01/M18 A3012 RMK SLP239 T10131179 57014 IEM_DS3505
ZBHH,2008-03-24 22:00,ZBHH 242200Z AUTO 03004KT 6SM M05/M15 A3012 RMK T10501150 IEM_DS3505
ZBHH,2008-03-24 23:00,ZBHH 242300Z AUTO 12002KT 6SM M06/M13 A3012 RMK T10601130 IEM_DS3505
ZBHH,2008-03-25 00:00,ZBHH 250000Z AUTO 25002KT 19SM M00/M17 A3012 RMK SLP240 T10011169 57003 IEM_DS3505
ZBHH,2008-03-25 01:00,ZBHH 250100Z AUTO 20004KT 6SM M01/M13 A3009 RMK T10101130 IEM_DS3505
ZBHH,2008-03-25 02:00,ZBHH 250200Z AUTO 21006KT 6SM 00/M14 A3009 RMK T00001140 IEM_DS3505
ZBHH,2008-03-25 03:00,ZBHH 250300Z AUTO 22008KT 12SM 03/M15 A3006 RMK SLP223 T00281153 57013 IEM_DS3505
ZBHH,2008-03-25 04:00,ZBHH 250400Z AUTO 24006KT 6SM 04/M17 A3003 RMK T00401170 IEM_DS3505
ZBHH,2008-03-25 05:00,ZBHH 250500Z AUTO 25004KT 6SM 05/M19 A2997 RMK T00501190 IEM_DS3505
ZBHH,2008-03-25 06:00,ZBHH 250600Z AUTO 22010KT 16SM 06/M18 A2994 RMK SLP178 T00631177 57037 IEM_DS3505
ZBHH,2008-03-25 07:00,ZBHH 250700Z AUTO 26010KT 6SM 06/M17 A2991 RMK T00601170 IEM_DS3505
ZBHH,2008-03-25 08:00,ZBHH 250800Z AUTO 23008KT 7SM 06/M17 A2988 RMK T00601170 IEM_DS3505
ZBHH,2008-03-25 09:00,ZBHH 250900Z AUTO 20006KT 12SM 07/M15 A2985 RMK SLP135 T00681152 57036 IEM_DS3505
ZBHH,2008-03-25 10:00,ZBHH 251000Z AUTO 04006KT 7SM 05/M14 A2983 RMK T00501140 IEM_DS3505
ZBHH,2008-03-25 11:00,ZBHH 251100Z AUTO 06008KT 7SM 04/M14 A2983 RMK T00401140 IEM_DS3505
ZBHH,2008-03-25 12:00,ZBHH 251200Z AUTO 04004KT 12SM 05/M14 A2983 RMK SLP140 T00511143 52004 IEM_DS3505
ZBHH,2008-03-25 13:00,ZBHH 251300Z AUTO 36002KT 7SM 02/M13 A2985 RMK T00201130 IEM_DS3505
ZBHH,2008-03-25 14:00,ZBHH 251400Z AUTO 34006KT 7SM 03/M14 A2985 RMK T00301140 IEM_DS3505
ZBHH,2008-03-25 15:00,ZBHH 251500Z AUTO 09002KT 19SM 03/M14 A2985 RMK SLP147 T00341138 52008 IEM_DS3505
ZBHH,2008-03-25 16:00,ZBHH 251600Z AUTO 21002KT 7SM 00/M12 A2988 RMK T00001120 IEM_DS3505
ZBHH,2008-03-25 17:00,ZBHH 251700Z AUTO 12002KT 7SM M01/M11 A2988 RMK T10101110 IEM_DS3505
ZBHH,2008-03-25 18:00,ZBHH 251800Z AUTO 36002KT 19SM 01/M15 A2988 RMK SLP147 T00061154 52002 IEM_DS3505
ZBHH,2008-03-25 19:00,ZBHH 251900Z AUTO 11004KT 7SM M04/M09 A2985 RMK T10401090 IEM_DS3505
ZBHH,2008-03-25 20:00,ZBHH 252000Z AUTO 08002KT 7SM M05/M10 A2985 RMK T10501100 IEM_DS3505
ZBHH,2008-03-25 21:00,ZBHH 252100Z AUTO 34002KT 19SM M01/M12 A2985 RMK SLP146 T10121125 57004 IEM_DS3505
ZBHH,2008-03-25 22:00,ZBHH 252200Z AUTO 09004KT 6SM M06/M11 A2988 RMK T10601110 IEM_DS3505
ZBHH,2008-03-25 23:00,ZBHH 252300Z AUTO 10002KT 6SM M05/M11 A2988 RMK T10501110 IEM_DS3505
ZBHH,2008-03-26 00:00,ZBHH 260000Z AUTO 07002KT 16SM 02/M16 A2991 RMK SLP156 T00191165 52012 IEM_DS3505
ZBHH,2008-03-26 01:00,ZBHH 260100Z AUTO 09002KT 6SM 02/M13 A2991 RMK T00201130 IEM_DS3505
ZBHH,2008-03-26 02:00,ZBHH 260200Z AUTO 17002KT 6SM 05/M14 A2991 RMK T00501140 IEM_DS3505
ZBHH,2008-03-26 03:00,ZBHH 260300Z AUTO 04006KT 19SM 08/M18 A2988 RMK SLP147 T00751175 54000 IEM_DS3505
ZBHH,2008-03-26 04:00,ZBHH 260400Z AUTO 33010KT 6SM 07/M17 A2988 RMK T00701170 IEM_DS3505
ZBHH,2008-03-26 05:00,ZBHH 260500Z AUTO 34012KT 6SM 07/M18 A2988 RMK T00701180 IEM_DS3505
ZBHH,2008-03-26 06:00,ZBHH 260600Z AUTO 36006G25KT 16SM 09/M18 A2988 RMK SLP144 T00901180 57005 IEM_DS3505
ZBHH,2008-03-26 07:00,ZBHH 260700Z AUTO 35012KT 6SM 07/M17 A2988 RMK T00701170 IEM_DS3505
ZBHH,2008-03-26 08:00,ZBHH 260800Z AUTO 36012G23KT 6SM 07/M16 A2988 RMK T00701160 IEM_DS3505
ZBHH,2008-03-26 09:00,ZBHH 260900Z AUTO 02006KT 19SM 08/M18 A2988 RMK SLP150 T00831177 54000 IEM_DS3505
ZBHH,2008-03-26 10:00,ZBHH 261000Z AUTO 36012KT 6SM 06/M18 A2988 RMK T00601180 IEM_DS3505
ZBHH,2008-03-26 11:00,ZBHH 261100Z AUTO 01010KT 6SM 05/M17 A2991 RMK T00501170 IEM_DS3505
ZBHH,2008-03-26 12:00,ZBHH 261200Z AUTO 36004KT 19SM 05/M17 A2994 RMK SLP168 T00521166 52016 IEM_DS3505
ZBHH,2008-03-26 13:00,ZBHH 261300Z AUTO 35002KT 6SM 02/M15 A2994 RMK T00201150 IEM_DS3505
ZBHH,2008-03-26 14:00,ZBHH 261400Z AUTO 02004KT 6SM 00/M13 A2997 RMK T00001130 IEM_DS3505
ZBHH,2008-03-26 15:00,ZBHH 261500Z AUTO 27004KT 19SM 02/M14 A2997 RMK SLP175 T00211145 52011 IEM_DS3505
ZBHH,2008-03-26 16:00,ZBHH 261600Z AUTO 02004KT 6SM M01/M13 A2997 RMK T10101130 IEM_DS3505
ZBHH,2008-03-26 17:00,ZBHH 261700Z AUTO 11002KT 6SM M04/M11 A2997 RMK T10401110 IEM_DS3505
ZBHH,2008-03-26 18:00,ZBHH 261800Z AUTO 29004KT 19SM M00/M15 A2997 RMK SLP177 T10031150 54000 IEM_DS3505
ZBHH,2008-03-26 19:00,ZBHH 261900Z AUTO 12002KT 6SM M05/M11 A2997 RMK T10501110 IEM_DS3505
ZBHH,2008-03-26 20:00,ZBHH 262000Z AUTO 05002KT 6SM M03/M12 A2994 RMK T10301120 IEM_DS3505
ZBHH,2008-03-26 21:00,ZBHH 262100Z AUTO 00000KT 19SM M02/M14 A2994 RMK SLP177 T10151137 57004 IEM_DS3505
ZBHH,2008-03-26 22:00,ZBHH 262200Z AUTO 00000KT 6SM M05/M12 A2997 RMK T10501120 IEM_DS3505
ZBHH,2008-03-26 23:00,ZBHH 262300Z AUTO 09004KT 6SM M06/M11 A2997 RMK T10601110 IEM_DS3505
ZBHH,2008-03-27 00:00,ZBHH 270000Z AUTO 22002KT 16SM M00/M11 A3000 RMK SLP194 T10041106 52011 IEM_DS3505
ZBHH,2008-03-27 01:00,ZBHH 270100Z AUTO 17002KT 6SM 01/M11 A3000 RMK T00101110 IEM_DS3505
ZBHH,2008-03-27 02:00,ZBHH 270200Z AUTO 12002KT 6SM 03/M12 A3000 RMK T00301120 IEM_DS3505
ZBHH,2008-03-27 03:00,ZBHH 270300Z AUTO 11004KT 9SM 07/M12 A2997 RMK SLP181 T00691123 57003 IEM_DS3505
ZBHH,2008-03-27 04:00,ZBHH 270400Z AUTO 17002KT 6SM 08/M13 A2994 RMK T00801130 IEM_DS3505
ZBHH,2008-03-27 05:00,ZBHH 270500Z AUTO 14004KT 6SM 08/M13 A2994 RMK T00801130 IEM_DS3505
ZBHH,2008-03-27 06:00,ZBHH 270600Z AUTO 04002KT 12SM 10/M13 A2988 RMK SLP150 T00991133 57026 IEM_DS3505
ZBHH,2008-03-27 07:00,ZBHH 270700Z AUTO 21004KT 6SM 09/M13 A2988 RMK T00901130 IEM_DS3505
ZBHH,2008-03-27 08:00,ZBHH 270800Z AUTO 20006KT 6SM 10/M13 A2985 RMK T01001130 IEM_DS3505
ZBHH,2008-03-27 09:00,ZBHH 270900Z AUTO 22006KT 12SM 11/M13 A2985 RMK SLP136 T01071127 57013 IEM_DS3505
ZBHH,2008-03-27 10:00,ZBHH 271000Z AUTO 23004KT 6SM 09/M12 A2985 RMK T00901120 IEM_DS3505
ZBHH,2008-03-27 11:00,ZBHH 271100Z AUTO 25002KT 6SM 07/M11 A2988 RMK T00701110 IEM_DS3505
ZBHH,2008-03-27 12:00,ZBHH 271200Z AUTO 27004KT 9SM 09/M12 A2988 RMK SLP148 T00881117 52009 IEM_DS3505
ZBHH,2008-03-27 13:00,ZBHH 271300Z AUTO 06004KT 6SM 06/M09 A2991 RMK T00601090 IEM_DS3505
ZBHH,2008-03-27 14:00,ZBHH 271400Z AUTO 11004KT 6SM 05/M08 A2991 RMK T00501080 IEM_DS3505
ZBHH,2008-03-27 15:00,ZBHH 271500Z AUTO 07004KT 19SM 07/M10 A2988 RMK SLP138 T00691099 52002 IEM_DS3505
ZBHH,2008-03-27 16:00,ZBHH 271600Z AUTO 08012KT 6SM 05/M11 A2988 RMK T00501110 IEM_DS3505
ZBHH,2008-03-27 17:00,ZBHH 271700Z AUTO 06010KT 6SM 05/M11 A2988 RMK T00501110 IEM_DS3505
ZBHH,2008-03-27 18:00,ZBHH 271800Z AUTO 11002KT 19SM 06/M11 A2988 RMK SLP130 T00631109 57002 IEM_DS3505
ZBHH,2008-03-27 19:00,ZBHH 271900Z AUTO 08008KT 6SM 05/M08 A2988 RMK T00501080 IEM_DS3505
ZBHH,2008-03-27 20:00,ZBHH 272000Z AUTO 07014KT 6SM 01/M01 A2988 RMK T00101010 IEM_DS3505
ZBHH,2008-03-27 21:00,ZBHH 272100Z AUTO 09006KT 19SM 01/M00 A2985 RMK 70000 SLP131 T00141001 57008 IEM_DS3505
ZBHH,2008-03-27 22:00,ZBHH 272200Z AUTO 10008KT 1 1/4SM M01/M01 A2985 RMK T10101010 IEM_DS3505
ZBHH,2008-03-27 23:00,ZBHH 272300Z AUTO 08004KT 1SM M01/M01 A2985 RMK T10101010 IEM_DS3505
ZBHH,2008-03-28 00:00,ZBHH 280000Z AUTO 07004KT 2SM 01/M00 A2985 RMK 60016 70014 SLP133 T00081001 57003 IEM_DS3505
ZBHH,2008-03-28 01:00,ZBHH 280100Z AUTO 08004KT 1SM 00/M01 A2985 RMK T00001010 IEM_DS3505
ZBHH,2008-03-28 02:00,ZBHH 280200Z AUTO 07002KT 1SM 00/M01 A2985 RMK T00001010 IEM_DS3505
ZBHH,2008-03-28 03:00,ZBHH 280300Z AUTO 32002KT 2SM 01/00 A2985 RMK SLP139 T00140004 52003 IEM_DS3505
ZBHH,2008-03-28 04:00,ZBHH 280400Z AUTO 12002KT 1SM 00/00 A2985 RMK T00000000 IEM_DS3505
ZBHH,2008-03-28 05:00,ZBHH 280500Z AUTO 17002KT 1SM 00/00 A2983 RMK T00000000 IEM_DS3505
ZBHH,2008-03-28 06:00,ZBHH 280600Z AUTO 00000KT 2SM 01/00 A2983 RMK 60020 SLP135 T00120002 57006 IEM_DS3505
ZBHH,2008-03-28 07:00,ZBHH 280700Z AUTO 26002KT 1/2SM 00/00 A2983 RMK T00000000 IEM_DS3505
ZBHH,2008-03-28 08:00,ZBHH 280800Z AUTO 25002KT 3/8SM 00/00 A2985 RMK T00000000 IEM_DS3505
ZBHH,2008-03-28 09:00,ZBHH 280900Z AUTO 09004KT 2SM 01/00 A2988 RMK SLP149 T00090000 52002 IEM_DS3505
ZBHH,2008-03-28 10:00,ZBHH 281000Z AUTO 35002KT 1SM 00/00 A2988 RMK T00000000 IEM_DS3505
ZBHH,2008-03-28 11:00,ZBHH 281100Z AUTO 22002KT 1SM 00/M01 A2991 RMK T00001010 IEM_DS3505
ZBHH,2008-03-28 12:00,ZBHH 281200Z AUTO 09002KT 2SM 01/00 A2994 RMK 60012 SLP180 T00130003 52027 IEM_DS3505
ZBHH,2008-03-28 13:00,ZBHH 281300Z AUTO 13002KT 2SM 00/M01 A2997 RMK T00001010 IEM_DS3505
ZBHH,2008-03-28 14:00,ZBHH 281400Z AUTO 01004KT 2 1/2SM 00/M01 A3000 RMK T00001010 IEM_DS3505
ZBHH,2008-03-28 15:00,ZBHH 281500Z AUTO 09002KT 4SM 01/M01 A3000 RMK SLP201 T00101006 52019 IEM_DS3505
ZBHH,2008-03-28 16:00,ZBHH 281600Z AUTO 09004KT 5SM M02/M03 A3000 RMK T10201030 IEM_DS3505
ZBHH,2008-03-28 17:00,ZBHH 281700Z AUTO 10006KT 4SM M04/M05 A3000 RMK T10401050 IEM_DS3505
ZBHH,2008-03-28 18:00,ZBHH 281800Z AUTO 36002KT 6SM M00/M02 A3000 RMK SLP209 T10051018 52003 IEM_DS3505
ZBHH,2008-03-28 19:00,ZBHH 281900Z AUTO 00000KT 4SM M04/M05 A3000 RMK T10401050 IEM_DS3505
ZBHH,2008-03-28 20:00,ZBHH 282000Z AUTO 00000KT 4SM M06/M06 A3000 RMK T10601060 IEM_DS3505
ZBHH,2008-03-28 21:00,ZBHH 282100Z AUTO 16002KT 6SM M01/M03 A3000 RMK 70045 SLP210 T10101026 57001 IEM_DS3505
ZBHH,2008-03-28 22:00,ZBHH 282200Z AUTO 00000KT 2 1/2SM M07/M07 A3000 RMK T10701070 IEM_DS3505
ZBHH,2008-03-28 23:00,ZBHH 282300Z AUTO 00000KT 2 1/2SM M06/M06 A3003 RMK T10601060 IEM_DS3505
ZBHH,2008-03-29 00:00,ZBHH 290000Z AUTO 09002KT 6SM M00/M02 A3009 RMK 70031 SLP236 T10051025 52025 IEM_DS3505
ZBHH,2008-03-29 01:00,ZBHH 290100Z AUTO 01012KT 7SM 00/M05 A3012 RMK T00001050 IEM_DS3505
ZBHH,2008-03-29 02:00,ZBHH 290200Z AUTO 32008KT 7SM 01/M05 A3012 RMK T00101050 IEM_DS3505
ZBHH,2008-03-29 03:00,ZBHH 290300Z AUTO 32012KT 19SM 04/M05 A3012 RMK SLP239 T00371052 52011 IEM_DS3505
ZBHH,2008-03-29 04:00,ZBHH 290400Z AUTO 33008KT 7SM 03/M05 A3012 RMK T00301050 IEM_DS3505
ZBHH,2008-03-29 05:00,ZBHH 290500Z AUTO 33014KT 7SM 04/M03 A3012 RMK T00401030 IEM_DS3505
ZBHH,2008-03-29 06:00,ZBHH 290600Z AUTO 32010KT 19SM 06/M04 A3012 RMK SLP240 T00581038 52002 IEM_DS3505
ZBHH,2008-03-29 07:00,ZBHH 290700Z AUTO 34016KT 7SM 05/M05 A3012 RMK T00501050 IEM_DS3505
ZBHH,2008-03-29 08:00,ZBHH 290800Z AUTO 33014KT 7SM 05/M04 A3012 RMK T00501040 IEM_DS3505
ZBHH,2008-03-29 09:00,ZBHH 290900Z AUTO 34008KT 19SM 06/M04 A3012 RMK SLP243 T00561043 52001 IEM_DS3505
ZBHH,2008-03-29 10:00,ZBHH 291000Z AUTO 01008KT 7SM 04/M06 A3015 RMK T00401060 IEM_DS3505
ZBHH,2008-03-29 11:00,ZBHH 291100Z AUTO 35004KT 7SM 02/M05 A3015 RMK T00201050 IEM_DS3505
ZBHH,2008-03-29 12:00,ZBHH 291200Z AUTO 04004KT 19SM 02/M04 A3018 RMK SLP263 T00251045 52012 IEM_DS3505
ZBHH,2008-03-29 13:00,ZBHH 291300Z AUTO 02006KT 6SM 00/M05 A3018 RMK T00001050 IEM_DS3505
ZBHH,2008-03-29 14:00,ZBHH 291400Z AUTO 02004KT 6SM 00/M06 A3021 RMK T00001060 IEM_DS3505
ZBHH,2008-03-29 15:00,ZBHH 291500Z AUTO 07004KT 19SM 02/M05 A3021 RMK SLP263 T00201049 52008 IEM_DS3505
ZBHH,2008-03-29 16:00,ZBHH 291600Z AUTO 01004KT 6SM 00/M06 A3021 RMK T00001060 IEM_DS3505
ZBHH,2008-03-29 17:00,ZBHH 291700Z AUTO 36002KT 6SM 00/M07 A3021 RMK T00001070 IEM_DS3505
ZBHH,2008-03-29 18:00,ZBHH 291800Z AUTO 07004KT 19SM 01/M06 A3018 RMK SLP255 T00081063 57005 IEM_DS3505
ZBHH,2008-03-29 19:00,ZBHH 291900Z AUTO 02004KT 6SM M02/M07 A3018 RMK T10201070 IEM_DS3505
ZBHH,2008-03-29 20:00,ZBHH 292000Z AUTO 04004KT 6SM M02/M08 A3018 RMK T10201080 IEM_DS3505
ZBHH,2008-03-29 21:00,ZBHH 292100Z AUTO 22002KT 19SM M02/M07 A3018 RMK SLP263 T10201071 52001 IEM_DS3505
ZBHH,2008-03-29 22:00,ZBHH 292200Z AUTO 08004KT 6SM M04/M07 A3018 RMK T10401070 IEM_DS3505
ZBHH,2008-03-29 23:00,ZBHH 292300Z AUTO 08004KT 6SM M03/M08 A3021 RMK T10301080 IEM_DS3505
ZBHH,2008-03-30 00:00,ZBHH 300000Z AUTO 11002KT 19SM 00/M08 A3021 RMK SLP273 T00051075 52007 IEM_DS3505
ZBHH,2008-03-30 01:00,ZBHH 300100Z AUTO 09002KT 6SM 01/M07 A3021 RMK T00101070 IEM_DS3505
ZBHH,2008-03-30 02:00,ZBHH 300200Z AUTO 12004KT 6SM 02/M08 A3021 RMK T00201080 IEM_DS3505
ZBHH,2008-03-30 03:00,ZBHH 300300Z AUTO 11004KT 19SM 05/M10 A3021 RMK SLP262 T00491100 57001 IEM_DS3505
ZBHH,2008-03-30 04:00,ZBHH 300400Z AUTO 6SM 05/M09 A3018 RMK T00501090 IEM_DS3505
ZBHH,2008-03-30 05:00,ZBHH 300500Z AUTO 07002KT 6SM 06/M08 A3018 RMK T00601080 IEM_DS3505
ZBHH,2008-03-30 06:00,ZBHH 300600Z AUTO 04006KT 19SM 08/M10 A3015 RMK SLP240 T00751098 57017 IEM_DS3505
ZBHH,2008-03-30 07:00,ZBHH 300700Z AUTO 11002KT 7SM 07/M09 A3012 RMK T00701090 IEM_DS3505
ZBHH,2008-03-30 08:00,ZBHH 300800Z AUTO 13004KT 7SM 07/M09 A3012 RMK T00701090 IEM_DS3505
ZBHH,2008-03-30 09:00,ZBHH 300900Z AUTO 27002KT 19SM 08/M10 A3009 RMK SLP227 T00811102 57016 IEM_DS3505
ZBHH,2008-03-30 10:00,ZBHH 301000Z AUTO 7SM 07/M10 A3009 RMK T00701100 IEM_DS3505
ZBHH,2008-03-30 11:00,ZBHH 301100Z AUTO 31002KT 7SM 05/M08 A3012 RMK T00501080 IEM_DS3505
ZBHH,2008-03-30 12:00,ZBHH 301200Z AUTO 04002KT 19SM 05/M09 A3015 RMK SLP247 T00481087 52016 IEM_DS3505
ZBHH,2008-03-30 13:00,ZBHH 301300Z AUTO 03006KT 7SM 03/M07 A3018 RMK T00301070 IEM_DS3505
ZBHH,2008-03-30 14:00,ZBHH 301400Z AUTO 08006KT 7SM 02/M06 A3018 RMK T00201060 IEM_DS3505
ZBHH,2008-03-30 15:00,ZBHH 301500Z AUTO 09004KT 19SM 04/M07 A3018 RMK SLP251 T00401069 52011 IEM_DS3505
ZBHH,2008-03-30 16:00,ZBHH 301600Z AUTO 10006KT 7SM 00/M06 A3015 RMK T00001060 IEM_DS3505
ZBHH,2008-03-30 17:00,ZBHH 301700Z AUTO 10004KT 7SM 00/M06 A3015 RMK T00001060 IEM_DS3505
ZBHH,2008-03-30 18:00,ZBHH 301800Z AUTO 36002KT 19SM 02/M07 A3018 RMK SLP247 T00151066 57003 IEM_DS3505
ZBHH,2008-03-30 19:00,ZBHH 301900Z AUTO 02002KT 7SM M01/M06 A3018 RMK T10101060 IEM_DS3505
ZBHH,2008-03-30 20:00,ZBHH 302000Z AUTO 03004KT 7SM M01/M06 A3018 RMK T10101060 IEM_DS3505
ZBHH,2008-03-30 21:00,ZBHH 302100Z AUTO 34002KT 12SM 01/M07 A3015 RMK SLP240 T00141066 57005 IEM_DS3505
ZBHH,2008-03-30 22:00,ZBHH 302200Z AUTO 10002KT 7SM M01/M07 A3015 RMK T10101070 IEM_DS3505
ZBHH,2008-03-30 23:00,ZBHH 302300Z AUTO 10004KT 7SM 00/M06 A3015 RMK T00001060 IEM_DS3505
ZBHH,2008-03-31 00:00,ZBHH 310000Z AUTO 07002KT 9SM 03/M07 A3015 RMK SLP247 T00311074 52003 IEM_DS3505
ZBHH,2008-03-31 01:00,ZBHH 310100Z AUTO 08010KT 7SM 02/M07 A3015 RMK T00201070 IEM_DS3505
ZBHH,2008-03-31 02:00,ZBHH 310200Z AUTO 09014KT 7SM 04/M07 A3015 RMK T00401070 IEM_DS3505
ZBHH,2008-03-31 03:00,ZBHH 310300Z AUTO 09010KT 7SM 06/M07 A3012 RMK SLP230 T00601069 57011 IEM_DS3505
ZBHH,2008-03-31 04:00,ZBHH 310400Z AUTO 08016KT 7SM 06/M05 A3009 RMK T00601050 IEM_DS3505
ZBHH,2008-03-31 05:00,ZBHH 310500Z AUTO 09017KT 7SM 06/M05 A3006 RMK T00601050 IEM_DS3505
ZBHH,2008-03-31 06:00,ZBHH 310600Z AUTO 09014KT 7SM 07/M05 A3003 RMK SLP195 T00741050 57033 IEM_DS3505
ZBHH,2008-03-31 07:00,ZBHH 310700Z AUTO 08019KT 7SM 07/M06 A2997 RMK T00701060 IEM_DS3505
ZBHH,2008-03-31 08:00,ZBHH 310800Z AUTO 08016KT 7SM 07/M05 A2994 RMK T00701050 IEM_DS3505
ZBHH,2008-03-31 09:00,ZBHH 310900Z AUTO 07006KT 6SM 07/M04 A2994 RMK SLP165 T00731044 57027 IEM_DS3505
ZBHH,2008-03-31 10:00,ZBHH 311000Z AUTO 08016KT 7SM 06/M05 A2994 RMK T00601050 IEM_DS3505
ZBHH,2008-03-31 11:00,ZBHH 311100Z AUTO 09014KT 7SM 05/M05 A2994 RMK T00501050 IEM_DS3505
ZBHH,2008-03-31 12:00,ZBHH 311200Z AUTO 09006KT 6SM 06/M04 A2997 RMK SLP173 T00631042 52009 IEM_DS3505
ZBHH,2008-03-31 13:00,ZBHH 311300Z AUTO 15010KT 4SM 04/01 A2997 RMK T00400010 IEM_DS3505
ZBHH,2008-03-31 14:00,ZBHH 311400Z AUTO 18004KT 2SM 03/01 A3000 RMK T00300010 IEM_DS3505
ZBHH,2008-03-31 15:00,ZBHH 311500Z AUTO 20004KT 9SM 04/01 A3000 RMK SLP180 T00450010 52008 IEM_DS3505
ZBHH,2008-03-31 16:00,ZBHH 311600Z AUTO 06004KT 2SM 01/00 A2997 RMK T00100000 IEM_DS3505
ZBHH,2008-03-31 17:00,ZBHH 311700Z AUTO 25010KT 2SM 02/01 A2997 RMK T00200010 IEM_DS3505
ZBHH,2008-03-31 18:00,ZBHH 311800Z AUTO 25004KT 6SM 03/02 A2997 RMK 60000 SLP173 T00280015 57007 IEM_DS3505
ZBHH,2008-03-31 19:00,ZBHH 311900Z AUTO 25008KT 2SM 01/00 A2997 RMK T00100000 IEM_DS3505
ZBHH,2008-03-31 20:00,ZBHH 312000Z AUTO 25010KT 2SM 01/M01 A2994 RMK T00101010 IEM_DS3505
ZBHH,2008-03-31 21:00,ZBHH 312100Z AUTO 22010KT 6SM 01/M01 A2994 RMK 70001 SLP164 T00141008 57011 IEM_DS3505
ZBHH,2008-03-31 22:00,ZBHH 312200Z AUTO 24016KT 4SM 00/M04 A2991 RMK T00001040 IEM_DS3505
ZBHH,2008-03-31 23:00,ZBHH 312300Z AUTO 24016KT 2 1/2SM M01/M04 A2994 RMK T10101040 IEM_DS3505
ZBHH,2008-04-01 00:00,ZBHH 010000Z AUTO 22008KT 6SM 01/M04 A2994 RMK 70001 SLP175 T00061044 52006 IEM_DS3505
ZBHH,2008-04-01 01:00,ZBHH 010100Z AUTO 24010G19KT 2 1/2SM 01/M04 A2994 RMK T00101040 IEM_DS3505
ZBHH,2008-04-01 02:00,ZBHH 010200Z AUTO 25014KT 3SM 03/M04 A2994 RMK T00301040 IEM_DS3505
ZBHH,2008-04-01 03:00,ZBHH 010300Z AUTO 22010KT 7SM 05/M07 A2994 RMK SLP165 T00461066 57004 IEM_DS3505
ZBHH,2008-04-01 04:00,ZBHH 010400Z AUTO 29014KT 7SM 05/M07 A2994 RMK T00501070 IEM_DS3505
ZBHH,2008-04-01 05:00,ZBHH 010500Z AUTO 29019G31KT 7SM 05/M08 A2994 RMK T00501080 IEM_DS3505
ZBHH,2008-04-01 06:00,ZBHH 010600Z AUTO 29008KT 6SM 02/M02 A2997 RMK 60000 SLP188 T00231024 52012 IEM_DS3505
ZBHH,2008-04-01 07:00,ZBHH 010700Z AUTO 32016G27KT 7SM 04/M07 A2997 RMK T00401070 IEM_DS3505
ZBHH,2008-04-01 08:00,ZBHH 010800Z AUTO 31014G23KT 7SM 04/M06 A2997 RMK T00401060 IEM_DS3505
ZBHH,2008-04-01 09:00,ZBHH 010900Z AUTO 29008KT 6SM 02/M02 A2997 RMK SLP197 T00231015 52005 IEM_DS3505
ZBHH,2008-04-01 10:00,ZBHH 011000Z AUTO 32014KT 7SM 01/M04 A3000 RMK T00101040 IEM_DS3505
ZBHH,2008-04-01 11:00,ZBHH 011100Z AUTO 32010KT 7SM 01/M06 A3003 RMK T00101060 IEM_DS3505
ZBHH,2008-04-01 12:00,ZBHH 011200Z AUTO 32012KT 19SM 02/M05 A3006 RMK 60000 SLP220 T00221054 52018 IEM_DS3505
ZBHH,2008-04-01 13:00,ZBHH 011300Z AUTO 32004G14KT 7SM 00/M04 A3009 RMK T00001040 IEM_DS3505
ZBHH,2008-04-01 14:00,ZBHH 011400Z AUTO 34006KT 7SM 00/M04 A3009 RMK T00001040 IEM_DS3505
ZBHH,2008-04-01 15:00,ZBHH 011500Z AUTO 32010KT 19SM 01/M06 A3006 RMK SLP218 T00141060 52005 IEM_DS3505
ZBHH,2008-04-01 16:00,ZBHH 011600Z AUTO 33006KT 6SM 00/M07 A3006 RMK T00001070 IEM_DS3505
ZBHH,2008-04-01 17:00,ZBHH 011700Z AUTO 32010KT 6SM 00/M07 A3006 RMK T00001070 IEM_DS3505
ZBHH,2008-04-01 18:00,ZBHH 011800Z AUTO 29006KT 19SM 01/M08 A3006 RMK SLP219 T00131075 57004 IEM_DS3505
ZBHH,2008-04-01 19:00,ZBHH 011900Z AUTO 13004KT 6SM M02/M07 A3006 RMK T10201070 IEM_DS3505
ZBHH,2008-04-01 20:00,ZBHH 012000Z AUTO 30008KT 6SM M01/M08 A3003 RMK T10101080 IEM_DS3505
ZBHH,2008-04-01 21:00,ZBHH 012100Z AUTO 32012KT 19SM 00/M08 A3006 RMK 70000 SLP218 T00051080 57003 IEM_DS3505
ZBHH,2008-04-01 22:00,ZBHH 012200Z AUTO 15002KT 6SM M03/M08 A3006 RMK T10301080 IEM_DS3505
ZBHH,2008-04-01 23:00,ZBHH 012300Z AUTO 09008KT 6SM M04/M07 A3006 RMK T10401070 IEM_DS3505
ZBHH,2008-04-02 00:00,ZBHH 020000Z AUTO 29008KT 19SM 01/M08 A3009 RMK 70000 SLP237 T00071075 52017 IEM_DS3505
ZBHH,2008-04-02 01:00,ZBHH 020100Z AUTO 03006KT 6SM 01/M07 A3012 RMK T00101070 IEM_DS3505
ZBHH,2008-04-02 02:00,ZBHH 020200Z AUTO 01008KT 7SM 01/M07 A3012 RMK T00101070 IEM_DS3505
ZBHH,2008-04-02 03:00,ZBHH 020300Z AUTO 36006KT 19SM 04/M07 A3012 RMK SLP238 T00441068 52007 IEM_DS3505
ZBHH,2008-04-02 04:00,ZBHH 020400Z AUTO 04012KT 7SM 03/M06 A3012 RMK T00301060 IEM_DS3505
ZBHH,2008-04-02 05:00,ZBHH 020500Z AUTO 02006KT 7SM 04/M06 A3012 RMK T00401060 IEM_DS3505
ZBHH,2008-04-02 06:00,ZBHH 020600Z AUTO 32010KT 19SM 07/M10 A3009 RMK SLP227 T00671105 57005 IEM_DS3505
ZBHH,2008-04-02 07:00,ZBHH 020700Z AUTO 33014KT 7SM 05/M11 A3009 RMK T00501110 IEM_DS3505
ZBHH,2008-04-02 08:00,ZBHH 020800Z AUTO 32014KT 7SM 05/M10 A3006 RMK T00501100 IEM_DS3505
ZBHH,2008-04-02 09:00,ZBHH 020900Z AUTO 32010KT 19SM 06/M10 A3006 RMK SLP213 T00641099 57014 IEM_DS3505
ZBHH,2008-04-02 10:00,ZBHH 021000Z AUTO 34010KT 7SM 05/M10 A3006 RMK T00501100 IEM_DS3505
ZBHH,2008-04-02 11:00,ZBHH 021100Z AUTO 35006KT 6SM 04/M09 A3006 RMK T00401090 IEM_DS3505
ZBHH,2008-04-02 12:00,ZBHH 021200Z AUTO 02004KT 19SM 04/M08 A3006 RMK SLP219 T00401081 54000 IEM_DS3505
ZBHH,2008-04-02 13:00,ZBHH 021300Z AUTO 02006KT 6SM 01/M07 A3009 RMK T00101070 IEM_DS3505
ZBHH,2008-04-02 14:00,ZBHH 021400Z AUTO 03008KT 6SM 00/M07 A3009 RMK T00001070 IEM_DS3505
ZBHH,2008-04-02 15:00,ZBHH 021500Z AUTO 02004KT 19SM 02/M07 A3006 RMK SLP216 T00201068 52001 IEM_DS3505
ZBHH,2008-04-02 16:00,ZBHH 021600Z AUTO 06004KT 6SM M01/M07 A3006 RMK T10101070 IEM_DS3505
ZBHH,2008-04-02 17:00,ZBHH 021700Z AUTO 07004KT 6SM M02/M07 A3003 RMK T10201070 IEM_DS3505
ZBHH,2008-04-02 18:00,ZBHH 021800Z AUTO 32004KT 19SM M00/M06 A3003 RMK SLP201 T10051059 57013 IEM_DS3505
ZBHH,2008-04-02 19:00,ZBHH 021900Z AUTO 36002KT 6SM M03/M07 A3000 RMK T10301070 IEM_DS3505
ZBHH,2008-04-02 20:00,ZBHH 022000Z AUTO 03004KT 6SM M04/M07 A3000 RMK T10401070 IEM_DS3505
ZBHH,2008-04-02 21:00,ZBHH 022100Z AUTO 20002KT 19SM M02/M07 A2997 RMK SLP192 T10231067 57013 IEM_DS3505
ZBHH,2008-04-02 22:00,ZBHH 022200Z AUTO 08004KT 6SM M05/M08 A3000 RMK T10501080 IEM_DS3505
ZBHH,2008-04-02 23:00,ZBHH 022300Z AUTO 07002KT 6SM M05/M07 A3000 RMK T10501070 IEM_DS3505
ZBHH,2008-04-03 00:00,ZBHH 030000Z AUTO 32002KT 4SM 00/M05 A3000 RMK SLP199 T00001052 52006 IEM_DS3505
ZBHH,2008-04-03 01:00,ZBHH 030100Z AUTO 12002KT 6SM 01/M06 A3000 RMK T00101060 IEM_DS3505
ZBHH,2008-04-03 02:00,ZBHH 030200Z AUTO 15002KT 6SM 03/M06 A3000 RMK T00301060 IEM_DS3505
ZBHH,2008-04-03 03:00,ZBHH 030300Z AUTO 16006KT 19SM 07/M07 A2997 RMK SLP174 T00691071 57011 IEM_DS3505
ZBHH,2008-04-03 04:00,ZBHH 030400Z AUTO 28002KT 6SM 07/M07 A2994 RMK T00701070 IEM_DS3505
ZBHH,2008-04-03 05:00,ZBHH 030500Z AUTO 27008KT 6SM 10/M09 A2991 RMK T01001090 IEM_DS3505
ZBHH,2008-04-03 06:00,ZBHH 030600Z AUTO 20008KT 19SM 12/M11 A2988 RMK SLP141 T01201109 57024 IEM_DS3505
ZBHH,2008-04-03 07:00,ZBHH 030700Z AUTO 23010KT 6SM 12/M10 A2985 RMK T01201100 IEM_DS3505
ZBHH,2008-04-03 08:00,ZBHH 030800Z AUTO 25006KT 7SM 11/M11 A2985 RMK T01101110 IEM_DS3505
ZBHH,2008-04-03 09:00,ZBHH 030900Z AUTO 27006KT 19SM 13/M11 A2983 RMK SLP122 T01331112 57018 IEM_DS3505
ZBHH,2008-04-03 10:00,ZBHH 031000Z AUTO 24006KT 7SM 12/M11 A2983 RMK T01201110 IEM_DS3505
ZBHH,2008-04-03 11:00,ZBHH 031100Z AUTO 35004KT 7SM 10/M11 A2985 RMK T01001110 IEM_DS3505
ZBHH,2008-04-03 12:00,ZBHH 031200Z AUTO 32002KT 19SM 10/M11 A2988 RMK SLP142 T01021112 52016 IEM_DS3505
ZBHH,2008-04-03 13:00,ZBHH 031300Z AUTO 33004KT 6SM 07/M10 A2991 RMK T00701100 IEM_DS3505
ZBHH,2008-04-03 14:00,ZBHH 031400Z AUTO 35002KT 6SM 04/M08 A2991 RMK T00401080 IEM_DS3505
ZBHH,2008-04-03 15:00,ZBHH 031500Z AUTO 34002KT 19SM 05/M09 A2991 RMK SLP150 T00531086 52011 IEM_DS3505
ZBHH,2008-04-03 16:00,ZBHH 031600Z AUTO 08006KT 6SM 00/M06 A2991 RMK T00001060 IEM_DS3505
ZBHH,2008-04-03 17:00,ZBHH 031700Z AUTO 02002KT 6SM 00/M06 A2991 RMK T00001060 IEM_DS3505
ZBHH,2008-04-03 18:00,ZBHH 031800Z AUTO 09002KT 19SM 02/M07 A2991 RMK SLP146 T00211067 52001 IEM_DS3505
ZBHH,2008-04-03 19:00,ZBHH 031900Z AUTO 26002KT 6SM M03/M07 A2991 RMK T10301070 IEM_DS3505
ZBHH,2008-04-03 20:00,ZBHH 032000Z AUTO 01002KT 6SM M02/M07 A2991 RMK T10201070 IEM_DS3505
ZBHH,2008-04-03 21:00,ZBHH 032100Z AUTO 07002KT 19SM M00/M08 A2991 RMK SLP148 T10021075 57001 IEM_DS3505
ZBHH,2008-04-03 22:00,ZBHH 032200Z AUTO 09004KT 6SM M04/M07 A2994 RMK T10401070 IEM_DS3505
ZBHH,2008-04-03 23:00,ZBHH 032300Z AUTO 08004KT 6SM M02/M06 A2994 RMK T10201060 IEM_DS3505
ZBHH,2008-04-04 00:00,ZBHH 040000Z AUTO 07004KT 16SM 04/M06 A2997 RMK SLP161 T00421064 52014 IEM_DS3505
ZBHH,2008-04-04 01:00,ZBHH 040100Z AUTO 06002KT 6SM 06/M07 A2994 RMK T00601070 IEM_DS3505
ZBHH,2008-04-04 02:00,ZBHH 040200Z AUTO 13002KT 6SM 09/M08 A2997 RMK T00901080 IEM_DS3505
ZBHH,2008-04-04 03:00,ZBHH 040300Z AUTO 27004KT 19SM 12/M10 A2994 RMK SLP152 T01191103 57002 IEM_DS3505
ZBHH,2008-04-04 04:00,ZBHH 040400Z AUTO 25006KT 6SM 13/M11 A2994 RMK T01301110 IEM_DS3505
ZBHH,2008-04-04 05:00,ZBHH 040500Z AUTO 25006KT 6SM 13/M12 A2991 RMK T01301120 IEM_DS3505
ZBHH,2008-04-04 06:00,ZBHH 040600Z AUTO 22006KT 19SM 15/M12 A2988 RMK SLP123 T01491124 57026 IEM_DS3505
ZBHH,2008-04-04 07:00,ZBHH 040700Z AUTO 24010KT 6SM 15/M14 A2985 RMK T01501140 IEM_DS3505
ZBHH,2008-04-04 08:00,ZBHH 040800Z AUTO 25010G19KT 6SM 16/M14 A2983 RMK T01601140 IEM_DS3505
ZBHH,2008-04-04 09:00,ZBHH 040900Z AUTO 22008KT 19SM 17/M14 A2980 RMK SLP099 T01671139 57022 IEM_DS3505
ZBHH,2008-04-04 10:00,ZBHH 041000Z AUTO 21004KT 6SM 15/M13 A2980 RMK T01501130 IEM_DS3505
ZBHH,2008-04-04 11:00,ZBHH 041100Z AUTO 15002KT 6SM 14/M12 A2980 RMK T01401120 IEM_DS3505
ZBHH,2008-04-04 12:00,ZBHH 041200Z AUTO 07002KT 16SM 12/M14 A2980 RMK SLP102 T01151135 52001 IEM_DS3505
ZBHH,2008-04-04 13:00,ZBHH 041300Z AUTO 06006KT 6SM 07/M07 A2983 RMK T00701070 IEM_DS3505
ZBHH,2008-04-04 14:00,ZBHH 041400Z AUTO 06002KT 6SM 07/M08 A2983 RMK T00701080 IEM_DS3505
ZBHH,2008-04-04 15:00,ZBHH 041500Z AUTO 11002KT 19SM 08/M09 A2983 RMK SLP102 T00781087 52008 IEM_DS3505
ZBHH,2008-04-04 16:00,ZBHH 041600Z AUTO 01002KT 6SM 04/M06 A2985 RMK T00401060 IEM_DS3505
ZBHH,2008-04-04 17:00,ZBHH 041700Z AUTO 10004KT 6SM 02/M05 A2985 RMK T00201050 IEM_DS3505
ZBHH,2008-04-04 18:00,ZBHH 041800Z AUTO 09002KT 16SM 07/M08 A2985 RMK SLP102 T00721080 52005 IEM_DS3505
ZBHH,2008-04-04 19:00,ZBHH 041900Z AUTO 05004KT 6SM 04/M05 A2983 RMK T00401050 IEM_DS3505
ZBHH,2008-04-04 20:00,ZBHH 042000Z AUTO 6SM 04/M05 A2985 RMK T00401050 IEM_DS3505
ZBHH,2008-04-04 21:00,ZBHH 042100Z AUTO 04002KT 19SM 05/M06 A2985 RMK SLP109 T00491057 52004 IEM_DS3505
ZBHH,2008-04-04 22:00,ZBHH 042200Z AUTO 06002KT 7SM 01/M03 A2988 RMK T00101030 IEM_DS3505
ZBHH,2008-04-04 23:00,ZBHH 042300Z AUTO 04002KT 7SM 03/M03 A2988 RMK T00301030 IEM_DS3505
ZBHH,2008-04-05 00:00,ZBHH 050000Z AUTO 09002KT 9SM 07/M03 A2988 RMK SLP130 T00741029 52014 IEM_DS3505
ZBHH,2008-04-05 01:00,ZBHH 050100Z AUTO 08008KT 5SM 09/M01 A2988 RMK T00901010 IEM_DS3505
ZBHH,2008-04-05 02:00,ZBHH 050200Z AUTO 00000KT 5SM 10/M03 A2991 RMK T01001030 IEM_DS3505
ZBHH,2008-04-05 03:00,ZBHH 050300Z AUTO 22004KT 9SM 10/M02 A2991 RMK SLP137 T01021025 52005 IEM_DS3505
ZBHH,2008-04-05 04:00,ZBHH 050400Z AUTO 20016KT 5SM 08/02 A2991 RMK T00800020 IEM_DS3505
ZBHH,2008-04-05 05:00,ZBHH 050500Z AUTO 16008KT 7SM 07/04 A2991 RMK T00700040 IEM_DS3505
ZBHH,2008-04-05 06:00,ZBHH 050600Z AUTO 09004KT 9SM 09/04 A2991 RMK SLP134 T00920044 57006 IEM_DS3505
ZBHH,2008-04-05 07:00,ZBHH 050700Z AUTO 12004KT 7SM 09/04 A2988 RMK T00900040 IEM_DS3505
ZBHH,2008-04-05 08:00,ZBHH 050800Z AUTO 16002KT 7SM 10/03 A2985 RMK T01000030 IEM_DS3505
ZBHH,2008-04-05 09:00,ZBHH 050900Z AUTO 14004KT 12SM 11/03 A2985 RMK SLP117 T01130033 57016 IEM_DS3505
ZBHH,2008-04-05 10:00,ZBHH 051000Z AUTO 04002KT 7SM 10/03 A2985 RMK T01000030 IEM_DS3505
ZBHH,2008-04-05 11:00,ZBHH 051100Z AUTO 02006KT 7SM 09/03 A2985 RMK T00900030 IEM_DS3505
ZBHH,2008-04-05 12:00,ZBHH 051200Z AUTO 09004KT 6SM 10/03 A2985 RMK SLP110 T01000031 57003 IEM_DS3505
ZBHH,2008-04-05 13:00,ZBHH 051300Z AUTO 07004KT 5SM 06/02 A2985 RMK T00600020 IEM_DS3505
ZBHH,2008-04-05 14:00,ZBHH 051400Z AUTO 04004KT 5SM 06/02 A2985 RMK T00600020 IEM_DS3505
ZBHH,2008-04-05 15:00,ZBHH 051500Z AUTO 32006KT 9SM 08/02 A2983 RMK SLP113 T00800023 52004 IEM_DS3505
ZBHH,2008-04-05 16:00,ZBHH 051600Z AUTO 04006KT 6SM 07/03 A2983 RMK T00700030 IEM_DS3505
ZBHH,2008-04-05 17:00,ZBHH 051700Z AUTO 34004KT 6SM 07/03 A2985 RMK T00700030 IEM_DS3505
ZBHH,2008-04-05 18:00,ZBHH 051800Z AUTO 36002KT 9SM 08/02 RMK 60000 SLP103 T00760023 57012 IEM_DS3505
ZBHH,2008-04-05 19:00,ZBHH 051900Z AUTO 14004KT 7SM 06/02 A2980 RMK T00600020 IEM_DS3505
ZBHH,2008-04-05 20:00,ZBHH 052000Z AUTO 20002KT 7SM 03/01 A2980 RMK T00300010 IEM_DS3505
ZBHH,2008-04-05 21:00,ZBHH 052100Z AUTO 27002KT 19SM 05/02 A2983 RMK 70000 SLP107 T00530023 52003 IEM_DS3505
ZBHH,2008-04-05 22:00,ZBHH 052200Z AUTO 04002KT 7SM 02/01 A2983 RMK T00200010 IEM_DS3505
ZBHH,2008-04-05 23:00,ZBHH 052300Z AUTO 00000KT 5SM 02/00 A2988 RMK T00200000 IEM_DS3505
ZBHH,2008-04-06 00:00,ZBHH 060000Z AUTO 29002KT 9SM 07/03 A2988 RMK 70000 SLP133 T00680027 52024 IEM_DS3505
ZBHH,2008-04-06 01:00,ZBHH 060100Z AUTO 19002KT 4SM 07/03 A2991 RMK T00700030 IEM_DS3505
ZBHH,2008-04-06 02:00,ZBHH 060200Z AUTO 23004KT 4SM 10/03 A2991 RMK T01000030 IEM_DS3505
ZBHH,2008-04-06 03:00,ZBHH 060300Z AUTO 22006KT 12SM 13/02 A2991 RMK SLP130 T01300023 52005 IEM_DS3505
ZBHH,2008-04-06 04:00,ZBHH 060400Z AUTO 31002KT 6SM 15/M04 A2991 RMK T01501040 IEM_DS3505
ZBHH,2008-04-06 05:00,ZBHH 060500Z AUTO 31010KT 6SM 16/M09 A2991 RMK T01601090 IEM_DS3505
ZBHH,2008-04-06 06:00,ZBHH 060600Z AUTO 29006KT 19SM 17/M12 A2988 RMK SLP109 T01721115 57011 IEM_DS3505
ZBHH,2008-04-06 07:00,ZBHH 060700Z AUTO 33012KT 6SM 16/M12 A2985 RMK T01601120 IEM_DS3505
ZBHH,2008-04-06 08:00,ZBHH 060800Z AUTO 33010KT 6SM 17/M12 A2985 RMK T01701120 IEM_DS3505
ZBHH,2008-04-06 09:00,ZBHH 060900Z AUTO 34006KT 19SM 18/M12 A2983 RMK SLP092 T01791119 57018 IEM_DS3505
ZBHH,2008-04-06 10:00,ZBHH 061000Z AUTO 36002KT 6SM 16/M12 A2983 RMK T01601120 IEM_DS3505
ZBHH,2008-04-06 11:00,ZBHH 061100Z AUTO 19002KT 6SM 15/M07 A2983 RMK T01501070 IEM_DS3505
ZBHH,2008-04-06 12:00,ZBHH 061200Z AUTO 25004KT 19SM 15/M06 A2985 RMK SLP101 T01461057 52005 IEM_DS3505
ZBHH,2008-04-06 13:00,ZBHH 061300Z AUTO 07004KT 6SM 10/M07 A2985 RMK T01001070 IEM_DS3505
ZBHH,2008-04-06 14:00,ZBHH 061400Z AUTO 10006KT 6SM 06/M04 A2988 RMK T00601040 IEM_DS3505
ZBHH,2008-04-06 15:00,ZBHH 061500Z AUTO 09004KT 19SM 10/M07 A2985 RMK SLP109 T00961067 52009 IEM_DS3505
ZBHH,2008-04-06 16:00,ZBHH 061600Z AUTO 05004KT 6SM 04/M06 A2985 RMK T00401060 IEM_DS3505
ZBHH,2008-04-06 17:00,ZBHH 061700Z AUTO 11002KT 6SM 03/M05 A2985 RMK T00301050 IEM_DS3505
ZBHH,2008-04-06 18:00,ZBHH 061800Z AUTO 09002KT 19SM 05/M05 A2985 RMK SLP101 T00531054 57007 IEM_DS3505
ZBHH,2008-04-06 19:00,ZBHH 061900Z AUTO 07002KT 6SM 04/M06 A2983 RMK T00401060 IEM_DS3505
ZBHH,2008-04-06 20:00,ZBHH 062000Z AUTO 08004KT 6SM 03/M06 A2983 RMK T00301060 IEM_DS3505
ZBHH,2008-04-06 21:00,ZBHH 062100Z AUTO 09002KT 19SM 03/M06 A2983 RMK SLP098 T00341055 57005 IEM_DS3505
ZBHH,2008-04-06 22:00,ZBHH 062200Z AUTO 07004KT 6SM 02/M05 A2983 RMK T00201050 IEM_DS3505
ZBHH,2008-04-06 23:00,ZBHH 062300Z AUTO 09006KT 6SM 01/M04 A2983 RMK T00101040 IEM_DS3505
ZBHH,2008-04-07 00:00,ZBHH 070000Z AUTO 14002KT 19SM 10/M05 A2983 RMK SLP093 T00951052 52001 IEM_DS3505
ZBHH,2008-04-07 01:00,ZBHH 070100Z AUTO 06004KT 6SM 12/M05 A2983 RMK T01201050 IEM_DS3505
ZBHH,2008-04-07 02:00,ZBHH 070200Z AUTO 09004KT 6SM 16/M09 A2983 RMK T01601090 IEM_DS3505
ZBHH,2008-04-07 03:00,ZBHH 070300Z AUTO 07004KT 12SM 18/M10 A2983 RMK SLP079 T01771101 57006 IEM_DS3505
ZBHH,2008-04-07 04:00,ZBHH 070400Z AUTO 11002KT 6SM 19/M10 A2980 RMK T01901100 IEM_DS3505
ZBHH,2008-04-07 05:00,ZBHH 070500Z AUTO 6SM 21/M10 A2977 RMK T02101100 IEM_DS3505
ZBHH,2008-04-07 06:00,ZBHH 070600Z AUTO 16004KT 9SM 22/M10 A2974 RMK SLP052 T02201098 57024 IEM_DS3505
ZBHH,2008-04-07 07:00,ZBHH 070700Z AUTO 6SM 23/M09 A2971 RMK T02301090 IEM_DS3505
ZBHH,2008-04-07 08:00,ZBHH 070800Z AUTO 27004KT 6SM 23/M09 A2971 RMK T02301090 IEM_DS3505
ZBHH,2008-04-07 09:00,ZBHH 070900Z AUTO 04004KT 9SM 23/M09 A2968 RMK SLP031 T02281092 57021 IEM_DS3505
ZBHH,2008-04-07 10:00,ZBHH 071000Z AUTO 03002KT 6SM 22/M08 A2968 RMK T02201080 IEM_DS3505
ZBHH,2008-04-07 11:00,ZBHH 071100Z AUTO 02004KT 6SM 19/M07 A2965 RMK T01901070 IEM_DS3505
ZBHH,2008-04-07 12:00,ZBHH 071200Z AUTO 04002KT 9SM 18/M06 A2968 RMK SLP030 T01791060 52002 IEM_DS3505
ZBHH,2008-04-07 13:00,ZBHH 071300Z AUTO 03008KT 6SM 14/M04 A2971 RMK T01401040 IEM_DS3505
ZBHH,2008-04-07 14:00,ZBHH 071400Z AUTO 09004KT 6SM 12/M03 A2971 RMK T01201030 IEM_DS3505
ZBHH,2008-04-07 15:00,ZBHH 071500Z AUTO 09004KT 12SM 16/M04 A2971 RMK SLP029 T01571043 52010 IEM_DS3505
ZBHH,2008-04-07 16:00,ZBHH 071600Z AUTO 07002KT 7SM 12/M03 A2968 RMK T01201030 IEM_DS3505
ZBHH,2008-04-07 17:00,ZBHH 071700Z AUTO 10004KT 11/M01 A2971 RMK T01101010 IEM_DS3505
ZBHH,2008-04-07 18:00,ZBHH 071800Z AUTO 09002KT 16SM 15/M03 A2971 RMK SLP019 T01501029 57002 IEM_DS3505
ZBHH,2008-04-07 19:00,ZBHH 071900Z AUTO 09006KT 7SM 12/00 A2968 RMK T01200000 IEM_DS3505
ZBHH,2008-04-07 20:00,ZBHH 072000Z AUTO 10004KT 7SM 12/02 A2968 RMK T01200020 IEM_DS3505
ZBHH,2008-04-07 21:00,ZBHH 072100Z AUTO 02002KT 12SM 14/01 A2968 RMK SLP010 T01390012 57008 IEM_DS3505
ZBHH,2008-04-07 22:00,ZBHH 072200Z AUTO 07006KT 4SM 13/04 A2968 RMK T01300040 IEM_DS3505
ZBHH,2008-04-07 23:00,ZBHH 072300Z AUTO 02002KT 2 1/2SM 12/06 A2971 RMK T01200060 IEM_DS3505
ZBHH,2008-04-08 00:00,ZBHH 080000Z AUTO 07002KT 9SM 12/08 A2974 RMK 60003 70003 SLP046 T01200075 52019 IEM_DS3505
ZBHH,2008-04-08 01:00,ZBHH 080100Z AUTO 09008KT 1SM 10/08 A2974 RMK T01000080 IEM_DS3505
ZBHH,2008-04-08 02:00,ZBHH 080200Z AUTO 06002KT 1SM 10/08 A2974 RMK T01000080 IEM_DS3505
ZBHH,2008-04-08 03:00,ZBHH 080300Z AUTO 02004KT 5SM 12/07 A2977 RMK SLP061 T01220071 52009 IEM_DS3505
ZBHH,2008-04-08 04:00,ZBHH 080400Z AUTO 01008KT 7SM 11/06 A2977 RMK T01100060 IEM_DS3505
ZBHH,2008-04-08 05:00,ZBHH 080500Z AUTO 02006KT 4SM 09/06 A2980 RMK T00900060 IEM_DS3505
ZBHH,2008-04-08 06:00,ZBHH 080600Z AUTO 11004KT 6SM 10/06 A2980 RMK 60008 SLP078 T00980065 52009 IEM_DS3505
ZBHH,2008-04-08 07:00,ZBHH 080700Z AUTO 14006KT 5SM 09/07 A2977 RMK T00900070 IEM_DS3505
ZBHH,2008-04-08 08:00,ZBHH 080800Z AUTO 11006KT 7SM 09/06 A2977 RMK T00900060 IEM_DS3505
ZBHH,2008-04-08 09:00,ZBHH 080900Z AUTO 00000KT 9SM 10/06 A2977 RMK SLP081 T01000062 52001 IEM_DS3505
ZBHH,2008-04-08 10:00,ZBHH 081000Z AUTO 30004KT 7SM 09/06 A2980 RMK T00900060 IEM_DS3505
ZBHH,2008-04-08 11:00,ZBHH 081100Z AUTO 31004KT 5SM 09/06 A2983 RMK T00900060 IEM_DS3505
ZBHH,2008-04-08 12:00,ZBHH 081200Z AUTO 25004KT 9SM 10/07 A2983 RMK 60004 SLP100 T00950073 52012 IEM_DS3505
ZBHH,2008-04-08 13:00,ZBHH 081300Z AUTO 16002KT 2 1/2SM 07/06 A2985 RMK T00700060 IEM_DS3505
ZBHH,2008-04-08 14:00,ZBHH 081400Z AUTO 19004KT 2SM 06/05 A2988 RMK T00600050 IEM_DS3505
ZBHH,2008-04-08 15:00,ZBHH 081500Z AUTO 11002KT 12SM 09/07 A2988 RMK SLP122 T00870068 52018 IEM_DS3505
ZBHH,2008-04-08 16:00,ZBHH 081600Z AUTO 00000KT 1 1/4SM 06/05 A2991 RMK T00600050 IEM_DS3505
ZBHH,2008-04-08 17:00,ZBHH 081700Z AUTO 15002KT 1SM 05/05 A2991 RMK T00500050 IEM_DS3505
ZBHH,2008-04-08 18:00,ZBHH 081800Z AUTO 00000KT 07/06 A2991 RMK SLP142 T00660056 52009 IEM_DS3505
ZBHH,2008-04-08 19:00,ZBHH 081900Z AUTO 00000KT 1/8SM 04/04 A2991 RMK T00400040 IEM_DS3505
ZBHH,2008-04-08 20:00,ZBHH 082000Z AUTO 01006KT 2SM 05/M03 A2991 RMK T00501030 IEM_DS3505
ZBHH,2008-04-08 21:00,ZBHH 082100Z AUTO 27002KT 12SM 06/M06 A2991 RMK 70016 SLP138 T00571059 57005 IEM_DS3505
ZBHH,2008-04-08 22:00,ZBHH 082200Z AUTO 09004KT 6SM 04/M05 A2991 RMK T00401050 IEM_DS3505
ZBHH,2008-04-08 23:00,ZBHH 082300Z AUTO 05004KT 4SM 03/M04 A2991 RMK T00301040 IEM_DS3505
ZBHH,2008-04-09 00:00,ZBHH 090000Z AUTO 34004KT 9SM 07/M07 A2997 RMK 70013 SLP154 T00741071 52016 IEM_DS3505
ZBHH,2008-04-09 01:00,ZBHH 090100Z AUTO 07004KT 6SM 08/00 A2997 RMK T00800000 IEM_DS3505
ZBHH,2008-04-09 02:00,ZBHH 090200Z AUTO 09002KT 6SM 10/M01 A2997 RMK T01001010 IEM_DS3505
ZBHH,2008-04-09 03:00,ZBHH 090300Z AUTO 16004KT 4SM 13/M06 A2997 RMK SLP146 T01341062 52004 IEM_DS3505
ZBHH,2008-04-09 04:00,ZBHH 090400Z AUTO 25002KT 6SM 14/M03 A2994 RMK T01401030 IEM_DS3505
ZBHH,2008-04-09 05:00,ZBHH 090500Z AUTO 26004KT 6SM 15/M05 A2994 RMK T01501050 IEM_DS3505
ZBHH,2008-04-09 06:00,ZBHH 090600Z AUTO 18004KT 5SM 16/M05 A2991 RMK SLP126 T01651053 57016 IEM_DS3505
ZBHH,2008-04-09 07:00,ZBHH 090700Z AUTO 21002KT 6SM 17/M06 A2988 RMK T01701060 IEM_DS3505
ZBHH,2008-04-09 08:00,ZBHH 090800Z AUTO 21004KT 6SM 16/M04 A2988 RMK T01601040 IEM_DS3505
ZBHH,2008-04-09 09:00,ZBHH 090900Z AUTO 22004KT 6SM 16/M03 A2988 RMK SLP111 T01581031 57016 IEM_DS3505
ZBHH,2008-04-09 10:00,ZBHH 091000Z AUTO 21002KT 7SM 15/M02 A2985 RMK T01501020 IEM_DS3505
ZBHH,2008-04-09 11:00,ZBHH 091100Z AUTO 16002KT 7SM 13/00 A2985 RMK T01300000 IEM_DS3505
ZBHH,2008-04-09 12:00,ZBHH 091200Z AUTO 27002KT 9SM 14/M02 A2988 RMK SLP118 T01371019 52005 IEM_DS3505
ZBHH,2008-04-09 13:00,ZBHH 091300Z AUTO 08004KT 5SM 09/02 A2988 RMK T00900020 IEM_DS3505
ZBHH,2008-04-09 14:00,ZBHH 091400Z AUTO 08006KT 7SM 07/01 A2988 RMK T00700010 IEM_DS3505
ZBHH,2008-04-09 15:00,ZBHH 091500Z AUTO 07002KT 6SM 11/01 A2988 RMK SLP115 T01060006 52003 IEM_DS3505
ZBHH,2008-04-09 16:00,ZBHH 091600Z AUTO 08004KT 7SM 07/01 A2988 RMK T00700010 IEM_DS3505
ZBHH,2008-04-09 17:00,ZBHH 091700Z AUTO 02002KT 7SM 08/01 A2988 RMK T00800010 IEM_DS3505
ZBHH,2008-04-09 18:00,ZBHH 091800Z AUTO 20002KT 6SM 10/01 A2988 RMK SLP101 T01020011 57007 IEM_DS3505
ZBHH,2008-04-09 19:00,ZBHH 091900Z AUTO 11004KT 7SM 08/01 A2985 RMK T00800010 IEM_DS3505
ZBHH,2008-04-09 20:00,ZBHH 092000Z AUTO 02002KT 7SM 06/01 A2985 RMK T00600010 IEM_DS3505
ZBHH,2008-04-09 21:00,ZBHH 092100Z AUTO 00000KT 6SM 08/01 A2985 RMK SLP099 T00840011 57007 IEM_DS3505
ZBHH,2008-04-09 22:00,ZBHH 092200Z AUTO 33004KT 7SM 09/01 A2985 RMK T00900010 IEM_DS3505
ZBHH,2008-04-09 23:00,ZBHH 092300Z AUTO 04010KT 7SM 09/M01 A2988 RMK T00901010 IEM_DS3505
ZBHH,2008-04-10 00:00,ZBHH 100000Z AUTO 32006KT 6SM 09/M04 A2988 RMK SLP117 T00941045 52014 IEM_DS3505
ZBHH,2008-04-10 01:00,ZBHH 100100Z AUTO 35014KT 5SM 08/M04 A2988 RMK T00801040 IEM_DS3505
ZBHH,2008-04-10 02:00,ZBHH 100200Z AUTO 35016KT 5SM 09/M05 A2991 RMK T00901050 IEM_DS3505
ZBHH,2008-04-10 03:00,ZBHH 100300Z AUTO 29010KT 9SM 11/M05 A2991 RMK SLP132 T01131048 52011 IEM_DS3505
ZBHH,2008-04-10 04:00,ZBHH 100400Z AUTO 01008KT 7SM 13/M03 A2991 RMK T01301030 IEM_DS3505
ZBHH,2008-04-10 05:00,ZBHH 100500Z AUTO 08008KT 7SM 14/M03 A2991 RMK T01401030 IEM_DS3505
ZBHH,2008-04-10 06:00,ZBHH 100600Z AUTO 04006KT 9SM 16/M03 A2991 RMK SLP117 T01551029 57006 IEM_DS3505
ZBHH,2008-04-10 07:00,ZBHH 100700Z AUTO 05002KT 7SM 15/M03 A2991 RMK T01501030 IEM_DS3505
ZBHH,2008-04-10 08:00,ZBHH 100800Z AUTO 10010G19KT 7SM 14/M03 A2988 RMK T01401030 IEM_DS3505
ZBHH,2008-04-10 09:00,ZBHH 100900Z AUTO 09008KT 9SM 14/M03 A2991 RMK SLP124 T01401033 54000 IEM_DS3505
ZBHH,2008-04-10 10:00,ZBHH 101000Z AUTO 10014KT 7SM 12/M05 A2991 RMK T01201050 IEM_DS3505
ZBHH,2008-04-10 11:00,ZBHH 101100Z AUTO 09010KT 7SM 11/M04 A2994 RMK T01101040 IEM_DS3505
ZBHH,2008-04-10 12:00,ZBHH 101200Z AUTO 07006KT 16SM 12/M05 A2997 RMK SLP147 T01151046 52017 IEM_DS3505
ZBHH,2008-04-10 13:00,ZBHH 101300Z AUTO 11006KT 6SM 08/M04 A3000 RMK T00801040 IEM_DS3505
ZBHH,2008-04-10 14:00,ZBHH 101400Z AUTO 10008KT 6SM 07/M03 A3000 RMK T00701030 IEM_DS3505
ZBHH,2008-04-10 15:00,ZBHH 101500Z AUTO 09004KT 19SM 09/M04 A3000 RMK SLP164 T00891043 52014 IEM_DS3505
ZBHH,2008-04-10 16:00,ZBHH 101600Z AUTO 08008KT 6SM 06/M03 A3003 RMK T00601030 IEM_DS3505
ZBHH,2008-04-10 17:00,ZBHH 101700Z AUTO 08008KT 6SM 06/M02 A3003 RMK T00601020 IEM_DS3505
ZBHH,2008-04-10 18:00,ZBHH 101800Z AUTO 09008KT 19SM 07/M02 A3006 RMK SLP172 T00741015 52012 IEM_DS3505
ZBHH,2008-04-10 19:00,ZBHH 101900Z AUTO 09010KT 6SM 06/M01 A3006 RMK T00601010 IEM_DS3505
ZBHH,2008-04-10 20:00,ZBHH 102000Z AUTO 09008KT 6SM 05/M02 A3006 RMK T00501020 IEM_DS3505
ZBHH,2008-04-10 21:00,ZBHH 102100Z AUTO 09002KT 19SM 06/M02 A3003 RMK SLP176 T00641015 57001 IEM_DS3505
ZBHH,2008-04-10 22:00,ZBHH 102200Z AUTO 09002KT 6SM 04/M03 A3006 RMK T00401030 IEM_DS3505
ZBHH,2008-04-10 23:00,ZBHH 102300Z AUTO 10004KT 6SM 04/M03 A3006 RMK T00401030 IEM_DS3505
ZBHH,2008-04-11 00:00,ZBHH 110000Z AUTO 07004KT 9SM 07/M02 A3006 RMK SLP189 T00731024 52008 IEM_DS3505
ZBHH,2008-04-11 01:00,ZBHH 110100Z AUTO 09014KT 6SM 08/M06 A3006 RMK T00801060 IEM_DS3505
ZBHH,2008-04-11 02:00,ZBHH 110200Z AUTO 10014KT 6SM 09/M06 A3006 RMK T00901060 IEM_DS3505
ZBHH,2008-04-11 03:00,ZBHH 110300Z AUTO 09006KT 9SM 11/M05 A3006 RMK SLP187 T01111054 52001 IEM_DS3505
ZBHH,2008-04-11 04:00,ZBHH 110400Z AUTO 10008KT 6SM 12/M05 A3006 RMK T01201050 IEM_DS3505
ZBHH,2008-04-11 05:00,ZBHH 110500Z AUTO 09006KT 6SM 12/M04 A3003 RMK T01201040 IEM_DS3505
ZBHH,2008-04-11 06:00,ZBHH 110600Z AUTO 22004KT 9SM 13/M04 A3003 RMK SLP171 T01321035 57013 IEM_DS3505
ZBHH,2008-04-11 07:00,ZBHH 110700Z AUTO 16002KT 7SM 13/M04 A3000 RMK T01301040 IEM_DS3505
ZBHH,2008-04-11 08:00,ZBHH 110800Z AUTO 22002KT 7SM 13/M04 A3000 RMK T01301040 IEM_DS3505
ZBHH,2008-04-11 09:00,ZBHH 110900Z AUTO 20006KT 9SM 13/M04 A3000 RMK SLP162 T01281035 57011 IEM_DS3505
ZBHH,2008-04-11 10:00,ZBHH 111000Z AUTO 23006KT 7SM 12/M03 A3000 RMK T01201030 IEM_DS3505
ZBHH,2008-04-11 11:00,ZBHH 111100Z AUTO 25006KT 7SM 11/M03 A3003 RMK T01101030 IEM_DS3505
ZBHH,2008-04-11 12:00,ZBHH 111200Z AUTO 25004KT 9SM 12/M02 A3003 RMK SLP172 T01151020 52008 IEM_DS3505
ZBHH,2008-04-11 13:00,ZBHH 111300Z AUTO 21004KT 7SM 09/02 A3006 RMK T00900020 IEM_DS3505
ZBHH,2008-04-11 14:00,ZBHH 111400Z AUTO 20006KT 7SM 08/03 A3006 RMK T00800030 IEM_DS3505
ZBHH,2008-04-11 15:00,ZBHH 111500Z AUTO 22006KT 9SM 09/04 A3006 RMK SLP184 T00900036 52013 IEM_DS3505
ZBHH,2008-04-11 16:00,ZBHH 111600Z AUTO 25006KT 7SM 07/03 A3009 RMK T00700030 IEM_DS3505
ZBHH,2008-04-11 17:00,ZBHH 111700Z AUTO 23004KT 7SM 07/04 A3009 RMK T00700040 IEM_DS3505
ZBHH,2008-04-11 18:00,ZBHH 111800Z AUTO 25004KT 7SM 07/05 A3009 RMK 60000 SLP190 T00740050 52006 IEM_DS3505
ZBHH,2008-04-11 19:00,ZBHH 111900Z AUTO 24004KT 7SM 06/04 A3009 RMK T00600040 IEM_DS3505
ZBHH,2008-04-11 20:00,ZBHH 112000Z AUTO 22002KT 7SM 06/04 A3006 RMK T00600040 IEM_DS3505
ZBHH,2008-04-11 21:00,ZBHH 112100Z AUTO 22004KT 12SM 06/04 A3006 RMK 70000 SLP187 T00640042 57005 IEM_DS3505
ZBHH,2008-04-11 22:00,ZBHH 112200Z AUTO 23004KT 7SM 05/03 A3006 RMK T00500030 IEM_DS3505
ZBHH,2008-04-11 23:00,ZBHH 112300Z AUTO 22004KT 4SM 05/03 A3009 RMK T00500030 IEM_DS3505
ZBHH,2008-04-12 00:00,ZBHH 120000Z AUTO 16004KT 9SM 07/04 A3009 RMK 60000 70000 SLP198 T00670040 52008 IEM_DS3505
ZBHH,2008-04-12 01:00,ZBHH 120100Z AUTO 23006KT 4SM 07/04 A3009 RMK T00700040 IEM_DS3505
ZBHH,2008-04-12 02:00,ZBHH 120200Z AUTO 15002KT 3SM 09/03 A3009 RMK T00900030 IEM_DS3505
ZBHH,2008-04-12 03:00,ZBHH 120300Z AUTO 18002KT 6SM 10/03 A3009 RMK SLP195 T00990030 57002 IEM_DS3505
ZBHH,2008-04-12 04:00,ZBHH 120400Z AUTO 23004KT 4SM 10/03 A3006 RMK T01000030 IEM_DS3505
ZBHH,2008-04-12 05:00,ZBHH 120500Z AUTO 32008KT 4SM 10/03 A3006 RMK T01000030 IEM_DS3505
ZBHH,2008-04-12 06:00,ZBHH 120600Z AUTO 18006KT 19SM 15/M03 A3000 RMK 60000 SLP158 T01461028 57026 IEM_DS3505
ZBHH,2008-04-12 07:00,ZBHH 120700Z AUTO 20006KT 7SM 14/M04 A2997 RMK T01401040 IEM_DS3505
ZBHH,2008-04-12 08:00,ZBHH 120800Z AUTO 14006KT 7SM 13/M01 A2997 RMK T01301010 IEM_DS3505
ZBHH,2008-04-12 09:00,ZBHH 120900Z AUTO 29008KT 19SM 17/M12 A2997 RMK SLP141 T01681118 57013 IEM_DS3505
ZBHH,2008-04-12 10:00,ZBHH 121000Z AUTO 33010KT 7SM 15/M12 A2997 RMK T01501120 IEM_DS3505
ZBHH,2008-04-12 11:00,ZBHH 121100Z AUTO 33008KT 7SM 14/M11 A2997 RMK T01401110 IEM_DS3505
ZBHH,2008-04-12 12:00,ZBHH 121200Z AUTO 32002KT 19SM 13/M11 A3000 RMK SLP161 T01341112 52012 IEM_DS3505
ZBHH,2008-04-12 13:00,ZBHH 121300Z AUTO 02004KT 6SM 09/M09 A3003 RMK T00901090 IEM_DS3505
ZBHH,2008-04-12 14:00,ZBHH 121400Z AUTO 03002KT 6SM 07/M09 A3003 RMK T00701090 IEM_DS3505
ZBHH,2008-04-12 15:00,ZBHH 121500Z AUTO 29004KT 19SM 10/M11 A3003 RMK SLP169 T00981109 52006 IEM_DS3505
ZBHH,2008-04-12 16:00,ZBHH 121600Z AUTO 09004KT 6SM 02/M05 A3003 RMK T00201050 IEM_DS3505
ZBHH,2008-04-12 17:00,ZBHH 121700Z AUTO 11002KT 6SM 03/M06 A3003 RMK T00301060 IEM_DS3505
ZBHH,2008-04-12 18:00,ZBHH 121800Z AUTO 09002KT 19SM 06/M06 A3003 RMK SLP167 T00561063 57001 IEM_DS3505
ZBHH,2008-04-12 19:00,ZBHH 121900Z AUTO 00000KT 6SM 01/M06 A3003 RMK T00101060 IEM_DS3505
ZBHH,2008-04-12 20:00,ZBHH 122000Z AUTO 05002KT 6SM 00/M05 A3003 RMK T00001050 IEM_DS3505
ZBHH,2008-04-12 21:00,ZBHH 122100Z AUTO 09002KT 19SM 03/M06 A3003 RMK 70001 SLP171 T00301059 52003 IEM_DS3505
ZBHH,2008-04-12 22:00,ZBHH 122200Z AUTO 05002KT 6SM 00/M05 A3003 RMK T00001050 IEM_DS3505
ZBHH,2008-04-12 23:00,ZBHH 122300Z AUTO 07002KT 6SM 01/M04 A3003 RMK T00101040 IEM_DS3505
ZBHH,2008-04-13 00:00,ZBHH 130000Z AUTO 11002KT 19SM 07/M04 A3006 RMK 70001 SLP183 T00701041 52012 IEM_DS3505
ZBHH,2008-04-13 01:00,ZBHH 130100Z AUTO 20002KT 6SM 08/M03 A3006 RMK T00801030 IEM_DS3505
ZBHH,2008-04-13 02:00,ZBHH 130200Z AUTO 17002KT 6SM 10/M02 A3006 RMK T01001020 IEM_DS3505
ZBHH,2008-04-13 03:00,ZBHH 130300Z AUTO 18002KT 12SM 12/M04 A3006 RMK SLP174 T01251037 57004 IEM_DS3505
ZBHH,2008-04-13 04:00,ZBHH 130400Z AUTO 22004KT 6SM 14/M02 A3000 RMK T01401020 IEM_DS3505
ZBHH,2008-04-13 05:00,ZBHH 130500Z AUTO 23012KT 7SM 16/M08 A2997 RMK T01601080 IEM_DS3505
ZBHH,2008-04-13 06:00,ZBHH 130600Z AUTO 22012KT 12SM 17/M10 A2994 RMK SLP138 T01741095 57031 IEM_DS3505
ZBHH,2008-04-13 07:00,ZBHH 130700Z AUTO 24010G19KT 6SM 17/M10 A2994 RMK T01701100 IEM_DS3505
ZBHH,2008-04-13 08:00,ZBHH 130800Z AUTO 25012G21KT 6SM 17/M10 A2991 RMK T01701100 IEM_DS3505
ZBHH,2008-04-13 09:00,ZBHH 130900Z AUTO 22010KT 12SM 17/M11 A2988 RMK SLP122 T01741113 57019 IEM_DS3505
ZBHH,2008-04-13 10:00,ZBHH 131000Z AUTO 23010KT 6SM 16/M12 A2988 RMK T01601120 IEM_DS3505
ZBHH,2008-04-13 11:00,ZBHH 131100Z AUTO 23006KT 6SM 15/M10 A2988 RMK T01501100 IEM_DS3505
ZBHH,2008-04-13 12:00,ZBHH 131200Z AUTO 25004KT 16SM 15/M09 A2991 RMK SLP126 T01491092 52007 IEM_DS3505
ZBHH,2008-04-13 13:00,ZBHH 131300Z AUTO 36002KT 6SM 10/M07 A2994 RMK T01001070 IEM_DS3505
ZBHH,2008-04-13 14:00,ZBHH 131400Z AUTO 12004KT 6SM 08/M05 A2994 RMK T00801050 IEM_DS3505
ZBHH,2008-04-13 15:00,ZBHH 131500Z AUTO 04004KT 16SM 11/M06 A2994 RMK SLP136 T01061062 52011 IEM_DS3505
ZBHH,2008-04-13 16:00,ZBHH 131600Z AUTO 07002KT 6SM 06/M05 A2994 RMK T00601050 IEM_DS3505
ZBHH,2008-04-13 17:00,ZBHH 131700Z AUTO 04002KT 6SM 05/M05 A2997 RMK T00501050 IEM_DS3505
ZBHH,2008-04-13 18:00,ZBHH 131800Z AUTO 09002KT 16SM 07/M06 A2994 RMK SLP132 T00701057 57001 IEM_DS3505
ZBHH,2008-04-13 19:00,ZBHH 131900Z AUTO 08004KT 03/M04 A2994 RMK T00301040 IEM_DS3505
ZBHH,2008-04-13 20:00,ZBHH 132000Z AUTO 07002KT 6SM 02/M03 A2994 RMK T00201030 IEM_DS3505
ZBHH,2008-04-13 21:00,ZBHH 132100Z AUTO 00000KT 19SM 05/M04 A2994 RMK SLP138 T00491044 52001 IEM_DS3505
ZBHH,2008-04-13 22:00,ZBHH 132200Z AUTO 08004KT 6SM 02/M03 A2994 RMK T00201030 IEM_DS3505
ZBHH,2008-04-13 23:00,ZBHH 132300Z AUTO 07004KT 6SM 03/M01 A2997 RMK T00301010 IEM_DS3505
ZBHH,2008-04-14 00:00,ZBHH 140000Z AUTO 04004KT 16SM 10/M01 A2997 RMK SLP141 T00961014 52007 IEM_DS3505
ZBHH,2008-04-14 01:00,ZBHH 140100Z AUTO 13004KT 6SM 12/00 A2997 RMK T01200000 IEM_DS3505
ZBHH,2008-04-14 02:00,ZBHH 140200Z AUTO 21004KT 6SM 13/01 A2997 RMK T01300010 IEM_DS3505
ZBHH,2008-04-14 03:00,ZBHH 140300Z AUTO 18004KT 16SM 15/M00 A2997 RMK SLP135 T01501003 57003 IEM_DS3505
ZBHH,2008-04-14 04:00,ZBHH 140400Z AUTO 23006KT 6SM 16/00 A2994 RMK T01600000 IEM_DS3505
ZBHH,2008-04-14 05:00,ZBHH 140500Z AUTO 24012KT 6SM 18/M03 A2988 RMK T01801030 IEM_DS3505
ZBHH,2008-04-14 06:00,ZBHH 140600Z AUTO 25014KT 16SM 20/M05 A2988 RMK SLP101 T01951054 57028 IEM_DS3505
ZBHH,2008-04-14 07:00,ZBHH 140700Z AUTO 25014G25KT 7SM 20/M08 A2985 RMK T02001080 IEM_DS3505
ZBHH,2008-04-14 08:00,ZBHH 140800Z AUTO 23014KT 7SM 19/M11 A2983 RMK T01901110 IEM_DS3505
ZBHH,2008-04-14 09:00,ZBHH 140900Z AUTO 22008KT 19SM 20/M11 A2983 RMK SLP086 T02041110 57016 IEM_DS3505
ZBHH,2008-04-14 10:00,ZBHH 141000Z AUTO 25012KT 7SM 19/M11 A2983 RMK T01901110 IEM_DS3505
ZBHH,2008-04-14 11:00,ZBHH 141100Z AUTO 24008KT 6SM 18/M10 A2983 RMK T01801100 IEM_DS3505
ZBHH,2008-04-14 12:00,ZBHH 141200Z AUTO 25002KT 19SM 17/M10 A2985 RMK SLP096 T01711097 52012 IEM_DS3505
ZBHH,2008-04-14 13:00,ZBHH 141300Z AUTO 02004KT 6SM 13/M09 A2988 RMK T01301090 IEM_DS3505
ZBHH,2008-04-14 14:00,ZBHH 141400Z AUTO 12004KT 6SM 10/M07 A2991 RMK T01001070 IEM_DS3505
ZBHH,2008-04-14 15:00,ZBHH 141500Z AUTO 02002KT 19SM 12/M08 A2991 RMK SLP109 T01221083 52012 IEM_DS3505
ZBHH,2008-04-14 16:00,ZBHH 141600Z AUTO 06002KT 7SM 09/M08 A2991 RMK T00901080 IEM_DS3505
ZBHH,2008-04-14 17:00,ZBHH 141700Z AUTO 07004KT 7SM 07/M08 A2991 RMK T00701080 IEM_DS3505
ZBHH,2008-04-14 18:00,ZBHH 141800Z AUTO 00000KT 19SM 09/M07 A2991 RMK SLP110 T00871071 52003 IEM_DS3505
ZBHH,2008-04-14 19:00,ZBHH 141900Z AUTO 06004KT 7SM 07/M07 A2991 RMK T00701070 IEM_DS3505
ZBHH,2008-04-14 20:00,ZBHH 142000Z AUTO 09004KT 7SM 05/M04 A2991 RMK T00501040 IEM_DS3505
ZBHH,2008-04-14 21:00,ZBHH 142100Z AUTO 00000KT 19SM 06/M06 A2991 RMK SLP113 T00641065 54000 IEM_DS3505
ZBHH,2008-04-14 22:00,ZBHH 142200Z AUTO 05002KT 7SM 05/M03 A2991 RMK T00501030 IEM_DS3505
ZBHH,2008-04-14 23:00,ZBHH 142300Z AUTO 08004KT 6SM 05/M01 A2994 RMK T00501010 IEM_DS3505
ZBHH,2008-04-15 00:00,ZBHH 150000Z AUTO 11002KT 16SM 12/M02 A2994 RMK SLP122 T01231023 52013 IEM_DS3505
ZBHH,2008-04-15 01:00,ZBHH 150100Z AUTO 06002KT 6SM 14/M01 A2994 RMK T01401010 IEM_DS3505
ZBHH,2008-04-15 03:00,ZBHH 150300Z AUTO 09002KT 6SM 18/M01 A2994 RMK SLP122 T01751007 54000 IEM_DS3505
ZBHH,2008-04-15 04:00,ZBHH 150400Z AUTO 20002KT 7SM 19/M01 A2994 RMK T01901010 IEM_DS3505
ZBHH,2008-04-15 05:00,ZBHH 150500Z AUTO 21002KT 7SM 20/M03 A2991 RMK T02001030 IEM_DS3505
ZBHH,2008-04-15 06:00,ZBHH 150600Z AUTO 20006KT 7SM 21/M06 A2988 RMK SLP100 T02121064 57019 IEM_DS3505
ZBHH,2008-04-15 07:00,ZBHH 150700Z AUTO 24010KT 6SM 22/M11 A2988 RMK T02201110 IEM_DS3505
ZBHH,2008-04-15 08:00,ZBHH 150800Z AUTO 25006KT 6SM 22/M11 A2985 RMK T02201110 IEM_DS3505
ZBHH,2008-04-15 09:00,ZBHH 150900Z AUTO 20004KT 16SM 22/M11 A2985 RMK SLP088 T02201110 57013 IEM_DS3505
ZBHH,2008-04-15 10:00,ZBHH 151000Z AUTO 24004KT 6SM 21/M11 A2985 RMK T02101110 IEM_DS3505
ZBHH,2008-04-15 11:00,ZBHH 151100Z AUTO 24004KT 6SM 19/M10 A2985 RMK T01901100 IEM_DS3505
ZBHH,2008-04-15 12:00,ZBHH 151200Z AUTO 25002KT 19SM 19/M09 A2988 RMK SLP098 T01901091 52014 IEM_DS3505
ZBHH,2008-04-15 13:00,ZBHH 151300Z AUTO 04004KT 6SM 14/M07 A2991 RMK T01401070 IEM_DS3505
ZBHH,2008-04-15 14:00,ZBHH 151400Z AUTO 13002KT 6SM 12/M05 A2994 RMK T01201050 IEM_DS3505
ZBHH,2008-04-15 15:00,ZBHH 151500Z AUTO 07002KT 19SM 13/M06 A2997 RMK SLP123 T01301060 52021 IEM_DS3505
ZBHH,2008-04-15 16:00,ZBHH 151600Z AUTO 05004KT 6SM 10/M02 A2997 RMK T01001020 IEM_DS3505
ZBHH,2008-04-15 17:00,ZBHH 151700Z AUTO 07004KT 6SM 08/M02 A2997 RMK T00801020 IEM_DS3505
ZBHH,2008-04-15 18:00,ZBHH 151800Z AUTO 27002KT 19SM 11/M03 A2997 RMK SLP124 T01071027 52003 IEM_DS3505
ZBHH,2008-04-15 19:00,ZBHH 151900Z AUTO 08004KT 6SM 06/M01 A2997 RMK T00601010 IEM_DS3505
ZBHH,2008-04-15 20:00,ZBHH 152000Z AUTO 09004KT 6SM 05/M01 A2997 RMK T00501010 IEM_DS3505
ZBHH,2008-04-15 21:00,ZBHH 152100Z AUTO 36002KT 19SM 08/M01 A2997 RMK SLP124 T00821008 57003 IEM_DS3505
ZBHH,2008-04-15 22:00,ZBHH 152200Z AUTO 08002KT 6SM 05/M01 A2997 RMK T00501010 IEM_DS3505
ZBHH,2008-04-15 23:00,ZBHH 152300Z AUTO 08004KT 6SM 07/01 A2997 RMK T00700010 IEM_DS3505
ZBHH,2008-04-16 00:00,ZBHH 160000Z AUTO 04002KT 12SM 13/01 A3000 RMK SLP132 T01310008 52011 IEM_DS3505
ZBHH,2008-04-16 01:00,ZBHH 160100Z AUTO 14002KT 6SM 15/00 A3000 RMK T01500000 IEM_DS3505
ZBHH,2008-04-16 02:00,ZBHH 160200Z AUTO 21004KT 6SM 17/01 A3000 RMK T01700010 IEM_DS3505
ZBHH,2008-04-16 03:00,ZBHH 160300Z AUTO 22004KT 7SM 18/01 A3000 RMK SLP137 T01850006 52003 IEM_DS3505
ZBHH,2008-04-16 04:00,ZBHH 160400Z AUTO 23006KT 6SM 20/01 A2997 RMK T02000010 IEM_DS3505
ZBHH,2008-04-16 05:00,ZBHH 160500Z AUTO 25008KT 6SM 21/01 A2994 RMK T02100010 IEM_DS3505
ZBHH,2008-04-16 06:00,ZBHH 160600Z AUTO 25010KT 6SM 23/M02 A2994 RMK SLP105 T02261022 57025 IEM_DS3505
ZBHH,2008-04-16 07:00,ZBHH 160700Z AUTO 24010KT 7SM 24/M05 A2991 RMK T02401050 IEM_DS3505
ZBHH,2008-04-16 08:00,ZBHH 160800Z AUTO 24008KT 7SM 24/M07 A2988 RMK T02401070 IEM_DS3505
ZBHH,2008-04-16 09:00,ZBHH 160900Z AUTO 25006KT 9SM 24/M08 A2988 RMK SLP087 T02381084 57018 IEM_DS3505
ZBHH,2008-04-16 10:00,ZBHH 161000Z AUTO 24010KT 6SM 22/M08 A2988 RMK T02201080 IEM_DS3505
ZBHH,2008-04-16 11:00,ZBHH 161100Z AUTO 24006KT 6SM 20/M05 A2988 RMK T02001050 IEM_DS3505
ZBHH,2008-04-16 12:00,ZBHH 161200Z AUTO 22004KT 19SM 20/M03 A2991 RMK SLP100 T01981031 52013 IEM_DS3505
ZBHH,2008-04-16 13:00,ZBHH 161300Z AUTO 19002KT 6SM 15/M02 A2994 RMK T01501020 IEM_DS3505
ZBHH,2008-04-16 14:00,ZBHH 161400Z AUTO 11002KT 6SM 13/M01 A2994 RMK T01301010 IEM_DS3505
ZBHH,2008-04-16 15:00,ZBHH 161500Z AUTO 36002KT 19SM 15/M01 A2997 RMK SLP114 T01481009 52013 IEM_DS3505
ZBHH,2008-04-16 16:00,ZBHH 161600Z AUTO 13002KT 6SM 09/M01 A2997 RMK T00901010 IEM_DS3505
ZBHH,2008-04-16 17:00,ZBHH 161700Z AUTO 09004KT 6SM 13/00 A2997 RMK T01300000 IEM_DS3505
ZBHH,2008-04-16 18:00,ZBHH 161800Z AUTO 09004KT 19SM 12/M01 A3000 RMK SLP121 T01231006 52009 IEM_DS3505
ZBHH,2008-04-16 19:00,ZBHH 161900Z AUTO 05004KT 6SM 13/00 A3000 RMK T01300000 IEM_DS3505
ZBHH,2008-04-16 20:00,ZBHH 162000Z AUTO 6SM 13/00 A3000 RMK T01300000 IEM_DS3505
ZBHH,2008-04-16 21:00,ZBHH 162100Z AUTO 09002KT 19SM 10/M00 A3000 RMK SLP129 T01051003 52006 IEM_DS3505
ZBHH,2008-04-16 22:00,ZBHH 162200Z AUTO 6SM 07/00 A3000 RMK T00700000 IEM_DS3505
ZBHH,2008-04-16 23:00,ZBHH 162300Z AUTO 06002KT 6SM 09/00 A3003 RMK T00900000 IEM_DS3505
ZBHH,2008-04-17 00:00,ZBHH 170000Z AUTO 07002KT 12SM 14/01 A3003 RMK SLP140 T01410007 52009 IEM_DS3505
ZBHH,2008-04-17 01:00,ZBHH 170100Z AUTO 6SM 16/01 A3003 RMK T01600010 IEM_DS3505
ZBHH,2008-04-17 02:00,ZBHH 170200Z AUTO 25004KT 5SM 17/01 A3003 RMK T01700010 IEM_DS3505
ZBHH,2008-04-17 03:00,ZBHH 170300Z AUTO 20004KT 16SM 20/02 A3003 RMK SLP131 T01980017 57006 IEM_DS3505
ZBHH,2008-04-17 04:00,ZBHH 170400Z AUTO 25004KT 5SM 21/01 A3000 RMK T02100010 IEM_DS3505
ZBHH,2008-04-17 05:00,ZBHH 170500Z AUTO 24006KT 6SM 23/01 A2994 RMK T02300010 IEM_DS3505
ZBHH,2008-04-17 06:00,ZBHH 170600Z AUTO 25010KT 19SM 23/M02 A2991 RMK SLP096 T02331016 57029 IEM_DS3505
ZBHH,2008-04-17 07:00,ZBHH 170700Z AUTO 23008KT 6SM 24/M02 A2988 RMK T02401020 IEM_DS3505
ZBHH,2008-04-17 08:00,ZBHH 170800Z AUTO 24006KT 7SM 24/M03 A2988 RMK T02401030 IEM_DS3505
ZBHH,2008-04-17 09:00,ZBHH 170900Z AUTO 20004KT 9SM 24/M05 A2985 RMK SLP074 T02411050 57022 IEM_DS3505
ZBHH,2008-04-17 10:00,ZBHH 171000Z AUTO 25006KT 7SM 24/M03 A2983 RMK T02401030 IEM_DS3505
ZBHH,2008-04-17 11:00,ZBHH 171100Z AUTO 22004KT 7SM 20/M02 A2985 RMK T02001020 IEM_DS3505
ZBHH,2008-04-17 12:00,ZBHH 171200Z AUTO 18008KT 12SM 22/M04 A2988 RMK SLP083 T02181036 52011 IEM_DS3505
ZBHH,2008-04-17 13:00,ZBHH 171300Z AUTO 19002KT 5SM 18/M02 A2991 RMK T01801020 IEM_DS3505
ZBHH,2008-04-17 14:00,ZBHH 171400Z AUTO 09002KT 7SM 17/M01 A2991 RMK T01701010 IEM_DS3505
ZBHH,2008-04-17 15:00,ZBHH 171500Z AUTO 27004KT 9SM 19/M01 A2991 RMK SLP090 T01871012 52011 IEM_DS3505
ZBHH,2008-04-17 16:00,ZBHH 171600Z AUTO 00000KT 7SM 17/M01 A2991 RMK T01701010 IEM_DS3505
ZBHH,2008-04-17 17:00,ZBHH 171700Z AUTO 7SM 15/M01 A2991 RMK T01501010 IEM_DS3505
ZBHH,2008-04-17 18:00,ZBHH 171800Z AUTO 36002KT 6SM 16/M01 A2991 RMK SLP088 T01611006 54000 IEM_DS3505
ZBHH,2008-04-17 19:00,ZBHH 171900Z AUTO 03004KT 7SM 21/ A2991 RMK IEM_DS3505
ZBHH,2008-04-17 20:00,ZBHH 172000Z AUTO 7SM 14/01 A2991 RMK T01400010 IEM_DS3505
ZBHH,2008-04-17 21:00,ZBHH 172100Z AUTO 04004KT 6SM 14/00 A2991 RMK SLP090 T01350005 57002 IEM_DS3505
ZBHH,2008-04-17 22:00,ZBHH 172200Z AUTO 05002KT 5SM A2991 RMK IEM_DS3505
ZBHH,2008-04-17 23:00,ZBHH 172300Z AUTO 03002KT 4SM 12/02 A2994 RMK T01200020 IEM_DS3505
ZBHH,2008-04-18 00:00,ZBHH 180000Z AUTO 09004KT 6SM 16/01 A2994 RMK SLP102 T01610010 52011 IEM_DS3505
ZBHH,2008-04-18 01:00,ZBHH 180100Z AUTO 4SM 18/00 A2994 RMK T01800000 IEM_DS3505
ZBHH,2008-04-18 02:00,ZBHH 180200Z AUTO 17010KT 5SM 19/M03 A2994 RMK T01901030 IEM_DS3505
ZBHH,2008-04-18 03:00,ZBHH 180300Z AUTO 20008KT 9SM 21/M06 A2994 RMK SLP090 T02111065 57007 IEM_DS3505
ZBHH,2008-04-18 04:00,ZBHH 180400Z AUTO 20010KT 6SM 21/M05 A2988 RMK T02101050 IEM_DS3505
ZBHH,2008-04-18 05:00,ZBHH 180500Z AUTO 18014KT 6SM 24/M06 A2985 RMK T02401060 IEM_DS3505
ZBHH,2008-04-18 06:00,ZBHH 180600Z AUTO 20012KT 12SM 23/M02 A2985 RMK SLP065 T02281020 57024 IEM_DS3505
ZBHH,2008-04-18 07:00,ZBHH 180700Z AUTO 20016KT 7SM 22/01 A2983 RMK T02200010 IEM_DS3505
ZBHH,2008-04-18 08:00,ZBHH 180800Z AUTO 18016KT 7SM 21/M01 A2983 RMK T02101010 IEM_DS3505
ZBHH,2008-04-18 09:00,ZBHH 180900Z AUTO 16010KT 12SM 21/02 A2983 RMK SLP068 T02060024 57006 IEM_DS3505
ZBHH,2008-04-18 10:00,ZBHH 181000Z AUTO 19010KT 7SM 19/01 A2985 RMK T01900010 IEM_DS3505
ZBHH,2008-04-18 11:00,ZBHH 181100Z AUTO 19008KT 7SM 18/02 A2985 RMK T01800020 IEM_DS3505
ZBHH,2008-04-18 12:00,ZBHH 181200Z AUTO 11006KT 9SM 18/01 A2988 RMK SLP081 T01820012 52012 IEM_DS3505
ZBHH,2008-04-18 13:00,ZBHH 181300Z AUTO 17006KT 7SM 17/02 A2988 RMK T01700020 IEM_DS3505
ZBHH,2008-04-18 14:00,ZBHH 181400Z AUTO 19004KT 7SM 17/01 A2988 RMK T01700010 IEM_DS3505
ZBHH,2008-04-18 15:00,ZBHH 181500Z AUTO 18006KT 9SM 16/02 A2991 RMK SLP090 T01650018 52014 IEM_DS3505
ZBHH,2008-04-18 16:00,ZBHH 181600Z AUTO 16004KT 7SM 15/03 A2991 RMK T01500030 IEM_DS3505
ZBHH,2008-04-18 17:00,ZBHH 181700Z AUTO 16006KT 7SM 14/03 A2991 RMK T01400030 IEM_DS3505
ZBHH,2008-04-18 18:00,ZBHH 181800Z AUTO 20006KT 9SM 15/03 A2991 RMK SLP088 T01520034 57001 IEM_DS3505
ZBHH,2008-04-18 19:00,ZBHH 181900Z AUTO 22010KT 7SM 14/04 A2991 RMK T01400040 IEM_DS3505
ZBHH,2008-04-18 20:00,ZBHH 182000Z AUTO 21010KT 7SM 13/07 A2991 RMK T01300070 IEM_DS3505
ZBHH,2008-04-18 21:00,ZBHH 182100Z AUTO 20004KT 9SM 11/09 A2994 RMK 70000 SLP110 T01070090 52007 IEM_DS3505
ZBHH,2008-04-18 22:00,ZBHH 182200Z AUTO 15002KT 1 1/2SM 09/07 A2994 RMK T00900070 IEM_DS3505
ZBHH,2008-04-18 23:00,ZBHH 182300Z AUTO 08004KT 2 1/2SM 09/07 A2994 RMK T00900070 IEM_DS3505
ZBHH,2008-04-19 00:00,ZBHH 190000Z AUTO 07006KT 6SM 10/08 A2994 RMK 60012 70010 SLP123 T01020083 52006 IEM_DS3505
ZBHH,2008-04-19 01:00,ZBHH 190100Z AUTO 11004KT 2 1/2SM 09/07 A2997 RMK T00900070 IEM_DS3505
ZBHH,2008-04-19 02:00,ZBHH 190200Z AUTO 04002KT 2 1/2SM 10/08 A2997 RMK T01000080 IEM_DS3505
ZBHH,2008-04-19 03:00,ZBHH 190300Z AUTO 09002KT 6SM 10/09 A2997 RMK SLP139 T01040087 52011 IEM_DS3505
ZBHH,2008-04-19 04:00,ZBHH 190400Z AUTO 18002KT 2 1/2SM A2997 RMK IEM_DS3505
ZBHH,2008-04-19 05:00,ZBHH 190500Z AUTO 11004KT 2 1/2SM 11/10 A2997 RMK T01100100 IEM_DS3505
ZBHH,2008-04-19 06:00,ZBHH 190600Z AUTO 11002KT 6SM 12/09 A2994 RMK 60008 SLP127 T01160086 57011 IEM_DS3505
ZBHH,2008-04-19 07:00,ZBHH 190700Z AUTO 11004KT 2 1/2SM 11/09 A2994 RMK T01100090 IEM_DS3505
ZBHH,2008-04-19 08:00,ZBHH 190800Z AUTO 12002KT 2 1/2SM 12/09 A2994 RMK T01200090 IEM_DS3505
ZBHH,2008-04-19 09:00,ZBHH 190900Z AUTO 27002KT 6SM 12/09 A2994 RMK SLP135 T01150089 57002 IEM_DS3505
ZBHH,2008-04-19 10:00,ZBHH 191000Z AUTO 08004KT 2 1/2SM 11/09 A2994 RMK T01100090 IEM_DS3505
ZBHH,2008-04-19 11:00,ZBHH 191100Z AUTO 08002KT 2 1/2SM 11/09 A2997 RMK T01100090 IEM_DS3505
ZBHH,2008-04-19 12:00,ZBHH 191200Z AUTO 09004KT 6SM 11/09 A2997 RMK 60008 SLP149 T01070091 52010 IEM_DS3505
ZBHH,2008-04-19 13:00,ZBHH 191300Z AUTO 07002KT 2 1/2SM 10/09 A3000 RMK T01000090 IEM_DS3505
ZBHH,2008-04-19 14:00,ZBHH 191400Z AUTO 07002KT 2 1/2SM 11/10 A3000 RMK T01100100 IEM_DS3505
ZBHH,2008-04-19 15:00,ZBHH 191500Z AUTO 07002KT 6SM 11/09 A3000 RMK SLP157 T01080087 52008 IEM_DS3505
ZBHH,2008-04-19 16:00,ZBHH 191600Z AUTO 3SM 12/09 A3000 RMK T01200090 IEM_DS3505
ZBHH,2008-04-19 17:00,ZBHH 191700Z AUTO 35002KT 2 1/2SM 11/09 A3000 RMK T01100090 IEM_DS3505
ZBHH,2008-04-19 18:00,ZBHH 191800Z AUTO 04004KT 6SM 10/09 A2997 RMK 60000 SLP148 T01030091 57007 IEM_DS3505
ZBHH,2008-04-19 19:00,ZBHH 191900Z AUTO 02002KT 3SM 11/09 A2997 RMK T01100090 IEM_DS3505
ZBHH,2008-04-19 20:00,ZBHH 192000Z AUTO 36004KT 3SM 11/09 A2997 RMK T01100090 IEM_DS3505
ZBHH,2008-04-19 21:00,ZBHH 192100Z AUTO 34002KT 6SM 10/09 A2997 RMK 70026 SLP146 T01040088 57002 IEM_DS3505
ZBHH,2008-04-19 22:00,ZBHH 192200Z AUTO 05002KT 2SM 11/09 A2997 RMK T01100090 IEM_DS3505
ZBHH,2008-04-19 23:00,ZBHH 192300Z AUTO 05002KT 2SM A3000 RMK IEM_DS3505
ZBHH,2008-04-20 00:00,ZBHH 200000Z AUTO 07002KT 5SM 11/09 A3000 RMK 60000 70016 SLP161 T01080087 52013 IEM_DS3505
ZBHH,2008-04-20 01:00,ZBHH 200100Z AUTO 12002KT 2SM 11/10 A3003 RMK T01100100 IEM_DS3505
ZBHH,2008-04-20 02:00,ZBHH 200200Z AUTO 13002KT 2 1/2SM 11/09 A3003 RMK T01100090 IEM_DS3505
ZBHH,2008-04-20 03:00,ZBHH 200300Z AUTO 18002KT 6SM 12/08 A3003 RMK SLP161 T01200085 52002 IEM_DS3505
ZBHH,2008-04-20 04:00,ZBHH 200400Z AUTO 13002KT 3SM 12/09 A3003 RMK T01200090 IEM_DS3505
ZBHH,2008-04-20 06:00,ZBHH 200600Z AUTO 20002KT 6SM 13/08 A3000 RMK 60001 SLP151 T01270084 57008 IEM_DS3505
ZBHH,2008-04-20 07:00,ZBHH 200700Z AUTO 18002KT 3SM 13/09 A3000 RMK T01300090 IEM_DS3505
ZBHH,2008-04-20 08:00,ZBHH 200800Z AUTO 15002KT 4SM 13/08 A2997 RMK T01300080 IEM_DS3505
ZBHH,2008-04-20 09:00,ZBHH 200900Z AUTO 18002KT 6SM 14/08 A2997 RMK SLP139 T01370079 57009 IEM_DS3505
ZBHH,2008-04-20 10:00,ZBHH 201000Z AUTO 18004KT 4SM 12/07 A2997 RMK T01200070 IEM_DS3505
ZBHH,2008-04-20 11:00,ZBHH 201100Z AUTO 14002KT 4SM 13/07 A3000 RMK T01300070 IEM_DS3505
ZBHH,2008-04-20 12:00,ZBHH 201200Z AUTO 16002KT 5SM 12/08 A3003 RMK SLP160 T01240077 52017 IEM_DS3505
ZBHH,2008-04-20 13:00,ZBHH 201300Z AUTO 17002KT 3SM 11/07 A3006 RMK T01100070 IEM_DS3505
ZBHH,2008-04-20 14:00,ZBHH 201400Z AUTO 12004KT 3SM 08/06 A3006 RMK T00800060 IEM_DS3505
ZBHH,2008-04-20 15:00,ZBHH 201500Z AUTO 34004KT 6SM 12/ A3009 RMK SLP174 52014 IEM_DS3505
ZBHH,2008-04-20 16:00,ZBHH 201600Z AUTO 3SM 08/04 A3006 RMK T00800040 IEM_DS3505
ZBHH,2008-04-20 17:00,ZBHH 201700Z AUTO 02006KT 3SM A3006 RMK IEM_DS3505
ZBHH,2008-04-20 18:00,ZBHH 201800Z AUTO 29008KT 6SM 11/M07 A3006 RMK SLP169 T01101068 57005 IEM_DS3505
ZBHH,2008-04-20 19:00,ZBHH 201900Z AUTO 03004KT 3SM A3006 RMK IEM_DS3505
ZBHH,2008-04-20 20:00,ZBHH 202000Z AUTO 01012KT 3SM 07/M08 A3009 RMK T00701080 IEM_DS3505
ZBHH,2008-04-20 21:00,ZBHH 202100Z AUTO 16002KT 19SM 08/M10 A3009 RMK 70002 SLP188 T00771097 52012 IEM_DS3505
ZBHH,2008-04-20 22:00,ZBHH 202200Z AUTO 36012KT 5SM 06/M10 A3012 RMK T00601100 IEM_DS3505
ZBHH,2008-04-20 23:00,ZBHH 202300Z AUTO 03010KT 5SM 06/M09 A3012 RMK T00601090 IEM_DS3505
ZBHH,2008-04-21 00:00,ZBHH 210000Z AUTO 02008KT 12SM 08/M06 A3015 RMK 70001 SLP210 T00851065 52019 IEM_DS3505
ZBHH,2008-04-21 01:00,ZBHH 210100Z AUTO 36006KT 7SM 09/M03 A3015 RMK T00901030 IEM_DS3505
ZBHH,2008-04-21 02:00,ZBHH 210200Z AUTO 03016KT 6SM 09/01 A3015 RMK T00900010 IEM_DS3505
ZBHH,2008-04-21 03:00,ZBHH 210300Z AUTO 32008KT 12SM 09/00 A3018 RMK SLP223 T00860001 52011 IEM_DS3505
ZBHH,2008-04-21 04:00,ZBHH 210400Z AUTO 36016KT 7SM 07/00 A3018 RMK T00700000 IEM_DS3505
ZBHH,2008-04-21 05:00,ZBHH 210500Z AUTO 34014G27KT 4SM 07/M01 A3018 RMK T00701010 IEM_DS3505
ZBHH,2008-04-21 06:00,ZBHH 210600Z AUTO 32012KT 12SM 07/M02 A3018 RMK SLP227 T00731016 57002 IEM_DS3505
ZBHH,2008-04-21 07:00,ZBHH 210700Z AUTO 01012G25KT 7SM 07/00 A3015 RMK T00700000 IEM_DS3505
ZBHH,2008-04-21 08:00,ZBHH 210800Z AUTO 36010G23KT 7SM 07/00 A3015 RMK T00700000 IEM_DS3505
ZBHH,2008-04-21 09:00,ZBHH 210900Z AUTO 32010KT 9SM 06/M03 A3015 RMK SLP229 T00611028 57007 IEM_DS3505
ZBHH,2008-04-21 10:00,ZBHH 211000Z AUTO 01014KT 7SM 04/M02 A3018 RMK T00401020 IEM_DS3505
ZBHH,2008-04-21 11:00,ZBHH 211100Z AUTO 01014KT 7SM 03/M02 A3021 RMK T00301020 IEM_DS3505
ZBHH,2008-04-21 12:00,ZBHH 211200Z AUTO 36002KT 12SM 04/M03 A3021 RMK 60000 SLP245 T00431032 52012 IEM_DS3505
ZBHH,2008-04-21 13:00,ZBHH 211300Z AUTO 01010KT 4SM 02/M02 A3024 RMK T00201020 IEM_DS3505
ZBHH,2008-04-21 14:00,ZBHH 211400Z AUTO 02010KT 7SM 01/M01 A3024 RMK T00101010 IEM_DS3505
ZBHH,2008-04-21 15:00,ZBHH 211500Z AUTO 04004KT 12SM 02/M05 A3024 RMK SLP266 T00221048 52014 IEM_DS3505
ZBHH,2008-04-21 16:00,ZBHH 211600Z AUTO 03006KT 7SM 01/M01 A3024 RMK T00101010 IEM_DS3505
ZBHH,2008-04-21 17:00,ZBHH 211700Z AUTO 35012KT 7SM 01/00 A3024 RMK T00100000 IEM_DS3505
ZBHH,2008-04-21 18:00,ZBHH 211800Z AUTO 04002KT 12SM 01/M06 A3024 RMK 60000 SLP270 T00131060 57001 IEM_DS3505
ZBHH,2008-04-21 19:00,ZBHH 211900Z AUTO 34008KT 7SM 01/00 A3024 RMK T00100000 IEM_DS3505
ZBHH,2008-04-21 20:00,ZBHH 212000Z AUTO 35006KT 7SM 01/00 A3021 RMK T00100000 IEM_DS3505
ZBHH,2008-04-21 21:00,ZBHH 212100Z AUTO 29006KT 12SM 01/M06 A3021 RMK 70000 SLP275 T00061065 52001 IEM_DS3505
ZBHH,2008-04-21 22:00,ZBHH 212200Z AUTO 34008KT 7SM 00/M05 A3024 RMK T00001050 IEM_DS3505
ZBHH,2008-04-21 23:00,ZBHH 212300Z AUTO 34008KT 7SM 01/M05 A3024 RMK T00101050 IEM_DS3505
ZBHH,2008-04-22 00:00,ZBHH 220000Z AUTO 36002KT 19SM 02/M07 A3027 RMK 70000 SLP288 T00161074 52009 IEM_DS3505
ZBHH,2008-04-22 01:00,ZBHH 220100Z AUTO 34008KT 7SM 01/M06 A3030 RMK T00101060 IEM_DS3505
ZBHH,2008-04-22 02:00,ZBHH 220200Z AUTO 34012KT 7SM 02/M07 A3030 RMK T00201070 IEM_DS3505
ZBHH,2008-04-22 03:00,ZBHH 220300Z AUTO 32002G25KT 12SM 02/M08 A3033 RMK SLP310 T00151075 52015 IEM_DS3505
ZBHH,2008-04-22 04:00,ZBHH 220400Z AUTO 36014KT 7SM 02/M08 A3033 RMK T00201080 IEM_DS3505
ZBHH,2008-04-22 05:00,ZBHH 220500Z AUTO 35012KT 7SM 03/M09 A3033 RMK T00301090 IEM_DS3505
ZBHH,2008-04-22 06:00,ZBHH 220600Z AUTO 04006KT 12SM 04/M09 A3033 RMK 60000 SLP310 T00381092 52003 IEM_DS3505
ZBHH,2008-04-22 07:00,ZBHH 220700Z AUTO 35012KT 7SM 03/M07 A3033 RMK T00301070 IEM_DS3505
ZBHH,2008-04-22 08:00,ZBHH 220800Z AUTO 35010KT 7SM 03/M06 A3030 RMK T00301060 IEM_DS3505
ZBHH,2008-04-22 09:00,ZBHH 220900Z AUTO 04006KT 12SM 05/M08 A3030 RMK SLP294 T00481083 57013 IEM_DS3505
ZBHH,2008-04-22 10:00,ZBHH 221000Z AUTO 01008KT 7SM 04/M07 A3030 RMK T00401070 IEM_DS3505
ZBHH,2008-04-22 11:00,ZBHH 221100Z AUTO 03006KT 7SM 04/M06 A3030 RMK T00401060 IEM_DS3505
ZBHH,2008-04-22 12:00,ZBHH 221200Z AUTO 34002KT 16SM 04/M08 A3030 RMK SLP293 T00421082 54000 IEM_DS3505
ZBHH,2008-04-22 13:00,ZBHH 221300Z AUTO 07004KT 7SM 02/M05 A3030 RMK T00201050 IEM_DS3505
ZBHH,2008-04-22 14:00,ZBHH 221400Z AUTO 08006KT 7SM 01/M05 A3030 RMK T00101050 IEM_DS3505
ZBHH,2008-04-22 15:00,ZBHH 221500Z AUTO 11002KT 19SM 02/M06 A3030 RMK SLP298 T00251061 54000 IEM_DS3505
ZBHH,2008-04-22 16:00,ZBHH 221600Z AUTO 00000KT 7SM 01/M04 A3027 RMK T00101040 IEM_DS3505
ZBHH,2008-04-22 17:00,ZBHH 221700Z AUTO 02004KT 7SM A3027 RMK IEM_DS3505
ZBHH,2008-04-22 18:00,ZBHH 221800Z AUTO 09002KT 19SM 00/M06 A3024 RMK SLP282 T00051064 57013 IEM_DS3505
ZBHH,2008-04-22 19:00,ZBHH 221900Z AUTO 06002KT 7SM M02/M05 A3024 RMK T10201050 IEM_DS3505
ZBHH,2008-04-22 20:00,ZBHH 222000Z AUTO 06002KT 7SM M03/M06 A3024 RMK T10301060 IEM_DS3505
ZBHH,2008-04-22 21:00,ZBHH 222100Z AUTO 20002KT 19SM M02/M06 A3021 RMK 70000 SLP274 T10191056 57010 IEM_DS3505
ZBHH,2008-04-22 22:00,ZBHH 222200Z AUTO 16002KT 6SM M04/M07 A3021 RMK T10401070 IEM_DS3505
ZBHH,2008-04-22 23:00,ZBHH 222300Z AUTO 00000KT 6SM M01/M04 A3021 RMK T10101040 IEM_DS3505
ZBHH,2008-04-23 00:00,ZBHH 230000Z AUTO 16002KT 16SM 03/M05 A3024 RMK 70000 SLP271 T00291050 52006 IEM_DS3505
ZBHH,2008-04-23 01:00,ZBHH 230100Z AUTO 19004KT 6SM 03/M02 A3021 RMK T00301020 IEM_DS3505
ZBHH,2008-04-23 02:00,ZBHH 230200Z AUTO 6SM 05/M04 A3021 RMK T00501040 IEM_DS3505
ZBHH,2008-04-23 03:00,ZBHH 230300Z AUTO 20006KT 6SM 08/M05 A3021 RMK SLP251 T00781053 57011 IEM_DS3505
ZBHH,2008-04-23 04:00,ZBHH 230400Z AUTO 23008KT 6SM 10/M08 A3018 RMK T01001080 IEM_DS3505
ZBHH,2008-04-23 05:00,ZBHH 230500Z AUTO 27010KT 6SM 12/M12 A3012 RMK T01201120 IEM_DS3505
ZBHH,2008-04-23 06:00,ZBHH 230600Z AUTO 29012KT 16SM 13/M13 A3009 RMK SLP213 T01301130 57027 IEM_DS3505
ZBHH,2008-04-23 07:00,ZBHH 230700Z AUTO 32012G21KT 7SM 13/M12 A3006 RMK T01301120 IEM_DS3505
ZBHH,2008-04-23 08:00,ZBHH 230800Z AUTO 29016KT 7SM 13/M11 A3006 RMK T01301110 IEM_DS3505
ZBHH,2008-04-23 09:00,ZBHH 230900Z AUTO 27010KT 19SM 13/M10 A3003 RMK SLP195 T01301101 57020 IEM_DS3505
ZBHH,2008-04-23 10:00,ZBHH 231000Z AUTO 29014KT 7SM 13/M09 A3003 RMK T01301090 IEM_DS3505
ZBHH,2008-04-23 11:00,ZBHH 231100Z AUTO 29010KT 7SM 11/M09 A3003 RMK T01101090 IEM_DS3505
ZBHH,2008-04-23 12:00,ZBHH 231200Z AUTO 25006KT 19SM 12/M10 A3003 RMK SLP181 T01191103 57005 IEM_DS3505
ZBHH,2008-04-23 14:00,ZBHH 231400Z AUTO 26006KT 7SM 09/M08 A3003 RMK T00901080 IEM_DS3505
ZBHH,2008-04-23 15:00,ZBHH 231500Z AUTO 34002KT 19SM 07/M08 A3003 RMK SLP180 T00691083 57001 IEM_DS3505
ZBHH,2008-04-23 16:00,ZBHH 231600Z AUTO 09002KT 7SM 04/M05 A3003 RMK T00401050 IEM_DS3505
ZBHH,2008-04-23 17:00,ZBHH 231700Z AUTO 00000KT 7SM 03/M04 A3000 RMK T00301040 IEM_DS3505
ZBHH,2008-04-23 18:00,ZBHH 231800Z AUTO 02002KT 19SM 04/M06 A3000 RMK SLP161 T00361058 57013 IEM_DS3505
ZBHH,2008-04-23 19:00,ZBHH 231900Z AUTO 10004KT 6SM A2997 RMK IEM_DS3505
ZBHH,2008-04-23 20:00,ZBHH 232000Z AUTO 09006KT 6SM A2997 RMK IEM_DS3505
ZBHH,2008-04-23 21:00,ZBHH 232100Z AUTO 07004KT 19SM 03/M05 A2994 RMK SLP151 T00311048 57010 IEM_DS3505
ZBHH,2008-04-23 22:00,ZBHH 232200Z AUTO 08006KT 7SM 03/M03 A2994 RMK T00301030 IEM_DS3505
ZBHH,2008-04-23 23:00,ZBHH 232300Z AUTO 11004KT 7SM 04/M04 A2994 RMK T00401040 IEM_DS3505
ZBHH,2008-04-24 00:00,ZBHH 240000Z AUTO 09006KT 19SM 06/M06 A2994 RMK SLP142 T00641065 57003 IEM_DS3505
ZBHH,2008-04-24 01:00,ZBHH 240100Z AUTO 17004KT 6SM 07/M05 A2994 RMK T00701050 IEM_DS3505
ZBHH,2008-04-24 02:00,ZBHH 240200Z AUTO 19004KT 6SM 10/M07 A2994 RMK T01001070 IEM_DS3505
ZBHH,2008-04-24 03:00,ZBHH 240300Z AUTO 27004KT 12SM 13/M06 A2994 RMK SLP138 T01281057 57001 IEM_DS3505
ZBHH,2008-04-24 04:00,ZBHH 240400Z AUTO 32016KT 7SM 15/M12 A2991 RMK T01501120 IEM_DS3505
ZBHH,2008-04-24 05:00,ZBHH 240500Z AUTO 33016G33KT 7SM 15/M12 A2988 RMK T01501120 IEM_DS3505
ZBHH,2008-04-24 06:00,ZBHH 240600Z AUTO 32010G31KT 16SM 15/M12 A2988 RMK SLP124 T01541120 57014 IEM_DS3505
ZBHH,2008-04-24 07:00,ZBHH 240700Z AUTO 31023G37KT 7SM 15/M12 A2985 RMK T01501120 IEM_DS3505
ZBHH,2008-04-24 08:00,ZBHH 240800Z AUTO 32023G39KT 7SM 16/M11 A2983 RMK T01601110 IEM_DS3505
ZBHH,2008-04-24 09:00,ZBHH 240900Z AUTO 29010G33KT 16SM 16/M13 A2980 RMK SLP094 T01621132 57026 IEM_DS3505
ZBHH,2008-04-24 10:00,ZBHH 241000Z AUTO 32017KT 7SM 15/M13 A2980 RMK T01501130 IEM_DS3505
ZBHH,2008-04-24 11:00,ZBHH 241100Z AUTO 32014KT 7SM 15/M13 A2980 RMK T01501130 IEM_DS3505
ZBHH,2008-04-24 12:00,ZBHH 241200Z AUTO 29012KT 19SM 15/M15 A2980 RMK SLP086 T01481154 57003 IEM_DS3505
ZBHH,2008-04-24 13:00,ZBHH 241300Z AUTO 30017KT 6SM 14/M13 A2977 RMK T01401130 IEM_DS3505
ZBHH,2008-04-24 14:00,ZBHH 241400Z AUTO 34023G35KT 2 1/2SM 13/M10 A2980 RMK T01301100 IEM_DS3505
ZBHH,2008-04-24 15:00,ZBHH 241500Z AUTO 32010KT 6SM 11/M16 A2985 RMK SLP102 T01141161 52020 IEM_DS3505
ZBHH,2008-04-24 16:00,ZBHH 241600Z AUTO 36012KT 1SM 08/M13 A2991 RMK T00801130 IEM_DS3505
ZBHH,2008-04-24 17:00,ZBHH 241700Z AUTO 35012KT 1SM 07/M08 A2991 RMK T00701080 IEM_DS3505
ZBHH,2008-04-24 18:00,ZBHH 241800Z AUTO 32012KT 6SM 07/M15 A2991 RMK SLP122 T00731148 52015 IEM_DS3505
ZBHH,2008-04-24 19:00,ZBHH 241900Z AUTO 35010KT 2 1/2SM 05/M11 A2991 RMK T00501110 IEM_DS3505
ZBHH,2008-04-24 20:00,ZBHH 242000Z AUTO 35012KT 3SM 05/M12 A2991 RMK T00501120 IEM_DS3505
ZBHH,2008-04-24 21:00,ZBHH 242100Z AUTO 32008KT 6SM 05/M14 A2991 RMK SLP135 T00491145 52008 IEM_DS3505
ZBHH,2008-04-24 22:00,ZBHH 242200Z AUTO 36012KT 6SM 03/M12 A2994 RMK T00301120 IEM_DS3505
ZBHH,2008-04-24 23:00,ZBHH 242300Z AUTO 01012KT 6SM 03/M11 A2997 RMK T00301110 IEM_DS3505
ZBHH,2008-04-25 00:00,ZBHH 250000Z AUTO 36006KT 19SM 05/M12 A3000 RMK SLP162 T00501124 52021 IEM_DS3505
ZBHH,2008-04-25 01:00,ZBHH 250100Z AUTO 36014KT 6SM 06/M11 A3003 RMK T00601110 IEM_DS3505
ZBHH,2008-04-25 02:00,ZBHH 250200Z AUTO 02016G27KT 6SM 07/M12 A3003 RMK T00701120 IEM_DS3505
ZBHH,2008-04-25 03:00,ZBHH 250300Z AUTO 34008G27KT 19SM 09/M16 A3003 RMK SLP175 T00871157 52012 IEM_DS3505
ZBHH,2008-04-25 04:00,ZBHH 250400Z AUTO 34014G25KT 6SM 11/M13 A3003 RMK T01101130 IEM_DS3505
ZBHH,2008-04-25 05:00,ZBHH 250500Z AUTO 35014KT 6SM 11/M15 A3000 RMK T01101150 IEM_DS3505
ZBHH,2008-04-25 06:00,ZBHH 250600Z AUTO 32010KT 19SM 13/M16 A3000 RMK SLP155 T01291158 57017 IEM_DS3505
ZBHH,2008-04-25 07:00,ZBHH 250700Z AUTO 36014KT 6SM 13/M14 A2997 RMK T01301140 IEM_DS3505
ZBHH,2008-04-25 08:00,ZBHH 250800Z AUTO 01012KT 6SM 13/M14 A2994 RMK T01301140 IEM_DS3505
ZBHH,2008-04-25 09:00,ZBHH 250900Z AUTO 32010KT 19SM 14/M14 A2994 RMK SLP142 T01441137 57013 IEM_DS3505
ZBHH,2008-04-25 10:00,ZBHH 251000Z AUTO 01010KT 6SM 13/M13 A2994 RMK T01301130 IEM_DS3505
ZBHH,2008-04-25 11:00,ZBHH 251100Z AUTO 01008KT 6SM 12/M13 A2997 RMK T01201130 IEM_DS3505
ZBHH,2008-04-25 12:00,ZBHH 251200Z AUTO 02002KT 19SM 12/M14 A2997 RMK SLP157 T01151142 52007 IEM_DS3505
ZBHH,2008-04-25 13:00,ZBHH 251300Z AUTO 02004KT 6SM 11/M13 A3000 RMK T01101130 IEM_DS3505
ZBHH,2008-04-25 14:00,ZBHH 251400Z AUTO 03002KT 6SM 06/M10 A3000 RMK T00601100 IEM_DS3505
ZBHH,2008-04-25 15:00,ZBHH 251500Z AUTO 02002KT 19SM 09/M11 A3000 RMK SLP163 T00871113 52007 IEM_DS3505
ZBHH,2008-04-25 16:00,ZBHH 251600Z AUTO 05004KT 6SM 05/M09 A3000 RMK T00501090 IEM_DS3505
ZBHH,2008-04-25 17:00,ZBHH 251700Z AUTO 11008KT 7SM 05/M08 A2997 RMK T00501080 IEM_DS3505
ZBHH,2008-04-25 18:00,ZBHH 251800Z AUTO 02002KT 19SM 07/M10 A2997 RMK SLP150 T00681104 57007 IEM_DS3505
ZBHH,2008-04-25 19:00,ZBHH 251900Z AUTO 06004KT 7SM 04/M09 A2994 RMK T00401090 IEM_DS3505
ZBHH,2008-04-25 20:00,ZBHH 252000Z AUTO 00000KT 7SM 03/M07 A2994 RMK T00301070 IEM_DS3505
ZBHH,2008-04-25 21:00,ZBHH 252100Z AUTO 25002KT 19SM 05/M09 A2994 RMK SLP143 T00461092 57007 IEM_DS3505
ZBHH,2008-04-25 22:00,ZBHH 252200Z AUTO 09004KT 6SM 01/M06 A2994 RMK T00101060 IEM_DS3505
ZBHH,2008-04-25 23:00,ZBHH 252300Z AUTO 09004KT 7SM 03/M06 A2994 RMK T00301060 IEM_DS3505
ZBHH,2008-04-26 00:00,ZBHH 260000Z AUTO 09002KT 12SM 08/M10 A2994 RMK SLP142 T00791095 54000 IEM_DS3505
ZBHH,2008-04-26 01:00,ZBHH 260100Z AUTO 13002KT 6SM 11/M09 A2994 RMK T01101090 IEM_DS3505
ZBHH,2008-04-26 02:00,ZBHH 260200Z AUTO 16002KT 6SM 13/M11 A2991 RMK T01301110 IEM_DS3505
ZBHH,2008-04-26 03:00,ZBHH 260300Z AUTO 32004KT 9SM 14/M10 A2988 RMK SLP114 T01371102 57019 IEM_DS3505
ZBHH,2008-04-26 04:00,ZBHH 260400Z AUTO 6SM 15/M09 A2985 RMK T01501090 IEM_DS3505
ZBHH,2008-04-26 05:00,ZBHH 260500Z AUTO 27006KT 6SM 18/M09 A2983 RMK T01801090 IEM_DS3505
ZBHH,2008-04-26 06:00,ZBHH 260600Z AUTO 32012G25KT 12SM 20/M12 A2983 RMK SLP088 T01981115 57015 IEM_DS3505
ZBHH,2008-04-26 07:00,ZBHH 260700Z AUTO 35017G31KT 6SM 18/M11 A2983 RMK T01801110 IEM_DS3505
ZBHH,2008-04-26 08:00,ZBHH 260800Z AUTO 35012KT 6SM 18/M11 A2985 RMK T01801110 IEM_DS3505
ZBHH,2008-04-26 09:00,ZBHH 260900Z AUTO 34008KT 16SM 18/M12 A2985 RMK SLP106 T01801118 52008 IEM_DS3505
ZBHH,2008-04-26 10:00,ZBHH 261000Z AUTO 01014G25KT 6SM 15/M12 A2988 RMK T01501120 IEM_DS3505
ZBHH,2008-04-26 11:00,ZBHH 261100Z AUTO 36012KT 6SM 14/M12 A2991 RMK T01401120 IEM_DS3505
ZBHH,2008-04-26 12:00,ZBHH 261200Z AUTO 04008KT 12SM 13/M13 A2994 RMK SLP143 T01301130 52030 IEM_DS3505
ZBHH,2008-04-26 13:00,ZBHH 261300Z AUTO 02004KT 6SM 11/M11 A3000 RMK T01101110 IEM_DS3505
ZBHH,2008-04-26 14:00,ZBHH 261400Z AUTO 02004KT 6SM 11/M09 A3003 RMK T01101090 IEM_DS3505
ZBHH,2008-04-26 15:00,ZBHH 261500Z AUTO 04004KT 12SM 11/M09 A3006 RMK SLP164 T01061091 52025 IEM_DS3505
ZBHH,2008-04-26 16:00,ZBHH 261600Z AUTO 05010KT 6SM 07/M08 A3006 RMK T00701080 IEM_DS3505
ZBHH,2008-04-26 17:00,ZBHH 261700Z AUTO 00000KT 7SM 05/M09 A3006 RMK T00501090 IEM_DS3505
ZBHH,2008-04-26 18:00,ZBHH 261800Z AUTO 34002KT 19SM 07/M09 A3006 RMK SLP166 T00671092 52006 IEM_DS3505
ZBHH,2008-04-26 19:00,ZBHH 261900Z AUTO 04008KT 7SM 05/M08 A3006 RMK T00501080 IEM_DS3505
ZBHH,2008-04-26 20:00,ZBHH 262000Z AUTO 06006KT 7SM 02/M08 A3006 RMK T00201080 IEM_DS3505
ZBHH,2008-04-26 21:00,ZBHH 262100Z AUTO 09002KT 19SM 04/M08 A3006 RMK SLP174 T00361078 57003 IEM_DS3505
ZBHH,2008-04-26 22:00,ZBHH 262200Z AUTO 11004KT 6SM 01/M07 A3006 RMK T00101070 IEM_DS3505
ZBHH,2008-04-26 23:00,ZBHH 262300Z AUTO 08004KT 6SM 03/M06 A3009 RMK T00301060 IEM_DS3505
ZBHH,2008-04-27 00:00,ZBHH 270000Z AUTO 07002KT 12SM 08/M07 A3009 RMK SLP192 T00801073 52015 IEM_DS3505
ZBHH,2008-04-27 01:00,ZBHH 270100Z AUTO 6SM 08/M07 A3009 RMK T00801070 IEM_DS3505
ZBHH,2008-04-27 02:00,ZBHH 270200Z AUTO 6SM 11/M06 A3009 RMK T01101060 IEM_DS3505
ZBHH,2008-04-27 03:00,ZBHH 270300Z AUTO 16004KT 19SM 12/M07 A3006 RMK SLP177 T01201069 57010 IEM_DS3505
ZBHH,2008-04-27 04:00,ZBHH 270400Z AUTO 25004KT 6SM 14/M06 A3003 RMK T01401060 IEM_DS3505
ZBHH,2008-04-27 05:00,ZBHH 270500Z AUTO 24008KT 6SM 15/M07 A3000 RMK T01501070 IEM_DS3505
ZBHH,2008-04-27 06:00,ZBHH 270600Z AUTO 20008KT 19SM 17/M06 A2997 RMK SLP139 T01701055 57031 IEM_DS3505
ZBHH,2008-04-27 07:00,ZBHH 270700Z AUTO 24014KT 6SM 18/M07 A2991 RMK T01801070 IEM_DS3505
ZBHH,2008-04-27 08:00,ZBHH 270800Z AUTO 26014KT 6SM 18/M07 A2988 RMK T01801070 IEM_DS3505
ZBHH,2008-04-27 09:00,ZBHH 270900Z AUTO 22012KT 12SM 20/M08 A2983 RMK SLP096 T02031081 57038 IEM_DS3505
ZBHH,2008-04-27 10:00,ZBHH 271000Z AUTO 25010KT 6SM 19/M07 A2983 RMK T01901070 IEM_DS3505
ZBHH,2008-04-27 11:00,ZBHH 271100Z AUTO 26008KT 6SM 18/M07 A2983 RMK T01801070 IEM_DS3505
ZBHH,2008-04-27 12:00,ZBHH 271200Z AUTO 20002KT 12SM 17/M05 A2983 RMK SLP085 T01741051 57007 IEM_DS3505
ZBHH,2008-04-27 13:00,ZBHH 271300Z AUTO 14004KT 4SM 14/M03 A2983 RMK T01401030 IEM_DS3505
ZBHH,2008-04-27 14:00,ZBHH 271400Z AUTO 4SM 14/M03 A2983 RMK T01401030 IEM_DS3505
ZBHH,2008-04-27 15:00,ZBHH 271500Z AUTO 09002KT 19SM 14/M04 A2983 RMK SLP082 T01391038 57001 IEM_DS3505
ZBHH,2008-04-27 16:00,ZBHH 271600Z AUTO 02004KT 6SM 12/M02 A2983 RMK T01201020 IEM_DS3505
ZBHH,2008-04-27 17:00,ZBHH 271700Z AUTO 17004KT 7SM 11/M03 A2980 RMK T01101030 IEM_DS3505
ZBHH,2008-04-27 18:00,ZBHH 271800Z AUTO 09004KT 19SM 10/M03 A2980 RMK SLP074 T01031030 57005 IEM_DS3505
ZBHH,2008-04-27 19:00,ZBHH 271900Z AUTO 10006KT 7SM 06/M03 A2980 RMK T00601030 IEM_DS3505
ZBHH,2008-04-27 20:00,ZBHH 272000Z AUTO 07002KT 7SM 09/M04 A2980 RMK T00901040 IEM_DS3505
ZBHH,2008-04-27 21:00,ZBHH 272100Z AUTO 07002KT 19SM 10/M04 A2980 RMK SLP068 T00961044 54000 IEM_DS3505
ZBHH,2008-04-27 22:00,ZBHH 272200Z AUTO 06004KT 6SM 07/M03 A2980 RMK T00701030 IEM_DS3505
ZBHH,2008-04-27 23:00,ZBHH 272300Z AUTO 09004KT 6SM 09/M01 A2980 RMK T00901010 IEM_DS3505
ZBHH,2008-04-28 00:00,ZBHH 280000Z AUTO 04004KT 19SM 13/M03 A2983 RMK SLP073 T01301033 52005 IEM_DS3505
ZBHH,2008-04-28 01:00,ZBHH 280100Z AUTO 17004KT 6SM 15/M04 A2983 RMK T01501040 IEM_DS3505
ZBHH,2008-04-28 02:00,ZBHH 280200Z AUTO 27002KT 6SM 17/M05 A2983 RMK T01701050 IEM_DS3505
ZBHH,2008-04-28 03:00,ZBHH 280300Z AUTO 04004KT 6SM 19/M04 A2980 RMK SLP062 T01911044 57004 IEM_DS3505
ZBHH,2008-04-28 04:00,ZBHH 280400Z AUTO 26006KT 6SM 21/M04 A2977 RMK T02101040 IEM_DS3505
ZBHH,2008-04-28 05:00,ZBHH 280500Z AUTO 25010KT 6SM 24/M03 A2974 RMK T02401030 IEM_DS3505
ZBHH,2008-04-28 06:00,ZBHH 280600Z AUTO 25010KT 6SM 26/M04 A2971 RMK SLP015 T02601035 57036 IEM_DS3505
ZBHH,2008-04-28 07:00,ZBHH 280700Z AUTO 25017KT 3SM 28/M04 A2965 RMK T02801040 IEM_DS3505
ZBHH,2008-04-28 08:00,ZBHH 280800Z AUTO 24016KT 5SM 28/M06 A2965 RMK T02801060 IEM_DS3505
ZBHH,2008-04-28 09:00,ZBHH 280900Z AUTO 25012KT 7SM 28/M06 A2962 RMK SLP986 T02831062 57022 IEM_DS3505
ZBHH,2008-04-28 10:00,ZBHH 281000Z AUTO 25016KT 7SM 27/M06 A2962 RMK T02701060 IEM_DS3505
ZBHH,2008-04-28 11:00,ZBHH 281100Z AUTO 24008KT 7SM 25/M04 A2962 RMK T02501040 IEM_DS3505
ZBHH,2008-04-28 12:00,ZBHH 281200Z AUTO 22004KT 12SM 24/M04 A2965 RMK SLP998 T02421040 52009 IEM_DS3505
ZBHH,2008-04-28 13:00,ZBHH 281300Z AUTO 24002KT 6SM 20/M04 A2968 RMK T02001040 IEM_DS3505
ZBHH,2008-04-28 14:00,ZBHH 281400Z AUTO 15002KT 6SM 17/M02 A2971 RMK T01701020 IEM_DS3505
ZBHH,2008-04-28 15:00,ZBHH 281500Z AUTO 04004KT 12SM 20/M03 A2971 RMK SLP016 T01961027 52019 IEM_DS3505
ZBHH,2008-04-28 16:00,ZBHH 281600Z AUTO 06002KT 4SM 15/M01 A2971 RMK T01501010 IEM_DS3505
ZBHH,2008-04-28 17:00,ZBHH 281700Z AUTO 08002KT 5SM 13/M01 A2971 RMK T01301010 IEM_DS3505
ZBHH,2008-04-28 18:00,ZBHH 281800Z AUTO 09004KT 12SM 15/M02 A2971 RMK SLP013 T01491021 52001 IEM_DS3505
ZBHH,2008-04-28 19:00,ZBHH 281900Z AUTO 6SM 11/01 A2971 RMK T01100010 IEM_DS3505
ZBHH,2008-04-28 20:00,ZBHH 282000Z AUTO 03002KT 6SM 12/00 A2971 RMK T01200000 IEM_DS3505
ZBHH,2008-04-28 21:00,ZBHH 282100Z AUTO 07002KT 19SM 12/M02 A2974 RMK SLP020 T01241022 52006 IEM_DS3505
ZBHH,2008-04-28 22:00,ZBHH 282200Z AUTO 06002KT 6SM 12/00 A2974 RMK T01200000 IEM_DS3505
ZBHH,2008-04-28 23:00,ZBHH 282300Z AUTO 09004KT 6SM 13/02 A2977 RMK T01300020 IEM_DS3505
ZBHH,2008-04-29 00:00,ZBHH 290000Z AUTO 09004KT 19SM 16/00 A2977 RMK SLP037 T01610002 52014 IEM_DS3505
ZBHH,2008-04-29 01:00,ZBHH 290100Z AUTO 23006KT 6SM 19/00 A2977 RMK T01900000 IEM_DS3505
ZBHH,2008-04-29 02:00,ZBHH 290200Z AUTO 24006KT 6SM 21/01 A2977 RMK T02100010 IEM_DS3505
ZBHH,2008-04-29 03:00,ZBHH 290300Z AUTO 22008KT 9SM 23/M00 A2974 RMK SLP020 T02261002 57011 IEM_DS3505
ZBHH,2008-04-29 04:00,ZBHH 290400Z AUTO 28010KT 6SM 25/00 A2971 RMK T02500000 IEM_DS3505
ZBHH,2008-04-29 05:00,ZBHH 290500Z AUTO 25010KT 6SM 26/00 A2968 RMK T02600000 IEM_DS3505
ZBHH,2008-04-29 06:00,ZBHH 290600Z AUTO 18004KT 9SM 28/M01 A2965 RMK SLP979 T02821009 57035 IEM_DS3505
ZBHH,2008-04-29 07:00,ZBHH 290700Z AUTO 25019G29KT 4SM 28/M03 A2962 RMK T02801030 IEM_DS3505
ZBHH,2008-04-29 08:00,ZBHH 290800Z AUTO 24016KT 7SM 28/M02 A2959 RMK T02801020 IEM_DS3505
ZBHH,2008-04-29 09:00,ZBHH 290900Z AUTO 25016KT 6SM 28/M03 A2959 RMK SLP970 T02791030 57013 IEM_DS3505
ZBHH,2008-04-29 10:00,ZBHH 291000Z AUTO 22014KT 7SM 26/M02 A2959 RMK T02601020 IEM_DS3505
ZBHH,2008-04-29 11:00,ZBHH 291100Z AUTO 22010G19KT 7SM 24/M02 A2959 RMK T02401020 IEM_DS3505
ZBHH,2008-04-29 12:00,ZBHH 291200Z AUTO 22004KT 12SM 24/M02 A2959 RMK SLP972 T02431023 52002 IEM_DS3505
ZBHH,2008-04-29 13:00,ZBHH 291300Z AUTO 30008KT 7SM 20/M01 A2962 RMK T02001010 IEM_DS3505
ZBHH,2008-04-29 14:00,ZBHH 291400Z AUTO 36008KT 4SM 21/M03 A2965 RMK T02101030 IEM_DS3505
ZBHH,2008-04-29 15:00,ZBHH 291500Z AUTO 32010G19KT 12SM 22/M05 A2968 RMK SLP989 T02151054 52022 IEM_DS3505
ZBHH,2008-04-29 16:00,ZBHH 291600Z AUTO 33014KT 3SM 20/M07 A2968 RMK T02001070 IEM_DS3505
ZBHH,2008-04-29 17:00,ZBHH 291700Z AUTO 31014KT 4SM 19/M11 A2968 RMK T01901110 IEM_DS3505
ZBHH,2008-04-29 18:00,ZBHH 291800Z AUTO 32010KT 16SM 18/M14 A2971 RMK SLP007 T01811140 52020 IEM_DS3505
ZBHH,2008-04-29 19:00,ZBHH 291900Z AUTO 33012KT 4SM 16/M14 A2974 RMK T01601140 IEM_DS3505
ZBHH,2008-04-29 20:00,ZBHH 292000Z AUTO 33008KT 4SM 15/M13 A2974 RMK T01501130 IEM_DS3505
ZBHH,2008-04-29 21:00,ZBHH 292100Z AUTO 32004KT 16SM 14/M13 A2974 RMK SLP026 T01451127 52009 IEM_DS3505
ZBHH,2008-04-29 22:00,ZBHH 292200Z AUTO 32008KT 7SM 14/M10 A2977 RMK T01401100 IEM_DS3505
ZBHH,2008-04-29 23:00,ZBHH 292300Z AUTO 32008KT 6SM 14/M10 A2977 RMK T01401100 IEM_DS3505
ZBHH,2008-04-30 00:00,ZBHH 300000Z AUTO 32004KT 16SM 16/M10 A2980 RMK SLP044 T01611097 52013 IEM_DS3505
ZBHH,2008-04-30 01:00,ZBHH 300100Z AUTO 30012KT 6SM 17/M09 A2980 RMK T01701090 IEM_DS3505
ZBHH,2008-04-30 02:00,ZBHH 300200Z AUTO 31014KT 6SM 18/M09 A2980 RMK T01801090 IEM_DS3505
ZBHH,2008-04-30 03:00,ZBHH 300300Z AUTO 29006KT 19SM 19/M11 A2980 RMK SLP040 T01931108 57003 IEM_DS3505
ZBHH,2008-04-30 04:00,ZBHH 300400Z AUTO 31008KT 6SM 19/M11 A2977 RMK T01901110 IEM_DS3505
ZBHH,2008-04-30 05:00,ZBHH 300500Z AUTO 25008KT 6SM 21/M10 A2974 RMK T02101100 IEM_DS3505
ZBHH,2008-04-30 06:00,ZBHH 300600Z AUTO 22006G21KT 19SM 22/M10 A2974 RMK SLP020 T02181100 57020 IEM_DS3505
ZBHH,2008-04-30 07:00,ZBHH 300700Z AUTO 25010G21KT 6SM 21/M10 A2971 RMK T02101100 IEM_DS3505
ZBHH,2008-04-30 08:00,ZBHH 300800Z AUTO 24012KT 6SM 22/M09 A2968 RMK T02201090 IEM_DS3505
ZBHH,2008-04-30 09:00,ZBHH 300900Z AUTO 20010KT 12SM 22/M10 A2968 RMK SLP010 T02231096 57014 IEM_DS3505
ZBHH,2008-04-30 10:00,ZBHH 301000Z AUTO 23010KT 6SM 21/M09 A2968 RMK T02101090 IEM_DS3505
ZBHH,2008-04-30 11:00,ZBHH 301100Z AUTO 22008KT 6SM 20/M07 A2968 RMK T02001070 IEM_DS3505
ZBHH,2008-04-30 12:00,ZBHH 301200Z AUTO 22006KT 12SM 20/M07 A2971 RMK SLP018 T02031072 52006 IEM_DS3505
ZBHH,2008-04-30 13:00,ZBHH 301300Z AUTO 28004KT 6SM 17/M05 A2971 RMK T01701050 IEM_DS3505
ZBHH,2008-04-30 14:00,ZBHH 301400Z AUTO 04002KT 6SM 15/M05 A2971 RMK T01501050 IEM_DS3505
ZBHH,2008-04-30 15:00,ZBHH 301500Z AUTO 04004KT 16SM 17/M06 A2974 RMK SLP027 T01701055 52008 IEM_DS3505
ZBHH,2008-04-30 16:00,ZBHH 301600Z AUTO 09002KT 6SM 12/M03 A2974 RMK T01201030 IEM_DS3505
ZBHH,2008-04-30 17:00,ZBHH 301700Z AUTO 07002KT 7SM 12/M04 A2974 RMK T01201040 IEM_DS3505
ZBHH,2008-04-30 18:00,ZBHH 301800Z AUTO 09004KT 19SM 14/M06 A2971 RMK SLP026 T01381059 57002 IEM_DS3505
ZBHH,2008-04-30 19:00,ZBHH 301900Z AUTO 08004KT 7SM 09/M05 A2971 RMK T00901050 IEM_DS3505
ZBHH,2008-04-30 20:00,ZBHH 302000Z AUTO 10004KT 7SM 09/M05 A2971 RMK T00901050 IEM_DS3505
ZBHH,2008-04-30 21:00,ZBHH 302100Z AUTO 09002KT 12SM 10/M04 A2968 RMK SLP024 T00991037 57008 IEM_DS3505
ZBHH,2008-04-30 22:00,ZBHH 302200Z AUTO 09006KT 6SM 08/M02 A2971 RMK T00801020 IEM_DS3505
ZBHH,2008-04-30 23:00,ZBHH 302300Z AUTO 09004KT 6SM 11/M02 A2971 RMK T01101020 IEM_DS3505
ZBHH,2008-05-01 00:00,ZBHH 010000Z AUTO 09004KT 12SM 16/M04 A2971 RMK SLP021 T01581037 52004 IEM_DS3505
ZBHH,2008-05-01 01:00,ZBHH 010100Z AUTO 13004KT 6SM 19/M04 A2968 RMK T01901040 IEM_DS3505
ZBHH,2008-05-01 02:00,ZBHH 010200Z AUTO 6SM 21/M04 A2968 RMK T02101040 IEM_DS3505
ZBHH,2008-05-01 03:00,ZBHH 010300Z AUTO 16004KT 7SM 21/M05 A2968 RMK SLP003 T02141046 57011 IEM_DS3505
ZBHH,2008-05-01 04:00,ZBHH 010400Z AUTO 26004KT 6SM 23/M04 A2965 RMK T02301040 IEM_DS3505
ZBHH,2008-05-01 05:00,ZBHH 010500Z AUTO 32002KT 7SM 23/M03 A2962 RMK T02301030 IEM_DS3505
ZBHH,2008-05-01 06:00,ZBHH 010600Z AUTO 04004KT 6SM 22/M03 A2959 RMK SLP989 T02251030 57017 IEM_DS3505
ZBHH,2008-05-01 07:00,ZBHH 010700Z AUTO 02004KT 7SM 22/M02 A2956 RMK T02201020 IEM_DS3505
ZBHH,2008-05-01 08:00,ZBHH 010800Z AUTO 05004KT 7SM 24/M01 A2953 RMK T02401010 IEM_DS3505
ZBHH,2008-05-01 09:00,ZBHH 010900Z AUTO 11002KT 6SM 23/00 A2950 RMK SLP965 T02330004 57027 IEM_DS3505
ZBHH,2008-05-01 10:00,ZBHH 011000Z AUTO 7SM 23/01 A2950 RMK T02300010 IEM_DS3505
ZBHH,2008-05-01 11:00,ZBHH 011100Z AUTO 01002KT 5SM 21/02 A2950 RMK T02100020 IEM_DS3505
ZBHH,2008-05-01 12:00,ZBHH 011200Z AUTO 00000KT 6SM 20/02 A2950 RMK SLP960 T01960016 54000 IEM_DS3505
ZBHH,2008-05-01 13:00,ZBHH 011300Z AUTO 12004KT 5SM 19/03 A2956 RMK T01900030 IEM_DS3505
ZBHH,2008-05-01 14:00,ZBHH 011400Z AUTO 5SM 17/05 A2956 RMK T01700050 IEM_DS3505
ZBHH,2008-05-01 15:00,ZBHH 011500Z AUTO 11002KT 19SM 19/03 A2956 RMK SLP965 T01860029 52013 IEM_DS3505
ZBHH,2008-05-01 16:00,ZBHH 011600Z AUTO 34004KT 5SM 16/05 A2956 RMK T01600050 IEM_DS3505
ZBHH,2008-05-01 17:00,ZBHH 011700Z AUTO 32014KT 4SM 19/M02 A2962 RMK T01901020 IEM_DS3505
ZBHH,2008-05-01 18:00,ZBHH 011800Z AUTO 29006KT 19SM 18/M07 A2962 RMK SLP985 T01761070 52018 IEM_DS3505
ZBHH,2008-05-01 19:00,ZBHH 011900Z AUTO 01004KT 7SM 17/M05 A2962 RMK T01701050 IEM_DS3505
ZBHH,2008-05-01 20:00,ZBHH 012000Z AUTO 02008KT 5SM 15/M06 A2968 RMK T01501060 IEM_DS3505
ZBHH,2008-05-01 21:00,ZBHH 012100Z AUTO 32006KT 19SM 15/M06 A2968 RMK SLP020 T01531057 52028 IEM_DS3505
ZBHH,2008-05-01 22:00,ZBHH 012200Z AUTO 35010KT 6SM 15/M04 A2974 RMK T01501040 IEM_DS3505
ZBHH,2008-05-01 23:00,ZBHH 012300Z AUTO 02010KT 6SM 16/M05 A2974 RMK T01601050 IEM_DS3505
ZBHH,2008-05-02 00:00,ZBHH 020000Z AUTO 32006KT 19SM 18/M10 A2977 RMK SLP047 T01751103 52021 IEM_DS3505
ZBHH,2008-05-02 01:00,ZBHH 020100Z AUTO 32008G17KT 6SM 19/M11 A2977 RMK T01901110 IEM_DS3505
ZBHH,2008-05-02 02:00,ZBHH 020200Z AUTO 34010KT 6SM 21/M10 A2980 RMK T02101100 IEM_DS3505
ZBHH,2008-05-02 03:00,ZBHH 020300Z AUTO 32008G23KT 16SM 22/M11 A2980 RMK SLP049 T02171112 52008 IEM_DS3505
ZBHH,2008-05-02 04:00,ZBHH 020400Z AUTO 28010KT 6SM 23/M12 A2980 RMK T02301120 IEM_DS3505
ZBHH,2008-05-02 05:00,ZBHH 020500Z AUTO 31012G23KT 6SM 24/M12 A2977 RMK T02401120 IEM_DS3505
ZBHH,2008-05-02 06:00,ZBHH 020600Z AUTO 18008KT 19SM 25/M10 A2974 RMK SLP024 T02471103 57019 IEM_DS3505
ZBHH,2008-05-02 07:00,ZBHH 020700Z AUTO 13008KT 6SM 25/M12 A2971 RMK T02501120 IEM_DS3505
ZBHH,2008-05-02 08:00,ZBHH 020800Z AUTO 24006KT 6SM 25/M10 A2971 RMK T02501100 IEM_DS3505
ZBHH,2008-05-02 09:00,ZBHH 020900Z AUTO 22004KT 19SM 25/M09 A2968 RMK SLP009 T02481089 57017 IEM_DS3505
ZBHH,2008-05-02 10:00,ZBHH 021000Z AUTO 22006KT 6SM 24/M09 A2968 RMK T02401090 IEM_DS3505
ZBHH,2008-05-02 11:00,ZBHH 021100Z AUTO 25004KT 6SM 23/M09 A2968 RMK T02301090 IEM_DS3505
ZBHH,2008-05-02 12:00,ZBHH 021200Z AUTO 29002KT 19SM 21/M07 A2968 RMK SLP015 T02121073 52003 IEM_DS3505
ZBHH,2008-05-02 13:00,ZBHH 021300Z AUTO 03006KT 6SM 17/M06 A2971 RMK T01701060 IEM_DS3505
ZBHH,2008-05-02 14:00,ZBHH 021400Z AUTO 06008KT 6SM 17/M09 A2977 RMK T01701090 IEM_DS3505
ZBHH,2008-05-02 15:00,ZBHH 021500Z AUTO 29004KT 19SM 19/M14 A2977 RMK SLP039 T01861136 52024 IEM_DS3505
ZBHH,2008-05-02 16:00,ZBHH 021600Z AUTO 01008KT 7SM 17/M12 A2980 RMK T01701120 IEM_DS3505
ZBHH,2008-05-02 17:00,ZBHH 021700Z AUTO 35010KT 7SM 14/M10 A2983 RMK T01401100 IEM_DS3505
ZBHH,2008-05-02 18:00,ZBHH 021800Z AUTO 32006KT 19SM 12/M15 A2983 RMK SLP064 T01231153 52016 IEM_DS3505
ZBHH,2008-05-02 19:00,ZBHH 021900Z AUTO 02014KT 4SM 12/M14 A2985 RMK T01201140 IEM_DS3505
ZBHH,2008-05-02 20:00,ZBHH 022000Z AUTO 36014KT 6SM 12/M15 A2988 RMK T01201150 IEM_DS3505
ZBHH,2008-05-02 21:00,ZBHH 022100Z AUTO 22004KT 19SM 12/M18 A2988 RMK SLP092 T01161179 52024 IEM_DS3505
ZBHH,2008-05-02 22:00,ZBHH 022200Z AUTO 01014KT 7SM 10/M17 A2991 RMK T01001170 IEM_DS3505
ZBHH,2008-05-02 23:00,ZBHH 022300Z AUTO 36014KT 7SM 11/M14 A2994 RMK T01101140 IEM_DS3505
ZBHH,2008-05-03 00:00,ZBHH 030000Z AUTO 09002KT 12SM 12/M11 A2994 RMK SLP118 T01161106 52016 IEM_DS3505
ZBHH,2008-05-03 01:00,ZBHH 030100Z AUTO 35012KT 7SM 13/M08 A2997 RMK T01301080 IEM_DS3505
ZBHH,2008-05-03 02:00,ZBHH 030200Z AUTO 36017KT 7SM 09/M03 A3000 RMK T00901030 IEM_DS3505
ZBHH,2008-05-03 03:00,ZBHH 030300Z AUTO 27006KT 6SM 09/01 A3000 RMK SLP152 T00920014 52020 IEM_DS3505
ZBHH,2008-05-03 04:00,ZBHH 030400Z AUTO 01016KT 7SM 10/02 A3000 RMK T01000020 IEM_DS3505
ZBHH,2008-05-03 05:00,ZBHH 030500Z AUTO 35016KT 7SM 13/01 A3000 RMK T01300010 IEM_DS3505
ZBHH,2008-05-03 06:00,ZBHH 030600Z AUTO 32010KT 16SM 14/M02 A2997 RMK SLP138 T01441025 57014 IEM_DS3505
ZBHH,2008-05-03 07:00,ZBHH 030700Z AUTO 34012KT 7SM 15/M04 A2997 RMK T01501040 IEM_DS3505
ZBHH,2008-05-03 08:00,ZBHH 030800Z AUTO 31010KT 7SM 15/M05 A2994 RMK T01501050 IEM_DS3505
ZBHH,2008-05-03 09:00,ZBHH 030900Z AUTO 27006G21KT 16SM 16/M10 A2991 RMK SLP115 T01631096 57018 IEM_DS3505
ZBHH,2008-05-03 10:00,ZBHH 031000Z AUTO 32012KT 6SM 16/M14 A2991 RMK T01601140 IEM_DS3505
ZBHH,2008-05-03 11:00,ZBHH 031100Z AUTO 33012KT 6SM 15/M15 A2988 RMK T01501150 IEM_DS3505
ZBHH,2008-05-03 12:00,ZBHH 031200Z AUTO 32004KT 19SM 14/M14 A2988 RMK SLP117 T01411139 57003 IEM_DS3505
ZBHH,2008-05-03 13:00,ZBHH 031300Z AUTO 03006KT 6SM 10/M12 A2991 RMK T01001120 IEM_DS3505
ZBHH,2008-05-03 14:00,ZBHH 031400Z AUTO 05002KT 6SM 08/M13 A2991 RMK T00801130 IEM_DS3505
ZBHH,2008-05-03 15:00,ZBHH 031500Z AUTO 36002KT 19SM 09/M12 A2991 RMK SLP136 T00911121 52002 IEM_DS3505
ZBHH,2008-05-03 16:00,ZBHH 031600Z AUTO 10006KT 6SM 07/M12 A2988 RMK T00701120 IEM_DS3505
ZBHH,2008-05-03 17:00,ZBHH 031700Z AUTO 10004KT 6SM 06/M12 A2988 RMK T00601120 IEM_DS3505
ZBHH,2008-05-03 18:00,ZBHH 031800Z AUTO 02002KT 19SM 08/M11 A2988 RMK SLP108 T00851114 57015 IEM_DS3505
ZBHH,2008-05-03 19:00,ZBHH 031900Z AUTO 09006KT 6SM 06/M11 A2985 RMK T00601110 IEM_DS3505
ZBHH,2008-05-03 20:00,ZBHH 032000Z AUTO 11002KT 6SM 05/M10 A2985 RMK T00501100 IEM_DS3505
ZBHH,2008-05-03 21:00,ZBHH 032100Z AUTO 29002KT 19SM 06/M10 A2983 RMK SLP101 T00631100 57007 IEM_DS3505
ZBHH,2008-05-03 22:00,ZBHH 032200Z AUTO 12002KT 6SM 03/M08 A2985 RMK T00301080 IEM_DS3505
ZBHH,2008-05-03 23:00,ZBHH 032300Z AUTO 13002KT 6SM 06/M09 A2988 RMK T00601090 IEM_DS3505
ZBHH,2008-05-04 00:00,ZBHH 040000Z AUTO 29012KT 19SM 12/M12 A2988 RMK SLP114 T01171118 52018 IEM_DS3505
ZBHH,2008-05-04 01:00,ZBHH 040100Z AUTO 32014G23KT 6SM 13/M11 A2991 RMK T01301110 IEM_DS3505
ZBHH,2008-05-04 02:00,ZBHH 040200Z AUTO 36016G25KT 6SM 14/M08 A2991 RMK T01401080 IEM_DS3505
ZBHH,2008-05-04 03:00,ZBHH 040300Z AUTO 36006KT 19SM 14/M11 A2994 RMK SLP136 T01451110 52015 IEM_DS3505
ZBHH,2008-05-04 04:00,ZBHH 040400Z AUTO 33014G25KT 7SM 15/M14 A2994 RMK T01501140 IEM_DS3505
ZBHH,2008-05-04 05:00,ZBHH 040500Z AUTO 34014KT 7SM 16/M16 A2991 RMK T01601160 IEM_DS3505
ZBHH,2008-05-04 06:00,ZBHH 040600Z AUTO 32010G23KT 19SM 16/M14 A2991 RMK SLP121 T01631142 57011 IEM_DS3505
ZBHH,2008-05-04 07:00,ZBHH 040700Z AUTO 32012KT 7SM 17/M14 A2988 RMK T01701140 IEM_DS3505
ZBHH,2008-05-04 08:00,ZBHH 040800Z AUTO 34016G25KT 7SM 17/M15 A2988 RMK T01701150 IEM_DS3505
ZBHH,2008-05-04 09:00,ZBHH 040900Z AUTO 32008KT 19SM 18/M14 A2985 RMK SLP109 T01751145 57013 IEM_DS3505
ZBHH,2008-05-04 10:00,ZBHH 041000Z AUTO 32014KT 6SM 17/M15 A2985 RMK T01701150 IEM_DS3505
ZBHH,2008-05-04 11:00,ZBHH 041100Z AUTO 34006KT 6SM 16/M15 A2985 RMK T01601150 IEM_DS3505
ZBHH,2008-05-04 12:00,ZBHH 041200Z AUTO 32002KT 19SM 15/M14 A2985 RMK SLP103 T01481143 54000 IEM_DS3505
ZBHH,2008-05-04 13:00,ZBHH 041300Z AUTO 03008KT 6SM 12/M13 A2988 RMK T01201130 IEM_DS3505
ZBHH,2008-05-04 14:00,ZBHH 041400Z AUTO 14004KT 6SM 10/M13 A2988 RMK T01001130 IEM_DS3505
ZBHH,2008-05-04 15:00,ZBHH 041500Z AUTO 20002KT 19SM 11/M14 A2988 RMK SLP111 T01121137 52006 IEM_DS3505
ZBHH,2008-05-04 16:00,ZBHH 041600Z AUTO 07006KT 6SM 07/M11 A2988 RMK T00701110 IEM_DS3505
ZBHH,2008-05-04 17:00,ZBHH 041700Z AUTO 6SM 06/M13 A2988 RMK T00601130 IEM_DS3505
ZBHH,2008-05-04 18:00,ZBHH 041800Z AUTO 11002KT 19SM 06/M11 A2988 RMK SLP109 T00641112 57008 IEM_DS3505
ZBHH,2008-05-04 19:00,ZBHH 041900Z AUTO 07002KT 6SM 03/M13 A2985 RMK T00301130 IEM_DS3505
ZBHH,2008-05-04 20:00,ZBHH 042000Z AUTO 08004KT 6SM 03/M13 A2985 RMK T00301130 IEM_DS3505
ZBHH,2008-05-04 21:00,ZBHH 042100Z AUTO 07002KT 19SM 04/M12 A2983 RMK SLP099 T00441117 57010 IEM_DS3505
ZBHH,2008-05-04 22:00,ZBHH 042200Z AUTO 08004KT 6SM 03/M12 A2983 RMK T00301120 IEM_DS3505
ZBHH,2008-05-04 23:00,ZBHH 042300Z AUTO 10006KT 6SM 06/M11 A2983 RMK T00601110 IEM_DS3505
ZBHH,2008-05-05 00:00,ZBHH 050000Z AUTO 04002KT 19SM 10/M12 A2983 RMK SLP093 T01051122 52001 IEM_DS3505
ZBHH,2008-05-05 01:00,ZBHH 050100Z AUTO 6SM 13/M12 A2983 RMK T01301120 IEM_DS3505
ZBHH,2008-05-05 02:00,ZBHH 050200Z AUTO 6SM 15/M13 A2980 RMK T01501130 IEM_DS3505
ZBHH,2008-05-05 03:00,ZBHH 050300Z AUTO 20008KT 19SM 17/M13 A2977 RMK SLP066 T01731134 57017 IEM_DS3505
ZBHH,2008-05-05 04:00,ZBHH 050400Z AUTO 24012KT 6SM 19/M13 A2974 RMK T01901130 IEM_DS3505
ZBHH,2008-05-05 05:00,ZBHH 050500Z AUTO 25012G21KT 6SM 21/M12 A2971 RMK T02101120 IEM_DS3505
ZBHH,2008-05-05 06:00,ZBHH 050600Z AUTO 22010KT 19SM 22/M12 A2968 RMK SLP030 T02211122 57032 IEM_DS3505
ZBHH,2008-05-05 07:00,ZBHH 050700Z AUTO 23014KT 6SM 23/M11 A2965 RMK T02301110 IEM_DS3505
ZBHH,2008-05-05 08:00,ZBHH 050800Z AUTO 25014KT 6SM 24/M10 A2962 RMK T02401100 IEM_DS3505
ZBHH,2008-05-05 09:00,ZBHH 050900Z AUTO 20004KT 19SM 25/M10 A2959 RMK SLP996 T02501101 57028 IEM_DS3505
ZBHH,2008-05-05 10:00,ZBHH 051000Z AUTO 23010KT 6SM 24/M11 A2959 RMK T02401110 IEM_DS3505
ZBHH,2008-05-05 11:00,ZBHH 051100Z AUTO 24010KT 6SM 23/M10 A2959 RMK T02301100 IEM_DS3505
ZBHH,2008-05-05 12:00,ZBHH 051200Z AUTO 20004KT 16SM 22/M09 A2959 RMK SLP992 T02191088 52002 IEM_DS3505
ZBHH,2008-05-05 13:00,ZBHH 051300Z AUTO 14004KT 6SM 17/M07 A2962 RMK T01701070 IEM_DS3505
ZBHH,2008-05-05 14:00,ZBHH 051400Z AUTO 07004KT 6SM 15/M07 A2962 RMK T01501070 IEM_DS3505
ZBHH,2008-05-05 15:00,ZBHH 051500Z AUTO 07002KT 19SM 15/M06 A2962 RMK SLP004 T01531063 52011 IEM_DS3505
ZBHH,2008-05-05 16:00,ZBHH 051600Z AUTO 06006KT 6SM 12/M07 A2965 RMK T01201070 IEM_DS3505
ZBHH,2008-05-05 17:00,ZBHH 051700Z AUTO 00000KT 6SM 12/M07 A2965 RMK T01201070 IEM_DS3505
ZBHH,2008-05-05 18:00,ZBHH 051800Z AUTO 07002KT 19SM 14/M07 A2965 RMK SLP008 T01361066 52009 IEM_DS3505
ZBHH,2008-05-05 19:00,ZBHH 051900Z AUTO 12002KT 6SM 09/M07 A2968 RMK T00901070 IEM_DS3505
ZBHH,2008-05-05 20:00,ZBHH 052000Z AUTO 10004KT 6SM 09/M07 A2968 RMK T00901070 IEM_DS3505
ZBHH,2008-05-05 21:00,ZBHH 052100Z AUTO 04004KT 19SM 11/M07 A2965 RMK SLP012 T01061071 52003 IEM_DS3505
ZBHH,2008-05-05 22:00,ZBHH 052200Z AUTO 07006KT 6SM 09/M06 A2965 RMK T00901060 IEM_DS3505
ZBHH,2008-05-05 23:00,ZBHH 052300Z AUTO 10004KT 6SM 13/M06 A2968 RMK T01301060 IEM_DS3505
ZBHH,2008-05-06 00:00,ZBHH 060000Z AUTO 09004KT 19SM 17/M04 A2968 RMK SLP013 T01741045 52008 IEM_DS3505
ZBHH,2008-05-06 01:00,ZBHH 060100Z AUTO 09012KT 6SM 21/M07 A2968 RMK T02101070 IEM_DS3505
ZBHH,2008-05-06 02:00,ZBHH 060200Z AUTO 14006KT 6SM 23/M06 A2968 RMK T02301060 IEM_DS3505
ZBHH,2008-05-06 03:00,ZBHH 060300Z AUTO 25004KT 19SM 24/M07 A2968 RMK SLP009 T02381073 57004 IEM_DS3505
ZBHH,2008-05-06 04:00,ZBHH 060400Z AUTO 21006KT 6SM 25/M05 A2965 RMK T02501050 IEM_DS3505
ZBHH,2008-05-06 05:00,ZBHH 060500Z AUTO 20004KT 6SM 26/M02 A2962 RMK T02601020 IEM_DS3505
ZBHH,2008-05-06 06:00,ZBHH 060600Z AUTO 22006KT 9SM 27/M03 A2959 RMK SLP977 T02681029 57026 IEM_DS3505
ZBHH,2008-05-06 07:00,ZBHH 060700Z AUTO 26006KT 7SM 27/M03 A2959 RMK T02701030 IEM_DS3505
ZBHH,2008-05-06 08:00,ZBHH 060800Z AUTO 24008KT 7SM 28/M04 A2956 RMK T02801040 IEM_DS3505
ZBHH,2008-05-06 09:00,ZBHH 060900Z AUTO 25006KT 12SM 27/M04 A2959 RMK SLP979 T02661041 57004 IEM_DS3505
ZBHH,2008-05-06 10:00,ZBHH 061000Z AUTO 24006KT 7SM 26/M04 A2959 RMK T02601040 IEM_DS3505
ZBHH,2008-05-06 11:00,ZBHH 061100Z AUTO 34010KT 7SM 25/M05 A2962 RMK T02501050 IEM_DS3505
ZBHH,2008-05-06 12:00,ZBHH 061200Z AUTO 34010KT 9SM 25/M04 A2962 RMK SLP982 T02481045 52012 IEM_DS3505
ZBHH,2008-05-06 13:00,ZBHH 061300Z AUTO 35021G31KT 7SM 24/M03 A2965 RMK T02401030 IEM_DS3505
ZBHH,2008-05-06 14:00,ZBHH 061400Z AUTO 36017KT 7SM 23/M04 A2971 RMK T02301040 IEM_DS3505
ZBHH,2008-05-06 15:00,ZBHH 061500Z AUTO 36004G25KT 12SM 22/M06 A2974 RMK SLP012 T02191059 52033 IEM_DS3505
ZBHH,2008-05-06 16:00,ZBHH 061600Z AUTO 05012KT 7SM 21/M03 A2977 RMK T02101030 IEM_DS3505
ZBHH,2008-05-06 17:00,ZBHH 061700Z AUTO 09006KT 6SM 20/M01 A2977 RMK T02001010 IEM_DS3505
ZBHH,2008-05-06 18:00,ZBHH 061800Z AUTO 20004KT 12SM 20/M02 A2977 RMK SLP025 T01991018 52013 IEM_DS3505
ZBHH,2008-05-06 19:00,ZBHH 061900Z AUTO 6SM 17/00 A2983 RMK T01700000 IEM_DS3505
ZBHH,2008-05-06 20:00,ZBHH 062000Z AUTO 11008KT 6SM 17/M03 A2983 RMK T01701030 IEM_DS3505
ZBHH,2008-05-06 21:00,ZBHH 062100Z AUTO 04004KT 19SM 18/M03 A2983 RMK SLP053 T01771026 52021 IEM_DS3505
ZBHH,2008-05-06 22:00,ZBHH 062200Z AUTO 08006KT 6SM 15/M03 A2985 RMK T01501030 IEM_DS3505
ZBHH,2008-05-06 23:00,ZBHH 062300Z AUTO 09002KT 6SM 17/M01 A2988 RMK T01701010 IEM_DS3505
ZBHH,2008-05-07 00:00,ZBHH 070000Z AUTO 02004KT 12SM 20/M04 A2988 RMK SLP076 T01951040 52020 IEM_DS3505
ZBHH,2008-05-07 01:00,ZBHH 070100Z AUTO 08010KT 7SM 20/M04 A2988 RMK T02001040 IEM_DS3505
ZBHH,2008-05-07 02:00,ZBHH 070200Z AUTO 11010KT 7SM 20/M03 A2991 RMK T02001030 IEM_DS3505
ZBHH,2008-05-07 03:00,ZBHH 070300Z AUTO 09006KT 9SM 21/M02 A2991 RMK SLP083 T02081017 52003 IEM_DS3505
ZBHH,2008-05-07 04:00,ZBHH 070400Z AUTO 12006KT 7SM 21/M03 A2991 RMK T02101030 IEM_DS3505
ZBHH,2008-05-07 05:00,ZBHH 070500Z AUTO 7SM 22/M04 A2991 RMK T02201040 IEM_DS3505
ZBHH,2008-05-07 06:00,ZBHH 070600Z AUTO 32008KT 12SM 24/M07 A2988 RMK SLP074 T02371074 57006 IEM_DS3505
ZBHH,2008-05-07 07:00,ZBHH 070700Z AUTO 7SM 24/M05 A2988 RMK T02401050 IEM_DS3505
ZBHH,2008-05-07 08:00,ZBHH 070800Z AUTO 36014G23KT 6SM 23/M07 A2988 RMK T02301070 IEM_DS3505
ZBHH,2008-05-07 09:00,ZBHH 070900Z AUTO 02004KT 12SM 22/M07 A2991 RMK SLP088 T02211066 52005 IEM_DS3505
ZBHH,2008-05-07 10:00,ZBHH 071000Z AUTO 36016KT 6SM 21/M08 A2991 RMK T02101080 IEM_DS3505
ZBHH,2008-05-07 11:00,ZBHH 071100Z AUTO 01014KT 6SM 19/M08 A2994 RMK T01901080 IEM_DS3505
ZBHH,2008-05-07 12:00,ZBHH 071200Z AUTO 04006KT 12SM 18/M07 A2997 RMK SLP113 T01761070 52017 IEM_DS3505
ZBHH,2008-05-07 13:00,ZBHH 071300Z AUTO 03012KT 6SM 16/M07 A3000 RMK T01601070 IEM_DS3505
ZBHH,2008-05-07 14:00,ZBHH 071400Z AUTO 03008KT 6SM 15/M08 A3003 RMK T01501080 IEM_DS3505
ZBHH,2008-05-07 15:00,ZBHH 071500Z AUTO 07006KT 19SM 14/M10 A3006 RMK SLP146 T01411099 52025 IEM_DS3505
ZBHH,2008-05-07 16:00,ZBHH 071600Z AUTO 04008KT 6SM 13/M12 A3006 RMK T01301120 IEM_DS3505
ZBHH,2008-05-07 17:00,ZBHH 071700Z AUTO 7SM 10/M11 A3009 RMK T01001110 IEM_DS3505
ZBHH,2008-05-07 18:00,ZBHH 071800Z AUTO 04004KT 19SM 12/M12 A3009 RMK SLP159 T01181118 52013 IEM_DS3505
ZBHH,2008-05-07 19:00,ZBHH 071900Z AUTO 03008KT 7SM 09/M13 A3009 RMK T00901130 IEM_DS3505
ZBHH,2008-05-07 20:00,ZBHH 072000Z AUTO 06006KT 7SM 06/M12 A3009 RMK T00601120 IEM_DS3505
ZBHH,2008-05-07 21:00,ZBHH 072100Z AUTO 09002KT 19SM 07/M12 A3012 RMK SLP180 T00701117 52006 IEM_DS3505
ZBHH,2008-05-07 22:00,ZBHH 072200Z AUTO 10006KT 6SM 05/M13 A3012 RMK T00501130 IEM_DS3505
ZBHH,2008-05-07 23:00,ZBHH 072300Z AUTO 07006KT 6SM 09/M13 A3012 RMK T00901130 IEM_DS3505
ZBHH,2008-05-08 00:00,ZBHH 080000Z AUTO 11002KT 16SM 12/M11 A3012 RMK SLP181 T01171112 52002 IEM_DS3505
ZBHH,2008-05-08 01:00,ZBHH 080100Z AUTO 09004KT 6SM 13/M14 A3009 RMK T01301140 IEM_DS3505
ZBHH,2008-05-08 02:00,ZBHH 080200Z AUTO 10004KT 6SM 14/M14 A3009 RMK T01401140 IEM_DS3505
ZBHH,2008-05-08 03:00,ZBHH 080300Z AUTO 04004KT 12SM 16/M12 A3006 RMK SLP168 T01581116 57011 IEM_DS3505
ZBHH,2008-05-08 04:00,ZBHH 080400Z AUTO 14008KT 6SM 17/M15 A3003 RMK T01701150 IEM_DS3505
ZBHH,2008-05-08 05:00,ZBHH 080500Z AUTO 12004KT 6SM 17/M16 A3003 RMK T01701160 IEM_DS3505
ZBHH,2008-05-08 06:00,ZBHH 080600Z AUTO 09002KT 12SM 17/M12 A3000 RMK SLP143 T01731124 57023 IEM_DS3505
ZBHH,2008-05-08 07:00,ZBHH 080700Z AUTO 23010KT 6SM 17/M11 A3000 RMK T01701110 IEM_DS3505
ZBHH,2008-05-08 08:00,ZBHH 080800Z AUTO 25006KT 6SM 16/M08 A3000 RMK T01601080 IEM_DS3505
ZBHH,2008-05-08 09:00,ZBHH 080900Z AUTO 34008KT 9SM 12/M01 A3000 RMK SLP167 T01231009 52002 IEM_DS3505
ZBHH,2008-05-08 10:00,ZBHH 081000Z AUTO 36012KT 7SM 10/02 A3003 RMK T01000020 IEM_DS3505
ZBHH,2008-05-08 11:00,ZBHH 081100Z AUTO 03014KT 7SM 08/04 A3006 RMK T00800040 IEM_DS3505
ZBHH,2008-05-08 12:00,ZBHH 081200Z AUTO 04004KT 7SM 07/04 A3006 RMK 60008 SLP187 T00710044 52016 IEM_DS3505
ZBHH,2008-05-08 13:00,ZBHH 081300Z AUTO 05010KT 7SM 08/04 A3006 RMK T00800040 IEM_DS3505
ZBHH,2008-05-08 14:00,ZBHH 081400Z AUTO 03008KT 7SM 08/05 A3006 RMK T00800050 IEM_DS3505
ZBHH,2008-05-08 15:00,ZBHH 081500Z AUTO 04002KT 7SM 08/03 A3003 RMK SLP171 T00810034 57004 IEM_DS3505
ZBHH,2008-05-08 16:00,ZBHH 081600Z AUTO 7SM 09/03 A3003 RMK T00900030 IEM_DS3505
ZBHH,2008-05-08 17:00,ZBHH 081700Z AUTO 13004KT 7SM 08/04 A3000 RMK T00800040 IEM_DS3505
ZBHH,2008-05-08 18:00,ZBHH 081800Z AUTO 09004KT 6SM 08/04 A3000 RMK 60008 SLP156 T00770041 57011 IEM_DS3505
ZBHH,2008-05-08 19:00,ZBHH 081900Z AUTO 00000KT 6SM 06/05 A3000 RMK T00600050 IEM_DS3505
ZBHH,2008-05-08 20:00,ZBHH 082000Z AUTO 07004KT 7SM 07/04 A2997 RMK T00700040 IEM_DS3505
ZBHH,2008-05-08 21:00,ZBHH 082100Z AUTO 00000KT 6SM 07/05 A2997 RMK 70020 SLP159 T00670047 57009 IEM_DS3505
ZBHH,2008-05-08 22:00,ZBHH 082200Z AUTO 07004KT 7SM 07/03 A2997 RMK T00700030 IEM_DS3505
ZBHH,2008-05-08 23:00,ZBHH 082300Z AUTO 12002KT 7SM 07/04 A2997 RMK T00700040 IEM_DS3505
ZBHH,2008-05-09 00:00,ZBHH 090000Z AUTO 00000KT 6SM 08/05 A3000 RMK 60004 70021 SLP172 T00780051 52003 IEM_DS3505
ZBHH,2008-05-09 01:00,ZBHH 090100Z AUTO 26004KT 7SM 09/05 A3000 RMK T00900050 IEM_DS3505
ZBHH,2008-05-09 02:00,ZBHH 090200Z AUTO 29006KT 7SM 09/04 A3000 RMK T00900040 IEM_DS3505
ZBHH,2008-05-09 03:00,ZBHH 090300Z AUTO 29006KT 19SM 11/02 RMK SLP170 T01120022 52007 IEM_DS3505
ZBHH,2008-05-09 04:00,ZBHH 090400Z AUTO 35012KT 7SM 12/02 A3000 RMK T01200020 IEM_DS3505
ZBHH,2008-05-09 05:00,ZBHH 090500Z AUTO 35017KT 7SM 15/00 A2997 RMK T01500000 IEM_DS3505
ZBHH,2008-05-09 06:00,ZBHH 090600Z AUTO 32016KT 16SM 15/00 A2997 RMK SLP151 T01520002 57009 IEM_DS3505
ZBHH,2008-05-09 07:00,ZBHH 090700Z AUTO 35019KT 7SM 16/M01 A2997 RMK T01601010 IEM_DS3505
ZBHH,2008-05-09 08:00,ZBHH 090800Z AUTO 34021KT 7SM 14/M04 A3000 RMK T01401040 IEM_DS3505
ZBHH,2008-05-09 09:00,ZBHH 090900Z AUTO 32012G27KT 19SM 14/M05 A3000 RMK SLP170 T01351046 52011 IEM_DS3505
ZBHH,2008-05-09 10:00,ZBHH 091000Z AUTO 35017G27KT 6SM 13/M09 A3003 RMK T01301090 IEM_DS3505
ZBHH,2008-05-09 11:00,ZBHH 091100Z AUTO 35014KT 6SM 12/M10 A3006 RMK T01201100 IEM_DS3505
ZBHH,2008-05-09 12:00,ZBHH 091200Z AUTO 32010KT 19SM 10/M13 A3006 RMK SLP197 T01051128 52020 IEM_DS3505
ZBHH,2008-05-09 13:00,ZBHH 091300Z AUTO 33014G23KT 6SM 10/M15 A3012 RMK T01001150 IEM_DS3505
ZBHH,2008-05-09 14:00,ZBHH 091400Z AUTO 34017KT 6SM 09/M18 A3015 RMK T00901180 IEM_DS3505
ZBHH,2008-05-09 15:00,ZBHH 091500Z AUTO 29006KT 19SM 07/M13 A3015 RMK SLP220 T00721131 52020 IEM_DS3505
ZBHH,2008-05-09 16:00,ZBHH 091600Z AUTO 35008KT 6SM 06/M08 A3015 RMK T00601080 IEM_DS3505
ZBHH,2008-05-09 17:00,ZBHH 091700Z AUTO 02004KT 7SM 04/M06 A3015 RMK T00401060 IEM_DS3505
ZBHH,2008-05-09 18:00,ZBHH 091800Z AUTO 29006KT 19SM 05/M10 A3012 RMK SLP208 T00471102 57007 IEM_DS3505
ZBHH,2008-05-09 19:00,ZBHH 091900Z AUTO 7SM 02/M05 A3012 RMK T00201050 IEM_DS3505
ZBHH,2008-05-09 20:00,ZBHH 092000Z AUTO 7SM 01/M06 A3012 RMK T00101060 IEM_DS3505
ZBHH,2008-05-09 21:00,ZBHH 092100Z AUTO 32002KT 19SM 04/M10 A3012 RMK 70001 SLP210 T00381103 57004 IEM_DS3505
ZBHH,2008-05-09 22:00,ZBHH 092200Z AUTO 6SM 01/M06 A3012 RMK T00101060 IEM_DS3505
ZBHH,2008-05-09 23:00,ZBHH 092300Z AUTO 6SM 03/M08 A3015 RMK T00301080 IEM_DS3505
ZBHH,2008-05-10 00:00,ZBHH 100000Z AUTO 32006KT 16SM 07/M12 A3015 RMK SLP220 T00681124 52009 IEM_DS3505
ZBHH,2008-05-10 01:00,ZBHH 100100Z AUTO 19006KT 6SM 08/M11 A3012 RMK T00801110 IEM_DS3505
ZBHH,2008-05-10 02:00,ZBHH 100200Z AUTO 31010KT 6SM 10/M14 A3012 RMK T01001140 IEM_DS3505
ZBHH,2008-05-10 03:00,ZBHH 100300Z AUTO 32006G21KT 19SM 10/M13 A3012 RMK SLP207 T01051128 57010 IEM_DS3505
ZBHH,2008-05-10 04:00,ZBHH 100400Z AUTO 32016KT 7SM 11/M13 A3009 RMK T01101130 IEM_DS3505
ZBHH,2008-05-10 05:00,ZBHH 100500Z AUTO 33016KT 7SM 11/M10 A3006 RMK T01101100 IEM_DS3505
ZBHH,2008-05-10 06:00,ZBHH 100600Z AUTO 32008KT 19SM 09/M06 A3006 RMK SLP204 T00931061 57011 IEM_DS3505
ZBHH,2008-05-10 07:00,ZBHH 100700Z AUTO 33012KT 7SM 10/M07 A3006 RMK T01001070 IEM_DS3505
ZBHH,2008-05-10 08:00,ZBHH 100800Z AUTO 34017KT 7SM 10/M06 A3003 RMK T01001060 IEM_DS3505
ZBHH,2008-05-10 09:00,ZBHH 100900Z AUTO 32010KT 19SM 08/M03 A3003 RMK SLP189 T00851027 57016 IEM_DS3505
ZBHH,2008-05-10 10:00,ZBHH 101000Z AUTO 32008KT 7SM 10/M06 A3000 RMK T01001060 IEM_DS3505
ZBHH,2008-05-10 11:00,ZBHH 101100Z AUTO 35012KT 7SM 09/M05 A3000 RMK T00901050 IEM_DS3505
ZBHH,2008-05-10 12:00,ZBHH 101200Z AUTO 22002KT 12SM 09/M05 A3000 RMK SLP178 T00881054 57003 IEM_DS3505
ZBHH,2008-05-10 13:00,ZBHH 101300Z AUTO 22004KT 7SM 08/M04 A3003 RMK T00801040 IEM_DS3505
ZBHH,2008-05-10 14:00,ZBHH 101400Z AUTO 24006KT 6SM 08/M04 A3003 RMK T00801040 IEM_DS3505
ZBHH,2008-05-10 15:00,ZBHH 101500Z AUTO 29002KT 19SM 07/M04 A3003 RMK SLP182 T00711043 52007 IEM_DS3505
ZBHH,2008-05-10 16:00,ZBHH 101600Z AUTO 6SM 05/M05 A3003 RMK T00501050 IEM_DS3505
ZBHH,2008-05-10 17:00,ZBHH 101700Z AUTO 28004KT 7SM 04/M06 A3000 RMK T00401060 IEM_DS3505
ZBHH,2008-05-10 18:00,ZBHH 101800Z AUTO 32004KT 19SM 05/M06 A3000 RMK SLP178 T00491057 57010 IEM_DS3505
ZBHH,2008-05-10 19:00,ZBHH 101900Z AUTO 02006KT 7SM 04/M05 A3000 RMK T00401050 IEM_DS3505
ZBHH,2008-05-10 20:00,ZBHH 102000Z AUTO 7SM 04/M04 A3000 RMK T00401040 IEM_DS3505
ZBHH,2008-05-10 21:00,ZBHH 102100Z AUTO 29006KT 19SM 04/M05 A3000 RMK SLP178 T00421050 57003 IEM_DS3505
ZBHH,2008-05-10 22:00,ZBHH 102200Z AUTO 24004KT 7SM 04/M04 A3000 RMK T00401040 IEM_DS3505
ZBHH,2008-05-10 23:00,ZBHH 102300Z AUTO 30010KT 7SM 05/M03 A3000 RMK T00501030 IEM_DS3505
ZBHH,2008-05-11 00:00,ZBHH 110000Z AUTO 29010KT 19SM 06/M04 A3000 RMK SLP179 T00561040 52004 IEM_DS3505
ZBHH,2008-05-11 01:00,ZBHH 110100Z AUTO 29014KT 7SM 07/M04 A3000 RMK T00701040 IEM_DS3505
ZBHH,2008-05-11 02:00,ZBHH 110200Z AUTO 30008KT 7SM 06/M02 A3000 RMK T00601020 IEM_DS3505
ZBHH,2008-05-11 03:00,ZBHH 110300Z AUTO 22008KT 19SM 05/02 A3000 RMK SLP181 T00520017 57002 IEM_DS3505
ZBHH,2008-05-11 04:00,ZBHH 110400Z AUTO 28010KT 7SM 07/00 A2997 RMK T00700000 IEM_DS3505
ZBHH,2008-05-11 05:00,ZBHH 110500Z AUTO 32006KT 7SM 06/01 A2997 RMK T00600010 IEM_DS3505
ZBHH,2008-05-11 06:00,ZBHH 110600Z AUTO 29012KT 19SM 07/M01 A2994 RMK 60001 SLP164 T00731006 57015 IEM_DS3505
ZBHH,2008-05-11 07:00,ZBHH 110700Z AUTO 27004KT 7SM 06/M01 A2994 RMK T00601010 IEM_DS3505
ZBHH,2008-05-11 08:00,ZBHH 110800Z AUTO 35014KT 7SM 06/00 A2994 RMK T00600000 IEM_DS3505
ZBHH,2008-05-11 09:00,ZBHH 110900Z AUTO 34006G29KT 19SM 08/M02 A2997 RMK SLP171 T00831021 52006 IEM_DS3505
ZBHH,2008-05-11 10:00,ZBHH 111000Z AUTO 03012G21KT 7SM 08/M02 A2997 RMK T00801020 IEM_DS3505
ZBHH,2008-05-11 11:00,ZBHH 111100Z AUTO 02012KT 7SM 07/M01 A3000 RMK T00701010 IEM_DS3505
ZBHH,2008-05-11 12:00,ZBHH 111200Z AUTO 18002KT 19SM 06/M02 A3006 RMK 60002 SLP204 T00581016 52027 IEM_DS3505
ZBHH,2008-05-11 13:00,ZBHH 111300Z AUTO 03006KT 7SM 05/M01 A3009 RMK T00501010 IEM_DS3505
ZBHH,2008-05-11 14:00,ZBHH 111400Z AUTO 35006KT 7SM 05/00 A3012 RMK T00500000 IEM_DS3505
ZBHH,2008-05-11 15:00,ZBHH 111500Z AUTO 34006KT 19SM 06/M01 A3012 RMK SLP233 T00551008 52024 IEM_DS3505
ZBHH,2008-05-11 16:00,ZBHH 111600Z AUTO 34008KT 6SM 05/00 A3015 RMK T00500000 IEM_DS3505
ZBHH,2008-05-11 17:00,ZBHH 111700Z AUTO 36008KT 7SM 05/00 A3015 RMK T00500000 IEM_DS3505
ZBHH,2008-05-11 18:00,ZBHH 111800Z AUTO 32008KT 19SM 06/M01 A3015 RMK SLP229 T00591008 52002 IEM_DS3505
ZBHH,2008-05-11 19:00,ZBHH 111900Z AUTO 34008KT 7SM 05/01 A3015 RMK T00500010 IEM_DS3505
ZBHH,2008-05-11 20:00,ZBHH 112000Z AUTO 02008KT 7SM 05/M01 A3015 RMK T00501010 IEM_DS3505
ZBHH,2008-05-11 21:00,ZBHH 112100Z AUTO 36006KT 19SM 06/M01 A3015 RMK 70003 SLP234 T00591008 52006 IEM_DS3505
ZBHH,2008-05-11 22:00,ZBHH 112200Z AUTO 33010KT 7SM 05/00 A3015 RMK T00500000 IEM_DS3505
ZBHH,2008-05-11 23:00,ZBHH 112300Z AUTO 15006KT 7SM 05/00 A3018 RMK T00500000 IEM_DS3505
ZBHH,2008-05-12 00:00,ZBHH 120000Z AUTO 36004KT 19SM 07/M01 A3021 RMK 70003 SLP249 T00741010 52011 IEM_DS3505
ZBHH,2008-05-12 01:00,ZBHH 120100Z AUTO 04012KT 7SM 09/M02 A3021 RMK T00901020 IEM_DS3505
ZBHH,2008-05-12 02:00,ZBHH 120200Z AUTO 03010KT 7SM 10/M02 A3021 RMK T01001020 IEM_DS3505
ZBHH,2008-05-12 03:00,ZBHH 120300Z AUTO 02006KT 19SM 10/M01 A3021 RMK SLP252 T01051012 52009 IEM_DS3505
ZBHH,2008-05-12 04:00,ZBHH 120400Z AUTO 05014KT 7SM 11/M02 A3021 RMK T01101020 IEM_DS3505
ZBHH,2008-05-12 05:00,ZBHH 120500Z AUTO 03012KT 7SM 12/M02 A3021 RMK T01201020 IEM_DS3505
ZBHH,2008-05-12 06:00,ZBHH 120600Z AUTO 04006G17KT 19SM 13/M04 A3018 RMK SLP228 T01321035 57015 IEM_DS3505
ZBHH,2008-05-12 07:00,ZBHH 120700Z AUTO 06010KT 7SM 13/M04 A3015 RMK T01301040 IEM_DS3505
ZBHH,2008-05-12 08:00,ZBHH 120800Z AUTO 05010KT 7SM 14/M04 A3012 RMK T01401040 IEM_DS3505
ZBHH,2008-05-12 09:00,ZBHH 120900Z AUTO 04006KT 19SM 14/M02 A3015 RMK SLP214 T01441025 57010 IEM_DS3505
ZBHH,2008-05-12 10:00,ZBHH 121000Z AUTO 35012KT 7SM 13/M02 A3015 RMK T01301020 IEM_DS3505
ZBHH,2008-05-12 11:00,ZBHH 121100Z AUTO 35010KT 7SM 12/M02 A3015 RMK T01201020 IEM_DS3505
ZBHH,2008-05-12 12:00,ZBHH 121200Z AUTO 07002KT 19SM 11/M04 A3015 RMK SLP222 T01131036 52004 IEM_DS3505
ZBHH,2008-05-12 13:00,ZBHH 121300Z AUTO 31004KT 6SM 09/M01 A3018 RMK T00901010 IEM_DS3505
ZBHH,2008-05-12 14:00,ZBHH 121400Z AUTO 34008KT 6SM 10/M01 A3018 RMK T01001010 IEM_DS3505
ZBHH,2008-05-12 15:00,ZBHH 121500Z AUTO 22002KT 19SM 08/M03 A3018 RMK SLP232 T00801032 52008 IEM_DS3505
ZBHH,2008-05-12 16:00,ZBHH 121600Z AUTO 6SM 04/M02 A3018 RMK T00401020 IEM_DS3505
ZBHH,2008-05-12 17:00,ZBHH 121700Z AUTO 10004KT 6SM 03/M02 A3018 RMK T00301020 IEM_DS3505
ZBHH,2008-05-12 18:00,ZBHH 121800Z AUTO 34002KT 19SM 05/M03 A3018 RMK SLP227 T00511029 57005 IEM_DS3505
ZBHH,2008-05-12 19:00,ZBHH 121900Z AUTO 7SM 03/M02 A3018 RMK T00301020 IEM_DS3505
ZBHH,2008-05-12 20:00,ZBHH 122000Z AUTO 11004KT 7SM 02/M03 A3015 RMK T00201030 IEM_DS3505
ZBHH,2008-05-12 21:00,ZBHH 122100Z AUTO 04002KT 19SM 03/M03 A3018 RMK SLP226 T00321027 57002 IEM_DS3505
ZBHH,2008-05-12 22:00,ZBHH 122200Z AUTO 06004KT 6SM 02/M03 A3018 RMK T00201030 IEM_DS3505
ZBHH,2008-05-12 23:00,ZBHH 122300Z AUTO 6SM 06/M03 A3018 RMK T00601030 IEM_DS3505
ZBHH,2008-05-13 00:00,ZBHH 130000Z AUTO 04002KT 19SM 09/M03 A3018 RMK SLP224 T00941029 52005 IEM_DS3505
ZBHH,2008-05-13 01:00,ZBHH 130100Z AUTO 6SM 12/M05 A3018 RMK T01201050 IEM_DS3505
ZBHH,2008-05-13 02:00,ZBHH 130200Z AUTO 24002KT 6SM 14/M04 A3015 RMK T01401040 IEM_DS3505
ZBHH,2008-05-13 03:00,ZBHH 130300Z AUTO 25006KT 19SM 15/M06 A3015 RMK SLP207 T01481056 57011 IEM_DS3505
ZBHH,2008-05-13 04:00,ZBHH 130400Z AUTO 27006KT 6SM 16/M07 A3012 RMK T01601070 IEM_DS3505
ZBHH,2008-05-13 05:00,ZBHH 130500Z AUTO 26010KT 6SM 16/M07 A3009 RMK T01601070 IEM_DS3505
ZBHH,2008-05-13 06:00,ZBHH 130600Z AUTO 25008KT 12SM 17/M07 A3003 RMK SLP173 T01681069 57032 IEM_DS3505
ZBHH,2008-05-13 07:00,ZBHH 130700Z AUTO 22008KT 6SM 17/M07 A3000 RMK T01701070 IEM_DS3505
ZBHH,2008-05-13 08:00,ZBHH 130800Z AUTO 23010KT 6SM 17/M05 A2997 RMK T01701050 IEM_DS3505
ZBHH,2008-05-13 09:00,ZBHH 130900Z AUTO 20006KT 19SM 19/M05 A2997 RMK SLP143 T01861048 57027 IEM_DS3505
ZBHH,2008-05-13 10:00,ZBHH 131000Z AUTO 23006KT 6SM 18/M05 A2991 RMK T01801050 IEM_DS3505
ZBHH,2008-05-13 11:00,ZBHH 131100Z AUTO 19004KT 6SM 17/M05 A2991 RMK T01701050 IEM_DS3505
ZBHH,2008-05-13 12:00,ZBHH 131200Z AUTO 16004KT 19SM 17/M05 A2988 RMK SLP108 T01701049 57021 IEM_DS3505
ZBHH,2008-05-13 13:00,ZBHH 131300Z AUTO 15004KT 7SM 15/M04 A2988 RMK T01501040 IEM_DS3505
ZBHH,2008-05-13 14:00,ZBHH 131400Z AUTO 00000KT 7SM 12/M03 A2991 RMK T01201030 IEM_DS3505
ZBHH,2008-05-13 15:00,ZBHH 131500Z AUTO 22002KT 19SM 14/M03 A2988 RMK SLP105 T01351033 52001 IEM_DS3505
ZBHH,2008-05-13 16:00,ZBHH 131600Z AUTO 36004KT 6SM 10/M02 A2988 RMK T01001020 IEM_DS3505
ZBHH,2008-05-13 17:00,ZBHH 131700Z AUTO 00000KT 6SM 08/M01 A2985 RMK T00801010 IEM_DS3505
ZBHH,2008-05-13 18:00,ZBHH 131800Z AUTO 09002KT 19SM 09/M02 A2983 RMK SLP088 T00891015 57020 IEM_DS3505
ZBHH,2008-05-13 19:00,ZBHH 131900Z AUTO 10004KT 7SM 06/M03 A2980 RMK T00601030 IEM_DS3505
ZBHH,2008-05-13 20:00,ZBHH 132000Z AUTO 6SM 06/M03 A2983 RMK T00601030 IEM_DS3505
ZBHH,2008-05-13 21:00,ZBHH 132100Z AUTO 00000KT 19SM 07/M02 A2980 RMK SLP085 T00711023 57003 IEM_DS3505
ZBHH,2008-05-13 22:00,ZBHH 132200Z AUTO 6SM 05/M02 A2983 RMK T00501020 IEM_DS3505
ZBHH,2008-05-13 23:00,ZBHH 132300Z AUTO 01010KT 6SM 12/M03 A2983 RMK T01201030 IEM_DS3505
ZBHH,2008-05-14 00:00,ZBHH 140000Z AUTO 09012KT 12SM 15/M04 A2983 RMK SLP080 T01541035 52008 IEM_DS3505
ZBHH,2008-05-14 01:00,ZBHH 140100Z AUTO 04008KT 6SM 17/M04 A2985 RMK T01701040 IEM_DS3505
ZBHH,2008-05-14 02:00,ZBHH 140200Z AUTO 03017KT 6SM 19/M05 A2985 RMK T01901050 IEM_DS3505
ZBHH,2008-05-14 03:00,ZBHH 140300Z AUTO 04010KT 12SM 20/M04 A2988 RMK SLP096 T02001043 52017 IEM_DS3505
ZBHH,2008-05-14 04:00,ZBHH 140400Z AUTO 03016G25KT 6SM 21/M06 A2988 RMK T02101060 IEM_DS3505
ZBHH,2008-05-14 05:00,ZBHH 140500Z AUTO 02016KT 7SM 21/M06 A2988 RMK T02101060 IEM_DS3505
ZBHH,2008-05-14 06:00,ZBHH 140600Z AUTO 34008G21KT 12SM 22/M07 A2988 RMK SLP098 T02191068 57004 IEM_DS3505
ZBHH,2008-05-14 07:00,ZBHH 140700Z AUTO 03014G25KT 7SM 22/M05 A2985 RMK T02201050 IEM_DS3505
ZBHH,2008-05-14 08:00,ZBHH 140800Z AUTO 33010KT 7SM 22/M06 A2985 RMK T02201060 IEM_DS3505
ZBHH,2008-05-14 09:00,ZBHH 140900Z AUTO 29006KT 12SM 22/M06 A2985 RMK SLP095 T02221056 57005 IEM_DS3505
ZBHH,2008-05-14 10:00,ZBHH 141000Z AUTO 35008KT 7SM 22/M06 A2985 RMK T02201060 IEM_DS3505
ZBHH,2008-05-14 11:00,ZBHH 141100Z AUTO 02010KT 7SM 21/M06 A2985 RMK T02101060 IEM_DS3505
ZBHH,2008-05-14 12:00,ZBHH 141200Z AUTO 07004KT 16SM 20/M05 A2988 RMK SLP085 T01961054 52002 IEM_DS3505
ZBHH,2008-05-14 13:00,ZBHH 141300Z AUTO 05010KT 7SM 18/M04 A2988 RMK T01801040 IEM_DS3505
ZBHH,2008-05-14 14:00,ZBHH 141400Z AUTO 16004KT 6SM 15/M04 A2991 RMK T01501040 IEM_DS3505
ZBHH,2008-05-14 15:00,ZBHH 141500Z AUTO 18002KT 16SM 17/M03 A2991 RMK SLP097 T01691027 52014 IEM_DS3505
ZBHH,2008-05-14 16:00,ZBHH 141600Z AUTO 07006KT 6SM 14/M03 A2991 RMK T01401030 IEM_DS3505
ZBHH,2008-05-14 17:00,ZBHH 141700Z AUTO 08004KT 7SM 13/M03 A2991 RMK T01301030 IEM_DS3505
ZBHH,2008-05-14 18:00,ZBHH 141800Z AUTO 09002KT 16SM 13/M02 A2991 RMK SLP099 T01301017 57002 IEM_DS3505
ZBHH,2008-05-14 19:00,ZBHH 141900Z AUTO 09006KT 7SM 10/M02 A2991 RMK T01001020 IEM_DS3505
ZBHH,2008-05-14 20:00,ZBHH 142000Z AUTO 09004KT 7SM 10/M02 A2991 RMK T01001020 IEM_DS3505
ZBHH,2008-05-14 21:00,ZBHH 142100Z AUTO 07002KT 19SM 10/M02 A2991 RMK SLP106 T01051025 52002 IEM_DS3505
ZBHH,2008-05-14 22:00,ZBHH 142200Z AUTO 06006KT 6SM 09/M02 A2994 RMK T00901020 IEM_DS3505
ZBHH,2008-05-14 23:00,ZBHH 142300Z AUTO 09006KT 6SM 12/M02 A2994 RMK T01201020 IEM_DS3505
ZBHH,2008-05-15 00:00,ZBHH 150000Z AUTO 09002KT 16SM 15/M01 A2994 RMK SLP115 T01461007 52011 IEM_DS3505
ZBHH,2008-05-15 01:00,ZBHH 150100Z AUTO 7SM 17/M01 A2997 RMK T01701010 IEM_DS3505
ZBHH,2008-05-15 02:00,ZBHH 150200Z AUTO 7SM 17/M02 A2997 RMK T01701020 IEM_DS3505
ZBHH,2008-05-15 03:00,ZBHH 150300Z AUTO 11004KT 12SM 18/M02 A2994 RMK SLP097 T01841025 57014 IEM_DS3505
ZBHH,2008-05-15 04:00,ZBHH 150400Z AUTO 22004KT 7SM 20/M04 A2991 RMK T02001040 IEM_DS3505
ZBHH,2008-05-15 05:00,ZBHH 150500Z AUTO 7SM 22/M04 A2985 RMK T02201040 IEM_DS3505
ZBHH,2008-05-15 06:00,ZBHH 150600Z AUTO 36006KT 19SM 23/M04 A2985 RMK 60000 SLP073 T02301042 57020 IEM_DS3505
ZBHH,2008-05-15 07:00,ZBHH 150700Z AUTO 36012KT 7SM 23/M01 A2980 RMK T02301010 IEM_DS3505
ZBHH,2008-05-15 08:00,ZBHH 150800Z AUTO 34008KT 7SM 24/M02 A2977 RMK T02401020 IEM_DS3505
ZBHH,2008-05-15 09:00,ZBHH 150900Z AUTO 34004KT 19SM 24/M02 A2977 RMK SLP049 T02391018 57024 IEM_DS3505
ZBHH,2008-05-15 10:00,ZBHH 151000Z AUTO 35014KT 7SM 23/M06 A2977 RMK T02301060 IEM_DS3505
ZBHH,2008-05-15 11:00,ZBHH 151100Z AUTO 02014KT 6SM 21/M07 A2980 RMK T02101070 IEM_DS3505
ZBHH,2008-05-15 12:00,ZBHH 151200Z AUTO 07004KT 19SM 20/M06 A2983 RMK SLP070 T02011057 52019 IEM_DS3505
ZBHH,2008-05-15 13:00,ZBHH 151300Z AUTO 07004KT 6SM 18/M04 A2985 RMK T01801040 IEM_DS3505
ZBHH,2008-05-15 14:00,ZBHH 151400Z AUTO 6SM 17/M04 A2985 RMK T01701040 IEM_DS3505
ZBHH,2008-05-15 15:00,ZBHH 151500Z AUTO 36002KT 19SM 17/M05 A2988 RMK SLP083 T01721047 52013 IEM_DS3505
ZBHH,2008-05-15 16:00,ZBHH 151600Z AUTO 04006KT 6SM 15/M05 A2988 RMK T01501050 IEM_DS3505
ZBHH,2008-05-15 17:00,ZBHH 151700Z AUTO 03008KT 7SM 14/M05 A2985 RMK T01401050 IEM_DS3505
ZBHH,2008-05-15 18:00,ZBHH 151800Z AUTO 32002KT 19SM 12/M04 A2985 RMK SLP078 T01181044 57006 IEM_DS3505
ZBHH,2008-05-15 19:00,ZBHH 151900Z AUTO 06006KT 7SM 10/M05 A2985 RMK T01001050 IEM_DS3505
ZBHH,2008-05-15 20:00,ZBHH 152000Z AUTO 08004KT 7SM 08/M05 A2985 RMK T00801050 IEM_DS3505
ZBHH,2008-05-15 21:00,ZBHH 152100Z AUTO 16002KT 19SM 10/M05 A2985 RMK 70000 SLP084 T00971046 52003 IEM_DS3505
ZBHH,2008-05-15 22:00,ZBHH 152200Z AUTO 07006KT 6SM 08/M04 A2985 RMK T00801040 IEM_DS3505
ZBHH,2008-05-15 23:00,ZBHH 152300Z AUTO 07006KT 6SM 12/M04 A2988 RMK T01201040 IEM_DS3505
ZBHH,2008-05-16 00:00,ZBHH 160000Z AUTO 09004KT 19SM 16/M03 A2988 RMK 70000 SLP089 T01601030 52009 IEM_DS3505
ZBHH,2008-05-16 01:00,ZBHH 160100Z AUTO 20004KT 6SM 20/M05 A2988 RMK T02001050 IEM_DS3505
ZBHH,2008-05-16 02:00,ZBHH 160200Z AUTO 6SM 21/M07 A2988 RMK T02101070 IEM_DS3505
ZBHH,2008-05-16 03:00,ZBHH 160300Z AUTO 36004KT 19SM 22/M06 A2988 RMK SLP080 T02251063 57001 IEM_DS3505
ZBHH,2008-05-16 04:00,ZBHH 160400Z AUTO 6SM 24/M06 A2985 RMK T02401060 IEM_DS3505
ZBHH,2008-05-16 05:00,ZBHH 160500Z AUTO 33014KT 6SM 25/M08 A2985 RMK T02501080 IEM_DS3505
ZBHH,2008-05-16 06:00,ZBHH 160600Z AUTO 29006KT 19SM 25/M06 A2983 RMK SLP068 T02481065 57016 IEM_DS3505
ZBHH,2008-05-16 07:00,ZBHH 160700Z AUTO 33010KT 7SM 25/M08 A2983 RMK T02501080 IEM_DS3505
ZBHH,2008-05-16 08:00,ZBHH 160800Z AUTO 01008KT 7SM 25/M07 A2980 RMK T02501070 IEM_DS3505
ZBHH,2008-05-16 09:00,ZBHH 160900Z AUTO 02004KT 19SM 25/M06 A2980 RMK SLP061 T02471055 57011 IEM_DS3505
ZBHH,2008-05-16 10:00,ZBHH 161000Z AUTO 01014KT 7SM 23/M08 A2980 RMK T02301080 IEM_DS3505
ZBHH,2008-05-16 11:00,ZBHH 161100Z AUTO 02014KT 6SM 22/M06 A2983 RMK T02201060 IEM_DS3505
ZBHH,2008-05-16 12:00,ZBHH 161200Z AUTO 07012KT 12SM 20/M07 A2985 RMK SLP079 T01991066 52019 IEM_DS3505
ZBHH,2008-05-16 13:00,ZBHH 161300Z AUTO 07010KT 6SM 19/M07 A2988 RMK T01901070 IEM_DS3505
ZBHH,2008-05-16 14:00,ZBHH 161400Z AUTO 07010KT 6SM 18/M08 A2988 RMK T01801080 IEM_DS3505
ZBHH,2008-05-16 15:00,ZBHH 161500Z AUTO 07004KT 12SM 17/M10 A2991 RMK SLP086 T01721097 52013 IEM_DS3505
ZBHH,2008-05-16 16:00,ZBHH 161600Z AUTO 08010KT 6SM 16/M15 A2988 RMK T01601150 IEM_DS3505
ZBHH,2008-05-16 17:00,ZBHH 161700Z AUTO 11008KT 7SM 14/M17 A2988 RMK T01401170 IEM_DS3505
ZBHH,2008-05-16 18:00,ZBHH 161800Z AUTO 09006KT 12SM 14/M16 A2988 RMK SLP082 T01421159 57004 IEM_DS3505
ZBHH,2008-05-16 19:00,ZBHH 161900Z AUTO 11006KT 7SM 13/M17 A2988 RMK T01301170 IEM_DS3505
ZBHH,2008-05-16 20:00,ZBHH 162000Z AUTO 11008KT 7SM 13/M17 A2988 RMK T01301170 IEM_DS3505
ZBHH,2008-05-16 21:00,ZBHH 162100Z AUTO 07002KT 12SM 13/M16 A2988 RMK SLP085 T01311157 54000 IEM_DS3505
ZBHH,2008-05-16 22:00,ZBHH 162200Z AUTO 07010KT 7SM 13/M17 A2988 RMK T01301170 IEM_DS3505
ZBHH,2008-05-16 23:00,ZBHH 162300Z AUTO 09008KT 7SM 13/M16 A2988 RMK T01301160 IEM_DS3505
ZBHH,2008-05-17 00:00,ZBHH 170000Z AUTO 22002KT 12SM 14/M13 A2988 RMK SLP098 T01391132 52004 IEM_DS3505
ZBHH,2008-05-17 01:00,ZBHH 170100Z AUTO 20008KT 7SM 14/M11 A2988 RMK T01401110 IEM_DS3505
ZBHH,2008-05-17 02:00,ZBHH 170200Z AUTO 7SM 16/M08 A2988 RMK T01601080 IEM_DS3505
ZBHH,2008-05-17 03:00,ZBHH 170300Z AUTO 25006KT 12SM 17/M04 A2988 RMK SLP087 T01741045 57008 IEM_DS3505
ZBHH,2008-05-17 04:00,ZBHH 170400Z AUTO 25008KT 6SM 19/M05 A2985 RMK T01901050 IEM_DS3505
ZBHH,2008-05-17 05:00,ZBHH 170500Z AUTO 20008KT 6SM 21/M11 A2983 RMK T02101110 IEM_DS3505
ZBHH,2008-05-17 06:00,ZBHH 170600Z AUTO 34008KT 19SM 22/M14 A2980 RMK SLP060 T02191138 57021 IEM_DS3505
ZBHH,2008-05-17 07:00,ZBHH 170700Z AUTO 01014G27KT 6SM 22/M15 A2980 RMK T02201150 IEM_DS3505
ZBHH,2008-05-17 08:00,ZBHH 170800Z AUTO 34019G35KT 6SM 22/M17 A2980 RMK T02201170 IEM_DS3505
ZBHH,2008-05-17 09:00,ZBHH 170900Z AUTO 36008KT 19SM 22/M16 A2980 RMK SLP059 T02181155 57003 IEM_DS3505
ZBHH,2008-05-17 10:00,ZBHH 171000Z AUTO 35014KT 6SM 21/M15 A2980 RMK T02101150 IEM_DS3505
ZBHH,2008-05-17 11:00,ZBHH 171100Z AUTO 01014KT 6SM 20/M13 A2983 RMK T02001130 IEM_DS3505
ZBHH,2008-05-17 12:00,ZBHH 171200Z AUTO 02006KT 12SM 18/M12 A2983 RMK SLP081 T01841115 52014 IEM_DS3505
ZBHH,2008-05-17 13:00,ZBHH 171300Z AUTO 01006KT 6SM 16/M12 A2985 RMK T01601120 IEM_DS3505
ZBHH,2008-05-17 14:00,ZBHH 171400Z AUTO 35004KT 6SM 15/M11 A2988 RMK T01501110 IEM_DS3505
ZBHH,2008-05-17 15:00,ZBHH 171500Z AUTO 25002KT 19SM 14/M11 A2988 RMK SLP103 T01401107 52018 IEM_DS3505
ZBHH,2008-05-17 16:00,ZBHH 171600Z AUTO 00000KT 6SM 10/M09 A2991 RMK T01001090 IEM_DS3505
ZBHH,2008-05-17 17:00,ZBHH 171700Z AUTO 4SM 10/M10 A2991 RMK T01001100 IEM_DS3505
ZBHH,2008-05-17 18:00,ZBHH 171800Z AUTO 27002KT 19SM 11/M10 A2991 RMK SLP109 T01101105 52008 IEM_DS3505
ZBHH,2008-05-17 19:00,ZBHH 171900Z AUTO 04006KT 7SM 09/M10 A2994 RMK T00901100 IEM_DS3505
ZBHH,2008-05-17 20:00,ZBHH 172000Z AUTO 7SM 09/M11 A2994 RMK T00901110 IEM_DS3505
ZBHH,2008-05-17 21:00,ZBHH 172100Z AUTO 20002KT 19SM 11/M10 A2997 RMK SLP124 T01111104 52013 IEM_DS3505
ZBHH,2008-05-17 22:00,ZBHH 172200Z AUTO 00000KT 6SM 07/M09 A2997 RMK T00701090 IEM_DS3505
ZBHH,2008-05-17 23:00,ZBHH 172300Z AUTO 6SM 09/M08 A3000 RMK T00901080 IEM_DS3505
ZBHH,2008-05-18 00:00,ZBHH 180000Z AUTO 29006KT 16SM 14/M07 A3000 RMK SLP139 T01381070 52012 IEM_DS3505
ZBHH,2008-05-18 01:00,ZBHH 180100Z AUTO 34012KT 6SM 15/M07 A3000 RMK T01501070 IEM_DS3505
ZBHH,2008-05-18 02:00,ZBHH 180200Z AUTO 33012KT 6SM 17/M06 A3000 RMK T01701060 IEM_DS3505
ZBHH,2008-05-18 03:00,ZBHH 180300Z AUTO 04004KT 6SM 18/M05 A3000 RMK SLP144 T01811052 52004 IEM_DS3505
ZBHH,2008-05-18 04:00,ZBHH 180400Z AUTO 35016G25KT 6SM 18/M07 A3000 RMK T01801070 IEM_DS3505
ZBHH,2008-05-18 05:00,ZBHH 180500Z AUTO 36019KT 6SM 20/M09 A3000 RMK T02001090 IEM_DS3505
ZBHH,2008-05-18 06:00,ZBHH 180600Z AUTO 32010KT 6SM 21/M08 A2997 RMK SLP126 T02101085 57016 IEM_DS3505
ZBHH,2008-05-18 07:00,ZBHH 180700Z AUTO 34017G29KT 6SM 21/M10 A2994 RMK T02101100 IEM_DS3505
ZBHH,2008-05-18 08:00,ZBHH 180800Z AUTO 01017KT 6SM 21/M11 A2994 RMK T02101110 IEM_DS3505
ZBHH,2008-05-18 09:00,ZBHH 180900Z AUTO 36012KT 12SM 22/M10 A2991 RMK SLP110 T02181100 57012 IEM_DS3505
ZBHH,2008-05-18 10:00,ZBHH 181000Z AUTO 36014KT 6SM 21/M10 A2994 RMK T02101100 IEM_DS3505
ZBHH,2008-05-18 11:00,ZBHH 181100Z AUTO 36012KT 6SM 20/M11 A2994 RMK T02001110 IEM_DS3505
ZBHH,2008-05-18 12:00,ZBHH 181200Z AUTO 02004KT 6SM 19/M11 A2997 RMK SLP124 T01881112 52012 IEM_DS3505
ZBHH,2008-05-18 13:00,ZBHH 181300Z AUTO 35006KT 6SM 17/M12 A3000 RMK T01701120 IEM_DS3505
ZBHH,2008-05-18 14:00,ZBHH 181400Z AUTO 02004KT 6SM 15/M11 A3000 RMK T01501110 IEM_DS3505
ZBHH,2008-05-18 15:00,ZBHH 181500Z AUTO 29002KT 6SM 14/M11 A3003 RMK SLP141 T01451110 52015 IEM_DS3505
ZBHH,2008-05-18 16:00,ZBHH 181600Z AUTO 6SM 11/M10 A3003 RMK T01101100 IEM_DS3505
ZBHH,2008-05-18 17:00,ZBHH 181700Z AUTO 09004KT 6SM 10/M10 A3003 RMK T01001100 IEM_DS3505
ZBHH,2008-05-18 18:00,ZBHH 181800Z AUTO 07002KT 6SM 10/M10 A3000 RMK SLP141 T01021095 57003 IEM_DS3505
ZBHH,2008-05-18 19:00,ZBHH 181900Z AUTO 11004KT 5SM 08/M09 A3000 RMK T00801090 IEM_DS3505
ZBHH,2008-05-18 20:00,ZBHH 182000Z AUTO 07004KT 4SM 06/M09 A3000 RMK T00601090 IEM_DS3505
ZBHH,2008-05-18 21:00,ZBHH 182100Z AUTO 00000KT 12SM 07/M08 A3000 RMK SLP141 T00701078 57005 IEM_DS3505
ZBHH,2008-05-18 22:00,ZBHH 182200Z AUTO 09002KT 4SM 05/M08 A3000 RMK T00501080 IEM_DS3505
ZBHH,2008-05-18 23:00,ZBHH 182300Z AUTO 10004KT 4SM 08/M08 A3000 RMK T00801080 IEM_DS3505
ZBHH,2008-05-19 00:00,ZBHH 190000Z AUTO 09002KT 7SM 13/M07 A3000 RMK SLP138 T01261069 52003 IEM_DS3505
ZBHH,2008-05-19 01:00,ZBHH 190100Z AUTO 4SM 14/M08 A2997 RMK T01401080 IEM_DS3505
ZBHH,2008-05-19 02:00,ZBHH 190200Z AUTO 20004KT 4SM 17/M08 A2997 RMK T01701080 IEM_DS3505
ZBHH,2008-05-19 03:00,ZBHH 190300Z AUTO 32002KT 7SM 19/M08 A2994 RMK SLP110 T01911081 57021 IEM_DS3505
ZBHH,2008-05-19 04:00,ZBHH 190400Z AUTO 24008KT 4SM 21/M07 A2991 RMK T02101070 IEM_DS3505
ZBHH,2008-05-19 05:00,ZBHH 190500Z AUTO 24012KT 4SM 23/M09 A2985 RMK T02301090 IEM_DS3505
ZBHH,2008-05-19 06:00,ZBHH 190600Z AUTO 22006KT 7SM 24/M11 A2983 RMK SLP072 T02361111 57033 IEM_DS3505
ZBHH,2008-05-19 07:00,ZBHH 190700Z AUTO 25010KT 7SM 24/M12 A2980 RMK T02401120 IEM_DS3505
ZBHH,2008-05-19 08:00,ZBHH 190800Z AUTO 26012KT 7SM 24/M14 A2977 RMK T02401140 IEM_DS3505
ZBHH,2008-05-19 09:00,ZBHH 190900Z AUTO 22008KT 7SM 25/M13 A2974 RMK SLP047 T02491133 57026 IEM_DS3505
ZBHH,2008-05-19 10:00,ZBHH 191000Z AUTO 27010KT 7SM 25/M13 A2974 RMK T02501130 IEM_DS3505
ZBHH,2008-05-19 11:00,ZBHH 191100Z AUTO 24006KT 7SM 24/M12 A2971 RMK T02401120 IEM_DS3505
ZBHH,2008-05-19 12:00,ZBHH 191200Z AUTO 22004KT 12SM 22/M12 A2971 RMK SLP028 T02241120 57011 IEM_DS3505
ZBHH,2008-05-19 13:00,ZBHH 191300Z AUTO 23006KT 6SM 20/M11 A2971 RMK T02001110 IEM_DS3505
ZBHH,2008-05-19 14:00,ZBHH 191400Z AUTO 20002KT 6SM 15/M10 A2971 RMK T01501100 IEM_DS3505
ZBHH,2008-05-19 15:00,ZBHH 191500Z AUTO 34002KT 19SM 17/M08 A2971 RMK SLP025 T01681076 57001 IEM_DS3505
ZBHH,2008-05-19 16:00,ZBHH 191600Z AUTO 07004KT 6SM 12/M10 A2971 RMK T01201100 IEM_DS3505
ZBHH,2008-05-19 17:00,ZBHH 191700Z AUTO 03004KT 6SM 11/M09 A2971 RMK T01101090 IEM_DS3505
ZBHH,2008-05-19 18:00,ZBHH 191800Z AUTO 29004KT 19SM 15/M08 A2971 RMK SLP017 T01521083 57001 IEM_DS3505
ZBHH,2008-05-19 19:00,ZBHH 191900Z AUTO 09004KT 7SM 11/M09 A2968 RMK T01101090 IEM_DS3505
ZBHH,2008-05-19 20:00,ZBHH 192000Z AUTO 10004KT 7SM 11/M08 A2968 RMK T01101080 IEM_DS3505
ZBHH,2008-05-19 21:00,ZBHH 192100Z AUTO 32012KT 19SM 14/01 A2971 RMK SLP015 T01390012 57002 IEM_DS3505
ZBHH,2008-05-19 22:00,ZBHH 192200Z AUTO 32012G23KT 1 1/4SM 14/01 A2974 RMK T01400010 IEM_DS3505
ZBHH,2008-05-19 23:00,ZBHH 192300Z AUTO 1 1/4SM 13/01 A2977 RMK T01300010 IEM_DS3505
ZBHH,2008-05-20 00:00,ZBHH 200000Z AUTO 07004KT 5SM 12/M00 A2980 RMK SLP059 T01171005 52030 IEM_DS3505
ZBHH,2008-05-20 01:00,ZBHH 200100Z AUTO 34017KT 2SM 13/M02 A2980 RMK T01301020 IEM_DS3505
ZBHH,2008-05-20 02:00,ZBHH 200200Z AUTO 35019G29KT 3SM 14/M03 A2983 RMK T01401030 IEM_DS3505
ZBHH,2008-05-20 03:00,ZBHH 200300Z AUTO 32008G21KT 12SM 17/M06 A2983 RMK SLP072 T01711060 52011 IEM_DS3505
ZBHH,2008-05-20 04:00,ZBHH 200400Z AUTO 32016G27KT 6SM 18/M08 A2980 RMK T01801080 IEM_DS3505
ZBHH,2008-05-20 05:00,ZBHH 200500Z AUTO 33023G37KT 6SM 19/M11 A2980 RMK T01901110 IEM_DS3505
ZBHH,2008-05-20 06:00,ZBHH 200600Z AUTO 29010G27KT 16SM 19/M10 A2980 RMK SLP056 T01901100 57013 IEM_DS3505
ZBHH,2008-05-20 07:00,ZBHH 200700Z AUTO 32021G35KT 7SM 19/M10 A2977 RMK T01901100 IEM_DS3505
ZBHH,2008-05-20 08:00,ZBHH 200800Z AUTO 33021G31KT 6SM 20/M10 A2977 RMK T02001100 IEM_DS3505
ZBHH,2008-05-20 09:00,ZBHH 200900Z AUTO 29010KT 16SM 20/M11 A2977 RMK SLP047 T02031111 57008 IEM_DS3505
ZBHH,2008-05-20 10:00,ZBHH 201000Z AUTO 33019G29KT 6SM 20/M12 A2974 RMK T02001120 IEM_DS3505
ZBHH,2008-05-20 11:00,ZBHH 201100Z AUTO 33021G33KT 6SM 19/M12 A2974 RMK T01901120 IEM_DS3505
ZBHH,2008-05-20 12:00,ZBHH 201200Z AUTO 32012KT 19SM 18/M11 A2977 RMK SLP062 T01851114 52005 IEM_DS3505
ZBHH,2008-05-20 13:00,ZBHH 201300Z AUTO 31012KT 6SM 18/M11 A2977 RMK T01801110 IEM_DS3505
ZBHH,2008-05-20 14:00,ZBHH 201400Z AUTO 36014KT 6SM 17/M13 A2980 RMK T01701130 IEM_DS3505
ZBHH,2008-05-20 15:00,ZBHH 201500Z AUTO 32004KT 19SM 15/M12 A2983 RMK SLP071 T01541120 52013 IEM_DS3505
ZBHH,2008-05-20 16:00,ZBHH 201600Z AUTO 35010KT 4SM 14/M11 A2983 RMK T01401110 IEM_DS3505
ZBHH,2008-05-20 17:00,ZBHH 201700Z AUTO 35006KT 2SM 13/M10 A2983 RMK T01301100 IEM_DS3505
ZBHH,2008-05-20 18:00,ZBHH 201800Z AUTO 32002KT 3SM 13/M10 A2983 RMK SLP073 T01271103 54000 IEM_DS3505
ZBHH,2008-05-20 19:00,ZBHH 201900Z AUTO 04006KT 2 1/2SM 11/M09 A2980 RMK T01101090 IEM_DS3505
ZBHH,2008-05-20 20:00,ZBHH 202000Z AUTO 14004KT 2 1/2SM 09/M09 A2983 RMK T00901090 IEM_DS3505
ZBHH,2008-05-20 21:00,ZBHH 202100Z AUTO 36002KT 1 1/4SM 09/M09 A2983 RMK SLP082 T00881087 52003 IEM_DS3505
ZBHH,2008-05-20 22:00,ZBHH 202200Z AUTO 03004KT 2 1/2SM 08/M08 A2983 RMK T00801080 IEM_DS3505
ZBHH,2008-05-20 23:00,ZBHH 202300Z AUTO 12002KT 2 1/2SM 10/M08 A2983 RMK T01001080 IEM_DS3505
ZBHH,2008-05-21 00:00,ZBHH 210000Z AUTO 09002KT 2SM 14/M08 A2983 RMK SLP076 T01381081 52001 IEM_DS3505
ZBHH,2008-05-21 01:00,ZBHH 210100Z AUTO 2 1/2SM 15/M10 A2983 RMK T01501100 IEM_DS3505
ZBHH,2008-05-21 02:00,ZBHH 210200Z AUTO 3SM 16/M09 A2980 RMK T01601090 IEM_DS3505
ZBHH,2008-05-21 03:00,ZBHH 210300Z AUTO 20004KT 2SM 19/M06 A2980 RMK SLP059 T01911058 57011 IEM_DS3505
ZBHH,2008-05-21 04:00,ZBHH 210400Z AUTO 25010KT 6SM 23/M08 A2977 RMK T02301080 IEM_DS3505
ZBHH,2008-05-21 05:00,ZBHH 210500Z AUTO 25017KT 6SM 25/M10 A2971 RMK T02501100 IEM_DS3505
ZBHH,2008-05-21 06:00,ZBHH 210600Z AUTO 25010G23KT 7SM 25/M12 A2971 RMK SLP021 T02511115 57028 IEM_DS3505
ZBHH,2008-05-21 07:00,ZBHH 210700Z AUTO 25014KT 6SM 26/M11 A2968 RMK T02601110 IEM_DS3505
ZBHH,2008-05-21 08:00,ZBHH 210800Z AUTO 25014KT 6SM 25/M13 A2965 RMK T02501130 IEM_DS3505
ZBHH,2008-05-21 09:00,ZBHH 210900Z AUTO 29008KT 9SM 25/M11 A2965 RMK SLP011 T02541112 57015 IEM_DS3505
ZBHH,2008-05-21 10:00,ZBHH 211000Z AUTO 28008KT 7SM 25/M11 A2965 RMK T02501110 IEM_DS3505
ZBHH,2008-05-21 11:00,ZBHH 211100Z AUTO 29006KT 7SM 24/M09 A2965 RMK T02401090 IEM_DS3505
ZBHH,2008-05-21 12:00,ZBHH 211200Z AUTO 29004KT 9SM 24/M08 A2965 RMK SLP006 T02371085 52002 IEM_DS3505
ZBHH,2008-05-21 13:00,ZBHH 211300Z AUTO 19004KT 7SM 20/M07 A2968 RMK T02001070 IEM_DS3505
ZBHH,2008-05-21 14:00,ZBHH 211400Z AUTO 00000KT 7SM 19/M07 A2968 RMK T01901070 IEM_DS3505
ZBHH,2008-05-21 15:00,ZBHH 211500Z AUTO 36002KT 12SM 17/M04 A2971 RMK SLP023 T01741039 52013 IEM_DS3505
ZBHH,2008-05-21 16:00,ZBHH 211600Z AUTO 08004KT 7SM 15/M04 A2971 RMK T01501040 IEM_DS3505
ZBHH,2008-05-21 17:00,ZBHH 211700Z AUTO 12004KT 7SM 15/M05 A2971 RMK T01501050 IEM_DS3505
ZBHH,2008-05-21 18:00,ZBHH 211800Z AUTO 07002KT 12SM 15/M04 A2974 RMK SLP025 T01481035 52008 IEM_DS3505
ZBHH,2008-05-21 19:00,ZBHH 211900Z AUTO 06004KT 7SM 13/M03 A2974 RMK T01301030 IEM_DS3505
ZBHH,2008-05-21 20:00,ZBHH 212000Z AUTO 7SM 12/M04 A2974 RMK T01201040 IEM_DS3505
ZBHH,2008-05-21 21:00,ZBHH 212100Z AUTO 32002KT 12SM 14/M03 A2974 RMK SLP034 T01361028 52006 IEM_DS3505
ZBHH,2008-05-21 22:00,ZBHH 212200Z AUTO 6SM 12/M02 A2977 RMK T01201020 IEM_DS3505
ZBHH,2008-05-21 23:00,ZBHH 212300Z AUTO 6SM 15/M02 A2977 RMK T01501020 IEM_DS3505
ZBHH,2008-05-22 00:00,ZBHH 220000Z AUTO 11004KT 9SM 20/M02 A2980 RMK SLP044 T01961015 52017 IEM_DS3505
ZBHH,2008-05-22 01:00,ZBHH 220100Z AUTO 20004KT 6SM 21/M01 A2980 RMK T02101010 IEM_DS3505
ZBHH,2008-05-22 02:00,ZBHH 220200Z AUTO 6SM 23/M01 A2980 RMK T02301010 IEM_DS3505
ZBHH,2008-05-22 03:00,ZBHH 220300Z AUTO 18006KT 12SM 25/M01 A2980 RMK SLP040 T02481011 57006 IEM_DS3505
ZBHH,2008-05-22 04:00,ZBHH 220400Z AUTO 24010KT 6SM 27/M02 A2977 RMK T02701020 IEM_DS3505
ZBHH,2008-05-22 05:00,ZBHH 220500Z AUTO 24012G21KT 6SM 29/M03 A2974 RMK T02901030 IEM_DS3505
ZBHH,2008-05-22 06:00,ZBHH 220600Z AUTO 25010G25KT 12SM 29/M06 A2971 RMK SLP014 T02911056 57020 IEM_DS3505
ZBHH,2008-05-22 07:00,ZBHH 220700Z AUTO 23014KT 7SM 30/M05 A2971 RMK T03001050 IEM_DS3505
ZBHH,2008-05-22 08:00,ZBHH 220800Z AUTO 24014KT 7SM 30/M08 A2968 RMK T03001080 IEM_DS3505
ZBHH,2008-05-22 09:00,ZBHH 220900Z AUTO 22010KT 12SM 30/M08 A2968 RMK SLP002 T02951082 57012 IEM_DS3505
ZBHH,2008-05-22 10:00,ZBHH 221000Z AUTO 26014G23KT 6SM 28/M09 A2968 RMK T02801090 IEM_DS3505
ZBHH,2008-05-22 11:00,ZBHH 221100Z AUTO 25012KT 6SM 28/M06 A2971 RMK T02801060 IEM_DS3505
ZBHH,2008-05-22 12:00,ZBHH 221200Z AUTO 25004KT 19SM 26/M05 A2971 RMK SLP007 T02621054 52010 IEM_DS3505
ZBHH,2008-05-22 13:00,ZBHH 221300Z AUTO 05002KT 6SM 23/M06 A2974 RMK T02301060 IEM_DS3505
ZBHH,2008-05-22 14:00,ZBHH 221400Z AUTO 17006KT 6SM 20/M05 A2977 RMK T02001050 IEM_DS3505
ZBHH,2008-05-22 15:00,ZBHH 221500Z AUTO 25002KT 19SM 22/M02 A2977 RMK SLP023 T02251023 52017 IEM_DS3505
ZBHH,2008-05-22 16:00,ZBHH 221600Z AUTO 10006KT 6SM 16/M03 A2980 RMK T01601030 IEM_DS3505
ZBHH,2008-05-22 17:00,ZBHH 221700Z AUTO 16002KT 7SM 15/M03 A2980 RMK T01501030 IEM_DS3505
ZBHH,2008-05-22 18:00,ZBHH 221800Z AUTO 02002KT 12SM 19/M02 A2980 RMK SLP024 T01901020 52002 IEM_DS3505
ZBHH,2008-05-22 19:00,ZBHH 221900Z AUTO 09006KT 7SM 13/M02 A2980 RMK T01301020 IEM_DS3505
ZBHH,2008-05-22 20:00,ZBHH 222000Z AUTO 08002KT 7SM 14/M01 A2980 RMK T01401010 IEM_DS3505
ZBHH,2008-05-22 21:00,ZBHH 222100Z AUTO 09004KT 12SM 16/M01 A2980 RMK SLP037 T01551011 52006 IEM_DS3505
ZBHH,2008-05-22 22:00,ZBHH 222200Z AUTO 06002KT 6SM 13/00 A2980 RMK T01300000 IEM_DS3505
ZBHH,2008-05-22 23:00,ZBHH 222300Z AUTO 04004KT 6SM 17/01 A2983 RMK T01700010 IEM_DS3505
ZBHH,2008-05-23 00:00,ZBHH 230000Z AUTO 07004KT 16SM 20/01 A2983 RMK SLP047 T01990014 52011 IEM_DS3505
ZBHH,2008-05-23 01:00,ZBHH 230100Z AUTO 23004KT 6SM 22/03 A2983 RMK T02200030 IEM_DS3505
ZBHH,2008-05-23 02:00,ZBHH 230200Z AUTO 21004KT 6SM 23/02 A2983 RMK T02300020 IEM_DS3505
ZBHH,2008-05-23 03:00,ZBHH 230300Z AUTO 14004KT 12SM 25/M01 A2980 RMK SLP038 T02531007 57005 IEM_DS3505
ZBHH,2008-05-23 04:00,ZBHH 230400Z AUTO 26006KT 6SM 27/00 A2980 RMK T02700000 IEM_DS3505
ZBHH,2008-05-23 05:00,ZBHH 230500Z AUTO 26004KT 6SM 29/M01 A2977 RMK T02901010 IEM_DS3505
ZBHH,2008-05-23 06:00,ZBHH 230600Z AUTO 25008KT 19SM 30/M04 A2974 RMK SLP014 T02961040 57020 IEM_DS3505
ZBHH,2008-05-23 07:00,ZBHH 230700Z AUTO 25012KT 7SM 31/M05 A2974 RMK T03101050 IEM_DS3505
ZBHH,2008-05-23 08:00,ZBHH 230800Z AUTO 32008KT 7SM 31/M06 A2971 RMK T03101060 IEM_DS3505
ZBHH,2008-05-23 09:00,ZBHH 230900Z AUTO 02006KT 19SM 30/M06 A2971 RMK SLP003 T03041060 57015 IEM_DS3505
ZBHH,2008-05-23 10:00,ZBHH 231000Z AUTO 36014KT 7SM 29/M07 A2971 RMK T02901070 IEM_DS3505
ZBHH,2008-05-23 11:00,ZBHH 231100Z AUTO 36010KT 7SM 28/M08 A2974 RMK T02801080 IEM_DS3505
ZBHH,2008-05-23 12:00,ZBHH 231200Z AUTO 09004KT 19SM 26/M07 A2977 RMK SLP021 T02571069 52016 IEM_DS3505
ZBHH,2008-05-23 13:00,ZBHH 231300Z AUTO 04010KT 6SM 24/M08 A2980 RMK T02401080 IEM_DS3505
ZBHH,2008-05-23 14:00,ZBHH 231400Z AUTO 08004KT 6SM 21/M08 A2980 RMK T02101080 IEM_DS3505
ZBHH,2008-05-23 15:00,ZBHH 231500Z AUTO 07004KT 19SM 20/M08 A2983 RMK SLP046 T02041080 52022 IEM_DS3505
ZBHH,2008-05-23 16:00,ZBHH 231600Z AUTO 08006KT 6SM 18/M09 A2983 RMK T01801090 IEM_DS3505
ZBHH,2008-05-23 17:00,ZBHH 231700Z AUTO 03010KT 7SM 18/M09 A2983 RMK T01801090 IEM_DS3505
ZBHH,2008-05-23 18:00,ZBHH 231800Z AUTO 14002KT 19SM 16/M06 A2983 RMK SLP044 T01651059 57001 IEM_DS3505
ZBHH,2008-05-23 19:00,ZBHH 231900Z AUTO 08004KT 7SM 15/M09 A2983 RMK T01501090 IEM_DS3505
ZBHH,2008-05-23 20:00,ZBHH 232000Z AUTO 10004KT 7SM 13/M09 A2983 RMK T01301090 IEM_DS3505
ZBHH,2008-05-23 21:00,ZBHH 232100Z AUTO 00000KT 19SM 14/M08 A2983 RMK SLP051 T01391081 52003 IEM_DS3505
ZBHH,2008-05-23 22:00,ZBHH 232200Z AUTO 08006KT 6SM 13/M07 A2983 RMK T01301070 IEM_DS3505
ZBHH,2008-05-23 23:00,ZBHH 232300Z AUTO 08004KT 6SM 18/M07 A2983 RMK T01801070 IEM_DS3505
ZBHH,2008-05-24 00:00,ZBHH 240000Z AUTO 04006KT 19SM 22/M08 A2983 RMK SLP048 T02221075 52004 IEM_DS3505
ZBHH,2008-05-24 01:00,ZBHH 240100Z AUTO 11002KT 6SM 23/M07 A2983 RMK T02301070 IEM_DS3505
ZBHH,2008-05-24 02:00,ZBHH 240200Z AUTO 16002KT 6SM 25/M08 A2983 RMK T02501080 IEM_DS3505
ZBHH,2008-05-24 03:00,ZBHH 240300Z AUTO 09006KT 19SM 26/M07 A2980 RMK SLP036 T02611066 57013 IEM_DS3505
ZBHH,2008-05-24 04:00,ZBHH 240400Z AUTO 28004KT 6SM 28/M09 A2980 RMK T02801090 IEM_DS3505
ZBHH,2008-05-24 05:00,ZBHH 240500Z AUTO 6SM 29/M09 A2977 RMK T02901090 IEM_DS3505
ZBHH,2008-05-24 06:00,ZBHH 240600Z AUTO 32006G17KT 19SM 29/M10 A2974 RMK SLP017 T02941100 57018 IEM_DS3505
ZBHH,2008-05-24 07:00,ZBHH 240700Z AUTO 35010KT 6SM 29/M10 A2974 RMK T02901100 IEM_DS3505
ZBHH,2008-05-24 08:00,ZBHH 240800Z AUTO 01014KT 6SM 30/M12 A2971 RMK T03001120 IEM_DS3505
ZBHH,2008-05-24 09:00,ZBHH 240900Z AUTO 34006KT 19SM 30/M10 A2971 RMK SLP005 T02971098 57015 IEM_DS3505
ZBHH,2008-05-24 10:00,ZBHH 241000Z AUTO 01014KT 6SM 29/M10 A2971 RMK T02901100 IEM_DS3505
ZBHH,2008-05-24 11:00,ZBHH 241100Z AUTO 03012KT 6SM 27/M10 A2971 RMK T02701100 IEM_DS3505
ZBHH,2008-05-24 12:00,ZBHH 241200Z AUTO 07004KT 19SM 26/M10 A2974 RMK SLP012 T02571095 52014 IEM_DS3505
ZBHH,2008-05-24 13:00,ZBHH 241300Z AUTO 03008KT 6SM 23/M09 A2977 RMK T02301090 IEM_DS3505
ZBHH,2008-05-24 14:00,ZBHH 241400Z AUTO 10006KT 6SM 19/M09 A2980 RMK T01901090 IEM_DS3505
ZBHH,2008-05-24 15:00,ZBHH 241500Z AUTO 09006KT 19SM 21/M09 A2980 RMK SLP034 T02081086 52018 IEM_DS3505
ZBHH,2008-05-24 16:00,ZBHH 241600Z AUTO 07006KT 6SM 16/M07 A2980 RMK T01601070 IEM_DS3505
ZBHH,2008-05-24 17:00,ZBHH 241700Z AUTO 17004KT 7SM 16/M06 A2983 RMK T01601060 IEM_DS3505
ZBHH,2008-05-24 18:00,ZBHH 241800Z AUTO 18002KT 19SM 15/M06 A2980 RMK SLP047 T01491055 52006 IEM_DS3505
ZBHH,2008-05-24 19:00,ZBHH 241900Z AUTO 11002KT 7SM 14/M06 A2983 RMK T01401060 IEM_DS3505
ZBHH,2008-05-24 20:00,ZBHH 242000Z AUTO 10004KT 7SM 13/M06 A2983 RMK T01301060 IEM_DS3505
ZBHH,2008-05-24 21:00,ZBHH 242100Z AUTO 07002KT 19SM 14/M06 A2983 RMK SLP046 T01411056 57001 IEM_DS3505
ZBHH,2008-05-24 22:00,ZBHH 242200Z AUTO 09006KT 6SM 13/M06 A2983 RMK T01301060 IEM_DS3505
ZBHH,2008-05-24 23:00,ZBHH 242300Z AUTO 06004KT 6SM 16/M06 A2983 RMK T01601060 IEM_DS3505
ZBHH,2008-05-25 00:00,ZBHH 250000Z AUTO 11002KT 19SM 21/M04 A2983 RMK SLP050 T02111041 52009 IEM_DS3505
ZBHH,2008-05-25 01:00,ZBHH 250100Z AUTO 09002KT 6SM 24/M06 A2985 RMK T02401060 IEM_DS3505
ZBHH,2008-05-25 02:00,ZBHH 250200Z AUTO 22006KT 6SM 25/M02 A2983 RMK T02501020 IEM_DS3505
ZBHH,2008-05-25 03:00,ZBHH 250300Z AUTO 14004KT 19SM 26/M02 A2983 RMK SLP044 T02601017 57006 IEM_DS3505
ZBHH,2008-05-25 04:00,ZBHH 250400Z AUTO 28004KT 6SM 28/00 A2980 RMK T02800000 IEM_DS3505
ZBHH,2008-05-25 05:00,ZBHH 250500Z AUTO 24008KT 6SM 30/00 A2977 RMK T03000000 IEM_DS3505
ZBHH,2008-05-25 06:00,ZBHH 250600Z AUTO 22010G21KT 16SM 31/M02 A2974 RMK SLP016 T03091018 57026 IEM_DS3505
ZBHH,2008-05-25 07:00,ZBHH 250700Z AUTO 26014G23KT 6SM 32/M02 A2971 RMK T03201020 IEM_DS3505
ZBHH,2008-05-25 08:00,ZBHH 250800Z AUTO 24012KT 6SM 32/M02 A2971 RMK T03201020 IEM_DS3505
ZBHH,2008-05-25 09:00,ZBHH 250900Z AUTO 25006KT 19SM 32/00 A2968 RMK SLP997 T03180000 57017 IEM_DS3505
ZBHH,2008-05-25 10:00,ZBHH 251000Z AUTO 21010KT 6SM 31/M01 A2968 RMK T03101010 IEM_DS3505
ZBHH,2008-05-25 11:00,ZBHH 251100Z AUTO 23008KT 6SM 30/M01 A2968 RMK T03001010 IEM_DS3505
ZBHH,2008-05-25 12:00,ZBHH 251200Z AUTO 25006KT 19SM 28/M02 A2971 RMK SLP999 T02831017 52008 IEM_DS3505
ZBHH,2008-05-25 13:00,ZBHH 251300Z AUTO 24008KT 6SM 27/M01 A2974 RMK T02701010 IEM_DS3505
ZBHH,2008-05-25 14:00,ZBHH 251400Z AUTO 22004KT 6SM 24/M01 A2974 RMK T02401010 IEM_DS3505
ZBHH,2008-05-25 15:00,ZBHH 251500Z AUTO 22006KT 19SM 24/M03 A2977 RMK SLP014 T02451029 52015 IEM_DS3505
ZBHH,2008-05-25 16:00,ZBHH 251600Z AUTO 20006KT 6SM 22/00 A2977 RMK T02200000 IEM_DS3505
ZBHH,2008-05-25 17:00,ZBHH 251700Z AUTO 19006KT 7SM 19/00 A2974 RMK T01900000 IEM_DS3505
ZBHH,2008-05-25 18:00,ZBHH 251800Z AUTO 20002KT 19SM 20/04 A2977 RMK SLP010 T02030035 57002 IEM_DS3505
ZBHH,2008-05-25 19:00,ZBHH 251900Z AUTO 18002KT 7SM 17/01 A2977 RMK T01700010 IEM_DS3505
ZBHH,2008-05-25 20:00,ZBHH 252000Z AUTO 02002KT 7SM 17/02 A2977 RMK T01700020 IEM_DS3505
ZBHH,2008-05-25 21:00,ZBHH 252100Z AUTO 14002KT 16SM 18/02 A2977 RMK SLP020 T01790018 52006 IEM_DS3505
ZBHH,2008-05-25 22:00,ZBHH 252200Z AUTO 09004KT 6SM 16/04 A2980 RMK T01600040 IEM_DS3505
ZBHH,2008-05-25 23:00,ZBHH 252300Z AUTO 14002KT 6SM 19/06 A2980 RMK T01900060 IEM_DS3505
ZBHH,2008-05-26 00:00,ZBHH 260000Z AUTO 20004KT 12SM 20/08 A2980 RMK SLP029 T02030083 52006 IEM_DS3505
ZBHH,2008-05-26 01:00,ZBHH 260100Z AUTO 24006KT 6SM 22/09 A2977 RMK T02200090 IEM_DS3505
ZBHH,2008-05-26 02:00,ZBHH 260200Z AUTO 23014G23KT 6SM 24/09 A2977 RMK T02400090 IEM_DS3505
ZBHH,2008-05-26 03:00,ZBHH 260300Z AUTO 22010G25KT 7SM 25/09 A2977 RMK SLP015 T02480087 57011 IEM_DS3505
ZBHH,2008-05-26 04:00,ZBHH 260400Z AUTO 24016G25KT 6SM 26/09 A2974 RMK T02600090 IEM_DS3505
ZBHH,2008-05-26 05:00,ZBHH 260500Z AUTO 26016KT 6SM 28/09 A2971 RMK T02800090 IEM_DS3505
ZBHH,2008-05-26 06:00,ZBHH 260600Z AUTO 22012KT 9SM 27/08 A2968 RMK SLP989 T02730082 57026 IEM_DS3505
ZBHH,2008-05-26 07:00,ZBHH 260700Z AUTO 25016KT 6SM 28/09 A2965 RMK T02800090 IEM_DS3505
ZBHH,2008-05-26 08:00,ZBHH 260800Z AUTO 26012KT 6SM 30/09 A2962 RMK T03000090 IEM_DS3505
ZBHH,2008-05-26 09:00,ZBHH 260900Z AUTO 34014G47KT 12SM 25/10 A2965 RMK SLP986 T02470098 57012 IEM_DS3505
ZBHH,2008-05-26 10:00,ZBHH 261000Z AUTO 35006KT 7SM 23/13 A2962 RMK T02300130 IEM_DS3505
ZBHH,2008-05-26 11:00,ZBHH 261100Z AUTO 35006KT 4SM 23/15 A2965 RMK T02300150 IEM_DS3505
ZBHH,2008-05-26 12:00,ZBHH 261200Z AUTO 32010KT 2SM 24/01 A2968 RMK 60008 SLP001 T02370014 52016 IEM_DS3505
ZBHH,2008-05-26 13:00,ZBHH 261300Z AUTO 01012KT 2 1/2SM 22/01 A2974 RMK T02200010 IEM_DS3505
ZBHH,2008-05-26 14:00,ZBHH 261400Z AUTO 01016G25KT 4SM 21/M01 A2974 RMK T02101010 IEM_DS3505
ZBHH,2008-05-26 15:00,ZBHH 261500Z AUTO 04010KT 19SM 20/M04 A2977 RMK SLP030 T01991037 52027 IEM_DS3505
ZBHH,2008-05-26 16:00,ZBHH 261600Z AUTO 02016KT 1SM 17/M03 A2983 RMK T01701030 IEM_DS3505
ZBHH,2008-05-26 17:00,ZBHH 261700Z AUTO 02014KT 1SM 15/M05 A2985 RMK T01501050 IEM_DS3505
ZBHH,2008-05-26 18:00,ZBHH 261800Z AUTO 04008KT 3SM 14/M08 A2988 RMK SLP073 T01431077 52032 IEM_DS3505
ZBHH,2008-05-26 19:00,ZBHH 261900Z AUTO 03010KT 1SM 13/M08 A2991 RMK T01301080 IEM_DS3505
ZBHH,2008-05-26 20:00,ZBHH 262000Z AUTO 03014KT 1SM 12/M08 A2991 RMK T01201080 IEM_DS3505
ZBHH,2008-05-26 21:00,ZBHH 262100Z AUTO 04006KT 2SM 11/M10 A2991 RMK 70006 SLP099 T01111104 52013 IEM_DS3505
ZBHH,2008-05-26 22:00,ZBHH 262200Z AUTO 33008KT 1SM 10/M08 A2994 RMK T01001080 IEM_DS3505
ZBHH,2008-05-26 23:00,ZBHH 262300Z AUTO 35008KT 1SM A2994 RMK IEM_DS3505
ZBHH,2008-05-27 00:00,ZBHH 270000Z AUTO 14002KT 5SM 12/M10 A2994 RMK 70006 SLP107 T01241099 52007 IEM_DS3505
ZBHH,2008-05-27 01:00,ZBHH 270100Z AUTO 34008KT 2 1/2SM 14/M11 A2994 RMK T01401110 IEM_DS3505
ZBHH,2008-05-27 02:00,ZBHH 270200Z AUTO 01010KT 6SM 17/M13 A2991 RMK T01701130 IEM_DS3505
ZBHH,2008-05-27 03:00,ZBHH 270300Z AUTO 32006KT 7SM 18/M12 A2988 RMK SLP088 T01811117 57013 IEM_DS3505
ZBHH,2008-05-27 04:00,ZBHH 270400Z AUTO 35012KT 6SM 19/M12 A2988 RMK T01901120 IEM_DS3505
ZBHH,2008-05-27 05:00,ZBHH 270500Z AUTO 35014KT 6SM 20/M12 A2985 RMK T02001120 IEM_DS3505
ZBHH,2008-05-27 06:00,ZBHH 270600Z AUTO 32008KT 12SM 21/M12 A2985 RMK SLP077 T02131115 57014 IEM_DS3505
ZBHH,2008-05-27 07:00,ZBHH 270700Z AUTO 33016KT 6SM 21/M11 A2983 RMK T02101110 IEM_DS3505
ZBHH,2008-05-27 08:00,ZBHH 270800Z AUTO 35016KT 6SM 22/M11 A2983 RMK T02201110 IEM_DS3505
ZBHH,2008-05-27 09:00,ZBHH 270900Z AUTO 32012KT 12SM 22/M11 A2983 RMK SLP070 T02211109 57011 IEM_DS3505
ZBHH,2008-05-27 10:00,ZBHH 271000Z AUTO 35016KT 6SM 21/M10 A2983 RMK T02101100 IEM_DS3505
ZBHH,2008-05-27 11:00,ZBHH 271100Z AUTO 35012KT 6SM 20/M10 A2983 RMK T02001100 IEM_DS3505
ZBHH,2008-05-27 12:00,ZBHH 271200Z AUTO 34004KT 19SM 19/M11 A2983 RMK SLP078 T01931108 52004 IEM_DS3505
ZBHH,2008-05-27 13:00,ZBHH 271300Z AUTO 01006KT 6SM 17/M09 A2983 RMK T01701090 IEM_DS3505
ZBHH,2008-05-27 14:00,ZBHH 271400Z AUTO 02004KT 6SM 16/M08 A2985 RMK T01601080 IEM_DS3505
ZBHH,2008-05-27 15:00,ZBHH 271500Z AUTO 00000KT 19SM 14/M09 A2985 RMK SLP085 T01441089 52008 IEM_DS3505
ZBHH,2008-05-27 16:00,ZBHH 271600Z AUTO 05010KT 6SM 14/M07 A2985 RMK T01401070 IEM_DS3505
ZBHH,2008-05-27 17:00,ZBHH 271700Z AUTO 16002KT 7SM 12/M07 A2983 RMK T01201070 IEM_DS3505
ZBHH,2008-05-27 18:00,ZBHH 271800Z AUTO 09002KT 19SM 12/M08 A2983 RMK SLP072 T01191075 57010 IEM_DS3505
ZBHH,2008-05-27 19:00,ZBHH 271900Z AUTO 11006KT 7SM 10/M06 A2980 RMK T01001060 IEM_DS3505
ZBHH,2008-05-27 20:00,ZBHH 272000Z AUTO 35002KT 7SM 08/M05 A2983 RMK T00801050 IEM_DS3505
ZBHH,2008-05-27 21:00,ZBHH 272100Z AUTO 34002KT 19SM 11/M06 A2980 RMK SLP068 T01081065 57004 IEM_DS3505
ZBHH,2008-05-27 22:00,ZBHH 272200Z AUTO 00000KT 6SM 08/M05 A2983 RMK T00801050 IEM_DS3505
ZBHH,2008-05-27 23:00,ZBHH 272300Z AUTO 09008KT 6SM 11/M05 A2980 RMK T01101050 IEM_DS3505
ZBHH,2008-05-28 00:00,ZBHH 280000Z AUTO 04004KT 19SM 15/M06 A2980 RMK SLP060 T01501065 57005 IEM_DS3505
ZBHH,2008-05-28 01:00,ZBHH 280100Z AUTO 19004KT 6SM 18/M07 A2977 RMK T01801070 IEM_DS3505
ZBHH,2008-05-28 02:00,ZBHH 280200Z AUTO 22006KT 6SM 19/M07 A2974 RMK T01901070 IEM_DS3505
ZBHH,2008-05-28 03:00,ZBHH 280300Z AUTO 22004KT 19SM 21/M07 A2971 RMK SLP026 T02141072 57027 IEM_DS3505
ZBHH,2008-05-28 04:00,ZBHH 280400Z AUTO 24017KT 6SM 24/M07 A2968 RMK T02401070 IEM_DS3505
ZBHH,2008-05-28 05:00,ZBHH 280500Z AUTO 23017KT 6SM 26/M06 A2962 RMK T02601060 IEM_DS3505
ZBHH,2008-05-28 06:00,ZBHH 280600Z AUTO 22010G33KT 12SM 28/M06 A2956 RMK SLP966 T02761055 57046 IEM_DS3505
ZBHH,2008-05-28 07:00,ZBHH 280700Z AUTO 25019G29KT 6SM 29/M04 A2950 RMK T02901040 IEM_DS3505
ZBHH,2008-05-28 08:00,ZBHH 280800Z AUTO 25019G31KT 7SM 29/M05 A2947 RMK T02901050 IEM_DS3505
ZBHH,2008-05-28 09:00,ZBHH 280900Z AUTO 25012G33KT 3SM 29/M06 A2944 RMK SLP928 T02911056 57033 IEM_DS3505
ZBHH,2008-05-28 10:00,ZBHH 281000Z AUTO 32025G37KT 4SM 28/M05 A2944 RMK T02801050 IEM_DS3505
ZBHH,2008-05-28 11:00,ZBHH 281100Z AUTO 33029G43KT 1SM 23/M10 A2953 RMK T02301100 IEM_DS3505
ZBHH,2008-05-28 12:00,ZBHH 281200Z AUTO 32019G52KT 3/8SM 17/M10 A2959 RMK SLP996 T01721105 52046 IEM_DS3505
ZBHH,2008-05-28 13:00,ZBHH 281300Z AUTO 35035G62KT 3/8SM 14/M13 A2962 RMK T01401130 IEM_DS3505
ZBHH,2008-05-28 14:00,ZBHH 281400Z AUTO 17012KT 1 1/4SM 13/M12 A2980 RMK T01301120 IEM_DS3505
ZBHH,2008-05-28 15:00,ZBHH 281500Z AUTO 04008G33KT 4SM 11/M10 A2985 RMK SLP080 T01081095 52074 IEM_DS3505
ZBHH,2008-05-28 16:00,ZBHH 281600Z AUTO 01019G29KT 2 1/2SM 09/M08 A2988 RMK T00901080 IEM_DS3505
ZBHH,2008-05-28 17:00,ZBHH 281700Z AUTO 36014G23KT 3SM 08/M05 A2991 RMK T00801050 IEM_DS3505
ZBHH,2008-05-28 18:00,ZBHH 281800Z AUTO 36006KT 9SM 07/M05 A2991 RMK SLP106 T00721048 40295//// 52028 IEM_DS3505
ZBHH,2008-05-28 19:00,ZBHH 281900Z AUTO 36008KT 6SM 07/M03 A2994 RMK T00701030 IEM_DS3505
ZBHH,2008-05-28 20:00,ZBHH 282000Z AUTO 01006KT 6SM 06/M03 A2994 RMK T00601030 IEM_DS3505
ZBHH,2008-05-28 21:00,ZBHH 282100Z AUTO 36008KT 19SM 06/M05 A2994 RMK SLP117 T00551049 52009 IEM_DS3505
ZBHH,2008-05-28 22:00,ZBHH 282200Z AUTO 01014KT 6SM 06/M06 A2994 RMK T00601060 IEM_DS3505
ZBHH,2008-05-28 23:00,ZBHH 282300Z AUTO 02010KT 6SM 07/M08 A2997 RMK T00701080 IEM_DS3505
ZBHH,2008-05-29 00:00,ZBHH 290000Z AUTO 32012KT 19SM 08/M11 A2997 RMK SLP148 T00831106 52010 IEM_DS3505
ZBHH,2008-05-29 01:00,ZBHH 290100Z AUTO 33014G23KT 6SM 10/M12 A3000 RMK T01001120 IEM_DS3505
ZBHH,2008-05-29 02:00,ZBHH 290200Z AUTO 34014KT 6SM 11/M13 A2997 RMK T01101130 IEM_DS3505
ZBHH,2008-05-29 03:00,ZBHH 290300Z AUTO 34008KT 19SM 12/M15 A2997 RMK SLP158 T01171149 52003 IEM_DS3505
ZBHH,2008-05-29 04:00,ZBHH 290400Z AUTO 33017G27KT 6SM 13/M15 A2997 RMK T01301150 IEM_DS3505
ZBHH,2008-05-29 05:00,ZBHH 290500Z AUTO 32019G33KT 6SM 13/M16 A2997 RMK T01301160 IEM_DS3505
ZBHH,2008-05-29 06:00,ZBHH 290600Z AUTO 32010G33KT 19SM 13/M15 A2997 RMK SLP157 T01341154 57005 IEM_DS3505
ZBHH,2008-05-29 07:00,ZBHH 290700Z AUTO 31021KT 6SM 15/M17 A2994 RMK T01501170 IEM_DS3505
ZBHH,2008-05-29 08:00,ZBHH 290800Z AUTO 34021G33KT 6SM 14/M16 A2997 RMK T01401160 IEM_DS3505
ZBHH,2008-05-29 09:00,ZBHH 290900Z AUTO 32010G33KT 19SM 13/M15 A2997 RMK SLP166 T01311147 52004 IEM_DS3505
ZBHH,2008-05-29 10:00,ZBHH 291000Z AUTO 33023G33KT 7SM 13/M16 A3000 RMK T01301160 IEM_DS3505
ZBHH,2008-05-29 11:00,ZBHH 291100Z AUTO 34019G29KT 7SM 12/M16 A3003 RMK T01201160 IEM_DS3505
ZBHH,2008-05-29 12:00,ZBHH 291200Z AUTO 32006G19KT 12SM 12/M16 A3003 RMK SLP179 T01161159 52014 IEM_DS3505
ZBHH,2008-05-29 13:00,ZBHH 291300Z AUTO 32008KT 6SM 11/M16 A3006 RMK T01101160 IEM_DS3505
ZBHH,2008-05-29 14:00,ZBHH 291400Z AUTO 28006KT 6SM 10/M15 A3006 RMK T01001150 IEM_DS3505
ZBHH,2008-05-29 15:00,ZBHH 291500Z AUTO 29004KT 19SM 10/M15 A3006 RMK SLP181 T01011154 52006 IEM_DS3505
ZBHH,2008-05-29 16:00,ZBHH 291600Z AUTO 28010KT 6SM 10/M15 A3006 RMK T01001150 IEM_DS3505
ZBHH,2008-05-29 17:00,ZBHH 291700Z AUTO 29008KT 6SM 10/M15 A3006 RMK T01001150 IEM_DS3505
ZBHH,2008-05-29 18:00,ZBHH 291800Z AUTO 29002KT 19SM 09/M16 A3003 RMK SLP176 T00871157 57004 IEM_DS3505
ZBHH,2008-05-29 19:00,ZBHH 291900Z AUTO 06002KT 7SM 07/M14 A3003 RMK T00701140 IEM_DS3505
ZBHH,2008-05-29 20:00,ZBHH 292000Z AUTO 15004KT 7SM 06/M12 A3003 RMK T00601120 IEM_DS3505
ZBHH,2008-05-29 21:00,ZBHH 292100Z AUTO 00000KT 19SM 07/M11 A3003 RMK SLP170 T00731114 57009 IEM_DS3505
ZBHH,2008-05-29 22:00,ZBHH 292200Z AUTO 11004KT 6SM 04/M11 A3003 RMK T00401110 IEM_DS3505
ZBHH,2008-05-29 23:00,ZBHH 292300Z AUTO 13004KT 6SM 07/M11 A3003 RMK T00701110 IEM_DS3505
ZBHH,2008-05-30 00:00,ZBHH 300000Z AUTO 07004KT 16SM 10/M09 A3003 RMK SLP174 T00981093 52006 IEM_DS3505
ZBHH,2008-05-30 01:00,ZBHH 300100Z AUTO 27002KT 6SM 11/M11 A3003 RMK T01101110 IEM_DS3505
ZBHH,2008-05-30 02:00,ZBHH 300200Z AUTO 25010KT 6SM 15/M12 A3000 RMK T01501120 IEM_DS3505
ZBHH,2008-05-30 03:00,ZBHH 300300Z AUTO 20006G17KT 19SM 17/M12 A2994 RMK SLP133 T01661119 57026 IEM_DS3505
ZBHH,2008-05-30 04:00,ZBHH 300400Z AUTO 24012KT 6SM 19/M11 A2991 RMK T01901110 IEM_DS3505
ZBHH,2008-05-30 05:00,ZBHH 300500Z AUTO 24014KT 6SM 19/M12 A2988 RMK T01901120 IEM_DS3505
ZBHH,2008-05-30 06:00,ZBHH 300600Z AUTO 25012G27KT 16SM 20/M11 A2985 RMK SLP089 T02041110 57034 IEM_DS3505
ZBHH,2008-05-30 07:00,ZBHH 300700Z AUTO 24016KT 7SM 21/M11 A2983 RMK T02101110 IEM_DS3505
ZBHH,2008-05-30 08:00,ZBHH 300800Z AUTO 24014KT 6SM 22/M11 A2980 RMK T02201110 IEM_DS3505
ZBHH,2008-05-30 09:00,ZBHH 300900Z AUTO 22010G25KT 16SM 22/M11 A2977 RMK SLP064 T02201110 57022 IEM_DS3505
ZBHH,2008-05-30 10:00,ZBHH 301000Z AUTO 25014KT 6SM 22/M11 A2977 RMK T02201110 IEM_DS3505
ZBHH,2008-05-30 11:00,ZBHH 301100Z AUTO 23012KT 6SM 22/M10 A2974 RMK T02201100 IEM_DS3505
ZBHH,2008-05-30 12:00,ZBHH 301200Z AUTO 22006KT 16SM 21/M09 A2974 RMK SLP045 T02111094 57013 IEM_DS3505
ZBHH,2008-05-30 13:00,ZBHH 301300Z AUTO 24010KT 6SM 20/M09 A2974 RMK T02001090 IEM_DS3505
ZBHH,2008-05-30 14:00,ZBHH 301400Z AUTO 21006KT 6SM 18/M07 A2974 RMK T01801070 IEM_DS3505
ZBHH,2008-05-30 15:00,ZBHH 301500Z AUTO 04002KT 16SM 17/M08 A2971 RMK SLP034 T01681076 57005 IEM_DS3505
ZBHH,2008-05-30 16:00,ZBHH 301600Z AUTO 22004KT 6SM 17/M05 A2971 RMK T01701050 IEM_DS3505
ZBHH,2008-05-30 17:00,ZBHH 301700Z AUTO 21002KT 7SM 15/M05 A2971 RMK T01501050 IEM_DS3505
ZBHH,2008-05-30 18:00,ZBHH 301800Z AUTO 27002KT 19SM 16/M05 A2968 RMK SLP019 T01561054 57009 IEM_DS3505
ZBHH,2008-05-30 19:00,ZBHH 301900Z AUTO 09002KT 7SM 13/M05 A2968 RMK T01301050 IEM_DS3505
ZBHH,2008-05-30 20:00,ZBHH 302000Z AUTO 10004KT 7SM 13/M05 A2968 RMK T01301050 IEM_DS3505
ZBHH,2008-05-30 21:00,ZBHH 302100Z AUTO 09002KT 19SM 14/M05 A2968 RMK SLP015 T01351046 57004 IEM_DS3505
ZBHH,2008-05-30 22:00,ZBHH 302200Z AUTO 07002KT 6SM 13/M05 A2968 RMK T01301050 IEM_DS3505
ZBHH,2008-05-30 23:00,ZBHH 302300Z AUTO 12002KT 6SM 14/M05 A2971 RMK T01401050 IEM_DS3505
ZBHH,2008-05-31 00:00,ZBHH 310000Z AUTO 09002KT 16SM 15/M04 A2971 RMK SLP023 T01511043 52008 IEM_DS3505
ZBHH,2008-05-31 01:00,ZBHH 310100Z AUTO 24002KT 6SM 17/M06 A2971 RMK T01701060 IEM_DS3505
ZBHH,2008-05-31 02:00,ZBHH 310200Z AUTO 05002KT 6SM 18/M07 A2971 RMK T01801070 IEM_DS3505
ZBHH,2008-05-31 03:00,ZBHH 310300Z AUTO 04004KT 19SM 22/M04 A2971 RMK SLP018 T02151038 54000 IEM_DS3505
ZBHH,2008-05-31 04:00,ZBHH 310400Z AUTO 35016KT 6SM 22/02 A2968 RMK T02200020 IEM_DS3505
ZBHH,2008-05-31 05:00,ZBHH 310500Z AUTO 36016KT 6SM 23/02 A2968 RMK T02300020 IEM_DS3505
ZBHH,2008-05-31 06:00,ZBHH 310600Z AUTO 32012KT 19SM 23/00 A2968 RMK SLP006 T02320003 57010 IEM_DS3505
ZBHH,2008-05-31 07:00,ZBHH 310700Z AUTO 36021KT 7SM 22/00 A2968 RMK T02200000 IEM_DS3505
ZBHH,2008-05-31 08:00,ZBHH 310800Z AUTO 35016KT 7SM 22/M02 A2968 RMK T02201020 IEM_DS3505
ZBHH,2008-05-31 09:00,ZBHH 310900Z AUTO 32008G25KT 19SM 23/M05 A2968 RMK SLP017 T02311048 52006 IEM_DS3505
ZBHH,2008-05-31 10:00,ZBHH 311000Z AUTO 35019KT 6SM 22/M06 A2971 RMK T02201060 IEM_DS3505
ZBHH,2008-05-31 11:00,ZBHH 311100Z AUTO 35016KT 6SM 21/M04 A2974 RMK T02101040 IEM_DS3505
ZBHH,2008-05-31 12:00,ZBHH 311200Z AUTO 36006KT 19SM 19/M04 A2977 RMK SLP051 T01931042 52028 IEM_DS3505
ZBHH,2008-05-31 13:00,ZBHH 311300Z AUTO 03014KT 6SM 17/00 A2980 RMK T01700000 IEM_DS3505
ZBHH,2008-05-31 14:00,ZBHH 311400Z AUTO 03010KT 6SM 15/00 A2983 RMK T01500000 IEM_DS3505
ZBHH,2008-05-31 15:00,ZBHH 311500Z AUTO 02002KT 19SM 15/M00 A2985 RMK SLP077 T01461003 52026 IEM_DS3505
ZBHH,2008-05-31 16:00,ZBHH 311600Z AUTO 01006KT 6SM 13/00 A2985 RMK T01300000 IEM_DS3505
ZBHH,2008-05-31 18:00,ZBHH 311800Z AUTO 07004KT 19SM 12/01 RMK SLP077 T01240011 57001 IEM_DS3505
ZBHH,2008-05-31 21:00,ZBHH 312100Z AUTO 32002KT 19SM 10/01 A2988 RMK SLP090 T00990010 52007 IEM_DS3505
ZBHH,2008-05-31 22:00,ZBHH 312200Z AUTO 06002KT 6SM 10/01 A2991 RMK T01000010 IEM_DS3505
ZBHH,2008-05-31 23:00,ZBHH 312300Z AUTO 36006KT 6SM 12/01 A2991 RMK T01200010 IEM_DS3505
ZBHH,2008-06-01 00:00,ZBHH 010000Z AUTO 02006KT 19SM 14/01 A2991 RMK SLP110 T01370010 52017 IEM_DS3505
ZBHH,2008-06-01 01:00,ZBHH 010100Z AUTO 32002KT 6SM 15/01 A2994 RMK T01500010 IEM_DS3505
ZBHH,2008-06-01 02:00,ZBHH 010200Z AUTO 35014KT 7SM 16/M01 A2991 RMK T01601010 IEM_DS3505
ZBHH,2008-06-01 03:00,ZBHH 010300Z AUTO 02006KT 19SM 18/M01 A2991 RMK SLP112 T01821011 52001 IEM_DS3505
ZBHH,2008-06-01 04:00,ZBHH 010400Z AUTO 34017KT 7SM 18/M02 A2991 RMK T01801020 IEM_DS3505
ZBHH,2008-06-01 05:00,ZBHH 010500Z AUTO 02019G29KT 7SM 19/M01 A2991 RMK T01901010 IEM_DS3505
ZBHH,2008-06-01 06:00,ZBHH 010600Z AUTO 02008KT 19SM 20/M01 A2991 RMK SLP105 T01991012 57007 IEM_DS3505
ZBHH,2008-06-01 07:00,ZBHH 010700Z AUTO 02014G23KT 7SM 20/M02 A2991 RMK T02001020 IEM_DS3505
ZBHH,2008-06-01 08:00,ZBHH 010800Z AUTO 01016KT 7SM 19/M02 A2991 RMK T01901020 IEM_DS3505
ZBHH,2008-06-01 09:00,ZBHH 010900Z AUTO 02008KT 19SM 20/M03 A2988 RMK SLP108 T01991031 57002 IEM_DS3505
ZBHH,2008-06-01 10:00,ZBHH 011000Z AUTO 03014KT 7SM 20/M04 A2991 RMK T02001040 IEM_DS3505
ZBHH,2008-06-01 11:00,ZBHH 011100Z AUTO 34012KT 7SM 20/M03 A2991 RMK T02001030 IEM_DS3505
ZBHH,2008-06-01 12:00,ZBHH 011200Z AUTO 36004KT 19SM 19/M04 A2994 RMK 60000 SLP117 T01861035 52013 IEM_DS3505
ZBHH,2008-06-01 13:00,ZBHH 011300Z AUTO 04006KT 7SM 17/M02 A2994 RMK T01701020 IEM_DS3505
ZBHH,2008-06-01 14:00,ZBHH 011400Z AUTO 08002KT 6SM 14/M02 A2997 RMK T01401020 IEM_DS3505
ZBHH,2008-06-01 15:00,ZBHH 011500Z AUTO 00000KT 19SM 14/M02 A2997 RMK SLP124 T01391017 52006 IEM_DS3505
ZBHH,2008-06-01 16:00,ZBHH 011600Z AUTO 08004KT 6SM 11/M01 A2997 RMK T01101010 IEM_DS3505
ZBHH,2008-06-01 17:00,ZBHH 011700Z AUTO 08008KT 7SM 11/00 A2994 RMK T01100000 IEM_DS3505
ZBHH,2008-06-01 18:00,ZBHH 011800Z AUTO 36002KT 19SM 12/M01 RMK SLP118 T01171008 57007 IEM_DS3505
ZBHH,2008-06-01 19:00,ZBHH 011900Z AUTO 09002KT 7SM 09/00 A2994 RMK T00900000 IEM_DS3505
ZBHH,2008-06-01 21:00,ZBHH 012100Z AUTO 07002KT 19SM 10/01 A2994 RMK 70000 SLP119 T01010007 57002 IEM_DS3505
ZBHH,2008-06-01 22:00,ZBHH 012200Z AUTO 10002KT 6SM 09/01 A2994 RMK T00900010 IEM_DS3505
ZBHH,2008-06-01 23:00,ZBHH 012300Z AUTO 09004KT 7SM 11/01 A2997 RMK T01100010 IEM_DS3505
ZBHH,2008-06-02 00:00,ZBHH 020000Z AUTO 16002KT 16SM 13/M00 A2997 RMK 70000 SLP130 T01281001 52013 IEM_DS3505
ZBHH,2008-06-02 01:00,ZBHH 020100Z AUTO 17004KT 7SM 14/00 A2997 RMK T01400000 IEM_DS3505
ZBHH,2008-06-02 02:00,ZBHH 020200Z AUTO 23006KT 7SM 16/01 A2997 RMK T01600010 IEM_DS3505
ZBHH,2008-06-02 03:00,ZBHH 020300Z AUTO 22012KT 19SM 18/M00 A2994 RMK SLP117 T01811002 57011 IEM_DS3505
ZBHH,2008-06-02 04:00,ZBHH 020400Z AUTO 24012G21KT 7SM 20/00 A2991 RMK T02000000 IEM_DS3505
ZBHH,2008-06-02 05:00,ZBHH 020500Z AUTO 23008KT 7SM 19/M01 A2988 RMK T01901010 IEM_DS3505
ZBHH,2008-06-02 06:00,ZBHH 020600Z AUTO 25006KT 19SM 20/M01 A2985 RMK SLP086 T01961009 57028 IEM_DS3505
ZBHH,2008-06-02 07:00,ZBHH 020700Z AUTO 7SM 20/M01 A2983 RMK T02001010 IEM_DS3505
ZBHH,2008-06-02 08:00,ZBHH 020800Z AUTO 26010KT 7SM 22/M01 A2980 RMK T02201010 IEM_DS3505
ZBHH,2008-06-02 09:00,ZBHH 020900Z AUTO 36006G27KT 12SM 19/02 A2983 RMK SLP078 T01870017 57012 IEM_DS3505
ZBHH,2008-06-02 10:00,ZBHH 021000Z AUTO 02012G21KT 7SM 16/04 A2983 RMK T01600040 IEM_DS3505
ZBHH,2008-06-02 11:00,ZBHH 021100Z AUTO 02012KT 7SM 16/04 A2983 RMK T01600040 IEM_DS3505
ZBHH,2008-06-02 12:00,ZBHH 021200Z AUTO 09006KT 19SM 16/04 A2983 RMK SLP079 T01650039 52002 IEM_DS3505
ZBHH,2008-06-02 13:00,ZBHH 021300Z AUTO 04010KT 7SM 16/04 A2983 RMK T01600040 IEM_DS3505
ZBHH,2008-06-02 14:00,ZBHH 021400Z AUTO 06010KT 7SM 16/04 A2983 RMK T01600040 IEM_DS3505
ZBHH,2008-06-02 15:00,ZBHH 021500Z AUTO 36006G23KT 9SM 11/07 A2985 RMK SLP112 T01080071 52028 IEM_DS3505
ZBHH,2008-06-02 16:00,ZBHH 021600Z AUTO 04016G25KT 7SM 11/07 A2985 RMK T01100070 IEM_DS3505
ZBHH,2008-06-02 17:00,ZBHH 021700Z AUTO 09008KT 7SM 11/07 A2985 RMK T01100070 IEM_DS3505
ZBHH,2008-06-02 18:00,ZBHH 021800Z AUTO 29002KT 16SM 12/07 A2985 RMK 60028 SLP089 T01170066 57016 IEM_DS3505
ZBHH,2008-06-02 19:00,ZBHH 021900Z AUTO 36010KT 7SM 11/07 A2983 RMK T01100070 IEM_DS3505
ZBHH,2008-06-02 20:00,ZBHH 022000Z AUTO 36006KT 7SM 12/06 A2985 RMK T01200060 IEM_DS3505
ZBHH,2008-06-02 21:00,ZBHH 022100Z AUTO 02004KT 19SM 12/05 A2985 RMK 70028 SLP090 T01160046 57001 IEM_DS3505
ZBHH,2008-06-02 22:00,ZBHH 022200Z AUTO 35006KT 7SM 11/06 A2988 RMK T01100060 IEM_DS3505
ZBHH,2008-06-02 23:00,ZBHH 022300Z AUTO 02004KT 7SM 12/06 A2988 RMK T01200060 IEM_DS3505
ZBHH,2008-06-03 00:00,ZBHH 030000Z AUTO 04002KT 19SM 13/05 A2988 RMK 60000 70028 SLP110 T01290048 52016 IEM_DS3505
ZBHH,2008-06-03 01:00,ZBHH 030100Z AUTO 03014G23KT 7SM 15/05 A2991 RMK T01500050 IEM_DS3505
ZBHH,2008-06-03 02:00,ZBHH 030200Z AUTO 02016KT 7SM 15/05 A2991 RMK T01500050 IEM_DS3505
ZBHH,2008-06-03 03:00,ZBHH 030300Z AUTO 02008KT 19SM 17/04 A2991 RMK SLP125 T01670037 52010 IEM_DS3505
ZBHH,2008-06-03 04:00,ZBHH 030400Z AUTO 02014KT 7SM 18/05 A2991 RMK T01800050 IEM_DS3505
ZBHH,2008-06-03 05:00,ZBHH 030500Z AUTO 02010KT 7SM 18/04 A2988 RMK T01800040 IEM_DS3505
ZBHH,2008-06-03 06:00,ZBHH 030600Z AUTO 36008KT 19SM 20/02 A2991 RMK SLP101 T02040018 57013 IEM_DS3505
ZBHH,2008-06-03 07:00,ZBHH 030700Z AUTO 13010KT 7SM 16/06 A2991 RMK T01600060 IEM_DS3505
ZBHH,2008-06-03 08:00,ZBHH 030800Z AUTO 12012KT 7SM 17/06 A2988 RMK T01700060 IEM_DS3505
ZBHH,2008-06-03 09:00,ZBHH 030900Z AUTO 25002KT 19SM 17/06 A2991 RMK SLP119 T01730062 52010 IEM_DS3505
ZBHH,2008-06-03 10:00,ZBHH 031000Z AUTO 15002KT 7SM 17/06 A2994 RMK T01700060 IEM_DS3505
ZBHH,2008-06-03 11:00,ZBHH 031100Z AUTO 22002KT 7SM 15/08 A2997 RMK T01500080 IEM_DS3505
ZBHH,2008-06-03 12:00,ZBHH 031200Z AUTO 11002KT 19SM 15/07 A2997 RMK 60000 SLP136 T01470068 52013 IEM_DS3505
ZBHH,2008-06-03 13:00,ZBHH 031300Z AUTO 27002KT 7SM 13/08 A3000 RMK T01300080 IEM_DS3505
ZBHH,2008-06-03 14:00,ZBHH 031400Z AUTO 35002KT 7SM 12/08 A3003 RMK T01200080 IEM_DS3505
ZBHH,2008-06-03 15:00,ZBHH 031500Z AUTO 29002KT 19SM 13/07 A3003 RMK SLP147 T01290069 52013 IEM_DS3505
ZBHH,2008-06-03 16:00,ZBHH 031600Z AUTO 08002KT 7SM 10/07 A3003 RMK T01000070 IEM_DS3505
ZBHH,2008-06-03 17:00,ZBHH 031700Z AUTO 09002KT 6SM 09/05 A3000 RMK T00900050 IEM_DS3505
ZBHH,2008-06-03 18:00,ZBHH 031800Z AUTO 00000KT 19SM 10/06 A3000 RMK SLP143 T01020062 57001 IEM_DS3505
ZBHH,2008-06-03 21:00,ZBHH 032100Z AUTO 07004KT 19SM 09/05 A3000 RMK 70000 SLP153 T00860052 57001 IEM_DS3505
ZBHH,2008-06-03 22:00,ZBHH 032200Z AUTO 05004KT 6SM 07/05 A3003 RMK T00700050 IEM_DS3505
ZBHH,2008-06-03 23:00,ZBHH 032300Z AUTO 08004KT 6SM 10/06 A3003 RMK T01000060 IEM_DS3505
ZBHH,2008-06-04 00:00,ZBHH 040000Z AUTO 16002KT 19SM 12/06 A3003 RMK 70000 SLP162 T01240056 52011 IEM_DS3505
ZBHH,2008-06-04 01:00,ZBHH 040100Z AUTO 13002KT 6SM 14/08 A3003 RMK T01400080 IEM_DS3505
ZBHH,2008-06-04 02:00,ZBHH 040200Z AUTO 18004KT 6SM 16/07 A3000 RMK T01600070 IEM_DS3505
ZBHH,2008-06-04 03:00,ZBHH 040300Z AUTO 22006KT 19SM 18/04 A3000 RMK SLP137 T01820044 57015 IEM_DS3505
ZBHH,2008-06-04 04:00,ZBHH 040400Z AUTO 25006KT 6SM 21/03 A2997 RMK T02100030 IEM_DS3505
ZBHH,2008-06-04 05:00,ZBHH 040500Z AUTO 23006KT 7SM 21/02 A2994 RMK T02100020 IEM_DS3505
ZBHH,2008-06-04 06:00,ZBHH 040600Z AUTO 16006KT 19SM 22/02 A2991 RMK SLP110 T02190015 57022 IEM_DS3505
ZBHH,2008-06-04 07:00,ZBHH 040700Z AUTO 14002KT 7SM 23/01 A2988 RMK T02300010 IEM_DS3505
ZBHH,2008-06-04 08:00,ZBHH 040800Z AUTO 26004KT 7SM 23/M02 A2988 RMK T02301020 IEM_DS3505
ZBHH,2008-06-04 09:00,ZBHH 040900Z AUTO 25002KT 19SM 24/M01 A2985 RMK SLP085 T02371013 57021 IEM_DS3505
ZBHH,2008-06-04 10:00,ZBHH 041000Z AUTO 33006KT 7SM 22/M04 A2985 RMK T02201040 IEM_DS3505
ZBHH,2008-06-04 11:00,ZBHH 041100Z AUTO 24008KT 7SM 22/02 A2985 RMK T02200020 IEM_DS3505
ZBHH,2008-06-04 12:00,ZBHH 041200Z AUTO 25004KT 19SM 21/02 A2985 RMK SLP085 T02120015 52002 IEM_DS3505
ZBHH,2008-06-04 13:00,ZBHH 041300Z AUTO 26006KT 7SM 19/02 A2985 RMK T01900020 IEM_DS3505
ZBHH,2008-06-04 14:00,ZBHH 041400Z AUTO 04006KT 7SM 18/01 A2988 RMK T01800010 IEM_DS3505
ZBHH,2008-06-04 15:00,ZBHH 041500Z AUTO 07004KT 19SM 18/M00 A2988 RMK SLP081 T01841004 52002 IEM_DS3505
ZBHH,2008-06-04 16:00,ZBHH 041600Z AUTO 07006KT 7SM 16/00 A2988 RMK T01600000 IEM_DS3505
ZBHH,2008-06-04 17:00,ZBHH 041700Z AUTO 09008KT 7SM 14/01 A2985 RMK T01400010 IEM_DS3505
ZBHH,2008-06-04 18:00,ZBHH 041800Z AUTO 07002KT 19SM 16/00 A2985 RMK SLP074 T01640001 57003 IEM_DS3505
ZBHH,2008-06-04 19:00,ZBHH 041900Z AUTO 06004KT 7SM 14/02 A2985 RMK T01400020 IEM_DS3505
ZBHH,2008-06-04 20:00,ZBHH 042000Z AUTO 10002KT 7SM 13/02 A2985 RMK T01300020 IEM_DS3505
ZBHH,2008-06-04 21:00,ZBHH 042100Z AUTO 25002KT 19SM 17/M00 A2985 RMK SLP072 T01731004 52003 IEM_DS3505
ZBHH,2008-06-04 22:00,ZBHH 042200Z AUTO 7SM 14/02 A2985 RMK T01400020 IEM_DS3505
ZBHH,2008-06-04 23:00,ZBHH 042300Z AUTO 08002KT 7SM 15/02 A2985 RMK T01500020 IEM_DS3505
ZBHH,2008-06-05 00:00,ZBHH 050000Z AUTO 16002KT 12SM 17/01 A2988 RMK SLP084 T01730013 52006 IEM_DS3505
ZBHH,2008-06-05 01:00,ZBHH 050100Z AUTO 24004KT 7SM 17/02 A2988 RMK T01700020 IEM_DS3505
ZBHH,2008-06-05 02:00,ZBHH 050200Z AUTO 22004KT 7SM 18/05 A2988 RMK T01800050 IEM_DS3505
ZBHH,2008-06-05 03:00,ZBHH 050300Z AUTO 22004KT 7SM 16/07 A2988 RMK SLP095 T01590069 52002 IEM_DS3505
ZBHH,2008-06-05 04:00,ZBHH 050400Z AUTO 24010KT 7SM 17/08 A2988 RMK T01700080 IEM_DS3505
ZBHH,2008-06-05 05:00,ZBHH 050500Z AUTO 24008KT 7SM 17/08 A2988 RMK T01700080 IEM_DS3505
ZBHH,2008-06-05 06:00,ZBHH 050600Z AUTO 25004KT 9SM 17/08 A2985 RMK 60000 SLP087 T01670079 57009 IEM_DS3505
ZBHH,2008-06-05 07:00,ZBHH 050700Z AUTO 25006KT 7SM 18/08 A2985 RMK T01800080 IEM_DS3505
ZBHH,2008-06-05 08:00,ZBHH 050800Z AUTO 22006KT 7SM 18/08 A2983 RMK T01800080 IEM_DS3505
ZBHH,2008-06-05 09:00,ZBHH 050900Z AUTO 32002KT 9SM 18/07 A2983 RMK SLP072 T01760074 57010 IEM_DS3505
ZBHH,2008-06-05 10:00,ZBHH 051000Z AUTO 20004KT 7SM 17/07 A2983 RMK T01700070 IEM_DS3505
ZBHH,2008-06-05 11:00,ZBHH 051100Z AUTO 30002KT 7SM 17/07 A2983 RMK T01700070 IEM_DS3505
ZBHH,2008-06-05 12:00,ZBHH 051200Z AUTO 09004KT 19SM 17/07 A2983 RMK SLP071 T01680066 57002 IEM_DS3505
ZBHH,2008-06-05 13:00,ZBHH 051300Z AUTO 02004KT 7SM 17/08 A2983 RMK T01700080 IEM_DS3505
ZBHH,2008-06-05 14:00,ZBHH 051400Z AUTO 02004KT 7SM 16/07 A2985 RMK T01600070 IEM_DS3505
ZBHH,2008-06-05 15:00,ZBHH 051500Z AUTO 27002KT 16SM 16/06 A2985 RMK SLP089 T01650063 52012 IEM_DS3505
ZBHH,2008-06-05 16:00,ZBHH 051600Z AUTO 14002KT 7SM 15/08 A2988 RMK T01500080 IEM_DS3505
ZBHH,2008-06-05 17:00,ZBHH 051700Z AUTO 29002KT 7SM 14/08 A2985 RMK T01400080 IEM_DS3505
ZBHH,2008-06-05 18:00,ZBHH 051800Z AUTO 22002KT 12SM 15/07 A2985 RMK SLP089 T01520067 57001 IEM_DS3505
ZBHH,2008-06-05 21:00,ZBHH 052100Z AUTO 00000KT 12SM 12/08 A2988 RMK 70000 SLP105 T01190076 52010 IEM_DS3505
ZBHH,2008-06-05 22:00,ZBHH 052200Z AUTO 09004KT 6SM 10/07 A2991 RMK T01000070 IEM_DS3505
ZBHH,2008-06-05 23:00,ZBHH 052300Z AUTO 13002KT 6SM 13/09 A2994 RMK T01300090 IEM_DS3505
ZBHH,2008-06-06 00:00,ZBHH 060000Z AUTO 07002KT 7SM 16/08 A2994 RMK 70000 SLP115 T01600077 52015 IEM_DS3505
ZBHH,2008-06-06 01:00,ZBHH 060100Z AUTO 16002KT 6SM 17/10 A2994 RMK T01700100 IEM_DS3505
ZBHH,2008-06-06 02:00,ZBHH 060200Z AUTO 21002KT 6SM 19/08 A2994 RMK T01900080 IEM_DS3505
ZBHH,2008-06-06 03:00,ZBHH 060300Z AUTO 18004KT 19SM 22/06 A2991 RMK SLP093 T02210059 57008 IEM_DS3505
ZBHH,2008-06-06 04:00,ZBHH 060400Z AUTO 21006KT 7SM 24/05 A2988 RMK T02400050 IEM_DS3505
ZBHH,2008-06-06 05:00,ZBHH 060500Z AUTO 08002KT 7SM 25/02 A2985 RMK T02500020 IEM_DS3505
ZBHH,2008-06-06 06:00,ZBHH 060600Z AUTO 27006KT 19SM 26/03 A2983 RMK SLP062 T02590026 57023 IEM_DS3505
ZBHH,2008-06-06 07:00,ZBHH 060700Z AUTO 26010KT 7SM 26/03 A2983 RMK T02600030 IEM_DS3505
ZBHH,2008-06-06 08:00,ZBHH 060800Z AUTO 29010KT 7SM 27/00 A2983 RMK T02700000 IEM_DS3505
ZBHH,2008-06-06 09:00,ZBHH 060900Z AUTO 32008KT 19SM 27/01 A2983 RMK SLP058 T02690006 57008 IEM_DS3505
ZBHH,2008-06-06 10:00,ZBHH 061000Z AUTO 33008KT 7SM 27/01 A2980 RMK T02700010 IEM_DS3505
ZBHH,2008-06-06 11:00,ZBHH 061100Z AUTO 26010KT 7SM 26/02 A2983 RMK T02600020 IEM_DS3505
ZBHH,2008-06-06 12:00,ZBHH 061200Z AUTO 25004KT 12SM 25/02 A2983 RMK SLP054 T02520020 52001 IEM_DS3505
ZBHH,2008-06-06 13:00,ZBHH 061300Z AUTO 34006KT 7SM 23/01 A2985 RMK T02300010 IEM_DS3505
ZBHH,2008-06-06 14:00,ZBHH 061400Z AUTO 34004KT 6SM 21/02 A2985 RMK T02100020 IEM_DS3505
ZBHH,2008-06-06 15:00,ZBHH 061500Z AUTO 29004KT 19SM 22/M00 A2988 RMK SLP069 T02191001 52018 IEM_DS3505
ZBHH,2008-06-06 16:00,ZBHH 061600Z AUTO 04002KT 6SM 18/01 A2988 RMK T01800010 IEM_DS3505
ZBHH,2008-06-06 17:00,ZBHH 061700Z AUTO 06004KT 7SM 15/02 A2988 RMK T01500020 IEM_DS3505
ZBHH,2008-06-06 18:00,ZBHH 061800Z AUTO 09002KT 19SM 17/02 A2988 RMK SLP074 T01720016 52003 IEM_DS3505
ZBHH,2008-06-06 21:00,ZBHH 062100Z AUTO 04002KT 19SM 15/04 A2988 RMK SLP073 T01510039 57003 IEM_DS3505
ZBHH,2008-06-06 22:00,ZBHH 062200Z AUTO 09004KT 6SM 12/04 A2988 RMK T01200040 IEM_DS3505
ZBHH,2008-06-06 23:00,ZBHH 062300Z AUTO 09004KT 6SM 15/04 A2988 RMK T01500040 IEM_DS3505
ZBHH,2008-06-07 00:00,ZBHH 070000Z AUTO 07002KT 19SM 19/06 A2988 RMK SLP073 T01880056 52004 IEM_DS3505
ZBHH,2008-06-07 01:00,ZBHH 070100Z AUTO 17002KT 6SM 20/05 A2988 RMK T02000050 IEM_DS3505
ZBHH,2008-06-07 02:00,ZBHH 070200Z AUTO 25006KT 6SM 23/05 A2985 RMK T02300050 IEM_DS3505
ZBHH,2008-06-07 03:00,ZBHH 070300Z AUTO 22004KT 19SM 25/04 A2985 RMK SLP052 T02470039 57014 IEM_DS3505
ZBHH,2008-06-07 04:00,ZBHH 070400Z AUTO 23010KT 6SM 28/04 A2983 RMK T02800040 IEM_DS3505
ZBHH,2008-06-07 05:00,ZBHH 070500Z AUTO 24006KT 6SM 30/04 A2980 RMK T03000040 IEM_DS3505
ZBHH,2008-06-07 06:00,ZBHH 070600Z AUTO 34006KT 19SM 33/M00 A2977 RMK SLP016 T03281003 57026 IEM_DS3505
ZBHH,2008-06-07 07:00,ZBHH 070700Z AUTO 36012G21KT 6SM 32/00 A2974 RMK T03200000 IEM_DS3505
ZBHH,2008-06-07 08:00,ZBHH 070800Z AUTO 32017KT 6SM 33/M01 A2974 RMK T03301010 IEM_DS3505
ZBHH,2008-06-07 09:00,ZBHH 070900Z AUTO 36008KT 19SM 33/M00 A2974 RMK SLP011 T03291002 57008 IEM_DS3505
ZBHH,2008-06-07 10:00,ZBHH 071000Z AUTO 36014KT 6SM 31/M02 A2974 RMK T03101020 IEM_DS3505
ZBHH,2008-06-07 11:00,ZBHH 071100Z AUTO 02010KT 6SM 30/M01 A2977 RMK T03001010 IEM_DS3505
ZBHH,2008-06-07 12:00,ZBHH 071200Z AUTO 02004KT 19SM 29/M00 A2977 RMK SLP025 T02881004 52012 IEM_DS3505
ZBHH,2008-06-07 13:00,ZBHH 071300Z AUTO 02008KT 6SM 26/00 A2980 RMK T02600000 IEM_DS3505
ZBHH,2008-06-07 14:00,ZBHH 071400Z AUTO 03008KT 6SM 24/01 A2983 RMK T02400010 IEM_DS3505
ZBHH,2008-06-07 15:00,ZBHH 071500Z AUTO 09002KT 19SM 22/03 A2983 RMK SLP047 T02200027 52018 IEM_DS3505
ZBHH,2008-06-07 16:00,ZBHH 071600Z AUTO 05008KT 6SM 22/02 A2985 RMK T02200020 IEM_DS3505
ZBHH,2008-06-07 18:00,ZBHH 071800Z AUTO 00000KT 19SM 18/04 A2985 RMK SLP044 T01770043 52004 IEM_DS3505
ZBHH,2008-06-07 19:00,ZBHH 071900Z AUTO 06004KT 7SM 17/03 A2985 RMK T01700030 IEM_DS3505
ZBHH,2008-06-07 21:00,ZBHH 072100Z AUTO 09002KT 19SM 16/04 A2985 RMK SLP054 T01600038 52006 IEM_DS3505
ZBHH,2008-06-07 22:00,ZBHH 072200Z AUTO 09006KT 6SM 17/04 A2988 RMK T01700040 IEM_DS3505
ZBHH,2008-06-07 23:00,ZBHH 072300Z AUTO 07004KT 6SM 19/04 A2988 RMK T01900040 IEM_DS3505
ZBHH,2008-06-08 00:00,ZBHH 080000Z AUTO 09002KT 19SM 24/04 A2988 RMK SLP056 T02400044 52009 IEM_DS3505
ZBHH,2008-06-08 01:00,ZBHH 080100Z AUTO 13002KT 6SM 27/04 A2988 RMK T02700040 IEM_DS3505
ZBHH,2008-06-08 02:00,ZBHH 080200Z AUTO 21004KT 6SM 29/02 A2988 RMK T02900020 IEM_DS3505
ZBHH,2008-06-08 03:00,ZBHH 080300Z AUTO 20004KT 19SM 30/01 A2988 RMK SLP052 T02960011 57006 IEM_DS3505
ZBHH,2008-06-08 04:00,ZBHH 080400Z AUTO 24004KT 6SM 31/02 A2985 RMK T03100020 IEM_DS3505
ZBHH,2008-06-08 05:00,ZBHH 080500Z AUTO 20006KT 6SM 31/01 A2985 RMK T03100010 IEM_DS3505
ZBHH,2008-06-08 06:00,ZBHH 080600Z AUTO 27004KT 19SM 32/01 A2983 RMK SLP036 T03220013 57017 IEM_DS3505
ZBHH,2008-06-08 07:00,ZBHH 080700Z AUTO 21008KT 7SM 33/M01 A2980 RMK T03301010 IEM_DS3505
ZBHH,2008-06-08 08:00,ZBHH 080800Z AUTO 18012KT 7SM 34/00 A2980 RMK T03400000 IEM_DS3505
ZBHH,2008-06-08 09:00,ZBHH 080900Z AUTO 09004KT 19SM 34/M01 A2980 RMK SLP022 T03371008 57013 IEM_DS3505
ZBHH,2008-06-08 10:00,ZBHH 081000Z AUTO 23010KT 6SM 33/M02 A2977 RMK T03301020 IEM_DS3505
ZBHH,2008-06-08 11:00,ZBHH 081100Z AUTO 25008KT 6SM 32/M02 A2980 RMK T03201020 IEM_DS3505
ZBHH,2008-06-08 12:00,ZBHH 081200Z AUTO 20002KT 19SM 31/M01 A2980 RMK SLP018 T03071008 52005 IEM_DS3505
ZBHH,2008-06-08 13:00,ZBHH 081300Z AUTO 14004KT 6SM 27/01 A2983 RMK T02700010 IEM_DS3505
ZBHH,2008-06-08 14:00,ZBHH 081400Z AUTO 06006KT 6SM 23/02 A2985 RMK T02300020 IEM_DS3505
ZBHH,2008-06-08 15:00,ZBHH 081500Z AUTO 07002KT 16SM 25/02 A2985 RMK SLP038 T02510019 52018 IEM_DS3505
ZBHH,2008-06-08 16:00,ZBHH 081600Z AUTO 04006KT 7SM 21/01 A2985 RMK T02100010 IEM_DS3505
ZBHH,2008-06-08 18:00,ZBHH 081800Z AUTO 25002KT 12SM 20/03 RMK SLP045 T01960029 52001 IEM_DS3505
ZBHH,2008-06-08 21:00,ZBHH 082100Z AUTO 00000KT 19SM 18/04 A2985 RMK SLP049 T01820040 52004 IEM_DS3505
ZBHH,2008-06-08 22:00,ZBHH 082200Z AUTO 07004KT 6SM 17/04 A2988 RMK T01700040 IEM_DS3505
ZBHH,2008-06-08 23:00,ZBHH 082300Z AUTO 07004KT 6SM 21/04 A2988 RMK T02100040 IEM_DS3505
ZBHH,2008-06-09 00:00,ZBHH 090000Z AUTO 09004KT 19SM 25/05 A2988 RMK SLP051 T02490046 52008 IEM_DS3505
ZBHH,2008-06-09 01:00,ZBHH 090100Z AUTO 23004KT 6SM 26/07 A2988 RMK T02600070 IEM_DS3505
ZBHH,2008-06-09 02:00,ZBHH 090200Z AUTO 24006KT 6SM 27/08 A2988 RMK T02700080 IEM_DS3505
ZBHH,2008-06-09 03:00,ZBHH 090300Z AUTO 20004KT 12SM 28/05 A2985 RMK SLP044 T02850047 57010 IEM_DS3505
ZBHH,2008-06-09 04:00,ZBHH 090400Z AUTO 22004KT 7SM 30/06 A2985 RMK T03000060 IEM_DS3505
ZBHH,2008-06-09 05:00,ZBHH 090500Z AUTO 23006G16KT 7SM 32/05 A2983 RMK T03200050 IEM_DS3505
ZBHH,2008-06-09 06:00,ZBHH 090600Z AUTO 36008G25KT 12SM 33/01 A2983 RMK SLP025 T03290009 57018 IEM_DS3505
ZBHH,2008-06-09 07:00,ZBHH 090700Z AUTO 02006KT 7SM 31/M01 A2980 RMK T03101010 IEM_DS3505
ZBHH,2008-06-09 08:00,ZBHH 090800Z AUTO 33010KT 7SM 30/02 A2980 RMK T03000020 IEM_DS3505
ZBHH,2008-06-09 09:00,ZBHH 090900Z AUTO 32008KT 12SM 29/02 A2980 RMK SLP035 T02910024 57001 IEM_DS3505
ZBHH,2008-06-09 10:00,ZBHH 091000Z AUTO 30006KT 7SM 29/03 A2980 RMK T02900030 IEM_DS3505
ZBHH,2008-06-09 11:00,ZBHH 091100Z AUTO 15004KT 7SM 28/04 A2980 RMK T02800040 IEM_DS3505
ZBHH,2008-06-09 12:00,ZBHH 091200Z AUTO 02002KT 12SM 26/04 A2980 RMK SLP024 T02640036 57002 IEM_DS3505
ZBHH,2008-06-09 13:00,ZBHH 091300Z AUTO 36008KT 7SM 25/03 A2983 RMK T02500030 IEM_DS3505
ZBHH,2008-06-09 14:00,ZBHH 091400Z AUTO 08006KT 6SM 22/04 A2983 RMK T02200040 IEM_DS3505
ZBHH,2008-06-09 15:00,ZBHH 091500Z AUTO 04004KT 19SM 23/03 A2983 RMK SLP038 T02330033 52013 IEM_DS3505
ZBHH,2008-06-09 16:00,ZBHH 091600Z AUTO 05006KT 7SM 21/04 A2985 RMK T02100040 IEM_DS3505
ZBHH,2008-06-09 18:00,ZBHH 091800Z AUTO 22002KT 19SM 20/05 A2985 RMK SLP041 T01950052 52004 IEM_DS3505
ZBHH,2008-06-09 19:00,ZBHH 091900Z AUTO 01004KT 7SM 18/05 A2985 RMK T01800050 IEM_DS3505
ZBHH,2008-06-09 20:00,ZBHH 092000Z AUTO 08006KT 7SM 16/04 A2985 RMK T01600040 IEM_DS3505
ZBHH,2008-06-09 21:00,ZBHH 092100Z AUTO 09002KT 19SM 18/05 A2985 RMK SLP056 T01780047 52003 IEM_DS3505
ZBHH,2008-06-09 22:00,ZBHH 092200Z AUTO 04006KT 6SM 17/05 A2985 RMK T01700050 IEM_DS3505
ZBHH,2008-06-09 23:00,ZBHH 092300Z AUTO 07004KT 6SM 20/06 A2988 RMK T02000060 IEM_DS3505
ZBHH,2008-06-10 00:00,ZBHH 100000Z AUTO 07004KT 12SM 23/06 A2988 RMK SLP059 T02270056 52007 IEM_DS3505
ZBHH,2008-06-10 01:00,ZBHH 100100Z AUTO 13004KT 6SM 25/07 A2988 RMK T02500070 IEM_DS3505
ZBHH,2008-06-10 02:00,ZBHH 100200Z AUTO 17004KT 6SM 26/07 A2988 RMK T02600070 IEM_DS3505
ZBHH,2008-06-10 03:00,ZBHH 100300Z AUTO 20004KT 12SM 28/06 A2985 RMK SLP044 T02830058 57009 IEM_DS3505
ZBHH,2008-06-10 04:00,ZBHH 100400Z AUTO 14004KT 7SM 30/06 A2983 RMK T03000060 IEM_DS3505
ZBHH,2008-06-10 05:00,ZBHH 100500Z AUTO 20004KT 7SM 33/03 A2980 RMK T03300030 IEM_DS3505
ZBHH,2008-06-10 06:00,ZBHH 100600Z AUTO 16002KT 19SM 33/02 A2980 RMK SLP019 T03270017 57021 IEM_DS3505
ZBHH,2008-06-10 07:00,ZBHH 100700Z AUTO 7SM 32/02 A2977 RMK T03200020 IEM_DS3505
ZBHH,2008-06-10 08:00,ZBHH 100800Z AUTO 22014KT 7SM 31/03 A2977 RMK T03100030 IEM_DS3505
ZBHH,2008-06-10 09:00,ZBHH 100900Z AUTO 18006KT 19SM 32/02 A2977 RMK SLP012 T03220023 57010 IEM_DS3505
ZBHH,2008-06-10 10:00,ZBHH 101000Z AUTO 04014KT 7SM 30/03 A2977 RMK T03000030 IEM_DS3505
ZBHH,2008-06-10 11:00,ZBHH 101100Z AUTO 06008KT 7SM 28/05 A2983 RMK T02800050 IEM_DS3505
ZBHH,2008-06-10 12:00,ZBHH 101200Z AUTO 22008KT 16SM 29/05 A2983 RMK SLP040 T02880050 52027 IEM_DS3505
ZBHH,2008-06-10 13:00,ZBHH 101300Z AUTO 22008KT 7SM 26/06 A2985 RMK T02600060 IEM_DS3505
ZBHH,2008-06-10 14:00,ZBHH 101400Z AUTO 06002KT 7SM 25/06 A2988 RMK T02500060 IEM_DS3505
ZBHH,2008-06-10 15:00,ZBHH 101500Z AUTO 29002KT 19SM 25/07 A2988 RMK SLP044 T02500067 52007 IEM_DS3505
ZBHH,2008-06-10 16:00,ZBHH 101600Z AUTO 09006KT 7SM 21/07 A2988 RMK T02100070 IEM_DS3505
ZBHH,2008-06-10 17:00,ZBHH 101700Z AUTO 11010KT 7SM 21/06 A2988 RMK T02100060 IEM_DS3505
ZBHH,2008-06-10 18:00,ZBHH 101800Z AUTO 07004KT 19SM 21/07 A2991 RMK SLP060 T02130068 52015 IEM_DS3505
ZBHH,2008-06-10 19:00,ZBHH 101900Z AUTO 01004KT 7SM 19/08 A2991 RMK T01900080 IEM_DS3505
ZBHH,2008-06-10 20:00,ZBHH 102000Z AUTO 30002KT 7SM 18/08 A2991 RMK T01800080 IEM_DS3505
ZBHH,2008-06-10 21:00,ZBHH 102100Z AUTO 34002KT 12SM 20/10 A2991 RMK SLP062 T01950100 57002 IEM_DS3505
ZBHH,2008-06-10 22:00,ZBHH 102200Z AUTO 08004KT 7SM 17/10 A2991 RMK T01700100 IEM_DS3505
ZBHH,2008-06-10 23:00,ZBHH 102300Z AUTO 10004KT 7SM 19/10 A2991 RMK T01900100 IEM_DS3505
ZBHH,2008-06-11 00:00,ZBHH 110000Z AUTO 14002KT 6SM 22/11 A2991 RMK SLP064 T02250110 52001 IEM_DS3505
ZBHH,2008-06-11 01:00,ZBHH 110100Z AUTO 19006KT 7SM 23/12 A2991 RMK T02300120 IEM_DS3505
ZBHH,2008-06-11 02:00,ZBHH 110200Z AUTO 22006KT 5SM 24/12 A2988 RMK T02400120 IEM_DS3505
ZBHH,2008-06-11 03:00,ZBHH 110300Z AUTO 20004KT 5SM 25/10 A2988 RMK SLP054 T02520103 57011 IEM_DS3505
ZBHH,2008-06-11 04:00,ZBHH 110400Z AUTO 24006KT 6SM 26/11 A2985 RMK T02600110 IEM_DS3505
ZBHH,2008-06-11 05:00,ZBHH 110500Z AUTO 21012KT 7SM 29/10 A2980 RMK T02900100 IEM_DS3505
ZBHH,2008-06-11 06:00,ZBHH 110600Z AUTO 22008KT 6SM 29/08 A2977 RMK SLP017 T02870079 57033 IEM_DS3505
ZBHH,2008-06-11 07:00,ZBHH 110700Z AUTO 25006KT 7SM 29/08 A2977 RMK T02900080 IEM_DS3505
ZBHH,2008-06-11 08:00,ZBHH 110800Z AUTO 30010G23KT 7SM 29/08 A2977 RMK T02900080 IEM_DS3505
ZBHH,2008-06-11 09:00,ZBHH 110900Z AUTO 36006KT 7SM 26/06 A2977 RMK SLP025 T02610062 57001 IEM_DS3505
ZBHH,2008-06-11 10:00,ZBHH 111000Z AUTO 05008KT 7SM 26/05 A2974 RMK T02600050 IEM_DS3505
ZBHH,2008-06-11 11:00,ZBHH 111100Z AUTO 18012G23KT 7SM 24/10 A2983 RMK T02400100 IEM_DS3505
ZBHH,2008-06-11 12:00,ZBHH 111200Z AUTO 11006KT 12SM 20/12 A2983 RMK 60000 SLP061 T02030123 52027 IEM_DS3505
ZBHH,2008-06-11 13:00,ZBHH 111300Z AUTO 24004KT 7SM 19/13 A2988 RMK T01900130 IEM_DS3505
ZBHH,2008-06-11 14:00,ZBHH 111400Z AUTO 23004KT 7SM 19/13 A2985 RMK T01900130 IEM_DS3505
ZBHH,2008-06-11 15:00,ZBHH 111500Z AUTO 32006KT 19SM 20/12 A2985 RMK SLP061 T02000123 52004 IEM_DS3505
ZBHH,2008-06-11 16:00,ZBHH 111600Z AUTO 05006KT 7SM 19/12 A2985 RMK T01900120 IEM_DS3505
ZBHH,2008-06-11 17:00,ZBHH 111700Z AUTO 09004KT 7SM 19/12 A2983 RMK T01900120 IEM_DS3505
ZBHH,2008-06-11 18:00,ZBHH 111800Z AUTO 18004KT 19SM 20/11 A2980 RMK SLP035 T01980113 57017 IEM_DS3505
ZBHH,2008-06-11 19:00,ZBHH 111900Z AUTO 03004KT 7SM 18/11 A2980 RMK T01800110 IEM_DS3505
ZBHH,2008-06-11 20:00,ZBHH 112000Z AUTO 11004KT 7SM 17/11 A2980 RMK T01700110 IEM_DS3505
ZBHH,2008-06-11 21:00,ZBHH 112100Z AUTO 09004KT 19SM 18/12 A2980 RMK 70000 SLP040 T01760116 57004 IEM_DS3505
ZBHH,2008-06-11 22:00,ZBHH 112200Z AUTO 07004KT 6SM 16/10 A2980 RMK T01600100 IEM_DS3505
ZBHH,2008-06-12 00:00,ZBHH 120000Z AUTO 07002KT 12SM 21/10 A2983 RMK 70000 SLP055 T02070105 52008 IEM_DS3505
ZBHH,2008-06-12 01:00,ZBHH 120100Z AUTO 15004KT 6SM 22/12 A2983 RMK T02200120 IEM_DS3505
ZBHH,2008-06-12 02:00,ZBHH 120200Z AUTO 16004KT 6SM 24/11 A2980 RMK T02400110 IEM_DS3505
ZBHH,2008-06-12 03:00,ZBHH 120300Z AUTO 14006KT 12SM 25/11 A2980 RMK SLP035 T02500108 57010 IEM_DS3505
ZBHH,2008-06-12 04:00,ZBHH 120400Z AUTO 6SM 27/12 A2977 RMK T02700120 IEM_DS3505
ZBHH,2008-06-12 05:00,ZBHH 120500Z AUTO 24008KT 6SM 29/11 A2974 RMK T02900110 IEM_DS3505
ZBHH,2008-06-12 06:00,ZBHH 120600Z AUTO 22006G17KT 9SM 30/11 A2971 RMK SLP998 T02960107 57025 IEM_DS3505
ZBHH,2008-06-12 07:00,ZBHH 120700Z AUTO 22010KT 6SM 31/10 A2968 RMK T03100100 IEM_DS3505
ZBHH,2008-06-12 08:00,ZBHH 120800Z AUTO 21010KT 7SM 30/08 A2965 RMK T03000080 IEM_DS3505
ZBHH,2008-06-12 09:00,ZBHH 120900Z AUTO 25004KT 9SM 31/08 A2962 RMK SLP972 T03060077 57025 IEM_DS3505
ZBHH,2008-06-12 10:00,ZBHH 121000Z AUTO 17010KT 7SM 29/08 A2965 RMK T02900080 IEM_DS3505
ZBHH,2008-06-12 11:00,ZBHH 121100Z AUTO 15014KT 7SM 28/10 A2965 RMK T02800100 IEM_DS3505
ZBHH,2008-06-12 12:00,ZBHH 121200Z AUTO 09014G33KT 7SM 19/12 A2980 RMK SLP048 T01900118 52076 IEM_DS3505
ZBHH,2008-06-12 13:00,ZBHH 121300Z AUTO 01012KT 2 1/2SM 17/13 A2991 RMK T01700130 IEM_DS3505
ZBHH,2008-06-12 14:00,ZBHH 121400Z AUTO 13010KT 2 1/2SM 16/14 A2991 RMK T01600140 IEM_DS3505
ZBHH,2008-06-12 15:00,ZBHH 121500Z AUTO 29002KT 12SM 16/14 A2991 RMK SLP086 T01600137 52036 IEM_DS3505
ZBHH,2008-06-12 16:00,ZBHH 121600Z AUTO 12010KT 2 1/2SM 15/13 A2983 RMK T01500130 IEM_DS3505
ZBHH,2008-06-12 17:00,ZBHH 121700Z AUTO 31008KT 7SM 16/13 A2980 RMK T01600130 IEM_DS3505
ZBHH,2008-06-12 18:00,ZBHH 121800Z AUTO 27004KT 12SM 16/13 A2980 RMK 60091 SLP033 T01650130 57038 IEM_DS3505
ZBHH,2008-06-12 20:00,ZBHH 122000Z AUTO 14002KT 7SM 15/13 A2980 RMK T01500130 IEM_DS3505
ZBHH,2008-06-12 21:00,ZBHH 122100Z AUTO 02002KT 19SM 16/13 A2980 RMK 70092 SLP038 T01600131 52006 IEM_DS3505
ZBHH,2008-06-12 22:00,ZBHH 122200Z AUTO 09004KT 7SM 15/14 A2983 RMK T01500140 IEM_DS3505
ZBHH,2008-06-12 23:00,ZBHH 122300Z AUTO 18004KT 7SM 17/14 A2985 RMK T01700140 IEM_DS3505
ZBHH,2008-06-13 00:00,ZBHH 130000Z AUTO 02002KT 12SM 18/11 A2988 RMK 70092 SLP080 T01850106 52020 IEM_DS3505
ZBHH,2008-06-13 01:00,ZBHH 130100Z AUTO 34006KT 7SM 19/09 A2988 RMK T01900090 IEM_DS3505
ZBHH,2008-06-13 02:00,ZBHH 130200Z AUTO 02006KT 7SM 20/08 A2985 RMK T02000080 IEM_DS3505
ZBHH,2008-06-13 03:00,ZBHH 130300Z AUTO 02004KT 12SM 21/03 A2985 RMK SLP074 T02080031 57007 IEM_DS3505
ZBHH,2008-06-13 04:00,ZBHH 130400Z AUTO 12008KT 7SM 22/06 A2983 RMK T02200060 IEM_DS3505
ZBHH,2008-06-13 05:00,ZBHH 130500Z AUTO 10006KT 7SM 23/05 A2980 RMK T02300050 IEM_DS3505
ZBHH,2008-06-13 06:00,ZBHH 130600Z AUTO 32004KT 9SM 22/06 A2980 RMK SLP054 T02170060 57015 IEM_DS3505
ZBHH,2008-06-13 07:00,ZBHH 130700Z AUTO 35021G33KT 7SM 17/07 A2983 RMK T01700070 IEM_DS3505
ZBHH,2008-06-13 08:00,ZBHH 130800Z AUTO 01016G25KT 7SM 16/05 A2983 RMK T01600050 IEM_DS3505
ZBHH,2008-06-13 09:00,ZBHH 130900Z AUTO 27010KT 12SM 14/09 A2988 RMK SLP111 T01390091 52035 IEM_DS3505
ZBHH,2008-06-13 10:00,ZBHH 131000Z AUTO 01010KT 5SM 14/10 A2988 RMK T01400100 IEM_DS3505
ZBHH,2008-06-13 11:00,ZBHH 131100Z AUTO 07004KT 7SM 14/10 A2983 RMK T01400100 IEM_DS3505
ZBHH,2008-06-13 12:00,ZBHH 131200Z AUTO 09002KT 19SM 14/10 A2985 RMK 60031 SLP081 T01410101 57021 IEM_DS3505
ZBHH,2008-06-13 13:00,ZBHH 131300Z AUTO 35004KT 7SM 14/11 A2985 RMK T01400110 IEM_DS3505
ZBHH,2008-06-13 14:00,ZBHH 131400Z AUTO 07002KT 7SM 14/11 A2985 RMK T01400110 IEM_DS3505
ZBHH,2008-06-13 15:00,ZBHH 131500Z AUTO 22002KT 19SM 14/10 A2988 RMK SLP091 T01380096 52012 IEM_DS3505
ZBHH,2008-06-13 16:00,ZBHH 131600Z AUTO 01004KT 7SM 15/10 A2988 RMK T01500100 IEM_DS3505
ZBHH,2008-06-13 17:00,ZBHH 131700Z AUTO 34002KT 7SM 15/11 A2988 RMK T01500110 IEM_DS3505
ZBHH,2008-06-13 18:00,ZBHH 131800Z AUTO 32002KT 19SM 15/10 A2988 RMK SLP085 T01500096 57001 IEM_DS3505
ZBHH,2008-06-13 19:00,ZBHH 131900Z AUTO 07008KT 7SM 16/09 A2988 RMK T01600090 IEM_DS3505
ZBHH,2008-06-13 20:00,ZBHH 132000Z AUTO 09006KT 7SM 15/09 A2988 RMK T01500090 IEM_DS3505
ZBHH,2008-06-13 21:00,ZBHH 132100Z AUTO 29002KT 12SM 15/10 A2991 RMK 70031 SLP109 T01530103 52007 IEM_DS3505
ZBHH,2008-06-13 22:00,ZBHH 132200Z AUTO 07008KT 7SM 15/09 A2991 RMK T01500090 IEM_DS3505
ZBHH,2008-06-13 23:00,ZBHH 132300Z AUTO 08008KT 7SM 16/09 A2991 RMK T01600090 IEM_DS3505
ZBHH,2008-06-14 00:00,ZBHH 140000Z AUTO 07006KT 16SM 17/08 A2991 RMK 70031 SLP113 T01730076 52008 IEM_DS3505
ZBHH,2008-06-14 01:00,ZBHH 140100Z AUTO 07010KT 7SM 19/09 A2991 RMK T01900090 IEM_DS3505
ZBHH,2008-06-14 02:00,ZBHH 140200Z AUTO 11008KT 7SM 20/09 A2991 RMK T02000090 IEM_DS3505
ZBHH,2008-06-14 03:00,ZBHH 140300Z AUTO 04004KT 19SM 21/09 A2991 RMK SLP101 T02110090 57004 IEM_DS3505
ZBHH,2008-06-14 04:00,ZBHH 140400Z AUTO 07002KT 7SM 22/11 A2991 RMK T02200110 IEM_DS3505
ZBHH,2008-06-14 05:00,ZBHH 140500Z AUTO 30004KT 7SM 23/12 A2991 RMK T02300120 IEM_DS3505
ZBHH,2008-06-14 06:00,ZBHH 140600Z AUTO 22006KT 12SM 23/12 A2988 RMK SLP083 T02280118 57011 IEM_DS3505
ZBHH,2008-06-14 07:00,ZBHH 140700Z AUTO 27004KT 7SM 24/13 A2985 RMK T02400130 IEM_DS3505
ZBHH,2008-06-14 08:00,ZBHH 140800Z AUTO 25006KT 7SM 24/13 A2985 RMK T02400130 IEM_DS3505
ZBHH,2008-06-14 09:00,ZBHH 140900Z AUTO 22004KT 12SM 23/13 A2985 RMK SLP072 T02330126 57008 IEM_DS3505
ZBHH,2008-06-14 10:00,ZBHH 141000Z AUTO 24010KT 7SM 22/14 A2985 RMK T02200140 IEM_DS3505
ZBHH,2008-06-14 11:00,ZBHH 141100Z AUTO 24006KT 7SM 22/15 A2985 RMK T02200150 IEM_DS3505
ZBHH,2008-06-14 12:00,ZBHH 141200Z AUTO 22004KT 12SM 22/13 A2988 RMK SLP083 T02190127 52011 IEM_DS3505
ZBHH,2008-06-14 13:00,ZBHH 141300Z AUTO 18004KT 4SM 20/16 A2991 RMK T02000160 IEM_DS3505
ZBHH,2008-06-14 14:00,ZBHH 141400Z AUTO 16006KT 4SM 20/16 A2991 RMK T02000160 IEM_DS3505
ZBHH,2008-06-14 15:00,ZBHH 141500Z AUTO 11004KT 16SM 21/12 A2994 RMK SLP091 T02070119 52012 IEM_DS3505
ZBHH,2008-06-14 16:00,ZBHH 141600Z AUTO 16008KT 4SM 16/14 A2997 RMK T01600140 IEM_DS3505
ZBHH,2008-06-14 17:00,ZBHH 141700Z AUTO 10004KT 3SM 16/15 A2997 RMK T01600150 IEM_DS3505
ZBHH,2008-06-14 18:00,ZBHH 141800Z AUTO 09004KT 12SM 17/15 A2997 RMK 60002 SLP107 T01680152 52010 IEM_DS3505
ZBHH,2008-06-14 19:00,ZBHH 141900Z AUTO 14002KT 3SM 16/15 A2997 RMK T01600150 IEM_DS3505
ZBHH,2008-06-14 20:00,ZBHH 142000Z AUTO 08002KT 4SM 16/15 A2994 RMK T01600150 IEM_DS3505
ZBHH,2008-06-14 21:00,ZBHH 142100Z AUTO 20002KT 9SM 16/14 A2994 RMK 70008 SLP104 T01610139 57003 IEM_DS3505
ZBHH,2008-06-14 22:00,ZBHH 142200Z AUTO 17004KT 4SM 15/14 A2997 RMK T01500140 IEM_DS3505
ZBHH,2008-06-14 23:00,ZBHH 142300Z AUTO 10004KT 4SM 15/13 A2997 RMK T01500130 IEM_DS3505
ZBHH,2008-06-15 00:00,ZBHH 150000Z AUTO 09004KT 9SM 15/14 A3000 RMK 60016 70017 SLP121 T01540138 52011 IEM_DS3505
ZBHH,2008-06-15 01:00,ZBHH 150100Z AUTO 12004KT 4SM 15/14 A3000 RMK T01500140 IEM_DS3505
ZBHH,2008-06-15 02:00,ZBHH 150200Z AUTO 14006KT 5SM 16/14 A3000 RMK T01600140 IEM_DS3505
ZBHH,2008-06-15 03:00,ZBHH 150300Z AUTO 14004KT 6SM 16/14 A3000 RMK SLP133 T01600137 52009 IEM_DS3505
ZBHH,2008-06-15 04:00,ZBHH 150400Z AUTO 21004KT 7SM 16/14 A3000 RMK T01600140 IEM_DS3505
ZBHH,2008-06-15 05:00,ZBHH 150500Z AUTO 17008KT 7SM 16/14 A3000 RMK T01600140 IEM_DS3505
ZBHH,2008-06-15 06:00,ZBHH 150600Z AUTO 18004KT 6SM 16/14 A3000 RMK 60016 SLP129 T01640137 57010 IEM_DS3505
ZBHH,2008-06-15 07:00,ZBHH 150700Z AUTO 16004KT 4SM 16/14 A3000 RMK T01600140 IEM_DS3505
ZBHH,2008-06-15 08:00,ZBHH 150800Z AUTO 14004KT 2 1/2SM 16/14 A3000 RMK T01600140 IEM_DS3505
ZBHH,2008-06-15 09:00,ZBHH 150900Z AUTO 07002KT 6SM 16/14 A3000 RMK SLP133 T01560136 52001 IEM_DS3505
ZBHH,2008-06-15 10:00,ZBHH 151000Z AUTO 08006KT 2SM 15/14 A2997 RMK T01500140 IEM_DS3505
ZBHH,2008-06-15 11:00,ZBHH 151100Z AUTO 12006KT 1 1/2SM 15/14 A3000 RMK T01500140 IEM_DS3505
ZBHH,2008-06-15 12:00,ZBHH 151200Z AUTO 22002KT 6SM 15/13 A3000 RMK 60055 SLP142 T01490131 52005 IEM_DS3505
ZBHH,2008-06-15 13:00,ZBHH 151300Z AUTO 17004KT 2 1/2SM 15/14 A3000 RMK T01500140 IEM_DS3505
ZBHH,2008-06-15 14:00,ZBHH 151400Z AUTO 16002KT 4SM 15/13 A3000 RMK T01500130 IEM_DS3505
ZBHH,2008-06-15 15:00,ZBHH 151500Z AUTO 20002KT 6SM 14/12 A3000 RMK SLP145 T01410121 52002 IEM_DS3505
ZBHH,2008-06-15 16:00,ZBHH 151600Z AUTO 34004KT 4SM 14/13 A3000 RMK T01400130 IEM_DS3505
ZBHH,2008-06-15 17:00,ZBHH 151700Z AUTO 36002KT 3SM 14/13 A2997 RMK T01400130 IEM_DS3505
ZBHH,2008-06-15 18:00,ZBHH 151800Z AUTO 09002KT 6SM 14/12 A2997 RMK 60012 SLP128 T01390123 57014 IEM_DS3505
ZBHH,2008-06-15 19:00,ZBHH 151900Z AUTO 11002KT 2SM 14/13 A2997 RMK T01400130 IEM_DS3505
ZBHH,2008-06-15 20:00,ZBHH 152000Z AUTO 06004KT 2 1/2SM 14/13 A2994 RMK T01400130 IEM_DS3505
ZBHH,2008-06-15 21:00,ZBHH 152100Z AUTO 09002KT 6SM 14/13 A2994 RMK 70092 SLP125 T01400129 57004 IEM_DS3505
ZBHH,2008-06-15 22:00,ZBHH 152200Z AUTO 12002KT 2 1/2SM 14/13 A2994 RMK T01400130 IEM_DS3505
ZBHH,2008-06-15 23:00,ZBHH 152300Z AUTO 21002KT 2SM 14/13 A2994 RMK T01400130 IEM_DS3505
ZBHH,2008-06-16 00:00,ZBHH 160000Z AUTO 27002KT 7SM 15/13 A2997 RMK 60004 70085 SLP133 T01480130 52007 IEM_DS3505
ZBHH,2008-06-16 01:00,ZBHH 160100Z AUTO 19002KT 2SM 15/13 A2997 RMK T01500130 IEM_DS3505
ZBHH,2008-06-16 02:00,ZBHH 160200Z AUTO 24004KT 2SM 15/13 A3000 RMK T01500130 IEM_DS3505
ZBHH,2008-06-16 03:00,ZBHH 160300Z AUTO 20002KT 6SM 14/12 A3000 RMK SLP141 T01440121 52005 IEM_DS3505
ZBHH,2008-06-16 04:00,ZBHH 160400Z AUTO 24002KT 3SM 14/12 A3000 RMK T01400120 IEM_DS3505
ZBHH,2008-06-16 05:00,ZBHH 160500Z AUTO 10004KT 2 1/2SM 14/13 A2997 RMK T01400130 IEM_DS3505
ZBHH,2008-06-16 06:00,ZBHH 160600Z AUTO 07002KT 6SM 15/12 A2997 RMK 60016 SLP134 T01480119 57006 IEM_DS3505
ZBHH,2008-06-16 07:00,ZBHH 160700Z AUTO 06004KT 2 1/2SM 15/12 A2997 RMK T01500120 IEM_DS3505
ZBHH,2008-06-16 08:00,ZBHH 160800Z AUTO 02002KT 2 1/2SM 14/12 A2997 RMK T01400120 IEM_DS3505
ZBHH,2008-06-16 09:00,ZBHH 160900Z AUTO 07002KT 5SM 14/13 A2994 RMK SLP128 T01420126 57006 IEM_DS3505
ZBHH,2008-06-16 10:00,ZBHH 161000Z AUTO 05004KT 3SM 15/12 A2994 RMK T01500120 IEM_DS3505
ZBHH,2008-06-16 11:00,ZBHH 161100Z AUTO 14002KT 7SM 15/11 A2991 RMK T01500110 IEM_DS3505
ZBHH,2008-06-16 12:00,ZBHH 161200Z AUTO 18002KT 4SM 14/11 A2991 RMK 60020 SLP110 T01420114 57015 IEM_DS3505
ZBHH,2008-06-16 13:00,ZBHH 161300Z AUTO 07002KT 7SM 14/12 A2991 RMK T01400120 IEM_DS3505
ZBHH,2008-06-16 14:00,ZBHH 161400Z AUTO 36004KT 5SM 15/11 A2994 RMK T01500110 IEM_DS3505
ZBHH,2008-06-16 15:00,ZBHH 161500Z AUTO 07002KT 12SM 14/12 A2994 RMK SLP122 T01370121 52009 IEM_DS3505
ZBHH,2008-06-16 16:00,ZBHH 161600Z AUTO 04002KT 4SM 14/12 A2991 RMK T01400120 IEM_DS3505
ZBHH,2008-06-16 17:00,ZBHH 161700Z AUTO 09004KT 5SM 14/12 A2991 RMK T01400120 IEM_DS3505
ZBHH,2008-06-16 18:00,ZBHH 161800Z AUTO 09004KT 12SM 13/11 A2988 RMK 60004 SLP099 T01320114 57020 IEM_DS3505
ZBHH,2008-06-16 19:00,ZBHH 161900Z AUTO 06004KT 3SM 13/12 A2985 RMK T01300120 IEM_DS3505
ZBHH,2008-06-16 20:00,ZBHH 162000Z AUTO 00000KT 4SM 13/12 A2983 RMK T01300120 IEM_DS3505
ZBHH,2008-06-16 21:00,ZBHH 162100Z AUTO 20004KT 12SM 14/11 A2983 RMK 70043 SLP089 T01370107 57009 IEM_DS3505
ZBHH,2008-06-16 22:00,ZBHH 162200Z AUTO 25006KT 4SM 13/11 A2983 RMK T01300110 IEM_DS3505
ZBHH,2008-06-16 23:00,ZBHH 162300Z AUTO 31004KT 3SM 13/12 A2983 RMK T01300120 IEM_DS3505
ZBHH,2008-06-17 00:00,ZBHH 170000Z AUTO 00000KT 12SM 13/12 A2985 RMK 60000 70042 SLP093 T01320116 52002 IEM_DS3505
ZBHH,2008-06-17 01:00,ZBHH 170100Z AUTO 03004KT 4SM 14/12 A2985 RMK T01400120 IEM_DS3505
ZBHH,2008-06-17 02:00,ZBHH 170200Z AUTO 06002KT 3SM 14/12 A2985 RMK T01400120 IEM_DS3505
ZBHH,2008-06-17 03:00,ZBHH 170300Z AUTO 04002KT 6SM 14/12 A2983 RMK SLP088 T01440116 57003 IEM_DS3505
ZBHH,2008-06-17 04:00,ZBHH 170400Z AUTO 14004KT 6SM 16/12 A2983 RMK T01600120 IEM_DS3505
ZBHH,2008-06-17 05:00,ZBHH 170500Z AUTO 22002KT 5SM 17/12 A2980 RMK T01700120 IEM_DS3505
ZBHH,2008-06-17 06:00,ZBHH 170600Z AUTO 18004KT 6SM 18/12 A2980 RMK 60000 SLP061 T01820122 57017 IEM_DS3505
ZBHH,2008-06-17 07:00,ZBHH 170700Z AUTO 24006KT 5SM 19/13 A2977 RMK T01900130 IEM_DS3505
ZBHH,2008-06-17 08:00,ZBHH 170800Z AUTO 23006KT 4SM 20/13 A2974 RMK T02000130 IEM_DS3505
ZBHH,2008-06-17 09:00,ZBHH 170900Z AUTO 25004KT 6SM 20/12 A2971 RMK SLP036 T01990122 57018 IEM_DS3505
ZBHH,2008-06-17 10:00,ZBHH 171000Z AUTO 24004KT 4SM 20/13 A2971 RMK T02000130 IEM_DS3505
ZBHH,2008-06-17 11:00,ZBHH 171100Z AUTO 22002KT 5SM 20/13 A2968 RMK T02000130 IEM_DS3505
ZBHH,2008-06-17 12:00,ZBHH 171200Z AUTO 34002KT 9SM 20/12 A2971 RMK SLP032 T01950123 57005 IEM_DS3505
ZBHH,2008-06-17 13:00,ZBHH 171300Z AUTO 03006KT 5SM 19/13 A2971 RMK T01900130 IEM_DS3505
ZBHH,2008-06-17 14:00,ZBHH 171400Z AUTO 09006KT 5SM 17/13 A2974 RMK T01700130 IEM_DS3505
ZBHH,2008-06-17 15:00,ZBHH 171500Z AUTO 09006KT 9SM 18/13 A2974 RMK SLP043 T01750128 52008 IEM_DS3505
ZBHH,2008-06-17 16:00,ZBHH 171600Z AUTO 08008KT 6SM 16/12 A2974 RMK T01600120 IEM_DS3505
ZBHH,2008-06-17 17:00,ZBHH 171700Z AUTO 11004KT 6SM 15/12 A2974 RMK T01500120 IEM_DS3505
ZBHH,2008-06-17 18:00,ZBHH 171800Z AUTO 29004KT 9SM 16/12 A2974 RMK 60000 SLP041 T01600122 52002 IEM_DS3505
ZBHH,2008-06-17 19:00,ZBHH 171900Z AUTO 03004KT 4SM 15/13 A2974 RMK T01500130 IEM_DS3505
ZBHH,2008-06-17 20:00,ZBHH 172000Z AUTO 04004KT 4SM 15/13 A2971 RMK T01500130 IEM_DS3505
ZBHH,2008-06-17 21:00,ZBHH 172100Z AUTO 32002KT 12SM 16/12 A2971 RMK 70002 SLP032 T01570125 57005 IEM_DS3505
ZBHH,2008-06-17 22:00,ZBHH 172200Z AUTO 10002KT 4SM 15/13 A2974 RMK T01500130 IEM_DS3505
ZBHH,2008-06-17 23:00,ZBHH 172300Z AUTO 09002KT 3SM 16/13 A2974 RMK T01600130 IEM_DS3505
ZBHH,2008-06-18 00:00,ZBHH 180000Z AUTO 22004KT 6SM 17/13 A2974 RMK 70001 SLP033 T01710126 52003 IEM_DS3505
ZBHH,2008-06-18 01:00,ZBHH 180100Z AUTO 13002KT 3SM 17/13 A2974 RMK T01700130 IEM_DS3505
ZBHH,2008-06-18 02:00,ZBHH 180200Z AUTO 26006KT 3SM 18/13 A2974 RMK T01800130 IEM_DS3505
ZBHH,2008-06-18 03:00,ZBHH 180300Z AUTO 04002KT 7SM 18/13 A2971 RMK SLP029 T01850131 57005 IEM_DS3505
ZBHH,2008-06-18 04:00,ZBHH 180400Z AUTO 30004KT 2 1/2SM 19/14 A2971 RMK T01900140 IEM_DS3505
ZBHH,2008-06-18 06:00,ZBHH 180600Z AUTO 00000KT 9SM 22/15 A2968 RMK SLP013 T02150149 57011 IEM_DS3505
ZBHH,2008-06-18 07:00,ZBHH 180700Z AUTO 2 1/2SM 23/16 A2965 RMK T02300160 IEM_DS3505
ZBHH,2008-06-18 08:00,ZBHH 180800Z AUTO 24002KT 3SM 24/15 A2962 RMK T02400150 IEM_DS3505
ZBHH,2008-06-18 09:00,ZBHH 180900Z AUTO 25002KT 16SM 24/15 A2962 RMK SLP989 T02430152 57017 IEM_DS3505
ZBHH,2008-06-18 10:00,ZBHH 181000Z AUTO 23002KT 4SM 25/16 A2962 RMK T02500160 IEM_DS3505
ZBHH,2008-06-18 11:00,ZBHH 181100Z AUTO 10004KT 4SM 23/16 A2962 RMK T02300160 IEM_DS3505
ZBHH,2008-06-18 12:00,ZBHH 181200Z AUTO 09004KT 6SM 23/15 A2965 RMK SLP994 T02290152 52005 IEM_DS3505
ZBHH,2008-06-18 13:00,ZBHH 181300Z AUTO 10008KT 3SM 21/16 A2968 RMK T02100160 IEM_DS3505
ZBHH,2008-06-18 14:00,ZBHH 181400Z AUTO 04016KT 7SM 17/12 A2977 RMK T01700120 IEM_DS3505
ZBHH,2008-06-18 15:00,ZBHH 181500Z AUTO 07008KT 6SM 16/13 A2977 RMK SLP050 T01560133 52038 IEM_DS3505
ZBHH,2008-06-18 16:00,ZBHH 181600Z AUTO 11010KT 4SM 15/13 A2974 RMK T01500130 IEM_DS3505
ZBHH,2008-06-18 17:00,ZBHH 181700Z AUTO 34006KT 5SM 16/14 A2974 RMK T01600140 IEM_DS3505
ZBHH,2008-06-18 18:00,ZBHH 181800Z AUTO 25002KT 9SM 16/14 A2974 RMK 60063 SLP032 T01550139 57010 IEM_DS3505
ZBHH,2008-06-18 19:00,ZBHH 181900Z AUTO 36006KT 7SM 16/13 A2971 RMK T01600130 IEM_DS3505
ZBHH,2008-06-18 20:00,ZBHH 182000Z AUTO 13004KT 7SM 16/13 A2971 RMK T01600130 IEM_DS3505
ZBHH,2008-06-18 21:00,ZBHH 182100Z AUTO 00000KT 9SM 15/14 A2971 RMK 70063 SLP021 T01490136 57006 IEM_DS3505
ZBHH,2008-06-18 22:00,ZBHH 182200Z AUTO 35002KT 4SM 15/14 A2971 RMK T01500140 IEM_DS3505
ZBHH,2008-06-18 23:00,ZBHH 182300Z AUTO 04002KT 5SM 16/14 A2971 RMK T01600140 IEM_DS3505
ZBHH,2008-06-19 00:00,ZBHH 190000Z AUTO 09004KT 12SM 18/13 A2971 RMK 70063 SLP022 T01840131 52005 IEM_DS3505
ZBHH,2008-06-19 01:00,ZBHH 190100Z AUTO 07002KT 6SM 19/13 A2971 RMK T01900130 IEM_DS3505
ZBHH,2008-06-19 02:00,ZBHH 190200Z AUTO 15002KT 6SM 21/14 A2971 RMK T02100140 IEM_DS3505
ZBHH,2008-06-19 03:00,ZBHH 190300Z AUTO 07002KT 12SM 22/14 A2971 RMK SLP029 T02160143 57002 IEM_DS3505
ZBHH,2008-06-19 04:00,ZBHH 190400Z AUTO 06002KT 4SM 22/15 A2971 RMK T02200150 IEM_DS3505
ZBHH,2008-06-19 05:00,ZBHH 190500Z AUTO 21002KT 4SM 23/16 A2971 RMK T02300160 IEM_DS3505
ZBHH,2008-06-19 06:00,ZBHH 190600Z AUTO 34004KT 12SM 24/16 A2971 RMK SLP013 T02450160 57009 IEM_DS3505
ZBHH,2008-06-19 07:00,ZBHH 190700Z AUTO 22002KT 3SM 25/17 A2968 RMK T02500170 IEM_DS3505
ZBHH,2008-06-19 08:00,ZBHH 190800Z AUTO 20004KT 4SM 26/17 A2965 RMK T02600170 IEM_DS3505
ZBHH,2008-06-19 09:00,ZBHH 190900Z AUTO 34002KT 12SM 27/16 A2965 RMK SLP991 T02690159 57016 IEM_DS3505
ZBHH,2008-06-19 10:00,ZBHH 191000Z AUTO 16002KT 5SM 26/16 A2962 RMK T02600160 IEM_DS3505
ZBHH,2008-06-19 11:00,ZBHH 191100Z AUTO 20004KT 4SM 25/18 A2965 RMK T02500180 IEM_DS3505
ZBHH,2008-06-19 12:00,ZBHH 191200Z AUTO 22002KT 12SM 25/17 A2965 RMK SLP992 T02460168 52003 IEM_DS3505
ZBHH,2008-06-19 13:00,ZBHH 191300Z AUTO 04002KT 4SM 23/18 A2968 RMK T02300180 IEM_DS3505
ZBHH,2008-06-19 14:00,ZBHH 191400Z AUTO 03006KT 5SM 21/17 A2968 RMK T02100170 IEM_DS3505
ZBHH,2008-06-19 15:00,ZBHH 191500Z AUTO 34002KT 12SM 22/17 A2968 RMK SLP005 T02160170 52012 IEM_DS3505
ZBHH,2008-06-19 16:00,ZBHH 191600Z AUTO 06004KT 4SM 20/17 A2968 RMK T02000170 IEM_DS3505
ZBHH,2008-06-19 17:00,ZBHH 191700Z AUTO 04004KT 3SM 20/17 A2968 RMK T02000170 IEM_DS3505
ZBHH,2008-06-19 18:00,ZBHH 191800Z AUTO 04002KT 12SM 20/16 A2968 RMK SLP994 T02030163 57007 IEM_DS3505
ZBHH,2008-06-19 19:00,ZBHH 191900Z AUTO 07004KT 3SM 19/17 A2965 RMK T01900170 IEM_DS3505
ZBHH,2008-06-19 20:00,ZBHH 192000Z AUTO 06002KT 3SM 19/17 A2968 RMK T01900170 IEM_DS3505
ZBHH,2008-06-19 21:00,ZBHH 192100Z AUTO 02002KT 12SM 19/17 A2968 RMK SLP997 T01890170 52005 IEM_DS3505
ZBHH,2008-06-19 22:00,ZBHH 192200Z AUTO 07004KT 2 1/2SM 18/17 A2968 RMK T01800170 IEM_DS3505
ZBHH,2008-06-19 23:00,ZBHH 192300Z AUTO 07004KT 3SM 20/17 A2971 RMK T02000170 IEM_DS3505
ZBHH,2008-06-20 00:00,ZBHH 200000Z AUTO 11002KT 9SM 21/16 A2971 RMK SLP005 T02090159 52006 IEM_DS3505
ZBHH,2008-06-20 01:00,ZBHH 200100Z AUTO 20004KT 2 1/2SM 21/17 A2971 RMK T02100170 IEM_DS3505
ZBHH,2008-06-20 02:00,ZBHH 200200Z AUTO 22010KT 3SM 21/17 A2971 RMK T02100170 IEM_DS3505
ZBHH,2008-06-20 03:00,ZBHH 200300Z AUTO 32006KT 6SM 17/14 A2977 RMK SLP044 T01680135 52022 IEM_DS3505
ZBHH,2008-06-20 04:00,ZBHH 200400Z AUTO 01016KT 7SM 17/13 A2971 RMK T01700130 IEM_DS3505
ZBHH,2008-06-20 05:00,ZBHH 200500Z AUTO 01004KT 7SM 18/13 A2974 RMK T01800130 IEM_DS3505
ZBHH,2008-06-20 06:00,ZBHH 200600Z AUTO 09004KT 7SM 19/14 A2971 RMK 60028 SLP024 T01860141 57017 IEM_DS3505
ZBHH,2008-06-20 07:00,ZBHH 200700Z AUTO 14004KT 7SM 18/15 A2971 RMK T01800150 IEM_DS3505
ZBHH,2008-06-20 08:00,ZBHH 200800Z AUTO 18004KT 7SM 20/15 A2971 RMK T02000150 IEM_DS3505
ZBHH,2008-06-20 09:00,ZBHH 200900Z AUTO 25002KT 12SM 21/14 A2971 RMK SLP015 T02110135 57006 IEM_DS3505
ZBHH,2008-06-20 10:00,ZBHH 201000Z AUTO 22002KT 7SM 21/15 A2968 RMK T02100150 IEM_DS3505
ZBHH,2008-06-20 11:00,ZBHH 201100Z AUTO 21004KT 7SM 20/16 A2971 RMK T02000160 IEM_DS3505
ZBHH,2008-06-20 12:00,ZBHH 201200Z AUTO 18004KT 12SM 20/15 A2971 RMK SLP018 T01980150 52004 IEM_DS3505
ZBHH,2008-06-20 13:00,ZBHH 201300Z AUTO 17004KT 7SM 18/16 A2974 RMK T01800160 IEM_DS3505
ZBHH,2008-06-20 14:00,ZBHH 201400Z AUTO 19004KT 7SM 18/16 A2974 RMK T01800160 IEM_DS3505
ZBHH,2008-06-20 15:00,ZBHH 201500Z AUTO 25002KT 16SM 19/15 A2974 RMK SLP036 T01880149 52007 IEM_DS3505
ZBHH,2008-06-20 16:00,ZBHH 201600Z AUTO 05002KT 7SM 17/15 A2974 RMK T01700150 IEM_DS3505
ZBHH,2008-06-20 17:00,ZBHH 201700Z AUTO 08002KT 7SM 17/15 A2974 RMK T01700150 IEM_DS3505
ZBHH,2008-06-20 18:00,ZBHH 201800Z AUTO 16002KT 16SM 18/14 A2974 RMK SLP034 T01780143 57001 IEM_DS3505
ZBHH,2008-06-20 19:00,ZBHH 201900Z AUTO 05002KT 3SM 17/15 A2971 RMK T01700150 IEM_DS3505
ZBHH,2008-06-20 20:00,ZBHH 202000Z AUTO 06004KT 3SM 16/15 A2971 RMK T01600150 IEM_DS3505
ZBHH,2008-06-20 21:00,ZBHH 202100Z AUTO 07002KT 12SM 15/14 A2974 RMK 70026 SLP032 T01500139 57002 IEM_DS3505
ZBHH,2008-06-20 22:00,ZBHH 202200Z AUTO 08004KT 2 1/2SM 15/14 A2974 RMK T01500140 IEM_DS3505
ZBHH,2008-06-20 23:00,ZBHH 202300Z AUTO 08004KT 4SM 17/15 A2974 RMK T01700150 IEM_DS3505
ZBHH,2008-06-21 00:00,ZBHH 210000Z AUTO 04002KT 12SM 19/15 A2974 RMK 70026 SLP035 T01870146 52007 IEM_DS3505
ZBHH,2008-06-21 01:00,ZBHH 210100Z AUTO 10002KT 5SM 20/15 A2974 RMK T02000150 IEM_DS3505
ZBHH,2008-06-21 02:00,ZBHH 210200Z AUTO 20006KT 5SM 21/16 A2977 RMK T02100160 IEM_DS3505
ZBHH,2008-06-21 03:00,ZBHH 210300Z AUTO 16002KT 12SM 23/15 A2974 RMK SLP028 T02290150 54000 IEM_DS3505
ZBHH,2008-06-21 04:00,ZBHH 210400Z AUTO 21004KT 5SM 24/16 A2974 RMK T02400160 IEM_DS3505
ZBHH,2008-06-21 05:00,ZBHH 210500Z AUTO 22006KT 4SM 25/17 A2971 RMK T02500170 IEM_DS3505
ZBHH,2008-06-21 06:00,ZBHH 210600Z AUTO 20006KT 12SM 26/15 A2971 RMK SLP011 T02590147 57012 IEM_DS3505
ZBHH,2008-06-21 07:00,ZBHH 210700Z AUTO 22008KT 7SM 27/13 A2971 RMK T02700130 IEM_DS3505
ZBHH,2008-06-21 08:00,ZBHH 210800Z AUTO 23010KT 7SM 27/12 A2968 RMK T02700120 IEM_DS3505
ZBHH,2008-06-21 09:00,ZBHH 210900Z AUTO 20008KT 12SM 27/11 A2968 RMK SLP999 T02740106 57013 IEM_DS3505
ZBHH,2008-06-21 10:00,ZBHH 211000Z AUTO 22006KT 6SM 27/12 A2968 RMK T02700120 IEM_DS3505
ZBHH,2008-06-21 11:00,ZBHH 211100Z AUTO 21004KT 6SM 26/12 A2968 RMK T02600120 IEM_DS3505
ZBHH,2008-06-21 12:00,ZBHH 211200Z AUTO 34002KT 12SM 26/12 A2968 RMK SLP999 T02570122 52004 IEM_DS3505
ZBHH,2008-06-21 13:00,ZBHH 211300Z AUTO 03008KT 7SM 22/15 A2971 RMK T02200150 IEM_DS3505
ZBHH,2008-06-21 14:00,ZBHH 211400Z AUTO 04008KT 7SM 21/14 A2971 RMK T02100140 IEM_DS3505
ZBHH,2008-06-21 15:00,ZBHH 211500Z AUTO 09002KT 19SM 20/14 A2971 RMK SLP015 T02020137 52012 IEM_DS3505
ZBHH,2008-06-21 16:00,ZBHH 211600Z AUTO 06006KT 7SM 19/14 A2971 RMK T01900140 IEM_DS3505
ZBHH,2008-06-21 17:00,ZBHH 211700Z AUTO 08006KT 7SM 17/13 A2971 RMK T01700130 IEM_DS3505
ZBHH,2008-06-21 18:00,ZBHH 211800Z AUTO 04002KT 19SM 18/10 A2971 RMK SLP011 T01830104 57002 IEM_DS3505
ZBHH,2008-06-21 19:00,ZBHH 211900Z AUTO 07006KT 7SM 16/10 A2971 RMK T01600100 IEM_DS3505
ZBHH,2008-06-21 20:00,ZBHH 212000Z AUTO 05008KT 7SM 17/08 A2971 RMK T01700080 IEM_DS3505
ZBHH,2008-06-21 21:00,ZBHH 212100Z AUTO 07002KT 19SM 16/10 A2971 RMK SLP010 T01650101 57001 IEM_DS3505
ZBHH,2008-06-21 22:00,ZBHH 212200Z AUTO 07004KT 7SM 16/10 A2971 RMK T01600100 IEM_DS3505
ZBHH,2008-06-21 23:00,ZBHH 212300Z AUTO 10006KT 7SM 18/09 A2971 RMK T01800090 IEM_DS3505
ZBHH,2008-06-22 00:00,ZBHH 220000Z AUTO 00000KT 12SM 20/08 A2974 RMK SLP016 T02010078 52009 IEM_DS3505
ZBHH,2008-06-22 01:00,ZBHH 220100Z AUTO 07008KT 7SM 22/10 A2971 RMK T02200100 IEM_DS3505
ZBHH,2008-06-22 02:00,ZBHH 220200Z AUTO 09006KT 7SM 23/11 A2971 RMK T02300110 IEM_DS3505
ZBHH,2008-06-22 03:00,ZBHH 220300Z AUTO 32008KT 9SM 23/06 A2974 RMK SLP016 T02340058 57004 IEM_DS3505
ZBHH,2008-06-22 04:00,ZBHH 220400Z AUTO 01014KT 7SM 23/08 A2971 RMK T02300080 IEM_DS3505
ZBHH,2008-06-22 05:00,ZBHH 220500Z AUTO 35012KT 7SM 23/08 A2974 RMK T02300080 IEM_DS3505
ZBHH,2008-06-22 06:00,ZBHH 220600Z AUTO 34008KT 7SM 23/09 A2971 RMK SLP023 T02310091 52002 IEM_DS3505
ZBHH,2008-06-22 07:00,ZBHH 220700Z AUTO 31008KT 7SM 24/09 A2971 RMK T02400090 IEM_DS3505
ZBHH,2008-06-22 08:00,ZBHH 220800Z AUTO 7SM 24/10 A2971 RMK T02400100 IEM_DS3505
ZBHH,2008-06-22 09:00,ZBHH 220900Z AUTO 25008KT 9SM 23/10 A2971 RMK SLP022 T02260104 57005 IEM_DS3505
ZBHH,2008-06-22 10:00,ZBHH 221000Z AUTO 25012KT 7SM 22/11 A2971 RMK T02200110 IEM_DS3505
ZBHH,2008-06-22 11:00,ZBHH 221100Z AUTO 23008KT 6SM 21/12 A2971 RMK T02100120 IEM_DS3505
ZBHH,2008-06-22 12:00,ZBHH 221200Z AUTO 25004KT 9SM 20/12 A2971 RMK SLP017 T02030118 57002 IEM_DS3505
ZBHH,2008-06-22 13:00,ZBHH 221300Z AUTO 35004KT 7SM 19/13 A2974 RMK T01900130 IEM_DS3505
ZBHH,2008-06-22 14:00,ZBHH 221400Z AUTO 02006KT 7SM 18/07 A2974 RMK T01800070 IEM_DS3505
ZBHH,2008-06-22 15:00,ZBHH 221500Z AUTO 36002G23KT 9SM 14/11 A2971 RMK SLP030 T01440114 52006 IEM_DS3505
ZBHH,2008-06-22 16:00,ZBHH 221600Z AUTO 15006KT 7SM 14/11 A2971 RMK T01400110 IEM_DS3505
ZBHH,2008-06-22 17:00,ZBHH 221700Z AUTO 36004KT 7SM 13/11 A2971 RMK T01300110 IEM_DS3505
ZBHH,2008-06-22 18:00,ZBHH 221800Z AUTO 32002KT 16SM 14/10 A2968 RMK 60012 SLP016 T01370105 57014 IEM_DS3505
ZBHH,2008-06-22 21:00,ZBHH 222100Z AUTO 09002KT 19SM 13/10 A2965 RMK 70013 SLP008 T01310101 57009 IEM_DS3505
ZBHH,2008-06-22 22:00,ZBHH 222200Z AUTO 05002KT 6SM 12/10 A2965 RMK T01200100 IEM_DS3505
ZBHH,2008-06-22 23:00,ZBHH 222300Z AUTO 03002KT 6SM 15/11 A2965 RMK T01500110 IEM_DS3505
ZBHH,2008-06-23 00:00,ZBHH 230000Z AUTO 04002KT 16SM 18/10 A2965 RMK 70013 SLP000 T01770096 57003 IEM_DS3505
ZBHH,2008-06-23 01:00,ZBHH 230100Z AUTO 25004KT 6SM 18/12 A2962 RMK T01800120 IEM_DS3505
ZBHH,2008-06-23 02:00,ZBHH 230200Z AUTO 23006KT 7SM 20/13 A2962 RMK T02000130 IEM_DS3505
ZBHH,2008-06-23 03:00,ZBHH 230300Z AUTO 22010KT 16SM 21/12 A2962 RMK SLP998 T02110120 57006 IEM_DS3505
ZBHH,2008-06-23 04:00,ZBHH 230400Z AUTO 24014KT 7SM 21/12 A2962 RMK T02100120 IEM_DS3505
ZBHH,2008-06-23 05:00,ZBHH 230500Z AUTO 24010KT 7SM 22/13 A2962 RMK T02200130 IEM_DS3505
ZBHH,2008-06-23 06:00,ZBHH 230600Z AUTO 27006KT 16SM 24/08 A2962 RMK SLP990 T02450081 57002 IEM_DS3505
ZBHH,2008-06-23 07:00,ZBHH 230700Z AUTO 30016G25KT 7SM 25/07 A2962 RMK T02500070 IEM_DS3505
ZBHH,2008-06-23 08:00,ZBHH 230800Z AUTO 29017G27KT 7SM 26/06 A2962 RMK T02600060 IEM_DS3505
ZBHH,2008-06-23 09:00,ZBHH 230900Z AUTO 27006KT 19SM 26/05 A2962 RMK SLP986 T02630053 57002 IEM_DS3505
ZBHH,2008-06-23 10:00,ZBHH 231000Z AUTO 27014KT 7SM 25/05 A2962 RMK T02500050 IEM_DS3505
ZBHH,2008-06-23 11:00,ZBHH 231100Z AUTO 23010KT 7SM 23/08 A2962 RMK T02300080 IEM_DS3505
ZBHH,2008-06-23 12:00,ZBHH 231200Z AUTO 22004KT 19SM 23/08 A2962 RMK SLP989 T02290082 52005 IEM_DS3505
ZBHH,2008-06-23 13:00,ZBHH 231300Z AUTO 25004KT 7SM 19/11 A2962 RMK T01900110 IEM_DS3505
ZBHH,2008-06-23 14:00,ZBHH 231400Z AUTO 01006KT 7SM 19/08 A2965 RMK T01900080 IEM_DS3505
ZBHH,2008-06-23 15:00,ZBHH 231500Z AUTO 15002KT 6SM 17/09 A2968 RMK T01700090 IEM_DS3505
ZBHH,2008-06-23 16:00,ZBHH 231600Z AUTO 02006KT 6SM 18/07 A2968 RMK T01800070 IEM_DS3505
ZBHH,2008-06-23 17:00,ZBHH 231700Z AUTO 07002KT 6SM 15/09 A2968 RMK T01500090 IEM_DS3505
ZBHH,2008-06-23 18:00,ZBHH 231800Z AUTO 16002KT 19SM 17/06 A2968 RMK SLP007 T01710063 52003 IEM_DS3505
ZBHH,2008-06-23 21:00,ZBHH 232100Z AUTO 02002KT 19SM 14/09 A2971 RMK SLP018 T01400086 52007 IEM_DS3505
ZBHH,2008-06-23 22:00,ZBHH 232200Z AUTO 07004KT 6SM 13/09 A2971 RMK T01300090 IEM_DS3505
ZBHH,2008-06-23 23:00,ZBHH 232300Z AUTO 08004KT 6SM 15/10 A2971 RMK T01500100 IEM_DS3505
ZBHH,2008-06-24 00:00,ZBHH 240000Z AUTO 14002KT 19SM 19/09 A2974 RMK SLP026 T01870089 52010 IEM_DS3505
ZBHH,2008-06-24 01:00,ZBHH 240100Z AUTO 11002KT 6SM 20/11 A2974 RMK T02000110 IEM_DS3505
ZBHH,2008-06-24 02:00,ZBHH 240200Z AUTO 16004KT 6SM 22/09 A2974 RMK T02200090 IEM_DS3505
ZBHH,2008-06-24 03:00,ZBHH 240300Z AUTO 20004KT 19SM 23/10 A2974 RMK SLP021 T02300101 57002 IEM_DS3505
ZBHH,2008-06-24 04:00,ZBHH 240400Z AUTO 22010KT 7SM 25/10 A2971 RMK T02500100 IEM_DS3505
ZBHH,2008-06-24 05:00,ZBHH 240500Z AUTO 24010G19KT 7SM 27/08 A2971 RMK T02700080 IEM_DS3505
ZBHH,2008-06-24 06:00,ZBHH 240600Z AUTO 25006KT 19SM 27/07 A2971 RMK SLP005 T02700070 57012 IEM_DS3505
ZBHH,2008-06-24 07:00,ZBHH 240700Z AUTO 24010KT 7SM 28/08 A2968 RMK T02800080 IEM_DS3505
ZBHH,2008-06-24 08:00,ZBHH 240800Z AUTO 24008KT 7SM 29/07 A2968 RMK T02900070 IEM_DS3505
ZBHH,2008-06-24 09:00,ZBHH 240900Z AUTO 25008KT 19SM 29/02 A2965 RMK SLP995 T02920025 57011 IEM_DS3505
ZBHH,2008-06-24 10:00,ZBHH 241000Z AUTO 22010KT 7SM 28/04 A2965 RMK T02800040 IEM_DS3505
ZBHH,2008-06-24 11:00,ZBHH 241100Z AUTO 21006KT 7SM 27/08 A2968 RMK T02700080 IEM_DS3505
ZBHH,2008-06-24 12:00,ZBHH 241200Z AUTO 27002KT 19SM 26/06 A2968 RMK SLP995 T02610062 52003 IEM_DS3505
ZBHH,2008-06-24 13:00,ZBHH 241300Z AUTO 04006KT 7SM 22/11 A2968 RMK T02200110 IEM_DS3505
ZBHH,2008-06-24 14:00,ZBHH 241400Z AUTO 06008KT 7SM 20/11 A2971 RMK T02000110 IEM_DS3505
ZBHH,2008-06-24 15:00,ZBHH 241500Z AUTO 04002KT 19SM 20/09 A2971 RMK SLP011 T02000087 52011 IEM_DS3505
ZBHH,2008-06-24 16:00,ZBHH 241600Z AUTO 33008KT 7SM 20/08 A2974 RMK T02000080 IEM_DS3505
ZBHH,2008-06-24 17:00,ZBHH 241700Z AUTO 01008KT 7SM 22/05 A2974 RMK T02200050 IEM_DS3505
ZBHH,2008-06-24 18:00,ZBHH 241800Z AUTO 18004KT 19SM 23/04 RMK SLP001 T02270043 52003 IEM_DS3505
ZBHH,2008-06-24 19:00,ZBHH 241900Z AUTO 34002KT 7SM 20/09 A2971 RMK T02000090 IEM_DS3505
ZBHH,2008-06-24 21:00,ZBHH 242100Z AUTO 34002KT 19SM 18/07 A2971 RMK SLP007 T01800071 52001 IEM_DS3505
ZBHH,2008-06-24 22:00,ZBHH 242200Z AUTO 06004KT 7SM 16/10 A2974 RMK T01600100 IEM_DS3505
ZBHH,2008-06-24 23:00,ZBHH 242300Z AUTO 06004KT 7SM 18/11 A2974 RMK T01800110 IEM_DS3505
ZBHH,2008-06-25 00:00,ZBHH 250000Z AUTO 09002KT 12SM 22/09 A2974 RMK SLP012 T02190088 52006 IEM_DS3505
ZBHH,2008-06-25 01:00,ZBHH 250100Z AUTO 07004KT 7SM 23/09 A2974 RMK T02300090 IEM_DS3505
ZBHH,2008-06-25 02:00,ZBHH 250200Z AUTO 11002KT 7SM 24/08 A2974 RMK T02400080 IEM_DS3505
ZBHH,2008-06-25 03:00,ZBHH 250300Z AUTO 32002KT 9SM 25/09 A2974 RMK SLP016 T02480087 57002 IEM_DS3505
ZBHH,2008-06-25 04:00,ZBHH 250400Z AUTO 33002KT 7SM 26/09 A2971 RMK T02600090 IEM_DS3505
ZBHH,2008-06-25 05:00,ZBHH 250500Z AUTO 7SM 27/10 A2971 RMK T02700100 IEM_DS3505
ZBHH,2008-06-25 06:00,ZBHH 250600Z AUTO 09004KT 16SM 28/10 A2965 RMK SLP976 T02850097 57024 IEM_DS3505
ZBHH,2008-06-25 07:00,ZBHH 250700Z AUTO 20004KT 7SM 29/10 A2965 RMK T02900100 IEM_DS3505
ZBHH,2008-06-25 08:00,ZBHH 250800Z AUTO 29006KT 7SM 29/07 A2962 RMK T02900070 IEM_DS3505
ZBHH,2008-06-25 09:00,ZBHH 250900Z AUTO 25008G25KT 12SM 28/03 A2965 RMK SLP977 T02820031 57008 IEM_DS3505
ZBHH,2008-06-25 10:00,ZBHH 251000Z AUTO 25010KT 7SM 27/08 A2965 RMK T02700080 IEM_DS3505
ZBHH,2008-06-25 11:00,ZBHH 251100Z AUTO 11010KT 7SM 25/08 A2965 RMK T02500080 IEM_DS3505
ZBHH,2008-06-25 12:00,ZBHH 251200Z AUTO 32002KT 19SM 25/08 A2968 RMK 60000 SLP992 T02500085 52014 IEM_DS3505
ZBHH,2008-06-25 13:00,ZBHH 251300Z AUTO 20004KT 7SM 21/14 A2971 RMK T02100140 IEM_DS3505
ZBHH,2008-06-25 14:00,ZBHH 251400Z AUTO 08004KT 7SM 22/11 A2971 RMK T02200110 IEM_DS3505
ZBHH,2008-06-25 15:00,ZBHH 251500Z AUTO 36002KT 19SM 22/10 A2971 RMK SLP004 T02220100 52011 IEM_DS3505
ZBHH,2008-06-25 16:00,ZBHH 251600Z AUTO 04002KT 7SM 19/10 A2971 RMK T01900100 IEM_DS3505
ZBHH,2008-06-25 17:00,ZBHH 251700Z AUTO 34006KT 7SM 19/09 A2971 RMK T01900090 IEM_DS3505
ZBHH,2008-06-25 18:00,ZBHH 251800Z AUTO 32006KT 19SM 22/08 A2974 RMK 60000 SLP993 T02220083 57003 IEM_DS3505
ZBHH,2008-06-25 19:00,ZBHH 251900Z AUTO 36004KT 7SM 18/13 A2974 RMK T01800130 IEM_DS3505
ZBHH,2008-06-25 20:00,ZBHH 252000Z AUTO 13006KT 7SM 18/12 A2971 RMK T01800120 IEM_DS3505
ZBHH,2008-06-25 21:00,ZBHH 252100Z AUTO 09004KT 19SM 18/11 A2971 RMK 70000 SLP003 T01830111 52001 IEM_DS3505
ZBHH,2008-06-25 22:00,ZBHH 252200Z AUTO 03008KT 7SM 17/11 A2971 RMK T01700110 IEM_DS3505
ZBHH,2008-06-25 23:00,ZBHH 252300Z AUTO 11004KT 7SM 19/12 A2974 RMK T01900120 IEM_DS3505
ZBHH,2008-06-26 00:00,ZBHH 260000Z AUTO 27002KT 19SM 22/10 A2977 RMK 60000 70000 SLP020 T02220100 52017 IEM_DS3505
ZBHH,2008-06-26 01:00,ZBHH 260100Z AUTO 16002KT 7SM 23/10 A2977 RMK T02300100 IEM_DS3505
ZBHH,2008-06-26 02:00,ZBHH 260200Z AUTO 20004KT 7SM 24/11 A2977 RMK T02400110 IEM_DS3505
ZBHH,2008-06-26 03:00,ZBHH 260300Z AUTO 20006KT 19SM 24/11 A2974 RMK SLP019 T02400110 57003 IEM_DS3505
ZBHH,2008-06-26 04:00,ZBHH 260400Z AUTO 23010KT 7SM 26/11 A2974 RMK T02600110 IEM_DS3505
ZBHH,2008-06-26 05:00,ZBHH 260500Z AUTO 25008KT 7SM 28/09 A2971 RMK T02800090 IEM_DS3505
ZBHH,2008-06-26 06:00,ZBHH 260600Z AUTO 20010KT 19SM 28/08 A2968 RMK SLP990 T02820085 57018 IEM_DS3505
ZBHH,2008-06-26 07:00,ZBHH 260700Z AUTO 26019G29KT 7SM 23/12 A2971 RMK T02300120 IEM_DS3505
ZBHH,2008-06-26 08:00,ZBHH 260800Z AUTO 34002KT 7SM 26/09 A2971 RMK T02600090 IEM_DS3505
ZBHH,2008-06-26 09:00,ZBHH 260900Z AUTO 34002KT 19SM 28/08 A2968 RMK SLP991 T02760080 57007 IEM_DS3505
ZBHH,2008-06-26 10:00,ZBHH 261000Z AUTO 02008G21KT 7SM 26/11 A2968 RMK T02600110 IEM_DS3505
ZBHH,2008-06-26 11:00,ZBHH 261100Z AUTO 06004KT 7SM 20/14 A2968 RMK T02000140 IEM_DS3505
ZBHH,2008-06-26 12:00,ZBHH 261200Z AUTO 29002KT 19SM 23/11 A2971 RMK 60002 SLP003 T02330114 52010 IEM_DS3505
ZBHH,2008-06-26 13:00,ZBHH 261300Z AUTO 09004KT 7SM 19/14 A2971 RMK T01900140 IEM_DS3505
ZBHH,2008-06-26 14:09,ZBHH 261409Z AUTO 04004KT 7SM 19/14 A2974 RMK T01900140 IEM_DS3505
ZBHH,2008-06-26 15:00,ZBHH 261500Z AUTO 07002KT 19SM 21/12 A2974 RMK SLP017 T02060121 52010 IEM_DS3505
ZBHH,2008-06-26 16:00,ZBHH 261600Z AUTO 06002KT 7SM 18/13 A2974 RMK T01800130 IEM_DS3505
ZBHH,2008-06-26 17:00,ZBHH 261700Z AUTO 05006KT 7SM 17/12 A2971 RMK T01700120 IEM_DS3505
ZBHH,2008-06-26 18:00,ZBHH 261800Z AUTO 36002KT 19SM 18/12 RMK SLP001 T01840117 57010 IEM_DS3505
ZBHH,2008-06-26 20:00,ZBHH 262000Z AUTO 03006KT 7SM 16/12 A2971 RMK T01600120 IEM_DS3505
ZBHH,2008-06-26 21:00,ZBHH 262100Z AUTO 02002KT 19SM 18/11 A2968 RMK 70002 SLP001 T01820113 57002 IEM_DS3505
ZBHH,2008-06-26 22:00,ZBHH 262200Z AUTO 12004KT 7SM 16/13 A2971 RMK T01600130 IEM_DS3505
ZBHH,2008-06-26 23:00,ZBHH 262300Z AUTO 36006KT 7SM 18/13 A2974 RMK T01800130 IEM_DS3505
ZBHH,2008-06-27 00:00,ZBHH 270000Z AUTO 07002KT 19SM 21/12 A2974 RMK 70002 SLP020 T02080120 52014 IEM_DS3505
ZBHH,2008-06-27 01:00,ZBHH 270100Z AUTO 05004KT 7SM 23/12 A2974 RMK T02300120 IEM_DS3505
ZBHH,2008-06-27 02:00,ZBHH 270200Z AUTO 16002KT 7SM 24/11 A2971 RMK T02400110 IEM_DS3505
ZBHH,2008-06-27 03:00,ZBHH 270300Z AUTO 18004KT 19SM 26/12 A2971 RMK SLP007 T02560121 57008 IEM_DS3505
ZBHH,2008-06-27 04:00,ZBHH 270400Z AUTO 18004G14KT 7SM 27/11 A2971 RMK T02700110 IEM_DS3505
ZBHH,2008-06-27 05:00,ZBHH 270500Z AUTO 21008KT 7SM 27/11 A2968 RMK T02700110 IEM_DS3505
ZBHH,2008-06-27 06:00,ZBHH 270600Z AUTO 25006KT 19SM 26/12 A2968 RMK SLP993 T02590117 57015 IEM_DS3505
ZBHH,2008-06-27 07:00,ZBHH 270700Z AUTO 23012KT 7SM 28/11 A2965 RMK T02800110 IEM_DS3505
ZBHH,2008-06-27 08:00,ZBHH 270800Z AUTO 25004KT 7SM 28/10 A2962 RMK T02800100 IEM_DS3505
ZBHH,2008-06-27 09:00,ZBHH 270900Z AUTO 32004KT 19SM 28/09 A2962 RMK SLP973 T02820090 57014 IEM_DS3505
ZBHH,2008-06-27 10:00,ZBHH 271000Z AUTO 36010KT 7SM 28/08 A2962 RMK T02800080 IEM_DS3505
ZBHH,2008-06-27 11:00,ZBHH 271100Z AUTO 03008KT 7SM 28/09 A2962 RMK T02800090 IEM_DS3505
ZBHH,2008-06-27 12:00,ZBHH 271200Z AUTO 07004KT 19SM 26/08 A2965 RMK SLP980 T02640079 52007 IEM_DS3505
ZBHH,2008-06-27 13:00,ZBHH 271300Z AUTO 03006KT 7SM 24/12 A2965 RMK T02400120 IEM_DS3505
ZBHH,2008-06-27 14:00,ZBHH 271400Z AUTO 05006KT 7SM 21/11 A2965 RMK T02100110 IEM_DS3505
ZBHH,2008-06-27 15:00,ZBHH 271500Z AUTO 09002KT 19SM 22/11 A2965 RMK SLP986 T02150107 52005 IEM_DS3505
ZBHH,2008-06-27 16:00,ZBHH 271600Z AUTO 08004KT 7SM 19/11 A2968 RMK T01900110 IEM_DS3505
ZBHH,2008-06-27 17:00,ZBHH 271700Z AUTO 10004KT 7SM 17/13 A2968 RMK T01700130 IEM_DS3505
ZBHH,2008-06-27 18:00,ZBHH 271800Z AUTO 07002KT 19SM 20/10 A2968 RMK SLP994 T01960100 52005 IEM_DS3505
ZBHH,2008-06-27 19:00,ZBHH 271900Z AUTO 08004KT 7SM 18/11 A2968 RMK T01800110 IEM_DS3505
ZBHH,2008-06-27 20:00,ZBHH 272000Z AUTO 07006KT 7SM 18/13 A2965 RMK T01800130 IEM_DS3505
ZBHH,2008-06-27 21:00,ZBHH 272100Z AUTO 29004KT 19SM 20/13 A2965 RMK 70000 SLP993 T01970127 52003 IEM_DS3505
ZBHH,2008-06-27 22:00,ZBHH 272200Z AUTO 25004KT 7SM 18/15 A2971 RMK T01800150 IEM_DS3505
ZBHH,2008-06-27 23:00,ZBHH 272300Z AUTO 33002KT 7SM 18/14 A2968 RMK T01800140 IEM_DS3505
ZBHH,2008-06-28 00:00,ZBHH 280000Z AUTO 22002KT 19SM 18/14 A2971 RMK 60031 70030 SLP005 T01850142 52005 IEM_DS3505
ZBHH,2008-06-28 01:00,ZBHH 280100Z AUTO 11002KT 7SM 20/15 A2968 RMK T02000150 IEM_DS3505
ZBHH,2008-06-28 02:00,ZBHH 280200Z AUTO 04006KT 7SM 22/14 A2968 RMK T02200140 IEM_DS3505
ZBHH,2008-06-28 03:00,ZBHH 280300Z AUTO 04002KT 19SM 24/12 A2968 RMK SLP992 T02440124 57009 IEM_DS3505
ZBHH,2008-06-28 04:00,ZBHH 280400Z AUTO 16004KT 7SM 25/13 A2965 RMK T02500130 IEM_DS3505
ZBHH,2008-06-28 05:00,ZBHH 280500Z AUTO 20004KT 7SM 27/13 A2965 RMK T02700130 IEM_DS3505
ZBHH,2008-06-28 06:00,ZBHH 280600Z AUTO 25002KT 12SM 23/12 A2965 RMK 60000 SLP991 T02260123 57008 IEM_DS3505
ZBHH,2008-06-28 07:00,ZBHH 280700Z AUTO 24006KT 7SM 24/15 A2962 RMK T02400150 IEM_DS3505
ZBHH,2008-06-28 08:00,ZBHH 280800Z AUTO 17004KT 7SM 26/12 A2962 RMK T02600120 IEM_DS3505
ZBHH,2008-06-28 09:00,ZBHH 280900Z AUTO 34004KT 12SM 25/10 A2962 RMK SLP977 T02500097 57008 IEM_DS3505
ZBHH,2008-06-28 10:00,ZBHH 281000Z AUTO 36008KT 7SM 24/11 A2965 RMK T02400110 IEM_DS3505
ZBHH,2008-06-28 11:00,ZBHH 281100Z AUTO 34012KT 7SM 23/11 A2965 RMK T02300110 IEM_DS3505
ZBHH,2008-06-28 12:00,ZBHH 281200Z AUTO 16002KT 19SM 22/11 A2965 RMK 60000 SLP998 T02230111 52012 IEM_DS3505
ZBHH,2008-06-28 13:00,ZBHH 281300Z AUTO 05004KT 7SM 20/13 A2965 RMK T02000130 IEM_DS3505
ZBHH,2008-06-28 14:00,ZBHH 281400Z AUTO 02004KT 7SM 20/13 A2968 RMK T02000130 IEM_DS3505
ZBHH,2008-06-28 15:00,ZBHH 281500Z AUTO 00000KT 19SM 19/12 A2965 RMK SLP994 T01900120 52001 IEM_DS3505
ZBHH,2008-06-28 16:00,ZBHH 281600Z AUTO 04002KT 7SM 18/12 A2968 RMK T01800120 IEM_DS3505
ZBHH,2008-06-28 17:00,ZBHH 281700Z AUTO 06004KT 7SM 17/13 A2968 RMK T01700130 IEM_DS3505
ZBHH,2008-06-28 18:00,ZBHH 281800Z AUTO 00000KT 19SM 18/12 A2968 RMK SLP009 T01750120 52007 IEM_DS3505
ZBHH,2008-06-28 19:00,ZBHH 281900Z AUTO 03004KT 7SM 17/13 A2968 RMK T01700130 IEM_DS3505
ZBHH,2008-06-28 20:00,ZBHH 282000Z AUTO 13004KT 7SM 15/13 A2968 RMK T01500130 IEM_DS3505
ZBHH,2008-06-28 21:00,ZBHH 282100Z AUTO 07002KT 19SM 18/12 A2968 RMK 70031 SLP006 T01760121 52002 IEM_DS3505
ZBHH,2008-06-28 22:00,ZBHH 282200Z AUTO 06004KT 7SM 16/13 A2968 RMK T01600130 IEM_DS3505
ZBHH,2008-06-28 23:00,ZBHH 282300Z AUTO 08002KT 7SM 17/13 A2971 RMK T01700130 IEM_DS3505
ZBHH,2008-06-29 00:00,ZBHH 290000Z AUTO 04002KT 19SM 20/11 A2971 RMK 70001 SLP014 T01990114 52006 IEM_DS3505
ZBHH,2008-06-29 01:00,ZBHH 290100Z AUTO 16002KT 7SM 21/14 A2971 RMK T02100140 IEM_DS3505
ZBHH,2008-06-29 02:00,ZBHH 290200Z AUTO 20006KT 7SM 22/14 A2971 RMK T02200140 IEM_DS3505
ZBHH,2008-06-29 03:00,ZBHH 290300Z AUTO 27002KT 12SM 19/15 A2971 RMK SLP028 T01890146 52005 IEM_DS3505
ZBHH,2008-06-29 04:00,ZBHH 290400Z AUTO 27008KT 7SM 20/16 A2974 RMK T02000160 IEM_DS3505
ZBHH,2008-06-29 05:00,ZBHH 290500Z AUTO 36010KT 7SM 21/13 A2971 RMK T02100130 IEM_DS3505
ZBHH,2008-06-29 06:00,ZBHH 290600Z AUTO 27004KT 19SM 23/12 A2971 RMK 60004 SLP011 T02330120 57010 IEM_DS3505
ZBHH,2008-06-29 07:00,ZBHH 290700Z AUTO 19006KT 7SM 23/13 A2968 RMK T02300130 IEM_DS3505
ZBHH,2008-06-29 08:00,ZBHH 290800Z AUTO 21004KT 7SM 23/12 A2968 RMK T02300120 IEM_DS3505
ZBHH,2008-06-29 09:00,ZBHH 290900Z AUTO 22004KT 19SM 24/12 A2968 RMK SLP998 T02390125 57010 IEM_DS3505
ZBHH,2008-06-29 10:00,ZBHH 291000Z AUTO 19004KT 7SM 24/13 A2965 RMK T02400130 IEM_DS3505
ZBHH,2008-06-29 11:00,ZBHH 291100Z AUTO 20004KT 7SM 23/14 A2968 RMK T02300140 IEM_DS3505
ZBHH,2008-06-29 12:00,ZBHH 291200Z AUTO 27004KT 19SM 23/13 A2968 RMK SLP004 T02260131 52007 IEM_DS3505
ZBHH,2008-06-29 13:00,ZBHH 291300Z AUTO 35008KT 7SM 20/15 A2971 RMK T02000150 IEM_DS3505
ZBHH,2008-06-29 14:00,ZBHH 291400Z AUTO 03008KT 7SM 19/14 A2971 RMK T01900140 IEM_DS3505
ZBHH,2008-06-29 15:00,ZBHH 291500Z AUTO 29002KT 19SM 20/14 A2974 RMK SLP027 T02010140 52014 IEM_DS3505
ZBHH,2008-06-29 16:00,ZBHH 291600Z AUTO 09004KT 7SM 17/15 A2974 RMK T01700150 IEM_DS3505
ZBHH,2008-06-29 17:00,ZBHH 291700Z AUTO 03002KT 7SM 17/15 A2974 RMK T01700150 IEM_DS3505
ZBHH,2008-06-29 18:00,ZBHH 291800Z AUTO 04002KT 19SM 18/14 A2974 RMK SLP023 T01770140 54000 IEM_DS3505
ZBHH,2008-06-29 19:00,ZBHH 291900Z AUTO 03004KT 7SM 16/14 A2974 RMK T01600140 IEM_DS3505
ZBHH,2008-06-29 20:00,ZBHH 292000Z AUTO 05004KT 7SM 15/13 A2974 RMK T01500130 IEM_DS3505
ZBHH,2008-06-29 21:00,ZBHH 292100Z AUTO 07004KT 19SM 16/13 A2974 RMK 70006 SLP029 T01650127 52004 IEM_DS3505
ZBHH,2008-06-29 22:00,ZBHH 292200Z AUTO 05004KT 6SM 15/14 A2974 RMK T01500140 IEM_DS3505
ZBHH,2008-06-29 23:00,ZBHH 292300Z AUTO 10004KT 6SM 17/15 A2974 RMK T01700150 IEM_DS3505
ZBHH,2008-06-30 00:00,ZBHH 300000Z AUTO 36002KT 19SM 20/15 A2977 RMK 70006 SLP033 T02010147 52008 IEM_DS3505
ZBHH,2008-06-30 01:00,ZBHH 300100Z AUTO 16002KT 6SM 22/15 A2977 RMK T02200150 IEM_DS3505
ZBHH,2008-06-30 02:00,ZBHH 300200Z AUTO 19002KT 6SM 23/15 A2977 RMK T02300150 IEM_DS3505
ZBHH,2008-06-30 03:00,ZBHH 300300Z AUTO 29004KT 12SM 24/12 A2977 RMK SLP023 T02450125 57005 IEM_DS3505
ZBHH,2008-06-30 04:00,ZBHH 300400Z AUTO 24006KT 7SM 25/13 A2974 RMK T02500130 IEM_DS3505
ZBHH,2008-06-30 05:00,ZBHH 300500Z AUTO 26006KT 7SM 26/12 A2971 RMK T02600120 IEM_DS3505
ZBHH,2008-06-30 06:00,ZBHH 300600Z AUTO 25006KT 19SM 27/12 A2968 RMK SLP002 T02720121 57018 IEM_DS3505
ZBHH,2008-06-30 07:00,ZBHH 300700Z AUTO 20010KT 7SM 27/13 A2968 RMK T02700130 IEM_DS3505
ZBHH,2008-06-30 08:00,ZBHH 300800Z AUTO 01012KT 7SM 25/14 A2971 RMK T02500140 IEM_DS3505
ZBHH,2008-06-30 09:00,ZBHH 300900Z AUTO 07004KT 19SM 29/11 A2968 RMK SLP996 T02860108 57005 IEM_DS3505
ZBHH,2008-06-30 10:00,ZBHH 301000Z AUTO 04010KT 7SM 21/16 A2971 RMK T02100160 IEM_DS3505
ZBHH,2008-06-30 11:00,ZBHH 301100Z AUTO 03014KT 7SM 21/15 A2974 RMK T02100150 IEM_DS3505
ZBHH,2008-06-30 12:00,ZBHH 301200Z AUTO 32006KT 12SM 18/14 A2977 RMK 60106 SLP048 T01760137 52032 IEM_DS3505
ZBHH,2008-06-30 13:00,ZBHH 301300Z AUTO 13004KT 7SM 18/15 A2977 RMK T01800150 IEM_DS3505
ZBHH,2008-06-30 14:00,ZBHH 301400Z AUTO 30002KT 7SM 18/15 A2983 RMK T01800150 IEM_DS3505
ZBHH,2008-06-30 15:00,ZBHH 301500Z AUTO 09002KT 19SM 18/14 A2980 RMK SLP048 T01750142 52008 IEM_DS3505
ZBHH,2008-06-30 16:00,ZBHH 301600Z AUTO 04002KT 7SM 17/15 A2980 RMK T01700150 IEM_DS3505
ZBHH,2008-06-30 17:00,ZBHH 301700Z AUTO 03004KT 7SM 17/14 A2977 RMK T01700140 IEM_DS3505
ZBHH,2008-06-30 18:00,ZBHH 301800Z AUTO 00000KT 19SM 16/15 A2977 RMK 60008 SLP031 T01650149 57012 IEM_DS3505
ZBHH,2008-06-30 19:00,ZBHH 301900Z AUTO 08004KT 7SM 15/13 A2977 RMK T01500130 IEM_DS3505
ZBHH,2008-06-30 20:00,ZBHH 302000Z AUTO 10004KT 7SM 15/13 A2977 RMK T01500130 IEM_DS3505
ZBHH,2008-06-30 21:00,ZBHH 302100Z AUTO 07002KT 19SM 15/13 A2977 RMK 70112 SLP027 T01540129 57003 IEM_DS3505
ZBHH,2008-06-30 22:00,ZBHH 302200Z AUTO 06002KT 7SM 15/13 A2977 RMK T01500130 IEM_DS3505
ZBHH,2008-06-30 23:00,ZBHH 302300Z AUTO 08002KT 7SM 16/14 A2977 RMK T01600140 IEM_DS3505
ZBHH,2008-07-01 00:00,ZBHH 010000Z AUTO 00000KT 16SM 18/13 A2980 RMK 70112 SLP057 T01850134 52012 IEM_DS3505
ZBHH,2008-07-01 01:00,ZBHH 010100Z AUTO 36002KT 7SM 19/14 A2980 RMK T01900140 IEM_DS3505
ZBHH,2008-07-01 02:00,ZBHH 010200Z AUTO 33004KT 7SM 19/15 A2980 RMK T01900150 IEM_DS3505
ZBHH,2008-07-01 03:00,ZBHH 010300Z AUTO 16002KT 12SM 20/15 A2980 RMK SLP057 T02020148 52003 IEM_DS3505
ZBHH,2008-07-01 04:00,ZBHH 010400Z AUTO 23008KT 7SM 23/16 A2977 RMK T02300160 IEM_DS3505
ZBHH,2008-07-01 05:00,ZBHH 010500Z AUTO 20008KT 7SM 23/15 A2974 RMK T02300150 IEM_DS3505
ZBHH,2008-07-01 06:00,ZBHH 010600Z AUTO 27002KT 12SM 24/14 A2974 RMK 60063 SLP026 T02370136 57023 IEM_DS3505
ZBHH,2008-07-01 07:00,ZBHH 010700Z AUTO 18006KT 7SM 26/13 A2971 RMK T02600130 IEM_DS3505
ZBHH,2008-07-01 08:00,ZBHH 010800Z AUTO 22006KT 7SM 26/12 A2971 RMK T02600120 IEM_DS3505
ZBHH,2008-07-01 09:00,ZBHH 010900Z AUTO 25006KT 12SM 26/14 A2968 RMK SLP005 T02640139 57015 IEM_DS3505
ZBHH,2008-07-01 10:00,ZBHH 011000Z AUTO 09002KT 7SM 26/14 A2968 RMK T02600140 IEM_DS3505
ZBHH,2008-07-01 11:00,ZBHH 011100Z AUTO 06006KT 7SM 24/16 A2968 RMK T02400160 IEM_DS3505
ZBHH,2008-07-01 12:00,ZBHH 011200Z AUTO 02002KT 12SM 24/14 A2971 RMK SLP008 T02360135 52003 IEM_DS3505
ZBHH,2008-07-01 13:00,ZBHH 011300Z AUTO 05006KT 7SM 21/16 A2971 RMK T02100160 IEM_DS3505
ZBHH,2008-07-01 14:00,ZBHH 011400Z AUTO 06006KT 6SM 19/16 A2974 RMK T01900160 IEM_DS3505
ZBHH,2008-07-01 15:00,ZBHH 011500Z AUTO 14002KT 19SM 21/16 A2974 RMK SLP025 T02070159 52013 IEM_DS3505
ZBHH,2008-07-01 16:00,ZBHH 011600Z AUTO 09004KT 6SM 18/15 A2974 RMK T01800150 IEM_DS3505
ZBHH,2008-07-01 17:00,ZBHH 011700Z AUTO 05006KT 6SM 18/15 A2974 RMK T01800150 IEM_DS3505
ZBHH,2008-07-01 18:00,ZBHH 011800Z AUTO 07002KT 19SM 19/14 A2974 RMK SLP018 T01880143 57004 IEM_DS3505
ZBHH,2008-07-01 19:00,ZBHH 011900Z AUTO 03004KT 6SM 17/14 A2971 RMK T01700140 IEM_DS3505
ZBHH,2008-07-01 20:00,ZBHH 012000Z AUTO 04004KT 6SM 16/14 A2971 RMK T01600140 IEM_DS3505
ZBHH,2008-07-01 21:00,ZBHH 012100Z AUTO 07002KT 19SM 16/14 A2974 RMK 70061 SLP018 T01640141 52001 IEM_DS3505
ZBHH,2008-07-01 22:00,ZBHH 012200Z AUTO 06004KT 6SM 16/14 A2974 RMK T01600140 IEM_DS3505
ZBHH,2008-07-01 23:00,ZBHH 012300Z AUTO 10004KT 6SM 19/14 A2974 RMK T01900140 IEM_DS3505
ZBHH,2008-07-02 00:00,ZBHH 020000Z AUTO 09002KT 19SM 22/14 A2974 RMK 70061 SLP018 T02160135 52004 IEM_DS3505
ZBHH,2008-07-02 01:00,ZBHH 020100Z AUTO 17002KT 6SM 23/14 A2974 RMK T02300140 IEM_DS3505
ZBHH,2008-07-02 02:00,ZBHH 020200Z AUTO 20004KT 6SM 25/15 A2974 RMK T02500150 IEM_DS3505
ZBHH,2008-07-02 03:00,ZBHH 020300Z AUTO 11002KT 19SM 26/16 A2971 RMK SLP007 T02640161 57006 IEM_DS3505
ZBHH,2008-07-02 04:00,ZBHH 020400Z AUTO 7SM 27/16 A2971 RMK T02700160 IEM_DS3505
ZBHH,2008-07-02 05:00,ZBHH 020500Z AUTO 22006KT 7SM 28/17 A2968 RMK T02800170 IEM_DS3505
ZBHH,2008-07-02 06:00,ZBHH 020600Z AUTO 20004KT 19SM 28/17 A2968 RMK SLP990 T02830169 57015 IEM_DS3505
ZBHH,2008-07-02 07:00,ZBHH 020700Z AUTO 23006KT 7SM 30/17 A2965 RMK T03000170 IEM_DS3505
ZBHH,2008-07-02 08:00,ZBHH 020800Z AUTO 20008KT 7SM 30/16 A2962 RMK T03000160 IEM_DS3505
ZBHH,2008-07-02 09:00,ZBHH 020900Z AUTO 32006KT 19SM 33/03 A2962 RMK SLP966 T03290029 57017 IEM_DS3505
ZBHH,2008-07-02 10:00,ZBHH 021000Z AUTO 35010KT 7SM 32/04 A2962 RMK T03200040 IEM_DS3505
ZBHH,2008-07-02 11:00,ZBHH 021100Z AUTO 35008KT 7SM 31/05 A2962 RMK T03100050 IEM_DS3505
ZBHH,2008-07-02 12:00,ZBHH 021200Z AUTO 27002KT 19SM 29/09 A2965 RMK SLP974 T02910087 52009 IEM_DS3505
ZBHH,2008-07-02 13:00,ZBHH 021300Z AUTO 03006KT 6SM 25/09 A2968 RMK T02500090 IEM_DS3505
ZBHH,2008-07-02 14:00,ZBHH 021400Z AUTO 04006KT 6SM 22/08 A2968 RMK T02200080 IEM_DS3505
ZBHH,2008-07-02 15:00,ZBHH 021500Z AUTO 32004KT 19SM 25/04 A2971 RMK SLP993 T02520038 52019 IEM_DS3505
ZBHH,2008-07-02 16:00,ZBHH 021600Z AUTO 09006KT 6SM 19/09 A2971 RMK T01900090 IEM_DS3505
ZBHH,2008-07-02 17:00,ZBHH 021700Z AUTO 08002KT 6SM 19/08 A2974 RMK T01900080 IEM_DS3505
ZBHH,2008-07-02 18:00,ZBHH 021800Z AUTO 20002KT 19SM 21/07 A2971 RMK SLP002 T02060069 52003 IEM_DS3505
ZBHH,2008-07-02 19:00,ZBHH 021900Z AUTO 06006KT 6SM 17/10 A2971 RMK T01700100 IEM_DS3505
ZBHH,2008-07-02 20:00,ZBHH 022000Z AUTO 04006KT 6SM 16/10 A2971 RMK T01600100 IEM_DS3505
ZBHH,2008-07-02 21:00,ZBHH 022100Z AUTO 00000KT 19SM 18/09 A2974 RMK SLP003 T01850093 52005 IEM_DS3505
ZBHH,2008-07-02 22:00,ZBHH 022200Z AUTO 07006KT 6SM 17/10 A2974 RMK T01700100 IEM_DS3505
ZBHH,2008-07-02 23:00,ZBHH 022300Z AUTO 09004KT 6SM 20/11 A2974 RMK T02000110 IEM_DS3505
ZBHH,2008-07-03 00:00,ZBHH 030000Z AUTO 09004KT 19SM 24/09 A2977 RMK SLP007 T02380086 52006 IEM_DS3505
ZBHH,2008-07-03 01:00,ZBHH 030100Z AUTO 08006KT 6SM 26/09 A2974 RMK T02600090 IEM_DS3505
ZBHH,2008-07-03 02:00,ZBHH 030200Z AUTO 36002KT 6SM 28/08 A2974 RMK T02800080 IEM_DS3505
ZBHH,2008-07-03 03:00,ZBHH 030300Z AUTO 07002KT 16SM 29/08 A2974 RMK SLP999 T02880085 57005 IEM_DS3505
ZBHH,2008-07-03 04:00,ZBHH 030400Z AUTO 18002KT 7SM 29/09 A2974 RMK T02900090 IEM_DS3505
ZBHH,2008-07-03 05:00,ZBHH 030500Z AUTO 11002KT 7SM 30/08 A2971 RMK T03000080 IEM_DS3505
ZBHH,2008-07-03 06:00,ZBHH 030600Z AUTO 20004KT 19SM 31/05 A2971 RMK SLP993 T03070052 57010 IEM_DS3505
ZBHH,2008-07-03 07:00,ZBHH 030700Z AUTO 22006KT 7SM 32/08 A2971 RMK T03200080 IEM_DS3505
ZBHH,2008-07-03 08:00,ZBHH 030800Z AUTO 18004KT 7SM 32/08 A2968 RMK T03200080 IEM_DS3505
ZBHH,2008-07-03 09:00,ZBHH 030900Z AUTO 18006KT 19SM 32/06 A2965 RMK SLP977 T03230058 57015 IEM_DS3505
ZBHH,2008-07-03 10:00,ZBHH 031000Z AUTO 20002KT 6SM 32/07 A2965 RMK T03200070 IEM_DS3505
ZBHH,2008-07-03 11:00,ZBHH 031100Z AUTO 12002KT 7SM 30/10 A2965 RMK T03000100 IEM_DS3505
ZBHH,2008-07-03 12:00,ZBHH 031200Z AUTO 34002KT 19SM 30/07 A2965 RMK SLP972 T02950074 54000 IEM_DS3505
ZBHH,2008-07-03 13:00,ZBHH 031300Z AUTO 04004KT 7SM 25/13 A2968 RMK T02500130 IEM_DS3505
ZBHH,2008-07-03 14:00,ZBHH 031400Z AUTO 33016KT 7SM 27/11 A2971 RMK T02700110 IEM_DS3505
ZBHH,2008-07-03 15:00,ZBHH 031500Z AUTO 34004G29KT 12SM 23/13 A2971 RMK SLP983 T02340133 52008 IEM_DS3505
ZBHH,2008-07-03 16:00,ZBHH 031600Z AUTO 16004KT 7SM 22/14 A2971 RMK T02200140 IEM_DS3505
ZBHH,2008-07-03 17:00,ZBHH 031700Z AUTO 08006KT 7SM 22/14 A2971 RMK T02200140 IEM_DS3505
ZBHH,2008-07-03 18:00,ZBHH 031800Z AUTO 25004KT 19SM 23/14 A2971 RMK 60000 SLP992 T02290137 52010 IEM_DS3505
ZBHH,2008-07-03 19:00,ZBHH 031900Z AUTO 01004KT 7SM 22/15 A2968 RMK T02200150 IEM_DS3505
ZBHH,2008-07-03 20:00,ZBHH 032000Z AUTO 07004KT 7SM 21/15 A2968 RMK T02100150 IEM_DS3505
ZBHH,2008-07-03 21:00,ZBHH 032100Z AUTO 27004KT 19SM 22/15 A2968 RMK 70000 SLP985 T02220146 57004 IEM_DS3505
ZBHH,2008-07-03 22:00,ZBHH 032200Z AUTO 28002KT 7SM 21/15 A2971 RMK T02100150 IEM_DS3505
ZBHH,2008-07-03 23:00,ZBHH 032300Z AUTO 06004KT 7SM 22/16 A2968 RMK T02200160 IEM_DS3505
ZBHH,2008-07-04 00:00,ZBHH 040000Z AUTO 20002KT 12SM 23/16 A2971 RMK 70000 SLP994 T02290157 52004 IEM_DS3505
ZBHH,2008-07-04 01:00,ZBHH 040100Z AUTO 19006KT 7SM 23/16 A2971 RMK T02300160 IEM_DS3505
ZBHH,2008-07-04 02:00,ZBHH 040200Z AUTO 31006KT 7SM 25/16 A2971 RMK T02500160 IEM_DS3505
ZBHH,2008-07-04 03:00,ZBHH 040300Z AUTO 32004KT 19SM 24/12 A2971 RMK SLP000 T02440120 57003 IEM_DS3505
ZBHH,2008-07-04 04:00,ZBHH 040400Z AUTO 36004KT 7SM 24/13 A2971 RMK T02400130 IEM_DS3505
ZBHH,2008-07-04 05:00,ZBHH 040500Z AUTO 16004KT 7SM 24/13 A2971 RMK T02400130 IEM_DS3505
ZBHH,2008-07-04 06:00,ZBHH 040600Z AUTO 20004KT 19SM 24/14 A2971 RMK 60000 SLP003 T02380142 52001 IEM_DS3505
ZBHH,2008-07-04 07:00,ZBHH 040700Z AUTO 22004KT 7SM 22/15 A2971 RMK T02200150 IEM_DS3505
ZBHH,2008-07-04 08:00,ZBHH 040800Z AUTO 16006KT 7SM 22/17 A2968 RMK T02200170 IEM_DS3505
ZBHH,2008-07-04 09:00,ZBHH 040900Z AUTO 25004KT 12SM 23/17 A2965 RMK SLP991 T02290169 57014 IEM_DS3505
ZBHH,2008-07-04 10:00,ZBHH 041000Z AUTO 21008KT 7SM 22/18 A2965 RMK T02200180 IEM_DS3505
ZBHH,2008-07-04 11:00,ZBHH 041100Z AUTO 21004KT 7SM 22/17 A2968 RMK T02200170 IEM_DS3505
ZBHH,2008-07-04 12:00,ZBHH 041200Z AUTO 29012KT 12SM 23/11 A2968 RMK SLP001 T02260114 52010 IEM_DS3505
ZBHH,2008-07-04 13:00,ZBHH 041300Z AUTO 25002KT 7SM 20/15 A2968 RMK T02000150 IEM_DS3505
ZBHH,2008-07-04 14:00,ZBHH 041400Z AUTO 26006KT 7SM 19/16 A2968 RMK T01900160 IEM_DS3505
ZBHH,2008-07-04 15:00,ZBHH 041500Z AUTO 27002KT 16SM 20/13 A2968 RMK SLP001 T01990127 57002 IEM_DS3505
ZBHH,2008-07-04 16:00,ZBHH 041600Z AUTO 34002KT 7SM 19/14 A2968 RMK T01900140 IEM_DS3505
ZBHH,2008-07-04 17:00,ZBHH 041700Z AUTO 02002KT 7SM 18/13 A2968 RMK T01800130 IEM_DS3505
ZBHH,2008-07-04 18:00,ZBHH 041800Z AUTO 29004KT 16SM 20/09 A2965 RMK SLP993 T02010091 57008 IEM_DS3505
ZBHH,2008-07-04 19:00,ZBHH 041900Z AUTO 16004KT 7SM 16/14 A2965 RMK T01600140 IEM_DS3505
ZBHH,2008-07-04 20:00,ZBHH 042000Z AUTO 31004KT 7SM 18/11 A2965 RMK T01800110 IEM_DS3505
ZBHH,2008-07-04 21:00,ZBHH 042100Z AUTO 29004KT 16SM 19/09 A2965 RMK 70000 SLP991 T01870087 57006 IEM_DS3505
ZBHH,2008-07-04 22:00,ZBHH 042200Z AUTO 35010KT 7SM 18/10 A2965 RMK T01800100 IEM_DS3505
ZBHH,2008-07-04 23:00,ZBHH 042300Z AUTO 34008KT 7SM 18/11 A2965 RMK T01800110 IEM_DS3505
ZBHH,2008-07-05 00:00,ZBHH 050000Z AUTO 29006KT 16SM 20/10 A2965 RMK 70000 SLP994 T01970104 52004 IEM_DS3505
ZBHH,2008-07-05 01:00,ZBHH 050100Z AUTO 33012KT 7SM 21/12 A2965 RMK T02100120 IEM_DS3505
ZBHH,2008-07-05 02:00,ZBHH 050200Z AUTO 34012KT 7SM 20/11 A2965 RMK T02000110 IEM_DS3505
ZBHH,2008-07-05 03:00,ZBHH 050300Z AUTO 02006KT 19SM 21/11 A2965 RMK SLP999 T02100108 52002 IEM_DS3505
ZBHH,2008-07-05 04:00,ZBHH 050400Z AUTO 01010G19KT 7SM 21/12 A2965 RMK T02100120 IEM_DS3505
ZBHH,2008-07-05 05:00,ZBHH 050500Z AUTO 36012KT 7SM 22/11 A2965 RMK T02200110 IEM_DS3505
ZBHH,2008-07-05 06:00,ZBHH 050600Z AUTO 36002KT 19SM 23/12 A2965 RMK SLP990 T02320119 57004 IEM_DS3505
ZBHH,2008-07-05 07:00,ZBHH 050700Z AUTO 34014KT 7SM 24/11 A2962 RMK T02400110 IEM_DS3505
ZBHH,2008-07-05 08:00,ZBHH 050800Z AUTO 36010KT 7SM 25/10 A2962 RMK T02500100 IEM_DS3505
ZBHH,2008-07-05 09:00,ZBHH 050900Z AUTO 32006G19KT 19SM 26/08 A2962 RMK SLP980 T02580079 57007 IEM_DS3505
ZBHH,2008-07-05 10:00,ZBHH 051000Z AUTO 01008KT 7SM 27/07 A2962 RMK T02700070 IEM_DS3505
ZBHH,2008-07-05 11:00,ZBHH 051100Z AUTO 36012KT 7SM 26/06 A2962 RMK T02600060 IEM_DS3505
ZBHH,2008-07-05 12:00,ZBHH 051200Z AUTO 34004KT 19SM 25/05 A2962 RMK SLP979 T02500047 54000 IEM_DS3505
ZBHH,2008-07-05 13:00,ZBHH 051300Z AUTO 35004KT 6SM 22/08 A2965 RMK T02200080 IEM_DS3505
ZBHH,2008-07-05 14:00,ZBHH 051400Z AUTO 33004KT 6SM 19/09 A2968 RMK T01900090 IEM_DS3505
ZBHH,2008-07-05 15:00,ZBHH 051500Z AUTO 25002KT 19SM 20/07 A2968 RMK SLP008 T01950073 52018 IEM_DS3505
ZBHH,2008-07-05 16:00,ZBHH 051600Z AUTO 07006KT 6SM 16/08 A2968 RMK T01600080 IEM_DS3505
ZBHH,2008-07-05 17:00,ZBHH 051700Z AUTO 09002KT 6SM 15/09 A2971 RMK T01500090 IEM_DS3505
ZBHH,2008-07-05 18:00,ZBHH 051800Z AUTO 09002KT 19SM 17/08 A2971 RMK SLP015 T01720078 52006 IEM_DS3505
ZBHH,2008-07-05 19:00,ZBHH 051900Z AUTO 07004KT 6SM 14/08 A2971 RMK T01400080 IEM_DS3505
ZBHH,2008-07-05 20:00,ZBHH 052000Z AUTO 07006KT 6SM 13/08 A2971 RMK T01300080 IEM_DS3505
ZBHH,2008-07-05 21:00,ZBHH 052100Z AUTO 02002KT 19SM 16/08 A2971 RMK SLP020 T01560076 52006 IEM_DS3505
ZBHH,2008-07-05 22:00,ZBHH 052200Z AUTO 07004KT 6SM 13/09 A2974 RMK T01300090 IEM_DS3505
ZBHH,2008-07-05 23:00,ZBHH 052300Z AUTO 08006KT 6SM 17/09 A2974 RMK T01700090 IEM_DS3505
ZBHH,2008-07-06 00:00,ZBHH 060000Z AUTO 07002KT 19SM 22/08 A2977 RMK SLP024 T02150084 52013 IEM_DS3505
ZBHH,2008-07-06 01:00,ZBHH 060100Z AUTO 15004KT 6SM 23/09 A2977 RMK T02300090 IEM_DS3505
ZBHH,2008-07-06 02:00,ZBHH 060200Z AUTO 21004KT 6SM 24/10 A2977 RMK T02400100 IEM_DS3505
ZBHH,2008-07-06 03:00,ZBHH 060300Z AUTO 11004KT 19SM 26/09 A2977 RMK SLP027 T02590089 52001 IEM_DS3505
ZBHH,2008-07-06 04:00,ZBHH 060400Z AUTO 25006KT 7SM 27/10 A2977 RMK T02700100 IEM_DS3505
ZBHH,2008-07-06 05:00,ZBHH 060500Z AUTO 24012KT 7SM 28/09 A2974 RMK T02800090 IEM_DS3505
ZBHH,2008-07-06 06:00,ZBHH 060600Z AUTO 22008KT 19SM 28/07 A2974 RMK SLP015 T02820069 57011 IEM_DS3505
ZBHH,2008-07-06 07:00,ZBHH 060700Z AUTO 19008KT 6SM 30/08 A2974 RMK T03000080 IEM_DS3505
ZBHH,2008-07-06 08:00,ZBHH 060800Z AUTO 18006KT 6SM 30/07 A2971 RMK T03000070 IEM_DS3505
ZBHH,2008-07-06 09:00,ZBHH 060900Z AUTO 22004KT 19SM 30/07 A2971 RMK SLP001 T02980071 57012 IEM_DS3505
ZBHH,2008-07-06 10:00,ZBHH 061000Z AUTO 19006KT 6SM 30/08 A2968 RMK T03000080 IEM_DS3505
ZBHH,2008-07-06 11:00,ZBHH 061100Z AUTO 16002KT 6SM 29/09 A2968 RMK T02900090 IEM_DS3505
ZBHH,2008-07-06 12:00,ZBHH 061200Z AUTO 00000KT 19SM 27/08 A2971 RMK SLP999 T02660076 52003 IEM_DS3505
ZBHH,2008-07-06 13:00,ZBHH 061300Z AUTO 04006KT 7SM 23/11 A2974 RMK T02300110 IEM_DS3505
ZBHH,2008-07-06 14:00,ZBHH 061400Z AUTO 02016KT 7SM 25/07 A2977 RMK T02500070 IEM_DS3505
ZBHH,2008-07-06 15:00,ZBHH 061500Z AUTO 25002KT 19SM 24/07 A2980 RMK SLP019 T02450067 52022 IEM_DS3505
ZBHH,2008-07-06 16:00,ZBHH 061600Z AUTO 10008KT 7SM 22/08 A2977 RMK T02200080 IEM_DS3505
ZBHH,2008-07-06 17:00,ZBHH 061700Z AUTO 05004KT 7SM 21/09 A2977 RMK T02100090 IEM_DS3505
ZBHH,2008-07-06 18:00,ZBHH 061800Z AUTO 34004KT 19SM 22/08 A2977 RMK SLP018 T02150081 57003 IEM_DS3505
ZBHH,2008-07-06 19:00,ZBHH 061900Z AUTO 01004KT 7SM 19/10 A2977 RMK T01900100 IEM_DS3505
ZBHH,2008-07-06 20:00,ZBHH 062000Z AUTO 06004KT 7SM 17/10 A2977 RMK T01700100 IEM_DS3505
ZBHH,2008-07-06 21:00,ZBHH 062100Z AUTO 11002KT 19SM 19/10 A2977 RMK SLP023 T01880096 52003 IEM_DS3505
ZBHH,2008-07-06 22:00,ZBHH 062200Z AUTO 07004KT 7SM 18/11 A2980 RMK T01800110 IEM_DS3505
ZBHH,2008-07-06 23:00,ZBHH 062300Z AUTO 07004KT 6SM 20/11 A2980 RMK T02000110 IEM_DS3505
ZBHH,2008-07-07 00:00,ZBHH 070000Z AUTO 07002KT 19SM 24/11 A2983 RMK SLP035 T02350112 52013 IEM_DS3505
ZBHH,2008-07-07 01:00,ZBHH 070100Z AUTO 16002KT 6SM 26/12 A2983 RMK T02600120 IEM_DS3505
ZBHH,2008-07-07 02:00,ZBHH 070200Z AUTO 21004KT 6SM 27/11 A2983 RMK T02700110 IEM_DS3505
ZBHH,2008-07-07 03:00,ZBHH 070300Z AUTO 25008KT 12SM 27/11 A2983 RMK SLP030 T02700107 57002 IEM_DS3505
ZBHH,2008-07-07 04:00,ZBHH 070400Z AUTO 21006KT 7SM 29/13 A2980 RMK T02900130 IEM_DS3505
ZBHH,2008-07-07 05:00,ZBHH 070500Z AUTO 20006KT 7SM 30/11 A2980 RMK T03000110 IEM_DS3505
ZBHH,2008-07-07 06:00,ZBHH 070600Z AUTO 18006KT 12SM 30/13 A2977 RMK SLP008 T03010134 57019 IEM_DS3505
ZBHH,2008-07-07 07:00,ZBHH 070700Z AUTO 23008KT 7SM 32/12 A2974 RMK T03200120 IEM_DS3505
ZBHH,2008-07-07 08:00,ZBHH 070800Z AUTO 14016KT 7SM 29/11 A2974 RMK T02900110 IEM_DS3505
ZBHH,2008-07-07 09:00,ZBHH 070900Z AUTO 18008KT 12SM 29/08 A2977 RMK SLP016 T02900076 54000 IEM_DS3505
ZBHH,2008-07-07 10:00,ZBHH 071000Z AUTO 33006KT 7SM 25/14 A2977 RMK T02500140 IEM_DS3505
ZBHH,2008-07-07 11:00,ZBHH 071100Z AUTO 33002KT 7SM 25/15 A2977 RMK T02500150 IEM_DS3505
ZBHH,2008-07-07 12:00,ZBHH 071200Z AUTO 16004KT 19SM 26/09 A2980 RMK 60000 SLP020 T02650089 52008 IEM_DS3505
ZBHH,2008-07-07 13:00,ZBHH 071300Z AUTO 05006KT 7SM 22/16 A2980 RMK T02200160 IEM_DS3505
ZBHH,2008-07-07 14:00,ZBHH 071400Z AUTO 04006KT 7SM 21/13 A2983 RMK T02100130 IEM_DS3505
ZBHH,2008-07-07 15:00,ZBHH 071500Z AUTO 09002KT 19SM 22/12 A2983 RMK SLP036 T02250125 52013 IEM_DS3505
ZBHH,2008-07-07 16:00,ZBHH 071600Z AUTO 06006KT 6SM 18/13 A2983 RMK T01800130 IEM_DS3505
ZBHH,2008-07-07 17:00,ZBHH 071700Z AUTO 05006KT 6SM 19/13 A2983 RMK T01900130 IEM_DS3505
ZBHH,2008-07-07 18:00,ZBHH 071800Z AUTO 09004KT 19SM 22/12 A2983 RMK SLP036 T02210115 52005 IEM_DS3505
ZBHH,2008-07-07 19:00,ZBHH 071900Z AUTO 03002KT 6SM 18/13 A2983 RMK T01800130 IEM_DS3505
ZBHH,2008-07-07 20:00,ZBHH 072000Z AUTO 07004KT 6SM 17/13 A2983 RMK T01700130 IEM_DS3505
ZBHH,2008-07-07 21:00,ZBHH 072100Z AUTO 09004KT 19SM 20/12 A2983 RMK 70000 SLP040 T02040124 57002 IEM_DS3505
ZBHH,2008-07-07 22:00,ZBHH 072200Z AUTO 08006KT 6SM 17/14 A2983 RMK T01700140 IEM_DS3505
ZBHH,2008-07-07 23:00,ZBHH 072300Z AUTO 08004KT 6SM 19/14 A2985 RMK T01900140 IEM_DS3505
ZBHH,2008-07-08 00:00,ZBHH 080000Z AUTO 04004KT 12SM 22/13 A2985 RMK 70000 SLP052 T02200131 52009 IEM_DS3505
ZBHH,2008-07-08 01:00,ZBHH 080100Z AUTO 17004KT 6SM 24/14 A2985 RMK T02400140 IEM_DS3505
ZBHH,2008-07-08 02:00,ZBHH 080200Z AUTO 20010KT 6SM 25/13 A2985 RMK T02500130 IEM_DS3505
ZBHH,2008-07-08 03:00,ZBHH 080300Z AUTO 25006KT 6SM 26/14 A2985 RMK SLP051 T02560135 57001 IEM_DS3505
ZBHH,2008-07-08 04:00,ZBHH 080400Z AUTO 26004KT 6SM 27/13 A2985 RMK T02700130 IEM_DS3505
ZBHH,2008-07-08 05:00,ZBHH 080500Z AUTO 21004KT 6SM 28/14 A2983 RMK T02800140 IEM_DS3505
ZBHH,2008-07-08 06:00,ZBHH 080600Z AUTO 09004KT 6SM 29/13 A2980 RMK SLP028 T02880131 57016 IEM_DS3505
ZBHH,2008-07-08 07:00,ZBHH 080700Z AUTO 17008KT 6SM 30/12 A2980 RMK T03000120 IEM_DS3505
ZBHH,2008-07-08 08:00,ZBHH 080800Z AUTO 20008KT 6SM 30/11 A2977 RMK T03000110 IEM_DS3505
ZBHH,2008-07-08 09:00,ZBHH 080900Z AUTO 18006KT 9SM 30/11 A2974 RMK SLP009 T03040114 57017 IEM_DS3505
ZBHH,2008-07-08 10:00,ZBHH 081000Z AUTO 21006KT 6SM 30/12 A2974 RMK T03000120 IEM_DS3505
ZBHH,2008-07-08 11:00,ZBHH 081100Z AUTO 21004KT 7SM 29/12 A2974 RMK T02900120 IEM_DS3505
ZBHH,2008-07-08 12:00,ZBHH 081200Z AUTO 18004KT 12SM 29/11 A2977 RMK SLP010 T02900107 52002 IEM_DS3505
ZBHH,2008-07-08 13:00,ZBHH 081300Z AUTO 15004KT 7SM 25/13 A2977 RMK T02500130 IEM_DS3505
ZBHH,2008-07-08 14:00,ZBHH 081400Z AUTO 03004KT 7SM 25/12 A2980 RMK T02500120 IEM_DS3505
ZBHH,2008-07-08 15:00,ZBHH 081500Z AUTO 27004KT 16SM 26/11 A2980 RMK SLP029 T02570107 52017 IEM_DS3505
ZBHH,2008-07-08 16:00,ZBHH 081600Z AUTO 03004KT 7SM 22/13 A2983 RMK T02200130 IEM_DS3505
ZBHH,2008-07-08 17:00,ZBHH 081700Z AUTO 05004KT 7SM 20/13 A2983 RMK T02000130 IEM_DS3505
ZBHH,2008-07-08 18:00,ZBHH 081800Z AUTO 09002KT 19SM 22/12 A2983 RMK SLP038 T02210118 52007 IEM_DS3505
ZBHH,2008-07-08 19:00,ZBHH 081900Z AUTO 06004KT 7SM 19/12 A2983 RMK T01900120 IEM_DS3505
ZBHH,2008-07-08 20:00,ZBHH 082000Z AUTO 09004KT 7SM 18/13 A2985 RMK T01800130 IEM_DS3505
ZBHH,2008-07-08 21:00,ZBHH 082100Z AUTO 07002KT 12SM 21/12 A2985 RMK SLP046 T02070119 52008 IEM_DS3505
ZBHH,2008-07-08 22:00,ZBHH 082200Z AUTO 05004KT 4SM 18/14 A2988 RMK T01800140 IEM_DS3505
ZBHH,2008-07-08 23:00,ZBHH 082300Z AUTO 04002KT 4SM 21/14 A2988 RMK T02100140 IEM_DS3505
ZBHH,2008-07-09 00:00,ZBHH 090000Z AUTO 00000KT 9SM 24/14 A2988 RMK SLP051 T02370136 52007 IEM_DS3505
ZBHH,2008-07-09 01:00,ZBHH 090100Z AUTO 20004KT 4SM 24/16 A2988 RMK T02400160 IEM_DS3505
ZBHH,2008-07-09 02:00,ZBHH 090200Z AUTO 23006KT 4SM 26/15 A2988 RMK T02600150 IEM_DS3505
ZBHH,2008-07-09 03:00,ZBHH 090300Z AUTO 18004KT 12SM 26/15 A2985 RMK SLP045 T02650146 57006 IEM_DS3505
ZBHH,2008-07-09 04:00,ZBHH 090400Z AUTO 22006KT 6SM 28/15 A2985 RMK T02800150 IEM_DS3505
ZBHH,2008-07-09 05:00,ZBHH 090500Z AUTO 21006KT 6SM 29/14 A2983 RMK T02900140 IEM_DS3505
ZBHH,2008-07-09 06:00,ZBHH 090600Z AUTO 22004KT 9SM 29/14 A2983 RMK SLP032 T02890140 57014 IEM_DS3505
ZBHH,2008-07-09 07:00,ZBHH 090700Z AUTO 23008KT 6SM 30/14 A2980 RMK T03000140 IEM_DS3505
ZBHH,2008-07-09 08:00,ZBHH 090800Z AUTO 21004KT 6SM 31/14 A2980 RMK T03100140 IEM_DS3505
ZBHH,2008-07-09 09:00,ZBHH 090900Z AUTO 18006KT 9SM 31/13 A2977 RMK SLP015 T03070130 57014 IEM_DS3505
ZBHH,2008-07-09 10:00,ZBHH 091000Z AUTO 06002KT 6SM 30/13 A2977 RMK T03000130 IEM_DS3505
ZBHH,2008-07-09 11:00,ZBHH 091100Z AUTO 00000KT 6SM 31/12 A2977 RMK T03100120 IEM_DS3505
ZBHH,2008-07-09 12:00,ZBHH 091200Z AUTO 00000KT 9SM 29/13 A2977 RMK SLP011 T02910129 57001 IEM_DS3505
ZBHH,2008-07-09 13:00,ZBHH 091300Z AUTO 05008KT 7SM 26/16 A2977 RMK T02600160 IEM_DS3505
ZBHH,2008-07-09 14:00,ZBHH 091400Z AUTO 05006KT 7SM 24/14 A2977 RMK T02400140 IEM_DS3505
ZBHH,2008-07-09 15:00,ZBHH 091500Z AUTO 07002KT 16SM 25/14 A2977 RMK SLP016 T02540145 52003 IEM_DS3505
ZBHH,2008-07-09 16:00,ZBHH 091600Z AUTO 03004KT 6SM 23/14 A2980 RMK T02300140 IEM_DS3505
ZBHH,2008-07-09 17:00,ZBHH 091700Z AUTO 04006KT 6SM 22/14 A2980 RMK T02200140 IEM_DS3505
ZBHH,2008-07-09 18:00,ZBHH 091800Z AUTO 16002KT 16SM 23/15 A2980 RMK SLP019 T02310147 52002 IEM_DS3505
ZBHH,2008-07-09 19:00,ZBHH 091900Z AUTO 08004KT 6SM 21/14 A2980 RMK T02100140 IEM_DS3505
ZBHH,2008-07-09 20:00,ZBHH 092000Z AUTO 09006KT 6SM 19/14 A2977 RMK T01900140 IEM_DS3505
ZBHH,2008-07-09 21:00,ZBHH 092100Z AUTO 11002KT 9SM 21/14 A2980 RMK SLP023 T02110140 52004 IEM_DS3505
ZBHH,2008-07-09 22:00,ZBHH 092200Z AUTO 05004KT 6SM 19/14 A2980 RMK T01900140 IEM_DS3505
ZBHH,2008-07-09 23:00,ZBHH 092300Z AUTO 06004KT 6SM 21/15 A2980 RMK T02100150 IEM_DS3505
ZBHH,2008-07-10 00:00,ZBHH 100000Z AUTO 09004KT 6SM 25/14 A2980 RMK SLP023 T02470142 52003 IEM_DS3505
ZBHH,2008-07-10 01:00,ZBHH 100100Z AUTO 18002KT 4SM 26/16 A2980 RMK T02600160 IEM_DS3505
ZBHH,2008-07-10 02:00,ZBHH 100200Z AUTO 22006KT 6SM 27/15 A2980 RMK T02700150 IEM_DS3505
ZBHH,2008-07-10 03:00,ZBHH 100300Z AUTO 16004KT 9SM 28/14 A2980 RMK SLP014 T02830145 57008 IEM_DS3505
ZBHH,2008-07-10 04:00,ZBHH 100400Z AUTO 17006KT 6SM 29/15 A2977 RMK T02900150 IEM_DS3505
ZBHH,2008-07-10 05:00,ZBHH 100500Z AUTO 22004KT 7SM 30/15 A2974 RMK T03000150 IEM_DS3505
ZBHH,2008-07-10 06:00,ZBHH 100600Z AUTO 22008KT 9SM 30/13 A2974 RMK SLP995 T03030127 57017 IEM_DS3505
ZBHH,2008-07-10 07:00,ZBHH 100700Z AUTO 23006KT 7SM 31/14 A2971 RMK T03100140 IEM_DS3505
ZBHH,2008-07-10 08:00,ZBHH 100800Z AUTO 25006KT 7SM 32/13 A2971 RMK T03200130 IEM_DS3505
ZBHH,2008-07-10 09:00,ZBHH 100900Z AUTO 25004KT 9SM 32/14 A2968 RMK SLP980 T03170139 57015 IEM_DS3505
ZBHH,2008-07-10 10:00,ZBHH 101000Z AUTO 22004KT 7SM 31/13 A2968 RMK T03100130 IEM_DS3505
ZBHH,2008-07-10 11:00,ZBHH 101100Z AUTO 35023G35KT 7SM 25/13 A2971 RMK T02500130 IEM_DS3505
ZBHH,2008-07-10 12:00,ZBHH 101200Z AUTO 32012G33KT 19SM 23/12 A2971 RMK SLP007 T02300120 52015 IEM_DS3505
ZBHH,2008-07-10 13:00,ZBHH 101300Z AUTO 36019G29KT 7SM 22/12 A2974 RMK T02200120 IEM_DS3505
ZBHH,2008-07-10 14:00,ZBHH 101400Z AUTO 36021G31KT 7SM 20/11 A2977 RMK T02000110 IEM_DS3505
ZBHH,2008-07-10 15:00,ZBHH 101500Z AUTO 32008KT 19SM 20/11 A2977 RMK SLP026 T02030110 52019 IEM_DS3505
ZBHH,2008-07-10 16:00,ZBHH 101600Z AUTO 01017G27KT 7SM 19/12 A2980 RMK T01900120 IEM_DS3505
ZBHH,2008-07-10 17:00,ZBHH 101700Z AUTO 02010KT 7SM 20/12 A2980 RMK T02000120 IEM_DS3505
ZBHH,2008-07-10 18:00,ZBHH 101800Z AUTO 29004KT 19SM 20/11 A2980 RMK SLP025 T02050114 52003 IEM_DS3505
ZBHH,2008-07-10 19:00,ZBHH 101900Z AUTO 35008KT 7SM 20/12 A2983 RMK T02000120 IEM_DS3505
ZBHH,2008-07-10 20:00,ZBHH 102000Z AUTO 36010KT 7SM 17/14 A2980 RMK T01700140 IEM_DS3505
ZBHH,2008-07-10 21:00,ZBHH 102100Z AUTO 29004KT 6SM 18/14 A2983 RMK 70008 SLP036 T01780135 52007 IEM_DS3505
ZBHH,2008-07-10 22:00,ZBHH 102200Z AUTO 34002KT 7SM 18/14 A2980 RMK T01800140 IEM_DS3505
ZBHH,2008-07-10 23:00,ZBHH 102300Z AUTO 34010KT 7SM 18/14 A2983 RMK T01800140 IEM_DS3505
ZBHH,2008-07-11 00:00,ZBHH 110000Z AUTO 34006KT 19SM 20/13 A2985 RMK 60008 70008 SLP063 T02030130 52013 IEM_DS3505
ZBHH,2008-07-11 01:00,ZBHH 110100Z AUTO 35012KT 7SM 20/13 A2985 RMK T02000130 IEM_DS3505
ZBHH,2008-07-11 02:00,ZBHH 110200Z AUTO 35014KT 7SM 21/12 A2988 RMK T02100120 IEM_DS3505
ZBHH,2008-07-11 03:00,ZBHH 110300Z AUTO 34006KT 19SM 21/11 A2985 RMK SLP075 T02120110 52007 IEM_DS3505
ZBHH,2008-07-11 04:00,ZBHH 110400Z AUTO 35012KT 7SM 23/11 A2985 RMK T02300110 IEM_DS3505
ZBHH,2008-07-11 05:00,ZBHH 110500Z AUTO 36012KT 7SM 24/10 A2985 RMK T02400100 IEM_DS3505
ZBHH,2008-07-11 06:00,ZBHH 110600Z AUTO 36006KT 19SM 24/10 A2985 RMK SLP064 T02400103 57004 IEM_DS3505
ZBHH,2008-07-11 07:00,ZBHH 110700Z AUTO 04008KT 7SM 24/10 A2983 RMK T02400100 IEM_DS3505
ZBHH,2008-07-11 08:00,ZBHH 110800Z AUTO 35006KT 7SM 25/10 A2985 RMK T02500100 IEM_DS3505
ZBHH,2008-07-11 09:00,ZBHH 110900Z AUTO 04004KT 19SM 25/10 A2983 RMK SLP057 T02490104 57010 IEM_DS3505
ZBHH,2008-07-11 10:00,ZBHH 111000Z AUTO 36008KT 6SM 25/10 A2983 RMK T02500100 IEM_DS3505
ZBHH,2008-07-11 11:00,ZBHH 111100Z AUTO 01010KT 6SM 24/09 A2983 RMK T02400090 IEM_DS3505
ZBHH,2008-07-11 12:00,ZBHH 111200Z AUTO 04004KT 19SM 24/10 A2985 RMK SLP054 T02350102 54000 IEM_DS3505
ZBHH,2008-07-11 13:00,ZBHH 111300Z AUTO 06004KT 6SM 21/10 A2985 RMK T02100100 IEM_DS3505
ZBHH,2008-07-11 14:00,ZBHH 111400Z AUTO 04004KT 6SM 19/11 A2988 RMK T01900110 IEM_DS3505
ZBHH,2008-07-11 15:00,ZBHH 111500Z AUTO 29002KT 19SM 21/12 A2988 RMK SLP079 T02070116 52018 IEM_DS3505
ZBHH,2008-07-11 16:00,ZBHH 111600Z AUTO 04004KT 6SM 17/11 A2988 RMK T01700110 IEM_DS3505
ZBHH,2008-07-11 17:00,ZBHH 111700Z AUTO 05004KT 6SM 16/11 A2988 RMK T01600110 IEM_DS3505
ZBHH,2008-07-11 18:00,ZBHH 111800Z AUTO 29004KT 19SM 19/08 A2991 RMK SLP077 T01940084 52001 IEM_DS3505
ZBHH,2008-07-11 19:00,ZBHH 111900Z AUTO 02004KT 6SM 14/10 A2988 RMK T01400100 IEM_DS3505
ZBHH,2008-07-11 20:00,ZBHH 112000Z AUTO 09004KT 6SM 13/10 A2988 RMK T01300100 IEM_DS3505
ZBHH,2008-07-11 21:00,ZBHH 112100Z AUTO 00000KT 19SM 15/07 A2991 RMK 70000 SLP085 T01540074 52002 IEM_DS3505
ZBHH,2008-07-11 22:00,ZBHH 112200Z AUTO 07006KT 6SM 14/09 A2991 RMK T01400090 IEM_DS3505
ZBHH,2008-07-11 23:00,ZBHH 112300Z AUTO 07004KT 6SM 17/07 A2991 RMK T01700070 IEM_DS3505
ZBHH,2008-07-12 00:00,ZBHH 120000Z AUTO 04002KT 19SM 21/07 A2991 RMK SLP085 T02090072 52007 IEM_DS3505
ZBHH,2008-07-12 01:00,ZBHH 120100Z AUTO 07002KT 6SM 22/06 A2991 RMK T02200060 IEM_DS3505
ZBHH,2008-07-12 02:00,ZBHH 120200Z AUTO 21004KT 6SM 24/06 A2991 RMK T02400060 IEM_DS3505
ZBHH,2008-07-12 03:00,ZBHH 120300Z AUTO 02004KT 19SM 25/04 A2991 RMK SLP078 T02520044 57003 IEM_DS3505
ZBHH,2008-07-12 04:00,ZBHH 120400Z AUTO 18006KT 6SM 26/04 A2991 RMK T02600040 IEM_DS3505
ZBHH,2008-07-12 05:00,ZBHH 120500Z AUTO 19006KT 6SM 28/06 A2988 RMK T02800060 IEM_DS3505
ZBHH,2008-07-12 06:00,ZBHH 120600Z AUTO 32002KT 19SM 28/00 A2988 RMK SLP059 T02820000 57014 IEM_DS3505
ZBHH,2008-07-12 07:00,ZBHH 120700Z AUTO 14006KT 6SM 28/04 A2985 RMK T02800040 IEM_DS3505
ZBHH,2008-07-12 08:00,ZBHH 120800Z AUTO 19006KT 6SM 29/04 A2983 RMK T02900040 IEM_DS3505
ZBHH,2008-07-12 09:00,ZBHH 120900Z AUTO 14002KT 19SM 30/00 A2983 RMK SLP046 T02950002 57016 IEM_DS3505
ZBHH,2008-07-12 10:00,ZBHH 121000Z AUTO 23008KT 6SM 29/04 A2983 RMK T02900040 IEM_DS3505
ZBHH,2008-07-12 11:00,ZBHH 121100Z AUTO 29008KT 6SM 28/03 A2983 RMK T02800030 IEM_DS3505
ZBHH,2008-07-12 12:00,ZBHH 121200Z AUTO 29006KT 19SM 26/05 A2983 RMK SLP047 T02640048 52005 IEM_DS3505
ZBHH,2008-07-12 13:00,ZBHH 121300Z AUTO 01006KT 6SM 24/04 A2985 RMK T02400040 IEM_DS3505
ZBHH,2008-07-12 14:00,ZBHH 121400Z AUTO 07004KT 6SM 21/05 A2988 RMK T02100050 IEM_DS3505
ZBHH,2008-07-12 15:00,ZBHH 121500Z AUTO 07002KT 19SM 23/04 A2988 RMK SLP060 T02260037 52012 IEM_DS3505
ZBHH,2008-07-12 16:00,ZBHH 121600Z AUTO 05006KT 6SM 18/05 A2988 RMK T01800050 IEM_DS3505
ZBHH,2008-07-12 17:00,ZBHH 121700Z AUTO 07006KT 6SM 17/05 A2988 RMK T01700050 IEM_DS3505
ZBHH,2008-07-12 18:00,ZBHH 121800Z AUTO 18002KT 12SM 19/04 A2988 RMK SLP061 T01920038 54000 IEM_DS3505
ZBHH,2008-07-12 19:00,ZBHH 121900Z AUTO 04006KT 6SM 17/05 A2988 RMK T01700050 IEM_DS3505
ZBHH,2008-07-12 20:00,ZBHH 122000Z AUTO 07004KT 6SM 16/04 A2988 RMK T01600040 IEM_DS3505
ZBHH,2008-07-12 21:00,ZBHH 122100Z AUTO 27002KT 19SM 16/06 A2988 RMK SLP069 T01620061 52004 IEM_DS3505
ZBHH,2008-07-12 22:00,ZBHH 122200Z AUTO 07004KT 6SM 15/07 A2988 RMK T01500070 IEM_DS3505
ZBHH,2008-07-12 23:00,ZBHH 122300Z AUTO 06004KT 6SM 19/07 A2988 RMK T01900070 IEM_DS3505
ZBHH,2008-07-13 00:00,ZBHH 130000Z AUTO 07002KT 19SM 24/07 A2991 RMK SLP064 T02380070 52004 IEM_DS3505
ZBHH,2008-07-13 01:00,ZBHH 130100Z AUTO 06004KT 6SM 26/07 A2988 RMK T02600070 IEM_DS3505
ZBHH,2008-07-13 02:00,ZBHH 130200Z AUTO 14002KT 6SM 27/05 A2988 RMK T02700050 IEM_DS3505
ZBHH,2008-07-13 03:00,ZBHH 130300Z AUTO 20004KT 19SM 28/04 A2985 RMK SLP051 T02800037 57011 IEM_DS3505
ZBHH,2008-07-13 04:00,ZBHH 130400Z AUTO 21006KT 7SM 29/05 A2985 RMK T02900050 IEM_DS3505
ZBHH,2008-07-13 05:00,ZBHH 130500Z AUTO 7SM 30/04 A2983 RMK T03000040 IEM_DS3505
ZBHH,2008-07-13 06:00,ZBHH 130600Z AUTO 22002KT 12SM 29/06 A2983 RMK SLP036 T02910059 57017 IEM_DS3505
ZBHH,2008-07-13 07:00,ZBHH 130700Z AUTO 18004KT 7SM 29/04 A2980 RMK T02900040 IEM_DS3505
ZBHH,2008-07-13 08:00,ZBHH 130800Z AUTO 15002KT 7SM 29/04 A2977 RMK T02900040 IEM_DS3505
ZBHH,2008-07-13 09:00,ZBHH 130900Z AUTO 09004KT 12SM 29/03 A2977 RMK SLP024 T02930033 57016 IEM_DS3505
ZBHH,2008-07-13 10:00,ZBHH 131000Z AUTO 08004KT 7SM 27/06 A2977 RMK T02700060 IEM_DS3505
ZBHH,2008-07-13 11:00,ZBHH 131100Z AUTO 19017KT 7SM 27/09 A2980 RMK T02700090 IEM_DS3505
ZBHH,2008-07-13 12:00,ZBHH 131200Z AUTO 22004KT 19SM 25/10 A2983 RMK 60000 SLP043 T02480099 52023 IEM_DS3505
ZBHH,2008-07-13 13:00,ZBHH 131300Z AUTO 26008KT 7SM 24/11 A2983 RMK T02400110 IEM_DS3505
ZBHH,2008-07-13 14:00,ZBHH 131400Z AUTO 27006KT 7SM 24/10 A2983 RMK T02400100 IEM_DS3505
ZBHH,2008-07-13 15:00,ZBHH 131500Z AUTO 29002KT 12SM 23/12 A2985 RMK SLP042 T02290122 52003 IEM_DS3505
ZBHH,2008-07-13 16:00,ZBHH 131600Z AUTO 26008KT 7SM 21/14 A2985 RMK T02100140 IEM_DS3505
ZBHH,2008-07-13 17:00,ZBHH 131700Z AUTO 22002KT 7SM 19/15 A2985 RMK T01900150 IEM_DS3505
ZBHH,2008-07-13 18:00,ZBHH 131800Z AUTO 07004KT 12SM 18/15 A2985 RMK 60016 SLP050 T01750151 57001 IEM_DS3505
ZBHH,2008-07-13 19:00,ZBHH 131900Z AUTO 09008KT 7SM 17/14 A2983 RMK T01700140 IEM_DS3505
ZBHH,2008-07-13 20:00,ZBHH 132000Z AUTO 10004KT 7SM 18/14 A2980 RMK T01800140 IEM_DS3505
ZBHH,2008-07-13 21:00,ZBHH 132100Z AUTO 07002KT 12SM 17/15 A2980 RMK 70020 SLP041 T01710146 57008 IEM_DS3505
ZBHH,2008-07-13 22:00,ZBHH 132200Z AUTO 15002KT 7SM 18/13 A2983 RMK T01800130 IEM_DS3505
ZBHH,2008-07-13 23:00,ZBHH 132300Z AUTO 18002KT 7SM 16/14 A2983 RMK T01600140 IEM_DS3505
ZBHH,2008-07-14 00:00,ZBHH 140000Z AUTO 07002KT 6SM 16/14 A2983 RMK 60024 70040 SLP057 T01600144 52004 IEM_DS3505
ZBHH,2008-07-14 01:00,ZBHH 140100Z AUTO 10004KT 2 1/2SM 14/13 A2983 RMK T01400130 IEM_DS3505
ZBHH,2008-07-14 02:00,ZBHH 140200Z AUTO 05006KT 2 1/2SM 15/14 A2983 RMK T01500140 IEM_DS3505
ZBHH,2008-07-14 03:00,ZBHH 140300Z AUTO 04008KT 4SM 15/14 A2980 RMK SLP059 T01510140 57004 IEM_DS3505
ZBHH,2008-07-14 04:00,ZBHH 140400Z AUTO 05006KT 2SM 16/14 A2980 RMK T01600140 IEM_DS3505
ZBHH,2008-07-14 05:00,ZBHH 140500Z AUTO 04006KT 3SM 16/15 A2980 RMK T01600150 IEM_DS3505
ZBHH,2008-07-14 06:00,ZBHH 140600Z AUTO 09004KT 4SM 16/15 A2977 RMK 60031 SLP058 T01610148 57009 IEM_DS3505
ZBHH,2008-07-14 07:00,ZBHH 140700Z AUTO 07002KT 4SM 16/15 A2977 RMK T01600150 IEM_DS3505
ZBHH,2008-07-14 08:00,ZBHH 140800Z AUTO 00000KT 2 1/2SM 16/15 A2980 RMK T01600150 IEM_DS3505
ZBHH,2008-07-14 09:00,ZBHH 140900Z AUTO 02004KT 4SM 18/15 A2977 RMK SLP051 T01790152 57003 IEM_DS3505
ZBHH,2008-07-14 10:00,ZBHH 141000Z AUTO 16002KT 7SM 18/16 A2980 RMK T01800160 IEM_DS3505
ZBHH,2008-07-14 11:00,ZBHH 141100Z AUTO 19004KT 4SM 18/15 A2980 RMK T01800150 IEM_DS3505
ZBHH,2008-07-14 12:00,ZBHH 141200Z AUTO 22002KT 4SM 18/15 A2980 RMK 60000 SLP065 T01820153 52011 IEM_DS3505
ZBHH,2008-07-14 13:00,ZBHH 141300Z AUTO 10002KT 4SM 17/16 A2983 RMK T01700160 IEM_DS3505
ZBHH,2008-07-14 14:00,ZBHH 141400Z AUTO 14002KT 3SM 17/16 A2983 RMK T01700160 IEM_DS3505
ZBHH,2008-07-14 15:00,ZBHH 141500Z AUTO 22002KT 7SM 18/16 A2983 RMK SLP069 T01800156 52001 IEM_DS3505
ZBHH,2008-07-14 16:00,ZBHH 141600Z AUTO 22002KT 4SM 17/16 A2983 RMK T01700160 IEM_DS3505
ZBHH,2008-07-14 17:00,ZBHH 141700Z AUTO 21004KT 4SM 17/16 A2980 RMK T01700160 IEM_DS3505
ZBHH,2008-07-14 18:00,ZBHH 141800Z AUTO 29002KT 9SM 17/15 A2980 RMK SLP060 T01730153 57007 IEM_DS3505
ZBHH,2008-07-14 19:00,ZBHH 141900Z AUTO 14002KT 1 1/2SM 16/16 A2980 RMK T01600160 IEM_DS3505
ZBHH,2008-07-14 20:00,ZBHH 142000Z AUTO 19002KT 1SM 16/15 A2980 RMK T01600150 IEM_DS3505
ZBHH,2008-07-14 21:00,ZBHH 142100Z AUTO 18002KT 12SM 15/14 A2980 RMK 70050 SLP063 T01540143 52002 IEM_DS3505
ZBHH,2008-07-14 22:00,ZBHH 142200Z AUTO 18002KT 1/8SM 15/15 A2980 RMK T01500150 IEM_DS3505
ZBHH,2008-07-14 23:00,ZBHH 142300Z AUTO 16002KT 1/4SM 16/15 A2983 RMK T01600150 IEM_DS3505
ZBHH,2008-07-15 00:00,ZBHH 150000Z AUTO 32006KT 19SM 19/12 A2983 RMK 70030 SLP066 T01910117 52010 IEM_DS3505
ZBHH,2008-07-15 01:00,ZBHH 150100Z AUTO 32004KT 7SM 20/14 A2983 RMK T02000140 IEM_DS3505
ZBHH,2008-07-15 02:00,ZBHH 150200Z AUTO 29004KT 7SM 21/13 A2983 RMK T02100130 IEM_DS3505
ZBHH,2008-07-15 03:00,ZBHH 150300Z AUTO 22006KT 19SM 23/13 A2983 RMK SLP053 T02260128 57005 IEM_DS3505
ZBHH,2008-07-15 04:00,ZBHH 150400Z AUTO 26006KT 6SM 24/13 A2980 RMK T02400130 IEM_DS3505
ZBHH,2008-07-15 05:00,ZBHH 150500Z AUTO 22010KT 6SM 24/16 A2977 RMK T02400160 IEM_DS3505
ZBHH,2008-07-15 06:00,ZBHH 150600Z AUTO 20008KT 19SM 25/14 A2977 RMK SLP036 T02470145 57013 IEM_DS3505
ZBHH,2008-07-15 07:00,ZBHH 150700Z AUTO 24014KT 7SM 26/16 A2977 RMK T02600160 IEM_DS3505
ZBHH,2008-07-15 08:00,ZBHH 150800Z AUTO 23012KT 7SM 26/16 A2974 RMK T02600160 IEM_DS3505
ZBHH,2008-07-15 09:00,ZBHH 150900Z AUTO 22008KT 19SM 25/15 A2974 RMK SLP025 T02470153 57013 IEM_DS3505
ZBHH,2008-07-15 10:00,ZBHH 151000Z AUTO 24008KT 7SM 24/16 A2974 RMK T02400160 IEM_DS3505
ZBHH,2008-07-15 11:00,ZBHH 151100Z AUTO 30008KT 5SM 17/14 A2980 RMK T01700140 IEM_DS3505
ZBHH,2008-07-15 12:00,ZBHH 151200Z AUTO 32004KT 19SM 19/13 A2977 RMK 60020 SLP048 T01910133 52017 IEM_DS3505
ZBHH,2008-07-15 13:00,ZBHH 151300Z AUTO 32004KT 7SM 18/16 A2980 RMK T01800160 IEM_DS3505
ZBHH,2008-07-15 14:00,ZBHH 151400Z AUTO 35004KT 7SM 18/15 A2980 RMK T01800150 IEM_DS3505
ZBHH,2008-07-15 15:00,ZBHH 151500Z AUTO 00000KT 19SM 18/14 A2980 RMK SLP047 T01790136 52003 IEM_DS3505
ZBHH,2008-07-15 16:00,ZBHH 151600Z AUTO 09004KT 7SM 18/12 A2980 RMK T01800120 IEM_DS3505
ZBHH,2008-07-15 17:00,ZBHH 151700Z AUTO 09004KT 7SM 17/13 A2980 RMK T01700130 IEM_DS3505
ZBHH,2008-07-15 18:00,ZBHH 151800Z AUTO 32002KT 19SM 17/13 A2980 RMK SLP046 T01660131 52001 IEM_DS3505
ZBHH,2008-07-15 19:00,ZBHH 151900Z AUTO 04004KT 7SM 14/13 A2980 RMK T01400130 IEM_DS3505
ZBHH,2008-07-15 20:00,ZBHH 152000Z AUTO 09004KT 7SM 14/12 A2977 RMK T01400120 IEM_DS3505
ZBHH,2008-07-15 21:00,ZBHH 152100Z AUTO 11002KT 19SM 15/11 A2977 RMK 70020 SLP045 T01480114 57004 IEM_DS3505
ZBHH,2008-07-15 22:00,ZBHH 152200Z AUTO 09002KT 6SM 15/12 A2980 RMK T01500120 IEM_DS3505
ZBHH,2008-07-15 23:00,ZBHH 152300Z AUTO 08004KT 6SM 17/13 A2980 RMK T01700130 IEM_DS3505
ZBHH,2008-07-16 00:00,ZBHH 160000Z AUTO 07004KT 19SM 20/12 A2980 RMK 70020 SLP051 T02050122 52005 IEM_DS3505
ZBHH,2008-07-16 01:00,ZBHH 160100Z AUTO 10004KT 6SM 22/13 A2980 RMK T02200130 IEM_DS3505
ZBHH,2008-07-16 02:00,ZBHH 160200Z AUTO 22004KT 6SM 23/13 A2980 RMK T02300130 IEM_DS3505
ZBHH,2008-07-16 03:00,ZBHH 160300Z AUTO 20004KT 19SM 25/13 A2980 RMK SLP045 T02500129 52001 IEM_DS3505
ZBHH,2008-07-16 04:00,ZBHH 160400Z AUTO 18004KT 6SM 26/14 A2980 RMK T02600140 IEM_DS3505
ZBHH,2008-07-16 05:00,ZBHH 160500Z AUTO 18004KT 7SM 27/13 A2977 RMK T02700130 IEM_DS3505
ZBHH,2008-07-16 06:00,ZBHH 160600Z AUTO 27002KT 19SM 28/14 A2977 RMK SLP025 T02840143 57014 IEM_DS3505
ZBHH,2008-07-16 07:00,ZBHH 160700Z AUTO 17008KT 7SM 28/13 A2974 RMK T02800130 IEM_DS3505
ZBHH,2008-07-16 08:00,ZBHH 160800Z AUTO 20006KT 7SM 29/12 A2974 RMK T02900120 IEM_DS3505
ZBHH,2008-07-16 09:00,ZBHH 160900Z AUTO 20002KT 19SM 28/13 A2974 RMK SLP022 T02840127 57006 IEM_DS3505
ZBHH,2008-07-16 10:00,ZBHH 161000Z AUTO 22004KT 7SM 28/12 A2974 RMK T02800120 IEM_DS3505
ZBHH,2008-07-16 11:00,ZBHH 161100Z AUTO 00000KT 7SM 28/10 A2974 RMK T02800100 IEM_DS3505
ZBHH,2008-07-16 12:00,ZBHH 161200Z AUTO 02004KT 19SM 27/08 A2974 RMK SLP016 T02660076 52002 IEM_DS3505
ZBHH,2008-07-16 13:00,ZBHH 161300Z AUTO 05008KT 7SM 22/14 A2977 RMK T02200140 IEM_DS3505
ZBHH,2008-07-16 14:00,ZBHH 161400Z AUTO 06004KT 7SM 20/13 A2980 RMK T02000130 IEM_DS3505
ZBHH,2008-07-16 15:00,ZBHH 161500Z AUTO 07004KT 19SM 24/07 A2980 RMK SLP036 T02360073 52020 IEM_DS3505
ZBHH,2008-07-16 16:00,ZBHH 161600Z AUTO 08004KT 7SM 18/13 A2983 RMK T01800130 IEM_DS3505
ZBHH,2008-07-16 17:00,ZBHH 161700Z AUTO 06002KT 6SM 19/12 A2983 RMK T01900120 IEM_DS3505
ZBHH,2008-07-16 18:00,ZBHH 161800Z AUTO 00000KT 19SM 19/10 A2983 RMK SLP041 T01940099 52003 IEM_DS3505
ZBHH,2008-07-16 19:00,ZBHH 161900Z AUTO 08006KT 6SM 17/11 A2983 RMK T01700110 IEM_DS3505
ZBHH,2008-07-16 20:00,ZBHH 162000Z AUTO 05004KT 6SM 17/13 A2983 RMK T01700130 IEM_DS3505
ZBHH,2008-07-16 21:00,ZBHH 162100Z AUTO 07002KT 19SM 18/10 A2983 RMK SLP040 T01790100 57003 IEM_DS3505
ZBHH,2008-07-16 22:00,ZBHH 162200Z AUTO 09004KT 6SM 16/12 A2983 RMK T01600120 IEM_DS3505
ZBHH,2008-07-16 23:00,ZBHH 162300Z AUTO 12002KT 6SM 19/12 A2983 RMK T01900120 IEM_DS3505
ZBHH,2008-07-17 00:00,ZBHH 170000Z AUTO 09002KT 19SM 22/11 A2983 RMK SLP043 T02190107 52006 IEM_DS3505
ZBHH,2008-07-17 01:00,ZBHH 170100Z AUTO 04002KT 7SM 23/13 A2983 RMK T02300130 IEM_DS3505
ZBHH,2008-07-17 02:00,ZBHH 170200Z AUTO 09008KT 7SM 25/10 A2983 RMK T02500100 IEM_DS3505
ZBHH,2008-07-17 03:00,ZBHH 170300Z AUTO 16002KT 12SM 26/11 A2983 RMK SLP041 T02570111 54000 IEM_DS3505
ZBHH,2008-07-17 04:00,ZBHH 170400Z AUTO 20006KT 7SM 26/13 A2983 RMK T02600130 IEM_DS3505
ZBHH,2008-07-17 05:00,ZBHH 170500Z AUTO 22008KT 7SM 25/13 A2983 RMK T02500130 IEM_DS3505
ZBHH,2008-07-17 06:00,ZBHH 170600Z AUTO 20006KT 12SM 26/11 A2980 RMK SLP041 T02560106 57008 IEM_DS3505
ZBHH,2008-07-17 07:00,ZBHH 170700Z AUTO 21006KT 7SM 26/11 A2980 RMK T02600110 IEM_DS3505
ZBHH,2008-07-17 08:00,ZBHH 170800Z AUTO 24006KT 7SM 25/11 A2980 RMK T02500110 IEM_DS3505
ZBHH,2008-07-17 09:00,ZBHH 170900Z AUTO 20004KT 12SM 25/11 A2980 RMK SLP038 T02540108 57005 IEM_DS3505
ZBHH,2008-07-17 10:00,ZBHH 171000Z AUTO 25004KT 7SM 25/12 A2980 RMK T02500120 IEM_DS3505
ZBHH,2008-07-17 11:00,ZBHH 171100Z AUTO 22012KT 7SM 22/16 A2980 RMK T02200160 IEM_DS3505
ZBHH,2008-07-17 12:00,ZBHH 171200Z AUTO 20006KT 12SM 21/15 A2983 RMK SLP049 T02070148 52008 IEM_DS3505
ZBHH,2008-07-17 13:00,ZBHH 171300Z AUTO 20006KT 7SM 19/16 A2985 RMK T01900160 IEM_DS3505
ZBHH,2008-07-17 14:00,ZBHH 171400Z AUTO 21004KT 7SM 18/16 A2985 RMK T01800160 IEM_DS3505
ZBHH,2008-07-17 15:00,ZBHH 171500Z AUTO 18004KT 12SM 19/15 A2985 RMK SLP064 T01900149 52017 IEM_DS3505
ZBHH,2008-07-17 16:00,ZBHH 171600Z AUTO 00000KT 7SM 18/16 A2985 RMK T01800160 IEM_DS3505
ZBHH,2008-07-17 17:00,ZBHH 171700Z AUTO 13002KT 7SM 18/16 A2985 RMK T01800160 IEM_DS3505
ZBHH,2008-07-17 18:00,ZBHH 171800Z AUTO 07002KT 19SM 19/15 A2985 RMK SLP057 T01880151 57007 IEM_DS3505
ZBHH,2008-07-17 19:00,ZBHH 171900Z AUTO 05002KT 7SM 17/15 A2983 RMK T01700150 IEM_DS3505
ZBHH,2008-07-17 20:00,ZBHH 172000Z AUTO 36004KT 7SM 17/15 A2983 RMK T01700150 IEM_DS3505
ZBHH,2008-07-17 21:00,ZBHH 172100Z AUTO 29002KT 19SM 17/14 A2983 RMK SLP056 T01710142 57004 IEM_DS3505
ZBHH,2008-07-17 22:00,ZBHH 172200Z AUTO 06002KT 6SM 16/14 A2983 RMK T01600140 IEM_DS3505
ZBHH,2008-07-17 23:00,ZBHH 172300Z AUTO 06002KT 7SM 17/14 A2985 RMK T01700140 IEM_DS3505
ZBHH,2008-07-18 00:00,ZBHH 180000Z AUTO 11002KT 19SM 21/16 A2985 RMK SLP063 T02100160 52005 IEM_DS3505
ZBHH,2008-07-18 01:00,ZBHH 180100Z AUTO 26002KT 6SM 21/15 A2985 RMK T02100150 IEM_DS3505
ZBHH,2008-07-18 02:00,ZBHH 180200Z AUTO 21004KT 7SM 23/15 A2985 RMK T02300150 IEM_DS3505
ZBHH,2008-07-18 03:00,ZBHH 180300Z AUTO 25006KT 4SM 24/16 A2985 RMK SLP062 T02440159 52002 IEM_DS3505
ZBHH,2008-07-18 04:00,ZBHH 180400Z AUTO 21006KT 7SM 26/15 A2983 RMK T02600150 IEM_DS3505
ZBHH,2008-07-18 05:00,ZBHH 180500Z AUTO 24006KT 7SM 27/14 A2983 RMK T02700140 IEM_DS3505
ZBHH,2008-07-18 06:00,ZBHH 180600Z AUTO 20006KT 12SM 28/10 A2980 RMK SLP035 T02820104 57017 IEM_DS3505
ZBHH,2008-07-18 07:00,ZBHH 180700Z AUTO 04012KT 7SM 26/12 A2983 RMK T02600120 IEM_DS3505
ZBHH,2008-07-18 08:00,ZBHH 180800Z AUTO 02002KT 7SM 26/11 A2980 RMK T02600110 IEM_DS3505
ZBHH,2008-07-18 09:00,ZBHH 180900Z AUTO 29002KT 19SM 24/12 A2980 RMK SLP047 T02390125 57001 IEM_DS3505
ZBHH,2008-07-18 10:00,ZBHH 181000Z AUTO 29004KT 7SM 25/12 A2980 RMK T02500120 IEM_DS3505
ZBHH,2008-07-18 11:00,ZBHH 181100Z AUTO 21010KT 7SM 23/14 A2983 RMK T02300140 IEM_DS3505
ZBHH,2008-07-18 12:00,ZBHH 181200Z AUTO 11004KT 19SM 23/14 A2985 RMK SLP057 T02260137 52014 IEM_DS3505
ZBHH,2008-07-18 13:00,ZBHH 181300Z AUTO 09010KT 7SM 21/15 A2988 RMK T02100150 IEM_DS3505
ZBHH,2008-07-18 14:00,ZBHH 181400Z AUTO 24004KT 7SM 20/16 A2985 RMK T02000160 IEM_DS3505
ZBHH,2008-07-18 15:00,ZBHH 181500Z AUTO 32002KT 12SM 21/15 A2988 RMK SLP066 T02110147 52011 IEM_DS3505
ZBHH,2008-07-18 16:00,ZBHH 181600Z AUTO 06002KT 7SM 19/15 A2988 RMK T01900150 IEM_DS3505
ZBHH,2008-07-18 17:00,ZBHH 181700Z AUTO 05004KT 7SM 18/15 A2988 RMK T01800150 IEM_DS3505
ZBHH,2008-07-18 18:00,ZBHH 181800Z AUTO 25002KT 12SM 19/14 A2988 RMK SLP062 T01910139 54000 IEM_DS3505
ZBHH,2008-07-18 19:00,ZBHH 181900Z AUTO 11006KT 7SM 17/14 A2988 RMK T01700140 IEM_DS3505
ZBHH,2008-07-18 20:00,ZBHH 182000Z AUTO 10004KT 7SM 16/13 A2988 RMK T01600130 IEM_DS3505
ZBHH,2008-07-18 21:00,ZBHH 182100Z AUTO 36002KT 12SM 18/14 A2988 RMK SLP080 T01760135 52005 IEM_DS3505
ZBHH,2008-07-18 22:00,ZBHH 182200Z AUTO 06002KT 7SM 15/13 A2991 RMK T01500130 IEM_DS3505
ZBHH,2008-07-18 23:00,ZBHH 182300Z AUTO 10002KT 7SM 17/14 A2991 RMK T01700140 IEM_DS3505
ZBHH,2008-07-19 00:00,ZBHH 190000Z AUTO 00000KT 12SM 20/14 A2991 RMK SLP083 T02010138 52005 IEM_DS3505
ZBHH,2008-07-19 01:00,ZBHH 190100Z AUTO 10002KT 6SM 22/14 A2991 RMK T02200140 IEM_DS3505
ZBHH,2008-07-19 02:00,ZBHH 190200Z AUTO 17002KT 6SM 24/14 A2988 RMK T02400140 IEM_DS3505
ZBHH,2008-07-19 03:00,ZBHH 190300Z AUTO 25004KT 12SM 24/13 A2988 RMK SLP070 T02440127 57006 IEM_DS3505
ZBHH,2008-07-19 04:00,ZBHH 190400Z AUTO 17004KT 7SM 26/13 A2988 RMK T02600130 IEM_DS3505
ZBHH,2008-07-19 05:00,ZBHH 190500Z AUTO 20006KT 7SM 27/14 A2985 RMK T02700140 IEM_DS3505
ZBHH,2008-07-19 06:00,ZBHH 190600Z AUTO 18008KT 12SM 27/13 A2985 RMK SLP052 T02700130 57015 IEM_DS3505
ZBHH,2008-07-19 07:00,ZBHH 190700Z AUTO 25006KT 7SM 27/13 A2983 RMK T02700130 IEM_DS3505
ZBHH,2008-07-19 08:00,ZBHH 190800Z AUTO 24006KT 7SM 28/13 A2983 RMK T02800130 IEM_DS3505
ZBHH,2008-07-19 09:00,ZBHH 190900Z AUTO 18006KT 12SM 28/12 A2983 RMK SLP039 T02810116 57012 IEM_DS3505
ZBHH,2008-07-19 10:00,ZBHH 191000Z AUTO 34004KT 7SM 21/17 A2983 RMK T02100170 IEM_DS3505
ZBHH,2008-07-19 11:00,ZBHH 191100Z AUTO 34006KT 7SM 22/16 A2983 RMK T02200160 IEM_DS3505
ZBHH,2008-07-19 12:00,ZBHH 191200Z AUTO 32002KT 12SM 22/16 A2985 RMK 60028 SLP059 T02180161 52011 IEM_DS3505
ZBHH,2008-07-19 13:00,ZBHH 191300Z AUTO 05010KT 7SM 21/14 A2985 RMK T02100140 IEM_DS3505
ZBHH,2008-07-19 14:00,ZBHH 191400Z AUTO 11006KT 7SM 20/14 A2985 RMK T02000140 IEM_DS3505
ZBHH,2008-07-19 15:00,ZBHH 191500Z AUTO 09004KT 19SM 21/12 A2985 RMK SLP060 T02140123 52008 IEM_DS3505
ZBHH,2008-07-19 16:00,ZBHH 191600Z AUTO 01002KT 7SM 18/13 A2988 RMK T01800130 IEM_DS3505
ZBHH,2008-07-19 17:00,ZBHH 191700Z AUTO 07004KT 7SM 17/14 A2988 RMK T01700140 IEM_DS3505
ZBHH,2008-07-19 18:00,ZBHH 191800Z AUTO 07004KT 19SM 19/13 A2988 RMK SLP067 T01880128 52006 IEM_DS3505
ZBHH,2008-07-19 19:00,ZBHH 191900Z AUTO 05004KT 7SM 16/13 A2988 RMK T01600130 IEM_DS3505
ZBHH,2008-07-19 20:00,ZBHH 192000Z AUTO 06004KT 7SM 17/13 A2988 RMK T01700130 IEM_DS3505
ZBHH,2008-07-19 21:00,ZBHH 192100Z AUTO 07002KT 19SM 17/13 A2988 RMK 70028 SLP067 T01690130 57002 IEM_DS3505
ZBHH,2008-07-19 22:00,ZBHH 192200Z AUTO 07004KT 6SM 16/13 A2988 RMK T01600130 IEM_DS3505
ZBHH,2008-07-19 23:00,ZBHH 192300Z AUTO 09002KT 6SM 18/14 A2988 RMK T01800140 IEM_DS3505
ZBHH,2008-07-20 00:00,ZBHH 200000Z AUTO 04002KT 19SM 22/13 A2988 RMK 70028 SLP074 T02230134 52005 IEM_DS3505
ZBHH,2008-07-20 01:00,ZBHH 200100Z AUTO 11004KT 6SM 23/15 A2988 RMK T02300150 IEM_DS3505
ZBHH,2008-07-20 02:00,ZBHH 200200Z AUTO 16004KT 6SM 24/14 A2988 RMK T02400140 IEM_DS3505
ZBHH,2008-07-20 03:00,ZBHH 200300Z AUTO 32004KT 19SM 26/14 A2988 RMK SLP060 T02550137 57007 IEM_DS3505
ZBHH,2008-07-20 04:00,ZBHH 200400Z AUTO 19004KT 7SM 26/13 A2985 RMK T02600130 IEM_DS3505
ZBHH,2008-07-20 05:00,ZBHH 200500Z AUTO 17004KT 7SM 26/14 A2983 RMK T02600140 IEM_DS3505
ZBHH,2008-07-20 06:00,ZBHH 200600Z AUTO 04006KT 16SM 27/10 A2983 RMK SLP045 T02670096 57016 IEM_DS3505
ZBHH,2008-07-20 07:00,ZBHH 200700Z AUTO 06010KT 7SM 19/15 A2985 RMK T01900150 IEM_DS3505
ZBHH,2008-07-20 08:00,ZBHH 200800Z AUTO 05004KT 7SM 21/17 A2983 RMK T02100170 IEM_DS3505
ZBHH,2008-07-20 09:00,ZBHH 200900Z AUTO 32004KT 19SM 25/11 A2980 RMK SLP046 T02500108 57006 IEM_DS3505
ZBHH,2008-07-20 10:00,ZBHH 201000Z AUTO 16006KT 7SM 23/19 A2980 RMK T02300190 IEM_DS3505
ZBHH,2008-07-20 11:00,ZBHH 201100Z AUTO 16004KT 7SM 22/12 A2980 RMK T02200120 IEM_DS3505
ZBHH,2008-07-20 12:00,ZBHH 201200Z AUTO 29002KT 19SM 24/13 A2980 RMK 60000 SLP033 T02370130 57004 IEM_DS3505
ZBHH,2008-07-20 13:00,ZBHH 201300Z AUTO 03004KT 6SM 20/18 A2983 RMK T02000180 IEM_DS3505
ZBHH,2008-07-20 14:00,ZBHH 201400Z AUTO 05004KT 6SM 19/15 A2983 RMK T01900150 IEM_DS3505
ZBHH,2008-07-20 15:00,ZBHH 201500Z AUTO 00000KT 12SM 20/14 A2983 RMK SLP046 T01980135 52010 IEM_DS3505
ZBHH,2008-07-20 16:00,ZBHH 201600Z AUTO 06004KT 6SM 17/14 A2983 RMK T01700140 IEM_DS3505
ZBHH,2008-07-20 17:00,ZBHH 201700Z AUTO 03004KT 6SM 17/14 A2983 RMK T01700140 IEM_DS3505
ZBHH,2008-07-20 18:00,ZBHH 201800Z AUTO 00000KT 12SM 18/13 A2983 RMK SLP043 T01830130 57003 IEM_DS3505
ZBHH,2008-07-20 19:00,ZBHH 201900Z AUTO 07004KT 6SM 15/13 A2983 RMK T01500130 IEM_DS3505
ZBHH,2008-07-20 20:00,ZBHH 202000Z AUTO 01002KT 6SM 15/13 A2980 RMK T01500130 IEM_DS3505
ZBHH,2008-07-20 21:00,ZBHH 202100Z AUTO 27002KT 12SM 17/12 A2983 RMK 70000 SLP052 T01660122 52002 IEM_DS3505
ZBHH,2008-07-20 22:00,ZBHH 202200Z AUTO 03002KT 6SM 15/13 A2983 RMK T01500130 IEM_DS3505
ZBHH,2008-07-20 23:00,ZBHH 202300Z AUTO 06004KT 6SM 16/13 A2983 RMK T01600130 IEM_DS3505
ZBHH,2008-07-21 00:00,ZBHH 210000Z AUTO 04002KT 16SM 20/12 A2985 RMK 70000 SLP057 T01980121 52008 IEM_DS3505
ZBHH,2008-07-21 01:00,ZBHH 210100Z AUTO 00000KT 6SM 22/13 A2983 RMK T02200130 IEM_DS3505
ZBHH,2008-07-21 02:00,ZBHH 210200Z AUTO 18004KT 6SM 24/14 A2983 RMK T02400140 IEM_DS3505
ZBHH,2008-07-21 03:00,ZBHH 210300Z AUTO 22004KT 9SM 25/14 A2983 RMK SLP047 T02500142 57007 IEM_DS3505
ZBHH,2008-07-21 04:00,ZBHH 210400Z AUTO 22006KT 7SM 26/14 A2980 RMK T02600140 IEM_DS3505
ZBHH,2008-07-21 05:00,ZBHH 210500Z AUTO 23006KT 7SM 28/15 A2980 RMK T02800150 IEM_DS3505
ZBHH,2008-07-21 06:00,ZBHH 210600Z AUTO 27004KT 19SM 29/10 A2977 RMK SLP024 T02880095 57016 IEM_DS3505
ZBHH,2008-07-21 07:00,ZBHH 210700Z AUTO 21002KT 7SM 28/13 A2974 RMK T02800130 IEM_DS3505
ZBHH,2008-07-21 08:00,ZBHH 210800Z AUTO 29004KT 7SM 30/12 A2974 RMK T03000120 IEM_DS3505
ZBHH,2008-07-21 09:00,ZBHH 210900Z AUTO 22006KT 19SM 29/11 A2971 RMK SLP010 T02880114 57015 IEM_DS3505
ZBHH,2008-07-21 10:00,ZBHH 211000Z AUTO 22008KT 7SM 29/15 A2971 RMK T02900150 IEM_DS3505
ZBHH,2008-07-21 11:00,ZBHH 211100Z AUTO 19006KT 7SM 27/16 A2974 RMK T02700160 IEM_DS3505
ZBHH,2008-07-21 12:00,ZBHH 211200Z AUTO 22004KT 19SM 28/13 A2974 RMK SLP012 T02770129 52005 IEM_DS3505
ZBHH,2008-07-21 13:00,ZBHH 211300Z AUTO 05002KT 7SM 23/17 A2977 RMK T02300170 IEM_DS3505
ZBHH,2008-07-21 14:00,ZBHH 211400Z AUTO 06006KT 7SM 21/15 A2977 RMK T02100150 IEM_DS3505
ZBHH,2008-07-21 15:00,ZBHH 211500Z AUTO 09004KT 19SM 22/12 A2977 RMK SLP023 T02250125 52010 IEM_DS3505
ZBHH,2008-07-21 16:00,ZBHH 211600Z AUTO 05004KT 6SM 20/14 A2977 RMK T02000140 IEM_DS3505
ZBHH,2008-07-21 17:00,ZBHH 211700Z AUTO 06004KT 6SM 19/14 A2977 RMK T01900140 IEM_DS3505
ZBHH,2008-07-21 18:00,ZBHH 211800Z AUTO 09002KT 19SM 20/13 A2977 RMK SLP020 T02040129 54000 IEM_DS3505
ZBHH,2008-07-21 19:00,ZBHH 211900Z AUTO 07006KT 6SM 17/14 A2977 RMK T01700140 IEM_DS3505
ZBHH,2008-07-21 20:00,ZBHH 212000Z AUTO 11002KT 6SM 17/14 A2977 RMK T01700140 IEM_DS3505
ZBHH,2008-07-21 21:00,ZBHH 212100Z AUTO 04002KT 19SM 20/13 A2977 RMK SLP025 T01950128 52003 IEM_DS3505
ZBHH,2008-07-21 22:00,ZBHH 212200Z AUTO 09004KT 6SM 16/13 A2980 RMK T01600130 IEM_DS3505
ZBHH,2008-07-21 23:00,ZBHH 212300Z AUTO 08004KT 6SM 19/15 A2980 RMK T01900150 IEM_DS3505
ZBHH,2008-07-22 00:00,ZBHH 220000Z AUTO 04004KT 19SM 23/12 A2980 RMK SLP028 T02320116 52007 IEM_DS3505
ZBHH,2008-07-22 01:00,ZBHH 220100Z AUTO 17004KT 6SM 24/15 A2980 RMK T02400150 IEM_DS3505
ZBHH,2008-07-22 02:00,ZBHH 220200Z AUTO 16004KT 6SM 25/15 A2980 RMK T02500150 IEM_DS3505
ZBHH,2008-07-22 03:00,ZBHH 220300Z AUTO 09002KT 19SM 28/14 A2977 RMK SLP021 T02770140 57007 IEM_DS3505
ZBHH,2008-07-22 04:00,ZBHH 220400Z AUTO 23004KT 7SM 28/16 A2977 RMK T02800160 IEM_DS3505
ZBHH,2008-07-22 05:00,ZBHH 220500Z AUTO 27006KT 7SM 30/15 A2974 RMK T03000150 IEM_DS3505
ZBHH,2008-07-22 06:00,ZBHH 220600Z AUTO 22004KT 19SM 32/12 A2974 RMK SLP000 T03160119 57015 IEM_DS3505
ZBHH,2008-07-22 07:00,ZBHH 220700Z AUTO 22008KT 7SM 32/13 A2971 RMK T03200130 IEM_DS3505
ZBHH,2008-07-22 08:00,ZBHH 220800Z AUTO 19008KT 7SM 32/13 A2971 RMK T03200130 IEM_DS3505
ZBHH,2008-07-22 09:00,ZBHH 220900Z AUTO 25006KT 19SM 32/11 A2971 RMK SLP988 T03210108 57012 IEM_DS3505
ZBHH,2008-07-22 10:00,ZBHH 221000Z AUTO 20006KT 7SM 29/14 A2971 RMK T02900140 IEM_DS3505
ZBHH,2008-07-22 11:00,ZBHH 221100Z AUTO 20004KT 6SM 28/16 A2971 RMK T02800160 IEM_DS3505
ZBHH,2008-07-22 12:00,ZBHH 221200Z AUTO 27002KT 19SM 30/11 A2971 RMK SLP994 T02980113 52008 IEM_DS3505
ZBHH,2008-07-22 13:00,ZBHH 221300Z AUTO 05006KT 6SM 25/15 A2974 RMK T02500150 IEM_DS3505
ZBHH,2008-07-22 14:00,ZBHH 221400Z AUTO 06006KT 6SM 22/16 A2977 RMK T02200160 IEM_DS3505
ZBHH,2008-07-22 15:00,ZBHH 221500Z AUTO 09004KT 19SM 25/14 A2977 RMK SLP011 T02530135 52015 IEM_DS3505
ZBHH,2008-07-22 16:00,ZBHH 221600Z AUTO 05006KT 6SM 22/14 A2977 RMK T02200140 IEM_DS3505
ZBHH,2008-07-22 17:00,ZBHH 221700Z AUTO 06004KT 6SM 20/15 A2977 RMK T02000150 IEM_DS3505
ZBHH,2008-07-22 18:00,ZBHH 221800Z AUTO 00000KT 19SM 22/14 A2980 RMK SLP016 T02190140 52005 IEM_DS3505
ZBHH,2008-07-22 19:00,ZBHH 221900Z AUTO 07004KT 6SM 19/14 A2980 RMK T01900140 IEM_DS3505
ZBHH,2008-07-22 20:00,ZBHH 222000Z AUTO 06004KT 6SM 19/13 A2980 RMK T01900130 IEM_DS3505
ZBHH,2008-07-22 21:00,ZBHH 222100Z AUTO 04002KT 19SM 20/13 A2980 RMK SLP020 T02020129 52002 IEM_DS3505
ZBHH,2008-07-22 22:00,ZBHH 222200Z AUTO 09006KT 6SM 18/14 A2980 RMK T01800140 IEM_DS3505
ZBHH,2008-07-22 23:00,ZBHH 222300Z AUTO 07004KT 6SM 20/15 A2980 RMK T02000150 IEM_DS3505
ZBHH,2008-07-23 00:00,ZBHH 230000Z AUTO 09002KT 12SM 25/13 A2980 RMK SLP023 T02460132 52006 IEM_DS3505
ZBHH,2008-07-23 01:00,ZBHH 230100Z AUTO 14004KT 6SM 25/15 A2980 RMK T02500150 IEM_DS3505
ZBHH,2008-07-23 02:00,ZBHH 230200Z AUTO 19002KT 6SM 27/16 A2980 RMK T02700160 IEM_DS3505
ZBHH,2008-07-23 03:00,ZBHH 230300Z AUTO 04004KT 12SM 29/14 A2980 RMK SLP012 T02870142 57010 IEM_DS3505
ZBHH,2008-07-23 04:00,ZBHH 230400Z AUTO 14002KT 6SM 29/16 A2977 RMK T02900160 IEM_DS3505
ZBHH,2008-07-23 05:00,ZBHH 230500Z AUTO 19004KT 6SM 31/16 A2974 RMK T03100160 IEM_DS3505
ZBHH,2008-07-23 06:00,ZBHH 230600Z AUTO 22004KT 12SM 32/12 A2974 RMK SLP000 T03160124 57012 IEM_DS3505
ZBHH,2008-07-23 07:00,ZBHH 230700Z AUTO 31004KT 7SM 32/14 A2971 RMK T03200140 IEM_DS3505
ZBHH,2008-07-23 08:00,ZBHH 230800Z AUTO 20008KT 7SM 32/14 A2971 RMK T03200140 IEM_DS3505
ZBHH,2008-07-23 09:00,ZBHH 230900Z AUTO 25004KT 12SM 33/13 A2971 RMK SLP989 T03260128 57011 IEM_DS3505
ZBHH,2008-07-23 10:00,ZBHH 231000Z AUTO 20008KT 7SM 32/12 A2971 RMK T03200120 IEM_DS3505
ZBHH,2008-07-23 11:00,ZBHH 231100Z AUTO 17004KT 7SM 30/14 A2971 RMK T03000140 IEM_DS3505
ZBHH,2008-07-23 12:00,ZBHH 231200Z AUTO 09002KT 19SM 30/08 A2971 RMK SLP991 T02990083 52005 IEM_DS3505
ZBHH,2008-07-23 13:00,ZBHH 231300Z AUTO 07006KT 6SM 24/12 A2974 RMK T02400120 IEM_DS3505
ZBHH,2008-07-23 14:00,ZBHH 231400Z AUTO 02004KT 6SM 24/10 A2977 RMK T02400100 IEM_DS3505
ZBHH,2008-07-23 15:00,ZBHH 231500Z AUTO 36002KT 12SM 25/10 A2977 RMK SLP009 T02500101 52015 IEM_DS3505
ZBHH,2008-07-23 16:00,ZBHH 231600Z AUTO 04006KT 6SM 21/10 A2977 RMK T02100100 IEM_DS3505
ZBHH,2008-07-23 17:00,ZBHH 231700Z AUTO 04004KT 6SM 19/11 A2977 RMK T01900110 IEM_DS3505
ZBHH,2008-07-23 18:00,ZBHH 231800Z AUTO 32002KT 12SM 21/10 A2980 RMK SLP018 T02080097 52005 IEM_DS3505
ZBHH,2008-07-23 19:00,ZBHH 231900Z AUTO 06004KT 6SM 18/10 A2980 RMK T01800100 IEM_DS3505
ZBHH,2008-07-23 20:00,ZBHH 232000Z AUTO 04004KT 6SM 18/10 A2980 RMK T01800100 IEM_DS3505
ZBHH,2008-07-23 21:00,ZBHH 232100Z AUTO 09002KT 19SM 19/10 A2980 RMK SLP027 T01860097 52006 IEM_DS3505
ZBHH,2008-07-23 22:00,ZBHH 232200Z AUTO 04004KT 6SM 17/11 A2983 RMK T01700110 IEM_DS3505
ZBHH,2008-07-23 23:00,ZBHH 232300Z AUTO 08006KT 6SM 19/12 A2983 RMK T01900120 IEM_DS3505
ZBHH,2008-07-24 00:00,ZBHH 240000Z AUTO 16002KT 19SM 24/09 A2983 RMK SLP031 T02450093 52009 IEM_DS3505
ZBHH,2008-07-24 01:00,ZBHH 240100Z AUTO 08004KT 6SM 26/12 A2983 RMK T02600120 IEM_DS3505
ZBHH,2008-07-24 02:00,ZBHH 240200Z AUTO 6SM 27/11 A2983 RMK T02700110 IEM_DS3505
ZBHH,2008-07-24 03:00,ZBHH 240300Z AUTO 25004KT 16SM 28/10 A2983 RMK SLP033 T02780101 57001 IEM_DS3505
ZBHH,2008-07-24 04:00,ZBHH 240400Z AUTO 19006KT 6SM 29/14 A2983 RMK T02900140 IEM_DS3505
ZBHH,2008-07-24 05:00,ZBHH 240500Z AUTO 17006KT 6SM 30/11 A2980 RMK T03000110 IEM_DS3505
ZBHH,2008-07-24 06:00,ZBHH 240600Z AUTO 20006KT 19SM 31/10 A2977 RMK SLP015 T03140096 57017 IEM_DS3505
ZBHH,2008-07-24 07:00,ZBHH 240700Z AUTO 25006KT 6SM 31/12 A2977 RMK T03100120 IEM_DS3505
ZBHH,2008-07-24 08:00,ZBHH 240800Z AUTO 6SM 32/12 A2977 RMK T03200120 IEM_DS3505
ZBHH,2008-07-24 09:00,ZBHH 240900Z AUTO 20002KT 16SM 32/10 A2974 RMK SLP007 T03240099 57009 IEM_DS3505
ZBHH,2008-07-24 10:00,ZBHH 241000Z AUTO 28006KT 6SM 32/10 A2974 RMK T03200100 IEM_DS3505
ZBHH,2008-07-24 11:00,ZBHH 241100Z AUTO 30004KT 6SM 31/11 A2974 RMK T03100110 IEM_DS3505
ZBHH,2008-07-24 12:00,ZBHH 241200Z AUTO 27002KT 19SM 29/11 A2977 RMK SLP005 T02880109 52002 IEM_DS3505
ZBHH,2008-07-24 13:00,ZBHH 241300Z AUTO 04004KT 6SM 25/15 A2977 RMK T02500150 IEM_DS3505
ZBHH,2008-07-24 14:00,ZBHH 241400Z AUTO 04004KT 6SM 25/13 A2980 RMK T02500130 IEM_DS3505
ZBHH,2008-07-24 15:00,ZBHH 241500Z AUTO 07002KT 19SM 25/12 A2980 RMK SLP018 T02540116 52012 IEM_DS3505
ZBHH,2008-07-24 16:00,ZBHH 241600Z AUTO 05006KT 6SM 20/13 A2980 RMK T02000130 IEM_DS3505
ZBHH,2008-07-24 17:00,ZBHH 241700Z AUTO 04004KT 6SM 20/13 A2980 RMK T02000130 IEM_DS3505
ZBHH,2008-07-24 18:00,ZBHH 241800Z AUTO 04002KT 19SM 22/12 A2980 RMK SLP021 T02230120 52003 IEM_DS3505
ZBHH,2008-07-24 19:00,ZBHH 241900Z AUTO 06004KT 6SM 20/12 A2980 RMK T02000120 IEM_DS3505
ZBHH,2008-07-24 20:00,ZBHH 242000Z AUTO 06004KT 6SM 19/11 A2983 RMK T01900110 IEM_DS3505
ZBHH,2008-07-24 21:00,ZBHH 242100Z AUTO 07002KT 19SM 21/11 A2983 RMK SLP030 T02070113 52007 IEM_DS3505
ZBHH,2008-07-24 22:00,ZBHH 242200Z AUTO 06004KT 6SM 19/12 A2983 RMK T01900120 IEM_DS3505
ZBHH,2008-07-24 23:00,ZBHH 242300Z AUTO 07004KT 6SM 21/12 A2985 RMK T02100120 IEM_DS3505
ZBHH,2008-07-25 00:00,ZBHH 250000Z AUTO 11002KT 19SM 25/12 A2985 RMK SLP038 T02490115 52008 IEM_DS3505
ZBHH,2008-07-25 01:00,ZBHH 250100Z AUTO 10004KT 6SM 25/13 A2985 RMK T02500130 IEM_DS3505
ZBHH,2008-07-25 02:00,ZBHH 250200Z AUTO 13004KT 6SM 27/11 A2985 RMK T02700110 IEM_DS3505
ZBHH,2008-07-25 03:00,ZBHH 250300Z AUTO 09004KT 7SM 29/10 A2985 RMK SLP036 T02860103 57001 IEM_DS3505
ZBHH,2008-07-25 04:00,ZBHH 250400Z AUTO 19004KT 6SM 29/12 A2983 RMK T02900120 IEM_DS3505
ZBHH,2008-07-25 05:00,ZBHH 250500Z AUTO 19006KT 6SM 31/13 A2980 RMK T03100130 IEM_DS3505
ZBHH,2008-07-25 06:00,ZBHH 250600Z AUTO 20004KT 6SM 32/10 A2980 RMK SLP018 T03190100 57016 IEM_DS3505
ZBHH,2008-07-25 07:00,ZBHH 250700Z AUTO 21006KT 6SM 32/12 A2980 RMK T03200120 IEM_DS3505
ZBHH,2008-07-25 08:00,ZBHH 250800Z AUTO 23008KT 6SM 32/11 A2977 RMK T03200110 IEM_DS3505
ZBHH,2008-07-25 09:00,ZBHH 250900Z AUTO 22004KT 7SM 33/11 A2977 RMK SLP004 T03270107 57013 IEM_DS3505
ZBHH,2008-07-25 10:00,ZBHH 251000Z AUTO 25004KT 6SM 32/11 A2974 RMK T03200110 IEM_DS3505
ZBHH,2008-07-25 11:00,ZBHH 251100Z AUTO 23002KT 6SM 31/13 A2977 RMK T03100130 IEM_DS3505
ZBHH,2008-07-25 12:00,ZBHH 251200Z AUTO 18002KT 9SM 30/12 A2977 RMK SLP004 T03000124 52002 IEM_DS3505
ZBHH,2008-07-25 13:00,ZBHH 251300Z AUTO 04004KT 6SM 26/14 A2977 RMK T02600140 IEM_DS3505
ZBHH,2008-07-25 14:00,ZBHH 251400Z AUTO 07006KT 6SM 24/14 A2980 RMK T02400140 IEM_DS3505
ZBHH,2008-07-25 15:00,ZBHH 251500Z AUTO 09002KT 12SM 26/12 A2980 RMK SLP019 T02650122 52014 IEM_DS3505
ZBHH,2008-07-25 16:00,ZBHH 251600Z AUTO 02004KT 6SM 23/13 A2980 RMK T02300130 IEM_DS3505
ZBHH,2008-07-25 17:00,ZBHH 251700Z AUTO 04004KT 6SM 21/13 A2983 RMK T02100130 IEM_DS3505
ZBHH,2008-07-25 18:00,ZBHH 251800Z AUTO 32002KT 12SM 23/13 A2983 RMK SLP024 T02310127 52004 IEM_DS3505
ZBHH,2008-07-25 19:00,ZBHH 251900Z AUTO 05004KT 6SM 20/11 A2983 RMK T02000110 IEM_DS3505
ZBHH,2008-07-25 20:00,ZBHH 252000Z AUTO 06004KT 6SM 19/11 A2983 RMK T01900110 IEM_DS3505
ZBHH,2008-07-25 21:00,ZBHH 252100Z AUTO 00000KT 12SM 21/12 A2983 RMK SLP036 T02070116 52008 IEM_DS3505
ZBHH,2008-07-25 22:00,ZBHH 252200Z AUTO 04002KT 6SM 19/10 A2985 RMK T01900100 IEM_DS3505
ZBHH,2008-07-25 23:00,ZBHH 252300Z AUTO 09004KT 6SM 21/13 A2985 RMK T02100130 IEM_DS3505
ZBHH,2008-07-26 00:00,ZBHH 260000Z AUTO 09002KT 12SM 26/11 A2988 RMK SLP043 T02560110 52010 IEM_DS3505
ZBHH,2008-07-26 01:00,ZBHH 260100Z AUTO 10006KT 6SM 27/13 A2988 RMK T02700130 IEM_DS3505
ZBHH,2008-07-26 02:00,ZBHH 260200Z AUTO 17002KT 6SM 29/12 A2985 RMK T02900120 IEM_DS3505
ZBHH,2008-07-26 03:00,ZBHH 260300Z AUTO 09004KT 12SM 30/11 A2985 RMK SLP036 T02990114 57005 IEM_DS3505
ZBHH,2008-07-26 04:00,ZBHH 260400Z AUTO 20006KT 6SM 31/12 A2985 RMK T03100120 IEM_DS3505
ZBHH,2008-07-26 05:00,ZBHH 260500Z AUTO 22006KT 6SM 32/11 A2983 RMK T03200110 IEM_DS3505
ZBHH,2008-07-26 06:00,ZBHH 260600Z AUTO 25008KT 12SM 32/11 A2983 RMK SLP023 T03220114 57013 IEM_DS3505
ZBHH,2008-07-26 07:00,ZBHH 260700Z AUTO 21004KT 6SM 33/12 A2980 RMK T03300120 IEM_DS3505
ZBHH,2008-07-26 08:00,ZBHH 260800Z AUTO 26008KT 6SM 33/12 A2980 RMK T03300120 IEM_DS3505
ZBHH,2008-07-26 09:00,ZBHH 260900Z AUTO 29002KT 12SM 34/12 A2977 RMK SLP010 T03390117 57013 IEM_DS3505
ZBHH,2008-07-26 10:00,ZBHH 261000Z AUTO 23004KT 6SM 33/12 A2977 RMK T03300120 IEM_DS3505
ZBHH,2008-07-26 11:00,ZBHH 261100Z AUTO 17004KT 6SM 31/15 A2977 RMK T03100150 IEM_DS3505
ZBHH,2008-07-26 12:00,ZBHH 261200Z AUTO 20002KT 12SM 31/12 A2977 RMK SLP005 T03070121 57001 IEM_DS3505
ZBHH,2008-07-26 13:00,ZBHH 261300Z AUTO 07004KT 6SM 27/16 A2980 RMK T02700160 IEM_DS3505
ZBHH,2008-07-26 14:00,ZBHH 261400Z AUTO 07004KT 6SM 25/15 A2980 RMK T02500150 IEM_DS3505
ZBHH,2008-07-26 15:00,ZBHH 261500Z AUTO 32002KT 12SM 28/13 A2983 RMK SLP020 T02830126 52016 IEM_DS3505
ZBHH,2008-07-26 16:00,ZBHH 261600Z AUTO 04006KT 6SM 24/15 A2983 RMK T02400150 IEM_DS3505
ZBHH,2008-07-26 17:00,ZBHH 261700Z AUTO 05006KT 6SM 24/14 A2983 RMK T02400140 IEM_DS3505
ZBHH,2008-07-26 18:00,ZBHH 261800Z AUTO 11002KT 12SM 25/12 A2983 RMK SLP025 T02510120 52003 IEM_DS3505
ZBHH,2008-07-26 19:00,ZBHH 261900Z AUTO 06006KT 6SM 20/14 A2983 RMK T02000140 IEM_DS3505
ZBHH,2008-07-26 20:00,ZBHH 262000Z AUTO 05006KT 6SM 20/14 A2983 RMK T02000140 IEM_DS3505
ZBHH,2008-07-26 21:00,ZBHH 262100Z AUTO 00000KT 12SM 22/12 A2985 RMK SLP030 T02230120 52003 IEM_DS3505
ZBHH,2008-07-26 22:00,ZBHH 262200Z AUTO 05004KT 6SM 19/14 A2985 RMK T01900140 IEM_DS3505
ZBHH,2008-07-26 23:00,ZBHH 262300Z AUTO 04002KT 6SM 21/13 A2985 RMK T02100130 IEM_DS3505
ZBHH,2008-07-27 00:00,ZBHH 270000Z AUTO 20002KT 9SM 26/13 A2988 RMK SLP040 T02560131 52009 IEM_DS3505
ZBHH,2008-07-27 01:02,ZBHH 270102Z AUTO 08004KT 6SM 22/14 A2988 RMK T02200140 IEM_DS3505
ZBHH,2008-07-27 02:00,ZBHH 270200Z AUTO 17004KT 6SM 28/14 A2988 RMK T02800140 IEM_DS3505
ZBHH,2008-07-27 03:00,ZBHH 270300Z AUTO 25004KT 12SM 28/13 A2985 RMK SLP038 T02790134 57002 IEM_DS3505
ZBHH,2008-07-27 04:18,ZBHH 270418Z AUTO 21008KT 5SM 30/15 A2985 RMK T03000150 IEM_DS3505
ZBHH,2008-07-27 05:00,ZBHH 270500Z AUTO 21006KT 6SM 31/14 A2983 RMK T03100140 IEM_DS3505
ZBHH,2008-07-27 06:00,ZBHH 270600Z AUTO 25006KT 12SM 32/12 A2983 RMK SLP021 T03150118 57015 IEM_DS3505
ZBHH,2008-07-27 07:00,ZBHH 270700Z AUTO 24008KT 6SM 32/13 A2980 RMK T03200130 IEM_DS3505
ZBHH,2008-07-27 08:00,ZBHH 270800Z AUTO 26010KT 6SM 32/13 A2980 RMK T03200130 IEM_DS3505
ZBHH,2008-07-27 09:00,ZBHH 270900Z AUTO 22004KT 9SM 33/13 A2977 RMK SLP010 T03280130 57012 IEM_DS3505
ZBHH,2008-07-27 10:00,ZBHH 271000Z AUTO 26006KT 6SM 32/13 A2977 RMK T03200130 IEM_DS3505
ZBHH,2008-07-27 11:00,ZBHH 271100Z AUTO 24004KT 7SM 31/14 A2977 RMK T03100140 IEM_DS3505
ZBHH,2008-07-27 12:00,ZBHH 271200Z AUTO 32002KT 6SM 30/11 A2977 RMK SLP006 T03020112 57002 IEM_DS3505
ZBHH,2008-07-27 13:00,ZBHH 271300Z AUTO 14004KT 4SM 27/17 A2980 RMK T02700170 IEM_DS3505
ZBHH,2008-07-27 14:00,ZBHH 271400Z AUTO 06006KT 4SM 24/16 A2980 RMK T02400160 IEM_DS3505
ZBHH,2008-07-27 15:00,ZBHH 271500Z AUTO 09002KT 6SM 27/12 A2983 RMK SLP023 T02690118 52013 IEM_DS3505
ZBHH,2008-07-27 16:00,ZBHH 271600Z AUTO 03006KT 7SM 24/10 A2980 RMK T02400100 IEM_DS3505
ZBHH,2008-07-27 17:00,ZBHH 271700Z AUTO 04002KT 7SM 23/11 A2980 RMK T02300110 IEM_DS3505
ZBHH,2008-07-27 18:00,ZBHH 271800Z AUTO 34002KT 6SM 24/11 A2983 RMK SLP021 T02420112 54000 IEM_DS3505
ZBHH,2008-07-27 19:00,ZBHH 271900Z AUTO 07004KT 7SM 20/11 A2983 RMK T02000110 IEM_DS3505
ZBHH,2008-07-27 20:00,ZBHH 272000Z AUTO 06006KT 7SM 21/10 A2983 RMK T02100100 IEM_DS3505
ZBHH,2008-07-27 21:00,ZBHH 272100Z AUTO 32004KT 12SM 24/14 A2983 RMK SLP025 T02370138 52005 IEM_DS3505
ZBHH,2008-07-27 22:00,ZBHH 272200Z AUTO 03002KT 7SM 21/11 A2985 RMK T02100110 IEM_DS3505
ZBHH,2008-07-27 23:00,ZBHH 272300Z AUTO 06004KT 7SM 21/12 A2985 RMK T02100120 IEM_DS3505
ZBHH,2008-07-28 00:00,ZBHH 280000Z AUTO 09006KT 12SM 24/14 A2985 RMK SLP041 T02430135 52010 IEM_DS3505
ZBHH,2008-07-28 01:00,ZBHH 280100Z AUTO 09010KT 7SM 24/13 A2985 RMK T02400130 IEM_DS3505
ZBHH,2008-07-28 02:00,ZBHH 280200Z AUTO 08012KT 7SM 25/12 A2985 RMK T02500120 IEM_DS3505
ZBHH,2008-07-28 03:00,ZBHH 280300Z AUTO 09004KT 12SM 26/12 A2985 RMK SLP044 T02580119 54000 IEM_DS3505
ZBHH,2008-07-28 04:00,ZBHH 280400Z AUTO 09010KT 7SM 25/12 A2985 RMK T02500120 IEM_DS3505
ZBHH,2008-07-28 05:00,ZBHH 280500Z AUTO 05008KT 7SM 25/13 A2985 RMK T02500130 IEM_DS3505
ZBHH,2008-07-28 06:00,ZBHH 280600Z AUTO 29004KT 7SM 18/16 A2988 RMK 60035 SLP076 T01800162 52009 IEM_DS3505
ZBHH,2008-07-28 07:00,ZBHH 280700Z AUTO 02006KT 2 1/2SM 19/17 A2988 RMK T01900170 IEM_DS3505
ZBHH,2008-07-28 08:00,ZBHH 280800Z AUTO 02006KT 3SM 19/17 A2988 RMK T01900170 IEM_DS3505
ZBHH,2008-07-28 09:00,ZBHH 280900Z AUTO 32004KT 6SM 18/15 A2991 RMK SLP082 T01840149 52005 IEM_DS3505
ZBHH,2008-07-28 10:00,ZBHH 281000Z AUTO 36010KT 7SM 18/15 A2988 RMK T01800150 IEM_DS3505
ZBHH,2008-07-28 11:00,ZBHH 281100Z AUTO 35010KT 7SM 18/15 A2991 RMK T01800150 IEM_DS3505
ZBHH,2008-07-28 12:00,ZBHH 281200Z AUTO 32004KT 9SM 20/14 A2991 RMK 60035 SLP083 T01980142 52005 IEM_DS3505
ZBHH,2008-07-28 13:00,ZBHH 281300Z AUTO 01006KT 7SM 19/15 A2994 RMK T01900150 IEM_DS3505
ZBHH,2008-07-28 14:00,ZBHH 281400Z AUTO 36004KT 7SM 18/16 A2994 RMK T01800160 IEM_DS3505
ZBHH,2008-07-28 15:00,ZBHH 281500Z AUTO 16002KT 9SM 18/14 A2994 RMK SLP096 T01770142 52010 IEM_DS3505
ZBHH,2008-07-28 16:00,ZBHH 281600Z AUTO 06002KT 7SM 17/15 A2997 RMK T01700150 IEM_DS3505
ZBHH,2008-07-28 17:00,ZBHH 281700Z AUTO 10002KT 7SM 17/15 A2997 RMK T01700150 IEM_DS3505
ZBHH,2008-07-28 18:00,ZBHH 281800Z AUTO 29004KT 9SM 19/12 A2994 RMK 60008 SLP112 T01860121 52002 IEM_DS3505
ZBHH,2008-07-28 19:00,ZBHH 281900Z AUTO 35004KT 7SM 16/14 A2994 RMK T01600140 IEM_DS3505
ZBHH,2008-07-28 20:00,ZBHH 282000Z AUTO 17002KT 7SM 16/15 A2997 RMK T01600150 IEM_DS3505
ZBHH,2008-07-28 21:00,ZBHH 282100Z AUTO 00000KT 19SM 15/11 A2997 RMK 70076 SLP122 T01510113 52003 IEM_DS3505
ZBHH,2008-07-28 22:00,ZBHH 282200Z AUTO 02004KT 6SM 15/14 A2997 RMK T01500140 IEM_DS3505
ZBHH,2008-07-28 23:00,ZBHH 282300Z AUTO 08004KT 6SM 17/14 A2997 RMK T01700140 IEM_DS3505
ZBHH,2008-07-29 00:00,ZBHH 290000Z AUTO 09004KT 19SM 21/11 A3000 RMK 70076 SLP116 T02080106 52008 IEM_DS3505
ZBHH,2008-07-29 01:00,ZBHH 290100Z AUTO 04002KT 6SM 21/12 A3000 RMK T02100120 IEM_DS3505
ZBHH,2008-07-29 02:00,ZBHH 290200Z AUTO 07004KT 6SM 23/10 A3000 RMK T02300100 IEM_DS3505
ZBHH,2008-07-29 03:00,ZBHH 290300Z AUTO 02004KT 19SM 25/09 A2997 RMK SLP108 T02460090 57004 IEM_DS3505
ZBHH,2008-07-29 04:00,ZBHH 290400Z AUTO 10010KT 6SM 26/10 A2997 RMK T02600100 IEM_DS3505
ZBHH,2008-07-29 05:00,ZBHH 290500Z AUTO 09008KT 6SM 27/07 A2994 RMK T02700070 IEM_DS3505
ZBHH,2008-07-29 06:00,ZBHH 290600Z AUTO 36006KT 19SM 27/07 A2991 RMK SLP080 T02720071 57019 IEM_DS3505
ZBHH,2008-07-29 07:00,ZBHH 290700Z AUTO 07006KT 6SM 28/09 A2991 RMK T02800090 IEM_DS3505
ZBHH,2008-07-29 08:00,ZBHH 290800Z AUTO 12004KT 6SM 29/07 A2988 RMK T02900070 IEM_DS3505
ZBHH,2008-07-29 09:00,ZBHH 290900Z AUTO 07004KT 19SM 29/07 A2988 RMK SLP068 T02890069 57014 IEM_DS3505
ZBHH,2008-07-29 10:00,ZBHH 291000Z AUTO 06006KT 6SM 28/07 A2988 RMK T02800070 IEM_DS3505
ZBHH,2008-07-29 11:00,ZBHH 291100Z AUTO 05006KT 6SM 27/09 A2988 RMK T02700090 IEM_DS3505
ZBHH,2008-07-29 12:00,ZBHH 291200Z AUTO 09004KT 19SM 26/07 A2988 RMK SLP067 T02640074 52005 IEM_DS3505
ZBHH,2008-07-29 13:00,ZBHH 291300Z AUTO 07008KT 6SM 21/11 A2991 RMK T02100110 IEM_DS3505
ZBHH,2008-07-29 14:00,ZBHH 291400Z AUTO 05006KT 6SM 20/12 A2994 RMK T02000120 IEM_DS3505
ZBHH,2008-07-29 15:00,ZBHH 291500Z AUTO 07006KT 19SM 23/08 A2994 RMK SLP084 T02300083 52016 IEM_DS3505
ZBHH,2008-07-29 16:00,ZBHH 291600Z AUTO 03008KT 6SM 20/10 A2994 RMK T02000100 IEM_DS3505
ZBHH,2008-07-29 17:00,ZBHH 291700Z AUTO 07004KT 6SM 20/09 A2994 RMK T02000090 IEM_DS3505
ZBHH,2008-07-29 18:00,ZBHH 291800Z AUTO 07006KT 19SM 21/07 A2991 RMK SLP072 T02130072 57009 IEM_DS3505
ZBHH,2008-07-29 19:00,ZBHH 291900Z AUTO 08006KT 6SM 19/10 A2991 RMK T01900100 IEM_DS3505
ZBHH,2008-07-29 20:00,ZBHH 292000Z AUTO 06006KT 6SM 18/10 A2991 RMK T01800100 IEM_DS3505
ZBHH,2008-07-29 21:00,ZBHH 292100Z AUTO 29002KT 19SM 18/11 A2991 RMK SLP076 T01830111 52001 IEM_DS3505
ZBHH,2008-07-29 22:00,ZBHH 292200Z AUTO 06008KT 6SM 17/11 A2991 RMK T01700110 IEM_DS3505
ZBHH,2008-07-29 23:00,ZBHH 292300Z AUTO 07006KT 6SM 19/12 A2991 RMK T01900120 IEM_DS3505
ZBHH,2008-07-30 00:00,ZBHH 300000Z AUTO 02002KT 16SM 22/12 A2991 RMK SLP074 T02220116 52001 IEM_DS3505
ZBHH,2008-07-30 01:00,ZBHH 300100Z AUTO 09006KT 7SM 23/13 A2991 RMK T02300130 IEM_DS3505
ZBHH,2008-07-30 02:00,ZBHH 300200Z AUTO 09008KT 7SM 24/13 A2991 RMK T02400130 IEM_DS3505
ZBHH,2008-07-30 03:00,ZBHH 300300Z AUTO 25002KT 9SM 21/17 A2991 RMK SLP086 T02060170 52002 IEM_DS3505
ZBHH,2008-07-30 04:00,ZBHH 300400Z AUTO 35004KT 2 1/2SM 20/18 A2991 RMK T02000180 IEM_DS3505
ZBHH,2008-07-30 05:00,ZBHH 300500Z AUTO 35002KT 2 1/2SM 20/18 A2991 RMK T02000180 IEM_DS3505
ZBHH,2008-07-30 06:00,ZBHH 300600Z AUTO 27002KT 6SM 20/18 A2991 RMK 60039 SLP085 T02010175 57005 IEM_DS3505
ZBHH,2008-07-30 07:00,ZBHH 300700Z AUTO 06002KT 2 1/2SM 21/19 A2988 RMK T02100190 IEM_DS3505
ZBHH,2008-07-30 08:00,ZBHH 300800Z AUTO 33006KT 2 1/2SM 20/18 A2988 RMK T02000180 IEM_DS3505
ZBHH,2008-07-30 09:00,ZBHH 300900Z AUTO 29002KT 6SM 19/17 A2988 RMK SLP091 T01870172 57003 IEM_DS3505
ZBHH,2008-07-30 10:00,ZBHH 301000Z AUTO 36006KT 2 1/2SM 20/18 A2988 RMK T02000180 IEM_DS3505
ZBHH,2008-07-30 11:00,ZBHH 301100Z AUTO 26006KT 1 1/2SM 19/18 A2991 RMK T01900180 IEM_DS3505
ZBHH,2008-07-30 12:00,ZBHH 301200Z AUTO 29002KT 6SM 19/17 A2991 RMK 60067 SLP088 T01890172 52005 IEM_DS3505
ZBHH,2008-07-30 13:00,ZBHH 301300Z AUTO 02004KT 3SM 19/18 A2991 RMK T01900180 IEM_DS3505
ZBHH,2008-07-30 14:00,ZBHH 301400Z AUTO 1 1/2SM 18/17 A2994 RMK T01800170 IEM_DS3505
ZBHH,2008-07-30 15:00,ZBHH 301500Z AUTO 02002KT 6SM 18/17 A2991 RMK SLP091 T01850172 57001 IEM_DS3505
ZBHH,2008-07-30 16:00,ZBHH 301600Z AUTO 04004KT 3SM 19/18 A2991 RMK T01900180 IEM_DS3505
ZBHH,2008-07-30 17:00,ZBHH 301700Z AUTO 05004KT 4SM 19/18 A2988 RMK T01900180 IEM_DS3505
ZBHH,2008-07-30 18:00,ZBHH 301800Z AUTO 32002KT 6SM 19/18 A2985 RMK 60039 SLP074 T01910179 57015 IEM_DS3505
ZBHH,2008-07-30 19:00,ZBHH 301900Z AUTO 34004KT 4SM 19/18 A2985 RMK T01900180 IEM_DS3505
ZBHH,2008-07-30 20:00,ZBHH 302000Z AUTO 33004KT 2 1/2SM 19/18 A2985 RMK T01900180 IEM_DS3505
ZBHH,2008-07-30 21:00,ZBHH 302100Z AUTO 18002KT 6SM 19/18 A2985 RMK 70210 SLP076 T01940184 54000 IEM_DS3505
ZBHH,2008-07-30 22:00,ZBHH 302200Z AUTO 09004KT 1 1/2SM 19/18 A2985 RMK T01900180 IEM_DS3505
ZBHH,2008-07-30 23:00,ZBHH 302300Z AUTO 09004KT 1SM 19/18 A2985 RMK T01900180 IEM_DS3505
ZBHH,2008-07-31 00:00,ZBHH 310000Z AUTO 16002KT 6SM 19/18 A2985 RMK 60134 70278 SLP076 T01900180 57001 IEM_DS3505
ZBHH,2008-07-31 01:00,ZBHH 310100Z AUTO 04004KT 1SM 19/18 A2985 RMK T01900180 IEM_DS3505
ZBHH,2008-07-31 02:00,ZBHH 310200Z AUTO 01004KT 1 1/2SM 19/18 A2985 RMK T01900180 IEM_DS3505
ZBHH,2008-07-31 03:00,ZBHH 310300Z AUTO 27002KT 6SM 18/17 A2985 RMK SLP074 T01850172 57003 IEM_DS3505
ZBHH,2008-07-31 04:00,ZBHH 310400Z AUTO 01004KT 2 1/2SM 19/17 A2985 RMK T01900170 IEM_DS3505
ZBHH,2008-07-31 05:00,ZBHH 310500Z AUTO 36014KT 7SM 20/15 A2985 RMK T02000150 IEM_DS3505
ZBHH,2008-07-31 06:00,ZBHH 310600Z AUTO 29002KT 12SM 20/14 A2985 RMK 60098 SLP072 T02000144 52002 IEM_DS3505
ZBHH,2008-07-31 07:00,ZBHH 310700Z AUTO 03004KT 7SM 20/15 A2985 RMK T02000150 IEM_DS3505
ZBHH,2008-07-31 08:00,ZBHH 310800Z AUTO 13002KT 7SM 19/16 A2985 RMK T01900160 IEM_DS3505
ZBHH,2008-07-31 09:00,ZBHH 310900Z AUTO 25002KT 12SM 20/15 A2985 RMK SLP075 T02030153 52004 IEM_DS3505
ZBHH,2008-07-31 10:00,ZBHH 311000Z AUTO 34008KT 7SM 21/15 A2985 RMK T02100150 IEM_DS3505
ZBHH,2008-07-31 11:00,ZBHH 311100Z AUTO 33008KT 7SM 20/14 A2985 RMK T02000140 IEM_DS3505
ZBHH,2008-07-31 12:00,ZBHH 311200Z AUTO 32002KT 12SM 20/14 A2988 RMK 60004 SLP085 T01980137 52007 IEM_DS3505
ZBHH,2008-07-31 13:00,ZBHH 311300Z AUTO 34006KT 6SM 20/14 A2991 RMK T02000140 IEM_DS3505
ZBHH,2008-07-31 14:00,ZBHH 311400Z AUTO 35006KT 6SM 19/14 A2991 RMK T01900140 IEM_DS3505
ZBHH,2008-07-31 15:00,ZBHH 311500Z AUTO 07002KT 12SM 18/14 A2991 RMK SLP101 T01820141 52010 IEM_DS3505
ZBHH,2008-07-31 16:00,ZBHH 311600Z AUTO 05002KT 6SM 17/15 A2991 RMK T01700150 IEM_DS3505
ZBHH,2008-07-31 17:00,ZBHH 311700Z AUTO 06004KT 6SM 16/15 A2991 RMK T01600150 IEM_DS3505
ZBHH,2008-07-31 18:00,ZBHH 311800Z AUTO 20002KT 12SM 16/14 A2991 RMK SLP100 T01590141 57002 IEM_DS3505
ZBHH,2008-07-31 19:00,ZBHH 311900Z AUTO 11002KT 6SM 15/14 A2994 RMK T01500140 IEM_DS3505
ZBHH,2008-07-31 20:00,ZBHH 312000Z AUTO 15002KT 6SM 15/13 A2991 RMK T01500130 IEM_DS3505
ZBHH,2008-07-31 21:00,ZBHH 312100Z AUTO 07002KT 19SM 16/14 A2994 RMK 70170 SLP103 T01590144 52003 IEM_DS3505
ZBHH,2008-07-31 22:00,ZBHH 312200Z AUTO 10004KT 1/2SM 14/13 A2994 RMK T01400130 IEM_DS3505
ZBHH,2008-07-31 23:00,ZBHH 312300Z AUTO 12002KT 1/4SM 14/13 A2994 RMK T01400130 IEM_DS3505
ZBHH,2008-08-01 00:00,ZBHH 010000Z AUTO 11002KT 19SM 17/15 A2997 RMK 70103 SLP115 T01730146 52012 IEM_DS3505
ZBHH,2008-08-01 01:00,ZBHH 010100Z AUTO 25002KT 7SM 17/16 A2997 RMK T01700160 IEM_DS3505
ZBHH,2008-08-01 02:00,ZBHH 010200Z AUTO 27002KT 7SM 20/16 A2997 RMK T02000160 IEM_DS3505
ZBHH,2008-08-01 03:00,ZBHH 010300Z AUTO 22004KT 5SM 22/15 A2997 RMK SLP110 T02210147 52002 IEM_DS3505
ZBHH,2008-08-01 04:00,ZBHH 010400Z AUTO 21004KT 7SM 24/15 A2997 RMK T02400150 IEM_DS3505
ZBHH,2008-08-01 05:00,ZBHH 010500Z AUTO 20006KT 7SM 25/15 A2994 RMK T02500150 IEM_DS3505
ZBHH,2008-08-01 06:00,ZBHH 010600Z AUTO 22004KT 7SM 25/15 A2994 RMK SLP099 T02470153 57009 IEM_DS3505
ZBHH,2008-08-01 07:00,ZBHH 010700Z AUTO 21006KT 7SM 25/14 A2994 RMK T02500140 IEM_DS3505
ZBHH,2008-08-01 08:00,ZBHH 010800Z AUTO 23006KT 7SM 25/13 A2994 RMK T02500130 IEM_DS3505
ZBHH,2008-08-01 09:00,ZBHH 010900Z AUTO 18006KT 12SM 24/15 A2991 RMK SLP094 T02420149 57006 IEM_DS3505
ZBHH,2008-08-01 10:00,ZBHH 011000Z AUTO 24004KT 6SM 24/17 A2991 RMK T02400170 IEM_DS3505
ZBHH,2008-08-01 11:00,ZBHH 011100Z AUTO 21002KT 6SM 22/18 A2994 RMK T02200180 IEM_DS3505
ZBHH,2008-08-01 12:00,ZBHH 011200Z AUTO 18002KT 12SM 23/12 A2994 RMK SLP096 T02280124 52002 IEM_DS3505
ZBHH,2008-08-01 13:00,ZBHH 011300Z AUTO 05004KT 6SM 20/18 A2994 RMK T02000180 IEM_DS3505
ZBHH,2008-08-01 14:00,ZBHH 011400Z AUTO 05004KT 6SM 20/17 A2994 RMK T02000170 IEM_DS3505
ZBHH,2008-08-01 15:00,ZBHH 011500Z AUTO 32002KT 12SM 20/15 A2994 RMK SLP096 T02050153 52005 IEM_DS3505
ZBHH,2008-08-01 16:00,ZBHH 011600Z AUTO 03004KT 6SM 18/14 A2994 RMK T01800140 IEM_DS3505
ZBHH,2008-08-01 17:00,ZBHH 011700Z AUTO 06004KT 6SM 17/14 A2994 RMK T01700140 IEM_DS3505
ZBHH,2008-08-01 18:00,ZBHH 011800Z AUTO 00000KT 19SM 17/15 A2994 RMK SLP092 T01730146 57005 IEM_DS3505
ZBHH,2008-08-01 19:00,ZBHH 011900Z AUTO 05002KT 6SM 16/13 A2991 RMK T01600130 IEM_DS3505
ZBHH,2008-08-01 20:00,ZBHH 012000Z AUTO 07004KT 6SM 15/13 A2991 RMK T01500130 IEM_DS3505
ZBHH,2008-08-01 21:00,ZBHH 012100Z AUTO 00000KT 19SM 16/14 A2994 RMK SLP095 T01570144 57001 IEM_DS3505
ZBHH,2008-08-01 22:00,ZBHH 012200Z AUTO 04004KT 6SM 15/13 A2994 RMK T01500130 IEM_DS3505
ZBHH,2008-08-01 23:00,ZBHH 012300Z AUTO 09002KT 6SM 17/14 A2994 RMK T01700140 IEM_DS3505
ZBHH,2008-08-02 00:00,ZBHH 020000Z AUTO 07002KT 19SM 20/14 A2994 RMK SLP096 T02010140 52006 IEM_DS3505
ZBHH,2008-08-02 01:00,ZBHH 020100Z AUTO 20002KT 6SM 21/16 A2994 RMK T02100160 IEM_DS3505
ZBHH,2008-08-02 02:00,ZBHH 020200Z AUTO 23004KT 6SM 22/16 A2994 RMK T02200160 IEM_DS3505
ZBHH,2008-08-02 03:00,ZBHH 020300Z AUTO 20004KT 19SM 24/16 A2994 RMK SLP088 T02400165 57004 IEM_DS3505
ZBHH,2008-08-02 04:00,ZBHH 020400Z AUTO 21006KT 6SM 26/17 A2991 RMK T02600170 IEM_DS3505
ZBHH,2008-08-02 05:00,ZBHH 020500Z AUTO 21006KT 6SM 27/17 A2991 RMK T02700170 IEM_DS3505
ZBHH,2008-08-02 06:00,ZBHH 020600Z AUTO 25006KT 12SM 28/17 A2988 RMK SLP068 T02850174 57015 IEM_DS3505
ZBHH,2008-08-02 07:00,ZBHH 020700Z AUTO 22006KT 7SM 29/17 A2988 RMK T02900170 IEM_DS3505
ZBHH,2008-08-02 08:00,ZBHH 020800Z AUTO 21006KT 7SM 29/15 A2985 RMK T02900150 IEM_DS3505
ZBHH,2008-08-02 09:00,ZBHH 020900Z AUTO 22004KT 12SM 29/16 A2985 RMK SLP055 T02940155 57013 IEM_DS3505
ZBHH,2008-08-02 10:00,ZBHH 021000Z AUTO 21008KT 6SM 28/17 A2983 RMK T02800170 IEM_DS3505
ZBHH,2008-08-02 11:00,ZBHH 021100Z AUTO 24006KT 6SM 26/17 A2985 RMK T02600170 IEM_DS3505
ZBHH,2008-08-02 12:00,ZBHH 021200Z AUTO 25002KT 19SM 26/16 A2985 RMK SLP054 T02600165 52001 IEM_DS3505
ZBHH,2008-08-02 13:00,ZBHH 021300Z AUTO 07002KT 6SM 23/18 A2988 RMK T02300180 IEM_DS3505
ZBHH,2008-08-02 14:00,ZBHH 021400Z AUTO 06006KT 6SM 20/18 A2988 RMK T02000180 IEM_DS3505
ZBHH,2008-08-02 15:00,ZBHH 021500Z AUTO 07004KT 19SM 23/17 A2988 RMK SLP065 T02270172 52011 IEM_DS3505
ZBHH,2008-08-02 16:00,ZBHH 021600Z AUTO 04004KT 6SM 20/17 A2988 RMK T02000170 IEM_DS3505
ZBHH,2008-08-02 17:00,ZBHH 021700Z AUTO 02004KT 6SM 20/16 A2988 RMK T02000160 IEM_DS3505
ZBHH,2008-08-02 18:00,ZBHH 021800Z AUTO 00000KT 19SM 20/17 A2988 RMK SLP061 T02000166 57001 IEM_DS3505
ZBHH,2008-08-02 19:00,ZBHH 021900Z AUTO 07004KT 6SM 17/15 A2988 RMK T01700150 IEM_DS3505
ZBHH,2008-08-02 20:00,ZBHH 022000Z AUTO 07004KT 6SM 17/15 A2988 RMK T01700150 IEM_DS3505
ZBHH,2008-08-02 21:00,ZBHH 022100Z AUTO 09002KT 19SM 18/15 A2988 RMK SLP065 T01770153 52001 IEM_DS3505
ZBHH,2008-08-02 22:00,ZBHH 022200Z AUTO 05004KT 6SM 17/15 A2988 RMK T01700150 IEM_DS3505
ZBHH,2008-08-02 23:00,ZBHH 022300Z AUTO 07004KT 6SM 19/15 A2988 RMK T01900150 IEM_DS3505
ZBHH,2008-08-03 00:00,ZBHH 030000Z AUTO 00000KT 19SM 23/15 A2991 RMK SLP069 T02290150 52007 IEM_DS3505
ZBHH,2008-08-03 01:00,ZBHH 030100Z AUTO 19002KT 6SM 25/15 A2991 RMK T02500150 IEM_DS3505
ZBHH,2008-08-03 02:00,ZBHH 030200Z AUTO 20002KT 6SM 26/16 A2991 RMK T02600160 IEM_DS3505
ZBHH,2008-08-03 03:00,ZBHH 030300Z AUTO 22004KT 19SM 27/14 A2988 RMK SLP063 T02660144 57004 IEM_DS3505
ZBHH,2008-08-03 04:00,ZBHH 030400Z AUTO 20004KT 6SM 28/16 A2988 RMK T02800160 IEM_DS3505
ZBHH,2008-08-03 05:00,ZBHH 030500Z AUTO 19006KT 6SM 28/16 A2988 RMK T02800160 IEM_DS3505
ZBHH,2008-08-03 06:00,ZBHH 030600Z AUTO 20004KT 19SM 29/18 A2985 RMK SLP047 T02940179 57014 IEM_DS3505
ZBHH,2008-08-03 07:00,ZBHH 030700Z AUTO 21006KT 6SM 30/17 A2985 RMK T03000170 IEM_DS3505
ZBHH,2008-08-03 08:00,ZBHH 030800Z AUTO 21008KT 6SM 30/16 A2983 RMK T03000160 IEM_DS3505
ZBHH,2008-08-03 09:00,ZBHH 030900Z AUTO 25006KT 19SM 30/15 A2983 RMK SLP036 T03050154 57012 IEM_DS3505
ZBHH,2008-08-03 10:00,ZBHH 031000Z AUTO 21006KT 6SM 30/16 A2980 RMK T03000160 IEM_DS3505
ZBHH,2008-08-03 11:00,ZBHH 031100Z AUTO 17004KT 6SM 28/19 A2980 RMK T02800190 IEM_DS3505
ZBHH,2008-08-03 12:00,ZBHH 031200Z AUTO 14002KT 19SM 28/16 A2983 RMK SLP031 T02750162 57001 IEM_DS3505
ZBHH,2008-08-03 13:00,ZBHH 031300Z AUTO 04004KT 6SM 22/18 A2983 RMK T02200180 IEM_DS3505
ZBHH,2008-08-03 14:00,ZBHH 031400Z AUTO 04006KT 6SM 22/17 A2985 RMK T02200170 IEM_DS3505
ZBHH,2008-08-03 15:00,ZBHH 031500Z AUTO 00000KT 16SM 23/16 A2985 RMK SLP046 T02330161 52013 IEM_DS3505
ZBHH,2008-08-03 16:00,ZBHH 031600Z AUTO 05006KT 6SM 20/17 A2985 RMK T02000170 IEM_DS3505
ZBHH,2008-08-03 17:00,ZBHH 031700Z AUTO 09006KT 6SM 19/16 A2985 RMK T01900160 IEM_DS3505
ZBHH,2008-08-03 18:00,ZBHH 031800Z AUTO 11002KT 12SM 21/16 A2985 RMK SLP048 T02130163 52003 IEM_DS3505
ZBHH,2008-08-03 19:00,ZBHH 031900Z AUTO 07006KT 6SM 18/15 A2985 RMK T01800150 IEM_DS3505
ZBHH,2008-08-03 20:00,ZBHH 032000Z AUTO 08006KT 6SM 17/15 A2985 RMK T01700150 IEM_DS3505
ZBHH,2008-08-03 21:00,ZBHH 032100Z AUTO 07002KT 9SM 20/15 A2988 RMK SLP053 T01990151 52004 IEM_DS3505
ZBHH,2008-08-03 22:00,ZBHH 032200Z AUTO 07006KT 6SM 17/15 A2988 RMK T01700150 IEM_DS3505
ZBHH,2008-08-03 23:00,ZBHH 032300Z AUTO 08004KT 6SM 19/15 A2988 RMK T01900150 IEM_DS3505
ZBHH,2008-08-04 00:00,ZBHH 040000Z AUTO 09002KT 9SM 24/14 A2991 RMK SLP064 T02380142 52011 IEM_DS3505
ZBHH,2008-08-04 01:00,ZBHH 040100Z AUTO 35002KT 6SM 25/14 A2991 RMK T02500140 IEM_DS3505
ZBHH,2008-08-04 02:00,ZBHH 040200Z AUTO 21004KT 6SM 26/15 A2991 RMK T02600150 IEM_DS3505
ZBHH,2008-08-04 03:00,ZBHH 040300Z AUTO 16004KT 12SM 27/13 A2991 RMK SLP065 T02730129 54000 IEM_DS3505
ZBHH,2008-08-04 05:00,ZBHH 040500Z AUTO 18002KT 6SM 29/15 A2988 RMK T02900150 IEM_DS3505
ZBHH,2008-08-04 06:00,ZBHH 040600Z AUTO 11002KT 12SM 29/13 A2985 RMK SLP048 T02940132 57015 IEM_DS3505
ZBHH,2008-08-04 07:00,ZBHH 040700Z AUTO 20004KT 6SM 30/15 A2985 RMK T03000150 IEM_DS3505
ZBHH,2008-08-04 08:00,ZBHH 040800Z AUTO 16006KT 7SM 30/16 A2983 RMK T03000160 IEM_DS3505
ZBHH,2008-08-04 09:00,ZBHH 040900Z AUTO 22004KT 12SM 31/16 A2983 RMK SLP037 T03060159 57010 IEM_DS3505
ZBHH,2008-08-04 10:00,ZBHH 041000Z AUTO 18010KT 6SM 28/13 A2983 RMK T02800130 IEM_DS3505
ZBHH,2008-08-04 11:00,ZBHH 041100Z AUTO 34002KT 6SM 27/13 A2983 RMK T02700130 IEM_DS3505
ZBHH,2008-08-04 12:00,ZBHH 041200Z AUTO 00000KT 19SM 26/11 A2988 RMK SLP051 T02610111 52011 IEM_DS3505
ZBHH,2008-08-04 13:00,ZBHH 041300Z AUTO 36004KT 6SM 23/15 A2988 RMK T02300150 IEM_DS3505
ZBHH,2008-08-04 14:00,ZBHH 041400Z AUTO 35006KT 6SM 22/14 A2988 RMK T02200140 IEM_DS3505
ZBHH,2008-08-04 15:00,ZBHH 041500Z AUTO 36002KT 19SM 24/13 A2988 RMK SLP055 T02400129 52006 IEM_DS3505
ZBHH,2008-08-04 16:00,ZBHH 041600Z AUTO 09004KT 6SM 19/14 A2988 RMK T01900140 IEM_DS3505
ZBHH,2008-08-04 17:00,ZBHH 041700Z AUTO 11006KT 6SM 19/14 A2988 RMK T01900140 IEM_DS3505
ZBHH,2008-08-04 18:00,ZBHH 041800Z AUTO 09002KT 19SM 21/13 A2991 RMK SLP064 T02090126 52006 IEM_DS3505
ZBHH,2008-08-04 19:00,ZBHH 041900Z AUTO 07006KT 6SM 17/14 A2988 RMK T01700140 IEM_DS3505
ZBHH,2008-08-04 20:00,ZBHH 042000Z AUTO 07004KT 6SM 17/13 A2988 RMK T01700130 IEM_DS3505
ZBHH,2008-08-04 21:00,ZBHH 042100Z AUTO 09002KT 19SM 18/12 A2991 RMK SLP068 T01830125 52001 IEM_DS3505
ZBHH,2008-08-04 22:00,ZBHH 042200Z AUTO 04004KT 6SM 17/13 A2991 RMK T01700130 IEM_DS3505
ZBHH,2008-08-04 23:00,ZBHH 042300Z AUTO 06006KT 6SM 19/14 A2991 RMK T01900140 IEM_DS3505
ZBHH,2008-08-05 00:00,ZBHH 050000Z AUTO 04002KT 19SM 23/13 A2991 RMK SLP076 T02330129 52008 IEM_DS3505
ZBHH,2008-08-05 01:00,ZBHH 050100Z AUTO 06004KT 6SM 24/16 A2994 RMK T02400160 IEM_DS3505
ZBHH,2008-08-05 02:00,ZBHH 050200Z AUTO 09002KT 6SM 27/15 A2994 RMK T02700150 IEM_DS3505
ZBHH,2008-08-05 03:00,ZBHH 050300Z AUTO 11002KT 19SM 29/13 A2991 RMK SLP065 T02920126 57003 IEM_DS3505
ZBHH,2008-08-05 04:00,ZBHH 050400Z AUTO 19002KT 6SM 30/13 A2991 RMK T03000130 IEM_DS3505
ZBHH,2008-08-05 05:00,ZBHH 050500Z AUTO 23002KT 6SM 31/15 A2988 RMK T03100150 IEM_DS3505
ZBHH,2008-08-05 06:00,ZBHH 050600Z AUTO 11002KT 19SM 32/11 A2988 RMK SLP046 T03180111 57017 IEM_DS3505
ZBHH,2008-08-05 07:00,ZBHH 050700Z AUTO 36002KT 6SM 31/12 A2985 RMK T03100120 IEM_DS3505
ZBHH,2008-08-05 08:00,ZBHH 050800Z AUTO 33002KT 6SM 32/12 A2983 RMK T03200120 IEM_DS3505
ZBHH,2008-08-05 09:00,ZBHH 050900Z AUTO 11004KT 19SM 32/10 A2983 RMK SLP035 T03220103 57014 IEM_DS3505
ZBHH,2008-08-05 10:00,ZBHH 051000Z AUTO 01002KT 6SM 32/11 A2983 RMK T03200110 IEM_DS3505
ZBHH,2008-08-05 11:00,ZBHH 051100Z AUTO 06004KT 6SM 30/15 A2980 RMK T03000150 IEM_DS3505
ZBHH,2008-08-05 12:00,ZBHH 051200Z AUTO 04002KT 19SM 29/11 A2983 RMK SLP029 T02890106 57002 IEM_DS3505
ZBHH,2008-08-05 13:00,ZBHH 051300Z AUTO 04006KT 6SM 24/16 A2985 RMK T02400160 IEM_DS3505
ZBHH,2008-08-05 14:00,ZBHH 051400Z AUTO 07006KT 6SM 22/15 A2985 RMK T02200150 IEM_DS3505
ZBHH,2008-08-05 15:00,ZBHH 051500Z AUTO 04004KT 19SM 26/12 A2985 RMK SLP041 T02570122 52015 IEM_DS3505
ZBHH,2008-08-05 16:00,ZBHH 051600Z AUTO 01004KT 6SM 23/14 A2988 RMK T02300140 IEM_DS3505
ZBHH,2008-08-05 17:00,ZBHH 051700Z AUTO 04002KT 6SM 20/15 A2988 RMK T02000150 IEM_DS3505
ZBHH,2008-08-05 18:00,ZBHH 051800Z AUTO 09002KT 19SM 23/11 A2988 RMK SLP047 T02300108 52005 IEM_DS3505
ZBHH,2008-08-05 19:00,ZBHH 051900Z AUTO 06006KT 6SM 18/14 A2988 RMK T01800140 IEM_DS3505
ZBHH,2008-08-05 20:00,ZBHH 052000Z AUTO 06004KT 6SM 18/13 A2988 RMK T01800130 IEM_DS3505
ZBHH,2008-08-05 21:00,ZBHH 052100Z AUTO 04002KT 19SM 20/12 A2988 RMK SLP056 T02040124 52004 IEM_DS3505
ZBHH,2008-08-05 22:00,ZBHH 052200Z AUTO 05004KT 6SM 18/14 A2991 RMK T01800140 IEM_DS3505
ZBHH,2008-08-05 23:00,ZBHH 052300Z AUTO 06004KT 6SM 19/15 A2991 RMK T01900150 IEM_DS3505
ZBHH,2008-08-06 00:00,ZBHH 060000Z AUTO 09002KT 6SM 23/14 A2991 RMK SLP068 T02310141 52010 IEM_DS3505
ZBHH,2008-08-06 01:00,ZBHH 060100Z AUTO 07004KT 6SM 24/16 A2991 RMK T02400160 IEM_DS3505
ZBHH,2008-08-06 02:00,ZBHH 060200Z AUTO 14002KT 4SM 25/16 A2991 RMK T02500160 IEM_DS3505
ZBHH,2008-08-06 03:00,ZBHH 060300Z AUTO 18004KT 6SM 26/14 A2991 RMK SLP065 T02620137 57003 IEM_DS3505
ZBHH,2008-08-06 04:00,ZBHH 060400Z AUTO 19006KT 3SM 27/16 A2991 RMK T02700160 IEM_DS3505
ZBHH,2008-08-06 05:00,ZBHH 060500Z AUTO 24008KT 4SM 27/16 A2988 RMK T02700160 IEM_DS3505
ZBHH,2008-08-06 06:00,ZBHH 060600Z AUTO 18004KT 6SM 28/16 A2988 RMK SLP051 T02780155 57014 IEM_DS3505
ZBHH,2008-08-06 07:00,ZBHH 060700Z AUTO 21006KT 4SM 28/17 A2985 RMK T02800170 IEM_DS3505
ZBHH,2008-08-06 08:00,ZBHH 060800Z AUTO 17006KT 5SM 29/17 A2985 RMK T02900170 IEM_DS3505
ZBHH,2008-08-06 09:00,ZBHH 060900Z AUTO 18006KT 6SM 27/16 A2985 RMK SLP049 T02720156 57008 IEM_DS3505
ZBHH,2008-08-06 10:00,ZBHH 061000Z AUTO 11004KT 7SM 26/16 A2983 RMK T02600160 IEM_DS3505
ZBHH,2008-08-06 11:00,ZBHH 061100Z AUTO 06004KT 6SM 25/16 A2983 RMK T02500160 IEM_DS3505
ZBHH,2008-08-06 12:00,ZBHH 061200Z AUTO 07004KT 6SM 25/15 A2983 RMK SLP045 T02540151 57002 IEM_DS3505
ZBHH,2008-08-06 13:00,ZBHH 061300Z AUTO 06004KT 5SM 22/16 A2985 RMK T02200160 IEM_DS3505
ZBHH,2008-08-06 14:00,ZBHH 061400Z AUTO 04004KT 4SM 21/16 A2985 RMK T02100160 IEM_DS3505
ZBHH,2008-08-06 15:00,ZBHH 061500Z AUTO 02002KT 6SM 24/15 A2985 RMK SLP051 T02360154 52008 IEM_DS3505
ZBHH,2008-08-06 16:00,ZBHH 061600Z AUTO 08004KT 4SM 20/16 A2985 RMK T02000160 IEM_DS3505
ZBHH,2008-08-06 17:00,ZBHH 061700Z AUTO 05004KT 4SM 20/16 A2985 RMK T02000160 IEM_DS3505
ZBHH,2008-08-06 18:00,ZBHH 061800Z AUTO 07002KT 6SM 21/18 A2985 RMK 60012 SLP054 T02140182 52001 IEM_DS3505
ZBHH,2008-08-06 19:00,ZBHH 061900Z AUTO 04002KT 4SM 20/16 A2985 RMK T02000160 IEM_DS3505
ZBHH,2008-08-06 20:00,ZBHH 062000Z AUTO 04004KT 4SM 20/16 A2985 RMK T02000160 IEM_DS3505
ZBHH,2008-08-06 21:00,ZBHH 062100Z AUTO 07002KT 12SM 20/18 A2988 RMK 70011 SLP058 T02030179 52001 IEM_DS3505
ZBHH,2008-08-06 22:00,ZBHH 062200Z AUTO 07004KT 2 1/2SM 19/16 A2988 RMK T01900160 IEM_DS3505
ZBHH,2008-08-06 23:00,ZBHH 062300Z AUTO 22006KT 2SM 20/17 A2991 RMK T02000170 IEM_DS3505
ZBHH,2008-08-07 00:00,ZBHH 070000Z AUTO 04002KT 6SM 20/18 A2991 RMK 60028 70040 SLP077 T01980179 52013 IEM_DS3505
ZBHH,2008-08-07 01:00,ZBHH 070100Z AUTO 08006KT 1SM 19/18 A2991 RMK T01900180 IEM_DS3505
ZBHH,2008-08-07 02:00,ZBHH 070200Z AUTO 09008KT 1SM 20/18 A2991 RMK T02000180 IEM_DS3505
ZBHH,2008-08-07 03:00,ZBHH 070300Z AUTO 07008KT 6SM 19/18 A2991 RMK SLP082 T01930180 54000 IEM_DS3505
ZBHH,2008-08-07 04:00,ZBHH 070400Z AUTO 06008KT 3SM 19/18 A2991 RMK T01900180 IEM_DS3505
ZBHH,2008-08-07 05:00,ZBHH 070500Z AUTO 05010KT 5SM 21/18 A2988 RMK T02100180 IEM_DS3505
ZBHH,2008-08-07 06:00,ZBHH 070600Z AUTO 07004KT 9SM 22/18 A2985 RMK 60114 SLP062 T02220182 57017 IEM_DS3505
ZBHH,2008-08-07 07:00,ZBHH 070700Z AUTO 36006KT 4SM 23/19 A2985 RMK T02300190 IEM_DS3505
ZBHH,2008-08-07 08:00,ZBHH 070800Z AUTO 03004KT 4SM 20/19 A2985 RMK T02000190 IEM_DS3505
ZBHH,2008-08-07 09:00,ZBHH 070900Z AUTO 11004KT 7SM 22/19 A2985 RMK SLP058 T02250189 57005 IEM_DS3505
ZBHH,2008-08-07 10:00,ZBHH 071000Z AUTO 12004KT 7SM 22/19 A2983 RMK T02200190 IEM_DS3505
ZBHH,2008-08-07 11:00,ZBHH 071100Z AUTO 11002KT 4SM 22/20 A2983 RMK T02200200 IEM_DS3505
ZBHH,2008-08-07 12:00,ZBHH 071200Z AUTO 09002KT 9SM 22/19 A2985 RMK 60055 SLP062 T02210191 52002 IEM_DS3505
ZBHH,2008-08-07 13:00,ZBHH 071300Z AUTO 04002KT 4SM 22/20 A2985 RMK T02200200 IEM_DS3505
ZBHH,2008-08-07 14:00,ZBHH 071400Z AUTO 12002KT 5SM 22/20 A2985 RMK T02200200 IEM_DS3505
ZBHH,2008-08-07 15:00,ZBHH 071500Z AUTO 00000KT 12SM 22/20 A2985 RMK SLP068 T02160199 52004 IEM_DS3505
ZBHH,2008-08-07 16:00,ZBHH 071600Z AUTO 11002KT 4SM 21/19 A2985 RMK T02100190 IEM_DS3505
ZBHH,2008-08-07 17:00,ZBHH 071700Z AUTO 35002KT 4SM 21/19 A2985 RMK T02100190 IEM_DS3505
ZBHH,2008-08-07 18:00,ZBHH 071800Z AUTO 20002KT 7SM 21/19 A2985 RMK 60001 SLP066 T02130194 52003 IEM_DS3505
ZBHH,2008-08-07 19:00,ZBHH 071900Z AUTO 21006KT 4SM 20/19 A2988 RMK T02000190 IEM_DS3505
ZBHH,2008-08-07 20:00,ZBHH 072000Z AUTO 05002KT 4SM 20/19 A2988 RMK T02000190 IEM_DS3505
ZBHH,2008-08-07 21:00,ZBHH 072100Z AUTO 14002KT 9SM 20/18 A2988 RMK 70202 SLP075 T02010181 52006 IEM_DS3505
ZBHH,2008-08-07 22:00,ZBHH 072200Z AUTO 11002KT 4SM 20/19 A2988 RMK T02000190 IEM_DS3505
ZBHH,2008-08-07 23:00,ZBHH 072300Z AUTO 08002KT 5SM 20/19 A2988 RMK T02000190 IEM_DS3505
ZBHH,2008-08-08 00:00,ZBHH 080000Z AUTO 07002KT 7SM 21/18 A2991 RMK 60002 70174 SLP082 T02100184 52007 IEM_DS3505
ZBHH,2008-08-08 01:00,ZBHH 080100Z AUTO 23002KT 7SM 22/18 A2991 RMK T02200180 IEM_DS3505
ZBHH,2008-08-08 02:00,ZBHH 080200Z AUTO 15002KT 7SM 22/18 A2991 RMK T02200180 IEM_DS3505
ZBHH,2008-08-08 03:00,ZBHH 080300Z AUTO 25002KT 4SM 23/18 A2991 RMK SLP080 T02270185 52001 IEM_DS3505
ZBHH,2008-08-08 04:00,ZBHH 080400Z AUTO 30002KT 5SM 24/19 A2991 RMK T02400190 IEM_DS3505
ZBHH,2008-08-08 05:00,ZBHH 080500Z AUTO 07002KT 4SM 24/19 A2988 RMK T02400190 IEM_DS3505
ZBHH,2008-08-08 06:00,ZBHH 080600Z AUTO 22002KT 4SM 25/19 A2985 RMK SLP058 T02510188 57016 IEM_DS3505
ZBHH,2008-08-08 07:00,ZBHH 080700Z AUTO 19002KT 4SM 26/20 A2985 RMK T02600200 IEM_DS3505
ZBHH,2008-08-08 08:00,ZBHH 080800Z AUTO 19004KT 3SM 26/19 A2983 RMK T02600190 IEM_DS3505
ZBHH,2008-08-08 09:00,ZBHH 080900Z AUTO 25004KT 5SM 26/19 A2983 RMK SLP046 T02600189 57011 IEM_DS3505
ZBHH,2008-08-08 10:00,ZBHH 081000Z AUTO 25002KT 3SM 25/19 A2983 RMK T02500190 IEM_DS3505
ZBHH,2008-08-08 11:00,ZBHH 081100Z AUTO 17002KT 3SM 25/20 A2983 RMK T02500200 IEM_DS3505
ZBHH,2008-08-08 12:00,ZBHH 081200Z AUTO 36002KT 6SM 25/20 A2983 RMK SLP050 T02470198 52003 IEM_DS3505
ZBHH,2008-08-08 13:00,ZBHH 081300Z AUTO 04004KT 3SM 23/20 A2985 RMK T02300200 IEM_DS3505
ZBHH,2008-08-08 14:00,ZBHH 081400Z AUTO 06004KT 3SM 22/20 A2985 RMK T02200200 IEM_DS3505
ZBHH,2008-08-08 15:00,ZBHH 081500Z AUTO 32002KT 9SM 22/20 A2985 RMK SLP055 T02210195 52002 IEM_DS3505
ZBHH,2008-08-08 16:00,ZBHH 081600Z AUTO 03004KT 3SM 21/19 A2985 RMK T02100190 IEM_DS3505
ZBHH,2008-08-08 17:00,ZBHH 081700Z AUTO 05004KT 3SM 20/18 A2983 RMK T02000180 IEM_DS3505
ZBHH,2008-08-08 18:00,ZBHH 081800Z AUTO 36002KT 7SM 22/19 A2980 RMK SLP032 T02190189 57016 IEM_DS3505
ZBHH,2008-08-08 19:00,ZBHH 081900Z AUTO 06004KT 4SM 21/19 A2977 RMK T02100190 IEM_DS3505
ZBHH,2008-08-08 20:00,ZBHH 082000Z AUTO 11004KT 4SM 20/19 A2977 RMK T02000190 IEM_DS3505
ZBHH,2008-08-08 21:00,ZBHH 082100Z AUTO 07002KT 6SM 21/18 A2977 RMK SLP026 T02120182 57005 IEM_DS3505
ZBHH,2008-08-08 22:00,ZBHH 082200Z AUTO 19010KT 3SM 21/19 A2980 RMK T02100190 IEM_DS3505
ZBHH,2008-08-08 23:00,ZBHH 082300Z AUTO 19006KT 2SM 20/19 A2983 RMK T02000190 IEM_DS3505
ZBHH,2008-08-09 00:00,ZBHH 090000Z AUTO 25002KT 6SM 20/18 A2983 RMK 60016 70015 SLP048 T01990182 52015 IEM_DS3505
ZBHH,2008-08-09 01:00,ZBHH 090100Z AUTO 10004KT 7SM 20/19 A2980 RMK T02000190 IEM_DS3505
ZBHH,2008-08-09 02:00,ZBHH 090200Z AUTO 13004KT 7SM 21/19 A2980 RMK T02100190 IEM_DS3505
ZBHH,2008-08-09 03:00,ZBHH 090300Z AUTO 16004KT 9SM 22/18 A2980 RMK SLP042 T02150181 57007 IEM_DS3505
ZBHH,2008-08-09 04:00,ZBHH 090400Z AUTO 22010KT 7SM 22/19 A2980 RMK T02200190 IEM_DS3505
ZBHH,2008-08-09 05:00,ZBHH 090500Z AUTO 24012KT 2 1/2SM 19/17 A2980 RMK T01900170 IEM_DS3505
ZBHH,2008-08-09 06:00,ZBHH 090600Z AUTO 22004KT 9SM 18/16 A2980 RMK 60003 SLP051 T01820165 52001 IEM_DS3505
ZBHH,2008-08-09 07:00,ZBHH 090700Z AUTO 23008KT 2 1/2SM 18/16 A2983 RMK T01800160 IEM_DS3505
ZBHH,2008-08-09 08:00,ZBHH 090800Z AUTO 19004KT 4SM 19/16 A2983 RMK T01900160 IEM_DS3505
ZBHH,2008-08-09 09:00,ZBHH 090900Z AUTO 22004KT 6SM 18/16 A2983 RMK SLP060 T01790162 52006 IEM_DS3505
ZBHH,2008-08-09 10:00,ZBHH 091000Z AUTO 23006KT 1 1/4SM 18/17 A2983 RMK T01800170 IEM_DS3505
ZBHH,2008-08-09 11:00,ZBHH 091100Z AUTO 23006KT 2SM 17/16 A2983 RMK T01700160 IEM_DS3505
ZBHH,2008-08-09 12:00,ZBHH 091200Z AUTO 22002KT 6SM 17/16 A2985 RMK 60059 SLP071 T01700159 52006 IEM_DS3505
ZBHH,2008-08-09 13:00,ZBHH 091300Z AUTO 20004KT 4SM 16/16 A2985 RMK T01600160 IEM_DS3505
ZBHH,2008-08-09 14:00,ZBHH 091400Z AUTO 18004KT 4SM 16/16 A2985 RMK T01600160 IEM_DS3505
ZBHH,2008-08-09 15:00,ZBHH 091500Z AUTO 22002KT 7SM 17/16 A2985 RMK SLP069 T01730160 52002 IEM_DS3505
ZBHH,2008-08-09 16:00,ZBHH 091600Z AUTO 21004KT 4SM 17/16 A2985 RMK T01700160 IEM_DS3505
ZBHH,2008-08-09 17:00,ZBHH 091700Z AUTO 20004KT 2SM 17/16 A2985 RMK T01700160 IEM_DS3505
ZBHH,2008-08-09 18:00,ZBHH 091800Z AUTO 00000KT 6SM 17/15 A2983 RMK 60004 SLP073 T01660151 57004 IEM_DS3505
ZBHH,2008-08-09 19:00,ZBHH 091900Z AUTO 34008KT 7SM 16/14 A2983 RMK T01600140 IEM_DS3505
ZBHH,2008-08-09 20:00,ZBHH 092000Z AUTO 34010KT 7SM 16/13 A2983 RMK T01600130 IEM_DS3505
ZBHH,2008-08-09 21:00,ZBHH 092100Z AUTO 29004KT 19SM 17/11 A2983 RMK 70082 SLP074 T01670114 54000 IEM_DS3505
ZBHH,2008-08-09 22:00,ZBHH 092200Z AUTO 34012KT 7SM 16/12 A2985 RMK T01600120 IEM_DS3505
ZBHH,2008-08-09 23:00,ZBHH 092300Z AUTO 34010KT 7SM 16/12 A2985 RMK T01600120 IEM_DS3505
ZBHH,2008-08-10 00:00,ZBHH 100000Z AUTO 29006KT 19SM 17/11 A2985 RMK 60000 70067 SLP087 T01700113 52011 IEM_DS3505
ZBHH,2008-08-10 01:00,ZBHH 100100Z AUTO 34010KT 7SM 17/12 A2985 RMK T01700120 IEM_DS3505
ZBHH,2008-08-10 02:00,ZBHH 100200Z AUTO 34010KT 7SM 17/12 A2988 RMK T01700120 IEM_DS3505
ZBHH,2008-08-10 03:00,ZBHH 100300Z AUTO 07002KT 16SM 18/12 A2988 RMK SLP088 T01810117 52003 IEM_DS3505
ZBHH,2008-08-10 04:00,ZBHH 100400Z AUTO 25004KT 7SM 18/13 A2988 RMK T01800130 IEM_DS3505
ZBHH,2008-08-10 05:00,ZBHH 100500Z AUTO 23006KT 7SM 17/14 A2988 RMK T01700140 IEM_DS3505
ZBHH,2008-08-10 06:00,ZBHH 100600Z AUTO 32002KT 12SM 17/12 A2988 RMK 60000 SLP091 T01740125 54000 IEM_DS3505
ZBHH,2008-08-10 07:00,ZBHH 100700Z AUTO 18004KT 7SM 18/13 A2988 RMK T01800130 IEM_DS3505
ZBHH,2008-08-10 08:00,ZBHH 100800Z AUTO 22004KT 7SM 18/13 A2985 RMK T01800130 IEM_DS3505
ZBHH,2008-08-10 09:00,ZBHH 100900Z AUTO 29002KT 16SM 18/13 A2985 RMK SLP085 T01770134 57004 IEM_DS3505
ZBHH,2008-08-10 10:00,ZBHH 101000Z AUTO 24002KT 7SM 17/14 A2985 RMK T01700140 IEM_DS3505
ZBHH,2008-08-10 11:00,ZBHH 101100Z AUTO 36002KT 7SM 17/14 A2988 RMK T01700140 IEM_DS3505
ZBHH,2008-08-10 12:00,ZBHH 101200Z AUTO 29004KT 19SM 18/12 A2988 RMK 60000 SLP093 T01750124 52007 IEM_DS3505
ZBHH,2008-08-10 13:00,ZBHH 101300Z AUTO 16002KT 7SM 16/15 A2991 RMK T01600150 IEM_DS3505
ZBHH,2008-08-10 14:00,ZBHH 101400Z AUTO 03002KT 7SM 16/14 A2991 RMK T01600140 IEM_DS3505
ZBHH,2008-08-10 15:00,ZBHH 101500Z AUTO 27002KT 19SM 17/11 A2991 RMK SLP097 T01660113 52004 IEM_DS3505
ZBHH,2008-08-10 16:00,ZBHH 101600Z AUTO 12002KT 7SM 15/14 A2991 RMK T01500140 IEM_DS3505
ZBHH,2008-08-10 17:00,ZBHH 101700Z AUTO 15002KT 7SM 15/14 A2991 RMK T01500140 IEM_DS3505
ZBHH,2008-08-10 18:00,ZBHH 101800Z AUTO 32002KT 19SM 16/12 A2991 RMK SLP100 T01640120 52001 IEM_DS3505
ZBHH,2008-08-10 19:00,ZBHH 101900Z AUTO 14004KT 7SM 15/14 A2991 RMK T01500140 IEM_DS3505
ZBHH,2008-08-10 20:00,ZBHH 102000Z AUTO 09004KT 7SM 15/13 A2988 RMK T01500130 IEM_DS3505
ZBHH,2008-08-10 21:00,ZBHH 102100Z AUTO 00000KT 19SM 16/12 A2988 RMK 70001 SLP097 T01610119 57003 IEM_DS3505
ZBHH,2008-08-10 22:00,ZBHH 102200Z AUTO 12002KT 7SM 15/13 A2988 RMK T01500130 IEM_DS3505
ZBHH,2008-08-10 23:00,ZBHH 102300Z AUTO 09002KT 7SM 15/13 A2991 RMK T01500130 IEM_DS3505
ZBHH,2008-08-11 00:00,ZBHH 110000Z AUTO 09002KT 12SM 18/13 A2991 RMK 70001 SLP098 T01850129 52005 IEM_DS3505
ZBHH,2008-08-11 01:00,ZBHH 110100Z AUTO 26002KT 7SM 18/13 A2991 RMK T01800130 IEM_DS3505
ZBHH,2008-08-11 02:00,ZBHH 110200Z AUTO 27002KT 7SM 19/13 A2991 RMK T01900130 IEM_DS3505
ZBHH,2008-08-11 03:00,ZBHH 110300Z AUTO 22004KT 19SM 20/12 A2991 RMK SLP101 T01970125 52003 IEM_DS3505
ZBHH,2008-08-11 04:00,ZBHH 110400Z AUTO 31010KT 7SM 19/13 A2991 RMK T01900130 IEM_DS3505
ZBHH,2008-08-11 05:00,ZBHH 110500Z AUTO 34012KT 7SM 19/13 A2991 RMK T01900130 IEM_DS3505
ZBHH,2008-08-11 06:00,ZBHH 110600Z AUTO 09002KT 19SM 20/12 A2994 RMK SLP103 T01970117 52002 IEM_DS3505
ZBHH,2008-08-11 07:00,ZBHH 110700Z AUTO 35008KT 7SM 19/11 A2991 RMK T01900110 IEM_DS3505
ZBHH,2008-08-11 08:00,ZBHH 110800Z AUTO 35010KT 7SM 19/12 A2991 RMK T01900120 IEM_DS3505
ZBHH,2008-08-11 09:00,ZBHH 110900Z AUTO 32004KT 19SM 19/10 A2991 RMK SLP101 T01940104 57003 IEM_DS3505
ZBHH,2008-08-11 10:00,ZBHH 111000Z AUTO 34010KT 7SM 18/11 A2991 RMK T01800110 IEM_DS3505
ZBHH,2008-08-11 11:00,ZBHH 111100Z AUTO 35010KT 7SM 18/11 A2991 RMK T01800110 IEM_DS3505
ZBHH,2008-08-11 12:00,ZBHH 111200Z AUTO 29004KT 19SM 17/10 A2994 RMK SLP111 T01730095 52009 IEM_DS3505
ZBHH,2008-08-11 13:00,ZBHH 111300Z AUTO 02006KT 6SM 16/10 A2994 RMK T01600100 IEM_DS3505
ZBHH,2008-08-11 14:00,ZBHH 111400Z AUTO 03006KT 6SM 15/11 A2997 RMK T01500110 IEM_DS3505
ZBHH,2008-08-11 15:00,ZBHH 111500Z AUTO 27002KT 19SM 15/10 A2997 RMK SLP119 T01540100 52006 IEM_DS3505
ZBHH,2008-08-11 16:00,ZBHH 111600Z AUTO 01002KT 6SM 14/10 A2997 RMK T01400100 IEM_DS3505
ZBHH,2008-08-11 17:00,ZBHH 111700Z AUTO 01006KT 6SM 14/10 A2997 RMK T01400100 IEM_DS3505
ZBHH,2008-08-11 18:00,ZBHH 111800Z AUTO 29002KT 19SM 14/10 A2994 RMK SLP115 T01410095 57006 IEM_DS3505
ZBHH,2008-08-11 19:00,ZBHH 111900Z AUTO 07004KT 6SM 13/11 A2997 RMK T01300110 IEM_DS3505
ZBHH,2008-08-11 20:00,ZBHH 112000Z AUTO 06004KT 6SM 12/10 A2997 RMK T01200100 IEM_DS3505
ZBHH,2008-08-11 21:00,ZBHH 112100Z AUTO 09002KT 19SM 13/10 A2997 RMK SLP124 T01300098 52005 IEM_DS3505
ZBHH,2008-08-11 22:00,ZBHH 112200Z AUTO 05004KT 6SM 12/10 A2997 RMK T01200100 IEM_DS3505
ZBHH,2008-08-11 23:00,ZBHH 112300Z AUTO 10006KT 6SM 14/11 A2997 RMK T01400110 IEM_DS3505
ZBHH,2008-08-12 00:00,ZBHH 120000Z AUTO 09002KT 19SM 16/11 A2997 RMK SLP127 T01620107 52005 IEM_DS3505
ZBHH,2008-08-12 01:00,ZBHH 120100Z AUTO 05002KT 6SM 18/12 A2997 RMK T01800120 IEM_DS3505
ZBHH,2008-08-12 02:00,ZBHH 120200Z AUTO 01002KT 6SM 19/12 A2997 RMK T01900120 IEM_DS3505
ZBHH,2008-08-12 03:00,ZBHH 120300Z AUTO 18002KT 19SM 22/12 A2997 RMK SLP114 T02190122 57004 IEM_DS3505
ZBHH,2008-08-12 04:00,ZBHH 120400Z AUTO 23002KT 6SM 24/14 A2994 RMK T02400140 IEM_DS3505
ZBHH,2008-08-12 05:00,ZBHH 120500Z AUTO 29002KT 7SM 24/13 A2994 RMK T02400130 IEM_DS3505
ZBHH,2008-08-12 06:00,ZBHH 120600Z AUTO 22004KT 16SM 25/11 A2994 RMK SLP100 T02470113 57010 IEM_DS3505
ZBHH,2008-08-12 07:00,ZBHH 120700Z AUTO 23002KT 7SM 26/15 A2991 RMK T02600150 IEM_DS3505
ZBHH,2008-08-12 08:00,ZBHH 120800Z AUTO 12004KT 7SM 24/16 A2991 RMK T02400160 IEM_DS3505
ZBHH,2008-08-12 09:00,ZBHH 120900Z AUTO 25004KT 16SM 25/13 A2991 RMK SLP091 T02500126 57009 IEM_DS3505
ZBHH,2008-08-12 10:00,ZBHH 121000Z AUTO 09004KT 6SM 24/16 A2991 RMK T02400160 IEM_DS3505
ZBHH,2008-08-12 11:00,ZBHH 121100Z AUTO 09002KT 6SM 23/15 A2991 RMK T02300150 IEM_DS3505
ZBHH,2008-08-12 12:00,ZBHH 121200Z AUTO 32002KT 12SM 23/14 A2991 RMK SLP097 T02280136 52007 IEM_DS3505
ZBHH,2008-08-12 13:00,ZBHH 121300Z AUTO 07006KT 6SM 20/17 A2994 RMK T02000170 IEM_DS3505
ZBHH,2008-08-12 14:00,ZBHH 121400Z AUTO 11004KT 6SM 19/16 A2994 RMK T01900160 IEM_DS3505
ZBHH,2008-08-12 15:00,ZBHH 121500Z AUTO 09002KT 19SM 21/15 A2994 RMK SLP092 T02120148 52003 IEM_DS3505
ZBHH,2008-08-12 16:00,ZBHH 121600Z AUTO 11002KT 6SM 18/16 A2994 RMK T01800160 IEM_DS3505
ZBHH,2008-08-12 17:00,ZBHH 121700Z AUTO 09002KT 6SM 18/15 A2994 RMK T01800150 IEM_DS3505
ZBHH,2008-08-12 18:00,ZBHH 121800Z AUTO 09002KT 19SM 19/15 A2994 RMK SLP087 T01930154 57003 IEM_DS3505
ZBHH,2008-08-12 19:00,ZBHH 121900Z AUTO 09004KT 6SM 17/15 A2994 RMK T01700150 IEM_DS3505
ZBHH,2008-08-12 20:00,ZBHH 122000Z AUTO 03004KT 6SM 17/15 A2991 RMK T01700150 IEM_DS3505
ZBHH,2008-08-12 21:00,ZBHH 122100Z AUTO 34002KT 19SM 18/15 A2991 RMK SLP083 T01790146 57005 IEM_DS3505
ZBHH,2008-08-12 22:00,ZBHH 122200Z AUTO 16002KT 6SM 16/14 A2991 RMK T01600140 IEM_DS3505
ZBHH,2008-08-12 23:00,ZBHH 122300Z AUTO 03002KT 6SM 17/15 A2991 RMK T01700150 IEM_DS3505
ZBHH,2008-08-13 00:00,ZBHH 130000Z AUTO 09002KT 7SM 20/15 A2991 RMK SLP086 T02050151 52003 IEM_DS3505
ZBHH,2008-08-13 01:00,ZBHH 130100Z AUTO 07006KT 6SM 23/16 A2991 RMK T02300160 IEM_DS3505
ZBHH,2008-08-13 02:00,ZBHH 130200Z AUTO 09006KT 7SM 23/15 A2994 RMK T02300150 IEM_DS3505
ZBHH,2008-08-13 03:00,ZBHH 130300Z AUTO 18004KT 6SM 23/16 A2994 RMK SLP091 T02260162 52005 IEM_DS3505
ZBHH,2008-08-13 04:00,ZBHH 130400Z AUTO 24012KT 6SM 21/17 A2991 RMK T02100170 IEM_DS3505
ZBHH,2008-08-13 05:00,ZBHH 130500Z AUTO 24010KT 5SM 21/17 A2991 RMK T02100170 IEM_DS3505
ZBHH,2008-08-13 06:00,ZBHH 130600Z AUTO 20004KT 6SM 20/15 A2994 RMK 60000 SLP096 T02020148 57003 IEM_DS3505
ZBHH,2008-08-13 07:00,ZBHH 130700Z AUTO 35004KT 3SM 18/17 A2991 RMK T01800170 IEM_DS3505
ZBHH,2008-08-13 08:00,ZBHH 130800Z AUTO 10004KT 4SM 19/17 A2991 RMK T01900170 IEM_DS3505
ZBHH,2008-08-13 09:00,ZBHH 130900Z AUTO 00000KT 6SM 19/16 A2991 RMK SLP093 T01930163 57007 IEM_DS3505
ZBHH,2008-08-13 10:00,ZBHH 131000Z AUTO 11004KT 4SM 18/17 A2994 RMK T01800170 IEM_DS3505
ZBHH,2008-08-13 11:00,ZBHH 131100Z AUTO 02004KT 4SM 19/17 A2991 RMK T01900170 IEM_DS3505
ZBHH,2008-08-13 12:00,ZBHH 131200Z AUTO 29002KT 6SM 19/17 A2988 RMK 60016 SLP087 T01870170 57002 IEM_DS3505
ZBHH,2008-08-13 13:00,ZBHH 131300Z AUTO 08004KT 5SM 18/16 A2991 RMK T01800160 IEM_DS3505
ZBHH,2008-08-13 14:00,ZBHH 131400Z AUTO 02004KT 7SM 17/16 A2988 RMK T01700160 IEM_DS3505
ZBHH,2008-08-13 15:00,ZBHH 131500Z AUTO 29002KT 6SM 18/15 A2988 RMK SLP084 T01770148 54000 IEM_DS3505
ZBHH,2008-08-13 16:00,ZBHH 131600Z AUTO 06004KT 7SM 17/14 A2991 RMK T01700140 IEM_DS3505
ZBHH,2008-08-13 17:00,ZBHH 131700Z AUTO 02004KT 7SM 17/15 A2988 RMK T01700150 IEM_DS3505
ZBHH,2008-08-13 18:00,ZBHH 131800Z AUTO 07002KT 9SM 17/15 A2988 RMK 60000 SLP084 T01660146 57007 IEM_DS3505
ZBHH,2008-08-13 19:00,ZBHH 131900Z AUTO 36004KT 7SM 16/14 A2985 RMK T01600140 IEM_DS3505
ZBHH,2008-08-13 20:00,ZBHH 132000Z AUTO 09004KT 7SM 15/13 A2985 RMK T01500130 IEM_DS3505
ZBHH,2008-08-13 21:00,ZBHH 132100Z AUTO 32002KT 12SM 16/15 A2985 RMK 70017 SLP082 T01630147 57004 IEM_DS3505
ZBHH,2008-08-13 22:00,ZBHH 132200Z AUTO 15002KT 7SM 16/14 A2988 RMK T01600140 IEM_DS3505
ZBHH,2008-08-13 23:00,ZBHH 132300Z AUTO 02002KT 7SM 17/14 A2988 RMK T01700140 IEM_DS3505
ZBHH,2008-08-14 00:00,ZBHH 140000Z AUTO 16002KT 12SM 18/14 A2988 RMK 70017 SLP088 T01820141 52008 IEM_DS3505
ZBHH,2008-08-14 01:00,ZBHH 140100Z AUTO 02002KT 7SM 20/15 A2988 RMK T02000150 IEM_DS3505
ZBHH,2008-08-14 02:00,ZBHH 140200Z AUTO 15002KT 7SM 21/16 A2988 RMK T02100160 IEM_DS3505
ZBHH,2008-08-14 03:00,ZBHH 140300Z AUTO 07002KT 12SM 23/14 A2988 RMK SLP082 T02300140 52002 IEM_DS3505
ZBHH,2008-08-14 04:00,ZBHH 140400Z AUTO 06006KT 7SM 23/15 A2988 RMK T02300150 IEM_DS3505
ZBHH,2008-08-14 05:00,ZBHH 140500Z AUTO 07004KT 7SM 24/14 A2985 RMK T02400140 IEM_DS3505
ZBHH,2008-08-14 06:00,ZBHH 140600Z AUTO 11004KT 16SM 25/12 A2985 RMK SLP066 T02510120 57013 IEM_DS3505
ZBHH,2008-08-14 07:00,ZBHH 140700Z AUTO 09010KT 7SM 26/12 A2985 RMK T02600120 IEM_DS3505
ZBHH,2008-08-14 08:00,ZBHH 140800Z AUTO 16010KT 7SM 24/14 A2985 RMK T02400140 IEM_DS3505
ZBHH,2008-08-14 09:00,ZBHH 140900Z AUTO 20004KT 19SM 25/12 A2983 RMK SLP059 T02460122 57007 IEM_DS3505
ZBHH,2008-08-14 10:00,ZBHH 141000Z AUTO 20004KT 6SM 23/13 A2983 RMK T02300130 IEM_DS3505
ZBHH,2008-08-14 11:00,ZBHH 141100Z AUTO 00000KT 7SM 22/14 A2985 RMK T02200140 IEM_DS3505
ZBHH,2008-08-14 12:00,ZBHH 141200Z AUTO 02002KT 19SM 22/14 A2985 RMK 60002 SLP070 T02240145 52009 IEM_DS3505
ZBHH,2008-08-14 13:00,ZBHH 141300Z AUTO 16004KT 7SM 17/15 A2988 RMK T01700150 IEM_DS3505
ZBHH,2008-08-14 14:00,ZBHH 141400Z AUTO 01006KT 7SM 18/16 A2988 RMK T01800160 IEM_DS3505
ZBHH,2008-08-14 15:00,ZBHH 141500Z AUTO 02002KT 19SM 18/16 A2988 RMK SLP081 T01780158 52010 IEM_DS3505
ZBHH,2008-08-14 16:00,ZBHH 141600Z AUTO 04006KT 7SM 17/14 A2988 RMK T01700140 IEM_DS3505
ZBHH,2008-08-14 17:00,ZBHH 141700Z AUTO 05006KT 6SM 16/14 A2988 RMK T01600140 IEM_DS3505
ZBHH,2008-08-14 18:00,ZBHH 141800Z AUTO 02002KT 19SM 17/16 A2988 RMK 60016 SLP075 T01670157 57003 IEM_DS3505
ZBHH,2008-08-14 19:00,ZBHH 141900Z AUTO 15004KT 6SM 15/14 A2988 RMK T01500140 IEM_DS3505
ZBHH,2008-08-14 20:00,ZBHH 142000Z AUTO 06004KT 6SM 16/14 A2988 RMK T01600140 IEM_DS3505
ZBHH,2008-08-14 21:00,ZBHH 142100Z AUTO 09002KT 19SM 16/14 A2988 RMK 70020 SLP076 T01600138 57002 IEM_DS3505
ZBHH,2008-08-14 22:00,ZBHH 142200Z AUTO 05006KT 6SM 15/13 A2988 RMK T01500130 IEM_DS3505
ZBHH,2008-08-14 23:00,ZBHH 142300Z AUTO 02004KT 6SM 16/13 A2988 RMK T01600130 IEM_DS3505
ZBHH,2008-08-15 00:00,ZBHH 150000Z AUTO 20002KT 19SM 19/14 A2988 RMK 70020 SLP083 T01860137 52007 IEM_DS3505
ZBHH,2008-08-15 01:00,ZBHH 150100Z AUTO 06004KT 6SM 20/14 A2988 RMK T02000140 IEM_DS3505
ZBHH,2008-08-15 02:00,ZBHH 150200Z AUTO 07004KT 7SM 22/14 A2988 RMK T02200140 IEM_DS3505
ZBHH,2008-08-15 03:00,ZBHH 150300Z AUTO 09002KT 19SM 23/13 A2988 RMK SLP078 T02310130 57004 IEM_DS3505
ZBHH,2008-08-15 04:00,ZBHH 150400Z AUTO 28004KT 7SM 24/14 A2985 RMK T02400140 IEM_DS3505
ZBHH,2008-08-15 05:00,ZBHH 150500Z AUTO 11004KT 7SM 24/14 A2985 RMK T02400140 IEM_DS3505
ZBHH,2008-08-15 06:00,ZBHH 150600Z AUTO 09004KT 19SM 25/13 A2983 RMK SLP058 T02470126 57017 IEM_DS3505
ZBHH,2008-08-15 07:00,ZBHH 150700Z AUTO 14006KT 7SM 26/13 A2983 RMK T02600130 IEM_DS3505
ZBHH,2008-08-15 08:00,ZBHH 150800Z AUTO 14006KT 7SM 26/12 A2980 RMK T02600120 IEM_DS3505
ZBHH,2008-08-15 09:00,ZBHH 150900Z AUTO 16002KT 19SM 26/11 A2980 RMK SLP043 T02550109 57013 IEM_DS3505
ZBHH,2008-08-15 10:00,ZBHH 151000Z AUTO 12006KT 7SM 25/13 A2980 RMK T02500130 IEM_DS3505
ZBHH,2008-08-15 11:00,ZBHH 151100Z AUTO 14004KT 7SM 23/14 A2980 RMK T02300140 IEM_DS3505
ZBHH,2008-08-15 12:00,ZBHH 151200Z AUTO 11002KT 19SM 23/12 A2983 RMK SLP054 T02290119 52009 IEM_DS3505
ZBHH,2008-08-15 13:00,ZBHH 151300Z AUTO 06002KT 7SM 20/14 A2985 RMK T02000140 IEM_DS3505
ZBHH,2008-08-15 14:00,ZBHH 151400Z AUTO 11004KT 7SM 20/14 A2985 RMK T02000140 IEM_DS3505
ZBHH,2008-08-15 15:00,ZBHH 151500Z AUTO 07002KT 19SM 21/13 A2985 RMK SLP062 T02070132 52012 IEM_DS3505
ZBHH,2008-08-15 16:00,ZBHH 151600Z AUTO 06004KT 7SM 17/14 A2985 RMK T01700140 IEM_DS3505
ZBHH,2008-08-15 17:00,ZBHH 151700Z AUTO 06006KT 7SM 16/13 A2985 RMK T01600130 IEM_DS3505
ZBHH,2008-08-15 18:00,ZBHH 151800Z AUTO 09002KT 19SM 18/13 A2985 RMK SLP061 T01790132 57003 IEM_DS3505
ZBHH,2008-08-15 19:00,ZBHH 151900Z AUTO 07006KT 6SM 15/12 A2983 RMK T01500120 IEM_DS3505
ZBHH,2008-08-15 20:00,ZBHH 152000Z AUTO 09004KT 6SM 15/12 A2985 RMK T01500120 IEM_DS3505
ZBHH,2008-08-15 21:00,ZBHH 152100Z AUTO 04002KT 19SM 17/12 A2983 RMK SLP056 T01690118 57005 IEM_DS3505
ZBHH,2008-08-15 22:00,ZBHH 152200Z AUTO 05004KT 6SM 15/12 A2983 RMK T01500120 IEM_DS3505
ZBHH,2008-08-15 23:00,ZBHH 152300Z AUTO 06002KT 6SM 15/12 A2983 RMK T01500120 IEM_DS3505
ZBHH,2008-08-16 00:00,ZBHH 160000Z AUTO 09002KT 19SM 19/12 A2983 RMK SLP060 T01920125 52003 IEM_DS3505
ZBHH,2008-08-16 01:00,ZBHH 160100Z AUTO 09006KT 6SM 20/13 A2983 RMK T02000130 IEM_DS3505
ZBHH,2008-08-16 02:00,ZBHH 160200Z AUTO 12006KT 6SM 22/13 A2983 RMK T02200130 IEM_DS3505
ZBHH,2008-08-16 03:00,ZBHH 160300Z AUTO 16004KT 16SM 22/12 A2983 RMK SLP057 T02150118 57003 IEM_DS3505
ZBHH,2008-08-16 04:00,ZBHH 160400Z AUTO 16008KT 7SM 22/12 A2983 RMK T02200120 IEM_DS3505
ZBHH,2008-08-16 05:00,ZBHH 160500Z AUTO 24008KT 7SM 22/14 A2980 RMK T02200140 IEM_DS3505
ZBHH,2008-08-16 06:00,ZBHH 160600Z AUTO 22004KT 16SM 22/12 A2980 RMK SLP045 T02170117 57015 IEM_DS3505
ZBHH,2008-08-16 07:00,ZBHH 160700Z AUTO 22002KT 7SM 22/13 A2977 RMK T02200130 IEM_DS3505
ZBHH,2008-08-16 08:00,ZBHH 160800Z AUTO 23006KT 7SM 22/14 A2977 RMK T02200140 IEM_DS3505
ZBHH,2008-08-16 09:00,ZBHH 160900Z AUTO 22004KT 12SM 19/15 A2977 RMK SLP049 T01940147 57003 IEM_DS3505
ZBHH,2008-08-16 10:00,ZBHH 161000Z AUTO 24010KT 7SM 18/15 A2980 RMK T01800150 IEM_DS3505
ZBHH,2008-08-16 11:00,ZBHH 161100Z AUTO 23006KT 4SM 18/14 A2980 RMK T01800140 IEM_DS3505
ZBHH,2008-08-16 12:00,ZBHH 161200Z AUTO 20004KT 12SM 18/12 A2980 RMK 60000 SLP059 T01750124 52010 IEM_DS3505
ZBHH,2008-08-16 13:00,ZBHH 161300Z AUTO 13002KT 5SM 16/14 A2983 RMK T01600140 IEM_DS3505
ZBHH,2008-08-16 14:00,ZBHH 161400Z AUTO 11002KT 4SM 16/14 A2983 RMK T01600140 IEM_DS3505
ZBHH,2008-08-16 15:00,ZBHH 161500Z AUTO 04002KT 12SM 16/14 A2980 RMK SLP059 T01620139 52002 IEM_DS3505
ZBHH,2008-08-16 16:00,ZBHH 161600Z AUTO 36002KT 4SM 16/14 A2980 RMK T01600140 IEM_DS3505
ZBHH,2008-08-16 17:00,ZBHH 161700Z AUTO 09002KT 4SM 16/15 A2980 RMK T01600150 IEM_DS3505
ZBHH,2008-08-16 18:00,ZBHH 161800Z AUTO 00000KT 12SM 16/14 A2980 RMK 60004 SLP051 T01620139 57007 IEM_DS3505
ZBHH,2008-08-16 19:00,ZBHH 161900Z AUTO 24002KT 4SM 15/14 A2980 RMK T01500140 IEM_DS3505
ZBHH,2008-08-16 20:00,ZBHH 162000Z AUTO 34004KT 2 1/2SM 15/14 A2977 RMK T01500140 IEM_DS3505
ZBHH,2008-08-16 21:00,ZBHH 162100Z AUTO 09004KT 12SM 16/14 A2977 RMK 70010 SLP050 T01580145 57006 IEM_DS3505
ZBHH,2008-08-16 22:00,ZBHH 162200Z AUTO 08002KT 2 1/2SM 16/15 A2977 RMK T01600150 IEM_DS3505
ZBHH,2008-08-16 23:00,ZBHH 162300Z AUTO 22002KT 2SM 16/15 A2980 RMK T01600150 IEM_DS3505
ZBHH,2008-08-17 00:00,ZBHH 170000Z AUTO 18002KT 9SM 15/13 A2980 RMK 60020 70024 SLP063 T01510133 52007 IEM_DS3505
ZBHH,2008-08-17 01:00,ZBHH 170100Z AUTO 00000KT 3SM 15/14 A2980 RMK T01500140 IEM_DS3505
ZBHH,2008-08-17 02:00,ZBHH 170200Z AUTO 03002KT 2 1/2SM 15/14 A2980 RMK T01500140 IEM_DS3505
ZBHH,2008-08-17 03:00,ZBHH 170300Z AUTO 07004KT 9SM 15/14 A2980 RMK SLP064 T01490139 57002 IEM_DS3505
ZBHH,2008-08-17 04:00,ZBHH 170400Z AUTO 03004KT 4SM 15/14 A2977 RMK T01500140 IEM_DS3505
ZBHH,2008-08-17 05:00,ZBHH 170500Z AUTO 07006KT 7SM 16/14 A2977 RMK T01600140 IEM_DS3505
ZBHH,2008-08-17 06:00,ZBHH 170600Z AUTO 07004KT 9SM 16/14 A2974 RMK 60047 SLP047 T01640135 57012 IEM_DS3505
ZBHH,2008-08-17 07:00,ZBHH 170700Z AUTO 08006KT 7SM 17/15 A2974 RMK T01700150 IEM_DS3505
ZBHH,2008-08-17 08:00,ZBHH 170800Z AUTO 09006KT 7SM 18/15 A2971 RMK T01800150 IEM_DS3505
ZBHH,2008-08-17 09:00,ZBHH 170900Z AUTO 07002KT 12SM 18/14 A2974 RMK SLP039 T01800145 57005 IEM_DS3505
ZBHH,2008-08-17 10:00,ZBHH 171000Z AUTO 07006KT 7SM 19/15 A2971 RMK T01900150 IEM_DS3505
ZBHH,2008-08-17 11:00,ZBHH 171100Z AUTO 04002KT 7SM 18/15 A2971 RMK T01800150 IEM_DS3505
ZBHH,2008-08-17 12:00,ZBHH 171200Z AUTO 36002KT 6SM 18/14 A2974 RMK SLP043 T01780145 52002 IEM_DS3505
ZBHH,2008-08-17 13:00,ZBHH 171300Z AUTO 03002KT 7SM 17/15 A2974 RMK T01700150 IEM_DS3505
ZBHH,2008-08-17 14:00,ZBHH 171400Z AUTO 09004KT 7SM 17/15 A2974 RMK T01700150 IEM_DS3505
ZBHH,2008-08-17 15:00,ZBHH 171500Z AUTO 00000KT 12SM 17/15 A2974 RMK SLP049 T01690147 52003 IEM_DS3505
ZBHH,2008-08-17 16:00,ZBHH 171600Z AUTO 14002KT 7SM 17/15 A2974 RMK T01700150 IEM_DS3505
ZBHH,2008-08-17 17:00,ZBHH 171700Z AUTO 14002KT 5SM 16/15 A2974 RMK T01600150 IEM_DS3505
ZBHH,2008-08-17 18:00,ZBHH 171800Z AUTO 04002KT 12SM 17/15 A2974 RMK SLP039 T01700146 57006 IEM_DS3505
ZBHH,2008-08-17 19:00,ZBHH 171900Z AUTO 09002KT 5SM 16/15 A2971 RMK T01600150 IEM_DS3505
ZBHH,2008-08-17 20:00,ZBHH 172000Z AUTO 08002KT 4SM 16/15 A2974 RMK T01600150 IEM_DS3505
ZBHH,2008-08-17 21:00,ZBHH 172100Z AUTO 04002KT 12SM 16/15 A2974 RMK 70062 SLP038 T01650150 52001 IEM_DS3505
ZBHH,2008-08-17 22:00,ZBHH 172200Z AUTO 09002KT 3SM 17/15 A2974 RMK T01700150 IEM_DS3505
ZBHH,2008-08-17 23:00,ZBHH 172300Z AUTO 16002KT 2 1/2SM 17/16 A2974 RMK T01700160 IEM_DS3505
ZBHH,2008-08-18 00:00,ZBHH 180000Z AUTO 25004KT 6SM 17/15 A2977 RMK 60000 70049 SLP053 T01680153 52014 IEM_DS3505
ZBHH,2008-08-18 01:00,ZBHH 180100Z AUTO 23006KT 4SM 19/16 A2977 RMK T01900160 IEM_DS3505
ZBHH,2008-08-18 02:00,ZBHH 180200Z AUTO 23002KT 5SM 20/16 A2980 RMK T02000160 IEM_DS3505
ZBHH,2008-08-18 03:00,ZBHH 180300Z AUTO 20002KT 6SM 21/16 A2980 RMK SLP056 T02110161 52009 IEM_DS3505
ZBHH,2008-08-18 04:00,ZBHH 180400Z AUTO 29006KT 5SM 22/16 A2980 RMK T02200160 IEM_DS3505
ZBHH,2008-08-18 05:00,ZBHH 180500Z AUTO 31008KT 5SM 23/15 A2980 RMK T02300150 IEM_DS3505
ZBHH,2008-08-18 06:00,ZBHH 180600Z AUTO 09002KT 19SM 25/14 A2980 RMK 60000 SLP045 T02460135 57003 IEM_DS3505
ZBHH,2008-08-18 07:00,ZBHH 180700Z AUTO 32010KT 7SM 26/14 A2980 RMK T02600140 IEM_DS3505
ZBHH,2008-08-18 08:00,ZBHH 180800Z AUTO 36012KT 7SM 26/13 A2980 RMK T02600130 IEM_DS3505
ZBHH,2008-08-18 09:00,ZBHH 180900Z AUTO 32004KT 19SM 26/11 A2980 RMK SLP044 T02590109 54000 IEM_DS3505
ZBHH,2008-08-18 10:00,ZBHH 181000Z AUTO 32010KT 7SM 25/14 A2980 RMK T02500140 IEM_DS3505
ZBHH,2008-08-18 11:00,ZBHH 181100Z AUTO 33006KT 6SM 23/14 A2983 RMK T02300140 IEM_DS3505
ZBHH,2008-08-18 12:00,ZBHH 181200Z AUTO 32002KT 19SM 22/12 A2985 RMK SLP069 T02170123 52015 IEM_DS3505
ZBHH,2008-08-18 13:00,ZBHH 181300Z AUTO 05006KT 6SM 18/12 A2988 RMK T01800120 IEM_DS3505
ZBHH,2008-08-18 14:00,ZBHH 181400Z AUTO 07004KT 6SM 17/12 A2988 RMK T01700120 IEM_DS3505
ZBHH,2008-08-18 15:00,ZBHH 181500Z AUTO 07002KT 19SM 17/12 A2988 RMK SLP085 T01720119 52014 IEM_DS3505
ZBHH,2008-08-18 16:00,ZBHH 181600Z AUTO 10004KT 6SM 14/12 A2988 RMK T01400120 IEM_DS3505
ZBHH,2008-08-18 17:00,ZBHH 181700Z AUTO 07002KT 6SM 14/12 A2991 RMK T01400120 IEM_DS3505
ZBHH,2008-08-18 18:00,ZBHH 181800Z AUTO 34002KT 19SM 15/12 A2991 RMK SLP090 T01470122 52006 IEM_DS3505
ZBHH,2008-08-18 19:00,ZBHH 181900Z AUTO 06004KT 6SM 12/10 A2991 RMK T01200100 IEM_DS3505
ZBHH,2008-08-18 20:00,ZBHH 182000Z AUTO 07006KT 6SM 12/10 A2991 RMK T01200100 IEM_DS3505
ZBHH,2008-08-18 21:00,ZBHH 182100Z AUTO 09002KT 19SM 13/10 A2991 RMK 70001 SLP093 T01310095 52002 IEM_DS3505
ZBHH,2008-08-18 22:00,ZBHH 182200Z AUTO 05004KT 6SM 12/09 A2994 RMK T01200090 IEM_DS3505
ZBHH,2008-08-18 23:00,ZBHH 182300Z AUTO 07004KT 6SM 14/11 A2994 RMK T01400110 IEM_DS3505
ZBHH,2008-08-19 00:00,ZBHH 190000Z AUTO 09002KT 19SM 18/10 A2994 RMK 70000 SLP105 T01800099 52012 IEM_DS3505
ZBHH,2008-08-19 01:00,ZBHH 190100Z AUTO 07002KT 6SM 20/12 A2994 RMK T02000120 IEM_DS3505
ZBHH,2008-08-19 02:00,ZBHH 190200Z AUTO 04002KT 6SM 22/12 A2994 RMK T02200120 IEM_DS3505
ZBHH,2008-08-19 03:00,ZBHH 190300Z AUTO 29002KT 19SM 24/10 A2994 RMK SLP098 T02390095 57003 IEM_DS3505
ZBHH,2008-08-19 04:00,ZBHH 190400Z AUTO 03002KT 6SM 25/10 A2991 RMK T02500100 IEM_DS3505
ZBHH,2008-08-19 05:00,ZBHH 190500Z AUTO 10002KT 6SM 26/08 A2991 RMK T02600080 IEM_DS3505
ZBHH,2008-08-19 06:00,ZBHH 190600Z AUTO 29002KT 19SM 27/10 A2991 RMK SLP081 T02720100 57014 IEM_DS3505
ZBHH,2008-08-19 07:00,ZBHH 190700Z AUTO 11004KT 6SM 27/09 A2988 RMK T02700090 IEM_DS3505
ZBHH,2008-08-19 08:00,ZBHH 190800Z AUTO 23002KT 6SM 27/10 A2988 RMK T02700100 IEM_DS3505
ZBHH,2008-08-19 09:00,ZBHH 190900Z AUTO 34002KT 19SM 27/10 A2985 RMK SLP070 T02690097 57013 IEM_DS3505
ZBHH,2008-08-19 10:00,ZBHH 191000Z AUTO 33004KT 6SM 27/11 A2985 RMK T02700110 IEM_DS3505
ZBHH,2008-08-19 11:00,ZBHH 191100Z AUTO 03004KT 6SM 24/14 A2985 RMK T02400140 IEM_DS3505
ZBHH,2008-08-19 12:00,ZBHH 191200Z AUTO 04002KT 19SM 23/12 A2988 RMK SLP072 T02260125 52003 IEM_DS3505
ZBHH,2008-08-19 13:00,ZBHH 191300Z AUTO 04006KT 6SM 20/13 A2988 RMK T02000130 IEM_DS3505
ZBHH,2008-08-19 14:00,ZBHH 191400Z AUTO 06004KT 6SM 18/14 A2988 RMK T01800140 IEM_DS3505
ZBHH,2008-08-19 15:00,ZBHH 191500Z AUTO 07002KT 19SM 20/12 A2988 RMK SLP069 T02010118 52003 IEM_DS3505
ZBHH,2008-08-19 16:00,ZBHH 191600Z AUTO 07004KT 6SM 17/13 A2988 RMK T01700130 IEM_DS3505
ZBHH,2008-08-19 17:00,ZBHH 191700Z AUTO 06006KT 6SM 16/13 A2988 RMK T01600130 IEM_DS3505
ZBHH,2008-08-19 18:00,ZBHH 191800Z AUTO 04002KT 19SM 17/13 A2985 RMK SLP065 T01680131 57003 IEM_DS3505
ZBHH,2008-08-19 19:00,ZBHH 191900Z AUTO 06004KT 6SM 15/12 A2985 RMK T01500120 IEM_DS3505
ZBHH,2008-08-19 20:00,ZBHH 192000Z AUTO 05002KT 6SM 16/12 A2985 RMK T01600120 IEM_DS3505
ZBHH,2008-08-19 21:00,ZBHH 192100Z AUTO 00000KT 19SM 16/13 A2985 RMK SLP065 T01590132 57002 IEM_DS3505
ZBHH,2008-08-19 22:00,ZBHH 192200Z AUTO 06004KT 6SM 15/12 A2985 RMK T01500120 IEM_DS3505
ZBHH,2008-08-19 23:00,ZBHH 192300Z AUTO 08004KT 6SM 16/13 A2985 RMK T01600130 IEM_DS3505
ZBHH,2008-08-20 00:00,ZBHH 200000Z AUTO 07002KT 19SM 21/12 A2985 RMK SLP060 T02070121 57004 IEM_DS3505
ZBHH,2008-08-20 01:00,ZBHH 200100Z AUTO 09006KT 6SM 22/14 A2983 RMK T02200140 IEM_DS3505
ZBHH,2008-08-20 02:00,ZBHH 200200Z AUTO 14004KT 6SM 23/14 A2983 RMK T02300140 IEM_DS3505
ZBHH,2008-08-20 03:00,ZBHH 200300Z AUTO 29002KT 9SM 24/13 A2983 RMK SLP057 T02360132 57002 IEM_DS3505
ZBHH,2008-08-20 04:00,ZBHH 200400Z AUTO 22002KT 7SM 24/15 A2983 RMK T02400150 IEM_DS3505
ZBHH,2008-08-20 05:00,ZBHH 200500Z AUTO 08002KT 7SM 24/15 A2980 RMK T02400150 IEM_DS3505
ZBHH,2008-08-20 06:00,ZBHH 200600Z AUTO 25002KT 5SM 25/16 A2980 RMK SLP042 T02460158 57017 IEM_DS3505
ZBHH,2008-08-20 07:00,ZBHH 200700Z AUTO 21002KT 7SM 25/17 A2977 RMK T02500170 IEM_DS3505
ZBHH,2008-08-20 08:00,ZBHH 200800Z AUTO 22008KT 4SM 22/18 A2977 RMK T02200180 IEM_DS3505
ZBHH,2008-08-20 09:00,ZBHH 200900Z AUTO 22008KT 4SM 22/17 A2977 RMK SLP047 T02180172 57003 IEM_DS3505
ZBHH,2008-08-20 10:00,ZBHH 201000Z AUTO 21004KT 1 1/2SM 20/19 A2977 RMK T02000190 IEM_DS3505
ZBHH,2008-08-20 11:00,ZBHH 201100Z AUTO 11002KT 1 1/2SM 20/18 A2977 RMK T02000180 IEM_DS3505
ZBHH,2008-08-20 12:00,ZBHH 201200Z AUTO 22012KT 6SM 18/16 A2977 RMK 60016 SLP049 T01760156 52003 IEM_DS3505
ZBHH,2008-08-20 13:00,ZBHH 201300Z AUTO 22006KT 4SM 17/16 A2980 RMK T01700160 IEM_DS3505
ZBHH,2008-08-20 14:00,ZBHH 201400Z AUTO 01002KT 4SM 17/16 A2977 RMK T01700160 IEM_DS3505
ZBHH,2008-08-20 15:00,ZBHH 201500Z AUTO 11002KT 12SM 17/16 A2977 RMK SLP036 T01660155 57008 IEM_DS3505
ZBHH,2008-08-20 16:00,ZBHH 201600Z AUTO 34004KT 2 1/2SM 16/15 A2977 RMK T01600150 IEM_DS3505
ZBHH,2008-08-20 17:00,ZBHH 201700Z AUTO 03004KT 2 1/2SM 16/16 A2974 RMK T01600160 IEM_DS3505
ZBHH,2008-08-20 18:00,ZBHH 201800Z AUTO 04002KT 16SM 17/16 A2974 RMK 60043 SLP028 T01660155 57005 IEM_DS3505
ZBHH,2008-08-20 19:00,ZBHH 201900Z AUTO 21002KT 2 1/2SM 16/16 A2974 RMK T01600160 IEM_DS3505
ZBHH,2008-08-20 20:00,ZBHH 202000Z AUTO 24002KT 2 1/2SM 16/16 A2974 RMK T01600160 IEM_DS3505
ZBHH,2008-08-20 21:00,ZBHH 202100Z AUTO 20006KT 5SM 17/16 A2974 RMK 70061 SLP037 T01690158 52003 IEM_DS3505
ZBHH,2008-08-20 22:00,ZBHH 202200Z AUTO 21002KT 2 1/2SM 17/16 A2977 RMK T01700160 IEM_DS3505
ZBHH,2008-08-20 23:00,ZBHH 202300Z AUTO 18002KT 1 1/2SM 17/16 A2977 RMK T01700160 IEM_DS3505
ZBHH,2008-08-21 00:00,ZBHH 210000Z AUTO 18002KT 5SM 17/16 A2977 RMK 60000 70061 SLP052 T01720157 52006 IEM_DS3505
ZBHH,2008-08-21 01:00,ZBHH 210100Z AUTO 24002KT 1 1/4SM 18/16 A2977 RMK T01800160 IEM_DS3505
ZBHH,2008-08-21 02:00,ZBHH 210200Z AUTO 23004KT 3SM 19/16 A2977 RMK T01900160 IEM_DS3505
ZBHH,2008-08-21 03:00,ZBHH 210300Z AUTO 32004KT 6SM 20/16 A2974 RMK SLP041 T02000164 57006 IEM_DS3505
ZBHH,2008-08-21 04:00,ZBHH 210400Z AUTO 32008KT 7SM 19/15 A2974 RMK T01900150 IEM_DS3505
ZBHH,2008-08-21 05:00,ZBHH 210500Z AUTO 32002KT 7SM 17/14 A2974 RMK T01700140 IEM_DS3505
ZBHH,2008-08-21 06:00,ZBHH 210600Z AUTO 32010KT 6SM 20/12 A2974 RMK 60008 SLP041 T02010121 4////0165 54000 IEM_DS3505
ZBHH,2008-08-21 07:00,ZBHH 210700Z AUTO 05002KT 7SM 16/13 A2977 RMK T01600130 IEM_DS3505
ZBHH,2008-08-21 08:00,ZBHH 210800Z AUTO 02002KT 7SM 19/14 A2977 RMK T01900140 IEM_DS3505
ZBHH,2008-08-21 09:00,ZBHH 210900Z AUTO 32006KT 19SM 20/10 A2977 RMK SLP045 T02040102 52005 IEM_DS3505
ZBHH,2008-08-21 10:00,ZBHH 211000Z AUTO 35008KT 7SM 20/12 A2977 RMK T02000120 IEM_DS3505
ZBHH,2008-08-21 11:00,ZBHH 211100Z AUTO 00000KT 7SM 19/13 A2980 RMK T01900130 IEM_DS3505
ZBHH,2008-08-21 12:00,ZBHH 211200Z AUTO 29002KT 19SM 19/13 A2980 RMK 60031 SLP058 T01870127 52009 IEM_DS3505
ZBHH,2008-08-21 13:00,ZBHH 211300Z AUTO 16002KT 7SM 16/14 A2983 RMK T01600140 IEM_DS3505
ZBHH,2008-08-21 14:00,ZBHH 211400Z AUTO 11004KT 7SM 15/14 A2983 RMK T01500140 IEM_DS3505
ZBHH,2008-08-21 15:00,ZBHH 211500Z AUTO 29004KT 19SM 18/11 A2983 RMK SLP064 T01760114 52008 IEM_DS3505
ZBHH,2008-08-21 16:00,ZBHH 211600Z AUTO 08004KT 6SM 14/13 A2983 RMK T01400130 IEM_DS3505
ZBHH,2008-08-21 17:00,ZBHH 211700Z AUTO 11002KT 6SM 13/12 A2983 RMK T01300120 IEM_DS3505
ZBHH,2008-08-21 18:00,ZBHH 211800Z AUTO 07004KT 19SM 14/12 A2983 RMK SLP069 T01390125 57002 IEM_DS3505
ZBHH,2008-08-21 19:00,ZBHH 211900Z AUTO 08002KT 6SM 12/10 A2983 RMK T01200100 IEM_DS3505
ZBHH,2008-08-21 20:00,ZBHH 212000Z AUTO 10002KT 6SM 11/10 A2983 RMK T01100100 IEM_DS3505
ZBHH,2008-08-21 21:00,ZBHH 212100Z AUTO 00000KT 19SM 11/10 A2983 RMK 70039 SLP075 T01140101 52001 IEM_DS3505
ZBHH,2008-08-21 22:00,ZBHH 212200Z AUTO 11004KT 6SM 10/08 A2983 RMK T01000080 IEM_DS3505
ZBHH,2008-08-21 23:00,ZBHH 212300Z AUTO 07002KT 6SM 12/10 A2983 RMK T01200100 IEM_DS3505
ZBHH,2008-08-22 00:00,ZBHH 220000Z AUTO 09002KT 19SM 15/11 A2983 RMK 70039 SLP078 T01530113 52007 IEM_DS3505
ZBHH,2008-08-22 01:00,ZBHH 220100Z AUTO 20002KT 7SM 16/13 A2985 RMK T01600130 IEM_DS3505
ZBHH,2008-08-22 02:00,ZBHH 220200Z AUTO 28002KT 7SM 18/14 A2985 RMK T01800140 IEM_DS3505
ZBHH,2008-08-22 03:00,ZBHH 220300Z AUTO 29004KT 19SM 20/11 A2983 RMK SLP067 T02010111 57003 IEM_DS3505
ZBHH,2008-08-22 04:00,ZBHH 220400Z AUTO 22006KT 7SM 21/13 A2983 RMK T02100130 IEM_DS3505
ZBHH,2008-08-22 05:00,ZBHH 220500Z AUTO 7SM 23/14 A2980 RMK T02300140 IEM_DS3505
ZBHH,2008-08-22 06:00,ZBHH 220600Z AUTO 22004KT 19SM 24/13 A2977 RMK SLP044 T02380134 57020 IEM_DS3505
ZBHH,2008-08-22 07:00,ZBHH 220700Z AUTO 24010KT 7SM 25/14 A2974 RMK T02500140 IEM_DS3505
ZBHH,2008-08-22 08:00,ZBHH 220800Z AUTO 23014KT 7SM 25/13 A2974 RMK T02500130 IEM_DS3505
ZBHH,2008-08-22 09:00,ZBHH 220900Z AUTO 25006KT 19SM 25/10 A2974 RMK SLP029 T02540097 57015 IEM_DS3505
ZBHH,2008-08-22 10:00,ZBHH 221000Z AUTO 24012KT 7SM 25/11 A2971 RMK T02500110 IEM_DS3505
ZBHH,2008-08-22 11:00,ZBHH 221100Z AUTO 22006KT 6SM 22/13 A2974 RMK T02200130 IEM_DS3505
ZBHH,2008-08-22 12:00,ZBHH 221200Z AUTO 29002KT 19SM 22/11 A2974 RMK SLP036 T02180106 52006 IEM_DS3505
ZBHH,2008-08-22 13:00,ZBHH 221300Z AUTO 05004KT 6SM 18/13 A2977 RMK T01800130 IEM_DS3505
ZBHH,2008-08-22 14:00,ZBHH 221400Z AUTO 05004KT 6SM 16/13 A2977 RMK T01600130 IEM_DS3505
ZBHH,2008-08-22 15:00,ZBHH 221500Z AUTO 02002KT 19SM 16/10 A2977 RMK SLP046 T01600105 52007 IEM_DS3505
ZBHH,2008-08-22 16:00,ZBHH 221600Z AUTO 06004KT 6SM 14/11 A2977 RMK T01400110 IEM_DS3505
ZBHH,2008-08-22 17:00,ZBHH 221700Z AUTO 04006KT 6SM 13/10 A2977 RMK T01300100 IEM_DS3505
ZBHH,2008-08-22 18:00,ZBHH 221800Z AUTO 18002KT 19SM 14/10 A2977 RMK SLP046 T01430105 52004 IEM_DS3505
ZBHH,2008-08-22 19:00,ZBHH 221900Z AUTO 06006KT 6SM 12/11 A2977 RMK T01200110 IEM_DS3505
ZBHH,2008-08-22 20:00,ZBHH 222000Z AUTO 08004KT 6SM 12/10 A2980 RMK T01200100 IEM_DS3505
ZBHH,2008-08-22 21:00,ZBHH 222100Z AUTO 14002KT 19SM 13/10 A2980 RMK SLP054 T01330097 52008 IEM_DS3505
ZBHH,2008-08-22 22:00,ZBHH 222200Z AUTO 08004KT 6SM 11/09 A2983 RMK T01100090 IEM_DS3505
ZBHH,2008-08-22 23:00,ZBHH 222300Z AUTO 06006KT 6SM 13/10 A2983 RMK T01300100 IEM_DS3505
ZBHH,2008-08-23 00:00,ZBHH 230000Z AUTO 09002KT 19SM 18/11 A2985 RMK SLP066 T01800106 52013 IEM_DS3505
ZBHH,2008-08-23 01:00,ZBHH 230100Z AUTO 08002KT 6SM 19/12 A2985 RMK T01900120 IEM_DS3505
ZBHH,2008-08-23 02:00,ZBHH 230200Z AUTO 24002KT 6SM 21/11 A2985 RMK T02100110 IEM_DS3505
ZBHH,2008-08-23 03:00,ZBHH 230300Z AUTO 20002KT 16SM 22/11 A2985 RMK SLP072 T02230114 52002 IEM_DS3505
ZBHH,2008-08-23 04:00,ZBHH 230400Z AUTO 20004KT 6SM 23/12 A2985 RMK T02300120 IEM_DS3505
ZBHH,2008-08-23 05:00,ZBHH 230500Z AUTO 25004KT 6SM 24/12 A2983 RMK T02400120 IEM_DS3505
ZBHH,2008-08-23 06:00,ZBHH 230600Z AUTO 29004KT 16SM 24/11 A2983 RMK SLP059 T02380108 57011 IEM_DS3505
ZBHH,2008-08-23 07:00,ZBHH 230700Z AUTO 23004KT 6SM 25/13 A2980 RMK T02500130 IEM_DS3505
ZBHH,2008-08-23 08:00,ZBHH 230800Z AUTO 21006KT 7SM 25/10 A2980 RMK T02500100 IEM_DS3505
ZBHH,2008-08-23 09:00,ZBHH 230900Z AUTO 22004KT 12SM 26/08 A2980 RMK SLP044 T02580083 57012 IEM_DS3505
ZBHH,2008-08-23 10:00,ZBHH 231000Z AUTO 22004KT 6SM 24/12 A2980 RMK T02400120 IEM_DS3505
ZBHH,2008-08-23 11:00,ZBHH 231100Z AUTO 05006KT 7SM 22/13 A2980 RMK T02200130 IEM_DS3505
ZBHH,2008-08-23 12:00,ZBHH 231200Z AUTO 09002KT 12SM 22/11 A2980 RMK SLP053 T02150109 52009 IEM_DS3505
ZBHH,2008-08-23 13:00,ZBHH 231300Z AUTO 06004KT 6SM 18/11 A2983 RMK T01800110 IEM_DS3505
ZBHH,2008-08-23 14:00,ZBHH 231400Z AUTO 04006KT 6SM 17/11 A2983 RMK T01700110 IEM_DS3505
ZBHH,2008-08-23 15:00,ZBHH 231500Z AUTO 00000KT 12SM 18/11 A2983 RMK SLP061 T01780114 52008 IEM_DS3505
ZBHH,2008-08-23 16:00,ZBHH 231600Z AUTO 06006KT 6SM 15/12 A2985 RMK T01500120 IEM_DS3505
ZBHH,2008-08-23 17:00,ZBHH 231700Z AUTO 07004KT 6SM 14/12 A2985 RMK T01400120 IEM_DS3505
ZBHH,2008-08-23 18:00,ZBHH 231800Z AUTO 09002KT 12SM 15/12 A2983 RMK SLP064 T01540120 52001 IEM_DS3505
ZBHH,2008-08-23 19:00,ZBHH 231900Z AUTO 06006KT 6SM 15/12 A2983 RMK T01500120 IEM_DS3505
ZBHH,2008-08-23 20:00,ZBHH 232000Z AUTO 08004KT 6SM 14/12 A2985 RMK T01400120 IEM_DS3505
ZBHH,2008-08-23 21:00,ZBHH 232100Z AUTO 00000KT 12SM 15/12 A2985 RMK SLP066 T01510121 52005 IEM_DS3505
ZBHH,2008-08-23 22:00,ZBHH 232200Z AUTO 08004KT 7SM 14/12 A2985 RMK T01400120 IEM_DS3505
ZBHH,2008-08-23 23:00,ZBHH 232300Z AUTO 06004KT 6SM 15/12 A2985 RMK T01500120 IEM_DS3505
ZBHH,2008-08-24 00:00,ZBHH 240000Z AUTO 07002KT 12SM 18/12 A2985 RMK SLP074 T01850123 52005 IEM_DS3505
ZBHH,2008-08-24 01:00,ZBHH 240100Z AUTO 11002KT 7SM 21/14 A2985 RMK T02100140 IEM_DS3505
ZBHH,2008-08-24 02:00,ZBHH 240200Z AUTO 21002KT 7SM 22/10 A2988 RMK T02200100 IEM_DS3505
ZBHH,2008-08-24 03:00,ZBHH 240300Z AUTO 11004KT 12SM 23/12 A2985 RMK SLP069 T02300117 57003 IEM_DS3505
ZBHH,2008-08-24 04:00,ZBHH 240400Z AUTO 17002KT 7SM 24/12 A2985 RMK T02400120 IEM_DS3505
ZBHH,2008-08-24 05:00,ZBHH 240500Z AUTO 23008KT 7SM 25/13 A2983 RMK T02500130 IEM_DS3505
ZBHH,2008-08-24 06:00,ZBHH 240600Z AUTO 18004KT 12SM 26/12 A2983 RMK SLP058 T02570115 57009 IEM_DS3505
ZBHH,2008-08-24 07:00,ZBHH 240700Z AUTO 23008KT 7SM 27/13 A2983 RMK T02700130 IEM_DS3505
ZBHH,2008-08-24 08:00,ZBHH 240800Z AUTO 24006KT 7SM 27/10 A2980 RMK T02700100 IEM_DS3505
ZBHH,2008-08-24 09:00,ZBHH 240900Z AUTO 20004KT 12SM 28/08 A2980 RMK SLP038 T02830081 57013 IEM_DS3505
ZBHH,2008-08-24 10:00,ZBHH 241000Z AUTO 18006KT 7SM 25/13 A2980 RMK T02500130 IEM_DS3505
ZBHH,2008-08-24 11:00,ZBHH 241100Z AUTO 23004KT 7SM 24/14 A2983 RMK T02400140 IEM_DS3505
ZBHH,2008-08-24 12:00,ZBHH 241200Z AUTO 25006KT 19SM 23/09 A2985 RMK SLP066 T02310091 52021 IEM_DS3505
ZBHH,2008-08-24 13:00,ZBHH 241300Z AUTO 15006KT 7SM 19/12 A2988 RMK T01900120 IEM_DS3505
ZBHH,2008-08-24 14:00,ZBHH 241400Z AUTO 17008KT 6SM 18/11 A2988 RMK T01800110 IEM_DS3505
ZBHH,2008-08-24 15:00,ZBHH 241500Z AUTO 18010KT 19SM 20/09 A2991 RMK SLP080 T02010094 52015 IEM_DS3505
ZBHH,2008-08-24 16:00,ZBHH 241600Z AUTO 17006KT 6SM 16/10 A2991 RMK T01600100 IEM_DS3505
ZBHH,2008-08-24 17:00,ZBHH 241700Z AUTO 06004KT 6SM 15/11 A2991 RMK T01500110 IEM_DS3505
ZBHH,2008-08-24 18:00,ZBHH 241800Z AUTO 07002KT 19SM 16/10 A2991 RMK SLP087 T01640100 52005 IEM_DS3505
ZBHH,2008-08-24 19:00,ZBHH 241900Z AUTO 03004KT 6SM 13/11 A2991 RMK T01300110 IEM_DS3505
ZBHH,2008-08-24 20:00,ZBHH 242000Z AUTO 05006KT 6SM 13/10 A2991 RMK T01300100 IEM_DS3505
ZBHH,2008-08-24 21:00,ZBHH 242100Z AUTO 36002KT 19SM 15/11 A2991 RMK SLP082 T01490107 57003 IEM_DS3505
ZBHH,2008-08-24 22:00,ZBHH 242200Z AUTO 09004KT 6SM 13/10 A2991 RMK T01300100 IEM_DS3505
ZBHH,2008-08-24 23:00,ZBHH 242300Z AUTO 11002KT 7SM 14/11 A2991 RMK T01400110 IEM_DS3505
ZBHH,2008-08-25 00:00,ZBHH 250000Z AUTO 00000KT 19SM 17/11 A2994 RMK SLP097 T01700108 52008 IEM_DS3505
ZBHH,2008-08-25 01:00,ZBHH 250100Z AUTO 15004KT 6SM 20/12 A2994 RMK T02000120 IEM_DS3505
ZBHH,2008-08-25 02:00,ZBHH 250200Z AUTO 23004KT 7SM 20/12 A2997 RMK T02000120 IEM_DS3505
ZBHH,2008-08-25 03:00,ZBHH 250300Z AUTO 32002KT 19SM 22/11 A2994 RMK SLP092 T02170111 57001 IEM_DS3505
ZBHH,2008-08-25 04:00,ZBHH 250400Z AUTO 19006KT 7SM 22/12 A2991 RMK T02200120 IEM_DS3505
ZBHH,2008-08-25 05:00,ZBHH 250500Z AUTO 23002KT 7SM 22/13 A2991 RMK T02200130 IEM_DS3505
ZBHH,2008-08-25 06:00,ZBHH 250600Z AUTO 20002KT 19SM 24/11 A2988 RMK SLP082 T02400113 57012 IEM_DS3505
ZBHH,2008-08-25 07:00,ZBHH 250700Z AUTO 24004KT 7SM 24/13 A2985 RMK T02400130 IEM_DS3505
ZBHH,2008-08-25 08:00,ZBHH 250800Z AUTO 24004KT 7SM 25/12 A2985 RMK T02500120 IEM_DS3505
ZBHH,2008-08-25 09:00,ZBHH 250900Z AUTO 29004KT 19SM 25/12 A2985 RMK SLP065 T02470123 57016 IEM_DS3505
ZBHH,2008-08-25 10:00,ZBHH 251000Z AUTO 06002KT 7SM 23/15 A2983 RMK T02300150 IEM_DS3505
ZBHH,2008-08-25 11:00,ZBHH 251100Z AUTO 18002KT 7SM 22/16 A2983 RMK T02200160 IEM_DS3505
ZBHH,2008-08-25 12:00,ZBHH 251200Z AUTO 14002KT 12SM 22/14 A2985 RMK SLP068 T02220136 52002 IEM_DS3505
ZBHH,2008-08-25 13:00,ZBHH 251300Z AUTO 08004KT 7SM 20/15 A2985 RMK T02000150 IEM_DS3505
ZBHH,2008-08-25 14:00,ZBHH 251400Z AUTO 35002KT 7SM 19/14 A2988 RMK T01900140 IEM_DS3505
ZBHH,2008-08-25 15:00,ZBHH 251500Z AUTO 32012G21KT 6SM 20/08 A2994 RMK SLP088 T01950079 52021 IEM_DS3505
ZBHH,2008-08-25 16:00,ZBHH 251600Z AUTO 01008KT 7SM 18/11 A2994 RMK T01800110 IEM_DS3505
ZBHH,2008-08-25 17:00,ZBHH 251700Z AUTO 13008KT 7SM 16/11 A2988 RMK T01600110 IEM_DS3505
ZBHH,2008-08-25 18:00,ZBHH 251800Z AUTO 32002KT 12SM 17/11 A2991 RMK 60000 SLP088 T01710114 54000 IEM_DS3505
ZBHH,2008-08-25 19:00,ZBHH 251900Z AUTO 01002KT 7SM 15/11 A2991 RMK T01500110 IEM_DS3505
ZBHH,2008-08-25 20:00,ZBHH 252000Z AUTO 34002KT 7SM 14/12 A2991 RMK T01400120 IEM_DS3505
ZBHH,2008-08-25 21:00,ZBHH 252100Z AUTO 34002KT 12SM 16/11 A2991 RMK 70000 SLP090 T01570111 54000 IEM_DS3505
ZBHH,2008-08-25 22:00,ZBHH 252200Z AUTO 11004KT 7SM 14/11 A2991 RMK T01400110 IEM_DS3505
ZBHH,2008-08-25 23:00,ZBHH 252300Z AUTO 09004KT 7SM 14/11 A2991 RMK T01400110 IEM_DS3505
ZBHH,2008-08-26 00:00,ZBHH 260000Z AUTO 09002KT 12SM 17/11 A2991 RMK 70000 SLP096 T01730111 52004 IEM_DS3505
ZBHH,2008-08-26 01:00,ZBHH 260100Z AUTO 13002KT 6SM 19/12 A2991 RMK T01900120 IEM_DS3505
ZBHH,2008-08-26 02:00,ZBHH 260200Z AUTO 13002KT 6SM 21/12 A2994 RMK T02100120 IEM_DS3505
ZBHH,2008-08-26 03:00,ZBHH 260300Z AUTO 18002KT 12SM 21/12 A2994 RMK SLP096 T02090118 52002 IEM_DS3505
ZBHH,2008-08-26 04:00,ZBHH 260400Z AUTO 7SM 22/13 A2991 RMK T02200130 IEM_DS3505
ZBHH,2008-08-26 05:00,ZBHH 260500Z AUTO 7SM 23/12 A2991 RMK T02300120 IEM_DS3505
ZBHH,2008-08-26 06:00,ZBHH 260600Z AUTO 25002KT 12SM 22/15 A2988 RMK 60003 SLP086 T02200151 57012 IEM_DS3505
ZBHH,2008-08-26 07:00,ZBHH 260700Z AUTO 08006KT 7SM 22/10 A2988 RMK T02200100 IEM_DS3505
ZBHH,2008-08-26 08:00,ZBHH 260800Z AUTO 15004KT 7SM 22/11 A2988 RMK T02200110 IEM_DS3505
ZBHH,2008-08-26 09:00,ZBHH 260900Z AUTO 09002KT 19SM 22/10 A2988 RMK SLP081 T02200102 57007 IEM_DS3505
ZBHH,2008-08-26 10:00,ZBHH 261000Z AUTO 20004KT 7SM 22/12 A2988 RMK T02200120 IEM_DS3505
ZBHH,2008-08-26 11:00,ZBHH 261100Z AUTO 02004KT 7SM 21/10 A2988 RMK T02100100 IEM_DS3505
ZBHH,2008-08-26 12:00,ZBHH 261200Z AUTO 36002KT 19SM 20/12 A2991 RMK 60001 SLP091 T01980116 52008 IEM_DS3505
ZBHH,2008-08-26 13:00,ZBHH 261300Z AUTO 02004KT 6SM 16/08 A2991 RMK T01600080 IEM_DS3505
ZBHH,2008-08-26 14:00,ZBHH 261400Z AUTO 36004KT 6SM 17/04 A2994 RMK T01700040 IEM_DS3505
ZBHH,2008-08-26 15:00,ZBHH 261500Z AUTO 27002KT 19SM 16/05 A2994 RMK SLP112 T01560049 52017 IEM_DS3505
ZBHH,2008-08-26 16:00,ZBHH 261600Z AUTO 04006KT 6SM 13/05 A2997 RMK T01300050 IEM_DS3505
ZBHH,2008-08-26 17:00,ZBHH 261700Z AUTO 06006KT 6SM 11/05 A2997 RMK T01100050 IEM_DS3505
ZBHH,2008-08-26 18:00,ZBHH 261800Z AUTO 32004KT 19SM 12/04 A2997 RMK SLP119 T01210038 52002 IEM_DS3505
ZBHH,2008-08-26 19:00,ZBHH 261900Z AUTO 06004KT 6SM 09/05 A2997 RMK T00900050 IEM_DS3505
ZBHH,2008-08-26 20:00,ZBHH 262000Z AUTO 07004KT 6SM 09/04 A2997 RMK T00900040 IEM_DS3505
ZBHH,2008-08-26 21:00,ZBHH 262100Z AUTO 00000KT 19SM 09/05 A2997 RMK 70004 SLP125 T00940046 54000 IEM_DS3505
ZBHH,2008-08-26 22:00,ZBHH 262200Z AUTO 10004KT 6SM 08/04 A2997 RMK T00800040 IEM_DS3505
ZBHH,2008-08-26 23:00,ZBHH 262300Z AUTO 06004KT 6SM 10/05 A2997 RMK T01000050 IEM_DS3505
ZBHH,2008-08-27 00:00,ZBHH 270000Z AUTO 09004KT 19SM 15/04 A2997 RMK 70004 SLP126 T01480036 52007 IEM_DS3505
ZBHH,2008-08-27 01:00,ZBHH 270100Z AUTO 07004KT 6SM 17/06 A2997 RMK T01700060 IEM_DS3505
ZBHH,2008-08-27 02:00,ZBHH 270200Z AUTO 10004KT 6SM 19/02 A2997 RMK T01900020 IEM_DS3505
ZBHH,2008-08-27 03:00,ZBHH 270300Z AUTO 09006KT 19SM 21/03 A2997 RMK SLP116 T02090027 57005 IEM_DS3505
ZBHH,2008-08-27 04:00,ZBHH 270400Z AUTO 26002KT 6SM 22/03 A2994 RMK T02200030 IEM_DS3505
ZBHH,2008-08-27 05:00,ZBHH 270500Z AUTO 20004KT 6SM 23/02 A2994 RMK T02300020 IEM_DS3505
ZBHH,2008-08-27 06:00,ZBHH 270600Z AUTO 18004KT 19SM 24/03 A2991 RMK SLP101 T02400028 57014 IEM_DS3505
ZBHH,2008-08-27 07:00,ZBHH 270700Z AUTO 17006KT 6SM 24/02 A2991 RMK T02400020 IEM_DS3505
ZBHH,2008-08-27 08:00,ZBHH 270800Z AUTO 22006KT 6SM 24/03 A2988 RMK T02400030 IEM_DS3505
ZBHH,2008-08-27 09:00,ZBHH 270900Z AUTO 20004KT 19SM 24/04 A2988 RMK SLP095 T02440042 57010 IEM_DS3505
ZBHH,2008-08-27 10:00,ZBHH 271000Z AUTO 23006KT 7SM 23/05 A2988 RMK T02300050 IEM_DS3505
ZBHH,2008-08-27 11:00,ZBHH 271100Z AUTO 18002KT 6SM 21/09 A2988 RMK T02100090 IEM_DS3505
ZBHH,2008-08-27 12:00,ZBHH 271200Z AUTO 36002KT 19SM 20/06 A2991 RMK SLP100 T01990063 52006 IEM_DS3505
ZBHH,2008-08-27 13:00,ZBHH 271300Z AUTO 03008KT 6SM 16/09 A2991 RMK T01600090 IEM_DS3505
ZBHH,2008-08-27 14:00,ZBHH 271400Z AUTO 07006KT 6SM 13/09 A2994 RMK T01300090 IEM_DS3505
ZBHH,2008-08-27 15:00,ZBHH 271500Z AUTO 09002KT 19SM 16/07 A2994 RMK SLP108 T01610073 52012 IEM_DS3505
ZBHH,2008-08-27 16:00,ZBHH 271600Z AUTO 05006KT 6SM 13/08 A2994 RMK T01300080 IEM_DS3505
ZBHH,2008-08-27 17:00,ZBHH 271700Z AUTO 11002KT 6SM 12/08 A2994 RMK T01200080 IEM_DS3505
ZBHH,2008-08-27 18:00,ZBHH 271800Z AUTO 07002KT 19SM 15/07 A2994 RMK SLP100 T01460067 57004 IEM_DS3505
ZBHH,2008-08-27 19:00,ZBHH 271900Z AUTO 07004KT 6SM 11/07 A2994 RMK T01100070 IEM_DS3505
ZBHH,2008-08-27 20:00,ZBHH 272000Z AUTO 06006KT 6SM 12/07 A2994 RMK T01200070 IEM_DS3505
ZBHH,2008-08-27 21:00,ZBHH 272100Z AUTO 07002KT 19SM 14/07 A2991 RMK SLP098 T01350066 57003 IEM_DS3505
ZBHH,2008-08-27 22:00,ZBHH 272200Z AUTO 06008KT 7SM 12/07 A2994 RMK T01200070 IEM_DS3505
ZBHH,2008-08-27 23:00,ZBHH 272300Z AUTO 07006KT 7SM 13/08 A2994 RMK T01300080 IEM_DS3505
ZBHH,2008-08-28 00:00,ZBHH 280000Z AUTO 09002KT 19SM 17/08 A2994 RMK SLP110 T01730076 52009 IEM_DS3505
ZBHH,2008-08-28 01:00,ZBHH 280100Z AUTO 07006KT 7SM 20/10 A2997 RMK T02000100 IEM_DS3505
ZBHH,2008-08-28 02:00,ZBHH 280200Z AUTO 02002KT 6SM 22/11 A2997 RMK T02200110 IEM_DS3505
ZBHH,2008-08-28 03:00,ZBHH 280300Z AUTO 04004KT 9SM 23/11 A2997 RMK SLP106 T02320113 54000 IEM_DS3505
ZBHH,2008-08-28 04:00,ZBHH 280400Z AUTO 25006KT 6SM 25/13 A2994 RMK T02500130 IEM_DS3505
ZBHH,2008-08-28 05:00,ZBHH 280500Z AUTO 20006KT 6SM 26/14 A2991 RMK T02600140 IEM_DS3505
ZBHH,2008-08-28 06:00,ZBHH 280600Z AUTO 16004KT 9SM 26/13 A2991 RMK SLP082 T02630134 57018 IEM_DS3505
ZBHH,2008-08-28 07:00,ZBHH 280700Z AUTO 10004KT 6SM 27/14 A2988 RMK T02700140 IEM_DS3505
ZBHH,2008-08-28 08:00,ZBHH 280800Z AUTO 22004KT 6SM 27/11 A2985 RMK T02700110 IEM_DS3505
ZBHH,2008-08-28 09:00,ZBHH 280900Z AUTO 14002KT 9SM 27/10 A2985 RMK SLP062 T02720104 57018 IEM_DS3505
ZBHH,2008-08-28 10:00,ZBHH 281000Z AUTO 06002KT 6SM 26/12 A2985 RMK T02600120 IEM_DS3505
ZBHH,2008-08-28 11:00,ZBHH 281100Z AUTO 04004KT 6SM 25/12 A2985 RMK T02500120 IEM_DS3505
ZBHH,2008-08-28 12:00,ZBHH 281200Z AUTO 09004KT 9SM 24/12 A2985 RMK SLP071 T02350125 52008 IEM_DS3505
ZBHH,2008-08-28 13:00,ZBHH 281300Z AUTO 04004KT 6SM 19/14 A2988 RMK T01900140 IEM_DS3505
ZBHH,2008-08-28 14:00,ZBHH 281400Z AUTO 04004KT 6SM 18/13 A2991 RMK T01800130 IEM_DS3505
ZBHH,2008-08-28 15:00,ZBHH 281500Z AUTO 09004KT 9SM 21/11 A2991 RMK SLP077 T02080112 52011 IEM_DS3505
ZBHH,2008-08-28 16:00,ZBHH 281600Z AUTO 04006KT 6SM 17/12 A2991 RMK T01700120 IEM_DS3505
ZBHH,2008-08-28 17:00,ZBHH 281700Z AUTO 36006KT 6SM 19/12 A2991 RMK T01900120 IEM_DS3505
ZBHH,2008-08-28 18:00,ZBHH 281800Z AUTO 04002KT 9SM 21/10 A2991 RMK SLP070 T02070096 54000 IEM_DS3505
ZBHH,2008-08-28 19:00,ZBHH 281900Z AUTO 06004KT 6SM 18/13 A2991 RMK T01800130 IEM_DS3505
ZBHH,2008-08-28 20:00,ZBHH 282000Z AUTO 08006KT 6SM 16/13 A2988 RMK T01600130 IEM_DS3505
ZBHH,2008-08-28 21:00,ZBHH 282100Z AUTO 07002KT 9SM 18/12 A2991 RMK SLP075 T01850116 52002 IEM_DS3505
ZBHH,2008-08-28 22:00,ZBHH 282200Z AUTO 08006KT 7SM 16/13 A2991 RMK T01600130 IEM_DS3505
ZBHH,2008-08-28 23:00,ZBHH 282300Z AUTO 09004KT 7SM 17/14 A2991 RMK T01700140 IEM_DS3505
ZBHH,2008-08-29 00:00,ZBHH 290000Z AUTO 09002KT 6SM 19/13 A2991 RMK SLP084 T01910131 52002 IEM_DS3505
ZBHH,2008-08-29 01:00,ZBHH 290100Z AUTO 13004KT 4SM 19/14 A2991 RMK T01900140 IEM_DS3505
ZBHH,2008-08-29 02:00,ZBHH 290200Z AUTO 15004KT 4SM 20/14 A2991 RMK T02000140 IEM_DS3505
ZBHH,2008-08-29 03:00,ZBHH 290300Z AUTO 22004KT 7SM 23/13 A2988 RMK SLP077 T02260131 57005 IEM_DS3505
ZBHH,2008-08-29 04:00,ZBHH 290400Z AUTO 22016KT 7SM 24/13 A2985 RMK T02400130 IEM_DS3505
ZBHH,2008-08-29 05:00,ZBHH 290500Z AUTO 23010KT 7SM 23/13 A2985 RMK T02300130 IEM_DS3505
ZBHH,2008-08-29 06:00,ZBHH 290600Z AUTO 25010G33KT 6SM 18/15 A2985 RMK 60000 SLP078 T01780152 57008 IEM_DS3505
ZBHH,2008-08-29 07:00,ZBHH 290700Z AUTO 24014KT 7SM 17/14 A2988 RMK T01700140 IEM_DS3505
ZBHH,2008-08-29 08:00,ZBHH 290800Z AUTO 23014KT 7SM 16/13 A2988 RMK T01600130 IEM_DS3505
ZBHH,2008-08-29 09:00,ZBHH 290900Z AUTO 20008KT 6SM 14/12 A2991 RMK SLP104 T01380122 52011 IEM_DS3505
ZBHH,2008-08-29 10:00,ZBHH 291000Z AUTO 21012KT 7SM 13/12 A2991 RMK T01300120 IEM_DS3505
ZBHH,2008-08-29 11:00,ZBHH 291100Z AUTO 21014KT 7SM 13/12 A2994 RMK T01300120 IEM_DS3505
ZBHH,2008-08-29 12:00,ZBHH 291200Z AUTO 20004KT 9SM 13/12 A2997 RMK 60012 SLP123 T01340118 52018 IEM_DS3505
ZBHH,2008-08-29 13:00,ZBHH 291300Z AUTO 20008KT 7SM 13/11 A2997 RMK T01300110 IEM_DS3505
ZBHH,2008-08-29 14:00,ZBHH 291400Z AUTO 20002KT 7SM 12/11 A2997 RMK T01200110 IEM_DS3505
ZBHH,2008-08-29 15:00,ZBHH 291500Z AUTO 20004KT 19SM 13/11 A2997 RMK SLP118 T01290110 52001 IEM_DS3505
ZBHH,2008-08-29 16:00,ZBHH 291600Z AUTO 23002KT 7SM 13/12 A2997 RMK T01300120 IEM_DS3505
ZBHH,2008-08-29 17:00,ZBHH 291700Z AUTO 13002KT 7SM 13/12 A2997 RMK T01300120 IEM_DS3505
ZBHH,2008-08-29 18:00,ZBHH 291800Z AUTO 22004KT 19SM 13/10 A2994 RMK SLP117 T01340104 57009 IEM_DS3505
ZBHH,2008-08-29 19:00,ZBHH 291900Z AUTO 15004KT 7SM 13/12 A2991 RMK T01300120 IEM_DS3505
ZBHH,2008-08-29 20:00,ZBHH 292000Z AUTO 21004KT 7SM 13/11 A2991 RMK T01300110 IEM_DS3505
ZBHH,2008-08-29 21:00,ZBHH 292100Z AUTO 18002KT 16SM 13/11 A2991 RMK 70013 SLP117 T01320107 57008 IEM_DS3505
ZBHH,2008-08-29 22:00,ZBHH 292200Z AUTO 20002KT 7SM 13/11 A2991 RMK T01300110 IEM_DS3505
ZBHH,2008-08-29 23:00,ZBHH 292300Z AUTO 21006KT 5SM 13/12 A2991 RMK T01300120 IEM_DS3505
ZBHH,2008-08-30 00:00,ZBHH 300000Z AUTO 20004KT 9SM 14/11 A2991 RMK 70013 SLP123 T01360113 52005 IEM_DS3505
ZBHH,2008-08-30 01:00,ZBHH 300100Z AUTO 23006KT 4SM 14/12 A2991 RMK T01400120 IEM_DS3505
ZBHH,2008-08-30 02:00,ZBHH 300200Z AUTO 27006KT 6SM 15/11 A2994 RMK T01500110 IEM_DS3505
ZBHH,2008-08-30 03:00,ZBHH 300300Z AUTO 32010KT 19SM 16/06 A2994 RMK SLP121 T01620061 52002 IEM_DS3505
ZBHH,2008-08-30 04:00,ZBHH 300400Z AUTO 33016KT 7SM 15/06 A2994 RMK T01500060 IEM_DS3505
ZBHH,2008-08-30 05:00,ZBHH 300500Z AUTO 33016KT 7SM 15/07 A2994 RMK T01500070 IEM_DS3505
ZBHH,2008-08-30 06:00,ZBHH 300600Z AUTO 32006KT 19SM 15/05 A2994 RMK SLP132 T01540050 52009 IEM_DS3505
ZBHH,2008-08-30 07:00,ZBHH 300700Z AUTO 34014KT 7SM 14/06 A2997 RMK T01400060 IEM_DS3505
ZBHH,2008-08-30 08:00,ZBHH 300800Z AUTO 34010KT 7SM 14/06 A2997 RMK T01400060 IEM_DS3505
ZBHH,2008-08-30 09:00,ZBHH 300900Z AUTO 32006KT 19SM 15/05 A3000 RMK SLP145 T01470052 52010 IEM_DS3505
ZBHH,2008-08-30 10:00,ZBHH 301000Z AUTO 35010KT 7SM 14/06 A3000 RMK T01400060 IEM_DS3505
ZBHH,2008-08-30 11:00,ZBHH 301100Z AUTO 35008KT 7SM 14/06 A3000 RMK T01400060 IEM_DS3505
ZBHH,2008-08-30 12:00,ZBHH 301200Z AUTO 00000KT 19SM 14/05 A3003 RMK SLP161 T01350052 52013 IEM_DS3505
ZBHH,2008-08-30 13:00,ZBHH 301300Z AUTO 35002KT 7SM 13/06 A3006 RMK T01300060 IEM_DS3505
ZBHH,2008-08-30 14:00,ZBHH 301400Z AUTO 35002G14KT 6SM 12/06 A3006 RMK T01200060 IEM_DS3505
ZBHH,2008-08-30 15:00,ZBHH 301500Z AUTO 32004KT 19SM 11/06 A3006 RMK SLP172 T01120059 52010 IEM_DS3505
ZBHH,2008-08-30 16:00,ZBHH 301600Z AUTO 04002KT 6SM 09/07 A3009 RMK T00900070 IEM_DS3505
ZBHH,2008-08-30 17:00,ZBHH 301700Z AUTO 03002KT 6SM 08/06 A3009 RMK T00800060 IEM_DS3505
ZBHH,2008-08-30 18:00,ZBHH 301800Z AUTO 04002KT 19SM 09/04 A3006 RMK SLP179 T00870045 54000 IEM_DS3505
ZBHH,2008-08-30 19:00,ZBHH 301900Z AUTO 03004KT 6SM 07/05 A3006 RMK T00700050 IEM_DS3505
ZBHH,2008-08-30 20:00,ZBHH 302000Z AUTO 04004KT 6SM 06/04 A3006 RMK T00600040 IEM_DS3505
ZBHH,2008-08-30 21:00,ZBHH 302100Z AUTO 00000KT 19SM 07/04 A3006 RMK SLP179 T00660043 57006 IEM_DS3505
ZBHH,2008-08-30 22:00,ZBHH 302200Z AUTO 09004KT 6SM 06/04 A3006 RMK T00600040 IEM_DS3505
ZBHH,2008-08-30 23:00,ZBHH 302300Z AUTO 07004KT 6SM 07/05 A3006 RMK T00700050 IEM_DS3505
ZBHH,2008-08-31 00:00,ZBHH 310000Z AUTO 25002KT 16SM 11/06 A3009 RMK SLP183 T01070061 52009 IEM_DS3505
ZBHH,2008-08-31 01:00,ZBHH 310100Z AUTO 18002KT 6SM 12/05 A3009 RMK T01200050 IEM_DS3505
ZBHH,2008-08-31 02:00,ZBHH 310200Z AUTO 19004KT 6SM 14/05 A3009 RMK T01400050 IEM_DS3505
ZBHH,2008-08-31 03:00,ZBHH 310300Z AUTO 25004KT 19SM 16/04 A3006 RMK SLP174 T01560043 57002 IEM_DS3505
ZBHH,2008-08-31 04:00,ZBHH 310400Z AUTO 24006KT 6SM 17/04 A3006 RMK T01700040 IEM_DS3505
ZBHH,2008-08-31 05:00,ZBHH 310500Z AUTO 23006KT 6SM 19/06 A3003 RMK T01900060 IEM_DS3505
ZBHH,2008-08-31 06:00,ZBHH 310600Z AUTO 20004KT 19SM 19/06 A3003 RMK SLP151 T01940065 57018 IEM_DS3505
ZBHH,2008-08-31 07:00,ZBHH 310700Z AUTO 18008KT 6SM 20/06 A3000 RMK T02000060 IEM_DS3505
ZBHH,2008-08-31 08:00,ZBHH 310800Z AUTO 23010KT 6SM 20/06 A3000 RMK T02000060 IEM_DS3505
ZBHH,2008-08-31 09:00,ZBHH 310900Z AUTO 25008KT 19SM 20/06 A2997 RMK SLP143 T02030059 57010 IEM_DS3505
ZBHH,2008-08-31 10:00,ZBHH 311000Z AUTO 21008KT 6SM 19/07 A2997 RMK T01900070 IEM_DS3505
ZBHH,2008-08-31 11:00,ZBHH 311100Z AUTO 18004KT 6SM 16/09 A3000 RMK T01600090 IEM_DS3505
ZBHH,2008-08-31 12:00,ZBHH 311200Z AUTO 22002KT 19SM 18/06 A3000 RMK SLP145 T01750061 52005 IEM_DS3505
ZBHH,2008-08-31 13:00,ZBHH 311300Z AUTO 03006KT 6SM 13/09 A3003 RMK T01300090 IEM_DS3505
ZBHH,2008-08-31 14:00,ZBHH 311400Z AUTO 06006KT 6SM 11/08 A3003 RMK T01100080 IEM_DS3505
ZBHH,2008-08-31 15:00,ZBHH 311500Z AUTO 07002KT 19SM 13/08 A3003 RMK SLP150 T01320079 52005 IEM_DS3505
ZBHH,2008-08-31 16:00,ZBHH 311600Z AUTO 06004KT 6SM 10/08 A3003 RMK T01000080 IEM_DS3505
ZBHH,2008-08-31 17:00,ZBHH 311700Z AUTO 05004KT 6SM 10/07 A3003 RMK T01000070 IEM_DS3505
ZBHH,2008-08-31 18:00,ZBHH 311800Z AUTO 00000KT 19SM 10/08 A3003 RMK SLP146 T01050077 57001 IEM_DS3505
ZBHH,2008-08-31 19:00,ZBHH 311900Z AUTO 08004KT 6SM 09/06 A3003 RMK T00900060 IEM_DS3505
ZBHH,2008-08-31 20:00,ZBHH 312000Z AUTO 07004KT 6SM 08/06 A3000 RMK T00800060 IEM_DS3505
ZBHH,2008-08-31 21:00,ZBHH 312100Z AUTO 11002KT 19SM 09/06 A3000 RMK SLP145 T00890063 57002 IEM_DS3505
ZBHH,2008-08-31 22:00,ZBHH 312200Z AUTO 09004KT 6SM 07/05 A3003 RMK T00700050 IEM_DS3505
ZBHH,2008-08-31 23:00,ZBHH 312300Z AUTO 05004KT 6SM 09/07 A3003 RMK T00900070 IEM_DS3505
ZBHH,2008-09-01 00:00,ZBHH 010000Z AUTO 07002KT 19SM 14/07 A3003 RMK SLP153 T01410069 52011 IEM_DS3505
ZBHH,2008-09-01 01:00,ZBHH 010100Z AUTO 16002KT 6SM 16/07 A3006 RMK T01600070 IEM_DS3505
ZBHH,2008-09-01 02:00,ZBHH 010200Z AUTO 17004KT 6SM 17/07 A3006 RMK T01700070 IEM_DS3505
ZBHH,2008-09-01 03:00,ZBHH 010300Z AUTO 14002KT 19SM 18/07 A3003 RMK SLP149 T01850073 57003 IEM_DS3505
ZBHH,2008-09-01 04:00,ZBHH 010400Z AUTO 20004KT 6SM 20/07 A3000 RMK T02000070 IEM_DS3505
ZBHH,2008-09-01 05:00,ZBHH 010500Z AUTO 6SM 21/08 A3000 RMK T02100080 IEM_DS3505
ZBHH,2008-09-01 06:00,ZBHH 010600Z AUTO 22006KT 19SM 22/08 A2997 RMK SLP129 T02200085 57016 IEM_DS3505
ZBHH,2008-09-01 07:00,ZBHH 010700Z AUTO 21006KT 6SM 23/08 A2997 RMK T02300080 IEM_DS3505
ZBHH,2008-09-01 08:00,ZBHH 010800Z AUTO 23006KT 6SM 24/09 A2994 RMK T02400090 IEM_DS3505
ZBHH,2008-09-01 09:00,ZBHH 010900Z AUTO 20006KT 19SM 23/09 A2994 RMK SLP115 T02300087 57014 IEM_DS3505
ZBHH,2008-09-01 10:00,ZBHH 011000Z AUTO 24006KT 6SM 22/09 A2994 RMK T02200090 IEM_DS3505
ZBHH,2008-09-01 11:00,ZBHH 011100Z AUTO 24004KT 6SM 20/10 A2994 RMK T02000100 IEM_DS3505
ZBHH,2008-09-01 12:00,ZBHH 011200Z AUTO 32002KT 19SM 20/10 A2997 RMK SLP117 T02040096 52007 IEM_DS3505
ZBHH,2008-09-01 13:00,ZBHH 011300Z AUTO 06006KT 6SM 15/11 A2997 RMK T01500110 IEM_DS3505
ZBHH,2008-09-01 14:00,ZBHH 011400Z AUTO 06006KT 6SM 14/11 A3000 RMK T01400110 IEM_DS3505
ZBHH,2008-09-01 15:00,ZBHH 011500Z AUTO 11002KT 19SM 16/11 A3000 RMK SLP127 T01560106 52008 IEM_DS3505
ZBHH,2008-09-01 16:00,ZBHH 011600Z AUTO 07004KT 6SM 13/10 A3000 RMK T01300100 IEM_DS3505
ZBHH,2008-09-01 17:00,ZBHH 011700Z AUTO 06004KT 6SM 12/10 A3000 RMK T01200100 IEM_DS3505
ZBHH,2008-09-01 18:00,ZBHH 011800Z AUTO 27002KT 19SM 13/10 A3000 RMK SLP125 T01330099 52001 IEM_DS3505
ZBHH,2008-09-01 19:00,ZBHH 011900Z AUTO 07004KT 6SM 11/09 A3000 RMK T01100090 IEM_DS3505
ZBHH,2008-09-01 20:00,ZBHH 012000Z AUTO 07006KT 6SM 11/09 A3000 RMK T01100090 IEM_DS3505
ZBHH,2008-09-01 21:00,ZBHH 012100Z AUTO 09002KT 19SM 12/09 A3000 RMK SLP131 T01170087 52004 IEM_DS3505
ZBHH,2008-09-01 22:00,ZBHH 012200Z AUTO 06004KT 6SM 11/08 A3000 RMK T01100080 IEM_DS3505
ZBHH,2008-09-01 23:00,ZBHH 012300Z AUTO 06004KT 6SM 12/10 A3003 RMK T01200100 IEM_DS3505
ZBHH,2008-09-02 00:00,ZBHH 020000Z AUTO 00000KT 19SM 16/10 A3003 RMK SLP133 T01650097 52006 IEM_DS3505
ZBHH,2008-09-02 01:00,ZBHH 020100Z AUTO 10004KT 6SM 19/10 A3000 RMK T01900100 IEM_DS3505
ZBHH,2008-09-02 02:00,ZBHH 020200Z AUTO 20002KT 6SM 21/10 A3003 RMK T02100100 IEM_DS3505
ZBHH,2008-09-02 03:00,ZBHH 020300Z AUTO 02004KT 9SM 22/07 A3000 RMK SLP129 T02220068 57002 IEM_DS3505
ZBHH,2008-09-02 04:00,ZBHH 020400Z AUTO 20002KT 7SM 23/10 A3000 RMK T02300100 IEM_DS3505
ZBHH,2008-09-02 05:00,ZBHH 020500Z AUTO 28002KT 7SM 24/09 A2997 RMK T02400090 IEM_DS3505
ZBHH,2008-09-02 06:00,ZBHH 020600Z AUTO 25002KT 9SM 24/08 A2997 RMK SLP111 T02450076 57016 IEM_DS3505
ZBHH,2008-09-02 07:00,ZBHH 020700Z AUTO 24006KT 7SM 25/08 A2994 RMK T02500080 IEM_DS3505
ZBHH,2008-09-02 08:00,ZBHH 020800Z AUTO 22006KT 7SM 25/07 A2994 RMK T02500070 IEM_DS3505
ZBHH,2008-09-02 09:00,ZBHH 020900Z AUTO 20002KT 9SM 24/07 A2994 RMK SLP106 T02440067 57008 IEM_DS3505
ZBHH,2008-09-02 10:00,ZBHH 021000Z AUTO 20002KT 7SM 23/11 A2994 RMK T02300110 IEM_DS3505
ZBHH,2008-09-02 11:00,ZBHH 021100Z AUTO 20002KT 7SM 21/13 A2994 RMK T02100130 IEM_DS3505
ZBHH,2008-09-02 12:00,ZBHH 021200Z AUTO 32002KT 19SM 20/10 A2994 RMK SLP107 T01970099 52001 IEM_DS3505
ZBHH,2008-09-02 13:00,ZBHH 021300Z AUTO 06004KT 7SM 17/12 A2994 RMK T01700120 IEM_DS3505
ZBHH,2008-09-02 14:00,ZBHH 021400Z AUTO 06004KT 7SM 16/11 A2997 RMK T01600110 IEM_DS3505
ZBHH,2008-09-02 15:00,ZBHH 021500Z AUTO 09002KT 19SM 17/09 A2997 RMK SLP109 T01730087 52008 IEM_DS3505
ZBHH,2008-09-02 16:00,ZBHH 021600Z AUTO 08004KT 7SM 15/11 A2997 RMK T01500110 IEM_DS3505
ZBHH,2008-09-02 17:00,ZBHH 021700Z AUTO 08004KT 7SM 15/11 A2997 RMK T01500110 IEM_DS3505
ZBHH,2008-09-02 18:00,ZBHH 021800Z AUTO 09002KT 19SM 17/09 A2994 RMK SLP101 T01660093 57004 IEM_DS3505
ZBHH,2008-09-02 19:00,ZBHH 021900Z AUTO 08002KT 7SM 14/11 A2994 RMK T01400110 IEM_DS3505
ZBHH,2008-09-02 20:00,ZBHH 022000Z AUTO 06004KT 7SM 13/11 A2994 RMK T01300110 IEM_DS3505
ZBHH,2008-09-02 21:00,ZBHH 022100Z AUTO 22004KT 19SM 15/11 A2997 RMK SLP108 T01520108 52004 IEM_DS3505
ZBHH,2008-09-02 22:00,ZBHH 022200Z AUTO 15002KT 7SM 13/11 A2997 RMK T01300110 IEM_DS3505
ZBHH,2008-09-02 23:00,ZBHH 022300Z AUTO 10008KT 7SM 14/12 A2994 RMK T01400120 IEM_DS3505
ZBHH,2008-09-03 00:00,ZBHH 030000Z AUTO 07002KT 12SM 15/11 A2994 RMK 60000 70000 SLP115 T01520112 57003 IEM_DS3505
ZBHH,2008-09-03 01:00,ZBHH 030100Z AUTO 05002KT 7SM 17/11 A2994 RMK T01700110 IEM_DS3505
ZBHH,2008-09-03 02:00,ZBHH 030200Z AUTO 21004KT 7SM 18/11 A2994 RMK T01800110 IEM_DS3505
ZBHH,2008-09-03 03:00,ZBHH 030300Z AUTO 18004KT 12SM 19/11 A2994 RMK SLP104 T01910112 57007 IEM_DS3505
ZBHH,2008-09-03 04:00,ZBHH 030400Z AUTO 7SM 20/11 A2991 RMK T02000110 IEM_DS3505
ZBHH,2008-09-03 05:00,ZBHH 030500Z AUTO 24008KT 7SM 21/11 A2988 RMK T02100110 IEM_DS3505
ZBHH,2008-09-03 06:00,ZBHH 030600Z AUTO 20006KT 12SM 23/11 A2985 RMK SLP066 T02280112 57028 IEM_DS3505
ZBHH,2008-09-03 07:00,ZBHH 030700Z AUTO 25010KT 7SM 24/10 A2980 RMK T02400100 IEM_DS3505
ZBHH,2008-09-03 08:00,ZBHH 030800Z AUTO 24012KT 7SM 24/09 A2980 RMK T02400090 IEM_DS3505
ZBHH,2008-09-03 09:00,ZBHH 030900Z AUTO 25010KT 9SM 19/10 A2980 RMK SLP073 T01940096 57003 IEM_DS3505
ZBHH,2008-09-03 10:00,ZBHH 031000Z AUTO 36010KT 7SM 14/11 A2988 RMK T01400110 IEM_DS3505
ZBHH,2008-09-03 11:00,ZBHH 031100Z AUTO 17006KT 7SM 14/11 A2994 RMK T01400110 IEM_DS3505
ZBHH,2008-09-03 12:00,ZBHH 031200Z AUTO 07002KT 19SM 14/10 A2991 RMK 60012 SLP111 T01410099 52024 IEM_DS3505
ZBHH,2008-09-03 13:00,ZBHH 031300Z AUTO 35004KT 7SM 13/11 A2994 RMK T01300110 IEM_DS3505
ZBHH,2008-09-03 14:00,ZBHH 031400Z AUTO 35004KT 6SM 13/10 A2991 RMK T01300100 IEM_DS3505
ZBHH,2008-09-03 15:00,ZBHH 031500Z AUTO 11002KT 19SM 12/09 A2991 RMK SLP101 T01240094 57005 IEM_DS3505
ZBHH,2008-09-03 16:00,ZBHH 031600Z AUTO 22004KT 7SM 11/09 A2994 RMK T01100090 IEM_DS3505
ZBHH,2008-09-03 17:00,ZBHH 031700Z AUTO 07008KT 7SM 12/10 A2985 RMK T01200100 IEM_DS3505
ZBHH,2008-09-03 18:00,ZBHH 031800Z AUTO 14002KT 19SM 12/10 A2988 RMK 60008 SLP094 T01170099 54000 IEM_DS3505
ZBHH,2008-09-03 19:00,ZBHH 031900Z AUTO 36006KT 6SM 11/09 A2988 RMK T01100090 IEM_DS3505
ZBHH,2008-09-03 20:00,ZBHH 032000Z AUTO 04004KT 6SM 11/09 A2988 RMK T01100090 IEM_DS3505
ZBHH,2008-09-03 21:00,ZBHH 032100Z AUTO 22002KT 19SM 10/09 A2985 RMK 70017 SLP094 T00990087 57010 IEM_DS3505
ZBHH,2008-09-03 22:00,ZBHH 032200Z AUTO 09004KT 6SM 10/08 A2985 RMK T01000080 IEM_DS3505
ZBHH,2008-09-03 23:00,ZBHH 032300Z AUTO 08004KT 6SM 10/08 A2985 RMK T01000080 IEM_DS3505
ZBHH,2008-09-04 00:00,ZBHH 040000Z AUTO 02002KT 19SM 12/10 A2985 RMK 70017 SLP099 T01250097 57001 IEM_DS3505
ZBHH,2008-09-04 01:00,ZBHH 040100Z AUTO 10004KT 7SM 14/10 A2985 RMK T01400100 IEM_DS3505
ZBHH,2008-09-04 02:00,ZBHH 040200Z AUTO 10002KT 7SM 15/09 A2985 RMK T01500090 IEM_DS3505
ZBHH,2008-09-04 03:00,ZBHH 040300Z AUTO 29002KT 19SM 17/10 A2985 RMK SLP090 T01690098 57003 IEM_DS3505
ZBHH,2008-09-04 04:00,ZBHH 040400Z AUTO 25004KT 7SM 18/11 A2983 RMK T01800110 IEM_DS3505
ZBHH,2008-09-04 05:00,ZBHH 040500Z AUTO 21004KT 7SM 20/12 A2980 RMK T02000120 IEM_DS3505
ZBHH,2008-09-04 06:00,ZBHH 040600Z AUTO 20008KT 19SM 21/10 A2977 RMK SLP055 T02140103 57023 IEM_DS3505
ZBHH,2008-09-04 07:00,ZBHH 040700Z AUTO 24008KT 7SM 23/11 A2974 RMK T02300110 IEM_DS3505
ZBHH,2008-09-04 08:00,ZBHH 040800Z AUTO 24010KT 7SM 23/11 A2974 RMK T02300110 IEM_DS3505
ZBHH,2008-09-04 09:00,ZBHH 040900Z AUTO 20008KT 19SM 23/10 A2974 RMK SLP048 T02260097 57008 IEM_DS3505
ZBHH,2008-09-04 10:00,ZBHH 041000Z AUTO 25023G35KT 7SM 19/06 A2977 RMK T01900060 IEM_DS3505
ZBHH,2008-09-04 11:00,ZBHH 041100Z AUTO 28010KT 7SM 19/05 A2977 RMK T01900050 IEM_DS3505
ZBHH,2008-09-04 12:00,ZBHH 041200Z AUTO 32006KT 19SM 19/04 A2983 RMK SLP072 T01870037 52019 IEM_DS3505
ZBHH,2008-09-04 13:00,ZBHH 041300Z AUTO 31004KT 6SM 15/09 A2985 RMK T01500090 IEM_DS3505
ZBHH,2008-09-04 14:00,ZBHH 041400Z AUTO 35004KT 6SM 15/07 A2985 RMK T01500070 IEM_DS3505
ZBHH,2008-09-04 15:00,ZBHH 041500Z AUTO 25002KT 19SM 15/07 A2988 RMK SLP095 T01480074 52021 IEM_DS3505
ZBHH,2008-09-04 16:00,ZBHH 041600Z AUTO 06004KT 6SM 11/08 A2988 RMK T01100080 IEM_DS3505
ZBHH,2008-09-04 17:00,ZBHH 041700Z AUTO 06002KT 6SM 10/08 A2991 RMK T01000080 IEM_DS3505
ZBHH,2008-09-04 18:00,ZBHH 041800Z AUTO 00000KT 19SM 13/08 A2991 RMK SLP100 T01260081 52009 IEM_DS3505
ZBHH,2008-09-04 19:00,ZBHH 041900Z AUTO 07004KT 6SM 09/07 A2991 RMK T00900070 IEM_DS3505
ZBHH,2008-09-04 20:00,ZBHH 042000Z AUTO 09004KT 6SM 09/07 A2991 RMK T00900070 IEM_DS3505
ZBHH,2008-09-04 21:00,ZBHH 042100Z AUTO 09002KT 19SM 10/08 A2991 RMK SLP108 T01030077 52005 IEM_DS3505
ZBHH,2008-09-04 22:00,ZBHH 042200Z AUTO 06004KT 6SM 08/06 A2994 RMK T00800060 IEM_DS3505
ZBHH,2008-09-04 23:00,ZBHH 042300Z AUTO 02004KT 6SM 10/08 A2994 RMK T01000080 IEM_DS3505
ZBHH,2008-09-05 00:00,ZBHH 050000Z AUTO 11002KT 19SM 14/08 A2997 RMK SLP123 T01450082 52014 IEM_DS3505
ZBHH,2008-09-05 01:00,ZBHH 050100Z AUTO 14002KT 6SM 18/11 A2997 RMK T01800110 IEM_DS3505
ZBHH,2008-09-05 02:00,ZBHH 050200Z AUTO 17004KT 6SM 18/10 A3000 RMK T01800100 IEM_DS3505
ZBHH,2008-09-05 03:00,ZBHH 050300Z AUTO 22004KT 19SM 19/08 A3000 RMK SLP130 T01880085 52007 IEM_DS3505
ZBHH,2008-09-05 04:00,ZBHH 050400Z AUTO 23008KT 6SM 20/09 A2997 RMK T02000090 IEM_DS3505
ZBHH,2008-09-05 05:00,ZBHH 050500Z AUTO 22008KT 6SM 21/09 A2994 RMK T02100090 IEM_DS3505
ZBHH,2008-09-05 06:00,ZBHH 050600Z AUTO 25008KT 19SM 22/07 A2994 RMK SLP108 T02230069 57017 IEM_DS3505
ZBHH,2008-09-05 07:00,ZBHH 050700Z AUTO 23014KT 7SM 24/08 A2991 RMK T02400080 IEM_DS3505
ZBHH,2008-09-05 08:00,ZBHH 050800Z AUTO 24016KT 6SM 24/06 A2991 RMK T02400060 IEM_DS3505
ZBHH,2008-09-05 09:00,ZBHH 050900Z AUTO 25004KT 19SM 24/06 A2991 RMK SLP100 T02440057 57008 IEM_DS3505
ZBHH,2008-09-05 10:00,ZBHH 051000Z AUTO 03008KT 6SM 20/10 A2991 RMK T02000100 IEM_DS3505
ZBHH,2008-09-05 11:00,ZBHH 051100Z AUTO 10004KT 6SM 17/11 A2994 RMK T01700110 IEM_DS3505
ZBHH,2008-09-05 12:00,ZBHH 051200Z AUTO 09004KT 19SM 19/10 A2997 RMK SLP121 T01910104 52017 IEM_DS3505
ZBHH,2008-09-05 13:00,ZBHH 051300Z AUTO 05006KT 6SM 15/11 A3000 RMK T01500110 IEM_DS3505
ZBHH,2008-09-05 14:00,ZBHH 051400Z AUTO 05004KT 6SM 15/11 A3000 RMK T01500110 IEM_DS3505
ZBHH,2008-09-05 15:00,ZBHH 051500Z AUTO 09002KT 19SM 16/10 A3000 RMK SLP133 T01620105 52013 IEM_DS3505
ZBHH,2008-09-05 16:00,ZBHH 051600Z AUTO 07006KT 6SM 13/10 A3000 RMK T01300100 IEM_DS3505
ZBHH,2008-09-05 17:00,ZBHH 051700Z AUTO 06006KT 6SM 13/10 A3003 RMK T01300100 IEM_DS3505
ZBHH,2008-09-05 18:00,ZBHH 051800Z AUTO 32002KT 19SM 14/08 A3003 RMK SLP134 T01420084 52004 IEM_DS3505
ZBHH,2008-09-05 19:00,ZBHH 051900Z AUTO 05004KT 6SM 13/09 A3003 RMK T01300090 IEM_DS3505
ZBHH,2008-09-05 20:00,ZBHH 052000Z AUTO 04004KT 6SM 13/09 A3003 RMK T01300090 IEM_DS3505
ZBHH,2008-09-05 21:00,ZBHH 052100Z AUTO 20002KT 19SM 13/07 A3003 RMK SLP139 T01270072 52005 IEM_DS3505
ZBHH,2008-09-05 22:00,ZBHH 052200Z AUTO 07006KT 6SM 11/08 A3003 RMK T01100080 IEM_DS3505
ZBHH,2008-09-05 23:00,ZBHH 052300Z AUTO 06004KT 7SM 12/10 A3009 RMK T01200100 IEM_DS3505
ZBHH,2008-09-06 00:00,ZBHH 060000Z AUTO 20002KT 19SM 15/08 A3009 RMK SLP164 T01540079 52018 IEM_DS3505
ZBHH,2008-09-06 01:00,ZBHH 060100Z AUTO 08012KT 7SM 17/08 A3009 RMK T01700080 IEM_DS3505
ZBHH,2008-09-06 02:00,ZBHH 060200Z AUTO 09010KT 7SM 20/08 A3009 RMK T02000080 IEM_DS3505
ZBHH,2008-09-06 03:00,ZBHH 060300Z AUTO 07004KT 16SM 21/08 A3009 RMK SLP160 T02130075 52002 IEM_DS3505
ZBHH,2008-09-06 04:00,ZBHH 060400Z AUTO 12004KT 7SM 22/07 A3006 RMK T02200070 IEM_DS3505
ZBHH,2008-09-06 05:00,ZBHH 060500Z AUTO 05004KT 7SM 24/08 A3006 RMK T02400080 IEM_DS3505
ZBHH,2008-09-06 06:00,ZBHH 060600Z AUTO 34002KT 19SM 24/08 A3003 RMK SLP136 T02450081 57019 IEM_DS3505
ZBHH,2008-09-06 07:00,ZBHH 060700Z AUTO 25006KT 7SM 25/09 A3003 RMK T02500090 IEM_DS3505
ZBHH,2008-09-06 08:00,ZBHH 060800Z AUTO 26004KT 7SM 24/09 A3003 RMK T02400090 IEM_DS3505
ZBHH,2008-09-06 09:00,ZBHH 060900Z AUTO 29002KT 16SM 24/09 A3003 RMK SLP136 T02370089 57005 IEM_DS3505
ZBHH,2008-09-06 10:00,ZBHH 061000Z AUTO 34004KT 7SM 23/11 A3003 RMK T02300110 IEM_DS3505
ZBHH,2008-09-06 11:00,ZBHH 061100Z AUTO 05002KT 7SM 21/13 A3006 RMK T02100130 IEM_DS3505
ZBHH,2008-09-06 12:00,ZBHH 061200Z AUTO 00000KT 16SM 22/12 A3006 RMK SLP151 T02180118 52015 IEM_DS3505
ZBHH,2008-09-06 13:00,ZBHH 061300Z AUTO 03008KT 7SM 19/13 A3006 RMK T01900130 IEM_DS3505
ZBHH,2008-09-06 14:00,ZBHH 061400Z AUTO 03002KT 7SM 18/13 A3009 RMK T01800130 IEM_DS3505
ZBHH,2008-09-06 15:00,ZBHH 061500Z AUTO 04002KT 16SM 20/12 A3009 RMK SLP146 T01960124 52003 IEM_DS3505
ZBHH,2008-09-06 16:00,ZBHH 061600Z AUTO 06002KT 7SM 17/13 A3012 RMK T01700130 IEM_DS3505
ZBHH,2008-09-06 17:00,ZBHH 061700Z AUTO 22014KT 7SM 18/12 A3015 RMK T01800120 IEM_DS3505
ZBHH,2008-09-06 18:00,ZBHH 061800Z AUTO 22006KT 12SM 16/11 A3021 RMK SLP186 T01600110 52034 IEM_DS3505
ZBHH,2008-09-06 19:00,ZBHH 061900Z AUTO 09002KT 7SM 15/12 A3018 RMK T01500120 IEM_DS3505
ZBHH,2008-09-06 20:00,ZBHH 062000Z AUTO 10002KT 7SM 15/12 A3021 RMK T01500120 IEM_DS3505
ZBHH,2008-09-06 21:00,ZBHH 062100Z AUTO 27002KT 12SM 15/12 A3021 RMK 70000 SLP198 T01500116 52008 IEM_DS3505
ZBHH,2008-09-06 22:00,ZBHH 062200Z AUTO 05006KT 7SM 14/12 A3021 RMK T01400120 IEM_DS3505
ZBHH,2008-09-06 23:00,ZBHH 062300Z AUTO 02006KT 7SM 15/12 A3021 RMK T01500120 IEM_DS3505
ZBHH,2008-09-07 00:00,ZBHH 070000Z AUTO 14002KT 4SM 15/12 A3021 RMK 60002 70002 SLP208 T01470122 52004 IEM_DS3505
ZBHH,2008-09-07 01:00,ZBHH 070100Z AUTO 36004KT 7SM 16/13 A3021 RMK T01600130 IEM_DS3505
ZBHH,2008-09-07 02:00,ZBHH 070200Z AUTO 01008KT 7SM 17/12 A3018 RMK T01700120 IEM_DS3505
ZBHH,2008-09-07 03:00,ZBHH 070300Z AUTO 14002KT 9SM 19/11 A3018 RMK SLP187 T01880114 57015 IEM_DS3505
ZBHH,2008-09-07 04:00,ZBHH 070400Z AUTO 12006KT 7SM 21/11 A3018 RMK T02100110 IEM_DS3505
ZBHH,2008-09-07 05:00,ZBHH 070500Z AUTO 23008KT 7SM 21/11 A3018 RMK T02100110 IEM_DS3505
ZBHH,2008-09-07 06:00,ZBHH 070600Z AUTO 36006KT 9SM 20/11 A3015 RMK 60000 SLP183 T02050114 57007 IEM_DS3505
ZBHH,2008-09-07 07:00,ZBHH 070700Z AUTO 31006KT 7SM 23/09 A3012 RMK T02300090 IEM_DS3505
ZBHH,2008-09-07 08:00,ZBHH 070800Z AUTO 22004KT 7SM 22/11 A3012 RMK T02200110 IEM_DS3505
ZBHH,2008-09-07 09:00,ZBHH 070900Z AUTO 27004KT 9SM 23/11 A3012 RMK SLP162 T02290113 57016 IEM_DS3505
ZBHH,2008-09-07 10:00,ZBHH 071000Z AUTO 13004KT 7SM 21/13 A3012 RMK T02100130 IEM_DS3505
ZBHH,2008-09-07 11:00,ZBHH 071100Z AUTO 12004KT 6SM 19/13 A3012 RMK T01900130 IEM_DS3505
ZBHH,2008-09-07 12:00,ZBHH 071200Z AUTO 09004KT 19SM 20/11 A3015 RMK SLP181 T01960106 52010 IEM_DS3505
ZBHH,2008-09-07 13:00,ZBHH 071300Z AUTO 09006KT 6SM 16/12 A3015 RMK T01600120 IEM_DS3505
ZBHH,2008-09-07 14:00,ZBHH 071400Z AUTO 05004KT 6SM 15/12 A3015 RMK T01500120 IEM_DS3505
ZBHH,2008-09-07 15:00,ZBHH 071500Z AUTO 32002KT 12SM 16/11 A3018 RMK SLP191 T01580110 52010 IEM_DS3505
ZBHH,2008-09-07 16:00,ZBHH 071600Z AUTO 08004KT 6SM 13/10 A3018 RMK T01300100 IEM_DS3505
ZBHH,2008-09-07 17:00,ZBHH 071700Z AUTO 06006KT 6SM 12/10 A3015 RMK T01200100 IEM_DS3505
ZBHH,2008-09-07 18:00,ZBHH 071800Z AUTO 11002KT 12SM 13/10 A3015 RMK SLP186 T01340100 57006 IEM_DS3505
ZBHH,2008-09-07 19:00,ZBHH 071900Z AUTO 06006KT 6SM 12/10 A3015 RMK T01200100 IEM_DS3505
ZBHH,2008-09-07 20:00,ZBHH 072000Z AUTO 05006KT 6SM 12/09 A3015 RMK T01200090 IEM_DS3505
ZBHH,2008-09-07 21:00,ZBHH 072100Z AUTO 09002KT 12SM 12/09 A3015 RMK 70004 SLP178 T01230093 57005 IEM_DS3505
ZBHH,2008-09-07 22:00,ZBHH 072200Z AUTO 07006KT 6SM 11/09 A3015 RMK T01100090 IEM_DS3505
ZBHH,2008-09-07 23:00,ZBHH 072300Z AUTO 06004KT 7SM 13/10 A3015 RMK T01300100 IEM_DS3505
ZBHH,2008-09-08 00:00,ZBHH 080000Z AUTO 09002KT 9SM 15/10 A3015 RMK 70001 SLP178 T01540104 54000 IEM_DS3505
ZBHH,2008-09-08 01:00,ZBHH 080100Z AUTO 07004KT 5SM 17/12 A3012 RMK T01700120 IEM_DS3505
ZBHH,2008-09-08 02:00,ZBHH 080200Z AUTO 12004KT 7SM 19/12 A3012 RMK T01900120 IEM_DS3505
ZBHH,2008-09-08 03:00,ZBHH 080300Z AUTO 00000KT 9SM 19/11 A3009 RMK SLP165 T01930111 57011 IEM_DS3505
ZBHH,2008-09-08 04:00,ZBHH 080400Z AUTO 17006KT 6SM 22/11 A3006 RMK T02200110 IEM_DS3505
ZBHH,2008-09-08 05:00,ZBHH 080500Z AUTO 19008KT 7SM 23/12 A3003 RMK T02300120 IEM_DS3505
ZBHH,2008-09-08 06:00,ZBHH 080600Z AUTO 29002KT 9SM 20/12 A3000 RMK SLP136 T02020117 57029 IEM_DS3505
ZBHH,2008-09-08 07:00,ZBHH 080700Z AUTO 27006KT 7SM 22/12 A2997 RMK T02200120 IEM_DS3505
ZBHH,2008-09-08 08:00,ZBHH 080800Z AUTO 30004KT 5SM 20/13 A2997 RMK T02000130 IEM_DS3505
ZBHH,2008-09-08 09:00,ZBHH 080900Z AUTO 25010KT 6SM 17/14 A2997 RMK SLP138 T01680143 57007 IEM_DS3505
ZBHH,2008-09-08 10:00,ZBHH 081000Z AUTO 26010KT 2SM 16/15 A2997 RMK T01600150 IEM_DS3505
ZBHH,2008-09-08 11:00,ZBHH 081100Z AUTO 24004KT 1 1/2SM 16/15 A3000 RMK T01600150 IEM_DS3505
ZBHH,2008-09-08 12:00,ZBHH 081200Z AUTO 25002KT 19SM 16/15 A3000 RMK 60031 SLP139 T01610148 52006 IEM_DS3505
ZBHH,2008-09-08 13:00,ZBHH 081300Z AUTO 23004KT 1 1/2SM 16/15 A3000 RMK T01600150 IEM_DS3505
ZBHH,2008-09-08 14:00,ZBHH 081400Z AUTO 17004KT 1SM 16/15 A3000 RMK T01600150 IEM_DS3505
ZBHH,2008-09-08 15:00,ZBHH 081500Z AUTO 20004KT 6SM 16/15 A2997 RMK SLP125 T01580148 57006 IEM_DS3505
ZBHH,2008-09-08 16:00,ZBHH 081600Z AUTO 20006KT 1SM 15/14 A2997 RMK T01500140 IEM_DS3505
ZBHH,2008-09-08 17:00,ZBHH 081700Z AUTO 15004KT 1SM 15/14 A2997 RMK T01500140 IEM_DS3505
ZBHH,2008-09-08 18:00,ZBHH 081800Z AUTO 25004KT 6SM 16/14 A2994 RMK 60028 SLP114 T01550145 57008 IEM_DS3505
ZBHH,2008-09-08 19:00,ZBHH 081900Z AUTO 23006KT 1 1/2SM 15/15 A2994 RMK T01500150 IEM_DS3505
ZBHH,2008-09-08 20:00,ZBHH 082000Z AUTO 22004KT 1 1/4SM 16/15 A2997 RMK T01600150 IEM_DS3505
ZBHH,2008-09-08 21:00,ZBHH 082100Z AUTO 25004KT 12SM 16/15 A2994 RMK 70057 SLP120 T01570147 57001 IEM_DS3505
ZBHH,2008-09-08 22:00,ZBHH 082200Z AUTO 24006KT 1SM 16/15 A2997 RMK T01600150 IEM_DS3505
ZBHH,2008-09-08 23:00,ZBHH 082300Z AUTO 25006KT 1SM 16/15 A2997 RMK T01600150 IEM_DS3505
ZBHH,2008-09-09 00:00,ZBHH 090000Z AUTO 22004KT 6SM 16/08 A3000 RMK 60000 70057 SLP135 T01640084 52013 IEM_DS3505
ZBHH,2008-09-09 01:00,ZBHH 090100Z AUTO 21002KT 5SM 18/14 A3000 RMK T01800140 IEM_DS3505
ZBHH,2008-09-09 02:00,ZBHH 090200Z AUTO 24002KT 6SM 19/12 A3003 RMK T01900120 IEM_DS3505
ZBHH,2008-09-09 03:00,ZBHH 090300Z AUTO 18004KT 9SM 19/12 A3000 RMK SLP138 T01890124 52007 IEM_DS3505
ZBHH,2008-09-09 04:00,ZBHH 090400Z AUTO 20004KT 6SM 21/11 A3000 RMK T02100110 IEM_DS3505
ZBHH,2008-09-09 05:00,ZBHH 090500Z AUTO 6SM 21/11 A2997 RMK T02100110 IEM_DS3505
ZBHH,2008-09-09 06:00,ZBHH 090600Z AUTO 20006KT 9SM 22/11 A2994 RMK SLP115 T02160107 57016 IEM_DS3505
ZBHH,2008-09-09 07:00,ZBHH 090700Z AUTO 23010KT 7SM 21/11 A2997 RMK T02100110 IEM_DS3505
ZBHH,2008-09-09 08:00,ZBHH 090800Z AUTO 24010KT 7SM 21/10 A2997 RMK T02100100 IEM_DS3505
ZBHH,2008-09-09 09:00,ZBHH 090900Z AUTO 25006KT 6SM 20/08 A3000 RMK SLP127 T02010078 52008 IEM_DS3505
ZBHH,2008-09-09 10:00,ZBHH 091000Z AUTO 25010KT 7SM 19/09 A3000 RMK T01900090 IEM_DS3505
ZBHH,2008-09-09 11:00,ZBHH 091100Z AUTO 29010G27KT 7SM 20/03 A3003 RMK T02000030 IEM_DS3505
ZBHH,2008-09-09 12:00,ZBHH 091200Z AUTO 32006KT 6SM 17/06 A3006 RMK 60000 SLP152 T01690055 52018 IEM_DS3505
ZBHH,2008-09-09 13:00,ZBHH 091300Z AUTO 17004KT 7SM 15/10 A3006 RMK T01500100 IEM_DS3505
ZBHH,2008-09-09 14:00,ZBHH 091400Z AUTO 02002KT 7SM 14/10 A3006 RMK T01400100 IEM_DS3505
ZBHH,2008-09-09 15:00,ZBHH 091500Z AUTO 22004KT 19SM 15/06 A3006 RMK SLP155 T01520060 52004 IEM_DS3505
ZBHH,2008-09-09 16:00,ZBHH 091600Z AUTO 13002KT 6SM 13/08 A3009 RMK T01300080 IEM_DS3505
ZBHH,2008-09-09 17:00,ZBHH 091700Z AUTO 19004KT 6SM 11/08 A3006 RMK T01100080 IEM_DS3505
ZBHH,2008-09-09 18:00,ZBHH 091800Z AUTO 32002KT 19SM 11/07 A3009 RMK 60000 SLP161 T01130074 52003 IEM_DS3505
ZBHH,2008-09-09 19:00,ZBHH 091900Z AUTO 06004KT 6SM 08/07 A3006 RMK T00800070 IEM_DS3505
ZBHH,2008-09-09 20:00,ZBHH 092000Z AUTO 12004KT 6SM 08/07 A3009 RMK T00800070 IEM_DS3505
ZBHH,2008-09-09 21:00,ZBHH 092100Z AUTO 07004KT 19SM 09/07 A3009 RMK 70000 SLP170 T00910067 52001 IEM_DS3505
ZBHH,2008-09-09 22:00,ZBHH 092200Z AUTO 08004KT 6SM 07/06 A3009 RMK T00700060 IEM_DS3505
ZBHH,2008-09-09 23:00,ZBHH 092300Z AUTO 07004KT 6SM 07/07 A3009 RMK T00700070 IEM_DS3505
ZBHH,2008-09-10 00:00,ZBHH 100000Z AUTO 04004KT 12SM 10/07 A3009 RMK 70000 SLP181 T01040073 52006 IEM_DS3505
ZBHH,2008-09-10 01:00,ZBHH 100100Z AUTO 20002KT 6SM 11/08 A3009 RMK T01100080 IEM_DS3505
ZBHH,2008-09-10 02:00,ZBHH 100200Z AUTO 14002KT 3SM 13/09 A3009 RMK T01300090 IEM_DS3505
ZBHH,2008-09-10 03:00,ZBHH 100300Z AUTO 27004KT 9SM 16/08 A3006 RMK SLP168 T01590077 57004 IEM_DS3505
ZBHH,2008-09-10 04:00,ZBHH 100400Z AUTO 23010KT 4SM 18/09 A3003 RMK T01800090 IEM_DS3505
ZBHH,2008-09-10 05:00,ZBHH 100500Z AUTO 24014KT 6SM 20/06 A3003 RMK T02000060 IEM_DS3505
ZBHH,2008-09-10 06:00,ZBHH 100600Z AUTO 20010KT 19SM 20/04 A3000 RMK SLP145 T02050045 57019 IEM_DS3505
ZBHH,2008-09-10 07:00,ZBHH 100700Z AUTO 24014KT 6SM 21/07 A3000 RMK T02100070 IEM_DS3505
ZBHH,2008-09-10 08:00,ZBHH 100800Z AUTO 22012KT 6SM 21/06 A2997 RMK T02100060 IEM_DS3505
ZBHH,2008-09-10 09:00,ZBHH 100900Z AUTO 22008KT 19SM 21/02 A2997 RMK SLP140 T02110024 57008 IEM_DS3505
ZBHH,2008-09-10 10:00,ZBHH 101000Z AUTO 23010KT 6SM 20/04 A3000 RMK T02000040 IEM_DS3505
ZBHH,2008-09-10 11:00,ZBHH 101100Z AUTO 23006KT 6SM 16/07 A3000 RMK T01600070 IEM_DS3505
ZBHH,2008-09-10 12:00,ZBHH 101200Z AUTO 00000KT 19SM 17/06 A3003 RMK SLP162 T01660059 52013 IEM_DS3505
ZBHH,2008-09-10 13:00,ZBHH 101300Z AUTO 06006KT 6SM 13/08 A3006 RMK T01300080 IEM_DS3505
ZBHH,2008-09-10 14:00,ZBHH 101400Z AUTO 06004KT 6SM 11/08 A3006 RMK T01100080 IEM_DS3505
ZBHH,2008-09-10 15:00,ZBHH 101500Z AUTO 11002KT 19SM 12/06 A3009 RMK SLP169 T01250065 52009 IEM_DS3505
ZBHH,2008-09-10 16:00,ZBHH 101600Z AUTO 07004KT 6SM 10/07 A3006 RMK T01000070 IEM_DS3505
ZBHH,2008-09-10 17:00,ZBHH 101700Z AUTO 06002KT 6SM 10/06 A3006 RMK T01000060 IEM_DS3505
ZBHH,2008-09-10 18:00,ZBHH 101800Z AUTO 09002KT 19SM 10/06 A3009 RMK SLP165 T01010059 52001 IEM_DS3505
ZBHH,2008-09-10 19:00,ZBHH 101900Z AUTO 06004KT 6SM 08/06 A3009 RMK T00800060 IEM_DS3505
ZBHH,2008-09-10 20:00,ZBHH 102000Z AUTO 07004KT 6SM 07/05 A3009 RMK T00700050 IEM_DS3505
ZBHH,2008-09-10 21:00,ZBHH 102100Z AUTO 00000KT 19SM 08/06 A3006 RMK SLP166 T00850056 57001 IEM_DS3505
ZBHH,2008-09-10 22:00,ZBHH 102200Z AUTO 05004KT 6SM 07/05 A3006 RMK T00700050 IEM_DS3505
ZBHH,2008-09-10 23:00,ZBHH 102300Z AUTO 07004KT 6SM 08/05 A3009 RMK T00800050 IEM_DS3505
ZBHH,2008-09-11 00:00,ZBHH 110000Z AUTO 09002KT 19SM 14/06 A3009 RMK SLP172 T01350057 52006 IEM_DS3505
ZBHH,2008-09-11 01:00,ZBHH 110100Z AUTO 15002KT 6SM 15/07 A3009 RMK T01500070 IEM_DS3505
ZBHH,2008-09-11 02:00,ZBHH 110200Z AUTO 21002KT 6SM 17/07 A3009 RMK T01700070 IEM_DS3505
ZBHH,2008-09-11 03:00,ZBHH 110300Z AUTO 34004KT 19SM 19/06 A3006 RMK SLP162 T01860055 57007 IEM_DS3505
ZBHH,2008-09-11 04:00,ZBHH 110400Z AUTO 21004KT 6SM 20/08 A3003 RMK T02000080 IEM_DS3505
ZBHH,2008-09-11 05:00,ZBHH 110500Z AUTO 26006KT 6SM 21/08 A3003 RMK T02100080 IEM_DS3505
ZBHH,2008-09-11 06:00,ZBHH 110600Z AUTO 20006KT 19SM 23/07 A3000 RMK SLP133 T02260072 57022 IEM_DS3505
ZBHH,2008-09-11 07:00,ZBHH 110700Z AUTO 25008KT 6SM 23/08 A2997 RMK T02300080 IEM_DS3505
ZBHH,2008-09-11 08:00,ZBHH 110800Z AUTO 25008KT 6SM 24/09 A2997 RMK T02400090 IEM_DS3505
ZBHH,2008-09-11 09:00,ZBHH 110900Z AUTO 20008KT 19SM 24/07 A2997 RMK SLP119 T02390067 57013 IEM_DS3505
ZBHH,2008-09-11 10:00,ZBHH 111000Z AUTO 21004KT 6SM 22/10 A2997 RMK T02200100 IEM_DS3505
ZBHH,2008-09-11 11:00,ZBHH 111100Z AUTO 15004KT 6SM 19/11 A2997 RMK T01900110 IEM_DS3505
ZBHH,2008-09-11 12:00,ZBHH 111200Z AUTO 07002KT 19SM 18/08 A2997 RMK SLP131 T01810084 52009 IEM_DS3505
ZBHH,2008-09-11 13:00,ZBHH 111300Z AUTO 05006KT 6SM 15/11 A3000 RMK T01500110 IEM_DS3505
ZBHH,2008-09-11 14:00,ZBHH 111400Z AUTO 05006KT 6SM 14/10 A3000 RMK T01400100 IEM_DS3505
ZBHH,2008-09-11 15:00,ZBHH 111500Z AUTO 00000KT 19SM 14/10 A3003 RMK SLP140 T01450099 52011 IEM_DS3505
ZBHH,2008-09-11 16:00,ZBHH 111600Z AUTO 08006KT 6SM 12/09 A3003 RMK T01200090 IEM_DS3505
ZBHH,2008-09-11 17:00,ZBHH 111700Z AUTO 08008KT 6SM 11/09 A3000 RMK T01100090 IEM_DS3505
ZBHH,2008-09-11 18:00,ZBHH 111800Z AUTO 02002KT 19SM 13/08 A3003 RMK SLP137 T01270084 52001 IEM_DS3505
ZBHH,2008-09-11 19:00,ZBHH 111900Z AUTO 04004KT 6SM 11/07 A3003 RMK T01100070 IEM_DS3505
ZBHH,2008-09-11 20:00,ZBHH 112000Z AUTO 04004KT 6SM 10/07 A3003 RMK T01000070 IEM_DS3505
ZBHH,2008-09-11 21:00,ZBHH 112100Z AUTO 09002KT 19SM 10/08 A3003 RMK SLP140 T01030081 52001 IEM_DS3505
ZBHH,2008-09-11 22:00,ZBHH 112200Z AUTO 07004KT 6SM 10/07 A3003 RMK T01000070 IEM_DS3505
ZBHH,2008-09-11 23:00,ZBHH 112300Z AUTO 06004KT 6SM 10/07 A3006 RMK T01000070 IEM_DS3505
ZBHH,2008-09-12 00:00,ZBHH 120000Z AUTO 00000KT 19SM 15/08 A3006 RMK SLP154 T01530083 52011 IEM_DS3505
ZBHH,2008-09-12 01:00,ZBHH 120100Z AUTO 04002KT 6SM 17/09 A3006 RMK T01700090 IEM_DS3505
ZBHH,2008-09-12 02:00,ZBHH 120200Z AUTO 08002KT 6SM 20/08 A3006 RMK T02000080 IEM_DS3505
ZBHH,2008-09-12 03:00,ZBHH 120300Z AUTO 09004KT 16SM 22/07 A3006 RMK SLP148 T02150073 57001 IEM_DS3505
ZBHH,2008-09-12 03:09,ZBHH 120309Z AUTO 14002KT 6SM 22/08 A3006 RMK T02200080 IEM_DS3505
ZBHH,2008-09-12 04:00,ZBHH 120400Z AUTO 22004KT 7SM 23/09 A3003 RMK T02300090 IEM_DS3505
ZBHH,2008-09-12 05:00,ZBHH 120500Z AUTO 22006KT 7SM 24/09 A3003 RMK T02400090 IEM_DS3505
ZBHH,2008-09-12 06:00,ZBHH 120600Z AUTO 22006KT 16SM 24/08 A3000 RMK SLP126 T02450081 57017 IEM_DS3505
ZBHH,2008-09-12 07:00,ZBHH 120700Z AUTO 22008KT 7SM 25/06 A2997 RMK T02500060 IEM_DS3505
ZBHH,2008-09-12 08:00,ZBHH 120800Z AUTO 22008KT 7SM 25/06 A2997 RMK T02500060 IEM_DS3505
ZBHH,2008-09-12 09:00,ZBHH 120900Z AUTO 27004KT 16SM 26/03 A2997 RMK SLP116 T02570030 57011 IEM_DS3505
ZBHH,2008-09-12 10:00,ZBHH 121000Z AUTO 23004KT 7SM 24/07 A2997 RMK T02400070 IEM_DS3505
ZBHH,2008-09-12 11:00,ZBHH 121100Z AUTO 00000KT 7SM 21/08 A2997 RMK T02100080 IEM_DS3505
ZBHH,2008-09-12 12:00,ZBHH 121200Z AUTO 32002KT 19SM 19/08 A3000 RMK SLP131 T01910084 52010 IEM_DS3505
ZBHH,2008-09-12 13:00,ZBHH 121300Z AUTO 06004KT 6SM 15/10 A3003 RMK T01500100 IEM_DS3505
ZBHH,2008-09-12 14:00,ZBHH 121400Z AUTO 10004KT 6SM 15/10 A3003 RMK T01500100 IEM_DS3505
ZBHH,2008-09-12 15:00,ZBHH 121500Z AUTO 36002KT 12SM 17/09 A3003 RMK SLP133 T01660086 52009 IEM_DS3505
ZBHH,2008-09-12 16:00,ZBHH 121600Z AUTO 05004KT 6SM 15/09 A3003 RMK T01500090 IEM_DS3505
ZBHH,2008-09-12 17:00,ZBHH 121700Z AUTO 05004KT 6SM 14/10 A3003 RMK T01400100 IEM_DS3505
ZBHH,2008-09-12 18:00,ZBHH 121800Z AUTO 11002KT 12SM 13/09 A3003 RMK SLP137 T01290086 52002 IEM_DS3505
ZBHH,2008-09-12 19:00,ZBHH 121900Z AUTO 05004KT 6SM 12/08 A3003 RMK T01200080 IEM_DS3505
ZBHH,2008-09-12 20:00,ZBHH 122000Z AUTO 07004KT 6SM 11/08 A3003 RMK T01100080 IEM_DS3505
ZBHH,2008-09-12 21:00,ZBHH 122100Z AUTO 09002KT 19SM 11/08 A3006 RMK SLP140 T01140083 52002 IEM_DS3505
ZBHH,2008-09-12 22:00,ZBHH 122200Z AUTO 08004KT 6SM 11/07 A3006 RMK T01100070 IEM_DS3505
ZBHH,2008-09-12 23:00,ZBHH 122300Z AUTO 06004KT 6SM 11/08 A3006 RMK T01100080 IEM_DS3505
ZBHH,2008-09-13 00:00,ZBHH 130000Z AUTO 07002KT 19SM 17/08 A3009 RMK SLP157 T01670084 52013 IEM_DS3505
ZBHH,2008-09-13 01:00,ZBHH 130100Z AUTO 04002KT 6SM 18/09 A3009 RMK T01800090 IEM_DS3505
ZBHH,2008-09-13 02:00,ZBHH 130200Z AUTO 12002KT 6SM 22/07 A3009 RMK T02200070 IEM_DS3505
ZBHH,2008-09-13 03:00,ZBHH 130300Z AUTO 29002KT 16SM 23/05 A3009 RMK SLP152 T02270052 52002 IEM_DS3505
ZBHH,2008-09-13 04:00,ZBHH 130400Z AUTO 23006KT 7SM 23/06 A3009 RMK T02300060 IEM_DS3505
ZBHH,2008-09-13 05:00,ZBHH 130500Z AUTO 7SM 24/05 A3006 RMK T02400050 IEM_DS3505
ZBHH,2008-09-13 06:00,ZBHH 130600Z AUTO 18004KT 16SM 24/07 A3003 RMK SLP139 T02440071 57015 IEM_DS3505
ZBHH,2008-09-13 07:00,ZBHH 130700Z AUTO 22006KT 7SM 25/06 A3003 RMK T02500060 IEM_DS3505
ZBHH,2008-09-13 08:00,ZBHH 130800Z AUTO 23006KT 6SM 25/07 A3003 RMK T02500070 IEM_DS3505
ZBHH,2008-09-13 09:00,ZBHH 130900Z AUTO 20004KT 16SM 24/07 A3000 RMK SLP132 T02400072 57010 IEM_DS3505
ZBHH,2008-09-13 10:00,ZBHH 131000Z AUTO 21002KT 6SM 23/10 A3000 RMK T02300100 IEM_DS3505
ZBHH,2008-09-13 11:00,ZBHH 131100Z AUTO 10002KT 6SM 21/11 A3000 RMK T02100110 IEM_DS3505
ZBHH,2008-09-13 12:00,ZBHH 131200Z AUTO 00000KT 16SM 20/09 A3003 RMK SLP136 T01980094 52006 IEM_DS3505
ZBHH,2008-09-13 13:00,ZBHH 131300Z AUTO 08004KT 6SM 15/11 A3003 RMK T01500110 IEM_DS3505
ZBHH,2008-09-13 14:00,ZBHH 131400Z AUTO 07004KT 6SM 15/10 A3006 RMK T01500100 IEM_DS3505
ZBHH,2008-09-13 15:00,ZBHH 131500Z AUTO 04002KT 16SM 17/10 A3003 RMK SLP137 T01680097 52006 IEM_DS3505
ZBHH,2008-09-13 16:00,ZBHH 131600Z AUTO 05004KT 6SM 14/10 A3003 RMK T01400100 IEM_DS3505
ZBHH,2008-09-13 17:00,ZBHH 131700Z AUTO 06004KT 6SM 13/10 A3003 RMK T01300100 IEM_DS3505
ZBHH,2008-09-13 18:00,ZBHH 131800Z AUTO 32002KT 19SM 14/10 A3003 RMK SLP135 T01450101 57003 IEM_DS3505
ZBHH,2008-09-13 19:00,ZBHH 131900Z AUTO 06002KT 6SM 13/10 A3003 RMK T01300100 IEM_DS3505
ZBHH,2008-09-13 20:00,ZBHH 132000Z AUTO 05002KT 6SM 13/10 A3003 RMK T01300100 IEM_DS3505
ZBHH,2008-09-13 21:00,ZBHH 132100Z AUTO 09002KT 19SM 14/10 A3003 RMK SLP135 T01380100 57002 IEM_DS3505
ZBHH,2008-09-13 22:00,ZBHH 132200Z AUTO 08004KT 6SM 12/10 A3003 RMK T01200100 IEM_DS3505
ZBHH,2008-09-13 23:00,ZBHH 132300Z AUTO 05004KT 7SM 12/10 A3006 RMK T01200100 IEM_DS3505
ZBHH,2008-09-14 00:00,ZBHH 140000Z AUTO 07002KT 19SM 17/10 A3006 RMK SLP148 T01660100 52009 IEM_DS3505
ZBHH,2008-09-14 01:00,ZBHH 140100Z AUTO 14002KT 6SM 19/11 A3006 RMK T01900110 IEM_DS3505
ZBHH,2008-09-14 02:00,ZBHH 140200Z AUTO 23004KT 6SM 19/10 A3006 RMK T01900100 IEM_DS3505
ZBHH,2008-09-14 03:00,ZBHH 140300Z AUTO 25004KT 19SM 20/11 A3006 RMK SLP146 T02050109 54000 IEM_DS3505
ZBHH,2008-09-14 04:00,ZBHH 140400Z AUTO 25006KT 6SM 22/11 A3006 RMK T02200110 IEM_DS3505
ZBHH,2008-09-14 05:00,ZBHH 140500Z AUTO 24012KT 6SM 23/11 A3003 RMK T02300110 IEM_DS3505
ZBHH,2008-09-14 06:00,ZBHH 140600Z AUTO 25010KT 19SM 23/11 A2997 RMK SLP114 T02340108 57027 IEM_DS3505
ZBHH,2008-09-14 07:00,ZBHH 140700Z AUTO 22014KT 6SM 25/11 A2994 RMK T02500110 IEM_DS3505
ZBHH,2008-09-14 08:00,ZBHH 140800Z AUTO 24010KT 6SM 25/11 A2991 RMK T02500110 IEM_DS3505
ZBHH,2008-09-14 09:00,ZBHH 140900Z AUTO 25004KT 16SM 25/12 A2991 RMK SLP096 T02460116 57015 IEM_DS3505
ZBHH,2008-09-14 10:00,ZBHH 141000Z AUTO 20006KT 7SM 22/12 A2991 RMK T02200120 IEM_DS3505
ZBHH,2008-09-14 11:00,ZBHH 141100Z AUTO 21006KT 7SM 20/12 A2994 RMK T02000120 IEM_DS3505
ZBHH,2008-09-14 12:00,ZBHH 141200Z AUTO 16006KT 6SM 22/09 A2997 RMK SLP110 T02150094 52012 IEM_DS3505
ZBHH,2008-09-14 13:00,ZBHH 141300Z AUTO 17006KT 7SM 16/10 A3000 RMK T01600100 IEM_DS3505
ZBHH,2008-09-14 14:00,ZBHH 141400Z AUTO 09008KT 7SM 17/09 A2997 RMK T01700090 IEM_DS3505
ZBHH,2008-09-14 15:00,ZBHH 141500Z AUTO 18002KT 6SM 18/09 A3000 RMK SLP124 T01780086 52012 IEM_DS3505
ZBHH,2008-09-14 16:00,ZBHH 141600Z AUTO 08004KT 7SM 13/10 A3003 RMK T01300100 IEM_DS3505
ZBHH,2008-09-14 17:00,ZBHH 141700Z AUTO 04008KT 7SM 13/10 A3003 RMK T01300100 IEM_DS3505
ZBHH,2008-09-14 18:00,ZBHH 141800Z AUTO 04002KT 12SM 15/09 A3003 RMK 60000 SLP126 T01540091 52003 IEM_DS3505
ZBHH,2008-09-14 19:00,ZBHH 141900Z AUTO 03006KT 7SM 13/10 A3000 RMK T01300100 IEM_DS3505
ZBHH,2008-09-14 20:00,ZBHH 142000Z AUTO 06004KT 7SM 12/10 A3000 RMK T01200100 IEM_DS3505
ZBHH,2008-09-14 21:00,ZBHH 142100Z AUTO 00000KT 16SM 12/09 A3000 RMK 70000 SLP130 T01210091 54000 IEM_DS3505
ZBHH,2008-09-14 22:00,ZBHH 142200Z AUTO 06004KT 6SM 11/09 A3003 RMK T01100090 IEM_DS3505
ZBHH,2008-09-14 23:00,ZBHH 142300Z AUTO 06002KT 6SM 11/09 A3003 RMK T01100090 IEM_DS3505
ZBHH,2008-09-15 00:00,ZBHH 150000Z AUTO 00000KT 12SM 15/10 A3003 RMK 70000 SLP141 T01520098 52009 IEM_DS3505
ZBHH,2008-09-15 01:00,ZBHH 150100Z AUTO 04004KT 6SM 17/10 A3003 RMK T01700100 IEM_DS3505
ZBHH,2008-09-15 02:00,ZBHH 150200Z AUTO 11002KT 6SM 19/10 A3003 RMK T01900100 IEM_DS3505
ZBHH,2008-09-15 03:00,ZBHH 150300Z AUTO 25004KT 12SM 21/10 A3003 RMK SLP131 T02110097 57004 IEM_DS3505
ZBHH,2008-09-15 04:00,ZBHH 150400Z AUTO 20004KT 6SM 22/09 A3000 RMK T02200090 IEM_DS3505
ZBHH,2008-09-15 05:00,ZBHH 150500Z AUTO 22004KT 6SM 23/09 A2997 RMK T02300090 IEM_DS3505
ZBHH,2008-09-15 06:00,ZBHH 150600Z AUTO 18004KT 12SM 24/09 A2997 RMK SLP106 T02420090 57021 IEM_DS3505
ZBHH,2008-09-15 07:00,ZBHH 150700Z AUTO 22004KT 7SM 25/09 A2994 RMK T02500090 IEM_DS3505
ZBHH,2008-09-15 08:00,ZBHH 150800Z AUTO 22006KT 7SM 26/08 A2991 RMK T02600080 IEM_DS3505
ZBHH,2008-09-15 09:00,ZBHH 150900Z AUTO 20006KT 12SM 25/08 A2991 RMK SLP092 T02510082 57017 IEM_DS3505
ZBHH,2008-09-15 10:00,ZBHH 151000Z AUTO 22006KT 7SM 24/10 A2991 RMK T02400100 IEM_DS3505
ZBHH,2008-09-15 11:00,ZBHH 151100Z AUTO 21002KT 7SM 21/10 A2991 RMK T02100100 IEM_DS3505
ZBHH,2008-09-15 12:00,ZBHH 151200Z AUTO 34002KT 19SM 20/10 A2991 RMK SLP099 T02030101 52003 IEM_DS3505
ZBHH,2008-09-15 13:00,ZBHH 151300Z AUTO 05004KT 6SM 16/11 A2991 RMK T01600110 IEM_DS3505
ZBHH,2008-09-15 14:00,ZBHH 151400Z AUTO 07002KT 6SM 15/12 A2994 RMK T01500120 IEM_DS3505
ZBHH,2008-09-15 15:00,ZBHH 151500Z AUTO 07002KT 19SM 18/11 A2994 RMK SLP101 T01750111 52008 IEM_DS3505
ZBHH,2008-09-15 16:00,ZBHH 151600Z AUTO 10004KT 6SM 14/10 A2994 RMK T01400100 IEM_DS3505
ZBHH,2008-09-15 17:00,ZBHH 151700Z AUTO 04006KT 6SM 13/10 A2994 RMK T01300100 IEM_DS3505
ZBHH,2008-09-15 18:00,ZBHH 151800Z AUTO 07002KT 19SM 14/08 A2994 RMK SLP100 T01430083 57001 IEM_DS3505
ZBHH,2008-09-15 19:00,ZBHH 151900Z AUTO 04006KT 6SM 12/10 A2994 RMK T01200100 IEM_DS3505
ZBHH,2008-09-15 20:00,ZBHH 152000Z AUTO 07004KT 6SM 11/07 A2991 RMK T01100070 IEM_DS3505
ZBHH,2008-09-15 21:00,ZBHH 152100Z AUTO 00000KT 19SM 12/08 A2991 RMK SLP096 T01240077 57006 IEM_DS3505
ZBHH,2008-09-15 22:00,ZBHH 152200Z AUTO 09004KT 6SM 10/08 A2991 RMK T01000080 IEM_DS3505
ZBHH,2008-09-15 23:00,ZBHH 152300Z AUTO 07006KT 6SM 12/09 A2994 RMK T01200090 IEM_DS3505
ZBHH,2008-09-16 00:00,ZBHH 160000Z AUTO 09002KT 19SM 16/08 A2991 RMK SLP102 T01620077 52004 IEM_DS3505
ZBHH,2008-09-16 01:00,ZBHH 160100Z AUTO 09006KT 6SM 18/11 A2991 RMK T01800110 IEM_DS3505
ZBHH,2008-09-16 02:00,ZBHH 160200Z AUTO 19004KT 6SM 21/09 A2994 RMK T02100090 IEM_DS3505
ZBHH,2008-09-16 03:00,ZBHH 160300Z AUTO 07002KT 16SM 22/09 A2991 RMK SLP094 T02170093 57002 IEM_DS3505
ZBHH,2008-09-16 04:00,ZBHH 160400Z AUTO 7SM 23/11 A2991 RMK T02300110 IEM_DS3505
ZBHH,2008-09-16 05:00,ZBHH 160500Z AUTO 05006KT 7SM 21/10 A2991 RMK T02100100 IEM_DS3505
ZBHH,2008-09-16 06:00,ZBHH 160600Z AUTO 11004KT 16SM 23/10 A2988 RMK 60001 SLP079 T02300098 57017 IEM_DS3505
ZBHH,2008-09-16 07:00,ZBHH 160700Z AUTO 13004KT 7SM 24/08 A2983 RMK T02400080 IEM_DS3505
ZBHH,2008-09-16 08:00,ZBHH 160800Z AUTO 21004KT 7SM 25/08 A2980 RMK T02500080 IEM_DS3505
ZBHH,2008-09-16 09:00,ZBHH 160900Z AUTO 25004KT 19SM 25/08 A2983 RMK SLP059 T02530083 57017 IEM_DS3505
ZBHH,2008-09-16 10:00,ZBHH 161000Z AUTO 22014KT 7SM 21/10 A2983 RMK T02100100 IEM_DS3505
ZBHH,2008-09-16 11:00,ZBHH 161100Z AUTO 23012KT 7SM 19/09 A2985 RMK T01900090 IEM_DS3505
ZBHH,2008-09-16 12:00,ZBHH 161200Z AUTO 20004KT 19SM 19/09 A2991 RMK SLP093 T01920091 52026 IEM_DS3505
ZBHH,2008-09-16 13:00,ZBHH 161300Z AUTO 25004KT 7SM 17/10 A2991 RMK T01700100 IEM_DS3505
ZBHH,2008-09-16 14:00,ZBHH 161400Z AUTO 17002KT 6SM 15/10 A2991 RMK T01500100 IEM_DS3505
ZBHH,2008-09-16 15:00,ZBHH 161500Z AUTO 14002KT 19SM 17/09 A2991 RMK SLP090 T01730092 52004 IEM_DS3505
ZBHH,2008-09-16 16:00,ZBHH 161600Z AUTO 07006KT 6SM 13/10 A2991 RMK T01300100 IEM_DS3505
ZBHH,2008-09-16 17:00,ZBHH 161700Z AUTO 05004KT 6SM 12/10 A2991 RMK T01200100 IEM_DS3505
ZBHH,2008-09-16 18:00,ZBHH 161800Z AUTO 09002KT 19SM 14/09 A2991 RMK SLP096 T01390093 52001 IEM_DS3505
ZBHH,2008-09-16 19:00,ZBHH 161900Z AUTO 04002KT 6SM 12/10 A2991 RMK T01200100 IEM_DS3505
ZBHH,2008-09-16 20:00,ZBHH 162000Z AUTO 05002KT 7SM 12/10 A2991 RMK T01200100 IEM_DS3505
ZBHH,2008-09-16 21:00,ZBHH 162100Z AUTO 00000KT 19SM 13/10 A2991 RMK 70001 SLP088 T01270097 57005 IEM_DS3505
ZBHH,2008-09-16 22:00,ZBHH 162200Z AUTO 07004KT 7SM 11/09 A2991 RMK T01100090 IEM_DS3505
ZBHH,2008-09-16 23:00,ZBHH 162300Z AUTO 03002KT 6SM 12/10 A2991 RMK T01200100 IEM_DS3505
ZBHH,2008-09-17 00:00,ZBHH 170000Z AUTO 25002KT 19SM 16/10 A2994 RMK 70001 SLP109 T01570102 52013 IEM_DS3505
ZBHH,2008-09-17 01:00,ZBHH 170100Z AUTO 11002KT 6SM 18/12 A2994 RMK T01800120 IEM_DS3505
ZBHH,2008-09-17 02:00,ZBHH 170200Z AUTO 22004KT 6SM 20/10 A2994 RMK T02000100 IEM_DS3505
ZBHH,2008-09-17 03:00,ZBHH 170300Z AUTO 20002KT 9SM 21/10 A2994 RMK SLP107 T02070105 52004 IEM_DS3505
ZBHH,2008-09-17 04:00,ZBHH 170400Z AUTO 24008KT 6SM 22/11 A2994 RMK T02200110 IEM_DS3505
ZBHH,2008-09-17 05:00,ZBHH 170500Z AUTO 22006KT 6SM 23/12 A2991 RMK T02300120 IEM_DS3505
ZBHH,2008-09-17 06:00,ZBHH 170600Z AUTO 20006KT 9SM 24/11 A2991 RMK SLP091 T02440114 57014 IEM_DS3505
ZBHH,2008-09-17 07:00,ZBHH 170700Z AUTO 26006KT 6SM 26/12 A2991 RMK T02600120 IEM_DS3505
ZBHH,2008-09-17 08:00,ZBHH 170800Z AUTO 25006KT 6SM 26/11 A2988 RMK T02600110 IEM_DS3505
ZBHH,2008-09-17 09:00,ZBHH 170900Z AUTO 22002KT 9SM 26/12 A2988 RMK SLP084 T02580116 57006 IEM_DS3505
ZBHH,2008-09-17 10:00,ZBHH 171000Z AUTO 36008KT 6SM 24/01 A2988 RMK T02400010 IEM_DS3505
ZBHH,2008-09-17 11:00,ZBHH 171100Z AUTO 36004KT 6SM 22/01 A2991 RMK T02200010 IEM_DS3505
ZBHH,2008-09-17 12:00,ZBHH 171200Z AUTO 22002KT 12SM 20/01 A2994 RMK SLP106 T01950010 52014 IEM_DS3505
ZBHH,2008-09-17 13:00,ZBHH 171300Z AUTO 04010KT 6SM 17/02 A2994 RMK T01700020 IEM_DS3505
ZBHH,2008-09-17 14:00,ZBHH 171400Z AUTO 07004KT 6SM 15/05 A2997 RMK T01500050 IEM_DS3505
ZBHH,2008-09-17 15:00,ZBHH 171500Z AUTO 04002KT 12SM 14/02 A2997 RMK SLP122 T01450024 52014 IEM_DS3505
ZBHH,2008-09-17 16:00,ZBHH 171600Z AUTO 06006KT 6SM 12/04 A2997 RMK T01200040 IEM_DS3505
ZBHH,2008-09-17 17:00,ZBHH 171700Z AUTO 07006KT 6SM 11/04 A2997 RMK T01100040 IEM_DS3505
ZBHH,2008-09-17 18:00,ZBHH 171800Z AUTO 11002KT 12SM 13/01 A2997 RMK SLP116 T01300014 57001 IEM_DS3505
ZBHH,2008-09-17 19:00,ZBHH 171900Z AUTO 09004KT 6SM 11/03 A2997 RMK T01100030 IEM_DS3505
ZBHH,2008-09-17 20:00,ZBHH 172000Z AUTO 08006KT 6SM 11/03 A2997 RMK T01100030 IEM_DS3505
ZBHH,2008-09-17 21:00,ZBHH 172100Z AUTO 09002KT 12SM 11/03 A3000 RMK SLP122 T01110029 52004 IEM_DS3505
ZBHH,2008-09-17 22:00,ZBHH 172200Z AUTO 07008KT 6SM 10/04 A3000 RMK T01000040 IEM_DS3505
ZBHH,2008-09-17 23:00,ZBHH 172300Z AUTO 06002KT 6SM 11/04 A3000 RMK T01100040 IEM_DS3505
ZBHH,2008-09-18 00:00,ZBHH 180000Z AUTO 09002KT 12SM 15/04 A3000 RMK SLP131 T01470035 52003 IEM_DS3505
ZBHH,2008-09-18 01:00,ZBHH 180100Z AUTO 09006KT 6SM 18/05 A3000 RMK T01800050 IEM_DS3505
ZBHH,2008-09-18 02:00,ZBHH 180200Z AUTO 07006KT 6SM 21/03 A3000 RMK T02100030 IEM_DS3505
ZBHH,2008-09-18 03:00,ZBHH 180300Z AUTO 36002KT 12SM 22/03 A3000 RMK SLP124 T02220033 57002 IEM_DS3505
ZBHH,2008-09-18 04:00,ZBHH 180400Z AUTO 15004KT 6SM 24/05 A2997 RMK T02400050 IEM_DS3505
ZBHH,2008-09-18 05:00,ZBHH 180500Z AUTO 21004KT 7SM 23/07 A2997 RMK T02300070 IEM_DS3505
ZBHH,2008-09-18 06:00,ZBHH 180600Z AUTO 22002KT 12SM 24/07 A2994 RMK SLP103 T02410073 57017 IEM_DS3505
ZBHH,2008-09-18 07:00,ZBHH 180700Z AUTO 25004KT 6SM 25/09 A2991 RMK T02500090 IEM_DS3505
ZBHH,2008-09-18 08:00,ZBHH 180800Z AUTO 25002KT 6SM 25/09 A2991 RMK T02500090 IEM_DS3505
ZBHH,2008-09-18 09:00,ZBHH 180900Z AUTO 29002KT 12SM 25/10 A2988 RMK SLP091 T02500101 57013 IEM_DS3505
ZBHH,2008-09-18 10:00,ZBHH 181000Z AUTO 00000KT 6SM 24/10 A2991 RMK T02400100 IEM_DS3505
ZBHH,2008-09-18 11:00,ZBHH 181100Z AUTO 13004KT 7SM 21/13 A2991 RMK T02100130 IEM_DS3505
ZBHH,2008-09-18 12:00,ZBHH 181200Z AUTO 36002KT 19SM 20/11 A2994 RMK SLP107 T02010113 52012 IEM_DS3505
ZBHH,2008-09-18 13:00,ZBHH 181300Z AUTO 05006KT 7SM 17/12 A2994 RMK T01700120 IEM_DS3505
ZBHH,2008-09-18 14:00,ZBHH 181400Z AUTO 08006KT 7SM 15/11 A2994 RMK T01500110 IEM_DS3505
ZBHH,2008-09-18 15:00,ZBHH 181500Z AUTO 09002KT 19SM 17/11 A2997 RMK SLP109 T01710112 52010 IEM_DS3505
ZBHH,2008-09-18 16:00,ZBHH 181600Z AUTO 07004KT 7SM 14/10 A2997 RMK T01400100 IEM_DS3505
ZBHH,2008-09-18 17:00,ZBHH 181700Z AUTO 16004KT 7SM 14/10 A3000 RMK T01400100 IEM_DS3505
ZBHH,2008-09-18 18:00,ZBHH 181800Z AUTO 14002KT 19SM 16/10 A3000 RMK SLP118 T01620105 52010 IEM_DS3505
ZBHH,2008-09-18 19:00,ZBHH 181900Z AUTO 07004KT 7SM 13/10 A3000 RMK T01300100 IEM_DS3505
ZBHH,2008-09-18 20:00,ZBHH 182000Z AUTO 05004KT 7SM 11/10 A3003 RMK T01100100 IEM_DS3505
ZBHH,2008-09-18 21:00,ZBHH 182100Z AUTO 09002KT 19SM 14/10 A3000 RMK SLP128 T01350099 52005 IEM_DS3505
ZBHH,2008-09-18 22:00,ZBHH 182200Z AUTO 05004KT 7SM 11/09 A3000 RMK T01100090 IEM_DS3505
ZBHH,2008-09-18 23:00,ZBHH 182300Z AUTO 06006KT 7SM 11/10 A3000 RMK T01100100 IEM_DS3505
ZBHH,2008-09-19 00:00,ZBHH 190000Z AUTO 00000KT 19SM 15/10 A3000 RMK SLP136 T01540104 52002 IEM_DS3505
ZBHH,2008-09-19 01:00,ZBHH 190100Z AUTO 06002KT 6SM 17/12 A3000 RMK T01700120 IEM_DS3505
ZBHH,2008-09-19 02:00,ZBHH 190200Z AUTO 21002KT 6SM 19/11 A3000 RMK T01900110 IEM_DS3505
ZBHH,2008-09-19 03:00,ZBHH 190300Z AUTO 22004KT 6SM 20/11 A3000 RMK SLP128 T01970110 57005 IEM_DS3505
ZBHH,2008-09-19 04:00,ZBHH 190400Z AUTO 24004KT 6SM 21/11 A2997 RMK T02100110 IEM_DS3505
ZBHH,2008-09-19 05:00,ZBHH 190500Z AUTO 19006KT 6SM 23/11 A2997 RMK T02300110 IEM_DS3505
ZBHH,2008-09-19 06:00,ZBHH 190600Z AUTO 25006KT 6SM 24/10 A2994 RMK SLP102 T02370097 57017 IEM_DS3505
ZBHH,2008-09-19 07:00,ZBHH 190700Z AUTO 22006KT 6SM 24/08 A2994 RMK T02400080 IEM_DS3505
ZBHH,2008-09-19 08:00,ZBHH 190800Z AUTO 22006KT 6SM 25/08 A2991 RMK T02500080 IEM_DS3505
ZBHH,2008-09-19 09:00,ZBHH 190900Z AUTO 20006KT 9SM 24/08 A2991 RMK SLP095 T02400080 57011 IEM_DS3505
ZBHH,2008-09-19 10:00,ZBHH 191000Z AUTO 21004KT 7SM 22/10 A2991 RMK T02200100 IEM_DS3505
ZBHH,2008-09-19 11:00,ZBHH 191100Z AUTO 17002KT 6SM 20/11 A2994 RMK T02000110 IEM_DS3505
ZBHH,2008-09-19 12:00,ZBHH 191200Z AUTO 34002KT 12SM 19/10 A2997 RMK SLP116 T01910099 52013 IEM_DS3505
ZBHH,2008-09-19 13:00,ZBHH 191300Z AUTO 04002KT 6SM 16/11 A2997 RMK T01600110 IEM_DS3505
ZBHH,2008-09-19 14:00,ZBHH 191400Z AUTO 05004KT 6SM 15/10 A2997 RMK T01500100 IEM_DS3505
ZBHH,2008-09-19 15:00,ZBHH 191500Z AUTO 07002KT 12SM 16/10 A2997 RMK SLP120 T01650104 52007 IEM_DS3505
ZBHH,2008-09-19 16:00,ZBHH 191600Z AUTO 06006KT 6SM 13/09 A2997 RMK T01300090 IEM_DS3505
ZBHH,2008-09-19 17:00,ZBHH 191700Z AUTO 07006KT 6SM 13/10 A2997 RMK T01300100 IEM_DS3505
ZBHH,2008-09-19 18:00,ZBHH 191800Z AUTO 07002KT 12SM 14/10 A2997 RMK SLP111 T01450095 57004 IEM_DS3505
ZBHH,2008-09-19 19:00,ZBHH 191900Z AUTO 06002KT 6SM 13/09 A2997 RMK T01300090 IEM_DS3505
ZBHH,2008-09-19 20:00,ZBHH 192000Z AUTO 07002KT 6SM 12/09 A2997 RMK T01200090 IEM_DS3505
ZBHH,2008-09-19 21:00,ZBHH 192100Z AUTO 07002KT 12SM 13/09 A2997 RMK SLP116 T01310088 52002 IEM_DS3505
ZBHH,2008-09-19 22:00,ZBHH 192200Z AUTO 07004KT 6SM 11/08 A3000 RMK T01100080 IEM_DS3505
ZBHH,2008-09-19 23:00,ZBHH 192300Z AUTO 05004KT 6SM 12/09 A3000 RMK T01200090 IEM_DS3505
ZBHH,2008-09-20 00:00,ZBHH 200000Z AUTO 16002KT 12SM 16/10 A3000 RMK SLP133 T01600099 52011 IEM_DS3505
ZBHH,2008-09-20 01:00,ZBHH 200100Z AUTO 05004KT 6SM 17/11 A3000 RMK T01700110 IEM_DS3505
ZBHH,2008-09-20 02:00,ZBHH 200200Z AUTO 10004KT 6SM 21/10 A3000 RMK T02100100 IEM_DS3505
ZBHH,2008-09-20 03:00,ZBHH 200300Z AUTO 09002KT 12SM 22/09 A2997 RMK SLP118 T02230091 57006 IEM_DS3505
ZBHH,2008-09-20 04:00,ZBHH 200400Z AUTO 22002KT 6SM 24/10 A2997 RMK T02400100 IEM_DS3505
ZBHH,2008-09-20 05:00,ZBHH 200500Z AUTO 14004KT 6SM 26/08 A2994 RMK T02600080 IEM_DS3505
ZBHH,2008-09-20 06:00,ZBHH 200600Z AUTO 18004KT 12SM 26/08 A2991 RMK SLP090 T02620078 57021 IEM_DS3505
ZBHH,2008-09-20 07:00,ZBHH 200700Z AUTO 6SM 27/08 A2988 RMK T02700080 IEM_DS3505
ZBHH,2008-09-20 08:00,ZBHH 200800Z AUTO 24004KT 6SM 26/08 A2985 RMK T02600080 IEM_DS3505
ZBHH,2008-09-20 09:00,ZBHH 200900Z AUTO 27002KT 9SM 26/08 A2985 RMK SLP072 T02640084 57018 IEM_DS3505
ZBHH,2008-09-20 10:00,ZBHH 201000Z AUTO 05004KT 6SM 23/12 A2985 RMK T02300120 IEM_DS3505
ZBHH,2008-09-20 11:00,ZBHH 201100Z AUTO 10004KT 6SM 21/10 A2985 RMK T02100100 IEM_DS3505
ZBHH,2008-09-20 12:00,ZBHH 201200Z AUTO 09002KT 9SM 21/10 A2988 RMK SLP084 T02130105 52006 IEM_DS3505
ZBHH,2008-09-20 13:00,ZBHH 201300Z AUTO 09006KT 6SM 18/09 A2988 RMK T01800090 IEM_DS3505
ZBHH,2008-09-20 14:00,ZBHH 201400Z AUTO 10006KT 6SM 17/09 A2991 RMK T01700090 IEM_DS3505
ZBHH,2008-09-20 15:00,ZBHH 201500Z AUTO 34002KT 9SM 19/08 A2988 RMK SLP082 T01910078 52006 IEM_DS3505
ZBHH,2008-09-20 16:00,ZBHH 201600Z AUTO 10006KT 6SM 16/09 A2988 RMK T01600090 IEM_DS3505
ZBHH,2008-09-20 17:00,ZBHH 201700Z AUTO 36002KT 6SM 17/09 A2988 RMK T01700090 IEM_DS3505
ZBHH,2008-09-20 18:00,ZBHH 201800Z AUTO 09002KT 12SM 18/07 A2985 RMK SLP064 T01790073 57011 IEM_DS3505
ZBHH,2008-09-20 19:00,ZBHH 201900Z AUTO 05004KT 6SM 14/10 A2985 RMK T01400100 IEM_DS3505
ZBHH,2008-09-20 20:00,ZBHH 202000Z AUTO 03004KT 6SM 16/09 A2985 RMK T01600090 IEM_DS3505
ZBHH,2008-09-20 21:00,ZBHH 202100Z AUTO 09002KT 19SM 16/08 A2983 RMK SLP054 T01650080 57011 IEM_DS3505
ZBHH,2008-09-20 22:00,ZBHH 202200Z AUTO 05004KT 6SM 15/09 A2983 RMK T01500090 IEM_DS3505
ZBHH,2008-09-20 23:00,ZBHH 202300Z AUTO 02004KT 6SM 16/09 A2983 RMK T01600090 IEM_DS3505
ZBHH,2008-09-21 00:00,ZBHH 210000Z AUTO 11002KT 9SM 17/08 A2983 RMK 60000 70000 SLP063 T01720084 54000 IEM_DS3505
ZBHH,2008-09-21 01:00,ZBHH 210100Z AUTO 24010KT 7SM 17/10 A2985 RMK T01700100 IEM_DS3505
ZBHH,2008-09-21 02:00,ZBHH 210200Z AUTO 26008KT 5SM 16/11 A2985 RMK T01600110 IEM_DS3505
ZBHH,2008-09-21 03:00,ZBHH 210300Z AUTO 32002KT 5SM 15/11 A2985 RMK SLP088 T01460114 52013 IEM_DS3505
ZBHH,2008-09-21 04:00,ZBHH 210400Z AUTO 06008KT 2 1/2SM 14/12 A2983 RMK T01400120 IEM_DS3505
ZBHH,2008-09-21 05:00,ZBHH 210500Z AUTO 05008KT 2 1/2SM 13/11 A2983 RMK T01300110 IEM_DS3505
ZBHH,2008-09-21 06:00,ZBHH 210600Z AUTO 09004KT 6SM 13/12 A2977 RMK 60055 SLP064 T01290115 57027 IEM_DS3505
ZBHH,2008-09-21 07:00,ZBHH 210700Z AUTO 09004KT 3SM 13/12 A2977 RMK T01300120 IEM_DS3505
ZBHH,2008-09-21 08:00,ZBHH 210800Z AUTO 08006KT 2 1/2SM 13/12 A2977 RMK T01300120 IEM_DS3505
ZBHH,2008-09-21 09:00,ZBHH 210900Z AUTO 04004KT 19SM 13/12 A2977 RMK SLP064 T01330124 57002 IEM_DS3505
ZBHH,2008-09-21 10:00,ZBHH 211000Z AUTO 04004KT 4SM 14/12 A2980 RMK T01400120 IEM_DS3505
ZBHH,2008-09-21 11:00,ZBHH 211100Z AUTO 34004KT 7SM 14/12 A2980 RMK T01400120 IEM_DS3505
ZBHH,2008-09-21 12:00,ZBHH 211200Z AUTO 36002KT 9SM 14/12 A2983 RMK 60055 SLP078 T01400124 52015 IEM_DS3505
ZBHH,2008-09-21 13:00,ZBHH 211300Z AUTO 34004KT 7SM 14/12 A2983 RMK T01400120 IEM_DS3505
ZBHH,2008-09-21 14:00,ZBHH 211400Z AUTO 01002KT 7SM 14/12 A2985 RMK T01400120 IEM_DS3505
ZBHH,2008-09-21 15:00,ZBHH 211500Z AUTO 27002KT 9SM 13/12 A2985 RMK SLP096 T01340120 52010 IEM_DS3505
ZBHH,2008-09-21 16:00,ZBHH 211600Z AUTO 17002KT 4SM 14/12 A2985 RMK T01400120 IEM_DS3505
ZBHH,2008-09-21 17:00,ZBHH 211700Z AUTO 20002KT 4SM 13/12 A2988 RMK T01300120 IEM_DS3505
ZBHH,2008-09-21 18:00,ZBHH 211800Z AUTO 22002KT 2SM 13/12 A2988 RMK 60000 SLP111 T01320123 52010 IEM_DS3505
ZBHH,2008-09-21 19:00,ZBHH 211900Z AUTO 21004KT 2SM 13/12 A2988 RMK T01300120 IEM_DS3505
ZBHH,2008-09-21 20:00,ZBHH 212000Z AUTO 25006KT 2SM 13/12 A2991 RMK T01300120 IEM_DS3505
ZBHH,2008-09-21 21:00,ZBHH 212100Z AUTO 02006KT 9SM 15/10 A2994 RMK 70111 SLP126 T01470101 52017 IEM_DS3505
ZBHH,2008-09-21 22:00,ZBHH 212200Z AUTO 34012KT 7SM 14/10 A2997 RMK T01400100 IEM_DS3505
ZBHH,2008-09-21 23:00,ZBHH 212300Z AUTO 34008KT 7SM 15/10 A2997 RMK T01500100 IEM_DS3505
ZBHH,2008-09-22 00:00,ZBHH 220000Z AUTO 34004KT 19SM 16/07 A3000 RMK 70111 SLP143 T01560074 52018 IEM_DS3505
ZBHH,2008-09-22 01:00,ZBHH 220100Z AUTO 35008KT 7SM 16/08 A3003 RMK T01600080 IEM_DS3505
ZBHH,2008-09-22 02:00,ZBHH 220200Z AUTO 02010KT 7SM 18/06 A3003 RMK T01800060 IEM_DS3505
ZBHH,2008-09-22 03:00,ZBHH 220300Z AUTO 36008KT 19SM 17/06 A3003 RMK SLP160 T01670056 52016 IEM_DS3505
ZBHH,2008-09-22 04:00,ZBHH 220400Z AUTO 03010KT 7SM 18/02 A3006 RMK T01800020 IEM_DS3505
ZBHH,2008-09-22 05:00,ZBHH 220500Z AUTO 08010KT 7SM 18/04 A3009 RMK T01800040 IEM_DS3505
ZBHH,2008-09-22 06:00,ZBHH 220600Z AUTO 36006KT 7SM 16/06 A3009 RMK T01600060 IEM_DS3505
ZBHH,2008-09-22 07:00,ZBHH 220700Z AUTO 10008KT 7SM 15/06 A3009 RMK T01500060 IEM_DS3505
ZBHH,2008-09-22 08:00,ZBHH 220800Z AUTO 09010KT 7SM 14/06 A3012 RMK T01400060 IEM_DS3505
ZBHH,2008-09-22 09:00,ZBHH 220900Z AUTO 04006KT 19SM 14/05 A3012 RMK SLP185 T01450048 52006 IEM_DS3505
ZBHH,2008-09-22 10:00,ZBHH 221000Z AUTO 10010KT 7SM 13/05 A3015 RMK T01300050 IEM_DS3505
ZBHH,2008-09-22 11:00,ZBHH 221100Z AUTO 08010KT 7SM 13/05 A3018 RMK T01300050 IEM_DS3505
ZBHH,2008-09-22 12:00,ZBHH 221200Z AUTO 07004KT 19SM 13/05 A3021 RMK SLP209 T01300049 52020 IEM_DS3505
ZBHH,2008-09-22 13:00,ZBHH 221300Z AUTO 08010KT 7SM 12/05 A3021 RMK T01200050 IEM_DS3505
ZBHH,2008-09-22 14:00,ZBHH 221400Z AUTO 09010KT 7SM 11/04 A3021 RMK T01100040 IEM_DS3505
ZBHH,2008-09-22 15:00,ZBHH 221500Z AUTO 09006KT 19SM 12/04 A3021 RMK SLP221 T01160041 52010 IEM_DS3505
ZBHH,2008-09-22 16:00,ZBHH 221600Z AUTO 05008KT 7SM 11/04 A3021 RMK T01100040 IEM_DS3505
ZBHH,2008-09-22 17:00,ZBHH 221700Z AUTO 07008KT 7SM 11/03 A3021 RMK T01100030 IEM_DS3505
ZBHH,2008-09-22 18:00,ZBHH 221800Z AUTO 07004KT 19SM 11/03 A3021 RMK SLP220 T01100031 57006 IEM_DS3505
ZBHH,2008-09-22 19:00,ZBHH 221900Z AUTO 10008KT 7SM 10/04 A3021 RMK T01000040 IEM_DS3505
ZBHH,2008-09-22 20:00,ZBHH 222000Z AUTO 11008KT 7SM 10/02 A3021 RMK T01000020 IEM_DS3505
ZBHH,2008-09-22 21:00,ZBHH 222100Z AUTO 07004KT 12SM 10/03 A3021 RMK SLP224 T01000026 52001 IEM_DS3505
ZBHH,2008-09-22 22:00,ZBHH 222200Z AUTO 11008KT 7SM 10/02 A3021 RMK T01000020 IEM_DS3505
ZBHH,2008-09-22 23:00,ZBHH 222300Z AUTO 10008KT 7SM 10/01 A3024 RMK T01000010 IEM_DS3505
ZBHH,2008-09-23 00:00,ZBHH 230000Z AUTO 07004KT 12SM 10/M00 A3024 RMK SLP239 T01011001 52011 IEM_DS3505
ZBHH,2008-09-23 01:00,ZBHH 230100Z AUTO 08014KT 7SM 11/M02 A3024 RMK T01101020 IEM_DS3505
ZBHH,2008-09-23 02:00,ZBHH 230200Z AUTO 08012KT 7SM 11/M02 A3024 RMK T01101020 IEM_DS3505
ZBHH,2008-09-23 03:00,ZBHH 230300Z AUTO 07006KT 12SM 12/M01 A3021 RMK SLP234 T01171014 57004 IEM_DS3505
ZBHH,2008-09-23 04:00,ZBHH 230400Z AUTO 08012KT 7SM 12/M02 A3021 RMK T01201020 IEM_DS3505
ZBHH,2008-09-23 05:00,ZBHH 230500Z AUTO 08012KT 7SM 12/M02 A3018 RMK T01201020 IEM_DS3505
ZBHH,2008-09-23 06:00,ZBHH 230600Z AUTO 07004KT 12SM 13/M02 A3015 RMK SLP209 T01321019 57021 IEM_DS3505
ZBHH,2008-09-23 07:00,ZBHH 230700Z AUTO 10010KT 7SM 14/00 A3015 RMK T01400000 IEM_DS3505
ZBHH,2008-09-23 08:00,ZBHH 230800Z AUTO 10006KT 7SM 13/00 A3015 RMK T01300000 IEM_DS3505
ZBHH,2008-09-23 09:00,ZBHH 230900Z AUTO 09004KT 19SM 13/M00 A3015 RMK SLP203 T01301003 57007 IEM_DS3505
ZBHH,2008-09-23 10:00,ZBHH 231000Z AUTO 22002KT 7SM 11/07 A3012 RMK T01100070 IEM_DS3505
ZBHH,2008-09-23 11:00,ZBHH 231100Z AUTO 24002KT 7SM 11/07 A3012 RMK T01100070 IEM_DS3505
ZBHH,2008-09-23 12:00,ZBHH 231200Z AUTO 11002KT 19SM 12/02 A3012 RMK SLP198 T01220015 57006 IEM_DS3505
ZBHH,2008-09-23 13:00,ZBHH 231300Z AUTO 00000KT 7SM 11/05 A3012 RMK T01100050 IEM_DS3505
ZBHH,2008-09-23 14:00,ZBHH 231400Z AUTO 08004KT 7SM 11/04 A3012 RMK T01100040 IEM_DS3505
ZBHH,2008-09-23 15:00,ZBHH 231500Z AUTO 34002KT 12SM 12/02 A3012 RMK SLP196 T01220015 52001 IEM_DS3505
ZBHH,2008-09-23 16:00,ZBHH 231600Z AUTO 15002KT 7SM 11/06 A3009 RMK T01100060 IEM_DS3505
ZBHH,2008-09-23 17:00,ZBHH 231700Z AUTO 07004KT 7SM 11/05 A3009 RMK T01100050 IEM_DS3505
ZBHH,2008-09-23 18:00,ZBHH 231800Z AUTO 09002KT 7SM 11/06 A3006 RMK T01100060 IEM_DS3505
ZBHH,2008-09-23 19:00,ZBHH 231900Z AUTO 08002KT 7SM 11/06 A3006 RMK T01100060 IEM_DS3505
ZBHH,2008-09-23 20:00,ZBHH 232000Z AUTO 08002KT 7SM 11/08 A3003 RMK T01100080 IEM_DS3505
ZBHH,2008-09-23 21:00,ZBHH 232100Z AUTO 34002KT 12SM 12/06 A3003 RMK SLP161 T01190062 57014 IEM_DS3505
ZBHH,2008-09-23 22:00,ZBHH 232200Z AUTO 08004KT 7SM 11/08 A3003 RMK T01100080 IEM_DS3505
ZBHH,2008-09-23 23:00,ZBHH 232300Z AUTO 06002KT 4SM 11/08 A3003 RMK T01100080 IEM_DS3505
ZBHH,2008-09-24 00:00,ZBHH 240000Z AUTO 09002KT 6SM 12/08 A3003 RMK 60000 70000 SLP167 T01190076 52004 IEM_DS3505
ZBHH,2008-09-24 01:00,ZBHH 240100Z AUTO 08002KT 2 1/2SM 10/09 A3006 RMK T01000090 IEM_DS3505
ZBHH,2008-09-24 02:00,ZBHH 240200Z AUTO 36002KT 2 1/2SM 11/10 A3006 RMK T01100100 IEM_DS3505
ZBHH,2008-09-24 03:00,ZBHH 240300Z AUTO 04002KT 6SM 12/10 A3003 RMK SLP168 T01190098 52001 IEM_DS3505
ZBHH,2008-09-24 04:00,ZBHH 240400Z AUTO 20002KT 3SM 12/10 A3003 RMK T01200100 IEM_DS3505
ZBHH,2008-09-24 05:00,ZBHH 240500Z AUTO 23002KT 4SM 12/10 A3000 RMK T01200100 IEM_DS3505
ZBHH,2008-09-24 06:00,ZBHH 240600Z AUTO 00000KT 6SM 12/10 A3000 RMK 60003 SLP154 T01250102 57012 IEM_DS3505
ZBHH,2008-09-24 07:00,ZBHH 240700Z AUTO 21002KT 2 1/2SM 12/11 A3000 RMK T01200110 IEM_DS3505
ZBHH,2008-09-24 08:00,ZBHH 240800Z AUTO 20002KT 2 1/2SM 12/11 A2997 RMK T01200110 IEM_DS3505
ZBHH,2008-09-24 09:00,ZBHH 240900Z AUTO 22002KT 6SM 12/11 A3000 RMK SLP152 T01240108 57002 IEM_DS3505
ZBHH,2008-09-24 10:00,ZBHH 241000Z AUTO 22004KT 3SM 12/11 A3000 RMK T01200110 IEM_DS3505
ZBHH,2008-09-24 11:00,ZBHH 241100Z AUTO 20002KT 2SM 12/11 A3003 RMK T01200110 IEM_DS3505
ZBHH,2008-09-24 12:00,ZBHH 241200Z AUTO 27002KT 6SM 12/11 A3003 RMK 60001 SLP166 T01240108 52013 IEM_DS3505
ZBHH,2008-09-24 13:00,ZBHH 241300Z AUTO 23002KT 2 1/2SM 12/11 A3006 RMK T01200110 IEM_DS3505
ZBHH,2008-09-24 14:00,ZBHH 241400Z AUTO 21004KT 2 1/2SM 12/11 A3009 RMK T01200110 IEM_DS3505
ZBHH,2008-09-24 15:00,ZBHH 241500Z AUTO 22002KT 6SM 12/10 A3009 RMK SLP189 T01150102 52018 IEM_DS3505
ZBHH,2008-09-24 16:00,ZBHH 241600Z AUTO 22002KT 1 1/2SM 11/10 A3012 RMK T01100100 IEM_DS3505
ZBHH,2008-09-24 17:00,ZBHH 241700Z AUTO 00000KT 1/4SM 10/10 A3012 RMK T01000100 IEM_DS3505
ZBHH,2008-09-24 18:00,ZBHH 241800Z AUTO 18002KT 10/08 A3012 RMK SLP204 T00970080 52011 IEM_DS3505
ZBHH,2008-09-24 19:00,ZBHH 241900Z AUTO 16002KT 5SM 09/09 A3015 RMK T00900090 IEM_DS3505
ZBHH,2008-09-24 20:00,ZBHH 242000Z AUTO 01008KT 6SM 10/02 A3015 RMK T01000020 IEM_DS3505
ZBHH,2008-09-24 21:00,ZBHH 242100Z AUTO 07004KT 9SM 10/M01 A3015 RMK 70004 SLP217 T00981013 52011 IEM_DS3505
ZBHH,2008-09-24 22:00,ZBHH 242200Z AUTO 34006KT 6SM 08/01 A3018 RMK T00800010 IEM_DS3505
ZBHH,2008-09-24 23:00,ZBHH 242300Z AUTO 33010KT 6SM 07/01 A3021 RMK T00700010 IEM_DS3505
ZBHH,2008-09-25 00:00,ZBHH 250000Z AUTO 04004KT 12SM 10/M02 A3024 RMK 70004 SLP244 T01001020 52025 IEM_DS3505
ZBHH,2008-09-25 01:00,ZBHH 250100Z AUTO 03006KT 6SM 11/00 A3024 RMK T01100000 IEM_DS3505
ZBHH,2008-09-25 02:00,ZBHH 250200Z AUTO 08006KT 6SM 12/00 A3024 RMK T01200000 IEM_DS3505
ZBHH,2008-09-25 03:00,ZBHH 250300Z AUTO 09006KT 19SM 13/01 A3024 RMK SLP241 T01330010 52002 IEM_DS3505
ZBHH,2008-09-25 04:00,ZBHH 250400Z AUTO 08004KT 6SM 14/00 A3024 RMK T01400000 IEM_DS3505
ZBHH,2008-09-25 05:00,ZBHH 250500Z AUTO 24004KT 7SM 14/M01 A3024 RMK T01401010 IEM_DS3505
ZBHH,2008-09-25 06:00,ZBHH 250600Z AUTO 02006KT 19SM 14/00 A3024 RMK SLP237 T01400003 57006 IEM_DS3505
ZBHH,2008-09-25 07:00,ZBHH 250700Z AUTO 01014KT 7SM 15/M01 A3024 RMK T01501010 IEM_DS3505
ZBHH,2008-09-25 08:00,ZBHH 250800Z AUTO 36014KT 6SM 15/00 A3021 RMK T01500000 IEM_DS3505
ZBHH,2008-09-25 09:00,ZBHH 250900Z AUTO 36006KT 19SM 13/M01 A3024 RMK SLP243 T01341014 52004 IEM_DS3505
ZBHH,2008-09-25 10:00,ZBHH 251000Z AUTO 01008KT 6SM 12/M02 A3024 RMK T01201020 IEM_DS3505
ZBHH,2008-09-25 11:00,ZBHH 251100Z AUTO 01008KT 6SM 11/M02 A3030 RMK T01101020 IEM_DS3505
ZBHH,2008-09-25 12:00,ZBHH 251200Z AUTO 04006KT 19SM 10/M05 A3030 RMK SLP270 T01051047 52019 IEM_DS3505
ZBHH,2008-09-25 13:00,ZBHH 251300Z AUTO 36008KT 6SM 09/M03 A3033 RMK T00901030 IEM_DS3505
ZBHH,2008-09-25 14:00,ZBHH 251400Z AUTO 03004KT 6SM 08/M02 A3036 RMK T00801020 IEM_DS3505
ZBHH,2008-09-25 15:00,ZBHH 251500Z AUTO 27002KT 19SM 08/M02 A3036 RMK SLP287 T00781025 52016 IEM_DS3505
ZBHH,2008-09-25 16:00,ZBHH 251600Z AUTO 06004KT 6SM 04/00 A3036 RMK T00400000 IEM_DS3505
ZBHH,2008-09-25 17:00,ZBHH 251700Z AUTO 13002KT 6SM 03/00 A3039 RMK T00300000 IEM_DS3505
ZBHH,2008-09-25 18:00,ZBHH 251800Z AUTO 27002KT 19SM 06/M02 A3039 RMK SLP294 T00591024 52004 IEM_DS3505
ZBHH,2008-09-25 19:00,ZBHH 251900Z AUTO 06004KT 6SM 02/M02 A3039 RMK T00201020 IEM_DS3505
ZBHH,2008-09-25 20:00,ZBHH 252000Z AUTO 04006KT 6SM 03/M03 A3039 RMK T00301030 IEM_DS3505
ZBHH,2008-09-25 21:00,ZBHH 252100Z AUTO 00000KT 19SM 03/M03 A3039 RMK SLP304 T00331029 52002 IEM_DS3505
ZBHH,2008-09-25 22:00,ZBHH 252200Z AUTO 05004KT 6SM 02/M03 A3039 RMK T00201030 IEM_DS3505
ZBHH,2008-09-25 23:00,ZBHH 252300Z AUTO 04008KT 6SM 03/M03 A3042 RMK T00301030 IEM_DS3505
ZBHH,2008-09-26 00:00,ZBHH 260000Z AUTO 07004KT 16SM 07/M04 A3042 RMK SLP311 T00701044 52008 IEM_DS3505
ZBHH,2008-09-26 01:00,ZBHH 260100Z AUTO 09006KT 6SM 08/M03 A3042 RMK T00801030 IEM_DS3505
ZBHH,2008-09-26 02:00,ZBHH 260200Z AUTO 10006KT 6SM 10/M06 A3042 RMK T01001060 IEM_DS3505
ZBHH,2008-09-26 03:00,ZBHH 260300Z AUTO 09004KT 19SM 10/M07 A3039 RMK SLP303 T01041069 57006 IEM_DS3505
ZBHH,2008-09-26 04:00,ZBHH 260400Z AUTO 09006KT 6SM 12/M06 A3036 RMK T01201060 IEM_DS3505
ZBHH,2008-09-26 05:00,ZBHH 260500Z AUTO 04004KT 6SM 13/M06 A3033 RMK T01301060 IEM_DS3505
ZBHH,2008-09-26 06:00,ZBHH 260600Z AUTO 04002G14KT 19SM 13/M06 A3030 RMK SLP265 T01341062 57031 IEM_DS3505
ZBHH,2008-09-26 07:00,ZBHH 260700Z AUTO 33004KT 6SM 14/M06 A3027 RMK T01401060 IEM_DS3505
ZBHH,2008-09-26 08:00,ZBHH 260800Z AUTO 22006KT 6SM 14/M05 A3027 RMK T01401050 IEM_DS3505
ZBHH,2008-09-26 09:00,ZBHH 260900Z AUTO 22004KT 19SM 13/M05 A3024 RMK SLP260 T01331053 57010 IEM_DS3505
ZBHH,2008-09-26 10:00,ZBHH 261000Z AUTO 22004KT 7SM 12/01 A3024 RMK T01200010 IEM_DS3505
ZBHH,2008-09-26 11:00,ZBHH 261100Z AUTO 09002KT 7SM 11/02 A3024 RMK T01100020 IEM_DS3505
ZBHH,2008-09-26 12:00,ZBHH 261200Z AUTO 32002KT 16SM 11/M03 A3024 RMK SLP250 T01081029 57006 IEM_DS3505
ZBHH,2008-09-26 13:00,ZBHH 261300Z AUTO 05002KT 7SM 08/03 A3024 RMK T00800030 IEM_DS3505
ZBHH,2008-09-26 14:00,ZBHH 261400Z AUTO 03004KT 7SM 08/01 A3027 RMK T00800010 IEM_DS3505
ZBHH,2008-09-26 15:00,ZBHH 261500Z AUTO 04002KT 16SM 09/01 A3027 RMK SLP256 T00900009 52008 IEM_DS3505
ZBHH,2008-09-26 16:00,ZBHH 261600Z AUTO 07004KT 7SM 06/03 A3027 RMK T00600030 IEM_DS3505
ZBHH,2008-09-26 17:00,ZBHH 261700Z AUTO 05004KT 7SM 07/02 A3027 RMK T00700020 IEM_DS3505
ZBHH,2008-09-26 18:00,ZBHH 261800Z AUTO 00000KT 16SM 08/01 A3024 RMK SLP246 T00790009 57005 IEM_DS3505
ZBHH,2008-09-26 19:00,ZBHH 261900Z AUTO 07004KT 7SM 06/03 A3024 RMK T00600030 IEM_DS3505
ZBHH,2008-09-26 20:00,ZBHH 262000Z AUTO 07002KT 7SM 07/03 A3024 RMK T00700030 IEM_DS3505
ZBHH,2008-09-26 21:00,ZBHH 262100Z AUTO 02002KT 16SM 08/02 A3024 RMK SLP244 T00790015 57002 IEM_DS3505
ZBHH,2008-09-26 22:00,ZBHH 262200Z AUTO 05002KT 7SM 06/03 A3024 RMK T00600030 IEM_DS3505
ZBHH,2008-09-26 23:00,ZBHH 262300Z AUTO 06004KT 7SM 06/04 A3024 RMK T00600040 IEM_DS3505
ZBHH,2008-09-27 00:00,ZBHH 270000Z AUTO 09004KT 16SM 09/02 A3024 RMK SLP243 T00860022 57004 IEM_DS3505
ZBHH,2008-09-27 01:00,ZBHH 270100Z AUTO 10002KT 7SM 10/03 A3024 RMK T01000030 IEM_DS3505
ZBHH,2008-09-27 02:00,ZBHH 270200Z AUTO 20002KT 7SM 12/02 A3027 RMK T01200020 IEM_DS3505
ZBHH,2008-09-27 03:00,ZBHH 270300Z AUTO 34002KT 12SM 13/00 A3024 RMK SLP241 T01260004 52002 IEM_DS3505
ZBHH,2008-09-27 04:00,ZBHH 270400Z AUTO 21004KT 7SM 14/01 A3021 RMK T01400010 IEM_DS3505
ZBHH,2008-09-27 05:00,ZBHH 270500Z AUTO 25004KT 7SM 14/01 A3018 RMK T01400010 IEM_DS3505
ZBHH,2008-09-27 06:00,ZBHH 270600Z AUTO 20002KT 12SM 14/00 A3015 RMK SLP221 T01370000 57017 IEM_DS3505
ZBHH,2008-09-27 07:00,ZBHH 270700Z AUTO 23004KT 7SM 14/01 A3018 RMK T01400010 IEM_DS3505
ZBHH,2008-09-27 08:00,ZBHH 270800Z AUTO 24004KT 7SM 14/01 A3015 RMK T01400010 IEM_DS3505
ZBHH,2008-09-27 09:00,ZBHH 270900Z AUTO 25002KT 9SM 13/01 A3015 RMK SLP213 T01340014 57008 IEM_DS3505
ZBHH,2008-09-27 10:00,ZBHH 271000Z AUTO 21004KT 7SM 13/03 A3015 RMK T01300030 IEM_DS3505
ZBHH,2008-09-27 11:00,ZBHH 271100Z AUTO 19002KT 7SM 12/04 A3015 RMK T01200040 IEM_DS3505
ZBHH,2008-09-27 12:00,ZBHH 271200Z AUTO 27002KT 9SM 12/03 A3018 RMK SLP222 T01220032 52007 IEM_DS3505
ZBHH,2008-09-27 13:00,ZBHH 271300Z AUTO 10002KT 7SM 11/05 A3021 RMK T01100050 IEM_DS3505
ZBHH,2008-09-27 14:00,ZBHH 271400Z AUTO 05004KT 7SM 10/06 A3021 RMK T01000060 IEM_DS3505
ZBHH,2008-09-27 15:00,ZBHH 271500Z AUTO 07002KT 12SM 11/04 A3018 RMK SLP221 T01120042 52005 IEM_DS3505
ZBHH,2008-09-27 16:00,ZBHH 271600Z AUTO 11002KT 7SM 09/07 A3018 RMK T00900070 IEM_DS3505
ZBHH,2008-09-27 17:00,ZBHH 271700Z AUTO 06004KT 7SM 09/06 A3018 RMK T00900060 IEM_DS3505
ZBHH,2008-09-27 18:00,ZBHH 271800Z AUTO 02002KT 12SM 10/04 A3018 RMK SLP217 T00970045 57004 IEM_DS3505
ZBHH,2008-09-27 19:00,ZBHH 271900Z AUTO 04004KT 7SM 08/05 A3018 RMK T00800050 IEM_DS3505
ZBHH,2008-09-27 20:00,ZBHH 272000Z AUTO 03002KT 7SM 07/04 A3015 RMK T00700040 IEM_DS3505
ZBHH,2008-09-27 21:00,ZBHH 272100Z AUTO 00000KT 12SM 07/04 A3018 RMK SLP226 T00730044 52002 IEM_DS3505
ZBHH,2008-09-27 22:00,ZBHH 272200Z AUTO 05004KT 7SM 06/04 A3018 RMK T00600040 IEM_DS3505
ZBHH,2008-09-27 23:00,ZBHH 272300Z AUTO 06004KT 6SM 05/04 A3018 RMK T00500040 IEM_DS3505
ZBHH,2008-09-28 00:00,ZBHH 280000Z AUTO 07002KT 12SM 09/04 RMK SLP225 T00920042 52001 IEM_DS3505
ZBHH,2008-09-28 03:00,ZBHH 280300Z AUTO 20002KT 6SM 14/07 RMK SLP215 T01410072 57001 IEM_DS3505
ZBHH,2008-09-28 05:00,ZBHH 280500Z AUTO 24008KT 7SM 17/07 A3015 RMK T01700070 IEM_DS3505
ZBHH,2008-09-28 06:00,ZBHH 280600Z AUTO 20006KT 6SM 17/06 A3012 RMK SLP193 T01710057 57017 IEM_DS3505
ZBHH,2008-09-28 07:00,ZBHH 280700Z AUTO 25008KT 7SM 18/05 A3012 RMK T01800050 IEM_DS3505
ZBHH,2008-09-28 08:00,ZBHH 280800Z AUTO 24008KT 6SM 18/05 A3009 RMK T01800050 IEM_DS3505
ZBHH,2008-09-28 09:00,ZBHH 280900Z AUTO 22008KT 6SM 17/06 A3009 RMK SLP189 T01710063 57008 IEM_DS3505
ZBHH,2008-09-28 10:00,ZBHH 281000Z AUTO 23006KT 6SM 15/07 A3012 RMK T01500070 IEM_DS3505
ZBHH,2008-09-28 11:00,ZBHH 281100Z AUTO 19004KT 6SM 13/07 A3012 RMK T01300070 IEM_DS3505
ZBHH,2008-09-28 12:00,ZBHH 281200Z AUTO 22004KT 12SM 14/07 A3012 RMK SLP202 T01380071 52009 IEM_DS3505
ZBHH,2008-09-28 13:00,ZBHH 281300Z AUTO 13002KT 6SM 10/07 A3015 RMK T01000070 IEM_DS3505
ZBHH,2008-09-28 14:00,ZBHH 281400Z AUTO 13004KT 6SM 10/08 A3015 RMK T01000080 IEM_DS3505
ZBHH,2008-09-28 15:00,ZBHH 281500Z AUTO 07004KT 12SM 10/07 A3015 RMK SLP209 T01050070 52009 IEM_DS3505
ZBHH,2008-09-28 16:00,ZBHH 281600Z AUTO 06004KT 6SM 08/06 A3018 RMK T00800060 IEM_DS3505
ZBHH,2008-09-28 17:00,ZBHH 281700Z AUTO 07004KT 5SM 07/05 A3018 RMK T00700050 IEM_DS3505
ZBHH,2008-09-28 18:00,ZBHH 281800Z AUTO 09002KT 19SM 09/06 A3018 RMK SLP209 T00860062 52002 IEM_DS3505
ZBHH,2008-09-28 19:00,ZBHH 281900Z AUTO 05004KT 4SM 07/06 A3018 RMK T00700060 IEM_DS3505
ZBHH,2008-09-28 20:00,ZBHH 282000Z AUTO 06004KT 4SM 06/05 A3018 RMK T00600050 IEM_DS3505
ZBHH,2008-09-28 21:00,ZBHH 282100Z AUTO 09002KT 19SM 07/05 A3015 RMK SLP211 T00660051 57002 IEM_DS3505
ZBHH,2008-09-28 22:00,ZBHH 282200Z AUTO 07004KT 4SM 05/04 A3018 RMK T00500040 IEM_DS3505
ZBHH,2008-09-28 23:00,ZBHH 282300Z AUTO 05004KT 3SM 05/04 A3018 RMK T00500040 IEM_DS3505
ZBHH,2008-09-29 00:00,ZBHH 290000Z AUTO 04002KT 12SM 08/06 A3021 RMK SLP226 T00820063 52010 IEM_DS3505
ZBHH,2008-09-29 01:00,ZBHH 290100Z AUTO 13004KT 6SM 11/07 A3021 RMK T01100070 IEM_DS3505
ZBHH,2008-09-29 02:00,ZBHH 290200Z AUTO 14004KT 7SM 13/08 A3021 RMK T01300080 IEM_DS3505
ZBHH,2008-09-29 03:00,ZBHH 290300Z AUTO 22002KT 12SM 14/08 A3021 RMK SLP223 T01380078 52002 IEM_DS3505
ZBHH,2008-09-29 04:00,ZBHH 290400Z AUTO 26006KT 6SM 16/09 A3018 RMK T01600090 IEM_DS3505
ZBHH,2008-09-29 05:00,ZBHH 290500Z AUTO 6SM 17/08 A3015 RMK T01700080 IEM_DS3505
ZBHH,2008-09-29 06:00,ZBHH 290600Z AUTO 25004KT 12SM 18/08 A3012 RMK SLP189 T01830083 57025 IEM_DS3505
ZBHH,2008-09-29 07:00,ZBHH 290700Z AUTO 27008KT 6SM 19/08 A3009 RMK T01900080 IEM_DS3505
ZBHH,2008-09-29 08:00,ZBHH 290800Z AUTO 26006KT 6SM 20/08 A3009 RMK T02000080 IEM_DS3505
ZBHH,2008-09-29 09:00,ZBHH 290900Z AUTO 22006KT 12SM 19/07 A3009 RMK SLP180 T01910072 57010 IEM_DS3505
ZBHH,2008-09-29 10:00,ZBHH 291000Z AUTO 24006KT 6SM 17/09 A3009 RMK T01700090 IEM_DS3505
ZBHH,2008-09-29 11:00,ZBHH 291100Z AUTO 23004KT 5SM 15/09 A3012 RMK T01500090 IEM_DS3505
ZBHH,2008-09-29 12:00,ZBHH 291200Z AUTO 00000KT 12SM 14/09 A3012 RMK SLP203 T01410093 52013 IEM_DS3505
ZBHH,2008-09-29 13:00,ZBHH 291300Z AUTO 06004KT 4SM 12/09 A3015 RMK T01200090 IEM_DS3505
ZBHH,2008-09-29 14:00,ZBHH 291400Z AUTO 08004KT 4SM 11/09 A3015 RMK T01100090 IEM_DS3505
ZBHH,2008-09-29 15:00,ZBHH 291500Z AUTO 11002KT 12SM 12/09 A3015 RMK SLP206 T01180090 52009 IEM_DS3505
ZBHH,2008-09-29 16:00,ZBHH 291600Z AUTO 07004KT 5SM 10/08 A3018 RMK T01000080 IEM_DS3505
ZBHH,2008-09-29 17:00,ZBHH 291700Z AUTO 06004KT 5SM 10/07 A3015 RMK T01000070 IEM_DS3505
ZBHH,2008-09-29 18:00,ZBHH 291800Z AUTO 00000KT 12SM 10/08 A3018 RMK SLP202 T00980081 52002 IEM_DS3505
ZBHH,2008-09-29 19:00,ZBHH 291900Z AUTO 06004KT 5SM 08/07 A3015 RMK T00800070 IEM_DS3505
ZBHH,2008-09-29 20:00,ZBHH 292000Z AUTO 07004KT 4SM 08/06 A3015 RMK T00800060 IEM_DS3505
ZBHH,2008-09-29 21:00,ZBHH 292100Z AUTO 00000KT 4SM 08/07 A3018 RMK SLP206 T00840073 52002 IEM_DS3505
ZBHH,2008-09-29 22:00,ZBHH 292200Z AUTO 07004KT 4SM 07/06 A3018 RMK T00700060 IEM_DS3505
ZBHH,2008-09-29 23:00,ZBHH 292300Z AUTO 06004KT 4SM 07/06 A3021 RMK T00700060 IEM_DS3505
ZBHH,2008-09-30 00:00,ZBHH 300000Z AUTO 11002KT 5SM 10/08 A3021 RMK SLP224 T01050083 52010 IEM_DS3505
ZBHH,2008-09-30 01:00,ZBHH 300100Z AUTO 08004KT 5SM 13/09 A3021 RMK T01300090 IEM_DS3505
ZBHH,2008-09-30 02:00,ZBHH 300200Z AUTO 08002KT 6SM 16/09 A3021 RMK T01600090 IEM_DS3505
ZBHH,2008-09-30 03:00,ZBHH 300300Z AUTO 16002KT 7SM 18/08 A3018 RMK SLP210 T01790085 57002 IEM_DS3505
ZBHH,2008-09-30 04:00,ZBHH 300400Z AUTO 26004KT 6SM 20/09 A3018 RMK T02000090 IEM_DS3505
ZBHH,2008-09-30 05:00,ZBHH 300500Z AUTO 28004KT 7SM 22/09 A3015 RMK T02200090 IEM_DS3505
ZBHH,2008-09-30 06:00,ZBHH 300600Z AUTO 18004KT 7SM 22/08 A3015 RMK SLP185 T02220080 57018 IEM_DS3505
ZBHH,2008-09-30 07:00,ZBHH 300700Z AUTO 27006KT 7SM 23/05 A3012 RMK T02300050 IEM_DS3505
ZBHH,2008-09-30 08:00,ZBHH 300800Z AUTO 26006KT 6SM 24/05 A3009 RMK T02400050 IEM_DS3505
ZBHH,2008-09-30 09:00,ZBHH 300900Z AUTO 22004KT 9SM 23/02 A3009 RMK SLP171 T02300025 57013 IEM_DS3505
ZBHH,2008-09-30 10:00,ZBHH 301000Z AUTO 24004KT 6SM 20/07 A3009 RMK T02000070 IEM_DS3505
ZBHH,2008-09-30 11:00,ZBHH 301100Z AUTO 22002KT 6SM 17/07 A3012 RMK T01700070 IEM_DS3505
ZBHH,2008-09-30 12:00,ZBHH 301200Z AUTO 27002KT 19SM 16/07 A3012 RMK SLP192 T01560069 52008 IEM_DS3505
ZBHH,2008-09-30 13:00,ZBHH 301300Z AUTO 07004KT 6SM 12/07 A3015 RMK T01200070 IEM_DS3505
ZBHH,2008-09-30 14:00,ZBHH 301400Z AUTO 07004KT 6SM 12/07 A3015 RMK T01200070 IEM_DS3505
ZBHH,2008-09-30 15:00,ZBHH 301500Z AUTO 07002KT 12SM 13/06 A3015 RMK SLP189 T01300064 52007 IEM_DS3505
ZBHH,2008-09-30 16:00,ZBHH 301600Z AUTO 04004KT 6SM 11/06 A3015 RMK T01100060 IEM_DS3505
ZBHH,2008-09-30 17:00,ZBHH 301700Z AUTO 09004KT 6SM 10/07 A3015 RMK T01000070 IEM_DS3505
ZBHH,2008-09-30 18:00,ZBHH 301800Z AUTO 00000KT 12SM 10/06 A3015 RMK SLP185 T00980065 57002 IEM_DS3505
ZBHH,2008-09-30 19:00,ZBHH 301900Z AUTO 08004KT 6SM 09/06 A3012 RMK T00900060 IEM_DS3505
ZBHH,2008-09-30 20:00,ZBHH 302000Z AUTO 08004KT 6SM 08/06 A3012 RMK T00800060 IEM_DS3505
ZBHH,2008-09-30 21:00,ZBHH 302100Z AUTO 11002KT 12SM 10/06 A3015 RMK SLP182 T00970059 57001 IEM_DS3505
ZBHH,2008-09-30 22:00,ZBHH 302200Z AUTO 05004KT 6SM 06/04 A3012 RMK T00600040 IEM_DS3505
ZBHH,2008-09-30 23:00,ZBHH 302300Z AUTO 09004KT 6SM 07/05 A3015 RMK T00700050 IEM_DS3505
ZBHH,2008-10-01 00:00,ZBHH 010000Z AUTO 09002KT 12SM 11/07 A3015 RMK SLP200 T01140069 52005 IEM_DS3505
ZBHH,2008-10-01 01:00,ZBHH 010100Z AUTO 12004KT 6SM 14/08 A3015 RMK T01400080 IEM_DS3505
ZBHH,2008-10-01 02:00,ZBHH 010200Z AUTO 20004KT 6SM 16/08 A3015 RMK T01600080 IEM_DS3505
ZBHH,2008-10-01 03:00,ZBHH 010300Z AUTO 25002KT 16SM 16/07 A3012 RMK SLP189 T01650066 57005 IEM_DS3505
ZBHH,2008-10-01 04:00,ZBHH 010400Z AUTO 24006KT 6SM 19/08 A3012 RMK T01900080 IEM_DS3505
ZBHH,2008-10-01 05:00,ZBHH 010500Z AUTO 23010KT 6SM 21/07 A3009 RMK T02100070 IEM_DS3505
ZBHH,2008-10-01 06:00,ZBHH 010600Z AUTO 22008KT 19SM 21/04 A3006 RMK SLP158 T02070039 57025 IEM_DS3505
ZBHH,2008-10-01 07:00,ZBHH 010700Z AUTO 25010KT 6SM 22/03 A3003 RMK T02200030 IEM_DS3505
ZBHH,2008-10-01 08:00,ZBHH 010800Z AUTO 24008KT 6SM 22/04 A3003 RMK T02200040 IEM_DS3505
ZBHH,2008-10-01 09:00,ZBHH 010900Z AUTO 22004KT 19SM 21/06 A3003 RMK SLP147 T02090064 57010 IEM_DS3505
ZBHH,2008-10-01 10:00,ZBHH 011000Z AUTO 24004KT 6SM 19/08 A3003 RMK T01900080 IEM_DS3505
ZBHH,2008-10-01 11:00,ZBHH 011100Z AUTO 11002KT 6SM 17/08 A3003 RMK T01700080 IEM_DS3505
ZBHH,2008-10-01 12:00,ZBHH 011200Z AUTO 02002KT 9SM 16/08 A3003 RMK SLP161 T01630080 52007 IEM_DS3505
ZBHH,2008-10-01 13:00,ZBHH 011300Z AUTO 06004KT 6SM 13/08 A3006 RMK T01300080 IEM_DS3505
ZBHH,2008-10-01 14:00,ZBHH 011400Z AUTO 07004KT 6SM 12/08 A3006 RMK T01200080 IEM_DS3505
ZBHH,2008-10-01 15:00,ZBHH 011500Z AUTO 09002KT 9SM 13/08 A3006 RMK SLP166 T01320079 52008 IEM_DS3505
ZBHH,2008-10-01 16:00,ZBHH 011600Z AUTO 06004KT 6SM 10/07 A3009 RMK T01000070 IEM_DS3505
ZBHH,2008-10-01 17:00,ZBHH 011700Z AUTO 05004KT 6SM 10/07 A3009 RMK T01000070 IEM_DS3505
ZBHH,2008-10-01 18:00,ZBHH 011800Z AUTO 36002KT 12SM 10/07 A3009 RMK SLP169 T01010073 52005 IEM_DS3505
ZBHH,2008-10-01 19:00,ZBHH 011900Z AUTO 08004KT 6SM 09/07 A3009 RMK T00900070 IEM_DS3505
ZBHH,2008-10-01 20:00,ZBHH 012000Z AUTO 08004KT 6SM 08/07 A3009 RMK T00800070 IEM_DS3505
ZBHH,2008-10-01 21:00,ZBHH 012100Z AUTO 29002KT 12SM 09/07 A3009 RMK SLP169 T00860072 57003 IEM_DS3505
ZBHH,2008-10-01 22:00,ZBHH 012200Z AUTO 07004KT 6SM 07/05 A3009 RMK T00700050 IEM_DS3505
ZBHH,2008-10-01 23:00,ZBHH 012300Z AUTO 05004KT 4SM 08/06 A3009 RMK T00800060 IEM_DS3505
ZBHH,2008-10-02 00:00,ZBHH 020000Z AUTO 09002KT 16SM 11/09 A3009 RMK SLP179 T01100089 52005 IEM_DS3505
ZBHH,2008-10-02 01:00,ZBHH 020100Z AUTO 10002KT 6SM 14/09 A3009 RMK T01400090 IEM_DS3505
ZBHH,2008-10-02 02:00,ZBHH 020200Z AUTO 18002KT 6SM 17/08 A3009 RMK T01700080 IEM_DS3505
ZBHH,2008-10-02 03:00,ZBHH 020300Z AUTO 16002KT 16SM 18/08 A3009 RMK SLP168 T01830083 57002 IEM_DS3505
ZBHH,2008-10-02 04:00,ZBHH 020400Z AUTO 22004KT 6SM 20/09 A3006 RMK T02000090 IEM_DS3505
ZBHH,2008-10-02 05:00,ZBHH 020500Z AUTO 6SM 21/09 A3006 RMK T02100090 IEM_DS3505
ZBHH,2008-10-02 06:00,ZBHH 020600Z AUTO 20004KT 7SM 22/09 A3003 RMK SLP147 T02220087 57017 IEM_DS3505
ZBHH,2008-10-02 07:00,ZBHH 020700Z AUTO 22008KT 6SM 23/08 A3000 RMK T02300080 IEM_DS3505
ZBHH,2008-10-02 08:00,ZBHH 020800Z AUTO 23008KT 6SM 23/08 A3000 RMK T02300080 IEM_DS3505
ZBHH,2008-10-02 09:00,ZBHH 020900Z AUTO 22006KT 12SM 22/09 A3000 RMK SLP141 T02170089 57009 IEM_DS3505
ZBHH,2008-10-02 10:00,ZBHH 021000Z AUTO 18002KT 7SM 19/10 A3003 RMK T01900100 IEM_DS3505
ZBHH,2008-10-02 11:00,ZBHH 021100Z AUTO 03006KT 7SM 17/11 A3003 RMK T01700110 IEM_DS3505
ZBHH,2008-10-02 12:00,ZBHH 021200Z AUTO 32004KT 12SM 19/08 A3006 RMK SLP159 T01870075 52015 IEM_DS3505
ZBHH,2008-10-02 13:00,ZBHH 021300Z AUTO 07008KT 7SM 15/09 A3006 RMK T01500090 IEM_DS3505
ZBHH,2008-10-02 14:00,ZBHH 021400Z AUTO 05006KT 6SM 14/07 A3009 RMK T01400070 IEM_DS3505
ZBHH,2008-10-02 15:00,ZBHH 021500Z AUTO 20002KT 12SM 14/04 A3009 RMK SLP167 T01380041 52012 IEM_DS3505
ZBHH,2008-10-02 16:00,ZBHH 021600Z AUTO 06008KT 6SM 12/03 A3009 RMK T01200030 IEM_DS3505
ZBHH,2008-10-02 17:00,ZBHH 021700Z AUTO 07008KT 6SM 11/02 A3012 RMK T01100020 IEM_DS3505
ZBHH,2008-10-02 18:00,ZBHH 021800Z AUTO 25002KT 12SM 12/00 A3012 RMK SLP176 T01220003 52012 IEM_DS3505
ZBHH,2008-10-02 19:00,ZBHH 021900Z AUTO 07008KT 6SM 09/02 A3015 RMK T00900020 IEM_DS3505
ZBHH,2008-10-02 20:00,ZBHH 022000Z AUTO 06010KT 6SM 10/02 A3015 RMK T01000020 IEM_DS3505
ZBHH,2008-10-02 21:00,ZBHH 022100Z AUTO 34002KT 12SM 09/02 A3015 RMK SLP191 T00880022 52006 IEM_DS3505
ZBHH,2008-10-02 22:00,ZBHH 022200Z AUTO 06008KT 6SM 09/02 A3015 RMK T00900020 IEM_DS3505
ZBHH,2008-10-02 23:00,ZBHH 022300Z AUTO 07006KT 6SM 08/02 A3018 RMK T00800020 IEM_DS3505
ZBHH,2008-10-03 00:00,ZBHH 030000Z AUTO 04002KT 19SM 11/02 A3018 RMK SLP202 T01140022 52009 IEM_DS3505
ZBHH,2008-10-03 01:00,ZBHH 030100Z AUTO 08012KT 6SM 13/01 A3018 RMK T01300010 IEM_DS3505
ZBHH,2008-10-03 02:00,ZBHH 030200Z AUTO 09012KT 6SM 15/00 A3018 RMK T01500000 IEM_DS3505
ZBHH,2008-10-03 03:00,ZBHH 030300Z AUTO 14004KT 19SM 17/01 A3015 RMK SLP196 T01680013 57005 IEM_DS3505
ZBHH,2008-10-03 04:00,ZBHH 030400Z AUTO 09012KT 6SM 18/01 A3015 RMK T01800010 IEM_DS3505
ZBHH,2008-10-03 05:00,ZBHH 030500Z AUTO 11008KT 6SM 20/01 A3009 RMK T02000010 IEM_DS3505
ZBHH,2008-10-03 06:00,ZBHH 030600Z AUTO 07004KT 19SM 20/02 A3009 RMK SLP165 T02050023 57023 IEM_DS3505
ZBHH,2008-10-03 07:00,ZBHH 030700Z AUTO 07006KT 6SM 21/02 A3006 RMK T02100020 IEM_DS3505
ZBHH,2008-10-03 08:00,ZBHH 030800Z AUTO 07004KT 6SM 21/02 A3006 RMK T02100020 IEM_DS3505
ZBHH,2008-10-03 09:00,ZBHH 030900Z AUTO 04004KT 19SM 20/02 A3003 RMK SLP157 T02030017 57014 IEM_DS3505
ZBHH,2008-10-03 10:00,ZBHH 031000Z AUTO 06006KT 6SM 18/03 A3006 RMK T01800030 IEM_DS3505
ZBHH,2008-10-03 11:00,ZBHH 031100Z AUTO 07008KT 6SM 15/03 A3006 RMK T01500030 IEM_DS3505
ZBHH,2008-10-03 12:00,ZBHH 031200Z AUTO 07006KT 19SM 16/00 A3009 RMK SLP173 T01640005 52012 IEM_DS3505
ZBHH,2008-10-03 13:00,ZBHH 031300Z AUTO 06010KT 6SM 15/M02 A3009 RMK T01501020 IEM_DS3505
ZBHH,2008-10-03 14:00,ZBHH 031400Z AUTO 07010KT 6SM 15/M03 A3009 RMK T01501030 IEM_DS3505
ZBHH,2008-10-03 15:00,ZBHH 031500Z AUTO 07004KT 19SM 14/M01 A3006 RMK SLP166 T01441009 54000 IEM_DS3505
ZBHH,2008-10-03 16:00,ZBHH 031600Z AUTO 07010KT 6SM 14/M05 A3006 RMK T01401050 IEM_DS3505
ZBHH,2008-10-03 17:00,ZBHH 031700Z AUTO 07008KT 6SM 14/M06 A3006 RMK T01401060 IEM_DS3505
ZBHH,2008-10-03 18:00,ZBHH 031800Z AUTO 11002KT 19SM 14/M02 A3006 RMK SLP150 T01351017 57009 IEM_DS3505
ZBHH,2008-10-03 19:00,ZBHH 031900Z AUTO 08008KT 6SM 13/M03 A3003 RMK T01301030 IEM_DS3505
ZBHH,2008-10-03 20:00,ZBHH 032000Z AUTO 08008KT 6SM 12/M03 A3000 RMK T01201030 IEM_DS3505
ZBHH,2008-10-03 21:00,ZBHH 032100Z AUTO 07004KT 19SM 13/M02 A2997 RMK SLP130 T01281015 57019 IEM_DS3505
ZBHH,2008-10-03 22:00,ZBHH 032200Z AUTO 07010KT 7SM 12/M03 A2997 RMK T01201030 IEM_DS3505
ZBHH,2008-10-03 23:00,ZBHH 032300Z AUTO 09008KT 7SM 12/M02 A2997 RMK T01201020 IEM_DS3505
ZBHH,2008-10-04 00:00,ZBHH 040000Z AUTO 09004KT 6SM 12/03 A2994 RMK 60000 70000 SLP130 T01240026 57008 IEM_DS3505
ZBHH,2008-10-04 01:00,ZBHH 040100Z AUTO 09008KT 7SM 11/03 A2997 RMK T01100030 IEM_DS3505
ZBHH,2008-10-04 02:00,ZBHH 040200Z AUTO 09008KT 7SM 10/06 A2997 RMK T01000060 IEM_DS3505
ZBHH,2008-10-04 03:00,ZBHH 040300Z AUTO 07004KT 7SM 11/07 A2994 RMK SLP130 T01060073 57008 IEM_DS3505
ZBHH,2008-10-04 04:00,ZBHH 040400Z AUTO 10012KT 4SM 11/09 A2991 RMK T01100090 IEM_DS3505
ZBHH,2008-10-04 05:00,ZBHH 040500Z AUTO 10008KT 2SM 12/10 A2988 RMK T01200100 IEM_DS3505
ZBHH,2008-10-04 06:00,ZBHH 040600Z AUTO 20004KT 6SM 13/10 A2988 RMK 60031 SLP105 T01280100 57019 IEM_DS3505
ZBHH,2008-10-04 07:00,ZBHH 040700Z AUTO 23014KT 3SM 10/09 A2988 RMK T01000090 IEM_DS3505
ZBHH,2008-10-04 08:00,ZBHH 040800Z AUTO 22012KT 7SM 10/09 A2988 RMK T01000090 IEM_DS3505
ZBHH,2008-10-04 09:00,ZBHH 040900Z AUTO 22008KT 6SM 10/08 A2988 RMK SLP123 T00970078 52008 IEM_DS3505
ZBHH,2008-10-04 10:00,ZBHH 041000Z AUTO 25012KT 7SM 09/07 A2991 RMK T00900070 IEM_DS3505
ZBHH,2008-10-04 11:00,ZBHH 041100Z AUTO 33014KT 7SM 07/03 A2994 RMK T00700030 IEM_DS3505
ZBHH,2008-10-04 12:00,ZBHH 041200Z AUTO 32008KT 7SM 06/01 A2997 RMK 60024 SLP157 T00620009 52022 IEM_DS3505
ZBHH,2008-10-04 13:00,ZBHH 041300Z AUTO 34012KT 7SM 05/02 A2997 RMK T00500020 IEM_DS3505
ZBHH,2008-10-04 14:00,ZBHH 041400Z AUTO 34008KT 7SM 06/01 A3000 RMK T00600010 IEM_DS3505
ZBHH,2008-10-04 15:00,ZBHH 041500Z AUTO 36008KT 9SM 06/00 A3000 RMK SLP179 T00630002 52016 IEM_DS3505
ZBHH,2008-10-04 16:00,ZBHH 041600Z AUTO 34012KT 7SM 05/01 A3003 RMK T00500010 IEM_DS3505
ZBHH,2008-10-04 17:00,ZBHH 041700Z AUTO 32014KT 7SM 05/00 A3003 RMK T00500000 IEM_DS3505
ZBHH,2008-10-04 18:00,ZBHH 041800Z AUTO 36006KT 16SM 06/M02 A3006 RMK 60000 SLP189 T00551016 52012 IEM_DS3505
ZBHH,2008-10-04 19:00,ZBHH 041900Z AUTO 34006KT 7SM 05/M01 A3006 RMK T00501010 IEM_DS3505
ZBHH,2008-10-04 20:00,ZBHH 042000Z AUTO 02008KT 7SM 06/M01 A3006 RMK T00601010 IEM_DS3505
ZBHH,2008-10-04 21:00,ZBHH 042100Z AUTO 36006KT 19SM 06/M01 A3006 RMK 70055 SLP204 T00551012 52007 IEM_DS3505
ZBHH,2008-10-04 22:00,ZBHH 042200Z AUTO 02010KT 7SM 06/M01 A3009 RMK T00601010 IEM_DS3505
ZBHH,2008-10-04 23:00,ZBHH 042300Z AUTO 04012KT 7SM 06/M02 A3012 RMK T00601020 IEM_DS3505
ZBHH,2008-10-05 00:00,ZBHH 050000Z AUTO 36004KT 19SM 06/M02 A3015 RMK 70055 SLP233 T00651021 52020 IEM_DS3505
ZBHH,2008-10-05 01:00,ZBHH 050100Z AUTO 07006KT 7SM 08/M01 A3015 RMK T00801010 IEM_DS3505
ZBHH,2008-10-05 02:00,ZBHH 050200Z AUTO 33008KT 7SM 08/M03 A3018 RMK T00801030 IEM_DS3505
ZBHH,2008-10-05 03:00,ZBHH 050300Z AUTO 36004KT 19SM 09/M02 A3018 RMK SLP237 T00901023 52009 IEM_DS3505
ZBHH,2008-10-05 04:00,ZBHH 050400Z AUTO 12004KT 6SM 10/M02 A3015 RMK T01001020 IEM_DS3505
ZBHH,2008-10-05 05:00,ZBHH 050500Z AUTO 06006KT 6SM 11/M04 A3015 RMK T01101040 IEM_DS3505
ZBHH,2008-10-05 06:00,ZBHH 050600Z AUTO 27004KT 19SM 12/M03 A3012 RMK SLP214 T01201030 57016 IEM_DS3505
ZBHH,2008-10-05 07:00,ZBHH 050700Z AUTO 12006KT 6SM 12/M03 A3012 RMK T01201030 IEM_DS3505
ZBHH,2008-10-05 08:00,ZBHH 050800Z AUTO 10004KT 6SM 12/M03 A3012 RMK T01201030 IEM_DS3505
ZBHH,2008-10-05 09:00,ZBHH 050900Z AUTO 14004KT 19SM 12/M03 A3012 RMK SLP209 T01201026 57004 IEM_DS3505
ZBHH,2008-10-05 10:00,ZBHH 051000Z AUTO 10004KT 6SM 09/00 A3012 RMK T00900000 IEM_DS3505
ZBHH,2008-10-05 11:00,ZBHH 051100Z AUTO 07004KT 6SM 08/M01 A3015 RMK T00801010 IEM_DS3505
ZBHH,2008-10-05 12:00,ZBHH 051200Z AUTO 04002KT 19SM 09/M01 A3015 RMK SLP228 T00871011 52012 IEM_DS3505
ZBHH,2008-10-05 13:00,ZBHH 051300Z AUTO 04004KT 6SM 04/01 A3018 RMK T00400010 IEM_DS3505
ZBHH,2008-10-05 14:00,ZBHH 051400Z AUTO 11004KT 6SM 04/01 A3018 RMK T00400010 IEM_DS3505
ZBHH,2008-10-05 15:00,ZBHH 051500Z AUTO 02002KT 19SM 05/M00 A3018 RMK SLP234 T00511001 52003 IEM_DS3505
ZBHH,2008-10-05 16:00,ZBHH 051600Z AUTO 05006KT 6SM 03/00 A3015 RMK T00300000 IEM_DS3505
ZBHH,2008-10-05 17:00,ZBHH 051700Z AUTO 05002KT 6SM 02/M01 A3015 RMK T00201010 IEM_DS3505
ZBHH,2008-10-05 18:00,ZBHH 051800Z AUTO 36002KT 19SM 03/M00 A3015 RMK SLP227 T00271001 57005 IEM_DS3505
ZBHH,2008-10-05 19:00,ZBHH 051900Z AUTO 06006KT 6SM 01/M01 A3015 RMK T00101010 IEM_DS3505
ZBHH,2008-10-05 20:00,ZBHH 052000Z AUTO 06004KT 6SM 01/M01 A3012 RMK T00101010 IEM_DS3505
ZBHH,2008-10-05 21:00,ZBHH 052100Z AUTO 09002KT 19SM 03/M00 A3015 RMK SLP220 T00331002 57005 IEM_DS3505
ZBHH,2008-10-05 22:00,ZBHH 052200Z AUTO 07004KT 6SM 02/00 A3015 RMK T00200000 IEM_DS3505
ZBHH,2008-10-05 23:00,ZBHH 052300Z AUTO 08004KT 7SM 03/01 A3015 RMK T00300010 IEM_DS3505
ZBHH,2008-10-06 00:00,ZBHH 060000Z AUTO 04002KT 6SM 05/00 A3015 RMK 60000 70000 SLP229 T00490003 52005 IEM_DS3505
ZBHH,2008-10-06 01:00,ZBHH 060100Z AUTO 10002KT 7SM 05/01 A3015 RMK T00500010 IEM_DS3505
ZBHH,2008-10-06 02:00,ZBHH 060200Z AUTO 09002KT 7SM 07/02 A3015 RMK T00700020 IEM_DS3505
ZBHH,2008-10-06 03:00,ZBHH 060300Z AUTO 20002KT 9SM 09/M00 A3015 RMK SLP226 T00881002 57002 IEM_DS3505
ZBHH,2008-10-06 04:00,ZBHH 060400Z AUTO 24004KT 7SM 10/01 A3012 RMK T01000010 IEM_DS3505
ZBHH,2008-10-06 05:00,ZBHH 060500Z AUTO 19006KT 7SM 11/02 A3009 RMK T01100020 IEM_DS3505
ZBHH,2008-10-06 06:00,ZBHH 060600Z AUTO 22006KT 19SM 12/00 A3006 RMK 60000 SLP199 T01230001 57022 IEM_DS3505
ZBHH,2008-10-06 07:00,ZBHH 060700Z AUTO 21010KT 7SM 13/01 A3006 RMK T01300010 IEM_DS3505
ZBHH,2008-10-06 08:00,ZBHH 060800Z AUTO 20008KT 7SM 12/02 A3003 RMK T01200020 IEM_DS3505
ZBHH,2008-10-06 09:00,ZBHH 060900Z AUTO 22004KT 12SM 13/03 A3006 RMK SLP193 T01270026 57003 IEM_DS3505
ZBHH,2008-10-06 10:00,ZBHH 061000Z AUTO 03006KT 7SM 09/05 A3006 RMK T00900050 IEM_DS3505
ZBHH,2008-10-06 11:00,ZBHH 061100Z AUTO 03004KT 7SM 08/05 A3006 RMK T00800050 IEM_DS3505
ZBHH,2008-10-06 12:00,ZBHH 061200Z AUTO 09002KT 12SM 08/04 A3006 RMK 60000 SLP202 T00830045 52002 IEM_DS3505
ZBHH,2008-10-06 13:00,ZBHH 061300Z AUTO 07004KT 7SM 05/03 A3009 RMK T00500030 IEM_DS3505
ZBHH,2008-10-06 14:00,ZBHH 061400Z AUTO 05004KT 7SM 05/03 A3009 RMK T00500030 IEM_DS3505
ZBHH,2008-10-06 15:00,ZBHH 061500Z AUTO 00000KT 12SM 05/04 A3009 RMK SLP208 T00540037 52007 IEM_DS3505
ZBHH,2008-10-06 16:00,ZBHH 061600Z AUTO 06006KT 6SM 04/02 A3009 RMK T00400020 IEM_DS3505
ZBHH,2008-10-06 17:00,ZBHH 061700Z AUTO 08004KT 6SM 04/02 A3009 RMK T00400020 IEM_DS3505
ZBHH,2008-10-06 18:00,ZBHH 061800Z AUTO 36002KT 12SM 04/03 A3009 RMK SLP203 T00390027 54000 IEM_DS3505
ZBHH,2008-10-06 19:00,ZBHH 061900Z AUTO 07004KT 6SM 03/02 A3009 RMK T00300020 IEM_DS3505
ZBHH,2008-10-06 20:00,ZBHH 062000Z AUTO 08002KT 6SM 03/01 A3006 RMK T00300010 IEM_DS3505
ZBHH,2008-10-06 21:00,ZBHH 062100Z AUTO 07002KT 19SM 03/02 A3006 RMK 70000 SLP195 T00310018 57008 IEM_DS3505
ZBHH,2008-10-06 22:00,ZBHH 062200Z AUTO 08004KT 6SM 02/00 A3006 RMK T00200000 IEM_DS3505
ZBHH,2008-10-06 23:00,ZBHH 062300Z AUTO 07004KT 6SM 02/01 A3006 RMK T00200010 IEM_DS3505
ZBHH,2008-10-07 00:00,ZBHH 070000Z AUTO 11002KT 19SM 06/05 A3006 RMK 70000 SLP198 T00590050 54000 IEM_DS3505
ZBHH,2008-10-07 01:00,ZBHH 070100Z AUTO 08002KT 6SM 09/05 A3006 RMK T00900050 IEM_DS3505
ZBHH,2008-10-07 02:00,ZBHH 070200Z AUTO 10002KT 7SM 11/04 A3006 RMK T01100040 IEM_DS3505
ZBHH,2008-10-07 03:00,ZBHH 070300Z AUTO 16002KT 12SM 13/03 A3003 RMK SLP178 T01310032 57009 IEM_DS3505
ZBHH,2008-10-07 04:00,ZBHH 070400Z AUTO 23006KT 7SM 15/04 A3000 RMK T01500040 IEM_DS3505
ZBHH,2008-10-07 05:00,ZBHH 070500Z AUTO 23008KT 7SM 17/05 A2994 RMK T01700050 IEM_DS3505
ZBHH,2008-10-07 06:00,ZBHH 070600Z AUTO 25006KT 16SM 17/04 A2991 RMK SLP129 T01670044 57039 IEM_DS3505
ZBHH,2008-10-07 07:00,ZBHH 070700Z AUTO 24010G19KT 7SM 16/07 A2988 RMK T01600070 IEM_DS3505
ZBHH,2008-10-07 08:00,ZBHH 070800Z AUTO 23010KT 7SM 15/08 A2988 RMK T01500080 IEM_DS3505
ZBHH,2008-10-07 09:00,ZBHH 070900Z AUTO 22008KT 12SM 14/07 A2988 RMK SLP125 T01420073 57010 IEM_DS3505
ZBHH,2008-10-07 10:00,ZBHH 071000Z AUTO 25006KT 7SM 12/08 A2988 RMK T01200080 IEM_DS3505
ZBHH,2008-10-07 11:00,ZBHH 071100Z AUTO 25004KT 7SM 11/07 A2991 RMK T01100070 IEM_DS3505
ZBHH,2008-10-07 12:00,ZBHH 071200Z AUTO 32004KT 9SM 11/08 A2991 RMK 60001 SLP150 T01130082 52021 IEM_DS3505
ZBHH,2008-10-07 13:00,ZBHH 071300Z AUTO 31010KT 7SM 11/03 A2994 RMK T01100030 IEM_DS3505
ZBHH,2008-10-07 14:00,ZBHH 071400Z AUTO 31016G27KT 7SM 11/00 A3000 RMK T01100000 IEM_DS3505
ZBHH,2008-10-07 15:00,ZBHH 071500Z AUTO 32012KT 19SM 10/M03 A3003 RMK SLP163 T00951028 52023 IEM_DS3505
ZBHH,2008-10-07 16:00,ZBHH 071600Z AUTO 35006KT 7SM 08/M03 A3006 RMK T00801030 IEM_DS3505
ZBHH,2008-10-07 17:00,ZBHH 071700Z AUTO 25006KT 7SM 07/M03 A3006 RMK T00701030 IEM_DS3505
ZBHH,2008-10-07 18:00,ZBHH 071800Z AUTO 11002KT 19SM 07/M07 A3006 RMK 60000 SLP178 T00741067 52016 IEM_DS3505
ZBHH,2008-10-07 19:00,ZBHH 071900Z AUTO 27010KT 7SM 07/M06 A3006 RMK T00701060 IEM_DS3505
ZBHH,2008-10-07 20:00,ZBHH 072000Z AUTO 26008KT 7SM 05/M05 A3006 RMK T00501050 IEM_DS3505
ZBHH,2008-10-07 21:00,ZBHH 072100Z AUTO 29006KT 19SM 07/M08 A3009 RMK 70001 SLP192 T00681080 52006 IEM_DS3505
ZBHH,2008-10-07 22:00,ZBHH 072200Z AUTO 29008KT 7SM 04/M05 A3012 RMK T00401050 IEM_DS3505
ZBHH,2008-10-07 23:00,ZBHH 072300Z AUTO 34004KT 6SM 03/M04 A3012 RMK T00301040 IEM_DS3505
ZBHH,2008-10-08 00:00,ZBHH 080000Z AUTO 09002KT 19SM 06/M05 A3012 RMK 70001 SLP215 T00641053 52014 IEM_DS3505
ZBHH,2008-10-08 01:00,ZBHH 080100Z AUTO 15002KT 6SM 08/M04 A3015 RMK T00801040 IEM_DS3505
ZBHH,2008-10-08 02:00,ZBHH 080200Z AUTO 22004KT 6SM 10/M07 A3015 RMK T01001070 IEM_DS3505
ZBHH,2008-10-08 03:00,ZBHH 080300Z AUTO 20006KT 19SM 11/M05 A3012 RMK SLP209 T01061046 57001 IEM_DS3505
ZBHH,2008-10-08 04:00,ZBHH 080400Z AUTO 22008KT 6SM 12/M04 A3012 RMK T01201040 IEM_DS3505
ZBHH,2008-10-08 05:00,ZBHH 080500Z AUTO 23006KT 6SM 13/M06 A3009 RMK T01301060 IEM_DS3505
ZBHH,2008-10-08 06:00,ZBHH 080600Z AUTO 25008KT 19SM 14/M05 A3006 RMK SLP186 T01381054 57018 IEM_DS3505
ZBHH,2008-10-08 07:00,ZBHH 080700Z AUTO 21010KT 6SM 14/M05 A3006 RMK T01401050 IEM_DS3505
ZBHH,2008-10-08 08:00,ZBHH 080800Z AUTO 21008KT 6SM 14/M05 A3006 RMK T01401050 IEM_DS3505
ZBHH,2008-10-08 09:00,ZBHH 080900Z AUTO 22006KT 19SM 14/M06 A3006 RMK SLP179 T01431055 57006 IEM_DS3505
ZBHH,2008-10-08 10:00,ZBHH 081000Z AUTO 18004KT 6SM 11/M02 A3006 RMK T01101020 IEM_DS3505
ZBHH,2008-10-08 11:00,ZBHH 081100Z AUTO 16004KT 6SM 09/M02 A3006 RMK T00901020 IEM_DS3505
ZBHH,2008-10-08 12:00,ZBHH 081200Z AUTO 36002KT 19SM 10/M02 A3009 RMK SLP201 T01011022 52010 IEM_DS3505
ZBHH,2008-10-08 13:00,ZBHH 081300Z AUTO 05006KT 6SM 05/00 A3009 RMK T00500000 IEM_DS3505
ZBHH,2008-10-08 14:00,ZBHH 081400Z AUTO 04006KT 6SM 04/00 A3009 RMK T00400000 IEM_DS3505
ZBHH,2008-10-08 15:00,ZBHH 081500Z AUTO 29002KT 19SM 06/M00 A3012 RMK SLP210 T00591002 52008 IEM_DS3505
ZBHH,2008-10-08 16:00,ZBHH 081600Z AUTO 05004KT 6SM 03/M01 A3012 RMK T00301010 IEM_DS3505
ZBHH,2008-10-08 17:00,ZBHH 081700Z AUTO 08004KT 6SM 01/M01 A3012 RMK T00101010 IEM_DS3505
ZBHH,2008-10-08 18:00,ZBHH 081800Z AUTO 09002KT 19SM 04/M01 A3009 RMK SLP201 T00441008 57005 IEM_DS3505
ZBHH,2008-10-08 19:00,ZBHH 081900Z AUTO 07002KT 6SM 02/M01 A3009 RMK T00201010 IEM_DS3505
ZBHH,2008-10-08 20:00,ZBHH 082000Z AUTO 03002KT 6SM 02/M01 A3006 RMK T00201010 IEM_DS3505
ZBHH,2008-10-08 21:00,ZBHH 082100Z AUTO 00000KT 19SM 04/01 A3006 RMK SLP193 T00370006 57007 IEM_DS3505
ZBHH,2008-10-08 22:00,ZBHH 082200Z AUTO 04002KT 7SM 03/01 A3009 RMK T00300010 IEM_DS3505
ZBHH,2008-10-08 23:00,ZBHH 082300Z AUTO 11002KT 7SM 03/01 A3009 RMK T00300010 IEM_DS3505
ZBHH,2008-10-09 00:00,ZBHH 090000Z AUTO 04002KT 12SM 06/M00 A3009 RMK SLP199 T00641003 52002 IEM_DS3505
ZBHH,2008-10-09 01:00,ZBHH 090100Z AUTO 07002KT 6SM 08/02 A3009 RMK T00800020 IEM_DS3505
ZBHH,2008-10-09 02:00,ZBHH 090200Z AUTO 24004KT 7SM 11/00 A3009 RMK T01100000 IEM_DS3505
ZBHH,2008-10-09 03:00,ZBHH 090300Z AUTO 20004KT 12SM 11/M00 A3009 RMK SLP198 T01141004 52001 IEM_DS3505
ZBHH,2008-10-09 04:00,ZBHH 090400Z AUTO 33002KT 7SM 13/M01 A3012 RMK T01301010 IEM_DS3505
ZBHH,2008-10-09 05:00,ZBHH 090500Z AUTO 29016KT 7SM 15/M01 A3012 RMK T01501010 IEM_DS3505
ZBHH,2008-10-09 06:00,ZBHH 090600Z AUTO 32006KT 19SM 15/M03 A3012 RMK SLP208 T01471027 52012 IEM_DS3505
ZBHH,2008-10-09 07:00,ZBHH 090700Z AUTO 32019KT 7SM 15/M04 A3015 RMK T01501040 IEM_DS3505
ZBHH,2008-10-09 08:00,ZBHH 090800Z AUTO 31019KT 7SM 14/M05 A3018 RMK T01401050 IEM_DS3505
ZBHH,2008-10-09 09:00,ZBHH 090900Z AUTO 29006G23KT 19SM 13/M05 A3021 RMK SLP247 T01271052 52027 IEM_DS3505
ZBHH,2008-10-09 10:00,ZBHH 091000Z AUTO 34010KT 6SM 11/M04 A3024 RMK T01101040 IEM_DS3505
ZBHH,2008-10-09 11:00,ZBHH 091100Z AUTO 33008KT 6SM 10/M04 A3027 RMK T01001040 IEM_DS3505
ZBHH,2008-10-09 12:00,ZBHH 091200Z AUTO 32002KT 19SM 09/M04 A3030 RMK SLP277 T00871041 IEM_DS3505
ZBHH,2008-10-09 13:00,ZBHH 091300Z AUTO 32004KT 6SM 07/M04 A3033 RMK T00701040 IEM_DS3505
ZBHH,2008-10-09 14:00,ZBHH 091400Z AUTO 01004KT 6SM 05/M02 A3033 RMK T00501020 IEM_DS3505
ZBHH,2008-10-09 15:00,ZBHH 091500Z AUTO 29004KT 19SM 06/M05 A3036 RMK SLP288 T00651052 52015 IEM_DS3505
ZBHH,2008-10-09 16:00,ZBHH 091600Z AUTO 17002KT 6SM 02/M02 A3036 RMK T00201020 IEM_DS3505
ZBHH,2008-10-09 17:00,ZBHH 091700Z AUTO 09004KT 6SM 00/M02 A3036 RMK T00001020 IEM_DS3505
ZBHH,2008-10-09 18:00,ZBHH 091800Z AUTO 32004KT 19SM 05/M06 A3036 RMK SLP287 T00541062 52004 IEM_DS3505
ZBHH,2008-10-09 19:00,ZBHH 091900Z AUTO 07006KT 6SM M01/M03 A3036 RMK T10101030 IEM_DS3505
ZBHH,2008-10-09 20:00,ZBHH 092000Z AUTO 08006KT 6SM M01/M03 A3036 RMK T10101030 IEM_DS3505
ZBHH,2008-10-09 21:00,ZBHH 092100Z AUTO 11002KT 19SM 01/M03 A3036 RMK SLP303 T00141027 52002 IEM_DS3505
ZBHH,2008-10-09 22:00,ZBHH 092200Z AUTO 08004KT 6SM M02/M04 A3039 RMK T10201040 IEM_DS3505
ZBHH,2008-10-09 23:00,ZBHH 092300Z AUTO 11004KT 6SM M02/M03 A3039 RMK T10201030 IEM_DS3505
ZBHH,2008-10-10 00:00,ZBHH 100000Z AUTO 00000KT 19SM 04/M02 A3042 RMK SLP325 T00361022 52015 IEM_DS3505
ZBHH,2008-10-10 01:00,ZBHH 100100Z AUTO 20004KT 6SM 06/M03 A3045 RMK T00601030 IEM_DS3505
ZBHH,2008-10-10 02:00,ZBHH 100200Z AUTO 21004KT 6SM 09/M02 A3045 RMK T00901020 IEM_DS3505
ZBHH,2008-10-10 03:00,ZBHH 100300Z AUTO 16004KT 19SM 11/M03 A3042 RMK SLP321 T01081026 52007 IEM_DS3505
ZBHH,2008-10-10 04:00,ZBHH 100400Z AUTO 28008KT 6SM 13/M04 A3042 RMK T01301040 IEM_DS3505
ZBHH,2008-10-10 05:00,ZBHH 100500Z AUTO 25008KT 6SM 14/M04 A3039 RMK T01401040 IEM_DS3505
ZBHH,2008-10-10 06:00,ZBHH 100600Z AUTO 20004KT 19SM 15/M04 A3036 RMK SLP289 T01471036 57022 IEM_DS3505
ZBHH,2008-10-10 07:00,ZBHH 100700Z AUTO 31008KT 6SM 16/M05 A3036 RMK T01601050 IEM_DS3505
ZBHH,2008-10-10 08:00,ZBHH 100800Z AUTO 33010KT 6SM 16/M06 A3033 RMK T01601060 IEM_DS3505
ZBHH,2008-10-10 09:00,ZBHH 100900Z AUTO 20002KT 19SM 16/M04 A3033 RMK SLP287 T01581037 57008 IEM_DS3505
ZBHH,2008-10-10 10:00,ZBHH 101000Z AUTO 32006KT 6SM 13/M04 A3036 RMK T01301040 IEM_DS3505
ZBHH,2008-10-10 11:00,ZBHH 101100Z AUTO 03006KT 6SM 11/M03 A3039 RMK T01101030 IEM_DS3505
ZBHH,2008-10-10 12:00,ZBHH 101200Z AUTO 34002KT 19SM 09/M02 A3039 RMK SLP316 T00921024 52016 IEM_DS3505
ZBHH,2008-10-10 13:00,ZBHH 101300Z AUTO 06004KT 6SM 08/M03 A3042 RMK T00801030 IEM_DS3505
ZBHH,2008-10-10 14:00,ZBHH 101400Z AUTO 04004KT 6SM 06/M01 A3042 RMK T00601010 IEM_DS3505
ZBHH,2008-10-10 15:00,ZBHH 101500Z AUTO 09002KT 19SM 06/M01 A3045 RMK SLP323 T00561013 52014 IEM_DS3505
ZBHH,2008-10-10 16:00,ZBHH 101600Z AUTO 05004KT 6SM 04/M01 A3045 RMK T00401010 IEM_DS3505
ZBHH,2008-10-10 17:00,ZBHH 101700Z AUTO 07006KT 6SM 02/M02 A3042 RMK T00201020 IEM_DS3505
ZBHH,2008-10-10 18:00,ZBHH 101800Z AUTO 09002KT 19SM 04/M02 A3042 RMK SLP310 T00421022 57006 IEM_DS3505
ZBHH,2008-10-10 19:00,ZBHH 101900Z AUTO 07006KT 6SM 02/M02 A3042 RMK T00201020 IEM_DS3505
ZBHH,2008-10-10 20:00,ZBHH 102000Z AUTO 06006KT 6SM 01/M02 A3042 RMK T00101020 IEM_DS3505
ZBHH,2008-10-10 21:00,ZBHH 102100Z AUTO 09002KT 19SM 02/M02 A3039 RMK SLP307 T00171017 57006 IEM_DS3505
ZBHH,2008-10-10 22:00,ZBHH 102200Z AUTO 07008KT 6SM 01/M02 A3039 RMK T00101020 IEM_DS3505
ZBHH,2008-10-10 23:00,ZBHH 102300Z AUTO 08006KT 6SM 01/M02 A3039 RMK T00101020 IEM_DS3505
ZBHH,2008-10-11 00:00,ZBHH 110000Z AUTO 00000KT 19SM 05/M02 A3042 RMK SLP320 T00481021 52004 IEM_DS3505
ZBHH,2008-10-11 01:00,ZBHH 110100Z AUTO 06004KT 6SM 08/M01 A3042 RMK T00801010 IEM_DS3505
ZBHH,2008-10-11 02:00,ZBHH 110200Z AUTO 03002KT 6SM 11/M02 A3042 RMK T01101020 IEM_DS3505
ZBHH,2008-10-11 03:00,ZBHH 110300Z AUTO 16004KT 19SM 13/M03 A3039 RMK SLP301 T01341029 57006 IEM_DS3505
ZBHH,2008-10-11 04:00,ZBHH 110400Z AUTO 27004KT 6SM 15/M03 A3036 RMK T01501030 IEM_DS3505
ZBHH,2008-10-11 05:00,ZBHH 110500Z AUTO 6SM 16/M03 A3033 RMK T01601030 IEM_DS3505
ZBHH,2008-10-11 06:00,ZBHH 110600Z AUTO 18008KT 19SM 16/M04 A3030 RMK SLP261 T01651041 57032 IEM_DS3505
ZBHH,2008-10-11 07:00,ZBHH 110700Z AUTO 23008KT 6SM 17/M04 A3027 RMK T01701040 IEM_DS3505
ZBHH,2008-10-11 08:00,ZBHH 110800Z AUTO 23008KT 6SM 17/M04 A3024 RMK T01701040 IEM_DS3505
ZBHH,2008-10-11 09:00,ZBHH 110900Z AUTO 22004KT 19SM 16/M04 A3024 RMK SLP252 T01611039 57014 IEM_DS3505
ZBHH,2008-10-11 10:00,ZBHH 111000Z AUTO 23004KT 6SM 14/M02 A3024 RMK T01401020 IEM_DS3505
ZBHH,2008-10-11 11:00,ZBHH 111100Z AUTO 12002KT 6SM 10/M01 A3024 RMK T01001010 IEM_DS3505
ZBHH,2008-10-11 12:00,ZBHH 111200Z AUTO 36002KT 19SM 10/M02 A3027 RMK SLP261 T01021018 52003 IEM_DS3505
ZBHH,2008-10-11 13:00,ZBHH 111300Z AUTO 06006KT 6SM 06/M01 A3027 RMK T00601010 IEM_DS3505
ZBHH,2008-10-11 14:00,ZBHH 111400Z AUTO 06006KT 6SM 07/M01 A3027 RMK T00701010 IEM_DS3505
ZBHH,2008-10-11 15:00,ZBHH 111500Z AUTO 00000KT 19SM 06/00 A3027 RMK SLP255 T00550001 52002 IEM_DS3505
ZBHH,2008-10-11 16:00,ZBHH 111600Z AUTO 04002KT 6SM 05/M01 A3024 RMK T00501010 IEM_DS3505
ZBHH,2008-10-11 17:00,ZBHH 111700Z AUTO 05004KT 6SM 04/M01 A3024 RMK T00401010 IEM_DS3505
ZBHH,2008-10-11 18:00,ZBHH 111800Z AUTO 09002KT 19SM 04/00 A3024 RMK SLP241 T00380000 57009 IEM_DS3505
ZBHH,2008-10-11 19:00,ZBHH 111900Z AUTO 07004KT 6SM 03/M01 A3024 RMK T00301010 IEM_DS3505
ZBHH,2008-10-11 20:00,ZBHH 112000Z AUTO 07006KT 6SM 02/M01 A3021 RMK T00201010 IEM_DS3505
ZBHH,2008-10-11 21:00,ZBHH 112100Z AUTO 36002KT 19SM 02/M02 A3021 RMK SLP236 T00251015 57008 IEM_DS3505
ZBHH,2008-10-11 22:00,ZBHH 112200Z AUTO 07004KT 6SM 01/M02 A3021 RMK T00101020 IEM_DS3505
ZBHH,2008-10-11 23:00,ZBHH 112300Z AUTO 07004KT 6SM 01/M01 A3021 RMK T00101010 IEM_DS3505
ZBHH,2008-10-12 00:00,ZBHH 120000Z AUTO 07002KT 19SM 05/M01 A3021 RMK SLP245 T00541006 52002 IEM_DS3505
ZBHH,2008-10-12 01:00,ZBHH 120100Z AUTO 10002KT 6SM 09/01 A3021 RMK T00900010 IEM_DS3505
ZBHH,2008-10-12 02:00,ZBHH 120200Z AUTO 19004KT 6SM 11/02 A3021 RMK T01100020 IEM_DS3505
ZBHH,2008-10-12 03:00,ZBHH 120300Z AUTO 22004KT 6SM 13/01 A3021 RMK SLP237 T01260010 57002 IEM_DS3505
ZBHH,2008-10-12 04:00,ZBHH 120400Z AUTO 24004KT 6SM 14/02 A3018 RMK T01400020 IEM_DS3505
ZBHH,2008-10-12 05:00,ZBHH 120500Z AUTO 24008KT 6SM 16/02 A3012 RMK T01600020 IEM_DS3505
ZBHH,2008-10-12 06:00,ZBHH 120600Z AUTO 18004KT 9SM 17/03 A3009 RMK SLP196 T01660026 57032 IEM_DS3505
ZBHH,2008-10-12 07:00,ZBHH 120700Z AUTO 23010KT 6SM 18/00 A3006 RMK T01800000 IEM_DS3505
ZBHH,2008-10-12 08:00,ZBHH 120800Z AUTO 23012KT 6SM 17/01 A3006 RMK T01700010 IEM_DS3505
ZBHH,2008-10-12 09:00,ZBHH 120900Z AUTO 22004KT 12SM 17/01 A3003 RMK SLP178 T01720012 57017 IEM_DS3505
ZBHH,2008-10-12 10:00,ZBHH 121000Z AUTO 18004KT 6SM 14/02 A3003 RMK T01400020 IEM_DS3505
ZBHH,2008-10-12 11:00,ZBHH 121100Z AUTO 14004KT 6SM 14/03 A3003 RMK T01400030 IEM_DS3505
ZBHH,2008-10-12 12:00,ZBHH 121200Z AUTO 00000KT 12SM 12/03 A3006 RMK SLP190 T01220032 52006 IEM_DS3505
ZBHH,2008-10-12 13:00,ZBHH 121300Z AUTO 04006KT 6SM 09/04 A3006 RMK T00900040 IEM_DS3505
ZBHH,2008-10-12 14:00,ZBHH 121400Z AUTO 05004KT 6SM 08/04 A3006 RMK T00800040 IEM_DS3505
ZBHH,2008-10-12 15:00,ZBHH 121500Z AUTO 09002KT 12SM 10/03 A3006 RMK SLP179 T00970028 54000 IEM_DS3505
ZBHH,2008-10-12 16:00,ZBHH 121600Z AUTO 04004KT 6SM 06/03 A3006 RMK T00600030 IEM_DS3505
ZBHH,2008-10-12 17:00,ZBHH 121700Z AUTO 08004KT 6SM 05/02 A3006 RMK T00500020 IEM_DS3505
ZBHH,2008-10-12 18:00,ZBHH 121800Z AUTO 00000KT 12SM 06/03 A3003 RMK SLP170 T00550028 57008 IEM_DS3505
ZBHH,2008-10-12 19:00,ZBHH 121900Z AUTO 05004KT 6SM 05/02 A3003 RMK T00500020 IEM_DS3505
ZBHH,2008-10-12 20:00,ZBHH 122000Z AUTO 06006KT 6SM 03/01 A3003 RMK T00300010 IEM_DS3505
ZBHH,2008-10-12 21:00,ZBHH 122100Z AUTO 07002KT 12SM 05/03 A3003 RMK SLP166 T00490026 57004 IEM_DS3505
ZBHH,2008-10-12 22:00,ZBHH 122200Z AUTO 10006KT 6SM 05/02 A3003 RMK T00500020 IEM_DS3505
ZBHH,2008-10-12 23:00,ZBHH 122300Z AUTO 07006KT 7SM 04/02 A3003 RMK T00400020 IEM_DS3505
ZBHH,2008-10-13 00:00,ZBHH 130000Z AUTO 04002KT 12SM 08/03 A3006 RMK SLP179 T00770032 52007 IEM_DS3505
ZBHH,2008-10-13 01:00,ZBHH 130100Z AUTO 09004KT 6SM 10/05 A3006 RMK T01000050 IEM_DS3505
ZBHH,2008-10-13 02:00,ZBHH 130200Z AUTO 11002KT 6SM 13/04 A3006 RMK T01300040 IEM_DS3505
ZBHH,2008-10-13 03:00,ZBHH 130300Z AUTO 22002KT 12SM 14/04 A3006 RMK SLP177 T01360037 52005 IEM_DS3505
ZBHH,2008-10-13 04:00,ZBHH 130400Z AUTO 28002KT 6SM 16/04 A3003 RMK T01600040 IEM_DS3505
ZBHH,2008-10-13 05:00,ZBHH 130500Z AUTO 21006KT 6SM 17/02 A3000 RMK T01700020 IEM_DS3505
ZBHH,2008-10-13 06:00,ZBHH 130600Z AUTO 20004KT 19SM 18/00 A3000 RMK SLP154 T01790005 57020 IEM_DS3505
ZBHH,2008-10-13 07:00,ZBHH 130700Z AUTO 23008KT 6SM 19/M01 A2997 RMK T01901010 IEM_DS3505
ZBHH,2008-10-13 08:00,ZBHH 130800Z AUTO 24008KT 6SM 19/M04 A2997 RMK T01901040 IEM_DS3505
ZBHH,2008-10-13 09:00,ZBHH 130900Z AUTO 25004KT 19SM 18/M01 A3000 RMK SLP154 T01821011 54000 IEM_DS3505
ZBHH,2008-10-13 10:00,ZBHH 131000Z AUTO 26004KT 6SM 15/M02 A3000 RMK T01501020 IEM_DS3505
ZBHH,2008-10-13 11:00,ZBHH 131100Z AUTO 06004KT 6SM 11/02 A3003 RMK T01100020 IEM_DS3505
ZBHH,2008-10-13 12:00,ZBHH 131200Z AUTO 36002KT 12SM 11/02 A3003 RMK SLP178 T01090020 52012 IEM_DS3505
ZBHH,2008-10-13 13:00,ZBHH 131300Z AUTO 06004KT 6SM 08/02 A3006 RMK T00800020 IEM_DS3505
ZBHH,2008-10-13 14:00,ZBHH 131400Z AUTO 05004KT 6SM 08/02 A3006 RMK T00800020 IEM_DS3505
ZBHH,2008-10-13 15:00,ZBHH 131500Z AUTO 04002KT 12SM 08/02 A3009 RMK SLP187 T00750016 52013 IEM_DS3505
ZBHH,2008-10-13 16:00,ZBHH 131600Z AUTO 08006KT 6SM 06/01 A3009 RMK T00600010 IEM_DS3505
ZBHH,2008-10-13 17:00,ZBHH 131700Z AUTO 07006KT 6SM 05/01 A3009 RMK T00500010 IEM_DS3505
ZBHH,2008-10-13 18:00,ZBHH 131800Z AUTO 36002KT 12SM 06/00 A3009 RMK SLP183 T00650004 52003 IEM_DS3505
ZBHH,2008-10-13 19:00,ZBHH 131900Z AUTO 06004KT 6SM 05/01 A3009 RMK T00500010 IEM_DS3505
ZBHH,2008-10-13 20:00,ZBHH 132000Z AUTO 07006KT 6SM 04/00 A3009 RMK T00400000 IEM_DS3505
ZBHH,2008-10-13 21:00,ZBHH 132100Z AUTO 11002KT 12SM 04/00 A3009 RMK SLP193 T00370004 52004 IEM_DS3505
ZBHH,2008-10-13 22:00,ZBHH 132200Z AUTO 06006KT 6SM 03/00 A3012 RMK T00300000 IEM_DS3505
ZBHH,2008-10-13 23:00,ZBHH 132300Z AUTO 10006KT 6SM 03/M01 A3012 RMK T00301010 IEM_DS3505
ZBHH,2008-10-14 00:00,ZBHH 140000Z AUTO 07002KT 12SM 07/00 A3015 RMK SLP223 T00660005 52017 IEM_DS3505
ZBHH,2008-10-14 01:00,ZBHH 140100Z AUTO 13002KT 6SM 10/00 A3018 RMK T01000000 IEM_DS3505
ZBHH,2008-10-14 02:00,ZBHH 140200Z AUTO 21002KT 6SM 12/00 A3018 RMK T01200000 IEM_DS3505
ZBHH,2008-10-14 03:00,ZBHH 140300Z AUTO 07004KT 19SM 15/00 A3018 RMK SLP220 T01460005 52007 IEM_DS3505
ZBHH,2008-10-14 04:00,ZBHH 140400Z AUTO 21004KT 6SM 16/M01 A3015 RMK T01601010 IEM_DS3505
ZBHH,2008-10-14 05:00,ZBHH 140500Z AUTO 23006KT 6SM 17/M01 A3015 RMK T01701010 IEM_DS3505
ZBHH,2008-10-14 06:00,ZBHH 140600Z AUTO 20006KT 16SM 18/M02 A3012 RMK SLP194 T01751017 57019 IEM_DS3505
ZBHH,2008-10-14 07:00,ZBHH 140700Z AUTO 24012KT 6SM 18/M01 A3012 RMK T01801010 IEM_DS3505
ZBHH,2008-10-14 08:00,ZBHH 140800Z AUTO 24010KT 7SM 17/M01 A3012 RMK T01701010 IEM_DS3505
ZBHH,2008-10-14 09:00,ZBHH 140900Z AUTO 25004KT 12SM 17/M01 A3012 RMK SLP205 T01671009 52002 IEM_DS3505
ZBHH,2008-10-14 10:00,ZBHH 141000Z AUTO 17004KT 6SM 14/01 A3012 RMK T01400010 IEM_DS3505
ZBHH,2008-10-14 11:00,ZBHH 141100Z AUTO 08004KT 6SM 09/02 A3015 RMK T00900020 IEM_DS3505
ZBHH,2008-10-14 12:00,ZBHH 141200Z AUTO 02002KT 6SM 10/02 A3018 RMK SLP234 T01000019 52018 IEM_DS3505
ZBHH,2008-10-14 13:00,ZBHH 141300Z AUTO 06006KT 6SM 07/01 A3018 RMK T00700010 IEM_DS3505
ZBHH,2008-10-14 14:00,ZBHH 141400Z AUTO 05004KT 6SM 06/01 A3021 RMK T00600010 IEM_DS3505
ZBHH,2008-10-14 15:00,ZBHH 141500Z AUTO 04002KT 6SM 07/01 A3024 RMK SLP237 T00670006 52012 IEM_DS3505
ZBHH,2008-10-14 16:00,ZBHH 141600Z AUTO 11004KT 6SM 04/M01 A3024 RMK T00401010 IEM_DS3505
ZBHH,2008-10-14 17:00,ZBHH 141700Z AUTO 08006KT 6SM 05/00 A3024 RMK T00500000 IEM_DS3505
ZBHH,2008-10-14 18:00,ZBHH 141800Z AUTO 09002KT 6SM 05/M00 A3027 RMK SLP242 T00531005 52008 IEM_DS3505
ZBHH,2008-10-14 19:00,ZBHH 141900Z AUTO 07002KT 6SM 02/M01 A3024 RMK T00201010 IEM_DS3505
ZBHH,2008-10-14 20:00,ZBHH 142000Z AUTO 08004KT 6SM 04/M02 A3024 RMK T00401020 IEM_DS3505
ZBHH,2008-10-14 21:00,ZBHH 142100Z AUTO 09002KT 12SM 04/M03 A3027 RMK SLP249 T00451028 52003 IEM_DS3505
ZBHH,2008-10-14 22:00,ZBHH 142200Z AUTO 07006KT 6SM 01/M02 A3027 RMK T00101020 IEM_DS3505
ZBHH,2008-10-14 23:00,ZBHH 142300Z AUTO 07006KT 6SM 01/M02 A3027 RMK T00101020 IEM_DS3505
ZBHH,2008-10-15 00:00,ZBHH 150000Z AUTO 09002KT 12SM 06/M02 A3030 RMK SLP273 T00551021 52009 IEM_DS3505
ZBHH,2008-10-15 01:00,ZBHH 150100Z AUTO 09004KT 6SM 10/M02 A3030 RMK T01001020 IEM_DS3505
ZBHH,2008-10-15 02:00,ZBHH 150200Z AUTO 09008KT 6SM 14/M03 A3030 RMK T01401030 IEM_DS3505
ZBHH,2008-10-15 03:00,ZBHH 150300Z AUTO 02004KT 19SM 16/M04 A3027 RMK SLP256 T01561038 57001 IEM_DS3505
ZBHH,2008-10-15 04:00,ZBHH 150400Z AUTO 27002KT 6SM 18/M06 A3027 RMK T01801060 IEM_DS3505
ZBHH,2008-10-15 05:00,ZBHH 150500Z AUTO 13004KT 6SM 19/M09 A3024 RMK T01901090 IEM_DS3505
ZBHH,2008-10-15 06:00,ZBHH 150600Z AUTO 34002KT 19SM 20/M07 A3021 RMK SLP221 T02001074 57025 IEM_DS3505
ZBHH,2008-10-15 07:00,ZBHH 150700Z AUTO 06002KT 6SM 20/M10 A3018 RMK T02001100 IEM_DS3505
ZBHH,2008-10-15 08:00,ZBHH 150800Z AUTO 26004KT 6SM 20/M09 A3018 RMK T02001090 IEM_DS3505
ZBHH,2008-10-15 09:00,ZBHH 150900Z AUTO 27002KT 19SM 19/M08 A3018 RMK SLP217 T01911081 57007 IEM_DS3505
ZBHH,2008-10-15 10:00,ZBHH 151000Z AUTO 33002KT 6SM 17/M06 A3018 RMK T01701060 IEM_DS3505
ZBHH,2008-10-15 11:00,ZBHH 151100Z AUTO 02004KT 6SM 12/M02 A3018 RMK T01201020 IEM_DS3505
ZBHH,2008-10-15 12:00,ZBHH 151200Z AUTO 00000KT 19SM 10/M03 A3021 RMK SLP241 T00961027 52004 IEM_DS3505
ZBHH,2008-10-15 13:00,ZBHH 151300Z AUTO 05006KT 6SM 08/M02 A3021 RMK T00801020 IEM_DS3505
ZBHH,2008-10-15 14:00,ZBHH 151400Z AUTO 08006KT 6SM 08/M02 A3021 RMK T00801020 IEM_DS3505
ZBHH,2008-10-15 15:00,ZBHH 151500Z AUTO 02002KT 19SM 07/M02 A3021 RMK SLP233 T00721025 52009 IEM_DS3505
ZBHH,2008-10-15 16:00,ZBHH 151600Z AUTO 03004KT 6SM 07/M02 A3021 RMK T00701020 IEM_DS3505
ZBHH,2008-10-15 17:00,ZBHH 151700Z AUTO 09004KT 6SM 05/M02 A3021 RMK T00501020 IEM_DS3505
ZBHH,2008-10-15 18:00,ZBHH 151800Z AUTO 00000KT 19SM 05/M01 A3021 RMK SLP228 T00471007 57001 IEM_DS3505
ZBHH,2008-10-15 19:00,ZBHH 151900Z AUTO 05006KT 6SM 03/M01 A3021 RMK T00301010 IEM_DS3505
ZBHH,2008-10-15 20:00,ZBHH 152000Z AUTO 07004KT 6SM 04/M02 A3021 RMK T00401020 IEM_DS3505
ZBHH,2008-10-15 21:00,ZBHH 152100Z AUTO 04002KT 19SM 05/M02 A3021 RMK SLP227 T00481023 57002 IEM_DS3505
ZBHH,2008-10-15 22:00,ZBHH 152200Z AUTO 07006KT 6SM 04/M01 A3024 RMK T00401010 IEM_DS3505
ZBHH,2008-10-15 23:00,ZBHH 152300Z AUTO 07006KT 6SM 02/M01 A3024 RMK T00201010 IEM_DS3505
ZBHH,2008-10-16 00:00,ZBHH 160000Z AUTO 00000KT 19SM 06/M01 A3024 RMK SLP261 T00571012 52012 IEM_DS3505
ZBHH,2008-10-16 01:00,ZBHH 160100Z AUTO 07004KT 6SM 11/03 A3027 RMK T01100030 IEM_DS3505
ZBHH,2008-10-16 02:00,ZBHH 160200Z AUTO 19002KT 6SM 14/05 A3027 RMK T01400050 IEM_DS3505
ZBHH,2008-10-16 03:00,ZBHH 160300Z AUTO 18002KT 12SM 15/04 A3027 RMK SLP247 T01510045 52002 IEM_DS3505
ZBHH,2008-10-16 04:00,ZBHH 160400Z AUTO 18004KT 6SM 17/05 A3024 RMK T01700050 IEM_DS3505
ZBHH,2008-10-16 05:00,ZBHH 160500Z AUTO 22004KT 6SM 18/05 A3021 RMK T01800050 IEM_DS3505
ZBHH,2008-10-16 06:00,ZBHH 160600Z AUTO 14004KT 12SM 18/05 A3021 RMK SLP225 T01850050 57018 IEM_DS3505
ZBHH,2008-10-16 07:00,ZBHH 160700Z AUTO 23006KT 6SM 19/05 A3018 RMK T01900050 IEM_DS3505
ZBHH,2008-10-16 08:00,ZBHH 160800Z AUTO 22006KT 6SM 20/05 A3018 RMK T02000050 IEM_DS3505
ZBHH,2008-10-16 09:00,ZBHH 160900Z AUTO 20006KT 12SM 19/04 A3018 RMK SLP213 T01910037 57009 IEM_DS3505
ZBHH,2008-10-16 10:00,ZBHH 161000Z AUTO 11002KT 6SM 16/06 A3018 RMK T01600060 IEM_DS3505
ZBHH,2008-10-16 11:00,ZBHH 161100Z AUTO 03006KT 6SM 12/06 A3021 RMK T01200060 IEM_DS3505
ZBHH,2008-10-16 12:00,ZBHH 161200Z AUTO 34002KT 12SM 12/06 A3021 RMK SLP239 T01200056 52011 IEM_DS3505
ZBHH,2008-10-16 13:00,ZBHH 161300Z AUTO 06006KT 6SM 11/05 A3021 RMK T01100050 IEM_DS3505
ZBHH,2008-10-16 14:00,ZBHH 161400Z AUTO 05004KT 6SM 10/05 A3024 RMK T01000050 IEM_DS3505
ZBHH,2008-10-16 15:00,ZBHH 161500Z AUTO 07002KT 12SM 09/06 A3021 RMK SLP228 T00940056 52004 IEM_DS3505
ZBHH,2008-10-16 16:00,ZBHH 161600Z AUTO 03002KT 6SM 09/05 A3021 RMK T00900050 IEM_DS3505
ZBHH,2008-10-16 17:00,ZBHH 161700Z AUTO 07004KT 6SM 06/04 A3021 RMK T00600040 IEM_DS3505
ZBHH,2008-10-16 18:00,ZBHH 161800Z AUTO 09002KT 19SM 08/05 A3024 RMK SLP227 T00760052 52002 IEM_DS3505
ZBHH,2008-10-16 19:00,ZBHH 161900Z AUTO 07004KT 6SM 07/04 A3021 RMK T00700040 IEM_DS3505
ZBHH,2008-10-16 20:00,ZBHH 162000Z AUTO 06004KT 6SM 06/04 A3021 RMK T00600040 IEM_DS3505
ZBHH,2008-10-16 21:00,ZBHH 162100Z AUTO 00000KT 19SM 06/04 A3021 RMK SLP223 T00600042 57006 IEM_DS3505
ZBHH,2008-10-16 22:00,ZBHH 162200Z AUTO 09004KT 6SM 05/03 A3021 RMK T00500030 IEM_DS3505
ZBHH,2008-10-16 23:00,ZBHH 162300Z AUTO 06006KT 6SM 06/03 A3021 RMK T00600030 IEM_DS3505
ZBHH,2008-10-17 00:00,ZBHH 170000Z AUTO 07002KT 16SM 08/06 A3021 RMK SLP239 T00790055 52004 IEM_DS3505
ZBHH,2008-10-17 01:00,ZBHH 170100Z AUTO 07002KT 6SM 11/06 A3024 RMK T01100060 IEM_DS3505
ZBHH,2008-10-17 02:00,ZBHH 170200Z AUTO 14002KT 6SM 16/06 A3024 RMK T01600060 IEM_DS3505
ZBHH,2008-10-17 03:00,ZBHH 170300Z AUTO 22002KT 6SM 16/05 A3021 RMK SLP224 T01650049 57001 IEM_DS3505
ZBHH,2008-10-17 04:00,ZBHH 170400Z AUTO 25004KT 6SM 18/05 A3018 RMK T01800050 IEM_DS3505
ZBHH,2008-10-17 05:00,ZBHH 170500Z AUTO 24006KT 6SM 19/06 A3015 RMK T01900060 IEM_DS3505
ZBHH,2008-10-17 06:00,ZBHH 170600Z AUTO 25004KT 6SM 20/06 A3012 RMK SLP186 T01980062 57031 IEM_DS3505
ZBHH,2008-10-17 07:00,ZBHH 170700Z AUTO 23014G23KT 7SM 21/04 A3009 RMK T02100040 IEM_DS3505
ZBHH,2008-10-17 08:00,ZBHH 170800Z AUTO 22012KT 7SM 20/03 A3009 RMK T02000030 IEM_DS3505
ZBHH,2008-10-17 09:00,ZBHH 170900Z AUTO 22004KT 6SM 20/04 A3009 RMK SLP176 T01970038 57012 IEM_DS3505
ZBHH,2008-10-17 10:00,ZBHH 171000Z AUTO 18004KT 7SM 17/05 A3006 RMK T01700050 IEM_DS3505
ZBHH,2008-10-17 11:00,ZBHH 171100Z AUTO 13004KT 7SM 16/05 A3009 RMK T01600050 IEM_DS3505
ZBHH,2008-10-17 12:00,ZBHH 171200Z AUTO 32010KT 7SM 17/04 A3009 RMK SLP186 T01680042 52007 IEM_DS3505
ZBHH,2008-10-17 13:00,ZBHH 171300Z AUTO 35017G27KT 7SM 10/06 A3015 RMK T01000060 IEM_DS3505
ZBHH,2008-10-17 14:00,ZBHH 171400Z AUTO 35012KT 7SM 09/06 A3018 RMK T00900060 IEM_DS3505
ZBHH,2008-10-17 15:00,ZBHH 171500Z AUTO 29008KT 7SM 08/04 A3024 RMK SLP231 T00770045 52039 IEM_DS3505
ZBHH,2008-10-17 16:00,ZBHH 171600Z AUTO 04002KT 7SM 07/03 A3024 RMK T00700030 IEM_DS3505
ZBHH,2008-10-17 17:00,ZBHH 171700Z AUTO 13002KT 7SM 07/05 A3021 RMK T00700050 IEM_DS3505
ZBHH,2008-10-17 18:00,ZBHH 171800Z AUTO 27002KT 12SM 06/04 A3024 RMK 60035 SLP233 T00620044 40208//// 52005 IEM_DS3505
ZBHH,2008-10-17 19:00,ZBHH 171900Z AUTO 27004KT 7SM 05/04 A3024 RMK T00500040 IEM_DS3505
ZBHH,2008-10-17 20:00,ZBHH 172000Z AUTO 33002KT 7SM 05/04 A3024 RMK T00500040 IEM_DS3505
ZBHH,2008-10-17 21:00,ZBHH 172100Z AUTO 07004KT 9SM 07/05 A3027 RMK 70035 SLP236 T00710051 52004 IEM_DS3505
ZBHH,2008-10-17 22:00,ZBHH 172200Z AUTO 11002KT 7SM 05/04 A3027 RMK T00500040 IEM_DS3505
ZBHH,2008-10-17 23:00,ZBHH 172300Z AUTO 08004KT 7SM 05/04 A3027 RMK T00500040 IEM_DS3505
ZBHH,2008-10-18 00:00,ZBHH 180000Z AUTO 07002KT 9SM 07/05 A3030 RMK 70035 SLP257 T00690046 52013 IEM_DS3505
ZBHH,2008-10-18 01:00,ZBHH 180100Z AUTO 09004KT 7SM 07/05 A3030 RMK T00700050 IEM_DS3505
ZBHH,2008-10-18 02:00,ZBHH 180200Z AUTO 00000KT 7SM 09/06 A3030 RMK T00900060 IEM_DS3505
ZBHH,2008-10-18 03:00,ZBHH 180300Z AUTO 16002KT 9SM 10/04 A3030 RMK SLP277 T00990043 52005 IEM_DS3505
ZBHH,2008-10-18 04:00,ZBHH 180400Z AUTO 22006KT 2 1/2SM 11/06 A3030 RMK T01100060 IEM_DS3505
ZBHH,2008-10-18 05:00,ZBHH 180500Z AUTO 24006KT 7SM 12/05 A3027 RMK T01200050 IEM_DS3505
ZBHH,2008-10-18 06:00,ZBHH 180600Z AUTO 22004KT 9SM 13/05 A3024 RMK SLP248 T01310048 57022 IEM_DS3505
ZBHH,2008-10-18 07:00,ZBHH 180700Z AUTO 23008KT 7SM 14/05 A3021 RMK T01400050 IEM_DS3505
ZBHH,2008-10-18 08:00,ZBHH 180800Z AUTO 22008KT 6SM 14/05 A3024 RMK T01400050 IEM_DS3505
ZBHH,2008-10-18 09:00,ZBHH 180900Z AUTO 22006KT 12SM 14/04 A3024 RMK SLP241 T01350038 57004 IEM_DS3505
ZBHH,2008-10-18 10:00,ZBHH 181000Z AUTO 20004KT 6SM 11/06 A3024 RMK T01100060 IEM_DS3505
ZBHH,2008-10-18 11:00,ZBHH 181100Z AUTO 13004KT 6SM 10/04 A3024 RMK T01000040 IEM_DS3505
ZBHH,2008-10-18 12:00,ZBHH 181200Z AUTO 07002KT 12SM 10/04 A3024 RMK SLP254 T00970043 52004 IEM_DS3505
ZBHH,2008-10-18 13:00,ZBHH 181300Z AUTO 04006KT 5SM 06/04 A3027 RMK T00600040 IEM_DS3505
ZBHH,2008-10-18 14:00,ZBHH 181400Z AUTO 05006KT 6SM 06/04 A3027 RMK T00600040 IEM_DS3505
ZBHH,2008-10-18 15:00,ZBHH 181500Z AUTO 25002KT 19SM 06/04 A3027 RMK SLP264 T00590037 52007 IEM_DS3505
ZBHH,2008-10-18 16:00,ZBHH 181600Z AUTO 07002KT 6SM 04/02 A3027 RMK T00400020 IEM_DS3505
ZBHH,2008-10-18 17:00,ZBHH 181700Z AUTO 07002KT 6SM 03/01 A3027 RMK T00300010 IEM_DS3505
ZBHH,2008-10-18 18:00,ZBHH 181800Z AUTO 07002KT 19SM 04/03 A3024 RMK SLP256 T00440029 57004 IEM_DS3505
ZBHH,2008-10-18 19:00,ZBHH 181900Z AUTO 05002KT 6SM 03/01 A3024 RMK T00300010 IEM_DS3505
ZBHH,2008-10-18 20:00,ZBHH 182000Z AUTO 07006KT 6SM 02/00 A3024 RMK T00200000 IEM_DS3505
ZBHH,2008-10-18 21:00,ZBHH 182100Z AUTO 00000KT 19SM 03/01 A3024 RMK SLP250 T00290014 57007 IEM_DS3505
ZBHH,2008-10-18 22:00,ZBHH 182200Z AUTO 05004KT 6SM 02/00 A3024 RMK T00200000 IEM_DS3505
ZBHH,2008-10-18 23:00,ZBHH 182300Z AUTO 06004KT 6SM 02/00 A3027 RMK T00200000 IEM_DS3505
ZBHH,2008-10-19 00:00,ZBHH 190000Z AUTO 00000KT 12SM 04/03 A3027 RMK SLP270 T00410031 52012 IEM_DS3505
ZBHH,2008-10-19 01:00,ZBHH 190100Z AUTO 08004KT 6SM 08/04 A3027 RMK T00800040 IEM_DS3505
ZBHH,2008-10-19 02:00,ZBHH 190200Z AUTO 10002KT 6SM 11/03 A3027 RMK T01100030 IEM_DS3505
ZBHH,2008-10-19 03:00,ZBHH 190300Z AUTO 14002KT 19SM 12/03 A3024 RMK SLP255 T01190026 57005 IEM_DS3505
ZBHH,2008-10-19 04:00,ZBHH 190400Z AUTO 23004KT 6SM 14/03 A3024 RMK T01400030 IEM_DS3505
ZBHH,2008-10-19 05:00,ZBHH 190500Z AUTO 23002KT 6SM 15/03 A3018 RMK T01500030 IEM_DS3505
ZBHH,2008-10-19 06:00,ZBHH 190600Z AUTO 16004KT 19SM 15/02 A3015 RMK SLP220 T01530025 57027 IEM_DS3505
ZBHH,2008-10-19 07:00,ZBHH 190700Z AUTO 26006KT 6SM 16/01 A3015 RMK T01600010 IEM_DS3505
ZBHH,2008-10-19 08:00,ZBHH 190800Z AUTO 23004KT 6SM 16/02 A3012 RMK T01600020 IEM_DS3505
ZBHH,2008-10-19 09:00,ZBHH 190900Z AUTO 25004KT 19SM 16/00 A3012 RMK SLP211 T01580004 57010 IEM_DS3505
ZBHH,2008-10-19 10:00,ZBHH 191000Z AUTO 28002KT 6SM 13/00 A3012 RMK T01300000 IEM_DS3505
ZBHH,2008-10-19 11:00,ZBHH 191100Z AUTO 01004KT 6SM 10/03 A3012 RMK T01000030 IEM_DS3505
ZBHH,2008-10-19 12:00,ZBHH 191200Z AUTO 00000KT 19SM 09/03 A3015 RMK SLP225 T00900032 52001 IEM_DS3505
ZBHH,2008-10-19 13:00,ZBHH 191300Z AUTO 06004KT 6SM 06/02 A3015 RMK T00600020 IEM_DS3505
ZBHH,2008-10-19 14:00,ZBHH 191400Z AUTO 09004KT 6SM 06/02 A3015 RMK T00600020 IEM_DS3505
ZBHH,2008-10-19 15:00,ZBHH 191500Z AUTO 07002KT 19SM 07/02 A3015 RMK SLP216 T00710022 52004 IEM_DS3505
ZBHH,2008-10-19 16:00,ZBHH 191600Z AUTO 09004KT 6SM 06/02 A3015 RMK T00600020 IEM_DS3505
ZBHH,2008-10-19 17:00,ZBHH 191700Z AUTO 07004KT 6SM 05/01 A3012 RMK T00500010 IEM_DS3505
ZBHH,2008-10-19 18:00,ZBHH 191800Z AUTO 00000KT 19SM 05/03 A3012 RMK SLP207 T00520027 57005 IEM_DS3505
ZBHH,2008-10-19 19:00,ZBHH 191900Z AUTO 09006KT 6SM 03/01 A3012 RMK T00300010 IEM_DS3505
ZBHH,2008-10-19 20:00,ZBHH 192000Z AUTO 06004KT 6SM 04/01 A3012 RMK T00400010 IEM_DS3505
ZBHH,2008-10-19 21:00,ZBHH 192100Z AUTO 00000KT 5SM 03/01 A3012 RMK SLP202 T00330010 57007 IEM_DS3505
ZBHH,2008-10-19 22:00,ZBHH 192200Z AUTO 07006KT 6SM 03/01 A3009 RMK T00300010 IEM_DS3505
ZBHH,2008-10-19 23:00,ZBHH 192300Z AUTO 07004KT 6SM 03/00 A3009 RMK T00300000 IEM_DS3505
ZBHH,2008-10-20 00:00,ZBHH 200000Z AUTO 00000KT 5SM 05/02 A3012 RMK SLP216 T00500022 52002 IEM_DS3505
ZBHH,2008-10-20 01:00,ZBHH 200100Z AUTO 08004KT 6SM 07/03 A3012 RMK T00700030 IEM_DS3505
ZBHH,2008-10-20 02:00,ZBHH 200200Z AUTO 10002KT 6SM 12/04 A3012 RMK T01200040 IEM_DS3505
ZBHH,2008-10-20 03:00,ZBHH 200300Z AUTO 14002KT 7SM 14/00 A3009 RMK SLP196 T01450000 57002 IEM_DS3505
ZBHH,2008-10-20 04:00,ZBHH 200400Z AUTO 21004KT 6SM 16/03 A3009 RMK T01600030 IEM_DS3505
ZBHH,2008-10-20 05:00,ZBHH 200500Z AUTO 20004KT 6SM 16/03 A3006 RMK T01600030 IEM_DS3505
ZBHH,2008-10-20 06:00,ZBHH 200600Z AUTO 20004KT 7SM 17/03 A3003 RMK SLP172 T01680031 57021 IEM_DS3505
ZBHH,2008-10-20 07:00,ZBHH 200700Z AUTO 26002KT 7SM 17/03 A3003 RMK T01700030 IEM_DS3505
ZBHH,2008-10-20 08:00,ZBHH 200800Z AUTO 23004KT 7SM 17/04 A3000 RMK T01700040 IEM_DS3505
ZBHH,2008-10-20 09:00,ZBHH 200900Z AUTO 27002KT 7SM 16/04 A3000 RMK SLP166 T01650036 57009 IEM_DS3505
ZBHH,2008-10-20 10:00,ZBHH 201000Z AUTO 14002KT 6SM 13/05 A3000 RMK T01300050 IEM_DS3505
ZBHH,2008-10-20 11:00,ZBHH 201100Z AUTO 11002KT 6SM 12/05 A3003 RMK T01200050 IEM_DS3505
ZBHH,2008-10-20 12:00,ZBHH 201200Z AUTO 09002KT 9SM 12/05 A3003 RMK SLP183 T01210046 52009 IEM_DS3505
ZBHH,2008-10-20 13:00,ZBHH 201300Z AUTO 09004KT 6SM 09/05 A3006 RMK T00900050 IEM_DS3505
ZBHH,2008-10-20 14:00,ZBHH 201400Z AUTO 03004KT 6SM 08/05 A3006 RMK T00800050 IEM_DS3505
ZBHH,2008-10-20 15:00,ZBHH 201500Z AUTO 07002KT 6SM 09/05 A3006 RMK SLP178 T00880050 52008 IEM_DS3505
ZBHH,2008-10-20 16:00,ZBHH 201600Z AUTO 02002KT 6SM 07/04 A3006 RMK T00700040 IEM_DS3505
ZBHH,2008-10-20 17:00,ZBHH 201700Z AUTO 05004KT 6SM 08/05 A3006 RMK T00800050 IEM_DS3505
ZBHH,2008-10-20 18:00,ZBHH 201800Z AUTO 09002KT 6SM 10/05 A3006 RMK SLP170 T00990051 54000 IEM_DS3505
ZBHH,2008-10-20 19:00,ZBHH 201900Z AUTO 06002KT 6SM 09/06 A3006 RMK T00900060 IEM_DS3505
ZBHH,2008-10-20 20:00,ZBHH 202000Z AUTO 12004KT 7SM 09/06 A3006 RMK T00900060 IEM_DS3505
ZBHH,2008-10-20 21:00,ZBHH 202100Z AUTO 04002KT 6SM 10/06 A3006 RMK SLP168 T01030055 57002 IEM_DS3505
ZBHH,2008-10-20 22:00,ZBHH 202200Z AUTO 02002KT 4SM 09/06 A3006 RMK T00900060 IEM_DS3505
ZBHH,2008-10-20 23:00,ZBHH 202300Z AUTO 04002KT 3SM 09/07 A3006 RMK T00900070 IEM_DS3505
ZBHH,2008-10-21 00:00,ZBHH 210000Z AUTO 07002KT 6SM 10/08 A3009 RMK 60000 70000 SLP187 T00960075 52007 IEM_DS3505
ZBHH,2008-10-21 01:00,ZBHH 210100Z AUTO 04002KT 1 1/4SM 09/08 A3009 RMK T00900080 IEM_DS3505
ZBHH,2008-10-21 02:00,ZBHH 210200Z AUTO 08002KT 1SM 10/08 A3009 RMK T01000080 IEM_DS3505
ZBHH,2008-10-21 03:00,ZBHH 210300Z AUTO 09002KT 6SM 10/08 A3009 RMK SLP193 T01040083 54000 IEM_DS3505
ZBHH,2008-10-21 04:00,ZBHH 210400Z AUTO 09002KT 1 1/4SM 11/09 A3006 RMK T01100090 IEM_DS3505
ZBHH,2008-10-21 05:00,ZBHH 210500Z AUTO 05002KT 1 1/2SM 11/09 A3006 RMK T01100090 IEM_DS3505
ZBHH,2008-10-21 06:00,ZBHH 210600Z AUTO 18002KT 6SM 13/09 A3003 RMK 60000 SLP170 T01260092 57013 IEM_DS3505
ZBHH,2008-10-21 07:00,ZBHH 210700Z AUTO 13002KT 2 1/2SM 13/09 A3003 RMK T01300090 IEM_DS3505
ZBHH,2008-10-21 08:00,ZBHH 210800Z AUTO 14002KT 2 1/2SM 13/09 A3003 RMK T01300090 IEM_DS3505
ZBHH,2008-10-21 09:00,ZBHH 210900Z AUTO 07002KT 6SM 13/09 A3003 RMK SLP168 T01290090 57001 IEM_DS3505
ZBHH,2008-10-21 10:00,ZBHH 211000Z AUTO 06002KT 2 1/2SM 11/09 A3003 RMK T01100090 IEM_DS3505
ZBHH,2008-10-21 11:00,ZBHH 211100Z AUTO 04004KT 2 1/2SM 09/07 A3003 RMK T00900070 IEM_DS3505
ZBHH,2008-10-21 12:00,ZBHH 211200Z AUTO 04002KT 6SM 10/08 A3003 RMK SLP178 T00990082 52002 IEM_DS3505
ZBHH,2008-10-21 13:00,ZBHH 211300Z AUTO 02002KT 3SM 07/06 A3006 RMK T00700060 IEM_DS3505
ZBHH,2008-10-21 14:00,ZBHH 211400Z AUTO 06004KT 3SM 06/04 A3006 RMK T00600040 IEM_DS3505
ZBHH,2008-10-21 15:00,ZBHH 211500Z AUTO 09002KT 7SM 08/06 A3006 RMK SLP188 T00750061 52005 IEM_DS3505
ZBHH,2008-10-21 16:00,ZBHH 211600Z AUTO 07004KT 5SM 06/04 A3006 RMK T00600040 IEM_DS3505
ZBHH,2008-10-21 17:00,ZBHH 211700Z AUTO 05002KT 4SM 06/04 A3006 RMK T00600040 IEM_DS3505
ZBHH,2008-10-21 18:00,ZBHH 211800Z AUTO 07002KT 7SM 07/06 A3006 RMK SLP181 T00720063 57002 IEM_DS3505
ZBHH,2008-10-21 19:00,ZBHH 211900Z AUTO 07004KT 4SM 06/05 A3003 RMK T00600050 IEM_DS3505
ZBHH,2008-10-21 20:00,ZBHH 212000Z AUTO 08004KT 4SM 07/05 A3003 RMK T00700050 IEM_DS3505
ZBHH,2008-10-21 21:00,ZBHH 212100Z AUTO 09002KT 7SM 08/06 A3003 RMK 70000 SLP172 T00750061 57007 IEM_DS3505
ZBHH,2008-10-21 22:00,ZBHH 212200Z AUTO 09004KT 4SM 07/05 A3000 RMK T00700050 IEM_DS3505
ZBHH,2008-10-21 23:00,ZBHH 212300Z AUTO 34002KT 3SM 07/06 A3000 RMK T00700060 IEM_DS3505
ZBHH,2008-10-22 00:00,ZBHH 220000Z AUTO 00000KT 6SM 09/06 A3003 RMK 70000 SLP173 T00860062 57003 IEM_DS3505
ZBHH,2008-10-22 01:00,ZBHH 220100Z AUTO 35002KT 2 1/2SM 08/06 A3003 RMK T00800060 IEM_DS3505
ZBHH,2008-10-22 02:00,ZBHH 220200Z AUTO 35006KT 3SM 08/02 A3006 RMK T00800020 IEM_DS3505
ZBHH,2008-10-22 03:00,ZBHH 220300Z AUTO 32008KT 9SM 07/01 A3006 RMK SLP195 T00720009 52012 IEM_DS3505
ZBHH,2008-10-22 04:00,ZBHH 220400Z AUTO 33010KT 7SM 06/02 A3006 RMK T00600020 IEM_DS3505
ZBHH,2008-10-22 05:00,ZBHH 220500Z AUTO 33008KT 7SM 05/02 A3006 RMK T00500020 IEM_DS3505
ZBHH,2008-10-22 06:00,ZBHH 220600Z AUTO 32008KT 9SM 05/01 A3009 RMK 60000 SLP212 T00510009 52010 IEM_DS3505
ZBHH,2008-10-22 07:00,ZBHH 220700Z AUTO 27006KT 7SM 04/02 A3012 RMK T00400020 IEM_DS3505
ZBHH,2008-10-22 08:00,ZBHH 220800Z AUTO 25006KT 7SM 04/02 A3012 RMK T00400020 IEM_DS3505
ZBHH,2008-10-22 09:00,ZBHH 220900Z AUTO 25004KT 12SM 05/02 A3015 RMK SLP231 T00500022 52017 IEM_DS3505
ZBHH,2008-10-22 10:00,ZBHH 221000Z AUTO 29014KT 7SM 05/M01 A3015 RMK T00501010 IEM_DS3505
ZBHH,2008-10-22 11:00,ZBHH 221100Z AUTO 29010KT 7SM 04/M02 A3018 RMK T00401020 IEM_DS3505
ZBHH,2008-10-22 12:00,ZBHH 221200Z AUTO 32012KT 19SM 04/M04 A3021 RMK 60004 SLP249 T00361039 52015 IEM_DS3505
ZBHH,2008-10-22 13:00,ZBHH 221300Z AUTO 32012KT 7SM 03/M03 A3024 RMK T00301030 IEM_DS3505
ZBHH,2008-10-22 14:00,ZBHH 221400Z AUTO 32014KT 7SM 03/M05 A3024 RMK T00301050 IEM_DS3505
ZBHH,2008-10-22 15:00,ZBHH 221500Z AUTO 25004KT 19SM 02/M06 A3024 RMK SLP270 T00231060 52013 IEM_DS3505
ZBHH,2008-10-22 16:00,ZBHH 221600Z AUTO 32010KT 7SM 02/M06 A3024 RMK T00201060 IEM_DS3505
ZBHH,2008-10-22 17:00,ZBHH 221700Z AUTO 31012KT 7SM 02/M06 A3024 RMK T00201060 IEM_DS3505
ZBHH,2008-10-22 18:00,ZBHH 221800Z AUTO 32006G25KT 19SM 01/M07 A3024 RMK SLP277 T00101068 57001 IEM_DS3505
ZBHH,2008-10-22 19:00,ZBHH 221900Z AUTO 33012KT 6SM 00/M07 A3021 RMK T00001070 IEM_DS3505
ZBHH,2008-10-22 20:00,ZBHH 222000Z AUTO 35010KT 6SM 00/M06 A3021 RMK T00001060 IEM_DS3505
ZBHH,2008-10-22 21:00,ZBHH 222100Z AUTO 29004KT 19SM M01/M07 A3021 RMK 70006 SLP278 T10081072 57003 IEM_DS3505
ZBHH,2008-10-22 22:00,ZBHH 222200Z AUTO 30002KT 7SM M02/M06 A3021 RMK T10201060 IEM_DS3505
ZBHH,2008-10-22 23:00,ZBHH 222300Z AUTO 30006KT 7SM M02/M07 A3021 RMK T10201070 IEM_DS3505
ZBHH,2008-10-23 00:00,ZBHH 230000Z AUTO 02004KT 19SM M01/M08 A3024 RMK 70006 SLP283 T10111079 52001 IEM_DS3505
ZBHH,2008-10-23 01:00,ZBHH 230100Z AUTO 33010KT 7SM 00/M08 A3024 RMK T00001080 IEM_DS3505
ZBHH,2008-10-23 02:00,ZBHH 230200Z AUTO 30016KT 7SM 01/M09 A3024 RMK T00101090 IEM_DS3505
ZBHH,2008-10-23 03:00,ZBHH 230300Z AUTO 32008KT 19SM 02/M11 A3024 RMK SLP288 T00171114 52007 IEM_DS3505
ZBHH,2008-10-23 04:00,ZBHH 230400Z AUTO 29017KT 7SM 02/M10 A3024 RMK T00201100 IEM_DS3505
ZBHH,2008-10-23 05:00,ZBHH 230500Z AUTO 31016KT 7SM 03/M12 A3024 RMK T00301120 IEM_DS3505
ZBHH,2008-10-23 06:00,ZBHH 230600Z AUTO 29008KT 19SM 03/M13 A3021 RMK SLP280 T00331126 57006 IEM_DS3505
ZBHH,2008-10-23 07:00,ZBHH 230700Z AUTO 31021KT 7SM 03/M13 A3021 RMK T00301130 IEM_DS3505
ZBHH,2008-10-23 08:00,ZBHH 230800Z AUTO 30016KT 7SM 03/M13 A3024 RMK T00301130 IEM_DS3505
ZBHH,2008-10-23 09:00,ZBHH 230900Z AUTO 32010KT 19SM 02/M12 A3024 RMK SLP291 T00201122 52003 IEM_DS3505
ZBHH,2008-10-23 10:00,ZBHH 231000Z AUTO 31016KT 7SM 01/M12 A3024 RMK T00101120 IEM_DS3505
ZBHH,2008-10-23 11:00,ZBHH 231100Z AUTO 30010KT 7SM 00/M12 A3027 RMK T00001120 IEM_DS3505
ZBHH,2008-10-23 12:00,ZBHH 231200Z AUTO 36002KT 19SM M00/M13 A3027 RMK SLP309 T10031126 52010 IEM_DS3505
ZBHH,2008-10-23 13:00,ZBHH 231300Z AUTO 28008KT 6SM M01/M11 A3027 RMK T10101110 IEM_DS3505
ZBHH,2008-10-23 14:00,ZBHH 231400Z AUTO 29010KT 6SM M01/M11 A3027 RMK T10101110 IEM_DS3505
ZBHH,2008-10-23 15:00,ZBHH 231500Z AUTO 29004KT 19SM M01/M13 A3027 RMK SLP305 T10061132 52002 IEM_DS3505
ZBHH,2008-10-23 16:00,ZBHH 231600Z AUTO 29012KT 6SM M01/M14 A3027 RMK T10101140 IEM_DS3505
ZBHH,2008-10-23 17:00,ZBHH 231700Z AUTO 28010KT 6SM M02/M15 A3027 RMK T10201150 IEM_DS3505
ZBHH,2008-10-23 18:00,ZBHH 231800Z AUTO 32002KT 19SM M01/M19 A3027 RMK SLP295 T10131188 57007 IEM_DS3505
ZBHH,2008-10-23 19:00,ZBHH 231900Z AUTO 28010KT 6SM M02/M17 A3024 RMK T10201170 IEM_DS3505
ZBHH,2008-10-23 20:00,ZBHH 232000Z AUTO 25006KT 6SM M03/M14 A3021 RMK T10301140 IEM_DS3505
ZBHH,2008-10-23 21:00,ZBHH 232100Z AUTO 25004KT 19SM M03/M16 A3021 RMK SLP288 T10291162 57012 IEM_DS3505
ZBHH,2008-10-23 22:00,ZBHH 232200Z AUTO 23006KT 6SM M04/M11 A3021 RMK T10401110 IEM_DS3505
ZBHH,2008-10-23 23:00,ZBHH 232300Z AUTO 23002KT 6SM M05/M09 A3021 RMK T10501090 IEM_DS3505
ZBHH,2008-10-24 00:00,ZBHH 240000Z AUTO 22004KT 19SM M04/M08 A3021 RMK SLP294 T10361083 57001 IEM_DS3505
ZBHH,2008-10-24 01:00,ZBHH 240100Z AUTO 21004KT 7SM M02/M06 A3021 RMK T10201060 IEM_DS3505
ZBHH,2008-10-24 02:00,ZBHH 240200Z AUTO 24010KT 6SM 01/M09 A3021 RMK T00101090 IEM_DS3505
ZBHH,2008-10-24 03:00,ZBHH 240300Z AUTO 22008KT 19SM 02/M10 A3018 RMK SLP269 T00211101 57011 IEM_DS3505
ZBHH,2008-10-24 04:00,ZBHH 240400Z AUTO 25016KT 6SM 04/M07 A3015 RMK T00401070 IEM_DS3505
ZBHH,2008-10-24 05:00,ZBHH 240500Z AUTO 24016KT 6SM 06/M07 A3012 RMK T00601070 IEM_DS3505
ZBHH,2008-10-24 06:00,ZBHH 240600Z AUTO 22012KT 19SM 06/M08 A3009 RMK SLP225 T00621081 57031 IEM_DS3505
ZBHH,2008-10-24 07:00,ZBHH 240700Z AUTO 23016KT 7SM 08/M08 A3006 RMK T00801080 IEM_DS3505
ZBHH,2008-10-24 08:00,ZBHH 240800Z AUTO 24016KT 6SM 08/M08 A3003 RMK T00801080 IEM_DS3505
ZBHH,2008-10-24 09:00,ZBHH 240900Z AUTO 25006KT 19SM 09/M10 A3003 RMK SLP206 T00921103 57014 IEM_DS3505
ZBHH,2008-10-24 10:00,ZBHH 241000Z AUTO 23010KT 6SM 06/M07 A3003 RMK T00601070 IEM_DS3505
ZBHH,2008-10-24 11:00,ZBHH 241100Z AUTO 21008KT 6SM 03/M06 A3003 RMK T00301060 IEM_DS3505
ZBHH,2008-10-24 12:00,ZBHH 241200Z AUTO 27004KT 19SM 06/M08 A3003 RMK SLP215 T00551080 57001 IEM_DS3505
ZBHH,2008-10-24 13:00,ZBHH 241300Z AUTO 14002KT 6SM 02/M06 A3003 RMK T00201060 IEM_DS3505
ZBHH,2008-10-24 14:00,ZBHH 241400Z AUTO 24002KT 6SM 01/M06 A3003 RMK T00101060 IEM_DS3505
ZBHH,2008-10-24 15:00,ZBHH 241500Z AUTO 22002KT 19SM 03/M06 A3003 RMK SLP207 T00271062 57001 IEM_DS3505
ZBHH,2008-10-24 16:00,ZBHH 241600Z AUTO 08006KT 6SM M02/M06 A3000 RMK T10201060 IEM_DS3505
ZBHH,2008-10-24 17:00,ZBHH 241700Z AUTO 04004KT 6SM M02/M05 A3003 RMK T10201050 IEM_DS3505
ZBHH,2008-10-24 18:00,ZBHH 241800Z AUTO 29002KT 19SM 04/M10 A3003 RMK SLP196 T00371103 52001 IEM_DS3505
ZBHH,2008-10-24 19:00,ZBHH 241900Z AUTO 09004KT 6SM M02/M05 A3003 RMK T10201050 IEM_DS3505
ZBHH,2008-10-24 20:00,ZBHH 242000Z AUTO 28002KT 6SM M01/M06 A3003 RMK T10101060 IEM_DS3505
ZBHH,2008-10-24 21:00,ZBHH 242100Z AUTO 32010KT 19SM 02/M11 A3009 RMK SLP211 T00201108 52016 IEM_DS3505
ZBHH,2008-10-24 22:00,ZBHH 242200Z AUTO 04004KT 6SM M01/M09 A3012 RMK T10101090 IEM_DS3505
ZBHH,2008-10-24 23:00,ZBHH 242300Z AUTO 35008KT 6SM M01/M11 A3012 RMK T10101110 IEM_DS3505
ZBHH,2008-10-25 00:00,ZBHH 250000Z AUTO 32004KT 19SM 01/M15 A3015 RMK SLP245 T00071149 52019 IEM_DS3505
ZBHH,2008-10-25 01:00,ZBHH 250100Z AUTO 23006KT 6SM 02/M13 A3018 RMK T00201130 IEM_DS3505
ZBHH,2008-10-25 02:00,ZBHH 250200Z AUTO 31010KT 6SM 04/M14 A3018 RMK T00401140 IEM_DS3505
ZBHH,2008-10-25 03:00,ZBHH 250300Z AUTO 29006KT 19SM 06/M15 A3015 RMK SLP247 T00601147 52007 IEM_DS3505
ZBHH,2008-10-25 04:00,ZBHH 250400Z AUTO 30016KT 6SM 07/M12 A3015 RMK T00701120 IEM_DS3505
ZBHH,2008-10-25 05:00,ZBHH 250500Z AUTO 30016KT 6SM 08/M12 A3015 RMK T00801120 IEM_DS3505
ZBHH,2008-10-25 06:00,ZBHH 250600Z AUTO 27008KT 19SM 09/M11 A3012 RMK SLP225 T00871113 57011 IEM_DS3505
ZBHH,2008-10-25 07:00,ZBHH 250700Z AUTO 31016KT 6SM 09/M11 A3012 RMK T00901110 IEM_DS3505
ZBHH,2008-10-25 08:00,ZBHH 250800Z AUTO 31017G27KT 6SM 08/M12 A3012 RMK T00801120 IEM_DS3505
ZBHH,2008-10-25 09:00,ZBHH 250900Z AUTO 32008KT 19SM 08/M11 A3012 RMK SLP234 T00801113 52003 IEM_DS3505
ZBHH,2008-10-25 10:00,ZBHH 251000Z AUTO 30010KT 6SM 06/M10 A3015 RMK T00601100 IEM_DS3505
ZBHH,2008-10-25 11:00,ZBHH 251100Z AUTO 28010KT 6SM 05/M10 A3015 RMK T00501100 IEM_DS3505
ZBHH,2008-10-25 12:00,ZBHH 251200Z AUTO 32004KT 19SM 06/M11 A3018 RMK SLP258 T00571110 52013 IEM_DS3505
ZBHH,2008-10-25 13:00,ZBHH 251300Z AUTO 27008KT 6SM 04/M09 A3018 RMK T00401090 IEM_DS3505
ZBHH,2008-10-25 14:00,ZBHH 251400Z AUTO 26010KT 6SM 03/M09 A3021 RMK T00301090 IEM_DS3505
ZBHH,2008-10-25 15:00,ZBHH 251500Z AUTO 22002KT 19SM 02/M09 A3021 RMK SLP269 T00151086 52012 IEM_DS3505
ZBHH,2008-10-25 16:00,ZBHH 251600Z AUTO 16004KT 6SM 02/M09 A3021 RMK T00201090 IEM_DS3505
ZBHH,2008-10-25 17:00,ZBHH 251700Z AUTO 14004KT 6SM 00/M07 A3021 RMK T00001070 IEM_DS3505
ZBHH,2008-10-25 18:00,ZBHH 251800Z AUTO 16002KT 19SM 00/M07 A3024 RMK SLP267 T00041069 52002 IEM_DS3505
ZBHH,2008-10-25 19:00,ZBHH 251900Z AUTO 11004KT 6SM M03/M07 A3024 RMK T10301070 IEM_DS3505
ZBHH,2008-10-25 20:00,ZBHH 252000Z AUTO 13004KT 6SM M04/M07 A3024 RMK T10401070 IEM_DS3505
ZBHH,2008-10-25 21:00,ZBHH 252100Z AUTO 34004KT 19SM 01/M11 A3024 RMK SLP270 T00131111 52003 IEM_DS3505
ZBHH,2008-10-25 22:00,ZBHH 252200Z AUTO 09004KT 6SM M04/M06 A3024 RMK T10401060 IEM_DS3505
ZBHH,2008-10-25 23:00,ZBHH 252300Z AUTO 11004KT 6SM M04/M06 A3024 RMK T10401060 IEM_DS3505
ZBHH,2008-10-26 00:00,ZBHH 260000Z AUTO 02002KT 19SM M01/M06 A3027 RMK SLP291 T10081058 52009 IEM_DS3505
ZBHH,2008-10-26 01:00,ZBHH 260100Z AUTO 19004KT 6SM 02/M06 A3030 RMK T00201060 IEM_DS3505
ZBHH,2008-10-26 02:00,ZBHH 260200Z AUTO 23004KT 6SM 04/M08 A3030 RMK T00401080 IEM_DS3505
ZBHH,2008-10-26 03:00,ZBHH 260300Z AUTO 22004KT 19SM 06/M08 A3027 RMK SLP289 T00591084 52003 IEM_DS3505
ZBHH,2008-10-26 04:00,ZBHH 260400Z AUTO 26006KT 6SM 08/M10 A3027 RMK T00801100 IEM_DS3505
ZBHH,2008-10-26 05:00,ZBHH 260500Z AUTO 31012KT 6SM 09/M13 A3024 RMK T00901130 IEM_DS3505
ZBHH,2008-10-26 06:00,ZBHH 260600Z AUTO 32008KT 19SM 10/M15 A3024 RMK SLP271 T01021153 57009 IEM_DS3505
ZBHH,2008-10-26 07:00,ZBHH 260700Z AUTO 32016KT 6SM 10/M14 A3024 RMK T01001140 IEM_DS3505
ZBHH,2008-10-26 08:00,ZBHH 260800Z AUTO 31012KT 6SM 10/M14 A3024 RMK T01001140 IEM_DS3505
ZBHH,2008-10-26 09:00,ZBHH 260900Z AUTO 29008KT 19SM 09/M14 A3024 RMK SLP274 T00941144 52003 IEM_DS3505
ZBHH,2008-10-26 10:00,ZBHH 261000Z AUTO 33006KT 6SM 06/M12 A3027 RMK T00601120 IEM_DS3505
ZBHH,2008-10-26 11:00,ZBHH 261100Z AUTO 33010KT 6SM 07/M12 A3030 RMK T00701120 IEM_DS3505
ZBHH,2008-10-26 12:00,ZBHH 261200Z AUTO 29006KT 19SM 06/M11 A3030 RMK SLP305 T00561106 52015 IEM_DS3505
ZBHH,2008-10-26 13:00,ZBHH 261300Z AUTO 29006KT 6SM 04/M11 A3033 RMK T00401110 IEM_DS3505
ZBHH,2008-10-26 14:00,ZBHH 261400Z AUTO 33008KT 6SM 04/M10 A3033 RMK T00401100 IEM_DS3505
ZBHH,2008-10-26 15:00,ZBHH 261500Z AUTO 27006KT 19SM 04/M10 A3033 RMK SLP303 T00421103 52009 IEM_DS3505
ZBHH,2008-10-26 16:00,ZBHH 261600Z AUTO 34006KT 6SM 03/M10 A3036 RMK T00301100 IEM_DS3505
ZBHH,2008-10-26 17:00,ZBHH 261700Z AUTO 35004KT 6SM 02/M10 A3036 RMK T00201100 IEM_DS3505
ZBHH,2008-10-26 18:00,ZBHH 261800Z AUTO 32004KT 19SM 02/M10 A3036 RMK SLP302 T00201099 52004 IEM_DS3505
ZBHH,2008-10-26 19:00,ZBHH 261900Z AUTO 07006KT 6SM M02/M08 A3036 RMK T10201080 IEM_DS3505
ZBHH,2008-10-26 20:00,ZBHH 262000Z AUTO 16002KT 6SM M04/M07 A3036 RMK T10401070 IEM_DS3505
ZBHH,2008-10-26 21:00,ZBHH 262100Z AUTO 14002KT 19SM M02/M08 A3036 RMK SLP309 T10171080 57003 IEM_DS3505
ZBHH,2008-10-26 22:00,ZBHH 262200Z AUTO 05002KT 6SM M05/M08 A3036 RMK T10501080 IEM_DS3505
ZBHH,2008-10-26 23:00,ZBHH 262300Z AUTO 05006KT 6SM M06/M08 A3036 RMK T10601080 IEM_DS3505
ZBHH,2008-10-27 00:00,ZBHH 270000Z AUTO 07002KT 19SM M00/M08 A3036 RMK SLP321 T10051077 52005 IEM_DS3505
ZBHH,2008-10-27 01:00,ZBHH 270100Z AUTO 09002KT 6SM 02/M07 A3036 RMK T00201070 IEM_DS3505
ZBHH,2008-10-27 02:00,ZBHH 270200Z AUTO 04002KT 6SM 04/M08 A3036 RMK T00401080 IEM_DS3505
ZBHH,2008-10-27 03:00,ZBHH 270300Z AUTO 07002KT 19SM 06/M08 A3033 RMK SLP300 T00641079 57007 IEM_DS3505
ZBHH,2008-10-27 04:00,ZBHH 270400Z AUTO 25006KT 6SM 07/M08 A3033 RMK T00701080 IEM_DS3505
ZBHH,2008-10-27 05:00,ZBHH 270500Z AUTO 24010KT 6SM 09/M08 A3030 RMK T00901080 IEM_DS3505
ZBHH,2008-10-27 06:00,ZBHH 270600Z AUTO 20010KT 19SM 10/M09 A3027 RMK SLP275 T00961090 57020 IEM_DS3505
ZBHH,2008-10-27 07:00,ZBHH 270700Z AUTO 25008KT 6SM 10/M09 A3024 RMK T01001090 IEM_DS3505
ZBHH,2008-10-27 08:00,ZBHH 270800Z AUTO 23008KT 6SM 10/M09 A3021 RMK T01001090 IEM_DS3505
ZBHH,2008-10-27 09:00,ZBHH 270900Z AUTO 20004KT 19SM 09/M08 A3021 RMK SLP261 T00921084 57021 IEM_DS3505
ZBHH,2008-10-27 10:00,ZBHH 271000Z AUTO 22002KT 6SM 06/M08 A3018 RMK T00601080 IEM_DS3505
ZBHH,2008-10-27 11:00,ZBHH 271100Z AUTO 06004KT 6SM 04/M07 A3018 RMK T00401070 IEM_DS3505
ZBHH,2008-10-27 12:00,ZBHH 271200Z AUTO 04002KT 19SM 05/M07 A3018 RMK SLP257 T00461066 57011 IEM_DS3505
ZBHH,2008-10-27 13:00,ZBHH 271300Z AUTO 06006KT 6SM M01/M06 A3015 RMK T10101060 IEM_DS3505
ZBHH,2008-10-27 14:00,ZBHH 271400Z AUTO 09006KT 6SM 01/M06 A3018 RMK T00101060 IEM_DS3505
ZBHH,2008-10-27 15:00,ZBHH 271500Z AUTO 00000KT 19SM 01/M06 A3018 RMK SLP250 T00071055 52001 IEM_DS3505
ZBHH,2008-10-27 16:00,ZBHH 271600Z AUTO 04006KT 6SM M02/M06 A3015 RMK T10201060 IEM_DS3505
ZBHH,2008-10-27 17:00,ZBHH 271700Z AUTO 08004KT 6SM M02/M06 A3015 RMK T10201060 IEM_DS3505
ZBHH,2008-10-27 18:00,ZBHH 271800Z AUTO 09002KT 19SM 00/M06 A3015 RMK SLP234 T00021062 57009 IEM_DS3505
ZBHH,2008-10-27 19:00,ZBHH 271900Z AUTO 06006KT 6SM M03/M06 A3012 RMK T10301060 IEM_DS3505
ZBHH,2008-10-27 20:00,ZBHH 272000Z AUTO 04004KT 6SM M04/M07 A3009 RMK T10401070 IEM_DS3505
ZBHH,2008-10-27 21:00,ZBHH 272100Z AUTO 00000KT 12SM M02/M06 A3009 RMK SLP222 T10181060 57015 IEM_DS3505
ZBHH,2008-10-27 22:00,ZBHH 272200Z AUTO 07006KT 6SM M03/M06 A3006 RMK T10301060 IEM_DS3505
ZBHH,2008-10-27 23:00,ZBHH 272300Z AUTO 07004KT 6SM M02/M05 A3006 RMK T10201050 IEM_DS3505
ZBHH,2008-10-28 00:00,ZBHH 280000Z AUTO 07002KT 19SM 00/M06 A3006 RMK SLP220 T00041056 57007 IEM_DS3505
ZBHH,2008-10-28 01:00,ZBHH 280100Z AUTO 06004KT 6SM 02/M04 A3009 RMK T00201040 IEM_DS3505
ZBHH,2008-10-28 02:00,ZBHH 280200Z AUTO 11004KT 6SM 07/M04 A3006 RMK T00701040 IEM_DS3505
ZBHH,2008-10-28 03:00,ZBHH 280300Z AUTO 18002KT 9SM 09/M08 A3006 RMK SLP204 T00911080 57004 IEM_DS3505
ZBHH,2008-10-28 04:00,ZBHH 280400Z AUTO 27002KT 6SM 11/M08 A3003 RMK T01101080 IEM_DS3505
ZBHH,2008-10-28 05:00,ZBHH 280500Z AUTO 24006KT 6SM 10/M08 A3000 RMK T01001080 IEM_DS3505
ZBHH,2008-10-28 06:00,ZBHH 280600Z AUTO 18004KT 7SM 10/M08 A3000 RMK SLP183 T01021080 57017 IEM_DS3505
ZBHH,2008-10-28 07:00,ZBHH 280700Z AUTO 20008KT 6SM 10/M07 A2997 RMK T01001070 IEM_DS3505
ZBHH,2008-10-28 08:00,ZBHH 280800Z AUTO 21006KT 6SM 10/M03 A2997 RMK T01001030 IEM_DS3505
ZBHH,2008-10-28 09:00,ZBHH 280900Z AUTO 25004KT 9SM 09/M02 A2997 RMK SLP179 T00891018 57011 IEM_DS3505
ZBHH,2008-10-28 10:00,ZBHH 281000Z AUTO 18004KT 6SM 05/M01 A2997 RMK T00501010 IEM_DS3505
ZBHH,2008-10-28 11:00,ZBHH 281100Z AUTO 00000KT 6SM 04/00 A3000 RMK T00400000 IEM_DS3505
ZBHH,2008-10-28 12:00,ZBHH 281200Z AUTO 00000KT 9SM 04/00 A3000 RMK SLP196 T00440000 52010 IEM_DS3505
ZBHH,2008-10-28 13:00,ZBHH 281300Z AUTO 03006KT 6SM 02/M02 A3000 RMK T00201020 IEM_DS3505
ZBHH,2008-10-28 14:00,ZBHH 281400Z AUTO 10004KT 6SM 00/M02 A3000 RMK T00001020 IEM_DS3505
ZBHH,2008-10-28 15:00,ZBHH 281500Z AUTO 11002KT 6SM 02/M02 A3000 RMK SLP181 T00221016 52001 IEM_DS3505
ZBHH,2008-10-28 16:00,ZBHH 281600Z AUTO 07006KT 6SM M01/M03 A3000 RMK T10101030 IEM_DS3505
ZBHH,2008-10-28 17:00,ZBHH 281700Z AUTO 05004KT 6SM M01/M03 A3000 RMK T10101030 IEM_DS3505
ZBHH,2008-10-28 18:00,ZBHH 281800Z AUTO 34002KT 9SM 00/M02 A3000 RMK SLP187 T00001022 52003 IEM_DS3505
ZBHH,2008-10-28 19:00,ZBHH 281900Z AUTO 05006KT 6SM M03/M04 A3000 RMK T10301040 IEM_DS3505
ZBHH,2008-10-28 20:00,ZBHH 282000Z AUTO 07004KT 6SM M03/M04 A3000 RMK T10301040 IEM_DS3505
ZBHH,2008-10-28 21:00,ZBHH 282100Z AUTO 02002KT 9SM M01/M03 A3003 RMK SLP200 T10101029 52006 IEM_DS3505
ZBHH,2008-10-28 22:00,ZBHH 282200Z AUTO 06004KT 6SM M02/M03 A3003 RMK T10201030 IEM_DS3505
ZBHH,2008-10-28 23:00,ZBHH 282300Z AUTO 06002KT 4SM 00/M01 A3006 RMK T00001010 IEM_DS3505
ZBHH,2008-10-29 00:00,ZBHH 290000Z AUTO 07002KT 6SM 01/00 A3009 RMK SLP229 T00120002 52021 IEM_DS3505
ZBHH,2008-10-29 01:00,ZBHH 290100Z AUTO 00000KT 2SM 02/00 A3012 RMK T00200000 IEM_DS3505
ZBHH,2008-10-29 02:00,ZBHH 290200Z AUTO 20002KT 3SM 04/01 A3012 RMK T00400010 IEM_DS3505
ZBHH,2008-10-29 03:00,ZBHH 290300Z AUTO 29002KT 6SM 06/00 A3012 RMK SLP234 T00590005 52010 IEM_DS3505
ZBHH,2008-10-29 04:00,ZBHH 290400Z AUTO 23006KT 6SM 08/M01 A3009 RMK T00801010 IEM_DS3505
ZBHH,2008-10-29 05:00,ZBHH 290500Z AUTO 24008KT 6SM 10/M02 A3009 RMK T01001020 IEM_DS3505
ZBHH,2008-10-29 06:00,ZBHH 290600Z AUTO 20004KT 9SM 11/M02 A3006 RMK SLP210 T01071020 57016 IEM_DS3505
ZBHH,2008-10-29 07:00,ZBHH 290700Z AUTO 23004KT 6SM 11/M05 A3006 RMK T01101050 IEM_DS3505
ZBHH,2008-10-29 08:00,ZBHH 290800Z AUTO 26006KT 6SM 11/M06 A3006 RMK T01101060 IEM_DS3505
ZBHH,2008-10-29 09:00,ZBHH 290900Z AUTO 25002KT 9SM 10/M04 A3006 RMK SLP213 T00991041 57001 IEM_DS3505
ZBHH,2008-10-29 10:00,ZBHH 291000Z AUTO 25006KT 6SM 07/M04 A3009 RMK T00701040 IEM_DS3505
ZBHH,2008-10-29 11:00,ZBHH 291100Z AUTO 01002KT 6SM 06/M03 A3009 RMK T00601030 IEM_DS3505
ZBHH,2008-10-29 12:00,ZBHH 291200Z AUTO 32002KT 9SM 04/M03 A3012 RMK SLP234 T00431032 52011 IEM_DS3505
ZBHH,2008-10-29 13:00,ZBHH 291300Z AUTO 09004KT 6SM 02/M04 A3012 RMK T00201040 IEM_DS3505
ZBHH,2008-10-29 14:00,ZBHH 291400Z AUTO 05006KT 6SM 01/M04 A3012 RMK T00101040 IEM_DS3505
ZBHH,2008-10-29 15:00,ZBHH 291500Z AUTO 07002KT 12SM 03/M05 A3012 RMK SLP233 T00261048 52006 IEM_DS3505
ZBHH,2008-10-29 16:00,ZBHH 291600Z AUTO 05004KT 6SM 00/M04 A3012 RMK T00001040 IEM_DS3505
ZBHH,2008-10-29 17:00,ZBHH 291700Z AUTO 10006KT 6SM 00/M04 A3012 RMK T00001040 IEM_DS3505
ZBHH,2008-10-29 18:00,ZBHH 291800Z AUTO 04002KT 12SM 01/M04 RMK SLP225 T00101037 57001 IEM_DS3505
ZBHH,2008-10-29 19:00,ZBHH 291900Z AUTO 04006KT 6SM M02/M05 A3012 RMK T10201050 IEM_DS3505
ZBHH,2008-10-29 20:00,ZBHH 292000Z AUTO 08006KT 6SM M03/M06 A3012 RMK T10301060 IEM_DS3505
ZBHH,2008-10-29 21:00,ZBHH 292100Z AUTO 00000KT 12SM M01/M05 RMK SLP225 T10081047 57005 IEM_DS3505
ZBHH,2008-10-29 22:00,ZBHH 292200Z AUTO 07006KT 6SM M03/M05 A3012 RMK T10301050 IEM_DS3505
ZBHH,2008-10-29 23:00,ZBHH 292300Z AUTO 07004KT 6SM M04/M06 A3012 RMK T10401060 IEM_DS3505
ZBHH,2008-10-30 00:00,ZBHH 300000Z AUTO 11002KT 16SM M00/M04 A3015 RMK SLP248 T10041041 52009 IEM_DS3505
ZBHH,2008-10-30 01:00,ZBHH 300100Z AUTO 10002KT 6SM 02/M03 A3015 RMK T00201030 IEM_DS3505
ZBHH,2008-10-30 02:00,ZBHH 300200Z AUTO 20002KT 6SM 04/M04 A3015 RMK T00401040 IEM_DS3505
ZBHH,2008-10-30 03:00,ZBHH 300300Z AUTO 14002KT 11SM 07/M05 A3012 RMK SLP230 T00671047 57004 IEM_DS3505
ZBHH,2008-10-30 04:00,ZBHH 300400Z AUTO 25004KT 7SM 08/M03 A3012 RMK T00801030 IEM_DS3505
ZBHH,2008-10-30 05:00,ZBHH 300500Z AUTO 25008KT 5SM 09/M04 A3009 RMK T00901040 IEM_DS3505
ZBHH,2008-10-30 06:00,ZBHH 300600Z AUTO 20004KT 12SM 11/M04 A3006 RMK SLP205 T01081040 57017 IEM_DS3505
ZBHH,2008-10-30 07:00,ZBHH 300700Z AUTO 27014KT 7SM 11/M07 A3006 RMK T01101070 IEM_DS3505
ZBHH,2008-10-30 08:00,ZBHH 300800Z AUTO 30016KT 7SM 11/M10 A3006 RMK T01101100 IEM_DS3505
ZBHH,2008-10-30 09:00,ZBHH 300900Z AUTO 32008G23KT 12SM 10/M09 A3009 RMK SLP223 T01021089 52011 IEM_DS3505
ZBHH,2008-10-30 10:00,ZBHH 301000Z AUTO 33012KT 6SM 08/M09 A3012 RMK T00801090 IEM_DS3505
ZBHH,2008-10-30 11:00,ZBHH 301100Z AUTO 31010KT 6SM 07/M09 A3018 RMK T00701090 IEM_DS3505
ZBHH,2008-10-30 12:00,ZBHH 301200Z AUTO 36004KT 12SM 06/M09 A3018 RMK SLP259 T00651094 52024 IEM_DS3505
ZBHH,2008-10-30 14:00,ZBHH 301400Z AUTO 33006KT 6SM 04/M10 A3021 RMK T00401100 IEM_DS3505
ZBHH,2008-10-30 15:00,ZBHH 301500Z AUTO 29004KT 12SM 05/M11 A3024 RMK SLP270 T00461107 52021 IEM_DS3505
ZBHH,2008-10-30 16:00,ZBHH 301600Z AUTO 33008KT 6SM 04/M10 A3027 RMK T00401100 IEM_DS3505
ZBHH,2008-10-30 17:00,ZBHH 301700Z AUTO 35008KT 6SM 02/M09 A3027 RMK T00201090 IEM_DS3505
ZBHH,2008-10-30 18:00,ZBHH 301800Z AUTO 32004KT 12SM 03/M10 A3027 RMK SLP272 T00261100 52006 IEM_DS3505
ZBHH,2008-10-30 19:00,ZBHH 301900Z AUTO 35006KT 6SM 00/M09 A3027 RMK T00001090 IEM_DS3505
ZBHH,2008-10-30 20:00,ZBHH 302000Z AUTO 36006KT 6SM M01/M08 A3024 RMK T10101080 IEM_DS3505
ZBHH,2008-10-30 21:00,ZBHH 302100Z AUTO 00000KT 12SM M00/M09 A3024 RMK SLP267 T10041090 57012 IEM_DS3505
ZBHH,2008-10-30 22:00,ZBHH 302200Z AUTO 09006KT 6SM M04/M08 A3024 RMK T10401080 IEM_DS3505
ZBHH,2008-10-30 23:00,ZBHH 302300Z AUTO 09002KT 6SM M05/M08 A3024 RMK T10501080 IEM_DS3505
ZBHH,2008-10-31 00:00,ZBHH 310000Z AUTO 22002KT 12SM 00/M08 A3027 RMK SLP284 T00021082 52009 IEM_DS3505
ZBHH,2008-10-31 01:00,ZBHH 310100Z AUTO 30002KT 6SM 01/M08 A3027 RMK T00101080 IEM_DS3505
ZBHH,2008-10-31 02:00,ZBHH 310200Z AUTO 15002KT 6SM 03/M08 A3027 RMK T00301080 IEM_DS3505
ZBHH,2008-10-31 03:00,ZBHH 310300Z AUTO 25004KT 12SM 05/M09 A3024 RMK SLP269 T00511087 57007 IEM_DS3505
ZBHH,2008-10-31 04:00,ZBHH 310400Z AUTO 23004KT 6SM 06/M08 A3024 RMK T00601080 IEM_DS3505
ZBHH,2008-10-31 05:00,ZBHH 310500Z AUTO 22006KT 6SM 08/M09 A3018 RMK T00801090 IEM_DS3505
ZBHH,2008-10-31 06:00,ZBHH 310600Z AUTO 20006KT 19SM 09/M09 A3015 RMK SLP235 T00901090 57026 IEM_DS3505
ZBHH,2008-10-31 07:00,ZBHH 310700Z AUTO 23010KT 6SM 10/M09 A3012 RMK T01001090 IEM_DS3505
ZBHH,2008-10-31 08:00,ZBHH 310800Z AUTO 24010KT 6SM 10/M08 A3012 RMK T01001080 IEM_DS3505
ZBHH,2008-10-31 09:00,ZBHH 310900Z AUTO 22006KT 19SM 10/M08 A3009 RMK SLP216 T01001081 57021 IEM_DS3505
ZBHH,2008-10-31 10:00,ZBHH 311000Z AUTO 20002KT 6SM 07/M08 A3006 RMK T00701080 IEM_DS3505
ZBHH,2008-10-31 11:00,ZBHH 311100Z AUTO 33004KT 6SM 05/M07 A3006 RMK T00501070 IEM_DS3505
ZBHH,2008-10-31 12:00,ZBHH 311200Z AUTO 00000KT 19SM 04/M06 A3006 RMK SLP222 T00441062 57005 IEM_DS3505
ZBHH,2008-10-31 13:00,ZBHH 311300Z AUTO 06006KT 6SM M01/M05 A3006 RMK T10101050 IEM_DS3505
ZBHH,2008-10-31 14:00,ZBHH 311400Z AUTO 07004KT 6SM M01/M06 A3006 RMK T10101060 IEM_DS3505
ZBHH,2008-10-31 15:00,ZBHH 311500Z AUTO 09002KT 19SM 03/M06 A3006 RMK SLP211 T00281058 57003 IEM_DS3505
ZBHH,2008-10-31 16:00,ZBHH 311600Z AUTO 06006KT 6SM M03/M06 A3003 RMK T10301060 IEM_DS3505
ZBHH,2008-10-31 17:00,ZBHH 311700Z AUTO 03004KT 6SM M02/M06 A3003 RMK T10201060 IEM_DS3505
ZBHH,2008-10-31 18:00,ZBHH 311800Z AUTO 07002KT 19SM 01/M06 A3000 RMK SLP188 T00091064 57016 IEM_DS3505
ZBHH,2008-10-31 19:00,ZBHH 311900Z AUTO 04006KT 6SM M02/M06 A3000 RMK T10201060 IEM_DS3505
ZBHH,2008-10-31 20:00,ZBHH 312000Z AUTO 06004KT 6SM M05/M07 A2997 RMK T10501070 IEM_DS3505
ZBHH,2008-10-31 21:00,ZBHH 312100Z AUTO 00000KT 19SM M01/M06 A2997 RMK SLP182 T10091055 57007 IEM_DS3505
ZBHH,2008-10-31 22:00,ZBHH 312200Z AUTO 12004KT 6SM M02/M06 A3000 RMK T10201060 IEM_DS3505
ZBHH,2008-10-31 23:00,ZBHH 312300Z AUTO 18002KT 7SM M01/M06 A3003 RMK T10101060 IEM_DS3505
ZBHH,2008-11-01 00:00,ZBHH 010000Z AUTO 29008G23KT 19SM 04/M04 A3009 RMK SLP221 T00441043 52034 IEM_DS3505
ZBHH,2008-11-01 01:00,ZBHH 010100Z AUTO 29019KT 7SM 05/M06 A3015 RMK T00501060 IEM_DS3505
ZBHH,2008-11-01 02:00,ZBHH 010200Z AUTO 30016G25KT 7SM 05/M08 A3018 RMK T00501080 IEM_DS3505
ZBHH,2008-11-01 03:00,ZBHH 010300Z AUTO 29010G27KT 12SM 04/M07 A3018 RMK SLP268 T00431072 52037 IEM_DS3505
ZBHH,2008-11-01 04:00,ZBHH 010400Z AUTO 31014KT 7SM 04/M07 A3021 RMK T00401070 IEM_DS3505
ZBHH,2008-11-01 05:00,ZBHH 010500Z AUTO 30012KT 7SM 05/M08 A3018 RMK T00501080 IEM_DS3505
ZBHH,2008-11-01 06:00,ZBHH 010600Z AUTO 29008G21KT 19SM 07/M11 A3018 RMK SLP259 T00661111 57007 IEM_DS3505
ZBHH,2008-11-01 07:00,ZBHH 010700Z AUTO 31014KT 7SM 07/M12 A3015 RMK T00701120 IEM_DS3505
ZBHH,2008-11-01 08:00,ZBHH 010800Z AUTO 29012KT 6SM 07/M13 A3015 RMK T00701130 IEM_DS3505
ZBHH,2008-11-01 09:00,ZBHH 010900Z AUTO 25002KT 19SM 08/M14 A3012 RMK SLP240 T00751140 57018 IEM_DS3505
ZBHH,2008-11-01 10:00,ZBHH 011000Z AUTO 22002KT 6SM 04/M12 A3012 RMK T00401120 IEM_DS3505
ZBHH,2008-11-01 11:00,ZBHH 011100Z AUTO 15004KT 6SM 01/M10 A3012 RMK T00101100 IEM_DS3505
ZBHH,2008-11-01 12:00,ZBHH 011200Z AUTO 27002KT 19SM 04/M09 A3009 RMK SLP226 T00351092 57010 IEM_DS3505
ZBHH,2008-11-01 13:00,ZBHH 011300Z AUTO 10004KT 6SM 00/M08 A3009 RMK T00001080 IEM_DS3505
ZBHH,2008-11-01 14:00,ZBHH 011400Z AUTO 11004KT 6SM M04/M08 A3009 RMK T10401080 IEM_DS3505
ZBHH,2008-11-01 15:00,ZBHH 011500Z AUTO 00000KT 19SM M00/M08 A3009 RMK SLP229 T10031082 57005 IEM_DS3505
ZBHH,2008-11-01 16:00,ZBHH 011600Z AUTO 07002KT 6SM M04/M08 A3006 RMK T10401080 IEM_DS3505
ZBHH,2008-11-01 17:00,ZBHH 011700Z AUTO 03002KT 6SM M05/M08 A3003 RMK T10501080 IEM_DS3505
ZBHH,2008-11-01 18:00,ZBHH 011800Z AUTO 07002KT 19SM M02/M09 A3003 RMK SLP208 T10161090 57017 IEM_DS3505
ZBHH,2008-11-01 19:00,ZBHH 011900Z AUTO 06006KT 6SM M07/M09 A3000 RMK T10701090 IEM_DS3505
ZBHH,2008-11-01 20:00,ZBHH 012000Z AUTO 04006KT 6SM M06/M08 A2997 RMK T10601080 IEM_DS3505
ZBHH,2008-11-01 21:00,ZBHH 012100Z AUTO 09002KT 19SM M02/M09 A2997 RMK SLP187 T10211090 57017 IEM_DS3505
ZBHH,2008-11-01 22:00,ZBHH 012200Z AUTO 04004KT 6SM M04/M08 A2997 RMK T10401080 IEM_DS3505
ZBHH,2008-11-01 23:00,ZBHH 012300Z AUTO 02002KT 6SM M06/M09 A2994 RMK T10601090 IEM_DS3505
ZBHH,2008-11-02 00:00,ZBHH 020000Z AUTO 00000KT 14SM M02/M08 A2997 RMK SLP195 T10221083 57002 IEM_DS3505
ZBHH,2008-11-02 01:00,ZBHH 020100Z AUTO 11004KT 6SM 00/M06 A3000 RMK T00001060 IEM_DS3505
ZBHH,2008-11-02 02:00,ZBHH 020200Z AUTO 29004KT 6SM 03/M10 A3000 RMK T00301100 IEM_DS3505
ZBHH,2008-11-02 03:00,ZBHH 020300Z AUTO 22004KT 6SM 05/M10 A2997 RMK SLP192 T00521098 52005 IEM_DS3505
ZBHH,2008-11-02 04:00,ZBHH 020400Z AUTO 26008KT 6SM 08/M08 A2997 RMK T00801080 IEM_DS3505
ZBHH,2008-11-02 05:00,ZBHH 020500Z AUTO 24008KT 6SM 10/M08 A2997 RMK T01001080 IEM_DS3505
ZBHH,2008-11-02 06:00,ZBHH 020600Z AUTO 32010G27KT 19SM 12/M10 A2994 RMK SLP171 T01191097 57007 IEM_DS3505
ZBHH,2008-11-02 07:00,ZBHH 020700Z AUTO 31016KT 6SM 12/M10 A2994 RMK T01201100 IEM_DS3505
ZBHH,2008-11-02 08:00,ZBHH 020800Z AUTO 32014KT 6SM 11/M12 A2997 RMK T01101120 IEM_DS3505
ZBHH,2008-11-02 09:00,ZBHH 020900Z AUTO 32010KT 19SM 10/M12 A3000 RMK SLP191 T01011125 52013 IEM_DS3505
ZBHH,2008-11-02 10:00,ZBHH 021000Z AUTO 33010KT 6SM 08/M12 A3003 RMK T00801120 IEM_DS3505
ZBHH,2008-11-02 11:00,ZBHH 021100Z AUTO 34008KT 6SM 07/M14 A3006 RMK T00701140 IEM_DS3505
ZBHH,2008-11-02 12:00,ZBHH 021200Z AUTO 25002KT 19SM 05/M13 A3009 RMK SLP233 T00531127 52026 IEM_DS3505
ZBHH,2008-11-02 13:00,ZBHH 021300Z AUTO 35008KT 6SM 04/M13 A3012 RMK T00401130 IEM_DS3505
ZBHH,2008-11-02 14:00,ZBHH 021400Z AUTO 33006KT 6SM 04/M13 A3012 RMK T00401130 IEM_DS3505
ZBHH,2008-11-02 15:00,ZBHH 021500Z AUTO 34004KT 19SM 05/M12 A3015 RMK SLP238 T00521123 52020 IEM_DS3505
ZBHH,2008-11-02 16:00,ZBHH 021600Z AUTO 35006KT 6SM 03/M12 A3015 RMK T00301120 IEM_DS3505
ZBHH,2008-11-02 17:00,ZBHH 021700Z AUTO 04006KT 6SM 00/M11 A3015 RMK T00001110 IEM_DS3505
ZBHH,2008-11-02 18:00,ZBHH 021800Z AUTO 07002KT 19SM 03/M11 A3018 RMK SLP230 T00311112 52002 IEM_DS3505
ZBHH,2008-11-02 19:00,ZBHH 021900Z AUTO 06004KT 6SM M01/M09 A3015 RMK T10101090 IEM_DS3505
ZBHH,2008-11-02 20:00,ZBHH 022000Z AUTO 09004KT 6SM M02/M09 A3015 RMK T10201090 IEM_DS3505
ZBHH,2008-11-02 21:00,ZBHH 022100Z AUTO 22004KT 19SM M01/M09 A3015 RMK SLP242 T10081087 57001 IEM_DS3505
ZBHH,2008-11-02 22:00,ZBHH 022200Z AUTO 20002KT 6SM M03/M08 A3018 RMK T10301080 IEM_DS3505
ZBHH,2008-11-02 23:00,ZBHH 022300Z AUTO 11002KT 6SM M05/M09 A3018 RMK T10501090 IEM_DS3505
ZBHH,2008-11-03 00:00,ZBHH 030000Z AUTO 09002KT 12SM M01/M08 A3018 RMK SLP264 T10111077 52009 IEM_DS3505
ZBHH,2008-11-03 01:00,ZBHH 030100Z AUTO 09004KT 6SM 02/M08 A3021 RMK T00201080 IEM_DS3505
ZBHH,2008-11-03 02:00,ZBHH 030200Z AUTO 05002KT 6SM 05/M10 A3018 RMK T00501100 IEM_DS3505
ZBHH,2008-11-03 03:00,ZBHH 030300Z AUTO 02002KT 12SM 07/M10 A3018 RMK SLP240 T00681100 57005 IEM_DS3505
ZBHH,2008-11-03 04:00,ZBHH 030400Z AUTO 22006KT 6SM 09/M11 A3015 RMK T00901110 IEM_DS3505
ZBHH,2008-11-03 05:00,ZBHH 030500Z AUTO 23006KT 6SM 10/M11 A3012 RMK T01001110 IEM_DS3505
ZBHH,2008-11-03 06:00,ZBHH 030600Z AUTO 25008KT 19SM 10/M09 A3009 RMK SLP210 T01041093 57023 IEM_DS3505
ZBHH,2008-11-03 07:00,ZBHH 030700Z AUTO 24008KT 6SM 11/M09 A3006 RMK T01101090 IEM_DS3505
ZBHH,2008-11-03 08:00,ZBHH 030800Z AUTO 25008KT 6SM 11/M08 A3006 RMK T01101080 IEM_DS3505
ZBHH,2008-11-03 09:00,ZBHH 030900Z AUTO 22002KT 19SM 11/M08 A3003 RMK SLP197 T01061076 57019 IEM_DS3505
ZBHH,2008-11-03 10:00,ZBHH 031000Z AUTO 01004KT 6SM 07/M07 A3003 RMK T00701070 IEM_DS3505
ZBHH,2008-11-03 11:00,ZBHH 031100Z AUTO 05006KT 6SM 03/M06 A3003 RMK T00301060 IEM_DS3505
ZBHH,2008-11-03 12:00,ZBHH 031200Z AUTO 34002KT 19SM 04/M06 A3006 RMK SLP221 T00441056 52007 IEM_DS3505
ZBHH,2008-11-03 13:00,ZBHH 031300Z AUTO 05002KT 6SM 00/M06 A3006 RMK T00001060 IEM_DS3505
ZBHH,2008-11-03 14:00,ZBHH 031400Z AUTO 05004KT 6SM M02/M05 A3006 RMK T10201050 IEM_DS3505
ZBHH,2008-11-03 15:00,ZBHH 031500Z AUTO 29002KT 19SM 02/M05 A3006 RMK SLP213 T00231051 52005 IEM_DS3505
ZBHH,2008-11-03 16:00,ZBHH 031600Z AUTO 08002KT 6SM M03/M06 A3006 RMK T10301060 IEM_DS3505
ZBHH,2008-11-03 17:00,ZBHH 031700Z AUTO 06004KT 6SM M03/M06 A3006 RMK T10301060 IEM_DS3505
ZBHH,2008-11-03 18:00,ZBHH 031800Z AUTO 09002KT 19SM 01/M06 A3006 RMK SLP200 T00101061 57006 IEM_DS3505
ZBHH,2008-11-03 19:00,ZBHH 031900Z AUTO 08006KT 6SM M05/M07 A3006 RMK T10501070 IEM_DS3505
ZBHH,2008-11-03 20:00,ZBHH 032000Z AUTO 04006KT 6SM M03/M06 A3006 RMK T10301060 IEM_DS3505
ZBHH,2008-11-03 21:00,ZBHH 032100Z AUTO 00000KT 19SM M01/M06 A3003 RMK SLP202 T10141060 57003 IEM_DS3505
ZBHH,2008-11-03 22:00,ZBHH 032200Z AUTO 05004KT 6SM M04/M07 A3006 RMK T10401070 IEM_DS3505
ZBHH,2008-11-03 23:00,ZBHH 032300Z AUTO 06004KT 6SM M05/M07 A3006 RMK T10501070 IEM_DS3505
ZBHH,2008-11-04 00:00,ZBHH 040000Z AUTO 09002KT 19SM 00/M06 A3006 RMK SLP223 T00021058 52009 IEM_DS3505
ZBHH,2008-11-04 01:00,ZBHH 040100Z AUTO 11004KT 6SM 02/M04 A3009 RMK T00201040 IEM_DS3505
ZBHH,2008-11-04 02:00,ZBHH 040200Z AUTO 18004KT 6SM 06/M06 A3009 RMK T00601060 IEM_DS3505
ZBHH,2008-11-04 03:00,ZBHH 040300Z AUTO 11002KT 9SM 07/M05 A3009 RMK SLP216 T00731054 52004 IEM_DS3505
ZBHH,2008-11-04 04:00,ZBHH 040400Z AUTO 21004KT 6SM 08/M06 A3006 RMK T00801060 IEM_DS3505
ZBHH,2008-11-04 05:00,ZBHH 040500Z AUTO 23006KT 6SM 10/M06 A3006 RMK T01001060 IEM_DS3505
ZBHH,2008-11-04 06:00,ZBHH 040600Z AUTO 22006KT 6SM 11/M05 A3003 RMK SLP197 T01081048 57012 IEM_DS3505
ZBHH,2008-11-04 07:00,ZBHH 040700Z AUTO 25010KT 6SM 11/M05 A3003 RMK T01101050 IEM_DS3505
ZBHH,2008-11-04 08:00,ZBHH 040800Z AUTO 24008KT 6SM 11/M05 A3003 RMK T01101050 IEM_DS3505
ZBHH,2008-11-04 09:00,ZBHH 040900Z AUTO 27002KT 6SM 11/M05 A3003 RMK SLP202 T01081052 57001 IEM_DS3505
ZBHH,2008-11-04 10:00,ZBHH 041000Z AUTO 09004KT 6SM 07/M04 A3006 RMK T00701040 IEM_DS3505
ZBHH,2008-11-04 11:00,ZBHH 041100Z AUTO 04008KT 6SM 03/M04 A3006 RMK T00301040 IEM_DS3505
ZBHH,2008-11-04 12:00,ZBHH 041200Z AUTO 00000KT 9SM 04/M03 A3009 RMK SLP228 T00421033 52013 IEM_DS3505
ZBHH,2008-11-04 13:00,ZBHH 041300Z AUTO 04006KT 6SM 01/M04 A3009 RMK T00101040 IEM_DS3505
ZBHH,2008-11-04 14:00,ZBHH 041400Z AUTO 06006KT 6SM M02/M05 A3012 RMK T10201050 IEM_DS3505
ZBHH,2008-11-04 15:00,ZBHH 041500Z AUTO 07002KT 12SM 02/M04 A3012 RMK SLP226 T00191042 52008 IEM_DS3505
ZBHH,2008-11-04 16:00,ZBHH 041600Z AUTO 07006KT 6SM M03/M05 A3012 RMK T10301050 IEM_DS3505
ZBHH,2008-11-04 17:00,ZBHH 041700Z AUTO 05004KT 6SM M03/M06 A3012 RMK T10301060 IEM_DS3505
ZBHH,2008-11-04 18:00,ZBHH 041800Z AUTO 07002KT 16SM 01/M05 A3012 RMK SLP219 T00111054 57001 IEM_DS3505
ZBHH,2008-11-04 19:00,ZBHH 041900Z AUTO 07006KT 6SM M05/M07 A3012 RMK T10501070 IEM_DS3505
ZBHH,2008-11-04 20:00,ZBHH 042000Z AUTO 06004KT 6SM M05/M07 A3009 RMK T10501070 IEM_DS3505
ZBHH,2008-11-04 21:00,ZBHH 042100Z AUTO 16002KT 7SM M00/M06 A3009 RMK SLP220 T10031059 57002 IEM_DS3505
ZBHH,2008-11-04 22:00,ZBHH 042200Z AUTO 07004KT 6SM M05/M07 A3009 RMK T10501070 IEM_DS3505
ZBHH,2008-11-04 23:00,ZBHH 042300Z AUTO 09004KT 6SM M06/M07 A3012 RMK T10601070 IEM_DS3505
ZBHH,2008-11-05 00:00,ZBHH 050000Z AUTO 09002KT 12SM M00/M06 A3015 RMK SLP247 T10051061 52010 IEM_DS3505
ZBHH,2008-11-05 01:00,ZBHH 050100Z AUTO 07002KT 6SM 01/M04 A3015 RMK T00101040 IEM_DS3505
ZBHH,2008-11-05 02:00,ZBHH 050200Z AUTO 22004KT 6SM 03/M04 A3015 RMK T00301040 IEM_DS3505
ZBHH,2008-11-05 03:00,ZBHH 050300Z AUTO 04002KT 12SM 06/M06 A3012 RMK SLP238 T00551058 54000 IEM_DS3505
ZBHH,2008-11-05 04:00,ZBHH 050400Z AUTO 32002KT 6SM 05/M05 A3009 RMK T00501050 IEM_DS3505
ZBHH,2008-11-05 05:00,ZBHH 050500Z AUTO 25006KT 6SM 08/M04 A3006 RMK T00801040 IEM_DS3505
ZBHH,2008-11-05 06:00,ZBHH 050600Z AUTO 25006KT 12SM 09/M05 RMK SLP199 T00931050 57028 IEM_DS3505
ZBHH,2008-11-05 07:00,ZBHH 050700Z AUTO 26008KT 6SM 10/M05 A3003 RMK T01001050 IEM_DS3505
ZBHH,2008-11-05 08:00,ZBHH 050800Z AUTO 25006KT 6SM 11/M05 A3003 RMK T01101050 IEM_DS3505
ZBHH,2008-11-05 09:00,ZBHH 050900Z AUTO 22004KT 9SM 10/M06 A3003 RMK SLP194 T01031057 57006 IEM_DS3505
ZBHH,2008-11-05 10:00,ZBHH 051000Z AUTO 21002KT 6SM 07/M05 A3003 RMK T00701050 IEM_DS3505
ZBHH,2008-11-05 11:00,ZBHH 051100Z AUTO 12002KT 6SM 05/M05 A3003 RMK T00501050 IEM_DS3505
ZBHH,2008-11-05 12:00,ZBHH 051200Z AUTO 36002KT 6SM 05/M04 A3006 RMK SLP217 T00481040 52009 IEM_DS3505
ZBHH,2008-11-05 13:00,ZBHH 051300Z AUTO 08004KT 6SM M01/M05 A3006 RMK T10101050 IEM_DS3505
ZBHH,2008-11-05 14:00,ZBHH 051400Z AUTO 08006KT 6SM M02/M05 A3009 RMK T10201050 IEM_DS3505
ZBHH,2008-11-05 15:00,ZBHH 051500Z AUTO 04002KT 6SM 02/M06 A3009 RMK SLP223 T00201056 52012 IEM_DS3505
ZBHH,2008-11-05 16:00,ZBHH 051600Z AUTO 07006KT 6SM M03/M06 A3009 RMK T10301060 IEM_DS3505
ZBHH,2008-11-05 17:00,ZBHH 051700Z AUTO 08004KT 6SM M03/M07 A3009 RMK T10301070 IEM_DS3505
ZBHH,2008-11-05 18:00,ZBHH 051800Z AUTO 04002KT 9SM 01/M05 A3009 RMK SLP216 T00071053 57001 IEM_DS3505
ZBHH,2008-11-05 19:00,ZBHH 051900Z AUTO 06006KT 6SM M04/M07 A3009 RMK T10401070 IEM_DS3505
ZBHH,2008-11-05 20:00,ZBHH 052000Z AUTO 09006KT 6SM M05/M06 A3006 RMK T10501060 IEM_DS3505
ZBHH,2008-11-05 21:00,ZBHH 052100Z AUTO 09002KT 12SM M01/M06 A3006 RMK SLP213 T10101060 57004 IEM_DS3505
ZBHH,2008-11-05 22:00,ZBHH 052200Z AUTO 04006KT 6SM M05/M07 A3009 RMK T10501070 IEM_DS3505
ZBHH,2008-11-05 23:00,ZBHH 052300Z AUTO 07006KT 6SM M06/M08 A3009 RMK T10601080 IEM_DS3505
ZBHH,2008-11-06 00:00,ZBHH 060000Z AUTO 04004KT 16SM M00/M06 A3012 RMK SLP241 T10041060 52014 IEM_DS3505
ZBHH,2008-11-06 01:00,ZBHH 060100Z AUTO 11002KT 6SM 01/M05 A3015 RMK T00101050 IEM_DS3505
ZBHH,2008-11-06 02:00,ZBHH 060200Z AUTO 15004KT 6SM 04/M06 A3015 RMK T00401060 IEM_DS3505
ZBHH,2008-11-06 03:00,ZBHH 060300Z AUTO 04004KT 19SM 05/M05 A3012 RMK SLP239 T00531054 52004 IEM_DS3505
ZBHH,2008-11-06 04:00,ZBHH 060400Z AUTO 14002KT 6SM 07/M05 A3012 RMK T00701050 IEM_DS3505
ZBHH,2008-11-06 05:00,ZBHH 060500Z AUTO 22006KT 6SM 09/M06 A3009 RMK T00901060 IEM_DS3505
ZBHH,2008-11-06 06:00,ZBHH 060600Z AUTO 20006KT 19SM 10/M05 A3009 RMK SLP217 T01011054 57012 IEM_DS3505
ZBHH,2008-11-06 07:00,ZBHH 060700Z AUTO 23006KT 6SM 10/M06 A3009 RMK T01001060 IEM_DS3505
ZBHH,2008-11-06 08:00,ZBHH 060800Z AUTO 24008KT 6SM 11/M05 A3009 RMK T01101050 IEM_DS3505
ZBHH,2008-11-06 09:00,ZBHH 060900Z AUTO 22006KT 16SM 11/M06 A3012 RMK SLP222 T01081061 52003 IEM_DS3505
ZBHH,2008-11-06 10:00,ZBHH 061000Z AUTO 33004KT 4SM 07/M04 A3012 RMK T00701040 IEM_DS3505
ZBHH,2008-11-06 11:00,ZBHH 061100Z AUTO 36006KT 5SM 05/M05 A3015 RMK T00501050 IEM_DS3505
ZBHH,2008-11-06 12:00,ZBHH 061200Z AUTO 00000KT 12SM 05/M10 A3015 RMK SLP254 T00491096 52017 IEM_DS3505
ZBHH,2008-11-06 13:00,ZBHH 061300Z AUTO 07004KT 6SM 03/M09 A3018 RMK T00301090 IEM_DS3505
ZBHH,2008-11-06 14:00,ZBHH 061400Z AUTO 08006KT 6SM M02/M08 A3018 RMK T10201080 IEM_DS3505
ZBHH,2008-11-06 15:00,ZBHH 061500Z AUTO 07002KT 12SM 02/M09 A3021 RMK SLP261 T00181092 52011 IEM_DS3505
ZBHH,2008-11-06 16:00,ZBHH 061600Z AUTO 11002KT 6SM M01/M07 A3021 RMK T10101070 IEM_DS3505
ZBHH,2008-11-06 17:00,ZBHH 061700Z AUTO 06004KT 6SM M03/M08 A3021 RMK T10301080 IEM_DS3505
ZBHH,2008-11-06 18:00,ZBHH 061800Z AUTO 14002KT 19SM M01/M08 A3021 RMK SLP260 T10061085 52004 IEM_DS3505
ZBHH,2008-11-06 19:00,ZBHH 061900Z AUTO 05006KT 6SM M03/M08 A3021 RMK T10301080 IEM_DS3505
ZBHH,2008-11-06 20:00,ZBHH 062000Z AUTO 04006KT 6SM M04/M08 A3021 RMK T10401080 IEM_DS3505
ZBHH,2008-11-06 21:00,ZBHH 062100Z AUTO 09002KT 19SM M02/M08 A3021 RMK SLP262 T10221081 54000 IEM_DS3505
ZBHH,2008-11-06 22:00,ZBHH 062200Z AUTO 08006KT 6SM M04/M08 A3024 RMK T10401080 IEM_DS3505
ZBHH,2008-11-06 23:00,ZBHH 062300Z AUTO 07006KT 6SM M03/M08 A3024 RMK T10301080 IEM_DS3505
ZBHH,2008-11-07 00:00,ZBHH 070000Z AUTO 09002KT 19SM M01/M08 A3024 RMK SLP289 T10101080 52014 IEM_DS3505
ZBHH,2008-11-07 01:00,ZBHH 070100Z AUTO 05004KT 6SM 02/M07 A3027 RMK T00201070 IEM_DS3505
ZBHH,2008-11-07 02:00,ZBHH 070200Z AUTO 03002KT 6SM 05/M08 A3027 RMK T00501080 IEM_DS3505
ZBHH,2008-11-07 03:00,ZBHH 070300Z AUTO 07004KT 12SM 08/M09 A3027 RMK SLP274 T00821092 54000 IEM_DS3505
ZBHH,2008-11-07 04:00,ZBHH 070400Z AUTO 12004KT 6SM 09/M10 A3024 RMK T00901100 IEM_DS3505
ZBHH,2008-11-07 05:00,ZBHH 070500Z AUTO 26004KT 6SM 11/M10 A3021 RMK T01101100 IEM_DS3505
ZBHH,2008-11-07 06:00,ZBHH 070600Z AUTO 20002KT 12SM 11/M10 A3018 RMK SLP248 T01131096 57022 IEM_DS3505
ZBHH,2008-11-07 07:00,ZBHH 070700Z AUTO 22002KT 6SM 12/M10 A3018 RMK T01201100 IEM_DS3505
ZBHH,2008-11-07 08:00,ZBHH 070800Z AUTO 25004KT 6SM 11/M09 A3018 RMK T01101090 IEM_DS3505
ZBHH,2008-11-07 09:00,ZBHH 070900Z AUTO 22002KT 12SM 10/M09 A3018 RMK SLP249 T01031094 57004 IEM_DS3505
ZBHH,2008-11-07 10:00,ZBHH 071000Z AUTO 00000KT 6SM 07/M09 A3018 RMK T00701090 IEM_DS3505
ZBHH,2008-11-07 11:00,ZBHH 071100Z AUTO 04006KT 6SM 04/M07 A3018 RMK T00401070 IEM_DS3505
ZBHH,2008-11-07 12:00,ZBHH 071200Z AUTO 34002KT 7SM 04/M07 A3018 RMK SLP266 T00401074 52004 IEM_DS3505
ZBHH,2008-11-07 13:00,ZBHH 071300Z AUTO 08004KT 6SM 00/M07 A3021 RMK T00001070 IEM_DS3505
ZBHH,2008-11-07 14:00,ZBHH 071400Z AUTO 08004KT 6SM 02/M07 A3021 RMK T00201070 IEM_DS3505
ZBHH,2008-11-07 15:00,ZBHH 071500Z AUTO 09002KT 7SM 04/M07 A3021 RMK SLP251 T00381070 52006 IEM_DS3505
ZBHH,2008-11-07 16:00,ZBHH 071600Z AUTO 05004KT 6SM 00/M07 A3018 RMK T00001070 IEM_DS3505
ZBHH,2008-11-07 17:00,ZBHH 071700Z AUTO 07004KT 6SM 00/M07 A3018 RMK T00001070 IEM_DS3505
ZBHH,2008-11-07 18:00,ZBHH 071800Z AUTO 07002KT 7SM 01/M07 A3018 RMK SLP243 T00121068 57006 IEM_DS3505
ZBHH,2008-11-07 19:00,ZBHH 071900Z AUTO 07004KT 6SM 01/M07 A3018 RMK T00101070 IEM_DS3505
ZBHH,2008-11-07 20:00,ZBHH 072000Z AUTO 08008KT 6SM 00/M07 A3018 RMK T00001070 IEM_DS3505
ZBHH,2008-11-07 21:00,ZBHH 072100Z AUTO 07002KT 12SM 02/M07 A3018 RMK SLP246 T00221074 52002 IEM_DS3505
ZBHH,2008-11-07 22:00,ZBHH 072200Z AUTO 6SM 01/M07 A3021 RMK T00101070 IEM_DS3505
ZBHH,2008-11-07 23:00,ZBHH 072300Z AUTO 09006KT 7SM 00/M06 A3021 RMK T00001060 IEM_DS3505
ZBHH,2008-11-08 00:00,ZBHH 080000Z AUTO 00000KT 12SM 03/M07 A3024 RMK SLP272 T00301067 52012 IEM_DS3505
ZBHH,2008-11-08 01:00,ZBHH 080100Z AUTO 07006KT 6SM 05/M05 A3024 RMK T00501050 IEM_DS3505
ZBHH,2008-11-08 02:00,ZBHH 080200Z AUTO 07004KT 6SM 07/M03 A3027 RMK T00701030 IEM_DS3505
ZBHH,2008-11-08 03:00,ZBHH 080300Z AUTO 07002KT 19SM 09/M04 A3027 RMK SLP270 T00911045 52010 IEM_DS3505
ZBHH,2008-11-08 04:00,ZBHH 080400Z AUTO 13006KT 7SM 09/M04 A3024 RMK T00901040 IEM_DS3505
ZBHH,2008-11-08 05:00,ZBHH 080500Z AUTO 07006KT 7SM 11/M04 A3024 RMK T01101040 IEM_DS3505
ZBHH,2008-11-08 06:00,ZBHH 080600Z AUTO 36004KT 19SM 11/M08 A3024 RMK SLP265 T01131080 57005 IEM_DS3505
ZBHH,2008-11-08 07:00,ZBHH 080700Z AUTO 03010KT 7SM 10/M09 A3024 RMK T01001090 IEM_DS3505
ZBHH,2008-11-08 08:00,ZBHH 080800Z AUTO 04008KT 6SM 10/M09 A3027 RMK T01001090 IEM_DS3505
ZBHH,2008-11-08 09:00,ZBHH 080900Z AUTO 36006KT 19SM 09/M10 A3030 RMK SLP285 T00861103 52014 IEM_DS3505
ZBHH,2008-11-08 10:00,ZBHH 081000Z AUTO 04010KT 6SM 06/M09 A3030 RMK T00601090 IEM_DS3505
ZBHH,2008-11-08 11:00,ZBHH 081100Z AUTO 04006KT 6SM 02/M08 A3033 RMK T00201080 IEM_DS3505
ZBHH,2008-11-08 12:00,ZBHH 081200Z AUTO 07006KT 19SM 05/M09 A3036 RMK SLP315 T00531093 52021 IEM_DS3505
ZBHH,2008-11-08 13:00,ZBHH 081300Z AUTO 06010KT 6SM 02/M08 A3039 RMK T00201080 IEM_DS3505
ZBHH,2008-11-08 14:00,ZBHH 081400Z AUTO 07006KT 6SM M01/M08 A3039 RMK T10101080 IEM_DS3505
ZBHH,2008-11-08 15:00,ZBHH 081500Z AUTO 09004KT 19SM 02/M09 A3039 RMK SLP318 T00201090 52009 IEM_DS3505
ZBHH,2008-11-08 16:00,ZBHH 081600Z AUTO 06004KT 6SM M03/M08 A3039 RMK T10301080 IEM_DS3505
ZBHH,2008-11-08 17:00,ZBHH 081700Z AUTO 07006KT 6SM M05/M08 A3039 RMK T10501080 IEM_DS3505
ZBHH,2008-11-08 18:00,ZBHH 081800Z AUTO 09004KT 19SM M01/M09 A3039 RMK SLP319 T10111090 57001 IEM_DS3505
ZBHH,2008-11-08 19:00,ZBHH 081900Z AUTO 06006KT 6SM M04/M09 A3039 RMK T10401090 IEM_DS3505
ZBHH,2008-11-08 20:00,ZBHH 082000Z AUTO 03004KT 6SM M05/M09 A3039 RMK T10501090 IEM_DS3505
ZBHH,2008-11-08 21:00,ZBHH 082100Z AUTO 09002KT 19SM M02/M09 A3039 RMK SLP327 T10251092 57002 IEM_DS3505
ZBHH,2008-11-08 22:00,ZBHH 082200Z AUTO 00000KT 6SM M06/M09 A3039 RMK T10601090 IEM_DS3505
ZBHH,2008-11-08 23:00,ZBHH 082300Z AUTO 06004KT 6SM M07/M10 A3042 RMK T10701100 IEM_DS3505
ZBHH,2008-11-09 00:00,ZBHH 090000Z AUTO 09004KT 19SM M02/M09 A3042 RMK SLP344 T10221093 52009 IEM_DS3505
ZBHH,2008-11-09 01:00,ZBHH 090100Z AUTO 08004KT 6SM 00/M07 A3045 RMK T00001070 IEM_DS3505
ZBHH,2008-11-09 02:00,ZBHH 090200Z AUTO 10008KT 6SM 03/M09 A3045 RMK T00301090 IEM_DS3505
ZBHH,2008-11-09 03:00,ZBHH 090300Z AUTO 04004KT 19SM 05/M10 A3042 RMK SLP339 T00471102 52003 IEM_DS3505
ZBHH,2008-11-09 04:00,ZBHH 090400Z AUTO 17002KT 6SM 06/M11 A3039 RMK T00601110 IEM_DS3505
ZBHH,2008-11-09 05:00,ZBHH 090500Z AUTO 33002KT 6SM 07/M11 A3036 RMK T00701110 IEM_DS3505
ZBHH,2008-11-09 06:00,ZBHH 090600Z AUTO 11004KT 19SM 08/M12 A3033 RMK SLP311 T00781115 57025 IEM_DS3505
ZBHH,2008-11-09 07:00,ZBHH 090700Z AUTO 27002KT 6SM 08/M12 A3033 RMK T00801120 IEM_DS3505
ZBHH,2008-11-09 08:00,ZBHH 090800Z AUTO 23002KT 6SM 09/M13 A3033 RMK T00901130 IEM_DS3505
ZBHH,2008-11-09 09:00,ZBHH 090900Z AUTO 25002KT 19SM 07/M13 A3033 RMK SLP312 T00711126 57003 IEM_DS3505
ZBHH,2008-11-09 10:00,ZBHH 091000Z AUTO 31002KT 6SM 05/M12 A3033 RMK T00501120 IEM_DS3505
ZBHH,2008-11-09 11:00,ZBHH 091100Z AUTO 04006KT 6SM 00/M10 A3036 RMK T00001100 IEM_DS3505
ZBHH,2008-11-09 12:00,ZBHH 091200Z AUTO 25002KT 19SM 01/M10 A3036 RMK SLP335 T00091097 52007 IEM_DS3505
ZBHH,2008-11-09 13:00,ZBHH 091300Z AUTO 07004KT 6SM M02/M10 A3036 RMK T10201100 IEM_DS3505
ZBHH,2008-11-09 14:00,ZBHH 091400Z AUTO 06008KT 6SM M04/M10 A3036 RMK T10401100 IEM_DS3505
ZBHH,2008-11-09 15:00,ZBHH 091500Z AUTO 04002KT 19SM M00/M12 A3036 RMK SLP326 T10011118 52005 IEM_DS3505
ZBHH,2008-11-09 16:00,ZBHH 091600Z AUTO 07004KT 6SM M04/M11 A3036 RMK T10401110 IEM_DS3505
ZBHH,2008-11-09 17:00,ZBHH 091700Z AUTO 07006KT 6SM M06/M10 A3036 RMK T10601100 IEM_DS3505
ZBHH,2008-11-09 18:00,ZBHH 091800Z AUTO 09002KT 19SM M03/M10 A3033 RMK SLP311 T10301105 57013 IEM_DS3505
ZBHH,2008-11-09 19:00,ZBHH 091900Z AUTO 06004KT 6SM M05/M10 A3033 RMK T10501100 IEM_DS3505
ZBHH,2008-11-09 20:00,ZBHH 092000Z AUTO 08006KT 6SM M05/M10 A3033 RMK T10501100 IEM_DS3505
ZBHH,2008-11-09 21:00,ZBHH 092100Z AUTO 09002KT 19SM M04/M10 A3033 RMK SLP313 T10381100 57001 IEM_DS3505
ZBHH,2008-11-09 22:00,ZBHH 092200Z AUTO 08004KT 6SM M06/M10 A3033 RMK T10601100 IEM_DS3505
ZBHH,2008-11-09 23:00,ZBHH 092300Z AUTO 09006KT 6SM M06/M10 A3033 RMK T10601100 IEM_DS3505
ZBHH,2008-11-10 00:00,ZBHH 100000Z AUTO 07002KT 12SM M03/M09 A3033 RMK SLP330 T10261093 52004 IEM_DS3505
ZBHH,2008-11-10 01:00,ZBHH 100100Z AUTO 09004KT 6SM 00/M09 A3036 RMK T00001090 IEM_DS3505
ZBHH,2008-11-10 02:00,ZBHH 100200Z AUTO 06002KT 6SM 04/M09 A3036 RMK T00401090 IEM_DS3505
ZBHH,2008-11-10 03:00,ZBHH 100300Z AUTO 07002KT 12SM 05/M09 A3033 RMK SLP310 T00531093 57003 IEM_DS3505
ZBHH,2008-11-10 04:00,ZBHH 100400Z AUTO 18002KT 6SM 07/M09 A3030 RMK T00701090 IEM_DS3505
ZBHH,2008-11-10 05:00,ZBHH 100500Z AUTO 16002KT 6SM 08/M08 A3027 RMK T00801080 IEM_DS3505
ZBHH,2008-11-10 06:00,ZBHH 100600Z AUTO 16002KT 12SM 09/M09 A3024 RMK SLP281 T00871088 57024 IEM_DS3505
ZBHH,2008-11-10 07:00,ZBHH 100700Z AUTO 30002KT 6SM 09/M07 A3024 RMK T00901070 IEM_DS3505
ZBHH,2008-11-10 08:00,ZBHH 100800Z AUTO 31004KT 5SM 08/M05 A3024 RMK T00801050 IEM_DS3505
ZBHH,2008-11-10 09:00,ZBHH 100900Z AUTO 00000KT 9SM 07/M04 A3021 RMK SLP277 T00731044 57008 IEM_DS3505
ZBHH,2008-11-10 10:00,ZBHH 101000Z AUTO 07002KT 4SM 04/M06 A3024 RMK T00401060 IEM_DS3505
ZBHH,2008-11-10 11:00,ZBHH 101100Z AUTO 06006KT 4SM 00/M06 A3024 RMK T00001060 IEM_DS3505
ZBHH,2008-11-10 12:00,ZBHH 101200Z AUTO 09002KT 9SM 04/M04 A3024 RMK SLP294 T00361044 52009 IEM_DS3505
ZBHH,2008-11-10 13:00,ZBHH 101300Z AUTO 07004KT 4SM 00/M05 A3027 RMK T00001050 IEM_DS3505
ZBHH,2008-11-10 14:00,ZBHH 101400Z AUTO 03004KT 4SM M01/M04 A3027 RMK T10101040 IEM_DS3505
ZBHH,2008-11-10 15:00,ZBHH 101500Z AUTO 29002KT 9SM 02/M03 A3027 RMK SLP285 T00181033 52005 IEM_DS3505
ZBHH,2008-11-10 16:00,ZBHH 101600Z AUTO 09006KT 4SM 00/M04 A3027 RMK T00001040 IEM_DS3505
ZBHH,2008-11-10 17:00,ZBHH 101700Z AUTO 07006KT 4SM 00/M03 A3027 RMK T00001030 IEM_DS3505
ZBHH,2008-11-10 18:00,ZBHH 101800Z AUTO 07002KT 9SM 02/M04 A3024 RMK SLP270 T00181035 57006 IEM_DS3505
ZBHH,2008-11-10 19:00,ZBHH 101900Z AUTO 07006KT 4SM M01/M04 A3024 RMK T10101040 IEM_DS3505
ZBHH,2008-11-10 20:00,ZBHH 102000Z AUTO 08004KT 4SM 00/M03 A3024 RMK T00001030 IEM_DS3505
ZBHH,2008-11-10 21:00,ZBHH 102100Z AUTO 07002KT 12SM 02/M03 A3024 RMK SLP265 T00181033 57007 IEM_DS3505
ZBHH,2008-11-10 22:00,ZBHH 102200Z AUTO 07004KT 4SM 00/M03 A3021 RMK T00001030 IEM_DS3505
ZBHH,2008-11-10 23:00,ZBHH 102300Z AUTO 09004KT 4SM 01/M03 A3021 RMK T00101030 IEM_DS3505
ZBHH,2008-11-11 00:00,ZBHH 110000Z AUTO 09002KT 9SM 04/M04 A3024 RMK SLP272 T00361037 52002 IEM_DS3505
ZBHH,2008-11-11 01:00,ZBHH 110100Z AUTO 08004KT 2 1/2SM 03/M02 A3024 RMK T00301020 IEM_DS3505
ZBHH,2008-11-11 02:00,ZBHH 110200Z AUTO 06004KT 2 1/2SM 04/M02 A3021 RMK T00401020 IEM_DS3505
ZBHH,2008-11-11 03:00,ZBHH 110300Z AUTO 18002KT 9SM 06/M02 A3021 RMK SLP265 T00621024 57004 IEM_DS3505
ZBHH,2008-11-11 04:00,ZBHH 110400Z AUTO 27002KT 3SM 06/M02 A3021 RMK T00601020 IEM_DS3505
ZBHH,2008-11-11 05:00,ZBHH 110500Z AUTO 20004KT 2SM 04/01 A3018 RMK T00400010 IEM_DS3505
ZBHH,2008-11-11 06:00,ZBHH 110600Z AUTO 07004KT 9SM 05/01 A3018 RMK 60000 SLP252 T00470012 57015 IEM_DS3505
ZBHH,2008-11-11 07:00,ZBHH 110700Z AUTO 07004KT 2SM 04/02 A3015 RMK T00400020 IEM_DS3505
ZBHH,2008-11-11 08:00,ZBHH 110800Z AUTO 06004KT 1 1/2SM 04/02 A3015 RMK T00400020 IEM_DS3505
ZBHH,2008-11-11 09:00,ZBHH 110900Z AUTO 09002KT 9SM 04/01 A3015 RMK SLP247 T00400014 57006 IEM_DS3505
ZBHH,2008-11-11 10:00,ZBHH 111000Z AUTO 04002KT 2SM 03/02 A3018 RMK T00300020 IEM_DS3505
ZBHH,2008-11-11 11:00,ZBHH 111100Z AUTO 05004KT 2SM 04/02 A3018 RMK T00400020 IEM_DS3505
ZBHH,2008-11-11 12:00,ZBHH 111200Z AUTO 07002KT 7SM 04/01 A3018 RMK 60000 SLP257 T00420012 52013 IEM_DS3505
ZBHH,2008-11-11 13:00,ZBHH 111300Z AUTO 10004KT 2SM 03/02 A3018 RMK T00300020 IEM_DS3505
ZBHH,2008-11-11 14:00,ZBHH 111400Z AUTO 04002KT 2SM 03/02 A3018 RMK T00300020 IEM_DS3505
ZBHH,2008-11-11 15:00,ZBHH 111500Z AUTO 04002KT 16SM 04/01 A3018 RMK SLP249 T00430013 57001 IEM_DS3505
ZBHH,2008-11-11 16:00,ZBHH 111600Z AUTO 04004KT 1 1/2SM 01/00 A3018 RMK T00100000 IEM_DS3505
ZBHH,2008-11-11 17:00,ZBHH 111700Z AUTO 04006KT 1 1/4SM 00/M01 A3018 RMK T00001010 IEM_DS3505
ZBHH,2008-11-11 18:00,ZBHH 111800Z AUTO 36002KT 16SM 02/01 A3018 RMK SLP256 T00220006 57002 IEM_DS3505
ZBHH,2008-11-11 19:00,ZBHH 111900Z AUTO 02004KT 2SM 02/01 A3018 RMK T00200010 IEM_DS3505
ZBHH,2008-11-11 20:00,ZBHH 112000Z AUTO 03004KT 3SM 03/01 A3015 RMK T00300010 IEM_DS3505
ZBHH,2008-11-11 21:00,ZBHH 112100Z AUTO 11002KT 19SM 04/01 A3015 RMK 70000 SLP240 T00380007 57012 IEM_DS3505
ZBHH,2008-11-11 22:00,ZBHH 112200Z AUTO 04006KT 2 1/2SM 02/01 A3015 RMK T00200010 IEM_DS3505
ZBHH,2008-11-11 23:00,ZBHH 112300Z AUTO 06004KT 2 1/2SM 02/01 A3015 RMK T00200010 IEM_DS3505
ZBHH,2008-11-12 00:00,ZBHH 120000Z AUTO 07002KT 4SM 04/01 A3015 RMK 70000 SLP241 T00360008 52001 IEM_DS3505
ZBHH,2008-11-12 01:00,ZBHH 120100Z AUTO 05006KT 2 1/2SM 04/01 A3015 RMK T00400010 IEM_DS3505
ZBHH,2008-11-12 02:00,ZBHH 120200Z AUTO 08004KT 2 1/2SM 04/01 A3015 RMK T00400010 IEM_DS3505
ZBHH,2008-11-12 03:00,ZBHH 120300Z AUTO 32002KT 4SM 04/02 A3015 RMK SLP238 T00420021 57001 IEM_DS3505
ZBHH,2008-11-12 04:00,ZBHH 120400Z AUTO 04006KT 1 1/4SM 04/02 A3012 RMK T00400020 IEM_DS3505
ZBHH,2008-11-12 05:00,ZBHH 120500Z AUTO 06006KT 1 1/4SM 04/03 A3009 RMK T00400030 IEM_DS3505
ZBHH,2008-11-12 06:00,ZBHH 120600Z AUTO 32002KT 2SM 04/02 A3006 RMK 60016 SLP221 T00380022 57020 IEM_DS3505
ZBHH,2008-11-12 07:00,ZBHH 120700Z AUTO 36004KT 2SM 04/02 A3006 RMK T00400020 IEM_DS3505
ZBHH,2008-11-12 08:00,ZBHH 120800Z AUTO 03004KT 2SM 03/02 A3006 RMK T00300020 IEM_DS3505
ZBHH,2008-11-12 09:00,ZBHH 120900Z AUTO 22002KT 2SM 04/02 A3006 RMK SLP211 T00370024 57006 IEM_DS3505
ZBHH,2008-11-12 10:00,ZBHH 121000Z AUTO 34004KT 3SM 03/02 A3006 RMK T00300020 IEM_DS3505
ZBHH,2008-11-12 11:00,ZBHH 121100Z AUTO 34004KT 3SM 03/02 A3009 RMK T00300020 IEM_DS3505
ZBHH,2008-11-12 12:00,ZBHH 121200Z AUTO 29006KT 6SM 03/M01 A3009 RMK 60012 SLP226 T00341008 52012 IEM_DS3505
ZBHH,2008-11-12 13:00,ZBHH 121300Z AUTO 35010KT 7SM 02/M01 A3012 RMK T00201010 IEM_DS3505
ZBHH,2008-11-12 14:00,ZBHH 121400Z AUTO 34006KT 7SM 02/M01 A3015 RMK T00201010 IEM_DS3505
ZBHH,2008-11-12 15:00,ZBHH 121500Z AUTO 34004KT 19SM 02/M03 A3018 RMK SLP257 T00191032 52026 IEM_DS3505
ZBHH,2008-11-12 16:00,ZBHH 121600Z AUTO 02006KT 7SM 01/M04 A3018 RMK T00101040 IEM_DS3505
ZBHH,2008-11-12 17:00,ZBHH 121700Z AUTO 03002KT 7SM 00/M05 A3021 RMK T00001050 IEM_DS3505
ZBHH,2008-11-12 18:00,ZBHH 121800Z AUTO 29002KT 19SM 00/M09 A3021 RMK SLP277 T00031092 52013 IEM_DS3505
ZBHH,2008-11-12 19:00,ZBHH 121900Z AUTO 29004KT 6SM M01/M09 A3024 RMK T10101090 IEM_DS3505
ZBHH,2008-11-12 20:00,ZBHH 122000Z AUTO 34004KT 6SM M01/M10 A3024 RMK T10101100 IEM_DS3505
ZBHH,2008-11-12 21:00,ZBHH 122100Z AUTO 34004KT 19SM M01/M14 A3024 RMK 70026 SLP284 T10111143 52003 IEM_DS3505
ZBHH,2008-11-12 22:00,ZBHH 122200Z AUTO 36004KT 6SM M04/M10 A3024 RMK T10401100 IEM_DS3505
ZBHH,2008-11-12 23:00,ZBHH 122300Z AUTO 36006KT 6SM M04/M11 A3027 RMK T10401110 IEM_DS3505
ZBHH,2008-11-13 00:00,ZBHH 130000Z AUTO 36004KT 19SM M02/M16 A3027 RMK 70026 SLP300 T10181156 52012 IEM_DS3505
ZBHH,2008-11-13 01:00,ZBHH 130100Z AUTO 05004KT 6SM M02/M10 A3030 RMK T10201100 IEM_DS3505
ZBHH,2008-11-13 02:00,ZBHH 130200Z AUTO 36006KT 6SM 00/M12 A3030 RMK T00001120 IEM_DS3505
ZBHH,2008-11-13 03:00,ZBHH 130300Z AUTO 18004KT 19SM 02/M12 A3030 RMK SLP300 T00171121 52004 IEM_DS3505
ZBHH,2008-11-13 04:00,ZBHH 130400Z AUTO 25006KT 6SM 02/M13 A3027 RMK T00201130 IEM_DS3505
ZBHH,2008-11-13 05:00,ZBHH 130500Z AUTO 6SM 03/M13 A3027 RMK T00301130 IEM_DS3505
ZBHH,2008-11-13 06:00,ZBHH 130600Z AUTO 22004KT 19SM 03/M12 A3024 RMK SLP282 T00311116 57016 IEM_DS3505
ZBHH,2008-11-13 07:00,ZBHH 130700Z AUTO 22006KT 6SM 03/M11 A3021 RMK T00301110 IEM_DS3505
ZBHH,2008-11-13 08:00,ZBHH 130800Z AUTO 22006KT 6SM 03/M11 A3021 RMK T00301110 IEM_DS3505
ZBHH,2008-11-13 09:00,ZBHH 130900Z AUTO 22006KT 19SM 02/M10 A3021 RMK SLP277 T00201102 57010 IEM_DS3505
ZBHH,2008-11-13 10:00,ZBHH 131000Z AUTO 22002KT 6SM M01/M06 A3021 RMK T10101060 IEM_DS3505
ZBHH,2008-11-13 11:00,ZBHH 131100Z AUTO 18004KT 6SM M01/M06 A3018 RMK T10101060 IEM_DS3505
ZBHH,2008-11-13 12:00,ZBHH 131200Z AUTO 32002KT 19SM M00/M08 A3021 RMK SLP285 T10011076 52001 IEM_DS3505
ZBHH,2008-11-13 13:00,ZBHH 131300Z AUTO 07004KT 6SM M04/M07 A3021 RMK T10401070 IEM_DS3505
ZBHH,2008-11-13 14:00,ZBHH 131400Z AUTO 12004KT 6SM M03/M07 A3021 RMK T10301070 IEM_DS3505
ZBHH,2008-11-13 15:00,ZBHH 131500Z AUTO 07004KT 19SM M02/M07 A3024 RMK SLP290 T10211070 52008 IEM_DS3505
ZBHH,2008-11-13 16:00,ZBHH 131600Z AUTO 03004KT 6SM M04/M07 A3024 RMK T10401070 IEM_DS3505
ZBHH,2008-11-13 17:00,ZBHH 131700Z AUTO 05004KT 6SM M06/M08 A3021 RMK T10601080 IEM_DS3505
ZBHH,2008-11-13 18:00,ZBHH 131800Z AUTO 09002KT 19SM M03/M08 A3018 RMK SLP277 T10331080 57011 IEM_DS3505
ZBHH,2008-11-13 19:00,ZBHH 131900Z AUTO 01004KT 6SM M06/M08 A3018 RMK T10601080 IEM_DS3505
ZBHH,2008-11-13 20:00,ZBHH 132000Z AUTO 04004KT 6SM M06/M09 A3015 RMK T10601090 IEM_DS3505
ZBHH,2008-11-13 21:00,ZBHH 132100Z AUTO 20002KT 19SM M04/M08 A3015 RMK SLP264 T10421076 57016 IEM_DS3505
ZBHH,2008-11-13 22:00,ZBHH 132200Z AUTO 07004KT 6SM M07/M09 A3015 RMK T10701090 IEM_DS3505
ZBHH,2008-11-13 23:00,ZBHH 132300Z AUTO 06004KT 6SM M07/M09 A3015 RMK T10701090 IEM_DS3505
ZBHH,2008-11-14 00:00,ZBHH 140000Z AUTO 07002KT 19SM M04/M08 A3018 RMK SLP276 T10371082 52007 IEM_DS3505
ZBHH,2008-11-14 01:00,ZBHH 140100Z AUTO 10002KT 6SM M02/M06 A3018 RMK T10201060 IEM_DS3505
ZBHH,2008-11-14 02:00,ZBHH 140200Z AUTO 16002KT 6SM 00/M07 A3015 RMK T00001070 IEM_DS3505
ZBHH,2008-11-14 03:00,ZBHH 140300Z AUTO 11002KT 12SM 02/M08 A3015 RMK SLP262 T00211078 57004 IEM_DS3505
ZBHH,2008-11-14 04:00,ZBHH 140400Z AUTO 23004KT 6SM 03/M07 A3012 RMK T00301070 IEM_DS3505
ZBHH,2008-11-14 05:00,ZBHH 140500Z AUTO 24006KT 6SM 04/M06 A3006 RMK T00401060 IEM_DS3505
ZBHH,2008-11-14 06:00,ZBHH 140600Z AUTO 27006KT 12SM 05/M06 A3006 RMK SLP223 T00511056 57030 IEM_DS3505
ZBHH,2008-11-14 07:00,ZBHH 140700Z AUTO 24004KT 6SM 06/M05 A3003 RMK T00601050 IEM_DS3505
ZBHH,2008-11-14 08:00,ZBHH 140800Z AUTO 24006KT 6SM 06/M05 A3000 RMK T00601050 IEM_DS3505
ZBHH,2008-11-14 09:00,ZBHH 140900Z AUTO 22004KT 12SM 05/M05 A3000 RMK SLP208 T00511050 57015 IEM_DS3505
ZBHH,2008-11-14 10:00,ZBHH 141000Z AUTO 34004KT 6SM 02/M04 A3000 RMK T00201040 IEM_DS3505
ZBHH,2008-11-14 11:00,ZBHH 141100Z AUTO 02004KT 6SM 01/M04 A3003 RMK T00101040 IEM_DS3505
ZBHH,2008-11-14 12:00,ZBHH 141200Z AUTO 20002KT 7SM 02/M04 A3003 RMK SLP229 T00161041 52012 IEM_DS3505
ZBHH,2008-11-14 13:00,ZBHH 141300Z AUTO 30012KT 6SM 04/M08 A3006 RMK T00401080 IEM_DS3505
ZBHH,2008-11-14 14:00,ZBHH 141400Z AUTO 29016KT 6SM 03/M09 A3009 RMK T00301090 IEM_DS3505
ZBHH,2008-11-14 15:00,ZBHH 141500Z AUTO 27006KT 19SM 03/M09 A3012 RMK SLP235 T00271092 52020 IEM_DS3505
ZBHH,2008-11-14 16:00,ZBHH 141600Z AUTO 32012KT 6SM 01/M09 A3012 RMK T00101090 IEM_DS3505
ZBHH,2008-11-14 17:00,ZBHH 141700Z AUTO 30010KT 6SM 00/M08 A3012 RMK T00001080 IEM_DS3505
ZBHH,2008-11-14 18:00,ZBHH 141800Z AUTO 04002KT 19SM M01/M08 A3012 RMK SLP247 T10071082 52009 IEM_DS3505
ZBHH,2008-11-14 19:00,ZBHH 141900Z AUTO 33004KT 6SM M02/M08 A3015 RMK T10201080 IEM_DS3505
ZBHH,2008-11-14 20:00,ZBHH 142000Z AUTO 02004KT 6SM M03/M08 A3012 RMK T10301080 IEM_DS3505
ZBHH,2008-11-14 21:00,ZBHH 142100Z AUTO 32002KT 19SM M02/M09 A3015 RMK SLP252 T10191088 52002 IEM_DS3505
ZBHH,2008-11-14 22:00,ZBHH 142200Z AUTO 03004KT 6SM M04/M09 A3015 RMK T10401090 IEM_DS3505
ZBHH,2008-11-14 23:00,ZBHH 142300Z AUTO 01008KT 6SM M04/M09 A3015 RMK T10401090 IEM_DS3505
ZBHH,2008-11-15 00:00,ZBHH 150000Z AUTO 16002KT 19SM M03/M10 A3018 RMK SLP274 T10331100 52009 IEM_DS3505
ZBHH,2008-11-15 01:00,ZBHH 150100Z AUTO 01004KT 6SM M02/M08 A3018 RMK T10201080 IEM_DS3505
ZBHH,2008-11-15 02:00,ZBHH 150200Z AUTO 18002KT 6SM 01/M10 A3018 RMK T00101100 IEM_DS3505
ZBHH,2008-11-15 03:00,ZBHH 150300Z AUTO 14002KT 19SM 01/M08 A3018 RMK SLP265 T00091083 52003 IEM_DS3505
ZBHH,2008-11-15 04:00,ZBHH 150400Z AUTO 21006KT 7SM 02/M08 A3015 RMK T00201080 IEM_DS3505
ZBHH,2008-11-15 05:00,ZBHH 150500Z AUTO 22006KT 7SM 03/M08 A3012 RMK T00301080 IEM_DS3505
ZBHH,2008-11-15 06:00,ZBHH 150600Z AUTO 22004KT 19SM 02/M09 A3012 RMK SLP243 T00251091 57023 IEM_DS3505
ZBHH,2008-11-15 07:00,ZBHH 150700Z AUTO 23006KT 7SM 02/M08 A3009 RMK T00201080 IEM_DS3505
ZBHH,2008-11-15 08:00,ZBHH 150800Z AUTO 25010KT 7SM 03/M08 A3009 RMK T00301080 IEM_DS3505
ZBHH,2008-11-15 09:00,ZBHH 150900Z AUTO 22004KT 19SM 02/M10 A3009 RMK SLP238 T00191097 57008 IEM_DS3505
ZBHH,2008-11-15 10:00,ZBHH 151000Z AUTO 07004KT 7SM M01/M06 A3009 RMK T10101060 IEM_DS3505
ZBHH,2008-11-15 11:00,ZBHH 151100Z AUTO 11002KT 6SM M03/M06 A3009 RMK T10301060 IEM_DS3505
ZBHH,2008-11-15 12:00,ZBHH 151200Z AUTO 32002KT 19SM M01/M08 A3009 RMK SLP251 T10071077 52003 IEM_DS3505
ZBHH,2008-11-15 13:00,ZBHH 151300Z AUTO 06004KT 6SM M05/M07 A3009 RMK T10501070 IEM_DS3505
ZBHH,2008-11-15 14:00,ZBHH 151400Z AUTO 05002KT 6SM M05/M07 A3009 RMK T10501070 IEM_DS3505
ZBHH,2008-11-15 15:00,ZBHH 151500Z AUTO 09002KT 19SM M03/M08 A3009 RMK SLP249 T10311078 52002 IEM_DS3505
ZBHH,2008-11-15 16:00,ZBHH 151600Z AUTO 10002KT 6SM M06/M09 A3009 RMK T10601090 IEM_DS3505
ZBHH,2008-11-15 17:00,ZBHH 151700Z AUTO 13002KT 6SM M06/M08 A3009 RMK T10601080 IEM_DS3505
ZBHH,2008-11-15 18:00,ZBHH 151800Z AUTO 00000KT 19SM M04/M08 A3009 RMK SLP239 T10351076 57006 IEM_DS3505
ZBHH,2008-11-15 19:00,ZBHH 151900Z AUTO 08004KT 6SM M05/M07 A3006 RMK T10501070 IEM_DS3505
ZBHH,2008-11-15 20:00,ZBHH 152000Z AUTO 12002KT 6SM M05/M07 A3006 RMK T10501070 IEM_DS3505
ZBHH,2008-11-15 21:00,ZBHH 152100Z AUTO 07002KT 19SM M04/M08 A3006 RMK SLP233 T10421078 57008 IEM_DS3505
ZBHH,2008-11-15 22:00,ZBHH 152200Z AUTO 07004KT 6SM M06/M08 A3006 RMK T10601080 IEM_DS3505
ZBHH,2008-11-15 23:00,ZBHH 152300Z AUTO 13004KT 7SM M05/M08 A3006 RMK T10501080 IEM_DS3505
ZBHH,2008-11-16 00:00,ZBHH 160000Z AUTO 14002KT 12SM M04/M07 A3009 RMK SLP254 T10421073 52012 IEM_DS3505
ZBHH,2008-11-16 01:00,ZBHH 160100Z AUTO 09002KT 6SM M01/M05 A3012 RMK T10101050 IEM_DS3505
ZBHH,2008-11-16 02:00,ZBHH 160200Z AUTO 30010KT 6SM 00/M12 A3012 RMK T00001120 IEM_DS3505
ZBHH,2008-11-16 03:00,ZBHH 160300Z AUTO 32008KT 19SM M00/M16 A3015 RMK SLP267 T10031158 52015 IEM_DS3505
ZBHH,2008-11-16 04:00,ZBHH 160400Z AUTO 30012KT 6SM 01/M16 A3012 RMK T00101160 IEM_DS3505
ZBHH,2008-11-16 05:00,ZBHH 160500Z AUTO 34012KT 6SM 01/M16 A3012 RMK T00101160 IEM_DS3505
ZBHH,2008-11-16 06:00,ZBHH 160600Z AUTO 32010KT 19SM 01/M16 A3012 RMK SLP263 T00071157 57002 IEM_DS3505
ZBHH,2008-11-16 07:00,ZBHH 160700Z AUTO 32014KT 6SM 00/M15 A3012 RMK T00001150 IEM_DS3505
ZBHH,2008-11-16 08:00,ZBHH 160800Z AUTO 31012KT 6SM 00/M14 A3015 RMK T00001140 IEM_DS3505
ZBHH,2008-11-16 09:00,ZBHH 160900Z AUTO 32006KT 19SM M01/M15 A3015 RMK SLP280 T10121151 52009 IEM_DS3505
ZBHH,2008-11-16 10:00,ZBHH 161000Z AUTO 34010KT 6SM M03/M13 A3018 RMK T10301130 IEM_DS3505
ZBHH,2008-11-16 11:00,ZBHH 161100Z AUTO 32008KT 6SM M03/M13 A3021 RMK T10301130 IEM_DS3505
ZBHH,2008-11-16 12:00,ZBHH 161200Z AUTO 29004KT 19SM M04/M14 A3021 RMK SLP306 T10371139 52017 IEM_DS3505
ZBHH,2008-11-16 13:00,ZBHH 161300Z AUTO 02006KT 6SM M05/M14 A3024 RMK T10501140 IEM_DS3505
ZBHH,2008-11-16 14:00,ZBHH 161400Z AUTO 35006KT 6SM M06/M14 A3024 RMK T10601140 IEM_DS3505
ZBHH,2008-11-16 15:00,ZBHH 161500Z AUTO 29006KT 19SM M05/M16 A3027 RMK SLP316 T10531159 52014 IEM_DS3505
ZBHH,2008-11-16 16:00,ZBHH 161600Z AUTO 33008KT 6SM M06/M16 A3027 RMK T10601160 IEM_DS3505
ZBHH,2008-11-16 17:00,ZBHH 161700Z AUTO 32006KT 6SM M07/M17 A3027 RMK T10701170 IEM_DS3505
ZBHH,2008-11-16 18:00,ZBHH 161800Z AUTO 32002KT 19SM M06/M18 A3027 RMK SLP314 T10611184 57001 IEM_DS3505
ZBHH,2008-11-16 19:00,ZBHH 161900Z AUTO 06002KT 6SM M10/M16 A3027 RMK T11001160 IEM_DS3505
ZBHH,2008-11-16 20:00,ZBHH 162000Z AUTO 03006KT 6SM M09/M16 A3027 RMK T10901160 IEM_DS3505
ZBHH,2008-11-16 21:00,ZBHH 162100Z AUTO 32002KT 19SM M08/M17 A3027 RMK SLP325 T10751166 52002 IEM_DS3505
ZBHH,2008-11-16 22:00,ZBHH 162200Z AUTO 31004KT 6SM M09/M16 A3027 RMK T10901160 IEM_DS3505
ZBHH,2008-11-16 23:00,ZBHH 162300Z AUTO 36012KT 6SM M08/M17 A3027 RMK T10801170 IEM_DS3505
ZBHH,2008-11-17 00:00,ZBHH 170000Z AUTO 22002KT 19SM M08/M15 A3030 RMK SLP340 T10781150 52007 IEM_DS3505
ZBHH,2008-11-17 01:00,ZBHH 170100Z AUTO 36010KT 6SM M07/M16 A3030 RMK T10701160 IEM_DS3505
ZBHH,2008-11-17 02:00,ZBHH 170200Z AUTO 03004KT 6SM M05/M16 A3030 RMK T10501160 IEM_DS3505
ZBHH,2008-11-17 03:00,ZBHH 170300Z AUTO 27006KT 19SM M03/M16 A3030 RMK SLP333 T10301163 52001 IEM_DS3505
ZBHH,2008-11-17 04:00,ZBHH 170400Z AUTO 34012KT 6SM M03/M15 A3027 RMK T10301150 IEM_DS3505
ZBHH,2008-11-17 05:00,ZBHH 170500Z AUTO 34014KT 6SM M03/M15 A3027 RMK T10301150 IEM_DS3505
ZBHH,2008-11-17 06:00,ZBHH 170600Z AUTO 32008KT 19SM M02/M17 A3027 RMK SLP324 T10211166 57008 IEM_DS3505
ZBHH,2008-11-17 07:00,ZBHH 170700Z AUTO 34014KT 6SM M03/M15 A3024 RMK T10301150 IEM_DS3505
ZBHH,2008-11-17 08:00,ZBHH 170800Z AUTO 34012KT 6SM M03/M15 A3027 RMK T10301150 IEM_DS3505
ZBHH,2008-11-17 09:00,ZBHH 170900Z AUTO 32006KT 19SM M04/M17 A3027 RMK SLP332 T10411173 54000 IEM_DS3505
ZBHH,2008-11-17 10:00,ZBHH 171000Z AUTO 34010KT 6SM M05/M16 A3027 RMK T10501160 IEM_DS3505
ZBHH,2008-11-17 11:00,ZBHH 171100Z AUTO 34010KT 6SM M06/M16 A3030 RMK T10601160 IEM_DS3505
ZBHH,2008-11-17 12:00,ZBHH 171200Z AUTO 27002KT 19SM M06/M17 A3030 RMK SLP350 T10581167 52011 IEM_DS3505
ZBHH,2008-11-17 13:00,ZBHH 171300Z AUTO 33008KT 6SM M07/M16 A3033 RMK T10701160 IEM_DS3505
ZBHH,2008-11-17 14:00,ZBHH 171400Z AUTO 35008KT 6SM M07/M16 A3033 RMK T10701160 IEM_DS3505
ZBHH,2008-11-17 15:00,ZBHH 171500Z AUTO 32002KT 19SM M07/M16 A3033 RMK SLP347 T10691161 52006 IEM_DS3505
ZBHH,2008-11-17 16:00,ZBHH 171600Z AUTO 12002KT 6SM M11/M15 A3033 RMK T11101150 IEM_DS3505
ZBHH,2008-11-17 17:00,ZBHH 171700Z AUTO 08002KT 6SM M11/M15 A3030 RMK T11101150 IEM_DS3505
ZBHH,2008-11-17 18:00,ZBHH 171800Z AUTO 20002KT 19SM M07/M15 A3030 RMK SLP336 T10711146 57008 IEM_DS3505
ZBHH,2008-11-17 19:00,ZBHH 171900Z AUTO 16002KT 7SM M10/M13 A3030 RMK T11001130 IEM_DS3505
ZBHH,2008-11-17 20:00,ZBHH 172000Z AUTO 01002KT 7SM M09/M13 A3030 RMK T10901130 IEM_DS3505
ZBHH,2008-11-17 21:00,ZBHH 172100Z AUTO 29008KT 19SM M06/M15 A3030 RMK SLP336 T10621152 57003 IEM_DS3505
ZBHH,2008-11-17 22:00,ZBHH 172200Z AUTO 34016KT 7SM M08/M14 A3030 RMK T10801140 IEM_DS3505
ZBHH,2008-11-17 23:00,ZBHH 172300Z AUTO 35010KT 7SM M09/M15 A3030 RMK T10901150 IEM_DS3505
ZBHH,2008-11-18 00:00,ZBHH 180000Z AUTO 34006KT 19SM M08/M17 A3033 RMK SLP361 T10851171 52013 IEM_DS3505
ZBHH,2008-11-18 01:00,ZBHH 180100Z AUTO 15002KT 7SM M07/M15 A3036 RMK T10701150 IEM_DS3505
ZBHH,2008-11-18 02:00,ZBHH 180200Z AUTO 05002KT 7SM M06/M16 A3036 RMK T10601160 IEM_DS3505
ZBHH,2008-11-18 03:00,ZBHH 180300Z AUTO 32008G23KT 19SM M05/M18 A3036 RMK SLP368 T10471185 52012 IEM_DS3505
ZBHH,2008-11-18 04:00,ZBHH 180400Z AUTO 31012KT 7SM M04/M16 A3036 RMK T10401160 IEM_DS3505
ZBHH,2008-11-18 05:00,ZBHH 180500Z AUTO 30016KT 7SM M03/M16 A3033 RMK T10301160 IEM_DS3505
ZBHH,2008-11-18 06:00,ZBHH 180600Z AUTO 34008KT 19SM M03/M16 A3033 RMK SLP349 T10291162 57013 IEM_DS3505
ZBHH,2008-11-18 07:00,ZBHH 180700Z AUTO 29016KT 7SM M03/M14 A3033 RMK T10301140 IEM_DS3505
ZBHH,2008-11-18 08:00,ZBHH 180800Z AUTO 31016KT 7SM M05/M10 A3033 RMK T10501100 IEM_DS3505
ZBHH,2008-11-18 09:00,ZBHH 180900Z AUTO 29006KT 19SM M04/M16 A3033 RMK SLP349 T10391155 54000 IEM_DS3505
ZBHH,2008-11-18 10:00,ZBHH 181000Z AUTO 30017G27KT 7SM M04/M13 A3033 RMK T10401130 IEM_DS3505
ZBHH,2008-11-18 11:00,ZBHH 181100Z AUTO 29006KT 7SM M05/M14 A3036 RMK T10501140 IEM_DS3505
ZBHH,2008-11-18 12:00,ZBHH 181200Z AUTO 32002KT 19SM M04/M19 A3036 RMK SLP366 T10431189 52009 IEM_DS3505
ZBHH,2008-11-18 13:00,ZBHH 181300Z AUTO 30010KT 7SM M05/M17 A3036 RMK T10501170 IEM_DS3505
ZBHH,2008-11-18 14:00,ZBHH 181400Z AUTO 12002KT 6SM M07/M16 A3039 RMK T10701160 IEM_DS3505
ZBHH,2008-11-18 15:00,ZBHH 181500Z AUTO 32004KT 19SM M06/M18 A3036 RMK SLP366 T10621185 52004 IEM_DS3505
ZBHH,2008-11-18 16:00,ZBHH 181600Z AUTO 04002KT 6SM M10/M16 A3036 RMK T11001160 IEM_DS3505
ZBHH,2008-11-18 17:00,ZBHH 181700Z AUTO 12004KT 6SM M09/M15 A3036 RMK T10901150 IEM_DS3505
ZBHH,2008-11-18 18:00,ZBHH 181800Z AUTO 02002KT 19SM M07/M15 A3036 RMK SLP352 T10691151 57010 IEM_DS3505
ZBHH,2008-11-18 19:00,ZBHH 181900Z AUTO 06004KT 6SM M10/M14 A3036 RMK T11001140 IEM_DS3505
ZBHH,2008-11-18 20:00,ZBHH 182000Z AUTO 07004KT 6SM M12/M16 A3033 RMK T11201160 IEM_DS3505
ZBHH,2008-11-18 21:00,ZBHH 182100Z AUTO 09002KT 19SM M08/M16 A3033 RMK SLP356 T10801159 57001 IEM_DS3505
ZBHH,2008-11-18 22:00,ZBHH 182200Z AUTO 09002KT 6SM M10/M13 A3033 RMK T11001130 IEM_DS3505
ZBHH,2008-11-18 23:00,ZBHH 182300Z AUTO 06002KT 6SM M09/M12 A3036 RMK T10901120 IEM_DS3505
ZBHH,2008-11-19 00:00,ZBHH 190000Z AUTO 07004KT 19SM M09/M13 A3036 RMK SLP367 T10871130 52007 IEM_DS3505
ZBHH,2008-11-19 01:00,ZBHH 190100Z AUTO 08002KT 6SM M07/M12 A3036 RMK T10701120 IEM_DS3505
ZBHH,2008-11-19 02:00,ZBHH 190200Z AUTO 16002KT 6SM M05/M11 A3036 RMK T10501110 IEM_DS3505
ZBHH,2008-11-19 03:00,ZBHH 190300Z AUTO 09002KT 19SM M04/M12 A3036 RMK SLP360 T10381122 52001 IEM_DS3505
ZBHH,2008-11-19 04:00,ZBHH 190400Z AUTO 22006KT 6SM M02/M11 A3033 RMK T10201110 IEM_DS3505
ZBHH,2008-11-19 05:00,ZBHH 190500Z AUTO 22008KT 6SM 00/M11 A3030 RMK T00001110 IEM_DS3505
ZBHH,2008-11-19 06:00,ZBHH 190600Z AUTO 18004KT 19SM 01/M12 A3027 RMK SLP325 T00081122 57022 IEM_DS3505
ZBHH,2008-11-19 07:00,ZBHH 190700Z AUTO 24010KT 6SM 01/M13 A3027 RMK T00101130 IEM_DS3505
ZBHH,2008-11-19 08:00,ZBHH 190800Z AUTO 25006KT 6SM 01/M12 A3027 RMK T00101120 IEM_DS3505
ZBHH,2008-11-19 09:00,ZBHH 190900Z AUTO 27002KT 19SM 01/M13 A3027 RMK SLP320 T00111127 57006 IEM_DS3505
ZBHH,2008-11-19 10:00,ZBHH 191000Z AUTO 29006KT 6SM M02/M10 A3027 RMK T10201100 IEM_DS3505
ZBHH,2008-11-19 11:00,ZBHH 191100Z AUTO 30002KT 6SM M02/M10 A3027 RMK T10201100 IEM_DS3505
ZBHH,2008-11-19 12:00,ZBHH 191200Z AUTO 00000KT 19SM M02/M11 A3027 RMK SLP330 T10231111 57001 IEM_DS3505
ZBHH,2008-11-19 13:00,ZBHH 191300Z AUTO 03006KT 6SM M06/M10 A3027 RMK T10601100 IEM_DS3505
ZBHH,2008-11-19 14:00,ZBHH 191400Z AUTO 09004KT 6SM M06/M11 A3027 RMK T10601110 IEM_DS3505
ZBHH,2008-11-19 15:00,ZBHH 191500Z AUTO 02002KT 19SM M04/M10 A3024 RMK SLP314 T10411101 57007 IEM_DS3505
ZBHH,2008-11-19 16:00,ZBHH 191600Z AUTO 05004KT 6SM M09/M12 A3024 RMK T10901120 IEM_DS3505
ZBHH,2008-11-19 17:00,ZBHH 191700Z AUTO 08004KT 6SM M10/M12 A3024 RMK T11001120 IEM_DS3505
ZBHH,2008-11-19 18:00,ZBHH 191800Z AUTO 07002KT 19SM M06/M11 A3024 RMK SLP299 T10601111 57007 IEM_DS3505
ZBHH,2008-11-19 19:00,ZBHH 191900Z AUTO 06004KT 6SM M12/M14 A3021 RMK T11201140 IEM_DS3505
ZBHH,2008-11-19 20:00,ZBHH 192000Z AUTO 07006KT 6SM M12/M14 A3021 RMK T11201140 IEM_DS3505
ZBHH,2008-11-19 21:00,ZBHH 192100Z AUTO 07002KT 19SM M07/M12 A3021 RMK SLP292 T10711120 57008 IEM_DS3505
ZBHH,2008-11-19 22:00,ZBHH 192200Z AUTO 07004KT 6SM M11/M14 A3021 RMK T11101140 IEM_DS3505
ZBHH,2008-11-19 23:00,ZBHH 192300Z AUTO 07006KT 6SM M12/M15 A3021 RMK T11201150 IEM_DS3505
ZBHH,2008-11-20 00:00,ZBHH 200000Z AUTO 07002KT 19SM M07/M13 A3021 RMK SLP308 T10731126 52006 IEM_DS3505
ZBHH,2008-11-20 01:00,ZBHH 200100Z AUTO 11004KT 6SM M06/M10 A3024 RMK T10601100 IEM_DS3505
ZBHH,2008-11-20 02:00,ZBHH 200200Z AUTO 19004KT 6SM M03/M11 A3024 RMK T10301110 IEM_DS3505
ZBHH,2008-11-20 03:00,ZBHH 200300Z AUTO 07002KT 7SM M02/M12 A3024 RMK SLP309 T10161123 52010 IEM_DS3505
ZBHH,2008-11-20 04:00,ZBHH 200400Z AUTO 22006KT 6SM 01/M12 A3021 RMK T00101120 IEM_DS3505
ZBHH,2008-11-20 05:00,ZBHH 200500Z AUTO 22006KT 6SM 02/M13 A3021 RMK T00201130 IEM_DS3505
ZBHH,2008-11-20 06:00,ZBHH 200600Z AUTO 20002KT 7SM 04/M12 A3018 RMK SLP279 T00391121 57019 IEM_DS3505
ZBHH,2008-11-20 07:00,ZBHH 200700Z AUTO 21006KT 6SM 04/M14 A3018 RMK T00401140 IEM_DS3505
ZBHH,2008-11-20 08:00,ZBHH 200800Z AUTO 22006KT 6SM 04/M12 A3018 RMK T00401120 IEM_DS3505
ZBHH,2008-11-20 09:00,ZBHH 200900Z AUTO 32002KT 9SM 03/M12 A3018 RMK SLP289 T00261121 52004 IEM_DS3505
ZBHH,2008-11-20 10:00,ZBHH 201000Z AUTO 27006KT 6SM 00/M10 A3021 RMK T00001100 IEM_DS3505
ZBHH,2008-11-20 11:00,ZBHH 201100Z AUTO 03002KT 6SM M02/M10 A3021 RMK T10201100 IEM_DS3505
ZBHH,2008-11-20 12:00,ZBHH 201200Z AUTO 34004KT 12SM 01/M10 A3024 RMK SLP309 T00101105 52013 IEM_DS3505
ZBHH,2008-11-20 13:00,ZBHH 201300Z AUTO 35006KT 6SM M01/M10 A3024 RMK T10101100 IEM_DS3505
ZBHH,2008-11-20 14:00,ZBHH 201400Z AUTO 36008KT 6SM M02/M11 A3027 RMK T10201110 IEM_DS3505
ZBHH,2008-11-20 15:00,ZBHH 201500Z AUTO 34004KT 12SM 01/M14 A3027 RMK SLP306 T00081144 52010 IEM_DS3505
ZBHH,2008-11-20 16:00,ZBHH 201600Z AUTO 05006KT 6SM M07/M11 A3027 RMK T10701110 IEM_DS3505
ZBHH,2008-11-20 17:00,ZBHH 201700Z AUTO 09004KT 6SM M07/M11 A3030 RMK T10701110 IEM_DS3505
ZBHH,2008-11-20 18:00,ZBHH 201800Z AUTO 11002KT 12SM M04/M12 A3027 RMK SLP307 T10411116 52002 IEM_DS3505
ZBHH,2008-11-20 19:00,ZBHH 201900Z AUTO 07004KT 6SM M08/M12 A3027 RMK T10801120 IEM_DS3505
ZBHH,2008-11-20 20:00,ZBHH 202000Z AUTO 10004KT 6SM M09/M12 A3027 RMK T10901120 IEM_DS3505
ZBHH,2008-11-20 21:00,ZBHH 202100Z AUTO 27004KT 16SM M05/M10 A3027 RMK SLP309 T10501104 57003 IEM_DS3505
ZBHH,2008-11-20 22:00,ZBHH 202200Z AUTO 07004KT 6SM M08/M12 A3027 RMK T10801120 IEM_DS3505
ZBHH,2008-11-20 23:00,ZBHH 202300Z AUTO 08004KT 6SM M10/M13 A3030 RMK T11001130 IEM_DS3505
ZBHH,2008-11-21 00:00,ZBHH 210000Z AUTO 00000KT 19SM M07/M11 A3033 RMK SLP331 T10681108 52012 IEM_DS3505
ZBHH,2008-11-21 01:00,ZBHH 210100Z AUTO 11002KT 6SM M05/M10 A3033 RMK T10501100 IEM_DS3505
ZBHH,2008-11-21 02:00,ZBHH 210200Z AUTO 11002KT 6SM M01/M10 A3033 RMK T10101100 IEM_DS3505
ZBHH,2008-11-21 03:00,ZBHH 210300Z AUTO 09004KT 19SM 00/M12 A3033 RMK SLP317 T00051125 52003 IEM_DS3505
ZBHH,2008-11-21 04:00,ZBHH 210400Z AUTO 22002KT 6SM 03/M13 A3030 RMK T00301130 IEM_DS3505
ZBHH,2008-11-21 05:00,ZBHH 210500Z AUTO 31002KT 6SM 03/M13 A3027 RMK T00301130 IEM_DS3505
ZBHH,2008-11-21 06:00,ZBHH 210600Z AUTO 20002KT 19SM 04/M13 A3024 RMK SLP289 T00431131 57027 IEM_DS3505
ZBHH,2008-11-21 07:00,ZBHH 210700Z AUTO 21004KT 6SM 04/M13 A3021 RMK T00401130 IEM_DS3505
ZBHH,2008-11-21 08:00,ZBHH 210800Z AUTO 22004KT 6SM 04/M13 A3021 RMK T00401130 IEM_DS3505
ZBHH,2008-11-21 09:00,ZBHH 210900Z AUTO 25002KT 19SM 02/M13 A3021 RMK SLP291 T00251129 57004 IEM_DS3505
ZBHH,2008-11-21 10:00,ZBHH 211000Z AUTO 10002KT 6SM M01/M11 A3021 RMK T10101110 IEM_DS3505
ZBHH,2008-11-21 11:00,ZBHH 211100Z AUTO 04006KT 6SM M04/M11 A3024 RMK T10401110 IEM_DS3505
ZBHH,2008-11-21 12:00,ZBHH 211200Z AUTO 00000KT 19SM M03/M11 A3024 RMK SLP316 T10261109 52007 IEM_DS3505
ZBHH,2008-11-21 13:00,ZBHH 211300Z AUTO 05006KT 6SM M06/M11 A3024 RMK T10601110 IEM_DS3505
ZBHH,2008-11-21 14:00,ZBHH 211400Z AUTO 07002KT 6SM M07/M11 A3024 RMK T10701110 IEM_DS3505
ZBHH,2008-11-21 15:00,ZBHH 211500Z AUTO 11002KT 19SM M03/M10 A3024 RMK SLP304 T10301103 52004 IEM_DS3505
ZBHH,2008-11-21 16:00,ZBHH 211600Z AUTO 09004KT 6SM M08/M12 A3024 RMK T10801120 IEM_DS3505
ZBHH,2008-11-21 17:00,ZBHH 211700Z AUTO 07004KT 6SM M07/M11 A3024 RMK T10701110 IEM_DS3505
ZBHH,2008-11-21 18:00,ZBHH 211800Z AUTO 07002KT 19SM M06/M12 A3024 RMK SLP297 T10561115 57003 IEM_DS3505
ZBHH,2008-11-21 19:00,ZBHH 211900Z AUTO 08004KT 6SM M10/M13 A3024 RMK T11001130 IEM_DS3505
ZBHH,2008-11-21 20:00,ZBHH 212000Z AUTO 07006KT 6SM M09/M13 A3024 RMK T10901130 IEM_DS3505
ZBHH,2008-11-21 21:00,ZBHH 212100Z AUTO 02002KT 19SM M07/M12 A3024 RMK SLP306 T10671120 52001 IEM_DS3505
ZBHH,2008-11-21 22:00,ZBHH 212200Z AUTO 07004KT 6SM M11/M14 A3024 RMK T11101140 IEM_DS3505
ZBHH,2008-11-21 23:00,ZBHH 212300Z AUTO 07004KT 6SM M11/M14 A3027 RMK T11101140 IEM_DS3505
ZBHH,2008-11-22 00:00,ZBHH 220000Z AUTO 04002KT 19SM M06/M12 A3027 RMK SLP329 T10621125 52010 IEM_DS3505
ZBHH,2008-11-22 01:00,ZBHH 220100Z AUTO 13002KT 6SM M06/M10 A3030 RMK T10601100 IEM_DS3505
ZBHH,2008-11-22 02:00,ZBHH 220200Z AUTO 21002KT 4SM M04/M10 A3030 RMK T10401100 IEM_DS3505
ZBHH,2008-11-22 03:00,ZBHH 220300Z AUTO 09002KT 19SM 01/M13 A3030 RMK SLP324 T00111127 52011 IEM_DS3505
ZBHH,2008-11-22 04:00,ZBHH 220400Z AUTO 23004KT 3SM 01/M10 A3030 RMK T00101100 IEM_DS3505
ZBHH,2008-11-22 05:00,ZBHH 220500Z AUTO 22004KT 3SM 03/M11 A3024 RMK T00301110 IEM_DS3505
ZBHH,2008-11-22 06:00,ZBHH 220600Z AUTO 20004KT 12SM 04/M12 A3024 RMK SLP298 T00391121 57022 IEM_DS3505
ZBHH,2008-11-22 07:00,ZBHH 220700Z AUTO 24002KT 5SM 05/M12 A3024 RMK T00501120 IEM_DS3505
ZBHH,2008-11-22 08:00,ZBHH 220800Z AUTO 25006KT 5SM 04/M10 A3024 RMK T00401100 IEM_DS3505
ZBHH,2008-11-22 09:00,ZBHH 220900Z AUTO 27002KT 12SM 02/M12 A3027 RMK SLP311 T00211118 52005 IEM_DS3505
ZBHH,2008-11-22 10:00,ZBHH 221000Z AUTO 05004KT 3SM M01/M09 A3027 RMK T10101090 IEM_DS3505
ZBHH,2008-11-22 11:00,ZBHH 221100Z AUTO 07004KT 3SM M05/M11 A3027 RMK T10501110 IEM_DS3505
ZBHH,2008-11-22 12:00,ZBHH 221200Z AUTO 16002KT 7SM M02/M11 A3027 RMK SLP328 T10181106 52007 IEM_DS3505
ZBHH,2008-11-22 13:00,ZBHH 221300Z AUTO 09004KT 4SM M05/M10 A3030 RMK T10501100 IEM_DS3505
ZBHH,2008-11-22 14:00,ZBHH 221400Z AUTO 04002KT 4SM M06/M10 A3030 RMK T10601100 IEM_DS3505
ZBHH,2008-11-22 15:00,ZBHH 221500Z AUTO 32002KT 7SM M02/M12 A3030 RMK SLP314 T10201115 52004 IEM_DS3505
ZBHH,2008-11-22 16:00,ZBHH 221600Z AUTO 09004KT 6SM M06/M11 A3030 RMK T10601110 IEM_DS3505
ZBHH,2008-11-22 17:00,ZBHH 221700Z AUTO 08006KT 6SM M06/M10 A3027 RMK T10601100 IEM_DS3505
ZBHH,2008-11-22 18:00,ZBHH 221800Z AUTO 09002KT 9SM M03/M12 A3027 RMK SLP300 T10321121 57009 IEM_DS3505
ZBHH,2008-11-22 19:00,ZBHH 221900Z AUTO 07006KT 6SM M07/M11 A3024 RMK T10701110 IEM_DS3505
ZBHH,2008-11-22 20:00,ZBHH 222000Z AUTO 08004KT 6SM M06/M11 A3024 RMK T10601110 IEM_DS3505
ZBHH,2008-11-22 21:00,ZBHH 222100Z AUTO 00000KT 9SM M04/M11 A3021 RMK SLP290 T10421114 57015 IEM_DS3505
ZBHH,2008-11-22 22:00,ZBHH 222200Z AUTO 07006KT 6SM M05/M10 A3021 RMK T10501100 IEM_DS3505
ZBHH,2008-11-22 23:00,ZBHH 222300Z AUTO 07004KT 6SM M06/M10 A3021 RMK T10601100 IEM_DS3505
ZBHH,2008-11-23 00:00,ZBHH 230000Z AUTO 04002KT 9SM M03/M11 A3024 RMK SLP300 T10321112 52002 IEM_DS3505
ZBHH,2008-11-23 01:00,ZBHH 230100Z AUTO 05002KT 6SM M05/M09 A3024 RMK T10501090 IEM_DS3505
ZBHH,2008-11-23 02:00,ZBHH 230200Z AUTO 00000KT 6SM M02/M08 A3024 RMK T10201080 IEM_DS3505
ZBHH,2008-11-23 03:00,ZBHH 230300Z AUTO 09002KT 7SM 00/M12 A3024 RMK SLP298 T00001117 52005 IEM_DS3505
ZBHH,2008-11-23 04:00,ZBHH 230400Z AUTO 16002KT 6SM 00/M11 A3021 RMK T00001110 IEM_DS3505
ZBHH,2008-11-23 05:00,ZBHH 230500Z AUTO 22002KT 5SM 01/M11 A3018 RMK T00101110 IEM_DS3505
ZBHH,2008-11-23 06:00,ZBHH 230600Z AUTO 25002KT 7SM 02/M11 A3018 RMK SLP275 T00151110 57019 IEM_DS3505
ZBHH,2008-11-23 07:00,ZBHH 230700Z AUTO 24004KT 3SM 01/M10 A3018 RMK T00101100 IEM_DS3505
ZBHH,2008-11-23 08:00,ZBHH 230800Z AUTO 21002KT 3SM 01/M10 A3018 RMK T00101100 IEM_DS3505
ZBHH,2008-11-23 09:00,ZBHH 230900Z AUTO 25006KT 7SM 01/M07 A3018 RMK SLP285 T00071073 52005 IEM_DS3505
ZBHH,2008-11-23 10:00,ZBHH 231000Z AUTO 16002KT 4SM 00/M06 A3021 RMK T00001060 IEM_DS3505
ZBHH,2008-11-23 11:00,ZBHH 231100Z AUTO 28002KT 3SM M01/M05 A3021 RMK T10101050 IEM_DS3505
ZBHH,2008-11-23 12:00,ZBHH 231200Z AUTO 07002KT 7SM M00/M05 A3021 RMK SLP294 T10041054 52007 IEM_DS3505
ZBHH,2008-11-23 13:00,ZBHH 231300Z AUTO 05004KT 3SM M02/M06 A3021 RMK T10201060 IEM_DS3505
ZBHH,2008-11-23 14:00,ZBHH 231400Z AUTO 09002KT 2 1/2SM M02/M04 A3021 RMK T10201040 IEM_DS3505
ZBHH,2008-11-23 15:00,ZBHH 231500Z AUTO 04002KT 9SM M01/M06 A3021 RMK SLP283 T10121062 57004 IEM_DS3505
ZBHH,2008-11-23 16:00,ZBHH 231600Z AUTO 06004KT 2 1/2SM M02/M05 A3018 RMK T10201050 IEM_DS3505
ZBHH,2008-11-23 17:00,ZBHH 231700Z AUTO 05002KT 2 1/2SM M03/M05 A3018 RMK T10301050 IEM_DS3505
ZBHH,2008-11-23 18:00,ZBHH 231800Z AUTO 36002KT 9SM M04/M07 A3018 RMK SLP276 T10381069 57009 IEM_DS3505
ZBHH,2008-11-23 19:00,ZBHH 231900Z AUTO 03004KT 3SM M04/M06 A3018 RMK T10401060 IEM_DS3505
ZBHH,2008-11-23 20:00,ZBHH 232000Z AUTO 00000KT 3SM M04/M06 A3015 RMK T10401060 IEM_DS3505
ZBHH,2008-11-23 21:00,ZBHH 232100Z AUTO 34002KT 9SM M04/M06 A3015 RMK SLP269 T10361064 57007 IEM_DS3505
ZBHH,2008-11-23 22:00,ZBHH 232200Z AUTO 03004KT 4SM M06/M08 A3015 RMK T10601080 IEM_DS3505
ZBHH,2008-11-23 23:00,ZBHH 232300Z AUTO 04006KT 5SM M06/M08 A3015 RMK T10601080 IEM_DS3505
ZBHH,2008-11-24 00:00,ZBHH 240000Z AUTO 34002KT 6SM M05/M08 A3018 RMK SLP288 T10541075 52010 IEM_DS3505
ZBHH,2008-11-24 01:00,ZBHH 240100Z AUTO 12002KT 3SM M05/M08 A3021 RMK T10501080 IEM_DS3505
ZBHH,2008-11-24 02:00,ZBHH 240200Z AUTO 34002KT 3SM M02/M05 A3021 RMK T10201050 IEM_DS3505
ZBHH,2008-11-24 03:00,ZBHH 240300Z AUTO 36008KT 7SM 00/M11 A3024 RMK SLP295 T00001114 52016 IEM_DS3505
ZBHH,2008-11-24 04:00,ZBHH 240400Z AUTO 36008G17KT 6SM 00/M14 A3024 RMK T00001140 IEM_DS3505
ZBHH,2008-11-24 05:00,ZBHH 240500Z AUTO 31008KT 7SM 01/M14 A3021 RMK T00101140 IEM_DS3505
ZBHH,2008-11-24 06:00,ZBHH 240600Z AUTO 27002KT 7SM 02/M09 A3021 RMK SLP295 T00171087 57002 IEM_DS3505
ZBHH,2008-11-24 07:00,ZBHH 240700Z AUTO 31012KT 7SM 01/M14 A3024 RMK T00101140 IEM_DS3505
ZBHH,2008-11-24 08:00,ZBHH 240800Z AUTO 31012KT 7SM 00/M12 A3024 RMK T00001120 IEM_DS3505
ZBHH,2008-11-24 09:00,ZBHH 240900Z AUTO 27004KT 16SM M01/M08 A3027 RMK SLP317 T10071079 52015 IEM_DS3505
ZBHH,2008-11-24 10:00,ZBHH 241000Z AUTO 36008KT 7SM M02/M07 A3030 RMK T10201070 IEM_DS3505
ZBHH,2008-11-24 11:00,ZBHH 241100Z AUTO 25004KT 7SM M03/M07 A3033 RMK T10301070 IEM_DS3505
ZBHH,2008-11-24 12:00,ZBHH 241200Z AUTO 32002KT 19SM M02/M10 A3033 RMK SLP344 T10171100 52017 IEM_DS3505
ZBHH,2008-11-24 13:00,ZBHH 241300Z AUTO 33006KT 6SM M04/M09 A3033 RMK T10401090 IEM_DS3505
ZBHH,2008-11-24 14:00,ZBHH 241400Z AUTO 09004KT 6SM M04/M10 A3036 RMK T10401100 IEM_DS3505
ZBHH,2008-11-24 15:00,ZBHH 241500Z AUTO 29002KT 19SM M03/M11 A3036 RMK SLP337 T10301108 52003 IEM_DS3505
ZBHH,2008-11-24 16:00,ZBHH 241600Z AUTO 12004KT 6SM M07/M11 A3036 RMK T10701110 IEM_DS3505
ZBHH,2008-11-24 17:00,ZBHH 241700Z AUTO 13004KT 6SM M07/M10 A3036 RMK T10701100 IEM_DS3505
ZBHH,2008-11-24 18:00,ZBHH 241800Z AUTO 36002KT 19SM M06/M10 A3033 RMK SLP333 T10561104 57005 IEM_DS3505
ZBHH,2008-11-24 19:00,ZBHH 241900Z AUTO 07002KT 6SM M10/M13 A3036 RMK T11001130 IEM_DS3505
ZBHH,2008-11-24 20:00,ZBHH 242000Z AUTO 07004KT 6SM M11/M13 A3033 RMK T11101130 IEM_DS3505
ZBHH,2008-11-24 21:00,ZBHH 242100Z AUTO 09004KT 12SM M07/M10 A3033 RMK SLP339 T10701095 57003 IEM_DS3505
ZBHH,2008-11-24 22:00,ZBHH 242200Z AUTO 07004KT 6SM M10/M11 A3033 RMK T11001110 IEM_DS3505
ZBHH,2008-11-24 23:00,ZBHH 242300Z AUTO 08004KT 6SM M09/M11 A3030 RMK T10901110 IEM_DS3505
ZBHH,2008-11-25 00:00,ZBHH 250000Z AUTO 07004KT 4SM M07/M08 A3033 RMK SLP342 T10661085 52001 IEM_DS3505
ZBHH,2008-11-25 01:00,ZBHH 250100Z AUTO 10004KT 4SM M06/M08 A3033 RMK T10601080 IEM_DS3505
ZBHH,2008-11-25 02:00,ZBHH 250200Z AUTO 13002KT 5SM M05/M08 A3030 RMK T10501080 IEM_DS3505
ZBHH,2008-11-25 03:00,ZBHH 250300Z AUTO 27004KT 9SM M04/M08 A3030 RMK SLP331 T10381085 57006 IEM_DS3505
ZBHH,2008-11-25 04:00,ZBHH 250400Z AUTO 24006KT 6SM M02/M09 A3027 RMK T10201090 IEM_DS3505
ZBHH,2008-11-25 05:00,ZBHH 250500Z AUTO 26006KT 6SM M01/M09 A3024 RMK T10101090 IEM_DS3505
ZBHH,2008-11-25 06:00,ZBHH 250600Z AUTO 25004KT 12SM M00/M11 A3021 RMK SLP293 T10011109 57031 IEM_DS3505
ZBHH,2008-11-25 07:00,ZBHH 250700Z AUTO 26008KT 6SM 01/M11 A3018 RMK T00101110 IEM_DS3505
ZBHH,2008-11-25 08:00,ZBHH 250800Z AUTO 26002KT 7SM 00/M10 A3015 RMK T00001100 IEM_DS3505
ZBHH,2008-11-25 09:00,ZBHH 250900Z AUTO 11002KT 12SM 01/M12 A3015 RMK SLP272 T00081116 57020 IEM_DS3505
ZBHH,2008-11-25 10:00,ZBHH 251000Z AUTO 09002KT 7SM M02/M10 A3015 RMK T10201100 IEM_DS3505
ZBHH,2008-11-25 11:00,ZBHH 251100Z AUTO 09004KT 7SM M04/M10 A3015 RMK T10401100 IEM_DS3505
ZBHH,2008-11-25 12:00,ZBHH 251200Z AUTO 18002KT 19SM M02/M10 A3015 RMK SLP281 T10151096 52004 IEM_DS3505
ZBHH,2008-11-25 13:00,ZBHH 251300Z AUTO 31004KT 4SM M05/M10 A3015 RMK T10501100 IEM_DS3505
ZBHH,2008-11-25 14:00,ZBHH 251400Z AUTO 03006KT 4SM M06/M09 A3012 RMK T10601090 IEM_DS3505
ZBHH,2008-11-25 15:00,ZBHH 251500Z AUTO 32008KT 12SM M01/M09 A3015 RMK SLP272 T10071091 54000 IEM_DS3505
ZBHH,2008-11-25 16:00,ZBHH 251600Z AUTO 32008KT 7SM M02/M08 A3015 RMK T10201080 IEM_DS3505
ZBHH,2008-11-25 17:00,ZBHH 251700Z AUTO 32010KT 7SM M02/M09 A3015 RMK T10201090 IEM_DS3505
ZBHH,2008-11-25 18:00,ZBHH 251800Z AUTO 25002KT 9SM M02/M09 A3015 RMK SLP267 T10231092 54000 IEM_DS3505
ZBHH,2008-11-25 19:00,ZBHH 251900Z AUTO 34002KT 7SM M03/M09 A3015 RMK T10301090 IEM_DS3505
ZBHH,2008-11-25 20:00,ZBHH 252000Z AUTO 36008KT 7SM M03/M08 A3015 RMK T10301080 IEM_DS3505
ZBHH,2008-11-25 21:00,ZBHH 252100Z AUTO 29006KT 12SM M04/M09 A3018 RMK SLP278 T10351091 52009 IEM_DS3505
ZBHH,2008-11-25 22:00,ZBHH 252200Z AUTO 32008KT 7SM M04/M09 A3018 RMK T10401090 IEM_DS3505
ZBHH,2008-11-25 23:00,ZBHH 252300Z AUTO 32010KT 7SM M04/M10 A3024 RMK T10401100 IEM_DS3505
ZBHH,2008-11-26 00:00,ZBHH 260000Z AUTO 02004KT 16SM M04/M12 A3027 RMK SLP320 T10411120 52031 IEM_DS3505
ZBHH,2008-11-26 01:00,ZBHH 260100Z AUTO 35010KT 7SM M04/M12 A3030 RMK T10401120 IEM_DS3505
ZBHH,2008-11-26 02:00,ZBHH 260200Z AUTO 33010KT 7SM M04/M11 A3033 RMK T10401110 IEM_DS3505
ZBHH,2008-11-26 03:00,ZBHH 260300Z AUTO 27004KT 19SM M04/M14 A3036 RMK SLP348 T10361141 52027 IEM_DS3505
ZBHH,2008-11-26 04:00,ZBHH 260400Z AUTO 33016KT 7SM M04/M12 A3036 RMK T10401120 IEM_DS3505
ZBHH,2008-11-26 05:00,ZBHH 260500Z AUTO 33016G25KT 6SM M03/M14 A3036 RMK T10301140 IEM_DS3505
ZBHH,2008-11-26 06:00,ZBHH 260600Z AUTO 29008G25KT 19SM M03/M17 A3036 RMK SLP347 T10281168 57003 IEM_DS3505
ZBHH,2008-11-26 07:00,ZBHH 260700Z AUTO 33019KT 7SM M04/M15 A3036 RMK T10401150 IEM_DS3505
ZBHH,2008-11-26 08:00,ZBHH 260800Z AUTO 33019G31KT 7SM M05/M14 A3039 RMK T10501140 IEM_DS3505
ZBHH,2008-11-26 09:00,ZBHH 260900Z AUTO 32012KT 19SM M05/M14 A3042 RMK SLP376 T10541144 52017 IEM_DS3505
ZBHH,2008-11-26 10:00,ZBHH 261000Z AUTO 34008KT 7SM M06/M13 A3042 RMK T10601130 IEM_DS3505
ZBHH,2008-11-26 11:00,ZBHH 261100Z AUTO 28008KT 7SM M06/M13 A3045 RMK T10601130 IEM_DS3505
ZBHH,2008-11-26 12:00,ZBHH 261200Z AUTO 22002KT 19SM M06/M15 A3045 RMK SLP388 T10591149 52008 IEM_DS3505
ZBHH,2008-11-26 13:00,ZBHH 261300Z AUTO 28014KT 6SM M06/M15 A3045 RMK T10601150 IEM_DS3505
ZBHH,2008-11-26 14:00,ZBHH 261400Z AUTO 03006KT 6SM M07/M15 A3045 RMK T10701150 IEM_DS3505
ZBHH,2008-11-26 15:00,ZBHH 261500Z AUTO 29006KT 19SM M06/M17 A3045 RMK SLP386 T10601174 57001 IEM_DS3505
ZBHH,2008-11-26 16:00,ZBHH 261600Z AUTO 09002KT 6SM M10/M16 A3042 RMK T11001160 IEM_DS3505
ZBHH,2008-11-26 17:00,ZBHH 261700Z AUTO 35004KT 6SM M09/M16 A3042 RMK T10901160 IEM_DS3505
ZBHH,2008-11-26 18:00,ZBHH 261800Z AUTO 29004KT 19SM M07/M18 A3039 RMK SLP372 T10701180 57012 IEM_DS3505
ZBHH,2008-11-26 19:00,ZBHH 261900Z AUTO 36006KT 6SM M08/M17 A3039 RMK T10801170 IEM_DS3505
ZBHH,2008-11-26 20:00,ZBHH 262000Z AUTO 12002KT 6SM M11/M17 A3039 RMK T11101170 IEM_DS3505
ZBHH,2008-11-26 21:00,ZBHH 262100Z AUTO 04002KT 19SM M09/M16 A3039 RMK SLP378 T10891163 57005 IEM_DS3505
ZBHH,2008-11-26 22:00,ZBHH 262200Z AUTO 10002KT 6SM M14/M17 A3039 RMK T11401170 IEM_DS3505
ZBHH,2008-11-26 23:00,ZBHH 262300Z AUTO 08004KT 6SM M15/M18 A3039 RMK T11501180 IEM_DS3505
ZBHH,2008-11-27 00:00,ZBHH 270000Z AUTO 04002KT 19SM M10/M15 A3039 RMK SLP383 T10991149 52001 IEM_DS3505
ZBHH,2008-11-27 01:00,ZBHH 270100Z AUTO 10004KT 6SM M10/M14 A3039 RMK T11001140 IEM_DS3505
ZBHH,2008-11-27 02:00,ZBHH 270200Z AUTO 19004KT 6SM M07/M13 A3039 RMK T10701130 IEM_DS3505
ZBHH,2008-11-27 03:00,ZBHH 270300Z AUTO 11004KT 19SM M05/M15 A3036 RMK SLP367 T10531148 57004 IEM_DS3505
ZBHH,2008-11-27 04:00,ZBHH 270400Z AUTO 23006KT 6SM M04/M13 A3036 RMK T10401130 IEM_DS3505
ZBHH,2008-11-27 05:00,ZBHH 270500Z AUTO 21004KT 6SM M03/M12 A3030 RMK T10301120 IEM_DS3505
ZBHH,2008-11-27 06:00,ZBHH 270600Z AUTO 20004KT 19SM M02/M13 A3027 RMK SLP330 T10211133 57027 IEM_DS3505
ZBHH,2008-11-27 07:00,ZBHH 270700Z AUTO 23006KT 6SM M02/M12 A3027 RMK T10201120 IEM_DS3505
ZBHH,2008-11-27 08:00,ZBHH 270800Z AUTO 26006KT 4SM M01/M11 A3027 RMK T10101110 IEM_DS3505
ZBHH,2008-11-27 09:00,ZBHH 270900Z AUTO 36002KT 19SM M02/M12 A3024 RMK SLP324 T10221125 57010 IEM_DS3505
ZBHH,2008-11-27 10:00,ZBHH 271000Z AUTO 05004KT 5SM M05/M12 A3024 RMK T10501120 IEM_DS3505
ZBHH,2008-11-27 11:00,ZBHH 271100Z AUTO 04004KT 5SM M07/M13 A3024 RMK T10701130 IEM_DS3505
ZBHH,2008-11-27 12:00,ZBHH 271200Z AUTO 00000KT 12SM M04/M12 A3024 RMK SLP324 T10431122 57007 IEM_DS3505
ZBHH,2008-11-27 13:00,ZBHH 271300Z AUTO 07004KT 6SM M10/M14 A3024 RMK T11001140 IEM_DS3505
ZBHH,2008-11-27 14:00,ZBHH 271400Z AUTO 06004KT 6SM M09/M13 A3021 RMK T10901130 IEM_DS3505
ZBHH,2008-11-27 15:00,ZBHH 271500Z AUTO 25002KT 9SM M07/M12 A3021 RMK SLP313 T10681119 57005 IEM_DS3505
ZBHH,2008-11-27 16:00,ZBHH 271600Z AUTO 04004KT 6SM M10/M14 A3021 RMK T11001140 IEM_DS3505
ZBHH,2008-11-27 17:00,ZBHH 271700Z AUTO 07004KT 6SM M11/M14 A3021 RMK T11101140 IEM_DS3505
ZBHH,2008-11-27 18:00,ZBHH 271800Z AUTO 00000KT 9SM M08/M12 A3018 RMK SLP297 T10811121 57010 IEM_DS3505
ZBHH,2008-11-27 19:00,ZBHH 271900Z AUTO 06004KT 6SM M12/M14 A3018 RMK T11201140 IEM_DS3505
ZBHH,2008-11-27 20:00,ZBHH 272000Z AUTO 06006KT 6SM M11/M13 A3018 RMK T11101130 IEM_DS3505
ZBHH,2008-11-27 21:00,ZBHH 272100Z AUTO 11002KT 12SM M07/M13 A3015 RMK SLP287 T10671126 57006 IEM_DS3505
ZBHH,2008-11-27 22:00,ZBHH 272200Z AUTO 09004KT 6SM M09/M12 A3015 RMK T10901120 IEM_DS3505
ZBHH,2008-11-27 23:00,ZBHH 272300Z AUTO 07004KT 6SM M10/M13 A3015 RMK T11001130 IEM_DS3505
ZBHH,2008-11-28 00:00,ZBHH 280000Z AUTO 07002KT 9SM M07/M12 A3018 RMK SLP301 T10711120 52007 IEM_DS3505
ZBHH,2008-11-28 01:00,ZBHH 280100Z AUTO 09002KT 6SM M07/M10 A3021 RMK T10701100 IEM_DS3505
ZBHH,2008-11-28 02:00,ZBHH 280200Z AUTO 19006KT 6SM M04/M10 A3021 RMK T10401100 IEM_DS3505
ZBHH,2008-11-28 03:00,ZBHH 280300Z AUTO 32010KT 16SM M00/M12 A3024 RMK SLP311 T10021116 52019 IEM_DS3505
ZBHH,2008-11-28 04:00,ZBHH 280400Z AUTO 33016KT 7SM 00/M10 A3024 RMK T00001100 IEM_DS3505
ZBHH,2008-11-28 05:00,ZBHH 280500Z AUTO 33021KT 7SM 00/M09 A3024 RMK T00001090 IEM_DS3505
ZBHH,2008-11-28 06:00,ZBHH 280600Z AUTO 29006KT 19SM 01/M09 A3024 RMK SLP317 T00111087 52005 IEM_DS3505
ZBHH,2008-11-28 07:00,ZBHH 280700Z AUTO 34012KT 7SM 01/M08 A3027 RMK T00101080 IEM_DS3505
ZBHH,2008-11-28 08:00,ZBHH 280800Z AUTO 35006KT 7SM 01/M08 A3030 RMK T00101080 IEM_DS3505
ZBHH,2008-11-28 09:00,ZBHH 280900Z AUTO 32006KT 19SM 00/M09 A3030 RMK SLP336 T00011086 52017 IEM_DS3505
ZBHH,2008-11-28 10:00,ZBHH 281000Z AUTO 31008KT 7SM M01/M08 A3033 RMK T10101080 IEM_DS3505
ZBHH,2008-11-28 11:00,ZBHH 281100Z AUTO 22004KT 7SM M03/M08 A3033 RMK T10301080 IEM_DS3505
ZBHH,2008-11-28 12:00,ZBHH 281200Z AUTO 29002KT 19SM M02/M08 A3033 RMK SLP355 T10181085 52012 IEM_DS3505
ZBHH,2008-11-28 13:00,ZBHH 281300Z AUTO 27010KT 7SM M02/M08 A3036 RMK T10201080 IEM_DS3505
ZBHH,2008-11-28 14:00,ZBHH 281400Z AUTO 14004KT 7SM M02/M09 A3036 RMK T10201090 IEM_DS3505
ZBHH,2008-11-28 15:00,ZBHH 281500Z AUTO 29004KT 19SM M02/M10 A3036 RMK SLP341 T10251101 52001 IEM_DS3505
ZBHH,2008-11-28 16:00,ZBHH 281600Z AUTO 31004KT 6SM M02/M10 A3036 RMK T10201100 IEM_DS3505
ZBHH,2008-11-28 17:00,ZBHH 281700Z AUTO 16004KT 6SM M05/M10 A3036 RMK T10501100 IEM_DS3505
ZBHH,2008-11-28 18:00,ZBHH 281800Z AUTO 25002KT 19SM M04/M10 A3033 RMK SLP333 T10451095 57008 IEM_DS3505
ZBHH,2008-11-28 19:00,ZBHH 281900Z AUTO 11004KT 6SM M09/M11 A3033 RMK T10901110 IEM_DS3505
ZBHH,2008-11-28 20:00,ZBHH 282000Z AUTO 09004KT 6SM M10/M12 A3033 RMK T11001120 IEM_DS3505
ZBHH,2008-11-28 21:00,ZBHH 282100Z AUTO 04002KT 19SM M06/M10 A3033 RMK SLP331 T10641101 57008 IEM_DS3505
ZBHH,2008-11-28 22:00,ZBHH 282200Z AUTO 09004KT 6SM M11/M13 A3030 RMK T11101130 IEM_DS3505
ZBHH,2008-11-28 23:00,ZBHH 282300Z AUTO 08004KT 6SM M12/M14 A3030 RMK T11201140 IEM_DS3505
ZBHH,2008-11-29 00:00,ZBHH 290000Z AUTO 09002KT 19SM M07/M10 A3033 RMK SLP340 T10691104 52002 IEM_DS3505
ZBHH,2008-11-29 01:00,ZBHH 290100Z AUTO 05004KT 6SM M07/M09 A3033 RMK T10701090 IEM_DS3505
ZBHH,2008-11-29 02:00,ZBHH 290200Z AUTO 14002KT 6SM M03/M09 A3033 RMK T10301090 IEM_DS3505
ZBHH,2008-11-29 03:00,ZBHH 290300Z AUTO 11004KT 12SM M02/M09 A3033 RMK SLP331 T10221091 52001 IEM_DS3505
ZBHH,2008-11-29 04:00,ZBHH 290400Z AUTO 25002KT 6SM M01/M08 A3030 RMK T10101080 IEM_DS3505
ZBHH,2008-11-29 05:00,ZBHH 290500Z AUTO 21004KT 6SM 01/M09 A3027 RMK T00101090 IEM_DS3505
ZBHH,2008-11-29 06:00,ZBHH 290600Z AUTO 27004KT 12SM 02/M11 A3027 RMK SLP308 T00211107 57015 IEM_DS3505
ZBHH,2008-11-29 07:00,ZBHH 290700Z AUTO 26006KT 6SM 03/M10 A3024 RMK T00301100 IEM_DS3505
ZBHH,2008-11-29 08:00,ZBHH 290800Z AUTO 23004KT 6SM 02/M10 A3024 RMK T00201100 IEM_DS3505
ZBHH,2008-11-29 09:00,ZBHH 290900Z AUTO 22002KT 12SM 01/M10 A3024 RMK SLP308 T00111095 57006 IEM_DS3505
ZBHH,2008-11-29 10:00,ZBHH 291000Z AUTO 07004KT 6SM M03/M11 A3024 RMK T10301110 IEM_DS3505
ZBHH,2008-11-29 11:00,ZBHH 291100Z AUTO 06004KT 6SM M06/M11 A3024 RMK T10601110 IEM_DS3505
ZBHH,2008-11-29 12:00,ZBHH 291200Z AUTO 09002KT 5SM M02/M10 A3027 RMK SLP318 T10191095 52001 IEM_DS3505
ZBHH,2008-11-29 13:00,ZBHH 291300Z AUTO 03006KT 6SM M07/M11 A3024 RMK T10701110 IEM_DS3505
ZBHH,2008-11-29 14:00,ZBHH 291400Z AUTO 01004KT 6SM M08/M11 A3024 RMK T10801110 IEM_DS3505
ZBHH,2008-11-29 15:00,ZBHH 291500Z AUTO 27002KT 4SM M05/M10 A3024 RMK SLP305 T10471097 57007 IEM_DS3505
ZBHH,2008-11-29 16:00,ZBHH 291600Z AUTO 07006KT 6SM M09/M12 A3024 RMK T10901120 IEM_DS3505
ZBHH,2008-11-29 17:00,ZBHH 291700Z AUTO 05004KT 6SM M10/M13 A3021 RMK T11001130 IEM_DS3505
ZBHH,2008-11-29 18:00,ZBHH 291800Z AUTO 07002KT 6SM M06/M10 A3018 RMK SLP283 T10591103 57013 IEM_DS3505
ZBHH,2008-11-29 19:00,ZBHH 291900Z AUTO 07004KT 6SM M12/M14 A3018 RMK T11201140 IEM_DS3505
ZBHH,2008-11-29 20:00,ZBHH 292000Z AUTO 09004KT 6SM M11/M13 A3015 RMK T11101130 IEM_DS3505
ZBHH,2008-11-29 21:00,ZBHH 292100Z AUTO 32002KT 12SM M07/M11 A3015 RMK SLP275 T10721107 57012 IEM_DS3505
ZBHH,2008-11-29 22:00,ZBHH 292200Z AUTO 05006KT 6SM M12/M14 A3015 RMK T11201140 IEM_DS3505
ZBHH,2008-11-29 23:00,ZBHH 292300Z AUTO 07008KT 6SM M12/M14 A3012 RMK T11201140 IEM_DS3505
ZBHH,2008-11-30 00:00,ZBHH 300000Z AUTO 09002KT 7SM M08/M10 A3015 RMK SLP278 T10781105 57005 IEM_DS3505
ZBHH,2008-11-30 01:00,ZBHH 300100Z AUTO 06004KT 3SM M07/M10 A3015 RMK T10701100 IEM_DS3505
ZBHH,2008-11-30 02:00,ZBHH 300200Z AUTO 11002KT 5SM M02/M09 A3012 RMK T10201090 IEM_DS3505
ZBHH,2008-11-30 03:00,ZBHH 300300Z AUTO 09004KT 16SM M01/M11 A3012 RMK SLP261 T10071106 57006 IEM_DS3505
ZBHH,2008-11-30 04:00,ZBHH 300400Z AUTO 20004KT 6SM 02/M11 A3006 RMK T00201110 IEM_DS3505
ZBHH,2008-11-30 05:00,ZBHH 300500Z AUTO 23004KT 6SM 02/M12 A3003 RMK T00201120 IEM_DS3505
ZBHH,2008-11-30 06:00,ZBHH 300600Z AUTO 18004KT 16SM 03/M12 A3000 RMK SLP214 T00331118 57035 IEM_DS3505
ZBHH,2008-11-30 07:00,ZBHH 300700Z AUTO 23002KT 6SM 04/M12 A2997 RMK T00401120 IEM_DS3505
ZBHH,2008-11-30 08:00,ZBHH 300800Z AUTO 03002KT 6SM 03/M12 A2994 RMK T00301120 IEM_DS3505
ZBHH,2008-11-30 09:00,ZBHH 300900Z AUTO 25002KT 16SM 04/M12 A2994 RMK SLP195 T00371119 57018 IEM_DS3505
ZBHH,2008-11-30 10:00,ZBHH 301000Z AUTO 05006KT 6SM M01/M11 A2994 RMK T10101110 IEM_DS3505
ZBHH,2008-11-30 11:00,ZBHH 301100Z AUTO 10004KT 4SM M04/M11 A2997 RMK T10401110 IEM_DS3505
ZBHH,2008-11-30 12:00,ZBHH 301200Z AUTO 07004KT 9SM 01/M11 A2997 RMK SLP214 T00101114 52009 IEM_DS3505
ZBHH,2008-11-30 13:00,ZBHH 301300Z AUTO 10004KT 4SM M03/M09 A2997 RMK T10301090 IEM_DS3505
ZBHH,2008-11-30 14:00,ZBHH 301400Z AUTO 15002KT 4SM M02/M09 A2997 RMK T10201090 IEM_DS3505
ZBHH,2008-11-30 15:00,ZBHH 301500Z AUTO 29006KT 9SM 03/M09 A3000 RMK SLP203 T00341086 52011 IEM_DS3505
ZBHH,2008-11-30 16:00,ZBHH 301600Z AUTO 28019KT 4SM 03/M09 A3000 RMK T00301090 IEM_DS3505
ZBHH,2008-11-30 17:00,ZBHH 301700Z AUTO 28012KT 5SM 02/M10 A3000 RMK T00201100 IEM_DS3505
ZBHH,2008-11-30 18:00,ZBHH 301800Z AUTO 29002KT 12SM 02/M10 A3003 RMK SLP208 T00201102 52010 IEM_DS3505
ZBHH,2008-11-30 19:00,ZBHH 301900Z AUTO 30017KT 4SM 02/M11 A3003 RMK T00201110 IEM_DS3505
ZBHH,2008-11-30 20:00,ZBHH 302000Z AUTO 29014KT 5SM 01/M11 A3003 RMK T00101110 IEM_DS3505
ZBHH,2008-11-30 21:00,ZBHH 302100Z AUTO 29002KT 12SM M02/M09 A3003 RMK SLP220 T10161086 52004 IEM_DS3505
ZBHH,2008-11-30 22:00,ZBHH 302200Z AUTO 29010KT 5SM M01/M11 A3006 RMK T10101110 IEM_DS3505
ZBHH,2008-11-30 23:00,ZBHH 302300Z AUTO 27010KT 6SM M02/M12 A3006 RMK T10201120 IEM_DS3505
ZBHH,2008-12-01 00:00,ZBHH 010000Z AUTO 20002KT 9SM M02/M10 A3009 RMK SLP240 T10181101 52011 IEM_DS3505
ZBHH,2008-12-01 01:00,ZBHH 010100Z AUTO 31012KT 6SM M01/M13 A3009 RMK T10101130 IEM_DS3505
ZBHH,2008-12-01 02:00,ZBHH 010200Z AUTO 4SM 00/M13 A3012 RMK T00001130 IEM_DS3505
ZBHH,2008-12-01 03:00,ZBHH 010300Z AUTO 25006KT 19SM 02/M14 A3012 RMK SLP234 T00191138 52008 IEM_DS3505
ZBHH,2008-12-01 04:00,ZBHH 010400Z AUTO 23006KT 6SM 03/M15 A3009 RMK T00301150 IEM_DS3505
ZBHH,2008-12-01 05:00,ZBHH 010500Z AUTO 23014KT 6SM 03/M14 A3006 RMK T00301140 IEM_DS3505
ZBHH,2008-12-01 06:00,ZBHH 010600Z AUTO 22012KT 19SM 04/M14 A3003 RMK SLP205 T00371140 57025 IEM_DS3505
ZBHH,2008-12-01 07:00,ZBHH 010700Z AUTO 24014KT 6SM 04/M14 A3000 RMK T00401140 IEM_DS3505
ZBHH,2008-12-01 08:00,ZBHH 010800Z AUTO 24012KT 6SM 03/M13 A3000 RMK T00301130 IEM_DS3505
ZBHH,2008-12-01 09:00,ZBHH 010900Z AUTO 25008KT 19SM 02/M12 A3000 RMK SLP211 T00191119 57006 IEM_DS3505
ZBHH,2008-12-01 10:00,ZBHH 011000Z AUTO 24004KT 6SM M01/M10 A3000 RMK T10101100 IEM_DS3505
ZBHH,2008-12-01 11:00,ZBHH 011100Z AUTO 09006KT 6SM M04/M11 A3000 RMK T10401110 IEM_DS3505
ZBHH,2008-12-01 12:00,ZBHH 011200Z AUTO 07004KT 19SM M01/M11 A3000 RMK SLP220 T10101114 52001 IEM_DS3505
ZBHH,2008-12-01 13:00,ZBHH 011300Z AUTO 03006KT 5SM M05/M11 A3000 RMK T10501110 IEM_DS3505
ZBHH,2008-12-01 14:00,ZBHH 011400Z AUTO 05006KT 6SM M09/M13 A3000 RMK T10901130 IEM_DS3505
ZBHH,2008-12-01 15:00,ZBHH 011500Z AUTO 09002KT 19SM M03/M12 A3000 RMK SLP211 T10331115 57005 IEM_DS3505
ZBHH,2008-12-01 16:00,ZBHH 011600Z AUTO 04006KT 6SM M07/M12 A3000 RMK T10701120 IEM_DS3505
ZBHH,2008-12-01 17:00,ZBHH 011700Z AUTO 06006KT 6SM M10/M13 A2997 RMK T11001130 IEM_DS3505
ZBHH,2008-12-01 18:00,ZBHH 011800Z AUTO 07002KT 19SM M05/M12 A2997 RMK SLP202 T10491119 57007 IEM_DS3505
ZBHH,2008-12-01 19:00,ZBHH 011900Z AUTO 06004KT 6SM M10/M13 A2997 RMK T11001130 IEM_DS3505
ZBHH,2008-12-01 20:00,ZBHH 012000Z AUTO 08006KT 6SM M09/M13 A2994 RMK T10901130 IEM_DS3505
ZBHH,2008-12-01 21:00,ZBHH 012100Z AUTO 09002KT 19SM M06/M11 A2994 RMK SLP196 T10571110 57011 IEM_DS3505
ZBHH,2008-12-01 22:00,ZBHH 012200Z AUTO 06004KT 6SM M11/M14 A2994 RMK T11101140 IEM_DS3505
ZBHH,2008-12-01 23:00,ZBHH 012300Z AUTO 08004KT 6SM M11/M14 A2991 RMK T11101140 IEM_DS3505
ZBHH,2008-12-02 00:00,ZBHH 020000Z AUTO 09002KT 9SM M06/M11 A2994 RMK SLP203 T10651109 57002 IEM_DS3505
ZBHH,2008-12-02 01:00,ZBHH 020100Z AUTO 05006KT 4SM M07/M11 A2994 RMK T10701110 IEM_DS3505
ZBHH,2008-12-02 02:00,ZBHH 020200Z AUTO 07004KT 6SM M03/M10 A2994 RMK T10301100 IEM_DS3505
ZBHH,2008-12-02 03:00,ZBHH 020300Z AUTO 07002KT 12SM M00/M12 A2991 RMK SLP188 T10011121 57004 IEM_DS3505
ZBHH,2008-12-02 04:00,ZBHH 020400Z AUTO 21006KT 6SM 01/M13 A2988 RMK T00101130 IEM_DS3505
ZBHH,2008-12-02 05:00,ZBHH 020500Z AUTO 24006KT 6SM 02/M13 A2985 RMK T00201130 IEM_DS3505
ZBHH,2008-12-02 06:00,ZBHH 020600Z AUTO 22008KT 19SM 04/M13 A2983 RMK SLP150 T00371127 57029 IEM_DS3505
ZBHH,2008-12-02 07:00,ZBHH 020700Z AUTO 23012KT 6SM 05/M13 A2980 RMK T00501130 IEM_DS3505
ZBHH,2008-12-02 08:00,ZBHH 020800Z AUTO 23008KT 6SM 05/M12 A2980 RMK T00501120 IEM_DS3505
ZBHH,2008-12-02 09:00,ZBHH 020900Z AUTO 25002KT 19SM 04/M12 A2980 RMK SLP146 T00431122 57004 IEM_DS3505
ZBHH,2008-12-02 10:00,ZBHH 021000Z AUTO 03004KT 5SM M02/M11 A2983 RMK T10201110 IEM_DS3505
ZBHH,2008-12-02 11:00,ZBHH 021100Z AUTO 05006KT 4SM M06/M12 A2985 RMK T10601120 IEM_DS3505
ZBHH,2008-12-02 12:00,ZBHH 021200Z AUTO 11002KT 19SM M01/M12 A2985 RMK SLP177 T10101117 52014 IEM_DS3505
ZBHH,2008-12-02 13:00,ZBHH 021300Z AUTO 04006KT 6SM M05/M11 A2985 RMK T10501110 IEM_DS3505
ZBHH,2008-12-02 14:00,ZBHH 021400Z AUTO 04004KT 6SM M06/M11 A2988 RMK T10601110 IEM_DS3505
ZBHH,2008-12-02 15:00,ZBHH 021500Z AUTO 00000KT 12SM M02/M11 A2988 RMK SLP172 T10191107 52008 IEM_DS3505
ZBHH,2008-12-02 16:00,ZBHH 021600Z AUTO 11004KT 6SM M05/M10 A2988 RMK T10501100 IEM_DS3505
ZBHH,2008-12-02 17:00,ZBHH 021700Z AUTO 01002KT 6SM M04/M10 A2991 RMK T10401100 IEM_DS3505
ZBHH,2008-12-02 18:00,ZBHH 021800Z AUTO 36004KT 12SM M01/M11 A2991 RMK SLP177 T10131112 52014 IEM_DS3505
ZBHH,2008-12-02 19:00,ZBHH 021900Z AUTO 35008KT 6SM 01/M11 A2997 RMK T00101110 IEM_DS3505
ZBHH,2008-12-02 20:00,ZBHH 022000Z AUTO 29002KT 6SM M01/M10 A2997 RMK T10101100 IEM_DS3505
ZBHH,2008-12-02 21:00,ZBHH 022100Z AUTO 34004KT 19SM M00/M12 A2997 RMK SLP192 T10011118 52017 IEM_DS3505
ZBHH,2008-12-02 22:00,ZBHH 022200Z AUTO 35008KT 6SM M02/M11 A3000 RMK T10201110 IEM_DS3505
ZBHH,2008-12-02 23:00,ZBHH 022300Z AUTO 01008KT 7SM M02/M11 A3000 RMK T10201110 IEM_DS3505
ZBHH,2008-12-03 00:00,ZBHH 030000Z AUTO 32004KT 19SM M01/M13 A3003 RMK SLP230 T10091134 52020 IEM_DS3505
ZBHH,2008-12-03 01:00,ZBHH 030100Z AUTO 33012KT 7SM M01/M11 A3006 RMK T10101110 IEM_DS3505
ZBHH,2008-12-03 02:00,ZBHH 030200Z AUTO 35014KT 7SM M03/M10 A3009 RMK T10301100 IEM_DS3505
ZBHH,2008-12-03 03:00,ZBHH 030300Z AUTO 32008KT 19SM M02/M12 A3012 RMK SLP264 T10221120 52025 IEM_DS3505
ZBHH,2008-12-03 04:00,ZBHH 030400Z AUTO 35012KT 7SM M02/M11 A3012 RMK T10201110 IEM_DS3505
ZBHH,2008-12-03 05:00,ZBHH 030500Z AUTO 34012KT 7SM M01/M12 A3009 RMK T10101120 IEM_DS3505
ZBHH,2008-12-03 06:00,ZBHH 030600Z AUTO 34008KT 19SM M02/M13 A3009 RMK SLP257 T10231126 57005 IEM_DS3505
ZBHH,2008-12-03 07:00,ZBHH 030700Z AUTO 35014KT 7SM M03/M11 A3012 RMK T10301110 IEM_DS3505
ZBHH,2008-12-03 08:00,ZBHH 030800Z AUTO 32012KT 7SM M04/M12 A3015 RMK T10401120 IEM_DS3505
ZBHH,2008-12-03 09:00,ZBHH 030900Z AUTO 29008KT 19SM M05/M15 A3018 RMK SLP285 T10471154 52022 IEM_DS3505
ZBHH,2008-12-03 10:00,ZBHH 031000Z AUTO 35014KT 7SM M07/M14 A3021 RMK T10701140 IEM_DS3505
ZBHH,2008-12-03 11:00,ZBHH 031100Z AUTO 36006KT 7SM M07/M15 A3024 RMK T10701150 IEM_DS3505
ZBHH,2008-12-03 12:00,ZBHH 031200Z AUTO 29004KT 19SM M07/M16 A3027 RMK SLP324 T10731164 52026 IEM_DS3505
ZBHH,2008-12-03 13:00,ZBHH 031300Z AUTO 35014KT 7SM M08/M16 A3030 RMK T10801160 IEM_DS3505
ZBHH,2008-12-03 14:00,ZBHH 031400Z AUTO 35012KT 7SM M09/M15 A3033 RMK T10901150 IEM_DS3505
ZBHH,2008-12-03 15:00,ZBHH 031500Z AUTO 29006KT 19SM M09/M19 A3033 RMK SLP358 T10911186 52023 IEM_DS3505
ZBHH,2008-12-03 16:00,ZBHH 031600Z AUTO 32010KT 7SM M10/M17 A3036 RMK T11001170 IEM_DS3505
ZBHH,2008-12-03 17:00,ZBHH 031700Z AUTO 32008KT 7SM M11/M17 A3036 RMK T11101170 IEM_DS3505
ZBHH,2008-12-03 18:00,ZBHH 031800Z AUTO 32006KT 19SM M12/M20 A3039 RMK 60000 SLP382 T11151201 52015 IEM_DS3505
ZBHH,2008-12-03 19:00,ZBHH 031900Z AUTO 34010KT 7SM M13/M20 A3042 RMK T11301200 IEM_DS3505
ZBHH,2008-12-03 20:00,ZBHH 032000Z AUTO 33010KT 7SM M15/M21 A3042 RMK T11501210 IEM_DS3505
ZBHH,2008-12-03 21:00,ZBHH 032100Z AUTO 29006KT 19SM M15/M24 A3042 RMK 70000 SLP411 T11511237 52012 IEM_DS3505
ZBHH,2008-12-03 22:00,ZBHH 032200Z AUTO 34014KT 7SM M16/M23 A3045 RMK T11601230 IEM_DS3505
ZBHH,2008-12-03 23:00,ZBHH 032300Z AUTO 33012KT 7SM M17/M24 A3047 RMK T11701240 IEM_DS3505
ZBHH,2008-12-04 00:00,ZBHH 040000Z AUTO 34008KT 19SM M17/M25 A3047 RMK 70000 SLP443 T11691251 52017 IEM_DS3505
ZBHH,2008-12-04 01:00,ZBHH 040100Z AUTO 01010KT 6SM M17/M25 A3050 RMK T11701250 IEM_DS3505
ZBHH,2008-12-04 02:00,ZBHH 040200Z AUTO 33014G23KT 7SM M15/M27 A3053 RMK T11501270 IEM_DS3505
ZBHH,2008-12-04 03:00,ZBHH 040300Z AUTO 32010KT 19SM M16/M28 A3053 RMK SLP468 T11571277 52021 IEM_DS3505
ZBHH,2008-12-04 04:00,ZBHH 040400Z AUTO 33016G25KT 7SM M16/M29 A3053 RMK T11601290 IEM_DS3505
ZBHH,2008-12-04 05:00,ZBHH 040500Z AUTO 33014KT 7SM M16/M30 A3053 RMK T11601300 IEM_DS3505
ZBHH,2008-12-04 06:00,ZBHH 040600Z AUTO 29006G25KT 19SM M15/M29 A3053 RMK SLP465 T11541291 57008 IEM_DS3505
ZBHH,2008-12-04 07:00,ZBHH 040700Z AUTO 30014KT 7SM M15/M29 A3053 RMK T11501290 IEM_DS3505
ZBHH,2008-12-04 08:00,ZBHH 040800Z AUTO 31019G33KT 7SM M15/M29 A3053 RMK T11501290 IEM_DS3505
ZBHH,2008-12-04 09:00,ZBHH 040900Z AUTO 29012KT 19SM M16/M31 A3056 RMK SLP484 T11591306 52007 IEM_DS3505
ZBHH,2008-12-04 10:00,ZBHH 041000Z AUTO 33012KT 7SM M17/M27 A3056 RMK T11701270 IEM_DS3505
ZBHH,2008-12-04 11:00,ZBHH 041100Z AUTO 33010G21KT 7SM M17/M28 A3056 RMK T11701280 IEM_DS3505
ZBHH,2008-12-04 12:00,ZBHH 041200Z AUTO 29008KT 19SM M17/M29 A3053 RMK SLP490 T11701292 57002 IEM_DS3505
ZBHH,2008-12-04 13:00,ZBHH 041300Z AUTO 29016KT 6SM M18/M28 A3053 RMK T11801280 IEM_DS3505
ZBHH,2008-12-04 14:00,ZBHH 041400Z AUTO 29010KT 6SM M18/M28 A3050 RMK T11801280 IEM_DS3505
ZBHH,2008-12-04 15:00,ZBHH 041500Z AUTO 25002KT 19SM M17/M30 A3050 RMK SLP468 T11691304 57016 IEM_DS3505
ZBHH,2008-12-04 16:00,ZBHH 041600Z AUTO 29012KT 6SM M17/M27 A3047 RMK T11701270 IEM_DS3505
ZBHH,2008-12-04 17:00,ZBHH 041700Z AUTO 23006KT 6SM M18/M28 A3047 RMK T11801280 IEM_DS3505
ZBHH,2008-12-04 18:00,ZBHH 041800Z AUTO 25004KT 19SM M17/M27 A3047 RMK SLP457 T11691273 57009 IEM_DS3505
ZBHH,2008-12-04 19:00,ZBHH 041900Z AUTO 10004KT 6SM M21/M27 A3045 RMK T12101270 IEM_DS3505
ZBHH,2008-12-04 20:00,ZBHH 042000Z AUTO 09002KT 6SM M21/M27 A3045 RMK T12101270 IEM_DS3505
ZBHH,2008-12-04 21:00,ZBHH 042100Z AUTO 22004KT 19SM M17/M26 A3042 RMK SLP441 T11701264 57015 IEM_DS3505
ZBHH,2008-12-04 22:00,ZBHH 042200Z AUTO 08004KT 6SM M21/M26 A3042 RMK T12101260 IEM_DS3505
ZBHH,2008-12-04 23:00,ZBHH 042300Z AUTO 11006KT 6SM M21/M25 A3045 RMK T12101250 IEM_DS3505
ZBHH,2008-12-05 00:00,ZBHH 050000Z AUTO 04004KT 19SM M19/M25 A3045 RMK SLP456 T11871249 52006 IEM_DS3505
ZBHH,2008-12-05 01:00,ZBHH 050100Z AUTO 09002KT 6SM M18/M23 A3045 RMK T11801230 IEM_DS3505
ZBHH,2008-12-05 02:00,ZBHH 050200Z AUTO 18002KT 6SM M16/M22 A3045 RMK T11601220 IEM_DS3505
ZBHH,2008-12-05 03:00,ZBHH 050300Z AUTO 22002KT 19SM M13/M22 A3045 RMK SLP442 T11311225 52002 IEM_DS3505
ZBHH,2008-12-05 04:00,ZBHH 050400Z AUTO 22006KT 6SM M12/M22 A3042 RMK T11201220 IEM_DS3505
ZBHH,2008-12-05 05:00,ZBHH 050500Z AUTO 25010KT 6SM M11/M23 A3039 RMK T11101230 IEM_DS3505
ZBHH,2008-12-05 06:00,ZBHH 050600Z AUTO 22006KT 19SM M08/M24 A3036 RMK SLP403 T10821239 57023 IEM_DS3505
ZBHH,2008-12-05 07:00,ZBHH 050700Z AUTO 29014KT 6SM M09/M22 A3036 RMK T10901220 IEM_DS3505
ZBHH,2008-12-05 08:00,ZBHH 050800Z AUTO 31012KT 6SM M09/M21 A3036 RMK T10901210 IEM_DS3505
ZBHH,2008-12-05 09:00,ZBHH 050900Z AUTO 32008KT 19SM M09/M22 A3039 RMK SLP410 T10911218 52004 IEM_DS3505
ZBHH,2008-12-05 10:00,ZBHH 051000Z AUTO 31014KT 6SM M10/M21 A3039 RMK T11001210 IEM_DS3505
ZBHH,2008-12-05 11:00,ZBHH 051100Z AUTO 28006KT 6SM M11/M21 A3039 RMK T11101210 IEM_DS3505
ZBHH,2008-12-05 12:00,ZBHH 051200Z AUTO 32002KT 19SM M11/M21 A3042 RMK SLP430 T11141210 52008 IEM_DS3505
ZBHH,2008-12-05 13:00,ZBHH 051300Z AUTO 27008KT 6SM M12/M20 A3039 RMK T11201200 IEM_DS3505
ZBHH,2008-12-05 14:00,ZBHH 051400Z AUTO 15002KT 6SM M13/M20 A3039 RMK T11301200 IEM_DS3505
ZBHH,2008-12-05 15:00,ZBHH 051500Z AUTO 27002KT 19SM M12/M20 A3039 RMK SLP407 T11241202 57009 IEM_DS3505
ZBHH,2008-12-05 16:00,ZBHH 051600Z AUTO 06004KT 6SM M17/M22 A3039 RMK T11701220 IEM_DS3505
ZBHH,2008-12-05 17:00,ZBHH 051700Z AUTO 10006KT 6SM M17/M22 A3036 RMK T11701220 IEM_DS3505
ZBHH,2008-12-05 18:00,ZBHH 051800Z AUTO 04006KT 19SM M14/M21 A3036 RMK SLP386 T11361214 57010 IEM_DS3505
ZBHH,2008-12-05 19:00,ZBHH 051900Z AUTO 07006KT 6SM M19/M23 A3036 RMK T11901230 IEM_DS3505
ZBHH,2008-12-05 20:00,ZBHH 052000Z AUTO 09006KT 6SM M20/M23 A3033 RMK T12001230 IEM_DS3505
ZBHH,2008-12-05 21:00,ZBHH 052100Z AUTO 09002KT 19SM M15/M22 A3030 RMK SLP371 T11511217 57018 IEM_DS3505
ZBHH,2008-12-05 22:00,ZBHH 052200Z AUTO 05004KT 6SM M21/M24 A3030 RMK T12101240 IEM_DS3505
ZBHH,2008-12-05 23:00,ZBHH 052300Z AUTO 07004KT 6SM M20/M24 A3030 RMK T12001240 IEM_DS3505
ZBHH,2008-12-06 00:00,ZBHH 060000Z AUTO 04004KT 19SM M15/M22 A3027 RMK SLP375 T11491217 57002 IEM_DS3505
ZBHH,2008-12-06 01:00,ZBHH 060100Z AUTO 08004KT 6SM M15/M20 A3027 RMK T11501200 IEM_DS3505
ZBHH,2008-12-06 02:00,ZBHH 060200Z AUTO 15004KT 6SM M12/M22 A3027 RMK T11201220 IEM_DS3505
ZBHH,2008-12-06 03:00,ZBHH 060300Z AUTO 07002KT 19SM M10/M21 A3024 RMK SLP350 T11041211 57013 IEM_DS3505
ZBHH,2008-12-06 04:00,ZBHH 060400Z AUTO 23004KT 6SM M09/M22 A3021 RMK T10901220 IEM_DS3505
ZBHH,2008-12-06 05:00,ZBHH 060500Z AUTO 27004KT 6SM M08/M22 A3015 RMK T10801220 IEM_DS3505
ZBHH,2008-12-06 06:00,ZBHH 060600Z AUTO 07002KT 12SM M09/M21 A3012 RMK SLP305 T10871214 57038 IEM_DS3505
ZBHH,2008-12-06 07:00,ZBHH 060700Z AUTO 01004KT 7SM M08/M21 A3009 RMK T10801210 IEM_DS3505
ZBHH,2008-12-06 08:00,ZBHH 060800Z AUTO 36002KT 7SM M08/M21 A3006 RMK T10801210 IEM_DS3505
ZBHH,2008-12-06 09:00,ZBHH 060900Z AUTO 00000KT 12SM M08/M22 A3003 RMK SLP280 T10751217 57023 IEM_DS3505
ZBHH,2008-12-06 10:00,ZBHH 061000Z AUTO 14002KT 7SM M09/M22 A3003 RMK T10901220 IEM_DS3505
ZBHH,2008-12-06 11:00,ZBHH 061100Z AUTO 18002KT 4SM M12/M21 A3006 RMK T11201210 IEM_DS3505
ZBHH,2008-12-06 12:00,ZBHH 061200Z AUTO 07004KT 9SM M09/M21 A3006 RMK SLP292 T10891210 52008 IEM_DS3505
ZBHH,2008-12-06 13:00,ZBHH 061300Z AUTO 07004KT 6SM M12/M21 A3006 RMK T11201210 IEM_DS3505
ZBHH,2008-12-06 14:00,ZBHH 061400Z AUTO 05002KT 6SM M13/M20 A3006 RMK T11301200 IEM_DS3505
ZBHH,2008-12-06 15:00,ZBHH 061500Z AUTO 25002KT 12SM M11/M22 A3006 RMK SLP284 T11091216 57001 IEM_DS3505
ZBHH,2008-12-06 16:00,ZBHH 061600Z AUTO 02002KT 4SM M14/M20 A3006 RMK T11401200 IEM_DS3505
ZBHH,2008-12-06 17:00,ZBHH 061700Z AUTO 09004KT 6SM M16/M21 A3006 RMK T11601210 IEM_DS3505
ZBHH,2008-12-06 18:00,ZBHH 061800Z AUTO 34002KT 9SM M12/M20 A3006 RMK SLP279 T11151196 57002 IEM_DS3505
ZBHH,2008-12-06 19:00,ZBHH 061900Z AUTO 06004KT 6SM M18/M22 A3006 RMK T11801220 IEM_DS3505
ZBHH,2008-12-06 20:00,ZBHH 062000Z AUTO 07004KT 6SM M17/M22 A3006 RMK T11701220 IEM_DS3505
ZBHH,2008-12-06 21:00,ZBHH 062100Z AUTO 04002KT 9SM M12/M21 A3003 RMK SLP276 T11251210 57002 IEM_DS3505
ZBHH,2008-12-06 22:00,ZBHH 062200Z AUTO 04006KT 6SM M17/M21 A3003 RMK T11701210 IEM_DS3505
ZBHH,2008-12-06 23:00,ZBHH 062300Z AUTO 03006KT 6SM M17/M21 A3003 RMK T11701210 IEM_DS3505
ZBHH,2008-12-07 00:00,ZBHH 070000Z AUTO 07002KT 12SM M12/M20 A3003 RMK SLP275 T11241198 57004 IEM_DS3505
ZBHH,2008-12-07 01:00,ZBHH 070100Z AUTO 09004KT 4SM M12/M17 A3006 RMK T11201170 IEM_DS3505
ZBHH,2008-12-07 02:00,ZBHH 070200Z AUTO 11004KT 4SM M10/M18 A3003 RMK T11001180 IEM_DS3505
ZBHH,2008-12-07 03:00,ZBHH 070300Z AUTO 09004KT 6SM M08/M20 A3003 RMK SLP266 T10811199 57003 IEM_DS3505
ZBHH,2008-12-07 04:00,ZBHH 070400Z AUTO 05004KT 5SM M08/M18 A3000 RMK T10801180 IEM_DS3505
ZBHH,2008-12-07 05:00,ZBHH 070500Z AUTO 34002KT 4SM M06/M18 A2997 RMK T10601180 IEM_DS3505
ZBHH,2008-12-07 06:00,ZBHH 070600Z AUTO 25002KT 6SM M05/M19 A2997 RMK SLP246 T10511192 57012 IEM_DS3505
ZBHH,2008-12-07 07:00,ZBHH 070700Z AUTO 24002KT 4SM M06/M18 A2997 RMK T10601180 IEM_DS3505
ZBHH,2008-12-07 08:00,ZBHH 070800Z AUTO 14002KT 2 1/2SM M05/M17 A3000 RMK T10501170 IEM_DS3505
ZBHH,2008-12-07 09:00,ZBHH 070900Z AUTO 09004KT 6SM M05/M19 A3000 RMK SLP254 T10521193 52005 IEM_DS3505
ZBHH,2008-12-07 10:00,ZBHH 071000Z AUTO 08004KT 4SM M07/M18 A3000 RMK T10701180 IEM_DS3505
ZBHH,2008-12-07 11:00,ZBHH 071100Z AUTO 04002KT 4SM M07/M17 A3003 RMK T10701170 IEM_DS3505
ZBHH,2008-12-07 12:00,ZBHH 071200Z AUTO 34002KT 12SM M07/M18 A3003 RMK SLP272 T10721185 52011 IEM_DS3505
ZBHH,2008-12-07 13:00,ZBHH 071300Z AUTO 09004KT 4SM M11/M18 A3003 RMK T11101180 IEM_DS3505
ZBHH,2008-12-07 14:00,ZBHH 071400Z AUTO 08004KT 4SM M11/M18 A3003 RMK T11101180 IEM_DS3505
ZBHH,2008-12-07 15:00,ZBHH 071500Z AUTO 00000KT 12SM M10/M18 A3000 RMK SLP255 T10961176 57010 IEM_DS3505
ZBHH,2008-12-07 16:00,ZBHH 071600Z AUTO 08004KT 4SM M12/M17 A3000 RMK T11201170 IEM_DS3505
ZBHH,2008-12-07 17:00,ZBHH 071700Z AUTO 04006KT 4SM M13/M17 A2994 RMK T11301170 IEM_DS3505
ZBHH,2008-12-07 18:00,ZBHH 071800Z AUTO 09002KT 12SM M10/M17 A2991 RMK SLP223 T10971170 57022 IEM_DS3505
ZBHH,2008-12-07 19:00,ZBHH 071900Z AUTO 05004KT 4SM M11/M16 A2991 RMK T11101160 IEM_DS3505
ZBHH,2008-12-07 20:00,ZBHH 072000Z AUTO 04004KT 4SM M09/M15 A2988 RMK T10901150 IEM_DS3505
ZBHH,2008-12-07 21:00,ZBHH 072100Z AUTO 07004KT 12SM M08/M16 A2985 RMK SLP196 T10801159 57020 IEM_DS3505
ZBHH,2008-12-07 22:00,ZBHH 072200Z AUTO 02004KT 4SM M09/M15 A2985 RMK T10901150 IEM_DS3505
ZBHH,2008-12-07 23:00,ZBHH 072300Z AUTO 03006KT 4SM M09/M15 A2983 RMK T10901150 IEM_DS3505
ZBHH,2008-12-08 00:00,ZBHH 080000Z AUTO 32002KT 6SM M09/M16 A2983 RMK SLP188 T10871163 57013 IEM_DS3505
ZBHH,2008-12-08 01:00,ZBHH 080100Z AUTO 09004KT 2SM M09/M13 A2983 RMK T10901130 IEM_DS3505
ZBHH,2008-12-08 02:00,ZBHH 080200Z AUTO 12004KT 1 1/2SM M06/M13 A2980 RMK T10601130 IEM_DS3505
ZBHH,2008-12-08 03:00,ZBHH 080300Z AUTO 02002KT 6SM M05/M14 A2980 RMK SLP173 T10491145 57010 IEM_DS3505
ZBHH,2008-12-08 04:00,ZBHH 080400Z AUTO 28002KT 1 1/2SM M04/M13 A2977 RMK T10401130 IEM_DS3505
ZBHH,2008-12-08 05:00,ZBHH 080500Z AUTO 03002KT 1 1/2SM M03/M12 A2974 RMK T10301120 IEM_DS3505
ZBHH,2008-12-08 06:00,ZBHH 080600Z AUTO 25002KT 7SM M02/M12 A2974 RMK SLP139 T10161125 57022 IEM_DS3505
ZBHH,2008-12-08 07:00,ZBHH 080700Z AUTO 05004KT 1 1/2SM M02/M12 A2971 RMK T10201120 IEM_DS3505
ZBHH,2008-12-08 08:00,ZBHH 080800Z AUTO 03004KT 1 1/2SM M02/M12 A2974 RMK T10201120 IEM_DS3505
ZBHH,2008-12-08 09:00,ZBHH 080900Z AUTO 07002KT 6SM M02/M12 A2974 RMK SLP144 T10211124 52007 IEM_DS3505
ZBHH,2008-12-08 10:00,ZBHH 081000Z AUTO 05004KT 2SM M03/M11 A2974 RMK T10301110 IEM_DS3505
ZBHH,2008-12-08 11:00,ZBHH 081100Z AUTO 08004KT 2SM M05/M12 A2974 RMK T10501120 IEM_DS3505
ZBHH,2008-12-08 12:00,ZBHH 081200Z AUTO 36002KT 6SM M04/M12 A2974 RMK SLP154 T10371119 52003 IEM_DS3505
ZBHH,2008-12-08 13:00,ZBHH 081300Z AUTO 36004KT 2SM M07/M12 A2977 RMK T10701120 IEM_DS3505
ZBHH,2008-12-08 14:00,ZBHH 081400Z AUTO 08004KT 2SM M08/M13 A2977 RMK T10801130 IEM_DS3505
ZBHH,2008-12-08 15:00,ZBHH 081500Z AUTO 09002KT 4SM M05/M11 A2977 RMK SLP151 T10531114 52003 IEM_DS3505
ZBHH,2008-12-08 16:00,ZBHH 081600Z AUTO 06004KT 2SM M09/M13 A2977 RMK T10901130 IEM_DS3505
ZBHH,2008-12-08 17:00,ZBHH 081700Z AUTO 06004KT 3SM M09/M12 A2977 RMK T10901120 IEM_DS3505
ZBHH,2008-12-08 18:00,ZBHH 081800Z AUTO 27002KT 6SM M06/M12 A2977 RMK SLP147 T10621115 52001 IEM_DS3505
ZBHH,2008-12-08 19:00,ZBHH 081900Z AUTO 08004KT 3SM M10/M13 A2977 RMK T11001130 IEM_DS3505
ZBHH,2008-12-08 20:00,ZBHH 082000Z AUTO 08004KT 3SM M11/M13 A2977 RMK T11101130 IEM_DS3505
ZBHH,2008-12-08 21:00,ZBHH 082100Z AUTO 27002KT 7SM M07/M12 A2977 RMK SLP151 T10741117 54000 IEM_DS3505
ZBHH,2008-12-08 22:00,ZBHH 082200Z AUTO 10004KT 3SM M10/M13 A2980 RMK T11001130 IEM_DS3505
ZBHH,2008-12-08 23:00,ZBHH 082300Z AUTO 08006KT 3SM M10/M12 A2980 RMK T11001120 IEM_DS3505
ZBHH,2008-12-09 00:00,ZBHH 090000Z AUTO 09004KT 7SM M06/M11 A2985 RMK SLP177 T10621111 52022 IEM_DS3505
ZBHH,2008-12-09 01:00,ZBHH 090100Z AUTO 05004KT 2 1/2SM M06/M10 A2988 RMK T10601100 IEM_DS3505
ZBHH,2008-12-09 02:00,ZBHH 090200Z AUTO 09004KT 2 1/2SM M03/M10 A2988 RMK T10301100 IEM_DS3505
ZBHH,2008-12-09 03:00,ZBHH 090300Z AUTO 14002KT 7SM 00/M11 A2988 RMK SLP186 T00021106 52018 IEM_DS3505
ZBHH,2008-12-09 04:00,ZBHH 090400Z AUTO 30004KT 6SM 01/M10 A2988 RMK T00101100 IEM_DS3505
ZBHH,2008-12-09 05:00,ZBHH 090500Z AUTO 23006KT 5SM 02/M10 A2988 RMK T00201100 IEM_DS3505
ZBHH,2008-12-09 06:00,ZBHH 090600Z AUTO 11002KT 6SM 02/M11 A2988 RMK SLP176 T00231112 57006 IEM_DS3505
ZBHH,2008-12-09 07:00,ZBHH 090700Z AUTO 24002KT 5SM 02/M10 A2985 RMK T00201100 IEM_DS3505
ZBHH,2008-12-09 08:00,ZBHH 090800Z AUTO 22002KT 5SM 02/M10 A2988 RMK T00201100 IEM_DS3505
ZBHH,2008-12-09 09:00,ZBHH 090900Z AUTO 36002KT 6SM 01/M10 A2988 RMK SLP183 T00141104 52002 IEM_DS3505
ZBHH,2008-12-09 10:00,ZBHH 091000Z AUTO 34002KT 4SM M01/M09 A2988 RMK T10101090 IEM_DS3505
ZBHH,2008-12-09 11:00,ZBHH 091100Z AUTO 06004KT 3SM M03/M10 A2991 RMK T10301100 IEM_DS3505
ZBHH,2008-12-09 12:00,ZBHH 091200Z AUTO 32002KT 4SM 00/M10 A2991 RMK SLP191 T00031100 52007 IEM_DS3505
ZBHH,2008-12-09 13:00,ZBHH 091300Z AUTO 05004KT 6SM M02/M09 A2991 RMK T10201090 IEM_DS3505
ZBHH,2008-12-09 14:00,ZBHH 091400Z AUTO 05004KT 6SM M02/M08 A2991 RMK T10201080 IEM_DS3505
ZBHH,2008-12-09 15:00,ZBHH 091500Z AUTO 04002KT 7SM M01/M10 A2991 RMK SLP179 T10121098 54000 IEM_DS3505
ZBHH,2008-12-09 16:00,ZBHH 091600Z AUTO 07010KT 7SM M01/M06 A2991 RMK T10101060 IEM_DS3505
ZBHH,2008-12-09 17:00,ZBHH 091700Z AUTO 04004KT 7SM M02/M06 A2991 RMK T10201060 IEM_DS3505
ZBHH,2008-12-09 18:00,ZBHH 091800Z AUTO 09002KT 9SM M01/M07 A2991 RMK SLP177 T10101074 52003 IEM_DS3505
ZBHH,2008-12-09 19:00,ZBHH 091900Z AUTO 09004KT 7SM M03/M06 A2991 RMK T10301060 IEM_DS3505
ZBHH,2008-12-09 20:00,ZBHH 092000Z AUTO 03006KT 7SM M01/M06 A2991 RMK T10101060 IEM_DS3505
ZBHH,2008-12-09 21:00,ZBHH 092100Z AUTO 18004KT 9SM M01/M09 A2994 RMK SLP186 T10101087 52006 IEM_DS3505
ZBHH,2008-12-09 22:00,ZBHH 092200Z AUTO 34008KT 7SM M02/M07 A2997 RMK T10201070 IEM_DS3505
ZBHH,2008-12-09 23:00,ZBHH 092300Z AUTO 34016KT 7SM M04/M08 A3000 RMK T10401080 IEM_DS3505
ZBHH,2008-12-10 00:00,ZBHH 100000Z AUTO 29008KT 19SM M05/M11 A3006 RMK SLP243 T10471111 52040 IEM_DS3505
ZBHH,2008-12-10 01:00,ZBHH 100100Z AUTO 32014KT 7SM M05/M11 A3009 RMK T10501110 IEM_DS3505
ZBHH,2008-12-10 02:00,ZBHH 100200Z AUTO 33016KT 7SM M05/M12 A3015 RMK T10501120 IEM_DS3505
ZBHH,2008-12-10 03:00,ZBHH 100300Z AUTO 14004KT 19SM M02/M13 A3015 RMK SLP279 T10241133 52033 IEM_DS3505
ZBHH,2008-12-10 04:00,ZBHH 100400Z AUTO 33012KT 6SM M02/M13 A3018 RMK T10201130 IEM_DS3505
ZBHH,2008-12-10 05:00,ZBHH 100500Z AUTO 34016KT 6SM M03/M13 A3015 RMK T10301130 IEM_DS3505
ZBHH,2008-12-10 06:00,ZBHH 100600Z AUTO 29008KT 19SM M02/M14 A3018 RMK SLP282 T10231138 52003 IEM_DS3505
ZBHH,2008-12-10 07:00,ZBHH 100700Z AUTO 35010KT 6SM M02/M13 A3018 RMK T10201130 IEM_DS3505
ZBHH,2008-12-10 08:00,ZBHH 100800Z AUTO 36010KT 6SM M03/M13 A3018 RMK T10301130 IEM_DS3505
ZBHH,2008-12-10 09:00,ZBHH 100900Z AUTO 36004KT 19SM M03/M14 A3018 RMK SLP283 T10301138 54000 IEM_DS3505
ZBHH,2008-12-10 10:00,ZBHH 101000Z AUTO 02008KT 6SM M06/M12 A3018 RMK T10601120 IEM_DS3505
ZBHH,2008-12-10 11:00,ZBHH 101100Z AUTO 08004KT 6SM M07/M13 A3018 RMK T10701130 IEM_DS3505
ZBHH,2008-12-10 12:00,ZBHH 101200Z AUTO 22004KT 19SM M05/M14 A3018 RMK SLP300 T10521135 52002 IEM_DS3505
ZBHH,2008-12-10 13:00,ZBHH 101300Z AUTO 30002KT 6SM M09/M14 A3018 RMK T10901140 IEM_DS3505
ZBHH,2008-12-10 14:00,ZBHH 101400Z AUTO 12004KT 6SM M13/M16 A3018 RMK T11301160 IEM_DS3505
ZBHH,2008-12-10 15:00,ZBHH 101500Z AUTO 09002KT 19SM M08/M14 A3015 RMK SLP288 T10761140 57011 IEM_DS3505
ZBHH,2008-12-10 16:00,ZBHH 101600Z AUTO 03004KT 6SM M13/M17 A3015 RMK T11301170 IEM_DS3505
ZBHH,2008-12-10 17:00,ZBHH 101700Z AUTO 08006KT 6SM M14/M17 A3012 RMK T11401170 IEM_DS3505
ZBHH,2008-12-10 18:00,ZBHH 101800Z AUTO 07004KT 19SM M10/M15 A3009 RMK SLP273 T10971152 57018 IEM_DS3505
ZBHH,2008-12-10 19:00,ZBHH 101900Z AUTO 09004KT 6SM M15/M17 A3009 RMK T11501170 IEM_DS3505
ZBHH,2008-12-10 20:00,ZBHH 102000Z AUTO 05004KT 6SM M14/M17 A3006 RMK T11401170 IEM_DS3505
ZBHH,2008-12-10 21:00,ZBHH 102100Z AUTO 07002KT 19SM M10/M14 A3003 RMK SLP254 T11001141 57019 IEM_DS3505
ZBHH,2008-12-10 22:00,ZBHH 102200Z AUTO 08006KT 6SM M14/M16 A3000 RMK T11401160 IEM_DS3505
ZBHH,2008-12-10 23:00,ZBHH 102300Z AUTO 02004KT 6SM M13/M15 A3003 RMK T11301150 IEM_DS3505
ZBHH,2008-12-11 00:00,ZBHH 110000Z AUTO 11002KT 19SM M10/M14 A3003 RMK SLP256 T11011135 57003 IEM_DS3505
ZBHH,2008-12-11 01:00,ZBHH 110100Z AUTO 05004KT 6SM M12/M14 A3003 RMK T11201140 IEM_DS3505
ZBHH,2008-12-11 02:00,ZBHH 110200Z AUTO 08002KT 6SM M07/M12 A3003 RMK T10701120 IEM_DS3505
ZBHH,2008-12-11 03:00,ZBHH 110300Z AUTO 04002KT 12SM M05/M12 A3000 RMK SLP246 T10531125 57003 IEM_DS3505
ZBHH,2008-12-11 04:00,ZBHH 110400Z AUTO 31002KT 6SM M04/M13 A2997 RMK T10401130 IEM_DS3505
ZBHH,2008-12-11 05:00,ZBHH 110500Z AUTO 36002KT 6SM M03/M13 A2994 RMK T10301130 IEM_DS3505
ZBHH,2008-12-11 06:00,ZBHH 110600Z AUTO 09002KT 12SM M01/M14 A2991 RMK SLP208 T10061138 57028 IEM_DS3505
ZBHH,2008-12-11 07:00,ZBHH 110700Z AUTO 02002KT 6SM M01/M13 A2991 RMK T10101130 IEM_DS3505
ZBHH,2008-12-11 08:00,ZBHH 110800Z AUTO 04004KT 6SM M01/M13 A2991 RMK T10101130 IEM_DS3505
ZBHH,2008-12-11 09:00,ZBHH 110900Z AUTO 07002KT 12SM M02/M14 A2991 RMK SLP208 T10191137 57003 IEM_DS3505
ZBHH,2008-12-11 10:00,ZBHH 111000Z AUTO 08004KT 4SM M05/M14 A2991 RMK T10501140 IEM_DS3505
ZBHH,2008-12-11 11:00,ZBHH 111100Z AUTO 04006KT 4SM M07/M14 A2994 RMK T10701140 IEM_DS3505
ZBHH,2008-12-11 12:00,ZBHH 111200Z AUTO 00000KT 7SM M04/M13 A2994 RMK SLP230 T10451126 52013 IEM_DS3505
ZBHH,2008-12-11 13:00,ZBHH 111300Z AUTO 06004KT 4SM M10/M16 A2997 RMK T11001160 IEM_DS3505
ZBHH,2008-12-11 14:00,ZBHH 111400Z AUTO 05006KT 5SM M09/M15 A3000 RMK T10901150 IEM_DS3505
ZBHH,2008-12-11 15:00,ZBHH 111500Z AUTO 02002KT 7SM M07/M13 A3003 RMK SLP246 T10691126 52019 IEM_DS3505
ZBHH,2008-12-11 16:00,ZBHH 111600Z AUTO 07008KT 6SM M09/M13 A3003 RMK T10901130 IEM_DS3505
ZBHH,2008-12-11 17:00,ZBHH 111700Z AUTO 05002KT 6SM M08/M14 A3006 RMK T10801140 IEM_DS3505
ZBHH,2008-12-11 18:00,ZBHH 111800Z AUTO 07002KT 12SM M04/M12 A3006 RMK SLP240 T10431124 52011 IEM_DS3505
ZBHH,2008-12-11 19:00,ZBHH 111900Z AUTO 35004KT 6SM M07/M13 A3006 RMK T10701130 IEM_DS3505
ZBHH,2008-12-11 20:00,ZBHH 112000Z AUTO 07004KT 6SM M08/M13 A3006 RMK T10801130 IEM_DS3505
ZBHH,2008-12-11 21:00,ZBHH 112100Z AUTO 00000KT 12SM M06/M12 A3006 RMK SLP251 T10591122 52003 IEM_DS3505
ZBHH,2008-12-11 22:00,ZBHH 112200Z AUTO 10002KT 6SM M10/M14 A3006 RMK T11001140 IEM_DS3505
ZBHH,2008-12-11 23:00,ZBHH 112300Z AUTO 07004KT 6SM M10/M13 A3009 RMK T11001130 IEM_DS3505
ZBHH,2008-12-12 00:00,ZBHH 120000Z AUTO 29004KT 12SM M04/M10 A3015 RMK SLP279 T10381104 52024 IEM_DS3505
ZBHH,2008-12-12 01:00,ZBHH 120100Z AUTO 35012KT 6SM M04/M10 A3018 RMK T10401100 IEM_DS3505
ZBHH,2008-12-12 02:00,ZBHH 120200Z AUTO 35010KT 6SM M03/M10 A3021 RMK T10301100 IEM_DS3505
ZBHH,2008-12-12 03:00,ZBHH 120300Z AUTO 04004KT 16SM M01/M12 A3021 RMK SLP306 T10071123 52025 IEM_DS3505
ZBHH,2008-12-12 04:00,ZBHH 120400Z AUTO 35010KT 7SM M01/M11 A3021 RMK T10101110 IEM_DS3505
ZBHH,2008-12-12 05:00,ZBHH 120500Z AUTO 09006KT 7SM 00/M14 A3021 RMK T00001140 IEM_DS3505
ZBHH,2008-12-12 06:00,ZBHH 120600Z AUTO 04006KT 12SM M01/M14 A3021 RMK SLP301 T10071139 52001 IEM_DS3505
ZBHH,2008-12-12 07:00,ZBHH 120700Z AUTO 02012KT 7SM M02/M11 A3024 RMK T10201110 IEM_DS3505
ZBHH,2008-12-12 08:00,ZBHH 120800Z AUTO 02014KT 7SM M03/M12 A3027 RMK T10301120 IEM_DS3505
ZBHH,2008-12-12 09:00,ZBHH 120900Z AUTO 02006KT 19SM M04/M14 A3030 RMK SLP335 T10391144 52019 IEM_DS3505
ZBHH,2008-12-12 10:00,ZBHH 121000Z AUTO 03008KT 7SM M04/M14 A3033 RMK T10401140 IEM_DS3505
ZBHH,2008-12-12 11:00,ZBHH 121100Z AUTO 34010KT 7SM M06/M13 A3033 RMK T10601130 IEM_DS3505
ZBHH,2008-12-12 12:00,ZBHH 121200Z AUTO 07006KT 12SM M06/M15 A3036 RMK SLP362 T10611146 52024 IEM_DS3505
ZBHH,2008-12-12 13:00,ZBHH 121300Z AUTO 33010KT 6SM M08/M15 A3039 RMK T10801150 IEM_DS3505
ZBHH,2008-12-12 14:00,ZBHH 121400Z AUTO 34012KT 6SM M09/M16 A3039 RMK T10901160 IEM_DS3505
ZBHH,2008-12-12 15:00,ZBHH 121500Z AUTO 29002KT 19SM M09/M18 A3042 RMK SLP379 T10891179 52015 IEM_DS3505
ZBHH,2008-12-12 16:00,ZBHH 121600Z AUTO 35012KT 6SM M10/M17 A3042 RMK T11001170 IEM_DS3505
ZBHH,2008-12-12 17:00,ZBHH 121700Z AUTO 34014KT 6SM M11/M18 A3042 RMK T11101180 IEM_DS3505
ZBHH,2008-12-12 18:00,ZBHH 121800Z AUTO 32004KT 19SM M11/M20 A3042 RMK SLP388 T11111197 52003 IEM_DS3505
ZBHH,2008-12-12 19:00,ZBHH 121900Z AUTO 04006KT 6SM M14/M20 A3045 RMK T11401200 IEM_DS3505
ZBHH,2008-12-12 20:00,ZBHH 122000Z AUTO 02008KT 6SM M13/M20 A3042 RMK T11301200 IEM_DS3505
ZBHH,2008-12-12 21:00,ZBHH 122100Z AUTO 29002KT 19SM M12/M21 A3042 RMK SLP395 T11151213 57002 IEM_DS3505
ZBHH,2008-12-12 22:00,ZBHH 122200Z AUTO 36010KT 6SM M12/M21 A3042 RMK T11201210 IEM_DS3505
ZBHH,2008-12-12 23:00,ZBHH 122300Z AUTO 07002KT 6SM M18/M23 A3045 RMK T11801230 IEM_DS3505
ZBHH,2008-12-13 00:00,ZBHH 130000Z AUTO 18002KT 12SM M12/M20 A3045 RMK SLP411 T11221198 52007 IEM_DS3505
ZBHH,2008-12-13 01:00,ZBHH 130100Z AUTO 10002KT 6SM M14/M20 A3047 RMK T11401200 IEM_DS3505
ZBHH,2008-12-13 02:00,ZBHH 130200Z AUTO 16002KT 6SM M10/M20 A3047 RMK T11001200 IEM_DS3505
ZBHH,2008-12-13 03:00,ZBHH 130300Z AUTO 25004KT 12SM M08/M20 A3047 RMK SLP415 T10851197 52006 IEM_DS3505
ZBHH,2008-12-13 04:00,ZBHH 130400Z AUTO 23006KT 6SM M08/M19 A3045 RMK T10801190 IEM_DS3505
ZBHH,2008-12-13 05:00,ZBHH 130500Z AUTO 24006KT 6SM M06/M17 A3039 RMK T10601170 IEM_DS3505
ZBHH,2008-12-13 06:00,ZBHH 130600Z AUTO 25004KT 12SM M04/M19 A3039 RMK SLP380 T10441186 57026 IEM_DS3505
ZBHH,2008-12-13 07:00,ZBHH 130700Z AUTO 22008KT 6SM M04/M18 A3036 RMK T10401180 IEM_DS3505
ZBHH,2008-12-13 08:00,ZBHH 130800Z AUTO 25008KT 6SM M04/M19 A3036 RMK T10401190 IEM_DS3505
ZBHH,2008-12-13 09:00,ZBHH 130900Z AUTO 22004KT 12SM M05/M18 A3036 RMK SLP372 T10471182 57009 IEM_DS3505
ZBHH,2008-12-13 10:00,ZBHH 131000Z AUTO 31004KT 5SM M07/M19 A3036 RMK T10701190 IEM_DS3505
ZBHH,2008-12-13 11:00,ZBHH 131100Z AUTO 09004KT 4SM M10/M19 A3036 RMK T11001190 IEM_DS3505
ZBHH,2008-12-13 12:00,ZBHH 131200Z AUTO 32002KT 12SM M08/M18 A3036 RMK SLP384 T10791178 52002 IEM_DS3505
ZBHH,2008-12-13 13:00,ZBHH 131300Z AUTO 09004KT 4SM M13/M19 A3036 RMK T11301190 IEM_DS3505
ZBHH,2008-12-13 14:00,ZBHH 131400Z AUTO 09004KT 5SM M15/M20 A3036 RMK T11501200 IEM_DS3505
ZBHH,2008-12-13 15:00,ZBHH 131500Z AUTO 07004KT 12SM M09/M17 A3036 RMK SLP376 T10921172 57002 IEM_DS3505
ZBHH,2008-12-13 16:00,ZBHH 131600Z AUTO 08004KT 6SM M15/M19 A3036 RMK T11501190 IEM_DS3505
ZBHH,2008-12-13 17:00,ZBHH 131700Z AUTO 06004KT 6SM M15/M19 A3033 RMK T11501190 IEM_DS3505
ZBHH,2008-12-13 18:00,ZBHH 131800Z AUTO 00000KT 12SM M11/M17 A3033 RMK SLP361 T11111169 57008 IEM_DS3505
ZBHH,2008-12-13 19:00,ZBHH 131900Z AUTO 06004KT 6SM M16/M19 A3033 RMK T11601190 IEM_DS3505
ZBHH,2008-12-13 20:00,ZBHH 132000Z AUTO 07006KT 6SM M17/M20 A3033 RMK T11701200 IEM_DS3505
ZBHH,2008-12-13 21:00,ZBHH 132100Z AUTO 09002KT 19SM M12/M17 A3030 RMK SLP355 T11161172 57007 IEM_DS3505
ZBHH,2008-12-13 22:00,ZBHH 132200Z AUTO 05006KT 6SM M17/M19 A3030 RMK T11701190 IEM_DS3505
ZBHH,2008-12-13 23:00,ZBHH 132300Z AUTO 07004KT 6SM M17/M20 A3030 RMK T11701200 IEM_DS3505
ZBHH,2008-12-14 00:00,ZBHH 140000Z AUTO 07002KT 19SM M12/M17 A3030 RMK SLP364 T11171170 54000 IEM_DS3505
ZBHH,2008-12-14 01:00,ZBHH 140100Z AUTO 09004KT 6SM M14/M17 A3033 RMK T11401170 IEM_DS3505
ZBHH,2008-12-14 02:00,ZBHH 140200Z AUTO 12004KT 6SM M09/M14 A3030 RMK T10901140 IEM_DS3505
ZBHH,2008-12-14 03:00,ZBHH 140300Z AUTO 09004KT 7SM M07/M14 A3030 RMK SLP358 T10741142 52002 IEM_DS3505
ZBHH,2008-12-14 04:00,ZBHH 140400Z AUTO 21004KT 6SM M06/M13 A3027 RMK T10601130 IEM_DS3505
ZBHH,2008-12-14 05:00,ZBHH 140500Z AUTO 23004KT 6SM M05/M12 A3024 RMK T10501120 IEM_DS3505
ZBHH,2008-12-14 06:00,ZBHH 140600Z AUTO 18002KT 7SM M04/M14 A3024 RMK SLP328 T10351143 57022 IEM_DS3505
ZBHH,2008-12-14 07:00,ZBHH 140700Z AUTO 21002KT 6SM M03/M13 A3021 RMK T10301130 IEM_DS3505
ZBHH,2008-12-14 08:00,ZBHH 140800Z AUTO 25004KT 6SM M03/M13 A3024 RMK T10301130 IEM_DS3505
ZBHH,2008-12-14 09:00,ZBHH 140900Z AUTO 29002KT 9SM M04/M14 A3024 RMK SLP330 T10431142 57001 IEM_DS3505
ZBHH,2008-12-14 10:00,ZBHH 141000Z AUTO 05004KT 6SM M08/M15 A3024 RMK T10801150 IEM_DS3505
ZBHH,2008-12-14 11:00,ZBHH 141100Z AUTO 04006KT 6SM M10/M15 A3024 RMK T11001150 IEM_DS3505
ZBHH,2008-12-14 12:00,ZBHH 141200Z AUTO 32002KT 9SM M06/M14 A3024 RMK SLP338 T10651140 52002 IEM_DS3505
ZBHH,2008-12-14 13:00,ZBHH 141300Z AUTO 07004KT 6SM M12/M17 A3024 RMK T11201170 IEM_DS3505
ZBHH,2008-12-14 14:00,ZBHH 141400Z AUTO 05004KT 6SM M13/M17 A3024 RMK T11301170 IEM_DS3505
ZBHH,2008-12-14 15:00,ZBHH 141500Z AUTO 36002KT 9SM M09/M14 A3024 RMK SLP333 T10871145 54000 IEM_DS3505
ZBHH,2008-12-14 16:00,ZBHH 141600Z AUTO 07004KT 6SM M14/M17 A3024 RMK T11401170 IEM_DS3505
ZBHH,2008-12-14 17:00,ZBHH 141700Z AUTO 08008KT 6SM M13/M16 A3021 RMK T11301160 IEM_DS3505
ZBHH,2008-12-14 18:00,ZBHH 141800Z AUTO 00000KT 9SM M11/M14 A3021 RMK SLP316 T11071144 57010 IEM_DS3505
ZBHH,2008-12-14 19:00,ZBHH 141900Z AUTO 10004KT 6SM M15/M18 A3021 RMK T11501180 IEM_DS3505
ZBHH,2008-12-14 20:00,ZBHH 142000Z AUTO 05004KT 6SM M15/M18 A3018 RMK T11501180 IEM_DS3505
ZBHH,2008-12-14 21:00,ZBHH 142100Z AUTO 00000KT 9SM M11/M15 A3018 RMK SLP312 T11131152 57007 IEM_DS3505
ZBHH,2008-12-14 22:00,ZBHH 142200Z AUTO 07006KT 6SM M17/M19 A3018 RMK T11701190 IEM_DS3505
ZBHH,2008-12-14 23:00,ZBHH 142300Z AUTO 07006KT 6SM M17/M19 A3018 RMK T11701190 IEM_DS3505
ZBHH,2008-12-15 00:00,ZBHH 150000Z AUTO 09002KT 6SM M11/M14 A3018 RMK SLP316 T11131145 57001 IEM_DS3505
ZBHH,2008-12-15 01:00,ZBHH 150100Z AUTO 07004KT 4SM M13/M15 A3018 RMK T11301150 IEM_DS3505
ZBHH,2008-12-15 02:00,ZBHH 150200Z AUTO 10002KT 4SM M08/M12 A3018 RMK T10801120 IEM_DS3505
ZBHH,2008-12-15 03:00,ZBHH 150300Z AUTO 11004KT 6SM M05/M13 A3018 RMK SLP304 T10511132 57002 IEM_DS3505
ZBHH,2008-12-15 04:00,ZBHH 150400Z AUTO 14002KT 6SM M03/M13 A3012 RMK T10301130 IEM_DS3505
ZBHH,2008-12-15 05:00,ZBHH 150500Z AUTO 22004KT 6SM M02/M13 A3009 RMK T10201130 IEM_DS3505
ZBHH,2008-12-15 06:00,ZBHH 150600Z AUTO 18004KT 12SM M01/M14 A3006 RMK SLP266 T10141139 57029 IEM_DS3505
ZBHH,2008-12-15 07:00,ZBHH 150700Z AUTO 22004KT 6SM M01/M13 A3006 RMK T10101130 IEM_DS3505
ZBHH,2008-12-15 08:00,ZBHH 150800Z AUTO 27004KT 6SM M01/M13 A3003 RMK T10101130 IEM_DS3505
ZBHH,2008-12-15 09:00,ZBHH 150900Z AUTO 34002KT 19SM M02/M14 A3003 RMK SLP253 T10181139 57014 IEM_DS3505
ZBHH,2008-12-15 10:00,ZBHH 151000Z AUTO 03004KT 5SM M05/M15 A3003 RMK T10501150 IEM_DS3505
ZBHH,2008-12-15 11:00,ZBHH 151100Z AUTO 08004KT 4SM M08/M15 A3003 RMK T10801150 IEM_DS3505
ZBHH,2008-12-15 12:00,ZBHH 151200Z AUTO 00000KT 19SM M05/M13 A3003 RMK SLP259 T10501131 57002 IEM_DS3505
ZBHH,2008-12-15 13:00,ZBHH 151300Z AUTO 04006KT 5SM M11/M16 A3003 RMK T11101160 IEM_DS3505
ZBHH,2008-12-15 14:00,ZBHH 151400Z AUTO 07004KT 6SM M13/M17 A3003 RMK T11301170 IEM_DS3505
ZBHH,2008-12-15 15:00,ZBHH 151500Z AUTO 07002KT 19SM M08/M13 A3000 RMK SLP240 T10811133 57009 IEM_DS3505
ZBHH,2008-12-15 16:00,ZBHH 151600Z AUTO 06006KT 6SM M14/M17 A2997 RMK T11401170 IEM_DS3505
ZBHH,2008-12-15 17:00,ZBHH 151700Z AUTO 07006KT 6SM M14/M17 A2997 RMK T11401170 IEM_DS3505
ZBHH,2008-12-15 18:00,ZBHH 151800Z AUTO 07004KT 19SM M08/M14 A2994 RMK SLP217 T10841138 57013 IEM_DS3505
ZBHH,2008-12-15 19:00,ZBHH 151900Z AUTO 07006KT 6SM M15/M17 A2994 RMK T11501170 IEM_DS3505
ZBHH,2008-12-15 20:00,ZBHH 152000Z AUTO 02004KT 6SM M13/M16 A2994 RMK T11301160 IEM_DS3505
ZBHH,2008-12-15 21:00,ZBHH 152100Z AUTO 02002KT 19SM M10/M14 A2991 RMK SLP211 T10981144 57009 IEM_DS3505
ZBHH,2008-12-15 22:00,ZBHH 152200Z AUTO 06004KT 6SM M15/M17 A2991 RMK T11501170 IEM_DS3505
ZBHH,2008-12-15 23:00,ZBHH 152300Z AUTO 03006KT 6SM M14/M17 A2991 RMK T11401170 IEM_DS3505
ZBHH,2008-12-16 00:00,ZBHH 160000Z AUTO 27002KT 12SM M10/M14 A2994 RMK SLP223 T11041140 52002 IEM_DS3505
ZBHH,2008-12-16 01:00,ZBHH 160100Z AUTO 01002KT 3SM M10/M13 A2997 RMK T11001130 IEM_DS3505
ZBHH,2008-12-16 02:00,ZBHH 160200Z AUTO 05002KT 4SM M08/M12 A2997 RMK T10801120 IEM_DS3505
ZBHH,2008-12-16 03:00,ZBHH 160300Z AUTO 07002KT 6SM M03/M13 A2997 RMK SLP229 T10321129 52014 IEM_DS3505
ZBHH,2008-12-16 04:00,ZBHH 160400Z AUTO 24004KT 4SM M03/M12 A2994 RMK T10301120 IEM_DS3505
ZBHH,2008-12-16 05:00,ZBHH 160500Z AUTO 22006KT 3SM M01/M12 A2994 RMK T10101120 IEM_DS3505
ZBHH,2008-12-16 06:00,ZBHH 160600Z AUTO 25004KT 6SM 01/M12 A2994 RMK SLP210 T00081122 57008 IEM_DS3505
ZBHH,2008-12-16 07:00,ZBHH 160700Z AUTO 25012KT 4SM 01/M12 A2997 RMK T00101120 IEM_DS3505
ZBHH,2008-12-16 08:00,ZBHH 160800Z AUTO 23010KT 4SM 00/M12 A2997 RMK T00001120 IEM_DS3505
ZBHH,2008-12-16 09:00,ZBHH 160900Z AUTO 29006KT 9SM 01/M13 A3000 RMK SLP236 T00081129 52020 IEM_DS3505
ZBHH,2008-12-16 10:00,ZBHH 161000Z AUTO 35012KT 6SM M02/M11 A3006 RMK T10201110 IEM_DS3505
ZBHH,2008-12-16 11:00,ZBHH 161100Z AUTO 34010KT 6SM M03/M12 A3009 RMK T10301120 IEM_DS3505
ZBHH,2008-12-16 12:00,ZBHH 161200Z AUTO 32004KT 19SM M03/M14 A3012 RMK SLP289 T10311136 52036 IEM_DS3505
ZBHH,2008-12-16 13:00,ZBHH 161300Z AUTO 34006KT 6SM M06/M14 A3015 RMK T10601140 IEM_DS3505
ZBHH,2008-12-16 14:00,ZBHH 161400Z AUTO 36014KT 6SM M05/M15 A3015 RMK T10501150 IEM_DS3505
ZBHH,2008-12-16 15:00,ZBHH 161500Z AUTO 29006KT 19SM M06/M17 A3018 RMK SLP299 T10551170 52019 IEM_DS3505
ZBHH,2008-12-16 16:00,ZBHH 161600Z AUTO 33012KT 6SM M08/M15 A3021 RMK T10801150 IEM_DS3505
ZBHH,2008-12-16 17:00,ZBHH 161700Z AUTO 34016KT 6SM M09/M16 A3021 RMK T10901160 IEM_DS3505
ZBHH,2008-12-16 18:00,ZBHH 161800Z AUTO 27006KT 19SM M09/M17 A3021 RMK SLP305 T10881171 52007 IEM_DS3505
ZBHH,2008-12-16 19:00,ZBHH 161900Z AUTO 35012KT 6SM M10/M18 A3024 RMK T11001180 IEM_DS3505
ZBHH,2008-12-16 20:00,ZBHH 162000Z AUTO 35010KT 6SM M12/M19 A3027 RMK T11201190 IEM_DS3505
ZBHH,2008-12-16 21:00,ZBHH 162100Z AUTO 32002KT 19SM M11/M19 A3027 RMK SLP325 T11091193 52013 IEM_DS3505
ZBHH,2008-12-16 22:00,ZBHH 162200Z AUTO 36012KT 6SM M11/M23 A3027 RMK T11101230 IEM_DS3505
ZBHH,2008-12-16 23:00,ZBHH 162300Z AUTO 36010KT 6SM M12/M24 A3027 RMK T11201240 IEM_DS3505
ZBHH,2008-12-17 00:00,ZBHH 170000Z AUTO 02004KT 19SM M11/M22 A3030 RMK SLP348 T11131225 52010 IEM_DS3505
ZBHH,2008-12-17 01:00,ZBHH 170100Z AUTO 34012KT 6SM M10/M24 A3030 RMK T11001240 IEM_DS3505
ZBHH,2008-12-17 02:00,ZBHH 170200Z AUTO 34008KT 6SM M09/M24 A3033 RMK T10901240 IEM_DS3505
ZBHH,2008-12-17 03:00,ZBHH 170300Z AUTO 11004KT 19SM M07/M24 A3033 RMK SLP352 T10671239 52009 IEM_DS3505
ZBHH,2008-12-17 04:00,ZBHH 170400Z AUTO 33010KT 6SM M06/M23 A3030 RMK T10601230 IEM_DS3505
ZBHH,2008-12-17 05:00,ZBHH 170500Z AUTO 30010KT 6SM M05/M25 A3027 RMK T10501250 IEM_DS3505
ZBHH,2008-12-17 06:00,ZBHH 170600Z AUTO 20006KT 19SM M05/M22 A3027 RMK SLP337 T10471222 57016 IEM_DS3505
ZBHH,2008-12-17 07:00,ZBHH 170700Z AUTO 23006KT 6SM M04/M22 A3027 RMK T10401220 IEM_DS3505
ZBHH,2008-12-17 08:00,ZBHH 170800Z AUTO 24008KT 6SM M05/M22 A3027 RMK T10501220 IEM_DS3505
ZBHH,2008-12-17 09:00,ZBHH 170900Z AUTO 25004KT 19SM M06/M20 A3027 RMK SLP344 T10561197 57001 IEM_DS3505
ZBHH,2008-12-17 10:00,ZBHH 171000Z AUTO 13002KT 6SM M08/M20 A3027 RMK T10801200 IEM_DS3505
ZBHH,2008-12-17 11:00,ZBHH 171100Z AUTO 04006KT 6SM M10/M21 A3030 RMK T11001210 IEM_DS3505
ZBHH,2008-12-17 12:00,ZBHH 171200Z AUTO 00000KT 16SM M09/M18 A3027 RMK SLP357 T10891184 52003 IEM_DS3505
ZBHH,2008-12-17 13:00,ZBHH 171300Z AUTO 04004KT 6SM M15/M23 A3027 RMK T11501230 IEM_DS3505
ZBHH,2008-12-17 14:00,ZBHH 171400Z AUTO 08004KT 6SM M14/M23 A3027 RMK T11401230 IEM_DS3505
ZBHH,2008-12-17 15:00,ZBHH 171500Z AUTO 36002KT 19SM M11/M19 A3027 RMK SLP345 T11081192 57004 IEM_DS3505
ZBHH,2008-12-17 16:00,ZBHH 171600Z AUTO 06004KT 6SM M15/M22 A3027 RMK T11501220 IEM_DS3505
ZBHH,2008-12-17 17:00,ZBHH 171700Z AUTO 06006KT 6SM M15/M21 A3024 RMK T11501210 IEM_DS3505
ZBHH,2008-12-17 18:00,ZBHH 171800Z AUTO 09002KT 19SM M12/M20 A3024 RMK SLP335 T11231197 57008 IEM_DS3505
ZBHH,2008-12-17 19:00,ZBHH 171900Z AUTO 07006KT 6SM M18/M23 A3024 RMK T11801230 IEM_DS3505
ZBHH,2008-12-17 20:00,ZBHH 172000Z AUTO 06006KT 6SM M16/M22 A3024 RMK T11601220 IEM_DS3505
ZBHH,2008-12-17 21:00,ZBHH 172100Z AUTO 09002KT 19SM M13/M20 A3021 RMK SLP324 T11331200 57014 IEM_DS3505
ZBHH,2008-12-17 22:00,ZBHH 172200Z AUTO 07006KT 6SM M16/M22 A3018 RMK T11601220 IEM_DS3505
ZBHH,2008-12-17 23:00,ZBHH 172300Z AUTO 04004KT 6SM M17/M22 A3018 RMK T11701220 IEM_DS3505
ZBHH,2008-12-18 00:00,ZBHH 180000Z AUTO 22002KT 12SM M13/M20 A3018 RMK SLP328 T11341199 57004 IEM_DS3505
ZBHH,2008-12-18 01:00,ZBHH 180100Z AUTO 07004KT 4SM M14/M19 A3018 RMK T11401190 IEM_DS3505
ZBHH,2008-12-18 02:00,ZBHH 180200Z AUTO 12004KT 4SM M10/M18 A3018 RMK T11001180 IEM_DS3505
ZBHH,2008-12-18 03:00,ZBHH 180300Z AUTO 09004KT 12SM M06/M19 A3018 RMK SLP309 T10601190 57004 IEM_DS3505
ZBHH,2008-12-18 04:00,ZBHH 180400Z AUTO 11002KT 6SM M05/M17 A3012 RMK T10501170 IEM_DS3505
ZBHH,2008-12-18 05:00,ZBHH 180500Z AUTO 32002KT 6SM M04/M16 A3009 RMK T10401160 IEM_DS3505
ZBHH,2008-12-18 06:00,ZBHH 180600Z AUTO 07004KT 12SM M03/M18 A3006 RMK SLP270 T10291181 57031 IEM_DS3505
ZBHH,2008-12-18 07:00,ZBHH 180700Z AUTO 34002KT 6SM M03/M15 A3003 RMK T10301150 IEM_DS3505
ZBHH,2008-12-18 08:00,ZBHH 180800Z AUTO 00000KT 6SM M03/M15 A3003 RMK T10301150 IEM_DS3505
ZBHH,2008-12-18 09:00,ZBHH 180900Z AUTO 09002KT 12SM M04/M17 A3000 RMK SLP255 T10371169 57017 IEM_DS3505
ZBHH,2008-12-18 10:00,ZBHH 181000Z AUTO 05004KT 4SM M06/M16 A2997 RMK T10601160 IEM_DS3505
ZBHH,2008-12-18 11:00,ZBHH 181100Z AUTO 09004KT 4SM M08/M16 A2997 RMK T10801160 IEM_DS3505
ZBHH,2008-12-18 12:00,ZBHH 181200Z AUTO 34002KT 11SM M06/M16 A2994 RMK SLP243 T10621162 57016 IEM_DS3505
ZBHH,2008-12-18 13:00,ZBHH 181300Z AUTO 04004KT 4SM M09/M16 A2994 RMK T10901160 IEM_DS3505
ZBHH,2008-12-18 14:00,ZBHH 181400Z AUTO 08002KT 3SM M10/M16 A2994 RMK T11001160 IEM_DS3505
ZBHH,2008-12-18 15:00,ZBHH 181500Z AUTO 32002KT 16SM M07/M15 A2991 RMK SLP215 T10711151 57010 IEM_DS3505
ZBHH,2008-12-18 16:00,ZBHH 181600Z AUTO 04004KT 4SM M10/M15 A2991 RMK T11001150 IEM_DS3505
ZBHH,2008-12-18 17:00,ZBHH 181700Z AUTO 09004KT 6SM M10/M15 A2994 RMK T11001150 IEM_DS3505
ZBHH,2008-12-18 18:00,ZBHH 181800Z AUTO 32004G19KT 19SM M04/M13 A2994 RMK SLP209 T10401131 52009 IEM_DS3505
ZBHH,2008-12-18 19:00,ZBHH 181900Z AUTO 34017KT 7SM M02/M12 A2997 RMK T10201120 IEM_DS3505
ZBHH,2008-12-18 20:00,ZBHH 182000Z AUTO 34016G25KT 7SM M03/M12 A3000 RMK T10301120 IEM_DS3505
ZBHH,2008-12-18 21:00,ZBHH 182100Z AUTO 34006KT 12SM M04/M17 A3003 RMK SLP243 T10411170 52027 IEM_DS3505
ZBHH,2008-12-18 22:00,ZBHH 182200Z AUTO 35021KT 7SM M06/M19 A3003 RMK T10601190 IEM_DS3505
ZBHH,2008-12-18 23:00,ZBHH 182300Z AUTO 34017KT 7SM M07/M21 A3006 RMK T10701210 IEM_DS3505
ZBHH,2008-12-19 00:00,ZBHH 190000Z AUTO 34006KT 19SM M07/M23 A3012 RMK SLP287 T10691228 52027 IEM_DS3505
ZBHH,2008-12-19 01:00,ZBHH 190100Z AUTO 35012KT 7SM M08/M22 A3018 RMK T10801220 IEM_DS3505
ZBHH,2008-12-19 02:00,ZBHH 190200Z AUTO 34010KT 7SM M09/M23 A3018 RMK T10901230 IEM_DS3505
ZBHH,2008-12-19 03:00,ZBHH 190300Z AUTO 32008KT 19SM M07/M25 A3018 RMK SLP313 T10691246 52021 IEM_DS3505
ZBHH,2008-12-19 04:00,ZBHH 190400Z AUTO 34010G21KT 7SM M07/M23 A3018 RMK T10701230 IEM_DS3505
ZBHH,2008-12-19 05:00,ZBHH 190500Z AUTO 34012KT 6SM M06/M23 A3015 RMK T10601230 IEM_DS3505
ZBHH,2008-12-19 06:00,ZBHH 190600Z AUTO 32006KT 19SM M04/M28 A3015 RMK SLP283 T10451280 57014 IEM_DS3505
ZBHH,2008-12-19 07:00,ZBHH 190700Z AUTO 32010KT 6SM M04/M27 A3015 RMK T10401270 IEM_DS3505
ZBHH,2008-12-19 08:00,ZBHH 190800Z AUTO 33008KT 6SM M05/M26 A3015 RMK T10501260 IEM_DS3505
ZBHH,2008-12-19 09:00,ZBHH 190900Z AUTO 36004KT 19SM M06/M28 A3015 RMK SLP290 T10561275 52003 IEM_DS3505
ZBHH,2008-12-19 10:00,ZBHH 191000Z AUTO 31008KT 6SM M08/M25 A3015 RMK T10801250 IEM_DS3505
ZBHH,2008-12-19 11:00,ZBHH 191100Z AUTO 31006KT 6SM M09/M26 A3018 RMK T10901260 IEM_DS3505
ZBHH,2008-12-19 12:00,ZBHH 191200Z AUTO 36004KT 19SM M08/M28 A3018 RMK SLP314 T10851280 52008 IEM_DS3505
ZBHH,2008-12-19 13:00,ZBHH 191300Z AUTO 36008KT 6SM M11/M25 A3018 RMK T11101250 IEM_DS3505
ZBHH,2008-12-19 14:00,ZBHH 191400Z AUTO 12002KT 6SM M12/M26 A3021 RMK T11201260 IEM_DS3505
ZBHH,2008-12-19 15:00,ZBHH 191500Z AUTO 02002KT 19SM M10/M28 A3018 RMK SLP313 T10961284 57003 IEM_DS3505
ZBHH,2008-12-19 16:00,ZBHH 191600Z AUTO 04008KT 6SM M14/M27 A3015 RMK T11401270 IEM_DS3505
ZBHH,2008-12-19 17:00,ZBHH 191700Z AUTO 12002KT 6SM M16/M27 A3018 RMK T11601270 IEM_DS3505
ZBHH,2008-12-19 18:00,ZBHH 191800Z AUTO 36002KT 19SM M12/M26 A3015 RMK SLP305 T11211258 57007 IEM_DS3505
ZBHH,2008-12-19 19:00,ZBHH 191900Z AUTO 06004KT 6SM M17/M26 A3015 RMK T11701260 IEM_DS3505
ZBHH,2008-12-19 20:00,ZBHH 192000Z AUTO 04004KT 6SM M18/M26 A3015 RMK T11801260 IEM_DS3505
ZBHH,2008-12-19 21:00,ZBHH 192100Z AUTO 00000KT 19SM M14/M27 A3012 RMK SLP299 T11421270 57013 IEM_DS3505
ZBHH,2008-12-19 22:00,ZBHH 192200Z AUTO 08004KT 6SM M19/M27 A3009 RMK T11901270 IEM_DS3505
ZBHH,2008-12-19 23:00,ZBHH 192300Z AUTO 09004KT 6SM M20/M27 A3009 RMK T12001270 IEM_DS3505
ZBHH,2008-12-20 00:00,ZBHH 200000Z AUTO 07002KT 12SM M14/M27 A3009 RMK SLP301 T11381266 57004 IEM_DS3505
ZBHH,2008-12-20 01:00,ZBHH 200100Z AUTO 09004KT 6SM M15/M24 A3009 RMK T11501240 IEM_DS3505
ZBHH,2008-12-20 02:00,ZBHH 200200Z AUTO 11002KT 6SM M11/M24 A3009 RMK T11101240 IEM_DS3505
ZBHH,2008-12-20 03:00,ZBHH 200300Z AUTO 14002KT 12SM M10/M26 A3009 RMK SLP288 T10971265 57004 IEM_DS3505
ZBHH,2008-12-20 04:00,ZBHH 200400Z AUTO 19002KT 7SM M08/M24 A3006 RMK T10801240 IEM_DS3505
ZBHH,2008-12-20 05:00,ZBHH 200500Z AUTO 26002KT 7SM M08/M25 A3000 RMK T10801250 IEM_DS3505
ZBHH,2008-12-20 06:00,ZBHH 200600Z AUTO 02004KT 9SM M07/M21 A3000 RMK SLP264 T10741209 57022 IEM_DS3505
ZBHH,2008-12-20 07:00,ZBHH 200700Z AUTO 34016KT 7SM M07/M14 A3003 RMK T10701140 IEM_DS3505
ZBHH,2008-12-20 08:00,ZBHH 200800Z AUTO 33017KT 7SM M08/M15 A3006 RMK T10801150 IEM_DS3505
ZBHH,2008-12-20 09:00,ZBHH 200900Z AUTO 29010KT 12SM M10/M19 A3012 RMK SLP315 T11001187 52034 IEM_DS3505
ZBHH,2008-12-20 10:00,ZBHH 201000Z AUTO 33017KT 7SM M11/M21 A3018 RMK T11101210 IEM_DS3505
ZBHH,2008-12-20 11:00,ZBHH 201100Z AUTO 36016KT 7SM M13/M23 A3024 RMK T11301230 IEM_DS3505
ZBHH,2008-12-20 12:00,ZBHH 201200Z AUTO 34006KT 12SM M15/M24 A3027 RMK SLP385 T11531238 52049 IEM_DS3505
ZBHH,2008-12-20 13:00,ZBHH 201300Z AUTO 32014KT 7SM M17/M26 A3036 RMK T11701260 IEM_DS3505
ZBHH,2008-12-20 14:00,ZBHH 201400Z AUTO 01016G25KT 7SM M17/M28 A3042 RMK T11701280 IEM_DS3505
ZBHH,2008-12-20 15:00,ZBHH 201500Z AUTO 32016KT 12SM M20/M31 A3047 RMK SLP460 T12001307 52064 IEM_DS3505
ZBHH,2008-12-20 16:00,ZBHH 201600Z AUTO 33017KT 7SM M21/M29 A3053 RMK T12101290 IEM_DS3505
ZBHH,2008-12-20 17:00,ZBHH 201700Z AUTO 35019KT 7SM M22/M30 A3056 RMK T12201300 IEM_DS3505
ZBHH,2008-12-20 18:00,ZBHH 201800Z AUTO 32012KT 12SM M22/M32 A3059 RMK SLP498 T12231315 52033 IEM_DS3505
ZBHH,2008-12-20 19:00,ZBHH 201900Z AUTO 35014KT 7SM M22/M29 A3062 RMK T12201290 IEM_DS3505
ZBHH,2008-12-20 20:00,ZBHH 202000Z AUTO 35012KT 7SM M22/M31 A3062 RMK T12201310 IEM_DS3505
ZBHH,2008-12-20 21:00,ZBHH 202100Z AUTO 29006KT 19SM M23/M34 A3065 RMK SLP529 T12291336 52019 IEM_DS3505
ZBHH,2008-12-20 22:00,ZBHH 202200Z AUTO 34012KT 7SM M24/M33 A3068 RMK T12401330 IEM_DS3505
ZBHH,2008-12-20 23:00,ZBHH 202300Z AUTO 34014KT 7SM M25/M34 A3071 RMK T12501340 IEM_DS3505
ZBHH,2008-12-21 00:00,ZBHH 210000Z AUTO 32010KT 16SM M25/M35 A3074 RMK SLP576 T12501350 52022 IEM_DS3505
ZBHH,2008-12-21 01:00,ZBHH 210100Z AUTO 35008KT 6SM M25/M34 A3074 RMK T12501340 IEM_DS3505
ZBHH,2008-12-21 02:00,ZBHH 210200Z AUTO 34008KT 6SM M23/M35 A3077 RMK T12301350 IEM_DS3505
ZBHH,2008-12-21 03:00,ZBHH 210300Z AUTO 34004KT 19SM M21/M36 A3077 RMK SLP595 T12141355 52014 IEM_DS3505
ZBHH,2008-12-21 04:00,ZBHH 210400Z AUTO 36012KT 6SM M21/M33 A3077 RMK T12101330 IEM_DS3505
ZBHH,2008-12-21 05:00,ZBHH 210500Z AUTO 34006KT 6SM M20/M33 A3074 RMK T12001330 IEM_DS3505
ZBHH,2008-12-21 06:00,ZBHH 210600Z AUTO 20006G17KT 19SM M18/M34 A3071 RMK SLP573 T11821339 57017 IEM_DS3505
ZBHH,2008-12-21 07:00,ZBHH 210700Z AUTO 36006KT 6SM M18/M32 A3071 RMK T11801320 IEM_DS3505
ZBHH,2008-12-21 08:00,ZBHH 210800Z AUTO 25006KT 6SM M17/M32 A3071 RMK T11701320 IEM_DS3505
ZBHH,2008-12-21 09:00,ZBHH 210900Z AUTO 22004KT 19SM M18/M33 A3071 RMK SLP563 T11821330 57010 IEM_DS3505
ZBHH,2008-12-21 10:00,ZBHH 211000Z AUTO 21004KT 6SM M21/M33 A3071 RMK T12101330 IEM_DS3505
ZBHH,2008-12-21 11:00,ZBHH 211100Z AUTO 18004KT 6SM M21/M33 A3071 RMK T12101330 IEM_DS3505
ZBHH,2008-12-21 12:00,ZBHH 211200Z AUTO 25004KT 19SM M19/M32 A3071 RMK SLP582 T11931315 52008 IEM_DS3505
ZBHH,2008-12-21 13:00,ZBHH 211300Z AUTO 18004KT 6SM M22/M32 A3071 RMK T12201320 IEM_DS3505
ZBHH,2008-12-21 14:00,ZBHH 211400Z AUTO 09004KT 6SM M24/M33 A3071 RMK T12401330 IEM_DS3505
ZBHH,2008-12-21 15:00,ZBHH 211500Z AUTO 07004KT 19SM M21/M31 A3071 RMK SLP571 T12081309 57004 IEM_DS3505
ZBHH,2008-12-21 16:00,ZBHH 211600Z AUTO 03004KT 6SM M24/M32 A3071 RMK T12401320 IEM_DS3505
ZBHH,2008-12-21 17:00,ZBHH 211700Z AUTO 05004KT 6SM M24/M32 A3068 RMK T12401320 IEM_DS3505
ZBHH,2008-12-21 18:00,ZBHH 211800Z AUTO 09004KT 19SM M21/M32 A3065 RMK SLP548 T12131319 57013 IEM_DS3505
ZBHH,2008-12-21 19:00,ZBHH 211900Z AUTO 07004KT 6SM M26/M32 A3065 RMK T12601320 IEM_DS3505
ZBHH,2008-12-21 20:00,ZBHH 212000Z AUTO 08004KT 6SM M26/M32 A3065 RMK T12601320 IEM_DS3505
ZBHH,2008-12-21 21:00,ZBHH 212100Z AUTO 07004KT 19SM M22/M32 A3062 RMK SLP538 T12221322 57011 IEM_DS3505
ZBHH,2008-12-21 22:00,ZBHH 212200Z AUTO 08004KT 6SM M26/M32 A3062 RMK T12601320 IEM_DS3505
ZBHH,2008-12-21 23:00,ZBHH 212300Z AUTO 05004KT 6SM M26/M32 A3062 RMK T12601320 IEM_DS3505
ZBHH,2008-12-22 00:00,ZBHH 220000Z AUTO 04002KT 12SM M22/M32 A3059 RMK SLP532 T12251319 57009 IEM_DS3505
ZBHH,2008-12-22 01:00,ZBHH 220100Z AUTO 10002KT 6SM M23/M30 A3059 RMK T12301300 IEM_DS3505
ZBHH,2008-12-22 02:00,ZBHH 220200Z AUTO 11002KT 6SM M20/M30 A3059 RMK T12001300 IEM_DS3505
ZBHH,2008-12-22 03:00,ZBHH 220300Z AUTO 07002KT 12SM M18/M30 A3059 RMK SLP517 T11811298 57005 IEM_DS3505
ZBHH,2008-12-22 04:00,ZBHH 220400Z AUTO 21004KT 6SM M17/M30 A3053 RMK T11701300 IEM_DS3505
ZBHH,2008-12-22 05:00,ZBHH 220500Z AUTO 24002KT 6SM M16/M29 A3050 RMK T11601290 IEM_DS3505
ZBHH,2008-12-22 06:00,ZBHH 220600Z AUTO 22002KT 12SM M15/M29 A3047 RMK SLP475 T11481293 57030 IEM_DS3505
ZBHH,2008-12-22 07:00,ZBHH 220700Z AUTO 27002KT 6SM M15/M30 A3047 RMK T11501300 IEM_DS3505
ZBHH,2008-12-22 08:00,ZBHH 220800Z AUTO 29004KT 5SM M15/M29 A3047 RMK T11501290 IEM_DS3505
ZBHH,2008-12-22 09:00,ZBHH 220900Z AUTO 32002KT 9SM M15/M29 A3045 RMK SLP466 T11531286 57011 IEM_DS3505
ZBHH,2008-12-22 10:00,ZBHH 221000Z AUTO 03004KT 4SM M16/M29 A3045 RMK T11601290 IEM_DS3505
ZBHH,2008-12-22 11:00,ZBHH 221100Z AUTO 05006KT 4SM M19/M30 A3045 RMK T11901300 IEM_DS3505
ZBHH,2008-12-22 12:00,ZBHH 221200Z AUTO 09004KT 12SM M16/M29 A3045 RMK SLP471 T11591288 52002 IEM_DS3505
ZBHH,2008-12-22 13:00,ZBHH 221300Z AUTO 06004KT 5SM M22/M30 A3045 RMK T12201300 IEM_DS3505
ZBHH,2008-12-22 14:00,ZBHH 221400Z AUTO 04006KT 5SM M21/M29 A3045 RMK T12101290 IEM_DS3505
ZBHH,2008-12-22 15:00,ZBHH 221500Z AUTO 32002KT 12SM M18/M27 A3045 RMK SLP460 T11781266 57003 IEM_DS3505
ZBHH,2008-12-22 16:00,ZBHH 221600Z AUTO 06004KT 6SM M22/M29 A3045 RMK T12201290 IEM_DS3505
ZBHH,2008-12-22 17:00,ZBHH 221700Z AUTO 06004KT 6SM M21/M29 A3042 RMK T12101290 IEM_DS3505
ZBHH,2008-12-22 18:00,ZBHH 221800Z AUTO 00000KT 12SM M19/M28 A3039 RMK SLP429 T11941276 57023 IEM_DS3505
ZBHH,2008-12-22 19:00,ZBHH 221900Z AUTO 06006KT 6SM M22/M29 A3036 RMK T12201290 IEM_DS3505
ZBHH,2008-12-22 20:00,ZBHH 222000Z AUTO 04004KT 6SM M24/M30 A3033 RMK T12401300 IEM_DS3505
ZBHH,2008-12-22 21:00,ZBHH 222100Z AUTO 36002KT 12SM M18/M27 A3033 RMK SLP408 T11851266 57017 IEM_DS3505
ZBHH,2008-12-22 22:00,ZBHH 222200Z AUTO 08004KT 6SM M23/M30 A3030 RMK T12301300 IEM_DS3505
ZBHH,2008-12-22 23:00,ZBHH 222300Z AUTO 08006KT 6SM M23/M29 A3030 RMK T12301290 IEM_DS3505
ZBHH,2008-12-23 00:00,ZBHH 230000Z AUTO 07002KT 9SM M19/M25 A3027 RMK SLP397 T11891253 57012 IEM_DS3505
ZBHH,2008-12-23 01:00,ZBHH 230100Z AUTO 06004KT 4SM M19/M26 A3027 RMK T11901260 IEM_DS3505
ZBHH,2008-12-23 02:00,ZBHH 230200Z AUTO 07002KT 4SM M15/M26 A3024 RMK T11501260 IEM_DS3505
ZBHH,2008-12-23 03:00,ZBHH 230300Z AUTO 11002KT 12SM M12/M27 A3024 RMK SLP371 T11211273 57011 IEM_DS3505
ZBHH,2008-12-23 04:00,ZBHH 230400Z AUTO 14002KT 6SM M11/M28 A3021 RMK T11101280 IEM_DS3505
ZBHH,2008-12-23 05:00,ZBHH 230500Z AUTO 24002KT 6SM M10/M27 A3015 RMK T11001270 IEM_DS3505
ZBHH,2008-12-23 06:00,ZBHH 230600Z AUTO 20004KT 12SM M09/M28 A3012 RMK SLP325 T10881283 57036 IEM_DS3505
ZBHH,2008-12-23 07:00,ZBHH 230700Z AUTO 26004KT 6SM M08/M29 A3009 RMK T10801290 IEM_DS3505
ZBHH,2008-12-23 08:00,ZBHH 230800Z AUTO 23006KT 6SM M09/M28 A3009 RMK T10901280 IEM_DS3505
ZBHH,2008-12-23 09:00,ZBHH 230900Z AUTO 34002KT 12SM M10/M29 A3009 RMK SLP310 T10961290 57013 IEM_DS3505
ZBHH,2008-12-23 10:00,ZBHH 231000Z AUTO 06004KT 5SM M13/M28 A3009 RMK T11301280 IEM_DS3505
ZBHH,2008-12-23 11:00,ZBHH 231100Z AUTO 04004KT 4SM M15/M28 A3009 RMK T11501280 IEM_DS3505
ZBHH,2008-12-23 12:00,ZBHH 231200Z AUTO 07002KT 7SM M11/M26 A3009 RMK SLP323 T11141255 52006 IEM_DS3505
ZBHH,2008-12-23 13:00,ZBHH 231300Z AUTO 06004KT 4SM M18/M28 A3009 RMK T11801280 IEM_DS3505
ZBHH,2008-12-23 14:00,ZBHH 231400Z AUTO 05002KT 4SM M18/M27 A3009 RMK T11801270 IEM_DS3505
ZBHH,2008-12-23 15:00,ZBHH 231500Z AUTO 00000KT 7SM M14/M26 A3009 RMK SLP310 T11391258 57001 IEM_DS3505
ZBHH,2008-12-23 16:00,ZBHH 231600Z AUTO 04004KT 5SM M20/M28 A3009 RMK T12001280 IEM_DS3505
ZBHH,2008-12-23 17:00,ZBHH 231700Z AUTO 05006KT 6SM M21/M28 A3009 RMK T12101280 IEM_DS3505
ZBHH,2008-12-23 18:00,ZBHH 231800Z AUTO 07002KT 9SM M15/M25 A3009 RMK SLP297 T11471248 57005 IEM_DS3505
ZBHH,2008-12-23 19:00,ZBHH 231900Z AUTO 03002KT 6SM M21/M28 A3009 RMK T12101280 IEM_DS3505
ZBHH,2008-12-23 20:00,ZBHH 232000Z AUTO 03004KT 6SM M20/M27 A3006 RMK T12001270 IEM_DS3505
ZBHH,2008-12-23 21:00,ZBHH 232100Z AUTO 36002KT 12SM M16/M24 A3006 RMK SLP298 T11551240 57003 IEM_DS3505
ZBHH,2008-12-23 22:00,ZBHH 232200Z AUTO 09002KT 6SM M21/M27 A3009 RMK T12101270 IEM_DS3505
ZBHH,2008-12-23 23:00,ZBHH 232300Z AUTO 08002KT 6SM M20/M27 A3009 RMK T12001270 IEM_DS3505
ZBHH,2008-12-24 00:00,ZBHH 240000Z AUTO 34002KT 9SM M16/M25 A3012 RMK SLP321 T11641249 52014 IEM_DS3505
ZBHH,2008-12-24 01:00,ZBHH 240100Z AUTO 10002KT 2 1/2SM M19/M25 A3015 RMK T11901250 IEM_DS3505
ZBHH,2008-12-24 02:00,ZBHH 240200Z AUTO 10002KT 2 1/2SM M14/M24 A3018 RMK T11401240 IEM_DS3505
ZBHH,2008-12-24 03:00,ZBHH 240300Z AUTO 22004KT 6SM M09/M24 A3018 RMK SLP330 T10911235 52019 IEM_DS3505
ZBHH,2008-12-24 04:00,ZBHH 240400Z AUTO 29008KT 6SM M07/M22 A3015 RMK T10701220 IEM_DS3505
ZBHH,2008-12-24 05:00,ZBHH 240500Z AUTO 26006KT 6SM M06/M22 A3018 RMK T10601220 IEM_DS3505
ZBHH,2008-12-24 06:00,ZBHH 240600Z AUTO 25004KT 12SM M05/M22 A3018 RMK SLP323 T10481223 52002 IEM_DS3505
ZBHH,2008-12-24 07:00,ZBHH 240700Z AUTO 35014KT 6SM M05/M20 A3018 RMK T10501200 IEM_DS3505
ZBHH,2008-12-24 08:00,ZBHH 240800Z AUTO 35012KT 6SM M06/M19 A3021 RMK T10601190 IEM_DS3505
ZBHH,2008-12-24 09:00,ZBHH 240900Z AUTO 34004KT 12SM M07/M20 A3024 RMK SLP352 T10671203 52019 IEM_DS3505
ZBHH,2008-12-24 10:00,ZBHH 241000Z AUTO 34004KT 6SM M08/M18 A3027 RMK T10801180 IEM_DS3505
ZBHH,2008-12-24 11:00,ZBHH 241100Z AUTO 33006KT 6SM M09/M18 A3030 RMK T10901180 IEM_DS3505
ZBHH,2008-12-24 12:00,ZBHH 241200Z AUTO 27004KT 19SM M10/M19 A3033 RMK SLP386 T10951192 52021 IEM_DS3505
ZBHH,2008-12-24 13:00,ZBHH 241300Z AUTO 30012KT 6SM M10/M18 A3033 RMK T11001180 IEM_DS3505
ZBHH,2008-12-24 14:00,ZBHH 241400Z AUTO 33008KT 6SM M11/M19 A3033 RMK T11101190 IEM_DS3505
ZBHH,2008-12-24 15:00,ZBHH 241500Z AUTO 32004KT 19SM M11/M20 A3036 RMK SLP383 T11081197 52011 IEM_DS3505
ZBHH,2008-12-24 16:00,ZBHH 241600Z AUTO 35012KT 6SM M11/M19 A3036 RMK T11101190 IEM_DS3505
ZBHH,2008-12-24 17:00,ZBHH 241700Z AUTO 35014KT 6SM M12/M20 A3036 RMK T11201200 IEM_DS3505
ZBHH,2008-12-24 18:00,ZBHH 241800Z AUTO 25004KT 19SM M12/M21 A3039 RMK SLP386 T11231208 52009 IEM_DS3505
ZBHH,2008-12-24 19:00,ZBHH 241900Z AUTO 36008KT 6SM M13/M20 A3039 RMK T11301200 IEM_DS3505
ZBHH,2008-12-24 20:00,ZBHH 242000Z AUTO 01006KT 6SM M14/M21 A3039 RMK T11401210 IEM_DS3505
ZBHH,2008-12-24 21:00,ZBHH 242100Z AUTO 32004KT 19SM M12/M22 A3039 RMK SLP388 T11161217 57001 IEM_DS3505
ZBHH,2008-12-24 22:00,ZBHH 242200Z AUTO 33012KT 6SM M13/M21 A3039 RMK T11301210 IEM_DS3505
ZBHH,2008-12-24 23:00,ZBHH 242300Z AUTO 33010KT 6SM M14/M21 A3039 RMK T11401210 IEM_DS3505
ZBHH,2008-12-25 00:00,ZBHH 250000Z AUTO 27004KT 19SM M14/M20 A3042 RMK SLP415 T11431202 52011 IEM_DS3505
ZBHH,2008-12-25 01:00,ZBHH 250100Z AUTO 03002KT 6SM M16/M21 A3045 RMK T11601210 IEM_DS3505
ZBHH,2008-12-25 02:00,ZBHH 250200Z AUTO 27002KT 6SM M14/M20 A3045 RMK T11401200 IEM_DS3505
ZBHH,2008-12-25 03:00,ZBHH 250300Z AUTO 20002KT 12SM M09/M20 A3045 RMK SLP411 T10931196 52005 IEM_DS3505
ZBHH,2008-12-25 04:00,ZBHH 250400Z AUTO 17004KT 5SM M09/M19 A3039 RMK T10901190 IEM_DS3505
ZBHH,2008-12-25 05:00,ZBHH 250500Z AUTO 25008KT 6SM M08/M19 A3039 RMK T10801190 IEM_DS3505
ZBHH,2008-12-25 06:00,ZBHH 250600Z AUTO 04002KT 12SM M07/M20 A3036 RMK SLP388 T10691205 57018 IEM_DS3505
ZBHH,2008-12-25 07:00,ZBHH 250700Z AUTO 23002KT 6SM M07/M19 A3036 RMK T10701190 IEM_DS3505
ZBHH,2008-12-25 08:00,ZBHH 250800Z AUTO 22004KT 6SM M07/M20 A3036 RMK T10701200 IEM_DS3505
ZBHH,2008-12-25 09:00,ZBHH 250900Z AUTO 27002KT 12SM M08/M20 A3033 RMK SLP380 T10821203 57008 IEM_DS3505
ZBHH,2008-12-25 10:00,ZBHH 251000Z AUTO 00000KT 6SM M11/M20 A3033 RMK T11101200 IEM_DS3505
ZBHH,2008-12-25 11:00,ZBHH 251100Z AUTO 04008KT 5SM M14/M21 A3033 RMK T11401210 IEM_DS3505
ZBHH,2008-12-25 12:00,ZBHH 251200Z AUTO 32002KT 12SM M11/M20 A3033 RMK SLP384 T11101196 57010 IEM_DS3505
ZBHH,2008-12-25 13:00,ZBHH 251300Z AUTO 07004KT 5SM M16/M22 A3030 RMK T11601220 IEM_DS3505
ZBHH,2008-12-25 14:00,ZBHH 251400Z AUTO 05006KT 5SM M18/M23 A3030 RMK T11801230 IEM_DS3505
ZBHH,2008-12-25 15:00,ZBHH 251500Z AUTO 00000KT 16SM M14/M20 A3030 RMK SLP374 T11381199 57003 IEM_DS3505
ZBHH,2008-12-25 16:00,ZBHH 251600Z AUTO 07006KT 6SM M16/M22 A3030 RMK T11601220 IEM_DS3505
ZBHH,2008-12-25 17:00,ZBHH 251700Z AUTO 04006KT 6SM M16/M22 A3030 RMK T11601220 IEM_DS3505
ZBHH,2008-12-25 18:00,ZBHH 251800Z AUTO 02002KT 19SM M14/M22 A3027 RMK SLP357 T11441217 57011 IEM_DS3505
ZBHH,2008-12-25 19:00,ZBHH 251900Z AUTO 05004KT 6SM M17/M23 A3024 RMK T11701230 IEM_DS3505
ZBHH,2008-12-25 20:00,ZBHH 252000Z AUTO 07006KT 6SM M19/M24 A3024 RMK T11901240 IEM_DS3505
ZBHH,2008-12-25 21:00,ZBHH 252100Z AUTO 07002KT 19SM M15/M21 A3021 RMK SLP340 T11531211 57020 IEM_DS3505
ZBHH,2008-12-25 22:00,ZBHH 252200Z AUTO 07008KT 6SM M19/M24 A3018 RMK T11901240 IEM_DS3505
ZBHH,2008-12-25 23:00,ZBHH 252300Z AUTO 07008KT 6SM M17/M23 A3018 RMK T11701230 IEM_DS3505
ZBHH,2008-12-26 00:00,ZBHH 260000Z AUTO 36002KT 12SM M13/M22 A3015 RMK SLP329 T11291219 57010 IEM_DS3505
ZBHH,2008-12-26 01:00,ZBHH 260100Z AUTO 09004KT 7SM M13/M21 A3015 RMK T11301210 IEM_DS3505
ZBHH,2008-12-26 02:00,ZBHH 260200Z AUTO 08004KT 7SM M10/M21 A3018 RMK T11001210 IEM_DS3505
ZBHH,2008-12-26 03:00,ZBHH 260300Z AUTO 00000KT 9SM M07/M21 A3012 RMK SLP309 T10681207 57010 IEM_DS3505
ZBHH,2008-12-26 04:00,ZBHH 260400Z AUTO 12002KT 7SM M04/M21 A3009 RMK T10401210 IEM_DS3505
ZBHH,2008-12-26 05:00,ZBHH 260500Z AUTO 08002KT 7SM M03/M21 A3006 RMK T10301210 IEM_DS3505
ZBHH,2008-12-26 06:00,ZBHH 260600Z AUTO 09004KT 12SM M02/M22 A3003 RMK SLP259 T10221216 57034 IEM_DS3505
ZBHH,2008-12-26 07:00,ZBHH 260700Z AUTO 04002KT 7SM M02/M19 A3000 RMK T10201190 IEM_DS3505
ZBHH,2008-12-26 08:00,ZBHH 260800Z AUTO 31002KT 7SM M02/M18 A2997 RMK T10201180 IEM_DS3505
ZBHH,2008-12-26 09:00,ZBHH 260900Z AUTO 00000KT 6SM M02/M20 A2994 RMK SLP238 T10201199 57020 IEM_DS3505
ZBHH,2008-12-26 10:00,ZBHH 261000Z AUTO 07002KT 7SM M03/M17 A2997 RMK T10301170 IEM_DS3505
ZBHH,2008-12-26 11:00,ZBHH 261100Z AUTO 32004KT 7SM M03/M16 A3000 RMK T10301160 IEM_DS3505
ZBHH,2008-12-26 12:00,ZBHH 261200Z AUTO 27002KT 6SM M02/M17 A3000 RMK SLP248 T10201169 52014 IEM_DS3505
ZBHH,2008-12-26 13:00,ZBHH 261300Z AUTO 12002KT 4SM M04/M16 A3000 RMK T10401160 IEM_DS3505
ZBHH,2008-12-26 14:00,ZBHH 261400Z AUTO 00000KT 4SM M05/M16 A3000 RMK T10501160 IEM_DS3505
ZBHH,2008-12-26 15:00,ZBHH 261500Z AUTO 27002KT 6SM M05/M16 A3003 RMK SLP250 T10491156 52009 IEM_DS3505
ZBHH,2008-12-26 16:00,ZBHH 261600Z AUTO 12002KT 4SM M10/M17 A3003 RMK T11001170 IEM_DS3505
ZBHH,2008-12-26 17:00,ZBHH 261700Z AUTO 05004KT 4SM M13/M19 A3003 RMK T11301190 IEM_DS3505
ZBHH,2008-12-26 18:00,ZBHH 261800Z AUTO 04002KT 5SM M09/M16 A3003 RMK SLP250 T10891155 52001 IEM_DS3505
ZBHH,2008-12-26 19:00,ZBHH 261900Z AUTO 07004KT 4SM M14/M19 A3006 RMK T11401190 IEM_DS3505
ZBHH,2008-12-26 20:00,ZBHH 262000Z AUTO 13004KT 4SM M12/M17 A3006 RMK T11201170 IEM_DS3505
ZBHH,2008-12-26 21:00,ZBHH 262100Z AUTO 34002KT 5SM M08/M18 A3009 RMK SLP263 T10841175 52013 IEM_DS3505
ZBHH,2008-12-26 22:00,ZBHH 262200Z AUTO 10006KT 4SM M12/M17 A3006 RMK T11201170 IEM_DS3505
ZBHH,2008-12-26 23:00,ZBHH 262300Z AUTO 09004KT 4SM M12/M18 A3009 RMK T11201180 IEM_DS3505
ZBHH,2008-12-27 00:00,ZBHH 270000Z AUTO 07004KT 5SM M09/M18 A3009 RMK SLP273 T10911176 52007 IEM_DS3505
ZBHH,2008-12-27 01:00,ZBHH 270100Z AUTO 07004KT 3SM M11/M16 A3009 RMK T11101160 IEM_DS3505
ZBHH,2008-12-27 02:00,ZBHH 270200Z AUTO 03002KT 3SM M07/M15 A3009 RMK T10701150 IEM_DS3505
ZBHH,2008-12-27 03:00,ZBHH 270300Z AUTO 11002KT 6SM M02/M15 A3012 RMK SLP265 T10181152 52003 IEM_DS3505
ZBHH,2008-12-27 04:00,ZBHH 270400Z AUTO 07008KT 6SM 00/M16 A3006 RMK T00001160 IEM_DS3505
ZBHH,2008-12-27 05:00,ZBHH 270500Z AUTO 18002KT 6SM 02/M16 A3006 RMK T00201160 IEM_DS3505
ZBHH,2008-12-27 06:00,ZBHH 270600Z AUTO 34002KT 6SM 01/M15 A3003 RMK SLP244 T00101150 57021 IEM_DS3505
ZBHH,2008-12-27 07:00,ZBHH 270700Z AUTO 36002KT 6SM 01/M16 A3003 RMK T00101160 IEM_DS3505
ZBHH,2008-12-27 08:00,ZBHH 270800Z AUTO 35002KT 6SM 01/M16 A3003 RMK T00101160 IEM_DS3505
ZBHH,2008-12-27 09:00,ZBHH 270900Z AUTO 16002KT 6SM M01/M16 A3003 RMK SLP246 T10071157 57001 IEM_DS3505
ZBHH,2008-12-27 10:00,ZBHH 271000Z AUTO 29002KT 4SM M03/M15 A3006 RMK T10301150 IEM_DS3505
ZBHH,2008-12-27 11:00,ZBHH 271100Z AUTO 07004KT 3SM M06/M16 A3009 RMK T10601160 IEM_DS3505
ZBHH,2008-12-27 12:00,ZBHH 271200Z AUTO 09002KT 5SM M03/M15 A3009 RMK SLP267 T10321152 52011 IEM_DS3505
ZBHH,2008-12-27 13:00,ZBHH 271300Z AUTO 02002KT 4SM M06/M16 A3009 RMK T10601160 IEM_DS3505
ZBHH,2008-12-27 14:00,ZBHH 271400Z AUTO 16002KT 4SM M06/M15 A3009 RMK T10601150 IEM_DS3505
ZBHH,2008-12-27 15:00,ZBHH 271500Z AUTO 32002KT 5SM M04/M14 A3006 RMK SLP250 T10351143 52001 IEM_DS3505
ZBHH,2008-12-27 16:00,ZBHH 271600Z AUTO 33004KT 4SM M07/M15 A3006 RMK T10701150 IEM_DS3505
ZBHH,2008-12-27 17:00,ZBHH 271700Z AUTO 11002KT 4SM M08/M15 A3009 RMK T10801150 IEM_DS3505
ZBHH,2008-12-27 18:00,ZBHH 271800Z AUTO 25002KT 6SM M05/M14 A3009 RMK SLP247 T10501138 54000 IEM_DS3505
ZBHH,2008-12-27 19:00,ZBHH 271900Z AUTO 27002KT 7SM M09/M16 A3012 RMK T10901160 IEM_DS3505
ZBHH,2008-12-27 20:00,ZBHH 272000Z AUTO 12002KT 4SM M08/M15 A3012 RMK T10801150 IEM_DS3505
ZBHH,2008-12-27 21:00,ZBHH 272100Z AUTO 29004KT 12SM M04/M12 A3012 RMK SLP257 T10361123 52008 IEM_DS3505
ZBHH,2008-12-27 22:00,ZBHH 272200Z AUTO 10004KT 7SM M07/M13 A3012 RMK T10701130 IEM_DS3505
ZBHH,2008-12-27 23:00,ZBHH 272300Z AUTO 34008KT 7SM M05/M11 A3015 RMK T10501110 IEM_DS3505
ZBHH,2008-12-28 00:00,ZBHH 280000Z AUTO 29006KT 11SM M06/M13 A3015 RMK SLP290 T10571133 52019 IEM_DS3505
ZBHH,2008-12-28 01:00,ZBHH 280100Z AUTO 34010KT 7SM M06/M13 A3018 RMK T10601130 IEM_DS3505
ZBHH,2008-12-28 02:00,ZBHH 280200Z AUTO 29012KT 4SM M07/M12 A3021 RMK T10701120 IEM_DS3505
ZBHH,2008-12-28 03:00,ZBHH 280300Z AUTO 32004KT 12SM M06/M19 A3021 RMK SLP309 T10621188 52015 IEM_DS3505
ZBHH,2008-12-28 04:00,ZBHH 280400Z AUTO 34012KT 7SM M07/M20 A3021 RMK T10701200 IEM_DS3505
ZBHH,2008-12-28 05:00,ZBHH 280500Z AUTO 32012KT 7SM M06/M17 A3018 RMK T10601170 IEM_DS3505
ZBHH,2008-12-28 06:00,ZBHH 280600Z AUTO 04002KT 9SM M05/M16 A3018 RMK 60000 SLP295 T10541160 57014 IEM_DS3505
ZBHH,2008-12-28 07:00,ZBHH 280700Z AUTO 33016KT 7SM M06/M21 A3018 RMK T10601210 IEM_DS3505
ZBHH,2008-12-28 08:00,ZBHH 280800Z AUTO 32016KT 6SM M08/M22 A3021 RMK T10801220 IEM_DS3505
ZBHH,2008-12-28 09:00,ZBHH 280900Z AUTO 32008KT 16SM M09/M23 A3024 RMK SLP329 T10901234 52025 IEM_DS3505
ZBHH,2008-12-28 10:00,ZBHH 281000Z AUTO 30016KT 6SM M10/M21 A3027 RMK T11001210 IEM_DS3505
ZBHH,2008-12-28 11:00,ZBHH 281100Z AUTO 29014KT 6SM M11/M21 A3030 RMK T11101210 IEM_DS3505
ZBHH,2008-12-28 12:00,ZBHH 281200Z AUTO 04002KT 12SM M11/M23 A3030 RMK SLP358 T11111226 52016 IEM_DS3505
ZBHH,2008-12-28 13:00,ZBHH 281300Z AUTO 30017KT 6SM M11/M21 A3030 RMK T11101210 IEM_DS3505
ZBHH,2008-12-28 14:00,ZBHH 281400Z AUTO 30012KT 6SM M12/M21 A3030 RMK T11201210 IEM_DS3505
ZBHH,2008-12-28 15:00,ZBHH 281500Z AUTO 36004KT 12SM M12/M22 A3030 RMK SLP362 T11181224 54000 IEM_DS3505
ZBHH,2008-12-28 16:00,ZBHH 281600Z AUTO 28012KT 6SM M13/M21 A3030 RMK T11301210 IEM_DS3505
ZBHH,2008-12-28 17:00,ZBHH 281700Z AUTO 29008KT 6SM M13/M21 A3030 RMK T11301210 IEM_DS3505
ZBHH,2008-12-28 18:00,ZBHH 281800Z AUTO 25002KT 12SM M14/M21 A3030 RMK SLP360 T11401207 57005 IEM_DS3505
ZBHH,2008-12-28 19:00,ZBHH 281900Z AUTO 28002KT 6SM M15/M22 A3030 RMK T11501220 IEM_DS3505
ZBHH,2008-12-28 20:00,ZBHH 282000Z AUTO 30014KT 6SM M14/M22 A3027 RMK T11401220 IEM_DS3505
ZBHH,2008-12-28 21:00,ZBHH 282100Z AUTO 25002KT 12SM M16/M20 A3027 RMK 70000 SLP374 T11601205 57001 IEM_DS3505
ZBHH,2008-12-28 22:00,ZBHH 282200Z AUTO 26010KT 6SM M17/M22 A3030 RMK T11701220 IEM_DS3505
ZBHH,2008-12-28 23:00,ZBHH 282300Z AUTO 15006KT 6SM M19/M23 A3030 RMK T11901230 IEM_DS3505
ZBHH,2008-12-29 00:00,ZBHH 290000Z AUTO 25004KT 6SM M16/M21 A3030 RMK 70000 SLP388 T11631210 52007 IEM_DS3505
ZBHH,2008-12-29 01:00,ZBHH 290100Z AUTO 12002KT 6SM M18/M22 A3033 RMK T11801220 IEM_DS3505
ZBHH,2008-12-29 02:00,ZBHH 290200Z AUTO 19006KT 4SM M16/M21 A3036 RMK T11601210 IEM_DS3505
ZBHH,2008-12-29 03:00,ZBHH 290300Z AUTO 22004KT 12SM M14/M20 A3036 RMK SLP399 T11381205 52014 IEM_DS3505
ZBHH,2008-12-29 04:00,ZBHH 290400Z AUTO 23010KT 4SM M12/M20 A3033 RMK T11201200 IEM_DS3505
ZBHH,2008-12-29 05:00,ZBHH 290500Z AUTO 23010KT 4SM M10/M19 A3033 RMK T11001190 IEM_DS3505
ZBHH,2008-12-29 06:00,ZBHH 290600Z AUTO 20004KT 19SM M07/M20 A3030 RMK SLP363 T10681204 57020 IEM_DS3505
ZBHH,2008-12-29 07:00,ZBHH 290700Z AUTO 30012KT 7SM M07/M21 A3027 RMK T10701210 IEM_DS3505
ZBHH,2008-12-29 08:00,ZBHH 290800Z AUTO 31012KT 7SM M08/M22 A3030 RMK T10801220 IEM_DS3505
ZBHH,2008-12-29 09:00,ZBHH 290900Z AUTO 32010KT 19SM M08/M23 A3030 RMK SLP379 T10851226 52005 IEM_DS3505
ZBHH,2008-12-29 10:00,ZBHH 291000Z AUTO 31008KT 6SM M10/M21 A3033 RMK T11001210 IEM_DS3505
ZBHH,2008-12-29 11:00,ZBHH 291100Z AUTO 34006KT 6SM M11/M20 A3033 RMK T11101200 IEM_DS3505
ZBHH,2008-12-29 12:00,ZBHH 291200Z AUTO 29004KT 19SM M11/M22 A3036 RMK SLP402 T11111218 52013 IEM_DS3505
ZBHH,2008-12-29 13:00,ZBHH 291300Z AUTO 33014KT 6SM M12/M21 A3036 RMK T11201210 IEM_DS3505
ZBHH,2008-12-29 14:00,ZBHH 291400Z AUTO 31012KT 6SM M12/M21 A3039 RMK T11201210 IEM_DS3505
ZBHH,2008-12-29 15:00,ZBHH 291500Z AUTO 29006KT 19SM M13/M22 A3039 RMK SLP412 T11271224 52011 IEM_DS3505
ZBHH,2008-12-29 16:00,ZBHH 291600Z AUTO 35010KT 6SM M13/M21 A3042 RMK T11301210 IEM_DS3505
ZBHH,2008-12-29 17:00,ZBHH 291700Z AUTO 01012KT 6SM M14/M21 A3042 RMK T11401210 IEM_DS3505
ZBHH,2008-12-29 18:00,ZBHH 291800Z AUTO 29004KT 19SM M14/M22 A3042 RMK SLP404 T11361218 52007 IEM_DS3505
ZBHH,2008-12-29 19:00,ZBHH 291900Z AUTO 35012KT 6SM M14/M21 A3042 RMK T11401210 IEM_DS3505
ZBHH,2008-12-29 20:00,ZBHH 292000Z AUTO 35010KT 6SM M14/M21 A3042 RMK T11401210 IEM_DS3505
ZBHH,2008-12-29 21:00,ZBHH 292100Z AUTO 29002KT 19SM M16/M22 A3039 RMK SLP410 T11551221 57003 IEM_DS3505
ZBHH,2008-12-29 22:00,ZBHH 292200Z AUTO 35006KT 6SM M15/M21 A3042 RMK T11501210 IEM_DS3505
ZBHH,2008-12-29 23:00,ZBHH 292300Z AUTO 36008KT 6SM M15/M21 A3042 RMK T11501210 IEM_DS3505
ZBHH,2008-12-30 00:00,ZBHH 300000Z AUTO 25004KT 12SM M16/M21 A3045 RMK SLP431 T11571213 52012 IEM_DS3505
ZBHH,2008-12-30 01:00,ZBHH 300100Z AUTO 21004KT 5SM M17/M22 A3045 RMK T11701220 IEM_DS3505
ZBHH,2008-12-30 02:00,ZBHH 300200Z AUTO 22006KT 5SM M15/M21 A3047 RMK T11501210 IEM_DS3505
ZBHH,2008-12-30 03:00,ZBHH 300300Z AUTO 22006KT 11SM M12/M20 A3047 RMK SLP436 T11231204 52008 IEM_DS3505
ZBHH,2008-12-30 04:00,ZBHH 300400Z AUTO 23010KT 2 1/2SM M12/M20 A3045 RMK T11201200 IEM_DS3505
ZBHH,2008-12-30 05:00,ZBHH 300500Z AUTO 22008KT 6SM M11/M19 A3045 RMK T11101190 IEM_DS3505
ZBHH,2008-12-30 06:00,ZBHH 300600Z AUTO 16004KT 9SM M10/M20 A3042 RMK SLP417 T11011198 57013 IEM_DS3505
ZBHH,2008-12-30 07:00,ZBHH 300700Z AUTO 22006KT 6SM M10/M19 A3042 RMK T11001190 IEM_DS3505
ZBHH,2008-12-30 08:00,ZBHH 300800Z AUTO 22006KT 6SM M10/M18 A3045 RMK T11001180 IEM_DS3505
ZBHH,2008-12-30 09:00,ZBHH 300900Z AUTO 25004KT 11SM M11/M19 A3045 RMK SLP431 T11071193 52006 IEM_DS3505
ZBHH,2008-12-30 10:00,ZBHH 301000Z AUTO 21002KT 6SM M13/M19 A3045 RMK T11301190 IEM_DS3505
ZBHH,2008-12-30 11:00,ZBHH 301100Z AUTO 11002KT 6SM M13/M19 A3045 RMK T11301190 IEM_DS3505
ZBHH,2008-12-30 12:00,ZBHH 301200Z AUTO 29004KT 9SM M12/M20 A3047 RMK SLP444 T11221205 52007 IEM_DS3505
ZBHH,2008-12-30 13:00,ZBHH 301300Z AUTO 11004KT 4SM M17/M21 A3047 RMK T11701210 IEM_DS3505
ZBHH,2008-12-30 14:00,ZBHH 301400Z AUTO 16002KT 6SM M18/M22 A3047 RMK T11801220 IEM_DS3505
ZBHH,2008-12-30 15:00,ZBHH 301500Z AUTO 32006KT 12SM M12/M21 A3047 RMK SLP431 T11201213 57002 IEM_DS3505
ZBHH,2008-12-30 16:00,ZBHH 301600Z AUTO 07002KT 6SM M18/M22 A3045 RMK T11801220 IEM_DS3505
ZBHH,2008-12-30 17:00,ZBHH 301700Z AUTO 19002KT 6SM M19/M22 A3047 RMK T11901220 IEM_DS3505
ZBHH,2008-12-30 18:00,ZBHH 301800Z AUTO 29004KT 12SM M14/M22 A3047 RMK SLP430 T11361216 54000 IEM_DS3505
ZBHH,2008-12-30 19:00,ZBHH 301900Z AUTO 10004KT 6SM M20/M24 A3047 RMK T12001240 IEM_DS3505
ZBHH,2008-12-30 20:00,ZBHH 302000Z AUTO 14002KT 6SM M20/M23 A3047 RMK T12001230 IEM_DS3505
ZBHH,2008-12-30 21:00,ZBHH 302100Z AUTO 00000KT 19SM M17/M21 A3047 RMK SLP442 T11671210 52002 IEM_DS3505
ZBHH,2008-12-30 22:00,ZBHH 302200Z AUTO 08004KT 6SM M20/M23 A3047 RMK T12001230 IEM_DS3505
ZBHH,2008-12-30 23:00,ZBHH 302300Z AUTO 11004KT 6SM M20/M23 A3047 RMK T12001230 IEM_DS3505
